station,valid,lon,lat,elevation,tmpf,dwpf,relh,drct,sknt,p01i,alti,mslp,vsby,gust,skyc1,skyc2,skyc3,skyc4,skyl1,skyl2,skyl3,skyl4,wxcodes,ice_accretion_1hr,ice_accretion_3hr,ice_accretion_6hr,peak_wind_gust,peak_wind_drct,peak_wind_time,feel,metar,snowdepth
10U,2024-01-03 00:00,-116.1876,41.9532,1637.00,37.40,23.00,55.68,190.00,6.00,0.00,30.09,M,10.00,M,CLR,M,M,M,M,M,M,M,M,M,M,M,M,M,M,32.03,K10U 030000Z AUTO 19006KT 10SM CLR 03/M05 A3009 RMK AO2,M
BVU,2024-01-03 00:15,-114.8611,35.9475,671.00,57.20,26.60,30.69,40.00,4.00,0.00,30.14,M,10.00,M,CLR,M,M,M,M,M,M,M,M,M,M,M,M,M,M,57.20,KBVU 030015Z AUTO 04004KT 10SM CLR 14/M03 A3014 RMK AO2,M
CXP,2024-01-03 00:15,-119.7326,39.1923,1431.00,37.40,24.80,60.04,70.00,10.00,0.00,30.04,M,10.00,M,SCT,M,M,M,8000.00,M,M,M,M,M,M,M,M,M,M,29.74,KCXP 030015Z AUTO 07010KT 10SM SCT080 03/M04 A3004 RMK AO2,M
RTS,2024-01-03 00:15,-119.8764,39.6682,1539.00,41.00,26.60,56.22,0.00,0.00,0.00,30.02,M,10.00,M,OVC,M,M,M,7500.00,M,M,M,M,M,M,M,M,M,M,41.00,KRTS 030015Z AUTO 00000KT 10SM OVC075 05/M03 A3002 RMK AO2,M
MEV,2024-01-03 00:15,-119.7500,38.9963,1441.42,39.20,24.80,55.95,350.00,10.00,0.00,30.01,M,10.00,M,CLR,M,M,M,M,M,M,M,M,M,M,M,M,M,M,32.00,KMEV 030015Z AUTO 35010KT 300V010 10SM CLR 04/M04 A3001 RMK AO2,M
BAM,2024-01-03 00:15,-116.8743,40.5990,1382.36,44.60,26.60,48.96,50.00,5.00,0.00,30.09,M,10.00,M,OVC,M,M,M,11000.00,M,M,M,M,M,M,M,M,M,M,41.36,KBAM 030015Z AUTO 05005KT 10SM OVC110 07/M03 A3009 RMK AO1,M
HTH,2024-01-03 00:15,-118.6315,38.5448,1282.89,44.60,23.00,42.14,0.00,0.00,0.00,30.06,M,10.00,M,CLR,M,M,M,M,M,M,M,M,M,M,M,M,M,M,44.60,KHTH 030015Z AUTO 00000KT 10SM CLR 07/M05 A3006 RMK A01,M
TMT,2024-01-03 00:15,-117.1971,39.4643,1749.34,39.60,19.20,43.49,180.00,3.00,0.00,30.09,M,10.00,M,BKN,BKN,M,M,7500.00,9000.00,M,M,M,M,M,M,M,M,M,37.38,KTMT 030015Z AUTO 18003KT 10SM BKN075 BKN090 04/M07 A3009 RMK AO2 T00421071,M
CXP,2024-01-03 00:30,-119.7326,39.1923,1431.00,35.60,24.80,64.46,80.00,10.00,0.00,30.04,M,10.00,M,SCT,M,M,M,8000.00,M,M,M,M,M,M,M,M,M,M,27.48,KCXP 030030Z AUTO 08010KT 10SM SCT080 02/M04 A3004 RMK AO2,M
HTH,2024-01-03 00:30,-118.6315,38.5448,1282.89,42.80,23.00,45.14,0.00,0.00,0.00,30.05,M,10.00,M,CLR,M,M,M,M,M,M,M,M,M,M,M,M,M,M,42.80,KHTH 030030Z AUTO 00000KT 10SM CLR 06/M05 A3005 RMK A01,M
BVU,2024-01-03 00:35,-114.8611,35.9475,671.00,55.40,26.60,32.76,30.00,5.00,0.00,30.14,M,10.00,M,CLR,M,M,M,M,M,M,M,M,M,M,M,M,M,M,55.40,KBVU 030035Z AUTO 03005KT 10SM CLR 13/M03 A3014 RMK AO2,M
RTS,2024-01-03 00:35,-119.8764,39.6682,1539.00,39.20,24.80,55.95,0.00,0.00,0.00,30.02,M,10.00,M,OVC,M,M,M,7500.00,M,M,M,M,M,M,M,M,M,M,39.20,KRTS 030035Z AUTO 00000KT 10SM OVC075 04/M04 A3002 RMK AO2,M
MEV,2024-01-03 00:35,-119.7500,38.9963,1441.42,37.40,24.80,60.04,350.00,10.00,0.00,30.00,M,10.00,M,CLR,M,M,M,M,M,M,M,M,M,M,M,M,M,M,29.74,KMEV 030035Z AUTO 35010KT 10SM CLR 03/M04 A3000 RMK AO2,M
BAM,2024-01-03 00:35,-116.8743,40.5990,1382.36,42.80,26.60,52.45,60.00,4.00,0.00,30.09,M,10.00,M,BKN,BKN,M,M,9000.00,11000.00,M,M,M,M,M,M,M,M,M,40.03,KBAM 030035Z AUTO 06004KT 10SM BKN090 BKN110 06/M03 A3009 RMK AO1,M
TMT,2024-01-03 00:35,-117.1971,39.4643,1749.34,39.00,19.00,44.14,180.00,4.00,0.00,30.08,M,10.00,M,BKN,BKN,M,M,7000.00,8000.00,M,M,M,M,M,M,M,M,M,35.59,KTMT 030035Z AUTO 18004KT 10SM BKN070 BKN080 04/M07 A3008 RMK AO2 T00391073,M
10U,2024-01-03 00:40,-116.1876,41.9532,1637.00,33.80,23.00,64.23,200.00,4.00,0.00,30.08,M,10.00,M,CLR,M,M,M,M,M,M,M,M,M,M,M,M,M,M,29.52,K10U 030040Z AUTO 20004KT 10SM CLR 01/M05 A3008 RMK AO2,M
P68,2024-01-03 00:53,-116.0056,39.6014,1993.00,40.00,18.00,40.67,140.00,11.00,0.00,30.08,1019.40,M,16.00,M,M,M,M,M,M,M,M,M,M,M,M,M,M,M,32.58,KP68 030053Z AUTO 14011G16KT 04/M08 A3008 RMK AO1 SLP194 T00441078,M
DRA,2024-01-03 00:53,-116.0278,36.6206,1009.00,51.00,26.00,37.55,250.00,4.00,0.00,30.12,1019.60,10.00,M,FEW,M,M,M,12000.00,M,M,M,M,M,M,M,M,M,M,51.00,KDRA 030053Z AUTO 25004KT 10SM FEW120 11/M03 A3012 RMK AO2 SLP196 T01061033,M
ELY,2024-01-03 00:53,-114.8453,39.2950,1909.00,37.00,13.00,36.79,180.00,8.00,0.00,30.14,1023.20,10.00,M,CLR,M,M,M,M,M,M,M,M,M,M,M,M,M,M,30.27,KELY 030053Z AUTO 18008KT 10SM CLR 03/M11 A3014 RMK AO2 SLP232 T00281106,M
VGT,2024-01-03 00:53,-115.1933,36.2111,667.00,58.00,24.00,26.77,0.00,0.00,0.00,30.13,1022.20,10.00,M,CLR,M,M,M,M,M,M,M,M,M,M,M,M,M,M,58.00,KVGT 030053Z 00000KT 10SM CLR 14/M04 A3013 RMK AO2 SLP222 T01441044,M
LOL,2024-01-03 00:53,-118.5701,40.0684,1192.43,37.00,26.00,64.11,50.00,3.00,0.00,30.04,1020.40,10.00,M,CLR,M,M,M,M,M,M,M,M,M,M,M,M,M,M,34.40,KLOL 030053Z AUTO 05003KT 10SM CLR 03/M03 A3004 RMK AO2 SLP204 T00281033,M
BVU,2024-01-03 00:55,-114.8611,35.9475,671.00,53.60,24.80,32.46,50.00,5.00,0.00,30.14,M,10.00,M,CLR,M,M,M,M,M,M,M,M,M,M,M,M,M,M,53.60,KBVU 030055Z AUTO 05005KT 10SM CLR 12/M04 A3014 RMK AO2,M
CXP,2024-01-03 00:55,-119.7326,39.1923,1431.00,35.60,24.80,64.46,60.00,5.00,0.00,30.04,M,10.00,15.00,FEW,M,M,M,8000.00,M,M,M,M,M,M,M,M,M,M,30.67,KCXP 030055Z AUTO 06005G15KT 10SM FEW080 02/M04 A3004 RMK AO2,M
INS,2024-01-03 00:55,-115.6733,36.5872,955.00,53.40,20.30,27.06,120.00,5.00,0.00,30.14,1020.30,10.00,M,BKN,OVC,M,M,13000.00,15000.00,M,M,M,M,M,M,M,M,M,53.40,KINS 030055Z AUTO 12005KT 10SM BKN130 OVC150 12/M06 A3014 RMK AO2 SLP203 T01191065 $,M
RNO,2024-01-03 00:55,-119.7711,39.4839,1341.00,39.00,27.00,61.78,0.00,0.00,0.00,30.00,1016.90,10.00,M,BKN,BKN,M,M,9000.00,22000.00,M,M,M,M,M,M,M,M,M,39.00,KRNO 030055Z 00000KT 10SM BKN090 BKN220 04/M03 A3000 RMK AO2 SLP169 T00391028,M
LSV,2024-01-03 00:55,-115.0343,36.2362,570.00,54.70,23.00,28.92,60.00,5.00,0.00,30.11,1019.70,10.00,M,BKN,M,M,M,18000.00,M,M,M,M,M,M,M,M,M,M,54.70,KLSV 030055Z AUTO 06005KT 10SM BKN180 13/M05 A3011 RMK AO2 SLP197 T01261050 $,M
RTS,2024-01-03 00:55,-119.8764,39.6682,1539.00,37.40,24.80,60.04,290.00,5.00,0.00,30.02,M,10.00,M,OVC,M,M,M,7000.00,M,M,M,M,M,M,M,M,M,M,32.81,KRTS 030055Z AUTO 29005KT 10SM OVC070 03/M04 A3002 RMK AO2,M
MEV,2024-01-03 00:55,-119.7500,38.9963,1441.42,39.20,23.00,51.89,M,5.00,0.00,30.01,M,10.00,11.00,SCT,M,M,M,8000.00,M,M,M,M,M,M,M,M,M,M,34.95,KMEV 030055Z AUTO VRB05G11KT 10SM SCT080 04/M05 A3001 RMK AO2,M
BAM,2024-01-03 00:55,-116.8743,40.5990,1382.36,42.80,26.60,52.45,50.00,5.00,0.00,30.08,M,10.00,M,OVC,M,M,M,9000.00,M,M,M,M,M,M,M,M,M,M,39.22,KBAM 030055Z AUTO 05005KT 10SM OVC090 06/M03 A3008 RMK AO1,M
HTH,2024-01-03 00:55,-118.6315,38.5448,1282.89,37.40,23.00,55.68,150.00,4.00,0.00,30.04,M,10.00,M,CLR,M,M,M,M,M,M,M,M,M,M,M,M,M,M,33.73,KHTH 030055Z AUTO 15004KT 10SM CLR 03/M05 A3004 RMK A01,M
TMT,2024-01-03 00:55,-117.1971,39.4643,1749.34,38.00,18.00,43.97,150.00,4.00,0.00,30.08,M,10.00,M,SCT,M,M,M,8000.00,M,M,M,M,M,M,M,M,M,M,34.43,KTMT 030055Z AUTO 15004KT 10SM SCT080 03/M08 A3008 RMK AO2 T00331078,M
EKO,2024-01-03 00:56,-115.7860,40.8242,1367.00,37.00,24.00,58.99,0.00,0.00,0.00,30.08,1021.30,10.00,M,CLR,M,M,M,M,M,M,M,M,M,M,M,M,M,M,37.00,KEKO 030056Z AUTO 00000KT 10SM CLR 03/M04 A3008 RMK AO2 SLP213 T00281044 PWINO $,M
WMC,2024-01-03 00:56,-117.8072,40.9019,1315.00,41.00,26.00,54.84,50.00,4.00,0.00,30.05,1019.80,10.00,M,OVC,M,M,M,6000.00,M,M,M,M,M,M,M,M,M,M,37.93,KWMC 030056Z AUTO 05004KT 10SM OVC060 05/M03 A3005 RMK AO2 SLP198 T00501033,M
NFL,2024-01-03 00:56,-118.7010,39.4166,1199.00,36.00,26.00,66.69,20.00,7.00,0.00,30.02,1013.70,10.00,M,CLR,M,M,M,M,M,M,M,M,M,M,M,M,M,M,29.65,KNFL 030056Z AUTO 02007KT 10SM CLR 02/M03 A3002 RMK AO2 SLP137 T00221033 $,M
HND,2024-01-03 00:56,-115.1344,35.9729,742.79,55.00,25.00,31.11,30.00,4.00,0.00,30.16,1023.20,10.00,M,CLR,M,M,M,M,M,M,M,M,M,M,M,M,M,M,55.00,KHND 030056Z 03004KT 10SM CLR 13/M04 A3016 RMK AO2 SLP232 T01281039,M
TPH,2024-01-03 00:56,-117.0904,38.0505,1654.00,39.00,21.00,48.06,150.00,6.00,0.00,30.13,1021.90,10.00,M,CLR,M,M,M,M,M,M,M,M,M,M,M,M,M,M,33.96,KTPH 030056Z AUTO 15006KT 10SM CLR 04/M06 A3013 RMK AO2 SLP219 T00391061,M
LAS,2024-01-03 00:56,-115.1634,36.0719,663.00,57.00,24.00,27.75,80.00,5.00,0.00,30.13,1020.30,10.00,M,SCT,BKN,M,M,15000.00,20000.00,M,M,M,M,M,M,M,M,M,57.00,KLAS 030056Z 08005KT 10SM SCT150 BKN200 14/M04 A3013 RMK AO2 SLP203 T01391044,M
10U,2024-01-03 01:00,-116.1876,41.9532,1637.00,35.60,23.00,59.79,180.00,4.00,0.00,30.08,M,10.00,M,CLR,M,M,M,M,M,M,M,M,M,M,M,M,M,M,31.62,K10U 030100Z AUTO 18004KT 10SM CLR 02/M05 A3008 RMK AO2,M
05U,2024-01-03 01:00,-116.0051,39.6042,1811.23,39.20,17.60,41.24,280.00,9.00,0.00,30.10,M,10.00,M,M,M,M,M,M,M,M,M,M,M,M,M,M,M,M,32.47,K05U 030100Z AUTO 28009KT 10SM 04/M08 A3010 RMK A01,M
BVU,2024-01-03 01:15,-114.8611,35.9475,671.00,53.60,24.80,32.46,50.00,6.00,0.00,30.14,M,10.00,M,CLR,M,M,M,M,M,M,M,M,M,M,M,M,M,M,53.60,KBVU 030115Z AUTO 05006KT 10SM CLR 12/M04 A3014 RMK AO2,M
CXP,2024-01-03 01:15,-119.7326,39.1923,1431.00,33.80,24.80,69.25,350.00,4.00,0.00,30.03,M,10.00,M,CLR,M,M,M,M,M,M,M,M,M,M,M,M,M,M,29.52,KCXP 030115Z AUTO 35004KT 10SM CLR 01/M04 A3003 RMK AO2,M
RTS,2024-01-03 01:15,-119.8764,39.6682,1539.00,35.60,24.80,64.46,280.00,5.00,0.00,30.02,M,10.00,M,OVC,M,M,M,7000.00,M,M,M,M,M,M,M,M,M,M,30.67,KRTS 030115Z AUTO 28005KT 10SM OVC070 02/M04 A3002 RMK AO2,M
MEV,2024-01-03 01:15,-119.7500,38.9963,1441.42,44.60,21.20,39.06,170.00,20.00,0.00,29.99,M,10.00,M,BKN,M,M,M,8000.00,M,M,M,M,M,M,M,M,M,M,35.87,KMEV 030115Z AUTO 17020KT 10SM BKN080 07/M06 A2999 RMK AO2,M
BAM,2024-01-03 01:15,-116.8743,40.5990,1382.36,42.80,26.60,52.45,60.00,6.00,0.00,30.07,M,10.00,M,BKN,M,M,M,8000.00,M,M,M,M,M,M,M,M,M,M,38.54,KBAM 030115Z AUTO 06006KT 10SM BKN080 06/M03 A3007 RMK AO1,M
HTH,2024-01-03 01:15,-118.6315,38.5448,1282.89,37.40,23.00,55.68,200.00,4.00,0.00,30.04,M,10.00,M,CLR,M,M,M,M,M,M,M,M,M,M,M,M,M,M,33.73,KHTH 030115Z AUTO 20004KT 10SM CLR 03/M05 A3004 RMK A01,M
TMT,2024-01-03 01:15,-117.1971,39.4643,1749.34,35.80,17.60,47.14,0.00,0.00,0.00,30.07,M,10.00,M,CLR,M,M,M,M,M,M,M,M,M,M,M,M,M,M,35.80,KTMT 030115Z AUTO 00000KT 10SM CLR 02/M08 A3007 RMK AO2 T00211080,M
10U,2024-01-03 01:20,-116.1876,41.9532,1637.00,35.60,24.80,64.46,200.00,4.00,0.00,30.07,M,10.00,M,CLR,M,M,M,M,M,M,M,M,M,M,M,M,M,M,31.62,K10U 030120Z AUTO 20004KT 10SM CLR 02/M04 A3007 RMK AO2,M
05U,2024-01-03 01:20,-116.0051,39.6042,1811.23,37.40,17.60,44.25,330.00,7.00,0.00,30.11,M,10.00,M,M,M,M,M,M,M,M,M,M,M,M,M,M,M,M,31.36,K05U 030120Z AUTO 33007KT 10SM 03/M08 A3011 RMK A01,M
BVU,2024-01-03 01:35,-114.8611,35.9475,671.00,53.60,26.60,34.98,50.00,5.00,0.00,30.14,M,10.00,M,CLR,M,M,M,M,M,M,M,M,M,M,M,M,M,M,53.60,KBVU 030135Z AUTO 05005KT 10SM CLR 12/M03 A3014 RMK AO2,M
CXP,2024-01-03 01:35,-119.7326,39.1923,1431.00,33.80,24.80,69.25,0.00,0.00,0.00,30.02,M,10.00,M,CLR,M,M,M,M,M,M,M,M,M,M,M,M,M,M,33.80,KCXP 030135Z AUTO 00000KT 10SM CLR 01/M04 A3002 RMK AO2,M
RTS,2024-01-03 01:35,-119.8764,39.6682,1539.00,35.60,24.80,64.46,0.00,0.00,0.00,30.02,M,10.00,M,BKN,OVC,M,M,7000.00,7500.00,M,M,M,M,M,M,M,M,M,35.60,KRTS 030135Z AUTO 00000KT 10SM BKN070 OVC075 02/M04 A3002 RMK AO2,M
MEV,2024-01-03 01:35,-119.7500,38.9963,1441.42,44.60,21.20,39.06,170.00,19.00,0.00,29.98,M,10.00,25.00,BKN,BKN,M,M,7500.00,8500.00,M,M,M,M,M,M,M,M,M,36.10,KMEV 030135Z AUTO 17019G25KT 10SM BKN075 BKN085 07/M06 A2998 RMK AO2,M
BAM,2024-01-03 01:35,-116.8743,40.5990,1382.36,41.00,26.60,56.22,50.00,6.00,0.00,30.07,M,10.00,M,SCT,OVC,M,M,8000.00,8500.00,M,M,M,M,M,M,M,M,M,36.37,KBAM 030135Z AUTO 05006KT 10SM SCT080 OVC085 05/M03 A3007 RMK AO1,M
HTH,2024-01-03 01:35,-118.6315,38.5448,1282.89,39.20,23.00,51.89,190.00,5.00,0.00,30.04,M,10.00,M,CLR,M,M,M,M,M,M,M,M,M,M,M,M,M,M,34.95,KHTH 030135Z AUTO 19005KT 10SM CLR 04/M05 A3004 RMK A01,M
TMT,2024-01-03 01:35,-117.1971,39.4643,1749.34,35.40,16.70,46.06,200.00,3.00,0.00,30.07,M,10.00,M,CLR,M,M,M,M,M,M,M,M,M,M,M,M,M,M,32.58,KTMT 030135Z AUTO 20003KT 10SM CLR 02/M08 A3007 RMK AO2 T00191085,M
10U,2024-01-03 01:40,-116.1876,41.9532,1637.00,35.60,23.00,59.79,160.00,6.00,0.00,30.06,M,10.00,M,SCT,M,M,M,11000.00,M,M,M,M,M,M,M,M,M,M,29.87,K10U 030140Z AUTO 16006KT 10SM SCT110 02/M05 A3006 RMK AO2,M
P68,2024-01-03 01:53,-116.0056,39.6014,1993.00,35.00,17.00,47.41,130.00,5.00,0.00,30.08,1020.30,M,M,M,M,M,M,M,M,M,M,M,M,M,M,M,M,M,29.96,KP68 030153Z AUTO 13005KT 02/M08 A3008 RMK AO1 SLP203 T00171083,M
DRA,2024-01-03 01:53,-116.0278,36.6206,1009.00,49.00,26.00,40.45,180.00,3.00,0.00,30.14,1020.30,10.00,M,CLR,M,M,M,M,M,M,M,M,M,M,M,M,M,M,48.12,KDRA 030153Z AUTO 18003KT 10SM CLR 09/M03 A3014 RMK AO2 SLP203 T00941033,M
ELY,2024-01-03 01:53,-114.8453,39.2950,1909.00,32.00,13.00,44.90,210.00,8.00,0.00,30.11,1023.40,10.00,M,CLR,M,M,M,M,M,M,M,M,M,M,M,M,M,M,24.11,KELY 030153Z AUTO 21008KT 10SM CLR 00/M11 A3011 RMK AO2 SLP234 T00001106,M
VGT,2024-01-03 01:53,-115.1933,36.2111,667.00,57.00,25.00,28.93,0.00,0.00,0.00,30.14,1022.20,10.00,M,CLR,M,M,M,M,M,M,M,M,M,M,M,M,M,M,57.00,KVGT 030153Z 00000KT 10SM CLR 14/M04 A3014 RMK AO2 SLP222 T01391039,M
LOL,2024-01-03 01:53,-118.5701,40.0684,1192.43,28.00,20.00,71.56,290.00,5.00,0.00,30.03,1021.00,10.00,M,CLR,M,M,M,M,M,M,M,M,M,M,M,M,M,M,21.64,KLOL 030153Z AUTO 29005KT 10SM CLR M02/M07 A3003 RMK AO2 SLP210 T10221067,M
BVU,2024-01-03 01:55,-114.8611,35.9475,671.00,53.60,26.60,34.98,60.00,5.00,0.00,30.14,M,10.00,M,CLR,M,M,M,M,M,M,M,M,M,M,M,M,M,M,53.60,KBVU 030155Z AUTO 06005KT 10SM CLR 12/M03 A3014 RMK AO2,M
CXP,2024-01-03 01:55,-119.7326,39.1923,1431.00,32.00,24.80,74.44,0.00,0.00,0.00,30.02,M,10.00,M,CLR,M,M,M,M,M,M,M,M,M,M,M,M,M,M,32.00,KCXP 030155Z AUTO 00000KT 10SM CLR M00/M04 A3002 RMK AO2,M
INS,2024-01-03 01:55,-115.6733,36.5872,955.00,52.70,20.50,28.00,0.00,0.00,0.00,30.15,1020.60,10.00,M,SCT,OVC,M,M,12000.00,15000.00,M,M,M,M,M,M,M,M,M,52.70,KINS 030155Z AUTO 00000KT 10SM SCT120 OVC150 12/M06 A3015 RMK AO2 SLP206 T01151064 $,M
RNO,2024-01-03 01:55,-119.7711,39.4839,1341.00,36.00,26.00,66.69,0.00,0.00,0.00,30.01,1017.50,10.00,M,BKN,BKN,M,M,8500.00,22000.00,M,M,M,M,M,M,M,M,M,36.00,KRNO 030155Z 00000KT 10SM BKN085 BKN220 02/M03 A3001 RMK AO2 SLP175 T00221033,M
LSV,2024-01-03 01:55,-115.0343,36.2362,570.00,52.70,24.40,33.00,60.00,5.00,0.00,30.11,1019.90,10.00,M,CLR,M,M,M,M,M,M,M,M,M,M,M,M,M,M,52.70,KLSV 030155Z AUTO 06005KT 10SM CLR 12/M04 A3011 RMK AO2 SLP199 T01151042 $,M
RTS,2024-01-03 01:55,-119.8764,39.6682,1539.00,35.60,24.80,64.46,340.00,5.00,0.00,30.02,M,10.00,M,OVC,M,M,M,6500.00,M,M,M,M,M,M,M,M,M,M,30.67,KRTS 030155Z AUTO 34005KT 10SM OVC065 02/M04 A3002 RMK AO2,M
MEV,2024-01-03 01:55,-119.7500,38.9963,1441.42,44.60,21.20,39.06,170.00,16.00,0.00,29.98,M,10.00,24.00,BKN,M,M,M,8000.00,M,M,M,M,M,M,M,M,M,M,36.84,KMEV 030155Z AUTO 17016G24KT 10SM BKN080 07/M06 A2998 RMK AO2,M
BAM,2024-01-03 01:55,-116.8743,40.5990,1382.36,41.00,26.60,56.22,70.00,6.00,0.00,30.06,M,10.00,M,BKN,OVC,M,M,7000.00,9000.00,M,M,M,M,M,M,M,M,M,36.37,KBAM 030155Z AUTO 07006KT 10SM BKN070 OVC090 05/M03 A3006 RMK AO1,M
HTH,2024-01-03 01:55,-118.6315,38.5448,1282.89,39.20,21.20,48.10,120.00,5.00,0.00,30.03,M,10.00,M,CLR,M,M,M,M,M,M,M,M,M,M,M,M,M,M,34.95,KHTH 030155Z AUTO 12005KT 10SM CLR 04/M06 A3003 RMK A01,M
TMT,2024-01-03 01:55,-117.1971,39.4643,1749.34,31.00,15.80,52.85,150.00,6.00,0.00,30.06,M,10.00,M,CLR,M,M,M,M,M,M,M,M,M,M,M,M,M,M,24.33,KTMT 030155Z AUTO 15006KT 10SM CLR 00/M09 A3006 RMK AO2 T10051090,M
05U,2024-01-03 01:55,-116.0051,39.6042,1811.23,35.60,15.80,43.95,0.00,0.00,0.00,30.11,M,10.00,M,M,M,M,M,M,M,M,M,M,M,M,M,M,M,M,35.60,K05U 030155Z AUTO 00000KT 10SM 02/M09 A3011 RMK A01,M
EKO,2024-01-03 01:56,-115.7860,40.8242,1367.00,35.00,24.00,63.85,90.00,5.00,0.00,30.07,1021.40,10.00,M,SCT,M,M,M,11000.00,M,M,M,M,M,M,M,M,M,M,29.96,KEKO 030156Z AUTO 09005KT 10SM SCT110 02/M04 A3007 RMK AO2 SLP214 T00171044 PWINO FZRANO $,M
WMC,2024-01-03 01:56,-117.8072,40.9019,1315.00,38.00,25.00,59.13,70.00,7.00,0.00,30.03,1019.40,10.00,M,SCT,M,M,M,6000.00,M,M,M,M,M,M,M,M,M,M,32.09,KWMC 030156Z AUTO 07007KT 050V110 10SM SCT060 03/M04 A3003 RMK AO2 SLP194 T00331039,M
NFL,2024-01-03 01:56,-118.7010,39.4166,1199.00,30.00,24.00,78.07,360.00,5.00,0.00,30.02,1013.70,10.00,M,CLR,M,M,M,M,M,M,M,M,M,M,M,M,M,M,24.02,KNFL 030156Z AUTO 36005KT 10SM CLR M01/M04 A3002 RMK AO2 SLP137 T10111044 $,M
HND,2024-01-03 01:56,-115.1344,35.9729,742.79,54.00,25.00,32.26,320.00,4.00,0.00,30.16,1023.50,10.00,M,CLR,M,M,M,M,M,M,M,M,M,M,M,M,M,M,54.00,KHND 030156Z 32004KT 10SM CLR 12/M04 A3016 RMK AO2 SLP235 T01221039,M
TPH,2024-01-03 01:56,-117.0904,38.0505,1654.00,33.00,20.00,58.41,160.00,4.00,0.00,30.13,1022.80,10.00,M,CLR,M,M,M,M,M,M,M,M,M,M,M,M,M,M,28.59,KTPH 030156Z AUTO 16004KT 10SM CLR 01/M07 A3013 RMK AO2 SLP228 T00061067,M
LAS,2024-01-03 01:56,-115.1634,36.0719,663.00,56.00,25.00,30.00,0.00,0.00,0.00,30.14,1020.50,10.00,M,BKN,BKN,M,M,15000.00,20000.00,M,M,M,M,M,M,M,M,M,56.00,KLAS 030156Z 00000KT 10SM BKN150 BKN200 13/M04 A3014 RMK AO2 SLP205 T01331039,M
10U,2024-01-03 02:00,-116.1876,41.9532,1637.00,33.80,23.00,64.23,200.00,5.00,0.00,30.06,M,10.00,M,BKN,M,M,M,10000.00,M,M,M,M,M,M,M,M,M,M,28.53,K10U 030200Z AUTO 20005KT 10SM BKN100 01/M05 A3006 RMK AO2,M
BVU,2024-01-03 02:15,-114.8611,35.9475,671.00,53.60,26.60,34.98,70.00,4.00,0.00,30.14,M,10.00,M,CLR,M,M,M,M,M,M,M,M,M,M,M,M,M,M,53.60,KBVU 030215Z AUTO 07004KT 10SM CLR 12/M03 A3014 RMK AO2,M
CXP,2024-01-03 02:15,-119.7326,39.1923,1431.00,32.00,24.80,74.44,0.00,0.00,0.00,30.02,M,10.00,M,BKN,M,M,M,7500.00,M,M,M,M,M,M,M,M,M,M,32.00,KCXP 030215Z AUTO 00000KT 10SM BKN075 00/M04 A3002 RMK AO2,M
RTS,2024-01-03 02:15,-119.8764,39.6682,1539.00,37.40,24.80,60.04,300.00,7.00,0.00,30.02,M,10.00,M,OVC,M,M,M,6000.00,M,M,M,M,M,M,M,M,M,M,31.36,KRTS 030215Z AUTO 30007KT 10SM OVC060 03/M04 A3002 RMK AO2,M
MEV,2024-01-03 02:15,-119.7500,38.9963,1441.42,46.40,21.20,36.48,170.00,16.00,0.00,29.98,M,10.00,21.00,OVC,M,M,M,7500.00,M,M,M,M,M,M,M,M,M,M,39.19,KMEV 030215Z AUTO 17016G21KT 10SM OVC075 08/M06 A2998 RMK AO2,M
BAM,2024-01-03 02:15,-116.8743,40.5990,1382.36,39.20,26.60,60.29,100.00,6.00,0.00,30.06,M,10.00,M,SCT,BKN,M,M,7000.00,9000.00,M,M,M,M,M,M,M,M,M,34.20,KBAM 030215Z AUTO 10006KT 10SM SCT070 BKN090 04/M03 A3006 RMK AO1,M
HTH,2024-01-03 02:15,-118.6315,38.5448,1282.89,42.80,19.40,38.75,0.00,0.00,0.00,30.03,M,10.00,M,CLR,M,M,M,M,M,M,M,M,M,M,M,M,M,M,42.80,KHTH 030215Z AUTO 00000KT 10SM CLR 06/M07 A3003 RMK A01,M
TMT,2024-01-03 02:15,-117.1971,39.4643,1749.34,28.00,15.00,57.68,140.00,3.00,0.00,30.05,M,10.00,M,CLR,M,M,M,M,M,M,M,M,M,M,M,M,M,M,24.12,KTMT 030215Z AUTO 14003KT 10SM CLR M02/M09 A3005 RMK AO2 T10231094,M
10U,2024-01-03 02:20,-116.1876,41.9532,1637.00,32.00,23.00,69.04,0.00,0.00,0.00,30.06,M,10.00,M,FEW,M,M,M,10000.00,M,M,M,M,M,M,M,M,M,M,32.00,K10U 030220Z AUTO 00000KT 10SM FEW100 00/M05 A3006 RMK AO2,M
05U,2024-01-03 02:30,-116.0051,39.6042,1811.23,37.40,17.60,44.25,320.00,9.00,0.00,30.10,M,10.00,M,M,M,M,M,M,M,M,M,M,M,M,M,M,M,M,30.23,K05U 030230Z AUTO 32009KT 10SM 03/M08 A3010 RMK A01,M
BVU,2024-01-03 02:35,-114.8611,35.9475,671.00,53.60,24.80,32.46,60.00,4.00,0.00,30.14,M,10.00,M,CLR,M,M,M,M,M,M,M,M,M,M,M,M,M,M,53.60,KBVU 030235Z AUTO 06004KT 10SM CLR 12/M04 A3014 RMK AO2,M
CXP,2024-01-03 02:35,-119.7326,39.1923,1431.00,32.00,24.80,74.44,0.00,0.00,0.00,30.03,M,10.00,M,OVC,M,M,M,7000.00,M,M,M,M,M,M,M,M,M,M,32.00,KCXP 030235Z AUTO 00000KT 10SM OVC070 00/M04 A3003 RMK AO2,M
RTS,2024-01-03 02:35,-119.8764,39.6682,1539.00,41.00,24.80,52.17,240.00,11.00,0.00,30.01,M,10.00,22.00,OVC,M,M,M,6000.00,M,M,M,M,M,M,M,M,M,M,33.84,KRTS 030235Z AUTO 24011G22KT 10SM OVC060 05/M04 A3001 RMK AO2,M
MEV,2024-01-03 02:35,-119.7500,38.9963,1441.42,46.40,19.40,33.79,200.00,13.00,0.00,29.99,M,10.00,22.00,OVC,M,M,M,7000.00,M,M,M,M,M,M,M,M,M,M,40.02,KMEV 030235Z AUTO 20013G22KT 10SM OVC070 08/M07 A2999 RMK AO2,M
BAM,2024-01-03 02:35,-116.8743,40.5990,1382.36,37.40,24.80,60.04,70.00,6.00,0.00,30.04,M,10.00,M,SCT,M,M,M,9000.00,M,M,M,M,M,M,M,M,M,M,32.03,KBAM 030235Z AUTO 07006KT 10SM SCT090 03/M04 A3004 RMK AO1,M
HTH,2024-01-03 02:35,-118.6315,38.5448,1282.89,41.00,19.40,41.54,130.00,12.00,0.00,30.01,M,10.00,M,CLR,M,M,M,M,M,M,M,M,M,M,M,M,M,M,33.46,KHTH 030235Z AUTO 13012KT 10SM CLR 05/M07 A3001 RMK A01,M
TMT,2024-01-03 02:35,-117.1971,39.4643,1749.34,31.60,16.00,52.03,250.00,5.00,0.00,30.04,M,10.00,M,CLR,M,M,M,M,M,M,M,M,M,M,M,M,M,M,25.92,KTMT 030235Z AUTO 25005KT 10SM CLR 00/M09 A3004 RMK AO2 T10021089,M
05U,2024-01-03 02:40,-116.0051,39.6042,1811.23,37.40,17.60,44.25,320.00,9.00,0.00,30.09,M,10.00,M,M,M,M,M,M,M,M,M,M,M,M,M,M,M,M,30.23,K05U 030240Z AUTO 32009KT 10SM 03/M08 A3009 RMK A01,M
10U,2024-01-03 02:40,-116.1876,41.9532,1637.00,33.80,23.00,64.23,120.00,6.00,0.00,30.06,M,10.00,M,FEW,M,M,M,8000.00,M,M,M,M,M,M,M,M,M,M,27.70,K10U 030240Z AUTO 12006KT 10SM FEW080 01/M05 A3006 RMK AO2,M
P68,2024-01-03 02:53,-116.0056,39.6014,1993.00,37.00,18.00,45.73,170.00,9.00,0.00,30.06,1019.60,M,M,M,M,M,M,M,M,M,M,M,M,M,M,M,M,M,29.73,KP68 030253Z AUTO 17009KT 03/M08 A3006 RMK AO1 SLP196 T00281078 56013,M
DRA,2024-01-03 02:53,-116.0278,36.6206,1009.00,44.00,24.00,44.96,50.00,3.00,0.00,30.12,1019.70,10.00,M,CLR,M,M,M,M,M,M,M,M,M,M,M,M,M,M,42.41,KDRA 030253Z AUTO 05003KT 10SM CLR 07/M04 A3012 RMK AO2 SLP197 T00671044 58009,M
ELY,2024-01-03 02:53,-114.8453,39.2950,1909.00,34.00,14.00,43.30,230.00,11.00,0.00,30.13,1023.50,10.00,M,SCT,M,M,M,12000.00,M,M,M,M,M,M,M,M,M,M,24.99,KELY 030253Z AUTO 23011KT 10SM SCT120 01/M10 A3013 RMK AO2 SLP235 T00111100 55001,M
VGT,2024-01-03 02:53,-115.1933,36.2111,667.00,56.00,26.00,31.27,0.00,0.00,0.00,30.13,1022.30,10.00,M,CLR,M,M,M,M,M,M,M,M,M,M,M,M,M,M,56.00,KVGT 030253Z 00000KT 10SM CLR 13/M03 A3013 RMK AO2 SLP223 T01331033 56002,M
LOL,2024-01-03 02:53,-118.5701,40.0684,1192.43,31.00,23.00,71.89,0.00,0.00,0.00,30.01,1019.80,10.00,M,CLR,M,M,M,M,M,M,M,M,M,M,M,M,M,M,31.00,KLOL 030253Z AUTO 00000KT 10SM CLR M01/M05 A3001 RMK AO2 SLP198 T10061050 58013,M
BVU,2024-01-03 02:55,-114.8611,35.9475,671.00,53.60,24.80,32.46,70.00,5.00,0.00,30.14,M,10.00,M,CLR,M,M,M,M,M,M,M,M,M,M,M,M,M,M,53.60,KBVU 030255Z AUTO 07005KT 10SM CLR 12/M04 A3014 RMK AO2,M
CXP,2024-01-03 02:55,-119.7326,39.1923,1431.00,35.60,24.80,64.46,20.00,6.00,0.00,30.03,M,10.00,M,OVC,M,M,M,7000.00,M,M,M,M,M,M,M,M,M,M,29.87,KCXP 030255Z AUTO 02006KT 10SM OVC070 02/M04 A3003 RMK AO2,M
INS,2024-01-03 02:55,-115.6733,36.5872,955.00,48.70,19.40,30.99,120.00,5.00,0.00,30.13,1020.40,10.00,M,CLR,M,M,M,M,M,M,M,M,M,M,M,M,M,M,46.23,KINS 030255Z AUTO 12005KT 10SM CLR 09/M07 A3013 RMK AO2 SLP204 T00931070 55007 $,M
RNO,2024-01-03 02:55,-119.7711,39.4839,1341.00,38.00,27.00,64.24,120.00,9.00,0.00,30.00,1016.80,10.00,M,BKN,M,M,M,7500.00,M,M,M,M,M,M,M,M,M,M,30.97,KRNO 030255Z 12009KT 10SM BKN075 03/M03 A3000 RMK AO2 SLP168 T00331028 56009,M
RTS,2024-01-03 02:55,-119.8764,39.6682,1539.00,41.00,24.80,52.17,210.00,11.00,0.00,29.98,M,10.00,22.00,FEW,SCT,BKN,M,3900.00,6500.00,7500.00,M,M,M,M,M,M,M,M,33.84,KRTS 030255Z AUTO 21011G22KT 10SM FEW039 SCT065 BKN075 05/M04 A2998 RMK AO2,M
MEV,2024-01-03 02:55,-119.7500,38.9963,1441.42,44.60,23.00,42.14,270.00,16.00,0.00,29.99,M,10.00,23.00,OVC,M,M,M,7000.00,M,M,M,M,M,M,M,M,M,M,36.84,KMEV 030255Z AUTO 27016G23KT 10SM OVC070 07/M05 A2999 RMK AO2,M
BAM,2024-01-03 02:55,-116.8743,40.5990,1382.36,39.20,24.80,55.95,70.00,8.00,0.00,30.04,M,10.00,M,CLR,M,M,M,M,M,M,M,M,M,M,M,M,M,M,32.98,KBAM 030255Z AUTO 07008KT 10SM CLR 04/M04 A3004 RMK AO1,M
HTH,2024-01-03 02:55,-118.6315,38.5448,1282.89,41.00,19.40,41.54,0.00,0.00,0.00,30.03,M,10.00,11.00,CLR,M,M,M,M,M,M,M,M,M,M,M,M,M,M,41.00,KHTH 030255Z AUTO 00000G11KT 10SM CLR 05/M07 A3003 RMK A01,M
TMT,2024-01-03 02:55,-117.1971,39.4643,1749.34,27.70,16.70,62.87,270.00,6.00,0.00,30.04,M,10.00,M,CLR,M,M,M,M,M,M,M,M,M,M,M,M,M,M,20.35,KTMT 030255Z AUTO 27006KT 10SM CLR M02/M08 A3004 RMK AO2 T10241085,M
LSV,2024-01-03 02:55,-115.0343,36.2362,570.00,52.70,24.40,33.00,40.00,5.00,0.00,30.11,1019.90,10.00,M,CLR,M,M,M,M,M,M,M,M,M,M,M,M,M,M,52.70,KLSV 030255Z AUTO 04005KT 10SM CLR 12/M04 A3011 RMK AO2 SLP199 T01151042 55002 $,M
EKO,2024-01-03 02:56,-115.7860,40.8242,1367.00,34.00,24.00,66.45,50.00,5.00,0.00,30.06,1021.10,10.00,M,SCT,OVC,M,M,8000.00,9500.00,M,M,M,M,M,M,M,M,M,28.77,KEKO 030256Z AUTO 05005KT 10SM SCT080 OVC095 01/M04 A3006 RMK AO2 SLP211 T00111044 56011 PWINO FZRANO $,M
WMC,2024-01-03 02:56,-117.8072,40.9019,1315.00,38.00,26.00,61.64,60.00,9.00,0.00,30.02,1019.10,10.00,M,OVC,M,M,M,9000.00,M,M,M,M,M,M,M,M,M,M,30.97,KWMC 030256Z AUTO 06009KT 10SM OVC090 03/M03 A3002 RMK AO2 SLP191 T00331033 57013,M
NFL,2024-01-03 02:56,-118.7010,39.4166,1199.00,31.00,27.00,84.92,60.00,7.00,0.00,30.00,1012.90,10.00,M,CLR,M,M,M,M,M,M,M,M,M,M,M,M,M,M,23.56,KNFL 030256Z AUTO 06007KT 10SM CLR M01/M03 A3000 RMK AO2 SLP129 T10061028 58015 $,M
HND,2024-01-03 02:56,-115.1344,35.9729,742.79,51.00,25.00,36.03,0.00,0.00,0.00,30.16,1023.80,10.00,M,CLR,M,M,M,M,M,M,M,M,M,M,M,M,M,M,51.00,KHND 030256Z 00000KT 10SM CLR 11/M04 A3016 RMK AO2 SLP238 T01061039 53001,M
TPH,2024-01-03 02:56,-117.0904,38.0505,1654.00,30.00,19.00,63.18,150.00,5.00,0.00,30.10,1022.40,10.00,M,CLR,M,M,M,M,M,M,M,M,M,M,M,M,M,M,24.02,KTPH 030256Z AUTO 15005KT 10SM CLR M01/M07 A3010 RMK AO2 SLP224 T10111072 58010,M
LAS,2024-01-03 02:56,-115.1634,36.0719,663.00,55.00,26.00,32.42,0.00,0.00,0.00,30.14,1020.40,10.00,M,BKN,BKN,M,M,15000.00,20000.00,M,M,M,M,M,M,M,M,M,55.00,KLAS 030256Z 00000KT 10SM BKN150 BKN200 13/M03 A3014 RMK AO2 SLP204 T01281033 56002,M
10U,2024-01-03 03:00,-116.1876,41.9532,1637.00,35.60,21.20,55.41,130.00,6.00,0.00,30.05,M,10.00,M,BKN,M,M,M,9000.00,M,M,M,M,M,M,M,M,M,M,29.87,K10U 030300Z AUTO 13006KT 10SM BKN090 02/M06 A3005 RMK AO2,M
BVU,2024-01-03 03:15,-114.8611,35.9475,671.00,53.60,24.80,32.46,90.00,4.00,0.00,30.14,M,10.00,M,CLR,M,M,M,M,M,M,M,M,M,M,M,M,M,M,53.60,KBVU 030315Z AUTO 09004KT 10SM CLR 12/M04 A3014 RMK AO2,M
CXP,2024-01-03 03:15,-119.7326,39.1923,1431.00,42.80,26.60,52.45,230.00,11.00,0.00,30.02,M,10.00,20.00,FEW,OVC,M,M,6000.00,7000.00,M,M,M,M,M,M,M,M,M,36.11,KCXP 030315Z AUTO 23011G20KT 10SM FEW060 OVC070 06/M03 A3002 RMK AO2,M
RTS,2024-01-03 03:15,-119.8764,39.6682,1539.00,39.20,24.80,55.95,90.00,8.00,0.00,29.96,M,10.00,18.00,FEW,SCT,SCT,M,4200.00,5500.00,8000.00,M,M,M,M,M,M,M,M,32.98,KRTS 030315Z AUTO 09008G18KT 10SM FEW042 SCT055 SCT080 04/M04 A2996 RMK AO2,M
MEV,2024-01-03 03:15,-119.7500,38.9963,1441.42,44.60,23.00,42.14,190.00,10.00,0.00,30.02,M,10.00,21.00,FEW,BKN,OVC,M,5500.00,7000.00,11000.00,M,M,M,M,M,M,M,M,38.77,KMEV 030315Z AUTO 19010G21KT 10SM FEW055 BKN070 OVC110 07/M05 A3002 RMK AO2,M
BAM,2024-01-03 03:15,-116.8743,40.5990,1382.36,39.20,24.80,55.95,60.00,8.00,0.00,30.03,M,10.00,M,CLR,M,M,M,M,M,M,M,M,M,M,M,M,M,M,32.98,KBAM 030315Z AUTO 06008KT 10SM CLR 04/M04 A3003 RMK AO1,M
HTH,2024-01-03 03:15,-118.6315,38.5448,1282.89,39.20,21.20,48.10,150.00,5.00,0.00,30.01,M,10.00,M,CLR,M,M,M,M,M,M,M,M,M,M,M,M,M,M,34.95,KHTH 030315Z AUTO 15005KT 10SM CLR 04/M06 A3001 RMK A01,M
TMT,2024-01-03 03:15,-117.1971,39.4643,1749.34,26.60,16.00,63.82,0.00,0.00,0.00,30.04,M,10.00,M,CLR,M,M,M,M,M,M,M,M,M,M,M,M,M,M,26.60,KTMT 030315Z AUTO 00000KT 10SM CLR M03/M09 A3004 RMK AO2 T10301088,M
10U,2024-01-03 03:20,-116.1876,41.9532,1637.00,35.60,21.20,55.41,130.00,6.00,0.00,30.04,M,10.00,M,BKN,OVC,M,M,6500.00,9000.00,M,M,M,M,M,M,M,M,M,29.87,K10U 030320Z AUTO 13006KT 10SM BKN065 OVC090 02/M06 A3004 RMK AO2,M
BVU,2024-01-03 03:35,-114.8611,35.9475,671.00,53.60,24.80,32.46,0.00,0.00,0.00,30.14,M,10.00,M,CLR,M,M,M,M,M,M,M,M,M,M,M,M,M,M,53.60,KBVU 030335Z AUTO 00000KT 10SM CLR 12/M04 A3014 RMK AO2,M
CXP,2024-01-03 03:35,-119.7326,39.1923,1431.00,39.20,26.60,60.29,120.00,6.00,0.00,29.99,M,10.00,13.00,SCT,BKN,OVC,M,3100.00,4000.00,7000.00,M,-RA,M,M,M,M,M,M,34.20,KCXP 030335Z AUTO 12006G13KT 10SM -RA SCT031 BKN040 OVC070 04/M03 A2999 RMK AO2,M
RTS,2024-01-03 03:35,-119.8764,39.6682,1539.00,37.40,24.80,60.04,180.00,8.00,0.00,29.96,M,10.00,15.00,FEW,SCT,M,M,5500.00,11000.00,M,M,M,M,M,M,M,M,M,30.76,KRTS 030335Z AUTO 18008G15KT 10SM FEW055 SCT110 03/M04 A2996 RMK AO2,M
MEV,2024-01-03 03:35,-119.7500,38.9963,1441.42,41.00,26.60,56.22,150.00,21.00,0.00,29.96,M,10.00,33.00,FEW,SCT,BKN,M,4900.00,6000.00,7000.00,M,M,M,M,M,M,M,M,30.86,KMEV 030335Z AUTO 15021G33KT 10SM FEW049 SCT060 BKN070 05/M03 A2996 RMK AO2,M
BAM,2024-01-03 03:35,-116.8743,40.5990,1382.36,39.20,24.80,55.95,60.00,9.00,0.00,30.03,M,10.00,M,CLR,M,M,M,M,M,M,M,M,M,M,M,M,M,M,32.47,KBAM 030335Z AUTO 06009KT 10SM CLR 04/M04 A3003 RMK AO1,M
HTH,2024-01-03 03:35,-118.6315,38.5448,1282.89,35.60,19.40,51.33,240.00,3.00,0.00,30.01,M,10.00,M,CLR,M,M,M,M,M,M,M,M,M,M,M,M,M,M,32.80,KHTH 030335Z AUTO 24003KT 10SM CLR 02/M07 A3001 RMK A01,M
TMT,2024-01-03 03:35,-117.1971,39.4643,1749.34,23.50,14.40,67.72,0.00,0.00,0.00,30.03,M,10.00,M,CLR,M,M,M,M,M,M,M,M,M,M,M,M,M,M,23.50,KTMT 030335Z AUTO 00000KT 10SM CLR M05/M10 A3003 RMK AO2 T10471098,M
10U,2024-01-03 03:40,-116.1876,41.9532,1637.00,37.40,21.20,51.61,140.00,9.00,0.00,30.04,M,10.00,M,OVC,M,M,M,6500.00,M,M,M,M,M,M,M,M,M,M,30.23,K10U 030340Z AUTO 14009KT 10SM OVC065 03/M06 A3004 RMK AO2,M
P68,2024-01-03 03:53,-116.0056,39.6014,1993.00,38.00,18.00,43.97,140.00,12.00,0.00,30.03,1017.50,M,M,M,M,M,M,M,M,M,M,M,M,M,M,M,M,M,29.64,KP68 030353Z AUTO 14012KT 03/M08 A3003 RMK AO1 SLP175 T00331078,M
DRA,2024-01-03 03:53,-116.0278,36.6206,1009.00,40.00,23.00,50.30,70.00,4.00,0.00,30.12,1019.70,10.00,M,CLR,M,M,M,M,M,M,M,M,M,M,M,M,M,M,36.76,KDRA 030353Z AUTO 07004KT 10SM CLR 04/M05 A3012 RMK AO2 SLP197 T00441050,M
ELY,2024-01-03 03:53,-114.8453,39.2950,1909.00,31.00,13.00,46.75,210.00,7.00,0.00,30.10,1022.50,10.00,M,CLR,M,M,M,M,M,M,M,M,M,M,M,M,M,M,23.56,KELY 030353Z AUTO 21007KT 10SM CLR M01/M11 A3010 RMK AO2 SLP225 T10061106,M
VGT,2024-01-03 03:53,-115.1933,36.2111,667.00,52.00,27.00,37.72,0.00,0.00,0.00,30.12,1021.90,10.00,M,CLR,M,M,M,M,M,M,M,M,M,M,M,M,M,M,52.00,KVGT 030353Z 00000KT 10SM CLR 11/M03 A3012 RMK AO2 SLP219 T01111028,M
LOL,2024-01-03 03:53,-118.5701,40.0684,1192.43,24.00,17.00,74.26,180.00,3.00,0.00,29.99,1019.90,10.00,M,OVC,M,M,M,11000.00,M,M,M,M,M,M,M,M,M,M,19.54,KLOL 030353Z AUTO 18003KT 10SM OVC110 M04/M08 A2999 RMK AO2 SLP199 T10441083,M
BVU,2024-01-03 03:55,-114.8611,35.9475,671.00,51.80,24.80,34.69,100.00,4.00,0.00,30.12,M,10.00,M,CLR,M,M,M,M,M,M,M,M,M,M,M,M,M,M,51.80,KBVU 030355Z AUTO 10004KT 10SM CLR 11/M04 A3012 RMK AO2,M
CXP,2024-01-03 03:55,-119.7326,39.1923,1431.00,37.40,26.60,64.70,0.00,0.00,0.00,29.99,M,10.00,10.00,FEW,SCT,SCT,M,3200.00,4100.00,5500.00,M,M,M,M,M,M,M,M,37.40,KCXP 030355Z AUTO 00000G10KT 10SM FEW032 SCT041 SCT055 03/M03 A2999 RMK AO2,M
INS,2024-01-03 03:55,-115.6733,36.5872,955.00,45.30,18.50,33.89,290.00,4.00,0.00,30.12,1020.00,10.00,M,CLR,M,M,M,M,M,M,M,M,M,M,M,M,M,M,42.95,KINS 030355Z AUTO 29004KT 10SM CLR 07/M07 A3012 RMK AO2 SLP200 T00741075 $,M
RNO,2024-01-03 03:55,-119.7711,39.4839,1341.00,42.00,28.00,57.30,170.00,19.00,0.00,29.95,1014.60,10.00,27.00,BKN,BKN,M,M,6500.00,10000.00,M,M,M,M,M,M,37.00,170.00,2024-01-03 03:38,32.66,KRNO 030355Z 17019G27KT 10SM BKN065 BKN100 06/M02 A2995 RMK AO2 PK WND 17037/0338 SLP146 T00561022,M
RTS,2024-01-03 03:55,-119.8764,39.6682,1539.00,37.40,24.80,60.04,M,6.00,0.00,29.96,M,10.00,M,BKN,BKN,BKN,M,5500.00,10000.00,12000.00,M,M,M,M,M,M,M,M,32.03,KRTS 030355Z AUTO VRB06KT 10SM BKN055 BKN100 BKN120 03/M04 A2996 RMK AO2,M
MEV,2024-01-03 03:55,-119.7500,38.9963,1441.42,39.20,28.40,64.93,130.00,18.00,0.00,29.96,M,10.00,25.00,FEW,FEW,M,M,6500.00,8000.00,M,M,M,M,M,M,M,M,M,29.23,KMEV 030355Z AUTO 13018G25KT 10SM FEW065 FEW080 04/M02 A2996 RMK AO2,M
HTH,2024-01-03 03:55,-118.6315,38.5448,1282.89,39.20,19.40,44.55,110.00,11.00,0.00,30.00,M,10.00,M,CLR,M,M,M,M,M,M,M,M,M,M,M,M,M,M,31.57,KHTH 030355Z AUTO 11011KT 10SM CLR 04/M07 A3000 RMK A01,M
BAM,2024-01-03 03:55,-116.8743,40.5990,1382.36,39.20,24.80,55.95,60.00,9.00,0.00,30.03,M,10.00,M,SCT,M,M,M,9000.00,M,M,M,M,M,M,M,M,M,M,32.47,KBAM 030355Z AUTO 06009KT 10SM SCT090 04/M04 A3003 RMK AO1,M
TMT,2024-01-03 03:55,-117.1971,39.4643,1749.34,23.50,14.00,66.54,150.00,4.00,0.00,30.03,M,10.00,M,CLR,M,M,M,M,M,M,M,M,M,M,M,M,M,M,17.49,KTMT 030355Z AUTO 15004KT 10SM CLR M05/M10 A3003 RMK AO2 T10471100,M
EKO,2024-01-03 03:56,-115.7860,40.8242,1367.00,33.00,23.00,66.32,80.00,6.00,0.00,30.04,1020.20,10.00,M,OVC,M,M,M,7500.00,M,M,M,M,M,M,M,M,M,M,26.73,KEKO 030356Z AUTO 08006KT 10SM OVC075 01/M05 A3004 RMK AO2 SLP202 T00061050 PWINO FZRANO $,M
WMC,2024-01-03 03:56,-117.8072,40.9019,1315.00,35.00,25.00,66.57,80.00,11.00,0.00,29.98,1018.00,10.00,M,FEW,M,M,M,8500.00,M,M,M,M,M,M,M,M,M,M,26.26,KWMC 030356Z AUTO 08011KT 10SM FEW085 02/M04 A2998 RMK AO2 SLP180 T00171039,M
NFL,2024-01-03 03:56,-118.7010,39.4166,1199.00,30.00,26.00,84.85,280.00,7.00,0.00,30.00,1013.10,10.00,M,OVC,M,M,M,10000.00,M,M,M,M,M,M,M,M,M,M,22.34,KNFL 030356Z AUTO 28007KT 10SM OVC100 M01/M03 A3000 RMK AO2 SLP131 T10111033 $,M
HND,2024-01-03 03:56,-115.1344,35.9729,742.79,46.00,25.00,43.44,180.00,4.00,0.00,30.14,1023.00,10.00,M,CLR,M,M,M,M,M,M,M,M,M,M,M,M,M,M,43.77,KHND 030356Z 18004KT 10SM CLR 08/M04 A3014 RMK AO2 SLP230 T00781039,M
TPH,2024-01-03 03:56,-117.0904,38.0505,1654.00,30.00,19.00,63.18,140.00,5.00,0.00,30.08,1021.20,10.00,M,CLR,M,M,M,M,M,M,M,M,M,M,M,M,M,M,24.02,KTPH 030356Z AUTO 14005KT 10SM CLR M01/M07 A3008 RMK AO2 SLP212 T10111072,M
LAS,2024-01-03 03:56,-115.1634,36.0719,663.00,53.00,25.00,33.46,0.00,0.00,0.00,30.12,1019.80,10.00,M,SCT,BKN,M,M,15000.00,20000.00,M,M,M,M,M,M,M,M,M,53.00,KLAS 030356Z 00000KT 10SM SCT150 BKN200 12/M04 A3012 RMK AO2 SLP198 T01171039,M
10U,2024-01-03 04:00,-116.1876,41.9532,1637.00,37.40,21.20,51.61,120.00,8.00,0.00,30.03,M,10.00,14.00,OVC,M,M,M,7000.00,M,M,M,M,M,M,M,M,M,M,30.76,K10U 030400Z AUTO 12008G14KT 10SM OVC070 03/M06 A3003 RMK AO2,M
05U,2024-01-03 04:05,-116.0051,39.6042,1811.23,37.40,17.60,44.25,300.00,11.00,0.00,30.05,M,10.00,M,M,M,M,M,M,M,M,M,M,M,M,M,M,M,M,29.29,K05U 030405Z AUTO 30011KT 10SM 03/M08 A3005 RMK A01,M
CXP,2024-01-03 04:10,-119.7326,39.1923,1431.00,39.20,26.60,60.29,170.00,14.00,0.00,29.98,M,10.00,20.00,CLR,M,M,M,M,M,M,M,M,M,M,M,M,M,M,30.44,KCXP 030410Z AUTO 17014G20KT 10SM CLR 04/M03 A2998 RMK AO2,M
BVU,2024-01-03 04:15,-114.8611,35.9475,671.00,50.00,24.80,37.08,80.00,3.00,0.00,30.12,M,10.00,M,CLR,M,M,M,M,M,M,M,M,M,M,M,M,M,M,50.00,KBVU 030415Z AUTO 08003KT 10SM CLR 10/M04 A3012 RMK AO2,M
RTS,2024-01-03 04:15,-119.8764,39.6682,1539.00,39.20,24.80,55.95,280.00,5.00,0.00,29.95,M,10.00,11.00,BKN,OVC,M,M,5000.00,6500.00,M,M,M,M,M,M,M,M,M,34.95,KRTS 030415Z AUTO 28005G11KT 10SM BKN050 OVC065 04/M04 A2995 RMK AO2,M
MEV,2024-01-03 04:15,-119.7500,38.9963,1441.42,41.00,26.60,56.22,130.00,16.00,0.00,29.95,M,10.00,24.00,FEW,FEW,FEW,M,4000.00,4800.00,6500.00,M,M,M,M,M,M,M,M,32.15,KMEV 030415Z AUTO 13016G24KT 10SM FEW040 FEW048 FEW065 05/M03 A2995 RMK AO2,M
HTH,2024-01-03 04:15,-118.6315,38.5448,1282.89,39.20,19.40,44.55,120.00,7.00,0.00,30.00,M,10.00,M,CLR,M,M,M,M,M,M,M,M,M,M,M,M,M,M,33.56,KHTH 030415Z AUTO 12007KT 10SM CLR 04/M07 A3000 RMK A01,M
BAM,2024-01-03 04:15,-116.8743,40.5990,1382.36,37.40,23.00,55.68,120.00,6.00,0.00,30.01,M,10.00,M,CLR,M,M,M,M,M,M,M,M,M,M,M,M,M,M,32.03,KBAM 030415Z AUTO 12006KT 10SM CLR 03/M05 A3001 RMK AO1,M
TMT,2024-01-03 04:15,-117.1971,39.4643,1749.34,22.60,14.00,69.11,0.00,0.00,0.00,30.03,M,10.00,M,CLR,M,M,M,M,M,M,M,M,M,M,M,M,M,M,22.60,KTMT 030415Z AUTO 00000KT 10SM CLR M05/M10 A3003 RMK AO2 T10521099,M
10U,2024-01-03 04:20,-116.1876,41.9532,1637.00,37.40,21.20,51.61,120.00,9.00,0.00,30.02,M,10.00,M,OVC,M,M,M,7000.00,M,M,M,M,M,M,M,M,M,M,30.23,K10U 030420Z AUTO 12009KT 10SM OVC070 03/M06 A3002 RMK AO2,M
05U,2024-01-03 04:30,-116.0051,39.6042,1811.23,33.80,15.80,47.22,310.00,6.00,0.00,30.06,M,10.00,M,M,M,M,M,M,M,M,M,M,M,M,M,M,M,M,27.70,K05U 030430Z AUTO 31006KT 10SM 01/M09 A3006 RMK A01,M
TMT,2024-01-03 04:35,-117.1971,39.4643,1749.34,19.00,13.00,77.06,110.00,3.00,0.00,30.03,M,10.00,M,CLR,M,M,M,M,M,M,M,M,M,M,M,M,M,M,13.83,KTMT 030435Z AUTO 11003KT 10SM CLR M07/M10 A3003 RMK AO2 T10721105,M
BVU,2024-01-03 04:35,-114.8611,35.9475,671.00,48.20,26.60,42.73,0.00,0.00,0.00,30.13,M,10.00,M,CLR,M,M,M,M,M,M,M,M,M,M,M,M,M,M,48.20,KBVU 030435Z AUTO 00000KT 10SM CLR 09/M03 A3013 RMK AO2,M
CXP,2024-01-03 04:35,-119.7326,39.1923,1431.00,39.20,26.60,60.29,180.00,5.00,0.00,29.98,M,10.00,10.00,CLR,M,M,M,M,M,M,M,M,M,M,M,M,M,M,34.95,KCXP 030435Z AUTO 18005G10KT 10SM CLR 04/M03 A2998 RMK AO2,M
RTS,2024-01-03 04:35,-119.8764,39.6682,1539.00,39.20,24.80,55.95,M,4.00,0.00,29.96,M,10.00,M,FEW,BKN,OVC,M,2300.00,4300.00,5000.00,M,M,M,M,M,M,M,M,35.83,KRTS 030435Z AUTO VRB04KT 10SM FEW023 BKN043 OVC050 04/M04 A2996 RMK AO2,M
MEV,2024-01-03 04:35,-119.7500,38.9963,1441.42,41.00,26.60,56.22,120.00,13.00,0.00,29.95,M,10.00,18.00,FEW,BKN,M,M,6500.00,12000.00,M,M,M,M,M,M,M,M,M,33.10,KMEV 030435Z AUTO 12013G18KT 10SM FEW065 BKN120 05/M03 A2995 RMK AO2,M
BAM,2024-01-03 04:35,-116.8743,40.5990,1382.36,30.20,21.20,68.83,190.00,3.00,0.00,30.01,M,10.00,M,CLR,M,M,M,M,M,M,M,M,M,M,M,M,M,M,26.63,KBAM 030435Z AUTO 19003KT 10SM CLR M01/M06 A3001 RMK AO1,M
HTH,2024-01-03 04:35,-118.6315,38.5448,1282.89,33.80,19.40,55.14,210.00,5.00,0.00,29.99,M,10.00,M,CLR,M,M,M,M,M,M,M,M,M,M,M,M,M,M,28.53,KHTH 030435Z AUTO 21005KT 10SM CLR 01/M07 A2999 RMK A01,M
10U,2024-01-03 04:40,-116.1876,41.9532,1637.00,37.40,21.20,51.61,130.00,10.00,0.00,30.02,M,10.00,M,SCT,OVC,M,M,6000.00,7000.00,M,M,M,M,M,M,M,M,M,29.74,K10U 030440Z AUTO 13010KT 10SM SCT060 OVC070 03/M06 A3002 RMK AO2,M
05U,2024-01-03 04:45,-116.0051,39.6042,1811.23,33.80,17.60,51.04,300.00,6.00,0.00,30.06,M,10.00,M,M,M,M,M,M,M,M,M,M,M,M,M,M,M,M,27.70,K05U 030445Z AUTO 30006KT 10SM 01/M08 A3006 RMK A01,M
CXP,2024-01-03 04:50,-119.7326,39.1923,1431.00,41.00,26.60,56.22,0.00,0.00,0.00,29.97,M,10.00,M,FEW,M,M,M,12000.00,M,M,M,M,M,M,M,M,M,M,41.00,KCXP 030450Z AUTO 00000KT 10SM FEW120 05/M03 A2997 RMK AO2,M
HTH,2024-01-03 04:50,-118.6315,38.5448,1282.89,37.40,19.40,47.80,140.00,4.00,0.00,30.00,M,10.00,M,CLR,M,M,M,M,M,M,M,M,M,M,M,M,M,M,33.73,KHTH 030450Z AUTO 14004KT 10SM CLR 03/M07 A3000 RMK A01,M
P68,2024-01-03 04:53,-116.0056,39.6014,1993.00,33.00,17.00,51.36,170.00,5.00,0.00,30.03,1017.50,M,M,M,M,M,M,M,M,M,M,M,M,M,M,M,M,M,27.58,KP68 030453Z AUTO 17005KT 01/M08 A3003 RMK AO1 SLP175 T00061083,M
DRA,2024-01-03 04:53,-116.0278,36.6206,1009.00,41.00,23.00,48.39,70.00,6.00,0.00,30.11,1018.80,10.00,M,CLR,M,M,M,M,M,M,M,M,M,M,M,M,M,M,36.37,KDRA 030453Z AUTO 07006KT 10SM CLR 05/M05 A3011 RMK AO2 SLP188 T00501050,M
ELY,2024-01-03 04:53,-114.8453,39.2950,1909.00,27.00,13.00,55.06,210.00,9.00,0.00,30.08,1020.90,10.00,M,CLR,M,M,M,M,M,M,M,M,M,M,M,M,M,M,17.30,KELY 030453Z AUTO 21009KT 10SM CLR M03/M11 A3008 RMK AO2 SLP209 T10281106,M
VGT,2024-01-03 04:53,-115.1933,36.2111,667.00,48.00,27.00,43.77,0.00,0.00,0.00,30.12,1022.10,10.00,M,CLR,M,M,M,M,M,M,M,M,M,M,M,M,M,M,48.00,KVGT 030453Z AUTO 00000KT 10SM CLR 09/M03 A3012 RMK AO2 SLP221 T00891028,M
LOL,2024-01-03 04:53,-118.5701,40.0684,1192.43,27.00,20.00,74.57,100.00,3.00,0.00,29.99,1018.50,10.00,M,BKN,BKN,M,M,9500.00,12000.00,M,M,M,M,M,M,M,M,M,22.97,KLOL 030453Z AUTO 10003KT 10SM BKN095 BKN120 M03/M07 A2999 RMK AO2 SLP185 T10281067,M
BVU,2024-01-03 04:55,-114.8611,35.9475,671.00,46.40,24.80,42.44,0.00,0.00,0.00,30.13,M,10.00,M,CLR,M,M,M,M,M,M,M,M,M,M,M,M,M,M,46.40,KBVU 030455Z AUTO 00000KT 10SM CLR 08/M04 A3013 RMK AO2,M
INS,2024-01-03 04:55,-115.6733,36.5872,955.00,41.40,17.60,37.86,0.00,0.00,0.00,30.11,1019.70,10.00,M,CLR,M,M,M,M,M,M,M,M,M,M,M,M,M,M,41.40,KINS 030455Z AUTO 00000KT 10SM CLR 05/M08 A3011 RMK AO2 SLP197 T00521080 $,M
RNO,2024-01-03 04:55,-119.7711,39.4839,1341.00,42.00,26.00,52.76,160.00,5.00,0.00,29.94,1014.10,10.00,M,SCT,BKN,M,M,5500.00,10000.00,M,M,M,M,M,M,M,M,M,38.27,KRNO 030455Z 16005KT 10SM SCT055 BKN100 06/M03 A2994 RMK AO2 SLP141 T00561033,M
RTS,2024-01-03 04:55,-119.8764,39.6682,1539.00,39.20,26.60,60.29,70.00,4.00,0.00,29.96,M,10.00,M,FEW,BKN,OVC,M,2200.00,3600.00,4400.00,M,M,M,M,M,M,M,M,35.83,KRTS 030455Z AUTO 07004KT 10SM FEW022 BKN036 OVC044 04/M03 A2996 RMK AO2,M
MEV,2024-01-03 04:55,-119.7500,38.9963,1441.42,41.00,24.80,52.17,120.00,12.00,0.00,29.94,M,10.00,17.00,OVC,M,M,M,11000.00,M,M,M,M,M,M,M,M,M,M,33.46,KMEV 030455Z AUTO 12012G17KT 10SM OVC110 05/M04 A2994 RMK AO2,M
BAM,2024-01-03 04:55,-116.8743,40.5990,1382.36,28.40,19.40,68.61,0.00,0.00,0.00,30.00,M,10.00,M,CLR,M,M,M,M,M,M,M,M,M,M,M,M,M,M,28.40,KBAM 030455Z AUTO 00000KT 10SM CLR M02/M07 A3000 RMK AO1,M
TMT,2024-01-03 04:55,-117.1971,39.4643,1749.34,22.30,15.40,74.40,200.00,7.00,0.00,30.03,M,10.00,M,CLR,M,M,M,M,M,M,M,M,M,M,M,M,M,M,12.96,KTMT 030455Z AUTO 20007KT 10SM CLR M05/M09 A3003 RMK AO2 T10541092,M
LSV,2024-01-03 04:55,-115.0343,36.2362,570.00,47.50,22.50,36.97,60.00,4.00,0.00,30.11,1019.60,10.00,M,CLR,M,M,M,M,M,M,M,M,M,M,M,M,M,M,45.52,KLSV 030455Z AUTO 06004KT 10SM CLR 09/M05 A3011 RMK AO2 SLP196 T00861053 $,M
EKO,2024-01-03 04:56,-115.7860,40.8242,1367.00,32.00,23.00,69.04,100.00,6.00,0.00,30.03,1019.50,10.00,M,BKN,M,M,M,8000.00,M,M,M,M,M,M,M,M,M,M,25.53,KEKO 030456Z AUTO 10006KT 10SM BKN080 00/M05 A3003 RMK AO2 SLP195 T00001050 PWINO FZRANO $,M
WMC,2024-01-03 04:56,-117.8072,40.9019,1315.00,34.00,25.00,69.28,80.00,8.00,0.00,29.98,1016.50,10.00,M,CLR,M,M,M,M,M,M,M,M,M,M,M,M,M,M,26.58,KWMC 030456Z AUTO 08008KT 10SM CLR 01/M04 A2998 RMK AO2 SLP165 T00111039,M
NFL,2024-01-03 04:56,-118.7010,39.4166,1199.00,30.00,25.00,81.40,120.00,5.00,0.00,29.98,1012.40,10.00,M,OVC,M,M,M,10000.00,M,M,M,M,M,M,M,M,M,M,24.02,KNFL 030456Z AUTO 12005KT 10SM OVC100 M01/M04 A2998 RMK AO2 SLP124 T10111039 $,M
HND,2024-01-03 04:56,-115.1344,35.9729,742.79,46.00,24.00,41.67,170.00,4.00,0.00,30.15,1022.80,10.00,M,CLR,M,M,M,M,M,M,M,M,M,M,M,M,M,M,43.77,KHND 030456Z AUTO 17004KT 10SM CLR 08/M04 A3015 RMK AO2 SLP228 T00781044,M
TPH,2024-01-03 04:56,-117.0904,38.0505,1654.00,28.00,19.00,68.57,0.00,0.00,0.00,30.09,1020.60,10.00,M,CLR,M,M,M,M,M,M,M,M,M,M,M,M,M,M,28.00,KTPH 030456Z AUTO 00000KT 10SM CLR M02/M07 A3009 RMK AO2 SLP206 T10221072,M
LAS,2024-01-03 04:56,-115.1634,36.0719,663.00,50.00,26.00,38.97,210.00,3.00,0.00,30.12,1020.00,10.00,M,SCT,SCT,M,M,15000.00,20000.00,M,M,M,M,M,M,M,M,M,50.00,KLAS 030456Z 21003KT 10SM SCT150 SCT200 10/M03 A3012 RMK AO2 SLP200 T01001033,M
10U,2024-01-03 05:00,-116.1876,41.9532,1637.00,37.40,21.20,51.61,130.00,9.00,0.00,30.02,M,10.00,M,BKN,OVC,M,M,6500.00,7500.00,M,M,M,M,M,M,M,M,M,30.23,K10U 030500Z AUTO 13009KT 10SM BKN065 OVC075 03/M06 A3002 RMK AO2,M
05U,2024-01-03 05:05,-116.0051,39.6042,1811.23,32.00,17.60,54.87,310.00,4.00,0.00,30.06,M,10.00,M,M,M,M,M,M,M,M,M,M,M,M,M,M,M,M,27.42,K05U 030505Z AUTO 31004KT 10SM 00/M08 A3006 RMK A01,M
CXP,2024-01-03 05:10,-119.7326,39.1923,1431.00,41.00,26.60,56.22,300.00,4.00,0.00,29.94,M,10.00,M,SCT,M,M,M,11000.00,M,M,M,M,M,M,M,M,M,M,37.93,KCXP 030510Z AUTO 30004KT 10SM SCT110 05/M03 A2994 RMK AO2,M
HTH,2024-01-03 05:10,-118.6315,38.5448,1282.89,39.20,19.40,44.55,120.00,9.00,0.00,29.99,M,10.00,15.00,CLR,M,M,M,M,M,M,M,M,M,M,M,M,M,M,32.47,KHTH 030510Z AUTO 12009G15KT 10SM CLR 04/M07 A2999 RMK A01,M
BVU,2024-01-03 05:15,-114.8611,35.9475,671.00,51.80,23.00,32.17,110.00,4.00,0.00,30.13,M,10.00,M,CLR,M,M,M,M,M,M,M,M,M,M,M,M,M,M,51.80,KBVU 030515Z AUTO 11004KT 10SM CLR 11/M05 A3013 RMK AO2,M
RTS,2024-01-03 05:15,-119.8764,39.6682,1539.00,39.20,26.60,60.29,60.00,6.00,0.00,29.95,M,10.00,M,BKN,OVC,M,M,3200.00,3700.00,M,M,M,M,M,M,M,M,M,34.20,KRTS 030515Z AUTO 06006KT 10SM BKN032 OVC037 04/M03 A2995 RMK AO2,M
MEV,2024-01-03 05:15,-119.7500,38.9963,1441.42,41.00,24.80,52.17,140.00,14.00,0.00,29.92,M,10.00,M,FEW,SCT,OVC,M,6500.00,8000.00,11000.00,M,M,M,M,M,M,M,M,32.76,KMEV 030515Z AUTO 14014KT 10SM FEW065 SCT080 OVC110 05/M04 A2992 RMK AO2,M
BAM,2024-01-03 05:15,-116.8743,40.5990,1382.36,28.40,19.40,68.61,80.00,3.00,0.00,30.00,M,10.00,M,CLR,M,M,M,M,M,M,M,M,M,M,M,M,M,M,24.57,KBAM 030515Z AUTO 08003KT 10SM CLR M02/M07 A3000 RMK AO1,M
TMT,2024-01-03 05:15,-117.1971,39.4643,1749.34,20.00,14.00,77.16,0.00,0.00,0.00,30.02,M,10.00,M,CLR,M,M,M,M,M,M,M,M,M,M,M,M,M,M,20.00,KTMT 030515Z AUTO 00000KT 10SM CLR M07/M10 A3002 RMK AO2 T10661099,M
10U,2024-01-03 05:20,-116.1876,41.9532,1637.00,37.40,21.20,51.61,120.00,10.00,0.00,30.01,M,10.00,M,OVC,M,M,M,7500.00,M,M,M,M,M,M,M,M,M,M,29.74,K10U 030520Z AUTO 12010KT 10SM OVC075 03/M06 A3001 RMK AO2,M
BVU,2024-01-03 05:35,-114.8611,35.9475,671.00,51.80,23.00,32.17,130.00,6.00,0.00,30.12,M,10.00,M,CLR,M,M,M,M,M,M,M,M,M,M,M,M,M,M,51.80,KBVU 030535Z AUTO 13006KT 10SM CLR 11/M05 A3012 RMK AO2,M
CXP,2024-01-03 05:35,-119.7326,39.1923,1431.00,37.40,26.60,64.70,320.00,5.00,0.00,29.95,M,10.00,M,SCT,BKN,BKN,M,7000.00,8500.00,12000.00,M,M,M,M,M,M,M,M,32.81,KCXP 030535Z AUTO 32005KT 10SM SCT070 BKN085 BKN120 03/M03 A2995 RMK AO2,M
RTS,2024-01-03 05:35,-119.8764,39.6682,1539.00,39.20,26.60,60.29,0.00,0.00,0.00,29.95,M,10.00,M,OVC,M,M,M,3400.00,M,M,M,M,M,M,M,M,M,M,39.20,KRTS 030535Z AUTO 00000KT 10SM OVC034 04/M03 A2995 RMK AO2,M
MEV,2024-01-03 05:35,-119.7500,38.9963,1441.42,42.80,24.80,48.67,150.00,11.00,0.00,29.93,M,10.00,23.00,SCT,BKN,BKN,M,6500.00,8000.00,10000.00,M,M,M,M,M,M,M,M,36.11,KMEV 030535Z AUTO 15011G23KT 10SM SCT065 BKN080 BKN100 06/M04 A2993 RMK AO2,M
BAM,2024-01-03 05:35,-116.8743,40.5990,1382.36,26.60,17.60,68.40,0.00,0.00,0.00,30.00,M,10.00,M,CLR,M,M,M,M,M,M,M,M,M,M,M,M,M,M,26.60,KBAM 030535Z AUTO 00000KT 10SM CLR M03/M08 A3000 RMK AO1,M
HTH,2024-01-03 05:35,-118.6315,38.5448,1282.89,35.60,19.40,51.33,M,4.00,0.00,29.99,M,10.00,M,CLR,M,M,M,M,M,M,M,M,M,M,M,M,M,M,31.62,KHTH 030535Z AUTO VRB04KT 10SM CLR 02/M07 A2999 RMK A01,M
TMT,2024-01-03 05:35,-117.1971,39.4643,1749.34,18.50,13.00,78.73,0.00,0.00,0.00,30.02,M,10.00,M,CLR,M,M,M,M,M,M,M,M,M,M,M,M,M,M,18.50,KTMT 030535Z AUTO 00000KT 10SM CLR M07/M10 A3002 RMK AO2 T10751105,M
05U,2024-01-03 05:40,-116.0051,39.6042,1811.23,32.00,15.80,50.75,0.00,0.00,0.00,30.06,M,10.00,M,M,M,M,M,M,M,M,M,M,M,M,M,M,M,M,32.00,K05U 030540Z AUTO 00000KT 10SM 00/M09 A3006 RMK A01,M
10U,2024-01-03 05:40,-116.1876,41.9532,1637.00,35.60,21.20,55.41,120.00,9.00,0.00,30.00,M,10.00,15.00,OVC,M,M,M,7000.00,M,M,M,M,M,M,M,M,M,M,27.99,K10U 030540Z AUTO 12009G15KT 10SM OVC070 02/M06 A3000 RMK AO2,M
P68,2024-01-03 05:53,-116.0056,39.6014,1993.00,29.00,16.00,57.83,110.00,9.00,0.00,30.02,1016.60,M,M,M,M,M,M,M,M,M,M,M,M,M,M,M,M,M,19.78,KP68 030553Z AUTO 11009KT M02/M09 A3002 RMK AO1 SLP166 T10171089 10061 21017 56012,M
DRA,2024-01-03 05:53,-116.0278,36.6206,1009.00,38.00,22.00,52.14,40.00,3.00,0.00,30.10,1018.40,10.00,M,CLR,M,M,M,M,M,M,M,M,M,M,M,M,M,M,35.55,KDRA 030553Z AUTO 04003KT 10SM CLR 03/M06 A3010 RMK AO2 SLP184 T00331056 10122 20022 58005,M
ELY,2024-01-03 05:53,-114.8453,39.2950,1909.00,30.00,14.00,50.88,200.00,10.00,0.00,30.07,1018.20,10.00,M,CLR,M,M,M,M,M,M,M,M,M,M,M,M,M,M,20.46,KELY 030553Z AUTO 20010KT 10SM CLR M01/M10 A3007 RMK AO2 SLP182 T10111100 10050 21028 56015,M
VGT,2024-01-03 05:53,-115.1933,36.2111,667.00,47.00,28.00,47.36,0.00,0.00,0.00,30.11,1021.40,10.00,M,CLR,M,M,M,M,M,M,M,M,M,M,M,M,M,M,47.00,KVGT 030553Z AUTO 00000KT 10SM CLR 08/M02 A3011 RMK AO2 SLP214 T00831022 10150 20078 56008,M
LOL,2024-01-03 05:53,-118.5701,40.0684,1192.43,26.00,19.00,74.46,60.00,5.00,0.00,29.96,1017.00,10.00,M,BKN,M,M,M,11000.00,M,M,M,M,M,M,M,M,M,M,19.27,KLOL 030553Z AUTO 06005KT 10SM BKN110 M03/M07 A2996 RMK AO2 SLP170 T10331072 10050 21056 58014,M
BVU,2024-01-03 05:55,-114.8611,35.9475,671.00,50.00,24.80,37.08,100.00,3.00,0.00,30.12,M,10.00,M,CLR,M,M,M,M,M,M,M,M,M,M,M,M,M,M,50.00,KBVU 030555Z AUTO 10003KT 10SM CLR 10/M04 A3012 RMK AO2,M
CXP,2024-01-03 05:55,-119.7326,39.1923,1431.00,39.20,24.80,55.95,0.00,0.00,0.00,29.94,M,10.00,M,OVC,M,M,M,7000.00,M,M,M,M,M,M,M,M,M,M,39.20,KCXP 030555Z AUTO 00000KT 10SM OVC070 04/M04 A2994 RMK AO2,M
INS,2024-01-03 05:55,-115.6733,36.5872,955.00,40.60,18.00,39.73,240.00,4.00,0.00,30.10,1018.70,10.00,M,CLR,M,M,M,M,M,M,M,M,M,M,M,M,M,M,37.46,KINS 030555Z AUTO 24004KT 10SM CLR 05/M08 A3010 RMK AO2 SLP187 T00481077 10129 20024 57008 $,M
RNO,2024-01-03 05:55,-119.7711,39.4839,1341.00,41.00,29.00,62.04,200.00,9.00,0.00,29.92,1013.50,10.00,M,SCT,BKN,BKN,M,5000.00,12000.00,18000.00,M,M,M,M,M,M,M,M,34.70,KRNO 030555Z 20009KT 10SM SCT050 BKN120 BKN180 05/M02 A2992 RMK AO2 SLP135 T00501017 10061 20022 56022,M
LSV,2024-01-03 05:55,-115.0343,36.2362,570.00,47.00,23.00,38.48,30.00,3.00,0.00,30.09,1018.90,10.00,M,CLR,M,M,M,M,M,M,M,M,M,M,M,M,M,M,45.84,KLSV 030555Z AUTO 03003KT 10SM CLR 08/M05 A3009 RMK AO2 SLP189 T00831049 10154 20077 55007 $,M
RTS,2024-01-03 05:55,-119.8764,39.6682,1539.00,39.20,26.60,60.29,170.00,5.00,0.00,29.94,M,10.00,M,FEW,SCT,OVC,M,2300.00,2700.00,3600.00,M,M,M,M,M,M,M,M,34.95,KRTS 030555Z AUTO 17005KT 10SM FEW023 SCT027 OVC036 04/M03 A2994 RMK AO2,M
MEV,2024-01-03 05:55,-119.7500,38.9963,1441.42,42.80,26.60,52.45,180.00,11.00,0.00,29.93,M,10.00,25.00,FEW,BKN,OVC,M,4500.00,5500.00,8000.00,M,M,M,M,M,M,M,M,36.11,KMEV 030555Z AUTO 18011G25KT 10SM FEW045 BKN055 OVC080 06/M03 A2993 RMK AO2,M
BAM,2024-01-03 05:55,-116.8743,40.5990,1382.36,26.60,19.40,73.89,200.00,3.00,0.00,30.00,M,10.00,M,CLR,M,M,M,M,M,M,M,M,M,M,M,M,M,M,22.52,KBAM 030555Z AUTO 20003KT 10SM CLR M03/M07 A3000 RMK AO1,M
HTH,2024-01-03 05:55,-118.6315,38.5448,1282.89,35.60,19.40,51.33,120.00,11.00,0.00,29.96,M,10.00,M,CLR,M,M,M,M,M,M,M,M,M,M,M,M,M,M,27.02,KHTH 030555Z AUTO 12011KT 10SM CLR 02/M07 A2996 RMK A01,M
TMT,2024-01-03 05:55,-117.1971,39.4643,1749.34,18.00,13.00,80.44,0.00,0.00,0.00,30.01,M,10.00,M,CLR,M,M,M,M,M,M,M,M,M,M,M,M,M,M,18.00,KTMT 030555Z AUTO 00000KT 10SM CLR M08/M10 A3001 RMK AO2 T10771105 10051 21081,M
EKO,2024-01-03 05:56,-115.7860,40.8242,1367.00,31.00,22.00,68.92,70.00,5.00,0.00,30.02,1019.00,10.00,M,CLR,M,M,M,M,M,M,M,M,M,M,M,M,M,M,25.21,KEKO 030556Z AUTO 07005KT 10SM CLR M01/M06 A3002 RMK AO2 SLP190 T10061056 10039 21006 56011 PWINO FZRANO $,M
WMC,2024-01-03 05:56,-117.8072,40.9019,1315.00,35.00,25.00,66.57,130.00,4.00,0.00,29.96,1015.00,10.00,M,OVC,M,M,M,10000.00,M,M,M,M,M,M,M,M,M,M,30.92,KWMC 030556Z AUTO 13004KT 10SM OVC100 02/M04 A2996 RMK AO2 SLP150 T00171039 10061 20006 56018,M
NFL,2024-01-03 05:56,-118.7010,39.4166,1199.00,29.00,25.00,84.79,150.00,5.00,0.00,29.95,1011.50,10.00,M,FEW,M,M,M,9000.00,M,M,M,M,M,M,M,M,M,M,22.83,KNFL 030556Z AUTO 15005KT 10SM FEW090 M02/M04 A2995 RMK AO2 SLP115 T10171039 10067 21022 58013 $,M
HND,2024-01-03 05:56,-115.1344,35.9729,742.79,44.00,24.00,44.96,180.00,6.00,0.00,30.13,1022.10,10.00,M,CLR,M,M,M,M,M,M,M,M,M,M,M,M,M,M,39.98,KHND 030556Z AUTO 18006KT 10SM CLR 07/M04 A3013 RMK AO2 SLP221 T00671044 10144 20067 56010,M
TPH,2024-01-03 05:56,-117.0904,38.0505,1654.00,29.00,19.00,65.81,100.00,6.00,0.00,30.07,1018.80,10.00,M,CLR,M,M,M,M,M,M,M,M,M,M,M,M,M,M,21.92,KTPH 030556Z AUTO 10006KT 10SM CLR M02/M07 A3007 RMK AO2 SLP188 T10171072 10067 21028 58011,M
LAS,2024-01-03 05:56,-115.1634,36.0719,663.00,48.00,25.00,40.29,210.00,4.00,0.00,30.11,1019.30,10.00,M,FEW,SCT,M,M,15000.00,20000.00,M,M,M,M,M,M,M,M,M,46.10,KLAS 030556Z 21004KT 10SM FEW150 SCT200 09/M04 A3011 RMK AO2 SLP193 T00891039 10150 20089 56009,M
10U,2024-01-03 06:00,-116.1876,41.9532,1637.00,35.60,21.20,55.41,130.00,9.00,0.00,30.00,M,10.00,M,OVC,M,M,M,7000.00,M,M,M,M,M,M,M,M,M,M,27.99,K10U 030600Z AUTO 13009KT 10SM OVC070 02/M06 A3000 RMK AO2,M
BVU,2024-01-03 06:15,-114.8611,35.9475,671.00,48.20,24.80,39.66,100.00,4.00,0.00,30.12,M,10.00,M,CLR,M,M,M,M,M,M,M,M,M,M,M,M,M,M,46.34,KBVU 030615Z AUTO 10004KT 10SM CLR 09/M04 A3012 RMK AO2,M
CXP,2024-01-03 06:15,-119.7326,39.1923,1431.00,41.00,24.80,52.17,0.00,0.00,0.00,29.94,M,10.00,M,FEW,OVC,M,M,6500.00,7500.00,M,M,M,M,M,M,M,M,M,41.00,KCXP 030615Z AUTO 00000KT 10SM FEW065 OVC075 05/M04 A2994 RMK AO2,M
RTS,2024-01-03 06:15,-119.8764,39.6682,1539.00,39.20,26.60,60.29,0.00,0.00,0.00,29.94,M,10.00,M,BKN,OVC,M,M,3100.00,3700.00,M,M,M,M,M,M,M,M,M,39.20,KRTS 030615Z AUTO 00000KT 10SM BKN031 OVC037 04/M03 A2994 RMK AO2,M
MEV,2024-01-03 06:15,-119.7500,38.9963,1441.42,41.00,28.40,60.54,190.00,15.00,0.00,29.93,M,10.00,M,FEW,BKN,OVC,M,5000.00,6000.00,7500.00,M,M,M,M,M,M,M,M,32.45,KMEV 030615Z AUTO 19015KT 10SM FEW050 BKN060 OVC075 05/M02 A2993 RMK AO2,M
HTH,2024-01-03 06:15,-118.6315,38.5448,1282.89,41.00,21.20,44.85,120.00,17.00,0.00,29.95,M,10.00,M,CLR,M,M,M,M,M,M,M,M,M,M,M,M,M,M,31.87,KHTH 030615Z AUTO 12017KT 10SM CLR 05/M06 A2995 RMK A01,M
BAM,2024-01-03 06:15,-116.8743,40.5990,1382.36,26.60,19.40,73.89,220.00,6.00,0.00,30.00,M,10.00,M,CLR,M,M,M,M,M,M,M,M,M,M,M,M,M,M,19.03,KBAM 030615Z AUTO 22006KT 10SM CLR M03/M07 A3000 RMK AO1,M
TMT,2024-01-03 06:15,-117.1971,39.4643,1749.34,19.80,14.00,77.82,0.00,0.00,0.00,30.00,M,10.00,M,CLR,M,M,M,M,M,M,M,M,M,M,M,M,M,M,19.80,KTMT 030615Z AUTO 00000KT 10SM CLR M07/M10 A3000 RMK AO2 T10681100,M
10U,2024-01-03 06:20,-116.1876,41.9532,1637.00,37.40,21.20,51.61,120.00,13.00,0.00,29.99,M,10.00,M,BKN,OVC,M,M,7500.00,8500.00,M,M,M,M,M,M,M,M,M,28.49,K10U 030620Z AUTO 12013KT 10SM BKN075 OVC085 03/M06 A2999 RMK AO2,M
05U,2024-01-03 06:25,-116.0051,39.6042,1811.23,28.40,15.80,58.75,40.00,5.00,0.00,30.05,M,10.00,M,M,M,M,M,M,M,M,M,M,M,M,M,M,M,M,22.12,K05U 030625Z AUTO 04005KT 10SM M02/M09 A3005 RMK A01,M
BVU,2024-01-03 06:35,-114.8611,35.9475,671.00,50.00,24.80,37.08,0.00,0.00,0.00,30.12,M,10.00,M,CLR,M,M,M,M,M,M,M,M,M,M,M,M,M,M,50.00,KBVU 030635Z AUTO 00000KT 10SM CLR 10/M04 A3012 RMK AO2,M
CXP,2024-01-03 06:35,-119.7326,39.1923,1431.00,41.00,24.80,52.17,90.00,7.00,0.00,29.94,M,10.00,M,SCT,BKN,OVC,M,5000.00,6500.00,7500.00,M,M,M,M,M,M,M,M,35.75,KCXP 030635Z AUTO 09007KT 10SM SCT050 BKN065 OVC075 05/M04 A2994 RMK AO2,M
RTS,2024-01-03 06:35,-119.8764,39.6682,1539.00,37.40,28.40,69.67,340.00,4.00,0.00,29.94,M,10.00,M,BKN,BKN,OVC,M,3100.00,3600.00,4900.00,M,M,M,M,M,M,M,M,33.73,KRTS 030635Z AUTO 34004KT 10SM BKN031 BKN036 OVC049 03/M02 A2994 RMK AO2,M
MEV,2024-01-03 06:35,-119.7500,38.9963,1441.42,39.20,30.20,69.88,160.00,15.00,0.00,29.94,M,10.00,24.00,FEW,SCT,BKN,M,4600.00,6000.00,8500.00,M,M,M,M,M,M,M,M,30.11,KMEV 030635Z AUTO 16015G24KT 10SM FEW046 SCT060 BKN085 04/M01 A2994 RMK AO2,M
BAM,2024-01-03 06:35,-116.8743,40.5990,1382.36,26.60,19.40,73.89,190.00,4.00,0.00,29.99,M,10.00,M,CLR,M,M,M,M,M,M,M,M,M,M,M,M,M,M,21.11,KBAM 030635Z AUTO 19004KT 10SM CLR M03/M07 A2999 RMK AO1,M
HTH,2024-01-03 06:35,-118.6315,38.5448,1282.89,41.00,21.20,44.85,120.00,8.00,0.00,29.93,M,10.00,16.00,CLR,M,M,M,M,M,M,M,M,M,M,M,M,M,M,35.20,KHTH 030635Z AUTO 12008G16KT 10SM CLR 05/M06 A2993 RMK A01,M
TMT,2024-01-03 06:35,-117.1971,39.4643,1749.34,19.80,14.00,77.82,0.00,0.00,0.00,29.99,M,10.00,M,CLR,M,M,M,M,M,M,M,M,M,M,M,M,M,M,19.80,KTMT 030635Z AUTO 00000KT 10SM CLR M07/M10 A2999 RMK AO2 T10681099,M
10U,2024-01-03 06:40,-116.1876,41.9532,1637.00,35.60,21.20,55.41,120.00,11.00,0.00,29.99,M,10.00,17.00,OVC,M,M,M,7500.00,M,M,M,M,M,M,M,M,M,M,27.02,K10U 030640Z AUTO 12011G17KT 10SM OVC075 02/M06 A2999 RMK AO2,M
05U,2024-01-03 06:50,-116.0051,39.6042,1811.23,24.80,14.00,63.03,0.00,0.00,0.00,30.04,M,10.00,M,M,M,M,M,M,M,M,M,M,M,M,M,M,M,M,24.80,K05U 030650Z AUTO 00000KT 10SM M04/M10 A3004 RMK A01,M
P68,2024-01-03 06:53,-116.0056,39.6014,1993.00,26.00,14.00,59.96,0.00,0.00,0.00,30.01,1016.10,M,M,M,M,M,M,M,M,M,M,M,M,M,M,M,M,M,26.00,KP68 030653Z AUTO 00000KT M03/M10 A3001 RMK AO1 SLP161 T10331100,M
DRA,2024-01-03 06:53,-116.0278,36.6206,1009.00,35.00,22.00,58.70,80.00,4.00,0.00,30.09,1018.20,10.00,M,CLR,M,M,M,M,M,M,M,M,M,M,M,M,M,M,30.92,KDRA 030653Z AUTO 08004KT 10SM CLR 02/M06 A3009 RMK AO2 SLP182 T00171056,M
ELY,2024-01-03 06:53,-114.8453,39.2950,1909.00,30.00,14.00,50.88,210.00,11.00,0.00,30.07,1017.20,10.00,M,CLR,M,M,M,M,M,M,M,M,M,M,M,M,M,M,19.94,KELY 030653Z AUTO 21011KT 10SM CLR M01/M10 A3007 RMK AO2 SLP172 T10111100,M
VGT,2024-01-03 06:53,-115.1933,36.2111,667.00,46.00,27.00,47.20,0.00,0.00,0.00,30.11,1021.40,10.00,M,CLR,M,M,M,M,M,M,M,M,M,M,M,M,M,M,46.00,KVGT 030653Z AUTO 00000KT 10SM CLR 08/M03 A3011 RMK AO2 SLP214 T00781028,M
LOL,2024-01-03 06:53,-118.5701,40.0684,1192.43,28.00,21.00,74.67,90.00,3.00,0.00,29.95,1015.90,10.00,M,BKN,OVC,M,M,10000.00,12000.00,M,M,M,M,M,M,M,M,M,24.12,KLOL 030653Z AUTO 09003KT 10SM BKN100 OVC120 M02/M06 A2995 RMK AO2 SLP159 T10221061,M
BVU,2024-01-03 06:55,-114.8611,35.9475,671.00,46.40,24.80,42.44,0.00,0.00,0.00,30.11,M,10.00,M,CLR,M,M,M,M,M,M,M,M,M,M,M,M,M,M,46.40,KBVU 030655Z AUTO 00000KT 10SM CLR 08/M04 A3011 RMK AO2,M
CXP,2024-01-03 06:55,-119.7326,39.1923,1431.00,39.20,26.60,60.29,M,6.00,0.00,29.95,M,10.00,M,FEW,OVC,M,M,4300.00,5000.00,M,M,M,M,M,M,M,M,M,34.20,KCXP 030655Z AUTO VRB06KT 10SM FEW043 OVC050 04/M03 A2995 RMK AO2,M
INS,2024-01-03 06:55,-115.6733,36.5872,955.00,35.80,17.00,45.93,140.00,3.00,0.00,30.09,1018.30,10.00,M,CLR,M,M,M,M,M,M,M,M,M,M,M,M,M,M,33.03,KINS 030655Z AUTO 14003KT 10SM CLR 02/M08 A3009 RMK AO2 SLP183 T00211083 $,M
RNO,2024-01-03 06:55,-119.7711,39.4839,1341.00,42.00,30.00,62.18,280.00,7.00,0.00,29.93,1013.60,10.00,M,BKN,M,M,M,6000.00,M,M,M,M,M,M,M,M,M,M,36.97,KRNO 030655Z 28007KT 10SM BKN060 06/M01 A2993 RMK AO2 SLP136 T00561011,M
LSV,2024-01-03 06:55,-115.0343,36.2362,570.00,46.40,23.40,40.02,40.00,3.00,0.00,30.09,1018.70,10.00,M,CLR,M,M,M,M,M,M,M,M,M,M,M,M,M,M,45.15,KLSV 030655Z AUTO 04003KT 10SM CLR 08/M05 A3009 RMK AO2 SLP187 T00801048 $,M
RTS,2024-01-03 06:55,-119.8764,39.6682,1539.00,37.40,30.20,74.98,270.00,6.00,0.00,29.95,M,10.00,M,FEW,SCT,OVC,M,1800.00,2300.00,3200.00,M,-DZ,M,M,M,M,M,M,32.03,KRTS 030655Z AUTO 27006KT 10SM -DZ FEW018 SCT023 OVC032 03/M01 A2995 RMK AO2,M
MEV,2024-01-03 06:55,-119.7500,38.9963,1441.42,39.20,30.20,69.88,160.00,12.00,0.00,29.94,M,10.00,19.00,FEW,BKN,OVC,M,4400.00,7500.00,11000.00,M,M,M,M,M,M,M,M,31.17,KMEV 030655Z AUTO 16012G19KT 10SM FEW044 BKN075 OVC110 04/M01 A2994 RMK AO2,M
BAM,2024-01-03 06:55,-116.8743,40.5990,1382.36,23.00,17.60,79.47,180.00,4.00,0.00,29.98,M,10.00,M,CLR,M,M,M,M,M,M,M,M,M,M,M,M,M,M,16.91,KBAM 030655Z AUTO 18004KT 10SM CLR M05/M08 A2998 RMK AO1,M
HTH,2024-01-03 06:55,-118.6315,38.5448,1282.89,41.00,21.20,44.85,120.00,10.00,0.00,29.94,M,10.00,17.00,CLR,M,M,M,M,M,M,M,M,M,M,M,M,M,M,34.25,KHTH 030655Z AUTO 12010G17KT 10SM CLR 05/M06 A2994 RMK A01,M
TMT,2024-01-03 06:55,-117.1971,39.4643,1749.34,18.50,13.50,80.48,0.00,0.00,0.00,29.99,M,10.00,M,CLR,M,M,M,M,M,M,M,M,M,M,M,M,M,M,18.50,KTMT 030655Z AUTO 00000KT 10SM CLR M07/M10 A2999 RMK AO2 T10751103,M
EKO,2024-01-03 06:56,-115.7860,40.8242,1367.00,31.00,22.00,68.92,60.00,8.00,0.00,30.01,1017.80,10.00,M,OVC,M,M,M,9000.00,M,M,M,M,M,M,M,M,M,M,22.88,KEKO 030656Z AUTO 06008KT 10SM OVC090 M01/M06 A3001 RMK AO2 SLP178 T10061056 PWINO FZRANO $,M
WMC,2024-01-03 06:56,-117.8072,40.9019,1315.00,35.00,25.00,66.57,20.00,5.00,0.00,29.96,1014.60,10.00,M,OVC,M,M,M,11000.00,M,M,M,M,M,M,M,M,M,M,29.96,KWMC 030656Z AUTO 02005KT 10SM OVC110 02/M04 A2996 RMK AO2 SLP146 T00171039,M
NFL,2024-01-03 06:56,-118.7010,39.4166,1199.00,30.00,25.00,81.40,0.00,0.00,0.00,29.94,1011.00,10.00,M,BKN,M,M,M,9500.00,M,M,M,M,M,M,M,M,M,M,30.00,KNFL 030656Z AUTO 00000KT 10SM BKN095 M01/M04 A2994 RMK AO2 SLP110 T10111039 $,M
HND,2024-01-03 06:56,-115.1344,35.9729,742.79,46.00,25.00,43.44,220.00,9.00,0.00,30.13,1021.80,10.00,M,CLR,M,M,M,M,M,M,M,M,M,M,M,M,M,M,40.92,KHND 030656Z AUTO 22009KT 10SM CLR 08/M04 A3013 RMK AO2 SLP218 T00781039 401610022,M
TPH,2024-01-03 06:56,-117.0904,38.0505,1654.00,28.00,19.00,68.57,110.00,7.00,0.00,30.05,1018.40,10.00,M,CLR,M,M,M,M,M,M,M,M,M,M,M,M,M,M,19.90,KTPH 030656Z AUTO 11007KT 10SM CLR M02/M07 A3005 RMK AO2 SLP184 T10221072,M
LAS,2024-01-03 06:56,-115.1634,36.0719,663.00,46.00,25.00,43.44,270.00,4.00,0.00,30.11,1019.20,10.00,M,SCT,M,M,M,20000.00,M,M,M,M,M,M,M,M,M,M,43.77,KLAS 030656Z 27004KT 10SM SCT200 08/M04 A3011 RMK AO2 SLP192 T00781039,M
10U,2024-01-03 07:00,-116.1876,41.9532,1637.00,33.80,21.20,59.53,100.00,7.00,0.00,29.99,M,10.00,12.00,OVC,M,M,M,7000.00,M,M,M,M,M,M,M,M,M,M,26.97,K10U 030700Z AUTO 10007G12KT 070V140 10SM OVC070 01/M06 A2999 RMK AO2,M
BVU,2024-01-03 07:15,-114.8611,35.9475,671.00,42.80,24.80,48.67,0.00,0.00,0.00,30.12,M,10.00,M,CLR,M,M,M,M,M,M,M,M,M,M,M,M,M,M,42.80,KBVU 030715Z AUTO 00000KT 10SM CLR 06/M04 A3012 RMK AO2,M
CXP,2024-01-03 07:15,-119.7326,39.1923,1431.00,41.00,28.40,60.54,200.00,12.00,0.00,29.96,M,10.00,18.00,SCT,OVC,M,M,4400.00,5000.00,M,M,M,M,M,M,M,M,M,33.46,KCXP 030715Z AUTO 20012G18KT 10SM SCT044 OVC050 05/M02 A2996 RMK AO2,M
RTS,2024-01-03 07:15,-119.8764,39.6682,1539.00,37.40,30.20,74.98,0.00,0.00,0.00,29.94,M,8.00,M,SCT,SCT,BKN,M,2100.00,2600.00,3200.00,M,-DZ,M,M,M,M,M,M,37.40,KRTS 030715Z AUTO 00000KT 8SM -DZ SCT021 SCT026 BKN032 03/M01 A2994 RMK AO2,M
MEV,2024-01-03 07:15,-119.7500,38.9963,1441.42,37.40,30.20,74.98,160.00,10.00,0.00,29.94,M,10.00,M,SCT,BKN,OVC,M,4900.00,6000.00,7500.00,M,M,M,M,M,M,M,M,29.74,KMEV 030715Z AUTO 16010KT 10SM SCT049 BKN060 OVC075 03/M01 A2994 RMK AO2,M
HTH,2024-01-03 07:15,-118.6315,38.5448,1282.89,41.00,23.00,48.39,120.00,15.00,0.00,29.94,M,10.00,M,CLR,M,M,M,M,M,M,M,M,M,M,M,M,M,M,32.45,KHTH 030715Z AUTO 12015KT 10SM CLR 05/M05 A2994 RMK A01,M
BAM,2024-01-03 07:15,-116.8743,40.5990,1382.36,23.00,19.40,85.85,210.00,3.00,0.00,29.97,M,10.00,M,CLR,M,M,M,M,M,M,M,M,M,M,M,M,M,M,18.40,KBAM 030715Z AUTO 21003KT 10SM CLR M05/M07 A2997 RMK AO1,M
TMT,2024-01-03 07:15,-117.1971,39.4643,1749.34,18.00,13.50,82.23,0.00,0.00,0.00,29.99,M,10.00,M,CLR,M,M,M,M,M,M,M,M,M,M,M,M,M,M,18.00,KTMT 030715Z AUTO 00000KT 10SM CLR M08/M10 A2999 RMK AO2 T10781103,M
10U,2024-01-03 07:20,-116.1876,41.9532,1637.00,37.40,21.20,51.61,120.00,11.00,0.00,29.99,M,10.00,17.00,OVC,M,M,M,7000.00,M,M,M,M,M,M,M,M,M,M,29.29,K10U 030720Z AUTO 12011G17KT 10SM OVC070 03/M06 A2999 RMK AO2,M
05U,2024-01-03 07:20,-116.0051,39.6042,1811.23,30.20,17.60,59.01,350.00,6.00,0.00,30.03,M,10.00,M,M,M,M,M,M,M,M,M,M,M,M,M,M,M,M,23.36,K05U 030720Z AUTO 35006KT 10SM M01/M08 A3003 RMK A01,M
CXP,2024-01-03 07:30,-119.7326,39.1923,1431.00,39.20,28.40,64.93,M,6.00,0.00,29.95,M,10.00,15.00,SCT,OVC,M,M,4400.00,5000.00,M,M,M,M,M,M,M,M,M,34.20,KCXP 030730Z AUTO VRB06G15KT 10SM SCT044 OVC050 04/M02 A2995 RMK AO2,M
BVU,2024-01-03 07:35,-114.8611,35.9475,671.00,42.80,24.80,48.67,0.00,0.00,0.00,30.12,M,10.00,M,CLR,M,M,M,M,M,M,M,M,M,M,M,M,M,M,42.80,KBVU 030735Z AUTO 00000KT 10SM CLR 06/M04 A3012 RMK AO2,M
RTS,2024-01-03 07:35,-119.8764,39.6682,1539.00,35.60,32.00,86.59,0.00,0.00,0.00,29.94,M,10.00,M,BKN,BKN,OVC,M,2600.00,3100.00,4300.00,M,M,M,M,M,M,M,M,35.60,KRTS 030735Z AUTO 00000KT 10SM BKN026 BKN031 OVC043 02/M00 A2994 RMK AO2,M
MEV,2024-01-03 07:35,-119.7500,38.9963,1441.42,39.20,30.20,69.88,160.00,13.00,0.00,29.94,M,10.00,18.00,BKN,OVC,M,M,5000.00,5500.00,M,M,M,M,M,M,M,M,M,30.79,KMEV 030735Z AUTO 16013G18KT 10SM BKN050 OVC055 04/M01 A2994 RMK AO2,M
BAM,2024-01-03 07:35,-116.8743,40.5990,1382.36,23.00,19.40,85.85,210.00,4.00,0.00,29.97,M,10.00,M,CLR,M,M,M,M,M,M,M,M,M,M,M,M,M,M,16.91,KBAM 030735Z AUTO 21004KT 10SM CLR M05/M07 A2997 RMK AO1,M
HTH,2024-01-03 07:35,-118.6315,38.5448,1282.89,41.00,23.00,48.39,110.00,9.00,0.00,29.94,M,10.00,15.00,CLR,M,M,M,M,M,M,M,M,M,M,M,M,M,M,34.70,KHTH 030735Z AUTO 11009G15KT 10SM CLR 05/M05 A2994 RMK A01,M
TMT,2024-01-03 07:35,-117.1971,39.4643,1749.34,19.00,14.00,80.52,270.00,5.00,0.00,29.98,M,10.00,M,CLR,M,M,M,M,M,M,M,M,M,M,M,M,M,M,10.96,KTMT 030735Z AUTO 27005KT 10SM CLR M07/M10 A2998 RMK AO2 T10731101,M
10U,2024-01-03 07:40,-116.1876,41.9532,1637.00,37.40,21.20,51.61,110.00,13.00,0.00,29.97,M,10.00,M,OVC,M,M,M,7000.00,M,M,M,M,M,M,M,M,M,M,28.49,K10U 030740Z AUTO 11013KT 10SM OVC070 03/M06 A2997 RMK AO2,M
P68,2024-01-03 07:53,-116.0056,39.6014,1993.00,33.00,17.00,51.36,0.00,0.00,0.00,29.97,1013.40,M,M,M,M,M,M,M,M,M,M,M,M,M,M,M,M,M,33.00,KP68 030753Z AUTO 00000KT 01/M08 A2997 RMK AO1 SLP134 T00061083 400891106,M
DRA,2024-01-03 07:53,-116.0278,36.6206,1009.00,36.00,22.00,56.42,M,4.00,0.00,30.06,1016.90,10.00,M,CLR,M,M,M,M,M,M,M,M,M,M,M,M,M,M,32.09,KDRA 030753Z AUTO VRB04KT 10SM CLR 02/M06 A3006 RMK AO2 SLP169 T00221056 401331022,M
ELY,2024-01-03 07:53,-114.8453,39.2950,1909.00,29.00,14.00,53.00,200.00,11.00,0.00,30.05,1015.90,10.00,M,FEW,M,M,M,8000.00,M,M,M,M,M,M,M,M,M,M,18.68,KELY 030753Z AUTO 20011KT 10SM FEW080 M02/M10 A3005 RMK AO2 SLP159 T10171100 400891128,M
VGT,2024-01-03 07:53,-115.1933,36.2111,667.00,44.00,27.00,50.93,70.00,4.00,0.00,30.09,1020.50,10.00,M,CLR,M,M,M,M,M,M,M,M,M,M,M,M,M,M,41.43,KVGT 030753Z AUTO 07004KT 10SM CLR 07/M03 A3009 RMK AO2 SLP205 T00671028 401610056,M
LOL,2024-01-03 07:53,-118.5701,40.0684,1192.43,28.00,21.00,74.67,160.00,4.00,0.00,29.94,1015.50,10.00,M,OVC,M,M,M,8000.00,M,M,M,M,M,M,M,M,M,M,22.75,KLOL 030753Z AUTO 16004KT 10SM OVC080 M02/M06 A2994 RMK AO2 SLP155 T10221061 400501128,M
BVU,2024-01-03 07:55,-114.8611,35.9475,671.00,42.80,24.80,48.67,60.00,3.00,0.00,30.10,M,10.00,M,CLR,M,M,M,M,M,M,M,M,M,M,M,M,M,M,41.03,KBVU 030755Z AUTO 06003KT 10SM CLR 06/M04 A3010 RMK AO2,M
CXP,2024-01-03 07:55,-119.7326,39.1923,1431.00,39.20,30.20,69.88,190.00,6.00,0.00,29.94,M,10.00,M,FEW,BKN,OVC,M,3600.00,4300.00,5000.00,M,-RA,M,M,M,M,M,M,34.20,KCXP 030755Z AUTO 19006KT 10SM -RA FEW036 BKN043 OVC050 04/M01 A2994 RMK AO2,M
INS,2024-01-03 07:55,-115.6733,36.5872,955.00,34.00,17.00,49.34,0.00,0.00,0.00,30.08,1017.70,10.00,M,CLR,M,M,M,M,M,M,M,M,M,M,M,M,M,M,34.00,KINS 030755Z AUTO 00000KT 10SM CLR 01/M08 A3008 RMK AO2 SLP177 T00121083 401401032 $,M
RNO,2024-01-03 07:55,-119.7711,39.4839,1341.00,40.00,32.00,72.85,290.00,6.00,0.01,29.93,1013.90,10.00,M,SCT,OVC,M,M,3000.00,4500.00,M,M,-RA,M,M,M,M,M,M,35.17,KRNO 030755Z 29006KT 10SM -RA SCT030 OVC045 04/00 A2993 RMK AO2 RAB24 SLP139 P0001 T00440000 400611050,M
LSV,2024-01-03 07:55,-115.0343,36.2362,570.00,43.50,23.50,44.88,30.00,4.00,0.00,30.07,1018.10,10.00,M,CLR,M,M,M,M,M,M,M,M,M,M,M,M,M,M,40.85,KLSV 030755Z AUTO 03004KT 10SM CLR 06/M05 A3007 RMK AO2 SLP181 T00641047 401600013 $,M
RTS,2024-01-03 07:55,-119.8764,39.6682,1539.00,35.60,32.00,86.59,M,4.00,0.00,29.94,M,10.00,M,BKN,OVC,M,M,2600.00,3800.00,M,M,M,M,M,M,M,M,M,31.62,KRTS 030755Z AUTO VRB04KT 10SM BKN026 OVC038 02/M00 A2994 RMK AO2,M
MEV,2024-01-03 07:55,-119.7500,38.9963,1441.42,39.20,30.20,69.88,160.00,17.00,0.00,29.92,M,10.00,22.00,SCT,BKN,OVC,M,4200.00,5000.00,6000.00,M,M,M,M,M,M,M,M,29.51,KMEV 030755Z AUTO 16017G22KT 10SM SCT042 BKN050 OVC060 04/M01 A2992 RMK AO2,M
BAM,2024-01-03 07:55,-116.8743,40.5990,1382.36,26.60,19.40,73.89,200.00,3.00,0.00,29.96,M,10.00,M,CLR,M,M,M,M,M,M,M,M,M,M,M,M,M,M,22.52,KBAM 030755Z AUTO 20003KT 10SM CLR M03/M07 A2996 RMK AO1,M
HTH,2024-01-03 07:55,-118.6315,38.5448,1282.89,39.20,23.00,51.89,100.00,7.00,0.00,29.93,M,10.00,M,CLR,M,M,M,M,M,M,M,M,M,M,M,M,M,M,33.56,KHTH 030755Z AUTO 10007KT 10SM CLR 04/M05 A2993 RMK A01,M
TMT,2024-01-03 07:55,-117.1971,39.4643,1749.34,15.80,12.00,84.65,0.00,0.00,0.00,29.97,M,10.00,M,CLR,M,M,M,M,M,M,M,M,M,M,M,M,M,M,15.80,KTMT 030755Z AUTO 00000KT 10SM CLR M09/M11 A2997 RMK AO2 T10901111 400751147,M
EKO,2024-01-03 07:56,-115.7860,40.8242,1367.00,29.00,22.00,74.77,80.00,7.00,0.00,29.98,1016.50,10.00,M,FEW,M,M,M,9000.00,M,M,M,M,M,M,M,M,M,M,21.12,KEKO 030756Z AUTO 08007KT 10SM FEW090 M02/M06 A2998 RMK AO2 SLP165 T10171056 400671083 PWINO FZRANO $,M
WMC,2024-01-03 07:56,-117.8072,40.9019,1315.00,31.00,23.00,71.89,0.00,0.00,0.00,29.93,1013.70,10.00,M,OVC,M,M,M,10000.00,M,M,M,M,M,M,M,M,M,M,31.00,KWMC 030756Z AUTO 00000KT 10SM OVC100 M01/M05 A2993 RMK AO2 SLP137 T10061050 400781117,M
NFL,2024-01-03 07:56,-118.7010,39.4166,1199.00,31.00,26.00,81.48,330.00,4.00,0.00,29.93,1010.80,10.00,M,BKN,OVC,M,M,7500.00,9500.00,M,M,M,M,M,M,M,M,M,26.25,KNFL 030756Z AUTO 33004KT 10SM BKN075 OVC095 M01/M03 A2993 RMK AO2 SLP108 T10061033 400721089 $,M
HND,2024-01-03 07:56,-115.1344,35.9729,742.79,47.00,26.00,43.61,180.00,11.00,0.00,30.11,1021.00,10.00,M,CLR,M,M,M,M,M,M,M,M,M,M,M,M,M,M,41.42,KHND 030756Z AUTO 18011KT 10SM CLR 08/M03 A3011 RMK AO2 SLP210 T00831033,M
TPH,2024-01-03 07:56,-117.0904,38.0505,1654.00,28.00,20.00,71.56,220.00,4.00,0.00,30.03,1016.90,10.00,M,CLR,M,M,M,M,M,M,M,M,M,M,M,M,M,M,22.75,KTPH 030756Z AUTO 22004KT 10SM CLR M02/M07 A3003 RMK AO2 SLP169 T10221067 400721083,M
LAS,2024-01-03 07:56,-115.1634,36.0719,663.00,47.00,26.00,43.61,0.00,0.00,0.00,30.09,1018.40,10.00,M,BKN,M,M,M,20000.00,M,M,M,M,M,M,M,M,M,M,47.00,KLAS 030756Z 00000KT 10SM BKN200 08/M03 A3009 RMK AO2 SLP184 T00831033 401610050,M
10U,2024-01-03 08:00,-116.1876,41.9532,1637.00,37.40,21.20,51.61,110.00,13.00,0.00,29.96,M,10.00,M,OVC,M,M,M,7000.00,M,M,M,M,M,M,M,M,M,M,28.49,K10U 030800Z AUTO 11013KT 10SM OVC070 03/M06 A2996 RMK AO2,M
05U,2024-01-03 08:00,-116.0051,39.6042,1811.23,32.00,17.60,54.87,M,5.00,0.00,30.00,M,10.00,M,M,M,M,M,M,M,M,M,M,M,M,M,M,M,M,26.40,K05U 030800Z AUTO VRB05KT 10SM M00/M08 A3000 RMK A01,M
BVU,2024-01-03 08:15,-114.8611,35.9475,671.00,41.00,24.80,52.17,0.00,0.00,0.00,30.10,M,10.00,M,CLR,M,M,M,M,M,M,M,M,M,M,M,M,M,M,41.00,KBVU 030815Z AUTO 00000KT 10SM CLR 05/M04 A3010 RMK AO2,M
CXP,2024-01-03 08:15,-119.7326,39.1923,1431.00,39.20,30.20,69.88,0.00,0.00,0.00,29.94,M,10.00,M,SCT,BKN,OVC,M,3500.00,4200.00,5000.00,M,-RA,M,M,M,M,M,M,39.20,KCXP 030815Z AUTO 00000KT 10SM -RA SCT035 BKN042 OVC050 04/M01 A2994 RMK AO2,M
RTS,2024-01-03 08:15,-119.8764,39.6682,1539.00,37.40,28.40,69.67,190.00,6.00,0.00,29.93,M,10.00,M,SCT,SCT,OVC,M,3800.00,5000.00,7500.00,M,M,M,M,M,M,M,M,32.03,KRTS 030815Z AUTO 19006KT 10SM SCT038 SCT050 OVC075 03/M02 A2993 RMK AO2,M
MEV,2024-01-03 08:15,-119.7500,38.9963,1441.42,37.40,30.20,74.98,140.00,16.00,0.00,29.92,M,10.00,M,SCT,BKN,OVC,M,4200.00,4900.00,7000.00,M,M,M,M,M,M,M,M,27.46,KMEV 030815Z AUTO 14016KT 10SM SCT042 BKN049 OVC070 03/M01 A2992 RMK AO2,M
HTH,2024-01-03 08:15,-118.6315,38.5448,1282.89,41.00,23.00,48.39,130.00,6.00,0.00,29.93,M,10.00,M,FEW,M,M,M,7500.00,M,M,M,M,M,M,M,M,M,M,36.37,KHTH 030815Z AUTO 13006KT 10SM FEW075 05/M05 A2993 RMK A01,M
BAM,2024-01-03 08:15,-116.8743,40.5990,1382.36,24.80,19.40,79.62,170.00,6.00,0.00,29.95,M,10.00,M,BKN,M,M,M,12000.00,M,M,M,M,M,M,M,M,M,M,16.86,KBAM 030815Z AUTO 17006KT 10SM BKN120 M04/M07 A2995 RMK AO1,M
TMT,2024-01-03 08:15,-117.1971,39.4643,1749.34,14.50,11.00,85.70,0.00,0.00,0.00,29.95,M,10.00,M,SCT,M,M,M,10000.00,M,M,M,M,M,M,M,M,M,M,14.50,KTMT 030815Z AUTO 00000KT 10SM SCT100 M10/M12 A2995 RMK AO2 T10971117,M
05U,2024-01-03 08:15,-116.0051,39.6042,1811.23,33.80,17.60,51.04,310.00,9.00,0.00,30.00,M,10.00,M,M,M,M,M,M,M,M,M,M,M,M,M,M,M,M,25.75,K05U 030815Z AUTO 31009KT 290V350 10SM 01/M08 A3000 RMK A01,M
10U,2024-01-03 08:20,-116.1876,41.9532,1637.00,35.60,21.20,55.41,100.00,8.00,0.00,29.95,M,10.00,M,FEW,OVC,M,M,6500.00,7500.00,M,M,M,M,M,M,M,M,M,28.55,K10U 030820Z AUTO 10008KT 070V130 10SM FEW065 OVC075 02/M06 A2995 RMK AO2,M
CXP,2024-01-03 08:30,-119.7326,39.1923,1431.00,39.20,30.20,69.88,0.00,0.00,0.00,29.94,M,10.00,M,BKN,BKN,OVC,M,3800.00,4600.00,6500.00,M,-RA,M,M,M,M,M,M,39.20,KCXP 030830Z AUTO 00000KT 10SM -RA BKN038 BKN046 OVC065 04/M01 A2994 RMK AO2,M
HTH,2024-01-03 08:30,-118.6315,38.5448,1282.89,41.00,21.20,44.85,130.00,9.00,0.00,29.91,M,10.00,16.00,FEW,FEW,M,M,7000.00,11000.00,M,M,M,M,M,M,M,M,M,34.70,KHTH 030830Z AUTO 13009G16KT 100V240 10SM FEW070 FEW110 05/M06 A2991 RMK A01,M
BVU,2024-01-03 08:35,-114.8611,35.9475,671.00,41.00,24.80,52.17,0.00,0.00,0.00,30.09,M,10.00,M,CLR,M,M,M,M,M,M,M,M,M,M,M,M,M,M,41.00,KBVU 030835Z AUTO 00000KT 10SM CLR 05/M04 A3009 RMK AO2,M
RTS,2024-01-03 08:35,-119.8764,39.6682,1539.00,37.40,28.40,69.67,M,5.00,0.00,29.93,M,10.00,12.00,SCT,BKN,OVC,M,4700.00,5500.00,7500.00,M,M,M,M,M,M,M,M,32.81,KRTS 030835Z AUTO VRB05G12KT 10SM SCT047 BKN055 OVC075 03/M02 A2993 RMK AO2,M
MEV,2024-01-03 08:35,-119.7500,38.9963,1441.42,37.40,30.20,74.98,140.00,16.00,0.00,29.92,M,10.00,21.00,BKN,BKN,OVC,M,4700.00,5500.00,7000.00,M,M,M,M,M,M,M,M,27.46,KMEV 030835Z AUTO 14016G21KT 10SM BKN047 BKN055 OVC070 03/M01 A2992 RMK AO2,M
BAM,2024-01-03 08:35,-116.8743,40.5990,1382.36,26.60,19.40,73.89,190.00,6.00,0.00,29.95,M,10.00,M,BKN,M,M,M,12000.00,M,M,M,M,M,M,M,M,M,M,19.03,KBAM 030835Z AUTO 19006KT 10SM BKN120 M03/M07 A2995 RMK AO1,M
TMT,2024-01-03 08:35,-117.1971,39.4643,1749.34,16.00,13.00,87.70,270.00,6.00,0.00,29.95,M,10.00,M,CLR,M,M,M,M,M,M,M,M,M,M,M,M,M,M,6.26,KTMT 030835Z AUTO 27006KT 10SM CLR M09/M11 A2995 RMK AO2 T10881106,M
05U,2024-01-03 08:40,-116.0051,39.6042,1811.23,32.00,15.80,50.75,0.00,0.00,0.00,30.00,M,10.00,M,M,M,M,M,M,M,M,M,M,M,M,M,M,M,M,32.00,K05U 030840Z AUTO 00000KT 10SM M00/M09 A3000 RMK A01,M
10U,2024-01-03 08:40,-116.1876,41.9532,1637.00,35.60,21.20,55.41,100.00,11.00,0.00,29.94,M,10.00,M,FEW,SCT,BKN,M,6500.00,8000.00,12000.00,M,M,M,M,M,M,M,M,27.02,K10U 030840Z AUTO 10011KT 10SM FEW065 SCT080 BKN120 02/M06 A2994 RMK AO2,M
P68,2024-01-03 08:53,-116.0056,39.6014,1993.00,34.00,18.00,51.52,0.00,0.00,0.00,29.96,1012.50,M,M,M,M,M,M,M,M,M,M,M,M,M,M,M,M,M,34.00,KP68 030853Z AUTO 00000KT 01/M08 A2996 RMK AO1 SLP125 T00111078 58017,M
DRA,2024-01-03 08:53,-116.0278,36.6206,1009.00,40.00,22.00,48.22,90.00,6.00,0.00,30.03,1015.50,10.00,M,CLR,M,M,M,M,M,M,M,M,M,M,M,M,M,M,35.17,KDRA 030853Z AUTO 09006KT 10SM CLR 04/M06 A3003 RMK AO2 SLP155 T00441056 58022,M
ELY,2024-01-03 08:53,-114.8453,39.2950,1909.00,30.00,15.00,53.15,210.00,13.00,0.00,30.02,1014.60,10.00,M,CLR,M,M,M,M,M,M,M,M,M,M,M,M,M,M,19.01,KELY 030853Z AUTO 21013KT 10SM CLR M01/M09 A3002 RMK AO2 SLP146 T10111094 58016,M
VGT,2024-01-03 08:53,-115.1933,36.2111,667.00,44.00,27.00,50.93,0.00,0.00,0.00,30.06,1019.70,10.00,M,CLR,M,M,M,M,M,M,M,M,M,M,M,M,M,M,44.00,KVGT 030853Z AUTO 00000KT 10SM CLR 07/M03 A3006 RMK AO2 SLP197 T00671028 58015,M
LOL,2024-01-03 08:53,-118.5701,40.0684,1192.43,29.00,21.00,71.67,270.00,4.00,0.00,29.93,1015.10,10.00,M,OVC,M,M,M,6500.00,M,M,M,M,M,M,M,M,M,M,23.92,KLOL 030853Z AUTO 27004KT 10SM OVC065 M02/M06 A2993 RMK AO2 SLP151 T10171061 56010,M
BVU,2024-01-03 08:55,-114.8611,35.9475,671.00,42.80,24.80,48.67,350.00,5.00,0.00,30.08,M,10.00,M,CLR,M,M,M,M,M,M,M,M,M,M,M,M,M,M,39.22,KBVU 030855Z AUTO 35005KT 10SM CLR 06/M04 A3008 RMK AO2,M
CXP,2024-01-03 08:55,-119.7326,39.1923,1431.00,37.40,30.20,74.98,170.00,5.00,0.00,29.93,M,10.00,M,FEW,FEW,OVC,M,3900.00,4900.00,6000.00,M,M,M,M,M,M,M,M,32.81,KCXP 030855Z AUTO 17005KT 10SM FEW039 FEW049 OVC060 03/M01 A2993 RMK AO2,M
INS,2024-01-03 08:55,-115.6733,36.5872,955.00,32.70,15.30,48.28,0.00,0.00,0.00,30.05,1016.70,10.00,M,CLR,M,M,M,M,M,M,M,M,M,M,M,M,M,M,32.70,KINS 030855Z AUTO 00000KT 10SM CLR 00/M09 A3005 RMK AO2 SLP167 T00041093 57015 $,M
RNO,2024-01-03 08:55,-119.7711,39.4839,1341.00,40.00,32.00,72.85,0.00,0.00,T,29.91,1012.90,10.00,M,SCT,OVC,M,M,2300.00,5000.00,M,M,M,M,M,M,M,M,M,40.00,KRNO 030855Z 00000KT 10SM SCT023 OVC050 04/00 A2991 RMK AO2 RAE0759 SLP129 P0000 60001 T00440000 58003,M
LSV,2024-01-03 08:55,-115.0343,36.2362,570.00,44.00,25.00,46.88,10.00,3.00,0.00,30.05,1017.30,10.00,M,CLR,M,M,M,M,M,M,M,M,M,M,M,M,M,M,42.41,KLSV 030855Z AUTO 01003KT 10SM CLR 07/M04 A3005 RMK AO2 SLP173 T00671038 58014 $,M
RTS,2024-01-03 08:55,-119.8764,39.6682,1539.00,35.60,28.40,74.80,340.00,9.00,0.00,29.92,M,10.00,M,BKN,BKN,OVC,M,3600.00,4600.00,6000.00,M,M,M,M,M,M,M,M,27.99,KRTS 030855Z AUTO 34009KT 10SM BKN036 BKN046 OVC060 02/M02 A2992 RMK AO2,M
MEV,2024-01-03 08:55,-119.7500,38.9963,1441.42,37.40,30.20,74.98,150.00,14.00,0.00,29.91,M,10.00,M,FEW,SCT,BKN,M,3000.00,3700.00,4700.00,M,M,M,M,M,M,M,M,28.12,KMEV 030855Z AUTO 15014KT 10SM FEW030 SCT037 BKN047 03/M01 A2991 RMK AO2,M
HTH,2024-01-03 08:55,-118.6315,38.5448,1282.89,41.00,21.20,44.85,190.00,12.00,0.00,29.91,M,10.00,M,SCT,SCT,BKN,M,5000.00,6000.00,11000.00,M,M,M,M,M,M,M,M,33.46,KHTH 030855Z AUTO 19012KT 10SM SCT050 SCT060 BKN110 05/M06 A2991 RMK A01,M
BAM,2024-01-03 08:55,-116.8743,40.5990,1382.36,26.60,21.20,79.77,200.00,5.00,0.00,29.93,M,10.00,M,SCT,M,M,M,12000.00,M,M,M,M,M,M,M,M,M,M,19.98,KBAM 030855Z AUTO 20005KT 10SM SCT120 M03/M06 A2993 RMK AO1,M
TMT,2024-01-03 08:55,-117.1971,39.4643,1749.34,16.30,12.00,82.83,220.00,4.00,0.00,29.95,M,10.00,M,CLR,M,M,M,M,M,M,M,M,M,M,M,M,M,M,9.09,KTMT 030855Z AUTO 22004KT 10SM CLR M09/M11 A2995 RMK AO2 T10871112,M
EKO,2024-01-03 08:56,-115.7860,40.8242,1367.00,30.00,21.00,68.81,80.00,7.00,0.00,29.97,1015.60,10.00,M,BKN,M,M,M,9000.00,M,M,M,M,M,M,M,M,M,M,22.34,KEKO 030856Z AUTO 08007KT 10SM BKN090 M01/M06 A2997 RMK AO2 SLP156 T10111061 58017 PWINO FZRANO $,M
WMC,2024-01-03 08:56,-117.8072,40.9019,1315.00,31.00,22.00,68.92,0.00,0.00,0.00,29.92,1013.30,10.00,M,BKN,OVC,M,M,8000.00,10000.00,M,M,M,M,M,M,M,M,M,31.00,KWMC 030856Z AUTO 00000KT 10SM BKN080 OVC100 M01/M06 A2992 RMK AO2 SLP133 T10061056 58012,M
NFL,2024-01-03 08:56,-118.7010,39.4166,1199.00,32.00,27.00,81.55,20.00,3.00,0.00,29.92,1010.60,10.00,M,OVC,M,M,M,6000.00,M,M,M,M,M,M,M,M,M,M,28.69,KNFL 030856Z AUTO 02003KT 10SM OVC060 00/M03 A2992 RMK AO2 SLP106 T00001028 56009 $,M
HND,2024-01-03 08:56,-115.1344,35.9729,742.79,47.00,26.00,43.61,220.00,9.00,0.00,30.09,1020.20,10.00,M,CLR,M,M,M,M,M,M,M,M,M,M,M,M,M,M,42.17,KHND 030856Z AUTO 22009KT 10SM CLR 08/M03 A3009 RMK AO2 SLP202 T00831033 58014,M
TPH,2024-01-03 08:56,-117.0904,38.0505,1654.00,32.00,23.00,69.04,130.00,10.00,0.00,29.97,1014.50,10.00,M,CLR,M,M,M,M,M,M,M,M,M,M,M,M,M,M,22.97,KTPH 030856Z AUTO 13010KT 10SM CLR 00/M05 A2997 RMK AO2 SLP145 T00001050 58028,M
LAS,2024-01-03 08:56,-115.1634,36.0719,663.00,47.00,26.00,43.61,0.00,0.00,0.00,30.06,1017.60,10.00,M,BKN,M,M,M,20000.00,M,M,M,M,M,M,M,M,M,M,47.00,KLAS 030856Z 00000KT 10SM BKN200 08/M03 A3006 RMK AO2 SLP176 T00831033 58015,M
10U,2024-01-03 09:00,-116.1876,41.9532,1637.00,37.40,19.40,47.80,120.00,15.00,0.00,29.93,M,10.00,20.00,BKN,M,M,M,12000.00,M,M,M,M,M,M,M,M,M,M,27.78,K10U 030900Z AUTO 12015G20KT 10SM BKN120 03/M07 A2993 RMK AO2,M
05U,2024-01-03 09:00,-116.0051,39.6042,1811.23,32.00,15.80,50.75,0.00,0.00,0.00,29.98,M,10.00,M,M,M,M,M,M,M,M,M,M,M,M,M,M,M,M,32.00,K05U 030900Z AUTO 00000KT 10SM M00/M09 A2998 RMK A01,M
BVU,2024-01-03 09:15,-114.8611,35.9475,671.00,44.60,24.80,45.44,0.00,0.00,0.00,30.08,M,10.00,M,CLR,M,M,M,M,M,M,M,M,M,M,M,M,M,M,44.60,KBVU 030915Z AUTO 00000KT 10SM CLR 07/M04 A3008 RMK AO2,M
CXP,2024-01-03 09:15,-119.7326,39.1923,1431.00,37.40,30.20,74.98,200.00,5.00,0.00,29.93,M,10.00,10.00,SCT,BKN,OVC,M,4400.00,4900.00,6000.00,M,M,M,M,M,M,M,M,32.81,KCXP 030915Z AUTO 20005G10KT 10SM SCT044 BKN049 OVC060 03/M01 A2993 RMK AO2,M
RTS,2024-01-03 09:15,-119.8764,39.6682,1539.00,35.60,28.40,74.80,300.00,9.00,0.00,29.92,M,10.00,M,OVC,M,M,M,3500.00,M,M,M,M,M,M,M,M,M,M,27.99,KRTS 030915Z AUTO 30009KT 10SM OVC035 02/M02 A2992 RMK AO2,M
MEV,2024-01-03 09:15,-119.7500,38.9963,1441.42,35.60,30.20,80.51,160.00,13.00,0.00,29.91,M,10.00,24.00,FEW,BKN,OVC,M,2900.00,4100.00,7500.00,M,M,M,M,M,M,M,M,26.18,KMEV 030915Z AUTO 16013G24KT 10SM FEW029 BKN041 OVC075 02/M01 A2991 RMK AO2,M
HTH,2024-01-03 09:15,-118.6315,38.5448,1282.89,41.00,23.00,48.39,150.00,14.00,0.00,29.90,M,10.00,M,FEW,SCT,BKN,M,5000.00,6000.00,7000.00,M,M,M,M,M,M,M,M,32.76,KHTH 030915Z AUTO 15014KT 10SM FEW050 SCT060 BKN070 05/M05 A2990 RMK A01,M
BAM,2024-01-03 09:15,-116.8743,40.5990,1382.36,28.40,21.20,74.08,0.00,0.00,0.00,29.92,M,10.00,M,SCT,M,M,M,12000.00,M,M,M,M,M,M,M,M,M,M,28.40,KBAM 030915Z AUTO 00000KT 10SM SCT120 M02/M06 A2992 RMK AO1,M
TMT,2024-01-03 09:15,-117.1971,39.4643,1749.34,14.40,10.60,84.55,120.00,7.00,0.00,29.93,M,10.00,M,BKN,M,M,M,11000.00,M,M,M,M,M,M,M,M,M,M,3.33,KTMT 030915Z AUTO 12007KT 10SM BKN110 M10/M12 A2993 RMK AO2 T10981119,M
10U,2024-01-03 09:20,-116.1876,41.9532,1637.00,37.40,19.40,47.80,120.00,10.00,0.00,29.92,M,10.00,20.00,BKN,M,M,M,12000.00,M,M,M,M,M,M,M,M,M,M,29.74,K10U 030920Z AUTO 12010G20KT 10SM BKN120 03/M07 A2992 RMK AO2,M
05U,2024-01-03 09:30,-116.0051,39.6042,1811.23,30.20,17.60,59.01,0.00,0.00,0.00,29.97,M,10.00,M,M,M,M,M,M,M,M,M,M,M,M,M,M,M,M,30.20,K05U 030930Z AUTO 00000KT 10SM M01/M08 A2997 RMK A01,M
BVU,2024-01-03 09:35,-114.8611,35.9475,671.00,42.80,24.80,48.67,20.00,5.00,0.00,30.08,M,10.00,M,CLR,M,M,M,M,M,M,M,M,M,M,M,M,M,M,39.22,KBVU 030935Z AUTO 02005KT 10SM CLR 06/M04 A3008 RMK AO2,M
CXP,2024-01-03 09:35,-119.7326,39.1923,1431.00,37.40,30.20,74.98,0.00,0.00,0.00,29.94,M,10.00,M,SCT,BKN,OVC,M,3600.00,4600.00,5500.00,M,M,M,M,M,M,M,M,37.40,KCXP 030935Z AUTO 00000KT 10SM SCT036 BKN046 OVC055 03/M01 A2994 RMK AO2,M
RTS,2024-01-03 09:35,-119.8764,39.6682,1539.00,35.60,28.40,74.80,260.00,9.00,0.00,29.91,M,10.00,M,BKN,BKN,OVC,M,3500.00,5000.00,7000.00,M,M,M,M,M,M,M,M,27.99,KRTS 030935Z AUTO 26009KT 10SM BKN035 BKN050 OVC070 02/M02 A2991 RMK AO2,M
MEV,2024-01-03 09:35,-119.7500,38.9963,1441.42,37.40,30.20,74.98,160.00,10.00,0.00,29.92,M,10.00,17.00,FEW,SCT,BKN,M,3000.00,3800.00,4500.00,M,M,M,M,M,M,M,M,29.74,KMEV 030935Z AUTO 16010G17KT 10SM FEW030 SCT038 BKN045 03/M01 A2992 RMK AO2,M
HTH,2024-01-03 09:35,-118.6315,38.5448,1282.89,41.00,23.00,48.39,130.00,14.00,0.00,29.89,M,10.00,M,FEW,BKN,M,M,8000.00,11000.00,M,M,M,M,M,M,M,M,M,32.76,KHTH 030935Z AUTO 13014KT 10SM FEW080 BKN110 05/M05 A2989 RMK A01,M
BAM,2024-01-03 09:35,-116.8743,40.5990,1382.36,28.40,21.20,74.08,230.00,4.00,0.00,29.92,M,10.00,M,SCT,M,M,M,12000.00,M,M,M,M,M,M,M,M,M,M,23.22,KBAM 030935Z AUTO 23004KT 10SM SCT120 M02/M06 A2992 RMK AO1,M
TMT,2024-01-03 09:35,-117.1971,39.4643,1749.34,19.00,14.00,80.52,0.00,0.00,0.00,29.93,M,10.00,M,OVC,M,M,M,11000.00,M,M,M,M,M,M,M,M,M,M,19.00,KTMT 030935Z AUTO 00000KT 10SM OVC110 M07/M10 A2993 RMK AO2 T10721101,M
10U,2024-01-03 09:40,-116.1876,41.9532,1637.00,37.40,19.40,47.80,140.00,17.00,0.00,29.92,M,10.00,M,BKN,M,M,M,11000.00,M,M,M,M,M,M,M,M,M,M,27.15,K10U 030940Z AUTO 14017KT 10SM BKN110 03/M07 A2992 RMK AO2,M
P68,2024-01-03 09:53,-116.0056,39.6014,1993.00,34.00,18.00,51.52,M,3.00,0.00,29.94,1011.50,M,M,M,M,M,M,M,M,M,M,M,M,M,M,M,M,M,30.97,KP68 030953Z AUTO VRB03KT 01/M08 A2994 RMK AO1 SLP115 T00111078,M
ELY,2024-01-03 09:53,-114.8453,39.2950,1909.00,30.00,15.00,53.15,210.00,13.00,0.00,29.99,1013.30,10.00,20.00,CLR,M,M,M,M,M,M,M,M,M,M,M,M,M,M,19.01,KELY 030953Z AUTO 21013G20KT 10SM CLR M01/M09 A2999 RMK AO2 SLP133 T10111094,M
VGT,2024-01-03 09:53,-115.1933,36.2111,667.00,43.00,27.00,52.91,340.00,3.00,0.00,30.06,1019.50,10.00,M,CLR,M,M,M,M,M,M,M,M,M,M,M,M,M,M,41.26,KVGT 030953Z AUTO 34003KT 10SM CLR 06/M03 A3006 RMK AO2 SLP195 T00611028,M
LOL,2024-01-03 09:53,-118.5701,40.0684,1192.43,29.00,22.00,74.77,260.00,4.00,0.00,29.95,1015.70,10.00,M,OVC,M,M,M,4100.00,M,M,M,M,M,M,M,M,M,M,23.92,KLOL 030953Z AUTO 26004KT 10SM OVC041 M02/M06 A2995 RMK AO2 SLP157 T10171056,M
DRA,2024-01-03 09:53,-116.0278,36.6206,1009.00,40.00,22.00,48.22,80.00,6.00,0.00,30.01,1014.60,10.00,M,CLR,M,M,M,M,M,M,M,M,M,M,M,M,M,M,35.17,KDRA 030953Z AUTO 08006KT 10SM CLR 04/M06 A3001 RMK AO2 SLP146 T00441056,M
BVU,2024-01-03 09:55,-114.8611,35.9475,671.00,48.20,24.80,39.66,140.00,6.00,0.00,30.07,M,10.00,M,CLR,M,M,M,M,M,M,M,M,M,M,M,M,M,M,45.04,KBVU 030955Z AUTO 14006KT 10SM CLR 09/M04 A3007 RMK AO2,M
CXP,2024-01-03 09:55,-119.7326,39.1923,1431.00,37.40,30.20,74.98,210.00,5.00,0.00,29.94,M,10.00,10.00,FEW,BKN,OVC,M,3400.00,4100.00,4800.00,M,M,M,M,M,M,M,M,32.81,KCXP 030955Z AUTO 21005G10KT 10SM FEW034 BKN041 OVC048 03/M01 A2994 RMK AO2,M
RNO,2024-01-03 09:55,-119.7711,39.4839,1341.00,39.00,32.00,75.75,0.00,0.00,0.00,29.92,1012.90,10.00,M,SCT,BKN,OVC,M,2500.00,3600.00,7500.00,M,M,M,M,M,M,M,M,39.00,KRNO 030955Z 00000KT 10SM SCT025 BKN036 OVC075 04/00 A2992 RMK AO2 SLP129 T00390000,M
RTS,2024-01-03 09:55,-119.8764,39.6682,1539.00,35.60,28.40,74.80,240.00,11.00,0.00,29.92,M,10.00,M,FEW,FEW,OVC,M,4100.00,5500.00,7500.00,M,M,M,M,M,M,M,M,27.02,KRTS 030955Z AUTO 24011KT 10SM FEW041 FEW055 OVC075 02/M02 A2992 RMK AO2,M
MEV,2024-01-03 09:55,-119.7500,38.9963,1441.42,37.40,28.40,69.67,200.00,5.00,0.00,29.92,M,10.00,12.00,FEW,BKN,OVC,M,2800.00,4000.00,4800.00,M,M,M,M,M,M,M,M,32.81,KMEV 030955Z AUTO 20005G12KT 10SM FEW028 BKN040 OVC048 03/M02 A2992 RMK AO2,M
HTH,2024-01-03 09:55,-118.6315,38.5448,1282.89,42.80,24.80,48.67,140.00,13.00,0.00,29.89,M,10.00,21.00,FEW,FEW,BKN,M,6000.00,7500.00,11000.00,M,M,M,M,M,M,M,M,35.40,KHTH 030955Z AUTO 14013G21KT 10SM FEW060 FEW075 BKN110 06/M04 A2989 RMK A01,M
LSV,2024-01-03 09:55,-115.0343,36.2362,570.00,45.70,26.00,45.80,60.00,9.00,0.00,30.04,1016.80,10.00,M,CLR,M,M,M,M,M,M,M,M,M,M,M,M,M,M,40.55,KLSV 030955Z AUTO 06009KT 10SM CLR 08/M03 A3004 RMK AO2 SLP168 T00761033 $,M
BAM,2024-01-03 09:55,-116.8743,40.5990,1382.36,30.20,21.20,68.83,220.00,4.00,0.00,29.92,M,10.00,M,CLR,M,M,M,M,M,M,M,M,M,M,M,M,M,M,25.32,KBAM 030955Z AUTO 22004KT 10SM CLR M01/M06 A2992 RMK AO1,M
TMT,2024-01-03 09:55,-117.1971,39.4643,1749.34,19.20,14.40,81.25,300.00,6.00,0.00,29.92,M,10.00,M,OVC,M,M,M,11000.00,M,M,M,M,M,M,M,M,M,M,10.11,KTMT 030955Z AUTO 30006KT 10SM OVC110 M07/M10 A2992 RMK AO2 T10711098,M
INS,2024-01-03 09:55,-115.6733,36.5872,955.00,34.00,15.80,46.84,0.00,0.00,0.00,30.03,1016.00,10.00,M,CLR,M,M,M,M,M,M,M,M,M,M,M,M,M,M,34.00,KINS 030955Z AUTO 00000KT 10SM CLR 01/M09 A3003 RMK AO2 SLP160 T00111090 $,M
EKO,2024-01-03 09:56,-115.7860,40.8242,1367.00,29.00,21.00,71.67,60.00,7.00,0.00,29.95,1014.80,10.00,M,CLR,M,M,M,M,M,M,M,M,M,M,M,M,M,M,21.12,KEKO 030956Z AUTO 06007KT 10SM CLR M02/M06 A2995 RMK AO2 SLP148 T10171061 PWINO FZRANO $,M
HND,2024-01-03 09:56,-115.1344,35.9729,742.79,43.00,25.00,48.70,200.00,8.00,0.00,30.08,1020.00,10.00,M,CLR,M,M,M,M,M,M,M,M,M,M,M,M,M,M,37.66,KHND 030956Z AUTO 20008KT 10SM CLR 06/M04 A3008 RMK AO2 SLP200 T00611039,M
TPH,2024-01-03 09:56,-117.0904,38.0505,1654.00,34.00,24.00,66.45,80.00,4.00,0.00,29.97,1014.10,10.00,M,CLR,M,M,M,M,M,M,M,M,M,M,M,M,M,M,29.76,KTPH 030956Z AUTO 08004KT 10SM CLR 01/M04 A2997 RMK AO2 SLP141 T00111044,M
WMC,2024-01-03 09:56,-117.8072,40.9019,1315.00,31.00,23.00,71.89,0.00,0.00,0.00,29.91,1012.90,10.00,M,OVC,M,M,M,8500.00,M,M,M,M,M,M,M,M,M,M,31.00,KWMC 030956Z AUTO 00000KT 10SM OVC085 M01/M05 A2991 RMK AO2 SLP129 T10061050,M
LAS,2024-01-03 09:56,-115.1634,36.0719,663.00,50.00,27.00,40.62,160.00,5.00,0.00,30.06,1017.20,10.00,M,BKN,M,M,M,24000.00,M,M,M,M,M,M,M,M,M,M,50.00,KLAS 030956Z 16005KT 10SM BKN240 10/M03 A3006 RMK AO2 SLP172 T01001028,M
NFL,2024-01-03 09:56,-118.7010,39.4166,1199.00,33.00,27.00,78.34,360.00,4.00,0.00,29.93,1010.80,10.00,M,OVC,M,M,M,4200.00,M,M,M,M,M,M,M,M,M,M,28.59,KNFL 030956Z AUTO 36004KT 10SM OVC042 01/M03 A2993 RMK AO2 SLP108 T00061028 $,M
10U,2024-01-03 10:00,-116.1876,41.9532,1637.00,37.40,19.40,47.80,120.00,15.00,0.00,29.91,M,10.00,21.00,SCT,OVC,M,M,7500.00,11000.00,M,M,M,M,M,M,M,M,M,27.78,K10U 031000Z AUTO 12015G21KT 10SM SCT075 OVC110 03/M07 A2991 RMK AO2,M
LOL,2024-01-03 10:09,-118.5701,40.0684,1192.43,30.00,24.00,78.07,0.00,0.00,T,29.95,M,5.00,M,OVC,M,M,M,2400.00,M,M,M,-SN,M,M,M,M,M,M,30.00,KLOL 031009Z AUTO 00000KT 5SM -SN OVC024 M01/M04 A2995 RMK AO2 SNB0958 P0000 T10111044,M
BVU,2024-01-03 10:15,-114.8611,35.9475,671.00,48.20,24.80,39.66,0.00,0.00,0.00,30.07,M,10.00,M,CLR,M,M,M,M,M,M,M,M,M,M,M,M,M,M,48.20,KBVU 031015Z AUTO 00000KT 10SM CLR 09/M04 A3007 RMK AO2,M
CXP,2024-01-03 10:15,-119.7326,39.1923,1431.00,37.40,30.20,74.98,210.00,6.00,0.00,29.93,M,10.00,M,FEW,BKN,OVC,M,2600.00,3300.00,5500.00,M,-RA,M,M,M,M,M,M,32.03,KCXP 031015Z AUTO 21006KT 10SM -RA FEW026 BKN033 OVC055 03/M01 A2993 RMK AO2,M
RTS,2024-01-03 10:15,-119.8764,39.6682,1539.00,35.60,26.60,69.46,250.00,8.00,0.00,29.92,M,10.00,15.00,FEW,BKN,OVC,M,4200.00,6500.00,7500.00,M,M,M,M,M,M,M,M,28.55,KRTS 031015Z AUTO 25008G15KT 10SM FEW042 BKN065 OVC075 02/M03 A2992 RMK AO2,M
MEV,2024-01-03 10:15,-119.7500,38.9963,1441.42,35.60,28.40,74.80,180.00,8.00,0.00,29.92,M,10.00,M,BKN,BKN,OVC,M,4000.00,4700.00,5500.00,M,M,M,M,M,M,M,M,28.55,KMEV 031015Z AUTO 18008KT 10SM BKN040 BKN047 OVC055 02/M02 A2992 RMK AO2,M
HTH,2024-01-03 10:15,-118.6315,38.5448,1282.89,42.80,23.00,45.14,140.00,14.00,0.00,29.88,M,10.00,M,BKN,BKN,OVC,M,6000.00,7500.00,12000.00,M,M,M,M,M,M,M,M,35.08,KHTH 031015Z AUTO 14014KT 110V170 10SM BKN060 BKN075 OVC120 06/M05 A2988 RMK A01,M
BAM,2024-01-03 10:15,-116.8743,40.5990,1382.36,30.20,23.00,74.26,200.00,4.00,0.00,29.92,M,10.00,M,CLR,M,M,M,M,M,M,M,M,M,M,M,M,M,M,25.32,KBAM 031015Z AUTO 20004KT 10SM CLR M01/M05 A2992 RMK AO1,M
TMT,2024-01-03 10:15,-117.1971,39.4643,1749.34,19.40,14.70,81.62,0.00,0.00,0.00,29.92,M,10.00,M,OVC,M,M,M,11000.00,M,M,M,M,M,M,M,M,M,M,19.40,KTMT 031015Z AUTO 00000KT 10SM OVC110 M07/M10 A2992 RMK AO2 T10701096,M
10U,2024-01-03 10:20,-116.1876,41.9532,1637.00,37.40,19.40,47.80,120.00,14.00,0.00,29.91,M,10.00,20.00,BKN,OVC,M,M,7500.00,11000.00,M,M,M,M,M,M,M,M,M,28.12,K10U 031020Z AUTO 12014G20KT 10SM BKN075 OVC110 03/M07 A2991 RMK AO2,M
05U,2024-01-03 10:30,-116.0051,39.6042,1811.23,33.80,17.60,51.04,M,3.00,0.00,29.95,M,10.00,M,M,M,M,M,M,M,M,M,M,M,M,M,M,M,M,30.75,K05U 031030Z AUTO VRB03KT 10SM 01/M08 A2995 RMK A01,M
BAM,2024-01-03 10:35,-116.8743,40.5990,1382.36,30.20,23.00,74.26,0.00,0.00,0.00,29.91,M,10.00,M,BKN,M,M,M,11000.00,M,M,M,M,M,M,M,M,M,M,30.20,KBAM 031035Z AUTO 00000KT 10SM BKN110 M01/M05 A2991 RMK AO1,M
TMT,2024-01-03 10:35,-117.1971,39.4643,1749.34,20.00,15.00,80.60,320.00,3.00,0.00,29.91,M,10.00,M,BKN,OVC,M,M,10000.00,12000.00,M,M,M,M,M,M,M,M,M,14.97,KTMT 031035Z AUTO 32003KT 10SM BKN100 OVC120 M07/M09 A2991 RMK AO2 T10661095,M
BVU,2024-01-03 10:35,-114.8611,35.9475,671.00,44.60,24.80,45.44,0.00,0.00,0.00,30.05,M,10.00,M,CLR,M,M,M,M,M,M,M,M,M,M,M,M,M,M,44.60,KBVU 031035Z AUTO 00000KT 10SM CLR 07/M04 A3005 RMK AO2,M
CXP,2024-01-03 10:35,-119.7326,39.1923,1431.00,35.60,30.20,80.51,190.00,4.00,0.00,29.93,M,10.00,M,FEW,BKN,OVC,M,3100.00,5000.00,7500.00,M,M,M,M,M,M,M,M,31.62,KCXP 031035Z AUTO 19004KT 10SM FEW031 BKN050 OVC075 02/M01 A2993 RMK AO2,M
RTS,2024-01-03 10:35,-119.8764,39.6682,1539.00,35.60,26.60,69.46,250.00,8.00,0.00,29.93,M,10.00,M,FEW,SCT,BKN,M,4400.00,5500.00,6500.00,M,M,M,M,M,M,M,M,28.55,KRTS 031035Z AUTO 25008KT 10SM FEW044 SCT055 BKN065 02/M03 A2993 RMK AO2,M
MEV,2024-01-03 10:35,-119.7500,38.9963,1441.42,35.60,26.60,69.46,170.00,8.00,0.00,29.92,M,10.00,M,FEW,BKN,OVC,M,3200.00,4100.00,4900.00,M,M,M,M,M,M,M,M,28.55,KMEV 031035Z AUTO 17008KT 10SM FEW032 BKN041 OVC049 02/M03 A2992 RMK AO2,M
HTH,2024-01-03 10:35,-118.6315,38.5448,1282.89,42.80,23.00,45.14,160.00,13.00,0.00,29.88,M,10.00,20.00,FEW,FEW,SCT,M,6000.00,6500.00,10000.00,M,M,M,M,M,M,M,M,35.40,KHTH 031035Z AUTO 16013G20KT 10SM FEW060 FEW065 SCT100 06/M05 A2988 RMK A01,M
05U,2024-01-03 10:40,-116.0051,39.6042,1811.23,35.60,17.60,47.51,0.00,0.00,0.00,29.94,M,10.00,M,M,M,M,M,M,M,M,M,M,M,M,M,M,M,M,35.60,K05U 031040Z AUTO 00000KT 10SM 02/M08 A2994 RMK A01,M
10U,2024-01-03 10:40,-116.1876,41.9532,1637.00,37.40,19.40,47.80,130.00,17.00,0.00,29.90,M,10.00,22.00,BKN,BKN,OVC,M,7500.00,9000.00,11000.00,M,M,M,M,M,M,M,M,27.15,K10U 031040Z AUTO 13017G22KT 10SM BKN075 BKN090 OVC110 03/M07 A2990 RMK AO2,M
P68,2024-01-03 10:53,-116.0056,39.6014,1993.00,34.00,19.00,53.77,220.00,8.00,0.00,29.92,1011.30,M,M,M,M,M,M,M,M,M,M,M,M,M,M,M,M,M,26.58,KP68 031053Z AUTO 22008KT 01/M07 A2992 RMK AO1 SLP113 T00111072,M
ELY,2024-01-03 10:53,-114.8453,39.2950,1909.00,29.00,16.00,57.83,210.00,11.00,0.00,29.97,1013.20,10.00,M,CLR,M,M,M,M,M,M,M,M,M,M,M,M,M,M,18.68,KELY 031053Z AUTO 21011KT 10SM CLR M02/M09 A2997 RMK AO2 SLP132 T10171089,M
VGT,2024-01-03 10:53,-115.1933,36.2111,667.00,44.00,28.00,53.07,0.00,0.00,0.00,30.02,1018.30,10.00,M,CLR,M,M,M,M,M,M,M,M,M,M,M,M,M,M,44.00,KVGT 031053Z AUTO 00000KT 10SM CLR 07/M02 A3002 RMK AO2 SLP183 T00671022,M
LOL,2024-01-03 10:53,-118.5701,40.0684,1192.43,30.00,29.00,96.00,100.00,5.00,0.04,29.94,1015.30,4.00,M,OVC,M,M,M,2000.00,M,M,M,-SN BR,M,M,M,M,M,M,24.02,KLOL 031053Z AUTO 10005KT 4SM -SN BR OVC020 M01/M02 A2994 RMK AO2 SNB0958 SLP153 P0004 T10111017,M
DRA,2024-01-03 10:53,-116.0278,36.6206,1009.00,40.00,22.00,48.22,100.00,5.00,0.00,29.98,1013.70,10.00,M,CLR,M,M,M,M,M,M,M,M,M,M,M,M,M,M,35.90,KDRA 031053Z AUTO 10005KT 10SM CLR 04/M06 A2998 RMK AO2 SLP137 T00441056,M
CXP,2024-01-03 10:55,-119.7326,39.1923,1431.00,35.60,28.40,74.80,210.00,11.00,0.00,29.94,M,10.00,18.00,SCT,BKN,OVC,M,4800.00,6000.00,9000.00,M,M,M,M,M,M,M,M,27.02,KCXP 031055Z AUTO 21011G18KT 10SM SCT048 BKN060 OVC090 02/M02 A2994 RMK AO2,M
MEV,2024-01-03 10:55,-119.7500,38.9963,1441.42,33.80,28.40,80.36,170.00,6.00,0.00,29.94,M,10.00,M,FEW,SCT,OVC,M,3100.00,3800.00,4500.00,M,M,M,M,M,M,M,M,27.70,KMEV 031055Z AUTO 17006KT 10SM FEW031 SCT038 OVC045 01/M02 A2994 RMK AO2,M
BVU,2024-01-03 10:55,-114.8611,35.9475,671.00,44.60,26.60,48.96,0.00,0.00,0.00,30.04,M,10.00,M,CLR,M,M,M,M,M,M,M,M,M,M,M,M,M,M,44.60,KBVU 031055Z AUTO 00000KT 10SM CLR 07/M03 A3004 RMK AO2,M
RNO,2024-01-03 10:55,-119.7711,39.4839,1341.00,39.00,31.00,72.75,0.00,0.00,0.00,29.92,1012.60,10.00,M,SCT,BKN,OVC,M,2500.00,3500.00,4400.00,M,M,M,M,M,M,M,M,39.00,KRNO 031055Z 00000KT 10SM SCT025 BKN035 OVC044 04/M01 A2992 RMK AO2 SLP126 T00391006,M
RTS,2024-01-03 10:55,-119.8764,39.6682,1539.00,35.60,24.80,64.46,250.00,9.00,0.00,29.92,M,10.00,M,BKN,OVC,M,M,5000.00,5500.00,M,M,M,M,M,M,M,M,M,27.99,KRTS 031055Z AUTO 25009KT 10SM BKN050 OVC055 02/M04 A2992 RMK AO2,M
BAM,2024-01-03 10:55,-116.8743,40.5990,1382.36,30.20,23.00,74.26,0.00,0.00,0.00,29.90,M,10.00,M,SCT,M,M,M,12000.00,M,M,M,M,M,M,M,M,M,M,30.20,KBAM 031055Z AUTO 00000KT 10SM SCT120 M01/M05 A2990 RMK AO1,M
HTH,2024-01-03 10:55,-118.6315,38.5448,1282.89,41.00,23.00,48.39,320.00,7.00,0.00,29.90,M,10.00,M,FEW,FEW,M,M,4600.00,6500.00,M,M,M,M,M,M,M,M,M,35.75,KHTH 031055Z AUTO 32007KT 10SM FEW046 FEW065 05/M05 A2990 RMK A01,M
LSV,2024-01-03 10:55,-115.0343,36.2362,570.00,50.00,24.80,37.08,120.00,4.00,0.00,30.00,1015.30,10.00,M,CLR,M,M,M,M,M,M,M,M,M,M,M,M,M,M,50.00,KLSV 031055Z AUTO 12004KT 10SM CLR 10/M04 A3000 RMK AO2 SLP153 T01001040 $,M
TMT,2024-01-03 10:55,-117.1971,39.4643,1749.34,20.30,15.30,80.63,50.00,3.00,0.00,29.89,M,10.00,M,BKN,OVC,M,M,10000.00,11000.00,M,M,M,M,M,M,M,M,M,15.31,KTMT 031055Z AUTO 05003KT 10SM BKN100 OVC110 M06/M09 A2989 RMK AO2 T10651093,M
INS,2024-01-03 10:55,-115.6733,36.5872,955.00,33.00,15.80,48.75,0.00,0.00,0.00,29.99,1014.60,10.00,M,CLR,M,M,M,M,M,M,M,M,M,M,M,M,M,M,33.00,KINS 031055Z AUTO 00000KT 10SM CLR 01/M09 A2999 RMK AO2 SLP146 T00051090 $,M
WMC,2024-01-03 10:56,-117.8072,40.9019,1315.00,33.00,25.00,72.11,290.00,8.00,0.00,29.92,1013.40,10.00,M,BKN,OVC,M,M,5000.00,7000.00,M,M,M,M,M,M,M,M,M,25.34,KWMC 031056Z AUTO 29008KT 10SM BKN050 OVC070 01/M04 A2992 RMK AO2 SLP134 T00061039,M
EKO,2024-01-03 10:56,-115.7860,40.8242,1367.00,28.00,21.00,74.67,90.00,7.00,0.00,29.93,1014.30,10.00,M,CLR,M,M,M,M,M,M,M,M,M,M,M,M,M,M,19.90,KEKO 031056Z AUTO 09007KT 10SM CLR M02/M06 A2993 RMK AO2 SLP143 T10221061 PWINO FZRANO $,M
NFL,2024-01-03 10:56,-118.7010,39.4166,1199.00,34.00,30.00,85.11,70.00,4.00,T,29.93,1011.00,8.00,M,OVC,M,M,M,3600.00,M,M,M,M,M,M,M,M,M,M,29.76,KNFL 031056Z AUTO 07004KT 8SM OVC036 01/M01 A2993 RMK AO2 UPB16E51 SLP110 P0000 T00111011 $,M
HND,2024-01-03 10:56,-115.1344,35.9729,742.79,43.00,25.00,48.70,0.00,0.00,0.00,30.04,1018.80,10.00,M,CLR,M,M,M,M,M,M,M,M,M,M,M,M,M,M,43.00,KHND 031056Z AUTO 00000KT 10SM CLR 06/M04 A3004 RMK AO2 SLP188 T00611039,M
TPH,2024-01-03 10:56,-117.0904,38.0505,1654.00,31.00,24.00,74.97,160.00,10.00,0.00,29.94,1013.40,10.00,M,FEW,M,M,M,9000.00,M,M,M,M,M,M,M,M,M,M,21.71,KTPH 031056Z AUTO 16010KT 10SM FEW090 M01/M04 A2994 RMK AO2 SLP134 T10061044,M
LAS,2024-01-03 10:56,-115.1634,36.0719,663.00,51.00,26.00,37.55,180.00,5.00,0.00,30.02,1016.10,10.00,M,BKN,M,M,M,22000.00,M,M,M,M,M,M,M,M,M,M,51.00,KLAS 031056Z 18005KT 10SM BKN220 11/M03 A3002 RMK AO2 SLP161 T01061033,M
05U,2024-01-03 11:00,-116.0051,39.6042,1811.23,33.80,19.40,55.14,M,6.00,0.00,29.95,M,10.00,12.00,M,M,M,M,M,M,M,M,M,M,M,M,M,M,M,27.70,K05U 031100Z AUTO VRB06G12KT 10SM 01/M07 A2995 RMK A01,M
10U,2024-01-03 11:00,-116.1876,41.9532,1637.00,37.40,19.40,47.80,130.00,13.00,0.00,29.90,M,10.00,21.00,BKN,OVC,M,M,7000.00,9000.00,M,M,M,M,M,M,M,M,M,28.49,K10U 031100Z AUTO 13013G21KT 10SM BKN070 OVC090 03/M07 A2990 RMK AO2,M
LOL,2024-01-03 11:02,-118.5701,40.0684,1192.43,31.00,30.00,96.02,100.00,5.00,0.01,29.95,M,2.00,M,FEW,OVC,M,M,900.00,2000.00,M,M,-SN BR,M,M,M,M,M,M,25.21,KLOL 031102Z AUTO 10005KT 2SM -SN BR FEW009 OVC020 M01/M01 A2995 RMK AO2 P0001 T10061011,M
LOL,2024-01-03 11:09,-118.5701,40.0684,1192.43,31.00,30.00,96.02,110.00,4.00,0.02,29.95,M,1.00,M,FEW,OVC,M,M,900.00,1800.00,M,M,-SN BR,M,M,M,M,M,M,26.25,KLOL 031109Z AUTO 11004KT 1SM -SN BR FEW009 OVC018 M01/M01 A2995 RMK AO2 P0002 T10061011,M
LOL,2024-01-03 11:15,-118.5701,40.0684,1192.43,31.00,30.00,96.02,90.00,5.00,0.04,29.94,M,0.75,M,FEW,BKN,OVC,M,400.00,900.00,1800.00,M,-SN BR,M,M,M,M,M,M,25.21,KLOL 031115Z AUTO 09005KT 3/4SM -SN BR FEW004 BKN009 OVC018 M01/M01 A2994 RMK AO2 P0004 T10061011,M
BVU,2024-01-03 11:15,-114.8611,35.9475,671.00,48.20,24.80,39.66,M,4.00,0.00,30.03,M,10.00,M,CLR,M,M,M,M,M,M,M,M,M,M,M,M,M,M,46.34,KBVU 031115Z AUTO VRB04KT 10SM CLR 09/M04 A3003 RMK AO2,M
CXP,2024-01-03 11:15,-119.7326,39.1923,1431.00,35.60,28.40,74.80,230.00,5.00,0.00,29.95,M,5.00,13.00,BKN,BKN,OVC,M,3300.00,4300.00,6000.00,M,UP HZ,M,M,M,M,M,M,30.67,KCXP 031115Z AUTO 23005G13KT 5SM UP HZ BKN033 BKN043 OVC060 02/M02 A2995 RMK AO2,M
RTS,2024-01-03 11:15,-119.8764,39.6682,1539.00,35.60,24.80,64.46,240.00,8.00,0.00,29.92,M,10.00,M,FEW,SCT,OVC,M,4100.00,5000.00,11000.00,M,M,M,M,M,M,M,M,28.55,KRTS 031115Z AUTO 24008KT 10SM FEW041 SCT050 OVC110 02/M04 A2992 RMK AO2,M
MEV,2024-01-03 11:15,-119.7500,38.9963,1441.42,33.80,28.40,80.36,170.00,5.00,0.00,29.94,M,10.00,M,SCT,BKN,OVC,M,3500.00,4500.00,10000.00,M,M,M,M,M,M,M,M,28.53,KMEV 031115Z AUTO 17005KT 10SM SCT035 BKN045 OVC100 01/M02 A2994 RMK AO2,M
BAM,2024-01-03 11:15,-116.8743,40.5990,1382.36,32.00,23.00,69.04,0.00,0.00,0.00,29.90,M,10.00,M,SCT,M,M,M,12000.00,M,M,M,M,M,M,M,M,M,M,32.00,KBAM 031115Z AUTO 00000KT 10SM SCT120 00/M05 A2990 RMK AO1,M
HTH,2024-01-03 11:15,-118.6315,38.5448,1282.89,39.20,23.00,51.89,0.00,0.00,0.00,29.91,M,10.00,M,BKN,M,M,M,6000.00,M,M,M,M,M,M,M,M,M,M,39.20,KHTH 031115Z AUTO 00000KT 10SM BKN060 04/M05 A2991 RMK A01,M
TMT,2024-01-03 11:15,-117.1971,39.4643,1749.34,20.30,15.00,79.58,0.00,0.00,0.00,29.89,M,10.00,M,OVC,M,M,M,10000.00,M,M,M,M,M,M,M,M,M,M,20.30,KTMT 031115Z AUTO 00000KT 10SM OVC100 M06/M09 A2989 RMK AO2 T10651095,M
NFL,2024-01-03 11:16,-118.7010,39.4166,1199.00,33.00,30.00,88.58,70.00,6.00,0.01,29.93,M,6.00,M,OVC,M,M,M,2600.00,M,M,M,UP BR,M,M,M,M,M,M,26.73,KNFL 031116Z AUTO 07006KT 6SM UP BR OVC026 01/M01 A2993 RMK AO2 UPB1057 P0001 T00061011 $,M
10U,2024-01-03 11:20,-116.1876,41.9532,1637.00,37.40,19.40,47.80,130.00,13.00,0.00,29.90,M,10.00,20.00,FEW,OVC,M,M,6000.00,7500.00,M,M,M,M,M,M,M,M,M,28.49,K10U 031120Z AUTO 13013G20KT 10SM FEW060 OVC075 03/M07 A2990 RMK AO2,M
LOL,2024-01-03 11:23,-118.5701,40.0684,1192.43,31.00,30.00,96.02,80.00,5.00,0.06,29.94,M,1.00,M,FEW,SCT,OVC,M,400.00,900.00,1400.00,M,-SN BR,M,M,M,M,M,M,25.21,KLOL 031123Z AUTO 08005KT 1SM -SN BR FEW004 SCT009 OVC014 M01/M01 A2994 RMK AO2 P0006 T10061011,M
CXP,2024-01-03 11:30,-119.7326,39.1923,1431.00,35.60,28.40,74.80,0.00,0.00,0.00,29.95,M,10.00,M,SCT,BKN,OVC,M,3400.00,4100.00,5500.00,M,M,M,M,M,M,M,M,35.60,KCXP 031130Z AUTO 00000KT 10SM SCT034 BKN041 OVC055 02/M02 A2995 RMK AO2,M
LOL,2024-01-03 11:31,-118.5701,40.0684,1192.43,31.00,31.00,100.00,90.00,6.00,0.08,29.93,M,0.75,M,FEW,OVC,M,M,400.00,900.00,M,M,-SN BR,M,M,M,M,M,M,24.33,KLOL 031131Z AUTO 09006KT 3/4SM -SN BR FEW004 OVC009 M01/M01 A2993 RMK AO2 P0008 T10061006,M
BVU,2024-01-03 11:35,-114.8611,35.9475,671.00,48.20,24.80,39.66,110.00,3.00,0.00,30.03,M,10.00,M,CLR,M,M,M,M,M,M,M,M,M,M,M,M,M,M,47.21,KBVU 031135Z AUTO 11003KT 10SM CLR 09/M04 A3003 RMK AO2,M
MEV,2024-01-03 11:35,-119.7500,38.9963,1441.42,33.80,26.60,74.63,150.00,7.00,0.00,29.92,M,10.00,M,FEW,SCT,BKN,M,3400.00,4900.00,7500.00,M,M,M,M,M,M,M,M,26.97,KMEV 031135Z AUTO 15007KT 10SM FEW034 SCT049 BKN075 01/M03 A2992 RMK AO2,M
BAM,2024-01-03 11:35,-116.8743,40.5990,1382.36,32.00,23.00,69.04,0.00,0.00,0.00,29.89,M,10.00,M,SCT,M,M,M,12000.00,M,M,M,M,M,M,M,M,M,M,32.00,KBAM 031135Z AUTO 00000KT 10SM SCT120 00/M05 A2989 RMK AO1,M
HTH,2024-01-03 11:35,-118.6315,38.5448,1282.89,39.20,23.00,51.89,0.00,0.00,0.00,29.90,M,10.00,M,FEW,BKN,OVC,M,2600.00,4500.00,6500.00,M,M,M,M,M,M,M,M,39.20,KHTH 031135Z AUTO 00000KT 10SM FEW026 BKN045 OVC065 04/M05 A2990 RMK A01,M
RTS,2024-01-03 11:35,-119.8764,39.6682,1539.00,33.80,24.80,69.25,240.00,8.00,0.00,29.92,M,10.00,M,SCT,SCT,OVC,M,4000.00,4600.00,11000.00,M,M,M,M,M,M,M,M,26.33,KRTS 031135Z AUTO 24008KT 10SM SCT040 SCT046 OVC110 01/M04 A2992 RMK AO2,M
TMT,2024-01-03 11:35,-117.1971,39.4643,1749.34,21.00,15.60,79.30,190.00,3.00,0.00,29.90,M,10.00,M,OVC,M,M,M,9000.00,M,M,M,M,M,M,M,M,M,M,16.11,KTMT 031135Z AUTO 19003KT 10SM OVC090 M06/M09 A2990 RMK AO2 T10611091,M
05U,2024-01-03 11:35,-116.0051,39.6042,1811.23,32.00,17.60,54.87,250.00,6.00,0.00,29.92,M,10.00,M,M,M,M,M,M,M,M,M,M,M,M,M,M,M,M,25.53,K05U 031135Z AUTO 25006KT 10SM 00/M08 A2992 RMK A01,M
LOL,2024-01-03 11:39,-118.5701,40.0684,1192.43,31.00,31.00,100.00,90.00,5.00,0.11,29.93,M,1.00,M,SCT,OVC,M,M,700.00,1100.00,M,M,-SN BR,M,M,M,M,M,M,25.21,KLOL 031139Z AUTO 09005KT 1SM -SN BR SCT007 OVC011 M01/M01 A2993 RMK AO2 P0011 T10061006,M
10U,2024-01-03 11:40,-116.1876,41.9532,1637.00,37.40,19.40,47.80,130.00,12.00,0.00,29.89,M,10.00,18.00,OVC,M,M,M,7000.00,M,M,M,M,M,M,M,M,M,M,28.87,K10U 031140Z AUTO 13012G18KT 10SM OVC070 03/M07 A2989 RMK AO2,M
WMC,2024-01-03 11:45,-117.8072,40.9019,1315.00,33.00,28.00,81.63,310.00,6.00,T,29.93,M,2.50,M,OVC,M,M,M,2600.00,M,M,M,-SN,M,M,M,M,M,M,26.73,KWMC 031145Z AUTO 31006KT 2 1/2SM -SN OVC026 01/M02 A2993 RMK AO2 SNB22 P0000 T00061022,M
LOL,2024-01-03 11:49,-118.5701,40.0684,1192.43,30.20,30.20,100.00,80.00,8.00,0.12,29.92,M,2.50,M,FEW,OVC,M,M,700.00,1500.00,M,M,-SN BR,M,M,M,M,M,M,21.90,KLOL 031149Z AUTO 08008KT 2 1/2SM -SN BR FEW007 OVC015 M01/M01 A2992 RMK AO2 P0012,M
DRA,2024-01-03 11:53,-116.0278,36.6206,1009.00,42.00,22.00,44.63,M,3.00,0.00,29.95,1012.60,10.00,M,CLR,M,M,M,M,M,M,M,M,M,M,M,M,M,M,40.12,KDRA 031153Z AUTO VRB03KT 10SM CLR 06/M06 A2995 RMK AO2 SLP126 T00561056 10056 20006 58026,M
ELY,2024-01-03 11:53,-114.8453,39.2950,1909.00,31.00,16.00,53.31,190.00,16.00,0.00,29.92,1011.80,10.00,M,CLR,M,M,M,M,M,M,M,M,M,M,M,M,M,M,19.11,KELY 031153Z AUTO 19016KT 10SM CLR M01/M09 A2992 RMK AO2 SLP118 T10061089 11006 21022 58027,M
VGT,2024-01-03 11:53,-115.1933,36.2111,667.00,46.00,28.00,49.18,50.00,5.00,0.00,30.00,1017.50,10.00,M,CLR,M,M,M,M,M,M,M,M,M,M,M,M,M,M,43.02,KVGT 031153Z AUTO 05005KT 10SM CLR 08/M02 A3000 RMK AO2 SLP175 T00781022 10083 20061 58019,M
LOL,2024-01-03 11:53,-118.5701,40.0684,1192.43,31.00,31.00,100.00,80.00,7.00,0.12,29.92,1014.50,4.00,M,FEW,OVC,M,M,700.00,1700.00,M,M,-SN BR,M,M,M,M,M,M,23.56,KLOL 031153Z AUTO 08007KT 4SM -SN BR FEW007 OVC017 M01/M01 A2992 RMK AO2 SLP145 P0012 60016 70016 T10061006 11006 21033 58001,M
P68,2024-01-03 11:53,-116.0056,39.6014,1993.00,36.00,18.00,47.58,110.00,7.00,0.00,29.89,1009.80,M,22.00,M,M,M,M,M,M,M,M,M,M,M,M,M,M,M,29.65,KP68 031153Z AUTO 11007G22KT 080V150 02/M08 A2989 RMK AO1 SLP098 T00221078 10028 21050 58021,M
TMT,2024-01-03 11:55,-117.1971,39.4643,1749.34,22.30,16.00,76.37,170.00,5.00,0.00,29.90,M,10.00,M,BKN,OVC,M,M,7500.00,9000.00,M,M,M,M,M,M,M,M,M,14.88,KTMT 031155Z AUTO 17005KT 10SM BKN075 OVC090 M05/M09 A2990 RMK AO2 T10541088 11054 21098,M
LSV,2024-01-03 11:55,-115.0343,36.2362,570.00,51.60,24.80,34.94,100.00,4.00,0.00,29.98,1014.60,10.00,M,CLR,M,M,M,M,M,M,M,M,M,M,M,M,M,M,51.60,KLSV 031155Z AUTO 10004KT 10SM CLR 11/M04 A2998 RMK AO2 SLP146 T01091040 10110 20055 57022 $,M
BAM,2024-01-03 11:55,-116.8743,40.5990,1382.36,30.20,23.00,74.26,310.00,3.00,0.00,29.89,M,10.00,M,BKN,M,M,M,11000.00,M,M,M,M,M,M,M,M,M,M,26.63,KBAM 031155Z AUTO 31003KT 10SM BKN110 M01/M05 A2989 RMK AO1,M
BVU,2024-01-03 11:55,-114.8611,35.9475,671.00,46.40,24.80,42.44,90.00,5.00,0.00,30.02,M,10.00,M,CLR,M,M,M,M,M,M,M,M,M,M,M,M,M,M,43.50,KBVU 031155Z AUTO 09005KT 10SM CLR 08/M04 A3002 RMK AO2,M
CXP,2024-01-03 11:55,-119.7326,39.1923,1431.00,35.60,26.60,69.46,180.00,5.00,0.00,29.93,M,10.00,M,SCT,BKN,OVC,M,3700.00,4600.00,7000.00,M,M,M,M,M,M,M,M,30.67,KCXP 031155Z AUTO 18005KT 10SM SCT037 BKN046 OVC070 02/M03 A2993 RMK AO2,M
RNO,2024-01-03 11:55,-119.7711,39.4839,1341.00,38.00,28.00,66.94,0.00,0.00,0.00,29.92,1012.90,10.00,M,SCT,BKN,OVC,M,3500.00,6000.00,12000.00,M,M,M,M,M,M,M,M,38.00,KRNO 031155Z 00000KT 10SM SCT035 BKN060 OVC120 03/M02 A2992 RMK AO2 SLP129 60001 70001 T00331022 10061 20022 52002,M
RTS,2024-01-03 11:55,-119.8764,39.6682,1539.00,33.80,24.80,69.25,230.00,7.00,0.00,29.93,M,10.00,M,FEW,OVC,M,M,4200.00,10000.00,M,M,M,M,M,M,M,M,M,26.97,KRTS 031155Z AUTO 23007KT 10SM FEW042 OVC100 01/M04 A2993 RMK AO2,M
MEV,2024-01-03 11:55,-119.7500,38.9963,1441.42,33.80,26.60,74.63,340.00,4.00,0.00,29.93,M,10.00,M,FEW,BKN,OVC,M,4400.00,5500.00,11000.00,M,M,M,M,M,M,M,M,29.52,KMEV 031155Z AUTO 34004KT 10SM FEW044 BKN055 OVC110 01/M03 A2993 RMK AO2,M
HTH,2024-01-03 11:55,-118.6315,38.5448,1282.89,39.20,24.80,55.95,280.00,9.00,0.00,29.93,M,10.00,14.00,SCT,BKN,OVC,M,2900.00,3700.00,4500.00,M,M,M,M,M,M,M,M,32.47,KHTH 031155Z AUTO 28009G14KT 10SM SCT029 BKN037 OVC045 04/M04 A2993 RMK A01,M
INS,2024-01-03 11:55,-115.6733,36.5872,955.00,35.20,17.40,47.86,0.00,0.00,0.00,29.96,1013.30,10.00,M,FEW,M,M,M,20000.00,M,M,M,M,M,M,M,M,M,M,35.20,KINS 031155Z AUTO 00000KT 10SM FEW200 02/M08 A2996 RMK AO2 SLP133 T00181081 10048 20003 57027 $,M
EKO,2024-01-03 11:56,-115.7860,40.8242,1367.00,29.00,20.00,68.69,80.00,4.00,0.00,29.90,1013.60,10.00,M,BKN,M,M,M,10000.00,M,M,M,M,M,M,M,M,M,M,23.92,KEKO 031156Z AUTO 08004KT 10SM BKN100 M02/M07 A2990 RMK AO2 SLP136 T10171067 10000 21022 58020 PWINO FZRANO $,M
WMC,2024-01-03 11:56,-117.8072,40.9019,1315.00,32.00,28.00,84.98,320.00,4.00,T,29.93,1013.70,1.75,M,OVC,M,M,M,2000.00,M,M,M,-SN BR,M,M,M,M,M,M,27.42,KWMC 031156Z AUTO 32004KT 1 3/4SM -SN BR OVC020 00/M02 A2993 RMK AO2 SNB22 SLP137 P0000 60000 T00001022 10028 21011 53003,M
TPH,2024-01-03 11:56,-117.0904,38.0505,1654.00,33.00,25.00,72.11,150.00,10.00,0.00,29.92,1012.40,10.00,M,CLR,M,M,M,M,M,M,M,M,M,M,M,M,M,M,24.22,KTPH 031156Z AUTO 15010KT 10SM CLR 01/M04 A2992 RMK AO2 SLP124 T00061039 10011 21039 58015,M
LAS,2024-01-03 11:56,-115.1634,36.0719,663.00,51.00,25.00,36.03,170.00,5.00,0.00,30.00,1015.30,10.00,M,BKN,M,M,M,20000.00,M,M,M,M,M,M,M,M,M,M,51.00,KLAS 031156Z 17005KT 10SM BKN200 11/M04 A3000 RMK AO2 SLP153 T01061039 10106 20067 58020,M
HND,2024-01-03 11:56,-115.1344,35.9729,742.79,48.00,25.00,40.29,200.00,6.00,0.00,30.01,1017.70,10.00,M,CLR,M,M,M,M,M,M,M,M,M,M,M,M,M,M,44.80,KHND 031156Z AUTO 20006KT 10SM CLR 09/M04 A3001 RMK AO2 SLP177 T00891039 10100 20061 58023,M
NFL,2024-01-03 11:56,-118.7010,39.4166,1199.00,33.00,31.00,92.25,30.00,4.00,0.03,29.93,1010.70,5.00,M,FEW,SCT,OVC,M,1200.00,1700.00,2500.00,M,UP BR,M,M,M,M,M,M,28.59,KNFL 031156Z AUTO 03004KT 5SM UP BR FEW012 SCT017 OVC025 01/M01 A2993 RMK AO2 UPB1057RAB27E34 SLP107 P0003 60003 70003 T00061006 10017 21017 50002 $,M
05U,2024-01-03 12:00,-116.0051,39.6042,1811.23,35.60,17.60,47.51,M,4.00,0.00,29.91,M,10.00,12.00,M,M,M,M,M,M,M,M,M,M,M,M,M,M,M,31.62,K05U 031200Z AUTO VRB04G12KT 10SM 02/M08 A2991 RMK A01,M
10U,2024-01-03 12:00,-116.1876,41.9532,1637.00,37.40,19.40,47.80,130.00,10.00,0.00,29.89,M,10.00,16.00,SCT,OVC,M,M,6500.00,7500.00,M,M,M,M,M,M,M,M,M,29.74,K10U 031200Z AUTO 13010G16KT 10SM SCT065 OVC075 03/M07 A2989 RMK AO2,M
WMC,2024-01-03 12:04,-117.8072,40.9019,1315.00,32.00,29.00,88.53,10.00,3.00,0.01,29.93,M,1.25,M,SCT,OVC,M,M,800.00,2000.00,M,M,-SN BR,M,M,M,M,M,M,28.69,KWMC 031204Z AUTO 01003KT 1 1/4SM -SN BR SCT008 OVC020 00/M02 A2993 RMK AO2 P0001 T00001017,M
CXP,2024-01-03 12:10,-119.7326,39.1923,1431.00,35.60,26.60,69.46,210.00,8.00,0.00,29.94,M,10.00,M,FEW,BKN,OVC,M,3400.00,4700.00,11000.00,M,M,M,M,M,M,M,M,28.55,KCXP 031210Z AUTO 21008KT 10SM FEW034 BKN047 OVC110 02/M03 A2994 RMK AO2,M
WMC,2024-01-03 12:13,-117.8072,40.9019,1315.00,32.00,28.00,84.98,60.00,4.00,0.02,29.93,M,1.00,M,BKN,OVC,M,M,600.00,1600.00,M,M,-SN BR,M,M,M,M,M,M,27.42,KWMC 031213Z AUTO 06004KT 1SM -SN BR BKN006 OVC016 00/M02 A2993 RMK AO2 P0002 T00001022,M
BVU,2024-01-03 12:15,-114.8611,35.9475,671.00,48.20,26.60,42.73,130.00,5.00,0.00,30.01,M,10.00,M,CLR,M,M,M,M,M,M,M,M,M,M,M,M,M,M,45.63,KBVU 031215Z AUTO 13005KT 10SM CLR 09/M03 A3001 RMK AO2,M
RTS,2024-01-03 12:15,-119.8764,39.6682,1539.00,33.80,24.80,69.25,300.00,5.00,0.00,29.93,M,10.00,M,BKN,BKN,OVC,M,3800.00,7500.00,9500.00,M,M,M,M,M,M,M,M,28.53,KRTS 031215Z AUTO 30005KT 10SM BKN038 BKN075 OVC095 01/M04 A2993 RMK AO2,M
MEV,2024-01-03 12:15,-119.7500,38.9963,1441.42,33.80,26.60,74.63,0.00,0.00,0.00,29.92,M,10.00,M,SCT,BKN,OVC,M,4800.00,5500.00,6500.00,M,M,M,M,M,M,M,M,33.80,KMEV 031215Z AUTO 00000KT 10SM SCT048 BKN055 OVC065 01/M03 A2992 RMK AO2,M
HTH,2024-01-03 12:15,-118.6315,38.5448,1282.89,37.40,30.20,74.98,360.00,12.00,0.00,29.93,M,8.00,17.00,FEW,BKN,OVC,M,2200.00,3300.00,7500.00,M,M,M,M,M,M,M,M,28.87,KHTH 031215Z AUTO 36012G17KT 8SM FEW022 BKN033 OVC075 03/M01 A2993 RMK A01,M
BAM,2024-01-03 12:15,-116.8743,40.5990,1382.36,30.20,23.00,74.26,270.00,3.00,0.00,29.89,M,10.00,M,OVC,M,M,M,10000.00,M,M,M,M,M,M,M,M,M,M,26.63,KBAM 031215Z AUTO 27003KT 10SM OVC100 M01/M05 A2989 RMK AO1,M
TMT,2024-01-03 12:15,-117.1971,39.4643,1749.34,24.60,17.60,74.32,190.00,3.00,0.00,29.90,M,10.00,M,SCT,BKN,OVC,M,4100.00,5000.00,6500.00,M,M,M,M,M,M,M,M,20.23,KTMT 031215Z AUTO 19003KT 10SM SCT041 BKN050 OVC065 M04/M08 A2990 RMK AO2 T10411080,M
LOL,2024-01-03 12:18,-118.5701,40.0684,1192.43,32.00,32.00,100.00,0.00,0.00,0.01,29.93,M,3.00,M,BKN,BKN,OVC,M,700.00,1700.00,2300.00,M,-SN BR,M,M,M,M,M,M,32.00,KLOL 031218Z AUTO 00000KT 3SM -SN BR BKN007 BKN017 OVC023 00/00 A2993 RMK AO2 P0001 T00000000,M
10U,2024-01-03 12:20,-116.1876,41.9532,1637.00,37.40,21.20,51.61,140.00,5.00,0.00,29.89,M,10.00,12.00,FEW,OVC,M,M,6500.00,7500.00,M,M,M,M,M,M,M,M,M,32.81,K10U 031220Z AUTO 14005G12KT 10SM FEW065 OVC075 03/M06 A2989 RMK AO2,M
05U,2024-01-03 12:25,-116.0051,39.6042,1811.23,35.60,19.40,51.33,0.00,0.00,0.00,29.91,M,10.00,M,M,M,M,M,M,M,M,M,M,M,M,M,M,M,M,35.60,K05U 031225Z AUTO 00000KT 10SM 02/M07 A2991 RMK A01,M
NFL,2024-01-03 12:26,-118.7010,39.4166,1199.00,33.00,31.00,92.25,90.00,4.00,T,29.93,M,9.00,M,BKN,OVC,M,M,1000.00,8000.00,M,M,M,M,M,M,M,M,M,28.59,KNFL 031226Z AUTO 09004KT 9SM BKN010 OVC080 01/M01 A2993 RMK AO2 UPE07 P0000 T00061006 $,M
LOL,2024-01-03 12:28,-118.5701,40.0684,1192.43,32.00,31.00,96.04,320.00,3.00,0.01,29.94,M,2.00,M,OVC,M,M,M,700.00,M,M,M,-SN BR,M,M,M,M,M,M,28.69,KLOL 031228Z AUTO 32003KT 2SM -SN BR OVC007 00/M01 A2994 RMK AO2 CIG 003V009 P0001 T00001006,M
BAM,2024-01-03 12:35,-116.8743,40.5990,1382.36,30.20,23.00,74.26,0.00,0.00,0.00,29.89,M,10.00,M,OVC,M,M,M,10000.00,M,M,M,M,M,M,M,M,M,M,30.20,KBAM 031235Z AUTO 00000KT 10SM OVC100 M01/M05 A2989 RMK AO1,M
CXP,2024-01-03 12:35,-119.7326,39.1923,1431.00,35.60,24.80,64.46,200.00,8.00,0.00,29.94,M,10.00,15.00,FEW,BKN,OVC,M,3100.00,4600.00,11000.00,M,M,M,M,M,M,M,M,28.55,KCXP 031235Z AUTO 20008G15KT 10SM FEW031 BKN046 OVC110 02/M04 A2994 RMK AO2,M
RTS,2024-01-03 12:35,-119.8764,39.6682,1539.00,32.00,24.80,74.44,270.00,7.00,0.00,29.93,M,10.00,M,SCT,BKN,OVC,M,3400.00,4000.00,11000.00,M,M,M,M,M,M,M,M,24.78,KRTS 031235Z AUTO 27007KT 10SM SCT034 BKN040 OVC110 00/M04 A2993 RMK AO2,M
MEV,2024-01-03 12:35,-119.7500,38.9963,1441.42,33.80,24.80,69.25,0.00,0.00,0.00,29.92,M,10.00,M,FEW,BKN,OVC,M,4400.00,5000.00,12000.00,M,M,M,M,M,M,M,M,33.80,KMEV 031235Z AUTO 00000KT 10SM FEW044 BKN050 OVC120 01/M04 A2992 RMK AO2,M
HTH,2024-01-03 12:35,-118.6315,38.5448,1282.89,37.40,32.00,80.65,0.00,0.00,0.00,29.93,M,10.00,M,FEW,BKN,OVC,M,2300.00,7500.00,9500.00,M,M,M,M,M,M,M,M,37.40,KHTH 031235Z AUTO 00000KT 10SM FEW023 BKN075 OVC095 03/00 A2993 RMK A01,M
TMT,2024-01-03 12:35,-117.1971,39.4643,1749.34,24.80,18.30,75.96,0.00,0.00,0.00,29.91,M,10.00,M,BKN,OVC,M,M,2700.00,3900.00,M,M,M,M,M,M,M,M,M,24.80,KTMT 031235Z AUTO 00000KT 10SM BKN027 OVC039 M04/M08 A2991 RMK AO2 T10401076,M
BVU,2024-01-03 12:35,-114.8611,35.9475,671.00,48.20,26.60,42.73,160.00,3.00,0.00,30.01,M,10.00,M,CLR,M,M,M,M,M,M,M,M,M,M,M,M,M,M,47.21,KBVU 031235Z AUTO 16003KT 10SM CLR 09/M03 A3001 RMK AO2,M
10U,2024-01-03 12:40,-116.1876,41.9532,1637.00,33.80,21.20,59.53,M,3.00,0.00,29.88,M,10.00,M,OVC,M,M,M,7000.00,M,M,M,M,M,M,M,M,M,M,30.75,K10U 031240Z AUTO VRB03KT 10SM OVC070 01/M06 A2988 RMK AO2,M
WMC,2024-01-03 12:42,-117.8072,40.9019,1315.00,32.00,28.00,84.98,0.00,0.00,0.06,29.92,M,1.00,M,OVC,M,M,M,400.00,M,M,M,-SN BR,M,M,M,M,M,M,32.00,KWMC 031242Z AUTO 00000KT 1SM -SN BR OVC004 00/M02 A2992 RMK AO2 P0006 T00001022,M
LOL,2024-01-03 12:42,-118.5701,40.0684,1192.43,32.00,32.00,100.00,350.00,4.00,0.03,29.94,M,1.25,M,BKN,BKN,OVC,M,300.00,700.00,1100.00,M,-SN BR,M,M,M,M,M,M,27.42,KLOL 031242Z AUTO 35004KT 1 1/4SM -SN BR BKN003 BKN007 OVC011 00/00 A2994 RMK AO2 P0003 T00000000,M
LOL,2024-01-03 12:49,-118.5701,40.0684,1192.43,32.00,32.00,100.00,40.00,4.00,0.04,29.93,M,1.00,M,SCT,SCT,OVC,M,300.00,700.00,1100.00,M,-SN BR,M,M,M,M,M,M,27.42,KLOL 031249Z AUTO 04004KT 1SM -SN BR SCT003 SCT007 OVC011 00/00 A2993 RMK AO2 P0004,M
LOL,2024-01-03 12:50,-118.5701,40.0684,1192.43,32.00,32.00,100.00,50.00,4.00,0.05,29.93,1015.00,1.00,M,SCT,OVC,M,M,300.00,1200.00,M,M,-SN BR,M,M,M,M,M,M,27.42,KLOL 031250Z AUTO 05004KT 1SM -SN BR SCT003 OVC012 00/00 A2993 RMK AO2 SLP150 P0005 T00000000,M
LOL,2024-01-03 12:50,-118.5701,40.0684,1192.43,M,M,M,50.00,4.00,0.05,29.93,M,1.00,M,SCT,OVC,M,M,300.00,1200.00,M,M,-SN BR,M,M,M,M,M,M,M,KLOL 031250Z AUTO 05004KT 1SM -SN BR SCT003 OVC012 00/00 A2993 RMK P0005 T00000000 MADISHF,M
ELY,2024-01-03 12:53,-114.8453,39.2950,1909.00,28.00,16.00,60.25,220.00,11.00,0.00,29.92,1012.70,10.00,M,CLR,M,M,M,M,M,M,M,M,M,M,M,M,M,M,17.41,KELY 031253Z AUTO 22011KT 10SM CLR M02/M09 A2992 RMK AO2 SLP127 T10221089,M
VGT,2024-01-03 12:53,-115.1933,36.2111,667.00,46.00,28.00,49.18,50.00,5.00,0.00,29.98,1016.90,10.00,M,CLR,M,M,M,M,M,M,M,M,M,M,M,M,M,M,43.02,KVGT 031253Z AUTO 05005KT 10SM CLR 08/M02 A2998 RMK AO2 SLP169 T00781022,M
P68,2024-01-03 12:53,-116.0056,39.6014,1993.00,35.00,19.00,51.67,150.00,7.00,0.00,29.88,1010.10,M,M,M,M,M,M,M,M,M,M,M,M,M,M,M,M,M,28.44,KP68 031253Z AUTO 15007KT 02/M07 A2988 RMK AO1 SLP101 T00171072,M
DRA,2024-01-03 12:53,-116.0278,36.6206,1009.00,50.00,27.00,40.62,180.00,18.00,0.00,29.93,1011.50,10.00,29.00,BKN,OVC,M,M,9000.00,11000.00,M,M,M,M,M,M,29.00,180.00,2024-01-03 12:51,50.00,KDRA 031253Z AUTO 18018G29KT 10SM BKN090 OVC110 10/M03 A2993 RMK AO2 PK WND 18029/1251 SLP115 T01001028,M
RNO,2024-01-03 12:55,-119.7711,39.4839,1341.00,38.00,25.00,59.13,M,4.00,0.00,29.92,1012.80,10.00,M,SCT,OVC,M,M,6500.00,12000.00,M,M,M,M,M,M,M,M,M,34.43,KRNO 031255Z VRB04KT 10SM SCT065 OVC120 03/M04 A2992 RMK AO2 SLP128 T00331039,M
RTS,2024-01-03 12:55,-119.8764,39.6682,1539.00,32.00,23.00,69.04,240.00,7.00,0.00,29.93,M,10.00,M,FEW,SCT,OVC,M,3300.00,4000.00,12000.00,M,M,M,M,M,M,M,M,24.78,KRTS 031255Z AUTO 24007KT 10SM FEW033 SCT040 OVC120 00/M05 A2993 RMK AO2,M
CXP,2024-01-03 12:55,-119.7326,39.1923,1431.00,35.60,24.80,64.46,200.00,4.00,0.00,29.93,M,10.00,M,FEW,BKN,OVC,M,4300.00,4800.00,5500.00,M,M,M,M,M,M,M,M,31.62,KCXP 031255Z AUTO 20004KT 10SM FEW043 BKN048 OVC055 02/M04 A2993 RMK AO2,M
HTH,2024-01-03 12:55,-118.6315,38.5448,1282.89,35.60,32.00,86.59,150.00,6.00,0.00,29.93,M,10.00,M,FEW,OVC,M,M,7500.00,10000.00,M,M,M,M,M,M,M,M,M,29.87,KHTH 031255Z AUTO 15006KT 10SM FEW075 OVC100 02/M00 A2993 RMK A01,M
BVU,2024-01-03 12:55,-114.8611,35.9475,671.00,48.20,26.60,42.73,180.00,5.00,0.00,30.01,M,10.00,M,CLR,M,M,M,M,M,M,M,M,M,M,M,M,M,M,45.63,KBVU 031255Z AUTO 18005KT 10SM CLR 09/M03 A3001 RMK AO2,M
MEV,2024-01-03 12:55,-119.7500,38.9963,1441.42,32.00,24.80,74.44,0.00,0.00,0.00,29.92,M,10.00,M,FEW,FEW,M,M,5000.00,12000.00,M,M,M,M,M,M,M,M,M,32.00,KMEV 031255Z AUTO 00000KT 10SM FEW050 FEW120 M00/M04 A2992 RMK AO2,M
TMT,2024-01-03 12:55,-117.1971,39.4643,1749.34,24.80,19.20,78.94,0.00,0.00,0.00,29.92,M,3.00,M,BKN,OVC,M,M,1900.00,2700.00,M,M,-SN,M,M,M,M,M,M,24.80,KTMT 031255Z AUTO 00000KT 3SM -SN BKN019 OVC027 M04/M07 A2992 RMK AO2 T10401071,M
INS,2024-01-03 12:55,-115.6733,36.5872,955.00,38.00,20.00,47.90,0.00,0.00,0.00,29.95,1013.20,10.00,M,FEW,OVC,M,M,11000.00,14000.00,M,M,M,M,M,M,M,M,M,38.00,KINS 031255Z AUTO 00000KT 10SM FEW110 OVC140 03/M07 A2995 RMK AO2 SLP132 T00331067 $,M
LSV,2024-01-03 12:55,-115.0343,36.2362,570.00,51.40,26.00,37.00,110.00,7.00,0.00,29.96,1014.00,10.00,M,CLR,M,M,M,M,M,M,M,M,M,M,M,M,M,M,51.40,KLSV 031255Z AUTO 11007KT 10SM CLR 11/M03 A2996 RMK AO2 SLP140 T01081033 $,M
BAM,2024-01-03 12:55,-116.8743,40.5990,1382.36,30.20,23.00,74.26,230.00,4.00,0.00,29.89,M,10.00,M,OVC,M,M,M,9000.00,M,M,M,M,M,M,M,M,M,M,25.32,KBAM 031255Z AUTO 23004KT 10SM OVC090 M01/M05 A2989 RMK AO1,M
HND,2024-01-03 12:56,-115.1344,35.9729,742.79,48.00,25.00,40.29,200.00,7.00,0.00,30.01,1017.60,10.00,M,CLR,M,M,M,M,M,M,M,M,M,M,M,M,M,M,44.28,KHND 031256Z AUTO 20007KT 10SM CLR 09/M04 A3001 RMK AO2 SLP176 T00891039,M
EKO,2024-01-03 12:56,-115.7860,40.8242,1367.00,29.00,21.00,71.67,30.00,4.00,0.00,29.88,1013.20,10.00,M,OVC,M,M,M,10000.00,M,M,M,M,M,M,M,M,M,M,23.92,KEKO 031256Z AUTO 03004KT 10SM OVC100 M02/M06 A2988 RMK AO2 SLP132 T10171061 PWINO FZRANO $,M
WMC,2024-01-03 12:56,-117.8072,40.9019,1315.00,32.00,29.00,88.53,0.00,0.00,0.08,29.91,1013.30,1.00,M,OVC,M,M,M,400.00,M,M,M,-SN BR,M,M,M,M,M,M,32.00,KWMC 031256Z AUTO 00000KT 1SM -SN BR OVC004 00/M02 A2991 RMK AO2 SLP133 P0008 T00001017,M
TPH,2024-01-03 12:56,-117.0904,38.0505,1654.00,33.00,26.00,75.17,180.00,8.00,0.00,29.91,1013.00,10.00,M,SCT,BKN,OVC,M,5500.00,7500.00,9500.00,M,M,M,M,M,M,M,M,25.34,KTPH 031256Z AUTO 18008KT 10SM SCT055 BKN075 OVC095 01/M03 A2991 RMK AO2 SLP130 T00061033,M
LAS,2024-01-03 12:56,-115.1634,36.0719,663.00,48.00,26.00,42.00,0.00,0.00,0.00,29.98,1014.80,10.00,M,FEW,OVC,M,M,16000.00,23000.00,M,M,M,M,M,M,M,M,M,48.00,KLAS 031256Z 00000KT 10SM FEW160 OVC230 09/M03 A2998 RMK AO2 SLP148 T00891033,M
NFL,2024-01-03 12:56,-118.7010,39.4166,1199.00,33.00,31.00,92.25,0.00,0.00,T,29.93,1010.80,8.00,M,BKN,BKN,OVC,M,1000.00,1500.00,11000.00,M,M,M,M,M,M,M,M,33.00,KNFL 031256Z AUTO 00000KT 8SM BKN010 BKN015 OVC110 01/M01 A2993 RMK AO2 UPE07 CIG 008V011 SLP108 P0000 T00061006 $,M
05U,2024-01-03 13:00,-116.0051,39.6042,1811.23,35.60,19.40,51.33,330.00,6.00,0.00,29.91,M,10.00,M,M,M,M,M,M,M,M,M,M,M,M,M,M,M,M,29.87,K05U 031300Z AUTO 33006KT 10SM 02/M07 A2991 RMK A01,M
10U,2024-01-03 13:00,-116.1876,41.9532,1637.00,32.00,23.00,69.04,330.00,3.00,0.00,29.88,M,10.00,M,OVC,M,M,M,7000.00,M,M,M,M,M,M,M,M,M,M,28.69,K10U 031300Z AUTO 33003KT 10SM OVC070 M00/M05 A2988 RMK AO2,M
NFL,2024-01-03 13:05,-118.7010,39.4166,1199.00,33.00,31.00,92.25,0.00,0.00,0.00,29.92,M,6.00,M,SCT,SCT,OVC,M,1000.00,1500.00,11000.00,M,BR,M,M,M,M,M,M,33.00,KNFL 031305Z AUTO 00000KT 6SM BR SCT010 SCT015 OVC110 01/M01 A2992 RMK AO2 T00061006 $,M
LOL,2024-01-03 13:06,-118.5701,40.0684,1192.43,32.00,32.00,100.00,90.00,3.00,0.02,29.93,M,2.50,M,OVC,M,M,M,1400.00,M,M,M,-SN BR,M,M,M,M,M,M,28.69,KLOL 031306Z AUTO 09003KT 2 1/2SM -SN BR OVC014 00/00 A2993 RMK AO2 P0002 T00000000,M
WMC,2024-01-03 13:08,-117.8072,40.9019,1315.00,32.00,29.00,88.53,0.00,0.00,0.01,29.91,M,1.25,M,BKN,OVC,M,M,500.00,1600.00,M,M,-SN BR,M,M,M,M,M,M,32.00,KWMC 031308Z AUTO 00000KT 1 1/4SM -SN BR BKN005 OVC016 00/M02 A2991 RMK AO2 P0001 T00001017,M
LOL,2024-01-03 13:13,-118.5701,40.0684,1192.43,32.00,31.00,96.04,110.00,5.00,0.03,29.93,M,2.50,M,OVC,M,M,M,1500.00,M,M,M,-SN BR,M,M,M,M,M,M,26.40,KLOL 031313Z AUTO 11005KT 2 1/2SM -SN BR OVC015 00/M01 A2993 RMK AO2 P0003 T00001006,M
NFL,2024-01-03 13:13,-118.7010,39.4166,1199.00,33.00,31.00,92.25,120.00,3.00,0.00,29.92,M,6.00,M,FEW,FEW,OVC,M,900.00,1500.00,10000.00,M,BR,M,M,M,M,M,M,29.83,KNFL 031313Z AUTO 12003KT 6SM BR FEW009 FEW015 OVC100 01/M01 A2992 RMK AO2 T00061006 $,M
TMT,2024-01-03 13:15,-117.1971,39.4643,1749.34,24.00,20.70,87.01,0.00,0.00,0.00,29.91,M,2.00,M,OVC,M,M,M,1700.00,M,M,M,-SN,M,M,M,M,M,M,24.00,KTMT 031315Z AUTO 00000KT 2SM -SN OVC017 M04/M06 A2991 RMK AO2 T10451063,M
BVU,2024-01-03 13:15,-114.8611,35.9475,671.00,48.20,26.60,42.73,170.00,4.00,0.00,30.01,M,10.00,M,CLR,M,M,M,M,M,M,M,M,M,M,M,M,M,M,46.34,KBVU 031315Z AUTO 17004KT 10SM CLR 09/M03 A3001 RMK AO2,M
CXP,2024-01-03 13:15,-119.7326,39.1923,1431.00,35.60,24.80,64.46,200.00,4.00,0.00,29.94,M,10.00,M,SCT,BKN,OVC,M,3800.00,4300.00,4900.00,M,M,M,M,M,M,M,M,31.62,KCXP 031315Z AUTO 20004KT 10SM SCT038 BKN043 OVC049 02/M04 A2994 RMK AO2,M
BAM,2024-01-03 13:15,-116.8743,40.5990,1382.36,32.00,23.00,69.04,230.00,6.00,0.00,29.91,M,10.00,M,OVC,M,M,M,8000.00,M,M,M,M,M,M,M,M,M,M,25.53,KBAM 031315Z AUTO 23006KT 10SM OVC080 00/M05 A2991 RMK AO1,M
RTS,2024-01-03 13:15,-119.8764,39.6682,1539.00,32.00,23.00,69.04,270.00,8.00,0.00,29.93,M,10.00,M,SCT,M,M,M,12000.00,M,M,M,M,M,M,M,M,M,M,24.11,KRTS 031315Z AUTO 27008KT 10SM SCT120 M00/M05 A2993 RMK AO2,M
MEV,2024-01-03 13:15,-119.7500,38.9963,1441.42,30.20,23.00,74.26,0.00,0.00,0.00,29.92,M,10.00,M,CLR,M,M,M,M,M,M,M,M,M,M,M,M,M,M,30.20,KMEV 031315Z AUTO 00000KT 10SM CLR M01/M05 A2992 RMK AO2,M
HTH,2024-01-03 13:15,-118.6315,38.5448,1282.89,35.60,30.20,80.51,120.00,5.00,0.00,29.91,M,10.00,M,FEW,OVC,M,M,8500.00,11000.00,M,M,M,M,M,M,M,M,M,30.67,KHTH 031315Z AUTO 12005KT 10SM FEW085 OVC110 02/M01 A2991 RMK A01,M
10U,2024-01-03 13:20,-116.1876,41.9532,1637.00,32.00,23.00,69.04,10.00,3.00,0.00,29.88,M,10.00,M,OVC,M,M,M,7000.00,M,M,M,M,M,M,M,M,M,M,28.69,K10U 031320Z AUTO 01003KT 10SM OVC070 M00/M05 A2988 RMK AO2,M
LOL,2024-01-03 13:24,-118.5701,40.0684,1192.43,32.00,31.00,96.04,130.00,6.00,0.04,29.93,M,5.00,M,OVC,M,M,M,2500.00,M,M,M,-SN BR,M,M,M,M,M,M,25.53,KLOL 031324Z AUTO 13006KT 5SM -SN BR OVC025 00/M01 A2993 RMK AO2 P0004 T00001006,M
05U,2024-01-03 13:30,-116.0051,39.6042,1811.23,35.60,19.40,51.33,330.00,11.00,0.00,29.90,M,10.00,M,M,M,M,M,M,M,M,M,M,M,M,M,M,M,M,27.02,K05U 031330Z AUTO 33011KT 10SM 02/M07 A2990 RMK A01,M
WMC,2024-01-03 13:33,-117.8072,40.9019,1315.00,33.00,29.00,85.04,0.00,0.00,0.03,29.91,M,1.50,M,BKN,BKN,OVC,M,400.00,800.00,1800.00,M,-SN BR,M,M,M,M,M,M,33.00,KWMC 031333Z AUTO 00000KT 1 1/2SM -SN BR BKN004 BKN008 OVC018 01/M02 A2991 RMK AO2 P0003 T00061017,M
CXP,2024-01-03 13:35,-119.7326,39.1923,1431.00,35.60,24.80,64.46,M,6.00,0.00,29.94,M,10.00,M,BKN,OVC,M,M,4100.00,4900.00,M,M,M,M,M,M,M,M,M,29.87,KCXP 031335Z AUTO VRB06KT 10SM BKN041 OVC049 02/M04 A2994 RMK AO2,M
RTS,2024-01-03 13:35,-119.8764,39.6682,1539.00,32.00,23.00,69.04,270.00,8.00,0.00,29.94,M,10.00,M,FEW,M,M,M,12000.00,M,M,M,M,M,M,M,M,M,M,24.11,KRTS 031335Z AUTO 27008KT 10SM FEW120 M00/M05 A2994 RMK AO2,M
MEV,2024-01-03 13:35,-119.7500,38.9963,1441.42,32.00,21.20,63.99,0.00,0.00,0.00,29.93,M,10.00,M,FEW,M,M,M,4700.00,M,M,M,M,M,M,M,M,M,M,32.00,KMEV 031335Z AUTO 00000KT 10SM FEW047 M00/M06 A2993 RMK AO2,M
HTH,2024-01-03 13:35,-118.6315,38.5448,1282.89,35.60,30.20,80.51,210.00,9.00,0.00,29.93,M,10.00,M,BKN,M,M,M,11000.00,M,M,M,M,M,M,M,M,M,M,27.99,KHTH 031335Z AUTO 21009KT 10SM BKN110 02/M01 A2993 RMK A01,M
BAM,2024-01-03 13:35,-116.8743,40.5990,1382.36,32.00,23.00,69.04,160.00,3.00,0.00,29.91,M,10.00,M,BKN,OVC,M,M,6500.00,7500.00,M,M,M,M,M,M,M,M,M,28.69,KBAM 031335Z AUTO 16003KT 10SM BKN065 OVC075 00/M05 A2991 RMK AO1,M
BVU,2024-01-03 13:35,-114.8611,35.9475,671.00,48.20,26.60,42.73,0.00,0.00,0.00,30.00,M,10.00,M,CLR,M,M,M,M,M,M,M,M,M,M,M,M,M,M,48.20,KBVU 031335Z AUTO 00000KT 10SM CLR 09/M03 A3000 RMK AO2,M
WMC,2024-01-03 13:38,-117.8072,40.9019,1315.00,33.00,29.00,85.04,0.00,0.00,0.03,29.91,M,2.00,M,SCT,BKN,OVC,M,400.00,800.00,3400.00,M,-SN BR,M,M,M,M,M,M,33.00,KWMC 031338Z AUTO 00000KT 2SM -SN BR SCT004 BKN008 OVC034 01/M02 A2991 RMK AO2 P0003 T00061017,M
LOL,2024-01-03 13:39,-118.5701,40.0684,1192.43,32.00,32.00,100.00,120.00,5.00,0.04,29.93,M,9.00,M,BKN,OVC,M,M,900.00,2900.00,M,M,M,M,M,M,M,M,M,26.40,KLOL 031339Z AUTO 12005KT 9SM BKN009 OVC029 00/00 A2993 RMK AO2 UPB34E39SNE34 P0004 T00000000,M
05U,2024-01-03 13:40,-116.0051,39.6042,1811.23,35.60,19.40,51.33,330.00,12.00,0.00,29.90,M,10.00,M,M,M,M,M,M,M,M,M,M,M,M,M,M,M,M,26.58,K05U 031340Z AUTO 33012KT 10SM 02/M07 A2990 RMK A01,M
10U,2024-01-03 13:40,-116.1876,41.9532,1637.00,32.00,23.00,69.04,290.00,5.00,0.00,29.88,M,10.00,M,OVC,M,M,M,7500.00,M,M,M,M,M,M,M,M,M,M,26.40,K10U 031340Z AUTO 29005KT 10SM OVC075 M00/M05 A2988 RMK AO2,M
WMC,2024-01-03 13:52,-117.8072,40.9019,1315.00,32.00,28.40,86.39,0.00,0.00,0.03,29.90,M,2.00,M,FEW,SCT,OVC,M,400.00,900.00,3100.00,M,-SN BR,M,M,M,M,M,M,32.00,KWMC 031352Z AUTO 00000KT 2SM -SN BR FEW004 SCT009 OVC031 00/M02 A2990 RMK AO2 P0003,M
P68,2024-01-03 13:53,-116.0056,39.6014,1993.00,35.00,20.00,53.93,180.00,15.00,0.00,29.87,1010.60,M,M,M,M,M,M,M,M,M,M,M,M,M,M,M,M,M,24.67,KP68 031353Z AUTO 18015KT 02/M07 A2987 RMK AO1 SLP106 T00171067,M
DRA,2024-01-03 13:53,-116.0278,36.6206,1009.00,48.00,32.00,53.67,180.00,16.00,T,29.92,1011.50,10.00,28.00,BKN,OVC,M,M,5000.00,6000.00,M,M,M,M,M,M,32.00,170.00,2024-01-03 13:39,41.27,KDRA 031353Z AUTO 18016G28KT 10SM BKN050 OVC060 09/00 A2992 RMK AO2 PK WND 17032/1339 RAB36E47 SLP115 P0000 T00890000,M
ELY,2024-01-03 13:53,-114.8453,39.2950,1909.00,30.00,16.00,55.52,220.00,11.00,0.00,29.92,1013.20,10.00,M,OVC,M,M,M,10000.00,M,M,M,M,M,M,M,M,M,M,19.94,KELY 031353Z AUTO 22011KT 10SM OVC100 M01/M09 A2992 RMK AO2 SLP132 T10111089,M
VGT,2024-01-03 13:53,-115.1933,36.2111,667.00,47.00,29.00,49.34,50.00,6.00,0.00,29.97,1016.50,10.00,M,CLR,M,M,M,M,M,M,M,M,M,M,M,M,M,M,43.60,KVGT 031353Z 05006KT 10SM CLR 08/M02 A2997 RMK AO2 SLP165 T00831017,M
LOL,2024-01-03 13:53,-118.5701,40.0684,1192.43,32.00,32.00,100.00,130.00,3.00,0.04,29.93,1015.40,10.00,M,BKN,BKN,OVC,M,800.00,4400.00,9000.00,M,M,M,M,M,M,M,M,28.69,KLOL 031353Z AUTO 13003KT 10SM BKN008 BKN044 OVC090 00/00 A2993 RMK AO2 UPB34E39SNE34 SLP154 P0004 T00000000,M
RNO,2024-01-03 13:55,-119.7711,39.4839,1341.00,37.00,24.00,58.99,270.00,10.00,0.00,29.93,1013.70,10.00,M,SCT,SCT,OVC,M,4000.00,6500.00,15000.00,M,M,M,M,M,M,M,M,29.24,KRNO 031355Z 27010KT 10SM SCT040 SCT065 OVC150 03/M04 A2993 RMK AO2 SLP137 T00281044,M
BVU,2024-01-03 13:55,-114.8611,35.9475,671.00,48.20,26.60,42.73,0.00,0.00,0.00,30.00,M,10.00,M,FEW,M,M,M,7500.00,M,M,M,M,M,M,M,M,M,M,48.20,KBVU 031355Z AUTO 00000KT 10SM FEW075 09/M03 A3000 RMK AO2,M
CXP,2024-01-03 13:55,-119.7326,39.1923,1431.00,35.60,23.00,59.79,0.00,0.00,0.00,29.95,M,10.00,10.00,FEW,SCT,OVC,M,3400.00,4200.00,4900.00,M,M,M,M,M,M,M,M,35.60,KCXP 031355Z AUTO 00000G10KT 10SM FEW034 SCT042 OVC049 02/M05 A2995 RMK AO2,M
MEV,2024-01-03 13:55,-119.7500,38.9963,1441.42,30.20,21.20,68.83,0.00,0.00,0.00,29.94,M,10.00,M,SCT,SCT,SCT,M,5000.00,5500.00,8000.00,M,M,M,M,M,M,M,M,30.20,KMEV 031355Z AUTO 00000KT 10SM SCT050 SCT055 SCT080 M01/M06 A2994 RMK AO2,M
HTH,2024-01-03 13:55,-118.6315,38.5448,1282.89,33.80,30.20,86.49,260.00,4.00,0.00,29.93,M,10.00,M,FEW,M,M,M,12000.00,M,M,M,M,M,M,M,M,M,M,29.52,KHTH 031355Z AUTO 26004KT 10SM FEW120 01/M01 A2993 RMK A01,M
TMT,2024-01-03 13:55,-117.1971,39.4643,1749.34,24.00,22.60,94.29,340.00,3.00,0.03,29.91,M,1.00,M,OVC,M,M,M,800.00,M,M,M,SN,M,M,M,M,M,M,19.54,KTMT 031355Z AUTO 34003KT 1SM SN OVC008 M04/M05 A2991 RMK AO2 P0003 T10451052,M
RTS,2024-01-03 13:55,-119.8764,39.6682,1539.00,32.00,23.00,69.04,250.00,7.00,0.00,29.95,M,10.00,M,FEW,SCT,SCT,M,2700.00,3200.00,10000.00,M,M,M,M,M,M,M,M,24.78,KRTS 031355Z AUTO 25007KT 10SM FEW027 SCT032 SCT100 M00/M05 A2995 RMK AO2,M
BAM,2024-01-03 13:55,-116.8743,40.5990,1382.36,30.20,23.00,74.26,0.00,0.00,0.00,29.92,M,10.00,M,SCT,BKN,OVC,M,4000.00,4700.00,6500.00,M,M,M,M,M,M,M,M,30.20,KBAM 031355Z AUTO 00000KT 10SM SCT040 BKN047 OVC065 M01/M05 A2992 RMK AO1,M
INS,2024-01-03 13:55,-115.6733,36.5872,955.00,40.50,21.40,46.11,220.00,7.00,0.00,29.95,1013.00,10.00,M,OVC,M,M,M,8500.00,M,M,M,M,M,M,M,M,M,M,35.14,KINS 031355Z AUTO 22007KT 10SM OVC085 05/M06 A2995 RMK AO2 SLP130 T00471059 $,M
LSV,2024-01-03 13:55,-115.0343,36.2362,570.00,50.70,26.00,37.97,120.00,8.00,0.00,29.95,1013.80,10.00,M,CLR,M,M,M,M,M,M,M,M,M,M,M,M,M,M,50.70,KLSV 031355Z AUTO 12008KT 10SM CLR 10/M03 A2995 RMK AO2 SLP138 T01041033 $,M
EKO,2024-01-03 13:56,-115.7860,40.8242,1367.00,30.00,21.00,68.81,80.00,4.00,0.00,29.89,1013.30,10.00,M,OVC,M,M,M,8500.00,M,M,M,M,M,M,M,M,M,M,25.08,KEKO 031356Z AUTO 08004KT 10SM OVC085 M01/M06 A2989 RMK AO2 SLP133 T10111061 PWINO FZRANO $,M
NFL,2024-01-03 13:56,-118.7010,39.4166,1199.00,32.00,31.00,96.04,260.00,4.00,0.00,29.94,1011.00,7.00,M,OVC,M,M,M,10000.00,M,M,M,M,M,M,M,M,M,M,27.42,KNFL 031356Z AUTO 26004KT 7SM OVC100 00/M01 A2994 RMK AO2 SLP110 T00001006 $,M
HND,2024-01-03 13:56,-115.1344,35.9729,742.79,48.00,25.00,40.29,230.00,8.00,0.00,29.99,1017.10,10.00,M,CLR,M,M,M,M,M,M,M,M,M,M,M,M,M,M,43.82,KHND 031356Z 23008KT 10SM CLR 09/M04 A2999 RMK AO2 SLP171 T00891039,M
LAS,2024-01-03 13:56,-115.1634,36.0719,663.00,50.00,26.00,38.97,40.00,7.00,0.00,29.98,1014.70,10.00,M,FEW,FEW,OVC,M,7000.00,12000.00,17000.00,M,M,M,M,M,M,M,M,50.00,KLAS 031356Z 04007KT 10SM FEW070 FEW120 OVC170 10/M03 A2998 RMK AO2 SLP147 T01001033,M
WMC,2024-01-03 13:56,-117.8072,40.9019,1315.00,32.00,29.00,88.53,0.00,0.00,0.03,29.90,1013.30,2.00,M,FEW,BKN,OVC,M,200.00,900.00,3100.00,M,-SN BR,M,M,M,M,M,M,32.00,KWMC 031356Z AUTO 00000KT 2SM -SN BR FEW002 BKN009 OVC031 00/M02 A2990 RMK AO2 SLP133 P0003 T00001017,M
TPH,2024-01-03 13:56,-117.0904,38.0505,1654.00,32.00,26.00,78.25,300.00,3.00,T,29.92,1013.80,10.00,M,FEW,BKN,OVC,M,3200.00,4200.00,5000.00,M,M,M,M,M,M,M,M,28.69,KTPH 031356Z AUTO 30003KT 10SM FEW032 BKN042 OVC050 00/M03 A2992 RMK AO2 SNB24E28 SLP138 P0000 T00001033,M
10U,2024-01-03 14:00,-116.1876,41.9532,1637.00,30.20,24.80,80.07,0.00,0.00,0.00,29.89,M,10.00,M,FEW,OVC,M,M,6000.00,7500.00,M,M,M,M,M,M,M,M,M,30.20,K10U 031400Z AUTO 00000KT 10SM FEW060 OVC075 M01/M04 A2989 RMK AO2,M
WMC,2024-01-03 14:03,-117.8072,40.9019,1315.00,32.00,29.00,88.53,0.00,0.00,T,29.90,M,1.75,M,BKN,OVC,M,M,900.00,3300.00,M,M,-SN BR,M,M,M,M,M,M,32.00,KWMC 031403Z AUTO 00000KT 1 3/4SM -SN BR BKN009 OVC033 00/M02 A2990 RMK AO2 P0000 T00001017,M
TPH,2024-01-03 14:13,-117.0904,38.0505,1654.00,31.00,26.00,81.48,310.00,5.00,T,29.93,M,2.50,M,BKN,BKN,OVC,M,2200.00,2800.00,4000.00,M,-SN,M,M,M,M,M,M,25.21,KTPH 031413Z AUTO 31005KT 2 1/2SM -SN BKN022 BKN028 OVC040 M01/M03 A2993 RMK AO2 SNB1358 P0000 T10061033,M
CXP,2024-01-03 14:15,-119.7326,39.1923,1431.00,35.60,23.00,59.79,280.00,7.00,0.00,29.95,M,10.00,M,SCT,OVC,M,M,3600.00,4600.00,M,M,-RA,M,M,M,M,M,M,29.17,KCXP 031415Z AUTO 28007KT 250V310 10SM -RA SCT036 OVC046 02/M05 A2995 RMK AO2,M
BAM,2024-01-03 14:15,-116.8743,40.5990,1382.36,32.00,24.80,74.44,180.00,5.00,0.00,29.92,M,7.00,M,SCT,BKN,OVC,M,2500.00,3000.00,3800.00,M,M,M,M,M,M,M,M,26.40,KBAM 031415Z AUTO 18005KT 7SM SCT025 BKN030 OVC038 00/M04 A2992 RMK AO1,M
TMT,2024-01-03 14:15,-117.1971,39.4643,1749.34,23.70,22.50,95.08,330.00,3.00,0.01,29.92,M,0.75,M,OVC,M,M,M,600.00,M,M,M,SN,M,M,M,M,M,M,19.20,KTMT 031415Z AUTO 33003KT 3/4SM SN OVC006 M05/M05 A2992 RMK AO2 P0001 T10461053,M
BVU,2024-01-03 14:15,-114.8611,35.9475,671.00,50.00,28.40,43.03,110.00,3.00,0.00,30.00,M,10.00,M,SCT,M,M,M,7500.00,M,M,M,M,M,M,M,M,M,M,50.00,KBVU 031415Z AUTO 11003KT 10SM SCT075 10/M02 A3000 RMK AO2,M
RTS,2024-01-03 14:15,-119.8764,39.6682,1539.00,32.00,23.00,69.04,M,4.00,0.00,29.96,M,10.00,M,FEW,SCT,OVC,M,2800.00,4800.00,9500.00,M,M,M,M,M,M,M,M,27.42,KRTS 031415Z AUTO VRB04KT 10SM FEW028 SCT048 OVC095 M00/M05 A2996 RMK AO2,M
MEV,2024-01-03 14:15,-119.7500,38.9963,1441.42,33.80,19.40,55.14,0.00,0.00,0.00,29.94,M,10.00,M,SCT,BKN,M,M,5000.00,5500.00,M,M,M,M,M,M,M,M,M,33.80,KMEV 031415Z AUTO 00000KT 10SM SCT050 BKN055 01/M07 A2994 RMK AO2,M
HTH,2024-01-03 14:15,-118.6315,38.5448,1282.89,33.80,30.20,86.49,190.00,4.00,0.00,29.94,M,10.00,M,FEW,M,M,M,12000.00,M,M,M,M,M,M,M,M,M,M,29.52,KHTH 031415Z AUTO 19004KT 10SM FEW120 01/M01 A2994 RMK A01,M
10U,2024-01-03 14:20,-116.1876,41.9532,1637.00,30.20,24.80,80.07,330.00,4.00,0.00,29.89,M,10.00,M,OVC,M,M,M,7000.00,M,M,M,M,M,M,M,M,M,M,25.32,K10U 031420Z AUTO 33004KT 10SM OVC070 M01/M04 A2989 RMK AO2,M
WMC,2024-01-03 14:21,-117.8072,40.9019,1315.00,32.00,29.00,88.53,260.00,3.00,0.01,29.90,M,1.25,M,OVC,M,M,M,900.00,M,M,M,-SN BR,M,M,M,M,M,M,28.69,KWMC 031421Z AUTO 26003KT 1 1/4SM -SN BR OVC009 00/M02 A2990 RMK AO2 P0001 T00001017,M
TPH,2024-01-03 14:21,-117.0904,38.0505,1654.00,31.00,28.00,88.48,300.00,5.00,T,29.93,M,1.00,M,BKN,BKN,OVC,M,1600.00,2300.00,2700.00,M,-SN BR,M,M,M,M,M,M,25.21,KTPH 031421Z AUTO 30005KT 1SM -SN BR BKN016 BKN023 OVC027 M01/M02 A2993 RMK AO2 SNB1358 P0000 T10061022,M
TPH,2024-01-03 14:27,-117.0904,38.0505,1654.00,31.00,29.00,92.19,250.00,5.00,T,29.93,M,0.75,M,BKN,OVC,M,M,1400.00,2400.00,M,M,-SN BR,M,M,M,M,M,M,25.21,KTPH 031427Z AUTO 25005KT 3/4SM -SN BR BKN014 OVC024 M01/M02 A2993 RMK AO2 SNB1358 P0000 T10061017,M
CXP,2024-01-03 14:30,-119.7326,39.1923,1431.00,35.60,23.00,59.79,270.00,5.00,0.00,29.96,M,10.00,M,FEW,BKN,OVC,M,2800.00,3700.00,4900.00,M,M,M,M,M,M,M,M,30.67,KCXP 031430Z AUTO 27005KT 10SM FEW028 BKN037 OVC049 02/M05 A2996 RMK AO2,M
WMC,2024-01-03 14:32,-117.8072,40.9019,1315.00,32.00,29.00,88.53,0.00,0.00,0.02,29.91,M,1.50,M,BKN,OVC,M,M,500.00,900.00,M,M,-SN BR,M,M,M,M,M,M,32.00,KWMC 031432Z AUTO 00000KT 1 1/2SM -SN BR BKN005 OVC009 00/M02 A2991 RMK AO2 P0002 T00001017,M
LOL,2024-01-03 14:32,-118.5701,40.0684,1192.43,32.00,32.00,100.00,280.00,4.00,0.00,29.94,M,10.00,M,BKN,OVC,M,M,300.00,700.00,M,M,M,M,M,M,M,M,M,27.42,KLOL 031432Z AUTO 28004KT 10SM BKN003 OVC007 00/00 A2994 RMK AO2 T00000000,M
BVU,2024-01-03 14:35,-114.8611,35.9475,671.00,50.00,28.40,43.03,100.00,5.00,0.00,29.99,M,10.00,M,BKN,M,M,M,7000.00,M,M,M,M,M,M,M,M,M,M,50.00,KBVU 031435Z AUTO 10005KT 10SM BKN070 10/M02 A2999 RMK AO2,M
RTS,2024-01-03 14:35,-119.8764,39.6682,1539.00,32.00,24.80,74.44,250.00,5.00,0.00,29.96,M,10.00,M,BKN,BKN,OVC,M,4000.00,4700.00,10000.00,M,M,M,M,M,M,M,M,26.40,KRTS 031435Z AUTO 25005KT 10SM BKN040 BKN047 OVC100 M00/M04 A2996 RMK AO2,M
MEV,2024-01-03 14:35,-119.7500,38.9963,1441.42,32.00,19.40,59.27,0.00,0.00,0.00,29.95,M,10.00,M,FEW,M,M,M,5500.00,M,M,M,M,M,M,M,M,M,M,32.00,KMEV 031435Z AUTO 00000KT 10SM FEW055 M00/M07 A2995 RMK AO2,M
HTH,2024-01-03 14:35,-118.6315,38.5448,1282.89,32.00,26.60,80.22,30.00,4.00,0.00,29.94,M,10.00,M,FEW,M,M,M,12000.00,M,M,M,M,M,M,M,M,M,M,27.42,KHTH 031435Z AUTO 03004KT 10SM FEW120 M00/M03 A2994 RMK A01,M
BAM,2024-01-03 14:35,-116.8743,40.5990,1382.36,32.00,26.60,80.22,200.00,6.00,0.00,29.92,M,10.00,M,SCT,SCT,OVC,M,2500.00,3200.00,5500.00,M,M,M,M,M,M,M,M,25.53,KBAM 031435Z AUTO 20006KT 10SM SCT025 SCT032 OVC055 00/M03 A2992 RMK AO1,M
TMT,2024-01-03 14:35,-117.1971,39.4643,1749.34,24.40,23.40,95.90,0.00,0.00,0.03,29.92,M,0.50,M,OVC,M,M,M,600.00,M,M,M,+SN,M,M,M,M,M,M,24.40,KTMT 031435Z AUTO 00000KT 1/2SM +SN OVC006 M04/M05 A2992 RMK AO2 P0003 T10421048,M
10U,2024-01-03 14:40,-116.1876,41.9532,1637.00,30.20,24.80,80.07,0.00,0.00,0.00,29.89,M,10.00,M,SCT,BKN,OVC,M,5000.00,6000.00,7000.00,M,M,M,M,M,M,M,M,30.20,K10U 031440Z AUTO 00000KT 10SM SCT050 BKN060 OVC070 M01/M04 A2989 RMK AO2,M
TPH,2024-01-03 14:45,-117.0904,38.0505,1654.00,31.00,30.00,96.02,270.00,9.00,0.02,29.92,M,1.00,M,FEW,OVC,M,M,600.00,1100.00,M,M,-SN BR,M,M,M,M,M,M,22.27,KTPH 031445Z AUTO 27009KT 1SM -SN BR FEW006 OVC011 M01/M01 A2992 RMK AO2 SNB1358 P0002 T10061011,M
NFL,2024-01-03 14:48,-118.7010,39.4166,1199.00,33.00,31.00,92.25,0.00,0.00,0.00,29.95,M,7.00,M,FEW,BKN,BKN,M,1000.00,5500.00,10000.00,M,M,M,M,M,M,M,M,33.00,KNFL 031448Z 00000KT 7SM FEW010 BKN055 BKN100 01/M01 A2995 RMK AO2 WR// T00061006 $,M
TPH,2024-01-03 14:50,-117.0904,38.0505,1654.00,32.00,28.40,86.39,290.00,6.00,0.02,29.92,M,2.00,M,FEW,OVC,M,M,1200.00,1900.00,M,M,-SN BR,M,M,M,M,M,M,25.53,KTPH 031450Z AUTO 29006KT 2SM -SN BR FEW012 OVC019 00/M02 A2992 RMK AO2 SNB1358 P0002,M
P68,2024-01-03 14:53,-116.0056,39.6014,1993.00,34.00,21.00,58.56,150.00,9.00,0.00,29.87,1010.20,M,M,M,M,M,M,M,M,M,M,M,M,M,M,M,M,M,26.00,KP68 031453Z AUTO 15009KT 01/M06 A2987 RMK AO1 SLP102 T00111061 56005,M
DRA,2024-01-03 14:53,-116.0278,36.6206,1009.00,45.00,35.00,67.78,200.00,16.00,T,29.92,1012.00,10.00,22.00,OVC,M,M,M,4800.00,M,M,M,-RA,M,M,M,31.00,190.00,2024-01-03 14:20,37.36,KDRA 031453Z AUTO 20016G22KT 10SM -RA OVC048 07/02 A2992 RMK AO2 PK WND 19031/1420 RAB22 SLP120 P0000 60000 T00720017 55008,M
ELY,2024-01-03 14:53,-114.8453,39.2950,1909.00,30.00,17.00,57.98,200.00,9.00,0.00,29.91,1012.80,10.00,M,SCT,BKN,BKN,M,5500.00,8000.00,9500.00,M,M,M,M,M,M,M,M,21.03,KELY 031453Z AUTO 20009KT 10SM SCT055 BKN080 BKN095 M01/M08 A2991 RMK AO2 SLP128 T10111083 58001,M
VGT,2024-01-03 14:53,-115.1933,36.2111,667.00,46.00,29.00,51.24,300.00,5.00,0.00,29.96,1016.20,10.00,M,FEW,SCT,BKN,M,7000.00,8500.00,11000.00,M,M,M,M,M,M,M,M,43.02,KVGT 031453Z 30005KT 10SM FEW070 SCT085 BKN110 08/M02 A2996 RMK AO2 SLP162 T00781017 56014,M
LOL,2024-01-03 14:53,-118.5701,40.0684,1192.43,32.00,32.00,100.00,300.00,3.00,0.00,29.94,1015.50,6.00,M,OVC,M,M,M,300.00,M,M,M,BR,M,M,M,M,M,M,28.69,KLOL 031453Z AUTO 30003KT 6SM BR OVC003 00/00 A2994 RMK AO2 SLP155 60009 T00000000 53004,M
BVU,2024-01-03 14:55,-114.8611,35.9475,671.00,48.20,28.40,46.02,100.00,7.00,0.00,29.98,M,10.00,M,FEW,BKN,M,M,7500.00,11000.00,M,M,M,M,M,M,M,M,M,44.53,KBVU 031455Z AUTO 10007KT 10SM FEW075 BKN110 09/M02 A2998 RMK AO2,M
CXP,2024-01-03 14:55,-119.7326,39.1923,1431.00,33.80,24.80,69.25,190.00,8.00,0.00,29.97,M,10.00,M,FEW,BKN,OVC,M,3000.00,4300.00,5000.00,M,M,M,M,M,M,M,M,26.33,KCXP 031455Z AUTO 19008KT 10SM FEW030 BKN043 OVC050 01/M04 A2997 RMK AO2,M
INS,2024-01-03 14:55,-115.6733,36.5872,955.00,40.50,23.00,49.33,0.00,0.00,0.00,29.94,1012.90,10.00,M,OVC,M,M,M,7000.00,M,M,M,M,M,M,M,M,M,M,40.50,KINS 031455Z AUTO 00000KT 10SM OVC070 05/M05 A2994 RMK AO2 SLP129 T00471051 55008 $,M
RNO,2024-01-03 14:55,-119.7711,39.4839,1341.00,36.00,21.00,54.08,300.00,16.00,0.00,29.96,1014.70,10.00,M,FEW,SCT,BKN,M,4000.00,6500.00,12000.00,M,M,M,M,M,M,M,M,25.63,KRNO 031455Z 30016KT 10SM FEW040 SCT065 BKN120 02/M06 A2996 RMK AO2 SLP147 T00221061 53012,M
LSV,2024-01-03 14:55,-115.0343,36.2362,570.00,50.50,28.20,41.89,90.00,6.00,0.00,29.94,1013.50,10.00,M,FEW,M,M,M,7000.00,M,M,M,M,M,M,M,M,M,M,50.50,KLSV 031455Z AUTO 09006KT 10SM FEW070 10/M02 A2994 RMK AO2 SLP135 T01031021 57013 $,M
RTS,2024-01-03 14:55,-119.8764,39.6682,1539.00,32.00,24.80,74.44,260.00,5.00,0.00,29.97,M,10.00,M,OVC,M,M,M,4000.00,M,M,M,M,M,M,M,M,M,M,26.40,KRTS 031455Z AUTO 26005KT 10SM OVC040 M00/M04 A2997 RMK AO2,M
MEV,2024-01-03 14:55,-119.7500,38.9963,1441.42,28.40,19.40,68.61,50.00,5.00,0.00,29.96,M,9.00,M,CLR,M,M,M,M,M,M,M,M,M,M,M,M,M,M,22.12,KMEV 031455Z AUTO 05005KT 9SM CLR M02/M07 A2996 RMK AO2,M
BAM,2024-01-03 14:55,-116.8743,40.5990,1382.36,32.00,26.60,80.22,210.00,7.00,0.00,29.92,M,7.00,M,BKN,BKN,OVC,M,2700.00,3200.00,5500.00,M,M,M,M,M,M,M,M,24.78,KBAM 031455Z AUTO 21007KT 7SM BKN027 BKN032 OVC055 00/M03 A2992 RMK AO1,M
HTH,2024-01-03 14:55,-118.6315,38.5448,1282.89,32.00,28.40,86.39,0.00,0.00,0.00,29.94,M,10.00,M,CLR,M,M,M,M,M,M,M,M,M,M,M,M,M,M,32.00,KHTH 031455Z AUTO 00000KT 10SM CLR M00/M02 A2994 RMK A01,M
TMT,2024-01-03 14:55,-117.1971,39.4643,1749.34,24.80,23.70,95.51,140.00,5.00,0.05,29.91,M,1.00,M,OVC,M,M,M,600.00,M,M,M,SN,M,M,M,M,M,M,17.84,KTMT 031455Z AUTO 14005KT 1SM SN OVC006 M04/M05 A2991 RMK AO2 P0005 60008 T10401046,M
EKO,2024-01-03 14:56,-115.7860,40.8242,1367.00,30.00,22.00,71.78,90.00,6.00,0.00,29.89,1013.60,10.00,M,OVC,M,M,M,5500.00,M,M,M,M,M,M,M,M,M,M,23.12,KEKO 031456Z AUTO 09006KT 10SM OVC055 M01/M06 A2989 RMK AO2 SLP136 T10111056 56004 PWINO FZRANO $,M
WMC,2024-01-03 14:56,-117.8072,40.9019,1315.00,32.00,29.00,88.53,0.00,0.00,0.03,29.91,1013.60,1.50,M,BKN,OVC,M,M,500.00,1000.00,M,M,-SN BR,M,M,M,M,M,M,32.00,KWMC 031456Z AUTO 00000KT 1 1/2SM -SN BR BKN005 OVC010 00/M02 A2991 RMK AO2 SLP136 P0003 60014 T00001017 55001,M
HND,2024-01-03 14:56,-115.1344,35.9729,742.79,50.00,27.00,40.62,210.00,11.00,0.00,29.97,1016.30,10.00,M,OVC,M,M,M,11000.00,M,M,M,M,M,M,M,M,M,M,50.00,KHND 031456Z 21011KT 10SM OVC110 10/M03 A2997 RMK AO2 SLP163 T01001028 58015,M
TPH,2024-01-03 14:56,-117.0904,38.0505,1654.00,31.00,29.00,92.19,340.00,3.00,0.02,29.92,1014.20,8.00,M,BKN,OVC,M,M,3000.00,6000.00,M,M,-SN,M,M,M,M,M,M,27.55,KTPH 031456Z AUTO 34003KT 8SM -SN BKN030 OVC060 M01/M02 A2992 RMK AO2 SNB1358 SLP142 P0002 60002 T10061017 55000,M
LAS,2024-01-03 14:56,-115.1634,36.0719,663.00,48.00,27.00,43.77,280.00,8.00,0.00,29.96,1014.20,10.00,M,FEW,BKN,BKN,M,7000.00,11000.00,15000.00,M,M,M,M,M,M,M,M,43.82,KLAS 031456Z 28008KT 10SM FEW070 BKN110 BKN150 09/M03 A2996 RMK AO2 SLP142 VIRGA DSNT SW-W T00891028 57012,M
NFL,2024-01-03 14:56,-118.7010,39.4166,1199.00,33.00,31.00,92.25,330.00,3.00,0.00,29.96,1011.70,7.00,M,FEW,OVC,BKN,M,1000.00,5500.00,10000.00,M,M,M,M,M,M,M,M,29.83,KNFL 031456Z COR 33003KT 7SM FEW010 OVC055 01/M01 A2996 RMK AO2 SLP117 WR// 60000 T00061006 53009,M
10U,2024-01-03 15:00,-116.1876,41.9532,1637.00,32.00,24.80,74.44,0.00,0.00,0.00,29.88,M,10.00,M,FEW,BKN,OVC,M,3300.00,5000.00,7000.00,M,M,M,M,M,M,M,M,32.00,K10U 031500Z AUTO 00000KT 10SM FEW033 BKN050 OVC070 M00/M04 A2988 RMK AO2,M
WMC,2024-01-03 15:03,-117.8072,40.9019,1315.00,32.00,29.00,88.53,0.00,0.00,0.01,29.91,M,1.25,M,SCT,OVC,M,M,500.00,1000.00,M,M,-SN BR,M,M,M,M,M,M,32.00,KWMC 031503Z AUTO 00000KT 1 1/4SM -SN BR SCT005 OVC010 00/M02 A2991 RMK AO2 P0001 T00001017,M
INS,2024-01-03 15:06,-115.6733,36.5872,955.00,42.80,23.00,45.14,220.00,3.00,0.00,29.95,1013.20,10.00,M,FEW,FEW,OVC,M,2100.00,6000.00,7000.00,M,-RA,M,M,M,M,M,M,41.03,KINS 031506Z AUTO 22003KT 10SM -RA FEW021 FEW060 OVC070 06/M05 A2995 RMK AO2 RAB06 SLP132 $,M
05U,2024-01-03 15:10,-116.0051,39.6042,1811.23,33.80,23.00,64.23,310.00,11.00,0.00,29.90,M,9.00,M,M,M,M,M,M,M,M,M,M,M,M,M,M,M,M,24.74,K05U 031510Z AUTO 31011KT 9SM 01/M05 A2990 RMK A01,M
BVU,2024-01-03 15:15,-114.8611,35.9475,671.00,48.20,28.40,46.02,120.00,5.00,0.00,29.98,M,10.00,M,BKN,M,M,M,11000.00,M,M,M,M,M,M,M,M,M,M,45.63,KBVU 031515Z AUTO 12005KT 10SM BKN110 09/M02 A2998 RMK AO2,M
CXP,2024-01-03 15:15,-119.7326,39.1923,1431.00,33.80,24.80,69.25,0.00,0.00,0.00,29.97,M,10.00,M,OVC,M,M,M,4500.00,M,M,M,M,M,M,M,M,M,M,33.80,KCXP 031515Z AUTO 00000KT 10SM OVC045 01/M04 A2997 RMK AO2,M
RTS,2024-01-03 15:15,-119.8764,39.6682,1539.00,32.00,24.80,74.44,310.00,6.00,0.00,29.98,M,10.00,M,OVC,M,M,M,4300.00,M,M,M,M,M,M,M,M,M,M,25.53,KRTS 031515Z AUTO 31006KT 10SM OVC043 M00/M04 A2998 RMK AO2,M
MEV,2024-01-03 15:15,-119.7500,38.9963,1441.42,28.40,24.80,86.18,50.00,5.00,0.00,29.96,M,10.00,M,CLR,M,M,M,M,M,M,M,M,M,M,M,M,M,M,22.12,KMEV 031515Z AUTO 05005KT 10SM CLR M02/M04 A2996 RMK AO2,M
HTH,2024-01-03 15:15,-118.6315,38.5448,1282.89,32.00,28.40,86.39,250.00,6.00,0.00,29.95,M,10.00,M,CLR,M,M,M,M,M,M,M,M,M,M,M,M,M,M,25.53,KHTH 031515Z AUTO 25006KT 10SM CLR M00/M02 A2995 RMK A01,M
BAM,2024-01-03 15:15,-116.8743,40.5990,1382.36,32.00,30.20,92.97,220.00,3.00,0.00,29.92,M,1.50,M,OVC,M,M,M,1900.00,M,M,M,M,M,M,M,M,M,M,28.69,KBAM 031515Z AUTO 22003KT 1 1/2SM OVC019 00/M01 A2992 RMK AO1,M
TMT,2024-01-03 15:15,-117.1971,39.4643,1749.34,25.50,24.60,96.32,170.00,3.00,0.00,29.92,M,3.00,M,OVC,M,M,M,1000.00,M,M,M,-SN,M,M,M,M,M,M,21.26,KTMT 031515Z AUTO 17003KT 3SM -SN OVC010 M04/M04 A2992 RMK AO2 T10361041,M
10U,2024-01-03 15:20,-116.1876,41.9532,1637.00,32.00,24.80,74.44,120.00,6.00,0.00,29.88,M,10.00,M,FEW,BKN,OVC,M,4700.00,6000.00,7000.00,M,M,M,M,M,M,M,M,25.53,K10U 031520Z AUTO 12006KT 10SM FEW047 BKN060 OVC070 M00/M04 A2988 RMK AO2,M
NFL,2024-01-03 15:24,-118.7010,39.4166,1199.00,33.00,31.00,92.25,300.00,4.00,T,29.96,M,1.00,M,SCT,BKN,OVC,M,500.00,1000.00,3700.00,M,-SN BR,M,M,M,M,M,M,28.59,KNFL 031524Z 30004KT 1SM -SN BR SCT005 BKN010 OVC037 01/M01 A2996 RMK AO2 SNB18 P0000 T00061006,M
LOL,2024-01-03 15:26,-118.5701,40.0684,1192.43,32.00,32.00,100.00,0.00,0.00,0.00,29.95,M,1.75,M,BKN,OVC,M,M,200.00,900.00,M,M,BR,M,M,M,M,M,M,32.00,KLOL 031526Z AUTO 00000KT 1 3/4SM BR BKN002 OVC009 00/00 A2995 RMK AO2 T00000000,M
WMC,2024-01-03 15:27,-117.8072,40.9019,1315.00,32.00,30.00,92.22,0.00,0.00,0.03,29.91,M,1.00,M,BKN,OVC,M,M,300.00,800.00,M,M,-SN BR,M,M,M,M,M,M,32.00,KWMC 031527Z AUTO 00000KT 1SM -SN BR BKN003 OVC008 00/M01 A2991 RMK AO2 P0003 T00001011,M
05U,2024-01-03 15:30,-116.0051,39.6042,1811.23,32.00,26.60,80.22,310.00,8.00,0.00,29.91,M,2.50,M,M,M,M,M,M,M,M,M,HZ,M,M,M,M,M,M,24.11,K05U 031530Z AUTO 31008KT 2 1/2SM HZ 00/M03 A2991 RMK A01,M
BVU,2024-01-03 15:35,-114.8611,35.9475,671.00,48.20,28.40,46.02,90.00,7.00,0.00,29.99,M,10.00,M,SCT,M,M,M,12000.00,M,M,M,M,M,M,M,M,M,M,44.53,KBVU 031535Z AUTO 09007KT 10SM SCT120 09/M02 A2999 RMK AO2,M
CXP,2024-01-03 15:35,-119.7326,39.1923,1431.00,35.60,23.00,59.79,0.00,0.00,0.00,29.98,M,10.00,M,SCT,OVC,M,M,3500.00,4300.00,M,M,M,M,M,M,M,M,M,35.60,KCXP 031535Z AUTO 00000KT 10SM SCT035 OVC043 02/M05 A2998 RMK AO2,M
WMC,2024-01-03 15:35,-117.8072,40.9019,1315.00,32.00,30.00,92.22,0.00,0.00,0.04,29.91,M,0.50,M,BKN,OVC,M,M,300.00,800.00,M,M,SN FG,M,M,M,M,M,M,32.00,KWMC 031535Z AUTO 00000KT 1/2SM SN FG BKN003 OVC008 00/M01 A2991 RMK AO2 P0004 T00001011,M
RTS,2024-01-03 15:35,-119.8764,39.6682,1539.00,32.00,24.80,74.44,300.00,8.00,0.00,29.98,M,10.00,M,OVC,M,M,M,4400.00,M,M,M,M,M,M,M,M,M,M,24.11,KRTS 031535Z AUTO 30008KT 10SM OVC044 M00/M04 A2998 RMK AO2,M
MEV,2024-01-03 15:35,-119.7500,38.9963,1441.42,28.40,24.80,86.18,30.00,6.00,0.00,29.97,M,10.00,M,SCT,SCT,M,M,5500.00,6500.00,M,M,M,M,M,M,M,M,M,21.19,KMEV 031535Z AUTO 03006KT 10SM SCT055 SCT065 M02/M04 A2997 RMK AO2,M
BAM,2024-01-03 15:35,-116.8743,40.5990,1382.36,32.00,30.20,92.97,0.00,0.00,0.00,29.92,M,1.50,M,BKN,OVC,M,M,700.00,1900.00,M,M,M,M,M,M,M,M,M,32.00,KBAM 031535Z AUTO 00000KT 1 1/2SM BKN007 OVC019 00/M01 A2992 RMK AO1,M
HTH,2024-01-03 15:35,-118.6315,38.5448,1282.89,30.20,26.60,86.28,0.00,0.00,0.00,29.96,M,10.00,M,CLR,M,M,M,M,M,M,M,M,M,M,M,M,M,M,30.20,KHTH 031535Z AUTO 00000KT 10SM CLR M01/M03 A2996 RMK A01,M
TMT,2024-01-03 15:35,-117.1971,39.4643,1749.34,29.50,28.00,94.05,0.00,0.00,0.00,29.92,M,1.50,M,BKN,OVC,M,M,600.00,1100.00,M,M,-SN,M,M,M,M,M,M,29.50,KTMT 031535Z AUTO 00000KT 1 1/2SM -SN BKN006 OVC011 M01/M02 A2992 RMK AO2 T10141022,M
NFL,2024-01-03 15:37,-118.7010,39.4166,1199.00,33.00,31.00,92.25,0.00,0.00,T,29.97,M,2.00,M,SCT,BKN,BKN,M,500.00,1000.00,3500.00,M,-SN BR,M,M,M,M,M,M,33.00,KNFL 031537Z 00000KT 2SM -SN BR SCT005 BKN010 BKN035 01/M01 A2997 RMK AO2 SNB18 VIS SE-S 1 WR// P0000 T00061006,M
10U,2024-01-03 15:40,-116.1876,41.9532,1637.00,30.20,24.80,80.07,0.00,0.00,0.00,29.89,M,10.00,M,OVC,M,M,M,6000.00,M,M,M,M,M,M,M,M,M,M,30.20,K10U 031540Z AUTO 00000KT 10SM OVC060 M01/M04 A2989 RMK AO2,M
LSV,2024-01-03 15:43,-115.0343,36.2362,570.00,51.80,28.40,40.25,310.00,5.00,0.00,29.96,1014.20,10.00,M,FEW,BKN,M,M,4000.00,9000.00,M,M,-SHRA,M,M,M,M,M,M,51.80,KLSV 031543Z 31005KT 10SM -SHRA FEW040 BKN090 11/M02 A2996 RMK A02A SLP142 RAB42 $,M
NFL,2024-01-03 15:44,-118.7010,39.4166,1199.00,33.00,31.00,92.25,290.00,3.00,T,29.97,M,3.00,M,SCT,BKN,BKN,BKN,700.00,4500.00,7000.00,13000.00,-SN BR,M,M,M,M,M,M,29.83,KNFL 031544Z 29003KT 3SM -SN BR SCT007 BKN045 BKN070 BKN130 01/M01 A2997 RMK AO2 SNB18 VIS SE-S 1 WR// P0000 T00061006,M
INS,2024-01-03 15:45,-115.6733,36.5872,955.00,44.60,28.40,52.72,0.00,0.00,0.00,29.94,1012.90,10.00,M,FEW,OVC,M,M,1600.00,7000.00,M,M,M,M,M,M,M,M,M,44.60,KINS 031545Z AUTO 00000KT 10SM FEW016 OVC070 07/M02 A2994 RMK AO2 RAB06E33DZB33E45 SLP129 $,M
LOL,2024-01-03 15:45,-118.5701,40.0684,1192.43,32.00,32.00,100.00,0.00,0.00,0.00,29.95,M,0.50,M,OVC,M,M,M,200.00,M,M,M,FG,M,M,M,M,M,M,32.00,KLOL 031545Z AUTO 00000KT 1/2SM FG OVC002 00/00 A2995 RMK AO2 T00000000,M
05U,2024-01-03 15:45,-116.0051,39.6042,1811.23,32.00,26.60,80.22,300.00,4.00,0.00,29.91,M,2.50,M,M,M,M,M,M,M,M,M,HZ,M,M,M,M,M,M,27.42,K05U 031545Z AUTO 30004KT 2 1/2SM HZ M00/M03 A2991 RMK A01,M
LSV,2024-01-03 15:47,-115.0343,36.2362,570.00,51.80,30.20,43.32,320.00,4.00,0.00,29.95,1013.80,10.00,M,CLR,M,M,M,M,M,M,M,M,M,M,M,M,M,M,51.80,KLSV 031547Z AUTO 32004KT 10SM CLR 11/M01 A2995 RMK AO2 SLP138 $,M
P68,2024-01-03 15:53,-116.0056,39.6014,1993.00,30.00,26.00,84.85,140.00,4.00,0.00,29.88,1011.20,M,M,M,M,M,M,M,M,M,M,M,M,M,M,M,M,M,25.08,KP68 031553Z AUTO 14004KT M01/M03 A2988 RMK AO1 SLP112 T10111033,M
DRA,2024-01-03 15:53,-116.0278,36.6206,1009.00,43.00,37.00,79.19,210.00,8.00,0.03,29.93,1012.60,10.00,24.00,OVC,M,M,M,3400.00,M,M,M,-RA,M,M,M,29.00,190.00,2024-01-03 15:12,37.66,KDRA 031553Z AUTO 21008G24KT 10SM -RA OVC034 06/03 A2993 RMK AO2 PK WND 19029/1512 SLP126 P0003 T00610028,M
ELY,2024-01-03 15:53,-114.8453,39.2950,1909.00,31.00,19.00,60.67,210.00,8.00,0.00,29.90,1012.60,10.00,M,BKN,OVC,M,M,5500.00,7000.00,M,M,M,M,M,M,M,M,M,22.88,KELY 031553Z AUTO 21008KT 10SM BKN055 OVC070 M01/M07 A2990 RMK AO2 SLP126 T10061072,M
VGT,2024-01-03 15:53,-115.1933,36.2111,667.00,47.00,34.00,60.38,40.00,4.00,T,29.97,1016.50,10.00,M,SCT,BKN,OVC,M,5000.00,7500.00,9000.00,M,M,M,M,M,M,M,M,44.94,KVGT 031553Z 04004KT 10SM SCT050 BKN075 OVC090 08/01 A2997 RMK AO2 RAB17E53 SLP165 P0000 T00830011,M
LOL,2024-01-03 15:53,-118.5701,40.0684,1192.43,32.00,32.00,100.00,160.00,3.00,0.00,29.95,1016.60,0.25,M,OVC,M,M,M,400.00,M,M,M,FG,M,M,M,M,M,M,28.69,KLOL 031553Z AUTO 16003KT 1/4SM FG OVC004 00/00 A2995 RMK AO2 SLP166 T00000000,M
BVU,2024-01-03 15:55,-114.8611,35.9475,671.00,48.20,28.40,46.02,100.00,4.00,0.00,29.98,M,10.00,M,FEW,SCT,BKN,M,7000.00,7500.00,9000.00,M,M,M,M,M,M,M,M,46.34,KBVU 031555Z AUTO 10004KT 10SM FEW070 SCT075 BKN090 09/M02 A2998 RMK AO2,M
CXP,2024-01-03 15:55,-119.7326,39.1923,1431.00,35.60,23.00,59.79,0.00,0.00,0.00,29.99,M,10.00,M,FEW,BKN,OVC,M,3200.00,4100.00,4900.00,M,M,M,M,M,M,M,M,35.60,KCXP 031555Z AUTO 00000KT 10SM FEW032 BKN041 OVC049 02/M05 A2999 RMK AO2,M
INS,2024-01-03 15:55,-115.6733,36.5872,955.00,41.70,30.00,62.90,240.00,4.00,T,29.95,1013.50,10.00,M,BKN,OVC,M,M,6500.00,8000.00,M,M,M,M,M,M,M,M,M,38.75,KINS 031555Z AUTO 24004KT 10SM BKN065 OVC080 05/M01 A2995 RMK AO2 RAB06E33DZB33E45 SLP135 P0000 T00541011 $,M
RNO,2024-01-03 15:55,-119.7711,39.4839,1341.00,36.00,22.00,56.42,330.00,11.00,0.00,29.98,1014.90,10.00,M,SCT,SCT,BKN,M,4200.00,8000.00,19000.00,M,M,M,M,M,M,M,M,27.52,KRNO 031555Z 33011KT 10SM SCT042 SCT080 BKN190 02/M06 A2998 RMK AO2 SLP149 MTN TOPS OBSCD DSNT SW T00221056,M
LSV,2024-01-03 15:55,-115.0343,36.2362,570.00,50.70,30.20,45.12,0.00,0.00,0.00,29.95,1013.90,10.00,M,CLR,M,M,M,M,M,M,M,M,M,M,M,M,M,M,50.70,KLSV 031555Z AUTO 00000KT 10SM CLR 10/M01 A2995 RMK AO2 SLP139 T01041010 $,M
RTS,2024-01-03 15:55,-119.8764,39.6682,1539.00,30.20,23.00,74.26,320.00,4.00,0.00,29.99,M,10.00,M,SCT,BKN,M,M,4300.00,5000.00,M,M,M,M,M,M,M,M,M,25.32,KRTS 031555Z AUTO 32004KT 10SM SCT043 BKN050 M01/M05 A2999 RMK AO2,M
MEV,2024-01-03 15:55,-119.7500,38.9963,1441.42,26.60,23.00,86.07,90.00,6.00,0.00,29.98,M,10.00,M,FEW,SCT,BKN,M,2400.00,4900.00,5500.00,M,M,M,M,M,M,M,M,19.03,KMEV 031555Z AUTO 09006KT 10SM FEW024 SCT049 BKN055 M03/M05 A2998 RMK AO2,M
BAM,2024-01-03 15:55,-116.8743,40.5990,1382.36,32.00,30.20,92.97,0.00,0.00,0.00,29.92,M,0.75,M,OVC,M,M,M,700.00,M,M,M,M,M,M,M,M,M,M,32.00,KBAM 031555Z AUTO 00000KT 3/4SM OVC007 00/M01 A2992 RMK AO1,M
HTH,2024-01-03 15:55,-118.6315,38.5448,1282.89,32.00,26.60,80.22,0.00,0.00,0.00,29.96,M,10.00,M,CLR,M,M,M,M,M,M,M,M,M,M,M,M,M,M,32.00,KHTH 031555Z AUTO 00000KT 10SM CLR M00/M03 A2996 RMK A01,M
TMT,2024-01-03 15:55,-117.1971,39.4643,1749.34,29.30,28.00,94.82,0.00,0.00,0.00,29.92,M,3.00,M,SCT,BKN,OVC,M,600.00,1500.00,2000.00,M,-SN,M,M,M,M,M,M,29.30,KTMT 031555Z AUTO 00000KT 3SM -SN SCT006 BKN015 OVC020 M01/M02 A2992 RMK AO2 T10151023,M
EKO,2024-01-03 15:56,-115.7860,40.8242,1367.00,32.00,25.00,75.07,260.00,3.00,0.00,29.89,1013.60,8.00,M,BKN,BKN,OVC,M,3500.00,4500.00,5000.00,M,M,M,M,M,M,M,M,28.69,KEKO 031556Z AUTO 26003KT 8SM BKN035 BKN045 OVC050 00/M04 A2989 RMK AO2 SLP136 T00001039 PWINO FZRANO $,M
WMC,2024-01-03 15:56,-117.8072,40.9019,1315.00,32.00,30.00,92.22,0.00,0.00,0.06,29.91,1013.90,0.50,M,OVC,M,M,M,300.00,M,M,M,SN FG,M,M,M,M,M,M,32.00,KWMC 031556Z AUTO 00000KT 1/2SM SN FG OVC003 00/M01 A2991 RMK AO2 SLP139 P0006 T00001011,M
HND,2024-01-03 15:56,-115.1344,35.9729,742.79,50.00,26.00,38.97,M,3.00,0.00,29.99,1017.30,10.00,M,BKN,OVC,M,M,7500.00,11000.00,M,M,M,M,M,M,M,M,M,50.00,KHND 031556Z VRB03KT 10SM BKN075 OVC110 10/M03 A2999 RMK AO2 SLP173 T01001033,M
TPH,2024-01-03 15:56,-117.0904,38.0505,1654.00,31.00,29.00,92.19,0.00,0.00,T,29.91,1014.00,4.00,M,OVC,M,M,M,3800.00,M,M,M,-SN BR,M,M,M,M,M,M,31.00,KTPH 031556Z AUTO 00000KT 4SM -SN BR OVC038 M01/M02 A2991 RMK AO2 SNE1457B51 SLP140 P0000 T10061017,M
LAS,2024-01-03 15:56,-115.1634,36.0719,663.00,48.00,30.00,49.49,0.00,0.00,T,29.97,1014.40,10.00,M,SCT,OVC,M,M,5500.00,8000.00,M,M,M,M,M,M,M,M,M,48.00,KLAS 031556Z 00000KT 10SM SCT055 OVC080 09/M01 A2997 RMK AO2 RAB21E31 SLP144 VCSH NE P0000 T00891011,M
NFL,2024-01-03 15:56,-118.7010,39.4166,1199.00,33.00,31.00,92.25,350.00,3.00,T,29.96,1011.80,5.00,M,SCT,BKN,BKN,BKN,700.00,4500.00,7000.00,13000.00,BR,M,M,M,M,M,M,29.83,KNFL 031556Z 35003KT 5SM BR SCT007 BKN045 BKN070 BKN130 01/M01 A2996 RMK SNB18E46 SLP118 VIS SE-S 1 WR// P0000 T00061006,M
10U,2024-01-03 16:00,-116.1876,41.9532,1637.00,30.20,24.80,80.07,0.00,0.00,0.00,29.89,M,10.00,M,BKN,OVC,M,M,5500.00,6500.00,M,M,M,M,M,M,M,M,M,30.20,K10U 031600Z AUTO 00000KT 10SM BKN055 OVC065 M01/M04 A2989 RMK AO2,M
INS,2024-01-03 16:01,-115.6733,36.5872,955.00,42.80,30.20,60.79,260.00,7.00,0.00,29.96,1013.80,10.00,M,BKN,M,M,M,6500.00,M,M,M,-RA,M,M,M,M,M,M,37.94,KINS 031601Z AUTO 26007KT 10SM -RA BKN065 06/M01 A2996 RMK AO2 RAB01 SLP138 $,M
LOL,2024-01-03 16:01,-118.5701,40.0684,1192.43,32.00,32.00,100.00,170.00,6.00,0.00,29.95,M,1.00,M,OVC,M,M,M,400.00,M,M,M,BR,M,M,M,M,M,M,25.53,KLOL 031601Z AUTO 17006KT 1SM BR OVC004 00/00 A2995 RMK AO2 T00000000,M
LSV,2024-01-03 16:03,-115.0343,36.2362,570.00,51.80,28.40,40.25,360.00,3.00,0.00,29.95,1013.90,10.00,M,OVC,M,M,M,7000.00,M,M,M,-RA,M,M,M,M,M,M,51.80,KLSV 031603Z 36003KT 10SM -RA OVC070 11/M02 A2995 RMK A02A SLP139 $,M
EKO,2024-01-03 16:04,-115.7860,40.8242,1367.00,32.00,26.00,78.25,230.00,4.00,0.00,29.90,M,2.50,M,BKN,OVC,M,M,2900.00,4500.00,M,M,HZ,M,M,M,M,M,M,27.42,KEKO 031604Z AUTO 23004KT 2 1/2SM HZ BKN029 OVC045 00/M03 A2990 RMK AO2 T00001033 PWINO FZRANO $,M
LOL,2024-01-03 16:04,-118.5701,40.0684,1192.43,32.00,32.00,100.00,180.00,6.00,0.00,29.95,M,4.00,M,OVC,M,M,M,400.00,M,M,M,BR,M,M,M,M,M,M,25.53,KLOL 031604Z AUTO 18006KT 4SM BR OVC004 00/00 A2995 RMK AO2 T00000000,M
05U,2024-01-03 16:05,-116.0051,39.6042,1811.23,30.20,26.60,86.28,320.00,3.00,0.00,29.91,M,1.00,M,M,M,M,M,M,M,M,M,BR,M,M,M,M,M,M,26.63,K05U 031605Z AUTO 32003KT 1SM BR M01/M03 A2991 RMK A01,M
WMC,2024-01-03 16:12,-117.8072,40.9019,1315.00,33.00,31.00,92.25,0.00,0.00,0.02,29.92,M,0.50,M,OVC,M,M,M,400.00,M,M,M,SN FG,M,M,M,M,M,M,33.00,KWMC 031612Z AUTO 00000KT 1/2SM SN FG OVC004 01/M01 A2992 RMK AO2 P0002 T00061006,M
EKO,2024-01-03 16:13,-115.7860,40.8242,1367.00,32.00,28.00,84.98,240.00,5.00,0.00,29.89,M,1.50,M,OVC,M,M,M,2500.00,M,M,M,BR,M,M,M,M,M,M,26.40,KEKO 031613Z AUTO 24005KT 1 1/2SM BR OVC025 00/M02 A2989 RMK AO2 T00001022 PWINO FZRANO $,M
BVU,2024-01-03 16:15,-114.8611,35.9475,671.00,50.00,28.40,43.03,140.00,12.00,0.00,29.98,M,10.00,M,SCT,SCT,BKN,M,7000.00,8000.00,9000.00,M,M,M,M,M,M,M,M,50.00,KBVU 031615Z AUTO 14012KT 10SM SCT070 SCT080 BKN090 10/M02 A2998 RMK AO2,M
CXP,2024-01-03 16:15,-119.7326,39.1923,1431.00,35.60,24.80,64.46,0.00,0.00,0.00,30.00,M,10.00,M,FEW,SCT,BKN,M,3000.00,4000.00,4600.00,M,M,M,M,M,M,M,M,35.60,KCXP 031615Z AUTO 00000KT 10SM FEW030 SCT040 BKN046 02/M04 A3000 RMK AO2,M
RTS,2024-01-03 16:15,-119.8764,39.6682,1539.00,32.00,24.80,74.44,320.00,5.00,0.00,29.99,M,10.00,M,BKN,BKN,M,M,5000.00,9000.00,M,M,M,M,M,M,M,M,M,26.40,KRTS 031615Z AUTO 32005KT 10SM BKN050 BKN090 M00/M04 A2999 RMK AO2,M
MEV,2024-01-03 16:15,-119.7500,38.9963,1441.42,33.80,23.00,64.23,320.00,3.00,0.00,29.98,M,10.00,M,FEW,BKN,OVC,M,2700.00,4600.00,5000.00,M,M,M,M,M,M,M,M,30.75,KMEV 031615Z AUTO 32003KT 10SM FEW027 BKN046 OVC050 01/M05 A2998 RMK AO2,M
HTH,2024-01-03 16:15,-118.6315,38.5448,1282.89,32.00,26.60,80.22,180.00,4.00,0.00,29.96,M,10.00,M,FEW,M,M,M,12000.00,M,M,M,M,M,M,M,M,M,M,27.42,KHTH 031615Z AUTO 18004KT 10SM FEW120 M00/M03 A2996 RMK A01,M
BAM,2024-01-03 16:15,-116.8743,40.5990,1382.36,32.00,32.00,100.00,140.00,3.00,0.00,29.92,M,0.75,M,OVC,M,M,M,500.00,M,M,M,M,M,M,M,M,M,M,28.69,KBAM 031615Z AUTO 14003KT 3/4SM OVC005 00/00 A2992 RMK AO1,M
TMT,2024-01-03 16:15,-117.1971,39.4643,1749.34,29.30,27.70,93.66,0.00,0.00,0.00,29.92,M,10.00,M,SCT,BKN,OVC,M,1600.00,2200.00,3800.00,M,-SN,M,M,M,M,M,M,29.30,KTMT 031615Z AUTO 00000KT 10SM -SN SCT016 BKN022 OVC038 M01/M02 A2992 RMK AO2 T10151024,M
10U,2024-01-03 16:20,-116.1876,41.9532,1637.00,32.00,24.80,74.44,270.00,5.00,0.00,29.88,M,10.00,M,BKN,BKN,M,M,5000.00,6000.00,M,M,M,M,M,M,M,M,M,26.40,K10U 031620Z AUTO 27005KT 10SM BKN050 BKN060 M00/M04 A2988 RMK AO2,M
INS,2024-01-03 16:21,-115.6733,36.5872,955.00,41.00,32.00,70.08,320.00,6.00,0.00,29.97,1014.40,9.00,M,SCT,SCT,BKN,BKN,400.00,1100.00,1900.00,4900.00,-RA,M,M,M,M,M,M,36.37,KINS 031621Z AUTO 32006KT 9SM -RA SCT004 SCT011 BKN019 BKN049 OVC060 05/M00 A2997 RMK AO2 RAB01 CIG 019V050 BKN019 V SCT SLP144 $,M
ELY,2024-01-03 16:23,-114.8453,39.2950,1909.00,30.00,24.00,78.07,180.00,12.00,T,29.90,M,2.00,20.00,BKN,BKN,OVC,M,3300.00,4300.00,5500.00,M,-SN,M,M,M,M,M,M,19.46,KELY 031623Z AUTO 18012G20KT 2SM -SN BKN033 BKN043 OVC055 M01/M04 A2990 RMK AO2 SNB05 P0000 T10111044,M
WMC,2024-01-03 16:25,-117.8072,40.9019,1315.00,33.00,31.00,92.25,0.00,0.00,0.03,29.92,M,0.50,M,BKN,OVC,M,M,500.00,900.00,M,M,SN FG,M,M,M,M,M,M,33.00,KWMC 031625Z AUTO 00000KT 1/2SM SN FG BKN005 OVC009 01/M01 A2992 RMK AO2 P0003 T00061006,M
INS,2024-01-03 16:26,-115.6733,36.5872,955.00,41.00,32.00,70.08,300.00,5.00,0.00,29.97,1014.40,10.00,M,FEW,SCT,BKN,BKN,400.00,900.00,1600.00,2100.00,-RA,M,M,M,M,M,M,37.08,KINS 031626Z AUTO 30005KT 10SM -RA FEW004 SCT009 BKN016 BKN021 OVC049 05/M00 A2997 RMK AO2 RAB01 CIG 014V050 BKN016 V SCT SLP144 $,M
ELY,2024-01-03 16:26,-114.8453,39.2950,1909.00,29.00,24.00,81.32,180.00,13.00,T,29.90,M,1.75,20.00,BKN,BKN,OVC,M,2900.00,4300.00,5000.00,M,-SN,M,M,M,M,M,M,17.73,KELY 031626Z AUTO 18013G20KT 1 3/4SM -SN BKN029 BKN043 OVC050 M02/M04 A2990 RMK AO2 SNB05 P0000 T10171044,M
CXP,2024-01-03 16:30,-119.7326,39.1923,1431.00,35.60,21.20,55.41,0.00,0.00,0.00,30.00,M,10.00,M,FEW,FEW,OVC,M,2700.00,3700.00,6000.00,M,M,M,M,M,M,M,M,35.60,KCXP 031630Z AUTO 00000KT 10SM FEW027 FEW037 OVC060 02/M06 A3000 RMK AO2,M
05U,2024-01-03 16:30,-116.0051,39.6042,1811.23,30.20,28.40,92.92,0.00,0.00,0.00,29.91,M,0.75,M,M,M,M,M,M,M,M,M,BR,M,M,M,M,M,M,30.20,K05U 031630Z AUTO 00000KT 3/4SM BR M01/M02 A2991 RMK A01,M
INS,2024-01-03 16:31,-115.6733,36.5872,955.00,39.20,32.00,75.16,330.00,8.00,0.00,29.97,1014.40,10.00,M,SCT,BKN,BKN,M,500.00,1200.00,1900.00,M,-RA,M,M,M,M,M,M,32.98,KINS 031631Z AUTO 33008KT 10SM -RA SCT005 BKN012 BKN019 04/00 A2997 RMK AO2 RAB01 CIG 012V019 SLP144 $,M
BVU,2024-01-03 16:35,-114.8611,35.9475,671.00,48.20,28.40,46.02,140.00,5.00,0.00,29.99,M,10.00,12.00,SCT,SCT,M,M,7000.00,8000.00,M,M,M,M,M,M,M,M,M,45.63,KBVU 031635Z AUTO 14005G12KT 10SM SCT070 SCT080 09/M02 A2999 RMK AO2,M
RTS,2024-01-03 16:35,-119.8764,39.6682,1539.00,33.80,23.00,64.23,290.00,10.00,0.00,29.99,M,10.00,M,SCT,SCT,M,M,9000.00,11000.00,M,M,M,M,M,M,M,M,M,25.23,KRTS 031635Z AUTO 29010KT 10SM SCT090 SCT110 01/M05 A2999 RMK AO2,M
MEV,2024-01-03 16:35,-119.7500,38.9963,1441.42,35.60,23.00,59.79,340.00,8.00,0.00,29.99,M,10.00,M,FEW,SCT,OVC,M,3000.00,3600.00,4800.00,M,M,M,M,M,M,M,M,28.55,KMEV 031635Z AUTO 34008KT 10SM FEW030 SCT036 OVC048 02/M05 A2999 RMK AO2,M
HTH,2024-01-03 16:35,-118.6315,38.5448,1282.89,30.20,26.60,86.28,130.00,3.00,0.00,29.97,M,10.00,M,FEW,M,M,M,12000.00,M,M,M,M,M,M,M,M,M,M,26.63,KHTH 031635Z AUTO 13003KT 10SM FEW120 M01/M03 A2997 RMK A01,M
BAM,2024-01-03 16:35,-116.8743,40.5990,1382.36,32.00,32.00,100.00,0.00,0.00,0.00,29.92,M,0.50,M,OVC,M,M,M,500.00,M,M,M,M,M,M,M,M,M,M,32.00,KBAM 031635Z AUTO 00000KT 1/2SM OVC005 00/00 A2992 RMK AO1,M
TMT,2024-01-03 16:35,-117.1971,39.4643,1749.34,30.00,28.20,92.91,230.00,3.00,0.00,29.93,M,2.50,M,SCT,BKN,OVC,M,2300.00,3000.00,3800.00,M,-SN,M,M,M,M,M,M,26.40,KTMT 031635Z AUTO 23003KT 2 1/2SM -SN SCT023 BKN030 OVC038 M01/M02 A2993 RMK AO2 T10121021,M
INS,2024-01-03 16:36,-115.6733,36.5872,955.00,39.20,33.80,80.79,360.00,7.00,0.00,29.97,1014.40,10.00,M,SCT,SCT,BKN,BKN,500.00,1000.00,1500.00,2300.00,-RA,M,M,M,M,M,M,33.56,KINS 031636Z AUTO 36007KT 10SM -RA SCT005 SCT010 BKN015 BKN023 04/01 A2997 RMK AO2 RAB01 CIG 010V016 SLP144 $,M
10U,2024-01-03 16:40,-116.1876,41.9532,1637.00,32.00,24.80,74.44,0.00,0.00,0.00,29.88,M,10.00,M,FEW,BKN,BKN,M,4400.00,5000.00,5500.00,M,M,M,M,M,M,M,M,32.00,K10U 031640Z AUTO 00000KT 10SM FEW044 BKN050 BKN055 00/M04 A2988 RMK AO2,M
EKO,2024-01-03 16:46,-115.7860,40.8242,1367.00,32.00,29.00,88.53,0.00,0.00,0.00,29.90,M,0.75,M,VV ,M,M,M,1600.00,M,M,M,BR,M,M,M,M,M,M,32.00,KEKO 031646Z AUTO 00000KT 3/4SM BR VV016 00/M02 A2990 RMK AO2 T00001017 PWINO FZRANO $,M
INS,2024-01-03 16:51,-115.6733,36.5872,955.00,41.00,33.80,75.33,90.00,3.00,0.00,29.97,1014.40,10.00,M,FEW,FEW,SCT,BKN,500.00,800.00,2400.00,3100.00,-RA,M,M,M,M,M,M,38.98,KINS 031651Z AUTO 09003KT 10SM -RA FEW005 FEW008 SCT024 BKN031 OVC049 05/01 A2997 RMK AO2 RAB01 SLP144 $,M
P68,2024-01-03 16:53,-116.0056,39.6014,1993.00,30.00,29.00,96.00,0.00,0.00,0.01,29.88,1011.60,M,M,M,M,M,M,M,M,M,M,M,M,M,M,M,M,M,30.00,KP68 031653Z AUTO 00000KT M01/M02 A2988 RMK AO1 SLP116 P0001 T10111017,M
DRA,2024-01-03 16:53,-116.0278,36.6206,1009.00,45.00,36.00,70.53,130.00,8.00,T,29.90,1011.50,10.00,18.00,SCT,BKN,OVC,M,7000.00,9000.00,11000.00,M,M,M,M,M,M,M,M,40.13,KDRA 031653Z AUTO 13008G18KT 10SM SCT070 BKN090 OVC110 07/02 A2990 RMK AO2 RAE20 SLP115 P0000 T00720022,M
ELY,2024-01-03 16:53,-114.8453,39.2950,1909.00,29.00,25.00,84.79,190.00,11.00,0.01,29.91,1013.80,1.50,19.00,BKN,OVC,M,M,2700.00,3700.00,M,M,-SN BR,M,M,M,M,M,M,18.68,KELY 031653Z AUTO 19011G19KT 1 1/2SM -SN BR BKN027 OVC037 M02/M04 A2991 RMK AO2 SNB05 SLP138 P0001 T10171039,M
VGT,2024-01-03 16:53,-115.1933,36.2111,667.00,48.00,36.00,62.97,70.00,5.00,0.00,29.98,1017.20,10.00,M,FEW,BKN,OVC,M,5500.00,7000.00,8500.00,M,M,M,M,M,M,M,M,45.40,KVGT 031653Z 07005KT 10SM FEW055 BKN070 OVC085 09/02 A2998 RMK AO2 SLP172 T00890022,M
WMC,2024-01-03 16:53,-117.8072,40.9019,1315.00,33.80,32.00,93.03,190.00,3.00,0.07,29.92,M,0.50,M,SCT,OVC,M,M,500.00,1000.00,M,M,SN FG,M,M,M,M,M,M,30.75,KWMC 031653Z AUTO 19003KT 1/2SM SN FG SCT005 OVC010 01/00 A2992 RMK AO2 P0007,M
LOL,2024-01-03 16:53,-118.5701,40.0684,1192.43,32.00,32.00,100.00,200.00,9.00,0.00,29.96,1016.60,10.00,M,FEW,SCT,OVC,M,400.00,3900.00,7000.00,M,M,M,M,M,M,M,M,23.51,KLOL 031653Z AUTO 20009KT 10SM FEW004 SCT039 OVC070 00/00 A2996 RMK AO2 SLP166 T00000000,M
EKO,2024-01-03 16:54,-115.7860,40.8242,1367.00,32.00,30.20,92.97,0.00,0.00,0.00,29.90,M,1.00,M,VV ,M,M,M,1600.00,M,M,M,BR,M,M,M,M,M,M,32.00,KEKO 031654Z AUTO 00000KT 1SM BR VV016 00/M01 A2990 RMK AO2 PWINO FZRANO $,M
BVU,2024-01-03 16:55,-114.8611,35.9475,671.00,50.00,28.40,43.03,0.00,0.00,0.00,29.99,M,10.00,M,FEW,FEW,FEW,M,7000.00,8500.00,12000.00,M,M,M,M,M,M,M,M,50.00,KBVU 031655Z AUTO 00000KT 10SM FEW070 FEW085 FEW120 10/M02 A2999 RMK AO2,M
CXP,2024-01-03 16:55,-119.7326,39.1923,1431.00,37.40,23.00,55.68,190.00,7.00,0.00,30.01,M,10.00,M,FEW,SCT,OVC,M,3200.00,4400.00,5500.00,M,M,M,M,M,M,M,M,31.36,KCXP 031655Z AUTO 19007KT 10SM FEW032 SCT044 OVC055 03/M05 A3001 RMK AO2,M
INS,2024-01-03 16:55,-115.6733,36.5872,955.00,40.60,34.00,77.12,0.00,0.00,0.01,29.97,1014.40,10.00,M,FEW,SCT,BKN,BKN,500.00,2400.00,3100.00,4900.00,-RA,M,M,M,M,M,M,40.60,KINS 031655Z AUTO 00000KT 10SM -RA FEW005 SCT024 BKN031 BKN049 05/01 A2997 RMK AO2 RAB01 SLP144 P0001 T00480011 $,M
RNO,2024-01-03 16:55,-119.7711,39.4839,1341.00,39.00,23.00,52.30,310.00,11.00,0.00,30.00,1015.20,10.00,M,BKN,BKN,M,M,6000.00,12000.00,M,M,M,M,M,M,M,M,M,31.31,KRNO 031655Z 31011KT 10SM BKN060 BKN120 04/M05 A3000 RMK AO2 SLP152 T00391050,M
RTS,2024-01-03 16:55,-119.8764,39.6682,1539.00,33.80,21.20,59.53,290.00,11.00,0.00,30.00,M,10.00,M,SCT,SCT,BKN,M,5500.00,6500.00,10000.00,M,M,M,M,M,M,M,M,24.74,KRTS 031655Z AUTO 29011KT 10SM SCT055 SCT065 BKN100 01/M06 A3000 RMK AO2,M
MEV,2024-01-03 16:55,-119.7500,38.9963,1441.42,35.60,23.00,59.79,340.00,4.00,0.00,30.00,M,10.00,M,FEW,BKN,OVC,M,3800.00,4800.00,5500.00,M,M,M,M,M,M,M,M,31.62,KMEV 031655Z AUTO 34004KT 10SM FEW038 BKN048 OVC055 02/M05 A3000 RMK AO2,M
BAM,2024-01-03 16:55,-116.8743,40.5990,1382.36,32.00,32.00,100.00,160.00,3.00,0.00,29.92,M,1.00,M,OVC,M,M,M,500.00,M,M,M,M,M,M,M,M,M,M,28.69,KBAM 031655Z AUTO 16003KT 1SM OVC005 00/00 A2992 RMK AO1,M
HTH,2024-01-03 16:55,-118.6315,38.5448,1282.89,35.60,30.20,80.51,140.00,4.00,0.00,29.97,M,10.00,M,CLR,M,M,M,M,M,M,M,M,M,M,M,M,M,M,31.62,KHTH 031655Z AUTO 14004KT 10SM CLR 02/M01 A2997 RMK A01,M
TMT,2024-01-03 16:55,-117.1971,39.4643,1749.34,30.00,28.40,93.68,210.00,6.00,0.01,29.93,M,1.25,M,OVC,M,M,M,1700.00,M,M,M,-SN,M,M,M,M,M,M,23.12,KTMT 031655Z AUTO 21006KT 1 1/4SM -SN OVC017 M01/M02 A2993 RMK AO2 P0001 T10111020,M
LSV,2024-01-03 16:55,-115.0343,36.2362,570.00,49.50,35.80,59.06,10.00,6.00,0.00,29.97,1014.80,10.00,M,CLR,M,M,M,M,M,M,M,M,M,M,M,M,M,M,46.61,KLSV 031655Z AUTO 01006KT 10SM CLR 10/02 A2997 RMK AO2 SLP148 T00970021 $,M
EKO,2024-01-03 16:56,-115.7860,40.8242,1367.00,32.00,30.00,92.22,0.00,0.00,0.00,29.90,1014.00,1.00,M,VV ,M,M,M,1600.00,M,M,M,BR,M,M,M,M,M,M,32.00,KEKO 031656Z AUTO 00000KT 1SM BR VV016 00/M01 A2990 RMK AO2 SLP140 T00001011 PWINO FZRANO $,M
WMC,2024-01-03 16:56,-117.8072,40.9019,1315.00,33.00,32.00,96.06,200.00,3.00,0.07,29.92,1014.10,0.50,M,SCT,OVC,M,M,500.00,1000.00,M,M,SN FG,M,M,M,M,M,M,29.83,KWMC 031656Z AUTO 20003KT 1/2SM SN FG SCT005 OVC010 01/00 A2992 RMK AO2 SLP141 P0007 T00060000,M
NFL,2024-01-03 16:56,-118.7010,39.4166,1199.00,34.00,31.00,88.63,40.00,3.00,0.00,29.98,1012.40,5.00,M,SCT,SCT,BKN,BKN,1000.00,5000.00,7000.00,13000.00,BR,M,M,M,M,M,M,30.97,KNFL 031656Z 04003KT 5SM BR SCT010 SCT050 BKN070 BKN130 01/M01 A2998 RMK AO2 SLP124 WR// T00111006,M
HND,2024-01-03 16:56,-115.1344,35.9729,742.79,50.00,34.00,53.97,230.00,14.00,0.00,30.01,1017.90,10.00,18.00,FEW,OVC,M,M,6500.00,9000.00,M,M,M,M,M,M,M,M,M,50.00,KHND 031656Z 23014G18KT 10SM FEW065 OVC090 10/01 A3001 RMK AO2 SLP179 T01000011,M
TPH,2024-01-03 16:56,-117.0904,38.0505,1654.00,31.00,29.00,92.19,0.00,0.00,T,29.93,1014.90,10.00,M,BKN,M,M,M,9500.00,M,M,M,M,M,M,M,M,M,M,31.00,KTPH 031656Z AUTO 00000KT 10SM BKN095 M01/M02 A2993 RMK AO2 SNE13 SLP149 P0000 T10061017,M
LAS,2024-01-03 16:56,-115.1634,36.0719,663.00,51.00,35.00,54.12,210.00,9.00,T,29.98,1014.90,10.00,16.00,SCT,BKN,OVC,M,5500.00,7500.00,10000.00,M,-RA,M,M,M,M,M,M,51.00,KLAS 031656Z 21009G16KT 10SM -RA SCT055 BKN075 OVC100 11/02 A2998 RMK AO2 RAB52 SLP149 P0000 T01060017,M
LSV,2024-01-03 16:56,-115.0343,36.2362,570.00,49.50,35.80,59.06,10.00,6.00,0.00,29.96,1014.40,10.00,M,OVC,M,M,M,7000.00,M,M,M,M,M,M,M,M,M,M,46.61,KLSV 031656Z 01006KT 10SM OVC070 10/02 A2996 RMK A02A SLP144 T00970021 $,M
10U,2024-01-03 17:00,-116.1876,41.9532,1637.00,33.80,24.80,69.25,210.00,3.00,0.00,29.89,M,10.00,M,FEW,BKN,OVC,M,4000.00,4700.00,5500.00,M,M,M,M,M,M,M,M,30.75,K10U 031700Z AUTO 21003KT 10SM FEW040 BKN047 OVC055 01/M04 A2989 RMK AO2,M
05U,2024-01-03 17:05,-116.0051,39.6042,1811.23,32.00,28.40,86.39,0.00,0.00,0.00,29.91,M,0.75,M,M,M,M,M,M,M,M,M,BR,M,M,M,M,M,M,32.00,K05U 031705Z AUTO 00000KT 3/4SM BR M00/M02 A2991 RMK A01,M
EKO,2024-01-03 17:12,-115.7860,40.8242,1367.00,32.00,30.00,92.22,0.00,0.00,0.00,29.90,M,2.50,M,BKN,OVC,M,M,2100.00,4700.00,M,M,BR,M,M,M,M,M,M,32.00,KEKO 031712Z AUTO 00000KT 2 1/2SM BR BKN021 OVC047 00/M01 A2990 RMK AO2 T00001011 PWINO FZRANO $,M
BVU,2024-01-03 17:15,-114.8611,35.9475,671.00,50.00,28.40,43.03,0.00,0.00,0.00,30.00,M,10.00,M,CLR,M,M,M,M,M,M,M,M,M,M,M,M,M,M,50.00,KBVU 031715Z AUTO 00000KT 10SM CLR 10/M02 A3000 RMK AO2,M
CXP,2024-01-03 17:15,-119.7326,39.1923,1431.00,37.40,23.00,55.68,190.00,8.00,0.00,30.01,M,10.00,M,FEW,BKN,OVC,M,3100.00,4200.00,5000.00,M,M,M,M,M,M,M,M,30.76,KCXP 031715Z AUTO 19008KT 10SM FEW031 BKN042 OVC050 03/M05 A3001 RMK AO2,M
RTS,2024-01-03 17:15,-119.8764,39.6682,1539.00,33.80,23.00,64.23,290.00,13.00,0.00,30.00,M,10.00,M,FEW,BKN,BKN,M,5500.00,6500.00,10000.00,M,M,M,M,M,M,M,M,23.87,KRTS 031715Z AUTO 29013KT 10SM FEW055 BKN065 BKN100 01/M05 A3000 RMK AO2,M
MEV,2024-01-03 17:15,-119.7500,38.9963,1441.42,35.60,23.00,59.79,10.00,4.00,0.00,30.00,M,10.00,M,FEW,BKN,OVC,M,4300.00,4800.00,5500.00,M,M,M,M,M,M,M,M,31.62,KMEV 031715Z AUTO 01004KT 10SM FEW043 BKN048 OVC055 02/M05 A3000 RMK AO2,M
HTH,2024-01-03 17:15,-118.6315,38.5448,1282.89,37.40,30.20,74.98,0.00,0.00,0.00,29.98,M,10.00,M,CLR,M,M,M,M,M,M,M,M,M,M,M,M,M,M,37.40,KHTH 031715Z AUTO 00000KT 10SM CLR 03/M01 A2998 RMK A01,M
BAM,2024-01-03 17:15,-116.8743,40.5990,1382.36,32.00,32.00,100.00,0.00,0.00,0.00,29.92,M,1.00,M,OVC,M,M,M,500.00,M,M,M,M,M,M,M,M,M,M,32.00,KBAM 031715Z AUTO 00000KT 1SM OVC005 00/00 A2992 RMK AO1,M
TMT,2024-01-03 17:15,-117.1971,39.4643,1749.34,30.20,29.00,95.23,220.00,6.00,0.00,29.93,M,1.50,M,OVC,M,M,M,1900.00,M,M,M,-SN,M,M,M,M,M,M,23.36,KTMT 031715Z AUTO 22006KT 1 1/2SM -SN OVC019 M01/M02 A2993 RMK AO2 T10101017,M
10U,2024-01-03 17:20,-116.1876,41.9532,1637.00,33.80,24.80,69.25,180.00,5.00,0.00,29.90,M,10.00,M,BKN,BKN,M,M,4700.00,5500.00,M,M,M,M,M,M,M,M,M,28.53,K10U 031720Z AUTO 18005KT 10SM BKN047 BKN055 01/M04 A2990 RMK AO2,M
EKO,2024-01-03 17:20,-115.7860,40.8242,1367.00,32.00,29.00,88.53,0.00,0.00,0.00,29.89,M,2.50,M,FEW,OVC,M,M,2500.00,4500.00,M,M,BR,M,M,M,M,M,M,32.00,KEKO 031720Z AUTO 00000KT 2 1/2SM BR FEW025 OVC045 00/M02 A2989 RMK AO2 T00001017 PWINO FZRANO $,M
INS,2024-01-03 17:24,-115.6733,36.5872,955.00,42.80,33.80,70.28,80.00,16.00,0.00,29.91,1012.50,10.00,M,SCT,BKN,BKN,OVC,3400.00,4600.00,6500.00,9000.00,M,M,M,M,M,M,M,34.50,KINS 031724Z AUTO 08016KT 10SM SCT034 BKN046 BKN065 OVC090 06/01 A2991 RMK AO2 RAE24 PRESFR SLP125 $,M
LSV,2024-01-03 17:25,-115.0343,36.2362,570.00,50.00,33.80,53.54,0.00,0.00,0.00,29.98,1015.10,10.00,M,CLR,M,M,M,M,M,M,M,-RA,M,M,M,M,M,M,50.00,KLSV 031725Z AUTO 00000KT 10SM -RA CLR 10/01 A2998 RMK AO2 RAB25 SLP151 $,M
EKO,2024-01-03 17:27,-115.7860,40.8242,1367.00,32.00,30.00,92.22,0.00,0.00,0.00,29.90,M,3.00,M,FEW,OVC,M,M,3600.00,4500.00,M,M,BR,M,M,M,M,M,M,32.00,KEKO 031727Z AUTO 00000KT 3SM BR FEW036 OVC045 00/M01 A2990 RMK AO2 T00001011 PWINO FZRANO $,M
05U,2024-01-03 17:30,-116.0051,39.6042,1811.23,32.00,30.20,92.97,0.00,0.00,0.00,29.91,M,0.50,M,M,M,M,M,M,M,M,M,FZFG,M,M,M,M,M,M,32.00,K05U 031730Z AUTO 00000KT 1/2SM FZFG M00/M01 A2991 RMK A01,M
ELY,2024-01-03 17:32,-114.8453,39.2950,1909.00,29.00,26.00,88.38,200.00,11.00,T,29.90,M,1.25,M,SCT,OVC,M,M,2800.00,3700.00,M,M,-SN BR,M,M,M,M,M,M,18.68,KELY 031732Z AUTO 20011KT 1 1/4SM -SN BR SCT028 OVC037 M02/M03 A2990 RMK AO2 P0000 T10171033,M
BVU,2024-01-03 17:35,-114.8611,35.9475,671.00,50.00,28.40,43.03,270.00,4.00,0.00,30.01,M,10.00,M,FEW,BKN,BKN,M,4800.00,5500.00,7000.00,M,M,M,M,M,M,M,M,50.00,KBVU 031735Z AUTO 27004KT 10SM FEW048 BKN055 BKN070 10/M02 A3001 RMK AO2,M
CXP,2024-01-03 17:35,-119.7326,39.1923,1431.00,37.40,24.80,60.04,M,4.00,0.00,30.02,M,10.00,M,SCT,BKN,BKN,M,4200.00,4700.00,10000.00,M,M,M,M,M,M,M,M,33.73,KCXP 031735Z AUTO VRB04KT 10SM SCT042 BKN047 BKN100 03/M04 A3002 RMK AO2,M
RTS,2024-01-03 17:35,-119.8764,39.6682,1539.00,33.80,23.00,64.23,290.00,13.00,0.00,30.01,M,10.00,M,BKN,BKN,M,M,7000.00,10000.00,M,M,M,M,M,M,M,M,M,23.87,KRTS 031735Z AUTO 29013KT 10SM BKN070 BKN100 01/M05 A3001 RMK AO2,M
MEV,2024-01-03 17:35,-119.7500,38.9963,1441.42,39.20,23.00,51.89,0.00,0.00,0.00,30.00,M,10.00,M,SCT,BKN,M,M,4800.00,5500.00,M,M,M,M,M,M,M,M,M,39.20,KMEV 031735Z AUTO 00000KT 10SM SCT048 BKN055 04/M05 A3000 RMK AO2,M
BAM,2024-01-03 17:35,-116.8743,40.5990,1382.36,32.00,32.00,100.00,0.00,0.00,0.00,29.93,M,1.50,M,BKN,BKN,OVC,M,500.00,800.00,1900.00,M,M,M,M,M,M,M,M,32.00,KBAM 031735Z AUTO 00000KT 1 1/2SM BKN005 BKN008 OVC019 00/00 A2993 RMK AO1 VIS 1V3,M
HTH,2024-01-03 17:35,-118.6315,38.5448,1282.89,39.20,30.20,69.88,0.00,0.00,0.00,29.99,M,10.00,M,SCT,SCT,M,M,9500.00,11000.00,M,M,M,M,M,M,M,M,M,39.20,KHTH 031735Z AUTO 00000KT 10SM SCT095 SCT110 04/M01 A2999 RMK A01,M
TMT,2024-01-03 17:35,-117.1971,39.4643,1749.34,30.20,29.30,96.40,210.00,8.00,0.00,29.93,M,1.00,M,OVC,M,M,M,1700.00,M,M,M,-SN,M,M,M,M,M,M,21.90,KTMT 031735Z AUTO 21008KT 1SM -SN OVC017 M01/M01 A2993 RMK AO2 T10101015,M
LSV,2024-01-03 17:38,-115.0343,36.2362,570.00,50.00,33.80,53.54,0.00,0.00,0.00,29.98,1015.10,9.00,M,BKN,M,M,M,7000.00,M,M,M,M,M,M,M,M,M,M,50.00,KLSV 031738Z 00000KT 9SM BKN070 10/01 A2998 RMK AO2A RAB25E38 SLP151 $,M
10U,2024-01-03 17:40,-116.1876,41.9532,1637.00,33.80,24.80,69.25,220.00,9.00,0.00,29.90,M,10.00,M,SCT,BKN,BKN,M,4300.00,5000.00,6000.00,M,M,M,M,M,M,M,M,25.75,K10U 031740Z AUTO 22009KT 10SM SCT043 BKN050 BKN060 01/M04 A2990 RMK AO2,M
ELY,2024-01-03 17:41,-114.8453,39.2950,1909.00,29.00,26.00,88.38,200.00,10.00,0.01,29.90,M,1.25,M,BKN,OVC,M,M,2800.00,3500.00,M,M,-SN BR,M,M,M,M,M,M,19.21,KELY 031741Z AUTO 20010KT 1 1/4SM -SN BR BKN028 OVC035 M02/M03 A2990 RMK AO2 P0001 T10171033,M
WMC,2024-01-03 17:42,-117.8072,40.9019,1315.00,33.00,32.00,96.06,0.00,0.00,0.03,29.94,M,0.75,M,BKN,OVC,M,M,300.00,1300.00,M,M,-SN BR,M,M,M,M,M,M,33.00,KWMC 031742Z AUTO 00000KT 3/4SM -SN BR BKN003 OVC013 01/00 A2994 RMK AO2 P0003 T00060000,M
EKO,2024-01-03 17:43,-115.7860,40.8242,1367.00,33.00,30.00,88.58,0.00,0.00,0.00,29.90,M,2.00,M,BKN,OVC,M,M,2700.00,4500.00,M,M,BR,M,M,M,M,M,M,33.00,KEKO 031743Z AUTO 00000KT 2SM BR BKN027 OVC045 01/M01 A2990 RMK AO2 T00061011 PWINO FZRANO $,M
LSV,2024-01-03 17:49,-115.0343,36.2362,570.00,50.00,37.40,61.76,0.00,0.00,0.00,29.98,1015.10,9.00,M,BKN,M,M,M,7000.00,M,M,M,-RA,M,M,M,M,M,M,50.00,KLSV 031749Z 00000KT 9SM -RA BKN070 10/03 A2998 RMK AO2A RAB25E38RAB49 SLP151 $,M
EKO,2024-01-03 17:53,-115.7860,40.8242,1367.00,33.80,30.20,86.49,60.00,3.00,0.00,29.90,M,1.50,M,BKN,BKN,OVC,M,2500.00,3200.00,4500.00,M,BR,M,M,M,M,M,M,30.75,KEKO 031753Z AUTO 06003KT 1 1/2SM BR BKN025 BKN032 OVC045 01/M01 A2990 RMK AO2 PWINO FZRANO $,M
P68,2024-01-03 17:53,-116.0056,39.6014,1993.00,30.00,29.00,96.00,260.00,3.00,0.03,29.89,1012.40,M,M,M,M,M,M,M,M,M,M,M,M,M,M,M,M,M,26.40,KP68 031753Z AUTO 26003KT M01/M02 A2989 RMK AO1 SLP124 P0003 6//// T10111017 10022 21011 $,M
DRA,2024-01-03 17:53,-116.0278,36.6206,1009.00,47.00,34.00,60.38,210.00,9.00,0.00,29.92,1012.10,10.00,17.00,BKN,OVC,M,M,4900.00,7500.00,M,M,M,M,M,M,M,M,M,42.17,KDRA 031753Z AUTO 21009G17KT 10SM BKN049 OVC075 08/01 A2992 RMK AO2 SLP121 60003 T00830011 10106 20050 55002,M
ELY,2024-01-03 17:53,-114.8453,39.2950,1909.00,29.00,27.00,92.12,210.00,10.00,0.01,29.90,1012.80,1.50,M,BKN,OVC,M,M,2900.00,3600.00,M,M,-SN BR,M,M,M,M,M,M,19.21,KELY 031753Z AUTO 21010KT 1 1/2SM -SN BR BKN029 OVC036 M02/M03 A2990 RMK AO2 SLP128 P0001 60002 T10171028 10006 21022 56005,M
VGT,2024-01-03 17:53,-115.1933,36.2111,667.00,49.00,38.00,65.63,110.00,3.00,0.01,29.99,1017.60,10.00,M,OVC,M,M,M,6000.00,M,M,M,-RA,M,M,M,M,M,M,48.12,KVGT 031753Z 11003KT 10SM -RA OVC060 09/03 A2999 RMK AO2 RAB1657 SLP176 P0001 60001 T00940033 10094 20061 53010,M
LOL,2024-01-03 17:53,-118.5701,40.0684,1192.43,33.00,32.00,96.06,220.00,7.00,0.00,29.98,1017.30,10.00,M,BKN,OVC,M,M,4000.00,5000.00,M,M,M,M,M,M,M,M,M,26.00,KLOL 031753Z AUTO 22007KT 10SM BKN040 OVC050 01/00 A2998 RMK AO2 SLP173 60009 T00060000 10006 21006 53013,M
BVU,2024-01-03 17:55,-114.8611,35.9475,671.00,50.00,30.20,46.31,250.00,4.00,0.00,30.00,M,10.00,M,FEW,SCT,BKN,M,4800.00,5500.00,7500.00,M,M,M,M,M,M,M,M,50.00,KBVU 031755Z AUTO 25004KT 10SM FEW048 SCT055 BKN075 10/M01 A3000 RMK AO2,M
CXP,2024-01-03 17:55,-119.7326,39.1923,1431.00,37.40,23.00,55.68,180.00,4.00,0.00,30.02,M,10.00,M,FEW,SCT,BKN,M,2700.00,4300.00,4900.00,M,M,M,M,M,M,M,M,33.73,KCXP 031755Z AUTO 18004KT 10SM FEW027 SCT043 BKN049 03/M05 A3002 RMK AO2,M
INS,2024-01-03 17:55,-115.6733,36.5872,955.00,43.30,35.00,72.33,60.00,10.00,T,29.92,1012.70,10.00,M,BKN,OVC,M,M,9000.00,13000.00,M,M,M,M,M,M,M,M,M,37.14,KINS 031755Z AUTO 06010KT 10SM BKN090 OVC130 06/02 A2992 RMK AO2 RAE24 SLP127 P0000 60001 T00630016 10067 21001 58005 $,M
RNO,2024-01-03 17:55,-119.7711,39.4839,1341.00,40.00,24.00,52.45,310.00,10.00,0.00,30.01,1015.80,10.00,17.00,SCT,BKN,M,M,6000.00,11000.00,M,M,M,M,M,M,M,M,M,33.00,KRNO 031755Z 31010G17KT 10SM SCT060 BKN110 04/M04 A3001 RMK AO2 SLP158 MTN TOPS OBSCD DSNT SW T00441044 10044 20017 53016,M
RTS,2024-01-03 17:55,-119.8764,39.6682,1539.00,35.60,23.00,59.79,290.00,11.00,0.00,30.01,M,M,18.00,FEW,FEW,SCT,M,3700.00,5000.00,7500.00,M,M,M,M,M,M,M,M,27.02,KRTS 031755Z AUTO 29011G18KT FEW037 FEW050 SCT075 02/M05 A3001 RMK AO2,M
MEV,2024-01-03 17:55,-119.7500,38.9963,1441.42,39.20,23.00,51.89,180.00,4.00,0.00,30.01,M,10.00,M,SCT,M,M,M,5000.00,M,M,M,M,M,M,M,M,M,M,35.83,KMEV 031755Z AUTO 18004KT 10SM SCT050 04/M05 A3001 RMK AO2,M
HTH,2024-01-03 17:55,-118.6315,38.5448,1282.89,39.20,30.20,69.88,0.00,0.00,0.00,29.99,M,10.00,M,FEW,SCT,M,M,7500.00,9500.00,M,M,M,M,M,M,M,M,M,39.20,KHTH 031755Z AUTO 00000KT 10SM FEW075 SCT095 04/M01 A2999 RMK A01,M
BAM,2024-01-03 17:55,-116.8743,40.5990,1382.36,33.80,32.00,93.03,0.00,0.00,0.00,29.93,M,1.00,M,BKN,OVC,M,M,500.00,1500.00,M,M,M,M,M,M,M,M,M,33.80,KBAM 031755Z AUTO 00000KT 1SM BKN005 OVC015 01/00 A2993 RMK AO1,M
TMT,2024-01-03 17:55,-117.1971,39.4643,1749.34,30.60,29.30,94.85,200.00,8.00,0.00,29.93,M,2.00,M,BKN,OVC,M,M,1900.00,2500.00,M,M,-SN,M,M,M,M,M,M,22.39,KTMT 031755Z AUTO 20008KT 2SM -SN BKN019 OVC025 M01/M01 A2993 RMK AO2 60009 T10081015 11008 21051,M
LSV,2024-01-03 17:55,-115.0343,36.2362,570.00,50.00,36.00,58.44,0.00,0.00,0.01,29.97,1014.80,8.00,M,BKN,M,M,M,7000.00,M,M,M,-RA,M,M,M,M,M,M,50.00,KLSV 031755Z 00000KT 8SM -RA BKN070 10/02 A2997 RMK AO2A RAB25E38RAB49 SLP148 P0001 60001 T00990023 10114 20090 52012 $,M
EKO,2024-01-03 17:56,-115.7860,40.8242,1367.00,33.00,30.00,88.58,70.00,3.00,0.00,29.90,1014.00,1.50,M,SCT,BKN,OVC,M,2500.00,3400.00,4300.00,M,BR,M,M,M,M,M,M,29.83,KEKO 031756Z AUTO 07003KT 1 1/2SM BR SCT025 BKN034 OVC043 01/M01 A2990 RMK AO2 SLP140 T00061011 10006 21022 55000 PWINO FZRANO $,M
WMC,2024-01-03 17:56,-117.8072,40.9019,1315.00,33.00,31.00,92.25,M,3.00,0.05,29.94,1014.70,0.50,M,OVC,M,M,M,300.00,M,M,M,SN FG,M,M,M,M,M,M,29.83,KWMC 031756Z AUTO VRB03KT 1/2SM SN FG OVC003 01/M01 A2994 RMK AO2 SLP147 P0005 60032 T00061006 10006 20000 53007,M
NFL,2024-01-03 17:56,-118.7010,39.4166,1199.00,35.00,33.00,92.32,80.00,4.00,0.00,30.00,1013.10,8.00,M,SCT,SCT,BKN,BKN,500.00,4000.00,7000.00,13000.00,M,M,M,M,M,M,M,30.92,KNFL 031756Z 08004KT 8SM SCT005 SCT040 BKN070 BKN130 02/01 A3000 RMK AO2 SLP131 60000 T00170006 10022 20000 53014,M
HND,2024-01-03 17:56,-115.1344,35.9729,742.79,47.00,39.00,73.57,210.00,13.00,T,30.02,1018.80,10.00,M,BKN,OVC,M,M,4500.00,5500.00,M,M,-RA,M,M,M,M,M,M,40.79,KHND 031756Z 21013KT 10SM -RA BKN045 OVC055 08/04 A3002 RMK AO2 RAB21 SLP188 P0000 60000 T00830039 10106 20078 51019,M
TPH,2024-01-03 17:56,-117.0904,38.0505,1654.00,33.00,28.00,81.63,320.00,7.00,T,29.94,1014.90,8.00,M,FEW,SCT,OVC,M,3800.00,4800.00,5500.00,M,-SN,M,M,M,M,M,M,26.00,KTPH 031756Z AUTO 32007KT 8SM -SN FEW038 SCT048 OVC055 01/M02 A2994 RMK AO2 SNB36 SLP149 P0000 60002 T00061022 10011 21011 53006,M
LAS,2024-01-03 17:56,-115.1634,36.0719,663.00,50.00,38.00,63.23,220.00,8.00,T,30.00,1015.80,10.00,M,OVC,M,M,M,4800.00,M,M,M,-RA,M,M,M,M,M,M,50.00,KLAS 031756Z 22008KT 10SM -RA OVC048 10/03 A3000 RMK AO2 RAE06B23 SLP158 P0000 60000 T01000033 10111 20083 53013,M
ELY,2024-01-03 18:04,-114.8453,39.2950,1909.00,30.00,27.00,88.44,210.00,10.00,T,29.89,M,2.00,M,BKN,OVC,M,M,3100.00,3900.00,M,M,-SN BR,M,M,M,M,M,M,20.46,KELY 031804Z AUTO 21010KT 2SM -SN BR BKN031 OVC039 M01/M03 A2989 RMK AO2 P0000 T10111028,M
EKO,2024-01-03 18:07,-115.7860,40.8242,1367.00,33.00,30.00,88.58,50.00,4.00,0.00,29.89,M,2.50,M,FEW,BKN,OVC,M,900.00,2900.00,4100.00,M,BR,M,M,M,M,M,M,28.59,KEKO 031807Z AUTO 05004KT 2 1/2SM BR FEW009 BKN029 OVC041 01/M01 A2989 RMK AO2 T00061011 PWINO FZRANO $,M
05U,2024-01-03 18:10,-116.0051,39.6042,1811.23,32.00,30.20,92.97,0.00,0.00,0.00,29.90,M,0.50,M,M,M,M,M,M,M,M,M,FZFG,M,M,M,M,M,M,32.00,K05U 031810Z AUTO 00000KT 1/2SM FZFG M00/M01 A2990 RMK A01,M
ELY,2024-01-03 18:14,-114.8453,39.2950,1909.00,30.00,27.00,88.44,200.00,12.00,T,29.89,M,4.00,M,BKN,OVC,M,M,3400.00,4400.00,M,M,-SN BR,M,M,M,M,M,M,19.46,KELY 031814Z AUTO 20012KT 4SM -SN BR BKN034 OVC044 M01/M03 A2989 RMK AO2 P0000 T10111028,M
BVU,2024-01-03 18:15,-114.8611,35.9475,671.00,50.00,35.60,57.52,260.00,13.00,0.00,30.00,M,10.00,M,FEW,SCT,M,M,5500.00,9000.00,M,M,M,M,M,M,M,M,M,50.00,KBVU 031815Z AUTO 26013KT 10SM FEW055 SCT090 10/02 A3000 RMK AO2,M
CXP,2024-01-03 18:15,-119.7326,39.1923,1431.00,39.20,23.00,51.89,190.00,7.00,0.00,30.02,M,10.00,M,BKN,BKN,BKN,M,4600.00,5000.00,12000.00,M,M,M,M,M,M,M,M,33.56,KCXP 031815Z AUTO 19007KT 10SM BKN046 BKN050 BKN120 04/M05 A3002 RMK AO2,M
RTS,2024-01-03 18:15,-119.8764,39.6682,1539.00,37.40,23.00,55.68,280.00,15.00,0.00,30.01,M,M,M,FEW,FEW,SCT,M,3400.00,3900.00,6500.00,M,M,M,M,M,M,M,M,27.78,KRTS 031815Z AUTO 28015KT FEW034 FEW039 SCT065 03/M05 A3001 RMK AO2,M
MEV,2024-01-03 18:15,-119.7500,38.9963,1441.42,39.20,21.20,48.10,40.00,4.00,0.00,30.01,M,10.00,M,BKN,BKN,M,M,4900.00,5500.00,M,M,M,M,M,M,M,M,M,35.83,KMEV 031815Z AUTO 04004KT 10SM BKN049 BKN055 04/M06 A3001 RMK AO2,M
BAM,2024-01-03 18:15,-116.8743,40.5990,1382.36,33.80,32.00,93.03,0.00,0.00,0.00,29.93,M,0.50,M,BKN,OVC,M,M,300.00,1300.00,M,M,M,M,M,M,M,M,M,33.80,KBAM 031815Z AUTO 00000KT 1/2SM BKN003 OVC013 01/00 A2993 RMK AO1,M
HTH,2024-01-03 18:15,-118.6315,38.5448,1282.89,39.20,28.40,64.93,310.00,4.00,0.00,29.99,M,10.00,M,FEW,M,M,M,9500.00,M,M,M,M,M,M,M,M,M,M,35.83,KHTH 031815Z AUTO 31004KT 10SM FEW095 04/M02 A2999 RMK A01,M
TMT,2024-01-03 18:15,-117.1971,39.4643,1749.34,30.70,29.30,94.46,210.00,9.00,0.00,29.93,M,2.00,M,BKN,OVC,M,M,2100.00,2800.00,M,M,-SN,M,M,M,M,M,M,21.90,KTMT 031815Z AUTO 21009KT 2SM -SN BKN021 OVC028 M01/M01 A2993 RMK AO2 T10071015,M
WMC,2024-01-03 18:16,-117.8072,40.9019,1315.00,34.00,32.00,92.29,0.00,0.00,0.02,29.94,M,0.75,M,BKN,OVC,M,M,500.00,1000.00,M,M,-SN BR,M,M,M,M,M,M,34.00,KWMC 031816Z AUTO 00000KT 3/4SM -SN BR BKN005 OVC010 01/00 A2994 RMK AO2 P0002 T00110000,M
10U,2024-01-03 18:20,-116.1876,41.9532,1637.00,32.00,28.40,86.39,220.00,6.00,0.00,29.91,M,2.50,M,CLR,M,M,M,M,M,M,M,-SN,M,M,M,M,M,M,25.53,K10U 031820Z AUTO 22006KT 2 1/2SM -SN CLR 00/M02 A2991 RMK AO2,M
EKO,2024-01-03 18:22,-115.7860,40.8242,1367.00,33.00,30.00,88.58,60.00,3.00,0.00,29.89,M,1.50,M,BKN,BKN,OVC,M,1200.00,2600.00,4100.00,M,BR,M,M,M,M,M,M,29.83,KEKO 031822Z AUTO 06003KT 1 1/2SM BR BKN012 BKN026 OVC041 01/M01 A2989 RMK AO2 T00061011 PWINO FZRANO $,M
05U,2024-01-03 18:30,-116.0051,39.6042,1811.23,32.00,30.20,92.97,0.00,0.00,0.00,29.89,M,1.00,M,M,M,M,M,M,M,M,M,BR,M,M,M,M,M,M,32.00,K05U 031830Z AUTO 00000KT 1SM BR 00/M01 A2989 RMK A01,M
BVU,2024-01-03 18:35,-114.8611,35.9475,671.00,50.00,35.60,57.52,250.00,8.00,0.00,29.99,M,10.00,M,FEW,SCT,BKN,M,5500.00,6500.00,7500.00,M,M,M,M,M,M,M,M,50.00,KBVU 031835Z AUTO 25008KT 10SM FEW055 SCT065 BKN075 10/02 A2999 RMK AO2,M
CXP,2024-01-03 18:35,-119.7326,39.1923,1431.00,41.00,23.00,48.39,M,3.00,0.00,30.01,M,10.00,M,BKN,BKN,M,M,4600.00,5500.00,M,M,M,M,M,M,M,M,M,38.98,KCXP 031835Z AUTO VRB03KT 10SM BKN046 BKN055 05/M05 A3001 RMK AO2,M
RTS,2024-01-03 18:35,-119.8764,39.6682,1539.00,37.40,23.00,55.68,280.00,15.00,0.00,30.02,M,10.00,M,BKN,M,M,M,6500.00,M,M,M,M,M,M,M,M,M,M,27.78,KRTS 031835Z AUTO 28015KT 10SM BKN065 03/M05 A3002 RMK AO2,M
MEV,2024-01-03 18:35,-119.7500,38.9963,1441.42,39.20,21.20,48.10,0.00,0.00,0.00,30.01,M,10.00,M,BKN,OVC,M,M,4900.00,5500.00,M,M,-RA,M,M,M,M,M,M,39.20,KMEV 031835Z AUTO 00000KT 10SM -RA BKN049 OVC055 04/M06 A3001 RMK AO2,M
HTH,2024-01-03 18:35,-118.6315,38.5448,1282.89,42.80,24.80,48.67,300.00,9.00,0.00,29.99,M,10.00,M,FEW,SCT,SCT,M,5500.00,7000.00,9500.00,M,M,M,M,M,M,M,M,36.94,KHTH 031835Z AUTO 30009KT 10SM FEW055 SCT070 SCT095 06/M04 A2999 RMK A01,M
BAM,2024-01-03 18:35,-116.8743,40.5990,1382.36,33.80,32.00,93.03,0.00,0.00,0.00,29.93,M,0.75,M,BKN,OVC,M,M,300.00,1300.00,M,M,M,M,M,M,M,M,M,33.80,KBAM 031835Z AUTO 00000KT 3/4SM BKN003 OVC013 01/00 A2993 RMK AO1,M
TMT,2024-01-03 18:35,-117.1971,39.4643,1749.34,31.00,29.30,93.32,210.00,11.00,0.00,29.93,M,1.50,M,OVC,M,M,M,1900.00,M,M,M,-SN,M,M,M,M,M,M,21.20,KTMT 031835Z AUTO 21011KT 1 1/2SM -SN OVC019 M01/M01 A2993 RMK AO2 T10061015,M
EKO,2024-01-03 18:38,-115.7860,40.8242,1367.00,33.00,31.00,92.25,0.00,0.00,0.00,29.89,M,0.75,M,FEW,BKN,OVC,M,300.00,1000.00,1400.00,M,BR,M,M,M,M,M,M,33.00,KEKO 031838Z AUTO 00000KT 3/4SM BR FEW003 BKN010 OVC014 01/M01 A2989 RMK AO2 T00061006 PWINO FZRANO $,M
10U,2024-01-03 18:40,-116.1876,41.9532,1637.00,32.00,28.40,86.39,210.00,4.00,0.00,29.90,M,4.00,M,CLR,M,M,M,M,M,M,M,-SN,M,M,M,M,M,M,27.42,K10U 031840Z AUTO 21004KT 4SM -SN CLR 00/M02 A2990 RMK AO2,M
05U,2024-01-03 18:45,-116.0051,39.6042,1811.23,32.00,30.20,92.97,360.00,5.00,0.00,29.90,M,2.00,M,M,M,M,M,M,M,M,M,BR,M,M,M,M,M,M,26.40,K05U 031845Z AUTO 36005KT 2SM BR 00/M01 A2990 RMK A01,M
EKO,2024-01-03 18:48,-115.7860,40.8242,1367.00,33.00,31.00,92.25,50.00,3.00,0.00,29.88,M,1.25,M,FEW,BKN,OVC,M,300.00,1200.00,2600.00,M,BR,M,M,M,M,M,M,29.83,KEKO 031848Z AUTO 05003KT 1 1/4SM BR FEW003 BKN012 OVC026 01/M01 A2988 RMK AO2 T00061006 PWINO FZRANO $,M
P68,2024-01-03 18:53,-116.0056,39.6014,1993.00,31.00,29.00,92.19,210.00,5.00,0.03,29.87,1012.20,M,M,M,M,M,M,M,M,M,M,M,M,M,M,M,M,M,25.21,KP68 031853Z AUTO 21005KT M01/M02 A2987 RMK AO1 SLP122 P0003 T10061017 $,M
DRA,2024-01-03 18:53,-116.0278,36.6206,1009.00,50.00,33.00,51.85,200.00,14.00,0.00,29.90,1011.40,10.00,22.00,BKN,BKN,M,M,4600.00,5500.00,M,M,M,M,M,M,M,M,M,50.00,KDRA 031853Z AUTO 20014G22KT 10SM BKN046 BKN055 10/01 A2990 RMK AO2 SLP114 T01000006,M
ELY,2024-01-03 18:53,-114.8453,39.2950,1909.00,30.00,27.00,88.44,200.00,9.00,T,29.87,1012.00,5.00,M,BKN,OVC,M,M,3600.00,4500.00,M,M,-SN BR,M,M,M,M,M,M,21.03,KELY 031853Z AUTO 20009KT 5SM -SN BR BKN036 OVC045 M01/M03 A2987 RMK AO2 SLP120 P0000 T10111028,M
VGT,2024-01-03 18:53,-115.1933,36.2111,667.00,49.00,40.00,70.96,150.00,6.00,0.01,29.94,1015.90,10.00,M,SCT,OVC,M,M,7000.00,9500.00,M,M,M,M,M,M,M,M,M,46.00,KVGT 031853Z 15006KT 10SM SCT070 OVC095 09/04 A2994 RMK AO2 RAE20 SLP159 P0001 T00940044,M
LOL,2024-01-03 18:53,-118.5701,40.0684,1192.43,34.00,33.00,96.08,0.00,0.00,0.00,29.98,1017.20,10.00,M,BKN,OVC,M,M,4000.00,6000.00,M,M,M,M,M,M,M,M,M,34.00,KLOL 031853Z AUTO 00000KT 10SM BKN040 OVC060 01/01 A2998 RMK AO2 SLP172 T00110006,M
BVU,2024-01-03 18:55,-114.8611,35.9475,671.00,50.00,37.40,61.76,230.00,7.00,0.00,29.99,M,10.00,M,FEW,BKN,BKN,M,3600.00,4500.00,5500.00,M,M,M,M,M,M,M,M,50.00,KBVU 031855Z AUTO 23007KT 10SM FEW036 BKN045 BKN055 10/03 A2999 RMK AO2,M
CXP,2024-01-03 18:55,-119.7326,39.1923,1431.00,41.00,23.00,48.39,0.00,0.00,0.00,30.01,M,10.00,M,SCT,BKN,BKN,M,4600.00,5000.00,6500.00,M,M,M,M,M,M,M,M,41.00,KCXP 031855Z AUTO 00000KT 10SM SCT046 BKN050 BKN065 05/M05 A3001 RMK AO2,M
INS,2024-01-03 18:55,-115.6733,36.5872,955.00,44.60,37.00,74.49,80.00,14.00,0.00,29.90,1012.00,10.00,M,BKN,M,M,M,16000.00,M,M,M,M,M,M,M,M,M,M,37.40,KINS 031855Z AUTO 08014KT 10SM BKN160 07/03 A2990 RMK AO2 SLP120 T00700027 $,M
RNO,2024-01-03 18:55,-119.7711,39.4839,1341.00,41.00,23.00,48.39,280.00,13.00,0.00,30.01,1015.30,10.00,21.00,BKN,BKN,M,M,6500.00,12000.00,M,M,M,M,M,M,M,M,M,33.10,KRNO 031855Z 28013G21KT 10SM BKN065 BKN120 05/M05 A3001 RMK AO2 SLP153 CLDS TPG MTNS DSNT SW T00501050,M
RTS,2024-01-03 18:55,-119.8764,39.6682,1539.00,37.40,23.00,55.68,300.00,13.00,0.00,30.02,M,10.00,M,OVC,M,M,M,6500.00,M,M,M,M,M,M,M,M,M,M,28.49,KRTS 031855Z AUTO 30013KT 10SM OVC065 03/M05 A3002 RMK AO2,M
MEV,2024-01-03 18:55,-119.7500,38.9963,1441.42,39.20,21.20,48.10,250.00,4.00,0.00,30.00,M,10.00,M,SCT,BKN,BKN,M,4700.00,5500.00,6000.00,M,M,M,M,M,M,M,M,35.83,KMEV 031855Z AUTO 25004KT 10SM SCT047 BKN055 BKN060 04/M06 A3000 RMK AO2,M
HTH,2024-01-03 18:55,-118.6315,38.5448,1282.89,42.80,19.40,38.75,350.00,13.00,0.00,29.99,M,10.00,M,FEW,FEW,SCT,M,5000.00,6000.00,10000.00,M,M,M,M,M,M,M,M,35.40,KHTH 031855Z AUTO 35013KT 10SM FEW050 FEW060 SCT100 06/M07 A2999 RMK A01,M
BAM,2024-01-03 18:55,-116.8743,40.5990,1382.36,33.80,32.00,93.03,230.00,3.00,0.00,29.93,M,1.00,M,BKN,OVC,M,M,300.00,1300.00,M,M,M,M,M,M,M,M,M,30.75,KBAM 031855Z AUTO 23003KT 1SM BKN003 OVC013 01/00 A2993 RMK AO1,M
TMT,2024-01-03 18:55,-117.1971,39.4643,1749.34,30.70,29.30,94.46,220.00,11.00,0.00,29.93,M,1.00,M,OVC,M,M,M,1700.00,M,M,M,-SN,M,M,M,M,M,M,20.82,KTMT 031855Z AUTO 22011KT 1SM -SN OVC017 M01/M01 A2993 RMK AO2 T10071015,M
EKO,2024-01-03 18:56,-115.7860,40.8242,1367.00,33.00,31.00,92.25,40.00,3.00,0.00,29.88,1013.40,1.50,M,FEW,BKN,OVC,M,400.00,1200.00,2200.00,M,BR,M,M,M,M,M,M,29.83,KEKO 031856Z AUTO 04003KT 1 1/2SM BR FEW004 BKN012 OVC022 01/M01 A2988 RMK AO2 SLP134 T00061006 PWINO FZRANO $,M
WMC,2024-01-03 18:56,-117.8072,40.9019,1315.00,34.00,32.00,92.29,0.00,0.00,0.05,29.93,1014.40,0.50,M,BKN,OVC,M,M,500.00,900.00,M,M,SN FG,M,M,M,M,M,M,34.00,KWMC 031856Z AUTO 00000KT 1/2SM SN FG BKN005 OVC009 01/00 A2993 RMK AO2 SLP144 P0005 T00110000,M
LSV,2024-01-03 18:56,-115.0343,36.2362,570.00,48.60,40.00,72.03,160.00,11.00,0.04,29.94,1013.90,10.00,17.00,OVC,M,M,M,7000.00,M,M,M,NSW,M,M,M,M,M,M,43.44,KLSV 031856Z 16011G17KT 10SM NSW OVC070 09/04 A2994 RMK RAE1755RAB02E08RAB17E29 SLP139 P0004 T00920044 $,M
NFL,2024-01-03 18:56,-118.7010,39.4166,1199.00,38.00,33.00,82.00,0.00,0.00,0.00,29.99,1012.70,10.00,M,SCT,SCT,BKN,BKN,500.00,4000.00,6500.00,13000.00,M,M,M,M,M,M,M,38.00,KNFL 031856Z 00000KT 10SM SCT005 SCT040 BKN065 BKN130 03/01 A2999 RMK AO2 SLP127 WR// T00330006,M
HND,2024-01-03 18:56,-115.1344,35.9729,742.79,45.00,39.00,79.36,180.00,11.00,0.05,29.98,1017.30,10.00,M,SCT,BKN,OVC,M,3200.00,4000.00,7000.00,M,-RA,M,M,M,M,M,M,38.89,KHND 031856Z 18011KT 10SM -RA SCT032 BKN040 OVC070 07/04 A2998 RMK AO2 SLP173 P0005 T00720039,M
TPH,2024-01-03 18:56,-117.0904,38.0505,1654.00,36.00,28.00,72.43,300.00,10.00,T,29.93,1014.40,10.00,M,BKN,M,M,M,8000.00,M,M,M,M,M,M,M,M,M,M,27.98,KTPH 031856Z AUTO 30010KT 10SM BKN080 02/M02 A2993 RMK AO2 SNE05 SLP144 P0000 T00221022,M
LAS,2024-01-03 18:56,-115.1634,36.0719,663.00,47.00,41.00,79.52,150.00,13.00,0.04,29.93,1013.50,8.00,23.00,FEW,BKN,BKN,M,2000.00,3600.00,4700.00,M,-RA,M,M,M,M,M,M,40.79,KLAS 031856Z 15013G23KT 8SM -RA FEW020 BKN036 BKN047 08/05 A2993 RMK AO2 PRESFR SLP135 P0004 T00830050,M
10U,2024-01-03 19:00,-116.1876,41.9532,1637.00,32.00,30.20,92.97,180.00,3.00,0.00,29.90,M,3.00,M,CLR,M,M,M,M,M,M,M,-SN,M,M,M,M,M,M,28.69,K10U 031900Z AUTO 18003KT 3SM -SN CLR 00/M01 A2990 RMK AO2,M
05U,2024-01-03 19:00,-116.0051,39.6042,1811.23,32.00,30.20,92.97,10.00,5.00,0.00,29.90,M,5.00,M,M,M,M,M,M,M,M,M,BR,M,M,M,M,M,M,26.40,K05U 031900Z AUTO 01005KT 5SM BR 00/M01 A2990 RMK A01,M
EKO,2024-01-03 19:12,-115.7860,40.8242,1367.00,33.00,30.00,88.58,100.00,4.00,0.00,29.88,M,1.75,M,FEW,BKN,OVC,M,400.00,800.00,1200.00,M,BR,M,M,M,M,M,M,28.59,KEKO 031912Z AUTO 10004KT 1 3/4SM BR FEW004 BKN008 OVC012 01/M01 A2988 RMK AO2 T00061011 PWINO FZRANO $,M
BVU,2024-01-03 19:15,-114.8611,35.9475,671.00,46.40,41.00,81.34,220.00,12.00,0.00,29.98,M,4.00,M,BKN,OVC,M,M,3300.00,3900.00,M,M,-RA,M,M,M,M,M,M,40.33,KBVU 031915Z AUTO 22012KT 4SM -RA BKN033 OVC039 08/05 A2998 RMK AO2,M
CXP,2024-01-03 19:15,-119.7326,39.1923,1431.00,39.20,21.20,48.10,M,3.00,0.00,30.01,M,10.00,M,FEW,BKN,OVC,M,4600.00,5500.00,8000.00,M,M,M,M,M,M,M,M,36.92,KCXP 031915Z AUTO VRB03KT 10SM FEW046 BKN055 OVC080 04/M06 A3001 RMK AO2,M
EKO,2024-01-03 19:15,-115.7860,40.8242,1367.00,33.00,30.00,88.58,90.00,6.00,0.00,29.88,M,2.00,M,SCT,BKN,OVC,M,800.00,1200.00,1800.00,M,BR,M,M,M,M,M,M,26.73,KEKO 031915Z AUTO 09006KT 2SM BR SCT008 BKN012 OVC018 01/M01 A2988 RMK AO2 T00061011 PWINO FZRANO $,M
RTS,2024-01-03 19:15,-119.8764,39.6682,1539.00,37.40,24.80,60.04,290.00,15.00,0.00,30.02,M,10.00,M,OVC,M,M,M,6500.00,M,M,M,M,M,M,M,M,M,M,27.78,KRTS 031915Z AUTO 29015KT 10SM OVC065 03/M04 A3002 RMK AO2,M
MEV,2024-01-03 19:15,-119.7500,38.9963,1441.42,41.00,21.20,44.85,350.00,4.00,0.00,30.00,M,10.00,M,SCT,SCT,SCT,M,5000.00,6500.00,10000.00,M,M,M,M,M,M,M,M,37.93,KMEV 031915Z AUTO 35004KT 10SM SCT050 SCT065 SCT100 05/M06 A3000 RMK AO2,M
BAM,2024-01-03 19:15,-116.8743,40.5990,1382.36,33.80,32.00,93.03,190.00,3.00,0.00,29.92,M,0.75,M,OVC,M,M,M,800.00,M,M,M,M,M,M,M,M,M,M,30.75,KBAM 031915Z AUTO 19003KT 3/4SM OVC008 01/00 A2992 RMK AO1,M
HTH,2024-01-03 19:15,-118.6315,38.5448,1282.89,44.60,19.40,36.18,330.00,10.00,0.00,29.98,M,10.00,M,FEW,FEW,M,M,6000.00,7500.00,M,M,M,M,M,M,M,M,M,38.77,KHTH 031915Z AUTO 33010KT 300V360 10SM FEW060 FEW075 07/M07 A2998 RMK A01,M
TMT,2024-01-03 19:15,-117.1971,39.4643,1749.34,30.60,28.60,92.17,230.00,11.00,0.00,29.93,M,1.25,M,BKN,OVC,M,M,1000.00,1500.00,M,M,-SN,M,M,M,M,M,M,20.70,KTMT 031915Z AUTO 23011KT 1 1/4SM -SN BKN010 OVC015 M01/M02 A2993 RMK AO2 T10081019,M
10U,2024-01-03 19:20,-116.1876,41.9532,1637.00,32.00,30.20,92.97,0.00,0.00,0.00,29.89,M,2.00,M,CLR,M,M,M,M,M,M,M,-SN,M,M,M,M,M,M,32.00,K10U 031920Z AUTO 00000KT 2SM -SN CLR 00/M01 A2989 RMK AO2,M
05U,2024-01-03 19:25,-116.0051,39.6042,1811.23,33.80,30.20,86.49,50.00,8.00,0.00,29.88,M,10.00,M,M,M,M,M,M,M,M,M,M,M,M,M,M,M,M,26.33,K05U 031925Z AUTO 05008KT 10SM 01/M01 A2988 RMK A01,M
BVU,2024-01-03 19:35,-114.8611,35.9475,671.00,46.40,41.00,81.34,130.00,8.00,0.00,29.94,M,6.00,M,BKN,BKN,BKN,M,3200.00,7000.00,8000.00,M,-RA,M,M,M,M,M,M,41.85,KBVU 031935Z AUTO 13008KT 6SM -RA BKN032 BKN070 BKN080 08/05 A2994 RMK AO2,M
CXP,2024-01-03 19:35,-119.7326,39.1923,1431.00,41.00,19.40,41.54,300.00,12.00,0.00,30.01,M,10.00,17.00,BKN,OVC,M,M,5500.00,7500.00,M,M,M,M,M,M,M,M,M,33.46,KCXP 031935Z AUTO 30012G17KT 10SM BKN055 OVC075 05/M07 A3001 RMK AO2,M
RTS,2024-01-03 19:35,-119.8764,39.6682,1539.00,37.40,23.00,55.68,310.00,15.00,0.00,30.01,M,8.00,24.00,BKN,BKN,BKN,M,6500.00,7500.00,9500.00,M,-RA,M,M,M,M,M,M,27.78,KRTS 031935Z AUTO 31015G24KT 8SM -RA BKN065 BKN075 BKN095 03/M05 A3001 RMK AO2,M
MEV,2024-01-03 19:35,-119.7500,38.9963,1441.42,41.00,21.20,44.85,260.00,11.00,0.00,29.99,M,10.00,17.00,FEW,SCT,BKN,M,4900.00,6000.00,9000.00,M,M,M,M,M,M,M,M,33.84,KMEV 031935Z AUTO 26011G17KT 10SM FEW049 SCT060 BKN090 05/M06 A2999 RMK AO2,M
BAM,2024-01-03 19:35,-116.8743,40.5990,1382.36,33.80,33.80,100.00,220.00,5.00,0.00,29.92,M,3.00,M,OVC,M,M,M,500.00,M,M,M,M,M,M,M,M,M,M,28.53,KBAM 031935Z AUTO 22005KT 3SM OVC005 01/01 A2992 RMK AO1,M
HTH,2024-01-03 19:35,-118.6315,38.5448,1282.89,44.60,19.40,36.18,320.00,11.00,0.00,29.97,M,10.00,M,FEW,FEW,M,M,6500.00,9000.00,M,M,M,M,M,M,M,M,M,38.39,KHTH 031935Z AUTO 32011KT 10SM FEW065 FEW090 07/M07 A2997 RMK A01,M
TMT,2024-01-03 19:35,-117.1971,39.4643,1749.34,30.70,28.40,91.05,230.00,11.00,0.00,29.92,M,3.00,M,SCT,BKN,OVC,M,900.00,1700.00,3100.00,M,-SN,M,M,M,M,M,M,20.82,KTMT 031935Z AUTO 23011KT 3SM -SN SCT009 BKN017 OVC031 M01/M02 A2992 RMK AO2 T10071020,M
EKO,2024-01-03 19:39,-115.7860,40.8242,1367.00,34.00,30.00,85.11,60.00,4.00,0.00,29.87,M,1.75,M,FEW,BKN,OVC,M,600.00,1800.00,2400.00,M,BR,M,M,M,M,M,M,29.76,KEKO 031939Z AUTO 06004KT 1 3/4SM BR FEW006 BKN018 OVC024 01/M01 A2987 RMK AO2 T00111011 $,M
05U,2024-01-03 19:40,-116.0051,39.6042,1811.23,33.80,30.20,86.49,40.00,6.00,0.00,29.87,M,9.00,M,M,M,M,M,M,M,M,M,M,M,M,M,M,M,M,27.70,K05U 031940Z AUTO 04006KT 9SM 01/M01 A2987 RMK A01,M
10U,2024-01-03 19:40,-116.1876,41.9532,1637.00,33.80,30.20,86.49,0.00,0.00,0.00,29.89,M,2.50,M,FEW,M,M,M,500.00,M,M,M,-SN,M,M,M,M,M,M,33.80,K10U 031940Z AUTO 00000KT 2 1/2SM -SN FEW005 01/M01 A2989 RMK AO2,M
ELY,2024-01-03 19:46,-114.8453,39.2950,1909.00,31.00,27.00,84.92,210.00,10.00,T,29.85,M,2.50,M,BKN,OVC,M,M,2700.00,3600.00,M,M,-SN BR,M,M,M,M,M,M,21.71,KELY 031946Z AUTO 21010KT 2 1/2SM -SN BR BKN027 OVC036 M01/M03 A2985 RMK AO2 P0000 T10061028,M
WMC,2024-01-03 19:47,-117.8072,40.9019,1315.00,34.00,31.00,88.63,250.00,7.00,0.07,29.92,M,1.00,M,VV ,M,M,M,1000.00,M,M,M,-SN BR,M,M,M,M,M,M,27.22,KWMC 031947Z AUTO 25007KT 1SM -SN BR VV010 01/M01 A2992 RMK AO2 P0007 T00111006,M
LSV,2024-01-03 19:52,-115.0343,36.2362,570.00,49.00,41.00,73.77,210.00,6.00,0.00,29.90,1012.50,10.00,M,FEW,BKN,M,M,5000.00,7000.00,M,M,M,M,M,M,M,M,M,46.00,KLSV 031952Z 21006KT 10SM FEW050 BKN070 09/05 A2990 RMK A02A SLP125 T00940050 $,M
EKO,2024-01-03 19:53,-115.7860,40.8242,1367.00,33.80,30.20,86.49,80.00,3.00,0.00,29.86,M,2.00,M,BKN,BKN,OVC,M,700.00,1800.00,2400.00,M,BR,M,M,M,M,M,M,30.75,KEKO 031953Z AUTO 08003KT 2SM BR BKN007 BKN018 OVC024 01/M01 A2986 RMK AO2 $,M
P68,2024-01-03 19:53,-116.0056,39.6014,1993.00,34.00,29.00,81.71,250.00,6.00,0.00,29.83,1009.40,M,M,M,M,M,M,M,M,M,M,M,M,M,M,M,M,M,27.94,KP68 031953Z AUTO 25006KT 01/M02 A2983 RMK AO1 SLP094 T00111017 $,M
DRA,2024-01-03 19:53,-116.0278,36.6206,1009.00,48.00,32.00,53.67,220.00,15.00,0.00,29.89,1011.30,10.00,26.00,FEW,OVC,M,M,4000.00,6500.00,M,M,M,M,M,M,27.00,190.00,2024-01-03 19:24,41.52,KDRA 031953Z AUTO 22015G26KT 10SM FEW040 OVC065 09/00 A2989 RMK AO2 PK WND 19027/1924 SLP113 T00890000,M
ELY,2024-01-03 19:53,-114.8453,39.2950,1909.00,31.00,27.00,84.92,190.00,10.00,T,29.85,1011.10,1.25,M,BKN,OVC,M,M,2300.00,3500.00,M,M,-SN BR,M,M,M,M,M,M,21.71,KELY 031953Z AUTO 19010KT 1 1/4SM -SN BR BKN023 OVC035 M01/M03 A2985 RMK AO2 SLP111 P0000 T10061028,M
VGT,2024-01-03 19:53,-115.1933,36.2111,667.00,48.00,38.00,68.13,160.00,15.00,0.00,29.90,1014.60,10.00,M,CLR,M,M,M,M,M,M,M,M,M,M,M,M,M,M,41.52,KVGT 031953Z 16015KT 10SM CLR 09/03 A2990 RMK AO2 SLP146 T00890033,M
LOL,2024-01-03 19:53,-118.5701,40.0684,1192.43,36.00,32.00,85.23,0.00,0.00,T,29.96,1016.40,10.00,M,BKN,OVC,M,M,4500.00,5500.00,M,M,M,M,M,M,M,M,M,36.00,KLOL 031953Z AUTO 00000KT 10SM BKN045 OVC055 02/00 A2996 RMK AO2 RAB20E33 SLP164 P0000 T00220000,M
WMC,2024-01-03 19:54,-117.8072,40.9019,1315.00,33.80,30.20,86.49,260.00,9.00,0.07,29.92,M,1.00,M,VV ,M,M,M,900.00,M,M,M,-SN BR,M,M,M,M,M,M,25.75,KWMC 031954Z AUTO 26009KT 1SM -SN BR VV009 01/M01 A2992 RMK AO2 P0007,M
BVU,2024-01-03 19:55,-114.8611,35.9475,671.00,46.40,41.00,81.34,100.00,7.00,0.00,29.92,M,10.00,M,FEW,FEW,FEW,M,3300.00,7000.00,8000.00,M,M,M,M,M,M,M,M,42.33,KBVU 031955Z AUTO 10007KT 10SM FEW033 FEW070 FEW080 08/05 A2992 RMK AO2,M
CXP,2024-01-03 19:55,-119.7326,39.1923,1431.00,41.00,21.20,44.85,280.00,7.00,0.00,30.00,M,10.00,13.00,FEW,OVC,M,M,6000.00,7500.00,M,M,M,M,M,M,M,M,M,35.75,KCXP 031955Z AUTO 28007G13KT 10SM FEW060 OVC075 05/M06 A3000 RMK AO2,M
INS,2024-01-03 19:55,-115.6733,36.5872,955.00,46.60,37.00,69.05,80.00,10.00,0.00,29.89,1011.60,10.00,M,FEW,OVC,M,M,4300.00,6000.00,M,M,M,M,M,M,M,M,M,41.28,KINS 031955Z AUTO 08010KT 10SM FEW043 OVC060 08/03 A2989 RMK AO2 SLP116 T00810028 $,M
RNO,2024-01-03 19:55,-119.7711,39.4839,1341.00,42.00,23.00,46.55,310.00,11.00,0.00,29.99,1015.00,10.00,M,FEW,BKN,BKN,M,3000.00,5000.00,12000.00,M,M,M,M,M,M,M,M,35.10,KRNO 031955Z 31011KT 10SM FEW030 BKN050 BKN120 06/M05 A2999 RMK AO2 SLP150 ROTOR CLD S SH DSNT SE AND SW T00561050,M
RTS,2024-01-03 19:55,-119.8764,39.6682,1539.00,37.40,23.00,55.68,300.00,17.00,0.00,30.00,M,10.00,24.00,FEW,SCT,M,M,4900.00,6000.00,M,M,-RA,M,M,M,M,M,M,27.15,KRTS 031955Z AUTO 30017G24KT 10SM -RA FEW049 SCT060 03/M05 A3000 RMK AO2,M
MEV,2024-01-03 19:55,-119.7500,38.9963,1441.42,41.00,21.20,44.85,300.00,5.00,0.00,29.99,M,10.00,M,FEW,SCT,BKN,M,5500.00,6500.00,8000.00,M,M,M,M,M,M,M,M,37.08,KMEV 031955Z AUTO 30005KT 10SM FEW055 SCT065 BKN080 05/M06 A2999 RMK AO2,M
BAM,2024-01-03 19:55,-116.8743,40.5990,1382.36,33.80,33.80,100.00,240.00,5.00,0.00,29.91,M,2.00,M,BKN,OVC,M,M,300.00,1200.00,M,M,M,M,M,M,M,M,M,28.53,KBAM 031955Z AUTO 24005KT 2SM BKN003 OVC012 01/01 A2991 RMK AO1,M
HTH,2024-01-03 19:55,-118.6315,38.5448,1282.89,44.60,21.20,39.06,330.00,9.00,0.00,29.97,M,10.00,15.00,FEW,FEW,M,M,6500.00,9000.00,M,M,M,M,M,M,M,M,M,39.18,KHTH 031955Z AUTO 33009G15KT 10SM FEW065 FEW090 07/M06 A2997 RMK A01,M
TMT,2024-01-03 19:55,-117.1971,39.4643,1749.34,30.60,28.40,91.42,230.00,9.00,0.00,29.91,M,7.00,M,SCT,BKN,OVC,M,1400.00,2700.00,3200.00,M,-SN,M,M,M,M,M,M,21.77,KTMT 031955Z AUTO 23009KT 7SM -SN SCT014 BKN027 OVC032 M01/M02 A2991 RMK AO2 T10081020,M
EKO,2024-01-03 19:56,-115.7860,40.8242,1367.00,34.00,31.00,88.63,60.00,4.00,0.00,29.86,1012.70,2.00,M,BKN,BKN,OVC,M,700.00,1800.00,2400.00,M,BR,M,M,M,M,M,M,29.76,KEKO 031956Z AUTO 06004KT 2SM BR BKN007 BKN018 OVC024 01/M01 A2986 RMK AO2 SLP127 T00111006 $,M
WMC,2024-01-03 19:56,-117.8072,40.9019,1315.00,34.00,31.00,88.63,260.00,8.00,0.07,29.92,1014.20,1.00,M,SCT,OVC,M,M,700.00,1100.00,M,M,-SN BR,M,M,M,M,M,M,26.58,KWMC 031956Z AUTO 26008KT 1SM -SN BR SCT007 OVC011 01/M01 A2992 RMK AO2 SLP142 P0007 T00111006,M
NFL,2024-01-03 19:56,-118.7010,39.4166,1199.00,41.00,30.00,64.63,300.00,9.00,0.00,29.97,1012.10,10.00,M,SCT,BKN,OVC,M,1000.00,7000.00,9000.00,M,M,M,M,M,M,M,M,34.70,KNFL 031956Z 30009KT 10SM SCT010 BKN070 OVC090 05/M01 A2997 RMK AO2 SLP121 T00501011,M
HND,2024-01-03 19:56,-115.1344,35.9729,742.79,46.00,39.00,76.40,180.00,8.00,T,29.92,1015.00,10.00,M,CLR,M,M,M,M,M,M,M,M,M,M,M,M,M,M,41.36,KHND 031956Z 18008KT 10SM CLR 08/04 A2992 RMK AO2 RAE19 PRESFR SLP150 P0000 T00780039,M
TPH,2024-01-03 19:56,-117.0904,38.0505,1654.00,37.00,26.00,64.11,320.00,17.00,T,29.89,1012.90,10.00,27.00,FEW,M,M,M,2100.00,M,M,M,UP,M,M,M,27.00,320.00,2024-01-03 19:54,26.63,KTPH 031956Z AUTO 32017G27KT 10SM UP FEW021 03/M03 A2989 RMK AO2 PK WND 32027/1954 UPB55 SLP129 P0000 T00281033,M
LAS,2024-01-03 19:56,-115.1634,36.0719,663.00,47.00,39.00,73.57,160.00,9.00,T,29.91,1012.70,10.00,17.00,FEW,SCT,BKN,M,6000.00,11000.00,15000.00,M,M,M,M,M,M,M,M,42.17,KLAS 031956Z 16009G17KT 10SM FEW060 SCT110 BKN150 08/04 A2991 RMK AO2 RAE02 SLP127 P0000 T00830039,M
10U,2024-01-03 20:00,-116.1876,41.9532,1637.00,33.80,32.00,93.03,0.00,0.00,0.00,29.88,M,3.00,M,BKN,M,M,M,600.00,M,M,M,-SN,M,M,M,M,M,M,33.80,K10U 032000Z AUTO 00000KT 3SM -SN BKN006 01/M00 A2988 RMK AO2,M
EKO,2024-01-03 20:01,-115.7860,40.8242,1367.00,34.00,30.00,85.11,70.00,4.00,0.00,29.86,M,3.00,M,SCT,OVC,M,M,600.00,1600.00,M,M,BR,M,M,M,M,M,M,29.76,KEKO 032001Z AUTO 07004KT 3SM BR SCT006 OVC016 01/M01 A2986 RMK AO2 T00111011,M
05U,2024-01-03 20:10,-116.0051,39.6042,1811.23,33.80,30.20,86.49,40.00,5.00,0.00,29.86,M,10.00,M,M,M,M,M,M,M,M,M,M,M,M,M,M,M,M,28.53,K05U 032010Z AUTO 04005KT 10SM 01/M01 A2986 RMK A01,M
BVU,2024-01-03 20:15,-114.8611,35.9475,671.00,46.40,41.00,81.34,110.00,7.00,0.00,29.91,M,10.00,M,CLR,M,M,M,M,M,M,M,M,M,M,M,M,M,M,42.33,KBVU 032015Z AUTO 11007KT 10SM CLR 08/05 A2991 RMK AO2,M
CXP,2024-01-03 20:15,-119.7326,39.1923,1431.00,41.00,21.20,44.85,300.00,13.00,0.00,30.00,M,10.00,18.00,SCT,SCT,OVC,M,4200.00,5500.00,7500.00,M,M,M,M,M,M,M,M,33.10,KCXP 032015Z AUTO 30013G18KT 10SM SCT042 SCT055 OVC075 05/M06 A3000 RMK AO2,M
RTS,2024-01-03 20:15,-119.8764,39.6682,1539.00,35.60,26.60,69.46,310.00,15.00,0.00,30.00,M,6.00,22.00,FEW,M,M,M,5500.00,M,M,M,-SN,M,M,M,M,M,M,25.45,KRTS 032015Z AUTO 31015G22KT 6SM -SN FEW055 02/M03 A3000 RMK AO2,M
MEV,2024-01-03 20:15,-119.7500,38.9963,1441.42,41.00,21.20,44.85,360.00,6.00,0.00,29.98,M,10.00,M,FEW,SCT,SCT,M,6000.00,8000.00,9000.00,M,M,M,M,M,M,M,M,36.37,KMEV 032015Z AUTO 36006KT 10SM FEW060 SCT080 SCT090 05/M06 A2998 RMK AO2,M
HTH,2024-01-03 20:15,-118.6315,38.5448,1282.89,44.60,21.20,39.06,330.00,10.00,0.00,29.96,M,10.00,17.00,CLR,M,M,M,M,M,M,M,M,M,M,M,M,M,M,38.77,KHTH 032015Z AUTO 33010G17KT 310V010 10SM CLR 07/M06 A2996 RMK A01,M
BAM,2024-01-03 20:15,-116.8743,40.5990,1382.36,33.80,33.80,100.00,250.00,8.00,0.00,29.89,M,4.00,M,OVC,M,M,M,1000.00,M,M,M,M,M,M,M,M,M,M,26.33,KBAM 032015Z AUTO 25008KT 4SM OVC010 01/01 A2989 RMK AO1,M
TMT,2024-01-03 20:15,-117.1971,39.4643,1749.34,30.20,28.20,92.16,220.00,9.00,0.00,29.91,M,4.00,M,SCT,BKN,OVC,M,1400.00,2000.00,2700.00,M,-SN,M,M,M,M,M,M,21.28,KTMT 032015Z AUTO 22009KT 4SM -SN SCT014 BKN020 OVC027 M01/M02 A2991 RMK AO2 T10101021,M
ELY,2024-01-03 20:17,-114.8453,39.2950,1909.00,31.00,28.00,88.48,200.00,7.00,0.01,29.84,M,1.25,M,FEW,BKN,OVC,M,700.00,1800.00,2600.00,M,-SN BR,M,M,M,M,M,M,23.56,KELY 032017Z AUTO 20007KT 1 1/4SM -SN BR FEW007 BKN018 OVC026 M01/M02 A2984 RMK AO2 P0001 T10061022,M
ELY,2024-01-03 20:26,-114.8453,39.2950,1909.00,31.00,28.00,88.48,200.00,9.00,0.01,29.83,M,1.75,M,FEW,BKN,OVC,M,700.00,2200.00,3400.00,M,-SN BR,M,M,M,M,M,M,22.27,KELY 032026Z AUTO 20009KT 1 3/4SM -SN BR FEW007 BKN022 OVC034 M01/M02 A2983 RMK AO2 P0001 T10061022,M
05U,2024-01-03 20:30,-116.0051,39.6042,1811.23,33.80,30.20,86.49,30.00,7.00,0.00,29.86,M,10.00,M,M,M,M,M,M,M,M,M,M,M,M,M,M,M,M,26.97,K05U 032030Z AUTO 03007KT 10SM 01/M01 A2986 RMK A01,M
BVU,2024-01-03 20:35,-114.8611,35.9475,671.00,46.40,39.20,75.84,100.00,8.00,0.00,29.91,M,10.00,13.00,CLR,M,M,M,M,M,M,M,M,M,M,M,M,M,M,41.85,KBVU 032035Z AUTO 10008G13KT 10SM CLR 08/04 A2991 RMK AO2,M
CXP,2024-01-03 20:35,-119.7326,39.1923,1431.00,39.20,23.00,51.89,290.00,8.00,0.00,29.99,M,10.00,14.00,FEW,FEW,OVC,M,4300.00,5500.00,8000.00,M,M,M,M,M,M,M,M,32.98,KCXP 032035Z AUTO 29008G14KT 10SM FEW043 FEW055 OVC080 04/M05 A2999 RMK AO2,M
RTS,2024-01-03 20:35,-119.8764,39.6682,1539.00,35.60,24.80,64.46,310.00,15.00,0.00,30.00,M,7.00,20.00,FEW,SCT,SCT,M,3700.00,4400.00,5500.00,M,-SN,M,M,M,M,M,M,25.45,KRTS 032035Z AUTO 31015G20KT 7SM -SN FEW037 SCT044 SCT055 02/M04 A3000 RMK AO2,M
MEV,2024-01-03 20:35,-119.7500,38.9963,1441.42,41.00,21.20,44.85,M,5.00,0.00,29.97,M,10.00,M,FEW,SCT,M,M,7000.00,8000.00,M,M,M,M,M,M,M,M,M,37.08,KMEV 032035Z AUTO VRB05KT 10SM FEW070 SCT080 05/M06 A2997 RMK AO2,M
HTH,2024-01-03 20:35,-118.6315,38.5448,1282.89,44.60,19.40,36.18,340.00,11.00,0.00,29.95,M,10.00,18.00,CLR,M,M,M,M,M,M,M,M,M,M,M,M,M,M,38.39,KHTH 032035Z AUTO 34011G18KT 10SM CLR 07/M07 A2995 RMK A01,M
BAM,2024-01-03 20:35,-116.8743,40.5990,1382.36,33.80,33.80,100.00,240.00,6.00,0.00,29.91,M,5.00,M,BKN,OVC,M,M,700.00,1800.00,M,M,M,M,M,M,M,M,M,27.70,KBAM 032035Z AUTO 24006KT 5SM BKN007 OVC018 01/01 A2991 RMK AO1,M
TMT,2024-01-03 20:35,-117.1971,39.4643,1749.34,31.50,27.50,84.95,270.00,7.00,0.00,29.90,M,7.00,M,SCT,OVC,M,M,2000.00,3100.00,M,M,-SN,M,M,M,M,M,M,24.17,KTMT 032035Z AUTO 27007KT 7SM -SN SCT020 OVC031 00/M02 A2990 RMK AO2 T10031025,M
ELY,2024-01-03 20:36,-114.8453,39.2950,1909.00,30.00,27.00,88.44,180.00,12.00,0.01,29.83,M,2.00,M,FEW,BKN,OVC,M,700.00,2400.00,3400.00,M,-SN BR,M,M,M,M,M,M,19.46,KELY 032036Z AUTO 18012KT 2SM -SN BR FEW007 BKN024 OVC034 M01/M03 A2983 RMK AO2 P0001 T10111028,M
10U,2024-01-03 20:40,-116.1876,41.9532,1637.00,33.80,32.00,93.03,350.00,4.00,0.00,29.87,M,2.50,M,SCT,SCT,BKN,M,800.00,1200.00,1700.00,M,-SN,M,M,M,M,M,M,29.52,K10U 032040Z AUTO 35004KT 2 1/2SM -SN SCT008 SCT012 BKN017 01/M00 A2987 RMK AO2,M
05U,2024-01-03 20:40,-116.0051,39.6042,1811.23,33.80,30.20,86.49,30.00,6.00,0.00,29.86,M,9.00,M,M,M,M,M,M,M,M,M,M,M,M,M,M,M,M,27.70,K05U 032040Z AUTO 03006KT 9SM 01/M01 A2986 RMK A01,M
INS,2024-01-03 20:49,-115.6733,36.5872,955.00,46.40,35.60,65.83,60.00,4.00,0.00,29.88,1011.30,10.00,M,BKN,BKN,M,M,5500.00,15000.00,M,M,-RA,M,M,M,M,M,M,44.24,KINS 032049Z AUTO 06004KT 10SM -RA BKN055 BKN150 08/02 A2988 RMK AO2 RAB49 SLP113 $,M
P68,2024-01-03 20:53,-116.0056,39.6014,1993.00,32.00,29.00,88.53,250.00,6.00,0.00,29.83,1009.70,M,M,M,M,M,M,M,M,M,M,M,M,M,M,M,M,M,25.53,KP68 032053Z AUTO 25006KT 00/M02 A2983 RMK AO1 SLP097 60003 T00001017 55016,M
DRA,2024-01-03 20:53,-116.0278,36.6206,1009.00,48.00,32.00,53.67,210.00,9.00,0.00,29.87,1010.30,10.00,M,CLR,M,M,M,M,M,M,M,M,M,M,M,26.00,230.00,2024-01-03 19:58,43.41,KDRA 032053Z AUTO 21009KT 10SM CLR 09/00 A2987 RMK AO2 PK WND 23026/1958 SLP103 T00890000 58015,M
ELY,2024-01-03 20:53,-114.8453,39.2950,1909.00,31.00,28.00,88.48,180.00,10.00,0.01,29.83,1010.00,2.00,M,FEW,BKN,OVC,M,900.00,2600.00,3400.00,M,-SN BR,M,M,M,M,M,M,21.71,KELY 032053Z AUTO 18010KT 2SM -SN BR FEW009 BKN026 OVC034 M01/M02 A2983 RMK AO2 SLP100 P0001 60001 T10061022 58020,M
VGT,2024-01-03 20:53,-115.1933,36.2111,667.00,49.00,39.00,68.25,150.00,16.00,0.00,29.86,1013.30,10.00,M,CLR,M,M,M,M,M,M,M,M,M,M,M,M,M,M,42.58,KVGT 032053Z 15016KT 10SM CLR 09/04 A2986 RMK AO2 SLP133 60001 T00940039 56041,M
LOL,2024-01-03 20:53,-118.5701,40.0684,1192.43,35.00,31.00,85.17,320.00,13.00,0.00,29.95,1016.00,10.00,M,OVC,M,M,M,5500.00,M,M,M,M,M,M,M,M,M,M,25.41,KLOL 032053Z AUTO 32013KT 10SM OVC055 02/M01 A2995 RMK AO2 SLP160 60000 T00171006 58009,M
BVU,2024-01-03 20:55,-114.8611,35.9475,671.00,46.40,39.20,75.84,130.00,8.00,0.00,29.90,M,10.00,M,CLR,M,M,M,M,M,M,M,M,M,M,M,M,M,M,41.85,KBVU 032055Z AUTO 13008KT 10SM CLR 08/04 A2990 RMK AO2,M
CXP,2024-01-03 20:55,-119.7326,39.1923,1431.00,39.20,23.00,51.89,320.00,10.00,0.00,29.99,M,10.00,M,OVC,M,M,M,8000.00,M,M,M,M,M,M,M,M,M,M,32.00,KCXP 032055Z AUTO 32010KT 270V020 10SM OVC080 04/M05 A2999 RMK AO2,M
INS,2024-01-03 20:55,-115.6733,36.5872,955.00,46.40,36.00,66.88,80.00,5.00,T,29.87,1011.20,10.00,M,FEW,SCT,BKN,OVC,1800.00,3700.00,5500.00,15000.00,-RA,M,M,M,M,M,M,43.50,KINS 032055Z AUTO 08005KT 10SM -RA FEW018 SCT037 BKN055 OVC150 08/02 A2987 RMK AO2 RAB49 SLP112 P0000 60000 T00800022 57015 $,M
RNO,2024-01-03 20:55,-119.7711,39.4839,1341.00,44.00,22.00,41.34,300.00,12.00,0.00,29.98,1014.50,10.00,28.00,BKN,BKN,M,M,5000.00,12000.00,M,M,M,M,M,M,28.00,310.00,2024-01-03 20:47,37.27,KRNO 032055Z 30012G28KT 10SM BKN050 BKN120 07/M06 A2998 RMK AO2 PK WND 31028/2047 SLP145 SH DSNT SE T00671056 58010,M
RTS,2024-01-03 20:55,-119.8764,39.6682,1539.00,35.60,26.60,69.46,310.00,12.00,0.00,30.00,M,9.00,17.00,FEW,SCT,SCT,M,3600.00,4600.00,10000.00,M,M,M,M,M,M,M,M,26.58,KRTS 032055Z AUTO 31012G17KT 9SM FEW036 SCT046 SCT100 02/M03 A3000 RMK AO2,M
MEV,2024-01-03 20:55,-119.7500,38.9963,1441.42,41.00,21.20,44.85,280.00,9.00,0.00,29.98,M,10.00,M,FEW,SCT,BKN,M,4800.00,6500.00,7500.00,M,M,M,M,M,M,M,M,34.70,KMEV 032055Z AUTO 28009KT 10SM FEW048 SCT065 BKN075 05/M06 A2998 RMK AO2,M
HTH,2024-01-03 20:55,-118.6315,38.5448,1282.89,42.80,21.20,41.84,330.00,19.00,0.00,29.95,M,10.00,25.00,FEW,M,M,M,7000.00,M,M,M,M,M,M,M,M,M,M,33.72,KHTH 032055Z AUTO 33019G25KT 10SM FEW070 06/M06 A2995 RMK A01,M
BAM,2024-01-03 20:55,-116.8743,40.5990,1382.36,35.60,33.80,93.08,230.00,9.00,0.00,29.90,M,7.00,M,BKN,OVC,M,M,700.00,1400.00,M,M,M,M,M,M,M,M,M,27.99,KBAM 032055Z AUTO 23009KT 7SM BKN007 OVC014 02/01 A2990 RMK AO1,M
TMT,2024-01-03 20:55,-117.1971,39.4643,1749.34,30.40,27.70,89.55,240.00,5.00,0.00,29.91,M,7.00,M,SCT,SCT,OVC,M,1200.00,1700.00,2900.00,M,-SN,M,M,M,M,M,M,24.50,KTMT 032055Z AUTO 24005KT 7SM -SN SCT012 SCT017 OVC029 M01/M02 A2991 RMK AO2 T10091024,M
EKO,2024-01-03 20:56,-115.7860,40.8242,1367.00,35.00,31.00,85.17,M,3.00,0.00,29.85,1011.90,10.00,M,SCT,OVC,M,M,800.00,1500.00,M,M,M,M,M,M,M,M,M,32.12,KEKO 032056Z AUTO VRB03KT 10SM SCT008 OVC015 02/M01 A2985 RMK AO2 SLP119 T00171006 57015,M
WMC,2024-01-03 20:56,-117.8072,40.9019,1315.00,34.00,31.00,88.63,270.00,11.00,0.04,29.91,1014.00,0.75,M,SCT,OVC,M,M,800.00,1300.00,M,M,-SN BR,M,M,M,M,M,M,24.99,KWMC 032056Z AUTO 27011KT 3/4SM -SN BR SCT008 OVC013 01/M01 A2991 RMK AO2 SLP140 P0004 60016 T00111006 57001,M
NFL,2024-01-03 20:56,-118.7010,39.4166,1199.00,41.00,29.00,62.04,330.00,9.00,T,29.96,1011.90,10.00,17.00,SCT,BKN,BKN,M,1000.00,3500.00,4600.00,M,-RASN,M,M,M,M,M,M,34.70,KNFL 032056Z 33009G17KT 10SM -RASN SCT010 BKN035 BKN046 05/M02 A2996 RMK AO2 RAB52SNB54 SLP119 P0000 60000 T00501017 56012,M
HND,2024-01-03 20:56,-115.1344,35.9729,742.79,48.00,37.00,65.51,190.00,13.00,0.00,29.91,1014.50,10.00,M,CLR,M,M,M,M,M,M,M,M,M,M,M,M,M,M,42.07,KHND 032056Z 19013KT 10SM CLR 09/03 A2991 RMK AO2 SLP145 60005 T00890028 56038,M
TPH,2024-01-03 20:56,-117.0904,38.0505,1654.00,35.00,25.00,66.57,320.00,22.00,T,29.88,1012.40,10.00,30.00,SCT,SCT,OVC,M,3400.00,4900.00,8500.00,M,M,M,M,M,32.00,320.00,2024-01-03 20:45,22.60,KTPH 032056Z AUTO 32022G30KT 10SM SCT034 SCT049 OVC085 02/M04 A2988 RMK AO2 PK WND 32032/2045 UPE04RAB31E35SNB26E49 SLP124 P0000 60000 T00171039 56015,M
LAS,2024-01-03 20:56,-115.1634,36.0719,663.00,49.00,39.00,68.25,180.00,9.00,0.00,29.88,1011.60,10.00,18.00,FEW,FEW,BKN,M,4000.00,6000.00,15000.00,M,M,M,M,M,M,M,M,44.65,KLAS 032056Z 18009G18KT 10SM FEW040 FEW060 BKN150 09/04 A2988 RMK AO2 SLP116 60004 T00940039 56039,M
LSV,2024-01-03 20:59,-115.0343,36.2362,570.00,50.00,39.70,67.57,110.00,9.00,0.00,29.86,1011.00,10.00,M,BKN,M,M,M,8000.00,M,M,M,M,M,M,M,M,M,M,50.00,KLSV 032059Z 11009KT 10SM BKN080 10/04 A2986 RMK SLP110 60003 T00990043 57037 $,M
10U,2024-01-03 21:00,-116.1876,41.9532,1637.00,33.80,32.00,93.03,350.00,6.00,0.00,29.87,M,4.00,M,SCT,BKN,BKN,M,500.00,1700.00,4700.00,M,UP,M,M,M,M,M,M,27.70,K10U 032100Z AUTO 35006KT 4SM UP SCT005 BKN017 BKN047 01/M00 A2987 RMK AO2,M
ELY,2024-01-03 21:05,-114.8453,39.2950,1909.00,30.00,27.00,88.44,200.00,10.00,0.01,29.82,M,1.75,M,FEW,BKN,OVC,M,1000.00,2800.00,3300.00,M,-SN BR,M,M,M,M,M,M,20.46,KELY 032105Z AUTO 20010KT 1 3/4SM -SN BR FEW010 BKN028 OVC033 M01/M03 A2982 RMK AO2 P0001 T10111028,M
INS,2024-01-03 21:08,-115.6733,36.5872,955.00,46.40,35.60,65.83,90.00,4.00,0.00,29.87,1010.90,10.00,M,FEW,FEW,BKN,BKN,1800.00,3500.00,4700.00,5500.00,M,M,M,M,M,M,M,44.24,KINS 032108Z AUTO 09004KT 10SM FEW018 FEW035 BKN047 BKN055 BKN080 OVC100 08/02 A2987 RMK AO2 RAE08 SLP109 $,M
WMC,2024-01-03 21:11,-117.8072,40.9019,1315.00,34.00,31.00,88.63,270.00,13.00,0.01,29.91,M,1.00,M,VV ,M,M,M,900.00,M,M,M,-SN BR,M,M,M,M,M,M,24.13,KWMC 032111Z AUTO 27013KT 1SM -SN BR VV009 01/M01 A2991 RMK AO2 P0001 T00111006,M
ELY,2024-01-03 21:14,-114.8453,39.2950,1909.00,31.00,27.00,84.92,180.00,10.00,0.01,29.82,M,3.00,M,FEW,BKN,OVC,M,1100.00,2800.00,3500.00,M,-SN BR,M,M,M,M,M,M,21.71,KELY 032114Z AUTO 18010KT 3SM -SN BR FEW011 BKN028 OVC035 M01/M03 A2982 RMK AO2 P0001 T10061028,M
BVU,2024-01-03 21:15,-114.8611,35.9475,671.00,46.40,39.20,75.84,120.00,7.00,0.00,29.89,M,10.00,M,CLR,M,M,M,M,M,M,M,M,M,M,M,M,M,M,42.33,KBVU 032115Z AUTO 12007KT 10SM CLR 08/04 A2989 RMK AO2,M
CXP,2024-01-03 21:15,-119.7326,39.1923,1431.00,39.20,24.80,55.95,290.00,6.00,0.00,29.99,M,10.00,M,SCT,BKN,BKN,M,6000.00,8000.00,10000.00,M,M,M,M,M,M,M,M,34.20,KCXP 032115Z AUTO 29006KT 10SM SCT060 BKN080 BKN100 04/M04 A2999 RMK AO2,M
RTS,2024-01-03 21:15,-119.8764,39.6682,1539.00,37.40,24.80,60.04,330.00,10.00,0.00,30.00,M,10.00,M,FEW,SCT,BKN,M,3400.00,4200.00,4900.00,M,M,M,M,M,M,M,M,29.74,KRTS 032115Z AUTO 33010KT 10SM FEW034 SCT042 BKN049 03/M04 A3000 RMK AO2,M
MEV,2024-01-03 21:15,-119.7500,38.9963,1441.42,41.00,21.20,44.85,300.00,11.00,0.00,29.98,M,10.00,M,FEW,BKN,BKN,M,4700.00,6000.00,7000.00,M,-RA,M,M,M,M,M,M,33.84,KMEV 032115Z AUTO 30011KT 10SM -RA FEW047 BKN060 BKN070 05/M06 A2998 RMK AO2,M
HTH,2024-01-03 21:15,-118.6315,38.5448,1282.89,42.80,23.00,45.14,350.00,15.00,0.00,29.95,M,10.00,M,FEW,M,M,M,7000.00,M,M,M,M,M,M,M,M,M,M,34.78,KHTH 032115Z AUTO 35015KT 10SM FEW070 06/M05 A2995 RMK A01,M
BAM,2024-01-03 21:15,-116.8743,40.5990,1382.36,35.60,33.80,93.08,240.00,8.00,0.00,29.91,M,10.00,M,SCT,OVC,M,M,700.00,1200.00,M,M,M,M,M,M,M,M,M,28.55,KBAM 032115Z AUTO 24008KT 10SM SCT007 OVC012 02/01 A2991 RMK AO1,M
TMT,2024-01-03 21:15,-117.1971,39.4643,1749.34,29.70,28.00,93.28,230.00,8.00,0.00,29.91,M,1.50,M,SCT,OVC,M,M,900.00,1400.00,M,M,-SN,M,M,M,M,M,M,21.28,KTMT 032115Z AUTO 23008KT 1 1/2SM -SN SCT009 OVC014 M01/M02 A2991 RMK AO2 T10131022,M
WMC,2024-01-03 21:18,-117.8072,40.9019,1315.00,33.00,31.00,92.25,270.00,11.00,0.01,29.91,M,1.00,19.00,SCT,OVC,M,M,600.00,1000.00,M,M,-SN BR,M,M,M,M,M,M,23.73,KWMC 032118Z AUTO 27011G19KT 1SM -SN BR SCT006 OVC010 01/M01 A2991 RMK AO2 P0001 T00061006,M
10U,2024-01-03 21:20,-116.1876,41.9532,1637.00,33.80,32.00,93.03,340.00,7.00,0.00,29.87,M,10.00,M,SCT,BKN,OVC,M,500.00,4600.00,5500.00,M,UP,M,M,M,M,M,M,26.97,K10U 032120Z AUTO 34007KT 10SM UP SCT005 BKN046 OVC055 01/M00 A2987 RMK AO2,M
EKO,2024-01-03 21:22,-115.7860,40.8242,1367.00,35.00,30.00,81.78,60.00,4.00,0.00,29.84,M,10.00,M,BKN,BKN,OVC,M,1000.00,1500.00,2200.00,M,M,M,M,M,M,M,M,30.92,KEKO 032122Z AUTO 06004KT 10SM BKN010 BKN015 OVC022 02/M01 A2984 RMK AO2 CIG 007V012 T00171011,M
EKO,2024-01-03 21:29,-115.7860,40.8242,1367.00,35.00,30.00,81.78,60.00,4.00,0.00,29.84,M,10.00,M,SCT,OVC,M,M,1200.00,2200.00,M,M,M,M,M,M,M,M,M,30.92,KEKO 032129Z AUTO 06004KT 10SM SCT012 OVC022 02/M01 A2984 RMK AO2 T00171011,M
BVU,2024-01-03 21:35,-114.8611,35.9475,671.00,46.40,41.00,81.34,130.00,7.00,0.00,29.89,M,10.00,M,CLR,M,M,M,M,M,M,M,M,M,M,M,M,M,M,42.33,KBVU 032135Z AUTO 13007KT 10SM CLR 08/05 A2989 RMK AO2 LTG DSNT NW,M
CXP,2024-01-03 21:35,-119.7326,39.1923,1431.00,41.00,21.20,44.85,320.00,6.00,0.00,29.99,M,10.00,M,FEW,SCT,BKN,M,4900.00,6000.00,8000.00,M,M,M,M,M,M,M,M,36.37,KCXP 032135Z AUTO 32006KT 10SM FEW049 SCT060 BKN080 05/M06 A2999 RMK AO2,M
WMC,2024-01-03 21:35,-117.8072,40.9019,1315.00,33.00,31.00,92.25,270.00,11.00,0.02,29.92,M,1.25,M,SCT,OVC,M,M,500.00,900.00,M,M,-SN BR,M,M,M,M,M,M,23.73,KWMC 032135Z AUTO 27011KT 1 1/4SM -SN BR SCT005 OVC009 01/M01 A2992 RMK AO2 P0002 T00061006,M
RTS,2024-01-03 21:35,-119.8764,39.6682,1539.00,37.40,23.00,55.68,310.00,10.00,0.00,30.00,M,10.00,16.00,BKN,BKN,OVC,M,3700.00,4300.00,4900.00,M,M,M,M,M,M,M,M,29.74,KRTS 032135Z AUTO 31010G16KT 10SM BKN037 BKN043 OVC049 03/M05 A3000 RMK AO2,M
MEV,2024-01-03 21:35,-119.7500,38.9963,1441.42,41.00,21.20,44.85,300.00,8.00,0.00,29.98,M,10.00,M,FEW,SCT,OVC,M,4300.00,4900.00,5500.00,M,M,M,M,M,M,M,M,35.20,KMEV 032135Z AUTO 30008KT 10SM FEW043 SCT049 OVC055 05/M06 A2998 RMK AO2,M
BAM,2024-01-03 21:35,-116.8743,40.5990,1382.36,35.60,33.80,93.08,250.00,6.00,0.00,29.89,M,5.00,M,SCT,OVC,M,M,700.00,1200.00,M,M,M,M,M,M,M,M,M,29.87,KBAM 032135Z AUTO 25006KT 5SM SCT007 OVC012 02/01 A2989 RMK AO1,M
HTH,2024-01-03 21:35,-118.6315,38.5448,1282.89,44.60,21.20,39.06,340.00,19.00,0.00,29.94,M,10.00,25.00,CLR,M,M,M,M,M,M,M,M,M,M,M,M,M,M,36.10,KHTH 032135Z AUTO 34019G25KT 10SM CLR 07/M06 A2994 RMK A01,M
TMT,2024-01-03 21:35,-117.1971,39.4643,1749.34,29.30,28.00,94.82,210.00,10.00,0.00,29.91,M,1.25,M,SCT,OVC,M,M,500.00,1100.00,M,M,-SN,M,M,M,M,M,M,19.58,KTMT 032135Z AUTO 21010KT 1 1/4SM -SN SCT005 OVC011 M01/M02 A2991 RMK AO2 LTG DSNT S T10151022,M
10U,2024-01-03 21:40,-116.1876,41.9532,1637.00,33.80,30.20,86.49,350.00,6.00,0.00,29.87,M,3.00,M,SCT,BKN,OVC,M,700.00,2600.00,5500.00,M,-SN,M,M,M,M,M,M,27.70,K10U 032140Z AUTO 35006KT 3SM -SN SCT007 BKN026 OVC055 01/M01 A2987 RMK AO2,M
ELY,2024-01-03 21:44,-114.8453,39.2950,1909.00,31.00,27.00,84.92,190.00,10.00,0.01,29.82,M,2.50,M,BKN,OVC,M,M,2600.00,3600.00,M,M,-SN BR,M,M,M,M,M,M,21.71,KELY 032144Z AUTO 19010KT 2 1/2SM -SN BR BKN026 OVC036 M01/M03 A2982 RMK AO2 P0001 T10061028,M
05U,2024-01-03 21:50,-116.0051,39.6042,1811.23,32.00,30.20,92.97,150.00,5.00,0.00,29.86,M,0.25,M,M,M,M,M,M,M,M,M,FG,M,M,M,M,M,M,26.40,K05U 032150Z AUTO 15005KT 1/4SM FG 00/M01 A2986 RMK A01,M
DRA,2024-01-03 21:51,-116.0278,36.6206,1009.00,39.20,33.80,80.79,320.00,11.00,0.01,29.91,M,9.00,M,BKN,BKN,OVC,M,3900.00,4900.00,6000.00,M,-RA,M,M,M,30.00,310.00,2024-01-03 21:37,31.57,KDRA 032151Z AUTO 32011KT 9SM -RA BKN039 BKN049 OVC060 04/01 A2991 RMK AO2 PK WND 31030/2137 WSHFT 2134 RAB41 P0001,M
P68,2024-01-03 21:53,-116.0056,39.6014,1993.00,32.00,30.00,92.22,330.00,6.00,0.05,29.83,1009.50,M,M,M,M,M,M,M,M,M,M,M,M,M,M,M,M,M,25.53,KP68 032153Z AUTO 33006KT 00/M01 A2983 RMK AO1 SLP095 P0005 T00001011,M
DRA,2024-01-03 21:53,-116.0278,36.6206,1009.00,39.00,33.00,78.86,330.00,8.00,0.01,29.91,1012.20,9.00,18.00,BKN,OVC,M,M,4100.00,5500.00,M,M,RA,M,M,M,30.00,310.00,2024-01-03 21:37,32.74,KDRA 032153Z AUTO 33008G18KT 9SM RA BKN041 OVC055 04/01 A2991 RMK AO2 PK WND 31030/2137 WSHFT 2134 RAB41 SLP122 P0001 T00390006,M
ELY,2024-01-03 21:53,-114.8453,39.2950,1909.00,31.00,27.00,84.92,190.00,8.00,0.01,29.82,1009.80,2.00,M,BKN,OVC,M,M,2400.00,3400.00,M,M,-SN BR,M,M,M,M,M,M,22.88,KELY 032153Z AUTO 19008KT 2SM -SN BR BKN024 OVC034 M01/M03 A2982 RMK AO2 SLP098 P0001 T10061028,M
VGT,2024-01-03 21:53,-115.1933,36.2111,667.00,51.00,39.00,63.36,60.00,10.00,0.00,29.87,1013.30,10.00,M,SCT,BKN,M,M,8000.00,10000.00,M,M,M,M,M,M,M,M,M,51.00,KVGT 032153Z 06010KT 10SM SCT080 BKN100 11/04 A2987 RMK AO2 SLP133 T01060039,M
LOL,2024-01-03 21:53,-118.5701,40.0684,1192.43,36.00,31.00,81.86,330.00,10.00,0.00,29.95,1016.10,10.00,M,FEW,OVC,M,M,4400.00,6500.00,M,M,M,M,M,M,M,M,M,27.98,KLOL 032153Z AUTO 33010KT 10SM FEW044 OVC065 02/M01 A2995 RMK AO2 SLP161 T00221006,M
BVU,2024-01-03 21:55,-114.8611,35.9475,671.00,48.20,41.00,76.01,160.00,8.00,0.00,29.89,M,10.00,M,CLR,M,M,M,M,M,M,M,M,M,M,M,M,M,M,44.07,KBVU 032155Z AUTO 16008KT 10SM CLR 09/05 A2989 RMK AO2,M
CXP,2024-01-03 21:55,-119.7326,39.1923,1431.00,41.00,23.00,48.39,290.00,7.00,0.00,29.99,M,10.00,17.00,SCT,SCT,SCT,M,5000.00,6000.00,8000.00,M,M,M,M,M,M,M,M,35.75,KCXP 032155Z AUTO 29007G17KT 10SM SCT050 SCT060 SCT080 05/M05 A2999 RMK AO2,M
INS,2024-01-03 21:55,-115.6733,36.5872,955.00,44.40,34.50,67.98,330.00,21.00,T,29.90,1012.20,10.00,26.00,FEW,SCT,BKN,OVC,1300.00,5000.00,6500.00,10000.00,M,M,M,M,M,M,M,35.39,KINS 032155Z AUTO 33021G26KT 10SM FEW013 SCT050 BKN065 OVC100 07/01 A2990 RMK AO2 RAE08 SLP122 P0000 T00690014 $,M
RNO,2024-01-03 21:55,-119.7711,39.4839,1341.00,43.00,22.00,42.95,300.00,13.00,0.00,29.99,1015.10,10.00,23.00,BKN,BKN,M,M,5000.00,12000.00,M,M,M,M,M,M,28.00,330.00,2024-01-03 21:11,35.66,KRNO 032155Z 30013G23KT 10SM BKN050 BKN120 06/M06 A2999 RMK AO2 PK WND 33028/2111 SLP151 T00611056,M
RTS,2024-01-03 21:55,-119.8764,39.6682,1539.00,37.40,23.00,55.68,300.00,11.00,0.00,30.00,M,10.00,17.00,BKN,BKN,OVC,M,3600.00,4200.00,4900.00,M,M,M,M,M,M,M,M,29.29,KRTS 032155Z AUTO 30011G17KT 10SM BKN036 BKN042 OVC049 03/M05 A3000 RMK AO2,M
MEV,2024-01-03 21:55,-119.7500,38.9963,1441.42,39.20,23.00,51.89,310.00,5.00,0.00,29.98,M,10.00,M,BKN,OVC,M,M,5000.00,6500.00,M,M,M,M,M,M,M,M,M,34.95,KMEV 032155Z AUTO 31005KT 10SM BKN050 OVC065 04/M05 A2998 RMK AO2,M
HTH,2024-01-03 21:55,-118.6315,38.5448,1282.89,42.80,23.00,45.14,330.00,19.00,0.00,29.95,M,10.00,M,CLR,M,M,M,M,M,M,M,M,M,M,M,M,M,M,33.72,KHTH 032155Z AUTO 33019KT 10SM CLR 06/M05 A2995 RMK A01,M
BAM,2024-01-03 21:55,-116.8743,40.5990,1382.36,35.60,33.80,93.08,250.00,3.00,0.00,29.90,M,2.00,M,OVC,M,M,M,1000.00,M,M,M,M,M,M,M,M,M,M,32.80,KBAM 032155Z AUTO 25003KT 2SM OVC010 02/01 A2990 RMK AO1,M
TMT,2024-01-03 21:55,-117.1971,39.4643,1749.34,29.30,28.20,95.60,210.00,11.00,0.00,29.91,M,1.25,M,SCT,OVC,M,M,600.00,1100.00,M,M,-SN,M,M,M,M,M,M,19.05,KTMT 032155Z AUTO 21011KT 1 1/4SM -SN SCT006 OVC011 M01/M02 A2991 RMK AO2 T10151021,M
LSV,2024-01-03 21:55,-115.0343,36.2362,570.00,50.50,39.60,66.07,90.00,11.00,0.00,29.85,1010.70,10.00,M,BKN,M,M,M,15000.00,M,M,M,M,M,M,M,M,M,M,50.50,KLSV 032155Z 09011KT 10SM BKN150 10/04 A2985 RMK SLP107 T01030042 $,M
EKO,2024-01-03 21:56,-115.7860,40.8242,1367.00,35.00,30.00,81.78,70.00,3.00,0.00,29.85,1012.40,10.00,M,BKN,OVC,M,M,1500.00,2200.00,M,M,M,M,M,M,M,M,M,32.12,KEKO 032156Z AUTO 07003KT 10SM BKN015 OVC022 02/M01 A2985 RMK AO2 SLP124 T00171011,M
WMC,2024-01-03 21:56,-117.8072,40.9019,1315.00,33.00,31.00,92.25,280.00,12.00,0.03,29.92,1014.50,1.00,M,BKN,OVC,M,M,500.00,900.00,M,M,-SN BR,M,M,M,M,M,M,23.27,KWMC 032156Z AUTO 28012KT 1SM -SN BR BKN005 OVC009 01/M01 A2992 RMK AO2 SLP145 P0003 T00061006,M
NFL,2024-01-03 21:56,-118.7010,39.4166,1199.00,38.00,31.00,75.65,300.00,8.00,T,29.98,1012.30,10.00,18.00,SCT,BKN,OVC,M,1000.00,3000.00,6000.00,M,-RA,M,M,M,M,M,M,31.50,KNFL 032156Z 30008G18KT 10SM -RA SCT010 BKN030 OVC060 03/M01 A2998 RMK AO2 RAE16B43SNE12 SLP123 WR// P0000 T00331006,M
HND,2024-01-03 21:56,-115.1344,35.9729,742.79,51.00,35.00,54.12,180.00,13.00,0.00,29.88,1013.80,10.00,M,SCT,M,M,M,6000.00,M,M,M,M,M,M,M,M,M,M,51.00,KHND 032156Z 18013KT 10SM SCT060 11/02 A2988 RMK AO2 SLP138 T01060017,M
TPH,2024-01-03 21:56,-117.0904,38.0505,1654.00,36.00,24.00,61.37,320.00,25.00,0.00,29.87,1011.50,10.00,38.00,OVC,M,M,M,9000.00,M,M,M,M,M,M,M,42.00,310.00,2024-01-03 21:35,23.23,KTPH 032156Z AUTO 32025G38KT 10SM OVC090 02/M04 A2987 RMK AO2 PK WND 31042/2135 SLP115 T00221044,M
LAS,2024-01-03 21:56,-115.1634,36.0719,663.00,52.00,35.00,52.15,180.00,9.00,0.00,29.86,1010.60,10.00,20.00,FEW,SCT,BKN,M,4000.00,6000.00,15000.00,M,M,M,M,M,M,M,M,52.00,KLAS 032156Z 18009G20KT 10SM FEW040 SCT060 BKN150 11/02 A2986 RMK AO2 SLP106 CB DSNT NW T01110017,M
INS,2024-01-03 21:58,-115.6733,36.5872,955.00,41.00,33.80,75.33,340.00,21.00,0.00,29.90,1012.40,10.00,27.00,FEW,SCT,BKN,BKN,1300.00,2100.00,5000.00,6500.00,-RA,M,M,M,M,M,M,30.86,KINS 032158Z AUTO 34021G27KT 10SM -RA FEW013 SCT021 BKN050 BKN065 OVC100 05/01 A2990 RMK AO2 RAB58 SLP124 $,M
10U,2024-01-03 22:00,-116.1876,41.9532,1637.00,33.80,30.20,86.49,340.00,5.00,0.00,29.87,M,5.00,M,SCT,SCT,OVC,M,700.00,4000.00,5000.00,M,-SN,M,M,M,M,M,M,28.53,K10U 032200Z AUTO 34005KT 5SM -SN SCT007 SCT040 OVC050 01/M01 A2987 RMK AO2,M
INS,2024-01-03 22:03,-115.6733,36.5872,955.00,41.00,33.80,75.33,330.00,15.00,0.00,29.90,1012.40,10.00,27.00,FEW,SCT,BKN,BKN,1400.00,2100.00,2700.00,5000.00,-RA,M,M,M,M,M,M,32.45,KINS 032203Z AUTO 33015G27KT 10SM -RA FEW014 SCT021 BKN027 BKN050 OVC070 05/01 A2990 RMK AO2 RAB2158 CIG 027V065 BKN027 V SCT SLP124 $,M
ELY,2024-01-03 22:03,-114.8453,39.2950,1909.00,30.00,27.00,88.44,180.00,7.00,T,29.82,M,1.75,M,BKN,OVC,M,M,2200.00,2800.00,M,M,-SN BR,M,M,M,M,M,M,22.34,KELY 032203Z AUTO 18007KT 1 3/4SM -SN BR BKN022 OVC028 M01/M03 A2982 RMK AO2 P0000 T10111028,M
05U,2024-01-03 22:05,-116.0051,39.6042,1811.23,32.00,32.00,100.00,0.00,0.00,0.00,29.86,M,0.25,M,M,M,M,M,M,M,M,M,FG,M,M,M,M,M,M,32.00,K05U 032205Z AUTO 00000KT 1/4SM FG 00/M00 A2986 RMK A01,M
BVU,2024-01-03 22:15,-114.8611,35.9475,671.00,50.00,39.20,66.27,150.00,7.00,0.00,29.89,M,10.00,M,CLR,M,M,M,M,M,M,M,M,M,M,M,M,M,M,50.00,KBVU 032215Z AUTO 15007KT 10SM CLR 10/04 A2989 RMK AO2,M
CXP,2024-01-03 22:15,-119.7326,39.1923,1431.00,42.80,21.20,41.84,320.00,7.00,0.00,29.99,M,10.00,M,SCT,BKN,BKN,M,4600.00,5000.00,8000.00,M,M,M,M,M,M,M,M,37.94,KCXP 032215Z AUTO 32007KT 280V340 10SM SCT046 BKN050 BKN080 06/M06 A2999 RMK AO2,M
RTS,2024-01-03 22:15,-119.8764,39.6682,1539.00,37.40,23.00,55.68,310.00,13.00,0.00,30.01,M,10.00,18.00,SCT,BKN,OVC,M,3500.00,4100.00,4900.00,M,M,M,M,M,M,M,M,28.49,KRTS 032215Z AUTO 31013G18KT 10SM SCT035 BKN041 OVC049 03/M05 A3001 RMK AO2,M
MEV,2024-01-03 22:15,-119.7500,38.9963,1441.42,41.00,24.80,52.17,320.00,8.00,0.00,29.99,M,10.00,M,BKN,OVC,M,M,4700.00,5000.00,M,M,M,M,M,M,M,M,M,35.20,KMEV 032215Z AUTO 32008KT 10SM BKN047 OVC050 05/M04 A2999 RMK AO2,M
HTH,2024-01-03 22:15,-118.6315,38.5448,1282.89,42.80,23.00,45.14,330.00,13.00,0.00,29.95,M,10.00,22.00,FEW,M,M,M,8000.00,M,M,M,M,M,M,M,M,M,M,35.40,KHTH 032215Z AUTO 33013G22KT 10SM FEW080 06/M05 A2995 RMK A01,M
BAM,2024-01-03 22:15,-116.8743,40.5990,1382.36,35.60,33.80,93.08,240.00,4.00,0.00,29.91,M,2.50,M,OVC,M,M,M,1000.00,M,M,M,M,M,M,M,M,M,M,31.62,KBAM 032215Z AUTO 24004KT 2 1/2SM OVC010 02/01 A2991 RMK AO1,M
10U,2024-01-03 22:20,-116.1876,41.9532,1637.00,32.00,30.20,92.97,360.00,7.00,0.00,29.88,M,6.00,M,SCT,BKN,OVC,M,800.00,3300.00,5000.00,M,UP,M,M,M,M,M,M,24.78,K10U 032220Z AUTO 36007KT 6SM UP SCT008 BKN033 OVC050 00/M01 A2988 RMK AO2,M
ELY,2024-01-03 22:20,-114.8453,39.2950,1909.00,30.00,27.00,88.44,200.00,6.00,T,29.82,M,1.25,M,OVC,M,M,M,2000.00,M,M,M,-SN BR,M,M,M,M,M,M,23.12,KELY 032220Z AUTO 20006KT 1 1/4SM -SN BR OVC020 M01/M03 A2982 RMK AO2 P0000 T10111028,M
INS,2024-01-03 22:23,-115.6733,36.5872,955.00,37.40,33.80,86.69,340.00,10.00,0.00,29.93,1013.70,10.00,M,SCT,BKN,OVC,M,500.00,2300.00,3600.00,M,RA,M,M,M,M,M,M,29.74,KINS 032223Z AUTO 34010KT 10SM RA SCT005 BKN023 OVC036 03/01 A2993 RMK AO2 RAB2158 CIG 014V023 PRESRR SLP137 $,M
WMC,2024-01-03 22:25,-117.8072,40.9019,1315.00,33.00,31.00,92.25,280.00,12.00,0.01,29.93,M,1.00,M,SCT,OVC,M,M,500.00,1200.00,M,M,-SN BR,M,M,M,M,M,M,23.27,KWMC 032225Z AUTO 28012KT 1SM -SN BR SCT005 OVC012 01/M01 A2993 RMK AO2 P0001 T00061006,M
INS,2024-01-03 22:28,-115.6733,36.5872,955.00,37.40,33.80,86.69,310.00,5.00,0.00,29.93,1013.70,10.00,M,BKN,BKN,BKN,BKN,500.00,1400.00,2400.00,3500.00,-RA,M,M,M,M,M,M,32.81,KINS 032228Z AUTO 31005KT 10SM -RA BKN005 BKN014 BKN024 BKN035 OVC046 03/01 A2993 RMK AO2 RAB2158 CIG 005V023 BKN005 V SCT SLP137 $,M
INS,2024-01-03 22:33,-115.6733,36.5872,955.00,37.40,33.80,86.69,320.00,5.00,0.00,29.93,1013.70,10.00,M,SCT,SCT,BKN,BKN,500.00,1000.00,2400.00,3500.00,-RA,M,M,M,M,M,M,32.81,KINS 032233Z AUTO 32005KT 10SM -RA SCT005 SCT010 BKN024 BKN035 03/01 A2993 RMK AO2 RAB2158 CIG 005V024 SLP137 $,M
BVU,2024-01-03 22:35,-114.8611,35.9475,671.00,50.00,39.20,66.27,160.00,7.00,0.00,29.88,M,10.00,M,CLR,M,M,M,M,M,M,M,M,M,M,M,M,M,M,50.00,KBVU 032235Z AUTO 16007KT 10SM CLR 10/04 A2988 RMK AO2,M
CXP,2024-01-03 22:35,-119.7326,39.1923,1431.00,41.00,19.40,41.54,290.00,7.00,0.00,30.00,M,10.00,M,BKN,BKN,OVC,M,4800.00,5500.00,7000.00,M,M,M,M,M,M,M,M,35.75,KCXP 032235Z AUTO 29007KT 10SM BKN048 BKN055 OVC070 05/M07 A3000 RMK AO2,M
EKO,2024-01-03 22:35,-115.7860,40.8242,1367.00,34.00,30.00,85.11,220.00,3.00,T,29.86,M,5.00,M,BKN,BKN,OVC,M,1200.00,1700.00,2500.00,M,-SN BR,M,M,M,M,M,M,30.97,KEKO 032235Z AUTO 22003KT 5SM -SN BR BKN012 BKN017 OVC025 01/M01 A2986 RMK AO2 SNB28 P0000 T00111011,M
RTS,2024-01-03 22:35,-119.8764,39.6682,1539.00,37.40,23.00,55.68,300.00,13.00,0.00,30.02,M,10.00,M,BKN,OVC,M,M,4000.00,4800.00,M,M,M,M,M,M,M,M,M,28.49,KRTS 032235Z AUTO 30013KT 10SM BKN040 OVC048 03/M05 A3002 RMK AO2,M
MEV,2024-01-03 22:35,-119.7500,38.9963,1441.42,35.60,30.20,80.51,310.00,8.00,0.00,30.00,M,2.50,18.00,SCT,BKN,BKN,M,4400.00,5000.00,6000.00,M,-SN HZ,M,M,M,M,M,M,28.55,KMEV 032235Z AUTO 31008G18KT 2 1/2SM -SN HZ SCT044 BKN050 BKN060 02/M01 A3000 RMK AO2 VIS 1V5,M
HTH,2024-01-03 22:35,-118.6315,38.5448,1282.89,42.80,23.00,45.14,330.00,19.00,0.00,29.97,M,10.00,25.00,FEW,M,M,M,8000.00,M,M,M,M,M,M,M,M,M,M,33.72,KHTH 032235Z AUTO 33019G25KT 10SM FEW080 06/M05 A2997 RMK A01,M
BAM,2024-01-03 22:35,-116.8743,40.5990,1382.36,33.80,33.80,100.00,250.00,5.00,0.00,29.91,M,3.00,M,OVC,M,M,M,800.00,M,M,M,M,M,M,M,M,M,M,28.53,KBAM 032235Z AUTO 25005KT 3SM OVC008 01/01 A2991 RMK AO1,M
TMT,2024-01-03 22:35,-117.1971,39.4643,1749.34,29.30,28.20,95.60,210.00,8.00,0.00,29.92,M,0.75,M,BKN,OVC,M,M,600.00,1100.00,M,M,-SN,M,M,M,M,M,M,20.79,KTMT 032235Z AUTO 21008KT 3/4SM -SN BKN006 OVC011 M01/M02 A2992 RMK AO2 T10151021,M
INS,2024-01-03 22:38,-115.6733,36.5872,955.00,37.40,33.80,86.69,310.00,5.00,0.00,29.93,1013.70,10.00,M,SCT,SCT,BKN,OVC,500.00,1000.00,3700.00,4900.00,-RA,M,M,M,M,M,M,32.81,KINS 032238Z AUTO 31005KT 10SM -RA SCT005 SCT010 BKN037 OVC049 03/01 A2993 RMK AO2 RAB2158 SLP137 $,M
10U,2024-01-03 22:40,-116.1876,41.9532,1637.00,33.80,30.20,86.49,360.00,6.00,0.00,29.88,M,4.00,M,SCT,BKN,OVC,M,700.00,3200.00,4200.00,M,-SN,M,M,M,M,M,M,27.70,K10U 032240Z AUTO 36006KT 4SM -SN SCT007 BKN032 OVC042 01/M01 A2988 RMK AO2,M
EKO,2024-01-03 22:43,-115.7860,40.8242,1367.00,34.00,31.00,88.63,280.00,3.00,T,29.86,M,1.75,M,BKN,OVC,M,M,1000.00,1700.00,M,M,-SN BR,M,M,M,M,M,M,30.97,KEKO 032243Z AUTO 28003KT 1 3/4SM -SN BR BKN010 OVC017 01/M01 A2986 RMK AO2 SNB28 CIG 009V014 P0000 T00111006,M
WMC,2024-01-03 22:44,-117.8072,40.9019,1315.00,34.00,31.00,88.63,280.00,10.00,0.02,29.94,M,1.75,M,FEW,OVC,M,M,500.00,1200.00,M,M,-SN BR,M,M,M,M,M,M,25.48,KWMC 032244Z AUTO 28010KT 1 3/4SM -SN BR FEW005 OVC012 01/M01 A2994 RMK AO2 P0002 T00111006,M
LAS,2024-01-03 22:45,-115.1634,36.0719,663.00,52.00,36.00,54.26,340.00,19.00,0.00,29.85,M,10.00,29.00,FEW,SCT,BKN,BKN,3000.00,4000.00,7600.00,15000.00,M,M,M,M,29.00,310.00,2024-01-03 22:40,52.00,KLAS 032245Z 34019G29KT 10SM FEW030 SCT040 BKN076 BKN150 11/02 A2985 RMK AO2 PK WND 31029/2240 WSHFT 2225 VCSH W-N CB DSNT W-N MOV SE T01110022,M
LSV,2024-01-03 22:49,-115.0343,36.2362,570.00,50.00,39.20,66.27,90.00,5.00,0.00,29.87,1011.20,9.00,M,SCT,BKN,M,M,5000.00,12000.00,M,M,-SHRA,M,M,M,M,M,M,50.00,KLSV 032249Z 09005KT 9SM -SHRA SCT050 BKN120 10/04 A2987 RMK RAB45 SLP112 $,M
CXP,2024-01-03 22:50,-119.7326,39.1923,1431.00,42.80,19.40,38.75,280.00,8.00,0.00,30.01,M,10.00,15.00,BKN,OVC,M,M,5000.00,5500.00,M,M,M,M,M,M,M,M,M,37.42,KCXP 032250Z AUTO 28008G15KT 10SM BKN050 OVC055 06/M07 A3001 RMK AO2,M
WMC,2024-01-03 22:51,-117.8072,40.9019,1315.00,33.80,30.20,86.49,280.00,10.00,0.03,29.95,M,2.50,M,FEW,OVC,M,M,500.00,1200.00,M,M,-SN BR,M,M,M,M,M,M,25.23,KWMC 032251Z AUTO 28010KT 2 1/2SM -SN BR FEW005 OVC012 01/M01 A2995 RMK AO2 P0003,M
P68,2024-01-03 22:53,-116.0056,39.6014,1993.00,31.00,30.00,96.02,260.00,5.00,0.04,29.84,1010.10,M,M,M,M,M,M,M,M,M,M,M,M,M,M,M,M,M,25.21,KP68 032253Z AUTO 26005KT M01/M01 A2984 RMK AO1 SLP101 P0004 T10061011,M
DRA,2024-01-03 22:53,-116.0278,36.6206,1009.00,40.00,33.00,75.84,100.00,3.00,0.01,29.90,1011.90,10.00,M,FEW,SCT,OVC,M,6000.00,7500.00,10000.00,M,M,M,M,M,M,M,M,37.83,KDRA 032253Z AUTO 10003KT 10SM FEW060 SCT075 OVC100 04/01 A2990 RMK AO2 RAE07 SLP119 P0001 T00440006,M
ELY,2024-01-03 22:53,-114.8453,39.2950,1909.00,30.00,28.00,92.15,230.00,3.00,0.01,29.83,1010.30,1.50,M,FEW,BKN,OVC,M,600.00,2400.00,3500.00,M,-SN BR,M,M,M,M,M,M,26.40,KELY 032253Z AUTO 23003KT 1 1/2SM -SN BR FEW006 BKN024 OVC035 M01/M02 A2983 RMK AO2 SLP103 P0001 T10111022,M
VGT,2024-01-03 22:53,-115.1933,36.2111,667.00,50.00,41.00,71.07,70.00,10.00,0.00,29.87,1013.40,10.00,M,FEW,OVC,M,M,7000.00,8500.00,M,M,M,M,M,M,M,M,M,50.00,KVGT 032253Z 07010KT 10SM FEW070 OVC085 10/05 A2987 RMK AO2 SLP134 T01000050,M
LOL,2024-01-03 22:53,-118.5701,40.0684,1192.43,36.00,31.00,81.86,340.00,9.00,0.00,29.98,1016.90,10.00,M,BKN,OVC,M,M,6500.00,8000.00,M,M,M,M,M,M,M,M,M,28.49,KLOL 032253Z AUTO 34009KT 10SM BKN065 OVC080 02/M01 A2998 RMK AO2 SLP169 T00221006,M
INS,2024-01-03 22:54,-115.6733,36.5872,955.00,37.40,33.80,86.69,140.00,6.00,0.00,29.93,1013.70,10.00,M,FEW,FEW,SCT,OVC,900.00,2300.00,3100.00,5500.00,M,M,M,M,M,M,M,32.03,KINS 032254Z AUTO 14006KT 10SM FEW009 FEW023 SCT031 OVC055 03/01 A2993 RMK AO2 RAB2158E52DZB52E54 SLP137 $,M
EKO,2024-01-03 22:54,-115.7860,40.8242,1367.00,33.80,30.20,86.49,0.00,0.00,M,29.87,M,1.00,M,SCT,OVC,M,M,1000.00,1801.00,M,M,-SN BR,M,M,M,M,M,M,33.80,SPECI KEKO 032254Z 00000KT 1SM -SN BR SCT010 OVC018 01/M01 A2987 RMK AO2 SNB28 P0000 FIBI,M
BVU,2024-01-03 22:55,-114.8611,35.9475,671.00,50.00,39.20,66.27,110.00,9.00,0.00,29.88,M,10.00,M,FEW,M,M,M,6000.00,M,M,M,M,M,M,M,M,M,M,50.00,KBVU 032255Z AUTO 11009KT 10SM FEW060 10/04 A2988 RMK AO2,M
INS,2024-01-03 22:55,-115.6733,36.5872,955.00,38.00,33.40,83.33,140.00,6.00,0.04,29.93,1013.70,10.00,M,FEW,FEW,SCT,OVC,900.00,2300.00,3100.00,5500.00,M,M,M,M,27.00,350.00,2024-01-03 21:56,32.76,KINS 032255Z AUTO 14006KT 10SM FEW009 FEW023 SCT031 OVC055 03/01 A2993 RMK AO2 PK WND 35027/2156 RAB2158E52DZB52E54 SLP137 P0004 T00340008 $,M
RNO,2024-01-03 22:55,-119.7711,39.4839,1341.00,42.00,22.00,44.63,330.00,18.00,0.00,30.01,1015.80,10.00,37.00,BKN,BKN,M,M,5000.00,15000.00,M,M,M,M,M,M,37.00,310.00,2024-01-03 22:55,32.91,KRNO 032255Z 33018G37KT 10SM BKN050 BKN150 06/M06 A3001 RMK AO2 PK WND 31037/2255 SLP158 T00561056,M
RTS,2024-01-03 22:55,-119.8764,39.6682,1539.00,39.20,21.20,48.10,300.00,14.00,0.00,30.03,M,10.00,M,BKN,OVC,M,M,4000.00,4800.00,M,M,M,M,M,M,M,M,M,30.44,KRTS 032255Z AUTO 30014KT 10SM BKN040 OVC048 04/M06 A3003 RMK AO2,M
MEV,2024-01-03 22:55,-119.7500,38.9963,1441.42,37.40,26.60,64.70,M,5.00,0.00,30.00,M,10.00,M,FEW,FEW,M,M,6000.00,7000.00,M,M,M,M,M,M,M,M,M,32.81,KMEV 032255Z AUTO VRB05KT 10SM FEW060 FEW070 03/M03 A3000 RMK AO2,M
HTH,2024-01-03 22:55,-118.6315,38.5448,1282.89,42.80,23.00,45.14,330.00,13.00,0.00,29.98,M,10.00,19.00,FEW,M,M,M,4400.00,M,M,M,M,M,M,M,M,M,M,35.40,KHTH 032255Z AUTO 33013G19KT 10SM FEW044 06/M05 A2998 RMK A01,M
BAM,2024-01-03 22:55,-116.8743,40.5990,1382.36,33.80,33.80,100.00,250.00,5.00,0.00,29.92,M,1.75,M,BKN,OVC,M,M,400.00,1000.00,M,M,M,M,M,M,M,M,M,28.53,KBAM 032255Z AUTO 25005KT 1 3/4SM BKN004 OVC010 01/01 A2992 RMK AO1,M
TMT,2024-01-03 22:55,-117.1971,39.4643,1749.34,29.00,28.20,96.78,230.00,7.00,0.00,29.93,M,1.00,M,OVC,M,M,M,1000.00,M,M,M,-SN,M,M,M,M,M,M,21.12,KTMT 032255Z AUTO 23007KT 1SM -SN OVC010 M02/M02 A2993 RMK AO2 T10161021,M
EKO,2024-01-03 22:56,-115.7860,40.8242,1367.00,33.00,32.00,96.06,0.00,0.00,T,29.87,1013.10,1.25,M,SCT,OVC,M,M,1000.00,1800.00,M,M,-SN BR,M,M,M,M,M,M,33.00,KEKO 032256Z AUTO 00000KT 1 1/4SM -SN BR SCT010 OVC018 01/00 A2987 RMK AO2 SNB28 SLP131 P0000 T00060000,M
WMC,2024-01-03 22:56,-117.8072,40.9019,1315.00,34.00,31.00,88.63,280.00,9.00,0.03,29.95,1015.00,3.00,M,OVC,M,M,M,1200.00,M,M,M,-SN BR,M,M,M,M,M,M,26.00,KWMC 032256Z AUTO 28009KT 3SM -SN BR OVC012 01/M01 A2995 RMK AO2 SLP150 P0003 T00111006,M
LSV,2024-01-03 22:56,-115.0343,36.2362,570.00,49.60,40.00,69.39,80.00,6.00,0.01,29.87,1011.20,9.00,M,SCT,BKN,M,M,5500.00,13000.00,M,M,-SHRA,M,M,M,M,M,M,46.73,KLSV 032256Z 08006KT 9SM -SHRA SCT055 BKN130 10/04 A2987 RMK RAB45 SLP112 P0001 T00980044 $,M
NFL,2024-01-03 22:56,-118.7010,39.4166,1199.00,39.00,30.00,69.85,340.00,9.00,0.01,29.99,1012.70,10.00,17.00,SCT,BKN,OVC,M,1000.00,3000.00,5000.00,M,-RA,M,M,M,M,M,M,32.22,KNFL 032256Z 34009G17KT 10SM -RA SCT010 BKN030 OVC050 04/M01 A2999 RMK AO2 RAE09B33 SLP127 WR// P0001 T00391011,M
HND,2024-01-03 22:56,-115.1344,35.9729,742.79,52.00,32.00,46.25,290.00,11.00,0.00,29.89,1013.80,10.00,M,BKN,M,M,M,5000.00,M,M,M,M,M,M,M,M,M,M,52.00,KHND 032256Z 29011KT 10SM BKN050 11/00 A2989 RMK AO2 WSHFT 2238 SLP138 T01110000,M
TPH,2024-01-03 22:56,-117.0904,38.0505,1654.00,36.00,23.00,58.85,330.00,21.00,T,29.89,1012.70,10.00,35.00,SCT,OVC,M,M,6500.00,8000.00,M,M,M,M,M,M,43.00,300.00,2024-01-03 22:04,24.19,KTPH 032256Z AUTO 33021G35KT 10SM SCT065 OVC080 02/M05 A2989 RMK AO2 PK WND 30043/2204 UPB14E17SNB03E14 SLP127 P0000 T00221050,M
LAS,2024-01-03 22:56,-115.1634,36.0719,663.00,51.00,38.00,60.92,10.00,17.00,0.00,29.86,1010.80,10.00,29.00,FEW,SCT,BKN,BKN,3000.00,4000.00,7500.00,15000.00,M,M,M,M,29.00,360.00,2024-01-03 22:47,51.00,KLAS 032256Z 01017G29KT 10SM FEW030 SCT040 BKN075 BKN150 11/03 A2986 RMK AO2 PK WND 36029/2247 WSHFT 2237 SLP108 VCSH W-N CB DSNT W-N MOV SE T01060033,M
HND,2024-01-03 23:03,-115.1344,35.9729,742.79,51.80,33.80,50.08,300.00,12.00,0.00,29.89,M,10.00,M,SCT,BKN,M,M,4300.00,5000.00,M,M,M,M,M,M,M,M,M,51.80,KHND 032303Z 30012KT 10SM SCT043 BKN050 11/01 A2989 RMK AO2 WSHFT 2243,M
EKO,2024-01-03 23:06,-115.7860,40.8242,1367.00,34.00,32.00,92.29,0.00,0.00,T,29.87,M,3.00,M,FEW,BKN,OVC,M,1000.00,1800.00,3700.00,M,-SN BR,M,M,M,M,M,M,34.00,KEKO 032306Z AUTO 00000KT 3SM -SN BR FEW010 BKN018 OVC037 01/00 A2987 RMK AO2 P0000 T00110000,M
INS,2024-01-03 23:09,-115.6733,36.5872,955.00,39.20,33.80,80.79,130.00,4.00,0.00,29.92,1013.30,10.00,M,FEW,FEW,BKN,OVC,2300.00,3100.00,4900.00,5500.00,-RA,M,M,M,M,M,M,35.83,KINS 032309Z AUTO 13004KT 10SM -RA FEW023 FEW031 BKN049 OVC055 04/01 A2992 RMK AO2 RAB09 SLP133 $,M
05U,2024-01-03 23:10,-116.0051,39.6042,1811.23,32.00,30.20,92.97,100.00,4.00,0.00,29.87,M,1.75,M,M,M,M,M,M,M,M,M,BR,M,M,M,M,M,M,27.42,K05U 032310Z AUTO 10004KT 1 3/4SM BR 00/M01 A2987 RMK A01,M
BVU,2024-01-03 23:15,-114.8611,35.9475,671.00,50.00,39.20,66.27,130.00,10.00,0.00,29.88,M,10.00,M,FEW,M,M,M,6000.00,M,M,M,M,M,M,M,M,M,M,50.00,KBVU 032315Z AUTO 13010KT 10SM FEW060 10/04 A2988 RMK AO2,M
CXP,2024-01-03 23:15,-119.7326,39.1923,1431.00,42.80,17.60,35.87,330.00,13.00,0.00,30.02,M,10.00,M,BKN,OVC,M,M,5000.00,6500.00,M,M,M,M,M,M,M,M,M,35.40,KCXP 032315Z AUTO 33013KT 10SM BKN050 OVC065 06/M08 A3002 RMK AO2,M
RTS,2024-01-03 23:15,-119.8764,39.6682,1539.00,37.40,23.00,55.68,300.00,14.00,0.00,30.04,M,10.00,22.00,BKN,OVC,M,M,3800.00,4600.00,M,M,M,M,M,M,M,M,M,28.12,KRTS 032315Z AUTO 30014G22KT 10SM BKN038 OVC046 03/M05 A3004 RMK AO2,M
MEV,2024-01-03 23:15,-119.7500,38.9963,1441.42,39.20,21.20,48.10,330.00,13.00,0.00,30.01,M,10.00,M,CLR,M,M,M,M,M,M,M,M,M,M,M,M,M,M,30.79,KMEV 032315Z AUTO 33013KT 10SM CLR 04/M06 A3001 RMK AO2,M
HTH,2024-01-03 23:15,-118.6315,38.5448,1282.89,42.80,23.00,45.14,320.00,10.00,0.00,29.99,M,10.00,M,CLR,M,M,M,M,M,M,M,M,M,M,M,M,M,M,36.51,KHTH 032315Z AUTO 32010KT 10SM CLR 06/M05 A2999 RMK A01,M
BAM,2024-01-03 23:15,-116.8743,40.5990,1382.36,33.80,33.80,100.00,270.00,3.00,0.00,29.93,M,2.00,M,BKN,OVC,M,M,400.00,1000.00,M,M,M,M,M,M,M,M,M,30.75,KBAM 032315Z AUTO 27003KT 2SM BKN004 OVC010 01/01 A2993 RMK AO1,M
TMT,2024-01-03 23:15,-117.1971,39.4643,1749.34,29.30,27.70,93.66,230.00,4.00,0.00,29.93,M,0.75,M,OVC,M,M,M,1000.00,M,M,M,-SN,M,M,M,M,M,M,24.27,KTMT 032315Z AUTO 23004KT 3/4SM -SN OVC010 M01/M02 A2993 RMK AO2 T10151024,M
ELY,2024-01-03 23:19,-114.8453,39.2950,1909.00,30.00,28.00,92.15,260.00,3.00,T,29.83,M,1.75,M,FEW,OVC,M,M,600.00,3200.00,M,M,-SN BR,M,M,M,M,M,M,26.40,KELY 032319Z AUTO 26003KT 1 3/4SM -SN BR FEW006 OVC032 M01/M02 A2983 RMK AO2 P0000 T10111022,M
10U,2024-01-03 23:20,-116.1876,41.9532,1637.00,32.00,30.20,92.97,350.00,4.00,0.00,29.90,M,3.00,M,FEW,FEW,OVC,M,500.00,2200.00,3100.00,M,UP,M,M,M,M,M,M,27.42,K10U 032320Z AUTO 35004KT 3SM UP FEW005 FEW022 OVC031 00/M01 A2990 RMK AO2,M
INS,2024-01-03 23:24,-115.6733,36.5872,955.00,39.20,35.60,86.79,70.00,10.00,0.00,29.91,1013.00,10.00,M,SCT,BKN,BKN,M,4700.00,5500.00,9000.00,M,M,M,M,M,M,M,M,32.00,KINS 032324Z AUTO 07010KT 10SM SCT047 BKN055 BKN090 04/02 A2991 RMK AO2 RAB09E24 SLP130 $,M
WMC,2024-01-03 23:24,-117.8072,40.9019,1315.00,34.00,31.00,88.63,310.00,7.00,T,29.96,M,9.00,M,SCT,BKN,OVC,M,1000.00,1500.00,4100.00,M,UP,M,M,M,M,M,M,27.22,KWMC 032324Z AUTO 31007KT 9SM UP SCT010 BKN015 OVC041 01/M01 A2996 RMK AO2 UPB24SNE24 P0000 T00111006,M
ELY,2024-01-03 23:29,-114.8453,39.2950,1909.00,30.00,28.00,92.15,0.00,0.00,T,29.83,M,2.50,M,OVC,M,M,M,3400.00,M,M,M,-SN BR,M,M,M,M,M,M,30.00,KELY 032329Z AUTO 00000KT 2 1/2SM -SN BR OVC034 M01/M02 A2983 RMK AO2 P0000 T10111022,M
05U,2024-01-03 23:30,-116.0051,39.6042,1811.23,32.00,30.20,92.97,0.00,0.00,0.00,29.88,M,0.50,12.00,M,M,M,M,M,M,M,M,BR,M,M,M,M,M,M,32.00,K05U 032330Z AUTO 00000G12KT 1/2SM BR 00/M01 A2988 RMK A01,M
VGT,2024-01-03 23:34,-115.1933,36.2111,667.00,45.00,36.00,70.53,330.00,19.00,T,29.91,M,10.00,33.00,FEW,BKN,OVC,M,2600.00,4800.00,6000.00,M,M,M,M,M,36.00,330.00,2024-01-03 23:22,36.63,KVGT 032334Z 33019G33KT 10SM FEW026 BKN048 OVC060 07/02 A2991 RMK AO2 PK WND 33036/2322 WSHFT 2314 RAB17E29 P0000 T00720022,M
HND,2024-01-03 23:34,-115.1344,35.9729,742.79,50.00,37.40,61.76,350.00,13.00,0.00,29.91,M,10.00,M,FEW,BKN,BKN,M,4600.00,7000.00,9000.00,M,M,M,M,M,M,M,M,50.00,KHND 032334Z 35013KT 10SM FEW046 BKN070 BKN090 10/03 A2991 RMK AO2 WSHFT 2314,M
TMT,2024-01-03 23:35,-117.1971,39.4643,1749.34,29.00,28.00,95.99,200.00,6.00,0.00,29.95,M,1.00,M,BKN,OVC,M,M,500.00,1000.00,M,M,-SN,M,M,M,M,M,M,21.92,KTMT 032335Z AUTO 20006KT 1SM -SN BKN005 OVC010 M02/M02 A2995 RMK AO2 T10161022,M
BVU,2024-01-03 23:35,-114.8611,35.9475,671.00,48.20,39.20,70.88,100.00,8.00,0.00,29.89,M,10.00,M,SCT,SCT,M,M,6000.00,7500.00,M,M,M,M,M,M,M,M,M,44.07,KBVU 032335Z AUTO 10008KT 10SM SCT060 SCT075 09/04 A2989 RMK AO2,M
CXP,2024-01-03 23:35,-119.7326,39.1923,1431.00,42.80,19.40,38.75,320.00,9.00,0.00,30.03,M,10.00,15.00,BKN,BKN,OVC,M,5000.00,6000.00,11000.00,M,M,M,M,M,M,M,M,36.94,KCXP 032335Z AUTO 32009G15KT 10SM BKN050 BKN060 OVC110 06/M07 A3003 RMK AO2,M
RTS,2024-01-03 23:35,-119.8764,39.6682,1539.00,37.40,23.00,55.68,300.00,17.00,0.00,30.04,M,10.00,M,FEW,BKN,OVC,M,3600.00,4400.00,4900.00,M,M,M,M,M,M,M,M,27.15,KRTS 032335Z AUTO 30017KT 10SM FEW036 BKN044 OVC049 03/M05 A3004 RMK AO2,M
MEV,2024-01-03 23:35,-119.7500,38.9963,1441.42,39.20,21.20,48.10,290.00,8.00,0.00,30.02,M,10.00,15.00,CLR,M,M,M,M,M,M,M,M,M,M,M,M,M,M,32.98,KMEV 032335Z AUTO 29008G15KT 10SM CLR 04/M06 A3002 RMK AO2,M
BAM,2024-01-03 23:35,-116.8743,40.5990,1382.36,33.80,33.80,100.00,0.00,0.00,0.00,29.94,M,1.00,M,BKN,OVC,M,M,400.00,800.00,M,M,M,M,M,M,M,M,M,33.80,KBAM 032335Z AUTO 00000KT 1SM BKN004 OVC008 01/01 A2994 RMK AO1,M
HTH,2024-01-03 23:35,-118.6315,38.5448,1282.89,41.00,23.00,48.39,360.00,16.00,0.00,29.99,M,10.00,22.00,SCT,SCT,SCT,M,4200.00,5000.00,6000.00,M,M,M,M,M,M,M,M,32.15,KHTH 032335Z AUTO 36016G22KT 10SM SCT042 SCT050 SCT060 05/M05 A2999 RMK A01,M
ELY,2024-01-03 23:39,-114.8453,39.2950,1909.00,30.00,28.00,92.15,250.00,3.00,T,29.83,M,3.00,M,BKN,OVC,M,M,3400.00,4700.00,M,M,-SN BR,M,M,M,M,M,M,26.40,KELY 032339Z AUTO 25003KT 3SM -SN BR BKN034 OVC047 M01/M02 A2983 RMK AO2 P0000 T10111022,M
10U,2024-01-03 23:40,-116.1876,41.9532,1637.00,32.00,32.00,100.00,340.00,5.00,0.00,29.91,M,3.00,M,FEW,FEW,OVC,M,500.00,1800.00,3300.00,M,UP,M,M,M,M,M,M,26.40,K10U 032340Z AUTO 34005KT 3SM UP FEW005 FEW018 OVC033 00/M00 A2991 RMK AO2,M
EKO,2024-01-03 23:42,-115.7860,40.8242,1367.00,34.00,31.00,88.63,0.00,0.00,T,29.88,M,7.00,M,OVC,M,M,M,1300.00,M,M,M,-SN,M,M,M,M,M,M,34.00,KEKO 032342Z AUTO 00000KT 7SM -SN OVC013 01/M01 A2988 RMK AO2 P0000 T00111006,M
05U,2024-01-03 23:50,-116.0051,39.6042,1811.23,32.00,30.20,92.97,0.00,0.00,0.00,29.89,M,1.00,M,M,M,M,M,M,M,M,M,BR,M,M,M,M,M,M,32.00,K05U 032350Z AUTO 00000KT 1SM BR 00/M01 A2989 RMK A01,M
EKO,2024-01-03 23:52,-115.7860,40.8242,1367.00,33.80,30.20,86.49,0.00,0.00,T,29.89,M,9.00,M,FEW,BKN,OVC,M,1000.00,1500.00,2100.00,M,M,M,M,M,M,M,M,33.80,KEKO 032352Z AUTO 00000KT 9SM FEW010 BKN015 OVC021 01/M01 A2989 RMK AO2 SNE46 P0000,M
P68,2024-01-03 23:53,-116.0056,39.6014,1993.00,32.00,30.00,92.22,0.00,0.00,0.02,29.86,1010.50,M,M,M,M,M,M,M,M,M,M,M,M,M,M,M,M,M,32.00,KP68 032353Z AUTO 00000KT 00/M01 A2986 RMK AO1 SLP105 P0002 60014 T00001011 10011 21011 53008,M
DRA,2024-01-03 23:53,-116.0278,36.6206,1009.00,43.00,31.00,62.31,90.00,5.00,0.00,29.89,1011.30,10.00,M,FEW,M,M,M,12000.00,M,M,M,M,M,M,M,M,M,M,39.46,KDRA 032353Z AUTO 09005KT 10SM FEW120 06/M01 A2989 RMK AO2 SLP113 60002 T00611006 10106 20033 58005,M
ELY,2024-01-03 23:53,-114.8453,39.2950,1909.00,30.00,27.00,88.44,310.00,3.00,T,29.84,1010.40,2.50,M,BKN,OVC,M,M,3300.00,4800.00,M,M,-SN BR,M,M,M,M,M,M,26.40,KELY 032353Z AUTO 31003KT 2 1/2SM -SN BR BKN033 OVC048 M01/M03 A2984 RMK AO2 SLP104 P0000 60003 T10111028 11006 21017 53003,M
VGT,2024-01-03 23:53,-115.1933,36.2111,667.00,45.00,35.00,67.78,320.00,18.00,T,29.90,1014.70,10.00,28.00,OVC,M,M,M,7000.00,M,M,M,M,M,M,M,36.00,330.00,2024-01-03 23:22,36.86,KVGT 032353Z 32018G28KT 10SM OVC070 07/02 A2990 RMK AO2 PK WND 33036/2322 WSHFT 2314 RAB17E29 SLP147 P0000 60001 T00720017 10111 20072 53012,M
LOL,2024-01-03 23:53,-118.5701,40.0684,1192.43,37.00,31.00,78.69,310.00,9.00,0.00,30.00,1017.40,10.00,M,FEW,OVC,M,M,5000.00,8500.00,M,M,M,M,M,M,M,M,M,29.73,KLOL 032353Z AUTO 31009KT 10SM FEW050 OVC085 03/M01 A3000 RMK AO2 SLP174 60000 T00281006 10028 20006 53014,M
BVU,2024-01-03 23:55,-114.8611,35.9475,671.00,48.20,39.20,70.88,110.00,9.00,0.00,29.89,M,10.00,M,FEW,BKN,OVC,M,4100.00,6000.00,8000.00,M,M,M,M,M,M,M,M,43.66,KBVU 032355Z AUTO 11009KT 10SM FEW041 BKN060 OVC080 09/04 A2989 RMK AO2,M
CXP,2024-01-03 23:55,-119.7326,39.1923,1431.00,42.80,19.40,38.75,320.00,9.00,0.00,30.04,M,10.00,M,OVC,M,M,M,5500.00,M,M,M,M,M,M,M,M,M,M,36.94,KCXP 032355Z AUTO 32009KT 10SM OVC055 06/M07 A3004 RMK AO2,M
INS,2024-01-03 23:55,-115.6733,36.5872,955.00,39.20,34.00,81.44,70.00,7.00,T,29.92,1013.10,10.00,M,OVC,M,M,M,10000.00,M,M,M,M,M,M,M,M,M,M,33.56,KINS 032355Z AUTO 07007KT 10SM OVC100 04/01 A2992 RMK AO2 RAB09E24 SLP131 P0000 60004 T00400012 10086 20028 50014 $,M
RNO,2024-01-03 23:55,-119.7711,39.4839,1341.00,42.00,22.00,44.63,310.00,10.00,0.00,30.04,1016.70,10.00,20.00,BKN,BKN,M,M,5500.00,15000.00,M,M,M,M,M,M,M,M,M,35.51,KRNO 032355Z 31010G20KT 10SM BKN055 BKN150 06/M06 A3004 RMK AO2 SLP167 T00561056 10067 20044 53017,M
RTS,2024-01-03 23:55,-119.8764,39.6682,1539.00,37.40,23.00,55.68,290.00,14.00,0.00,30.04,M,10.00,M,OVC,M,M,M,4700.00,M,M,M,M,M,M,M,M,M,M,28.12,KRTS 032355Z AUTO 29014KT 10SM OVC047 03/M05 A3004 RMK AO2,M
MEV,2024-01-03 23:55,-119.7500,38.9963,1441.42,39.20,21.20,48.10,320.00,15.00,0.00,30.03,M,10.00,M,FEW,M,M,M,6000.00,M,M,M,M,M,M,M,M,M,M,30.11,KMEV 032355Z AUTO 32015KT 10SM FEW060 04/M06 A3003 RMK AO2,M
HTH,2024-01-03 23:55,-118.6315,38.5448,1282.89,41.00,23.00,48.39,340.00,18.00,0.00,30.00,M,10.00,23.00,FEW,SCT,BKN,M,3200.00,3900.00,4800.00,M,M,M,M,M,M,M,M,31.60,KHTH 032355Z AUTO 34018G23KT 10SM FEW032 SCT039 BKN048 05/M05 A3000 RMK A01,M
BAM,2024-01-03 23:55,-116.8743,40.5990,1382.36,33.80,33.80,100.00,320.00,3.00,0.00,29.95,M,0.75,M,OVC,M,M,M,400.00,M,M,M,M,M,M,M,M,M,M,30.75,KBAM 032355Z AUTO 32003KT 3/4SM OVC004 01/01 A2995 RMK AO1,M
TMT,2024-01-03 23:55,-117.1971,39.4643,1749.34,29.00,28.00,95.99,210.00,6.00,0.01,29.95,M,1.00,M,OVC,M,M,M,1300.00,M,M,M,-SN,M,M,M,M,M,M,21.92,KTMT 032355Z AUTO 21006KT 1SM -SN OVC013 M02/M02 A2995 RMK AO2 P0001 60001 T10171022 11003 21017,M
LSV,2024-01-03 23:55,-115.0343,36.2362,570.00,46.40,35.60,65.83,290.00,12.00,0.00,29.88,1011.70,10.00,19.00,SCT,BKN,M,M,8500.00,13000.00,M,M,M,M,M,M,M,M,M,40.33,KLSV 032355Z 29012G19KT 10SM SCT085 BKN130 08/02 A2988 RMK SLP117 53004,M
EKO,2024-01-03 23:56,-115.7860,40.8242,1367.00,34.00,31.00,88.63,0.00,0.00,T,29.89,1013.70,10.00,M,FEW,BKN,OVC,M,1000.00,1400.00,1900.00,M,M,M,M,M,M,M,M,34.00,KEKO 032356Z AUTO 00000KT 10SM FEW010 BKN014 OVC019 01/M01 A2989 RMK AO2 SNE46 SLP137 P0000 60000 T00111006 10017 20006 51011,M
WMC,2024-01-03 23:56,-117.8072,40.9019,1315.00,34.00,31.00,88.63,290.00,5.00,T,29.97,1016.10,10.00,M,BKN,OVC,M,M,1300.00,1900.00,M,M,M,M,M,M,M,M,M,28.77,KWMC 032356Z AUTO 29005KT 10SM BKN013 OVC019 01/M01 A2997 RMK AO2 UPB24E41SNE24 SLP161 P0000 60022 T00111006 10011 20006 53015,M
NFL,2024-01-03 23:56,-118.7010,39.4166,1199.00,40.00,30.00,67.18,300.00,6.00,T,30.01,1013.20,10.00,M,SCT,BKN,OVC,M,2000.00,3000.00,5000.00,M,M,M,M,M,M,M,M,35.17,KNFL 032356Z 30006KT 10SM SCT020 BKN030 OVC050 04/M01 A3001 RMK AO2 RAE2259 SLP132 WR// P0000 60001 T00441011 10050 20017 53013,M
HND,2024-01-03 23:56,-115.1344,35.9729,742.79,46.00,34.00,62.71,360.00,16.00,0.00,29.92,1015.10,10.00,23.00,SCT,BKN,BKN,M,4600.00,6000.00,7000.00,M,M,M,M,M,M,M,M,38.67,KHND 032356Z 36016G23KT 10SM SCT046 BKN060 BKN070 08/01 A2992 RMK AO2 WSHFT 2314 SLP151 60005 T00780011 10111 20067 53005,M
TPH,2024-01-03 23:56,-117.0904,38.0505,1654.00,33.00,24.00,69.16,320.00,23.00,0.00,29.91,1013.50,10.00,32.00,BKN,OVC,M,M,6000.00,7000.00,M,M,M,M,M,M,38.00,310.00,2024-01-03 23:32,19.66,KTPH 032356Z AUTO 32023G32KT 10SM BKN060 OVC070 01/M04 A2991 RMK AO2 PK WND 31038/2332 SLP135 60000 T00061044 10039 20006 53007,M
LAS,2024-01-03 23:56,-115.1634,36.0719,663.00,46.00,36.00,67.90,360.00,16.00,T,29.91,1012.60,10.00,27.00,SCT,BKN,BKN,BKN,3000.00,4000.00,7500.00,15000.00,M,M,M,M,35.00,350.00,2024-01-03 23:34,38.67,KLAS 032356Z 36016G27KT 10SM SCT030 BKN040 BKN075 BKN150 08/02 A2991 RMK AO2 PK WND 35035/2334 WSHFT 2243 RAB34E50 SLP126 VCSH ALQDS CB DSNT SW-N MOV SE P0000 60004 T00780022 10122 20078 53010,M
