station,valid,lon,lat,elevation,tmpf,dwpf,relh,drct,sknt,p01i,alti,mslp,vsby,gust,skyc1,skyc2,skyc3,skyc4,skyl1,skyl2,skyl3,skyl4,wxcodes,ice_accretion_1hr,ice_accretion_3hr,ice_accretion_6hr,peak_wind_gust,peak_wind_drct,peak_wind_time,feel,metar,snowdepth
LOL,2022-08-17 00:00,-118.5701,40.0684,1192.43,90.00,45.00,21.10,70.00,18.00,T,29.99,M,10.00,23.00,FEW,M,M,M,11000.00,M,M,M,-RA,M,M,M,M,M,M,86.45,KLOL 170000Z AUTO 07018G23KT 10SM -RA FEW110 32/07 A2999 RMK AO2 WSHFT 2340 P0000 T03220072,M
TMT,2022-08-17 00:15,-117.1971,39.4643,1749.34,M,M,M,300.00,11.00,0.00,30.12,M,10.00,M,CLR,M,M,M,M,M,M,M,M,M,M,M,M,M,M,M,KTMT 170015Z AUTO 30011KT 10SM CLR A3012 RMK AO2,M
BVU,2022-08-17 00:15,-114.8611,35.9475,671.00,98.60,53.60,22.29,20.00,6.00,0.00,29.81,M,M,M,M,M,M,M,M,M,M,M,M,M,M,M,M,M,M,96.51,KBVU 170015Z AUTO 02006KT 37/12 A2981 RMK AO2 PWINO TSNO,M
CXP,2022-08-17 00:15,-119.7326,39.1923,1431.00,82.40,46.40,28.36,M,5.00,0.00,30.09,M,7.00,12.00,FEW,SCT,BKN,M,3300.00,4800.00,5500.00,M,-RA,M,M,M,M,M,M,80.64,KCXP 170015Z AUTO VRB05G12KT 7SM -RA FEW033 SCT048 BKN055 28/08 A3009 RMK AO2 LTG DSNT NW,M
RTS,2022-08-17 00:15,-119.8764,39.6682,1539.00,89.60,32.00,12.84,M,3.00,0.00,30.08,M,10.00,M,CLR,M,M,M,M,M,M,M,M,M,M,M,M,M,M,85.54,KRTS 170015Z AUTO VRB03KT 10SM CLR 32/M00 A3008 RMK AO2,M
MEV,2022-08-17 00:15,-119.7500,38.9963,1441.42,86.00,41.00,20.54,60.00,12.00,0.00,30.06,M,10.00,19.00,CLR,M,M,M,M,M,M,M,M,M,M,M,M,M,M,82.86,KMEV 170015Z AUTO 06012G19KT 10SM CLR 30/05 A3006 RMK AO2,M
HTH,2022-08-17 00:15,-118.6315,38.5448,1282.89,84.20,46.40,26.76,100.00,10.00,0.00,30.08,M,10.00,16.00,CLR,M,M,M,M,M,M,M,M,M,M,M,M,M,M,81.87,KHTH 170015Z AUTO 10010G16KT 10SM CLR 29/08 A3008 RMK A01,M
BAM,2022-08-17 00:15,-116.8743,40.5990,1382.36,98.60,30.20,9.04,0.00,0.00,0.00,30.00,M,10.00,M,CLR,M,M,M,M,M,M,M,M,M,M,M,M,M,M,92.46,KBAM 170015Z AUTO 00000KT 10SM CLR 37/M01 A3000 RMK AO1,M
HTH,2022-08-17 00:35,-118.6315,38.5448,1282.89,84.20,44.60,24.99,100.00,7.00,0.00,30.08,M,10.00,M,CLR,M,M,M,M,M,M,M,M,M,M,M,M,M,M,81.73,KHTH 170035Z AUTO 10007KT 10SM CLR 29/07 A3008 RMK A01,M
TMT,2022-08-17 00:35,-117.1971,39.4643,1749.34,86.00,40.00,19.68,270.00,6.00,0.00,30.12,M,10.00,M,CLR,M,M,M,M,M,M,M,M,M,M,M,M,M,M,82.81,KTMT 170035Z AUTO 27006KT 10SM CLR 30/04 A3012 RMK AO2 T03000044,M
BVU,2022-08-17 00:35,-114.8611,35.9475,671.00,98.60,53.60,22.29,50.00,9.00,0.00,29.81,M,M,M,M,M,M,M,M,M,M,M,M,M,M,M,M,M,M,96.51,KBVU 170035Z AUTO 05009KT 020V090 37/12 A2981 RMK AO2 PWINO TSNO,M
CXP,2022-08-17 00:35,-119.7326,39.1923,1431.00,84.20,42.80,23.33,230.00,7.00,0.00,30.09,M,10.00,13.00,FEW,SCT,BKN,M,4800.00,6000.00,7500.00,M,M,M,M,M,M,M,M,81.61,KCXP 170035Z AUTO 23007G13KT 200V270 10SM FEW048 SCT060 BKN075 29/06 A3009 RMK AO2,M
RTS,2022-08-17 00:35,-119.8764,39.6682,1539.00,89.60,32.00,12.84,M,3.00,0.00,30.08,M,10.00,M,CLR,M,M,M,M,M,M,M,M,M,M,M,M,M,M,85.54,KRTS 170035Z AUTO VRB03KT 10SM CLR 32/M00 A3008 RMK AO2,M
MEV,2022-08-17 00:35,-119.7500,38.9963,1441.42,86.00,41.00,20.54,60.00,7.00,0.00,30.08,M,10.00,14.00,CLR,M,M,M,M,M,M,M,M,M,M,M,M,M,M,82.86,KMEV 170035Z AUTO 06007G14KT 10SM CLR 30/05 A3008 RMK AO2,M
BAM,2022-08-17 00:35,-116.8743,40.5990,1382.36,98.60,30.20,9.04,140.00,4.00,0.00,29.99,M,10.00,M,CLR,M,M,M,M,M,M,M,M,M,M,M,M,M,M,92.46,KBAM 170035Z AUTO 14004KT 10SM CLR 37/M01 A2999 RMK AO1,M
RNO,2022-08-17 00:38,-119.7711,39.4839,1341.00,95.00,39.00,14.33,0.00,0.00,0.00,30.00,M,10.00,M,SCT,BKN,M,M,13000.00,25000.00,M,M,TS,M,M,M,M,M,M,90.55,KRNO 170038Z 00000KT 10SM TS SCT130CB BKN250 35/04 A3000 RMK AO2 TSB38 OCNL LTGIC S TS S MOV NE T03500039,M
ELY,2022-08-17 00:53,-114.8453,39.2950,1909.00,82.00,43.00,25.24,M,M,0.00,30.16,1011.90,10.00,M,SCT,M,M,M,11000.00,M,M,M,M,M,M,M,M,M,M,80.15,KELY 170053Z AUTO 10SM SCT110 28/06 A3016 RMK AO2 SLP119 T02780061 $,M
LOL,2022-08-17 00:53,-118.5701,40.0684,1192.43,91.00,43.00,18.94,20.00,11.00,T,30.00,1011.90,10.00,24.00,CLR,M,M,M,M,M,M,M,M,M,M,M,M,M,M,87.18,KLOL 170053Z AUTO 02011G24KT 10SM CLR 33/06 A3000 RMK AO2 WSHFT 2340 RAE08 SLP119 P0000 T03280061,M
P68,2022-08-17 00:53,-116.0056,39.6014,1993.00,89.00,35.00,14.77,50.00,8.00,0.00,30.11,1010.90,M,M,M,M,M,M,M,M,M,M,M,M,M,M,M,M,M,85.19,KP68 170053Z AUTO 05008KT 32/02 A3011 RMK AO1 SLP109 T03170017,M
DRA,2022-08-17 00:53,-116.0278,36.6206,1009.00,98.00,42.00,14.70,200.00,9.00,0.00,29.88,1006.10,10.00,M,CLR,M,M,M,M,M,M,M,M,M,M,M,M,M,M,93.74,KDRA 170053Z AUTO 20009KT 10SM CLR 37/06 A2988 RMK AO2 SLP061 T03670056,M
VGT,2022-08-17 00:53,-115.1933,36.2111,667.00,101.00,54.00,21.10,M,5.00,0.00,29.80,1007.60,10.00,M,CLR,M,M,M,M,M,M,M,M,M,M,M,M,M,M,99.11,KVGT 170053Z VRB05KT 10SM CLR 38/12 A2980 RMK AO2 SLP076 T03830122,M
BVU,2022-08-17 00:55,-114.8611,35.9475,671.00,98.60,53.60,22.29,60.00,7.00,0.00,29.81,M,M,12.00,M,M,M,M,M,M,M,M,M,M,M,M,M,M,M,96.51,KBVU 170055Z AUTO 06007G12KT 37/12 A2981 RMK AO2 PWINO TSNO,M
RNO,2022-08-17 00:55,-119.7711,39.4839,1341.00,94.00,39.00,14.82,320.00,6.00,0.00,30.01,1009.90,10.00,M,BKN,BKN,M,M,12000.00,25000.00,M,M,TS,M,M,M,M,M,M,89.54,KRNO 170055Z 32006KT 10SM TS BKN120CB BKN250 34/04 A3001 RMK AO2 TSB38 SLP099 OCNL LTGIC SE TS SE MOV N T03440039,M
CXP,2022-08-17 00:55,-119.7326,39.1923,1431.00,82.40,48.20,30.35,80.00,8.00,0.00,30.09,M,10.00,M,FEW,BKN,BKN,M,7500.00,10000.00,12000.00,M,M,M,M,M,M,M,M,80.80,KCXP 170055Z AUTO 08008KT 10SM FEW075 BKN100 BKN120 28/09 A3009 RMK AO2,M
RTS,2022-08-17 00:55,-119.8764,39.6682,1539.00,89.60,32.00,12.84,0.00,0.00,0.00,30.07,M,10.00,M,CLR,M,M,M,M,M,M,M,M,M,M,M,M,M,M,85.54,KRTS 170055Z AUTO 00000KT 10SM CLR 32/M00 A3007 RMK AO2,M
MEV,2022-08-17 00:55,-119.7500,38.9963,1441.42,86.00,41.00,20.54,40.00,3.00,0.00,30.08,M,10.00,M,CLR,M,M,M,M,M,M,M,M,M,M,M,M,M,M,82.86,KMEV 170055Z AUTO 04003KT 10SM CLR 30/05 A3008 RMK AO2,M
BAM,2022-08-17 00:55,-116.8743,40.5990,1382.36,98.60,30.20,9.04,130.00,4.00,0.00,29.99,M,10.00,M,CLR,M,M,M,M,M,M,M,M,M,M,M,M,M,M,92.46,KBAM 170055Z AUTO 13004KT 10SM CLR 37/M01 A2999 RMK AO1,M
HTH,2022-08-17 00:55,-118.6315,38.5448,1282.89,84.20,46.40,26.76,100.00,10.00,0.00,30.08,M,10.00,M,CLR,M,M,M,M,M,M,M,M,M,M,M,M,M,M,81.87,KHTH 170055Z AUTO 10010KT 10SM CLR 29/08 A3008 RMK A01,M
TMT,2022-08-17 00:55,-117.1971,39.4643,1749.34,M,M,M,280.00,8.00,0.00,30.12,M,10.00,M,CLR,M,M,M,M,M,M,M,M,M,M,M,M,M,M,M,KTMT 170055Z AUTO 28008KT 10SM CLR A3012 RMK AO2,M
WMC,2022-08-17 00:56,-117.8072,40.9019,1315.00,94.00,36.00,13.17,0.00,0.00,0.00,29.99,1010.50,10.00,M,CLR,M,M,M,M,M,M,M,M,M,M,M,M,M,M,89.40,KWMC 170056Z AUTO 00000KT 10SM CLR 34/02 A2999 RMK AO2 SLP105 T03440022,M
HND,2022-08-17 00:56,-115.1344,35.9729,742.79,99.00,55.00,23.18,M,4.00,0.00,29.85,1009.10,10.00,M,CLR,M,M,M,M,M,M,M,M,M,M,M,M,M,M,97.39,KHND 170056Z VRB04KT 10SM CLR 37/13 A2985 RMK AO2 SLP091 T03720128,M
NFL,2022-08-17 00:56,-118.7010,39.4166,1199.00,91.00,40.00,16.80,180.00,14.00,0.00,29.99,1012.50,10.00,M,SCT,BKN,BKN,BKN,8000.00,12000.00,18000.00,25000.00,M,M,M,M,M,M,M,86.98,KNFL 170056Z 18014KT 10SM SCT080 BKN120 BKN180 BKN250 33/04 A2999 RMK AO2 SLP125 CB DSNT ALQDS T03280044,M
TPH,2022-08-17 00:56,-117.0904,38.0505,1654.00,81.00,45.00,28.15,320.00,20.00,0.00,30.11,1011.20,10.00,27.00,CLR,M,M,M,M,M,M,M,M,M,M,M,31.00,320.00,2022-08-17 00:00,79.68,KTPH 170056Z AUTO 32020G27KT 10SM CLR 27/07 A3011 RMK AO2 PK WND 32031/0000 SLP112 T02720072,M
LAS,2022-08-17 00:56,-115.1634,36.0719,663.00,99.00,53.00,21.62,0.00,0.00,0.00,29.81,1006.40,10.00,M,FEW,SCT,M,M,12000.00,16000.00,M,M,M,M,M,M,M,M,M,96.79,KLAS 170056Z 00000KT 10SM FEW120 SCT160 37/12 A2981 RMK AO2 SLP064 CB DSNT N AND NE-SE T03720117,M
EKO,2022-08-17 00:56,-115.7860,40.8242,1367.00,93.00,33.00,12.07,80.00,5.00,0.00,30.05,1011.30,10.00,M,CLR,M,M,M,M,M,M,M,M,M,M,M,M,M,M,88.29,KEKO 170056Z AUTO 08005KT 10SM CLR 34/01 A3005 RMK AO2 SLP113 T03390006,M
LSV,2022-08-17 00:58,-115.0343,36.2362,570.00,102.20,53.40,19.85,70.00,8.00,0.00,29.77,M,10.00,M,CLR,M,M,M,M,M,M,M,M,M,M,M,M,M,M,100.31,KLSV 170058Z 07008KT 10SM CLR 39/12 A2977 RMK AO2A SLPNO T03900119 $,M
INS,2022-08-17 00:58,-115.6733,36.5872,955.00,96.80,47.70,18.92,130.00,3.00,0.00,29.87,1006.10,10.00,M,CLR,M,M,M,M,M,M,M,M,M,M,M,M,M,M,93.27,KINS 170058Z AUTO 13003KT 10SM CLR 36/09 A2987 RMK AO2 SLP061 T03600087,M
RNO,2022-08-17 01:08,-119.7711,39.4839,1341.00,92.00,41.00,17.05,160.00,10.00,0.00,30.02,M,10.00,14.00,BKN,BKN,M,M,12000.00,25000.00,M,M,M,M,M,M,M,M,M,87.85,KRNO 170108Z 16010G14KT 10SM BKN120 BKN250 33/05 A3002 RMK AO2 TSE06 TS MOVD N CB DSNT E T03330050,M
TMT,2022-08-17 01:15,-117.1971,39.4643,1749.34,84.70,39.00,19.81,290.00,7.00,0.00,30.12,M,10.00,M,CLR,M,M,M,M,M,M,M,M,M,M,M,M,M,M,81.80,KTMT 170115Z AUTO 29007KT 10SM CLR 29/04 A3012 RMK AO2 T02930039,M
HTH,2022-08-17 01:15,-118.6315,38.5448,1282.89,84.20,46.40,26.76,90.00,6.00,0.00,30.07,M,10.00,M,CLR,M,M,M,M,M,M,M,M,M,M,M,M,M,M,81.87,KHTH 170115Z AUTO 09006KT 10SM CLR 29/08 A3007 RMK A01,M
BAM,2022-08-17 01:15,-116.8743,40.5990,1382.36,98.60,30.20,9.04,140.00,3.00,0.00,29.99,M,10.00,M,CLR,M,M,M,M,M,M,M,M,M,M,M,M,M,M,92.46,KBAM 170115Z AUTO 14003KT 10SM CLR 37/M01 A2999 RMK AO1,M
MEV,2022-08-17 01:15,-119.7500,38.9963,1441.42,86.00,39.20,19.15,210.00,5.00,0.00,30.08,M,10.00,M,CLR,M,M,M,M,M,M,M,M,M,M,M,M,M,M,82.79,KMEV 170115Z AUTO 21005KT 10SM CLR 30/04 A3008 RMK AO2,M
RTS,2022-08-17 01:15,-119.8764,39.6682,1539.00,89.60,32.00,12.84,270.00,7.00,0.00,30.08,M,10.00,M,CLR,M,M,M,M,M,M,M,M,M,M,M,M,M,M,85.54,KRTS 170115Z AUTO 27007KT 10SM CLR 32/M00 A3008 RMK AO2,M
CXP,2022-08-17 01:15,-119.7326,39.1923,1431.00,82.40,41.00,23.07,120.00,10.00,0.00,30.10,M,10.00,16.00,SCT,BKN,OVC,M,6500.00,7500.00,12000.00,M,-RA,M,M,M,M,M,M,80.29,KCXP 170115Z AUTO 12010G16KT 10SM -RA SCT065 BKN075 OVC120 28/05 A3010 RMK AO2,M
BVU,2022-08-17 01:15,-114.8611,35.9475,671.00,98.60,53.60,22.29,60.00,8.00,0.00,29.80,M,M,M,M,M,M,M,M,M,M,M,M,M,M,M,M,M,M,96.51,KBVU 170115Z AUTO 06008KT 37/12 A2980 RMK AO2 PWINO TSNO,M
RNO,2022-08-17 01:23,-119.7711,39.4839,1341.00,90.00,43.00,19.55,140.00,19.00,0.00,30.02,M,10.00,28.00,BKN,BKN,M,M,12000.00,25000.00,M,M,M,M,M,M,28.00,140.00,2022-08-17 01:19,86.29,KRNO 170123Z 14019G28KT 10SM BKN120 BKN250 32/06 A3002 RMK AO2 PK WND 14028/0119 WSHFT 0108 TSE06 CB DSNT E T03220061,M
TMT,2022-08-17 01:35,-117.1971,39.4643,1749.34,M,M,M,290.00,6.00,0.00,30.13,M,10.00,M,CLR,M,M,M,M,M,M,M,M,M,M,M,M,M,M,M,KTMT 170135Z AUTO 29006KT 10SM CLR A3013 RMK AO2,M
HTH,2022-08-17 01:35,-118.6315,38.5448,1282.89,84.20,44.60,24.99,0.00,0.00,0.00,30.06,M,10.00,M,CLR,M,M,M,M,M,M,M,M,M,M,M,M,M,M,81.73,KHTH 170135Z AUTO 00000KT 10SM CLR 29/07 A3006 RMK A01,M
BVU,2022-08-17 01:35,-114.8611,35.9475,671.00,98.60,53.60,22.29,60.00,8.00,0.00,29.80,M,M,M,M,M,M,M,M,M,M,M,M,M,M,M,M,M,M,96.51,KBVU 170135Z AUTO 06008KT 37/12 A2980 RMK AO2 PWINO TSNO,M
CXP,2022-08-17 01:35,-119.7326,39.1923,1431.00,84.20,42.80,23.33,10.00,9.00,0.00,30.09,M,10.00,M,FEW,FEW,M,M,6000.00,7000.00,M,M,M,M,M,M,M,M,M,81.61,KCXP 170135Z AUTO 01009KT 10SM FEW060 FEW070 29/06 A3009 RMK AO2,M
RTS,2022-08-17 01:35,-119.8764,39.6682,1539.00,87.80,32.00,13.59,320.00,4.00,0.00,30.08,M,10.00,M,FEW,M,M,M,12000.00,M,M,M,M,M,M,M,M,M,M,84.08,KRTS 170135Z AUTO 32004KT 10SM FEW120 31/00 A3008 RMK AO2,M
MEV,2022-08-17 01:35,-119.7500,38.9963,1441.42,84.20,41.00,21.76,40.00,3.00,0.00,30.08,M,10.00,M,CLR,M,M,M,M,M,M,M,M,M,M,M,M,M,M,81.52,KMEV 170135Z AUTO 04003KT 10SM CLR 29/05 A3008 RMK AO2,M
BAM,2022-08-17 01:35,-116.8743,40.5990,1382.36,96.80,32.00,10.27,100.00,6.00,0.00,29.99,M,10.00,M,CLR,M,M,M,M,M,M,M,M,M,M,M,M,M,M,91.19,KBAM 170135Z AUTO 10006KT 10SM CLR 36/00 A2999 RMK AO1,M
LOL,2022-08-17 01:53,-118.5701,40.0684,1192.43,90.00,41.00,18.10,10.00,14.00,0.00,30.00,1011.40,10.00,20.00,FEW,M,M,M,12000.00,M,M,M,M,M,M,M,M,M,M,86.16,KLOL 170153Z AUTO 01014G20KT 10SM FEW120 32/05 A3000 RMK AO2 SLP114 T03220050,M
DRA,2022-08-17 01:53,-116.0278,36.6206,1009.00,98.00,43.00,15.21,190.00,6.00,0.00,29.89,1006.20,10.00,M,BKN,M,M,M,12000.00,M,M,M,M,M,M,M,M,M,M,93.85,KDRA 170153Z AUTO 19006KT 10SM BKN120 37/06 A2989 RMK AO2 SLP062 T03670061,M
ELY,2022-08-17 01:53,-114.8453,39.2950,1909.00,79.00,46.00,31.21,200.00,5.00,0.00,30.16,1011.80,10.00,M,CLR,M,M,M,M,M,M,M,M,M,M,M,M,M,M,79.00,KELY 170153Z AUTO 20005KT 10SM CLR 26/08 A3016 RMK AO2 SLP118 T02610078 $,M
VGT,2022-08-17 01:53,-115.1933,36.2111,667.00,100.00,54.00,21.68,170.00,5.00,0.00,29.80,1007.60,10.00,M,CLR,M,M,M,M,M,M,M,M,M,M,M,M,M,M,98.14,KVGT 170153Z 17005KT 10SM CLR 38/12 A2980 RMK AO2 SLP076 T03780122,M
P68,2022-08-17 01:53,-116.0056,39.6014,1993.00,84.00,35.00,17.38,80.00,7.00,0.00,30.11,1011.30,M,M,M,M,M,M,M,M,M,M,M,M,M,M,M,M,M,81.18,KP68 170153Z AUTO 08007KT 29/02 A3011 RMK AO1 SLP113 T02890017,M
HTH,2022-08-17 01:55,-118.6315,38.5448,1282.89,86.00,44.60,23.59,200.00,4.00,0.00,30.06,M,10.00,M,CLR,M,M,M,M,M,M,M,M,M,M,M,M,M,M,83.07,KHTH 170155Z AUTO 20004KT 10SM CLR 30/07 A3006 RMK A01,M
BVU,2022-08-17 01:55,-114.8611,35.9475,671.00,98.60,55.40,23.81,50.00,6.00,0.00,29.81,M,M,M,M,M,M,M,M,M,M,M,M,M,M,M,M,M,M,97.09,KBVU 170155Z AUTO 05006KT 37/13 A2981 RMK AO2 PWINO TSNO,M
CXP,2022-08-17 01:55,-119.7326,39.1923,1431.00,84.20,41.00,21.76,30.00,6.00,0.00,30.09,M,10.00,12.00,FEW,FEW,SCT,M,6000.00,7000.00,8000.00,M,M,M,M,M,M,M,M,81.52,KCXP 170155Z AUTO 03006G12KT 10SM FEW060 FEW070 SCT080 29/05 A3009 RMK AO2,M
RNO,2022-08-17 01:55,-119.7711,39.4839,1341.00,88.00,43.00,20.82,160.00,13.00,0.00,30.04,1011.00,10.00,20.00,BKN,BKN,M,M,13000.00,25000.00,M,M,M,M,M,M,28.00,140.00,2022-08-17 01:19,84.58,KRNO 170155Z 16013G20KT 10SM BKN130 BKN250 31/06 A3004 RMK AO2 PK WND 14028/0119 WSHFT 0108 TSE06 SLP110 VIRGA T03110061,M
RTS,2022-08-17 01:55,-119.8764,39.6682,1539.00,86.00,35.60,16.63,170.00,18.00,0.00,30.08,M,10.00,24.00,SCT,M,M,M,12000.00,M,M,M,M,M,M,M,M,M,M,82.69,KRTS 170155Z AUTO 17018G24KT 10SM SCT120 30/02 A3008 RMK AO2,M
MEV,2022-08-17 01:55,-119.7500,38.9963,1441.42,84.20,37.40,18.91,M,4.00,0.00,30.08,M,10.00,M,CLR,M,M,M,M,M,M,M,M,M,M,M,M,M,M,81.38,KMEV 170155Z AUTO VRB04KT 10SM CLR 29/03 A3008 RMK AO2,M
BAM,2022-08-17 01:55,-116.8743,40.5990,1382.36,95.00,32.00,10.85,30.00,5.00,0.00,30.00,M,10.00,M,CLR,M,M,M,M,M,M,M,M,M,M,M,M,M,M,89.71,KBAM 170155Z AUTO 03005KT 10SM CLR 35/00 A3000 RMK AO1,M
TMT,2022-08-17 01:55,-117.1971,39.4643,1749.34,M,M,M,240.00,11.00,0.00,30.15,M,10.00,14.00,CLR,M,M,M,M,M,M,M,M,M,M,M,M,M,M,M,KTMT 170155Z AUTO 24011G14KT 10SM CLR A3015 RMK AO2,M
NFL,2022-08-17 01:56,-118.7010,39.4166,1199.00,89.00,43.00,20.11,190.00,11.00,0.00,29.99,1012.50,10.00,M,SCT,BKN,BKN,BKN,8000.00,12000.00,18000.00,25000.00,M,M,M,M,M,M,M,85.51,KNFL 170156Z 19011KT 10SM SCT080 BKN120 BKN180 BKN250 32/06 A2999 RMK AO2 SLP125 CB DSNT W-NW T03170061,M
EKO,2022-08-17 01:56,-115.7860,40.8242,1367.00,85.00,33.00,15.59,120.00,6.00,0.00,30.05,1011.80,10.00,M,CLR,M,M,M,M,M,M,M,M,M,M,M,M,M,M,81.81,KEKO 170156Z AUTO 12006KT 10SM CLR 29/01 A3005 RMK AO2 SLP118 T02940006,M
HND,2022-08-17 01:56,-115.1344,35.9729,742.79,97.00,55.00,24.63,60.00,3.00,0.00,29.85,1009.20,10.00,M,CLR,M,M,M,M,M,M,M,M,M,M,M,M,M,M,95.23,KHND 170156Z 06003KT 10SM CLR 36/13 A2985 RMK AO2 SLP092 T03610128,M
TPH,2022-08-17 01:56,-117.0904,38.0505,1654.00,80.00,44.00,28.01,320.00,10.00,0.00,30.11,1011.30,10.00,M,CLR,M,M,M,M,M,M,M,M,M,M,M,26.00,310.00,2022-08-17 00:57,79.12,KTPH 170156Z AUTO 32010KT 10SM CLR 27/07 A3011 RMK AO2 PK WND 31026/0057 SLP113 T02670067,M
LAS,2022-08-17 01:56,-115.1634,36.0719,663.00,98.00,53.00,22.22,M,3.00,0.00,29.81,1006.40,10.00,M,FEW,FEW,M,M,12000.00,16000.00,M,M,M,M,M,M,M,M,M,95.83,KLAS 170156Z VRB03KT 10SM FEW120 FEW160 37/12 A2981 RMK AO2 SLP064 T03670117,M
WMC,2022-08-17 01:56,-117.8072,40.9019,1315.00,89.00,42.00,19.42,0.00,0.00,0.00,30.00,1010.80,10.00,M,CLR,M,M,M,M,M,M,M,M,M,M,M,M,M,M,85.45,KWMC 170156Z AUTO 00000KT 10SM CLR 32/06 A3000 RMK AO2 SLP108 T03170056,M
INS,2022-08-17 01:58,-115.6733,36.5872,955.00,95.40,49.00,20.82,70.00,4.00,0.00,29.87,1006.30,10.00,M,CLR,M,M,M,M,M,M,M,M,M,M,M,M,M,M,92.12,KINS 170158Z AUTO 07004KT 10SM CLR 35/10 A2987 RMK AO2 SLP063 T03520095,M
LSV,2022-08-17 01:58,-115.0343,36.2362,570.00,100.20,54.50,21.95,80.00,6.00,0.00,29.77,1005.40,10.00,M,CLR,M,M,M,M,M,M,M,M,M,M,M,M,M,M,98.52,KLSV 170158Z AUTO 08006KT 10SM CLR 38/13 A2977 RMK AO2 SLP054 T03790125 $,M
RNO,2022-08-17 02:14,-119.7711,39.4839,1341.00,89.00,41.00,18.62,250.00,9.00,0.00,30.04,M,10.00,M,BKN,BKN,M,M,13000.00,25000.00,M,M,M,M,M,M,M,M,M,85.39,KRNO 170214Z 25009KT 10SM BKN130 BKN250 32/05 A3004 RMK AO2 WSHFT 0157 VIRGA T03170050,M
BAM,2022-08-17 02:15,-116.8743,40.5990,1382.36,91.40,33.80,13.05,340.00,5.00,0.00,30.01,M,10.00,M,CLR,M,M,M,M,M,M,M,M,M,M,M,M,M,M,87.13,KBAM 170215Z AUTO 34005KT 10SM CLR 33/01 A3001 RMK AO1,M
CXP,2022-08-17 02:15,-119.7326,39.1923,1431.00,82.40,44.60,26.49,170.00,4.00,0.00,30.09,M,10.00,M,FEW,FEW,SCT,M,6500.00,8000.00,10000.00,M,M,M,M,M,M,M,M,80.50,KCXP 170215Z AUTO 17004KT 10SM FEW065 FEW080 SCT100 28/07 A3009 RMK AO2,M
BVU,2022-08-17 02:15,-114.8611,35.9475,671.00,96.80,55.40,25.15,50.00,5.00,0.00,29.81,M,M,M,M,M,M,M,M,M,M,M,M,M,M,M,M,M,M,95.14,KBVU 170215Z AUTO 05005KT 36/13 A2981 RMK AO2 PWINO TSNO,M
HTH,2022-08-17 02:15,-118.6315,38.5448,1282.89,84.20,44.60,24.99,0.00,0.00,0.00,30.05,M,10.00,M,CLR,M,M,M,M,M,M,M,M,M,M,M,M,M,M,81.73,KHTH 170215Z AUTO 00000KT 10SM CLR 29/07 A3005 RMK A01,M
TMT,2022-08-17 02:15,-117.1971,39.4643,1749.34,M,M,M,240.00,12.00,0.00,30.15,M,10.00,17.00,CLR,M,M,M,M,M,M,M,M,M,M,M,M,M,M,M,KTMT 170215Z AUTO 24012G17KT 10SM CLR A3015 RMK AO2,M
RTS,2022-08-17 02:15,-119.8764,39.6682,1539.00,82.40,39.20,21.51,170.00,17.00,0.00,30.09,M,10.00,22.00,FEW,FEW,SCT,M,6500.00,9000.00,12000.00,M,M,M,M,M,M,M,M,80.21,KRTS 170215Z AUTO 17017G22KT 10SM FEW065 FEW090 SCT120 28/04 A3009 RMK AO2,M
MEV,2022-08-17 02:15,-119.7500,38.9963,1441.42,84.20,39.20,20.29,280.00,3.00,0.00,30.08,M,10.00,M,CLR,M,M,M,M,M,M,M,M,M,M,M,M,M,M,81.44,KMEV 170215Z AUTO 28003KT 10SM CLR 29/04 A3008 RMK AO2,M
BAM,2022-08-17 02:35,-116.8743,40.5990,1382.36,89.60,35.60,14.83,350.00,11.00,0.00,30.01,M,10.00,M,CLR,M,M,M,M,M,M,M,M,M,M,M,M,M,M,85.62,KBAM 170235Z AUTO 35011KT 10SM CLR 32/02 A3001 RMK AO1,M
TMT,2022-08-17 02:35,-117.1971,39.4643,1749.34,M,M,M,220.00,9.00,0.00,30.16,M,10.00,M,CLR,M,M,M,M,M,M,M,M,M,M,M,M,M,M,M,KTMT 170235Z AUTO 22009KT 10SM CLR A3016 RMK AO2,M
BVU,2022-08-17 02:35,-114.8611,35.9475,671.00,95.00,55.40,26.58,50.00,5.00,0.00,29.82,M,M,M,M,M,M,M,M,M,M,M,M,M,M,M,M,M,M,93.22,KBVU 170235Z AUTO 05005KT 35/13 A2982 RMK AO2 PWINO TSNO,M
HTH,2022-08-17 02:35,-118.6315,38.5448,1282.89,84.20,48.20,28.63,200.00,3.00,0.00,30.04,M,10.00,M,CLR,M,M,M,M,M,M,M,M,M,M,M,M,M,M,82.04,KHTH 170235Z AUTO 20003KT 10SM CLR 29/09 A3004 RMK A01,M
MEV,2022-08-17 02:35,-119.7500,38.9963,1441.42,82.40,41.00,23.07,0.00,0.00,0.00,30.08,M,10.00,M,CLR,M,M,M,M,M,M,M,M,M,M,M,M,M,M,80.29,KMEV 170235Z AUTO 00000KT 10SM CLR 28/05 A3008 RMK AO2,M
RTS,2022-08-17 02:35,-119.8764,39.6682,1539.00,82.40,37.40,20.04,180.00,9.00,0.00,30.10,M,10.00,15.00,FEW,FEW,FEW,M,6500.00,9000.00,12000.00,M,M,M,M,M,M,M,M,80.14,KRTS 170235Z AUTO 18009G15KT 10SM FEW065 FEW090 FEW120 28/03 A3010 RMK AO2,M
CXP,2022-08-17 02:35,-119.7326,39.1923,1431.00,80.60,44.60,28.08,0.00,0.00,0.00,30.09,M,10.00,M,SCT,M,M,M,12000.00,M,M,M,M,M,M,M,M,M,M,79.42,KCXP 170235Z AUTO 00000KT 10SM SCT120 27/07 A3009 RMK AO2,M
LOL,2022-08-17 02:53,-118.5701,40.0684,1192.43,88.00,40.00,18.47,330.00,13.00,0.00,29.98,1010.30,10.00,16.00,CLR,M,M,M,M,M,M,M,M,M,M,M,M,M,M,84.41,KLOL 170253Z AUTO 33013G16KT 10SM CLR 31/04 A2998 RMK AO2 SLP103 60000 T03110044 58004,M
ELY,2022-08-17 02:53,-114.8453,39.2950,1909.00,71.00,49.00,45.33,160.00,5.00,0.00,30.17,1012.30,10.00,M,OVC,M,M,M,11000.00,M,M,M,M,M,M,M,M,M,M,71.10,KELY 170253Z AUTO 16005KT 10SM OVC110 22/09 A3017 RMK AO2 SLP123 T02170094 53006 $,M
P68,2022-08-17 02:53,-116.0056,39.6014,1993.00,77.00,39.00,25.47,80.00,4.00,0.00,30.12,1011.40,M,M,M,M,M,M,M,M,M,M,M,M,M,M,M,M,M,77.00,KP68 170253Z AUTO 08004KT 25/04 A3012 RMK AO1 SLP114 T02500039 53003,M
DRA,2022-08-17 02:53,-116.0278,36.6206,1009.00,95.00,43.00,16.73,180.00,5.00,0.00,29.90,1006.70,10.00,M,BKN,M,M,M,12000.00,M,M,M,M,M,M,M,M,M,M,90.88,KDRA 170253Z AUTO 18005KT 10SM BKN120 35/06 A2990 RMK AO2 SLP067 T03500061 53006,M
VGT,2022-08-17 02:53,-115.1933,36.2111,667.00,99.00,54.00,22.35,60.00,5.00,0.00,29.81,1008.10,10.00,M,CLR,M,M,M,M,M,M,M,M,M,M,M,M,M,M,97.06,KVGT 170253Z 06005KT 10SM CLR 37/12 A2981 RMK AO2 SLP081 T03720122 53003,M
BVU,2022-08-17 02:55,-114.8611,35.9475,671.00,95.00,55.40,26.58,40.00,6.00,0.00,29.83,M,M,M,M,M,M,M,M,M,M,M,M,M,M,M,M,M,M,93.22,KBVU 170255Z AUTO 04006KT 35/13 A2983 RMK AO2 PWINO TSNO,M
CXP,2022-08-17 02:55,-119.7326,39.1923,1431.00,80.60,46.40,30.07,30.00,4.00,0.00,30.10,M,10.00,M,FEW,SCT,BKN,M,4600.00,8000.00,12000.00,M,M,M,M,M,M,M,M,79.56,KCXP 170255Z AUTO 03004KT 10SM FEW046 SCT080 BKN120 27/08 A3010 RMK AO2,M
RTS,2022-08-17 02:55,-119.8764,39.6682,1539.00,82.40,35.60,18.67,190.00,9.00,0.00,30.10,M,10.00,M,CLR,M,M,M,M,M,M,M,M,M,M,M,M,M,M,80.08,KRTS 170255Z AUTO 19009KT 10SM CLR 28/02 A3010 RMK AO2,M
MEV,2022-08-17 02:55,-119.7500,38.9963,1441.42,80.60,41.00,24.46,0.00,0.00,0.00,30.08,M,10.00,M,CLR,M,M,M,M,M,M,M,M,M,M,M,M,M,M,79.20,KMEV 170255Z AUTO 00000KT 10SM CLR 27/05 A3008 RMK AO2,M
BAM,2022-08-17 02:55,-116.8743,40.5990,1382.36,87.80,35.60,15.70,330.00,5.00,0.00,30.02,M,10.00,M,CLR,M,M,M,M,M,M,M,M,M,M,M,M,M,M,84.12,KBAM 170255Z AUTO 33005KT 10SM CLR 31/02 A3002 RMK AO1,M
HTH,2022-08-17 02:55,-118.6315,38.5448,1282.89,82.40,48.20,30.35,0.00,0.00,0.00,30.04,M,10.00,M,CLR,M,M,M,M,M,M,M,M,M,M,M,M,M,M,80.80,KHTH 170255Z AUTO 00000KT 10SM CLR 28/09 A3004 RMK A01,M
TMT,2022-08-17 02:55,-117.1971,39.4643,1749.34,M,M,M,230.00,7.00,0.00,30.16,M,10.00,M,CLR,M,M,M,M,M,M,M,M,M,M,M,M,M,M,M,KTMT 170255Z AUTO 23007KT 10SM CLR A3016 RMK AO2,M
RNO,2022-08-17 02:55,-119.7711,39.4839,1341.00,88.00,40.00,18.47,200.00,8.00,0.00,30.04,1010.80,10.00,M,FEW,BKN,BKN,M,10000.00,15000.00,25000.00,M,M,M,M,M,M,M,M,84.41,KRNO 170255Z 20008KT 10SM FEW100 BKN150 BKN250 31/04 A3004 RMK AO2 WSHFT 0157 SLP108 T03110044 53008,M
LAS,2022-08-17 02:56,-115.1634,36.0719,663.00,98.00,53.00,22.22,0.00,0.00,0.00,29.82,1006.90,10.00,M,FEW,FEW,M,M,12000.00,16000.00,M,M,M,M,M,M,M,M,M,95.83,KLAS 170256Z 00000KT 10SM FEW120 FEW160 37/12 A2982 RMK AO2 SLP069 T03670117 53002,M
WMC,2022-08-17 02:56,-117.8072,40.9019,1315.00,87.00,38.00,17.58,340.00,6.00,0.00,30.01,1010.50,10.00,M,CLR,M,M,M,M,M,M,M,M,M,M,M,M,M,M,83.61,KWMC 170256Z AUTO 34006KT 10SM CLR 31/03 A3001 RMK AO2 SLP105 T03060033 53004,M
EKO,2022-08-17 02:56,-115.7860,40.8242,1367.00,75.00,33.00,21.56,80.00,3.00,0.00,30.06,1012.40,10.00,M,CLR,M,M,M,M,M,M,M,M,M,M,M,M,M,M,75.00,KEKO 170256Z AUTO 08003KT 10SM CLR 24/01 A3006 RMK AO2 SLP124 T02390006 53003,M
NFL,2022-08-17 02:56,-118.7010,39.4166,1199.00,86.00,43.00,22.19,170.00,6.00,0.00,30.00,1013.00,10.00,M,SCT,BKN,BKN,BKN,8000.00,12000.00,18000.00,25000.00,M,M,M,M,M,M,M,82.97,KNFL 170256Z 17006KT 10SM SCT080 BKN120 BKN180 BKN250 30/06 A3000 RMK AO2 SLP130 CB DSNT W-NW T03000061 53008,M
TPH,2022-08-17 02:56,-117.0904,38.0505,1654.00,77.00,44.00,31.02,40.00,9.00,0.00,30.12,1011.40,10.00,M,CLR,M,M,M,M,M,M,M,M,M,M,M,M,M,M,77.00,KTPH 170256Z AUTO 04009KT 10SM CLR 25/07 A3012 RMK AO2 SLP114 T02500067 53003,M
HND,2022-08-17 02:56,-115.1344,35.9729,742.79,96.00,55.00,25.32,0.00,0.00,0.00,29.87,1009.60,10.00,M,CLR,M,M,M,M,M,M,M,M,M,M,M,M,M,M,94.27,KHND 170256Z 00000KT 10SM CLR 36/13 A2987 RMK AO2 SLP096 T03560128 53002,M
INS,2022-08-17 02:58,-115.6733,36.5872,955.00,93.60,51.30,23.88,120.00,8.00,0.00,29.89,1006.80,10.00,M,BKN,M,M,M,12000.00,M,M,M,M,M,M,M,M,M,M,90.74,KINS 170258Z AUTO 12008KT 10SM BKN120 34/11 A2989 RMK AO2 SLP068 T03420107 53004,M
LSV,2022-08-17 02:58,-115.0343,36.2362,570.00,98.60,55.40,23.81,60.00,8.00,0.00,29.78,M,10.00,M,CLR,M,M,M,M,M,M,M,M,M,M,M,M,M,M,97.09,KLSV 170258Z 06008KT 10SM CLR 37/13 A2978 RMK AO2A SLPNO WND DATA ESTMD ALSTG ESTMD $,M
TMT,2022-08-17 03:15,-117.1971,39.4643,1749.34,M,M,M,200.00,6.00,0.00,30.17,M,10.00,M,CLR,M,M,M,M,M,M,M,M,M,M,M,M,M,M,M,KTMT 170315Z AUTO 20006KT 10SM CLR A3017 RMK AO2,M
HTH,2022-08-17 03:15,-118.6315,38.5448,1282.89,80.60,50.00,34.41,80.00,5.00,0.00,30.04,M,10.00,M,CLR,M,M,M,M,M,M,M,M,M,M,M,M,M,M,79.88,KHTH 170315Z AUTO 08005KT 10SM CLR 27/10 A3004 RMK A01,M
BAM,2022-08-17 03:15,-116.8743,40.5990,1382.36,86.00,35.60,16.63,350.00,9.00,0.00,30.03,M,10.00,M,CLR,M,M,M,M,M,M,M,M,M,M,M,M,M,M,82.69,KBAM 170315Z AUTO 35009KT 10SM CLR 30/02 A3003 RMK AO1,M
MEV,2022-08-17 03:15,-119.7500,38.9963,1441.42,78.80,42.80,27.81,310.00,7.00,0.00,30.08,M,10.00,M,CLR,M,M,M,M,M,M,M,M,M,M,M,M,M,M,78.80,KMEV 170315Z AUTO 31007KT 10SM CLR 26/06 A3008 RMK AO2,M
RTS,2022-08-17 03:15,-119.8764,39.6682,1539.00,82.40,35.60,18.67,180.00,6.00,0.00,30.10,M,10.00,12.00,CLR,M,M,M,M,M,M,M,M,M,M,M,M,M,M,80.08,KRTS 170315Z AUTO 18006G12KT 10SM CLR 28/02 A3010 RMK AO2,M
CXP,2022-08-17 03:15,-119.7326,39.1923,1431.00,78.80,48.20,34.13,0.00,0.00,0.00,30.10,M,10.00,M,FEW,SCT,BKN,M,4600.00,7500.00,11000.00,M,M,M,M,M,M,M,M,78.80,KCXP 170315Z AUTO 00000KT 10SM FEW046 SCT075 BKN110 26/09 A3010 RMK AO2,M
BVU,2022-08-17 03:15,-114.8611,35.9475,671.00,93.20,57.20,29.99,40.00,6.00,0.00,29.84,M,M,M,M,M,M,M,M,M,M,M,M,M,M,M,M,M,M,91.91,KBVU 170315Z AUTO 04006KT 34/14 A2984 RMK AO2 PWINO TSNO,M
INS,2022-08-17 03:34,-115.6733,36.5872,955.00,93.20,53.60,26.31,110.00,8.00,0.00,29.91,1007.30,10.00,M,FEW,OVC,M,M,2400.00,10000.00,M,M,-RA,M,M,M,M,M,M,90.86,KINS 170334Z AUTO 11008KT 10SM -RA FEW024 OVC100 34/12 A2991 RMK AO2 RAB34 SLP073,M
BVU,2022-08-17 03:35,-114.8611,35.9475,671.00,91.40,57.20,31.72,40.00,7.00,0.00,29.84,M,M,M,M,M,M,M,M,M,M,M,M,M,M,M,M,M,M,90.06,KBVU 170335Z AUTO 04007KT 33/14 A2984 RMK AO2 PWINO TSNO,M
CXP,2022-08-17 03:35,-119.7326,39.1923,1431.00,77.00,48.20,36.22,310.00,7.00,0.00,30.09,M,10.00,M,CLR,M,M,M,M,M,M,M,M,M,M,M,M,M,M,77.00,KCXP 170335Z AUTO 31007KT 10SM CLR 25/09 A3009 RMK AO2,M
BAM,2022-08-17 03:35,-116.8743,40.5990,1382.36,84.20,37.40,18.91,320.00,7.00,0.00,30.03,M,10.00,M,CLR,M,M,M,M,M,M,M,M,M,M,M,M,M,M,81.38,KBAM 170335Z AUTO 32007KT 10SM CLR 29/03 A3003 RMK AO1,M
MEV,2022-08-17 03:35,-119.7500,38.9963,1441.42,78.80,44.60,29.79,300.00,5.00,0.00,30.08,M,10.00,M,SCT,M,M,M,11000.00,M,M,M,M,M,M,M,M,M,M,78.80,KMEV 170335Z AUTO 30005KT 10SM SCT110 26/07 A3008 RMK AO2,M
HTH,2022-08-17 03:35,-118.6315,38.5448,1282.89,80.60,46.40,30.07,150.00,6.00,0.00,30.04,M,10.00,M,CLR,M,M,M,M,M,M,M,M,M,M,M,M,M,M,79.56,KHTH 170335Z AUTO 15006KT 10SM CLR 27/08 A3004 RMK A01,M
TMT,2022-08-17 03:35,-117.1971,39.4643,1749.34,73.80,43.20,33.35,220.00,8.00,0.00,30.18,M,10.00,M,CLR,M,M,M,M,M,M,M,M,M,M,M,M,M,M,73.80,KTMT 170335Z AUTO 22008KT 10SM CLR 23/06 A3018 RMK AO2 T02320062,M
RTS,2022-08-17 03:35,-119.8764,39.6682,1539.00,80.60,37.40,21.25,60.00,6.00,0.00,30.11,M,10.00,M,CLR,M,M,M,M,M,M,M,M,M,M,M,M,M,M,79.02,KRTS 170335Z AUTO 06006KT 10SM CLR 27/03 A3011 RMK AO2,M
INS,2022-08-17 03:44,-115.6733,36.5872,955.00,91.40,55.40,29.72,90.00,10.00,0.00,29.91,1007.50,10.00,M,FEW,FEW,OVC,M,2600.00,7000.00,10000.00,M,M,M,M,M,M,M,M,89.53,KINS 170344Z AUTO 09010KT 10SM FEW026 FEW070 OVC100 33/13 A2991 RMK AO2 RAB34E44 SLP075,M
INS,2022-08-17 03:45,-115.6733,36.5872,955.00,91.40,55.40,29.72,90.00,10.00,0.00,29.92,1007.80,10.00,M,FEW,FEW,SCT,OVC,600.00,2600.00,7000.00,10000.00,M,M,M,M,M,M,M,89.53,KINS 170345Z AUTO 09010KT 10SM FEW006 FEW026 SCT070 OVC100 33/13 A2992 RMK AO2 RAB34E44 SLP078,M
INS,2022-08-17 03:46,-115.6733,36.5872,955.00,91.40,55.40,29.72,80.00,10.00,0.00,29.92,1007.80,10.00,M,FEW,FEW,SCT,OVC,600.00,2600.00,7000.00,10000.00,-RA,M,M,M,M,M,M,89.53,KINS 170346Z AUTO 08010KT 10SM -RA FEW006 FEW026 SCT070 OVC100 33/13 A2992 RMK AO2 RAB34E44RAB45 SLP078,M
P68,2022-08-17 03:53,-116.0056,39.6014,1993.00,72.00,40.00,31.20,110.00,5.00,0.00,30.14,1011.60,M,M,M,M,M,M,M,M,M,M,M,M,M,M,M,M,M,72.00,KP68 170353Z AUTO 11005KT 22/04 A3014 RMK AO1 SLP116 T02220044,M
ELY,2022-08-17 03:53,-114.8453,39.2950,1909.00,70.00,47.00,43.66,0.00,0.00,0.00,30.19,1012.00,10.00,M,CLR,M,M,M,M,M,M,M,M,M,M,M,M,M,M,70.00,KELY 170353Z AUTO 00000KT 10SM CLR 21/08 A3019 RMK AO2 SLP120 T02110083 $,M
VGT,2022-08-17 03:53,-115.1933,36.2111,667.00,97.00,59.00,28.46,50.00,12.00,0.00,29.84,1008.90,10.00,M,CLR,M,M,M,M,M,M,M,M,M,M,M,M,M,M,96.72,KVGT 170353Z 05012KT 10SM CLR 36/15 A2984 RMK AO2 SLP089 T03610150,M
DRA,2022-08-17 03:53,-116.0278,36.6206,1009.00,84.00,56.00,38.28,40.00,22.00,0.00,29.94,1008.30,10.00,33.00,FEW,BKN,M,M,6000.00,11000.00,M,M,M,M,M,M,36.00,40.00,2022-08-17 03:29,83.03,KDRA 170353Z AUTO 04022G33KT 10SM FEW060 BKN110 29/13 A2994 RMK AO2 PK WND 04036/0329 SLP083 T02890133,M
LOL,2022-08-17 03:53,-118.5701,40.0684,1192.43,85.00,40.00,20.39,160.00,6.00,0.00,29.99,1010.60,10.00,M,CLR,M,M,M,M,M,M,M,M,M,M,M,M,M,M,81.98,KLOL 170353Z AUTO 16006KT 10SM CLR 29/04 A2999 RMK AO2 SLP106 T02940044,M
INS,2022-08-17 03:54,-115.6733,36.5872,955.00,87.80,57.20,35.53,40.00,12.00,0.00,29.92,1008.00,10.00,M,FEW,SCT,OVC,M,400.00,2600.00,10000.00,M,-RA,M,M,M,M,M,M,86.58,KINS 170354Z AUTO 04012KT 10SM -RA FEW004 SCT026 OVC100 31/14 A2992 RMK AO2 WSHFT 50 RAB34E44RAB45 SLP080,M
MEV,2022-08-17 03:55,-119.7500,38.9963,1441.42,73.40,46.40,38.18,240.00,6.00,0.00,30.08,M,10.00,M,FEW,M,M,M,11000.00,M,M,M,M,M,M,M,M,M,M,73.40,KMEV 170355Z AUTO 24006KT 10SM FEW110 23/08 A3008 RMK AO2,M
BVU,2022-08-17 03:55,-114.8611,35.9475,671.00,91.40,57.20,31.72,40.00,7.00,0.00,29.85,M,M,M,M,M,M,M,M,M,M,M,M,M,M,M,M,M,M,90.06,KBVU 170355Z AUTO 04007KT 33/14 A2985 RMK AO2 PWINO TSNO,M
CXP,2022-08-17 03:55,-119.7326,39.1923,1431.00,78.80,44.60,29.79,0.00,0.00,0.00,30.09,M,10.00,M,CLR,M,M,M,M,M,M,M,M,M,M,M,M,M,M,78.80,KCXP 170355Z AUTO 00000KT 10SM CLR 26/07 A3009 RMK AO2,M
RTS,2022-08-17 03:55,-119.8764,39.6682,1539.00,80.60,37.40,21.25,60.00,5.00,0.00,30.12,M,10.00,M,CLR,M,M,M,M,M,M,M,M,M,M,M,M,M,M,79.02,KRTS 170355Z AUTO 06005KT 10SM CLR 27/03 A3012 RMK AO2,M
BAM,2022-08-17 03:55,-116.8743,40.5990,1382.36,82.40,35.60,18.67,320.00,7.00,0.00,30.03,M,10.00,M,CLR,M,M,M,M,M,M,M,M,M,M,M,M,M,M,80.08,KBAM 170355Z AUTO 32007KT 10SM CLR 28/02 A3003 RMK AO1,M
HTH,2022-08-17 03:55,-118.6315,38.5448,1282.89,80.60,42.80,26.22,200.00,6.00,0.00,30.04,M,10.00,M,CLR,M,M,M,M,M,M,M,M,M,M,M,M,M,M,79.30,KHTH 170355Z AUTO 20006KT 10SM CLR 27/06 A3004 RMK A01,M
TMT,2022-08-17 03:55,-117.1971,39.4643,1749.34,71.80,43.70,36.37,210.00,6.00,0.00,30.18,M,10.00,M,CLR,M,M,M,M,M,M,M,M,M,M,M,M,M,M,71.80,KTMT 170355Z AUTO 21006KT 10SM CLR 22/07 A3018 RMK AO2 T02210065,M
RNO,2022-08-17 03:55,-119.7711,39.4839,1341.00,85.00,42.00,22.20,140.00,5.00,0.00,30.05,1011.50,10.00,M,BKN,BKN,M,M,14000.00,25000.00,M,M,M,M,M,M,M,M,M,82.08,KRNO 170355Z 14005KT 10SM BKN140 BKN250 29/06 A3005 RMK AO2 SLP115 T02940056,M
NFL,2022-08-17 03:56,-118.7010,39.4166,1199.00,83.00,43.00,24.51,180.00,6.00,0.00,30.01,1013.40,10.00,M,SCT,BKN,BKN,BKN,8000.00,12000.00,18000.00,25000.00,M,M,M,M,M,M,M,80.73,KNFL 170356Z AUTO 18006KT 10SM SCT080 BKN120 BKN180 BKN250 28/ A3001 RMK AO2 SLP134 T0283 $,M
LAS,2022-08-17 03:56,-115.1634,36.0719,663.00,96.00,55.00,25.32,90.00,8.00,0.00,29.85,1007.60,10.00,M,FEW,FEW,M,M,12000.00,22000.00,M,M,M,M,M,M,M,M,M,94.27,KLAS 170356Z 09008KT 10SM FEW120 FEW220 36/13 A2985 RMK AO2 SLP076 T03560128,M
TPH,2022-08-17 03:56,-117.0904,38.0505,1654.00,75.00,44.00,33.16,20.00,7.00,0.00,30.13,1011.60,10.00,M,CLR,M,M,M,M,M,M,M,M,M,M,M,M,M,M,75.00,KTPH 170356Z AUTO 02007KT 10SM CLR 24/07 A3013 RMK AO2 SLP116 T02390067,M
EKO,2022-08-17 03:56,-115.7860,40.8242,1367.00,73.00,34.00,23.90,340.00,6.00,0.00,30.08,1012.80,10.00,M,CLR,M,M,M,M,M,M,M,M,M,M,M,M,M,M,73.00,KEKO 170356Z AUTO 34006KT 10SM CLR 23/01 A3008 RMK AO2 SLP128 T02280011,M
WMC,2022-08-17 03:56,-117.8072,40.9019,1315.00,84.00,37.00,18.74,280.00,6.00,0.00,30.03,1010.90,10.00,M,CLR,M,M,M,M,M,M,M,M,M,M,M,M,M,M,81.23,KWMC 170356Z AUTO 28006KT 10SM CLR 29/03 A3003 RMK AO2 SLP109 T02890028,M
HND,2022-08-17 03:56,-115.1344,35.9729,742.79,93.00,57.00,29.96,110.00,3.00,0.00,29.89,1010.30,10.00,M,CLR,M,M,M,M,M,M,M,M,M,M,M,M,M,M,91.64,KHND 170356Z AUTO 11003KT 10SM CLR 34/14 A2989 RMK AO2 SLP103 T03390139,M
INS,2022-08-17 03:57,-115.6733,36.5872,955.00,87.80,59.00,37.90,350.00,21.00,0.00,29.95,1009.00,10.00,M,FEW,FEW,OVC,M,400.00,2600.00,10000.00,M,-RA,M,M,M,M,M,M,87.12,KINS 170357Z AUTO 35021KT 10SM -RA FEW004 FEW026 OVC100 31/15 A2995 RMK AO2 WSHFT 54 RAB34E44RAB45 PRESRR SLP090,M
INS,2022-08-17 03:58,-115.6733,36.5872,955.00,87.30,59.20,38.78,350.00,21.00,T,29.95,1009.00,10.00,M,FEW,FEW,OVC,M,400.00,2600.00,10000.00,M,-RA,M,M,M,M,M,M,86.72,KINS 170358Z AUTO 35021KT 10SM -RA FEW004 FEW026 OVC100 31/15 A2995 RMK AO2 RAB34E44RAB45 SLP090 P0000 T03070151,M
LSV,2022-08-17 03:58,-115.0343,36.2362,570.00,95.00,60.80,32.27,30.00,10.00,0.00,29.82,M,10.00,15.00,SCT,M,M,M,12000.00,M,M,M,M,M,M,M,M,M,M,95.30,KLSV 170358Z COR AUTO 03010G15KT 10SM SCT120 35/16 A2982 RMK AO2 SLPNO WND DATA ESTMD ALSTG ESTMD $ COR 0409,M
INS,2022-08-17 04:00,-115.6733,36.5872,955.00,86.00,60.80,42.80,340.00,20.00,0.00,29.95,1009.00,10.00,M,FEW,FEW,BKN,OVC,400.00,2400.00,9500.00,11000.00,M,M,M,M,M,M,M,86.05,KINS 170400Z AUTO 34020KT 10SM FEW004 FEW024 BKN095 OVC110 30/16 A2995 RMK AO2 LTG DSNT E RAE00 SLP090,M
CXP,2022-08-17 04:15,-119.7326,39.1923,1431.00,78.80,44.60,29.79,0.00,0.00,0.00,30.09,M,10.00,M,CLR,M,M,M,M,M,M,M,M,M,M,M,M,M,M,78.80,KCXP 170415Z AUTO 00000KT 10SM CLR 26/07 A3009 RMK AO2,M
TMT,2022-08-17 04:15,-117.1971,39.4643,1749.34,M,M,M,200.00,5.00,0.00,30.18,M,10.00,M,CLR,M,M,M,M,M,M,M,M,M,M,M,M,M,M,M,KTMT 170415Z AUTO 20005KT 10SM CLR A3018 RMK AO2,M
HTH,2022-08-17 04:15,-118.6315,38.5448,1282.89,80.60,48.20,32.18,0.00,0.00,0.00,30.04,M,10.00,M,CLR,M,M,M,M,M,M,M,M,M,M,M,M,M,M,79.71,KHTH 170415Z AUTO 00000KT 10SM CLR 27/09 A3004 RMK A01,M
BAM,2022-08-17 04:15,-116.8743,40.5990,1382.36,82.40,35.60,18.67,320.00,7.00,0.00,30.04,M,10.00,M,CLR,M,M,M,M,M,M,M,M,M,M,M,M,M,M,80.08,KBAM 170415Z AUTO 32007KT 10SM CLR 28/02 A3004 RMK AO1,M
MEV,2022-08-17 04:15,-119.7500,38.9963,1441.42,69.80,46.40,43.13,130.00,4.00,0.00,30.08,M,10.00,M,CLR,M,M,M,M,M,M,M,M,M,M,M,M,M,M,69.80,KMEV 170415Z AUTO 13004KT 10SM CLR 21/08 A3008 RMK AO2,M
RTS,2022-08-17 04:15,-119.8764,39.6682,1539.00,75.20,37.40,25.40,330.00,8.00,0.00,30.12,M,10.00,M,CLR,M,M,M,M,M,M,M,M,M,M,M,M,M,M,75.20,KRTS 170415Z AUTO 33008KT 10SM CLR 24/03 A3012 RMK AO2,M
BVU,2022-08-17 04:15,-114.8611,35.9475,671.00,91.40,57.20,31.72,40.00,6.00,0.00,29.85,M,M,M,M,M,M,M,M,M,M,M,M,M,M,M,M,M,M,90.06,KBVU 170415Z AUTO 04006KT 33/14 A2985 RMK AO2 PWINO TSNO,M
INS,2022-08-17 04:18,-115.6733,36.5872,955.00,80.60,60.80,50.95,320.00,22.00,0.00,29.97,1009.90,10.00,29.00,OVC,M,M,M,9500.00,M,M,M,VCTS -RA,M,M,M,M,M,M,81.46,KINS 170418Z AUTO 32022G29KT 10SM VCTS -RA OVC095 27/16 A2997 RMK AO2 RAE00RAB18 PRESRR SLP099,M
INS,2022-08-17 04:19,-115.6733,36.5872,955.00,80.60,60.80,50.95,320.00,22.00,0.00,29.97,1009.90,10.00,29.00,FEW,OVC,M,M,300.00,9500.00,M,M,VCTS -RA,M,M,M,M,M,M,81.46,KINS 170419Z AUTO 32022G29KT 10SM VCTS -RA FEW003 OVC095 27/16 A2997 RMK AO2 RAE00RAB18 SLP099,M
INS,2022-08-17 04:29,-115.6733,36.5872,955.00,77.00,62.60,61.13,330.00,21.00,0.00,29.99,1010.80,10.00,24.00,OVC,M,M,M,10000.00,M,M,M,-RA,M,M,M,M,M,M,77.00,KINS 170429Z AUTO 33021G24KT 10SM -RA OVC100 25/17 A2999 RMK AO2 LTG DSNT N RAE00RAB18 PRESRR SLP108,M
INS,2022-08-17 04:34,-115.6733,36.5872,955.00,75.20,60.80,60.90,320.00,16.00,0.00,30.00,1011.10,10.00,24.00,FEW,FEW,OVC,M,3800.00,5000.00,10000.00,M,-TSRA,M,M,M,M,M,M,75.20,KINS 170434Z AUTO 32016G24KT 10SM -TSRA FEW038 FEW050 OVC100 24/16 A3000 RMK AO2 RAE00RAB18 TSB34 SLP111,M
RTS,2022-08-17 04:35,-119.8764,39.6682,1539.00,73.40,37.40,26.98,10.00,7.00,0.00,30.13,M,10.00,M,CLR,M,M,M,M,M,M,M,M,M,M,M,M,M,M,73.40,KRTS 170435Z AUTO 01007KT 10SM CLR 23/03 A3013 RMK AO2,M
BVU,2022-08-17 04:35,-114.8611,35.9475,671.00,91.40,59.00,33.84,50.00,6.00,0.00,29.86,M,M,M,M,M,M,M,M,M,M,M,M,M,M,M,M,M,M,90.68,KBVU 170435Z AUTO 05006KT 33/15 A2986 RMK AO2 PWINO TSNO,M
CXP,2022-08-17 04:35,-119.7326,39.1923,1431.00,78.80,44.60,29.79,340.00,3.00,0.00,30.09,M,10.00,M,CLR,M,M,M,M,M,M,M,M,M,M,M,M,M,M,78.80,KCXP 170435Z AUTO 34003KT 10SM CLR 26/07 A3009 RMK AO2,M
MEV,2022-08-17 04:35,-119.7500,38.9963,1441.42,68.00,44.60,42.85,130.00,7.00,0.00,30.08,M,10.00,M,CLR,M,M,M,M,M,M,M,M,M,M,M,M,M,M,68.00,KMEV 170435Z AUTO 13007KT 10SM CLR 20/07 A3008 RMK AO2,M
HTH,2022-08-17 04:35,-118.6315,38.5448,1282.89,78.80,44.60,29.79,0.00,0.00,0.00,30.05,M,10.00,M,CLR,M,M,M,M,M,M,M,M,M,M,M,M,M,M,78.80,KHTH 170435Z AUTO 00000KT 10SM CLR 26/07 A3005 RMK A01,M
BAM,2022-08-17 04:35,-116.8743,40.5990,1382.36,78.80,37.40,22.54,10.00,3.00,0.00,30.05,M,10.00,M,CLR,M,M,M,M,M,M,M,M,M,M,M,M,M,M,78.80,KBAM 170435Z AUTO 01003KT 10SM CLR 26/03 A3005 RMK AO1,M
TMT,2022-08-17 04:35,-117.1971,39.4643,1749.34,66.70,43.00,42.16,170.00,5.00,0.00,30.18,M,10.00,M,CLR,M,M,M,M,M,M,M,M,M,M,M,M,M,M,66.70,KTMT 170435Z AUTO 17005KT 10SM CLR 19/06 A3018 RMK AO2 T01930061,M
INS,2022-08-17 04:36,-115.6733,36.5872,955.00,77.00,60.80,57.36,330.00,17.00,0.00,30.00,1011.10,10.00,24.00,FEW,FEW,SCT,OVC,900.00,3700.00,5000.00,10000.00,-TSRA,M,M,M,M,M,M,77.00,KINS 170436Z AUTO 33017G24KT 10SM -TSRA FEW009 FEW037 SCT050 OVC100 25/16 A3000 RMK AO2 RAE00RAB18 TSB34 SLP111,M
INS,2022-08-17 04:46,-115.6733,36.5872,955.00,75.20,60.80,60.90,330.00,18.00,0.00,30.01,1011.40,10.00,24.00,SCT,SCT,BKN,OVC,300.00,700.00,3500.00,9500.00,+TSRA,M,M,M,M,M,M,75.20,KINS 170446Z AUTO 33018G24KT 10SM +TSRA SCT003 SCT007 BKN035 OVC095 24/16 A3001 RMK AO2 RAE00RAB18 TSB34 SLP114,M
INS,2022-08-17 04:51,-115.6733,36.5872,955.00,75.20,60.80,60.90,330.00,12.00,0.00,30.01,1011.40,10.00,21.00,SCT,BKN,BKN,OVC,300.00,700.00,8000.00,10000.00,+TSRA,M,M,M,M,M,M,75.20,KINS 170451Z AUTO 33012G21KT 10SM +TSRA SCT003 BKN007 BKN080 OVC100 24/16 A3001 RMK AO2 RAE00RAB18 TSB34 BKN007 V SCT SLP114,M
INS,2022-08-17 04:52,-115.6733,36.5872,955.00,75.20,60.80,60.90,320.00,11.00,0.00,30.01,1011.40,9.00,21.00,SCT,BKN,BKN,OVC,300.00,700.00,8000.00,10000.00,VCTS +RA,M,M,M,M,M,M,75.20,KINS 170452Z AUTO 32011G21KT 9SM VCTS +RA SCT003 BKN007 BKN080 OVC100 24/16 A3001 RMK AO2 RAE00RAB18 TSB34E52 BKN007 V SCT SLP114,M
VGT,2022-08-17 04:53,-115.1933,36.2111,667.00,94.00,59.00,31.31,60.00,11.00,0.00,29.86,1009.60,10.00,M,CLR,M,M,M,M,M,M,M,M,M,M,M,M,M,M,93.32,KVGT 170453Z AUTO 06011KT 10SM CLR 34/15 A2986 RMK AO2 LTG DSNT NW SLP096 T03440150,M
P68,2022-08-17 04:53,-116.0056,39.6014,1993.00,73.00,37.00,26.92,70.00,5.00,0.00,30.16,1011.90,M,M,M,M,M,M,M,M,M,M,M,M,M,M,M,M,M,73.00,KP68 170453Z AUTO 07005KT 23/03 A3016 RMK AO1 SLP119 T02280028,M
ELY,2022-08-17 04:53,-114.8453,39.2950,1909.00,65.00,47.00,52.06,110.00,3.00,0.00,30.21,1012.70,10.00,M,CLR,M,M,M,M,M,M,M,M,M,M,M,M,M,M,64.90,KELY 170453Z AUTO 11003KT 10SM CLR 18/08 A3021 RMK AO2 SLP127 T01830083 $,M
LOL,2022-08-17 04:53,-118.5701,40.0684,1192.43,81.00,40.00,23.13,180.00,5.00,0.00,30.00,1010.90,10.00,M,CLR,M,M,M,M,M,M,M,M,M,M,M,M,M,M,79.37,KLOL 170453Z AUTO 18005KT 10SM CLR 27/04 A3000 RMK AO2 SLP109 T02720044,M
DRA,2022-08-17 04:53,-116.0278,36.6206,1009.00,86.00,53.00,32.41,30.00,12.00,0.00,29.98,1009.40,10.00,33.00,FEW,SCT,BKN,M,6000.00,7500.00,11000.00,M,M,M,M,M,42.00,50.00,2022-08-17 04:22,84.09,KDRA 170453Z AUTO 03012G33KT 10SM FEW060 SCT075 BKN110 30/12 A2998 RMK AO2 PK WND 05042/0422 SLP094 T03000117,M
MEV,2022-08-17 04:55,-119.7500,38.9963,1441.42,68.00,41.00,37.32,110.00,6.00,0.00,30.08,M,10.00,M,CLR,M,M,M,M,M,M,M,M,M,M,M,M,M,M,68.00,KMEV 170455Z AUTO 11006KT 10SM CLR 20/05 A3008 RMK AO2,M
HTH,2022-08-17 04:55,-118.6315,38.5448,1282.89,78.80,44.60,29.79,160.00,5.00,0.00,30.05,M,10.00,M,CLR,M,M,M,M,M,M,M,M,M,M,M,M,M,M,78.80,KHTH 170455Z AUTO 16005KT 10SM CLR 26/07 A3005 RMK A01,M
RNO,2022-08-17 04:55,-119.7711,39.4839,1341.00,85.00,43.00,22.98,260.00,3.00,0.00,30.06,1011.60,10.00,M,BKN,BKN,M,M,14000.00,20000.00,M,M,M,M,M,M,M,M,M,82.13,KRNO 170455Z 26003KT 10SM BKN140 BKN200 29/06 A3006 RMK AO2 SLP116 T02940061,M
RTS,2022-08-17 04:55,-119.8764,39.6682,1539.00,77.00,37.40,23.93,10.00,6.00,0.00,30.13,M,10.00,M,CLR,M,M,M,M,M,M,M,M,M,M,M,M,M,M,77.00,KRTS 170455Z AUTO 01006KT 10SM CLR 25/03 A3013 RMK AO2,M
BVU,2022-08-17 04:55,-114.8611,35.9475,671.00,91.40,57.20,31.72,60.00,6.00,0.00,29.86,M,M,M,M,M,M,M,M,M,M,M,M,M,M,M,M,M,M,90.06,KBVU 170455Z AUTO 06006KT 33/14 A2986 RMK AO2 PWINO TSNO,M
TMT,2022-08-17 04:55,-117.1971,39.4643,1749.34,65.00,42.80,44.23,180.00,5.00,0.00,30.18,M,10.00,M,CLR,M,M,M,M,M,M,M,M,M,M,M,M,M,M,65.10,KTMT 170455Z AUTO 18005KT 10SM CLR 18/06 A3018 RMK AO2 T01840060,M
CXP,2022-08-17 04:55,-119.7326,39.1923,1431.00,77.00,44.60,31.62,140.00,4.00,0.00,30.09,M,10.00,M,CLR,M,M,M,M,M,M,M,M,M,M,M,M,M,M,77.00,KCXP 170455Z AUTO 14004KT 10SM CLR 25/07 A3009 RMK AO2,M
BAM,2022-08-17 04:55,-116.8743,40.5990,1382.36,80.60,35.60,19.79,130.00,3.00,0.00,30.06,M,10.00,M,CLR,M,M,M,M,M,M,M,M,M,M,M,M,M,M,78.94,KBAM 170455Z AUTO 13003KT 10SM CLR 27/02 A3006 RMK AO1,M
LAS,2022-08-17 04:56,-115.1634,36.0719,663.00,93.00,59.00,32.19,30.00,11.00,0.00,29.87,1008.40,10.00,M,FEW,SCT,M,M,12000.00,22000.00,M,M,M,M,M,M,M,M,M,92.35,KLAS 170456Z 03011KT 10SM FEW120 SCT220 34/15 A2987 RMK AO2 SLP084 T03390150,M
NFL,2022-08-17 04:56,-118.7010,39.4166,1199.00,78.00,43.00,28.68,130.00,3.00,0.00,30.02,1013.60,10.00,M,FEW,SCT,SCT,M,8000.00,12000.00,25000.00,M,M,M,M,M,M,M,M,78.10,KNFL 170456Z 13003KT 10SM FEW080 SCT120 SCT250 26/06 A3002 RMK SLP136 T02560061,M
WMC,2022-08-17 04:56,-117.8072,40.9019,1315.00,75.00,38.00,26.08,120.00,6.00,0.00,30.03,1011.30,10.00,M,CLR,M,M,M,M,M,M,M,M,M,M,M,M,M,M,75.00,KWMC 170456Z AUTO 12006KT 10SM CLR 24/03 A3003 RMK AO2 SLP113 T02390033,M
EKO,2022-08-17 04:56,-115.7860,40.8242,1367.00,70.00,34.00,26.46,80.00,3.00,0.00,30.10,1013.30,10.00,M,CLR,M,M,M,M,M,M,M,M,M,M,M,M,M,M,70.00,KEKO 170456Z AUTO 08003KT 10SM CLR 21/01 A3010 RMK AO2 SLP133 T02110011,M
HND,2022-08-17 04:56,-115.1344,35.9729,742.79,92.00,57.00,31.00,90.00,4.00,0.00,29.90,1010.70,10.00,M,CLR,M,M,M,M,M,M,M,M,M,M,M,M,M,M,90.50,KHND 170456Z AUTO 09004KT 10SM CLR 33/14 A2990 RMK AO2 SLP107 T03330139,M
TPH,2022-08-17 04:56,-117.0904,38.0505,1654.00,72.00,45.00,37.96,270.00,3.00,0.00,30.17,1013.00,10.00,M,CLR,M,M,M,M,M,M,M,M,M,M,M,M,M,M,72.00,KTPH 170456Z AUTO 27003KT 10SM CLR 22/07 A3017 RMK AO2 SLP130 T02220072,M
INS,2022-08-17 04:57,-115.6733,36.5872,955.00,73.40,62.60,68.94,260.00,10.00,0.00,30.01,1011.60,7.00,M,SCT,BKN,BKN,M,300.00,800.00,7500.00,M,VCTS +RA,M,M,M,M,M,M,73.40,KINS 170457Z AUTO 26010KT 7SM VCTS +RA SCT003 BKN008 BKN075 23/17 A3001 RMK AO2 RAE00RAB18 TSB34E52 SLP116,M
INS,2022-08-17 04:58,-115.6733,36.5872,955.00,74.00,62.00,66.14,260.00,10.00,0.07,30.01,1011.60,7.00,M,SCT,BKN,BKN,M,300.00,800.00,7500.00,M,VCTS +RA,M,M,M,29.00,320.00,2022-08-17 04:26,73.90,KINS 170458Z AUTO 26010KT 7SM VCTS +RA SCT003 BKN008 BKN075 23/17 A3001 RMK AO2 PK WND 32029/26 RAE00RAB18 TSB34E52 SLP116 P0007 T02330166,M
LSV,2022-08-17 04:58,-115.0343,36.2362,570.00,95.00,60.80,32.27,30.00,13.00,0.00,29.83,M,10.00,M,SCT,M,M,M,18000.00,M,M,M,M,M,M,M,M,M,M,95.30,KLSV 170458Z 03013KT 10SM SCT180 35/16 A2983 RMK AO2A SLPNO WND DATA ESTMD ALSTG ESTMD $,M
INS,2022-08-17 05:03,-115.6733,36.5872,955.00,73.40,60.80,64.69,220.00,16.00,0.00,29.99,1010.80,5.00,M,BKN,BKN,M,M,300.00,800.00,M,M,+RA,M,M,M,M,M,M,73.40,KINS 170503Z AUTO 22016KT 5SM +RA BKN003 BKN008 23/16 A2999 RMK AO2 LTG DSNT E-SE BKN003 V SCT PRESFR SLP108,M
INS,2022-08-17 05:08,-115.6733,36.5872,955.00,73.40,62.60,68.94,190.00,23.00,0.00,29.97,1010.10,7.00,M,BKN,OVC,M,M,300.00,700.00,M,M,RA,M,M,M,M,M,M,73.40,KINS 170508Z AUTO 19023KT 7SM RA BKN003 OVC007 23/17 A2997 RMK AO2 WSHFT 00 LTG DSNT SE PRESFR SLP101,M
HTH,2022-08-17 05:15,-118.6315,38.5448,1282.89,77.00,50.00,38.74,230.00,5.00,0.00,30.06,M,10.00,M,M,M,M,M,M,M,M,M,M,M,M,M,M,M,M,77.00,KHTH 170515Z AUTO 23005KT 10SM 25/10 A3006 RMK A01,M
BVU,2022-08-17 05:15,-114.8611,35.9475,671.00,89.60,59.00,35.81,50.00,7.00,0.00,29.86,M,M,M,M,M,M,M,M,M,M,M,M,M,M,M,M,M,M,88.86,KBVU 170515Z AUTO 05007KT 32/15 A2986 RMK AO2 PWINO TSNO,M
CXP,2022-08-17 05:15,-119.7326,39.1923,1431.00,73.40,44.60,35.66,0.00,0.00,0.00,30.10,M,10.00,M,CLR,M,M,M,M,M,M,M,M,M,M,M,M,M,M,73.40,KCXP 170515Z AUTO 00000KT 10SM CLR 23/07 A3010 RMK AO2,M
BAM,2022-08-17 05:15,-116.8743,40.5990,1382.36,78.80,35.60,21.00,0.00,0.00,0.00,30.06,M,10.00,M,CLR,M,M,M,M,M,M,M,M,M,M,M,M,M,M,78.80,KBAM 170515Z AUTO 00000KT 10SM CLR 26/02 A3006 RMK AO1,M
MEV,2022-08-17 05:15,-119.7500,38.9963,1441.42,69.80,42.80,37.61,110.00,6.00,0.00,30.09,M,10.00,11.00,CLR,M,M,M,M,M,M,M,M,M,M,M,M,M,M,69.80,KMEV 170515Z AUTO 11006G11KT 10SM CLR 21/06 A3009 RMK AO2,M
RTS,2022-08-17 05:15,-119.8764,39.6682,1539.00,77.00,37.40,23.93,360.00,7.00,0.00,30.13,M,10.00,M,CLR,M,M,M,M,M,M,M,M,M,M,M,M,M,M,77.00,KRTS 170515Z AUTO 36007KT 10SM CLR 25/03 A3013 RMK AO2,M
TMT,2022-08-17 05:15,-117.1971,39.4643,1749.34,64.00,43.50,47.38,230.00,3.00,0.00,30.19,M,10.00,M,CLR,M,M,M,M,M,M,M,M,M,M,M,M,M,M,63.90,KTMT 170515Z AUTO 23003KT 10SM CLR 18/06 A3019 RMK AO2 T01770064,M
INS,2022-08-17 05:23,-115.6733,36.5872,955.00,77.00,55.40,47.25,190.00,22.00,0.00,29.98,1010.20,10.00,33.00,SCT,BKN,BKN,OVC,200.00,5500.00,11000.00,13000.00,-RA,M,M,M,M,M,M,77.00,KINS 170523Z AUTO 19022G33KT 10SM -RA SCT002 BKN055 BKN110 OVC130 25/13 A2998 RMK AO2 SLP102,M
INS,2022-08-17 05:24,-115.6733,36.5872,955.00,77.00,55.40,47.25,200.00,26.00,0.00,29.98,1010.20,10.00,33.00,SCT,SCT,OVC,M,200.00,5500.00,13000.00,M,M,M,M,M,M,M,M,77.00,KINS 170524Z AUTO 20026G33KT 10SM SCT002 SCT055 OVC130 25/13 A2998 RMK AO2 RAE24 SLP102,M
BAM,2022-08-17 05:35,-116.8743,40.5990,1382.36,78.80,35.60,21.00,0.00,0.00,0.00,30.06,M,10.00,M,CLR,M,M,M,M,M,M,M,M,M,M,M,M,M,M,78.80,KBAM 170535Z AUTO 00000KT 10SM CLR 26/02 A3006 RMK AO1,M
TMT,2022-08-17 05:35,-117.1971,39.4643,1749.34,63.50,46.60,54.06,290.00,3.00,0.00,30.19,M,10.00,M,CLR,M,M,M,M,M,M,M,M,M,M,M,M,M,M,63.50,KTMT 170535Z AUTO 29003KT 10SM CLR 18/08 A3019 RMK AO2 T01750081,M
CXP,2022-08-17 05:35,-119.7326,39.1923,1431.00,73.40,44.60,35.66,0.00,0.00,0.00,30.10,M,10.00,M,CLR,M,M,M,M,M,M,M,M,M,M,M,M,M,M,73.40,KCXP 170535Z AUTO 00000KT 10SM CLR 23/07 A3010 RMK AO2,M
BVU,2022-08-17 05:35,-114.8611,35.9475,671.00,89.60,59.00,35.81,50.00,7.00,0.00,29.87,M,M,M,M,M,M,M,M,M,M,M,M,M,M,M,M,M,M,88.86,KBVU 170535Z AUTO 05007KT 32/15 A2987 RMK AO2 PWINO TSNO,M
RTS,2022-08-17 05:35,-119.8764,39.6682,1539.00,73.40,39.20,28.96,320.00,7.00,0.00,30.12,M,10.00,M,SCT,M,M,M,11000.00,M,M,M,M,M,M,M,M,M,M,73.40,KRTS 170535Z AUTO 32007KT 10SM SCT110 23/04 A3012 RMK AO2,M
MEV,2022-08-17 05:35,-119.7500,38.9963,1441.42,68.00,42.80,40.00,160.00,6.00,0.00,30.09,M,10.00,M,CLR,M,M,M,M,M,M,M,M,M,M,M,M,M,M,68.00,KMEV 170535Z AUTO 16006KT 10SM CLR 20/06 A3009 RMK AO2,M
HTH,2022-08-17 05:35,-118.6315,38.5448,1282.89,78.80,46.40,31.90,170.00,4.00,0.00,30.06,M,10.00,M,M,M,M,M,M,M,M,M,M,M,M,M,M,M,M,78.80,KHTH 170535Z AUTO 17004KT 10SM 26/08 A3006 RMK A01,M
DRA,2022-08-17 05:42,-116.0278,36.6206,1009.00,83.00,55.00,38.38,100.00,10.00,0.00,29.99,M,10.00,29.00,BKN,M,M,M,11000.00,M,M,M,M,M,M,M,33.00,50.00,2022-08-17 04:56,82.03,KDRA 170542Z AUTO 10010G29KT 10SM BKN110 28/13 A2999 RMK AO2 PK WND 05033/0456 WSHFT 0525 T02830128,M
DRA,2022-08-17 05:53,-116.0278,36.6206,1009.00,83.00,56.00,39.66,130.00,13.00,0.00,29.98,1009.40,10.00,19.00,FEW,FEW,BKN,M,5500.00,10000.00,11000.00,M,M,M,M,M,33.00,50.00,2022-08-17 04:56,82.20,KDRA 170553Z AUTO 13013G19KT 10SM FEW055 FEW100 BKN110 28/13 A2998 RMK AO2 PK WND 05033/0456 WSHFT 0525 SLP094 T02830133 10383 20272 51023,M
P68,2022-08-17 05:53,-116.0056,39.6014,1993.00,76.00,37.00,24.43,M,3.00,0.00,30.17,1011.60,M,M,M,M,M,M,M,M,M,M,M,M,M,M,M,M,M,75.90,KP68 170553Z AUTO VRB03KT 24/03 A3017 RMK AO1 SLP116 T02440028 10317 20211 51012,M
VGT,2022-08-17 05:53,-115.1933,36.2111,667.00,92.00,59.00,33.31,310.00,19.00,0.00,29.88,1010.30,10.00,27.00,BKN,M,M,M,10000.00,M,M,M,M,M,M,M,27.00,310.00,2022-08-17 05:46,91.20,KVGT 170553Z AUTO 31019G27KT 10SM BKN100 33/15 A2988 RMK AO2 PK WND 31027/0546 LTG DSNT NW SLP103 T03330150 10389 20333 51020,M
LOL,2022-08-17 05:53,-118.5701,40.0684,1192.43,80.00,40.00,23.82,0.00,0.00,0.00,30.02,1011.10,10.00,M,CLR,M,M,M,M,M,M,M,M,M,M,M,M,M,M,78.93,KLOL 170553Z AUTO 00000KT 10SM CLR 27/04 A3002 RMK AO2 SLP111 60000 T02670044 10328 20261 53012,M
ELY,2022-08-17 05:53,-114.8453,39.2950,1909.00,59.00,46.00,61.98,170.00,11.00,0.00,30.22,1013.30,10.00,M,CLR,M,M,M,M,M,M,M,M,M,M,M,M,M,M,59.00,KELY 170553Z AUTO 17011KT 10SM CLR 15/08 A3022 RMK AO2 SLP133 T01500078 10283 20150 51014 $,M
BVU,2022-08-17 05:55,-114.8611,35.9475,671.00,89.60,60.80,38.18,40.00,6.00,0.00,29.87,M,M,M,M,M,M,M,M,M,M,M,M,M,M,M,M,M,M,89.54,KBVU 170555Z AUTO 04006KT 32/16 A2987 RMK AO2 PWINO TSNO,M
RNO,2022-08-17 05:55,-119.7711,39.4839,1341.00,82.00,45.00,27.24,110.00,7.00,0.00,30.06,1011.70,10.00,M,BKN,BKN,M,M,15000.00,20000.00,M,M,M,M,M,M,M,M,M,80.28,KRNO 170555Z 11007KT 10SM BKN150 BKN200 28/07 A3006 RMK AO2 SLP117 T02780072 10367 20278 51007,M
TMT,2022-08-17 05:55,-117.1971,39.4643,1749.34,63.30,46.00,53.01,270.00,5.00,0.00,30.19,M,10.00,M,CLR,M,M,M,M,M,M,M,M,M,M,M,M,M,M,63.30,KTMT 170555Z AUTO 27005KT 10SM CLR 17/08 A3019 RMK AO2 T01740077,M
HTH,2022-08-17 05:55,-118.6315,38.5448,1282.89,80.60,42.80,26.22,170.00,4.00,0.00,30.06,M,10.00,M,M,M,M,M,M,M,M,M,M,M,M,M,M,M,M,79.30,KHTH 170555Z AUTO 17004KT 10SM 27/06 A3006 RMK A01,M
MEV,2022-08-17 05:55,-119.7500,38.9963,1441.42,68.00,44.60,42.85,220.00,4.00,0.00,30.10,M,10.00,M,CLR,M,M,M,M,M,M,M,M,M,M,M,M,M,M,68.00,KMEV 170555Z AUTO 22004KT 10SM CLR 20/07 A3010 RMK AO2,M
RTS,2022-08-17 05:55,-119.8764,39.6682,1539.00,75.20,39.20,27.26,0.00,0.00,0.00,30.12,M,10.00,M,FEW,M,M,M,11000.00,M,M,M,M,M,M,M,M,M,M,75.20,KRTS 170555Z AUTO 00000KT 10SM FEW110 24/04 A3012 RMK AO2,M
BAM,2022-08-17 05:55,-116.8743,40.5990,1382.36,69.80,33.80,26.43,140.00,5.00,0.00,30.06,M,10.00,M,CLR,M,M,M,M,M,M,M,M,M,M,M,M,M,M,69.80,KBAM 170555Z AUTO 14005KT 10SM CLR 21/01 A3006 RMK AO1,M
CXP,2022-08-17 05:55,-119.7326,39.1923,1431.00,71.60,44.60,37.89,0.00,0.00,0.00,30.11,M,10.00,M,CLR,M,M,M,M,M,M,M,M,M,M,M,M,M,M,71.60,KCXP 170555Z AUTO 00000KT 10SM CLR 22/07 A3011 RMK AO2,M
LAS,2022-08-17 05:56,-115.1634,36.0719,663.00,92.00,58.00,32.03,20.00,9.00,0.00,29.88,1008.80,10.00,M,FEW,SCT,BKN,M,12000.00,15000.00,22000.00,M,M,M,M,M,M,M,M,90.80,KLAS 170556Z 02009KT 10SM FEW120 SCT150 BKN220 33/14 A2988 RMK AO2 LTG DSNT NW SLP088 CB DSNT NW T03330144 10378 20333 51019,M
TPH,2022-08-17 05:56,-117.0904,38.0505,1654.00,72.00,46.00,39.42,320.00,4.00,0.00,30.16,1012.40,10.00,M,CLR,M,M,M,M,M,M,M,M,M,M,M,M,M,M,72.00,KTPH 170556Z AUTO 32004KT 10SM CLR 22/08 A3016 RMK AO2 SLP124 T02220078 10294 20211 50013,M
NFL,2022-08-17 05:56,-118.7010,39.4166,1199.00,76.00,M,M,40.00,3.00,0.00,30.02,1013.50,10.00,M,CLR,M,M,M,M,M,M,M,M,M,M,M,M,M,M,M,KNFL 170556Z AUTO 04003KT 10SM CLR 24/ A3002 RMK AO2 SLP135 T0244 10344 20239 50005 $,M
HND,2022-08-17 05:56,-115.1344,35.9729,742.79,90.00,61.00,37.97,30.00,6.00,0.00,29.92,1011.30,10.00,M,FEW,M,M,M,10000.00,M,M,M,M,M,M,M,M,M,M,90.03,KHND 170556Z AUTO 03006KT 10SM FEW100 32/16 A2992 RMK AO2 LTG DSNT NW SLP113 T03220161 10372 20322 51016,M
EKO,2022-08-17 05:56,-115.7860,40.8242,1367.00,66.00,34.00,30.37,60.00,4.00,0.00,30.11,1013.80,10.00,M,CLR,M,M,M,M,M,M,M,M,M,M,M,M,M,M,66.00,KEKO 170556Z AUTO 06004KT 10SM CLR 19/01 A3011 RMK AO2 SLP138 T01890011 10339 20189 51017,M
INS,2022-08-17 05:58,-115.6733,36.5872,955.00,79.20,59.40,50.75,180.00,20.00,0.06,29.98,1010.10,10.00,M,FEW,SCT,BKN,M,10000.00,13000.00,17000.00,M,M,M,M,M,33.00,230.00,2022-08-17 05:23,79.20,KINS 170558Z AUTO 18020KT 10SM FEW100 SCT130 BKN170 26/15 A2998 RMK AO2 PK WND 23033/23 RAE24 SLP101 P0006 60013 T02620152 10366 20230 50028,M
LSV,2022-08-17 05:58,-115.0343,36.2362,570.00,93.20,59.00,31.99,300.00,10.00,0.00,29.86,M,10.00,15.00,SCT,M,M,M,15000.00,M,M,M,M,M,M,M,M,M,M,92.57,KLSV 170558Z 30010G15KT 10SM SCT150 34/15 A2986 RMK AO2A SLPNO WND DATA ESTMD ALSTG ESTMD 10396 20367 $,M
VGT,2022-08-17 06:00,-115.1933,36.2111,667.00,92.00,59.00,33.31,300.00,17.00,0.00,29.88,M,10.00,29.00,SCT,M,M,M,10000.00,M,M,M,M,M,M,M,29.00,320.00,2022-08-17 05:54,91.20,KVGT 170600Z AUTO 30017G29KT 10SM SCT100 33/15 A2988 RMK AO2 PK WND 32029/0554 WSHFT 0540 T03330150,M
BAM,2022-08-17 06:15,-116.8743,40.5990,1382.36,69.80,33.80,26.43,160.00,4.00,0.00,30.07,M,10.00,M,CLR,M,M,M,M,M,M,M,M,M,M,M,M,M,M,69.80,KBAM 170615Z AUTO 16004KT 10SM CLR 21/01 A3007 RMK AO1,M
BVU,2022-08-17 06:15,-114.8611,35.9475,671.00,87.80,62.60,43.07,10.00,6.00,0.00,29.87,M,M,M,M,M,M,M,M,M,M,M,M,M,M,M,M,M,M,88.48,KBVU 170615Z AUTO 01006KT 31/17 A2987 RMK AO2 PWINO TSNO,M
CXP,2022-08-17 06:15,-119.7326,39.1923,1431.00,69.80,46.40,43.13,0.00,0.00,0.00,30.11,M,10.00,M,CLR,M,M,M,M,M,M,M,M,M,M,M,M,M,M,69.80,KCXP 170615Z AUTO 00000KT 10SM CLR 21/08 A3011 RMK AO2,M
RTS,2022-08-17 06:15,-119.8764,39.6682,1539.00,75.20,39.20,27.26,330.00,7.00,0.00,30.12,M,10.00,M,CLR,M,M,M,M,M,M,M,M,M,M,M,M,M,M,75.20,KRTS 170615Z AUTO 33007KT 10SM CLR 24/04 A3012 RMK AO2,M
MEV,2022-08-17 06:15,-119.7500,38.9963,1441.42,68.00,46.40,45.88,280.00,3.00,0.00,30.10,M,10.00,M,CLR,M,M,M,M,M,M,M,M,M,M,M,M,M,M,68.00,KMEV 170615Z AUTO 28003KT 10SM CLR 20/08 A3010 RMK AO2,M
HTH,2022-08-17 06:15,-118.6315,38.5448,1282.89,78.80,42.80,27.81,140.00,3.00,0.00,30.06,M,10.00,M,M,M,M,M,M,M,M,M,M,M,M,M,M,M,M,78.80,KHTH 170615Z AUTO 14003KT 10SM 26/06 A3006 RMK A01,M
TMT,2022-08-17 06:15,-117.1971,39.4643,1749.34,M,M,M,220.00,6.00,0.00,30.20,M,10.00,M,CLR,M,M,M,M,M,M,M,M,M,M,M,M,M,M,M,KTMT 170615Z AUTO 22006KT 10SM CLR A3020 RMK AO2,M
HTH,2022-08-17 06:35,-118.6315,38.5448,1282.89,78.80,42.80,27.81,170.00,8.00,0.00,30.07,M,10.00,M,M,M,M,M,M,M,M,M,M,M,M,M,M,M,M,78.80,KHTH 170635Z AUTO 17008KT 10SM 26/06 A3007 RMK A01,M
BVU,2022-08-17 06:35,-114.8611,35.9475,671.00,87.80,60.80,40.41,10.00,6.00,0.00,29.87,M,M,M,M,M,M,M,M,M,M,M,M,M,M,M,M,M,M,87.75,KBVU 170635Z AUTO 01006KT 31/16 A2987 RMK AO2 PWINO TSNO,M
CXP,2022-08-17 06:35,-119.7326,39.1923,1431.00,71.60,46.40,40.57,0.00,0.00,0.00,30.11,M,10.00,M,CLR,M,M,M,M,M,M,M,M,M,M,M,M,M,M,71.60,KCXP 170635Z AUTO 00000KT 10SM CLR 22/08 A3011 RMK AO2,M
RTS,2022-08-17 06:35,-119.8764,39.6682,1539.00,75.20,39.20,27.26,350.00,5.00,0.00,30.13,M,10.00,M,FEW,M,M,M,12000.00,M,M,M,M,M,M,M,M,M,M,75.20,KRTS 170635Z AUTO 35005KT 10SM FEW120 24/04 A3013 RMK AO2,M
MEV,2022-08-17 06:35,-119.7500,38.9963,1441.42,64.40,44.60,48.55,0.00,0.00,0.00,30.10,M,10.00,M,CLR,M,M,M,M,M,M,M,M,M,M,M,M,M,M,64.40,KMEV 170635Z AUTO 00000KT 10SM CLR 18/07 A3010 RMK AO2,M
BAM,2022-08-17 06:35,-116.8743,40.5990,1382.36,69.80,35.60,28.39,200.00,3.00,0.00,30.08,M,10.00,M,CLR,M,M,M,M,M,M,M,M,M,M,M,M,M,M,69.80,KBAM 170635Z AUTO 20003KT 10SM CLR 21/02 A3008 RMK AO1,M
TMT,2022-08-17 06:35,-117.1971,39.4643,1749.34,58.60,44.40,59.16,160.00,5.00,0.00,30.20,M,10.00,M,CLR,M,M,M,M,M,M,M,M,M,M,M,M,M,M,58.60,KTMT 170635Z AUTO 16005KT 10SM CLR 15/07 A3020 RMK AO2 T01480069,M
VGT,2022-08-17 06:53,-115.1933,36.2111,667.00,89.00,59.00,36.37,330.00,10.00,0.00,29.88,1010.30,10.00,M,CLR,M,M,M,M,M,M,M,M,M,M,M,29.00,320.00,2022-08-17 05:54,88.37,KVGT 170653Z AUTO 33010KT 10SM CLR 32/15 A2988 RMK AO2 PK WND 32029/0554 WSHFT 0540 SLP103 T03170150,M
LSV,2022-08-17 06:53,-115.0343,36.2362,570.00,91.40,57.20,31.72,300.00,18.00,0.00,29.86,M,10.00,25.00,SCT,M,M,M,15000.00,M,M,M,M,M,M,M,M,M,M,90.06,KLSV 170653Z 30018G25KT 10SM SCT150 33/14 A2986 RMK SLPNO WND DATA ESTMD ALSTG ESTMD $,M
P68,2022-08-17 06:53,-116.0056,39.6014,1993.00,76.00,36.00,23.48,190.00,6.00,0.00,30.18,1011.40,M,M,M,M,M,M,M,M,M,M,M,M,M,M,M,M,M,75.90,KP68 170653Z AUTO 19006KT 24/02 A3018 RMK AO1 SLP114 T02440022,M
DRA,2022-08-17 06:53,-116.0278,36.6206,1009.00,85.00,53.00,33.57,50.00,10.00,0.00,29.97,1009.00,10.00,M,CLR,M,M,M,M,M,M,M,M,M,M,M,M,M,M,83.21,KDRA 170653Z AUTO 05010KT 10SM CLR 29/12 A2997 RMK AO2 SLP090 T02940117,M
LOL,2022-08-17 06:53,-118.5701,40.0684,1192.43,76.00,41.00,28.56,0.00,0.00,0.00,30.02,1011.50,10.00,M,CLR,M,M,M,M,M,M,M,M,M,M,M,M,M,M,75.90,KLOL 170653Z AUTO 00000KT 10SM CLR 24/05 A3002 RMK AO2 SLP115 T02440050,M
ELY,2022-08-17 06:53,-114.8453,39.2950,1909.00,59.00,46.00,61.98,180.00,6.00,0.00,30.23,1013.10,10.00,M,CLR,M,M,M,M,M,M,M,M,M,M,M,M,M,M,59.00,KELY 170653Z AUTO 18006KT 10SM CLR 15/08 A3023 RMK AO2 SLP131 T01500078 403000089 $,M
BVU,2022-08-17 06:55,-114.8611,35.9475,671.00,87.80,59.00,37.90,340.00,6.00,0.00,29.88,M,M,M,M,M,M,M,M,M,M,M,M,M,M,M,M,M,M,87.12,KBVU 170655Z AUTO 34006KT 31/15 A2988 RMK AO2 PWINO TSNO,M
CXP,2022-08-17 06:55,-119.7326,39.1923,1431.00,68.00,46.40,45.88,0.00,0.00,0.00,30.12,M,10.00,M,CLR,M,M,M,M,M,M,M,M,M,M,M,M,M,M,68.00,KCXP 170655Z AUTO 00000KT 10SM CLR 20/08 A3012 RMK AO2,M
TMT,2022-08-17 06:55,-117.1971,39.4643,1749.34,56.80,43.70,61.46,130.00,3.00,0.00,30.20,M,10.00,M,CLR,M,M,M,M,M,M,M,M,M,M,M,M,M,M,56.80,KTMT 170655Z AUTO 13003KT 10SM CLR 14/07 A3020 RMK AO2 T01380065,M
RTS,2022-08-17 06:55,-119.8764,39.6682,1539.00,75.20,39.20,27.26,0.00,0.00,0.00,30.13,M,10.00,M,SCT,M,M,M,11000.00,M,M,M,M,M,M,M,M,M,M,75.20,KRTS 170655Z AUTO 00000KT 10SM SCT110 24/04 A3013 RMK AO2,M
RNO,2022-08-17 06:55,-119.7711,39.4839,1341.00,82.00,44.00,26.33,260.00,4.00,0.00,30.07,1011.70,10.00,M,BKN,BKN,M,M,15000.00,20000.00,M,M,M,M,M,M,M,M,M,80.22,KRNO 170655Z 26004KT 10SM BKN150 BKN200 28/07 A3007 RMK AO2 SLP117 T02780067,M
HTH,2022-08-17 06:55,-118.6315,38.5448,1282.89,78.80,42.80,27.81,160.00,5.00,0.00,30.07,M,10.00,M,M,M,M,M,M,M,M,M,M,M,M,M,M,M,M,78.80,KHTH 170655Z AUTO 16005KT 10SM 26/06 A3007 RMK A01,M
MEV,2022-08-17 06:55,-119.7500,38.9963,1441.42,62.60,44.60,51.72,0.00,0.00,0.00,30.11,M,10.00,M,CLR,M,M,M,M,M,M,M,M,M,M,M,M,M,M,62.60,KMEV 170655Z AUTO 00000KT 10SM CLR 17/07 A3011 RMK AO2,M
BAM,2022-08-17 06:55,-116.8743,40.5990,1382.36,68.00,33.80,28.11,0.00,0.00,0.00,30.08,M,10.00,M,CLR,M,M,M,M,M,M,M,M,M,M,M,M,M,M,68.00,KBAM 170655Z AUTO 00000KT 10SM CLR 20/01 A3008 RMK AO1,M
TPH,2022-08-17 06:56,-117.0904,38.0505,1654.00,72.00,47.00,40.79,360.00,5.00,0.00,30.16,1012.20,10.00,M,FEW,M,M,M,12000.00,M,M,M,M,M,M,M,M,M,M,72.00,KTPH 170656Z AUTO 36005KT 10SM FEW120 22/08 A3016 RMK AO2 SLP122 T02220083,M
LAS,2022-08-17 06:56,-115.1634,36.0719,663.00,90.00,59.00,35.36,280.00,9.00,0.00,29.89,1009.00,10.00,M,FEW,SCT,M,M,15000.00,22000.00,M,M,M,M,M,M,M,M,M,89.26,KLAS 170656Z 28009KT 10SM FEW150 SCT220 32/15 A2989 RMK AO2 SLP090 T03220150,M
WMC,2022-08-17 06:56,-117.8072,40.9019,1315.00,64.00,40.00,41.09,130.00,6.00,0.00,30.05,1012.00,10.00,M,CLR,M,M,M,M,M,M,M,M,M,M,M,M,M,M,64.00,KWMC 170656Z AUTO 13006KT 10SM CLR 18/04 A3005 RMK AO2 SLP120 T01780044,M
HND,2022-08-17 06:56,-115.1344,35.9729,742.79,90.00,60.00,36.77,350.00,7.00,0.00,29.93,1011.70,10.00,M,FEW,M,M,M,10000.00,M,M,M,M,M,M,M,M,M,M,89.66,KHND 170656Z AUTO 35007KT 10SM FEW100 32/16 A2993 RMK AO2 SLP117 T03220156 403780250,M
EKO,2022-08-17 06:56,-115.7860,40.8242,1367.00,65.00,32.00,29.12,90.00,5.00,0.00,30.12,1014.00,10.00,M,CLR,M,M,M,M,M,M,M,M,M,M,M,M,M,M,64.90,KEKO 170656Z AUTO 09005KT 10SM CLR 18/00 A3012 RMK AO2 SLP140 T01830000,M
NFL,2022-08-17 06:56,-118.7010,39.4166,1199.00,76.00,M,M,170.00,5.00,0.00,30.02,1013.60,10.00,M,CLR,M,M,M,M,M,M,M,M,M,M,M,M,M,M,M,KNFL 170656Z AUTO 17005KT 10SM CLR 24/ A3002 RMK AO2 SLP136 T0244 $,M
INS,2022-08-17 06:58,-115.6733,36.5872,955.00,77.20,61.20,57.80,20.00,8.00,0.00,29.99,1010.40,10.00,M,BKN,BKN,M,M,15000.00,18000.00,M,M,M,M,M,M,M,M,M,77.20,KINS 170658Z AUTO 02008KT 10SM BKN150 BKN180 25/16 A2999 RMK AO2 SLP104 T02510162,M
MEV,2022-08-17 07:15,-119.7500,38.9963,1441.42,64.40,44.60,48.55,0.00,0.00,0.00,30.11,M,10.00,M,CLR,M,M,M,M,M,M,M,M,M,M,M,M,M,M,64.40,KMEV 170715Z AUTO 00000KT 10SM CLR 18/07 A3011 RMK AO2,M
TMT,2022-08-17 07:15,-117.1971,39.4643,1749.34,57.00,43.50,60.55,0.00,0.00,0.00,30.20,M,10.00,M,CLR,M,M,M,M,M,M,M,M,M,M,M,M,M,M,57.00,KTMT 170715Z AUTO 00000KT 10SM CLR 14/06 A3020 RMK AO2 T01390064,M
CXP,2022-08-17 07:15,-119.7326,39.1923,1431.00,68.00,46.40,45.88,0.00,0.00,0.00,30.12,M,10.00,M,CLR,M,M,M,M,M,M,M,M,M,M,M,M,M,M,68.00,KCXP 170715Z AUTO 00000KT 10SM CLR 20/08 A3012 RMK AO2,M
RTS,2022-08-17 07:15,-119.8764,39.6682,1539.00,75.20,42.80,31.34,60.00,5.00,0.00,30.13,M,10.00,M,BKN,M,M,M,11000.00,M,M,M,M,M,M,M,M,M,M,75.20,KRTS 170715Z AUTO 06005KT 10SM BKN110 24/06 A3013 RMK AO2,M
HTH,2022-08-17 07:15,-118.6315,38.5448,1282.89,78.80,42.80,27.81,0.00,0.00,0.00,30.07,M,10.00,M,M,M,M,M,M,M,M,M,M,M,M,M,M,M,M,78.80,KHTH 170715Z AUTO 00000KT 10SM 26/06 A3007 RMK A01,M
BAM,2022-08-17 07:15,-116.8743,40.5990,1382.36,64.40,33.80,31.85,200.00,3.00,0.00,30.08,M,10.00,M,CLR,M,M,M,M,M,M,M,M,M,M,M,M,M,M,64.40,KBAM 170715Z AUTO 20003KT 10SM CLR 18/01 A3008 RMK AO1,M
BVU,2022-08-17 07:15,-114.8611,35.9475,671.00,89.60,59.00,35.81,330.00,13.00,0.00,29.88,M,M,19.00,M,M,M,M,M,M,M,M,M,M,M,M,M,M,M,88.86,KBVU 170715Z AUTO 33013G19KT 32/15 A2988 RMK AO2 PWINO TSNO,M
HTH,2022-08-17 07:35,-118.6315,38.5448,1282.89,77.00,42.80,29.51,150.00,6.00,0.00,30.07,M,10.00,M,FEW,M,M,M,12000.00,M,M,M,M,M,M,M,M,M,M,77.00,KHTH 170735Z AUTO 15006KT 10SM FEW120 25/06 A3007 RMK A01,M
TMT,2022-08-17 07:35,-117.1971,39.4643,1749.34,57.20,44.00,61.51,0.00,0.00,0.00,30.20,M,10.00,M,CLR,M,M,M,M,M,M,M,M,M,M,M,M,M,M,57.20,KTMT 170735Z AUTO 00000KT 10SM CLR 14/07 A3020 RMK AO2 T01400067,M
BVU,2022-08-17 07:35,-114.8611,35.9475,671.00,87.80,59.00,37.90,340.00,11.00,0.00,29.88,M,M,18.00,M,M,M,M,M,M,M,M,M,M,M,M,M,M,M,87.12,KBVU 170735Z AUTO 34011G18KT 31/15 A2988 RMK AO2 PWINO TSNO,M
BAM,2022-08-17 07:35,-116.8743,40.5990,1382.36,64.40,33.80,31.85,240.00,5.00,0.00,30.08,M,10.00,M,CLR,M,M,M,M,M,M,M,M,M,M,M,M,M,M,64.40,KBAM 170735Z AUTO 24005KT 10SM CLR 18/01 A3008 RMK AO1,M
MEV,2022-08-17 07:35,-119.7500,38.9963,1441.42,66.20,42.80,42.57,0.00,0.00,0.00,30.11,M,10.00,M,CLR,M,M,M,M,M,M,M,M,M,M,M,M,M,M,66.20,KMEV 170735Z AUTO 00000KT 10SM CLR 19/06 A3011 RMK AO2,M
RTS,2022-08-17 07:35,-119.8764,39.6682,1539.00,73.40,41.00,31.05,280.00,9.00,0.00,30.13,M,10.00,M,FEW,SCT,M,M,9000.00,11000.00,M,M,M,M,M,M,M,M,M,73.40,KRTS 170735Z AUTO 28009KT 10SM FEW090 SCT110 23/05 A3013 RMK AO2,M
CXP,2022-08-17 07:35,-119.7326,39.1923,1431.00,69.80,46.40,43.13,0.00,0.00,0.00,30.12,M,10.00,M,CLR,M,M,M,M,M,M,M,M,M,M,M,M,M,M,69.80,KCXP 170735Z AUTO 00000KT 10SM CLR 21/08 A3012 RMK AO2,M
CXP,2022-08-17 07:50,-119.7326,39.1923,1431.00,68.00,44.60,42.85,310.00,3.00,0.00,30.12,M,10.00,M,FEW,M,M,M,11000.00,M,M,M,M,M,M,M,M,M,M,68.00,KCXP 170750Z AUTO 31003KT 10SM FEW110 20/07 A3012 RMK AO2,M
LOL,2022-08-17 07:53,-118.5701,40.0684,1192.43,73.00,41.00,31.47,0.00,0.00,0.00,30.03,1011.80,10.00,M,CLR,M,M,M,M,M,M,M,M,M,M,M,M,M,M,73.00,KLOL 170753Z AUTO 00000KT 10SM CLR 23/05 A3003 RMK AO2 SLP118 T02280050 403780117,M
DRA,2022-08-17 07:53,-116.0278,36.6206,1009.00,84.00,52.00,33.19,130.00,9.00,0.00,29.97,1008.80,10.00,M,CLR,M,M,M,M,M,M,M,M,M,M,M,M,M,M,82.36,KDRA 170753Z AUTO 13009KT 10SM CLR 29/11 A2997 RMK AO2 SLP088 T02890111 403830233,M
P68,2022-08-17 07:53,-116.0056,39.6014,1993.00,73.00,35.00,24.97,0.00,0.00,0.00,30.18,1011.80,M,M,M,M,M,M,M,M,M,M,M,M,M,M,M,M,M,73.00,KP68 170753Z AUTO 00000KT 23/02 A3018 RMK AO1 SLP118 T02280017 403280094,M
VGT,2022-08-17 07:53,-115.1933,36.2111,667.00,90.00,55.00,30.61,330.00,10.00,0.00,29.87,1010.00,10.00,M,CLR,M,M,M,M,M,M,M,M,M,M,M,M,M,M,88.06,KVGT 170753Z AUTO 33010KT 10SM CLR 32/13 A2987 RMK AO2 SLP100 T03220128 403890272,M
ELY,2022-08-17 07:53,-114.8453,39.2950,1909.00,58.00,47.00,66.70,170.00,10.00,0.00,30.23,1013.30,10.00,M,CLR,M,M,M,M,M,M,M,M,M,M,M,M,M,M,57.90,KELY 170753Z AUTO 17010KT 10SM CLR 14/08 A3023 RMK AO2 SLP133 T01440083 $,M
HTH,2022-08-17 07:55,-118.6315,38.5448,1282.89,77.00,44.60,31.62,170.00,5.00,0.00,30.07,M,10.00,M,CLR,M,M,M,M,M,M,M,M,M,M,M,M,M,M,77.00,KHTH 170755Z AUTO 17005KT 10SM CLR 25/07 A3007 RMK A01,M
BAM,2022-08-17 07:55,-116.8743,40.5990,1382.36,64.40,32.00,29.63,170.00,4.00,0.00,30.09,M,10.00,M,CLR,M,M,M,M,M,M,M,M,M,M,M,M,M,M,64.40,KBAM 170755Z AUTO 17004KT 10SM CLR 18/00 A3009 RMK AO1,M
MEV,2022-08-17 07:55,-119.7500,38.9963,1441.42,62.60,42.80,48.28,0.00,0.00,0.00,30.11,M,10.00,M,CLR,M,M,M,M,M,M,M,M,M,M,M,M,M,M,62.60,KMEV 170755Z AUTO 00000KT 10SM CLR 17/06 A3011 RMK AO2,M
RTS,2022-08-17 07:55,-119.8764,39.6682,1539.00,71.60,41.00,33.00,0.00,0.00,0.00,30.13,M,10.00,M,SCT,M,M,M,12000.00,M,M,M,M,M,M,M,M,M,M,71.60,KRTS 170755Z AUTO 00000KT 10SM SCT120 22/05 A3013 RMK AO2,M
RNO,2022-08-17 07:55,-119.7711,39.4839,1341.00,80.00,45.00,28.99,290.00,5.00,0.00,30.06,1011.40,10.00,M,BKN,BKN,M,M,15000.00,20000.00,M,M,M,M,M,M,M,M,M,79.18,KRNO 170755Z 29005KT 10SM BKN150 BKN200 27/07 A3006 RMK AO2 SLP114 T02670072 403670172,M
TMT,2022-08-17 07:55,-117.1971,39.4643,1749.34,56.80,44.40,63.12,240.00,4.00,0.00,30.20,M,10.00,M,CLR,M,M,M,M,M,M,M,M,M,M,M,M,M,M,56.80,KTMT 170755Z AUTO 24004KT 10SM CLR 14/07 A3020 RMK AO2 T01380069,M
BVU,2022-08-17 07:55,-114.8611,35.9475,671.00,87.80,59.00,37.90,350.00,11.00,0.00,29.88,M,M,17.00,M,M,M,M,M,M,M,M,M,M,M,M,M,M,M,87.12,KBVU 170755Z AUTO 35011G17KT 31/15 A2988 RMK AO2 PWINO TSNO,M
LAS,2022-08-17 07:56,-115.1634,36.0719,663.00,88.00,59.00,37.66,40.00,7.00,0.00,29.89,1009.00,10.00,M,SCT,M,M,M,25000.00,M,M,M,M,M,M,M,M,M,M,87.31,KLAS 170756Z 04007KT 10SM SCT250 31/15 A2989 RMK AO2 SLP090 T03110150 403830278,M
EKO,2022-08-17 07:56,-115.7860,40.8242,1367.00,61.00,36.00,39.19,60.00,3.00,0.00,30.13,1014.40,10.00,M,CLR,M,M,M,M,M,M,M,M,M,M,M,M,M,M,61.00,KEKO 170756Z AUTO 06003KT 10SM CLR 16/02 A3013 RMK AO2 SLP144 T01610022 403390106,M
NFL,2022-08-17 07:56,-118.7010,39.4166,1199.00,76.00,M,M,160.00,6.00,0.00,30.02,1013.70,10.00,M,CLR,M,M,M,M,M,M,M,M,M,M,M,M,M,M,M,KNFL 170756Z AUTO 16006KT 10SM CLR 24/ A3002 RMK AO2 SLP137 T0244 403830189 $,M
WMC,2022-08-17 07:56,-117.8072,40.9019,1315.00,63.00,39.00,41.09,80.00,6.00,0.00,30.06,1012.30,10.00,M,CLR,M,M,M,M,M,M,M,M,M,M,M,M,M,M,63.00,KWMC 170756Z AUTO 08006KT 10SM CLR 17/04 A3006 RMK AO2 SLP123 T01720039 403780122,M
HND,2022-08-17 07:56,-115.1344,35.9729,742.79,87.00,58.00,37.25,0.00,0.00,0.00,29.93,1011.70,10.00,M,CLR,M,M,M,M,M,M,M,M,M,M,M,M,M,M,86.14,KHND 170756Z AUTO 00000KT 10SM CLR 31/14 A2993 RMK AO2 SLP117 T03060144,M
TPH,2022-08-17 07:56,-117.0904,38.0505,1654.00,71.00,48.00,43.83,350.00,6.00,0.00,30.16,1011.80,10.00,M,CLR,M,M,M,M,M,M,M,M,M,M,M,M,M,M,71.10,KTPH 170756Z AUTO 35006KT 10SM CLR 22/09 A3016 RMK AO2 SLP118 T02170089 403280178,M
INS,2022-08-17 07:58,-115.6733,36.5872,955.00,77.50,60.00,55.03,0.00,0.00,0.00,29.98,1009.90,10.00,M,BKN,M,M,M,20000.00,M,M,M,M,M,M,M,M,M,M,77.50,KINS 170758Z AUTO 00000KT 10SM BKN200 25/16 A2998 RMK AO2 SLP099 T02530156 403660227,M
LSV,2022-08-17 07:58,-115.0343,36.2362,570.00,87.80,57.20,35.53,310.00,6.00,0.00,29.84,1007.60,10.00,M,SCT,M,M,M,15000.00,M,M,M,M,M,M,M,M,M,M,86.58,KLSV 170758Z 31006KT 10SM SCT150 31/14 A2984 RMK SLP076 WND DATA ESTMD ALSTG/SLP ESTMD,M
CXP,2022-08-17 08:15,-119.7326,39.1923,1431.00,66.20,48.20,52.25,0.00,0.00,0.00,30.12,M,10.00,M,FEW,M,M,M,11000.00,M,M,M,M,M,M,M,M,M,M,66.20,KCXP 170815Z AUTO 00000KT 10SM FEW110 19/09 A3012 RMK AO2,M
BVU,2022-08-17 08:15,-114.8611,35.9475,671.00,87.80,57.20,35.53,340.00,12.00,0.00,29.88,M,M,M,M,M,M,M,M,M,M,M,M,M,M,M,M,M,M,86.58,KBVU 170815Z AUTO 34012KT 31/14 A2988 RMK AO2 PWINO TSNO,M
RTS,2022-08-17 08:15,-119.8764,39.6682,1539.00,73.40,41.00,31.05,360.00,10.00,0.00,30.13,M,10.00,M,FEW,FEW,BKN,M,4900.00,7000.00,12000.00,M,M,M,M,M,M,M,M,73.40,KRTS 170815Z AUTO 36010KT 10SM FEW049 FEW070 BKN120 23/05 A3013 RMK AO2,M
MEV,2022-08-17 08:15,-119.7500,38.9963,1441.42,60.80,42.80,51.45,0.00,0.00,0.00,30.11,M,10.00,M,CLR,M,M,M,M,M,M,M,M,M,M,M,M,M,M,60.80,KMEV 170815Z AUTO 00000KT 10SM CLR 16/06 A3011 RMK AO2,M
BAM,2022-08-17 08:15,-116.8743,40.5990,1382.36,62.60,32.00,31.56,160.00,6.00,0.00,30.09,M,10.00,M,CLR,M,M,M,M,M,M,M,M,M,M,M,M,M,M,62.60,KBAM 170815Z AUTO 16006KT 10SM CLR 17/00 A3009 RMK AO1,M
HTH,2022-08-17 08:15,-118.6315,38.5448,1282.89,77.00,42.80,29.51,150.00,5.00,0.00,30.07,M,10.00,M,CLR,M,M,M,M,M,M,M,M,M,M,M,M,M,M,77.00,KHTH 170815Z AUTO 15005KT 10SM CLR 25/06 A3007 RMK A01,M
TMT,2022-08-17 08:15,-117.1971,39.4643,1749.34,58.50,45.00,60.75,220.00,5.00,0.00,30.20,M,10.00,M,CLR,M,M,M,M,M,M,M,M,M,M,M,M,M,M,58.50,KTMT 170815Z AUTO 22005KT 10SM CLR 15/07 A3020 RMK AO2 T01470072,M
CXP,2022-08-17 08:35,-119.7326,39.1923,1431.00,66.20,46.40,48.83,350.00,3.00,0.00,30.12,M,10.00,M,CLR,M,M,M,M,M,M,M,M,M,M,M,M,M,M,66.20,KCXP 170835Z AUTO 35003KT 10SM CLR 19/08 A3012 RMK AO2,M
RTS,2022-08-17 08:35,-119.8764,39.6682,1539.00,71.60,41.00,33.00,270.00,8.00,0.00,30.13,M,10.00,M,FEW,FEW,FEW,M,7000.00,9500.00,12000.00,M,M,M,M,M,M,M,M,71.60,KRTS 170835Z AUTO 27008KT 10SM FEW070 FEW095 FEW120 22/05 A3013 RMK AO2,M
TMT,2022-08-17 08:35,-117.1971,39.4643,1749.34,58.60,44.80,60.07,220.00,4.00,0.00,30.20,M,10.00,M,CLR,M,M,M,M,M,M,M,M,M,M,M,M,M,M,58.60,KTMT 170835Z AUTO 22004KT 10SM CLR 15/07 A3020 RMK AO2 T01480071,M
HTH,2022-08-17 08:35,-118.6315,38.5448,1282.89,75.20,42.80,31.34,170.00,5.00,0.00,30.08,M,10.00,M,CLR,M,M,M,M,M,M,M,M,M,M,M,M,M,M,75.20,KHTH 170835Z AUTO 17005KT 10SM CLR 24/06 A3008 RMK A01,M
BAM,2022-08-17 08:35,-116.8743,40.5990,1382.36,62.60,33.80,33.93,120.00,5.00,0.00,30.10,M,10.00,M,CLR,M,M,M,M,M,M,M,M,M,M,M,M,M,M,62.60,KBAM 170835Z AUTO 12005KT 10SM CLR 17/01 A3010 RMK AO1,M
BVU,2022-08-17 08:35,-114.8611,35.9475,671.00,87.80,55.40,33.29,330.00,11.00,0.00,29.89,M,M,M,M,M,M,M,M,M,M,M,M,M,M,M,M,M,M,86.11,KBVU 170835Z AUTO 33011KT 31/13 A2989 RMK AO2 PWINO TSNO,M
MEV,2022-08-17 08:35,-119.7500,38.9963,1441.42,59.00,41.00,51.18,0.00,0.00,0.00,30.11,M,10.00,M,CLR,M,M,M,M,M,M,M,M,M,M,M,M,M,M,59.00,KMEV 170835Z AUTO 00000KT 10SM CLR 15/05 A3011 RMK AO2,M
DRA,2022-08-17 08:53,-116.0278,36.6206,1009.00,80.00,59.00,48.58,100.00,12.00,0.00,29.96,1008.80,10.00,M,CLR,M,M,M,M,M,M,M,M,M,M,M,M,M,M,80.76,KDRA 170853Z AUTO 10012KT 10SM CLR 27/15 A2996 RMK AO2 SLP088 T02670150 56004,M
P68,2022-08-17 08:53,-116.0056,39.6014,1993.00,68.00,36.00,30.69,170.00,8.00,0.00,30.18,1012.40,M,M,M,M,M,M,M,M,M,M,M,M,M,M,M,M,M,68.00,KP68 170853Z AUTO 17008KT 20/02 A3018 RMK AO1 SLP124 T02000022 51005,M
ELY,2022-08-17 08:53,-114.8453,39.2950,1909.00,56.00,47.00,71.69,160.00,9.00,0.00,30.24,1013.70,10.00,M,CLR,M,M,M,M,M,M,M,M,M,M,M,M,M,M,55.90,KELY 170853Z AUTO 16009KT 10SM CLR 13/08 A3024 RMK AO2 SLP137 T01330083 51005 $,M
LOL,2022-08-17 08:53,-118.5701,40.0684,1192.43,70.00,42.00,36.36,90.00,4.00,0.00,30.03,1011.90,10.00,M,CLR,M,M,M,M,M,M,M,M,M,M,M,M,M,M,70.00,KLOL 170853Z AUTO 09004KT 10SM CLR 21/06 A3003 RMK AO2 SLP119 T02110056 51004,M
VGT,2022-08-17 08:53,-115.1933,36.2111,667.00,89.00,57.00,33.85,340.00,7.00,0.00,29.88,1010.20,10.00,M,CLR,M,M,M,M,M,M,M,M,M,M,M,M,M,M,87.74,KVGT 170853Z AUTO 34007KT 10SM CLR 32/14 A2988 RMK AO2 SLP102 T03170139 53000,M
HTH,2022-08-17 08:55,-118.6315,38.5448,1282.89,73.40,44.60,35.66,130.00,4.00,0.00,30.08,M,10.00,M,CLR,M,M,M,M,M,M,M,M,M,M,M,M,M,M,73.40,KHTH 170855Z AUTO 13004KT 10SM CLR 23/07 A3008 RMK A01,M
BAM,2022-08-17 08:55,-116.8743,40.5990,1382.36,64.40,35.60,34.22,0.00,0.00,0.00,30.10,M,10.00,M,CLR,M,M,M,M,M,M,M,M,M,M,M,M,M,M,64.40,KBAM 170855Z AUTO 00000KT 10SM CLR 18/02 A3010 RMK AO1,M
RTS,2022-08-17 08:55,-119.8764,39.6682,1539.00,71.60,41.00,33.00,310.00,6.00,0.00,30.13,M,10.00,M,FEW,M,M,M,12000.00,M,M,M,M,M,M,M,M,M,M,71.60,KRTS 170855Z AUTO 31006KT 10SM FEW120 22/05 A3013 RMK AO2,M
RNO,2022-08-17 08:55,-119.7711,39.4839,1341.00,77.00,45.00,32.10,0.00,0.00,0.00,30.08,1011.70,10.00,M,BKN,BKN,M,M,14000.00,18000.00,M,M,M,M,M,M,M,M,M,77.00,KRNO 170855Z 00000KT 10SM BKN140 BKN180 25/07 A3008 RMK AO2 SLP117 T02500072 53004,M
TMT,2022-08-17 08:55,-117.1971,39.4643,1749.34,52.30,42.40,68.89,0.00,0.00,0.00,30.21,M,10.00,M,CLR,M,M,M,M,M,M,M,M,M,M,M,M,M,M,52.30,KTMT 170855Z AUTO 00000KT 10SM CLR 11/06 A3021 RMK AO2 T01130058,M
CXP,2022-08-17 08:55,-119.7326,39.1923,1431.00,68.00,44.60,42.85,0.00,0.00,0.00,30.12,M,10.00,M,CLR,M,M,M,M,M,M,M,M,M,M,M,M,M,M,68.00,KCXP 170855Z AUTO 00000KT 10SM CLR 20/07 A3012 RMK AO2,M
BVU,2022-08-17 08:55,-114.8611,35.9475,671.00,87.80,55.40,33.29,340.00,7.00,0.00,29.89,M,M,14.00,M,M,M,M,M,M,M,M,M,M,M,M,M,M,M,86.11,KBVU 170855Z AUTO 34007G14KT 31/13 A2989 RMK AO2 PWINO TSNO,M
MEV,2022-08-17 08:55,-119.7500,38.9963,1441.42,62.60,42.80,48.28,140.00,5.00,0.00,30.11,M,10.00,M,CLR,M,M,M,M,M,M,M,M,M,M,M,M,M,M,62.60,KMEV 170855Z AUTO 14005KT 10SM CLR 17/06 A3011 RMK AO2,M
NFL,2022-08-17 08:56,-118.7010,39.4166,1199.00,75.00,M,M,0.00,0.00,0.00,30.03,1013.90,10.00,M,CLR,M,M,M,M,M,M,M,M,M,M,M,M,M,M,M,KNFL 170856Z AUTO 00000KT 10SM CLR 24/ A3003 RMK AO2 SLP139 T0239 53004 $,M
TPH,2022-08-17 08:56,-117.0904,38.0505,1654.00,71.00,46.00,40.65,20.00,10.00,0.00,30.15,1012.10,10.00,M,SCT,M,M,M,12000.00,M,M,M,M,M,M,M,M,M,M,71.10,KTPH 170856Z AUTO 02010KT 10SM SCT120 22/08 A3015 RMK AO2 SLP121 T02170078 58002,M
WMC,2022-08-17 08:56,-117.8072,40.9019,1315.00,60.00,38.00,43.61,160.00,6.00,0.00,30.07,1012.70,10.00,M,CLR,M,M,M,M,M,M,M,M,M,M,M,M,M,M,60.10,KWMC 170856Z AUTO 16006KT 10SM CLR 16/03 A3007 RMK AO2 SLP127 T01560033 51011,M
LAS,2022-08-17 08:56,-115.1634,36.0719,663.00,88.00,56.00,33.68,0.00,0.00,0.00,29.89,1009.10,10.00,M,FEW,SCT,M,M,15000.00,25000.00,M,M,M,M,M,M,M,M,M,86.42,KLAS 170856Z 00000KT 10SM FEW150 SCT250 31/13 A2989 RMK AO2 SLP091 T03110133 51003,M
EKO,2022-08-17 08:56,-115.7860,40.8242,1367.00,59.00,35.00,40.61,340.00,3.00,0.00,30.14,1014.80,10.00,M,CLR,M,M,M,M,M,M,M,M,M,M,M,M,M,M,59.00,KEKO 170856Z AUTO 34003KT 10SM CLR 15/02 A3014 RMK AO2 SLP148 T01500017 51007,M
HND,2022-08-17 08:56,-115.1344,35.9729,742.79,84.00,61.00,45.96,90.00,5.00,0.00,29.93,1011.80,10.00,M,CLR,M,M,M,M,M,M,M,M,M,M,M,M,M,M,84.32,KHND 170856Z AUTO 09005KT 10SM CLR 29/16 A2993 RMK AO2 SLP118 T02890161 51005,M
INS,2022-08-17 08:58,-115.6733,36.5872,955.00,75.60,63.00,64.95,360.00,4.00,0.00,29.98,1009.90,10.00,M,BKN,OVC,M,M,13000.00,15000.00,M,M,M,M,M,M,M,M,M,75.60,KINS 170858Z AUTO 36004KT 10SM BKN130 OVC150 24/17 A2998 RMK AO2 SLP099 T02420172 58002,M
LSV,2022-08-17 08:58,-115.0343,36.2362,570.00,86.00,57.20,37.62,40.00,2.00,0.00,29.85,1007.90,10.00,M,SCT,M,M,M,15000.00,M,M,M,M,M,M,M,M,M,M,84.97,KLSV 170858Z 04002KT 10SM SCT150 30/14 A2985 RMK SLP079 WND DATA ESTMD ALSTG/SLP ESTMD,M
CXP,2022-08-17 09:15,-119.7326,39.1923,1431.00,66.20,48.20,52.25,0.00,0.00,0.00,30.13,M,10.00,M,CLR,M,M,M,M,M,M,M,M,M,M,M,M,M,M,66.20,KCXP 170915Z AUTO 00000KT 10SM CLR 19/09 A3013 RMK AO2,M
RTS,2022-08-17 09:15,-119.8764,39.6682,1539.00,71.60,39.20,30.77,0.00,0.00,0.00,30.13,M,10.00,M,FEW,M,M,M,11000.00,M,M,M,M,M,M,M,M,M,M,71.60,KRTS 170915Z AUTO 00000KT 10SM FEW110 22/04 A3013 RMK AO2,M
MEV,2022-08-17 09:15,-119.7500,38.9963,1441.42,59.00,42.80,54.86,100.00,4.00,0.00,30.11,M,10.00,M,CLR,M,M,M,M,M,M,M,M,M,M,M,M,M,M,59.00,KMEV 170915Z AUTO 10004KT 10SM CLR 15/06 A3011 RMK AO2,M
TMT,2022-08-17 09:15,-117.1971,39.4643,1749.34,53.20,42.00,65.38,0.00,0.00,0.00,30.21,M,10.00,M,CLR,M,M,M,M,M,M,M,M,M,M,M,M,M,M,53.20,KTMT 170915Z AUTO 00000KT 10SM CLR 12/06 A3021 RMK AO2 T01180055,M
BAM,2022-08-17 09:15,-116.8743,40.5990,1382.36,62.60,35.60,36.45,0.00,0.00,0.00,30.10,M,10.00,M,CLR,M,M,M,M,M,M,M,M,M,M,M,M,M,M,62.60,KBAM 170915Z AUTO 00000KT 10SM CLR 17/02 A3010 RMK AO1,M
HTH,2022-08-17 09:15,-118.6315,38.5448,1282.89,71.60,44.60,37.89,170.00,3.00,0.00,30.08,M,10.00,M,CLR,M,M,M,M,M,M,M,M,M,M,M,M,M,M,71.60,KHTH 170915Z AUTO 17003KT 10SM CLR 22/07 A3008 RMK A01,M
BVU,2022-08-17 09:15,-114.8611,35.9475,671.00,87.80,55.40,33.29,50.00,4.00,0.00,29.89,M,M,M,M,M,M,M,M,M,M,M,M,M,M,M,M,M,M,86.11,KBVU 170915Z AUTO 05004KT 31/13 A2989 RMK AO2 PWINO TSNO,M
HTH,2022-08-17 09:35,-118.6315,38.5448,1282.89,73.40,44.60,35.66,210.00,3.00,0.00,30.08,M,10.00,M,CLR,M,M,M,M,M,M,M,M,M,M,M,M,M,M,73.40,KHTH 170935Z AUTO 21003KT 10SM CLR 23/07 A3008 RMK A01,M
BVU,2022-08-17 09:35,-114.8611,35.9475,671.00,84.20,59.00,42.52,0.00,0.00,0.00,29.89,M,M,M,M,M,M,M,M,M,M,M,M,M,M,M,M,M,M,83.92,KBVU 170935Z AUTO 00000KT 29/15 A2989 RMK AO2 PWINO TSNO,M
CXP,2022-08-17 09:35,-119.7326,39.1923,1431.00,66.20,48.20,52.25,0.00,0.00,0.00,30.13,M,10.00,M,CLR,M,M,M,M,M,M,M,M,M,M,M,M,M,M,66.20,KCXP 170935Z AUTO 00000KT 10SM CLR 19/09 A3013 RMK AO2,M
RTS,2022-08-17 09:35,-119.8764,39.6682,1539.00,71.60,39.20,30.77,340.00,3.00,0.00,30.13,M,10.00,M,FEW,FEW,BKN,M,6500.00,8000.00,11000.00,M,M,M,M,M,M,M,M,71.60,KRTS 170935Z AUTO 34003KT 10SM FEW065 FEW080 BKN110 22/04 A3013 RMK AO2,M
MEV,2022-08-17 09:35,-119.7500,38.9963,1441.42,59.00,44.60,58.77,0.00,0.00,0.00,30.12,M,10.00,M,CLR,M,M,M,M,M,M,M,M,M,M,M,M,M,M,59.00,KMEV 170935Z AUTO 00000KT 10SM CLR 15/07 A3012 RMK AO2,M
BAM,2022-08-17 09:35,-116.8743,40.5990,1382.36,62.60,33.80,33.93,250.00,3.00,0.00,30.10,M,10.00,M,CLR,M,M,M,M,M,M,M,M,M,M,M,M,M,M,62.60,KBAM 170935Z AUTO 25003KT 10SM CLR 17/01 A3010 RMK AO1,M
TMT,2022-08-17 09:35,-117.1971,39.4643,1749.34,54.00,42.00,63.49,0.00,0.00,0.00,30.21,M,10.00,M,CLR,M,M,M,M,M,M,M,M,M,M,M,M,M,M,54.00,KTMT 170935Z AUTO 00000KT 10SM CLR 12/06 A3021 RMK AO2 T01220055,M
P68,2022-08-17 09:53,-116.0056,39.6014,1993.00,64.00,37.00,36.68,0.00,0.00,0.00,30.19,1013.10,M,M,M,M,M,M,M,M,M,M,M,M,M,M,M,M,M,64.00,KP68 170953Z AUTO 00000KT 18/03 A3019 RMK AO1 SLP131 T01780028,M
ELY,2022-08-17 09:53,-114.8453,39.2950,1909.00,54.00,47.00,76.83,180.00,6.00,0.00,30.24,1014.00,10.00,M,CLR,M,M,M,M,M,M,M,M,M,M,M,M,M,M,54.00,KELY 170953Z AUTO 18006KT 10SM CLR 12/08 A3024 RMK AO2 SLP140 T01220083 $,M
DRA,2022-08-17 09:53,-116.0278,36.6206,1009.00,80.00,57.00,45.21,110.00,9.00,0.00,29.98,1009.40,10.00,M,CLR,M,M,M,M,M,M,M,M,M,M,M,M,M,M,80.45,KDRA 170953Z AUTO 11009KT 10SM CLR 27/14 A2998 RMK AO2 SLP094 T02670139,M
VGT,2022-08-17 09:53,-115.1933,36.2111,667.00,88.00,57.00,35.05,340.00,6.00,0.00,29.89,1010.60,10.00,M,CLR,M,M,M,M,M,M,M,M,M,M,M,M,M,M,86.71,KVGT 170953Z AUTO 34006KT 10SM CLR 31/14 A2989 RMK AO2 SLP106 T03110139,M
LOL,2022-08-17 09:53,-118.5701,40.0684,1192.43,68.00,43.00,40.31,10.00,3.00,0.00,30.02,1011.60,10.00,M,CLR,M,M,M,M,M,M,M,M,M,M,M,M,M,M,68.00,KLOL 170953Z AUTO 01003KT 10SM CLR 20/06 A3002 RMK AO2 SLP116 T02000061,M
CXP,2022-08-17 09:55,-119.7326,39.1923,1431.00,64.40,48.20,55.63,0.00,0.00,0.00,30.13,M,10.00,M,CLR,M,M,M,M,M,M,M,M,M,M,M,M,M,M,64.40,KCXP 170955Z AUTO 00000KT 10SM CLR 18/09 A3013 RMK AO2,M
BAM,2022-08-17 09:55,-116.8743,40.5990,1382.36,60.80,33.80,36.16,210.00,4.00,0.00,30.10,M,10.00,M,CLR,M,M,M,M,M,M,M,M,M,M,M,M,M,M,60.80,KBAM 170955Z AUTO 21004KT 10SM CLR 16/01 A3010 RMK AO1,M
TMT,2022-08-17 09:55,-117.1971,39.4643,1749.34,51.60,41.00,66.98,0.00,0.00,0.00,30.21,M,10.00,M,CLR,M,M,M,M,M,M,M,M,M,M,M,M,M,M,51.60,KTMT 170955Z AUTO 00000KT 10SM CLR 11/05 A3021 RMK AO2 T01090050,M
RTS,2022-08-17 09:55,-119.8764,39.6682,1539.00,71.60,39.20,30.77,0.00,0.00,0.00,30.14,M,10.00,M,CLR,M,M,M,M,M,M,M,M,M,M,M,M,M,M,71.60,KRTS 170955Z AUTO 00000KT 10SM CLR 22/04 A3014 RMK AO2,M
MEV,2022-08-17 09:55,-119.7500,38.9963,1441.42,59.00,44.60,58.77,0.00,0.00,0.00,30.12,M,10.00,M,CLR,M,M,M,M,M,M,M,M,M,M,M,M,M,M,59.00,KMEV 170955Z AUTO 00000KT 10SM CLR 15/07 A3012 RMK AO2,M
BVU,2022-08-17 09:55,-114.8611,35.9475,671.00,84.20,60.80,45.34,0.00,0.00,0.00,29.90,M,M,M,M,M,M,M,M,M,M,M,M,M,M,M,M,M,M,84.43,KBVU 170955Z AUTO 00000KT 29/16 A2990 RMK AO2 PWINO TSNO,M
RNO,2022-08-17 09:55,-119.7711,39.4839,1341.00,78.00,44.00,29.91,250.00,5.00,0.00,30.08,1011.70,10.00,M,BKN,BKN,M,M,15000.00,18000.00,M,M,M,M,M,M,M,M,M,78.10,KRNO 170955Z 25005KT 10SM BKN150 BKN180 26/07 A3008 RMK AO2 SLP117 T02560067,M
HTH,2022-08-17 09:55,-118.6315,38.5448,1282.89,71.60,46.40,40.57,140.00,3.00,0.00,30.08,M,10.00,M,CLR,M,M,M,M,M,M,M,M,M,M,M,M,M,M,71.60,KHTH 170955Z AUTO 14003KT 10SM CLR 22/08 A3008 RMK A01,M
NFL,2022-08-17 09:56,-118.7010,39.4166,1199.00,74.00,M,M,230.00,4.00,0.00,30.04,1014.00,10.00,M,CLR,M,M,M,M,M,M,M,M,M,M,M,M,M,M,M,KNFL 170956Z AUTO 23004KT 10SM CLR 23/ A3004 RMK AO2 SLP140 T0233 $,M
EKO,2022-08-17 09:56,-115.7860,40.8242,1367.00,52.00,38.00,58.48,0.00,0.00,0.00,30.15,1015.60,10.00,M,CLR,M,M,M,M,M,M,M,M,M,M,M,M,M,M,52.00,KEKO 170956Z AUTO 00000KT 10SM CLR 11/03 A3015 RMK AO2 SLP156 T01110033,M
WMC,2022-08-17 09:56,-117.8072,40.9019,1315.00,58.00,38.00,47.18,330.00,3.00,0.00,30.07,1013.20,10.00,M,CLR,M,M,M,M,M,M,M,M,M,M,M,M,M,M,57.90,KWMC 170956Z AUTO 33003KT 10SM CLR 14/03 A3007 RMK AO2 SLP132 T01440033,M
LAS,2022-08-17 09:56,-115.1634,36.0719,663.00,86.00,59.00,40.14,0.00,0.00,0.00,29.90,1009.50,10.00,M,SCT,M,M,M,25000.00,M,M,M,M,M,M,M,M,M,M,85.47,KLAS 170956Z 00000KT 10SM SCT250 30/15 A2990 RMK AO2 SLP095 T03000150,M
HND,2022-08-17 09:56,-115.1344,35.9729,742.79,84.00,59.00,42.80,90.00,4.00,0.00,29.94,1012.10,10.00,M,CLR,M,M,M,M,M,M,M,M,M,M,M,M,M,M,83.75,KHND 170956Z AUTO 09004KT 10SM CLR 29/15 A2994 RMK AO2 SLP121 T02890150,M
TPH,2022-08-17 09:56,-117.0904,38.0505,1654.00,69.00,46.00,43.52,350.00,6.00,0.00,30.16,1012.60,10.00,M,SCT,M,M,M,12000.00,M,M,M,M,M,M,M,M,M,M,69.10,KTPH 170956Z AUTO 35006KT 10SM SCT120 21/08 A3016 RMK AO2 SLP126 T02060078,M
INS,2022-08-17 09:58,-115.6733,36.5872,955.00,75.20,64.80,70.11,240.00,4.00,0.00,29.99,1010.20,10.00,M,OVC,M,M,M,14000.00,M,M,M,M,M,M,M,M,M,M,75.20,KINS 170958Z AUTO 24004KT 10SM OVC140 24/18 A2999 RMK AO2 SLP102 T02400182,M
LSV,2022-08-17 09:58,-115.0343,36.2362,570.00,86.00,57.20,37.62,50.00,3.00,0.00,29.85,1007.90,10.00,M,SCT,M,M,M,15000.00,M,M,M,M,M,M,M,M,M,M,84.97,KLSV 170958Z COR 05003KT 10SM SCT150 30/14 A2985 RMK AO2 SLP079 WND DATA ESMTD ALSTG/SLP ESTMD $ COR 1101,M
BVU,2022-08-17 10:15,-114.8611,35.9475,671.00,82.40,60.80,48.05,20.00,4.00,0.00,29.90,M,M,M,M,M,M,M,M,M,M,M,M,M,M,M,M,M,M,82.90,KBVU 171015Z AUTO 02004KT 28/16 A2990 RMK AO2 PWINO TSNO,M
HTH,2022-08-17 10:15,-118.6315,38.5448,1282.89,69.80,42.80,37.61,140.00,6.00,0.00,30.08,M,10.00,M,CLR,M,M,M,M,M,M,M,M,M,M,M,M,M,M,69.80,KHTH 171015Z AUTO 14006KT 10SM CLR 21/06 A3008 RMK A01,M
BAM,2022-08-17 10:15,-116.8743,40.5990,1382.36,60.80,33.80,36.16,0.00,0.00,0.00,30.11,M,10.00,M,CLR,M,M,M,M,M,M,M,M,M,M,M,M,M,M,60.80,KBAM 171015Z AUTO 00000KT 10SM CLR 16/01 A3011 RMK AO1,M
MEV,2022-08-17 10:15,-119.7500,38.9963,1441.42,59.00,46.40,62.92,0.00,0.00,0.00,30.12,M,10.00,M,CLR,M,M,M,M,M,M,M,M,M,M,M,M,M,M,59.00,KMEV 171015Z AUTO 00000KT 10SM CLR 15/08 A3012 RMK AO2,M
RTS,2022-08-17 10:15,-119.8764,39.6682,1539.00,71.60,39.20,30.77,50.00,4.00,0.00,30.14,M,10.00,M,CLR,M,M,M,M,M,M,M,M,M,M,M,M,M,M,71.60,KRTS 171015Z AUTO 05004KT 10SM CLR 22/04 A3014 RMK AO2,M
CXP,2022-08-17 10:15,-119.7326,39.1923,1431.00,66.20,48.20,52.25,0.00,0.00,0.00,30.13,M,10.00,M,CLR,M,M,M,M,M,M,M,M,M,M,M,M,M,M,66.20,KCXP 171015Z AUTO 00000KT 10SM CLR 19/09 A3013 RMK AO2,M
TMT,2022-08-17 10:15,-117.1971,39.4643,1749.34,50.00,40.60,69.98,0.00,0.00,0.00,30.21,M,10.00,M,CLR,M,M,M,M,M,M,M,M,M,M,M,M,M,M,50.00,KTMT 171015Z AUTO 00000KT 10SM CLR 10/05 A3021 RMK AO2 T01000048,M
CXP,2022-08-17 10:35,-119.7326,39.1923,1431.00,64.40,50.00,59.50,0.00,0.00,0.00,30.14,M,10.00,M,CLR,M,M,M,M,M,M,M,M,M,M,M,M,M,M,64.40,KCXP 171035Z AUTO 00000KT 10SM CLR 18/10 A3014 RMK AO2,M
MEV,2022-08-17 10:35,-119.7500,38.9963,1441.42,60.80,46.40,59.01,0.00,0.00,0.00,30.12,M,10.00,M,CLR,M,M,M,M,M,M,M,M,M,M,M,M,M,M,60.80,KMEV 171035Z AUTO 00000KT 10SM CLR 16/08 A3012 RMK AO2,M
BAM,2022-08-17 10:35,-116.8743,40.5990,1382.36,59.00,33.80,38.56,170.00,3.00,0.00,30.11,M,10.00,M,CLR,M,M,M,M,M,M,M,M,M,M,M,M,M,M,59.00,KBAM 171035Z AUTO 17003KT 10SM CLR 15/01 A3011 RMK AO1,M
HTH,2022-08-17 10:35,-118.6315,38.5448,1282.89,71.60,44.60,37.89,180.00,4.00,0.00,30.08,M,10.00,M,CLR,M,M,M,M,M,M,M,M,M,M,M,M,M,M,71.60,KHTH 171035Z AUTO 18004KT 10SM CLR 22/07 A3008 RMK A01,M
TMT,2022-08-17 10:35,-117.1971,39.4643,1749.34,52.20,42.00,67.83,0.00,0.00,0.00,30.21,M,10.00,M,CLR,M,M,M,M,M,M,M,M,M,M,M,M,M,M,52.20,KTMT 171035Z AUTO 00000KT 10SM CLR 11/06 A3021 RMK AO2 T01120055,M
BVU,2022-08-17 10:35,-114.8611,35.9475,671.00,82.40,60.80,48.05,0.00,0.00,0.00,29.91,M,M,M,M,M,M,M,M,M,M,M,M,M,M,M,M,M,M,82.90,KBVU 171035Z AUTO 00000KT 28/16 A2991 RMK AO2 PWINO TSNO,M
RTS,2022-08-17 10:35,-119.8764,39.6682,1539.00,69.80,39.20,32.72,330.00,3.00,0.00,30.14,M,10.00,M,CLR,M,M,M,M,M,M,M,M,M,M,M,M,M,M,69.80,KRTS 171035Z AUTO 33003KT 10SM CLR 21/04 A3014 RMK AO2,M
LOL,2022-08-17 10:53,-118.5701,40.0684,1192.43,69.00,42.00,37.50,90.00,6.00,0.00,30.04,1012.20,10.00,M,CLR,M,M,M,M,M,M,M,M,M,M,M,M,M,M,69.10,KLOL 171053Z AUTO 09006KT 10SM CLR 21/06 A3004 RMK AO2 SLP122 T02060056,M
VGT,2022-08-17 10:53,-115.1933,36.2111,667.00,87.00,57.00,36.07,0.00,0.00,0.00,29.91,1011.20,10.00,M,CLR,M,M,M,M,M,M,M,M,M,M,M,M,M,M,85.89,KVGT 171053Z AUTO 00000KT 10SM CLR 31/14 A2991 RMK AO2 SLP112 T03060139,M
P68,2022-08-17 10:53,-116.0056,39.6014,1993.00,60.00,39.00,45.53,0.00,0.00,0.00,30.21,1013.90,M,M,M,M,M,M,M,M,M,M,M,M,M,M,M,M,M,60.10,KP68 171053Z AUTO 00000KT 16/04 A3021 RMK AO1 SLP139 T01560039,M
DRA,2022-08-17 10:53,-116.0278,36.6206,1009.00,79.00,59.00,50.36,90.00,6.00,0.00,29.99,1009.70,10.00,M,CLR,M,M,M,M,M,M,M,M,M,M,M,M,M,M,79.00,KDRA 171053Z AUTO 09006KT 10SM CLR 26/15 A2999 RMK AO2 SLP097 T02610150,M
ELY,2022-08-17 10:53,-114.8453,39.2950,1909.00,53.00,46.00,76.75,170.00,11.00,0.00,30.25,1014.50,10.00,M,CLR,M,M,M,M,M,M,M,M,M,M,M,M,M,M,53.10,KELY 171053Z AUTO 17011KT 10SM CLR 12/08 A3025 RMK AO2 SLP145 T01170078 $,M
MEV,2022-08-17 10:55,-119.7500,38.9963,1441.42,59.00,44.60,58.77,0.00,0.00,0.00,30.12,M,10.00,M,CLR,M,M,M,M,M,M,M,M,M,M,M,M,M,M,59.00,KMEV 171055Z AUTO 00000KT 10SM CLR 15/07 A3012 RMK AO2,M
BVU,2022-08-17 10:55,-114.8611,35.9475,671.00,84.20,57.20,39.86,0.00,0.00,0.00,29.91,M,M,M,M,M,M,M,M,M,M,M,M,M,M,M,M,M,M,83.47,KBVU 171055Z AUTO 00000KT 29/14 A2991 RMK AO2 PWINO TSNO,M
CXP,2022-08-17 10:55,-119.7326,39.1923,1431.00,64.40,50.00,59.50,0.00,0.00,0.00,30.14,M,10.00,M,CLR,M,M,M,M,M,M,M,M,M,M,M,M,M,M,64.40,KCXP 171055Z AUTO 00000KT 10SM CLR 18/10 A3014 RMK AO2,M
RNO,2022-08-17 10:55,-119.7711,39.4839,1341.00,76.00,43.00,30.85,0.00,0.00,0.00,30.09,1011.90,10.00,M,SCT,BKN,M,M,15000.00,18000.00,M,M,M,M,M,M,M,M,M,75.90,KRNO 171055Z 00000KT 10SM SCT150 BKN180 24/06 A3009 RMK AO2 SLP119 T02440061,M
RTS,2022-08-17 10:55,-119.8764,39.6682,1539.00,66.20,39.20,37.03,330.00,4.00,0.00,30.14,M,10.00,M,CLR,M,M,M,M,M,M,M,M,M,M,M,M,M,M,66.20,KRTS 171055Z AUTO 33004KT 10SM CLR 19/04 A3014 RMK AO2,M
BAM,2022-08-17 10:55,-116.8743,40.5990,1382.36,57.20,32.00,38.26,200.00,3.00,0.00,30.11,M,10.00,M,CLR,M,M,M,M,M,M,M,M,M,M,M,M,M,M,57.20,KBAM 171055Z AUTO 20003KT 10SM CLR 14/00 A3011 RMK AO1,M
HTH,2022-08-17 10:55,-118.6315,38.5448,1282.89,71.60,44.60,37.89,160.00,3.00,0.00,30.08,M,10.00,M,CLR,M,M,M,M,M,M,M,M,M,M,M,M,M,M,71.60,KHTH 171055Z AUTO 16003KT 10SM CLR 22/07 A3008 RMK A01,M
TMT,2022-08-17 10:55,-117.1971,39.4643,1749.34,51.00,40.50,67.42,0.00,0.00,0.00,30.21,M,10.00,M,CLR,M,M,M,M,M,M,M,M,M,M,M,M,M,M,50.90,KTMT 171055Z AUTO 00000KT 10SM CLR 11/05 A3021 RMK AO2 T01050047,M
WMC,2022-08-17 10:56,-117.8072,40.9019,1315.00,58.00,37.00,45.54,0.00,0.00,0.00,30.08,1013.40,10.00,M,CLR,M,M,M,M,M,M,M,M,M,M,M,M,M,M,57.90,KWMC 171056Z AUTO 00000KT 10SM CLR 14/03 A3008 RMK AO2 SLP134 T01440028,M
HND,2022-08-17 10:56,-115.1344,35.9729,742.79,82.00,58.00,43.89,190.00,3.00,0.00,29.96,1012.60,10.00,M,CLR,M,M,M,M,M,M,M,M,M,M,M,M,M,M,81.92,KHND 171056Z AUTO 19003KT 10SM CLR 28/14 A2996 RMK AO2 SLP126 T02780144,M
EKO,2022-08-17 10:56,-115.7860,40.8242,1367.00,54.00,35.00,48.65,70.00,3.00,0.00,30.16,1015.80,10.00,M,CLR,M,M,M,M,M,M,M,M,M,M,M,M,M,M,54.00,KEKO 171056Z AUTO 07003KT 10SM CLR 12/02 A3016 RMK AO2 SLP158 T01220017,M
LAS,2022-08-17 10:56,-115.1634,36.0719,663.00,86.00,59.00,40.14,0.00,0.00,0.00,29.92,1009.90,10.00,M,SCT,SCT,M,M,16000.00,25000.00,M,M,M,M,M,M,M,M,M,85.47,KLAS 171056Z 00000KT 10SM SCT160 SCT250 30/15 A2992 RMK AO2 SLP099 T03000150,M
TPH,2022-08-17 10:56,-117.0904,38.0505,1654.00,68.00,46.00,45.19,10.00,8.00,0.00,30.17,1013.00,10.00,M,CLR,M,M,M,M,M,M,M,M,M,M,M,M,M,M,68.00,KTPH 171056Z AUTO 01008KT 10SM CLR 20/08 A3017 RMK AO2 SLP130 T02000078,M
NFL,2022-08-17 10:56,-118.7010,39.4166,1199.00,74.00,M,M,160.00,6.00,0.00,30.03,1013.90,10.00,M,CLR,M,M,M,M,M,M,M,M,M,M,M,M,M,M,M,KNFL 171056Z AUTO 16006KT 10SM CLR 23/ A3003 RMK AO2 SLP139 T0233 $,M
LSV,2022-08-17 10:58,-115.0343,36.2362,570.00,84.20,57.20,39.86,30.00,6.00,0.00,29.85,1007.90,10.00,M,SCT,M,M,M,15000.00,M,M,M,M,M,M,M,M,M,M,83.47,KLSV 171058Z COR 03006KT 10SM SCT150 29/14 A2985 RMK SLP079 WND DATA ESTMD ALSTG/SLP079 ESMTD COR 1202,M
INS,2022-08-17 10:58,-115.6733,36.5872,955.00,75.20,66.40,74.12,270.00,5.00,0.00,29.99,1010.20,10.00,M,BKN,M,M,M,14000.00,M,M,M,M,M,M,M,M,M,M,75.20,KINS 171058Z AUTO 27005KT 10SM BKN140 24/19 A2999 RMK AO2 SLP102 T02400191,M
BVU,2022-08-17 11:15,-114.8611,35.9475,671.00,82.40,60.80,48.05,340.00,5.00,0.00,29.92,M,M,M,M,M,M,M,M,M,M,M,M,M,M,M,M,M,M,82.90,KBVU 171115Z AUTO 34005KT 28/16 A2992 RMK AO2 PWINO TSNO,M
CXP,2022-08-17 11:15,-119.7326,39.1923,1431.00,66.20,48.20,52.25,0.00,0.00,0.00,30.14,M,10.00,M,CLR,M,M,M,M,M,M,M,M,M,M,M,M,M,M,66.20,KCXP 171115Z AUTO 00000KT 10SM CLR 19/09 A3014 RMK AO2,M
RTS,2022-08-17 11:15,-119.8764,39.6682,1539.00,64.40,39.20,39.43,330.00,6.00,0.00,30.14,M,10.00,M,CLR,M,M,M,M,M,M,M,M,M,M,M,M,M,M,64.40,KRTS 171115Z AUTO 33006KT 10SM CLR 18/04 A3014 RMK AO2,M
MEV,2022-08-17 11:15,-119.7500,38.9963,1441.42,60.80,46.40,59.01,0.00,0.00,0.00,30.13,M,10.00,M,CLR,M,M,M,M,M,M,M,M,M,M,M,M,M,M,60.80,KMEV 171115Z AUTO 00000KT 10SM CLR 16/08 A3013 RMK AO2,M
BAM,2022-08-17 11:15,-116.8743,40.5990,1382.36,55.40,32.00,40.84,210.00,5.00,0.00,30.11,M,10.00,M,CLR,M,M,M,M,M,M,M,M,M,M,M,M,M,M,55.40,KBAM 171115Z AUTO 21005KT 10SM CLR 13/00 A3011 RMK AO1,M
HTH,2022-08-17 11:15,-118.6315,38.5448,1282.89,69.80,42.80,37.61,110.00,6.00,0.00,30.09,M,10.00,M,CLR,M,M,M,M,M,M,M,M,M,M,M,M,M,M,69.80,KHTH 171115Z AUTO 11006KT 10SM CLR 21/06 A3009 RMK A01,M
TMT,2022-08-17 11:15,-117.1971,39.4643,1749.34,47.50,39.70,74.20,130.00,3.00,0.00,30.22,M,10.00,M,CLR,M,M,M,M,M,M,M,M,M,M,M,M,M,M,46.41,KTMT 171115Z AUTO 13003KT 10SM CLR 09/04 A3022 RMK AO2 T00860043,M
RTS,2022-08-17 11:35,-119.8764,39.6682,1539.00,64.40,37.40,36.74,320.00,6.00,0.00,30.14,M,10.00,M,CLR,M,M,M,M,M,M,M,M,M,M,M,M,M,M,64.40,KRTS 171135Z AUTO 32006KT 10SM CLR 18/03 A3014 RMK AO2,M
MEV,2022-08-17 11:35,-119.7500,38.9963,1441.42,59.00,46.40,62.92,0.00,0.00,0.00,30.13,M,10.00,M,CLR,M,M,M,M,M,M,M,M,M,M,M,M,M,M,59.00,KMEV 171135Z AUTO 00000KT 10SM CLR 15/08 A3013 RMK AO2,M
BAM,2022-08-17 11:35,-116.8743,40.5990,1382.36,55.40,33.80,43.90,0.00,0.00,0.00,30.12,M,10.00,M,CLR,M,M,M,M,M,M,M,M,M,M,M,M,M,M,55.40,KBAM 171135Z AUTO 00000KT 10SM CLR 13/01 A3012 RMK AO1,M
HTH,2022-08-17 11:35,-118.6315,38.5448,1282.89,71.60,42.80,35.37,200.00,4.00,0.00,30.09,M,10.00,M,CLR,M,M,M,M,M,M,M,M,M,M,M,M,M,M,71.60,KHTH 171135Z AUTO 20004KT 10SM CLR 22/06 A3009 RMK A01,M
TMT,2022-08-17 11:35,-117.1971,39.4643,1749.34,50.20,41.20,71.09,0.00,0.00,0.00,30.22,M,10.00,M,CLR,M,M,M,M,M,M,M,M,M,M,M,M,M,M,50.20,KTMT 171135Z AUTO 00000KT 10SM CLR 10/05 A3022 RMK AO2 T01010051,M
BVU,2022-08-17 11:35,-114.8611,35.9475,671.00,80.60,60.80,50.95,10.00,5.00,0.00,29.92,M,M,M,M,M,M,M,M,M,M,M,M,M,M,M,M,M,M,81.46,KBVU 171135Z AUTO 01005KT 27/16 A2992 RMK AO2 PWINO TSNO,M
CXP,2022-08-17 11:35,-119.7326,39.1923,1431.00,66.20,46.40,48.83,0.00,0.00,0.00,30.14,M,10.00,M,CLR,M,M,M,M,M,M,M,M,M,M,M,M,M,M,66.20,KCXP 171135Z AUTO 00000KT 10SM CLR 19/08 A3014 RMK AO2,M
DRA,2022-08-17 11:53,-116.0278,36.6206,1009.00,77.00,58.00,51.72,0.00,0.00,0.00,30.00,1010.10,10.00,M,CLR,M,M,M,M,M,M,M,M,M,M,M,M,M,M,77.00,KDRA 171153Z AUTO 00000KT 10SM CLR 25/14 A3000 RMK AO2 SLP101 T02500144 10300 20250 51010,M
VGT,2022-08-17 11:53,-115.1933,36.2111,667.00,85.00,59.00,41.58,350.00,5.00,0.00,29.91,1011.50,10.00,M,CLR,M,M,M,M,M,M,M,M,M,M,M,M,M,M,84.51,KVGT 171153Z AUTO 35005KT 10SM CLR 29/15 A2991 RMK AO2 SLP115 T02940150 10333 20294 51011,M
LOL,2022-08-17 11:53,-118.5701,40.0684,1192.43,67.00,42.00,40.45,0.00,0.00,T,30.05,1013.00,10.00,M,CLR,M,M,M,M,M,M,M,M,M,M,M,M,M,M,66.90,KLOL 171153Z AUTO 00000KT 10SM CLR 19/06 A3005 RMK AO2 RAB05E14 SLP130 P0000 60000 T01940056 10272 20189 53005,M
P68,2022-08-17 11:53,-116.0056,39.6014,1993.00,56.00,41.00,57.23,160.00,5.00,0.00,30.22,1014.50,M,M,M,M,M,M,M,M,M,M,M,M,M,M,M,M,M,55.90,KP68 171153Z AUTO 16005KT 13/05 A3022 RMK AO1 SLP145 T01330050 10267 20133 52009,M
ELY,2022-08-17 11:53,-114.8453,39.2950,1909.00,53.00,46.00,76.75,180.00,9.00,0.00,30.26,1014.70,10.00,M,CLR,M,M,M,M,M,M,M,M,M,M,M,M,M,M,53.10,KELY 171153Z AUTO 18009KT 10SM CLR 12/08 A3026 RMK AO2 SLP147 T01170078 10167 20111 53004 $,M
TMT,2022-08-17 11:55,-117.1971,39.4643,1749.34,50.70,42.00,71.70,0.00,0.00,0.00,30.22,M,10.00,M,SCT,M,M,M,12000.00,M,M,M,M,M,M,M,M,M,M,50.70,KTMT 171155Z AUTO 00000KT 10SM SCT120 10/06 A3022 RMK AO2 T01040055 10174 20083,M
RNO,2022-08-17 11:55,-119.7711,39.4839,1341.00,75.00,44.00,33.16,0.00,0.00,0.00,30.09,1012.10,10.00,M,SCT,BKN,M,M,15000.00,18000.00,M,M,M,M,M,M,M,M,M,75.00,KRNO 171155Z 00000KT 10SM SCT150 BKN180 24/07 A3009 RMK AO2 SLP121 T02390067 10278 20233 51004,M
RTS,2022-08-17 11:55,-119.8764,39.6682,1539.00,64.40,37.40,36.74,350.00,8.00,0.00,30.14,M,10.00,M,CLR,M,M,M,M,M,M,M,M,M,M,M,M,M,M,64.40,KRTS 171155Z AUTO 35008KT 10SM CLR 18/03 A3014 RMK AO2,M
BVU,2022-08-17 11:55,-114.8611,35.9475,671.00,80.60,60.80,50.95,10.00,7.00,0.00,29.92,M,M,M,M,M,M,M,M,M,M,M,M,M,M,M,M,M,M,81.46,KBVU 171155Z AUTO 01007KT 27/16 A2992 RMK AO2 PWINO TSNO,M
CXP,2022-08-17 11:55,-119.7326,39.1923,1431.00,66.20,46.40,48.83,0.00,0.00,0.00,30.14,M,10.00,M,CLR,M,M,M,M,M,M,M,M,M,M,M,M,M,M,66.20,KCXP 171155Z AUTO 00000KT 10SM CLR 19/08 A3014 RMK AO2,M
HTH,2022-08-17 11:55,-118.6315,38.5448,1282.89,71.60,44.60,37.89,0.00,0.00,0.00,30.09,M,10.00,M,CLR,M,M,M,M,M,M,M,M,M,M,M,M,M,M,71.60,KHTH 171155Z AUTO 00000KT 10SM CLR 22/07 A3009 RMK A01,M
BAM,2022-08-17 11:55,-116.8743,40.5990,1382.36,59.00,35.60,41.42,210.00,3.00,0.00,30.12,M,10.00,M,CLR,M,M,M,M,M,M,M,M,M,M,M,M,M,M,59.00,KBAM 171155Z AUTO 21003KT 10SM CLR 15/02 A3012 RMK AO1,M
MEV,2022-08-17 11:55,-119.7500,38.9963,1441.42,59.00,44.60,58.77,0.00,0.00,0.00,30.13,M,10.00,M,CLR,M,M,M,M,M,M,M,M,M,M,M,M,M,M,59.00,KMEV 171155Z AUTO 00000KT 10SM CLR 15/07 A3013 RMK AO2,M
EKO,2022-08-17 11:56,-115.7860,40.8242,1367.00,53.00,36.00,52.11,0.00,0.00,0.00,30.17,1016.10,10.00,M,CLR,M,M,M,M,M,M,M,M,M,M,M,M,M,M,53.10,KEKO 171156Z AUTO 00000KT 10SM CLR 12/02 A3017 RMK AO2 SLP161 T01170022 10228 20094 51010,M
WMC,2022-08-17 11:56,-117.8072,40.9019,1315.00,56.00,38.00,50.71,140.00,4.00,0.00,30.08,1013.70,10.00,M,CLR,M,M,M,M,M,M,M,M,M,M,M,M,M,M,55.90,KWMC 171156Z AUTO 14004KT 10SM CLR 13/03 A3008 RMK AO2 SLP137 T01330033 10200 20117 51005,M
TPH,2022-08-17 11:56,-117.0904,38.0505,1654.00,66.00,46.00,48.43,10.00,7.00,0.00,30.17,1013.40,10.00,M,CLR,M,M,M,M,M,M,M,M,M,M,M,M,M,M,66.00,KTPH 171156Z AUTO 01007KT 10SM CLR 19/08 A3017 RMK AO2 SLP134 T01890078 10228 20189 51005,M
HND,2022-08-17 11:56,-115.1344,35.9729,742.79,80.00,59.00,48.58,170.00,3.00,0.00,29.96,1012.90,10.00,M,CLR,M,M,M,M,M,M,M,M,M,M,M,M,M,M,80.76,KHND 171156Z AUTO 17003KT 10SM CLR 27/15 A2996 RMK AO2 SLP129 T02670150 10322 20267 51009,M
NFL,2022-08-17 11:56,-118.7010,39.4166,1199.00,73.00,M,M,190.00,3.00,0.00,30.04,1014.20,10.00,M,CLR,M,M,M,M,M,M,M,M,M,M,M,M,M,M,M,KNFL 171156Z AUTO 19003KT 10SM CLR 23/ A3004 RMK AO2 SLP142 T0228 10250 20217 53003 $,M
LAS,2022-08-17 11:56,-115.1634,36.0719,663.00,86.00,58.00,38.58,310.00,4.00,0.00,29.92,1010.10,10.00,M,FEW,FEW,M,M,11000.00,25000.00,M,M,M,M,M,M,M,M,M,85.16,KLAS 171156Z 31004KT 10SM FEW110 FEW250 30/14 A2992 RMK AO2 SLP101 T03000144 10339 20300 51009,M
LSV,2022-08-17 11:58,-115.0343,36.2362,570.00,84.20,57.20,39.86,320.00,5.00,0.00,29.90,1009.70,10.00,M,SCT,M,M,M,15000.00,M,M,M,M,M,M,M,M,M,M,83.47,KLSV 171158Z 32005KT 10SM SCT150 29/14 A2990 RMK SLP097 WND DATA ESTMD ALSTG/SLP ESTMD,M
INS,2022-08-17 11:58,-115.6733,36.5872,955.00,74.00,66.70,77.71,0.00,0.00,0.00,30.00,1010.60,10.00,M,CLR,M,M,M,M,M,M,M,M,M,M,M,M,M,M,74.10,KINS 171158Z AUTO 00000KT 10SM CLR 23/19 A3000 RMK AO2 SLP106 70013 T02340193 10275 20234 52006,M
HTH,2022-08-17 12:15,-118.6315,38.5448,1282.89,71.60,44.60,37.89,150.00,6.00,0.00,30.08,M,10.00,M,FEW,M,M,M,12000.00,M,M,M,M,M,M,M,M,M,M,71.60,KHTH 171215Z AUTO 15006KT 10SM FEW120 22/07 A3008 RMK A01,M
MEV,2022-08-17 12:15,-119.7500,38.9963,1441.42,60.80,44.60,55.12,0.00,0.00,0.00,30.13,M,10.00,M,CLR,M,M,M,M,M,M,M,M,M,M,M,M,M,M,60.80,KMEV 171215Z AUTO 00000KT 10SM CLR 16/07 A3013 RMK AO2,M
RTS,2022-08-17 12:15,-119.8764,39.6682,1539.00,64.40,37.40,36.74,350.00,4.00,0.00,30.14,M,10.00,M,CLR,M,M,M,M,M,M,M,M,M,M,M,M,M,M,64.40,KRTS 171215Z AUTO 35004KT 10SM CLR 18/03 A3014 RMK AO2,M
BVU,2022-08-17 12:15,-114.8611,35.9475,671.00,80.60,60.80,50.95,30.00,4.00,0.00,29.92,M,M,M,M,M,M,M,M,M,M,M,M,M,M,M,M,M,M,81.46,KBVU 171215Z AUTO 03004KT 27/16 A2992 RMK AO2 PWINO TSNO,M
CXP,2022-08-17 12:15,-119.7326,39.1923,1431.00,68.00,42.80,40.00,0.00,0.00,0.00,30.14,M,10.00,M,FEW,FEW,M,M,6500.00,12000.00,M,M,M,M,M,M,M,M,M,68.00,KCXP 171215Z AUTO 00000KT 10SM FEW065 FEW120 20/06 A3014 RMK AO2,M
TMT,2022-08-17 12:15,-117.1971,39.4643,1749.34,52.30,43.00,70.50,0.00,0.00,0.00,30.22,M,10.00,M,BKN,M,M,M,12000.00,M,M,M,M,M,M,M,M,M,M,52.30,KTMT 171215Z AUTO 00000KT 10SM BKN120 11/06 A3022 RMK AO2 T01130061,M
BAM,2022-08-17 12:15,-116.8743,40.5990,1382.36,53.60,32.00,43.61,80.00,5.00,0.00,30.13,M,10.00,M,CLR,M,M,M,M,M,M,M,M,M,M,M,M,M,M,53.60,KBAM 171215Z AUTO 08005KT 10SM CLR 12/00 A3013 RMK AO1,M
CXP,2022-08-17 12:30,-119.7326,39.1923,1431.00,68.00,44.60,42.85,0.00,0.00,0.00,30.14,M,10.00,M,FEW,SCT,BKN,M,6000.00,7500.00,12000.00,M,M,M,M,M,M,M,M,68.00,KCXP 171230Z AUTO 00000KT 10SM FEW060 SCT075 BKN120 20/07 A3014 RMK AO2,M
BAM,2022-08-17 12:35,-116.8743,40.5990,1382.36,53.60,33.80,46.88,120.00,4.00,0.00,30.13,M,10.00,M,CLR,M,M,M,M,M,M,M,M,M,M,M,M,M,M,53.60,KBAM 171235Z AUTO 12004KT 10SM CLR 12/01 A3013 RMK AO1,M
MEV,2022-08-17 12:35,-119.7500,38.9963,1441.42,60.80,44.60,55.12,0.00,0.00,0.00,30.13,M,10.00,M,FEW,FEW,SCT,M,6500.00,8000.00,9500.00,M,M,M,M,M,M,M,M,60.80,KMEV 171235Z AUTO 00000KT 10SM FEW065 FEW080 SCT095 16/07 A3013 RMK AO2,M
RTS,2022-08-17 12:35,-119.8764,39.6682,1539.00,64.40,39.20,39.43,40.00,3.00,0.00,30.14,M,10.00,M,CLR,M,M,M,M,M,M,M,M,M,M,M,M,M,M,64.40,KRTS 171235Z AUTO 04003KT 10SM CLR 18/04 A3014 RMK AO2,M
BVU,2022-08-17 12:35,-114.8611,35.9475,671.00,80.60,60.80,50.95,0.00,0.00,0.00,29.93,M,M,M,M,M,M,M,M,M,M,M,M,M,M,M,M,M,M,81.46,KBVU 171235Z AUTO 00000KT 27/16 A2993 RMK AO2 PWINO TSNO,M
TMT,2022-08-17 12:35,-117.1971,39.4643,1749.34,51.40,42.80,72.32,0.00,0.00,0.00,30.23,M,10.00,M,SCT,M,M,M,12000.00,M,M,M,M,M,M,M,M,M,M,51.40,KTMT 171235Z AUTO 00000KT 10SM SCT120 11/06 A3023 RMK AO2 T01080060,M
HTH,2022-08-17 12:35,-118.6315,38.5448,1282.89,71.60,44.60,37.89,160.00,4.00,0.00,30.09,M,10.00,M,FEW,M,M,M,12000.00,M,M,M,M,M,M,M,M,M,M,71.60,KHTH 171235Z AUTO 16004KT 10SM FEW120 22/07 A3009 RMK A01,M
CXP,2022-08-17 12:50,-119.7326,39.1923,1431.00,66.20,44.60,45.60,0.00,0.00,0.00,30.15,M,10.00,M,FEW,SCT,BKN,M,5000.00,6500.00,10000.00,M,M,M,M,M,M,M,M,66.20,KCXP 171250Z AUTO 00000KT 10SM FEW050 SCT065 BKN100 19/07 A3015 RMK AO2,M
P68,2022-08-17 12:53,-116.0056,39.6014,1993.00,52.00,40.00,63.24,0.00,0.00,0.00,30.23,1015.30,M,M,M,M,M,M,M,M,M,M,M,M,M,M,M,M,M,52.00,KP68 171253Z AUTO 00000KT 11/04 A3023 RMK AO1 SLP153 T01110044,M
VGT,2022-08-17 12:53,-115.1933,36.2111,667.00,84.00,59.00,42.80,330.00,5.00,0.00,29.93,1011.90,10.00,M,CLR,M,M,M,M,M,M,M,M,M,M,M,M,M,M,83.75,KVGT 171253Z AUTO 33005KT 10SM CLR 29/15 A2993 RMK AO2 SLP119 T02890150,M
ELY,2022-08-17 12:53,-114.8453,39.2950,1909.00,53.00,46.00,76.75,180.00,9.00,0.00,30.27,1015.30,10.00,M,CLR,M,M,M,M,M,M,M,M,M,M,M,M,M,M,53.10,KELY 171253Z AUTO 18009KT 10SM CLR 12/08 A3027 RMK AO2 SLP153 T01170078 $,M
DRA,2022-08-17 12:53,-116.0278,36.6206,1009.00,77.00,60.00,55.95,90.00,4.00,0.00,30.01,1010.50,10.00,M,CLR,M,M,M,M,M,M,M,M,M,M,M,M,M,M,77.00,KDRA 171253Z AUTO 09004KT 10SM CLR 25/16 A3001 RMK AO2 SLP105 T02500156,M
LOL,2022-08-17 12:53,-118.5701,40.0684,1192.43,63.00,42.00,46.34,0.00,0.00,0.00,30.06,1013.60,10.00,M,CLR,M,M,M,M,M,M,M,M,M,M,M,M,M,M,63.00,KLOL 171253Z AUTO 00000KT 10SM CLR 17/06 A3006 RMK AO2 SLP136 T01720056,M
BAM,2022-08-17 12:55,-116.8743,40.5990,1382.36,55.40,33.80,43.90,180.00,5.00,0.00,30.13,M,10.00,M,CLR,M,M,M,M,M,M,M,M,M,M,M,M,M,M,55.40,KBAM 171255Z AUTO 18005KT 10SM CLR 13/01 A3013 RMK AO1,M
HTH,2022-08-17 12:55,-118.6315,38.5448,1282.89,71.60,46.40,40.57,190.00,5.00,0.00,30.10,M,10.00,M,CLR,M,M,M,M,M,M,M,M,M,M,M,M,M,M,71.60,KHTH 171255Z AUTO 19005KT 10SM CLR 22/08 A3010 RMK A01,M
RTS,2022-08-17 12:55,-119.8764,39.6682,1539.00,66.20,39.20,37.03,100.00,4.00,0.00,30.15,M,10.00,M,CLR,M,M,M,M,M,M,M,M,M,M,M,M,M,M,66.20,KRTS 171255Z AUTO 10004KT 10SM CLR 19/04 A3015 RMK AO2,M
TMT,2022-08-17 12:55,-117.1971,39.4643,1749.34,54.00,44.00,68.56,0.00,0.00,0.00,30.23,M,10.00,M,SCT,M,M,M,11000.00,M,M,M,M,M,M,M,M,M,M,54.00,KTMT 171255Z AUTO 00000KT 10SM SCT110 12/07 A3023 RMK AO2 T01220066,M
RNO,2022-08-17 12:55,-119.7711,39.4839,1341.00,73.00,46.00,38.11,0.00,0.00,0.00,30.10,1012.60,10.00,M,SCT,BKN,BKN,M,13000.00,15000.00,18000.00,M,M,M,M,M,M,M,M,73.00,KRNO 171255Z 00000KT 10SM SCT130 BKN150 BKN180 23/08 A3010 RMK AO2 SLP126 VIRGA T02280078,M
MEV,2022-08-17 12:55,-119.7500,38.9963,1441.42,60.80,44.60,55.12,0.00,0.00,0.00,30.14,M,10.00,M,FEW,SCT,BKN,M,3800.00,6500.00,9500.00,M,M,M,M,M,M,M,M,60.80,KMEV 171255Z AUTO 00000KT 10SM FEW038 SCT065 BKN095 16/07 A3014 RMK AO2,M
BVU,2022-08-17 12:55,-114.8611,35.9475,671.00,82.40,59.00,45.07,0.00,0.00,0.00,29.93,M,M,M,M,M,M,M,M,M,M,M,M,M,M,M,M,M,M,82.46,KBVU 171255Z AUTO 00000KT 28/15 A2993 RMK AO2 PWINO TSNO,M
EKO,2022-08-17 12:56,-115.7860,40.8242,1367.00,53.00,36.00,52.11,80.00,3.00,0.00,30.19,1016.50,10.00,M,CLR,M,M,M,M,M,M,M,M,M,M,M,M,M,M,53.10,KEKO 171256Z AUTO 08003KT 10SM CLR 12/02 A3019 RMK AO2 SLP165 T01170022,M
LAS,2022-08-17 12:56,-115.1634,36.0719,663.00,85.00,59.00,41.58,290.00,3.00,0.00,29.94,1010.60,10.00,M,FEW,FEW,M,M,15000.00,25000.00,M,M,M,M,M,M,M,M,M,84.51,KLAS 171256Z 29003KT 10SM FEW150 FEW250 29/15 A2994 RMK AO2 SLP106 ACC DSNT SE T02940150,M
TPH,2022-08-17 12:56,-117.0904,38.0505,1654.00,65.00,46.00,50.32,350.00,5.00,0.00,30.18,1014.30,10.00,M,CLR,M,M,M,M,M,M,M,M,M,M,M,M,M,M,64.90,KTPH 171256Z AUTO 35005KT 10SM CLR 18/08 A3018 RMK AO2 SLP143 T01830078,M
NFL,2022-08-17 12:56,-118.7010,39.4166,1199.00,73.00,M,M,150.00,4.00,0.00,30.05,1014.50,10.00,M,FEW,FEW,SCT,M,4800.00,10000.00,12000.00,M,M,M,M,M,M,M,M,M,KNFL 171256Z AUTO 15004KT 10SM FEW048 FEW100 SCT120 23/ A3005 RMK AO2 SLP145 T0228 $,M
HND,2022-08-17 12:56,-115.1344,35.9729,742.79,79.00,59.00,50.36,140.00,3.00,0.00,29.97,1013.40,10.00,M,CLR,M,M,M,M,M,M,M,M,M,M,M,M,M,M,79.00,KHND 171256Z 14003KT 10SM CLR 26/15 A2997 RMK AO2 SLP134 T02610150,M
WMC,2022-08-17 12:56,-117.8072,40.9019,1315.00,58.00,39.00,49.26,80.00,5.00,0.00,30.10,1014.00,10.00,M,CLR,M,M,M,M,M,M,M,M,M,M,M,M,M,M,57.90,KWMC 171256Z AUTO 08005KT 10SM CLR 14/04 A3010 RMK AO2 SLP140 T01440039,M
LSV,2022-08-17 12:58,-115.0343,36.2362,570.00,84.20,57.20,39.86,30.00,2.00,0.00,29.91,1010.00,10.00,M,FEW,M,M,M,20000.00,M,M,M,M,M,M,M,M,M,M,83.47,KLSV 171258Z COR 03002KT 10SM FEW200 29/14 A2991 RMK AO2 SLP100 ALSTG/SLP ESTMD $ COR 1311,M
INS,2022-08-17 12:58,-115.6733,36.5872,955.00,74.00,64.40,71.73,0.00,0.00,0.00,30.01,1010.90,10.00,M,CLR,M,M,M,M,M,M,M,M,M,M,M,M,M,M,74.10,KINS 171258Z AUTO 00000KT 10SM CLR 23/18 A3001 RMK AO2 SLP109 T02340180,M
CXP,2022-08-17 13:15,-119.7326,39.1923,1431.00,68.00,42.80,40.00,0.00,0.00,0.00,30.16,M,10.00,M,FEW,SCT,OVC,M,5500.00,7000.00,12000.00,M,M,M,M,M,M,M,M,68.00,KCXP 171315Z AUTO 00000KT 10SM FEW055 SCT070 OVC120 20/06 A3016 RMK AO2,M
RTS,2022-08-17 13:15,-119.8764,39.6682,1539.00,66.20,39.20,37.03,0.00,0.00,0.00,30.16,M,10.00,M,FEW,M,M,M,11000.00,M,M,M,M,M,M,M,M,M,M,66.20,KRTS 171315Z AUTO 00000KT 10SM FEW110 19/04 A3016 RMK AO2,M
MEV,2022-08-17 13:15,-119.7500,38.9963,1441.42,60.80,46.40,59.01,0.00,0.00,0.00,30.14,M,10.00,M,FEW,FEW,SCT,M,4100.00,6500.00,11000.00,M,M,M,M,M,M,M,M,60.80,KMEV 171315Z AUTO 00000KT 10SM FEW041 FEW065 SCT110 16/08 A3014 RMK AO2,M
BAM,2022-08-17 13:15,-116.8743,40.5990,1382.36,53.60,33.80,46.88,130.00,4.00,0.00,30.14,M,10.00,M,CLR,M,M,M,M,M,M,M,M,M,M,M,M,M,M,53.60,KBAM 171315Z AUTO 13004KT 10SM CLR 12/01 A3014 RMK AO1,M
HTH,2022-08-17 13:15,-118.6315,38.5448,1282.89,73.40,44.60,35.66,230.00,5.00,0.00,30.10,M,10.00,M,CLR,M,M,M,M,M,M,M,M,M,M,M,M,M,M,73.40,KHTH 171315Z AUTO 23005KT 10SM CLR 23/07 A3010 RMK A01,M
TMT,2022-08-17 13:15,-117.1971,39.4643,1749.34,54.00,44.60,70.42,0.00,0.00,0.00,30.24,M,10.00,M,SCT,M,M,M,11000.00,M,M,M,M,M,M,M,M,M,M,54.00,KTMT 171315Z AUTO 00000KT 10SM SCT110 12/07 A3024 RMK AO2 T01220070,M
BVU,2022-08-17 13:15,-114.8611,35.9475,671.00,80.60,59.00,47.79,0.00,0.00,0.00,29.94,M,M,M,M,M,M,M,M,M,M,M,M,M,M,M,M,M,M,81.11,KBVU 171315Z AUTO 00000KT 27/15 A2994 RMK AO2 PWINO TSNO,M
MEV,2022-08-17 13:35,-119.7500,38.9963,1441.42,60.80,48.20,63.15,0.00,0.00,0.00,30.15,M,10.00,M,FEW,FEW,SCT,M,6000.00,7500.00,11000.00,M,M,M,M,M,M,M,M,60.80,KMEV 171335Z AUTO 00000KT 10SM FEW060 FEW075 SCT110 16/09 A3015 RMK AO2,M
BAM,2022-08-17 13:35,-116.8743,40.5990,1382.36,55.40,33.80,43.90,0.00,0.00,0.00,30.15,M,10.00,M,CLR,M,M,M,M,M,M,M,M,M,M,M,M,M,M,55.40,KBAM 171335Z AUTO 00000KT 10SM CLR 13/01 A3015 RMK AO1,M
HTH,2022-08-17 13:35,-118.6315,38.5448,1282.89,73.40,44.60,35.66,0.00,0.00,0.00,30.11,M,10.00,M,CLR,M,M,M,M,M,M,M,M,M,M,M,M,M,M,73.40,KHTH 171335Z AUTO 00000KT 10SM CLR 23/07 A3011 RMK A01,M
TMT,2022-08-17 13:35,-117.1971,39.4643,1749.34,52.20,43.70,72.68,0.00,0.00,0.00,30.24,M,10.00,M,SCT,M,M,M,11000.00,M,M,M,M,M,M,M,M,M,M,52.20,KTMT 171335Z AUTO 00000KT 10SM SCT110 11/07 A3024 RMK AO2 T01120065,M
BVU,2022-08-17 13:35,-114.8611,35.9475,671.00,82.40,59.00,45.07,0.00,0.00,0.00,29.95,M,M,M,M,M,M,M,M,M,M,M,M,M,M,M,M,M,M,82.46,KBVU 171335Z AUTO 00000KT 28/15 A2995 RMK AO2 PWINO TSNO,M
CXP,2022-08-17 13:35,-119.7326,39.1923,1431.00,66.20,48.20,52.25,M,3.00,0.00,30.17,M,10.00,20.00,FEW,SCT,BKN,M,3600.00,6500.00,10000.00,M,-RA,M,M,M,M,M,M,66.20,KCXP 171335Z AUTO VRB03G20KT 10SM -RA FEW036 SCT065 BKN100 19/09 A3017 RMK AO2,M
RTS,2022-08-17 13:35,-119.8764,39.6682,1539.00,64.40,39.20,39.43,270.00,5.00,0.00,30.17,M,10.00,M,CLR,M,M,M,M,M,M,M,M,M,M,M,M,M,M,64.40,KRTS 171335Z AUTO 27005KT 10SM CLR 18/04 A3017 RMK AO2,M
ELY,2022-08-17 13:53,-114.8453,39.2950,1909.00,54.00,47.00,76.83,170.00,6.00,0.00,30.29,1016.00,10.00,M,CLR,M,M,M,M,M,M,M,M,M,M,M,M,M,M,54.00,KELY 171353Z AUTO 17006KT 10SM CLR 12/08 A3029 RMK AO2 SLP160 T01220083 $,M
LOL,2022-08-17 13:53,-118.5701,40.0684,1192.43,64.00,42.00,44.74,100.00,4.00,0.00,30.08,1014.20,10.00,M,CLR,M,M,M,M,M,M,M,M,M,M,M,M,M,M,64.00,KLOL 171353Z AUTO 10004KT 10SM CLR 18/06 A3008 RMK AO2 SLP142 T01780056,M
P68,2022-08-17 13:53,-116.0056,39.6014,1993.00,60.00,42.00,51.35,200.00,4.00,0.00,30.24,1015.50,M,M,M,M,M,M,M,M,M,M,M,M,M,M,M,M,M,60.10,KP68 171353Z AUTO 20004KT 16/06 A3024 RMK AO1 SLP155 T01560056,M
VGT,2022-08-17 13:53,-115.1933,36.2111,667.00,85.00,60.00,43.24,0.00,0.00,0.00,29.94,1012.60,10.00,M,CLR,M,M,M,M,M,M,M,M,M,M,M,M,M,M,84.83,KVGT 171353Z 00000KT 10SM CLR 29/16 A2994 RMK AO2 SLP126 T02940156,M
DRA,2022-08-17 13:53,-116.0278,36.6206,1009.00,79.00,59.00,50.36,90.00,3.00,0.00,30.03,1011.00,10.00,M,CLR,M,M,M,M,M,M,M,M,M,M,M,M,M,M,79.00,KDRA 171353Z AUTO 09003KT 10SM CLR 26/15 A3003 RMK AO2 SLP110 T02610150,M
BVU,2022-08-17 13:55,-114.8611,35.9475,671.00,82.40,60.80,48.05,0.00,0.00,0.00,29.95,M,M,M,M,M,M,M,M,M,M,M,M,M,M,M,M,M,M,82.90,KBVU 171355Z AUTO 00000KT 28/16 A2995 RMK AO2 PWINO TSNO,M
MEV,2022-08-17 13:55,-119.7500,38.9963,1441.42,60.80,48.20,63.15,230.00,6.00,0.00,30.15,M,10.00,M,CLR,M,M,M,M,M,M,M,M,M,M,M,M,M,M,60.80,KMEV 171355Z AUTO 23006KT 10SM CLR 16/09 A3015 RMK AO2,M
BAM,2022-08-17 13:55,-116.8743,40.5990,1382.36,60.80,37.40,41.71,0.00,0.00,0.00,30.15,M,10.00,M,CLR,M,M,M,M,M,M,M,M,M,M,M,M,M,M,60.80,KBAM 171355Z AUTO 00000KT 10SM CLR 16/03 A3015 RMK AO1,M
HTH,2022-08-17 13:55,-118.6315,38.5448,1282.89,73.40,46.40,38.18,0.00,0.00,0.00,30.11,M,10.00,M,SCT,M,M,M,12000.00,M,M,M,M,M,M,M,M,M,M,73.40,KHTH 171355Z AUTO 00000KT 10SM SCT120 23/08 A3011 RMK A01,M
RNO,2022-08-17 13:55,-119.7711,39.4839,1341.00,74.00,45.00,35.60,0.00,0.00,0.00,30.12,1013.60,10.00,M,BKN,BKN,BKN,M,13000.00,15000.00,18000.00,M,M,M,M,M,M,M,M,73.90,KRNO 171355Z 00000KT 10SM BKN130 BKN150 BKN180 23/07 A3012 RMK AO2 SLP136 VIRGA T02330072,M
RTS,2022-08-17 13:55,-119.8764,39.6682,1539.00,64.40,41.00,42.28,310.00,3.00,0.00,30.17,M,10.00,M,FEW,M,M,M,12000.00,M,M,M,M,M,M,M,M,M,M,64.40,KRTS 171355Z AUTO 31003KT 10SM FEW120 18/05 A3017 RMK AO2,M
TMT,2022-08-17 13:55,-117.1971,39.4643,1749.34,54.50,45.00,70.20,0.00,0.00,0.00,30.24,M,10.00,M,BKN,M,M,M,11000.00,M,M,M,M,M,M,M,M,M,M,54.50,KTMT 171355Z AUTO 00000KT 10SM BKN110 13/07 A3024 RMK AO2 T01250072,M
CXP,2022-08-17 13:55,-119.7326,39.1923,1431.00,64.40,50.00,59.50,0.00,0.00,0.00,30.17,M,9.00,M,FEW,SCT,BKN,M,4700.00,7000.00,7500.00,M,-RA,M,M,M,M,M,M,64.40,KCXP 171355Z AUTO 00000KT 9SM -RA FEW047 SCT070 BKN075 18/10 A3017 RMK AO2,M
LAS,2022-08-17 13:56,-115.1634,36.0719,663.00,86.00,61.00,43.10,110.00,3.00,0.00,29.96,1011.30,10.00,M,FEW,FEW,M,M,15000.00,25000.00,M,M,M,M,M,M,M,M,M,86.12,KLAS 171356Z 11003KT 10SM FEW150 FEW250 30/16 A2996 RMK AO2 SLP113 T03000161,M
WMC,2022-08-17 13:56,-117.8072,40.9019,1315.00,64.00,39.00,39.67,170.00,6.00,0.00,30.11,1014.40,10.00,M,CLR,M,M,M,M,M,M,M,M,M,M,M,M,M,M,64.00,KWMC 171356Z AUTO 17006KT 10SM CLR 18/04 A3011 RMK AO2 SLP144 T01780039,M
HND,2022-08-17 13:56,-115.1344,35.9729,742.79,81.00,60.00,49.06,170.00,4.00,0.00,30.00,1014.10,10.00,M,CLR,M,M,M,M,M,M,M,M,M,M,M,M,M,M,81.62,KHND 171356Z 17004KT 10SM CLR 27/16 A3000 RMK AO2 SLP141 T02720156,M
EKO,2022-08-17 13:56,-115.7860,40.8242,1367.00,52.00,37.00,56.45,0.00,0.00,0.00,30.20,1017.70,10.00,M,CLR,M,M,M,M,M,M,M,M,M,M,M,M,M,M,52.00,KEKO 171356Z AUTO 00000KT 10SM CLR 11/03 A3020 RMK AO2 SLP177 T01110028,M
TPH,2022-08-17 13:56,-117.0904,38.0505,1654.00,67.00,45.00,45.19,20.00,9.00,0.00,30.19,1014.60,10.00,M,CLR,M,M,M,M,M,M,M,M,M,M,M,M,M,M,66.90,KTPH 171356Z AUTO 02009KT 10SM CLR 19/07 A3019 RMK AO2 SLP146 T01940072,M
LSV,2022-08-17 13:58,-115.0343,36.2362,570.00,84.60,62.00,46.87,0.00,0.00,0.00,29.92,1010.50,10.00,M,CLR,M,M,M,M,M,M,M,M,M,M,M,M,M,M,85.22,KLSV 171358Z AUTO 00000KT 10SM CLR 29/17 A2992 RMK AO2 SLP105 T02920167 $,M
INS,2022-08-17 13:58,-115.6733,36.5872,955.00,73.60,67.60,81.52,0.00,0.00,0.00,30.02,1011.40,10.00,M,CLR,M,M,M,M,M,M,M,M,M,M,M,M,M,M,73.60,KINS 171358Z AUTO 00000KT 10SM CLR 23/20 A3002 RMK AO2 SLP114 T02310198,M
CXP,2022-08-17 14:10,-119.7326,39.1923,1431.00,66.20,48.20,52.25,M,4.00,0.00,30.16,M,10.00,M,SCT,SCT,M,M,7000.00,9000.00,M,M,M,M,M,M,M,M,M,66.20,KCXP 171410Z AUTO VRB04KT 10SM SCT070 SCT090 19/09 A3016 RMK AO2,M
TMT,2022-08-17 14:15,-117.1971,39.4643,1749.34,57.70,46.20,65.43,0.00,0.00,0.00,30.25,M,10.00,M,SCT,M,M,M,12000.00,M,M,M,M,M,M,M,M,M,M,57.70,KTMT 171415Z AUTO 00000KT 10SM SCT120 14/08 A3025 RMK AO2 T01430079,M
BVU,2022-08-17 14:15,-114.8611,35.9475,671.00,84.20,59.00,42.52,0.00,0.00,0.00,29.95,M,M,M,M,M,M,M,M,M,M,M,M,M,M,M,M,M,M,83.92,KBVU 171415Z AUTO 00000KT 29/15 A2995 RMK AO2 PWINO TSNO,M
RTS,2022-08-17 14:15,-119.8764,39.6682,1539.00,66.20,39.20,37.03,20.00,4.00,0.00,30.17,M,10.00,M,SCT,M,M,M,12000.00,M,M,M,M,M,M,M,M,M,M,66.20,KRTS 171415Z AUTO 02004KT 10SM SCT120 19/04 A3017 RMK AO2,M
MEV,2022-08-17 14:15,-119.7500,38.9963,1441.42,62.60,50.00,63.38,0.00,0.00,0.00,30.16,M,10.00,M,CLR,M,M,M,M,M,M,M,M,M,M,M,M,M,M,62.60,KMEV 171415Z AUTO 00000KT 10SM CLR 17/10 A3016 RMK AO2,M
BAM,2022-08-17 14:15,-116.8743,40.5990,1382.36,64.40,37.40,36.74,0.00,0.00,0.00,30.15,M,10.00,M,CLR,M,M,M,M,M,M,M,M,M,M,M,M,M,M,64.40,KBAM 171415Z AUTO 00000KT 10SM CLR 18/03 A3015 RMK AO1,M
HTH,2022-08-17 14:15,-118.6315,38.5448,1282.89,71.60,48.20,43.42,310.00,3.00,0.00,30.12,M,10.00,M,BKN,M,M,M,12000.00,M,M,M,M,M,M,M,M,M,M,71.60,KHTH 171415Z AUTO 31003KT 10SM BKN120 22/09 A3012 RMK A01,M
MEV,2022-08-17 14:35,-119.7500,38.9963,1441.42,62.60,50.00,63.38,80.00,4.00,0.00,30.16,M,10.00,M,CLR,M,M,M,M,M,M,M,M,M,M,M,M,M,M,62.60,KMEV 171435Z AUTO 08004KT 10SM CLR 17/10 A3016 RMK AO2,M
RTS,2022-08-17 14:35,-119.8764,39.6682,1539.00,66.20,41.00,39.72,110.00,4.00,0.00,30.19,M,10.00,M,BKN,M,M,M,12000.00,M,M,M,M,M,M,M,M,M,M,66.20,KRTS 171435Z AUTO 11004KT 10SM BKN120 19/05 A3019 RMK AO2,M
HTH,2022-08-17 14:35,-118.6315,38.5448,1282.89,71.60,46.40,40.57,220.00,5.00,0.00,30.13,M,10.00,M,SCT,M,M,M,12000.00,M,M,M,M,M,M,M,M,M,M,71.60,KHTH 171435Z AUTO 22005KT 10SM SCT120 22/08 A3013 RMK A01,M
TMT,2022-08-17 14:35,-117.1971,39.4643,1749.34,61.00,46.60,59.04,0.00,0.00,0.00,30.25,M,10.00,M,CLR,M,M,M,M,M,M,M,M,M,M,M,M,M,M,61.00,KTMT 171435Z AUTO 00000KT 10SM CLR 16/08 A3025 RMK AO2 T01610081,M
CXP,2022-08-17 14:35,-119.7326,39.1923,1431.00,64.40,50.00,59.50,0.00,0.00,0.00,30.17,M,10.00,M,CLR,M,M,M,M,M,M,M,M,M,M,M,M,M,M,64.40,KCXP 171435Z AUTO 00000KT 10SM CLR 18/10 A3017 RMK AO2,M
BAM,2022-08-17 14:35,-116.8743,40.5990,1382.36,66.20,37.40,34.51,0.00,0.00,0.00,30.16,M,10.00,M,CLR,M,M,M,M,M,M,M,M,M,M,M,M,M,M,66.20,KBAM 171435Z AUTO 00000KT 10SM CLR 19/03 A3016 RMK AO1,M
BVU,2022-08-17 14:35,-114.8611,35.9475,671.00,86.00,59.00,40.14,250.00,3.00,0.00,29.96,M,M,M,M,M,M,M,M,M,M,M,M,M,M,M,M,M,M,85.47,KBVU 171435Z AUTO 25003KT 30/15 A2996 RMK AO2 PWINO TSNO,M
NFL,2022-08-17 14:38,-118.7010,39.4166,1199.00,75.00,48.00,38.43,0.00,0.00,0.00,30.08,M,10.00,M,SCT,BKN,BKN,M,9000.00,12000.00,16000.00,M,M,M,M,M,M,M,M,75.00,KNFL 171438Z 00000KT 10SM SCT090 BKN120 BKN160 24/09 A3008 RMK AO2 SH VC SE-SW T02390089 $,M
P68,2022-08-17 14:53,-116.0056,39.6014,1993.00,69.00,43.00,38.82,0.00,0.00,0.00,30.25,1015.30,M,M,M,M,M,M,M,M,M,M,M,M,M,M,M,M,M,69.10,KP68 171453Z AUTO 00000KT 21/06 A3025 RMK AO1 SLP153 T02060061 51008,M
LOL,2022-08-17 14:53,-118.5701,40.0684,1192.43,74.00,42.00,31.86,80.00,4.00,0.00,30.09,1014.30,10.00,M,CLR,M,M,M,M,M,M,M,M,M,M,M,M,M,M,73.90,KLOL 171453Z AUTO 08004KT 10SM CLR 23/06 A3009 RMK AO2 SLP143 T02330056 52014,M
ELY,2022-08-17 14:53,-114.8453,39.2950,1909.00,63.00,49.00,59.98,170.00,7.00,0.00,30.29,1016.30,10.00,M,CLR,M,M,M,M,M,M,M,M,M,M,M,M,M,M,63.00,KELY 171453Z AUTO 17007KT 10SM CLR 17/09 A3029 RMK AO2 SLP163 T01720094 51010 $,M
VGT,2022-08-17 14:53,-115.1933,36.2111,667.00,88.00,60.00,39.17,0.00,0.00,0.00,29.95,1012.80,10.00,M,CLR,M,M,M,M,M,M,M,M,M,M,M,M,M,M,87.69,KVGT 171453Z 00000KT 10SM CLR 31/16 A2995 RMK AO2 SLP128 T03110156 51013,M
DRA,2022-08-17 14:53,-116.0278,36.6206,1009.00,83.00,58.00,42.63,110.00,10.00,0.00,30.03,1011.00,10.00,M,CLR,M,M,M,M,M,M,M,M,M,M,M,M,M,M,82.60,KDRA 171453Z AUTO 11010KT 10SM CLR 28/14 A3003 RMK AO2 SLP110 T02830144 51009,M
RTS,2022-08-17 14:55,-119.8764,39.6682,1539.00,66.20,46.40,48.83,0.00,0.00,0.00,30.20,M,10.00,M,OVC,M,M,M,12000.00,M,M,M,M,M,M,M,M,M,M,66.20,KRTS 171455Z AUTO 00000KT 10SM OVC120 19/08 A3020 RMK AO2,M
MEV,2022-08-17 14:55,-119.7500,38.9963,1441.42,64.40,48.20,55.63,120.00,4.00,0.00,30.16,M,10.00,M,CLR,M,M,M,M,M,M,M,M,M,M,M,M,M,M,64.40,KMEV 171455Z AUTO 12004KT 10SM CLR 18/09 A3016 RMK AO2,M
HTH,2022-08-17 14:55,-118.6315,38.5448,1282.89,73.40,46.40,38.18,220.00,5.00,0.00,30.13,M,10.00,M,CLR,M,M,M,M,M,M,M,M,M,M,M,M,M,M,73.40,KHTH 171455Z AUTO 22005KT 10SM CLR 23/08 A3013 RMK A01,M
TMT,2022-08-17 14:55,-117.1971,39.4643,1749.34,64.00,46.60,53.30,0.00,0.00,0.00,30.25,M,10.00,M,CLR,M,M,M,M,M,M,M,M,M,M,M,M,M,M,63.90,KTMT 171455Z AUTO 00000KT 10SM CLR 18/08 A3025 RMK AO2 T01770081,M
BVU,2022-08-17 14:55,-114.8611,35.9475,671.00,86.00,59.00,40.14,190.00,4.00,0.00,29.96,M,M,M,M,M,M,M,M,M,M,M,M,M,M,M,M,M,M,85.47,KBVU 171455Z AUTO 19004KT 30/15 A2996 RMK AO2 PWINO TSNO,M
CXP,2022-08-17 14:55,-119.7326,39.1923,1431.00,69.80,44.60,40.29,0.00,0.00,0.00,30.17,M,10.00,M,CLR,M,M,M,M,M,M,M,M,M,M,M,M,M,M,69.80,KCXP 171455Z AUTO 00000KT 10SM CLR 21/07 A3017 RMK AO2,M
RNO,2022-08-17 14:55,-119.7711,39.4839,1341.00,74.00,47.00,38.26,40.00,6.00,0.00,30.13,1014.00,10.00,M,BKN,BKN,M,M,12000.00,19000.00,M,M,M,M,M,M,M,M,M,73.90,KRNO 171455Z 04006KT 10SM BKN120 BKN190 23/08 A3013 RMK AO2 SLP140 VIRGA T02330083 53013,M
BAM,2022-08-17 14:55,-116.8743,40.5990,1382.36,69.80,37.40,30.49,0.00,0.00,0.00,30.16,M,10.00,M,CLR,M,M,M,M,M,M,M,M,M,M,M,M,M,M,69.80,KBAM 171455Z AUTO 00000KT 10SM CLR 21/03 A3016 RMK AO1,M
NFL,2022-08-17 14:56,-118.7010,39.4166,1199.00,76.00,48.00,37.29,330.00,4.00,0.00,30.07,1015.20,10.00,M,SCT,BKN,BKN,M,9000.00,12000.00,16000.00,M,M,M,M,M,M,M,M,75.90,KNFL 171456Z 33004KT 10SM SCT090 BKN120 BKN160 24/09 A3007 RMK AO2 SLP152 SH VC SE-SW T02440089 50009 $,M
EKO,2022-08-17 14:56,-115.7860,40.8242,1367.00,62.00,36.00,37.69,70.00,4.00,0.00,30.21,1017.90,10.00,M,CLR,M,M,M,M,M,M,M,M,M,M,M,M,M,M,62.10,KEKO 171456Z AUTO 07004KT 10SM CLR 17/02 A3021 RMK AO2 SLP179 T01670022 51011,M
TPH,2022-08-17 14:56,-117.0904,38.0505,1654.00,76.00,44.00,32.17,20.00,8.00,0.00,30.20,1014.20,10.00,M,CLR,M,M,M,M,M,M,M,M,M,M,M,M,M,M,75.90,KTPH 171456Z AUTO 02008KT 10SM CLR 24/07 A3020 RMK AO2 SLP142 T02440067 51008,M
WMC,2022-08-17 14:56,-117.8072,40.9019,1315.00,69.00,41.00,35.94,160.00,4.00,0.00,30.12,1014.50,10.00,M,CLR,M,M,M,M,M,M,M,M,M,M,M,M,M,M,69.10,KWMC 171456Z AUTO 16004KT 10SM CLR 21/05 A3012 RMK AO2 SLP145 T02060050 51010,M
HND,2022-08-17 14:56,-115.1344,35.9729,742.79,86.00,59.00,40.14,0.00,0.00,0.00,30.00,1014.20,10.00,M,CLR,M,M,M,M,M,M,M,M,M,M,M,M,M,M,85.47,KHND 171456Z 00000KT 10SM CLR 30/15 A3000 RMK AO2 SLP142 T03000150 51013,M
LAS,2022-08-17 14:56,-115.1634,36.0719,663.00,88.00,59.00,37.66,0.00,0.00,0.00,29.97,1011.60,10.00,M,FEW,FEW,M,M,15000.00,25000.00,M,M,M,M,M,M,M,M,M,87.31,KLAS 171456Z 00000KT 10SM FEW150 FEW250 31/15 A2997 RMK AO2 SLP116 T03110150 51014,M
LSV,2022-08-17 14:58,-115.0343,36.2362,570.00,90.50,61.30,37.78,0.00,0.00,0.00,29.93,M,10.00,M,CLR,M,M,M,M,M,M,M,M,M,M,M,M,M,M,90.67,KLSV 171458Z 00000KT 10SM CLR 33/16 A2993 RMK AO2A SLPNO T03250163 $,M
INS,2022-08-17 14:58,-115.6733,36.5872,955.00,78.30,63.70,60.87,0.00,0.00,0.00,30.03,1011.60,10.00,M,CLR,M,M,M,M,M,M,M,M,M,M,M,M,M,M,78.30,KINS 171458Z AUTO 00000KT 10SM CLR 26/18 A3003 RMK AO2 SLP116 T02570176 52011,M
MEV,2022-08-17 15:15,-119.7500,38.9963,1441.42,66.20,46.40,48.83,0.00,0.00,0.00,30.16,M,10.00,M,CLR,M,M,M,M,M,M,M,M,M,M,M,M,M,M,66.20,KMEV 171515Z AUTO 00000KT 10SM CLR 19/08 A3016 RMK AO2,M
TMT,2022-08-17 15:15,-117.1971,39.4643,1749.34,66.00,47.00,50.10,0.00,0.00,0.00,30.25,M,10.00,M,CLR,M,M,M,M,M,M,M,M,M,M,M,M,M,M,66.00,KTMT 171515Z AUTO 00000KT 10SM CLR 19/08 A3025 RMK AO2 T01890083,M
HTH,2022-08-17 15:15,-118.6315,38.5448,1282.89,75.20,46.40,35.94,260.00,4.00,0.00,30.13,M,10.00,M,CLR,M,M,M,M,M,M,M,M,M,M,M,M,M,M,75.20,KHTH 171515Z AUTO 26004KT 10SM CLR 24/08 A3013 RMK A01,M
BAM,2022-08-17 15:15,-116.8743,40.5990,1382.36,71.60,37.40,28.68,10.00,3.00,0.00,30.16,M,10.00,M,CLR,M,M,M,M,M,M,M,M,M,M,M,M,M,M,71.60,KBAM 171515Z AUTO 01003KT 10SM CLR 22/03 A3016 RMK AO1,M
RTS,2022-08-17 15:15,-119.8764,39.6682,1539.00,68.00,42.80,40.00,320.00,5.00,0.00,30.20,M,10.00,M,OVC,M,M,M,12000.00,M,M,M,M,M,M,M,M,M,M,68.00,KRTS 171515Z AUTO 32005KT 10SM OVC120 20/06 A3020 RMK AO2,M
CXP,2022-08-17 15:15,-119.7326,39.1923,1431.00,73.40,44.60,35.66,0.00,0.00,0.00,30.17,M,10.00,M,CLR,M,M,M,M,M,M,M,M,M,M,M,M,M,M,73.40,KCXP 171515Z AUTO 00000KT 10SM CLR 23/07 A3017 RMK AO2,M
BVU,2022-08-17 15:15,-114.8611,35.9475,671.00,87.80,60.80,40.41,170.00,4.00,0.00,29.97,M,M,M,M,M,M,M,M,M,M,M,M,M,M,M,M,M,M,87.75,KBVU 171515Z AUTO 17004KT 31/16 A2997 RMK AO2 PWINO TSNO,M
BVU,2022-08-17 15:35,-114.8611,35.9475,671.00,87.80,59.00,37.90,0.00,0.00,0.00,29.96,M,M,M,M,M,M,M,M,M,M,M,M,M,M,M,M,M,M,87.12,KBVU 171535Z AUTO 00000KT 31/15 A2996 RMK AO2 PWINO TSNO,M
MEV,2022-08-17 15:35,-119.7500,38.9963,1441.42,73.40,44.60,35.66,210.00,5.00,0.00,30.16,M,10.00,M,CLR,M,M,M,M,M,M,M,M,M,M,M,M,M,M,73.40,KMEV 171535Z AUTO 21005KT 10SM CLR 23/07 A3016 RMK AO2,M
RTS,2022-08-17 15:35,-119.8764,39.6682,1539.00,69.80,41.00,35.09,0.00,0.00,0.00,30.21,M,10.00,M,FEW,FEW,BKN,M,7000.00,9000.00,12000.00,M,M,M,M,M,M,M,M,69.80,KRTS 171535Z AUTO 00000KT 10SM FEW070 FEW090 BKN120 21/05 A3021 RMK AO2,M
CXP,2022-08-17 15:35,-119.7326,39.1923,1431.00,71.60,46.40,40.57,0.00,0.00,0.00,30.17,M,10.00,M,CLR,M,M,M,M,M,M,M,M,M,M,M,M,M,M,71.60,KCXP 171535Z AUTO 00000KT 10SM CLR 22/08 A3017 RMK AO2,M
HTH,2022-08-17 15:35,-118.6315,38.5448,1282.89,75.20,46.40,35.94,290.00,9.00,0.00,30.11,M,10.00,M,FEW,M,M,M,12000.00,M,M,M,M,M,M,M,M,M,M,75.20,KHTH 171535Z AUTO 29009KT 10SM FEW120 24/08 A3011 RMK A01,M
BAM,2022-08-17 15:35,-116.8743,40.5990,1382.36,78.80,39.20,24.19,20.00,4.00,0.00,30.16,M,10.00,M,CLR,M,M,M,M,M,M,M,M,M,M,M,M,M,M,78.80,KBAM 171535Z AUTO 02004KT 10SM CLR 26/04 A3016 RMK AO1,M
TMT,2022-08-17 15:35,-117.1971,39.4643,1749.34,68.70,47.00,45.99,10.00,3.00,0.00,30.24,M,10.00,M,CLR,M,M,M,M,M,M,M,M,M,M,M,M,M,M,68.70,KTMT 171535Z AUTO 01003KT 10SM CLR 20/08 A3024 RMK AO2 T02040084,M
LOL,2022-08-17 15:53,-118.5701,40.0684,1192.43,75.00,45.00,34.31,170.00,4.00,T,30.10,1014.50,10.00,M,CLR,M,M,M,M,M,M,M,M,M,M,M,M,M,M,75.00,KLOL 171553Z AUTO 17004KT 10SM CLR 24/07 A3010 RMK AO2 RAB37E48 SLP145 P0000 T02390072,M
DRA,2022-08-17 15:53,-116.0278,36.6206,1009.00,88.00,56.00,33.68,110.00,10.00,0.00,30.03,1011.40,10.00,M,CLR,M,M,M,M,M,M,M,M,M,M,M,M,M,M,86.42,KDRA 171553Z AUTO 11010KT 10SM CLR 31/13 A3003 RMK AO2 SLP114 T03110133,M
ELY,2022-08-17 15:53,-114.8453,39.2950,1909.00,71.00,47.00,42.05,0.00,0.00,0.00,30.29,1015.10,10.00,M,CLR,M,M,M,M,M,M,M,M,M,M,M,M,M,M,71.10,KELY 171553Z AUTO 00000KT 10SM CLR 22/08 A3029 RMK AO2 SLP151 T02170083,M
P68,2022-08-17 15:53,-116.0056,39.6014,1993.00,77.00,39.00,25.47,330.00,3.00,0.00,30.25,1015.00,M,M,M,M,M,M,M,M,M,M,M,M,M,M,M,M,M,77.00,KP68 171553Z AUTO 33003KT 25/04 A3025 RMK AO1 SLP150 T02500039,M
VGT,2022-08-17 15:53,-115.1933,36.2111,667.00,90.00,59.00,35.36,0.00,0.00,0.00,29.96,1013.00,10.00,M,CLR,M,M,M,M,M,M,M,M,M,M,M,M,M,M,89.26,KVGT 171553Z 00000KT 10SM CLR 32/15 A2996 RMK AO2 SLP130 T03220150,M
CXP,2022-08-17 15:55,-119.7326,39.1923,1431.00,71.60,44.60,37.89,0.00,0.00,0.00,30.18,M,10.00,M,SCT,M,M,M,12000.00,M,M,M,M,M,M,M,M,M,M,71.60,KCXP 171555Z AUTO 00000KT 10SM SCT120 22/07 A3018 RMK AO2,M
MEV,2022-08-17 15:55,-119.7500,38.9963,1441.42,73.40,46.40,38.18,200.00,4.00,0.00,30.17,M,10.00,M,SCT,M,M,M,12000.00,M,M,M,M,M,M,M,M,M,M,73.40,KMEV 171555Z AUTO 20004KT 10SM SCT120 23/08 A3017 RMK AO2,M
BAM,2022-08-17 15:55,-116.8743,40.5990,1382.36,80.60,39.20,22.81,30.00,7.00,0.00,30.16,M,10.00,M,CLR,M,M,M,M,M,M,M,M,M,M,M,M,M,M,79.10,KBAM 171555Z AUTO 03007KT 10SM CLR 27/04 A3016 RMK AO1,M
TMT,2022-08-17 15:55,-117.1971,39.4643,1749.34,M,M,M,0.00,0.00,0.00,30.24,M,10.00,M,CLR,M,M,M,M,M,M,M,M,M,M,M,M,M,M,M,KTMT 171555Z AUTO 00000KT 10SM CLR A3024 RMK AO2,M
RNO,2022-08-17 15:55,-119.7711,39.4839,1341.00,79.00,47.00,32.29,M,3.00,0.00,30.14,1014.00,10.00,M,BKN,BKN,M,M,13000.00,19000.00,M,M,M,M,M,M,M,M,M,79.00,KRNO 171555Z VRB03KT 10SM BKN130 BKN190 26/08 A3014 RMK AO2 SLP140 VIRGA T02610083,M
RTS,2022-08-17 15:55,-119.8764,39.6682,1539.00,73.40,41.00,31.05,330.00,7.00,0.00,30.19,M,10.00,M,CLR,M,M,M,M,M,M,M,M,M,M,M,M,M,M,73.40,KRTS 171555Z AUTO 33007KT 10SM CLR 23/05 A3019 RMK AO2,M
HTH,2022-08-17 15:55,-118.6315,38.5448,1282.89,75.20,46.40,35.94,0.00,0.00,0.00,30.12,M,10.00,M,FEW,M,M,M,12000.00,M,M,M,M,M,M,M,M,M,M,75.20,KHTH 171555Z AUTO 00000KT 10SM FEW120 24/08 A3012 RMK A01,M
BVU,2022-08-17 15:55,-114.8611,35.9475,671.00,89.60,59.00,35.81,0.00,0.00,0.00,29.96,M,M,M,M,M,M,M,M,M,M,M,M,M,M,M,M,M,M,88.86,KBVU 171555Z AUTO 00000KT 32/15 A2996 RMK AO2 PWINO TSNO,M
EKO,2022-08-17 15:56,-115.7860,40.8242,1367.00,69.00,36.00,29.55,0.00,0.00,0.00,30.21,1017.50,10.00,M,CLR,M,M,M,M,M,M,M,M,M,M,M,M,M,M,69.10,KEKO 171556Z AUTO 00000KT 10SM CLR 21/02 A3021 RMK AO2 SLP175 T02060022,M
LAS,2022-08-17 15:56,-115.1634,36.0719,663.00,90.00,60.00,36.77,60.00,5.00,0.00,29.97,1011.70,10.00,M,FEW,FEW,M,M,12000.00,25000.00,M,M,M,M,M,M,M,M,M,89.66,KLAS 171556Z 06005KT 10SM FEW120 FEW250 32/16 A2997 RMK AO2 SLP117 T03220156,M
HND,2022-08-17 15:56,-115.1344,35.9729,742.79,89.00,60.00,37.83,50.00,5.00,0.00,30.00,1014.20,10.00,M,CLR,M,M,M,M,M,M,M,M,M,M,M,M,M,M,88.76,KHND 171556Z 05005KT 10SM CLR 32/16 A3000 RMK AO2 SLP142 T03170156,M
WMC,2022-08-17 15:56,-117.8072,40.9019,1315.00,82.00,37.00,19.99,60.00,11.00,0.00,30.12,1014.10,10.00,M,CLR,M,M,M,M,M,M,M,M,M,M,M,M,M,M,79.86,KWMC 171556Z AUTO 06011KT 10SM CLR 28/03 A3012 RMK AO2 SLP141 T02780028 $,M
TPH,2022-08-17 15:56,-117.0904,38.0505,1654.00,77.00,45.00,32.10,130.00,3.00,0.00,30.20,1014.40,10.00,M,CLR,M,M,M,M,M,M,M,M,M,M,M,M,M,M,77.00,KTPH 171556Z AUTO 13003KT 10SM CLR 25/07 A3020 RMK AO2 SLP144 T02500072,M
NFL,2022-08-17 15:56,-118.7010,39.4166,1199.00,79.00,52.00,39.06,220.00,8.00,0.00,30.09,1015.50,10.00,M,FEW,SCT,BKN,BKN,7000.00,9000.00,12000.00,18000.00,M,M,M,M,M,M,M,79.00,KNFL 171556Z 22008KT 10SM FEW070 SCT090 BKN120 BKN180 26/11 A3009 RMK AO2 SLP155 SH VC NW-NE T02610111,M
LSV,2022-08-17 15:58,-115.0343,36.2362,570.00,94.00,59.70,31.90,30.00,6.00,0.00,29.93,M,10.00,M,CLR,M,M,M,M,M,M,M,M,M,M,M,M,M,M,93.82,KLSV 171558Z 03006KT 10SM CLR 35/15 A2993 RMK AO2A SLPNO T03450154 $,M
INS,2022-08-17 15:58,-115.6733,36.5872,955.00,83.30,61.00,47.01,50.00,3.00,0.00,30.03,1011.60,10.00,M,CLR,M,M,M,M,M,M,M,M,M,M,M,M,M,M,83.71,KINS 171558Z AUTO 05003KT 10SM CLR 29/16 A3003 RMK AO2 SLP116 T02850161,M
HTH,2022-08-17 16:15,-118.6315,38.5448,1282.89,78.80,44.60,29.79,0.00,0.00,0.00,30.11,M,10.00,M,CLR,M,M,M,M,M,M,M,M,M,M,M,M,M,M,78.80,KHTH 171615Z AUTO 00000KT 10SM CLR 26/07 A3011 RMK A01,M
BVU,2022-08-17 16:15,-114.8611,35.9475,671.00,89.60,59.00,35.81,0.00,0.00,0.00,29.96,M,M,M,M,M,M,M,M,M,M,M,M,M,M,M,M,M,M,88.86,KBVU 171615Z AUTO 00000KT 32/15 A2996 RMK AO2 PWINO TSNO,M
CXP,2022-08-17 16:15,-119.7326,39.1923,1431.00,73.40,42.80,33.29,M,3.00,0.00,30.18,M,10.00,M,BKN,M,M,M,12000.00,M,M,M,M,M,M,M,M,M,M,73.40,KCXP 171615Z AUTO VRB03KT 10SM BKN120 23/06 A3018 RMK AO2,M
RTS,2022-08-17 16:15,-119.8764,39.6682,1539.00,75.20,41.00,29.23,330.00,5.00,0.00,30.19,M,10.00,M,CLR,M,M,M,M,M,M,M,M,M,M,M,M,M,M,75.20,KRTS 171615Z AUTO 33005KT 10SM CLR 24/05 A3019 RMK AO2,M
MEV,2022-08-17 16:15,-119.7500,38.9963,1441.42,73.40,48.20,40.85,0.00,0.00,0.00,30.16,M,10.00,M,SCT,M,M,M,12000.00,M,M,M,M,M,M,M,M,M,M,73.40,KMEV 171615Z AUTO 00000KT 10SM SCT120 23/09 A3016 RMK AO2,M
BAM,2022-08-17 16:15,-116.8743,40.5990,1382.36,86.00,35.60,16.63,50.00,11.00,0.00,30.15,M,10.00,M,CLR,M,M,M,M,M,M,M,M,M,M,M,M,M,M,82.69,KBAM 171615Z AUTO 05011KT 10SM CLR 30/02 A3015 RMK AO1,M
TMT,2022-08-17 16:15,-117.1971,39.4643,1749.34,74.00,45.30,35.77,0.00,0.00,0.00,30.24,M,10.00,M,CLR,M,M,M,M,M,M,M,M,M,M,M,M,M,M,74.10,KTMT 171615Z AUTO 00000KT 10SM CLR 23/07 A3024 RMK AO2 T02340074,M
BVU,2022-08-17 16:35,-114.8611,35.9475,671.00,91.40,59.00,33.84,0.00,0.00,0.00,29.96,M,M,M,M,M,M,M,M,M,M,M,M,M,M,M,M,M,M,90.68,KBVU 171635Z AUTO 00000KT 33/15 A2996 RMK AO2 PWINO TSNO,M
CXP,2022-08-17 16:35,-119.7326,39.1923,1431.00,73.40,42.80,33.29,0.00,0.00,0.00,30.18,M,10.00,M,CLR,M,M,M,M,M,M,M,M,M,M,M,M,M,M,73.40,KCXP 171635Z AUTO 00000KT 10SM CLR 23/06 A3018 RMK AO2,M
HTH,2022-08-17 16:35,-118.6315,38.5448,1282.89,80.60,44.60,28.08,270.00,6.00,0.00,30.12,M,10.00,M,CLR,M,M,M,M,M,M,M,M,M,M,M,M,M,M,79.42,KHTH 171635Z AUTO 27006KT 10SM CLR 27/07 A3012 RMK A01,M
TMT,2022-08-17 16:35,-117.1971,39.4643,1749.34,M,M,M,0.00,0.00,0.00,30.24,M,10.00,M,CLR,M,M,M,M,M,M,M,M,M,M,M,M,M,M,M,KTMT 171635Z AUTO 00000KT 10SM CLR A3024 RMK AO2,M
RTS,2022-08-17 16:35,-119.8764,39.6682,1539.00,78.80,41.00,25.95,290.00,3.00,0.00,30.19,M,10.00,M,CLR,M,M,M,M,M,M,M,M,M,M,M,M,M,M,78.80,KRTS 171635Z AUTO 29003KT 10SM CLR 26/05 A3019 RMK AO2,M
MEV,2022-08-17 16:35,-119.7500,38.9963,1441.42,73.40,44.60,35.66,0.00,0.00,0.00,30.16,M,10.00,M,CLR,M,M,M,M,M,M,M,M,M,M,M,M,M,M,73.40,KMEV 171635Z AUTO 00000KT 10SM CLR 23/07 A3016 RMK AO2,M
BAM,2022-08-17 16:35,-116.8743,40.5990,1382.36,87.80,37.40,16.86,40.00,9.00,0.00,30.15,M,10.00,M,CLR,M,M,M,M,M,M,M,M,M,M,M,M,M,M,84.16,KBAM 171635Z AUTO 04009KT 10SM CLR 31/03 A3015 RMK AO1,M
P68,2022-08-17 16:53,-116.0056,39.6014,1993.00,82.00,41.00,23.37,10.00,4.00,0.00,30.23,1014.10,M,M,M,M,M,M,M,M,M,M,M,M,M,M,M,M,M,80.04,KP68 171653Z AUTO 01004KT 28/05 A3023 RMK AO1 SLP141 T02780050,M
LOL,2022-08-17 16:53,-118.5701,40.0684,1192.43,79.00,45.00,30.05,300.00,3.00,0.00,30.10,1014.70,10.00,M,CLR,M,M,M,M,M,M,M,M,M,M,M,M,M,M,79.00,KLOL 171653Z AUTO 30003KT 10SM CLR 26/07 A3010 RMK AO2 SLP147 T02610072,M
ELY,2022-08-17 16:53,-114.8453,39.2950,1909.00,78.00,42.00,27.70,30.00,6.00,0.00,30.28,1014.80,10.00,M,CLR,M,M,M,M,M,M,M,M,M,M,M,M,M,M,78.10,KELY 171653Z AUTO 03006KT 10SM CLR 26/06 A3028 RMK AO2 SLP148 T02560056,M
VGT,2022-08-17 16:53,-115.1933,36.2111,667.00,94.00,58.00,30.10,0.00,0.00,0.00,29.96,1012.80,10.00,M,CLR,M,M,M,M,M,M,M,M,M,M,M,M,M,M,92.90,KVGT 171653Z 00000KT 10SM CLR 34/14 A2996 RMK AO2 SLP128 T03440144,M
DRA,2022-08-17 16:53,-116.0278,36.6206,1009.00,92.00,54.00,27.80,120.00,10.00,0.00,30.03,1011.00,10.00,M,CLR,M,M,M,M,M,M,M,M,M,M,M,M,M,M,89.66,KDRA 171653Z AUTO 12010KT 10SM CLR 33/12 A3003 RMK AO2 SLP110 T03330122,M
TMT,2022-08-17 16:55,-117.1971,39.4643,1749.34,M,M,M,360.00,4.00,0.00,30.23,M,10.00,M,CLR,M,M,M,M,M,M,M,M,M,M,M,M,M,M,M,KTMT 171655Z AUTO 36004KT 10SM CLR A3023 RMK AO2,M
CXP,2022-08-17 16:55,-119.7326,39.1923,1431.00,75.20,42.80,31.34,0.00,0.00,0.00,30.17,M,10.00,M,CLR,M,M,M,M,M,M,M,M,M,M,M,M,M,M,75.20,KCXP 171655Z AUTO 00000KT 10SM CLR 24/06 A3017 RMK AO2,M
BVU,2022-08-17 16:55,-114.8611,35.9475,671.00,93.20,59.00,31.99,110.00,3.00,0.00,29.96,M,M,M,M,M,M,M,M,M,M,M,M,M,M,M,M,M,M,92.57,KBVU 171655Z AUTO 11003KT 34/15 A2996 RMK AO2 PWINO TSNO,M
MEV,2022-08-17 16:55,-119.7500,38.9963,1441.42,75.20,48.20,38.46,330.00,3.00,0.00,30.16,M,10.00,M,CLR,M,M,M,M,M,M,M,M,M,M,M,M,M,M,75.20,KMEV 171655Z AUTO 33003KT 10SM CLR 24/09 A3016 RMK AO2,M
BAM,2022-08-17 16:55,-116.8743,40.5990,1382.36,89.60,37.40,15.92,40.00,10.00,0.00,30.14,M,10.00,M,CLR,M,M,M,M,M,M,M,M,M,M,M,M,M,M,85.67,KBAM 171655Z AUTO 04010KT 10SM CLR 32/03 A3014 RMK AO1,M
RTS,2022-08-17 16:55,-119.8764,39.6682,1539.00,82.40,39.20,21.51,270.00,8.00,0.00,30.18,M,10.00,M,CLR,M,M,M,M,M,M,M,M,M,M,M,M,M,M,80.21,KRTS 171655Z AUTO 27008KT 10SM CLR 28/04 A3018 RMK AO2,M
RNO,2022-08-17 16:55,-119.7711,39.4839,1341.00,82.00,48.00,30.51,120.00,7.00,0.00,30.13,1013.50,10.00,M,SCT,BKN,M,M,12000.00,18000.00,M,M,M,M,M,M,M,M,M,80.53,KRNO 171655Z 12007KT 10SM SCT120 BKN180 28/09 A3013 RMK AO2 SLP135 ACC ALQDS T02780089,M
HTH,2022-08-17 16:55,-118.6315,38.5448,1282.89,80.60,44.60,28.08,280.00,4.00,0.00,30.12,M,10.00,M,CLR,M,M,M,M,M,M,M,M,M,M,M,M,M,M,79.42,KHTH 171655Z AUTO 28004KT 10SM CLR 27/07 A3012 RMK A01,M
HND,2022-08-17 16:56,-115.1344,35.9729,742.79,91.00,61.00,36.80,350.00,4.00,0.00,30.01,1014.20,10.00,M,CLR,M,M,M,M,M,M,M,M,M,M,M,M,M,M,91.06,KHND 171656Z 35004KT 10SM CLR 33/16 A3001 RMK AO2 SLP142 T03280161,M
TPH,2022-08-17 16:56,-117.0904,38.0505,1654.00,82.00,43.00,25.24,0.00,0.00,0.00,30.20,1014.30,10.00,M,CLR,M,M,M,M,M,M,M,M,M,M,M,M,M,M,80.15,KTPH 171656Z AUTO 00000KT 10SM CLR 28/06 A3020 RMK AO2 SLP143 T02780061,M
LAS,2022-08-17 16:56,-115.1634,36.0719,663.00,92.00,60.00,34.65,M,5.00,0.00,29.97,1011.70,10.00,M,FEW,M,M,M,12000.00,M,M,M,M,M,M,M,M,M,M,91.63,KLAS 171656Z VRB05KT 10SM FEW120 33/16 A2997 RMK AO2 SLP117 T03330156,M
NFL,2022-08-17 16:56,-118.7010,39.4166,1199.00,84.00,45.00,25.54,M,4.00,0.00,30.09,1015.60,10.00,M,SCT,BKN,BKN,M,9000.00,12000.00,18000.00,M,M,M,M,M,M,M,M,81.61,KNFL 171656Z VRB04KT 10SM SCT090 BKN120 BKN180 29/07 A3009 RMK AO2 SLP156 SH DSNT NE AND SW T02890072,M
EKO,2022-08-17 16:56,-115.7860,40.8242,1367.00,78.00,37.00,22.71,50.00,6.00,0.00,30.19,1016.50,10.00,M,CLR,M,M,M,M,M,M,M,M,M,M,M,M,M,M,78.10,KEKO 171656Z AUTO 05006KT 10SM CLR 26/03 A3019 RMK AO2 SLP165 T02560028,M
WMC,2022-08-17 16:56,-117.8072,40.9019,1315.00,87.00,38.00,17.58,90.00,5.00,0.00,30.11,1014.00,10.00,M,CLR,M,M,M,M,M,M,M,M,M,M,M,M,M,M,83.61,KWMC 171656Z AUTO 09005KT 10SM CLR 31/03 A3011 RMK AO2 SLP140 T03060033 $,M
INS,2022-08-17 16:58,-115.6733,36.5872,955.00,85.00,61.20,44.96,0.00,0.00,0.00,30.03,1012.30,10.00,M,CLR,M,M,M,M,M,M,M,M,M,M,M,M,M,M,85.18,KINS 171658Z AUTO 00000KT 10SM CLR 29/16 A3003 RMK AO2 SLP123 T02940162,M
LSV,2022-08-17 16:58,-115.0343,36.2362,570.00,98.00,59.20,27.89,70.00,3.00,0.00,29.92,M,10.00,M,CLR,M,M,M,M,M,M,M,M,M,M,M,M,M,M,97.82,KLSV 171658Z 07003KT 10SM CLR 37/15 A2992 RMK AO2A SLPNO T03660151 $,M
CXP,2022-08-17 17:15,-119.7326,39.1923,1431.00,77.00,42.80,29.51,M,3.00,0.00,30.17,M,10.00,M,CLR,M,M,M,M,M,M,M,M,M,M,M,M,M,M,77.00,KCXP 171715Z AUTO VRB03KT 10SM CLR 25/06 A3017 RMK AO2,M
MEV,2022-08-17 17:15,-119.7500,38.9963,1441.42,75.20,48.20,38.46,0.00,0.00,0.00,30.16,M,10.00,M,CLR,M,M,M,M,M,M,M,M,M,M,M,M,M,M,75.20,KMEV 171715Z AUTO 00000KT 10SM CLR 24/09 A3016 RMK AO2,M
RTS,2022-08-17 17:15,-119.8764,39.6682,1539.00,84.20,37.40,18.91,M,6.00,0.00,30.18,M,10.00,M,CLR,M,M,M,M,M,M,M,M,M,M,M,M,M,M,81.38,KRTS 171715Z AUTO VRB06KT 10SM CLR 29/03 A3018 RMK AO2,M
TMT,2022-08-17 17:15,-117.1971,39.4643,1749.34,M,M,M,50.00,3.00,0.00,30.22,M,10.00,M,CLR,M,M,M,M,M,M,M,M,M,M,M,M,M,M,M,KTMT 171715Z AUTO 05003KT 10SM CLR A3022 RMK AO2,M
HTH,2022-08-17 17:15,-118.6315,38.5448,1282.89,84.20,42.80,23.33,260.00,6.00,0.00,30.11,M,10.00,M,CLR,M,M,M,M,M,M,M,M,M,M,M,M,M,M,81.61,KHTH 171715Z AUTO 26006KT 10SM CLR 29/06 A3011 RMK A01,M
BAM,2022-08-17 17:15,-116.8743,40.5990,1382.36,91.40,35.60,14.02,70.00,5.00,0.00,30.14,M,10.00,14.00,CLR,M,M,M,M,M,M,M,M,M,M,M,M,M,M,87.17,KBAM 171715Z AUTO 07005G14KT 10SM CLR 33/02 A3014 RMK AO1,M
BVU,2022-08-17 17:15,-114.8611,35.9475,671.00,93.20,59.00,31.99,0.00,0.00,0.00,29.96,M,M,M,M,M,M,M,M,M,M,M,M,M,M,M,M,M,M,92.57,KBVU 171715Z AUTO 00000KT 34/15 A2996 RMK AO2 PWINO TSNO,M
MEV,2022-08-17 17:35,-119.7500,38.9963,1441.42,78.80,44.60,29.79,340.00,3.00,0.00,30.15,M,10.00,M,CLR,M,M,M,M,M,M,M,M,M,M,M,M,M,M,78.80,KMEV 171735Z AUTO 34003KT 10SM CLR 26/07 A3015 RMK AO2,M
RTS,2022-08-17 17:35,-119.8764,39.6682,1539.00,84.20,37.40,18.91,220.00,4.00,0.00,30.18,M,10.00,M,CLR,M,M,M,M,M,M,M,M,M,M,M,M,M,M,81.38,KRTS 171735Z AUTO 22004KT 10SM CLR 29/03 A3018 RMK AO2,M
CXP,2022-08-17 17:35,-119.7326,39.1923,1431.00,78.80,42.80,27.81,170.00,3.00,0.00,30.17,M,10.00,M,CLR,M,M,M,M,M,M,M,M,M,M,M,M,M,M,78.80,KCXP 171735Z AUTO 17003KT 10SM CLR 26/06 A3017 RMK AO2,M
BVU,2022-08-17 17:35,-114.8611,35.9475,671.00,93.20,59.00,31.99,M,4.00,0.00,29.96,M,M,M,M,M,M,M,M,M,M,M,M,M,M,M,M,M,M,92.57,KBVU 171735Z AUTO VRB04KT 34/15 A2996 RMK AO2 PWINO TSNO,M
TMT,2022-08-17 17:35,-117.1971,39.4643,1749.34,M,M,M,0.00,0.00,0.00,30.22,M,10.00,M,CLR,M,M,M,M,M,M,M,M,M,M,M,M,M,M,M,KTMT 171735Z AUTO 00000KT 10SM CLR A3022 RMK AO2,M
HTH,2022-08-17 17:35,-118.6315,38.5448,1282.89,86.00,41.00,20.54,M,3.00,0.00,30.12,M,10.00,M,CLR,M,M,M,M,M,M,M,M,M,M,M,M,M,M,82.86,KHTH 171735Z AUTO VRB03KT 10SM CLR 30/05 A3012 RMK A01,M
BAM,2022-08-17 17:35,-116.8743,40.5990,1382.36,91.40,37.40,15.05,40.00,4.00,0.00,30.14,M,10.00,M,CLR,M,M,M,M,M,M,M,M,M,M,M,M,M,M,87.23,KBAM 171735Z AUTO 04004KT 10SM CLR 33/03 A3014 RMK AO1,M
P68,2022-08-17 17:53,-116.0056,39.6014,1993.00,86.00,41.00,20.54,M,5.00,0.00,30.23,1013.50,M,M,M,M,M,M,M,M,M,M,M,M,M,M,M,M,M,82.86,KP68 171753Z AUTO VRB05KT 30/05 A3023 RMK AO1 SLP135 T03000050 10306 20111 58004,M
VGT,2022-08-17 17:53,-115.1933,36.2111,667.00,96.00,58.00,28.12,0.00,0.00,0.00,29.95,1012.70,10.00,M,CLR,M,M,M,M,M,M,M,M,M,M,M,M,M,M,95.27,KVGT 171753Z 00000KT 10SM CLR 36/14 A2995 RMK AO2 SLP127 T03560144 10356 20289 58001,M
LOL,2022-08-17 17:53,-118.5701,40.0684,1192.43,84.00,43.00,23.66,0.00,0.00,0.00,30.09,1014.20,10.00,M,CLR,M,M,M,M,M,M,M,M,M,M,M,M,M,M,81.48,KLOL 171753Z AUTO 00000KT 10SM CLR 29/06 A3009 RMK AO2 SLP142 60000 T02890061 10289 20156 50000,M
ELY,2022-08-17 17:53,-114.8453,39.2950,1909.00,80.00,43.00,26.85,M,6.00,0.00,30.28,1015.00,10.00,M,CLR,M,M,M,M,M,M,M,M,M,M,M,M,M,M,79.04,KELY 171753Z AUTO VRB06KT 10SM CLR 27/06 A3028 RMK AO2 SLP150 T02670061 10272 20100 56004,M
DRA,2022-08-17 17:53,-116.0278,36.6206,1009.00,94.00,54.00,26.13,M,6.00,0.00,30.02,1010.80,10.00,M,CLR,M,M,M,M,M,M,M,M,M,M,M,M,M,M,91.68,KDRA 171753Z AUTO VRB06KT 10SM CLR 34/12 A3002 RMK AO2 SLP108 T03440122 10344 20244 58002,M
TMT,2022-08-17 17:55,-117.1971,39.4643,1749.34,M,M,M,40.00,4.00,0.00,30.22,M,10.00,M,CLR,M,M,M,M,M,M,M,M,M,M,M,M,M,M,M,KTMT 171755Z AUTO 04004KT 10SM CLR A3022 RMK AO2,M
CXP,2022-08-17 17:55,-119.7326,39.1923,1431.00,80.60,42.80,26.22,M,3.00,0.00,30.17,M,10.00,M,CLR,M,M,M,M,M,M,M,M,M,M,M,M,M,M,79.30,KCXP 171755Z AUTO VRB03KT 10SM CLR 27/06 A3017 RMK AO2,M
RNO,2022-08-17 17:55,-119.7711,39.4839,1341.00,85.00,43.00,22.98,80.00,3.00,0.00,30.13,1013.60,10.00,M,SCT,BKN,M,M,10000.00,17000.00,M,M,M,M,M,M,M,M,M,82.13,KRNO 171755Z 08003KT 10SM SCT100 BKN170 29/06 A3013 RMK AO2 SLP136 VIRGA ACC N AND S T02940061 10294 20222 58001,M
RTS,2022-08-17 17:55,-119.8764,39.6682,1539.00,86.00,37.40,17.85,M,3.00,0.00,30.19,M,10.00,M,CLR,M,M,M,M,M,M,M,M,M,M,M,M,M,M,82.73,KRTS 171755Z AUTO VRB03KT 10SM CLR 30/03 A3019 RMK AO2,M
MEV,2022-08-17 17:55,-119.7500,38.9963,1441.42,82.40,42.80,24.72,0.00,0.00,0.00,30.15,M,10.00,M,CLR,M,M,M,M,M,M,M,M,M,M,M,M,M,M,80.39,KMEV 171755Z AUTO 00000KT 10SM CLR 28/06 A3015 RMK AO2,M
BAM,2022-08-17 17:55,-116.8743,40.5990,1382.36,91.40,35.60,14.02,360.00,4.00,0.00,30.13,M,10.00,M,CLR,M,M,M,M,M,M,M,M,M,M,M,M,M,M,87.17,KBAM 171755Z AUTO 36004KT 10SM CLR 33/02 A3013 RMK AO1,M
HTH,2022-08-17 17:55,-118.6315,38.5448,1282.89,86.00,41.00,20.54,M,4.00,0.00,30.11,M,10.00,M,CLR,M,M,M,M,M,M,M,M,M,M,M,M,M,M,82.86,KHTH 171755Z AUTO VRB04KT 10SM CLR 30/05 A3011 RMK A01,M
BVU,2022-08-17 17:55,-114.8611,35.9475,671.00,95.00,60.80,32.27,M,6.00,0.00,29.96,M,M,M,M,M,M,M,M,M,M,M,M,M,M,M,M,M,M,95.30,KBVU 171755Z AUTO VRB06KT 35/16 A2996 RMK AO2 PWINO TSNO,M
LAS,2022-08-17 17:56,-115.1634,36.0719,663.00,93.00,59.00,32.19,0.00,0.00,0.00,29.96,1011.50,10.00,M,FEW,M,M,M,12000.00,M,M,M,M,M,M,M,M,M,M,92.35,KLAS 171756Z 00000KT 10SM FEW120 34/15 A2996 RMK AO2 SLP115 T03390150 10350 20289 58001,M
EKO,2022-08-17 17:56,-115.7860,40.8242,1367.00,84.00,39.00,20.27,M,4.00,0.00,30.18,1015.90,10.00,M,CLR,M,M,M,M,M,M,M,M,M,M,M,M,M,M,81.29,KEKO 171756Z AUTO VRB04KT 10SM CLR 29/04 A3018 RMK AO2 SLP159 T02890039 10289 20089 58009,M
TPH,2022-08-17 17:56,-117.0904,38.0505,1654.00,86.00,44.00,23.14,210.00,8.00,0.00,30.20,1013.90,10.00,M,CLR,M,M,M,M,M,M,M,M,M,M,M,M,M,M,83.04,KTPH 171756Z AUTO 21008KT 10SM CLR 30/07 A3020 RMK AO2 SLP139 T03000067 10300 20183 51001,M
HND,2022-08-17 17:56,-115.1344,35.9729,742.79,93.00,61.00,34.57,0.00,0.00,0.00,30.00,1014.00,10.00,M,CLR,M,M,M,M,M,M,M,M,M,M,M,M,M,M,93.20,KHND 171756Z 00000KT 10SM CLR 34/16 A3000 RMK AO2 SLP140 T03390161 10339 20261 58001,M
NFL,2022-08-17 17:56,-118.7010,39.4166,1199.00,88.00,41.00,19.28,0.00,0.00,0.00,30.08,1015.40,10.00,M,SCT,SCT,BKN,M,10000.00,12000.00,18000.00,M,M,M,M,M,M,M,M,84.46,KNFL 171756Z 00000KT 10SM SCT100 SCT120 BKN180 31/05 A3008 RMK AO2 SLP154 TCU DSNT SE SH DSNT SW-W T03110050 10317 20222 50002,M
WMC,2022-08-17 17:56,-117.8072,40.9019,1315.00,91.00,37.00,15.00,150.00,4.00,0.00,30.11,1014.10,10.00,M,CLR,M,M,M,M,M,M,M,M,M,M,M,M,M,M,86.86,KWMC 171756Z AUTO 15004KT 10SM CLR 33/03 A3011 RMK AO2 SLP141 T03280028 10344 20111 58003 $,M
INS,2022-08-17 17:58,-115.6733,36.5872,955.00,88.70,56.70,33.91,80.00,4.00,0.00,30.02,1011.40,10.00,M,CLR,M,M,M,M,M,M,M,M,M,M,M,M,M,M,87.27,KINS 171758Z AUTO 08004KT 10SM CLR 32/14 A3002 RMK AO2 SLP114 T03150137 10315 20226 58003,M
LSV,2022-08-17 17:58,-115.0343,36.2362,570.00,101.00,58.60,24.77,0.00,0.00,0.00,29.92,M,10.00,M,CLR,M,M,M,M,M,M,M,M,M,M,M,M,M,M,101.17,KLSV 171758Z AUTO 00000KT 10SM CLR 38/15 A2992 RMK AO2 SLPNO T03840148 10384 20274 58002 $,M
CXP,2022-08-17 18:15,-119.7326,39.1923,1431.00,84.20,42.80,23.33,0.00,0.00,0.00,30.16,M,10.00,M,CLR,M,M,M,M,M,M,M,M,M,M,M,M,M,M,81.61,KCXP 171815Z AUTO 00000KT 10SM CLR 29/06 A3016 RMK AO2,M
BVU,2022-08-17 18:15,-114.8611,35.9475,671.00,95.00,59.00,30.26,270.00,4.00,0.00,29.95,M,M,11.00,M,M,M,M,M,M,M,M,M,M,M,M,M,M,M,94.51,KBVU 171815Z AUTO 27004G11KT 35/15 A2995 RMK AO2 PWINO TSNO,M
RTS,2022-08-17 18:15,-119.8764,39.6682,1539.00,84.20,37.40,18.91,150.00,4.00,0.00,30.19,M,10.00,M,CLR,M,M,M,M,M,M,M,M,M,M,M,M,M,M,81.38,KRTS 171815Z AUTO 15004KT 10SM CLR 29/03 A3019 RMK AO2,M
MEV,2022-08-17 18:15,-119.7500,38.9963,1441.42,84.20,39.20,20.29,0.00,0.00,0.00,30.15,M,10.00,M,CLR,M,M,M,M,M,M,M,M,M,M,M,M,M,M,81.44,KMEV 171815Z AUTO 00000KT 10SM CLR 29/04 A3015 RMK AO2,M
BAM,2022-08-17 18:15,-116.8743,40.5990,1382.36,95.00,35.60,12.53,60.00,6.00,0.00,30.13,M,10.00,M,CLR,M,M,M,M,M,M,M,M,M,M,M,M,M,M,90.25,KBAM 171815Z AUTO 06006KT 10SM CLR 35/02 A3013 RMK AO1,M
HTH,2022-08-17 18:15,-118.6315,38.5448,1282.89,87.80,42.80,20.79,350.00,7.00,0.00,30.11,M,10.00,M,CLR,M,M,M,M,M,M,M,M,M,M,M,M,M,M,84.40,KHTH 171815Z AUTO 35007KT 10SM CLR 31/06 A3011 RMK A01,M
TMT,2022-08-17 18:15,-117.1971,39.4643,1749.34,M,M,M,0.00,0.00,0.00,30.22,M,10.00,M,CLR,M,M,M,M,M,M,M,M,M,M,M,M,M,M,M,KTMT 171815Z AUTO 00000KT 10SM CLR A3022 RMK AO2,M
BVU,2022-08-17 18:35,-114.8611,35.9475,671.00,96.80,59.00,28.63,80.00,4.00,0.00,29.95,M,M,M,M,M,M,M,M,M,M,M,M,M,M,M,M,M,M,96.50,KBVU 171835Z AUTO 08004KT 36/15 A2995 RMK AO2 PWINO TSNO,M
CXP,2022-08-17 18:35,-119.7326,39.1923,1431.00,87.80,42.80,20.79,0.00,0.00,0.00,30.16,M,10.00,M,CLR,M,M,M,M,M,M,M,M,M,M,M,M,M,M,84.40,KCXP 171835Z AUTO 00000KT 10SM CLR 31/06 A3016 RMK AO2,M
RTS,2022-08-17 18:35,-119.8764,39.6682,1539.00,86.00,37.40,17.85,170.00,4.00,0.00,30.19,M,10.00,M,CLR,M,M,M,M,M,M,M,M,M,M,M,M,M,M,82.73,KRTS 171835Z AUTO 17004KT 10SM CLR 30/03 A3019 RMK AO2,M
MEV,2022-08-17 18:35,-119.7500,38.9963,1441.42,86.00,44.60,23.59,260.00,5.00,0.00,30.15,M,9.00,M,CLR,M,M,M,M,M,M,M,M,M,M,M,M,M,M,83.07,KMEV 171835Z AUTO 26005KT 9SM CLR 30/07 A3015 RMK AO2,M
BAM,2022-08-17 18:35,-116.8743,40.5990,1382.36,95.00,33.80,11.67,140.00,6.00,0.00,30.13,M,10.00,M,CLR,M,M,M,M,M,M,M,M,M,M,M,M,M,M,89.97,KBAM 171835Z AUTO 14006KT 10SM CLR 35/01 A3013 RMK AO1,M
HTH,2022-08-17 18:35,-118.6315,38.5448,1282.89,89.60,41.00,18.33,330.00,7.00,0.00,30.11,M,10.00,M,FEW,M,M,M,12000.00,M,M,M,M,M,M,M,M,M,M,85.82,KHTH 171835Z AUTO 33007KT 10SM FEW120 32/05 A3011 RMK A01,M
TMT,2022-08-17 18:35,-117.1971,39.4643,1749.34,M,M,M,310.00,4.00,0.00,30.22,M,10.00,M,SCT,M,M,M,11000.00,M,M,M,M,M,M,M,M,M,M,M,KTMT 171835Z AUTO 31004KT 10SM SCT110 A3022 RMK AO2,M
DRA,2022-08-17 18:53,-116.0278,36.6206,1009.00,95.00,54.00,25.26,130.00,5.00,0.00,30.01,1010.40,10.00,M,CLR,M,M,M,M,M,M,M,M,M,M,M,M,M,M,92.82,KDRA 171853Z AUTO 13005KT 10SM CLR 35/12 A3001 RMK AO2 SLP104 T03500122,M
LOL,2022-08-17 18:53,-118.5701,40.0684,1192.43,87.00,46.00,24.02,90.00,12.00,T,30.07,1013.40,10.00,M,FEW,SCT,BKN,M,5500.00,9000.00,11000.00,M,-RA,M,M,M,M,M,M,84.07,KLOL 171853Z AUTO 09012KT 10SM -RA FEW055 SCT090 BKN110 31/08 A3007 RMK AO2 RAB05E25B52 SLP134 P0000 T03060078,M
VGT,2022-08-17 18:53,-115.1933,36.2111,667.00,97.00,58.00,27.36,0.00,0.00,0.00,29.94,1012.30,10.00,M,CLR,M,M,M,M,M,M,M,M,M,M,M,M,M,M,96.26,KVGT 171853Z 00000KT 10SM CLR 36/14 A2994 RMK AO2 SLP123 T03610144,M
P68,2022-08-17 18:53,-116.0056,39.6014,1993.00,87.00,38.00,17.58,20.00,3.00,0.00,30.22,1012.80,M,M,M,M,M,M,M,M,M,M,M,M,M,M,M,M,M,83.61,KP68 171853Z AUTO 02003KT 31/03 A3022 RMK AO1 SLP128 T03060033,M
ELY,2022-08-17 18:53,-114.8453,39.2950,1909.00,85.00,43.00,22.98,20.00,7.00,0.00,30.26,1014.10,10.00,M,BKN,M,M,M,11000.00,M,M,M,M,M,M,M,M,M,M,82.13,KELY 171853Z AUTO 02007KT 10SM BKN110 29/06 A3026 RMK AO2 SLP141 T02940061,M
BVU,2022-08-17 18:55,-114.8611,35.9475,671.00,96.80,60.80,30.53,40.00,3.00,0.00,29.94,M,M,M,M,M,M,M,M,M,M,M,M,M,M,M,M,M,M,97.33,KBVU 171855Z AUTO 04003KT 36/16 A2994 RMK AO2 PWINO TSNO,M
CXP,2022-08-17 18:55,-119.7326,39.1923,1431.00,91.40,41.00,17.32,M,3.00,0.00,30.15,M,10.00,M,FEW,M,M,M,12000.00,M,M,M,M,M,M,M,M,M,M,87.40,KCXP 171855Z AUTO VRB03KT 10SM FEW120 33/05 A3015 RMK AO2,M
RNO,2022-08-17 18:55,-119.7711,39.4839,1341.00,92.00,45.00,19.88,M,5.00,0.00,30.12,1013.00,10.00,M,SCT,BKN,M,M,9500.00,16000.00,M,M,M,M,M,M,M,M,M,88.17,KRNO 171855Z VRB05KT 10SM SCT095 BKN160 33/07 A3012 RMK AO2 SLP130 ACC ALQDS T03330072,M
RTS,2022-08-17 18:55,-119.8764,39.6682,1539.00,86.00,37.40,17.85,110.00,4.00,0.00,30.19,M,10.00,M,FEW,M,M,M,11000.00,M,M,M,M,M,M,M,M,M,M,82.73,KRTS 171855Z AUTO 11004KT 10SM FEW110 30/03 A3019 RMK AO2,M
MEV,2022-08-17 18:55,-119.7500,38.9963,1441.42,86.00,42.80,22.02,290.00,3.00,0.00,30.15,M,9.00,M,FEW,M,M,M,12000.00,M,M,M,M,M,M,M,M,M,M,82.95,KMEV 171855Z AUTO 29003KT 9SM FEW120 30/06 A3015 RMK AO2,M
BAM,2022-08-17 18:55,-116.8743,40.5990,1382.36,96.80,33.80,11.04,130.00,5.00,0.00,30.13,M,10.00,14.00,CLR,M,M,M,M,M,M,M,M,M,M,M,M,M,M,91.44,KBAM 171855Z AUTO 13005G14KT 10SM CLR 36/01 A3013 RMK AO1,M
HTH,2022-08-17 18:55,-118.6315,38.5448,1282.89,89.60,41.00,18.33,330.00,8.00,0.00,30.11,M,10.00,M,FEW,M,M,M,12000.00,M,M,M,M,M,M,M,M,M,M,85.82,KHTH 171855Z AUTO 33008KT 10SM FEW120 32/05 A3011 RMK A01,M
TMT,2022-08-17 18:55,-117.1971,39.4643,1749.34,M,M,M,0.00,0.00,0.00,30.21,M,10.00,M,SCT,M,M,M,11000.00,M,M,M,M,M,M,M,M,M,M,M,KTMT 171855Z AUTO 00000KT 10SM SCT110 A3021 RMK AO2,M
HND,2022-08-17 18:56,-115.1344,35.9729,742.79,96.00,62.00,32.66,M,4.00,0.00,29.98,1013.40,10.00,M,CLR,M,M,M,M,M,M,M,M,M,M,M,M,M,M,97.20,KHND 171856Z VRB04KT 10SM CLR 36/17 A2998 RMK AO2 SLP134 T03560167,M
EKO,2022-08-17 18:56,-115.7860,40.8242,1367.00,88.00,36.00,15.85,50.00,7.00,0.00,30.16,1015.00,10.00,M,CLR,M,M,M,M,M,M,M,M,M,M,M,M,M,M,84.29,KEKO 171856Z AUTO 05007KT 10SM CLR 31/02 A3016 RMK AO2 SLP150 T03110022,M
WMC,2022-08-17 18:56,-117.8072,40.9019,1315.00,97.00,36.00,11.98,M,4.00,0.00,30.09,1013.40,10.00,M,CLR,M,M,M,M,M,M,M,M,M,M,M,M,M,M,91.96,KWMC 171856Z AUTO VRB04KT 10SM CLR 36/02 A3009 RMK AO2 SLP134 T03610022 $,M
NFL,2022-08-17 18:56,-118.7010,39.4166,1199.00,92.00,39.00,15.77,10.00,4.00,0.00,30.08,1015.30,10.00,M,SCT,SCT,BKN,M,10000.00,12000.00,16000.00,M,M,M,M,M,M,M,M,87.74,KNFL 171856Z 01004KT 10SM SCT100 SCT120 BKN160 33/04 A3008 RMK AO2 SLP153 TCU DSNT SE T03330039,M
LAS,2022-08-17 18:56,-115.1634,36.0719,663.00,96.00,60.00,30.43,60.00,5.00,0.00,29.95,1011.00,10.00,M,FEW,M,M,M,12000.00,M,M,M,M,M,M,M,M,M,M,96.21,KLAS 171856Z 06005KT 10SM FEW120 36/16 A2995 RMK AO2 SLP110 CB DSNT NE AND S TCU DSNT E AND NW T03560156,M
TPH,2022-08-17 18:56,-117.0904,38.0505,1654.00,89.00,44.00,20.97,M,4.00,0.00,30.19,1013.10,10.00,M,CLR,M,M,M,M,M,M,M,M,M,M,M,M,M,M,85.59,KTPH 171856Z AUTO VRB04KT 10SM CLR 32/07 A3019 RMK AO2 SLP131 T03170067,M
INS,2022-08-17 18:58,-115.6733,36.5872,955.00,91.40,55.60,29.94,60.00,5.00,0.00,30.01,1011.10,10.00,M,CLR,M,M,M,M,M,M,M,M,M,M,M,M,M,M,89.58,KINS 171858Z AUTO 06005KT 10SM CLR 33/13 A3001 RMK AO2 SLP111 T03300131,M
LSV,2022-08-17 18:58,-115.0343,36.2362,570.00,103.00,59.00,23.81,110.00,5.00,0.00,29.91,M,10.00,M,CLR,M,M,M,M,M,M,M,M,M,M,M,M,M,M,103.42,KLSV 171858Z AUTO 11005KT 10SM CLR 39/15 A2991 RMK AO2 SLPNO T03940150 $,M
LOL,2022-08-17 19:07,-118.5701,40.0684,1192.43,88.00,47.00,24.15,120.00,10.00,T,30.07,M,10.00,M,FEW,M,M,M,9500.00,M,M,M,-RA,M,M,M,M,M,M,84.90,KLOL 171907Z AUTO 12010KT 10SM -RA FEW095 31/08 A3007 RMK AO2 WSHFT 1847 P0000 T03110083,M
RTS,2022-08-17 19:15,-119.8764,39.6682,1539.00,87.80,37.40,16.86,0.00,0.00,0.00,30.18,M,10.00,M,FEW,M,M,M,11000.00,M,M,M,M,M,M,M,M,M,M,84.16,KRTS 171915Z AUTO 00000KT 10SM FEW110 31/03 A3018 RMK AO2,M
MEV,2022-08-17 19:15,-119.7500,38.9963,1441.42,86.00,41.00,20.54,0.00,0.00,0.00,30.15,M,10.00,M,BKN,M,M,M,12000.00,M,M,M,M,M,M,M,M,M,M,82.86,KMEV 171915Z AUTO 00000KT 10SM BKN120 30/05 A3015 RMK AO2,M
BAM,2022-08-17 19:15,-116.8743,40.5990,1382.36,96.80,33.80,11.04,130.00,6.00,0.00,30.12,M,10.00,M,CLR,M,M,M,M,M,M,M,M,M,M,M,M,M,M,91.44,KBAM 171915Z AUTO 13006KT 10SM CLR 36/01 A3012 RMK AO1,M
HTH,2022-08-17 19:15,-118.6315,38.5448,1282.89,89.60,39.20,17.09,350.00,9.00,0.00,30.10,M,10.00,M,BKN,M,M,M,12000.00,M,M,M,M,M,M,M,M,M,M,85.73,KHTH 171915Z AUTO 35009KT 10SM BKN120 32/04 A3010 RMK A01,M
TMT,2022-08-17 19:15,-117.1971,39.4643,1749.34,M,M,M,130.00,4.00,0.00,30.21,M,10.00,M,SCT,M,M,M,12000.00,M,M,M,M,M,M,M,M,M,M,M,KTMT 171915Z AUTO 13004KT 10SM SCT120 A3021 RMK AO2 LTG DSNT SW,M
BVU,2022-08-17 19:15,-114.8611,35.9475,671.00,96.80,59.00,28.63,0.00,0.00,0.00,29.93,M,M,M,M,M,M,M,M,M,M,M,M,M,M,M,M,M,M,96.50,KBVU 171915Z AUTO 00000KT 36/15 A2993 RMK AO2 PWINO TSNO,M
CXP,2022-08-17 19:15,-119.7326,39.1923,1431.00,89.60,41.00,18.33,120.00,3.00,0.00,30.15,M,10.00,M,BKN,M,M,M,12000.00,M,M,M,M,M,M,M,M,M,M,85.82,KCXP 171915Z AUTO 12003KT 10SM BKN120 32/05 A3015 RMK AO2,M
BVU,2022-08-17 19:35,-114.8611,35.9475,671.00,98.60,59.00,27.10,M,6.00,0.00,29.93,M,M,M,M,M,M,M,M,M,M,M,M,M,M,M,M,M,M,98.52,KBVU 171935Z AUTO VRB06KT 37/15 A2993 RMK AO2 PWINO TSNO,M
RTS,2022-08-17 19:35,-119.8764,39.6682,1539.00,87.80,37.40,16.86,M,5.00,0.00,30.17,M,10.00,M,CLR,M,M,M,M,M,M,M,M,M,M,M,M,M,M,84.16,KRTS 171935Z AUTO VRB05KT 10SM CLR 31/03 A3017 RMK AO2,M
TMT,2022-08-17 19:35,-117.1971,39.4643,1749.34,M,M,M,110.00,7.00,0.00,30.20,M,10.00,M,SCT,M,M,M,12000.00,M,M,M,M,M,M,M,M,M,M,M,KTMT 171935Z AUTO 11007KT 10SM SCT120 A3020 RMK AO2,M
HTH,2022-08-17 19:35,-118.6315,38.5448,1282.89,89.60,41.00,18.33,320.00,8.00,0.00,30.10,M,10.00,M,BKN,M,M,M,12000.00,M,M,M,M,M,M,M,M,M,M,85.82,KHTH 171935Z AUTO 32008KT 10SM BKN120 32/05 A3010 RMK A01,M
BAM,2022-08-17 19:35,-116.8743,40.5990,1382.36,96.80,32.00,10.27,140.00,9.00,0.00,30.11,M,10.00,M,CLR,M,M,M,M,M,M,M,M,M,M,M,M,M,M,91.19,KBAM 171935Z AUTO 14009KT 10SM CLR 36/00 A3011 RMK AO1,M
MEV,2022-08-17 19:35,-119.7500,38.9963,1441.42,86.00,44.60,23.59,0.00,0.00,0.00,30.14,M,10.00,M,BKN,M,M,M,12000.00,M,M,M,M,M,M,M,M,M,M,83.07,KMEV 171935Z AUTO 00000KT 10SM BKN120 30/07 A3014 RMK AO2,M
CXP,2022-08-17 19:35,-119.7326,39.1923,1431.00,87.80,39.20,18.09,0.00,0.00,0.00,30.15,M,10.00,M,BKN,M,M,M,12000.00,M,M,M,M,M,M,M,M,M,M,84.22,KCXP 171935Z AUTO 00000KT 10SM BKN120 31/04 A3015 RMK AO2,M
LOL,2022-08-17 19:53,-118.5701,40.0684,1192.43,94.00,41.00,16.02,150.00,7.00,T,30.06,1013.00,10.00,M,CLR,M,M,M,M,M,M,M,M,M,M,M,M,M,M,89.68,KLOL 171953Z AUTO 15007KT 10SM CLR 34/05 A3006 RMK AO2 WSHFT 1847 RAE13 SLP130 P0000 T03440050,M
DRA,2022-08-17 19:53,-116.0278,36.6206,1009.00,98.00,53.00,22.22,M,4.00,0.00,29.99,1009.60,10.00,M,CLR,M,M,M,M,M,M,M,M,M,M,M,M,M,M,95.83,KDRA 171953Z AUTO VRB04KT 10SM CLR 37/12 A2999 RMK AO2 SLP096 T03670117,M
P68,2022-08-17 19:53,-116.0056,39.6014,1993.00,89.00,37.00,15.92,M,M,0.00,30.20,1012.50,M,M,M,M,M,M,M,M,M,M,M,M,M,M,M,M,M,85.23,KP68 171953Z AUTO 32/03 A3020 RMK AO1 SLP125 T03170028,M
ELY,2022-08-17 19:53,-114.8453,39.2950,1909.00,85.00,43.00,22.98,310.00,5.00,0.00,30.24,1013.40,10.00,M,BKN,M,M,M,10000.00,M,M,M,M,M,M,M,M,M,M,82.13,KELY 171953Z AUTO 31005KT 10SM BKN100 29/06 A3024 RMK AO2 SLP134 T02940061,M
VGT,2022-08-17 19:53,-115.1933,36.2111,667.00,99.00,59.00,26.78,M,M,0.00,29.92,1011.60,10.00,M,CLR,M,M,M,M,M,M,M,M,M,M,M,M,M,M,98.97,KVGT 171953Z 10SM CLR 37/15 A2992 RMK AO2 SLP116 T03720150,M
HTH,2022-08-17 19:55,-118.6315,38.5448,1282.89,87.80,42.80,20.79,320.00,10.00,0.00,30.10,M,10.00,M,BKN,M,M,M,12000.00,M,M,M,M,M,M,M,M,M,M,84.40,KHTH 171955Z AUTO 32010KT 10SM BKN120 31/06 A3010 RMK A01,M
CXP,2022-08-17 19:55,-119.7326,39.1923,1431.00,89.60,39.20,17.09,70.00,11.00,0.00,30.15,M,10.00,M,SCT,M,M,M,12000.00,M,M,M,M,M,M,M,M,M,M,85.73,KCXP 171955Z AUTO 07011KT 10SM SCT120 32/04 A3015 RMK AO2,M
RTS,2022-08-17 19:55,-119.8764,39.6682,1539.00,89.60,37.40,15.92,M,5.00,0.00,30.17,M,10.00,M,CLR,M,M,M,M,M,M,M,M,M,M,M,M,M,M,85.67,KRTS 171955Z AUTO VRB05KT 10SM CLR 32/03 A3017 RMK AO2,M
TMT,2022-08-17 19:55,-117.1971,39.4643,1749.34,M,M,M,170.00,3.00,0.00,30.19,M,10.00,M,CLR,M,M,M,M,M,M,M,M,M,M,M,M,M,M,M,KTMT 171955Z AUTO 17003KT 10SM CLR A3019 RMK AO2,M
BVU,2022-08-17 19:55,-114.8611,35.9475,671.00,98.60,57.20,25.41,M,3.00,0.00,29.92,M,M,10.00,M,M,M,M,M,M,M,M,M,M,M,M,M,M,M,97.76,KBVU 171955Z AUTO VRB03G10KT 37/14 A2992 RMK AO2 PWINO TSNO,M
MEV,2022-08-17 19:55,-119.7500,38.9963,1441.42,89.60,39.20,17.09,M,5.00,0.00,30.13,M,10.00,11.00,SCT,M,M,M,12000.00,M,M,M,M,M,M,M,M,M,M,85.73,KMEV 171955Z AUTO VRB05G11KT 10SM SCT120 32/04 A3013 RMK AO2,M
BAM,2022-08-17 19:55,-116.8743,40.5990,1382.36,98.60,32.00,9.72,110.00,5.00,0.00,30.11,M,10.00,9.00,CLR,M,M,M,M,M,M,M,M,M,M,M,M,M,M,92.69,KBAM 171955Z AUTO 11005G09KT 10SM CLR 37/00 A3011 RMK AO1,M
RNO,2022-08-17 19:55,-119.7711,39.4839,1341.00,92.00,43.00,18.42,60.00,6.00,0.00,30.11,1012.70,10.00,M,SCT,BKN,M,M,9000.00,17000.00,M,M,M,M,M,M,M,M,M,87.99,KRNO 171955Z 06006KT 10SM SCT090 BKN170 33/06 A3011 RMK AO2 SLP127 VIRGA T03330061,M
WMC,2022-08-17 19:56,-117.8072,40.9019,1315.00,99.00,35.00,10.87,220.00,10.00,0.00,30.07,1012.60,10.00,15.00,CLR,M,M,M,M,M,M,M,M,M,M,M,M,M,M,93.48,KWMC 171956Z AUTO 22010G15KT 10SM CLR 37/02 A3007 RMK AO2 SLP126 T03720017 $,M
LAS,2022-08-17 19:56,-115.1634,36.0719,663.00,99.00,59.00,26.78,M,3.00,0.00,29.93,1010.20,10.00,M,FEW,FEW,M,M,12000.00,25000.00,M,M,M,M,M,M,M,M,M,98.97,KLAS 171956Z VRB03KT 10SM FEW120 FEW250 37/15 A2993 RMK AO2 SLP102 CB DSNT SE-SW-NW T03720150,M
HND,2022-08-17 19:56,-115.1344,35.9729,742.79,99.00,61.00,28.75,M,4.00,0.00,29.96,1012.70,10.00,M,CLR,M,M,M,M,M,M,M,M,M,M,M,M,M,M,99.96,KHND 171956Z VRB04KT 10SM CLR 37/16 A2996 RMK AO2 SLP127 T03720161,M
NFL,2022-08-17 19:56,-118.7010,39.4166,1199.00,94.00,40.00,15.35,310.00,6.00,0.00,30.06,1014.80,10.00,M,SCT,BKN,BKN,M,10000.00,14000.00,18000.00,M,M,M,M,M,M,M,M,89.60,KNFL 171956Z 31006KT 10SM SCT100 BKN140 BKN180 34/04 A3006 RMK AO2 SLP148 VIRGA DSNT W TCU DSNT E-SE T03440044,M
TPH,2022-08-17 19:56,-117.0904,38.0505,1654.00,90.00,44.00,20.39,150.00,5.00,0.00,30.17,1012.40,10.00,28.00,OVC,M,M,M,11000.00,M,M,M,M,M,M,M,28.00,220.00,2022-08-17 19:53,86.38,KTPH 171956Z AUTO 15005G28KT 10SM OVC110 32/07 A3017 RMK AO2 PK WND 22028/1953 SLP124 T03220067,M
EKO,2022-08-17 19:56,-115.7860,40.8242,1367.00,93.00,38.00,14.60,70.00,13.00,0.00,30.15,1014.50,10.00,20.00,FEW,M,M,M,12000.00,M,M,M,M,M,M,M,M,M,M,88.67,KEKO 171956Z AUTO 07013G20KT 10SM FEW120 34/03 A3015 RMK AO2 SLP145 T03390033,M
LSV,2022-08-17 19:58,-115.0343,36.2362,570.00,104.50,58.00,21.83,230.00,3.00,0.00,29.89,M,10.00,M,CLR,M,M,M,M,M,M,M,M,M,M,M,M,M,M,104.69,KLSV 171958Z 23003KT 10SM CLR 40/14 A2989 RMK AO2A SLPNO T04030144 $,M
INS,2022-08-17 19:58,-115.6733,36.5872,955.00,93.40,52.20,24.84,70.00,6.00,0.00,29.99,1010.20,10.00,M,CLR,M,M,M,M,M,M,M,M,M,M,M,M,M,M,90.74,KINS 171958Z AUTO 07006KT 10SM CLR 34/11 A2999 RMK AO2 SLP102 T03410112,M
LSV,2022-08-17 19:59,-115.0343,36.2362,570.00,104.50,58.00,21.83,0.00,0.00,0.00,29.89,M,10.00,M,CLR,M,M,M,M,M,M,M,M,M,M,M,M,M,M,104.69,KLSV 171959Z 00000KT 10SM CLR 40/14 A2989 RMK SLPNO T04030144 $,M
MEV,2022-08-17 20:15,-119.7500,38.9963,1441.42,91.40,39.20,16.15,M,3.00,0.00,30.12,M,10.00,M,CLR,M,M,M,M,M,M,M,M,M,M,M,M,M,M,87.30,KMEV 172015Z AUTO VRB03KT 10SM CLR 33/04 A3012 RMK AO2,M
BVU,2022-08-17 20:15,-114.8611,35.9475,671.00,98.60,57.20,25.41,M,5.00,0.00,29.91,M,M,M,M,M,M,M,M,M,M,M,M,M,M,M,M,M,M,97.76,KBVU 172015Z AUTO VRB05KT 37/14 A2991 RMK AO2 PWINO TSNO,M
BAM,2022-08-17 20:15,-116.8743,40.5990,1382.36,98.60,32.00,9.72,180.00,7.00,0.00,30.10,M,10.00,M,CLR,M,M,M,M,M,M,M,M,M,M,M,M,M,M,92.69,KBAM 172015Z AUTO 18007KT 140V200 10SM CLR 37/00 A3010 RMK AO1,M
HTH,2022-08-17 20:15,-118.6315,38.5448,1282.89,89.60,41.00,18.33,320.00,8.00,0.00,30.09,M,10.00,M,FEW,M,M,M,12000.00,M,M,M,M,M,M,M,M,M,M,85.82,KHTH 172015Z AUTO 32008KT 10SM FEW120 32/05 A3009 RMK A01,M
TMT,2022-08-17 20:15,-117.1971,39.4643,1749.34,M,M,M,150.00,7.00,0.00,30.19,M,10.00,M,SCT,M,M,M,12000.00,M,M,M,M,M,M,M,M,M,M,M,KTMT 172015Z AUTO 15007KT 110V180 10SM SCT120 A3019 RMK AO2 LTG DSNT SE,M
RTS,2022-08-17 20:15,-119.8764,39.6682,1539.00,89.60,37.40,15.92,90.00,7.00,0.00,30.17,M,10.00,M,CLR,M,M,M,M,M,M,M,M,M,M,M,M,M,M,85.67,KRTS 172015Z AUTO 09007KT 10SM CLR 32/03 A3017 RMK AO2,M
CXP,2022-08-17 20:15,-119.7326,39.1923,1431.00,89.60,39.20,17.09,70.00,10.00,0.00,30.14,M,10.00,17.00,FEW,M,M,M,12000.00,M,M,M,M,M,M,M,M,M,M,85.73,KCXP 172015Z AUTO 07010G17KT 10SM FEW120 32/04 A3014 RMK AO2,M
MEV,2022-08-17 20:35,-119.7500,38.9963,1441.42,91.40,39.20,16.15,M,6.00,0.00,30.12,M,10.00,M,M,M,M,M,M,M,M,M,M,M,M,M,M,M,M,87.30,KMEV 172035Z AUTO VRB06KT 10SM 33/04 A3012 RMK AO2,M
BVU,2022-08-17 20:35,-114.8611,35.9475,671.00,100.40,57.20,24.06,40.00,7.00,0.00,29.90,M,M,M,M,M,M,M,M,M,M,M,M,M,M,M,M,M,M,99.77,KBVU 172035Z AUTO 04007KT 38/14 A2990 RMK AO2 PWINO TSNO,M
CXP,2022-08-17 20:35,-119.7326,39.1923,1431.00,91.40,39.20,16.15,60.00,8.00,0.00,30.14,M,10.00,15.00,CLR,M,M,M,M,M,M,M,M,M,M,M,M,M,M,87.30,KCXP 172035Z AUTO 06008G15KT 10SM CLR 33/04 A3014 RMK AO2,M
RTS,2022-08-17 20:35,-119.8764,39.6682,1539.00,87.80,37.40,16.86,M,5.00,0.00,30.17,M,10.00,M,CLR,M,M,M,M,M,M,M,M,M,M,M,M,M,M,84.16,KRTS 172035Z AUTO VRB05KT 10SM CLR 31/03 A3017 RMK AO2,M
BAM,2022-08-17 20:35,-116.8743,40.5990,1382.36,98.60,32.00,9.72,120.00,11.00,0.00,30.09,M,10.00,14.00,CLR,M,M,M,M,M,M,M,M,M,M,M,M,M,M,92.69,KBAM 172035Z AUTO 12011G14KT 10SM CLR 37/00 A3009 RMK AO1,M
HTH,2022-08-17 20:35,-118.6315,38.5448,1282.89,89.60,39.20,17.09,340.00,8.00,0.00,30.09,M,10.00,M,CLR,M,M,M,M,M,M,M,M,M,M,M,M,M,M,85.73,KHTH 172035Z AUTO 34008KT 10SM CLR 32/04 A3009 RMK A01,M
TMT,2022-08-17 20:35,-117.1971,39.4643,1749.34,M,M,M,140.00,5.00,0.00,30.18,M,10.00,M,SCT,M,M,M,12000.00,M,M,M,M,M,M,M,M,M,M,M,KTMT 172035Z AUTO 14005KT 10SM SCT120 A3018 RMK AO2,M
P68,2022-08-17 20:53,-116.0056,39.6014,1993.00,88.00,35.00,15.29,210.00,3.00,0.00,30.19,1012.60,M,M,M,M,M,M,M,M,M,M,M,M,M,M,M,M,M,84.28,KP68 172053Z AUTO 21003KT 31/02 A3019 RMK AO1 SLP126 T03110017 56011,M
LOL,2022-08-17 20:53,-118.5701,40.0684,1192.43,97.00,41.00,14.57,30.00,5.00,0.00,30.05,1012.50,10.00,M,CLR,M,M,M,M,M,M,M,M,M,M,M,M,M,M,92.58,KLOL 172053Z AUTO 03005KT 10SM CLR 36/05 A3005 RMK AO2 SLP125 60000 T03610050 56013,M
VGT,2022-08-17 20:53,-115.1933,36.2111,667.00,101.00,58.00,24.31,240.00,4.00,0.00,29.90,1010.80,10.00,M,CLR,M,M,M,M,M,M,M,M,M,M,M,M,M,M,100.63,KVGT 172053Z 24004KT 10SM CLR 38/14 A2990 RMK AO2 SLP108 T03830144 58018,M
ELY,2022-08-17 20:53,-114.8453,39.2950,1909.00,86.00,41.00,20.54,50.00,7.00,0.00,30.23,1013.20,10.00,M,CLR,M,M,M,M,M,M,M,M,M,M,M,M,M,M,82.86,KELY 172053Z AUTO 05007KT 10SM CLR 30/05 A3023 RMK AO2 SLP132 T03000050 56013,M
DRA,2022-08-17 20:53,-116.0278,36.6206,1009.00,100.00,52.00,20.15,130.00,7.00,0.00,29.97,1009.10,10.00,M,CLR,M,M,M,M,M,M,M,M,M,M,M,M,M,M,97.53,KDRA 172053Z AUTO 13007KT 100V160 10SM CLR 38/11 A2997 RMK AO2 SLP091 T03780111 58015,M
CXP,2022-08-17 20:55,-119.7326,39.1923,1431.00,91.40,39.20,16.15,90.00,11.00,0.00,30.14,M,10.00,M,CLR,M,M,M,M,M,M,M,M,M,M,M,M,M,M,87.30,KCXP 172055Z AUTO 09011KT 10SM CLR 33/04 A3014 RMK AO2,M
BVU,2022-08-17 20:55,-114.8611,35.9475,671.00,100.40,57.20,24.06,M,4.00,0.00,29.90,M,M,M,M,M,M,M,M,M,M,M,M,M,M,M,M,M,M,99.77,KBVU 172055Z AUTO VRB04KT 38/14 A2990 RMK AO2 PWINO TSNO,M
RNO,2022-08-17 20:55,-119.7711,39.4839,1341.00,91.00,45.00,20.45,90.00,11.00,0.00,30.11,1012.80,10.00,M,SCT,BKN,M,M,11000.00,16000.00,M,M,M,M,M,M,M,M,M,87.35,KRNO 172055Z 09011KT 10SM SCT110 BKN160 33/07 A3011 RMK AO2 SLP128 VIRGA T03280072 56007,M
TMT,2022-08-17 20:55,-117.1971,39.4643,1749.34,M,M,M,80.00,8.00,0.00,30.18,M,10.00,M,BKN,M,M,M,12000.00,M,M,M,M,M,M,M,M,M,M,M,KTMT 172055Z AUTO 08008KT 10SM BKN120 A3018 RMK AO2,M
HTH,2022-08-17 20:55,-118.6315,38.5448,1282.89,91.40,41.00,17.32,330.00,8.00,0.00,30.08,M,10.00,M,CLR,M,M,M,M,M,M,M,M,M,M,M,M,M,M,87.40,KHTH 172055Z AUTO 33008KT 10SM CLR 33/05 A3008 RMK A01,M
BAM,2022-08-17 20:55,-116.8743,40.5990,1382.36,96.80,32.00,10.27,190.00,4.00,0.00,30.09,M,10.00,M,CLR,M,M,M,M,M,M,M,M,M,M,M,M,M,M,91.19,KBAM 172055Z AUTO 19004KT 10SM CLR 36/00 A3009 RMK AO1,M
MEV,2022-08-17 20:55,-119.7500,38.9963,1441.42,89.60,39.20,17.09,30.00,4.00,0.00,30.12,M,10.00,M,M,M,M,M,M,M,M,M,M,M,M,M,M,M,M,85.73,KMEV 172055Z AUTO 03004KT 10SM 32/04 A3012 RMK AO2,M
RTS,2022-08-17 20:55,-119.8764,39.6682,1539.00,87.80,37.40,16.86,80.00,9.00,0.00,30.17,M,10.00,16.00,BKN,M,M,M,10000.00,M,M,M,M,M,M,M,M,M,M,84.16,KRTS 172055Z AUTO 08009G16KT 10SM BKN100 31/03 A3017 RMK AO2,M
LAS,2022-08-17 20:56,-115.1634,36.0719,663.00,98.00,58.00,26.46,0.00,0.00,0.00,29.91,1009.60,10.00,M,FEW,SCT,M,M,12000.00,25000.00,M,M,M,M,M,M,M,M,M,97.49,KLAS 172056Z 00000KT 10SM FEW120 SCT250 37/14 A2991 RMK AO2 TSB55E56 SLP096 CB DSNT E-S-W-NW T03670144 58018,M
WMC,2022-08-17 20:56,-117.8072,40.9019,1315.00,101.00,34.00,9.83,320.00,9.00,0.00,30.06,1012.00,10.00,M,CLR,M,M,M,M,M,M,M,M,M,M,M,M,M,M,94.93,KWMC 172056Z AUTO 32009KT 10SM CLR 38/01 A3006 RMK AO2 SLP120 T03830011 58016 $,M
HND,2022-08-17 20:56,-115.1344,35.9729,742.79,100.00,59.00,25.98,240.00,7.00,0.00,29.94,1011.90,10.00,M,CLR,M,M,M,M,M,M,M,VCTS,M,M,M,M,M,M,100.11,KHND 172056Z 24007KT 10SM VCTS CLR 38/15 A2994 RMK AO2 LTG DSNT S TSB55 SLP119 T03780150 58019,M
TPH,2022-08-17 20:56,-117.0904,38.0505,1654.00,89.00,45.00,21.70,120.00,12.00,T,30.16,1012.30,10.00,17.00,BKN,M,M,M,10000.00,M,M,M,-RA,M,M,M,M,M,M,85.66,KTPH 172056Z AUTO 12012G17KT 10SM -RA BKN100 32/07 A3016 RMK AO2 RAB53 SLP123 P0000 60000 T03170072 56011,M
NFL,2022-08-17 20:56,-118.7010,39.4166,1199.00,95.00,39.00,14.33,320.00,7.00,0.00,30.05,1014.40,10.00,M,SCT,BKN,BKN,M,10000.00,14000.00,18000.00,M,M,M,M,M,M,M,M,90.55,KNFL 172056Z 32007KT 10SM SCT100 BKN140 BKN180 35/04 A3005 RMK AO2 SLP144 TCU DSNT SE SH DSNT SW-W T03500039 58010,M
EKO,2022-08-17 20:56,-115.7860,40.8242,1367.00,90.00,38.00,16.10,110.00,7.00,M,30.13,1014.20,10.00,14.97,CLR,M,M,M,M,M,M,M,M,M,M,M,M,M,M,86.03,METAR KEKO 172056Z 11007G15KT 10SM CLR 32/03 A3013 RMK AO2 SLP142 T03220033 56014 FIBI,M
LSV,2022-08-17 20:58,-115.0343,36.2362,570.00,106.30,58.00,20.84,0.00,0.00,0.00,29.87,M,10.00,M,CLR,M,M,M,M,M,M,M,M,M,M,M,M,M,M,106.81,KLSV 172058Z AUTO 00000KT 10SM CLR 41/15 A2987 RMK AO2 SLPNO T04130145 57018 $,M
INS,2022-08-17 20:58,-115.6733,36.5872,955.00,96.30,53.60,23.91,90.00,7.00,0.00,29.97,1009.60,10.00,M,CLR,M,M,M,M,M,M,M,M,M,M,M,M,M,M,94.07,KINS 172058Z AUTO 09007KT 10SM CLR 36/12 A2997 RMK AO2 SLP096 T03570120 57015,M
HTH,2022-08-17 21:15,-118.6315,38.5448,1282.89,91.40,39.20,16.15,330.00,9.00,0.00,30.08,M,10.00,M,CLR,M,M,M,M,M,M,M,M,M,M,M,M,M,M,87.30,KHTH 172115Z AUTO 33009KT 10SM CLR 33/04 A3008 RMK A01,M
TMT,2022-08-17 21:15,-117.1971,39.4643,1749.34,M,M,M,60.00,9.00,0.00,30.18,M,10.00,M,SCT,M,M,M,12000.00,M,M,M,M,M,M,M,M,M,M,M,KTMT 172115Z AUTO 06009KT 10SM SCT120 A3018 RMK AO2,M
BAM,2022-08-17 21:15,-116.8743,40.5990,1382.36,98.60,32.00,9.72,130.00,11.00,0.00,30.08,M,10.00,15.00,CLR,M,M,M,M,M,M,M,M,M,M,M,M,M,M,92.69,KBAM 172115Z AUTO 13011G15KT 10SM CLR 37/00 A3008 RMK AO1,M
MEV,2022-08-17 21:15,-119.7500,38.9963,1441.42,87.80,39.20,18.09,0.00,0.00,0.00,30.12,M,10.00,M,BKN,M,M,M,11000.00,M,M,M,M,M,M,M,M,M,M,84.22,KMEV 172115Z AUTO 00000KT 10SM BKN110 31/04 A3012 RMK AO2,M
RTS,2022-08-17 21:15,-119.8764,39.6682,1539.00,87.80,39.20,18.09,120.00,14.00,0.00,30.17,M,10.00,M,FEW,M,M,M,10000.00,M,M,M,M,M,M,M,M,M,M,84.22,KRTS 172115Z AUTO 12014KT 10SM FEW100 31/04 A3017 RMK AO2,M
CXP,2022-08-17 21:15,-119.7326,39.1923,1431.00,89.60,39.20,17.09,M,4.00,0.00,30.14,M,9.00,M,CLR,M,M,M,M,M,M,M,M,M,M,M,M,M,M,85.73,KCXP 172115Z AUTO VRB04KT 9SM CLR 32/04 A3014 RMK AO2,M
BVU,2022-08-17 21:15,-114.8611,35.9475,671.00,102.20,55.40,21.36,340.00,7.00,0.00,29.89,M,M,13.00,M,M,M,M,M,M,M,M,M,M,M,M,M,M,M,101.04,KBVU 172115Z AUTO 34007G13KT 39/13 A2989 RMK AO2 PWINO TSNO,M
HND,2022-08-17 21:16,-115.1344,35.9729,742.79,98.60,59.00,27.10,180.00,3.00,0.00,29.93,M,10.00,M,CLR,M,M,M,M,M,M,M,M,M,M,M,M,M,M,98.52,KHND 172116Z 18003KT 10SM CLR 37/15 A2993 RMK AO2 LTG DSNT S TSE10,M
BAM,2022-08-17 21:35,-116.8743,40.5990,1382.36,98.60,32.00,9.72,100.00,8.00,0.00,30.08,M,10.00,M,CLR,M,M,M,M,M,M,M,M,M,M,M,M,M,M,92.69,KBAM 172135Z AUTO 10008KT 10SM CLR 37/00 A3008 RMK AO1,M
MEV,2022-08-17 21:35,-119.7500,38.9963,1441.42,87.80,41.00,19.40,M,5.00,0.00,30.13,M,10.00,M,BKN,M,M,M,11000.00,M,M,M,M,M,M,M,M,M,M,84.30,KMEV 172135Z AUTO VRB05KT 10SM BKN110 31/05 A3013 RMK AO2,M
RTS,2022-08-17 21:35,-119.8764,39.6682,1539.00,87.80,39.20,18.09,110.00,14.00,0.00,30.17,M,10.00,M,CLR,M,M,M,M,M,M,M,M,M,M,M,M,M,M,84.22,KRTS 172135Z AUTO 11014KT 10SM CLR 31/04 A3017 RMK AO2,M
CXP,2022-08-17 21:35,-119.7326,39.1923,1431.00,87.80,39.20,18.09,0.00,0.00,0.00,30.14,M,10.00,M,BKN,M,M,M,12000.00,M,M,M,M,M,M,M,M,M,M,84.22,KCXP 172135Z AUTO 00000KT 10SM BKN120 31/04 A3014 RMK AO2,M
BVU,2022-08-17 21:35,-114.8611,35.9475,671.00,102.20,55.40,21.36,240.00,6.00,0.00,29.88,M,M,M,M,M,M,M,M,M,M,M,M,M,M,M,M,M,M,101.04,KBVU 172135Z AUTO 24006KT 39/13 A2988 RMK AO2 PWINO TSNO,M
TMT,2022-08-17 21:35,-117.1971,39.4643,1749.34,M,M,M,50.00,6.00,0.00,30.18,M,10.00,M,CLR,M,M,M,M,M,M,M,M,M,M,M,M,M,M,M,KTMT 172135Z AUTO 05006KT 10SM CLR A3018 RMK AO2 LTG DSNT SE,M
HTH,2022-08-17 21:35,-118.6315,38.5448,1282.89,91.40,37.40,15.05,20.00,7.00,0.00,30.07,M,10.00,13.00,CLR,M,M,M,M,M,M,M,M,M,M,M,M,M,M,87.23,KHTH 172135Z AUTO 02007G13KT 10SM CLR 33/03 A3007 RMK A01,M
ELY,2022-08-17 21:53,-114.8453,39.2950,1909.00,88.00,41.00,19.28,M,6.00,0.00,30.21,1012.60,10.00,M,SCT,M,M,M,11000.00,M,M,M,M,M,M,M,M,M,M,84.46,KELY 172153Z AUTO VRB06KT 10SM SCT110 31/05 A3021 RMK AO2 SLP126 T03110050,M
P68,2022-08-17 21:53,-116.0056,39.6014,1993.00,92.00,34.00,12.95,80.00,7.00,0.00,30.17,1011.90,M,15.00,M,M,M,M,M,M,M,M,M,M,M,M,M,M,M,87.56,KP68 172153Z AUTO 08007G15KT 33/01 A3017 RMK AO1 SLP119 T03330011,M
VGT,2022-08-17 21:53,-115.1933,36.2111,667.00,103.00,57.00,22.16,M,M,0.00,29.87,1009.70,10.00,M,CLR,M,M,M,M,M,M,M,M,M,M,M,M,M,M,102.48,KVGT 172153Z 10SM CLR 39/14 A2987 RMK AO2 LTG DSNT SW AND W SLP097 T03940139,M
LOL,2022-08-17 21:53,-118.5701,40.0684,1192.43,97.00,41.00,14.57,10.00,6.00,0.00,30.03,1011.80,10.00,M,CLR,M,M,M,M,M,M,M,M,M,M,M,M,M,M,92.58,KLOL 172153Z AUTO 01006KT 10SM CLR 36/05 A3003 RMK AO2 SLP118 T03610050,M
DRA,2022-08-17 21:53,-116.0278,36.6206,1009.00,100.00,53.00,20.98,150.00,13.00,0.00,29.96,1008.50,10.00,23.00,BKN,M,M,M,10000.00,M,M,M,M,M,M,M,M,M,M,97.85,KDRA 172153Z AUTO 15013G23KT 10SM BKN100 38/12 A2996 RMK AO2 SLP085 T03780117,M
RNO,2022-08-17 21:55,-119.7711,39.4839,1341.00,93.00,44.00,18.56,150.00,8.00,0.00,30.10,1012.10,10.00,M,BKN,BKN,M,M,13000.00,17000.00,M,M,M,M,M,M,M,M,M,89.11,KRNO 172155Z 15008KT 100V170 10SM BKN130 BKN170 34/07 A3010 RMK AO2 SLP121 CB DSNT SE SH DSNT NE THRU SE T03390067,M
TMT,2022-08-17 21:55,-117.1971,39.4643,1749.34,M,M,M,70.00,5.00,0.00,30.17,M,10.00,M,SCT,M,M,M,12000.00,M,M,M,M,M,M,M,M,M,M,M,KTMT 172155Z AUTO 07005KT 10SM SCT120 A3017 RMK AO2,M
BAM,2022-08-17 21:55,-116.8743,40.5990,1382.36,100.40,32.00,9.21,20.00,4.00,0.00,30.07,M,10.00,M,CLR,M,M,M,M,M,M,M,M,M,M,M,M,M,M,94.21,KBAM 172155Z AUTO 02004KT 10SM CLR 38/00 A3007 RMK AO1,M
MEV,2022-08-17 21:55,-119.7500,38.9963,1441.42,87.80,41.00,19.40,90.00,13.00,0.00,30.13,M,10.00,19.00,SCT,M,M,M,11000.00,M,M,M,M,M,M,M,M,M,M,84.30,KMEV 172155Z AUTO 09013G19KT 10SM SCT110 31/05 A3013 RMK AO2,M
HTH,2022-08-17 21:55,-118.6315,38.5448,1282.89,93.20,39.20,15.27,330.00,8.00,0.00,30.07,M,10.00,M,CLR,M,M,M,M,M,M,M,M,M,M,M,M,M,M,88.92,KHTH 172155Z AUTO 33008KT 10SM CLR 34/04 A3007 RMK A01,M
RTS,2022-08-17 21:55,-119.8764,39.6682,1539.00,87.80,39.20,18.09,120.00,8.00,0.00,30.17,M,10.00,14.00,CLR,M,M,M,M,M,M,M,M,M,M,M,M,M,M,84.22,KRTS 172155Z AUTO 12008G14KT 10SM CLR 31/04 A3017 RMK AO2,M
CXP,2022-08-17 21:55,-119.7326,39.1923,1431.00,87.80,42.80,20.79,130.00,15.00,0.00,30.15,M,8.00,27.00,FEW,SCT,OVC,M,4800.00,5500.00,12000.00,M,-RA,M,M,M,M,M,M,84.40,KCXP 172155Z AUTO 13015G27KT 8SM -RA FEW048 SCT055 OVC120 31/06 A3015 RMK AO2,M
BVU,2022-08-17 21:55,-114.8611,35.9475,671.00,102.20,53.60,20.00,100.00,6.00,0.00,29.87,M,M,M,M,M,M,M,M,M,M,M,M,M,M,M,M,M,M,100.38,KBVU 172155Z AUTO 10006KT 39/12 A2987 RMK AO2 PWINO TSNO,M
HND,2022-08-17 21:56,-115.1344,35.9729,742.79,102.00,59.00,24.46,290.00,8.00,0.00,29.92,1011.00,10.00,M,CLR,M,M,M,M,M,M,M,M,M,M,M,M,M,M,102.39,KHND 172156Z 29008KT 10SM CLR 39/15 A2992 RMK AO2 LTG DSNT S AND W TSE10 SLP110 T03890150,M
NFL,2022-08-17 21:56,-118.7010,39.4166,1199.00,97.00,39.00,13.48,M,5.00,0.00,30.03,1013.90,10.00,M,FEW,SCT,BKN,BKN,8000.00,10000.00,14000.00,20000.00,M,M,M,M,M,M,M,92.40,KNFL 172156Z VRB05KT 10SM FEW080 SCT100 BKN140 BKN200 36/04 A3003 RMK AO2 SLP139 SH DSNT SE AND SW T03610039,M
EKO,2022-08-17 21:56,-115.7860,40.8242,1367.00,86.00,38.00,18.20,190.00,3.00,0.00,30.12,1014.60,10.00,M,CLR,M,M,M,M,M,M,M,M,M,M,M,M,M,M,82.74,KEKO 172156Z AUTO 19003KT 10SM CLR 30/03 A3012 RMK AO2 SLP146 T03000033,M
WMC,2022-08-17 21:56,-117.8072,40.9019,1315.00,103.00,32.00,8.54,320.00,8.00,0.00,30.03,1011.30,10.00,M,CLR,M,M,M,M,M,M,M,M,M,M,M,M,M,M,96.34,KWMC 172156Z AUTO 32008KT 10SM CLR 39/00 A3003 RMK AO2 SLP113 T03940000 $,M
LAS,2022-08-17 21:56,-115.1634,36.0719,663.00,101.00,56.00,22.61,M,4.00,0.00,29.88,1008.60,10.00,M,FEW,SCT,M,M,12000.00,25000.00,M,M,M,M,M,M,M,M,M,99.80,KLAS 172156Z VRB04KT 10SM FEW120 SCT250 38/13 A2988 RMK AO2 LTG DSNT W SLP086 CB DSNT E-S-W-NW T03830133,M
TPH,2022-08-17 21:56,-117.0904,38.0505,1654.00,90.00,44.00,20.39,0.00,0.00,T,30.14,1011.50,10.00,M,CLR,M,M,M,M,M,M,M,M,M,M,M,M,M,M,86.38,KTPH 172156Z AUTO 00000KT 10SM CLR 32/07 A3014 RMK AO2 RAE04 SLP115 P0000 T03220067,M
INS,2022-08-17 21:58,-115.6733,36.5872,955.00,96.00,53.40,23.89,310.00,4.00,0.00,29.95,1008.90,10.00,M,CLR,M,M,M,M,M,M,M,M,M,M,M,M,M,M,93.80,KINS 172158Z AUTO 31004KT 10SM CLR 36/12 A2995 RMK AO2 SLP089 T03560119,M
LSV,2022-08-17 21:58,-115.0343,36.2362,570.00,106.30,56.80,19.89,130.00,4.00,0.00,29.84,M,10.00,M,FEW,M,M,M,15000.00,M,M,M,M,M,M,M,M,M,M,106.16,KLSV 172158Z AUTO 13004KT 10SM FEW150 41/14 A2984 RMK AO2 SLPNO T04130138 $,M
HTH,2022-08-17 22:15,-118.6315,38.5448,1282.89,93.20,39.20,15.27,330.00,10.00,0.00,30.06,M,10.00,15.00,CLR,M,M,M,M,M,M,M,M,M,M,M,M,M,M,88.92,KHTH 172215Z AUTO 33010G15KT 10SM CLR 34/04 A3006 RMK A01,M
BVU,2022-08-17 22:15,-114.8611,35.9475,671.00,102.20,53.60,20.00,M,3.00,0.00,29.86,M,M,M,M,M,M,M,M,M,M,M,M,M,M,M,M,M,M,100.38,KBVU 172215Z AUTO VRB03KT 39/12 A2986 RMK AO2 PWINO TSNO,M
CXP,2022-08-17 22:15,-119.7326,39.1923,1431.00,84.20,42.80,23.33,140.00,6.00,0.00,30.16,M,10.00,M,FEW,SCT,BKN,M,4000.00,5500.00,11000.00,M,-RA,M,M,M,M,M,M,81.61,KCXP 172215Z AUTO 14006KT 10SM -RA FEW040 SCT055 BKN110 29/06 A3016 RMK AO2,M
RTS,2022-08-17 22:15,-119.8764,39.6682,1539.00,87.80,39.20,18.09,M,4.00,0.00,30.16,M,10.00,M,CLR,M,M,M,M,M,M,M,M,M,M,M,M,M,M,84.22,KRTS 172215Z AUTO VRB04KT 10SM CLR 31/04 A3016 RMK AO2,M
MEV,2022-08-17 22:15,-119.7500,38.9963,1441.42,86.00,42.80,22.02,100.00,10.00,0.00,30.14,M,10.00,15.00,SCT,M,M,M,11000.00,M,M,M,M,M,M,M,M,M,M,82.95,KMEV 172215Z AUTO 10010G15KT 10SM SCT110 30/06 A3014 RMK AO2 LTG DSNT SE,M
BAM,2022-08-17 22:15,-116.8743,40.5990,1382.36,100.40,32.00,9.21,210.00,7.00,0.00,30.06,M,10.00,M,CLR,M,M,M,M,M,M,M,M,M,M,M,M,M,M,94.21,KBAM 172215Z AUTO 21007KT 10SM CLR 38/00 A3006 RMK AO1,M
TMT,2022-08-17 22:15,-117.1971,39.4643,1749.34,M,M,M,40.00,4.00,0.00,30.16,M,10.00,M,SCT,M,M,M,12000.00,M,M,M,M,M,M,M,M,M,M,M,KTMT 172215Z AUTO 04004KT 10SM SCT120 A3016 RMK AO2 LTG DSNT SW,M
WMC,2022-08-17 22:32,-117.8072,40.9019,1315.00,100.00,28.90,8.22,M,6.00,0.00,30.02,M,10.00,20.00,CLR,M,M,M,M,M,M,M,M,M,M,M,26.00,170.00,2022-08-17 22:15,93.48,KWMC 172232Z AUTO VRB06G20KT 10SM CLR 38/M02 A3002 RMK AO2 PK WND 17026/2215 WSHFT 2212 T03781017 $,M
TMT,2022-08-17 22:35,-117.1971,39.4643,1749.34,M,M,M,190.00,11.00,0.00,30.17,M,10.00,17.00,CLR,M,M,M,M,M,M,M,M,M,M,M,M,M,M,M,KTMT 172235Z AUTO 19011G17KT 10SM CLR A3017 RMK AO2,M
MEV,2022-08-17 22:35,-119.7500,38.9963,1441.42,84.20,46.40,26.76,90.00,14.00,0.00,30.14,M,10.00,21.00,SCT,M,M,M,10000.00,M,M,M,M,M,M,M,M,M,M,81.87,KMEV 172235Z AUTO 09014G21KT 10SM SCT100 29/08 A3014 RMK AO2,M
BVU,2022-08-17 22:35,-114.8611,35.9475,671.00,102.20,51.80,18.72,0.00,0.00,0.00,29.86,M,M,M,M,M,M,M,M,M,M,M,M,M,M,M,M,M,M,99.80,KBVU 172235Z AUTO 00000KT 39/11 A2986 RMK AO2 PWINO TSNO,M
CXP,2022-08-17 22:35,-119.7326,39.1923,1431.00,84.20,44.60,24.99,110.00,11.00,0.00,30.17,M,10.00,M,FEW,FEW,BKN,M,3800.00,5500.00,11000.00,M,M,M,M,M,M,M,M,81.73,KCXP 172235Z AUTO 11011KT 10SM FEW038 FEW055 BKN110 29/07 A3017 RMK AO2,M
RTS,2022-08-17 22:35,-119.8764,39.6682,1539.00,87.80,41.00,19.40,120.00,17.00,0.00,30.15,M,10.00,M,CLR,M,M,M,M,M,M,M,M,M,M,M,M,M,M,84.30,KRTS 172235Z AUTO 12017KT 10SM CLR 31/05 A3015 RMK AO2,M
HTH,2022-08-17 22:35,-118.6315,38.5448,1282.89,95.00,39.20,14.44,310.00,11.00,0.00,30.05,M,10.00,M,CLR,M,M,M,M,M,M,M,M,M,M,M,M,M,M,90.57,KHTH 172235Z AUTO 31011KT 10SM CLR 35/04 A3005 RMK A01,M
BAM,2022-08-17 22:35,-116.8743,40.5990,1382.36,100.40,28.40,7.95,200.00,7.00,0.00,30.05,M,10.00,M,CLR,M,M,M,M,M,M,M,M,M,M,M,M,M,M,93.77,KBAM 172235Z AUTO 20007KT 10SM CLR 38/M02 A3005 RMK AO1,M
LOL,2022-08-17 22:53,-118.5701,40.0684,1192.43,96.00,40.00,14.35,0.00,0.00,0.00,30.00,1010.90,10.00,M,CLR,M,M,M,M,M,M,M,M,M,M,M,M,M,M,91.64,KLOL 172253Z AUTO 00000KT 10SM CLR 36/04 A3000 RMK AO2 SLP109 T03560044,M
VGT,2022-08-17 22:53,-115.1933,36.2111,667.00,103.00,56.00,21.30,140.00,5.00,0.00,29.85,1009.20,10.00,M,CLR,M,M,M,M,M,M,M,M,M,M,M,M,M,M,102.01,KVGT 172253Z 14005KT 10SM CLR 39/13 A2985 RMK AO2 SLP092 T03940133,M
DRA,2022-08-17 22:53,-116.0278,36.6206,1009.00,99.00,51.00,20.09,90.00,8.00,0.00,29.94,1008.00,10.00,18.00,CLR,M,M,M,M,M,M,M,M,M,M,M,M,M,M,96.24,KDRA 172253Z AUTO 09008G18KT 10SM CLR 37/11 A2994 RMK AO2 SLP080 T03720106,M
P68,2022-08-17 22:53,-116.0056,39.6014,1993.00,93.00,34.00,12.51,30.00,7.00,0.00,30.15,1011.20,M,M,M,M,M,M,M,M,M,M,M,M,M,M,M,M,M,88.42,KP68 172253Z AUTO 03007KT 34/01 A3015 RMK AO1 SLP112 T03390011,M
ELY,2022-08-17 22:53,-114.8453,39.2950,1909.00,88.00,41.00,19.28,150.00,12.00,0.00,30.20,1011.90,10.00,16.00,CLR,M,M,M,M,M,M,M,M,M,M,M,M,M,M,84.46,KELY 172253Z AUTO 15012G16KT 10SM CLR 31/05 A3020 RMK AO2 SLP119 T03110050,M
HTH,2022-08-17 22:55,-118.6315,38.5448,1282.89,95.00,39.20,14.44,310.00,7.00,0.00,30.04,M,10.00,15.00,CLR,M,M,M,M,M,M,M,M,M,M,M,M,M,M,90.57,KHTH 172255Z AUTO 31007G15KT 10SM CLR 35/04 A3004 RMK A01,M
BVU,2022-08-17 22:55,-114.8611,35.9475,671.00,100.40,51.80,19.76,200.00,4.00,0.00,29.86,M,M,M,M,M,M,M,M,M,M,M,M,M,M,M,M,M,M,97.90,KBVU 172255Z AUTO 20004KT 38/11 A2986 RMK AO2 PWINO TSNO,M
CXP,2022-08-17 22:55,-119.7326,39.1923,1431.00,82.40,48.20,30.35,360.00,4.00,0.00,30.15,M,10.00,10.00,FEW,FEW,SCT,M,6000.00,7500.00,9000.00,M,-RA,M,M,M,M,M,M,80.80,KCXP 172255Z AUTO 36004G10KT 10SM -RA FEW060 FEW075 SCT090 28/09 A3015 RMK AO2,M
RNO,2022-08-17 22:55,-119.7711,39.4839,1341.00,89.00,47.00,23.32,170.00,21.00,T,30.10,1012.70,10.00,25.00,FEW,BKN,BKN,M,6000.00,11000.00,17000.00,M,-RA,M,M,M,M,M,M,85.85,KRNO 172255Z 17021G25KT 10SM -RA FEW060 BKN110 BKN170 32/08 A3010 RMK AO2 RAB54 SLP127 P0000 T03170083,M
RTS,2022-08-17 22:55,-119.8764,39.6682,1539.00,86.00,41.00,20.54,130.00,13.00,0.00,30.16,M,10.00,M,FEW,M,M,M,12000.00,M,M,M,M,M,M,M,M,M,M,82.86,KRTS 172255Z AUTO 13013KT 10SM FEW120 30/05 A3016 RMK AO2,M
MEV,2022-08-17 22:55,-119.7500,38.9963,1441.42,82.40,48.20,30.35,170.00,9.00,0.00,30.14,M,10.00,17.00,FEW,M,M,M,11000.00,M,M,M,M,M,M,M,M,M,M,80.80,KMEV 172255Z AUTO 17009G17KT 10SM FEW110 28/09 A3014 RMK AO2,M
BAM,2022-08-17 22:55,-116.8743,40.5990,1382.36,100.40,32.00,9.21,30.00,4.00,0.00,30.04,M,10.00,M,CLR,M,M,M,M,M,M,M,M,M,M,M,M,M,M,94.21,KBAM 172255Z AUTO 03004KT 10SM CLR 38/00 A3004 RMK AO1,M
TMT,2022-08-17 22:55,-117.1971,39.4643,1749.34,86.00,44.80,23.77,210.00,18.00,0.00,30.18,M,10.00,M,CLR,M,M,M,M,M,M,M,M,M,M,M,M,M,M,83.09,KTMT 172255Z AUTO 21018KT 10SM CLR 30/07 A3018 RMK AO2 T03000071,M
HND,2022-08-17 22:56,-115.1344,35.9729,742.79,103.00,59.00,23.81,330.00,6.00,0.00,29.90,1010.60,10.00,M,CLR,M,M,M,M,M,M,M,VCTS,M,M,M,M,M,M,103.42,KHND 172256Z 33006KT 10SM VCTS CLR 39/15 A2990 RMK AO2 LTG DSNT SE TSB55 SLP106 T03940150,M
NFL,2022-08-17 22:56,-118.7010,39.4166,1199.00,95.00,39.00,14.33,280.00,10.00,0.00,30.02,1013.40,10.00,M,SCT,BKN,BKN,BKN,8000.00,12000.00,18000.00,25000.00,M,M,M,M,M,M,M,90.55,KNFL 172256Z 28010KT 10SM SCT080 BKN120 BKN180 BKN250 35/04 A3002 RMK AO2 SLP134 CB DSNT E-SE T03500039,M
TPH,2022-08-17 22:56,-117.0904,38.0505,1654.00,89.00,45.00,21.70,230.00,7.00,0.00,30.13,1011.30,10.00,M,BKN,M,M,M,11000.00,M,M,M,M,M,M,M,M,M,M,85.66,KTPH 172256Z AUTO 23007KT 10SM BKN110 32/07 A3013 RMK AO2 SLP113 T03170072,M
WMC,2022-08-17 22:56,-117.8072,40.9019,1315.00,102.00,30.00,8.09,40.00,8.00,0.00,30.01,1010.60,10.00,M,CLR,M,M,M,M,M,M,M,M,M,M,M,26.00,170.00,2022-08-17 22:15,95.31,KWMC 172256Z AUTO 04008KT 10SM CLR 39/M01 A3001 RMK AO2 PK WND 17026/2215 WSHFT 2212 SLP106 T03891011 $,M
EKO,2022-08-17 22:56,-115.7860,40.8242,1367.00,85.00,34.00,16.16,210.00,4.00,0.00,30.09,1013.60,10.00,M,CLR,M,M,M,M,M,M,M,M,M,M,M,M,M,M,81.82,KEKO 172256Z AUTO 21004KT 10SM CLR 29/01 A3009 RMK AO2 SLP136 T02940011,M
LAS,2022-08-17 22:56,-115.1634,36.0719,663.00,103.00,54.00,19.87,M,6.00,0.00,29.86,1008.00,10.00,M,SCT,SCT,M,M,12000.00,25000.00,M,M,M,M,M,M,M,M,M,101.27,KLAS 172256Z VRB06KT 10SM SCT120CB SCT250 39/12 A2986 RMK AO2 LTG DSNT S SLP080 CB SE-SW AND DSNT ALQDS T03940122,M
LSV,2022-08-17 22:58,-115.0343,36.2362,570.00,107.00,54.50,17.87,160.00,5.00,0.00,29.82,M,10.00,M,FEW,SCT,M,M,12000.00,25000.00,M,M,M,M,M,M,M,M,M,105.98,KLSV 172258Z 16005KT 10SM FEW120 SCT250 42/13 A2982 RMK AO2A SLPNO T04170125 $,M
INS,2022-08-17 22:58,-115.6733,36.5872,955.00,95.70,52.00,22.97,270.00,3.00,0.00,29.93,1008.20,10.00,M,CLR,M,M,M,M,M,M,M,M,M,M,M,M,M,M,93.03,KINS 172258Z AUTO 27003KT 10SM CLR 35/11 A2993 RMK AO2 SLP082 T03540111,M
TMT,2022-08-17 23:15,-117.1971,39.4643,1749.34,M,M,M,210.00,12.00,0.00,30.18,M,10.00,M,SCT,SCT,M,M,7000.00,11000.00,M,M,M,M,M,M,M,M,M,M,KTMT 172315Z AUTO 21012KT 10SM SCT070 SCT110 A3018 RMK AO2,M
CXP,2022-08-17 23:15,-119.7326,39.1923,1431.00,84.20,48.20,28.63,180.00,5.00,0.00,30.15,M,10.00,M,FEW,FEW,SCT,M,6000.00,7500.00,12000.00,M,M,M,M,M,M,M,M,82.04,KCXP 172315Z AUTO 18005KT 10SM FEW060 FEW075 SCT120 29/09 A3015 RMK AO2,M
HTH,2022-08-17 23:15,-118.6315,38.5448,1282.89,93.20,39.20,15.27,350.00,5.00,0.00,30.04,M,10.00,13.00,CLR,M,M,M,M,M,M,M,M,M,M,M,M,M,M,88.92,KHTH 172315Z AUTO 35005G13KT 10SM CLR 34/04 A3004 RMK A01,M
BAM,2022-08-17 23:15,-116.8743,40.5990,1382.36,98.60,32.00,9.72,40.00,3.00,0.00,30.04,M,10.00,M,CLR,M,M,M,M,M,M,M,M,M,M,M,M,M,M,92.69,KBAM 172315Z AUTO 04003KT 10SM CLR 37/00 A3004 RMK AO1,M
RTS,2022-08-17 23:15,-119.8764,39.6682,1539.00,82.40,46.40,28.36,130.00,16.00,0.00,30.17,M,9.00,23.00,CLR,M,M,M,M,M,M,M,-DZ,M,M,M,M,M,M,80.64,KRTS 172315Z AUTO 13016G23KT 9SM -DZ CLR 28/08 A3017 RMK AO2,M
MEV,2022-08-17 23:15,-119.7500,38.9963,1441.42,82.40,46.40,28.36,270.00,6.00,0.00,30.14,M,10.00,M,CLR,M,M,M,M,M,M,M,M,M,M,M,M,M,M,80.64,KMEV 172315Z AUTO 27006KT 10SM CLR 28/08 A3014 RMK AO2,M
BVU,2022-08-17 23:15,-114.8611,35.9475,671.00,100.40,53.60,21.11,0.00,0.00,0.00,29.86,M,M,M,M,M,M,M,M,M,M,M,M,M,M,M,M,M,M,98.44,KBVU 172315Z AUTO 00000KT 38/12 A2986 RMK AO2 PWINO TSNO,M
HND,2022-08-17 23:16,-115.1344,35.9729,742.79,102.20,59.00,24.32,360.00,6.00,0.00,29.90,M,10.00,M,CLR,M,M,M,M,M,M,M,M,M,M,M,M,M,M,102.62,KHND 172316Z 36006KT 10SM CLR 39/15 A2990 RMK AO2 TSE10,M
HND,2022-08-17 23:24,-115.1344,35.9729,742.79,102.20,57.20,22.79,M,3.00,0.00,29.89,M,10.00,M,FEW,M,M,M,10000.00,M,M,M,VCTS,M,M,M,M,M,M,101.78,KHND 172324Z VRB03KT 10SM VCTS FEW100 39/14 A2989 RMK AO2 TSE10B18,M
BVU,2022-08-17 23:35,-114.8611,35.9475,671.00,100.40,57.20,24.06,220.00,17.00,0.00,29.85,M,M,M,M,M,M,M,M,M,M,M,M,M,M,M,M,M,M,99.77,KBVU 172335Z AUTO 22017KT 38/14 A2985 RMK AO2 PWINO TSNO,M
MEV,2022-08-17 23:35,-119.7500,38.9963,1441.42,86.00,46.40,25.26,290.00,12.00,0.00,30.13,M,10.00,M,FEW,M,M,M,12000.00,M,M,M,M,M,M,M,M,M,M,83.22,KMEV 172335Z AUTO 29012KT 10SM FEW120 30/08 A3013 RMK AO2,M
BAM,2022-08-17 23:35,-116.8743,40.5990,1382.36,100.40,32.00,9.21,120.00,4.00,0.00,30.03,M,10.00,M,CLR,M,M,M,M,M,M,M,M,M,M,M,M,M,M,94.21,KBAM 172335Z AUTO 12004KT 10SM CLR 38/00 A3003 RMK AO1,M
HTH,2022-08-17 23:35,-118.6315,38.5448,1282.89,95.00,39.20,14.44,350.00,9.00,0.00,30.03,M,10.00,14.00,CLR,M,M,M,M,M,M,M,M,M,M,M,M,M,M,90.57,KHTH 172335Z AUTO 35009G14KT 10SM CLR 35/04 A3003 RMK A01,M
RTS,2022-08-17 23:35,-119.8764,39.6682,1539.00,84.20,41.00,21.76,160.00,8.00,0.00,30.18,M,10.00,15.00,FEW,SCT,SCT,M,5500.00,7500.00,10000.00,M,M,M,M,M,M,M,M,81.52,KRTS 172335Z AUTO 16008G15KT 10SM FEW055 SCT075 SCT100 29/05 A3018 RMK AO2,M
TMT,2022-08-17 23:35,-117.1971,39.4643,1749.34,M,M,M,220.00,11.00,0.00,30.18,M,10.00,M,SCT,SCT,M,M,7000.00,11000.00,M,M,M,M,M,M,M,M,M,M,KTMT 172335Z AUTO 22011KT 10SM SCT070 SCT110 A3018 RMK AO2,M
CXP,2022-08-17 23:35,-119.7326,39.1923,1431.00,84.20,46.40,26.76,270.00,5.00,0.00,30.14,M,10.00,M,CLR,M,M,M,M,M,M,M,M,M,M,M,M,M,M,81.87,KCXP 172335Z AUTO 27005KT 10SM CLR 29/08 A3014 RMK AO2,M
LAS,2022-08-17 23:38,-115.1634,36.0719,663.00,103.00,55.00,20.61,20.00,5.00,0.00,29.85,M,10.00,M,SCT,SCT,M,M,12000.00,25000.00,M,M,VCTS,M,M,M,M,M,M,101.65,KLAS 172338Z 02005KT 10SM VCTS SCT120CB SCT250 39/13 A2985 RMK AO2 LTG DSNT S CB SE-SW AND DSNT ALQDS T03940128,M
LAS,2022-08-17 23:40,-115.1634,36.0719,663.00,103.00,55.00,20.61,10.00,5.00,0.00,29.85,M,10.00,M,SCT,SCT,M,M,12000.00,25000.00,M,M,TS,M,M,M,M,M,M,101.65,KLAS 172340Z 01005KT 10SM TS SCT120CB SCT250 39/13 A2985 RMK AO2 LTG DSNT S TSB39 OCNL LTGICCG SE-SW TS SE-SW MOV N CB DSNT ALQDS T03940128,M
HND,2022-08-17 23:52,-115.1344,35.9729,742.79,93.20,62.60,36.35,200.00,24.00,0.00,29.88,M,9.00,29.00,BKN,M,M,M,10000.00,M,M,M,TS,M,M,M,29.00,190.00,2022-08-17 23:48,94.20,KHND 172352Z 20024G29KT 9SM TS BKN100 34/17 A2988 RMK AO2 PK WND 19029/2348 WSHFT 2332 TSE10B18,M
LOL,2022-08-17 23:53,-118.5701,40.0684,1192.43,97.00,39.00,13.48,M,4.00,0.00,29.98,1010.40,10.00,M,CLR,M,M,M,M,M,M,M,M,M,M,M,M,M,M,92.40,KLOL 172353Z AUTO VRB04KT 10SM CLR 36/04 A2998 RMK AO2 SLP104 60000 T03610039 10372 20289 56020,M
ELY,2022-08-17 23:53,-114.8453,39.2950,1909.00,86.00,39.00,19.01,60.00,8.00,0.00,30.18,1011.70,10.00,M,SCT,M,M,M,11000.00,M,M,M,M,M,M,M,M,M,M,82.78,KELY 172353Z AUTO 06008KT 10SM SCT110 30/04 A3018 RMK AO2 SLP117 T03000039 10322 20267 56014,M
DRA,2022-08-17 23:53,-116.0278,36.6206,1009.00,99.00,50.00,19.28,120.00,3.00,0.00,29.92,1007.50,10.00,M,CLR,M,M,M,M,M,M,M,M,M,M,M,M,M,M,95.97,KDRA 172353Z AUTO 12003KT 10SM CLR 37/10 A2992 RMK AO2 SLP075 T03720100 10383 20339 57016,M
P68,2022-08-17 23:53,-116.0056,39.6014,1993.00,89.00,35.00,14.77,M,3.00,0.00,30.14,1011.60,M,M,M,M,M,M,M,M,M,M,M,M,M,M,M,M,M,85.19,KP68 172353Z AUTO VRB03KT 32/02 A3014 RMK AO1 SLP116 T03170017 10339 20294 56015,M
VGT,2022-08-17 23:53,-115.1933,36.2111,667.00,104.00,56.00,20.61,0.00,0.00,0.00,29.83,1008.60,10.00,M,BKN,M,M,M,10000.00,M,M,M,M,M,M,M,M,M,M,103.22,KVGT 172353Z 00000KT 10SM BKN100 40/13 A2983 RMK AO2 LTG DSNT S SLP086 T04000133 10400 20350 56020,M
HTH,2022-08-17 23:55,-118.6315,38.5448,1282.89,93.20,41.00,16.37,340.00,13.00,0.00,30.03,M,10.00,M,CLR,M,M,M,M,M,M,M,M,M,M,M,M,M,M,89.03,KHTH 172355Z AUTO 34013KT 10SM CLR 34/05 A3003 RMK A01,M
RNO,2022-08-17 23:55,-119.7711,39.4839,1341.00,85.00,48.00,27.79,280.00,10.00,T,30.10,1013.00,10.00,18.00,FEW,BKN,BKN,M,7000.00,11000.00,16000.00,M,M,M,M,M,28.00,170.00,2022-08-17 23:00,82.53,KRNO 172355Z COR 28010G18KT 10SM FEW070 BKN110 BKN160 29/09 A3010 RMK AO2 PK WND 17028/2300 RAE31 SLP130 SH DSNT W THRU NW P0000 60000 T02940089 10344 20294 56002,M
RTS,2022-08-17 23:55,-119.8764,39.6682,1539.00,77.00,48.20,36.22,210.00,10.00,0.00,30.18,M,9.00,22.00,FEW,FEW,SCT,M,3800.00,5500.00,7500.00,M,-DZ,M,M,M,M,M,M,77.00,KRTS 172355Z AUTO 21010G22KT 9SM -DZ FEW038 FEW055 SCT075 25/09 A3018 RMK AO2,M
MEV,2022-08-17 23:55,-119.7500,38.9963,1441.42,84.20,46.40,26.76,290.00,10.00,0.00,30.12,M,10.00,18.00,CLR,M,M,M,M,M,M,M,M,M,M,M,M,M,M,81.87,KMEV 172355Z AUTO 29010G18KT 10SM CLR 29/08 A3012 RMK AO2,M
BAM,2022-08-17 23:55,-116.8743,40.5990,1382.36,100.40,32.00,9.21,80.00,5.00,0.00,30.03,M,10.00,M,CLR,M,M,M,M,M,M,M,M,M,M,M,M,M,M,94.21,KBAM 172355Z AUTO 08005KT 10SM CLR 38/00 A3003 RMK AO1,M
TMT,2022-08-17 23:55,-117.1971,39.4643,1749.34,M,M,M,220.00,10.00,0.00,30.18,M,10.00,M,SCT,M,M,M,12000.00,M,M,M,M,M,M,M,M,M,M,M,KTMT 172355Z AUTO 22010KT 10SM SCT120 A3018 RMK AO2,M
CXP,2022-08-17 23:55,-119.7326,39.1923,1431.00,84.20,44.60,24.99,270.00,5.00,0.00,30.14,M,10.00,M,FEW,M,M,M,12000.00,M,M,M,M,M,M,M,M,M,M,81.73,KCXP 172355Z AUTO 27005KT 10SM FEW120 29/07 A3014 RMK AO2,M
BVU,2022-08-17 23:55,-114.8611,35.9475,671.00,95.00,59.00,30.26,230.00,18.00,0.00,29.86,M,M,26.00,M,M,M,M,M,M,M,M,M,M,M,M,M,M,M,94.51,KBVU 172355Z AUTO 23018G26KT 35/15 A2986 RMK AO2 PWINO TSNO,M
TPH,2022-08-17 23:56,-117.0904,38.0505,1654.00,87.00,44.00,22.34,230.00,10.00,0.00,30.11,1011.20,10.00,M,CLR,M,M,M,M,M,M,M,M,M,M,M,M,M,M,83.91,KTPH 172356Z AUTO 23010KT 10SM CLR 31/07 A3011 RMK AO2 LTG DSNT N AND NW SLP112 60000 T03060067 10333 20300 56015,M
WMC,2022-08-17 23:56,-117.8072,40.9019,1315.00,101.00,28.90,8.00,0.00,0.00,0.00,29.99,1010.10,10.00,M,CLR,M,M,M,M,M,M,M,M,M,M,M,M,M,M,94.24,KWMC 172356Z AUTO 00000KT 10SM CLR 38/M02 A2999 RMK AO2 SLP101 T03831017 10394 20328 57019 $,M
HND,2022-08-17 23:56,-115.1344,35.9729,742.79,91.00,65.00,42.21,200.00,25.00,0.00,29.88,1010.30,10.00,29.00,SCT,M,M,M,10000.00,M,M,M,TS,M,M,M,29.00,190.00,2022-08-17 23:48,93.03,KHND 172356Z 20025G29KT 10SM TS SCT100 33/18 A2988 RMK AO2 PK WND 19029/2348 WSHFT 2332 TSE10B18 SLP103 T03280183 10400 20328 56011,M
EKO,2022-08-17 23:56,-115.7860,40.8242,1367.00,90.00,32.00,12.68,60.00,8.00,0.00,30.08,1012.80,10.00,M,CLR,M,M,M,M,M,M,M,M,M,M,M,M,M,M,85.84,KEKO 172356Z AUTO 06008KT 10SM CLR 32/00 A3008 RMK AO2 SLP128 T03220000 10350 20289 58016,M
NFL,2022-08-17 23:56,-118.7010,39.4166,1199.00,91.00,45.00,20.45,260.00,17.00,0.00,30.01,1013.20,10.00,M,SCT,BKN,BKN,BKN,8000.00,12000.00,18000.00,25000.00,M,M,M,M,M,M,M,87.35,KNFL 172356Z 26017KT 10SM SCT080 BKN120 BKN180 BKN250 33/07 A3001 RMK SLP132 CB DSNT E-SE T03280072 10367 20311 56012,M
LAS,2022-08-17 23:56,-115.1634,36.0719,663.00,101.00,56.00,22.61,0.00,0.00,0.00,29.85,1007.40,10.00,M,SCT,SCT,M,M,12000.00,25000.00,M,M,TS,M,M,M,M,M,M,99.80,KLAS 172356Z 00000KT 10SM TS SCT120CB SCT250 38/13 A2985 RMK AO2 LTG DSNT S TSB39 SLP074 OCNL LTGICCG SE-SW TS SE-SW MOV N CB DSNT ALQDS T03830133 10400 20344 56020,M
LSV,2022-08-17 23:58,-115.0343,36.2362,570.00,106.50,55.60,18.93,0.00,0.00,0.00,29.80,M,10.00,M,FEW,SCT,M,M,12000.00,25000.00,M,M,M,M,M,M,M,M,M,105.82,KLSV 172358Z 00000KT 10SM FEW120 SCT250 41/13 A2980 RMK AO2A SLPNO T04140131 10427 20385 57019 FZRANO $,M
INS,2022-08-17 23:58,-115.6733,36.5872,955.00,98.60,50.50,19.89,310.00,3.00,0.00,29.92,1007.80,10.00,M,CLR,M,M,M,M,M,M,M,M,M,M,M,M,M,M,95.67,KINS 172358Z AUTO 31003KT 10SM CLR 37/10 A2992 RMK AO2 SLP078 T03700103 10371 20316 57017,M
