station,valid,lon,lat,elevation,tmpf,dwpf,relh,drct,sknt,p01i,alti,mslp,vsby,gust,skyc1,skyc2,skyc3,skyc4,skyl1,skyl2,skyl3,skyl4,wxcodes,ice_accretion_1hr,ice_accretion_3hr,ice_accretion_6hr,peak_wind_gust,peak_wind_drct,peak_wind_time,feel,metar,snowdepth
RTS,2021-09-01 00:15,-119.8764,39.6682,1539.00,87.80,1.40,3.61,230.00,18.00,0.00,29.85,M,10.00,23.00,CLR,M,M,M,M,M,M,M,M,M,M,M,M,M,M,82.67,KRTS 010015Z AUTO 23018G23KT 10SM CLR 31/M17 A2985 RMK AO2,M
MEV,2021-09-01 00:15,-119.7500,38.9963,1441.42,84.20,15.80,7.74,260.00,11.00,0.00,29.82,M,1.50,20.00,CLR,M,M,M,M,M,M,M,HZ,M,M,M,M,M,M,80.51,KMEV 010015Z AUTO 26011G20KT 1 1/2SM HZ CLR 29/M09 A2982 RMK AO2,M
CXP,2021-09-01 00:15,-119.7326,39.1923,1431.00,87.80,10.40,5.44,0.00,0.00,0.00,29.83,M,8.00,M,CLR,M,M,M,M,M,M,M,M,M,M,M,M,M,M,82.88,KCXP 010015Z AUTO 00000KT 8SM CLR 31/M12 A2983 RMK AO2,M
BAM,2021-09-01 00:15,-116.8743,40.5990,1382.36,91.40,15.80,6.16,270.00,6.00,0.00,29.76,M,7.00,M,CLR,M,M,M,M,M,M,M,M,M,M,M,M,M,M,85.68,KBAM 010015Z AUTO 27006KT 7SM CLR 33/M09 A2976 RMK AO1,M
HTH,2021-09-01 00:15,-118.6315,38.5448,1282.89,91.40,14.00,5.69,350.00,16.00,0.00,29.73,M,10.00,M,CLR,M,M,M,M,M,M,M,M,M,M,M,M,M,M,85.60,KHTH 010015Z AUTO 35016KT 10SM CLR 33/M10 A2973 RMK A01,M
TMT,2021-09-01 00:15,-117.1971,39.4643,1749.34,88.00,16.50,7.07,290.00,8.00,0.00,29.86,M,10.00,14.00,CLR,M,M,M,M,M,M,M,M,M,M,M,M,M,M,83.24,KTMT 010015Z AUTO 29008G14KT 10SM CLR 31/M09 A2986 RMK AO2 T03111086,M
ELY,2021-09-01 00:21,-114.8453,39.2950,1909.00,82.00,43.00,25.24,140.00,19.00,0.00,29.90,M,10.00,29.00,FEW,M,M,M,11000.00,M,M,M,VCTS,M,M,M,29.00,130.00,2021-09-01 00:19,80.15,KELY 010021Z AUTO 14019G29KT 10SM VCTS FEW110 28/06 A2990 RMK AO2 PK WND 13029/0019 LTG DSNT SE T02780061,M
LSV,2021-09-01 00:28,-115.0343,36.2362,570.00,91.40,59.00,33.84,230.00,12.00,0.00,29.64,1001.00,10.00,M,BKN,M,M,M,12000.00,M,M,M,-DZ,M,M,M,M,M,M,90.68,KLSV 010028Z 23012KT 10SM -DZ BKN120 33/15 A2964 RMK SLP010 $,M
LAS,2021-09-01 00:34,-115.1634,36.0719,663.00,84.00,63.00,49.32,200.00,9.00,T,29.66,M,10.00,21.00,SCT,BKN,BKN,M,12000.00,14000.00,18000.00,M,-RA,M,M,M,M,M,M,84.99,KLAS 010034Z 20009G21KT 10SM -RA SCT120 BKN140 BKN180 29/17 A2966 RMK AO2 RAB12 TSE34 TS DSIPTD CB DSNT ALQDS P0000 T02890172,M
CXP,2021-09-01 00:35,-119.7326,39.1923,1431.00,87.80,8.60,5.02,210.00,6.00,0.00,29.83,M,9.00,M,CLR,M,M,M,M,M,M,M,M,M,M,M,M,M,M,82.82,KCXP 010035Z AUTO 21006KT 9SM CLR 31/M13 A2983 RMK AO2,M
HTH,2021-09-01 00:35,-118.6315,38.5448,1282.89,91.40,15.80,6.16,350.00,15.00,0.00,29.73,M,10.00,M,CLR,M,M,M,M,M,M,M,M,M,M,M,M,M,M,85.68,KHTH 010035Z AUTO 35015KT 10SM CLR 33/M09 A2973 RMK A01,M
MEV,2021-09-01 00:35,-119.7500,38.9963,1441.42,82.40,14.00,7.58,260.00,12.00,0.00,29.82,M,1.50,M,CLR,M,M,M,M,M,M,M,HZ,M,M,M,M,M,M,79.20,KMEV 010035Z AUTO 26012KT 1 1/2SM HZ CLR 28/M10 A2982 RMK AO2,M
TMT,2021-09-01 00:35,-117.1971,39.4643,1749.34,86.00,15.80,7.31,310.00,10.00,0.00,29.86,M,10.00,15.00,CLR,M,M,M,M,M,M,M,M,M,M,M,M,M,M,81.78,KTMT 010035Z AUTO 31010G15KT 10SM CLR 30/M09 A2986 RMK AO2 T03001090,M
RTS,2021-09-01 00:35,-119.8764,39.6682,1539.00,86.00,1.40,3.82,240.00,17.00,0.00,29.84,M,10.00,23.00,CLR,M,M,M,M,M,M,M,M,M,M,M,M,M,M,81.37,KRTS 010035Z AUTO 24017G23KT 10SM CLR 30/M17 A2984 RMK AO2,M
BAM,2021-09-01 00:35,-116.8743,40.5990,1382.36,91.40,12.20,5.26,290.00,8.00,0.00,29.76,M,10.00,M,CLR,M,M,M,M,M,M,M,M,M,M,M,M,M,M,85.53,KBAM 010035Z AUTO 29008KT 10SM CLR 33/M11 A2976 RMK AO1,M
ELY,2021-09-01 00:38,-114.8453,39.2950,1909.00,80.00,43.00,26.85,150.00,12.00,0.00,29.90,M,10.00,26.00,FEW,M,M,M,11000.00,M,M,M,M,M,M,M,29.00,130.00,2021-09-01 00:19,79.04,KELY 010038Z AUTO 15012G26KT 10SM FEW110 27/06 A2990 RMK AO2 PK WND 13029/0019 T02670061,M
LOL,2021-09-01 00:53,-118.5701,40.0684,1192.43,88.00,23.00,9.33,340.00,6.00,0.00,29.72,1002.90,5.00,M,SCT,M,M,M,4100.00,M,M,M,HZ,M,M,M,M,M,M,83.58,KLOL 010053Z AUTO 34006KT 5SM HZ SCT041 31/M05 A2972 RMK AO2 SLP029 T03111050,M
VGT,2021-09-01 00:53,-115.1933,36.2111,667.00,89.00,59.00,36.37,210.00,9.00,T,29.66,1002.90,10.00,M,FEW,BKN,BKN,M,8000.00,10000.00,12000.00,M,M,M,M,M,M,M,M,88.37,KVGT 010053Z 21009KT 10SM FEW080 BKN100 BKN120 32/15 A2966 RMK AO2 RAB34E45 SLP029 P0000 T03170150,M
LSV,2021-09-01 00:53,-115.0343,36.2362,570.00,89.60,59.00,35.81,220.00,4.00,0.00,29.64,1001.10,10.00,M,BKN,M,M,M,8000.00,M,M,M,M,M,M,M,M,M,M,88.86,KLSV 010053Z 22004KT 10SM BKN080 32/15 A2964 RMK AO2A DZB28E53 SLP011 $,M
P68,2021-09-01 00:53,-116.0056,39.6014,1993.00,87.00,16.00,7.12,300.00,9.00,0.00,29.83,1001.40,M,18.00,M,M,M,M,M,M,M,M,M,M,M,M,M,M,M,82.57,KP68 010053Z AUTO 30009G18KT 31/M09 A2983 RMK AO1 SLP014 T03061089,M
ELY,2021-09-01 00:53,-114.8453,39.2950,1909.00,80.00,42.00,25.94,150.00,20.00,0.00,29.90,1002.70,10.00,26.00,FEW,M,M,M,12000.00,M,M,M,M,M,M,M,29.00,130.00,2021-09-01 00:19,78.99,KELY 010053Z AUTO 15020G26KT 10SM FEW120 27/06 A2990 RMK AO2 PK WND 13029/0019 SLP027 T02670056,M
DRA,2021-09-01 00:53,-116.0278,36.6206,1009.00,94.00,42.00,16.72,230.00,11.00,0.00,29.69,1000.10,10.00,M,CLR,M,M,M,M,M,M,M,M,M,M,M,M,M,M,89.76,KDRA 010053Z AUTO 23011KT 10SM CLR 34/06 A2969 RMK AO2 SLP001 T03440056,M
TMT,2021-09-01 00:55,-117.1971,39.4643,1749.34,82.60,14.20,7.60,310.00,13.00,0.00,29.87,M,10.00,M,CLR,M,M,M,M,M,M,M,M,M,M,M,M,M,M,79.34,KTMT 010055Z AUTO 31013KT 10SM CLR 28/M10 A2987 RMK AO2 T02811099,M
CXP,2021-09-01 00:55,-119.7326,39.1923,1431.00,86.00,8.60,5.31,M,5.00,0.00,29.83,M,10.00,11.00,CLR,M,M,M,M,M,M,M,M,M,M,M,M,M,M,81.53,KCXP 010055Z AUTO VRB05G11KT 10SM CLR 30/M13 A2983 RMK AO2,M
RTS,2021-09-01 00:55,-119.8764,39.6682,1539.00,86.00,1.40,3.82,250.00,17.00,0.00,29.85,M,10.00,26.00,CLR,M,M,M,M,M,M,M,M,M,M,M,M,M,M,81.37,KRTS 010055Z AUTO 25017G26KT 10SM CLR 30/M17 A2985 RMK AO2,M
BAM,2021-09-01 00:55,-116.8743,40.5990,1382.36,89.60,14.00,6.03,320.00,10.00,0.00,29.77,M,10.00,14.00,CLR,M,M,M,M,M,M,M,M,M,M,M,M,M,M,84.30,KBAM 010055Z AUTO 32010G14KT 10SM CLR 32/M10 A2977 RMK AO1,M
HTH,2021-09-01 00:55,-118.6315,38.5448,1282.89,89.60,19.40,7.61,350.00,15.00,0.00,29.73,M,9.00,21.00,CLR,M,M,M,M,M,M,M,M,M,M,M,M,M,M,84.54,KHTH 010055Z AUTO 35015G21KT 9SM CLR 32/M07 A2973 RMK A01,M
MEV,2021-09-01 00:55,-119.7500,38.9963,1441.42,82.40,14.00,7.58,260.00,11.00,0.00,29.83,M,1.25,19.00,CLR,M,M,M,M,M,M,M,HZ,M,M,M,M,M,M,79.20,KMEV 010055Z AUTO 26011G19KT 1 1/4SM HZ CLR 28/M10 A2983 RMK AO2,M
RNO,2021-09-01 00:55,-119.7711,39.4839,1341.00,89.00,12.90,5.83,280.00,16.00,0.00,29.77,1002.70,10.00,26.00,FEW,M,M,M,5500.00,M,M,M,M,M,M,M,26.00,290.00,2021-09-01 00:46,83.89,KRNO 010055Z 28016G26KT 10SM FEW055 32/M11 A2977 RMK AO2 PK WND 29026/0046 SLP027 FU FEW055 FU DSNT ALQDS T03171106 $,M
NFL,2021-09-01 00:56,-118.7010,39.4166,1199.00,92.00,21.90,7.88,20.00,4.00,0.00,29.71,1004.20,2.00,M,OVC,M,M,M,3500.00,M,M,M,FU,M,M,M,M,M,M,86.38,KNFL 010056Z 02004KT 2SM FU OVC035 33/M06 A2971 RMK AO2 SLP042 FU OVC035 T03331056,M
HND,2021-09-01 00:56,-115.1344,35.9729,742.79,82.00,63.00,52.62,160.00,10.00,0.01,29.69,1004.10,10.00,M,FEW,M,M,M,5500.00,M,M,M,M,M,M,M,M,M,M,83.17,KHND 010056Z 16010KT 10SM FEW055 28/17 A2969 RMK AO2 RAE45 SLP041 P0001 T02780172,M
EKO,2021-09-01 00:56,-115.7860,40.8242,1367.00,85.00,16.00,7.63,270.00,6.00,0.00,29.79,1003.60,4.00,M,BKN,M,M,M,4000.00,M,M,M,HZ,M,M,M,M,M,M,81.01,KEKO 010056Z AUTO 27006KT 4SM HZ BKN040 29/M09 A2979 RMK AO2 SLP036 T02941089,M
TPH,2021-09-01 00:56,-117.0904,38.0505,1654.00,88.00,34.00,14.64,170.00,8.00,0.00,29.83,1001.90,9.00,M,CLR,M,M,M,M,M,M,M,M,M,M,M,M,M,M,84.26,KTPH 010056Z AUTO 17008KT 9SM CLR 31/01 A2983 RMK AO2 SLP019 T03110011,M
WMC,2021-09-01 00:56,-117.8072,40.9019,1315.00,89.00,19.90,7.90,280.00,8.00,0.00,29.75,1002.80,10.00,M,CLR,M,M,M,M,M,M,M,M,M,M,M,M,M,M,84.20,KWMC 010056Z AUTO 28008KT 10SM CLR 32/M07 A2975 RMK AO2 SLP028 T03171067 $,M
LAS,2021-09-01 00:56,-115.1634,36.0719,663.00,85.00,61.00,44.65,220.00,7.00,T,29.66,1001.40,10.00,M,SCT,BKN,BKN,M,12000.00,14000.00,18000.00,M,M,M,M,M,M,M,M,85.12,KLAS 010056Z 22007KT 10SM SCT120 BKN140 BKN180 29/16 A2966 RMK AO2 RAB12E44 TSE34 SLP014 TS DSIPTD CB DSNT ALQDS P0000 T02940161,M
INS,2021-09-01 00:58,-115.6733,36.5872,955.00,90.70,52.00,26.82,110.00,20.00,0.00,29.69,1000.10,10.00,28.00,CLR,M,M,M,M,M,M,M,M,M,M,M,29.00,120.00,2021-09-01 00:45,88.06,KINS 010058Z AUTO 11020G28KT 10SM CLR 33/11 A2969 RMK AO2 PK WND 12029/45 SLP001 T03260111 $,M
LSV,2021-09-01 00:58,-115.0343,36.2362,570.00,89.60,59.00,35.81,220.00,4.00,0.00,29.64,1001.10,10.00,M,M,M,M,M,M,M,M,M,M,M,M,M,M,M,M,88.86,KLSV 010058Z AUTO 22004KT 10SM M 32/15 A2964 RMK AO2 SLP011 T03200150 $,M
MEV,2021-09-01 01:15,-119.7500,38.9963,1441.42,80.60,17.60,9.40,260.00,12.00,0.00,29.83,M,1.75,M,CLR,M,M,M,M,M,M,M,HZ,M,M,M,M,M,M,78.45,KMEV 010115Z AUTO 26012KT 1 3/4SM HZ CLR 27/M08 A2983 RMK AO2,M
CXP,2021-09-01 01:15,-119.7326,39.1923,1431.00,86.00,10.40,5.76,0.00,0.00,0.00,29.84,M,10.00,M,CLR,M,M,M,M,M,M,M,M,M,M,M,M,M,M,81.58,KCXP 010115Z AUTO 00000KT 10SM CLR 30/M12 A2984 RMK AO2,M
RTS,2021-09-01 01:15,-119.8764,39.6682,1539.00,84.20,3.20,4.40,240.00,15.00,0.00,29.85,M,10.00,23.00,CLR,M,M,M,M,M,M,M,M,M,M,M,M,M,M,80.12,KRTS 010115Z AUTO 24015G23KT 10SM CLR 29/M16 A2985 RMK AO2,M
BAM,2021-09-01 01:15,-116.8743,40.5990,1382.36,87.80,21.20,8.70,320.00,6.00,0.00,29.77,M,7.00,M,CLR,M,M,M,M,M,M,M,M,M,M,M,M,M,M,83.33,KBAM 010115Z AUTO 32006KT 7SM CLR 31/M06 A2977 RMK AO1,M
HTH,2021-09-01 01:15,-118.6315,38.5448,1282.89,89.60,15.80,6.52,360.00,13.00,0.00,29.74,M,9.00,18.00,CLR,M,M,M,M,M,M,M,M,M,M,M,M,M,M,84.37,KHTH 010115Z AUTO 36013G18KT 9SM CLR 32/M09 A2974 RMK A01,M
TMT,2021-09-01 01:15,-117.1971,39.4643,1749.34,80.80,13.50,7.82,340.00,8.00,0.00,29.87,M,10.00,M,CLR,M,M,M,M,M,M,M,M,M,M,M,M,M,M,78.42,KTMT 010115Z AUTO 34008KT 10SM CLR 27/M10 A2987 RMK AO2 T02711103,M
HND,2021-09-01 01:16,-115.1344,35.9729,742.79,82.40,62.60,51.21,220.00,14.00,0.00,29.69,M,10.00,M,CLR,M,M,M,M,M,M,M,M,M,M,M,M,M,M,83.41,KHND 010116Z 22014KT 10SM CLR 28/17 A2969 RMK AO2 WSHFT 0056,M
NFL,2021-09-01 01:20,-118.7010,39.4166,1199.00,92.00,14.00,5.61,250.00,8.00,0.00,29.71,M,4.00,16.00,BKN,M,M,M,3500.00,M,M,M,FU,M,M,M,M,M,M,85.96,KNFL 010120Z 25008G16KT 4SM FU BKN035 33/M10 A2971 RMK AO2 FU BKN035 T03331100,M
HTH,2021-09-01 01:35,-118.6315,38.5448,1282.89,87.80,14.00,6.38,360.00,13.00,0.00,29.74,M,5.00,M,CLR,M,M,M,M,M,M,M,HZ,M,M,M,M,M,M,83.00,KHTH 010135Z AUTO 36013KT 5SM HZ CLR 31/M10 A2974 RMK A01,M
BAM,2021-09-01 01:35,-116.8743,40.5990,1382.36,86.00,21.20,9.21,330.00,6.00,0.00,29.77,M,7.00,M,CLR,M,M,M,M,M,M,M,M,M,M,M,M,M,M,82.04,KBAM 010135Z AUTO 33006KT 7SM CLR 30/M06 A2977 RMK AO1,M
MEV,2021-09-01 01:35,-119.7500,38.9963,1441.42,80.60,15.80,8.70,260.00,12.00,0.00,29.83,M,1.50,M,CLR,M,M,M,M,M,M,M,HZ,M,M,M,M,M,M,78.35,KMEV 010135Z AUTO 26012KT 1 1/2SM HZ CLR 27/M09 A2983 RMK AO2,M
RTS,2021-09-01 01:35,-119.8764,39.6682,1539.00,82.40,3.20,4.67,240.00,17.00,0.00,29.85,M,10.00,23.00,CLR,M,M,M,M,M,M,M,M,M,M,M,M,M,M,78.86,KRTS 010135Z AUTO 24017G23KT 10SM CLR 28/M16 A2985 RMK AO2,M
CXP,2021-09-01 01:35,-119.7326,39.1923,1431.00,84.20,10.40,6.10,0.00,0.00,0.00,29.84,M,9.00,M,CLR,M,M,M,M,M,M,M,M,M,M,M,M,M,M,80.31,KCXP 010135Z AUTO 00000KT 9SM CLR 29/M12 A2984 RMK AO2,M
TMT,2021-09-01 01:35,-117.1971,39.4643,1749.34,77.00,16.30,10.01,80.00,7.00,0.00,29.87,M,10.00,M,CLR,M,M,M,M,M,M,M,M,M,M,M,M,M,M,77.00,KTMT 010135Z AUTO 08007KT 10SM CLR 25/M09 A2987 RMK AO2 T02501087,M
DRA,2021-09-01 01:53,-116.0278,36.6206,1009.00,91.00,43.00,18.94,220.00,15.00,0.00,29.70,1000.30,10.00,20.00,CLR,M,M,M,M,M,M,M,M,M,M,M,M,M,M,87.18,KDRA 010153Z AUTO 22015G20KT 10SM CLR 33/06 A2970 RMK AO2 SLP003 T03280061,M
ELY,2021-09-01 01:53,-114.8453,39.2950,1909.00,77.00,41.00,27.53,170.00,13.00,0.00,29.91,1002.10,10.00,M,FEW,M,M,M,12000.00,M,M,M,M,M,M,M,M,M,M,77.00,KELY 010153Z AUTO 17013KT 10SM FEW120 25/05 A2991 RMK AO2 LTG DSNT N AND NE SLP021 T02500050,M
VGT,2021-09-01 01:53,-115.1933,36.2111,667.00,92.00,56.00,29.80,200.00,6.00,0.00,29.64,1002.40,10.00,M,CLR,M,M,M,M,M,M,M,M,M,M,M,M,M,M,90.17,KVGT 010153Z 20006KT 10SM CLR 33/13 A2964 RMK AO2 SLP024 T03330133,M
LOL,2021-09-01 01:53,-118.5701,40.0684,1192.43,88.00,16.00,6.92,330.00,9.00,0.00,29.73,1003.30,5.00,M,CLR,M,M,M,M,M,M,M,HZ,M,M,M,M,M,M,83.22,KLOL 010153Z AUTO 33009KT 5SM HZ CLR 31/M09 A2973 RMK AO2 SLP033 T03111089,M
P68,2021-09-01 01:53,-116.0056,39.6014,1993.00,82.00,12.00,7.04,330.00,12.00,0.00,29.85,1002.80,M,17.00,M,M,M,M,M,M,M,M,M,M,M,M,M,M,M,78.85,KP68 010153Z AUTO 33012G17KT 28/M11 A2985 RMK AO1 SLP028 T02781111,M
HTH,2021-09-01 01:55,-118.6315,38.5448,1282.89,87.80,12.20,5.89,10.00,11.00,0.00,29.74,M,5.00,M,CLR,M,M,M,M,M,M,M,HZ,M,M,M,M,M,M,82.93,KHTH 010155Z AUTO 01011KT 5SM HZ CLR 31/M11 A2974 RMK A01,M
BAM,2021-09-01 01:55,-116.8743,40.5990,1382.36,82.40,21.20,10.34,330.00,10.00,0.00,29.77,M,7.00,M,CLR,M,M,M,M,M,M,M,M,M,M,M,M,M,M,79.55,KBAM 010155Z AUTO 33010KT 7SM CLR 28/M06 A2977 RMK AO1,M
MEV,2021-09-01 01:55,-119.7500,38.9963,1441.42,80.60,12.20,7.43,260.00,9.00,0.00,29.83,M,1.50,17.00,CLR,M,M,M,M,M,M,M,HZ,M,M,M,M,M,M,78.16,KMEV 010155Z AUTO 26009G17KT 1 1/2SM HZ CLR 27/M11 A2983 RMK AO2,M
RTS,2021-09-01 01:55,-119.8764,39.6682,1539.00,80.60,3.20,4.95,240.00,17.00,0.00,29.85,M,10.00,25.00,CLR,M,M,M,M,M,M,M,M,M,M,M,M,M,M,77.81,KRTS 010155Z AUTO 24017G25KT 10SM CLR 27/M16 A2985 RMK AO2,M
CXP,2021-09-01 01:55,-119.7326,39.1923,1431.00,84.20,12.20,6.61,220.00,6.00,0.00,29.84,M,9.00,M,CLR,M,M,M,M,M,M,M,M,M,M,M,M,M,M,80.37,KCXP 010155Z AUTO 22006KT 9SM CLR 29/M11 A2984 RMK AO2,M
TMT,2021-09-01 01:55,-117.1971,39.4643,1749.34,73.80,16.70,11.33,80.00,6.00,0.00,29.89,M,10.00,M,CLR,M,M,M,M,M,M,M,M,M,M,M,M,M,M,73.80,KTMT 010155Z AUTO 08006KT 10SM CLR 23/M08 A2989 RMK AO2 T02321085,M
RNO,2021-09-01 01:55,-119.7711,39.4839,1341.00,85.00,14.00,7.00,270.00,9.00,0.00,29.78,1003.30,10.00,22.00,FEW,M,M,M,5000.00,M,M,M,M,M,M,M,27.00,300.00,2021-09-01 01:03,80.93,KRNO 010155Z 27009G22KT 10SM FEW050 29/M10 A2978 RMK AO2 PK WND 30027/0103 SLP033 FU FEW050 FU DSNT ALQDS T02941100 $,M
LAS,2021-09-01 01:56,-115.1634,36.0719,663.00,88.00,56.00,33.68,200.00,5.00,0.00,29.67,1001.80,10.00,M,SCT,BKN,BKN,M,12000.00,14000.00,18000.00,M,M,M,M,M,M,M,M,86.42,KLAS 010156Z 20005KT 10SM SCT120 BKN140 BKN180 31/13 A2967 RMK AO2 SLP018 CB DSNT NE-SE-S T03110133,M
HND,2021-09-01 01:56,-115.1344,35.9729,742.79,81.00,64.00,56.30,190.00,11.00,0.00,29.70,1004.40,10.00,M,CLR,M,M,M,M,M,M,M,M,M,M,M,M,M,M,82.54,KHND 010156Z 19011KT 10SM CLR 27/18 A2970 RMK AO2 WSHFT 0056 SLP044 T02720178,M
EKO,2021-09-01 01:56,-115.7860,40.8242,1367.00,76.00,21.90,13.19,260.00,3.00,0.00,29.79,1004.70,4.00,M,SCT,M,M,M,4400.00,M,M,M,HZ,M,M,M,M,M,M,75.90,KEKO 010156Z AUTO 26003KT 4SM HZ SCT044 24/M06 A2979 RMK AO2 SLP047 T02441056,M
TPH,2021-09-01 01:56,-117.0904,38.0505,1654.00,86.00,36.00,16.89,190.00,13.00,0.00,29.82,1002.10,10.00,19.00,CLR,M,M,M,M,M,M,M,M,M,M,M,M,M,M,82.70,KTPH 010156Z AUTO 19013G19KT 10SM CLR 30/02 A2982 RMK AO2 SLP021 T03000022,M
NFL,2021-09-01 01:56,-118.7010,39.4166,1199.00,86.00,15.10,7.09,260.00,10.00,0.00,29.72,1004.40,6.00,M,BKN,M,M,M,4000.00,M,M,M,FU,M,M,M,M,M,M,81.75,KNFL 010156Z 26010KT 6SM FU BKN040 30/M09 A2972 RMK AO2 SLP044 FU BKN040 T03001094,M
WMC,2021-09-01 01:56,-117.8072,40.9019,1315.00,82.00,21.00,10.39,270.00,3.00,0.00,29.75,1003.50,10.00,M,CLR,M,M,M,M,M,M,M,M,M,M,M,M,M,M,79.28,KWMC 010156Z AUTO 27003KT 10SM CLR 28/M06 A2975 RMK AO2 SLP035 T02781061 $,M
LSV,2021-09-01 01:58,-115.0343,36.2362,570.00,90.00,57.00,32.91,230.00,3.00,0.00,29.64,1001.10,10.00,M,M,M,M,M,M,M,M,M,M,M,M,M,M,M,M,88.61,KLSV 010158Z AUTO 23003KT 10SM M 32/14 A2964 RMK AO2 SLP011 T03220139 $,M
INS,2021-09-01 01:58,-115.6733,36.5872,955.00,87.00,53.40,31.84,110.00,15.00,0.00,29.70,1000.60,10.00,22.00,CLR,M,M,M,M,M,M,M,M,M,M,M,29.00,110.00,2021-09-01 01:11,84.90,KINS 010158Z AUTO 11015G22KT 10SM CLR 31/12 A2970 RMK AO2 PK WND 11029/11 SLP006 T03050119 $,M
BAM,2021-09-01 02:15,-116.8743,40.5990,1382.36,80.60,21.20,10.97,320.00,10.00,0.00,29.78,M,7.00,M,CLR,M,M,M,M,M,M,M,M,M,M,M,M,M,M,78.68,KBAM 010215Z AUTO 32010KT 7SM CLR 27/M06 A2978 RMK AO1,M
CXP,2021-09-01 02:15,-119.7326,39.1923,1431.00,80.60,12.20,7.43,220.00,7.00,0.00,29.84,M,9.00,M,CLR,M,M,M,M,M,M,M,M,M,M,M,M,M,M,78.16,KCXP 010215Z AUTO 22007KT 9SM CLR 27/M11 A2984 RMK AO2,M
RTS,2021-09-01 02:15,-119.8764,39.6682,1539.00,80.60,5.00,5.37,250.00,20.00,0.00,29.85,M,10.00,26.00,CLR,M,M,M,M,M,M,M,M,M,M,M,M,M,M,77.87,KRTS 010215Z AUTO 25020G26KT 10SM CLR 27/M15 A2985 RMK AO2,M
MEV,2021-09-01 02:15,-119.7500,38.9963,1441.42,80.60,14.00,8.04,250.00,10.00,0.00,29.84,M,1.50,18.00,CLR,M,M,M,M,M,M,M,HZ,M,M,M,M,M,M,78.25,KMEV 010215Z AUTO 25010G18KT 1 1/2SM HZ CLR 27/M10 A2984 RMK AO2,M
HTH,2021-09-01 02:15,-118.6315,38.5448,1282.89,86.00,10.40,5.76,350.00,10.00,0.00,29.75,M,6.00,16.00,CLR,M,M,M,M,M,M,M,HZ,M,M,M,M,M,M,81.58,KHTH 010215Z AUTO 35010G16KT 6SM HZ CLR 30/M12 A2975 RMK A01,M
TMT,2021-09-01 02:15,-117.1971,39.4643,1749.34,74.80,15.40,10.36,60.00,3.00,0.00,29.89,M,10.00,M,CLR,M,M,M,M,M,M,M,M,M,M,M,M,M,M,74.80,KTMT 010215Z AUTO 06003KT 10SM CLR 24/M09 A2989 RMK AO2 T02381092,M
LOL,2021-09-01 02:25,-118.5701,40.0684,1192.43,82.00,14.00,7.68,330.00,10.00,0.00,29.73,M,2.50,M,BKN,M,M,M,2300.00,M,M,M,HZ,M,M,M,M,M,M,78.93,KLOL 010225Z AUTO 33010KT 2 1/2SM HZ BKN023 28/M10 A2973 RMK AO2 T02781100,M
TMT,2021-09-01 02:35,-117.1971,39.4643,1749.34,75.40,14.50,9.76,50.00,4.00,0.00,29.89,M,10.00,M,CLR,M,M,M,M,M,M,M,M,M,M,M,M,M,M,75.40,KTMT 010235Z AUTO 05004KT 10SM CLR 24/M10 A2989 RMK AO2 T02411097,M
BAM,2021-09-01 02:35,-116.8743,40.5990,1382.36,78.80,21.20,11.64,320.00,11.00,0.00,29.78,M,10.00,M,CLR,M,M,M,M,M,M,M,M,M,M,M,M,M,M,78.80,KBAM 010235Z AUTO 32011KT 10SM CLR 26/M06 A2978 RMK AO1,M
CXP,2021-09-01 02:35,-119.7326,39.1923,1431.00,80.60,12.20,7.43,200.00,10.00,0.00,29.84,M,10.00,M,CLR,M,M,M,M,M,M,M,M,M,M,M,M,M,M,78.16,KCXP 010235Z AUTO 20010KT 10SM CLR 27/M11 A2984 RMK AO2,M
HTH,2021-09-01 02:35,-118.6315,38.5448,1282.89,86.00,12.20,6.24,350.00,7.00,0.00,29.76,M,4.00,M,CLR,M,M,M,M,M,M,M,HZ,M,M,M,M,M,M,81.64,KHTH 010235Z AUTO 35007KT 4SM HZ CLR 30/M11 A2976 RMK A01,M
MEV,2021-09-01 02:35,-119.7500,38.9963,1441.42,78.80,15.80,9.23,260.00,11.00,0.00,29.84,M,1.50,M,CLR,M,M,M,M,M,M,M,HZ,M,M,M,M,M,M,78.80,KMEV 010235Z AUTO 26011KT 1 1/2SM HZ CLR 26/M09 A2984 RMK AO2,M
RTS,2021-09-01 02:35,-119.8764,39.6682,1539.00,78.80,6.80,6.19,260.00,15.00,0.00,29.86,M,10.00,22.00,CLR,M,M,M,M,M,M,M,M,M,M,M,M,M,M,78.80,KRTS 010235Z AUTO 26015G22KT 10SM CLR 26/M14 A2986 RMK AO2,M
LOL,2021-09-01 02:48,-118.5701,40.0684,1192.43,84.20,12.20,6.61,30.00,5.00,0.00,29.74,M,3.00,M,OVC,M,M,M,2400.00,M,M,M,HZ,M,M,M,M,M,M,80.37,KLOL 010248Z AUTO 03005KT 3SM HZ OVC024 29/M11 A2974 RMK AO2,M
VGT,2021-09-01 02:53,-115.1933,36.2111,667.00,90.00,58.00,33.99,120.00,9.00,0.00,29.66,1003.00,10.00,M,CLR,M,M,M,M,M,M,M,M,M,M,M,M,M,M,88.89,KVGT 010253Z 12009KT 10SM CLR 32/14 A2966 RMK AO2 SLP030 60000 T03220144 53001,M
LOL,2021-09-01 02:53,-118.5701,40.0684,1192.43,84.00,12.90,6.86,10.00,6.00,0.00,29.74,1003.70,3.00,M,OVC,M,M,M,2400.00,M,M,M,HZ,M,M,M,M,M,M,80.26,KLOL 010253Z AUTO 01006KT 3SM HZ OVC024 29/M11 A2974 RMK AO2 SLP037 T02891106 51006,M
DRA,2021-09-01 02:53,-116.0278,36.6206,1009.00,88.00,37.00,16.49,220.00,14.00,0.00,29.72,1001.20,10.00,20.00,CLR,M,M,M,M,M,M,M,M,M,M,M,M,M,M,84.32,KDRA 010253Z AUTO 22014G20KT 10SM CLR 31/03 A2972 RMK AO2 SLP012 T03110028 53006,M
ELY,2021-09-01 02:53,-114.8453,39.2950,1909.00,75.00,41.00,29.43,150.00,7.00,0.00,29.92,1002.40,10.00,M,FEW,M,M,M,11000.00,M,M,M,M,M,M,M,M,M,M,75.00,KELY 010253Z AUTO 15007KT 10SM FEW110 24/05 A2992 RMK AO2 LTG DSNT NE SLP024 T02390050 53007,M
P68,2021-09-01 02:53,-116.0056,39.6014,1993.00,70.00,23.00,16.86,120.00,3.00,0.00,29.89,1004.70,M,M,M,M,M,M,M,M,M,M,M,M,M,M,M,M,M,70.00,KP68 010253Z AUTO 12003KT 21/M05 A2989 RMK AO1 SLP047 T02111050 53015,M
RTS,2021-09-01 02:55,-119.8764,39.6682,1539.00,77.00,5.00,6.05,280.00,12.00,0.00,29.87,M,10.00,M,CLR,M,M,M,M,M,M,M,M,M,M,M,M,M,M,77.00,KRTS 010255Z AUTO 28012KT 10SM CLR 25/M15 A2987 RMK AO2,M
MEV,2021-09-01 02:55,-119.7500,38.9963,1441.42,77.00,17.60,10.59,280.00,7.00,0.00,29.85,M,2.00,M,BKN,BKN,M,M,2500.00,3800.00,M,M,HZ,M,M,M,M,M,M,77.00,KMEV 010255Z AUTO 28007KT 2SM HZ BKN025 BKN038 25/M08 A2985 RMK AO2,M
TMT,2021-09-01 02:55,-117.1971,39.4643,1749.34,61.70,14.00,15.29,110.00,5.00,0.00,29.89,M,10.00,M,CLR,M,M,M,M,M,M,M,M,M,M,M,M,M,M,61.70,KTMT 010255Z AUTO 11005KT 10SM CLR 17/M10 A2989 RMK AO2 T01651100,M
BAM,2021-09-01 02:55,-116.8743,40.5990,1382.36,77.00,21.20,12.35,320.00,9.00,0.00,29.79,M,10.00,M,CLR,M,M,M,M,M,M,M,M,M,M,M,M,M,M,77.00,KBAM 010255Z AUTO 32009KT 10SM CLR 25/M06 A2979 RMK AO1,M
HTH,2021-09-01 02:55,-118.6315,38.5448,1282.89,84.20,15.80,7.74,300.00,5.00,0.00,29.77,M,5.00,12.00,FEW,SCT,M,M,3400.00,4000.00,M,M,HZ,M,M,M,M,M,M,80.51,KHTH 010255Z AUTO 30005G12KT 5SM HZ FEW034 SCT040 29/M09 A2977 RMK A01,M
BVU,2021-09-01 02:55,-114.8611,35.9475,671.00,82.40,60.80,48.05,210.00,5.00,0.00,29.71,M,10.00,M,FEW,SCT,BKN,M,4200.00,5000.00,6000.00,M,M,M,M,M,M,M,M,82.90,KBVU 010255Z AUTO 21005KT 10SM FEW042 SCT050 BKN060 28/16 A2971 RMK AO2,M
CXP,2021-09-01 02:55,-119.7326,39.1923,1431.00,80.60,12.20,7.43,M,6.00,0.00,29.85,M,10.00,13.00,SCT,M,M,M,12000.00,M,M,M,M,M,M,M,M,M,M,78.16,KCXP 010255Z AUTO VRB06G13KT 10SM SCT120 27/M11 A2985 RMK AO2,M
RNO,2021-09-01 02:55,-119.7711,39.4839,1341.00,81.00,15.10,8.33,280.00,12.00,0.00,29.80,1004.00,10.00,M,FEW,M,M,M,5000.00,M,M,M,M,M,M,M,M,M,M,78.32,KRNO 010255Z 28012KT 10SM FEW050 27/M09 A2980 RMK AO2 SLP040 FU FEW050 FU ALF VC E FU DSNT NW THRU E THRU SW T02721094 53012 $,M
LAS,2021-09-01 02:56,-115.1634,36.0719,663.00,87.00,56.00,34.66,180.00,8.00,0.00,29.68,1002.30,10.00,17.00,SCT,BKN,BKN,M,12000.00,14000.00,18000.00,M,M,M,M,M,M,M,M,85.61,KLAS 010256Z 18008G17KT 10SM SCT120 BKN140 BKN180 31/13 A2968 RMK AO2 SLP023 60000 T03060133 53001,M
NFL,2021-09-01 02:56,-118.7010,39.4166,1199.00,82.00,14.00,7.68,290.00,11.00,0.00,29.74,1005.20,7.00,M,BKN,M,M,M,4000.00,M,M,M,M,M,M,M,M,M,M,78.93,KNFL 010256Z 29011KT 7SM BKN040 28/M10 A2974 RMK AO2 SLP052 FU BKN040 FU VC ALQDS T02781100 53009,M
HND,2021-09-01 02:56,-115.1344,35.9729,742.79,83.00,59.00,44.34,200.00,11.00,0.00,29.72,1005.00,10.00,M,CLR,M,M,M,M,M,M,M,M,M,M,M,M,M,M,82.86,KHND 010256Z 20011KT 10SM CLR 28/15 A2972 RMK AO2 SLP050 60001 T02830150 53002,M
EKO,2021-09-01 02:56,-115.7860,40.8242,1367.00,71.00,19.90,14.24,10.00,3.00,0.00,29.82,1005.30,4.00,M,OVC,M,M,M,4500.00,M,M,M,HZ,M,M,M,M,M,M,71.10,KEKO 010256Z AUTO 01003KT 4SM HZ OVC045 22/M07 A2982 RMK AO2 SLP053 T02171067 53003,M
WMC,2021-09-01 02:56,-117.8072,40.9019,1315.00,67.00,28.00,23.09,160.00,5.00,0.00,29.75,1004.10,10.00,M,CLR,M,M,M,M,M,M,M,M,M,M,M,M,M,M,66.90,KWMC 010256Z AUTO 16005KT 10SM CLR 19/M02 A2975 RMK AO2 SLP041 T01941022 55000 $,M
TPH,2021-09-01 02:56,-117.0904,38.0505,1654.00,80.00,38.00,22.03,210.00,9.00,0.00,29.84,1002.80,10.00,M,CLR,M,M,M,M,M,M,M,M,M,M,M,M,M,M,78.85,KTPH 010256Z AUTO 21009KT 10SM CLR 27/03 A2984 RMK AO2 SLP028 T02670033 53000,M
INS,2021-09-01 02:58,-115.6733,36.5872,955.00,85.00,54.30,34.86,90.00,14.00,0.00,29.73,1001.60,10.00,M,BKN,BKN,M,M,14000.00,16000.00,M,M,M,M,M,M,M,M,M,83.58,KINS 010258Z AUTO 09014KT 10SM BKN140 BKN160 30/12 A2973 RMK AO2 SLP016 T02950124 53012 $,M
LSV,2021-09-01 02:58,-115.0343,36.2362,570.00,89.60,55.60,31.68,120.00,1.00,0.00,29.68,M,10.00,M,BKN,BKN,M,M,15000.00,18000.00,M,M,M,M,M,M,M,M,M,87.83,KLSV 010258Z 12001KT 10SM BKN150 BKN180 32/13 A2968 RMK AO2A SLPNO WND DATA ESTMD ALSTG/SLP ESTMD T03200131 $,M
BAM,2021-09-01 03:15,-116.8743,40.5990,1382.36,73.40,21.20,13.93,310.00,9.00,0.00,29.79,M,10.00,M,CLR,M,M,M,M,M,M,M,M,M,M,M,M,M,M,73.40,KBAM 010315Z AUTO 31009KT 10SM CLR 23/M06 A2979 RMK AO1,M
HTH,2021-09-01 03:15,-118.6315,38.5448,1282.89,80.60,23.00,11.83,330.00,9.00,0.00,29.77,M,5.00,M,FEW,SCT,BKN,M,200.00,3900.00,5500.00,M,HZ,M,M,M,M,M,M,78.80,KHTH 010315Z AUTO 33009KT 5SM HZ FEW002 SCT039 BKN055 27/M05 A2977 RMK A01,M
BVU,2021-09-01 03:15,-114.8611,35.9475,671.00,82.40,59.00,45.07,M,4.00,0.00,29.72,M,10.00,M,SCT,BKN,OVC,M,5000.00,6500.00,7500.00,M,M,M,M,M,M,M,M,82.46,KBVU 010315Z AUTO VRB04KT 10SM SCT050 BKN065 OVC075 28/15 A2972 RMK AO2,M
CXP,2021-09-01 03:15,-119.7326,39.1923,1431.00,78.80,14.00,8.53,260.00,4.00,0.00,29.86,M,10.00,M,OVC,M,M,M,11000.00,M,M,M,M,M,M,M,M,M,M,78.80,KCXP 010315Z AUTO 26004KT 10SM OVC110 26/M10 A2986 RMK AO2,M
RTS,2021-09-01 03:15,-119.8764,39.6682,1539.00,73.40,6.80,7.41,310.00,7.00,0.00,29.88,M,10.00,18.00,CLR,M,M,M,M,M,M,M,M,M,M,M,M,M,M,73.40,KRTS 010315Z AUTO 31007G18KT 10SM CLR 23/M14 A2988 RMK AO2,M
MEV,2021-09-01 03:15,-119.7500,38.9963,1441.42,75.20,19.40,12.14,260.00,7.00,0.00,29.86,M,2.00,M,OVC,M,M,M,2400.00,M,M,M,HZ,M,M,M,M,M,M,75.20,KMEV 010315Z AUTO 26007KT 2SM HZ OVC024 24/M07 A2986 RMK AO2,M
TMT,2021-09-01 03:15,-117.1971,39.4643,1749.34,57.40,14.50,18.22,130.00,7.00,0.00,29.90,M,10.00,M,CLR,M,M,M,M,M,M,M,M,M,M,M,M,M,M,57.40,KTMT 010315Z AUTO 13007KT 10SM CLR 14/M10 A2990 RMK AO2 T01411097,M
HTH,2021-09-01 03:35,-118.6315,38.5448,1282.89,80.60,23.00,11.83,340.00,8.00,0.00,29.78,M,5.00,M,FEW,FEW,SCT,M,300.00,1800.00,2700.00,M,HZ,M,M,M,M,M,M,78.80,KHTH 010335Z AUTO 34008KT 5SM HZ FEW003 FEW018 SCT027 27/M05 A2978 RMK A01,M
BVU,2021-09-01 03:35,-114.8611,35.9475,671.00,82.40,60.80,48.05,240.00,4.00,0.00,29.73,M,10.00,M,FEW,SCT,BKN,M,4800.00,6000.00,9000.00,M,M,M,M,M,M,M,M,82.90,KBVU 010335Z AUTO 24004KT 10SM FEW048 SCT060 BKN090 28/16 A2973 RMK AO2,M
MEV,2021-09-01 03:35,-119.7500,38.9963,1441.42,73.40,21.20,13.93,260.00,6.00,0.00,29.86,M,1.75,13.00,OVC,M,M,M,2300.00,M,M,M,HZ,M,M,M,M,M,M,73.40,KMEV 010335Z AUTO 26006G13KT 1 3/4SM HZ OVC023 23/M06 A2986 RMK AO2,M
BAM,2021-09-01 03:35,-116.8743,40.5990,1382.36,73.40,19.40,12.90,310.00,8.00,0.00,29.80,M,10.00,M,CLR,M,M,M,M,M,M,M,M,M,M,M,M,M,M,73.40,KBAM 010335Z AUTO 31008KT 10SM CLR 23/M07 A2980 RMK AO1,M
TMT,2021-09-01 03:35,-117.1971,39.4643,1749.34,58.30,13.30,16.73,0.00,0.00,0.00,29.90,M,10.00,M,CLR,M,M,M,M,M,M,M,M,M,M,M,M,M,M,58.30,KTMT 010335Z AUTO 00000KT 10SM CLR 15/M10 A2990 RMK AO2 T01461104,M
RTS,2021-09-01 03:35,-119.8764,39.6682,1539.00,71.60,6.80,7.87,310.00,9.00,0.00,29.89,M,10.00,M,CLR,M,M,M,M,M,M,M,M,M,M,M,M,M,M,71.60,KRTS 010335Z AUTO 31009KT 10SM CLR 22/M14 A2989 RMK AO2,M
CXP,2021-09-01 03:35,-119.7326,39.1923,1431.00,77.00,15.80,9.79,220.00,7.00,0.00,29.87,M,10.00,M,OVC,M,M,M,11000.00,M,M,M,M,M,M,M,M,M,M,77.00,KCXP 010335Z AUTO 22007KT 10SM OVC110 25/M09 A2987 RMK AO2,M
LOL,2021-09-01 03:41,-118.5701,40.0684,1192.43,85.00,10.90,6.10,M,3.00,0.00,29.76,M,3.00,M,OVC,M,M,M,3100.00,M,M,M,HZ,M,M,M,M,M,M,80.82,KLOL 010341Z AUTO VRB03KT 3SM HZ OVC031 29/M12 A2976 RMK AO2 T02941117 TSNO,M
LOL,2021-09-01 03:53,-118.5701,40.0684,1192.43,83.00,10.90,6.51,0.00,0.00,0.00,29.76,1003.90,3.00,M,OVC,M,M,M,3500.00,M,M,M,HZ,M,M,M,M,M,M,79.42,KLOL 010353Z AUTO 00000KT 3SM HZ OVC035 28/M12 A2976 RMK AO2 SLP039 T02831117,M
VGT,2021-09-01 03:53,-115.1933,36.2111,667.00,87.00,60.00,40.31,130.00,10.00,T,29.69,1004.10,10.00,M,FEW,SCT,BKN,M,5000.00,9000.00,12000.00,M,-RA,M,M,M,M,M,M,86.83,KVGT 010353Z AUTO 13010KT 10SM -RA FEW050 SCT090 BKN120 31/16 A2969 RMK AO2 RAB48 SLP041 P0000 T03060156,M
DRA,2021-09-01 03:53,-116.0278,36.6206,1009.00,87.00,38.00,17.58,210.00,8.00,0.00,29.75,1001.70,10.00,M,CLR,M,M,M,M,M,M,M,M,M,M,M,M,M,M,83.61,KDRA 010353Z AUTO 21008KT 10SM CLR 31/03 A2975 RMK AO2 SLP017 T03060033,M
P68,2021-09-01 03:53,-116.0056,39.6014,1993.00,63.00,15.10,15.32,220.00,5.00,0.00,29.91,1005.40,M,M,M,M,M,M,M,M,M,M,M,M,M,M,M,M,M,63.00,KP68 010353Z AUTO 22005KT 17/M09 A2991 RMK AO1 SLP054 T01721094,M
ELY,2021-09-01 03:53,-114.8453,39.2950,1909.00,72.00,42.00,33.97,200.00,9.00,0.00,29.94,1002.50,10.00,M,CLR,M,M,M,M,M,M,M,M,M,M,M,M,M,M,72.00,KELY 010353Z AUTO 20009KT 10SM CLR 22/06 A2994 RMK AO2 SLP025 T02220056,M
LSV,2021-09-01 03:54,-115.0343,36.2362,570.00,88.70,52.30,28.88,120.00,10.00,0.00,29.71,M,10.00,18.00,SCT,BKN,M,M,10000.00,12000.00,M,M,-DZ,M,M,M,M,M,M,86.27,KLSV 010354Z 12010G18KT 10SM -DZ SCT100 BKN120 32/11 A2971 RMK AO2A SLPNO WND DATA ESTMD ALSTG/SLP ESTMD T03150113 $,M
CXP,2021-09-01 03:55,-119.7326,39.1923,1431.00,77.00,17.60,10.59,0.00,0.00,0.00,29.87,M,10.00,M,OVC,M,M,M,11000.00,M,M,M,M,M,M,M,M,M,M,77.00,KCXP 010355Z AUTO 00000KT 10SM OVC110 25/M08 A2987 RMK AO2,M
RTS,2021-09-01 03:55,-119.8764,39.6682,1539.00,69.80,8.60,9.08,320.00,6.00,0.00,29.90,M,10.00,M,CLR,M,M,M,M,M,M,M,M,M,M,M,M,M,M,69.80,KRTS 010355Z AUTO 32006KT 10SM CLR 21/M13 A2990 RMK AO2,M
MEV,2021-09-01 03:55,-119.7500,38.9963,1441.42,71.60,21.20,14.80,140.00,4.00,0.00,29.87,M,1.50,M,OVC,M,M,M,2300.00,M,M,M,HZ,M,M,M,M,M,M,71.60,KMEV 010355Z AUTO 14004KT 1 1/2SM HZ OVC023 22/M06 A2987 RMK AO2,M
TMT,2021-09-01 03:55,-117.1971,39.4643,1749.34,60.60,12.70,15.01,0.00,0.00,0.00,29.92,M,10.00,M,CLR,M,M,M,M,M,M,M,M,M,M,M,M,M,M,60.60,KTMT 010355Z AUTO 00000KT 10SM CLR 16/M11 A2992 RMK AO2 T01591107,M
BAM,2021-09-01 03:55,-116.8743,40.5990,1382.36,71.60,19.40,13.71,140.00,3.00,0.00,29.80,M,10.00,M,CLR,M,M,M,M,M,M,M,M,M,M,M,M,M,M,71.60,KBAM 010355Z AUTO 14003KT 10SM CLR 22/M07 A2980 RMK AO1,M
HTH,2021-09-01 03:55,-118.6315,38.5448,1282.89,80.60,12.20,7.43,360.00,8.00,0.00,29.79,M,6.00,M,FEW,FEW,FEW,M,300.00,2400.00,5500.00,M,HZ,M,M,M,M,M,M,78.16,KHTH 010355Z AUTO 36008KT 6SM HZ FEW003 FEW024 FEW055 27/M11 A2979 RMK A01,M
BVU,2021-09-01 03:55,-114.8611,35.9475,671.00,82.40,59.00,45.07,170.00,6.00,0.00,29.74,M,10.00,M,FEW,FEW,BKN,M,5500.00,7500.00,10000.00,M,M,M,M,M,M,M,M,82.46,KBVU 010355Z AUTO 17006KT 10SM FEW055 FEW075 BKN100 28/15 A2974 RMK AO2,M
RNO,2021-09-01 03:55,-119.7711,39.4839,1341.00,79.00,14.00,8.48,M,3.00,0.00,29.83,1004.80,10.00,M,CLR,M,M,M,M,M,M,M,M,M,M,M,M,M,M,79.00,KRNO 010355Z VRB03KT 10SM CLR 26/M10 A2983 RMK AO2 SLP048 FU ALF VC E T02611100 $,M
TPH,2021-09-01 03:56,-117.0904,38.0505,1654.00,79.00,36.00,21.19,220.00,11.00,0.00,29.87,1003.00,10.00,M,CLR,M,M,M,M,M,M,M,M,M,M,M,M,M,M,79.00,KTPH 010356Z AUTO 22011KT 10SM CLR 26/02 A2987 RMK AO2 LTG DSNT NW SLP030 T02610022,M
HND,2021-09-01 03:56,-115.1344,35.9729,742.79,82.00,59.00,45.66,160.00,14.00,0.00,29.74,1005.60,10.00,M,FEW,BKN,OVC,M,7000.00,9500.00,12000.00,M,M,M,M,M,26.00,160.00,2021-09-01 03:28,82.15,KHND 010356Z AUTO 16014KT 10SM FEW070 BKN095 OVC120 28/15 A2974 RMK AO2 PK WND 16026/0328 SLP056 T02780150,M
NFL,2021-09-01 03:56,-118.7010,39.4166,1199.00,76.00,14.00,9.39,290.00,5.00,0.00,29.77,1006.10,8.00,M,BKN,M,M,M,4000.00,M,M,M,M,M,M,M,M,M,M,75.90,KNFL 010356Z 29005KT 8SM BKN040 24/M10 A2977 RMK AO2 SLP061 FU BKN040 FU VC ALQDS T02441100,M
EKO,2021-09-01 03:56,-115.7860,40.8242,1367.00,67.00,19.90,16.45,40.00,7.00,0.00,29.84,1005.90,5.00,M,OVC,M,M,M,4400.00,M,M,M,HZ,M,M,M,M,M,M,66.90,KEKO 010356Z AUTO 04007KT 5SM HZ OVC044 19/M07 A2984 RMK AO2 SLP059 T01941067,M
LAS,2021-09-01 03:56,-115.1634,36.0719,663.00,85.00,57.00,38.69,160.00,10.00,0.00,29.71,1003.40,10.00,18.00,SCT,BKN,BKN,M,12000.00,14000.00,18000.00,M,M,M,M,M,M,M,M,83.99,KLAS 010356Z 16010G18KT 10SM SCT120 BKN140 BKN180 29/14 A2971 RMK AO2 SLP034 T02940139,M
WMC,2021-09-01 03:56,-117.8072,40.9019,1315.00,72.00,25.00,17.13,320.00,9.00,0.00,29.78,1003.90,7.00,M,CLR,M,M,M,M,M,M,M,M,M,M,M,M,M,M,72.00,KWMC 010356Z AUTO 32009KT 7SM CLR 22/M04 A2978 RMK AO2 SLP039 T02221039 $,M
INS,2021-09-01 03:58,-115.6733,36.5872,955.00,85.00,52.50,32.84,90.00,15.00,0.00,29.75,1002.30,10.00,M,BKN,M,M,M,15000.00,M,M,M,M,M,M,M,M,M,M,83.11,KINS 010358Z AUTO 09015KT 10SM BKN150 29/11 A2975 RMK AO2 SLP023 T02940114 $,M
LSV,2021-09-01 03:58,-115.0343,36.2362,570.00,89.60,51.80,27.56,150.00,10.00,0.00,29.71,M,10.00,18.00,BKN,BKN,M,M,10000.00,12000.00,M,M,-DZ,M,M,M,M,M,M,87.00,KLSV 010358Z 15010G18KT 10SM -DZ BKN100 BKN120 32/11 A2971 RMK AO2A DZB54 SLPNO WND DATA ESTMD ALSTG/SLP ESTMD $,M
BAM,2021-09-01 04:15,-116.8743,40.5990,1382.36,69.80,19.40,14.57,180.00,3.00,0.00,29.81,M,10.00,M,CLR,M,M,M,M,M,M,M,M,M,M,M,M,M,M,69.80,KBAM 010415Z AUTO 18003KT 10SM CLR 21/M07 A2981 RMK AO1,M
HTH,2021-09-01 04:15,-118.6315,38.5448,1282.89,78.80,12.20,7.88,0.00,0.00,0.00,29.80,M,5.00,M,FEW,FEW,SCT,M,300.00,2200.00,6000.00,M,HZ,M,M,M,M,M,M,78.80,KHTH 010415Z AUTO 00000KT 5SM HZ FEW003 FEW022 SCT060 26/M11 A2980 RMK A01,M
BVU,2021-09-01 04:15,-114.8611,35.9475,671.00,80.60,60.80,50.95,190.00,7.00,0.00,29.74,M,10.00,M,FEW,SCT,M,M,9500.00,12000.00,M,M,M,M,M,M,M,M,M,81.46,KBVU 010415Z AUTO 19007KT 10SM FEW095 SCT120 27/16 A2974 RMK AO2,M
RTS,2021-09-01 04:15,-119.8764,39.6682,1539.00,69.80,8.60,9.08,290.00,8.00,0.00,29.91,M,10.00,M,CLR,M,M,M,M,M,M,M,M,M,M,M,M,M,M,69.80,KRTS 010415Z AUTO 29008KT 10SM CLR 21/M13 A2991 RMK AO2,M
CXP,2021-09-01 04:15,-119.7326,39.1923,1431.00,73.40,17.60,11.94,M,3.00,0.00,29.88,M,10.00,M,FEW,FEW,OVC,M,2800.00,4000.00,11000.00,M,M,M,M,M,M,M,M,73.40,KCXP 010415Z AUTO VRB03KT 10SM FEW028 FEW040 OVC110 23/M08 A2988 RMK AO2,M
MEV,2021-09-01 04:15,-119.7500,38.9963,1441.42,62.60,24.80,23.50,110.00,7.00,0.00,29.88,M,1.75,M,FEW,BKN,OVC,M,300.00,2200.00,3700.00,M,HZ,M,M,M,M,M,M,62.60,KMEV 010415Z AUTO 11007KT 1 3/4SM HZ FEW003 BKN022 OVC037 17/M04 A2988 RMK AO2,M
TMT,2021-09-01 04:15,-117.1971,39.4643,1749.34,58.00,11.80,15.89,0.00,0.00,0.00,29.92,M,10.00,M,CLR,M,M,M,M,M,M,M,M,M,M,M,M,M,M,57.90,KTMT 010415Z AUTO 00000KT 10SM CLR 14/M11 A2992 RMK AO2 T01441112,M
LSV,2021-09-01 04:16,-115.0343,36.2362,570.00,87.00,55.20,34.01,130.00,10.00,0.00,29.71,M,10.00,17.00,BKN,BKN,M,M,10000.00,12000.00,M,M,M,M,M,M,M,M,M,85.27,KLSV 010416Z 13010G17KT 10SM BKN100 BKN120 31/13 A2971 RMK AO2A DZB0354E0416 SLPNO WND DATA ESTMD ALSTG/SLP ESTMD T03050129 $,M
TPH,2021-09-01 04:19,-117.0904,38.0505,1654.00,79.00,34.00,19.57,210.00,9.00,0.00,29.89,M,10.00,M,CLR,M,M,M,M,M,M,M,VCTS,M,M,M,M,M,M,79.00,KTPH 010419Z AUTO 21009KT 10SM VCTS CLR 26/01 A2989 RMK AO2 T02610011,M
MEV,2021-09-01 04:35,-119.7500,38.9963,1441.42,62.60,23.00,21.79,80.00,9.00,0.00,29.88,M,2.00,M,FEW,BKN,OVC,M,300.00,2200.00,4600.00,M,HZ,M,M,M,M,M,M,62.60,KMEV 010435Z AUTO 08009KT 2SM HZ FEW003 BKN022 OVC046 17/M05 A2988 RMK AO2,M
RTS,2021-09-01 04:35,-119.8764,39.6682,1539.00,69.80,8.60,9.08,310.00,5.00,0.00,29.91,M,10.00,M,CLR,M,M,M,M,M,M,M,M,M,M,M,M,M,M,69.80,KRTS 010435Z AUTO 31005KT 10SM CLR 21/M13 A2991 RMK AO2,M
CXP,2021-09-01 04:35,-119.7326,39.1923,1431.00,71.60,15.80,11.74,10.00,7.00,0.00,29.88,M,10.00,M,BKN,BKN,OVC,M,2900.00,3900.00,11000.00,M,M,M,M,M,M,M,M,71.60,KCXP 010435Z AUTO 01007KT 330V030 10SM BKN029 BKN039 OVC110 22/M09 A2988 RMK AO2,M
BVU,2021-09-01 04:35,-114.8611,35.9475,671.00,80.60,60.80,50.95,180.00,4.00,0.00,29.75,M,10.00,M,FEW,BKN,M,M,9000.00,11000.00,M,M,M,M,M,M,M,M,M,81.46,KBVU 010435Z AUTO 18004KT 10SM FEW090 BKN110 27/16 A2975 RMK AO2,M
HTH,2021-09-01 04:35,-118.6315,38.5448,1282.89,80.60,14.00,8.04,310.00,5.00,0.00,29.81,M,7.00,M,FEW,BKN,M,M,300.00,6000.00,M,M,M,M,M,M,M,M,M,78.25,KHTH 010435Z AUTO 31005KT 7SM FEW003 BKN060 27/M10 A2981 RMK A01,M
TMT,2021-09-01 04:35,-117.1971,39.4643,1749.34,57.70,10.20,14.90,0.00,0.00,0.00,29.92,M,10.00,M,CLR,M,M,M,M,M,M,M,M,M,M,M,M,M,M,57.70,KTMT 010435Z AUTO 00000KT 10SM CLR 14/M12 A2992 RMK AO2 T01431121,M
BAM,2021-09-01 04:35,-116.8743,40.5990,1382.36,62.60,17.60,17.32,170.00,3.00,0.00,29.81,M,10.00,M,CLR,M,M,M,M,M,M,M,M,M,M,M,M,M,M,62.60,KBAM 010435Z AUTO 17003KT 10SM CLR 17/M08 A2981 RMK AO1,M
TPH,2021-09-01 04:37,-117.0904,38.0505,1654.00,77.00,36.00,22.64,110.00,10.00,0.00,29.89,M,10.00,M,BKN,M,M,M,12000.00,M,M,M,M,M,M,M,M,M,M,77.00,KTPH 010437Z AUTO 11010KT 10SM BKN120 25/02 A2989 RMK AO2 T02500022,M
DRA,2021-09-01 04:53,-116.0278,36.6206,1009.00,85.00,48.00,27.79,120.00,7.00,0.00,29.75,1001.70,10.00,M,CLR,M,M,M,M,M,M,M,M,M,M,M,M,M,M,82.53,KDRA 010453Z AUTO 12007KT 10SM CLR 29/09 A2975 RMK AO2 SLP017 T02940089,M
LOL,2021-09-01 04:53,-118.5701,40.0684,1192.43,74.00,12.00,9.19,320.00,9.00,0.00,29.78,1004.50,4.00,M,OVC,M,M,M,6500.00,M,M,M,HZ,M,M,M,M,M,M,73.90,KLOL 010453Z AUTO 32009KT 4SM HZ OVC065 23/M11 A2978 RMK AO2 SLP045 T02331111,M
P68,2021-09-01 04:53,-116.0056,39.6014,1993.00,56.00,15.10,19.74,130.00,5.00,0.00,29.92,1005.40,M,M,M,M,M,M,M,M,M,M,M,M,M,M,M,M,M,55.90,KP68 010453Z AUTO 13005KT 13/M09 A2992 RMK AO1 SLP054 T01331094,M
ELY,2021-09-01 04:53,-114.8453,39.2950,1909.00,65.00,42.00,43.36,180.00,9.00,0.00,29.95,1003.20,10.00,M,CLR,M,M,M,M,M,M,M,M,M,M,M,M,M,M,64.90,KELY 010453Z AUTO 18009KT 10SM CLR 18/06 A2995 RMK AO2 LTG DSNT NE SLP032 T01830056,M
VGT,2021-09-01 04:53,-115.1933,36.2111,667.00,88.00,57.00,35.05,170.00,7.00,T,29.69,1003.90,10.00,M,SCT,M,M,M,11000.00,M,M,M,M,M,M,M,M,M,M,86.71,KVGT 010453Z AUTO 17007KT 10SM SCT110 31/14 A2969 RMK AO2 RAE27 SLP039 P0000 T03110139,M
MEV,2021-09-01 04:55,-119.7500,38.9963,1441.42,57.20,24.80,28.48,80.00,9.00,0.00,29.88,M,2.50,M,OVC,M,M,M,2100.00,M,M,M,HZ,M,M,M,M,M,M,57.20,KMEV 010455Z AUTO 08009KT 2 1/2SM HZ OVC021 14/M04 A2988 RMK AO2,M
HTH,2021-09-01 04:55,-118.6315,38.5448,1282.89,78.80,17.60,9.98,170.00,4.00,0.00,29.81,M,8.00,M,BKN,M,M,M,6000.00,M,M,M,M,M,M,M,M,M,M,78.80,KHTH 010455Z AUTO 17004KT 8SM BKN060 26/M08 A2981 RMK A01,M
TMT,2021-09-01 04:55,-117.1971,39.4643,1749.34,53.80,10.60,17.48,0.00,0.00,0.00,29.92,M,10.00,M,CLR,M,M,M,M,M,M,M,M,M,M,M,M,M,M,53.80,KTMT 010455Z AUTO 00000KT 10SM CLR 12/M12 A2992 RMK AO2 T01211119,M
RNO,2021-09-01 04:55,-119.7711,39.4839,1341.00,71.00,19.90,14.24,0.00,0.00,0.00,29.85,1005.50,10.00,M,CLR,M,M,M,M,M,M,M,M,M,M,M,M,M,M,71.10,KRNO 010455Z 00000KT 10SM CLR 22/M07 A2985 RMK AO2 SLP055 FU ALF OHD THRU E T02171067 $,M
BAM,2021-09-01 04:55,-116.8743,40.5990,1382.36,60.80,15.80,17.07,140.00,7.00,0.00,29.81,M,10.00,M,CLR,M,M,M,M,M,M,M,M,M,M,M,M,M,M,60.80,KBAM 010455Z AUTO 14007KT 10SM CLR 16/M09 A2981 RMK AO1,M
RTS,2021-09-01 04:55,-119.8764,39.6682,1539.00,69.80,8.60,9.08,310.00,4.00,0.00,29.92,M,10.00,M,CLR,M,M,M,M,M,M,M,M,M,M,M,M,M,M,69.80,KRTS 010455Z AUTO 31004KT 10SM CLR 21/M13 A2992 RMK AO2,M
CXP,2021-09-01 04:55,-119.7326,39.1923,1431.00,71.60,17.60,12.69,360.00,4.00,0.00,29.88,M,10.00,M,OVC,M,M,M,2900.00,M,M,M,M,M,M,M,M,M,M,71.60,KCXP 010455Z AUTO 36004KT 10SM OVC029 22/M08 A2988 RMK AO2,M
BVU,2021-09-01 04:55,-114.8611,35.9475,671.00,80.60,60.80,50.95,160.00,7.00,0.00,29.74,M,10.00,M,SCT,M,M,M,11000.00,M,M,M,M,M,M,M,M,M,M,81.46,KBVU 010455Z AUTO 16007KT 10SM SCT110 27/16 A2974 RMK AO2,M
EKO,2021-09-01 04:56,-115.7860,40.8242,1367.00,58.00,24.10,26.98,140.00,4.00,0.00,29.84,1006.30,5.00,M,CLR,M,M,M,M,M,M,M,HZ,M,M,M,M,M,M,57.90,KEKO 010456Z AUTO 14004KT 5SM HZ CLR 14/M04 A2984 RMK AO2 SLP063 T01441044,M
LAS,2021-09-01 04:56,-115.1634,36.0719,663.00,86.00,57.00,37.35,190.00,9.00,T,29.71,1003.10,10.00,M,FEW,FEW,OVC,M,7500.00,9000.00,12000.00,M,-RA,M,M,M,M,M,M,84.92,KLAS 010456Z 19009KT 10SM -RA FEW075 FEW090 OVC120 30/14 A2971 RMK AO2 RAB47 SLP031 P0000 T03000139,M
TPH,2021-09-01 04:56,-117.0904,38.0505,1654.00,77.00,37.00,23.55,170.00,7.00,0.00,29.91,1004.20,10.00,M,OVC,M,M,M,11000.00,M,M,M,M,M,M,M,M,M,M,77.00,KTPH 010456Z AUTO 17007KT 10SM OVC110 25/03 A2991 RMK AO2 SLP042 T02500028,M
WMC,2021-09-01 04:56,-117.8072,40.9019,1315.00,66.00,27.00,22.86,110.00,4.00,0.00,29.80,1004.60,6.00,M,BKN,BKN,OVC,M,6000.00,7000.00,12000.00,M,HZ,M,M,M,M,M,M,66.00,KWMC 010456Z AUTO 11004KT 6SM HZ BKN060 BKN070 OVC120 19/M03 A2980 RMK AO2 SLP046 T01891028 $,M
NFL,2021-09-01 04:56,-118.7010,39.4166,1199.00,71.00,17.10,12.63,290.00,8.00,0.00,29.79,1006.60,10.00,M,BKN,M,M,M,4000.00,M,M,M,M,M,M,M,M,M,M,71.10,KNFL 010456Z 29008KT 10SM BKN040 22/M08 A2979 RMK AO2 SLP066 FU BKN040 FU VC ALQDS T02171083,M
HND,2021-09-01 04:56,-115.1344,35.9729,742.79,82.00,61.00,49.03,170.00,14.00,0.00,29.75,1005.80,10.00,21.00,BKN,M,M,M,12000.00,M,M,M,M,M,M,M,M,M,M,82.62,KHND 010456Z AUTO 17014G21KT 10SM BKN120 28/16 A2975 RMK AO2 SLP058 T02780161,M
INS,2021-09-01 04:58,-115.6733,36.5872,955.00,84.00,52.50,33.81,100.00,13.00,0.00,29.75,1002.00,10.00,M,OVC,M,M,M,14000.00,M,M,M,M,M,M,M,M,M,M,82.43,KINS 010458Z AUTO 10013KT 10SM OVC140 29/11 A2975 RMK AO2 SLP020 T02890114 $,M
LSV,2021-09-01 04:58,-115.0343,36.2362,570.00,88.00,56.00,33.93,140.00,6.00,0.00,29.68,1002.30,10.00,M,M,M,M,M,M,M,M,M,M,M,M,M,M,M,M,86.47,KLSV 010458Z AUTO 14006KT 10SM M 31/13 A2968 RMK AO2 SLP023 T03110134 $,M
TMT,2021-09-01 05:15,-117.1971,39.4643,1749.34,50.50,10.20,19.39,240.00,3.00,0.00,29.93,M,10.00,M,CLR,M,M,M,M,M,M,M,M,M,M,M,M,M,M,50.50,KTMT 010515Z AUTO 24003KT 10SM CLR 10/M12 A2993 RMK AO2 T01031121,M
RTS,2021-09-01 05:15,-119.8764,39.6682,1539.00,68.00,8.60,9.65,260.00,7.00,0.00,29.92,M,10.00,M,CLR,M,M,M,M,M,M,M,M,M,M,M,M,M,M,68.00,KRTS 010515Z AUTO 26007KT 10SM CLR 20/M13 A2992 RMK AO2,M
BVU,2021-09-01 05:15,-114.8611,35.9475,671.00,80.60,62.60,54.30,150.00,9.00,0.00,29.74,M,10.00,M,CLR,M,M,M,M,M,M,M,M,M,M,M,M,M,M,81.84,KBVU 010515Z AUTO 15009KT 10SM CLR 27/17 A2974 RMK AO2,M
BAM,2021-09-01 05:15,-116.8743,40.5990,1382.36,59.00,15.80,18.20,160.00,6.00,0.00,29.81,M,10.00,M,CLR,M,M,M,M,M,M,M,M,M,M,M,M,M,M,59.00,KBAM 010515Z AUTO 16006KT 10SM CLR 15/M09 A2981 RMK AO1,M
CXP,2021-09-01 05:15,-119.7326,39.1923,1431.00,69.80,17.60,13.49,0.00,0.00,0.00,29.88,M,10.00,M,OVC,M,M,M,2900.00,M,M,M,M,M,M,M,M,M,M,69.80,KCXP 010515Z AUTO 00000KT 10SM OVC029 21/M08 A2988 RMK AO2,M
HTH,2021-09-01 05:15,-118.6315,38.5448,1282.89,75.20,17.60,11.24,130.00,3.00,0.00,29.81,M,7.00,M,FEW,M,M,M,5500.00,M,M,M,M,M,M,M,M,M,M,75.20,KHTH 010515Z AUTO 13003KT 7SM FEW055 24/M08 A2981 RMK A01,M
MEV,2021-09-01 05:15,-119.7500,38.9963,1441.42,57.20,21.20,24.49,80.00,8.00,0.00,29.88,M,4.00,M,OVC,M,M,M,2000.00,M,M,M,HZ,M,M,M,M,M,M,57.20,KMEV 010515Z AUTO 08008KT 4SM HZ OVC020 14/M06 A2988 RMK AO2,M
TMT,2021-09-01 05:35,-117.1971,39.4643,1749.34,49.60,9.90,19.78,220.00,6.00,0.00,29.92,M,7.00,M,CLR,M,M,M,M,M,M,M,M,M,M,M,M,M,M,46.73,KTMT 010535Z AUTO 22006KT 7SM CLR 10/M12 A2992 RMK AO2 T00981123,M
BVU,2021-09-01 05:35,-114.8611,35.9475,671.00,80.60,64.40,57.84,160.00,9.00,0.00,29.74,M,10.00,17.00,FEW,FEW,SCT,M,7000.00,8000.00,9500.00,M,M,M,M,M,M,M,M,82.27,KBVU 010535Z AUTO 16009G17KT 10SM FEW070 FEW080 SCT095 27/18 A2974 RMK AO2,M
HTH,2021-09-01 05:35,-118.6315,38.5448,1282.89,75.20,15.80,10.40,150.00,5.00,0.00,29.81,M,10.00,M,M,M,M,M,M,M,M,M,M,M,M,M,M,M,M,75.20,KHTH 010535Z AUTO 15005KT 10SM 24/M09 A2981 RMK A01,M
MEV,2021-09-01 05:35,-119.7500,38.9963,1441.42,55.40,23.00,28.20,90.00,7.00,0.00,29.87,M,5.00,M,OVC,M,M,M,2100.00,M,M,M,HZ,M,M,M,M,M,M,55.40,KMEV 010535Z AUTO 09007KT 5SM HZ OVC021 13/M05 A2987 RMK AO2,M
RTS,2021-09-01 05:35,-119.8764,39.6682,1539.00,64.40,8.60,10.94,300.00,5.00,0.00,29.91,M,10.00,M,CLR,M,M,M,M,M,M,M,M,M,M,M,M,M,M,64.40,KRTS 010535Z AUTO 30005KT 10SM CLR 18/M13 A2991 RMK AO2,M
CXP,2021-09-01 05:35,-119.7326,39.1923,1431.00,68.00,19.40,15.50,180.00,5.00,0.00,29.88,M,6.00,M,OVC,M,M,M,2800.00,M,M,M,HZ,M,M,M,M,M,M,68.00,KCXP 010535Z AUTO 18005KT 6SM HZ OVC028 20/M07 A2988 RMK AO2,M
BAM,2021-09-01 05:35,-116.8743,40.5990,1382.36,55.40,14.00,19.16,140.00,7.00,0.00,29.81,M,10.00,M,CLR,M,M,M,M,M,M,M,M,M,M,M,M,M,M,55.40,KBAM 010535Z AUTO 14007KT 10SM CLR 13/M10 A2981 RMK AO1,M
LOL,2021-09-01 05:53,-118.5701,40.0684,1192.43,74.00,18.00,11.95,30.00,6.00,0.00,29.79,1004.20,5.00,M,OVC,M,M,M,7000.00,M,M,M,HZ,M,M,M,M,M,M,73.90,KLOL 010553Z AUTO 03006KT 5SM HZ OVC070 23/M08 A2979 RMK AO2 SLP042 T02331078 10333 20233 51014,M
DRA,2021-09-01 05:53,-116.0278,36.6206,1009.00,83.00,53.00,35.81,120.00,7.00,0.00,29.76,1001.90,10.00,M,CLR,M,M,M,M,M,M,M,M,M,M,M,M,M,M,81.73,KDRA 010553Z AUTO 12007KT 10SM CLR 28/12 A2976 RMK AO2 SLP019 T02830117 10356 20283 51011,M
P68,2021-09-01 05:53,-116.0056,39.6014,1993.00,59.00,10.90,14.68,190.00,6.00,0.00,29.91,1003.90,M,M,M,M,M,M,M,M,M,M,M,M,M,M,M,M,M,59.00,KP68 010553Z AUTO 19006KT 15/M12 A2991 RMK AO1 SLP039 T01501117 10317 20133 50005,M
ELY,2021-09-01 05:53,-114.8453,39.2950,1909.00,68.00,42.00,38.94,180.00,7.00,0.00,29.96,1002.70,10.00,M,SCT,M,M,M,11000.00,M,M,M,M,M,M,M,M,M,M,68.00,KELY 010553Z AUTO 18007KT 10SM SCT110 20/06 A2996 RMK AO2 LTG DSNT NE SLP027 T02000056 10283 20178 51009,M
VGT,2021-09-01 05:53,-115.1933,36.2111,667.00,85.00,61.00,44.65,60.00,7.00,0.00,29.70,1004.30,10.00,M,FEW,M,M,M,11000.00,M,M,M,M,M,M,M,M,M,M,85.12,KVGT 010553Z AUTO 06007KT 10SM FEW110 29/16 A2970 RMK AO2 SLP043 60000 T02940161 10333 20294 51012,M
CXP,2021-09-01 05:55,-119.7326,39.1923,1431.00,66.20,23.00,19.22,80.00,4.00,0.00,29.88,M,5.00,M,BKN,M,M,M,2700.00,M,M,M,HZ,M,M,M,M,M,M,66.20,KCXP 010555Z AUTO 08004KT 5SM HZ BKN027 19/M05 A2988 RMK AO2,M
BVU,2021-09-01 05:55,-114.8611,35.9475,671.00,80.60,64.40,57.84,200.00,5.00,0.00,29.75,M,10.00,11.00,FEW,SCT,BKN,M,4700.00,7000.00,9000.00,M,M,M,M,M,M,M,M,82.27,KBVU 010555Z AUTO 20005G11KT 10SM FEW047 SCT070 BKN090 27/18 A2975 RMK AO2,M
RNO,2021-09-01 05:55,-119.7711,39.4839,1341.00,68.00,21.90,17.24,0.00,0.00,0.00,29.84,1005.20,10.00,M,CLR,M,M,M,M,M,M,M,M,M,M,M,M,M,M,68.00,KRNO 010555Z 00000KT 10SM CLR 20/M06 A2984 RMK AO2 SLP052 FU ALF ALQDS T02001056 10328 20200 50013 $,M
RTS,2021-09-01 05:55,-119.8764,39.6682,1539.00,68.00,10.40,10.47,330.00,6.00,0.00,29.91,M,10.00,M,CLR,M,M,M,M,M,M,M,M,M,M,M,M,M,M,68.00,KRTS 010555Z AUTO 33006KT 10SM CLR 20/M12 A2991 RMK AO2,M
TMT,2021-09-01 05:55,-117.1971,39.4643,1749.34,45.30,9.00,22.34,240.00,5.00,0.00,29.93,M,10.00,M,CLR,M,M,M,M,M,M,M,M,M,M,M,M,M,M,42.19,KTMT 010555Z AUTO 24005KT 10SM CLR 07/M13 A2993 RMK AO2 T00741128 10313 20072,M
BAM,2021-09-01 05:55,-116.8743,40.5990,1382.36,55.40,15.80,20.73,190.00,4.00,0.00,29.81,M,10.00,M,CLR,M,M,M,M,M,M,M,M,M,M,M,M,M,M,55.40,KBAM 010555Z AUTO 19004KT 10SM CLR 13/M09 A2981 RMK AO1,M
HTH,2021-09-01 05:55,-118.6315,38.5448,1282.89,73.40,14.00,10.21,130.00,3.00,0.00,29.81,M,10.00,M,CLR,M,M,M,M,M,M,M,M,M,M,M,M,M,M,73.40,KHTH 010555Z AUTO 13003KT 10SM CLR 23/M10 A2981 RMK A01,M
MEV,2021-09-01 05:55,-119.7500,38.9963,1441.42,55.40,23.00,28.20,90.00,10.00,0.00,29.87,M,8.00,M,OVC,M,M,M,2000.00,M,M,M,M,M,M,M,M,M,M,55.40,KMEV 010555Z AUTO 09010KT 8SM OVC020 13/M05 A2987 RMK AO2,M
LAS,2021-09-01 05:56,-115.1634,36.0719,663.00,84.00,59.00,42.80,140.00,3.00,T,29.71,1003.20,10.00,M,SCT,BKN,OVC,M,9500.00,11000.00,15000.00,M,M,M,M,M,M,M,M,83.75,KLAS 010556Z 14003KT 10SM SCT095 BKN110 OVC150 29/15 A2971 RMK AO2 RAE22 SLP032 VCSH TOPS OF MTNS OBSCURED DSNT SW-NW P0000 60000 T02890150 10311 20283 51009,M
NFL,2021-09-01 05:56,-118.7010,39.4166,1199.00,72.00,17.10,12.25,20.00,4.00,0.00,29.79,1006.80,9.00,M,BKN,M,M,M,4000.00,M,M,M,M,M,M,M,M,M,M,72.00,KNFL 010556Z 02004KT 9SM BKN040 22/M08 A2979 RMK AO2 SLP068 FU BKN040 FU VC ALQDS T02221083 10344 20194 51015,M
TPH,2021-09-01 05:56,-117.0904,38.0505,1654.00,74.00,46.00,36.98,120.00,11.00,0.00,29.90,1004.00,10.00,M,FEW,SCT,M,M,5500.00,11000.00,M,M,M,M,M,M,M,M,M,73.90,KTPH 010556Z AUTO 12011KT 10SM FEW055 SCT110 23/08 A2990 RMK AO2 SLP040 T02330078 10317 20233 50018,M
EKO,2021-09-01 05:56,-115.7860,40.8242,1367.00,58.00,21.00,23.67,20.00,3.00,0.00,29.85,1006.00,4.00,M,CLR,M,M,M,M,M,M,M,HZ,M,M,M,M,M,M,57.90,KEKO 010556Z AUTO 02003KT 4SM HZ CLR 14/M06 A2985 RMK AO2 SLP060 T01441061 10306 20122 51011,M
HND,2021-09-01 05:56,-115.1344,35.9729,742.79,79.00,63.00,58.04,180.00,13.00,T,29.74,1005.50,10.00,M,OVC,M,M,M,11000.00,M,M,M,M,M,M,M,M,M,M,79.00,KHND 010556Z AUTO 18013KT 10SM OVC110 26/17 A2974 RMK AO2 RAB31E47 SLP055 P0000 60001 T02610172 10283 20261 50005,M
WMC,2021-09-01 05:56,-117.8072,40.9019,1315.00,69.00,27.00,20.54,330.00,9.00,0.00,29.82,1004.50,6.00,M,SCT,BKN,M,M,5500.00,11000.00,M,M,HZ,M,M,M,M,M,M,69.10,KWMC 010556Z AUTO 33009KT 300V010 6SM HZ SCT055 BKN110 21/M03 A2982 RMK AO2 SLP045 T02061028 10328 20167 51019 $,M
INS,2021-09-01 05:58,-115.6733,36.5872,955.00,81.70,52.20,36.02,100.00,16.00,0.00,29.76,1002.30,10.00,M,BKN,M,M,M,16000.00,M,M,M,M,M,M,M,M,M,M,80.80,KINS 010558Z AUTO 10016KT 10SM BKN160 28/11 A2976 RMK AO2 SLP023 T02760112 10343 20276 50010 $,M
LSV,2021-09-01 05:58,-115.0343,36.2362,570.00,85.60,62.00,45.07,140.00,12.00,0.00,29.69,1002.70,10.00,M,CLR,M,M,M,M,M,M,M,M,M,M,M,M,M,M,86.07,KLSV 010558Z AUTO 14012KT 10SM CLR 30/17 A2969 RMK AO2 SLP027 T02980166 10341 20298 $,M
HTH,2021-09-01 06:10,-118.6315,38.5448,1282.89,73.40,15.80,11.05,210.00,4.00,0.00,29.81,M,10.00,M,SCT,SCT,M,M,2700.00,3400.00,M,M,M,M,M,M,M,M,M,73.40,KHTH 010610Z AUTO 21004KT 10SM SCT027 SCT034 23/M09 A2981 RMK A01,M
MEV,2021-09-01 06:15,-119.7500,38.9963,1441.42,57.20,21.20,24.49,100.00,10.00,0.00,29.87,M,10.00,M,OVC,M,M,M,2000.00,M,M,M,M,M,M,M,M,M,M,57.20,KMEV 010615Z AUTO 10010KT 10SM OVC020 14/M06 A2987 RMK AO2,M
CXP,2021-09-01 06:15,-119.7326,39.1923,1431.00,64.40,21.20,18.96,70.00,3.00,0.00,29.88,M,4.00,M,BKN,M,M,M,2800.00,M,M,M,HZ,M,M,M,M,M,M,64.40,KCXP 010615Z AUTO 07003KT 4SM HZ BKN028 18/M06 A2988 RMK AO2,M
BVU,2021-09-01 06:15,-114.8611,35.9475,671.00,78.80,64.40,61.36,170.00,8.00,0.00,29.75,M,10.00,M,FEW,SCT,BKN,M,5500.00,7500.00,11000.00,M,M,M,M,M,M,M,M,78.80,KBVU 010615Z AUTO 17008KT 10SM FEW055 SCT075 BKN110 26/18 A2975 RMK AO2,M
BAM,2021-09-01 06:15,-116.8743,40.5990,1382.36,55.40,17.60,22.41,340.00,5.00,0.00,29.82,M,10.00,M,CLR,M,M,M,M,M,M,M,M,M,M,M,M,M,M,55.40,KBAM 010615Z AUTO 34005KT 10SM CLR 13/M08 A2982 RMK AO1,M
RTS,2021-09-01 06:15,-119.8764,39.6682,1539.00,69.80,10.40,9.84,M,4.00,0.00,29.90,M,10.00,14.00,CLR,M,M,M,M,M,M,M,M,M,M,M,M,M,M,69.80,KRTS 010615Z AUTO VRB04G14KT 10SM CLR 21/M12 A2990 RMK AO2,M
TMT,2021-09-01 06:15,-117.1971,39.4643,1749.34,47.30,10.90,22.54,250.00,7.00,0.00,29.93,M,10.00,M,CLR,M,M,M,M,M,M,M,M,M,M,M,M,M,M,43.43,KTMT 010615Z AUTO 25007KT 10SM CLR 09/M12 A2993 RMK AO2 T00851117,M
BAM,2021-09-01 06:35,-116.8743,40.5990,1382.36,60.80,17.60,18.46,0.00,0.00,0.00,29.82,M,10.00,M,CLR,M,M,M,M,M,M,M,M,M,M,M,M,M,M,60.80,KBAM 010635Z AUTO 00000KT 10SM CLR 16/M08 A2982 RMK AO1,M
TMT,2021-09-01 06:35,-117.1971,39.4643,1749.34,47.80,9.00,20.32,200.00,3.00,0.00,29.93,M,10.00,M,CLR,M,M,M,M,M,M,M,M,M,M,M,M,M,M,46.75,KTMT 010635Z AUTO 20003KT 10SM CLR 09/M13 A2993 RMK AO2 T00881128,M
RTS,2021-09-01 06:35,-119.8764,39.6682,1539.00,68.00,12.20,11.34,260.00,6.00,0.00,29.91,M,10.00,M,CLR,M,M,M,M,M,M,M,M,M,M,M,M,M,M,68.00,KRTS 010635Z AUTO 26006KT 10SM CLR 20/M11 A2991 RMK AO2,M
BVU,2021-09-01 06:35,-114.8611,35.9475,671.00,77.00,64.40,65.12,M,5.00,0.00,29.75,M,10.00,M,FEW,FEW,SCT,M,6000.00,7000.00,11000.00,M,M,M,M,M,M,M,M,77.00,KBVU 010635Z AUTO VRB05KT 10SM FEW060 FEW070 SCT110 25/18 A2975 RMK AO2,M
CXP,2021-09-01 06:35,-119.7326,39.1923,1431.00,66.20,19.40,16.50,0.00,0.00,0.00,29.88,M,3.00,M,OVC,M,M,M,2800.00,M,M,M,HZ,M,M,M,M,M,M,66.20,KCXP 010635Z AUTO 00000KT 3SM HZ OVC028 19/M07 A2988 RMK AO2,M
MEV,2021-09-01 06:35,-119.7500,38.9963,1441.42,55.40,21.20,26.13,0.00,0.00,0.00,29.87,M,10.00,M,OVC,M,M,M,1900.00,M,M,M,M,M,M,M,M,M,M,55.40,KMEV 010635Z AUTO 00000KT 10SM OVC019 13/M06 A2987 RMK AO2,M
HTH,2021-09-01 06:35,-118.6315,38.5448,1282.89,71.60,12.20,10.02,250.00,4.00,0.00,29.82,M,10.00,M,FEW,FEW,OVC,M,2600.00,3300.00,6500.00,M,M,M,M,M,M,M,M,71.60,KHTH 010635Z AUTO 25004KT 10SM FEW026 FEW033 OVC065 22/M11 A2982 RMK A01,M
VGT,2021-09-01 06:53,-115.1933,36.2111,667.00,84.00,64.00,51.08,100.00,10.00,0.00,29.71,1004.60,10.00,M,BKN,M,M,M,11000.00,M,M,M,M,M,M,M,M,M,M,85.36,KVGT 010653Z AUTO 10010KT 10SM BKN110 29/18 A2971 RMK AO2 SLP046 T02890178,M
P68,2021-09-01 06:53,-116.0056,39.6014,1993.00,53.00,12.90,19.86,170.00,6.00,0.00,29.90,1004.30,M,M,M,M,M,M,M,M,M,M,M,M,M,M,M,M,M,53.10,KP68 010653Z AUTO 17006KT 12/M11 A2990 RMK AO1 SLP043 T01171106,M
ELY,2021-09-01 06:53,-114.8453,39.2950,1909.00,65.00,41.00,41.55,210.00,9.00,0.00,29.96,1002.60,10.00,M,CLR,M,M,M,M,M,M,M,M,M,M,M,M,M,M,64.90,KELY 010653Z AUTO 21009KT 10SM CLR 18/05 A2996 RMK AO2 SLP026 T01830050,M
DRA,2021-09-01 06:53,-116.0278,36.6206,1009.00,82.00,52.00,35.41,60.00,5.00,0.00,29.76,1001.80,10.00,M,FEW,M,M,M,11000.00,M,M,M,M,M,M,M,M,M,M,80.97,KDRA 010653Z AUTO 06005KT 10SM FEW110 28/11 A2976 RMK AO2 SLP018 T02780111,M
LOL,2021-09-01 06:53,-118.5701,40.0684,1192.43,68.00,18.00,14.60,40.00,8.00,0.00,29.79,1004.40,5.00,M,FEW,OVC,M,M,4200.00,7000.00,M,M,HZ,M,M,M,M,M,M,68.00,KLOL 010653Z AUTO 04008KT 5SM HZ FEW042 OVC070 20/M08 A2979 RMK AO2 SLP044 T02001078,M
BVU,2021-09-01 06:55,-114.8611,35.9475,671.00,77.00,64.40,65.12,150.00,7.00,0.00,29.75,M,10.00,13.00,FEW,SCT,BKN,M,4300.00,7000.00,12000.00,M,M,M,M,M,M,M,M,77.00,KBVU 010655Z AUTO 15007G13KT 110V170 10SM FEW043 SCT070 BKN120 25/18 A2975 RMK AO2 LTG DSNT NE,M
TMT,2021-09-01 06:55,-117.1971,39.4643,1749.34,42.80,12.20,28.34,170.00,3.00,0.00,29.93,M,10.00,M,CLR,M,M,M,M,M,M,M,M,M,M,M,M,M,M,41.03,KTMT 010655Z AUTO 17003KT 10SM CLR 06/M11 A2993 RMK AO2 T00601110,M
BAM,2021-09-01 06:55,-116.8743,40.5990,1382.36,60.80,19.40,19.94,340.00,8.00,0.00,29.83,M,10.00,M,CLR,M,M,M,M,M,M,M,M,M,M,M,M,M,M,60.80,KBAM 010655Z AUTO 34008KT 10SM CLR 16/M07 A2983 RMK AO1,M
RTS,2021-09-01 06:55,-119.8764,39.6682,1539.00,64.40,12.20,12.84,300.00,10.00,0.00,29.90,M,10.00,M,CLR,M,M,M,M,M,M,M,M,M,M,M,M,M,M,64.40,KRTS 010655Z AUTO 30010KT 10SM CLR 18/M11 A2990 RMK AO2,M
CXP,2021-09-01 06:55,-119.7326,39.1923,1431.00,62.60,21.20,20.20,0.00,0.00,0.00,29.88,M,3.00,M,BKN,M,M,M,2700.00,M,M,M,HZ,M,M,M,M,M,M,62.60,KCXP 010655Z AUTO 00000KT 3SM HZ BKN027 17/M06 A2988 RMK AO2,M
MEV,2021-09-01 06:55,-119.7500,38.9963,1441.42,51.80,24.80,34.69,110.00,3.00,0.00,29.87,M,10.00,M,OVC,M,M,M,1700.00,M,M,M,M,M,M,M,M,M,M,51.80,KMEV 010655Z AUTO 11003KT 10SM OVC017 11/M04 A2987 RMK AO2,M
HTH,2021-09-01 06:55,-118.6315,38.5448,1282.89,71.60,14.00,10.85,250.00,6.00,0.00,29.82,M,10.00,M,OVC,M,M,M,6500.00,M,M,M,M,M,M,M,M,M,M,71.60,KHTH 010655Z AUTO 25006KT 10SM OVC065 22/M10 A2982 RMK A01,M
RNO,2021-09-01 06:55,-119.7711,39.4839,1341.00,66.00,21.00,17.78,0.00,0.00,0.00,29.84,1004.80,10.00,M,CLR,M,M,M,M,M,M,M,M,M,M,M,M,M,M,66.00,KRNO 010655Z 00000KT 10SM CLR 19/M06 A2984 RMK AO2 SLP048 FU ALF ALQDS T01891061 $,M
NFL,2021-09-01 06:56,-118.7010,39.4166,1199.00,62.00,19.90,19.45,60.00,3.00,0.00,29.80,1007.00,8.00,M,BKN,M,M,M,4000.00,M,M,M,M,M,M,M,M,M,M,62.10,KNFL 010656Z 06003KT 8SM BKN040 17/M07 A2980 RMK AO2 SLP070 FU BKN040 FU VC ALQDS T01671067,M
WMC,2021-09-01 06:56,-117.8072,40.9019,1315.00,59.00,25.00,26.92,290.00,3.00,0.00,29.82,1005.10,7.00,M,FEW,M,M,M,5500.00,M,M,M,M,M,M,M,M,M,M,59.00,KWMC 010656Z AUTO 29003KT 7SM FEW055 15/M04 A2982 RMK AO2 SLP051 T01501039 $,M
TPH,2021-09-01 06:56,-117.0904,38.0505,1654.00,71.00,39.00,31.05,280.00,6.00,0.00,29.90,1003.70,10.00,M,CLR,M,M,M,M,M,M,M,M,M,M,M,M,M,M,71.10,KTPH 010656Z AUTO 28006KT 10SM CLR 22/04 A2990 RMK AO2 SLP037 T02170039,M
LAS,2021-09-01 06:56,-115.1634,36.0719,663.00,82.00,61.00,49.03,170.00,7.00,0.00,29.73,1003.60,10.00,17.00,FEW,BKN,OVC,M,9500.00,11000.00,15000.00,M,M,M,M,M,M,M,M,82.62,KLAS 010656Z 17007G17KT 10SM FEW095 BKN110 OVC150 28/16 A2973 RMK AO2 SLP036 TOPS OF MTNS OBSCURED DSNT SW-NW T02780161,M
EKO,2021-09-01 06:56,-115.7860,40.8242,1367.00,50.00,24.10,36.01,170.00,3.00,0.00,29.86,1006.30,5.00,M,CLR,M,M,M,M,M,M,M,HZ,M,M,M,M,M,M,50.00,KEKO 010656Z AUTO 17003KT 5SM HZ CLR 10/M04 A2986 RMK AO2 SLP063 T01001044,M
HND,2021-09-01 06:56,-115.1344,35.9729,742.79,78.00,63.00,59.78,170.00,14.00,0.00,29.75,1005.80,10.00,M,BKN,M,M,M,11000.00,M,M,M,M,M,M,M,M,M,M,78.10,KHND 010656Z AUTO 17014KT 10SM BKN110 26/17 A2975 RMK AO2 SLP058 T02560172 403720256,M
INS,2021-09-01 06:58,-115.6733,36.5872,955.00,81.30,52.50,36.90,130.00,12.00,0.00,29.76,1002.30,10.00,M,CLR,M,M,M,M,M,M,M,M,M,M,M,M,M,M,80.58,KINS 010658Z AUTO 13012KT 10SM CLR 27/11 A2976 RMK AO2 SLP023 T02740114 $,M
LSV,2021-09-01 06:58,-115.0343,36.2362,570.00,84.60,62.60,47.70,10.00,3.00,0.00,29.71,1003.40,10.00,M,OVC,M,M,M,11000.00,M,M,M,M,M,M,M,M,M,M,85.40,KLSV 010658Z AUTO 01003KT 10SM OVC110 29/17 A2971 RMK AO2 SLP034 T02920170 $,M
LSV,2021-09-01 07:03,-115.0343,36.2362,570.00,84.20,62.60,48.32,90.00,4.00,0.00,29.71,1003.40,10.00,M,FEW,FEW,OVC,M,5500.00,8000.00,10000.00,M,-DZ,M,M,M,M,M,M,85.03,KLSV 010703Z AUTO 09004KT 10SM -DZ FEW055 FEW080 OVC100 29/17 A2971 RMK AO2 DZB03 SLP034 $,M
RTS,2021-09-01 07:15,-119.8764,39.6682,1539.00,60.80,12.20,14.58,310.00,12.00,0.00,29.90,M,10.00,M,CLR,M,M,M,M,M,M,M,M,M,M,M,M,M,M,60.80,KRTS 010715Z AUTO 31012KT 10SM CLR 16/M11 A2990 RMK AO2,M
LSV,2021-09-01 07:15,-115.0343,36.2362,570.00,84.20,66.20,54.80,100.00,8.00,0.00,29.71,1003.40,10.00,M,SCT,M,M,M,10000.00,M,M,M,M,M,M,M,M,M,M,86.50,KLSV 010715Z AUTO 10008KT 10SM SCT100 29/19 A2971 RMK AO2 DZB03E15 SLP034 $,M
TMT,2021-09-01 07:15,-117.1971,39.4643,1749.34,44.60,12.20,26.45,0.00,0.00,0.00,29.93,M,10.00,M,CLR,M,M,M,M,M,M,M,M,M,M,M,M,M,M,44.60,KTMT 010715Z AUTO 00000KT 10SM CLR 07/M11 A2993 RMK AO2 T00701110,M
HTH,2021-09-01 07:15,-118.6315,38.5448,1282.89,71.60,14.00,10.85,240.00,4.00,0.00,29.83,M,10.00,M,OVC,M,M,M,7000.00,M,M,M,M,M,M,M,M,M,M,71.60,KHTH 010715Z AUTO 24004KT 10SM OVC070 22/M10 A2983 RMK A01,M
BAM,2021-09-01 07:15,-116.8743,40.5990,1382.36,55.40,21.20,26.13,360.00,7.00,0.00,29.83,M,10.00,M,CLR,M,M,M,M,M,M,M,M,M,M,M,M,M,M,55.40,KBAM 010715Z AUTO 36007KT 10SM CLR 13/M06 A2983 RMK AO1,M
MEV,2021-09-01 07:15,-119.7500,38.9963,1441.42,50.00,23.00,34.39,110.00,6.00,0.00,29.87,M,10.00,M,OVC,M,M,M,1900.00,M,M,M,M,M,M,M,M,M,M,50.00,KMEV 010715Z AUTO 11006KT 10SM OVC019 10/M05 A2987 RMK AO2,M
CXP,2021-09-01 07:15,-119.7326,39.1923,1431.00,64.40,17.60,16.26,0.00,0.00,0.00,29.88,M,3.00,M,BKN,M,M,M,2700.00,M,M,M,HZ,M,M,M,M,M,M,64.40,KCXP 010715Z AUTO 00000KT 3SM HZ BKN027 18/M08 A2988 RMK AO2,M
BVU,2021-09-01 07:15,-114.8611,35.9475,671.00,77.00,64.40,65.12,150.00,7.00,0.00,29.75,M,10.00,14.00,FEW,FEW,FEW,M,4100.00,4800.00,5500.00,M,M,M,M,M,M,M,M,77.00,KBVU 010715Z AUTO 15007G14KT 10SM FEW041 FEW048 FEW055 25/18 A2975 RMK AO2,M
CXP,2021-09-01 07:30,-119.7326,39.1923,1431.00,60.80,17.60,18.46,0.00,0.00,0.00,29.88,M,4.00,M,BKN,M,M,M,2800.00,M,M,M,HZ,M,M,M,M,M,M,60.80,KCXP 010730Z AUTO 00000KT 4SM HZ BKN028 16/M08 A2988 RMK AO2,M
MEV,2021-09-01 07:35,-119.7500,38.9963,1441.42,50.00,23.00,34.39,M,3.00,0.00,29.88,M,10.00,M,BKN,OVC,M,M,1500.00,2000.00,M,M,M,M,M,M,M,M,M,50.00,KMEV 010735Z AUTO VRB03KT 10SM BKN015 OVC020 10/M05 A2988 RMK AO2,M
BVU,2021-09-01 07:35,-114.8611,35.9475,671.00,77.00,64.40,65.12,0.00,0.00,0.00,29.75,M,10.00,M,SCT,M,M,M,11000.00,M,M,M,M,M,M,M,M,M,M,77.00,KBVU 010735Z AUTO 00000KT 10SM SCT110 25/18 A2975 RMK AO2,M
BAM,2021-09-01 07:35,-116.8743,40.5990,1382.36,57.20,21.20,24.49,350.00,7.00,0.00,29.84,M,10.00,M,CLR,M,M,M,M,M,M,M,M,M,M,M,M,M,M,57.20,KBAM 010735Z AUTO 35007KT 10SM CLR 14/M06 A2984 RMK AO1,M
RTS,2021-09-01 07:35,-119.8764,39.6682,1539.00,57.20,12.20,16.58,320.00,12.00,0.00,29.90,M,10.00,M,CLR,M,M,M,M,M,M,M,M,M,M,M,M,M,M,57.20,KRTS 010735Z AUTO 32012KT 10SM CLR 14/M11 A2990 RMK AO2,M
TMT,2021-09-01 07:35,-117.1971,39.4643,1749.34,42.60,11.50,27.69,270.00,5.00,0.00,29.94,M,10.00,M,CLR,M,M,M,M,M,M,M,M,M,M,M,M,M,M,38.98,KTMT 010735Z AUTO 27005KT 10SM CLR 06/M11 A2994 RMK AO2 T00591114,M
HTH,2021-09-01 07:35,-118.6315,38.5448,1282.89,69.80,14.00,11.54,0.00,0.00,0.00,29.83,M,10.00,M,OVC,M,M,M,7000.00,M,M,M,M,M,M,M,M,M,M,69.80,KHTH 010735Z AUTO 00000KT 10SM OVC070 21/M10 A2983 RMK A01,M
LOL,2021-09-01 07:53,-118.5701,40.0684,1192.43,65.00,21.90,19.19,0.00,0.00,0.00,29.81,1004.90,5.00,M,OVC,M,M,M,4200.00,M,M,M,HZ,M,M,M,M,M,M,64.90,KLOL 010753Z AUTO 00000KT 5SM HZ OVC042 18/M06 A2981 RMK AO2 SLP049 T01831056 403500056,M
P68,2021-09-01 07:53,-116.0056,39.6014,1993.00,54.00,12.90,19.21,220.00,9.00,0.00,29.91,1004.30,M,M,M,M,M,M,M,M,M,M,M,M,M,M,M,M,M,54.00,KP68 010753Z AUTO 22009KT 12/M11 A2991 RMK AO1 SLP043 T01221106 403280089,M
VGT,2021-09-01 07:53,-115.1933,36.2111,667.00,81.00,65.00,58.10,100.00,10.00,T,29.72,1004.90,10.00,M,FEW,SCT,M,M,6500.00,12000.00,M,M,M,M,M,M,M,M,M,82.79,KVGT 010753Z AUTO 10010KT 10SM FEW065 SCT120 27/18 A2972 RMK AO2 RAB27E40 SLP049 P0000 T02720183 403830272,M
DRA,2021-09-01 07:53,-116.0278,36.6206,1009.00,81.00,54.00,39.37,110.00,11.00,0.00,29.76,1001.80,10.00,M,CLR,M,M,M,M,M,M,M,M,M,M,M,M,M,M,80.59,KDRA 010753Z AUTO 11011KT 10SM CLR 27/12 A2976 RMK AO2 SLP018 T02720122 403670217,M
ELY,2021-09-01 07:53,-114.8453,39.2950,1909.00,63.00,42.00,46.34,210.00,11.00,0.00,29.96,1003.00,10.00,M,CLR,M,M,M,M,M,M,M,M,M,M,M,M,M,M,63.00,KELY 010753Z AUTO 21011KT 10SM CLR 17/06 A2996 RMK AO2 SLP030 T01720056 403000100,M
CXP,2021-09-01 07:55,-119.7326,39.1923,1431.00,64.40,15.80,15.04,320.00,4.00,0.00,29.89,M,4.00,M,OVC,M,M,M,2700.00,M,M,M,HZ,M,M,M,M,M,M,64.40,KCXP 010755Z AUTO 32004KT 4SM HZ OVC027 18/M09 A2989 RMK AO2,M
MEV,2021-09-01 07:55,-119.7500,38.9963,1441.42,50.00,23.00,34.39,140.00,4.00,0.00,29.88,M,10.00,M,OVC,M,M,M,1600.00,M,M,M,M,M,M,M,M,M,M,50.00,KMEV 010755Z AUTO 14004KT 10SM OVC016 10/M05 A2988 RMK AO2,M
BAM,2021-09-01 07:55,-116.8743,40.5990,1382.36,55.40,19.40,24.21,160.00,5.00,0.00,29.85,M,10.00,M,CLR,M,M,M,M,M,M,M,M,M,M,M,M,M,M,55.40,KBAM 010755Z AUTO 16005KT 10SM CLR 13/M07 A2985 RMK AO1,M
HTH,2021-09-01 07:55,-118.6315,38.5448,1282.89,68.00,15.80,13.27,150.00,3.00,0.00,29.83,M,10.00,M,FEW,OVC,M,M,6000.00,7000.00,M,M,M,M,M,M,M,M,M,68.00,KHTH 010755Z AUTO 15003KT 10SM FEW060 OVC070 20/M09 A2983 RMK A01,M
TMT,2021-09-01 07:55,-117.1971,39.4643,1749.34,44.80,10.20,24.02,290.00,5.00,0.00,29.94,M,10.00,M,CLR,M,M,M,M,M,M,M,M,M,M,M,M,M,M,41.60,KTMT 010755Z AUTO 29005KT 10SM CLR 07/M12 A2994 RMK AO2 T00711121 403270003,M
RTS,2021-09-01 07:55,-119.8764,39.6682,1539.00,55.40,12.20,17.70,30.00,7.00,0.00,29.91,M,10.00,12.00,CLR,M,M,M,M,M,M,M,M,M,M,M,M,M,M,55.40,KRTS 010755Z AUTO 03007G12KT 10SM CLR 13/M11 A2991 RMK AO2,M
RNO,2021-09-01 07:55,-119.7711,39.4839,1341.00,61.00,21.90,22.02,160.00,3.00,0.00,29.86,1004.90,10.00,M,CLR,M,M,M,M,M,M,M,M,M,M,M,M,M,M,61.00,KRNO 010755Z 16003KT 10SM CLR 16/M06 A2986 RMK AO2 SLP049 FU ALF ALQDS T01611056 403500117 $,M
BVU,2021-09-01 07:55,-114.8611,35.9475,671.00,77.00,64.40,65.12,0.00,0.00,0.00,29.76,M,10.00,M,SCT,BKN,M,M,7500.00,11000.00,M,M,M,M,M,M,M,M,M,77.00,KBVU 010755Z AUTO 00000KT 10SM SCT075 BKN110 25/18 A2976 RMK AO2,M
WMC,2021-09-01 07:56,-117.8072,40.9019,1315.00,59.00,21.90,23.64,300.00,5.00,0.00,29.84,1005.20,9.00,M,CLR,M,M,M,M,M,M,M,M,M,M,M,M,M,M,59.00,KWMC 010756Z AUTO 30005KT 9SM CLR 15/M06 A2984 RMK AO2 SLP052 T01501056 403390072 $,M
NFL,2021-09-01 07:56,-118.7010,39.4166,1199.00,58.00,19.00,21.74,0.00,0.00,0.00,29.81,1007.20,9.00,M,CLR,M,M,M,M,M,M,M,M,M,M,M,M,M,M,57.90,KNFL 010756Z AUTO 00000KT 9SM CLR 14/M07 A2981 RMK AO2 SLP072 T01441072 403440117,M
TPH,2021-09-01 07:56,-117.0904,38.0505,1654.00,68.00,37.00,31.92,110.00,8.00,0.00,29.91,1004.00,10.00,M,CLR,M,M,M,M,M,M,M,M,M,M,M,M,M,M,68.00,KTPH 010756Z AUTO 11008KT 10SM CLR 20/03 A2991 RMK AO2 SLP040 T02000028 403220133,M
EKO,2021-09-01 07:56,-115.7860,40.8242,1367.00,50.00,24.10,36.01,300.00,3.00,0.00,29.86,1005.90,5.00,M,CLR,M,M,M,M,M,M,M,HZ,M,M,M,M,M,M,50.00,KEKO 010756Z AUTO 30003KT 5SM HZ CLR 10/M04 A2986 RMK AO2 SLP059 T01001044 403220061,M
HND,2021-09-01 07:56,-115.1344,35.9729,742.79,77.00,62.00,60.06,190.00,9.00,T,29.76,1006.10,10.00,M,SCT,M,M,M,10000.00,M,M,M,M,M,M,M,M,M,M,77.00,KHND 010756Z AUTO 19009KT 10SM SCT100 25/17 A2976 RMK AO2 RAB29E41 SLP061 P0000 T02500167,M
LAS,2021-09-01 07:56,-115.1634,36.0719,663.00,82.00,59.00,45.66,160.00,5.00,0.00,29.73,1003.60,10.00,M,FEW,SCT,OVC,M,9500.00,11000.00,14000.00,M,M,M,M,M,M,M,M,82.15,KLAS 010756Z 16005KT 10SM FEW095 SCT110 OVC140 28/15 A2973 RMK AO2 SLP036 TOPS OF MTNS OBSCURED DSNT SW-NW T02780150 403720278,M
INS,2021-09-01 07:58,-115.6733,36.5872,955.00,81.00,53.60,38.79,150.00,10.00,0.00,29.76,1002.30,10.00,M,SCT,M,M,M,16000.00,M,M,M,M,M,M,M,M,M,M,80.54,KINS 010758Z AUTO 15010KT 10SM SCT160 27/12 A2976 RMK AO2 SLP023 T02720120 403530246 $,M
LSV,2021-09-01 07:58,-115.0343,36.2362,570.00,81.50,64.80,56.96,100.00,4.00,T,29.71,1003.40,10.00,M,SCT,SCT,M,M,14000.00,19000.00,M,M,M,M,M,M,M,M,M,83.25,KLSV 010758Z AUTO 10004KT 10SM SCT140 SCT190 28/18 A2971 RMK AO2 DZB03E15 SLP034 P0000 T02750182 403750275 $,M
CXP,2021-09-01 08:10,-119.7326,39.1923,1431.00,62.60,15.80,16.02,330.00,4.00,0.00,29.89,M,4.00,M,OVC,M,M,M,2700.00,M,M,M,HZ,M,M,M,M,M,M,62.60,KCXP 010810Z AUTO 33004KT 4SM HZ OVC027 17/M09 A2989 RMK AO2,M
TMT,2021-09-01 08:15,-117.1971,39.4643,1749.34,40.50,8.80,26.61,0.00,0.00,0.00,29.94,M,10.00,M,CLR,M,M,M,M,M,M,M,M,M,M,M,M,M,M,40.50,KTMT 010815Z AUTO 00000KT 10SM CLR 05/M13 A2994 RMK AO2 T00471129,M
BVU,2021-09-01 08:15,-114.8611,35.9475,671.00,77.00,62.60,61.13,130.00,7.00,0.00,29.76,M,10.00,M,FEW,BKN,M,M,7500.00,11000.00,M,M,M,M,M,M,M,M,M,77.00,KBVU 010815Z AUTO 13007KT 10SM FEW075 BKN110 25/17 A2976 RMK AO2,M
HTH,2021-09-01 08:15,-118.6315,38.5448,1282.89,69.80,17.60,13.49,0.00,0.00,0.00,29.84,M,10.00,M,OVC,M,M,M,7000.00,M,M,M,M,M,M,M,M,M,M,69.80,KHTH 010815Z AUTO 00000KT 10SM OVC070 21/M08 A2984 RMK A01,M
BAM,2021-09-01 08:15,-116.8743,40.5990,1382.36,55.40,21.20,26.13,0.00,0.00,0.00,29.85,M,10.00,M,SCT,M,M,M,8000.00,M,M,M,M,M,M,M,M,M,M,55.40,KBAM 010815Z AUTO 00000KT 10SM SCT080 13/M06 A2985 RMK AO1,M
MEV,2021-09-01 08:15,-119.7500,38.9963,1441.42,46.40,26.60,45.73,160.00,6.00,0.00,29.88,M,8.00,M,OVC,M,M,M,1500.00,M,M,M,M,M,M,M,M,M,M,42.87,KMEV 010815Z AUTO 16006KT 8SM OVC015 08/M03 A2988 RMK AO2,M
RTS,2021-09-01 08:15,-119.8764,39.6682,1539.00,59.00,12.20,15.55,10.00,10.00,0.00,29.91,M,10.00,M,CLR,M,M,M,M,M,M,M,M,M,M,M,M,M,M,59.00,KRTS 010815Z AUTO 01010KT 10SM CLR 15/M11 A2991 RMK AO2,M
BAM,2021-09-01 08:35,-116.8743,40.5990,1382.36,53.60,21.20,27.91,0.00,0.00,0.00,29.85,M,10.00,M,SCT,M,M,M,8000.00,M,M,M,M,M,M,M,M,M,M,53.60,KBAM 010835Z AUTO 00000KT 10SM SCT080 12/M06 A2985 RMK AO1,M
BVU,2021-09-01 08:35,-114.8611,35.9475,671.00,77.00,62.60,61.13,120.00,7.00,0.00,29.76,M,10.00,M,OVC,M,M,M,10000.00,M,M,M,M,M,M,M,M,M,M,77.00,KBVU 010835Z AUTO 12007KT 10SM OVC100 25/17 A2976 RMK AO2,M
CXP,2021-09-01 08:35,-119.7326,39.1923,1431.00,60.80,14.00,15.78,0.00,0.00,0.00,29.89,M,4.00,M,OVC,M,M,M,2700.00,M,M,M,HZ,M,M,M,M,M,M,60.80,KCXP 010835Z AUTO 00000KT 4SM HZ OVC027 16/M10 A2989 RMK AO2,M
RTS,2021-09-01 08:35,-119.8764,39.6682,1539.00,57.20,12.20,16.58,10.00,9.00,0.00,29.91,M,10.00,M,CLR,M,M,M,M,M,M,M,M,M,M,M,M,M,M,57.20,KRTS 010835Z AUTO 01009KT 10SM CLR 14/M11 A2991 RMK AO2,M
MEV,2021-09-01 08:35,-119.7500,38.9963,1441.42,44.60,28.40,52.72,0.00,0.00,0.00,29.88,M,10.00,M,OVC,M,M,M,1900.00,M,M,M,M,M,M,M,M,M,M,44.60,KMEV 010835Z AUTO 00000KT 10SM OVC019 07/M02 A2988 RMK AO2,M
HTH,2021-09-01 08:35,-118.6315,38.5448,1282.89,68.00,19.40,15.50,230.00,7.00,0.00,29.84,M,7.00,M,OVC,M,M,M,7000.00,M,M,M,M,M,M,M,M,M,M,68.00,KHTH 010835Z AUTO 23007KT 7SM OVC070 20/M07 A2984 RMK A01,M
TMT,2021-09-01 08:35,-117.1971,39.4643,1749.34,35.60,7.20,30.01,130.00,4.00,0.00,29.94,M,10.00,M,CLR,M,M,M,M,M,M,M,M,M,M,M,M,M,M,31.62,KTMT 010835Z AUTO 13004KT 10SM CLR 02/M14 A2994 RMK AO2 T00201138,M
LSV,2021-09-01 08:50,-115.0343,36.2362,570.00,80.60,64.40,57.84,110.00,10.00,0.00,29.72,1003.70,10.00,M,BKN,OVC,M,M,11000.00,20000.00,M,M,M,M,M,M,M,M,M,82.27,KLSV 010850Z AUTO 11010KT 10SM BKN110 OVC200 27/18 A2972 RMK AO2 WSHFT 35 SLP037 $,M
VGT,2021-09-01 08:53,-115.1933,36.2111,667.00,80.00,64.00,57.98,100.00,13.00,T,29.73,1005.20,10.00,M,SCT,M,M,M,12000.00,M,M,M,M,M,M,M,M,M,M,81.71,KVGT 010853Z AUTO 10013KT 10SM SCT120 27/18 A2973 RMK AO2 RAB24E33 SLP052 P0000 60000 T02670178 53009,M
DRA,2021-09-01 08:53,-116.0278,36.6206,1009.00,78.00,53.00,41.89,200.00,6.00,0.00,29.76,1001.90,10.00,M,CLR,M,M,M,M,M,M,M,M,M,M,M,M,M,M,78.10,KDRA 010853Z AUTO 20006KT 10SM CLR 26/12 A2976 RMK AO2 SLP019 T02560117 53000,M
ELY,2021-09-01 08:53,-114.8453,39.2950,1909.00,62.00,42.00,47.83,210.00,11.00,0.00,29.94,1002.70,10.00,M,CLR,M,M,M,M,M,M,M,M,M,M,M,M,M,M,62.10,KELY 010853Z AUTO 21011KT 10SM CLR 17/06 A2994 RMK AO2 SLP027 T01670056 58004,M
P68,2021-09-01 08:53,-116.0056,39.6014,1993.00,57.00,12.00,16.56,190.00,9.00,0.00,29.91,1003.40,M,M,M,M,M,M,M,M,M,M,M,M,M,M,M,M,M,57.00,KP68 010853Z AUTO 19009KT 14/M11 A2991 RMK AO1 SLP034 T01391111 50000,M
LOL,2021-09-01 08:53,-118.5701,40.0684,1192.43,57.00,21.00,24.45,60.00,4.00,0.00,29.81,1005.30,5.00,M,SCT,M,M,M,6500.00,M,M,M,HZ,M,M,M,M,M,M,57.00,KLOL 010853Z AUTO 06004KT 5SM HZ SCT065 14/M06 A2981 RMK AO2 SLP053 T01391061 51007,M
HTH,2021-09-01 08:55,-118.6315,38.5448,1282.89,68.00,17.60,14.35,240.00,5.00,0.00,29.84,M,7.00,M,OVC,M,M,M,7000.00,M,M,M,M,M,M,M,M,M,M,68.00,KHTH 010855Z AUTO 24005KT 7SM OVC070 20/M08 A2984 RMK A01,M
MEV,2021-09-01 08:55,-119.7500,38.9963,1441.42,46.40,23.00,39.36,M,5.00,0.00,29.88,M,10.00,M,OVC,M,M,M,1900.00,M,M,M,M,M,M,M,M,M,M,43.50,KMEV 010855Z AUTO VRB05KT 10SM OVC019 08/M05 A2988 RMK AO2,M
BAM,2021-09-01 08:55,-116.8743,40.5990,1382.36,55.40,23.00,28.20,0.00,0.00,0.00,29.85,M,10.00,M,CLR,M,M,M,M,M,M,M,M,M,M,M,M,M,M,55.40,KBAM 010855Z AUTO 00000KT 10SM CLR 13/M05 A2985 RMK AO1,M
RTS,2021-09-01 08:55,-119.8764,39.6682,1539.00,55.40,12.20,17.70,200.00,5.00,0.00,29.91,M,10.00,11.00,CLR,M,M,M,M,M,M,M,M,M,M,M,M,M,M,55.40,KRTS 010855Z AUTO 20005G11KT 10SM CLR 13/M11 A2991 RMK AO2,M
CXP,2021-09-01 08:55,-119.7326,39.1923,1431.00,60.80,15.80,17.07,0.00,0.00,0.00,29.89,M,4.00,M,OVC,M,M,M,2700.00,M,M,M,HZ,M,M,M,M,M,M,60.80,KCXP 010855Z AUTO 00000KT 4SM HZ OVC027 16/M09 A2989 RMK AO2,M
BVU,2021-09-01 08:55,-114.8611,35.9475,671.00,77.00,64.40,65.12,110.00,8.00,0.00,29.76,M,10.00,M,OVC,M,M,M,10000.00,M,M,M,M,M,M,M,M,M,M,77.00,KBVU 010855Z AUTO 11008KT 10SM OVC100 25/18 A2976 RMK AO2,M
RNO,2021-09-01 08:55,-119.7711,39.4839,1341.00,60.00,23.00,23.81,0.00,0.00,0.00,29.86,1005.20,10.00,M,CLR,M,M,M,M,M,M,M,M,M,M,M,M,M,M,60.10,KRNO 010855Z 00000KT 10SM CLR 16/M05 A2986 RMK AO2 SLP052 FU ALF ALQDS T01561050 53006 $,M
TMT,2021-09-01 08:55,-117.1971,39.4643,1749.34,36.00,10.20,33.80,160.00,6.00,0.00,29.94,M,10.00,M,CLR,M,M,M,M,M,M,M,M,M,M,M,M,M,M,30.35,KTMT 010855Z AUTO 16006KT 10SM CLR 02/M12 A2994 RMK AO2 T00221121,M
LAS,2021-09-01 08:56,-115.1634,36.0719,663.00,80.00,60.00,50.52,0.00,0.00,0.00,29.74,1003.90,10.00,M,FEW,SCT,OVC,M,8500.00,11000.00,14000.00,M,M,M,M,M,M,M,M,80.94,KLAS 010856Z 00000KT 10SM FEW085 SCT110 OVC140 27/16 A2974 RMK AO2 SLP039 TOPS OF MTNS OBSCURED DSNT SW-NW T02670156 51009,M
HND,2021-09-01 08:56,-115.1344,35.9729,742.79,80.00,58.00,46.70,130.00,4.00,0.00,29.76,1006.10,10.00,M,BKN,M,M,M,11000.00,M,M,M,M,M,M,M,M,M,M,80.58,KHND 010856Z AUTO 13004KT 10SM BKN110 27/14 A2976 RMK AO2 SLP061 60000 T02670144 51008,M
TPH,2021-09-01 08:56,-117.0904,38.0505,1654.00,65.00,42.00,43.36,110.00,7.00,0.00,29.90,1003.90,10.00,M,OVC,M,M,M,5000.00,M,M,M,M,M,M,M,M,M,M,64.90,KTPH 010856Z AUTO 11007KT 10SM OVC050 18/06 A2990 RMK AO2 SLP039 T01830056 58001,M
EKO,2021-09-01 08:56,-115.7860,40.8242,1367.00,45.00,23.00,41.50,0.00,0.00,0.00,29.86,1006.20,6.00,M,CLR,M,M,M,M,M,M,M,HZ,M,M,M,M,M,M,45.00,KEKO 010856Z AUTO 00000KT 6SM HZ CLR 07/M05 A2986 RMK AO2 SLP062 T00721050 51003,M
WMC,2021-09-01 08:56,-117.8072,40.9019,1315.00,52.00,19.00,26.95,M,4.00,0.00,29.84,1005.80,10.00,M,CLR,M,M,M,M,M,M,M,M,M,M,M,M,M,M,52.00,KWMC 010856Z AUTO VRB04KT 10SM CLR 11/M07 A2984 RMK AO2 SLP058 T01111072 51008 $,M
INS,2021-09-01 08:58,-115.6733,36.5872,955.00,80.20,54.30,40.85,70.00,7.00,0.00,29.75,1002.00,10.00,M,FEW,BKN,M,M,14000.00,17000.00,M,M,M,M,M,M,M,M,M,80.14,KINS 010858Z AUTO 07007KT 10SM FEW140 BKN170 27/12 A2975 RMK AO2 SLP020 T02680124 58003 $,M
LSV,2021-09-01 08:58,-115.0343,36.2362,570.00,80.00,64.20,58.77,90.00,4.00,0.00,29.73,1004.10,10.00,14.00,OVC,M,M,M,11000.00,M,M,M,M,M,M,M,M,M,M,79.90,KLSV 010858Z AUTO 09004G14KT 10SM OVC110 27/18 A2973 RMK AO2 SLP041 60000 T02660179 52011 $,M
BAM,2021-09-01 09:15,-116.8743,40.5990,1382.36,55.40,23.00,28.20,30.00,4.00,0.00,29.85,M,10.00,M,CLR,M,M,M,M,M,M,M,M,M,M,M,M,M,M,55.40,KBAM 010915Z AUTO 03004KT 10SM CLR 13/M05 A2985 RMK AO1,M
MEV,2021-09-01 09:15,-119.7500,38.9963,1441.42,46.40,21.20,36.48,0.00,0.00,0.00,29.88,M,10.00,M,OVC,M,M,M,1900.00,M,M,M,M,M,M,M,M,M,M,46.40,KMEV 010915Z AUTO 00000KT 10SM OVC019 08/M06 A2988 RMK AO2,M
RTS,2021-09-01 09:15,-119.8764,39.6682,1539.00,59.00,12.20,15.55,0.00,0.00,0.00,29.91,M,10.00,M,CLR,M,M,M,M,M,M,M,M,M,M,M,M,M,M,59.00,KRTS 010915Z AUTO 00000KT 10SM CLR 15/M11 A2991 RMK AO2,M
CXP,2021-09-01 09:15,-119.7326,39.1923,1431.00,57.20,17.60,20.99,0.00,0.00,0.00,29.89,M,4.00,M,OVC,M,M,M,2600.00,M,M,M,HZ,M,M,M,M,M,M,57.20,KCXP 010915Z AUTO 00000KT 4SM HZ OVC026 14/M08 A2989 RMK AO2,M
BVU,2021-09-01 09:15,-114.8611,35.9475,671.00,77.00,64.40,65.12,100.00,10.00,0.00,29.75,M,10.00,M,FEW,SCT,OVC,M,4700.00,6000.00,9500.00,M,M,M,M,M,M,M,M,77.00,KBVU 010915Z AUTO 10010KT 10SM FEW047 SCT060 OVC095 25/18 A2975 RMK AO2,M
TMT,2021-09-01 09:15,-117.1971,39.4643,1749.34,39.60,12.00,31.79,140.00,4.00,0.00,29.94,M,10.00,M,CLR,M,M,M,M,M,M,M,M,M,M,M,M,M,M,36.30,KTMT 010915Z AUTO 14004KT 10SM CLR 04/M11 A2994 RMK AO2 T00421111,M
HTH,2021-09-01 09:15,-118.6315,38.5448,1282.89,66.20,19.40,16.50,230.00,3.00,0.00,29.84,M,6.00,M,OVC,M,M,M,7000.00,M,M,M,HZ,M,M,M,M,M,M,66.20,KHTH 010915Z AUTO 23003KT 6SM HZ OVC070 19/M07 A2984 RMK A01,M
HTH,2021-09-01 09:35,-118.6315,38.5448,1282.89,66.20,23.00,19.22,220.00,4.00,0.00,29.84,M,5.00,M,OVC,M,M,M,8000.00,M,M,M,HZ,M,M,M,M,M,M,66.20,KHTH 010935Z AUTO 22004KT 5SM HZ OVC080 19/M05 A2984 RMK A01,M
TMT,2021-09-01 09:35,-117.1971,39.4643,1749.34,40.50,10.00,28.08,0.00,0.00,0.00,29.94,M,10.00,M,CLR,M,M,M,M,M,M,M,M,M,M,M,M,M,M,40.50,KTMT 010935Z AUTO 00000KT 10SM CLR 05/M12 A2994 RMK AO2 T00471122,M
MEV,2021-09-01 09:35,-119.7500,38.9963,1441.42,46.40,24.80,42.44,0.00,0.00,0.00,29.88,M,5.00,M,OVC,M,M,M,1900.00,M,M,M,HZ,M,M,M,M,M,M,46.40,KMEV 010935Z AUTO 00000KT 5SM HZ OVC019 08/M04 A2988 RMK AO2,M
RTS,2021-09-01 09:35,-119.8764,39.6682,1539.00,60.80,10.40,13.46,320.00,4.00,0.00,29.92,M,10.00,M,CLR,M,M,M,M,M,M,M,M,M,M,M,M,M,M,60.80,KRTS 010935Z AUTO 32004KT 10SM CLR 16/M12 A2992 RMK AO2,M
CXP,2021-09-01 09:35,-119.7326,39.1923,1431.00,55.40,19.40,24.21,0.00,0.00,0.00,29.90,M,4.00,M,OVC,M,M,M,2600.00,M,M,M,HZ,M,M,M,M,M,M,55.40,KCXP 010935Z AUTO 00000KT 4SM HZ OVC026 13/M07 A2990 RMK AO2,M
BVU,2021-09-01 09:35,-114.8611,35.9475,671.00,77.00,64.40,65.12,100.00,10.00,0.00,29.76,M,10.00,M,FEW,SCT,OVC,M,4600.00,6000.00,10000.00,M,M,M,M,M,M,M,M,77.00,KBVU 010935Z AUTO 10010KT 10SM FEW046 SCT060 OVC100 25/18 A2976 RMK AO2,M
BAM,2021-09-01 09:35,-116.8743,40.5990,1382.36,55.40,24.80,30.40,10.00,4.00,0.00,29.86,M,10.00,M,CLR,M,M,M,M,M,M,M,M,M,M,M,M,M,M,55.40,KBAM 010935Z AUTO 01004KT 10SM CLR 13/M04 A2986 RMK AO1,M
VGT,2021-09-01 09:53,-115.1933,36.2111,667.00,79.00,64.00,60.11,110.00,8.00,T,29.74,1005.80,10.00,M,SCT,M,M,M,9500.00,M,M,M,-RA,M,M,M,M,M,M,79.00,KVGT 010953Z AUTO 11008KT 10SM -RA SCT095 26/18 A2974 RMK AO2 RAB07 SLP058 P0000 T02610178,M
LOL,2021-09-01 09:53,-118.5701,40.0684,1192.43,63.00,25.00,23.36,40.00,8.00,0.00,29.82,1005.20,6.00,M,CLR,M,M,M,M,M,M,M,HZ,M,M,M,M,M,M,63.00,KLOL 010953Z AUTO 04008KT 6SM HZ CLR 17/M04 A2982 RMK AO2 SLP052 T01721039,M
DRA,2021-09-01 09:53,-116.0278,36.6206,1009.00,77.00,53.00,43.44,280.00,3.00,0.00,29.75,1001.80,10.00,M,CLR,M,M,M,M,M,M,M,M,M,M,M,M,M,M,77.00,KDRA 010953Z AUTO 28003KT 10SM CLR 25/12 A2975 RMK AO2 SLP018 T02500117,M
ELY,2021-09-01 09:53,-114.8453,39.2950,1909.00,60.00,41.00,49.21,200.00,8.00,0.00,29.94,1003.10,10.00,M,CLR,M,M,M,M,M,M,M,M,M,M,M,M,M,M,60.10,KELY 010953Z AUTO 20008KT 10SM CLR 16/05 A2994 RMK AO2 SLP031 T01560050,M
P68,2021-09-01 09:53,-116.0056,39.6014,1993.00,58.00,14.00,17.51,200.00,8.00,0.00,29.91,1003.40,M,M,M,M,M,M,M,M,M,M,M,M,M,M,M,M,M,57.90,KP68 010953Z AUTO 20008KT 14/M10 A2991 RMK AO1 SLP034 T01441100,M
MEV,2021-09-01 09:55,-119.7500,38.9963,1441.42,41.00,21.20,44.85,90.00,4.00,0.00,29.88,M,10.00,M,BKN,OVC,M,M,1600.00,2100.00,M,M,M,M,M,M,M,M,M,37.93,KMEV 010955Z AUTO 09004KT 10SM BKN016 OVC021 05/M06 A2988 RMK AO2,M
BAM,2021-09-01 09:55,-116.8743,40.5990,1382.36,51.80,23.00,32.17,0.00,0.00,0.00,29.87,M,10.00,M,CLR,M,M,M,M,M,M,M,M,M,M,M,M,M,M,51.80,KBAM 010955Z AUTO 00000KT 10SM CLR 11/M05 A2987 RMK AO1,M
BVU,2021-09-01 09:55,-114.8611,35.9475,671.00,75.20,64.40,69.14,120.00,6.00,0.00,29.77,M,10.00,12.00,BKN,M,M,M,11000.00,M,M,M,M,M,M,M,M,M,M,75.20,KBVU 010955Z AUTO 12006G12KT 10SM BKN110 24/18 A2977 RMK AO2,M
CXP,2021-09-01 09:55,-119.7326,39.1923,1431.00,53.60,19.40,25.85,0.00,0.00,0.00,29.90,M,4.00,M,OVC,M,M,M,2600.00,M,M,M,HZ,M,M,M,M,M,M,53.60,KCXP 010955Z AUTO 00000KT 4SM HZ OVC026 12/M07 A2990 RMK AO2,M
RTS,2021-09-01 09:55,-119.8764,39.6682,1539.00,51.80,10.40,18.64,350.00,6.00,0.00,29.92,M,10.00,M,CLR,M,M,M,M,M,M,M,M,M,M,M,M,M,M,51.80,KRTS 010955Z AUTO 35006KT 10SM CLR 11/M12 A2992 RMK AO2,M
HTH,2021-09-01 09:55,-118.6315,38.5448,1282.89,68.00,24.80,19.47,230.00,7.00,0.00,29.85,M,5.00,M,OVC,M,M,M,7500.00,M,M,M,HZ,M,M,M,M,M,M,68.00,KHTH 010955Z AUTO 23007KT 5SM HZ OVC075 20/M04 A2985 RMK A01,M
TMT,2021-09-01 09:55,-117.1971,39.4643,1749.34,38.50,10.20,30.63,0.00,0.00,0.00,29.94,M,10.00,M,CLR,M,M,M,M,M,M,M,M,M,M,M,M,M,M,38.50,KTMT 010955Z AUTO 00000KT 10SM CLR 04/M12 A2994 RMK AO2 T00361121,M
RNO,2021-09-01 09:55,-119.7711,39.4839,1341.00,56.00,24.10,29.00,0.00,0.00,0.00,29.87,1005.80,10.00,M,CLR,M,M,M,M,M,M,M,M,M,M,M,M,M,M,55.90,KRNO 010955Z 00000KT 10SM CLR 13/M04 A2987 RMK AO2 SLP058 FU ALF ALQDS T01331044 $,M
HND,2021-09-01 09:56,-115.1344,35.9729,742.79,77.00,61.00,57.77,180.00,7.00,0.00,29.77,1006.70,10.00,M,OVC,M,M,M,11000.00,M,M,M,M,M,M,M,M,M,M,77.00,KHND 010956Z AUTO 18007KT 10SM OVC110 25/16 A2977 RMK AO2 SLP067 T02500161,M
NFL,2021-09-01 09:56,-118.7010,39.4166,1199.00,54.00,21.00,27.27,180.00,4.00,0.00,29.82,1007.50,10.00,M,OVC,M,M,M,6500.00,M,M,M,M,M,M,M,M,M,M,54.00,KNFL 010956Z AUTO 18004KT 10SM OVC065 12/M06 A2982 RMK AO2 SLP075 T01221061,M
EKO,2021-09-01 09:56,-115.7860,40.8242,1367.00,50.00,21.90,32.83,60.00,3.00,0.00,29.88,1006.30,7.00,M,CLR,M,M,M,M,M,M,M,M,M,M,M,M,M,M,50.00,KEKO 010956Z AUTO 06003KT 7SM CLR 10/M06 A2988 RMK AO2 SLP063 T01001056,M
LAS,2021-09-01 09:56,-115.1634,36.0719,663.00,78.00,63.00,59.78,100.00,8.00,0.00,29.75,1004.50,10.00,M,FEW,BKN,OVC,M,8500.00,12000.00,14000.00,M,M,M,M,M,M,M,M,78.10,KLAS 010956Z 10008KT 10SM FEW085 BKN120 OVC140 26/17 A2975 RMK AO2 SLP045 T02560172,M
TPH,2021-09-01 09:56,-117.0904,38.0505,1654.00,60.00,38.00,43.61,10.00,4.00,0.00,29.90,1004.20,10.00,M,OVC,M,M,M,4000.00,M,M,M,M,M,M,M,M,M,M,60.10,KTPH 010956Z AUTO 01004KT 10SM OVC040 16/03 A2990 RMK AO2 SLP042 T01560033,M
WMC,2021-09-01 09:56,-117.8072,40.9019,1315.00,49.00,17.10,27.86,280.00,6.00,0.00,29.86,1006.60,10.00,M,CLR,M,M,M,M,M,M,M,M,M,M,M,M,M,M,45.88,KWMC 010956Z AUTO 28006KT 10SM CLR 09/M08 A2986 RMK AO2 SLP066 T00941083 $,M
LSV,2021-09-01 09:58,-115.0343,36.2362,570.00,79.20,65.50,62.93,110.00,13.00,0.00,29.72,1003.80,10.00,20.00,BKN,BKN,M,M,7000.00,9500.00,M,M,M,M,M,M,M,M,M,79.20,KLSV 010958Z AUTO 11013G20KT 10SM BKN070 BKN095 26/19 A2972 RMK AO2 SLP038 T02620186 $,M
INS,2021-09-01 09:58,-115.6733,36.5872,955.00,79.00,58.00,48.76,80.00,10.00,0.00,29.74,1001.60,10.00,M,BKN,M,M,M,14000.00,M,M,M,M,M,M,M,M,M,M,79.00,KINS 010958Z AUTO 08010KT 10SM BKN140 26/15 A2974 RMK AO2 SLP016 T02610145 $,M
CXP,2021-09-01 10:15,-119.7326,39.1923,1431.00,53.60,21.20,27.91,0.00,0.00,0.00,29.90,M,4.00,M,OVC,M,M,M,2600.00,M,M,M,HZ,M,M,M,M,M,M,53.60,KCXP 011015Z AUTO 00000KT 4SM HZ OVC026 12/M06 A2990 RMK AO2,M
BVU,2021-09-01 10:15,-114.8611,35.9475,671.00,75.20,64.40,69.14,140.00,4.00,0.00,29.76,M,10.00,M,FEW,M,M,M,11000.00,M,M,M,M,M,M,M,M,M,M,75.20,KBVU 011015Z AUTO 14004KT 10SM FEW110 24/18 A2976 RMK AO2,M
TMT,2021-09-01 10:15,-117.1971,39.4643,1749.34,36.70,9.10,31.30,0.00,0.00,0.00,29.95,M,10.00,M,CLR,M,M,M,M,M,M,M,M,M,M,M,M,M,M,36.70,KTMT 011015Z AUTO 00000KT 10SM CLR 03/M13 A2995 RMK AO2 T00261127,M
HTH,2021-09-01 10:15,-118.6315,38.5448,1282.89,66.20,23.00,19.22,220.00,5.00,0.00,29.85,M,5.00,M,OVC,M,M,M,7000.00,M,M,M,HZ,M,M,M,M,M,M,66.20,KHTH 011015Z AUTO 22005KT 5SM HZ OVC070 19/M05 A2985 RMK A01,M
MEV,2021-09-01 10:15,-119.7500,38.9963,1441.42,39.20,23.00,51.89,0.00,0.00,0.00,29.88,M,10.00,M,OVC,M,M,M,1400.00,M,M,M,M,M,M,M,M,M,M,39.20,KMEV 011015Z AUTO 00000KT 10SM OVC014 04/M05 A2988 RMK AO2,M
BAM,2021-09-01 10:15,-116.8743,40.5990,1382.36,53.60,23.00,30.11,50.00,5.00,0.00,29.87,M,10.00,M,CLR,M,M,M,M,M,M,M,M,M,M,M,M,M,M,53.60,KBAM 011015Z AUTO 05005KT 10SM CLR 12/M05 A2987 RMK AO1,M
RTS,2021-09-01 10:15,-119.8764,39.6682,1539.00,51.80,10.40,18.64,0.00,0.00,0.00,29.92,M,10.00,M,CLR,M,M,M,M,M,M,M,M,M,M,M,M,M,M,51.80,KRTS 011015Z AUTO 00000KT 10SM CLR 11/M12 A2992 RMK AO2,M
BAM,2021-09-01 10:35,-116.8743,40.5990,1382.36,53.60,23.00,30.11,80.00,3.00,0.00,29.87,M,10.00,M,CLR,M,M,M,M,M,M,M,M,M,M,M,M,M,M,53.60,KBAM 011035Z AUTO 08003KT 10SM CLR 12/M05 A2987 RMK AO1,M
MEV,2021-09-01 10:35,-119.7500,38.9963,1441.42,39.20,23.00,51.89,100.00,3.00,0.00,29.88,M,7.00,M,OVC,M,M,M,1300.00,M,M,M,M,M,M,M,M,M,M,36.92,KMEV 011035Z AUTO 10003KT 7SM OVC013 04/M05 A2988 RMK AO2,M
TMT,2021-09-01 10:35,-117.1971,39.4643,1749.34,37.80,9.70,30.79,0.00,0.00,0.00,29.94,M,10.00,M,CLR,M,M,M,M,M,M,M,M,M,M,M,M,M,M,37.80,KTMT 011035Z AUTO 00000KT 10SM CLR 03/M12 A2994 RMK AO2 T00321124,M
HTH,2021-09-01 10:35,-118.6315,38.5448,1282.89,64.40,24.80,22.06,0.00,0.00,0.00,29.85,M,5.00,M,SCT,OVC,M,M,3600.00,7000.00,M,M,HZ,M,M,M,M,M,M,64.40,KHTH 011035Z AUTO 00000KT 5SM HZ SCT036 OVC070 18/M04 A2985 RMK A01,M
CXP,2021-09-01 10:35,-119.7326,39.1923,1431.00,53.60,15.80,22.13,0.00,0.00,0.00,29.90,M,5.00,M,OVC,M,M,M,2700.00,M,M,M,HZ,M,M,M,M,M,M,53.60,KCXP 011035Z AUTO 00000KT 5SM HZ OVC027 12/M09 A2990 RMK AO2,M
BVU,2021-09-01 10:35,-114.8611,35.9475,671.00,75.20,64.40,69.14,0.00,0.00,0.00,29.76,M,10.00,M,FEW,SCT,M,M,10000.00,12000.00,M,M,M,M,M,M,M,M,M,75.20,KBVU 011035Z AUTO 00000KT 10SM FEW100 SCT120 24/18 A2976 RMK AO2,M
RTS,2021-09-01 10:35,-119.8764,39.6682,1539.00,48.20,10.40,21.31,0.00,0.00,0.00,29.92,M,10.00,M,SCT,SCT,M,M,3500.00,4000.00,M,M,M,M,M,M,M,M,M,48.20,KRTS 011035Z AUTO 00000KT 10SM SCT035 SCT040 09/M12 A2992 RMK AO2,M
LOL,2021-09-01 10:53,-118.5701,40.0684,1192.43,62.00,24.10,23.23,20.00,5.00,0.00,29.83,1005.60,6.00,M,CLR,M,M,M,M,M,M,M,HZ,M,M,M,M,M,M,62.10,KLOL 011053Z AUTO 02005KT 6SM HZ CLR 17/M04 A2983 RMK AO2 SLP056 T01671044,M
P68,2021-09-01 10:53,-116.0056,39.6014,1993.00,50.00,14.00,23.37,0.00,0.00,0.00,29.92,1004.40,M,M,M,M,M,M,M,M,M,M,M,M,M,M,M,M,M,50.00,KP68 011053Z AUTO 00000KT 10/M10 A2992 RMK AO1 SLP044 T01001100,M
VGT,2021-09-01 10:53,-115.1933,36.2111,667.00,79.00,64.00,60.11,130.00,9.00,T,29.75,1005.90,10.00,M,CLR,M,M,M,M,M,M,M,M,M,M,M,M,M,M,79.00,KVGT 011053Z AUTO 13009KT 10SM CLR 26/18 A2975 RMK AO2 RAE18 SLP059 P0000 T02610178,M
ELY,2021-09-01 10:53,-114.8453,39.2950,1909.00,55.00,41.00,59.13,170.00,4.00,0.00,29.94,1003.20,10.00,M,CLR,M,M,M,M,M,M,M,M,M,M,M,M,M,M,55.00,KELY 011053Z AUTO 17004KT 10SM CLR 13/05 A2994 RMK AO2 SLP032 T01280050,M
DRA,2021-09-01 10:53,-116.0278,36.6206,1009.00,79.00,56.00,45.04,240.00,7.00,0.00,29.75,1001.40,10.00,M,FEW,M,M,M,12000.00,M,M,M,M,M,M,M,M,M,M,79.00,KDRA 011053Z AUTO 24007KT 10SM FEW120 26/13 A2975 RMK AO2 SLP014 T02610133,M
MEV,2021-09-01 10:55,-119.7500,38.9963,1441.42,37.40,23.00,55.68,0.00,0.00,0.00,29.89,M,7.00,M,OVC,M,M,M,1300.00,M,M,M,M,M,M,M,M,M,M,37.40,KMEV 011055Z AUTO 00000KT 7SM OVC013 03/M05 A2989 RMK AO2,M
CXP,2021-09-01 10:55,-119.7326,39.1923,1431.00,51.80,19.40,27.62,0.00,0.00,0.00,29.90,M,5.00,M,FEW,OVC,M,M,300.00,2600.00,M,M,HZ,M,M,M,M,M,M,51.80,KCXP 011055Z AUTO 00000KT 5SM HZ FEW003 OVC026 11/M07 A2990 RMK AO2,M
RTS,2021-09-01 10:55,-119.8764,39.6682,1539.00,50.00,12.20,21.59,0.00,0.00,0.00,29.92,M,10.00,M,FEW,M,M,M,3500.00,M,M,M,M,M,M,M,M,M,M,50.00,KRTS 011055Z AUTO 00000KT 10SM FEW035 10/M11 A2992 RMK AO2,M
TMT,2021-09-01 10:55,-117.1971,39.4643,1749.34,33.60,7.20,32.50,0.00,0.00,0.00,29.95,M,10.00,M,CLR,M,M,M,M,M,M,M,M,M,M,M,M,M,M,33.60,KTMT 011055Z AUTO 00000KT 10SM CLR 01/M14 A2995 RMK AO2 T00091138,M
BAM,2021-09-01 10:55,-116.8743,40.5990,1382.36,48.20,21.20,34.09,180.00,4.00,0.00,29.88,M,10.00,M,CLR,M,M,M,M,M,M,M,M,M,M,M,M,M,M,46.34,KBAM 011055Z AUTO 18004KT 10SM CLR 09/M06 A2988 RMK AO1,M
HTH,2021-09-01 10:55,-118.6315,38.5448,1282.89,66.20,24.80,20.72,0.00,0.00,0.00,29.85,M,4.00,M,FEW,FEW,OVC,M,3600.00,4400.00,7000.00,M,HZ,M,M,M,M,M,M,66.20,KHTH 011055Z AUTO 00000KT 4SM HZ FEW036 FEW044 OVC070 19/M04 A2985 RMK A01,M
RNO,2021-09-01 10:55,-119.7711,39.4839,1341.00,58.00,21.00,23.67,280.00,3.00,0.00,29.88,1005.70,10.00,M,CLR,M,M,M,M,M,M,M,M,M,M,M,M,M,M,57.90,KRNO 011055Z 28003KT 10SM CLR 14/M06 A2988 RMK AO2 SLP057 FU ALF ALQDS T01441061 $,M
BVU,2021-09-01 10:55,-114.8611,35.9475,671.00,75.20,64.40,69.14,150.00,4.00,0.00,29.77,M,10.00,M,FEW,SCT,OVC,M,4300.00,6000.00,11000.00,M,M,M,M,M,M,M,M,75.20,KBVU 011055Z AUTO 15004KT 10SM FEW043 SCT060 OVC110 24/18 A2977 RMK AO2,M
TPH,2021-09-01 10:56,-117.0904,38.0505,1654.00,58.00,34.00,40.43,10.00,3.00,0.00,29.91,1004.70,10.00,M,OVC,M,M,M,3800.00,M,M,M,M,M,M,M,M,M,M,57.90,KTPH 011056Z AUTO 01003KT 10SM OVC038 14/01 A2991 RMK AO2 SLP047 T01440011,M
HND,2021-09-01 10:56,-115.1344,35.9729,742.79,77.00,61.00,57.77,160.00,5.00,T,29.78,1007.30,10.00,M,SCT,M,M,M,11000.00,M,M,M,M,M,M,M,M,M,M,77.00,KHND 011056Z AUTO 16005KT 10SM SCT110 25/16 A2978 RMK AO2 RAB30E43 SLP073 P0000 T02500161,M
WMC,2021-09-01 10:56,-117.8072,40.9019,1315.00,49.00,17.10,27.86,M,M,0.00,29.87,1006.70,10.00,M,CLR,M,M,M,M,M,M,M,M,M,M,M,M,M,M,M,KWMC 011056Z AUTO 10SM CLR 09/M08 A2987 RMK AO2 SLP067 T00941083 $,M
EKO,2021-09-01 10:56,-115.7860,40.8242,1367.00,47.00,23.00,38.62,0.00,0.00,0.00,29.89,1007.00,7.00,M,CLR,M,M,M,M,M,M,M,M,M,M,M,M,M,M,46.90,KEKO 011056Z AUTO 00000KT 7SM CLR 08/M05 A2989 RMK AO2 SLP070 T00831050,M
NFL,2021-09-01 10:56,-118.7010,39.4166,1199.00,51.00,24.10,34.57,210.00,3.00,0.00,29.82,1007.70,10.00,M,CLR,M,M,M,M,M,M,M,M,M,M,M,M,M,M,51.10,KNFL 011056Z AUTO 21003KT 10SM CLR 11/M04 A2982 RMK AO2 SLP077 T01061044,M
LAS,2021-09-01 10:56,-115.1634,36.0719,663.00,77.00,63.00,62.00,100.00,10.00,0.00,29.75,1004.90,10.00,M,FEW,OVC,M,M,9000.00,14000.00,M,M,M,M,M,M,M,M,M,77.00,KLAS 011056Z 10010KT 10SM FEW090 OVC140 25/17 A2975 RMK AO2 SLP049 T02500172,M
LSV,2021-09-01 10:58,-115.0343,36.2362,570.00,78.30,65.50,64.82,40.00,4.00,0.00,29.74,1004.50,10.00,M,OVC,M,M,M,14000.00,M,M,M,M,M,M,M,M,M,M,78.30,KLSV 011058Z AUTO 04004KT 10SM OVC140 26/19 A2974 RMK AO2 SLP045 T02570186 $,M
INS,2021-09-01 10:58,-115.6733,36.5872,955.00,75.60,59.70,57.79,100.00,14.00,0.00,29.75,1002.00,10.00,19.00,FEW,M,M,M,23000.00,M,M,M,M,M,M,M,30.00,130.00,2021-09-01 10:23,75.60,KINS 011058Z AUTO 10014G19KT 10SM FEW230 24/15 A2975 RMK AO2 PK WND 13030/23 SLP020 T02420154 $,M
HTH,2021-09-01 11:15,-118.6315,38.5448,1282.89,64.40,24.80,22.06,210.00,3.00,0.00,29.85,M,5.00,M,SCT,OVC,M,M,4500.00,7000.00,M,M,HZ,M,M,M,M,M,M,64.40,KHTH 011115Z AUTO 21003KT 5SM HZ SCT045 OVC070 18/M04 A2985 RMK A01,M
BVU,2021-09-01 11:15,-114.8611,35.9475,671.00,75.20,66.20,73.61,150.00,8.00,0.00,29.77,M,10.00,M,FEW,SCT,BKN,M,4200.00,6500.00,7500.00,M,M,M,M,M,M,M,M,75.20,KBVU 011115Z AUTO 15008KT 10SM FEW042 SCT065 BKN075 24/19 A2977 RMK AO2,M
BAM,2021-09-01 11:15,-116.8743,40.5990,1382.36,46.40,23.00,39.36,0.00,0.00,0.00,29.88,M,10.00,M,CLR,M,M,M,M,M,M,M,M,M,M,M,M,M,M,46.40,KBAM 011115Z AUTO 00000KT 10SM CLR 08/M05 A2988 RMK AO1,M
TMT,2021-09-01 11:15,-117.1971,39.4643,1749.34,35.00,10.20,35.03,0.00,0.00,0.00,29.95,M,10.00,M,CLR,M,M,M,M,M,M,M,M,M,M,M,M,M,M,35.10,KTMT 011115Z AUTO 00000KT 10SM CLR 02/M12 A2995 RMK AO2 T00171121,M
CXP,2021-09-01 11:15,-119.7326,39.1923,1431.00,50.00,19.40,29.52,0.00,0.00,0.00,29.90,M,5.00,M,FEW,OVC,M,M,300.00,2700.00,M,M,HZ,M,M,M,M,M,M,50.00,KCXP 011115Z AUTO 00000KT 5SM HZ FEW003 OVC027 10/M07 A2990 RMK AO2,M
MEV,2021-09-01 11:15,-119.7500,38.9963,1441.42,37.40,26.60,64.70,M,4.00,0.00,29.89,M,9.00,M,SCT,BKN,OVC,M,1300.00,1900.00,6000.00,M,M,M,M,M,M,M,M,33.73,KMEV 011115Z AUTO VRB04KT 9SM SCT013 BKN019 OVC060 03/M03 A2989 RMK AO2,M
RTS,2021-09-01 11:15,-119.8764,39.6682,1539.00,48.20,10.40,21.31,0.00,0.00,0.00,29.93,M,10.00,M,CLR,M,M,M,M,M,M,M,M,M,M,M,M,M,M,48.20,KRTS 011115Z AUTO 00000KT 10SM CLR 09/M12 A2993 RMK AO2,M
LSV,2021-09-01 11:17,-115.0343,36.2362,570.00,77.00,66.20,69.33,40.00,10.00,0.00,29.75,1004.90,10.00,M,SCT,M,M,M,14000.00,M,M,M,-DZ,M,M,M,M,M,M,77.00,KLSV 011117Z AUTO 04010KT 10SM -DZ SCT140 25/19 A2975 RMK AO2 DZB17 SLP049 $,M
LSV,2021-09-01 11:27,-115.0343,36.2362,570.00,77.00,68.00,73.78,60.00,10.00,0.00,29.75,1005.00,10.00,M,FEW,M,M,M,14000.00,M,M,M,M,M,M,M,M,M,M,77.00,KLSV 011127Z AUTO 06010KT 10SM FEW140 25/20 A2975 RMK AO2 DZB17E27 SLP050 $,M
RTS,2021-09-01 11:35,-119.8764,39.6682,1539.00,44.60,10.40,24.42,350.00,4.00,0.00,29.93,M,10.00,M,CLR,M,M,M,M,M,M,M,M,M,M,M,M,M,M,42.13,KRTS 011135Z AUTO 35004KT 10SM CLR 07/M12 A2993 RMK AO2,M
MEV,2021-09-01 11:35,-119.7500,38.9963,1441.42,39.20,26.60,60.29,90.00,3.00,0.00,29.89,M,9.00,M,BKN,OVC,M,M,2000.00,6000.00,M,M,M,M,M,M,M,M,M,36.92,KMEV 011135Z AUTO 09003KT 9SM BKN020 OVC060 04/M03 A2989 RMK AO2,M
HTH,2021-09-01 11:35,-118.6315,38.5448,1282.89,62.60,24.80,23.50,230.00,7.00,0.00,29.86,M,5.00,M,OVC,M,M,M,4600.00,M,M,M,HZ,M,M,M,M,M,M,62.60,KHTH 011135Z AUTO 23007KT 5SM HZ OVC046 17/M04 A2986 RMK A01,M
BVU,2021-09-01 11:35,-114.8611,35.9475,671.00,73.40,66.20,78.19,150.00,6.00,0.00,29.78,M,10.00,M,SCT,BKN,OVC,M,6000.00,7500.00,11000.00,M,M,M,M,M,M,M,M,73.40,KBVU 011135Z AUTO 15006KT 10SM SCT060 BKN075 OVC110 23/19 A2978 RMK AO2,M
CXP,2021-09-01 11:35,-119.7326,39.1923,1431.00,51.80,17.60,25.56,0.00,0.00,0.00,29.90,M,5.00,M,OVC,M,M,M,2700.00,M,M,M,HZ,M,M,M,M,M,M,51.80,KCXP 011135Z AUTO 00000KT 5SM HZ OVC027 11/M08 A2990 RMK AO2,M
BAM,2021-09-01 11:35,-116.8743,40.5990,1382.36,44.60,19.40,36.18,0.00,0.00,0.00,29.89,M,10.00,M,CLR,M,M,M,M,M,M,M,M,M,M,M,M,M,M,44.60,KBAM 011135Z AUTO 00000KT 10SM CLR 07/M07 A2989 RMK AO1,M
VGT,2021-09-01 11:53,-115.1933,36.2111,667.00,78.00,65.00,63.90,110.00,8.00,0.00,29.76,1006.60,10.00,M,CLR,M,M,M,M,M,M,M,M,M,M,M,M,M,M,78.10,KVGT 011153Z AUTO 11008KT 10SM CLR 26/18 A2976 RMK AO2 SLP066 60000 T02560183 10294 20256 51009,M
LOL,2021-09-01 11:53,-118.5701,40.0684,1192.43,61.00,21.90,22.02,30.00,8.00,0.00,29.84,1006.00,8.00,M,CLR,M,M,M,M,M,M,M,M,M,M,M,M,M,M,61.00,KLOL 011153Z AUTO 03008KT 8SM CLR 16/M06 A2984 RMK AO2 SLP060 T01611056 10239 20122 52009,M
DRA,2021-09-01 11:53,-116.0278,36.6206,1009.00,77.00,57.00,50.07,270.00,5.00,0.00,29.76,1001.80,10.00,M,CLR,M,M,M,M,M,M,M,M,M,M,M,M,M,M,77.00,KDRA 011153Z AUTO 27005KT 10SM CLR 25/14 A2976 RMK AO2 SLP018 T02500139 10283 20250 55001,M
ELY,2021-09-01 11:53,-114.8453,39.2950,1909.00,51.00,39.00,63.12,200.00,7.00,0.00,29.95,1004.10,10.00,M,CLR,M,M,M,M,M,M,M,M,M,M,M,M,M,M,51.10,KELY 011153Z AUTO 20007KT 10SM CLR 11/04 A2995 RMK AO2 SLP041 T01060039 10200 20100 53001,M
P68,2021-09-01 11:53,-116.0056,39.6014,1993.00,50.00,16.00,25.50,190.00,7.00,0.00,29.92,1004.60,M,M,M,M,M,M,M,M,M,M,M,M,M,M,M,M,M,50.00,KP68 011153Z AUTO 19007KT 10/M09 A2992 RMK AO1 SLP046 T01001089 10156 20083 52005,M
BAM,2021-09-01 11:55,-116.8743,40.5990,1382.36,46.40,21.20,36.48,280.00,6.00,0.00,29.89,M,10.00,M,CLR,M,M,M,M,M,M,M,M,M,M,M,M,M,M,42.87,KBAM 011155Z AUTO 28006KT 10SM CLR 08/M06 A2989 RMK AO1,M
RNO,2021-09-01 11:55,-119.7711,39.4839,1341.00,54.00,26.10,33.77,0.00,0.00,0.00,29.89,1006.50,10.00,M,CLR,M,M,M,M,M,M,M,M,M,M,M,M,M,M,54.00,KRNO 011155Z 00000KT 10SM CLR 12/M03 A2989 RMK AO2 SLP065 FU ALF ALQDS T01221033 10206 20111 52006 $,M
BVU,2021-09-01 11:55,-114.8611,35.9475,671.00,73.40,66.20,78.19,170.00,4.00,0.00,29.78,M,10.00,M,FEW,SCT,BKN,M,3900.00,7500.00,9000.00,M,M,M,M,M,M,M,M,73.40,KBVU 011155Z AUTO 17004KT 10SM FEW039 SCT075 BKN090 23/19 A2978 RMK AO2,M
CXP,2021-09-01 11:55,-119.7326,39.1923,1431.00,50.00,14.00,23.37,270.00,3.00,0.00,29.90,M,4.00,M,OVC,M,M,M,2900.00,M,M,M,HZ,M,M,M,M,M,M,50.00,KCXP 011155Z AUTO 27003KT 4SM HZ OVC029 10/M10 A2990 RMK AO2,M
TMT,2021-09-01 11:55,-117.1971,39.4643,1749.34,36.00,10.00,33.50,0.00,0.00,0.00,29.96,M,10.00,M,CLR,M,M,M,M,M,M,M,M,M,M,M,M,M,M,36.00,KTMT 011155Z AUTO 00000KT 10SM CLR 02/M12 A2996 RMK AO2 T00221122 10101 20002,M
RTS,2021-09-01 11:55,-119.8764,39.6682,1539.00,44.60,10.40,24.42,320.00,5.00,0.00,29.92,M,10.00,M,FEW,M,M,M,3300.00,M,M,M,M,M,M,M,M,M,M,41.36,KRTS 011155Z AUTO 32005KT 10SM FEW033 07/M12 A2992 RMK AO2,M
HTH,2021-09-01 11:55,-118.6315,38.5448,1282.89,62.60,21.20,20.20,220.00,6.00,0.00,29.86,M,5.00,M,OVC,M,M,M,4600.00,M,M,M,HZ,M,M,M,M,M,M,62.60,KHTH 011155Z AUTO 22006KT 5SM HZ OVC046 17/M06 A2986 RMK A01,M
MEV,2021-09-01 11:55,-119.7500,38.9963,1441.42,35.60,24.80,64.46,170.00,6.00,0.00,29.90,M,5.00,M,SCT,OVC,M,M,2100.00,6000.00,M,M,HZ,M,M,M,M,M,M,29.87,KMEV 011155Z AUTO 17006KT 5SM HZ SCT021 OVC060 02/M04 A2990 RMK AO2,M
TPH,2021-09-01 11:56,-117.0904,38.0505,1654.00,57.00,38.00,48.73,270.00,3.00,0.00,29.91,1004.90,10.00,M,CLR,M,M,M,M,M,M,M,M,M,M,M,M,M,M,57.00,KTPH 011156Z AUTO 27003KT 10SM CLR 14/03 A2991 RMK AO2 SLP049 T01390033 10233 20133 51003,M
LAS,2021-09-01 11:56,-115.1634,36.0719,663.00,77.00,63.00,62.00,90.00,7.00,0.00,29.77,1005.70,10.00,M,FEW,OVC,M,M,9000.00,15000.00,M,M,M,M,M,M,M,M,M,77.00,KLAS 011156Z 09007KT 10SM FEW090 OVC150 25/17 A2977 RMK AO2 SLP057 T02500172 10289 20250 53009,M
EKO,2021-09-01 11:56,-115.7860,40.8242,1367.00,47.00,23.00,38.62,0.00,0.00,0.00,29.90,1007.50,7.00,M,CLR,M,M,M,M,M,M,M,M,M,M,M,M,M,M,46.90,KEKO 011156Z AUTO 00000KT 7SM CLR 08/M05 A2990 RMK AO2 SLP075 T00831050 10161 20072 51011,M
WMC,2021-09-01 11:56,-117.8072,40.9019,1315.00,44.00,17.10,33.40,170.00,4.00,0.00,29.88,1007.40,10.00,M,CLR,M,M,M,M,M,M,M,M,M,M,M,M,M,M,41.55,KWMC 011156Z AUTO 17004KT 10SM CLR 07/M08 A2988 RMK AO2 SLP074 T00671083 10211 20067 51009 $,M
HND,2021-09-01 11:56,-115.1344,35.9729,742.79,75.00,65.00,70.83,170.00,3.00,T,29.79,1007.90,10.00,M,FEW,OVC,M,M,7000.00,10000.00,M,M,-RA,M,M,M,M,M,M,75.00,KHND 011156Z AUTO 17003KT 10SM -RA FEW070 OVC100 24/18 A2979 RMK AO2 RAB11E26B43 SLP079 P0000 60000 70010 T02390183 10267 20239 51008,M
NFL,2021-09-01 11:56,-118.7010,39.4166,1199.00,49.00,19.90,31.42,160.00,3.00,0.00,29.83,1007.90,10.00,M,FEW,M,M,M,5500.00,M,M,M,M,M,M,M,M,M,M,48.01,KNFL 011156Z AUTO 16003KT 10SM FEW055 09/M07 A2983 RMK AO2 SLP079 T00941067 10222 20094 53005,M
LSV,2021-09-01 11:58,-115.0343,36.2362,570.00,76.80,67.00,72.00,70.00,8.00,T,29.75,1005.00,10.00,M,BKN,M,M,M,14000.00,M,M,M,M,M,M,M,M,M,M,76.80,KLSV 011158Z AUTO 07008KT 10SM BKN140 25/20 A2975 RMK AO2 DZB17E27 SLP050 P0000 60000 7//// T02490195 10298 20246 53008 $,M
INS,2021-09-01 11:58,-115.6733,36.5872,955.00,74.00,61.30,64.75,110.00,14.00,0.00,29.76,1002.50,10.00,M,BKN,M,M,M,16000.00,M,M,M,M,M,M,M,M,M,M,73.90,KINS 011158Z AUTO 11014KT 10SM BKN160 23/16 A2976 RMK AO2 SLP025 T02330163 10276 20233 53003 $,M
RTS,2021-09-01 12:15,-119.8764,39.6682,1539.00,44.60,12.20,26.45,320.00,6.00,0.00,29.93,M,10.00,M,CLR,M,M,M,M,M,M,M,M,M,M,M,M,M,M,40.71,KRTS 011215Z AUTO 32006KT 10SM CLR 07/M11 A2993 RMK AO2,M
BVU,2021-09-01 12:15,-114.8611,35.9475,671.00,73.40,66.20,78.19,0.00,0.00,0.00,29.78,M,10.00,M,FEW,SCT,BKN,M,4100.00,7500.00,9000.00,M,M,M,M,M,M,M,M,73.40,KBVU 011215Z AUTO 00000KT 10SM FEW041 SCT075 BKN090 23/19 A2978 RMK AO2,M
TMT,2021-09-01 12:15,-117.1971,39.4643,1749.34,38.00,11.30,32.94,0.00,0.00,0.00,29.96,M,10.00,M,CLR,M,M,M,M,M,M,M,M,M,M,M,M,M,M,37.90,KTMT 011215Z AUTO 00000KT 10SM CLR 03/M11 A2996 RMK AO2 T00331115,M
MEV,2021-09-01 12:15,-119.7500,38.9963,1441.42,37.40,26.60,64.70,0.00,0.00,0.00,29.90,M,6.00,M,BKN,BKN,OVC,M,2300.00,3000.00,6000.00,M,HZ,M,M,M,M,M,M,37.40,KMEV 011215Z AUTO 00000KT 6SM HZ BKN023 BKN030 OVC060 03/M03 A2990 RMK AO2,M
BAM,2021-09-01 12:15,-116.8743,40.5990,1382.36,44.60,21.20,39.06,0.00,0.00,0.00,29.89,M,10.00,M,CLR,M,M,M,M,M,M,M,M,M,M,M,M,M,M,44.60,KBAM 011215Z AUTO 00000KT 10SM CLR 07/M06 A2989 RMK AO1,M
HTH,2021-09-01 12:15,-118.6315,38.5448,1282.89,62.60,21.20,20.20,240.00,3.00,0.00,29.86,M,5.00,M,OVC,M,M,M,4600.00,M,M,M,HZ,M,M,M,M,M,M,62.60,KHTH 011215Z AUTO 24003KT 5SM HZ OVC046 17/M06 A2986 RMK A01,M
CXP,2021-09-01 12:15,-119.7326,39.1923,1431.00,48.20,19.40,31.57,0.00,0.00,0.00,29.91,M,5.00,M,BKN,OVC,M,M,2900.00,3300.00,M,M,HZ,M,M,M,M,M,M,48.20,KCXP 011215Z AUTO 00000KT 5SM HZ BKN029 OVC033 09/M07 A2991 RMK AO2,M
HTH,2021-09-01 12:35,-118.6315,38.5448,1282.89,60.80,24.80,25.04,210.00,4.00,0.00,29.86,M,5.00,M,OVC,M,M,M,4800.00,M,M,M,HZ,M,M,M,M,M,M,60.80,KHTH 011235Z AUTO 21004KT 5SM HZ OVC048 16/M04 A2986 RMK A01,M
MEV,2021-09-01 12:35,-119.7500,38.9963,1441.42,33.80,21.20,59.53,110.00,3.00,0.00,29.90,M,10.00,M,OVC,M,M,M,2200.00,M,M,M,M,M,M,M,M,M,M,30.75,KMEV 011235Z AUTO 11003KT 10SM OVC022 01/M06 A2990 RMK AO2,M
RTS,2021-09-01 12:35,-119.8764,39.6682,1539.00,44.60,10.40,24.42,320.00,5.00,0.00,29.93,M,10.00,M,FEW,FEW,M,M,3000.00,3900.00,M,M,M,M,M,M,M,M,M,41.36,KRTS 011235Z AUTO 32005KT 10SM FEW030 FEW039 07/M12 A2993 RMK AO2,M
TMT,2021-09-01 12:35,-117.1971,39.4643,1749.34,35.00,9.50,33.95,0.00,0.00,0.00,29.96,M,10.00,M,CLR,M,M,M,M,M,M,M,M,M,M,M,M,M,M,35.10,KTMT 011235Z AUTO 00000KT 10SM CLR 02/M12 A2996 RMK AO2 T00171125,M
BVU,2021-09-01 12:35,-114.8611,35.9475,671.00,73.40,66.20,78.19,0.00,0.00,0.00,29.79,M,10.00,M,BKN,BKN,OVC,M,7500.00,8500.00,11000.00,M,-RA,M,M,M,M,M,M,73.40,KBVU 011235Z AUTO 00000KT 10SM -RA BKN075 BKN085 OVC110 23/19 A2979 RMK AO2,M
CXP,2021-09-01 12:35,-119.7326,39.1923,1431.00,48.20,17.60,29.23,0.00,0.00,0.00,29.91,M,5.00,M,BKN,OVC,M,M,3100.00,5500.00,M,M,HZ,M,M,M,M,M,M,48.20,KCXP 011235Z AUTO 00000KT 5SM HZ BKN031 OVC055 09/M08 A2991 RMK AO2,M
BAM,2021-09-01 12:35,-116.8743,40.5990,1382.36,46.40,23.00,39.36,0.00,0.00,0.00,29.89,M,10.00,M,CLR,M,M,M,M,M,M,M,M,M,M,M,M,M,M,46.40,KBAM 011235Z AUTO 00000KT 10SM CLR 08/M05 A2989 RMK AO1,M
VGT,2021-09-01 12:53,-115.1933,36.2111,667.00,77.00,65.00,66.27,100.00,7.00,0.00,29.77,1007.30,10.00,M,SCT,M,M,M,11000.00,M,M,M,M,M,M,M,M,M,M,77.00,KVGT 011253Z 10007KT 10SM SCT110 25/18 A2977 RMK AO2 SLP073 T02500183,M
DRA,2021-09-01 12:53,-116.0278,36.6206,1009.00,74.00,58.00,57.36,330.00,5.00,0.00,29.78,1003.00,10.00,M,CLR,M,M,M,M,M,M,M,M,M,M,M,M,M,M,73.90,KDRA 011253Z AUTO 33005KT 10SM CLR 23/14 A2978 RMK AO2 SLP030 T02330144,M
P68,2021-09-01 12:53,-116.0056,39.6014,1993.00,42.00,18.00,37.49,0.00,0.00,0.00,29.94,1006.10,M,M,M,M,M,M,M,M,M,M,M,M,M,M,M,M,M,42.10,KP68 011253Z AUTO 00000KT 06/M08 A2994 RMK AO1 SLP061 T00561078,M
LOL,2021-09-01 12:53,-118.5701,40.0684,1192.43,61.00,21.00,21.19,350.00,9.00,0.00,29.85,1006.60,9.00,M,CLR,M,M,M,M,M,M,M,M,M,M,M,M,M,M,61.00,KLOL 011253Z AUTO 35009KT 9SM CLR 16/M06 A2985 RMK AO2 SLP066 T01611061,M
ELY,2021-09-01 12:53,-114.8453,39.2950,1909.00,50.00,39.00,65.75,180.00,7.00,0.00,29.96,1005.00,10.00,M,CLR,M,M,M,M,M,M,M,M,M,M,M,M,M,M,50.00,KELY 011253Z AUTO 18007KT 10SM CLR 10/04 A2996 RMK AO2 SLP050 T01000039,M
RNO,2021-09-01 12:55,-119.7711,39.4839,1341.00,53.00,27.00,36.22,0.00,0.00,0.00,29.90,1007.10,10.00,M,CLR,M,M,M,M,M,M,M,M,M,M,M,M,M,M,53.10,KRNO 011255Z 00000KT 10SM CLR 12/M03 A2990 RMK AO2 SLP071 FU ALQDS T01171028 $,M
BVU,2021-09-01 12:55,-114.8611,35.9475,671.00,73.40,66.20,78.19,0.00,0.00,0.00,29.80,M,10.00,M,FEW,OVC,M,M,4700.00,7000.00,M,M,M,M,M,M,M,M,M,73.40,KBVU 011255Z AUTO 00000KT 10SM FEW047 OVC070 23/19 A2980 RMK AO2,M
CXP,2021-09-01 12:55,-119.7326,39.1923,1431.00,48.20,21.20,34.09,0.00,0.00,0.00,29.91,M,6.00,M,BKN,OVC,M,M,3200.00,5500.00,M,M,HZ,M,M,M,M,M,M,48.20,KCXP 011255Z AUTO 00000KT 6SM HZ BKN032 OVC055 09/M06 A2991 RMK AO2,M
RTS,2021-09-01 12:55,-119.8764,39.6682,1539.00,44.60,10.40,24.42,350.00,6.00,0.00,29.93,M,10.00,M,CLR,M,M,M,M,M,M,M,M,M,M,M,M,M,M,40.71,KRTS 011255Z AUTO 35006KT 10SM CLR 07/M12 A2993 RMK AO2,M
MEV,2021-09-01 12:55,-119.7500,38.9963,1441.42,35.60,21.20,55.41,120.00,4.00,0.00,29.90,M,9.00,M,BKN,OVC,M,M,2000.00,2600.00,M,M,M,M,M,M,M,M,M,31.62,KMEV 011255Z AUTO 12004KT 9SM BKN020 OVC026 02/M06 A2990 RMK AO2,M
BAM,2021-09-01 12:55,-116.8743,40.5990,1382.36,46.40,23.00,39.36,250.00,4.00,0.00,29.89,M,10.00,M,CLR,M,M,M,M,M,M,M,M,M,M,M,M,M,M,44.24,KBAM 011255Z AUTO 25004KT 10SM CLR 08/M05 A2989 RMK AO1,M
HTH,2021-09-01 12:55,-118.6315,38.5448,1282.89,60.80,24.80,25.04,220.00,3.00,0.00,29.87,M,5.00,M,OVC,M,M,M,4900.00,M,M,M,HZ,M,M,M,M,M,M,60.80,KHTH 011255Z AUTO 22003KT 5SM HZ OVC049 16/M04 A2987 RMK A01,M
TMT,2021-09-01 12:55,-117.1971,39.4643,1749.34,32.20,8.80,36.95,0.00,0.00,0.00,29.97,M,10.00,M,CLR,M,M,M,M,M,M,M,M,M,M,M,M,M,M,32.20,KTMT 011255Z AUTO 00000KT 10SM CLR 00/M13 A2997 RMK AO2 T00011129,M
EKO,2021-09-01 12:56,-115.7860,40.8242,1367.00,47.00,23.00,38.62,20.00,4.00,0.00,29.91,1008.00,8.00,M,CLR,M,M,M,M,M,M,M,M,M,M,M,M,M,M,44.82,KEKO 011256Z AUTO 02004KT 8SM CLR 08/M05 A2991 RMK AO2 SLP080 T00831050,M
HND,2021-09-01 12:56,-115.1344,35.9729,742.79,73.00,67.00,81.20,0.00,0.00,0.01,29.81,1008.50,10.00,M,OVC,M,M,M,11000.00,M,M,M,-RA,M,M,M,M,M,M,73.00,KHND 011256Z 00000KT 10SM -RA OVC110 23/19 A2981 RMK AO2 SLP085 P0001 T02280194,M
LAS,2021-09-01 12:56,-115.1634,36.0719,663.00,76.00,65.00,68.73,110.00,5.00,0.00,29.79,1006.30,10.00,M,FEW,SCT,OVC,M,7000.00,11000.00,14000.00,M,M,M,M,M,M,M,M,75.90,KLAS 011256Z 11005KT 10SM FEW070 SCT110 OVC140 24/18 A2979 RMK AO2 SLP063 T02440183,M
TPH,2021-09-01 12:56,-117.0904,38.0505,1654.00,54.00,40.00,58.76,350.00,6.00,0.00,29.92,1005.70,10.00,M,CLR,M,M,M,M,M,M,M,M,M,M,M,M,M,M,54.00,KTPH 011256Z AUTO 35006KT 10SM CLR 12/04 A2992 RMK AO2 SLP057 T01220044,M
NFL,2021-09-01 12:56,-118.7010,39.4166,1199.00,49.00,17.10,27.86,0.00,0.00,0.00,29.84,1008.20,7.00,M,BKN,M,M,M,4900.00,M,M,M,M,M,M,M,M,M,M,48.90,KNFL 011256Z AUTO 00000KT 7SM BKN049 09/M08 A2984 RMK AO2 SLP082 T00941083,M
WMC,2021-09-01 12:56,-117.8072,40.9019,1315.00,41.00,21.00,44.47,160.00,5.00,0.00,29.89,1008.20,7.00,M,CLR,M,M,M,M,M,M,M,M,M,M,M,M,M,M,37.08,KWMC 011256Z AUTO 16005KT 7SM CLR 05/M06 A2989 RMK AO2 SLP082 T00501061 $,M
LSV,2021-09-01 12:58,-115.0343,36.2362,570.00,M,M,M,M,M,0.00,M,M,M,M,M,M,M,M,M,M,M,M,M,M,M,M,M,M,M,M,KLSV 011258Z AUTO M M M M M M RMK AO2 SLPNO RVRNO $,M
INS,2021-09-01 12:58,-115.6733,36.5872,955.00,73.40,61.30,65.85,120.00,12.00,0.00,29.78,1003.40,10.00,19.00,BKN,M,M,M,15000.00,M,M,M,M,M,M,M,M,M,M,73.40,KINS 011258Z AUTO 12012G19KT 10SM BKN150 23/16 A2978 RMK AO2 SLP034 T02300163 $,M
CXP,2021-09-01 13:10,-119.7326,39.1923,1431.00,48.20,21.20,34.09,0.00,0.00,0.00,29.92,M,5.00,M,BKN,OVC,M,M,3400.00,5500.00,M,M,HZ,M,M,M,M,M,M,48.20,KCXP 011310Z AUTO 00000KT 5SM HZ BKN034 OVC055 09/M06 A2992 RMK AO2,M
HTH,2021-09-01 13:15,-118.6315,38.5448,1282.89,60.80,24.80,25.04,250.00,3.00,0.00,29.87,M,5.00,M,OVC,M,M,M,4900.00,M,M,M,HZ,M,M,M,M,M,M,60.80,KHTH 011315Z AUTO 25003KT 5SM HZ OVC049 16/M04 A2987 RMK A01,M
BAM,2021-09-01 13:15,-116.8743,40.5990,1382.36,44.60,23.00,42.14,150.00,4.00,0.00,29.90,M,10.00,M,CLR,M,M,M,M,M,M,M,M,M,M,M,M,M,M,42.13,KBAM 011315Z AUTO 15004KT 10SM CLR 07/M05 A2990 RMK AO1,M
RTS,2021-09-01 13:15,-119.8764,39.6682,1539.00,44.60,12.20,26.45,350.00,4.00,0.00,29.93,M,10.00,M,CLR,M,M,M,M,M,M,M,M,M,M,M,M,M,M,42.13,KRTS 011315Z AUTO 35004KT 10SM CLR 07/M11 A2993 RMK AO2,M
BVU,2021-09-01 13:15,-114.8611,35.9475,671.00,73.40,66.20,78.19,0.00,0.00,0.00,29.80,M,10.00,M,FEW,SCT,BKN,M,3900.00,6500.00,7000.00,M,-DZ,M,M,M,M,M,M,73.40,KBVU 011315Z AUTO 00000KT 10SM -DZ FEW039 SCT065 BKN070 23/19 A2980 RMK AO2,M
MEV,2021-09-01 13:15,-119.7500,38.9963,1441.42,37.40,21.20,51.61,0.00,0.00,0.00,29.91,M,10.00,M,BKN,OVC,M,M,2000.00,2600.00,M,M,M,M,M,M,M,M,M,37.40,KMEV 011315Z AUTO 00000KT 10SM BKN020 OVC026 03/M06 A2991 RMK AO2,M
TMT,2021-09-01 13:15,-117.1971,39.4643,1749.34,31.60,6.00,33.50,170.00,3.00,0.00,29.97,M,10.00,M,CLR,M,M,M,M,M,M,M,M,M,M,M,M,M,M,28.23,KTMT 011315Z AUTO 17003KT 10SM CLR 00/M14 A2997 RMK AO2 T10021144,M
HTH,2021-09-01 13:35,-118.6315,38.5448,1282.89,60.80,23.00,23.23,230.00,5.00,0.00,29.88,M,4.00,M,BKN,BKN,M,M,5000.00,5500.00,M,M,HZ,M,M,M,M,M,M,60.80,KHTH 011335Z AUTO 23005KT 4SM HZ BKN050 BKN055 16/M05 A2988 RMK A01,M
CXP,2021-09-01 13:35,-119.7326,39.1923,1431.00,48.20,23.00,36.78,0.00,0.00,0.00,29.92,M,5.00,M,FEW,BKN,M,M,3600.00,5500.00,M,M,HZ,M,M,M,M,M,M,48.20,KCXP 011335Z AUTO 00000KT 5SM HZ FEW036 BKN055 09/M05 A2992 RMK AO2,M
BAM,2021-09-01 13:35,-116.8743,40.5990,1382.36,42.80,21.20,41.84,170.00,4.00,0.00,29.91,M,10.00,M,CLR,M,M,M,M,M,M,M,M,M,M,M,M,M,M,40.03,KBAM 011335Z AUTO 17004KT 10SM CLR 06/M06 A2991 RMK AO1,M
MEV,2021-09-01 13:35,-119.7500,38.9963,1441.42,35.60,19.40,51.33,0.00,0.00,0.00,29.92,M,10.00,M,FEW,SCT,BKN,M,1500.00,2000.00,2500.00,M,M,M,M,M,M,M,M,35.60,KMEV 011335Z AUTO 00000KT 10SM FEW015 SCT020 BKN025 02/M07 A2992 RMK AO2,M
RTS,2021-09-01 13:35,-119.8764,39.6682,1539.00,50.00,14.00,23.37,0.00,0.00,0.00,29.94,M,10.00,M,CLR,M,M,M,M,M,M,M,M,M,M,M,M,M,M,50.00,KRTS 011335Z AUTO 00000KT 10SM CLR 10/M10 A2994 RMK AO2,M
BVU,2021-09-01 13:35,-114.8611,35.9475,671.00,73.40,68.00,83.21,120.00,4.00,0.00,29.81,M,10.00,M,FEW,SCT,OVC,M,5500.00,7000.00,10000.00,M,M,M,M,M,M,M,M,73.40,KBVU 011335Z AUTO 12004KT 10SM FEW055 SCT070 OVC100 23/20 A2981 RMK AO2,M
TMT,2021-09-01 13:35,-117.1971,39.4643,1749.34,34.30,7.70,32.32,0.00,0.00,0.00,29.97,M,10.00,M,CLR,M,M,M,M,M,M,M,M,M,M,M,M,M,M,34.30,KTMT 011335Z AUTO 00000KT 10SM CLR 01/M13 A2997 RMK AO2 T00131135,M
ELY,2021-09-01 13:53,-114.8453,39.2950,1909.00,50.00,40.00,68.10,170.00,10.00,0.00,29.98,1005.80,10.00,M,CLR,M,M,M,M,M,M,M,M,M,M,M,M,M,M,50.00,KELY 011353Z AUTO 17010KT 10SM CLR 10/04 A2998 RMK AO2 SLP058 T01000044,M
VGT,2021-09-01 13:53,-115.1933,36.2111,667.00,78.00,64.00,61.92,100.00,6.00,0.00,29.79,1007.80,10.00,M,FEW,M,M,M,11000.00,M,M,M,M,M,M,M,M,M,M,78.10,KVGT 011353Z 10006KT 10SM FEW110 26/18 A2979 RMK AO2 SLP078 T02560178,M
LOL,2021-09-01 13:53,-118.5701,40.0684,1192.43,46.00,23.00,39.96,0.00,0.00,0.00,29.87,1008.20,6.00,M,CLR,M,M,M,M,M,M,M,HZ,M,M,M,M,M,M,46.00,KLOL 011353Z AUTO 00000KT 6SM HZ CLR 08/M05 A2987 RMK AO2 SLP082 T00781050,M
P68,2021-09-01 13:53,-116.0056,39.6014,1993.00,47.00,17.10,30.04,200.00,6.00,0.00,29.95,1006.70,M,M,M,M,M,M,M,M,M,M,M,M,M,M,M,M,M,43.48,KP68 011353Z AUTO 20006KT 08/M08 A2995 RMK AO1 SLP067 T00831083,M
DRA,2021-09-01 13:53,-116.0278,36.6206,1009.00,74.00,61.00,64.07,0.00,0.00,0.00,29.81,1004.30,10.00,M,CLR,M,M,M,M,M,M,M,M,M,M,M,M,M,M,73.90,KDRA 011353Z AUTO 00000KT 10SM CLR 23/16 A2981 RMK AO2 SLP043 T02330161,M
MEV,2021-09-01 13:55,-119.7500,38.9963,1441.42,35.60,24.80,64.46,130.00,4.00,0.00,29.92,M,8.00,M,FEW,SCT,M,M,2200.00,2700.00,M,M,M,M,M,M,M,M,M,31.62,KMEV 011355Z AUTO 13004KT 8SM FEW022 SCT027 02/M04 A2992 RMK AO2,M
CXP,2021-09-01 13:55,-119.7326,39.1923,1431.00,48.20,21.20,34.09,0.00,0.00,0.00,29.93,M,4.00,M,FEW,M,M,M,5000.00,M,M,M,HZ,M,M,M,M,M,M,48.20,KCXP 011355Z AUTO 00000KT 4SM HZ FEW050 09/M06 A2993 RMK AO2,M
RTS,2021-09-01 13:55,-119.8764,39.6682,1539.00,48.20,12.20,23.09,0.00,0.00,0.00,29.94,M,10.00,M,CLR,M,M,M,M,M,M,M,M,M,M,M,M,M,M,48.20,KRTS 011355Z AUTO 00000KT 10SM CLR 09/M11 A2994 RMK AO2,M
BVU,2021-09-01 13:55,-114.8611,35.9475,671.00,73.40,66.20,78.19,120.00,6.00,0.00,29.82,M,9.00,M,FEW,FEW,OVC,M,2700.00,5500.00,10000.00,M,M,M,M,M,M,M,M,73.40,KBVU 011355Z AUTO 12006KT 9SM FEW027 FEW055 OVC100 23/19 A2982 RMK AO2,M
BAM,2021-09-01 13:55,-116.8743,40.5990,1382.36,44.60,21.20,39.06,0.00,0.00,0.00,29.92,M,10.00,M,CLR,M,M,M,M,M,M,M,M,M,M,M,M,M,M,44.60,KBAM 011355Z AUTO 00000KT 10SM CLR 07/M06 A2992 RMK AO1,M
TMT,2021-09-01 13:55,-117.1971,39.4643,1749.34,34.20,9.50,35.19,0.00,0.00,0.00,29.98,M,10.00,M,CLR,M,M,M,M,M,M,M,M,M,M,M,M,M,M,34.20,KTMT 011355Z AUTO 00000KT 10SM CLR 01/M12 A2998 RMK AO2 T00121125,M
HTH,2021-09-01 13:55,-118.6315,38.5448,1282.89,60.80,23.00,23.23,190.00,5.00,0.00,29.88,M,4.00,M,FEW,FEW,M,M,5000.00,5500.00,M,M,HZ,M,M,M,M,M,M,60.80,KHTH 011355Z AUTO 19005KT 4SM HZ FEW050 FEW055 16/M05 A2988 RMK A01,M
RNO,2021-09-01 13:55,-119.7711,39.4839,1341.00,52.00,26.10,36.34,0.00,0.00,0.00,29.91,1007.70,10.00,M,CLR,M,M,M,M,M,M,M,M,M,M,M,M,M,M,52.00,KRNO 011355Z 00000KT 10SM CLR 11/M03 A2991 RMK AO2 SLP077 FU ALQDS T01111033 $,M
EKO,2021-09-01 13:56,-115.7860,40.8242,1367.00,45.00,23.00,41.50,80.00,3.00,0.00,29.94,1009.90,6.00,M,CLR,M,M,M,M,M,M,M,HZ,M,M,M,M,M,M,43.55,KEKO 011356Z AUTO 08003KT 6SM HZ CLR 07/M05 A2994 RMK AO2 SLP099 T00721050,M
WMC,2021-09-01 13:56,-117.8072,40.9019,1315.00,41.00,23.00,48.39,160.00,6.00,0.00,29.90,1009.10,6.00,M,CLR,M,M,M,M,M,M,M,HZ,M,M,M,M,M,M,36.37,KWMC 011356Z AUTO 16006KT 6SM HZ CLR 05/M05 A2990 RMK AO2 SLP091 T00501050 $,M
NFL,2021-09-01 13:56,-118.7010,39.4166,1199.00,49.00,19.90,31.42,250.00,4.00,0.00,29.86,1008.80,4.00,M,CLR,M,M,M,M,M,M,M,HZ,M,M,M,M,M,M,47.16,KNFL 011356Z AUTO 25004KT 4SM HZ CLR 09/M07 A2986 RMK AO2 SLP088 T00941067,M
TPH,2021-09-01 13:56,-117.0904,38.0505,1654.00,54.00,39.00,56.74,20.00,8.00,0.00,29.94,1006.50,6.00,M,CLR,M,M,M,M,M,M,M,HZ,M,M,M,M,M,M,54.00,KTPH 011356Z AUTO 02008KT 6SM HZ CLR 12/04 A2994 RMK AO2 SLP065 T01220039,M
LAS,2021-09-01 13:56,-115.1634,36.0719,663.00,75.00,66.00,73.59,100.00,5.00,T,29.81,1006.90,10.00,M,FEW,SCT,OVC,M,5500.00,11000.00,14000.00,M,-RA,M,M,M,M,M,M,75.00,KLAS 011356Z 10005KT 10SM -RA FEW055 SCT110 OVC140 24/19 A2981 RMK AO2 RAB21 SLP069 P0000 T02390189,M
HND,2021-09-01 13:56,-115.1344,35.9729,742.79,72.00,65.00,78.35,180.00,9.00,T,29.83,1009.40,10.00,M,OVC,M,M,M,10000.00,M,M,M,-RA,M,M,M,M,M,M,72.00,KHND 011356Z 18009KT 10SM -RA OVC100 22/18 A2983 RMK AO2 SLP094 P0000 T02220183,M
LSV,2021-09-01 13:58,-115.0343,36.2362,570.00,77.50,66.00,67.72,100.00,9.00,0.00,29.79,1006.40,10.00,M,CLR,M,M,M,M,M,M,M,M,M,M,M,M,M,M,77.50,KLSV 011358Z AUTO 10009KT 10SM CLR 25/19 A2979 RMK AO2 SLP064 T02530189 $,M
INS,2021-09-01 13:58,-115.6733,36.5872,955.00,73.00,61.00,66.04,100.00,7.00,0.00,29.81,1004.60,10.00,17.00,SCT,M,M,M,14000.00,M,M,M,M,M,M,M,M,M,M,73.00,KINS 011358Z AUTO 10007G17KT 10SM SCT140 23/16 A2981 RMK AO2 SLP046 T02280161 $,M
TMT,2021-09-01 14:15,-117.1971,39.4643,1749.34,37.60,11.30,33.33,0.00,0.00,0.00,29.99,M,10.00,M,CLR,M,M,M,M,M,M,M,M,M,M,M,M,M,M,37.60,KTMT 011415Z AUTO 00000KT 10SM CLR 03/M11 A2999 RMK AO2 T00311115,M
MEV,2021-09-01 14:15,-119.7500,38.9963,1441.42,37.40,17.60,44.25,0.00,0.00,0.00,29.93,M,10.00,M,CLR,M,M,M,M,M,M,M,M,M,M,M,M,M,M,37.40,KMEV 011415Z AUTO 00000KT 10SM CLR 03/M08 A2993 RMK AO2,M
RTS,2021-09-01 14:15,-119.8764,39.6682,1539.00,48.20,14.00,24.99,0.00,0.00,0.00,29.95,M,10.00,M,CLR,M,M,M,M,M,M,M,M,M,M,M,M,M,M,48.20,KRTS 011415Z AUTO 00000KT 10SM CLR 09/M10 A2995 RMK AO2,M
CXP,2021-09-01 14:15,-119.7326,39.1923,1431.00,48.20,23.00,36.78,0.00,0.00,0.00,29.93,M,4.00,M,CLR,M,M,M,M,M,M,M,HZ,M,M,M,M,M,M,48.20,KCXP 011415Z AUTO 00000KT 4SM HZ CLR 09/M05 A2993 RMK AO2,M
BAM,2021-09-01 14:15,-116.8743,40.5990,1382.36,46.40,21.20,36.48,160.00,3.00,0.00,29.92,M,10.00,M,CLR,M,M,M,M,M,M,M,M,M,M,M,M,M,M,45.15,KBAM 011415Z AUTO 16003KT 10SM CLR 08/M06 A2992 RMK AO1,M
BVU,2021-09-01 14:15,-114.8611,35.9475,671.00,73.40,66.20,78.19,120.00,7.00,0.00,29.83,M,10.00,M,OVC,M,M,M,10000.00,M,M,M,M,M,M,M,M,M,M,73.40,KBVU 011415Z AUTO 12007KT 10SM OVC100 23/19 A2983 RMK AO2,M
HTH,2021-09-01 14:15,-118.6315,38.5448,1282.89,62.60,23.00,21.79,200.00,6.00,0.00,29.89,M,4.00,M,CLR,M,M,M,M,M,M,M,HZ,M,M,M,M,M,M,62.60,KHTH 011415Z AUTO 20006KT 4SM HZ CLR 17/M05 A2989 RMK A01,M
HTH,2021-09-01 14:35,-118.6315,38.5448,1282.89,62.60,24.80,23.50,190.00,3.00,0.00,29.89,M,5.00,M,CLR,M,M,M,M,M,M,M,HZ,M,M,M,M,M,M,62.60,KHTH 011435Z AUTO 19003KT 5SM HZ CLR 17/M04 A2989 RMK A01,M
BVU,2021-09-01 14:35,-114.8611,35.9475,671.00,71.60,66.20,83.09,120.00,6.00,0.00,29.82,M,10.00,M,OVC,M,M,M,11000.00,M,M,M,M,M,M,M,M,M,M,71.60,KBVU 011435Z AUTO 12006KT 10SM OVC110 22/19 A2982 RMK AO2,M
CXP,2021-09-01 14:35,-119.7326,39.1923,1431.00,50.00,23.00,34.39,0.00,0.00,0.00,29.94,M,4.00,M,FEW,M,M,M,3300.00,M,M,M,HZ,M,M,M,M,M,M,50.00,KCXP 011435Z AUTO 00000KT 4SM HZ FEW033 10/M05 A2994 RMK AO2,M
RTS,2021-09-01 14:35,-119.8764,39.6682,1539.00,46.40,12.20,24.71,0.00,0.00,0.00,29.95,M,9.00,M,CLR,M,M,M,M,M,M,M,M,M,M,M,M,M,M,46.40,KRTS 011435Z AUTO 00000KT 9SM CLR 08/M11 A2995 RMK AO2,M
MEV,2021-09-01 14:35,-119.7500,38.9963,1441.42,41.00,19.40,41.54,0.00,0.00,0.00,29.93,M,10.00,M,CLR,M,M,M,M,M,M,M,M,M,M,M,M,M,M,41.00,KMEV 011435Z AUTO 00000KT 10SM CLR 05/M07 A2993 RMK AO2,M
BAM,2021-09-01 14:35,-116.8743,40.5990,1382.36,50.00,24.80,37.08,0.00,0.00,0.00,29.92,M,10.00,M,CLR,M,M,M,M,M,M,M,M,M,M,M,M,M,M,50.00,KBAM 011435Z AUTO 00000KT 10SM CLR 10/M04 A2992 RMK AO1,M
TMT,2021-09-01 14:35,-117.1971,39.4643,1749.34,39.40,11.70,31.62,0.00,0.00,0.00,29.99,M,10.00,M,CLR,M,M,M,M,M,M,M,M,M,M,M,M,M,M,39.40,KTMT 011435Z AUTO 00000KT 10SM CLR 04/M11 A2999 RMK AO2 T00411113,M
NFL,2021-09-01 14:37,-118.7010,39.4166,1199.00,52.00,23.00,31.93,210.00,3.00,0.00,29.88,M,4.00,M,BKN,M,M,M,7000.00,M,M,M,HZ FU,M,M,M,M,M,M,52.00,KNFL 011437Z 21003KT 4SM HZ FU BKN070 11/M05 A2988 RMK AO2 FU BKN070 T01111050,M
ELY,2021-09-01 14:53,-114.8453,39.2950,1909.00,59.00,44.00,57.66,190.00,10.00,0.00,29.99,1005.50,10.00,M,CLR,M,M,M,M,M,M,M,M,M,M,M,M,M,M,59.00,KELY 011453Z AUTO 19010KT 10SM CLR 15/07 A2999 RMK AO2 SLP055 T01500067 51011,M
P68,2021-09-01 14:53,-116.0056,39.6014,1993.00,57.00,30.90,36.86,190.00,3.00,0.00,29.96,1007.30,M,M,M,M,M,M,M,M,M,M,M,M,M,M,M,M,M,57.00,KP68 011453Z AUTO 19003KT 14/M01 A2996 RMK AO1 SLP073 T01391006 51011,M
LOL,2021-09-01 14:53,-118.5701,40.0684,1192.43,53.00,27.00,36.22,240.00,4.00,0.00,29.88,1008.20,5.00,M,CLR,M,M,M,M,M,M,M,HZ,M,M,M,M,M,M,53.10,KLOL 011453Z AUTO 24004KT 5SM HZ CLR 12/M03 A2988 RMK AO2 SLP082 T01171028 53011,M
DRA,2021-09-01 14:53,-116.0278,36.6206,1009.00,76.00,62.00,62.30,140.00,7.00,0.00,29.83,1005.00,10.00,M,CLR,M,M,M,M,M,M,M,M,M,M,M,M,M,M,75.90,KDRA 011453Z AUTO 14007KT 10SM CLR 24/17 A2983 RMK AO2 SLP050 T02440167 51023,M
VGT,2021-09-01 14:53,-115.1933,36.2111,667.00,78.00,64.00,61.92,120.00,8.00,0.00,29.81,1008.40,10.00,M,FEW,M,M,M,10000.00,M,M,M,M,M,M,M,M,M,M,78.10,KVGT 011453Z 12008KT 10SM FEW100 26/18 A2981 RMK AO2 SLP084 T02560178 51016,M
CXP,2021-09-01 14:55,-119.7326,39.1923,1431.00,51.80,21.20,29.82,300.00,4.00,0.00,29.94,M,4.00,M,BKN,M,M,M,3200.00,M,M,M,HZ,M,M,M,M,M,M,51.80,KCXP 011455Z AUTO 30004KT 4SM HZ BKN032 11/M06 A2994 RMK AO2,M
BVU,2021-09-01 14:55,-114.8611,35.9475,671.00,71.60,66.20,83.09,150.00,4.00,0.00,29.83,M,10.00,M,SCT,M,M,M,11000.00,M,M,M,M,M,M,M,M,M,M,71.60,KBVU 011455Z AUTO 15004KT 10SM SCT110 22/19 A2983 RMK AO2,M
TMT,2021-09-01 14:55,-117.1971,39.4643,1749.34,44.00,14.00,29.19,170.00,3.00,0.00,29.99,M,10.00,M,CLR,M,M,M,M,M,M,M,M,M,M,M,M,M,M,42.52,KTMT 011455Z AUTO 17003KT 10SM CLR 07/M10 A2999 RMK AO2 T00671100,M
RNO,2021-09-01 14:55,-119.7711,39.4839,1341.00,55.00,27.00,33.79,0.00,0.00,0.00,29.91,1008.10,10.00,M,SCT,M,M,M,5500.00,M,M,M,M,M,M,M,M,M,M,55.00,KRNO 011455Z 00000KT 10SM SCT055 13/M03 A2991 RMK AO2 SLP081 FU SCT055 HZ ALQDS T01281028 51008,M
RTS,2021-09-01 14:55,-119.8764,39.6682,1539.00,50.00,12.20,21.59,0.00,0.00,0.00,29.95,M,10.00,M,CLR,M,M,M,M,M,M,M,M,M,M,M,M,M,M,50.00,KRTS 011455Z AUTO 00000KT 10SM CLR 10/M11 A2995 RMK AO2,M
MEV,2021-09-01 14:55,-119.7500,38.9963,1441.42,46.40,23.00,39.36,0.00,0.00,0.00,29.93,M,10.00,M,CLR,M,M,M,M,M,M,M,M,M,M,M,M,M,M,46.40,KMEV 011455Z AUTO 00000KT 10SM CLR 08/M05 A2993 RMK AO2,M
BAM,2021-09-01 14:55,-116.8743,40.5990,1382.36,53.60,26.60,34.98,250.00,4.00,0.00,29.92,M,7.00,M,CLR,M,M,M,M,M,M,M,M,M,M,M,M,M,M,53.60,KBAM 011455Z AUTO 25004KT 7SM CLR 12/M03 A2992 RMK AO1,M
HTH,2021-09-01 14:55,-118.6315,38.5448,1282.89,66.20,23.00,19.22,0.00,0.00,0.00,29.89,M,4.00,M,CLR,M,M,M,M,M,M,M,HZ,M,M,M,M,M,M,66.20,KHTH 011455Z AUTO 00000KT 4SM HZ CLR 19/M05 A2989 RMK A01,M
LAS,2021-09-01 14:56,-115.1634,36.0719,663.00,75.00,64.00,68.64,M,3.00,T,29.82,1007.40,10.00,M,FEW,BKN,BKN,M,5500.00,12000.00,15000.00,M,M,M,M,M,M,M,M,75.00,KLAS 011456Z VRB03KT 10SM FEW055 BKN120 BKN150 24/18 A2982 RMK AO2 RAE18 SLP074 P0000 60000 T02390178 51017,M
NFL,2021-09-01 14:56,-118.7010,39.4166,1199.00,56.00,24.10,29.00,0.00,0.00,0.00,29.88,1009.30,4.00,M,BKN,M,M,M,7000.00,M,M,M,HZ FU,M,M,M,M,M,M,55.90,KNFL 011456Z 00000KT 4SM HZ FU BKN070 13/M04 A2988 RMK AO2 SLP093 FU BKN070 T01331044 53013,M
EKO,2021-09-01 14:56,-115.7860,40.8242,1367.00,50.00,23.00,34.39,60.00,5.00,0.00,29.95,1010.20,7.00,M,CLR,M,M,M,M,M,M,M,M,M,M,M,M,M,M,50.00,KEKO 011456Z AUTO 06005KT 7SM CLR 10/M05 A2995 RMK AO2 SLP102 T01001050 51014,M
WMC,2021-09-01 14:56,-117.8072,40.9019,1315.00,50.00,25.00,37.39,150.00,3.00,0.00,29.91,1009.80,6.00,M,CLR,M,M,M,M,M,M,M,HZ,M,M,M,M,M,M,50.00,KWMC 011456Z AUTO 15003KT 6SM HZ CLR 10/M04 A2991 RMK AO2 SLP098 T01001039 51009,M
HND,2021-09-01 14:56,-115.1344,35.9729,742.79,73.00,63.00,70.87,160.00,9.00,T,29.84,1009.70,10.00,M,BKN,M,M,M,9500.00,M,M,M,M,M,M,M,M,M,M,73.00,KHND 011456Z 16009KT 10SM BKN095 23/17 A2984 RMK AO2 RAE18 SLP097 P0000 60001 T02280172 51017,M
TPH,2021-09-01 14:56,-117.0904,38.0505,1654.00,59.00,39.00,47.35,360.00,7.00,0.00,29.95,1006.90,10.00,M,CLR,M,M,M,M,M,M,M,M,M,M,M,M,M,M,59.00,KTPH 011456Z AUTO 36007KT 10SM CLR 15/04 A2995 RMK AO2 SLP069 T01500039 51012,M
INS,2021-09-01 14:58,-115.6733,36.5872,955.00,75.40,61.00,60.93,100.00,13.00,0.00,29.83,1005.20,10.00,M,CLR,M,M,M,M,M,M,M,M,M,M,M,M,M,M,75.40,KINS 011458Z AUTO 10013KT 10SM CLR 24/16 A2983 RMK AO2 SLP052 T02410161 52020 $,M
LSV,2021-09-01 14:58,-115.0343,36.2362,570.00,77.20,67.50,72.04,90.00,5.00,0.00,29.80,M,10.00,M,CLR,M,M,M,M,M,M,M,M,M,M,M,M,M,M,77.20,KLSV 011458Z AUTO 09005KT 10SM CLR 25/20 A2980 RMK AO2 SLPNO T02510197 $,M
CXP,2021-09-01 15:10,-119.7326,39.1923,1431.00,53.60,19.40,25.85,0.00,0.00,0.00,29.94,M,4.00,M,BKN,BKN,M,M,3000.00,3500.00,M,M,HZ,M,M,M,M,M,M,53.60,KCXP 011510Z AUTO 00000KT 4SM HZ BKN030 BKN035 12/M07 A2994 RMK AO2,M
BVU,2021-09-01 15:15,-114.8611,35.9475,671.00,71.60,66.20,83.09,140.00,6.00,0.00,29.83,M,10.00,M,FEW,M,M,M,12000.00,M,M,M,M,M,M,M,M,M,M,71.60,KBVU 011515Z AUTO 14006KT 10SM FEW120 22/19 A2983 RMK AO2,M
BAM,2021-09-01 15:15,-116.8743,40.5990,1382.36,57.20,26.60,30.69,0.00,0.00,0.00,29.92,M,10.00,M,CLR,M,M,M,M,M,M,M,M,M,M,M,M,M,M,57.20,KBAM 011515Z AUTO 00000KT 10SM CLR 14/M03 A2992 RMK AO1,M
MEV,2021-09-01 15:15,-119.7500,38.9963,1441.42,50.00,21.20,31.87,0.00,0.00,0.00,29.93,M,8.00,M,CLR,M,M,M,M,M,M,M,M,M,M,M,M,M,M,50.00,KMEV 011515Z AUTO 00000KT 8SM CLR 10/M06 A2993 RMK AO2,M
TMT,2021-09-01 15:15,-117.1971,39.4643,1749.34,47.50,15.60,27.52,0.00,0.00,0.00,29.99,M,10.00,M,CLR,M,M,M,M,M,M,M,M,M,M,M,M,M,M,47.50,KTMT 011515Z AUTO 00000KT 10SM CLR 09/M09 A2999 RMK AO2 T00861091,M
HTH,2021-09-01 15:15,-118.6315,38.5448,1282.89,68.00,17.60,14.35,0.00,0.00,0.00,29.90,M,5.00,M,CLR,M,M,M,M,M,M,M,HZ,M,M,M,M,M,M,68.00,KHTH 011515Z AUTO 00000KT 5SM HZ CLR 20/M08 A2990 RMK A01,M
RTS,2021-09-01 15:15,-119.8764,39.6682,1539.00,53.60,14.00,20.46,0.00,0.00,0.00,29.95,M,9.00,M,CLR,M,M,M,M,M,M,M,M,M,M,M,M,M,M,53.60,KRTS 011515Z AUTO 00000KT 9SM CLR 12/M10 A2995 RMK AO2,M
MEV,2021-09-01 15:35,-119.7500,38.9963,1441.42,51.80,21.20,29.82,0.00,0.00,0.00,29.93,M,6.00,M,CLR,M,M,M,M,M,M,M,HZ,M,M,M,M,M,M,51.80,KMEV 011535Z AUTO 00000KT 6SM HZ CLR 11/M06 A2993 RMK AO2,M
HTH,2021-09-01 15:35,-118.6315,38.5448,1282.89,68.00,23.00,18.06,320.00,4.00,0.00,29.90,M,2.50,M,CLR,M,M,M,M,M,M,M,HZ,M,M,M,M,M,M,68.00,KHTH 011535Z AUTO 32004KT 2 1/2SM HZ CLR 20/M05 A2990 RMK A01,M
TMT,2021-09-01 15:35,-117.1971,39.4643,1749.34,51.00,16.70,25.23,0.00,0.00,0.00,29.99,M,5.00,M,CLR,M,M,M,M,M,M,M,HZ,M,M,M,M,M,M,51.10,KTMT 011535Z AUTO 00000KT 5SM HZ CLR 11/M08 A2999 RMK AO2 T01061085,M
BVU,2021-09-01 15:35,-114.8611,35.9475,671.00,71.60,66.20,83.09,160.00,7.00,0.00,29.83,M,10.00,M,FEW,M,M,M,11000.00,M,M,M,M,M,M,M,M,M,M,71.60,KBVU 011535Z AUTO 16007KT 10SM FEW110 22/19 A2983 RMK AO2,M
CXP,2021-09-01 15:35,-119.7326,39.1923,1431.00,55.40,17.60,22.41,0.00,0.00,0.00,29.94,M,5.00,M,FEW,M,M,M,3200.00,M,M,M,HZ,M,M,M,M,M,M,55.40,KCXP 011535Z AUTO 00000KT 5SM HZ FEW032 13/M08 A2994 RMK AO2,M
RTS,2021-09-01 15:35,-119.8764,39.6682,1539.00,57.20,14.00,17.95,0.00,0.00,0.00,29.95,M,9.00,M,CLR,M,M,M,M,M,M,M,M,M,M,M,M,M,M,57.20,KRTS 011535Z AUTO 00000KT 9SM CLR 14/M10 A2995 RMK AO2,M
BAM,2021-09-01 15:35,-116.8743,40.5990,1382.36,59.00,26.60,28.77,0.00,0.00,0.00,29.93,M,10.00,M,CLR,M,M,M,M,M,M,M,M,M,M,M,M,M,M,59.00,KBAM 011535Z AUTO 00000KT 10SM CLR 15/M03 A2993 RMK AO1,M
DRA,2021-09-01 15:53,-116.0278,36.6206,1009.00,78.00,60.00,53.95,0.00,0.00,0.00,29.84,1005.10,10.00,M,CLR,M,M,M,M,M,M,M,M,M,M,M,M,M,M,78.10,KDRA 011553Z AUTO 00000KT 10SM CLR 26/16 A2984 RMK AO2 SLP051 T02560156,M
P68,2021-09-01 15:53,-116.0056,39.6014,1993.00,59.00,19.00,20.90,190.00,3.00,0.00,29.97,1008.20,M,M,M,M,M,M,M,M,M,M,M,M,M,M,M,M,M,59.00,KP68 011553Z AUTO 19003KT 15/M07 A2997 RMK AO1 SLP082 T01501072,M
LOL,2021-09-01 15:53,-118.5701,40.0684,1192.43,64.00,25.00,22.56,80.00,3.00,0.00,29.88,1007.90,8.00,M,FEW,M,M,M,6500.00,M,M,M,M,M,M,M,M,M,M,64.00,KLOL 011553Z AUTO 08003KT 8SM FEW065 18/M04 A2988 RMK AO2 SLP079 T01781039,M
VGT,2021-09-01 15:53,-115.1933,36.2111,667.00,78.00,65.00,63.90,120.00,6.00,0.00,29.82,1008.80,10.00,M,FEW,M,M,M,11000.00,M,M,M,M,M,M,M,M,M,M,78.10,KVGT 011553Z 12006KT 10SM FEW110 26/18 A2982 RMK AO2 SLP088 T02560183,M
ELY,2021-09-01 15:53,-114.8453,39.2950,1909.00,64.00,47.00,53.72,200.00,6.00,0.00,30.00,1005.70,10.00,M,CLR,M,M,M,M,M,M,M,M,M,M,M,M,M,M,64.00,KELY 011553Z AUTO 20006KT 10SM CLR 18/08 A3000 RMK AO2 SLP057 T01780083,M
BVU,2021-09-01 15:55,-114.8611,35.9475,671.00,73.40,68.00,83.21,150.00,5.00,0.00,29.84,M,10.00,M,CLR,M,M,M,M,M,M,M,M,M,M,M,M,M,M,73.40,KBVU 011555Z AUTO 15005KT 10SM CLR 23/20 A2984 RMK AO2,M
BAM,2021-09-01 15:55,-116.8743,40.5990,1382.36,60.80,26.60,26.98,0.00,0.00,0.00,29.93,M,10.00,M,CLR,M,M,M,M,M,M,M,M,M,M,M,M,M,M,60.80,KBAM 011555Z AUTO 00000KT 10SM CLR 16/M03 A2993 RMK AO1,M
HTH,2021-09-01 15:55,-118.6315,38.5448,1282.89,68.00,26.60,20.98,320.00,5.00,0.00,29.90,M,5.00,M,CLR,M,M,M,M,M,M,M,HZ,M,M,M,M,M,M,68.00,KHTH 011555Z AUTO 32005KT 5SM HZ CLR 20/M03 A2990 RMK A01,M
TMT,2021-09-01 15:55,-117.1971,39.4643,1749.34,52.50,19.60,27.14,0.00,0.00,0.00,29.99,M,10.00,M,CLR,M,M,M,M,M,M,M,M,M,M,M,M,M,M,52.50,KTMT 011555Z AUTO 00000KT 10SM CLR 11/M07 A2999 RMK AO2 T01141069,M
RTS,2021-09-01 15:55,-119.8764,39.6682,1539.00,60.80,14.00,15.78,0.00,0.00,0.00,29.95,M,10.00,M,CLR,M,M,M,M,M,M,M,M,M,M,M,M,M,M,60.80,KRTS 011555Z AUTO 00000KT 10SM CLR 16/M10 A2995 RMK AO2,M
CXP,2021-09-01 15:55,-119.7326,39.1923,1431.00,55.40,21.20,26.13,0.00,0.00,0.00,29.94,M,4.00,M,CLR,M,M,M,M,M,M,M,HZ,M,M,M,M,M,M,55.40,KCXP 011555Z AUTO 00000KT 4SM HZ CLR 13/M06 A2994 RMK AO2,M
MEV,2021-09-01 15:55,-119.7500,38.9963,1441.42,53.60,23.00,30.11,0.00,0.00,0.00,29.93,M,3.00,M,CLR,M,M,M,M,M,M,M,HZ,M,M,M,M,M,M,53.60,KMEV 011555Z AUTO 00000KT 3SM HZ CLR 12/M05 A2993 RMK AO2,M
RNO,2021-09-01 15:55,-119.7711,39.4839,1341.00,60.00,21.00,21.88,0.00,0.00,0.00,29.92,1008.00,9.00,M,BKN,M,M,M,5000.00,M,M,M,M,M,M,M,M,M,M,60.10,KRNO 011555Z 00000KT 9SM BKN050 16/M06 A2992 RMK AO2 SLP080 FU BKN050 HZ ALQDS T01561061,M
EKO,2021-09-01 15:56,-115.7860,40.8242,1367.00,57.00,25.00,28.93,0.00,0.00,0.00,29.95,1010.00,8.00,M,CLR,M,M,M,M,M,M,M,M,M,M,M,M,M,M,57.00,KEKO 011556Z AUTO 00000KT 8SM CLR 14/M04 A2995 RMK AO2 SLP100 T01391039,M
LAS,2021-09-01 15:56,-115.1634,36.0719,663.00,77.00,63.00,62.00,180.00,4.00,0.00,29.83,1007.60,10.00,M,FEW,SCT,BKN,M,5500.00,12000.00,16000.00,M,M,M,M,M,M,M,M,77.00,KLAS 011556Z 18004KT 10SM FEW055 SCT120 BKN160 25/17 A2983 RMK AO2 SLP076 ACC DSNT NW T02500172,M
HND,2021-09-01 15:56,-115.1344,35.9729,742.79,74.00,64.00,71.21,160.00,13.00,0.00,29.85,1010.00,10.00,M,CLR,M,M,M,M,M,M,M,M,M,M,M,M,M,M,73.90,KHND 011556Z 16013KT 10SM CLR 23/18 A2985 RMK AO2 SLP100 T02330178,M
WMC,2021-09-01 15:56,-117.8072,40.9019,1315.00,59.00,24.10,25.93,0.00,0.00,0.00,29.91,1008.90,7.00,M,CLR,M,M,M,M,M,M,M,M,M,M,M,M,M,M,59.00,KWMC 011556Z AUTO 00000KT 7SM CLR 15/M04 A2991 RMK AO2 SLP089 T01501044,M
TPH,2021-09-01 15:56,-117.0904,38.0505,1654.00,67.00,44.00,43.67,360.00,3.00,0.00,29.96,1006.70,10.00,M,CLR,M,M,M,M,M,M,M,M,M,M,M,M,M,M,66.90,KTPH 011556Z AUTO 36003KT 10SM CLR 19/07 A2996 RMK AO2 SLP067 T01940067,M
INS,2021-09-01 15:58,-115.6733,36.5872,955.00,78.00,60.40,54.89,100.00,11.00,0.00,29.84,1005.40,10.00,M,CLR,M,M,M,M,M,M,M,M,M,M,M,M,M,M,77.90,KINS 011558Z AUTO 10011KT 10SM CLR 26/16 A2984 RMK AO2 SLP054 T02550158 $,M
LSV,2021-09-01 15:58,-115.0343,36.2362,570.00,78.00,67.50,69.93,0.00,0.00,0.00,29.81,M,10.00,M,FEW,FEW,M,M,14000.00,18000.00,M,M,M,M,M,M,M,M,M,78.10,KLSV 011558Z AUTO 00000KT 10SM FEW140 FEW180 26/20 A2981 RMK AO2 SLPNO T02560197 $,M
CXP,2021-09-01 16:15,-119.7326,39.1923,1431.00,59.00,21.20,22.95,0.00,0.00,0.00,29.94,M,3.00,M,CLR,M,M,M,M,M,M,M,HZ,M,M,M,M,M,M,59.00,KCXP 011615Z AUTO 00000KT 3SM HZ CLR 15/M06 A2994 RMK AO2,M
RTS,2021-09-01 16:15,-119.8764,39.6682,1539.00,60.80,23.00,23.23,0.00,0.00,0.00,29.95,M,10.00,M,CLR,M,M,M,M,M,M,M,M,M,M,M,M,M,M,60.80,KRTS 011615Z AUTO 00000KT 10SM CLR 16/M05 A2995 RMK AO2,M
MEV,2021-09-01 16:15,-119.7500,38.9963,1441.42,57.20,19.40,22.68,0.00,0.00,0.00,29.93,M,3.00,M,CLR,M,M,M,M,M,M,M,HZ,M,M,M,M,M,M,57.20,KMEV 011615Z AUTO 00000KT 3SM HZ CLR 14/M07 A2993 RMK AO2,M
TMT,2021-09-01 16:15,-117.1971,39.4643,1749.34,54.00,18.90,24.93,0.00,0.00,0.00,29.99,M,10.00,M,CLR,M,M,M,M,M,M,M,M,M,M,M,M,M,M,54.00,KTMT 011615Z AUTO 00000KT 10SM CLR 12/M07 A2999 RMK AO2 T01221073,M
BAM,2021-09-01 16:15,-116.8743,40.5990,1382.36,64.40,26.60,23.77,0.00,0.00,0.00,29.93,M,10.00,M,CLR,M,M,M,M,M,M,M,M,M,M,M,M,M,M,64.40,KBAM 011615Z AUTO 00000KT 10SM CLR 18/M03 A2993 RMK AO1,M
HTH,2021-09-01 16:15,-118.6315,38.5448,1282.89,68.00,26.60,20.98,310.00,5.00,0.00,29.90,M,4.00,M,CLR,M,M,M,M,M,M,M,HZ,M,M,M,M,M,M,68.00,KHTH 011615Z AUTO 31005KT 4SM HZ CLR 20/M03 A2990 RMK A01,M
BVU,2021-09-01 16:15,-114.8611,35.9475,671.00,75.20,64.40,69.14,170.00,5.00,0.00,29.84,M,10.00,M,CLR,M,M,M,M,M,M,M,M,M,M,M,M,M,M,75.20,KBVU 011615Z AUTO 17005KT 10SM CLR 24/18 A2984 RMK AO2,M
BAM,2021-09-01 16:35,-116.8743,40.5990,1382.36,66.20,26.60,22.33,340.00,3.00,0.00,29.93,M,10.00,M,CLR,M,M,M,M,M,M,M,M,M,M,M,M,M,M,66.20,KBAM 011635Z AUTO 34003KT 10SM CLR 19/M03 A2993 RMK AO1,M
TMT,2021-09-01 16:35,-117.1971,39.4643,1749.34,57.20,16.20,19.76,0.00,0.00,0.00,29.99,M,10.00,M,CLR,M,M,M,M,M,M,M,M,M,M,M,M,M,M,57.20,KTMT 011635Z AUTO 00000KT 10SM CLR 14/M09 A2999 RMK AO2 T01401088,M
MEV,2021-09-01 16:35,-119.7500,38.9963,1441.42,60.80,19.40,19.94,0.00,0.00,0.00,29.93,M,3.00,M,CLR,M,M,M,M,M,M,M,HZ,M,M,M,M,M,M,60.80,KMEV 011635Z AUTO 00000KT 3SM HZ CLR 16/M07 A2993 RMK AO2,M
RTS,2021-09-01 16:35,-119.8764,39.6682,1539.00,62.60,19.40,18.71,0.00,0.00,0.00,29.95,M,10.00,M,CLR,M,M,M,M,M,M,M,M,M,M,M,M,M,M,62.60,KRTS 011635Z AUTO 00000KT 10SM CLR 17/M07 A2995 RMK AO2,M
CXP,2021-09-01 16:35,-119.7326,39.1923,1431.00,60.80,23.00,23.23,0.00,0.00,0.00,29.94,M,3.00,M,CLR,M,M,M,M,M,M,M,HZ,M,M,M,M,M,M,60.80,KCXP 011635Z AUTO 00000KT 3SM HZ CLR 16/M05 A2994 RMK AO2,M
BVU,2021-09-01 16:35,-114.8611,35.9475,671.00,75.20,62.60,64.91,140.00,7.00,0.00,29.84,M,10.00,M,CLR,M,M,M,M,M,M,M,M,M,M,M,M,M,M,75.20,KBVU 011635Z AUTO 14007KT 10SM CLR 24/17 A2984 RMK AO2,M
HTH,2021-09-01 16:35,-118.6315,38.5448,1282.89,69.80,23.00,16.98,340.00,3.00,0.00,29.90,M,5.00,M,CLR,M,M,M,M,M,M,M,HZ,M,M,M,M,M,M,69.80,KHTH 011635Z AUTO 34003KT 5SM HZ CLR 21/M05 A2990 RMK A01,M
VGT,2021-09-01 16:53,-115.1933,36.2111,667.00,80.00,65.00,59.83,130.00,4.00,0.00,29.82,1008.80,10.00,M,CLR,M,M,M,M,M,M,M,M,M,M,M,M,M,M,81.91,KVGT 011653Z 13004KT 10SM CLR 27/18 A2982 RMK AO2 SLP088 T02670183,M
LOL,2021-09-01 16:53,-118.5701,40.0684,1192.43,73.00,19.90,13.36,30.00,6.00,0.00,29.89,1008.00,10.00,M,SCT,M,M,M,7000.00,M,M,M,M,M,M,M,M,M,M,73.00,KLOL 011653Z AUTO 03006KT 10SM SCT070 23/M07 A2989 RMK AO2 SLP080 T02281067,M
DRA,2021-09-01 16:53,-116.0278,36.6206,1009.00,83.00,57.00,41.27,0.00,0.00,0.00,29.84,1005.20,10.00,M,CLR,M,M,M,M,M,M,M,M,M,M,M,M,M,M,82.41,KDRA 011653Z AUTO 00000KT 10SM CLR 28/14 A2984 RMK AO2 SLP052 T02830139,M
P68,2021-09-01 16:53,-116.0056,39.6014,1993.00,69.00,19.90,15.25,0.00,0.00,0.00,29.97,1007.80,M,M,M,M,M,M,M,M,M,M,M,M,M,M,M,M,M,69.10,KP68 011653Z AUTO 00000KT 21/M07 A2997 RMK AO1 SLP078 T02061067,M
ELY,2021-09-01 16:53,-114.8453,39.2950,1909.00,69.00,47.00,45.02,M,M,0.00,30.00,1006.00,10.00,M,CLR,M,M,M,M,M,M,M,M,M,M,M,M,M,M,69.10,KELY 011653Z AUTO 10SM CLR 21/08 A3000 RMK AO2 SLP060 T02060083,M
TMT,2021-09-01 16:55,-117.1971,39.4643,1749.34,60.30,17.60,18.79,0.00,0.00,0.00,29.99,M,10.00,M,CLR,M,M,M,M,M,M,M,M,M,M,M,M,M,M,60.30,KTMT 011655Z AUTO 00000KT 10SM CLR 16/M08 A2999 RMK AO2 T01571080,M
RNO,2021-09-01 16:55,-119.7711,39.4839,1341.00,65.00,23.00,20.11,0.00,0.00,0.00,29.92,1008.30,8.00,M,BKN,M,M,M,4900.00,M,M,M,M,M,M,M,M,M,M,64.90,KRNO 011655Z 00000KT 8SM BKN049 18/M05 A2992 RMK AO2 SLP083 FU BKN049 HZ ALQDS T01831050,M
CXP,2021-09-01 16:55,-119.7326,39.1923,1431.00,64.40,21.20,18.96,0.00,0.00,0.00,29.94,M,3.00,M,CLR,M,M,M,M,M,M,M,HZ,M,M,M,M,M,M,64.40,KCXP 011655Z AUTO 00000KT 3SM HZ CLR 18/M06 A2994 RMK AO2,M
RTS,2021-09-01 16:55,-119.8764,39.6682,1539.00,68.00,14.00,12.27,130.00,5.00,0.00,29.95,M,10.00,M,CLR,M,M,M,M,M,M,M,M,M,M,M,M,M,M,68.00,KRTS 011655Z AUTO 13005KT 10SM CLR 20/M10 A2995 RMK AO2,M
BVU,2021-09-01 16:55,-114.8611,35.9475,671.00,75.20,64.40,69.14,130.00,5.00,0.00,29.85,M,10.00,M,CLR,M,M,M,M,M,M,M,M,M,M,M,M,M,M,75.20,KBVU 011655Z AUTO 13005KT 10SM CLR 24/18 A2985 RMK AO2,M
HTH,2021-09-01 16:55,-118.6315,38.5448,1282.89,71.60,30.20,21.50,0.00,0.00,0.00,29.90,M,6.00,M,CLR,M,M,M,M,M,M,M,HZ,M,M,M,M,M,M,71.60,KHTH 011655Z AUTO 00000KT 6SM HZ CLR 22/M01 A2990 RMK A01,M
BAM,2021-09-01 16:55,-116.8743,40.5990,1382.36,68.00,28.40,22.59,360.00,4.00,0.00,29.93,M,10.00,M,CLR,M,M,M,M,M,M,M,M,M,M,M,M,M,M,68.00,KBAM 011655Z AUTO 36004KT 10SM CLR 20/M02 A2993 RMK AO1,M
MEV,2021-09-01 16:55,-119.7500,38.9963,1441.42,62.60,23.00,21.79,0.00,0.00,0.00,29.92,M,2.50,M,CLR,M,M,M,M,M,M,M,HZ,M,M,M,M,M,M,62.60,KMEV 011655Z AUTO 00000KT 2 1/2SM HZ CLR 17/M05 A2992 RMK AO2,M
HND,2021-09-01 16:56,-115.1344,35.9729,742.79,78.00,62.00,57.92,160.00,7.00,0.00,29.86,1010.10,10.00,M,CLR,M,M,M,M,M,M,M,M,M,M,M,M,M,M,78.10,KHND 011656Z 16007KT 10SM CLR 26/17 A2986 RMK AO2 SLP101 T02560167,M
TPH,2021-09-01 16:56,-117.0904,38.0505,1654.00,71.00,44.00,37.81,190.00,3.00,0.00,29.97,1006.80,10.00,M,CLR,M,M,M,M,M,M,M,M,M,M,M,M,M,M,71.10,KTPH 011656Z AUTO 19003KT 10SM CLR 22/07 A2997 RMK AO2 SLP068 T02170067,M
WMC,2021-09-01 16:56,-117.8072,40.9019,1315.00,68.00,24.10,18.91,M,3.00,0.00,29.91,1008.80,10.00,M,CLR,M,M,M,M,M,M,M,M,M,M,M,M,M,M,68.00,KWMC 011656Z AUTO VRB03KT 10SM CLR 20/M04 A2991 RMK AO2 SLP088 T02001044,M
NFL,2021-09-01 16:56,-118.7010,39.4166,1199.00,70.00,23.00,16.86,0.00,0.00,0.00,29.89,1009.60,4.00,M,BKN,M,M,M,7000.00,M,M,M,FU,M,M,M,M,M,M,70.00,KNFL 011656Z 00000KT 4SM FU BKN070 21/M05 A2989 RMK SLP096 FU BKH070 T02111050,M
LAS,2021-09-01 16:56,-115.1634,36.0719,663.00,79.00,62.00,56.23,130.00,5.00,0.00,29.84,1007.80,10.00,M,FEW,BKN,M,M,5500.00,15000.00,M,M,M,M,M,M,M,M,M,79.00,KLAS 011656Z 13005KT 10SM FEW055 BKN150 26/17 A2984 RMK AO2 SLP078 T02610167,M
EKO,2021-09-01 16:56,-115.7860,40.8242,1367.00,64.00,26.10,23.61,30.00,3.00,0.00,29.95,1010.20,8.00,M,CLR,M,M,M,M,M,M,M,M,M,M,M,M,M,M,64.00,KEKO 011656Z AUTO 03003KT 8SM CLR 18/M03 A2995 RMK AO2 SLP102 T01781033,M
LSV,2021-09-01 16:58,-115.0343,36.2362,570.00,78.80,66.40,65.78,110.00,4.00,0.00,29.81,1007.10,10.00,M,FEW,SCT,SCT,M,13000.00,17000.00,20000.00,M,M,M,M,M,M,M,M,78.80,KLSV 011658Z AUTO 11004KT 10SM FEW130 SCT170 SCT200 26/19 A2981 RMK AO2 SLP071 T02600191 $,M
INS,2021-09-01 16:58,-115.6733,36.5872,955.00,80.20,60.00,50.00,90.00,12.00,0.00,29.84,1005.40,10.00,M,CLR,M,M,M,M,M,M,M,M,M,M,M,M,M,M,80.98,KINS 011658Z AUTO 09012KT 10SM CLR 27/16 A2984 RMK AO2 SLP054 T02680155 $,M
CXP,2021-09-01 17:10,-119.7326,39.1923,1431.00,66.20,21.20,17.81,0.00,0.00,0.00,29.93,M,3.00,M,CLR,M,M,M,M,M,M,M,HZ,M,M,M,M,M,M,66.20,KCXP 011710Z AUTO 00000KT 3SM HZ CLR 19/M06 A2993 RMK AO2,M
HTH,2021-09-01 17:15,-118.6315,38.5448,1282.89,73.40,28.40,18.80,M,4.00,0.00,29.90,M,6.00,M,CLR,M,M,M,M,M,M,M,HZ,M,M,M,M,M,M,73.40,KHTH 011715Z AUTO VRB04KT 6SM HZ CLR 23/M02 A2990 RMK A01,M
BAM,2021-09-01 17:15,-116.8743,40.5990,1382.36,69.80,26.60,19.72,340.00,3.00,0.00,29.93,M,10.00,M,CLR,M,M,M,M,M,M,M,M,M,M,M,M,M,M,69.80,KBAM 011715Z AUTO 34003KT 10SM CLR 21/M03 A2993 RMK AO1,M
TMT,2021-09-01 17:15,-117.1971,39.4643,1749.34,63.50,19.60,18.28,0.00,0.00,0.00,29.99,M,10.00,M,CLR,M,M,M,M,M,M,M,M,M,M,M,M,M,M,63.50,KTMT 011715Z AUTO 00000KT 10SM CLR 18/M07 A2999 RMK AO2 T01751069,M
MEV,2021-09-01 17:15,-119.7500,38.9963,1441.42,66.20,23.00,19.22,0.00,0.00,0.00,29.92,M,2.50,M,CLR,M,M,M,M,M,M,M,HZ,M,M,M,M,M,M,66.20,KMEV 011715Z AUTO 00000KT 2 1/2SM HZ CLR 19/M05 A2992 RMK AO2,M
RTS,2021-09-01 17:15,-119.8764,39.6682,1539.00,69.80,15.80,12.48,130.00,3.00,0.00,29.95,M,10.00,M,CLR,M,M,M,M,M,M,M,M,M,M,M,M,M,M,69.80,KRTS 011715Z AUTO 13003KT 10SM CLR 21/M09 A2995 RMK AO2,M
BVU,2021-09-01 17:15,-114.8611,35.9475,671.00,77.00,66.20,69.33,120.00,7.00,0.00,29.84,M,10.00,M,CLR,M,M,M,M,M,M,M,M,M,M,M,M,M,M,77.00,KBVU 011715Z AUTO 12007KT 10SM CLR 25/19 A2984 RMK AO2,M
MEV,2021-09-01 17:35,-119.7500,38.9963,1441.42,69.80,19.40,14.57,0.00,0.00,0.00,29.92,M,2.50,M,CLR,M,M,M,M,M,M,M,HZ,M,M,M,M,M,M,69.80,KMEV 011735Z AUTO 00000KT 2 1/2SM HZ CLR 21/M07 A2992 RMK AO2,M
BVU,2021-09-01 17:35,-114.8611,35.9475,671.00,77.00,66.20,69.33,110.00,6.00,0.00,29.85,M,10.00,M,FEW,M,M,M,11000.00,M,M,M,M,M,M,M,M,M,M,77.00,KBVU 011735Z AUTO 11006KT 10SM FEW110 25/19 A2985 RMK AO2,M
CXP,2021-09-01 17:35,-119.7326,39.1923,1431.00,69.80,23.00,16.98,0.00,0.00,0.00,29.93,M,4.00,M,CLR,M,M,M,M,M,M,M,HZ,M,M,M,M,M,M,69.80,KCXP 011735Z AUTO 00000KT 4SM HZ CLR 21/M05 A2993 RMK AO2,M
RTS,2021-09-01 17:35,-119.8764,39.6682,1539.00,71.60,14.00,10.85,120.00,6.00,0.00,29.95,M,10.00,M,CLR,M,M,M,M,M,M,M,M,M,M,M,M,M,M,71.60,KRTS 011735Z AUTO 12006KT 10SM CLR 22/M10 A2995 RMK AO2,M
BAM,2021-09-01 17:35,-116.8743,40.5990,1382.36,69.80,28.40,21.24,0.00,0.00,0.00,29.93,M,10.00,M,CLR,M,M,M,M,M,M,M,M,M,M,M,M,M,M,69.80,KBAM 011735Z AUTO 00000KT 10SM CLR 21/M02 A2993 RMK AO1,M
HTH,2021-09-01 17:35,-118.6315,38.5448,1282.89,75.20,23.00,14.15,M,3.00,0.00,29.90,M,6.00,M,CLR,M,M,M,M,M,M,M,HZ,M,M,M,M,M,M,75.20,KHTH 011735Z AUTO VRB03KT 6SM HZ CLR 24/M05 A2990 RMK A01,M
TMT,2021-09-01 17:35,-117.1971,39.4643,1749.34,67.50,20.50,16.53,0.00,0.00,0.00,29.99,M,10.00,M,CLR,M,M,M,M,M,M,M,M,M,M,M,M,M,M,67.50,KTMT 011735Z AUTO 00000KT 10SM CLR 20/M06 A2999 RMK AO2 T01971064,M
VGT,2021-09-01 17:53,-115.1933,36.2111,667.00,82.00,64.00,54.50,130.00,4.00,0.00,29.81,1008.60,10.00,M,CLR,M,M,M,M,M,M,M,M,M,M,M,M,M,M,83.47,KVGT 011753Z 13004KT 10SM CLR 28/18 A2981 RMK AO2 SLP086 T02780178 10278 20250 50002,M
P68,2021-09-01 17:53,-116.0056,39.6014,1993.00,74.00,24.10,15.47,30.00,4.00,0.00,29.98,1007.10,M,M,M,M,M,M,M,M,M,M,M,M,M,M,M,M,M,73.90,KP68 011753Z AUTO 03004KT 23/M04 A2998 RMK AO1 SLP071 T02331044 10233 20050 51003,M
DRA,2021-09-01 17:53,-116.0278,36.6206,1009.00,85.00,55.00,35.99,140.00,5.00,0.00,29.84,1005.10,10.00,M,CLR,M,M,M,M,M,M,M,M,M,M,M,M,M,M,83.56,KDRA 011753Z AUTO 14005KT 10SM CLR 29/13 A2984 RMK AO2 SLP051 T02940128 10300 20233 50002,M
ELY,2021-09-01 17:53,-114.8453,39.2950,1909.00,72.00,47.00,40.79,190.00,4.00,0.00,30.00,1005.10,10.00,M,CLR,M,M,M,M,M,M,M,M,M,M,M,M,M,M,72.00,KELY 011753Z AUTO 19004KT 10SM CLR 22/08 A3000 RMK AO2 SLP051 T02220083 10228 20100 50003,M
HTH,2021-09-01 17:55,-118.6315,38.5448,1282.89,77.00,19.40,11.44,330.00,3.00,0.00,29.90,M,6.00,M,CLR,M,M,M,M,M,M,M,HZ,M,M,M,M,M,M,77.00,KHTH 011755Z AUTO 33003KT 6SM HZ CLR 25/M07 A2990 RMK A01,M
BVU,2021-09-01 17:55,-114.8611,35.9475,671.00,77.00,66.20,69.33,110.00,7.00,0.00,29.84,M,10.00,M,CLR,M,M,M,M,M,M,M,M,M,M,M,M,M,M,77.00,KBVU 011755Z AUTO 11007KT 10SM CLR 25/19 A2984 RMK AO2,M
CXP,2021-09-01 17:55,-119.7326,39.1923,1431.00,73.40,19.40,12.90,0.00,0.00,0.00,29.93,M,4.00,M,CLR,M,M,M,M,M,M,M,HZ,M,M,M,M,M,M,73.40,KCXP 011755Z AUTO 00000KT 4SM HZ CLR 23/M07 A2993 RMK AO2,M
RNO,2021-09-01 17:55,-119.7711,39.4839,1341.00,70.00,23.00,16.86,0.00,0.00,0.00,29.91,1008.00,9.00,M,BKN,M,M,M,4700.00,M,M,M,M,M,M,M,M,M,M,70.00,KRNO 011755Z 00000KT 9SM BKN047 21/M05 A2991 RMK AO2 SLP080 FU BKN047 HZ ALQDS T02111050 10211 20100 50000,M
RTS,2021-09-01 17:55,-119.8764,39.6682,1539.00,73.40,14.00,10.21,110.00,7.00,0.00,29.95,M,9.00,M,CLR,M,M,M,M,M,M,M,M,M,M,M,M,M,M,73.40,KRTS 011755Z AUTO 11007KT 9SM CLR 23/M10 A2995 RMK AO2,M
MEV,2021-09-01 17:55,-119.7500,38.9963,1441.42,71.60,15.80,11.74,320.00,4.00,0.00,29.92,M,1.75,M,CLR,M,M,M,M,M,M,M,HZ,M,M,M,M,M,M,71.60,KMEV 011755Z AUTO 32004KT 1 3/4SM HZ CLR 22/M09 A2992 RMK AO2,M
TMT,2021-09-01 17:55,-117.1971,39.4643,1749.34,71.20,19.60,14.01,0.00,0.00,0.00,29.99,M,10.00,M,CLR,M,M,M,M,M,M,M,M,M,M,M,M,M,M,71.20,KTMT 011755Z AUTO 00000KT 10SM CLR 22/M07 A2999 RMK AO2 T02181069 10218 21007,M
BAM,2021-09-01 17:55,-116.8743,40.5990,1382.36,73.40,28.40,18.80,20.00,3.00,0.00,29.93,M,10.00,M,CLR,M,M,M,M,M,M,M,M,M,M,M,M,M,M,73.40,KBAM 011755Z AUTO 02003KT 10SM CLR 23/M02 A2993 RMK AO1,M
TPH,2021-09-01 17:56,-117.0904,38.0505,1654.00,76.00,36.00,23.48,200.00,5.00,0.00,29.97,1006.40,10.00,M,SCT,M,M,M,5500.00,M,M,M,M,M,M,M,M,M,M,75.90,KTPH 011756Z AUTO 20005KT 10SM SCT055 24/02 A2997 RMK AO2 SLP064 T02440022 10244 20117 50005,M
WMC,2021-09-01 17:56,-117.8072,40.9019,1315.00,74.00,24.10,15.47,M,5.00,0.00,29.91,1007.90,10.00,M,CLR,M,M,M,M,M,M,M,M,M,M,M,M,M,M,73.90,KWMC 011756Z AUTO VRB05KT 10SM CLR 23/M04 A2991 RMK AO2 SLP079 T02331044 10233 20044 58001,M
NFL,2021-09-01 17:56,-118.7010,39.4166,1199.00,76.00,25.00,15.02,M,4.00,0.00,29.89,1009.60,4.00,M,BKN,M,M,M,7000.00,M,M,M,FU,M,M,M,M,M,M,75.90,KNFL 011756Z VRB04KT 4SM FU BKN070 24/M04 A2989 RMK SLP096 FU BKN070 T02441039 10244 20089 51003,M
EKO,2021-09-01 17:56,-115.7860,40.8242,1367.00,71.00,26.10,18.48,M,3.00,0.00,29.94,1009.20,6.00,M,CLR,M,M,M,M,M,M,M,HZ,M,M,M,M,M,M,71.10,KEKO 011756Z AUTO VRB03KT 6SM HZ CLR 22/M03 A2994 RMK AO2 SLP092 T02171033 10217 20039 58002,M
LAS,2021-09-01 17:56,-115.1634,36.0719,663.00,83.00,61.00,47.62,M,4.00,0.00,29.83,1007.60,10.00,M,FEW,BKN,M,M,7000.00,15000.00,M,M,M,M,M,M,M,M,M,83.37,KLAS 011756Z VRB04KT 10SM FEW070 BKN150 28/16 A2983 RMK AO2 SLP076 60000 T02830161 10283 20239 50004,M
HND,2021-09-01 17:56,-115.1344,35.9729,742.79,81.00,60.00,49.06,110.00,4.00,0.00,29.86,1010.10,10.00,M,CLR,M,M,M,M,M,M,M,M,M,M,M,M,M,M,81.62,KHND 011756Z 11004KT 10SM CLR 27/16 A2986 RMK AO2 SLP101 60001 T02720156 10272 20222 50005,M
LSV,2021-09-01 17:58,-115.0343,36.2362,570.00,80.60,65.80,60.73,130.00,7.00,0.00,29.81,1007.20,10.00,M,FEW,FEW,SCT,BKN,13000.00,15000.00,18000.00,20000.00,M,M,M,M,M,M,M,82.64,KLSV 011758Z AUTO 13007KT 10SM FEW130 FEW150 SCT180 BKN200 27/19 A2981 RMK AO2 SLP072 T02700188 10270 20248 51004 $,M
INS,2021-09-01 17:58,-115.6733,36.5872,955.00,82.00,59.00,45.81,70.00,9.00,0.00,29.84,1005.40,10.00,M,CLR,M,M,M,M,M,M,M,M,M,M,M,M,M,M,82.08,KINS 011758Z AUTO 07009KT 10SM CLR 28/15 A2984 RMK AO2 SLP054 T02770150 10280 20227 51005 $,M
MEV,2021-09-01 18:15,-119.7500,38.9963,1441.42,75.20,17.60,11.24,M,4.00,0.00,29.91,M,3.00,M,CLR,M,M,M,M,M,M,M,HZ,M,M,M,M,M,M,75.20,KMEV 011815Z AUTO VRB04KT 3SM HZ CLR 24/M08 A2991 RMK AO2,M
BAM,2021-09-01 18:15,-116.8743,40.5990,1382.36,73.40,26.60,17.46,0.00,0.00,0.00,29.92,M,10.00,M,CLR,M,M,M,M,M,M,M,M,M,M,M,M,M,M,73.40,KBAM 011815Z AUTO 00000KT 10SM CLR 23/M03 A2992 RMK AO1,M
HTH,2021-09-01 18:15,-118.6315,38.5448,1282.89,78.80,17.60,9.98,340.00,4.00,0.00,29.89,M,6.00,M,CLR,M,M,M,M,M,M,M,HZ,M,M,M,M,M,M,78.80,KHTH 011815Z AUTO 34004KT 6SM HZ CLR 26/M08 A2989 RMK A01,M
BVU,2021-09-01 18:15,-114.8611,35.9475,671.00,77.00,66.20,69.33,100.00,8.00,0.00,29.85,M,10.00,M,CLR,M,M,M,M,M,M,M,M,M,M,M,M,M,M,77.00,KBVU 011815Z AUTO 10008KT 10SM CLR 25/19 A2985 RMK AO2,M
TMT,2021-09-01 18:15,-117.1971,39.4643,1749.34,73.40,21.60,14.16,10.00,3.00,0.00,29.99,M,10.00,M,CLR,M,M,M,M,M,M,M,M,M,M,M,M,M,M,73.40,KTMT 011815Z AUTO 01003KT 10SM CLR 23/M06 A2999 RMK AO2 T02301058,M
RTS,2021-09-01 18:15,-119.8764,39.6682,1539.00,75.20,14.00,9.61,110.00,7.00,0.00,29.94,M,10.00,M,CLR,M,M,M,M,M,M,M,M,M,M,M,M,M,M,75.20,KRTS 011815Z AUTO 11007KT 10SM CLR 24/M10 A2994 RMK AO2,M
CXP,2021-09-01 18:15,-119.7326,39.1923,1431.00,77.00,12.20,8.36,0.00,0.00,0.00,29.93,M,5.00,M,CLR,M,M,M,M,M,M,M,HZ,M,M,M,M,M,M,77.00,KCXP 011815Z AUTO 00000KT 5SM HZ CLR 25/M11 A2993 RMK AO2,M
BVU,2021-09-01 18:35,-114.8611,35.9475,671.00,77.00,66.20,69.33,110.00,10.00,0.00,29.84,M,10.00,M,CLR,M,M,M,M,M,M,M,M,M,M,M,M,M,M,77.00,KBVU 011835Z AUTO 11010KT 10SM CLR 25/19 A2984 RMK AO2,M
CXP,2021-09-01 18:35,-119.7326,39.1923,1431.00,77.00,10.40,7.72,0.00,0.00,0.00,29.92,M,6.00,M,CLR,M,M,M,M,M,M,M,HZ,M,M,M,M,M,M,77.00,KCXP 011835Z AUTO 00000KT 6SM HZ CLR 25/M12 A2992 RMK AO2,M
MEV,2021-09-01 18:35,-119.7500,38.9963,1441.42,77.00,17.60,10.59,M,5.00,0.00,29.91,M,4.00,M,CLR,M,M,M,M,M,M,M,HZ,M,M,M,M,M,M,77.00,KMEV 011835Z AUTO VRB05KT 4SM HZ CLR 25/M08 A2991 RMK AO2,M
BAM,2021-09-01 18:35,-116.8743,40.5990,1382.36,75.20,26.60,16.43,10.00,3.00,0.00,29.92,M,10.00,M,CLR,M,M,M,M,M,M,M,M,M,M,M,M,M,M,75.20,KBAM 011835Z AUTO 01003KT 10SM CLR 24/M03 A2992 RMK AO1,M
RTS,2021-09-01 18:35,-119.8764,39.6682,1539.00,77.00,10.40,7.72,110.00,9.00,0.00,29.93,M,9.00,M,CLR,M,M,M,M,M,M,M,M,M,M,M,M,M,M,77.00,KRTS 011835Z AUTO 11009KT 9SM CLR 25/M12 A2993 RMK AO2,M
HTH,2021-09-01 18:35,-118.6315,38.5448,1282.89,78.80,17.60,9.98,M,4.00,0.00,29.88,M,6.00,M,CLR,M,M,M,M,M,M,M,HZ,M,M,M,M,M,M,78.80,KHTH 011835Z AUTO VRB04KT 6SM HZ CLR 26/M08 A2988 RMK A01,M
TMT,2021-09-01 18:35,-117.1971,39.4643,1749.34,76.50,22.60,13.32,0.00,0.00,0.00,29.97,M,10.00,M,CLR,M,M,M,M,M,M,M,M,M,M,M,M,M,M,76.50,KTMT 011835Z AUTO 00000KT 10SM CLR 25/M05 A2997 RMK AO2 T02471052,M
VGT,2021-09-01 18:53,-115.1933,36.2111,667.00,84.00,63.00,49.32,130.00,7.00,0.00,29.80,1008.20,10.00,M,CLR,M,M,M,M,M,M,M,M,M,M,M,M,M,M,84.99,KVGT 011853Z 13007KT 10SM CLR 29/17 A2980 RMK AO2 SLP082 T02890172,M
P68,2021-09-01 18:53,-116.0056,39.6014,1993.00,76.00,16.00,10.25,40.00,5.00,0.00,29.96,1007.00,M,M,M,M,M,M,M,M,M,M,M,M,M,M,M,M,M,75.90,KP68 011853Z AUTO 04005KT 24/M09 A2996 RMK AO1 SLP070 T02441089,M
DRA,2021-09-01 18:53,-116.0278,36.6206,1009.00,89.00,49.00,25.14,230.00,21.00,0.00,29.82,1004.40,10.00,30.00,CLR,M,M,M,M,M,M,M,M,M,M,M,30.00,230.00,2021-09-01 18:46,86.09,KDRA 011853Z AUTO 23021G30KT 10SM CLR 32/09 A2982 RMK AO2 PK WND 23030/1846 SLP044 T03170094,M
ELY,2021-09-01 18:53,-114.8453,39.2950,1909.00,76.00,45.00,33.30,0.00,0.00,0.00,29.98,1004.30,10.00,M,CLR,M,M,M,M,M,M,M,M,M,M,M,M,M,M,75.90,KELY 011853Z AUTO 00000KT 10SM CLR 24/07 A2998 RMK AO2 SLP043 T02440072,M
HTH,2021-09-01 18:55,-118.6315,38.5448,1282.89,80.60,14.00,8.04,350.00,5.00,0.00,29.87,M,7.00,M,CLR,M,M,M,M,M,M,M,M,M,M,M,M,M,M,78.25,KHTH 011855Z AUTO 35005KT 7SM CLR 27/M10 A2987 RMK A01,M
RTS,2021-09-01 18:55,-119.8764,39.6682,1539.00,77.00,8.60,7.12,130.00,7.00,0.00,29.93,M,9.00,M,CLR,M,M,M,M,M,M,M,M,M,M,M,M,M,M,77.00,KRTS 011855Z AUTO 13007KT 9SM CLR 25/M13 A2993 RMK AO2,M
CXP,2021-09-01 18:55,-119.7326,39.1923,1431.00,78.80,8.60,6.71,0.00,0.00,0.00,29.92,M,7.00,M,CLR,M,M,M,M,M,M,M,M,M,M,M,M,M,M,78.80,KCXP 011855Z AUTO 00000KT 7SM CLR 26/M13 A2992 RMK AO2,M
BVU,2021-09-01 18:55,-114.8611,35.9475,671.00,77.00,66.20,69.33,100.00,10.00,0.00,29.84,M,10.00,M,CLR,M,M,M,M,M,M,M,M,M,M,M,M,M,M,77.00,KBVU 011855Z AUTO 10010KT 10SM CLR 25/19 A2984 RMK AO2,M
BAM,2021-09-01 18:55,-116.8743,40.5990,1382.36,77.00,26.60,15.48,0.00,0.00,0.00,29.91,M,10.00,M,CLR,M,M,M,M,M,M,M,M,M,M,M,M,M,M,77.00,KBAM 011855Z AUTO 00000KT 10SM CLR 25/M03 A2991 RMK AO1,M
MEV,2021-09-01 18:55,-119.7500,38.9963,1441.42,77.00,12.20,8.36,330.00,5.00,0.00,29.90,M,2.50,M,CLR,M,M,M,M,M,M,M,HZ,M,M,M,M,M,M,77.00,KMEV 011855Z AUTO 33005KT 2 1/2SM HZ CLR 25/M11 A2990 RMK AO2,M
TMT,2021-09-01 18:55,-117.1971,39.4643,1749.34,77.00,20.70,12.09,10.00,3.00,0.00,29.97,M,7.00,M,CLR,M,M,M,M,M,M,M,M,M,M,M,M,M,M,77.00,KTMT 011855Z AUTO 01003KT 7SM CLR 25/M06 A2997 RMK AO2 T02501063,M
RNO,2021-09-01 18:55,-119.7711,39.4839,1341.00,76.00,19.90,12.12,M,3.00,0.00,29.89,1007.00,10.00,M,BKN,M,M,M,4500.00,M,M,M,M,M,M,M,M,M,M,75.90,KRNO 011855Z VRB03KT 10SM BKN045 24/M07 A2989 RMK AO2 SLP070 FU BKN045 HZ ALQDS T02441067,M
EKO,2021-09-01 18:56,-115.7860,40.8242,1367.00,76.00,26.10,15.73,0.00,0.00,0.00,29.92,1008.90,7.00,M,CLR,M,M,M,M,M,M,M,M,M,M,M,M,M,M,75.90,KEKO 011856Z AUTO 00000KT 7SM CLR 24/M03 A2992 RMK AO2 SLP089 T02441033,M
LAS,2021-09-01 18:56,-115.1634,36.0719,663.00,84.00,59.00,42.80,120.00,6.00,0.00,29.82,1007.30,10.00,M,FEW,BKN,M,M,7000.00,15000.00,M,M,M,M,M,M,M,M,M,83.75,KLAS 011856Z 12006KT 10SM FEW070 BKN150 29/15 A2982 RMK AO2 SLP073 T02890150,M
NFL,2021-09-01 18:56,-118.7010,39.4166,1199.00,80.00,23.00,12.03,M,3.00,0.00,29.87,1009.00,4.00,M,BKN,M,M,M,7000.00,M,M,M,FU,M,M,M,M,M,M,78.29,KNFL 011856Z VRB03KT 4SM FU BKN070 27/M05 A2987 RMK SLP090 FU BKN070 T02671050,M
TPH,2021-09-01 18:56,-117.0904,38.0505,1654.00,80.00,25.00,13.08,M,M,0.00,29.95,1005.50,7.00,M,FEW,M,M,M,3700.00,M,M,M,M,M,M,M,M,M,M,78.42,KTPH 011856Z AUTO 7SM FEW037 27/M04 A2995 RMK AO2 SLP055 T02671039,M
WMC,2021-09-01 18:56,-117.8072,40.9019,1315.00,78.00,25.00,13.97,0.00,0.00,0.00,29.88,1007.50,10.00,M,CLR,M,M,M,M,M,M,M,M,M,M,M,M,M,M,78.10,KWMC 011856Z AUTO 00000KT 10SM CLR 26/M04 A2988 RMK AO2 SLP075 T02561039,M
HND,2021-09-01 18:56,-115.1344,35.9729,742.79,84.00,60.00,44.51,150.00,6.00,0.00,29.85,1009.70,10.00,M,CLR,M,M,M,M,M,M,M,M,M,M,M,M,M,M,84.05,KHND 011856Z 15006KT 10SM CLR 29/16 A2985 RMK AO2 SLP097 T02890156,M
LSV,2021-09-01 18:58,-115.0343,36.2362,570.00,82.40,64.60,54.93,120.00,9.00,0.00,29.80,1006.70,10.00,M,FEW,SCT,SCT,M,11000.00,17000.00,19000.00,M,M,M,M,M,M,M,M,84.05,KLSV 011858Z AUTO 12009KT 10SM FEW110 SCT170 SCT190 28/18 A2980 RMK AO2 SLP067 T02800181 $,M
INS,2021-09-01 18:58,-115.6733,36.5872,955.00,84.20,57.20,39.86,90.00,13.00,0.00,29.83,1005.10,10.00,16.00,FEW,M,M,M,20000.00,M,M,M,M,M,M,M,M,M,M,83.47,KINS 011858Z AUTO 09013G16KT 10SM FEW200 29/14 A2983 RMK AO2 SLP051 T02900140 $,M
RTS,2021-09-01 19:15,-119.8764,39.6682,1539.00,78.80,10.40,7.28,120.00,10.00,0.00,29.92,M,8.00,18.00,CLR,M,M,M,M,M,M,M,M,M,M,M,M,M,M,78.80,KRTS 011915Z AUTO 12010G18KT 080V140 8SM CLR 26/M12 A2992 RMK AO2,M
MEV,2021-09-01 19:15,-119.7500,38.9963,1441.42,78.80,10.40,7.28,340.00,6.00,0.00,29.90,M,4.00,M,CLR,M,M,M,M,M,M,M,HZ,M,M,M,M,M,M,78.80,KMEV 011915Z AUTO 34006KT 4SM HZ CLR 26/M12 A2990 RMK AO2,M
TMT,2021-09-01 19:15,-117.1971,39.4643,1749.34,78.40,18.00,10.28,340.00,3.00,0.00,29.96,M,7.00,M,CLR,M,M,M,M,M,M,M,M,M,M,M,M,M,M,78.40,KTMT 011915Z AUTO 34003KT 7SM CLR 26/M08 A2996 RMK AO2 T02581078,M
BAM,2021-09-01 19:15,-116.8743,40.5990,1382.36,78.80,26.60,14.59,0.00,0.00,0.00,29.90,M,10.00,M,CLR,M,M,M,M,M,M,M,M,M,M,M,M,M,M,78.80,KBAM 011915Z AUTO 00000KT 10SM CLR 26/M03 A2990 RMK AO1,M
HTH,2021-09-01 19:15,-118.6315,38.5448,1282.89,82.40,12.20,7.01,320.00,8.00,0.00,29.86,M,8.00,M,CLR,M,M,M,M,M,M,M,M,M,M,M,M,M,M,79.13,KHTH 011915Z AUTO 32008KT 8SM CLR 28/M11 A2986 RMK A01,M
BVU,2021-09-01 19:15,-114.8611,35.9475,671.00,77.00,64.40,65.12,110.00,10.00,0.00,29.84,M,10.00,M,CLR,M,M,M,M,M,M,M,M,M,M,M,M,M,M,77.00,KBVU 011915Z AUTO 11010KT 10SM CLR 25/18 A2984 RMK AO2,M
CXP,2021-09-01 19:15,-119.7326,39.1923,1431.00,78.80,8.60,6.71,0.00,0.00,0.00,29.91,M,6.00,M,CLR,M,M,M,M,M,M,M,HZ,M,M,M,M,M,M,78.80,KCXP 011915Z AUTO 00000KT 6SM HZ CLR 26/M13 A2991 RMK AO2,M
HTH,2021-09-01 19:35,-118.6315,38.5448,1282.89,84.20,12.20,6.61,340.00,7.00,0.00,29.85,M,8.00,M,CLR,M,M,M,M,M,M,M,M,M,M,M,M,M,M,80.37,KHTH 011935Z AUTO 34007KT 320V020 8SM CLR 29/M11 A2985 RMK A01,M
MEV,2021-09-01 19:35,-119.7500,38.9963,1441.42,80.60,8.60,6.33,10.00,6.00,0.00,29.88,M,4.00,M,CLR,M,M,M,M,M,M,M,HZ,M,M,M,M,M,M,78.00,KMEV 011935Z AUTO 01006KT 4SM HZ CLR 27/M13 A2988 RMK AO2,M
BVU,2021-09-01 19:35,-114.8611,35.9475,671.00,78.80,62.60,57.60,130.00,10.00,0.00,29.83,M,10.00,M,CLR,M,M,M,M,M,M,M,M,M,M,M,M,M,M,78.80,KBVU 011935Z AUTO 13010KT 10SM CLR 26/17 A2983 RMK AO2,M
CXP,2021-09-01 19:35,-119.7326,39.1923,1431.00,80.60,6.80,5.83,0.00,0.00,0.00,29.90,M,5.00,M,CLR,M,M,M,M,M,M,M,HZ,M,M,M,M,M,M,77.93,KCXP 011935Z AUTO 00000KT 5SM HZ CLR 27/M14 A2990 RMK AO2,M
RTS,2021-09-01 19:35,-119.8764,39.6682,1539.00,80.60,8.60,6.33,100.00,7.00,0.00,29.91,M,8.00,13.00,CLR,M,M,M,M,M,M,M,M,M,M,M,M,M,M,78.00,KRTS 011935Z AUTO 10007G13KT 8SM CLR 27/M13 A2991 RMK AO2,M
TMT,2021-09-01 19:35,-117.1971,39.4643,1749.34,78.30,18.10,10.36,320.00,3.00,0.00,29.96,M,7.00,M,CLR,M,M,M,M,M,M,M,M,M,M,M,M,M,M,78.30,KTMT 011935Z AUTO 32003KT 7SM CLR 26/M08 A2996 RMK AO2 T02571077,M
BAM,2021-09-01 19:35,-116.8743,40.5990,1382.36,80.60,26.60,13.75,180.00,3.00,0.00,29.89,M,10.00,M,CLR,M,M,M,M,M,M,M,M,M,M,M,M,M,M,78.68,KBAM 011935Z AUTO 18003KT 10SM CLR 27/M03 A2989 RMK AO1,M
LOL,2021-09-01 19:53,-118.5701,40.0684,1192.43,84.00,25.00,11.52,0.00,0.00,0.00,29.84,1006.40,7.00,M,CLR,M,M,M,M,M,M,M,M,M,M,M,M,M,M,80.88,KLOL 011953Z AUTO 00000KT 7SM CLR 29/M04 A2984 RMK AO2 SLP064 T02891039,M
VGT,2021-09-01 19:53,-115.1933,36.2111,667.00,86.00,62.00,44.81,140.00,13.00,0.00,29.79,1007.70,10.00,18.00,CLR,M,M,M,M,M,M,M,M,M,M,M,M,M,M,86.52,KVGT 011953Z 14013G18KT 10SM CLR 30/17 A2979 RMK AO2 SLP077 T03000167,M
DRA,2021-09-01 19:53,-116.0278,36.6206,1009.00,90.00,48.00,23.63,230.00,18.00,0.00,29.81,1003.90,10.00,30.00,CLR,M,M,M,M,M,M,M,M,M,M,M,34.00,230.00,2021-09-01 19:10,86.78,KDRA 011953Z AUTO 23018G30KT 10SM CLR 32/09 A2981 RMK AO2 PK WND 23034/1910 SLP039 T03220089,M
P68,2021-09-01 19:53,-116.0056,39.6014,1993.00,78.00,18.00,10.39,90.00,5.00,0.00,29.94,1006.10,M,M,M,M,M,M,M,M,M,M,M,M,M,M,M,M,M,78.10,KP68 011953Z AUTO 09005KT 26/M08 A2994 RMK AO1 SLP061 T02561078,M
ELY,2021-09-01 19:53,-114.8453,39.2950,1909.00,79.00,39.00,23.85,290.00,9.00,0.00,29.96,1003.70,10.00,15.00,CLR,M,M,M,M,M,M,M,M,M,M,M,M,M,M,79.00,KELY 011953Z AUTO 29009G15KT 10SM CLR 26/04 A2996 RMK AO2 SLP037 T02610039,M
TMT,2021-09-01 19:55,-117.1971,39.4643,1749.34,79.70,17.80,9.77,320.00,3.00,0.00,29.95,M,7.00,M,CLR,M,M,M,M,M,M,M,M,M,M,M,M,M,M,79.70,KTMT 011955Z AUTO 32003KT 7SM CLR 27/M08 A2995 RMK AO2 T02651079,M
RNO,2021-09-01 19:55,-119.7711,39.4839,1341.00,81.00,16.00,8.66,110.00,4.00,0.00,29.86,1006.00,3.00,M,OVC,M,M,M,3400.00,M,M,M,FU,M,M,M,M,M,M,78.36,KRNO 011955Z 11004KT 3SM FU OVC034 27/M09 A2986 RMK AO2 SLP060 FU OVC034 T02721089,M
CXP,2021-09-01 19:55,-119.7326,39.1923,1431.00,80.60,6.80,5.83,M,3.00,0.00,29.90,M,4.00,M,CLR,M,M,M,M,M,M,M,HZ,M,M,M,M,M,M,77.93,KCXP 011955Z AUTO VRB03KT 4SM HZ CLR 27/M14 A2990 RMK AO2,M
BVU,2021-09-01 19:55,-114.8611,35.9475,671.00,80.60,62.60,54.30,140.00,7.00,0.00,29.83,M,10.00,M,CLR,M,M,M,M,M,M,M,M,M,M,M,M,M,M,81.84,KBVU 011955Z AUTO 14007KT 10SM CLR 27/17 A2983 RMK AO2,M
HTH,2021-09-01 19:55,-118.6315,38.5448,1282.89,84.20,10.40,6.10,350.00,8.00,0.00,29.84,M,8.00,M,CLR,M,M,M,M,M,M,M,M,M,M,M,M,M,M,80.31,KHTH 011955Z AUTO 35008KT 8SM CLR 29/M12 A2984 RMK A01,M
BAM,2021-09-01 19:55,-116.8743,40.5990,1382.36,82.40,26.60,12.97,0.00,0.00,0.00,29.89,M,7.00,M,CLR,M,M,M,M,M,M,M,M,M,M,M,M,M,M,79.92,KBAM 011955Z AUTO 00000KT 7SM CLR 28/M03 A2989 RMK AO1,M
MEV,2021-09-01 19:55,-119.7500,38.9963,1441.42,82.40,8.60,5.97,340.00,8.00,0.00,29.88,M,1.50,M,CLR,M,M,M,M,M,M,M,HZ,M,M,M,M,M,M,79.01,KMEV 011955Z AUTO 34008KT 1 1/2SM HZ CLR 28/M13 A2988 RMK AO2,M
RTS,2021-09-01 19:55,-119.8764,39.6682,1539.00,80.60,8.60,6.33,M,5.00,0.00,29.91,M,9.00,13.00,CLR,M,M,M,M,M,M,M,M,M,M,M,M,M,M,78.00,KRTS 011955Z AUTO VRB05G13KT 9SM CLR 27/M13 A2991 RMK AO2,M
TPH,2021-09-01 19:56,-117.0904,38.0505,1654.00,82.00,28.00,13.92,M,M,0.00,29.93,1005.00,6.00,M,OVC,M,M,M,3000.00,M,M,M,HZ,M,M,M,M,M,M,79.66,KTPH 011956Z AUTO 6SM HZ OVC030 28/M02 A2993 RMK AO2 SLP050 T02781022,M
WMC,2021-09-01 19:56,-117.8072,40.9019,1315.00,81.00,24.10,12.23,0.00,0.00,0.00,29.86,1006.70,7.00,M,CLR,M,M,M,M,M,M,M,M,M,M,M,M,M,M,78.83,KWMC 011956Z AUTO 00000KT 7SM CLR 27/M04 A2986 RMK AO2 SLP067 T02721044,M
LAS,2021-09-01 19:56,-115.1634,36.0719,663.00,86.00,59.00,40.14,M,5.00,0.00,29.80,1006.60,10.00,15.00,FEW,FEW,SCT,M,7000.00,12000.00,15000.00,M,M,M,M,M,M,M,M,85.47,KLAS 011956Z VRB05G15KT 10SM FEW070 FEW120 SCT150 30/15 A2980 RMK AO2 SLP066 TCU DSNT NW T03000150,M
NFL,2021-09-01 19:56,-118.7010,39.4166,1199.00,84.00,23.00,10.60,M,3.00,0.00,29.84,1008.20,4.00,M,SCT,M,M,M,7000.00,M,M,M,FU,M,M,M,M,M,M,80.75,KNFL 011956Z VRB03KT 4SM FU SCT070 29/M05 A2984 RMK SLP082 FU SCT070 T02891050,M
HND,2021-09-01 19:56,-115.1344,35.9729,742.79,85.00,58.00,39.97,110.00,6.00,0.00,29.83,1008.90,10.00,M,CLR,M,M,M,M,M,M,M,M,M,M,M,M,M,M,84.21,KHND 011956Z 11006KT 10SM CLR 29/14 A2983 RMK AO2 SLP089 T02940144,M
EKO,2021-09-01 19:56,-115.7860,40.8242,1367.00,79.00,26.10,14.19,M,4.00,0.00,29.90,1007.80,7.00,M,CLR,M,M,M,M,M,M,M,M,M,M,M,M,M,M,79.00,KEKO 011956Z AUTO VRB04KT 7SM CLR 26/M03 A2990 RMK AO2 SLP078 T02611033,M
LSV,2021-09-01 19:58,-115.0343,36.2362,570.00,84.70,62.20,46.88,120.00,13.00,0.00,29.78,1006.10,10.00,M,FEW,FEW,BKN,M,13000.00,16000.00,20000.00,M,M,M,M,M,M,M,M,85.35,KLSV 011958Z AUTO 12013KT 10SM FEW130 FEW160 BKN200 29/17 A2978 RMK AO2 SLP061 T02930168 $,M
INS,2021-09-01 19:58,-115.6733,36.5872,955.00,86.20,55.20,34.77,90.00,7.00,0.00,29.82,1004.60,10.00,M,CLR,M,M,M,M,M,M,M,M,M,M,M,M,M,M,84.67,KINS 011958Z AUTO 09007KT 10SM CLR 30/13 A2982 RMK AO2 SLP046 T03010129 $,M
LAS,2021-09-01 20:12,-115.1634,36.0719,663.00,88.00,60.00,39.17,90.00,12.00,0.00,29.79,M,10.00,21.00,FEW,FEW,SCT,M,7000.00,12000.00,15000.00,M,M,M,M,M,M,M,M,87.69,KLAS 012012Z 09012G21KT 10SM FEW070 FEW120 SCT150 31/16 A2979 RMK AO2 TCU DSNT NW T03110156,M
MEV,2021-09-01 20:15,-119.7500,38.9963,1441.42,82.40,10.40,6.47,330.00,8.00,0.00,29.88,M,1.50,M,CLR,M,M,M,M,M,M,M,HZ,M,M,M,M,M,M,79.07,KMEV 012015Z AUTO 33008KT 1 1/2SM HZ CLR 28/M12 A2988 RMK AO2,M
HTH,2021-09-01 20:15,-118.6315,38.5448,1282.89,86.00,10.40,5.76,320.00,9.00,0.00,29.83,M,8.00,16.00,CLR,M,M,M,M,M,M,M,M,M,M,M,M,M,M,81.58,KHTH 012015Z AUTO 32009G16KT 8SM CLR 30/M12 A2983 RMK A01,M
BAM,2021-09-01 20:15,-116.8743,40.5990,1382.36,82.40,26.60,12.97,10.00,5.00,0.00,29.88,M,7.00,M,CLR,M,M,M,M,M,M,M,M,M,M,M,M,M,M,79.92,KBAM 012015Z AUTO 01005KT 7SM CLR 28/M03 A2988 RMK AO1,M
RTS,2021-09-01 20:15,-119.8764,39.6682,1539.00,82.40,6.80,5.50,360.00,8.00,0.00,29.90,M,9.00,15.00,CLR,M,M,M,M,M,M,M,M,M,M,M,M,M,M,78.95,KRTS 012015Z AUTO 36008G15KT 9SM CLR 28/M14 A2990 RMK AO2,M
CXP,2021-09-01 20:15,-119.7326,39.1923,1431.00,80.60,6.80,5.83,0.00,0.00,0.00,29.89,M,3.00,M,CLR,M,M,M,M,M,M,M,HZ,M,M,M,M,M,M,77.93,KCXP 012015Z AUTO 00000KT 3SM HZ CLR 27/M14 A2989 RMK AO2,M
BVU,2021-09-01 20:15,-114.8611,35.9475,671.00,82.40,60.80,48.05,100.00,9.00,0.00,29.82,M,10.00,M,CLR,M,M,M,M,M,M,M,M,M,M,M,M,M,M,82.90,KBVU 012015Z AUTO 10009KT 10SM CLR 28/16 A2982 RMK AO2,M
TMT,2021-09-01 20:15,-117.1971,39.4643,1749.34,80.00,18.30,9.85,20.00,4.00,0.00,29.94,M,7.00,M,CLR,M,M,M,M,M,M,M,M,M,M,M,M,M,M,78.00,KTMT 012015Z AUTO 02004KT 7SM CLR 27/M08 A2994 RMK AO2 T02671076,M
TPH,2021-09-01 20:22,-117.0904,38.0505,1654.00,84.00,21.00,9.74,220.00,9.00,0.00,29.92,M,5.00,M,OVC,M,M,M,2900.00,M,M,M,HZ,M,M,M,M,M,M,80.63,KTPH 012022Z AUTO 22009KT 5SM HZ OVC029 29/M06 A2992 RMK AO2 T02891061,M
CXP,2021-09-01 20:35,-119.7326,39.1923,1431.00,82.40,8.60,5.97,310.00,4.00,0.00,29.89,M,3.00,M,CLR,M,M,M,M,M,M,M,HZ,M,M,M,M,M,M,79.01,KCXP 012035Z AUTO 31004KT 3SM HZ CLR 28/M13 A2989 RMK AO2,M
RTS,2021-09-01 20:35,-119.8764,39.6682,1539.00,82.40,5.00,5.07,M,5.00,0.00,29.90,M,10.00,M,CLR,M,M,M,M,M,M,M,M,M,M,M,M,M,M,78.90,KRTS 012035Z AUTO VRB05KT 10SM CLR 28/M15 A2990 RMK AO2,M
TMT,2021-09-01 20:35,-117.1971,39.4643,1749.34,81.70,18.10,9.27,290.00,6.00,0.00,29.93,M,7.00,M,CLR,M,M,M,M,M,M,M,M,M,M,M,M,M,M,78.92,KTMT 012035Z AUTO 29006KT 7SM CLR 28/M08 A2993 RMK AO2 T02761077,M
MEV,2021-09-01 20:35,-119.7500,38.9963,1441.42,84.20,12.20,6.61,340.00,9.00,0.00,29.87,M,2.00,14.00,CLR,M,M,M,M,M,M,M,HZ,M,M,M,M,M,M,80.37,KMEV 012035Z AUTO 34009G14KT 2SM HZ CLR 29/M11 A2987 RMK AO2,M
BVU,2021-09-01 20:35,-114.8611,35.9475,671.00,82.40,60.80,48.05,90.00,10.00,0.00,29.82,M,10.00,M,CLR,M,M,M,M,M,M,M,M,M,M,M,M,M,M,82.90,KBVU 012035Z AUTO 09010KT 10SM CLR 28/16 A2982 RMK AO2,M
HTH,2021-09-01 20:35,-118.6315,38.5448,1282.89,86.00,8.60,5.31,340.00,9.00,0.00,29.83,M,9.00,M,CLR,M,M,M,M,M,M,M,M,M,M,M,M,M,M,81.53,KHTH 012035Z AUTO 34009KT 9SM CLR 30/M13 A2983 RMK A01,M
BAM,2021-09-01 20:35,-116.8743,40.5990,1382.36,84.20,24.80,11.35,60.00,4.00,0.00,29.87,M,10.00,M,CLR,M,M,M,M,M,M,M,M,M,M,M,M,M,M,81.00,KBAM 012035Z AUTO 06004KT 10SM CLR 29/M04 A2987 RMK AO1,M
DRA,2021-09-01 20:53,-116.0278,36.6206,1009.00,92.00,48.00,22.26,220.00,15.00,0.00,29.79,1003.40,10.00,27.00,CLR,M,M,M,M,M,M,M,M,M,M,M,27.00,220.00,2021-09-01 20:40,88.53,KDRA 012053Z AUTO 22015G27KT 10SM CLR 33/09 A2979 RMK AO2 PK WND 22027/2040 SLP034 T03330089 57014,M
VGT,2021-09-01 20:53,-115.1933,36.2111,667.00,88.00,62.00,42.05,110.00,10.00,0.00,29.78,1007.30,10.00,19.00,CLR,M,M,M,M,M,M,M,M,M,M,M,29.00,130.00,2021-09-01 20:13,88.47,KVGT 012053Z 11010G19KT 10SM CLR 31/17 A2978 RMK AO2 PK WND 13029/2013 SLP073 T03110167 56012,M
P68,2021-09-01 20:53,-116.0056,39.6014,1993.00,80.00,12.90,7.79,M,3.00,0.00,29.93,1004.90,M,M,M,M,M,M,M,M,M,M,M,M,M,M,M,M,M,77.72,KP68 012053Z AUTO VRB03KT 27/M11 A2993 RMK AO1 SLP049 T02671106 57013,M
ELY,2021-09-01 20:53,-114.8453,39.2950,1909.00,79.00,37.00,22.05,220.00,6.00,0.00,29.95,1003.40,8.00,M,CLR,M,M,M,M,M,M,M,M,M,M,M,M,M,M,79.00,KELY 012053Z AUTO 22006KT 8SM CLR 26/03 A2995 RMK AO2 LTG DSNT E SLP034 T02610028 56012,M
LOL,2021-09-01 20:53,-118.5701,40.0684,1192.43,85.00,23.00,10.30,170.00,8.00,0.00,29.83,1006.30,5.00,M,CLR,M,M,M,M,M,M,M,HZ,M,M,M,M,M,M,81.37,KLOL 012053Z AUTO 17008KT 120V190 5SM HZ CLR 29/M05 A2983 RMK AO2 SLP063 T02941050 56017,M
HTH,2021-09-01 20:55,-118.6315,38.5448,1282.89,87.80,6.80,4.63,320.00,10.00,0.00,29.82,M,9.00,M,CLR,M,M,M,M,M,M,M,M,M,M,M,M,M,M,82.78,KHTH 012055Z AUTO 32010KT 9SM CLR 31/M14 A2982 RMK A01,M
MEV,2021-09-01 20:55,-119.7500,38.9963,1441.42,84.20,14.00,7.16,300.00,10.00,0.00,29.87,M,2.50,17.00,CLR,M,M,M,M,M,M,M,HZ,M,M,M,M,M,M,80.44,KMEV 012055Z AUTO 30010G17KT 2 1/2SM HZ CLR 29/M10 A2987 RMK AO2,M
BAM,2021-09-01 20:55,-116.8743,40.5990,1382.36,86.00,23.00,9.94,0.00,0.00,0.00,29.87,M,10.00,M,CLR,M,M,M,M,M,M,M,M,M,M,M,M,M,M,82.14,KBAM 012055Z AUTO 00000KT 10SM CLR 30/M05 A2987 RMK AO1,M
RTS,2021-09-01 20:55,-119.8764,39.6682,1539.00,84.20,5.00,4.78,M,3.00,0.00,29.89,M,10.00,M,CLR,M,M,M,M,M,M,M,M,M,M,M,M,M,M,80.16,KRTS 012055Z AUTO VRB03KT 10SM CLR 29/M15 A2989 RMK AO2,M
CXP,2021-09-01 20:55,-119.7326,39.1923,1431.00,82.40,10.40,6.47,M,4.00,0.00,29.89,M,4.00,M,CLR,M,M,M,M,M,M,M,HZ,M,M,M,M,M,M,79.07,KCXP 012055Z AUTO VRB04KT 4SM HZ CLR 28/M12 A2989 RMK AO2,M
BVU,2021-09-01 20:55,-114.8611,35.9475,671.00,84.20,62.60,48.32,110.00,10.00,0.00,29.81,M,10.00,M,CLR,M,M,M,M,M,M,M,M,M,M,M,M,M,M,85.03,KBVU 012055Z AUTO 11010KT 10SM CLR 29/17 A2981 RMK AO2,M
RNO,2021-09-01 20:55,-119.7711,39.4839,1341.00,85.00,12.90,6.67,0.00,0.00,0.00,29.85,1005.20,3.00,M,OVC,M,M,M,3200.00,M,M,M,FU,M,M,M,M,M,M,80.89,KRNO 012055Z 00000KT 3SM FU OVC032 29/M11 A2985 RMK AO2 SLP052 FU OVC032 T02941106 56019,M
TMT,2021-09-01 20:55,-117.1971,39.4643,1749.34,83.70,17.80,8.58,270.00,5.00,0.00,29.93,M,7.00,M,CLR,M,M,M,M,M,M,M,M,M,M,M,M,M,M,80.25,KTMT 012055Z AUTO 27005KT 7SM CLR 29/M08 A2993 RMK AO2 T02871079,M
WMC,2021-09-01 20:56,-117.8072,40.9019,1315.00,85.00,17.10,8.01,240.00,5.00,0.00,29.86,1006.50,6.00,M,FEW,M,M,M,4300.00,M,M,M,HZ,M,M,M,M,M,M,81.05,KWMC 012056Z AUTO 24005KT 6SM HZ FEW043 29/M08 A2986 RMK AO2 SLP065 T02941083 56015,M
NFL,2021-09-01 20:56,-118.7010,39.4166,1199.00,86.00,16.00,7.37,M,4.00,0.00,29.83,1007.80,4.00,M,BKN,M,M,M,6000.00,M,M,M,FU,M,M,M,M,M,M,81.78,KNFL 012056Z VRB04KT 4SM FU BKN060 30/M09 A2983 RMK SLP078 FU BKN060 T03001089 56018,M
HND,2021-09-01 20:56,-115.1344,35.9729,742.79,88.00,59.00,37.66,160.00,10.00,0.00,29.81,1008.10,10.00,16.00,CLR,M,M,M,M,M,M,M,M,M,M,M,M,M,M,87.31,KHND 012056Z 16010G16KT 10SM CLR 31/15 A2981 RMK AO2 SLP081 T03110150 58016,M
LAS,2021-09-01 20:56,-115.1634,36.0719,663.00,89.00,61.00,39.06,80.00,13.00,0.00,29.79,1005.90,10.00,20.00,FEW,FEW,SCT,M,7000.00,12000.00,15000.00,M,M,M,M,M,M,M,M,89.11,KLAS 012056Z 08013G20KT 10SM FEW070 FEW120 SCT150 32/16 A2979 RMK AO2 SLP059 TCU DSNT NW T03170161 58015,M
EKO,2021-09-01 20:56,-115.7860,40.8242,1367.00,83.00,24.10,11.50,190.00,6.00,0.00,29.89,1007.40,8.00,M,CLR,M,M,M,M,M,M,M,M,M,M,M,M,M,M,80.07,KEKO 012056Z AUTO 19006KT 8SM CLR 28/M04 A2989 RMK AO2 SLP074 T02831044 56017,M
TPH,2021-09-01 20:56,-117.0904,38.0505,1654.00,84.00,30.00,14.16,240.00,6.00,0.00,29.92,1004.70,5.00,M,BKN,OVC,M,M,2700.00,3400.00,M,M,HZ,M,M,M,M,M,M,81.11,KTPH 012056Z AUTO 24006KT 5SM HZ BKN027 OVC034 29/M01 A2992 RMK AO2 SLP047 T02891011 56015,M
INS,2021-09-01 20:58,-115.6733,36.5872,955.00,87.80,56.70,34.89,110.00,13.00,0.00,29.80,1003.90,10.00,17.00,CLR,M,M,M,M,M,M,M,M,M,M,M,M,M,M,86.44,KINS 012058Z AUTO 11013G17KT 10SM CLR 31/14 A2980 RMK AO2 SLP039 T03100137 57012 $,M
LSV,2021-09-01 20:58,-115.0343,36.2362,570.00,85.00,60.00,42.96,120.00,13.00,0.00,29.77,1005.80,10.00,19.00,FEW,FEW,M,M,18000.00,21000.00,M,M,M,M,M,M,M,M,M,85.01,KLSV 012058Z AUTO 12013G19KT 10SM FEW180 FEW210 30/16 A2977 RMK AO2 SLP058 T02950156 57013 $,M
RNO,2021-09-01 21:13,-119.7711,39.4839,1341.00,85.00,12.90,6.67,M,4.00,0.00,29.84,M,5.00,M,BKN,M,M,M,3300.00,M,M,M,FU,M,M,M,M,M,M,80.89,KRNO 012113Z VRB04KT 5SM FU BKN033 29/M11 A2984 RMK AO2 FU BKN033 T02941106,M
TMT,2021-09-01 21:15,-117.1971,39.4643,1749.34,82.80,17.10,8.57,230.00,6.00,0.00,29.93,M,10.00,M,CLR,M,M,M,M,M,M,M,M,M,M,M,M,M,M,79.61,KTMT 012115Z AUTO 23006KT 10SM CLR 28/M08 A2993 RMK AO2 T02821083,M
BVU,2021-09-01 21:15,-114.8611,35.9475,671.00,84.20,60.80,45.34,100.00,13.00,0.00,29.80,M,10.00,M,CLR,M,M,M,M,M,M,M,M,M,M,M,M,M,M,84.43,KBVU 012115Z AUTO 10013KT 10SM CLR 29/16 A2980 RMK AO2,M
CXP,2021-09-01 21:15,-119.7326,39.1923,1431.00,82.40,10.40,6.47,320.00,3.00,0.00,29.89,M,5.00,11.00,CLR,M,M,M,M,M,M,M,HZ,M,M,M,M,M,M,79.07,KCXP 012115Z AUTO 32003G11KT 5SM HZ CLR 28/M12 A2989 RMK AO2,M
MEV,2021-09-01 21:15,-119.7500,38.9963,1441.42,84.20,15.80,7.74,300.00,8.00,0.00,29.87,M,2.50,17.00,CLR,M,M,M,M,M,M,M,HZ,M,M,M,M,M,M,80.51,KMEV 012115Z AUTO 30008G17KT 270V330 2 1/2SM HZ CLR 29/M09 A2987 RMK AO2,M
BAM,2021-09-01 21:15,-116.8743,40.5990,1382.36,86.00,23.00,9.94,350.00,3.00,0.00,29.87,M,10.00,M,CLR,M,M,M,M,M,M,M,M,M,M,M,M,M,M,82.14,KBAM 012115Z AUTO 35003KT 10SM CLR 30/M05 A2987 RMK AO1,M
HTH,2021-09-01 21:15,-118.6315,38.5448,1282.89,87.80,3.20,3.92,340.00,11.00,0.00,29.82,M,9.00,M,CLR,M,M,M,M,M,M,M,M,M,M,M,M,M,M,82.70,KHTH 012115Z AUTO 34011KT 9SM CLR 31/M16 A2982 RMK A01,M
RTS,2021-09-01 21:15,-119.8764,39.6682,1539.00,86.00,-4.00,2.96,220.00,12.00,0.00,29.89,M,10.00,17.00,CLR,M,M,M,M,M,M,M,M,M,M,M,M,M,M,81.29,KRTS 012115Z AUTO 22012G17KT 10SM CLR 30/M20 A2989 RMK AO2,M
TPH,2021-09-01 21:22,-117.0904,38.0505,1654.00,85.00,37.00,18.20,100.00,4.00,0.00,29.91,M,6.00,M,OVC,M,M,M,3100.00,M,M,M,HZ,M,M,M,M,M,M,81.88,KTPH 012122Z AUTO 10004KT 6SM HZ OVC031 29/03 A2991 RMK AO2 T02940028,M
TMT,2021-09-01 21:35,-117.1971,39.4643,1749.34,83.00,18.30,8.94,200.00,5.00,0.00,29.93,M,10.00,M,CLR,M,M,M,M,M,M,M,M,M,M,M,M,M,M,79.87,KTMT 012135Z AUTO 20005KT 10SM CLR 28/M08 A2993 RMK AO2 T02841076,M
BVU,2021-09-01 21:35,-114.8611,35.9475,671.00,84.20,60.80,45.34,120.00,11.00,0.00,29.80,M,10.00,M,CLR,M,M,M,M,M,M,M,M,M,M,M,M,M,M,84.43,KBVU 012135Z AUTO 12011KT 10SM CLR 29/16 A2980 RMK AO2,M
CXP,2021-09-01 21:35,-119.7326,39.1923,1431.00,82.40,12.20,7.01,M,5.00,0.00,29.89,M,7.00,12.00,CLR,M,M,M,M,M,M,M,M,M,M,M,M,M,M,79.13,KCXP 012135Z AUTO VRB05G12KT 7SM CLR 28/M11 A2989 RMK AO2,M
MEV,2021-09-01 21:35,-119.7500,38.9963,1441.42,84.20,15.80,7.74,280.00,12.00,0.00,29.87,M,2.50,M,CLR,M,M,M,M,M,M,M,HZ,M,M,M,M,M,M,80.51,KMEV 012135Z AUTO 28012KT 2 1/2SM HZ CLR 29/M09 A2987 RMK AO2,M
RTS,2021-09-01 21:35,-119.8764,39.6682,1539.00,86.00,-5.80,2.72,230.00,14.00,0.00,29.89,M,10.00,M,CLR,M,M,M,M,M,M,M,M,M,M,M,M,M,M,81.26,KRTS 012135Z AUTO 23014KT 10SM CLR 30/M21 A2989 RMK AO2,M
HTH,2021-09-01 21:35,-118.6315,38.5448,1282.89,87.80,1.40,3.61,340.00,9.00,0.00,29.81,M,10.00,M,CLR,M,M,M,M,M,M,M,M,M,M,M,M,M,M,82.67,KHTH 012135Z AUTO 34009KT 10SM CLR 31/M17 A2981 RMK A01,M
BAM,2021-09-01 21:35,-116.8743,40.5990,1382.36,87.80,23.00,9.39,360.00,8.00,0.00,29.86,M,10.00,M,CLR,M,M,M,M,M,M,M,M,M,M,M,M,M,M,83.43,KBAM 012135Z AUTO 36008KT 10SM CLR 31/M05 A2986 RMK AO1,M
CXP,2021-09-01 21:50,-119.7326,39.1923,1431.00,82.40,12.20,7.01,M,4.00,0.00,29.89,M,9.00,11.00,CLR,M,M,M,M,M,M,M,M,M,M,M,M,M,M,79.13,KCXP 012150Z AUTO VRB04G11KT 9SM CLR 28/M11 A2989 RMK AO2,M
P68,2021-09-01 21:53,-116.0056,39.6014,1993.00,82.00,16.00,8.38,60.00,8.00,0.00,29.91,1004.20,M,M,M,M,M,M,M,M,M,M,M,M,M,M,M,M,M,79.02,KP68 012153Z AUTO 06008KT 28/M09 A2991 RMK AO1 SLP042 T02781089,M
ELY,2021-09-01 21:53,-114.8453,39.2950,1909.00,80.00,34.00,18.88,290.00,10.00,0.00,29.94,1003.30,8.00,17.00,CLR,M,M,M,M,M,M,M,M,M,M,M,M,M,M,78.70,KELY 012153Z AUTO 29010G17KT 8SM CLR 27/01 A2994 RMK AO2 LTG DSNT SE SLP033 T02670011,M
VGT,2021-09-01 21:53,-115.1933,36.2111,667.00,89.00,60.00,37.83,110.00,14.00,0.00,29.76,1006.60,10.00,18.00,CLR,M,M,M,M,M,M,M,M,M,M,M,M,M,M,88.76,KVGT 012153Z 11014G18KT 10SM CLR 32/16 A2976 RMK AO2 SLP066 T03170156,M
LOL,2021-09-01 21:53,-118.5701,40.0684,1192.43,86.00,17.10,7.73,240.00,5.00,0.00,29.82,1005.40,4.00,M,SCT,M,M,M,4300.00,M,M,M,HZ,M,M,M,M,M,M,81.83,KLOL 012153Z AUTO 24005KT 4SM HZ SCT043 30/M08 A2982 RMK AO2 SLP054 T03001083,M
DRA,2021-09-01 21:53,-116.0278,36.6206,1009.00,93.00,48.00,21.51,240.00,19.00,0.00,29.78,1003.00,10.00,24.00,CLR,M,M,M,M,M,M,M,M,M,M,M,30.00,200.00,2021-09-01 21:19,89.58,KDRA 012153Z AUTO 24019G24KT 10SM CLR 34/09 A2978 RMK AO2 PK WND 20030/2119 SLP030 T03390089,M
MEV,2021-09-01 21:55,-119.7500,38.9963,1441.42,84.20,17.60,8.37,280.00,14.00,0.00,29.86,M,2.50,M,CLR,M,M,M,M,M,M,M,HZ,M,M,M,M,M,M,80.59,KMEV 012155Z AUTO 28014KT 2 1/2SM HZ CLR 29/M08 A2986 RMK AO2,M
BAM,2021-09-01 21:55,-116.8743,40.5990,1382.36,86.00,23.00,9.94,320.00,5.00,0.00,29.86,M,10.00,M,CLR,M,M,M,M,M,M,M,M,M,M,M,M,M,M,82.14,KBAM 012155Z AUTO 32005KT 10SM CLR 30/M05 A2986 RMK AO1,M
HTH,2021-09-01 21:55,-118.6315,38.5448,1282.89,89.60,5.00,4.03,330.00,12.00,0.00,29.80,M,9.00,M,CLR,M,M,M,M,M,M,M,M,M,M,M,M,M,M,84.03,KHTH 012155Z AUTO 33012KT 9SM CLR 32/M15 A2980 RMK A01,M
TMT,2021-09-01 21:55,-117.1971,39.4643,1749.34,83.80,18.90,8.96,210.00,5.00,0.00,29.92,M,10.00,M,CLR,M,M,M,M,M,M,M,M,M,M,M,M,M,M,80.38,KTMT 012155Z AUTO 21005KT 10SM CLR 29/M07 A2992 RMK AO2 T02881073,M
BVU,2021-09-01 21:55,-114.8611,35.9475,671.00,86.00,60.80,42.80,140.00,10.00,0.00,29.79,M,9.00,17.00,CLR,M,M,M,M,M,M,M,M,M,M,M,M,M,M,86.05,KBVU 012155Z AUTO 14010G17KT 9SM CLR 30/16 A2979 RMK AO2,M
RTS,2021-09-01 21:55,-119.8764,39.6682,1539.00,86.00,-5.80,2.72,200.00,12.00,0.00,29.89,M,10.00,20.00,CLR,M,M,M,M,M,M,M,M,M,M,M,M,M,M,81.26,KRTS 012155Z AUTO 20012G20KT 10SM CLR 30/M21 A2989 RMK AO2,M
RNO,2021-09-01 21:55,-119.7711,39.4839,1341.00,87.00,12.00,5.97,0.00,0.00,0.00,29.83,1004.70,7.00,M,FEW,M,M,M,4000.00,M,M,M,M,M,M,M,M,M,M,82.42,KRNO 012155Z 00000KT 7SM FEW040 31/M11 A2983 RMK AO2 SLP047 FU FEW04O HZ ALQDS T03061111 $,M
WMC,2021-09-01 21:56,-117.8072,40.9019,1315.00,85.00,15.10,7.34,200.00,5.00,0.00,29.84,1006.40,8.00,M,CLR,M,M,M,M,M,M,M,M,M,M,M,M,M,M,80.97,KWMC 012156Z AUTO 20005KT 8SM CLR 29/M09 A2984 RMK AO2 SLP064 T02941094 $,M
EKO,2021-09-01 21:56,-115.7860,40.8242,1367.00,85.00,19.90,9.03,270.00,11.00,0.00,29.88,1006.30,8.00,16.00,CLR,M,M,M,M,M,M,M,M,M,M,M,M,M,M,81.19,KEKO 012156Z AUTO 27011G16KT 8SM CLR 29/M07 A2988 RMK AO2 SLP063 T02941067,M
NFL,2021-09-01 21:56,-118.7010,39.4166,1199.00,87.00,12.00,5.97,300.00,6.00,0.00,29.81,1007.30,4.00,M,BKN,M,M,M,6000.00,M,M,M,FU,M,M,M,M,M,M,82.42,KNFL 012156Z 30006KT 4SM FU BKN060 31/M11 A2981 RMK SLP073 FU BKN060 T03061111,M
HND,2021-09-01 21:56,-115.1344,35.9729,742.79,90.00,59.00,35.36,160.00,13.00,0.00,29.80,1007.50,10.00,M,CLR,M,M,M,M,M,M,M,M,M,M,M,M,M,M,89.26,KHND 012156Z 16013KT 10SM CLR 32/15 A2980 RMK AO2 SLP075 T03220150,M
TPH,2021-09-01 21:56,-117.0904,38.0505,1654.00,87.00,33.00,14.53,180.00,9.00,0.00,29.90,1004.40,7.00,21.00,BKN,M,M,M,3300.00,M,M,M,M,M,M,M,M,M,M,83.52,KTPH 012156Z AUTO 18009G21KT 7SM BKN033 31/01 A2990 RMK AO2 SLP044 T03060006,M
LAS,2021-09-01 21:56,-115.1634,36.0719,663.00,89.00,59.00,36.37,180.00,7.00,0.00,29.76,1005.20,10.00,M,FEW,FEW,SCT,M,7000.00,12000.00,15000.00,M,M,M,M,M,M,M,M,88.37,KLAS 012156Z 18007KT 10SM FEW070 FEW120 SCT150 32/15 A2976 RMK AO2 SLP052 T03170150,M
LSV,2021-09-01 21:58,-115.0343,36.2362,570.00,87.00,59.50,39.70,110.00,13.00,0.00,29.75,1005.00,10.00,M,CLR,M,M,M,M,M,M,M,M,M,M,M,M,M,M,86.44,KLSV 012158Z AUTO 11013KT 10SM CLR 31/15 A2975 RMK AO2 SLP050 T03050153 $,M
INS,2021-09-01 21:58,-115.6733,36.5872,955.00,87.60,56.50,34.86,100.00,14.00,0.00,29.79,1003.50,10.00,20.00,CLR,M,M,M,M,M,M,M,M,M,M,M,M,M,M,86.21,KINS 012158Z AUTO 10014G20KT 10SM CLR 31/14 A2979 RMK AO2 SLP035 T03090136 $,M
INS,2021-09-01 22:09,-115.6733,36.5872,955.00,87.80,55.40,33.29,90.00,16.00,0.00,29.79,1003.70,10.00,19.00,CLR,M,M,M,M,M,M,M,M,M,M,M,M,M,M,86.11,KINS 012209Z AUTO 09016G19KT 10SM CLR 31/13 A2979 RMK AO2 WSHFT 00 SLP037 $,M
TMT,2021-09-01 22:15,-117.1971,39.4643,1749.34,83.50,18.70,8.97,190.00,4.00,0.00,29.91,M,10.00,14.00,CLR,M,M,M,M,M,M,M,M,M,M,M,M,M,M,80.16,KTMT 012215Z AUTO 19004G14KT 10SM CLR 29/M07 A2991 RMK AO2 T02861074,M
BVU,2021-09-01 22:15,-114.8611,35.9475,671.00,86.00,60.80,42.80,120.00,13.00,0.00,29.78,M,10.00,18.00,CLR,M,M,M,M,M,M,M,M,M,M,M,M,M,M,86.05,KBVU 012215Z AUTO 12013G18KT 10SM CLR 30/16 A2978 RMK AO2,M
CXP,2021-09-01 22:15,-119.7326,39.1923,1431.00,82.40,10.40,6.47,280.00,12.00,0.00,29.88,M,10.00,20.00,CLR,M,M,M,M,M,M,M,M,M,M,M,M,M,M,79.07,KCXP 012215Z AUTO 28012G20KT 10SM CLR 28/M12 A2988 RMK AO2,M
RTS,2021-09-01 22:15,-119.8764,39.6682,1539.00,86.00,-2.20,3.23,220.00,13.00,0.00,29.89,M,10.00,23.00,CLR,M,M,M,M,M,M,M,M,M,M,M,M,M,M,81.31,KRTS 012215Z AUTO 22013G23KT 10SM CLR 30/M19 A2989 RMK AO2,M
MEV,2021-09-01 22:15,-119.7500,38.9963,1441.42,84.20,17.60,8.37,290.00,14.00,0.00,29.86,M,2.50,M,CLR,M,M,M,M,M,M,M,HZ,M,M,M,M,M,M,80.59,KMEV 012215Z AUTO 29014KT 2 1/2SM HZ CLR 29/M08 A2986 RMK AO2,M
BAM,2021-09-01 22:15,-116.8743,40.5990,1382.36,87.80,23.00,9.39,310.00,8.00,0.00,29.85,M,10.00,M,CLR,M,M,M,M,M,M,M,M,M,M,M,M,M,M,83.43,KBAM 012215Z AUTO 31008KT 10SM CLR 31/M05 A2985 RMK AO1,M
HTH,2021-09-01 22:15,-118.6315,38.5448,1282.89,89.60,5.00,4.03,330.00,11.00,0.00,29.80,M,10.00,M,CLR,M,M,M,M,M,M,M,M,M,M,M,M,M,M,84.03,KHTH 012215Z AUTO 33011KT 10SM CLR 32/M15 A2980 RMK A01,M
HTH,2021-09-01 22:35,-118.6315,38.5448,1282.89,89.60,3.20,3.71,330.00,12.00,0.00,29.80,M,10.00,M,CLR,M,M,M,M,M,M,M,M,M,M,M,M,M,M,83.99,KHTH 012235Z AUTO 33012KT 10SM CLR 32/M16 A2980 RMK A01,M
TMT,2021-09-01 22:35,-117.1971,39.4643,1749.34,85.00,20.10,9.11,230.00,7.00,0.00,29.91,M,10.00,M,CLR,M,M,M,M,M,M,M,M,M,M,M,M,M,M,81.20,KTMT 012235Z AUTO 23007KT 10SM CLR 29/M07 A2991 RMK AO2 T02941066,M
CXP,2021-09-01 22:35,-119.7326,39.1923,1431.00,80.60,12.20,7.43,280.00,10.00,0.00,29.88,M,10.00,23.00,CLR,M,M,M,M,M,M,M,M,M,M,M,M,M,M,78.16,KCXP 012235Z AUTO 28010G23KT 10SM CLR 27/M11 A2988 RMK AO2,M
BVU,2021-09-01 22:35,-114.8611,35.9475,671.00,86.00,60.80,42.80,130.00,10.00,0.00,29.77,M,10.00,18.00,CLR,M,M,M,M,M,M,M,M,M,M,M,M,M,M,86.05,KBVU 012235Z AUTO 13010G18KT 10SM CLR 30/16 A2977 RMK AO2 LTG DSNT E,M
RTS,2021-09-01 22:35,-119.8764,39.6682,1539.00,84.20,-0.40,3.72,220.00,12.00,0.00,29.89,M,10.00,20.00,CLR,M,M,M,M,M,M,M,M,M,M,M,M,M,M,80.05,KRTS 012235Z AUTO 22012G20KT 10SM CLR 29/M18 A2989 RMK AO2,M
MEV,2021-09-01 22:35,-119.7500,38.9963,1441.42,84.20,17.60,8.37,280.00,17.00,0.00,29.86,M,2.50,M,CLR,M,M,M,M,M,M,M,HZ,M,M,M,M,M,M,80.59,KMEV 012235Z AUTO 28017KT 2 1/2SM HZ CLR 29/M08 A2986 RMK AO2,M
BAM,2021-09-01 22:35,-116.8743,40.5990,1382.36,87.80,23.00,9.39,20.00,4.00,0.00,29.85,M,10.00,M,CLR,M,M,M,M,M,M,M,M,M,M,M,M,M,M,83.43,KBAM 012235Z AUTO 02004KT 10SM CLR 31/M05 A2985 RMK AO1,M
P68,2021-09-01 22:53,-116.0056,39.6014,1993.00,82.00,18.00,9.14,80.00,5.00,0.00,29.90,1004.50,M,M,M,M,M,M,M,M,M,M,M,M,M,M,M,M,M,79.12,KP68 012253Z AUTO 08005KT 28/M08 A2990 RMK AO1 SLP045 T02781078,M
VGT,2021-09-01 22:53,-115.1933,36.2111,667.00,91.00,61.00,36.80,100.00,13.00,0.00,29.74,1005.90,10.00,M,CLR,M,M,M,M,M,M,M,M,M,M,M,M,M,M,91.06,KVGT 012253Z 10013KT 10SM CLR 33/16 A2974 RMK AO2 SLP059 T03280161,M
DRA,2021-09-01 22:53,-116.0278,36.6206,1009.00,93.00,46.00,19.95,210.00,16.00,0.00,29.77,1002.50,10.00,24.00,CLR,M,M,M,M,M,M,M,M,M,M,M,29.00,240.00,2021-09-01 21:54,89.31,KDRA 012253Z AUTO 21016G24KT 10SM CLR 34/08 A2977 RMK AO2 PK WND 24029/2154 SLP025 T03390078,M
ELY,2021-09-01 22:53,-114.8453,39.2950,1909.00,80.00,35.00,19.72,240.00,8.00,0.00,29.93,1003.50,8.00,M,CLR,M,M,M,M,M,M,M,M,M,M,M,M,M,M,78.74,KELY 012253Z AUTO 24008KT 8SM CLR 27/02 A2993 RMK AO2 LTG DSNT SE SLP035 T02670017,M
LOL,2021-09-01 22:53,-118.5701,40.0684,1192.43,87.00,16.00,7.12,M,5.00,0.00,29.80,1004.90,4.00,M,OVC,M,M,M,3700.00,M,M,M,HZ,M,M,M,M,M,M,82.57,KLOL 012253Z AUTO VRB05KT 4SM HZ OVC037 31/M09 A2980 RMK AO2 SLP049 T03061089,M
BVU,2021-09-01 22:55,-114.8611,35.9475,671.00,87.80,60.80,40.41,130.00,12.00,0.00,29.77,M,10.00,19.00,CLR,M,M,M,M,M,M,M,M,M,M,M,M,M,M,87.75,KBVU 012255Z AUTO 13012G19KT 10SM CLR 31/16 A2977 RMK AO2,M
CXP,2021-09-01 22:55,-119.7326,39.1923,1431.00,80.60,14.00,8.04,280.00,17.00,0.00,29.87,M,9.00,25.00,CLR,M,M,M,M,M,M,M,M,M,M,M,M,M,M,78.25,KCXP 012255Z AUTO 28017G25KT 9SM CLR 27/M10 A2987 RMK AO2,M
RNO,2021-09-01 22:55,-119.7711,39.4839,1341.00,88.00,12.00,5.80,330.00,7.00,0.00,29.82,1004.30,10.00,M,FEW,M,M,M,5000.00,M,M,M,M,M,M,M,M,M,M,83.07,KRNO 012255Z 33007KT 10SM FEW050 31/M11 A2982 RMK AO2 SLP043 FU FEW050 FU AND HZ ALQDS T03111111 $,M
RTS,2021-09-01 22:55,-119.8764,39.6682,1539.00,84.20,1.40,4.05,240.00,13.00,0.00,29.89,M,10.00,19.00,CLR,M,M,M,M,M,M,M,M,M,M,M,M,M,M,80.08,KRTS 012255Z AUTO 24013G19KT 10SM CLR 29/M17 A2989 RMK AO2,M
MEV,2021-09-01 22:55,-119.7500,38.9963,1441.42,82.40,21.20,10.34,280.00,14.00,0.00,29.86,M,2.00,19.00,CLR,M,M,M,M,M,M,M,HZ,M,M,M,M,M,M,79.55,KMEV 012255Z AUTO 28014G19KT 2SM HZ CLR 28/M06 A2986 RMK AO2,M
TMT,2021-09-01 22:55,-117.1971,39.4643,1749.34,84.40,20.50,9.41,360.00,8.00,0.00,29.90,M,10.00,M,CLR,M,M,M,M,M,M,M,M,M,M,M,M,M,M,80.87,KTMT 012255Z AUTO 36008KT 320V020 10SM CLR 29/M06 A2990 RMK AO2 T02911064,M
BAM,2021-09-01 22:55,-116.8743,40.5990,1382.36,87.80,21.20,8.70,350.00,6.00,0.00,29.84,M,10.00,M,CLR,M,M,M,M,M,M,M,M,M,M,M,M,M,M,83.33,KBAM 012255Z AUTO 35006KT 10SM CLR 31/M06 A2984 RMK AO1,M
HTH,2021-09-01 22:55,-118.6315,38.5448,1282.89,89.60,3.20,3.71,320.00,12.00,0.00,29.79,M,10.00,M,CLR,M,M,M,M,M,M,M,M,M,M,M,M,M,M,83.99,KHTH 012255Z AUTO 32012KT 10SM CLR 32/M16 A2979 RMK A01,M
WMC,2021-09-01 22:56,-117.8072,40.9019,1315.00,87.00,15.10,6.84,250.00,5.00,0.00,29.83,1005.90,9.00,M,CLR,M,M,M,M,M,M,M,M,M,M,M,M,M,M,82.53,KWMC 012256Z AUTO 25005KT 9SM CLR 31/M09 A2983 RMK AO2 SLP059 T03061094 $,M
EKO,2021-09-01 22:56,-115.7860,40.8242,1367.00,86.00,16.00,7.37,260.00,14.00,0.00,29.86,1006.10,8.00,18.00,CLR,M,M,M,M,M,M,M,M,M,M,M,M,M,M,81.78,KEKO 012256Z AUTO 26014G18KT 8SM CLR 30/M09 A2986 RMK AO2 SLP061 T03001089,M
HND,2021-09-01 22:56,-115.1344,35.9729,742.79,91.00,60.00,35.64,140.00,10.00,0.00,29.78,1006.90,10.00,16.00,CLR,M,M,M,M,M,M,M,M,M,M,M,M,M,M,90.69,KHND 012256Z 14010G16KT 10SM CLR 33/16 A2978 RMK AO2 SLP069 T03280156,M
TPH,2021-09-01 22:56,-117.0904,38.0505,1654.00,87.00,34.00,15.06,180.00,16.00,0.00,29.89,1004.10,8.00,21.00,FEW,M,M,M,3900.00,M,M,M,M,M,M,M,M,M,M,83.53,KTPH 012256Z AUTO 18016G21KT 8SM FEW039 31/01 A2989 RMK AO2 SLP041 T03060011,M
NFL,2021-09-01 22:56,-118.7010,39.4166,1199.00,90.00,12.90,5.67,M,4.00,0.00,29.80,1006.80,4.00,M,BKN,M,M,M,5000.00,M,M,M,FU,M,M,M,M,M,M,84.55,KNFL 012256Z VRB04KT 4SM FU BKN050 32/M11 A2980 RMK SLP068 FU BKN050 T03221106,M
LAS,2021-09-01 22:56,-115.1634,36.0719,663.00,92.00,57.00,31.00,M,6.00,0.00,29.75,1004.60,10.00,M,FEW,FEW,SCT,M,7000.00,12000.00,15000.00,M,M,M,M,M,M,M,M,90.50,KLAS 012256Z VRB06KT 10SM FEW070 FEW120 SCT150 33/14 A2975 RMK AO2 SLP046 T03330139,M
LSV,2021-09-01 22:58,-115.0343,36.2362,570.00,88.20,60.00,38.92,120.00,12.00,0.00,29.73,1004.40,10.00,M,CLR,M,M,M,M,M,M,M,M,M,M,M,M,M,M,87.88,KLSV 012258Z AUTO 12012KT 10SM CLR 31/16 A2973 RMK AO2 SLP044 T03120156 $,M
INS,2021-09-01 22:58,-115.6733,36.5872,955.00,88.00,55.20,32.84,100.00,15.00,0.00,29.77,1003.00,10.00,21.00,CLR,M,M,M,M,M,M,M,M,M,M,M,M,M,M,86.25,KINS 012258Z AUTO 10015G21KT 10SM CLR 31/13 A2977 RMK AO2 SLP030 T03110129 $,M
LAS,2021-09-01 22:59,-115.1634,36.0719,663.00,91.00,57.00,31.89,M,5.00,0.00,29.75,M,10.00,M,FEW,FEW,SCT,M,7000.00,12000.00,15000.00,M,M,M,M,M,M,M,M,89.59,KLAS 012259Z VRB05KT 10SM FEW070 FEW120 SCT150 33/14 A2975 RMK AO2 T03280139,M
BVU,2021-09-01 23:15,-114.8611,35.9475,671.00,87.80,59.00,37.90,140.00,15.00,0.00,29.77,M,10.00,M,CLR,M,M,M,M,M,M,M,M,M,M,M,M,M,M,87.12,KBVU 012315Z AUTO 14015KT 10SM CLR 31/15 A2977 RMK AO2,M
TMT,2021-09-01 23:15,-117.1971,39.4643,1749.34,83.00,20.10,9.65,350.00,10.00,0.00,29.91,M,10.00,14.00,CLR,M,M,M,M,M,M,M,M,M,M,M,M,M,M,79.96,KTMT 012315Z AUTO 35010G14KT 10SM CLR 28/M07 A2991 RMK AO2 T02841066,M
HTH,2021-09-01 23:15,-118.6315,38.5448,1282.89,89.60,3.20,3.71,320.00,12.00,0.00,29.79,M,10.00,M,CLR,M,M,M,M,M,M,M,M,M,M,M,M,M,M,83.99,KHTH 012315Z AUTO 32012KT 10SM CLR 32/M16 A2979 RMK A01,M
BAM,2021-09-01 23:15,-116.8743,40.5990,1382.36,87.80,21.20,8.70,340.00,7.00,0.00,29.84,M,10.00,M,CLR,M,M,M,M,M,M,M,M,M,M,M,M,M,M,83.33,KBAM 012315Z AUTO 34007KT 10SM CLR 31/M06 A2984 RMK AO1,M
MEV,2021-09-01 23:15,-119.7500,38.9963,1441.42,82.40,21.20,10.34,270.00,15.00,0.00,29.86,M,2.00,M,CLR,M,M,M,M,M,M,M,HZ,M,M,M,M,M,M,79.55,KMEV 012315Z AUTO 27015KT 2SM HZ CLR 28/M06 A2986 RMK AO2,M
RTS,2021-09-01 23:15,-119.8764,39.6682,1539.00,84.20,3.20,4.40,250.00,16.00,0.00,29.89,M,10.00,24.00,CLR,M,M,M,M,M,M,M,M,M,M,M,M,M,M,80.12,KRTS 012315Z AUTO 25016G24KT 10SM CLR 29/M16 A2989 RMK AO2,M
CXP,2021-09-01 23:15,-119.7326,39.1923,1431.00,80.60,14.00,8.04,280.00,15.00,0.00,29.87,M,10.00,22.00,CLR,M,M,M,M,M,M,M,M,M,M,M,M,M,M,78.25,KCXP 012315Z AUTO 28015G22KT 260V320 10SM CLR 27/M10 A2987 RMK AO2,M
CXP,2021-09-01 23:35,-119.7326,39.1923,1431.00,80.60,15.80,8.70,280.00,11.00,0.00,29.87,M,10.00,24.00,CLR,M,M,M,M,M,M,M,M,M,M,M,M,M,M,78.35,KCXP 012335Z AUTO 28011G24KT 10SM CLR 27/M09 A2987 RMK AO2,M
BVU,2021-09-01 23:35,-114.8611,35.9475,671.00,87.80,59.00,37.90,150.00,15.00,0.00,29.77,M,10.00,M,CLR,M,M,M,M,M,M,M,M,M,M,M,M,M,M,87.12,KBVU 012335Z AUTO 15015KT 10SM CLR 31/15 A2977 RMK AO2,M
RTS,2021-09-01 23:35,-119.8764,39.6682,1539.00,84.20,5.00,4.78,230.00,15.00,0.00,29.90,M,10.00,M,CLR,M,M,M,M,M,M,M,M,M,M,M,M,M,M,80.16,KRTS 012335Z AUTO 23015KT 10SM CLR 29/M15 A2990 RMK AO2,M
MEV,2021-09-01 23:35,-119.7500,38.9963,1441.42,82.40,17.60,8.87,260.00,15.00,0.00,29.87,M,1.50,M,CLR,M,M,M,M,M,M,M,HZ,M,M,M,M,M,M,79.36,KMEV 012335Z AUTO 26015KT 1 1/2SM HZ CLR 28/M08 A2987 RMK AO2,M
BAM,2021-09-01 23:35,-116.8743,40.5990,1382.36,87.80,21.20,8.70,360.00,6.00,0.00,29.84,M,10.00,M,CLR,M,M,M,M,M,M,M,M,M,M,M,M,M,M,83.33,KBAM 012335Z AUTO 36006KT 330V030 10SM CLR 31/M06 A2984 RMK AO1,M
HTH,2021-09-01 23:35,-118.6315,38.5448,1282.89,89.60,5.00,4.03,330.00,10.00,0.00,29.79,M,10.00,15.00,CLR,M,M,M,M,M,M,M,M,M,M,M,M,M,M,84.03,KHTH 012335Z AUTO 33010G15KT 10SM CLR 32/M15 A2979 RMK A01,M
TMT,2021-09-01 23:35,-117.1971,39.4643,1749.34,83.30,20.10,9.59,350.00,8.00,0.00,29.91,M,10.00,16.00,CLR,M,M,M,M,M,M,M,M,M,M,M,M,M,M,80.10,KTMT 012335Z AUTO 35008G16KT 10SM CLR 29/M07 A2991 RMK AO2 T02851066,M
CXP,2021-09-01 23:50,-119.7326,39.1923,1431.00,80.60,14.00,8.04,270.00,10.00,0.00,29.88,M,10.00,19.00,FEW,M,M,M,3100.00,M,M,M,M,M,M,M,M,M,M,78.25,KCXP 012350Z AUTO 27010G19KT 10SM FEW031 27/M10 A2988 RMK AO2,M
LOL,2021-09-01 23:53,-118.5701,40.0684,1192.43,89.00,16.00,6.68,140.00,8.00,0.00,29.79,1004.60,4.00,M,OVC,M,M,M,3800.00,M,M,M,HZ,M,M,M,M,M,M,84.01,KLOL 012353Z AUTO 14008KT 4SM HZ OVC038 32/M09 A2979 RMK AO2 SLP046 T03171089 10317 20250 56012,M
P68,2021-09-01 23:53,-116.0056,39.6014,1993.00,83.00,17.10,8.54,130.00,7.00,0.00,29.89,1004.00,M,M,M,M,M,M,M,M,M,M,M,M,M,M,M,M,M,79.67,KP68 012353Z AUTO 13007KT 28/M08 A2989 RMK AO1 SLP040 T02831083 10289 20233 56011,M
VGT,2021-09-01 23:53,-115.1933,36.2111,667.00,91.00,62.00,38.26,100.00,12.00,0.00,29.73,1005.60,10.00,M,CLR,M,M,M,M,M,M,M,M,M,M,M,M,M,M,91.56,KVGT 012353Z 10012KT 10SM CLR 33/17 A2973 RMK AO2 SLP056 T03280167 10328 20278 56016,M
ELY,2021-09-01 23:53,-114.8453,39.2950,1909.00,80.00,37.00,21.27,270.00,8.00,0.00,29.93,1003.90,9.00,M,CLR,M,M,M,M,M,M,M,M,M,M,M,M,M,M,78.81,KELY 012353Z AUTO 27008KT 9SM CLR 27/03 A2993 RMK AO2 SLP039 T02670028 10272 20222 56005,M
DRA,2021-09-01 23:53,-116.0278,36.6206,1009.00,92.00,45.00,19.88,210.00,18.00,0.00,29.77,1002.50,10.00,26.00,CLR,M,M,M,M,M,M,M,M,M,M,M,26.00,220.00,2021-09-01 23:44,88.17,KDRA 012353Z AUTO 21018G26KT 10SM CLR 33/07 A2977 RMK AO2 PK WND 22026/2344 SLP025 T03330072 10339 20294 56008,M
MEV,2021-09-01 23:55,-119.7500,38.9963,1441.42,80.60,17.60,9.40,270.00,16.00,0.00,29.87,M,1.50,M,CLR,M,M,M,M,M,M,M,HZ,M,M,M,M,M,M,78.45,KMEV 012355Z AUTO 27016KT 1 1/2SM HZ CLR 27/M08 A2987 RMK AO2,M
RTS,2021-09-01 23:55,-119.8764,39.6682,1539.00,84.20,5.00,4.78,250.00,17.00,0.00,29.90,M,10.00,M,CLR,M,M,M,M,M,M,M,M,M,M,M,M,M,M,80.16,KRTS 012355Z AUTO 25017KT 10SM CLR 29/M15 A2990 RMK AO2,M
TMT,2021-09-01 23:55,-117.1971,39.4643,1749.34,82.60,19.20,9.44,330.00,12.00,0.00,29.92,M,10.00,M,CLR,M,M,M,M,M,M,M,M,M,M,M,M,M,M,79.58,KTMT 012355Z AUTO 33012KT 10SM CLR 28/M07 A2992 RMK AO2 T02811071 10294 20222,M
BVU,2021-09-01 23:55,-114.8611,35.9475,671.00,87.80,60.80,40.41,150.00,15.00,0.00,29.76,M,10.00,M,CLR,M,M,M,M,M,M,M,M,M,M,M,M,M,M,87.75,KBVU 012355Z AUTO 15015KT 10SM CLR 31/16 A2976 RMK AO2,M
RNO,2021-09-01 23:55,-119.7711,39.4839,1341.00,87.00,12.00,5.97,290.00,20.00,0.00,29.83,1004.70,10.00,25.00,FEW,M,M,M,6000.00,M,M,M,M,M,M,M,M,M,M,82.42,KRNO 012355Z 29020G25KT 10SM FEW060 31/M11 A2983 RMK AO2 SLP047 FU FEW060 FU ALF ALQDS T03061111 10322 20206 55006 $,M
BAM,2021-09-01 23:55,-116.8743,40.5990,1382.36,87.80,21.20,8.70,320.00,5.00,0.00,29.84,M,10.00,M,CLR,M,M,M,M,M,M,M,M,M,M,M,M,M,M,83.33,KBAM 012355Z AUTO 32005KT 10SM CLR 31/M06 A2984 RMK AO1,M
HTH,2021-09-01 23:55,-118.6315,38.5448,1282.89,89.60,3.20,3.71,330.00,11.00,0.00,29.78,M,10.00,M,CLR,M,M,M,M,M,M,M,M,M,M,M,M,M,M,83.99,KHTH 012355Z AUTO 33011KT 10SM CLR 32/M16 A2978 RMK A01,M
EKO,2021-09-01 23:56,-115.7860,40.8242,1367.00,84.00,16.00,7.86,270.00,12.00,0.00,29.86,1006.20,10.00,M,CLR,M,M,M,M,M,M,M,M,M,M,M,M,M,M,80.38,KEKO 012356Z AUTO 27012KT 10SM CLR 29/M09 A2986 RMK AO2 SLP062 T02891089 10300 20217 56007,M
NFL,2021-09-01 23:56,-118.7010,39.4166,1199.00,88.00,9.00,5.08,350.00,6.00,0.00,29.79,1006.70,3.00,M,BKN,M,M,M,4000.00,M,M,M,FU,M,M,M,M,M,M,82.98,KNFL 012356Z 35006KT 3SM FU BKN040 31/M13 A2979 RMK SLP067 FU BKN040 T03111128 10328 20239 56010,M
WMC,2021-09-01 23:56,-117.8072,40.9019,1315.00,88.00,14.00,6.34,M,M,0.00,29.83,1006.00,9.00,M,CLR,M,M,M,M,M,M,M,M,M,M,M,M,M,M,83.14,KWMC 012356Z AUTO 9SM CLR 31/M10 A2983 RMK AO2 SLP060 T03111100 10311 20233 56008 $,M
TPH,2021-09-01 23:56,-117.0904,38.0505,1654.00,85.00,36.00,17.50,190.00,13.00,0.00,29.88,1004.40,10.00,18.00,CLR,M,M,M,M,M,M,M,M,M,M,M,M,M,M,81.86,KTPH 012356Z AUTO 19013G18KT 10SM CLR 29/02 A2988 RMK AO2 SLP044 T02940022 10306 20239 56009,M
HND,2021-09-01 23:56,-115.1344,35.9729,742.79,90.00,60.00,36.77,150.00,15.00,0.00,29.77,1006.60,10.00,23.00,CLR,M,M,M,M,M,M,M,M,M,M,M,M,M,M,89.66,KHND 012356Z 15015G23KT 10SM CLR 32/16 A2977 RMK AO2 SLP066 T03220156 10328 20272 56015,M
LAS,2021-09-01 23:56,-115.1634,36.0719,663.00,91.00,58.00,32.94,150.00,9.00,0.00,29.74,1004.30,10.00,17.00,FEW,SCT,M,M,12000.00,15000.00,M,M,M,M,M,M,M,M,M,89.88,KLAS 012356Z 15009G17KT 120V180 10SM FEW120 SCT150 33/14 A2974 RMK AO2 SLP043 HAZY T03280144 10333 20283 56017,M
INS,2021-09-01 23:58,-115.6733,36.5872,955.00,87.80,56.00,33.90,100.00,17.00,0.00,29.77,1003.20,10.00,21.00,CLR,M,M,M,M,M,M,M,M,M,M,M,M,M,M,86.24,KINS 012358Z AUTO 10017G21KT 10SM CLR 31/13 A2977 RMK AO2 SLP032 T03100133 10313 20278 56010 $,M
LSV,2021-09-01 23:58,-115.0343,36.2362,570.00,88.20,60.00,38.92,100.00,12.00,0.00,29.72,1004.10,10.00,M,CLR,M,M,M,M,M,M,M,M,M,M,M,M,M,M,87.88,KLSV 012358Z AUTO 10012KT 10SM CLR 31/16 A2972 RMK AO2 SLP041 T03120156 10315 20270 57016 $,M
