station,valid,lon,lat,elevation,tmpf,dwpf,relh,drct,sknt,p01i,alti,mslp,vsby,gust,skyc1,skyc2,skyc3,skyc4,skyl1,skyl2,skyl3,skyl4,wxcodes,ice_accretion_1hr,ice_accretion_3hr,ice_accretion_6hr,peak_wind_gust,peak_wind_drct,peak_wind_time,feel,metar,snowdepth
BAM,2021-09-18 00:15,-116.8743,40.5990,1382.36,87.80,21.20,8.70,250.00,5.00,0.00,29.99,M,10.00,M,CLR,M,M,M,M,M,M,M,M,M,M,M,M,M,M,83.33,KBAM 180015Z AUTO 25005KT 10SM CLR 31/M06 A2999 RMK AO1,M
MEV,2021-09-18 00:15,-119.7500,38.9963,1441.42,80.60,30.20,15.94,270.00,13.00,0.00,30.02,M,9.00,22.00,CLR,M,M,M,M,M,M,M,M,M,M,M,M,M,M,78.77,KMEV 180015Z AUTO 27013G22KT 9SM CLR 27/M01 A3002 RMK AO2,M
BVU,2021-09-18 00:15,-114.8611,35.9475,671.00,89.60,46.40,22.53,150.00,10.00,0.00,29.98,M,10.00,16.00,FEW,M,M,M,12000.00,M,M,M,M,M,M,M,M,M,M,86.24,KBVU 180015Z AUTO 15010G16KT 10SM FEW120 32/08 A2998 RMK AO2,M
TMT,2021-09-18 00:15,-117.1971,39.4643,1749.34,82.00,23.20,11.40,220.00,14.00,0.00,30.10,M,10.00,22.00,CLR,M,M,M,M,M,M,M,M,M,M,M,M,M,M,79.41,KTMT 180015Z AUTO 22014G22KT 10SM CLR 28/M05 A3010 RMK AO2 T02781049,M
HTH,2021-09-18 00:15,-118.6315,38.5448,1282.89,87.80,14.00,6.38,170.00,15.00,0.00,29.95,M,6.00,21.00,CLR,M,M,M,M,M,M,M,HZ,M,M,M,M,M,M,83.00,KHTH 180015Z AUTO 17015G21KT 6SM HZ CLR 31/M10 A2995 RMK A01,M
CXP,2021-09-18 00:15,-119.7326,39.1923,1431.00,80.60,32.00,17.14,280.00,13.00,0.00,30.03,M,10.00,19.00,CLR,M,M,M,M,M,M,M,M,M,M,M,M,M,M,78.82,KCXP 180015Z AUTO 28013G19KT 10SM CLR 27/M00 A3003 RMK AO2,M
RTS,2021-09-18 00:15,-119.8764,39.6682,1539.00,80.60,23.00,11.83,240.00,15.00,0.00,30.04,M,10.00,M,CLR,M,M,M,M,M,M,M,M,M,M,M,M,M,M,78.80,KRTS 180015Z AUTO 24015KT 10SM CLR 27/M05 A3004 RMK AO2,M
BAM,2021-09-18 00:35,-116.8743,40.5990,1382.36,87.80,21.20,8.70,260.00,5.00,0.00,29.99,M,10.00,M,CLR,M,M,M,M,M,M,M,M,M,M,M,M,M,M,83.33,KBAM 180035Z AUTO 26005KT 10SM CLR 31/M06 A2999 RMK AO1,M
MEV,2021-09-18 00:35,-119.7500,38.9963,1441.42,80.60,30.20,15.94,260.00,8.00,0.00,30.02,M,10.00,M,CLR,M,M,M,M,M,M,M,M,M,M,M,M,M,M,78.77,KMEV 180035Z AUTO 26008KT 230V300 10SM CLR 27/M01 A3002 RMK AO2,M
RTS,2021-09-18 00:35,-119.8764,39.6682,1539.00,80.60,24.80,12.76,250.00,14.00,0.00,30.04,M,10.00,19.00,CLR,M,M,M,M,M,M,M,M,M,M,M,M,M,M,78.94,KRTS 180035Z AUTO 25014G19KT 10SM CLR 27/M04 A3004 RMK AO2,M
BVU,2021-09-18 00:35,-114.8611,35.9475,671.00,89.60,46.40,22.53,160.00,12.00,0.00,29.98,M,10.00,M,FEW,M,M,M,12000.00,M,M,M,M,M,M,M,M,M,M,86.24,KBVU 180035Z AUTO 16012KT 10SM FEW120 32/08 A2998 RMK AO2,M
CXP,2021-09-18 00:35,-119.7326,39.1923,1431.00,80.60,32.00,17.14,270.00,9.00,0.00,30.03,M,10.00,18.00,CLR,M,M,M,M,M,M,M,M,M,M,M,M,M,M,78.82,KCXP 180035Z AUTO 27009G18KT 10SM CLR 27/M00 A3003 RMK AO2,M
TMT,2021-09-18 00:35,-117.1971,39.4643,1749.34,80.80,24.10,12.31,190.00,14.00,0.00,30.10,M,10.00,21.00,CLR,M,M,M,M,M,M,M,M,M,M,M,M,M,M,78.70,KTMT 180035Z AUTO 19014G21KT 10SM CLR 27/M04 A3010 RMK AO2 T02711044,M
HTH,2021-09-18 00:35,-118.6315,38.5448,1282.89,87.80,12.20,5.89,190.00,11.00,0.00,29.95,M,5.00,17.00,CLR,M,M,M,M,M,M,M,HZ,M,M,M,M,M,M,82.93,KHTH 180035Z AUTO 19011G17KT 5SM HZ CLR 31/M11 A2995 RMK A01,M
VGT,2021-09-18 00:53,-115.1933,36.2111,667.00,90.00,44.00,20.39,0.00,0.00,0.00,29.96,1013.90,10.00,M,CLR,M,M,M,M,M,M,M,M,M,M,M,M,M,M,86.38,KVGT 180053Z 00000KT 10SM CLR 32/07 A2996 RMK AO2 SLP139 T03220067,M
LOL,2021-09-18 00:53,-118.5701,40.0684,1192.43,85.00,26.10,11.72,220.00,4.00,0.00,29.94,1010.40,5.00,M,CLR,M,M,M,M,M,M,M,HZ,M,M,M,M,M,M,81.58,KLOL 180053Z AUTO 22004KT 5SM HZ CLR 29/M03 A2994 RMK AO2 SLP104 T02941033,M
ELY,2021-09-18 00:53,-114.8453,39.2950,1909.00,72.00,28.00,19.39,210.00,19.00,0.00,30.20,1016.00,10.00,M,CLR,M,M,M,M,M,M,M,M,M,M,M,29.00,210.00,2021-09-18 00:23,72.00,KELY 180053Z AUTO 21019KT 10SM CLR 22/M02 A3020 RMK AO2 PK WND 21029/0023 SLP160 T02221022,M
DRA,2021-09-18 00:53,-116.0278,36.6206,1009.00,85.00,47.00,26.66,110.00,10.00,0.00,30.01,1012.10,10.00,M,CLR,M,M,M,M,M,M,M,M,M,M,M,M,M,M,82.42,KDRA 180053Z AUTO 11010KT 10SM CLR 29/08 A3001 RMK AO2 SLP121 T02940083,M
P68,2021-09-18 00:53,-116.0056,39.6014,1993.00,79.00,24.10,13.06,160.00,20.00,0.00,30.10,1013.20,M,27.00,M,M,M,M,M,M,M,M,M,M,M,M,27.00,180.00,2021-09-18 00:27,79.00,KP68 180053Z AUTO 16020G27KT 26/M04 A3010 RMK AO1 PK WND 18027/0027 SLP132 T02611044,M
MEV,2021-09-18 00:55,-119.7500,38.9963,1441.42,78.80,30.20,16.90,M,5.00,0.00,30.02,M,10.00,12.00,CLR,M,M,M,M,M,M,M,M,M,M,M,M,M,M,78.80,KMEV 180055Z AUTO VRB05G12KT 10SM CLR 26/M01 A3002 RMK AO2,M
BVU,2021-09-18 00:55,-114.8611,35.9475,671.00,89.60,46.40,22.53,140.00,8.00,0.00,29.98,M,10.00,13.00,FEW,M,M,M,12000.00,M,M,M,M,M,M,M,M,M,M,86.24,KBVU 180055Z AUTO 14008G13KT 10SM FEW120 32/08 A2998 RMK AO2,M
RNO,2021-09-18 00:55,-119.7711,39.4839,1341.00,82.00,30.90,15.66,280.00,13.00,0.00,29.98,1010.60,10.00,19.00,CLR,M,M,M,M,M,M,M,M,M,M,M,M,M,M,79.70,KRNO 180055Z 28013G19KT 10SM CLR 28/M01 A2998 RMK AO2 SLP106 HZ AND FU ALQDS T02781006,M
BAM,2021-09-18 00:55,-116.8743,40.5990,1382.36,86.00,21.20,9.21,0.00,0.00,0.00,29.98,M,10.00,M,CLR,M,M,M,M,M,M,M,M,M,M,M,M,M,M,82.04,KBAM 180055Z AUTO 00000KT 10SM CLR 30/M06 A2998 RMK AO1,M
HTH,2021-09-18 00:55,-118.6315,38.5448,1282.89,86.00,12.20,6.24,210.00,12.00,0.00,29.96,M,4.00,M,CLR,M,M,M,M,M,M,M,HZ,M,M,M,M,M,M,81.64,KHTH 180055Z AUTO 21012KT 4SM HZ CLR 30/M11 A2996 RMK A01,M
CXP,2021-09-18 00:55,-119.7326,39.1923,1431.00,78.80,32.00,18.18,280.00,10.00,0.00,30.03,M,10.00,17.00,CLR,M,M,M,M,M,M,M,M,M,M,M,M,M,M,78.80,KCXP 180055Z AUTO 28010G17KT 10SM CLR 26/M00 A3003 RMK AO2,M
RTS,2021-09-18 00:55,-119.8764,39.6682,1539.00,78.80,24.80,13.54,250.00,16.00,0.00,30.04,M,10.00,22.00,CLR,M,M,M,M,M,M,M,M,M,M,M,M,M,M,78.80,KRTS 180055Z AUTO 25016G22KT 10SM CLR 26/M04 A3004 RMK AO2,M
TMT,2021-09-18 00:55,-117.1971,39.4643,1749.34,79.30,24.40,13.09,180.00,13.00,0.00,30.10,M,10.00,19.00,CLR,M,M,M,M,M,M,M,M,M,M,M,M,M,M,79.30,KTMT 180055Z AUTO 18013G19KT 10SM CLR 26/M04 A3010 RMK AO2 T02631042,M
NFL,2021-09-18 00:56,-118.7010,39.4166,1199.00,86.00,27.00,11.74,350.00,6.00,0.00,29.93,1010.90,5.00,M,BKN,M,M,M,8000.00,M,M,M,FU,M,M,M,M,M,M,82.42,KNFL 180056Z 35006KT 5SM FU BKN080 30/M03 A2993 RMK AO2 SLP109 FU BKN080 T03001028,M
HND,2021-09-18 00:56,-115.1344,35.9729,742.79,91.00,49.00,23.68,130.00,8.00,0.00,29.99,1014.60,10.00,M,CLR,M,M,M,M,M,M,M,M,M,M,M,M,M,M,87.82,KHND 180056Z 13008KT 10SM CLR 33/09 A2999 RMK AO2 SLP146 T03280094,M
LAS,2021-09-18 00:56,-115.1634,36.0719,663.00,91.00,46.00,21.24,350.00,5.00,0.00,29.97,1012.30,10.00,M,FEW,FEW,M,M,12000.00,16000.00,M,M,M,M,M,M,M,M,M,87.45,KLAS 180056Z 35005KT 10SM FEW120 FEW160 33/08 A2997 RMK AO2 SLP123 T03280078,M
WMC,2021-09-18 00:56,-117.8072,40.9019,1315.00,84.00,24.10,11.10,260.00,11.00,0.00,29.95,1011.00,6.00,M,CLR,M,M,M,M,M,M,M,HZ,M,M,M,M,M,M,80.82,KWMC 180056Z AUTO 26011KT 6SM HZ CLR 29/M04 A2995 RMK AO2 SLP110 T02891044,M
TPH,2021-09-18 00:56,-117.0904,38.0505,1654.00,79.00,30.00,16.66,200.00,19.00,0.00,30.12,1013.70,10.00,23.00,CLR,M,M,M,M,M,M,M,M,M,M,M,29.00,190.00,2021-09-18 00:35,79.00,KTPH 180056Z AUTO 20019G23KT 10SM CLR 26/M01 A3012 RMK AO2 PK WND 19029/0035 SLP137 T02611011,M
EKO,2021-09-18 00:56,-115.7860,40.8242,1367.00,81.00,21.00,10.73,220.00,5.00,0.00,30.01,1012.00,10.00,M,CLR,M,M,M,M,M,M,M,M,M,M,M,M,M,M,78.63,KEKO 180056Z AUTO 22005KT 10SM CLR 27/M06 A3001 RMK AO2 SLP120 T02721061,M
INS,2021-09-18 00:58,-115.6733,36.5872,955.00,84.20,44.60,24.99,120.00,13.00,0.00,30.00,1011.90,10.00,24.00,CLR,M,M,M,M,M,M,M,M,M,M,M,M,M,M,81.73,KINS 180058Z AUTO 12013G24KT 10SM CLR 29/07 A3000 RMK AO2 SLP119 T02900070 $,M
LSV,2021-09-18 00:58,-115.0343,36.2362,570.00,90.00,48.40,23.91,80.00,5.00,0.00,29.94,1011.70,10.00,M,CLR,M,M,M,M,M,M,M,M,M,M,M,M,M,M,86.92,KLSV 180058Z AUTO 08005KT 10SM CLR 32/09 A2994 RMK AO2 SLP117 T03230091 $,M
BVU,2021-09-18 01:15,-114.8611,35.9475,671.00,87.80,46.40,23.85,160.00,6.00,0.00,29.97,M,10.00,M,CLR,M,M,M,M,M,M,M,M,M,M,M,M,M,M,84.68,KBVU 180115Z AUTO 16006KT 10SM CLR 31/08 A2997 RMK AO2,M
CXP,2021-09-18 01:15,-119.7326,39.1923,1431.00,78.80,32.00,18.18,260.00,8.00,0.00,30.03,M,10.00,18.00,CLR,M,M,M,M,M,M,M,M,M,M,M,M,M,M,78.80,KCXP 180115Z AUTO 26008G18KT 10SM CLR 26/00 A3003 RMK AO2,M
RTS,2021-09-18 01:15,-119.8764,39.6682,1539.00,77.00,26.60,15.48,250.00,14.00,0.00,30.04,M,10.00,24.00,CLR,M,M,M,M,M,M,M,M,M,M,M,M,M,M,77.00,KRTS 180115Z AUTO 25014G24KT 10SM CLR 25/M03 A3004 RMK AO2,M
TMT,2021-09-18 01:15,-117.1971,39.4643,1749.34,77.20,24.60,14.15,180.00,14.00,0.00,30.10,M,10.00,21.00,CLR,M,M,M,M,M,M,M,M,M,M,M,M,M,M,77.20,KTMT 180115Z AUTO 18014G21KT 10SM CLR 25/M04 A3010 RMK AO2 T02511041,M
MEV,2021-09-18 01:15,-119.7500,38.9963,1441.42,77.00,28.40,16.67,190.00,6.00,0.00,30.03,M,10.00,16.00,CLR,M,M,M,M,M,M,M,M,M,M,M,M,M,M,77.00,KMEV 180115Z AUTO 19006G16KT 10SM CLR 25/M02 A3003 RMK AO2,M
HTH,2021-09-18 01:15,-118.6315,38.5448,1282.89,86.00,14.00,6.75,230.00,15.00,0.00,29.96,M,4.00,M,CLR,M,M,M,M,M,M,M,HZ,M,M,M,M,M,M,81.71,KHTH 180115Z AUTO 23015KT 4SM HZ CLR 30/M10 A2996 RMK A01,M
BAM,2021-09-18 01:15,-116.8743,40.5990,1382.36,86.00,21.20,9.21,0.00,0.00,0.00,29.97,M,10.00,M,CLR,M,M,M,M,M,M,M,M,M,M,M,M,M,M,82.04,KBAM 180115Z AUTO 00000KT 10SM CLR 30/M06 A2997 RMK AO1,M
TMT,2021-09-18 01:35,-117.1971,39.4643,1749.34,75.60,25.30,15.37,170.00,12.00,0.00,30.10,M,10.00,17.00,CLR,M,M,M,M,M,M,M,M,M,M,M,M,M,M,75.60,KTMT 180135Z AUTO 17012G17KT 10SM CLR 24/M04 A3010 RMK AO2 T02421037,M
BAM,2021-09-18 01:35,-116.8743,40.5990,1382.36,82.40,23.00,11.16,260.00,5.00,0.00,29.98,M,10.00,M,CLR,M,M,M,M,M,M,M,M,M,M,M,M,M,M,79.67,KBAM 180135Z AUTO 26005KT 10SM CLR 28/M05 A2998 RMK AO1,M
HTH,2021-09-18 01:35,-118.6315,38.5448,1282.89,84.20,14.00,7.16,220.00,15.00,0.00,29.96,M,5.00,M,CLR,M,M,M,M,M,M,M,HZ,M,M,M,M,M,M,80.44,KHTH 180135Z AUTO 22015KT 5SM HZ CLR 29/M10 A2996 RMK A01,M
CXP,2021-09-18 01:35,-119.7326,39.1923,1431.00,77.00,32.00,19.30,270.00,8.00,0.00,30.04,M,10.00,13.00,CLR,M,M,M,M,M,M,M,M,M,M,M,M,M,M,77.00,KCXP 180135Z AUTO 27008G13KT 10SM CLR 25/00 A3004 RMK AO2,M
RTS,2021-09-18 01:35,-119.8764,39.6682,1539.00,75.20,26.60,16.43,250.00,16.00,0.00,30.04,M,10.00,24.00,CLR,M,M,M,M,M,M,M,M,M,M,M,M,M,M,75.20,KRTS 180135Z AUTO 25016G24KT 10SM CLR 24/M03 A3004 RMK AO2,M
MEV,2021-09-18 01:35,-119.7500,38.9963,1441.42,75.20,26.60,16.43,M,5.00,0.00,30.03,M,10.00,M,CLR,M,M,M,M,M,M,M,M,M,M,M,M,M,M,75.20,KMEV 180135Z AUTO VRB05KT 10SM CLR 24/M03 A3003 RMK AO2,M
BVU,2021-09-18 01:35,-114.8611,35.9475,671.00,86.00,46.40,25.26,50.00,5.00,0.00,29.97,M,10.00,M,CLR,M,M,M,M,M,M,M,M,M,M,M,M,M,M,83.22,KBVU 180135Z AUTO 05005KT 10SM CLR 30/08 A2997 RMK AO2,M
INS,2021-09-18 01:47,-115.6733,36.5872,955.00,82.40,44.60,26.49,130.00,16.00,0.00,30.02,1012.80,10.00,21.00,BKN,M,M,M,10000.00,M,M,M,-DZ,M,M,M,M,M,M,80.50,KINS 180147Z AUTO 13016G21KT 10SM -DZ BKN100 28/07 A3002 RMK AO2 DZB47 SLP128 $,M
DRA,2021-09-18 01:53,-116.0278,36.6206,1009.00,83.00,45.00,26.46,140.00,8.00,0.00,30.01,1012.30,10.00,M,OVC,M,M,M,12000.00,M,M,M,M,M,M,M,M,M,M,80.86,KDRA 180153Z AUTO 14008KT 10SM OVC120 28/07 A3001 RMK AO2 SLP123 T02830072,M
LOL,2021-09-18 01:53,-118.5701,40.0684,1192.43,78.00,28.90,16.41,240.00,4.00,0.00,29.94,1011.10,5.00,M,CLR,M,M,M,M,M,M,M,HZ,M,M,M,M,M,M,78.10,KLOL 180153Z AUTO 24004KT 5SM HZ CLR 26/M02 A2994 RMK AO2 SLP111 T02561017,M
VGT,2021-09-18 01:53,-115.1933,36.2111,667.00,89.00,47.00,23.32,50.00,7.00,0.00,29.95,1013.80,10.00,M,CLR,M,M,M,M,M,M,M,M,M,M,M,M,M,M,85.85,KVGT 180153Z 05007KT 10SM CLR 32/08 A2995 RMK AO2 SLP138 T03170083,M
ELY,2021-09-18 01:53,-114.8453,39.2950,1909.00,69.00,34.00,27.29,170.00,9.00,0.00,30.21,1016.30,10.00,M,SCT,M,M,M,12000.00,M,M,M,M,M,M,M,M,M,M,69.10,KELY 180153Z AUTO 17009KT 10SM SCT120 21/01 A3021 RMK AO2 SLP163 T02060011,M
P68,2021-09-18 01:53,-116.0056,39.6014,1993.00,75.00,28.00,17.53,170.00,14.00,0.00,30.12,1014.30,M,24.00,M,M,M,M,M,M,M,M,M,M,M,M,33.00,160.00,2021-09-18 01:30,75.00,KP68 180153Z AUTO 17014G24KT 24/M02 A3012 RMK AO1 PK WND 16033/0130 SLP143 T02391022,M
BVU,2021-09-18 01:55,-114.8611,35.9475,671.00,87.80,46.40,23.85,0.00,0.00,0.00,29.97,M,10.00,M,CLR,M,M,M,M,M,M,M,M,M,M,M,M,M,M,84.68,KBVU 180155Z AUTO 00000KT 10SM CLR 31/08 A2997 RMK AO2,M
CXP,2021-09-18 01:55,-119.7326,39.1923,1431.00,75.20,30.20,19.05,260.00,8.00,0.00,30.04,M,10.00,M,CLR,M,M,M,M,M,M,M,M,M,M,M,M,M,M,75.20,KCXP 180155Z AUTO 26008KT 10SM CLR 24/M01 A3004 RMK AO2,M
HTH,2021-09-18 01:55,-118.6315,38.5448,1282.89,82.40,15.80,8.20,220.00,17.00,0.00,29.97,M,4.00,M,CLR,M,M,M,M,M,M,M,HZ,M,M,M,M,M,M,79.28,KHTH 180155Z AUTO 22017KT 4SM HZ CLR 28/M09 A2997 RMK A01,M
RTS,2021-09-18 01:55,-119.8764,39.6682,1539.00,73.40,28.40,18.80,240.00,15.00,0.00,30.05,M,10.00,22.00,CLR,M,M,M,M,M,M,M,M,M,M,M,M,M,M,73.40,KRTS 180155Z AUTO 24015G22KT 10SM CLR 23/M02 A3005 RMK AO2,M
MEV,2021-09-18 01:55,-119.7500,38.9963,1441.42,73.40,24.80,16.20,0.00,0.00,0.00,30.04,M,10.00,M,CLR,M,M,M,M,M,M,M,M,M,M,M,M,M,M,73.40,KMEV 180155Z AUTO 00000KT 10SM CLR 23/M04 A3004 RMK AO2,M
TMT,2021-09-18 01:55,-117.1971,39.4643,1749.34,74.30,25.70,16.32,180.00,11.00,0.00,30.10,M,10.00,16.00,CLR,M,M,M,M,M,M,M,M,M,M,M,M,M,M,74.30,KTMT 180155Z AUTO 18011G16KT 10SM CLR 24/M03 A3010 RMK AO2 T02351035,M
BAM,2021-09-18 01:55,-116.8743,40.5990,1382.36,78.80,21.20,11.64,250.00,4.00,0.00,29.98,M,10.00,M,CLR,M,M,M,M,M,M,M,M,M,M,M,M,M,M,78.80,KBAM 180155Z AUTO 25004KT 10SM CLR 26/M06 A2998 RMK AO1,M
RNO,2021-09-18 01:55,-119.7711,39.4839,1341.00,79.00,30.90,17.28,300.00,8.00,0.00,30.00,1011.40,10.00,M,CLR,M,M,M,M,M,M,M,M,M,M,M,M,M,M,79.00,KRNO 180155Z 30008KT 10SM CLR 26/M01 A3000 RMK AO2 SLP114 FU ALF AND HZ ALQDS T02611006,M
HND,2021-09-18 01:56,-115.1344,35.9729,742.79,88.00,49.00,26.03,160.00,7.00,0.00,29.99,1014.60,10.00,M,CLR,M,M,M,M,M,M,M,M,M,M,M,M,M,M,85.13,KHND 180156Z 16007KT 10SM CLR 31/09 A2999 RMK AO2 SLP146 T03110094,M
NFL,2021-09-18 01:56,-118.7010,39.4166,1199.00,79.00,27.00,14.73,360.00,5.00,0.00,29.93,1010.80,5.00,M,BKN,M,M,M,8000.00,M,M,M,FU,M,M,M,M,M,M,79.00,KNFL 180156Z 36005KT 5SM FU BKN080 26/M03 A2993 RMK AO2 SLP108 FU BKN080 T02611028,M
TPH,2021-09-18 01:56,-117.0904,38.0505,1654.00,75.00,34.00,22.35,180.00,11.00,0.00,30.13,1014.30,10.00,M,CLR,M,M,M,M,M,M,M,M,M,M,M,26.00,190.00,2021-09-18 00:59,75.00,KTPH 180156Z AUTO 18011KT 10SM CLR 24/01 A3013 RMK AO2 PK WND 19026/0059 SLP143 T02390011,M
WMC,2021-09-18 01:56,-117.8072,40.9019,1315.00,75.00,21.00,13.09,250.00,7.00,0.00,29.96,1011.90,7.00,M,CLR,M,M,M,M,M,M,M,M,M,M,M,M,M,M,75.00,KWMC 180156Z AUTO 25007KT 7SM CLR 24/M06 A2996 RMK AO2 SLP119 T02391061 $,M
LAS,2021-09-18 01:56,-115.1634,36.0719,663.00,89.00,48.00,24.31,40.00,9.00,0.00,29.96,1012.20,10.00,M,FEW,FEW,M,M,12000.00,16000.00,M,M,M,M,M,M,M,M,M,85.97,KLAS 180156Z 04009KT 10SM FEW120 FEW160 32/09 A2996 RMK AO2 SLP122 T03170089,M
EKO,2021-09-18 01:56,-115.7860,40.8242,1367.00,74.00,23.00,14.77,0.00,0.00,0.00,30.01,1012.70,9.00,M,CLR,M,M,M,M,M,M,M,M,M,M,M,M,M,M,73.90,KEKO 180156Z AUTO 00000KT 9SM CLR 23/M05 A3001 RMK AO2 SLP127 T02331050,M
LSV,2021-09-18 01:58,-115.0343,36.2362,570.00,88.00,47.70,24.89,40.00,6.00,0.00,29.94,1011.70,10.00,M,SCT,M,M,M,18000.00,M,M,M,M,M,M,M,M,M,M,84.99,KLSV 180158Z AUTO 04006KT 10SM SCT180 31/09 A2994 RMK AO2 SLP117 T03110087 $,M
INS,2021-09-18 01:58,-115.6733,36.5872,955.00,82.60,44.20,25.92,130.00,12.00,T,30.02,1012.80,10.00,M,BKN,M,M,M,11000.00,M,M,M,-DZ,M,M,M,M,M,M,80.61,KINS 180158Z AUTO 13012KT 10SM -DZ BKN110 28/07 A3002 RMK AO2 DZB47 SLP128 P0000 T02810068 $,M
INS,2021-09-18 01:59,-115.6733,36.5872,955.00,82.40,44.60,26.49,130.00,12.00,0.00,30.02,1012.80,10.00,M,BKN,M,M,M,11000.00,M,M,M,M,M,M,M,M,M,M,80.50,KINS 180159Z AUTO 13012KT 10SM BKN110 28/07 A3002 RMK AO2 DZE57DZB57E57 SLP128 $,M
CXP,2021-09-18 02:15,-119.7326,39.1923,1431.00,75.20,32.00,20.49,280.00,6.00,0.00,30.04,M,10.00,12.00,CLR,M,M,M,M,M,M,M,M,M,M,M,M,M,M,75.20,KCXP 180215Z AUTO 28006G12KT 10SM CLR 24/M00 A3004 RMK AO2,M
TMT,2021-09-18 02:15,-117.1971,39.4643,1749.34,73.00,25.30,16.82,190.00,12.00,0.00,30.10,M,10.00,16.00,CLR,M,M,M,M,M,M,M,M,M,M,M,M,M,M,72.90,KTMT 180215Z AUTO 19012G16KT 10SM CLR 23/M04 A3010 RMK AO2 T02271037,M
MEV,2021-09-18 02:15,-119.7500,38.9963,1441.42,73.40,23.00,15.03,0.00,0.00,0.00,30.04,M,8.00,M,CLR,M,M,M,M,M,M,M,M,M,M,M,M,M,M,73.40,KMEV 180215Z AUTO 00000KT 8SM CLR 23/M05 A3004 RMK AO2,M
BVU,2021-09-18 02:15,-114.8611,35.9475,671.00,87.80,46.40,23.85,170.00,6.00,0.00,29.97,M,10.00,13.00,CLR,M,M,M,M,M,M,M,M,M,M,M,M,M,M,84.68,KBVU 180215Z AUTO 17006G13KT 10SM CLR 31/08 A2997 RMK AO2,M
RTS,2021-09-18 02:15,-119.8764,39.6682,1539.00,71.60,28.40,19.98,250.00,16.00,0.00,30.05,M,10.00,M,CLR,M,M,M,M,M,M,M,M,M,M,M,M,M,M,71.60,KRTS 180215Z AUTO 25016KT 10SM CLR 22/M02 A3005 RMK AO2,M
HTH,2021-09-18 02:15,-118.6315,38.5448,1282.89,80.60,17.60,9.40,220.00,13.00,0.00,29.97,M,4.00,21.00,FEW,SCT,SCT,M,2400.00,2900.00,3900.00,M,HZ,M,M,M,M,M,M,78.45,KHTH 180215Z AUTO 22013G21KT 4SM HZ FEW024 SCT029 SCT039 27/M08 A2997 RMK A01,M
BAM,2021-09-18 02:15,-116.8743,40.5990,1382.36,73.40,21.20,13.93,0.00,0.00,0.00,29.98,M,10.00,M,CLR,M,M,M,M,M,M,M,M,M,M,M,M,M,M,73.40,KBAM 180215Z AUTO 00000KT 10SM CLR 23/M06 A2998 RMK AO1,M
CXP,2021-09-18 02:30,-119.7326,39.1923,1431.00,75.20,28.40,17.70,260.00,6.00,0.00,30.05,M,10.00,14.00,CLR,M,M,M,M,M,M,M,M,M,M,M,M,M,M,75.20,KCXP 180230Z AUTO 26006G14KT 10SM CLR 24/M02 A3005 RMK AO2,M
RTS,2021-09-18 02:35,-119.8764,39.6682,1539.00,71.60,28.40,19.98,260.00,15.00,0.00,30.06,M,10.00,23.00,CLR,M,M,M,M,M,M,M,M,M,M,M,M,M,M,71.60,KRTS 180235Z AUTO 26015G23KT 10SM CLR 22/M02 A3006 RMK AO2,M
MEV,2021-09-18 02:35,-119.7500,38.9963,1441.42,71.60,24.80,17.22,270.00,5.00,0.00,30.05,M,8.00,M,FEW,M,M,M,10000.00,M,M,M,M,M,M,M,M,M,M,71.60,KMEV 180235Z AUTO 27005KT 8SM FEW100 22/M04 A3005 RMK AO2,M
BAM,2021-09-18 02:35,-116.8743,40.5990,1382.36,71.60,19.40,13.71,190.00,8.00,0.00,29.98,M,10.00,M,CLR,M,M,M,M,M,M,M,M,M,M,M,M,M,M,71.60,KBAM 180235Z AUTO 19008KT 10SM CLR 22/M07 A2998 RMK AO1,M
BVU,2021-09-18 02:35,-114.8611,35.9475,671.00,87.80,46.40,23.85,M,5.00,0.00,29.97,M,10.00,13.00,CLR,M,M,M,M,M,M,M,M,M,M,M,M,M,M,84.68,KBVU 180235Z AUTO VRB05G13KT 10SM CLR 31/08 A2997 RMK AO2,M
HTH,2021-09-18 02:35,-118.6315,38.5448,1282.89,80.60,19.40,10.16,220.00,12.00,0.00,29.97,M,6.00,21.00,SCT,SCT,BKN,M,2400.00,2800.00,4100.00,M,HZ,M,M,M,M,M,M,78.56,KHTH 180235Z AUTO 22012G21KT 6SM HZ SCT024 SCT028 BKN041 27/M07 A2997 RMK A01,M
TMT,2021-09-18 02:35,-117.1971,39.4643,1749.34,71.60,25.70,17.87,180.00,10.00,0.00,30.10,M,10.00,M,CLR,M,M,M,M,M,M,M,M,M,M,M,M,M,M,71.60,KTMT 180235Z AUTO 18010KT 10SM CLR 22/M03 A3010 RMK AO2 T02201035,M
ELY,2021-09-18 02:53,-114.8453,39.2950,1909.00,66.00,36.00,32.88,190.00,8.00,0.00,30.22,1015.60,10.00,M,CLR,M,M,M,M,M,M,M,M,M,M,M,M,M,M,66.00,KELY 180253Z AUTO 19008KT 10SM CLR 19/02 A3022 RMK AO2 SLP156 T01890022 51008,M
DRA,2021-09-18 02:53,-116.0278,36.6206,1009.00,83.00,45.00,26.46,140.00,3.00,0.00,30.03,1012.60,10.00,M,FEW,M,M,M,7000.00,M,M,M,M,M,M,M,M,M,M,80.86,KDRA 180253Z AUTO 14003KT 10SM FEW070 28/07 A3003 RMK AO2 SLP126 T02830072 53003,M
VGT,2021-09-18 02:53,-115.1933,36.2111,667.00,87.00,49.00,26.79,50.00,6.00,0.00,29.96,1013.90,10.00,M,CLR,M,M,M,M,M,M,M,M,M,M,M,M,M,M,84.37,KVGT 180253Z 05006KT 10SM CLR 31/09 A2996 RMK AO2 SLP139 T03060094 55004,M
LOL,2021-09-18 02:53,-118.5701,40.0684,1192.43,70.00,24.10,17.66,320.00,8.00,0.00,29.93,1011.10,7.00,M,CLR,M,M,M,M,M,M,M,M,M,M,M,M,M,M,70.00,KLOL 180253Z AUTO 32008KT 7SM CLR 21/M04 A2993 RMK AO2 SLP111 T02111044 56007,M
P68,2021-09-18 02:53,-116.0056,39.6014,1993.00,72.00,30.00,21.04,170.00,21.00,0.00,30.14,1014.10,M,27.00,M,M,M,M,M,M,M,M,M,M,M,M,27.00,180.00,2021-09-18 02:50,72.00,KP68 180253Z AUTO 17021G27KT 22/M01 A3014 RMK AO1 PK WND 18027/0250 SLP141 T02221011 53008,M
CXP,2021-09-18 02:55,-119.7326,39.1923,1431.00,73.40,26.60,17.46,0.00,0.00,0.00,30.05,M,10.00,M,CLR,M,M,M,M,M,M,M,M,M,M,M,M,M,M,73.40,KCXP 180255Z AUTO 00000KT 10SM CLR 23/M03 A3005 RMK AO2,M
MEV,2021-09-18 02:55,-119.7500,38.9963,1441.42,73.40,23.00,15.03,260.00,6.00,0.00,30.05,M,9.00,13.00,BKN,M,M,M,9000.00,M,M,M,M,M,M,M,M,M,M,73.40,KMEV 180255Z AUTO 26006G13KT 9SM BKN090 23/M05 A3005 RMK AO2,M
TMT,2021-09-18 02:55,-117.1971,39.4643,1749.34,68.40,25.30,19.61,180.00,8.00,0.00,30.11,M,10.00,M,CLR,M,M,M,M,M,M,M,M,M,M,M,M,M,M,68.40,KTMT 180255Z AUTO 18008KT 10SM CLR 20/M04 A3011 RMK AO2 T02021037,M
BAM,2021-09-18 02:55,-116.8743,40.5990,1382.36,71.60,17.60,12.69,210.00,7.00,0.00,29.99,M,10.00,M,CLR,M,M,M,M,M,M,M,M,M,M,M,M,M,M,71.60,KBAM 180255Z AUTO 21007KT 10SM CLR 22/M08 A2999 RMK AO1,M
BVU,2021-09-18 02:55,-114.8611,35.9475,671.00,87.80,46.40,23.85,130.00,7.00,0.00,29.98,M,10.00,M,BKN,M,M,M,12000.00,M,M,M,M,M,M,M,M,M,M,84.68,KBVU 180255Z AUTO 13007KT 10SM BKN120 31/08 A2998 RMK AO2,M
RTS,2021-09-18 02:55,-119.8764,39.6682,1539.00,69.80,28.40,21.24,240.00,16.00,0.00,30.06,M,10.00,21.00,CLR,M,M,M,M,M,M,M,M,M,M,M,M,M,M,69.80,KRTS 180255Z AUTO 24016G21KT 10SM CLR 21/M02 A3006 RMK AO2,M
HTH,2021-09-18 02:55,-118.6315,38.5448,1282.89,80.60,19.40,10.16,210.00,10.00,0.00,29.98,M,6.00,17.00,FEW,SCT,BKN,M,3300.00,4500.00,5500.00,M,HZ,M,M,M,M,M,M,78.56,KHTH 180255Z AUTO 21010G17KT 6SM HZ FEW033 SCT045 BKN055 27/M07 A2998 RMK A01,M
RNO,2021-09-18 02:55,-119.7711,39.4839,1341.00,75.00,32.00,20.63,270.00,8.00,0.00,30.01,1011.90,10.00,M,CLR,M,M,M,M,M,M,M,M,M,M,M,M,M,M,75.00,KRNO 180255Z 27008KT 10SM CLR 24/00 A3001 RMK AO2 SLP119 FU ALF ALQDS T02390000 53008,M
HND,2021-09-18 02:56,-115.1344,35.9729,742.79,86.00,47.00,25.74,250.00,7.00,0.00,30.01,1015.00,10.00,M,CLR,M,M,M,M,M,M,M,M,M,M,M,M,M,M,83.27,KHND 180256Z 25007KT 10SM CLR 30/08 A3001 RMK AO2 SLP150 T03000083 55000,M
TPH,2021-09-18 02:56,-117.0904,38.0505,1654.00,71.00,35.00,26.63,190.00,9.00,0.00,30.14,1014.80,10.00,M,CLR,M,M,M,M,M,M,M,M,M,M,M,M,M,M,71.10,KTPH 180256Z AUTO 19009KT 10SM CLR 22/02 A3014 RMK AO2 SLP148 T02170017 53003,M
WMC,2021-09-18 02:56,-117.8072,40.9019,1315.00,75.00,19.90,12.49,0.00,0.00,0.00,29.96,1011.40,8.00,M,CLR,M,M,M,M,M,M,M,M,M,M,M,M,M,M,75.00,KWMC 180256Z AUTO 00000KT 8SM CLR 24/M07 A2996 RMK AO2 SLP114 T02391067 55001 $,M
EKO,2021-09-18 02:56,-115.7860,40.8242,1367.00,77.00,21.00,12.24,170.00,17.00,0.00,30.01,1012.00,10.00,28.00,CLR,M,M,M,M,M,M,M,M,M,M,M,28.00,180.00,2021-09-18 02:56,77.00,KEKO 180256Z AUTO 17017G28KT 10SM CLR 25/M06 A3001 RMK AO2 PK WND 18028/0256 SLP120 T02501061 55005,M
NFL,2021-09-18 02:56,-118.7010,39.4166,1199.00,76.00,27.00,16.32,320.00,9.00,0.00,29.95,1011.40,6.00,M,BKN,M,M,M,8000.00,M,M,M,FU,M,M,M,M,M,M,75.90,KNFL 180256Z 32009KT 6SM FU BKN080 24/M03 A2995 RMK AO2 SLP114 FU BKN080 T02441028 53001,M
LAS,2021-09-18 02:56,-115.1634,36.0719,663.00,87.00,48.00,25.90,80.00,8.00,0.00,29.97,1012.50,10.00,M,FEW,FEW,M,M,12000.00,16000.00,M,M,M,M,M,M,M,M,M,84.27,KLAS 180256Z 08008KT 10SM FEW120 FEW160 31/09 A2997 RMK AO2 SLP125 T03060089 55003,M
INS,2021-09-18 02:58,-115.6733,36.5872,955.00,79.50,44.40,28.89,100.00,6.00,T,30.03,1013.00,10.00,M,SCT,M,M,M,11000.00,M,M,M,M,M,M,M,M,M,M,79.50,KINS 180258Z AUTO 10006KT 10SM SCT110 26/07 A3003 RMK AO2 DZE0157DZB0157E0157 SLP130 P0000 60000 T02640069 53003 $,M
LSV,2021-09-18 02:58,-115.0343,36.2362,570.00,86.00,47.00,25.93,50.00,6.00,0.00,29.95,1012.10,10.00,M,CLR,M,M,M,M,M,M,M,M,M,M,M,M,M,M,83.29,KLSV 180258Z AUTO 05006KT 10SM CLR 30/08 A2995 RMK AO2 SLP121 T03000084 55002 $,M
RTS,2021-09-18 03:15,-119.8764,39.6682,1539.00,69.80,28.40,21.24,250.00,10.00,0.00,30.08,M,10.00,17.00,CLR,M,M,M,M,M,M,M,M,M,M,M,M,M,M,69.80,KRTS 180315Z AUTO 25010G17KT 10SM CLR 21/M02 A3008 RMK AO2,M
BVU,2021-09-18 03:15,-114.8611,35.9475,671.00,86.00,46.40,25.26,120.00,10.00,0.00,29.99,M,10.00,M,BKN,M,M,M,12000.00,M,M,M,M,M,M,M,M,M,M,83.22,KBVU 180315Z AUTO 12010KT 10SM BKN120 30/08 A2999 RMK AO2,M
TMT,2021-09-18 03:15,-117.1971,39.4643,1749.34,66.00,26.10,22.02,170.00,8.00,0.00,30.12,M,10.00,M,CLR,M,M,M,M,M,M,M,M,M,M,M,M,M,M,66.00,KTMT 180315Z AUTO 17008KT 10SM CLR 19/M03 A3012 RMK AO2 T01891033,M
HTH,2021-09-18 03:15,-118.6315,38.5448,1282.89,78.80,21.20,11.64,190.00,5.00,0.00,29.99,M,6.00,11.00,FEW,SCT,M,M,4800.00,6000.00,M,M,HZ,M,M,M,M,M,M,78.80,KHTH 180315Z AUTO 19005G11KT 6SM HZ FEW048 SCT060 26/M06 A2999 RMK A01,M
BAM,2021-09-18 03:15,-116.8743,40.5990,1382.36,69.80,17.60,13.49,190.00,4.00,0.00,30.00,M,10.00,M,CLR,M,M,M,M,M,M,M,M,M,M,M,M,M,M,69.80,KBAM 180315Z AUTO 19004KT 10SM CLR 21/M08 A3000 RMK AO1,M
MEV,2021-09-18 03:15,-119.7500,38.9963,1441.42,71.60,23.00,15.97,20.00,6.00,0.00,30.05,M,10.00,M,FEW,OVC,M,M,7500.00,9000.00,M,M,M,M,M,M,M,M,M,71.60,KMEV 180315Z AUTO 02006KT 10SM FEW075 OVC090 22/M05 A3005 RMK AO2,M
CXP,2021-09-18 03:15,-119.7326,39.1923,1431.00,73.40,23.00,15.03,M,4.00,0.00,30.06,M,10.00,10.00,FEW,BKN,BKN,M,6000.00,7000.00,9000.00,M,M,M,M,M,M,M,M,73.40,KCXP 180315Z AUTO VRB04G10KT 10SM FEW060 BKN070 BKN090 23/M05 A3006 RMK AO2,M
BAM,2021-09-18 03:35,-116.8743,40.5990,1382.36,68.00,17.60,14.35,220.00,6.00,0.00,30.00,M,10.00,M,CLR,M,M,M,M,M,M,M,M,M,M,M,M,M,M,68.00,KBAM 180335Z AUTO 22006KT 10SM CLR 20/M08 A3000 RMK AO1,M
MEV,2021-09-18 03:35,-119.7500,38.9963,1441.42,68.00,24.80,19.47,70.00,6.00,0.00,30.06,M,10.00,M,BKN,OVC,M,M,7500.00,9000.00,M,M,M,M,M,M,M,M,M,68.00,KMEV 180335Z AUTO 07006KT 10SM BKN075 OVC090 20/M04 A3006 RMK AO2,M
RTS,2021-09-18 03:35,-119.8764,39.6682,1539.00,68.00,26.60,20.98,270.00,12.00,0.00,30.08,M,10.00,17.00,CLR,M,M,M,M,M,M,M,M,M,M,M,M,M,M,68.00,KRTS 180335Z AUTO 27012G17KT 10SM CLR 20/M03 A3008 RMK AO2,M
CXP,2021-09-18 03:35,-119.7326,39.1923,1431.00,71.60,24.80,17.22,220.00,5.00,0.00,30.06,M,10.00,10.00,BKN,OVC,M,M,7000.00,8000.00,M,M,M,M,M,M,M,M,M,71.60,KCXP 180335Z AUTO 22005G10KT 10SM BKN070 OVC080 22/M04 A3006 RMK AO2,M
TMT,2021-09-18 03:35,-117.1971,39.4643,1749.34,62.20,26.60,25.68,220.00,7.00,0.00,30.13,M,10.00,M,CLR,M,M,M,M,M,M,M,M,M,M,M,M,M,M,62.20,KTMT 180335Z AUTO 22007KT 10SM CLR 17/M03 A3013 RMK AO2 T01681030,M
BVU,2021-09-18 03:35,-114.8611,35.9475,671.00,86.00,46.40,25.26,110.00,5.00,0.00,30.00,M,10.00,M,FEW,FEW,SCT,M,7000.00,8500.00,12000.00,M,M,M,M,M,M,M,M,83.22,KBVU 180335Z AUTO 11005KT 10SM FEW070 FEW085 SCT120 30/08 A3000 RMK AO2,M
HTH,2021-09-18 03:35,-118.6315,38.5448,1282.89,77.00,23.00,13.32,190.00,12.00,0.00,30.00,M,7.00,M,FEW,SCT,BKN,M,4200.00,4900.00,6000.00,M,M,M,M,M,M,M,M,77.00,KHTH 180335Z AUTO 19012KT 7SM FEW042 SCT049 BKN060 25/M05 A3000 RMK A01,M
DRA,2021-09-18 03:53,-116.0278,36.6206,1009.00,79.00,44.00,29.04,100.00,3.00,0.00,30.04,1012.70,10.00,M,CLR,M,M,M,M,M,M,M,M,M,M,M,M,M,M,79.00,KDRA 180353Z AUTO 10003KT 10SM CLR 26/07 A3004 RMK AO2 SLP127 T02610067,M
P68,2021-09-18 03:53,-116.0056,39.6014,1993.00,67.00,30.90,25.98,160.00,12.00,0.00,30.16,1014.70,M,M,M,M,M,M,M,M,M,M,M,M,M,M,M,M,M,66.90,KP68 180353Z AUTO 16012KT 19/M01 A3016 RMK AO1 SLP147 T01941006,M
VGT,2021-09-18 03:53,-115.1933,36.2111,667.00,86.00,49.00,27.74,360.00,3.00,0.00,29.98,1014.20,10.00,M,CLR,M,M,M,M,M,M,M,M,M,M,M,M,M,M,83.48,KVGT 180353Z 36003KT 10SM CLR 30/09 A2998 RMK AO2 SLP142 T03000094,M
ELY,2021-09-18 03:53,-114.8453,39.2950,1909.00,61.00,37.00,40.77,180.00,11.00,0.00,30.23,1014.90,10.00,M,CLR,M,M,M,M,M,M,M,M,M,M,M,M,M,M,61.00,KELY 180353Z AUTO 18011KT 10SM CLR 16/03 A3023 RMK AO2 SLP149 T01610028,M
LOL,2021-09-18 03:53,-118.5701,40.0684,1192.43,62.00,26.10,25.24,70.00,3.00,0.00,29.95,1011.80,7.00,M,CLR,M,M,M,M,M,M,M,M,M,M,M,M,M,M,62.10,KLOL 180353Z AUTO 07003KT 7SM CLR 17/M03 A2995 RMK AO2 SLP118 T01671033,M
RNO,2021-09-18 03:55,-119.7711,39.4839,1341.00,73.00,28.00,18.74,290.00,3.00,0.00,30.02,1012.10,10.00,M,CLR,M,M,M,M,M,M,M,M,M,M,M,M,M,M,73.00,KRNO 180355Z 29003KT 10SM CLR 23/M02 A3002 RMK AO2 SLP121 FU ALF AND HZ ALQDS T02281022,M
HTH,2021-09-18 03:55,-118.6315,38.5448,1282.89,77.00,23.00,13.32,180.00,9.00,0.00,30.02,M,8.00,14.00,M,M,M,M,M,M,M,M,M,M,M,M,M,M,M,77.00,KHTH 180355Z AUTO 18009G14KT 8SM 25/M05 A3002 RMK A01,M
MEV,2021-09-18 03:55,-119.7500,38.9963,1441.42,68.00,23.00,18.06,70.00,5.00,0.00,30.06,M,10.00,M,OVC,M,M,M,7500.00,M,M,M,M,M,M,M,M,M,M,68.00,KMEV 180355Z AUTO 07005KT 10SM OVC075 20/M05 A3006 RMK AO2,M
TMT,2021-09-18 03:55,-117.1971,39.4643,1749.34,60.60,27.00,27.63,220.00,5.00,0.00,30.13,M,10.00,M,CLR,M,M,M,M,M,M,M,M,M,M,M,M,M,M,60.60,KTMT 180355Z AUTO 22005KT 10SM CLR 16/M03 A3013 RMK AO2 T01591028,M
RTS,2021-09-18 03:55,-119.8764,39.6682,1539.00,68.00,26.60,20.98,290.00,8.00,0.00,30.09,M,10.00,14.00,CLR,M,M,M,M,M,M,M,M,M,M,M,M,M,M,68.00,KRTS 180355Z AUTO 29008G14KT 10SM CLR 20/M03 A3009 RMK AO2,M
BVU,2021-09-18 03:55,-114.8611,35.9475,671.00,84.20,46.40,26.76,110.00,8.00,0.00,30.00,M,10.00,M,FEW,M,M,M,12000.00,M,M,M,M,M,M,M,M,M,M,81.87,KBVU 180355Z AUTO 11008KT 10SM FEW120 29/08 A3000 RMK AO2,M
BAM,2021-09-18 03:55,-116.8743,40.5990,1382.36,64.40,17.60,16.26,160.00,6.00,0.00,30.00,M,10.00,M,CLR,M,M,M,M,M,M,M,M,M,M,M,M,M,M,64.40,KBAM 180355Z AUTO 16006KT 10SM CLR 18/M08 A3000 RMK AO1,M
CXP,2021-09-18 03:55,-119.7326,39.1923,1431.00,71.60,23.00,15.97,230.00,7.00,0.00,30.07,M,10.00,M,OVC,M,M,M,7000.00,M,M,M,M,M,M,M,M,M,M,71.60,KCXP 180355Z AUTO 23007KT 170V300 10SM OVC070 22/M05 A3007 RMK AO2,M
WMC,2021-09-18 03:56,-117.8072,40.9019,1315.00,74.00,21.00,13.58,0.00,0.00,0.00,29.98,1010.90,7.00,M,CLR,M,M,M,M,M,M,M,M,M,M,M,M,M,M,73.90,KWMC 180356Z AUTO 00000KT 7SM CLR 23/M06 A2998 RMK AO2 SLP109 T02331061 $,M
TPH,2021-09-18 03:56,-117.0904,38.0505,1654.00,69.00,36.00,29.55,160.00,10.00,0.00,30.16,1014.50,10.00,M,CLR,M,M,M,M,M,M,M,M,M,M,M,M,M,M,69.10,KTPH 180356Z AUTO 16010KT 10SM CLR 21/02 A3016 RMK AO2 SLP145 T02060022,M
HND,2021-09-18 03:56,-115.1344,35.9729,742.79,84.00,47.00,27.44,250.00,7.00,0.00,30.02,1015.50,10.00,M,CLR,M,M,M,M,M,M,M,M,M,M,M,M,M,M,81.77,KHND 180356Z AUTO 25007KT 10SM CLR 29/08 A3002 RMK AO2 SLP155 T02890083,M
LAS,2021-09-18 03:56,-115.1634,36.0719,663.00,85.00,48.00,27.79,10.00,6.00,0.00,29.99,1013.10,10.00,M,FEW,FEW,M,M,12000.00,16000.00,M,M,M,M,M,M,M,M,M,82.53,KLAS 180356Z 01006KT 10SM FEW120 FEW160 29/09 A2999 RMK AO2 SLP131 T02940089,M
NFL,2021-09-18 03:56,-118.7010,39.4166,1199.00,76.00,30.90,19.14,270.00,10.00,0.00,29.97,1012.00,6.00,M,BKN,M,M,M,8000.00,M,M,M,FU,M,M,M,M,M,M,75.90,KNFL 180356Z 27010KT 6SM FU BKN080 24/M01 A2997 RMK AO2 SLP120 FU BKN080 T02441006,M
EKO,2021-09-18 03:56,-115.7860,40.8242,1367.00,74.00,23.00,14.77,220.00,9.00,0.00,30.06,1013.20,10.00,20.00,CLR,M,M,M,M,M,M,M,M,M,M,M,27.00,170.00,2021-09-18 02:57,73.90,KEKO 180356Z AUTO 22009G20KT 10SM CLR 23/M05 A3006 RMK AO2 PK WND 17027/0257 SLP132 T02331050,M
LSV,2021-09-18 03:58,-115.0343,36.2362,570.00,86.50,47.50,25.91,70.00,6.00,0.00,29.96,1012.20,10.00,M,FEW,M,M,M,18000.00,M,M,M,M,M,M,M,M,M,M,83.72,KLSV 180358Z AUTO 07006KT 10SM FEW180 30/09 A2996 RMK AO2 SLP122 T03030086 $,M
INS,2021-09-18 03:58,-115.6733,36.5872,955.00,80.60,43.50,26.93,150.00,5.00,0.00,30.04,1012.80,10.00,M,CLR,M,M,M,M,M,M,M,M,M,M,M,M,M,M,79.35,KINS 180358Z AUTO 15005KT 10SM CLR 27/06 A3004 RMK AO2 SLP128 T02700064 $,M
HTH,2021-09-18 04:15,-118.6315,38.5448,1282.89,77.00,21.20,12.35,170.00,6.00,0.00,30.02,M,8.00,M,SCT,SCT,M,M,4300.00,4900.00,M,M,M,M,M,M,M,M,M,77.00,KHTH 180415Z AUTO 17006KT 8SM SCT043 SCT049 25/M06 A3002 RMK A01,M
BAM,2021-09-18 04:15,-116.8743,40.5990,1382.36,64.40,17.60,16.26,170.00,6.00,0.00,30.01,M,10.00,M,CLR,M,M,M,M,M,M,M,M,M,M,M,M,M,M,64.40,KBAM 180415Z AUTO 17006KT 10SM CLR 18/M08 A3001 RMK AO1,M
MEV,2021-09-18 04:15,-119.7500,38.9963,1441.42,68.00,21.20,16.74,0.00,0.00,0.00,30.06,M,10.00,M,BKN,OVC,M,M,7000.00,9000.00,M,M,M,M,M,M,M,M,M,68.00,KMEV 180415Z AUTO 00000KT 10SM BKN070 OVC090 20/M06 A3006 RMK AO2,M
RTS,2021-09-18 04:15,-119.8764,39.6682,1539.00,68.00,26.60,20.98,350.00,11.00,0.00,30.09,M,10.00,19.00,CLR,M,M,M,M,M,M,M,M,M,M,M,M,M,M,68.00,KRTS 180415Z AUTO 35011G19KT 10SM CLR 20/M03 A3009 RMK AO2,M
CXP,2021-09-18 04:15,-119.7326,39.1923,1431.00,73.40,21.20,13.93,220.00,7.00,0.00,30.07,M,10.00,15.00,OVC,M,M,M,6500.00,M,M,M,M,M,M,M,M,M,M,73.40,KCXP 180415Z AUTO 22007G15KT 10SM OVC065 23/M06 A3007 RMK AO2,M
BVU,2021-09-18 04:15,-114.8611,35.9475,671.00,82.40,50.00,32.46,40.00,3.00,0.00,30.00,M,10.00,M,CLR,M,M,M,M,M,M,M,M,M,M,M,M,M,M,80.99,KBVU 180415Z AUTO 04003KT 10SM CLR 28/10 A3000 RMK AO2,M
TMT,2021-09-18 04:15,-117.1971,39.4643,1749.34,60.00,27.50,28.71,220.00,6.00,0.00,30.13,M,10.00,M,CLR,M,M,M,M,M,M,M,M,M,M,M,M,M,M,60.10,KTMT 180415Z AUTO 22006KT 10SM CLR 16/M02 A3013 RMK AO2 T01561025,M
EKO,2021-09-18 04:17,-115.7860,40.8242,1367.00,72.00,25.00,17.13,180.00,8.00,0.00,30.06,M,10.00,17.00,CLR,M,M,M,M,M,M,M,M,M,M,M,M,M,M,72.00,KEKO 180417Z AUTO 18008G17KT 10SM CLR 22/M04 A3006 RMK AO2 WSHFT 0357 T02221039,M
DRA,2021-09-18 04:32,-116.0278,36.6206,1009.00,79.00,46.00,31.21,230.00,9.00,0.00,30.07,M,10.00,28.00,BKN,M,M,M,9500.00,M,M,M,M,M,M,M,28.00,190.00,2021-09-18 04:24,79.00,KDRA 180432Z AUTO 23009G28KT 10SM BKN095 26/08 A3007 RMK AO2 PK WND 19028/0424 WSHFT 0415 T02610078,M
BAM,2021-09-18 04:35,-116.8743,40.5990,1382.36,64.40,17.60,16.26,170.00,5.00,0.00,30.01,M,10.00,M,CLR,M,M,M,M,M,M,M,M,M,M,M,M,M,M,64.40,KBAM 180435Z AUTO 17005KT 10SM CLR 18/M08 A3001 RMK AO1,M
MEV,2021-09-18 04:35,-119.7500,38.9963,1441.42,66.20,24.80,20.72,160.00,6.00,0.00,30.07,M,10.00,M,FEW,SCT,OVC,M,4300.00,7000.00,8500.00,M,M,M,M,M,M,M,M,66.20,KMEV 180435Z AUTO 16006KT 10SM FEW043 SCT070 OVC085 19/M04 A3007 RMK AO2,M
HTH,2021-09-18 04:35,-118.6315,38.5448,1282.89,77.00,21.20,12.35,170.00,7.00,0.00,30.03,M,8.00,M,BKN,BKN,BKN,M,3700.00,4300.00,4800.00,M,M,M,M,M,M,M,M,77.00,KHTH 180435Z AUTO 17007KT 8SM BKN037 BKN043 BKN048 25/M06 A3003 RMK A01,M
TMT,2021-09-18 04:35,-117.1971,39.4643,1749.34,56.00,27.00,32.71,250.00,5.00,0.00,30.14,M,10.00,M,CLR,M,M,M,M,M,M,M,M,M,M,M,M,M,M,55.90,KTMT 180435Z AUTO 25005KT 10SM CLR 13/M03 A3014 RMK AO2 T01331028,M
RTS,2021-09-18 04:35,-119.8764,39.6682,1539.00,68.00,26.60,20.98,320.00,10.00,0.00,30.09,M,10.00,16.00,CLR,M,M,M,M,M,M,M,M,M,M,M,M,M,M,68.00,KRTS 180435Z AUTO 32010G16KT 10SM CLR 20/M03 A3009 RMK AO2,M
CXP,2021-09-18 04:35,-119.7326,39.1923,1431.00,73.40,23.00,15.03,220.00,5.00,0.00,30.07,M,10.00,11.00,OVC,M,M,M,7000.00,M,M,M,M,M,M,M,M,M,M,73.40,KCXP 180435Z AUTO 22005G11KT 10SM OVC070 23/M05 A3007 RMK AO2,M
BVU,2021-09-18 04:35,-114.8611,35.9475,671.00,82.40,48.20,30.35,110.00,6.00,0.00,30.00,M,10.00,M,CLR,M,M,M,M,M,M,M,M,M,M,M,M,M,M,80.80,KBVU 180435Z AUTO 11006KT 10SM CLR 28/09 A3000 RMK AO2,M
CXP,2021-09-18 04:50,-119.7326,39.1923,1431.00,71.60,23.00,15.97,220.00,4.00,0.00,30.07,M,10.00,M,BKN,OVC,M,M,7500.00,9000.00,M,M,M,M,M,M,M,M,M,71.60,KCXP 180450Z AUTO 22004KT 10SM BKN075 OVC090 22/M05 A3007 RMK AO2,M
P68,2021-09-18 04:53,-116.0056,39.6014,1993.00,65.00,36.00,34.17,150.00,9.00,0.00,30.17,1014.40,M,M,M,M,M,M,M,M,M,M,M,M,M,M,M,M,M,64.90,KP68 180453Z AUTO 15009KT 18/02 A3017 RMK AO1 SLP144 T01830022,M
LOL,2021-09-18 04:53,-118.5701,40.0684,1192.43,59.00,27.00,29.25,90.00,5.00,0.00,29.98,1012.50,7.00,M,CLR,M,M,M,M,M,M,M,M,M,M,M,M,M,M,59.00,KLOL 180453Z AUTO 09005KT 7SM CLR 15/M03 A2998 RMK AO2 SLP125 T01501028,M
VGT,2021-09-18 04:53,-115.1933,36.2111,667.00,83.00,49.00,30.65,290.00,5.00,0.00,29.98,1014.40,10.00,M,CLR,M,M,M,M,M,M,M,M,M,M,M,M,M,M,81.20,KVGT 180453Z AUTO 29005KT 10SM CLR 28/09 A2998 RMK AO2 SLP144 T02830094,M
DRA,2021-09-18 04:53,-116.0278,36.6206,1009.00,76.00,47.00,35.78,210.00,8.00,0.00,30.07,1013.90,10.00,M,FEW,M,M,M,9500.00,M,M,M,M,M,M,M,28.00,190.00,2021-09-18 04:24,75.90,KDRA 180453Z AUTO 21008KT 10SM FEW095 24/08 A3007 RMK AO2 PK WND 19028/0424 WSHFT 0415 SLP139 T02440083,M
ELY,2021-09-18 04:53,-114.8453,39.2950,1909.00,61.00,36.00,39.19,190.00,12.00,0.00,30.23,1014.10,10.00,M,CLR,M,M,M,M,M,M,M,M,M,M,M,M,M,M,61.00,KELY 180453Z AUTO 19012KT 10SM CLR 16/02 A3023 RMK AO2 SLP141 T01610022,M
RTS,2021-09-18 04:55,-119.8764,39.6682,1539.00,68.00,24.80,19.47,320.00,12.00,0.00,30.09,M,10.00,M,FEW,M,M,M,9000.00,M,M,M,M,M,M,M,M,M,M,68.00,KRTS 180455Z AUTO 32012KT 10SM FEW090 20/M04 A3009 RMK AO2,M
RNO,2021-09-18 04:55,-119.7711,39.4839,1341.00,71.00,28.90,20.74,330.00,5.00,0.00,30.04,1012.40,10.00,M,SCT,M,M,M,7500.00,M,M,M,M,M,M,M,M,M,M,71.10,KRNO 180455Z 33005KT 10SM SCT075 22/M02 A3004 RMK AO2 SLP124 FU SCT075 FU ALF AND HZ ALQDS T02171017,M
MEV,2021-09-18 04:55,-119.7500,38.9963,1441.42,64.40,24.80,22.06,120.00,4.00,0.00,30.06,M,10.00,M,FEW,SCT,OVC,M,7000.00,8000.00,9000.00,M,M,M,M,M,M,M,M,64.40,KMEV 180455Z AUTO 12004KT 10SM FEW070 SCT080 OVC090 18/M04 A3006 RMK AO2,M
BAM,2021-09-18 04:55,-116.8743,40.5990,1382.36,62.60,15.80,16.02,170.00,6.00,0.00,30.03,M,10.00,M,CLR,M,M,M,M,M,M,M,M,M,M,M,M,M,M,62.60,KBAM 180455Z AUTO 17006KT 10SM CLR 17/M09 A3003 RMK AO1,M
HTH,2021-09-18 04:55,-118.6315,38.5448,1282.89,77.00,21.20,12.35,M,5.00,0.00,30.03,M,8.00,13.00,BKN,OVC,M,M,3500.00,4000.00,M,M,M,M,M,M,M,M,M,77.00,KHTH 180455Z AUTO VRB05G13KT 8SM BKN035 OVC040 25/M06 A3003 RMK A01,M
TMT,2021-09-18 04:55,-117.1971,39.4643,1749.34,57.40,27.30,31.37,220.00,4.00,0.00,30.14,M,10.00,M,CLR,M,M,M,M,M,M,M,M,M,M,M,M,M,M,57.40,KTMT 180455Z AUTO 22004KT 10SM CLR 14/M03 A3014 RMK AO2 T01411026,M
BVU,2021-09-18 04:55,-114.8611,35.9475,671.00,84.20,48.20,28.63,100.00,6.00,0.00,30.00,M,10.00,M,CLR,M,M,M,M,M,M,M,M,M,M,M,M,M,M,82.04,KBVU 180455Z AUTO 10006KT 10SM CLR 29/09 A3000 RMK AO2,M
HND,2021-09-18 04:56,-115.1344,35.9729,742.79,80.00,47.00,31.15,170.00,4.00,0.00,30.03,1015.80,10.00,M,CLR,M,M,M,M,M,M,M,M,M,M,M,M,M,M,79.33,KHND 180456Z AUTO 17004KT 10SM CLR 27/08 A3003 RMK AO2 SLP158 T02670083,M
LAS,2021-09-18 04:56,-115.1634,36.0719,663.00,83.00,48.00,29.64,290.00,7.00,0.00,29.99,1013.10,10.00,M,FEW,FEW,M,M,12000.00,16000.00,M,M,M,M,M,M,M,M,M,81.11,KLAS 180456Z 29007KT 10SM FEW120 FEW160 28/09 A2999 RMK AO2 SLP131 T02830089,M
NFL,2021-09-18 04:56,-118.7010,39.4166,1199.00,68.00,28.90,23.06,M,5.00,0.00,29.99,1012.60,6.00,M,BKN,M,M,M,8000.00,M,M,M,FU,M,M,M,M,M,M,68.00,KNFL 180456Z VRB05KT 6SM FU BKN080 20/M02 A2999 RMK AO2 SLP126 FU BKN080 T02001017,M
TPH,2021-09-18 04:56,-117.0904,38.0505,1654.00,66.00,43.00,43.20,150.00,11.00,0.00,30.17,1015.00,10.00,M,CLR,M,M,M,M,M,M,M,M,M,M,M,M,M,M,66.00,KTPH 180456Z AUTO 15011KT 10SM CLR 19/06 A3017 RMK AO2 SLP150 T01890061,M
WMC,2021-09-18 04:56,-117.8072,40.9019,1315.00,62.00,21.00,20.38,120.00,3.00,0.00,29.99,1011.60,7.00,M,CLR,M,M,M,M,M,M,M,M,M,M,M,M,M,M,62.10,KWMC 180456Z AUTO 12003KT 7SM CLR 17/M06 A2999 RMK AO2 SLP116 T01671061 $,M
EKO,2021-09-18 04:56,-115.7860,40.8242,1367.00,72.00,28.90,20.12,180.00,12.00,0.00,30.06,1012.80,10.00,21.00,CLR,M,M,M,M,M,M,M,M,M,M,M,M,M,M,72.00,KEKO 180456Z AUTO 18012G21KT 10SM CLR 22/M02 A3006 RMK AO2 WSHFT 0357 SLP128 T02221017,M
INS,2021-09-18 04:58,-115.6733,36.5872,955.00,75.00,44.00,32.90,270.00,4.00,0.00,30.05,1013.20,10.00,M,FEW,M,M,M,10000.00,M,M,M,M,M,M,M,M,M,M,75.00,KINS 180458Z AUTO 27004KT 10SM FEW100 24/07 A3005 RMK AO2 SLP132 T02390066 $,M
LSV,2021-09-18 04:58,-115.0343,36.2362,570.00,84.70,48.00,27.96,70.00,8.00,0.00,29.97,1012.60,10.00,M,SCT,M,M,M,15000.00,M,M,M,M,M,M,M,M,M,M,82.38,KLSV 180458Z AUTO 07008KT 10SM SCT150 29/09 A2997 RMK AO2 SLP126 T02930089 $,M
MEV,2021-09-18 05:15,-119.7500,38.9963,1441.42,60.80,26.60,26.98,70.00,7.00,0.00,30.07,M,9.00,M,SCT,OVC,M,M,7000.00,8500.00,M,M,M,M,M,M,M,M,M,60.80,KMEV 180515Z AUTO 07007KT 9SM SCT070 OVC085 16/M03 A3007 RMK AO2,M
CXP,2021-09-18 05:15,-119.7326,39.1923,1431.00,69.80,24.80,18.30,210.00,5.00,0.00,30.07,M,10.00,M,BKN,OVC,M,M,7000.00,8500.00,M,M,M,M,M,M,M,M,M,69.80,KCXP 180515Z AUTO 21005KT 10SM BKN070 OVC085 21/M04 A3007 RMK AO2,M
RTS,2021-09-18 05:15,-119.8764,39.6682,1539.00,68.00,26.60,20.98,270.00,12.00,0.00,30.09,M,10.00,21.00,FEW,M,M,M,8500.00,M,M,M,M,M,M,M,M,M,M,68.00,KRTS 180515Z AUTO 27012G21KT 230V300 10SM FEW085 20/M03 A3009 RMK AO2,M
BAM,2021-09-18 05:15,-116.8743,40.5990,1382.36,64.40,17.60,16.26,0.00,0.00,0.00,30.02,M,10.00,M,CLR,M,M,M,M,M,M,M,M,M,M,M,M,M,M,64.40,KBAM 180515Z AUTO 00000KT 10SM CLR 18/M08 A3002 RMK AO1,M
HTH,2021-09-18 05:15,-118.6315,38.5448,1282.89,77.00,23.00,13.32,180.00,11.00,0.00,30.03,M,7.00,18.00,OVC,M,M,M,3700.00,M,M,M,M,M,M,M,M,M,M,77.00,KHTH 180515Z AUTO 18011G18KT 140V220 7SM OVC037 25/M05 A3003 RMK A01,M
TMT,2021-09-18 05:15,-117.1971,39.4643,1749.34,56.50,27.50,32.67,240.00,7.00,0.00,30.14,M,10.00,M,CLR,M,M,M,M,M,M,M,M,M,M,M,M,M,M,56.50,KTMT 180515Z AUTO 24007KT 10SM CLR 14/M02 A3014 RMK AO2 T01361025,M
BVU,2021-09-18 05:15,-114.8611,35.9475,671.00,80.60,50.00,34.41,70.00,4.00,0.00,30.00,M,10.00,M,CLR,M,M,M,M,M,M,M,M,M,M,M,M,M,M,79.88,KBVU 180515Z AUTO 07004KT 10SM CLR 27/10 A3000 RMK AO2,M
BAM,2021-09-18 05:35,-116.8743,40.5990,1382.36,64.40,17.60,16.26,0.00,0.00,0.00,30.02,M,10.00,M,CLR,M,M,M,M,M,M,M,M,M,M,M,M,M,M,64.40,KBAM 180535Z AUTO 00000KT 10SM CLR 18/M08 A3002 RMK AO1,M
TMT,2021-09-18 05:35,-117.1971,39.4643,1749.34,58.00,28.40,32.00,230.00,4.00,0.00,30.15,M,10.00,M,CLR,M,M,M,M,M,M,M,M,M,M,M,M,M,M,58.10,KTMT 180535Z AUTO 23004KT 10SM CLR 15/M02 A3015 RMK AO2 T01451020,M
MEV,2021-09-18 05:35,-119.7500,38.9963,1441.42,66.20,26.60,22.33,0.00,0.00,0.00,30.06,M,9.00,M,OVC,M,M,M,8000.00,M,M,M,M,M,M,M,M,M,M,66.20,KMEV 180535Z AUTO 00000KT 9SM OVC080 19/M03 A3006 RMK AO2,M
RTS,2021-09-18 05:35,-119.8764,39.6682,1539.00,66.20,26.60,22.33,310.00,12.00,0.00,30.10,M,10.00,M,FEW,M,M,M,8500.00,M,M,M,M,M,M,M,M,M,M,66.20,KRTS 180535Z AUTO 31012KT 10SM FEW085 19/M03 A3010 RMK AO2,M
CXP,2021-09-18 05:35,-119.7326,39.1923,1431.00,69.80,24.80,18.30,0.00,0.00,0.00,30.07,M,10.00,M,OVC,M,M,M,7000.00,M,M,M,M,M,M,M,M,M,M,69.80,KCXP 180535Z AUTO 00000KT 10SM OVC070 21/M04 A3007 RMK AO2,M
BVU,2021-09-18 05:35,-114.8611,35.9475,671.00,78.80,51.80,39.02,70.00,4.00,0.00,30.00,M,10.00,M,FEW,FEW,FEW,M,8000.00,10000.00,12000.00,M,M,M,M,M,M,M,M,78.80,KBVU 180535Z AUTO 07004KT 10SM FEW080 FEW100 FEW120 26/11 A3000 RMK AO2,M
HTH,2021-09-18 05:35,-118.6315,38.5448,1282.89,77.00,24.80,14.37,160.00,8.00,0.00,30.04,M,5.00,M,BKN,OVC,M,M,2800.00,3300.00,M,M,HZ,M,M,M,M,M,M,77.00,KHTH 180535Z AUTO 16008KT 5SM HZ BKN028 OVC033 25/M04 A3004 RMK A01,M
DRA,2021-09-18 05:53,-116.0278,36.6206,1009.00,73.00,46.00,38.11,40.00,4.00,0.00,30.07,1013.60,10.00,M,CLR,M,M,M,M,M,M,M,M,M,M,M,M,M,M,73.00,KDRA 180553Z AUTO 04004KT 10SM CLR 23/08 A3007 RMK AO2 SLP136 T02280078 10294 20228 50011,M
LOL,2021-09-18 05:53,-118.5701,40.0684,1192.43,60.00,28.00,29.31,120.00,6.00,0.00,29.99,1012.40,7.00,M,CLR,M,M,M,M,M,M,M,M,M,M,M,M,M,M,60.10,KLOL 180553Z AUTO 12006KT 7SM CLR 16/M02 A2999 RMK AO2 SLP124 T01561022 10306 20139 51016,M
VGT,2021-09-18 05:53,-115.1933,36.2111,667.00,81.00,49.00,32.60,320.00,4.00,0.00,29.98,1014.50,10.00,M,CLR,M,M,M,M,M,M,M,M,M,M,M,M,M,M,80.01,KVGT 180553Z AUTO 32004KT 10SM CLR 27/09 A2998 RMK AO2 SLP145 T02720094 10333 20272 51007,M
ELY,2021-09-18 05:53,-114.8453,39.2950,1909.00,57.00,35.00,43.63,180.00,11.00,0.00,30.23,1014.10,10.00,M,CLR,M,M,M,M,M,M,M,M,M,M,M,M,M,M,57.00,KELY 180553Z AUTO 18011KT 10SM CLR 14/02 A3023 RMK AO2 SLP141 T01390017 10250 20139 51004,M
P68,2021-09-18 05:53,-116.0056,39.6014,1993.00,64.00,36.00,35.26,190.00,9.00,0.00,30.17,1014.00,M,M,M,M,M,M,M,M,M,M,M,M,M,M,M,M,M,64.00,KP68 180553Z AUTO 19009KT 18/02 A3017 RMK AO1 SLP140 T01780022 10278 20172 51010,M
BAM,2021-09-18 05:55,-116.8743,40.5990,1382.36,59.00,17.60,19.68,0.00,0.00,0.00,30.03,M,10.00,M,CLR,M,M,M,M,M,M,M,M,M,M,M,M,M,M,59.00,KBAM 180555Z AUTO 00000KT 10SM CLR 15/M08 A3003 RMK AO1,M
TMT,2021-09-18 05:55,-117.1971,39.4643,1749.34,54.70,28.00,35.60,230.00,5.00,0.00,30.15,M,10.00,M,CLR,M,M,M,M,M,M,M,M,M,M,M,M,M,M,54.70,KTMT 180555Z AUTO 23005KT 10SM CLR 13/M02 A3015 RMK AO2 T01261022 10282 20126,M
MEV,2021-09-18 05:55,-119.7500,38.9963,1441.42,64.40,26.60,23.77,0.00,0.00,0.00,30.06,M,9.00,M,BKN,OVC,M,M,7500.00,8500.00,M,M,M,M,M,M,M,M,M,64.40,KMEV 180555Z AUTO 00000KT 9SM BKN075 OVC085 18/M03 A3006 RMK AO2,M
CXP,2021-09-18 05:55,-119.7326,39.1923,1431.00,66.20,24.80,20.72,0.00,0.00,0.00,30.07,M,10.00,M,OVC,M,M,M,7000.00,M,M,M,M,M,M,M,M,M,M,66.20,KCXP 180555Z AUTO 000KT 10SM OVC070 19/M04 A3007 RMK AO2,M
BVU,2021-09-18 05:55,-114.8611,35.9475,671.00,80.60,51.80,36.79,70.00,3.00,0.00,30.00,M,10.00,M,FEW,SCT,BKN,M,5000.00,6500.00,9500.00,M,M,M,M,M,M,M,M,80.08,KBVU 180555Z AUTO 07003KT 10SM FEW050 SCT065 BKN095 27/11 A3000 RMK AO2,M
RTS,2021-09-18 05:55,-119.8764,39.6682,1539.00,64.40,26.60,23.77,320.00,5.00,0.00,30.10,M,10.00,M,CLR,M,M,M,M,M,M,M,M,M,M,M,M,M,M,64.40,KRTS 180555Z AUTO 32005KT 10SM CLR 18/M03 A3010 RMK AO2,M
RNO,2021-09-18 05:55,-119.7711,39.4839,1341.00,69.00,30.00,23.22,0.00,0.00,0.00,30.04,1012.40,10.00,M,OVC,M,M,M,9000.00,M,M,M,M,M,M,M,M,M,M,69.10,KRNO 180555Z 00000KT 10SM OVC090 21/M01 A3004 RMK AO2 SLP124 FU OVC090 T02061011 10294 20200 51009,M
HTH,2021-09-18 05:55,-118.6315,38.5448,1282.89,75.20,24.80,15.25,140.00,16.00,0.00,30.03,M,9.00,M,BKN,OVC,M,M,2800.00,3700.00,M,M,M,M,M,M,M,M,M,75.20,KHTH 180555Z AUTO 14016KT 9SM BKN028 OVC037 24/M04 A3003 RMK A01,M
EKO,2021-09-18 05:56,-115.7860,40.8242,1367.00,68.00,28.90,23.06,270.00,6.00,0.00,30.06,1012.60,10.00,M,CLR,M,M,M,M,M,M,M,M,M,M,M,M,M,M,68.00,KEKO 180556Z AUTO 27006KT 10SM CLR 20/M02 A3006 RMK AO2 SLP126 T02001017 10300 20200 51016,M
NFL,2021-09-18 05:56,-118.7010,39.4166,1199.00,61.00,27.00,27.24,M,5.00,0.00,30.00,1012.90,6.00,M,BKN,M,M,M,8000.00,M,M,M,FU,M,M,M,M,M,M,61.00,KNFL 180556Z VRB05KT 6SM FU BKN080 16/M03 A3000 RMK AO2 SLP129 FU BKN080 T01611028 10317 20161 51015,M
LAS,2021-09-18 05:56,-115.1634,36.0719,663.00,81.00,47.00,30.24,290.00,6.00,0.00,30.00,1013.30,10.00,M,FEW,SCT,M,M,12000.00,15000.00,M,M,M,M,M,M,M,M,M,79.83,KLAS 180556Z 29006KT 10SM FEW120 SCT150 27/08 A3000 RMK AO2 SLP133 T02720083 10333 20272 51007,M
WMC,2021-09-18 05:56,-117.8072,40.9019,1315.00,59.00,21.00,22.76,180.00,4.00,0.00,30.00,1011.90,8.00,M,CLR,M,M,M,M,M,M,M,M,M,M,M,M,M,M,59.00,KWMC 180556Z AUTO 18004KT 8SM CLR 15/M06 A3000 RMK AO2 SLP119 T01501061 10311 20144 53010 $,M
TPH,2021-09-18 05:56,-117.0904,38.0505,1654.00,62.00,41.00,45.84,270.00,4.00,0.00,30.18,1014.90,10.00,M,CLR,M,M,M,M,M,M,M,M,M,M,M,M,M,M,62.10,KTPH 180556Z AUTO 27004KT 10SM CLR 17/05 A3018 RMK AO2 SLP149 T01670050 10272 20167 51011,M
HND,2021-09-18 05:56,-115.1344,35.9729,742.79,78.00,48.00,34.67,140.00,5.00,0.00,30.03,1016.00,10.00,M,CLR,M,M,M,M,M,M,M,M,M,M,M,M,M,M,78.10,KHND 180556Z AUTO 14005KT 10SM CLR 26/09 A3003 RMK AO2 SLP160 T02560089 10333 20256 51008,M
INS,2021-09-18 05:58,-115.6733,36.5872,955.00,75.60,44.40,32.87,220.00,8.00,0.00,30.06,1013.50,10.00,M,CLR,M,M,M,M,M,M,M,M,M,M,M,M,M,M,75.60,KINS 180558Z AUTO 22008KT 10SM CLR 24/07 A3006 RMK AO2 SLP135 60000 T02420069 10303 20235 52010 $,M
LSV,2021-09-18 05:58,-115.0343,36.2362,570.00,81.50,46.20,28.98,50.00,8.00,0.00,29.97,1012.50,10.00,M,FEW,SCT,M,M,13000.00,15000.00,M,M,M,M,M,M,M,M,M,80.07,KLSV 180558Z AUTO 05008KT 10SM FEW130 SCT150 28/08 A2997 RMK AO2 SLP125 T02750079 10328 20274 52005 $,M
MEV,2021-09-18 06:15,-119.7500,38.9963,1441.42,62.60,26.60,25.32,90.00,6.00,0.00,30.06,M,9.00,M,BKN,OVC,M,M,7000.00,8500.00,M,M,M,M,M,M,M,M,M,62.60,KMEV 180615Z AUTO 09006KT 9SM BKN070 OVC085 17/M03 A3006 RMK AO2,M
CXP,2021-09-18 06:15,-119.7326,39.1923,1431.00,68.00,21.20,16.74,M,5.00,0.00,30.07,M,10.00,M,OVC,M,M,M,7000.00,M,M,M,M,M,M,M,M,M,M,68.00,KCXP 180615Z AUTO VRB05KT 10SM OVC070 20/M06 A3007 RMK AO2,M
TMT,2021-09-18 06:15,-117.1971,39.4643,1749.34,56.00,30.00,36.72,220.00,8.00,0.00,30.15,M,10.00,M,CLR,M,M,M,M,M,M,M,M,M,M,M,M,M,M,56.10,KTMT 180615Z AUTO 22008KT 10SM CLR 13/M01 A3015 RMK AO2 T01341011,M
RTS,2021-09-18 06:15,-119.8764,39.6682,1539.00,64.40,28.40,25.60,340.00,9.00,0.00,30.10,M,10.00,M,CLR,M,M,M,M,M,M,M,M,M,M,M,M,M,M,64.40,KRTS 180615Z AUTO 34009KT 10SM CLR 18/M02 A3010 RMK AO2,M
HTH,2021-09-18 06:15,-118.6315,38.5448,1282.89,75.20,24.80,15.25,140.00,14.00,0.00,30.03,M,10.00,21.00,FEW,BKN,BKN,M,2900.00,3800.00,4400.00,M,M,M,M,M,M,M,M,75.20,KHTH 180615Z AUTO 14014G21KT 10SM FEW029 BKN038 BKN044 24/M04 A3003 RMK A01,M
BVU,2021-09-18 06:15,-114.8611,35.9475,671.00,82.40,50.00,32.46,100.00,5.00,0.00,30.00,M,10.00,M,FEW,SCT,BKN,M,4800.00,6000.00,8000.00,M,M,M,M,M,M,M,M,80.99,KBVU 180615Z AUTO 10005KT 10SM FEW048 SCT060 BKN080 28/10 A3000 RMK AO2,M
BAM,2021-09-18 06:15,-116.8743,40.5990,1382.36,66.20,19.40,16.50,0.00,0.00,0.00,30.03,M,10.00,M,CLR,M,M,M,M,M,M,M,M,M,M,M,M,M,M,66.20,KBAM 180615Z AUTO 00000KT 10SM CLR 19/M07 A3003 RMK AO1,M
HTH,2021-09-18 06:35,-118.6315,38.5448,1282.89,75.20,24.80,15.25,140.00,15.00,0.00,30.03,M,9.00,22.00,BKN,BKN,M,M,3900.00,7000.00,M,M,M,M,M,M,M,M,M,75.20,KHTH 180635Z AUTO 14015G22KT 9SM BKN039 BKN070 24/M04 A3003 RMK A01,M
TMT,2021-09-18 06:35,-117.1971,39.4643,1749.34,57.60,30.20,35.06,200.00,10.00,0.00,30.15,M,10.00,M,CLR,M,M,M,M,M,M,M,M,M,M,M,M,M,M,57.60,KTMT 180635Z AUTO 20010KT 10SM CLR 14/M01 A3015 RMK AO2 T01421010,M
CXP,2021-09-18 06:35,-119.7326,39.1923,1431.00,69.80,23.00,16.98,0.00,0.00,0.00,30.07,M,10.00,M,BKN,OVC,M,M,7000.00,8000.00,M,M,M,M,M,M,M,M,M,69.80,KCXP 180635Z AUTO 00000KT 10SM BKN070 OVC080 21/M05 A3007 RMK AO2,M
RTS,2021-09-18 06:35,-119.8764,39.6682,1539.00,62.60,30.20,29.35,310.00,13.00,0.00,30.10,M,10.00,M,CLR,M,M,M,M,M,M,M,M,M,M,M,M,M,M,62.60,KRTS 180635Z AUTO 31013KT 10SM CLR 17/M01 A3010 RMK AO2,M
MEV,2021-09-18 06:35,-119.7500,38.9963,1441.42,59.00,28.40,30.98,90.00,8.00,0.00,30.06,M,8.00,M,SCT,OVC,M,M,7000.00,8500.00,M,M,M,M,M,M,M,M,M,59.00,KMEV 180635Z AUTO 09008KT 8SM SCT070 OVC085 15/M02 A3006 RMK AO2,M
BAM,2021-09-18 06:35,-116.8743,40.5990,1382.36,57.20,17.60,20.99,100.00,3.00,0.00,30.03,M,10.00,M,CLR,M,M,M,M,M,M,M,M,M,M,M,M,M,M,57.20,KBAM 180635Z AUTO 10003KT 10SM CLR 14/M08 A3003 RMK AO1,M
BVU,2021-09-18 06:35,-114.8611,35.9475,671.00,80.60,53.60,39.30,100.00,5.00,0.00,29.99,M,10.00,M,FEW,FEW,SCT,M,5500.00,7500.00,11000.00,M,M,M,M,M,M,M,M,80.29,KBVU 180635Z AUTO 10005KT 10SM FEW055 FEW075 SCT110 27/12 A2999 RMK AO2,M
DRA,2021-09-18 06:53,-116.0278,36.6206,1009.00,73.00,45.00,36.70,80.00,7.00,0.00,30.06,1013.30,10.00,M,CLR,M,M,M,M,M,M,M,M,M,M,M,M,M,M,73.00,KDRA 180653Z AUTO 08007KT 10SM CLR 23/07 A3006 RMK AO2 SLP133 T02280072,M
P68,2021-09-18 06:53,-116.0056,39.6014,1993.00,63.00,39.00,41.09,180.00,11.00,0.00,30.17,1013.00,M,M,M,M,M,M,M,M,M,M,M,M,M,M,M,M,M,63.00,KP68 180653Z AUTO 18011KT 17/04 A3017 RMK AO1 SLP130 T01720039,M
ELY,2021-09-18 06:53,-114.8453,39.2950,1909.00,55.00,35.00,46.91,210.00,9.00,0.00,30.23,1014.20,10.00,M,CLR,M,M,M,M,M,M,M,M,M,M,M,M,M,M,55.00,KELY 180653Z AUTO 21009KT 10SM CLR 13/02 A3023 RMK AO2 SLP142 T01280017,M
VGT,2021-09-18 06:53,-115.1933,36.2111,667.00,80.00,49.00,33.58,320.00,6.00,0.00,29.98,1014.60,10.00,M,FEW,M,M,M,12000.00,M,M,M,M,M,M,M,M,M,M,79.50,KVGT 180653Z AUTO 32006KT 10SM FEW120 27/09 A2998 RMK AO2 SLP146 T02670094,M
LOL,2021-09-18 06:53,-118.5701,40.0684,1192.43,55.00,28.00,35.21,110.00,4.00,0.00,29.99,1012.70,7.00,M,CLR,M,M,M,M,M,M,M,M,M,M,M,M,M,M,55.00,KLOL 180653Z AUTO 11004KT 7SM CLR 13/M02 A2999 RMK AO2 SLP127 T01281022,M
CXP,2021-09-18 06:55,-119.7326,39.1923,1431.00,68.00,23.00,18.06,190.00,4.00,0.00,30.07,M,10.00,M,OVC,M,M,M,7500.00,M,M,M,M,M,M,M,M,M,M,68.00,KCXP 180655Z AUTO 19004KT 10SM OVC075 20/M05 A3007 RMK AO2,M
BAM,2021-09-18 06:55,-116.8743,40.5990,1382.36,57.20,17.60,20.99,100.00,3.00,0.00,30.03,M,10.00,M,CLR,M,M,M,M,M,M,M,M,M,M,M,M,M,M,57.20,KBAM 180655Z AUTO 10003KT 10SM CLR 14/M08 A3003 RMK AO1,M
HTH,2021-09-18 06:55,-118.6315,38.5448,1282.89,77.00,26.60,15.48,160.00,17.00,0.00,30.03,M,9.00,M,BKN,OVC,M,M,3800.00,4400.00,M,M,M,M,M,M,M,M,M,77.00,KHTH 180655Z AUTO 16017KT 9SM BKN038 OVC044 25/M03 A3003 RMK A01,M
RTS,2021-09-18 06:55,-119.8764,39.6682,1539.00,64.40,30.20,27.55,300.00,16.00,0.00,30.09,M,10.00,21.00,CLR,M,M,M,M,M,M,M,M,M,M,M,M,M,M,64.40,KRTS 180655Z AUTO 30016G21KT 10SM CLR 18/M01 A3009 RMK AO2,M
MEV,2021-09-18 06:55,-119.7500,38.9963,1441.42,59.00,24.80,26.70,0.00,0.00,0.00,30.06,M,10.00,M,FEW,BKN,OVC,M,5500.00,7000.00,8500.00,M,M,M,M,M,M,M,M,59.00,KMEV 180655Z AUTO 00000KT 10SM FEW055 BKN070 OVC085 15/M04 A3006 RMK AO2,M
TMT,2021-09-18 06:55,-117.1971,39.4643,1749.34,57.60,30.90,36.08,200.00,9.00,0.00,30.15,M,10.00,M,CLR,M,M,M,M,M,M,M,M,M,M,M,M,M,M,57.60,KTMT 180655Z AUTO 20009KT 10SM CLR 14/M01 A3015 RMK AO2 T01421006,M
RNO,2021-09-18 06:55,-119.7711,39.4839,1341.00,65.00,32.00,29.12,140.00,3.00,0.00,30.04,1012.20,10.00,M,OVC,M,M,M,9000.00,M,M,M,M,M,M,M,M,M,M,64.90,KRNO 180655Z 14003KT 10SM OVC090 18/00 A3004 RMK AO2 SLP122 FU OVC090 T01830000,M
BVU,2021-09-18 06:55,-114.8611,35.9475,671.00,80.60,51.80,36.79,100.00,5.00,0.00,30.00,M,10.00,M,CLR,M,M,M,M,M,M,M,M,M,M,M,M,M,M,80.08,KBVU 180655Z AUTO 10005KT 10SM CLR 27/11 A3000 RMK AO2,M
NFL,2021-09-18 06:56,-118.7010,39.4166,1199.00,59.00,28.90,31.63,M,5.00,0.00,30.00,1012.90,6.00,M,BKN,M,M,M,8000.00,M,M,M,FU,M,M,M,M,M,M,59.00,KNFL 180656Z VRB05KT 6SM FU BKN080 15/M02 A3000 RMK AO2 SLP129 FU BKN080 T01501017,M
HND,2021-09-18 06:56,-115.1344,35.9729,742.79,78.00,49.00,35.86,170.00,3.00,0.00,30.03,1015.90,10.00,M,CLR,M,M,M,M,M,M,M,M,M,M,M,M,M,M,78.10,KHND 180656Z AUTO 17003KT 10SM CLR 26/09 A3003 RMK AO2 SLP159 T02560094 403390200,M
TPH,2021-09-18 06:56,-117.0904,38.0505,1654.00,63.00,42.00,46.34,10.00,4.00,0.00,30.19,1014.50,10.00,M,CLR,M,M,M,M,M,M,M,M,M,M,M,M,M,M,63.00,KTPH 180656Z AUTO 01004KT 10SM CLR 17/06 A3019 RMK AO2 SLP145 T01720056,M
LAS,2021-09-18 06:56,-115.1634,36.0719,663.00,82.00,47.00,29.28,260.00,3.00,0.00,30.00,1013.20,10.00,M,FEW,BKN,M,M,12000.00,15000.00,M,M,M,M,M,M,M,M,M,80.43,KLAS 180656Z 26003KT 10SM FEW120 BKN150 28/08 A3000 RMK AO2 SLP132 T02780083,M
WMC,2021-09-18 06:56,-117.8072,40.9019,1315.00,55.00,21.00,26.29,0.00,0.00,0.00,30.01,1012.00,9.00,M,CLR,M,M,M,M,M,M,M,M,M,M,M,M,M,M,55.00,KWMC 180656Z AUTO 00000KT 9SM CLR 13/M06 A3001 RMK AO2 SLP120 T01281061 $,M
EKO,2021-09-18 06:56,-115.7860,40.8242,1367.00,67.00,28.90,23.95,M,4.00,0.00,30.07,1012.50,10.00,M,CLR,M,M,M,M,M,M,M,M,M,M,M,M,M,M,66.90,KEKO 180656Z AUTO VRB04KT 10SM CLR 19/M02 A3007 RMK AO2 SLP125 T01941017,M
INS,2021-09-18 06:58,-115.6733,36.5872,955.00,75.40,45.00,33.86,0.00,0.00,0.00,30.06,1013.30,10.00,M,BKN,M,M,M,14000.00,M,M,M,M,M,M,M,M,M,M,75.40,KINS 180658Z AUTO 00000KT 10SM BKN140 24/07 A3006 RMK AO2 SLP133 T02410072 $,M
LSV,2021-09-18 06:58,-115.0343,36.2362,570.00,81.70,46.20,28.79,50.00,8.00,0.00,29.97,1012.50,10.00,M,BKN,OVC,M,M,12000.00,14000.00,M,M,M,M,M,M,M,M,M,80.19,KLSV 180658Z AUTO 05008KT 10SM BKN120 OVC140 28/08 A2997 RMK AO2 SLP125 T02760079 $,M
MEV,2021-09-18 07:15,-119.7500,38.9963,1441.42,62.60,24.80,23.50,70.00,4.00,0.00,30.06,M,10.00,M,FEW,BKN,OVC,M,5000.00,7500.00,9000.00,M,M,M,M,M,M,M,M,62.60,KMEV 180715Z AUTO 07004KT 10SM FEW050 BKN075 OVC090 17/M04 A3006 RMK AO2,M
RTS,2021-09-18 07:15,-119.8764,39.6682,1539.00,64.40,30.20,27.55,300.00,13.00,0.00,30.10,M,10.00,M,CLR,M,M,M,M,M,M,M,M,M,M,M,M,M,M,64.40,KRTS 180715Z AUTO 30013KT 10SM CLR 18/M01 A3010 RMK AO2,M
CXP,2021-09-18 07:15,-119.7326,39.1923,1431.00,69.80,21.20,15.73,200.00,8.00,0.00,30.07,M,10.00,M,OVC,M,M,M,8000.00,M,M,M,M,M,M,M,M,M,M,69.80,KCXP 180715Z AUTO 20008KT 10SM OVC080 21/M06 A3007 RMK AO2,M
BVU,2021-09-18 07:15,-114.8611,35.9475,671.00,78.80,51.80,39.02,80.00,3.00,0.00,30.00,M,10.00,M,FEW,M,M,M,11000.00,M,M,M,M,M,M,M,M,M,M,78.80,KBVU 180715Z AUTO 08003KT 10SM FEW110 26/11 A3000 RMK AO2,M
TMT,2021-09-18 07:15,-117.1971,39.4643,1749.34,57.60,30.90,36.08,200.00,8.00,0.00,30.14,M,10.00,M,CLR,M,M,M,M,M,M,M,M,M,M,M,M,M,M,57.60,KTMT 180715Z AUTO 20008KT 10SM CLR 14/M01 A3014 RMK AO2 LTG DSNT SE T01421006,M
BAM,2021-09-18 07:15,-116.8743,40.5990,1382.36,55.40,17.60,22.41,40.00,5.00,0.00,30.03,M,10.00,M,CLR,M,M,M,M,M,M,M,M,M,M,M,M,M,M,55.40,KBAM 180715Z AUTO 04005KT 10SM CLR 13/M08 A3003 RMK AO1,M
HTH,2021-09-18 07:15,-118.6315,38.5448,1282.89,75.20,26.60,16.43,150.00,12.00,0.00,30.04,M,10.00,M,BKN,OVC,M,M,4000.00,4900.00,M,M,M,M,M,M,M,M,M,75.20,KHTH 180715Z AUTO 15012KT 10SM BKN040 OVC049 24/M03 A3004 RMK A01,M
MEV,2021-09-18 07:35,-119.7500,38.9963,1441.42,64.40,21.20,18.96,0.00,0.00,0.00,30.06,M,10.00,M,FEW,SCT,OVC,M,4900.00,7500.00,9500.00,M,M,M,M,M,M,M,M,64.40,KMEV 180735Z AUTO 00000KT 10SM FEW049 SCT075 OVC095 18/M06 A3006 RMK AO2,M
HTH,2021-09-18 07:35,-118.6315,38.5448,1282.89,75.20,26.60,16.43,170.00,7.00,0.00,30.04,M,9.00,M,FEW,BKN,OVC,M,2600.00,3300.00,4200.00,M,M,M,M,M,M,M,M,75.20,KHTH 180735Z AUTO 17007KT 9SM FEW026 BKN033 OVC042 24/M03 A3004 RMK A01,M
BVU,2021-09-18 07:35,-114.8611,35.9475,671.00,78.80,51.80,39.02,0.00,0.00,0.00,30.00,M,10.00,M,FEW,FEW,FEW,M,5000.00,6500.00,8000.00,M,M,M,M,M,M,M,M,78.80,KBVU 180735Z AUTO 00000KT 10SM FEW050 FEW065 FEW080 26/11 A3000 RMK AO2,M
CXP,2021-09-18 07:35,-119.7326,39.1923,1431.00,69.80,21.20,15.73,200.00,4.00,0.00,30.07,M,10.00,M,OVC,M,M,M,8000.00,M,M,M,M,M,M,M,M,M,M,69.80,KCXP 180735Z AUTO 20004KT 10SM OVC080 21/M06 A3007 RMK AO2,M
BAM,2021-09-18 07:35,-116.8743,40.5990,1382.36,55.40,19.40,24.21,60.00,5.00,0.00,30.03,M,10.00,M,CLR,M,M,M,M,M,M,M,M,M,M,M,M,M,M,55.40,KBAM 180735Z AUTO 06005KT 10SM CLR 13/M07 A3003 RMK AO1,M
TMT,2021-09-18 07:35,-117.1971,39.4643,1749.34,53.40,30.00,40.51,270.00,3.00,0.00,30.15,M,10.00,M,CLR,M,M,M,M,M,M,M,M,M,M,M,M,M,M,53.40,KTMT 180735Z AUTO 27003KT 10SM CLR 12/M01 A3015 RMK AO2 T01191011,M
RTS,2021-09-18 07:35,-119.8764,39.6682,1539.00,64.40,28.40,25.60,330.00,10.00,0.00,30.10,M,10.00,17.00,CLR,M,M,M,M,M,M,M,M,M,M,M,M,M,M,64.40,KRTS 180735Z AUTO 33010G17KT 10SM CLR 18/M02 A3010 RMK AO2,M
VGT,2021-09-18 07:53,-115.1933,36.2111,667.00,82.00,50.00,32.88,310.00,5.00,0.00,29.98,1014.10,10.00,M,SCT,M,M,M,12000.00,M,M,M,M,M,M,M,M,M,M,80.73,KVGT 180753Z AUTO 31005KT 10SM SCT120 28/10 A2998 RMK AO2 SLP141 T02780100 403390211,M
ELY,2021-09-18 07:53,-114.8453,39.2950,1909.00,54.00,35.00,48.65,200.00,10.00,0.00,30.23,1014.10,10.00,M,CLR,M,M,M,M,M,M,M,M,M,M,M,M,M,M,54.00,KELY 180753Z AUTO 20010KT 10SM CLR 12/02 A3023 RMK AO2 SLP141 T01220017 402720033,M
DRA,2021-09-18 07:53,-116.0278,36.6206,1009.00,71.00,45.00,39.13,140.00,4.00,0.00,30.05,1012.90,10.00,M,CLR,M,M,M,M,M,M,M,M,M,M,M,M,M,M,71.10,KDRA 180753Z AUTO 14004KT 10SM CLR 22/07 A3005 RMK AO2 SLP129 T02170072 403280117,M
LOL,2021-09-18 07:53,-118.5701,40.0684,1192.43,56.00,28.90,35.36,0.00,0.00,0.00,30.00,1012.70,7.00,M,CLR,M,M,M,M,M,M,M,M,M,M,M,M,M,M,55.90,KLOL 180753Z AUTO 00000KT 7SM CLR 13/M02 A3000 RMK AO2 SLP127 T01331017 403110083,M
BAM,2021-09-18 07:55,-116.8743,40.5990,1382.36,55.40,21.20,26.13,50.00,4.00,0.00,30.03,M,10.00,M,CLR,M,M,M,M,M,M,M,M,M,M,M,M,M,M,55.40,KBAM 180755Z AUTO 05004KT 10SM CLR 13/M06 A3003 RMK AO1,M
CXP,2021-09-18 07:55,-119.7326,39.1923,1431.00,68.00,19.40,15.50,200.00,5.00,0.00,30.07,M,10.00,M,OVC,M,M,M,8500.00,M,M,M,M,M,M,M,M,M,M,68.00,KCXP 180755Z AUTO 20005KT 10SM OVC085 20/M07 A3007 RMK AO2,M
BVU,2021-09-18 07:55,-114.8611,35.9475,671.00,78.80,53.60,41.69,20.00,3.00,0.00,29.99,M,10.00,M,SCT,M,M,M,12000.00,M,M,M,M,M,M,M,M,M,M,78.80,KBVU 180755Z AUTO 02003KT 10SM SCT120 26/12 A2999 RMK AO2,M
HTH,2021-09-18 07:55,-118.6315,38.5448,1282.89,77.00,26.60,15.48,190.00,8.00,0.00,30.03,M,7.00,15.00,FEW,OVC,M,M,2600.00,3200.00,M,M,M,M,M,M,M,M,M,77.00,KHTH 180755Z AUTO 19008G15KT 7SM FEW026 OVC032 25/M03 A3003 RMK A01,M
TMT,2021-09-18 07:55,-117.1971,39.4643,1749.34,55.80,32.50,41.07,230.00,7.00,0.00,30.15,M,10.00,M,CLR,M,M,M,M,M,M,M,M,M,M,M,M,M,M,55.80,KTMT 180755Z AUTO 23007KT 10SM CLR 13/00 A3015 RMK AO2 T01320003 402961013,M
RTS,2021-09-18 07:55,-119.8764,39.6682,1539.00,64.40,24.80,22.06,M,6.00,0.00,30.09,M,10.00,18.00,CLR,M,M,M,M,M,M,M,M,M,M,M,M,M,M,64.40,KRTS 180755Z AUTO VRB06G18KT 10SM CLR 18/M04 A3009 RMK AO2,M
MEV,2021-09-18 07:55,-119.7500,38.9963,1441.42,59.00,23.00,24.76,30.00,5.00,0.00,30.06,M,10.00,M,FEW,OVC,M,M,8000.00,9500.00,M,M,M,M,M,M,M,M,M,59.00,KMEV 180755Z AUTO 03005KT 10SM FEW080 OVC095 15/M05 A3006 RMK AO2,M
RNO,2021-09-18 07:55,-119.7711,39.4839,1341.00,63.00,32.00,31.12,0.00,0.00,0.00,30.04,1012.10,10.00,M,OVC,M,M,M,9000.00,M,M,M,M,M,M,M,M,M,M,63.00,KRNO 180755Z 00000KT 10SM OVC090 17/00 A3004 RMK AO2 SLP121 FU OVC090 T01720000 403110106,M
NFL,2021-09-18 07:56,-118.7010,39.4166,1199.00,57.00,27.00,31.43,50.00,3.00,0.00,30.00,1013.00,9.00,M,BKN,BKN,M,M,6000.00,7000.00,M,M,M,M,M,M,M,M,M,57.00,KNFL 180756Z AUTO 05003KT 9SM BKN060 BKN070 14/M03 A3000 RMK AO2 SLP130 T01391028 403220072,M
HND,2021-09-18 07:56,-115.1344,35.9729,742.79,78.00,48.00,34.67,180.00,7.00,0.00,30.03,1015.80,10.00,M,BKN,M,M,M,11000.00,M,M,M,M,M,M,M,M,M,M,78.10,KHND 180756Z AUTO 18007KT 10SM BKN110 26/09 A3003 RMK AO2 SLP158 T02560089,M
WMC,2021-09-18 07:56,-117.8072,40.9019,1315.00,51.00,19.00,27.86,330.00,3.00,0.00,30.01,1012.10,8.00,M,CLR,M,M,M,M,M,M,M,M,M,M,M,M,M,M,51.10,KWMC 180756Z AUTO 33003KT 8SM CLR 11/M07 A3001 RMK AO2 SLP121 T01061072 403110039 $,M
TPH,2021-09-18 07:56,-117.0904,38.0505,1654.00,64.00,44.00,48.31,140.00,4.00,0.00,30.17,1014.00,10.00,M,CLR,M,M,M,M,M,M,M,M,M,M,M,M,M,M,64.00,KTPH 180756Z AUTO 14004KT 10SM CLR 18/07 A3017 RMK AO2 SLP140 T01780067 402890100,M
EKO,2021-09-18 07:56,-115.7860,40.8242,1367.00,68.00,33.00,27.34,230.00,8.00,0.00,30.07,1012.00,10.00,M,CLR,M,M,M,M,M,M,M,M,M,M,M,M,M,M,68.00,KEKO 180756Z AUTO 23008KT 10SM CLR 20/01 A3007 RMK AO2 SLP120 T02000006 403060056,M
LAS,2021-09-18 07:56,-115.1634,36.0719,663.00,82.00,48.00,30.51,290.00,3.00,0.00,29.99,1013.10,10.00,M,FEW,BKN,M,M,12000.00,15000.00,M,M,M,M,M,M,M,M,M,80.53,KLAS 180756Z 29003KT 10SM FEW120 BKN150 28/09 A2999 RMK AO2 SLP131 T02780089 403330222,M
INS,2021-09-18 07:58,-115.6733,36.5872,955.00,72.70,45.00,37.07,250.00,6.00,0.00,30.05,1013.20,10.00,M,OVC,M,M,M,13000.00,M,M,M,M,M,M,M,M,M,M,72.70,KINS 180758Z AUTO 25006KT 10SM OVC130 23/07 A3005 RMK AO2 SLP132 T02260072 403030137 $,M
LSV,2021-09-18 07:58,-115.0343,36.2362,570.00,81.00,46.00,29.03,0.00,0.00,0.00,29.97,1012.50,10.00,M,BKN,BKN,M,M,12000.00,16000.00,M,M,M,M,M,M,M,M,M,79.81,KLSV 180758Z AUTO 00000KT 10SM BKN120 BKN160 27/08 A2997 RMK AO2 SLP125 T02730077 403370189 $,M
BVU,2021-09-18 08:15,-114.8611,35.9475,671.00,78.80,51.80,39.02,M,3.00,0.00,29.99,M,10.00,M,OVC,M,M,M,12000.00,M,M,M,M,M,M,M,M,M,M,78.80,KBVU 180815Z AUTO VRB03KT 10SM OVC120 26/11 A2999 RMK AO2,M
CXP,2021-09-18 08:15,-119.7326,39.1923,1431.00,66.20,21.20,17.81,200.00,3.00,0.00,30.07,M,10.00,M,OVC,M,M,M,9000.00,M,M,M,M,M,M,M,M,M,M,66.20,KCXP 180815Z AUTO 20003KT 10SM OVC090 19/M06 A3007 RMK AO2,M
RTS,2021-09-18 08:15,-119.8764,39.6682,1539.00,64.40,28.40,25.60,320.00,11.00,0.00,30.09,M,10.00,M,CLR,M,M,M,M,M,M,M,M,M,M,M,M,M,M,64.40,KRTS 180815Z AUTO 32011KT 10SM CLR 18/M02 A3009 RMK AO2,M
MEV,2021-09-18 08:15,-119.7500,38.9963,1441.42,57.20,24.80,28.48,60.00,7.00,0.00,30.06,M,9.00,M,FEW,OVC,M,M,7500.00,10000.00,M,M,M,M,M,M,M,M,M,57.20,KMEV 180815Z AUTO 06007KT 9SM FEW075 OVC100 14/M04 A3006 RMK AO2,M
BAM,2021-09-18 08:15,-116.8743,40.5990,1382.36,55.40,21.20,26.13,60.00,4.00,0.00,30.03,M,10.00,M,CLR,M,M,M,M,M,M,M,M,M,M,M,M,M,M,55.40,KBAM 180815Z AUTO 06004KT 10SM CLR 13/M06 A3003 RMK AO1,M
HTH,2021-09-18 08:15,-118.6315,38.5448,1282.89,75.20,26.60,16.43,140.00,10.00,0.00,30.03,M,7.00,16.00,BKN,BKN,OVC,M,3300.00,3800.00,9000.00,M,M,M,M,M,M,M,M,75.20,KHTH 180815Z AUTO 14010G16KT 7SM BKN033 BKN038 OVC090 24/M03 A3003 RMK A01,M
TMT,2021-09-18 08:15,-117.1971,39.4643,1749.34,58.30,34.00,39.85,220.00,8.00,0.00,30.14,M,10.00,M,CLR,M,M,M,M,M,M,M,M,M,M,M,M,M,M,58.30,KTMT 180815Z AUTO 22008KT 10SM CLR 15/01 A3014 RMK AO2 T01460011,M
HTH,2021-09-18 08:35,-118.6315,38.5448,1282.89,73.40,26.60,17.46,130.00,11.00,0.00,30.02,M,8.00,18.00,BKN,OVC,M,M,3700.00,9000.00,M,M,M,M,M,M,M,M,M,73.40,KHTH 180835Z AUTO 13011G18KT 8SM BKN037 OVC090 23/M03 A3002 RMK A01,M
BAM,2021-09-18 08:35,-116.8743,40.5990,1382.36,59.00,23.00,24.76,30.00,3.00,0.00,30.03,M,10.00,M,CLR,M,M,M,M,M,M,M,M,M,M,M,M,M,M,59.00,KBAM 180835Z AUTO 03003KT 10SM CLR 15/M05 A3003 RMK AO1,M
MEV,2021-09-18 08:35,-119.7500,38.9963,1441.42,53.60,21.20,27.91,40.00,7.00,0.00,30.06,M,10.00,M,FEW,FEW,OVC,M,6000.00,7500.00,10000.00,M,M,M,M,M,M,M,M,53.60,KMEV 180835Z AUTO 04007KT 10SM FEW060 FEW075 OVC100 12/M06 A3006 RMK AO2,M
RTS,2021-09-18 08:35,-119.8764,39.6682,1539.00,62.60,30.20,29.35,330.00,11.00,0.00,30.08,M,10.00,M,CLR,M,M,M,M,M,M,M,M,M,M,M,M,M,M,62.60,KRTS 180835Z AUTO 33011KT 10SM CLR 17/M01 A3008 RMK AO2,M
TMT,2021-09-18 08:35,-117.1971,39.4643,1749.34,61.20,35.00,37.25,240.00,10.00,0.00,30.14,M,10.00,M,CLR,M,M,M,M,M,M,M,M,M,M,M,M,M,M,61.20,KTMT 180835Z AUTO 24010KT 10SM CLR 16/02 A3014 RMK AO2 T01620016,M
CXP,2021-09-18 08:35,-119.7326,39.1923,1431.00,66.20,19.40,16.50,M,4.00,0.00,30.07,M,10.00,12.00,OVC,M,M,M,9000.00,M,M,M,M,M,M,M,M,M,M,66.20,KCXP 180835Z AUTO VRB04G12KT 10SM OVC090 19/M07 A3007 RMK AO2,M
BVU,2021-09-18 08:35,-114.8611,35.9475,671.00,77.00,53.60,44.25,0.00,0.00,0.00,29.99,M,10.00,M,SCT,M,M,M,12000.00,M,M,M,M,M,M,M,M,M,M,77.00,KBVU 180835Z AUTO 00000KT 10SM SCT120 25/12 A2999 RMK AO2,M
DRA,2021-09-18 08:53,-116.0278,36.6206,1009.00,71.00,46.00,40.65,0.00,0.00,0.00,30.05,1012.70,10.00,M,CLR,M,M,M,M,M,M,M,M,M,M,M,M,M,M,71.10,KDRA 180853Z AUTO 00000KT 10SM CLR 22/08 A3005 RMK AO2 SLP127 T02170078 56006,M
P68,2021-09-18 08:53,-116.0056,39.6014,1993.00,64.00,38.00,38.00,180.00,14.00,0.00,30.15,1012.00,M,M,M,M,M,M,M,M,M,M,M,M,M,M,M,M,M,64.00,KP68 180853Z AUTO 18014KT 18/03 A3015 RMK AO1 SLP120 T01780033 58005,M
ELY,2021-09-18 08:53,-114.8453,39.2950,1909.00,55.00,36.00,48.62,200.00,11.00,0.00,30.23,1013.70,10.00,M,CLR,M,M,M,M,M,M,M,M,M,M,M,M,M,M,55.00,KELY 180853Z AUTO 20011KT 10SM CLR 13/02 A3023 RMK AO2 SLP137 T01280022 58001,M
VGT,2021-09-18 08:53,-115.1933,36.2111,667.00,80.00,54.00,40.54,310.00,4.00,T,29.97,1014.00,10.00,M,BKN,M,M,M,12000.00,M,M,M,M,M,M,M,M,M,M,80.04,KVGT 180853Z AUTO 31004KT 10SM BKN120 27/12 A2997 RMK AO2 RAB07E19 SLP140 P0000 60000 T02670122 58004,M
LOL,2021-09-18 08:53,-118.5701,40.0684,1192.43,55.00,26.10,32.56,0.00,0.00,0.00,30.00,1012.40,8.00,M,CLR,M,M,M,M,M,M,M,M,M,M,M,M,M,M,55.00,KLOL 180853Z AUTO 00000KT 8SM CLR 13/M03 A3000 RMK AO2 SLP124 T01281033 50004,M
MEV,2021-09-18 08:55,-119.7500,38.9963,1441.42,60.80,19.40,19.94,360.00,3.00,0.00,30.06,M,10.00,M,FEW,OVC,M,M,7000.00,10000.00,M,M,M,M,M,M,M,M,M,60.80,KMEV 180855Z AUTO 36003KT 10SM FEW070 OVC100 16/M07 A3006 RMK AO2,M
TMT,2021-09-18 08:55,-117.1971,39.4643,1749.34,62.80,35.00,35.48,240.00,10.00,0.00,30.14,M,10.00,M,CLR,M,M,M,M,M,M,M,M,M,M,M,M,M,M,62.80,KTMT 180855Z AUTO 24010KT 10SM CLR 17/02 A3014 RMK AO2 T01710017,M
BAM,2021-09-18 08:55,-116.8743,40.5990,1382.36,62.60,26.60,25.32,320.00,3.00,0.00,30.03,M,10.00,M,CLR,M,M,M,M,M,M,M,M,M,M,M,M,M,M,62.60,KBAM 180855Z AUTO 32003KT 10SM CLR 17/M03 A3003 RMK AO1,M
HTH,2021-09-18 08:55,-118.6315,38.5448,1282.89,71.60,28.40,19.98,150.00,5.00,0.00,30.03,M,8.00,15.00,BKN,OVC,M,M,3600.00,4100.00,M,M,M,M,M,M,M,M,M,71.60,KHTH 180855Z AUTO 15005G15KT 8SM BKN036 OVC041 22/M02 A3003 RMK A01,M
RNO,2021-09-18 08:55,-119.7711,39.4839,1341.00,60.00,30.00,31.80,160.00,3.00,0.00,30.03,1011.80,10.00,M,OVC,M,M,M,9000.00,M,M,M,M,M,M,M,M,M,M,60.10,KRNO 180855Z 16003KT 10SM OVC090 16/M01 A3003 RMK AO2 SLP118 FU OVC090 T01561011 58003,M
CXP,2021-09-18 08:55,-119.7326,39.1923,1431.00,66.20,19.40,16.50,190.00,5.00,0.00,30.07,M,10.00,M,OVC,M,M,M,9000.00,M,M,M,M,M,M,M,M,M,M,66.20,KCXP 180855Z AUTO 19005KT 10SM OVC090 19/M07 A3007 RMK AO2,M
RTS,2021-09-18 08:55,-119.8764,39.6682,1539.00,62.60,28.40,27.27,330.00,9.00,0.00,30.08,M,10.00,M,CLR,M,M,M,M,M,M,M,M,M,M,M,M,M,M,62.60,KRTS 180855Z AUTO 33009KT 10SM CLR 17/M02 A3008 RMK AO2,M
BVU,2021-09-18 08:55,-114.8611,35.9475,671.00,77.00,53.60,44.25,60.00,3.00,0.00,29.99,M,10.00,M,CLR,M,M,M,M,M,M,M,M,M,M,M,M,M,M,77.00,KBVU 180855Z AUTO 06003KT 10SM CLR 25/12 A2999 RMK AO2,M
WMC,2021-09-18 08:56,-117.8072,40.9019,1315.00,55.00,21.00,26.29,0.00,0.00,0.00,30.01,1011.90,10.00,M,CLR,M,M,M,M,M,M,M,M,M,M,M,M,M,M,55.00,KWMC 180856Z AUTO 00000KT 10SM CLR 13/M06 A3001 RMK AO2 SLP119 T01281061 51004 $,M
NFL,2021-09-18 08:56,-118.7010,39.4166,1199.00,59.00,28.00,30.48,0.00,0.00,0.00,30.00,1012.90,9.00,M,SCT,M,M,M,5500.00,M,M,M,M,M,M,M,M,M,M,59.00,KNFL 180856Z AUTO 00000KT 9SM SCT055 15/M02 A3000 RMK AO2 SLP129 T01501022 50000,M
TPH,2021-09-18 08:56,-117.0904,38.0505,1654.00,59.00,43.00,55.28,0.00,0.00,0.00,30.17,1014.40,10.00,M,CLR,M,M,M,M,M,M,M,M,M,M,M,M,M,M,59.00,KTPH 180856Z AUTO 00000KT 10SM CLR 15/06 A3017 RMK AO2 SLP144 T01500061 58004,M
EKO,2021-09-18 08:56,-115.7860,40.8242,1367.00,66.00,35.00,31.73,250.00,7.00,0.00,30.06,1011.80,10.00,M,CLR,M,M,M,M,M,M,M,M,M,M,M,M,M,M,66.00,KEKO 180856Z AUTO 25007KT 10SM CLR 19/02 A3006 RMK AO2 SLP118 T01890017 50000,M
LAS,2021-09-18 08:56,-115.1634,36.0719,663.00,81.00,48.00,31.52,0.00,0.00,0.00,29.99,1012.80,10.00,M,SCT,BKN,M,M,11000.00,15000.00,M,M,M,M,M,M,M,M,M,79.92,KLAS 180856Z 00000KT 10SM SCT110 BKN150 27/09 A2999 RMK AO2 SLP128 T02720089 58002,M
HND,2021-09-18 08:56,-115.1344,35.9729,742.79,76.00,49.00,38.57,190.00,3.00,0.00,30.03,1015.60,10.00,M,SCT,M,M,M,10000.00,M,M,M,M,M,M,M,M,M,M,75.90,KHND 180856Z AUTO 19003KT 10SM SCT100 24/09 A3003 RMK AO2 SLP156 T02440094 58002,M
LSV,2021-09-18 08:58,-115.0343,36.2362,570.00,80.80,46.40,29.87,0.00,0.00,0.00,29.96,1012.10,10.00,M,BKN,M,M,M,11000.00,M,M,M,M,M,M,M,M,M,M,79.67,KLSV 180858Z AUTO 00000KT 10SM BKN110 27/08 A2996 RMK AO2 SLP121 T02710080 55003 $,M
INS,2021-09-18 08:58,-115.6733,36.5872,955.00,72.00,44.40,36.97,0.00,0.00,0.00,30.04,1012.80,10.00,M,FEW,OVC,M,M,11000.00,14000.00,M,M,M,M,M,M,M,M,M,72.10,KINS 180858Z AUTO 00000KT 10SM FEW110 OVC140 22/07 A3004 RMK AO2 SLP128 T02230069 58005 $,M
MEV,2021-09-18 09:15,-119.7500,38.9963,1441.42,60.80,19.40,19.94,0.00,0.00,0.00,30.06,M,10.00,M,OVC,M,M,M,11000.00,M,M,M,M,M,M,M,M,M,M,60.80,KMEV 180915Z AUTO 00000KT 10SM OVC110 16/M07 A3006 RMK AO2,M
TMT,2021-09-18 09:15,-117.1971,39.4643,1749.34,60.40,36.00,40.03,200.00,8.00,0.00,30.13,M,10.00,M,CLR,M,M,M,M,M,M,M,M,M,M,M,M,M,M,60.40,KTMT 180915Z AUTO 20008KT 10SM CLR 16/02 A3013 RMK AO2 T01580022,M
BAM,2021-09-18 09:15,-116.8743,40.5990,1382.36,66.20,28.40,24.04,270.00,5.00,0.00,30.02,M,10.00,M,CLR,M,M,M,M,M,M,M,M,M,M,M,M,M,M,66.20,KBAM 180915Z AUTO 27005KT 10SM CLR 19/M02 A3002 RMK AO1,M
HTH,2021-09-18 09:15,-118.6315,38.5448,1282.89,69.80,28.40,21.24,130.00,14.00,0.00,30.03,M,7.00,M,SCT,BKN,OVC,M,2900.00,3500.00,4100.00,M,M,M,M,M,M,M,M,69.80,KHTH 180915Z AUTO 13014KT 7SM SCT029 BKN035 OVC041 21/M02 A3003 RMK A01,M
CXP,2021-09-18 09:15,-119.7326,39.1923,1431.00,66.20,19.40,16.50,230.00,7.00,0.00,30.07,M,10.00,12.00,OVC,M,M,M,9000.00,M,M,M,M,M,M,M,M,M,M,66.20,KCXP 180915Z AUTO 23007G12KT 10SM OVC090 19/M07 A3007 RMK AO2,M
BVU,2021-09-18 09:15,-114.8611,35.9475,671.00,75.20,51.80,43.97,30.00,4.00,0.00,29.99,M,10.00,M,CLR,M,M,M,M,M,M,M,M,M,M,M,M,M,M,75.20,KBVU 180915Z AUTO 03004KT 10SM CLR 24/11 A2999 RMK AO2,M
RTS,2021-09-18 09:15,-119.8764,39.6682,1539.00,62.60,32.00,31.56,320.00,11.00,0.00,30.09,M,10.00,16.00,CLR,M,M,M,M,M,M,M,M,M,M,M,M,M,M,62.60,KRTS 180915Z AUTO 32011G16KT 10SM CLR 17/00 A3009 RMK AO2,M
CXP,2021-09-18 09:35,-119.7326,39.1923,1431.00,69.80,19.40,14.57,230.00,9.00,0.00,30.06,M,10.00,15.00,OVC,M,M,M,10000.00,M,M,M,M,M,M,M,M,M,M,69.80,KCXP 180935Z AUTO 23009G15KT 10SM OVC100 21/M07 A3006 RMK AO2,M
MEV,2021-09-18 09:35,-119.7500,38.9963,1441.42,55.40,21.20,26.13,0.00,0.00,0.00,30.06,M,10.00,M,OVC,M,M,M,11000.00,M,M,M,M,M,M,M,M,M,M,55.40,KMEV 180935Z AUTO 00000KT 10SM OVC110 13/M06 A3006 RMK AO2,M
BAM,2021-09-18 09:35,-116.8743,40.5990,1382.36,64.40,28.40,25.60,0.00,0.00,0.00,30.02,M,10.00,M,CLR,M,M,M,M,M,M,M,M,M,M,M,M,M,M,64.40,KBAM 180935Z AUTO 00000KT 10SM CLR 18/M02 A3002 RMK AO1,M
HTH,2021-09-18 09:35,-118.6315,38.5448,1282.89,71.60,28.40,19.98,160.00,11.00,0.00,30.02,M,8.00,M,FEW,BKN,OVC,M,2900.00,3900.00,4600.00,M,M,M,M,M,M,M,M,71.60,KHTH 180935Z AUTO 16011KT 8SM FEW029 BKN039 OVC046 22/M02 A3002 RMK A01,M
TMT,2021-09-18 09:35,-117.1971,39.4643,1749.34,59.40,37.00,42.99,210.00,10.00,0.00,30.13,M,10.00,M,CLR,M,M,M,M,M,M,M,M,M,M,M,M,M,M,59.40,KTMT 180935Z AUTO 21010KT 10SM CLR 15/03 A3013 RMK AO2 T01520027,M
BVU,2021-09-18 09:35,-114.8611,35.9475,671.00,75.20,55.40,50.17,70.00,3.00,0.00,29.99,M,10.00,M,CLR,M,M,M,M,M,M,M,M,M,M,M,M,M,M,75.20,KBVU 180935Z AUTO 07003KT 10SM CLR 24/13 A2999 RMK AO2,M
RTS,2021-09-18 09:35,-119.8764,39.6682,1539.00,60.80,32.00,33.64,310.00,13.00,0.00,30.08,M,10.00,M,CLR,M,M,M,M,M,M,M,M,M,M,M,M,M,M,60.80,KRTS 180935Z AUTO 31013KT 10SM CLR 16/00 A3008 RMK AO2,M
ELY,2021-09-18 09:53,-114.8453,39.2950,1909.00,54.00,37.00,52.45,210.00,10.00,0.00,30.21,1013.00,10.00,M,CLR,M,M,M,M,M,M,M,M,M,M,M,M,M,M,54.00,KELY 180953Z AUTO 21010KT 10SM CLR 12/03 A3021 RMK AO2 SLP130 T01220028,M
P68,2021-09-18 09:53,-116.0056,39.6014,1993.00,61.00,40.00,45.67,170.00,8.00,0.00,30.14,1011.60,M,M,M,M,M,M,M,M,M,M,M,M,M,M,M,M,M,61.00,KP68 180953Z AUTO 17008KT 16/04 A3014 RMK AO1 SLP116 T01610044,M
DRA,2021-09-18 09:53,-116.0278,36.6206,1009.00,69.00,45.00,41.90,340.00,3.00,0.00,30.04,1012.40,10.00,M,CLR,M,M,M,M,M,M,M,M,M,M,M,M,M,M,69.10,KDRA 180953Z AUTO 34003KT 10SM CLR 21/07 A3004 RMK AO2 SLP124 T02060072,M
VGT,2021-09-18 09:53,-115.1933,36.2111,667.00,78.00,52.00,40.23,300.00,3.00,0.00,29.96,1013.70,10.00,M,CLR,M,M,M,M,M,M,M,M,M,M,M,M,M,M,78.10,KVGT 180953Z AUTO 30003KT 10SM CLR 26/11 A2996 RMK AO2 SLP137 T02560111,M
LOL,2021-09-18 09:53,-118.5701,40.0684,1192.43,50.00,27.00,40.62,60.00,6.00,0.00,29.99,1012.50,9.00,M,CLR,M,M,M,M,M,M,M,M,M,M,M,M,M,M,50.00,KLOL 180953Z AUTO 06006KT 9SM CLR 10/M03 A2999 RMK AO2 SLP125 T01001028,M
MEV,2021-09-18 09:55,-119.7500,38.9963,1441.42,57.20,23.00,26.42,80.00,4.00,0.00,30.05,M,10.00,M,SCT,M,M,M,11000.00,M,M,M,M,M,M,M,M,M,M,57.20,KMEV 180955Z AUTO 08004KT 10SM SCT110 14/M05 A3005 RMK AO2,M
RNO,2021-09-18 09:55,-119.7711,39.4839,1341.00,59.00,32.00,35.87,0.00,0.00,0.00,30.03,1011.80,10.00,M,BKN,M,M,M,9000.00,M,M,M,M,M,M,M,M,M,M,59.00,KRNO 180955Z 00000KT 10SM BKN090 15/00 A3003 RMK AO2 SLP118 FU BKN090 T01500000,M
TMT,2021-09-18 09:55,-117.1971,39.4643,1749.34,56.30,35.40,45.29,160.00,4.00,0.00,30.13,M,10.00,M,CLR,M,M,M,M,M,M,M,M,M,M,M,M,M,M,56.30,KTMT 180955Z AUTO 16004KT 10SM CLR 14/02 A3013 RMK AO2 T01350019,M
BVU,2021-09-18 09:55,-114.8611,35.9475,671.00,77.00,53.60,44.25,0.00,0.00,0.00,29.99,M,10.00,M,CLR,M,M,M,M,M,M,M,M,M,M,M,M,M,M,77.00,KBVU 180955Z AUTO 00000KT 10SM CLR 25/12 A2999 RMK AO2,M
HTH,2021-09-18 09:55,-118.6315,38.5448,1282.89,71.60,28.40,19.98,190.00,12.00,0.00,30.02,M,8.00,M,FEW,BKN,OVC,M,3400.00,4300.00,7000.00,M,M,M,M,M,M,M,M,71.60,KHTH 180955Z AUTO 19012KT 8SM FEW034 BKN043 OVC070 22/M02 A3002 RMK A01,M
BAM,2021-09-18 09:55,-116.8743,40.5990,1382.36,68.00,30.20,24.32,260.00,5.00,0.00,30.02,M,10.00,M,CLR,M,M,M,M,M,M,M,M,M,M,M,M,M,M,68.00,KBAM 180955Z AUTO 26005KT 10SM CLR 20/M01 A3002 RMK AO1,M
CXP,2021-09-18 09:55,-119.7326,39.1923,1431.00,66.20,19.40,16.50,0.00,0.00,0.00,30.06,M,10.00,M,BKN,M,M,M,11000.00,M,M,M,M,M,M,M,M,M,M,66.20,KCXP 180955Z AUTO 00000KT 10SM BKN110 19/M07 A3006 RMK AO2,M
RTS,2021-09-18 09:55,-119.8764,39.6682,1539.00,60.80,30.20,31.28,350.00,19.00,0.00,30.06,M,10.00,M,CLR,M,M,M,M,M,M,M,M,M,M,M,M,M,M,60.80,KRTS 180955Z AUTO 35019KT 10SM CLR 16/M01 A3006 RMK AO2,M
EKO,2021-09-18 09:56,-115.7860,40.8242,1367.00,67.00,36.00,31.87,240.00,11.00,0.00,30.06,1011.50,10.00,M,CLR,M,M,M,M,M,M,M,M,M,M,M,M,M,M,66.90,KEKO 180956Z AUTO 24011KT 10SM CLR 19/02 A3006 RMK AO2 SLP115 T01940022,M
LAS,2021-09-18 09:56,-115.1634,36.0719,663.00,80.00,47.00,31.15,200.00,5.00,0.00,29.98,1012.50,10.00,M,SCT,BKN,M,M,11000.00,15000.00,M,M,M,M,M,M,M,M,M,79.33,KLAS 180956Z 20005KT 10SM SCT110 BKN150 27/08 A2998 RMK AO2 LTG DSNT E SLP125 CB DSNT E T02670083,M
TPH,2021-09-18 09:56,-117.0904,38.0505,1654.00,56.00,41.00,57.23,340.00,5.00,0.00,30.15,1013.90,10.00,M,CLR,M,M,M,M,M,M,M,M,M,M,M,M,M,M,55.90,KTPH 180956Z AUTO 34005KT 10SM CLR 13/05 A3015 RMK AO2 SLP139 T01330050,M
NFL,2021-09-18 09:56,-118.7010,39.4166,1199.00,58.00,28.90,32.90,320.00,4.00,0.00,30.00,1012.90,9.00,M,OVC,M,M,M,5000.00,M,M,M,M,M,M,M,M,M,M,57.90,KNFL 180956Z AUTO 32004KT 9SM OVC050 14/M02 A3000 RMK AO2 SLP129 T01441017,M
WMC,2021-09-18 09:56,-117.8072,40.9019,1315.00,47.00,19.00,32.59,150.00,8.00,0.00,30.01,1012.00,10.00,M,CLR,M,M,M,M,M,M,M,M,M,M,M,M,M,M,42.47,KWMC 180956Z AUTO 15008KT 10SM CLR 08/M07 A3001 RMK AO2 SLP120 T00831072 $,M
HND,2021-09-18 09:56,-115.1344,35.9729,742.79,77.00,48.00,35.95,180.00,5.00,0.00,30.01,1015.10,10.00,M,CLR,M,M,M,M,M,M,M,M,M,M,M,M,M,M,77.00,KHND 180956Z AUTO 18005KT 10SM CLR 25/09 A3001 RMK AO2 LTG DSNT E SLP151 T02500089,M
INS,2021-09-18 09:58,-115.6733,36.5872,955.00,69.40,44.00,40.07,280.00,5.00,0.00,30.03,1012.50,10.00,M,OVC,M,M,M,14000.00,M,M,M,M,M,M,M,M,M,M,69.40,KINS 180958Z AUTO 28005KT 10SM OVC140 21/07 A3003 RMK AO2 SLP125 T02080067 $,M
LSV,2021-09-18 09:58,-115.0343,36.2362,570.00,80.00,46.00,29.99,30.00,3.00,0.00,29.95,1011.70,10.00,M,SCT,M,M,M,9500.00,M,M,M,M,M,M,M,M,M,M,79.25,KLSV 180958Z AUTO 03003KT 10SM SCT095 27/08 A2995 RMK AO2 SLP117 T02670077 $,M
RTS,2021-09-18 10:15,-119.8764,39.6682,1539.00,60.80,28.40,29.06,340.00,10.00,0.00,30.07,M,10.00,15.00,CLR,M,M,M,M,M,M,M,M,M,M,M,M,M,M,60.80,KRTS 181015Z AUTO 34010G15KT 10SM CLR 16/M02 A3007 RMK AO2,M
TMT,2021-09-18 10:15,-117.1971,39.4643,1749.34,55.20,35.00,46.20,0.00,0.00,0.00,30.12,M,10.00,M,CLR,M,M,M,M,M,M,M,M,M,M,M,M,M,M,55.20,KTMT 181015Z AUTO 00000KT 10SM CLR 13/02 A3012 RMK AO2 T01290016,M
CXP,2021-09-18 10:15,-119.7326,39.1923,1431.00,68.00,15.80,13.27,240.00,6.00,0.00,30.06,M,10.00,12.00,FEW,M,M,M,11000.00,M,M,M,M,M,M,M,M,M,M,68.00,KCXP 181015Z AUTO 24006G12KT 10SM FEW110 20/M09 A3006 RMK AO2,M
BVU,2021-09-18 10:15,-114.8611,35.9475,671.00,75.20,55.40,50.17,60.00,3.00,0.00,29.98,M,10.00,M,CLR,M,M,M,M,M,M,M,M,M,M,M,M,M,M,75.20,KBVU 181015Z AUTO 06003KT 10SM CLR 24/13 A2998 RMK AO2,M
HTH,2021-09-18 10:15,-118.6315,38.5448,1282.89,73.40,28.40,18.80,170.00,10.00,0.00,30.02,M,9.00,19.00,FEW,FEW,BKN,M,3200.00,4000.00,4900.00,M,M,M,M,M,M,M,M,73.40,KHTH 181015Z AUTO 17010G19KT 9SM FEW032 FEW040 BKN049 23/M02 A3002 RMK A01,M
BAM,2021-09-18 10:15,-116.8743,40.5990,1382.36,68.00,32.00,26.15,310.00,10.00,0.00,30.03,M,10.00,M,CLR,M,M,M,M,M,M,M,M,M,M,M,M,M,M,68.00,KBAM 181015Z AUTO 31010KT 10SM CLR 20/00 A3003 RMK AO1,M
MEV,2021-09-18 10:15,-119.7500,38.9963,1441.42,53.60,23.00,30.11,80.00,4.00,0.00,30.05,M,10.00,M,CLR,M,M,M,M,M,M,M,M,M,M,M,M,M,M,53.60,KMEV 181015Z AUTO 08004KT 10SM CLR 12/M05 A3005 RMK AO2,M
CXP,2021-09-18 10:30,-119.7326,39.1923,1431.00,68.00,15.80,13.27,M,4.00,0.00,30.06,M,10.00,11.00,CLR,M,M,M,M,M,M,M,M,M,M,M,M,M,M,68.00,KCXP 181030Z AUTO VRB04G11KT 10SM CLR 20/M09 A3006 RMK AO2,M
MEV,2021-09-18 10:35,-119.7500,38.9963,1441.42,53.60,23.00,30.11,60.00,6.00,0.00,30.05,M,10.00,M,CLR,M,M,M,M,M,M,M,M,M,M,M,M,M,M,53.60,KMEV 181035Z AUTO 06006KT 10SM CLR 12/M05 A3005 RMK AO2,M
BAM,2021-09-18 10:35,-116.8743,40.5990,1382.36,66.20,32.00,27.83,290.00,9.00,0.00,30.02,M,10.00,M,CLR,M,M,M,M,M,M,M,M,M,M,M,M,M,M,66.20,KBAM 181035Z AUTO 29009KT 10SM CLR 19/00 A3002 RMK AO1,M
RTS,2021-09-18 10:35,-119.8764,39.6682,1539.00,62.60,28.40,27.27,320.00,14.00,0.00,30.07,M,10.00,M,CLR,M,M,M,M,M,M,M,M,M,M,M,M,M,M,62.60,KRTS 181035Z AUTO 32014KT 10SM CLR 17/M02 A3007 RMK AO2,M
BVU,2021-09-18 10:35,-114.8611,35.9475,671.00,75.20,53.60,46.98,0.00,0.00,0.00,29.98,M,10.00,M,CLR,M,M,M,M,M,M,M,M,M,M,M,M,M,M,75.20,KBVU 181035Z AUTO 00000KT 10SM CLR 24/12 A2998 RMK AO2,M
HTH,2021-09-18 10:35,-118.6315,38.5448,1282.89,69.80,28.40,21.24,150.00,6.00,0.00,30.02,M,6.00,16.00,FEW,SCT,BKN,M,2900.00,4300.00,6000.00,M,HZ,M,M,M,M,M,M,69.80,KHTH 181035Z AUTO 15006G16KT 6SM HZ FEW029 SCT043 BKN060 21/M02 A3002 RMK A01,M
TMT,2021-09-18 10:35,-117.1971,39.4643,1749.34,53.20,35.00,50.10,0.00,0.00,0.00,30.11,M,10.00,M,CLR,M,M,M,M,M,M,M,M,M,M,M,M,M,M,53.20,KTMT 181035Z AUTO 00000KT 10SM CLR 12/02 A3011 RMK AO2 T01180017,M
DRA,2021-09-18 10:53,-116.0278,36.6206,1009.00,69.00,45.00,41.90,60.00,3.00,0.00,30.03,1012.10,10.00,M,FEW,M,M,M,12000.00,M,M,M,M,M,M,M,M,M,M,69.10,KDRA 181053Z AUTO 06003KT 10SM FEW120 21/07 A3003 RMK AO2 SLP121 T02060072,M
ELY,2021-09-18 10:53,-114.8453,39.2950,1909.00,56.00,38.00,50.71,210.00,12.00,0.00,30.20,1012.70,10.00,M,CLR,M,M,M,M,M,M,M,M,M,M,M,M,M,M,55.90,KELY 181053Z AUTO 21012KT 10SM CLR 13/03 A3020 RMK AO2 SLP127 T01330033,M
VGT,2021-09-18 10:53,-115.1933,36.2111,667.00,79.00,51.00,37.78,350.00,3.00,0.00,29.96,1013.40,10.00,M,CLR,M,M,M,M,M,M,M,M,M,M,M,M,M,M,79.00,KVGT 181053Z AUTO 35003KT 10SM CLR 26/11 A2996 RMK AO2 SLP134 T02610106,M
P68,2021-09-18 10:53,-116.0056,39.6014,1993.00,61.00,39.00,44.10,200.00,9.00,0.00,30.14,1011.70,M,M,M,M,M,M,M,M,M,M,M,M,M,M,M,M,M,61.00,KP68 181053Z AUTO 20009KT 16/04 A3014 RMK AO1 SLP117 T01610039,M
LOL,2021-09-18 10:53,-118.5701,40.0684,1192.43,49.00,27.00,42.32,20.00,4.00,0.00,29.99,1012.30,9.00,M,FEW,M,M,M,11000.00,M,M,M,M,M,M,M,M,M,M,47.16,KLOL 181053Z AUTO 02004KT 9SM FEW110 09/M03 A2999 RMK AO2 SLP123 T00941028,M
RNO,2021-09-18 10:55,-119.7711,39.4839,1341.00,57.00,32.00,38.54,0.00,0.00,0.00,30.03,1011.70,10.00,M,FEW,M,M,M,9000.00,M,M,M,M,M,M,M,M,M,M,57.00,KRNO 181055Z 00000KT 10SM FEW090 14/00 A3003 RMK AO2 SLP117 FU FEW090 T01390000,M
BVU,2021-09-18 10:55,-114.8611,35.9475,671.00,75.20,51.80,43.97,40.00,3.00,0.00,29.98,M,10.00,M,CLR,M,M,M,M,M,M,M,M,M,M,M,M,M,M,75.20,KBVU 181055Z AUTO 04003KT 10SM CLR 24/11 A2998 RMK AO2,M
TMT,2021-09-18 10:55,-117.1971,39.4643,1749.34,56.80,38.70,50.65,210.00,8.00,0.00,30.12,M,10.00,M,M,M,M,M,M,M,M,M,M,M,M,M,M,M,M,56.80,KTMT 181055Z AUTO 21008KT 10SM 14/04 A3012 RMK AO2 T01380037 PWINO,M
BAM,2021-09-18 10:55,-116.8743,40.5990,1382.36,64.40,30.20,27.55,270.00,7.00,0.00,30.02,M,10.00,M,CLR,M,M,M,M,M,M,M,M,M,M,M,M,M,M,64.40,KBAM 181055Z AUTO 27007KT 10SM CLR 18/M01 A3002 RMK AO1,M
MEV,2021-09-18 10:55,-119.7500,38.9963,1441.42,53.60,21.20,27.91,50.00,9.00,0.00,30.05,M,10.00,M,CLR,M,M,M,M,M,M,M,M,M,M,M,M,M,M,53.60,KMEV 181055Z AUTO 05009KT 10SM CLR 12/M06 A3005 RMK AO2,M
RTS,2021-09-18 10:55,-119.8764,39.6682,1539.00,60.80,30.20,31.28,320.00,7.00,0.00,30.08,M,10.00,17.00,CLR,M,M,M,M,M,M,M,M,M,M,M,M,M,M,60.80,KRTS 181055Z AUTO 32007G17KT 10SM CLR 16/M01 A3008 RMK AO2,M
HTH,2021-09-18 10:55,-118.6315,38.5448,1282.89,73.40,28.40,18.80,210.00,8.00,0.00,30.02,M,10.00,13.00,FEW,SCT,BKN,M,3100.00,4200.00,5500.00,M,M,M,M,M,M,M,M,73.40,KHTH 181055Z AUTO 21008G13KT 10SM FEW031 SCT042 BKN055 23/M02 A3002 RMK A01,M
CXP,2021-09-18 10:55,-119.7326,39.1923,1431.00,64.40,17.60,16.26,100.00,4.00,0.00,30.06,M,10.00,M,CLR,M,M,M,M,M,M,M,M,M,M,M,M,M,M,64.40,KCXP 181055Z AUTO 10004KT 10SM CLR 18/M08 A3006 RMK AO2,M
NFL,2021-09-18 10:56,-118.7010,39.4166,1199.00,57.00,28.90,33.98,0.00,0.00,0.00,29.99,1012.60,9.00,M,OVC,M,M,M,11000.00,M,M,M,M,M,M,M,M,M,M,57.00,KNFL 181056Z AUTO 00000KT 9SM OVC110 14/M02 A2999 RMK AO2 SLP126 T01391017,M
EKO,2021-09-18 10:56,-115.7860,40.8242,1367.00,66.00,37.00,34.21,200.00,8.00,0.00,30.05,1011.30,10.00,M,CLR,M,M,M,M,M,M,M,M,M,M,M,M,M,M,66.00,KEKO 181056Z AUTO 20008KT 10SM CLR 19/03 A3005 RMK AO2 SLP113 T01890028,M
WMC,2021-09-18 10:56,-117.8072,40.9019,1315.00,50.00,19.00,29.02,160.00,6.00,0.00,30.00,1011.40,9.00,M,CLR,M,M,M,M,M,M,M,M,M,M,M,M,M,M,50.00,KWMC 181056Z AUTO 16006KT 9SM CLR 10/M07 A3000 RMK AO2 SLP114 T01001072 $,M
LAS,2021-09-18 10:56,-115.1634,36.0719,663.00,80.00,47.00,31.15,0.00,0.00,0.00,29.97,1012.10,10.00,M,FEW,BKN,M,M,11000.00,15000.00,M,M,M,M,M,M,M,M,M,79.33,KLAS 181056Z 00000KT 10SM FEW110 BKN150 27/08 A2997 RMK AO2 SLP121 T02670083,M
HND,2021-09-18 10:56,-115.1344,35.9729,742.79,76.00,48.00,37.29,180.00,6.00,0.00,30.00,1014.80,10.00,M,CLR,M,M,M,M,M,M,M,M,M,M,M,M,M,M,75.90,KHND 181056Z AUTO 18006KT 10SM CLR 24/09 A3000 RMK AO2 SLP148 T02440089,M
TPH,2021-09-18 10:56,-117.0904,38.0505,1654.00,54.00,40.00,58.76,10.00,6.00,0.00,30.15,1014.20,10.00,M,CLR,M,M,M,M,M,M,M,M,M,M,M,M,M,M,54.00,KTPH 181056Z AUTO 01006KT 10SM CLR 12/04 A3015 RMK AO2 SLP142 T01220044,M
INS,2021-09-18 10:58,-115.6733,36.5872,955.00,71.00,45.50,39.88,0.00,0.00,0.00,30.03,1012.50,10.00,M,OVC,M,M,M,11000.00,M,M,M,M,M,M,M,M,M,M,71.10,KINS 181058Z AUTO 00000KT 10SM OVC110 22/08 A3003 RMK AO2 SLP125 T02170075 $,M
LSV,2021-09-18 10:58,-115.0343,36.2362,570.00,78.00,46.40,32.86,0.00,0.00,0.00,29.95,1011.90,10.00,M,FEW,SCT,M,M,14000.00,16000.00,M,M,M,M,M,M,M,M,M,77.90,KLSV 181058Z AUTO 00000KT 10SM FEW140 SCT160 26/08 A2995 RMK AO2 SLP119 T02550080 $,M
RTS,2021-09-18 11:15,-119.8764,39.6682,1539.00,60.80,30.20,31.28,280.00,10.00,0.00,30.08,M,10.00,M,CLR,M,M,M,M,M,M,M,M,M,M,M,M,M,M,60.80,KRTS 181115Z AUTO 28010KT 10SM CLR 16/M01 A3008 RMK AO2,M
HTH,2021-09-18 11:15,-118.6315,38.5448,1282.89,66.20,28.40,24.04,110.00,11.00,0.00,30.01,M,5.00,M,SCT,BKN,BKN,M,3200.00,4100.00,5000.00,M,HZ,M,M,M,M,M,M,66.20,KHTH 181115Z AUTO 11011KT 5SM HZ SCT032 BKN041 BKN050 19/M02 A3001 RMK A01,M
BAM,2021-09-18 11:15,-116.8743,40.5990,1382.36,62.60,30.20,29.35,240.00,6.00,0.00,30.02,M,10.00,M,CLR,M,M,M,M,M,M,M,M,M,M,M,M,M,M,62.60,KBAM 181115Z AUTO 24006KT 10SM CLR 17/M01 A3002 RMK AO1,M
TMT,2021-09-18 11:15,-117.1971,39.4643,1749.34,55.60,38.30,52.08,190.00,6.00,0.00,30.12,M,10.00,M,CLR,M,M,M,M,M,M,M,M,M,M,M,M,M,M,55.60,KTMT 181115Z AUTO 19006KT 10SM CLR 13/04 A3012 RMK AO2 T01310035,M
MEV,2021-09-18 11:15,-119.7500,38.9963,1441.42,57.20,19.40,22.68,120.00,4.00,0.00,30.04,M,10.00,M,CLR,M,M,M,M,M,M,M,M,M,M,M,M,M,M,57.20,KMEV 181115Z AUTO 12004KT 10SM CLR 14/M07 A3004 RMK AO2,M
CXP,2021-09-18 11:15,-119.7326,39.1923,1431.00,60.80,15.80,17.07,30.00,4.00,0.00,30.06,M,10.00,M,CLR,M,M,M,M,M,M,M,M,M,M,M,M,M,M,60.80,KCXP 181115Z AUTO 03004KT 10SM CLR 16/M09 A3006 RMK AO2,M
BVU,2021-09-18 11:15,-114.8611,35.9475,671.00,73.40,53.60,49.90,60.00,3.00,0.00,29.98,M,10.00,M,CLR,M,M,M,M,M,M,M,M,M,M,M,M,M,M,73.40,KBVU 181115Z AUTO 06003KT 10SM CLR 23/12 A2998 RMK AO2,M
TMT,2021-09-18 11:35,-117.1971,39.4643,1749.34,50.00,34.70,55.50,0.00,0.00,0.00,30.12,M,10.00,M,CLR,M,M,M,M,M,M,M,M,M,M,M,M,M,M,50.00,KTMT 181135Z AUTO 00000KT 10SM CLR 10/02 A3012 RMK AO2 T01000015,M
HTH,2021-09-18 11:35,-118.6315,38.5448,1282.89,68.00,28.40,22.59,150.00,8.00,0.00,30.02,M,5.00,13.00,FEW,SCT,BKN,M,300.00,3400.00,4200.00,M,HZ,M,M,M,M,M,M,68.00,KHTH 181135Z AUTO 15008G13KT 5SM HZ FEW003 SCT034 BKN042 20/M02 A3002 RMK A01,M
BAM,2021-09-18 11:35,-116.8743,40.5990,1382.36,60.80,30.20,31.28,60.00,6.00,0.00,30.02,M,10.00,M,CLR,M,M,M,M,M,M,M,M,M,M,M,M,M,M,60.80,KBAM 181135Z AUTO 06006KT 10SM CLR 16/M01 A3002 RMK AO1,M
MEV,2021-09-18 11:35,-119.7500,38.9963,1441.42,57.20,17.60,20.99,200.00,3.00,0.00,30.05,M,10.00,M,CLR,M,M,M,M,M,M,M,M,M,M,M,M,M,M,57.20,KMEV 181135Z AUTO 20003KT 10SM CLR 14/M08 A3005 RMK AO2,M
RTS,2021-09-18 11:35,-119.8764,39.6682,1539.00,59.00,32.00,35.87,280.00,8.00,0.00,30.08,M,10.00,M,CLR,M,M,M,M,M,M,M,M,M,M,M,M,M,M,59.00,KRTS 181135Z AUTO 28008KT 10SM CLR 15/M00 A3008 RMK AO2,M
CXP,2021-09-18 11:35,-119.7326,39.1923,1431.00,60.80,15.80,17.07,0.00,0.00,0.00,30.06,M,10.00,M,CLR,M,M,M,M,M,M,M,M,M,M,M,M,M,M,60.80,KCXP 181135Z AUTO 00000KT 10SM CLR 16/M09 A3006 RMK AO2,M
BVU,2021-09-18 11:35,-114.8611,35.9475,671.00,75.20,51.80,43.97,60.00,5.00,0.00,29.97,M,10.00,M,CLR,M,M,M,M,M,M,M,M,M,M,M,M,M,M,75.20,KBVU 181135Z AUTO 06005KT 10SM CLR 24/11 A2997 RMK AO2,M
P68,2021-09-18 11:53,-116.0056,39.6014,1993.00,57.00,39.00,50.88,160.00,7.00,0.00,30.13,1011.90,M,M,M,M,M,M,M,M,M,M,M,M,M,M,M,M,M,57.00,KP68 181153Z AUTO 16007KT 14/04 A3013 RMK AO1 SLP119 T01390039 10183 20128 56006,M
ELY,2021-09-18 11:53,-114.8453,39.2950,1909.00,56.00,39.00,52.94,200.00,12.00,0.00,30.20,1012.90,10.00,M,CLR,M,M,M,M,M,M,M,M,M,M,M,M,M,M,55.90,KELY 181153Z AUTO 20012KT 10SM CLR 13/04 A3020 RMK AO2 SLP129 T01330039 10144 20111 56008,M
VGT,2021-09-18 11:53,-115.1933,36.2111,667.00,78.00,52.00,40.23,310.00,3.00,0.00,29.96,1013.40,10.00,M,CLR,M,M,M,M,M,M,M,M,M,M,M,M,M,M,78.10,KVGT 181153Z AUTO 31003KT 10SM CLR 26/11 A2996 RMK AO2 SLP134 60000 T02560111 10278 20250 56005,M
DRA,2021-09-18 11:53,-116.0278,36.6206,1009.00,68.00,45.00,43.51,120.00,3.00,0.00,30.02,1012.30,10.00,M,CLR,M,M,M,M,M,M,M,M,M,M,M,M,M,M,68.00,KDRA 181153Z AUTO 12003KT 10SM CLR 20/07 A3002 RMK AO2 SLP123 T02000072 10239 20183 56006,M
LOL,2021-09-18 11:53,-118.5701,40.0684,1192.43,46.00,25.00,43.44,0.00,0.00,0.00,29.99,1012.50,9.00,M,OVC,M,M,M,12000.00,M,M,M,M,M,M,M,M,M,M,46.00,KLOL 181153Z AUTO 00000KT 9SM OVC120 08/M04 A2999 RMK AO2 SLP125 T00781039 10150 20078 55002,M
HTH,2021-09-18 11:55,-118.6315,38.5448,1282.89,68.00,28.40,22.59,200.00,9.00,0.00,30.02,M,7.00,M,FEW,SCT,OVC,M,300.00,3700.00,5000.00,M,M,M,M,M,M,M,M,68.00,KHTH 181155Z AUTO 20009KT 7SM FEW003 SCT037 OVC050 20/M02 A3002 RMK A01,M
MEV,2021-09-18 11:55,-119.7500,38.9963,1441.42,59.00,17.60,19.68,0.00,0.00,0.00,30.05,M,10.00,M,CLR,M,M,M,M,M,M,M,M,M,M,M,M,M,M,59.00,KMEV 181155Z AUTO 00000KT 10SM CLR 15/M08 A3005 RMK AO2,M
INS,2021-09-18 11:55,-115.6733,36.5872,955.00,69.80,46.40,43.13,0.00,0.00,0.00,30.02,1012.10,10.00,M,BKN,OVC,M,M,13000.00,15000.00,M,M,M,M,M,M,M,M,M,69.80,KINS 181155Z AUTO 00000KT 10SM BKN130 OVC150 21/08 A3002 RMK AO2 RAB45E46DZB46E54RAB54E55RAB55 SLP121 $,M
RTS,2021-09-18 11:55,-119.8764,39.6682,1539.00,59.00,32.00,35.87,290.00,7.00,0.00,30.07,M,10.00,M,CLR,M,M,M,M,M,M,M,M,M,M,M,M,M,M,59.00,KRTS 181155Z AUTO 29007KT 10SM CLR 15/M00 A3007 RMK AO2,M
BAM,2021-09-18 11:55,-116.8743,40.5990,1382.36,62.60,30.20,29.35,50.00,3.00,0.00,30.03,M,10.00,M,CLR,M,M,M,M,M,M,M,M,M,M,M,M,M,M,62.60,KBAM 181155Z AUTO 05003KT 10SM CLR 17/M01 A3003 RMK AO1,M
CXP,2021-09-18 11:55,-119.7326,39.1923,1431.00,59.00,15.80,18.20,0.00,0.00,0.00,30.06,M,10.00,M,CLR,M,M,M,M,M,M,M,M,M,M,M,M,M,M,59.00,KCXP 181155Z AUTO 00000KT 10SM CLR 15/M09 A3006 RMK AO2,M
BVU,2021-09-18 11:55,-114.8611,35.9475,671.00,77.00,50.00,38.74,60.00,4.00,0.00,29.97,M,10.00,M,CLR,M,M,M,M,M,M,M,M,M,M,M,M,M,M,77.00,KBVU 181155Z AUTO 06004KT 10SM CLR 25/10 A2997 RMK AO2,M
RNO,2021-09-18 11:55,-119.7711,39.4839,1341.00,56.00,32.00,40.10,200.00,4.00,0.00,30.03,1011.80,10.00,M,FEW,M,M,M,9000.00,M,M,M,M,M,M,M,M,M,M,55.90,KRNO 181155Z 20004KT 10SM FEW090 13/00 A3003 RMK AO2 SLP118 FU FEW090 T01330000 10200 20122 55001,M
TMT,2021-09-18 11:55,-117.1971,39.4643,1749.34,50.20,35.20,56.19,110.00,4.00,0.00,30.12,M,10.00,M,CLR,M,M,M,M,M,M,M,M,M,M,M,M,M,M,50.20,KTMT 181155Z AUTO 11004KT 10SM CLR 10/02 A3012 RMK AO2 6//// 7//// T01010018,M
HND,2021-09-18 11:56,-115.1344,35.9729,742.79,76.00,49.00,38.57,180.00,3.00,0.00,30.00,1014.70,10.00,M,CLR,M,M,M,M,M,M,M,M,M,M,M,M,M,M,75.90,KHND 181156Z AUTO 18003KT 10SM CLR 24/09 A3000 RMK AO2 SLP147 T02440094 10261 20239 56007,M
WMC,2021-09-18 11:56,-117.8072,40.9019,1315.00,48.00,19.90,32.50,0.00,0.00,0.00,30.00,1011.70,10.00,M,CLR,M,M,M,M,M,M,M,M,M,M,M,M,M,M,48.00,KWMC 181156Z AUTO 00000KT 10SM CLR 09/M07 A3000 RMK AO2 SLP117 T00891067 10194 20078 55003 $,M
TPH,2021-09-18 11:56,-117.0904,38.0505,1654.00,61.00,41.00,47.66,150.00,7.00,0.00,30.13,1012.80,10.00,M,CLR,M,M,M,M,M,M,M,M,M,M,M,M,M,M,61.00,KTPH 181156Z AUTO 15007KT 10SM CLR 16/05 A3013 RMK AO2 SLP128 T01610050 10178 20122 58011,M
NFL,2021-09-18 11:56,-118.7010,39.4166,1199.00,56.00,30.90,38.36,220.00,4.00,0.00,29.99,1012.70,8.00,M,CLR,M,M,M,M,M,M,M,M,M,M,M,M,M,M,55.90,KNFL 181156Z AUTO 22004KT 8SM CLR 13/M01 A2999 RMK AO2 SLP127 T01331006 10178 20117 55002,M
EKO,2021-09-18 11:56,-115.7860,40.8242,1367.00,65.00,37.00,35.54,M,5.00,0.00,30.05,1011.30,10.00,M,CLR,M,M,M,M,M,M,M,M,M,M,M,M,M,M,64.90,KEKO 181156Z AUTO VRB05KT 10SM CLR 18/03 A3005 RMK AO2 SLP113 T01830028 10206 20172 56004,M
LAS,2021-09-18 11:56,-115.1634,36.0719,663.00,79.00,47.00,32.29,0.00,0.00,0.00,29.97,1012.20,10.00,M,FEW,BKN,M,M,12000.00,15000.00,M,M,M,M,M,M,M,M,M,79.00,KLAS 181156Z 00000KT 10SM FEW120 BKN150 26/08 A2997 RMK AO2 SLP122 T02610083 10278 20256 56006,M
INS,2021-09-18 11:58,-115.6733,36.5872,955.00,68.70,46.00,43.95,0.00,0.00,T,30.02,1012.30,10.00,M,BKN,OVC,M,M,13000.00,15000.00,M,M,M,M,M,M,M,M,M,68.70,KINS 181158Z AUTO 00000KT 10SM BKN130 OVC150 20/08 A3002 RMK AO2 RAB45E46DZB46E54RAB54E55RAB55E55 SLP123 P0000 60000 T02040077 10245 20204 57007 $,M
LSV,2021-09-18 11:58,-115.0343,36.2362,570.00,76.80,46.20,33.82,0.00,0.00,0.00,29.95,1011.90,10.00,M,SCT,M,M,M,16000.00,M,M,M,M,M,M,M,M,M,M,76.80,KLSV 181158Z AUTO 00000KT 10SM SCT160 25/08 A2995 RMK AO2 SLP119 T02490079 10279 20249 55004 $,M
CXP,2021-09-18 12:10,-119.7326,39.1923,1431.00,59.00,15.80,18.20,0.00,0.00,0.00,30.06,M,10.00,M,CLR,M,M,M,M,M,M,M,M,M,M,M,M,M,M,59.00,KCXP 181210Z AUTO 00000KT 10SM CLR 15/M09 A3006 RMK AO2,M
RTS,2021-09-18 12:15,-119.8764,39.6682,1539.00,60.80,30.20,31.28,0.00,0.00,0.00,30.07,M,10.00,M,CLR,M,M,M,M,M,M,M,M,M,M,M,M,M,M,60.80,KRTS 181215Z AUTO 00000KT 10SM CLR 16/M01 A3007 RMK AO2,M
MEV,2021-09-18 12:15,-119.7500,38.9963,1441.42,51.80,19.40,27.62,M,5.00,0.00,30.05,M,10.00,11.00,CLR,M,M,M,M,M,M,M,M,M,M,M,M,M,M,51.80,KMEV 181215Z AUTO VRB05G11KT 10SM CLR 11/M07 A3005 RMK AO2,M
BAM,2021-09-18 12:15,-116.8743,40.5990,1382.36,60.80,30.20,31.28,0.00,0.00,0.00,30.03,M,10.00,M,CLR,M,M,M,M,M,M,M,M,M,M,M,M,M,M,60.80,KBAM 181215Z AUTO 00000KT 10SM CLR 16/M01 A3003 RMK AO1,M
TMT,2021-09-18 12:15,-117.1971,39.4643,1749.34,54.30,38.00,53.75,290.00,5.00,0.00,30.13,M,10.00,M,CLR,M,M,M,M,M,M,M,M,M,M,M,M,M,M,54.30,KTMT 181215Z AUTO 29005KT 10SM CLR 12/03 A3013 RMK AO2 T01240033,M
BVU,2021-09-18 12:15,-114.8611,35.9475,671.00,75.20,51.80,43.97,0.00,0.00,0.00,29.98,M,10.00,M,CLR,M,M,M,M,M,M,M,M,M,M,M,M,M,M,75.20,KBVU 181215Z AUTO 00000KT 10SM CLR 24/11 A2998 RMK AO2,M
HTH,2021-09-18 12:15,-118.6315,38.5448,1282.89,69.80,28.40,21.24,190.00,10.00,0.00,30.02,M,10.00,M,SCT,SCT,BKN,M,5000.00,7500.00,9500.00,M,M,M,M,M,M,M,M,69.80,KHTH 181215Z AUTO 19010KT 10SM SCT050 SCT075 BKN095 21/M02 A3002 RMK A01,M
TMT,2021-09-18 12:35,-117.1971,39.4643,1749.34,55.20,38.80,53.88,230.00,7.00,0.00,30.13,M,10.00,M,CLR,M,M,M,M,M,M,M,M,M,M,M,M,M,M,55.20,KTMT 181235Z AUTO 23007KT 10SM CLR 13/04 A3013 RMK AO2 T01290038,M
MEV,2021-09-18 12:35,-119.7500,38.9963,1441.42,53.60,19.40,25.85,0.00,0.00,0.00,30.05,M,10.00,M,CLR,M,M,M,M,M,M,M,M,M,M,M,M,M,M,53.60,KMEV 181235Z AUTO 00000KT 10SM CLR 12/M07 A3005 RMK AO2,M
HTH,2021-09-18 12:35,-118.6315,38.5448,1282.89,69.80,26.60,19.72,180.00,11.00,0.00,30.02,M,9.00,M,OVC,M,M,M,9000.00,M,M,M,M,M,M,M,M,M,M,69.80,KHTH 181235Z AUTO 18011KT 9SM OVC090 21/M03 A3002 RMK A01,M
CXP,2021-09-18 12:35,-119.7326,39.1923,1431.00,60.80,15.80,17.07,0.00,0.00,0.00,30.06,M,10.00,M,CLR,M,M,M,M,M,M,M,M,M,M,M,M,M,M,60.80,KCXP 181235Z AUTO 00000KT 10SM CLR 16/M09 A3006 RMK AO2,M
BVU,2021-09-18 12:35,-114.8611,35.9475,671.00,73.40,53.60,49.90,0.00,0.00,0.00,29.98,M,10.00,M,CLR,M,M,M,M,M,M,M,M,M,M,M,M,M,M,73.40,KBVU 181235Z AUTO 00000KT 10SM CLR 23/12 A2998 RMK AO2,M
RTS,2021-09-18 12:35,-119.8764,39.6682,1539.00,59.00,30.20,33.35,0.00,0.00,0.00,30.07,M,10.00,M,CLR,M,M,M,M,M,M,M,M,M,M,M,M,M,M,59.00,KRTS 181235Z AUTO 00000KT 10SM CLR 15/M01 A3007 RMK AO2,M
BAM,2021-09-18 12:35,-116.8743,40.5990,1382.36,59.00,30.20,33.35,0.00,0.00,0.00,30.02,M,10.00,M,CLR,M,M,M,M,M,M,M,M,M,M,M,M,M,M,59.00,KBAM 181235Z AUTO 00000KT 10SM CLR 15/M01 A3002 RMK AO1,M
ELY,2021-09-18 12:53,-114.8453,39.2950,1909.00,54.00,39.00,56.74,210.00,11.00,0.00,30.20,1013.90,10.00,M,CLR,M,M,M,M,M,M,M,M,M,M,M,M,M,M,54.00,KELY 181253Z AUTO 21011KT 10SM CLR 12/04 A3020 RMK AO2 SLP139 T01220039,M
P68,2021-09-18 12:53,-116.0056,39.6014,1993.00,55.00,39.00,54.70,150.00,9.00,0.00,30.13,1012.40,M,M,M,M,M,M,M,M,M,M,M,M,M,M,M,M,M,55.00,KP68 181253Z AUTO 15009KT 13/04 A3013 RMK AO1 SLP124 T01280039,M
LOL,2021-09-18 12:53,-118.5701,40.0684,1192.43,44.00,26.10,48.88,0.00,0.00,0.00,30.00,1012.90,9.00,M,CLR,M,M,M,M,M,M,M,M,M,M,M,M,M,M,44.10,KLOL 181253Z AUTO 00000KT 9SM CLR 07/M03 A3000 RMK AO2 SLP129 T00671033,M
DRA,2021-09-18 12:53,-116.0278,36.6206,1009.00,64.00,44.00,48.31,290.00,4.00,0.00,30.05,1013.10,10.00,M,CLR,M,M,M,M,M,M,M,M,M,M,M,M,M,M,64.00,KDRA 181253Z AUTO 29004KT 10SM CLR 18/07 A3005 RMK AO2 SLP131 T01780067,M
VGT,2021-09-18 12:53,-115.1933,36.2111,667.00,76.00,51.00,41.86,300.00,3.00,0.00,29.96,1013.80,10.00,M,CLR,M,M,M,M,M,M,M,M,M,M,M,M,M,M,75.90,KVGT 181253Z 30003KT 10SM CLR 24/11 A2996 RMK AO2 LTG DSNT E SLP138 T02440106,M
MEV,2021-09-18 12:55,-119.7500,38.9963,1441.42,50.00,19.40,29.52,0.00,0.00,0.00,30.05,M,10.00,M,CLR,M,M,M,M,M,M,M,M,M,M,M,M,M,M,50.00,KMEV 181255Z AUTO 00000KT 10SM CLR 10/M07 A3005 RMK AO2,M
RTS,2021-09-18 12:55,-119.8764,39.6682,1539.00,59.00,32.00,35.87,270.00,7.00,0.00,30.08,M,10.00,M,CLR,M,M,M,M,M,M,M,M,M,M,M,M,M,M,59.00,KRTS 181255Z AUTO 27007KT 10SM CLR 15/M00 A3008 RMK AO2,M
HTH,2021-09-18 12:55,-118.6315,38.5448,1282.89,69.80,26.60,19.72,160.00,11.00,0.00,30.03,M,10.00,M,FEW,FEW,BKN,M,3900.00,4500.00,9000.00,M,M,M,M,M,M,M,M,69.80,KHTH 181255Z AUTO 16011KT 10SM FEW039 FEW045 BKN090 21/M03 A3003 RMK A01,M
TMT,2021-09-18 12:55,-117.1971,39.4643,1749.34,53.00,37.80,56.36,250.00,5.00,0.00,30.13,M,10.00,M,CLR,M,M,M,M,M,M,M,M,M,M,M,M,M,M,52.90,KTMT 181255Z AUTO 25005KT 10SM CLR 12/03 A3013 RMK AO2 T01160032,M
RNO,2021-09-18 12:55,-119.7711,39.4839,1341.00,56.00,32.00,40.10,310.00,5.00,0.00,30.03,1012.10,10.00,M,CLR,M,M,M,M,M,M,M,M,M,M,M,M,M,M,55.90,KRNO 181255Z 31005KT 10SM CLR 13/00 A3003 RMK AO2 SLP121 T01330000,M
CXP,2021-09-18 12:55,-119.7326,39.1923,1431.00,57.20,15.80,19.42,0.00,0.00,0.00,30.06,M,10.00,M,CLR,M,M,M,M,M,M,M,M,M,M,M,M,M,M,57.20,KCXP 181255Z AUTO 00000KT 10SM CLR 14/M09 A3006 RMK AO2,M
BVU,2021-09-18 12:55,-114.8611,35.9475,671.00,73.40,51.80,46.71,0.00,0.00,0.00,29.98,M,10.00,M,CLR,M,M,M,M,M,M,M,M,M,M,M,M,M,M,73.40,KBVU 181255Z AUTO 00000KT 10SM CLR 23/11 A2998 RMK AO2,M
BAM,2021-09-18 12:55,-116.8743,40.5990,1382.36,57.20,30.20,35.57,200.00,4.00,0.00,30.02,M,10.00,M,CLR,M,M,M,M,M,M,M,M,M,M,M,M,M,M,57.20,KBAM 181255Z AUTO 20004KT 10SM CLR 14/M01 A3002 RMK AO1,M
WMC,2021-09-18 12:56,-117.8072,40.9019,1315.00,43.00,19.90,39.29,150.00,4.00,0.00,30.00,1012.30,10.00,M,CLR,M,M,M,M,M,M,M,M,M,M,M,M,M,M,40.27,KWMC 181256Z AUTO 15004KT 10SM CLR 06/M07 A3000 RMK AO2 SLP123 T00611067 $,M
LAS,2021-09-18 12:56,-115.1634,36.0719,663.00,77.00,47.00,34.50,0.00,0.00,0.00,29.98,1012.60,10.00,M,FEW,BKN,M,M,12000.00,15000.00,M,M,M,M,M,M,M,M,M,77.00,KLAS 181256Z 00000KT 10SM FEW120 BKN150 25/08 A2998 RMK AO2 LTG DSNT NE SLP126 T02500083,M
NFL,2021-09-18 12:56,-118.7010,39.4166,1199.00,50.00,28.90,43.92,180.00,3.00,0.00,30.00,1012.90,8.00,M,CLR,M,M,M,M,M,M,M,M,M,M,M,M,M,M,50.00,KNFL 181256Z AUTO 18003KT 8SM CLR 10/M02 A3000 RMK AO2 SLP129 T01001017,M
TPH,2021-09-18 12:56,-117.0904,38.0505,1654.00,58.00,40.00,51.02,160.00,7.00,0.00,30.14,1013.60,10.00,M,CLR,M,M,M,M,M,M,M,M,M,M,M,M,M,M,57.90,KTPH 181256Z AUTO 16007KT 10SM CLR 14/04 A3014 RMK AO2 SLP136 T01440044,M
HND,2021-09-18 12:56,-115.1344,35.9729,742.79,77.00,48.00,35.95,230.00,7.00,0.00,30.01,1014.90,10.00,M,CLR,M,M,M,M,M,M,M,M,M,M,M,M,M,M,77.00,KHND 181256Z AUTO 23007KT 10SM CLR 25/09 A3001 RMK AO2 LTG DSNT NE SLP149 T02500089,M
EKO,2021-09-18 12:56,-115.7860,40.8242,1367.00,57.00,35.00,43.63,340.00,7.00,0.00,30.05,1012.50,10.00,M,CLR,M,M,M,M,M,M,M,M,M,M,M,M,M,M,57.00,KEKO 181256Z AUTO 34007KT 10SM CLR 14/02 A3005 RMK AO2 SLP125 T01390017,M
INS,2021-09-18 12:58,-115.6733,36.5872,955.00,69.60,45.50,41.98,0.00,0.00,0.00,30.03,1012.50,10.00,M,FEW,BKN,BKN,M,8500.00,13000.00,15000.00,M,M,M,M,M,M,M,M,69.60,KINS 181258Z AUTO 00000KT 10SM FEW085 BKN130 BKN150 21/08 A3003 RMK AO2 SLP125 T02090075 $,M
LSV,2021-09-18 12:58,-115.0343,36.2362,570.00,78.30,46.00,31.94,50.00,3.00,0.00,29.96,1012.20,10.00,M,BKN,M,M,M,14000.00,M,M,M,M,M,M,M,M,M,M,78.30,KLSV 181258Z AUTO 05003KT 10SM BKN140 26/08 A2996 RMK AO2 LTG DSNT NE SLP122 T02570078 $,M
RTS,2021-09-18 13:15,-119.8764,39.6682,1539.00,60.80,26.60,26.98,160.00,10.00,0.00,30.07,M,10.00,M,CLR,M,M,M,M,M,M,M,M,M,M,M,M,M,M,60.80,KRTS 181315Z AUTO 16010KT 10SM CLR 16/M03 A3007 RMK AO2,M
BVU,2021-09-18 13:15,-114.8611,35.9475,671.00,77.00,50.00,38.74,80.00,4.00,0.00,29.98,M,10.00,M,CLR,M,M,M,M,M,M,M,M,M,M,M,M,M,M,77.00,KBVU 181315Z AUTO 08004KT 10SM CLR 25/10 A2998 RMK AO2 LTG DSNT N AND S,M
CXP,2021-09-18 13:15,-119.7326,39.1923,1431.00,57.20,14.00,17.95,120.00,4.00,0.00,30.06,M,10.00,M,CLR,M,M,M,M,M,M,M,M,M,M,M,M,M,M,57.20,KCXP 181315Z AUTO 12004KT 10SM CLR 14/M10 A3006 RMK AO2,M
MEV,2021-09-18 13:15,-119.7500,38.9963,1441.42,48.20,19.40,31.57,0.00,0.00,0.00,30.06,M,10.00,M,CLR,M,M,M,M,M,M,M,M,M,M,M,M,M,M,48.20,KMEV 181315Z AUTO 00000KT 10SM CLR 09/M07 A3006 RMK AO2,M
BAM,2021-09-18 13:15,-116.8743,40.5990,1382.36,51.80,26.60,37.38,160.00,3.00,0.00,30.03,M,10.00,M,CLR,M,M,M,M,M,M,M,M,M,M,M,M,M,M,51.80,KBAM 181315Z AUTO 16003KT 10SM CLR 11/M03 A3003 RMK AO1,M
HTH,2021-09-18 13:15,-118.6315,38.5448,1282.89,68.00,28.40,22.59,160.00,9.00,0.00,30.03,M,9.00,M,FEW,SCT,BKN,M,3900.00,4400.00,9000.00,M,M,M,M,M,M,M,M,68.00,KHTH 181315Z AUTO 16009KT 9SM FEW039 SCT044 BKN090 20/M02 A3003 RMK A01,M
TMT,2021-09-18 13:15,-117.1971,39.4643,1749.34,51.60,36.30,55.73,210.00,6.00,0.00,30.13,M,10.00,M,CLR,M,M,M,M,M,M,M,M,M,M,M,M,M,M,51.60,KTMT 181315Z AUTO 21006KT 10SM CLR 11/02 A3013 RMK AO2 LTG DSNT SE T01090024,M
BAM,2021-09-18 13:35,-116.8743,40.5990,1382.36,51.80,28.40,40.25,0.00,0.00,0.00,30.03,M,10.00,M,CLR,M,M,M,M,M,M,M,M,M,M,M,M,M,M,51.80,KBAM 181335Z AUTO 00000KT 10SM CLR 11/M02 A3003 RMK AO1,M
CXP,2021-09-18 13:35,-119.7326,39.1923,1431.00,57.20,14.00,17.95,140.00,5.00,0.00,30.07,M,10.00,M,CLR,M,M,M,M,M,M,M,M,M,M,M,M,M,M,57.20,KCXP 181335Z AUTO 14005KT 10SM CLR 14/M10 A3007 RMK AO2,M
RTS,2021-09-18 13:35,-119.8764,39.6682,1539.00,57.20,30.20,35.57,200.00,5.00,0.00,30.08,M,10.00,M,CLR,M,M,M,M,M,M,M,M,M,M,M,M,M,M,57.20,KRTS 181335Z AUTO 20005KT 10SM CLR 14/M01 A3008 RMK AO2,M
BVU,2021-09-18 13:35,-114.8611,35.9475,671.00,75.20,50.00,41.14,0.00,0.00,0.00,29.99,M,10.00,M,SCT,M,M,M,9500.00,M,M,M,M,M,M,M,M,M,M,75.20,KBVU 181335Z AUTO 00000KT 10SM SCT095 24/10 A2999 RMK AO2 LTG DSNT S AND SW,M
MEV,2021-09-18 13:35,-119.7500,38.9963,1441.42,50.00,21.20,31.87,0.00,0.00,0.00,30.06,M,10.00,M,CLR,M,M,M,M,M,M,M,M,M,M,M,M,M,M,50.00,KMEV 181335Z AUTO 00000KT 10SM CLR 10/M06 A3006 RMK AO2,M
HTH,2021-09-18 13:35,-118.6315,38.5448,1282.89,69.80,26.60,19.72,180.00,12.00,0.00,30.03,M,9.00,M,FEW,FEW,M,M,4400.00,5000.00,M,M,M,M,M,M,M,M,M,69.80,KHTH 181335Z AUTO 18012KT 9SM FEW044 FEW050 21/M03 A3003 RMK A01,M
TMT,2021-09-18 13:35,-117.1971,39.4643,1749.34,51.30,37.00,57.93,220.00,8.00,0.00,30.13,M,10.00,M,CLR,M,M,M,M,M,M,M,M,M,M,M,M,M,M,51.30,KTMT 181335Z AUTO 22008KT 10SM CLR 11/03 A3013 RMK AO2 LTG DSNT SE T01070028,M
LSV,2021-09-18 13:37,-115.0343,36.2362,570.00,77.00,44.60,31.62,60.00,6.00,0.00,29.96,1012.30,10.00,M,FEW,SCT,BKN,M,12000.00,14000.00,16000.00,M,-RA,M,M,M,M,M,M,77.00,KLSV 181337Z AUTO 06006KT 10SM -RA FEW120 SCT140 BKN160 25/07 A2996 RMK AO2 RAB37 SLP123 $,M
LSV,2021-09-18 13:48,-115.0343,36.2362,570.00,77.00,48.20,36.22,30.00,4.00,0.00,29.96,1012.30,10.00,M,SCT,SCT,M,M,13000.00,16000.00,M,M,M,M,M,M,M,M,M,77.00,KLSV 181348Z AUTO 03004KT 10SM SCT130 SCT160 25/09 A2996 RMK AO2 LTG DSNT NE AND SE RAB37E48 SLP123 $,M
P68,2021-09-18 13:53,-116.0056,39.6014,1993.00,60.00,40.00,47.15,160.00,13.00,0.00,30.13,1012.10,M,M,M,M,M,M,M,M,M,M,M,M,M,M,M,M,M,60.10,KP68 181353Z AUTO 16013KT 16/04 A3013 RMK AO1 SLP121 T01560044,M
INS,2021-09-18 13:53,-115.6733,36.5872,955.00,69.80,46.40,43.13,230.00,8.00,0.00,30.04,1012.80,10.00,M,BKN,BKN,M,M,8500.00,13000.00,M,M,M,M,M,M,M,M,M,69.80,KINS 181353Z AUTO 23008KT 10SM BKN085 BKN130 21/08 A3004 RMK AO2 SLP128 $,M
ELY,2021-09-18 13:53,-114.8453,39.2950,1909.00,54.00,39.00,56.74,210.00,14.00,0.00,30.20,1014.10,10.00,M,CLR,M,M,M,M,M,M,M,M,M,M,M,M,M,M,54.00,KELY 181353Z AUTO 21014KT 10SM CLR 12/04 A3020 RMK AO2 SLP141 T01220039,M
DRA,2021-09-18 13:53,-116.0278,36.6206,1009.00,68.00,46.00,45.19,20.00,3.00,0.00,30.05,1013.10,10.00,M,FEW,M,M,M,9000.00,M,M,M,M,M,M,M,M,M,M,68.00,KDRA 181353Z AUTO 02003KT 10SM FEW090 20/08 A3005 RMK AO2 SLP131 T02000078,M
VGT,2021-09-18 13:53,-115.1933,36.2111,667.00,76.00,50.00,40.19,300.00,3.00,0.00,29.97,1014.10,10.00,M,CLR,M,M,M,M,M,M,M,M,M,M,M,M,M,M,75.90,KVGT 181353Z 30003KT 10SM CLR 24/10 A2997 RMK AO2 LTG DSNT SE SLP141 T02440100,M
LOL,2021-09-18 13:53,-118.5701,40.0684,1192.43,41.00,25.00,52.61,0.00,0.00,0.00,30.00,1013.80,8.00,M,CLR,M,M,M,M,M,M,M,M,M,M,M,M,M,M,41.00,KLOL 181353Z AUTO 00000KT 8SM CLR 05/M04 A3000 RMK AO2 SLP138 T00501039,M
TMT,2021-09-18 13:55,-117.1971,39.4643,1749.34,50.50,37.00,59.44,220.00,9.00,0.00,30.14,M,10.00,M,CLR,M,M,M,M,M,M,M,M,M,M,M,M,M,M,50.50,KTMT 181355Z AUTO 22009KT 10SM CLR 10/03 A3014 RMK AO2 T01030027,M
BVU,2021-09-18 13:55,-114.8611,35.9475,671.00,77.00,55.40,47.25,170.00,15.00,0.00,30.01,M,10.00,26.00,BKN,OVC,M,M,9000.00,11000.00,M,M,VCTS,M,M,M,M,M,M,77.00,KBVU 181355Z AUTO 17015G26KT 10SM VCTS BKN090 OVC110 25/13 A3001 RMK AO2 LTG DSNT E-S,M
CXP,2021-09-18 13:55,-119.7326,39.1923,1431.00,60.80,14.00,15.78,190.00,4.00,0.00,30.07,M,10.00,M,CLR,M,M,M,M,M,M,M,M,M,M,M,M,M,M,60.80,KCXP 181355Z AUTO 19004KT 10SM CLR 16/M10 A3007 RMK AO2,M
BAM,2021-09-18 13:55,-116.8743,40.5990,1382.36,51.80,28.40,40.25,0.00,0.00,0.00,30.03,M,10.00,M,CLR,M,M,M,M,M,M,M,M,M,M,M,M,M,M,51.80,KBAM 181355Z AUTO 00000KT 10SM CLR 11/M02 A3003 RMK AO1,M
HTH,2021-09-18 13:55,-118.6315,38.5448,1282.89,69.80,26.60,19.72,190.00,10.00,0.00,30.03,M,8.00,M,CLR,M,M,M,M,M,M,M,M,M,M,M,M,M,M,69.80,KHTH 181355Z AUTO 19010KT 8SM CLR 21/M03 A3003 RMK A01,M
RNO,2021-09-18 13:55,-119.7711,39.4839,1341.00,55.00,30.90,39.63,0.00,0.00,0.00,30.03,1012.40,10.00,M,FEW,M,M,M,15000.00,M,M,M,M,M,M,M,M,M,M,55.00,KRNO 181355Z 00000KT 10SM FEW150 13/M01 A3003 RMK AO2 SLP124 FU ALF AND HZ ALQDS T01281006,M
RTS,2021-09-18 13:55,-119.8764,39.6682,1539.00,59.00,28.40,30.98,0.00,0.00,0.00,30.08,M,10.00,M,CLR,M,M,M,M,M,M,M,M,M,M,M,M,M,M,59.00,KRTS 181355Z AUTO 00000KT 10SM CLR 15/M02 A3008 RMK AO2,M
MEV,2021-09-18 13:55,-119.7500,38.9963,1441.42,48.20,19.40,31.57,M,5.00,0.00,30.06,M,10.00,10.00,CLR,M,M,M,M,M,M,M,M,M,M,M,M,M,M,45.63,KMEV 181355Z AUTO VRB05G10KT 10SM CLR 09/M07 A3006 RMK AO2,M
EKO,2021-09-18 13:56,-115.7860,40.8242,1367.00,58.00,36.00,43.78,40.00,3.00,0.00,30.06,1013.20,10.00,M,CLR,M,M,M,M,M,M,M,M,M,M,M,M,M,M,57.90,KEKO 181356Z AUTO 04003KT 10SM CLR 14/02 A3006 RMK AO2 SLP132 T01440022,M
WMC,2021-09-18 13:56,-117.8072,40.9019,1315.00,43.00,21.00,41.17,150.00,8.00,0.00,30.00,1013.10,9.00,M,OVC,M,M,M,11000.00,M,M,M,M,M,M,M,M,M,M,37.66,KWMC 181356Z AUTO 15008KT 9SM OVC110 06/M06 A3000 RMK AO2 SLP131 T00611061 $,M
TPH,2021-09-18 13:56,-117.0904,38.0505,1654.00,60.00,37.00,42.09,190.00,7.00,0.00,30.14,1014.10,10.00,M,CLR,M,M,M,M,M,M,M,M,M,M,M,M,M,M,60.10,KTPH 181356Z AUTO 19007KT 10SM CLR 16/03 A3014 RMK AO2 SLP141 T01560028,M
NFL,2021-09-18 13:56,-118.7010,39.4166,1199.00,47.00,28.00,47.54,0.00,0.00,0.00,30.01,1013.20,7.00,M,CLR,M,M,M,M,M,M,M,M,M,M,M,M,M,M,46.90,KNFL 181356Z AUTO 00000KT 7SM CLR 08/M02 A3001 RMK AO2 SLP132 T00831022,M
LAS,2021-09-18 13:56,-115.1634,36.0719,663.00,77.00,49.00,37.19,0.00,0.00,0.00,29.99,1013.20,10.00,M,SCT,M,M,M,12000.00,M,M,M,M,M,M,M,M,M,M,77.00,KLAS 181356Z 00000KT 10SM SCT120 25/09 A2999 RMK AO2 LTG DSNT SE SLP132 CB DSNT S T02500094,M
HND,2021-09-18 13:56,-115.1344,35.9729,742.79,76.00,49.00,38.57,0.00,0.00,0.00,30.03,1015.70,10.00,M,CLR,M,M,M,M,M,M,M,M,M,M,M,M,M,M,75.90,KHND 181356Z 00000KT 10SM CLR 24/09 A3003 RMK AO2 LTG DSNT E AND SE SLP157 T02440094,M
LSV,2021-09-18 13:58,-115.0343,36.2362,570.00,77.00,50.20,39.03,30.00,4.00,T,29.96,1012.30,10.00,M,SCT,BKN,M,M,13000.00,15000.00,M,M,M,M,M,M,M,M,M,77.00,KLSV 181358Z AUTO 03004KT 10SM SCT130 BKN150 25/10 A2996 RMK AO2 LTG DSNT SE RAB37E48 SLP123 P0000 T02500101 $,M
INS,2021-09-18 13:58,-115.6733,36.5872,955.00,70.50,46.20,41.80,230.00,7.00,0.00,30.04,1012.80,10.00,M,BKN,BKN,M,M,8500.00,13000.00,M,M,M,M,M,M,M,M,M,70.50,KINS 181358Z AUTO 23007KT 10SM BKN085 BKN130 21/08 A3004 RMK AO2 SLP128 T02140079 $,M
RTS,2021-09-18 14:15,-119.8764,39.6682,1539.00,60.80,24.80,25.04,0.00,0.00,0.00,30.07,M,10.00,16.00,CLR,M,M,M,M,M,M,M,M,M,M,M,M,M,M,60.80,KRTS 181415Z AUTO 00000G16KT 10SM CLR 16/M04 A3007 RMK AO2,M
BVU,2021-09-18 14:15,-114.8611,35.9475,671.00,75.20,55.40,50.17,350.00,6.00,0.00,29.99,M,10.00,M,FEW,SCT,M,M,8000.00,11000.00,M,M,VCTS,M,M,M,M,M,M,75.20,KBVU 181415Z AUTO 35006KT 10SM VCTS FEW080 SCT110 24/13 A2999 RMK AO2 LTG DSNT NE AND SE,M
CXP,2021-09-18 14:15,-119.7326,39.1923,1431.00,62.60,14.00,14.81,M,5.00,0.00,30.07,M,10.00,M,CLR,M,M,M,M,M,M,M,M,M,M,M,M,M,M,62.60,KCXP 181415Z AUTO VRB05KT 10SM CLR 17/M10 A3007 RMK AO2,M
MEV,2021-09-18 14:15,-119.7500,38.9963,1441.42,51.80,17.60,25.56,0.00,0.00,0.00,30.06,M,10.00,M,CLR,M,M,M,M,M,M,M,M,M,M,M,M,M,M,51.80,KMEV 181415Z AUTO 00000KT 10SM CLR 11/M08 A3006 RMK AO2,M
BAM,2021-09-18 14:15,-116.8743,40.5990,1382.36,51.80,26.60,37.38,90.00,3.00,0.00,30.03,M,10.00,M,CLR,M,M,M,M,M,M,M,M,M,M,M,M,M,M,51.80,KBAM 181415Z AUTO 09003KT 10SM CLR 11/M03 A3003 RMK AO1,M
HTH,2021-09-18 14:15,-118.6315,38.5448,1282.89,69.80,24.80,18.30,190.00,10.00,0.00,30.04,M,8.00,M,CLR,M,M,M,M,M,M,M,M,M,M,M,M,M,M,69.80,KHTH 181415Z AUTO 19010KT 8SM CLR 21/M04 A3004 RMK A01,M
TMT,2021-09-18 14:15,-117.1971,39.4643,1749.34,52.70,38.00,57.00,230.00,9.00,0.00,30.14,M,10.00,M,CLR,M,M,M,M,M,M,M,M,M,M,M,M,M,M,52.70,KTMT 181415Z AUTO 23009KT 10SM CLR 12/03 A3014 RMK AO2 T01150033,M
BVU,2021-09-18 14:35,-114.8611,35.9475,671.00,77.00,53.60,44.25,0.00,0.00,0.00,30.00,M,10.00,M,CLR,M,M,M,M,M,M,M,M,M,M,M,M,M,M,77.00,KBVU 181435Z AUTO 00000KT 10SM CLR 25/12 A3000 RMK AO2 LTG DSNT NE-SE,M
HTH,2021-09-18 14:35,-118.6315,38.5448,1282.89,69.80,24.80,18.30,190.00,9.00,0.00,30.04,M,8.00,M,CLR,M,M,M,M,M,M,M,M,M,M,M,M,M,M,69.80,KHTH 181435Z AUTO 19009KT 8SM CLR 21/M04 A3004 RMK A01,M
BAM,2021-09-18 14:35,-116.8743,40.5990,1382.36,59.00,30.20,33.35,0.00,0.00,0.00,30.04,M,10.00,M,CLR,M,M,M,M,M,M,M,M,M,M,M,M,M,M,59.00,KBAM 181435Z AUTO 00000KT 10SM CLR 15/M01 A3004 RMK AO1,M
MEV,2021-09-18 14:35,-119.7500,38.9963,1441.42,59.00,19.40,21.26,M,3.00,0.00,30.07,M,10.00,M,CLR,M,M,M,M,M,M,M,M,M,M,M,M,M,M,59.00,KMEV 181435Z AUTO VRB03KT 10SM CLR 15/M07 A3007 RMK AO2,M
RTS,2021-09-18 14:35,-119.8764,39.6682,1539.00,60.80,26.60,26.98,M,3.00,0.00,30.09,M,10.00,11.00,CLR,M,M,M,M,M,M,M,M,M,M,M,M,M,M,60.80,KRTS 181435Z AUTO VRB03G11KT 10SM CLR 16/M03 A3009 RMK AO2,M
CXP,2021-09-18 14:35,-119.7326,39.1923,1431.00,60.80,14.00,15.78,330.00,4.00,0.00,30.07,M,10.00,M,CLR,M,M,M,M,M,M,M,M,M,M,M,M,M,M,60.80,KCXP 181435Z AUTO 33004KT 10SM CLR 16/M10 A3007 RMK AO2,M
TMT,2021-09-18 14:35,-117.1971,39.4643,1749.34,56.30,38.50,51.17,220.00,7.00,0.00,30.14,M,10.00,M,CLR,M,M,M,M,M,M,M,M,M,M,M,M,M,M,56.30,KTMT 181435Z AUTO 22007KT 10SM CLR 14/04 A3014 RMK AO2 LTG DSNT SE AND S T01350036,M
LOL,2021-09-18 14:53,-118.5701,40.0684,1192.43,47.00,26.10,43.95,100.00,3.00,0.00,30.01,1014.00,9.00,M,CLR,M,M,M,M,M,M,M,M,M,M,M,M,M,M,45.72,KLOL 181453Z AUTO 10003KT 9SM CLR 08/M03 A3001 RMK AO2 SLP140 T00831033 51005,M
ELY,2021-09-18 14:53,-114.8453,39.2950,1909.00,59.00,40.00,49.04,190.00,17.00,0.00,30.21,1014.30,10.00,21.00,BKN,BKN,BKN,M,7000.00,8500.00,11000.00,M,M,M,M,M,M,M,M,59.00,KELY 181453Z AUTO 19017G21KT 10SM BKN070 BKN085 BKN110 15/04 A3021 RMK AO2 SLP143 T01500044 53004,M
VGT,2021-09-18 14:53,-115.1933,36.2111,667.00,79.00,52.00,39.06,290.00,3.00,0.00,29.98,1014.50,10.00,M,CLR,M,M,M,M,M,M,M,M,M,M,M,M,M,M,79.00,KVGT 181453Z 29003KT 10SM CLR 26/11 A2998 RMK AO2 SLP145 T02610111 53008,M
P68,2021-09-18 14:53,-116.0056,39.6014,1993.00,63.00,38.00,39.36,280.00,5.00,0.00,30.15,1012.80,M,M,M,M,M,M,M,M,M,M,M,M,M,M,M,M,M,63.00,KP68 181453Z AUTO 28005KT 17/03 A3015 RMK AO1 SLP128 T01720033 53004,M
DRA,2021-09-18 14:53,-116.0278,36.6206,1009.00,69.00,49.00,48.53,230.00,3.00,0.00,30.08,1014.30,10.00,M,FEW,BKN,M,M,8000.00,11000.00,M,M,M,M,M,M,M,M,M,69.10,KDRA 181453Z AUTO 23003KT 10SM FEW080 BKN110 21/09 A3008 RMK AO2 SLP143 T02060094 53018,M
BVU,2021-09-18 14:55,-114.8611,35.9475,671.00,80.60,51.80,36.79,0.00,0.00,0.00,30.00,M,10.00,M,CLR,M,M,M,M,M,M,M,M,M,M,M,M,M,M,80.08,KBVU 181455Z AUTO 00000KT 10SM CLR 27/11 A3000 RMK AO2 LTG DSNT NE AND SE,M
CXP,2021-09-18 14:55,-119.7326,39.1923,1431.00,62.60,17.60,17.32,0.00,0.00,0.00,30.08,M,10.00,M,CLR,M,M,M,M,M,M,M,M,M,M,M,M,M,M,62.60,KCXP 181455Z AUTO 00000KT 10SM CLR 17/M08 A3008 RMK AO2,M
RTS,2021-09-18 14:55,-119.8764,39.6682,1539.00,60.80,26.60,26.98,360.00,5.00,0.00,30.09,M,10.00,M,CLR,M,M,M,M,M,M,M,M,M,M,M,M,M,M,60.80,KRTS 181455Z AUTO 36005KT 10SM CLR 16/M03 A3009 RMK AO2,M
MEV,2021-09-18 14:55,-119.7500,38.9963,1441.42,64.40,15.80,15.04,M,6.00,0.00,30.07,M,10.00,M,CLR,M,M,M,M,M,M,M,M,M,M,M,M,M,M,64.40,KMEV 181455Z AUTO VRB06KT 10SM CLR 18/M09 A3007 RMK AO2,M
BAM,2021-09-18 14:55,-116.8743,40.5990,1382.36,60.80,32.00,33.64,80.00,5.00,0.00,30.04,M,10.00,M,CLR,M,M,M,M,M,M,M,M,M,M,M,M,M,M,60.80,KBAM 181455Z AUTO 08005KT 10SM CLR 16/00 A3004 RMK AO1,M
HTH,2021-09-18 14:55,-118.6315,38.5448,1282.89,66.20,26.60,22.33,140.00,11.00,0.00,30.04,M,6.00,M,CLR,M,M,M,M,M,M,M,HZ,M,M,M,M,M,M,66.20,KHTH 181455Z AUTO 14011KT 6SM HZ CLR 19/M03 A3004 RMK A01,M
RNO,2021-09-18 14:55,-119.7711,39.4839,1341.00,58.00,32.00,37.31,0.00,0.00,0.00,30.05,1013.00,8.00,M,FEW,FEW,FEW,M,15000.00,20000.00,25000.00,M,M,M,M,M,M,M,M,57.90,KRNO 181455Z 00000KT 8SM FEW150 FEW200 FEW250 14/00 A3005 RMK AO2 SLP130 ACSL DSNT N AND W THRU NW FU ALF AND HZ ALQDS T01440000 53005,M
TMT,2021-09-18 14:55,-117.1971,39.4643,1749.34,56.00,38.50,51.54,230.00,6.00,0.00,30.14,M,10.00,M,CLR,M,M,M,M,M,M,M,M,M,M,M,M,M,M,56.10,KTMT 181455Z AUTO 23006KT 10SM CLR 13/04 A3014 RMK AO2 T01340036,M
EKO,2021-09-18 14:56,-115.7860,40.8242,1367.00,66.00,38.00,35.44,200.00,7.00,0.00,30.06,1012.30,10.00,M,CLR,M,M,M,M,M,M,M,M,M,M,M,M,M,M,66.00,KEKO 181456Z AUTO 20007KT 10SM CLR 19/03 A3006 RMK AO2 SLP123 T01890033 51003,M
LAS,2021-09-18 14:56,-115.1634,36.0719,663.00,80.00,49.00,33.58,0.00,0.00,0.00,30.00,1013.20,10.00,M,SCT,M,M,M,12000.00,M,M,M,M,M,M,M,M,M,M,79.50,KLAS 181456Z 00000KT 10SM SCT120 27/09 A3000 RMK AO2 SLP132 T02670094 51008,M
TPH,2021-09-18 14:56,-117.0904,38.0505,1654.00,59.00,36.00,42.08,0.00,0.00,0.00,30.15,1015.00,10.00,M,CLR,M,M,M,M,M,M,M,M,M,M,M,M,M,M,59.00,KTPH 181456Z AUTO 00000KT 10SM CLR 15/02 A3015 RMK AO2 SLP150 T01500022 51007,M
HND,2021-09-18 14:56,-115.1344,35.9729,742.79,81.00,51.00,35.38,0.00,0.00,0.00,30.02,1015.40,10.00,M,CLR,M,M,M,M,M,M,M,M,M,M,M,M,M,M,80.23,KHND 181456Z 00000KT 10SM CLR 27/11 A3002 RMK AO2 SLP154 T02720106 50006,M
WMC,2021-09-18 14:56,-117.8072,40.9019,1315.00,49.00,21.90,34.20,0.00,0.00,0.00,30.01,1012.70,9.00,M,CLR,M,M,M,M,M,M,M,M,M,M,M,M,M,M,48.90,KWMC 181456Z AUTO 00000KT 9SM CLR 09/M06 A3001 RMK AO2 SLP127 T00941056 53001 $,M
NFL,2021-09-18 14:56,-118.7010,39.4166,1199.00,55.00,28.90,36.54,0.00,0.00,0.00,30.02,1013.50,7.00,M,CLR,M,M,M,M,M,M,M,M,M,M,M,M,M,M,55.00,KNFL 181456Z AUTO 00000KT 7SM CLR 13/M02 A3002 RMK AO2 SLP135 T01281017 52008,M
LSV,2021-09-18 14:58,-115.0343,36.2362,570.00,80.60,49.60,33.91,80.00,11.00,0.00,29.97,1012.50,10.00,M,CLR,M,M,M,M,M,M,M,M,M,M,M,M,M,M,79.84,KLSV 181458Z AUTO 08011KT 10SM CLR 27/10 A2997 RMK AO2 SLP125 60000 T02700098 52007 $,M
INS,2021-09-18 14:58,-115.6733,36.5872,955.00,74.30,47.00,37.75,270.00,7.00,0.00,30.05,1013.20,10.00,M,BKN,BKN,M,M,10000.00,15000.00,M,M,M,M,M,M,M,M,M,74.30,KINS 181458Z AUTO 27007KT 10SM BKN100 BKN150 24/08 A3005 RMK AO2 SLP132 T02350083 52010 $,M
CXP,2021-09-18 15:15,-119.7326,39.1923,1431.00,64.40,17.60,16.26,0.00,0.00,0.00,30.08,M,10.00,M,CLR,M,M,M,M,M,M,M,M,M,M,M,M,M,M,64.40,KCXP 181515Z AUTO 00000KT 10SM CLR 18/M08 A3008 RMK AO2,M
BVU,2021-09-18 15:15,-114.8611,35.9475,671.00,80.60,51.80,36.79,150.00,5.00,0.00,30.00,M,10.00,M,CLR,M,M,M,M,M,M,M,M,M,M,M,M,M,M,80.08,KBVU 181515Z AUTO 15005KT 10SM CLR 27/11 A3000 RMK AO2 LTG DSNT NE,M
RTS,2021-09-18 15:15,-119.8764,39.6682,1539.00,64.40,24.80,22.06,330.00,5.00,0.00,30.09,M,10.00,M,CLR,M,M,M,M,M,M,M,M,M,M,M,M,M,M,64.40,KRTS 181515Z AUTO 33005KT 10SM CLR 18/M04 A3009 RMK AO2,M
MEV,2021-09-18 15:15,-119.7500,38.9963,1441.42,68.00,14.00,12.27,270.00,3.00,0.00,30.07,M,10.00,M,CLR,M,M,M,M,M,M,M,M,M,M,M,M,M,M,68.00,KMEV 181515Z AUTO 27003KT 10SM CLR 20/M10 A3007 RMK AO2,M
TMT,2021-09-18 15:15,-117.1971,39.4643,1749.34,55.80,38.70,52.52,230.00,6.00,0.00,30.13,M,10.00,M,CLR,M,M,M,M,M,M,M,M,M,M,M,M,M,M,55.80,KTMT 181515Z AUTO 23006KT 10SM CLR 13/04 A3013 RMK AO2 T01320037,M
BAM,2021-09-18 15:15,-116.8743,40.5990,1382.36,62.60,32.00,31.56,0.00,0.00,0.00,30.04,M,10.00,M,CLR,M,M,M,M,M,M,M,M,M,M,M,M,M,M,62.60,KBAM 181515Z AUTO 00000KT 10SM CLR 17/00 A3004 RMK AO1,M
HTH,2021-09-18 15:15,-118.6315,38.5448,1282.89,69.80,26.60,19.72,0.00,0.00,0.00,30.05,M,7.00,M,CLR,M,M,M,M,M,M,M,M,M,M,M,M,M,M,69.80,KHTH 181515Z AUTO 00000KT 7SM CLR 21/M03 A3005 RMK A01,M
BVU,2021-09-18 15:35,-114.8611,35.9475,671.00,82.40,53.60,37.07,0.00,0.00,0.00,30.00,M,10.00,M,CLR,M,M,M,M,M,M,M,M,M,M,M,M,M,M,81.46,KBVU 181535Z AUTO 00000KT 10SM CLR 28/12 A3000 RMK AO2,M
CXP,2021-09-18 15:35,-119.7326,39.1923,1431.00,68.00,15.80,13.27,200.00,6.00,0.00,30.07,M,10.00,M,CLR,M,M,M,M,M,M,M,M,M,M,M,M,M,M,68.00,KCXP 181535Z AUTO 20006KT 10SM CLR 20/M09 A3007 RMK AO2,M
RTS,2021-09-18 15:35,-119.8764,39.6682,1539.00,64.40,24.80,22.06,M,3.00,0.00,30.09,M,10.00,M,CLR,M,M,M,M,M,M,M,M,M,M,M,M,M,M,64.40,KRTS 181535Z AUTO VRB03KT 10SM CLR 18/M04 A3009 RMK AO2,M
MEV,2021-09-18 15:35,-119.7500,38.9963,1441.42,69.80,14.00,11.54,M,3.00,0.00,30.07,M,10.00,M,CLR,M,M,M,M,M,M,M,M,M,M,M,M,M,M,69.80,KMEV 181535Z AUTO VRB03KT 10SM CLR 21/M10 A3007 RMK AO2,M
BAM,2021-09-18 15:35,-116.8743,40.5990,1382.36,60.80,32.00,33.64,0.00,0.00,0.00,30.04,M,10.00,M,CLR,M,M,M,M,M,M,M,M,M,M,M,M,M,M,60.80,KBAM 181535Z AUTO 00000KT 10SM CLR 16/00 A3004 RMK AO1,M
HTH,2021-09-18 15:35,-118.6315,38.5448,1282.89,69.80,28.40,21.24,10.00,5.00,0.00,30.05,M,7.00,M,CLR,M,M,M,M,M,M,M,M,M,M,M,M,M,M,69.80,KHTH 181535Z AUTO 01005KT 7SM CLR 21/M02 A3005 RMK A01,M
TMT,2021-09-18 15:35,-117.1971,39.4643,1749.34,58.00,38.70,48.33,250.00,5.00,0.00,30.13,M,10.00,M,CLR,M,M,M,M,M,M,M,M,M,M,M,M,M,M,58.10,KTMT 181535Z AUTO 25005KT 10SM CLR 15/04 A3013 RMK AO2 T01450037,M
VGT,2021-09-18 15:53,-115.1933,36.2111,667.00,83.00,50.00,31.93,100.00,5.00,0.00,29.99,1014.60,10.00,M,CLR,M,M,M,M,M,M,M,M,M,M,M,M,M,M,81.32,KVGT 181553Z 10005KT 10SM CLR 28/10 A2999 RMK AO2 SLP146 T02830100,M
DRA,2021-09-18 15:53,-116.0278,36.6206,1009.00,72.00,53.00,51.37,90.00,5.00,T,30.06,1013.60,10.00,M,CLR,M,M,M,M,M,M,M,M,M,M,M,M,M,M,72.00,KDRA 181553Z AUTO 09005KT 10SM CLR 22/12 A3006 RMK AO2 RAB20E36 SLP136 P0000 T02220117,M
ELY,2021-09-18 15:53,-114.8453,39.2950,1909.00,62.00,49.00,61.91,220.00,10.00,0.05,30.20,1014.10,10.00,M,BKN,M,M,M,6500.00,M,M,M,M,M,M,M,M,M,M,62.10,KELY 181553Z AUTO 22010KT 10SM BKN065 17/09 A3020 RMK AO2 LTG DSNT NE RAB00E22 SLP141 P0005 T01670094,M
LOL,2021-09-18 15:53,-118.5701,40.0684,1192.43,62.00,26.10,25.24,0.00,0.00,0.00,30.01,1013.70,10.00,M,CLR,M,M,M,M,M,M,M,M,M,M,M,M,M,M,62.10,KLOL 181553Z AUTO 00000KT 10SM CLR 17/M03 A3001 RMK AO2 SLP137 T01671033,M
P68,2021-09-18 15:53,-116.0056,39.6014,1993.00,68.00,36.00,30.69,210.00,14.00,0.00,30.13,1012.30,M,21.00,M,M,M,M,M,M,M,M,M,M,M,M,27.00,230.00,2021-09-18 15:25,68.00,KP68 181553Z AUTO 21014G21KT 20/02 A3013 RMK AO1 PK WND 23027/1525 SLP123 T02000022,M
CXP,2021-09-18 15:55,-119.7326,39.1923,1431.00,69.80,12.20,10.66,210.00,8.00,0.00,30.08,M,10.00,M,CLR,M,M,M,M,M,M,M,M,M,M,M,M,M,M,69.80,KCXP 181555Z AUTO 21008KT 10SM CLR 21/M11 A3008 RMK AO2,M
TMT,2021-09-18 15:55,-117.1971,39.4643,1749.34,59.70,38.00,44.58,240.00,6.00,0.00,30.13,M,10.00,M,CLR,M,M,M,M,M,M,M,M,M,M,M,M,M,M,59.70,KTMT 181555Z AUTO 24006KT 10SM CLR 15/03 A3013 RMK AO2 T01540034,M
RTS,2021-09-18 15:55,-119.8764,39.6682,1539.00,68.00,23.00,18.06,220.00,8.00,0.00,30.07,M,10.00,M,CLR,M,M,M,M,M,M,M,M,M,M,M,M,M,M,68.00,KRTS 181555Z AUTO 22008KT 10SM CLR 20/M05 A3007 RMK AO2,M
MEV,2021-09-18 15:55,-119.7500,38.9963,1441.42,69.80,14.00,11.54,M,4.00,0.00,30.08,M,10.00,M,CLR,M,M,M,M,M,M,M,M,M,M,M,M,M,M,69.80,KMEV 181555Z AUTO VRB04KT 10SM CLR 21/M10 A3008 RMK AO2,M
BAM,2021-09-18 15:55,-116.8743,40.5990,1382.36,60.80,32.00,33.64,20.00,3.00,0.00,30.04,M,10.00,M,CLR,M,M,M,M,M,M,M,M,M,M,M,M,M,M,60.80,KBAM 181555Z AUTO 02003KT 10SM CLR 16/00 A3004 RMK AO1,M
HTH,2021-09-18 15:55,-118.6315,38.5448,1282.89,73.40,24.80,16.20,190.00,12.00,0.00,30.04,M,9.00,M,CLR,M,M,M,M,M,M,M,M,M,M,M,M,M,M,73.40,KHTH 181555Z AUTO 19012KT 9SM CLR 23/M04 A3004 RMK A01,M
RNO,2021-09-18 15:55,-119.7711,39.4839,1341.00,64.00,32.00,30.05,30.00,3.00,0.00,30.03,1012.10,10.00,M,FEW,FEW,FEW,M,15000.00,20000.00,25000.00,M,M,M,M,M,M,M,M,64.00,KRNO 181555Z 03003KT 10SM FEW150 FEW200 FEW250 18/00 A3003 RMK AO2 SLP121 ACSL DSNT N AND SW THRU NW FU ALF AND HZ ALQDS T01780000,M
BVU,2021-09-18 15:55,-114.8611,35.9475,671.00,82.40,53.60,37.07,0.00,0.00,0.00,30.01,M,10.00,M,CLR,M,M,M,M,M,M,M,M,M,M,M,M,M,M,81.46,KBVU 181555Z AUTO 00000KT 10SM CLR 28/12 A3001 RMK AO2,M
WMC,2021-09-18 15:56,-117.8072,40.9019,1315.00,63.00,24.10,22.50,250.00,6.00,0.00,30.00,1011.40,10.00,M,CLR,M,M,M,M,M,M,M,M,M,M,M,M,M,M,63.00,KWMC 181556Z AUTO 25006KT 10SM CLR 17/M04 A3000 RMK AO2 SLP114 T01721044 $,M
HND,2021-09-18 15:56,-115.1344,35.9729,742.79,85.00,51.00,31.19,230.00,10.00,0.00,30.03,1015.50,10.00,M,CLR,M,M,M,M,M,M,M,M,M,M,M,M,M,M,82.90,KHND 181556Z 23010KT 10SM CLR 29/11 A3003 RMK AO2 SLP155 T02940106,M
NFL,2021-09-18 15:56,-118.7010,39.4166,1199.00,70.00,27.00,19.92,140.00,7.00,0.00,30.01,1013.40,5.00,M,CLR,M,M,M,M,M,M,M,HZ,M,M,M,M,M,M,70.00,KNFL 181556Z AUTO 14007KT 5SM HZ CLR 21/M03 A3001 RMK AO2 SLP134 T02111028,M
EKO,2021-09-18 15:56,-115.7860,40.8242,1367.00,71.00,39.00,31.05,170.00,6.00,0.00,30.05,1011.70,10.00,M,CLR,M,M,M,M,M,M,M,M,M,M,M,M,M,M,71.10,KEKO 181556Z AUTO 17006KT 10SM CLR 22/04 A3005 RMK AO2 SLP117 T02170039,M
LAS,2021-09-18 15:56,-115.1634,36.0719,663.00,83.00,49.00,30.65,0.00,0.00,0.00,30.00,1013.50,10.00,M,FEW,M,M,M,12000.00,M,M,M,M,M,M,M,M,M,M,81.20,KLAS 181556Z 00000KT 10SM FEW120 28/09 A3000 RMK AO2 SLP135 T02830094,M
TPH,2021-09-18 15:56,-117.0904,38.0505,1654.00,70.00,38.00,30.88,190.00,15.00,0.00,30.15,1013.80,10.00,M,CLR,M,M,M,M,M,M,M,M,M,M,M,M,M,M,70.00,KTPH 181556Z AUTO 19015KT 10SM CLR 21/03 A3015 RMK AO2 SLP138 T02110033,M
INS,2021-09-18 15:58,-115.6733,36.5872,955.00,76.50,45.00,32.76,320.00,10.00,0.00,30.06,1013.30,10.00,M,FEW,SCT,M,M,10000.00,13000.00,M,M,M,M,M,M,M,M,M,76.50,KINS 181558Z AUTO 32010KT 10SM FEW100 SCT130 25/07 A3006 RMK AO2 SLP133 T02470073 $,M
LSV,2021-09-18 15:58,-115.0343,36.2362,570.00,83.00,51.60,33.89,0.00,0.00,0.00,29.98,1012.90,10.00,M,CLR,M,M,M,M,M,M,M,M,M,M,M,M,M,M,81.52,KLSV 181558Z AUTO 00000KT 10SM CLR 28/11 A2998 RMK AO2 SLP129 T02830109 $,M
HND,2021-09-18 16:12,-115.1344,35.9729,742.79,86.00,50.00,28.90,220.00,11.00,0.00,30.03,M,10.00,M,CLR,M,M,M,M,M,M,M,M,M,M,M,M,M,M,83.62,KHND 181612Z 22011KT 10SM CLR 30/10 A3003 RMK AO2 WSHFT 1552,M
CXP,2021-09-18 16:15,-119.7326,39.1923,1431.00,71.60,10.40,9.25,200.00,7.00,0.00,30.07,M,10.00,17.00,CLR,M,M,M,M,M,M,M,M,M,M,M,M,M,M,71.60,KCXP 181615Z AUTO 20007G17KT 160V220 10SM CLR 22/M12 A3007 RMK AO2,M
BAM,2021-09-18 16:15,-116.8743,40.5990,1382.36,64.40,33.80,31.85,0.00,0.00,0.00,30.04,M,10.00,M,CLR,M,M,M,M,M,M,M,M,M,M,M,M,M,M,64.40,KBAM 181615Z AUTO 00000KT 10SM CLR 18/01 A3004 RMK AO1,M
TMT,2021-09-18 16:15,-117.1971,39.4643,1749.34,61.00,38.80,43.75,250.00,5.00,0.00,30.14,M,10.00,M,CLR,M,M,M,M,M,M,M,M,M,M,M,M,M,M,61.00,KTMT 181615Z AUTO 25005KT 10SM CLR 16/04 A3014 RMK AO2 T01610038,M
BVU,2021-09-18 16:15,-114.8611,35.9475,671.00,82.40,55.40,39.58,100.00,6.00,0.00,30.01,M,10.00,M,CLR,M,M,M,M,M,M,M,M,M,M,M,M,M,M,81.75,KBVU 181615Z AUTO 10006KT 10SM CLR 28/13 A3001 RMK AO2,M
MEV,2021-09-18 16:15,-119.7500,38.9963,1441.42,71.60,14.00,10.85,0.00,0.00,0.00,30.06,M,10.00,M,CLR,M,M,M,M,M,M,M,M,M,M,M,M,M,M,71.60,KMEV 181615Z AUTO 00000KT 10SM CLR 22/M10 A3006 RMK AO2,M
RTS,2021-09-18 16:15,-119.8764,39.6682,1539.00,68.00,21.20,16.74,210.00,19.00,0.00,30.07,M,10.00,27.00,CLR,M,M,M,M,M,M,M,M,M,M,M,M,M,M,68.00,KRTS 181615Z AUTO 21019G27KT 10SM CLR 20/M06 A3007 RMK AO2,M
HTH,2021-09-18 16:15,-118.6315,38.5448,1282.89,75.20,24.80,15.25,200.00,13.00,0.00,30.04,M,9.00,M,M,M,M,M,M,M,M,M,M,M,M,M,M,M,M,75.20,KHTH 181615Z AUTO 20013KT 9SM 24/M04 A3004 RMK A01,M
HTH,2021-09-18 16:35,-118.6315,38.5448,1282.89,77.00,24.80,14.37,210.00,9.00,0.00,30.04,M,10.00,14.00,CLR,M,M,M,M,M,M,M,M,M,M,M,M,M,M,77.00,KHTH 181635Z AUTO 21009G14KT 10SM CLR 25/M04 A3004 RMK A01,M
CXP,2021-09-18 16:35,-119.7326,39.1923,1431.00,73.40,5.00,6.82,200.00,12.00,0.00,30.07,M,10.00,20.00,CLR,M,M,M,M,M,M,M,M,M,M,M,M,M,M,73.40,KCXP 181635Z AUTO 20012G20KT 160V220 10SM CLR 23/M15 A3007 RMK AO2,M
TMT,2021-09-18 16:35,-117.1971,39.4643,1749.34,65.70,36.00,33.36,220.00,10.00,0.00,30.14,M,10.00,M,CLR,M,M,M,M,M,M,M,M,M,M,M,M,M,M,65.70,KTMT 181635Z AUTO 22010KT 10SM CLR 19/02 A3014 RMK AO2 T01870023,M
BVU,2021-09-18 16:35,-114.8611,35.9475,671.00,84.20,55.40,37.35,100.00,14.00,0.00,30.02,M,10.00,M,CLR,M,M,M,M,M,M,M,M,M,M,M,M,M,M,83.09,KBVU 181635Z AUTO 10014KT 10SM CLR 29/13 A3002 RMK AO2,M
BAM,2021-09-18 16:35,-116.8743,40.5990,1382.36,69.80,35.60,28.39,260.00,5.00,0.00,30.04,M,10.00,M,CLR,M,M,M,M,M,M,M,M,M,M,M,M,M,M,69.80,KBAM 181635Z AUTO 26005KT 10SM CLR 21/02 A3004 RMK AO1,M
MEV,2021-09-18 16:35,-119.7500,38.9963,1441.42,73.40,17.60,11.94,180.00,12.00,0.00,30.06,M,9.00,20.00,CLR,M,M,M,M,M,M,M,M,M,M,M,M,M,M,73.40,KMEV 181635Z AUTO 18012G20KT 9SM CLR 23/M08 A3006 RMK AO2,M
RTS,2021-09-18 16:35,-119.8764,39.6682,1539.00,68.00,23.00,18.06,250.00,14.00,0.00,30.07,M,10.00,21.00,CLR,M,M,M,M,M,M,M,M,M,M,M,M,M,M,68.00,KRTS 181635Z AUTO 25014G21KT 10SM CLR 20/M05 A3007 RMK AO2,M
CXP,2021-09-18 16:50,-119.7326,39.1923,1431.00,73.40,8.60,8.03,210.00,10.00,0.00,30.07,M,10.00,20.00,CLR,M,M,M,M,M,M,M,M,M,M,M,M,M,M,73.40,KCXP 181650Z AUTO 21010G20KT 10SM CLR 23/M13 A3007 RMK AO2,M
ELY,2021-09-18 16:53,-114.8453,39.2950,1909.00,67.00,48.00,50.62,180.00,12.00,0.00,30.20,1013.60,10.00,M,CLR,M,M,M,M,M,M,M,M,M,M,M,M,M,M,66.90,KELY 181653Z AUTO 18012KT 10SM CLR 19/09 A3020 RMK AO2 SLP136 T01940089,M
VGT,2021-09-18 16:53,-115.1933,36.2111,667.00,85.00,51.00,31.19,100.00,6.00,0.00,30.00,1015.00,10.00,M,CLR,M,M,M,M,M,M,M,M,M,M,M,M,M,M,82.90,KVGT 181653Z 10006KT 10SM CLR 29/11 A3000 RMK AO2 SLP150 T02940106,M
P68,2021-09-18 16:53,-116.0056,39.6014,1993.00,69.00,33.00,26.32,220.00,11.00,0.00,30.14,1012.80,M,23.00,M,M,M,M,M,M,M,M,M,M,M,M,M,M,M,69.10,KP68 181653Z AUTO 22011G23KT 21/01 A3014 RMK AO1 SLP128 T02060006,M
DRA,2021-09-18 16:53,-116.0278,36.6206,1009.00,82.00,45.00,27.24,M,4.00,0.00,30.06,1013.30,10.00,M,CLR,M,M,M,M,M,M,M,M,M,M,M,M,M,M,80.28,KDRA 181653Z AUTO VRB04KT 10SM CLR 28/07 A3006 RMK AO2 SLP133 T02780072,M
LOL,2021-09-18 16:53,-118.5701,40.0684,1192.43,75.00,25.00,15.48,180.00,13.00,0.00,29.99,1012.40,10.00,M,CLR,M,M,M,M,M,M,M,M,M,M,M,M,M,M,75.00,KLOL 181653Z AUTO 18013KT 10SM CLR 24/M04 A2999 RMK AO2 SLP124 T02391039,M
RNO,2021-09-18 16:55,-119.7711,39.4839,1341.00,74.00,23.00,14.77,210.00,10.00,0.00,30.02,1011.20,10.00,M,FEW,SCT,SCT,M,15000.00,20000.00,25000.00,M,M,M,M,M,M,M,M,73.90,KRNO 181655Z 21010KT 10SM FEW150 SCT200 SCT250 23/M05 A3002 RMK AO2 SLP112 ACSL ALQDS HZ VC ALQDS T02331050,M
RTS,2021-09-18 16:55,-119.8764,39.6682,1539.00,69.80,21.20,15.73,210.00,11.00,0.00,30.07,M,10.00,17.00,CLR,M,M,M,M,M,M,M,M,M,M,M,M,M,M,69.80,KRTS 181655Z AUTO 21011G17KT 10SM CLR 21/M06 A3007 RMK AO2,M
MEV,2021-09-18 16:55,-119.7500,38.9963,1441.42,73.40,17.60,11.94,210.00,8.00,0.00,30.06,M,10.00,M,CLR,M,M,M,M,M,M,M,M,M,M,M,M,M,M,73.40,KMEV 181655Z AUTO 21008KT 160V230 10SM CLR 23/M08 A3006 RMK AO2,M
BAM,2021-09-18 16:55,-116.8743,40.5990,1382.36,71.60,35.60,26.71,0.00,0.00,0.00,30.04,M,10.00,M,CLR,M,M,M,M,M,M,M,M,M,M,M,M,M,M,71.60,KBAM 181655Z AUTO 00000KT 10SM CLR 22/02 A3004 RMK AO1,M
HTH,2021-09-18 16:55,-118.6315,38.5448,1282.89,77.00,24.80,14.37,130.00,7.00,0.00,30.04,M,9.00,M,CLR,M,M,M,M,M,M,M,M,M,M,M,M,M,M,77.00,KHTH 181655Z AUTO 13007KT 9SM CLR 25/M04 A3004 RMK A01,M
TMT,2021-09-18 16:55,-117.1971,39.4643,1749.34,68.00,33.00,27.34,210.00,13.00,0.00,30.13,M,10.00,17.00,CLR,M,M,M,M,M,M,M,M,M,M,M,M,M,M,68.00,KTMT 181655Z AUTO 21013G17KT 10SM CLR 20/01 A3013 RMK AO2 T02000006,M
BVU,2021-09-18 16:55,-114.8611,35.9475,671.00,84.20,53.60,34.97,120.00,9.00,0.00,30.02,M,10.00,15.00,CLR,M,M,M,M,M,M,M,M,M,M,M,M,M,M,82.76,KBVU 181655Z AUTO 12009G15KT 10SM CLR 29/12 A3002 RMK AO2,M
TPH,2021-09-18 16:56,-117.0904,38.0505,1654.00,73.00,36.00,25.88,180.00,15.00,0.00,30.15,1013.90,10.00,24.00,CLR,M,M,M,M,M,M,M,M,M,M,M,M,M,M,73.00,KTPH 181656Z AUTO 18015G24KT 10SM CLR 23/02 A3015 RMK AO2 SLP139 T02280022,M
WMC,2021-09-18 16:56,-117.8072,40.9019,1315.00,74.00,25.00,16.06,M,3.00,0.00,29.98,1011.00,10.00,M,CLR,M,M,M,M,M,M,M,M,M,M,M,M,M,M,73.90,KWMC 181656Z AUTO VRB03KT 10SM CLR 23/M04 A2998 RMK AO2 SLP110 T02331039 $,M
NFL,2021-09-18 16:56,-118.7010,39.4166,1199.00,76.00,27.00,16.32,M,5.00,0.00,30.01,1013.30,5.00,M,FEW,FEW,M,M,12000.00,25000.00,M,M,FU,M,M,M,M,M,M,75.90,KNFL 181656Z VRB05KT 5SM FU FEW120 FEW250 24/M03 A3001 RMK AO2 SLP133 FU ALQDS T02441028,M
EKO,2021-09-18 16:56,-115.7860,40.8242,1367.00,77.00,35.00,21.85,230.00,19.00,0.00,30.04,1010.90,10.00,28.00,CLR,M,M,M,M,M,M,M,M,M,M,M,28.00,230.00,2021-09-18 16:56,77.00,KEKO 181656Z AUTO 23019G28KT 10SM CLR 25/02 A3004 RMK AO2 PK WND 23028/1656 SLP109 T02500017,M
LAS,2021-09-18 16:56,-115.1634,36.0719,663.00,85.00,51.00,31.19,60.00,9.00,0.00,30.02,1014.00,10.00,M,FEW,BKN,M,M,12000.00,16000.00,M,M,M,M,M,M,M,M,M,82.90,KLAS 181656Z 06009KT 10SM FEW120 BKN160 29/11 A3002 RMK AO2 SLP140 T02940106,M
HND,2021-09-18 16:56,-115.1344,35.9729,742.79,86.00,50.00,28.90,210.00,12.00,0.00,30.04,1016.20,10.00,M,BKN,M,M,M,12000.00,M,M,M,M,M,M,M,M,M,M,83.62,KHND 181656Z 21012KT 10SM BKN120 30/10 A3004 RMK AO2 WSHFT 1552 SLP162 T03000100,M
INS,2021-09-18 16:58,-115.6733,36.5872,955.00,83.00,43.50,24.99,0.00,0.00,0.00,30.05,1013.00,10.00,M,SCT,BKN,M,M,13000.00,15000.00,M,M,M,M,M,M,M,M,M,80.76,KINS 181658Z AUTO 00000KT 10SM SCT130 BKN150 28/06 A3005 RMK AO2 SLP130 T02830064 $,M
LSV,2021-09-18 16:58,-115.0343,36.2362,570.00,85.30,51.30,31.02,100.00,4.00,0.00,30.00,1013.50,10.00,M,FEW,M,M,M,13000.00,M,M,M,M,M,M,M,M,M,M,83.24,KLSV 181658Z AUTO 10004KT 10SM FEW130 30/11 A3000 RMK AO2 SLP135 T02960107 $,M
HTH,2021-09-18 17:15,-118.6315,38.5448,1282.89,77.00,26.60,15.48,70.00,9.00,0.00,30.03,M,8.00,M,CLR,M,M,M,M,M,M,M,M,M,M,M,M,M,M,77.00,KHTH 181715Z AUTO 07009KT 8SM CLR 25/M03 A3003 RMK A01,M
BVU,2021-09-18 17:15,-114.8611,35.9475,671.00,86.00,55.40,35.25,130.00,7.00,0.00,30.03,M,10.00,12.00,CLR,M,M,M,M,M,M,M,M,M,M,M,M,M,M,84.54,KBVU 181715Z AUTO 13007G12KT 10SM CLR 30/13 A3003 RMK AO2,M
BAM,2021-09-18 17:15,-116.8743,40.5990,1382.36,75.20,33.80,22.02,240.00,12.00,0.00,30.03,M,10.00,16.00,CLR,M,M,M,M,M,M,M,M,M,M,M,M,M,M,75.20,KBAM 181715Z AUTO 24012G16KT 10SM CLR 24/01 A3003 RMK AO1,M
MEV,2021-09-18 17:15,-119.7500,38.9963,1441.42,75.20,21.20,13.11,190.00,17.00,0.00,30.06,M,10.00,22.00,CLR,M,M,M,M,M,M,M,M,M,M,M,M,M,M,75.20,KMEV 181715Z AUTO 19017G22KT 10SM CLR 24/M06 A3006 RMK AO2,M
RTS,2021-09-18 17:15,-119.8764,39.6682,1539.00,69.80,23.00,16.98,230.00,10.00,0.00,30.08,M,10.00,19.00,CLR,M,M,M,M,M,M,M,M,M,M,M,M,M,M,69.80,KRTS 181715Z AUTO 23010G19KT 10SM CLR 21/M05 A3008 RMK AO2,M
CXP,2021-09-18 17:15,-119.7326,39.1923,1431.00,73.40,10.40,8.71,200.00,12.00,0.00,30.06,M,10.00,19.00,CLR,M,M,M,M,M,M,M,M,M,M,M,M,M,M,73.40,KCXP 181715Z AUTO 20012G19KT 180V240 10SM CLR 23/M12 A3006 RMK AO2,M
TMT,2021-09-18 17:15,-117.1971,39.4643,1749.34,69.40,32.00,24.93,220.00,14.00,0.00,30.14,M,10.00,18.00,CLR,M,M,M,M,M,M,M,M,M,M,M,M,M,M,69.40,KTMT 181715Z AUTO 22014G18KT 10SM CLR 21/00 A3014 RMK AO2 T02080000,M
ELY,2021-09-18 17:31,-114.8453,39.2950,1909.00,66.00,45.00,46.62,210.00,16.00,0.00,30.20,M,10.00,34.00,FEW,SCT,M,M,5500.00,9500.00,M,M,M,M,M,M,34.00,240.00,2021-09-18 17:29,66.00,KELY 181731Z AUTO 21016G34KT 10SM FEW055 SCT095 19/07 A3020 RMK AO2 PK WND 24034/1729 WSHFT 1711 T01890072,M
HTH,2021-09-18 17:35,-118.6315,38.5448,1282.89,78.80,23.00,12.55,150.00,8.00,0.00,30.03,M,6.00,M,CLR,M,M,M,M,M,M,M,HZ,M,M,M,M,M,M,78.80,KHTH 181735Z AUTO 15008KT 6SM HZ CLR 26/M05 A3003 RMK A01,M
CXP,2021-09-18 17:35,-119.7326,39.1923,1431.00,75.20,14.00,9.61,200.00,7.00,0.00,30.07,M,10.00,21.00,CLR,M,M,M,M,M,M,M,M,M,M,M,M,M,M,75.20,KCXP 181735Z AUTO 20007G21KT 180V240 10SM CLR 24/M10 A3007 RMK AO2,M
RTS,2021-09-18 17:35,-119.8764,39.6682,1539.00,71.60,21.20,14.80,240.00,23.00,0.00,30.07,M,9.00,31.00,CLR,M,M,M,M,M,M,M,M,M,M,M,M,M,M,71.60,KRTS 181735Z AUTO 24023G31KT 9SM CLR 22/M06 A3007 RMK AO2,M
BAM,2021-09-18 17:35,-116.8743,40.5990,1382.36,77.00,32.00,19.30,230.00,11.00,0.00,30.03,M,10.00,M,CLR,M,M,M,M,M,M,M,M,M,M,M,M,M,M,77.00,KBAM 181735Z AUTO 23011KT 10SM CLR 25/00 A3003 RMK AO1,M
BVU,2021-09-18 17:35,-114.8611,35.9475,671.00,86.00,55.40,35.25,130.00,11.00,0.00,30.03,M,10.00,M,CLR,M,M,M,M,M,M,M,M,M,M,M,M,M,M,84.54,KBVU 181735Z AUTO 13011KT 10SM CLR 30/13 A3003 RMK AO2,M
TMT,2021-09-18 17:35,-117.1971,39.4643,1749.34,70.20,31.50,23.77,210.00,13.00,0.00,30.13,M,10.00,19.00,CLR,M,M,M,M,M,M,M,M,M,M,M,M,M,M,70.20,KTMT 181735Z AUTO 21013G19KT 10SM CLR 21/00 A3013 RMK AO2 T02121003,M
MEV,2021-09-18 17:35,-119.7500,38.9963,1441.42,77.00,19.40,11.44,180.00,13.00,0.00,30.06,M,10.00,20.00,CLR,M,M,M,M,M,M,M,M,M,M,M,M,M,M,77.00,KMEV 181735Z AUTO 18013G20KT 10SM CLR 25/M07 A3006 RMK AO2,M
LOL,2021-09-18 17:53,-118.5701,40.0684,1192.43,80.00,19.90,10.55,200.00,21.00,0.00,29.98,1011.70,10.00,24.00,CLR,M,M,M,M,M,M,M,M,M,M,M,M,M,M,78.09,KLOL 181753Z AUTO 20021G24KT 10SM CLR 27/M07 A2998 RMK AO2 SLP117 T02671067 10267 20039 58008,M
ELY,2021-09-18 17:53,-114.8453,39.2950,1909.00,67.00,45.00,45.19,200.00,18.00,T,30.20,1014.10,10.00,23.00,FEW,SCT,M,M,9500.00,11000.00,M,M,VCTS,M,M,M,34.00,240.00,2021-09-18 17:29,66.90,KELY 181753Z AUTO 20018G23KT 10SM VCTS FEW095 SCT110 19/07 A3020 RMK AO2 PK WND 24034/1729 WSHFT 1711 RAB41E50 SLP141 P0000 60005 T01940072 10200 20117 56004,M
P68,2021-09-18 17:53,-116.0056,39.6014,1993.00,73.00,30.00,20.34,190.00,15.00,0.00,30.12,1011.50,M,24.00,M,M,M,M,M,M,M,M,M,M,M,M,27.00,190.00,2021-09-18 16:55,73.00,KP68 181753Z AUTO 19015G24KT 23/M01 A3012 RMK AO1 PK WND 19027/1655 SLP115 T02281011 10228 20128 58008,M
DRA,2021-09-18 17:53,-116.0278,36.6206,1009.00,84.00,36.00,18.01,190.00,16.00,0.00,30.06,1013.30,10.00,26.00,CLR,M,M,M,M,M,M,M,M,M,M,M,26.00,190.00,2021-09-18 17:39,81.20,KDRA 181753Z AUTO 19016G26KT 10SM CLR 29/02 A3006 RMK AO2 PK WND 19026/1739 SLP133 60000 T02890022 10289 20178 56006,M
VGT,2021-09-18 17:53,-115.1933,36.2111,667.00,89.00,52.00,28.21,120.00,10.00,0.00,29.99,1014.70,10.00,M,CLR,M,M,M,M,M,M,M,M,M,M,M,M,M,M,86.58,KVGT 181753Z 12010KT 10SM CLR 32/11 A2999 RMK AO2 SLP147 T03170111 10317 20239 50004,M
MEV,2021-09-18 17:55,-119.7500,38.9963,1441.42,77.00,19.40,11.44,240.00,14.00,0.00,30.06,M,10.00,M,CLR,M,M,M,M,M,M,M,M,M,M,M,M,M,M,77.00,KMEV 181755Z AUTO 24014KT 10SM CLR 25/M07 A3006 RMK AO2,M
RNO,2021-09-18 17:55,-119.7711,39.4839,1341.00,77.00,21.00,12.24,190.00,16.00,0.00,30.02,1011.20,10.00,26.00,FEW,SCT,SCT,M,15000.00,20000.00,25000.00,M,M,M,M,M,28.00,180.00,2021-09-18 17:10,77.00,KRNO 181755Z 19016G26KT 10SM FEW150 SCT200 SCT250 25/M06 A3002 RMK AO2 PK WND 18028/1710 SLP112 ACSL ALQDS APRNT ROTOR CLD W THRU S T02501061 10250 20122 55008,M
HTH,2021-09-18 17:55,-118.6315,38.5448,1282.89,80.60,21.20,10.97,130.00,15.00,0.00,30.02,M,5.00,M,CLR,M,M,M,M,M,M,M,HZ,M,M,M,M,M,M,78.68,KHTH 181755Z AUTO 13015KT 5SM HZ CLR 27/M06 A3002 RMK A01,M
CXP,2021-09-18 17:55,-119.7326,39.1923,1431.00,75.20,17.60,11.24,220.00,14.00,0.00,30.07,M,10.00,22.00,CLR,M,M,M,M,M,M,M,M,M,M,M,M,M,M,75.20,KCXP 181755Z AUTO 22014G22KT 190V250 10SM CLR 24/M08 A3007 RMK AO2,M
BAM,2021-09-18 17:55,-116.8743,40.5990,1382.36,78.80,32.00,18.18,240.00,11.00,0.00,30.03,M,10.00,M,CLR,M,M,M,M,M,M,M,M,M,M,M,M,M,M,78.80,KBAM 181755Z AUTO 24011KT 10SM CLR 26/00 A3003 RMK AO1,M
RTS,2021-09-18 17:55,-119.8764,39.6682,1539.00,71.60,21.20,14.80,250.00,19.00,0.00,30.07,M,10.00,M,CLR,M,M,M,M,M,M,M,M,M,M,M,M,M,M,71.60,KRTS 181755Z AUTO 25019KT 10SM CLR 22/M06 A3007 RMK AO2,M
TMT,2021-09-18 17:55,-117.1971,39.4643,1749.34,72.50,32.00,22.43,250.00,10.00,0.00,30.13,M,10.00,14.00,CLR,M,M,M,M,M,M,M,M,M,M,M,M,M,M,72.50,KTMT 181755Z AUTO 25010G14KT 10SM CLR 23/00 A3013 RMK AO2 T02250000 10225 20096,M
BVU,2021-09-18 17:55,-114.8611,35.9475,671.00,86.00,53.60,33.01,130.00,12.00,0.00,30.03,M,10.00,M,FEW,M,M,M,12000.00,M,M,M,M,M,M,M,M,M,M,84.18,KBVU 181755Z AUTO 13012KT 10SM FEW120 30/12 A3003 RMK AO2,M
EKO,2021-09-18 17:56,-115.7860,40.8242,1367.00,74.00,36.00,25.11,230.00,14.00,0.00,30.04,1011.60,10.00,26.00,CLR,M,M,M,M,M,M,M,M,M,M,M,26.00,220.00,2021-09-18 16:57,73.90,KEKO 181756Z AUTO 23014G26KT 10SM CLR 23/02 A3004 RMK AO2 PK WND 22026/1657 SLP116 T02330022 10250 20139 55007,M
TPH,2021-09-18 17:56,-117.0904,38.0505,1654.00,77.00,24.10,13.95,200.00,12.00,0.00,30.14,1013.40,10.00,25.00,CLR,M,M,M,M,M,M,M,M,M,M,M,26.00,190.00,2021-09-18 17:44,77.00,KTPH 181756Z AUTO 20012G25KT 10SM CLR 25/M04 A3014 RMK AO2 PK WND 19026/1744 SLP134 T02501044 10256 20133 58004,M
WMC,2021-09-18 17:56,-117.8072,40.9019,1315.00,81.00,19.90,10.24,220.00,16.00,0.00,29.96,1010.20,10.00,23.00,CLR,M,M,M,M,M,M,M,M,M,M,M,26.00,220.00,2021-09-18 17:36,78.56,KWMC 181756Z AUTO 22016G23KT 180V250 10SM CLR 27/M07 A2996 RMK AO2 PK WND 22026/1736 SLP102 T02721067 10272 20039 58012 $,M
NFL,2021-09-18 17:56,-118.7010,39.4166,1199.00,81.00,21.00,10.73,240.00,14.00,0.00,30.00,1013.00,5.00,19.00,FEW,FEW,M,M,12000.00,25000.00,M,M,FU,M,M,M,M,M,M,78.63,KNFL 181756Z 24014G19KT 5SM FU FEW120 FEW250 27/M06 A3000 RMK AO2 SLP130 ACSL DSNT W-NW FU ALQDS T02721061 10272 20078 58004,M
HND,2021-09-18 17:56,-115.1344,35.9729,742.79,87.00,47.00,24.85,140.00,4.00,0.00,30.05,1016.40,10.00,14.00,FEW,M,M,M,8500.00,M,M,M,M,M,M,M,M,M,M,84.15,KHND 181756Z 14004G14KT 10SM FEW085 31/08 A3005 RMK AO2 SLP164 T03060083 10306 20233 52008,M
LAS,2021-09-18 17:56,-115.1634,36.0719,663.00,86.00,52.00,31.13,60.00,9.00,0.00,30.02,1013.90,10.00,16.00,FEW,BKN,M,M,12000.00,16000.00,M,M,M,M,M,M,M,M,M,83.91,KLAS 181756Z 06009G16KT 10SM FEW120 BKN160 30/11 A3002 RMK AO2 SLP139 T03000111 10306 20244 50007,M
INS,2021-09-18 17:58,-115.6733,36.5872,955.00,81.00,44.00,26.90,150.00,3.00,0.00,30.05,1013.00,10.00,M,SCT,M,M,M,11000.00,M,M,M,M,M,M,M,M,M,M,79.66,KINS 181758Z AUTO 15003KT 10SM SCT110 27/07 A3005 RMK AO2 SLP130 T02730066 10283 20201 58001 $,M
LSV,2021-09-18 17:58,-115.0343,36.2362,570.00,87.00,53.60,31.87,130.00,11.00,0.00,29.99,1013.20,10.00,M,FEW,FEW,M,M,10000.00,11000.00,M,M,M,M,M,M,M,M,M,85.11,KLSV 181758Z AUTO 13011KT 10SM FEW100 FEW110 31/12 A2999 RMK AO2 SLP132 60000 T03060120 10306 20238 50006 $,M
LAS,2021-09-18 18:02,-115.1634,36.0719,663.00,86.00,53.00,32.41,70.00,10.00,0.00,30.02,M,10.00,M,FEW,BKN,M,M,12000.00,16000.00,M,M,M,M,M,M,M,M,M,84.09,KLAS 181802Z 07010KT 10SM FEW120 BKN160 30/12 A3002 RMK AO2 T03000117,M
CXP,2021-09-18 18:10,-119.7326,39.1923,1431.00,75.20,19.40,12.14,220.00,11.00,0.00,30.07,M,9.00,30.00,CLR,M,M,M,M,M,M,M,M,M,M,M,M,M,M,75.20,KCXP 181810Z AUTO 22011G30KT 190V250 9SM CLR 24/M07 A3007 RMK AO2,M
ELY,2021-09-18 18:14,-114.8453,39.2950,1909.00,70.00,44.00,39.26,200.00,13.00,0.00,30.19,M,10.00,M,FEW,M,M,M,10000.00,M,M,M,M,M,M,M,M,M,M,70.00,KELY 181814Z AUTO 20013KT 10SM FEW100 21/07 A3019 RMK AO2 LTG DSNT NE T02110067,M
MEV,2021-09-18 18:15,-119.7500,38.9963,1441.42,77.00,19.40,11.44,240.00,14.00,0.00,30.06,M,10.00,24.00,CLR,M,M,M,M,M,M,M,M,M,M,M,M,M,M,77.00,KMEV 181815Z AUTO 24014G24KT 220V280 10SM CLR 25/M07 A3006 RMK AO2,M
BVU,2021-09-18 18:15,-114.8611,35.9475,671.00,87.80,53.60,31.17,120.00,13.00,0.00,30.02,M,10.00,M,FEW,M,M,M,12000.00,M,M,M,M,M,M,M,M,M,M,85.72,KBVU 181815Z AUTO 12013KT 10SM FEW120 31/12 A3002 RMK AO2,M
HTH,2021-09-18 18:15,-118.6315,38.5448,1282.89,82.40,21.20,10.34,140.00,18.00,0.00,30.00,M,5.00,25.00,CLR,M,M,M,M,M,M,M,HZ,M,M,M,M,M,M,79.55,KHTH 181815Z AUTO 14018G25KT 5SM HZ CLR 28/M06 A3000 RMK A01,M
TMT,2021-09-18 18:15,-117.1971,39.4643,1749.34,73.00,31.80,21.95,250.00,9.00,0.00,30.12,M,10.00,16.00,CLR,M,M,M,M,M,M,M,M,M,M,M,M,M,M,72.90,KTMT 181815Z AUTO 25009G16KT 10SM CLR 23/00 A3012 RMK AO2 T02271001,M
RTS,2021-09-18 18:15,-119.8764,39.6682,1539.00,68.00,21.20,16.74,220.00,20.00,0.00,30.08,M,10.00,27.00,CLR,M,M,M,M,M,M,M,M,M,M,M,M,M,M,68.00,KRTS 181815Z AUTO 22020G27KT 10SM CLR 20/M06 A3008 RMK AO2,M
BAM,2021-09-18 18:15,-116.8743,40.5990,1382.36,78.80,28.40,15.71,210.00,14.00,0.00,30.01,M,10.00,18.00,CLR,M,M,M,M,M,M,M,M,M,M,M,M,M,M,78.80,KBAM 181815Z AUTO 21014G18KT 10SM CLR 26/M02 A3001 RMK AO1,M
BAM,2021-09-18 18:35,-116.8743,40.5990,1382.36,78.80,30.20,16.90,230.00,11.00,0.00,30.01,M,10.00,17.00,CLR,M,M,M,M,M,M,M,M,M,M,M,M,M,M,78.80,KBAM 181835Z AUTO 23011G17KT 10SM CLR 26/M01 A3001 RMK AO1,M
BVU,2021-09-18 18:35,-114.8611,35.9475,671.00,87.80,53.60,31.17,110.00,11.00,0.00,30.02,M,10.00,16.00,FEW,M,M,M,11000.00,M,M,M,M,M,M,M,M,M,M,85.72,KBVU 181835Z AUTO 11011G16KT 10SM FEW110 31/12 A3002 RMK AO2,M
HTH,2021-09-18 18:35,-118.6315,38.5448,1282.89,82.40,19.40,9.58,170.00,10.00,0.00,30.00,M,5.00,21.00,CLR,M,M,M,M,M,M,M,HZ,M,M,M,M,M,M,79.45,KHTH 181835Z AUTO 17010G21KT 5SM HZ CLR 28/M07 A3000 RMK A01,M
CXP,2021-09-18 18:35,-119.7326,39.1923,1431.00,77.00,23.00,13.32,250.00,16.00,0.00,30.06,M,9.00,24.00,CLR,M,M,M,M,M,M,M,M,M,M,M,M,M,M,77.00,KCXP 181835Z AUTO 25016G24KT 9SM CLR 25/M05 A3006 RMK AO2,M
RTS,2021-09-18 18:35,-119.8764,39.6682,1539.00,68.00,21.20,16.74,210.00,16.00,0.00,30.08,M,10.00,22.00,CLR,M,M,M,M,M,M,M,M,M,M,M,M,M,M,68.00,KRTS 181835Z AUTO 21016G22KT 10SM CLR 20/M06 A3008 RMK AO2,M
MEV,2021-09-18 18:35,-119.7500,38.9963,1441.42,77.00,17.60,10.59,240.00,15.00,0.00,30.06,M,9.00,25.00,CLR,M,M,M,M,M,M,M,M,M,M,M,M,M,M,77.00,KMEV 181835Z AUTO 24015G25KT 9SM CLR 25/M08 A3006 RMK AO2,M
TMT,2021-09-18 18:35,-117.1971,39.4643,1749.34,74.80,31.10,20.02,200.00,11.00,0.00,30.11,M,10.00,M,CLR,M,M,M,M,M,M,M,M,M,M,M,M,M,M,74.80,KTMT 181835Z AUTO 20011KT 10SM CLR 24/00 A3011 RMK AO2 LTG DSNT E T02381005,M
ELY,2021-09-18 18:53,-114.8453,39.2950,1909.00,71.00,39.00,31.05,200.00,15.00,0.00,30.18,1013.10,10.00,21.00,FEW,SCT,M,M,10000.00,12000.00,M,M,M,M,M,M,M,M,M,71.10,KELY 181853Z AUTO 20015G21KT 10SM FEW100 SCT120 22/04 A3018 RMK AO2 SLP131 T02170039,M
VGT,2021-09-18 18:53,-115.1933,36.2111,667.00,88.00,52.00,29.21,100.00,7.00,0.00,29.98,1014.50,10.00,17.00,SCT,M,M,M,11000.00,M,M,M,M,M,M,M,M,M,M,85.60,KVGT 181853Z 10007G17KT 10SM SCT110 31/11 A2998 RMK AO2 SLP145 T03110111,M
DRA,2021-09-18 18:53,-116.0278,36.6206,1009.00,88.00,23.00,9.33,170.00,20.00,0.00,30.05,1012.70,10.00,26.00,FEW,M,M,M,11000.00,M,M,M,M,M,M,M,28.00,190.00,2021-09-18 18:24,83.58,KDRA 181853Z AUTO 17020G26KT 10SM FEW110 31/M05 A3005 RMK AO2 PK WND 19028/1824 SLP127 T03111050,M
LOL,2021-09-18 18:53,-118.5701,40.0684,1192.43,85.00,17.10,8.01,210.00,19.00,0.00,29.96,1011.00,10.00,27.00,CLR,M,M,M,M,M,M,M,M,M,M,M,32.00,190.00,2021-09-18 18:05,81.05,KLOL 181853Z AUTO 21019G27KT 10SM CLR 29/M08 A2996 RMK AO2 PK WND 19032/1805 SLP110 T02941083,M
P68,2021-09-18 18:53,-116.0056,39.6014,1993.00,75.00,28.00,17.53,200.00,22.00,0.00,30.10,1010.90,M,29.00,M,M,M,M,M,M,M,M,M,M,M,M,29.00,200.00,2021-09-18 18:53,75.00,KP68 181853Z AUTO 20022G29KT 24/M02 A3010 RMK AO1 PK WND 20029/1853 SLP109 T02391022,M
BVU,2021-09-18 18:55,-114.8611,35.9475,671.00,87.80,53.60,31.17,130.00,13.00,0.00,30.01,M,10.00,M,FEW,M,M,M,11000.00,M,M,M,M,M,M,M,M,M,M,85.72,KBVU 181855Z AUTO 13013KT 10SM FEW110 31/12 A3001 RMK AO2,M
RNO,2021-09-18 18:55,-119.7711,39.4839,1341.00,78.00,23.00,12.85,220.00,12.00,0.00,30.02,1011.30,10.00,18.00,SCT,SCT,SCT,M,15000.00,20000.00,25000.00,M,M,M,M,M,M,M,M,78.10,KRNO 181855Z 22012G18KT 10SM SCT150 SCT200 SCT250 26/M05 A3002 RMK AO2 SLP113 ACSL ALQDS APRNT ROTOR CLD NW THRU OHD THRU S FU ALF AND HZ DSNT SE THRU SW T02561050,M
HTH,2021-09-18 18:55,-118.6315,38.5448,1282.89,84.20,19.40,9.04,160.00,11.00,0.00,29.99,M,5.00,22.00,CLR,M,M,M,M,M,M,M,HZ,M,M,M,M,M,M,80.68,KHTH 181855Z AUTO 16011G22KT 5SM HZ CLR 29/M07 A2999 RMK A01,M
BAM,2021-09-18 18:55,-116.8743,40.5990,1382.36,80.60,28.40,14.81,220.00,16.00,0.00,30.00,M,10.00,23.00,CLR,M,M,M,M,M,M,M,M,M,M,M,M,M,M,78.72,KBAM 181855Z AUTO 22016G23KT 10SM CLR 27/M02 A3000 RMK AO1,M
TMT,2021-09-18 18:55,-117.1971,39.4643,1749.34,76.00,30.40,18.76,220.00,9.00,0.00,30.10,M,10.00,19.00,CLR,M,M,M,M,M,M,M,M,M,M,M,M,M,M,75.90,KTMT 181855Z AUTO 22009G19KT 10SM CLR 24/M01 A3010 RMK AO2 T02441009,M
MEV,2021-09-18 18:55,-119.7500,38.9963,1441.42,77.00,19.40,11.44,230.00,11.00,0.00,30.05,M,10.00,23.00,CLR,M,M,M,M,M,M,M,M,M,M,M,M,M,M,77.00,KMEV 181855Z AUTO 23011G23KT 10SM CLR 25/M07 A3005 RMK AO2,M
CXP,2021-09-18 18:55,-119.7326,39.1923,1431.00,73.40,23.00,15.03,230.00,15.00,0.00,30.06,M,10.00,25.00,CLR,M,M,M,M,M,M,M,M,M,M,M,M,M,M,73.40,KCXP 181855Z AUTO 23015G25KT 10SM CLR 23/M05 A3006 RMK AO2,M
RTS,2021-09-18 18:55,-119.8764,39.6682,1539.00,69.80,21.20,15.73,240.00,13.00,0.00,30.08,M,10.00,M,CLR,M,M,M,M,M,M,M,M,M,M,M,M,M,M,69.80,KRTS 181855Z AUTO 24013KT 10SM CLR 21/M06 A3008 RMK AO2,M
NFL,2021-09-18 18:56,-118.7010,39.4166,1199.00,84.00,18.00,8.57,220.00,16.00,0.00,29.98,1012.40,10.00,26.00,FEW,FEW,M,M,12000.00,25000.00,M,M,M,M,M,M,27.00,200.00,2021-09-18 18:44,80.47,KNFL 181856Z 22016G26KT 10SM FEW120 FEW250 29/M08 A2998 RMK AO2 PK WND 20027/1844 SLP124 ACSL DSNT W-NW HZ ALQDS T02891078,M
TPH,2021-09-18 18:56,-117.0904,38.0505,1654.00,78.00,27.00,15.17,220.00,20.00,0.00,30.13,1012.80,10.00,25.00,CLR,M,M,M,M,M,M,M,M,M,M,M,34.00,200.00,2021-09-18 18:16,78.10,KTPH 181856Z AUTO 22020G25KT 10SM CLR 26/M03 A3013 RMK AO2 PK WND 20034/1816 SLP128 T02561028,M
LAS,2021-09-18 18:56,-115.1634,36.0719,663.00,90.00,51.00,26.52,70.00,12.00,0.00,30.00,1013.20,10.00,M,FEW,BKN,M,M,12000.00,16000.00,M,M,M,M,M,M,M,M,M,87.24,KLAS 181856Z 07012KT 10SM FEW120 BKN160 32/11 A3000 RMK AO2 SLP132 T03220106,M
HND,2021-09-18 18:56,-115.1344,35.9729,742.79,89.00,42.00,19.42,200.00,10.00,0.00,30.03,1015.70,10.00,15.00,CLR,M,M,M,M,M,M,M,M,M,M,M,M,M,M,85.45,KHND 181856Z 20010G15KT 10SM CLR 32/06 A3003 RMK AO2 SLP157 T03170056,M
EKO,2021-09-18 18:56,-115.7860,40.8242,1367.00,77.00,33.00,20.17,220.00,13.00,0.00,30.02,1010.90,8.00,24.00,CLR,M,M,M,M,M,M,M,M,M,M,M,26.00,210.00,2021-09-18 18:40,77.00,KEKO 181856Z AUTO 22013G24KT 8SM CLR 25/01 A3002 RMK AO2 PK WND 21026/1840 SLP109 T02500006,M
WMC,2021-09-18 18:56,-117.8072,40.9019,1315.00,82.00,12.00,7.04,230.00,22.00,0.00,29.95,1009.70,4.00,34.00,FEW,M,M,M,2100.00,M,M,M,HZ,M,M,M,34.00,210.00,2021-09-18 18:43,78.85,KWMC 181856Z AUTO 23022G34KT 4SM HZ FEW021 28/M11 A2995 RMK AO2 PK WND 21034/1843 SLP097 T02781111 $,M
INS,2021-09-18 18:58,-115.6733,36.5872,955.00,83.30,42.60,23.83,140.00,5.00,0.00,30.04,1012.50,10.00,M,SCT,M,M,M,11000.00,M,M,M,M,M,M,M,M,M,M,80.97,KINS 181858Z AUTO 14005KT 10SM SCT110 29/06 A3004 RMK AO2 SLP125 T02850059 $,M
LSV,2021-09-18 18:58,-115.0343,36.2362,570.00,89.40,54.70,30.85,130.00,12.00,0.00,29.98,1012.80,10.00,M,FEW,M,M,M,9500.00,M,M,M,M,M,M,M,M,M,M,87.42,KLSV 181858Z AUTO 13012KT 10SM FEW095 32/13 A2998 RMK AO2 SLP128 T03190126 $,M
HTH,2021-09-18 19:15,-118.6315,38.5448,1282.89,84.20,19.40,9.04,180.00,7.00,0.00,29.99,M,7.00,15.00,CLR,M,M,M,M,M,M,M,M,M,M,M,M,M,M,80.68,KHTH 181915Z AUTO 18007G15KT 140V220 7SM CLR 29/M07 A2999 RMK A01,M
BVU,2021-09-18 19:15,-114.8611,35.9475,671.00,87.80,55.40,33.29,130.00,14.00,0.00,30.01,M,10.00,M,FEW,M,M,M,11000.00,M,M,M,M,M,M,M,M,M,M,86.11,KBVU 181915Z AUTO 13014KT 10SM FEW110 31/13 A3001 RMK AO2,M
MEV,2021-09-18 19:15,-119.7500,38.9963,1441.42,75.20,17.60,11.24,240.00,8.00,0.00,30.04,M,10.00,15.00,CLR,M,M,M,M,M,M,M,M,M,M,M,M,M,M,75.20,KMEV 181915Z AUTO 24008G15KT 210V290 10SM CLR 24/M08 A3004 RMK AO2,M
TMT,2021-09-18 19:15,-117.1971,39.4643,1749.34,76.30,28.90,17.41,240.00,13.00,0.00,30.10,M,10.00,19.00,CLR,M,M,M,M,M,M,M,M,M,M,M,M,M,M,76.30,KTMT 181915Z AUTO 24013G19KT 10SM CLR 25/M02 A3010 RMK AO2 T02461017,M
CXP,2021-09-18 19:15,-119.7326,39.1923,1431.00,73.40,23.00,15.03,240.00,13.00,0.00,30.06,M,10.00,29.00,CLR,M,M,M,M,M,M,M,M,M,M,M,M,M,M,73.40,KCXP 181915Z AUTO 24013G29KT 10SM CLR 23/M05 A3006 RMK AO2,M
BAM,2021-09-18 19:15,-116.8743,40.5990,1382.36,80.60,28.40,14.81,200.00,13.00,0.00,30.00,M,10.00,21.00,CLR,M,M,M,M,M,M,M,M,M,M,M,M,M,M,78.72,KBAM 181915Z AUTO 20013G21KT 10SM CLR 27/M02 A3000 RMK AO1,M
RTS,2021-09-18 19:15,-119.8764,39.6682,1539.00,69.80,19.40,14.57,250.00,17.00,0.00,30.07,M,10.00,26.00,CLR,M,M,M,M,M,M,M,M,M,M,M,M,M,M,69.80,KRTS 181915Z AUTO 25017G26KT 10SM CLR 21/M07 A3007 RMK AO2,M
LAS,2021-09-18 19:20,-115.1634,36.0719,663.00,91.00,37.00,15.00,200.00,9.00,0.00,29.99,M,10.00,19.00,SCT,BKN,M,M,12000.00,16000.00,M,M,M,M,M,M,M,M,M,86.86,KLAS 181920Z 20009G19KT 10SM SCT120 BKN160 33/03 A2999 RMK AO2 T03280028,M
HTH,2021-09-18 19:35,-118.6315,38.5448,1282.89,84.20,21.20,9.76,320.00,10.00,0.00,29.98,M,7.00,M,CLR,M,M,M,M,M,M,M,M,M,M,M,M,M,M,80.77,KHTH 181935Z AUTO 32010KT 7SM CLR 29/M06 A2998 RMK A01,M
MEV,2021-09-18 19:35,-119.7500,38.9963,1441.42,78.80,19.40,10.78,250.00,8.00,0.00,30.04,M,10.00,20.00,CLR,M,M,M,M,M,M,M,M,M,M,M,M,M,M,78.80,KMEV 181935Z AUTO 25008G20KT 10SM CLR 26/M07 A3004 RMK AO2,M
TMT,2021-09-18 19:35,-117.1971,39.4643,1749.34,77.00,28.60,16.81,260.00,15.00,0.00,30.10,M,10.00,19.00,CLR,M,M,M,M,M,M,M,M,M,M,M,M,M,M,77.00,KTMT 181935Z AUTO 26015G19KT 10SM CLR 25/M02 A3010 RMK AO2 T02501019,M
BAM,2021-09-18 19:35,-116.8743,40.5990,1382.36,82.40,28.40,13.96,250.00,20.00,0.00,29.98,M,10.00,27.00,CLR,M,M,M,M,M,M,M,M,M,M,M,M,M,M,79.94,KBAM 181935Z AUTO 25020G27KT 10SM CLR 28/M02 A2998 RMK AO1,M
RTS,2021-09-18 19:35,-119.8764,39.6682,1539.00,71.60,23.00,15.97,220.00,17.00,0.00,30.05,M,10.00,28.00,CLR,M,M,M,M,M,M,M,M,M,M,M,M,M,M,71.60,KRTS 181935Z AUTO 22017G28KT 10SM CLR 22/M05 A3005 RMK AO2,M
CXP,2021-09-18 19:35,-119.7326,39.1923,1431.00,73.40,21.20,13.93,230.00,20.00,0.00,30.06,M,10.00,25.00,CLR,M,M,M,M,M,M,M,M,M,M,M,M,M,M,73.40,KCXP 181935Z AUTO 23020G25KT 10SM CLR 23/M06 A3006 RMK AO2,M
BVU,2021-09-18 19:35,-114.8611,35.9475,671.00,86.00,57.20,37.62,110.00,9.00,0.00,30.00,M,9.00,M,FEW,M,M,M,11000.00,M,M,M,-RA,M,M,M,M,M,M,84.97,KBVU 181935Z AUTO 11009KT 9SM -RA FEW110 30/14 A3000 RMK AO2,M
LOL,2021-09-18 19:53,-118.5701,40.0684,1192.43,82.00,15.10,8.06,230.00,24.00,0.00,29.96,1011.00,10.00,35.00,CLR,M,M,M,M,M,M,M,M,M,M,M,35.00,240.00,2021-09-18 19:40,78.98,KLOL 181953Z AUTO 23024G35KT 10SM CLR 28/M09 A2996 RMK AO2 PK WND 24035/1940 SLP110 T02781094,M
DRA,2021-09-18 19:53,-116.0278,36.6206,1009.00,86.00,21.90,9.49,160.00,19.00,0.00,30.04,1012.50,10.00,26.00,BKN,M,M,M,11000.00,M,M,M,M,M,M,M,28.00,190.00,2021-09-18 19:12,82.08,KDRA 181953Z AUTO 16019G26KT 10SM BKN110 30/M06 A3004 RMK AO2 PK WND 19028/1912 SLP125 T03001056,M
VGT,2021-09-18 19:53,-115.1933,36.2111,667.00,92.00,52.00,25.84,120.00,9.00,0.00,29.96,1013.40,10.00,M,CLR,M,M,M,M,M,M,M,M,M,M,M,M,M,M,89.21,KVGT 181953Z 12009KT 10SM CLR 33/11 A2996 RMK AO2 SLP134 T03330111,M
ELY,2021-09-18 19:53,-114.8453,39.2950,1909.00,69.00,41.00,35.94,200.00,22.00,0.00,30.16,1012.80,10.00,29.00,BKN,M,M,M,12000.00,M,M,M,M,M,M,M,29.00,170.00,2021-09-18 19:17,69.10,KELY 181953Z AUTO 20022G29KT 10SM BKN120 21/05 A3016 RMK AO2 PK WND 17029/1917 SLP128 T02060050,M
P68,2021-09-18 19:53,-116.0056,39.6014,1993.00,76.00,28.90,17.65,200.00,13.00,0.00,30.07,1010.00,M,23.00,M,M,M,M,M,M,M,M,M,M,M,M,27.00,200.00,2021-09-18 18:54,75.90,KP68 181953Z AUTO 20013G23KT 24/M02 A3007 RMK AO1 PK WND 20027/1854 SLP100 T02441017,M
HTH,2021-09-18 19:55,-118.6315,38.5448,1282.89,86.00,21.20,9.21,300.00,7.00,0.00,29.97,M,6.00,15.00,CLR,M,M,M,M,M,M,M,HZ,M,M,M,M,M,M,82.04,KHTH 181955Z AUTO 30007G15KT 270V330 6SM HZ CLR 30/M06 A2997 RMK A01,M
BVU,2021-09-18 19:55,-114.8611,35.9475,671.00,87.80,55.40,33.29,M,5.00,0.00,29.98,M,10.00,14.00,FEW,M,M,M,10000.00,M,M,M,M,M,M,M,M,M,M,86.11,KBVU 181955Z AUTO VRB05G14KT 10SM FEW100 31/13 A2998 RMK AO2,M
CXP,2021-09-18 19:55,-119.7326,39.1923,1431.00,73.40,21.20,13.93,250.00,17.00,0.00,30.06,M,10.00,32.00,CLR,M,M,M,M,M,M,M,M,M,M,M,M,M,M,73.40,KCXP 181955Z AUTO 25017G32KT 10SM CLR 23/M06 A3006 RMK AO2,M
RNO,2021-09-18 19:55,-119.7711,39.4839,1341.00,76.00,27.00,16.32,270.00,16.00,0.00,30.00,1010.80,9.00,28.00,FEW,SCT,SCT,M,12000.00,15000.00,20000.00,M,M,M,M,M,28.00,250.00,2021-09-18 19:47,75.90,KRNO 181955Z 27016G28KT 9SM FEW120 SCT150 SCT200 24/M03 A3000 RMK AO2 PK WND 25028/1947 SLP108 ACSL ALQDS APRNT ROTOR CLD NW THRU OHD THRU SE FU ALF AND HZ DSNT E THRU S THRU SW T02441028,M
MEV,2021-09-18 19:55,-119.7500,38.9963,1441.42,78.80,21.20,11.64,240.00,13.00,0.00,30.05,M,9.00,23.00,CLR,M,M,M,M,M,M,M,M,M,M,M,M,M,M,78.80,KMEV 181955Z AUTO 24013G23KT 9SM CLR 26/M06 A3005 RMK AO2,M
TMT,2021-09-18 19:55,-117.1971,39.4643,1749.34,77.20,27.90,16.22,250.00,12.00,0.00,30.09,M,10.00,20.00,CLR,M,M,M,M,M,M,M,M,M,M,M,M,M,M,77.20,KTMT 181955Z AUTO 25012G20KT 10SM CLR 25/M02 A3009 RMK AO2 T02511023,M
RTS,2021-09-18 19:55,-119.8764,39.6682,1539.00,73.40,23.00,15.03,240.00,22.00,0.00,30.05,M,10.00,30.00,CLR,M,M,M,M,M,M,M,M,M,M,M,M,M,M,73.40,KRTS 181955Z AUTO 24022G30KT 10SM CLR 23/M05 A3005 RMK AO2,M
BAM,2021-09-18 19:55,-116.8743,40.5990,1382.36,82.40,28.40,13.96,230.00,12.00,0.00,29.98,M,10.00,22.00,CLR,M,M,M,M,M,M,M,M,M,M,M,M,M,M,79.94,KBAM 181955Z AUTO 23012G22KT 10SM CLR 28/M02 A2998 RMK AO1,M
TPH,2021-09-18 19:56,-117.0904,38.0505,1654.00,79.00,19.00,10.53,200.00,12.00,0.00,30.11,1011.90,10.00,25.00,CLR,M,M,M,M,M,M,M,M,M,M,M,26.00,220.00,2021-09-18 19:03,79.00,KTPH 181956Z AUTO 20012G25KT 10SM CLR 26/M07 A3011 RMK AO2 PK WND 22026/1903 SLP119 T02611072,M
HND,2021-09-18 19:56,-115.1344,35.9729,742.79,92.00,40.00,16.34,240.00,8.00,0.00,30.02,1015.00,10.00,16.00,CLR,M,M,M,M,M,M,M,M,M,M,M,M,M,M,87.78,KHND 181956Z 24008G16KT 10SM CLR 33/04 A3002 RMK AO2 SLP150 T03330044,M
EKO,2021-09-18 19:56,-115.7860,40.8242,1367.00,80.00,33.00,18.21,240.00,18.00,0.00,30.00,1009.80,6.00,29.00,CLR,M,M,M,M,M,M,M,HZ,M,M,M,29.00,220.00,2021-09-18 19:36,78.67,KEKO 181956Z AUTO 24018G29KT 6SM HZ CLR 27/01 A3000 RMK AO2 PK WND 22029/1936 SLP098 T02670006,M
NFL,2021-09-18 19:56,-118.7010,39.4166,1199.00,87.00,19.00,8.10,210.00,17.00,0.00,29.97,1011.90,10.00,M,SCT,SCT,M,M,12000.00,25000.00,M,M,M,M,M,M,28.00,190.00,2021-09-18 19:10,82.71,KNFL 181956Z 21017KT 10SM SCT120 SCT250 31/M07 A2997 RMK AO2 PK WND 19028/1910 SLP119 ACSL ALQDS HZ ALQDS T03061072,M
WMC,2021-09-18 19:56,-117.8072,40.9019,1315.00,83.00,14.00,7.46,200.00,22.00,0.00,29.94,1009.80,8.00,30.00,CLR,M,M,M,M,M,M,M,M,M,M,M,36.00,240.00,2021-09-18 19:07,79.54,KWMC 181956Z AUTO 20022G30KT 8SM CLR 28/M10 A2994 RMK AO2 PK WND 24036/1907 SLP098 T02831100 $,M
LAS,2021-09-18 19:56,-115.1634,36.0719,663.00,92.00,35.00,13.53,200.00,8.00,0.00,29.98,1012.40,10.00,19.00,SCT,M,M,M,14000.00,M,M,M,M,M,M,M,M,M,M,87.60,KLAS 181956Z 20008G19KT 10SM SCT140 33/02 A2998 RMK AO2 SLP124 T03330017,M
LSV,2021-09-18 19:58,-115.0343,36.2362,570.00,89.00,55.20,31.92,120.00,8.00,0.00,29.96,1012.10,10.00,16.00,CLR,M,M,M,M,M,M,M,M,M,M,M,M,M,M,87.07,KLSV 181958Z AUTO 12008G16KT 10SM CLR 32/13 A2996 RMK AO2 SLP121 T03160129 $,M
INS,2021-09-18 19:58,-115.6733,36.5872,955.00,86.50,29.80,12.96,240.00,17.00,0.00,30.01,1011.60,10.00,26.00,FEW,SCT,M,M,11000.00,18000.00,M,M,M,M,M,M,26.00,230.00,2021-09-18 19:47,83.02,KINS 181958Z AUTO 24017G26KT 10SM FEW110 SCT180 30/M01 A3001 RMK AO2 PK WND 23026/47 SLP116 T03031012 $,M
LSV,2021-09-18 20:03,-115.0343,36.2362,570.00,89.60,55.40,31.45,130.00,11.00,0.00,29.95,1011.70,10.00,M,CLR,M,M,M,M,M,M,M,M,M,M,M,M,M,M,87.78,KLSV 182003Z AUTO 13011KT 10SM CLR 32/13 A2995 RMK AO2 WSHFT 00 SLP117 $,M
CXP,2021-09-18 20:15,-119.7326,39.1923,1431.00,73.40,21.20,13.93,260.00,16.00,0.00,30.05,M,10.00,28.00,CLR,M,M,M,M,M,M,M,M,M,M,M,M,M,M,73.40,KCXP 182015Z AUTO 26016G28KT 10SM CLR 23/M06 A3005 RMK AO2,M
HTH,2021-09-18 20:15,-118.6315,38.5448,1282.89,86.00,19.40,8.53,0.00,0.00,0.00,29.96,M,6.00,12.00,CLR,M,M,M,M,M,M,M,HZ,M,M,M,M,M,M,81.94,KHTH 182015Z AUTO 00000G12KT 6SM HZ CLR 30/M07 A2996 RMK A01,M
BAM,2021-09-18 20:15,-116.8743,40.5990,1382.36,82.40,26.60,12.97,250.00,19.00,0.00,29.97,M,10.00,28.00,CLR,M,M,M,M,M,M,M,M,M,M,M,M,M,M,79.92,KBAM 182015Z AUTO 25019G28KT 10SM CLR 28/M03 A2997 RMK AO1,M
RTS,2021-09-18 20:15,-119.8764,39.6682,1539.00,75.20,23.00,14.15,230.00,13.00,0.00,30.06,M,9.00,38.00,CLR,M,M,M,M,M,M,M,M,M,M,M,M,M,M,75.20,KRTS 182015Z AUTO 23013G38KT 9SM CLR 24/M05 A3006 RMK AO2,M
BVU,2021-09-18 20:15,-114.8611,35.9475,671.00,87.80,55.40,33.29,120.00,9.00,0.00,29.98,M,10.00,M,FEW,M,M,M,11000.00,M,M,M,M,M,M,M,M,M,M,86.11,KBVU 182015Z AUTO 12009KT 10SM FEW110 31/13 A2998 RMK AO2,M
MEV,2021-09-18 20:15,-119.7500,38.9963,1441.42,78.80,19.40,10.78,220.00,11.00,0.00,30.04,M,9.00,28.00,CLR,M,M,M,M,M,M,M,M,M,M,M,M,M,M,78.80,KMEV 182015Z AUTO 22011G28KT 190V260 9SM CLR 26/M07 A3004 RMK AO2,M
TMT,2021-09-18 20:15,-117.1971,39.4643,1749.34,77.50,26.20,14.98,250.00,13.00,0.00,30.08,M,10.00,21.00,CLR,M,M,M,M,M,M,M,M,M,M,M,M,M,M,77.50,KTMT 182015Z AUTO 25013G21KT 10SM CLR 25/M03 A3008 RMK AO2 T02531032,M
CXP,2021-09-18 20:35,-119.7326,39.1923,1431.00,77.00,23.00,13.32,260.00,13.00,0.00,30.05,M,10.00,21.00,CLR,M,M,M,M,M,M,M,M,M,M,M,M,M,M,77.00,KCXP 182035Z AUTO 26013G21KT 10SM CLR 25/M05 A3005 RMK AO2,M
RTS,2021-09-18 20:35,-119.8764,39.6682,1539.00,73.40,23.00,15.03,230.00,26.00,0.00,30.04,M,10.00,33.00,CLR,M,M,M,M,M,M,M,M,M,M,M,M,M,M,73.40,KRTS 182035Z AUTO 23026G33KT 10SM CLR 23/M05 A3004 RMK AO2,M
MEV,2021-09-18 20:35,-119.7500,38.9963,1441.42,78.80,19.40,10.78,250.00,23.00,0.00,30.03,M,9.00,M,CLR,M,M,M,M,M,M,M,M,M,M,M,M,M,M,78.80,KMEV 182035Z AUTO 25023KT 9SM CLR 26/M07 A3003 RMK AO2,M
TMT,2021-09-18 20:35,-117.1971,39.4643,1749.34,79.50,23.20,12.37,260.00,19.00,0.00,30.07,M,10.00,24.00,CLR,M,M,M,M,M,M,M,M,M,M,M,M,M,M,79.50,KTMT 182035Z AUTO 26019G24KT 10SM CLR 26/M05 A3007 RMK AO2 T02641049,M
BAM,2021-09-18 20:35,-116.8743,40.5990,1382.36,82.40,24.80,12.03,240.00,17.00,0.00,29.96,M,10.00,30.00,CLR,M,M,M,M,M,M,M,M,M,M,M,M,M,M,79.79,KBAM 182035Z AUTO 24017G30KT 10SM CLR 28/M04 A2996 RMK AO1,M
BVU,2021-09-18 20:35,-114.8611,35.9475,671.00,87.80,55.40,33.29,140.00,4.00,0.00,29.97,M,10.00,M,SCT,SCT,M,M,7500.00,11000.00,M,M,M,M,M,M,M,M,M,86.11,KBVU 182035Z AUTO 14004KT 10SM SCT075 SCT110 31/13 A2997 RMK AO2,M
HTH,2021-09-18 20:35,-118.6315,38.5448,1282.89,86.00,17.60,7.90,200.00,8.00,0.00,29.96,M,7.00,14.00,CLR,M,M,M,M,M,M,M,M,M,M,M,M,M,M,81.85,KHTH 182035Z AUTO 20008G14KT 7SM CLR 30/M08 A2996 RMK A01,M
LAS,2021-09-18 20:38,-115.1634,36.0719,663.00,93.00,34.00,12.51,260.00,14.00,0.00,29.97,M,10.00,22.00,SCT,M,M,M,14000.00,M,M,M,M,M,M,M,M,M,M,88.42,KLAS 182038Z 26014G22KT 10SM SCT140 34/01 A2997 RMK AO2 WSHFT 2018 T03390011,M
LOL,2021-09-18 20:53,-118.5701,40.0684,1192.43,85.00,19.90,9.03,210.00,23.00,0.00,29.93,1009.90,10.00,34.00,CLR,M,M,M,M,M,M,M,M,M,M,M,34.00,210.00,2021-09-18 20:51,81.19,KLOL 182053Z AUTO 21023G34KT 10SM CLR 29/M07 A2993 RMK AO2 PK WND 21034/2051 SLP099 T02941067 58017,M
P68,2021-09-18 20:53,-116.0056,39.6014,1993.00,80.00,19.90,10.55,250.00,17.00,0.00,30.05,1008.70,M,29.00,M,M,M,M,M,M,M,M,M,M,M,M,29.00,250.00,2021-09-18 20:52,78.09,KP68 182053Z AUTO 25017G29KT 27/M07 A3005 RMK AO1 PK WND 25029/2052 SLP087 T02671067 58019,M
VGT,2021-09-18 20:53,-115.1933,36.2111,667.00,93.00,37.00,14.09,M,M,0.00,29.94,1012.70,10.00,M,FEW,M,M,M,11000.00,M,M,M,M,M,M,M,M,M,M,88.63,KVGT 182053Z 10SM FEW110 34/03 A2994 RMK AO2 SLP127 T03390028 58018,M
ELY,2021-09-18 20:53,-114.8453,39.2950,1909.00,72.00,43.00,35.16,170.00,15.00,0.00,30.13,1011.20,10.00,M,FEW,FEW,M,M,8000.00,11000.00,M,M,M,M,M,M,26.00,200.00,2021-09-18 19:57,72.00,KELY 182053Z AUTO 17015KT 10SM FEW080 FEW110 22/06 A3013 RMK AO2 PK WND 20026/1957 SLP112 T02220061 58019,M
DRA,2021-09-18 20:53,-116.0278,36.6206,1009.00,88.00,21.00,8.57,170.00,18.00,0.00,30.02,1011.80,10.00,29.00,CLR,M,M,M,M,M,M,M,M,M,M,M,29.00,180.00,2021-09-18 20:30,83.46,KDRA 182053Z AUTO 17018G29KT 10SM CLR 31/M06 A3002 RMK AO2 PK WND 18029/2030 SLP118 T03111061 58012,M
HTH,2021-09-18 20:55,-118.6315,38.5448,1282.89,87.80,17.60,7.46,340.00,9.00,0.00,29.96,M,9.00,14.00,CLR,M,M,M,M,M,M,M,M,M,M,M,M,M,M,83.14,KHTH 182055Z AUTO 34009G14KT 9SM CLR 31/M08 A2996 RMK A01,M
CXP,2021-09-18 20:55,-119.7326,39.1923,1431.00,77.00,23.00,13.32,280.00,14.00,0.00,30.05,M,10.00,25.00,CLR,M,M,M,M,M,M,M,M,M,M,M,M,M,M,77.00,KCXP 182055Z AUTO 28014G25KT 10SM CLR 25/M05 A3005 RMK AO2,M
RTS,2021-09-18 20:55,-119.8764,39.6682,1539.00,73.40,23.00,15.03,220.00,27.00,0.00,30.03,M,10.00,37.00,CLR,M,M,M,M,M,M,M,M,M,M,M,M,M,M,73.40,KRTS 182055Z AUTO 22027G37KT 10SM CLR 23/M05 A3003 RMK AO2,M
MEV,2021-09-18 20:55,-119.7500,38.9963,1441.42,78.80,19.40,10.78,230.00,12.00,0.00,30.04,M,10.00,23.00,CLR,M,M,M,M,M,M,M,M,M,M,M,M,M,M,78.80,KMEV 182055Z AUTO 23012G23KT 10SM CLR 26/M07 A3004 RMK AO2,M
TMT,2021-09-18 20:55,-117.1971,39.4643,1749.34,79.20,24.10,12.97,240.00,13.00,0.00,30.06,M,10.00,22.00,CLR,M,M,M,M,M,M,M,M,M,M,M,M,M,M,79.20,KTMT 182055Z AUTO 24013G22KT 10SM CLR 26/M04 A3006 RMK AO2 T02621044,M
BAM,2021-09-18 20:55,-116.8743,40.5990,1382.36,84.20,23.00,10.53,260.00,21.00,0.00,29.96,M,7.00,30.00,CLR,M,M,M,M,M,M,M,M,M,M,M,M,M,M,80.88,KBAM 182055Z AUTO 26021G30KT 7SM CLR 29/M05 A2996 RMK AO1,M
BVU,2021-09-18 20:55,-114.8611,35.9475,671.00,89.60,55.40,31.45,80.00,7.00,0.00,29.96,M,10.00,M,SCT,SCT,SCT,M,7500.00,9000.00,11000.00,M,M,M,M,M,M,M,M,87.78,KBVU 182055Z AUTO 08007KT 10SM SCT075 SCT090 SCT110 32/13 A2996 RMK AO2,M
RNO,2021-09-18 20:55,-119.7711,39.4839,1341.00,80.00,28.90,15.36,200.00,19.00,0.00,29.99,1010.50,10.00,28.00,SCT,SCT,M,M,15000.00,20000.00,M,M,M,M,M,M,29.00,220.00,2021-09-18 20:32,78.53,KRNO 182055Z 20019G28KT 10SM SCT150 SCT200 27/M02 A2999 RMK AO2 PK WND 22029/2032 SLP105 ACSL ALQDS APRNT ROTOR CLD N THRU OHD THRU SE FU ALF AND HZ DSNT E THRU S THRU SW T02671017 58010,M
TPH,2021-09-18 20:56,-117.0904,38.0505,1654.00,81.00,12.90,7.56,220.00,18.00,0.00,30.09,1011.70,10.00,30.00,CLR,M,M,M,M,M,M,M,M,M,M,M,30.00,220.00,2021-09-18 20:48,78.23,KTPH 182056Z AUTO 22018G30KT 10SM CLR 27/M11 A3009 RMK AO2 PK WND 22030/2048 SLP117 T02721106 58014,M
WMC,2021-09-18 20:56,-117.8072,40.9019,1315.00,81.00,12.90,7.56,230.00,14.00,0.00,29.92,1009.10,9.00,31.00,CLR,M,M,M,M,M,M,M,M,M,M,M,33.00,210.00,2021-09-18 19:57,78.23,KWMC 182056Z AUTO 23014G31KT 9SM CLR 27/M11 A2992 RMK AO2 PK WND 21033/1957 SLP091 T02721106 56012 $,M
LAS,2021-09-18 20:56,-115.1634,36.0719,663.00,93.00,34.00,12.51,250.00,8.00,0.00,29.96,1011.80,10.00,18.00,SCT,SCT,M,M,14000.00,18000.00,M,M,M,M,M,M,M,M,M,88.42,KLAS 182056Z 25008G18KT 210V280 10SM SCT140 SCT180 34/01 A2996 RMK AO2 WSHFT 2018 SLP118 T03390011 58018,M
NFL,2021-09-18 20:56,-118.7010,39.4166,1199.00,87.00,18.00,7.76,250.00,18.00,0.00,29.94,1011.20,10.00,25.00,SCT,SCT,M,M,12000.00,25000.00,M,M,M,M,M,M,28.00,250.00,2021-09-18 20:24,82.66,KNFL 182056Z 25018G25KT 10SM SCT120 SCT250 31/M08 A2994 RMK AO2 PK WND 25028/2024 SLP112 ACSL ALQDS HZ ALQDS T03061078 58019,M
EKO,2021-09-18 20:56,-115.7860,40.8242,1367.00,83.00,28.90,14.02,240.00,20.00,0.00,29.96,1008.30,7.00,24.00,CLR,M,M,M,M,M,M,M,M,M,M,M,29.00,240.00,2021-09-18 20:46,80.30,KEKO 182056Z AUTO 24020G24KT 7SM CLR 28/M02 A2996 RMK AO2 PK WND 24029/2046 SLP083 T02831017 58022,M
HND,2021-09-18 20:56,-115.1344,35.9729,742.79,93.00,37.00,14.09,220.00,13.00,0.00,29.99,1014.10,10.00,M,CLR,M,M,M,M,M,M,M,M,M,M,M,M,M,M,88.63,KHND 182056Z 22013KT 10SM CLR 34/03 A2999 RMK AO2 SLP141 T03390028 58019,M
INS,2021-09-18 20:58,-115.6733,36.5872,955.00,88.50,27.30,10.98,220.00,23.00,0.00,30.00,1011.10,10.00,29.00,FEW,FEW,FEW,M,12000.00,15000.00,21000.00,M,M,M,M,M,31.00,220.00,2021-09-18 20:01,84.26,KINS 182058Z AUTO 22023G29KT 10SM FEW120 FEW150 FEW210 31/M03 A3000 RMK AO2 PK WND 22031/01 SLP111 T03141026 57018 $,M
LSV,2021-09-18 20:58,-115.0343,36.2362,570.00,92.30,50.20,23.87,130.00,14.00,0.00,29.92,1010.60,10.00,25.00,CLR,M,M,M,M,M,M,M,M,M,M,M,M,M,M,89.26,KLSV 182058Z AUTO 13014G25KT 10SM CLR 34/10 A2992 RMK AO2 SLP106 T03350101 57022 $,M
LSV,2021-09-18 21:01,-115.0343,36.2362,570.00,93.20,50.00,23.04,150.00,10.00,0.00,29.92,1010.60,10.00,25.00,CLR,M,M,M,M,M,M,M,M,M,M,M,M,M,M,90.10,KLSV 182101Z AUTO 15010G25KT 10SM CLR 34/10 A2992 RMK AO2 WSHFT 2047 SLP106 $,M
MEV,2021-09-18 21:15,-119.7500,38.9963,1441.42,78.80,21.20,11.64,250.00,13.00,0.00,30.03,M,10.00,25.00,CLR,M,M,M,M,M,M,M,M,M,M,M,M,M,M,78.80,KMEV 182115Z AUTO 25013G25KT 10SM CLR 26/M06 A3003 RMK AO2,M
BVU,2021-09-18 21:15,-114.8611,35.9475,671.00,91.40,53.60,27.83,M,5.00,0.00,29.95,M,10.00,16.00,SCT,SCT,M,M,7500.00,9000.00,M,M,M,M,M,M,M,M,M,89.08,KBVU 182115Z AUTO VRB05G16KT 10SM SCT075 SCT090 33/12 A2995 RMK AO2,M
BAM,2021-09-18 21:15,-116.8743,40.5990,1382.36,84.20,23.00,10.53,240.00,18.00,0.00,29.95,M,10.00,25.00,CLR,M,M,M,M,M,M,M,M,M,M,M,M,M,M,80.88,KBAM 182115Z AUTO 24018G25KT 10SM CLR 29/M05 A2995 RMK AO1,M
HTH,2021-09-18 21:15,-118.6315,38.5448,1282.89,87.80,12.20,5.89,0.00,0.00,0.00,29.94,M,9.00,16.00,CLR,M,M,M,M,M,M,M,M,M,M,M,M,M,M,82.93,KHTH 182115Z AUTO 00000G16KT 9SM CLR 31/M11 A2994 RMK A01,M
TMT,2021-09-18 21:15,-117.1971,39.4643,1749.34,80.00,25.00,13.16,250.00,17.00,0.00,30.06,M,10.00,24.00,CLR,M,M,M,M,M,M,M,M,M,M,M,M,M,M,79.90,KTMT 182115Z AUTO 25017G24KT 10SM CLR 27/M04 A3006 RMK AO2 T02661039,M
RTS,2021-09-18 21:15,-119.8764,39.6682,1539.00,73.40,23.00,15.03,230.00,28.00,0.00,30.03,M,10.00,33.00,CLR,M,M,M,M,M,M,M,M,M,M,M,M,M,M,73.40,KRTS 182115Z AUTO 23028G33KT 10SM CLR 23/M05 A3003 RMK AO2,M
CXP,2021-09-18 21:15,-119.7326,39.1923,1431.00,77.00,23.00,13.32,250.00,14.00,0.00,30.05,M,10.00,23.00,CLR,M,M,M,M,M,M,M,M,M,M,M,M,M,M,77.00,KCXP 182115Z AUTO 25014G23KT 220V300 10SM CLR 25/M05 A3005 RMK AO2,M
LSV,2021-09-18 21:17,-115.0343,36.2362,570.00,93.20,44.60,18.80,180.00,11.00,0.00,29.92,1010.60,10.00,17.00,SCT,M,M,M,13000.00,M,M,M,M,M,M,M,M,M,M,89.34,KLSV 182117Z AUTO 18011G17KT 10SM SCT130 34/07 A2992 RMK AO2 WSHFT 15 SLP106 $,M
CXP,2021-09-18 21:35,-119.7326,39.1923,1431.00,77.00,23.00,13.32,260.00,17.00,0.00,30.05,M,10.00,24.00,CLR,M,M,M,M,M,M,M,M,M,M,M,M,M,M,77.00,KCXP 182135Z AUTO 26017G24KT 10SM CLR 25/M05 A3005 RMK AO2,M
BVU,2021-09-18 21:35,-114.8611,35.9475,671.00,91.40,50.00,24.37,M,5.00,0.00,29.93,M,10.00,14.00,FEW,FEW,M,M,8000.00,8500.00,M,M,M,M,M,M,M,M,M,88.36,KBVU 182135Z AUTO VRB05G14KT 10SM FEW080 FEW085 33/10 A2993 RMK AO2,M
TMT,2021-09-18 21:35,-117.1971,39.4643,1749.34,80.00,23.70,12.47,230.00,14.00,0.00,30.05,M,10.00,24.00,CLR,M,M,M,M,M,M,M,M,M,M,M,M,M,M,79.90,KTMT 182135Z AUTO 23014G24KT 10SM CLR 27/M05 A3005 RMK AO2 T02661046,M
BAM,2021-09-18 21:35,-116.8743,40.5990,1382.36,86.00,23.00,9.94,250.00,23.00,0.00,29.94,M,10.00,31.00,CLR,M,M,M,M,M,M,M,M,M,M,M,M,M,M,82.14,KBAM 182135Z AUTO 25023G31KT 10SM CLR 30/M05 A2994 RMK AO1,M
HTH,2021-09-18 21:35,-118.6315,38.5448,1282.89,87.80,10.40,5.44,260.00,10.00,0.00,29.93,M,9.00,16.00,CLR,M,M,M,M,M,M,M,M,M,M,M,M,M,M,82.88,KHTH 182135Z AUTO 26010G16KT 220V310 9SM CLR 31/M12 A2993 RMK A01,M
MEV,2021-09-18 21:35,-119.7500,38.9963,1441.42,78.80,23.00,12.55,260.00,21.00,0.00,30.03,M,10.00,28.00,CLR,M,M,M,M,M,M,M,M,M,M,M,M,M,M,78.80,KMEV 182135Z AUTO 26021G28KT 10SM CLR 26/M05 A3003 RMK AO2,M
RTS,2021-09-18 21:35,-119.8764,39.6682,1539.00,75.20,23.00,14.15,220.00,13.00,0.00,30.04,M,10.00,31.00,CLR,M,M,M,M,M,M,M,M,M,M,M,M,M,M,75.20,KRTS 182135Z AUTO 22013G31KT 10SM CLR 24/M05 A3004 RMK AO2,M
LSV,2021-09-18 21:46,-115.0343,36.2362,570.00,95.00,33.80,11.67,240.00,17.00,0.00,29.90,1010.00,10.00,20.00,FEW,M,M,M,12000.00,M,M,M,M,M,M,M,M,M,M,89.97,KLSV 182146Z AUTO 24017G20KT 10SM FEW120 35/01 A2990 RMK AO2 WSHFT 40 SLP100 $,M
INS,2021-09-18 21:49,-115.6733,36.5872,955.00,87.80,26.60,10.91,200.00,19.00,0.00,29.98,1010.60,10.00,27.00,CLR,M,M,M,M,M,M,M,M,M,M,M,M,M,M,83.69,KINS 182149Z AUTO 20019G27KT 10SM CLR 31/M03 A2998 RMK AO2 WSHFT 47 SLP106 $,M
VGT,2021-09-18 21:53,-115.1933,36.2111,667.00,95.00,36.00,12.73,230.00,12.00,0.00,29.91,1011.70,10.00,20.00,CLR,M,M,M,M,M,M,M,M,M,M,M,M,M,M,90.32,KVGT 182153Z 23012G20KT 10SM CLR 35/02 A2991 RMK AO2 SLP117 T03500022,M
LOL,2021-09-18 21:53,-118.5701,40.0684,1192.43,86.00,23.00,9.94,240.00,22.00,0.00,29.91,1009.50,10.00,34.00,CLR,M,M,M,M,M,M,M,M,M,M,M,36.00,240.00,2021-09-18 21:10,82.14,KLOL 182153Z AUTO 24022G34KT 10SM CLR 30/M05 A2991 RMK AO2 PK WND 24036/2110 SLP095 T03001050,M
P68,2021-09-18 21:53,-116.0056,39.6014,1993.00,79.00,17.10,9.70,230.00,15.00,0.00,30.03,1008.40,M,32.00,M,M,M,M,M,M,M,M,M,M,M,M,33.00,250.00,2021-09-18 21:18,79.00,KP68 182153Z AUTO 23015G32KT 26/M08 A3003 RMK AO1 PK WND 25033/2118 SLP084 T02611083,M
ELY,2021-09-18 21:53,-114.8453,39.2950,1909.00,73.00,36.00,25.88,180.00,12.00,0.00,30.10,1010.10,10.00,18.00,BKN,BKN,M,M,10000.00,11000.00,M,M,M,M,M,M,M,M,M,73.00,KELY 182153Z AUTO 18012G18KT 10SM BKN100 BKN110 23/02 A3010 RMK AO2 SLP101 T02280022,M
DRA,2021-09-18 21:53,-116.0278,36.6206,1009.00,89.00,19.90,7.90,210.00,21.00,0.00,29.99,1010.90,10.00,33.00,CLR,M,M,M,M,M,M,M,M,M,M,M,33.00,210.00,2021-09-18 21:30,84.20,KDRA 182153Z AUTO 21021G33KT 10SM CLR 32/M07 A2999 RMK AO2 PK WND 21033/2130 SLP109 T03171067,M
BAM,2021-09-18 21:55,-116.8743,40.5990,1382.36,84.20,23.00,10.53,250.00,15.00,0.00,29.93,M,10.00,29.00,CLR,M,M,M,M,M,M,M,M,M,M,M,M,M,M,80.88,KBAM 182155Z AUTO 25015G29KT 10SM CLR 29/M05 A2993 RMK AO1,M
RNO,2021-09-18 21:55,-119.7711,39.4839,1341.00,79.00,26.10,14.19,200.00,18.00,0.00,29.99,1010.80,10.00,27.00,FEW,FEW,M,M,15000.00,20000.00,M,M,M,M,M,M,31.00,220.00,2021-09-18 21:11,79.00,KRNO 182155Z 20018G27KT 10SM FEW150 FEW200 26/M03 A2999 RMK AO2 PK WND 22031/2111 SLP108 ACSL DSNT N THRU SE AND NW HZ VC SE THRU S THRU W T02611033,M
CXP,2021-09-18 21:55,-119.7326,39.1923,1431.00,77.00,24.80,14.37,240.00,13.00,0.00,30.05,M,10.00,27.00,CLR,M,M,M,M,M,M,M,M,M,M,M,M,M,M,77.00,KCXP 182155Z AUTO 24013G27KT 220V280 10SM CLR 25/M04 A3005 RMK AO2,M
HTH,2021-09-18 21:55,-118.6315,38.5448,1282.89,87.80,10.40,5.44,220.00,8.00,0.00,29.93,M,9.00,16.00,CLR,M,M,M,M,M,M,M,M,M,M,M,M,M,M,82.88,KHTH 182155Z AUTO 22008G16KT 180V240 9SM CLR 31/M12 A2993 RMK A01,M
TMT,2021-09-18 21:55,-117.1971,39.4643,1749.34,80.40,23.90,12.37,230.00,17.00,0.00,30.04,M,10.00,25.00,CLR,M,M,M,M,M,M,M,M,M,M,M,M,M,M,78.66,KTMT 182155Z AUTO 23017G25KT 10SM CLR 27/M04 A3004 RMK AO2 T02691045,M
BVU,2021-09-18 21:55,-114.8611,35.9475,671.00,91.40,48.20,22.78,M,4.00,0.00,29.93,M,10.00,M,FEW,M,M,M,12000.00,M,M,M,M,M,M,M,M,M,M,88.09,KBVU 182155Z AUTO VRB04KT 10SM FEW120 33/09 A2993 RMK AO2,M
RTS,2021-09-18 21:55,-119.8764,39.6682,1539.00,73.40,23.00,15.03,230.00,19.00,0.00,30.04,M,10.00,26.00,CLR,M,M,M,M,M,M,M,M,M,M,M,M,M,M,73.40,KRTS 182155Z AUTO 23019G26KT 10SM CLR 23/M05 A3004 RMK AO2,M
MEV,2021-09-18 21:55,-119.7500,38.9963,1441.42,78.80,23.00,12.55,250.00,16.00,0.00,30.03,M,9.00,31.00,CLR,M,M,M,M,M,M,M,M,M,M,M,M,M,M,78.80,KMEV 182155Z AUTO 25016G31KT 9SM CLR 26/M05 A3003 RMK AO2,M
EKO,2021-09-18 21:56,-115.7860,40.8242,1367.00,82.00,27.00,13.36,240.00,18.00,0.00,29.94,1007.60,8.00,30.00,CLR,M,M,M,M,M,M,M,M,M,M,M,31.00,240.00,2021-09-18 21:36,79.64,KEKO 182156Z AUTO 24018G30KT 8SM CLR 28/M03 A2994 RMK AO2 PK WND 24031/2136 SLP076 T02781028,M
WMC,2021-09-18 21:56,-117.8072,40.9019,1315.00,84.00,14.00,7.20,230.00,20.00,0.00,29.91,1008.80,10.00,31.00,FEW,M,M,M,2200.00,M,M,M,M,M,M,M,36.00,250.00,2021-09-18 21:01,80.30,KWMC 182156Z AUTO 23020G31KT 10SM FEW022 29/M10 A2991 RMK AO2 PK WND 25036/2101 SLP088 T02891100 $,M
NFL,2021-09-18 21:56,-118.7010,39.4166,1199.00,87.00,14.00,6.52,250.00,23.00,0.00,29.93,1010.70,9.00,30.00,SCT,SCT,M,M,12000.00,25000.00,M,M,M,M,M,M,30.00,250.00,2021-09-18 21:56,82.49,KNFL 182156Z 25023G30KT 9SM SCT120 SCT250 31/M10 A2993 RMK AO2 PK WND 25030/2156 SLP107 ACSL ALQDS T03061100,M
HND,2021-09-18 21:56,-115.1344,35.9729,742.79,94.00,36.00,13.17,250.00,13.00,0.00,29.96,1013.00,10.00,20.00,CLR,M,M,M,M,M,M,M,M,M,M,M,M,M,M,89.40,KHND 182156Z 25013G20KT 10SM CLR 34/02 A2996 RMK AO2 SLP130 T03440022,M
TPH,2021-09-18 21:56,-117.0904,38.0505,1654.00,80.00,14.00,8.17,200.00,13.00,0.00,30.07,1011.40,10.00,19.00,CLR,M,M,M,M,M,M,M,M,M,M,M,26.00,240.00,2021-09-18 21:45,77.77,KTPH 182156Z AUTO 20013G19KT 10SM CLR 27/M10 A3007 RMK AO2 PK WND 24026/2145 SLP114 T02671100,M
LAS,2021-09-18 21:56,-115.1634,36.0719,663.00,93.00,32.00,11.55,250.00,10.00,0.00,29.93,1010.70,10.00,18.00,SCT,BKN,M,M,14000.00,24000.00,M,M,M,M,M,M,M,M,M,88.15,KLAS 182156Z 25010G18KT 10SM SCT140 BKN240 34/00 A2993 RMK AO2 SLP107 T03390000,M
LSV,2021-09-18 21:58,-115.0343,36.2362,570.00,94.50,34.00,11.94,210.00,15.00,0.00,29.89,1009.60,10.00,M,FEW,M,M,M,12000.00,M,M,M,M,M,M,M,M,M,M,89.60,KLSV 182158Z AUTO 21015KT 10SM FEW120 35/01 A2989 RMK AO2 SLP096 T03470011 $,M
INS,2021-09-18 21:58,-115.6733,36.5872,955.00,87.80,28.80,11.94,210.00,17.00,0.00,29.97,1010.20,10.00,27.00,CLR,M,M,M,M,M,M,M,M,M,M,M,27.00,190.00,2021-09-18 21:48,83.87,KINS 182158Z AUTO 21017G27KT 10SM CLR 31/M02 A2997 RMK AO2 PK WND 19027/48 SLP102 T03101018 $,M
INS,2021-09-18 22:03,-115.6733,36.5872,955.00,87.80,26.60,10.91,240.00,11.00,0.00,29.97,1010.20,10.00,23.00,CLR,M,M,M,M,M,M,M,M,M,M,M,M,M,M,83.69,KINS 182203Z AUTO 24011G23KT 10SM CLR 31/M03 A2997 RMK AO2 WSHFT 2150 SLP102 $,M
INS,2021-09-18 22:12,-115.6733,36.5872,955.00,87.80,28.40,11.74,240.00,15.00,0.00,29.96,1009.90,10.00,25.00,CLR,M,M,M,M,M,M,M,M,M,M,M,M,M,M,83.84,KINS 182212Z AUTO 24015G25KT 10SM CLR 31/M02 A2996 RMK AO2 WSHFT 09 SLP099 $,M
CXP,2021-09-18 22:15,-119.7326,39.1923,1431.00,77.00,24.80,14.37,250.00,14.00,0.00,30.04,M,10.00,22.00,CLR,M,M,M,M,M,M,M,M,M,M,M,M,M,M,77.00,KCXP 182215Z AUTO 25014G22KT 10SM CLR 25/M04 A3004 RMK AO2,M
INS,2021-09-18 22:15,-115.6733,36.5872,955.00,87.80,28.40,11.74,200.00,25.00,0.00,29.96,1009.90,10.00,30.00,CLR,M,M,M,M,M,M,M,M,M,M,M,M,M,M,83.84,KINS 182215Z AUTO 20025G30KT 10SM CLR 31/M02 A2996 RMK AO2 WSHFT 12 SLP099 $,M
BVU,2021-09-18 22:15,-114.8611,35.9475,671.00,91.40,48.20,22.78,0.00,0.00,0.00,29.92,M,10.00,M,SCT,M,M,M,12000.00,M,M,M,M,M,M,M,M,M,M,88.09,KBVU 182215Z AUTO 00000KT 10SM SCT120 33/09 A2992 RMK AO2,M
RTS,2021-09-18 22:15,-119.8764,39.6682,1539.00,73.40,23.00,15.03,230.00,27.00,0.00,30.03,M,10.00,M,CLR,M,M,M,M,M,M,M,M,M,M,M,M,M,M,73.40,KRTS 182215Z AUTO 23027KT 10SM CLR 23/M05 A3003 RMK AO2,M
BAM,2021-09-18 22:15,-116.8743,40.5990,1382.36,86.00,21.20,9.21,240.00,21.00,0.00,29.93,M,10.00,36.00,CLR,M,M,M,M,M,M,M,M,M,M,M,M,M,M,82.04,KBAM 182215Z AUTO 24021G36KT 10SM CLR 30/M06 A2993 RMK AO1,M
HTH,2021-09-18 22:15,-118.6315,38.5448,1282.89,87.80,8.60,5.02,270.00,13.00,0.00,29.93,M,10.00,18.00,CLR,M,M,M,M,M,M,M,M,M,M,M,M,M,M,82.82,KHTH 182215Z AUTO 27013G18KT 10SM CLR 31/M13 A2993 RMK A01,M
MEV,2021-09-18 22:15,-119.7500,38.9963,1441.42,78.80,24.80,13.54,260.00,15.00,0.00,30.03,M,9.00,24.00,CLR,M,M,M,M,M,M,M,M,M,M,M,M,M,M,78.80,KMEV 182215Z AUTO 26015G24KT 9SM CLR 26/M04 A3003 RMK AO2,M
TMT,2021-09-18 22:15,-117.1971,39.4643,1749.34,79.70,22.80,12.09,240.00,16.00,0.00,30.04,M,10.00,27.00,CLR,M,M,M,M,M,M,M,M,M,M,M,M,M,M,79.70,KTMT 182215Z AUTO 24016G27KT 10SM CLR 27/M05 A3004 RMK AO2 T02651051,M
INS,2021-09-18 22:29,-115.6733,36.5872,955.00,87.80,26.60,10.91,250.00,16.00,0.00,29.96,1009.90,10.00,24.00,CLR,M,M,M,M,M,M,M,M,M,M,M,M,M,M,83.69,KINS 182229Z AUTO 25016G24KT 10SM CLR 31/M03 A2996 RMK AO2 WSHFT 26 SLP099 $,M
BAM,2021-09-18 22:35,-116.8743,40.5990,1382.36,84.20,23.00,10.53,250.00,15.00,0.00,29.93,M,10.00,29.00,CLR,M,M,M,M,M,M,M,M,M,M,M,M,M,M,80.88,KBAM 182235Z AUTO 25015G29KT 10SM CLR 29/M05 A2993 RMK AO1,M
BVU,2021-09-18 22:35,-114.8611,35.9475,671.00,91.40,46.40,21.29,M,5.00,0.00,29.91,M,10.00,M,SCT,M,M,M,12000.00,M,M,M,M,M,M,M,M,M,M,87.86,KBVU 182235Z AUTO VRB05KT 10SM SCT120 33/08 A2991 RMK AO2,M
CXP,2021-09-18 22:35,-119.7326,39.1923,1431.00,75.20,24.80,15.25,250.00,13.00,0.00,30.03,M,10.00,23.00,CLR,M,M,M,M,M,M,M,M,M,M,M,M,M,M,75.20,KCXP 182235Z AUTO 25013G23KT 10SM CLR 24/M04 A3003 RMK AO2,M
RTS,2021-09-18 22:35,-119.8764,39.6682,1539.00,73.40,23.00,15.03,230.00,21.00,0.00,30.03,M,10.00,34.00,CLR,M,M,M,M,M,M,M,M,M,M,M,M,M,M,73.40,KRTS 182235Z AUTO 23021G34KT 10SM CLR 23/M05 A3003 RMK AO2,M
MEV,2021-09-18 22:35,-119.7500,38.9963,1441.42,78.80,23.00,12.55,210.00,19.00,0.00,30.02,M,10.00,M,CLR,M,M,M,M,M,M,M,M,M,M,M,M,M,M,78.80,KMEV 182235Z AUTO 21019KT 10SM CLR 26/M05 A3002 RMK AO2,M
TMT,2021-09-18 22:35,-117.1971,39.4643,1749.34,79.70,22.60,11.98,250.00,17.00,0.00,30.03,M,10.00,28.00,CLR,M,M,M,M,M,M,M,M,M,M,M,M,M,M,79.70,KTMT 182235Z AUTO 25017G28KT 10SM CLR 27/M05 A3003 RMK AO2 T02651052,M
HTH,2021-09-18 22:35,-118.6315,38.5448,1282.89,89.60,6.80,4.37,220.00,14.00,0.00,29.92,M,10.00,23.00,CLR,M,M,M,M,M,M,M,M,M,M,M,M,M,M,84.07,KHTH 182235Z AUTO 22014G23KT 10SM CLR 32/M14 A2992 RMK A01,M
WMC,2021-09-18 22:36,-117.8072,40.9019,1315.00,84.00,19.00,8.94,240.00,21.00,0.00,29.90,M,2.50,35.00,SCT,M,M,M,1500.00,M,M,M,HZ,M,M,M,35.00,260.00,2021-09-18 22:29,80.52,KWMC 182236Z AUTO 24021G35KT 2 1/2SM HZ SCT015 29/M07 A2990 RMK AO2 PK WND 26035/2229 T02891072 $,M
WMC,2021-09-18 22:43,-117.8072,40.9019,1315.00,84.00,19.90,9.29,250.00,20.00,0.00,29.90,M,9.00,31.00,FEW,M,M,M,1700.00,M,M,M,M,M,M,M,35.00,260.00,2021-09-18 22:29,80.57,KWMC 182243Z AUTO 25020G31KT 9SM FEW017 29/M07 A2990 RMK AO2 PK WND 26035/2229 T02891067 $,M
INS,2021-09-18 22:52,-115.6733,36.5872,955.00,87.80,24.80,10.12,250.00,19.00,0.00,29.96,1009.90,10.00,22.00,CLR,M,M,M,M,M,M,M,M,M,M,M,M,M,M,83.56,KINS 182252Z AUTO 25019G22KT 10SM CLR 31/M04 A2996 RMK AO2 WSHFT 42 SLP099 $,M
LOL,2021-09-18 22:53,-118.5701,40.0684,1192.43,85.00,26.10,11.72,230.00,21.00,0.00,29.89,1009.00,10.00,31.00,CLR,M,M,M,M,M,M,M,M,M,M,M,35.00,250.00,2021-09-18 21:58,81.58,KLOL 182253Z AUTO 23021G31KT 10SM CLR 29/M03 A2989 RMK AO2 PK WND 25035/2158 SLP090 T02941033,M
VGT,2021-09-18 22:53,-115.1933,36.2111,667.00,96.00,35.00,11.88,220.00,19.00,0.00,29.88,1010.60,10.00,27.00,CLR,M,M,M,M,M,M,M,M,M,M,M,27.00,220.00,2021-09-18 22:53,91.07,KVGT 182253Z 22019G27KT 10SM CLR 36/02 A2988 RMK AO2 PK WND 22027/2253 SLP106 T03560017,M
DRA,2021-09-18 22:53,-116.0278,36.6206,1009.00,87.00,16.00,7.12,210.00,15.00,0.00,29.97,1010.20,10.00,25.00,CLR,M,M,M,M,M,M,M,M,M,M,M,33.00,220.00,2021-09-18 21:54,82.57,KDRA 182253Z AUTO 21015G25KT 10SM CLR 31/M09 A2997 RMK AO2 PK WND 22033/2154 SLP102 T03061089,M
ELY,2021-09-18 22:53,-114.8453,39.2950,1909.00,74.00,32.00,21.40,180.00,14.00,0.00,30.07,1009.00,10.00,29.00,FEW,M,M,M,10000.00,M,M,M,M,M,M,M,29.00,200.00,2021-09-18 22:13,73.90,KELY 182253Z AUTO 18014G29KT 10SM FEW100 23/00 A3007 RMK AO2 PK WND 20029/2213 SLP090 T02330000,M
P68,2021-09-18 22:53,-116.0056,39.6014,1993.00,80.00,21.00,11.06,190.00,17.00,0.00,30.01,1007.20,M,26.00,M,M,M,M,M,M,M,M,M,M,M,M,27.00,210.00,2021-09-18 22:30,78.16,KP68 182253Z AUTO 19017G26KT 27/M06 A3001 RMK AO1 PK WND 21027/2230 SLP072 T02671061,M
BVU,2021-09-18 22:55,-114.8611,35.9475,671.00,91.40,44.60,19.89,90.00,7.00,0.00,29.90,M,10.00,M,FEW,M,M,M,12000.00,M,M,M,M,M,M,M,M,M,M,87.68,KBVU 182255Z AUTO 09007KT 10SM FEW120 33/07 A2990 RMK AO2,M
HTH,2021-09-18 22:55,-118.6315,38.5448,1282.89,87.80,6.80,4.63,250.00,14.00,0.00,29.92,M,10.00,24.00,CLR,M,M,M,M,M,M,M,M,M,M,M,M,M,M,82.78,KHTH 182255Z AUTO 25014G24KT 10SM CLR 31/M14 A2992 RMK A01,M
TMT,2021-09-18 22:55,-117.1971,39.4643,1749.34,79.50,22.60,12.06,250.00,18.00,0.00,30.03,M,10.00,26.00,CLR,M,M,M,M,M,M,M,M,M,M,M,M,M,M,79.50,KTMT 182255Z AUTO 25018G26KT 10SM CLR 26/M05 A3003 RMK AO2 T02641052,M
RTS,2021-09-18 22:55,-119.8764,39.6682,1539.00,71.60,21.20,14.80,240.00,25.00,0.00,30.03,M,10.00,36.00,CLR,M,M,M,M,M,M,M,M,M,M,M,M,M,M,71.60,KRTS 182255Z AUTO 24025G36KT 10SM CLR 22/M06 A3003 RMK AO2,M
CXP,2021-09-18 22:55,-119.7326,39.1923,1431.00,75.20,26.60,16.43,250.00,11.00,0.00,30.03,M,10.00,25.00,CLR,M,M,M,M,M,M,M,M,M,M,M,M,M,M,75.20,KCXP 182255Z AUTO 25011G25KT 10SM CLR 24/M03 A3003 RMK AO2,M
BAM,2021-09-18 22:55,-116.8743,40.5990,1382.36,84.20,21.20,9.76,230.00,22.00,0.00,29.92,M,10.00,29.00,CLR,M,M,M,M,M,M,M,M,M,M,M,M,M,M,80.77,KBAM 182255Z AUTO 23022G29KT 10SM CLR 29/M06 A2992 RMK AO1,M
INS,2021-09-18 22:55,-115.6733,36.5872,955.00,87.80,24.80,10.12,210.00,24.00,0.00,29.96,1009.90,10.00,29.00,CLR,M,M,M,M,M,M,M,M,M,M,M,M,M,M,83.56,KINS 182255Z AUTO 21024G29KT 10SM CLR 31/M04 A2996 RMK AO2 WSHFT 53 SLP099 $,M
RNO,2021-09-18 22:55,-119.7711,39.4839,1341.00,78.00,28.90,16.41,210.00,11.00,0.00,29.99,1010.80,10.00,21.00,FEW,M,M,M,10000.00,M,M,M,M,M,M,M,31.00,180.00,2021-09-18 22:23,78.10,KRNO 182255Z 21011G21KT 10SM FEW100 26/M02 A2999 RMK AO2 PK WND 18031/2223 SLP108 ACSL DSNT NE T02561017,M
MEV,2021-09-18 22:55,-119.7500,38.9963,1441.42,77.00,23.00,13.32,220.00,23.00,0.00,30.02,M,9.00,M,CLR,M,M,M,M,M,M,M,M,M,M,M,M,M,M,77.00,KMEV 182255Z AUTO 22023KT 9SM CLR 25/M05 A3002 RMK AO2,M
EKO,2021-09-18 22:56,-115.7860,40.8242,1367.00,81.00,26.10,13.29,230.00,17.00,0.00,29.92,1007.00,8.00,31.00,CLR,M,M,M,M,M,M,M,M,M,M,M,31.00,250.00,2021-09-18 22:52,78.94,KEKO 182256Z AUTO 23017G31KT 8SM CLR 27/M03 A2992 RMK AO2 PK WND 25031/2252 SLP070 T02721033,M
WMC,2021-09-18 22:56,-117.8072,40.9019,1315.00,84.00,21.00,9.74,220.00,17.00,0.00,29.89,1008.20,6.00,28.00,FEW,M,M,M,1500.00,M,M,M,HZ,M,M,M,35.00,260.00,2021-09-18 22:29,80.63,KWMC 182256Z AUTO 22017G28KT 6SM HZ FEW015 29/M06 A2989 RMK AO2 PK WND 26035/2229 SLP082 T02891061 $,M
LAS,2021-09-18 22:56,-115.1634,36.0719,663.00,93.00,32.00,11.55,240.00,14.00,0.00,29.90,1009.80,10.00,25.00,FEW,BKN,M,M,13000.00,24000.00,M,M,M,M,M,M,M,M,M,88.15,KLAS 182256Z 24014G25KT 10SM FEW130 BKN240 34/00 A2990 RMK AO2 SLP098 T03390000,M
NFL,2021-09-18 22:56,-118.7010,39.4166,1199.00,86.00,17.10,7.73,250.00,20.00,0.00,29.92,1010.50,10.00,30.00,FEW,SCT,M,M,12000.00,25000.00,M,M,M,M,M,M,34.00,250.00,2021-09-18 22:21,81.83,KNFL 182256Z 25020G30KT 10SM FEW120 SCT250 30/M08 A2992 RMK AO2 PK WND 25034/2221 SLP105 BLDU DSNT NE-E T03001083,M
HND,2021-09-18 22:56,-115.1344,35.9729,742.79,93.00,35.00,13.07,230.00,18.00,0.00,29.93,1012.10,10.00,22.00,CLR,M,M,M,M,M,M,M,M,M,M,M,M,M,M,88.56,KHND 182256Z 23018G22KT 10SM CLR 34/02 A2993 RMK AO2 SLP121 T03390017,M
TPH,2021-09-18 22:56,-117.0904,38.0505,1654.00,81.00,12.90,7.56,200.00,9.00,0.00,30.04,1010.50,10.00,17.00,CLR,M,M,M,M,M,M,M,M,M,M,M,M,M,M,78.23,KTPH 182256Z AUTO 20009G17KT 10SM CLR 27/M11 A3004 RMK AO2 SLP105 T02721106,M
INS,2021-09-18 22:58,-115.6733,36.5872,955.00,87.60,24.30,9.97,210.00,21.00,0.00,29.96,1009.90,10.00,29.00,CLR,M,M,M,M,M,M,M,M,M,M,M,30.00,200.00,2021-09-18 22:13,83.38,KINS 182258Z AUTO 21021G29KT 10SM CLR 31/M04 A2996 RMK AO2 PK WND 20030/13 SLP099 T03091043 $,M
LSV,2021-09-18 22:58,-115.0343,36.2362,570.00,94.50,31.80,10.93,210.00,13.00,0.00,29.87,1009.00,10.00,21.00,CLR,M,M,M,M,M,M,M,M,M,M,M,M,M,M,89.29,KLSV 182258Z AUTO 21013G21KT 10SM CLR 35/M00 A2987 RMK AO2 SLP090 T03471001 $,M
CXP,2021-09-18 23:15,-119.7326,39.1923,1431.00,75.20,26.60,16.43,250.00,13.00,0.00,30.03,M,10.00,23.00,CLR,M,M,M,M,M,M,M,M,M,M,M,M,M,M,75.20,KCXP 182315Z AUTO 25013G23KT 10SM CLR 24/M03 A3003 RMK AO2,M
TMT,2021-09-18 23:15,-117.1971,39.4643,1749.34,78.80,21.70,11.88,250.00,18.00,0.00,30.02,M,10.00,26.00,CLR,M,M,M,M,M,M,M,M,M,M,M,M,M,M,78.80,KTMT 182315Z AUTO 25018G26KT 10SM CLR 26/M06 A3002 RMK AO2 T02601057,M
MEV,2021-09-18 23:15,-119.7500,38.9963,1441.42,77.00,24.80,14.37,230.00,19.00,0.00,30.03,M,10.00,25.00,CLR,M,M,M,M,M,M,M,M,M,M,M,M,M,M,77.00,KMEV 182315Z AUTO 23019G25KT 10SM CLR 25/M04 A3003 RMK AO2,M
RTS,2021-09-18 23:15,-119.8764,39.6682,1539.00,71.60,19.40,13.71,240.00,22.00,0.00,30.03,M,10.00,32.00,CLR,M,M,M,M,M,M,M,M,M,M,M,M,M,M,71.60,KRTS 182315Z AUTO 24022G32KT 10SM CLR 22/M07 A3003 RMK AO2,M
HTH,2021-09-18 23:15,-118.6315,38.5448,1282.89,87.80,10.40,5.44,260.00,20.00,0.00,29.92,M,10.00,M,CLR,M,M,M,M,M,M,M,M,M,M,M,M,M,M,82.88,KHTH 182315Z AUTO 26020KT 10SM CLR 31/M12 A2992 RMK A01,M
BAM,2021-09-18 23:15,-116.8743,40.5990,1382.36,82.40,19.40,9.58,250.00,20.00,0.00,29.92,M,7.00,24.00,CLR,M,M,M,M,M,M,M,M,M,M,M,M,M,M,79.45,KBAM 182315Z AUTO 25020G24KT 7SM CLR 28/M07 A2992 RMK AO1,M
BVU,2021-09-18 23:15,-114.8611,35.9475,671.00,93.20,41.00,16.37,M,3.00,0.00,29.89,M,10.00,M,FEW,M,M,M,12000.00,M,M,M,M,M,M,M,M,M,M,89.03,KBVU 182315Z AUTO VRB03KT 10SM FEW120 34/05 A2989 RMK AO2,M
BVU,2021-09-18 23:35,-114.8611,35.9475,671.00,93.20,44.60,18.80,M,3.00,0.00,29.89,M,10.00,12.00,SCT,M,M,M,12000.00,M,M,M,M,M,M,M,M,M,M,89.34,KBVU 182335Z AUTO VRB03G12KT 10SM SCT120 34/07 A2989 RMK AO2,M
BAM,2021-09-18 23:35,-116.8743,40.5990,1382.36,82.40,19.40,9.58,250.00,14.00,0.00,29.92,M,3.00,24.00,CLR,M,M,M,M,M,M,M,M,M,M,M,M,M,M,79.45,KBAM 182335Z AUTO 25014G24KT 3SM CLR 28/M07 A2992 RMK AO1,M
CXP,2021-09-18 23:35,-119.7326,39.1923,1431.00,73.40,26.60,17.46,260.00,12.00,0.00,30.03,M,10.00,23.00,CLR,M,M,M,M,M,M,M,M,M,M,M,M,M,M,73.40,KCXP 182335Z AUTO 26012G23KT 10SM CLR 23/M03 A3003 RMK AO2,M
RTS,2021-09-18 23:35,-119.8764,39.6682,1539.00,69.80,19.40,14.57,230.00,24.00,0.00,30.02,M,10.00,35.00,CLR,M,M,M,M,M,M,M,M,M,M,M,M,M,M,69.80,KRTS 182335Z AUTO 23024G35KT 10SM CLR 21/M07 A3002 RMK AO2,M
MEV,2021-09-18 23:35,-119.7500,38.9963,1441.42,75.20,24.80,15.25,240.00,13.00,0.00,30.02,M,10.00,21.00,CLR,M,M,M,M,M,M,M,M,M,M,M,M,M,M,75.20,KMEV 182335Z AUTO 24013G21KT 10SM CLR 24/M04 A3002 RMK AO2,M
TMT,2021-09-18 23:35,-117.1971,39.4643,1749.34,78.30,21.90,12.18,260.00,17.00,0.00,30.02,M,10.00,25.00,CLR,M,M,M,M,M,M,M,M,M,M,M,M,M,M,78.30,KTMT 182335Z AUTO 26017G25KT 10SM CLR 26/M06 A3002 RMK AO2 T02571056,M
HTH,2021-09-18 23:35,-118.6315,38.5448,1282.89,87.80,14.00,6.38,260.00,17.00,0.00,29.92,M,10.00,M,CLR,M,M,M,M,M,M,M,M,M,M,M,M,M,M,83.00,KHTH 182335Z AUTO 26017KT 10SM CLR 31/M10 A2992 RMK A01,M
DRA,2021-09-18 23:53,-116.0278,36.6206,1009.00,87.00,7.00,4.77,210.00,16.00,0.00,29.94,1009.30,10.00,29.00,CLR,M,M,M,M,M,M,M,M,M,M,M,29.00,180.00,2021-09-18 23:50,82.28,KDRA 182353Z AUTO 21016G29KT 10SM CLR 31/M14 A2994 RMK AO2 PK WND 18029/2350 SLP093 T03061139 10317 20283 57024,M
LOL,2021-09-18 23:53,-118.5701,40.0684,1192.43,84.00,26.10,12.06,250.00,20.00,0.00,29.90,1009.60,10.00,27.00,CLR,M,M,M,M,M,M,M,M,M,M,M,30.00,240.00,2021-09-18 23:10,80.96,KLOL 182353Z AUTO 25020G27KT 10SM CLR 29/M03 A2990 RMK AO2 PK WND 24030/2310 SLP096 T02891033 10306 20272 55007,M
P68,2021-09-18 23:53,-116.0056,39.6014,1993.00,78.00,19.00,10.84,210.00,11.00,0.00,30.00,1007.60,M,21.00,M,M,M,M,M,M,M,M,M,M,M,M,M,M,M,78.10,KP68 182353Z AUTO 21011G21KT 26/M07 A3000 RMK AO1 SLP076 T02561072 10267 20228 56015,M
VGT,2021-09-18 23:53,-115.1933,36.2111,667.00,94.00,30.90,10.74,210.00,17.00,0.00,29.87,1010.50,10.00,M,CLR,M,M,M,M,M,M,M,M,M,M,M,28.00,210.00,2021-09-18 23:16,88.71,KVGT 182353Z 21017KT 10SM CLR 34/M01 A2987 RMK AO2 PK WND 21028/2316 SLP105 T03441006 10356 20311 56021,M
ELY,2021-09-18 23:53,-114.8453,39.2950,1909.00,74.00,30.90,20.47,180.00,15.00,0.00,30.06,1008.50,10.00,26.00,FEW,M,M,M,11000.00,M,M,M,M,M,M,M,29.00,230.00,2021-09-18 23:41,73.90,KELY 182353Z AUTO 18015G26KT 10SM FEW110 23/M01 A3006 RMK AO2 PK WND 23029/2341 SLP085 T02331006 10244 20189 56019,M
RNO,2021-09-18 23:55,-119.7711,39.4839,1341.00,76.00,27.00,16.32,220.00,8.00,0.00,29.99,1011.00,10.00,20.00,SCT,M,M,M,10000.00,M,M,M,M,M,M,M,M,M,M,75.90,KRNO 182355Z 22008G20KT 10SM SCT100 24/M03 A2999 RMK AO2 SLP110 ACSL NW THRU NE T02441028 10272 20244 58001,M
HTH,2021-09-18 23:55,-118.6315,38.5448,1282.89,86.00,14.00,6.75,250.00,20.00,0.00,29.92,M,9.00,M,CLR,M,M,M,M,M,M,M,M,M,M,M,M,M,M,81.71,KHTH 182355Z AUTO 25020KT 9SM CLR 30/M10 A2992 RMK A01,M
BAM,2021-09-18 23:55,-116.8743,40.5990,1382.36,82.40,19.40,9.58,250.00,17.00,0.00,29.91,M,3.00,25.00,CLR,M,M,M,M,M,M,M,M,M,M,M,M,M,M,79.45,KBAM 182355Z AUTO 25017G25KT 3SM CLR 28/M07 A2991 RMK AO1,M
RTS,2021-09-18 23:55,-119.8764,39.6682,1539.00,69.80,19.40,14.57,240.00,26.00,0.00,30.02,M,10.00,39.00,CLR,M,M,M,M,M,M,M,M,M,M,M,M,M,M,69.80,KRTS 182355Z AUTO 24026G39KT 10SM CLR 21/M07 A3002 RMK AO2,M
MEV,2021-09-18 23:55,-119.7500,38.9963,1441.42,75.20,24.80,15.25,210.00,14.00,0.00,30.02,M,10.00,M,CLR,M,M,M,M,M,M,M,M,M,M,M,M,M,M,75.20,KMEV 182355Z AUTO 21014KT 10SM CLR 24/M04 A3002 RMK AO2,M
TMT,2021-09-18 23:55,-117.1971,39.4643,1749.34,77.20,23.00,13.23,250.00,15.00,0.00,30.02,M,10.00,22.00,CLR,M,M,M,M,M,M,M,M,M,M,M,M,M,M,77.20,KTMT 182355Z AUTO 25015G22KT 10SM CLR 25/M05 A3002 RMK AO2 T02511050 10270 20222,M
BVU,2021-09-18 23:55,-114.8611,35.9475,671.00,95.00,32.00,10.85,240.00,11.00,0.00,29.88,M,10.00,20.00,FEW,M,M,M,12000.00,M,M,M,M,M,M,M,M,M,M,89.71,KBVU 182355Z AUTO 24011G20KT 10SM FEW120 35/00 A2988 RMK AO2,M
CXP,2021-09-18 23:55,-119.7326,39.1923,1431.00,73.40,26.60,17.46,260.00,15.00,0.00,30.03,M,10.00,22.00,CLR,M,M,M,M,M,M,M,M,M,M,M,M,M,M,73.40,KCXP 182355Z AUTO 26015G22KT 10SM CLR 23/M03 A3003 RMK AO2,M
EKO,2021-09-18 23:56,-115.7860,40.8242,1367.00,81.00,25.00,12.70,220.00,19.00,0.00,29.91,1006.70,10.00,25.00,CLR,M,M,M,M,M,M,M,M,M,M,M,30.00,230.00,2021-09-18 23:42,78.89,KEKO 182356Z AUTO 22019G25KT 10SM CLR 27/M04 A2991 RMK AO2 PK WND 23030/2342 SLP067 T02721039 10283 20233 56016,M
WMC,2021-09-18 23:56,-117.8072,40.9019,1315.00,80.00,21.90,11.48,260.00,17.00,0.00,29.89,1008.50,7.00,26.00,CLR,M,M,M,M,M,M,M,M,M,M,M,32.00,240.00,2021-09-18 23:21,78.22,KWMC 182356Z AUTO 26017G26KT 7SM CLR 27/M06 A2989 RMK AO2 PK WND 24032/2321 SLP085 T02671056 10306 20267 56009 $,M
NFL,2021-09-18 23:56,-118.7010,39.4166,1199.00,85.00,19.00,8.69,240.00,16.00,0.00,29.92,1010.40,10.00,23.00,FEW,FEW,M,M,12000.00,25000.00,M,M,M,M,M,M,32.00,260.00,2021-09-18 23:01,81.14,KNFL 182356Z 24016G23KT 10SM FEW120 FEW250 29/M07 A2992 RMK AO2 PK WND 26032/2301 SLP104 BLDU DSNT NE-E T02941072 10311 20272 56007,M
HND,2021-09-18 23:56,-115.1344,35.9729,742.79,92.00,34.00,12.95,240.00,19.00,0.00,29.93,1012.00,10.00,M,CLR,M,M,M,M,M,M,M,M,M,M,M,28.00,250.00,2021-09-18 23:37,87.56,KHND 182356Z 24019KT 10SM CLR 33/01 A2993 RMK AO2 PK WND 25028/2337 SLP120 T03330011 10350 20306 56020,M
LAS,2021-09-18 23:56,-115.1634,36.0719,663.00,93.00,32.00,11.55,210.00,13.00,0.00,29.89,1009.50,10.00,23.00,FEW,SCT,M,M,13000.00,24000.00,M,M,M,M,M,M,30.00,250.00,2021-09-18 23:19,88.15,KLAS 182356Z 21013G23KT 10SM FEW130 SCT240 34/00 A2989 RMK AO2 PK WND 25030/2319 SLP095 T03390000 10344 20300 56021,M
TPH,2021-09-18 23:56,-117.0904,38.0505,1654.00,79.00,14.00,8.48,220.00,9.00,0.00,30.03,1009.80,10.00,M,CLR,M,M,M,M,M,M,M,M,M,M,M,M,M,M,79.00,KTPH 182356Z AUTO 22009KT 10SM CLR 26/M10 A3003 RMK AO2 SLP098 T02611100 10278 20244 56016,M
INS,2021-09-18 23:58,-115.6733,36.5872,955.00,86.50,15.10,6.98,220.00,16.00,0.00,29.93,1009.00,10.00,24.00,CLR,M,M,M,M,M,M,M,M,M,M,M,26.00,230.00,2021-09-18 23:41,82.10,KINS 182358Z AUTO 22016G24KT 10SM CLR 30/M09 A2993 RMK AO2 PK WND 23026/41 SLP090 T03031094 10316 20274 57019 $,M
LSV,2021-09-18 23:58,-115.0343,36.2362,570.00,93.70,31.30,10.98,240.00,18.00,0.00,29.85,1008.40,10.00,27.00,CLR,M,M,M,M,M,M,M,M,M,M,M,30.00,230.00,2021-09-18 23:33,88.61,KLSV 182358Z AUTO 24018G27KT 10SM CLR 34/M00 A2985 RMK AO2 PK WND 23030/33 SLP084 T03431004 10350 20304 57022 $,M
