station,valid,lon,lat,elevation,tmpf,dwpf,relh,drct,sknt,p01i,alti,mslp,vsby,gust,skyc1,skyc2,skyc3,skyc4,skyl1,skyl2,skyl3,skyl4,wxcodes,ice_accretion_1hr,ice_accretion_3hr,ice_accretion_6hr,peak_wind_gust,peak_wind_drct,peak_wind_time,feel,metar,snowdepth
ELY,2022-07-16 00:09,-114.8453,39.2950,1909.00,71.00,48.00,43.83,40.00,12.00,T,30.36,M,9.00,23.00,FEW,BKN,OVC,M,4500.00,9500.00,12000.00,M,M,M,M,M,30.00,340.00,2022-07-15 23:56,71.10,KELY 160009Z AUTO 04012G23KT 9SM FEW045 BKN095 OVC120 22/09 A3036 RMK AO2 PK WND 34030/2356 WSHFT 2349 LTG DSNT ALQDS RAE2357 P0000 T02170089 $,M
05U,2022-07-16 00:10,-116.0051,39.6042,1811.23,73.40,50.00,43.69,0.00,0.00,0.00,30.31,M,10.00,M,CLR,M,M,M,M,M,M,M,M,M,M,M,M,M,M,73.40,K05U 160010Z AUTO 00000KT 10SM CLR 23/10 A3031 RMK A01,M
MEV,2022-07-16 00:15,-119.7500,38.9963,1441.42,93.20,42.80,17.55,270.00,15.00,0.00,30.09,M,10.00,22.00,CLR,M,M,M,M,M,M,M,M,M,M,M,M,M,M,89.17,KMEV 160015Z AUTO 27015G22KT 10SM CLR 34/06 A3009 RMK AO2,M
RTS,2022-07-16 00:15,-119.8764,39.6682,1539.00,91.40,37.40,15.05,220.00,13.00,0.00,30.16,M,10.00,18.00,CLR,M,M,M,M,M,M,M,M,M,M,M,M,M,M,87.23,KRTS 160015Z AUTO 22013G18KT 10SM CLR 33/03 A3016 RMK AO2,M
CXP,2022-07-16 00:15,-119.7326,39.1923,1431.00,91.40,41.00,17.32,280.00,17.00,0.00,30.11,M,10.00,25.00,CLR,M,M,M,M,M,M,M,M,M,M,M,M,M,M,87.40,KCXP 160015Z AUTO 28017G25KT 10SM CLR 33/05 A3011 RMK AO2,M
BVU,2022-07-16 00:15,-114.8611,35.9475,671.00,M,M,M,M,M,0.00,M,M,M,M,M,M,M,M,M,M,M,M,M,M,M,M,M,M,M,M,KBVU 160015Z AUTO RMK AO2 PNO PWINO TSNO,M
HTH,2022-07-16 00:15,-118.6315,38.5448,1282.89,86.00,53.60,33.01,120.00,5.00,0.00,30.06,M,10.00,M,CLR,M,M,M,M,M,M,M,M,M,M,M,M,M,M,84.18,KHTH 160015Z AUTO 12005KT 10SM CLR 30/12 A3006 RMK A01,M
BAM,2022-07-16 00:15,-116.8743,40.5990,1382.36,M,M,M,20.00,5.00,0.00,30.06,M,10.00,M,CLR,M,M,M,M,M,M,M,M,M,M,M,M,M,M,M,KBAM 160015Z AUTO 02005KT 10SM CLR A3006 RMK AO1,M
TMT,2022-07-16 00:15,-117.1971,39.4643,1749.34,67.00,57.60,72.03,120.00,16.00,0.01,30.22,M,10.00,M,SCT,SCT,BKN,M,4600.00,6000.00,10000.00,M,-VCTSRA,M,M,M,M,M,M,66.90,KTMT 160015Z AUTO 12016KT 10SM -VCTSRA SCT046 SCT060 BKN100 19/14 A3022 RMK AO2 LTG DSNT ALQS P0001 T01940142,M
LAS,2022-07-16 00:33,-115.1634,36.0719,663.00,103.00,52.00,18.47,200.00,7.00,0.00,29.89,M,10.00,16.00,FEW,SCT,SCT,BKN,8000.00,12000.00,15000.00,20000.00,TS,M,M,M,M,M,M,100.60,KLAS 160033Z 20007G16KT 10SM TS FEW080 SCT120CB SCT150 BKN200 39/11 A2989 RMK AO2 TSB33 OCNL LTGICCG NW TS NW MOV NE CBMAM W-N VCSH N CB DSNT ALQDS T03940111,M
BAM,2022-07-16 00:35,-116.8743,40.5990,1382.36,M,M,M,30.00,8.00,0.00,30.06,M,10.00,M,CLR,M,M,M,M,M,M,M,M,M,M,M,M,M,M,M,KBAM 160035Z AUTO 03008KT 10SM CLR A3006 RMK AO1,M
HTH,2022-07-16 00:35,-118.6315,38.5448,1282.89,86.00,55.40,35.25,130.00,6.00,0.00,30.07,M,10.00,M,CLR,M,M,M,M,M,M,M,M,M,M,M,M,M,M,84.54,KHTH 160035Z AUTO 13006KT 10SM CLR 30/13 A3007 RMK A01,M
TMT,2022-07-16 00:35,-117.1971,39.4643,1749.34,67.50,56.30,67.32,120.00,11.00,0.02,30.24,M,10.00,M,SCT,SCT,BKN,M,6000.00,8500.00,11000.00,M,-VCTSRA,M,M,M,M,M,M,67.50,KTMT 160035Z AUTO 12011KT 10SM -VCTSRA SCT060 SCT085 BKN110 20/14 A3024 RMK AO2 LTG DSNT N S AND W P0002 T01970135,M
BVU,2022-07-16 00:35,-114.8611,35.9475,671.00,M,M,M,M,M,0.00,M,M,M,M,M,M,M,M,M,M,M,M,M,M,M,M,M,M,M,M,KBVU 160035Z AUTO RMK AO2 PNO PWINO TSNO,M
MEV,2022-07-16 00:35,-119.7500,38.9963,1441.42,93.20,42.80,17.55,270.00,15.00,0.00,30.09,M,10.00,21.00,CLR,M,M,M,M,M,M,M,M,M,M,M,M,M,M,89.17,KMEV 160035Z AUTO 27015G21KT 10SM CLR 34/06 A3009 RMK AO2,M
CXP,2022-07-16 00:35,-119.7326,39.1923,1431.00,91.40,41.00,17.32,290.00,19.00,0.00,30.12,M,10.00,26.00,CLR,M,M,M,M,M,M,M,M,M,M,M,M,M,M,87.40,KCXP 160035Z AUTO 29019G26KT 10SM CLR 33/05 A3012 RMK AO2,M
05U,2022-07-16 00:35,-116.0051,39.6042,1811.23,73.40,50.00,43.69,150.00,12.00,0.00,30.27,M,10.00,M,CLR,M,M,M,M,M,M,M,M,M,M,M,M,M,M,73.40,K05U 160035Z AUTO 15012KT 10SM CLR 23/10 A3027 RMK A01,M
RTS,2022-07-16 00:35,-119.8764,39.6682,1539.00,89.60,39.20,17.09,220.00,14.00,0.00,30.16,M,10.00,21.00,CLR,M,M,M,M,M,M,M,M,M,M,M,M,M,M,85.73,KRTS 160035Z AUTO 22014G21KT 10SM CLR 32/04 A3016 RMK AO2,M
DRA,2022-07-16 00:53,-116.0278,36.6206,1009.00,103.00,47.00,15.27,240.00,12.00,0.00,29.96,1008.60,10.00,19.00,CLR,M,M,M,M,M,M,M,M,M,M,M,M,M,M,99.23,KDRA 160053Z AUTO 24012G19KT 10SM CLR 39/08 A2996 RMK AO2 SLP086 T03940083,M
ELY,2022-07-16 00:53,-114.8453,39.2950,1909.00,75.00,47.00,36.87,40.00,18.00,T,30.32,1016.70,10.00,24.00,FEW,FEW,M,M,4900.00,11000.00,M,M,M,M,M,M,30.00,340.00,2022-07-15 23:56,75.00,KELY 160053Z AUTO 04018G24KT 10SM FEW049 FEW110 24/08 A3032 RMK AO2 PK WND 34030/2356 WSHFT 2349 LTG DSNT E RAE2357B25E40 SLP167 P0000 T02390083,M
VGT,2022-07-16 00:53,-115.1933,36.2111,667.00,103.00,53.00,19.23,260.00,11.00,0.00,29.88,1010.40,10.00,18.00,CLR,M,M,M,M,M,M,M,M,M,M,M,M,M,M,100.96,KVGT 160053Z 26011G18KT 10SM CLR 39/12 A2988 RMK AO2 SLP104 T03940117,M
LOL,2022-07-16 00:53,-118.5701,40.0684,1192.43,101.00,30.00,8.36,260.00,15.00,0.00,30.00,1011.20,10.00,M,CLR,M,M,M,M,M,M,M,M,M,M,M,M,M,M,94.37,KLOL 160053Z AUTO 26015KT 10SM CLR 38/M01 A3000 RMK AO2 SLP112 T03831011,M
P68,2022-07-16 00:53,-116.0056,39.6014,1993.00,74.00,47.00,38.26,160.00,10.00,0.00,30.26,1015.90,M,23.00,M,M,M,M,M,M,M,M,M,M,M,M,M,M,M,73.90,KP68 160053Z AUTO 16010G23KT 23/08 A3026 RMK AO1 SLP159 T02330083,M
BVU,2022-07-16 00:55,-114.8611,35.9475,671.00,M,M,M,M,M,0.00,M,M,M,M,M,M,M,M,M,M,M,M,M,M,M,M,M,M,M,M,KBVU 160055Z AUTO RMK AO2 PNO PWINO TSNO,M
CXP,2022-07-16 00:55,-119.7326,39.1923,1431.00,91.40,42.80,18.56,270.00,18.00,0.00,30.12,M,10.00,23.00,CLR,M,M,M,M,M,M,M,M,M,M,M,M,M,M,87.52,KCXP 160055Z AUTO 27018G23KT 10SM CLR 33/06 A3012 RMK AO2,M
RNO,2022-07-16 00:55,-119.7711,39.4839,1341.00,94.00,46.00,19.40,290.00,16.00,0.00,30.07,1012.10,10.00,26.00,FEW,M,M,M,10000.00,M,M,M,M,M,M,M,26.00,280.00,2022-07-16 00:34,90.17,KRNO 160055Z 29016G26KT 10SM FEW100 34/08 A3007 RMK AO2 PK WND 28026/0034 SLP121 CB DSNT E THRU SE T03440078,M
RTS,2022-07-16 00:55,-119.8764,39.6682,1539.00,89.60,39.20,17.09,260.00,11.00,0.00,30.16,M,10.00,21.00,CLR,M,M,M,M,M,M,M,M,M,M,M,M,M,M,85.73,KRTS 160055Z AUTO 26011G21KT 10SM CLR 32/04 A3016 RMK AO2,M
05U,2022-07-16 00:55,-116.0051,39.6042,1811.23,73.40,46.40,38.18,180.00,10.00,0.00,30.29,M,10.00,M,CLR,M,M,M,M,M,M,M,M,M,M,M,M,M,M,73.40,K05U 160055Z AUTO 18010KT 160V220 10SM CLR 23/08 A3029 RMK A01,M
TMT,2022-07-16 00:55,-117.1971,39.4643,1749.34,67.80,56.00,66.14,60.00,11.00,0.02,30.26,M,10.00,20.00,SCT,SCT,BKN,M,2600.00,4900.00,11000.00,M,VCTS,M,M,M,M,M,M,67.80,KTMT 160055Z AUTO 06011G20KT 10SM VCTS SCT026 SCT049 BKN110 20/13 A3026 RMK AO2 LTG DSNT ALQS P0002 T01990134,M
MEV,2022-07-16 00:55,-119.7500,38.9963,1441.42,91.40,44.60,19.89,270.00,17.00,0.00,30.10,M,10.00,M,CLR,M,M,M,M,M,M,M,M,M,M,M,M,M,M,87.68,KMEV 160055Z AUTO 27017KT 10SM CLR 33/07 A3010 RMK AO2,M
BAM,2022-07-16 00:55,-116.8743,40.5990,1382.36,M,M,M,100.00,11.00,0.00,30.07,M,10.00,16.00,CLR,M,M,M,M,M,M,M,M,M,M,M,M,M,M,M,KBAM 160055Z AUTO 10011G16KT 10SM CLR A3007 RMK AO1,M
HTH,2022-07-16 00:55,-118.6315,38.5448,1282.89,86.00,53.60,33.01,0.00,0.00,0.00,30.06,M,10.00,M,CLR,M,M,M,M,M,M,M,M,M,M,M,M,M,M,84.18,KHTH 160055Z AUTO 00000KT 10SM CLR 30/12 A3006 RMK A01,M
INS,2022-07-16 00:56,-115.6733,36.5872,955.00,100.60,46.20,15.93,210.00,14.00,0.00,29.96,1008.90,10.00,M,CLR,M,M,M,M,M,M,M,M,M,M,M,M,M,M,96.80,KINS 160056Z AUTO 21014KT 10SM CLR 38/08 A2996 RMK AO2 SLP089 T03810079 $,M
LSV,2022-07-16 00:56,-115.0343,36.2362,570.00,105.00,53.00,17.88,200.00,4.00,0.00,29.85,1008.10,10.00,M,CLR,M,M,M,M,M,M,M,M,M,M,M,M,M,M,103.23,KLSV 160056Z AUTO 20004KT 10SM CLR 41/12 A2985 RMK AO2 SLP081 T04060116 $,M
NFL,2022-07-16 00:56,-118.7010,39.4166,1199.00,99.00,37.00,11.72,M,6.00,0.00,30.01,1013.20,10.00,M,SCT,BKN,M,M,8000.00,12000.00,M,M,M,M,M,M,M,M,M,93.81,KNFL 160056Z VRB06KT 10SM SCT080 BKN120 37/03 A3001 RMK AO2 SLP132 BLDU VC SE TCU VC ALQDS CB DSNT E-S-SW T03720028,M
LAS,2022-07-16 00:56,-115.1634,36.0719,663.00,103.00,52.00,18.47,220.00,8.00,0.00,29.89,1009.10,10.00,M,FEW,SCT,SCT,BKN,8000.00,12000.00,15000.00,20000.00,TS,M,M,M,M,M,M,100.60,KLAS 160056Z 22008KT 10SM TS FEW080 SCT120CB SCT150 BKN200 39/11 A2989 RMK AO2 TSB33 SLP091 OCNL LTGICCG NW TS NW MOV NE CBMAM W-N VCSH N CB DSNT ALQDS T03940111,M
TPH,2022-07-16 00:56,-117.0904,38.0505,1654.00,94.00,39.00,14.82,230.00,11.00,0.00,30.14,1011.00,10.00,19.00,CLR,M,M,M,M,M,M,M,M,M,M,M,M,M,M,89.54,KTPH 160056Z AUTO 23011G19KT 10SM CLR 34/04 A3014 RMK AO2 LTG DSNT N SLP110 T03440039,M
HND,2022-07-16 00:56,-115.1344,35.9729,742.79,101.00,57.00,23.53,240.00,13.00,0.00,29.93,1011.80,10.00,M,CLR,M,M,M,M,M,M,M,M,M,M,M,M,M,M,100.24,KHND 160056Z 24013KT 10SM CLR 38/14 A2993 RMK AO2 SLP118 T03830139,M
WMC,2022-07-16 00:56,-117.8072,40.9019,1315.00,98.00,19.00,5.75,300.00,8.00,0.00,30.04,1012.00,10.00,18.00,CLR,M,M,M,M,M,M,M,M,M,M,M,M,M,M,91.05,KWMC 160056Z AUTO 30008G18KT 10SM CLR 37/M07 A3004 RMK AO2 SLP120 T03671072 TSNO,M
EKO,2022-07-16 00:56,-115.7860,40.8242,1367.00,85.00,40.00,20.39,170.00,29.00,0.00,30.13,1013.40,10.00,39.00,CLR,M,M,M,M,M,M,M,M,M,M,M,40.00,170.00,2022-07-16 00:35,81.98,KEKO 160056Z AUTO 17029G39KT 10SM CLR 29/04 A3013 RMK AO2 PK WND 17040/0035 SLP134 T02940044,M
LAS,2022-07-16 01:05,-115.1634,36.0719,663.00,102.00,54.00,20.42,250.00,11.00,0.00,29.89,M,10.00,M,FEW,SCT,SCT,BKN,8000.00,12000.00,15000.00,20000.00,M,M,M,M,M,M,M,100.30,KLAS 160105Z 25011KT 10SM FEW080 SCT120 SCT150 BKN200 39/12 A2989 RMK AO2 TSE05 TS DSIPTD CB DSNT ALQDS T03890122,M
MEV,2022-07-16 01:15,-119.7500,38.9963,1441.42,91.40,44.60,19.89,270.00,16.00,0.00,30.10,M,10.00,24.00,CLR,M,M,M,M,M,M,M,M,M,M,M,M,M,M,87.68,KMEV 160115Z AUTO 27016G24KT 10SM CLR 33/07 A3010 RMK AO2,M
BAM,2022-07-16 01:15,-116.8743,40.5990,1382.36,M,M,M,150.00,16.00,0.00,30.07,M,10.00,21.00,CLR,M,M,M,M,M,M,M,M,M,M,M,M,M,M,M,KBAM 160115Z AUTO 15016G21KT 110V170 10SM CLR A3007 RMK AO1,M
HTH,2022-07-16 01:15,-118.6315,38.5448,1282.89,86.00,53.60,33.01,160.00,6.00,0.00,30.06,M,10.00,13.00,FEW,M,M,M,12000.00,M,M,M,M,M,M,M,M,M,M,84.18,KHTH 160115Z AUTO 16006G13KT 10SM FEW120 30/12 A3006 RMK A01,M
CXP,2022-07-16 01:15,-119.7326,39.1923,1431.00,89.60,42.80,19.64,290.00,18.00,0.00,30.12,M,10.00,25.00,CLR,M,M,M,M,M,M,M,M,M,M,M,M,M,M,85.93,KCXP 160115Z AUTO 29018G25KT 10SM CLR 32/06 A3012 RMK AO2,M
BVU,2022-07-16 01:15,-114.8611,35.9475,671.00,M,M,M,M,M,0.00,M,M,M,M,M,M,M,M,M,M,M,M,M,M,M,M,M,M,M,M,KBVU 160115Z AUTO RMK AO2 PNO PWINO TSNO,M
TMT,2022-07-16 01:15,-117.1971,39.4643,1749.34,67.50,53.40,60.57,70.00,9.00,0.02,30.27,M,10.00,21.00,SCT,SCT,BKN,M,2500.00,4800.00,10000.00,M,-RA,M,M,M,M,M,M,67.50,KTMT 160115Z AUTO 07009G21KT 10SM -RA SCT025 SCT048 BKN100 20/12 A3027 RMK AO2 LTG DSNT ALQS P0002 T01970119,M
NFL,2022-07-16 01:15,-118.7010,39.4166,1199.00,92.00,45.00,19.88,160.00,19.00,0.00,30.01,M,10.00,27.00,SCT,BKN,M,M,8000.00,12000.00,M,M,M,M,M,M,27.00,160.00,2022-07-16 01:11,88.17,KNFL 160115Z 16019G27KT 10SM SCT080 BKN120 33/07 A3001 RMK AO2 PK WND 16027/0111 WSHFT 0058 TCU VC ALQDS CB DSNT SE AND SW T03330072,M
RTS,2022-07-16 01:15,-119.8764,39.6682,1539.00,89.60,39.20,17.09,270.00,13.00,0.00,30.16,M,10.00,M,CLR,M,M,M,M,M,M,M,M,M,M,M,M,M,M,85.73,KRTS 160115Z AUTO 27013KT 10SM CLR 32/04 A3016 RMK AO2,M
05U,2022-07-16 01:15,-116.0051,39.6042,1811.23,75.20,46.40,35.94,210.00,6.00,0.00,30.29,M,10.00,M,CLR,M,M,M,M,M,M,M,M,M,M,M,M,M,M,75.20,K05U 160115Z AUTO 21006KT 10SM CLR 24/08 A3029 RMK A01,M
CXP,2022-07-16 01:35,-119.7326,39.1923,1431.00,89.60,42.80,19.64,290.00,17.00,0.00,30.12,M,10.00,25.00,CLR,M,M,M,M,M,M,M,M,M,M,M,M,M,M,85.93,KCXP 160135Z AUTO 29017G25KT 10SM CLR 32/06 A3012 RMK AO2,M
RTS,2022-07-16 01:35,-119.8764,39.6682,1539.00,87.80,41.00,19.40,260.00,16.00,0.00,30.16,M,10.00,M,CLR,M,M,M,M,M,M,M,M,M,M,M,M,M,M,84.30,KRTS 160135Z AUTO 26016KT 10SM CLR 31/05 A3016 RMK AO2,M
05U,2022-07-16 01:35,-116.0051,39.6042,1811.23,75.20,44.60,33.57,260.00,9.00,0.00,30.31,M,10.00,M,SCT,M,M,M,10000.00,M,M,M,M,M,M,M,M,M,M,75.20,K05U 160135Z AUTO 26009KT 240V300 10SM SCT100 24/07 A3031 RMK A01,M
MEV,2022-07-16 01:35,-119.7500,38.9963,1441.42,89.60,44.60,21.04,270.00,17.00,0.00,30.10,M,10.00,23.00,CLR,M,M,M,M,M,M,M,M,M,M,M,M,M,M,86.07,KMEV 160135Z AUTO 27017G23KT 10SM CLR 32/07 A3010 RMK AO2,M
BAM,2022-07-16 01:35,-116.8743,40.5990,1382.36,M,M,M,150.00,17.00,0.00,30.07,M,10.00,23.00,CLR,M,M,M,M,M,M,M,M,M,M,M,M,M,M,M,KBAM 160135Z AUTO 15017G23KT 10SM CLR A3007 RMK AO1,M
HTH,2022-07-16 01:35,-118.6315,38.5448,1282.89,87.80,50.00,27.29,0.00,0.00,0.00,30.06,M,10.00,M,CLR,M,M,M,M,M,M,M,M,M,M,M,M,M,M,85.11,KHTH 160135Z AUTO 00000KT 10SM CLR 31/10 A3006 RMK A01,M
TMT,2022-07-16 01:35,-117.1971,39.4643,1749.34,69.40,52.70,55.30,90.00,8.00,0.02,30.28,M,10.00,21.00,SCT,M,M,M,10000.00,M,M,M,VCTS,M,M,M,M,M,M,69.40,KTMT 160135Z AUTO 09008G21KT 10SM VCTS SCT100 21/12 A3028 RMK AO2 LTG DSNT N AND E P0002 T02080115,M
BVU,2022-07-16 01:35,-114.8611,35.9475,671.00,M,M,M,M,M,0.00,M,M,M,M,M,M,M,M,M,M,M,M,M,M,M,M,M,M,M,M,KBVU 160135Z AUTO RMK AO2 PNO PWINO TSNO,M
P68,2022-07-16 01:53,-116.0056,39.6014,1993.00,74.00,45.00,35.60,M,M,0.00,30.28,1017.00,M,M,M,M,M,M,M,M,M,M,M,M,M,M,26.00,260.00,2022-07-16 01:36,73.90,KP68 160153Z AUTO 23/07 A3028 RMK AO1 PK WND 26026/0136 SLP170 T02330072,M
ELY,2022-07-16 01:53,-114.8453,39.2950,1909.00,71.00,46.00,40.65,290.00,6.00,0.00,30.30,1016.50,10.00,M,CLR,M,M,M,M,M,M,M,M,M,M,M,M,M,M,71.10,KELY 160153Z AUTO 29006KT 10SM CLR 22/08 A3030 RMK AO2 SLP165 T02170078,M
DRA,2022-07-16 01:53,-116.0278,36.6206,1009.00,101.00,47.00,16.21,170.00,6.00,0.00,29.95,1008.30,10.00,17.00,SCT,M,M,M,11000.00,M,M,M,M,M,M,M,M,M,M,97.23,KDRA 160153Z AUTO 17006G17KT 10SM SCT110 38/08 A2995 RMK AO2 SLP083 T03830083,M
LOL,2022-07-16 01:53,-118.5701,40.0684,1192.43,98.00,27.00,8.05,300.00,12.00,0.00,30.00,1011.10,10.00,M,CLR,M,M,M,M,M,M,M,M,M,M,M,M,M,M,91.69,KLOL 160153Z AUTO 30012KT 10SM CLR 37/M03 A3000 RMK AO2 SLP111 T03671028,M
VGT,2022-07-16 01:53,-115.1933,36.2111,667.00,103.00,54.00,19.87,220.00,9.00,0.00,29.87,1010.10,10.00,M,CLR,M,M,M,M,M,M,M,M,M,M,M,M,M,M,101.27,KVGT 160153Z 22009KT 10SM CLR 39/12 A2987 RMK AO2 SLP101 T03940122,M
RTS,2022-07-16 01:55,-119.8764,39.6682,1539.00,87.80,39.20,18.09,250.00,18.00,0.00,30.16,M,10.00,M,CLR,M,M,M,M,M,M,M,M,M,M,M,M,M,M,84.22,KRTS 160155Z AUTO 25018KT 10SM CLR 31/04 A3016 RMK AO2,M
MEV,2022-07-16 01:55,-119.7500,38.9963,1441.42,87.80,44.60,22.27,260.00,16.00,0.00,30.11,M,10.00,M,CLR,M,M,M,M,M,M,M,M,M,M,M,M,M,M,84.53,KMEV 160155Z AUTO 26016KT 10SM CLR 31/07 A3011 RMK AO2,M
BVU,2022-07-16 01:55,-114.8611,35.9475,671.00,M,M,M,M,M,0.00,M,M,M,M,M,M,M,M,M,M,M,M,M,M,M,M,M,M,M,M,KBVU 160155Z AUTO RMK AO2 PNO PWINO TSNO,M
BAM,2022-07-16 01:55,-116.8743,40.5990,1382.36,M,M,M,140.00,20.00,0.00,30.06,M,10.00,25.00,CLR,M,M,M,M,M,M,M,M,M,M,M,M,M,M,M,KBAM 160155Z AUTO 14020G25KT 10SM CLR A3006 RMK AO1,M
CXP,2022-07-16 01:55,-119.7326,39.1923,1431.00,87.80,42.80,20.79,270.00,10.00,0.00,30.12,M,10.00,21.00,CLR,M,M,M,M,M,M,M,M,M,M,M,M,M,M,84.40,KCXP 160155Z AUTO 27010G21KT 10SM CLR 31/06 A3012 RMK AO2,M
HTH,2022-07-16 01:55,-118.6315,38.5448,1282.89,87.80,50.00,27.29,0.00,0.00,0.00,30.06,M,10.00,M,FEW,M,M,M,12000.00,M,M,M,M,M,M,M,M,M,M,85.11,KHTH 160155Z AUTO 00000KT 10SM FEW120 31/10 A3006 RMK A01,M
RNO,2022-07-16 01:55,-119.7711,39.4839,1341.00,92.00,45.00,19.88,280.00,17.00,0.00,30.08,1012.10,10.00,25.00,FEW,M,M,M,10000.00,M,M,M,M,M,M,M,26.00,300.00,2022-07-16 01:00,88.17,KRNO 160155Z 28017G25KT 10SM FEW100 33/07 A3008 RMK AO2 PK WND 30026/0100 SLP121 CB DSNT E THRU SE T03330072,M
05U,2022-07-16 01:55,-116.0051,39.6042,1811.23,73.40,39.20,28.96,230.00,12.00,0.00,30.31,M,10.00,22.00,FEW,SCT,BKN,M,4600.00,6000.00,8000.00,M,M,M,M,M,M,M,M,73.40,K05U 160155Z AUTO 23012G22KT 10SM FEW046 SCT060 BKN080 23/04 A3031 RMK A01,M
TMT,2022-07-16 01:55,-117.1971,39.4643,1749.34,70.70,52.00,51.56,120.00,14.00,0.02,30.28,M,10.00,19.00,SCT,M,M,M,11000.00,M,M,M,M,M,M,M,M,M,M,70.70,KTMT 160155Z AUTO 12014G19KT 10SM SCT110 22/11 A3028 RMK AO2 LTG DSNT ALQS P0002 T02150111,M
TPH,2022-07-16 01:56,-117.0904,38.0505,1654.00,90.00,43.00,19.55,330.00,21.00,0.00,30.17,1012.70,10.00,34.00,CLR,M,M,M,M,M,M,M,M,M,M,M,34.00,330.00,2022-07-16 01:56,86.29,KTPH 160156Z AUTO 33021G34KT 10SM CLR 32/06 A3017 RMK AO2 PK WND 33034/0156 SLP127 T03220061,M
NFL,2022-07-16 01:56,-118.7010,39.4166,1199.00,91.00,46.00,21.24,170.00,10.00,0.00,30.03,1013.70,10.00,M,SCT,BKN,M,M,8000.00,12000.00,M,M,M,M,M,M,27.00,160.00,2022-07-16 01:11,87.45,KNFL 160156Z 17010KT 10SM SCT080 BKN120 33/08 A3003 RMK AO2 PK WND 16027/0111 WSHFT 0058 SLP137 CB DSNT NE-SE TCU VC ALQDS T03280078,M
LSV,2022-07-16 01:56,-115.0343,36.2362,570.00,105.00,54.30,18.93,230.00,8.00,0.00,29.85,1008.00,10.00,M,CLR,M,M,M,M,M,M,M,M,M,M,M,M,M,M,103.54,KLSV 160156Z AUTO 23008KT 10SM CLR 41/12 A2985 RMK AO2 SLP080 T04050124 $,M
WMC,2022-07-16 01:56,-117.8072,40.9019,1315.00,96.00,17.10,5.63,280.00,8.00,0.00,30.05,1012.10,10.00,M,CLR,M,M,M,M,M,M,M,M,M,M,M,M,M,M,89.27,KWMC 160156Z AUTO 28008KT 10SM CLR 36/M08 A3005 RMK AO2 SLP121 T03561083 TSNO,M
HND,2022-07-16 01:56,-115.1344,35.9729,742.79,101.00,56.00,22.61,240.00,9.00,0.00,29.93,1011.70,10.00,M,CLR,M,M,M,M,M,M,M,M,M,M,M,M,M,M,99.80,KHND 160156Z 24009KT 10SM CLR 38/13 A2993 RMK AO2 SLP117 T03830133,M
INS,2022-07-16 01:56,-115.6733,36.5872,955.00,98.00,47.00,17.89,190.00,7.00,0.00,29.95,1008.60,10.00,M,CLR,M,M,M,M,M,M,M,M,M,M,M,M,M,M,94.26,KINS 160156Z AUTO 19007KT 10SM CLR 37/08 A2995 RMK AO2 SLP086 T03660084 $,M
EKO,2022-07-16 01:56,-115.7860,40.8242,1367.00,84.00,39.00,20.27,160.00,16.00,0.00,30.13,1013.40,10.00,32.00,CLR,M,M,M,M,M,M,M,M,M,M,M,38.00,160.00,2022-07-16 00:59,81.29,KEKO 160156Z AUTO 16016G32KT 10SM CLR 29/04 A3013 RMK AO2 PK WND 16038/0059 SLP134 T02890039,M
LAS,2022-07-16 01:56,-115.1634,36.0719,663.00,101.00,55.00,21.89,260.00,8.00,0.00,29.89,1009.10,10.00,M,FEW,FEW,SCT,SCT,8000.00,12000.00,15000.00,20000.00,M,M,M,M,M,M,M,99.46,KLAS 160156Z 26008KT 10SM FEW080 FEW120 SCT150 SCT200 38/13 A2989 RMK AO2 TSE05 SLP091 TS DSIPTD CB DSNT ALQDS T03830128,M
TPH,2022-07-16 02:00,-117.0904,38.0505,1654.00,88.00,44.00,21.72,30.00,28.00,0.00,30.18,M,10.00,39.00,FEW,M,M,M,11000.00,M,M,M,M,M,M,M,39.00,40.00,2022-07-16 02:00,84.65,KTPH 160200Z AUTO 03028G39KT 10SM FEW110 31/07 A3018 RMK AO2 PK WND 04039/0200 WSHFT 0146 T03110067,M
TPH,2022-07-16 02:11,-117.0904,38.0505,1654.00,85.00,44.00,23.97,40.00,27.00,0.00,30.19,M,3.00,38.00,FEW,BKN,M,M,1600.00,11000.00,M,M,HZ,M,M,M,39.00,40.00,2022-07-16 02:00,82.20,KTPH 160211Z AUTO 04027G38KT 3SM HZ FEW016 BKN110 29/07 A3019 RMK AO2 PK WND 04039/0200 WSHFT 0151 LTG DSNT NW T02940067,M
HTH,2022-07-16 02:15,-118.6315,38.5448,1282.89,87.80,51.80,29.18,60.00,8.00,0.00,30.08,M,10.00,M,CLR,M,M,M,M,M,M,M,M,M,M,M,M,M,M,85.39,KHTH 160215Z AUTO 06008KT 10SM CLR 31/11 A3008 RMK A01,M
TMT,2022-07-16 02:15,-117.1971,39.4643,1749.34,70.70,50.00,47.88,120.00,15.00,0.00,30.28,M,10.00,24.00,SCT,M,M,M,12000.00,M,M,M,VCTS,M,M,M,M,M,M,70.70,KTMT 160215Z AUTO 12015G24KT 10SM VCTS SCT120 22/10 A3028 RMK AO2 LTG DSNT NE SE AND NW T02150100,M
BAM,2022-07-16 02:15,-116.8743,40.5990,1382.36,M,M,M,150.00,15.00,0.00,30.08,M,10.00,24.00,CLR,M,M,M,M,M,M,M,M,M,M,M,M,M,M,M,KBAM 160215Z AUTO 15015G24KT 10SM CLR A3008 RMK AO1,M
MEV,2022-07-16 02:15,-119.7500,38.9963,1441.42,87.80,44.60,22.27,270.00,12.00,0.00,30.11,M,10.00,17.00,CLR,M,M,M,M,M,M,M,M,M,M,M,M,M,M,84.53,KMEV 160215Z AUTO 27012G17KT 10SM CLR 31/07 A3011 RMK AO2,M
05U,2022-07-16 02:15,-116.0051,39.6042,1811.23,73.40,48.20,40.85,220.00,9.00,0.00,30.31,M,10.00,14.00,FEW,FEW,FEW,M,4000.00,4900.00,6000.00,M,M,M,M,M,M,M,M,73.40,K05U 160215Z AUTO 22009G14KT 10SM FEW040 FEW049 FEW060 23/09 A3031 RMK A01,M
RTS,2022-07-16 02:15,-119.8764,39.6682,1539.00,86.00,41.00,20.54,230.00,11.00,0.00,30.16,M,10.00,17.00,CLR,M,M,M,M,M,M,M,M,M,M,M,M,M,M,82.86,KRTS 160215Z AUTO 23011G17KT 10SM CLR 30/05 A3016 RMK AO2,M
CXP,2022-07-16 02:15,-119.7326,39.1923,1431.00,87.80,42.80,20.79,270.00,10.00,0.00,30.13,M,10.00,22.00,CLR,M,M,M,M,M,M,M,M,M,M,M,M,M,M,84.40,KCXP 160215Z AUTO 27010G22KT 10SM CLR 31/06 A3013 RMK AO2,M
BVU,2022-07-16 02:15,-114.8611,35.9475,671.00,M,M,M,M,M,0.00,M,M,M,M,M,M,M,M,M,M,M,M,M,M,M,M,M,M,M,M,KBVU 160215Z AUTO RMK AO2 PNO PWINO TSNO,M
TPH,2022-07-16 02:16,-117.0904,38.0505,1654.00,84.00,44.00,24.68,30.00,25.00,0.00,30.19,M,1.75,38.00,SCT,BKN,M,M,1300.00,11000.00,M,M,HZ,M,M,M,39.00,40.00,2022-07-16 02:00,81.55,KTPH 160216Z AUTO 03025G38KT 1 3/4SM HZ SCT013 BKN110 29/07 A3019 RMK AO2 PK WND 04039/0200 WSHFT 0151 T02890067,M
TPH,2022-07-16 02:22,-117.0904,38.0505,1654.00,83.00,44.00,25.57,30.00,26.00,0.00,30.20,M,3.00,35.00,SCT,BKN,M,M,1100.00,11000.00,M,M,HZ,M,M,M,39.00,40.00,2022-07-16 02:00,80.80,KTPH 160222Z AUTO 03026G35KT 3SM HZ SCT011 BKN110 28/07 A3020 RMK AO2 PK WND 04039/0200 WSHFT 0151 T02830067,M
05U,2022-07-16 02:35,-116.0051,39.6042,1811.23,73.40,44.60,35.66,200.00,13.00,0.00,30.30,M,10.00,18.00,CLR,M,M,M,M,M,M,M,M,M,M,M,M,M,M,73.40,K05U 160235Z AUTO 20013G18KT 10SM CLR 23/07 A3030 RMK A01,M
RTS,2022-07-16 02:35,-119.8764,39.6682,1539.00,86.00,41.00,20.54,240.00,11.00,0.00,30.17,M,10.00,20.00,CLR,M,M,M,M,M,M,M,M,M,M,M,M,M,M,82.86,KRTS 160235Z AUTO 24011G20KT 10SM CLR 30/05 A3017 RMK AO2,M
CXP,2022-07-16 02:35,-119.7326,39.1923,1431.00,86.00,42.80,22.02,280.00,8.00,0.00,30.13,M,10.00,16.00,CLR,M,M,M,M,M,M,M,M,M,M,M,M,M,M,82.95,KCXP 160235Z AUTO 28008G16KT 10SM CLR 30/06 A3013 RMK AO2,M
BVU,2022-07-16 02:35,-114.8611,35.9475,671.00,M,M,M,M,M,0.00,M,M,M,M,M,M,M,M,M,M,M,M,M,M,M,M,M,M,M,M,KBVU 160235Z AUTO RMK AO2 PNO PWINO TSNO,M
BAM,2022-07-16 02:35,-116.8743,40.5990,1382.36,M,M,M,140.00,12.00,0.00,30.08,M,10.00,M,CLR,M,M,M,M,M,M,M,M,M,M,M,M,M,M,M,KBAM 160235Z AUTO 14012KT 10SM CLR A3008 RMK AO1,M
MEV,2022-07-16 02:35,-119.7500,38.9963,1441.42,86.00,44.60,23.59,280.00,7.00,0.00,30.12,M,10.00,13.00,CLR,M,M,M,M,M,M,M,M,M,M,M,M,M,M,83.07,KMEV 160235Z AUTO 28007G13KT 10SM CLR 30/07 A3012 RMK AO2,M
TMT,2022-07-16 02:35,-117.1971,39.4643,1749.34,69.80,50.20,49.74,120.00,18.00,0.00,30.30,M,10.00,23.00,BKN,M,M,M,11000.00,M,M,M,M,M,M,M,M,M,M,69.80,KTMT 160235Z AUTO 12018G23KT 10SM BKN110 21/10 A3030 RMK AO2 LTG DSNT NW T02100101,M
HTH,2022-07-16 02:35,-118.6315,38.5448,1282.89,86.00,55.40,35.25,110.00,8.00,0.00,30.09,M,10.00,M,FEW,M,M,M,12000.00,M,M,M,M,M,M,M,M,M,M,84.54,KHTH 160235Z AUTO 11008KT 10SM FEW120 30/13 A3009 RMK A01,M
DRA,2022-07-16 02:53,-116.0278,36.6206,1009.00,98.00,46.00,17.06,220.00,6.00,0.00,29.97,1009.00,10.00,M,CLR,M,M,M,M,M,M,M,M,M,M,M,M,M,M,94.28,KDRA 160253Z AUTO 22006KT 10SM CLR 37/08 A2997 RMK AO2 SLP090 T03670078 53002,M
ELY,2022-07-16 02:53,-114.8453,39.2950,1909.00,71.00,45.00,39.13,0.00,0.00,0.00,30.32,1017.10,10.00,M,CLR,M,M,M,M,M,M,M,M,M,M,M,M,M,M,71.10,KELY 160253Z AUTO 00000KT 10SM CLR 22/07 A3032 RMK AO2 SLP171 60000 T02170072 55007,M
VGT,2022-07-16 02:53,-115.1933,36.2111,667.00,102.00,54.00,20.42,220.00,6.00,0.00,29.89,1010.70,10.00,M,CLR,M,M,M,M,M,M,M,M,M,M,M,M,M,M,100.30,KVGT 160253Z 22006KT 10SM CLR 39/12 A2989 RMK AO2 SLP107 T03890122 53001,M
P68,2022-07-16 02:53,-116.0056,39.6014,1993.00,72.00,46.00,39.42,240.00,10.00,0.00,30.29,1016.70,M,15.00,M,M,M,M,M,M,M,M,M,M,M,M,M,M,M,72.00,KP68 160253Z AUTO 24010G15KT 22/08 A3029 RMK AO1 SLP167 T02220078 53001,M
LOL,2022-07-16 02:53,-118.5701,40.0684,1192.43,95.00,27.00,8.85,300.00,11.00,0.00,30.01,1011.40,10.00,M,CLR,M,M,M,M,M,M,M,M,M,M,M,M,M,M,89.12,KLOL 160253Z AUTO 30011KT 10SM CLR 35/M03 A3001 RMK AO2 SLP114 T03501028 53004,M
MEV,2022-07-16 02:55,-119.7500,38.9963,1441.42,82.40,44.60,26.49,280.00,9.00,0.00,30.13,M,10.00,M,CLR,M,M,M,M,M,M,M,M,M,M,M,M,M,M,80.50,KMEV 160255Z AUTO 28009KT 10SM CLR 28/07 A3013 RMK AO2,M
RTS,2022-07-16 02:55,-119.8764,39.6682,1539.00,84.20,39.20,20.29,260.00,10.00,0.00,30.18,M,10.00,M,CLR,M,M,M,M,M,M,M,M,M,M,M,M,M,M,81.44,KRTS 160255Z AUTO 26010KT 10SM CLR 29/04 A3018 RMK AO2,M
TMT,2022-07-16 02:55,-117.1971,39.4643,1749.34,70.70,49.00,46.30,110.00,13.00,0.00,30.31,M,10.00,22.00,BKN,M,M,M,10000.00,M,M,M,M,M,M,M,M,M,M,70.70,KTMT 160255Z AUTO 11013G22KT 10SM BKN100 22/10 A3031 RMK AO2 LTG DSNT N 60004 T02150095,M
CXP,2022-07-16 02:55,-119.7326,39.1923,1431.00,86.00,42.80,22.02,M,5.00,0.00,30.14,M,10.00,10.00,CLR,M,M,M,M,M,M,M,M,M,M,M,M,M,M,82.95,KCXP 160255Z AUTO VRB05G10KT 10SM CLR 30/06 A3014 RMK AO2,M
BAM,2022-07-16 02:55,-116.8743,40.5990,1382.36,M,M,M,160.00,13.00,0.00,30.09,M,10.00,17.00,CLR,M,M,M,M,M,M,M,M,M,M,M,M,M,M,M,KBAM 160255Z AUTO 16013G17KT 10SM CLR A3009 RMK AO1,M
RNO,2022-07-16 02:55,-119.7711,39.4839,1341.00,89.00,46.00,22.54,290.00,12.00,0.00,30.10,1012.90,10.00,M,FEW,M,M,M,10000.00,M,M,M,M,M,M,M,M,M,M,85.76,KRNO 160255Z 29012KT 10SM FEW100 32/08 A3010 RMK AO2 SLP129 T03170078 53010,M
BVU,2022-07-16 02:55,-114.8611,35.9475,671.00,M,M,M,M,M,0.00,M,M,M,M,M,M,M,M,M,M,M,M,M,M,M,M,M,M,M,M,KBVU 160255Z AUTO RMK AO2 PNO PWINO TSNO,M
HTH,2022-07-16 02:55,-118.6315,38.5448,1282.89,86.00,48.20,27.03,130.00,10.00,0.00,30.10,M,10.00,15.00,SCT,M,M,M,12000.00,M,M,M,M,M,M,M,M,M,M,83.40,KHTH 160255Z AUTO 13010G15KT 10SM SCT120 30/09 A3010 RMK A01,M
05U,2022-07-16 02:55,-116.0051,39.6042,1811.23,71.60,46.40,40.57,240.00,11.00,0.00,30.31,M,10.00,17.00,CLR,M,M,M,M,M,M,M,M,M,M,M,M,M,M,71.60,K05U 160255Z AUTO 24011G17KT 10SM CLR 22/08 A3031 RMK A01,M
EKO,2022-07-16 02:56,-115.7860,40.8242,1367.00,82.00,40.00,22.39,170.00,17.00,0.00,30.14,1014.00,10.00,28.00,CLR,M,M,M,M,M,M,M,M,M,M,M,31.00,160.00,2022-07-16 02:06,79.98,KEKO 160256Z AUTO 17017G28KT 10SM CLR 28/04 A3014 RMK AO2 PK WND 16031/0206 SLP140 T02780044 53005,M
INS,2022-07-16 02:56,-115.6733,36.5872,955.00,97.20,46.60,17.93,0.00,0.00,0.00,29.97,1009.30,10.00,M,CLR,M,M,M,M,M,M,M,M,M,M,M,M,M,M,93.48,KINS 160256Z AUTO 00000KT 10SM CLR 36/08 A2997 RMK AO2 SLP093 T03620081 53002 $,M
NFL,2022-07-16 02:56,-118.7010,39.4166,1199.00,89.00,44.00,20.97,130.00,10.00,0.00,30.04,1014.20,10.00,M,SCT,SCT,M,M,9000.00,12000.00,M,M,M,M,M,M,M,M,M,85.59,KNFL 160256Z 13010KT 10SM SCT090 SCT120 32/07 A3004 RMK AO2 SLP142 CB DSNT NE-SE T03170067 53015,M
HND,2022-07-16 02:56,-115.1344,35.9729,742.79,99.00,56.00,23.95,240.00,10.00,0.00,29.95,1012.20,10.00,M,CLR,M,M,M,M,M,M,M,M,M,M,M,M,M,M,97.71,KHND 160256Z 24010KT 10SM CLR 37/13 A2995 RMK AO2 SLP122 T03720133 53002,M
LAS,2022-07-16 02:56,-115.1634,36.0719,663.00,100.00,55.00,22.49,200.00,4.00,0.00,29.90,1009.50,10.00,M,FEW,SCT,M,M,12000.00,20000.00,M,M,M,M,M,M,M,M,M,98.48,KLAS 160256Z 20004KT 10SM FEW120 SCT200 38/13 A2990 RMK AO2 SLP095 T03780128 53001,M
TPH,2022-07-16 02:56,-117.0904,38.0505,1654.00,79.00,48.00,33.66,20.00,18.00,0.00,30.23,1015.10,10.00,28.00,CLR,M,M,M,M,M,M,M,M,M,M,M,39.00,40.00,2022-07-16 02:00,79.00,KTPH 160256Z AUTO 02018G28KT 10SM CLR 26/09 A3023 RMK AO2 PK WND 04039/0200 WSHFT 0151 LTG DSNT NE AND E PRESRR SLP151 T02610089 53024,M
LSV,2022-07-16 02:56,-115.0343,36.2362,570.00,101.80,54.50,20.92,200.00,6.00,0.00,29.87,1008.60,10.00,M,CLR,M,M,M,M,M,M,M,M,M,M,M,M,M,M,100.26,KLSV 160256Z AUTO 20006KT 10SM CLR 39/13 A2987 RMK AO2 SLP086 T03880125 53004 $,M
WMC,2022-07-16 02:56,-117.8072,40.9019,1315.00,89.00,18.00,7.28,290.00,7.00,0.00,30.06,1012.20,10.00,M,CLR,M,M,M,M,M,M,M,M,M,M,M,M,M,M,84.10,KWMC 160256Z AUTO 29007KT 10SM CLR 32/M08 A3006 RMK AO2 SLP122 T03171078 53004 TSNO,M
05U,2022-07-16 03:15,-116.0051,39.6042,1811.23,73.40,44.60,35.66,220.00,15.00,0.00,30.31,M,10.00,20.00,BKN,M,M,M,12000.00,M,M,M,M,M,M,M,M,M,M,73.40,K05U 160315Z AUTO 22015G20KT 10SM BKN120 23/07 A3031 RMK A01,M
HTH,2022-07-16 03:15,-118.6315,38.5448,1282.89,84.20,48.20,28.63,120.00,15.00,0.00,30.11,M,10.00,M,BKN,M,M,M,12000.00,M,M,M,M,M,M,M,M,M,M,82.04,KHTH 160315Z AUTO 12015KT 10SM BKN120 29/09 A3011 RMK A01,M
RTS,2022-07-16 03:15,-119.8764,39.6682,1539.00,82.40,41.00,23.07,250.00,12.00,0.00,30.18,M,10.00,M,CLR,M,M,M,M,M,M,M,M,M,M,M,M,M,M,80.29,KRTS 160315Z AUTO 25012KT 10SM CLR 28/05 A3018 RMK AO2,M
CXP,2022-07-16 03:15,-119.7326,39.1923,1431.00,84.20,42.80,23.33,M,4.00,0.00,30.15,M,10.00,M,CLR,M,M,M,M,M,M,M,M,M,M,M,M,M,M,81.61,KCXP 160315Z AUTO VRB04KT 10SM CLR 29/06 A3015 RMK AO2,M
BAM,2022-07-16 03:15,-116.8743,40.5990,1382.36,M,M,M,170.00,9.00,0.00,30.10,M,10.00,M,CLR,M,M,M,M,M,M,M,M,M,M,M,M,M,M,M,KBAM 160315Z AUTO 17009KT 10SM CLR A3010 RMK AO1,M
BVU,2022-07-16 03:15,-114.8611,35.9475,671.00,M,M,M,M,M,0.00,M,M,M,M,M,M,M,M,M,M,M,M,M,M,M,M,M,M,M,M,KBVU 160315Z AUTO RMK AO2 PNO PWINO TSNO,M
TMT,2022-07-16 03:15,-117.1971,39.4643,1749.34,69.80,49.30,48.10,110.00,16.00,0.00,30.31,M,10.00,21.00,SCT,SCT,M,M,10000.00,12000.00,M,M,TS,M,M,M,M,M,M,69.80,KTMT 160315Z AUTO 11016G21KT 10SM TS SCT100 SCT120 21/10 A3031 RMK AO2 LTG DSNT N T02100096,M
MEV,2022-07-16 03:15,-119.7500,38.9963,1441.42,80.60,44.60,28.08,290.00,10.00,0.00,30.14,M,10.00,M,CLR,M,M,M,M,M,M,M,M,M,M,M,M,M,M,79.42,KMEV 160315Z AUTO 29010KT 10SM CLR 27/07 A3014 RMK AO2,M
BAM,2022-07-16 03:35,-116.8743,40.5990,1382.36,M,M,M,230.00,8.00,0.00,30.12,M,10.00,M,CLR,M,M,M,M,M,M,M,M,M,M,M,M,M,M,M,KBAM 160335Z AUTO 23008KT 10SM CLR A3012 RMK AO1,M
MEV,2022-07-16 03:35,-119.7500,38.9963,1441.42,80.60,42.80,26.22,270.00,11.00,0.00,30.14,M,10.00,M,CLR,M,M,M,M,M,M,M,M,M,M,M,M,M,M,79.30,KMEV 160335Z AUTO 27011KT 10SM CLR 27/06 A3014 RMK AO2,M
RTS,2022-07-16 03:35,-119.8764,39.6682,1539.00,80.60,41.00,24.46,250.00,12.00,0.00,30.19,M,10.00,M,CLR,M,M,M,M,M,M,M,M,M,M,M,M,M,M,79.20,KRTS 160335Z AUTO 25012KT 10SM CLR 27/05 A3019 RMK AO2,M
HTH,2022-07-16 03:35,-118.6315,38.5448,1282.89,84.20,50.00,30.62,140.00,11.00,0.00,30.12,M,10.00,M,FEW,M,M,M,12000.00,M,M,M,M,M,M,M,M,M,M,82.24,KHTH 160335Z AUTO 14011KT 10SM FEW120 29/10 A3012 RMK A01,M
TMT,2022-07-16 03:35,-117.1971,39.4643,1749.34,70.30,48.20,45.38,10.00,8.00,0.00,30.31,M,10.00,19.00,SCT,M,M,M,11000.00,M,M,M,M,M,M,M,M,M,M,70.30,KTMT 160335Z AUTO 01008G19KT 340V090 10SM SCT110 21/09 A3031 RMK AO2 T02130090,M
CXP,2022-07-16 03:35,-119.7326,39.1923,1431.00,84.20,42.80,23.33,M,5.00,0.00,30.15,M,10.00,M,CLR,M,M,M,M,M,M,M,M,M,M,M,M,M,M,81.61,KCXP 160335Z AUTO VRB05KT 10SM CLR 29/06 A3015 RMK AO2,M
BVU,2022-07-16 03:35,-114.8611,35.9475,671.00,M,M,M,M,M,0.00,M,M,M,M,M,M,M,M,M,M,M,M,M,M,M,M,M,M,M,M,KBVU 160335Z AUTO RMK AO2 PNO PWINO TSNO,M
05U,2022-07-16 03:35,-116.0051,39.6042,1811.23,71.60,46.40,40.57,220.00,9.00,0.00,30.34,M,10.00,16.00,BKN,M,M,M,11000.00,M,M,M,M,M,M,M,M,M,M,71.60,K05U 160335Z AUTO 22009G16KT 10SM BKN110 22/08 A3034 RMK A01,M
P68,2022-07-16 03:53,-116.0056,39.6014,1993.00,72.00,44.00,36.68,210.00,13.00,0.00,30.29,1016.50,M,M,M,M,M,M,M,M,M,M,M,M,M,M,M,M,M,72.00,KP68 160353Z AUTO 21013KT 22/07 A3029 RMK AO1 SLP165 T02220067,M
LOL,2022-07-16 03:53,-118.5701,40.0684,1192.43,83.00,36.00,18.66,210.00,10.00,0.00,30.05,1012.70,10.00,M,CLR,M,M,M,M,M,M,M,M,M,M,M,M,M,M,80.43,KLOL 160353Z AUTO 21010KT 10SM CLR 28/02 A3005 RMK AO2 SLP127 T02830022,M
VGT,2022-07-16 03:53,-115.1933,36.2111,667.00,101.00,54.00,21.10,200.00,3.00,0.00,29.91,1011.20,10.00,M,CLR,M,M,M,M,M,M,M,M,M,M,M,M,M,M,99.11,KVGT 160353Z AUTO 20003KT 10SM CLR 38/12 A2991 RMK AO2 SLP112 T03830122,M
DRA,2022-07-16 03:53,-116.0278,36.6206,1009.00,95.00,48.00,20.22,180.00,6.00,0.00,29.99,1009.60,10.00,M,CLR,M,M,M,M,M,M,M,M,M,M,M,M,M,M,91.53,KDRA 160353Z AUTO 18006KT 10SM CLR 35/09 A2999 RMK AO2 SLP096 T03500089,M
ELY,2022-07-16 03:53,-114.8453,39.2950,1909.00,68.00,47.00,46.76,310.00,4.00,0.00,30.36,1018.00,10.00,M,CLR,M,M,M,M,M,M,M,M,M,M,M,M,M,M,68.00,KELY 160353Z AUTO 31004KT 10SM CLR 20/08 A3036 RMK AO2 SLP180 T02000083,M
HTH,2022-07-16 03:55,-118.6315,38.5448,1282.89,82.40,50.00,32.46,120.00,13.00,0.00,30.12,M,10.00,M,CLR,M,M,M,M,M,M,M,M,M,M,M,M,M,M,80.99,KHTH 160355Z AUTO 12013KT 10SM CLR 28/10 A3012 RMK A01,M
BAM,2022-07-16 03:55,-116.8743,40.5990,1382.36,M,M,M,250.00,9.00,0.00,30.12,M,10.00,M,CLR,M,M,M,M,M,M,M,M,M,M,M,M,M,M,M,KBAM 160355Z AUTO 25009KT 10SM CLR A3012 RMK AO1,M
MEV,2022-07-16 03:55,-119.7500,38.9963,1441.42,78.80,44.60,29.79,250.00,5.00,0.00,30.15,M,10.00,12.00,CLR,M,M,M,M,M,M,M,M,M,M,M,M,M,M,78.80,KMEV 160355Z AUTO 25005G12KT 10SM CLR 26/07 A3015 RMK AO2,M
RTS,2022-07-16 03:55,-119.8764,39.6682,1539.00,77.00,41.00,27.53,290.00,7.00,0.00,30.19,M,10.00,M,CLR,M,M,M,M,M,M,M,M,M,M,M,M,M,M,77.00,KRTS 160355Z AUTO 29007KT 10SM CLR 25/05 A3019 RMK AO2,M
TMT,2022-07-16 03:55,-117.1971,39.4643,1749.34,69.00,49.00,48.53,100.00,10.00,0.00,30.29,M,10.00,M,CLR,M,M,M,M,M,M,M,M,M,M,M,M,M,M,69.10,KTMT 160355Z AUTO 10010KT 10SM CLR 21/09 A3029 RMK AO2 T02060094,M
BVU,2022-07-16 03:55,-114.8611,35.9475,671.00,M,M,M,M,M,0.00,M,M,M,M,M,M,M,M,M,M,M,M,M,M,M,M,M,M,M,M,KBVU 160355Z AUTO RMK AO2 PNO PWINO TSNO,M
CXP,2022-07-16 03:55,-119.7326,39.1923,1431.00,80.60,42.80,26.22,360.00,5.00,0.00,30.15,M,10.00,M,CLR,M,M,M,M,M,M,M,M,M,M,M,M,M,M,79.30,KCXP 160355Z AUTO 36005KT 10SM CLR 27/06 A3015 RMK AO2,M
05U,2022-07-16 03:55,-116.0051,39.6042,1811.23,71.60,44.60,37.89,220.00,15.00,0.00,30.32,M,10.00,M,FEW,FEW,M,M,10000.00,12000.00,M,M,M,M,M,M,M,M,M,71.60,K05U 160355Z AUTO 22015KT 10SM FEW100 FEW120 22/07 A3032 RMK A01,M
RNO,2022-07-16 03:55,-119.7711,39.4839,1341.00,86.00,46.00,24.88,310.00,9.00,0.00,30.11,1013.30,10.00,M,FEW,M,M,M,10000.00,M,M,M,M,M,M,M,M,M,M,83.19,KRNO 160355Z 31009KT 10SM FEW100 30/08 A3011 RMK AO2 SLP133 T03000078,M
TPH,2022-07-16 03:56,-117.0904,38.0505,1654.00,77.00,47.00,34.50,10.00,13.00,0.00,30.25,1015.90,10.00,M,BKN,M,M,M,10000.00,M,M,M,M,M,M,M,29.00,10.00,2022-07-16 03:06,77.00,KTPH 160356Z AUTO 01013KT 10SM BKN100 25/08 A3025 RMK AO2 PK WND 01029/0306 SLP159 T02500083,M
NFL,2022-07-16 03:56,-118.7010,39.4166,1199.00,88.00,43.00,20.82,130.00,9.00,0.00,30.06,1014.70,10.00,M,SCT,BKN,M,M,9000.00,12000.00,M,M,M,M,M,M,M,M,M,84.58,KNFL 160356Z 13009KT 10SM SCT090 BKN120 31/06 A3006 RMK AO2 SLP147 OCNL LTGIC DSNT S CB DSNT SE-S TCU VC ALQDS T03110061,M
LAS,2022-07-16 03:56,-115.1634,36.0719,663.00,99.00,55.00,23.18,200.00,5.00,0.00,29.92,1010.10,10.00,M,FEW,SCT,M,M,12000.00,20000.00,M,M,M,M,M,M,M,M,M,97.39,KLAS 160356Z 20005KT 10SM FEW120 SCT200 37/13 A2992 RMK AO2 SLP101 T03720128,M
LSV,2022-07-16 03:56,-115.0343,36.2362,570.00,98.80,54.50,22.90,200.00,3.00,0.00,29.88,1008.80,10.00,M,CLR,M,M,M,M,M,M,M,M,M,M,M,M,M,M,97.01,KLSV 160356Z AUTO 20003KT 10SM CLR 37/13 A2988 RMK AO2 SLP088 T03710125 $,M
HND,2022-07-16 03:56,-115.1344,35.9729,742.79,97.00,57.00,26.49,220.00,8.00,0.00,29.96,1012.70,10.00,M,CLR,M,M,M,M,M,M,M,M,M,M,M,M,M,M,95.92,KHND 160356Z AUTO 22008KT 10SM CLR 36/14 A2996 RMK AO2 SLP127 T03610139,M
WMC,2022-07-16 03:56,-117.8072,40.9019,1315.00,79.00,18.00,10.08,0.00,0.00,0.00,30.07,1012.60,10.00,M,CLR,M,M,M,M,M,M,M,M,M,M,M,M,M,M,79.00,KWMC 160356Z AUTO 00000KT 10SM CLR 26/M08 A3007 RMK AO2 SLP126 T02611078 TSNO,M
EKO,2022-07-16 03:56,-115.7860,40.8242,1367.00,80.00,41.00,24.86,190.00,11.00,0.00,30.17,1014.80,10.00,M,CLR,M,M,M,M,M,M,M,M,M,M,M,M,M,M,78.98,KEKO 160356Z AUTO 19011KT 10SM CLR 27/05 A3017 RMK AO2 SLP148 T02670050,M
INS,2022-07-16 03:56,-115.6733,36.5872,955.00,94.80,48.70,20.89,130.00,5.00,0.00,29.99,1009.90,10.00,M,CLR,M,M,M,M,M,M,M,M,M,M,M,M,M,M,91.45,KINS 160356Z AUTO 13005KT 10SM CLR 35/09 A2999 RMK AO2 SLP099 T03490093 $,M
BAM,2022-07-16 04:15,-116.8743,40.5990,1382.36,M,M,M,240.00,17.00,0.00,30.13,M,10.00,27.00,CLR,M,M,M,M,M,M,M,M,M,M,M,M,M,M,M,KBAM 160415Z AUTO 24017G27KT 10SM CLR A3013 RMK AO1,M
BVU,2022-07-16 04:15,-114.8611,35.9475,671.00,M,M,M,M,M,0.00,M,M,M,M,M,M,M,M,M,M,M,M,M,M,M,M,M,M,M,M,KBVU 160415Z AUTO RMK AO2 PNO PWINO TSNO,M
CXP,2022-07-16 04:15,-119.7326,39.1923,1431.00,80.60,42.80,26.22,350.00,5.00,0.00,30.16,M,10.00,M,CLR,M,M,M,M,M,M,M,M,M,M,M,M,M,M,79.30,KCXP 160415Z AUTO 35005KT 10SM CLR 27/06 A3016 RMK AO2,M
05U,2022-07-16 04:15,-116.0051,39.6042,1811.23,71.60,44.60,37.89,190.00,8.00,0.00,30.34,M,10.00,15.00,CLR,M,M,M,M,M,M,M,M,M,M,M,M,M,M,71.60,K05U 160415Z AUTO 19008G15KT 10SM CLR 22/07 A3034 RMK A01,M
TMT,2022-07-16 04:15,-117.1971,39.4643,1749.34,69.00,48.70,48.17,130.00,12.00,0.00,30.29,M,10.00,M,CLR,M,M,M,M,M,M,M,M,M,M,M,M,M,M,69.10,KTMT 160415Z AUTO 13012KT 10SM CLR 21/09 A3029 RMK AO2 T02060093,M
MEV,2022-07-16 04:15,-119.7500,38.9963,1441.42,75.20,44.60,33.57,0.00,0.00,0.00,30.15,M,10.00,M,CLR,M,M,M,M,M,M,M,M,M,M,M,M,M,M,75.20,KMEV 160415Z AUTO 00000KT 10SM CLR 24/07 A3015 RMK AO2,M
HTH,2022-07-16 04:15,-118.6315,38.5448,1282.89,82.40,48.20,30.35,120.00,10.00,0.00,30.13,M,10.00,M,CLR,M,M,M,M,M,M,M,M,M,M,M,M,M,M,80.80,KHTH 160415Z AUTO 12010KT 10SM CLR 28/09 A3013 RMK A01,M
RTS,2022-07-16 04:15,-119.8764,39.6682,1539.00,77.00,41.00,27.53,280.00,11.00,0.00,30.19,M,10.00,M,CLR,M,M,M,M,M,M,M,M,M,M,M,M,M,M,77.00,KRTS 160415Z AUTO 28011KT 10SM CLR 25/05 A3019 RMK AO2,M
CXP,2022-07-16 04:35,-119.7326,39.1923,1431.00,80.60,42.80,26.22,0.00,0.00,0.00,30.18,M,10.00,M,CLR,M,M,M,M,M,M,M,M,M,M,M,M,M,M,79.30,KCXP 160435Z AUTO 00000KT 10SM CLR 27/06 A3018 RMK AO2,M
TMT,2022-07-16 04:35,-117.1971,39.4643,1749.34,68.50,47.70,47.36,150.00,5.00,0.00,30.29,M,10.00,M,CLR,M,M,M,M,M,M,M,M,M,M,M,M,M,M,68.50,KTMT 160435Z AUTO 15005KT 10SM CLR 20/09 A3029 RMK AO2 T02030087,M
05U,2022-07-16 04:35,-116.0051,39.6042,1811.23,69.80,46.40,43.13,190.00,11.00,0.00,30.34,M,10.00,M,FEW,M,M,M,12000.00,M,M,M,M,M,M,M,M,M,M,69.80,K05U 160435Z AUTO 19011KT 10SM FEW120 21/08 A3034 RMK A01,M
HTH,2022-07-16 04:35,-118.6315,38.5448,1282.89,82.40,50.00,32.46,140.00,8.00,0.00,30.13,M,10.00,M,FEW,FEW,M,M,7000.00,9000.00,M,M,M,M,M,M,M,M,M,80.99,KHTH 160435Z AUTO 14008KT 10SM FEW070 FEW090 28/10 A3013 RMK A01,M
MEV,2022-07-16 04:35,-119.7500,38.9963,1441.42,71.60,44.60,37.89,M,5.00,0.00,30.16,M,10.00,M,CLR,M,M,M,M,M,M,M,M,M,M,M,M,M,M,71.60,KMEV 160435Z AUTO VRB05KT 10SM CLR 22/07 A3016 RMK AO2,M
BVU,2022-07-16 04:35,-114.8611,35.9475,671.00,M,M,M,M,M,0.00,M,M,M,M,M,M,M,M,M,M,M,M,M,M,M,M,M,M,M,M,KBVU 160435Z AUTO RMK AO2 PNO PWINO TSNO,M
RTS,2022-07-16 04:35,-119.8764,39.6682,1539.00,77.00,41.00,27.53,280.00,12.00,0.00,30.20,M,10.00,M,CLR,M,M,M,M,M,M,M,M,M,M,M,M,M,M,77.00,KRTS 160435Z AUTO 28012KT 10SM CLR 25/05 A3020 RMK AO2,M
BAM,2022-07-16 04:35,-116.8743,40.5990,1382.36,M,M,M,250.00,15.00,0.00,30.14,M,10.00,20.00,CLR,M,M,M,M,M,M,M,M,M,M,M,M,M,M,M,KBAM 160435Z AUTO 25015G20KT 10SM CLR A3014 RMK AO1,M
DRA,2022-07-16 04:53,-116.0278,36.6206,1009.00,92.00,55.00,28.84,130.00,4.00,0.00,30.02,1010.70,10.00,M,CLR,M,M,M,M,M,M,M,M,M,M,M,M,M,M,89.92,KDRA 160453Z AUTO 13004KT 10SM CLR 33/13 A3002 RMK AO2 SLP107 T03330128,M
ELY,2022-07-16 04:53,-114.8453,39.2950,1909.00,72.00,44.00,36.68,250.00,8.00,0.00,30.38,1018.30,10.00,20.00,CLR,M,M,M,M,M,M,M,M,M,M,M,M,M,M,72.00,KELY 160453Z AUTO 25008G20KT 10SM CLR 22/07 A3038 RMK AO2 SLP183 T02220067,M
LOL,2022-07-16 04:53,-118.5701,40.0684,1192.43,80.00,41.00,24.86,220.00,9.00,0.00,30.08,1013.60,10.00,M,CLR,M,M,M,M,M,M,M,M,M,M,M,M,M,M,78.98,KLOL 160453Z AUTO 22009KT 10SM CLR 27/05 A3008 RMK AO2 SLP136 T02670050,M
VGT,2022-07-16 04:53,-115.1933,36.2111,667.00,100.00,55.00,22.49,260.00,4.00,0.00,29.93,1011.90,10.00,M,CLR,M,M,M,M,M,M,M,M,M,M,M,M,M,M,98.48,KVGT 160453Z AUTO 26004KT 10SM CLR 38/13 A2993 RMK AO2 SLP119 T03780128,M
P68,2022-07-16 04:53,-116.0056,39.6014,1993.00,71.00,46.00,40.65,210.00,14.00,0.00,30.32,1017.50,M,21.00,M,M,M,M,M,M,M,M,M,M,M,M,M,M,M,71.10,KP68 160453Z AUTO 21014G21KT 22/08 A3032 RMK AO1 SLP175 T02170078,M
BAM,2022-07-16 04:55,-116.8743,40.5990,1382.36,M,M,M,250.00,14.00,0.00,30.16,M,10.00,21.00,CLR,M,M,M,M,M,M,M,M,M,M,M,M,M,M,M,KBAM 160455Z AUTO 25014G21KT 10SM CLR A3016 RMK AO1,M
CXP,2022-07-16 04:55,-119.7326,39.1923,1431.00,80.60,44.60,28.08,0.00,0.00,0.00,30.19,M,10.00,M,CLR,M,M,M,M,M,M,M,M,M,M,M,M,M,M,79.42,KCXP 160455Z AUTO 00000KT 10SM CLR 27/07 A3019 RMK AO2,M
RNO,2022-07-16 04:55,-119.7711,39.4839,1341.00,84.00,45.00,25.54,290.00,6.00,0.00,30.14,1014.00,10.00,M,FEW,M,M,M,10000.00,M,M,M,M,M,M,M,M,M,M,81.61,KRNO 160455Z 29006KT 10SM FEW100 29/07 A3014 RMK AO2 SLP140 T02890072,M
05U,2022-07-16 04:55,-116.0051,39.6042,1811.23,69.80,44.60,40.29,210.00,10.00,0.00,30.35,M,10.00,17.00,SCT,M,M,M,12000.00,M,M,M,M,M,M,M,M,M,M,69.80,K05U 160455Z AUTO 21010G17KT 10SM SCT120 21/07 A3035 RMK A01,M
MEV,2022-07-16 04:55,-119.7500,38.9963,1441.42,69.80,44.60,40.29,90.00,7.00,0.00,30.18,M,10.00,M,CLR,M,M,M,M,M,M,M,M,M,M,M,M,M,M,69.80,KMEV 160455Z AUTO 09007KT 10SM CLR 21/07 A3018 RMK AO2,M
HTH,2022-07-16 04:55,-118.6315,38.5448,1282.89,80.60,51.80,36.79,160.00,10.00,0.00,30.14,M,10.00,M,FEW,M,M,M,12000.00,M,M,M,M,M,M,M,M,M,M,80.08,KHTH 160455Z AUTO 16010KT 10SM FEW120 27/11 A3014 RMK A01,M
TMT,2022-07-16 04:55,-117.1971,39.4643,1749.34,69.00,46.80,44.85,250.00,5.00,0.00,30.30,M,10.00,M,CLR,M,M,M,M,M,M,M,M,M,M,M,M,M,M,69.10,KTMT 160455Z AUTO 25005KT 10SM CLR 21/08 A3030 RMK AO2 LTG DSNT S T02060082,M
RTS,2022-07-16 04:55,-119.8764,39.6682,1539.00,75.20,42.80,31.34,270.00,10.00,0.00,30.22,M,10.00,M,CLR,M,M,M,M,M,M,M,M,M,M,M,M,M,M,75.20,KRTS 160455Z AUTO 27010KT 10SM CLR 24/06 A3022 RMK AO2,M
BVU,2022-07-16 04:55,-114.8611,35.9475,671.00,M,M,M,M,M,0.00,M,M,M,M,M,M,M,M,M,M,M,M,M,M,M,M,M,M,M,M,KBVU 160455Z AUTO RMK AO2 PNO PWINO TSNO,M
WMC,2022-07-16 04:56,-117.8072,40.9019,1315.00,70.00,19.00,14.23,150.00,4.00,0.00,30.10,1013.50,10.00,M,CLR,M,M,M,M,M,M,M,M,M,M,M,M,M,M,70.00,KWMC 160456Z AUTO 15004KT 10SM CLR 21/M07 A3010 RMK AO2 SLP135 T02111072 TSNO,M
LSV,2022-07-16 04:56,-115.0343,36.2362,570.00,96.00,54.30,24.84,0.00,0.00,0.00,29.91,1009.80,10.00,M,FEW,M,M,M,17000.00,M,M,M,M,M,M,M,M,M,M,93.84,KLSV 160456Z AUTO 00000KT 10SM FEW170 36/12 A2991 RMK AO2 SLP098 T03550124 $,M
TPH,2022-07-16 04:56,-117.0904,38.0505,1654.00,74.00,48.00,39.87,30.00,7.00,0.00,30.28,1016.90,10.00,M,CLR,M,M,M,M,M,M,M,M,M,M,M,27.00,10.00,2022-07-16 04:06,73.90,KTPH 160456Z AUTO 03007KT 10SM CLR 23/09 A3028 RMK AO2 PK WND 01027/0406 LTG DSNT S SLP169 T02330089,M
INS,2022-07-16 04:56,-115.6733,36.5872,955.00,91.00,49.00,23.94,0.00,0.00,0.00,30.02,1011.00,10.00,M,CLR,M,M,M,M,M,M,M,M,M,M,M,M,M,M,87.75,KINS 160456Z AUTO 00000KT 10SM CLR 33/10 A3002 RMK AO2 SLP110 T03270095 $,M
HND,2022-07-16 04:56,-115.1344,35.9729,742.79,95.00,56.00,27.06,200.00,7.00,0.00,29.99,1013.60,10.00,M,CLR,M,M,M,M,M,M,M,M,M,M,M,M,M,M,93.38,KHND 160456Z AUTO 20007KT 10SM CLR 35/13 A2999 RMK AO2 SLP136 T03500133,M
EKO,2022-07-16 04:56,-115.7860,40.8242,1367.00,77.00,43.00,29.74,160.00,13.00,0.00,30.20,1015.70,10.00,22.00,CLR,M,M,M,M,M,M,M,M,M,M,M,M,M,M,77.00,KEKO 160456Z AUTO 16013G22KT 10SM CLR 25/06 A3020 RMK AO2 SLP157 T02500061,M
NFL,2022-07-16 04:56,-118.7010,39.4166,1199.00,85.00,48.00,27.79,180.00,14.00,0.00,30.09,1015.80,10.00,19.00,SCT,BKN,M,M,9000.00,12000.00,M,M,M,M,M,M,M,M,M,82.53,KNFL 160456Z 18014G19KT 10SM SCT090 BKN120 29/09 A3009 RMK AO2 SLP158 CB DSNT E-SE T02940089,M
LAS,2022-07-16 04:56,-115.1634,36.0719,663.00,97.00,55.00,24.63,160.00,4.00,0.00,29.95,1010.80,10.00,M,FEW,FEW,M,M,12000.00,20000.00,M,M,M,M,M,M,M,M,M,95.23,KLAS 160456Z 16004KT 10SM FEW120 FEW200 36/13 A2995 RMK AO2 SLP108 T03610128,M
BVU,2022-07-16 05:15,-114.8611,35.9475,671.00,M,M,M,M,M,0.00,M,M,M,M,M,M,M,M,M,M,M,M,M,M,M,M,M,M,M,M,KBVU 160515Z AUTO RMK AO2 PNO PWINO TSNO,M
BAM,2022-07-16 05:15,-116.8743,40.5990,1382.36,M,M,M,250.00,9.00,0.00,30.16,M,10.00,M,CLR,M,M,M,M,M,M,M,M,M,M,M,M,M,M,M,KBAM 160515Z AUTO 25009KT 10SM CLR A3016 RMK AO1,M
TMT,2022-07-16 05:15,-117.1971,39.4643,1749.34,65.30,49.30,56.17,270.00,7.00,0.00,30.31,M,10.00,M,CLR,M,M,M,M,M,M,M,M,M,M,M,M,M,M,65.30,KTMT 160515Z AUTO 27007KT 10SM CLR 19/10 A3031 RMK AO2 T01850096,M
RTS,2022-07-16 05:15,-119.8764,39.6682,1539.00,75.20,41.00,29.23,260.00,6.00,0.00,30.22,M,10.00,M,CLR,M,M,M,M,M,M,M,M,M,M,M,M,M,M,75.20,KRTS 160515Z AUTO 26006KT 10SM CLR 24/05 A3022 RMK AO2,M
05U,2022-07-16 05:15,-116.0051,39.6042,1811.23,69.80,48.20,46.16,150.00,10.00,0.00,30.34,M,10.00,M,BKN,M,M,M,11000.00,M,M,M,M,M,M,M,M,M,M,69.80,K05U 160515Z AUTO 15010KT 10SM BKN110 21/09 A3034 RMK A01,M
MEV,2022-07-16 05:15,-119.7500,38.9963,1441.42,69.80,44.60,40.29,70.00,7.00,0.00,30.18,M,10.00,M,FEW,M,M,M,12000.00,M,M,M,M,M,M,M,M,M,M,69.80,KMEV 160515Z AUTO 07007KT 10SM FEW120 21/07 A3018 RMK AO2,M
HTH,2022-07-16 05:15,-118.6315,38.5448,1282.89,78.80,51.80,39.02,170.00,7.00,0.00,30.14,M,10.00,M,CLR,M,M,M,M,M,M,M,M,M,M,M,M,M,M,78.80,KHTH 160515Z AUTO 17007KT 10SM CLR 26/11 A3014 RMK A01,M
CXP,2022-07-16 05:15,-119.7326,39.1923,1431.00,77.00,44.60,31.62,70.00,4.00,0.00,30.19,M,10.00,M,CLR,M,M,M,M,M,M,M,M,M,M,M,M,M,M,77.00,KCXP 160515Z AUTO 07004KT 10SM CLR 25/07 A3019 RMK AO2,M
RTS,2022-07-16 05:35,-119.8764,39.6682,1539.00,71.60,39.20,30.77,280.00,8.00,0.00,30.22,M,10.00,M,CLR,M,M,M,M,M,M,M,M,M,M,M,M,M,M,71.60,KRTS 160535Z AUTO 28008KT 10SM CLR 22/04 A3022 RMK AO2,M
CXP,2022-07-16 05:35,-119.7326,39.1923,1431.00,77.00,42.80,29.51,0.00,0.00,0.00,30.20,M,10.00,M,CLR,M,M,M,M,M,M,M,M,M,M,M,M,M,M,77.00,KCXP 160535Z AUTO 00000KT 10SM CLR 25/06 A3020 RMK AO2,M
BAM,2022-07-16 05:35,-116.8743,40.5990,1382.36,M,M,M,260.00,8.00,0.00,30.17,M,10.00,M,CLR,M,M,M,M,M,M,M,M,M,M,M,M,M,M,M,KBAM 160535Z AUTO 26008KT 10SM CLR A3017 RMK AO1,M
BVU,2022-07-16 05:35,-114.8611,35.9475,671.00,M,M,M,M,M,0.00,M,M,M,M,M,M,M,M,M,M,M,M,M,M,M,M,M,M,M,M,KBVU 160535Z AUTO RMK AO2 PNO PWINO TSNO,M
05U,2022-07-16 05:35,-116.0051,39.6042,1811.23,69.80,48.20,46.16,170.00,16.00,0.00,30.33,M,10.00,21.00,FEW,M,M,M,11000.00,M,M,M,M,M,M,M,M,M,M,69.80,K05U 160535Z AUTO 17016G21KT 10SM FEW110 21/09 A3033 RMK A01,M
MEV,2022-07-16 05:35,-119.7500,38.9963,1441.42,71.60,44.60,37.89,40.00,4.00,0.00,30.19,M,10.00,M,SCT,M,M,M,12000.00,M,M,M,M,M,M,M,M,M,M,71.60,KMEV 160535Z AUTO 04004KT 10SM SCT120 22/07 A3019 RMK AO2,M
HTH,2022-07-16 05:35,-118.6315,38.5448,1282.89,77.00,53.60,44.25,170.00,6.00,0.00,30.14,M,10.00,M,CLR,M,M,M,M,M,M,M,M,M,M,M,M,M,M,77.00,KHTH 160535Z AUTO 17006KT 10SM CLR 25/12 A3014 RMK A01,M
TMT,2022-07-16 05:35,-117.1971,39.4643,1749.34,63.00,50.40,63.20,260.00,6.00,0.00,30.31,M,10.00,M,CLR,M,M,M,M,M,M,M,M,M,M,M,M,M,M,63.10,KTMT 160535Z AUTO 26006KT 10SM CLR 17/10 A3031 RMK AO2 T01730102,M
05U,2022-07-16 05:50,-116.0051,39.6042,1811.23,68.00,48.20,49.10,140.00,10.00,0.00,30.33,M,10.00,15.00,CLR,M,M,M,M,M,M,M,M,M,M,M,M,M,M,68.00,K05U 160550Z AUTO 14010G15KT 10SM CLR 20/09 A3033 RMK A01,M
ELY,2022-07-16 05:53,-114.8453,39.2950,1909.00,71.00,44.00,37.81,100.00,6.00,0.00,30.37,1017.30,10.00,M,CLR,M,M,M,M,M,M,M,M,M,M,M,M,M,M,71.10,KELY 160553Z AUTO 10006KT 10SM CLR 22/07 A3037 RMK AO2 SLP173 60000 T02170067 10239 20200 50014,M
P68,2022-07-16 05:53,-116.0056,39.6014,1993.00,68.00,48.00,48.73,150.00,14.00,0.00,30.30,1016.90,M,19.00,M,M,M,M,M,M,M,M,M,M,M,M,26.00,180.00,2022-07-16 05:37,68.00,KP68 160553Z AUTO 15014G19KT 20/09 A3030 RMK AO1 PK WND 18026/0537 SLP169 T02000089 10244 20200 50005,M
VGT,2022-07-16 05:53,-115.1933,36.2111,667.00,97.00,57.00,26.49,280.00,4.00,0.00,29.93,1011.90,10.00,M,CLR,M,M,M,M,M,M,M,M,M,M,M,M,M,M,95.92,KVGT 160553Z AUTO 28004KT 10SM CLR 36/14 A2993 RMK AO2 SLP119 T03610139 10406 20361 50013,M
DRA,2022-07-16 05:53,-116.0278,36.6206,1009.00,90.00,53.00,28.55,340.00,4.00,0.00,30.03,1010.90,10.00,M,CLR,M,M,M,M,M,M,M,M,M,M,M,M,M,M,87.62,KDRA 160553Z AUTO 34004KT 10SM CLR 32/12 A3003 RMK AO2 SLP109 T03220117 10394 20322 51017,M
LOL,2022-07-16 05:53,-118.5701,40.0684,1192.43,78.00,33.00,19.45,220.00,10.00,0.00,30.09,1013.80,10.00,M,CLR,M,M,M,M,M,M,M,M,M,M,M,M,M,M,78.10,KLOL 160553Z AUTO 22010KT 10SM CLR 26/01 A3009 RMK AO2 SLP138 T02560006 10389 20250 51023,M
TMT,2022-07-16 05:55,-117.1971,39.4643,1749.34,59.70,50.50,71.55,270.00,5.00,0.00,30.29,M,10.00,M,CLR,M,M,M,M,M,M,M,M,M,M,M,M,M,M,59.70,KTMT 160555Z AUTO 27005KT 10SM CLR 15/10 A3029 RMK AO2 60004 T01540103 10218 20154,M
CXP,2022-07-16 05:55,-119.7326,39.1923,1431.00,75.20,44.60,33.57,0.00,0.00,0.00,30.20,M,10.00,M,CLR,M,M,M,M,M,M,M,M,M,M,M,M,M,M,75.20,KCXP 160555Z AUTO 00000KT 10SM CLR 24/07 A3020 RMK AO2,M
MEV,2022-07-16 05:55,-119.7500,38.9963,1441.42,71.60,44.60,37.89,0.00,0.00,0.00,30.18,M,10.00,M,BKN,M,M,M,11000.00,M,M,M,M,M,M,M,M,M,M,71.60,KMEV 160555Z AUTO 00000KT 10SM BKN110 22/07 A3018 RMK AO2,M
RNO,2022-07-16 05:55,-119.7711,39.4839,1341.00,81.00,45.00,28.15,30.00,3.00,0.00,30.16,1014.50,10.00,M,FEW,M,M,M,8000.00,M,M,M,M,M,M,M,M,M,M,79.68,KRNO 160555Z 03003KT 10SM FEW080 27/07 A3016 RMK AO2 SLP145 T02720072 10356 20272 53016,M
RTS,2022-07-16 05:55,-119.8764,39.6682,1539.00,69.80,39.20,32.72,280.00,7.00,0.00,30.22,M,10.00,M,CLR,M,M,M,M,M,M,M,M,M,M,M,M,M,M,69.80,KRTS 160555Z AUTO 28007KT 10SM CLR 21/04 A3022 RMK AO2,M
BAM,2022-07-16 05:55,-116.8743,40.5990,1382.36,M,M,M,240.00,14.00,0.00,30.16,M,10.00,M,CLR,M,M,M,M,M,M,M,M,M,M,M,M,M,M,M,KBAM 160555Z AUTO 24014KT 10SM CLR A3016 RMK AO1,M
HTH,2022-07-16 05:55,-118.6315,38.5448,1282.89,75.20,55.40,50.17,140.00,7.00,0.00,30.14,M,10.00,M,M,M,M,M,M,M,M,M,M,M,M,M,M,M,M,75.20,KHTH 160555Z AUTO 14007KT 10SM 24/13 A3014 RMK A01,M
BVU,2022-07-16 05:55,-114.8611,35.9475,671.00,M,M,M,M,M,0.00,M,M,M,M,M,M,M,M,M,M,M,M,M,M,M,M,M,M,M,M,KBVU 160555Z AUTO RMK AO2 PNO PWINO TSNO,M
INS,2022-07-16 05:56,-115.6733,36.5872,955.00,91.00,49.00,23.86,260.00,5.00,0.00,30.02,1010.80,10.00,M,OVC,M,M,M,16000.00,M,M,M,M,M,M,M,M,M,M,87.85,KINS 160556Z AUTO 26005KT 10SM OVC160 33/10 A3002 RMK AO2 SLP108 T03280095 10383 20324 51016 $,M
LSV,2022-07-16 05:56,-115.0343,36.2362,570.00,94.00,54.00,25.97,0.00,0.00,0.00,29.91,1009.80,10.00,M,CLR,M,M,M,M,M,M,M,M,M,M,M,M,M,M,91.88,KLSV 160556Z AUTO 00000KT 10SM CLR 35/12 A2991 RMK AO2 SLP098 T03450122 10422 20345 50013 $,M
NFL,2022-07-16 05:56,-118.7010,39.4166,1199.00,80.00,47.00,31.15,170.00,10.00,0.00,30.10,1016.10,10.00,M,SCT,M,M,M,11000.00,M,M,M,M,M,M,M,M,M,M,79.33,KNFL 160556Z 17010KT 10SM SCT110 27/08 A3010 RMK AO2 SLP161 T02670083 10389 20267 51019,M
LAS,2022-07-16 05:56,-115.1634,36.0719,663.00,95.00,54.00,25.26,230.00,3.00,0.00,29.94,1010.70,10.00,M,FEW,FEW,M,M,12000.00,20000.00,M,M,M,M,M,M,M,M,M,92.82,KLAS 160556Z 23003KT 10SM FEW120 FEW200 35/12 A2994 RMK AO2 SLP107 T03500122 10400 20350 50012,M
WMC,2022-07-16 05:56,-117.8072,40.9019,1315.00,78.00,45.00,30.95,180.00,13.00,0.00,30.12,1013.70,10.00,M,CLR,M,M,M,M,M,M,M,M,M,M,M,M,M,M,78.10,KWMC 160556Z AUTO 18013KT 10SM CLR 26/07 A3012 RMK AO2 SLP137 T02560072 10378 20200 53016 TSNO,M
EKO,2022-07-16 05:56,-115.7860,40.8242,1367.00,76.00,43.00,30.85,250.00,4.00,0.00,30.22,1016.40,10.00,M,CLR,M,M,M,M,M,M,M,M,M,M,M,M,M,M,75.90,KEKO 160556Z AUTO 25004KT 10SM CLR 24/06 A3022 RMK AO2 SLP164 T02440061 10322 20244 51023,M
HND,2022-07-16 05:56,-115.1344,35.9729,742.79,93.00,55.00,27.87,210.00,8.00,0.00,29.99,1013.40,10.00,M,CLR,M,M,M,M,M,M,M,M,M,M,M,M,M,M,91.03,KHND 160556Z AUTO 21008KT 10SM CLR 34/13 A2999 RMK AO2 SLP134 T03390128 10400 20333 50013,M
TPH,2022-07-16 05:56,-117.0904,38.0505,1654.00,76.00,47.00,35.78,90.00,13.00,0.00,30.29,1016.70,10.00,23.00,BKN,M,M,M,11000.00,M,M,M,M,M,M,M,M,M,M,75.90,KTPH 160556Z AUTO 09013G23KT 10SM BKN110 24/08 A3029 RMK AO2 SLP167 T02440083 10350 20233 51020,M
MEV,2022-07-16 06:15,-119.7500,38.9963,1441.42,69.80,46.40,43.13,0.00,0.00,0.00,30.18,M,10.00,M,SCT,M,M,M,11000.00,M,M,M,M,M,M,M,M,M,M,69.80,KMEV 160615Z AUTO 00000KT 10SM SCT110 21/08 A3018 RMK AO2,M
TMT,2022-07-16 06:15,-117.1971,39.4643,1749.34,57.60,50.20,76.29,100.00,6.00,0.00,30.28,M,10.00,M,CLR,M,M,M,M,M,M,M,M,M,M,M,M,M,M,57.60,KTMT 160615Z AUTO 10006KT 10SM CLR 14/10 A3028 RMK AO2 T01420101,M
CXP,2022-07-16 06:15,-119.7326,39.1923,1431.00,73.40,44.60,35.66,0.00,0.00,0.00,30.19,M,10.00,M,FEW,M,M,M,11000.00,M,M,M,M,M,M,M,M,M,M,73.40,KCXP 160615Z AUTO 00000KT 10SM FEW110 23/07 A3019 RMK AO2,M
RTS,2022-07-16 06:15,-119.8764,39.6682,1539.00,71.60,41.00,33.00,260.00,9.00,0.00,30.22,M,10.00,M,CLR,M,M,M,M,M,M,M,M,M,M,M,M,M,M,71.60,KRTS 160615Z AUTO 26009KT 10SM CLR 22/05 A3022 RMK AO2,M
05U,2022-07-16 06:15,-116.0051,39.6042,1811.23,68.00,48.20,49.10,170.00,11.00,0.00,30.31,M,10.00,M,CLR,M,M,M,M,M,M,M,M,M,M,M,M,M,M,68.00,K05U 160615Z AUTO 17011KT 10SM CLR 20/09 A3031 RMK A01,M
HTH,2022-07-16 06:15,-118.6315,38.5448,1282.89,75.20,51.80,43.97,170.00,7.00,0.00,30.15,M,10.00,M,M,M,M,M,M,M,M,M,M,M,M,M,M,M,M,75.20,KHTH 160615Z AUTO 17007KT 10SM 24/11 A3015 RMK A01,M
BAM,2022-07-16 06:15,-116.8743,40.5990,1382.36,M,M,M,240.00,11.00,0.00,30.16,M,10.00,M,CLR,M,M,M,M,M,M,M,M,M,M,M,M,M,M,M,KBAM 160615Z AUTO 24011KT 10SM CLR A3016 RMK AO1,M
BVU,2022-07-16 06:15,-114.8611,35.9475,671.00,M,M,M,M,M,0.00,M,M,M,M,M,M,M,M,M,M,M,M,M,M,M,M,M,M,M,M,KBVU 160615Z AUTO RMK AO2 PNO PWINO TSNO,M
BVU,2022-07-16 06:35,-114.8611,35.9475,671.00,M,M,M,M,M,0.00,M,M,M,M,M,M,M,M,M,M,M,M,M,M,M,M,M,M,M,M,KBVU 160635Z AUTO RMK AO2 PNO PWINO TSNO,M
TMT,2022-07-16 06:35,-117.1971,39.4643,1749.34,56.80,49.00,75.37,80.00,5.00,0.00,30.29,M,10.00,M,CLR,M,M,M,M,M,M,M,M,M,M,M,M,M,M,56.80,KTMT 160635Z AUTO 08005KT 10SM CLR 14/10 A3029 RMK AO2 T01380095,M
HTH,2022-07-16 06:35,-118.6315,38.5448,1282.89,77.00,51.80,41.42,160.00,6.00,0.00,30.15,M,10.00,M,SCT,M,M,M,12000.00,M,M,M,M,M,M,M,M,M,M,77.00,KHTH 160635Z AUTO 16006KT 10SM SCT120 25/11 A3015 RMK A01,M
BAM,2022-07-16 06:35,-116.8743,40.5990,1382.36,M,M,M,250.00,9.00,0.00,30.16,M,10.00,M,CLR,M,M,M,M,M,M,M,M,M,M,M,M,M,M,M,KBAM 160635Z AUTO 25009KT 10SM CLR A3016 RMK AO1,M
MEV,2022-07-16 06:35,-119.7500,38.9963,1441.42,68.00,46.40,45.88,90.00,3.00,0.00,30.18,M,10.00,M,FEW,M,M,M,11000.00,M,M,M,M,M,M,M,M,M,M,68.00,KMEV 160635Z AUTO 09003KT 10SM FEW110 20/08 A3018 RMK AO2,M
05U,2022-07-16 06:35,-116.0051,39.6042,1811.23,68.00,48.20,49.10,0.00,0.00,0.00,30.31,M,10.00,11.00,CLR,M,M,M,M,M,M,M,M,M,M,M,M,M,M,68.00,K05U 160635Z AUTO 00000G11KT 10SM CLR 20/09 A3031 RMK A01,M
RTS,2022-07-16 06:35,-119.8764,39.6682,1539.00,75.20,41.00,29.23,270.00,10.00,0.00,30.22,M,10.00,M,SCT,M,M,M,12000.00,M,M,M,M,M,M,M,M,M,M,75.20,KRTS 160635Z AUTO 27010KT 10SM SCT120 24/05 A3022 RMK AO2,M
CXP,2022-07-16 06:35,-119.7326,39.1923,1431.00,75.20,44.60,33.57,0.00,0.00,0.00,30.19,M,10.00,M,BKN,M,M,M,11000.00,M,M,M,M,M,M,M,M,M,M,75.20,KCXP 160635Z AUTO 00000KT 10SM BKN110 24/07 A3019 RMK AO2,M
LOL,2022-07-16 06:53,-118.5701,40.0684,1192.43,73.00,36.00,25.88,210.00,9.00,0.00,30.10,1014.50,10.00,M,CLR,M,M,M,M,M,M,M,M,M,M,M,M,M,M,73.00,KLOL 160653Z AUTO 21009KT 10SM CLR 23/02 A3010 RMK AO2 SLP145 T02280022,M
P68,2022-07-16 06:53,-116.0056,39.6014,1993.00,69.00,46.00,43.52,M,5.00,0.00,30.29,1016.00,M,16.00,M,M,M,M,M,M,M,M,M,M,M,M,M,M,M,69.10,KP68 160653Z AUTO VRB05G16KT 21/08 A3029 RMK AO1 SLP160 T02060078,M
ELY,2022-07-16 06:53,-114.8453,39.2950,1909.00,69.00,43.00,38.82,120.00,5.00,0.00,30.34,1016.00,10.00,M,CLR,M,M,M,M,M,M,M,M,M,M,M,M,M,M,69.10,KELY 160653Z AUTO 12005KT 10SM CLR 21/06 A3034 RMK AO2 SLP160 T02060061,M
VGT,2022-07-16 06:53,-115.1933,36.2111,667.00,95.00,57.00,28.16,310.00,3.00,0.00,29.93,1011.90,10.00,M,CLR,M,M,M,M,M,M,M,M,M,M,M,M,M,M,93.75,KVGT 160653Z AUTO 31003KT 10SM CLR 35/14 A2993 RMK AO2 SLP119 T03500139,M
DRA,2022-07-16 06:53,-116.0278,36.6206,1009.00,86.00,52.00,31.13,20.00,17.00,0.00,30.05,1011.60,10.00,28.00,CLR,M,M,M,M,M,M,M,M,M,M,M,32.00,10.00,2022-07-16 06:20,83.91,KDRA 160653Z AUTO 02017G28KT 10SM CLR 30/11 A3005 RMK AO2 PK WND 01032/0620 SLP116 T03000111,M
BAM,2022-07-16 06:55,-116.8743,40.5990,1382.36,M,M,M,230.00,7.00,0.00,30.16,M,10.00,M,CLR,M,M,M,M,M,M,M,M,M,M,M,M,M,M,M,KBAM 160655Z AUTO 23007KT 10SM CLR A3016 RMK AO1,M
RNO,2022-07-16 06:55,-119.7711,39.4839,1341.00,81.00,45.00,28.15,300.00,4.00,0.00,30.16,1014.40,10.00,M,SCT,M,M,M,12000.00,M,M,M,M,M,M,M,M,M,M,79.68,KRNO 160655Z 30004KT 10SM SCT120 27/07 A3016 RMK AO2 SLP144 T02720072,M
RTS,2022-07-16 06:55,-119.8764,39.6682,1539.00,73.40,41.00,31.05,260.00,7.00,0.00,30.22,M,10.00,M,SCT,M,M,M,12000.00,M,M,M,M,M,M,M,M,M,M,73.40,KRTS 160655Z AUTO 26007KT 10SM SCT120 23/05 A3022 RMK AO2,M
05U,2022-07-16 06:55,-116.0051,39.6042,1811.23,68.00,46.40,45.88,0.00,0.00,0.00,30.32,M,10.00,14.00,CLR,M,M,M,M,M,M,M,M,M,M,M,M,M,M,68.00,K05U 160655Z AUTO 00000G14KT 10SM CLR 20/08 A3032 RMK A01,M
HTH,2022-07-16 06:55,-118.6315,38.5448,1282.89,75.20,51.80,43.97,190.00,4.00,0.00,30.15,M,10.00,M,FEW,M,M,M,12000.00,M,M,M,M,M,M,M,M,M,M,75.20,KHTH 160655Z AUTO 19004KT 10SM FEW120 24/11 A3015 RMK A01,M
MEV,2022-07-16 06:55,-119.7500,38.9963,1441.42,66.20,50.00,55.88,90.00,7.00,0.00,30.18,M,10.00,M,SCT,M,M,M,11000.00,M,M,M,M,M,M,M,M,M,M,66.20,KMEV 160655Z AUTO 09007KT 10SM SCT110 19/10 A3018 RMK AO2,M
BVU,2022-07-16 06:55,-114.8611,35.9475,671.00,M,M,M,M,M,0.00,M,M,M,M,M,M,M,M,M,M,M,M,M,M,M,M,M,M,M,M,KBVU 160655Z AUTO RMK AO2 PNO PWINO TSNO,M
TMT,2022-07-16 06:55,-117.1971,39.4643,1749.34,59.00,49.50,70.69,0.00,0.00,0.00,30.29,M,7.00,M,CLR,M,M,M,M,M,M,M,M,M,M,M,M,M,M,59.00,KTMT 160655Z AUTO 00000KT 7SM CLR 15/10 A3029 RMK AO2 T01500097,M
CXP,2022-07-16 06:55,-119.7326,39.1923,1431.00,73.40,44.60,35.66,100.00,4.00,0.00,30.20,M,10.00,M,SCT,M,M,M,11000.00,M,M,M,M,M,M,M,M,M,M,73.40,KCXP 160655Z AUTO 10004KT 10SM SCT110 23/07 A3020 RMK AO2,M
LSV,2022-07-16 06:56,-115.0343,36.2362,570.00,93.00,55.00,27.87,0.00,0.00,0.00,29.91,1009.80,10.00,M,CLR,M,M,M,M,M,M,M,M,M,M,M,M,M,M,91.03,KLSV 160656Z AUTO 00000KT 10SM CLR 34/13 A2991 RMK AO2 SLP098 T03390128 $,M
LAS,2022-07-16 06:56,-115.1634,36.0719,663.00,94.00,54.00,26.13,190.00,5.00,0.00,29.94,1010.70,10.00,M,FEW,FEW,M,M,12000.00,20000.00,M,M,M,M,M,M,M,M,M,91.68,KLAS 160656Z 19005KT 10SM FEW120 FEW200 34/12 A2994 RMK AO2 SLP107 T03440122,M
TPH,2022-07-16 06:56,-117.0904,38.0505,1654.00,74.00,49.00,41.24,30.00,4.00,0.00,30.28,1015.90,10.00,M,SCT,M,M,M,10000.00,M,M,M,M,M,M,M,M,M,M,73.90,KTPH 160656Z AUTO 03004KT 10SM SCT100 23/09 A3028 RMK AO2 SLP159 T02330094,M
WMC,2022-07-16 06:56,-117.8072,40.9019,1315.00,77.00,46.00,33.34,180.00,14.00,0.00,30.12,1013.60,10.00,M,CLR,M,M,M,M,M,M,M,M,M,M,M,M,M,M,77.00,KWMC 160656Z AUTO 18014KT 10SM CLR 25/08 A3012 RMK AO2 SLP136 T02500078 TSNO,M
INS,2022-07-16 06:56,-115.6733,36.5872,955.00,87.80,49.60,26.89,320.00,6.00,0.00,30.03,1011.20,10.00,M,FEW,BKN,M,M,14000.00,16000.00,M,M,M,M,M,M,M,M,M,85.05,KINS 160656Z AUTO 32006KT 10SM FEW140 BKN160 31/10 A3003 RMK AO2 SLP112 T03100098 $,M
EKO,2022-07-16 06:56,-115.7860,40.8242,1367.00,72.00,43.00,35.16,250.00,6.00,0.00,30.22,1016.60,10.00,M,CLR,M,M,M,M,M,M,M,M,M,M,M,M,M,M,72.00,KEKO 160656Z AUTO 25006KT 10SM CLR 22/06 A3022 RMK AO2 SLP166 T02220061,M
HND,2022-07-16 06:56,-115.1344,35.9729,742.79,90.00,56.00,31.62,210.00,6.00,0.00,29.99,1013.50,10.00,M,CLR,M,M,M,M,M,M,M,M,M,M,M,M,M,M,88.29,KHND 160656Z AUTO 21006KT 10SM CLR 32/13 A2999 RMK AO2 SLP135 T03220133 404110250,M
BVU,2022-07-16 07:15,-114.8611,35.9475,671.00,M,M,M,M,M,0.00,M,M,M,M,M,M,M,M,M,M,M,M,M,M,M,M,M,M,M,M,KBVU 160715Z AUTO RMK AO2 PNO PWINO TSNO,M
HTH,2022-07-16 07:15,-118.6315,38.5448,1282.89,77.00,50.00,38.74,140.00,7.00,0.00,30.15,M,10.00,M,FEW,M,M,M,12000.00,M,M,M,M,M,M,M,M,M,M,77.00,KHTH 160715Z AUTO 14007KT 10SM FEW120 25/10 A3015 RMK A01,M
TMT,2022-07-16 07:15,-117.1971,39.4643,1749.34,55.00,50.50,85.07,300.00,4.00,0.00,30.29,M,10.00,M,CLR,M,M,M,M,M,M,M,M,M,M,M,M,M,M,54.90,KTMT 160715Z AUTO 30004KT 10SM CLR 13/10 A3029 RMK AO2 T01270103,M
RTS,2022-07-16 07:15,-119.8764,39.6682,1539.00,71.60,41.00,33.00,M,3.00,0.00,30.22,M,10.00,M,BKN,M,M,M,12000.00,M,M,M,M,M,M,M,M,M,M,71.60,KRTS 160715Z AUTO VRB03KT 10SM BKN120 22/05 A3022 RMK AO2,M
BAM,2022-07-16 07:15,-116.8743,40.5990,1382.36,M,M,M,220.00,8.00,0.00,30.15,M,10.00,M,CLR,M,M,M,M,M,M,M,M,M,M,M,M,M,M,M,KBAM 160715Z AUTO 22008KT 10SM CLR A3015 RMK AO1,M
05U,2022-07-16 07:15,-116.0051,39.6042,1811.23,66.20,46.40,48.83,140.00,8.00,0.00,30.32,M,10.00,M,CLR,M,M,M,M,M,M,M,M,M,M,M,M,M,M,66.20,K05U 160715Z AUTO 14008KT 10SM CLR 19/08 A3032 RMK A01,M
MEV,2022-07-16 07:15,-119.7500,38.9963,1441.42,66.20,44.60,45.60,110.00,9.00,0.00,30.18,M,10.00,M,BKN,M,M,M,11000.00,M,M,M,M,M,M,M,M,M,M,66.20,KMEV 160715Z AUTO 11009KT 10SM BKN110 19/07 A3018 RMK AO2,M
CXP,2022-07-16 07:15,-119.7326,39.1923,1431.00,75.20,44.60,33.57,0.00,0.00,0.00,30.20,M,10.00,M,SCT,M,M,M,11000.00,M,M,M,M,M,M,M,M,M,M,75.20,KCXP 160715Z AUTO 00000KT 10SM SCT110 24/07 A3020 RMK AO2,M
BVU,2022-07-16 07:35,-114.8611,35.9475,671.00,M,M,M,M,M,0.00,M,M,M,M,M,M,M,M,M,M,M,M,M,M,M,M,M,M,M,M,KBVU 160735Z AUTO RMK AO2 PNO PWINO TSNO,M
HTH,2022-07-16 07:35,-118.6315,38.5448,1282.89,77.00,50.00,38.74,160.00,10.00,0.00,30.16,M,10.00,M,CLR,M,M,M,M,M,M,M,M,M,M,M,M,M,M,77.00,KHTH 160735Z AUTO 16010KT 10SM CLR 25/10 A3016 RMK A01,M
05U,2022-07-16 07:35,-116.0051,39.6042,1811.23,62.60,50.00,63.38,350.00,6.00,0.00,30.32,M,10.00,M,CLR,M,M,M,M,M,M,M,M,M,M,M,M,M,M,62.60,K05U 160735Z AUTO 35006KT 10SM CLR 17/10 A3032 RMK A01,M
CXP,2022-07-16 07:35,-119.7326,39.1923,1431.00,71.60,44.60,37.89,0.00,0.00,0.00,30.19,M,10.00,M,SCT,M,M,M,11000.00,M,M,M,M,M,M,M,M,M,M,71.60,KCXP 160735Z AUTO 00000KT 10SM SCT110 22/07 A3019 RMK AO2,M
MEV,2022-07-16 07:35,-119.7500,38.9963,1441.42,66.20,44.60,45.60,250.00,7.00,0.00,30.18,M,10.00,M,BKN,M,M,M,10000.00,M,M,M,M,M,M,M,M,M,M,66.20,KMEV 160735Z AUTO 25007KT 10SM BKN100 19/07 A3018 RMK AO2,M
BAM,2022-07-16 07:35,-116.8743,40.5990,1382.36,M,M,M,210.00,7.00,0.00,30.16,M,10.00,M,CLR,M,M,M,M,M,M,M,M,M,M,M,M,M,M,M,KBAM 160735Z AUTO 21007KT 10SM CLR A3016 RMK AO1,M
TMT,2022-07-16 07:35,-117.1971,39.4643,1749.34,54.50,50.20,85.36,240.00,4.00,0.00,30.29,M,10.00,M,CLR,M,M,M,M,M,M,M,M,M,M,M,M,M,M,54.50,KTMT 160735Z AUTO 24004KT 10SM CLR 13/10 A3029 RMK AO2 T01250101,M
RTS,2022-07-16 07:35,-119.8764,39.6682,1539.00,73.40,42.80,33.29,80.00,3.00,0.00,30.22,M,10.00,M,BKN,M,M,M,12000.00,M,M,M,M,M,M,M,M,M,M,73.40,KRTS 160735Z AUTO 08003KT 10SM BKN120 23/06 A3022 RMK AO2,M
VGT,2022-07-16 07:53,-115.1933,36.2111,667.00,93.00,55.00,27.87,350.00,7.00,0.00,29.93,1011.60,10.00,M,CLR,M,M,M,M,M,M,M,M,M,M,M,M,M,M,91.03,KVGT 160753Z AUTO 35007KT 10SM CLR 34/13 A2993 RMK AO2 SLP116 T03390128 404170278,M
P68,2022-07-16 07:53,-116.0056,39.6014,1993.00,60.00,50.00,69.24,310.00,6.00,0.00,30.29,1016.70,M,M,M,M,M,M,M,M,M,M,M,M,M,M,M,M,M,60.10,KP68 160753Z AUTO 31006KT 16/10 A3029 RMK AO1 SLP167 T01560100 403170156,M
ELY,2022-07-16 07:53,-114.8453,39.2950,1909.00,64.00,42.00,44.74,190.00,8.00,0.00,30.31,1015.20,10.00,M,CLR,M,M,M,M,M,M,M,M,M,M,M,M,M,M,64.00,KELY 160753Z AUTO 19008KT 10SM CLR 18/06 A3031 RMK AO2 SLP152 T01780056 403220161,M
DRA,2022-07-16 07:53,-116.0278,36.6206,1009.00,85.00,51.00,31.19,20.00,10.00,0.00,30.06,1011.80,10.00,21.00,CLR,M,M,M,M,M,M,M,M,M,M,M,30.00,30.00,2022-07-16 07:23,82.90,KDRA 160753Z AUTO 02010G21KT 10SM CLR 29/11 A3006 RMK AO2 PK WND 03030/0723 SLP118 T02940106 404000244,M
LOL,2022-07-16 07:53,-118.5701,40.0684,1192.43,71.00,41.00,33.57,240.00,9.00,0.00,30.10,1014.40,10.00,M,CLR,M,M,M,M,M,M,M,M,M,M,M,M,M,M,71.10,KLOL 160753Z AUTO 24009KT 10SM CLR 22/05 A3010 RMK AO2 SLP144 T02170050 403890122,M
CXP,2022-07-16 07:55,-119.7326,39.1923,1431.00,71.60,42.80,35.37,0.00,0.00,0.00,30.19,M,10.00,M,BKN,M,M,M,11000.00,M,M,M,M,M,M,M,M,M,M,71.60,KCXP 160755Z AUTO 00000KT 10SM BKN110 22/06 A3019 RMK AO2,M
MEV,2022-07-16 07:55,-119.7500,38.9963,1441.42,64.40,46.40,51.98,0.00,0.00,0.00,30.18,M,10.00,M,FEW,M,M,M,11000.00,M,M,M,M,M,M,M,M,M,M,64.40,KMEV 160755Z AUTO 00000KT 10SM FEW110 18/08 A3018 RMK AO2,M
RTS,2022-07-16 07:55,-119.8764,39.6682,1539.00,68.00,39.20,34.80,310.00,3.00,0.00,30.22,M,10.00,M,CLR,M,M,M,M,M,M,M,M,M,M,M,M,M,M,68.00,KRTS 160755Z AUTO 31003KT 10SM CLR 20/04 A3022 RMK AO2,M
BAM,2022-07-16 07:55,-116.8743,40.5990,1382.36,M,M,M,200.00,8.00,0.00,30.16,M,10.00,M,CLR,M,M,M,M,M,M,M,M,M,M,M,M,M,M,M,KBAM 160755Z AUTO 20008KT 10SM CLR A3016 RMK AO1,M
RNO,2022-07-16 07:55,-119.7711,39.4839,1341.00,80.00,46.00,30.11,0.00,0.00,0.00,30.16,1014.00,10.00,M,SCT,M,M,M,12000.00,M,M,M,M,M,M,M,M,M,M,79.26,KRNO 160755Z 00000KT 10SM SCT120 27/08 A3016 RMK AO2 SLP140 T02670078 403780167,M
HTH,2022-07-16 07:55,-118.6315,38.5448,1282.89,75.20,51.80,43.97,110.00,7.00,0.00,30.16,M,10.00,M,CLR,M,M,M,M,M,M,M,M,M,M,M,M,M,M,75.20,KHTH 160755Z AUTO 11007KT 10SM CLR 24/11 A3016 RMK A01,M
BVU,2022-07-16 07:55,-114.8611,35.9475,671.00,M,M,M,M,M,0.00,M,M,M,M,M,M,M,M,M,M,M,M,M,M,M,M,M,M,M,M,KBVU 160755Z AUTO RMK AO2 PNO PWINO TSNO,M
05U,2022-07-16 07:55,-116.0051,39.6042,1811.23,60.80,51.80,72.20,310.00,3.00,0.00,30.32,M,10.00,10.00,CLR,M,M,M,M,M,M,M,M,M,M,M,M,M,M,60.80,K05U 160755Z AUTO 31003G10KT 10SM CLR 16/11 A3032 RMK A01,M
TMT,2022-07-16 07:55,-117.1971,39.4643,1749.34,54.00,49.80,85.65,270.00,5.00,0.00,30.28,M,10.00,M,CLR,M,M,M,M,M,M,M,M,M,M,M,M,M,M,54.00,KTMT 160755Z AUTO 27005KT 10SM CLR 12/10 A3028 RMK AO2 T01220099,M
LAS,2022-07-16 07:56,-115.1634,36.0719,663.00,93.00,54.00,26.87,240.00,4.00,0.00,29.93,1010.40,10.00,M,FEW,FEW,M,M,12000.00,15000.00,M,M,M,M,M,M,M,M,M,90.76,KLAS 160756Z 24004KT 10SM FEW120 FEW150 34/12 A2993 RMK AO2 SLP104 T03390122 404060267,M
HND,2022-07-16 07:56,-115.1344,35.9729,742.79,90.00,57.00,32.91,210.00,9.00,0.00,29.98,1013.10,10.00,M,CLR,M,M,M,M,M,M,M,M,M,M,M,M,M,M,88.61,KHND 160756Z AUTO 21009KT 10SM CLR 32/14 A2998 RMK AO2 SLP131 T03220139,M
EKO,2022-07-16 07:56,-115.7860,40.8242,1367.00,73.00,42.00,32.84,240.00,4.00,0.00,30.21,1015.90,10.00,M,CLR,M,M,M,M,M,M,M,M,M,M,M,M,M,M,73.00,KEKO 160756Z AUTO 24004KT 10SM CLR 23/06 A3021 RMK AO2 SLP159 T02280056 403610211,M
NFL,2022-07-16 07:56,-118.7010,39.4166,1199.00,74.00,47.00,38.26,0.00,0.00,0.00,30.09,1015.70,10.00,M,CLR,M,M,M,M,M,M,M,M,M,M,M,M,M,M,73.90,KNFL 160756Z AUTO 00000KT 10SM CLR 23/08 A3009 RMK AO2 SLP157 T02330083 403890161,M
TPH,2022-07-16 07:56,-117.0904,38.0505,1654.00,75.00,47.00,36.87,70.00,7.00,0.00,30.27,1015.50,10.00,M,BKN,M,M,M,11000.00,M,M,M,M,M,M,M,M,M,M,75.00,KTPH 160756Z AUTO 07007KT 10SM BKN110 24/08 A3027 RMK AO2 SLP155 T02390083 403610194,M
WMC,2022-07-16 07:56,-117.8072,40.9019,1315.00,73.00,45.00,36.70,200.00,9.00,0.00,30.12,1013.90,10.00,M,CLR,M,M,M,M,M,M,M,M,M,M,M,M,M,M,73.00,KWMC 160756Z AUTO 20009KT 10SM CLR 23/07 A3012 RMK AO2 SLP139 T02280072 403780122 TSNO,M
LSV,2022-07-16 07:58,-115.0343,36.2362,570.00,90.00,53.60,28.99,40.00,9.00,0.00,29.92,M,10.00,M,CLR,M,M,M,M,M,M,M,M,M,M,M,M,M,M,87.83,KLSV 160758Z AUTO 04009KT 10SM CLR 32/12 A2992 RMK AO2 SLPNO T03230120 404180254 $,M
INS,2022-07-16 07:58,-115.6733,36.5872,955.00,89.80,47.00,22.81,60.00,5.00,0.00,30.04,M,10.00,M,SCT,M,M,M,13000.00,M,M,M,M,M,M,M,M,M,M,86.47,KINS 160758Z AUTO 06005KT 10SM SCT130 32/08 A3004 RMK AO2 SLPNO T03210083 403570248 $,M
BVU,2022-07-16 08:15,-114.8611,35.9475,671.00,M,M,M,M,M,0.00,M,M,M,M,M,M,M,M,M,M,M,M,M,M,M,M,M,M,M,M,KBVU 160815Z AUTO RMK AO2 PNO PWINO TSNO,M
RTS,2022-07-16 08:15,-119.8764,39.6682,1539.00,64.40,39.20,39.43,340.00,5.00,0.00,30.22,M,10.00,M,FEW,M,M,M,10000.00,M,M,M,M,M,M,M,M,M,M,64.40,KRTS 160815Z AUTO 34005KT 10SM FEW100 18/04 A3022 RMK AO2,M
05U,2022-07-16 08:15,-116.0051,39.6042,1811.23,59.00,51.80,76.98,0.00,0.00,0.00,30.32,M,10.00,M,CLR,M,M,M,M,M,M,M,M,M,M,M,M,M,M,59.00,K05U 160815Z AUTO 00000KT 10SM CLR 15/11 A3032 RMK A01,M
MEV,2022-07-16 08:15,-119.7500,38.9963,1441.42,60.80,44.60,55.12,0.00,0.00,0.00,30.17,M,10.00,M,FEW,M,M,M,10000.00,M,M,M,M,M,M,M,M,M,M,60.80,KMEV 160815Z AUTO 00000KT 10SM FEW100 16/07 A3017 RMK AO2,M
BAM,2022-07-16 08:15,-116.8743,40.5990,1382.36,M,M,M,180.00,6.00,0.00,30.17,M,10.00,M,CLR,M,M,M,M,M,M,M,M,M,M,M,M,M,M,M,KBAM 160815Z AUTO 18006KT 10SM CLR A3017 RMK AO1,M
CXP,2022-07-16 08:15,-119.7326,39.1923,1431.00,69.80,42.80,37.61,0.00,0.00,0.00,30.19,M,10.00,M,BKN,M,M,M,11000.00,M,M,M,M,M,M,M,M,M,M,69.80,KCXP 160815Z AUTO 00000KT 10SM BKN110 21/06 A3019 RMK AO2,M
HTH,2022-07-16 08:15,-118.6315,38.5448,1282.89,77.00,50.00,38.74,160.00,10.00,0.00,30.15,M,10.00,M,FEW,M,M,M,12000.00,M,M,M,M,M,M,M,M,M,M,77.00,KHTH 160815Z AUTO 16010KT 10SM FEW120 25/10 A3015 RMK A01,M
TMT,2022-07-16 08:15,-117.1971,39.4643,1749.34,50.50,47.30,88.73,190.00,4.00,0.00,30.28,M,10.00,M,CLR,M,M,M,M,M,M,M,M,M,M,M,M,M,M,50.50,KTMT 160815Z AUTO 19004KT 10SM CLR 10/09 A3028 RMK AO2 T01030085,M
MEV,2022-07-16 08:35,-119.7500,38.9963,1441.42,60.80,48.20,63.15,100.00,7.00,0.00,30.18,M,10.00,M,CLR,M,M,M,M,M,M,M,M,M,M,M,M,M,M,60.80,KMEV 160835Z AUTO 10007KT 10SM CLR 16/09 A3018 RMK AO2,M
TMT,2022-07-16 08:35,-117.1971,39.4643,1749.34,51.00,46.60,85.14,170.00,3.00,0.00,30.28,M,10.00,M,CLR,M,M,M,M,M,M,M,M,M,M,M,M,M,M,50.90,KTMT 160835Z AUTO 17003KT 10SM CLR 11/08 A3028 RMK AO2 T01050081,M
05U,2022-07-16 08:35,-116.0051,39.6042,1811.23,57.20,51.80,82.12,0.00,0.00,0.00,30.32,M,10.00,M,CLR,M,M,M,M,M,M,M,M,M,M,M,M,M,M,57.20,K05U 160835Z AUTO 00000KT 10SM CLR 14/11 A3032 RMK A01,M
RTS,2022-07-16 08:35,-119.8764,39.6682,1539.00,64.40,39.20,39.43,360.00,6.00,0.00,30.22,M,10.00,M,SCT,M,M,M,10000.00,M,M,M,M,M,M,M,M,M,M,64.40,KRTS 160835Z AUTO 36006KT 10SM SCT100 18/04 A3022 RMK AO2,M
HTH,2022-07-16 08:35,-118.6315,38.5448,1282.89,77.00,50.00,38.74,110.00,12.00,0.00,30.15,M,10.00,M,BKN,M,M,M,12000.00,M,M,M,M,M,M,M,M,M,M,77.00,KHTH 160835Z AUTO 11012KT 10SM BKN120 25/10 A3015 RMK A01,M
CXP,2022-07-16 08:35,-119.7326,39.1923,1431.00,68.00,44.60,42.85,0.00,0.00,0.00,30.19,M,10.00,M,SCT,M,M,M,11000.00,M,M,M,M,M,M,M,M,M,M,68.00,KCXP 160835Z AUTO 00000KT 10SM SCT110 20/07 A3019 RMK AO2,M
BVU,2022-07-16 08:35,-114.8611,35.9475,671.00,M,M,M,M,M,0.00,M,M,M,M,M,M,M,M,M,M,M,M,M,M,M,M,M,M,M,M,KBVU 160835Z AUTO RMK AO2 PNO PWINO TSNO,M
BAM,2022-07-16 08:35,-116.8743,40.5990,1382.36,M,M,M,170.00,4.00,0.00,30.16,M,10.00,M,CLR,M,M,M,M,M,M,M,M,M,M,M,M,M,M,M,KBAM 160835Z AUTO 17004KT 10SM CLR A3016 RMK AO1,M
ELY,2022-07-16 08:53,-114.8453,39.2950,1909.00,61.00,42.00,49.73,180.00,6.00,0.00,30.30,1014.90,10.00,M,CLR,M,M,M,M,M,M,M,M,M,M,M,M,M,M,61.00,KELY 160853Z AUTO 18006KT 10SM CLR 16/06 A3030 RMK AO2 SLP149 T01610056 56021,M
LOL,2022-07-16 08:53,-118.5701,40.0684,1192.43,65.00,38.00,36.82,110.00,4.00,0.00,30.09,1014.30,10.00,M,CLR,M,M,M,M,M,M,M,M,M,M,M,M,M,M,64.90,KLOL 160853Z AUTO 11004KT 10SM CLR 18/03 A3009 RMK AO2 SLP143 T01830033 50001,M
VGT,2022-07-16 08:53,-115.1933,36.2111,667.00,94.00,53.00,25.28,300.00,9.00,0.00,29.95,1012.30,10.00,M,CLR,M,M,M,M,M,M,M,M,M,M,M,M,M,M,91.45,KVGT 160853Z AUTO 30009KT 10SM CLR 34/12 A2995 RMK AO2 SLP123 T03440117 53004,M
P68,2022-07-16 08:53,-116.0056,39.6014,1993.00,57.00,50.00,77.38,130.00,5.00,0.00,30.30,1018.40,M,M,M,M,M,M,M,M,M,M,M,M,M,M,M,M,M,57.00,KP68 160853Z AUTO 13005KT 14/10 A3030 RMK AO1 SLP184 T01390100 55001,M
DRA,2022-07-16 08:53,-116.0278,36.6206,1009.00,84.00,52.00,33.19,40.00,15.00,0.00,30.06,1012.00,10.00,19.00,CLR,M,M,M,M,M,M,M,M,M,M,M,M,M,M,82.36,KDRA 160853Z AUTO 04015G19KT 10SM CLR 29/11 A3006 RMK AO2 SLP120 T02890111 51011,M
MEV,2022-07-16 08:55,-119.7500,38.9963,1441.42,62.60,46.40,55.37,90.00,7.00,0.00,30.17,M,10.00,M,CLR,M,M,M,M,M,M,M,M,M,M,M,M,M,M,62.60,KMEV 160855Z AUTO 09007KT 10SM CLR 17/08 A3017 RMK AO2,M
RNO,2022-07-16 08:55,-119.7711,39.4839,1341.00,76.00,47.00,35.78,270.00,7.00,0.00,30.15,1014.00,10.00,M,FEW,M,M,M,12000.00,M,M,M,M,M,M,M,M,M,M,75.90,KRNO 160855Z 27007KT 10SM FEW120 24/08 A3015 RMK AO2 SLP140 T02440083 58001,M
RTS,2022-07-16 08:55,-119.8764,39.6682,1539.00,64.40,39.20,39.43,350.00,6.00,0.00,30.21,M,10.00,M,FEW,M,M,M,10000.00,M,M,M,M,M,M,M,M,M,M,64.40,KRTS 160855Z AUTO 35006KT 10SM FEW100 18/04 A3021 RMK AO2,M
HTH,2022-07-16 08:55,-118.6315,38.5448,1282.89,75.20,51.80,43.97,120.00,8.00,0.00,30.15,M,10.00,M,BKN,M,M,M,11000.00,M,M,M,M,M,M,M,M,M,M,75.20,KHTH 160855Z AUTO 12008KT 10SM BKN110 24/11 A3015 RMK A01,M
CXP,2022-07-16 08:55,-119.7326,39.1923,1431.00,68.00,44.60,42.85,0.00,0.00,0.00,30.19,M,10.00,M,CLR,M,M,M,M,M,M,M,M,M,M,M,M,M,M,68.00,KCXP 160855Z AUTO 00000KT 10SM CLR 20/07 A3019 RMK AO2,M
TMT,2022-07-16 08:55,-117.1971,39.4643,1749.34,50.00,45.70,85.09,210.00,5.00,0.00,30.28,M,10.00,M,CLR,M,M,M,M,M,M,M,M,M,M,M,M,M,M,50.00,KTMT 160855Z AUTO 21005KT 10SM CLR 10/08 A3028 RMK AO2 T01000076,M
05U,2022-07-16 08:55,-116.0051,39.6042,1811.23,57.20,50.00,76.82,0.00,0.00,0.00,30.32,M,10.00,M,CLR,M,M,M,M,M,M,M,M,M,M,M,M,M,M,57.20,K05U 160855Z AUTO 00000KT 10SM CLR 14/10 A3032 RMK A01,M
BVU,2022-07-16 08:55,-114.8611,35.9475,671.00,M,M,M,M,M,0.00,M,M,M,M,M,M,M,M,M,M,M,M,M,M,M,M,M,M,M,M,KBVU 160855Z AUTO RMK AO2 PNO PWINO TSNO,M
BAM,2022-07-16 08:55,-116.8743,40.5990,1382.36,M,M,M,140.00,4.00,0.00,30.16,M,10.00,M,CLR,M,M,M,M,M,M,M,M,M,M,M,M,M,M,M,KBAM 160855Z AUTO 14004KT 10SM CLR A3016 RMK AO1,M
HND,2022-07-16 08:56,-115.1344,35.9729,742.79,89.00,57.00,33.85,90.00,4.00,0.00,29.99,1013.40,10.00,M,CLR,M,M,M,M,M,M,M,M,M,M,M,M,M,M,87.74,KHND 160856Z AUTO 09004KT 10SM CLR 32/14 A2999 RMK AO2 SLP134 T03170139 53001,M
LAS,2022-07-16 08:56,-115.1634,36.0719,663.00,92.00,57.00,31.00,30.00,8.00,0.00,29.95,1010.90,10.00,M,FEW,M,M,M,15000.00,M,M,M,M,M,M,M,M,M,M,90.50,KLAS 160856Z 03008KT 10SM FEW150 33/14 A2995 RMK AO2 SLP109 T03330139 53003,M
TPH,2022-07-16 08:56,-117.0904,38.0505,1654.00,71.00,49.00,45.33,360.00,6.00,0.00,30.26,1015.20,10.00,M,SCT,M,M,M,11000.00,M,M,M,M,M,M,M,M,M,M,71.10,KTPH 160856Z AUTO 36006KT 10SM SCT110 22/09 A3026 RMK AO2 SLP152 T02170094 56010,M
NFL,2022-07-16 08:56,-118.7010,39.4166,1199.00,73.00,46.00,38.11,150.00,9.00,0.00,30.09,1015.80,10.00,M,CLR,M,M,M,M,M,M,M,M,M,M,M,M,M,M,73.00,KNFL 160856Z AUTO 15009KT 10SM CLR 23/08 A3009 RMK AO2 SLP158 T02280078 55003,M
WMC,2022-07-16 08:56,-117.8072,40.9019,1315.00,72.00,45.00,37.96,180.00,8.00,0.00,30.12,1013.60,10.00,M,CLR,M,M,M,M,M,M,M,M,M,M,M,M,M,M,72.00,KWMC 160856Z AUTO 18008KT 10SM CLR 22/07 A3012 RMK AO2 SLP136 T02220072 58001 TSNO,M
EKO,2022-07-16 08:56,-115.7860,40.8242,1367.00,70.00,43.00,37.64,260.00,7.00,0.00,30.20,1015.70,10.00,M,CLR,M,M,M,M,M,M,M,M,M,M,M,M,M,M,70.00,KEKO 160856Z AUTO 26007KT 10SM CLR 21/06 A3020 RMK AO2 SLP157 T02110061 58005,M
INS,2022-07-16 08:58,-115.6733,36.5872,955.00,88.70,47.30,23.98,0.00,0.00,0.00,30.05,M,10.00,M,BKN,M,M,M,17000.00,M,M,M,M,M,M,M,M,M,M,85.54,KINS 160858Z AUTO 00000KT 10SM BKN170 32/09 A3005 RMK AO2 SLPNO T03150085 $,M
LSV,2022-07-16 08:58,-115.0343,36.2362,570.00,95.50,50.50,21.86,40.00,20.00,0.00,29.91,M,10.00,29.00,CLR,M,M,M,M,M,M,M,M,M,M,M,29.00,30.00,2022-07-16 08:52,92.49,KLSV 160858Z AUTO 04020G29KT 10SM CLR 35/10 A2991 RMK AO2 PK WND 03029/52 SLPNO T03530103 $,M
HTH,2022-07-16 09:10,-118.6315,38.5448,1282.89,75.20,50.00,41.14,140.00,11.00,0.00,30.15,M,10.00,M,SCT,M,M,M,11000.00,M,M,M,M,M,M,M,M,M,M,75.20,KHTH 160910Z AUTO 14011KT 10SM SCT110 24/10 A3015 RMK A01,M
RTS,2022-07-16 09:15,-119.8764,39.6682,1539.00,64.40,39.20,39.43,340.00,9.00,0.00,30.21,M,10.00,M,CLR,M,M,M,M,M,M,M,M,M,M,M,M,M,M,64.40,KRTS 160915Z AUTO 34009KT 10SM CLR 18/04 A3021 RMK AO2,M
05U,2022-07-16 09:15,-116.0051,39.6042,1811.23,59.00,48.20,67.33,0.00,0.00,0.00,30.32,M,10.00,M,CLR,M,M,M,M,M,M,M,M,M,M,M,M,M,M,59.00,K05U 160915Z AUTO 00000KT 10SM CLR 15/09 A3032 RMK A01,M
MEV,2022-07-16 09:15,-119.7500,38.9963,1441.42,60.80,46.40,59.01,80.00,5.00,0.00,30.17,M,10.00,M,CLR,M,M,M,M,M,M,M,M,M,M,M,M,M,M,60.80,KMEV 160915Z AUTO 08005KT 10SM CLR 16/08 A3017 RMK AO2,M
BAM,2022-07-16 09:15,-116.8743,40.5990,1382.36,M,M,M,170.00,5.00,0.00,30.16,M,10.00,M,CLR,M,M,M,M,M,M,M,M,M,M,M,M,M,M,M,KBAM 160915Z AUTO 17005KT 10SM CLR A3016 RMK AO1,M
CXP,2022-07-16 09:15,-119.7326,39.1923,1431.00,68.00,44.60,42.85,0.00,0.00,0.00,30.18,M,10.00,M,CLR,M,M,M,M,M,M,M,M,M,M,M,M,M,M,68.00,KCXP 160915Z AUTO 00000KT 10SM CLR 20/07 A3018 RMK AO2,M
BVU,2022-07-16 09:15,-114.8611,35.9475,671.00,M,M,M,M,M,0.00,M,M,M,M,M,M,M,M,M,M,M,M,M,M,M,M,M,M,M,M,KBVU 160915Z AUTO RMK AO2 PNO PWINO TSNO,M
TMT,2022-07-16 09:15,-117.1971,39.4643,1749.34,49.50,44.80,83.78,150.00,3.00,0.00,30.28,M,10.00,M,CLR,M,M,M,M,M,M,M,M,M,M,M,M,M,M,48.69,KTMT 160915Z AUTO 15003KT 10SM CLR 10/07 A3028 RMK AO2 T00970071,M
MEV,2022-07-16 09:35,-119.7500,38.9963,1441.42,59.00,46.40,62.92,0.00,0.00,0.00,30.17,M,10.00,M,CLR,M,M,M,M,M,M,M,M,M,M,M,M,M,M,59.00,KMEV 160935Z AUTO 00000KT 10SM CLR 15/08 A3017 RMK AO2,M
RTS,2022-07-16 09:35,-119.8764,39.6682,1539.00,64.40,41.00,42.28,340.00,7.00,0.00,30.20,M,10.00,M,CLR,M,M,M,M,M,M,M,M,M,M,M,M,M,M,64.40,KRTS 160935Z AUTO 34007KT 10SM CLR 18/05 A3020 RMK AO2,M
CXP,2022-07-16 09:35,-119.7326,39.1923,1431.00,66.20,44.60,45.60,0.00,0.00,0.00,30.18,M,10.00,M,CLR,M,M,M,M,M,M,M,M,M,M,M,M,M,M,66.20,KCXP 160935Z AUTO 00000KT 10SM CLR 19/07 A3018 RMK AO2,M
05U,2022-07-16 09:35,-116.0051,39.6042,1811.23,59.00,48.20,67.33,0.00,0.00,0.00,30.32,M,10.00,M,CLR,M,M,M,M,M,M,M,M,M,M,M,M,M,M,59.00,K05U 160935Z AUTO 00000KT 10SM CLR 15/09 A3032 RMK A01,M
HTH,2022-07-16 09:35,-118.6315,38.5448,1282.89,75.20,50.00,41.14,140.00,8.00,0.00,30.15,M,10.00,M,CLR,M,M,M,M,M,M,M,M,M,M,M,M,M,M,75.20,KHTH 160935Z AUTO 14008KT 10SM CLR 24/10 A3015 RMK A01,M
BAM,2022-07-16 09:35,-116.8743,40.5990,1382.36,M,M,M,140.00,3.00,0.00,30.15,M,10.00,M,CLR,M,M,M,M,M,M,M,M,M,M,M,M,M,M,M,KBAM 160935Z AUTO 14003KT 10SM CLR A3015 RMK AO1,M
TMT,2022-07-16 09:35,-117.1971,39.4643,1749.34,53.20,45.70,75.60,180.00,6.00,0.00,30.28,M,10.00,M,CLR,M,M,M,M,M,M,M,M,M,M,M,M,M,M,53.20,KTMT 160935Z AUTO 18006KT 10SM CLR 12/08 A3028 RMK AO2 T01180076,M
BVU,2022-07-16 09:35,-114.8611,35.9475,671.00,M,M,M,M,M,0.00,M,M,M,M,M,M,M,M,M,M,M,M,M,M,M,M,M,M,M,M,KBVU 160935Z AUTO RMK AO2 PNO PWINO TSNO,M
LSV,2022-07-16 09:46,-115.0343,36.2362,570.00,95.00,50.00,21.79,350.00,15.00,0.00,29.91,M,10.00,20.00,CLR,M,M,M,M,M,M,M,M,M,M,M,M,M,M,91.89,KLSV 160946Z AUTO 35015G20KT 10SM CLR 35/10 A2991 RMK AO2 WSHFT 34 SLPNO $,M
P68,2022-07-16 09:53,-116.0056,39.6014,1993.00,58.00,48.00,69.52,160.00,4.00,0.00,30.29,1019.00,M,M,M,M,M,M,M,M,M,M,M,M,M,M,M,M,M,57.90,KP68 160953Z AUTO 16004KT 14/09 A3029 RMK AO1 SLP190 T01440089,M
LOL,2022-07-16 09:53,-118.5701,40.0684,1192.43,69.00,39.00,33.25,40.00,6.00,0.00,30.09,1013.90,10.00,M,CLR,M,M,M,M,M,M,M,M,M,M,M,M,M,M,69.10,KLOL 160953Z AUTO 04006KT 10SM CLR 21/04 A3009 RMK AO2 SLP139 T02060039,M
VGT,2022-07-16 09:53,-115.1933,36.2111,667.00,95.00,51.00,22.70,350.00,5.00,0.00,29.95,1012.20,10.00,M,CLR,M,M,M,M,M,M,M,M,M,M,M,M,M,M,92.11,KVGT 160953Z AUTO 35005KT 10SM CLR 35/11 A2995 RMK AO2 SLP122 T03500106,M
ELY,2022-07-16 09:53,-114.8453,39.2950,1909.00,61.00,42.00,49.73,70.00,4.00,0.00,30.31,1015.00,10.00,M,CLR,M,M,M,M,M,M,M,M,M,M,M,M,M,M,61.00,KELY 160953Z AUTO 07004KT 10SM CLR 16/06 A3031 RMK AO2 SLP150 T01610056,M
DRA,2022-07-16 09:53,-116.0278,36.6206,1009.00,84.00,51.00,32.10,40.00,11.00,0.00,30.05,1011.50,10.00,M,CLR,M,M,M,M,M,M,M,M,M,M,M,M,M,M,82.23,KDRA 160953Z AUTO 04011KT 10SM CLR 29/11 A3005 RMK AO2 SLP115 T02890106,M
HTH,2022-07-16 09:55,-118.6315,38.5448,1282.89,73.40,51.80,46.71,140.00,11.00,0.00,30.15,M,10.00,M,CLR,M,M,M,M,M,M,M,M,M,M,M,M,M,M,73.40,KHTH 160955Z AUTO 14011KT 10SM CLR 23/11 A3015 RMK A01,M
BAM,2022-07-16 09:55,-116.8743,40.5990,1382.36,M,M,M,160.00,4.00,0.00,30.16,M,10.00,M,CLR,M,M,M,M,M,M,M,M,M,M,M,M,M,M,M,KBAM 160955Z AUTO 16004KT 10SM CLR A3016 RMK AO1,M
BVU,2022-07-16 09:55,-114.8611,35.9475,671.00,M,M,M,M,M,0.00,M,M,M,M,M,M,M,M,M,M,M,M,M,M,M,M,M,M,M,M,KBVU 160955Z AUTO RMK AO2 PNO PWINO TSNO,M
RNO,2022-07-16 09:55,-119.7711,39.4839,1341.00,73.00,47.00,39.43,280.00,8.00,0.00,30.14,1013.80,10.00,M,CLR,M,M,M,M,M,M,M,M,M,M,M,M,M,M,73.00,KRNO 160955Z 28008KT 10SM CLR 23/08 A3014 RMK AO2 SLP138 T02280083,M
TMT,2022-07-16 09:55,-117.1971,39.4643,1749.34,50.20,45.30,83.19,0.00,0.00,0.00,30.28,M,10.00,M,CLR,M,M,M,M,M,M,M,M,M,M,M,M,M,M,50.20,KTMT 160955Z AUTO 00000KT 10SM CLR 10/07 A3028 RMK AO2 T01010074,M
CXP,2022-07-16 09:55,-119.7326,39.1923,1431.00,66.20,42.80,42.57,0.00,0.00,0.00,30.18,M,10.00,M,CLR,M,M,M,M,M,M,M,M,M,M,M,M,M,M,66.20,KCXP 160955Z AUTO 00000KT 10SM CLR 19/06 A3018 RMK AO2,M
RTS,2022-07-16 09:55,-119.8764,39.6682,1539.00,62.60,39.20,42.00,360.00,6.00,0.00,30.20,M,10.00,M,CLR,M,M,M,M,M,M,M,M,M,M,M,M,M,M,62.60,KRTS 160955Z AUTO 36006KT 10SM CLR 17/04 A3020 RMK AO2,M
05U,2022-07-16 09:55,-116.0051,39.6042,1811.23,59.00,48.20,67.33,0.00,0.00,0.00,30.32,M,10.00,M,CLR,M,M,M,M,M,M,M,M,M,M,M,M,M,M,59.00,K05U 160955Z AUTO 00000KT 10SM CLR 15/09 A3032 RMK A01,M
MEV,2022-07-16 09:55,-119.7500,38.9963,1441.42,60.80,44.60,55.12,140.00,3.00,0.00,30.17,M,10.00,M,CLR,M,M,M,M,M,M,M,M,M,M,M,M,M,M,60.80,KMEV 160955Z AUTO 14003KT 10SM CLR 16/07 A3017 RMK AO2,M
EKO,2022-07-16 09:56,-115.7860,40.8242,1367.00,67.00,43.00,41.87,240.00,3.00,0.00,30.21,1015.90,10.00,M,CLR,M,M,M,M,M,M,M,M,M,M,M,M,M,M,66.90,KEKO 160956Z AUTO 24003KT 10SM CLR 19/06 A3021 RMK AO2 SLP159 T01940061,M
WMC,2022-07-16 09:56,-117.8072,40.9019,1315.00,69.00,43.00,38.82,160.00,9.00,0.00,30.11,1013.60,10.00,M,CLR,M,M,M,M,M,M,M,M,M,M,M,M,M,M,69.10,KWMC 160956Z AUTO 16009KT 10SM CLR 21/06 A3011 RMK AO2 SLP136 T02060061 TSNO,M
LAS,2022-07-16 09:56,-115.1634,36.0719,663.00,92.00,50.00,23.99,50.00,9.00,0.00,29.95,1011.00,10.00,M,FEW,M,M,M,15000.00,M,M,M,M,M,M,M,M,M,M,88.84,KLAS 160956Z 05009KT 10SM FEW150 33/10 A2995 RMK AO2 SLP110 T03330100,M
TPH,2022-07-16 09:56,-117.0904,38.0505,1654.00,69.00,47.00,45.02,20.00,8.00,0.00,30.25,1015.00,10.00,M,CLR,M,M,M,M,M,M,M,M,M,M,M,M,M,M,69.10,KTPH 160956Z AUTO 02008KT 10SM CLR 21/08 A3025 RMK AO2 SLP150 T02060083,M
NFL,2022-07-16 09:56,-118.7010,39.4166,1199.00,74.00,48.00,39.87,140.00,8.00,0.00,30.10,1016.00,10.00,M,CLR,M,M,M,M,M,M,M,M,M,M,M,M,M,M,73.90,KNFL 160956Z AUTO 14008KT 10SM CLR 23/09 A3010 RMK AO2 SLP160 T02330089,M
HND,2022-07-16 09:56,-115.1344,35.9729,742.79,87.00,57.00,36.07,30.00,5.00,0.00,30.00,1013.80,10.00,M,CLR,M,M,M,M,M,M,M,M,M,M,M,M,M,M,85.89,KHND 160956Z AUTO 03005KT 10SM CLR 31/14 A3000 RMK AO2 SLP138 T03060139,M
LSV,2022-07-16 09:58,-115.0343,36.2362,570.00,95.50,50.50,21.86,10.00,8.00,0.00,29.92,M,10.00,17.00,CLR,M,M,M,M,M,M,M,M,M,M,M,30.00,30.00,2022-07-16 09:05,92.49,KLSV 160958Z AUTO 01008G17KT 10SM CLR 35/10 A2992 RMK AO2 PK WND 03030/05 SLPNO T03530103 $,M
INS,2022-07-16 09:58,-115.6733,36.5872,955.00,86.40,46.40,24.93,10.00,4.00,0.00,30.04,M,10.00,M,FEW,M,M,M,11000.00,M,M,M,M,M,M,M,M,M,M,83.54,KINS 160958Z AUTO 01004KT 10SM FEW110 30/08 A3004 RMK AO2 SLPNO T03020080 $,M
BVU,2022-07-16 10:15,-114.8611,35.9475,671.00,M,M,M,M,M,0.00,M,M,M,M,M,M,M,M,M,M,M,M,M,M,M,M,M,M,M,M,KBVU 161015Z AUTO RMK AO2 PNO PWINO TSNO,M
HTH,2022-07-16 10:15,-118.6315,38.5448,1282.89,73.40,50.00,43.69,150.00,9.00,0.00,30.14,M,10.00,M,CLR,M,M,M,M,M,M,M,M,M,M,M,M,M,M,73.40,KHTH 161015Z AUTO 15009KT 10SM CLR 23/10 A3014 RMK A01,M
05U,2022-07-16 10:15,-116.0051,39.6042,1811.23,53.60,48.20,81.87,0.00,0.00,0.00,30.32,M,10.00,M,CLR,M,M,M,M,M,M,M,M,M,M,M,M,M,M,53.60,K05U 161015Z AUTO 00000KT 10SM CLR 12/09 A3032 RMK A01,M
RTS,2022-07-16 10:15,-119.8764,39.6682,1539.00,60.80,39.20,44.76,350.00,6.00,0.00,30.19,M,10.00,M,CLR,M,M,M,M,M,M,M,M,M,M,M,M,M,M,60.80,KRTS 161015Z AUTO 35006KT 10SM CLR 16/04 A3019 RMK AO2,M
BAM,2022-07-16 10:15,-116.8743,40.5990,1382.36,M,M,M,150.00,5.00,0.00,30.15,M,10.00,M,CLR,M,M,M,M,M,M,M,M,M,M,M,M,M,M,M,KBAM 161015Z AUTO 15005KT 10SM CLR A3015 RMK AO1,M
CXP,2022-07-16 10:15,-119.7326,39.1923,1431.00,66.20,41.00,39.72,330.00,4.00,0.00,30.18,M,10.00,M,CLR,M,M,M,M,M,M,M,M,M,M,M,M,M,M,66.20,KCXP 161015Z AUTO 33004KT 10SM CLR 19/05 A3018 RMK AO2,M
MEV,2022-07-16 10:15,-119.7500,38.9963,1441.42,57.20,42.80,58.52,150.00,3.00,0.00,30.17,M,10.00,M,CLR,M,M,M,M,M,M,M,M,M,M,M,M,M,M,57.20,KMEV 161015Z AUTO 15003KT 10SM CLR 14/06 A3017 RMK AO2,M
TMT,2022-07-16 10:15,-117.1971,39.4643,1749.34,51.30,45.70,81.08,0.00,0.00,0.00,30.28,M,10.00,M,CLR,M,M,M,M,M,M,M,M,M,M,M,M,M,M,51.30,KTMT 161015Z AUTO 00000KT 10SM CLR 11/08 A3028 RMK AO2 T01070076,M
BVU,2022-07-16 10:35,-114.8611,35.9475,671.00,M,M,M,M,M,0.00,M,M,M,M,M,M,M,M,M,M,M,M,M,M,M,M,M,M,M,M,KBVU 161035Z AUTO RMK AO2 PNO PWINO TSNO,M
05U,2022-07-16 10:35,-116.0051,39.6042,1811.23,53.60,46.40,76.50,0.00,0.00,0.00,30.31,M,10.00,M,CLR,M,M,M,M,M,M,M,M,M,M,M,M,M,M,53.60,K05U 161035Z AUTO 00000KT 10SM CLR 12/08 A3031 RMK A01,M
HTH,2022-07-16 10:35,-118.6315,38.5448,1282.89,73.40,48.20,40.85,160.00,8.00,0.00,30.14,M,10.00,M,CLR,M,M,M,M,M,M,M,M,M,M,M,M,M,M,73.40,KHTH 161035Z AUTO 16008KT 10SM CLR 23/09 A3014 RMK A01,M
TMT,2022-07-16 10:35,-117.1971,39.4643,1749.34,50.20,45.70,84.46,0.00,0.00,0.00,30.27,M,10.00,M,CLR,M,M,M,M,M,M,M,M,M,M,M,M,M,M,50.20,KTMT 161035Z AUTO 00000KT 10SM CLR 10/08 A3027 RMK AO2 T01010076,M
BAM,2022-07-16 10:35,-116.8743,40.5990,1382.36,M,M,M,70.00,3.00,0.00,30.16,M,10.00,M,CLR,M,M,M,M,M,M,M,M,M,M,M,M,M,M,M,KBAM 161035Z AUTO 07003KT 10SM CLR A3016 RMK AO1,M
CXP,2022-07-16 10:35,-119.7326,39.1923,1431.00,64.40,42.80,45.32,0.00,0.00,0.00,30.17,M,10.00,M,CLR,M,M,M,M,M,M,M,M,M,M,M,M,M,M,64.40,KCXP 161035Z AUTO 00000KT 10SM CLR 18/06 A3017 RMK AO2,M
MEV,2022-07-16 10:35,-119.7500,38.9963,1441.42,53.60,44.60,71.45,120.00,4.00,0.00,30.16,M,10.00,M,CLR,M,M,M,M,M,M,M,M,M,M,M,M,M,M,53.60,KMEV 161035Z AUTO 12004KT 10SM CLR 12/07 A3016 RMK AO2,M
RTS,2022-07-16 10:35,-119.8764,39.6682,1539.00,62.60,41.00,45.04,360.00,5.00,0.00,30.19,M,10.00,M,CLR,M,M,M,M,M,M,M,M,M,M,M,M,M,M,62.60,KRTS 161035Z AUTO 36005KT 10SM CLR 17/05 A3019 RMK AO2,M
CXP,2022-07-16 10:50,-119.7326,39.1923,1431.00,62.60,42.80,48.28,0.00,0.00,0.00,30.18,M,10.00,M,CLR,M,M,M,M,M,M,M,M,M,M,M,M,M,M,62.60,KCXP 161050Z AUTO 00000KT 10SM CLR 17/06 A3018 RMK AO2,M
LOL,2022-07-16 10:53,-118.5701,40.0684,1192.43,65.00,36.00,34.17,40.00,5.00,0.00,30.09,1013.90,10.00,M,CLR,M,M,M,M,M,M,M,M,M,M,M,M,M,M,64.90,KLOL 161053Z AUTO 04005KT 10SM CLR 18/02 A3009 RMK AO2 SLP139 T01830022,M
ELY,2022-07-16 10:53,-114.8453,39.2950,1909.00,55.00,41.00,59.13,210.00,7.00,0.00,30.31,1016.70,10.00,M,CLR,M,M,M,M,M,M,M,M,M,M,M,M,M,M,55.00,KELY 161053Z AUTO 21007KT 10SM CLR 13/05 A3031 RMK AO2 SLP167 T01280050,M
P68,2022-07-16 10:53,-116.0056,39.6014,1993.00,52.00,45.00,76.94,180.00,6.00,0.00,30.29,1019.30,M,M,M,M,M,M,M,M,M,M,M,M,M,M,M,M,M,52.00,KP68 161053Z AUTO 18006KT 11/07 A3029 RMK AO1 SLP193 T01110072,M
DRA,2022-07-16 10:53,-116.0278,36.6206,1009.00,83.00,51.00,33.27,30.00,11.00,0.00,30.04,1011.30,10.00,M,CLR,M,M,M,M,M,M,M,M,M,M,M,M,M,M,81.45,KDRA 161053Z AUTO 03011KT 10SM CLR 28/11 A3004 RMK AO2 SLP113 T02830106,M
VGT,2022-07-16 10:53,-115.1933,36.2111,667.00,93.00,50.00,23.18,330.00,9.00,0.00,29.94,1011.90,10.00,M,CLR,M,M,M,M,M,M,M,M,M,M,M,M,M,M,89.90,KVGT 161053Z AUTO 33009KT 10SM CLR 34/10 A2994 RMK AO2 SLP119 T03390100,M
RTS,2022-07-16 10:55,-119.8764,39.6682,1539.00,64.40,42.80,45.32,30.00,3.00,0.00,30.19,M,10.00,M,CLR,M,M,M,M,M,M,M,M,M,M,M,M,M,M,64.40,KRTS 161055Z AUTO 03003KT 10SM CLR 18/06 A3019 RMK AO2,M
MEV,2022-07-16 10:55,-119.7500,38.9963,1441.42,53.60,44.60,71.45,120.00,6.00,0.00,30.16,M,10.00,M,CLR,M,M,M,M,M,M,M,M,M,M,M,M,M,M,53.60,KMEV 161055Z AUTO 12006KT 10SM CLR 12/07 A3016 RMK AO2,M
05U,2022-07-16 10:55,-116.0051,39.6042,1811.23,51.80,46.40,81.74,0.00,0.00,0.00,30.31,M,10.00,M,CLR,M,M,M,M,M,M,M,M,M,M,M,M,M,M,51.80,K05U 161055Z AUTO 00000KT 10SM CLR 11/08 A3031 RMK A01,M
BAM,2022-07-16 10:55,-116.8743,40.5990,1382.36,M,M,M,60.00,4.00,0.00,30.16,M,10.00,M,CLR,M,M,M,M,M,M,M,M,M,M,M,M,M,M,M,KBAM 161055Z AUTO 06004KT 10SM CLR A3016 RMK AO1,M
BVU,2022-07-16 10:55,-114.8611,35.9475,671.00,M,M,M,M,M,0.00,M,M,M,M,M,M,M,M,M,M,M,M,M,M,M,M,M,M,M,M,KBVU 161055Z AUTO RMK AO2 PNO PWINO TSNO,M
RNO,2022-07-16 10:55,-119.7711,39.4839,1341.00,72.00,47.00,40.79,300.00,3.00,0.00,30.14,1013.80,10.00,M,CLR,M,M,M,M,M,M,M,M,M,M,M,M,M,M,72.00,KRNO 161055Z 30003KT 10SM CLR 22/08 A3014 RMK AO2 SLP138 T02220083,M
HTH,2022-07-16 10:55,-118.6315,38.5448,1282.89,73.40,48.20,40.85,160.00,8.00,0.00,30.14,M,10.00,M,CLR,M,M,M,M,M,M,M,M,M,M,M,M,M,M,73.40,KHTH 161055Z AUTO 16008KT 10SM CLR 23/09 A3014 RMK A01,M
TMT,2022-07-16 10:55,-117.1971,39.4643,1749.34,49.50,46.60,89.69,320.00,4.00,0.00,30.27,M,10.00,M,CLR,M,M,M,M,M,M,M,M,M,M,M,M,M,M,47.86,KTMT 161055Z AUTO 32004KT 10SM CLR 10/08 A3027 RMK AO2 T00970081,M
EKO,2022-07-16 10:56,-115.7860,40.8242,1367.00,65.00,43.00,44.88,310.00,3.00,0.00,30.21,1016.10,10.00,M,CLR,M,M,M,M,M,M,M,M,M,M,M,M,M,M,64.90,KEKO 161056Z AUTO 31003KT 10SM CLR 18/06 A3021 RMK AO2 SLP161 T01830061,M
WMC,2022-07-16 10:56,-117.8072,40.9019,1315.00,62.00,41.00,45.84,0.00,0.00,0.00,30.12,1014.10,10.00,M,CLR,M,M,M,M,M,M,M,M,M,M,M,M,M,M,62.10,KWMC 161056Z AUTO 00000KT 10SM CLR 17/05 A3012 RMK AO2 SLP141 T01670050 TSNO,M
TPH,2022-07-16 10:56,-117.0904,38.0505,1654.00,68.00,48.00,48.73,10.00,11.00,0.00,30.25,1014.70,10.00,M,CLR,M,M,M,M,M,M,M,M,M,M,M,M,M,M,68.00,KTPH 161056Z AUTO 01011KT 10SM CLR 20/09 A3025 RMK AO2 SLP147 T02000089,M
LAS,2022-07-16 10:56,-115.1634,36.0719,663.00,92.00,51.00,24.99,30.00,6.00,0.00,29.95,1010.90,10.00,M,FEW,M,M,M,15000.00,M,M,M,M,M,M,M,M,M,M,89.04,KLAS 161056Z 03006KT 10SM FEW150 33/11 A2995 RMK AO2 SLP109 T03330106,M
HND,2022-07-16 10:56,-115.1344,35.9729,742.79,90.00,53.00,28.55,60.00,6.00,0.00,29.99,1013.50,10.00,M,CLR,M,M,M,M,M,M,M,M,M,M,M,M,M,M,87.62,KHND 161056Z AUTO 06006KT 10SM CLR 32/12 A2999 RMK AO2 SLP135 T03220117,M
NFL,2022-07-16 10:56,-118.7010,39.4166,1199.00,70.00,47.00,43.66,150.00,7.00,0.00,30.09,1015.70,10.00,M,CLR,M,M,M,M,M,M,M,M,M,M,M,M,M,M,70.00,KNFL 161056Z AUTO 15007KT 10SM CLR 21/08 A3009 RMK AO2 SLP157 T02110083,M
INS,2022-07-16 10:58,-115.6733,36.5872,955.00,85.30,46.40,25.83,0.00,0.00,0.00,30.03,M,10.00,M,CLR,M,M,M,M,M,M,M,M,M,M,M,M,M,M,82.68,KINS 161058Z AUTO 00000KT 10SM CLR 30/08 A3003 RMK AO2 SLPNO T02960080 $,M
LSV,2022-07-16 10:58,-115.0343,36.2362,570.00,92.70,50.50,23.84,20.00,8.00,0.00,29.92,M,10.00,M,CLR,M,M,M,M,M,M,M,M,M,M,M,M,M,M,89.70,KLSV 161058Z AUTO 02008KT 10SM CLR 34/10 A2992 RMK AO2 SLPNO T03370103 $,M
BVU,2022-07-16 11:15,-114.8611,35.9475,671.00,M,M,M,M,M,0.00,M,M,M,M,M,M,M,M,M,M,M,M,M,M,M,M,M,M,M,M,KBVU 161115Z AUTO RMK AO2 PNO PWINO TSNO,M
CXP,2022-07-16 11:15,-119.7326,39.1923,1431.00,62.60,44.60,51.72,0.00,0.00,0.00,30.18,M,10.00,M,CLR,M,M,M,M,M,M,M,M,M,M,M,M,M,M,62.60,KCXP 161115Z AUTO 00000KT 10SM CLR 17/07 A3018 RMK AO2,M
RTS,2022-07-16 11:15,-119.8764,39.6682,1539.00,60.80,41.00,48.00,0.00,0.00,0.00,30.20,M,10.00,M,CLR,M,M,M,M,M,M,M,M,M,M,M,M,M,M,60.80,KRTS 161115Z AUTO 00000KT 10SM CLR 16/05 A3020 RMK AO2,M
05U,2022-07-16 11:15,-116.0051,39.6042,1811.23,53.60,46.40,76.50,180.00,8.00,0.00,30.31,M,10.00,M,CLR,M,M,M,M,M,M,M,M,M,M,M,M,M,M,53.60,K05U 161115Z AUTO 18008KT 10SM CLR 12/08 A3031 RMK A01,M
MEV,2022-07-16 11:15,-119.7500,38.9963,1441.42,55.40,44.60,66.91,130.00,4.00,0.00,30.17,M,10.00,M,CLR,M,M,M,M,M,M,M,M,M,M,M,M,M,M,55.40,KMEV 161115Z AUTO 13004KT 10SM CLR 13/07 A3017 RMK AO2,M
BAM,2022-07-16 11:15,-116.8743,40.5990,1382.36,M,M,M,50.00,4.00,0.00,30.16,M,10.00,M,CLR,M,M,M,M,M,M,M,M,M,M,M,M,M,M,M,KBAM 161115Z AUTO 05004KT 10SM CLR A3016 RMK AO1,M
HTH,2022-07-16 11:15,-118.6315,38.5448,1282.89,73.40,50.00,43.69,160.00,5.00,0.00,30.14,M,10.00,M,FEW,M,M,M,3600.00,M,M,M,M,M,M,M,M,M,M,73.40,KHTH 161115Z AUTO 16005KT 10SM FEW036 23/10 A3014 RMK A01,M
TMT,2022-07-16 11:15,-117.1971,39.4643,1749.34,48.40,45.30,88.97,0.00,0.00,0.00,30.27,M,10.00,M,CLR,M,M,M,M,M,M,M,M,M,M,M,M,M,M,48.40,KTMT 161115Z AUTO 00000KT 10SM CLR 09/07 A3027 RMK AO2 T00910074,M
05U,2022-07-16 11:30,-116.0051,39.6042,1811.23,53.60,46.40,76.50,180.00,7.00,0.00,30.31,M,10.00,M,CLR,M,M,M,M,M,M,M,M,M,M,M,M,M,M,53.60,K05U 161130Z AUTO 18007KT 10SM CLR 12/08 A3031 RMK A01,M
RTS,2022-07-16 11:35,-119.8764,39.6682,1539.00,57.20,39.20,50.91,340.00,5.00,0.00,30.19,M,10.00,M,CLR,M,M,M,M,M,M,M,M,M,M,M,M,M,M,57.20,KRTS 161135Z AUTO 34005KT 10SM CLR 14/04 A3019 RMK AO2,M
BAM,2022-07-16 11:35,-116.8743,40.5990,1382.36,M,M,M,40.00,3.00,0.00,30.17,M,10.00,M,CLR,M,M,M,M,M,M,M,M,M,M,M,M,M,M,M,KBAM 161135Z AUTO 04003KT 10SM CLR A3017 RMK AO1,M
CXP,2022-07-16 11:35,-119.7326,39.1923,1431.00,62.60,42.80,48.28,0.00,0.00,0.00,30.18,M,10.00,M,CLR,M,M,M,M,M,M,M,M,M,M,M,M,M,M,62.60,KCXP 161135Z AUTO 00000KT 10SM CLR 17/06 A3018 RMK AO2,M
TMT,2022-07-16 11:35,-117.1971,39.4643,1749.34,45.50,44.00,94.09,0.00,0.00,0.00,30.27,M,10.00,M,CLR,M,M,M,M,M,M,M,M,M,M,M,M,M,M,45.50,KTMT 161135Z AUTO 00000KT 10SM CLR 08/07 A3027 RMK AO2 T00750066,M
MEV,2022-07-16 11:35,-119.7500,38.9963,1441.42,55.40,44.60,66.91,90.00,6.00,0.00,30.17,M,10.00,M,CLR,M,M,M,M,M,M,M,M,M,M,M,M,M,M,55.40,KMEV 161135Z AUTO 09006KT 10SM CLR 13/07 A3017 RMK AO2,M
HTH,2022-07-16 11:35,-118.6315,38.5448,1282.89,71.60,50.00,46.43,180.00,3.00,0.00,30.14,M,10.00,M,FEW,M,M,M,4700.00,M,M,M,M,M,M,M,M,M,M,71.60,KHTH 161135Z AUTO 18003KT 10SM FEW047 22/10 A3014 RMK A01,M
BVU,2022-07-16 11:35,-114.8611,35.9475,671.00,M,M,M,M,M,0.00,M,M,M,M,M,M,M,M,M,M,M,M,M,M,M,M,M,M,M,M,KBVU 161135Z AUTO RMK AO2 PNO PWINO TSNO,M
DRA,2022-07-16 11:53,-116.0278,36.6206,1009.00,82.00,51.00,34.25,40.00,11.00,0.00,30.05,1011.40,10.00,M,CLR,M,M,M,M,M,M,M,M,M,M,M,M,M,M,80.85,KDRA 161153Z AUTO 04011KT 10SM CLR 28/11 A3005 RMK AO2 SLP114 T02780106 10322 20278 55006,M
LOL,2022-07-16 11:53,-118.5701,40.0684,1192.43,62.00,37.00,39.21,320.00,3.00,0.00,30.10,1014.50,10.00,M,CLR,M,M,M,M,M,M,M,M,M,M,M,M,M,M,62.10,KLOL 161153Z AUTO 32003KT 10SM CLR 17/03 A3010 RMK AO2 SLP145 T01670028 10261 20150 53002,M
P68,2022-07-16 11:53,-116.0056,39.6014,1993.00,52.00,45.00,76.94,160.00,6.00,0.00,30.29,1018.70,M,M,M,M,M,M,M,M,M,M,M,M,M,M,M,M,M,52.00,KP68 161153Z AUTO 16006KT 11/07 A3029 RMK AO1 SLP187 70025 T01110072 10206 20106 56004,M
VGT,2022-07-16 11:53,-115.1933,36.2111,667.00,92.00,50.00,23.99,330.00,6.00,0.00,29.95,1012.40,10.00,M,CLR,M,M,M,M,M,M,M,M,M,M,M,M,M,M,88.84,KVGT 161153Z AUTO 33006KT 10SM CLR 33/10 A2995 RMK AO2 SLP124 T03330100 10361 20333 53002,M
ELY,2022-07-16 11:53,-114.8453,39.2950,1909.00,53.00,41.00,63.38,160.00,3.00,0.00,30.32,1018.00,10.00,M,CLR,M,M,M,M,M,M,M,M,M,M,M,M,M,M,53.10,KELY 161153Z AUTO 16003KT 10SM CLR 12/05 A3032 RMK AO2 SLP180 T01170050 10217 20117 51005,M
BAM,2022-07-16 11:55,-116.8743,40.5990,1382.36,M,M,M,50.00,5.00,0.00,30.16,M,10.00,M,CLR,M,M,M,M,M,M,M,M,M,M,M,M,M,M,M,KBAM 161155Z AUTO 05005KT 10SM CLR A3016 RMK AO1,M
RTS,2022-07-16 11:55,-119.8764,39.6682,1539.00,57.20,39.20,50.91,340.00,5.00,0.00,30.19,M,10.00,M,CLR,M,M,M,M,M,M,M,M,M,M,M,M,M,M,57.20,KRTS 161155Z AUTO 34005KT 10SM CLR 14/04 A3019 RMK AO2,M
BVU,2022-07-16 11:55,-114.8611,35.9475,671.00,M,M,M,M,M,0.00,M,M,M,M,M,M,M,M,M,M,M,M,M,M,M,M,M,M,M,M,KBVU 161155Z AUTO RMK AO2 PNO PWINO TSNO,M
CXP,2022-07-16 11:55,-119.7326,39.1923,1431.00,62.60,42.80,48.28,0.00,0.00,0.00,30.18,M,10.00,M,CLR,M,M,M,M,M,M,M,M,M,M,M,M,M,M,62.60,KCXP 161155Z AUTO 00000KT 10SM CLR 17/06 A3018 RMK AO2,M
05U,2022-07-16 11:55,-116.0051,39.6042,1811.23,51.80,44.60,76.34,0.00,0.00,0.00,30.31,M,10.00,M,CLR,M,M,M,M,M,M,M,M,M,M,M,M,M,M,51.80,K05U 161155Z AUTO 00000KT 10SM CLR 11/07 A3031 RMK A01,M
MEV,2022-07-16 11:55,-119.7500,38.9963,1441.42,53.60,42.80,66.70,0.00,0.00,0.00,30.17,M,10.00,M,CLR,M,M,M,M,M,M,M,M,M,M,M,M,M,M,53.60,KMEV 161155Z AUTO 00000KT 10SM CLR 12/06 A3017 RMK AO2,M
HTH,2022-07-16 11:55,-118.6315,38.5448,1282.89,71.60,48.20,43.42,M,3.00,0.00,30.13,M,10.00,M,FEW,FEW,M,M,3600.00,4600.00,M,M,M,M,M,M,M,M,M,71.60,KHTH 161155Z AUTO VRB03KT 10SM FEW036 FEW046 22/09 A3013 RMK A01,M
TMT,2022-07-16 11:55,-117.1971,39.4643,1749.34,46.80,44.20,90.61,0.00,0.00,0.00,30.27,M,10.00,M,CLR,M,M,M,M,M,M,M,M,M,M,M,M,M,M,46.80,KTMT 161155Z AUTO 00000KT 10SM CLR 08/07 A3027 RMK AO2 70013 T00820068 10154 20075,M
RNO,2022-07-16 11:55,-119.7711,39.4839,1341.00,70.00,47.00,43.66,290.00,3.00,0.00,30.14,1014.10,10.00,M,CLR,M,M,M,M,M,M,M,M,M,M,M,M,M,M,70.00,KRNO 161155Z 29003KT 10SM CLR 21/08 A3014 RMK AO2 SLP141 T02110083 10272 20211 55003,M
HND,2022-07-16 11:56,-115.1344,35.9729,742.79,87.00,53.00,31.30,100.00,5.00,0.00,30.00,1013.80,10.00,M,CLR,M,M,M,M,M,M,M,M,M,M,M,M,M,M,85.01,KHND 161156Z AUTO 10005KT 10SM CLR 31/12 A3000 RMK AO2 SLP138 T03060117 10339 20306 51004,M
WMC,2022-07-16 11:56,-117.8072,40.9019,1315.00,61.00,42.00,49.73,170.00,7.00,0.00,30.12,1014.40,10.00,M,CLR,M,M,M,M,M,M,M,M,M,M,M,M,M,M,61.00,KWMC 161156Z AUTO 17007KT 10SM CLR 16/06 A3012 RMK AO2 SLP144 T01610056 10256 20150 53002 TSNO,M
TPH,2022-07-16 11:56,-117.0904,38.0505,1654.00,67.00,48.00,50.62,10.00,8.00,0.00,30.24,1015.00,10.00,M,CLR,M,M,M,M,M,M,M,M,M,M,M,M,M,M,66.90,KTPH 161156Z AUTO 01008KT 10SM CLR 19/09 A3024 RMK AO2 SLP150 T01940089 10244 20194 56005,M
NFL,2022-07-16 11:56,-118.7010,39.4166,1199.00,69.00,48.00,46.92,180.00,7.00,0.00,30.09,1015.70,10.00,M,CLR,M,M,M,M,M,M,M,M,M,M,M,M,M,M,69.10,KNFL 161156Z AUTO 18007KT 10SM CLR 21/09 A3009 RMK AO2 SLP157 T02060089 10272 20206 58001,M
LAS,2022-07-16 11:56,-115.1634,36.0719,663.00,89.00,51.00,27.29,210.00,4.00,0.00,29.96,1011.10,10.00,M,FEW,M,M,M,15000.00,M,M,M,M,M,M,M,M,M,M,86.42,KLAS 161156Z 21004KT 10SM FEW150 32/11 A2996 RMK AO2 SLP111 T03170106 10350 20317 53001,M
EKO,2022-07-16 11:56,-115.7860,40.8242,1367.00,64.00,43.00,46.32,90.00,3.00,0.00,30.21,1016.90,10.00,M,CLR,M,M,M,M,M,M,M,M,M,M,M,M,M,M,64.00,KEKO 161156Z AUTO 09003KT 10SM CLR 18/06 A3021 RMK AO2 SLP169 T01780061 10244 20178 53003,M
INS,2022-07-16 11:58,-115.6733,36.5872,955.00,80.20,45.00,29.00,310.00,4.00,0.00,30.04,M,10.00,M,CLR,M,M,M,M,M,M,M,M,M,M,M,M,M,M,79.24,KINS 161158Z AUTO 31004KT 10SM CLR 27/07 A3004 RMK AO2 SLPNO T02680073 10325 20268 55005 $,M
LSV,2022-07-16 11:58,-115.0343,36.2362,570.00,91.00,51.30,25.89,0.00,0.00,0.00,29.93,M,10.00,M,CLR,M,M,M,M,M,M,M,M,M,M,M,M,M,M,88.21,KLSV 161158Z AUTO 00000KT 10SM CLR 33/11 A2993 RMK AO2 SLPNO T03280107 10354 20323 50006 $,M
05U,2022-07-16 12:15,-116.0051,39.6042,1811.23,51.80,46.40,81.74,0.00,0.00,0.00,30.31,M,10.00,M,CLR,M,M,M,M,M,M,M,M,M,M,M,M,M,M,51.80,K05U 161215Z AUTO 00000KT 10SM CLR 11/08 A3031 RMK A01,M
MEV,2022-07-16 12:15,-119.7500,38.9963,1441.42,55.40,42.80,62.46,110.00,3.00,0.00,30.17,M,10.00,M,CLR,M,M,M,M,M,M,M,M,M,M,M,M,M,M,55.40,KMEV 161215Z AUTO 11003KT 10SM CLR 13/06 A3017 RMK AO2,M
TMT,2022-07-16 12:15,-117.1971,39.4643,1749.34,47.70,44.40,88.26,0.00,0.00,0.00,30.27,M,10.00,M,CLR,M,M,M,M,M,M,M,M,M,M,M,M,M,M,47.70,KTMT 161215Z AUTO 00000KT 10SM CLR 09/07 A3027 RMK AO2 T00870069,M
BAM,2022-07-16 12:15,-116.8743,40.5990,1382.36,M,M,M,0.00,0.00,0.00,30.16,M,10.00,M,CLR,M,M,M,M,M,M,M,M,M,M,M,M,M,M,M,KBAM 161215Z AUTO 00000KT 10SM CLR A3016 RMK AO1,M
HTH,2022-07-16 12:15,-118.6315,38.5448,1282.89,69.80,48.20,46.16,150.00,5.00,0.00,30.14,M,10.00,M,FEW,M,M,M,3700.00,M,M,M,M,M,M,M,M,M,M,69.80,KHTH 161215Z AUTO 15005KT 10SM FEW037 21/09 A3014 RMK A01,M
BVU,2022-07-16 12:15,-114.8611,35.9475,671.00,M,M,M,M,M,0.00,M,M,M,M,M,M,M,M,M,M,M,M,M,M,M,M,M,M,M,M,KBVU 161215Z AUTO RMK AO2 PNO PWINO TSNO,M
CXP,2022-07-16 12:15,-119.7326,39.1923,1431.00,60.80,42.80,51.45,0.00,0.00,0.00,30.18,M,10.00,M,CLR,M,M,M,M,M,M,M,M,M,M,M,M,M,M,60.80,KCXP 161215Z AUTO 00000KT 10SM CLR 16/06 A3018 RMK AO2,M
RTS,2022-07-16 12:15,-119.8764,39.6682,1539.00,57.20,41.00,54.60,310.00,5.00,0.00,30.20,M,10.00,M,CLR,M,M,M,M,M,M,M,M,M,M,M,M,M,M,57.20,KRTS 161215Z AUTO 31005KT 10SM CLR 14/05 A3020 RMK AO2,M
MEV,2022-07-16 12:35,-119.7500,38.9963,1441.42,55.40,42.80,62.46,0.00,0.00,0.00,30.17,M,10.00,M,CLR,M,M,M,M,M,M,M,M,M,M,M,M,M,M,55.40,KMEV 161235Z AUTO 00000KT 10SM CLR 13/06 A3017 RMK AO2,M
TMT,2022-07-16 12:35,-117.1971,39.4643,1749.34,46.80,43.20,87.21,0.00,0.00,0.00,30.28,M,10.00,M,CLR,M,M,M,M,M,M,M,M,M,M,M,M,M,M,46.80,KTMT 161235Z AUTO 00000KT 10SM CLR 08/06 A3028 RMK AO2 T00820062,M
BAM,2022-07-16 12:35,-116.8743,40.5990,1382.36,M,M,M,0.00,0.00,0.00,30.16,M,10.00,M,CLR,M,M,M,M,M,M,M,M,M,M,M,M,M,M,M,KBAM 161235Z AUTO 00000KT 10SM CLR A3016 RMK AO1,M
RTS,2022-07-16 12:35,-119.8764,39.6682,1539.00,55.40,41.00,58.27,330.00,7.00,0.00,30.20,M,10.00,M,CLR,M,M,M,M,M,M,M,M,M,M,M,M,M,M,55.40,KRTS 161235Z AUTO 33007KT 10SM CLR 13/05 A3020 RMK AO2,M
CXP,2022-07-16 12:35,-119.7326,39.1923,1431.00,60.80,42.80,51.45,0.00,0.00,0.00,30.18,M,10.00,M,CLR,M,M,M,M,M,M,M,M,M,M,M,M,M,M,60.80,KCXP 161235Z AUTO 00000KT 10SM CLR 16/06 A3018 RMK AO2,M
BVU,2022-07-16 12:35,-114.8611,35.9475,671.00,M,M,M,M,M,0.00,M,M,M,M,M,M,M,M,M,M,M,M,M,M,M,M,M,M,M,M,KBVU 161235Z AUTO RMK AO2 PNO PWINO TSNO,M
HTH,2022-07-16 12:35,-118.6315,38.5448,1282.89,68.00,48.20,49.10,150.00,6.00,0.00,30.14,M,10.00,M,CLR,M,M,M,M,M,M,M,M,M,M,M,M,M,M,68.00,KHTH 161235Z AUTO 15006KT 10SM CLR 20/09 A3014 RMK A01,M
05U,2022-07-16 12:35,-116.0051,39.6042,1811.23,51.80,46.40,81.74,0.00,0.00,0.00,30.31,M,10.00,M,CLR,M,M,M,M,M,M,M,M,M,M,M,M,M,M,51.80,K05U 161235Z AUTO 00000KT 10SM CLR 11/08 A3031 RMK A01,M
LOL,2022-07-16 12:53,-118.5701,40.0684,1192.43,58.00,36.00,43.78,110.00,5.00,0.00,30.11,1014.90,10.00,M,CLR,M,M,M,M,M,M,M,M,M,M,M,M,M,M,57.90,KLOL 161253Z AUTO 11005KT 10SM CLR 14/02 A3011 RMK AO2 SLP149 T01440022,M
P68,2022-07-16 12:53,-116.0056,39.6014,1993.00,51.00,45.00,79.54,200.00,7.00,0.00,30.29,1018.90,M,M,M,M,M,M,M,M,M,M,M,M,M,M,M,M,M,51.10,KP68 161253Z AUTO 20007KT 11/07 A3029 RMK AO1 SLP189 T01060072,M
ELY,2022-07-16 12:53,-114.8453,39.2950,1909.00,50.00,39.00,65.75,200.00,8.00,0.00,30.33,1018.40,10.00,M,CLR,M,M,M,M,M,M,M,M,M,M,M,M,M,M,50.00,KELY 161253Z AUTO 20008KT 10SM CLR 10/04 A3033 RMK AO2 SLP184 T01000039,M
DRA,2022-07-16 12:53,-116.0278,36.6206,1009.00,82.00,50.00,32.88,50.00,11.00,0.00,30.05,1011.50,10.00,M,CLR,M,M,M,M,M,M,M,M,M,M,M,M,M,M,80.73,KDRA 161253Z AUTO 05011KT 10SM CLR 28/10 A3005 RMK AO2 SLP115 T02780100,M
VGT,2022-07-16 12:53,-115.1933,36.2111,667.00,91.00,51.00,25.70,290.00,7.00,0.00,29.96,1012.80,10.00,M,CLR,M,M,M,M,M,M,M,M,M,M,M,M,M,M,88.18,KVGT 161253Z AUTO 29007KT 10SM CLR 33/11 A2996 RMK AO2 SLP128 T03280106,M
BVU,2022-07-16 12:55,-114.8611,35.9475,671.00,M,M,M,M,M,0.00,M,M,M,M,M,M,M,M,M,M,M,M,M,M,M,M,M,M,M,M,KBVU 161255Z AUTO RMK AO2 PNO PWINO TSNO,M
RTS,2022-07-16 12:55,-119.8764,39.6682,1539.00,55.40,39.20,54.34,350.00,3.00,0.00,30.20,M,10.00,M,CLR,M,M,M,M,M,M,M,M,M,M,M,M,M,M,55.40,KRTS 161255Z AUTO 35003KT 10SM CLR 13/04 A3020 RMK AO2,M
HTH,2022-07-16 12:55,-118.6315,38.5448,1282.89,69.80,48.20,46.16,160.00,4.00,0.00,30.14,M,10.00,M,CLR,M,M,M,M,M,M,M,M,M,M,M,M,M,M,69.80,KHTH 161255Z AUTO 16004KT 10SM CLR 21/09 A3014 RMK A01,M
BAM,2022-07-16 12:55,-116.8743,40.5990,1382.36,M,M,M,50.00,5.00,0.00,30.17,M,10.00,M,CLR,M,M,M,M,M,M,M,M,M,M,M,M,M,M,M,KBAM 161255Z AUTO 05005KT 10SM CLR A3017 RMK AO1,M
MEV,2022-07-16 12:55,-119.7500,38.9963,1441.42,55.40,42.80,62.46,0.00,0.00,0.00,30.17,M,10.00,M,CLR,M,M,M,M,M,M,M,M,M,M,M,M,M,M,55.40,KMEV 161255Z AUTO 00000KT 10SM CLR 13/06 A3017 RMK AO2,M
TMT,2022-07-16 12:55,-117.1971,39.4643,1749.34,45.00,42.00,89.49,0.00,0.00,0.00,30.28,M,10.00,M,CLR,M,M,M,M,M,M,M,M,M,M,M,M,M,M,45.00,KTMT 161255Z AUTO 00000KT 10SM CLR 07/06 A3028 RMK AO2 T00720056,M
05U,2022-07-16 12:55,-116.0051,39.6042,1811.23,51.80,46.40,81.74,0.00,0.00,0.00,30.31,M,10.00,M,CLR,M,M,M,M,M,M,M,M,M,M,M,M,M,M,51.80,K05U 161255Z AUTO 00000KT 10SM CLR 11/08 A3031 RMK A01,M
CXP,2022-07-16 12:55,-119.7326,39.1923,1431.00,60.80,42.80,51.45,0.00,0.00,0.00,30.19,M,10.00,M,CLR,M,M,M,M,M,M,M,M,M,M,M,M,M,M,60.80,KCXP 161255Z AUTO 00000KT 10SM CLR 16/06 A3019 RMK AO2,M
RNO,2022-07-16 12:55,-119.7711,39.4839,1341.00,69.00,46.00,43.52,260.00,4.00,0.00,30.15,1014.50,10.00,M,FEW,M,M,M,10000.00,M,M,M,M,M,M,M,M,M,M,69.10,KRNO 161255Z 26004KT 10SM FEW100 21/08 A3015 RMK AO2 SLP145 FU ALF DSNT SE THRU SW T02060078,M
HND,2022-07-16 12:56,-115.1344,35.9729,742.79,83.00,52.00,34.39,170.00,5.00,0.00,30.01,1014.40,10.00,M,CLR,M,M,M,M,M,M,M,M,M,M,M,M,M,M,81.57,KHND 161256Z 17005KT 10SM CLR 28/11 A3001 RMK AO2 SLP144 T02830111,M
WMC,2022-07-16 12:56,-117.8072,40.9019,1315.00,58.00,41.00,53.24,130.00,5.00,0.00,30.13,1014.90,10.00,M,CLR,M,M,M,M,M,M,M,M,M,M,M,M,M,M,57.90,KWMC 161256Z AUTO 13005KT 10SM CLR 14/05 A3013 RMK AO2 SLP149 T01440050 TSNO,M
LAS,2022-07-16 12:56,-115.1634,36.0719,663.00,87.00,51.00,29.07,220.00,4.00,0.00,29.97,1011.70,10.00,M,SCT,M,M,M,15000.00,M,M,M,M,M,M,M,M,M,M,84.67,KLAS 161256Z 22004KT 10SM SCT150 31/11 A2997 RMK AO2 SLP117 T03060106,M
EKO,2022-07-16 12:56,-115.7860,40.8242,1367.00,62.00,42.00,47.83,60.00,3.00,0.00,30.22,1017.60,10.00,M,CLR,M,M,M,M,M,M,M,M,M,M,M,M,M,M,62.10,KEKO 161256Z AUTO 06003KT 10SM CLR 17/06 A3022 RMK AO2 SLP176 T01670056,M
TPH,2022-07-16 12:56,-117.0904,38.0505,1654.00,64.00,48.00,55.99,10.00,9.00,0.00,30.25,1015.50,10.00,M,CLR,M,M,M,M,M,M,M,M,M,M,M,M,M,M,64.00,KTPH 161256Z AUTO 01009KT 10SM CLR 18/09 A3025 RMK AO2 SLP155 T01780089,M
NFL,2022-07-16 12:56,-118.7010,39.4166,1199.00,69.00,48.00,46.92,160.00,8.00,0.00,30.10,1016.00,10.00,M,CLR,M,M,M,M,M,M,M,M,M,M,M,M,M,M,69.10,KNFL 161256Z AUTO 16008KT 10SM CLR 21/09 A3010 RMK AO2 SLP160 T02060089,M
LSV,2022-07-16 12:58,-115.0343,36.2362,570.00,88.20,51.80,28.81,0.00,0.00,0.00,29.94,M,10.00,M,CLR,M,M,M,M,M,M,M,M,M,M,M,M,M,M,85.74,KLSV 161258Z AUTO 00000KT 10SM CLR 31/11 A2994 RMK AO2 SLPNO T03120110 $,M
INS,2022-07-16 12:58,-115.6733,36.5872,955.00,80.20,47.70,31.99,0.00,0.00,0.00,30.05,M,10.00,M,CLR,M,M,M,M,M,M,M,M,M,M,M,M,M,M,79.45,KINS 161258Z AUTO 00000KT 10SM CLR 27/09 A3005 RMK AO2 SLPNO T02680087 $,M
HTH,2022-07-16 13:15,-118.6315,38.5448,1282.89,69.80,48.20,46.16,170.00,5.00,0.00,30.15,M,10.00,M,CLR,M,M,M,M,M,M,M,M,M,M,M,M,M,M,69.80,KHTH 161315Z AUTO 17005KT 10SM CLR 21/09 A3015 RMK A01,M
BVU,2022-07-16 13:15,-114.8611,35.9475,671.00,M,M,M,M,M,0.00,M,M,M,M,M,M,M,M,M,M,M,M,M,M,M,M,M,M,M,M,KBVU 161315Z AUTO RMK AO2 PNO PWINO TSNO,M
CXP,2022-07-16 13:15,-119.7326,39.1923,1431.00,60.80,42.80,51.45,0.00,0.00,0.00,30.19,M,10.00,M,CLR,M,M,M,M,M,M,M,M,M,M,M,M,M,M,60.80,KCXP 161315Z AUTO 00000KT 10SM CLR 16/06 A3019 RMK AO2,M
RTS,2022-07-16 13:15,-119.8764,39.6682,1539.00,57.20,41.00,54.60,310.00,4.00,0.00,30.20,M,10.00,M,CLR,M,M,M,M,M,M,M,M,M,M,M,M,M,M,57.20,KRTS 161315Z AUTO 31004KT 10SM CLR 14/05 A3020 RMK AO2,M
05U,2022-07-16 13:15,-116.0051,39.6042,1811.23,53.60,46.40,76.50,0.00,0.00,0.00,30.32,M,10.00,M,CLR,M,M,M,M,M,M,M,M,M,M,M,M,M,M,53.60,K05U 161315Z AUTO 00000KT 10SM CLR 12/08 A3032 RMK A01,M
MEV,2022-07-16 13:15,-119.7500,38.9963,1441.42,53.60,42.80,66.70,0.00,0.00,0.00,30.18,M,10.00,M,CLR,M,M,M,M,M,M,M,M,M,M,M,M,M,M,53.60,KMEV 161315Z AUTO 00000KT 10SM CLR 12/06 A3018 RMK AO2,M
TMT,2022-07-16 13:15,-117.1971,39.4643,1749.34,45.30,43.50,93.37,100.00,3.00,0.00,30.29,M,10.00,M,CLR,M,M,M,M,M,M,M,M,M,M,M,M,M,M,43.89,KTMT 161315Z AUTO 10003KT 10SM CLR 07/06 A3029 RMK AO2 T00740064,M
BAM,2022-07-16 13:15,-116.8743,40.5990,1382.36,M,M,M,70.00,4.00,0.00,30.17,M,10.00,M,CLR,M,M,M,M,M,M,M,M,M,M,M,M,M,M,M,KBAM 161315Z AUTO 07004KT 10SM CLR A3017 RMK AO1,M
CXP,2022-07-16 13:35,-119.7326,39.1923,1431.00,62.60,44.60,51.72,0.00,0.00,0.00,30.19,M,10.00,M,CLR,M,M,M,M,M,M,M,M,M,M,M,M,M,M,62.60,KCXP 161335Z AUTO 00000KT 10SM CLR 17/07 A3019 RMK AO2,M
BVU,2022-07-16 13:35,-114.8611,35.9475,671.00,M,M,M,M,M,0.00,M,M,M,M,M,M,M,M,M,M,M,M,M,M,M,M,M,M,M,M,KBVU 161335Z AUTO RMK AO2 PNO PWINO TSNO,M
RTS,2022-07-16 13:35,-119.8764,39.6682,1539.00,57.20,41.00,54.60,0.00,0.00,0.00,30.20,M,10.00,M,CLR,M,M,M,M,M,M,M,M,M,M,M,M,M,M,57.20,KRTS 161335Z AUTO 00000KT 10SM CLR 14/05 A3020 RMK AO2,M
05U,2022-07-16 13:35,-116.0051,39.6042,1811.23,57.20,46.40,67.12,0.00,0.00,0.00,30.32,M,10.00,M,CLR,M,M,M,M,M,M,M,M,M,M,M,M,M,M,57.20,K05U 161335Z AUTO 00000KT 10SM CLR 14/08 A3032 RMK A01,M
MEV,2022-07-16 13:35,-119.7500,38.9963,1441.42,55.40,42.80,62.46,0.00,0.00,0.00,30.18,M,10.00,M,CLR,M,M,M,M,M,M,M,M,M,M,M,M,M,M,55.40,KMEV 161335Z AUTO 00000KT 10SM CLR 13/06 A3018 RMK AO2,M
BAM,2022-07-16 13:35,-116.8743,40.5990,1382.36,M,M,M,60.00,3.00,0.00,30.17,M,10.00,M,CLR,M,M,M,M,M,M,M,M,M,M,M,M,M,M,M,KBAM 161335Z AUTO 06003KT 10SM CLR A3017 RMK AO1,M
HTH,2022-07-16 13:35,-118.6315,38.5448,1282.89,71.60,48.20,43.42,140.00,4.00,0.00,30.15,M,10.00,M,CLR,M,M,M,M,M,M,M,M,M,M,M,M,M,M,71.60,KHTH 161335Z AUTO 14004KT 10SM CLR 22/09 A3015 RMK A01,M
TMT,2022-07-16 13:35,-117.1971,39.4643,1749.34,49.60,46.00,87.35,0.00,0.00,0.00,30.29,M,10.00,M,CLR,M,M,M,M,M,M,M,M,M,M,M,M,M,M,49.60,KTMT 161335Z AUTO 00000KT 10SM CLR 10/08 A3029 RMK AO2 T00980078,M
ELY,2022-07-16 13:53,-114.8453,39.2950,1909.00,61.00,44.00,53.69,160.00,7.00,0.00,30.33,1017.90,10.00,M,CLR,M,M,M,M,M,M,M,M,M,M,M,M,M,M,61.00,KELY 161353Z AUTO 16007KT 10SM CLR 16/07 A3033 RMK AO2 SLP179 T01610067,M
LOL,2022-07-16 13:53,-118.5701,40.0684,1192.43,67.00,37.00,33.16,50.00,5.00,0.00,30.11,1014.90,10.00,M,CLR,M,M,M,M,M,M,M,M,M,M,M,M,M,M,66.90,KLOL 161353Z AUTO 05005KT 10SM CLR 19/03 A3011 RMK AO2 SLP149 T01940028,M
VGT,2022-07-16 13:53,-115.1933,36.2111,667.00,93.00,52.00,24.97,270.00,5.00,0.00,29.97,1013.20,10.00,M,CLR,M,M,M,M,M,M,M,M,M,M,M,M,M,M,90.29,KVGT 161353Z AUTO 27005KT 10SM CLR 34/11 A2997 RMK AO2 SLP132 T03390111,M
DRA,2022-07-16 13:53,-116.0278,36.6206,1009.00,84.00,50.00,30.82,50.00,11.00,0.00,30.06,1011.90,10.00,M,CLR,M,M,M,M,M,M,M,M,M,M,M,M,M,M,82.09,KDRA 161353Z AUTO 05011KT 10SM CLR 29/10 A3006 RMK AO2 SLP119 T02890100,M
P68,2022-07-16 13:53,-116.0056,39.6014,1993.00,60.00,47.00,61.65,200.00,7.00,0.00,30.29,1018.10,M,M,M,M,M,M,M,M,M,M,M,M,M,M,M,M,M,60.10,KP68 161353Z AUTO 20007KT 16/08 A3029 RMK AO1 SLP181 T01560083,M
RNO,2022-07-16 13:55,-119.7711,39.4839,1341.00,70.00,48.00,45.50,0.00,0.00,0.00,30.16,1014.90,10.00,M,CLR,M,M,M,M,M,M,M,M,M,M,M,M,M,M,70.00,KRNO 161355Z 00000KT 10SM CLR 21/09 A3016 RMK AO2 SLP149 T02110089,M
TMT,2022-07-16 13:55,-117.1971,39.4643,1749.34,54.00,48.40,80.99,0.00,0.00,0.00,30.29,M,10.00,M,CLR,M,M,M,M,M,M,M,M,M,M,M,M,M,M,54.10,KTMT 161355Z AUTO 00000KT 10SM CLR 12/09 A3029 RMK AO2 T01230091,M
HTH,2022-07-16 13:55,-118.6315,38.5448,1282.89,73.40,46.40,38.18,M,4.00,0.00,30.15,M,10.00,M,CLR,M,M,M,M,M,M,M,M,M,M,M,M,M,M,73.40,KHTH 161355Z AUTO VRB04KT 10SM CLR 23/08 A3015 RMK A01,M
BAM,2022-07-16 13:55,-116.8743,40.5990,1382.36,M,M,M,70.00,5.00,0.00,30.18,M,10.00,M,CLR,M,M,M,M,M,M,M,M,M,M,M,M,M,M,M,KBAM 161355Z AUTO 07005KT 10SM CLR A3018 RMK AO1,M
MEV,2022-07-16 13:55,-119.7500,38.9963,1441.42,59.00,46.40,62.92,0.00,0.00,0.00,30.18,M,10.00,M,CLR,M,M,M,M,M,M,M,M,M,M,M,M,M,M,59.00,KMEV 161355Z AUTO 00000KT 10SM CLR 15/08 A3018 RMK AO2,M
05U,2022-07-16 13:55,-116.0051,39.6042,1811.23,60.80,48.20,63.15,0.00,0.00,0.00,30.32,M,10.00,M,CLR,M,M,M,M,M,M,M,M,M,M,M,M,M,M,60.80,K05U 161355Z AUTO 00000KT 10SM CLR 16/09 A3032 RMK A01,M
RTS,2022-07-16 13:55,-119.8764,39.6682,1539.00,60.80,42.80,51.45,0.00,0.00,0.00,30.21,M,10.00,M,CLR,M,M,M,M,M,M,M,M,M,M,M,M,M,M,60.80,KRTS 161355Z AUTO 00000KT 10SM CLR 16/06 A3021 RMK AO2,M
BVU,2022-07-16 13:55,-114.8611,35.9475,671.00,M,M,M,M,M,0.00,M,M,M,M,M,M,M,M,M,M,M,M,M,M,M,M,M,M,M,M,KBVU 161355Z AUTO RMK AO2 PNO PWINO TSNO,M
CXP,2022-07-16 13:55,-119.7326,39.1923,1431.00,64.40,46.40,51.98,0.00,0.00,0.00,30.20,M,10.00,M,CLR,M,M,M,M,M,M,M,M,M,M,M,M,M,M,64.40,KCXP 161355Z AUTO 00000KT 10SM CLR 18/08 A3020 RMK AO2,M
NFL,2022-07-16 13:56,-118.7010,39.4166,1199.00,74.00,49.00,41.24,170.00,5.00,0.00,30.11,1016.20,10.00,M,CLR,M,M,M,M,M,M,M,M,M,M,M,M,M,M,73.90,KNFL 161356Z AUTO 17005KT 10SM CLR 23/09 A3011 RMK AO2 SLP162 T02330094,M
EKO,2022-07-16 13:56,-115.7860,40.8242,1367.00,66.00,45.00,46.62,0.00,0.00,0.00,30.23,1017.70,10.00,M,CLR,M,M,M,M,M,M,M,M,M,M,M,M,M,M,66.00,KEKO 161356Z AUTO 00000KT 10SM CLR 19/07 A3023 RMK AO2 SLP177 T01890072,M
TPH,2022-07-16 13:56,-117.0904,38.0505,1654.00,69.00,47.00,45.02,30.00,8.00,0.00,30.26,1015.60,10.00,M,CLR,M,M,M,M,M,M,M,M,M,M,M,M,M,M,69.10,KTPH 161356Z AUTO 03008KT 10SM CLR 21/08 A3026 RMK AO2 SLP156 T02060083,M
LAS,2022-07-16 13:56,-115.1634,36.0719,663.00,89.00,52.00,28.21,230.00,4.00,0.00,29.98,1012.00,10.00,M,FEW,M,M,M,15000.00,M,M,M,M,M,M,M,M,M,M,86.58,KLAS 161356Z 23004KT 10SM FEW150 32/11 A2998 RMK AO2 SLP120 T03170111,M
HND,2022-07-16 13:56,-115.1344,35.9729,742.79,88.00,53.00,30.41,200.00,5.00,0.00,30.02,1014.50,10.00,M,CLR,M,M,M,M,M,M,M,M,M,M,M,M,M,M,85.80,KHND 161356Z 20005KT 10SM CLR 31/12 A3002 RMK AO2 SLP145 T03110117,M
WMC,2022-07-16 13:56,-117.8072,40.9019,1315.00,65.00,39.00,38.44,0.00,0.00,0.00,30.14,1014.80,10.00,M,CLR,M,M,M,M,M,M,M,M,M,M,M,M,M,M,64.90,KWMC 161356Z AUTO 00000KT 10SM CLR 18/04 A3014 RMK AO2 SLP148 T01830039 TSNO,M
INS,2022-07-16 13:58,-115.6733,36.5872,955.00,82.60,49.00,30.95,0.00,0.00,0.00,30.06,M,10.00,M,CLR,M,M,M,M,M,M,M,M,M,M,M,M,M,M,81.00,KINS 161358Z AUTO 00000KT 10SM CLR 28/09 A3006 RMK AO2 SLPNO T02810094 $,M
LSV,2022-07-16 13:58,-115.0343,36.2362,570.00,91.00,52.30,26.87,210.00,5.00,0.00,29.95,M,10.00,M,CLR,M,M,M,M,M,M,M,M,M,M,M,M,M,M,88.41,KLSV 161358Z AUTO 21005KT 10SM CLR 33/11 A2995 RMK AO2 SLPNO T03280113 $,M
MEV,2022-07-16 14:15,-119.7500,38.9963,1441.42,62.60,44.60,51.72,0.00,0.00,0.00,30.18,M,10.00,M,CLR,M,M,M,M,M,M,M,M,M,M,M,M,M,M,62.60,KMEV 161415Z AUTO 00000KT 10SM CLR 17/07 A3018 RMK AO2,M
HTH,2022-07-16 14:15,-118.6315,38.5448,1282.89,77.00,48.20,36.22,120.00,3.00,0.00,30.15,M,10.00,M,CLR,M,M,M,M,M,M,M,M,M,M,M,M,M,M,77.00,KHTH 161415Z AUTO 12003KT 10SM CLR 25/09 A3015 RMK A01,M
NFL,2022-07-16 14:15,-118.7010,39.4166,1199.00,77.00,49.00,37.19,160.00,6.00,0.00,30.11,M,10.00,M,FEW,M,M,M,12000.00,M,M,M,M,M,M,M,M,M,M,77.00,KNFL 161415Z 16006KT 10SM FEW120 25/09 A3011 RMK AO2 T02500094,M
TMT,2022-07-16 14:15,-117.1971,39.4643,1749.34,55.60,48.70,77.55,0.00,0.00,0.00,30.29,M,10.00,M,CLR,M,M,M,M,M,M,M,M,M,M,M,M,M,M,55.60,KTMT 161415Z AUTO 00000KT 10SM CLR 13/09 A3029 RMK AO2 T01310093,M
BVU,2022-07-16 14:15,-114.8611,35.9475,671.00,M,M,M,M,M,0.00,M,M,M,M,M,M,M,M,M,M,M,M,M,M,M,M,M,M,M,M,KBVU 161415Z AUTO RMK AO2 PNO PWINO TSNO,M
CXP,2022-07-16 14:15,-119.7326,39.1923,1431.00,64.40,46.40,51.98,0.00,0.00,0.00,30.20,M,10.00,M,CLR,M,M,M,M,M,M,M,M,M,M,M,M,M,M,64.40,KCXP 161415Z AUTO 00000KT 10SM CLR 18/08 A3020 RMK AO2,M
RTS,2022-07-16 14:15,-119.8764,39.6682,1539.00,64.40,42.80,45.32,0.00,0.00,0.00,30.21,M,10.00,M,CLR,M,M,M,M,M,M,M,M,M,M,M,M,M,M,64.40,KRTS 161415Z AUTO 00000KT 10SM CLR 18/06 A3021 RMK AO2,M
05U,2022-07-16 14:15,-116.0051,39.6042,1811.23,64.40,50.00,59.50,0.00,0.00,0.00,30.32,M,10.00,M,CLR,M,M,M,M,M,M,M,M,M,M,M,M,M,M,64.40,K05U 161415Z AUTO 00000KT 10SM CLR 18/10 A3032 RMK A01,M
BAM,2022-07-16 14:15,-116.8743,40.5990,1382.36,M,M,M,60.00,7.00,0.00,30.17,M,10.00,M,CLR,M,M,M,M,M,M,M,M,M,M,M,M,M,M,M,KBAM 161415Z AUTO 06007KT 10SM CLR A3017 RMK AO1,M
CXP,2022-07-16 14:30,-119.7326,39.1923,1431.00,66.20,46.40,48.83,0.00,0.00,0.00,30.20,M,10.00,M,CLR,M,M,M,M,M,M,M,M,M,M,M,M,M,M,66.20,KCXP 161430Z AUTO 00000KT 10SM CLR 19/08 A3020 RMK AO2,M
HTH,2022-07-16 14:35,-118.6315,38.5448,1282.89,77.00,48.20,36.22,120.00,5.00,0.00,30.15,M,10.00,M,CLR,M,M,M,M,M,M,M,M,M,M,M,M,M,M,77.00,KHTH 161435Z AUTO 12005KT 10SM CLR 25/09 A3015 RMK A01,M
BVU,2022-07-16 14:35,-114.8611,35.9475,671.00,M,M,M,M,M,0.00,M,M,M,M,M,M,M,M,M,M,M,M,M,M,M,M,M,M,M,M,KBVU 161435Z AUTO RMK AO2 PNO PWINO TSNO,M
RTS,2022-07-16 14:35,-119.8764,39.6682,1539.00,68.00,44.60,42.85,0.00,0.00,0.00,30.21,M,10.00,M,CLR,M,M,M,M,M,M,M,M,M,M,M,M,M,M,68.00,KRTS 161435Z AUTO 00000KT 10SM CLR 20/07 A3021 RMK AO2,M
05U,2022-07-16 14:35,-116.0051,39.6042,1811.23,68.00,50.00,52.51,0.00,0.00,0.00,30.32,M,10.00,M,CLR,M,M,M,M,M,M,M,M,M,M,M,M,M,M,68.00,K05U 161435Z AUTO 00000KT 10SM CLR 20/10 A3032 RMK A01,M
MEV,2022-07-16 14:35,-119.7500,38.9963,1441.42,66.20,44.60,45.60,0.00,0.00,0.00,30.18,M,10.00,M,CLR,M,M,M,M,M,M,M,M,M,M,M,M,M,M,66.20,KMEV 161435Z AUTO 00000KT 10SM CLR 19/07 A3018 RMK AO2,M
BAM,2022-07-16 14:35,-116.8743,40.5990,1382.36,M,M,M,100.00,5.00,0.00,30.18,M,10.00,M,CLR,M,M,M,M,M,M,M,M,M,M,M,M,M,M,M,KBAM 161435Z AUTO 10005KT 10SM CLR A3018 RMK AO1,M
TMT,2022-07-16 14:35,-117.1971,39.4643,1749.34,58.00,49.00,71.39,0.00,0.00,0.00,30.29,M,10.00,M,CLR,M,M,M,M,M,M,M,M,M,M,M,M,M,M,58.10,KTMT 161435Z AUTO 00000KT 10SM CLR 15/09 A3029 RMK AO2 T01450094,M
ELY,2022-07-16 14:53,-114.8453,39.2950,1909.00,70.00,44.00,39.26,180.00,8.00,0.00,30.33,1016.70,10.00,M,CLR,M,M,M,M,M,M,M,M,M,M,M,M,M,M,70.00,KELY 161453Z AUTO 18008KT 10SM CLR 21/07 A3033 RMK AO2 SLP167 T02110067 50005,M
P68,2022-07-16 14:53,-116.0056,39.6014,1993.00,69.00,49.00,48.53,0.00,0.00,0.00,30.29,1017.30,M,M,M,M,M,M,M,M,M,M,M,M,M,M,M,M,M,69.10,KP68 161453Z AUTO 00000KT 21/09 A3029 RMK AO1 SLP173 T02060094 51002,M
DRA,2022-07-16 14:53,-116.0278,36.6206,1009.00,89.00,50.00,26.19,40.00,9.00,0.00,30.07,1012.00,10.00,M,CLR,M,M,M,M,M,M,M,M,M,M,M,M,M,M,86.25,KDRA 161453Z AUTO 04009KT 10SM CLR 32/10 A3007 RMK AO2 SLP120 T03170100 53007,M
VGT,2022-07-16 14:53,-115.1933,36.2111,667.00,95.00,52.00,23.47,330.00,8.00,0.00,29.97,1013.10,10.00,M,CLR,M,M,M,M,M,M,M,M,M,M,M,M,M,M,92.31,KVGT 161453Z AUTO 33008KT 10SM CLR 35/11 A2997 RMK AO2 SLP131 T03500111 50006,M
LOL,2022-07-16 14:53,-118.5701,40.0684,1192.43,79.00,39.00,23.85,0.00,0.00,0.00,30.11,1014.30,10.00,M,CLR,M,M,M,M,M,M,M,M,M,M,M,M,M,M,79.00,KLOL 161453Z AUTO 00000KT 10SM CLR 26/04 A3011 RMK AO2 SLP143 T02610039 50004,M
05U,2022-07-16 14:55,-116.0051,39.6042,1811.23,71.60,48.20,43.42,0.00,0.00,0.00,30.32,M,10.00,M,CLR,M,M,M,M,M,M,M,M,M,M,M,M,M,M,71.60,K05U 161455Z AUTO 00000KT 10SM CLR 22/09 A3032 RMK A01,M
RNO,2022-07-16 14:55,-119.7711,39.4839,1341.00,73.00,47.00,39.43,0.00,0.00,0.00,30.16,1014.80,10.00,M,CLR,M,M,M,M,M,M,M,M,M,M,M,M,M,M,73.00,KRNO 161455Z 00000KT 10SM CLR 23/08 A3016 RMK AO2 SLP148 T02280083 50004,M
MEV,2022-07-16 14:55,-119.7500,38.9963,1441.42,69.80,44.60,40.29,0.00,0.00,0.00,30.18,M,10.00,M,CLR,M,M,M,M,M,M,M,M,M,M,M,M,M,M,69.80,KMEV 161455Z AUTO 00000KT 10SM CLR 21/07 A3018 RMK AO2,M
BVU,2022-07-16 14:55,-114.8611,35.9475,671.00,M,M,M,M,M,0.00,M,M,M,M,M,M,M,M,M,M,M,M,M,M,M,M,M,M,M,M,KBVU 161455Z AUTO RMK AO2 PNO PWINO TSNO,M
TMT,2022-07-16 14:55,-117.1971,39.4643,1749.34,61.20,49.00,63.91,0.00,0.00,0.00,30.29,M,10.00,M,CLR,M,M,M,M,M,M,M,M,M,M,M,M,M,M,61.20,KTMT 161455Z AUTO 00000KT 10SM CLR 16/09 A3029 RMK AO2 T01620094,M
RTS,2022-07-16 14:55,-119.8764,39.6682,1539.00,71.60,44.60,37.89,0.00,0.00,0.00,30.20,M,10.00,M,CLR,M,M,M,M,M,M,M,M,M,M,M,M,M,M,71.60,KRTS 161455Z AUTO 00000KT 10SM CLR 22/07 A3020 RMK AO2,M
CXP,2022-07-16 14:55,-119.7326,39.1923,1431.00,69.80,44.60,40.29,0.00,0.00,0.00,30.20,M,10.00,M,CLR,M,M,M,M,M,M,M,M,M,M,M,M,M,M,69.80,KCXP 161455Z AUTO 00000KT 10SM CLR 21/07 A3020 RMK AO2,M
BAM,2022-07-16 14:55,-116.8743,40.5990,1382.36,M,M,M,140.00,4.00,0.00,30.19,M,10.00,M,CLR,M,M,M,M,M,M,M,M,M,M,M,M,M,M,M,KBAM 161455Z AUTO 14004KT 10SM CLR A3019 RMK AO1,M
HTH,2022-07-16 14:55,-118.6315,38.5448,1282.89,78.80,48.20,34.13,100.00,8.00,0.00,30.15,M,10.00,M,CLR,M,M,M,M,M,M,M,M,M,M,M,M,M,M,78.80,KHTH 161455Z AUTO 10008KT 10SM CLR 26/09 A3015 RMK A01,M
LAS,2022-07-16 14:56,-115.1634,36.0719,663.00,93.00,52.00,24.97,170.00,4.00,0.00,29.98,1012.00,10.00,M,FEW,M,M,M,15000.00,M,M,M,M,M,M,M,M,M,M,90.29,KLAS 161456Z 17004KT 10SM FEW150 34/11 A2998 RMK AO2 SLP120 T03390111 51008,M
NFL,2022-07-16 14:56,-118.7010,39.4166,1199.00,81.00,48.00,31.52,170.00,10.00,0.00,30.11,1016.30,10.00,M,CLR,M,M,M,M,M,M,M,M,M,M,M,M,M,M,79.92,KNFL 161456Z 17010KT 10SM CLR 27/09 A3011 RMK AO2 SLP163 T02720089 51006,M
EKO,2022-07-16 14:56,-115.7860,40.8242,1367.00,74.00,45.00,35.60,0.00,0.00,0.00,30.23,1017.40,10.00,M,CLR,M,M,M,M,M,M,M,M,M,M,M,M,M,M,73.90,KEKO 161456Z AUTO 00000KT 10SM CLR 23/07 A3023 RMK AO2 SLP174 T02330072 51006,M
TPH,2022-07-16 14:56,-117.0904,38.0505,1654.00,74.00,47.00,38.26,0.00,0.00,0.00,30.26,1016.20,10.00,M,CLR,M,M,M,M,M,M,M,M,M,M,M,M,M,M,73.90,KTPH 161456Z AUTO 00000KT 10SM CLR 23/08 A3026 RMK AO2 SLP162 T02330083 50004,M
HND,2022-07-16 14:56,-115.1344,35.9729,742.79,93.00,53.00,26.00,200.00,5.00,0.00,30.02,1014.50,10.00,M,CLR,M,M,M,M,M,M,M,M,M,M,M,M,M,M,90.54,KHND 161456Z 20005KT 10SM CLR 34/12 A3002 RMK AO2 SLP145 T03390117 51006,M
WMC,2022-07-16 14:56,-117.8072,40.9019,1315.00,76.00,41.00,28.56,230.00,3.00,0.00,30.14,1014.70,10.00,M,CLR,M,M,M,M,M,M,M,M,M,M,M,M,M,M,75.90,KWMC 161456Z AUTO 23003KT 10SM CLR 24/05 A3014 RMK AO2 SLP147 T02440050 51005 TSNO,M
LSV,2022-07-16 14:58,-115.0343,36.2362,570.00,96.40,52.50,22.90,240.00,4.00,0.00,29.95,M,10.00,M,CLR,M,M,M,M,M,M,M,M,M,M,M,M,M,M,93.88,KLSV 161458Z AUTO 24004KT 10SM CLR 36/11 A2995 RMK AO2 SLPNO T03580114 51007 $,M
INS,2022-07-16 14:58,-115.6733,36.5872,955.00,87.40,48.40,26.04,0.00,0.00,0.00,30.06,M,10.00,M,CLR,M,M,M,M,M,M,M,M,M,M,M,M,M,M,84.56,KINS 161458Z AUTO 00000KT 10SM CLR 31/09 A3006 RMK AO2 SLPNO T03080091 51007 $,M
RTS,2022-07-16 15:15,-119.8764,39.6682,1539.00,73.40,44.60,35.66,0.00,0.00,0.00,30.20,M,10.00,M,CLR,M,M,M,M,M,M,M,M,M,M,M,M,M,M,73.40,KRTS 161515Z AUTO 00000KT 10SM CLR 23/07 A3020 RMK AO2,M
MEV,2022-07-16 15:15,-119.7500,38.9963,1441.42,71.60,44.60,37.89,0.00,0.00,0.00,30.18,M,10.00,M,CLR,M,M,M,M,M,M,M,M,M,M,M,M,M,M,71.60,KMEV 161515Z AUTO 00000KT 10SM CLR 22/07 A3018 RMK AO2,M
BAM,2022-07-16 15:15,-116.8743,40.5990,1382.36,M,M,M,90.00,4.00,0.00,30.19,M,10.00,M,CLR,M,M,M,M,M,M,M,M,M,M,M,M,M,M,M,KBAM 161515Z AUTO 09004KT 10SM CLR A3019 RMK AO1,M
HTH,2022-07-16 15:15,-118.6315,38.5448,1282.89,80.60,48.20,32.18,110.00,8.00,0.00,30.15,M,10.00,M,CLR,M,M,M,M,M,M,M,M,M,M,M,M,M,M,79.71,KHTH 161515Z AUTO 11008KT 10SM CLR 27/09 A3015 RMK A01,M
TMT,2022-07-16 15:15,-117.1971,39.4643,1749.34,63.00,49.80,61.81,0.00,0.00,0.00,30.28,M,10.00,M,CLR,M,M,M,M,M,M,M,M,M,M,M,M,M,M,63.10,KTMT 161515Z AUTO 00000KT 10SM CLR 17/10 A3028 RMK AO2 T01730099,M
BVU,2022-07-16 15:15,-114.8611,35.9475,671.00,M,M,M,M,M,0.00,M,M,M,M,M,M,M,M,M,M,M,M,M,M,M,M,M,M,M,M,KBVU 161515Z AUTO RMK AO2 PNO PWINO TSNO,M
CXP,2022-07-16 15:15,-119.7326,39.1923,1431.00,71.60,44.60,37.89,0.00,0.00,0.00,30.19,M,10.00,M,CLR,M,M,M,M,M,M,M,M,M,M,M,M,M,M,71.60,KCXP 161515Z AUTO 00000KT 10SM CLR 22/07 A3019 RMK AO2,M
05U,2022-07-16 15:15,-116.0051,39.6042,1811.23,71.60,46.40,40.57,0.00,0.00,0.00,30.32,M,10.00,M,CLR,M,M,M,M,M,M,M,M,M,M,M,M,M,M,71.60,K05U 161515Z AUTO 00000KT 10SM CLR 22/08 A3032 RMK A01,M
HTH,2022-07-16 15:35,-118.6315,38.5448,1282.89,82.40,48.20,30.35,90.00,9.00,0.00,30.15,M,10.00,M,CLR,M,M,M,M,M,M,M,M,M,M,M,M,M,M,80.80,KHTH 161535Z AUTO 09009KT 10SM CLR 28/09 A3015 RMK A01,M
BAM,2022-07-16 15:35,-116.8743,40.5990,1382.36,M,M,M,80.00,4.00,0.00,30.19,M,10.00,M,CLR,M,M,M,M,M,M,M,M,M,M,M,M,M,M,M,KBAM 161535Z AUTO 08004KT 10SM CLR A3019 RMK AO1,M
MEV,2022-07-16 15:35,-119.7500,38.9963,1441.42,73.40,46.40,38.18,0.00,0.00,0.00,30.18,M,10.00,M,CLR,M,M,M,M,M,M,M,M,M,M,M,M,M,M,73.40,KMEV 161535Z AUTO 00000KT 10SM CLR 23/08 A3018 RMK AO2,M
05U,2022-07-16 15:35,-116.0051,39.6042,1811.23,75.20,46.40,35.94,0.00,0.00,0.00,30.32,M,10.00,M,CLR,M,M,M,M,M,M,M,M,M,M,M,M,M,M,75.20,K05U 161535Z AUTO 00000KT 10SM CLR 24/08 A3032 RMK A01,M
BVU,2022-07-16 15:35,-114.8611,35.9475,671.00,M,M,M,M,M,0.00,M,M,M,M,M,M,M,M,M,M,M,M,M,M,M,M,M,M,M,M,KBVU 161535Z AUTO RMK AO2 PNO PWINO TSNO,M
CXP,2022-07-16 15:35,-119.7326,39.1923,1431.00,75.20,42.80,31.34,0.00,0.00,0.00,30.19,M,10.00,M,CLR,M,M,M,M,M,M,M,M,M,M,M,M,M,M,75.20,KCXP 161535Z AUTO 00000KT 10SM CLR 24/06 A3019 RMK AO2,M
RTS,2022-07-16 15:35,-119.8764,39.6682,1539.00,75.20,44.60,33.57,0.00,0.00,0.00,30.21,M,10.00,M,CLR,M,M,M,M,M,M,M,M,M,M,M,M,M,M,75.20,KRTS 161535Z AUTO 00000KT 10SM CLR 24/07 A3021 RMK AO2,M
TMT,2022-07-16 15:35,-117.1971,39.4643,1749.34,65.50,51.00,59.20,0.00,0.00,0.00,30.28,M,10.00,M,CLR,M,M,M,M,M,M,M,M,M,M,M,M,M,M,65.50,KTMT 161535Z AUTO 00000KT 10SM CLR 19/11 A3028 RMK AO2 T01860105,M
P68,2022-07-16 15:53,-116.0056,39.6014,1993.00,73.00,49.00,42.51,0.00,0.00,0.00,30.29,1016.80,M,M,M,M,M,M,M,M,M,M,M,M,M,M,M,M,M,73.00,KP68 161553Z AUTO 00000KT 23/09 A3029 RMK AO1 SLP168 T02280094,M
VGT,2022-07-16 15:53,-115.1933,36.2111,667.00,98.00,52.00,21.34,340.00,3.00,0.00,29.97,1013.20,10.00,M,CLR,M,M,M,M,M,M,M,M,M,M,M,M,M,M,95.53,KVGT 161553Z AUTO 34003KT 10SM CLR 37/11 A2997 RMK AO2 SLP132 T03670111,M
ELY,2022-07-16 15:53,-114.8453,39.2950,1909.00,76.00,44.00,32.17,M,3.00,0.00,30.32,1016.20,10.00,M,CLR,M,M,M,M,M,M,M,M,M,M,M,M,M,M,75.90,KELY 161553Z AUTO VRB03KT 10SM CLR 24/07 A3032 RMK AO2 SLP162 T02440067,M
LOL,2022-07-16 15:53,-118.5701,40.0684,1192.43,83.00,43.00,24.51,210.00,3.00,0.00,30.12,1015.00,10.00,M,CLR,M,M,M,M,M,M,M,M,M,M,M,M,M,M,80.73,KLOL 161553Z AUTO 21003KT 10SM CLR 28/06 A3012 RMK AO2 SLP150 T02830061,M
DRA,2022-07-16 15:53,-116.0278,36.6206,1009.00,91.00,49.00,23.68,0.00,0.00,0.00,30.07,1012.20,10.00,M,CLR,M,M,M,M,M,M,M,M,M,M,M,M,M,M,87.82,KDRA 161553Z AUTO 00000KT 10SM CLR 33/09 A3007 RMK AO2 SLP122 T03280094,M
HTH,2022-07-16 15:55,-118.6315,38.5448,1282.89,82.40,48.20,30.35,110.00,5.00,0.00,30.15,M,10.00,13.00,CLR,M,M,M,M,M,M,M,M,M,M,M,M,M,M,80.80,KHTH 161555Z AUTO 11005G13KT 10SM CLR 28/09 A3015 RMK A01,M
TMT,2022-07-16 15:55,-117.1971,39.4643,1749.34,68.70,52.00,55.20,0.00,0.00,0.00,30.28,M,10.00,M,CLR,M,M,M,M,M,M,M,M,M,M,M,M,M,M,68.70,KTMT 161555Z AUTO 00000KT 10SM CLR 20/11 A3028 RMK AO2 T02040111,M
BAM,2022-07-16 15:55,-116.8743,40.5990,1382.36,M,M,M,0.00,0.00,0.00,30.19,M,10.00,M,CLR,M,M,M,M,M,M,M,M,M,M,M,M,M,M,M,KBAM 161555Z AUTO 00000KT 10SM CLR A3019 RMK AO1,M
MEV,2022-07-16 15:55,-119.7500,38.9963,1441.42,75.20,42.80,31.34,0.00,0.00,0.00,30.18,M,10.00,M,CLR,M,M,M,M,M,M,M,M,M,M,M,M,M,M,75.20,KMEV 161555Z AUTO 00000KT 10SM CLR 24/06 A3018 RMK AO2,M
05U,2022-07-16 15:55,-116.0051,39.6042,1811.23,77.00,48.20,36.22,0.00,0.00,0.00,30.32,M,10.00,M,CLR,M,M,M,M,M,M,M,M,M,M,M,M,M,M,77.00,K05U 161555Z AUTO 00000KT 10SM CLR 25/09 A3032 RMK A01,M
RTS,2022-07-16 15:55,-119.8764,39.6682,1539.00,77.00,44.60,31.62,0.00,0.00,0.00,30.21,M,10.00,M,CLR,M,M,M,M,M,M,M,M,M,M,M,M,M,M,77.00,KRTS 161555Z AUTO 00000KT 10SM CLR 25/07 A3021 RMK AO2,M
CXP,2022-07-16 15:55,-119.7326,39.1923,1431.00,77.00,41.00,27.53,0.00,0.00,0.00,30.19,M,10.00,M,CLR,M,M,M,M,M,M,M,M,M,M,M,M,M,M,77.00,KCXP 161555Z AUTO 00000KT 10SM CLR 25/05 A3019 RMK AO2,M
BVU,2022-07-16 15:55,-114.8611,35.9475,671.00,M,M,M,M,M,0.00,M,M,M,M,M,M,M,M,M,M,M,M,M,M,M,M,M,M,M,M,KBVU 161555Z AUTO RMK AO2 PNO PWINO TSNO,M
RNO,2022-07-16 15:55,-119.7711,39.4839,1341.00,79.00,47.00,32.29,0.00,0.00,0.00,30.16,1014.60,10.00,M,FEW,M,M,M,10000.00,M,M,M,M,M,M,M,M,M,M,79.00,KRNO 161555Z 00000KT 10SM FEW100 26/08 A3016 RMK AO2 SLP146 T02610083,M
HND,2022-07-16 15:56,-115.1344,35.9729,742.79,96.00,53.00,23.62,0.00,0.00,0.00,30.02,1014.50,10.00,M,CLR,M,M,M,M,M,M,M,M,M,M,M,M,M,M,93.72,KHND 161556Z 00000KT 10SM CLR 36/12 A3002 RMK AO2 SLP145 T03560117,M
WMC,2022-07-16 15:56,-117.8072,40.9019,1315.00,86.00,43.00,22.19,180.00,6.00,0.00,30.14,1014.70,10.00,M,CLR,M,M,M,M,M,M,M,M,M,M,M,M,M,M,82.97,KWMC 161556Z AUTO 18006KT 10SM CLR 30/06 A3014 RMK AO2 SLP147 T03000061 TSNO,M
NFL,2022-07-16 15:56,-118.7010,39.4166,1199.00,86.00,48.00,26.82,160.00,9.00,0.00,30.11,1016.20,10.00,M,CLR,M,M,M,M,M,M,M,M,M,M,M,M,M,M,83.38,KNFL 161556Z 16009KT 10SM CLR 30/09 A3011 RMK AO2 SLP162 T03000089,M
LAS,2022-07-16 15:56,-115.1634,36.0719,663.00,96.00,52.00,22.69,50.00,3.00,0.00,29.98,1012.00,10.00,M,FEW,M,M,M,15000.00,M,M,M,M,M,M,M,M,M,M,93.44,KLAS 161556Z 05003KT 10SM FEW150 36/11 A2998 RMK AO2 SLP120 T03560111,M
TPH,2022-07-16 15:56,-117.0904,38.0505,1654.00,79.00,47.00,32.29,0.00,0.00,0.00,30.26,1016.00,10.00,M,CLR,M,M,M,M,M,M,M,M,M,M,M,M,M,M,79.00,KTPH 161556Z AUTO 00000KT 10SM CLR 26/08 A3026 RMK AO2 SLP160 T02610083,M
EKO,2022-07-16 15:56,-115.7860,40.8242,1367.00,78.00,45.00,30.95,0.00,0.00,0.00,30.23,1017.20,10.00,M,CLR,M,M,M,M,M,M,M,M,M,M,M,M,M,M,78.10,KEKO 161556Z AUTO 00000KT 10SM CLR 26/07 A3023 RMK AO2 SLP172 T02560072,M
INS,2022-07-16 15:58,-115.6733,36.5872,955.00,90.50,47.70,23.00,0.00,0.00,0.00,30.06,M,10.00,M,CLR,M,M,M,M,M,M,M,M,M,M,M,M,M,M,87.19,KINS 161558Z AUTO 00000KT 10SM CLR 33/09 A3006 RMK AO2 SLPNO T03250087 $,M
LSV,2022-07-16 15:58,-115.0343,36.2362,570.00,101.00,52.30,19.83,160.00,3.00,0.00,29.95,M,10.00,M,CLR,M,M,M,M,M,M,M,M,M,M,M,M,M,M,98.57,KLSV 161558Z AUTO 16003KT 10SM CLR 38/11 A2995 RMK AO2 SLPNO T03830113 $,M
BVU,2022-07-16 16:15,-114.8611,35.9475,671.00,M,M,M,M,M,0.00,M,M,M,M,M,M,M,M,M,M,M,M,M,M,M,M,M,M,M,M,KBVU 161615Z AUTO RMK AO2 PNO PWINO TSNO,M
CXP,2022-07-16 16:15,-119.7326,39.1923,1431.00,78.80,41.00,25.95,M,4.00,0.00,30.19,M,10.00,M,CLR,M,M,M,M,M,M,M,M,M,M,M,M,M,M,78.80,KCXP 161615Z AUTO VRB04KT 10SM CLR 26/05 A3019 RMK AO2,M
RTS,2022-07-16 16:15,-119.8764,39.6682,1539.00,78.80,42.80,27.81,0.00,0.00,0.00,30.21,M,10.00,M,CLR,M,M,M,M,M,M,M,M,M,M,M,M,M,M,78.80,KRTS 161615Z AUTO 00000KT 10SM CLR 26/06 A3021 RMK AO2,M
HTH,2022-07-16 16:15,-118.6315,38.5448,1282.89,82.40,48.20,30.35,100.00,4.00,0.00,30.14,M,10.00,M,CLR,M,M,M,M,M,M,M,M,M,M,M,M,M,M,80.80,KHTH 161615Z AUTO 10004KT 10SM CLR 28/09 A3014 RMK A01,M
MEV,2022-07-16 16:15,-119.7500,38.9963,1441.42,78.80,44.60,29.79,0.00,0.00,0.00,30.17,M,10.00,M,CLR,M,M,M,M,M,M,M,M,M,M,M,M,M,M,78.80,KMEV 161615Z AUTO 00000KT 10SM CLR 26/07 A3017 RMK AO2,M
05U,2022-07-16 16:15,-116.0051,39.6042,1811.23,78.80,46.40,31.90,0.00,0.00,0.00,30.31,M,10.00,M,CLR,M,M,M,M,M,M,M,M,M,M,M,M,M,M,78.80,K05U 161615Z AUTO 00000KT 10SM CLR 26/08 A3031 RMK A01,M
BAM,2022-07-16 16:15,-116.8743,40.5990,1382.36,M,M,M,0.00,0.00,0.00,30.19,M,10.00,M,CLR,M,M,M,M,M,M,M,M,M,M,M,M,M,M,M,KBAM 161615Z AUTO 00000KT 10SM CLR A3019 RMK AO1,M
TMT,2022-07-16 16:15,-117.1971,39.4643,1749.34,73.00,52.30,48.39,0.00,0.00,0.00,30.28,M,10.00,M,CLR,M,M,M,M,M,M,M,M,M,M,M,M,M,M,72.90,KTMT 161615Z AUTO 00000KT 10SM CLR 23/11 A3028 RMK AO2 T02270113,M
TMT,2022-07-16 16:35,-117.1971,39.4643,1749.34,75.00,50.70,42.50,30.00,3.00,0.00,30.27,M,10.00,M,CLR,M,M,M,M,M,M,M,M,M,M,M,M,M,M,75.00,KTMT 161635Z AUTO 03003KT 10SM CLR 24/10 A3027 RMK AO2 T02390104,M
BVU,2022-07-16 16:35,-114.8611,35.9475,671.00,M,M,M,M,M,0.00,M,M,M,M,M,M,M,M,M,M,M,M,M,M,M,M,M,M,M,M,KBVU 161635Z AUTO RMK AO2 PNO PWINO TSNO,M
HTH,2022-07-16 16:35,-118.6315,38.5448,1282.89,84.20,48.20,28.63,60.00,9.00,0.00,30.14,M,10.00,M,CLR,M,M,M,M,M,M,M,M,M,M,M,M,M,M,82.04,KHTH 161635Z AUTO 06009KT 10SM CLR 29/09 A3014 RMK A01,M
MEV,2022-07-16 16:35,-119.7500,38.9963,1441.42,80.60,42.80,26.22,0.00,0.00,0.00,30.17,M,10.00,M,CLR,M,M,M,M,M,M,M,M,M,M,M,M,M,M,79.30,KMEV 161635Z AUTO 00000KT 10SM CLR 27/06 A3017 RMK AO2,M
CXP,2022-07-16 16:35,-119.7326,39.1923,1431.00,80.60,41.00,24.46,0.00,0.00,0.00,30.18,M,10.00,M,CLR,M,M,M,M,M,M,M,M,M,M,M,M,M,M,79.20,KCXP 161635Z AUTO 00000KT 10SM CLR 27/05 A3018 RMK AO2,M
RTS,2022-07-16 16:35,-119.8764,39.6682,1539.00,80.60,42.80,26.22,0.00,0.00,0.00,30.20,M,10.00,M,CLR,M,M,M,M,M,M,M,M,M,M,M,M,M,M,79.30,KRTS 161635Z AUTO 00000KT 10SM CLR 27/06 A3020 RMK AO2,M
05U,2022-07-16 16:35,-116.0051,39.6042,1811.23,80.60,46.40,30.07,0.00,0.00,0.00,30.31,M,10.00,M,CLR,M,M,M,M,M,M,M,M,M,M,M,M,M,M,79.56,K05U 161635Z AUTO 00000KT 10SM CLR 27/08 A3031 RMK A01,M
BAM,2022-07-16 16:35,-116.8743,40.5990,1382.36,M,M,M,0.00,0.00,0.00,30.19,M,10.00,M,CLR,M,M,M,M,M,M,M,M,M,M,M,M,M,M,M,KBAM 161635Z AUTO 00000KT 10SM CLR A3019 RMK AO1,M
ELY,2022-07-16 16:53,-114.8453,39.2950,1909.00,82.00,44.00,26.33,70.00,7.00,0.00,30.31,1014.70,10.00,M,CLR,M,M,M,M,M,M,M,M,M,M,M,M,M,M,80.22,KELY 161653Z AUTO 07007KT 10SM CLR 28/07 A3031 RMK AO2 SLP147 T02780067,M
LOL,2022-07-16 16:53,-118.5701,40.0684,1192.43,89.00,46.00,22.54,190.00,8.00,0.00,30.10,1014.30,10.00,M,CLR,M,M,M,M,M,M,M,M,M,M,M,M,M,M,85.76,KLOL 161653Z AUTO 19008KT 10SM CLR 32/08 A3010 RMK AO2 SLP143 T03170078,M
DRA,2022-07-16 16:53,-116.0278,36.6206,1009.00,96.00,49.00,20.22,0.00,0.00,0.00,30.05,1011.40,10.00,M,CLR,M,M,M,M,M,M,M,M,M,M,M,M,M,M,92.78,KDRA 161653Z AUTO 00000KT 10SM CLR 36/09 A3005 RMK AO2 SLP114 T03560094,M
VGT,2022-07-16 16:53,-115.1933,36.2111,667.00,99.00,52.00,20.77,240.00,3.00,0.00,29.96,1012.70,10.00,M,CLR,M,M,M,M,M,M,M,M,M,M,M,M,M,M,96.47,KVGT 161653Z AUTO 24003KT 10SM CLR 37/11 A2996 RMK AO2 SLP127 T03720111,M
P68,2022-07-16 16:53,-116.0056,39.6014,1993.00,79.00,48.00,33.66,0.00,0.00,0.00,30.28,1016.10,M,M,M,M,M,M,M,M,M,M,M,M,M,M,M,M,M,79.00,KP68 161653Z AUTO 00000KT 26/09 A3028 RMK AO1 SLP161 T02610089,M
05U,2022-07-16 16:55,-116.0051,39.6042,1811.23,82.40,48.20,30.35,0.00,0.00,0.00,30.31,M,10.00,M,CLR,M,M,M,M,M,M,M,M,M,M,M,M,M,M,80.80,K05U 161655Z AUTO 00000KT 10SM CLR 28/09 A3031 RMK A01,M
BVU,2022-07-16 16:55,-114.8611,35.9475,671.00,M,M,M,M,M,0.00,M,M,M,M,M,M,M,M,M,M,M,M,M,M,M,M,M,M,M,M,KBVU 161655Z AUTO RMK AO2 PNO PWINO TSNO,M
CXP,2022-07-16 16:55,-119.7326,39.1923,1431.00,84.20,42.80,23.33,130.00,3.00,0.00,30.17,M,10.00,M,CLR,M,M,M,M,M,M,M,M,M,M,M,M,M,M,81.61,KCXP 161655Z AUTO 13003KT 10SM CLR 29/06 A3017 RMK AO2,M
RTS,2022-07-16 16:55,-119.8764,39.6682,1539.00,82.40,39.20,21.51,50.00,4.00,0.00,30.20,M,10.00,M,CLR,M,M,M,M,M,M,M,M,M,M,M,M,M,M,80.21,KRTS 161655Z AUTO 05004KT 10SM CLR 28/04 A3020 RMK AO2,M
MEV,2022-07-16 16:55,-119.7500,38.9963,1441.42,82.40,42.80,24.72,0.00,0.00,0.00,30.16,M,10.00,M,CLR,M,M,M,M,M,M,M,M,M,M,M,M,M,M,80.39,KMEV 161655Z AUTO 00000KT 10SM CLR 28/06 A3016 RMK AO2,M
BAM,2022-07-16 16:55,-116.8743,40.5990,1382.36,M,M,M,0.00,0.00,0.00,30.17,M,10.00,M,CLR,M,M,M,M,M,M,M,M,M,M,M,M,M,M,M,KBAM 161655Z AUTO 00000KT 10SM CLR A3017 RMK AO1,M
HTH,2022-07-16 16:55,-118.6315,38.5448,1282.89,86.00,48.20,27.03,M,6.00,0.00,30.13,M,10.00,13.00,CLR,M,M,M,M,M,M,M,M,M,M,M,M,M,M,83.40,KHTH 161655Z AUTO VRB06G13KT 10SM CLR 30/09 A3013 RMK A01,M
TMT,2022-07-16 16:55,-117.1971,39.4643,1749.34,77.00,49.80,38.46,0.00,0.00,0.00,30.27,M,10.00,M,CLR,M,M,M,M,M,M,M,M,M,M,M,M,M,M,77.00,KTMT 161655Z AUTO 00000KT 10SM CLR 25/10 A3027 RMK AO2 T02500099,M
RNO,2022-07-16 16:55,-119.7711,39.4839,1341.00,85.00,47.00,26.66,0.00,0.00,0.00,30.14,1013.90,10.00,M,CLR,M,M,M,M,M,M,M,M,M,M,M,M,M,M,82.42,KRNO 161655Z 00000KT 10SM CLR 29/08 A3014 RMK AO2 SLP139 T02940083,M
EKO,2022-07-16 16:56,-115.7860,40.8242,1367.00,83.00,46.00,27.48,0.00,0.00,0.00,30.22,1016.40,10.00,M,CLR,M,M,M,M,M,M,M,M,M,M,M,M,M,M,80.94,KEKO 161656Z AUTO 00000KT 10SM CLR 28/08 A3022 RMK AO2 SLP164 T02830078,M
NFL,2022-07-16 16:56,-118.7010,39.4166,1199.00,89.00,47.00,23.32,220.00,7.00,0.00,30.10,1016.10,10.00,M,CLR,M,M,M,M,M,M,M,M,M,M,M,M,M,M,85.85,KNFL 161656Z 22007KT 10SM CLR 32/08 A3010 RMK AO2 SLP161 T03170083,M
HND,2022-07-16 16:56,-115.1344,35.9729,742.79,98.00,54.00,22.97,M,3.00,0.00,30.01,1014.10,10.00,M,CLR,M,M,M,M,M,M,M,M,M,M,M,M,M,M,96.10,KHND 161656Z VRB03KT 10SM CLR 37/12 A3001 RMK AO2 SLP141 T03670122,M
LAS,2022-07-16 16:56,-115.1634,36.0719,663.00,99.00,52.00,20.77,10.00,3.00,0.00,29.97,1011.60,10.00,M,FEW,M,M,M,14000.00,M,M,M,M,M,M,M,M,M,M,96.47,KLAS 161656Z 01003KT 10SM FEW140 37/11 A2997 RMK AO2 SLP116 T03720111,M
WMC,2022-07-16 16:56,-117.8072,40.9019,1315.00,90.00,34.00,13.74,M,3.00,0.00,30.13,1014.50,10.00,M,CLR,M,M,M,M,M,M,M,M,M,M,M,M,M,M,85.93,KWMC 161656Z AUTO VRB03KT 10SM CLR 32/01 A3013 RMK AO2 SLP145 T03220011 TSNO,M
TPH,2022-07-16 16:56,-117.0904,38.0505,1654.00,83.00,46.00,27.48,M,3.00,0.00,30.25,1015.50,10.00,M,CLR,M,M,M,M,M,M,M,M,M,M,M,M,M,M,80.94,KTPH 161656Z AUTO VRB03KT 10SM CLR 28/08 A3025 RMK AO2 SLP155 T02830078,M
LSV,2022-07-16 16:58,-115.0343,36.2362,570.00,106.30,52.30,16.88,230.00,3.00,0.00,29.94,M,10.00,M,CLR,M,M,M,M,M,M,M,M,M,M,M,M,M,M,104.27,KLSV 161658Z AUTO 23003KT 10SM CLR 41/11 A2994 RMK AO2 SLPNO T04130113 $,M
INS,2022-07-16 16:58,-115.6733,36.5872,955.00,93.40,46.20,19.86,0.00,0.00,0.00,30.05,M,10.00,M,CLR,M,M,M,M,M,M,M,M,M,M,M,M,M,M,89.72,KINS 161658Z AUTO 00000KT 10SM CLR 34/08 A3005 RMK AO2 SLPNO T03410079 $,M
05U,2022-07-16 17:10,-116.0051,39.6042,1811.23,82.40,44.60,26.49,0.00,0.00,0.00,30.31,M,10.00,M,CLR,M,M,M,M,M,M,M,M,M,M,M,M,M,M,80.50,K05U 161710Z AUTO 00000KT 10SM CLR 28/07 A3031 RMK A01,M
BVU,2022-07-16 17:15,-114.8611,35.9475,671.00,M,M,M,M,M,0.00,M,M,M,M,M,M,M,M,M,M,M,M,M,M,M,M,M,M,M,M,KBVU 161715Z AUTO RMK AO2 PNO PWINO TSNO,M
MEV,2022-07-16 17:15,-119.7500,38.9963,1441.42,86.00,42.80,22.02,0.00,0.00,0.00,30.16,M,10.00,M,CLR,M,M,M,M,M,M,M,M,M,M,M,M,M,M,82.95,KMEV 161715Z AUTO 00000KT 10SM CLR 30/06 A3016 RMK AO2,M
BAM,2022-07-16 17:15,-116.8743,40.5990,1382.36,M,M,M,0.00,0.00,0.00,30.17,M,10.00,M,CLR,M,M,M,M,M,M,M,M,M,M,M,M,M,M,M,KBAM 161715Z AUTO 00000KT 10SM CLR A3017 RMK AO1,M
HTH,2022-07-16 17:15,-118.6315,38.5448,1282.89,86.00,48.20,27.03,M,4.00,0.00,30.12,M,10.00,11.00,CLR,M,M,M,M,M,M,M,M,M,M,M,M,M,M,83.40,KHTH 161715Z AUTO VRB04G11KT 10SM CLR 30/09 A3012 RMK A01,M
TMT,2022-07-16 17:15,-117.1971,39.4643,1749.34,79.00,49.80,36.00,360.00,3.00,0.00,30.27,M,10.00,M,CLR,M,M,M,M,M,M,M,M,M,M,M,M,M,M,79.00,KTMT 161715Z AUTO 36003KT 10SM CLR 26/10 A3027 RMK AO2 T02610099,M
RTS,2022-07-16 17:15,-119.8764,39.6682,1539.00,84.20,37.40,18.91,0.00,0.00,0.00,30.20,M,10.00,M,CLR,M,M,M,M,M,M,M,M,M,M,M,M,M,M,81.38,KRTS 161715Z AUTO 00000KT 10SM CLR 29/03 A3020 RMK AO2,M
CXP,2022-07-16 17:15,-119.7326,39.1923,1431.00,86.00,41.00,20.54,M,3.00,0.00,30.17,M,10.00,M,CLR,M,M,M,M,M,M,M,M,M,M,M,M,M,M,82.86,KCXP 161715Z AUTO VRB03KT 10SM CLR 30/05 A3017 RMK AO2,M
05U,2022-07-16 17:35,-116.0051,39.6042,1811.23,84.20,46.40,26.76,0.00,0.00,0.00,30.30,M,10.00,M,CLR,M,M,M,M,M,M,M,M,M,M,M,M,M,M,81.87,K05U 161735Z AUTO 00000KT 10SM CLR 29/08 A3030 RMK A01,M
MEV,2022-07-16 17:35,-119.7500,38.9963,1441.42,87.80,39.20,18.09,0.00,0.00,0.00,30.15,M,10.00,M,CLR,M,M,M,M,M,M,M,M,M,M,M,M,M,M,84.22,KMEV 161735Z AUTO 00000KT 10SM CLR 31/04 A3015 RMK AO2,M
CXP,2022-07-16 17:35,-119.7326,39.1923,1431.00,89.60,37.40,15.92,170.00,5.00,0.00,30.17,M,10.00,M,CLR,M,M,M,M,M,M,M,M,M,M,M,M,M,M,85.67,KCXP 161735Z AUTO 17005KT 10SM CLR 32/03 A3017 RMK AO2,M
BVU,2022-07-16 17:35,-114.8611,35.9475,671.00,M,M,M,M,M,0.00,M,M,M,M,M,M,M,M,M,M,M,M,M,M,M,M,M,M,M,M,KBVU 161735Z AUTO RMK AO2 PNO PWINO TSNO,M
BAM,2022-07-16 17:35,-116.8743,40.5990,1382.36,M,M,M,100.00,3.00,0.00,30.17,M,7.00,M,CLR,M,M,M,M,M,M,M,M,M,M,M,M,M,M,M,KBAM 161735Z AUTO 10003KT 7SM CLR A3017 RMK AO1,M
TMT,2022-07-16 17:35,-117.1971,39.4643,1749.34,81.00,48.60,32.24,10.00,4.00,0.00,30.26,M,10.00,M,CLR,M,M,M,M,M,M,M,M,M,M,M,M,M,M,79.98,KTMT 161735Z AUTO 01004KT 10SM CLR 27/09 A3026 RMK AO2 T02720092,M
HTH,2022-07-16 17:35,-118.6315,38.5448,1282.89,87.80,48.20,25.52,60.00,8.00,0.00,30.12,M,10.00,M,CLR,M,M,M,M,M,M,M,M,M,M,M,M,M,M,84.87,KHTH 161735Z AUTO 06008KT 10SM CLR 31/09 A3012 RMK A01,M
RTS,2022-07-16 17:35,-119.8764,39.6682,1539.00,86.00,35.60,16.63,0.00,0.00,0.00,30.20,M,10.00,M,CLR,M,M,M,M,M,M,M,M,M,M,M,M,M,M,82.69,KRTS 161735Z AUTO 00000KT 10SM CLR 30/02 A3020 RMK AO2,M
LOL,2022-07-16 17:53,-118.5701,40.0684,1192.43,92.00,46.00,20.65,M,5.00,0.00,30.10,1014.10,10.00,M,CLR,M,M,M,M,M,M,M,M,M,M,M,M,M,M,88.28,KLOL 161753Z AUTO VRB05KT 10SM CLR 33/08 A3010 RMK AO2 SLP141 T03330078 10333 20128 58004,M
DRA,2022-07-16 17:53,-116.0278,36.6206,1009.00,97.00,49.00,19.67,M,3.00,0.00,30.05,1011.30,10.00,M,CLR,M,M,M,M,M,M,M,M,M,M,M,M,M,M,93.69,KDRA 161753Z AUTO VRB03KT 10SM CLR 36/09 A3005 RMK AO2 SLP113 T03610094 10367 20272 58006,M
VGT,2022-07-16 17:53,-115.1933,36.2111,667.00,103.00,52.00,18.47,M,M,0.00,29.95,1012.40,10.00,M,CLR,M,M,M,M,M,M,M,M,M,M,M,M,M,M,100.60,KVGT 161753Z AUTO 10SM CLR 39/11 A2995 RMK AO2 SLP124 T03940111 10400 20328 58006,M
P68,2022-07-16 17:53,-116.0056,39.6014,1993.00,84.00,46.00,26.52,M,3.00,0.00,30.27,1015.70,M,M,M,M,M,M,M,M,M,M,M,M,M,M,M,M,M,81.69,KP68 161753Z AUTO VRB03KT 29/08 A3027 RMK AO1 SLP157 T02890078 10289 20106 58006,M
ELY,2022-07-16 17:53,-114.8453,39.2950,1909.00,85.00,42.00,22.20,130.00,5.00,0.00,30.30,1014.30,10.00,M,CLR,M,M,M,M,M,M,M,M,M,M,M,M,M,M,82.08,KELY 161753Z AUTO 13005KT 10SM CLR 29/06 A3030 RMK AO2 SLP143 T02940056 10300 20094 56008,M
BAM,2022-07-16 17:55,-116.8743,40.5990,1382.36,M,M,M,0.00,0.00,0.00,30.17,M,10.00,M,CLR,M,M,M,M,M,M,M,M,M,M,M,M,M,M,M,KBAM 161755Z AUTO 00000KT 10SM CLR A3017 RMK AO1,M
MEV,2022-07-16 17:55,-119.7500,38.9963,1441.42,89.60,37.40,15.92,M,3.00,0.00,30.15,M,10.00,M,CLR,M,M,M,M,M,M,M,M,M,M,M,M,M,M,85.67,KMEV 161755Z AUTO VRB03KT 10SM CLR 32/03 A3015 RMK AO2,M
05U,2022-07-16 17:55,-116.0051,39.6042,1811.23,86.00,44.60,23.59,0.00,0.00,0.00,30.30,M,10.00,M,CLR,M,M,M,M,M,M,M,M,M,M,M,M,M,M,83.07,K05U 161755Z AUTO 00000KT 10SM CLR 30/07 A3030 RMK A01,M
RTS,2022-07-16 17:55,-119.8764,39.6682,1539.00,86.00,33.80,15.48,M,6.00,0.00,30.19,M,10.00,12.00,CLR,M,M,M,M,M,M,M,M,M,M,M,M,M,M,82.66,KRTS 161755Z AUTO VRB06G12KT 10SM CLR 30/01 A3019 RMK AO2,M
BVU,2022-07-16 17:55,-114.8611,35.9475,671.00,M,M,M,M,M,0.00,M,M,M,M,M,M,M,M,M,M,M,M,M,M,M,M,M,M,M,M,KBVU 161755Z AUTO RMK AO2 PNO PWINO TSNO,M
CXP,2022-07-16 17:55,-119.7326,39.1923,1431.00,89.60,37.40,15.92,80.00,6.00,0.00,30.16,M,10.00,M,CLR,M,M,M,M,M,M,M,M,M,M,M,M,M,M,85.67,KCXP 161755Z AUTO 08006KT 10SM CLR 32/03 A3016 RMK AO2,M
RNO,2022-07-16 17:55,-119.7711,39.4839,1341.00,89.00,44.00,20.97,M,5.00,0.00,30.13,1013.50,10.00,M,CLR,M,M,M,M,M,M,M,M,M,M,M,M,M,M,85.59,KRNO 161755Z VRB05KT 10SM CLR 32/07 A3013 RMK AO2 SLP135 T03170067 10317 20200 58007,M
HTH,2022-07-16 17:55,-118.6315,38.5448,1282.89,89.60,48.20,24.11,M,5.00,0.00,30.11,M,10.00,10.00,CLR,M,M,M,M,M,M,M,M,M,M,M,M,M,M,86.44,KHTH 161755Z AUTO VRB05G10KT 10SM CLR 32/09 A3011 RMK A01,M
TMT,2022-07-16 17:55,-117.1971,39.4643,1749.34,M,M,M,340.00,4.00,0.00,30.25,M,10.00,M,CLR,M,M,M,M,M,M,M,M,M,M,M,M,M,M,M,KTMT 161755Z AUTO 34004KT 10SM CLR A3025 RMK AO2,M
NFL,2022-07-16 17:56,-118.7010,39.4166,1199.00,91.00,45.00,20.45,M,6.00,0.00,30.09,1015.70,10.00,M,CLR,M,M,M,M,M,M,M,M,M,M,M,M,M,M,87.35,KNFL 161756Z VRB06KT 10SM CLR 33/07 A3009 RMK AO2 SLP157 T03280072 10333 20200 58006,M
LAS,2022-07-16 17:56,-115.1634,36.0719,663.00,101.00,53.00,20.42,350.00,4.00,0.00,29.96,1011.30,10.00,M,SCT,M,M,M,14000.00,M,M,M,M,M,M,M,M,M,M,98.82,KLAS 161756Z 35004KT 10SM SCT140 38/12 A2996 RMK AO2 SLP113 VIRGA DSNT NW TCU DSNT NW T03830117 10383 20306 58006,M
EKO,2022-07-16 17:56,-115.7860,40.8242,1367.00,88.00,41.00,19.28,M,3.00,0.00,30.20,1015.70,10.00,M,CLR,M,M,M,M,M,M,M,M,M,M,M,M,M,M,84.46,KEKO 161756Z AUTO VRB03KT 10SM CLR 31/05 A3020 RMK AO2 SLP157 T03110050 10311 20167 58009,M
WMC,2022-07-16 17:56,-117.8072,40.9019,1315.00,93.00,34.00,12.51,0.00,0.00,0.00,30.12,1013.60,10.00,M,CLR,M,M,M,M,M,M,M,M,M,M,M,M,M,M,88.42,KWMC 161756Z AUTO 00000KT 10SM CLR 34/01 A3012 RMK AO2 SLP136 T03390011 10339 20144 58007 TSNO,M
HND,2022-07-16 17:56,-115.1344,35.9729,742.79,102.00,55.00,21.17,50.00,5.00,0.00,30.00,1013.70,10.00,M,CLR,M,M,M,M,M,M,M,M,M,M,M,M,M,M,100.66,KHND 161756Z 05005KT 10SM CLR 39/13 A3000 RMK AO2 SLP137 T03890128 10389 20283 58006,M
TPH,2022-07-16 17:56,-117.0904,38.0505,1654.00,88.00,48.00,25.17,190.00,9.00,0.00,30.24,1014.40,10.00,M,CLR,M,M,M,M,M,M,M,M,M,M,M,M,M,M,85.02,KTPH 161756Z AUTO 19009KT 10SM CLR 31/09 A3024 RMK AO2 SLP144 T03110089 10311 20178 58006,M
INS,2022-07-16 17:58,-115.6733,36.5872,955.00,97.30,46.80,18.01,0.00,0.00,0.00,30.03,M,10.00,M,CLR,M,M,M,M,M,M,M,M,M,M,M,M,M,M,93.61,KINS 161758Z AUTO 00000KT 10SM CLR 36/08 A3003 RMK AO2 SLPNO T03630082 10363 20253 58009 $,M
LSV,2022-07-16 17:58,-115.0343,36.2362,570.00,109.60,51.40,14.82,0.00,0.00,0.00,29.93,M,10.00,M,CLR,M,M,M,M,M,M,M,M,M,M,M,M,M,M,107.30,KLSV 161758Z AUTO 00000KT 10SM CLR 43/11 A2993 RMK AO2 SLPNO T04310108 10431 20312 58007 $,M
BAM,2022-07-16 18:15,-116.8743,40.5990,1382.36,M,M,M,0.00,0.00,0.00,30.16,M,10.00,M,CLR,M,M,M,M,M,M,M,M,M,M,M,M,M,M,M,KBAM 161815Z AUTO 00000KT 10SM CLR A3016 RMK AO1,M
TMT,2022-07-16 18:15,-117.1971,39.4643,1749.34,M,M,M,30.00,3.00,0.00,30.25,M,10.00,M,CLR,M,M,M,M,M,M,M,M,M,M,M,M,M,M,M,KTMT 161815Z AUTO 03003KT 10SM CLR A3025 RMK AO2,M
MEV,2022-07-16 18:15,-119.7500,38.9963,1441.42,91.40,35.60,14.02,0.00,0.00,0.00,30.14,M,10.00,M,CLR,M,M,M,M,M,M,M,M,M,M,M,M,M,M,87.17,KMEV 161815Z AUTO 00000KT 10SM CLR 33/02 A3014 RMK AO2,M
BVU,2022-07-16 18:15,-114.8611,35.9475,671.00,M,M,M,M,M,0.00,M,M,M,M,M,M,M,M,M,M,M,M,M,M,M,M,M,M,M,M,KBVU 161815Z AUTO RMK AO2 PNO PWINO TSNO,M
CXP,2022-07-16 18:15,-119.7326,39.1923,1431.00,91.40,35.60,14.02,190.00,5.00,0.00,30.16,M,10.00,M,CLR,M,M,M,M,M,M,M,M,M,M,M,M,M,M,87.17,KCXP 161815Z AUTO 19005KT 10SM CLR 33/02 A3016 RMK AO2,M
05U,2022-07-16 18:15,-116.0051,39.6042,1811.23,86.00,42.80,22.02,0.00,0.00,0.00,30.30,M,10.00,M,CLR,M,M,M,M,M,M,M,M,M,M,M,M,M,M,82.95,K05U 161815Z AUTO 00000KT 10SM CLR 30/06 A3030 RMK A01,M
HTH,2022-07-16 18:15,-118.6315,38.5448,1282.89,89.60,48.20,24.11,0.00,0.00,0.00,30.10,M,10.00,M,CLR,M,M,M,M,M,M,M,M,M,M,M,M,M,M,86.44,KHTH 161815Z AUTO 00000KT 10SM CLR 32/09 A3010 RMK A01,M
RTS,2022-07-16 18:15,-119.8764,39.6682,1539.00,87.80,30.20,12.64,220.00,7.00,0.00,30.20,M,10.00,15.00,CLR,M,M,M,M,M,M,M,M,M,M,M,M,M,M,84.01,KRTS 161815Z AUTO 22007G15KT 10SM CLR 31/M01 A3020 RMK AO2,M
MEV,2022-07-16 18:35,-119.7500,38.9963,1441.42,93.20,33.80,12.34,270.00,5.00,0.00,30.14,M,10.00,10.00,CLR,M,M,M,M,M,M,M,M,M,M,M,M,M,M,88.55,KMEV 161835Z AUTO 27005G10KT 10SM CLR 34/01 A3014 RMK AO2,M
BAM,2022-07-16 18:35,-116.8743,40.5990,1382.36,M,M,M,290.00,3.00,0.00,30.16,M,10.00,M,CLR,M,M,M,M,M,M,M,M,M,M,M,M,M,M,M,KBAM 161835Z AUTO 29003KT 10SM CLR A3016 RMK AO1,M
TMT,2022-07-16 18:35,-117.1971,39.4643,1749.34,M,M,M,320.00,4.00,0.00,30.25,M,10.00,M,CLR,M,M,M,M,M,M,M,M,M,M,M,M,M,M,M,KTMT 161835Z AUTO 32004KT 10SM CLR A3025 RMK AO2,M
BVU,2022-07-16 18:35,-114.8611,35.9475,671.00,M,M,M,M,M,0.00,M,M,M,M,M,M,M,M,M,M,M,M,M,M,M,M,M,M,M,M,KBVU 161835Z AUTO RMK AO2 PNO PWINO TSNO,M
HTH,2022-07-16 18:35,-118.6315,38.5448,1282.89,93.20,48.20,21.54,0.00,0.00,0.00,30.10,M,10.00,M,CLR,M,M,M,M,M,M,M,M,M,M,M,M,M,M,89.80,KHTH 161835Z AUTO 00000KT 10SM CLR 34/09 A3010 RMK A01,M
CXP,2022-07-16 18:35,-119.7326,39.1923,1431.00,91.40,35.60,14.02,170.00,6.00,0.00,30.16,M,10.00,M,CLR,M,M,M,M,M,M,M,M,M,M,M,M,M,M,87.17,KCXP 161835Z AUTO 17006KT 10SM CLR 33/02 A3016 RMK AO2,M
RTS,2022-07-16 18:35,-119.8764,39.6682,1539.00,89.60,30.20,11.94,240.00,8.00,0.00,30.19,M,10.00,20.00,CLR,M,M,M,M,M,M,M,M,M,M,M,M,M,M,85.34,KRTS 161835Z AUTO 24008G20KT 10SM CLR 32/M01 A3019 RMK AO2,M
05U,2022-07-16 18:35,-116.0051,39.6042,1811.23,87.80,41.00,19.40,0.00,0.00,0.00,30.29,M,10.00,M,CLR,M,M,M,M,M,M,M,M,M,M,M,M,M,M,84.30,K05U 161835Z AUTO 00000KT 10SM CLR 31/05 A3029 RMK A01,M
CXP,2022-07-16 18:50,-119.7326,39.1923,1431.00,93.20,35.60,13.25,200.00,5.00,0.00,30.15,M,10.00,14.00,CLR,M,M,M,M,M,M,M,M,M,M,M,M,M,M,88.76,KCXP 161850Z AUTO 20005G14KT 10SM CLR 34/02 A3015 RMK AO2,M
DRA,2022-07-16 18:53,-116.0278,36.6206,1009.00,101.00,50.00,18.21,200.00,8.00,0.00,30.03,1010.80,10.00,M,CLR,M,M,M,M,M,M,M,M,M,M,M,M,M,M,97.94,KDRA 161853Z AUTO 20008KT 10SM CLR 38/10 A3003 RMK AO2 SLP108 T03830100,M
ELY,2022-07-16 18:53,-114.8453,39.2950,1909.00,89.00,40.00,17.84,320.00,7.00,0.00,30.29,1013.50,10.00,M,CLR,M,M,M,M,M,M,M,M,M,M,M,M,M,M,85.34,KELY 161853Z AUTO 32007KT 290V360 10SM CLR 32/04 A3029 RMK AO2 SLP135 T03170044,M
LOL,2022-07-16 18:53,-118.5701,40.0684,1192.43,93.00,46.00,19.95,160.00,5.00,0.00,30.08,1013.60,10.00,M,CLR,M,M,M,M,M,M,M,M,M,M,M,M,M,M,89.31,KLOL 161853Z AUTO 16005KT 10SM CLR 34/08 A3008 RMK AO2 SLP136 T03390078,M
VGT,2022-07-16 18:53,-115.1933,36.2111,667.00,105.00,53.00,18.01,110.00,5.00,0.00,29.93,1011.80,10.00,M,CLR,M,M,M,M,M,M,M,M,M,M,M,M,M,M,103.30,KVGT 161853Z 11005KT 10SM CLR 41/12 A2993 RMK AO2 LTG DSNT W SLP118 T04060117,M
P68,2022-07-16 18:53,-116.0056,39.6014,1993.00,85.00,42.00,22.20,M,4.00,0.00,30.26,1015.10,M,M,M,M,M,M,M,M,M,M,M,M,M,M,M,M,M,82.08,KP68 161853Z AUTO VRB04KT 29/06 A3026 RMK AO1 SLP151 T02940056,M
BAM,2022-07-16 18:55,-116.8743,40.5990,1382.36,M,M,M,240.00,5.00,0.00,30.15,M,10.00,M,CLR,M,M,M,M,M,M,M,M,M,M,M,M,M,M,M,KBAM 161855Z AUTO 24005KT 10SM CLR A3015 RMK AO1,M
05U,2022-07-16 18:55,-116.0051,39.6042,1811.23,87.80,42.80,20.79,0.00,0.00,0.00,30.29,M,10.00,M,CLR,M,M,M,M,M,M,M,M,M,M,M,M,M,M,84.40,K05U 161855Z AUTO 00000KT 10SM CLR 31/06 A3029 RMK A01,M
BVU,2022-07-16 18:55,-114.8611,35.9475,671.00,M,M,M,M,M,0.00,M,M,M,M,M,M,M,M,M,M,M,M,M,M,M,M,M,M,M,M,KBVU 161855Z AUTO RMK AO2 PNO PWINO TSNO,M
RNO,2022-07-16 18:55,-119.7711,39.4839,1341.00,94.00,39.00,14.82,300.00,4.00,0.00,30.12,1012.70,10.00,M,CLR,M,M,M,M,M,M,M,M,M,M,M,M,M,M,89.54,KRNO 161855Z 30004KT 10SM CLR 34/04 A3012 RMK AO2 SLP127 T03440039,M
MEV,2022-07-16 18:55,-119.7500,38.9963,1441.42,93.20,33.80,12.34,250.00,5.00,0.00,30.14,M,10.00,M,CLR,M,M,M,M,M,M,M,M,M,M,M,M,M,M,88.55,KMEV 161855Z AUTO 25005KT 10SM CLR 34/01 A3014 RMK AO2,M
TMT,2022-07-16 18:55,-117.1971,39.4643,1749.34,M,M,M,0.00,0.00,0.00,30.24,M,10.00,M,CLR,M,M,M,M,M,M,M,M,M,M,M,M,M,M,M,KTMT 161855Z AUTO 00000KT 10SM CLR A3024 RMK AO2,M
HTH,2022-07-16 18:55,-118.6315,38.5448,1282.89,93.20,46.40,20.13,350.00,8.00,0.00,30.09,M,10.00,M,CLR,M,M,M,M,M,M,M,M,M,M,M,M,M,M,89.55,KHTH 161855Z AUTO 35008KT 330V030 10SM CLR 34/08 A3009 RMK A01,M
RTS,2022-07-16 18:55,-119.8764,39.6682,1539.00,89.60,32.00,12.84,250.00,12.00,0.00,30.19,M,10.00,M,CLR,M,M,M,M,M,M,M,M,M,M,M,M,M,M,85.54,KRTS 161855Z AUTO 25012KT 10SM CLR 32/M00 A3019 RMK AO2,M
TPH,2022-07-16 18:56,-117.0904,38.0505,1654.00,90.00,46.00,21.91,180.00,9.00,0.00,30.22,1013.90,10.00,M,CLR,M,M,M,M,M,M,M,M,M,M,M,M,M,M,86.55,KTPH 161856Z AUTO 18009KT 150V210 10SM CLR 32/08 A3022 RMK AO2 SLP139 T03220078,M
HND,2022-07-16 18:56,-115.1344,35.9729,742.79,104.00,55.00,19.95,60.00,6.00,0.00,29.98,1013.10,10.00,M,CLR,M,M,M,M,M,M,M,M,M,M,M,M,M,M,102.85,KHND 161856Z 06006KT 10SM CLR 40/13 A2998 RMK AO2 SLP131 T04000128,M
EKO,2022-07-16 18:56,-115.7860,40.8242,1367.00,92.00,42.00,17.79,M,3.00,0.00,30.18,1015.10,10.00,M,CLR,M,M,M,M,M,M,M,M,M,M,M,M,M,M,87.92,KEKO 161856Z AUTO VRB03KT 10SM CLR 33/06 A3018 RMK AO2 SLP151 T03330056,M
LAS,2022-07-16 18:56,-115.1634,36.0719,663.00,103.00,53.00,19.23,80.00,3.00,0.00,29.95,1010.70,10.00,M,SCT,M,M,M,14000.00,M,M,M,M,M,M,M,M,M,M,100.96,KLAS 161856Z 08003KT 10SM SCT140 39/12 A2995 RMK AO2 SLP107 TCU S-NW T03940117,M
NFL,2022-07-16 18:56,-118.7010,39.4166,1199.00,95.00,44.00,17.45,M,4.00,0.00,30.07,1015.10,10.00,M,FEW,M,M,M,9000.00,M,M,M,M,M,M,M,M,M,M,91.00,KNFL 161856Z VRB04KT 10SM FEW090 35/07 A3007 RMK AO2 SLP151 T03500067,M
WMC,2022-07-16 18:56,-117.8072,40.9019,1315.00,97.00,40.00,13.96,240.00,5.00,0.00,30.10,1012.80,10.00,17.00,CLR,M,M,M,M,M,M,M,M,M,M,M,M,M,M,92.48,KWMC 161856Z AUTO 24005G17KT 10SM CLR 36/04 A3010 RMK AO2 SLP128 T03610044 TSNO,M
INS,2022-07-16 18:58,-115.6733,36.5872,955.00,100.00,49.00,17.96,60.00,3.00,0.00,30.02,1010.70,10.00,M,CLR,M,M,M,M,M,M,M,M,M,M,M,M,M,M,96.75,KINS 161858Z AUTO 06003KT 10SM CLR 38/09 A3002 RMK AO2 SLP107 T03780094 $,M
LSV,2022-07-16 18:58,-115.0343,36.2362,570.00,114.40,49.30,11.94,180.00,3.00,0.00,29.91,1009.50,10.00,M,CLR,M,M,M,M,M,M,M,M,M,M,M,M,M,M,111.04,KLSV 161858Z AUTO 18003KT 10SM CLR 46/10 A2991 RMK AO2 SLP095 T04580096 $,M
BVU,2022-07-16 19:15,-114.8611,35.9475,671.00,M,M,M,M,M,0.00,M,M,M,M,M,M,M,M,M,M,M,M,M,M,M,M,M,M,M,M,KBVU 161915Z AUTO RMK AO2 PNO PWINO TSNO,M
05U,2022-07-16 19:15,-116.0051,39.6042,1811.23,87.80,42.80,20.79,0.00,0.00,0.00,30.28,M,10.00,M,CLR,M,M,M,M,M,M,M,M,M,M,M,M,M,M,84.40,K05U 161915Z AUTO 00000KT 10SM CLR 31/06 A3028 RMK A01,M
RTS,2022-07-16 19:15,-119.8764,39.6682,1539.00,89.60,32.00,12.84,0.00,0.00,0.00,30.18,M,10.00,13.00,CLR,M,M,M,M,M,M,M,M,M,M,M,M,M,M,85.54,KRTS 161915Z AUTO 00000G13KT 10SM CLR 32/M00 A3018 RMK AO2,M
MEV,2022-07-16 19:15,-119.7500,38.9963,1441.42,93.20,35.60,13.25,290.00,6.00,0.00,30.13,M,10.00,11.00,CLR,M,M,M,M,M,M,M,M,M,M,M,M,M,M,88.76,KMEV 161915Z AUTO 29006G11KT 10SM CLR 34/02 A3013 RMK AO2,M
CXP,2022-07-16 19:15,-119.7326,39.1923,1431.00,93.20,35.60,13.25,300.00,8.00,0.00,30.15,M,10.00,M,CLR,M,M,M,M,M,M,M,M,M,M,M,M,M,M,88.76,KCXP 161915Z AUTO 30008KT 10SM CLR 34/02 A3015 RMK AO2,M
TMT,2022-07-16 19:15,-117.1971,39.4643,1749.34,M,M,M,50.00,5.00,0.00,30.23,M,10.00,M,CLR,M,M,M,M,M,M,M,M,M,M,M,M,M,M,M,KTMT 161915Z AUTO 05005KT 10SM CLR A3023 RMK AO2,M
HTH,2022-07-16 19:15,-118.6315,38.5448,1282.89,95.00,46.40,19.04,350.00,8.00,0.00,30.08,M,10.00,M,CLR,M,M,M,M,M,M,M,M,M,M,M,M,M,M,91.29,KHTH 161915Z AUTO 35008KT 320V030 10SM CLR 35/08 A3008 RMK A01,M
BAM,2022-07-16 19:15,-116.8743,40.5990,1382.36,M,M,M,0.00,0.00,0.00,30.14,M,10.00,M,CLR,M,M,M,M,M,M,M,M,M,M,M,M,M,M,M,KBAM 161915Z AUTO 00000KT 10SM CLR A3014 RMK AO1,M
CXP,2022-07-16 19:30,-119.7326,39.1923,1431.00,93.20,35.60,13.25,M,3.00,0.00,30.14,M,10.00,M,CLR,M,M,M,M,M,M,M,M,M,M,M,M,M,M,88.76,KCXP 161930Z AUTO VRB03KT 10SM CLR 34/02 A3014 RMK AO2,M
HTH,2022-07-16 19:35,-118.6315,38.5448,1282.89,95.00,46.40,19.04,360.00,9.00,0.00,30.07,M,10.00,M,CLR,M,M,M,M,M,M,M,M,M,M,M,M,M,M,91.29,KHTH 161935Z AUTO 36009KT 10SM CLR 35/08 A3007 RMK A01,M
TMT,2022-07-16 19:35,-117.1971,39.4643,1749.34,M,M,M,80.00,4.00,0.00,30.22,M,10.00,M,CLR,M,M,M,M,M,M,M,M,M,M,M,M,M,M,M,KTMT 161935Z AUTO 08004KT 10SM CLR A3022 RMK AO2,M
BVU,2022-07-16 19:35,-114.8611,35.9475,671.00,M,M,M,M,M,0.00,M,M,M,M,M,M,M,M,M,M,M,M,M,M,M,M,M,M,M,M,KBVU 161935Z AUTO RMK AO2 PNO PWINO TSNO,M
RTS,2022-07-16 19:35,-119.8764,39.6682,1539.00,91.40,30.20,11.28,240.00,15.00,0.00,30.18,M,10.00,M,CLR,M,M,M,M,M,M,M,M,M,M,M,M,M,M,86.71,KRTS 161935Z AUTO 24015KT 10SM CLR 33/M01 A3018 RMK AO2,M
05U,2022-07-16 19:35,-116.0051,39.6042,1811.23,89.60,42.80,19.64,0.00,0.00,0.00,30.27,M,10.00,M,CLR,M,M,M,M,M,M,M,M,M,M,M,M,M,M,85.93,K05U 161935Z AUTO 00000KT 10SM CLR 32/06 A3027 RMK A01,M
BAM,2022-07-16 19:35,-116.8743,40.5990,1382.36,M,M,M,120.00,5.00,0.00,30.13,M,10.00,M,CLR,M,M,M,M,M,M,M,M,M,M,M,M,M,M,M,KBAM 161935Z AUTO 12005KT 10SM CLR A3013 RMK AO1,M
MEV,2022-07-16 19:35,-119.7500,38.9963,1441.42,93.20,35.60,13.25,290.00,7.00,0.00,30.13,M,10.00,12.00,CLR,M,M,M,M,M,M,M,M,M,M,M,M,M,M,88.76,KMEV 161935Z AUTO 29007G12KT 260V320 10SM CLR 34/02 A3013 RMK AO2,M
VGT,2022-07-16 19:53,-115.1933,36.2111,667.00,108.00,53.00,16.54,M,3.00,0.00,29.91,1010.90,10.00,M,CLR,M,M,M,M,M,M,M,M,M,M,M,M,M,M,106.34,KVGT 161953Z VRB03KT 10SM CLR 42/12 A2991 RMK AO2 LTG DSNT W SLP109 T04220117,M
P68,2022-07-16 19:53,-116.0056,39.6014,1993.00,89.00,42.00,19.42,M,5.00,0.00,30.24,1014.70,M,M,M,M,M,M,M,M,M,M,M,M,M,M,M,M,M,85.45,KP68 161953Z AUTO VRB05KT 32/06 A3024 RMK AO1 SLP147 T03170056,M
LOL,2022-07-16 19:53,-118.5701,40.0684,1192.43,96.00,45.00,17.46,0.00,0.00,0.00,30.06,1013.00,10.00,M,CLR,M,M,M,M,M,M,M,M,M,M,M,M,M,M,92.17,KLOL 161953Z AUTO 00000KT 10SM CLR 36/07 A3006 RMK AO2 SLP130 T03560072,M
ELY,2022-07-16 19:53,-114.8453,39.2950,1909.00,90.00,40.00,17.34,M,5.00,0.00,30.27,1013.20,10.00,M,CLR,M,M,M,M,M,M,M,M,M,M,M,M,M,M,86.11,KELY 161953Z AUTO VRB05KT 10SM CLR 32/04 A3027 RMK AO2 SLP132 T03220044 $,M
DRA,2022-07-16 19:53,-116.0278,36.6206,1009.00,104.00,48.00,15.40,190.00,8.00,0.00,30.02,1010.20,10.00,M,CLR,M,M,M,M,M,M,M,M,M,M,M,M,M,M,100.60,KDRA 161953Z AUTO 19008KT 10SM CLR 40/09 A3002 RMK AO2 SLP102 T04000089,M
MEV,2022-07-16 19:55,-119.7500,38.9963,1441.42,95.00,35.60,12.53,M,6.00,0.00,30.12,M,10.00,13.00,CLR,M,M,M,M,M,M,M,M,M,M,M,M,M,M,90.25,KMEV 161955Z AUTO VRB06G13KT 10SM CLR 35/02 A3012 RMK AO2,M
RTS,2022-07-16 19:55,-119.8764,39.6682,1539.00,91.40,30.20,11.28,300.00,9.00,0.00,30.17,M,10.00,18.00,CLR,M,M,M,M,M,M,M,M,M,M,M,M,M,M,86.71,KRTS 161955Z AUTO 30009G18KT 10SM CLR 33/M01 A3017 RMK AO2,M
BVU,2022-07-16 19:55,-114.8611,35.9475,671.00,M,M,M,M,M,0.00,M,M,M,M,M,M,M,M,M,M,M,M,M,M,M,M,M,M,M,M,KBVU 161955Z AUTO RMK AO2 PNO PWINO TSNO,M
CXP,2022-07-16 19:55,-119.7326,39.1923,1431.00,93.20,33.80,12.34,240.00,8.00,0.00,30.14,M,10.00,14.00,CLR,M,M,M,M,M,M,M,M,M,M,M,M,M,M,88.55,KCXP 161955Z AUTO 24008G14KT 200V280 10SM CLR 34/01 A3014 RMK AO2,M
RNO,2022-07-16 19:55,-119.7711,39.4839,1341.00,95.00,37.00,13.25,M,4.00,0.00,30.10,1012.10,10.00,M,FEW,M,M,M,6000.00,M,M,M,M,M,M,M,M,M,M,90.44,KRNO 161955Z VRB04KT 10SM FEW060 35/03 A3010 RMK AO2 SLP121 T03500028,M
TMT,2022-07-16 19:55,-117.1971,39.4643,1749.34,M,M,M,100.00,4.00,0.00,30.22,M,10.00,M,CLR,M,M,M,M,M,M,M,M,M,M,M,M,M,M,M,KTMT 161955Z AUTO 10004KT 10SM CLR A3022 RMK AO2,M
HTH,2022-07-16 19:55,-118.6315,38.5448,1282.89,96.80,44.60,16.83,10.00,8.00,0.00,30.06,M,10.00,M,CLR,M,M,M,M,M,M,M,M,M,M,M,M,M,M,92.79,KHTH 161955Z AUTO 01008KT 10SM CLR 36/07 A3006 RMK A01,M
BAM,2022-07-16 19:55,-116.8743,40.5990,1382.36,M,M,M,0.00,0.00,0.00,30.13,M,10.00,M,CLR,M,M,M,M,M,M,M,M,M,M,M,M,M,M,M,KBAM 161955Z AUTO 00000KT 10SM CLR A3013 RMK AO1,M
05U,2022-07-16 19:55,-116.0051,39.6042,1811.23,89.60,42.80,19.64,0.00,0.00,0.00,30.27,M,10.00,M,CLR,M,M,M,M,M,M,M,M,M,M,M,M,M,M,85.93,K05U 161955Z AUTO 00000KT 10SM CLR 32/06 A3027 RMK A01,M
WMC,2022-07-16 19:56,-117.8072,40.9019,1315.00,97.00,43.00,15.73,240.00,11.00,0.00,30.08,1012.40,10.00,20.00,FEW,M,M,M,11000.00,M,M,M,M,M,M,M,M,M,M,92.79,KWMC 161956Z AUTO 24011G20KT 10SM FEW110 36/06 A3008 RMK AO2 SLP124 T03610061 TSNO,M
NFL,2022-07-16 19:56,-118.7010,39.4166,1199.00,97.00,45.00,16.98,0.00,0.00,0.00,30.06,1014.70,10.00,M,FEW,M,M,M,9000.00,M,M,M,M,M,M,M,M,M,M,93.04,KNFL 161956Z 00000KT 10SM FEW090 36/07 A3006 RMK AO2 SLP147 T03610072,M
TPH,2022-07-16 19:56,-117.0904,38.0505,1654.00,93.00,46.00,19.95,M,M,0.00,30.20,1012.70,10.00,M,FEW,M,M,M,9500.00,M,M,M,M,M,M,M,M,M,M,89.31,KTPH 161956Z AUTO 10SM FEW095 34/08 A3020 RMK AO2 SLP127 T03390078,M
HND,2022-07-16 19:56,-115.1344,35.9729,742.79,105.00,55.00,19.31,0.00,0.00,0.00,29.96,1012.30,10.00,M,CLR,M,M,M,M,M,M,M,M,M,M,M,M,M,M,104.04,KHND 161956Z 00000KT 10SM CLR 41/13 A2996 RMK AO2 LTG DSNT NW SLP123 T04060128,M
EKO,2022-07-16 19:56,-115.7860,40.8242,1367.00,95.00,41.00,15.49,300.00,5.00,0.00,30.17,1014.20,10.00,M,CLR,M,M,M,M,M,M,M,M,M,M,M,M,M,M,90.70,KEKO 161956Z AUTO 30005KT 10SM CLR 35/05 A3017 RMK AO2 SLP142 T03500050,M
LAS,2022-07-16 19:56,-115.1634,36.0719,663.00,105.00,53.00,18.01,M,4.00,0.00,29.92,1009.90,10.00,M,SCT,M,M,M,13000.00,M,M,M,M,M,M,M,M,M,M,103.30,KLAS 161956Z VRB04KT 10SM SCT130 41/12 A2992 RMK AO2 LTG DSNT NW SLP099 CB DSNT E-SE TCU S-NW T04060117,M
INS,2022-07-16 19:58,-115.6733,36.5872,955.00,101.00,46.40,15.91,0.00,0.00,0.00,30.00,1009.80,10.00,M,CLR,M,M,M,M,M,M,M,M,M,M,M,M,M,M,97.13,KINS 161958Z AUTO 00000KT 10SM CLR 38/08 A3000 RMK AO2 LTG DSNT S SLP098 T03830080 $,M
LSV,2022-07-16 19:58,-115.0343,36.2362,570.00,113.20,50.40,12.87,0.00,0.00,0.00,29.88,1008.60,10.00,M,CLR,M,M,M,M,M,M,M,M,M,M,M,M,M,M,110.38,KLSV 161958Z AUTO 00000KT 10SM CLR 45/10 A2988 RMK AO2 SLP086 T04510102 $,M
05U,2022-07-16 20:15,-116.0051,39.6042,1811.23,91.40,41.00,17.32,0.00,0.00,0.00,30.26,M,10.00,M,CLR,M,M,M,M,M,M,M,M,M,M,M,M,M,M,87.40,K05U 162015Z AUTO 00000KT 10SM CLR 33/05 A3026 RMK A01,M
MEV,2022-07-16 20:15,-119.7500,38.9963,1441.42,95.00,37.40,13.46,250.00,7.00,0.00,30.12,M,10.00,M,CLR,M,M,M,M,M,M,M,M,M,M,M,M,M,M,90.46,KMEV 162015Z AUTO 25007KT 220V280 10SM CLR 35/03 A3012 RMK AO2,M
BAM,2022-07-16 20:15,-116.8743,40.5990,1382.36,M,M,M,350.00,3.00,0.00,30.12,M,10.00,M,CLR,M,M,M,M,M,M,M,M,M,M,M,M,M,M,M,KBAM 162015Z AUTO 35003KT 10SM CLR A3012 RMK AO1,M
HTH,2022-07-16 20:15,-118.6315,38.5448,1282.89,96.80,44.60,16.83,M,4.00,0.00,30.05,M,10.00,11.00,CLR,M,M,M,M,M,M,M,M,M,M,M,M,M,M,92.79,KHTH 162015Z AUTO VRB04G11KT 10SM CLR 36/07 A3005 RMK A01,M
TMT,2022-07-16 20:15,-117.1971,39.4643,1749.34,M,M,M,50.00,3.00,0.00,30.21,M,10.00,M,SCT,M,M,M,12000.00,M,M,M,M,M,M,M,M,M,M,M,KTMT 162015Z AUTO 05003KT 10SM SCT120 A3021 RMK AO2,M
CXP,2022-07-16 20:15,-119.7326,39.1923,1431.00,95.00,33.80,11.67,M,6.00,0.00,30.13,M,10.00,13.00,CLR,M,M,M,M,M,M,M,M,M,M,M,M,M,M,89.97,KCXP 162015Z AUTO VRB06G13KT 10SM CLR 35/01 A3013 RMK AO2,M
RTS,2022-07-16 20:15,-119.8764,39.6682,1539.00,93.20,30.20,10.67,260.00,15.00,0.00,30.17,M,10.00,20.00,CLR,M,M,M,M,M,M,M,M,M,M,M,M,M,M,88.09,KRTS 162015Z AUTO 26015G20KT 10SM CLR 34/M01 A3017 RMK AO2,M
BVU,2022-07-16 20:15,-114.8611,35.9475,671.00,M,M,M,M,M,0.00,M,M,M,M,M,M,M,M,M,M,M,M,M,M,M,M,M,M,M,M,KBVU 162015Z AUTO RMK AO2 PNO PWINO TSNO,M
CXP,2022-07-16 20:35,-119.7326,39.1923,1431.00,96.80,33.80,11.04,220.00,7.00,0.00,30.13,M,10.00,13.00,CLR,M,M,M,M,M,M,M,M,M,M,M,M,M,M,91.44,KCXP 162035Z AUTO 22007G13KT 10SM CLR 36/01 A3013 RMK AO2,M
RTS,2022-07-16 20:35,-119.8764,39.6682,1539.00,93.20,30.20,10.67,260.00,11.00,0.00,30.17,M,10.00,19.00,CLR,M,M,M,M,M,M,M,M,M,M,M,M,M,M,88.09,KRTS 162035Z AUTO 26011G19KT 220V290 10SM CLR 34/M01 A3017 RMK AO2,M
05U,2022-07-16 20:35,-116.0051,39.6042,1811.23,93.20,41.00,16.37,0.00,0.00,0.00,30.25,M,10.00,11.00,CLR,M,M,M,M,M,M,M,M,M,M,M,M,M,M,89.03,K05U 162035Z AUTO 00000G11KT 10SM CLR 34/05 A3025 RMK A01,M
MEV,2022-07-16 20:35,-119.7500,38.9963,1441.42,95.00,35.60,12.53,M,5.00,0.00,30.11,M,10.00,17.00,CLR,M,M,M,M,M,M,M,M,M,M,M,M,M,M,90.25,KMEV 162035Z AUTO VRB05G17KT 10SM CLR 35/02 A3011 RMK AO2,M
BAM,2022-07-16 20:35,-116.8743,40.5990,1382.36,M,M,M,340.00,3.00,0.00,30.11,M,10.00,M,CLR,M,M,M,M,M,M,M,M,M,M,M,M,M,M,M,KBAM 162035Z AUTO 34003KT 10SM CLR A3011 RMK AO1,M
HTH,2022-07-16 20:35,-118.6315,38.5448,1282.89,98.60,44.60,15.93,330.00,8.00,0.00,30.04,M,10.00,13.00,CLR,M,M,M,M,M,M,M,M,M,M,M,M,M,M,94.55,KHTH 162035Z AUTO 33008G13KT 10SM CLR 37/07 A3004 RMK A01,M
TMT,2022-07-16 20:35,-117.1971,39.4643,1749.34,M,M,M,0.00,0.00,0.00,30.21,M,10.00,M,SCT,M,M,M,12000.00,M,M,M,M,M,M,M,M,M,M,M,KTMT 162035Z AUTO 00000KT 10SM SCT120 A3021 RMK AO2,M
BVU,2022-07-16 20:35,-114.8611,35.9475,671.00,M,M,M,M,M,0.00,M,M,M,M,M,M,M,M,M,M,M,M,M,M,M,M,M,M,M,M,KBVU 162035Z AUTO RMK AO2 PNO PWINO TSNO,M
P68,2022-07-16 20:53,-116.0056,39.6014,1993.00,93.00,42.00,17.19,360.00,7.00,0.00,30.21,1013.90,M,M,M,M,M,M,M,M,M,M,M,M,M,M,M,M,M,88.93,KP68 162053Z AUTO 36007KT 330V030 34/06 A3021 RMK AO1 SLP139 T03390056 58017,M
ELY,2022-07-16 20:53,-114.8453,39.2950,1909.00,91.00,37.00,15.00,330.00,10.00,0.00,30.25,1012.80,10.00,18.00,BKN,M,M,M,11000.00,M,M,M,M,M,M,M,M,M,M,86.86,KELY 162053Z AUTO 33010G18KT 10SM BKN110 33/03 A3025 RMK AO2 SLP128 T03280028 58015 $,M
LOL,2022-07-16 20:53,-118.5701,40.0684,1192.43,98.00,41.00,14.08,M,M,0.00,30.04,1012.20,10.00,M,CLR,M,M,M,M,M,M,M,M,M,M,M,M,M,M,93.62,KLOL 162053Z AUTO 10SM CLR 37/05 A3004 RMK AO2 SLP122 T03670050 58019,M
DRA,2022-07-16 20:53,-116.0278,36.6206,1009.00,105.00,47.00,14.30,M,5.00,0.00,29.99,1009.40,10.00,M,CLR,M,M,M,M,M,M,M,M,M,M,M,M,M,M,101.41,KDRA 162053Z AUTO VRB05KT 10SM CLR 41/08 A2999 RMK AO2 SLP094 T04060083 58017,M
VGT,2022-07-16 20:53,-115.1933,36.2111,667.00,107.00,53.00,16.98,0.00,0.00,0.00,29.89,1010.10,10.00,M,CLR,M,M,M,M,M,M,M,M,M,M,M,M,M,M,105.41,KVGT 162053Z 00000KT 10SM CLR 42/12 A2989 RMK AO2 LTG DSNT N SLP101 T04170117 58020,M
CXP,2022-07-16 20:55,-119.7326,39.1923,1431.00,96.80,35.60,11.86,240.00,9.00,0.00,30.12,M,10.00,14.00,CLR,M,M,M,M,M,M,M,M,M,M,M,M,M,M,91.72,KCXP 162055Z AUTO 24009G14KT 10SM CLR 36/02 A3012 RMK AO2,M
TMT,2022-07-16 20:55,-117.1971,39.4643,1749.34,88.50,42.80,20.34,250.00,9.00,0.00,30.21,M,10.00,23.00,SCT,SCT,SCT,M,7000.00,9500.00,12000.00,M,-RA,M,M,M,M,M,M,84.98,KTMT 162055Z AUTO 25009G23KT 170V280 10SM -RA SCT070 SCT095 SCT120 31/06 A3021 RMK AO2 LTG DSNT SE T03140060,M
BVU,2022-07-16 20:55,-114.8611,35.9475,671.00,M,M,M,M,M,0.00,M,M,M,M,M,M,M,M,M,M,M,M,M,M,M,M,M,M,M,M,KBVU 162055Z AUTO RMK AO2 PNO PWINO TSNO,M
RTS,2022-07-16 20:55,-119.8764,39.6682,1539.00,93.20,30.20,10.67,240.00,12.00,0.00,30.16,M,10.00,23.00,CLR,M,M,M,M,M,M,M,M,M,M,M,M,M,M,88.09,KRTS 162055Z AUTO 24012G23KT 10SM CLR 34/M01 A3016 RMK AO2,M
RNO,2022-07-16 20:55,-119.7711,39.4839,1341.00,99.00,37.00,11.72,M,6.00,0.00,30.07,1011.00,10.00,17.00,FEW,M,M,M,6000.00,M,M,M,M,M,M,M,M,M,M,93.81,KRNO 162055Z VRB06G17KT 10SM FEW060 37/03 A3007 RMK AO2 SLP110 T03720028 58019,M
05U,2022-07-16 20:55,-116.0051,39.6042,1811.23,95.00,42.80,16.60,M,5.00,0.00,30.24,M,10.00,13.00,CLR,M,M,M,M,M,M,M,M,M,M,M,M,M,M,90.86,K05U 162055Z AUTO VRB05G13KT 10SM CLR 35/06 A3024 RMK A01,M
MEV,2022-07-16 20:55,-119.7500,38.9963,1441.42,96.80,37.40,12.73,250.00,10.00,0.00,30.10,M,10.00,M,CLR,M,M,M,M,M,M,M,M,M,M,M,M,M,M,92.04,KMEV 162055Z AUTO 25010KT 10SM CLR 36/03 A3010 RMK AO2,M
BAM,2022-07-16 20:55,-116.8743,40.5990,1382.36,M,M,M,220.00,6.00,0.00,30.10,M,10.00,M,CLR,M,M,M,M,M,M,M,M,M,M,M,M,M,M,M,KBAM 162055Z AUTO 22006KT 10SM CLR A3010 RMK AO1,M
HTH,2022-07-16 20:55,-118.6315,38.5448,1282.89,98.60,46.40,17.05,M,5.00,0.00,30.04,M,10.00,12.00,CLR,M,M,M,M,M,M,M,M,M,M,M,M,M,M,94.84,KHTH 162055Z AUTO VRB05G12KT 10SM CLR 37/08 A3004 RMK A01,M
HND,2022-07-16 20:56,-115.1344,35.9729,742.79,M,M,M,M,M,0.00,M,M,M,M,M,M,M,M,M,M,M,M,M,M,M,M,M,M,M,M,KHND 162056Z RMK AO2 SLPNO 6//// $,M
WMC,2022-07-16 20:56,-117.8072,40.9019,1315.00,101.00,42.00,13.50,220.00,12.00,0.00,30.05,1011.30,10.00,20.00,FEW,M,M,M,12000.00,M,M,M,M,M,M,M,M,M,M,96.42,KWMC 162056Z AUTO 22012G20KT 10SM FEW120 38/06 A3005 RMK AO2 SLP113 T03830056 58019 TSNO,M
EKO,2022-07-16 20:56,-115.7860,40.8242,1367.00,97.00,41.00,14.57,240.00,7.00,0.00,30.14,1013.20,10.00,15.00,CLR,M,M,M,M,M,M,M,M,M,M,M,M,M,M,92.58,KEKO 162056Z AUTO 24007G15KT 10SM CLR 36/05 A3014 RMK AO2 SLP132 T03610050 58019,M
LAS,2022-07-16 20:56,-115.1634,36.0719,663.00,108.00,52.00,15.88,100.00,7.00,0.00,29.89,1008.70,10.00,16.00,FEW,SCT,M,M,8000.00,13000.00,M,M,M,M,M,M,M,M,M,105.91,KLAS 162056Z 10007G16KT 10SM FEW080 SCT130 42/11 A2989 RMK AO2 SLP087 CB DSNT N AND E-SE AND SW AND NW SH DSNT NW T04220111 58023,M
TPH,2022-07-16 20:56,-117.0904,38.0505,1654.00,95.00,44.00,17.45,110.00,7.00,0.00,30.18,1012.10,10.00,20.00,CLR,M,M,M,M,M,M,M,M,M,M,M,M,M,M,91.00,KTPH 162056Z AUTO 11007G20KT 10SM CLR 35/07 A3018 RMK AO2 SLP121 T03500067 58018,M
NFL,2022-07-16 20:56,-118.7010,39.4166,1199.00,100.00,44.00,14.98,360.00,7.00,0.00,30.03,1014.00,10.00,M,FEW,M,M,M,9000.00,M,M,M,M,M,M,M,M,M,M,95.84,KNFL 162056Z 36007KT 10SM FEW090 38/07 A3003 RMK AO2 SLP140 TCU DSNT SE AND SW T03780067 58017,M
INS,2022-07-16 20:58,-115.6733,36.5872,955.00,102.40,46.00,14.92,190.00,18.00,0.00,29.97,1008.80,10.00,23.00,CLR,M,M,M,M,M,M,M,M,M,M,M,M,M,M,98.52,KINS 162058Z AUTO 19018G23KT 10SM CLR 39/08 A2997 RMK AO2 SLP088 T03910077 58019 $,M
LSV,2022-07-16 20:58,-115.0343,36.2362,570.00,115.30,50.00,11.94,170.00,6.00,0.00,29.85,1007.30,10.00,M,CLR,M,M,M,M,M,M,M,M,M,M,M,M,M,M,112.14,KLSV 162058Z AUTO 17006KT 10SM CLR 46/10 A2985 RMK AO2 SLP073 T04630100 57024 $,M
HND,2022-07-16 21:03,-115.1344,35.9729,742.79,M,M,M,360.00,6.00,0.00,29.92,M,10.00,14.00,CLR,M,M,M,M,M,M,M,M,M,M,M,M,M,M,M,KHND 162103Z 36006G14KT 10SM CLR A2992 RMK IV,M
TMT,2022-07-16 21:15,-117.1971,39.4643,1749.34,M,M,M,130.00,12.00,0.00,30.21,M,10.00,16.00,SCT,M,M,M,8500.00,M,M,M,M,M,M,M,M,M,M,M,KTMT 162115Z AUTO 13012G16KT 10SM SCT085 A3021 RMK AO2 LTG DSNT E,M
MEV,2022-07-16 21:15,-119.7500,38.9963,1441.42,96.80,35.60,11.86,280.00,10.00,0.00,30.10,M,10.00,M,CLR,M,M,M,M,M,M,M,M,M,M,M,M,M,M,91.72,KMEV 162115Z AUTO 28010KT 10SM CLR 36/02 A3010 RMK AO2,M
BAM,2022-07-16 21:15,-116.8743,40.5990,1382.36,M,M,M,240.00,3.00,0.00,30.09,M,10.00,14.00,CLR,M,M,M,M,M,M,M,M,M,M,M,M,M,M,M,KBAM 162115Z AUTO 24003G14KT 10SM CLR A3009 RMK AO1,M
HTH,2022-07-16 21:15,-118.6315,38.5448,1282.89,98.60,44.60,15.93,110.00,7.00,0.00,30.02,M,10.00,M,CLR,M,M,M,M,M,M,M,M,M,M,M,M,M,M,94.55,KHTH 162115Z AUTO 11007KT 10SM CLR 37/07 A3002 RMK A01,M
BVU,2022-07-16 21:15,-114.8611,35.9475,671.00,M,M,M,M,M,0.00,M,M,M,M,M,M,M,M,M,M,M,M,M,M,M,M,M,M,M,M,KBVU 162115Z AUTO RMK AO2 PNO PWINO TSNO,M
CXP,2022-07-16 21:15,-119.7326,39.1923,1431.00,95.00,35.60,12.53,260.00,6.00,0.00,30.12,M,10.00,18.00,CLR,M,M,M,M,M,M,M,M,M,M,M,M,M,M,90.25,KCXP 162115Z AUTO 26006G18KT 10SM CLR 35/02 A3012 RMK AO2,M
RTS,2022-07-16 21:15,-119.8764,39.6682,1539.00,93.20,30.20,10.67,270.00,16.00,0.00,30.15,M,10.00,21.00,CLR,M,M,M,M,M,M,M,M,M,M,M,M,M,M,88.09,KRTS 162115Z AUTO 27016G21KT 10SM CLR 34/M01 A3015 RMK AO2,M
05U,2022-07-16 21:15,-116.0051,39.6042,1811.23,95.00,41.00,15.49,40.00,8.00,0.00,30.23,M,10.00,13.00,CLR,M,M,M,M,M,M,M,M,M,M,M,M,M,M,90.70,K05U 162115Z AUTO 04008G13KT 10SM CLR 35/05 A3023 RMK A01,M
TMT,2022-07-16 21:35,-117.1971,39.4643,1749.34,M,M,M,150.00,13.00,0.00,30.20,M,10.00,M,CLR,M,M,M,M,M,M,M,M,M,M,M,M,M,M,M,KTMT 162135Z AUTO 15013KT 10SM CLR A3020 RMK AO2 LTG DSNT NE AND E,M
RTS,2022-07-16 21:35,-119.8764,39.6682,1539.00,93.20,30.20,10.67,260.00,18.00,0.00,30.15,M,10.00,24.00,CLR,M,M,M,M,M,M,M,M,M,M,M,M,M,M,88.09,KRTS 162135Z AUTO 26018G24KT 10SM CLR 34/M01 A3015 RMK AO2,M
CXP,2022-07-16 21:35,-119.7326,39.1923,1431.00,96.80,35.60,11.86,250.00,11.00,0.00,30.11,M,10.00,17.00,CLR,M,M,M,M,M,M,M,M,M,M,M,M,M,M,91.72,KCXP 162135Z AUTO 25011G17KT 10SM CLR 36/02 A3011 RMK AO2,M
BVU,2022-07-16 21:35,-114.8611,35.9475,671.00,M,M,M,M,M,0.00,M,M,M,M,M,M,M,M,M,M,M,M,M,M,M,M,M,M,M,M,KBVU 162135Z AUTO RMK AO2 PNO PWINO TSNO,M
05U,2022-07-16 21:35,-116.0051,39.6042,1811.23,95.00,39.20,14.44,150.00,4.00,0.00,30.22,M,10.00,12.00,CLR,M,M,M,M,M,M,M,M,M,M,M,M,M,M,90.57,K05U 162135Z AUTO 15004G12KT 10SM CLR 35/04 A3022 RMK A01,M
MEV,2022-07-16 21:35,-119.7500,38.9963,1441.42,96.80,35.60,11.86,260.00,11.00,0.00,30.09,M,10.00,18.00,CLR,M,M,M,M,M,M,M,M,M,M,M,M,M,M,91.72,KMEV 162135Z AUTO 26011G18KT 230V290 10SM CLR 36/02 A3009 RMK AO2,M
BAM,2022-07-16 21:35,-116.8743,40.5990,1382.36,M,M,M,240.00,9.00,0.00,30.08,M,10.00,M,CLR,M,M,M,M,M,M,M,M,M,M,M,M,M,M,M,KBAM 162135Z AUTO 24009KT 10SM CLR A3008 RMK AO1,M
HTH,2022-07-16 21:35,-118.6315,38.5448,1282.89,98.60,42.80,14.87,0.00,0.00,0.00,30.01,M,10.00,M,CLR,M,M,M,M,M,M,M,M,M,M,M,M,M,M,94.30,KHTH 162135Z AUTO 00000KT 10SM CLR 37/06 A3001 RMK A01,M
CXP,2022-07-16 21:50,-119.7326,39.1923,1431.00,96.80,35.60,11.86,270.00,11.00,0.00,30.11,M,10.00,20.00,CLR,M,M,M,M,M,M,M,M,M,M,M,M,M,M,91.72,KCXP 162150Z AUTO 27011G20KT 10SM CLR 36/02 A3011 RMK AO2,M
P68,2022-07-16 21:53,-116.0056,39.6014,1993.00,93.00,38.00,14.60,150.00,6.00,0.00,30.18,1012.60,M,16.00,M,M,M,M,M,M,M,M,M,M,M,M,M,M,M,88.67,KP68 162153Z AUTO 15006G16KT 34/03 A3018 RMK AO1 SLP126 T03390033,M
DRA,2022-07-16 21:53,-116.0278,36.6206,1009.00,104.00,47.00,14.78,240.00,8.00,0.00,29.97,1008.50,10.00,15.00,SCT,M,M,M,11000.00,M,M,M,M,M,M,M,M,M,M,100.33,KDRA 162153Z AUTO 24008G15KT 10SM SCT110 40/08 A2997 RMK AO2 SLP085 T04000083,M
VGT,2022-07-16 21:53,-115.1933,36.2111,667.00,108.00,53.00,16.54,M,4.00,0.00,29.86,1009.10,10.00,M,CLR,M,M,M,M,M,M,M,M,M,M,M,M,M,M,106.34,KVGT 162153Z VRB04KT 10SM CLR 42/12 A2986 RMK AO2 SLP091 T04220117,M
LOL,2022-07-16 21:53,-118.5701,40.0684,1192.43,101.00,40.00,12.40,200.00,10.00,0.00,30.00,1010.60,10.00,16.00,CLR,M,M,M,M,M,M,M,M,M,M,M,M,M,M,96.01,KLOL 162153Z AUTO 20010G16KT 160V230 10SM CLR 38/04 A3000 RMK AO2 SLP106 T03830044,M
ELY,2022-07-16 21:53,-114.8453,39.2950,1909.00,94.00,37.00,13.71,280.00,12.00,0.00,30.23,1011.50,10.00,M,FEW,M,M,M,12000.00,M,M,M,M,M,M,M,M,M,M,89.44,KELY 162153Z AUTO 28012KT 10SM FEW120 34/03 A3023 RMK AO2 SLP115 T03440028 $,M
HND,2022-07-16 21:54,-115.1344,35.9729,742.79,M,M,M,M,3.00,0.00,29.90,M,10.00,M,CLR,M,M,M,M,M,M,M,M,M,M,M,M,M,M,M,KHND 162154Z VRB03KT 10SM CLR A2990 RMK TEMP AND DP MISSING,M
RTS,2022-07-16 21:55,-119.8764,39.6682,1539.00,95.00,30.20,10.09,250.00,16.00,0.00,30.15,M,10.00,24.00,CLR,M,M,M,M,M,M,M,M,M,M,M,M,M,M,89.48,KRTS 162155Z AUTO 25016G24KT 10SM CLR 35/M01 A3015 RMK AO2,M
BVU,2022-07-16 21:55,-114.8611,35.9475,671.00,M,M,M,M,M,0.00,M,M,M,M,M,M,M,M,M,M,M,M,M,M,M,M,M,M,M,M,KBVU 162155Z AUTO RMK AO2 PNO PWINO TSNO,M
TMT,2022-07-16 21:55,-117.1971,39.4643,1749.34,M,M,M,150.00,11.00,0.00,30.19,M,10.00,14.00,CLR,M,M,M,M,M,M,M,M,M,M,M,M,M,M,M,KTMT 162155Z AUTO 15011G14KT 10SM CLR A3019 RMK AO2 LTG DSNT NE,M
RNO,2022-07-16 21:55,-119.7711,39.4839,1341.00,99.00,39.00,12.68,290.00,11.00,0.00,30.06,1010.80,10.00,18.00,FEW,M,M,M,6000.00,M,M,M,M,M,M,M,27.00,210.00,2022-07-16 21:33,94.19,KRNO 162155Z 29011G18KT 10SM FEW060 37/04 A3006 RMK AO2 PK WND 21027/2133 SLP108 T03720039,M
MEV,2022-07-16 21:55,-119.7500,38.9963,1441.42,96.80,37.40,12.73,250.00,14.00,0.00,30.09,M,10.00,M,CLR,M,M,M,M,M,M,M,M,M,M,M,M,M,M,92.04,KMEV 162155Z AUTO 25014KT 10SM CLR 36/03 A3009 RMK AO2,M
BAM,2022-07-16 21:55,-116.8743,40.5990,1382.36,M,M,M,250.00,3.00,0.00,30.08,M,10.00,M,SCT,M,M,M,12000.00,M,M,M,M,M,M,M,M,M,M,M,KBAM 162155Z AUTO 25003KT 10SM SCT120 A3008 RMK AO1,M
05U,2022-07-16 21:55,-116.0051,39.6042,1811.23,96.80,37.40,12.73,130.00,5.00,0.00,30.21,M,10.00,12.00,CLR,M,M,M,M,M,M,M,M,M,M,M,M,M,M,92.04,K05U 162155Z AUTO 13005G12KT 10SM CLR 36/03 A3021 RMK A01,M
HTH,2022-07-16 21:55,-118.6315,38.5448,1282.89,98.60,42.80,14.87,M,3.00,0.00,30.02,M,10.00,M,SCT,M,M,M,12000.00,M,M,M,M,M,M,M,M,M,M,94.30,KHTH 162155Z AUTO VRB03KT 10SM SCT120 37/06 A3002 RMK A01,M
TPH,2022-07-16 21:56,-117.0904,38.0505,1654.00,96.00,41.00,14.97,M,M,0.00,30.15,1011.20,10.00,M,CLR,M,M,M,M,M,M,M,M,M,M,M,M,M,M,91.73,KTPH 162156Z AUTO 10SM CLR 36/05 A3015 RMK AO2 SLP112 T03560050,M
LAS,2022-07-16 21:56,-115.1634,36.0719,663.00,109.00,52.00,15.42,70.00,7.00,0.00,29.86,1007.70,10.00,18.00,FEW,SCT,M,M,8000.00,13000.00,M,M,M,M,M,M,M,M,M,106.93,KLAS 162156Z 07007G18KT 10SM FEW080 SCT130 43/11 A2986 RMK AO2 LTG DSNT S SLP077 CB DSNT E-SE AND S-SW ACC DSNT NW-N SH DSNT S T04280111,M
WMC,2022-07-16 21:56,-117.8072,40.9019,1315.00,100.00,41.00,13.30,250.00,9.00,0.00,30.03,1010.70,10.00,18.00,FEW,M,M,M,12000.00,M,M,M,M,M,M,M,M,M,M,95.42,KWMC 162156Z AUTO 25009G18KT 10SM FEW120 38/05 A3003 RMK AO2 SLP107 T03780050 TSNO,M
EKO,2022-07-16 21:56,-115.7860,40.8242,1367.00,99.00,36.00,11.27,210.00,12.00,0.00,30.12,1012.60,10.00,19.00,CLR,M,M,M,M,M,M,M,M,M,M,M,M,M,M,93.63,KEKO 162156Z AUTO 21012G19KT 10SM CLR 37/02 A3012 RMK AO2 SLP126 T03720022,M
HND,2022-07-16 21:56,-115.1344,35.9729,742.79,M,M,M,M,M,0.00,M,M,M,M,M,M,M,M,M,M,M,M,M,M,M,M,M,M,M,M,KHND 162156Z RMK AO2 LTG DSNT S SLPNO $,M
NFL,2022-07-16 21:56,-118.7010,39.4166,1199.00,102.00,44.00,14.10,360.00,8.00,0.00,30.00,1013.00,10.00,M,SCT,M,M,M,9000.00,M,M,M,M,M,M,M,M,M,M,97.79,KNFL 162156Z 36008KT 10SM SCT090 39/07 A3000 RMK AO2 SLP130 CB DSNT SW TCU DSNT E-SE-SW T03890067,M
LSV,2022-07-16 21:58,-115.0343,36.2362,570.00,114.00,51.00,12.95,200.00,6.00,0.00,29.82,1006.30,10.00,M,CLR,M,M,M,M,M,M,M,M,M,M,M,M,M,M,111.34,KLSV 162158Z AUTO 20006KT 10SM CLR 46/11 A2982 RMK AO2 SLP063 T04550106 $,M
INS,2022-07-16 21:58,-115.6733,36.5872,955.00,103.50,43.00,12.93,220.00,5.00,0.00,29.95,1008.10,10.00,M,FEW,M,M,M,20000.00,M,M,M,M,M,M,M,M,M,M,99.03,KINS 162158Z AUTO 22005KT 10SM FEW200 40/06 A2995 RMK AO2 SLP081 T03970061 $,M
BVU,2022-07-16 22:15,-114.8611,35.9475,671.00,M,M,M,M,M,0.00,M,M,M,M,M,M,M,M,M,M,M,M,M,M,M,M,M,M,M,M,KBVU 162215Z AUTO RMK AO2 PNO PWINO TSNO,M
TMT,2022-07-16 22:15,-117.1971,39.4643,1749.34,M,M,M,120.00,7.00,0.00,30.17,M,10.00,M,CLR,M,M,M,M,M,M,M,M,M,M,M,M,M,M,M,KTMT 162215Z AUTO 12007KT 10SM CLR A3017 RMK AO2 LTG DSNT SE,M
HTH,2022-07-16 22:15,-118.6315,38.5448,1282.89,93.20,46.40,20.13,150.00,25.00,0.00,30.02,M,10.00,M,BKN,M,M,M,12000.00,M,M,M,M,M,M,M,M,M,M,89.55,KHTH 162215Z AUTO 15025KT 10SM BKN120 34/08 A3002 RMK A01,M
BAM,2022-07-16 22:15,-116.8743,40.5990,1382.36,M,M,M,200.00,11.00,0.00,30.07,M,10.00,15.00,SCT,M,M,M,12000.00,M,M,M,M,M,M,M,M,M,M,M,KBAM 162215Z AUTO 20011G15KT 10SM SCT120 A3007 RMK AO1,M
MEV,2022-07-16 22:15,-119.7500,38.9963,1441.42,98.60,37.40,12.05,250.00,10.00,0.00,30.08,M,10.00,17.00,CLR,M,M,M,M,M,M,M,M,M,M,M,M,M,M,93.54,KMEV 162215Z AUTO 25010G17KT 190V280 10SM CLR 37/03 A3008 RMK AO2,M
05U,2022-07-16 22:15,-116.0051,39.6042,1811.23,96.80,35.60,11.86,0.00,0.00,0.00,30.21,M,10.00,M,CLR,M,M,M,M,M,M,M,M,M,M,M,M,M,M,91.72,K05U 162215Z AUTO 00000KT 10SM CLR 36/02 A3021 RMK A01,M
RTS,2022-07-16 22:15,-119.8764,39.6682,1539.00,93.20,30.20,10.67,220.00,15.00,0.00,30.14,M,10.00,21.00,CLR,M,M,M,M,M,M,M,M,M,M,M,M,M,M,88.09,KRTS 162215Z AUTO 22015G21KT 10SM CLR 34/M01 A3014 RMK AO2,M
CXP,2022-07-16 22:15,-119.7326,39.1923,1431.00,96.80,37.40,12.73,260.00,10.00,0.00,30.10,M,10.00,18.00,CLR,M,M,M,M,M,M,M,M,M,M,M,M,M,M,92.04,KCXP 162215Z AUTO 26010G18KT 10SM CLR 36/03 A3010 RMK AO2,M
LAS,2022-07-16 22:21,-115.1634,36.0719,663.00,109.00,52.00,15.42,60.00,9.00,0.00,29.85,M,10.00,M,FEW,SCT,M,M,8000.00,13000.00,M,M,M,M,M,M,M,M,M,106.93,KLAS 162221Z 06009KT 10SM FEW080 SCT130 43/11 A2985 RMK AO2 LTG DSNT S CB DSNT E-SE AND S-SW ACC DSNT NW-N SH DSNT S T04280111,M
MEV,2022-07-16 22:35,-119.7500,38.9963,1441.42,98.60,39.20,12.94,240.00,11.00,0.00,30.07,M,10.00,20.00,CLR,M,M,M,M,M,M,M,M,M,M,M,M,M,M,93.89,KMEV 162235Z AUTO 24011G20KT 10SM CLR 37/04 A3007 RMK AO2,M
TMT,2022-07-16 22:35,-117.1971,39.4643,1749.34,M,M,M,340.00,3.00,0.00,30.16,M,10.00,M,CLR,M,M,M,M,M,M,M,VCTS,M,M,M,M,M,M,M,KTMT 162235Z AUTO 34003KT 10SM VCTS CLR A3016 RMK AO2,M
HTH,2022-07-16 22:35,-118.6315,38.5448,1282.89,95.00,41.00,15.49,120.00,18.00,0.00,30.02,M,10.00,27.00,FEW,M,M,M,12000.00,M,M,M,M,M,M,M,M,M,M,90.70,KHTH 162235Z AUTO 12018G27KT 10SM FEW120 35/05 A3002 RMK A01,M
BVU,2022-07-16 22:35,-114.8611,35.9475,671.00,M,M,M,M,M,0.00,M,M,M,M,M,M,M,M,M,M,M,M,M,M,M,M,M,M,M,M,KBVU 162235Z AUTO RMK AO2 PNO PWINO TSNO,M
05U,2022-07-16 22:35,-116.0051,39.6042,1811.23,93.20,33.80,12.34,0.00,0.00,0.00,30.21,M,10.00,M,CLR,M,M,M,M,M,M,M,M,M,M,M,M,M,M,88.55,K05U 162235Z AUTO 00000KT 10SM CLR 34/01 A3021 RMK A01,M
RTS,2022-07-16 22:35,-119.8764,39.6682,1539.00,93.20,32.00,11.48,240.00,18.00,0.00,30.13,M,10.00,M,CLR,M,M,M,M,M,M,M,M,M,M,M,M,M,M,88.31,KRTS 162235Z AUTO 24018KT 10SM CLR 34/M00 A3013 RMK AO2,M
CXP,2022-07-16 22:35,-119.7326,39.1923,1431.00,95.00,37.40,13.46,270.00,13.00,0.00,30.09,M,10.00,21.00,CLR,M,M,M,M,M,M,M,M,M,M,M,M,M,M,90.46,KCXP 162235Z AUTO 27013G21KT 10SM CLR 35/03 A3009 RMK AO2,M
BAM,2022-07-16 22:35,-116.8743,40.5990,1382.36,M,M,M,210.00,7.00,0.00,30.06,M,10.00,M,CLR,M,M,M,M,M,M,M,M,M,M,M,M,M,M,M,KBAM 162235Z AUTO 21007KT 10SM CLR A3006 RMK AO1,M
05U,2022-07-16 22:50,-116.0051,39.6042,1811.23,91.40,41.00,17.32,200.00,18.00,0.00,30.21,M,10.00,M,FEW,M,M,M,12000.00,M,M,M,M,M,M,M,M,M,M,87.40,K05U 162250Z AUTO 20018KT 10SM FEW120 33/05 A3021 RMK A01,M
HND,2022-07-16 22:50,-115.1344,35.9729,742.79,M,M,M,M,5.00,0.00,29.87,M,10.00,M,CLR,M,M,M,M,M,M,M,M,M,M,M,M,M,M,M,KHND 162250Z VRB05KT 10SM CLR A2987 RMK TEMP AND DP MISSING,M
LOL,2022-07-16 22:53,-118.5701,40.0684,1192.43,101.00,39.00,11.97,170.00,7.00,0.00,29.97,1010.00,10.00,15.00,CLR,M,M,M,M,M,M,M,M,M,M,M,M,M,M,95.82,KLOL 162253Z AUTO 17007G15KT 10SM CLR 38/04 A2997 RMK AO2 SLP100 T03830039,M
VGT,2022-07-16 22:53,-115.1933,36.2111,667.00,110.00,53.00,15.65,M,4.00,0.00,29.82,1008.00,10.00,M,CLR,M,M,M,M,M,M,M,M,M,M,M,M,M,M,108.30,KVGT 162253Z VRB04KT 10SM CLR 43/12 A2982 RMK AO2 LTG DSNT SW SLP080 T04330117,M
P68,2022-07-16 22:53,-116.0056,39.6014,1993.00,87.00,46.00,24.02,200.00,19.00,0.00,30.18,1013.40,M,31.00,M,M,M,M,M,M,M,M,M,M,M,M,31.00,210.00,2022-07-16 22:53,84.07,KP68 162253Z AUTO 20019G31KT 31/08 A3018 RMK AO1 PK WND 21031/2253 SLP134 T03060078,M
ELY,2022-07-16 22:53,-114.8453,39.2950,1909.00,92.00,39.00,15.77,0.00,0.00,0.00,30.20,1011.60,10.00,M,CLR,M,M,M,M,M,M,M,M,M,M,M,M,M,M,87.74,KELY 162253Z AUTO 00000KT 10SM CLR 33/04 A3020 RMK AO2 SLP116 T03330039 $,M
DRA,2022-07-16 22:53,-116.0278,36.6206,1009.00,105.00,45.00,13.31,250.00,10.00,0.00,29.93,1007.30,10.00,20.00,BKN,M,M,M,12000.00,M,M,M,M,M,M,M,M,M,M,100.97,KDRA 162253Z AUTO 25010G20KT 10SM BKN120 41/07 A2993 RMK AO2 SLP073 T04060072,M
HTH,2022-07-16 22:55,-118.6315,38.5448,1282.89,95.00,41.00,15.49,230.00,6.00,0.00,30.02,M,10.00,12.00,CLR,M,M,M,M,M,M,M,M,M,M,M,M,M,M,90.70,KHTH 162255Z AUTO 23006G12KT 10SM CLR 35/05 A3002 RMK A01,M
RTS,2022-07-16 22:55,-119.8764,39.6682,1539.00,93.20,30.20,10.67,250.00,16.00,0.00,30.13,M,10.00,23.00,CLR,M,M,M,M,M,M,M,M,M,M,M,M,M,M,88.09,KRTS 162255Z AUTO 25016G23KT 10SM CLR 34/M01 A3013 RMK AO2,M
RNO,2022-07-16 22:55,-119.7711,39.4839,1341.00,100.00,40.00,12.74,250.00,11.00,0.00,30.04,1010.20,10.00,20.00,FEW,M,M,M,8000.00,M,M,M,M,M,M,M,M,M,M,95.23,KRNO 162255Z 25011G20KT 10SM FEW080 38/04 A3004 RMK AO2 SLP102 CB DSNT E T03780044,M
BVU,2022-07-16 22:55,-114.8611,35.9475,671.00,M,M,M,M,M,0.00,M,M,M,M,M,M,M,M,M,M,M,M,M,M,M,M,M,M,M,M,KBVU 162255Z AUTO RMK AO2 PNO PWINO TSNO,M
CXP,2022-07-16 22:55,-119.7326,39.1923,1431.00,95.00,39.20,14.44,280.00,15.00,0.00,30.08,M,10.00,23.00,CLR,M,M,M,M,M,M,M,M,M,M,M,M,M,M,90.57,KCXP 162255Z AUTO 28015G23KT 10SM CLR 35/04 A3008 RMK AO2,M
BAM,2022-07-16 22:55,-116.8743,40.5990,1382.36,M,M,M,180.00,8.00,0.00,30.04,M,10.00,M,CLR,M,M,M,M,M,M,M,M,M,M,M,M,M,M,M,KBAM 162255Z AUTO 18008KT 10SM CLR A3004 RMK AO1,M
MEV,2022-07-16 22:55,-119.7500,38.9963,1441.42,98.60,39.20,12.94,260.00,16.00,0.00,30.06,M,10.00,M,CLR,M,M,M,M,M,M,M,M,M,M,M,M,M,M,93.89,KMEV 162255Z AUTO 26016KT 10SM CLR 37/04 A3006 RMK AO2,M
TMT,2022-07-16 22:55,-117.1971,39.4643,1749.34,M,M,M,0.00,0.00,0.00,30.16,M,10.00,M,CLR,M,M,M,M,M,M,M,M,M,M,M,M,M,M,M,KTMT 162255Z AUTO 00000KT 10SM CLR A3016 RMK AO2,M
LAS,2022-07-16 22:56,-115.1634,36.0719,663.00,109.00,52.00,15.42,340.00,8.00,0.00,29.83,1006.70,10.00,18.00,FEW,SCT,BKN,M,8000.00,11000.00,25000.00,M,M,M,M,M,M,M,M,106.93,KLAS 162256Z 34008G18KT 10SM FEW080 SCT110 BKN250 43/11 A2983 RMK AO2 LTG DSNT S-W SLP067 CB DSNT S-W ACC DSNT NW-N SH DSNT S-W T04280111,M
EKO,2022-07-16 22:56,-115.7860,40.8242,1367.00,99.00,36.00,11.27,M,M,0.00,30.09,1011.60,10.00,M,CLR,M,M,M,M,M,M,M,M,M,M,M,M,M,M,93.63,KEKO 162256Z AUTO 10SM CLR 37/02 A3009 RMK AO2 SLP116 T03720022,M
HND,2022-07-16 22:56,-115.1344,35.9729,742.79,M,M,M,M,M,0.00,M,M,M,M,M,M,M,M,M,M,M,M,M,M,M,M,M,M,M,M,KHND 162256Z RMK AO2 LTG DSNT S-W SLPNO $,M
WMC,2022-07-16 22:56,-117.8072,40.9019,1315.00,102.00,38.00,11.09,230.00,16.00,0.00,30.01,1010.20,10.00,24.00,FEW,M,M,M,11000.00,M,M,M,M,M,M,M,27.00,280.00,2022-07-16 22:20,96.55,KWMC 162256Z AUTO 23016G24KT 10SM FEW110 39/03 A3001 RMK AO2 PK WND 28027/2220 SLP102 T03890033 TSNO,M
NFL,2022-07-16 22:56,-118.7010,39.4166,1199.00,103.00,41.00,12.19,330.00,7.00,0.00,29.98,1012.20,10.00,18.00,SCT,SCT,M,M,9000.00,15000.00,M,M,M,M,M,M,M,M,M,98.00,KNFL 162256Z 33007G18KT 10SM SCT090 SCT150 39/05 A2998 RMK AO2 SLP122 CB DSNT S-SW TCU DSNT SE-SW T03940050,M
TPH,2022-07-16 22:56,-117.0904,38.0505,1654.00,98.00,40.00,13.50,240.00,6.00,0.00,30.12,1010.10,10.00,M,CLR,M,M,M,M,M,M,M,M,M,M,M,M,M,M,93.51,KTPH 162256Z AUTO 24006KT 10SM CLR 37/04 A3012 RMK AO2 LTG DSNT E SLP101 T03670044,M
INS,2022-07-16 22:58,-115.6733,36.5872,955.00,103.30,40.80,11.95,160.00,7.00,0.00,29.92,1007.10,10.00,M,CLR,M,M,M,M,M,M,M,M,M,M,M,M,M,M,98.30,KINS 162258Z AUTO 16007KT 10SM CLR 40/05 A2992 RMK AO2 SLP071 T03960049 $,M
LSV,2022-07-16 22:58,-115.0343,36.2362,570.00,114.00,49.00,11.86,180.00,5.00,0.00,29.79,1005.40,10.00,M,CLR,M,M,M,M,M,M,M,M,M,M,M,M,M,M,110.61,KLSV 162258Z AUTO 18005KT 10SM CLR 46/09 A2979 RMK AO2 LTG DSNT SW SLP054 T04560094 $,M
LAS,2022-07-16 23:01,-115.1634,36.0719,663.00,109.00,52.00,15.42,290.00,6.00,0.00,29.83,M,10.00,M,FEW,SCT,BKN,M,8000.00,11000.00,25000.00,M,M,M,M,M,M,M,M,106.93,KLAS 162301Z 29006KT 10SM FEW080 SCT110 BKN250 43/11 A2983 RMK AO2 LTG DSNT SW AND W CB DSNT S-W ACC DSNT NW-N SH DSNT S-W T04280111,M
LAS,2022-07-16 23:10,-115.1634,36.0719,663.00,109.00,52.00,15.42,0.00,0.00,0.00,29.83,M,10.00,M,FEW,SCT,BKN,M,8000.00,11000.00,18000.00,M,TS,M,M,M,M,M,M,106.93,KLAS 162310Z 00000KT 10SM TS FEW080 SCT110CB BKN180 43/11 A2983 RMK AO2 LTG DSNT SW AND W TSE08B10 OCNL LTGICCC S-W TS S-W MOV N T04280111,M
HND,2022-07-16 23:12,-115.1344,35.9729,742.79,M,M,M,M,M,0.00,M,M,M,M,M,M,M,M,M,M,M,M,VCTS,M,M,M,M,M,M,M,KHND 162312Z VCTS RMK AO2 LTG DSNT SW AND W TSB06 $,M
TMT,2022-07-16 23:15,-117.1971,39.4643,1749.34,M,M,M,320.00,4.00,0.00,30.16,M,10.00,M,CLR,M,M,M,M,M,M,M,M,M,M,M,M,M,M,M,KTMT 162315Z AUTO 32004KT 10SM CLR A3016 RMK AO2,M
HTH,2022-07-16 23:15,-118.6315,38.5448,1282.89,95.00,39.20,14.44,310.00,7.00,0.00,30.02,M,10.00,M,CLR,M,M,M,M,M,M,M,M,M,M,M,M,M,M,90.57,KHTH 162315Z AUTO 31007KT 10SM CLR 35/04 A3002 RMK A01,M
CXP,2022-07-16 23:15,-119.7326,39.1923,1431.00,95.00,39.20,14.44,280.00,15.00,0.00,30.08,M,10.00,25.00,CLR,M,M,M,M,M,M,M,M,M,M,M,M,M,M,90.57,KCXP 162315Z AUTO 28015G25KT 10SM CLR 35/04 A3008 RMK AO2,M
BVU,2022-07-16 23:15,-114.8611,35.9475,671.00,M,M,M,M,M,0.00,M,M,M,M,M,M,M,M,M,M,M,M,M,M,M,M,M,M,M,M,KBVU 162315Z AUTO RMK AO2 PNO PWINO TSNO,M
MEV,2022-07-16 23:15,-119.7500,38.9963,1441.42,96.80,39.20,13.66,300.00,14.00,0.00,30.06,M,10.00,19.00,CLR,M,M,M,M,M,M,M,M,M,M,M,M,M,M,92.23,KMEV 162315Z AUTO 30014G19KT 10SM CLR 36/04 A3006 RMK AO2,M
BAM,2022-07-16 23:15,-116.8743,40.5990,1382.36,M,M,M,230.00,12.00,0.00,30.04,M,10.00,16.00,CLR,M,M,M,M,M,M,M,M,M,M,M,M,M,M,M,KBAM 162315Z AUTO 23012G16KT 10SM CLR A3004 RMK AO1,M
RTS,2022-07-16 23:15,-119.8764,39.6682,1539.00,93.20,32.00,11.48,240.00,11.00,0.00,30.12,M,10.00,21.00,CLR,M,M,M,M,M,M,M,M,M,M,M,M,M,M,88.31,KRTS 162315Z AUTO 24011G21KT 10SM CLR 34/00 A3012 RMK AO2,M
05U,2022-07-16 23:15,-116.0051,39.6042,1811.23,84.20,46.40,26.76,200.00,15.00,0.00,30.20,M,10.00,M,CLR,M,M,M,M,M,M,M,M,M,M,M,M,M,M,81.87,K05U 162315Z AUTO 20015KT 10SM CLR 29/08 A3020 RMK A01,M
RTS,2022-07-16 23:35,-119.8764,39.6682,1539.00,93.20,32.00,11.48,250.00,14.00,0.00,30.12,M,10.00,21.00,CLR,M,M,M,M,M,M,M,M,M,M,M,M,M,M,88.31,KRTS 162335Z AUTO 25014G21KT 10SM CLR 34/M00 A3012 RMK AO2,M
BVU,2022-07-16 23:35,-114.8611,35.9475,671.00,M,M,M,M,M,0.00,M,M,M,M,M,M,M,M,M,M,M,M,M,M,M,M,M,M,M,M,KBVU 162335Z AUTO RMK AO2 PNO PWINO TSNO,M
TMT,2022-07-16 23:35,-117.1971,39.4643,1749.34,M,M,M,340.00,4.00,0.00,30.16,M,10.00,M,CLR,M,M,M,M,M,M,M,M,M,M,M,M,M,M,M,KTMT 162335Z AUTO 34004KT 10SM CLR A3016 RMK AO2 LTG DSNT SW,M
HTH,2022-07-16 23:35,-118.6315,38.5448,1282.89,95.00,42.80,16.60,280.00,6.00,0.00,30.02,M,10.00,M,CLR,M,M,M,M,M,M,M,M,M,M,M,M,M,M,90.86,KHTH 162335Z AUTO 28006KT 10SM CLR 35/06 A3002 RMK A01,M
BAM,2022-07-16 23:35,-116.8743,40.5990,1382.36,M,M,M,260.00,8.00,0.00,30.03,M,10.00,20.00,CLR,M,M,M,M,M,M,M,M,M,M,M,M,M,M,M,KBAM 162335Z AUTO 26008G20KT 10SM CLR A3003 RMK AO1,M
MEV,2022-07-16 23:35,-119.7500,38.9963,1441.42,96.80,41.00,14.66,270.00,12.00,0.00,30.06,M,10.00,20.00,CLR,M,M,M,M,M,M,M,M,M,M,M,M,M,M,92.39,KMEV 162335Z AUTO 27012G20KT 10SM CLR 36/05 A3006 RMK AO2,M
05U,2022-07-16 23:35,-116.0051,39.6042,1811.23,86.00,44.60,23.59,190.00,8.00,0.00,30.20,M,10.00,M,CLR,M,M,M,M,M,M,M,M,M,M,M,M,M,M,83.07,K05U 162335Z AUTO 19008KT 10SM CLR 30/07 A3020 RMK A01,M
CXP,2022-07-16 23:35,-119.7326,39.1923,1431.00,95.00,39.20,14.44,280.00,15.00,0.00,30.08,M,10.00,24.00,CLR,M,M,M,M,M,M,M,M,M,M,M,M,M,M,90.57,KCXP 162335Z AUTO 28015G24KT 10SM CLR 35/04 A3008 RMK AO2,M
LAS,2022-07-16 23:40,-115.1634,36.0719,663.00,103.00,56.00,21.30,220.00,22.00,0.00,29.84,M,10.00,39.00,FEW,SCT,BKN,M,8000.00,11000.00,18000.00,M,TS,M,M,M,39.00,220.00,2022-07-16 23:40,102.01,KLAS 162340Z 22022G39KT 10SM TS FEW080 SCT110CB BKN180 39/13 A2984 RMK AO2 PK WND 22039/2340 LTG DSNT SW AND W TSE08B10 OCNL LTGICCC S-W TS S-W MOV N VCSH T03940133,M
HND,2022-07-16 23:47,-115.1344,35.9729,742.79,M,M,M,230.00,19.00,0.00,29.89,M,10.00,27.00,CLR,M,M,M,M,M,M,M,M,M,M,M,M,M,M,M,KHND 162347Z 23019G27KT 10SM CLR A2989 VCTS RMK TEMP AND DP MISSING LTG DSNT W / NW,M
HND,2022-07-16 23:49,-115.1344,35.9729,742.79,M,M,M,M,M,0.00,M,M,M,M,M,M,M,M,M,M,M,M,M,M,M,M,M,M,M,M,KHND 162349Z RMK AO2 LTG DSNT W AND NW TSB06E43 $,M
VGT,2022-07-16 23:53,-115.1933,36.2111,667.00,101.00,58.00,24.31,220.00,25.00,0.00,29.83,1008.30,6.00,38.00,CLR,M,M,M,M,M,M,M,HZ,M,M,M,38.00,230.00,2022-07-16 23:52,100.63,KVGT 162353Z 22025G38KT 6SM HZ CLR 38/14 A2983 RMK AO2 PK WND 23038/2352 LTG DSNT SW AND W SLP083 T03830144 10444 20383 55018,M
P68,2022-07-16 23:53,-116.0056,39.6014,1993.00,87.00,43.00,21.42,200.00,10.00,0.00,30.16,1012.90,M,M,M,M,M,M,M,M,M,M,M,M,M,M,32.00,200.00,2022-07-16 22:54,83.84,KP68 162353Z AUTO 20010KT 31/06 A3016 RMK AO1 PK WND 20032/2254 SLP129 T03060061 10344 20283 56014,M
DRA,2022-07-16 23:53,-116.0278,36.6206,1009.00,106.00,45.00,12.96,220.00,8.00,0.00,29.91,1006.70,10.00,18.00,CLR,M,M,M,M,M,M,M,M,M,M,M,M,M,M,101.83,KDRA 162353Z AUTO 22008G18KT 10SM CLR 41/07 A2991 RMK AO2 SLP067 T04110072 10417 20367 56024,M
LOL,2022-07-16 23:53,-118.5701,40.0684,1192.43,103.00,32.00,8.54,280.00,12.00,0.00,29.96,1009.40,10.00,17.00,CLR,M,M,M,M,M,M,M,M,M,M,M,M,M,M,96.34,KLOL 162353Z AUTO 28012G17KT 10SM CLR 39/00 A2996 RMK AO2 SLP094 T03940000 10400 20328 56024,M
ELY,2022-07-16 23:53,-114.8453,39.2950,1909.00,93.00,39.00,15.24,10.00,7.00,0.00,30.19,1011.20,10.00,M,CLR,M,M,M,M,M,M,M,M,M,M,M,M,M,M,88.73,KELY 162353Z AUTO 01007KT 330V050 10SM CLR 34/04 A3019 RMK AO2 SLP112 T03390039 10344 20294 56018,M
RNO,2022-07-16 23:55,-119.7711,39.4839,1341.00,99.00,42.00,14.30,270.00,15.00,0.00,30.02,1009.80,10.00,25.00,FEW,M,M,M,7000.00,M,M,M,M,M,M,M,27.00,300.00,2022-07-16 23:36,94.60,KRNO 162355Z 27015G25KT 10SM FEW070 37/06 A3002 RMK AO2 PK WND 30027/2336 SLP098 T03720056 10383 20317 58014,M
BVU,2022-07-16 23:55,-114.8611,35.9475,671.00,M,M,M,M,M,0.00,M,M,M,M,M,M,M,M,M,M,M,M,M,M,M,M,M,M,M,M,KBVU 162355Z AUTO RMK AO2 PNO PWINO TSNO,M
RTS,2022-07-16 23:55,-119.8764,39.6682,1539.00,93.20,33.80,12.34,250.00,16.00,0.00,30.11,M,10.00,26.00,CLR,M,M,M,M,M,M,M,M,M,M,M,M,M,M,88.55,KRTS 162355Z AUTO 25016G26KT 10SM CLR 34/01 A3011 RMK AO2,M
05U,2022-07-16 23:55,-116.0051,39.6042,1811.23,87.80,41.00,19.40,190.00,10.00,0.00,30.19,M,10.00,M,CLR,M,M,M,M,M,M,M,M,M,M,M,M,M,M,84.30,K05U 162355Z AUTO 19010KT 10SM CLR 31/05 A3019 RMK A01,M
MEV,2022-07-16 23:55,-119.7500,38.9963,1441.42,95.00,41.00,15.49,310.00,12.00,0.00,30.05,M,10.00,18.00,CLR,M,M,M,M,M,M,M,M,M,M,M,M,M,M,90.70,KMEV 162355Z AUTO 31012G18KT 10SM CLR 35/05 A3005 RMK AO2 LTG DSNT NE AND SE,M
BAM,2022-07-16 23:55,-116.8743,40.5990,1382.36,M,M,M,250.00,8.00,0.00,30.03,M,10.00,18.00,CLR,M,M,M,M,M,M,M,M,M,M,M,M,M,M,M,KBAM 162355Z AUTO 25008G18KT 10SM CLR A3003 RMK AO1,M
HTH,2022-07-16 23:55,-118.6315,38.5448,1282.89,96.80,42.80,15.71,320.00,9.00,0.00,30.00,M,10.00,M,CLR,M,M,M,M,M,M,M,M,M,M,M,M,M,M,92.57,KHTH 162355Z AUTO 32009KT 10SM CLR 36/06 A3000 RMK A01,M
TMT,2022-07-16 23:55,-117.1971,39.4643,1749.34,M,M,M,340.00,12.00,0.00,30.15,M,10.00,M,CLR,M,M,M,M,M,M,M,M,M,M,M,M,M,M,M,KTMT 162355Z AUTO 34012KT 10SM CLR A3015 RMK AO2 LTG DSNT SW AND W,M
CXP,2022-07-16 23:55,-119.7326,39.1923,1431.00,93.20,41.00,16.37,270.00,15.00,0.00,30.08,M,10.00,24.00,CLR,M,M,M,M,M,M,M,M,M,M,M,M,M,M,89.03,KCXP 162355Z AUTO 27015G24KT 10SM CLR 34/05 A3008 RMK AO2 LTG DSNT NE AND SE,M
WMC,2022-07-16 23:56,-117.8072,40.9019,1315.00,102.00,35.00,9.93,240.00,14.00,0.00,30.00,1009.90,10.00,26.00,FEW,M,M,M,11000.00,M,M,M,M,M,M,M,26.00,230.00,2022-07-16 23:49,96.04,KWMC 162356Z AUTO 24014G26KT 10SM FEW110 39/02 A3000 RMK AO2 PK WND 23026/2349 SLP099 T03890017 10394 20339 56017 TSNO,M
LAS,2022-07-16 23:56,-115.1634,36.0719,663.00,94.00,57.00,29.14,240.00,16.00,0.00,29.86,1007.80,10.00,34.00,SCT,BKN,BKN,M,8000.00,11000.00,20000.00,M,TS VCBLDU,M,M,M,44.00,230.00,2022-07-16 23:41,92.58,KLAS 162356Z 24016G34KT 10SM TS VCBLDU SCT080 BKN110CB BKN200 34/14 A2986 RMK AO2 PK WND 23044/2341 LTG DSNT SW-NW TSE08B10 SLP078 OCNL LTGICCCCG SW-NW TS SW-NW MOV N VCSH T03440139 10433 20344 55012,M
EKO,2022-07-16 23:56,-115.7860,40.8242,1367.00,99.00,35.00,10.87,260.00,14.00,0.00,30.07,1010.90,10.00,22.00,CLR,M,M,M,M,M,M,M,M,M,M,M,M,M,M,93.48,KEKO 162356Z AUTO 26014G22KT 10SM CLR 37/02 A3007 RMK AO2 SLP109 T03720017 10378 20311 56021,M
NFL,2022-07-16 23:56,-118.7010,39.4166,1199.00,102.00,35.00,9.93,M,3.00,0.00,29.96,1011.70,10.00,M,FEW,M,M,M,10000.00,M,M,M,M,M,M,M,M,M,M,96.04,KNFL 162356Z AUTO VRB03KT 10SM FEW100 39/02 A2996 RMK AO2 SLP117 T03890017 10400 20328 56023,M
HND,2022-07-16 23:56,-115.1344,35.9729,742.79,M,M,M,M,M,0.00,M,M,M,M,M,M,M,M,M,M,M,M,M,M,M,M,M,M,M,M,KHND 162356Z RMK AO2 LTG DSNT W AND NW TSB06E43 SLPNO 6//// $,M
TPH,2022-07-16 23:56,-117.0904,38.0505,1654.00,96.00,39.00,13.85,220.00,7.00,0.00,30.10,1009.70,10.00,M,CLR,M,M,M,M,M,M,M,M,M,M,M,M,M,M,91.57,KTPH 162356Z AUTO 22007KT 10SM CLR 36/04 A3010 RMK AO2 SLP097 T03560039 10367 20306 56021,M
INS,2022-07-16 23:58,-115.6733,36.5872,955.00,104.40,39.40,10.95,0.00,0.00,0.00,29.90,1006.70,10.00,M,CLR,M,M,M,M,M,M,M,M,M,M,M,M,M,M,98.95,KINS 162358Z AUTO 00000KT 10SM CLR 40/04 A2990 RMK AO2 SLP067 T04020041 10402 20364 57022 $,M
LSV,2022-07-16 23:58,-115.0343,36.2362,570.00,113.20,50.40,12.87,250.00,6.00,0.00,29.78,1005.10,10.00,M,CLR,M,M,M,M,M,M,M,M,M,M,M,M,M,M,110.38,KLSV 162358Z AUTO 25006KT 10SM CLR 45/10 A2978 RMK AO2 LTG DSNT SW SLP051 T04510102 10463 20432 57023 $,M
