station,valid,lon,lat,elevation,tmpf,dwpf,relh,drct,sknt,p01i,alti,mslp,vsby,gust,skyc1,skyc2,skyc3,skyc4,skyl1,skyl2,skyl3,skyl4,wxcodes,ice_accretion_1hr,ice_accretion_3hr,ice_accretion_6hr,peak_wind_gust,peak_wind_drct,peak_wind_time,feel,metar,snowdepth
BVU,2022-08-22 00:15,-114.8611,35.9475,671.00,100.40,62.60,29.17,140.00,11.00,0.00,29.88,M,M,M,M,M,M,M,M,M,M,M,M,M,M,M,M,M,M,102.50,KBVU 220015Z AUTO 14011KT 38/17 A2988 RMK AO2 PWINO TSNO,M
CXP,2022-08-22 00:15,-119.7326,39.1923,1431.00,91.40,33.80,13.05,280.00,17.00,0.00,30.13,M,10.00,24.00,CLR,M,M,M,M,M,M,M,M,M,M,M,M,M,M,87.13,KCXP 220015Z AUTO 28017G24KT 10SM CLR 33/01 A3013 RMK AO2,M
RTS,2022-08-22 00:15,-119.8764,39.6682,1539.00,89.60,26.60,10.30,250.00,13.00,0.00,30.17,M,10.00,M,CLR,M,M,M,M,M,M,M,M,M,M,M,M,M,M,85.02,KRTS 220015Z AUTO 25013KT 10SM CLR 32/M03 A3017 RMK AO2,M
BAM,2022-08-22 00:15,-116.8743,40.5990,1382.36,95.00,35.60,12.53,360.00,6.00,0.00,30.08,M,10.00,M,CLR,M,M,M,M,M,M,M,M,M,M,M,M,M,M,90.25,KBAM 220015Z AUTO 36006KT 10SM CLR 35/02 A3008 RMK AO1,M
HTH,2022-08-22 00:15,-118.6315,38.5448,1282.89,95.00,32.00,10.85,320.00,11.00,0.00,30.04,M,10.00,M,CLR,M,M,M,M,M,M,M,M,M,M,M,M,M,M,89.71,KHTH 220015Z AUTO 32011KT 10SM CLR 35/00 A3004 RMK A01,M
TMT,2022-08-22 00:15,-117.1971,39.4643,1749.34,M,M,M,360.00,7.00,0.00,30.20,M,10.00,M,CLR,M,M,M,M,M,M,M,M,M,M,M,M,M,M,M,KTMT 220015Z AUTO 36007KT 10SM CLR A3020 RMK AO2,M
MEV,2022-08-22 00:15,-119.7500,38.9963,1441.42,91.40,37.40,15.05,280.00,13.00,0.00,30.12,M,10.00,23.00,CLR,M,M,M,M,M,M,M,M,M,M,M,M,M,M,87.23,KMEV 220015Z AUTO 28013G23KT 10SM CLR 33/03 A3012 RMK AO2,M
MEV,2022-08-22 00:35,-119.7500,38.9963,1441.42,91.40,39.20,16.15,270.00,11.00,0.00,30.12,M,10.00,19.00,CLR,M,M,M,M,M,M,M,M,M,M,M,M,M,M,87.30,KMEV 220035Z AUTO 27011G19KT 10SM CLR 33/04 A3012 RMK AO2,M
BVU,2022-08-22 00:35,-114.8611,35.9475,671.00,100.40,62.60,29.17,120.00,12.00,0.00,29.89,M,M,M,M,M,M,M,M,M,M,M,M,M,M,M,M,M,M,102.50,KBVU 220035Z AUTO 12012KT 38/17 A2989 RMK AO2 PWINO TSNO,M
BAM,2022-08-22 00:35,-116.8743,40.5990,1382.36,95.00,35.60,12.53,350.00,5.00,0.00,30.08,M,10.00,M,CLR,M,M,M,M,M,M,M,M,M,M,M,M,M,M,90.25,KBAM 220035Z AUTO 35005KT 10SM CLR 35/02 A3008 RMK AO1,M
CXP,2022-08-22 00:35,-119.7326,39.1923,1431.00,89.60,33.80,13.80,260.00,13.00,0.00,30.13,M,10.00,26.00,CLR,M,M,M,M,M,M,M,M,M,M,M,M,M,M,85.59,KCXP 220035Z AUTO 26013G26KT 10SM CLR 32/01 A3013 RMK AO2,M
HTH,2022-08-22 00:35,-118.6315,38.5448,1282.89,95.00,32.00,10.85,310.00,10.00,0.00,30.05,M,10.00,M,CLR,M,M,M,M,M,M,M,M,M,M,M,M,M,M,89.71,KHTH 220035Z AUTO 31010KT 10SM CLR 35/00 A3005 RMK A01,M
RTS,2022-08-22 00:35,-119.8764,39.6682,1539.00,89.60,26.60,10.30,280.00,16.00,0.00,30.17,M,10.00,M,CLR,M,M,M,M,M,M,M,M,M,M,M,M,M,M,85.02,KRTS 220035Z AUTO 28016KT 10SM CLR 32/M03 A3017 RMK AO2,M
TMT,2022-08-22 00:35,-117.1971,39.4643,1749.34,M,M,M,10.00,7.00,0.00,30.20,M,10.00,M,CLR,M,M,M,M,M,M,M,M,M,M,M,M,M,M,M,KTMT 220035Z AUTO 01007KT 10SM CLR A3020 RMK AO2,M
P68,2022-08-22 00:53,-116.0056,39.6014,1993.00,85.00,35.00,16.88,330.00,3.00,0.00,30.18,1013.80,M,M,M,M,M,M,M,M,M,M,M,M,M,M,M,M,M,81.84,KP68 220053Z AUTO 33003KT 29/02 A3018 RMK AO1 SLP138 T02940017,M
VGT,2022-08-22 00:53,-115.1933,36.2111,667.00,104.00,52.00,17.87,M,3.00,0.00,29.87,1009.80,10.00,M,CLR,M,M,M,M,M,M,M,M,M,M,M,M,M,M,101.76,KVGT 220053Z VRB03KT 10SM CLR 40/11 A2987 RMK AO2 LTG DSNT NE SLP098 T04000111 $,M
ELY,2022-08-22 00:53,-114.8453,39.2950,1909.00,80.00,43.00,26.85,30.00,9.00,0.00,30.22,1013.80,10.00,M,CLR,M,M,M,M,M,M,M,M,M,M,M,M,M,M,79.04,KELY 220053Z AUTO 03009KT 10SM CLR 27/06 A3022 RMK AO2 SLP138 T02670061,M
LOL,2022-08-22 00:53,-118.5701,40.0684,1192.43,98.00,32.00,9.87,290.00,3.00,0.00,30.01,1012.00,10.00,M,CLR,M,M,M,M,M,M,M,M,M,M,M,M,M,M,92.27,KLOL 220053Z AUTO 29003KT 10SM CLR 37/00 A3001 RMK AO2 SLP120 T03670000,M
DRA,2022-08-22 00:53,-116.0278,36.6206,1009.00,101.00,35.00,10.27,240.00,8.00,0.00,29.96,1008.90,10.00,M,CLR,M,M,M,M,M,M,M,M,M,M,M,M,M,M,95.10,KDRA 220053Z AUTO 24008KT 10SM CLR 38/02 A2996 RMK AO2 SLP089 T03830017,M
BVU,2022-08-22 00:55,-114.8611,35.9475,671.00,100.40,62.60,29.17,120.00,13.00,0.00,29.88,M,M,M,M,M,M,M,M,M,M,M,M,M,M,M,M,M,M,102.50,KBVU 220055Z AUTO 12013KT 38/17 A2988 RMK AO2 PWINO TSNO,M
CXP,2022-08-22 00:55,-119.7326,39.1923,1431.00,89.60,35.60,14.83,260.00,18.00,0.00,30.13,M,10.00,27.00,CLR,M,M,M,M,M,M,M,M,M,M,M,M,M,M,85.62,KCXP 220055Z AUTO 26018G27KT 220V290 10SM CLR 32/02 A3013 RMK AO2,M
RTS,2022-08-22 00:55,-119.8764,39.6682,1539.00,89.60,26.60,10.30,280.00,15.00,0.00,30.17,M,10.00,M,CLR,M,M,M,M,M,M,M,M,M,M,M,M,M,M,85.02,KRTS 220055Z AUTO 28015KT 10SM CLR 32/M03 A3017 RMK AO2,M
MEV,2022-08-22 00:55,-119.7500,38.9963,1441.42,89.60,37.40,15.92,270.00,8.00,0.00,30.13,M,10.00,17.00,CLR,M,M,M,M,M,M,M,M,M,M,M,M,M,M,85.67,KMEV 220055Z AUTO 27008G17KT 240V300 10SM CLR 32/03 A3013 RMK AO2,M
BAM,2022-08-22 00:55,-116.8743,40.5990,1382.36,95.00,35.60,12.53,360.00,4.00,0.00,30.08,M,10.00,M,CLR,M,M,M,M,M,M,M,M,M,M,M,M,M,M,90.25,KBAM 220055Z AUTO 36004KT 10SM CLR 35/02 A3008 RMK AO1,M
HTH,2022-08-22 00:55,-118.6315,38.5448,1282.89,95.00,33.80,11.67,330.00,10.00,0.00,30.05,M,10.00,M,CLR,M,M,M,M,M,M,M,M,M,M,M,M,M,M,89.97,KHTH 220055Z AUTO 33010KT 10SM CLR 35/01 A3005 RMK A01,M
TMT,2022-08-22 00:55,-117.1971,39.4643,1749.34,M,M,M,360.00,9.00,0.00,30.20,M,10.00,M,CLR,M,M,M,M,M,M,M,M,M,M,M,M,M,M,M,KTMT 220055Z AUTO 36009KT 10SM CLR A3020 RMK AO2,M
RNO,2022-08-22 00:55,-119.7711,39.4839,1341.00,94.00,35.00,12.71,280.00,16.00,0.00,30.09,1012.90,10.00,22.00,FEW,SCT,M,M,9000.00,25000.00,M,M,M,M,M,M,M,M,M,89.29,KRNO 220055Z 28016G22KT 10SM FEW090 SCT250 34/02 A3009 RMK AO2 SLP129 T03440017,M
EKO,2022-08-22 00:56,-115.7860,40.8242,1367.00,83.00,39.00,21.00,0.00,0.00,0.00,30.13,1015.10,10.00,M,CLR,M,M,M,M,M,M,M,M,M,M,M,M,M,M,80.53,KEKO 220056Z AUTO 00000KT 10SM CLR 28/04 A3013 RMK AO2 SLP151 T02830039 $,M
HND,2022-08-22 00:56,-115.1344,35.9729,742.79,102.00,57.00,22.77,60.00,4.00,0.00,29.92,1011.10,10.00,M,CLR,M,M,M,M,M,M,M,M,M,M,M,M,M,M,101.47,KHND 220056Z 06004KT 10SM CLR 39/14 A2992 RMK AO2 LTG DSNT NE SLP111 T03890139,M
LAS,2022-08-22 00:56,-115.1634,36.0719,663.00,102.00,56.00,21.88,100.00,5.00,0.00,29.88,1008.60,10.00,M,FEW,SCT,SCT,M,13000.00,16000.00,25000.00,M,M,M,M,M,M,M,M,101.01,KLAS 220056Z 10005KT 10SM FEW130 SCT160 SCT250 39/13 A2988 RMK AO2 LTG DSNT NE SLP086 CB DSNT NE-E TCU DSNT SE T03890133,M
TPH,2022-08-22 00:56,-117.0904,38.0505,1654.00,93.00,28.90,10.18,330.00,7.00,0.00,30.14,1011.60,10.00,M,CLR,M,M,M,M,M,M,M,M,M,M,M,M,M,M,87.79,KTPH 220056Z AUTO 33007KT 10SM CLR 34/M02 A3014 RMK AO2 SLP116 T03391017,M
WMC,2022-08-22 00:56,-117.8072,40.9019,1315.00,96.00,36.00,12.31,240.00,3.00,0.00,30.05,1012.30,10.00,M,CLR,M,M,M,M,M,M,M,M,M,M,M,M,M,M,91.21,KWMC 220056Z AUTO 24003KT 10SM CLR 36/02 A3005 RMK AO2 SLP123 T03560022 $,M
NFL,2022-08-22 00:56,-118.7010,39.4166,1199.00,99.00,32.00,9.60,M,5.00,0.00,30.01,1013.30,10.00,M,CLR,M,M,M,M,M,M,M,M,M,M,M,M,M,M,93.03,KNFL 220056Z AUTO VRB05KT 10SM CLR 37/00 A3001 RMK AO2 SLP133 T03720000,M
LSV,2022-08-22 00:58,-115.0343,36.2362,570.00,102.70,63.30,27.90,140.00,9.00,0.00,29.84,1007.60,10.00,M,SCT,M,M,M,17000.00,M,M,M,VCTS,M,M,M,M,M,M,105.68,KLSV 220058Z AUTO 14009KT 10SM VCTS SCT170 39/17 A2984 RMK AO2 SLP076 T03930174 $,M
INS,2022-08-22 00:58,-115.6733,36.5872,955.00,99.50,48.40,17.89,100.00,10.00,0.00,29.94,1008.20,10.00,M,FEW,M,M,M,18000.00,M,M,M,M,M,M,M,M,M,M,96.13,KINS 220058Z AUTO 10010KT 10SM FEW180 38/09 A2994 RMK AO2 SLP082 T03750091 $,M
LSV,2022-08-22 01:12,-115.0343,36.2362,570.00,102.20,60.80,25.93,70.00,19.00,0.00,29.85,1008.00,10.00,24.00,FEW,M,M,M,17000.00,M,M,M,M,M,M,M,M,M,M,103.57,KLSV 220112Z AUTO 07019G24KT 10SM FEW170 39/16 A2985 RMK AO2 WSHFT 05 LTG DSNT NE SLP080 $,M
BAM,2022-08-22 01:15,-116.8743,40.5990,1382.36,95.00,35.60,12.53,0.00,0.00,0.00,30.08,M,10.00,M,CLR,M,M,M,M,M,M,M,M,M,M,M,M,M,M,90.25,KBAM 220115Z AUTO 00000KT 10SM CLR 35/02 A3008 RMK AO1,M
MEV,2022-08-22 01:15,-119.7500,38.9963,1441.42,87.80,37.40,16.86,270.00,7.00,0.00,30.13,M,10.00,18.00,CLR,M,M,M,M,M,M,M,M,M,M,M,M,M,M,84.16,KMEV 220115Z AUTO 27007G18KT 240V320 10SM CLR 31/03 A3013 RMK AO2,M
CXP,2022-08-22 01:15,-119.7326,39.1923,1431.00,89.60,35.60,14.83,260.00,12.00,0.00,30.13,M,10.00,22.00,CLR,M,M,M,M,M,M,M,M,M,M,M,M,M,M,85.62,KCXP 220115Z AUTO 26012G22KT 10SM CLR 32/02 A3013 RMK AO2,M
BVU,2022-08-22 01:15,-114.8611,35.9475,671.00,100.40,62.60,29.17,150.00,10.00,0.00,29.88,M,M,M,M,M,M,M,M,M,M,M,M,M,M,M,M,M,M,102.50,KBVU 220115Z AUTO 15010KT 38/17 A2988 RMK AO2 PWINO TSNO,M
TMT,2022-08-22 01:15,-117.1971,39.4643,1749.34,M,M,M,350.00,10.00,0.00,30.19,M,10.00,M,CLR,M,M,M,M,M,M,M,M,M,M,M,M,M,M,M,KTMT 220115Z AUTO 35010KT 10SM CLR A3019 RMK AO2,M
RTS,2022-08-22 01:15,-119.8764,39.6682,1539.00,87.80,26.60,10.91,260.00,14.00,0.00,30.18,M,10.00,19.00,CLR,M,M,M,M,M,M,M,M,M,M,M,M,M,M,83.69,KRTS 220115Z AUTO 26014G19KT 10SM CLR 31/M03 A3018 RMK AO2,M
HTH,2022-08-22 01:15,-118.6315,38.5448,1282.89,95.00,33.80,11.67,320.00,6.00,0.00,30.04,M,10.00,M,CLR,M,M,M,M,M,M,M,M,M,M,M,M,M,M,89.97,KHTH 220115Z AUTO 32006KT 10SM CLR 35/01 A3004 RMK A01,M
LSV,2022-08-22 01:18,-115.0343,36.2362,570.00,100.40,51.80,19.76,60.00,24.00,0.00,29.85,1008.00,6.00,37.00,FEW,SCT,M,M,13000.00,17000.00,M,M,HZ,M,M,M,M,M,M,97.90,KLSV 220118Z 06024G37KT 6SM HZ FEW130 SCT170 38/11 A2985 RMK LTG DSNT NE SLP080 $,M
MEV,2022-08-22 01:35,-119.7500,38.9963,1441.42,86.00,37.40,17.85,M,5.00,0.00,30.13,M,10.00,10.00,CLR,M,M,M,M,M,M,M,M,M,M,M,M,M,M,82.73,KMEV 220135Z AUTO VRB05G10KT 10SM CLR 30/03 A3013 RMK AO2,M
BVU,2022-08-22 01:35,-114.8611,35.9475,671.00,98.60,62.60,30.80,160.00,10.00,0.00,29.88,M,M,M,M,M,M,M,M,M,M,M,M,M,M,M,M,M,M,100.38,KBVU 220135Z AUTO 16010KT 37/17 A2988 RMK AO2 PWINO TSNO,M
CXP,2022-08-22 01:35,-119.7326,39.1923,1431.00,87.80,35.60,15.70,280.00,16.00,0.00,30.13,M,10.00,21.00,CLR,M,M,M,M,M,M,M,M,M,M,M,M,M,M,84.12,KCXP 220135Z AUTO 28016G21KT 10SM CLR 31/02 A3013 RMK AO2,M
RTS,2022-08-22 01:35,-119.8764,39.6682,1539.00,87.80,30.20,12.64,300.00,13.00,0.00,30.18,M,10.00,20.00,CLR,M,M,M,M,M,M,M,M,M,M,M,M,M,M,84.01,KRTS 220135Z AUTO 30013G20KT 10SM CLR 31/M01 A3018 RMK AO2,M
BAM,2022-08-22 01:35,-116.8743,40.5990,1382.36,95.00,33.80,11.67,320.00,3.00,0.00,30.08,M,10.00,M,CLR,M,M,M,M,M,M,M,M,M,M,M,M,M,M,89.97,KBAM 220135Z AUTO 32003KT 10SM CLR 35/01 A3008 RMK AO1,M
HTH,2022-08-22 01:35,-118.6315,38.5448,1282.89,95.00,33.80,11.67,300.00,5.00,0.00,30.04,M,10.00,M,CLR,M,M,M,M,M,M,M,M,M,M,M,M,M,M,89.97,KHTH 220135Z AUTO 30005KT 10SM CLR 35/01 A3004 RMK A01,M
TMT,2022-08-22 01:35,-117.1971,39.4643,1749.34,M,M,M,360.00,6.00,0.00,30.19,M,10.00,M,CLR,M,M,M,M,M,M,M,M,M,M,M,M,M,M,M,KTMT 220135Z AUTO 36006KT 10SM CLR A3019 RMK AO2,M
LSV,2022-08-22 01:51,-115.0343,36.2362,570.00,98.60,55.40,23.81,40.00,19.00,0.00,29.86,1008.40,10.00,24.00,FEW,M,M,M,18000.00,M,M,M,M,M,M,M,M,M,M,97.09,KLSV 220151Z AUTO 04019G24KT 10SM FEW180 37/13 A2986 RMK AO2 WSHFT 38 LTG DSNT S SLP084 $,M
VGT,2022-08-22 01:53,-115.1933,36.2111,667.00,100.00,55.00,22.49,80.00,18.00,0.00,29.88,1010.40,10.00,M,FEW,M,M,M,2700.00,M,M,M,M,M,M,M,30.00,70.00,2022-08-22 01:33,98.48,KVGT 220153Z AUTO 08018KT 10SM FEW027 38/13 A2988 RMK AO2 PK WND 07030/0133 LTG DSNT NE AND E SLP104 T03780128 $,M
LOL,2022-08-22 01:53,-118.5701,40.0684,1192.43,96.00,32.00,10.49,300.00,9.00,0.00,30.01,1011.80,10.00,M,CLR,M,M,M,M,M,M,M,M,M,M,M,M,M,M,90.61,KLOL 220153Z AUTO 30009KT 10SM CLR 36/00 A3001 RMK AO2 SLP118 T03560000,M
DRA,2022-08-22 01:53,-116.0278,36.6206,1009.00,99.00,34.00,10.41,240.00,5.00,0.00,29.96,1008.60,10.00,M,CLR,M,M,M,M,M,M,M,M,M,M,M,M,M,M,93.31,KDRA 220153Z AUTO 24005KT 10SM CLR 37/01 A2996 RMK AO2 SLP086 T03720011,M
ELY,2022-08-22 01:53,-114.8453,39.2950,1909.00,78.00,44.00,29.91,360.00,7.00,0.00,30.22,1013.80,10.00,M,CLR,M,M,M,M,M,M,M,M,M,M,M,M,M,M,78.10,KELY 220153Z AUTO 36007KT 10SM CLR 26/07 A3022 RMK AO2 SLP138 T02560067,M
P68,2022-08-22 01:53,-116.0056,39.6014,1993.00,84.00,40.00,20.99,40.00,5.00,0.00,30.19,1013.90,M,M,M,M,M,M,M,M,M,M,M,M,M,M,M,M,M,81.33,KP68 220153Z AUTO 04005KT 29/04 A3019 RMK AO1 SLP139 T02890044,M
MEV,2022-08-22 01:55,-119.7500,38.9963,1441.42,86.00,37.40,17.85,M,4.00,0.00,30.13,M,10.00,14.00,CLR,M,M,M,M,M,M,M,M,M,M,M,M,M,M,82.73,KMEV 220155Z AUTO VRB04G14KT 10SM CLR 30/03 A3013 RMK AO2,M
BVU,2022-08-22 01:55,-114.8611,35.9475,671.00,96.80,62.60,32.54,150.00,11.00,0.00,29.88,M,M,M,M,M,M,M,M,M,M,M,M,M,M,M,M,M,M,98.28,KBVU 220155Z AUTO 15011KT 36/17 A2988 RMK AO2 PWINO TSNO,M
CXP,2022-08-22 01:55,-119.7326,39.1923,1431.00,86.00,33.80,15.48,M,6.00,0.00,30.14,M,10.00,19.00,CLR,M,M,M,M,M,M,M,M,M,M,M,M,M,M,82.66,KCXP 220155Z AUTO VRB06G19KT 10SM CLR 30/01 A3014 RMK AO2,M
RNO,2022-08-22 01:55,-119.7711,39.4839,1341.00,90.00,35.00,14.36,280.00,15.00,0.00,30.10,1013.10,10.00,22.00,FEW,SCT,M,M,9000.00,25000.00,M,M,M,M,M,M,26.00,280.00,2022-08-22 01:21,85.95,KRNO 220155Z 28015G22KT 10SM FEW090 SCT250 32/02 A3010 RMK AO2 PK WND 28026/0121 SLP131 T03220017,M
RTS,2022-08-22 01:55,-119.8764,39.6682,1539.00,86.00,32.00,14.40,290.00,13.00,0.00,30.18,M,10.00,20.00,CLR,M,M,M,M,M,M,M,M,M,M,M,M,M,M,82.64,KRTS 220155Z AUTO 29013G20KT 10SM CLR 30/M00 A3018 RMK AO2,M
BAM,2022-08-22 01:55,-116.8743,40.5990,1382.36,91.40,35.60,14.02,60.00,4.00,0.00,30.08,M,10.00,M,CLR,M,M,M,M,M,M,M,M,M,M,M,M,M,M,87.17,KBAM 220155Z AUTO 06004KT 10SM CLR 33/02 A3008 RMK AO1,M
HTH,2022-08-22 01:55,-118.6315,38.5448,1282.89,95.00,32.00,10.85,330.00,9.00,0.00,30.04,M,10.00,M,CLR,M,M,M,M,M,M,M,M,M,M,M,M,M,M,89.71,KHTH 220155Z AUTO 33009KT 10SM CLR 35/00 A3004 RMK A01,M
TMT,2022-08-22 01:55,-117.1971,39.4643,1749.34,M,M,M,350.00,3.00,0.00,30.19,M,10.00,M,CLR,M,M,M,M,M,M,M,M,M,M,M,M,M,M,M,KTMT 220155Z AUTO 35003KT 10SM CLR A3019 RMK AO2,M
EKO,2022-08-22 01:56,-115.7860,40.8242,1367.00,80.00,40.00,23.82,0.00,0.00,0.00,30.12,1015.00,10.00,M,CLR,M,M,M,M,M,M,M,M,M,M,M,M,M,M,78.93,KEKO 220156Z AUTO 00000KT 10SM CLR 27/04 A3012 RMK AO2 SLP150 T02670044 $,M
LAS,2022-08-22 01:56,-115.1634,36.0719,663.00,100.00,63.00,29.94,70.00,17.00,0.00,29.88,1008.70,10.00,24.00,SCT,BKN,BKN,M,13000.00,16000.00,25000.00,M,M,M,M,M,M,M,M,102.27,KLAS 220156Z 07017G24KT 10SM SCT130 BKN160 BKN250 38/17 A2988 RMK AO2 LTG DSNT N-E SLP087 CB DSNT N AND DSNT E TCU DSNT SE T03780172,M
NFL,2022-08-22 01:56,-118.7010,39.4166,1199.00,96.00,28.00,8.92,300.00,6.00,0.00,30.01,1013.30,10.00,M,CLR,M,M,M,M,M,M,M,M,M,M,M,M,M,M,90.13,KNFL 220156Z AUTO 30006KT 10SM CLR 36/M02 A3001 RMK AO2 SLP133 T03561022,M
TPH,2022-08-22 01:56,-117.0904,38.0505,1654.00,91.00,30.90,11.76,330.00,8.00,0.00,30.13,1011.40,10.00,M,CLR,M,M,M,M,M,M,M,M,M,M,M,M,M,M,86.48,KTPH 220156Z AUTO 33008KT 10SM CLR 33/M01 A3013 RMK AO2 SLP114 T03281006 $,M
HND,2022-08-22 01:56,-115.1344,35.9729,742.79,99.00,63.00,30.86,80.00,7.00,0.00,29.92,1011.30,10.00,M,CLR,M,M,M,M,M,M,M,M,M,M,M,M,M,M,101.09,KHND 220156Z 08007KT 10SM CLR 37/17 A2992 RMK AO2 LTG DSNT N-E SLP113 T03720172,M
WMC,2022-08-22 01:56,-117.8072,40.9019,1315.00,94.00,36.00,13.17,280.00,8.00,0.00,30.04,1012.10,10.00,M,CLR,M,M,M,M,M,M,M,M,M,M,M,M,M,M,89.40,KWMC 220156Z AUTO 28008KT 10SM CLR 34/02 A3004 RMK AO2 SLP121 T03440022 $,M
LSV,2022-08-22 01:58,-115.0343,36.2362,570.00,99.00,55.80,23.86,30.00,26.00,0.00,29.87,1008.70,9.00,31.00,FEW,M,M,M,18000.00,M,M,M,M,M,M,M,37.00,50.00,2022-08-22 01:13,97.67,KLSV 220158Z AUTO 03026G31KT 9SM FEW180 37/13 A2987 RMK AO2 PK WND 05037/13 SLP087 T03720132 $,M
INS,2022-08-22 01:58,-115.6733,36.5872,955.00,97.00,47.80,18.88,100.00,6.00,0.00,29.94,1008.40,10.00,M,CLR,M,M,M,M,M,M,M,M,M,M,M,M,M,M,93.48,KINS 220158Z AUTO 10006KT 10SM CLR 36/09 A2994 RMK AO2 SLP084 T03610088 $,M
MEV,2022-08-22 02:15,-119.7500,38.9963,1441.42,82.40,37.40,20.04,M,4.00,0.00,30.14,M,10.00,11.00,CLR,M,M,M,M,M,M,M,M,M,M,M,M,M,M,80.14,KMEV 220215Z AUTO VRB04G11KT 10SM CLR 28/03 A3014 RMK AO2,M
BVU,2022-08-22 02:15,-114.8611,35.9475,671.00,98.60,62.60,30.80,100.00,6.00,0.00,29.90,M,M,M,M,M,M,M,M,M,M,M,M,M,M,M,M,M,M,100.38,KBVU 220215Z AUTO 10006KT 37/17 A2990 RMK AO2 PWINO TSNO,M
CXP,2022-08-22 02:15,-119.7326,39.1923,1431.00,86.00,35.60,16.63,0.00,0.00,0.00,30.14,M,10.00,M,CLR,M,M,M,M,M,M,M,M,M,M,M,M,M,M,82.69,KCXP 220215Z AUTO 00000KT 10SM CLR 30/02 A3014 RMK AO2,M
RTS,2022-08-22 02:15,-119.8764,39.6682,1539.00,84.20,32.00,15.25,290.00,14.00,0.00,30.18,M,10.00,19.00,CLR,M,M,M,M,M,M,M,M,M,M,M,M,M,M,81.28,KRTS 220215Z AUTO 29014G19KT 10SM CLR 29/M00 A3018 RMK AO2,M
BAM,2022-08-22 02:15,-116.8743,40.5990,1382.36,91.40,37.40,15.05,0.00,0.00,0.00,30.08,M,10.00,M,CLR,M,M,M,M,M,M,M,M,M,M,M,M,M,M,87.23,KBAM 220215Z AUTO 00000KT 10SM CLR 33/03 A3008 RMK AO1,M
HTH,2022-08-22 02:15,-118.6315,38.5448,1282.89,93.20,33.80,12.34,310.00,8.00,0.00,30.04,M,10.00,M,CLR,M,M,M,M,M,M,M,M,M,M,M,M,M,M,88.55,KHTH 220215Z AUTO 31008KT 10SM CLR 34/01 A3004 RMK A01,M
TMT,2022-08-22 02:15,-117.1971,39.4643,1749.34,M,M,M,350.00,5.00,0.00,30.19,M,10.00,M,CLR,M,M,M,M,M,M,M,M,M,M,M,M,M,M,M,KTMT 220215Z AUTO 35005KT 10SM CLR A3019 RMK AO2,M
LSV,2022-08-22 02:17,-115.0343,36.2362,570.00,95.00,59.00,30.26,80.00,15.00,0.00,29.86,1008.40,10.00,30.00,FEW,M,M,M,8000.00,M,M,M,M,M,M,M,M,M,M,94.51,KLSV 220217Z AUTO 08015G30KT 10SM FEW080 35/15 A2986 RMK AO2 WSHFT 02 LTG DSNT E SLP084 $,M
LSV,2022-08-22 02:21,-115.0343,36.2362,570.00,93.20,59.00,31.99,80.00,17.00,0.00,29.84,1007.80,10.00,M,FEW,M,M,M,7000.00,M,M,M,-RA,M,M,M,M,M,M,92.57,KLSV 220221Z AUTO 08017KT 10SM -RA FEW070 34/15 A2984 RMK AO2 LTG DSNT E RAB21 PRESFR SLP078 $,M
LSV,2022-08-22 02:27,-115.0343,36.2362,570.00,93.20,60.80,34.11,90.00,15.00,0.00,29.85,1008.20,10.00,M,CLR,M,M,M,M,M,M,M,M,M,M,M,M,M,M,93.32,KLSV 220227Z AUTO 09015KT 10SM CLR 34/16 A2985 RMK AO2 LTG DSNT E RAB21E22DZB22E23RAB23E27 SLP082 $,M
RTS,2022-08-22 02:35,-119.8764,39.6682,1539.00,82.40,32.00,16.17,290.00,13.00,0.00,30.18,M,10.00,M,CLR,M,M,M,M,M,M,M,M,M,M,M,M,M,M,80.00,KRTS 220235Z AUTO 29013KT 10SM CLR 28/M00 A3018 RMK AO2,M
HTH,2022-08-22 02:35,-118.6315,38.5448,1282.89,93.20,33.80,12.34,300.00,6.00,0.00,30.05,M,10.00,M,CLR,M,M,M,M,M,M,M,M,M,M,M,M,M,M,88.55,KHTH 220235Z AUTO 30006KT 10SM CLR 34/01 A3005 RMK A01,M
MEV,2022-08-22 02:35,-119.7500,38.9963,1441.42,82.40,37.40,20.04,240.00,12.00,0.00,30.15,M,10.00,21.00,CLR,M,M,M,M,M,M,M,M,M,M,M,M,M,M,80.14,KMEV 220235Z AUTO 24012G21KT 210V290 10SM CLR 28/03 A3015 RMK AO2,M
TMT,2022-08-22 02:35,-117.1971,39.4643,1749.34,M,M,M,10.00,6.00,0.00,30.20,M,10.00,M,CLR,M,M,M,M,M,M,M,M,M,M,M,M,M,M,M,KTMT 220235Z AUTO 01006KT 10SM CLR A3020 RMK AO2,M
BAM,2022-08-22 02:35,-116.8743,40.5990,1382.36,87.80,39.20,18.09,0.00,0.00,0.00,30.08,M,10.00,M,CLR,M,M,M,M,M,M,M,M,M,M,M,M,M,M,84.22,KBAM 220235Z AUTO 00000KT 10SM CLR 31/04 A3008 RMK AO1,M
CXP,2022-08-22 02:35,-119.7326,39.1923,1431.00,84.20,33.80,16.39,M,5.00,0.00,30.15,M,10.00,M,CLR,M,M,M,M,M,M,M,M,M,M,M,M,M,M,81.30,KCXP 220235Z AUTO VRB05KT 10SM CLR 29/01 A3015 RMK AO2,M
BVU,2022-08-22 02:35,-114.8611,35.9475,671.00,95.00,59.00,30.26,40.00,16.00,0.00,29.92,M,M,21.00,M,M,M,M,M,M,M,M,M,M,M,M,M,M,M,94.51,KBVU 220235Z AUTO 04016G21KT 35/15 A2992 RMK AO2 PWINO TSNO,M
ELY,2022-08-22 02:53,-114.8453,39.2950,1909.00,71.00,46.00,40.65,100.00,3.00,0.00,30.24,1014.20,10.00,M,CLR,M,M,M,M,M,M,M,M,M,M,M,M,M,M,71.10,KELY 220253Z AUTO 10003KT 10SM CLR 22/08 A3024 RMK AO2 SLP142 T02170078 53006,M
P68,2022-08-22 02:53,-116.0056,39.6014,1993.00,78.00,41.00,26.55,30.00,3.00,0.00,30.20,1014.20,M,M,M,M,M,M,M,M,M,M,M,M,M,M,M,M,M,78.10,KP68 220253Z AUTO 03003KT 26/05 A3020 RMK AO1 SLP142 T02560050 53006,M
DRA,2022-08-22 02:53,-116.0278,36.6206,1009.00,94.00,34.00,12.17,250.00,3.00,0.00,29.97,1009.00,10.00,M,CLR,M,M,M,M,M,M,M,M,M,M,M,M,M,M,89.13,KDRA 220253Z AUTO 25003KT 10SM CLR 34/01 A2997 RMK AO2 SLP090 T03440011 55001,M
VGT,2022-08-22 02:53,-115.1933,36.2111,667.00,94.00,59.00,31.31,70.00,8.00,0.00,29.89,1010.80,10.00,M,CLR,M,M,M,M,M,M,M,M,M,M,M,27.00,50.00,2022-08-22 01:58,93.32,KVGT 220253Z 07008KT 10SM CLR 34/15 A2989 RMK AO2 PK WND 05027/0158 LTG DSNT E AND SE SLP108 T03440150 53007 $,M
LOL,2022-08-22 02:53,-118.5701,40.0684,1192.43,91.00,28.00,10.44,310.00,10.00,0.00,30.02,1012.10,10.00,M,CLR,M,M,M,M,M,M,M,M,M,M,M,M,M,M,86.19,KLOL 220253Z AUTO 31010KT 10SM CLR 33/M02 A3002 RMK AO2 SLP121 T03281022 53001,M
TMT,2022-08-22 02:55,-117.1971,39.4643,1749.34,M,M,M,350.00,4.00,0.00,30.21,M,10.00,M,CLR,M,M,M,M,M,M,M,M,M,M,M,M,M,M,M,KTMT 220255Z AUTO 35004KT 10SM CLR A3021 RMK AO2,M
BAM,2022-08-22 02:55,-116.8743,40.5990,1382.36,86.00,37.40,17.85,0.00,0.00,0.00,30.08,M,10.00,M,CLR,M,M,M,M,M,M,M,M,M,M,M,M,M,M,82.73,KBAM 220255Z AUTO 00000KT 10SM CLR 30/03 A3008 RMK AO1,M
RNO,2022-08-22 02:55,-119.7711,39.4839,1341.00,86.00,35.00,16.30,280.00,17.00,0.00,30.10,1013.30,10.00,28.00,FEW,M,M,M,25000.00,M,M,M,M,M,M,M,28.00,280.00,2022-08-22 02:50,82.68,KRNO 220255Z 28017G28KT 10SM FEW250 30/02 A3010 RMK AO2 PK WND 28028/0250 SLP133 T03000017 53005,M
BVU,2022-08-22 02:55,-114.8611,35.9475,671.00,95.00,57.20,28.37,90.00,11.00,0.00,29.92,M,M,18.00,M,M,M,M,M,M,M,M,M,M,M,M,M,M,M,93.82,KBVU 220255Z AUTO 09011G18KT 35/14 A2992 RMK AO2 PWINO TSNO,M
CXP,2022-08-22 02:55,-119.7326,39.1923,1431.00,84.20,32.00,15.25,220.00,5.00,0.00,30.16,M,10.00,17.00,CLR,M,M,M,M,M,M,M,M,M,M,M,M,M,M,81.28,KCXP 220255Z AUTO 22005G17KT 10SM CLR 29/00 A3016 RMK AO2,M
RTS,2022-08-22 02:55,-119.8764,39.6682,1539.00,78.80,32.00,18.18,290.00,9.00,0.00,30.19,M,10.00,15.00,CLR,M,M,M,M,M,M,M,M,M,M,M,M,M,M,78.80,KRTS 220255Z AUTO 29009G15KT 10SM CLR 26/M00 A3019 RMK AO2,M
MEV,2022-08-22 02:55,-119.7500,38.9963,1441.42,82.40,35.60,18.67,270.00,15.00,0.00,30.15,M,10.00,M,CLR,M,M,M,M,M,M,M,M,M,M,M,M,M,M,80.08,KMEV 220255Z AUTO 27015KT 10SM CLR 28/02 A3015 RMK AO2,M
HTH,2022-08-22 02:55,-118.6315,38.5448,1282.89,91.40,33.80,13.05,290.00,6.00,0.00,30.05,M,10.00,M,CLR,M,M,M,M,M,M,M,M,M,M,M,M,M,M,87.13,KHTH 220255Z AUTO 29006KT 10SM CLR 33/01 A3005 RMK A01,M
WMC,2022-08-22 02:56,-117.8072,40.9019,1315.00,84.00,37.00,18.74,280.00,7.00,0.00,30.05,1012.40,10.00,M,CLR,M,M,M,M,M,M,M,M,M,M,M,M,M,M,81.23,KWMC 220256Z AUTO 28007KT 10SM CLR 29/03 A3005 RMK AO2 SLP124 T02890028 53001 $,M
HND,2022-08-22 02:56,-115.1344,35.9729,742.79,95.00,55.00,26.19,100.00,10.00,0.00,29.94,1012.00,10.00,20.00,CLR,M,M,M,M,M,M,M,M,M,M,M,M,M,M,93.10,KHND 220256Z 10010G20KT 10SM CLR 35/13 A2994 RMK AO2 LTG DSNT E SLP120 T03500128 53006,M
EKO,2022-08-22 02:56,-115.7860,40.8242,1367.00,71.00,42.00,35.02,0.00,0.00,0.00,30.13,1015.70,10.00,M,CLR,M,M,M,M,M,M,M,M,M,M,M,M,M,M,71.10,KEKO 220256Z AUTO 00000KT 10SM CLR 22/06 A3013 RMK AO2 SLP157 T02170056 55001 $,M
TPH,2022-08-22 02:56,-117.0904,38.0505,1654.00,82.00,36.00,19.21,310.00,6.00,0.00,30.14,1012.00,10.00,M,CLR,M,M,M,M,M,M,M,M,M,M,M,M,M,M,79.83,KTPH 220256Z AUTO 31006KT 10SM CLR 28/02 A3014 RMK AO2 SLP120 T02780022 53001 $,M
LAS,2022-08-22 02:56,-115.1634,36.0719,663.00,95.00,54.00,25.26,100.00,8.00,0.00,29.90,1009.60,10.00,M,FEW,SCT,SCT,M,13000.00,16000.00,25000.00,M,M,M,M,M,34.00,40.00,2022-08-22 02:21,92.82,KLAS 220256Z 10008KT 10SM FEW130 SCT160 SCT250 35/12 A2990 RMK AO2 PK WND 04034/0221 LTG DSNT E AND SE SLP096 CB DSNT SE T03500122 53009,M
LSV,2022-08-22 02:58,-115.0343,36.2362,570.00,91.20,62.00,38.02,60.00,10.00,T,29.87,1008.80,10.00,M,CLR,M,M,M,M,M,M,M,M,M,M,M,30.00,40.00,2022-08-22 02:06,91.77,KLSV 220258Z AUTO 06010KT 10SM CLR 33/17 A2987 RMK AO2 PK WND 04030/06 LTG DSNT SE RAB21E22DZB22E23RAB23E27 SLP088 P0000 60000 T03290167 52010 $,M
INS,2022-08-22 02:58,-115.6733,36.5872,955.00,95.00,46.20,18.90,160.00,5.00,0.00,29.95,1008.60,10.00,M,CLR,M,M,M,M,M,M,M,M,M,M,M,M,M,M,91.26,KINS 220258Z AUTO 16005KT 10SM CLR 35/08 A2995 RMK AO2 SLP086 T03500079 53002 $,M
TMT,2022-08-22 03:15,-117.1971,39.4643,1749.34,M,M,M,340.00,6.00,0.00,30.21,M,10.00,M,CLR,M,M,M,M,M,M,M,M,M,M,M,M,M,M,M,KTMT 220315Z AUTO 34006KT 10SM CLR A3021 RMK AO2,M
BVU,2022-08-22 03:15,-114.8611,35.9475,671.00,93.20,57.20,29.99,140.00,13.00,0.00,29.89,M,M,18.00,M,M,M,M,M,M,M,M,M,M,M,M,M,M,M,91.91,KBVU 220315Z AUTO 14013G18KT 34/14 A2989 RMK AO2 PWINO TSNO,M
CXP,2022-08-22 03:15,-119.7326,39.1923,1431.00,84.20,32.00,15.25,M,3.00,0.00,30.16,M,10.00,M,CLR,M,M,M,M,M,M,M,M,M,M,M,M,M,M,81.28,KCXP 220315Z AUTO VRB03KT 10SM CLR 29/00 A3016 RMK AO2,M
RTS,2022-08-22 03:15,-119.8764,39.6682,1539.00,78.80,32.00,18.18,300.00,8.00,0.00,30.20,M,10.00,M,CLR,M,M,M,M,M,M,M,M,M,M,M,M,M,M,78.80,KRTS 220315Z AUTO 30008KT 10SM CLR 26/M00 A3020 RMK AO2,M
MEV,2022-08-22 03:15,-119.7500,38.9963,1441.42,82.40,35.60,18.67,270.00,12.00,0.00,30.15,M,10.00,M,CLR,M,M,M,M,M,M,M,M,M,M,M,M,M,M,80.08,KMEV 220315Z AUTO 27012KT 10SM CLR 28/02 A3015 RMK AO2,M
BAM,2022-08-22 03:15,-116.8743,40.5990,1382.36,80.60,39.20,22.81,60.00,7.00,0.00,30.09,M,10.00,M,CLR,M,M,M,M,M,M,M,M,M,M,M,M,M,M,79.10,KBAM 220315Z AUTO 06007KT 10SM CLR 27/04 A3009 RMK AO1,M
HTH,2022-08-22 03:15,-118.6315,38.5448,1282.89,91.40,32.00,12.14,310.00,15.00,0.00,30.06,M,10.00,M,CLR,M,M,M,M,M,M,M,M,M,M,M,M,M,M,86.91,KHTH 220315Z AUTO 31015KT 10SM CLR 33/M00 A3006 RMK A01,M
MEV,2022-08-22 03:35,-119.7500,38.9963,1441.42,80.60,35.60,19.79,240.00,11.00,0.00,30.16,M,10.00,M,CLR,M,M,M,M,M,M,M,M,M,M,M,M,M,M,78.94,KMEV 220335Z AUTO 24011KT 10SM CLR 27/02 A3016 RMK AO2,M
RTS,2022-08-22 03:35,-119.8764,39.6682,1539.00,77.00,32.00,19.30,M,5.00,0.00,30.21,M,10.00,11.00,CLR,M,M,M,M,M,M,M,M,M,M,M,M,M,M,77.00,KRTS 220335Z AUTO VRB05G11KT 10SM CLR 25/M00 A3021 RMK AO2,M
CXP,2022-08-22 03:35,-119.7326,39.1923,1431.00,82.40,32.00,16.17,M,6.00,0.00,30.17,M,10.00,M,CLR,M,M,M,M,M,M,M,M,M,M,M,M,M,M,80.00,KCXP 220335Z AUTO VRB06KT 10SM CLR 28/00 A3017 RMK AO2,M
TMT,2022-08-22 03:35,-117.1971,39.4643,1749.34,M,M,M,0.00,0.00,0.00,30.22,M,10.00,M,CLR,M,M,M,M,M,M,M,M,M,M,M,M,M,M,M,KTMT 220335Z AUTO 00000KT 10SM CLR A3022 RMK AO2,M
HTH,2022-08-22 03:35,-118.6315,38.5448,1282.89,89.60,32.00,12.84,340.00,9.00,0.00,30.07,M,10.00,16.00,CLR,M,M,M,M,M,M,M,M,M,M,M,M,M,M,85.54,KHTH 220335Z AUTO 34009G16KT 10SM CLR 32/00 A3007 RMK A01,M
BAM,2022-08-22 03:35,-116.8743,40.5990,1382.36,78.80,41.00,25.95,40.00,6.00,0.00,30.10,M,10.00,M,CLR,M,M,M,M,M,M,M,M,M,M,M,M,M,M,78.80,KBAM 220335Z AUTO 04006KT 10SM CLR 26/05 A3010 RMK AO1,M
BVU,2022-08-22 03:35,-114.8611,35.9475,671.00,93.20,57.20,29.99,120.00,8.00,0.00,29.93,M,M,M,M,M,M,M,M,M,M,M,M,M,M,M,M,M,M,91.91,KBVU 220335Z AUTO 12008KT 34/14 A2993 RMK AO2 PWINO TSNO,M
LOL,2022-08-22 03:53,-118.5701,40.0684,1192.43,87.00,28.90,12.26,280.00,12.00,0.00,30.04,1012.50,10.00,M,CLR,M,M,M,M,M,M,M,M,M,M,M,M,M,M,83.37,KLOL 220353Z AUTO 28012KT 10SM CLR 31/M02 A3004 RMK AO2 SLP125 T03061017,M
VGT,2022-08-22 03:53,-115.1933,36.2111,667.00,94.00,56.00,28.00,200.00,5.00,0.00,29.92,1011.80,10.00,M,CLR,M,M,M,M,M,M,M,M,M,M,M,M,M,M,92.22,KVGT 220353Z 20005KT 10SM CLR 34/13 A2992 RMK AO2 SLP118 T03440133 $,M
DRA,2022-08-22 03:53,-116.0278,36.6206,1009.00,92.00,34.00,12.95,0.00,0.00,0.00,29.97,1009.10,10.00,M,CLR,M,M,M,M,M,M,M,M,M,M,M,M,M,M,87.56,KDRA 220353Z AUTO 00000KT 10SM CLR 33/01 A2997 RMK AO2 SLP091 T03330011,M
P68,2022-08-22 03:53,-116.0056,39.6014,1993.00,72.00,40.00,31.20,100.00,3.00,0.00,30.22,1014.70,M,M,M,M,M,M,M,M,M,M,M,M,M,M,M,M,M,72.00,KP68 220353Z AUTO 10003KT 22/04 A3022 RMK AO1 SLP147 T02220044,M
ELY,2022-08-22 03:53,-114.8453,39.2950,1909.00,63.00,49.00,59.98,180.00,4.00,0.00,30.26,1014.80,10.00,M,CLR,M,M,M,M,M,M,M,M,M,M,M,M,M,M,63.00,KELY 220353Z AUTO 18004KT 10SM CLR 17/09 A3026 RMK AO2 SLP148 T01720094,M
HTH,2022-08-22 03:55,-118.6315,38.5448,1282.89,87.80,35.60,15.70,360.00,12.00,0.00,30.08,M,10.00,18.00,CLR,M,M,M,M,M,M,M,M,M,M,M,M,M,M,84.12,KHTH 220355Z AUTO 36012G18KT 10SM CLR 31/02 A3008 RMK A01,M
BAM,2022-08-22 03:55,-116.8743,40.5990,1382.36,78.80,41.00,25.95,110.00,3.00,0.00,30.10,M,10.00,M,CLR,M,M,M,M,M,M,M,M,M,M,M,M,M,M,78.80,KBAM 220355Z AUTO 11003KT 10SM CLR 26/05 A3010 RMK AO1,M
RTS,2022-08-22 03:55,-119.8764,39.6682,1539.00,75.20,32.00,20.49,50.00,5.00,0.00,30.22,M,10.00,M,CLR,M,M,M,M,M,M,M,M,M,M,M,M,M,M,75.20,KRTS 220355Z AUTO 05005KT 10SM CLR 24/M00 A3022 RMK AO2,M
CXP,2022-08-22 03:55,-119.7326,39.1923,1431.00,80.60,32.00,17.14,330.00,5.00,0.00,30.17,M,10.00,M,CLR,M,M,M,M,M,M,M,M,M,M,M,M,M,M,78.82,KCXP 220355Z AUTO 33005KT 10SM CLR 27/M00 A3017 RMK AO2,M
MEV,2022-08-22 03:55,-119.7500,38.9963,1441.42,77.00,39.20,25.67,220.00,7.00,0.00,30.17,M,10.00,12.00,CLR,M,M,M,M,M,M,M,M,M,M,M,M,M,M,77.00,KMEV 220355Z AUTO 22007G12KT 10SM CLR 25/04 A3017 RMK AO2,M
RNO,2022-08-22 03:55,-119.7711,39.4839,1341.00,83.00,37.00,19.41,310.00,11.00,0.00,30.14,1014.60,10.00,M,CLR,M,M,M,M,M,M,M,M,M,M,M,29.00,280.00,2022-08-22 03:08,80.46,KRNO 220355Z 31011KT 10SM CLR 28/03 A3014 RMK AO2 PK WND 28029/0308 SLP146 T02830028,M
BVU,2022-08-22 03:55,-114.8611,35.9475,671.00,91.40,59.00,33.84,0.00,0.00,0.00,29.93,M,M,10.00,M,M,M,M,M,M,M,M,M,M,M,M,M,M,M,90.68,KBVU 220355Z AUTO 00000G10KT 33/15 A2993 RMK AO2 PWINO TSNO,M
TMT,2022-08-22 03:55,-117.1971,39.4643,1749.34,M,M,M,170.00,3.00,0.00,30.22,M,10.00,M,CLR,M,M,M,M,M,M,M,M,M,M,M,M,M,M,M,KTMT 220355Z AUTO 17003KT 10SM CLR A3022 RMK AO2,M
WMC,2022-08-22 03:56,-117.8072,40.9019,1315.00,80.00,32.00,17.42,0.00,0.00,0.00,30.08,1013.00,10.00,M,CLR,M,M,M,M,M,M,M,M,M,M,M,M,M,M,78.63,KWMC 220356Z AUTO 00000KT 10SM CLR 27/00 A3008 RMK AO2 SLP130 T02670000 $,M
TPH,2022-08-22 03:56,-117.0904,38.0505,1654.00,81.00,34.00,18.33,10.00,6.00,0.00,30.16,1012.10,10.00,M,CLR,M,M,M,M,M,M,M,M,M,M,M,M,M,M,79.13,KTPH 220356Z AUTO 01006KT 10SM CLR 27/01 A3016 RMK AO2 SLP121 T02720011 $,M
LAS,2022-08-22 03:56,-115.1634,36.0719,663.00,94.00,54.00,26.13,0.00,0.00,0.00,29.93,1010.50,10.00,M,FEW,SCT,M,M,16000.00,25000.00,M,M,M,M,M,M,M,M,M,91.68,KLAS 220356Z 00000KT 10SM FEW160 SCT250 34/12 A2993 RMK AO2 SLP105 T03440122,M
NFL,2022-08-22 03:56,-118.7010,39.4166,1199.00,84.00,34.00,16.63,300.00,8.00,0.00,30.06,1014.80,10.00,M,CLR,M,M,M,M,M,M,M,M,M,M,M,M,M,M,81.16,KNFL 220356Z AUTO 30008KT 10SM CLR 29/01 A3006 RMK AO2 SLP148 T02890011,M
EKO,2022-08-22 03:56,-115.7860,40.8242,1367.00,68.00,43.00,40.31,10.00,3.00,0.00,30.15,1015.90,10.00,M,CLR,M,M,M,M,M,M,M,M,M,M,M,M,M,M,68.00,KEKO 220356Z AUTO 01003KT 10SM CLR 20/06 A3015 RMK AO2 SLP159 T02000061 $,M
HND,2022-08-22 03:56,-115.1344,35.9729,742.79,94.00,62.00,34.95,300.00,4.00,0.00,29.97,1013.00,10.00,M,CLR,M,M,M,M,M,M,M,M,M,M,M,M,M,M,94.72,KHND 220356Z AUTO 30004KT 10SM CLR 34/17 A2997 RMK AO2 SLP130 T03440167,M
INS,2022-08-22 03:58,-115.6733,36.5872,955.00,92.00,39.40,16.02,110.00,7.00,0.00,29.96,1009.10,10.00,M,CLR,M,M,M,M,M,M,M,M,M,M,M,M,M,M,87.76,KINS 220358Z AUTO 11007KT 10SM CLR 33/04 A2996 RMK AO2 SLP091 T03330041 $,M
LSV,2022-08-22 03:58,-115.0343,36.2362,570.00,89.80,60.80,37.94,80.00,11.00,0.00,29.90,1009.90,10.00,M,CLR,M,M,M,M,M,M,M,M,M,M,M,M,M,M,89.74,KLSV 220358Z AUTO 08011KT 10SM CLR 32/16 A2990 RMK AO2 SLP099 T03210160 $,M
RTS,2022-08-22 04:15,-119.8764,39.6682,1539.00,75.20,32.00,20.49,M,4.00,0.00,30.23,M,10.00,M,CLR,M,M,M,M,M,M,M,M,M,M,M,M,M,M,75.20,KRTS 220415Z AUTO VRB04KT 10SM CLR 24/00 A3023 RMK AO2,M
BVU,2022-08-22 04:15,-114.8611,35.9475,671.00,89.60,60.80,38.18,20.00,9.00,0.00,29.94,M,M,M,M,M,M,M,M,M,M,M,M,M,M,M,M,M,M,89.54,KBVU 220415Z AUTO 02009KT 32/16 A2994 RMK AO2 PWINO TSNO,M
BAM,2022-08-22 04:15,-116.8743,40.5990,1382.36,78.80,39.20,24.19,0.00,0.00,0.00,30.11,M,10.00,M,CLR,M,M,M,M,M,M,M,M,M,M,M,M,M,M,78.80,KBAM 220415Z AUTO 00000KT 10SM CLR 26/04 A3011 RMK AO1,M
HTH,2022-08-22 04:15,-118.6315,38.5448,1282.89,87.80,37.40,16.86,350.00,12.00,0.00,30.09,M,10.00,18.00,CLR,M,M,M,M,M,M,M,M,M,M,M,M,M,M,84.16,KHTH 220415Z AUTO 35012G18KT 10SM CLR 31/03 A3009 RMK A01,M
TMT,2022-08-22 04:15,-117.1971,39.4643,1749.34,M,M,M,210.00,3.00,0.00,30.22,M,10.00,M,CLR,M,M,M,M,M,M,M,M,M,M,M,M,M,M,M,KTMT 220415Z AUTO 21003KT 10SM CLR A3022 RMK AO2,M
MEV,2022-08-22 04:15,-119.7500,38.9963,1441.42,73.40,39.20,28.96,240.00,8.00,0.00,30.18,M,10.00,M,CLR,M,M,M,M,M,M,M,M,M,M,M,M,M,M,73.40,KMEV 220415Z AUTO 24008KT 10SM CLR 23/04 A3018 RMK AO2,M
CXP,2022-08-22 04:15,-119.7326,39.1923,1431.00,80.60,35.60,19.79,350.00,6.00,0.00,30.18,M,10.00,M,CLR,M,M,M,M,M,M,M,M,M,M,M,M,M,M,78.94,KCXP 220415Z AUTO 35006KT 10SM CLR 27/02 A3018 RMK AO2,M
TMT,2022-08-22 04:35,-117.1971,39.4643,1749.34,58.30,28.40,31.77,190.00,4.00,0.00,30.23,M,10.00,M,CLR,M,M,M,M,M,M,M,M,M,M,M,M,M,M,58.30,KTMT 220435Z AUTO 19004KT 10SM CLR 15/M02 A3023 RMK AO2 T01461020,M
BAM,2022-08-22 04:35,-116.8743,40.5990,1382.36,78.80,41.00,25.95,60.00,5.00,0.00,30.11,M,10.00,M,CLR,M,M,M,M,M,M,M,M,M,M,M,M,M,M,78.80,KBAM 220435Z AUTO 06005KT 10SM CLR 26/05 A3011 RMK AO1,M
MEV,2022-08-22 04:35,-119.7500,38.9963,1441.42,73.40,39.20,28.96,0.00,0.00,0.00,30.18,M,10.00,M,CLR,M,M,M,M,M,M,M,M,M,M,M,M,M,M,73.40,KMEV 220435Z AUTO 00000KT 10SM CLR 23/04 A3018 RMK AO2,M
RTS,2022-08-22 04:35,-119.8764,39.6682,1539.00,75.20,32.00,20.49,280.00,5.00,0.00,30.23,M,10.00,M,CLR,M,M,M,M,M,M,M,M,M,M,M,M,M,M,75.20,KRTS 220435Z AUTO 28005KT 10SM CLR 24/00 A3023 RMK AO2,M
CXP,2022-08-22 04:35,-119.7326,39.1923,1431.00,78.80,35.60,21.00,0.00,0.00,0.00,30.19,M,10.00,M,CLR,M,M,M,M,M,M,M,M,M,M,M,M,M,M,78.80,KCXP 220435Z AUTO 00000KT 10SM CLR 26/02 A3019 RMK AO2,M
BVU,2022-08-22 04:35,-114.8611,35.9475,671.00,91.40,59.00,33.84,40.00,6.00,0.00,29.95,M,M,M,M,M,M,M,M,M,M,M,M,M,M,M,M,M,M,90.68,KBVU 220435Z AUTO 04006KT 33/15 A2995 RMK AO2 PWINO TSNO,M
HTH,2022-08-22 04:35,-118.6315,38.5448,1282.89,87.80,39.20,18.09,350.00,10.00,0.00,30.09,M,10.00,18.00,CLR,M,M,M,M,M,M,M,M,M,M,M,M,M,M,84.22,KHTH 220435Z AUTO 35010G18KT 10SM CLR 31/04 A3009 RMK A01,M
ELY,2022-08-22 04:53,-114.8453,39.2950,1909.00,59.00,48.00,66.83,170.00,6.00,0.00,30.27,1015.30,10.00,M,CLR,M,M,M,M,M,M,M,M,M,M,M,M,M,M,59.00,KELY 220453Z AUTO 17006KT 10SM CLR 15/09 A3027 RMK AO2 SLP153 T01500089,M
P68,2022-08-22 04:53,-116.0056,39.6014,1993.00,64.00,39.00,39.67,200.00,4.00,0.00,30.23,1015.20,M,M,M,M,M,M,M,M,M,M,M,M,M,M,M,M,M,64.00,KP68 220453Z AUTO 20004KT 18/04 A3023 RMK AO1 SLP152 T01780039,M
LOL,2022-08-22 04:53,-118.5701,40.0684,1192.43,84.00,28.90,13.53,330.00,4.00,0.00,30.07,1013.10,10.00,M,CLR,M,M,M,M,M,M,M,M,M,M,M,M,M,M,81.10,KLOL 220453Z AUTO 33004KT 10SM CLR 29/M02 A3007 RMK AO2 SLP131 T02891017,M
VGT,2022-08-22 04:53,-115.1933,36.2111,667.00,92.00,57.00,31.00,100.00,4.00,0.00,29.94,1012.30,10.00,M,CLR,M,M,M,M,M,M,M,M,M,M,M,M,M,M,90.50,KVGT 220453Z AUTO 10004KT 10SM CLR 33/14 A2994 RMK AO2 SLP123 T03330139 $,M
DRA,2022-08-22 04:53,-116.0278,36.6206,1009.00,91.00,35.00,13.91,0.00,0.00,0.00,29.98,1009.40,10.00,M,CLR,M,M,M,M,M,M,M,M,M,M,M,M,M,M,86.81,KDRA 220453Z AUTO 00000KT 10SM CLR 33/02 A2998 RMK AO2 SLP094 T03280017,M
RNO,2022-08-22 04:55,-119.7711,39.4839,1341.00,81.00,37.00,20.65,310.00,9.00,0.00,30.16,1015.00,10.00,M,CLR,M,M,M,M,M,M,M,M,M,M,M,30.00,290.00,2022-08-22 04:19,79.24,KRNO 220455Z 31009KT 10SM CLR 27/03 A3016 RMK AO2 PK WND 29030/0419 SLP150 T02720028,M
MEV,2022-08-22 04:55,-119.7500,38.9963,1441.42,69.80,41.00,35.09,110.00,6.00,0.00,30.19,M,10.00,M,CLR,M,M,M,M,M,M,M,M,M,M,M,M,M,M,69.80,KMEV 220455Z AUTO 11006KT 10SM CLR 21/05 A3019 RMK AO2,M
RTS,2022-08-22 04:55,-119.8764,39.6682,1539.00,71.60,32.00,23.13,290.00,9.00,0.00,30.24,M,10.00,M,CLR,M,M,M,M,M,M,M,M,M,M,M,M,M,M,71.60,KRTS 220455Z AUTO 29009KT 10SM CLR 22/00 A3024 RMK AO2,M
BAM,2022-08-22 04:55,-116.8743,40.5990,1382.36,77.00,39.20,25.67,0.00,0.00,0.00,30.12,M,10.00,M,CLR,M,M,M,M,M,M,M,M,M,M,M,M,M,M,77.00,KBAM 220455Z AUTO 00000KT 10SM CLR 25/04 A3012 RMK AO1,M
HTH,2022-08-22 04:55,-118.6315,38.5448,1282.89,86.00,37.40,17.85,360.00,11.00,0.00,30.10,M,10.00,M,CLR,M,M,M,M,M,M,M,M,M,M,M,M,M,M,82.73,KHTH 220455Z AUTO 36011KT 10SM CLR 30/03 A3010 RMK A01,M
CXP,2022-08-22 04:55,-119.7326,39.1923,1431.00,77.00,35.60,22.28,350.00,6.00,0.00,30.20,M,10.00,M,CLR,M,M,M,M,M,M,M,M,M,M,M,M,M,M,77.00,KCXP 220455Z AUTO 35006KT 10SM CLR 25/02 A3020 RMK AO2,M
BVU,2022-08-22 04:55,-114.8611,35.9475,671.00,91.40,59.00,33.84,110.00,4.00,0.00,29.96,M,M,M,M,M,M,M,M,M,M,M,M,M,M,M,M,M,M,90.68,KBVU 220455Z AUTO 11004KT 33/15 A2996 RMK AO2 PWINO TSNO,M
TMT,2022-08-22 04:55,-117.1971,39.4643,1749.34,58.50,28.90,32.20,210.00,4.00,0.00,30.24,M,10.00,M,CLR,M,M,M,M,M,M,M,M,M,M,M,M,M,M,58.50,KTMT 220455Z AUTO 21004KT 10SM CLR 15/M02 A3024 RMK AO2 T01471017,M
EKO,2022-08-22 04:56,-115.7860,40.8242,1367.00,65.00,43.00,44.88,130.00,3.00,0.00,30.16,1016.30,10.00,M,CLR,M,M,M,M,M,M,M,M,M,M,M,M,M,M,64.90,KEKO 220456Z AUTO 13003KT 10SM CLR 18/06 A3016 RMK AO2 SLP163 T01830061 $,M
TPH,2022-08-22 04:56,-117.0904,38.0505,1654.00,78.00,34.00,20.16,30.00,7.00,0.00,30.17,1012.40,10.00,M,CLR,M,M,M,M,M,M,M,M,M,M,M,M,M,M,78.10,KTPH 220456Z AUTO 03007KT 10SM CLR 26/01 A3017 RMK AO2 SLP124 T02560011 $,M
HND,2022-08-22 04:56,-115.1344,35.9729,742.79,93.00,58.00,30.95,240.00,8.00,0.00,29.99,1013.50,10.00,M,CLR,M,M,M,M,M,M,M,M,M,M,M,M,M,M,91.94,KHND 220456Z AUTO 24008KT 210V270 10SM CLR 34/14 A2999 RMK AO2 SLP135 T03390144,M
LAS,2022-08-22 04:56,-115.1634,36.0719,663.00,92.00,56.00,29.80,340.00,5.00,0.00,29.95,1010.90,10.00,M,FEW,SCT,M,M,16000.00,25000.00,M,M,M,M,M,M,M,M,M,90.17,KLAS 220456Z 34005KT 10SM FEW160 SCT250 33/13 A2995 RMK AO2 SLP109 T03330133,M
WMC,2022-08-22 04:56,-117.8072,40.9019,1315.00,80.00,30.90,16.67,M,3.00,0.00,30.09,1013.10,10.00,M,CLR,M,M,M,M,M,M,M,M,M,M,M,M,M,M,78.59,KWMC 220456Z AUTO VRB03KT 10SM CLR 27/M01 A3009 RMK AO2 SLP131 T02671006 $,M
CXP,2022-08-22 05:15,-119.7326,39.1923,1431.00,75.20,35.60,23.66,0.00,0.00,0.00,30.20,M,10.00,M,CLR,M,M,M,M,M,M,M,M,M,M,M,M,M,M,75.20,KCXP 220515Z AUTO 00000KT 10SM CLR 24/02 A3020 RMK AO2,M
TMT,2022-08-22 05:15,-117.1971,39.4643,1749.34,58.00,28.90,32.90,180.00,6.00,0.00,30.24,M,10.00,M,CLR,M,M,M,M,M,M,M,M,M,M,M,M,M,M,57.90,KTMT 220515Z AUTO 18006KT 10SM CLR 14/M02 A3024 RMK AO2 T01441017,M
HTH,2022-08-22 05:15,-118.6315,38.5448,1282.89,86.00,33.80,15.48,360.00,10.00,0.00,30.10,M,10.00,M,CLR,M,M,M,M,M,M,M,M,M,M,M,M,M,M,82.66,KHTH 220515Z AUTO 36010KT 10SM CLR 30/01 A3010 RMK A01,M
BAM,2022-08-22 05:15,-116.8743,40.5990,1382.36,78.80,39.20,24.19,0.00,0.00,0.00,30.12,M,10.00,M,CLR,M,M,M,M,M,M,M,M,M,M,M,M,M,M,78.80,KBAM 220515Z AUTO 00000KT 10SM CLR 26/04 A3012 RMK AO1,M
MEV,2022-08-22 05:15,-119.7500,38.9963,1441.42,66.20,39.20,37.03,110.00,7.00,0.00,30.19,M,10.00,M,CLR,M,M,M,M,M,M,M,M,M,M,M,M,M,M,66.20,KMEV 220515Z AUTO 11007KT 10SM CLR 19/04 A3019 RMK AO2,M
RTS,2022-08-22 05:15,-119.8764,39.6682,1539.00,69.80,32.00,24.59,250.00,6.00,0.00,30.24,M,10.00,M,CLR,M,M,M,M,M,M,M,M,M,M,M,M,M,M,69.80,KRTS 220515Z AUTO 25006KT 10SM CLR 21/00 A3024 RMK AO2,M
BVU,2022-08-22 05:15,-114.8611,35.9475,671.00,89.60,59.00,35.81,90.00,6.00,0.00,29.96,M,M,M,M,M,M,M,M,M,M,M,M,M,M,M,M,M,M,88.86,KBVU 220515Z AUTO 09006KT 32/15 A2996 RMK AO2 PWINO TSNO,M
INS,2022-08-22 05:28,-115.6733,36.5872,955.00,87.80,50.00,27.29,110.00,14.00,0.00,29.98,M,10.00,M,CLR,M,M,M,M,M,M,M,M,M,M,M,M,M,M,85.11,KINS 220528Z 11014KT 10SM CLR 31/10 A2998,M
HTH,2022-08-22 05:35,-118.6315,38.5448,1282.89,84.20,33.80,16.39,330.00,9.00,0.00,30.11,M,10.00,M,CLR,M,M,M,M,M,M,M,M,M,M,M,M,M,M,81.30,KHTH 220535Z AUTO 33009KT 10SM CLR 29/01 A3011 RMK A01,M
MEV,2022-08-22 05:35,-119.7500,38.9963,1441.42,64.40,39.20,39.43,80.00,7.00,0.00,30.20,M,10.00,M,CLR,M,M,M,M,M,M,M,M,M,M,M,M,M,M,64.40,KMEV 220535Z AUTO 08007KT 10SM CLR 18/04 A3020 RMK AO2,M
CXP,2022-08-22 05:35,-119.7326,39.1923,1431.00,75.20,35.60,23.66,0.00,0.00,0.00,30.21,M,10.00,M,CLR,M,M,M,M,M,M,M,M,M,M,M,M,M,M,75.20,KCXP 220535Z AUTO 00000KT 10SM CLR 24/02 A3021 RMK AO2,M
BVU,2022-08-22 05:35,-114.8611,35.9475,671.00,91.40,60.80,36.08,170.00,8.00,0.00,29.96,M,M,14.00,M,M,M,M,M,M,M,M,M,M,M,M,M,M,M,91.40,KBVU 220535Z AUTO 17008G14KT 33/16 A2996 RMK AO2 PWINO TSNO,M
TMT,2022-08-22 05:35,-117.1971,39.4643,1749.34,M,M,M,220.00,6.00,0.00,30.24,M,10.00,M,CLR,M,M,M,M,M,M,M,M,M,M,M,M,M,M,M,KTMT 220535Z AUTO 22006KT 10SM CLR A3024 RMK AO2,M
RTS,2022-08-22 05:35,-119.8764,39.6682,1539.00,66.20,32.00,27.83,360.00,5.00,0.00,30.24,M,10.00,M,CLR,M,M,M,M,M,M,M,M,M,M,M,M,M,M,66.20,KRTS 220535Z AUTO 36005KT 10SM CLR 19/00 A3024 RMK AO2,M
BAM,2022-08-22 05:35,-116.8743,40.5990,1382.36,77.00,39.20,25.67,70.00,6.00,0.00,30.12,M,10.00,M,CLR,M,M,M,M,M,M,M,M,M,M,M,M,M,M,77.00,KBAM 220535Z AUTO 07006KT 10SM CLR 25/04 A3012 RMK AO1,M
VGT,2022-08-22 05:53,-115.1933,36.2111,667.00,91.00,58.00,32.94,90.00,3.00,0.00,29.95,1012.60,10.00,M,CLR,M,M,M,M,M,M,M,M,M,M,M,M,M,M,89.88,KVGT 220553Z AUTO 09003KT 10SM CLR 33/14 A2995 RMK AO2 SLP126 T03280144 10406 20328 51018 $,M
LOL,2022-08-22 05:53,-118.5701,40.0684,1192.43,83.00,28.90,14.02,320.00,8.00,0.00,30.08,1013.40,10.00,M,CLR,M,M,M,M,M,M,M,M,M,M,M,M,M,M,80.30,KLOL 220553Z AUTO 32008KT 10SM CLR 28/M02 A3008 RMK AO2 SLP134 T02831017 10378 20239 51018,M
DRA,2022-08-22 05:53,-116.0278,36.6206,1009.00,89.00,36.00,15.31,60.00,5.00,0.00,29.99,1009.40,10.00,M,CLR,M,M,M,M,M,M,M,M,M,M,M,M,M,M,85.21,KDRA 220553Z AUTO 06005KT 10SM CLR 32/02 A2999 RMK AO2 SLP094 T03170022 10389 20311 51006,M
ELY,2022-08-22 05:53,-114.8453,39.2950,1909.00,59.00,47.00,64.12,170.00,10.00,0.00,30.28,1015.00,10.00,M,CLR,M,M,M,M,M,M,M,M,M,M,M,M,M,M,59.00,KELY 220553Z AUTO 17010KT 10SM CLR 15/08 A3028 RMK AO2 SLP150 T01500083 10294 20144 51012,M
P68,2022-08-22 05:53,-116.0056,39.6014,1993.00,62.00,39.00,42.41,190.00,6.00,0.00,30.24,1015.30,M,M,M,M,M,M,M,M,M,M,M,M,M,M,M,M,M,62.10,KP68 220553Z AUTO 19006KT 17/04 A3024 RMK AO1 SLP153 T01670039 10306 20167 51010,M
RNO,2022-08-22 05:55,-119.7711,39.4839,1341.00,78.00,38.00,23.53,0.00,0.00,0.00,30.17,1015.30,10.00,M,CLR,M,M,M,M,M,M,M,M,M,M,M,M,M,M,78.10,KRNO 220555Z 00000KT 10SM CLR 26/03 A3017 RMK AO2 SLP153 T02560033 10356 20256 51020,M
BVU,2022-08-22 05:55,-114.8611,35.9475,671.00,91.40,62.60,38.45,160.00,12.00,0.00,29.96,M,M,M,M,M,M,M,M,M,M,M,M,M,M,M,M,M,M,92.23,KBVU 220555Z AUTO 16012KT 33/17 A2996 RMK AO2 PWINO TSNO,M
CXP,2022-08-22 05:55,-119.7326,39.1923,1431.00,75.20,35.60,23.66,0.00,0.00,0.00,30.21,M,10.00,M,CLR,M,M,M,M,M,M,M,M,M,M,M,M,M,M,75.20,KCXP 220555Z AUTO 00000KT 10SM CLR 24/02 A3021 RMK AO2,M
RTS,2022-08-22 05:55,-119.8764,39.6682,1539.00,68.00,32.00,26.15,310.00,7.00,0.00,30.24,M,10.00,M,CLR,M,M,M,M,M,M,M,M,M,M,M,M,M,M,68.00,KRTS 220555Z AUTO 31007KT 10SM CLR 20/00 A3024 RMK AO2,M
BAM,2022-08-22 05:55,-116.8743,40.5990,1382.36,77.00,37.40,23.93,110.00,3.00,0.00,30.12,M,10.00,M,CLR,M,M,M,M,M,M,M,M,M,M,M,M,M,M,77.00,KBAM 220555Z AUTO 11003KT 10SM CLR 25/03 A3012 RMK AO1,M
MEV,2022-08-22 05:55,-119.7500,38.9963,1441.42,64.40,37.40,36.74,100.00,7.00,0.00,30.20,M,10.00,M,CLR,M,M,M,M,M,M,M,M,M,M,M,M,M,M,64.40,KMEV 220555Z AUTO 10007KT 10SM CLR 18/03 A3020 RMK AO2,M
HTH,2022-08-22 05:55,-118.6315,38.5448,1282.89,84.20,32.00,15.25,350.00,9.00,0.00,30.12,M,10.00,M,CLR,M,M,M,M,M,M,M,M,M,M,M,M,M,M,81.28,KHTH 220555Z AUTO 35009KT 10SM CLR 29/00 A3012 RMK A01,M
TMT,2022-08-22 05:55,-117.1971,39.4643,1749.34,M,M,M,220.00,7.00,0.00,30.24,M,10.00,M,CLR,M,M,M,M,M,M,M,M,M,M,M,M,M,M,M,KTMT 220555Z AUTO 22007KT 10SM CLR A3024 RMK AO2,M
LSV,2022-08-22 05:56,-115.0343,36.2362,570.00,86.00,64.00,47.91,30.00,7.00,0.00,29.92,1010.50,10.00,M,CLR,M,M,M,M,M,M,M,M,M,M,M,M,M,M,87.31,KLSV 220556Z AUTO 03007KT 10SM CLR 30/18 A2992 RMK AO2 SLP105 60000 T03000178 10411 20300 52016 $,M
LAS,2022-08-22 05:56,-115.1634,36.0719,663.00,92.00,58.00,32.03,0.00,0.00,0.00,29.95,1011.20,10.00,M,FEW,M,M,M,18000.00,M,M,M,M,M,M,M,M,M,M,90.80,KLAS 220556Z 00000KT 10SM FEW180 33/14 A2995 RMK AO2 SLP112 T03330144 10394 20333 51016,M
INS,2022-08-22 05:56,-115.6733,36.5872,955.00,86.40,51.30,29.95,110.00,11.00,0.00,29.98,1009.70,10.00,M,CLR,M,M,M,M,M,M,M,M,M,M,M,M,M,M,84.12,KINS 220556Z AUTO 11011KT 10SM CLR 30/11 A2998 RMK AO2 SLP097 T03020107 10377 20302 52010 $,M
WMC,2022-08-22 05:56,-117.8072,40.9019,1315.00,73.00,30.90,21.10,280.00,3.00,0.00,30.10,1013.70,10.00,M,CLR,M,M,M,M,M,M,M,M,M,M,M,M,M,M,73.00,KWMC 220556Z AUTO 28003KT 10SM CLR 23/M01 A3010 RMK AO2 SLP137 T02281006 10372 20228 51015 $,M
NFL,2022-08-22 05:56,-118.7010,39.4166,1199.00,75.00,35.00,23.35,M,3.00,0.00,30.10,1016.00,10.00,M,CLR,M,M,M,M,M,M,M,M,M,M,M,M,M,M,75.00,KNFL 220556Z AUTO VRB03KT 10SM CLR 24/02 A3010 RMK AO2 SLP160 T02390017 10378 20239 51021,M
HND,2022-08-22 05:56,-115.1344,35.9729,742.79,90.00,65.00,43.55,120.00,8.00,0.00,29.99,1013.60,10.00,16.00,CLR,M,M,M,M,M,M,M,M,M,M,M,M,M,M,91.94,KHND 220556Z AUTO 12008G16KT 10SM CLR 32/18 A2999 RMK AO2 SLP136 T03220183 10389 20322 51017,M
EKO,2022-08-22 05:56,-115.7860,40.8242,1367.00,64.00,42.00,44.74,100.00,4.00,0.00,30.17,1016.40,10.00,M,CLR,M,M,M,M,M,M,M,M,M,M,M,M,M,M,64.00,KEKO 220556Z AUTO 10004KT 10SM CLR 18/06 A3017 RMK AO2 SLP164 T01780056 10289 20167 51012 $,M
TPH,2022-08-22 05:56,-117.0904,38.0505,1654.00,76.00,38.00,25.31,60.00,4.00,0.00,30.18,1012.70,10.00,M,CLR,M,M,M,M,M,M,M,M,M,M,M,M,M,M,75.90,KTPH 220556Z AUTO 06004KT 10SM CLR 24/03 A3018 RMK AO2 SLP127 T02440033 10344 20239 51010 $,M
CXP,2022-08-22 06:15,-119.7326,39.1923,1431.00,71.60,35.60,26.71,0.00,0.00,0.00,30.21,M,10.00,M,CLR,M,M,M,M,M,M,M,M,M,M,M,M,M,M,71.60,KCXP 220615Z AUTO 00000KT 10SM CLR 22/02 A3021 RMK AO2,M
MEV,2022-08-22 06:15,-119.7500,38.9963,1441.42,62.60,39.20,42.00,100.00,7.00,0.00,30.20,M,10.00,M,CLR,M,M,M,M,M,M,M,M,M,M,M,M,M,M,62.60,KMEV 220615Z AUTO 10007KT 10SM CLR 17/04 A3020 RMK AO2,M
RTS,2022-08-22 06:15,-119.8764,39.6682,1539.00,68.00,32.00,26.15,360.00,3.00,0.00,30.24,M,10.00,M,CLR,M,M,M,M,M,M,M,M,M,M,M,M,M,M,68.00,KRTS 220615Z AUTO 36003KT 10SM CLR 20/00 A3024 RMK AO2,M
TMT,2022-08-22 06:15,-117.1971,39.4643,1749.34,62.20,34.20,34.97,210.00,3.00,0.00,30.24,M,10.00,M,CLR,M,M,M,M,M,M,M,M,M,M,M,M,M,M,62.20,KTMT 220615Z AUTO 21003KT 10SM CLR 17/01 A3024 RMK AO2 T01680012,M
HTH,2022-08-22 06:15,-118.6315,38.5448,1282.89,84.20,30.20,14.18,300.00,5.00,0.00,30.12,M,10.00,M,CLR,M,M,M,M,M,M,M,M,M,M,M,M,M,M,81.26,KHTH 220615Z AUTO 30005KT 10SM CLR 29/M01 A3012 RMK A01,M
BAM,2022-08-22 06:15,-116.8743,40.5990,1382.36,69.80,37.40,30.49,250.00,8.00,0.00,30.12,M,10.00,M,CLR,M,M,M,M,M,M,M,M,M,M,M,M,M,M,69.80,KBAM 220615Z AUTO 25008KT 10SM CLR 21/03 A3012 RMK AO1,M
BVU,2022-08-22 06:15,-114.8611,35.9475,671.00,91.40,62.60,38.45,200.00,8.00,0.00,29.96,M,M,14.00,M,M,M,M,M,M,M,M,M,M,M,M,M,M,M,92.23,KBVU 220615Z AUTO 20008G14KT 33/17 A2996 RMK AO2 PWINO TSNO,M
BVU,2022-08-22 06:35,-114.8611,35.9475,671.00,91.40,64.40,40.96,170.00,12.00,0.00,29.97,M,M,M,M,M,M,M,M,M,M,M,M,M,M,M,M,M,M,93.19,KBVU 220635Z AUTO 17012KT 140V200 33/18 A2997 RMK AO2 PWINO TSNO,M
CXP,2022-08-22 06:35,-119.7326,39.1923,1431.00,73.40,35.60,25.13,0.00,0.00,0.00,30.21,M,10.00,M,CLR,M,M,M,M,M,M,M,M,M,M,M,M,M,M,73.40,KCXP 220635Z AUTO 00000KT 10SM CLR 23/02 A3021 RMK AO2,M
RTS,2022-08-22 06:35,-119.8764,39.6682,1539.00,68.00,32.00,26.15,360.00,4.00,0.00,30.24,M,10.00,M,CLR,M,M,M,M,M,M,M,M,M,M,M,M,M,M,68.00,KRTS 220635Z AUTO 36004KT 10SM CLR 20/00 A3024 RMK AO2,M
MEV,2022-08-22 06:35,-119.7500,38.9963,1441.42,62.60,39.20,42.00,100.00,8.00,0.00,30.20,M,10.00,M,CLR,M,M,M,M,M,M,M,M,M,M,M,M,M,M,62.60,KMEV 220635Z AUTO 10008KT 10SM CLR 17/04 A3020 RMK AO2,M
BAM,2022-08-22 06:35,-116.8743,40.5990,1382.36,71.60,37.40,28.68,310.00,4.00,0.00,30.13,M,10.00,M,CLR,M,M,M,M,M,M,M,M,M,M,M,M,M,M,71.60,KBAM 220635Z AUTO 31004KT 10SM CLR 22/03 A3013 RMK AO1,M
HTH,2022-08-22 06:35,-118.6315,38.5448,1282.89,82.40,35.60,18.67,320.00,10.00,0.00,30.12,M,10.00,M,CLR,M,M,M,M,M,M,M,M,M,M,M,M,M,M,80.08,KHTH 220635Z AUTO 32010KT 10SM CLR 28/02 A3012 RMK A01,M
TMT,2022-08-22 06:35,-117.1971,39.4643,1749.34,60.60,33.80,36.42,230.00,5.00,0.00,30.24,M,10.00,M,CLR,M,M,M,M,M,M,M,M,M,M,M,M,M,M,60.60,KTMT 220635Z AUTO 23005KT 10SM CLR 16/01 A3024 RMK AO2 T01590010,M
VGT,2022-08-22 06:53,-115.1933,36.2111,667.00,91.00,59.00,34.27,50.00,5.00,0.00,29.95,1012.80,10.00,M,CLR,M,M,M,M,M,M,M,M,M,M,M,M,M,M,90.27,KVGT 220653Z AUTO 05005KT 10SM CLR 33/15 A2995 RMK AO2 SLP128 T03280150 $,M
DRA,2022-08-22 06:53,-116.0278,36.6206,1009.00,86.00,36.00,16.89,M,3.00,0.00,30.00,1010.00,10.00,M,CLR,M,M,M,M,M,M,M,M,M,M,M,M,M,M,82.70,KDRA 220653Z AUTO VRB03KT 10SM CLR 30/02 A3000 RMK AO2 SLP100 T03000022,M
ELY,2022-08-22 06:53,-114.8453,39.2950,1909.00,55.00,48.00,77.21,170.00,8.00,0.00,30.29,1015.80,10.00,M,CLR,M,M,M,M,M,M,M,M,M,M,M,M,M,M,55.00,KELY 220653Z AUTO 17008KT 10SM CLR 13/09 A3029 RMK AO2 SLP158 T01280089 403000106,M
P68,2022-08-22 06:53,-116.0056,39.6014,1993.00,59.00,38.00,45.36,170.00,4.00,0.00,30.24,1015.20,M,M,M,M,M,M,M,M,M,M,M,M,M,M,M,M,M,59.00,KP68 220653Z AUTO 17004KT 15/03 A3024 RMK AO1 SLP152 T01500033,M
LOL,2022-08-22 06:53,-118.5701,40.0684,1192.43,77.00,30.00,17.80,120.00,6.00,0.00,30.09,1013.80,10.00,M,CLR,M,M,M,M,M,M,M,M,M,M,M,M,M,M,77.00,KLOL 220653Z AUTO 12006KT 10SM CLR 25/M01 A3009 RMK AO2 SLP138 T02501011,M
MEV,2022-08-22 06:55,-119.7500,38.9963,1441.42,60.80,35.60,38.85,110.00,6.00,0.00,30.20,M,10.00,M,CLR,M,M,M,M,M,M,M,M,M,M,M,M,M,M,60.80,KMEV 220655Z AUTO 11006KT 10SM CLR 16/02 A3020 RMK AO2,M
BVU,2022-08-22 06:55,-114.8611,35.9475,671.00,89.60,62.60,40.69,210.00,4.00,0.00,29.97,M,M,M,M,M,M,M,M,M,M,M,M,M,M,M,M,M,M,90.32,KBVU 220655Z AUTO 21004KT 32/17 A2997 RMK AO2 PWINO TSNO,M
CXP,2022-08-22 06:55,-119.7326,39.1923,1431.00,68.00,37.40,32.43,0.00,0.00,0.00,30.21,M,10.00,M,CLR,M,M,M,M,M,M,M,M,M,M,M,M,M,M,68.00,KCXP 220655Z AUTO 00000KT 10SM CLR 20/03 A3021 RMK AO2,M
RTS,2022-08-22 06:55,-119.8764,39.6682,1539.00,66.20,32.00,27.83,M,3.00,0.00,30.24,M,10.00,M,CLR,M,M,M,M,M,M,M,M,M,M,M,M,M,M,66.20,KRTS 220655Z AUTO VRB03KT 10SM CLR 19/00 A3024 RMK AO2,M
TMT,2022-08-22 06:55,-117.1971,39.4643,1749.34,59.00,33.00,37.19,0.00,0.00,0.00,30.24,M,10.00,M,CLR,M,M,M,M,M,M,M,M,M,M,M,M,M,M,59.00,KTMT 220655Z AUTO 00000KT 10SM CLR 15/01 A3024 RMK AO2 T01500005,M
RNO,2022-08-22 06:55,-119.7711,39.4839,1341.00,77.00,38.00,24.40,280.00,4.00,0.00,30.18,1015.30,10.00,M,CLR,M,M,M,M,M,M,M,M,M,M,M,M,M,M,77.00,KRNO 220655Z 28004KT 10SM CLR 25/03 A3018 RMK AO2 SLP153 T02500033,M
HTH,2022-08-22 06:55,-118.6315,38.5448,1282.89,82.40,37.40,20.04,320.00,7.00,0.00,30.13,M,10.00,M,CLR,M,M,M,M,M,M,M,M,M,M,M,M,M,M,80.14,KHTH 220655Z AUTO 32007KT 10SM CLR 28/03 A3013 RMK A01,M
BAM,2022-08-22 06:55,-116.8743,40.5990,1382.36,69.80,41.00,35.09,30.00,5.00,0.00,30.13,M,10.00,M,CLR,M,M,M,M,M,M,M,M,M,M,M,M,M,M,69.80,KBAM 220655Z AUTO 03005KT 10SM CLR 21/05 A3013 RMK AO1,M
WMC,2022-08-22 06:56,-117.8072,40.9019,1315.00,70.00,28.90,21.53,100.00,5.00,0.00,30.11,1013.70,10.00,M,CLR,M,M,M,M,M,M,M,M,M,M,M,M,M,M,70.00,KWMC 220656Z AUTO 10005KT 10SM CLR 21/M02 A3011 RMK AO2 SLP137 T02111017 $,M
EKO,2022-08-22 06:56,-115.7860,40.8242,1367.00,62.00,43.00,49.52,0.00,0.00,0.00,30.17,1016.00,10.00,M,CLR,M,M,M,M,M,M,M,M,M,M,M,M,M,M,62.10,KEKO 220656Z AUTO 00000KT 10SM CLR 17/06 A3017 RMK AO2 SLP160 T01670061 $,M
LAS,2022-08-22 06:56,-115.1634,36.0719,663.00,91.00,63.00,39.49,120.00,5.00,0.00,29.96,1011.30,10.00,M,FEW,M,M,M,18000.00,M,M,M,M,M,M,M,M,M,M,92.00,KLAS 220656Z 12005KT 10SM FEW180 33/17 A2996 RMK AO2 SLP113 T03280172,M
TPH,2022-08-22 06:56,-117.0904,38.0505,1654.00,73.00,36.00,25.88,20.00,7.00,0.00,30.19,1013.10,10.00,M,CLR,M,M,M,M,M,M,M,M,M,M,M,M,M,M,73.00,KTPH 220656Z AUTO 02007KT 10SM CLR 23/02 A3019 RMK AO2 SLP131 T02280022 $,M
NFL,2022-08-22 06:56,-118.7010,39.4166,1199.00,79.00,33.00,18.88,280.00,8.00,0.00,30.11,1016.10,10.00,M,CLR,M,M,M,M,M,M,M,M,M,M,M,M,M,M,79.00,KNFL 220656Z AUTO 28008KT 10SM CLR 26/01 A3011 RMK AO2 SLP161 T02610006,M
HND,2022-08-22 06:56,-115.1344,35.9729,742.79,88.00,64.00,44.95,150.00,5.00,0.00,29.99,1013.70,10.00,M,CLR,M,M,M,M,M,M,M,M,M,M,M,M,M,M,89.34,KHND 220656Z AUTO 15005KT 10SM CLR 31/18 A2999 RMK AO2 SLP137 T03110178 404000267,M
INS,2022-08-22 06:58,-115.6733,36.5872,955.00,86.40,51.30,29.95,110.00,14.00,0.00,29.99,1009.90,10.00,M,BKN,M,M,M,18000.00,M,M,M,M,M,M,M,M,M,M,84.12,KINS 220658Z AUTO 11014KT 10SM BKN180 30/11 A2999 RMK AO2 SLP099 T03020107 $,M
LSV,2022-08-22 06:58,-115.0343,36.2362,570.00,87.00,62.20,43.70,50.00,8.00,0.00,29.93,1010.70,10.00,M,FEW,M,M,M,15000.00,M,M,M,M,M,M,M,M,M,M,87.43,KLSV 220658Z AUTO 05008KT 10SM FEW150 31/17 A2993 RMK AO2 SLP107 T03050168 $,M
CXP,2022-08-22 07:15,-119.7326,39.1923,1431.00,66.20,35.60,32.14,300.00,3.00,0.00,30.21,M,10.00,M,CLR,M,M,M,M,M,M,M,M,M,M,M,M,M,M,66.20,KCXP 220715Z AUTO 30003KT 10SM CLR 19/02 A3021 RMK AO2,M
BVU,2022-08-22 07:15,-114.8611,35.9475,671.00,89.60,64.40,43.34,190.00,3.00,0.00,29.97,M,M,M,M,M,M,M,M,M,M,M,M,M,M,M,M,M,M,91.23,KBVU 220715Z AUTO 19003KT 32/18 A2997 RMK AO2 PWINO TSNO,M
TMT,2022-08-22 07:15,-117.1971,39.4643,1749.34,56.70,35.40,44.64,260.00,7.00,0.00,30.25,M,10.00,M,CLR,M,M,M,M,M,M,M,M,M,M,M,M,M,M,56.70,KTMT 220715Z AUTO 26007KT 10SM CLR 14/02 A3025 RMK AO2 T01370019,M
HTH,2022-08-22 07:15,-118.6315,38.5448,1282.89,80.60,39.20,22.81,310.00,8.00,0.00,30.13,M,10.00,M,CLR,M,M,M,M,M,M,M,M,M,M,M,M,M,M,79.10,KHTH 220715Z AUTO 31008KT 10SM CLR 27/04 A3013 RMK A01,M
BAM,2022-08-22 07:15,-116.8743,40.5990,1382.36,64.40,37.40,36.74,150.00,8.00,0.00,30.13,M,10.00,M,CLR,M,M,M,M,M,M,M,M,M,M,M,M,M,M,64.40,KBAM 220715Z AUTO 15008KT 10SM CLR 18/03 A3013 RMK AO1,M
MEV,2022-08-22 07:15,-119.7500,38.9963,1441.42,59.00,35.60,41.42,110.00,5.00,0.00,30.20,M,10.00,M,CLR,M,M,M,M,M,M,M,M,M,M,M,M,M,M,59.00,KMEV 220715Z AUTO 11005KT 10SM CLR 15/02 A3020 RMK AO2,M
RTS,2022-08-22 07:15,-119.8764,39.6682,1539.00,68.00,32.00,26.15,350.00,4.00,0.00,30.24,M,10.00,M,CLR,M,M,M,M,M,M,M,M,M,M,M,M,M,M,68.00,KRTS 220715Z AUTO 35004KT 10SM CLR 20/00 A3024 RMK AO2,M
TMT,2022-08-22 07:35,-117.1971,39.4643,1749.34,58.50,34.00,39.57,200.00,6.00,0.00,30.25,M,10.00,M,CLR,M,M,M,M,M,M,M,M,M,M,M,M,M,M,58.50,KTMT 220735Z AUTO 20006KT 10SM CLR 15/01 A3025 RMK AO2 T01470011,M
BAM,2022-08-22 07:35,-116.8743,40.5990,1382.36,66.20,35.60,32.14,0.00,0.00,0.00,30.13,M,10.00,M,CLR,M,M,M,M,M,M,M,M,M,M,M,M,M,M,66.20,KBAM 220735Z AUTO 00000KT 10SM CLR 19/02 A3013 RMK AO1,M
BVU,2022-08-22 07:35,-114.8611,35.9475,671.00,87.80,64.40,45.88,M,3.00,0.00,29.97,M,M,M,M,M,M,M,M,M,M,M,M,M,M,M,M,M,M,89.33,KBVU 220735Z AUTO VRB03KT 31/18 A2997 RMK AO2 PWINO TSNO,M
HTH,2022-08-22 07:35,-118.6315,38.5448,1282.89,80.60,37.40,21.25,310.00,10.00,0.00,30.14,M,10.00,M,CLR,M,M,M,M,M,M,M,M,M,M,M,M,M,M,79.02,KHTH 220735Z AUTO 31010KT 10SM CLR 27/03 A3014 RMK A01,M
CXP,2022-08-22 07:35,-119.7326,39.1923,1431.00,68.00,33.80,28.11,0.00,0.00,0.00,30.21,M,10.00,M,CLR,M,M,M,M,M,M,M,M,M,M,M,M,M,M,68.00,KCXP 220735Z AUTO 00000KT 10SM CLR 20/01 A3021 RMK AO2,M
RTS,2022-08-22 07:35,-119.8764,39.6682,1539.00,66.20,32.00,27.83,350.00,6.00,0.00,30.24,M,10.00,M,CLR,M,M,M,M,M,M,M,M,M,M,M,M,M,M,66.20,KRTS 220735Z AUTO 35006KT 10SM CLR 19/M00 A3024 RMK AO2,M
MEV,2022-08-22 07:35,-119.7500,38.9963,1441.42,60.80,39.20,44.76,110.00,5.00,0.00,30.20,M,10.00,M,CLR,M,M,M,M,M,M,M,M,M,M,M,M,M,M,60.80,KMEV 220735Z AUTO 11005KT 10SM CLR 16/04 A3020 RMK AO2,M
CXP,2022-08-22 07:50,-119.7326,39.1923,1431.00,64.40,37.40,36.74,0.00,0.00,0.00,30.21,M,10.00,M,CLR,M,M,M,M,M,M,M,M,M,M,M,M,M,M,64.40,KCXP 220750Z AUTO 00000KT 10SM CLR 18/03 A3021 RMK AO2,M
VGT,2022-08-22 07:53,-115.1933,36.2111,667.00,90.00,59.00,35.36,50.00,7.00,0.00,29.94,1012.40,10.00,M,CLR,M,M,M,M,M,M,M,M,M,M,M,M,M,M,89.26,KVGT 220753Z AUTO 05007KT 10SM CLR 32/15 A2994 RMK AO2 SLP124 T03220150 404060294 $,M
ELY,2022-08-22 07:53,-114.8453,39.2950,1909.00,54.00,48.00,80.07,200.00,8.00,0.00,30.30,1015.90,10.00,M,CLR,M,M,M,M,M,M,M,M,M,M,M,M,M,M,54.00,KELY 220753Z AUTO 20008KT 10SM CLR 12/09 A3030 RMK AO2 SLP159 T01220089,M
DRA,2022-08-22 07:53,-116.0278,36.6206,1009.00,83.00,42.00,23.68,90.00,4.00,0.00,30.00,1010.10,10.00,M,CLR,M,M,M,M,M,M,M,M,M,M,M,M,M,M,80.68,KDRA 220753Z AUTO 09004KT 10SM CLR 28/06 A3000 RMK AO2 SLP101 T02830056 404000233,M
P68,2022-08-22 07:53,-116.0056,39.6014,1993.00,57.00,38.00,48.73,170.00,4.00,0.00,30.25,1015.70,M,M,M,M,M,M,M,M,M,M,M,M,M,M,M,M,M,57.00,KP68 220753Z AUTO 17004KT 14/03 A3025 RMK AO1 SLP157 T01390033 403220117,M
LOL,2022-08-22 07:53,-118.5701,40.0684,1192.43,70.00,33.00,25.53,150.00,5.00,0.00,30.10,1014.30,10.00,M,CLR,M,M,M,M,M,M,M,M,M,M,M,M,M,M,70.00,KLOL 220753Z AUTO 15005KT 10SM CLR 21/01 A3010 RMK AO2 SLP143 T02110006 403780128,M
BVU,2022-08-22 07:55,-114.8611,35.9475,671.00,87.80,64.40,45.88,180.00,6.00,0.00,29.96,M,M,M,M,M,M,M,M,M,M,M,M,M,M,M,M,M,M,89.33,KBVU 220755Z AUTO 18006KT 31/18 A2996 RMK AO2 PWINO TSNO,M
TMT,2022-08-22 07:55,-117.1971,39.4643,1749.34,53.80,33.30,45.61,140.00,3.00,0.00,30.25,M,10.00,M,CLR,M,M,M,M,M,M,M,M,M,M,M,M,M,M,53.80,KTMT 220755Z AUTO 14003KT 10SM CLR 12/01 A3025 RMK AO2 T01210007,M
HTH,2022-08-22 07:55,-118.6315,38.5448,1282.89,78.80,35.60,21.00,310.00,8.00,0.00,30.14,M,10.00,M,M,M,M,M,M,M,M,M,M,M,M,M,M,M,M,78.80,KHTH 220755Z AUTO 31008KT 10SM 26/02 A3014 RMK A01,M
BAM,2022-08-22 07:55,-116.8743,40.5990,1382.36,66.20,37.40,34.51,30.00,5.00,0.00,30.14,M,10.00,M,CLR,M,M,M,M,M,M,M,M,M,M,M,M,M,M,66.20,KBAM 220755Z AUTO 03005KT 10SM CLR 19/03 A3014 RMK AO1,M
MEV,2022-08-22 07:55,-119.7500,38.9963,1441.42,59.00,39.20,47.72,240.00,4.00,0.00,30.21,M,10.00,M,CLR,M,M,M,M,M,M,M,M,M,M,M,M,M,M,59.00,KMEV 220755Z AUTO 24004KT 10SM CLR 15/04 A3021 RMK AO2,M
RTS,2022-08-22 07:55,-119.8764,39.6682,1539.00,62.60,32.00,31.56,M,4.00,0.00,30.25,M,10.00,M,CLR,M,M,M,M,M,M,M,M,M,M,M,M,M,M,62.60,KRTS 220755Z AUTO VRB04KT 10SM CLR 17/M00 A3025 RMK AO2,M
RNO,2022-08-22 07:55,-119.7711,39.4839,1341.00,74.00,38.00,27.06,300.00,5.00,0.00,30.18,1015.40,10.00,M,CLR,M,M,M,M,M,M,M,M,M,M,M,M,M,M,73.90,KRNO 220755Z 30005KT 10SM CLR 23/03 A3018 RMK AO2 SLP154 T02330033 403720178,M
LSV,2022-08-22 07:56,-115.0343,36.2362,570.00,88.20,62.00,41.78,70.00,8.00,0.00,29.93,1010.70,10.00,M,CLR,M,M,M,M,M,M,M,M,M,M,M,M,M,M,88.67,KLSV 220756Z AUTO 07008KT 10SM CLR 31/17 A2993 RMK AO2 SLP107 T03120167 404200290 $,M
EKO,2022-08-22 07:56,-115.7860,40.8242,1367.00,53.00,44.00,71.40,170.00,3.00,0.00,30.17,1016.80,10.00,M,CLR,M,M,M,M,M,M,M,M,M,M,M,M,M,M,53.10,KEKO 220756Z AUTO 17003KT 10SM CLR 12/07 A3017 RMK AO2 SLP168 T01170067 403000100 $,M
TPH,2022-08-22 07:56,-117.0904,38.0505,1654.00,72.00,35.00,25.83,350.00,6.00,0.00,30.19,1012.80,10.00,M,CLR,M,M,M,M,M,M,M,M,M,M,M,M,M,M,72.00,KTPH 220756Z AUTO 35006KT 10SM CLR 22/02 A3019 RMK AO2 SLP128 T02220017 403440178 $,M
HND,2022-08-22 07:56,-115.1344,35.9729,742.79,87.00,67.00,51.17,190.00,9.00,0.00,29.99,1013.60,10.00,M,CLR,M,M,M,M,M,M,M,M,M,M,M,M,M,M,89.96,KHND 220756Z AUTO 19009KT 10SM CLR 31/19 A2999 RMK AO2 SLP136 T03060194,M
NFL,2022-08-22 07:56,-118.7010,39.4166,1199.00,72.00,35.00,25.83,0.00,0.00,0.00,30.12,1016.50,10.00,M,CLR,M,M,M,M,M,M,M,M,M,M,M,M,M,M,72.00,KNFL 220756Z AUTO 00000KT 10SM CLR 22/02 A3012 RMK AO2 SLP165 T02220017 403780167,M
WMC,2022-08-22 07:56,-117.8072,40.9019,1315.00,65.00,28.00,24.75,0.00,0.00,0.00,30.11,1013.90,10.00,M,CLR,M,M,M,M,M,M,M,M,M,M,M,M,M,M,64.90,KWMC 220756Z AUTO 00000KT 10SM CLR 18/M02 A3011 RMK AO2 SLP139 T01831022 403830122 $,M
LAS,2022-08-22 07:56,-115.1634,36.0719,663.00,90.00,63.00,40.75,110.00,4.00,0.00,29.95,1010.90,10.00,M,FEW,M,M,M,18000.00,M,M,M,M,M,M,M,M,M,M,90.93,KLAS 220756Z 11004KT 10SM FEW180 32/17 A2995 RMK AO2 SLP109 T03220172 404000278,M
INS,2022-08-22 07:56,-115.6733,36.5872,955.00,85.30,50.40,30.00,170.00,3.00,0.00,30.00,1010.30,10.00,M,CLR,M,M,M,M,M,M,M,M,M,M,M,M,M,M,83.12,KINS 220756Z AUTO 17003KT 10SM CLR 30/10 A3000 RMK AO2 SLP103 T02960102 403770257 $,M
CXP,2022-08-22 08:15,-119.7326,39.1923,1431.00,62.60,37.40,39.14,0.00,0.00,0.00,30.21,M,10.00,M,CLR,M,M,M,M,M,M,M,M,M,M,M,M,M,M,62.60,KCXP 220815Z AUTO 00000KT 10SM CLR 17/03 A3021 RMK AO2,M
BAM,2022-08-22 08:15,-116.8743,40.5990,1382.36,68.00,35.60,30.20,0.00,0.00,0.00,30.13,M,10.00,M,CLR,M,M,M,M,M,M,M,M,M,M,M,M,M,M,68.00,KBAM 220815Z AUTO 00000KT 10SM CLR 20/02 A3013 RMK AO1,M
HTH,2022-08-22 08:15,-118.6315,38.5448,1282.89,78.80,35.60,21.00,320.00,8.00,0.00,30.14,M,10.00,M,M,M,M,M,M,M,M,M,M,M,M,M,M,M,M,78.80,KHTH 220815Z AUTO 32008KT 10SM 26/02 A3014 RMK A01,M
BVU,2022-08-22 08:15,-114.8611,35.9475,671.00,87.80,64.40,45.88,170.00,6.00,0.00,29.97,M,M,M,M,M,M,M,M,M,M,M,M,M,M,M,M,M,M,89.33,KBVU 220815Z AUTO 17006KT 31/18 A2997 RMK AO2 PWINO TSNO,M
TMT,2022-08-22 08:15,-117.1971,39.4643,1749.34,54.00,33.00,44.56,0.00,0.00,0.00,30.25,M,10.00,M,CLR,M,M,M,M,M,M,M,M,M,M,M,M,M,M,54.00,KTMT 220815Z AUTO 00000KT 10SM CLR 12/01 A3025 RMK AO2 T01220005,M
MEV,2022-08-22 08:15,-119.7500,38.9963,1441.42,57.20,37.40,47.44,0.00,0.00,0.00,30.20,M,10.00,M,CLR,M,M,M,M,M,M,M,M,M,M,M,M,M,M,57.20,KMEV 220815Z AUTO 00000KT 10SM CLR 14/03 A3020 RMK AO2,M
RTS,2022-08-22 08:15,-119.8764,39.6682,1539.00,62.60,32.00,31.56,330.00,5.00,0.00,30.24,M,10.00,M,CLR,M,M,M,M,M,M,M,M,M,M,M,M,M,M,62.60,KRTS 220815Z AUTO 33005KT 10SM CLR 17/M00 A3024 RMK AO2,M
CXP,2022-08-22 08:30,-119.7326,39.1923,1431.00,62.60,35.60,36.45,0.00,0.00,0.00,30.21,M,10.00,M,CLR,M,M,M,M,M,M,M,M,M,M,M,M,M,M,62.60,KCXP 220830Z AUTO 00000KT 10SM CLR 17/02 A3021 RMK AO2,M
HTH,2022-08-22 08:35,-118.6315,38.5448,1282.89,77.00,35.60,22.28,310.00,6.00,0.00,30.14,M,10.00,M,CLR,M,M,M,M,M,M,M,M,M,M,M,M,M,M,77.00,KHTH 220835Z AUTO 31006KT 10SM CLR 25/02 A3014 RMK A01,M
BVU,2022-08-22 08:35,-114.8611,35.9475,671.00,87.80,64.40,45.88,170.00,7.00,0.00,29.96,M,M,M,M,M,M,M,M,M,M,M,M,M,M,M,M,M,M,89.33,KBVU 220835Z AUTO 17007KT 31/18 A2996 RMK AO2 PWINO TSNO,M
RTS,2022-08-22 08:35,-119.8764,39.6682,1539.00,60.80,32.00,33.64,330.00,7.00,0.00,30.24,M,10.00,M,CLR,M,M,M,M,M,M,M,M,M,M,M,M,M,M,60.80,KRTS 220835Z AUTO 33007KT 10SM CLR 16/00 A3024 RMK AO2,M
MEV,2022-08-22 08:35,-119.7500,38.9963,1441.42,55.40,37.40,50.64,90.00,5.00,0.00,30.20,M,10.00,M,CLR,M,M,M,M,M,M,M,M,M,M,M,M,M,M,55.40,KMEV 220835Z AUTO 09005KT 10SM CLR 13/03 A3020 RMK AO2,M
BAM,2022-08-22 08:35,-116.8743,40.5990,1382.36,68.00,39.20,34.80,60.00,7.00,0.00,30.13,M,10.00,M,CLR,M,M,M,M,M,M,M,M,M,M,M,M,M,M,68.00,KBAM 220835Z AUTO 06007KT 10SM CLR 20/04 A3013 RMK AO1,M
TMT,2022-08-22 08:35,-117.1971,39.4643,1749.34,52.70,33.80,48.45,310.00,3.00,0.00,30.25,M,10.00,M,CLR,M,M,M,M,M,M,M,M,M,M,M,M,M,M,52.70,KTMT 220835Z AUTO 31003KT 10SM CLR 12/01 A3025 RMK AO2 T01150010,M
LOL,2022-08-22 08:53,-118.5701,40.0684,1192.43,66.00,33.00,29.29,0.00,0.00,0.00,30.10,1014.60,10.00,M,CLR,M,M,M,M,M,M,M,M,M,M,M,M,M,M,66.00,KLOL 220853Z AUTO 00000KT 10SM CLR 19/01 A3010 RMK AO2 SLP146 T01890006 51006,M
ELY,2022-08-22 08:53,-114.8453,39.2950,1909.00,53.00,47.00,79.40,190.00,7.00,0.00,30.30,1016.40,10.00,M,CLR,M,M,M,M,M,M,M,M,M,M,M,M,M,M,53.10,KELY 220853Z AUTO 19007KT 10SM CLR 12/08 A3030 RMK AO2 SLP164 T01170083 51004,M
VGT,2022-08-22 08:53,-115.1933,36.2111,667.00,88.00,61.00,40.44,40.00,6.00,0.00,29.94,1012.30,10.00,M,CLR,M,M,M,M,M,M,M,M,M,M,M,M,M,M,88.02,KVGT 220853Z AUTO 04006KT 10SM CLR 31/16 A2994 RMK AO2 SLP123 T03110161 58002 $,M
P68,2022-08-22 08:53,-116.0056,39.6014,1993.00,59.00,38.00,45.36,180.00,7.00,0.00,30.23,1014.90,M,M,M,M,M,M,M,M,M,M,M,M,M,M,M,M,M,59.00,KP68 220853Z AUTO 18007KT 15/03 A3023 RMK AO1 SLP149 T01500033 58001,M
DRA,2022-08-22 08:53,-116.0278,36.6206,1009.00,81.00,40.00,23.13,0.00,0.00,0.00,30.01,1010.40,10.00,M,CLR,M,M,M,M,M,M,M,M,M,M,M,M,M,M,79.37,KDRA 220853Z AUTO 00000KT 10SM CLR 27/04 A3001 RMK AO2 SLP104 T02720044 51008,M
RNO,2022-08-22 08:55,-119.7711,39.4839,1341.00,71.00,39.00,31.05,190.00,4.00,0.00,30.18,1015.40,10.00,M,CLR,M,M,M,M,M,M,M,M,M,M,M,M,M,M,71.10,KRNO 220855Z 19004KT 10SM CLR 22/04 A3018 RMK AO2 SLP154 T02170039 51003,M
TMT,2022-08-22 08:55,-117.1971,39.4643,1749.34,54.50,33.80,45.36,0.00,0.00,0.00,30.25,M,10.00,M,CLR,M,M,M,M,M,M,M,M,M,M,M,M,M,M,54.50,KTMT 220855Z AUTO 00000KT 10SM CLR 13/01 A3025 RMK AO2 T01250010,M
BVU,2022-08-22 08:55,-114.8611,35.9475,671.00,86.00,64.40,48.58,180.00,6.00,0.00,29.96,M,M,M,M,M,M,M,M,M,M,M,M,M,M,M,M,M,M,87.49,KBVU 220855Z AUTO 18006KT 30/18 A2996 RMK AO2 PWINO TSNO,M
HTH,2022-08-22 08:55,-118.6315,38.5448,1282.89,75.20,37.40,25.40,340.00,4.00,0.00,30.15,M,10.00,M,CLR,M,M,M,M,M,M,M,M,M,M,M,M,M,M,75.20,KHTH 220855Z AUTO 34004KT 10SM CLR 24/03 A3015 RMK A01,M
BAM,2022-08-22 08:55,-116.8743,40.5990,1382.36,66.20,39.20,37.03,80.00,3.00,0.00,30.13,M,10.00,M,CLR,M,M,M,M,M,M,M,M,M,M,M,M,M,M,66.20,KBAM 220855Z AUTO 08003KT 10SM CLR 19/04 A3013 RMK AO1,M
MEV,2022-08-22 08:55,-119.7500,38.9963,1441.42,53.60,37.40,54.07,110.00,4.00,0.00,30.20,M,10.00,M,CLR,M,M,M,M,M,M,M,M,M,M,M,M,M,M,53.60,KMEV 220855Z AUTO 11004KT 10SM CLR 12/03 A3020 RMK AO2,M
CXP,2022-08-22 08:55,-119.7326,39.1923,1431.00,62.60,37.40,39.14,0.00,0.00,0.00,30.21,M,10.00,M,CLR,M,M,M,M,M,M,M,M,M,M,M,M,M,M,62.60,KCXP 220855Z AUTO 00000KT 10SM CLR 17/03 A3021 RMK AO2,M
RTS,2022-08-22 08:55,-119.8764,39.6682,1539.00,60.80,32.00,33.64,330.00,6.00,0.00,30.24,M,10.00,M,CLR,M,M,M,M,M,M,M,M,M,M,M,M,M,M,60.80,KRTS 220855Z AUTO 33006KT 10SM CLR 16/00 A3024 RMK AO2,M
LAS,2022-08-22 08:56,-115.1634,36.0719,663.00,87.00,59.00,38.75,190.00,3.00,0.00,29.95,1010.80,10.00,M,FEW,M,M,M,18000.00,M,M,M,M,M,M,M,M,M,M,86.47,KLAS 220856Z 19003KT 10SM FEW180 31/15 A2995 RMK AO2 SLP108 T03060150 58002,M
TPH,2022-08-22 08:56,-117.0904,38.0505,1654.00,71.00,34.00,25.49,20.00,8.00,0.00,30.19,1013.10,10.00,M,CLR,M,M,M,M,M,M,M,M,M,M,M,M,M,M,71.10,KTPH 220856Z AUTO 02008KT 10SM CLR 22/01 A3019 RMK AO2 SLP131 T02170011 51003 $,M
NFL,2022-08-22 08:56,-118.7010,39.4166,1199.00,70.00,36.00,28.65,0.00,0.00,0.00,30.12,1016.50,10.00,M,CLR,M,M,M,M,M,M,M,M,M,M,M,M,M,M,70.00,KNFL 220856Z AUTO 00000KT 10SM CLR 21/02 A3012 RMK AO2 SLP165 T02110022 51006,M
EKO,2022-08-22 08:56,-115.7860,40.8242,1367.00,51.00,44.00,76.86,0.00,0.00,0.00,30.18,1017.50,10.00,M,CLR,M,M,M,M,M,M,M,M,M,M,M,M,M,M,51.10,KEKO 220856Z AUTO 00000KT 10SM CLR 11/07 A3018 RMK AO2 SLP175 T01060067 53004 $,M
WMC,2022-08-22 08:56,-117.8072,40.9019,1315.00,64.00,30.00,27.71,130.00,5.00,0.00,30.11,1013.80,10.00,M,CLR,M,M,M,M,M,M,M,M,M,M,M,M,M,M,64.00,KWMC 220856Z AUTO 13005KT 10SM CLR 18/M01 A3011 RMK AO2 SLP138 T01781011 50002 $,M
LSV,2022-08-22 08:56,-115.0343,36.2362,570.00,86.50,63.30,46.00,70.00,9.00,0.00,29.92,1010.30,10.00,M,CLR,M,M,M,M,M,M,M,M,M,M,M,M,M,M,87.50,KLSV 220856Z AUTO 07009KT 10SM CLR 30/17 A2992 RMK AO2 SLP103 T03030174 58002 $,M
HND,2022-08-22 08:56,-115.1344,35.9729,742.79,84.00,63.00,49.32,190.00,8.00,0.00,29.99,1013.60,10.00,M,CLR,M,M,M,M,M,M,M,M,M,M,M,M,M,M,84.99,KHND 220856Z AUTO 19008KT 10SM CLR 29/17 A2999 RMK AO2 SLP136 T02890172 58000,M
INS,2022-08-22 08:56,-115.6733,36.5872,955.00,83.30,53.60,36.00,0.00,0.00,0.00,30.00,1010.30,10.00,M,CLR,M,M,M,M,M,M,M,M,M,M,M,M,M,M,82.09,KINS 220856Z AUTO 00000KT 10SM CLR 29/12 A3000 RMK AO2 SLP103 T02850120 51005 $,M
CXP,2022-08-22 09:10,-119.7326,39.1923,1431.00,60.80,37.40,41.71,0.00,0.00,0.00,30.21,M,10.00,M,CLR,M,M,M,M,M,M,M,M,M,M,M,M,M,M,60.80,KCXP 220910Z AUTO 00000KT 10SM CLR 16/03 A3021 RMK AO2,M
BAM,2022-08-22 09:15,-116.8743,40.5990,1382.36,62.60,37.40,39.14,180.00,5.00,0.00,30.13,M,10.00,M,CLR,M,M,M,M,M,M,M,M,M,M,M,M,M,M,62.60,KBAM 220915Z AUTO 18005KT 10SM CLR 17/03 A3013 RMK AO1,M
HTH,2022-08-22 09:15,-118.6315,38.5448,1282.89,75.20,35.60,23.66,320.00,3.00,0.00,30.15,M,10.00,M,CLR,M,M,M,M,M,M,M,M,M,M,M,M,M,M,75.20,KHTH 220915Z AUTO 32003KT 10SM CLR 24/02 A3015 RMK A01,M
TMT,2022-08-22 09:15,-117.1971,39.4643,1749.34,57.20,35.00,42.97,0.00,0.00,0.00,30.25,M,10.00,M,CLR,M,M,M,M,M,M,M,M,M,M,M,M,M,M,57.20,KTMT 220915Z AUTO 00000KT 10SM CLR 14/02 A3025 RMK AO2 T01400016,M
RTS,2022-08-22 09:15,-119.8764,39.6682,1539.00,64.40,32.00,29.63,340.00,5.00,0.00,30.24,M,10.00,M,CLR,M,M,M,M,M,M,M,M,M,M,M,M,M,M,64.40,KRTS 220915Z AUTO 34005KT 10SM CLR 18/00 A3024 RMK AO2,M
BVU,2022-08-22 09:15,-114.8611,35.9475,671.00,86.00,62.60,45.61,190.00,7.00,0.00,29.96,M,M,M,M,M,M,M,M,M,M,M,M,M,M,M,M,M,M,86.72,KBVU 220915Z AUTO 19007KT 30/17 A2996 RMK AO2 PWINO TSNO,M
MEV,2022-08-22 09:15,-119.7500,38.9963,1441.42,55.40,37.40,50.64,140.00,3.00,0.00,30.20,M,9.00,M,CLR,M,M,M,M,M,M,M,M,M,M,M,M,M,M,55.40,KMEV 220915Z AUTO 14003KT 9SM CLR 13/03 A3020 RMK AO2,M
HTH,2022-08-22 09:35,-118.6315,38.5448,1282.89,77.00,35.60,22.28,0.00,0.00,0.00,30.15,M,10.00,M,CLR,M,M,M,M,M,M,M,M,M,M,M,M,M,M,77.00,KHTH 220935Z AUTO 00000KT 10SM CLR 25/02 A3015 RMK A01,M
BVU,2022-08-22 09:35,-114.8611,35.9475,671.00,86.00,62.60,45.61,180.00,5.00,0.00,29.97,M,M,M,M,M,M,M,M,M,M,M,M,M,M,M,M,M,M,86.72,KBVU 220935Z AUTO 18005KT 30/17 A2997 RMK AO2 PWINO TSNO,M
CXP,2022-08-22 09:35,-119.7326,39.1923,1431.00,60.80,37.40,41.71,0.00,0.00,0.00,30.22,M,10.00,M,CLR,M,M,M,M,M,M,M,M,M,M,M,M,M,M,60.80,KCXP 220935Z AUTO 00000KT 10SM CLR 16/03 A3022 RMK AO2,M
RTS,2022-08-22 09:35,-119.8764,39.6682,1539.00,60.80,32.00,33.64,360.00,7.00,0.00,30.24,M,10.00,M,CLR,M,M,M,M,M,M,M,M,M,M,M,M,M,M,60.80,KRTS 220935Z AUTO 36007KT 10SM CLR 16/00 A3024 RMK AO2,M
MEV,2022-08-22 09:35,-119.7500,38.9963,1441.42,55.40,37.40,50.64,120.00,3.00,0.00,30.21,M,10.00,M,CLR,M,M,M,M,M,M,M,M,M,M,M,M,M,M,55.40,KMEV 220935Z AUTO 12003KT 10SM CLR 13/03 A3021 RMK AO2,M
BAM,2022-08-22 09:35,-116.8743,40.5990,1382.36,60.80,33.80,36.16,190.00,5.00,0.00,30.13,M,10.00,M,CLR,M,M,M,M,M,M,M,M,M,M,M,M,M,M,60.80,KBAM 220935Z AUTO 19005KT 10SM CLR 16/01 A3013 RMK AO1,M
TMT,2022-08-22 09:35,-117.1971,39.4643,1749.34,50.00,32.20,50.21,0.00,0.00,0.00,30.26,M,10.00,M,CLR,M,M,M,M,M,M,M,M,M,M,M,M,M,M,50.00,KTMT 220935Z AUTO 00000KT 10SM CLR 10/00 A3026 RMK AO2 T01000001,M
VGT,2022-08-22 09:53,-115.1933,36.2111,667.00,87.00,62.00,43.27,50.00,7.00,0.00,29.94,1012.50,10.00,M,CLR,M,M,M,M,M,M,M,M,M,M,M,M,M,M,87.58,KVGT 220953Z AUTO 05007KT 10SM CLR 31/17 A2994 RMK AO2 SLP125 T03060167 $,M
LOL,2022-08-22 09:53,-118.5701,40.0684,1192.43,68.00,32.00,26.15,0.00,0.00,0.00,30.11,1014.60,10.00,M,CLR,M,M,M,M,M,M,M,M,M,M,M,M,M,M,68.00,KLOL 220953Z AUTO 00000KT 10SM CLR 20/00 A3011 RMK AO2 SLP146 T02000000,M
DRA,2022-08-22 09:53,-116.0278,36.6206,1009.00,80.00,49.00,33.58,0.00,0.00,0.00,30.01,1010.30,10.00,M,CLR,M,M,M,M,M,M,M,M,M,M,M,M,M,M,79.50,KDRA 220953Z AUTO 00000KT 10SM CLR 27/09 A3001 RMK AO2 SLP103 T02670094,M
P68,2022-08-22 09:53,-116.0056,39.6014,1993.00,60.00,38.00,43.61,190.00,6.00,0.00,30.24,1014.70,M,M,M,M,M,M,M,M,M,M,M,M,M,M,M,M,M,60.10,KP68 220953Z AUTO 19006KT 16/03 A3024 RMK AO1 SLP147 T01560033,M
ELY,2022-08-22 09:53,-114.8453,39.2950,1909.00,52.00,46.00,79.92,160.00,8.00,0.00,30.30,1016.70,10.00,M,CLR,M,M,M,M,M,M,M,M,M,M,M,M,M,M,52.00,KELY 220953Z AUTO 16008KT 10SM CLR 11/08 A3030 RMK AO2 SLP167 T01110078,M
MEV,2022-08-22 09:55,-119.7500,38.9963,1441.42,51.80,37.40,57.77,0.00,0.00,0.00,30.21,M,9.00,M,CLR,M,M,M,M,M,M,M,M,M,M,M,M,M,M,51.80,KMEV 220955Z AUTO 00000KT 9SM CLR 11/03 A3021 RMK AO2,M
BAM,2022-08-22 09:55,-116.8743,40.5990,1382.36,60.80,35.60,38.85,0.00,0.00,0.00,30.15,M,10.00,M,CLR,M,M,M,M,M,M,M,M,M,M,M,M,M,M,60.80,KBAM 220955Z AUTO 00000KT 10SM CLR 16/02 A3015 RMK AO1,M
RNO,2022-08-22 09:55,-119.7711,39.4839,1341.00,66.00,40.00,38.32,180.00,5.00,0.00,30.18,1015.80,10.00,M,CLR,M,M,M,M,M,M,M,M,M,M,M,M,M,M,66.00,KRNO 220955Z 18005KT 10SM CLR 19/04 A3018 RMK AO2 SLP158 T01890044,M
RTS,2022-08-22 09:55,-119.8764,39.6682,1539.00,60.80,32.00,33.64,360.00,4.00,0.00,30.24,M,10.00,M,CLR,M,M,M,M,M,M,M,M,M,M,M,M,M,M,60.80,KRTS 220955Z AUTO 36004KT 10SM CLR 16/00 A3024 RMK AO2,M
HTH,2022-08-22 09:55,-118.6315,38.5448,1282.89,75.20,39.20,27.26,0.00,0.00,0.00,30.15,M,10.00,M,CLR,M,M,M,M,M,M,M,M,M,M,M,M,M,M,75.20,KHTH 220955Z AUTO 00000KT 10SM CLR 24/04 A3015 RMK A01,M
TMT,2022-08-22 09:55,-117.1971,39.4643,1749.34,46.00,31.10,55.81,130.00,4.00,0.00,30.26,M,10.00,M,CLR,M,M,M,M,M,M,M,M,M,M,M,M,M,M,43.77,KTMT 220955Z AUTO 13004KT 10SM CLR 08/00 A3026 RMK AO2 T00781005,M
CXP,2022-08-22 09:55,-119.7326,39.1923,1431.00,59.00,35.60,41.42,0.00,0.00,0.00,30.22,M,10.00,M,CLR,M,M,M,M,M,M,M,M,M,M,M,M,M,M,59.00,KCXP 220955Z AUTO 00000KT 10SM CLR 15/02 A3022 RMK AO2,M
BVU,2022-08-22 09:55,-114.8611,35.9475,671.00,86.00,62.60,45.61,0.00,0.00,0.00,29.97,M,M,M,M,M,M,M,M,M,M,M,M,M,M,M,M,M,M,86.72,KBVU 220955Z AUTO 00000KT 30/17 A2997 RMK AO2 PWINO TSNO,M
WMC,2022-08-22 09:56,-117.8072,40.9019,1315.00,66.00,30.90,26.81,0.00,0.00,0.00,30.12,1014.20,10.00,M,CLR,M,M,M,M,M,M,M,M,M,M,M,M,M,M,66.00,KWMC 220956Z AUTO 00000KT 10SM CLR 19/M01 A3012 RMK AO2 SLP142 T01891006 $,M
HND,2022-08-22 09:56,-115.1344,35.9729,742.79,83.00,64.00,52.93,200.00,3.00,0.00,29.99,1013.70,10.00,M,CLR,M,M,M,M,M,M,M,M,M,M,M,M,M,M,84.32,KHND 220956Z AUTO 20003KT 10SM CLR 28/18 A2999 RMK AO2 SLP137 T02830178,M
NFL,2022-08-22 09:56,-118.7010,39.4166,1199.00,67.00,39.00,35.86,230.00,4.00,0.00,30.12,1016.60,10.00,M,CLR,M,M,M,M,M,M,M,M,M,M,M,M,M,M,66.90,KNFL 220956Z AUTO 23004KT 10SM CLR 19/04 A3012 RMK AO2 SLP166 T01940039,M
EKO,2022-08-22 09:56,-115.7860,40.8242,1367.00,51.00,44.00,76.86,0.00,0.00,0.00,30.19,1017.90,10.00,M,CLR,M,M,M,M,M,M,M,M,M,M,M,M,M,M,51.10,KEKO 220956Z AUTO 00000KT 10SM CLR 11/07 A3019 RMK AO2 SLP179 T01060067 $,M
TPH,2022-08-22 09:56,-117.0904,38.0505,1654.00,70.00,33.00,25.53,360.00,10.00,0.00,30.19,1012.80,10.00,M,CLR,M,M,M,M,M,M,M,M,M,M,M,M,M,M,70.00,KTPH 220956Z AUTO 36010KT 10SM CLR 21/01 A3019 RMK AO2 SLP128 T02110006 $,M
INS,2022-08-22 09:56,-115.6733,36.5872,955.00,81.00,53.00,37.97,160.00,3.00,0.00,30.01,1010.60,10.00,M,CLR,M,M,M,M,M,M,M,M,M,M,M,M,M,M,80.53,KINS 220956Z AUTO 16003KT 10SM CLR 27/12 A3001 RMK AO2 SLP106 T02730117 $,M
LAS,2022-08-22 09:56,-115.1634,36.0719,663.00,87.00,59.00,38.75,300.00,3.00,0.00,29.95,1011.00,10.00,M,CLR,M,M,M,M,M,M,M,M,M,M,M,M,M,M,86.47,KLAS 220956Z 30003KT 10SM CLR 31/15 A2995 RMK AO2 SLP110 T03060150,M
LSV,2022-08-22 09:56,-115.0343,36.2362,570.00,85.30,64.40,49.68,40.00,9.00,0.00,29.93,1010.60,10.00,M,CLR,M,M,M,M,M,M,M,M,M,M,M,M,M,M,86.80,KLSV 220956Z AUTO 04009KT 10SM CLR 30/18 A2993 RMK AO2 SLP106 T02960180 $,M
RTS,2022-08-22 10:15,-119.8764,39.6682,1539.00,60.80,32.00,33.64,0.00,0.00,0.00,30.24,M,10.00,M,CLR,M,M,M,M,M,M,M,M,M,M,M,M,M,M,60.80,KRTS 221015Z AUTO 00000KT 10SM CLR 16/00 A3024 RMK AO2,M
BAM,2022-08-22 10:15,-116.8743,40.5990,1382.36,64.40,35.60,34.22,220.00,3.00,0.00,30.14,M,10.00,M,CLR,M,M,M,M,M,M,M,M,M,M,M,M,M,M,64.40,KBAM 221015Z AUTO 22003KT 10SM CLR 18/02 A3014 RMK AO1,M
MEV,2022-08-22 10:15,-119.7500,38.9963,1441.42,51.80,37.40,57.77,0.00,0.00,0.00,30.21,M,10.00,M,CLR,M,M,M,M,M,M,M,M,M,M,M,M,M,M,51.80,KMEV 221015Z AUTO 00000KT 10SM CLR 11/03 A3021 RMK AO2,M
TMT,2022-08-22 10:15,-117.1971,39.4643,1749.34,47.00,31.80,55.07,0.00,0.00,0.00,30.26,M,10.00,M,CLR,M,M,M,M,M,M,M,M,M,M,M,M,M,M,47.10,KTMT 221015Z AUTO 00000KT 10SM CLR 08/00 A3026 RMK AO2 T00841001,M
HTH,2022-08-22 10:15,-118.6315,38.5448,1282.89,73.40,42.80,33.29,0.00,0.00,0.00,30.16,M,10.00,M,CLR,M,M,M,M,M,M,M,M,M,M,M,M,M,M,73.40,KHTH 221015Z AUTO 00000KT 10SM CLR 23/06 A3016 RMK A01,M
BVU,2022-08-22 10:15,-114.8611,35.9475,671.00,84.20,60.80,45.34,110.00,7.00,0.00,29.97,M,M,M,M,M,M,M,M,M,M,M,M,M,M,M,M,M,M,84.43,KBVU 221015Z AUTO 11007KT 29/16 A2997 RMK AO2 PWINO TSNO,M
CXP,2022-08-22 10:15,-119.7326,39.1923,1431.00,60.80,35.60,38.85,0.00,0.00,0.00,30.22,M,10.00,M,CLR,M,M,M,M,M,M,M,M,M,M,M,M,M,M,60.80,KCXP 221015Z AUTO 00000KT 10SM CLR 16/02 A3022 RMK AO2,M
BVU,2022-08-22 10:35,-114.8611,35.9475,671.00,84.20,60.80,45.34,120.00,6.00,0.00,29.97,M,M,M,M,M,M,M,M,M,M,M,M,M,M,M,M,M,M,84.43,KBVU 221035Z AUTO 12006KT 29/16 A2997 RMK AO2 PWINO TSNO,M
TMT,2022-08-22 10:35,-117.1971,39.4643,1749.34,47.30,31.80,54.66,150.00,3.00,0.00,30.26,M,10.00,M,CLR,M,M,M,M,M,M,M,M,M,M,M,M,M,M,46.18,KTMT 221035Z AUTO 15003KT 10SM CLR 09/00 A3026 RMK AO2 T00851001,M
HTH,2022-08-22 10:35,-118.6315,38.5448,1282.89,73.40,41.00,31.05,0.00,0.00,0.00,30.16,M,10.00,M,CLR,M,M,M,M,M,M,M,M,M,M,M,M,M,M,73.40,KHTH 221035Z AUTO 00000KT 10SM CLR 23/05 A3016 RMK A01,M
BAM,2022-08-22 10:35,-116.8743,40.5990,1382.36,60.80,35.60,38.85,210.00,4.00,0.00,30.14,M,10.00,M,CLR,M,M,M,M,M,M,M,M,M,M,M,M,M,M,60.80,KBAM 221035Z AUTO 21004KT 10SM CLR 16/02 A3014 RMK AO1,M
MEV,2022-08-22 10:35,-119.7500,38.9963,1441.42,53.60,37.40,54.07,150.00,6.00,0.00,30.21,M,10.00,M,CLR,M,M,M,M,M,M,M,M,M,M,M,M,M,M,53.60,KMEV 221035Z AUTO 15006KT 10SM CLR 12/03 A3021 RMK AO2,M
RTS,2022-08-22 10:35,-119.8764,39.6682,1539.00,62.60,32.00,31.56,350.00,6.00,0.00,30.24,M,10.00,M,CLR,M,M,M,M,M,M,M,M,M,M,M,M,M,M,62.60,KRTS 221035Z AUTO 35006KT 10SM CLR 17/00 A3024 RMK AO2,M
CXP,2022-08-22 10:35,-119.7326,39.1923,1431.00,60.80,35.60,38.85,0.00,0.00,0.00,30.22,M,10.00,M,CLR,M,M,M,M,M,M,M,M,M,M,M,M,M,M,60.80,KCXP 221035Z AUTO 00000KT 10SM CLR 16/02 A3022 RMK AO2,M
CXP,2022-08-22 10:50,-119.7326,39.1923,1431.00,59.00,37.40,44.47,0.00,0.00,0.00,30.22,M,10.00,M,CLR,M,M,M,M,M,M,M,M,M,M,M,M,M,M,59.00,KCXP 221050Z AUTO 00000KT 10SM CLR 15/03 A3022 RMK AO2,M
VGT,2022-08-22 10:53,-115.1933,36.2111,667.00,86.00,63.00,46.25,40.00,5.00,0.00,29.95,1012.70,10.00,M,CLR,M,M,M,M,M,M,M,M,M,M,M,M,M,M,86.88,KVGT 221053Z AUTO 04005KT 10SM CLR 30/17 A2995 RMK AO2 SLP127 T03000172 $,M
P68,2022-08-22 10:53,-116.0056,39.6014,1993.00,60.00,39.00,45.53,170.00,5.00,0.00,30.24,1015.10,M,M,M,M,M,M,M,M,M,M,M,M,M,M,M,M,M,60.10,KP68 221053Z AUTO 17005KT 16/04 A3024 RMK AO1 SLP151 T01560039,M
DRA,2022-08-22 10:53,-116.0278,36.6206,1009.00,78.00,48.00,34.67,0.00,0.00,0.00,30.03,1010.80,10.00,M,CLR,M,M,M,M,M,M,M,M,M,M,M,M,M,M,78.10,KDRA 221053Z AUTO 00000KT 10SM CLR 26/09 A3003 RMK AO2 SLP108 T02560089,M
ELY,2022-08-22 10:53,-114.8453,39.2950,1909.00,51.00,46.00,82.62,170.00,6.00,0.00,30.30,1016.10,10.00,M,CLR,M,M,M,M,M,M,M,M,M,M,M,M,M,M,51.10,KELY 221053Z AUTO 17006KT 10SM CLR 11/08 A3030 RMK AO2 SLP161 T01060078,M
LOL,2022-08-22 10:53,-118.5701,40.0684,1192.43,59.00,34.00,38.87,0.00,0.00,0.00,30.11,1015.30,10.00,M,CLR,M,M,M,M,M,M,M,M,M,M,M,M,M,M,59.00,KLOL 221053Z AUTO 00000KT 10SM CLR 15/01 A3011 RMK AO2 SLP153 T01500011,M
MEV,2022-08-22 10:55,-119.7500,38.9963,1441.42,50.00,37.40,61.76,130.00,6.00,0.00,30.20,M,10.00,M,CLR,M,M,M,M,M,M,M,M,M,M,M,M,M,M,50.00,KMEV 221055Z AUTO 13006KT 10SM CLR 10/03 A3020 RMK AO2,M
BVU,2022-08-22 10:55,-114.8611,35.9475,671.00,84.20,59.00,42.52,100.00,6.00,0.00,29.97,M,M,M,M,M,M,M,M,M,M,M,M,M,M,M,M,M,M,83.92,KBVU 221055Z AUTO 10006KT 29/15 A2997 RMK AO2 PWINO TSNO,M
RTS,2022-08-22 10:55,-119.8764,39.6682,1539.00,60.80,32.00,33.64,340.00,8.00,0.00,30.24,M,10.00,M,CLR,M,M,M,M,M,M,M,M,M,M,M,M,M,M,60.80,KRTS 221055Z AUTO 34008KT 10SM CLR 16/00 A3024 RMK AO2,M
BAM,2022-08-22 10:55,-116.8743,40.5990,1382.36,59.00,33.80,38.56,180.00,4.00,0.00,30.15,M,10.00,M,CLR,M,M,M,M,M,M,M,M,M,M,M,M,M,M,59.00,KBAM 221055Z AUTO 18004KT 10SM CLR 15/01 A3015 RMK AO1,M
HTH,2022-08-22 10:55,-118.6315,38.5448,1282.89,71.60,39.20,30.77,0.00,0.00,0.00,30.16,M,10.00,M,CLR,M,M,M,M,M,M,M,M,M,M,M,M,M,M,71.60,KHTH 221055Z AUTO 00000KT 10SM CLR 22/04 A3016 RMK A01,M
TMT,2022-08-22 10:55,-117.1971,39.4643,1749.34,49.30,32.00,51.12,0.00,0.00,0.00,30.26,M,10.00,M,CLR,M,M,M,M,M,M,M,M,M,M,M,M,M,M,49.30,KTMT 221055Z AUTO 00000KT 10SM CLR 10/00 A3026 RMK AO2 T00960000,M
RNO,2022-08-22 10:55,-119.7711,39.4839,1341.00,64.00,40.00,41.09,170.00,4.00,0.00,30.18,1015.80,10.00,M,CLR,M,M,M,M,M,M,M,M,M,M,M,M,M,M,64.00,KRNO 221055Z 17004KT 10SM CLR 18/04 A3018 RMK AO2 SLP158 T01780044,M
NFL,2022-08-22 10:56,-118.7010,39.4166,1199.00,65.00,40.00,39.82,200.00,4.00,0.00,30.12,1016.70,10.00,M,CLR,M,M,M,M,M,M,M,M,M,M,M,M,M,M,64.90,KNFL 221056Z AUTO 20004KT 10SM CLR 18/04 A3012 RMK AO2 SLP167 T01830044,M
EKO,2022-08-22 10:56,-115.7860,40.8242,1367.00,53.00,43.00,68.46,30.00,3.00,0.00,30.19,1016.90,10.00,M,CLR,M,M,M,M,M,M,M,M,M,M,M,M,M,M,53.10,KEKO 221056Z AUTO 03003KT 10SM CLR 12/06 A3019 RMK AO2 SLP169 T01170061 $,M
WMC,2022-08-22 10:56,-117.8072,40.9019,1315.00,55.00,30.90,39.63,0.00,0.00,0.00,30.13,1014.80,10.00,M,CLR,M,M,M,M,M,M,M,M,M,M,M,M,M,M,55.00,KWMC 221056Z AUTO 00000KT 10SM CLR 13/M01 A3013 RMK AO2 SLP148 T01281006 $,M
LSV,2022-08-22 10:56,-115.0343,36.2362,570.00,85.60,64.20,48.86,120.00,10.00,0.00,29.92,1010.20,10.00,M,CLR,M,M,M,M,M,M,M,M,M,M,M,M,M,M,87.01,KLSV 221056Z AUTO 12010KT 10SM CLR 30/18 A2992 RMK AO2 SLP102 T02980179 $,M
TPH,2022-08-22 10:56,-117.0904,38.0505,1654.00,66.00,34.00,30.37,350.00,8.00,0.00,30.20,1013.40,10.00,M,CLR,M,M,M,M,M,M,M,M,M,M,M,M,M,M,66.00,KTPH 221056Z AUTO 35008KT 10SM CLR 19/01 A3020 RMK AO2 SLP134 T01890011 $,M
LAS,2022-08-22 10:56,-115.1634,36.0719,663.00,85.00,59.00,41.58,210.00,4.00,0.00,29.95,1011.10,10.00,M,FEW,M,M,M,15000.00,M,M,M,M,M,M,M,M,M,M,84.51,KLAS 221056Z 21004KT 10SM FEW150 29/15 A2995 RMK AO2 SLP111 T02940150,M
HND,2022-08-22 10:56,-115.1344,35.9729,742.79,80.00,65.00,59.83,160.00,5.00,0.00,29.99,1013.80,10.00,M,CLR,M,M,M,M,M,M,M,M,M,M,M,M,M,M,81.91,KHND 221056Z AUTO 16005KT 10SM CLR 27/18 A2999 RMK AO2 SLP138 T02670183,M
INS,2022-08-22 10:56,-115.6733,36.5872,955.00,79.20,50.50,36.71,0.00,0.00,0.00,30.02,1011.00,10.00,M,CLR,M,M,M,M,M,M,M,M,M,M,M,M,M,M,79.20,KINS 221056Z AUTO 00000KT 10SM CLR 26/10 A3002 RMK AO2 SLP110 T02620103 $,M
RTS,2022-08-22 11:15,-119.8764,39.6682,1539.00,60.80,32.00,33.64,360.00,5.00,0.00,30.23,M,10.00,M,CLR,M,M,M,M,M,M,M,M,M,M,M,M,M,M,60.80,KRTS 221115Z AUTO 36005KT 10SM CLR 16/00 A3023 RMK AO2,M
MEV,2022-08-22 11:15,-119.7500,38.9963,1441.42,51.80,37.40,57.77,100.00,4.00,0.00,30.20,M,10.00,M,CLR,M,M,M,M,M,M,M,M,M,M,M,M,M,M,51.80,KMEV 221115Z AUTO 10004KT 10SM CLR 11/03 A3020 RMK AO2,M
BAM,2022-08-22 11:15,-116.8743,40.5990,1382.36,59.00,33.80,38.56,150.00,5.00,0.00,30.14,M,10.00,M,CLR,M,M,M,M,M,M,M,M,M,M,M,M,M,M,59.00,KBAM 221115Z AUTO 15005KT 10SM CLR 15/01 A3014 RMK AO1,M
HTH,2022-08-22 11:15,-118.6315,38.5448,1282.89,71.60,41.00,33.00,0.00,0.00,0.00,30.16,M,10.00,M,CLR,M,M,M,M,M,M,M,M,M,M,M,M,M,M,71.60,KHTH 221115Z AUTO 00000KT 10SM CLR 22/05 A3016 RMK A01,M
TMT,2022-08-22 11:15,-117.1971,39.4643,1749.34,47.70,32.00,54.28,0.00,0.00,0.00,30.26,M,10.00,M,CLR,M,M,M,M,M,M,M,M,M,M,M,M,M,M,47.70,KTMT 221115Z AUTO 00000KT 10SM CLR 09/00 A3026 RMK AO2 T00870000,M
BVU,2022-08-22 11:15,-114.8611,35.9475,671.00,80.60,60.80,50.95,60.00,4.00,0.00,29.97,M,M,M,M,M,M,M,M,M,M,M,M,M,M,M,M,M,M,81.46,KBVU 221115Z AUTO 06004KT 27/16 A2997 RMK AO2 PWINO TSNO,M
CXP,2022-08-22 11:15,-119.7326,39.1923,1431.00,57.20,37.40,47.44,0.00,0.00,0.00,30.22,M,10.00,M,CLR,M,M,M,M,M,M,M,M,M,M,M,M,M,M,57.20,KCXP 221115Z AUTO 00000KT 10SM CLR 14/03 A3022 RMK AO2,M
RTS,2022-08-22 11:35,-119.8764,39.6682,1539.00,57.20,32.00,38.26,350.00,9.00,0.00,30.23,M,10.00,M,CLR,M,M,M,M,M,M,M,M,M,M,M,M,M,M,57.20,KRTS 221135Z AUTO 35009KT 10SM CLR 14/00 A3023 RMK AO2,M
MEV,2022-08-22 11:35,-119.7500,38.9963,1441.42,50.00,35.60,57.52,0.00,0.00,0.00,30.21,M,10.00,M,CLR,M,M,M,M,M,M,M,M,M,M,M,M,M,M,50.00,KMEV 221135Z AUTO 00000KT 10SM CLR 10/02 A3021 RMK AO2,M
BAM,2022-08-22 11:35,-116.8743,40.5990,1382.36,55.40,33.80,43.90,120.00,4.00,0.00,30.14,M,10.00,M,CLR,M,M,M,M,M,M,M,M,M,M,M,M,M,M,55.40,KBAM 221135Z AUTO 12004KT 10SM CLR 13/01 A3014 RMK AO1,M
HTH,2022-08-22 11:35,-118.6315,38.5448,1282.89,71.60,37.40,28.68,180.00,4.00,0.00,30.16,M,10.00,M,CLR,M,M,M,M,M,M,M,M,M,M,M,M,M,M,71.60,KHTH 221135Z AUTO 18004KT 10SM CLR 22/03 A3016 RMK A01,M
TMT,2022-08-22 11:35,-117.1971,39.4643,1749.34,48.20,33.60,56.80,0.00,0.00,0.00,30.26,M,10.00,M,CLR,M,M,M,M,M,M,M,M,M,M,M,M,M,M,48.20,KTMT 221135Z AUTO 00000KT 10SM CLR 09/01 A3026 RMK AO2 T00900009,M
BVU,2022-08-22 11:35,-114.8611,35.9475,671.00,80.60,60.80,50.95,70.00,5.00,0.00,29.97,M,M,M,M,M,M,M,M,M,M,M,M,M,M,M,M,M,M,81.46,KBVU 221135Z AUTO 07005KT 27/16 A2997 RMK AO2 PWINO TSNO,M
CXP,2022-08-22 11:35,-119.7326,39.1923,1431.00,57.20,37.40,47.44,0.00,0.00,0.00,30.22,M,10.00,M,CLR,M,M,M,M,M,M,M,M,M,M,M,M,M,M,57.20,KCXP 221135Z AUTO 00000KT 10SM CLR 14/03 A3022 RMK AO2,M
ELY,2022-08-22 11:53,-114.8453,39.2950,1909.00,50.00,46.00,86.06,170.00,5.00,0.00,30.29,1016.00,10.00,M,CLR,M,M,M,M,M,M,M,M,M,M,M,M,M,M,50.00,KELY 221153Z AUTO 17005KT 10SM CLR 10/08 A3029 RMK AO2 SLP160 70010 T01000078 10150 20100 58001,M
DRA,2022-08-22 11:53,-116.0278,36.6206,1009.00,77.00,50.00,38.74,0.00,0.00,0.00,30.02,1010.90,10.00,M,CLR,M,M,M,M,M,M,M,M,M,M,M,M,M,M,77.00,KDRA 221153Z AUTO 00000KT 10SM CLR 25/10 A3002 RMK AO2 SLP109 T02500100 10322 20239 50004,M
VGT,2022-08-22 11:53,-115.1933,36.2111,667.00,85.00,64.00,49.62,50.00,8.00,0.00,29.95,1012.80,10.00,M,CLR,M,M,M,M,M,M,M,M,M,M,M,M,M,M,86.23,KVGT 221153Z AUTO 05008KT 10SM CLR 29/18 A2995 RMK AO2 SLP128 T02940178 10328 20294 52004 $,M
P68,2022-08-22 11:53,-116.0056,39.6014,1993.00,52.00,38.00,58.48,190.00,4.00,0.00,30.24,1015.90,M,M,M,M,M,M,M,M,M,M,M,M,M,M,M,M,M,52.00,KP68 221153Z AUTO 19004KT 11/03 A3024 RMK AO1 SLP159 T01110033 10167 20111 51002,M
LOL,2022-08-22 11:53,-118.5701,40.0684,1192.43,57.00,33.00,40.28,100.00,3.00,0.00,30.11,1015.40,10.00,M,CLR,M,M,M,M,M,M,M,M,M,M,M,M,M,M,57.00,KLOL 221153Z AUTO 10003KT 10SM CLR 14/01 A3011 RMK AO2 SLP154 T01390006 10283 20128 51004,M
CXP,2022-08-22 11:55,-119.7326,39.1923,1431.00,55.40,41.00,58.27,0.00,0.00,0.00,30.22,M,10.00,M,CLR,M,M,M,M,M,M,M,M,M,M,M,M,M,M,55.40,KCXP 221155Z AUTO 00000KT 10SM CLR 13/05 A3022 RMK AO2,M
RNO,2022-08-22 11:55,-119.7711,39.4839,1341.00,63.00,40.00,42.56,0.00,0.00,0.00,30.19,1015.90,10.00,M,CLR,M,M,M,M,M,M,M,M,M,M,M,M,M,M,63.00,KRNO 221155Z 00000KT 10SM CLR 17/04 A3019 RMK AO2 SLP159 T01720044 10261 20172 51001,M
BVU,2022-08-22 11:55,-114.8611,35.9475,671.00,82.40,59.00,45.07,100.00,8.00,0.00,29.98,M,M,M,M,M,M,M,M,M,M,M,M,M,M,M,M,M,M,82.46,KBVU 221155Z AUTO 10008KT 28/15 A2998 RMK AO2 PWINO TSNO,M
RTS,2022-08-22 11:55,-119.8764,39.6682,1539.00,57.20,32.00,38.26,360.00,9.00,0.00,30.23,M,10.00,M,CLR,M,M,M,M,M,M,M,M,M,M,M,M,M,M,57.20,KRTS 221155Z AUTO 36009KT 10SM CLR 14/00 A3023 RMK AO2,M
MEV,2022-08-22 11:55,-119.7500,38.9963,1441.42,50.00,37.40,61.76,0.00,0.00,0.00,30.21,M,10.00,M,CLR,M,M,M,M,M,M,M,M,M,M,M,M,M,M,50.00,KMEV 221155Z AUTO 00000KT 10SM CLR 10/03 A3021 RMK AO2,M
BAM,2022-08-22 11:55,-116.8743,40.5990,1382.36,55.40,33.80,43.90,100.00,4.00,0.00,30.15,M,10.00,M,CLR,M,M,M,M,M,M,M,M,M,M,M,M,M,M,55.40,KBAM 221155Z AUTO 10004KT 10SM CLR 13/01 A3015 RMK AO1,M
HTH,2022-08-22 11:55,-118.6315,38.5448,1282.89,71.60,39.20,30.77,0.00,0.00,0.00,30.16,M,10.00,M,CLR,M,M,M,M,M,M,M,M,M,M,M,M,M,M,71.60,KHTH 221155Z AUTO 00000KT 10SM CLR 22/04 A3016 RMK A01,M
TMT,2022-08-22 11:55,-117.1971,39.4643,1749.34,46.40,32.20,57.46,210.00,3.00,0.00,30.26,M,10.00,M,CLR,M,M,M,M,M,M,M,M,M,M,M,M,M,M,45.15,KTMT 221155Z AUTO 21003KT 10SM CLR 08/00 A3026 RMK AO2 T00800001 10170 20076,M
TPH,2022-08-22 11:56,-117.0904,38.0505,1654.00,66.00,34.00,30.37,10.00,6.00,0.00,30.20,1013.80,10.00,M,CLR,M,M,M,M,M,M,M,M,M,M,M,M,M,M,66.00,KTPH 221156Z AUTO 01006KT 10SM CLR 19/01 A3020 RMK AO2 SLP138 T01890011 10250 20183 53002 $,M
EKO,2022-08-22 11:56,-115.7860,40.8242,1367.00,49.00,43.00,79.98,110.00,3.00,0.00,30.19,1017.80,10.00,M,CLR,M,M,M,M,M,M,M,M,M,M,M,M,M,M,48.01,KEKO 221156Z AUTO 11003KT 10SM CLR 09/06 A3019 RMK AO2 SLP178 T00940061 10211 20094 52002 $,M
LAS,2022-08-22 11:56,-115.1634,36.0719,663.00,84.00,61.00,45.96,70.00,3.00,0.00,29.96,1011.40,10.00,M,FEW,M,M,M,16000.00,M,M,M,M,M,M,M,M,M,M,84.32,KLAS 221156Z 07003KT 10SM FEW160 29/16 A2996 RMK AO2 SLP114 T02890161 10333 20289 53005,M
HND,2022-08-22 11:56,-115.1344,35.9729,742.79,81.00,62.00,52.66,230.00,5.00,0.00,30.00,1014.10,10.00,M,CLR,M,M,M,M,M,M,M,M,M,M,M,M,M,M,82.06,KHND 221156Z AUTO 23005KT 10SM CLR 27/17 A3000 RMK AO2 SLP141 T02720167 10322 20267 53004,M
NFL,2022-08-22 11:56,-118.7010,39.4166,1199.00,63.00,38.00,39.36,170.00,4.00,0.00,30.13,1016.80,10.00,M,CLR,M,M,M,M,M,M,M,M,M,M,M,M,M,M,63.00,KNFL 221156Z AUTO 17004KT 10SM CLR 17/03 A3013 RMK AO2 SLP168 T01720033 10272 20156 53002,M
LSV,2022-08-22 11:56,-115.0343,36.2362,570.00,83.50,64.00,51.73,50.00,13.00,0.00,29.94,1011.00,10.00,M,CLR,M,M,M,M,M,M,M,M,M,M,M,M,M,M,84.85,KLSV 221156Z AUTO 05013KT 10SM CLR 29/18 A2994 RMK AO2 SLP110 T02860177 10312 20286 50005 $,M
WMC,2022-08-22 11:56,-117.8072,40.9019,1315.00,55.00,30.00,38.21,130.00,6.00,0.00,30.12,1014.80,10.00,M,CLR,M,M,M,M,M,M,M,M,M,M,M,M,M,M,55.00,KWMC 221156Z AUTO 13006KT 10SM CLR 13/M01 A3012 RMK AO2 SLP148 T01281011 10250 20122 50004 $,M
INS,2022-08-22 11:56,-115.6733,36.5872,955.00,78.40,57.70,49.03,0.00,0.00,0.00,30.02,1011.00,9.00,M,CLR,M,M,M,M,M,M,M,M,M,M,M,M,M,M,78.40,KINS 221156Z AUTO 00000KT 9SM CLR 26/14 A3002 RMK AO2 SLP110 T02580143 10302 20258 51007 $,M
BVU,2022-08-22 12:15,-114.8611,35.9475,671.00,82.40,59.00,45.07,80.00,5.00,0.00,29.98,M,M,M,M,M,M,M,M,M,M,M,M,M,M,M,M,M,M,82.46,KBVU 221215Z AUTO 08005KT 28/15 A2998 RMK AO2 PWINO TSNO,M
TMT,2022-08-22 12:15,-117.1971,39.4643,1749.34,44.00,31.10,60.45,180.00,6.00,0.00,30.26,M,10.00,M,CLR,M,M,M,M,M,M,M,M,M,M,M,M,M,M,39.86,KTMT 221215Z AUTO 18006KT 10SM CLR 07/00 A3026 RMK AO2 T00661005,M
BAM,2022-08-22 12:15,-116.8743,40.5990,1382.36,55.40,33.80,43.90,0.00,0.00,0.00,30.15,M,10.00,M,CLR,M,M,M,M,M,M,M,M,M,M,M,M,M,M,55.40,KBAM 221215Z AUTO 00000KT 10SM CLR 13/01 A3015 RMK AO1,M
MEV,2022-08-22 12:15,-119.7500,38.9963,1441.42,48.20,37.40,66.05,60.00,3.00,0.00,30.21,M,10.00,M,CLR,M,M,M,M,M,M,M,M,M,M,M,M,M,M,47.21,KMEV 221215Z AUTO 06003KT 10SM CLR 09/03 A3021 RMK AO2,M
HTH,2022-08-22 12:15,-118.6315,38.5448,1282.89,69.80,39.20,32.72,190.00,4.00,0.00,30.16,M,10.00,M,CLR,M,M,M,M,M,M,M,M,M,M,M,M,M,M,69.80,KHTH 221215Z AUTO 19004KT 10SM CLR 21/04 A3016 RMK A01,M
CXP,2022-08-22 12:15,-119.7326,39.1923,1431.00,55.40,39.20,54.34,0.00,0.00,0.00,30.22,M,10.00,M,CLR,M,M,M,M,M,M,M,M,M,M,M,M,M,M,55.40,KCXP 221215Z AUTO 00000KT 10SM CLR 13/04 A3022 RMK AO2,M
RTS,2022-08-22 12:15,-119.8764,39.6682,1539.00,57.20,32.00,38.26,0.00,0.00,0.00,30.23,M,10.00,M,CLR,M,M,M,M,M,M,M,M,M,M,M,M,M,M,57.20,KRTS 221215Z AUTO 00000KT 10SM CLR 14/00 A3023 RMK AO2,M
HTH,2022-08-22 12:35,-118.6315,38.5448,1282.89,69.80,37.40,30.49,190.00,4.00,0.00,30.16,M,10.00,M,CLR,M,M,M,M,M,M,M,M,M,M,M,M,M,M,69.80,KHTH 221235Z AUTO 19004KT 10SM CLR 21/03 A3016 RMK A01,M
TMT,2022-08-22 12:35,-117.1971,39.4643,1749.34,42.40,30.90,63.51,180.00,4.00,0.00,30.27,M,10.00,M,CLR,M,M,M,M,M,M,M,M,M,M,M,M,M,M,39.56,KTMT 221235Z AUTO 18004KT 10SM CLR 06/M01 A3027 RMK AO2 T00581006,M
BAM,2022-08-22 12:35,-116.8743,40.5990,1382.36,55.40,35.60,47.16,0.00,0.00,0.00,30.15,M,10.00,M,CLR,M,M,M,M,M,M,M,M,M,M,M,M,M,M,55.40,KBAM 221235Z AUTO 00000KT 10SM CLR 13/02 A3015 RMK AO1,M
MEV,2022-08-22 12:35,-119.7500,38.9963,1441.42,48.20,37.40,66.05,0.00,0.00,0.00,30.21,M,10.00,M,CLR,M,M,M,M,M,M,M,M,M,M,M,M,M,M,48.20,KMEV 221235Z AUTO 00000KT 10SM CLR 09/03 A3021 RMK AO2,M
RTS,2022-08-22 12:35,-119.8764,39.6682,1539.00,59.00,33.80,38.56,0.00,0.00,0.00,30.23,M,10.00,M,CLR,M,M,M,M,M,M,M,M,M,M,M,M,M,M,59.00,KRTS 221235Z AUTO 00000KT 10SM CLR 15/01 A3023 RMK AO2,M
CXP,2022-08-22 12:35,-119.7326,39.1923,1431.00,55.40,39.20,54.34,0.00,0.00,0.00,30.22,M,10.00,M,CLR,M,M,M,M,M,M,M,M,M,M,M,M,M,M,55.40,KCXP 221235Z AUTO 00000KT 10SM CLR 13/04 A3022 RMK AO2,M
BVU,2022-08-22 12:35,-114.8611,35.9475,671.00,80.60,59.00,47.79,70.00,6.00,0.00,29.98,M,M,M,M,M,M,M,M,M,M,M,M,M,M,M,M,M,M,81.11,KBVU 221235Z AUTO 07006KT 27/15 A2998 RMK AO2 PWINO TSNO,M
P68,2022-08-22 12:53,-116.0056,39.6014,1993.00,57.00,38.00,48.73,210.00,7.00,0.00,30.24,1015.60,M,M,M,M,M,M,M,M,M,M,M,M,M,M,M,M,M,57.00,KP68 221253Z AUTO 21007KT 14/03 A3024 RMK AO1 SLP156 T01390033,M
VGT,2022-08-22 12:53,-115.1933,36.2111,667.00,84.00,62.00,47.78,50.00,7.00,0.00,29.97,1013.30,10.00,M,CLR,M,M,M,M,M,M,M,M,M,M,M,M,M,M,84.67,KVGT 221253Z AUTO 05007KT 10SM CLR 29/17 A2997 RMK AO2 SLP133 T02890167 $,M
LOL,2022-08-22 12:53,-118.5701,40.0684,1192.43,55.00,34.00,44.90,0.00,0.00,0.00,30.12,1015.70,10.00,M,CLR,M,M,M,M,M,M,M,M,M,M,M,M,M,M,55.00,KLOL 221253Z AUTO 00000KT 10SM CLR 13/01 A3012 RMK AO2 SLP157 T01280011,M
ELY,2022-08-22 12:53,-114.8453,39.2950,1909.00,50.00,46.00,86.06,160.00,9.00,0.00,30.29,1016.70,10.00,M,CLR,M,M,M,M,M,M,M,M,M,M,M,M,M,M,50.00,KELY 221253Z AUTO 16009KT 10SM CLR 10/08 A3029 RMK AO2 SLP167 T01000078,M
DRA,2022-08-22 12:53,-116.0278,36.6206,1009.00,76.00,52.00,43.28,0.00,0.00,0.00,30.04,1011.40,10.00,M,CLR,M,M,M,M,M,M,M,M,M,M,M,M,M,M,75.90,KDRA 221253Z AUTO 00000KT 10SM CLR 24/11 A3004 RMK AO2 SLP114 T02440111,M
CXP,2022-08-22 12:55,-119.7326,39.1923,1431.00,55.40,39.20,54.34,0.00,0.00,0.00,30.22,M,10.00,M,CLR,M,M,M,M,M,M,M,M,M,M,M,M,M,M,55.40,KCXP 221255Z AUTO 00000KT 10SM CLR 13/04 A3022 RMK AO2,M
HTH,2022-08-22 12:55,-118.6315,38.5448,1282.89,69.80,37.40,30.49,210.00,5.00,0.00,30.16,M,10.00,M,CLR,M,M,M,M,M,M,M,M,M,M,M,M,M,M,69.80,KHTH 221255Z AUTO 21005KT 10SM CLR 21/03 A3016 RMK A01,M
BVU,2022-08-22 12:55,-114.8611,35.9475,671.00,80.60,59.00,47.79,50.00,4.00,0.00,29.98,M,M,M,M,M,M,M,M,M,M,M,M,M,M,M,M,M,M,81.11,KBVU 221255Z AUTO 05004KT 27/15 A2998 RMK AO2 PWINO TSNO,M
TMT,2022-08-22 12:55,-117.1971,39.4643,1749.34,41.70,31.50,66.85,0.00,0.00,0.00,30.27,M,10.00,M,CLR,M,M,M,M,M,M,M,M,M,M,M,M,M,M,41.70,KTMT 221255Z AUTO 00000KT 10SM CLR 05/00 A3027 RMK AO2 T00541003,M
BAM,2022-08-22 12:55,-116.8743,40.5990,1382.36,57.20,33.80,41.13,0.00,0.00,0.00,30.16,M,10.00,M,CLR,M,M,M,M,M,M,M,M,M,M,M,M,M,M,57.20,KBAM 221255Z AUTO 00000KT 10SM CLR 14/01 A3016 RMK AO1,M
RNO,2022-08-22 12:55,-119.7711,39.4839,1341.00,63.00,41.00,44.41,190.00,3.00,0.00,30.19,1016.30,10.00,M,FEW,M,M,M,8000.00,M,M,M,M,M,M,M,M,M,M,63.00,KRNO 221255Z 19003KT 10SM FEW080 17/05 A3019 RMK AO2 SLP163 T01720050,M
RTS,2022-08-22 12:55,-119.8764,39.6682,1539.00,57.20,32.00,38.26,350.00,4.00,0.00,30.24,M,10.00,M,CLR,M,M,M,M,M,M,M,M,M,M,M,M,M,M,57.20,KRTS 221255Z AUTO 35004KT 10SM CLR 14/00 A3024 RMK AO2,M
MEV,2022-08-22 12:55,-119.7500,38.9963,1441.42,48.20,37.40,66.05,0.00,0.00,0.00,30.21,M,10.00,M,CLR,M,M,M,M,M,M,M,M,M,M,M,M,M,M,48.20,KMEV 221255Z AUTO 00000KT 10SM CLR 09/03 A3021 RMK AO2,M
INS,2022-08-22 12:56,-115.6733,36.5872,955.00,M,M,M,0.00,0.00,0.00,30.03,M,10.00,M,CLR,M,M,M,M,M,M,M,M,M,M,M,M,M,M,M,KINS 221256Z AUTO 00000KT 10SM CLR M A3003 RMK AO2 SLPNO ALSTG ESTMD $,M
LSV,2022-08-22 12:56,-115.0343,36.2362,570.00,82.20,64.00,53.95,60.00,12.00,0.00,29.95,1011.40,10.00,M,FEW,M,M,M,15000.00,M,M,M,M,M,M,M,M,M,M,83.63,KLSV 221256Z AUTO 06012KT 10SM FEW150 28/18 A2995 RMK AO2 SLP114 T02790177 $,M
HND,2022-08-22 12:56,-115.1344,35.9729,742.79,78.00,61.00,55.71,190.00,5.00,0.00,30.01,1014.60,10.00,M,CLR,M,M,M,M,M,M,M,M,M,M,M,M,M,M,78.10,KHND 221256Z AUTO 19005KT 10SM CLR 26/16 A3001 RMK AO2 SLP146 T02560161,M
EKO,2022-08-22 12:56,-115.7860,40.8242,1367.00,51.00,44.00,76.86,70.00,5.00,0.00,30.19,1017.70,10.00,M,CLR,M,M,M,M,M,M,M,M,M,M,M,M,M,M,51.10,KEKO 221256Z AUTO 07005KT 10SM CLR 11/07 A3019 RMK AO2 SLP177 T01060067 $,M
TPH,2022-08-22 12:56,-117.0904,38.0505,1654.00,65.00,35.00,32.97,350.00,7.00,0.00,30.21,1014.10,10.00,M,CLR,M,M,M,M,M,M,M,M,M,M,M,M,M,M,64.90,KTPH 221256Z AUTO 35007KT 10SM CLR 18/02 A3021 RMK AO2 SLP141 T01830017 $,M
LAS,2022-08-22 12:56,-115.1634,36.0719,663.00,82.00,62.00,50.97,90.00,4.00,0.00,29.97,1011.90,10.00,M,FEW,FEW,M,M,15000.00,25000.00,M,M,M,M,M,M,M,M,M,82.91,KLAS 221256Z 09004KT 10SM FEW150 FEW250 28/17 A2997 RMK AO2 SLP119 T02780167,M
NFL,2022-08-22 12:56,-118.7010,39.4166,1199.00,60.00,37.00,42.09,160.00,7.00,0.00,30.13,1017.00,10.00,M,CLR,M,M,M,M,M,M,M,M,M,M,M,M,M,M,60.10,KNFL 221256Z AUTO 16007KT 10SM CLR 16/03 A3013 RMK AO2 SLP170 T01560028,M
WMC,2022-08-22 12:56,-117.8072,40.9019,1315.00,55.00,30.90,39.63,150.00,3.00,0.00,30.13,1015.30,10.00,M,CLR,M,M,M,M,M,M,M,M,M,M,M,M,M,M,55.00,KWMC 221256Z AUTO 15003KT 10SM CLR 13/M01 A3013 RMK AO2 SLP153 T01281006 $,M
TMT,2022-08-22 13:15,-117.1971,39.4643,1749.34,44.60,32.00,61.03,270.00,4.00,0.00,30.27,M,10.00,M,CLR,M,M,M,M,M,M,M,M,M,M,M,M,M,M,42.13,KTMT 221315Z AUTO 27004KT 10SM CLR 07/00 A3027 RMK AO2 T00700000,M
MEV,2022-08-22 13:15,-119.7500,38.9963,1441.42,48.20,37.40,66.05,0.00,0.00,0.00,30.21,M,10.00,M,CLR,M,M,M,M,M,M,M,M,M,M,M,M,M,M,48.20,KMEV 221315Z AUTO 00000KT 10SM CLR 09/03 A3021 RMK AO2,M
RTS,2022-08-22 13:15,-119.8764,39.6682,1539.00,53.60,32.00,43.61,0.00,0.00,0.00,30.24,M,10.00,M,CLR,M,M,M,M,M,M,M,M,M,M,M,M,M,M,53.60,KRTS 221315Z AUTO 00000KT 10SM CLR 12/00 A3024 RMK AO2,M
CXP,2022-08-22 13:15,-119.7326,39.1923,1431.00,55.40,37.40,50.64,0.00,0.00,0.00,30.22,M,10.00,M,CLR,M,M,M,M,M,M,M,M,M,M,M,M,M,M,55.40,KCXP 221315Z AUTO 00000KT 10SM CLR 13/03 A3022 RMK AO2,M
BVU,2022-08-22 13:15,-114.8611,35.9475,671.00,78.80,59.00,50.69,40.00,6.00,0.00,29.99,M,M,M,M,M,M,M,M,M,M,M,M,M,M,M,M,M,M,78.80,KBVU 221315Z AUTO 04006KT 26/15 A2999 RMK AO2 PWINO TSNO,M
HTH,2022-08-22 13:15,-118.6315,38.5448,1282.89,68.00,35.60,30.20,210.00,5.00,0.00,30.17,M,10.00,M,CLR,M,M,M,M,M,M,M,M,M,M,M,M,M,M,68.00,KHTH 221315Z AUTO 21005KT 10SM CLR 20/02 A3017 RMK A01,M
BAM,2022-08-22 13:15,-116.8743,40.5990,1382.36,59.00,33.80,38.56,170.00,4.00,0.00,30.16,M,10.00,M,CLR,M,M,M,M,M,M,M,M,M,M,M,M,M,M,59.00,KBAM 221315Z AUTO 17004KT 10SM CLR 15/01 A3016 RMK AO1,M
MEV,2022-08-22 13:35,-119.7500,38.9963,1441.42,48.20,37.40,66.05,0.00,0.00,0.00,30.21,M,10.00,M,CLR,M,M,M,M,M,M,M,M,M,M,M,M,M,M,48.20,KMEV 221335Z AUTO 00000KT 10SM CLR 09/03 A3021 RMK AO2,M
BAM,2022-08-22 13:35,-116.8743,40.5990,1382.36,55.40,33.80,43.90,130.00,3.00,0.00,30.17,M,10.00,M,CLR,M,M,M,M,M,M,M,M,M,M,M,M,M,M,55.40,KBAM 221335Z AUTO 13003KT 10SM CLR 13/01 A3017 RMK AO1,M
HTH,2022-08-22 13:35,-118.6315,38.5448,1282.89,68.00,35.60,30.20,190.00,4.00,0.00,30.17,M,10.00,M,CLR,M,M,M,M,M,M,M,M,M,M,M,M,M,M,68.00,KHTH 221335Z AUTO 19004KT 10SM CLR 20/02 A3017 RMK A01,M
TMT,2022-08-22 13:35,-117.1971,39.4643,1749.34,42.40,30.70,62.99,0.00,0.00,0.00,30.28,M,10.00,M,CLR,M,M,M,M,M,M,M,M,M,M,M,M,M,M,42.40,KTMT 221335Z AUTO 00000KT 10SM CLR 06/M01 A3028 RMK AO2 LTG DSNT N T00581007,M
CXP,2022-08-22 13:35,-119.7326,39.1923,1431.00,55.40,39.20,54.34,0.00,0.00,0.00,30.23,M,10.00,M,CLR,M,M,M,M,M,M,M,M,M,M,M,M,M,M,55.40,KCXP 221335Z AUTO 00000KT 10SM CLR 13/04 A3023 RMK AO2,M
BVU,2022-08-22 13:35,-114.8611,35.9475,671.00,78.80,59.00,50.69,40.00,5.00,0.00,29.99,M,M,M,M,M,M,M,M,M,M,M,M,M,M,M,M,M,M,78.80,KBVU 221335Z AUTO 04005KT 26/15 A2999 RMK AO2 PWINO TSNO,M
RTS,2022-08-22 13:35,-119.8764,39.6682,1539.00,55.40,32.00,40.84,0.00,0.00,0.00,30.25,M,10.00,M,CLR,M,M,M,M,M,M,M,M,M,M,M,M,M,M,55.40,KRTS 221335Z AUTO 00000KT 10SM CLR 13/00 A3025 RMK AO2,M
VGT,2022-08-22 13:53,-115.1933,36.2111,667.00,83.00,62.00,49.51,60.00,7.00,0.00,29.99,1014.00,10.00,M,CLR,M,M,M,M,M,M,M,M,M,M,M,M,M,M,83.70,KVGT 221353Z AUTO 06007KT 10SM CLR 28/17 A2999 RMK AO2 SLP140 T02830167 $,M
DRA,2022-08-22 13:53,-116.0278,36.6206,1009.00,77.00,55.00,46.57,0.00,0.00,0.00,30.06,1012.30,10.00,M,CLR,M,M,M,M,M,M,M,M,M,M,M,M,M,M,77.00,KDRA 221353Z AUTO 00000KT 10SM CLR 25/13 A3006 RMK AO2 SLP123 T02500128,M
P68,2022-08-22 13:53,-116.0056,39.6014,1993.00,59.00,39.00,47.35,180.00,4.00,0.00,30.26,1015.90,M,M,M,M,M,M,M,M,M,M,M,M,M,M,M,M,M,59.00,KP68 221353Z AUTO 18004KT 15/04 A3026 RMK AO1 SLP159 T01500039,M
LOL,2022-08-22 13:53,-118.5701,40.0684,1192.43,58.00,35.00,42.24,70.00,4.00,0.00,30.14,1016.20,10.00,M,CLR,M,M,M,M,M,M,M,M,M,M,M,M,M,M,57.90,KLOL 221353Z AUTO 07004KT 10SM CLR 14/02 A3014 RMK AO2 SLP162 T01440017,M
ELY,2022-08-22 13:53,-114.8453,39.2950,1909.00,55.00,47.00,74.08,170.00,9.00,0.00,30.31,1016.80,10.00,M,CLR,M,M,M,M,M,M,M,M,M,M,M,M,M,M,55.00,KELY 221353Z AUTO 17009KT 10SM CLR 13/08 A3031 RMK AO2 SLP168 T01280083,M
CXP,2022-08-22 13:55,-119.7326,39.1923,1431.00,55.40,41.00,58.27,0.00,0.00,0.00,30.23,M,10.00,M,CLR,M,M,M,M,M,M,M,M,M,M,M,M,M,M,55.40,KCXP 221355Z AUTO 00000KT 10SM CLR 13/05 A3023 RMK AO2,M
TMT,2022-08-22 13:55,-117.1971,39.4643,1749.34,45.00,31.80,59.63,0.00,0.00,0.00,30.28,M,10.00,M,CLR,M,M,M,M,M,M,M,M,M,M,M,M,M,M,45.00,KTMT 221355Z AUTO 00000KT 10SM CLR 07/00 A3028 RMK AO2 T00721001,M
HTH,2022-08-22 13:55,-118.6315,38.5448,1282.89,69.80,35.60,28.39,210.00,4.00,0.00,30.18,M,10.00,M,CLR,M,M,M,M,M,M,M,M,M,M,M,M,M,M,69.80,KHTH 221355Z AUTO 21004KT 10SM CLR 21/02 A3018 RMK A01,M
BAM,2022-08-22 13:55,-116.8743,40.5990,1382.36,59.00,35.60,41.42,0.00,0.00,0.00,30.17,M,10.00,M,CLR,M,M,M,M,M,M,M,M,M,M,M,M,M,M,59.00,KBAM 221355Z AUTO 00000KT 10SM CLR 15/02 A3017 RMK AO1,M
MEV,2022-08-22 13:55,-119.7500,38.9963,1441.42,50.00,37.40,61.76,0.00,0.00,0.00,30.23,M,9.00,M,CLR,M,M,M,M,M,M,M,M,M,M,M,M,M,M,50.00,KMEV 221355Z AUTO 00000KT 9SM CLR 10/03 A3023 RMK AO2,M
RTS,2022-08-22 13:55,-119.8764,39.6682,1539.00,57.20,32.00,38.26,340.00,5.00,0.00,30.25,M,10.00,M,CLR,M,M,M,M,M,M,M,M,M,M,M,M,M,M,57.20,KRTS 221355Z AUTO 34005KT 10SM CLR 14/00 A3025 RMK AO2,M
RNO,2022-08-22 13:55,-119.7711,39.4839,1341.00,63.00,40.00,42.56,250.00,3.00,0.00,30.21,1017.20,10.00,M,FEW,M,M,M,8000.00,M,M,M,M,M,M,M,M,M,M,63.00,KRNO 221355Z 25003KT 10SM FEW080 17/04 A3021 RMK AO2 SLP172 T01720044,M
BVU,2022-08-22 13:55,-114.8611,35.9475,671.00,80.60,59.00,47.79,40.00,4.00,0.00,30.00,M,M,M,M,M,M,M,M,M,M,M,M,M,M,M,M,M,M,81.11,KBVU 221355Z AUTO 04004KT 27/15 A3000 RMK AO2 PWINO TSNO,M
INS,2022-08-22 13:56,-115.6733,36.5872,955.00,76.60,57.20,51.11,140.00,5.00,0.00,30.05,1012.20,10.00,M,SCT,M,M,M,16000.00,M,M,M,M,M,M,M,M,M,M,76.60,KINS 221356Z AUTO 14005KT 10SM SCT160 25/14 A3005 RMK AO2 SLP122 T02480140 $,M
WMC,2022-08-22 13:56,-117.8072,40.9019,1315.00,57.00,32.00,38.54,130.00,4.00,0.00,30.16,1016.10,10.00,M,CLR,M,M,M,M,M,M,M,M,M,M,M,M,M,M,57.00,KWMC 221356Z AUTO 13004KT 10SM CLR 14/00 A3016 RMK AO2 SLP161 T01390000 $,M
LSV,2022-08-22 13:56,-115.0343,36.2362,570.00,82.00,63.70,53.93,50.00,8.00,0.00,29.97,1012.20,10.00,M,CLR,M,M,M,M,M,M,M,M,M,M,M,M,M,M,83.38,KLSV 221356Z AUTO 05008KT 10SM CLR 28/18 A2997 RMK AO2 SLP122 T02780176 $,M
TPH,2022-08-22 13:56,-117.0904,38.0505,1654.00,67.00,36.00,31.87,360.00,5.00,0.00,30.23,1014.80,10.00,M,CLR,M,M,M,M,M,M,M,M,M,M,M,M,M,M,66.90,KTPH 221356Z AUTO 36005KT 10SM CLR 19/02 A3023 RMK AO2 SLP148 T01940022 $,M
LAS,2022-08-22 13:56,-115.1634,36.0719,663.00,83.00,61.00,47.62,60.00,7.00,0.00,30.00,1012.60,10.00,M,FEW,M,M,M,15000.00,M,M,M,M,M,M,M,M,M,M,83.37,KLAS 221356Z 06007KT 10SM FEW150 28/16 A3000 RMK AO2 SLP126 T02830161,M
NFL,2022-08-22 13:56,-118.7010,39.4166,1199.00,63.00,36.00,36.52,140.00,5.00,0.00,30.15,1017.40,10.00,M,CLR,M,M,M,M,M,M,M,M,M,M,M,M,M,M,63.00,KNFL 221356Z AUTO 14005KT 10SM CLR 17/02 A3015 RMK AO2 SLP174 T01720022,M
HND,2022-08-22 13:56,-115.1344,35.9729,742.79,80.00,62.00,54.23,200.00,3.00,0.00,30.03,1015.20,10.00,M,CLR,M,M,M,M,M,M,M,M,M,M,M,M,M,M,81.31,KHND 221356Z 20003KT 10SM CLR 27/17 A3003 RMK AO2 SLP152 T02670167,M
EKO,2022-08-22 13:56,-115.7860,40.8242,1367.00,52.00,44.00,74.35,110.00,3.00,0.00,30.21,1018.70,10.00,M,CLR,M,M,M,M,M,M,M,M,M,M,M,M,M,M,52.00,KEKO 221356Z AUTO 11003KT 10SM CLR 11/07 A3021 RMK AO2 SLP187 T01110067 $,M
BAM,2022-08-22 14:15,-116.8743,40.5990,1382.36,62.60,37.40,39.14,0.00,0.00,0.00,30.18,M,10.00,M,CLR,M,M,M,M,M,M,M,M,M,M,M,M,M,M,62.60,KBAM 221415Z AUTO 00000KT 10SM CLR 17/03 A3018 RMK AO1,M
TMT,2022-08-22 14:15,-117.1971,39.4643,1749.34,51.40,34.70,52.69,0.00,0.00,0.00,30.29,M,10.00,M,CLR,M,M,M,M,M,M,M,M,M,M,M,M,M,M,51.40,KTMT 221415Z AUTO 00000KT 10SM CLR 11/02 A3029 RMK AO2 T01080015,M
CXP,2022-08-22 14:15,-119.7326,39.1923,1431.00,57.20,41.00,54.60,0.00,0.00,0.00,30.24,M,10.00,M,CLR,M,M,M,M,M,M,M,M,M,M,M,M,M,M,57.20,KCXP 221415Z AUTO 00000KT 10SM CLR 14/05 A3024 RMK AO2,M
MEV,2022-08-22 14:15,-119.7500,38.9963,1441.42,53.60,39.20,58.02,0.00,0.00,0.00,30.23,M,10.00,M,CLR,M,M,M,M,M,M,M,M,M,M,M,M,M,M,53.60,KMEV 221415Z AUTO 00000KT 10SM CLR 12/04 A3023 RMK AO2,M
HTH,2022-08-22 14:15,-118.6315,38.5448,1282.89,68.00,37.40,32.43,0.00,0.00,0.00,30.19,M,10.00,M,CLR,M,M,M,M,M,M,M,M,M,M,M,M,M,M,68.00,KHTH 221415Z AUTO 00000KT 10SM CLR 20/03 A3019 RMK A01,M
RTS,2022-08-22 14:15,-119.8764,39.6682,1539.00,59.00,32.00,35.87,0.00,0.00,0.00,30.26,M,10.00,M,CLR,M,M,M,M,M,M,M,M,M,M,M,M,M,M,59.00,KRTS 221415Z AUTO 00000KT 10SM CLR 15/00 A3026 RMK AO2,M
BVU,2022-08-22 14:15,-114.8611,35.9475,671.00,80.60,59.00,47.79,60.00,4.00,0.00,30.01,M,M,M,M,M,M,M,M,M,M,M,M,M,M,M,M,M,M,81.11,KBVU 221415Z AUTO 06004KT 27/15 A3001 RMK AO2 PWINO TSNO,M
NFL,2022-08-22 14:28,-118.7010,39.4166,1199.00,69.00,36.00,29.55,130.00,4.00,0.00,30.15,M,10.00,M,FEW,M,M,M,8000.00,M,M,M,M,M,M,M,M,M,M,69.10,KNFL 221428Z 13004KT 10SM FEW080 21/02 A3015 RMK AO2 T02060022,M
BAM,2022-08-22 14:35,-116.8743,40.5990,1382.36,68.00,39.20,34.80,0.00,0.00,0.00,30.18,M,10.00,M,CLR,M,M,M,M,M,M,M,M,M,M,M,M,M,M,68.00,KBAM 221435Z AUTO 00000KT 10SM CLR 20/04 A3018 RMK AO1,M
BVU,2022-08-22 14:35,-114.8611,35.9475,671.00,82.40,59.00,45.07,70.00,5.00,0.00,30.01,M,M,M,M,M,M,M,M,M,M,M,M,M,M,M,M,M,M,82.46,KBVU 221435Z AUTO 07005KT 28/15 A3001 RMK AO2 PWINO TSNO,M
CXP,2022-08-22 14:35,-119.7326,39.1923,1431.00,60.80,41.00,48.00,0.00,0.00,0.00,30.24,M,10.00,M,CLR,M,M,M,M,M,M,M,M,M,M,M,M,M,M,60.80,KCXP 221435Z AUTO 00000KT 10SM CLR 16/05 A3024 RMK AO2,M
RTS,2022-08-22 14:35,-119.8764,39.6682,1539.00,60.80,33.80,36.16,340.00,4.00,0.00,30.27,M,10.00,M,CLR,M,M,M,M,M,M,M,M,M,M,M,M,M,M,60.80,KRTS 221435Z AUTO 34004KT 10SM CLR 16/01 A3027 RMK AO2,M
MEV,2022-08-22 14:35,-119.7500,38.9963,1441.42,57.20,37.40,47.44,0.00,0.00,0.00,30.24,M,10.00,M,CLR,M,M,M,M,M,M,M,M,M,M,M,M,M,M,57.20,KMEV 221435Z AUTO 00000KT 10SM CLR 14/03 A3024 RMK AO2,M
HTH,2022-08-22 14:35,-118.6315,38.5448,1282.89,71.60,37.40,28.68,0.00,0.00,0.00,30.19,M,10.00,M,CLR,M,M,M,M,M,M,M,M,M,M,M,M,M,M,71.60,KHTH 221435Z AUTO 00000KT 10SM CLR 22/03 A3019 RMK A01,M
TMT,2022-08-22 14:35,-117.1971,39.4643,1749.34,54.00,35.20,48.67,0.00,0.00,0.00,30.29,M,10.00,M,CLR,M,M,M,M,M,M,M,M,M,M,M,M,M,M,54.10,KTMT 221435Z AUTO 00000KT 10SM CLR 12/02 A3029 RMK AO2 T01230018,M
P68,2022-08-22 14:53,-116.0056,39.6014,1993.00,64.00,39.00,39.67,220.00,3.00,0.00,30.26,1016.30,M,M,M,M,M,M,M,M,M,M,M,M,M,M,M,M,M,64.00,KP68 221453Z AUTO 22003KT 18/04 A3026 RMK AO1 SLP163 T01780039 53006,M
LOL,2022-08-22 14:53,-118.5701,40.0684,1192.43,65.00,37.00,35.54,0.00,0.00,0.00,30.15,1016.80,10.00,M,CLR,M,M,M,M,M,M,M,M,M,M,M,M,M,M,64.90,KLOL 221453Z AUTO 00000KT 10SM CLR 18/03 A3015 RMK AO2 SLP168 T01830028 53012,M
VGT,2022-08-22 14:53,-115.1933,36.2111,667.00,86.00,61.00,43.10,80.00,5.00,0.00,30.00,1014.70,10.00,M,CLR,M,M,M,M,M,M,M,M,M,M,M,M,M,M,86.12,KVGT 221453Z AUTO 08005KT 10SM CLR 30/16 A3000 RMK AO2 SLP147 T03000161 53016 $,M
ELY,2022-08-22 14:53,-114.8453,39.2950,1909.00,63.00,49.00,59.98,190.00,8.00,0.00,30.31,1016.90,10.00,M,CLR,M,M,M,M,M,M,M,M,M,M,M,M,M,M,63.00,KELY 221453Z AUTO 19008KT 10SM CLR 17/09 A3031 RMK AO2 SLP169 T01720094 53005,M
DRA,2022-08-22 14:53,-116.0278,36.6206,1009.00,78.00,55.00,44.90,0.00,0.00,0.00,30.08,1013.20,10.00,M,CLR,M,M,M,M,M,M,M,M,M,M,M,M,M,M,78.10,KDRA 221453Z AUTO 00000KT 10SM CLR 26/13 A3008 RMK AO2 SLP132 T02560128 53017,M
MEV,2022-08-22 14:55,-119.7500,38.9963,1441.42,59.00,39.20,47.72,0.00,0.00,0.00,30.23,M,10.00,M,CLR,M,M,M,M,M,M,M,M,M,M,M,M,M,M,59.00,KMEV 221455Z AUTO 00000KT 10SM CLR 15/04 A3023 RMK AO2,M
RNO,2022-08-22 14:55,-119.7711,39.4839,1341.00,69.00,39.00,33.25,230.00,4.00,0.00,30.22,1017.50,10.00,M,FEW,M,M,M,8000.00,M,M,M,M,M,M,M,M,M,M,69.10,KRNO 221455Z 23004KT 10SM FEW080 21/04 A3022 RMK AO2 SLP175 T02060039 53012,M
CXP,2022-08-22 14:55,-119.7326,39.1923,1431.00,62.60,41.00,45.04,0.00,0.00,0.00,30.25,M,10.00,M,CLR,M,M,M,M,M,M,M,M,M,M,M,M,M,M,62.60,KCXP 221455Z AUTO 00000KT 10SM CLR 17/05 A3025 RMK AO2,M
BVU,2022-08-22 14:55,-114.8611,35.9475,671.00,82.40,59.00,45.07,80.00,7.00,0.00,30.01,M,M,M,M,M,M,M,M,M,M,M,M,M,M,M,M,M,M,82.46,KBVU 221455Z AUTO 08007KT 28/15 A3001 RMK AO2 PWINO TSNO,M
RTS,2022-08-22 14:55,-119.8764,39.6682,1539.00,64.40,33.80,31.85,0.00,0.00,0.00,30.27,M,10.00,M,CLR,M,M,M,M,M,M,M,M,M,M,M,M,M,M,64.40,KRTS 221455Z AUTO 00000KT 10SM CLR 18/01 A3027 RMK AO2,M
BAM,2022-08-22 14:55,-116.8743,40.5990,1382.36,69.80,42.80,37.61,0.00,0.00,0.00,30.19,M,10.00,M,CLR,M,M,M,M,M,M,M,M,M,M,M,M,M,M,69.80,KBAM 221455Z AUTO 00000KT 10SM CLR 21/06 A3019 RMK AO1,M
HTH,2022-08-22 14:55,-118.6315,38.5448,1282.89,73.40,39.20,28.96,270.00,3.00,0.00,30.19,M,10.00,M,CLR,M,M,M,M,M,M,M,M,M,M,M,M,M,M,73.40,KHTH 221455Z AUTO 27003KT 10SM CLR 23/04 A3019 RMK A01,M
TMT,2022-08-22 14:55,-117.1971,39.4643,1749.34,56.80,36.50,46.45,0.00,0.00,0.00,30.29,M,10.00,M,CLR,M,M,M,M,M,M,M,M,M,M,M,M,M,M,56.80,KTMT 221455Z AUTO 00000KT 10SM CLR 14/03 A3029 RMK AO2 T01380025,M
HND,2022-08-22 14:56,-115.1344,35.9729,742.79,84.00,63.00,49.32,0.00,0.00,0.00,30.05,1015.80,10.00,M,CLR,M,M,M,M,M,M,M,M,M,M,M,M,M,M,84.99,KHND 221456Z 00000KT 10SM CLR 29/17 A3005 RMK AO2 SLP158 T02890172 53015,M
LSV,2022-08-22 14:56,-115.0343,36.2362,570.00,85.50,63.50,47.83,40.00,10.00,0.00,29.98,1012.60,10.00,M,CLR,M,M,M,M,M,M,M,M,M,M,M,M,M,M,86.61,KLSV 221456Z AUTO 04010KT 10SM CLR 30/18 A2998 RMK AO2 SLP126 T02970175 52015 $,M
WMC,2022-08-22 14:56,-117.8072,40.9019,1315.00,68.00,35.00,29.61,200.00,3.00,0.00,30.17,1016.50,10.00,M,CLR,M,M,M,M,M,M,M,M,M,M,M,M,M,M,68.00,KWMC 221456Z AUTO 20003KT 10SM CLR 20/02 A3017 RMK AO2 SLP165 T02000017 51013 $,M
TPH,2022-08-22 14:56,-117.0904,38.0505,1654.00,75.00,38.00,26.08,20.00,5.00,0.00,30.24,1015.20,10.00,M,CLR,M,M,M,M,M,M,M,M,M,M,M,M,M,M,75.00,KTPH 221456Z AUTO 02005KT 10SM CLR 24/03 A3024 RMK AO2 SLP152 T02390033 53012 $,M
INS,2022-08-22 14:56,-115.6733,36.5872,955.00,78.00,56.80,47.93,0.00,0.00,0.00,30.07,1012.80,10.00,M,SCT,BKN,M,M,13000.00,17000.00,M,M,M,M,M,M,M,M,M,78.10,KINS 221456Z AUTO 00000KT 10SM SCT130 BKN170 26/14 A3007 RMK AO2 SLP128 T02560138 52016 $,M
NFL,2022-08-22 14:56,-118.7010,39.4166,1199.00,73.00,35.00,24.97,0.00,0.00,0.00,30.16,1017.90,10.00,M,FEW,M,M,M,8000.00,M,M,M,M,M,M,M,M,M,M,73.00,KNFL 221456Z 00000KT 10SM FEW080 23/02 A3016 RMK AO2 SLP179 T02280017 53011,M
EKO,2022-08-22 14:56,-115.7860,40.8242,1367.00,58.00,46.00,64.47,200.00,4.00,0.00,30.22,1019.10,10.00,M,CLR,M,M,M,M,M,M,M,M,M,M,M,M,M,M,57.90,KEKO 221456Z AUTO 20004KT 10SM CLR 14/08 A3022 RMK AO2 SLP191 T01440078 53009 $,M
LAS,2022-08-22 14:56,-115.1634,36.0719,663.00,85.00,60.00,43.24,80.00,6.00,0.00,30.01,1013.30,10.00,M,FEW,M,M,M,15000.00,M,M,M,M,M,M,M,M,M,M,84.83,KLAS 221456Z 08006KT 10SM FEW150 29/16 A3001 RMK AO2 SLP133 T02940156 53016,M
CXP,2022-08-22 15:10,-119.7326,39.1923,1431.00,64.40,41.00,42.28,0.00,0.00,0.00,30.25,M,10.00,M,CLR,M,M,M,M,M,M,M,M,M,M,M,M,M,M,64.40,KCXP 221510Z AUTO 00000KT 10SM CLR 18/05 A3025 RMK AO2,M
RTS,2022-08-22 15:15,-119.8764,39.6682,1539.00,68.00,33.80,28.11,0.00,0.00,0.00,30.27,M,10.00,M,CLR,M,M,M,M,M,M,M,M,M,M,M,M,M,M,68.00,KRTS 221515Z AUTO 00000KT 10SM CLR 20/01 A3027 RMK AO2,M
MEV,2022-08-22 15:15,-119.7500,38.9963,1441.42,62.60,39.20,42.00,0.00,0.00,0.00,30.23,M,10.00,M,CLR,M,M,M,M,M,M,M,M,M,M,M,M,M,M,62.60,KMEV 221515Z AUTO 00000KT 10SM CLR 17/04 A3023 RMK AO2,M
BAM,2022-08-22 15:15,-116.8743,40.5990,1382.36,71.60,42.80,35.37,50.00,4.00,0.00,30.19,M,10.00,M,CLR,M,M,M,M,M,M,M,M,M,M,M,M,M,M,71.60,KBAM 221515Z AUTO 05004KT 10SM CLR 22/06 A3019 RMK AO1,M
BVU,2022-08-22 15:15,-114.8611,35.9475,671.00,84.20,59.00,42.52,80.00,7.00,0.00,30.02,M,M,M,M,M,M,M,M,M,M,M,M,M,M,M,M,M,M,83.92,KBVU 221515Z AUTO 08007KT 29/15 A3002 RMK AO2 PWINO TSNO,M
TMT,2022-08-22 15:15,-117.1971,39.4643,1749.34,60.40,37.20,41.98,0.00,0.00,0.00,30.29,M,10.00,M,CLR,M,M,M,M,M,M,M,M,M,M,M,M,M,M,60.40,KTMT 221515Z AUTO 00000KT 10SM CLR 16/03 A3029 RMK AO2 T01580029,M
HTH,2022-08-22 15:15,-118.6315,38.5448,1282.89,75.20,39.20,27.26,0.00,0.00,0.00,30.19,M,10.00,M,CLR,M,M,M,M,M,M,M,M,M,M,M,M,M,M,75.20,KHTH 221515Z AUTO 00000KT 10SM CLR 24/04 A3019 RMK A01,M
HTH,2022-08-22 15:35,-118.6315,38.5448,1282.89,77.00,39.20,25.67,0.00,0.00,0.00,30.20,M,10.00,M,CLR,M,M,M,M,M,M,M,M,M,M,M,M,M,M,77.00,KHTH 221535Z AUTO 00000KT 10SM CLR 25/04 A3020 RMK A01,M
MEV,2022-08-22 15:35,-119.7500,38.9963,1441.42,66.20,37.40,34.51,0.00,0.00,0.00,30.23,M,10.00,M,CLR,M,M,M,M,M,M,M,M,M,M,M,M,M,M,66.20,KMEV 221535Z AUTO 00000KT 10SM CLR 19/03 A3023 RMK AO2,M
RTS,2022-08-22 15:35,-119.8764,39.6682,1539.00,69.80,37.40,30.49,0.00,0.00,0.00,30.27,M,10.00,M,CLR,M,M,M,M,M,M,M,M,M,M,M,M,M,M,69.80,KRTS 221535Z AUTO 00000KT 10SM CLR 21/03 A3027 RMK AO2,M
CXP,2022-08-22 15:35,-119.7326,39.1923,1431.00,68.00,39.20,34.80,0.00,0.00,0.00,30.25,M,10.00,M,CLR,M,M,M,M,M,M,M,M,M,M,M,M,M,M,68.00,KCXP 221535Z AUTO 00000KT 10SM CLR 20/04 A3025 RMK AO2,M
BVU,2022-08-22 15:35,-114.8611,35.9475,671.00,86.00,59.00,40.14,70.00,4.00,0.00,30.02,M,M,M,M,M,M,M,M,M,M,M,M,M,M,M,M,M,M,85.47,KBVU 221535Z AUTO 07004KT 30/15 A3002 RMK AO2 PWINO TSNO,M
TMT,2022-08-22 15:35,-117.1971,39.4643,1749.34,64.40,37.80,37.32,0.00,0.00,0.00,30.29,M,10.00,M,CLR,M,M,M,M,M,M,M,M,M,M,M,M,M,M,64.40,KTMT 221535Z AUTO 00000KT 10SM CLR 18/03 A3029 RMK AO2 T01800032,M
BAM,2022-08-22 15:35,-116.8743,40.5990,1382.36,77.00,42.80,29.51,80.00,5.00,0.00,30.19,M,10.00,M,CLR,M,M,M,M,M,M,M,M,M,M,M,M,M,M,77.00,KBAM 221535Z AUTO 08005KT 10SM CLR 25/06 A3019 RMK AO1,M
DRA,2022-08-22 15:53,-116.0278,36.6206,1009.00,82.00,58.00,43.89,330.00,3.00,0.00,30.08,1013.00,10.00,M,CLR,M,M,M,M,M,M,M,M,M,M,M,M,M,M,81.92,KDRA 221553Z AUTO 33003KT 10SM CLR 28/14 A3008 RMK AO2 SLP130 T02780144,M
ELY,2022-08-22 15:53,-114.8453,39.2950,1909.00,70.00,50.00,49.03,190.00,6.00,0.00,30.31,1016.80,10.00,M,CLR,M,M,M,M,M,M,M,M,M,M,M,M,M,M,70.00,KELY 221553Z AUTO 19006KT 10SM CLR 21/10 A3031 RMK AO2 SLP168 T02110100,M
LOL,2022-08-22 15:53,-118.5701,40.0684,1192.43,75.00,34.00,22.35,0.00,0.00,0.00,30.16,1016.60,10.00,M,CLR,M,M,M,M,M,M,M,M,M,M,M,M,M,M,75.00,KLOL 221553Z AUTO 00000KT 10SM CLR 24/01 A3016 RMK AO2 SLP166 T02390011,M
VGT,2022-08-22 15:53,-115.1933,36.2111,667.00,88.00,61.00,40.44,70.00,5.00,0.00,30.00,1014.70,10.00,M,CLR,M,M,M,M,M,M,M,M,M,M,M,M,M,M,88.02,KVGT 221553Z AUTO 07005KT 10SM CLR 31/16 A3000 RMK AO2 SLP147 T03110161,M
P68,2022-08-22 15:53,-116.0056,39.6014,1993.00,74.00,39.00,28.25,0.00,0.00,0.00,30.26,1015.90,M,M,M,M,M,M,M,M,M,M,M,M,M,M,M,M,M,73.90,KP68 221553Z AUTO 00000KT 23/04 A3026 RMK AO1 SLP159 T02330039,M
BVU,2022-08-22 15:55,-114.8611,35.9475,671.00,86.00,59.00,40.14,0.00,0.00,0.00,30.02,M,M,M,M,M,M,M,M,M,M,M,M,M,M,M,M,M,M,85.47,KBVU 221555Z AUTO 00000KT 30/15 A3002 RMK AO2 PWINO TSNO,M
CXP,2022-08-22 15:55,-119.7326,39.1923,1431.00,71.60,39.20,30.77,M,3.00,0.00,30.24,M,10.00,M,CLR,M,M,M,M,M,M,M,M,M,M,M,M,M,M,71.60,KCXP 221555Z AUTO VRB03KT 10SM CLR 22/04 A3024 RMK AO2,M
RNO,2022-08-22 15:55,-119.7711,39.4839,1341.00,71.00,39.00,31.05,M,3.00,0.00,30.23,1017.80,10.00,M,CLR,M,M,M,M,M,M,M,M,M,M,M,M,M,M,71.10,KRNO 221555Z VRB03KT 10SM CLR 22/04 A3023 RMK AO2 SLP178 T02170039,M
RTS,2022-08-22 15:55,-119.8764,39.6682,1539.00,69.80,35.60,28.39,0.00,0.00,0.00,30.27,M,10.00,M,CLR,M,M,M,M,M,M,M,M,M,M,M,M,M,M,69.80,KRTS 221555Z AUTO 00000KT 10SM CLR 21/02 A3027 RMK AO2,M
MEV,2022-08-22 15:55,-119.7500,38.9963,1441.42,68.00,39.20,34.80,0.00,0.00,0.00,30.23,M,10.00,M,CLR,M,M,M,M,M,M,M,M,M,M,M,M,M,M,68.00,KMEV 221555Z AUTO 00000KT 10SM CLR 20/04 A3023 RMK AO2,M
BAM,2022-08-22 15:55,-116.8743,40.5990,1382.36,78.80,42.80,27.81,0.00,0.00,0.00,30.19,M,10.00,M,CLR,M,M,M,M,M,M,M,M,M,M,M,M,M,M,78.80,KBAM 221555Z AUTO 00000KT 10SM CLR 26/06 A3019 RMK AO1,M
HTH,2022-08-22 15:55,-118.6315,38.5448,1282.89,77.00,37.40,23.93,320.00,4.00,0.00,30.20,M,10.00,M,CLR,M,M,M,M,M,M,M,M,M,M,M,M,M,M,77.00,KHTH 221555Z AUTO 32004KT 10SM CLR 25/03 A3020 RMK A01,M
TMT,2022-08-22 15:55,-117.1971,39.4643,1749.34,67.00,39.00,35.86,0.00,0.00,0.00,30.29,M,10.00,M,CLR,M,M,M,M,M,M,M,M,M,M,M,M,M,M,66.90,KTMT 221555Z AUTO 00000KT 10SM CLR 19/04 A3029 RMK AO2 T01940039,M
INS,2022-08-22 15:56,-115.6733,36.5872,955.00,80.00,57.70,46.67,200.00,5.00,0.00,30.07,1013.00,10.00,M,SCT,OVC,M,M,14000.00,17000.00,M,M,M,M,M,M,M,M,M,79.90,KINS 221556Z AUTO 20005KT 10SM SCT140 OVC170 27/14 A3007 RMK AO2 SLP130 T02660143 $,M
LSV,2022-08-22 15:56,-115.0343,36.2362,570.00,88.70,61.20,39.84,80.00,6.00,0.00,29.98,1012.60,10.00,M,CLR,M,M,M,M,M,M,M,M,M,M,M,M,M,M,88.79,KLSV 221556Z AUTO 08006KT 10SM CLR 32/16 A2998 RMK AO2 SLP126 T03150162 $,M
NFL,2022-08-22 15:56,-118.7010,39.4166,1199.00,79.00,33.00,18.88,260.00,3.00,0.00,30.17,1017.90,10.00,M,FEW,M,M,M,8000.00,M,M,M,M,M,M,M,M,M,M,79.00,KNFL 221556Z 26003KT 10SM FEW080 26/01 A3017 RMK AO2 SLP179 T02610006,M
WMC,2022-08-22 15:56,-117.8072,40.9019,1315.00,75.00,35.00,23.35,0.00,0.00,0.00,30.17,1016.30,10.00,M,CLR,M,M,M,M,M,M,M,M,M,M,M,M,M,M,75.00,KWMC 221556Z AUTO 00000KT 10SM CLR 24/02 A3017 RMK AO2 SLP163 T02390017,M
EKO,2022-08-22 15:56,-115.7860,40.8242,1367.00,70.00,47.00,43.66,90.00,3.00,0.00,30.22,1018.20,10.00,M,CLR,M,M,M,M,M,M,M,M,M,M,M,M,M,M,70.00,KEKO 221556Z AUTO 09003KT 10SM CLR 21/08 A3022 RMK AO2 SLP182 T02110083,M
HND,2022-08-22 15:56,-115.1344,35.9729,742.79,86.00,63.00,46.25,280.00,5.00,0.00,30.05,1016.10,10.00,M,CLR,M,M,M,M,M,M,M,M,M,M,M,M,M,M,86.88,KHND 221556Z 28005KT 10SM CLR 30/17 A3005 RMK AO2 SLP161 T03000172,M
TPH,2022-08-22 15:56,-117.0904,38.0505,1654.00,79.00,36.00,21.19,0.00,0.00,0.00,30.24,1015.00,10.00,M,CLR,M,M,M,M,M,M,M,M,M,M,M,M,M,M,79.00,KTPH 221556Z AUTO 00000KT 10SM CLR 26/02 A3024 RMK AO2 SLP150 T02610022,M
LAS,2022-08-22 15:56,-115.1634,36.0719,663.00,86.00,61.00,43.10,80.00,4.00,0.00,30.02,1013.40,10.00,M,FEW,M,M,M,15000.00,M,M,M,M,M,M,M,M,M,M,86.12,KLAS 221556Z 08004KT 10SM FEW150 30/16 A3002 RMK AO2 SLP134 T03000161,M
RTS,2022-08-22 16:15,-119.8764,39.6682,1539.00,73.40,33.80,23.39,0.00,0.00,0.00,30.27,M,10.00,M,CLR,M,M,M,M,M,M,M,M,M,M,M,M,M,M,73.40,KRTS 221615Z AUTO 00000KT 10SM CLR 23/01 A3027 RMK AO2,M
MEV,2022-08-22 16:15,-119.7500,38.9963,1441.42,71.60,41.00,33.00,0.00,0.00,0.00,30.23,M,10.00,M,CLR,M,M,M,M,M,M,M,M,M,M,M,M,M,M,71.60,KMEV 221615Z AUTO 00000KT 10SM CLR 22/05 A3023 RMK AO2,M
BAM,2022-08-22 16:15,-116.8743,40.5990,1382.36,80.60,41.00,24.46,0.00,0.00,0.00,30.19,M,10.00,M,CLR,M,M,M,M,M,M,M,M,M,M,M,M,M,M,79.20,KBAM 221615Z AUTO 00000KT 10SM CLR 27/05 A3019 RMK AO1,M
HTH,2022-08-22 16:15,-118.6315,38.5448,1282.89,78.80,33.80,19.55,330.00,4.00,0.00,30.20,M,10.00,M,CLR,M,M,M,M,M,M,M,M,M,M,M,M,M,M,78.80,KHTH 221615Z AUTO 33004KT 10SM CLR 26/01 A3020 RMK A01,M
TMT,2022-08-22 16:15,-117.1971,39.4643,1749.34,M,M,M,0.00,0.00,0.00,30.29,M,10.00,M,CLR,M,M,M,M,M,M,M,M,M,M,M,M,M,M,M,KTMT 221615Z AUTO 00000KT 10SM CLR A3029 RMK AO2,M
BVU,2022-08-22 16:15,-114.8611,35.9475,671.00,87.80,59.00,37.90,M,3.00,0.00,30.02,M,M,M,M,M,M,M,M,M,M,M,M,M,M,M,M,M,M,87.12,KBVU 221615Z AUTO VRB03KT 31/15 A3002 RMK AO2 PWINO TSNO,M
CXP,2022-08-22 16:15,-119.7326,39.1923,1431.00,73.40,39.20,28.96,0.00,0.00,0.00,30.24,M,10.00,M,CLR,M,M,M,M,M,M,M,M,M,M,M,M,M,M,73.40,KCXP 221615Z AUTO 00000KT 10SM CLR 23/04 A3024 RMK AO2,M
HTH,2022-08-22 16:35,-118.6315,38.5448,1282.89,80.60,33.80,18.42,330.00,4.00,0.00,30.20,M,10.00,M,CLR,M,M,M,M,M,M,M,M,M,M,M,M,M,M,78.88,KHTH 221635Z AUTO 33004KT 10SM CLR 27/01 A3020 RMK A01,M
BVU,2022-08-22 16:35,-114.8611,35.9475,671.00,87.80,60.80,40.41,130.00,4.00,0.00,30.02,M,M,M,M,M,M,M,M,M,M,M,M,M,M,M,M,M,M,87.75,KBVU 221635Z AUTO 13004KT 31/16 A3002 RMK AO2 PWINO TSNO,M
CXP,2022-08-22 16:35,-119.7326,39.1923,1431.00,73.40,42.80,33.29,110.00,4.00,0.00,30.24,M,10.00,M,CLR,M,M,M,M,M,M,M,M,M,M,M,M,M,M,73.40,KCXP 221635Z AUTO 11004KT 10SM CLR 23/06 A3024 RMK AO2,M
RTS,2022-08-22 16:35,-119.8764,39.6682,1539.00,75.20,35.60,23.66,140.00,4.00,0.00,30.26,M,10.00,M,CLR,M,M,M,M,M,M,M,M,M,M,M,M,M,M,75.20,KRTS 221635Z AUTO 14004KT 10SM CLR 24/02 A3026 RMK AO2,M
MEV,2022-08-22 16:35,-119.7500,38.9963,1441.42,73.40,41.00,31.05,0.00,0.00,0.00,30.23,M,10.00,M,CLR,M,M,M,M,M,M,M,M,M,M,M,M,M,M,73.40,KMEV 221635Z AUTO 00000KT 10SM CLR 23/05 A3023 RMK AO2,M
BAM,2022-08-22 16:35,-116.8743,40.5990,1382.36,82.40,37.40,20.04,0.00,0.00,0.00,30.19,M,10.00,M,CLR,M,M,M,M,M,M,M,M,M,M,M,M,M,M,80.14,KBAM 221635Z AUTO 00000KT 10SM CLR 28/03 A3019 RMK AO1,M
TMT,2022-08-22 16:35,-117.1971,39.4643,1749.34,M,M,M,0.00,0.00,0.00,30.29,M,10.00,M,CLR,M,M,M,M,M,M,M,M,M,M,M,M,M,M,M,KTMT 221635Z AUTO 00000KT 10SM CLR A3029 RMK AO2,M
VGT,2022-08-22 16:53,-115.1933,36.2111,667.00,90.00,61.00,37.97,0.00,0.00,0.00,30.01,1014.80,10.00,M,CLR,M,M,M,M,M,M,M,M,M,M,M,M,M,M,90.03,KVGT 221653Z AUTO 00000KT 10SM CLR 32/16 A3001 RMK AO2 SLP148 T03220161,M
P68,2022-08-22 16:53,-116.0056,39.6014,1993.00,79.00,39.00,23.85,60.00,4.00,0.00,30.26,1016.00,M,M,M,M,M,M,M,M,M,M,M,M,M,M,M,M,M,79.00,KP68 221653Z AUTO 06004KT 26/04 A3026 RMK AO1 SLP160 T02610039,M
ELY,2022-08-22 16:53,-114.8453,39.2950,1909.00,76.00,47.00,35.78,0.00,0.00,0.00,30.30,1016.40,10.00,M,CLR,M,M,M,M,M,M,M,M,M,M,M,M,M,M,75.90,KELY 221653Z AUTO 00000KT 10SM CLR 24/08 A3030 RMK AO2 SLP164 T02440083,M
LOL,2022-08-22 16:53,-118.5701,40.0684,1192.43,83.00,36.00,18.66,180.00,4.00,0.00,30.15,1016.20,10.00,M,CLR,M,M,M,M,M,M,M,M,M,M,M,M,M,M,80.43,KLOL 221653Z AUTO 18004KT 10SM CLR 28/02 A3015 RMK AO2 SLP162 T02830022,M
DRA,2022-08-22 16:53,-116.0278,36.6206,1009.00,84.00,58.00,41.14,360.00,3.00,0.00,30.08,1013.00,10.00,M,CLR,M,M,M,M,M,M,M,M,M,M,M,M,M,M,83.47,KDRA 221653Z AUTO 36003KT 10SM CLR 29/14 A3008 RMK AO2 SLP130 T02890144,M
TMT,2022-08-22 16:55,-117.1971,39.4643,1749.34,M,M,M,0.00,0.00,0.00,30.28,M,10.00,M,CLR,M,M,M,M,M,M,M,M,M,M,M,M,M,M,M,KTMT 221655Z AUTO 00000KT 10SM CLR A3028 RMK AO2,M
MEV,2022-08-22 16:55,-119.7500,38.9963,1441.42,77.00,39.20,25.67,M,3.00,0.00,30.23,M,10.00,M,CLR,M,M,M,M,M,M,M,M,M,M,M,M,M,M,77.00,KMEV 221655Z AUTO VRB03KT 10SM CLR 25/04 A3023 RMK AO2,M
HTH,2022-08-22 16:55,-118.6315,38.5448,1282.89,80.60,32.00,17.14,330.00,4.00,0.00,30.20,M,10.00,M,CLR,M,M,M,M,M,M,M,M,M,M,M,M,M,M,78.82,KHTH 221655Z AUTO 33004KT 10SM CLR 27/00 A3020 RMK A01,M
BAM,2022-08-22 16:55,-116.8743,40.5990,1382.36,82.40,35.60,18.67,0.00,0.00,0.00,30.19,M,10.00,M,CLR,M,M,M,M,M,M,M,M,M,M,M,M,M,M,80.08,KBAM 221655Z AUTO 00000KT 10SM CLR 28/02 A3019 RMK AO1,M
RTS,2022-08-22 16:55,-119.8764,39.6682,1539.00,77.00,32.00,19.30,0.00,0.00,0.00,30.26,M,10.00,M,CLR,M,M,M,M,M,M,M,M,M,M,M,M,M,M,77.00,KRTS 221655Z AUTO 00000KT 10SM CLR 25/00 A3026 RMK AO2,M
RNO,2022-08-22 16:55,-119.7711,39.4839,1341.00,77.00,39.00,25.47,0.00,0.00,0.00,30.22,1017.20,10.00,M,CLR,M,M,M,M,M,M,M,M,M,M,M,M,M,M,77.00,KRNO 221655Z 00000KT 10SM CLR 25/04 A3022 RMK AO2 SLP172 T02500039,M
CXP,2022-08-22 16:55,-119.7326,39.1923,1431.00,77.00,41.00,27.53,M,3.00,0.00,30.24,M,10.00,M,CLR,M,M,M,M,M,M,M,M,M,M,M,M,M,M,77.00,KCXP 221655Z AUTO VRB03KT 10SM CLR 25/05 A3024 RMK AO2,M
BVU,2022-08-22 16:55,-114.8611,35.9475,671.00,89.60,60.80,38.18,0.00,0.00,0.00,30.02,M,M,M,M,M,M,M,M,M,M,M,M,M,M,M,M,M,M,89.54,KBVU 221655Z AUTO 00000KT 32/16 A3002 RMK AO2 PWINO TSNO,M
INS,2022-08-22 16:56,-115.6733,36.5872,955.00,86.50,58.00,37.97,0.00,0.00,0.00,30.07,1012.80,10.00,M,CLR,M,M,M,M,M,M,M,M,M,M,M,M,M,M,85.60,KINS 221656Z AUTO 00000KT 10SM CLR 30/14 A3007 RMK AO2 SLP128 T03030144 $,M
HND,2022-08-22 16:56,-115.1344,35.9729,742.79,88.00,63.00,43.40,0.00,0.00,0.00,30.05,1016.00,10.00,M,CLR,M,M,M,M,M,M,M,M,M,M,M,M,M,M,88.86,KHND 221656Z 00000KT 10SM CLR 31/17 A3005 RMK AO2 SLP160 T03110172,M
NFL,2022-08-22 16:56,-118.7010,39.4166,1199.00,83.00,34.00,17.23,0.00,0.00,0.00,30.17,1018.00,10.00,M,FEW,M,M,M,8000.00,M,M,M,M,M,M,M,M,M,M,80.38,KNFL 221656Z 00000KT 10SM FEW080 28/01 A3017 RMK AO2 SLP180 T02830011,M
LSV,2022-08-22 16:56,-115.0343,36.2362,570.00,93.00,61.20,34.82,120.00,3.00,0.00,29.99,1012.90,10.00,M,CLR,M,M,M,M,M,M,M,M,M,M,M,M,M,M,93.29,KLSV 221656Z AUTO 12003KT 10SM CLR 34/16 A2999 RMK AO2 SLP129 T03390162 $,M
WMC,2022-08-22 16:56,-117.8072,40.9019,1315.00,86.00,37.00,17.57,M,4.00,0.00,30.17,1015.70,10.00,M,CLR,M,M,M,M,M,M,M,M,M,M,M,M,M,M,82.72,KWMC 221656Z AUTO VRB04KT 10SM CLR 30/03 A3017 RMK AO2 SLP157 T03000028,M
EKO,2022-08-22 16:56,-115.7860,40.8242,1367.00,73.00,45.00,36.70,0.00,0.00,0.00,30.21,1018.00,10.00,M,CLR,M,M,M,M,M,M,M,M,M,M,M,M,M,M,73.00,KEKO 221656Z AUTO 00000KT 10SM CLR 23/07 A3021 RMK AO2 SLP180 T02280072,M
LAS,2022-08-22 16:56,-115.1634,36.0719,663.00,89.00,61.00,39.06,0.00,0.00,0.00,30.02,1013.60,10.00,M,FEW,M,M,M,15000.00,M,M,M,M,M,M,M,M,M,M,89.11,KLAS 221656Z 00000KT 10SM FEW150 32/16 A3002 RMK AO2 SLP136 T03170161,M
TPH,2022-08-22 16:56,-117.0904,38.0505,1654.00,82.00,34.00,17.74,0.00,0.00,0.00,30.25,1015.20,10.00,M,CLR,M,M,M,M,M,M,M,M,M,M,M,M,M,M,79.77,KTPH 221656Z AUTO 00000KT 10SM CLR 28/01 A3025 RMK AO2 SLP152 T02780011,M
TMT,2022-08-22 17:15,-117.1971,39.4643,1749.34,M,M,M,0.00,0.00,0.00,30.28,M,10.00,M,CLR,M,M,M,M,M,M,M,M,M,M,M,M,M,M,M,KTMT 221715Z AUTO 00000KT 10SM CLR A3028 RMK AO2,M
RTS,2022-08-22 17:15,-119.8764,39.6682,1539.00,78.80,32.00,18.18,110.00,3.00,0.00,30.26,M,10.00,M,CLR,M,M,M,M,M,M,M,M,M,M,M,M,M,M,78.80,KRTS 221715Z AUTO 11003KT 10SM CLR 26/00 A3026 RMK AO2,M
MEV,2022-08-22 17:15,-119.7500,38.9963,1441.42,78.80,39.20,24.19,0.00,0.00,0.00,30.22,M,10.00,M,CLR,M,M,M,M,M,M,M,M,M,M,M,M,M,M,78.80,KMEV 221715Z AUTO 00000KT 10SM CLR 26/04 A3022 RMK AO2,M
BVU,2022-08-22 17:15,-114.8611,35.9475,671.00,89.60,59.00,35.81,0.00,0.00,0.00,30.02,M,M,M,M,M,M,M,M,M,M,M,M,M,M,M,M,M,M,88.86,KBVU 221715Z AUTO 00000KT 32/15 A3002 RMK AO2 PWINO TSNO,M
CXP,2022-08-22 17:15,-119.7326,39.1923,1431.00,80.60,37.40,21.25,0.00,0.00,0.00,30.23,M,10.00,M,CLR,M,M,M,M,M,M,M,M,M,M,M,M,M,M,79.02,KCXP 221715Z AUTO 00000KT 10SM CLR 27/03 A3023 RMK AO2,M
BAM,2022-08-22 17:15,-116.8743,40.5990,1382.36,86.00,33.80,15.48,230.00,5.00,0.00,30.19,M,10.00,M,CLR,M,M,M,M,M,M,M,M,M,M,M,M,M,M,82.66,KBAM 221715Z AUTO 23005KT 10SM CLR 30/01 A3019 RMK AO1,M
HTH,2022-08-22 17:15,-118.6315,38.5448,1282.89,82.40,32.00,16.17,310.00,5.00,0.00,30.20,M,10.00,M,CLR,M,M,M,M,M,M,M,M,M,M,M,M,M,M,80.00,KHTH 221715Z AUTO 31005KT 10SM CLR 28/00 A3020 RMK A01,M
BAM,2022-08-22 17:35,-116.8743,40.5990,1382.36,87.80,33.80,14.61,0.00,0.00,0.00,30.18,M,10.00,M,CLR,M,M,M,M,M,M,M,M,M,M,M,M,M,M,84.10,KBAM 221735Z AUTO 00000KT 10SM CLR 31/01 A3018 RMK AO1,M
BVU,2022-08-22 17:35,-114.8611,35.9475,671.00,91.40,59.00,33.84,100.00,3.00,0.00,30.01,M,M,M,M,M,M,M,M,M,M,M,M,M,M,M,M,M,M,90.68,KBVU 221735Z AUTO 10003KT 33/15 A3001 RMK AO2 PWINO TSNO,M
TMT,2022-08-22 17:35,-117.1971,39.4643,1749.34,M,M,M,0.00,0.00,0.00,30.28,M,10.00,M,CLR,M,M,M,M,M,M,M,M,M,M,M,M,M,M,M,KTMT 221735Z AUTO 00000KT 10SM CLR A3028 RMK AO2,M
HTH,2022-08-22 17:35,-118.6315,38.5448,1282.89,84.20,32.00,15.25,M,5.00,0.00,30.19,M,10.00,M,CLR,M,M,M,M,M,M,M,M,M,M,M,M,M,M,81.28,KHTH 221735Z AUTO VRB05KT 10SM CLR 29/M00 A3019 RMK A01,M
MEV,2022-08-22 17:35,-119.7500,38.9963,1441.42,80.60,39.20,22.81,0.00,0.00,0.00,30.22,M,10.00,M,CLR,M,M,M,M,M,M,M,M,M,M,M,M,M,M,79.10,KMEV 221735Z AUTO 00000KT 10SM CLR 27/04 A3022 RMK AO2,M
RTS,2022-08-22 17:35,-119.8764,39.6682,1539.00,78.80,32.00,18.18,0.00,0.00,0.00,30.26,M,10.00,M,CLR,M,M,M,M,M,M,M,M,M,M,M,M,M,M,78.80,KRTS 221735Z AUTO 00000KT 10SM CLR 26/M00 A3026 RMK AO2,M
CXP,2022-08-22 17:35,-119.7326,39.1923,1431.00,82.40,35.60,18.67,0.00,0.00,0.00,30.23,M,10.00,M,CLR,M,M,M,M,M,M,M,M,M,M,M,M,M,M,80.08,KCXP 221735Z AUTO 00000KT 10SM CLR 28/02 A3023 RMK AO2,M
DRA,2022-08-22 17:53,-116.0278,36.6206,1009.00,90.00,59.00,35.36,M,3.00,0.00,30.08,1012.60,10.00,M,CLR,M,M,M,M,M,M,M,M,M,M,M,M,M,M,89.26,KDRA 221753Z AUTO VRB03KT 10SM CLR 32/15 A3008 RMK AO2 SLP126 T03220150 10322 20228 58001,M
ELY,2022-08-22 17:53,-114.8453,39.2950,1909.00,83.00,46.00,27.48,0.00,0.00,0.00,30.29,1015.30,10.00,M,CLR,M,M,M,M,M,M,M,M,M,M,M,M,M,M,80.94,KELY 221753Z AUTO 00000KT 10SM CLR 28/08 A3029 RMK AO2 SLP153 T02830078 10283 20094 58005,M
VGT,2022-08-22 17:53,-115.1933,36.2111,667.00,94.00,62.00,34.95,90.00,5.00,0.00,30.00,1014.60,10.00,M,CLR,M,M,M,M,M,M,M,M,M,M,M,M,M,M,94.72,KVGT 221753Z 09005KT 10SM CLR 34/17 A3000 RMK AO2 SLP146 T03440167 10344 20283 58000,M
LOL,2022-08-22 17:53,-118.5701,40.0684,1192.43,87.00,30.90,13.30,0.00,0.00,0.00,30.15,1015.80,10.00,M,CLR,M,M,M,M,M,M,M,M,M,M,M,M,M,M,83.51,KLOL 221753Z AUTO 00000KT 10SM CLR 31/M01 A3015 RMK AO2 SLP158 T03061006 10311 20128 58002,M
P68,2022-08-22 17:53,-116.0056,39.6014,1993.00,84.00,41.00,21.90,M,4.00,0.00,30.25,1015.50,M,M,M,M,M,M,M,M,M,M,M,M,M,M,M,M,M,81.37,KP68 221753Z AUTO VRB04KT 29/05 A3025 RMK AO1 SLP155 T02890050 10289 20106 58004,M
MEV,2022-08-22 17:55,-119.7500,38.9963,1441.42,82.40,39.20,21.51,0.00,0.00,0.00,30.21,M,10.00,M,CLR,M,M,M,M,M,M,M,M,M,M,M,M,M,M,80.21,KMEV 221755Z AUTO 00000KT 10SM CLR 28/04 A3021 RMK AO2,M
RTS,2022-08-22 17:55,-119.8764,39.6682,1539.00,80.60,32.00,17.14,M,4.00,0.00,30.25,M,10.00,M,CLR,M,M,M,M,M,M,M,M,M,M,M,M,M,M,78.82,KRTS 221755Z AUTO VRB04KT 10SM CLR 27/00 A3025 RMK AO2,M
RNO,2022-08-22 17:55,-119.7711,39.4839,1341.00,83.00,39.00,21.00,M,5.00,0.00,30.21,1016.60,10.00,M,CLR,M,M,M,M,M,M,M,M,M,M,M,M,M,M,80.53,KRNO 221755Z VRB05KT 10SM CLR 28/04 A3021 RMK AO2 SLP166 T02830039 10283 20161 58005,M
CXP,2022-08-22 17:55,-119.7326,39.1923,1431.00,86.00,33.80,15.48,M,4.00,0.00,30.22,M,10.00,M,CLR,M,M,M,M,M,M,M,M,M,M,M,M,M,M,82.66,KCXP 221755Z AUTO VRB04KT 10SM CLR 30/01 A3022 RMK AO2,M
BVU,2022-08-22 17:55,-114.8611,35.9475,671.00,91.40,59.00,33.84,0.00,0.00,0.00,30.01,M,M,M,M,M,M,M,M,M,M,M,M,M,M,M,M,M,M,90.68,KBVU 221755Z AUTO 00000KT 33/15 A3001 RMK AO2 PWINO TSNO,M
TMT,2022-08-22 17:55,-117.1971,39.4643,1749.34,M,M,M,0.00,0.00,0.00,30.28,M,10.00,M,CLR,M,M,M,M,M,M,M,M,M,M,M,M,M,M,M,KTMT 221755Z AUTO 00000KT 10SM CLR A3028 RMK AO2,M
HTH,2022-08-22 17:55,-118.6315,38.5448,1282.89,84.20,30.20,14.18,320.00,6.00,0.00,30.18,M,10.00,M,CLR,M,M,M,M,M,M,M,M,M,M,M,M,M,M,81.26,KHTH 221755Z AUTO 32006KT 10SM CLR 29/M01 A3018 RMK A01,M
BAM,2022-08-22 17:55,-116.8743,40.5990,1382.36,87.80,33.80,14.61,0.00,0.00,0.00,30.17,M,10.00,M,CLR,M,M,M,M,M,M,M,M,M,M,M,M,M,M,84.10,KBAM 221755Z AUTO 00000KT 10SM CLR 31/01 A3017 RMK AO1,M
HND,2022-08-22 17:56,-115.1344,35.9729,742.79,92.00,62.00,37.19,M,3.00,0.00,30.05,1015.80,10.00,M,CLR,M,M,M,M,M,M,M,M,M,M,M,M,M,M,92.52,KHND 221756Z VRB03KT 10SM CLR 33/17 A3005 RMK AO2 SLP158 T03330167 10333 20256 50001,M
WMC,2022-08-22 17:56,-117.8072,40.9019,1315.00,89.00,35.00,14.77,260.00,9.00,0.00,30.16,1015.60,10.00,14.00,CLR,M,M,M,M,M,M,M,M,M,M,M,M,M,M,85.19,KWMC 221756Z AUTO 26009G14KT 10SM CLR 32/02 A3016 RMK AO2 SLP156 T03170017 10317 20117 58002,M
EKO,2022-08-22 17:56,-115.7860,40.8242,1367.00,79.00,44.00,29.04,200.00,5.00,0.00,30.20,1017.10,10.00,M,CLR,M,M,M,M,M,M,M,M,M,M,M,M,M,M,79.00,KEKO 221756Z AUTO 20005KT 10SM CLR 26/07 A3020 RMK AO2 SLP171 T02610067 10261 20094 58007,M
TPH,2022-08-22 17:56,-117.0904,38.0505,1654.00,84.00,35.00,17.38,0.00,0.00,0.00,30.24,1015.00,10.00,M,CLR,M,M,M,M,M,M,M,M,M,M,M,M,M,M,81.18,KTPH 221756Z AUTO 00000KT 10SM CLR 29/02 A3024 RMK AO2 SLP150 T02890017 10294 20178 58000,M
INS,2022-08-22 17:56,-115.6733,36.5872,955.00,90.50,57.40,32.86,0.00,0.00,0.00,30.06,1012.40,10.00,M,CLR,M,M,M,M,M,M,M,M,M,M,M,M,M,M,89.22,KINS 221756Z AUTO 00000KT 10SM CLR 33/14 A3006 RMK AO2 SLP124 T03250141 10325 20244 58004 $,M
NFL,2022-08-22 17:56,-118.7010,39.4166,1199.00,87.00,30.90,13.30,340.00,6.00,0.00,30.16,1017.80,10.00,M,FEW,M,M,M,8000.00,M,M,M,M,M,M,M,M,M,M,83.51,KNFL 221756Z 34006KT 10SM FEW080 31/M01 A3016 RMK SLP178 T03061006 10306 20150 58001,M
LSV,2022-08-22 17:56,-115.0343,36.2362,570.00,96.00,63.00,33.92,70.00,6.00,0.00,29.98,1012.50,10.00,M,CLR,M,M,M,M,M,M,M,M,M,M,M,M,M,M,97.47,KLSV 221756Z AUTO 07006KT 10SM CLR 36/17 A2998 RMK AO2 SLP125 T03550172 10355 20275 58002 $,M
LAS,2022-08-22 17:56,-115.1634,36.0719,663.00,90.00,62.00,39.47,130.00,5.00,0.00,30.01,1013.40,10.00,M,FEW,FEW,M,M,12000.00,15000.00,M,M,M,M,M,M,M,M,M,90.51,KLAS 221756Z 13005KT 10SM FEW120 FEW150 32/17 A3001 RMK AO2 SLP134 T03220167 10328 20278 50001,M
TMT,2022-08-22 18:15,-117.1971,39.4643,1749.34,M,M,M,290.00,5.00,0.00,30.28,M,10.00,M,CLR,M,M,M,M,M,M,M,M,M,M,M,M,M,M,M,KTMT 221815Z AUTO 29005KT 10SM CLR A3028 RMK AO2,M
BVU,2022-08-22 18:15,-114.8611,35.9475,671.00,93.20,59.00,31.99,40.00,5.00,0.00,30.00,M,M,M,M,M,M,M,M,M,M,M,M,M,M,M,M,M,M,92.57,KBVU 221815Z AUTO 04005KT 34/15 A3000 RMK AO2 PWINO TSNO,M
CXP,2022-08-22 18:15,-119.7326,39.1923,1431.00,86.00,32.00,14.40,M,5.00,0.00,30.22,M,10.00,M,CLR,M,M,M,M,M,M,M,M,M,M,M,M,M,M,82.64,KCXP 221815Z AUTO VRB05KT 10SM CLR 30/00 A3022 RMK AO2,M
MEV,2022-08-22 18:15,-119.7500,38.9963,1441.42,84.20,37.40,18.91,M,3.00,0.00,30.20,M,10.00,M,CLR,M,M,M,M,M,M,M,M,M,M,M,M,M,M,81.38,KMEV 221815Z AUTO VRB03KT 10SM CLR 29/03 A3020 RMK AO2,M
BAM,2022-08-22 18:15,-116.8743,40.5990,1382.36,89.60,33.80,13.80,0.00,0.00,0.00,30.17,M,10.00,M,CLR,M,M,M,M,M,M,M,M,M,M,M,M,M,M,85.59,KBAM 221815Z AUTO 00000KT 10SM CLR 32/01 A3017 RMK AO1,M
HTH,2022-08-22 18:15,-118.6315,38.5448,1282.89,86.00,30.20,13.38,340.00,8.00,0.00,30.18,M,10.00,M,CLR,M,M,M,M,M,M,M,M,M,M,M,M,M,M,82.64,KHTH 221815Z AUTO 34008KT 10SM CLR 30/M01 A3018 RMK A01,M
RTS,2022-08-22 18:15,-119.8764,39.6682,1539.00,82.40,32.00,16.17,120.00,7.00,0.00,30.25,M,10.00,M,CLR,M,M,M,M,M,M,M,M,M,M,M,M,M,M,80.00,KRTS 221815Z AUTO 12007KT 10SM CLR 28/00 A3025 RMK AO2,M
HTH,2022-08-22 18:35,-118.6315,38.5448,1282.89,87.80,28.40,11.74,320.00,9.00,0.00,30.17,M,10.00,M,CLR,M,M,M,M,M,M,M,M,M,M,M,M,M,M,83.84,KHTH 221835Z AUTO 32009KT 10SM CLR 31/M02 A3017 RMK A01,M
BVU,2022-08-22 18:35,-114.8611,35.9475,671.00,95.00,57.20,28.37,M,6.00,0.00,30.00,M,M,M,M,M,M,M,M,M,M,M,M,M,M,M,M,M,M,93.82,KBVU 221835Z AUTO VRB06KT 35/14 A3000 RMK AO2 PWINO TSNO,M
CXP,2022-08-22 18:35,-119.7326,39.1923,1431.00,87.80,32.00,13.59,300.00,5.00,0.00,30.21,M,10.00,M,CLR,M,M,M,M,M,M,M,M,M,M,M,M,M,M,84.08,KCXP 221835Z AUTO 30005KT 10SM CLR 31/00 A3021 RMK AO2,M
RTS,2022-08-22 18:35,-119.8764,39.6682,1539.00,82.40,32.00,16.17,0.00,0.00,0.00,30.24,M,10.00,M,CLR,M,M,M,M,M,M,M,M,M,M,M,M,M,M,80.00,KRTS 221835Z AUTO 00000KT 10SM CLR 28/M00 A3024 RMK AO2,M
MEV,2022-08-22 18:35,-119.7500,38.9963,1441.42,86.00,33.80,15.48,0.00,0.00,0.00,30.20,M,10.00,M,CLR,M,M,M,M,M,M,M,M,M,M,M,M,M,M,82.66,KMEV 221835Z AUTO 00000KT 10SM CLR 30/01 A3020 RMK AO2,M
BAM,2022-08-22 18:35,-116.8743,40.5990,1382.36,89.60,33.80,13.80,310.00,4.00,0.00,30.17,M,10.00,M,CLR,M,M,M,M,M,M,M,M,M,M,M,M,M,M,85.59,KBAM 221835Z AUTO 31004KT 10SM CLR 32/01 A3017 RMK AO1,M
TMT,2022-08-22 18:35,-117.1971,39.4643,1749.34,M,M,M,300.00,4.00,0.00,30.27,M,10.00,M,CLR,M,M,M,M,M,M,M,M,M,M,M,M,M,M,M,KTMT 221835Z AUTO 30004KT 10SM CLR A3027 RMK AO2,M
DRA,2022-08-22 18:53,-116.0278,36.6206,1009.00,94.00,55.00,27.10,290.00,5.00,0.00,30.06,1012.10,10.00,M,CLR,M,M,M,M,M,M,M,M,M,M,M,M,M,M,91.95,KDRA 221853Z AUTO 29005KT 10SM CLR 34/13 A3006 RMK AO2 SLP121 T03440128,M
LOL,2022-08-22 18:53,-118.5701,40.0684,1192.43,90.00,28.00,10.78,120.00,4.00,0.00,30.13,1015.30,10.00,M,CLR,M,M,M,M,M,M,M,M,M,M,M,M,M,M,85.43,KLOL 221853Z AUTO 12004KT 10SM CLR 32/M02 A3013 RMK AO2 SLP153 T03221022,M
P68,2022-08-22 18:53,-116.0056,39.6014,1993.00,87.00,39.00,18.35,90.00,6.00,0.00,30.23,1014.90,M,M,M,M,M,M,M,M,M,M,M,M,M,M,M,M,M,83.65,KP68 221853Z AUTO 09006KT 31/04 A3023 RMK AO1 SLP149 T03060039,M
VGT,2022-08-22 18:53,-115.1933,36.2111,667.00,94.00,62.00,34.95,M,M,0.00,29.98,1013.90,10.00,M,CLR,M,M,M,M,M,M,M,M,M,M,M,M,M,M,94.72,KVGT 221853Z 10SM CLR 34/17 A2998 RMK AO2 SLP139 T03440167,M
ELY,2022-08-22 18:53,-114.8453,39.2950,1909.00,83.00,35.00,18.01,50.00,4.00,0.00,30.28,1015.20,10.00,M,SCT,M,M,M,12000.00,M,M,M,M,M,M,M,M,M,M,80.41,KELY 221853Z AUTO 05004KT 10SM SCT120 28/02 A3028 RMK AO2 SLP152 T02830017,M
BAM,2022-08-22 18:55,-116.8743,40.5990,1382.36,93.20,30.20,10.67,220.00,7.00,0.00,30.16,M,10.00,M,CLR,M,M,M,M,M,M,M,M,M,M,M,M,M,M,88.09,KBAM 221855Z AUTO 22007KT 10SM CLR 34/M01 A3016 RMK AO1,M
HTH,2022-08-22 18:55,-118.6315,38.5448,1282.89,87.80,28.40,11.74,310.00,6.00,0.00,30.17,M,10.00,M,CLR,M,M,M,M,M,M,M,M,M,M,M,M,M,M,83.84,KHTH 221855Z AUTO 31006KT 10SM CLR 31/M02 A3017 RMK A01,M
TMT,2022-08-22 18:55,-117.1971,39.4643,1749.34,M,M,M,350.00,5.00,0.00,30.26,M,10.00,M,CLR,M,M,M,M,M,M,M,M,M,M,M,M,M,M,M,KTMT 221855Z AUTO 35005KT 10SM CLR A3026 RMK AO2,M
BVU,2022-08-22 18:55,-114.8611,35.9475,671.00,95.00,55.40,26.58,230.00,4.00,0.00,29.99,M,M,M,M,M,M,M,M,M,M,M,M,M,M,M,M,M,M,93.22,KBVU 221855Z AUTO 23004KT 35/13 A2999 RMK AO2 PWINO TSNO,M
RNO,2022-08-22 18:55,-119.7711,39.4839,1341.00,86.00,37.00,17.57,0.00,0.00,0.00,30.19,1015.80,10.00,M,CLR,M,M,M,M,M,M,M,M,M,M,M,M,M,M,82.72,KRNO 221855Z 00000KT 10SM CLR 30/03 A3019 RMK AO2 SLP158 T03000028,M
CXP,2022-08-22 18:55,-119.7326,39.1923,1431.00,87.80,32.00,13.59,M,3.00,0.00,30.21,M,10.00,M,CLR,M,M,M,M,M,M,M,M,M,M,M,M,M,M,84.08,KCXP 221855Z AUTO VRB03KT 10SM CLR 31/00 A3021 RMK AO2,M
RTS,2022-08-22 18:55,-119.8764,39.6682,1539.00,82.40,30.20,15.03,M,4.00,0.00,30.24,M,10.00,M,CLR,M,M,M,M,M,M,M,M,M,M,M,M,M,M,79.97,KRTS 221855Z AUTO VRB04KT 10SM CLR 28/M01 A3024 RMK AO2,M
MEV,2022-08-22 18:55,-119.7500,38.9963,1441.42,86.00,33.80,15.48,0.00,0.00,0.00,30.19,M,10.00,M,CLR,M,M,M,M,M,M,M,M,M,M,M,M,M,M,82.66,KMEV 221855Z AUTO 00000KT 10SM CLR 30/01 A3019 RMK AO2,M
WMC,2022-08-22 18:56,-117.8072,40.9019,1315.00,M,M,M,M,M,0.00,30.14,M,M,M,M,M,M,M,M,M,M,M,M,M,M,M,M,M,M,M,KWMC 221856Z AUTO A3014 RMK AO2 SLPNO PWINO FZRANO $,M
HND,2022-08-22 18:56,-115.1344,35.9729,742.79,94.00,61.00,33.62,0.00,0.00,0.00,30.03,1015.20,10.00,M,CLR,M,M,M,M,M,M,M,M,M,M,M,M,M,M,94.18,KHND 221856Z 00000KT 10SM CLR 34/16 A3003 RMK AO2 SLP152 T03440161,M
TPH,2022-08-22 18:56,-117.0904,38.0505,1654.00,89.00,34.00,14.14,100.00,5.00,0.00,30.22,1014.20,10.00,M,CLR,M,M,M,M,M,M,M,M,M,M,M,M,M,M,85.17,KTPH 221856Z AUTO 10005KT 10SM CLR 32/01 A3022 RMK AO2 SLP142 T03170011,M
NFL,2022-08-22 18:56,-118.7010,39.4166,1199.00,90.00,30.00,11.70,M,4.00,0.00,30.14,1017.30,10.00,M,FEW,M,M,M,9000.00,M,M,M,M,M,M,M,M,M,M,85.63,KNFL 221856Z VRB04KT 10SM FEW090 32/M01 A3014 RMK AO2 SLP173 T03221011,M
LSV,2022-08-22 18:56,-115.0343,36.2362,570.00,100.00,63.70,30.78,70.00,6.00,0.00,29.96,1011.70,10.00,M,CLR,M,M,M,M,M,M,M,M,M,M,M,M,M,M,102.60,KLSV 221856Z AUTO 07006KT 10SM CLR 38/18 A2996 RMK AO2 SLP117 T03770176 $,M
EKO,2022-08-22 18:56,-115.7860,40.8242,1367.00,83.00,40.00,21.75,190.00,7.00,0.00,30.18,1016.10,10.00,M,CLR,M,M,M,M,M,M,M,M,M,M,M,M,M,M,80.57,KEKO 221856Z AUTO 19007KT 10SM CLR 28/04 A3018 RMK AO2 SLP161 T02830044,M
INS,2022-08-22 18:56,-115.6733,36.5872,955.00,92.00,56.00,29.80,90.00,4.00,0.00,30.04,1011.70,10.00,M,FEW,M,M,M,17000.00,M,M,M,M,M,M,M,M,M,M,90.17,KINS 221856Z AUTO 09004KT 10SM FEW170 33/13 A3004 RMK AO2 SLP117 T03330133 $,M
LAS,2022-08-22 18:56,-115.1634,36.0719,663.00,94.00,60.00,32.56,100.00,5.00,0.00,30.00,1012.70,10.00,M,FEW,FEW,M,M,12000.00,15000.00,M,M,M,M,M,M,M,M,M,93.77,KLAS 221856Z 10005KT 10SM FEW120 FEW150 34/16 A3000 RMK AO2 SLP127 T03440156,M
CXP,2022-08-22 19:10,-119.7326,39.1923,1431.00,87.80,32.00,13.59,M,4.00,0.00,30.20,M,10.00,M,CLR,M,M,M,M,M,M,M,M,M,M,M,M,M,M,84.08,KCXP 221910Z AUTO VRB04KT 10SM CLR 31/00 A3020 RMK AO2,M
HTH,2022-08-22 19:15,-118.6315,38.5448,1282.89,87.80,28.40,11.74,330.00,7.00,0.00,30.15,M,10.00,M,CLR,M,M,M,M,M,M,M,M,M,M,M,M,M,M,83.84,KHTH 221915Z AUTO 33007KT 10SM CLR 31/M02 A3015 RMK A01,M
MEV,2022-08-22 19:15,-119.7500,38.9963,1441.42,89.60,33.80,13.80,240.00,4.00,0.00,30.18,M,10.00,M,CLR,M,M,M,M,M,M,M,M,M,M,M,M,M,M,85.59,KMEV 221915Z AUTO 24004KT 10SM CLR 32/01 A3018 RMK AO2,M
BVU,2022-08-22 19:15,-114.8611,35.9475,671.00,96.80,57.20,26.84,0.00,0.00,0.00,29.98,M,M,M,M,M,M,M,M,M,M,M,M,M,M,M,M,M,M,95.77,KBVU 221915Z AUTO 00000KT 36/14 A2998 RMK AO2 PWINO TSNO,M
TMT,2022-08-22 19:15,-117.1971,39.4643,1749.34,M,M,M,0.00,0.00,0.00,30.25,M,10.00,M,CLR,M,M,M,M,M,M,M,M,M,M,M,M,M,M,M,KTMT 221915Z AUTO 00000KT 10SM CLR A3025 RMK AO2,M
BAM,2022-08-22 19:15,-116.8743,40.5990,1382.36,93.20,30.20,10.67,240.00,8.00,0.00,30.15,M,10.00,M,CLR,M,M,M,M,M,M,M,M,M,M,M,M,M,M,88.09,KBAM 221915Z AUTO 24008KT 10SM CLR 34/M01 A3015 RMK AO1,M
RTS,2022-08-22 19:15,-119.8764,39.6682,1539.00,84.20,30.20,14.18,0.00,0.00,0.00,30.23,M,10.00,M,CLR,M,M,M,M,M,M,M,M,M,M,M,M,M,M,81.26,KRTS 221915Z AUTO 00000KT 10SM CLR 29/M01 A3023 RMK AO2,M
HTH,2022-08-22 19:35,-118.6315,38.5448,1282.89,89.60,28.40,11.09,20.00,5.00,0.00,30.14,M,10.00,M,CLR,M,M,M,M,M,M,M,M,M,M,M,M,M,M,85.17,KHTH 221935Z AUTO 02005KT 10SM CLR 32/M02 A3014 RMK A01,M
TMT,2022-08-22 19:35,-117.1971,39.4643,1749.34,M,M,M,320.00,3.00,0.00,30.25,M,10.00,M,CLR,M,M,M,M,M,M,M,M,M,M,M,M,M,M,M,KTMT 221935Z AUTO 32003KT 10SM CLR A3025 RMK AO2,M
BVU,2022-08-22 19:35,-114.8611,35.9475,671.00,96.80,57.20,26.84,320.00,5.00,0.00,29.97,M,M,10.00,M,M,M,M,M,M,M,M,M,M,M,M,M,M,M,95.77,KBVU 221935Z AUTO 32005G10KT 36/14 A2997 RMK AO2 PWINO TSNO,M
BAM,2022-08-22 19:35,-116.8743,40.5990,1382.36,95.00,28.40,9.38,250.00,9.00,0.00,30.14,M,10.00,M,CLR,M,M,M,M,M,M,M,M,M,M,M,M,M,M,89.27,KBAM 221935Z AUTO 25009KT 10SM CLR 35/M02 A3014 RMK AO1,M
CXP,2022-08-22 19:35,-119.7326,39.1923,1431.00,89.60,32.00,12.84,M,5.00,0.00,30.19,M,10.00,M,CLR,M,M,M,M,M,M,M,M,M,M,M,M,M,M,85.54,KCXP 221935Z AUTO VRB05KT 10SM CLR 32/M00 A3019 RMK AO2,M
RTS,2022-08-22 19:35,-119.8764,39.6682,1539.00,86.00,30.20,13.38,0.00,0.00,0.00,30.22,M,10.00,M,CLR,M,M,M,M,M,M,M,M,M,M,M,M,M,M,82.64,KRTS 221935Z AUTO 00000KT 10SM CLR 30/M01 A3022 RMK AO2,M
MEV,2022-08-22 19:35,-119.7500,38.9963,1441.42,89.60,33.80,13.80,M,4.00,0.00,30.18,M,10.00,M,CLR,M,M,M,M,M,M,M,M,M,M,M,M,M,M,85.59,KMEV 221935Z AUTO VRB04KT 10SM CLR 32/01 A3018 RMK AO2,M
ELY,2022-08-22 19:53,-114.8453,39.2950,1909.00,86.00,37.00,17.57,320.00,7.00,0.00,30.26,1014.30,10.00,M,CLR,M,M,M,M,M,M,M,M,M,M,M,M,M,M,82.72,KELY 221953Z AUTO 32007KT 10SM CLR 30/03 A3026 RMK AO2 SLP143 T03000028,M
LOL,2022-08-22 19:53,-118.5701,40.0684,1192.43,94.00,19.00,6.54,250.00,7.00,0.00,30.11,1014.80,10.00,M,CLR,M,M,M,M,M,M,M,M,M,M,M,M,M,M,87.67,KLOL 221953Z AUTO 25007KT 10SM CLR 34/M07 A3011 RMK AO2 SLP148 T03441072,M
VGT,2022-08-22 19:53,-115.1933,36.2111,667.00,97.00,62.00,31.77,M,5.00,0.00,29.96,1012.90,10.00,M,CLR,M,M,M,M,M,M,M,M,M,M,M,M,M,M,98.24,KVGT 221953Z VRB05KT 10SM CLR 36/17 A2996 RMK AO2 SLP129 T03610167,M
DRA,2022-08-22 19:53,-116.0278,36.6206,1009.00,96.00,42.00,15.62,M,M,0.00,30.04,1011.40,10.00,M,CLR,M,M,M,M,M,M,M,M,M,M,M,M,M,M,91.83,KDRA 221953Z AUTO 10SM CLR 36/06 A3004 RMK AO2 SLP114 T03560056,M
P68,2022-08-22 19:53,-116.0056,39.6014,1993.00,89.00,35.00,14.77,M,3.00,0.00,30.21,1014.20,M,M,M,M,M,M,M,M,M,M,M,M,M,M,M,M,M,85.19,KP68 221953Z AUTO VRB03KT 32/02 A3021 RMK AO1 SLP142 T03170017,M
RNO,2022-08-22 19:55,-119.7711,39.4839,1341.00,90.00,35.00,14.36,M,3.00,0.00,30.15,1014.70,10.00,M,CLR,M,M,M,M,M,M,M,M,M,M,M,M,M,M,85.95,KRNO 221955Z VRB03KT 10SM CLR 32/02 A3015 RMK AO2 SLP147 T03220017,M
BVU,2022-08-22 19:55,-114.8611,35.9475,671.00,96.80,57.20,26.84,M,4.00,0.00,29.97,M,M,M,M,M,M,M,M,M,M,M,M,M,M,M,M,M,M,95.77,KBVU 221955Z AUTO VRB04KT 36/14 A2997 RMK AO2 PWINO TSNO,M
CXP,2022-08-22 19:55,-119.7326,39.1923,1431.00,91.40,30.20,11.28,230.00,8.00,0.00,30.19,M,10.00,M,CLR,M,M,M,M,M,M,M,M,M,M,M,M,M,M,86.71,KCXP 221955Z AUTO 23008KT 200V270 10SM CLR 33/M01 A3019 RMK AO2,M
RTS,2022-08-22 19:55,-119.8764,39.6682,1539.00,86.00,30.20,13.38,M,4.00,0.00,30.21,M,10.00,M,CLR,M,M,M,M,M,M,M,M,M,M,M,M,M,M,82.64,KRTS 221955Z AUTO VRB04KT 10SM CLR 30/M01 A3021 RMK AO2,M
MEV,2022-08-22 19:55,-119.7500,38.9963,1441.42,91.40,35.60,14.02,M,6.00,0.00,30.17,M,9.00,12.00,CLR,M,M,M,M,M,M,M,M,M,M,M,M,M,M,87.17,KMEV 221955Z AUTO VRB06G12KT 9SM CLR 33/02 A3017 RMK AO2,M
BAM,2022-08-22 19:55,-116.8743,40.5990,1382.36,95.00,30.20,10.09,230.00,10.00,0.00,30.13,M,10.00,15.00,CLR,M,M,M,M,M,M,M,M,M,M,M,M,M,M,89.48,KBAM 221955Z AUTO 23010G15KT 10SM CLR 35/M01 A3013 RMK AO1,M
HTH,2022-08-22 19:55,-118.6315,38.5448,1282.89,89.60,28.40,11.09,320.00,8.00,0.00,30.13,M,10.00,M,CLR,M,M,M,M,M,M,M,M,M,M,M,M,M,M,85.17,KHTH 221955Z AUTO 32008KT 290V360 10SM CLR 32/M02 A3013 RMK A01,M
TMT,2022-08-22 19:55,-117.1971,39.4643,1749.34,M,M,M,60.00,3.00,0.00,30.24,M,10.00,M,CLR,M,M,M,M,M,M,M,M,M,M,M,M,M,M,M,KTMT 221955Z AUTO 06003KT 10SM CLR A3024 RMK AO2,M
HND,2022-08-22 19:56,-115.1344,35.9729,742.79,97.00,58.00,27.36,60.00,4.00,0.00,30.01,1014.20,10.00,M,CLR,M,M,M,M,M,M,M,M,M,M,M,M,M,M,96.26,KHND 221956Z 06004KT 10SM CLR 36/14 A3001 RMK AO2 SLP142 T03610144,M
EKO,2022-08-22 19:56,-115.7860,40.8242,1367.00,85.00,39.00,19.69,220.00,7.00,0.00,30.16,1015.90,10.00,M,CLR,M,M,M,M,M,M,M,M,M,M,M,M,M,M,81.95,KEKO 221956Z AUTO 22007KT 170V240 10SM CLR 29/04 A3016 RMK AO2 SLP159 T02940039,M
TPH,2022-08-22 19:56,-117.0904,38.0505,1654.00,91.00,34.00,13.32,M,5.00,0.00,30.20,1013.20,10.00,M,CLR,M,M,M,M,M,M,M,M,M,M,M,M,M,M,86.79,KTPH 221956Z AUTO VRB05KT 10SM CLR 33/01 A3020 RMK AO2 SLP132 T03280011,M
LAS,2022-08-22 19:56,-115.1634,36.0719,663.00,98.00,57.00,25.61,M,3.00,0.00,29.97,1011.80,10.00,M,FEW,FEW,M,M,12000.00,15000.00,M,M,M,M,M,M,M,M,M,97.13,KLAS 221956Z VRB03KT 10SM FEW120 FEW150 37/14 A2997 RMK AO2 SLP118 T03670139,M
NFL,2022-08-22 19:56,-118.7010,39.4166,1199.00,92.00,28.00,10.15,340.00,7.00,0.00,30.12,1016.50,10.00,M,FEW,M,M,M,9000.00,M,M,M,M,M,M,M,M,M,M,86.87,KNFL 221956Z 34007KT 10SM FEW090 33/M02 A3012 RMK AO2 SLP165 T03331022,M
WMC,2022-08-22 19:56,-117.8072,40.9019,1315.00,94.00,30.90,10.74,250.00,8.00,0.00,30.12,1014.50,10.00,M,CLR,M,M,M,M,M,M,M,M,M,M,M,M,M,M,88.71,KWMC 221956Z AUTO 25008KT 200V270 10SM CLR 34/M01 A3012 RMK AO2 SLP145 T03441006,M
LSV,2022-08-22 20:09,-115.0343,36.2362,570.00,102.20,62.60,27.63,0.00,0.00,0.00,29.93,1010.60,10.00,M,CLR,M,M,M,M,M,M,M,M,M,M,M,M,M,M,104.63,KLSV 222009Z 00000KT 10SM CLR 39/17 A2993 RMK SLP106 57019,M
LSV,2022-08-22 20:10,-115.0343,36.2362,570.00,102.20,62.60,27.63,0.00,0.00,0.00,29.93,M,10.00,M,CLR,M,M,M,M,M,M,M,M,M,M,M,M,M,M,104.63,KLSV 222010Z 00000KT 10SM CLR 39/17 A2993,M
LSV,2022-08-22 20:11,-115.0343,36.2362,570.00,104.00,62.60,26.18,100.00,6.00,0.00,29.93,1010.50,10.00,M,CLR,M,M,M,M,M,M,M,M,M,M,M,M,M,M,106.77,KLSV 222011Z 10006KT 10SM CLR 40/17 A2993 RMK SLP105 57018,M
RTS,2022-08-22 20:15,-119.8764,39.6682,1539.00,87.80,30.20,12.64,310.00,5.00,0.00,30.21,M,10.00,11.00,CLR,M,M,M,M,M,M,M,M,M,M,M,M,M,M,84.01,KRTS 222015Z AUTO 31005G11KT 10SM CLR 31/M01 A3021 RMK AO2,M
BVU,2022-08-22 20:15,-114.8611,35.9475,671.00,96.80,55.40,25.15,0.00,0.00,0.00,29.96,M,M,M,M,M,M,M,M,M,M,M,M,M,M,M,M,M,M,95.14,KBVU 222015Z AUTO 00000KT 36/13 A2996 RMK AO2 PWINO TSNO,M
CXP,2022-08-22 20:15,-119.7326,39.1923,1431.00,91.40,28.40,10.48,300.00,12.00,0.00,30.18,M,10.00,19.00,CLR,M,M,M,M,M,M,M,M,M,M,M,M,M,M,86.53,KCXP 222015Z AUTO 30012G19KT 10SM CLR 33/M02 A3018 RMK AO2,M
MEV,2022-08-22 20:15,-119.7500,38.9963,1441.42,91.40,33.80,13.05,270.00,8.00,0.00,30.17,M,10.00,14.00,CLR,M,M,M,M,M,M,M,M,M,M,M,M,M,M,87.13,KMEV 222015Z AUTO 27008G14KT 10SM CLR 33/01 A3017 RMK AO2,M
BAM,2022-08-22 20:15,-116.8743,40.5990,1382.36,96.80,30.20,9.55,260.00,9.00,0.00,30.13,M,10.00,16.00,CLR,M,M,M,M,M,M,M,M,M,M,M,M,M,M,90.96,KBAM 222015Z AUTO 26009G16KT 10SM CLR 36/M01 A3013 RMK AO1,M
HTH,2022-08-22 20:15,-118.6315,38.5448,1282.89,91.40,28.40,10.48,320.00,8.00,0.00,30.13,M,10.00,13.00,CLR,M,M,M,M,M,M,M,M,M,M,M,M,M,M,86.53,KHTH 222015Z AUTO 32008G13KT 300V010 10SM CLR 33/M02 A3013 RMK A01,M
TMT,2022-08-22 20:15,-117.1971,39.4643,1749.34,M,M,M,260.00,5.00,0.00,30.24,M,10.00,M,CLR,M,M,M,M,M,M,M,M,M,M,M,M,M,M,M,KTMT 222015Z AUTO 26005KT 10SM CLR A3024 RMK AO2,M
CXP,2022-08-22 20:30,-119.7326,39.1923,1431.00,91.40,28.40,10.48,280.00,11.00,0.00,30.18,M,10.00,16.00,CLR,M,M,M,M,M,M,M,M,M,M,M,M,M,M,86.53,KCXP 222030Z AUTO 28011G16KT 10SM CLR 33/M02 A3018 RMK AO2,M
HTH,2022-08-22 20:35,-118.6315,38.5448,1282.89,91.40,30.20,11.28,300.00,8.00,0.00,30.12,M,10.00,14.00,CLR,M,M,M,M,M,M,M,M,M,M,M,M,M,M,86.71,KHTH 222035Z AUTO 30008G14KT 10SM CLR 33/M01 A3012 RMK A01,M
BAM,2022-08-22 20:35,-116.8743,40.5990,1382.36,96.80,30.20,9.55,250.00,9.00,0.00,30.12,M,10.00,17.00,CLR,M,M,M,M,M,M,M,M,M,M,M,M,M,M,90.96,KBAM 222035Z AUTO 25009G17KT 10SM CLR 36/M01 A3012 RMK AO1,M
RTS,2022-08-22 20:35,-119.8764,39.6682,1539.00,87.80,30.20,12.64,M,6.00,0.00,30.20,M,10.00,M,CLR,M,M,M,M,M,M,M,M,M,M,M,M,M,M,84.01,KRTS 222035Z AUTO VRB06KT 10SM CLR 31/M01 A3020 RMK AO2,M
TMT,2022-08-22 20:35,-117.1971,39.4643,1749.34,M,M,M,270.00,6.00,0.00,30.22,M,10.00,M,CLR,M,M,M,M,M,M,M,M,M,M,M,M,M,M,M,KTMT 222035Z AUTO 27006KT 10SM CLR A3022 RMK AO2,M
MEV,2022-08-22 20:35,-119.7500,38.9963,1441.42,91.40,32.00,12.14,270.00,9.00,0.00,30.16,M,10.00,19.00,CLR,M,M,M,M,M,M,M,M,M,M,M,M,M,M,86.91,KMEV 222035Z AUTO 27009G19KT 10SM CLR 33/00 A3016 RMK AO2,M
BVU,2022-08-22 20:35,-114.8611,35.9475,671.00,98.60,55.40,23.81,60.00,5.00,0.00,29.95,M,M,M,M,M,M,M,M,M,M,M,M,M,M,M,M,M,M,97.09,KBVU 222035Z AUTO 06005KT 37/13 A2995 RMK AO2 PWINO TSNO,M
ELY,2022-08-22 20:53,-114.8453,39.2950,1909.00,87.00,34.00,15.06,M,5.00,0.00,30.24,1013.80,10.00,M,CLR,M,M,M,M,M,M,M,M,M,M,M,26.00,330.00,2022-08-22 20:04,83.53,KELY 222053Z AUTO VRB05KT 10SM CLR 31/01 A3024 RMK AO2 PK WND 33026/2004 SLP138 T03060011 56014,M
LOL,2022-08-22 20:53,-118.5701,40.0684,1192.43,96.00,24.10,7.59,330.00,8.00,0.00,30.08,1014.00,10.00,M,CLR,M,M,M,M,M,M,M,M,M,M,M,M,M,M,89.76,KLOL 222053Z AUTO 33008KT 10SM CLR 36/M04 A3008 RMK AO2 SLP140 T03561044 58019,M
VGT,2022-08-22 20:53,-115.1933,36.2111,667.00,100.00,60.00,27.02,M,6.00,0.00,29.93,1012.00,10.00,M,CLR,M,M,M,M,M,M,M,M,M,M,M,M,M,M,100.65,KVGT 222053Z VRB06KT 10SM CLR 38/16 A2993 RMK AO2 SLP120 T03780156 58023,M
DRA,2022-08-22 20:53,-116.0278,36.6206,1009.00,100.00,40.00,12.74,220.00,5.00,0.00,30.01,1010.40,10.00,M,CLR,M,M,M,M,M,M,M,M,M,M,M,M,M,M,95.23,KDRA 222053Z AUTO 22005KT 10SM CLR 38/04 A3001 RMK AO2 SLP104 T03780044 58019,M
P68,2022-08-22 20:53,-116.0056,39.6014,1993.00,90.00,28.90,11.18,M,4.00,0.00,30.19,1013.10,M,M,M,M,M,M,M,M,M,M,M,M,M,M,M,M,M,85.52,KP68 222053Z AUTO VRB04KT 32/M02 A3019 RMK AO1 SLP131 T03221017 58017,M
TMT,2022-08-22 20:55,-117.1971,39.4643,1749.34,M,M,M,310.00,4.00,0.00,30.22,M,10.00,M,CLR,M,M,M,M,M,M,M,M,M,M,M,M,M,M,M,KTMT 222055Z AUTO 31004KT 10SM CLR A3022 RMK AO2,M
RNO,2022-08-22 20:55,-119.7711,39.4839,1341.00,93.00,35.00,13.07,M,6.00,0.00,30.13,1013.70,10.00,M,CLR,M,M,M,M,M,M,M,M,M,M,M,M,M,M,88.56,KRNO 222055Z VRB06KT 10SM CLR 34/02 A3013 RMK AO2 SLP137 T03390017 58024,M
BVU,2022-08-22 20:55,-114.8611,35.9475,671.00,100.40,55.40,22.54,330.00,6.00,0.00,29.94,M,M,M,M,M,M,M,M,M,M,M,M,M,M,M,M,M,M,99.06,KBVU 222055Z AUTO 33006KT 38/13 A2994 RMK AO2 PWINO TSNO,M
CXP,2022-08-22 20:55,-119.7326,39.1923,1431.00,91.40,26.60,9.74,270.00,9.00,0.00,30.18,M,10.00,20.00,CLR,M,M,M,M,M,M,M,M,M,M,M,M,M,M,86.36,KCXP 222055Z AUTO 27009G20KT 240V300 10SM CLR 33/M03 A3018 RMK AO2,M
RTS,2022-08-22 20:55,-119.8764,39.6682,1539.00,89.60,28.40,11.09,M,5.00,0.00,30.19,M,10.00,14.00,CLR,M,M,M,M,M,M,M,M,M,M,M,M,M,M,85.17,KRTS 222055Z AUTO VRB05G14KT 10SM CLR 32/M02 A3019 RMK AO2,M
MEV,2022-08-22 20:55,-119.7500,38.9963,1441.42,93.20,33.80,12.34,300.00,12.00,0.00,30.15,M,10.00,17.00,CLR,M,M,M,M,M,M,M,M,M,M,M,M,M,M,88.55,KMEV 222055Z AUTO 30012G17KT 260V320 10SM CLR 34/01 A3015 RMK AO2,M
BAM,2022-08-22 20:55,-116.8743,40.5990,1382.36,98.60,32.00,9.72,240.00,15.00,0.00,30.11,M,10.00,20.00,CLR,M,M,M,M,M,M,M,M,M,M,M,M,M,M,92.69,KBAM 222055Z AUTO 24015G20KT 10SM CLR 37/00 A3011 RMK AO1,M
HTH,2022-08-22 20:55,-118.6315,38.5448,1282.89,93.20,30.20,10.67,330.00,10.00,0.00,30.10,M,10.00,M,CLR,M,M,M,M,M,M,M,M,M,M,M,M,M,M,88.09,KHTH 222055Z AUTO 33010KT 10SM CLR 34/M01 A3010 RMK A01,M
NFL,2022-08-22 20:56,-118.7010,39.4166,1199.00,94.00,28.90,9.90,350.00,8.00,0.00,30.09,1015.80,10.00,M,FEW,M,M,M,9000.00,M,M,M,M,M,M,M,M,M,M,88.48,KNFL 222056Z 35008KT 10SM FEW090 34/M02 A3009 RMK SLP158 T03441017 58020,M
HND,2022-08-22 20:56,-115.1344,35.9729,742.79,100.00,58.00,24.97,50.00,6.00,0.00,29.98,1013.20,10.00,M,CLR,M,M,M,M,M,M,M,M,M,M,M,M,M,M,99.61,KHND 222056Z 05006KT 10SM CLR 38/14 A2998 RMK AO2 SLP132 T03780144 58023,M
WMC,2022-08-22 20:56,-117.8072,40.9019,1315.00,96.00,28.90,9.25,240.00,13.00,0.00,30.11,1013.80,10.00,19.00,CLR,M,M,M,M,M,M,M,M,M,M,M,M,M,M,90.23,KWMC 222056Z AUTO 24013G19KT 10SM CLR 36/M02 A3011 RMK AO2 SLP138 T03561017 58016,M
LAS,2022-08-22 20:56,-115.1634,36.0719,663.00,100.00,57.00,24.18,60.00,5.00,0.00,29.94,1010.70,10.00,M,FEW,FEW,M,M,12000.00,15000.00,M,M,M,M,M,M,M,M,M,99.24,KLAS 222056Z 06005KT 10SM FEW120 FEW150 38/14 A2994 RMK AO2 SLP107 CB DSNT N AND E TCU DSNT W T03780139 58023,M
TPH,2022-08-22 20:56,-117.0904,38.0505,1654.00,93.00,33.00,12.07,330.00,6.00,0.00,30.18,1012.40,10.00,M,CLR,M,M,M,M,M,M,M,M,M,M,M,M,M,M,88.29,KTPH 222056Z AUTO 33006KT 10SM CLR 34/01 A3018 RMK AO2 SLP124 T03390006 58017,M
INS,2022-08-22 20:56,-115.6733,36.5872,955.00,97.50,49.60,19.89,0.00,0.00,0.00,29.99,1009.90,10.00,M,CLR,M,M,M,M,M,M,M,M,M,M,M,M,M,M,94.34,KINS 222056Z AUTO 00000KT 10SM CLR 36/10 A2999 RMK AO2 SLP099 T03640098 57021 $,M
EKO,2022-08-22 20:56,-115.7860,40.8242,1367.00,89.00,37.00,15.92,220.00,11.00,0.00,30.13,1015.00,10.00,15.00,CLR,M,M,M,M,M,M,M,M,M,M,M,M,M,M,85.23,KEKO 222056Z AUTO 22011G15KT 10SM CLR 32/03 A3013 RMK AO2 SLP150 T03170028 57020,M
LSV,2022-08-22 20:56,-115.0343,36.2362,570.00,105.00,62.00,24.87,0.00,0.00,0.00,29.90,1009.50,10.00,M,CLR,M,M,M,M,M,M,M,M,M,M,M,M,M,M,107.38,KLSV 222056Z AUTO 00000KT 10SM CLR 41/17 A2990 RMK AO2 SLP095 T04050166 57024 $,M
LSV,2022-08-22 20:58,-115.0343,36.2362,570.00,105.80,60.80,23.29,0.00,0.00,0.00,29.91,1009.80,10.00,M,CLR,M,M,M,M,M,M,M,M,M,M,M,M,M,M,107.75,KLSV 222058Z 00000KT 10SM CLR 41/16 A2991 RMK SLP098 57024,M
MEV,2022-08-22 21:15,-119.7500,38.9963,1441.42,93.20,32.00,11.48,270.00,12.00,0.00,30.15,M,10.00,M,CLR,M,M,M,M,M,M,M,M,M,M,M,M,M,M,88.31,KMEV 222115Z AUTO 27012KT 10SM CLR 34/00 A3015 RMK AO2,M
TMT,2022-08-22 21:15,-117.1971,39.4643,1749.34,92.00,34.20,12.97,240.00,12.00,0.00,30.22,M,10.00,22.00,CLR,M,M,M,M,M,M,M,M,M,M,M,M,M,M,87.74,KTMT 222115Z AUTO 24012G22KT 10SM CLR 33/01 A3022 RMK AO2 T03340012,M
HTH,2022-08-22 21:15,-118.6315,38.5448,1282.89,93.20,30.20,10.67,320.00,12.00,0.00,30.10,M,10.00,M,CLR,M,M,M,M,M,M,M,M,M,M,M,M,M,M,88.09,KHTH 222115Z AUTO 32012KT 10SM CLR 34/M01 A3010 RMK A01,M
BAM,2022-08-22 21:15,-116.8743,40.5990,1382.36,98.60,32.00,9.72,260.00,7.00,0.00,30.11,M,10.00,16.00,CLR,M,M,M,M,M,M,M,M,M,M,M,M,M,M,92.69,KBAM 222115Z AUTO 26007G16KT 10SM CLR 37/00 A3011 RMK AO1,M
RTS,2022-08-22 21:15,-119.8764,39.6682,1539.00,89.60,26.60,10.30,M,5.00,0.00,30.18,M,10.00,11.00,CLR,M,M,M,M,M,M,M,M,M,M,M,M,M,M,85.02,KRTS 222115Z AUTO VRB05G11KT 10SM CLR 32/M03 A3018 RMK AO2,M
CXP,2022-08-22 21:15,-119.7326,39.1923,1431.00,93.20,28.40,9.91,280.00,13.00,0.00,30.17,M,10.00,M,CLR,M,M,M,M,M,M,M,M,M,M,M,M,M,M,87.89,KCXP 222115Z AUTO 28013KT 10SM CLR 34/M02 A3017 RMK AO2,M
BVU,2022-08-22 21:15,-114.8611,35.9475,671.00,100.40,55.40,22.54,40.00,6.00,0.00,29.93,M,M,M,M,M,M,M,M,M,M,M,M,M,M,M,M,M,M,99.06,KBVU 222115Z AUTO 04006KT 38/13 A2993 RMK AO2 PWINO TSNO,M
BVU,2022-08-22 21:35,-114.8611,35.9475,671.00,100.40,55.40,22.54,40.00,6.00,0.00,29.91,M,M,M,M,M,M,M,M,M,M,M,M,M,M,M,M,M,M,99.06,KBVU 222135Z AUTO 04006KT 38/13 A2991 RMK AO2 PWINO TSNO,M
BAM,2022-08-22 21:35,-116.8743,40.5990,1382.36,98.60,32.00,9.72,280.00,10.00,0.00,30.10,M,10.00,16.00,CLR,M,M,M,M,M,M,M,M,M,M,M,M,M,M,92.69,KBAM 222135Z AUTO 28010G16KT 10SM CLR 37/00 A3010 RMK AO1,M
CXP,2022-08-22 21:35,-119.7326,39.1923,1431.00,93.20,28.40,9.91,280.00,15.00,0.00,30.17,M,10.00,20.00,CLR,M,M,M,M,M,M,M,M,M,M,M,M,M,M,87.89,KCXP 222135Z AUTO 28015G20KT 10SM CLR 34/M02 A3017 RMK AO2,M
HTH,2022-08-22 21:35,-118.6315,38.5448,1282.89,95.00,30.20,10.09,310.00,12.00,0.00,30.09,M,10.00,M,CLR,M,M,M,M,M,M,M,M,M,M,M,M,M,M,89.48,KHTH 222135Z AUTO 31012KT 10SM CLR 35/M01 A3009 RMK A01,M
TMT,2022-08-22 21:35,-117.1971,39.4643,1749.34,M,M,M,280.00,11.00,0.00,30.21,M,10.00,14.00,CLR,M,M,M,M,M,M,M,M,M,M,M,M,M,M,M,KTMT 222135Z AUTO 28011G14KT 10SM CLR A3021 RMK AO2,M
RTS,2022-08-22 21:35,-119.8764,39.6682,1539.00,91.40,19.40,7.19,290.00,15.00,0.00,30.18,M,10.00,21.00,CLR,M,M,M,M,M,M,M,M,M,M,M,M,M,M,85.86,KRTS 222135Z AUTO 29015G21KT 10SM CLR 33/M07 A3018 RMK AO2,M
MEV,2022-08-22 21:35,-119.7500,38.9963,1441.42,93.20,32.00,11.48,280.00,9.00,0.00,30.15,M,10.00,19.00,CLR,M,M,M,M,M,M,M,M,M,M,M,M,M,M,88.31,KMEV 222135Z AUTO 28009G19KT 10SM CLR 34/M00 A3015 RMK AO2,M
LOL,2022-08-22 21:53,-118.5701,40.0684,1192.43,98.00,12.90,4.41,250.00,12.00,0.00,30.06,1013.10,10.00,19.00,CLR,M,M,M,M,M,M,M,M,M,M,M,M,M,M,90.72,KLOL 222153Z AUTO 25012G19KT 10SM CLR 37/M11 A3006 RMK AO2 SLP131 T03671106,M
P68,2022-08-22 21:53,-116.0056,39.6014,1993.00,92.00,28.90,10.54,280.00,11.00,0.00,30.18,1012.40,M,M,M,M,M,M,M,M,M,M,M,M,M,M,M,M,M,86.95,KP68 222153Z AUTO 28011KT 33/M02 A3018 RMK AO1 SLP124 T03331017,M
VGT,2022-08-22 21:53,-115.1933,36.2111,667.00,102.00,58.00,23.52,150.00,6.00,0.00,29.90,1010.90,10.00,M,CLR,M,M,M,M,M,M,M,M,M,M,M,M,M,M,101.87,KVGT 222153Z 15006KT 10SM CLR 39/14 A2990 RMK AO2 SLP109 T03890144,M
DRA,2022-08-22 21:53,-116.0278,36.6206,1009.00,100.00,35.00,10.55,250.00,8.00,0.00,29.99,1009.50,10.00,15.00,CLR,M,M,M,M,M,M,M,M,M,M,M,M,M,M,94.33,KDRA 222153Z AUTO 25008G15KT 10SM CLR 38/02 A2999 RMK AO2 SLP095 T03780017,M
ELY,2022-08-22 21:53,-114.8453,39.2950,1909.00,87.00,33.00,14.53,M,5.00,0.00,30.22,1012.80,10.00,M,CLR,M,M,M,M,M,M,M,M,M,M,M,M,M,M,83.52,KELY 222153Z AUTO VRB05KT 10SM CLR 31/01 A3022 RMK AO2 LTG DSNT SW SLP128 T03060006,M
CXP,2022-08-22 21:55,-119.7326,39.1923,1431.00,91.40,28.40,10.48,280.00,15.00,0.00,30.16,M,10.00,23.00,CLR,M,M,M,M,M,M,M,M,M,M,M,M,M,M,86.53,KCXP 222155Z AUTO 28015G23KT 10SM CLR 33/M02 A3016 RMK AO2,M
BVU,2022-08-22 21:55,-114.8611,35.9475,671.00,100.40,55.40,22.54,0.00,0.00,0.00,29.91,M,M,M,M,M,M,M,M,M,M,M,M,M,M,M,M,M,M,99.06,KBVU 222155Z AUTO 00000KT 38/13 A2991 RMK AO2 PWINO TSNO,M
RNO,2022-08-22 21:55,-119.7711,39.4839,1341.00,97.00,27.00,8.32,280.00,14.00,0.00,30.11,1013.00,10.00,21.00,CLR,M,M,M,M,M,M,M,M,M,M,M,M,M,M,90.77,KRNO 222155Z 28014G21KT 10SM CLR 36/M03 A3011 RMK AO2 SLP130 T03611028,M
RTS,2022-08-22 21:55,-119.8764,39.6682,1539.00,91.40,15.80,6.16,300.00,16.00,0.00,30.17,M,10.00,23.00,CLR,M,M,M,M,M,M,M,M,M,M,M,M,M,M,85.68,KRTS 222155Z AUTO 30016G23KT 10SM CLR 33/M09 A3017 RMK AO2,M
MEV,2022-08-22 21:55,-119.7500,38.9963,1441.42,93.20,30.20,10.67,280.00,13.00,0.00,30.14,M,10.00,19.00,CLR,M,M,M,M,M,M,M,M,M,M,M,M,M,M,88.09,KMEV 222155Z AUTO 28013G19KT 10SM CLR 34/M01 A3014 RMK AO2,M
BAM,2022-08-22 21:55,-116.8743,40.5990,1382.36,96.80,32.00,10.27,260.00,11.00,0.00,30.09,M,10.00,15.00,CLR,M,M,M,M,M,M,M,M,M,M,M,M,M,M,91.19,KBAM 222155Z AUTO 26011G15KT 210V280 10SM CLR 36/00 A3009 RMK AO1,M
HTH,2022-08-22 21:55,-118.6315,38.5448,1282.89,95.00,28.40,9.38,320.00,13.00,0.00,30.08,M,10.00,M,CLR,M,M,M,M,M,M,M,M,M,M,M,M,M,M,89.27,KHTH 222155Z AUTO 32013KT 10SM CLR 35/M02 A3008 RMK A01,M
TMT,2022-08-22 21:55,-117.1971,39.4643,1749.34,M,M,M,260.00,5.00,0.00,30.20,M,10.00,16.00,CLR,M,M,M,M,M,M,M,M,M,M,M,M,M,M,M,KTMT 222155Z AUTO 26005G16KT 10SM CLR A3020 RMK AO2,M
WMC,2022-08-22 21:56,-117.8072,40.9019,1315.00,96.00,28.90,9.25,0.00,0.00,0.00,30.08,1013.00,10.00,M,CLR,M,M,M,M,M,M,M,M,M,M,M,M,M,M,90.23,KWMC 222156Z AUTO 00000KT 10SM CLR 36/M02 A3008 RMK AO2 SLP130 T03561017,M
EKO,2022-08-22 21:56,-115.7860,40.8242,1367.00,87.00,34.00,15.06,240.00,8.00,0.00,30.12,1014.60,10.00,18.00,CLR,M,M,M,M,M,M,M,M,M,M,M,M,M,M,83.53,KEKO 222156Z AUTO 24008G18KT 10SM CLR 31/01 A3012 RMK AO2 SLP146 T03060011,M
INS,2022-08-22 21:56,-115.6733,36.5872,955.00,99.50,43.50,14.86,110.00,3.00,0.00,29.96,1008.80,10.00,M,CLR,M,M,M,M,M,M,M,M,M,M,M,M,M,M,95.27,KINS 222156Z AUTO 11003KT 10SM CLR 38/06 A2996 RMK AO2 SLP088 T03750064 $,M
LSV,2022-08-22 21:56,-115.0343,36.2362,570.00,105.40,57.40,20.87,190.00,5.00,0.00,29.87,1008.60,10.00,M,CLR,M,M,M,M,M,M,M,M,M,M,M,M,M,M,105.45,KLSV 222156Z AUTO 19005KT 10SM CLR 41/14 A2987 RMK AO2 SLP086 T04080141 $,M
HND,2022-08-22 21:56,-115.1344,35.9729,742.79,101.00,57.00,23.53,M,3.00,0.00,29.95,1012.10,10.00,M,CLR,M,M,M,M,M,M,M,M,M,M,M,M,M,M,100.24,KHND 222156Z VRB03KT 10SM CLR 38/14 A2995 RMK AO2 SLP121 T03830139,M
NFL,2022-08-22 21:56,-118.7010,39.4166,1199.00,96.00,28.00,8.92,M,5.00,0.00,30.07,1014.90,10.00,M,FEW,M,M,M,9000.00,M,M,M,M,M,M,M,M,M,M,90.13,KNFL 222156Z VRB05KT 10SM FEW090 36/M02 A3007 RMK AO2 SLP149 T03561022,M
TPH,2022-08-22 21:56,-117.0904,38.0505,1654.00,95.00,30.00,10.01,M,M,0.00,30.16,1011.60,10.00,M,CLR,M,M,M,M,M,M,M,M,M,M,M,M,M,M,89.45,KTPH 222156Z AUTO 10SM CLR 35/M01 A3016 RMK AO2 SLP116 T03501011,M
LAS,2022-08-22 21:56,-115.1634,36.0719,663.00,100.00,55.00,22.49,80.00,5.00,0.00,29.91,1009.60,10.00,M,FEW,FEW,M,M,12000.00,15000.00,M,M,M,M,M,M,M,M,M,98.48,KLAS 222156Z 08005KT 10SM FEW120 FEW150 38/13 A2991 RMK AO2 SLP096 CB DSNT NW-NE-E T03780128,M
RTS,2022-08-22 22:15,-119.8764,39.6682,1539.00,91.40,14.00,5.69,300.00,13.00,0.00,30.17,M,10.00,20.00,CLR,M,M,M,M,M,M,M,M,M,M,M,M,M,M,85.60,KRTS 222215Z AUTO 30013G20KT 10SM CLR 33/M10 A3017 RMK AO2,M
BVU,2022-08-22 22:15,-114.8611,35.9475,671.00,102.20,53.60,20.00,M,4.00,0.00,29.90,M,M,M,M,M,M,M,M,M,M,M,M,M,M,M,M,M,M,100.38,KBVU 222215Z AUTO VRB04KT 39/12 A2990 RMK AO2 PWINO TSNO,M
CXP,2022-08-22 22:15,-119.7326,39.1923,1431.00,93.20,28.40,9.91,270.00,16.00,0.00,30.16,M,10.00,22.00,CLR,M,M,M,M,M,M,M,M,M,M,M,M,M,M,87.89,KCXP 222215Z AUTO 27016G22KT 10SM CLR 34/M02 A3016 RMK AO2,M
MEV,2022-08-22 22:15,-119.7500,38.9963,1441.42,93.20,30.20,10.67,280.00,16.00,0.00,30.13,M,10.00,M,CLR,M,M,M,M,M,M,M,M,M,M,M,M,M,M,88.09,KMEV 222215Z AUTO 28016KT 10SM CLR 34/M01 A3013 RMK AO2,M
BAM,2022-08-22 22:15,-116.8743,40.5990,1382.36,98.60,32.00,9.72,250.00,11.00,0.00,30.09,M,10.00,18.00,CLR,M,M,M,M,M,M,M,M,M,M,M,M,M,M,92.69,KBAM 222215Z AUTO 25011G18KT 10SM CLR 37/00 A3009 RMK AO1,M
HTH,2022-08-22 22:15,-118.6315,38.5448,1282.89,95.00,28.40,9.38,320.00,14.00,0.00,30.07,M,10.00,M,CLR,M,M,M,M,M,M,M,M,M,M,M,M,M,M,89.27,KHTH 222215Z AUTO 32014KT 10SM CLR 35/M02 A3007 RMK A01,M
TMT,2022-08-22 22:15,-117.1971,39.4643,1749.34,M,M,M,250.00,7.00,0.00,30.19,M,10.00,14.00,CLR,M,M,M,M,M,M,M,M,M,M,M,M,M,M,M,KTMT 222215Z AUTO 25007G14KT 10SM CLR A3019 RMK AO2,M
MEV,2022-08-22 22:35,-119.7500,38.9963,1441.42,93.20,30.20,10.67,270.00,14.00,0.00,30.13,M,10.00,19.00,CLR,M,M,M,M,M,M,M,M,M,M,M,M,M,M,88.09,KMEV 222235Z AUTO 27014G19KT 10SM CLR 34/M01 A3013 RMK AO2,M
BAM,2022-08-22 22:35,-116.8743,40.5990,1382.36,98.60,32.00,9.72,230.00,15.00,0.00,30.08,M,10.00,M,CLR,M,M,M,M,M,M,M,M,M,M,M,M,M,M,92.69,KBAM 222235Z AUTO 23015KT 10SM CLR 37/00 A3008 RMK AO1,M
RTS,2022-08-22 22:35,-119.8764,39.6682,1539.00,91.40,12.20,5.26,300.00,16.00,0.00,30.16,M,10.00,M,CLR,M,M,M,M,M,M,M,M,M,M,M,M,M,M,85.53,KRTS 222235Z AUTO 30016KT 10SM CLR 33/M11 A3016 RMK AO2,M
CXP,2022-08-22 22:35,-119.7326,39.1923,1431.00,91.40,28.40,10.48,250.00,9.00,0.00,30.15,M,10.00,21.00,CLR,M,M,M,M,M,M,M,M,M,M,M,M,M,M,86.53,KCXP 222235Z AUTO 25009G21KT 230V300 10SM CLR 33/M02 A3015 RMK AO2,M
BVU,2022-08-22 22:35,-114.8611,35.9475,671.00,102.20,50.00,17.51,190.00,4.00,0.00,29.88,M,M,M,M,M,M,M,M,M,M,M,M,M,M,M,M,M,M,99.28,KBVU 222235Z AUTO 19004KT 39/10 A2988 RMK AO2 PWINO TSNO,M
TMT,2022-08-22 22:35,-117.1971,39.4643,1749.34,M,M,M,330.00,13.00,0.00,30.18,M,10.00,22.00,CLR,M,M,M,M,M,M,M,M,M,M,M,M,M,M,M,KTMT 222235Z AUTO 33013G22KT 270V340 10SM CLR A3018 RMK AO2,M
HTH,2022-08-22 22:35,-118.6315,38.5448,1282.89,95.00,28.40,9.38,330.00,16.00,0.00,30.06,M,10.00,M,CLR,M,M,M,M,M,M,M,M,M,M,M,M,M,M,89.27,KHTH 222235Z AUTO 33016KT 10SM CLR 35/M02 A3006 RMK A01,M
DRA,2022-08-22 22:53,-116.0278,36.6206,1009.00,102.00,35.00,9.93,220.00,10.00,0.00,29.96,1008.50,10.00,M,CLR,M,M,M,M,M,M,M,M,M,M,M,M,M,M,96.04,KDRA 222253Z AUTO 22010KT 10SM CLR 39/02 A2996 RMK AO2 SLP085 T03890017,M
ELY,2022-08-22 22:53,-114.8453,39.2950,1909.00,86.00,32.00,14.40,M,3.00,0.00,30.20,1012.50,10.00,M,CLR,M,M,M,M,M,M,M,M,M,M,M,M,M,M,82.64,KELY 222253Z AUTO VRB03KT 10SM CLR 30/00 A3020 RMK AO2 SLP125 T03000000,M
VGT,2022-08-22 22:53,-115.1933,36.2111,667.00,104.00,54.00,19.23,80.00,7.00,0.00,29.87,1009.90,10.00,M,CLR,M,M,M,M,M,M,M,M,M,M,M,M,M,M,102.46,KVGT 222253Z 08007KT 10SM CLR 40/12 A2987 RMK AO2 SLP099 T04000122,M
LOL,2022-08-22 22:53,-118.5701,40.0684,1192.43,98.00,19.00,5.75,260.00,12.00,0.00,30.04,1012.70,10.00,21.00,CLR,M,M,M,M,M,M,M,M,M,M,M,M,M,M,91.05,KLOL 222253Z AUTO 26012G21KT 10SM CLR 37/M07 A3004 RMK AO2 SLP127 T03671072,M
P68,2022-08-22 22:53,-116.0056,39.6014,1993.00,90.00,33.00,13.26,40.00,10.00,0.00,30.15,1011.80,M,M,M,M,M,M,M,M,M,M,M,M,M,M,M,M,M,85.92,KP68 222253Z AUTO 04010KT 32/01 A3015 RMK AO1 SLP118 T03220006,M
HTH,2022-08-22 22:55,-118.6315,38.5448,1282.89,95.00,28.40,9.38,330.00,12.00,0.00,30.05,M,10.00,M,CLR,M,M,M,M,M,M,M,M,M,M,M,M,M,M,89.27,KHTH 222255Z AUTO 33012KT 10SM CLR 35/M02 A3005 RMK A01,M
TMT,2022-08-22 22:55,-117.1971,39.4643,1749.34,M,M,M,290.00,11.00,0.00,30.18,M,10.00,20.00,CLR,M,M,M,M,M,M,M,M,M,M,M,M,M,M,M,KTMT 222255Z AUTO 29011G20KT 10SM CLR A3018 RMK AO2,M
RTS,2022-08-22 22:55,-119.8764,39.6682,1539.00,91.40,14.00,5.69,280.00,12.00,0.00,30.16,M,10.00,21.00,CLR,M,M,M,M,M,M,M,M,M,M,M,M,M,M,85.60,KRTS 222255Z AUTO 28012G21KT 10SM CLR 33/M10 A3016 RMK AO2,M
MEV,2022-08-22 22:55,-119.7500,38.9963,1441.42,93.20,32.00,11.48,290.00,13.00,0.00,30.12,M,10.00,20.00,CLR,M,M,M,M,M,M,M,M,M,M,M,M,M,M,88.31,KMEV 222255Z AUTO 29013G20KT 10SM CLR 34/M00 A3012 RMK AO2,M
CXP,2022-08-22 22:55,-119.7326,39.1923,1431.00,91.40,26.60,9.74,260.00,12.00,0.00,30.14,M,10.00,22.00,CLR,M,M,M,M,M,M,M,M,M,M,M,M,M,M,86.36,KCXP 222255Z AUTO 26012G22KT 10SM CLR 33/M03 A3014 RMK AO2,M
BVU,2022-08-22 22:55,-114.8611,35.9475,671.00,102.20,51.80,18.72,M,4.00,0.00,29.88,M,M,M,M,M,M,M,M,M,M,M,M,M,M,M,M,M,M,99.80,KBVU 222255Z AUTO VRB04KT 39/11 A2988 RMK AO2 PWINO TSNO,M
BAM,2022-08-22 22:55,-116.8743,40.5990,1382.36,98.60,30.20,9.04,230.00,10.00,0.00,30.07,M,10.00,20.00,CLR,M,M,M,M,M,M,M,M,M,M,M,M,M,M,92.46,KBAM 222255Z AUTO 23010G20KT 10SM CLR 37/M01 A3007 RMK AO1,M
RNO,2022-08-22 22:55,-119.7711,39.4839,1341.00,96.00,25.00,7.88,290.00,14.00,0.00,30.09,1012.60,10.00,20.00,CLR,M,M,M,M,M,M,M,M,M,M,M,M,M,M,89.84,KRNO 222255Z 29014G20KT 10SM CLR 36/M04 A3009 RMK AO2 SLP126 T03561039,M
HND,2022-08-22 22:56,-115.1344,35.9729,742.79,102.00,54.00,20.42,0.00,0.00,0.00,29.92,1011.20,10.00,M,CLR,M,M,M,M,M,M,M,M,M,M,M,M,M,M,100.30,KHND 222256Z 00000KT 10SM CLR 39/12 A2992 RMK AO2 SLP112 T03890122,M
NFL,2022-08-22 22:56,-118.7010,39.4166,1199.00,97.00,26.10,8.02,330.00,10.00,0.00,30.04,1014.10,10.00,M,FEW,M,M,M,9000.00,M,M,M,M,M,M,M,M,M,M,90.68,KNFL 222256Z 33010KT 10SM FEW090 36/M03 A3004 RMK AO2 SLP141 T03611033,M
LAS,2022-08-22 22:56,-115.1634,36.0719,663.00,101.00,52.00,19.61,0.00,0.00,0.00,29.88,1008.70,10.00,M,FEW,FEW,SCT,M,12000.00,15000.00,22000.00,M,M,M,M,M,M,M,M,98.48,KLAS 222256Z 00000KT 10SM FEW120 FEW150 SCT220 38/11 A2988 RMK AO2 SLP087 CB DSNT NW-NE-E T03830111,M
TPH,2022-08-22 22:56,-117.0904,38.0505,1654.00,93.00,26.10,9.07,260.00,5.00,0.00,30.14,1011.50,10.00,16.00,CLR,M,M,M,M,M,M,M,M,M,M,M,M,M,M,87.52,KTPH 222256Z AUTO 26005G16KT 10SM CLR 34/M03 A3014 RMK AO2 SLP115 T03391033,M
EKO,2022-08-22 22:56,-115.7860,40.8242,1367.00,89.00,33.00,13.64,290.00,9.00,0.00,30.09,1013.30,10.00,M,CLR,M,M,M,M,M,M,M,M,M,M,M,M,M,M,85.16,KEKO 222256Z AUTO 29009KT 10SM CLR 32/01 A3009 RMK AO2 SLP133 T03170006,M
WMC,2022-08-22 22:56,-117.8072,40.9019,1315.00,97.00,28.90,9.00,280.00,11.00,0.00,30.06,1012.90,10.00,18.00,CLR,M,M,M,M,M,M,M,M,M,M,M,M,M,M,90.97,KWMC 222256Z AUTO 28011G18KT 10SM CLR 36/M02 A3006 RMK AO2 SLP129 T03611017,M
LSV,2022-08-22 22:58,-115.0343,36.2362,570.00,106.70,57.00,19.80,0.00,0.00,0.00,29.84,M,10.00,M,CLR,M,M,M,M,M,M,M,M,M,M,M,M,M,M,106.69,KLSV 222258Z AUTO 00000KT 10SM CLR 42/14 A2984 RMK AO2 SLPNO T04150139 $,M
INS,2022-08-22 22:58,-115.6733,36.5872,955.00,101.00,41.00,12.94,0.00,0.00,0.00,29.93,M,10.00,M,CLR,M,M,M,M,M,M,M,M,M,M,M,M,M,M,96.25,KINS 222258Z AUTO 00000KT 10SM CLR 38/05 A2993 RMK AO2 SLPNO T03830050 $,M
LSV,2022-08-22 23:00,-115.0343,36.2362,570.00,107.60,57.20,19.42,330.00,3.00,0.00,29.84,1007.50,10.00,M,FEW,M,M,M,18000.00,M,M,M,M,M,M,M,M,M,M,107.78,KLSV 222300Z 33003KT 10SM FEW180 42/14 A2984 RMK SLP075 57030,M
TMT,2022-08-22 23:15,-117.1971,39.4643,1749.34,M,M,M,290.00,9.00,0.00,30.18,M,10.00,16.00,CLR,M,M,M,M,M,M,M,M,M,M,M,M,M,M,M,KTMT 222315Z AUTO 29009G16KT 10SM CLR A3018 RMK AO2,M
HTH,2022-08-22 23:15,-118.6315,38.5448,1282.89,95.00,28.40,9.38,330.00,10.00,0.00,30.05,M,10.00,M,CLR,M,M,M,M,M,M,M,M,M,M,M,M,M,M,89.27,KHTH 222315Z AUTO 33010KT 10SM CLR 35/M02 A3005 RMK A01,M
BAM,2022-08-22 23:15,-116.8743,40.5990,1382.36,98.60,32.00,9.72,220.00,16.00,0.00,30.07,M,10.00,22.00,CLR,M,M,M,M,M,M,M,M,M,M,M,M,M,M,92.69,KBAM 222315Z AUTO 22016G22KT 10SM CLR 37/00 A3007 RMK AO1,M
RTS,2022-08-22 23:15,-119.8764,39.6682,1539.00,91.40,14.00,5.69,260.00,15.00,0.00,30.16,M,10.00,21.00,CLR,M,M,M,M,M,M,M,M,M,M,M,M,M,M,85.60,KRTS 222315Z AUTO 26015G21KT 10SM CLR 33/M10 A3016 RMK AO2,M
MEV,2022-08-22 23:15,-119.7500,38.9963,1441.42,93.20,32.00,11.48,270.00,15.00,0.00,30.12,M,10.00,20.00,CLR,M,M,M,M,M,M,M,M,M,M,M,M,M,M,88.31,KMEV 222315Z AUTO 27015G20KT 10SM CLR 34/00 A3012 RMK AO2,M
CXP,2022-08-22 23:15,-119.7326,39.1923,1431.00,91.40,26.60,9.74,280.00,15.00,0.00,30.14,M,10.00,21.00,CLR,M,M,M,M,M,M,M,M,M,M,M,M,M,M,86.36,KCXP 222315Z AUTO 28015G21KT 10SM CLR 33/M03 A3014 RMK AO2,M
BVU,2022-08-22 23:15,-114.8611,35.9475,671.00,102.20,50.00,17.51,360.00,3.00,0.00,29.87,M,M,M,M,M,M,M,M,M,M,M,M,M,M,M,M,M,M,99.28,KBVU 222315Z AUTO 36003KT 39/10 A2987 RMK AO2 PWINO TSNO,M
HTH,2022-08-22 23:35,-118.6315,38.5448,1282.89,95.00,28.40,9.38,330.00,9.00,0.00,30.05,M,10.00,15.00,CLR,M,M,M,M,M,M,M,M,M,M,M,M,M,M,89.27,KHTH 222335Z AUTO 33009G15KT 10SM CLR 35/M02 A3005 RMK A01,M
BAM,2022-08-22 23:35,-116.8743,40.5990,1382.36,96.80,32.00,10.27,220.00,7.00,0.00,30.07,M,10.00,19.00,CLR,M,M,M,M,M,M,M,M,M,M,M,M,M,M,91.19,KBAM 222335Z AUTO 22007G19KT 190V250 10SM CLR 36/00 A3007 RMK AO1,M
MEV,2022-08-22 23:35,-119.7500,38.9963,1441.42,91.40,32.00,12.14,280.00,14.00,0.00,30.12,M,10.00,21.00,CLR,M,M,M,M,M,M,M,M,M,M,M,M,M,M,86.91,KMEV 222335Z AUTO 28014G21KT 10SM CLR 33/M00 A3012 RMK AO2,M
RTS,2022-08-22 23:35,-119.8764,39.6682,1539.00,91.40,14.00,5.69,260.00,11.00,0.00,30.16,M,10.00,21.00,CLR,M,M,M,M,M,M,M,M,M,M,M,M,M,M,85.60,KRTS 222335Z AUTO 26011G21KT 10SM CLR 33/M10 A3016 RMK AO2,M
CXP,2022-08-22 23:35,-119.7326,39.1923,1431.00,91.40,24.80,9.04,280.00,17.00,0.00,30.14,M,10.00,22.00,CLR,M,M,M,M,M,M,M,M,M,M,M,M,M,M,86.21,KCXP 222335Z AUTO 28017G22KT 10SM CLR 33/M04 A3014 RMK AO2,M
BVU,2022-08-22 23:35,-114.8611,35.9475,671.00,102.20,48.20,16.37,0.00,0.00,0.00,29.87,M,M,M,M,M,M,M,M,M,M,M,M,M,M,M,M,M,M,98.83,KBVU 222335Z AUTO 00000KT 39/09 A2987 RMK AO2 PWINO TSNO,M
TMT,2022-08-22 23:35,-117.1971,39.4643,1749.34,91.80,31.50,11.75,290.00,12.00,0.00,30.18,M,10.00,20.00,CLR,M,M,M,M,M,M,M,M,M,M,M,M,M,M,87.16,KTMT 222335Z AUTO 29012G20KT 10SM CLR 33/00 A3018 RMK AO2 T03321003,M
VGT,2022-08-22 23:53,-115.1933,36.2111,667.00,104.00,51.00,17.29,90.00,5.00,0.00,29.85,1009.20,10.00,M,CLR,M,M,M,M,M,M,M,M,M,M,M,M,M,M,101.47,KVGT 222353Z 09005KT 10SM CLR 40/11 A2985 RMK AO2 SLP092 T04000106 10411 20333 56025,M
DRA,2022-08-22 23:53,-116.0278,36.6206,1009.00,102.00,32.00,8.77,230.00,11.00,0.00,29.94,1008.00,10.00,16.00,CLR,M,M,M,M,M,M,M,M,M,M,M,M,M,M,95.57,KDRA 222353Z AUTO 23011G16KT 10SM CLR 39/00 A2994 RMK AO2 SLP080 T03890000 10394 20322 56022,M
ELY,2022-08-22 23:53,-114.8453,39.2950,1909.00,85.00,37.00,18.20,210.00,7.00,0.00,30.19,1012.50,10.00,M,CLR,M,M,M,M,M,M,M,M,M,M,M,M,M,M,81.88,KELY 222353Z AUTO 21007KT 10SM CLR 29/03 A3019 RMK AO2 SLP125 T02940028 10317 20283 56014,M
LOL,2022-08-22 23:53,-118.5701,40.0684,1192.43,98.00,18.00,5.51,300.00,9.00,0.00,30.03,1012.50,10.00,17.00,CLR,M,M,M,M,M,M,M,M,M,M,M,M,M,M,90.98,KLOL 222353Z AUTO 30009G17KT 10SM CLR 37/M08 A3003 RMK AO2 SLP125 T03671078 10372 20306 56016,M
P68,2022-08-22 23:53,-116.0056,39.6014,1993.00,90.00,34.00,13.74,60.00,10.00,0.00,30.15,1012.30,M,M,M,M,M,M,M,M,M,M,M,M,M,M,M,M,M,85.93,KP68 222353Z AUTO 06010KT 32/01 A3015 RMK AO1 SLP123 T03220011 10339 20294 56012,M
TMT,2022-08-22 23:55,-117.1971,39.4643,1749.34,M,M,M,240.00,14.00,0.00,30.18,M,10.00,17.00,CLR,M,M,M,M,M,M,M,M,M,M,M,M,M,M,M,KTMT 222355Z AUTO 24014G17KT 10SM CLR A3018 RMK AO2,M
RNO,2022-08-22 23:55,-119.7711,39.4839,1341.00,95.00,27.00,8.85,270.00,15.00,0.00,30.09,1012.80,10.00,19.00,CLR,M,M,M,M,M,M,M,M,M,M,M,M,M,M,89.12,KRNO 222355Z 27015G19KT 10SM CLR 35/M03 A3009 RMK AO2 SLP128 T03501028 10367 20278 55010,M
RTS,2022-08-22 23:55,-119.8764,39.6682,1539.00,89.60,19.40,7.61,290.00,11.00,0.00,30.16,M,10.00,17.00,CLR,M,M,M,M,M,M,M,M,M,M,M,M,M,M,84.54,KRTS 222355Z AUTO 29011G17KT 10SM CLR 32/M07 A3016 RMK AO2,M
HTH,2022-08-22 23:55,-118.6315,38.5448,1282.89,95.00,28.40,9.38,320.00,12.00,0.00,30.04,M,10.00,M,CLR,M,M,M,M,M,M,M,M,M,M,M,M,M,M,89.27,KHTH 222355Z AUTO 32012KT 10SM CLR 35/M02 A3004 RMK A01,M
MEV,2022-08-22 23:55,-119.7500,38.9963,1441.42,91.40,32.00,12.14,290.00,13.00,0.00,30.12,M,10.00,20.00,CLR,M,M,M,M,M,M,M,M,M,M,M,M,M,M,86.91,KMEV 222355Z AUTO 29013G20KT 10SM CLR 33/M00 A3012 RMK AO2,M
BAM,2022-08-22 23:55,-116.8743,40.5990,1382.36,96.80,32.00,10.27,250.00,9.00,0.00,30.07,M,10.00,22.00,CLR,M,M,M,M,M,M,M,M,M,M,M,M,M,M,91.19,KBAM 222355Z AUTO 25009G22KT 10SM CLR 36/00 A3007 RMK AO1,M
CXP,2022-08-22 23:55,-119.7326,39.1923,1431.00,91.40,26.60,9.74,280.00,16.00,0.00,30.14,M,10.00,M,CLR,M,M,M,M,M,M,M,M,M,M,M,M,M,M,86.36,KCXP 222355Z AUTO 28016KT 10SM CLR 33/M03 A3014 RMK AO2,M
BVU,2022-08-22 23:55,-114.8611,35.9475,671.00,102.20,51.80,18.72,50.00,4.00,0.00,29.86,M,M,M,M,M,M,M,M,M,M,M,M,M,M,M,M,M,M,99.80,KBVU 222355Z AUTO 05004KT 39/11 A2986 RMK AO2 PWINO TSNO,M
TPH,2022-08-22 23:56,-117.0904,38.0505,1654.00,94.00,25.00,8.43,M,M,0.00,30.13,1011.10,10.00,M,CLR,M,M,M,M,M,M,M,M,M,M,M,M,M,M,88.10,KTPH 222356Z AUTO 10SM CLR 34/M04 A3013 RMK AO2 SLP111 T03441039 10350 20289 56015,M
EKO,2022-08-22 23:56,-115.7860,40.8242,1367.00,88.00,32.00,13.51,220.00,10.00,0.00,30.08,1013.40,10.00,M,CLR,M,M,M,M,M,M,M,M,M,M,M,M,M,M,84.24,KEKO 222356Z AUTO 22010KT 10SM CLR 31/00 A3008 RMK AO2 SLP134 T03110000 10322 20256 56015,M
NFL,2022-08-22 23:56,-118.7010,39.4166,1199.00,97.00,25.00,7.66,320.00,6.00,0.00,30.02,1013.60,10.00,M,FEW,M,M,M,9000.00,M,M,M,M,M,M,M,M,M,M,90.58,KNFL 222356Z 32006KT 10SM FEW090 36/M04 A3002 RMK AO2 SLP136 T03611039 10367 20300 56021,M
HND,2022-08-22 23:56,-115.1344,35.9729,742.79,102.00,54.00,20.42,350.00,4.00,0.00,29.90,1010.70,10.00,M,CLR,M,M,M,M,M,M,M,M,M,M,M,M,M,M,100.30,KHND 222356Z 35004KT 10SM CLR 39/12 A2990 RMK AO2 SLP107 T03890122 10400 20328 56023,M
WMC,2022-08-22 23:56,-117.8072,40.9019,1315.00,96.00,19.90,6.35,310.00,9.00,0.00,30.06,1012.80,10.00,M,CLR,M,M,M,M,M,M,M,M,M,M,M,M,M,M,89.44,KWMC 222356Z AUTO 31009KT 10SM CLR 36/M07 A3006 RMK AO2 SLP128 T03561067 10367 20317 56013,M
LAS,2022-08-22 23:56,-115.1634,36.0719,663.00,103.00,53.00,19.23,M,4.00,0.00,29.86,1008.00,10.00,M,FEW,FEW,SCT,M,12000.00,15000.00,22000.00,M,M,M,M,M,M,M,M,100.96,KLAS 222356Z VRB04KT 10SM FEW120 FEW150 SCT220 39/12 A2986 RMK AO2 SLP080 CB DSNT NW-NE-E T03940117 10400 20322 56025,M
LSV,2022-08-22 23:58,-115.0343,36.2362,570.00,103.80,53.40,18.93,30.00,3.00,0.00,29.82,M,10.00,M,CLR,M,M,M,M,M,M,M,M,M,M,M,M,M,M,102.03,KLSV 222358Z AUTO 03003KT 10SM CLR 40/12 A2982 RMK AO2 SLPNO T03990119 10415 20399 $,M
