station,valid,lon,lat,elevation,tmpf,dwpf,relh,drct,sknt,p01i,alti,mslp,vsby,gust,skyc1,skyc2,skyc3,skyc4,skyl1,skyl2,skyl3,skyl4,wxcodes,ice_accretion_1hr,ice_accretion_3hr,ice_accretion_6hr,peak_wind_gust,peak_wind_drct,peak_wind_time,feel,metar,snowdepth
TPH,2022-08-01 00:02,-117.0904,38.0505,1654.00,64.00,61.00,89.97,120.00,14.00,0.11,30.30,M,1.00,31.00,SCT,BKN,OVC,M,3200.00,4700.00,5500.00,M,+TSRA BR,M,M,M,31.00,110.00,2022-07-31 23:57,64.00,KTPH 010002Z AUTO 12014G31KT 1SM +TSRA BR SCT032 BKN047 OVC055 18/16 A3030 RMK AO2 PK WND 11031/2357 WSHFT 2343 LTG DSNT ALQDS TSB02 PRESRR P0011 T01780161,M
TPH,2022-08-01 00:06,-117.0904,38.0505,1654.00,63.00,60.00,90.25,M,5.00,0.28,30.30,M,0.50,31.00,BKN,OVC,M,M,2600.00,4700.00,M,M,+TSRA FG,M,M,M,31.00,110.00,2022-07-31 23:57,63.00,KTPH 010006Z AUTO VRB05G31KT 1/2SM +TSRA FG BKN026 OVC047 17/16 A3030 RMK AO2 PK WND 11031/2357 WSHFT 2343 LTG DSNT ALQDS TSB02 PRESRR P0028 T01720156,M
CXP,2022-08-01 00:10,-119.7326,39.1923,1431.00,91.40,41.00,17.32,250.00,6.00,0.00,30.09,M,10.00,M,CLR,M,M,M,M,M,M,M,M,M,M,M,M,M,M,87.40,KCXP 010010Z AUTO 25006KT 10SM CLR 33/05 A3009 RMK AO2,M
HTH,2022-08-01 00:15,-118.6315,38.5448,1282.89,75.20,55.40,50.17,80.00,21.00,0.00,30.10,M,0.75,38.00,BKN,BKN,OVC,M,300.00,3000.00,4800.00,M,HZ,M,M,M,M,M,M,75.20,KHTH 010015Z AUTO 08021G38KT 3/4SM HZ BKN003 BKN030 OVC048 24/13 A3010 RMK A01,M
BVU,2022-08-01 00:15,-114.8611,35.9475,671.00,M,M,M,M,M,0.00,M,M,M,M,M,M,M,M,M,M,M,M,M,M,M,M,M,M,M,M,KBVU 010015Z AUTO RMK AO2 PNO PWINO TSNO,M
TMT,2022-08-01 00:15,-117.1971,39.4643,1749.34,M,M,M,220.00,9.00,0.00,30.18,M,10.00,M,CLR,M,M,M,M,M,M,M,M,M,M,M,M,M,M,M,KTMT 010015Z AUTO 22009KT 10SM CLR A3018 RMK AO2,M
RTS,2022-08-01 00:15,-119.8764,39.6682,1539.00,89.60,50.00,25.79,290.00,13.00,0.00,30.12,M,10.00,M,CLR,M,M,M,M,M,M,M,M,M,M,M,M,M,M,86.70,KRTS 010015Z AUTO 29013KT 10SM CLR 32/10 A3012 RMK AO2,M
MEV,2022-08-01 00:15,-119.7500,38.9963,1441.42,86.00,50.00,28.90,270.00,9.00,0.00,30.09,M,10.00,15.00,CLR,M,M,M,M,M,M,M,M,M,M,M,M,M,M,83.62,KMEV 010015Z AUTO 27009G15KT 10SM CLR 30/10 A3009 RMK AO2,M
BAM,2022-08-01 00:15,-116.8743,40.5990,1382.36,102.20,21.20,5.58,120.00,5.00,0.00,30.02,M,10.00,M,CLR,M,M,M,M,M,M,M,M,M,M,M,M,M,M,94.60,KBAM 010015Z AUTO 12005KT 10SM CLR 39/M06 A3002 RMK AO1,M
TPH,2022-08-01 00:28,-117.0904,38.0505,1654.00,64.00,61.00,89.97,350.00,11.00,1.05,30.30,M,0.25,17.00,OVC,M,M,M,2400.00,M,M,M,+TSRA FG,M,M,M,31.00,110.00,2022-07-31 23:57,64.00,KTPH 010028Z AUTO 35011G17KT 1/4SM +TSRA FG OVC024 18/16 A3030 RMK AO2 PK WND 11031/2357 WSHFT 2343 LTG DSNT W AND NW TSB02 P0105 T01780161,M
CXP,2022-08-01 00:30,-119.7326,39.1923,1431.00,87.80,50.00,27.29,260.00,7.00,0.00,30.08,M,10.00,16.00,CLR,M,M,M,M,M,M,M,M,M,M,M,M,M,M,85.11,KCXP 010030Z AUTO 26007G16KT 10SM CLR 31/10 A3008 RMK AO2,M
TPH,2022-08-01 00:33,-117.0904,38.0505,1654.00,62.00,59.00,89.57,350.00,16.00,1.07,30.29,M,1.00,22.00,FEW,BKN,OVC,M,2100.00,2600.00,7000.00,M,TSRA BR,M,M,M,31.00,110.00,2022-07-31 23:57,62.10,KTPH 010033Z AUTO 35016G22KT 1SM TSRA BR FEW021 BKN026 OVC070 17/15 A3029 RMK AO2 PK WND 11031/2357 WSHFT 2343 LTG DSNT NE AND W TSB02 P0107 T01670150,M
BVU,2022-08-01 00:35,-114.8611,35.9475,671.00,M,M,M,M,M,0.00,M,M,M,M,M,M,M,M,M,M,M,M,M,M,M,M,M,M,M,M,KBVU 010035Z AUTO RMK AO2 PNO PWINO TSNO,M
MEV,2022-08-01 00:35,-119.7500,38.9963,1441.42,84.20,51.80,32.73,260.00,15.00,0.00,30.09,M,10.00,M,CLR,M,M,M,M,M,M,M,M,M,M,M,M,M,M,82.48,KMEV 010035Z AUTO 26015KT 10SM CLR 29/11 A3009 RMK AO2,M
BAM,2022-08-01 00:35,-116.8743,40.5990,1382.36,100.40,23.00,6.36,80.00,4.00,0.00,30.01,M,10.00,M,CLR,M,M,M,M,M,M,M,M,M,M,M,M,M,M,93.25,KBAM 010035Z AUTO 08004KT 10SM CLR 38/M05 A3001 RMK AO1,M
HTH,2022-08-01 00:35,-118.6315,38.5448,1282.89,77.00,57.20,50.43,120.00,20.00,0.00,30.12,M,9.00,31.00,FEW,SCT,BKN,M,300.00,2900.00,6500.00,M,M,M,M,M,M,M,M,77.00,KHTH 010035Z AUTO 12020G31KT 9SM FEW003 SCT029 BKN065 25/14 A3012 RMK A01,M
TMT,2022-08-01 00:35,-117.1971,39.4643,1749.34,M,M,M,230.00,9.00,0.00,30.17,M,10.00,M,CLR,M,M,M,M,M,M,M,M,M,M,M,M,M,M,M,KTMT 010035Z AUTO 23009KT 10SM CLR A3017 RMK AO2 LTG DSNT SE,M
RTS,2022-08-01 00:35,-119.8764,39.6682,1539.00,89.60,48.20,24.11,320.00,17.00,0.00,30.12,M,10.00,22.00,CLR,M,M,M,M,M,M,M,M,M,M,M,M,M,M,86.44,KRTS 010035Z AUTO 32017G22KT 10SM CLR 32/09 A3012 RMK AO2,M
TPH,2022-08-01 00:36,-117.0904,38.0505,1654.00,62.00,59.00,89.57,350.00,15.00,1.07,30.29,M,3.00,22.00,BKN,BKN,OVC,M,2600.00,7000.00,8000.00,M,TSRA BR,M,M,M,31.00,110.00,2022-07-31 23:57,62.10,KTPH 010036Z AUTO 35015G22KT 3SM TSRA BR BKN026 BKN070 OVC080 17/15 A3029 RMK AO2 PK WND 11031/2357 WSHFT 2343 LTG DSNT NE AND W TSB02 P0107 T01670150,M
CXP,2022-08-01 00:50,-119.7326,39.1923,1431.00,87.80,48.20,25.52,250.00,6.00,0.00,30.09,M,10.00,M,CLR,M,M,M,M,M,M,M,M,M,M,M,M,M,M,84.87,KCXP 010050Z AUTO 25006KT 10SM CLR 31/09 A3009 RMK AO2,M
ELY,2022-08-01 00:53,-114.8453,39.2950,1909.00,83.00,43.00,24.51,M,3.00,0.00,30.22,1013.10,10.00,M,CLR,M,M,M,M,M,M,M,M,M,M,M,M,M,M,80.73,KELY 010053Z AUTO VRB03KT 10SM CLR 28/06 A3022 RMK AO2 SLP131 T02830061,M
P68,2022-08-01 00:53,-116.0056,39.6014,1993.00,86.00,41.00,20.54,150.00,9.00,0.00,30.16,1012.40,M,M,M,M,M,M,M,M,M,M,M,M,M,M,27.00,110.00,2022-08-01 00:13,82.86,KP68 010053Z AUTO 15009KT 30/05 A3016 RMK AO1 PK WND 11027/0013 SLP124 T03000050,M
VGT,2022-08-01 00:53,-115.1933,36.2111,667.00,87.00,65.00,47.73,160.00,8.00,0.00,29.99,1014.50,10.00,M,CLR,M,M,M,M,M,M,M,M,M,M,M,M,M,M,88.86,KVGT 010053Z 16008KT 10SM CLR 31/18 A2999 RMK AO2 SLP145 T03060183,M
TPH,2022-08-01 00:53,-117.0904,38.0505,1654.00,64.40,60.80,88.09,360.00,13.00,1.07,30.28,M,10.00,M,FEW,BKN,OVC,M,4800.00,6500.00,10000.00,M,-TSRA,M,M,M,31.00,110.00,2022-07-31 23:57,64.40,KTPH 010053Z AUTO 36013KT 10SM -TSRA FEW048 BKN065 OVC100 18/16 A3028 RMK AO2 PK WND 11031/2357 WSHFT 2343 LTG DSNT NE AND W TSB02E39 P0107,M
LOL,2022-08-01 00:53,-118.5701,40.0684,1192.43,103.00,28.90,7.53,170.00,5.00,0.00,29.94,1008.90,10.00,M,CLR,M,M,M,M,M,M,M,M,M,M,M,M,M,M,95.93,KLOL 010053Z AUTO 17005KT 10SM CLR 39/M02 A2994 RMK AO2 SLP089 T03941017,M
DRA,2022-08-01 00:53,-116.0278,36.6206,1009.00,79.00,66.00,64.45,250.00,9.00,0.00,30.07,1013.70,10.00,M,CLR,M,M,M,M,M,M,M,M,M,M,M,M,M,M,79.00,KDRA 010053Z AUTO 25009KT 10SM CLR 26/19 A3007 RMK AO2 SLP137 T02610189,M
BAM,2022-08-01 00:55,-116.8743,40.5990,1382.36,100.40,19.40,5.46,30.00,5.00,0.00,30.01,M,10.00,M,CLR,M,M,M,M,M,M,M,M,M,M,M,M,M,M,92.98,KBAM 010055Z AUTO 03005KT 10SM CLR 38/M07 A3001 RMK AO1,M
TMT,2022-08-01 00:55,-117.1971,39.4643,1749.34,M,M,M,230.00,8.00,0.00,30.17,M,10.00,M,CLR,M,M,M,M,M,M,M,M,M,M,M,M,M,M,M,KTMT 010055Z AUTO 23008KT 10SM CLR A3017 RMK AO2,M
BVU,2022-08-01 00:55,-114.8611,35.9475,671.00,M,M,M,M,M,0.00,M,M,M,M,M,M,M,M,M,M,M,M,M,M,M,M,M,M,M,M,KBVU 010055Z AUTO RMK AO2 PNO PWINO TSNO,M
RTS,2022-08-01 00:55,-119.8764,39.6682,1539.00,86.00,42.80,22.02,320.00,10.00,0.00,30.12,M,10.00,23.00,CLR,M,M,M,M,M,M,M,M,M,M,M,M,M,M,82.95,KRTS 010055Z AUTO 32010G23KT 10SM CLR 30/06 A3012 RMK AO2,M
MEV,2022-08-01 00:55,-119.7500,38.9963,1441.42,86.00,51.80,30.90,190.00,9.00,0.00,30.10,M,10.00,M,CLR,M,M,M,M,M,M,M,M,M,M,M,M,M,M,83.87,KMEV 010055Z AUTO 19009KT 10SM CLR 30/11 A3010 RMK AO2,M
RNO,2022-08-01 00:55,-119.7711,39.4839,1341.00,94.00,51.00,23.48,280.00,10.00,0.00,30.03,1010.20,10.00,M,SCT,BKN,M,M,15000.00,19000.00,M,M,M,M,M,M,M,M,M,91.00,KRNO 010055Z 28010KT 10SM SCT150 BKN190 34/11 A3003 RMK AO2 SLP102 T03440106,M
HTH,2022-08-01 00:55,-118.6315,38.5448,1282.89,78.80,57.20,47.52,170.00,11.00,0.29,30.14,M,10.00,20.00,FEW,SCT,BKN,M,4200.00,6000.00,7000.00,M,M,M,M,M,M,M,M,78.80,KHTH 010055Z AUTO 17011G20KT 10SM FEW042 SCT060 BKN070 26/14 A3014 RMK A01 P0029,M
LSV,2022-08-01 00:56,-115.0343,36.2362,570.00,87.00,65.30,48.71,180.00,8.00,0.00,29.97,1012.50,10.00,M,BKN,BKN,M,M,15000.00,22000.00,M,M,M,M,M,M,M,M,M,88.86,KLSV 010056Z 18008KT 10SM BKN150 BKN220 31/19 A2997 RMK SLP125 T03050185 $,M
HND,2022-08-01 00:56,-115.1344,35.9729,742.79,83.00,65.00,54.62,200.00,10.00,0.00,30.04,1016.10,10.00,M,CLR,M,M,M,M,M,M,M,M,M,M,M,M,M,M,84.64,KHND 010056Z 20010KT 10SM CLR 28/18 A3004 RMK AO2 SLP161 T02830183,M
LAS,2022-08-01 00:56,-115.1634,36.0719,663.00,83.00,63.00,51.10,180.00,10.00,0.00,29.99,1013.10,10.00,17.00,BKN,OVC,M,M,14000.00,20000.00,M,M,M,M,M,M,M,M,M,83.98,KLAS 010056Z 18010G17KT 10SM BKN140 OVC200 28/17 A2999 RMK AO2 SLP131 T02830172,M
WMC,2022-08-01 00:56,-117.8072,40.9019,1315.00,102.00,21.00,5.57,M,4.00,0.00,29.97,1009.10,10.00,M,CLR,M,M,M,M,M,M,M,M,M,M,M,M,M,M,94.42,KWMC 010056Z AUTO VRB04KT 10SM CLR 39/M06 A2997 RMK AO2 SLP091 T03891061,M
TPH,2022-08-01 00:56,-117.0904,38.0505,1654.00,65.00,60.00,84.44,10.00,15.00,1.08,30.28,1018.90,10.00,M,SCT,BKN,OVC,M,6500.00,8000.00,10000.00,M,-TSRA,M,M,M,31.00,110.00,2022-07-31 23:57,64.90,KTPH 010056Z AUTO 01015KT 10SM -TSRA SCT065 BKN080 OVC100 18/16 A3028 RMK AO2 PK WND 11031/2357 WSHFT 2343 LTG DSNT NE AND W TSB02E39 SLP189 P0108 T01830156,M
NFL,2022-08-01 00:56,-118.7010,39.4166,1199.00,95.00,42.00,16.16,140.00,16.00,0.00,29.99,1012.60,10.00,22.00,FEW,BKN,BKN,M,10000.00,15000.00,22000.00,M,M,M,M,M,28.00,130.00,2022-07-31 23:57,90.79,KNFL 010056Z 14016G22KT 10SM FEW100 BKN150 BKN220 35/06 A2999 RMK AO2 PK WND 13028/2357 SLP126 T03500056,M
EKO,2022-08-01 00:56,-115.7860,40.8242,1367.00,96.00,32.00,10.49,M,5.00,0.00,30.05,1011.20,10.00,M,CLR,M,M,M,M,M,M,M,M,M,M,M,M,M,M,90.61,KEKO 010056Z AUTO VRB05KT 10SM CLR 36/00 A3005 RMK AO2 SLP112 T03560000,M
INS,2022-08-01 00:58,-115.6733,36.5872,955.00,82.00,61.50,49.91,10.00,4.00,0.00,30.06,1013.00,10.00,M,SCT,SCT,BKN,M,15000.00,17000.00,20000.00,M,M,M,M,M,M,M,M,82.75,KINS 010058Z AUTO 01004KT 10SM SCT150 SCT170 BKN200 28/16 A3006 RMK AO2 SLP130 T02780164,M
TPH,2022-08-01 01:03,-117.0904,38.0505,1654.00,65.00,60.00,84.44,360.00,13.00,T,30.27,M,8.00,M,SCT,OVC,M,M,6500.00,10000.00,M,M,-RA,M,M,M,M,M,M,64.90,KTPH 010103Z AUTO 36013KT 8SM -RA SCT065 OVC100 18/16 A3027 RMK AO2 LTG DSNT NE AND W TSE0057 P0000 T01830156,M
CXP,2022-08-01 01:10,-119.7326,39.1923,1431.00,86.00,51.80,30.90,240.00,7.00,0.00,30.09,M,10.00,12.00,CLR,M,M,M,M,M,M,M,M,M,M,M,M,M,M,83.87,KCXP 010110Z AUTO 24007G12KT 10SM CLR 30/11 A3009 RMK AO2,M
RTS,2022-08-01 01:15,-119.8764,39.6682,1539.00,87.80,44.60,22.27,320.00,14.00,0.00,30.11,M,10.00,M,CLR,M,M,M,M,M,M,M,M,M,M,M,M,M,M,84.53,KRTS 010115Z AUTO 32014KT 10SM CLR 31/07 A3011 RMK AO2,M
HTH,2022-08-01 01:15,-118.6315,38.5448,1282.89,77.00,62.60,61.13,190.00,17.00,0.00,30.15,M,7.00,M,FEW,BKN,OVC,M,4200.00,5500.00,8000.00,M,M,M,M,M,M,M,M,77.00,KHTH 010115Z AUTO 19017KT 7SM FEW042 BKN055 OVC080 25/17 A3015 RMK A01,M
BAM,2022-08-01 01:15,-116.8743,40.5990,1382.36,100.40,17.60,5.05,90.00,4.00,0.00,30.01,M,10.00,M,CLR,M,M,M,M,M,M,M,M,M,M,M,M,M,M,92.87,KBAM 010115Z AUTO 09004KT 10SM CLR 38/M08 A3001 RMK AO1,M
MEV,2022-08-01 01:15,-119.7500,38.9963,1441.42,82.40,50.00,32.46,180.00,8.00,0.00,30.10,M,10.00,17.00,CLR,M,M,M,M,M,M,M,M,M,M,M,M,M,M,80.99,KMEV 010115Z AUTO 18008G17KT 10SM CLR 28/10 A3010 RMK AO2,M
TMT,2022-08-01 01:15,-117.1971,39.4643,1749.34,M,M,M,230.00,9.00,0.00,30.16,M,10.00,M,CLR,M,M,M,M,M,M,M,M,M,M,M,M,M,M,M,KTMT 010115Z AUTO 23009KT 10SM CLR A3016 RMK AO2,M
LOL,2022-08-01 01:15,-118.5701,40.0684,1192.43,100.00,41.00,13.30,200.00,16.00,0.00,29.94,M,1.75,24.00,SCT,M,M,M,2200.00,M,M,M,HZ,M,M,M,M,M,M,95.42,KLOL 010115Z AUTO 20016G24KT 1 3/4SM HZ SCT022 38/05 A2994 RMK AO2 T03780050,M
BVU,2022-08-01 01:15,-114.8611,35.9475,671.00,M,M,M,M,M,0.00,M,M,M,M,M,M,M,M,M,M,M,M,M,M,M,M,M,M,M,M,KBVU 010115Z AUTO RMK AO2 PNO PWINO TSNO,M
LOL,2022-08-01 01:23,-118.5701,40.0684,1192.43,98.00,42.00,14.70,200.00,20.00,0.00,29.94,M,1.50,24.00,BKN,BKN,M,M,2200.00,3000.00,M,M,HZ,M,M,M,M,M,M,93.74,KLOL 010123Z AUTO 20020G24KT 1 1/2SM HZ BKN022 BKN030 37/06 A2994 RMK AO2 T03670056,M
CXP,2022-08-01 01:30,-119.7326,39.1923,1431.00,86.00,51.80,30.90,M,4.00,0.00,30.10,M,10.00,M,CLR,M,M,M,M,M,M,M,M,M,M,M,M,M,M,83.87,KCXP 010130Z AUTO VRB04KT 10SM CLR 30/11 A3010 RMK AO2,M
HTH,2022-08-01 01:35,-118.6315,38.5448,1282.89,73.40,59.00,60.67,160.00,15.00,0.00,30.18,M,5.00,22.00,FEW,BKN,OVC,M,4300.00,5500.00,6500.00,M,HZ,M,M,M,M,M,M,73.40,KHTH 010135Z AUTO 16015G22KT 5SM HZ FEW043 BKN055 OVC065 23/15 A3018 RMK A01,M
BVU,2022-08-01 01:35,-114.8611,35.9475,671.00,M,M,M,M,M,0.00,M,M,M,M,M,M,M,M,M,M,M,M,M,M,M,M,M,M,M,M,KBVU 010135Z AUTO RMK AO2 PNO PWINO TSNO,M
RTS,2022-08-01 01:35,-119.8764,39.6682,1539.00,87.80,42.80,20.79,280.00,12.00,0.00,30.12,M,10.00,20.00,CLR,M,M,M,M,M,M,M,M,M,M,M,M,M,M,84.40,KRTS 010135Z AUTO 28012G20KT 10SM CLR 31/06 A3012 RMK AO2,M
MEV,2022-08-01 01:35,-119.7500,38.9963,1441.42,82.40,50.00,32.46,270.00,8.00,0.00,30.10,M,10.00,M,CLR,M,M,M,M,M,M,M,M,M,M,M,M,M,M,80.99,KMEV 010135Z AUTO 27008KT 10SM CLR 28/10 A3010 RMK AO2,M
BAM,2022-08-01 01:35,-116.8743,40.5990,1382.36,100.40,17.60,5.05,50.00,5.00,0.00,30.00,M,10.00,M,CLR,M,M,M,M,M,M,M,M,M,M,M,M,M,M,92.87,KBAM 010135Z AUTO 05005KT 10SM CLR 38/M08 A3000 RMK AO1,M
TMT,2022-08-01 01:35,-117.1971,39.4643,1749.34,M,M,M,230.00,7.00,0.00,30.16,M,10.00,M,CLR,M,M,M,M,M,M,M,M,M,M,M,M,M,M,M,KTMT 010135Z AUTO 23007KT 10SM CLR A3016 RMK AO2,M
CXP,2022-08-01 01:50,-119.7326,39.1923,1431.00,84.20,51.80,32.73,200.00,10.00,0.00,30.11,M,10.00,19.00,CLR,M,M,M,M,M,M,M,M,M,M,M,M,M,M,82.48,KCXP 010150Z AUTO 20010G19KT 10SM CLR 29/11 A3011 RMK AO2,M
DRA,2022-08-01 01:53,-116.0278,36.6206,1009.00,78.00,65.00,63.90,240.00,5.00,0.00,30.09,1014.50,10.00,M,OVC,M,M,M,10000.00,M,M,M,M,M,M,M,M,M,M,78.10,KDRA 010153Z AUTO 24005KT 10SM OVC100 26/18 A3009 RMK AO2 SLP145 T02560183,M
VGT,2022-08-01 01:53,-115.1933,36.2111,667.00,87.00,62.00,43.27,160.00,6.00,0.00,29.99,1014.50,10.00,M,CLR,M,M,M,M,M,M,M,M,M,M,M,M,M,M,87.58,KVGT 010153Z 16006KT 10SM CLR 31/17 A2999 RMK AO2 SLP145 T03060167,M
LOL,2022-08-01 01:53,-118.5701,40.0684,1192.43,96.00,42.00,15.62,200.00,17.00,0.00,29.95,1009.60,1.50,M,OVC,M,M,M,1800.00,M,M,M,HZ,M,M,M,M,M,M,91.83,KLOL 010153Z AUTO 20017KT 1 1/2SM HZ OVC018 36/06 A2995 RMK AO2 SLP096 T03560056,M
ELY,2022-08-01 01:53,-114.8453,39.2950,1909.00,77.00,45.00,32.10,140.00,16.00,0.00,30.24,1013.40,10.00,26.00,CLR,M,M,M,M,M,M,M,M,M,M,M,30.00,170.00,2022-08-01 01:20,77.00,KELY 010153Z AUTO 14016G26KT 10SM CLR 25/07 A3024 RMK AO2 PK WND 17030/0120 SLP134 T02500072,M
P68,2022-08-01 01:53,-116.0056,39.6014,1993.00,84.00,41.00,21.90,160.00,14.00,0.00,30.17,1012.30,M,M,M,M,M,M,M,M,M,M,M,M,M,M,M,M,M,81.37,KP68 010153Z AUTO 16014KT 29/05 A3017 RMK AO1 SLP123 T02890050,M
TMT,2022-08-01 01:55,-117.1971,39.4643,1749.34,M,M,M,230.00,8.00,0.00,30.16,M,10.00,M,CLR,M,M,M,M,M,M,M,M,M,M,M,M,M,M,M,KTMT 010155Z AUTO 23008KT 10SM CLR A3016 RMK AO2,M
BVU,2022-08-01 01:55,-114.8611,35.9475,671.00,M,M,M,M,M,0.00,M,M,M,M,M,M,M,M,M,M,M,M,M,M,M,M,M,M,M,M,KBVU 010155Z AUTO RMK AO2 PNO PWINO TSNO,M
RNO,2022-08-01 01:55,-119.7711,39.4839,1341.00,90.00,56.00,31.62,290.00,19.00,0.00,30.04,1010.70,10.00,23.00,SCT,BKN,M,M,15000.00,19000.00,M,M,M,M,M,M,M,M,M,88.29,KRNO 010155Z 29019G23KT 10SM SCT150 BKN190 32/13 A3004 RMK AO2 SLP107 HZ ALQDS T03220133,M
BAM,2022-08-01 01:55,-116.8743,40.5990,1382.36,98.60,17.60,5.33,20.00,4.00,0.00,30.01,M,10.00,M,CLR,M,M,M,M,M,M,M,M,M,M,M,M,M,M,91.37,KBAM 010155Z AUTO 02004KT 10SM CLR 37/M08 A3001 RMK AO1,M
MEV,2022-08-01 01:55,-119.7500,38.9963,1441.42,84.20,50.00,30.62,260.00,9.00,0.00,30.10,M,10.00,M,CLR,M,M,M,M,M,M,M,M,M,M,M,M,M,M,82.24,KMEV 010155Z AUTO 26009KT 10SM CLR 29/10 A3010 RMK AO2,M
HTH,2022-08-01 01:55,-118.6315,38.5448,1282.89,73.40,59.00,60.67,170.00,21.00,0.01,30.17,M,8.00,M,SCT,BKN,OVC,M,5500.00,6500.00,9500.00,M,M,M,M,M,M,M,M,73.40,KHTH 010155Z AUTO 17021KT 8SM SCT055 BKN065 OVC095 23/15 A3017 RMK A01 P0001,M
RTS,2022-08-01 01:55,-119.8764,39.6682,1539.00,86.00,51.80,30.90,250.00,14.00,0.00,30.12,M,10.00,22.00,CLR,M,M,M,M,M,M,M,M,M,M,M,M,M,M,83.87,KRTS 010155Z AUTO 25014G22KT 10SM CLR 30/11 A3012 RMK AO2,M
LAS,2022-08-01 01:56,-115.1634,36.0719,663.00,83.00,64.00,52.93,180.00,11.00,0.00,30.01,1013.70,10.00,17.00,SCT,OVC,M,M,14000.00,20000.00,M,M,M,M,M,M,M,M,M,84.32,KLAS 010156Z 18011G17KT 10SM SCT140 OVC200 28/18 A3001 RMK AO2 SLP137 T02830178,M
EKO,2022-08-01 01:56,-115.7860,40.8242,1367.00,96.00,34.00,11.37,0.00,0.00,0.00,30.05,1010.60,10.00,M,CLR,M,M,M,M,M,M,M,M,M,M,M,M,M,M,90.89,KEKO 010156Z AUTO 00000KT 10SM CLR 36/01 A3005 RMK AO2 SLP106 T03560011,M
NFL,2022-08-01 01:56,-118.7010,39.4166,1199.00,94.00,43.00,17.31,170.00,16.00,0.00,29.99,1012.60,10.00,M,FEW,BKN,BKN,M,10000.00,13000.00,20000.00,M,M,M,M,M,M,M,M,89.84,KNFL 010156Z COR 17016KT 10SM FEW100 BKN130 BKN200 34/06 A2999 RMK AO2 SLP126 BLDU DSNT SE-S TCU DSNT W-NW T03440061,M
TPH,2022-08-01 01:56,-117.0904,38.0505,1654.00,67.00,62.00,84.56,50.00,8.00,T,30.27,1018.10,10.00,M,BKN,M,M,M,6500.00,M,M,M,M,M,M,M,M,M,M,66.90,KTPH 010156Z AUTO 05008KT 10SM BKN065 19/17 A3027 RMK AO2 RAE20 TSE0057 SLP181 P0000 T01940167,M
WMC,2022-08-01 01:56,-117.8072,40.9019,1315.00,101.00,19.90,5.49,20.00,3.00,0.00,29.97,1008.60,10.00,M,CLR,M,M,M,M,M,M,M,M,M,M,M,M,M,M,93.43,KWMC 010156Z AUTO 02003KT 10SM CLR 38/M07 A2997 RMK AO2 SLP086 T03831067,M
HND,2022-08-01 01:56,-115.1344,35.9729,742.79,81.00,66.00,60.37,190.00,16.00,0.00,30.05,1016.40,10.00,M,CLR,M,M,M,M,M,M,M,M,M,M,M,M,M,M,83.11,KHND 010156Z 19016KT 10SM CLR 27/19 A3005 RMK AO2 SLP164 T02720189,M
INS,2022-08-01 01:58,-115.6733,36.5872,955.00,82.00,62.00,50.78,360.00,6.00,0.00,30.07,1013.30,10.00,M,BKN,BKN,M,M,17000.00,20000.00,M,M,M,M,M,M,M,M,M,82.77,KINS 010158Z AUTO 36006KT 10SM BKN170 BKN200 28/17 A3007 RMK AO2 SLP133 T02770166,M
LSV,2022-08-01 01:58,-115.0343,36.2362,570.00,87.00,63.00,44.82,200.00,6.00,0.00,29.98,1012.80,10.00,M,SCT,BKN,M,M,14000.00,16000.00,M,M,M,M,M,M,M,M,M,88.01,KLSV 010158Z 20006KT 10SM SCT140 BKN160 31/17 A2998 RMK SLP128 T03060173 58004 $,M
CXP,2022-08-01 02:10,-119.7326,39.1923,1431.00,84.20,51.80,32.73,200.00,6.00,0.00,30.12,M,10.00,16.00,CLR,M,M,M,M,M,M,M,M,M,M,M,M,M,M,82.48,KCXP 010210Z AUTO 20006G16KT 10SM CLR 29/11 A3012 RMK AO2,M
BVU,2022-08-01 02:15,-114.8611,35.9475,671.00,M,M,M,M,M,0.00,M,M,M,M,M,M,M,M,M,M,M,M,M,M,M,M,M,M,M,M,KBVU 010215Z AUTO RMK AO2 PNO PWINO TSNO,M
TMT,2022-08-01 02:15,-117.1971,39.4643,1749.34,M,M,M,220.00,11.00,0.00,30.18,M,10.00,15.00,CLR,M,M,M,M,M,M,M,M,M,M,M,M,M,M,M,KTMT 010215Z AUTO 22011G15KT 10SM CLR A3018 RMK AO2,M
RTS,2022-08-01 02:15,-119.8764,39.6682,1539.00,84.20,53.60,34.97,240.00,15.00,0.00,30.11,M,10.00,21.00,CLR,M,M,M,M,M,M,M,M,M,M,M,M,M,M,82.76,KRTS 010215Z AUTO 24015G21KT 10SM CLR 29/12 A3011 RMK AO2,M
MEV,2022-08-01 02:15,-119.7500,38.9963,1441.42,82.40,50.00,32.46,200.00,7.00,0.00,30.12,M,10.00,M,BKN,M,M,M,12000.00,M,M,M,M,M,M,M,M,M,M,80.99,KMEV 010215Z AUTO 20007KT 10SM BKN120 28/10 A3012 RMK AO2,M
BAM,2022-08-01 02:15,-116.8743,40.5990,1382.36,98.60,19.40,5.76,10.00,4.00,0.00,30.01,M,10.00,M,CLR,M,M,M,M,M,M,M,M,M,M,M,M,M,M,91.49,KBAM 010215Z AUTO 01004KT 10SM CLR 37/M07 A3001 RMK AO1,M
HTH,2022-08-01 02:15,-118.6315,38.5448,1282.89,71.60,60.80,68.75,170.00,21.00,0.00,30.15,M,4.00,29.00,FEW,SCT,BKN,M,3300.00,5000.00,6500.00,M,HZ,M,M,M,M,M,M,71.60,KHTH 010215Z AUTO 17021G29KT 4SM HZ FEW033 SCT050 BKN065 22/16 A3015 RMK A01,M
LOL,2022-08-01 02:24,-118.5701,40.0684,1192.43,93.00,41.00,16.48,200.00,12.00,0.00,29.96,M,1.25,M,OVC,M,M,M,1400.00,M,M,M,HZ,M,M,M,M,M,M,88.85,KLOL 010224Z AUTO 20012KT 1 1/4SM HZ OVC014 34/05 A2996 RMK AO2 T03390050,M
RNO,2022-08-01 02:28,-119.7711,39.4839,1341.00,88.00,56.00,33.68,270.00,8.00,0.00,30.06,M,10.00,M,CLR,M,M,M,M,M,M,M,TS,M,M,M,M,M,M,86.42,KRNO 010228Z 27008KT 10SM TS CLR 31/13 A3006 RMK AO2 TSB28 PRESRR T03110133,M
RNO,2022-08-01 02:30,-119.7711,39.4839,1341.00,88.00,56.00,33.68,250.00,8.00,0.00,30.07,M,10.00,M,SCT,BKN,BKN,M,10000.00,15000.00,19000.00,M,TS,M,M,M,M,M,M,86.42,KRNO 010230Z 25008KT 10SM TS SCT100CB BKN150CB BKN190 31/13 A3007 RMK AO2 TSB28 PRESRR OCNL LTGCG E TS E MOV W T03110133,M
CXP,2022-08-01 02:30,-119.7326,39.1923,1431.00,84.20,51.80,32.73,M,5.00,0.00,30.12,M,10.00,M,CLR,M,M,M,M,M,M,M,M,M,M,M,M,M,M,82.48,KCXP 010230Z AUTO VRB05KT 10SM CLR 29/11 A3012 RMK AO2,M
BVU,2022-08-01 02:35,-114.8611,35.9475,671.00,M,M,M,M,M,0.00,M,M,M,M,M,M,M,M,M,M,M,M,M,M,M,M,M,M,M,M,KBVU 010235Z AUTO RMK AO2 PNO PWINO TSNO,M
RTS,2022-08-01 02:35,-119.8764,39.6682,1539.00,82.40,51.80,34.69,260.00,14.00,0.00,30.12,M,10.00,20.00,CLR,M,M,M,M,M,M,M,M,M,M,M,M,M,M,81.20,KRTS 010235Z AUTO 26014G20KT 10SM CLR 28/11 A3012 RMK AO2,M
MEV,2022-08-01 02:35,-119.7500,38.9963,1441.42,80.60,51.80,36.79,160.00,10.00,0.00,30.13,M,10.00,16.00,FEW,M,M,M,12000.00,M,M,M,M,M,M,M,M,M,M,80.08,KMEV 010235Z AUTO 16010G16KT 10SM FEW120 27/11 A3013 RMK AO2,M
BAM,2022-08-01 02:35,-116.8743,40.5990,1382.36,95.00,23.00,7.49,0.00,0.00,0.00,30.01,M,10.00,M,CLR,M,M,M,M,M,M,M,M,M,M,M,M,M,M,88.76,KBAM 010235Z AUTO 00000KT 10SM CLR 35/M05 A3001 RMK AO1,M
HTH,2022-08-01 02:35,-118.6315,38.5448,1282.89,73.40,59.00,60.67,160.00,21.00,0.00,30.13,M,10.00,M,FEW,FEW,SCT,M,4300.00,5500.00,6500.00,M,M,M,M,M,M,M,M,73.40,KHTH 010235Z AUTO 16021KT 10SM FEW043 FEW055 SCT065 23/15 A3013 RMK A01,M
TMT,2022-08-01 02:35,-117.1971,39.4643,1749.34,M,M,M,210.00,13.00,0.00,30.19,M,10.00,M,CLR,M,M,M,M,M,M,M,M,M,M,M,M,M,M,M,KTMT 010235Z AUTO 21013KT 10SM CLR A3019 RMK AO2,M
CXP,2022-08-01 02:50,-119.7326,39.1923,1431.00,84.20,51.80,32.73,70.00,5.00,0.00,30.12,M,10.00,M,CLR,M,M,M,M,M,M,M,M,M,M,M,M,M,M,82.48,KCXP 010250Z AUTO 07005KT 10SM CLR 29/11 A3012 RMK AO2,M
INS,2022-08-01 02:51,-115.6733,36.5872,955.00,80.60,64.40,57.84,270.00,7.00,0.00,30.11,1014.70,10.00,M,FEW,SCT,OVC,M,4900.00,11000.00,13000.00,M,M,M,M,M,M,M,M,82.27,KINS 010251Z AUTO 27007KT 10SM FEW049 SCT110 OVC130 27/18 A3011 RMK AO2 SLP147,M
INS,2022-08-01 02:53,-115.6733,36.5872,955.00,80.60,64.40,57.84,270.00,6.00,0.00,30.11,1014.70,10.00,M,FEW,FEW,OVC,M,4900.00,10000.00,13000.00,M,-DZ,M,M,M,M,M,M,82.27,KINS 010253Z AUTO 27006KT 10SM -DZ FEW049 FEW100 OVC130 27/18 A3011 RMK AO2 DZB53 SLP147,M
ELY,2022-08-01 02:53,-114.8453,39.2950,1909.00,73.00,47.00,39.43,210.00,12.00,0.00,30.27,1014.40,10.00,18.00,FEW,M,M,M,12000.00,M,M,M,M,M,M,M,26.00,150.00,2022-08-01 02:11,73.00,KELY 010253Z AUTO 21012G18KT 10SM FEW120 23/08 A3027 RMK AO2 PK WND 15026/0211 SLP144 T02280083 53011,M
DRA,2022-08-01 02:53,-116.0278,36.6206,1009.00,77.00,66.00,68.85,220.00,5.00,0.00,30.13,1015.40,10.00,M,FEW,M,M,M,12000.00,M,M,M,M,M,M,M,M,M,M,77.00,KDRA 010253Z AUTO 22005KT 10SM FEW120 25/19 A3013 RMK AO2 SLP154 T02500189 53010,M
LOL,2022-08-01 02:53,-118.5701,40.0684,1192.43,91.00,41.00,17.54,220.00,9.00,0.00,29.98,1010.20,0.50,M,VV ,M,M,M,1100.00,M,M,M,HZ,M,M,M,M,M,M,87.04,KLOL 010253Z AUTO 22009KT 1/2SM HZ VV011 33/05 A2998 RMK AO2 SLP102 T03280050 53007,M
VGT,2022-08-01 02:53,-115.1933,36.2111,667.00,85.00,64.00,49.62,190.00,8.00,0.00,30.02,1015.60,10.00,M,CLR,M,M,M,M,M,M,M,M,M,M,M,M,M,M,86.23,KVGT 010253Z 19008KT 10SM CLR 29/18 A3002 RMK AO2 SLP156 T02940178 53003,M
P68,2022-08-01 02:53,-116.0056,39.6014,1993.00,78.00,46.00,32.15,180.00,16.00,0.00,30.20,1013.30,M,24.00,M,M,M,M,M,M,M,M,M,M,M,M,M,M,M,78.10,KP68 010253Z AUTO 18016G24KT 26/08 A3020 RMK AO1 SLP133 T02560078 53002,M
MEV,2022-08-01 02:55,-119.7500,38.9963,1441.42,78.80,51.80,39.02,0.00,0.00,0.00,30.12,M,10.00,M,CLR,M,M,M,M,M,M,M,M,M,M,M,M,M,M,78.80,KMEV 010255Z AUTO 00000KT 10SM CLR 26/11 A3012 RMK AO2,M
BAM,2022-08-01 02:55,-116.8743,40.5990,1382.36,93.20,23.00,7.92,230.00,6.00,0.00,30.02,M,10.00,M,CLR,M,M,M,M,M,M,M,M,M,M,M,M,M,M,87.42,KBAM 010255Z AUTO 23006KT 10SM CLR 34/M05 A3002 RMK AO1,M
HTH,2022-08-01 02:55,-118.6315,38.5448,1282.89,75.20,55.40,50.17,150.00,20.00,0.01,30.13,M,10.00,28.00,CLR,M,M,M,M,M,M,M,M,M,M,M,M,M,M,75.20,KHTH 010255Z AUTO 15020G28KT 10SM CLR 24/13 A3013 RMK A01 P0001,M
TMT,2022-08-01 02:55,-117.1971,39.4643,1749.34,M,M,M,240.00,14.00,0.00,30.21,M,10.00,20.00,CLR,M,M,M,M,M,M,M,M,M,M,M,M,M,M,M,KTMT 010255Z AUTO 24014G20KT 10SM CLR A3021 RMK AO2,M
BVU,2022-08-01 02:55,-114.8611,35.9475,671.00,M,M,M,M,M,0.00,M,M,M,M,M,M,M,M,M,M,M,M,M,M,M,M,M,M,M,M,KBVU 010255Z AUTO RMK AO2 PNO PWINO TSNO,M
RNO,2022-08-01 02:55,-119.7711,39.4839,1341.00,88.00,54.00,31.43,180.00,12.00,0.00,30.06,1011.60,10.00,16.00,SCT,BKN,BKN,M,10000.00,15000.00,19000.00,M,TS,M,M,M,M,M,M,85.98,KRNO 010255Z 18012G16KT 10SM TS SCT100CB BKN150CB BKN190 31/12 A3006 RMK AO2 TSB28 SLP116 OCNL LTGCGIC SE TS SE MOV SW T03110122 53008,M
RTS,2022-08-01 02:55,-119.8764,39.6682,1539.00,82.40,51.80,34.69,270.00,7.00,0.00,30.13,M,10.00,M,CLR,M,M,M,M,M,M,M,M,M,M,M,M,M,M,81.20,KRTS 010255Z AUTO 27007KT 10SM CLR 28/11 A3013 RMK AO2,M
NFL,2022-08-01 02:56,-118.7010,39.4166,1199.00,84.00,52.00,33.19,190.00,27.00,0.00,30.02,1013.60,6.00,32.00,SCT,M,M,M,11000.00,M,M,M,HZ,M,M,M,34.00,190.00,2022-08-01 02:29,82.36,KNFL 010256Z AUTO 19027G32KT 6SM HZ SCT110 29/11 A3002 RMK AO2 PK WND 19034/0229 SLP136 T02890111 53006,M
LAS,2022-08-01 02:56,-115.1634,36.0719,663.00,82.00,64.00,54.50,190.00,10.00,0.00,30.03,1014.40,10.00,M,BKN,OVC,M,M,14000.00,20000.00,M,M,M,M,M,M,M,M,M,83.47,KLAS 010256Z 19010KT 10SM BKN140 OVC200 28/18 A3003 RMK AO2 SLP144 T02780178 53003,M
EKO,2022-08-01 02:56,-115.7860,40.8242,1367.00,91.00,38.00,15.54,170.00,13.00,0.00,30.06,1011.30,10.00,M,CLR,M,M,M,M,M,M,M,M,M,M,M,M,M,M,86.90,KEKO 010256Z AUTO 17013KT 10SM CLR 33/03 A3006 RMK AO2 SLP113 T03280033 55001,M
HND,2022-08-01 02:56,-115.1344,35.9729,742.79,79.00,67.00,66.49,220.00,15.00,0.00,30.07,1017.20,10.00,M,CLR,M,M,M,M,M,M,M,M,M,M,M,M,M,M,79.00,KHND 010256Z 22015KT 10SM CLR 26/19 A3007 RMK AO2 SLP172 T02610194 53003,M
TPH,2022-08-01 02:56,-117.0904,38.0505,1654.00,68.00,60.00,75.84,60.00,10.00,0.00,30.32,1019.40,10.00,16.00,BKN,BKN,OVC,M,7000.00,8000.00,12000.00,M,M,M,M,M,M,M,M,68.00,KTPH 010256Z AUTO 06010G16KT 10SM BKN070 BKN080 OVC120 20/16 A3032 RMK AO2 PRESRR SLP194 60108 T02000156 53010,M
WMC,2022-08-01 02:56,-117.8072,40.9019,1315.00,94.00,24.10,8.12,0.00,0.00,0.00,29.98,1008.90,10.00,M,CLR,M,M,M,M,M,M,M,M,M,M,M,M,M,M,88.03,KWMC 010256Z AUTO 00000KT 10SM CLR 34/M04 A2998 RMK AO2 SLP089 T03441044 55004,M
LSV,2022-08-01 02:58,-115.0343,36.2362,570.00,87.60,63.00,43.96,190.00,9.00,0.00,30.01,1013.80,10.00,M,BKN,M,M,M,14000.00,M,M,M,M,M,M,M,M,M,M,88.46,KLSV 010258Z 19009KT 10SM BKN140 31/17 A3001 RMK SLP138 T03090172 53004 $,M
INS,2022-08-01 02:58,-115.6733,36.5872,955.00,80.00,64.20,58.77,270.00,7.00,T,30.11,1014.70,10.00,M,FEW,FEW,OVC,M,4900.00,11000.00,13000.00,M,-DZ,M,M,M,M,M,M,79.90,KINS 010258Z AUTO 27007KT 10SM -DZ FEW049 FEW110 OVC130 27/18 A3011 RMK AO2 DZB53 SLP147 P0000 60000 T02660179 53012,M
LOL,2022-08-01 02:59,-118.5701,40.0684,1192.43,91.00,41.00,17.54,240.00,10.00,0.00,29.99,M,0.25,M,VV ,M,M,M,900.00,M,M,M,HZ,M,M,M,M,M,M,87.04,KLOL 010259Z AUTO 24010KT 1/4SM HZ VV009 33/05 A2999 RMK AO2 T03280050,M
LOL,2022-08-01 03:03,-118.5701,40.0684,1192.43,91.00,42.00,18.30,240.00,10.00,0.00,29.99,M,0.50,M,VV ,M,M,M,1100.00,M,M,M,HZ,M,M,M,M,M,M,87.11,KLOL 010303Z AUTO 24010KT 1/2SM HZ VV011 33/06 A2999 RMK AO2 T03280056,M
RNO,2022-08-01 03:05,-119.7711,39.4839,1341.00,88.00,53.00,30.41,180.00,22.00,0.00,30.06,M,10.00,27.00,SCT,BKN,BKN,M,10000.00,15000.00,19000.00,M,M,M,M,M,28.00,170.00,2022-08-01 03:04,85.80,KRNO 010305Z 18022G27KT 10SM SCT100 BKN150 BKN190 31/12 A3006 RMK AO2 PK WND 17028/0304 TSE05 TS DSIPTD SH S T03110117,M
CXP,2022-08-01 03:10,-119.7326,39.1923,1431.00,82.40,51.80,34.69,M,3.00,0.00,30.13,M,10.00,M,CLR,M,M,M,M,M,M,M,M,M,M,M,M,M,M,81.20,KCXP 010310Z AUTO VRB03KT 10SM CLR 28/11 A3013 RMK AO2,M
LOL,2022-08-01 03:10,-118.5701,40.0684,1192.43,91.00,41.00,17.54,220.00,10.00,0.00,29.99,M,2.50,M,OVC,M,M,M,1400.00,M,M,M,HZ,M,M,M,M,M,M,87.04,KLOL 010310Z AUTO 22010KT 2 1/2SM HZ OVC014 33/05 A2999 RMK AO2 T03280050,M
INS,2022-08-01 03:14,-115.6733,36.5872,955.00,78.80,64.40,61.36,300.00,4.00,0.00,30.11,1014.70,10.00,M,FEW,BKN,M,M,10000.00,13000.00,M,M,M,M,M,M,M,M,M,78.80,KINS 010314Z AUTO 30004KT 10SM FEW100 BKN130 26/18 A3011 RMK AO2 DZE14 SLP147,M
BAM,2022-08-01 03:15,-116.8743,40.5990,1382.36,87.80,32.00,13.59,240.00,8.00,0.00,30.03,M,10.00,M,CLR,M,M,M,M,M,M,M,M,M,M,M,M,M,M,84.08,KBAM 010315Z AUTO 24008KT 10SM CLR 31/00 A3003 RMK AO1,M
RTS,2022-08-01 03:15,-119.8764,39.6682,1539.00,82.40,51.80,34.69,310.00,13.00,0.00,30.15,M,10.00,M,CLR,M,M,M,M,M,M,M,M,M,M,M,M,M,M,81.20,KRTS 010315Z AUTO 31013KT 10SM CLR 28/11 A3015 RMK AO2,M
LOL,2022-08-01 03:15,-118.5701,40.0684,1192.43,90.00,41.00,18.10,220.00,11.00,0.00,29.99,M,7.00,M,OVC,M,M,M,1600.00,M,M,M,M,M,M,M,M,M,M,86.16,KLOL 010315Z AUTO 22011KT 7SM OVC016 32/05 A2999 RMK AO2 T03220050,M
BVU,2022-08-01 03:15,-114.8611,35.9475,671.00,M,M,M,M,M,0.00,M,M,M,M,M,M,M,M,M,M,M,M,M,M,M,M,M,M,M,M,KBVU 010315Z AUTO RMK AO2 PNO PWINO TSNO,M
TMT,2022-08-01 03:15,-117.1971,39.4643,1749.34,M,M,M,230.00,11.00,0.00,30.21,M,10.00,M,CLR,M,M,M,M,M,M,M,M,M,M,M,M,M,M,M,KTMT 010315Z AUTO 23011KT 10SM CLR A3021 RMK AO2,M
HTH,2022-08-01 03:15,-118.6315,38.5448,1282.89,75.20,57.20,53.55,150.00,18.00,0.00,30.13,M,10.00,27.00,CLR,M,M,M,M,M,M,M,M,M,M,M,M,M,M,75.20,KHTH 010315Z AUTO 15018G27KT 10SM CLR 24/14 A3013 RMK A01,M
MEV,2022-08-01 03:15,-119.7500,38.9963,1441.42,77.00,51.80,41.42,120.00,6.00,0.00,30.12,M,10.00,M,CLR,M,M,M,M,M,M,M,M,M,M,M,M,M,M,77.00,KMEV 010315Z AUTO 12006KT 10SM CLR 25/11 A3012 RMK AO2,M
LOL,2022-08-01 03:22,-118.5701,40.0684,1192.43,90.00,45.00,21.10,210.00,22.00,0.00,30.01,M,1.75,32.00,OVC,M,M,M,1600.00,M,M,M,HZ,M,M,M,32.00,220.00,2022-08-01 03:19,86.45,KLOL 010322Z AUTO 21022G32KT 1 3/4SM HZ OVC016 32/07 A3001 RMK AO2 PK WND 22032/0319 T03220072,M
LOL,2022-08-01 03:26,-118.5701,40.0684,1192.43,89.00,48.00,24.31,210.00,23.00,0.00,30.01,M,0.75,32.00,VV ,M,M,M,1400.00,M,M,M,HZ,M,M,M,32.00,220.00,2022-08-01 03:19,85.97,KLOL 010326Z AUTO 21023G32KT 3/4SM HZ VV014 32/09 A3001 RMK AO2 PK WND 22032/0319 T03170089,M
CXP,2022-08-01 03:30,-119.7326,39.1923,1431.00,82.40,50.00,32.46,190.00,6.00,0.00,30.14,M,10.00,M,FEW,M,M,M,12000.00,M,M,M,M,M,M,M,M,M,M,80.99,KCXP 010330Z AUTO 19006KT 10SM FEW120 28/10 A3014 RMK AO2,M
MEV,2022-08-01 03:35,-119.7500,38.9963,1441.42,78.80,51.80,39.02,0.00,0.00,0.00,30.12,M,10.00,M,CLR,M,M,M,M,M,M,M,M,M,M,M,M,M,M,78.80,KMEV 010335Z AUTO 00000KT 10SM CLR 26/11 A3012 RMK AO2,M
RTS,2022-08-01 03:35,-119.8764,39.6682,1539.00,80.60,51.80,36.79,290.00,10.00,0.00,30.16,M,10.00,16.00,CLR,M,M,M,M,M,M,M,M,M,M,M,M,M,M,80.08,KRTS 010335Z AUTO 29010G16KT 10SM CLR 27/11 A3016 RMK AO2,M
BVU,2022-08-01 03:35,-114.8611,35.9475,671.00,M,M,M,M,M,0.00,M,M,M,M,M,M,M,M,M,M,M,M,M,M,M,M,M,M,M,M,KBVU 010335Z AUTO RMK AO2 PNO PWINO TSNO,M
TMT,2022-08-01 03:35,-117.1971,39.4643,1749.34,M,M,M,220.00,7.00,0.00,30.22,M,10.00,M,CLR,M,M,M,M,M,M,M,M,M,M,M,M,M,M,M,KTMT 010335Z AUTO 22007KT 10SM CLR A3022 RMK AO2,M
HTH,2022-08-01 03:35,-118.6315,38.5448,1282.89,75.20,57.20,53.55,150.00,24.00,0.00,30.13,M,10.00,M,CLR,M,M,M,M,M,M,M,M,M,M,M,M,M,M,75.20,KHTH 010335Z AUTO 15024KT 10SM CLR 24/14 A3013 RMK A01,M
BAM,2022-08-01 03:35,-116.8743,40.5990,1382.36,87.80,35.60,15.70,230.00,9.00,0.00,30.03,M,10.00,M,CLR,M,M,M,M,M,M,M,M,M,M,M,M,M,M,84.12,KBAM 010335Z AUTO 23009KT 10SM CLR 31/02 A3003 RMK AO1,M
INS,2022-08-01 03:39,-115.6733,36.5872,955.00,78.80,64.40,61.36,300.00,3.00,0.00,30.13,1015.40,10.00,M,SCT,SCT,BKN,OVC,6000.00,8500.00,11000.00,13000.00,M,M,M,M,M,M,M,78.80,KINS 010339Z AUTO 30003KT 10SM SCT060 SCT085 BKN110 OVC130 26/18 A3013 RMK AO2 DZE14 SLP154,M
LOL,2022-08-01 03:43,-118.5701,40.0684,1192.43,87.00,50.00,27.91,210.00,20.00,0.00,30.02,M,0.25,29.00,VV ,M,M,M,700.00,M,M,M,HZ,M,M,M,32.00,220.00,2022-08-01 03:19,84.51,KLOL 010343Z AUTO 21020G29KT 1/4SM HZ VV007 31/10 A3002 RMK AO2 PK WND 22032/0319 T03060100,M
INS,2022-08-01 03:43,-115.6733,36.5872,955.00,78.80,64.40,61.36,320.00,6.00,0.00,30.13,1015.40,10.00,M,SCT,BKN,BKN,BKN,5500.00,7000.00,8500.00,11000.00,-DZ,M,M,M,M,M,M,78.80,KINS 010343Z AUTO 32006KT 10SM -DZ SCT055 BKN070 BKN085 BKN110 OVC130 26/18 A3013 RMK AO2 DZE14DZB43 SLP154,M
CXP,2022-08-01 03:50,-119.7326,39.1923,1431.00,80.60,50.00,34.41,160.00,4.00,0.00,30.14,M,10.00,10.00,FEW,M,M,M,12000.00,M,M,M,M,M,M,M,M,M,M,79.88,KCXP 010350Z AUTO 16004G10KT 10SM FEW120 27/10 A3014 RMK AO2,M
INS,2022-08-01 03:52,-115.6733,36.5872,955.00,78.80,66.20,65.33,310.00,3.00,0.00,30.13,1015.40,10.00,M,FEW,BKN,BKN,BKN,500.00,5000.00,6500.00,8500.00,-RA,M,M,M,M,M,M,78.80,KINS 010352Z AUTO 31003KT 10SM -RA FEW005 BKN050 BKN065 BKN085 OVC130 26/19 A3013 RMK AO2 DZE14DZB43E49RAB49 SLP154,M
P68,2022-08-01 03:53,-116.0056,39.6014,1993.00,74.00,47.00,38.26,210.00,13.00,0.00,30.24,1014.30,M,22.00,M,M,M,M,M,M,M,M,M,M,M,M,M,M,M,73.90,KP68 010353Z AUTO 21013G22KT 23/08 A3024 RMK AO1 SLP143 T02330083,M
VGT,2022-08-01 03:53,-115.1933,36.2111,667.00,85.00,63.00,47.91,130.00,4.00,0.00,30.04,1016.20,10.00,M,FEW,M,M,M,8000.00,M,M,M,M,M,M,M,M,M,M,85.83,KVGT 010353Z 13004KT 10SM FEW080 29/17 A3004 RMK AO2 SLP162 T02940172,M
DRA,2022-08-01 03:53,-116.0278,36.6206,1009.00,75.00,69.00,81.90,280.00,5.00,0.01,30.15,1016.30,10.00,M,OVC,M,M,M,11000.00,M,M,M,M,M,M,M,M,M,M,75.00,KDRA 010353Z AUTO 28005KT 10SM OVC110 24/21 A3015 RMK AO2 RAB20E41 SLP163 P0001 T02390206,M
ELY,2022-08-01 03:53,-114.8453,39.2950,1909.00,70.00,49.00,47.06,200.00,15.00,0.00,30.29,1014.90,10.00,M,CLR,M,M,M,M,M,M,M,M,M,M,M,29.00,200.00,2022-08-01 03:06,70.00,KELY 010353Z AUTO 20015KT 10SM CLR 21/09 A3029 RMK AO2 PK WND 20029/0306 SLP149 T02110094,M
LOL,2022-08-01 03:53,-118.5701,40.0684,1192.43,87.00,50.00,27.91,210.00,18.00,0.00,30.02,1011.40,0.25,M,VV ,M,M,M,400.00,M,M,M,HZ,M,M,M,32.00,220.00,2022-08-01 03:19,84.51,KLOL 010353Z AUTO 21018KT 1/4SM HZ VV004 31/10 A3002 RMK AO2 PK WND 22032/0319 SLP114 T03060100,M
HTH,2022-08-01 03:55,-118.6315,38.5448,1282.89,75.20,55.40,50.17,150.00,23.00,0.00,30.13,M,10.00,M,CLR,M,M,M,M,M,M,M,M,M,M,M,M,M,M,75.20,KHTH 010355Z AUTO 15023KT 10SM CLR 24/13 A3013 RMK A01,M
TMT,2022-08-01 03:55,-117.1971,39.4643,1749.34,M,M,M,240.00,4.00,0.00,30.24,M,10.00,M,CLR,M,M,M,M,M,M,M,M,M,M,M,M,M,M,M,KTMT 010355Z AUTO 24004KT 10SM CLR A3024 RMK AO2,M
BVU,2022-08-01 03:55,-114.8611,35.9475,671.00,M,M,M,M,M,0.00,M,M,M,M,M,M,M,M,M,M,M,M,M,M,M,M,M,M,M,M,KBVU 010355Z AUTO RMK AO2 PNO PWINO TSNO,M
RNO,2022-08-01 03:55,-119.7711,39.4839,1341.00,86.00,54.00,33.50,130.00,10.00,0.00,30.08,1012.00,10.00,M,SCT,BKN,BKN,M,12000.00,15000.00,19000.00,M,M,M,M,M,28.00,170.00,2022-08-01 03:04,84.26,KRNO 010355Z 13010KT 10SM SCT120 BKN150 BKN190 30/12 A3008 RMK AO2 PK WND 17028/0304 WSHFT 0302 TSE05 SLP120 TS DSIPTD T03000122,M
RTS,2022-08-01 03:55,-119.8764,39.6682,1539.00,78.80,51.80,39.02,290.00,8.00,0.00,30.16,M,10.00,M,CLR,M,M,M,M,M,M,M,M,M,M,M,M,M,M,78.80,KRTS 010355Z AUTO 29008KT 10SM CLR 26/11 A3016 RMK AO2,M
MEV,2022-08-01 03:55,-119.7500,38.9963,1441.42,75.20,51.80,43.97,80.00,5.00,0.00,30.13,M,10.00,M,CLR,M,M,M,M,M,M,M,M,M,M,M,M,M,M,75.20,KMEV 010355Z AUTO 08005KT 10SM CLR 24/11 A3013 RMK AO2,M
BAM,2022-08-01 03:55,-116.8743,40.5990,1382.36,87.80,37.40,16.86,240.00,12.00,0.00,30.04,M,10.00,M,CLR,M,M,M,M,M,M,M,M,M,M,M,M,M,M,84.16,KBAM 010355Z AUTO 24012KT 10SM CLR 31/03 A3004 RMK AO1,M
HND,2022-08-01 03:56,-115.1344,35.9729,742.79,78.00,66.00,66.39,190.00,8.00,0.00,30.09,1017.90,10.00,M,FEW,M,M,M,12000.00,M,M,M,M,M,M,M,M,M,M,78.10,KHND 010356Z AUTO 19008KT 10SM FEW120 26/19 A3009 RMK AO2 SLP179 T02560189,M
LAS,2022-08-01 03:56,-115.1634,36.0719,663.00,81.00,64.00,56.30,160.00,8.00,0.00,30.04,1014.70,10.00,M,BKN,BKN,M,M,14000.00,20000.00,M,M,M,M,M,M,M,M,M,82.54,KLAS 010356Z 16008KT 10SM BKN140 BKN200 27/18 A3004 RMK AO2 SLP147 T02720178,M
TPH,2022-08-01 03:56,-117.0904,38.0505,1654.00,64.00,59.00,83.78,320.00,8.00,0.01,30.32,1019.70,10.00,M,FEW,OVC,M,M,6500.00,8000.00,M,M,-RA,M,M,M,26.00,100.00,2022-08-01 03:04,64.00,KTPH 010356Z AUTO 32008KT 10SM -RA FEW065 OVC080 18/15 A3032 RMK AO2 PK WND 10026/0304 RAB20 SLP197 P0001 T01780150,M
NFL,2022-08-01 03:56,-118.7010,39.4166,1199.00,81.00,52.00,36.58,190.00,21.00,0.00,30.05,1014.50,10.00,28.00,CLR,M,M,M,M,M,M,M,M,M,M,M,32.00,180.00,2022-08-01 03:23,80.34,KNFL 010356Z AUTO 19021G28KT 10SM CLR 27/11 A3005 RMK AO2 PK WND 18032/0323 SLP145 T02720111,M
WMC,2022-08-01 03:56,-117.8072,40.9019,1315.00,80.00,25.00,13.08,0.00,0.00,0.00,29.99,1009.60,10.00,M,CLR,M,M,M,M,M,M,M,M,M,M,M,M,M,M,78.42,KWMC 010356Z AUTO 00000KT 10SM CLR 27/M04 A2999 RMK AO2 SLP096 T02671039,M
EKO,2022-08-01 03:56,-115.7860,40.8242,1367.00,85.00,39.00,19.69,250.00,5.00,0.00,30.09,1011.90,10.00,16.00,CLR,M,M,M,M,M,M,M,M,M,M,M,M,M,M,81.95,KEKO 010356Z AUTO 25005G16KT 10SM CLR 29/04 A3009 RMK AO2 SLP119 T02940039,M
LSV,2022-08-01 03:57,-115.0343,36.2362,570.00,85.30,65.70,51.99,240.00,7.00,0.00,30.03,1014.50,10.00,M,BKN,BKN,M,M,12000.00,20000.00,M,M,M,M,M,M,M,M,M,87.40,KLSV 010357Z 24007KT 10SM BKN120 BKN200 30/19 A3003 RMK SLP145 T02960187 $,M
INS,2022-08-01 03:58,-115.6733,36.5872,955.00,77.20,68.20,73.80,350.00,4.00,T,30.14,1015.90,10.00,M,FEW,SCT,BKN,BKN,100.00,500.00,5000.00,6500.00,+RA,M,M,M,M,M,M,77.20,KINS 010358Z AUTO 35004KT 10SM +RA FEW001 SCT005 BKN050 BKN065 OVC085 25/20 A3014 RMK AO2 DZE14DZB43E49RAB49 SLP159 P0000 T02510201,M
INS,2022-08-01 04:03,-115.6733,36.5872,955.00,75.20,68.00,78.34,30.00,13.00,0.00,30.14,1015.90,7.00,M,SCT,BKN,OVC,M,100.00,2200.00,5000.00,M,+RA,M,M,M,M,M,M,75.20,KINS 010403Z AUTO 03013KT 7SM +RA SCT001 BKN022 OVC050 24/20 A3014 RMK AO2 VIS 1 RWY26 BKN V SCT SLP159,M
LOL,2022-08-01 04:04,-118.5701,40.0684,1192.43,86.00,49.00,27.74,190.00,15.00,0.00,30.03,M,0.25,M,VV ,M,M,M,300.00,M,M,M,HZ,M,M,M,M,M,M,83.48,KLOL 010404Z AUTO 19015KT 1/4SM HZ VV003 30/09 A3003 RMK AO2 T03000094,M
CXP,2022-08-01 04:10,-119.7326,39.1923,1431.00,80.60,50.00,34.41,0.00,0.00,0.00,30.14,M,10.00,M,CLR,M,M,M,M,M,M,M,M,M,M,M,M,M,M,79.88,KCXP 010410Z AUTO 00000KT 10SM CLR 27/10 A3014 RMK AO2,M
LOL,2022-08-01 04:10,-118.5701,40.0684,1192.43,85.00,49.00,28.74,200.00,15.00,0.00,30.03,M,0.50,M,VV ,M,M,M,400.00,M,M,M,HZ,M,M,M,M,M,M,82.63,KLOL 010410Z AUTO 20015KT 1/2SM HZ VV004 29/09 A3003 RMK AO2 T02940094,M
INS,2022-08-01 04:13,-115.6733,36.5872,955.00,71.60,69.80,94.06,10.00,13.00,0.00,30.14,1016.10,4.00,M,BKN,BKN,OVC,M,200.00,2100.00,5000.00,M,+RA,M,M,M,M,M,M,71.60,KINS 010413Z AUTO 01013KT 4SM +RA BKN002 BKN021 OVC050 22/21 A3014 RMK AO2 VIS 1 7/8 RWY26 SLP161,M
TMT,2022-08-01 04:15,-117.1971,39.4643,1749.34,M,M,M,280.00,4.00,0.00,30.24,M,10.00,M,CLR,M,M,M,M,M,M,M,M,M,M,M,M,M,M,M,KTMT 010415Z AUTO 28004KT 10SM CLR A3024 RMK AO2,M
RTS,2022-08-01 04:15,-119.8764,39.6682,1539.00,78.80,51.80,39.02,300.00,12.00,0.00,30.17,M,10.00,M,CLR,M,M,M,M,M,M,M,M,M,M,M,M,M,M,78.80,KRTS 010415Z AUTO 30012KT 10SM CLR 26/11 A3017 RMK AO2,M
MEV,2022-08-01 04:15,-119.7500,38.9963,1441.42,75.20,51.80,43.97,0.00,0.00,0.00,30.14,M,10.00,M,CLR,M,M,M,M,M,M,M,M,M,M,M,M,M,M,75.20,KMEV 010415Z AUTO 00000KT 10SM CLR 24/11 A3014 RMK AO2,M
BAM,2022-08-01 04:15,-116.8743,40.5990,1382.36,87.80,37.40,16.86,230.00,10.00,0.00,30.05,M,10.00,M,CLR,M,M,M,M,M,M,M,M,M,M,M,M,M,M,84.16,KBAM 010415Z AUTO 23010KT 10SM CLR 31/03 A3005 RMK AO1,M
BVU,2022-08-01 04:15,-114.8611,35.9475,671.00,M,M,M,M,M,0.00,M,M,M,M,M,M,M,M,M,M,M,M,M,M,M,M,M,M,M,M,KBVU 010415Z AUTO RMK AO2 PNO PWINO TSNO,M
HTH,2022-08-01 04:15,-118.6315,38.5448,1282.89,75.20,55.40,50.17,140.00,18.00,0.00,30.14,M,10.00,M,CLR,M,M,M,M,M,M,M,M,M,M,M,M,M,M,75.20,KHTH 010415Z AUTO 14018KT 10SM CLR 24/13 A3014 RMK A01,M
LOL,2022-08-01 04:17,-118.5701,40.0684,1192.43,84.00,50.00,30.82,210.00,16.00,0.00,30.04,M,1.00,M,VV ,M,M,M,700.00,M,M,M,HZ,M,M,M,M,M,M,82.09,KLOL 010417Z AUTO 21016KT 1SM HZ VV007 29/10 A3004 RMK AO2 T02890100,M
INS,2022-08-01 04:23,-115.6733,36.5872,955.00,71.60,71.60,100.00,10.00,12.00,0.00,30.14,1016.10,9.00,M,BKN,BKN,OVC,M,200.00,2100.00,7500.00,M,-RA,M,M,M,M,M,M,71.60,KINS 010423Z AUTO 01012KT 9SM -RA BKN002 BKN021 OVC075 22/22 A3014 RMK AO2 LTG DSNT SE SLP161,M
INS,2022-08-01 04:28,-115.6733,36.5872,955.00,71.60,71.60,100.00,10.00,11.00,0.00,30.14,1016.10,10.00,M,SCT,BKN,OVC,M,200.00,2100.00,7500.00,M,-RA,M,M,M,M,M,M,71.60,KINS 010428Z AUTO 01011KT 10SM -RA SCT002 BKN021 OVC075 22/22 A3014 RMK AO2 LTG DSNT SE BKN V OVC SLP161,M
LOL,2022-08-01 04:29,-118.5701,40.0684,1192.43,83.00,50.00,31.93,190.00,21.00,0.00,30.04,M,2.00,28.00,OVC,M,M,M,1000.00,M,M,M,HZ,M,M,M,28.00,190.00,2022-08-01 04:23,81.32,KLOL 010429Z AUTO 19021G28KT 2SM HZ OVC010 28/10 A3004 RMK AO2 PK WND 19028/0423 T02830100,M
CXP,2022-08-01 04:30,-119.7326,39.1923,1431.00,78.80,50.00,36.51,0.00,0.00,0.00,30.14,M,10.00,M,CLR,M,M,M,M,M,M,M,M,M,M,M,M,M,M,78.80,KCXP 010430Z AUTO 00000KT 10SM CLR 26/10 A3014 RMK AO2,M
INS,2022-08-01 04:32,-115.6733,36.5872,955.00,71.60,71.60,100.00,10.00,10.00,0.00,30.14,1016.10,10.00,M,SCT,OVC,M,M,200.00,7500.00,M,M,M,M,M,M,M,M,M,71.60,KINS 010432Z AUTO 01010KT 10SM SCT002 OVC075 22/22 A3014 RMK AO2 LTG DSNT SE RAE32 SLP161,M
BVU,2022-08-01 04:35,-114.8611,35.9475,671.00,M,M,M,M,M,0.00,M,M,M,M,M,M,M,M,M,M,M,M,M,M,M,M,M,M,M,M,KBVU 010435Z AUTO RMK AO2 PNO PWINO TSNO,M
MEV,2022-08-01 04:35,-119.7500,38.9963,1441.42,75.20,51.80,43.97,180.00,10.00,0.00,30.15,M,10.00,M,CLR,M,M,M,M,M,M,M,M,M,M,M,M,M,M,75.20,KMEV 010435Z AUTO 18010KT 10SM CLR 24/11 A3015 RMK AO2,M
BAM,2022-08-01 04:35,-116.8743,40.5990,1382.36,86.00,37.40,17.85,240.00,9.00,0.00,30.05,M,10.00,M,CLR,M,M,M,M,M,M,M,M,M,M,M,M,M,M,82.73,KBAM 010435Z AUTO 24009KT 10SM CLR 30/03 A3005 RMK AO1,M
TMT,2022-08-01 04:35,-117.1971,39.4643,1749.34,M,M,M,180.00,3.00,0.00,30.24,M,10.00,M,CLR,M,M,M,M,M,M,M,M,M,M,M,M,M,M,M,KTMT 010435Z AUTO 18003KT 10SM CLR A3024 RMK AO2,M
HTH,2022-08-01 04:35,-118.6315,38.5448,1282.89,75.20,53.60,46.98,140.00,16.00,0.00,30.15,M,10.00,22.00,CLR,M,M,M,M,M,M,M,M,M,M,M,M,M,M,75.20,KHTH 010435Z AUTO 14016G22KT 10SM CLR 24/12 A3015 RMK A01,M
RTS,2022-08-01 04:35,-119.8764,39.6682,1539.00,78.80,50.00,36.51,300.00,11.00,0.00,30.17,M,10.00,M,CLR,M,M,M,M,M,M,M,M,M,M,M,M,M,M,78.80,KRTS 010435Z AUTO 30011KT 10SM CLR 26/10 A3017 RMK AO2,M
INS,2022-08-01 04:40,-115.6733,36.5872,955.00,71.60,71.60,100.00,360.00,9.00,0.00,30.14,1016.10,10.00,M,FEW,BKN,OVC,M,200.00,7500.00,10000.00,M,-RA,M,M,M,M,M,M,71.60,KINS 010440Z AUTO 36009KT 10SM -RA FEW002 BKN075 OVC100 22/22 A3014 RMK AO2 RAE32RAB40 SLP161,M
CXP,2022-08-01 04:50,-119.7326,39.1923,1431.00,78.80,50.00,36.51,M,6.00,0.00,30.15,M,10.00,M,CLR,M,M,M,M,M,M,M,M,M,M,M,M,M,M,78.80,KCXP 010450Z AUTO VRB06KT 10SM CLR 26/10 A3015 RMK AO2,M
DRA,2022-08-01 04:53,-116.0278,36.6206,1009.00,75.00,68.00,78.86,350.00,5.00,0.00,30.15,1016.20,10.00,M,BKN,M,M,M,11000.00,M,M,M,M,M,M,M,M,M,M,75.00,KDRA 010453Z AUTO 35005KT 10SM BKN110 24/20 A3015 RMK AO2 SLP162 T02390200,M
LOL,2022-08-01 04:53,-118.5701,40.0684,1192.43,82.00,52.00,35.41,190.00,22.00,0.00,30.05,1012.10,3.00,28.00,OVC,M,M,M,1200.00,M,M,M,HZ,M,M,M,29.00,200.00,2022-08-01 04:43,80.97,KLOL 010453Z AUTO 19022G28KT 3SM HZ OVC012 28/11 A3005 RMK AO2 PK WND 20029/0443 SLP121 T02780111,M
VGT,2022-08-01 04:53,-115.1933,36.2111,667.00,84.00,64.00,51.08,80.00,6.00,0.00,30.04,1016.10,10.00,M,CLR,M,M,M,M,M,M,M,M,M,M,M,M,M,M,85.36,KVGT 010453Z AUTO 08006KT 10SM CLR 29/18 A3004 RMK AO2 SLP161 T02890178,M
ELY,2022-08-01 04:53,-114.8453,39.2950,1909.00,69.00,49.00,48.53,220.00,13.00,0.00,30.30,1014.80,10.00,20.00,CLR,M,M,M,M,M,M,M,M,M,M,M,M,M,M,69.10,KELY 010453Z AUTO 22013G20KT 10SM CLR 21/09 A3030 RMK AO2 SLP148 T02060094,M
P68,2022-08-01 04:53,-116.0056,39.6014,1993.00,72.00,47.00,40.79,200.00,14.00,0.00,30.25,1014.70,M,21.00,M,M,M,M,M,M,M,M,M,M,M,M,M,M,M,72.00,KP68 010453Z AUTO 20014G21KT 22/08 A3025 RMK AO1 SLP147 T02220083,M
BVU,2022-08-01 04:55,-114.8611,35.9475,671.00,M,M,M,M,M,0.00,M,M,M,M,M,M,M,M,M,M,M,M,M,M,M,M,M,M,M,M,KBVU 010455Z AUTO RMK AO2 PNO PWINO TSNO,M
RNO,2022-08-01 04:55,-119.7711,39.4839,1341.00,84.00,54.00,35.72,260.00,5.00,0.00,30.11,1012.80,10.00,M,FEW,SCT,BKN,M,12000.00,15000.00,19000.00,M,M,M,M,M,M,M,M,82.67,KRNO 010455Z 26005KT 10SM FEW120 SCT150 BKN190 29/12 A3011 RMK AO2 SLP128 T02890122,M
RTS,2022-08-01 04:55,-119.8764,39.6682,1539.00,77.00,50.00,38.74,280.00,5.00,0.00,30.18,M,10.00,M,CLR,M,M,M,M,M,M,M,M,M,M,M,M,M,M,77.00,KRTS 010455Z AUTO 28005KT 10SM CLR 25/10 A3018 RMK AO2,M
MEV,2022-08-01 04:55,-119.7500,38.9963,1441.42,77.00,51.80,41.42,190.00,8.00,0.00,30.15,M,10.00,M,CLR,M,M,M,M,M,M,M,M,M,M,M,M,M,M,77.00,KMEV 010455Z AUTO 19008KT 10SM CLR 25/11 A3015 RMK AO2,M
BAM,2022-08-01 04:55,-116.8743,40.5990,1382.36,84.20,37.40,18.91,210.00,6.00,0.00,30.06,M,10.00,M,CLR,M,M,M,M,M,M,M,M,M,M,M,M,M,M,81.38,KBAM 010455Z AUTO 21006KT 10SM CLR 29/03 A3006 RMK AO1,M
HTH,2022-08-01 04:55,-118.6315,38.5448,1282.89,73.40,55.40,53.29,110.00,20.00,0.00,30.16,M,10.00,M,CLR,M,M,M,M,M,M,M,M,M,M,M,M,M,M,73.40,KHTH 010455Z AUTO 11020KT 10SM CLR 23/13 A3016 RMK A01,M
TMT,2022-08-01 04:55,-117.1971,39.4643,1749.34,M,M,M,180.00,5.00,0.00,30.24,M,10.00,M,CLR,M,M,M,M,M,M,M,M,M,M,M,M,M,M,M,KTMT 010455Z AUTO 18005KT 10SM CLR A3024 RMK AO2,M
HND,2022-08-01 04:56,-115.1344,35.9729,742.79,78.00,65.00,63.90,170.00,9.00,0.00,30.08,1017.40,10.00,M,CLR,M,M,M,M,M,M,M,M,M,M,M,M,M,M,78.10,KHND 010456Z AUTO 17009KT 10SM CLR 26/18 A3008 RMK AO2 SLP174 T02560183,M
NFL,2022-08-01 04:56,-118.7010,39.4166,1199.00,80.00,53.00,39.23,170.00,15.00,0.00,30.09,1015.80,10.00,M,CLR,M,M,M,M,M,M,M,M,M,M,M,27.00,190.00,2022-08-01 03:57,79.94,KNFL 010456Z AUTO 17015KT 10SM CLR 27/12 A3009 RMK AO2 PK WND 19027/0357 SLP158 T02670117,M
TPH,2022-08-01 04:56,-117.0904,38.0505,1654.00,65.00,61.00,87.18,320.00,6.00,T,30.30,1018.80,10.00,M,FEW,OVC,M,M,8000.00,10000.00,M,M,M,M,M,M,M,M,M,64.90,KTPH 010456Z AUTO 32006KT 10SM FEW080 OVC100 18/16 A3030 RMK AO2 RAE07 SLP188 P0000 T01830161,M
EKO,2022-08-01 04:56,-115.7860,40.8242,1367.00,81.00,39.00,22.33,250.00,3.00,0.00,30.11,1012.30,10.00,M,CLR,M,M,M,M,M,M,M,M,M,M,M,M,M,M,79.33,KEKO 010456Z AUTO 25003KT 10SM CLR 27/04 A3011 RMK AO2 SLP123 T02720039,M
LAS,2022-08-01 04:56,-115.1634,36.0719,663.00,80.00,65.00,59.83,190.00,7.00,0.00,30.04,1014.50,10.00,M,BKN,BKN,M,M,14000.00,20000.00,M,M,M,M,M,M,M,M,M,81.91,KLAS 010456Z 19007KT 10SM BKN140 BKN200 27/18 A3004 RMK AO2 SLP145 T02670183,M
WMC,2022-08-01 04:56,-117.8072,40.9019,1315.00,85.00,35.00,16.88,180.00,9.00,0.00,30.01,1009.60,10.00,M,CLR,M,M,M,M,M,M,M,M,M,M,M,M,M,M,81.84,KWMC 010456Z AUTO 18009KT 10SM CLR 29/02 A3001 RMK AO2 SLP096 T02940017,M
LSV,2022-08-01 04:58,-115.0343,36.2362,570.00,84.20,62.60,48.32,200.00,6.00,0.00,30.02,1014.10,10.00,M,BKN,BKN,M,M,12000.00,20000.00,M,M,M,M,M,M,M,M,M,85.03,KLSV 010458Z 20006KT 10SM BKN120 BKN200 29/17 A3002 RMK SLP141 WND DATA ESTMD ALSTG/SLP ESTMD,M
INS,2022-08-01 04:58,-115.6733,36.5872,955.00,71.40,71.00,98.99,350.00,3.00,T,30.14,1016.10,10.00,M,FEW,BKN,BKN,OVC,1600.00,6500.00,8000.00,11000.00,-RA,M,M,M,M,M,M,71.40,KINS 010458Z AUTO 35003KT 10SM -RA FEW016 BKN065 BKN080 OVC110 22/22 A3014 RMK AO2 RAE32RAB40 SLP161 P0000 T02190217,M
CXP,2022-08-01 05:10,-119.7326,39.1923,1431.00,80.60,50.00,34.41,M,5.00,0.00,30.16,M,10.00,M,CLR,M,M,M,M,M,M,M,M,M,M,M,M,M,M,79.88,KCXP 010510Z AUTO VRB05KT 10SM CLR 27/10 A3016 RMK AO2,M
INS,2022-08-01 05:11,-115.6733,36.5872,955.00,71.60,71.60,100.00,190.00,4.00,0.00,30.14,1016.10,10.00,M,FEW,BKN,BKN,OVC,3900.00,6000.00,8500.00,12000.00,M,M,M,M,M,M,M,71.60,KINS 010511Z AUTO 19004KT 10SM FEW039 BKN060 BKN085 OVC120 22/22 A3014 RMK AO2 RAE11 SLP161,M
BVU,2022-08-01 05:15,-114.8611,35.9475,671.00,M,M,M,M,M,0.00,M,M,M,M,M,M,M,M,M,M,M,M,M,M,M,M,M,M,M,M,KBVU 010515Z AUTO RMK AO2 PNO PWINO TSNO,M
HTH,2022-08-01 05:15,-118.6315,38.5448,1282.89,71.60,57.20,60.44,120.00,13.00,0.00,30.17,M,10.00,20.00,CLR,M,M,M,M,M,M,M,M,M,M,M,M,M,M,71.60,KHTH 010515Z AUTO 12013G20KT 10SM CLR 22/14 A3017 RMK A01,M
TMT,2022-08-01 05:15,-117.1971,39.4643,1749.34,M,M,M,140.00,7.00,0.00,30.25,M,10.00,M,CLR,M,M,M,M,M,M,M,M,M,M,M,M,M,M,M,KTMT 010515Z AUTO 14007KT 10SM CLR A3025 RMK AO2,M
RTS,2022-08-01 05:15,-119.8764,39.6682,1539.00,77.00,48.20,36.22,290.00,9.00,0.00,30.19,M,10.00,14.00,CLR,M,M,M,M,M,M,M,M,M,M,M,M,M,M,77.00,KRTS 010515Z AUTO 29009G14KT 10SM CLR 25/09 A3019 RMK AO2,M
BAM,2022-08-01 05:15,-116.8743,40.5990,1382.36,84.20,39.20,20.29,230.00,11.00,0.00,30.07,M,10.00,16.00,CLR,M,M,M,M,M,M,M,M,M,M,M,M,M,M,81.44,KBAM 010515Z AUTO 23011G16KT 10SM CLR 29/04 A3007 RMK AO1,M
MEV,2022-08-01 05:15,-119.7500,38.9963,1441.42,75.20,53.60,46.98,170.00,6.00,0.00,30.15,M,10.00,M,CLR,M,M,M,M,M,M,M,M,M,M,M,M,M,M,75.20,KMEV 010515Z AUTO 17006KT 10SM CLR 24/12 A3015 RMK AO2,M
INS,2022-08-01 05:16,-115.6733,36.5872,955.00,71.60,69.80,94.06,0.00,0.00,0.00,30.14,1015.90,10.00,M,FEW,SCT,OVC,M,3900.00,5500.00,12000.00,M,M,M,M,M,M,M,M,71.60,KINS 010516Z AUTO 00000KT 10SM FEW039 SCT055 OVC120 22/21 A3014 RMK AO2 RAE11 SLP159,M
LOL,2022-08-01 05:30,-118.5701,40.0684,1192.43,81.00,52.00,36.58,190.00,25.00,0.00,30.05,M,4.00,31.00,SCT,M,M,M,1300.00,M,M,M,HZ,M,M,M,31.00,190.00,2022-08-01 05:12,80.34,KLOL 010530Z AUTO 19025G31KT 4SM HZ SCT013 27/11 A3005 RMK AO2 PK WND 19031/0512 T02720111,M
CXP,2022-08-01 05:30,-119.7326,39.1923,1431.00,78.80,50.00,36.51,210.00,4.00,0.00,30.16,M,10.00,M,CLR,M,M,M,M,M,M,M,M,M,M,M,M,M,M,78.80,KCXP 010530Z AUTO 21004KT 10SM CLR 26/10 A3016 RMK AO2,M
RTS,2022-08-01 05:35,-119.8764,39.6682,1539.00,77.00,48.20,36.22,300.00,11.00,0.00,30.19,M,10.00,18.00,CLR,M,M,M,M,M,M,M,M,M,M,M,M,M,M,77.00,KRTS 010535Z AUTO 30011G18KT 10SM CLR 25/09 A3019 RMK AO2,M
BVU,2022-08-01 05:35,-114.8611,35.9475,671.00,M,M,M,M,M,0.00,M,M,M,M,M,M,M,M,M,M,M,M,M,M,M,M,M,M,M,M,KBVU 010535Z AUTO RMK AO2 PNO PWINO TSNO,M
TMT,2022-08-01 05:35,-117.1971,39.4643,1749.34,M,M,M,170.00,7.00,0.00,30.25,M,10.00,M,CLR,M,M,M,M,M,M,M,M,M,M,M,M,M,M,M,KTMT 010535Z AUTO 17007KT 10SM CLR A3025 RMK AO2,M
HTH,2022-08-01 05:35,-118.6315,38.5448,1282.89,71.60,57.20,60.44,110.00,21.00,0.00,30.18,M,10.00,31.00,CLR,M,M,M,M,M,M,M,M,M,M,M,M,M,M,71.60,KHTH 010535Z AUTO 11021G31KT 10SM CLR 22/14 A3018 RMK A01,M
BAM,2022-08-01 05:35,-116.8743,40.5990,1382.36,86.00,41.00,20.54,220.00,13.00,0.00,30.08,M,10.00,21.00,CLR,M,M,M,M,M,M,M,M,M,M,M,M,M,M,82.86,KBAM 010535Z AUTO 22013G21KT 10SM CLR 30/05 A3008 RMK AO1,M
MEV,2022-08-01 05:35,-119.7500,38.9963,1441.42,71.60,53.60,53.03,0.00,0.00,0.00,30.15,M,10.00,M,CLR,M,M,M,M,M,M,M,M,M,M,M,M,M,M,71.60,KMEV 010535Z AUTO 00000KT 10SM CLR 22/12 A3015 RMK AO2,M
LOL,2022-08-01 05:37,-118.5701,40.0684,1192.43,81.00,51.00,35.38,190.00,22.00,0.00,30.05,M,2.50,31.00,BKN,M,M,M,1300.00,M,M,M,HZ,M,M,M,31.00,190.00,2022-08-01 05:12,80.23,KLOL 010537Z AUTO 19022G31KT 2 1/2SM HZ BKN013 27/11 A3005 RMK AO2 PK WND 19031/0512 T02720106,M
WMC,2022-08-01 05:48,-117.8072,40.9019,1315.00,85.00,40.00,20.39,170.00,10.00,0.00,30.04,M,3.00,M,BKN,M,M,M,2500.00,M,M,M,HZ,M,M,M,M,M,M,81.98,KWMC 010548Z AUTO 17010KT 3SM HZ BKN025 29/04 A3004 RMK AO2 T02940044,M
CXP,2022-08-01 05:50,-119.7326,39.1923,1431.00,78.80,50.00,36.51,0.00,0.00,0.00,30.16,M,10.00,M,CLR,M,M,M,M,M,M,M,M,M,M,M,M,M,M,78.80,KCXP 010550Z AUTO 00000KT 10SM CLR 26/10 A3016 RMK AO2,M
LOL,2022-08-01 05:50,-118.5701,40.0684,1192.43,80.60,51.80,36.79,200.00,16.00,0.00,30.06,M,1.75,25.00,BKN,M,M,M,1100.00,M,M,M,HZ,M,M,M,31.00,190.00,2022-08-01 05:12,80.08,KLOL 010550Z AUTO 20016G25KT 1 3/4SM HZ BKN011 27/11 A3006 RMK AO2 PK WND 19031/0512,M
LOL,2022-08-01 05:53,-118.5701,40.0684,1192.43,81.00,51.00,35.38,200.00,16.00,0.00,30.06,1012.40,1.75,25.00,BKN,M,M,M,1100.00,M,M,M,HZ,M,M,M,31.00,190.00,2022-08-01 05:12,80.23,KLOL 010553Z AUTO 20016G25KT 1 3/4SM HZ BKN011 27/11 A3006 RMK AO2 PK WND 19031/0512 SLP124 T02720106 10394 20272 51010,M
WMC,2022-08-01 05:53,-117.8072,40.9019,1315.00,84.20,44.60,24.99,150.00,11.00,0.00,30.04,M,1.75,18.00,OVC,M,M,M,2300.00,M,M,M,HZ,M,M,M,M,M,M,81.73,KWMC 010553Z AUTO 15011G18KT 1 3/4SM HZ OVC023 29/07 A3004 RMK AO2,M
VGT,2022-08-01 05:53,-115.1933,36.2111,667.00,84.00,64.00,51.08,30.00,5.00,0.00,30.04,1016.40,10.00,M,CLR,M,M,M,M,M,M,M,M,M,M,M,M,M,M,85.36,KVGT 010553Z AUTO 03005KT 10SM CLR 29/18 A3004 RMK AO2 SLP164 T02890178 10311 20283 51008,M
ELY,2022-08-01 05:53,-114.8453,39.2950,1909.00,67.00,50.00,54.54,200.00,10.00,0.00,30.30,1014.60,10.00,M,CLR,M,M,M,M,M,M,M,M,M,M,M,M,M,M,66.90,KELY 010553Z AUTO 20010KT 10SM CLR 19/10 A3030 RMK AO2 SLP146 T01940100 10283 20194 50008,M
P68,2022-08-01 05:53,-116.0056,39.6014,1993.00,73.00,47.00,39.43,210.00,8.00,0.00,30.26,1014.60,M,M,M,M,M,M,M,M,M,M,M,M,M,M,M,M,M,73.00,KP68 010553Z AUTO 21008KT 23/08 A3026 RMK AO1 SLP146 T02280083 10306 20222 51016,M
DRA,2022-08-01 05:53,-116.0278,36.6206,1009.00,75.00,67.00,75.92,20.00,3.00,0.00,30.14,1015.50,10.00,M,FEW,M,M,M,12000.00,M,M,M,M,M,M,M,M,M,M,75.00,KDRA 010553Z AUTO 02003KT 10SM FEW120 24/19 A3014 RMK AO2 SLP155 60001 T02390194 10261 20239 50003,M
TMT,2022-08-01 05:55,-117.1971,39.4643,1749.34,M,M,M,170.00,6.00,0.00,30.25,M,10.00,M,CLR,M,M,M,M,M,M,M,M,M,M,M,M,M,M,M,KTMT 010555Z AUTO 17006KT 10SM CLR A3025 RMK AO2,M
RNO,2022-08-01 05:55,-119.7711,39.4839,1341.00,83.00,53.00,35.81,320.00,12.00,0.00,30.12,1012.90,10.00,18.00,SCT,BKN,BKN,M,15000.00,18000.00,22000.00,M,M,M,M,M,M,M,M,81.73,KRNO 010555Z 32012G18KT 10SM SCT150 BKN180 BKN220 28/12 A3012 RMK AO2 SLP129 T02830117 10361 20283 51016,M
BAM,2022-08-01 05:55,-116.8743,40.5990,1382.36,82.40,42.80,24.72,240.00,16.00,0.00,30.08,M,10.00,22.00,CLR,M,M,M,M,M,M,M,M,M,M,M,M,M,M,80.39,KBAM 010555Z AUTO 24016G22KT 10SM CLR 28/06 A3008 RMK AO1,M
BVU,2022-08-01 05:55,-114.8611,35.9475,671.00,M,M,M,M,M,0.00,M,M,M,M,M,M,M,M,M,M,M,M,M,M,M,M,M,M,M,M,KBVU 010555Z AUTO RMK AO2 PNO PWINO TSNO,M
RTS,2022-08-01 05:55,-119.8764,39.6682,1539.00,77.00,46.40,33.85,300.00,12.00,0.00,30.19,M,10.00,M,CLR,M,M,M,M,M,M,M,M,M,M,M,M,M,M,77.00,KRTS 010555Z AUTO 30012KT 10SM CLR 25/08 A3019 RMK AO2,M
HTH,2022-08-01 05:55,-118.6315,38.5448,1282.89,71.60,57.20,60.44,130.00,19.00,0.00,30.18,M,10.00,24.00,CLR,M,M,M,M,M,M,M,M,M,M,M,M,M,M,71.60,KHTH 010555Z AUTO 13019G24KT 10SM CLR 22/14 A3018 RMK A01,M
MEV,2022-08-01 05:55,-119.7500,38.9963,1441.42,71.60,53.60,53.03,0.00,0.00,0.00,30.15,M,10.00,M,CLR,M,M,M,M,M,M,M,M,M,M,M,M,M,M,71.60,KMEV 010555Z AUTO 00000KT 10SM CLR 22/12 A3015 RMK AO2,M
EKO,2022-08-01 05:56,-115.7860,40.8242,1367.00,77.00,46.00,33.34,170.00,13.00,0.00,30.13,1013.00,7.00,23.00,CLR,M,M,M,M,M,M,M,M,M,M,M,M,M,M,77.00,KEKO 010556Z AUTO 17013G23KT 7SM CLR 25/08 A3013 RMK AO2 SLP130 T02500078 10367 20250 51019,M
LAS,2022-08-01 05:56,-115.1634,36.0719,663.00,81.00,64.00,56.30,200.00,5.00,0.00,30.05,1015.10,10.00,M,SCT,BKN,M,M,14000.00,20000.00,M,M,M,M,M,M,M,M,M,82.54,KLAS 010556Z 20005KT 10SM SCT140 BKN200 27/18 A3005 RMK AO2 SLP151 OCNL LTGIC DSNT N T02720178 10289 20267 53007,M
TPH,2022-08-01 05:56,-117.0904,38.0505,1654.00,65.00,61.00,87.18,200.00,6.00,T,30.27,1017.20,10.00,M,FEW,BKN,M,M,10000.00,12000.00,M,M,M,M,M,M,M,M,M,64.90,KTPH 010556Z AUTO 20006KT 10SM FEW100 BKN120 18/16 A3027 RMK AO2 RAB01E39 SLP172 P0000 60109 T01830161 10200 20161 58014,M
NFL,2022-08-01 05:56,-118.7010,39.4166,1199.00,79.00,51.00,37.78,160.00,11.00,0.00,30.10,1015.90,10.00,M,CLR,M,M,M,M,M,M,M,M,M,M,M,M,M,M,79.00,KNFL 010556Z AUTO 16011KT 10SM CLR 26/11 A3010 RMK AO2 SLP159 T02610106 10356 20261 51023,M
HND,2022-08-01 05:56,-115.1344,35.9729,742.79,77.00,67.00,71.03,220.00,8.00,0.00,30.09,1018.10,10.00,M,CLR,M,M,M,M,M,M,M,M,M,M,M,M,M,M,77.00,KHND 010556Z AUTO 22008KT 10SM CLR 25/19 A3009 RMK AO2 SLP181 T02500194 10283 20250 51006,M
WMC,2022-08-01 05:56,-117.8072,40.9019,1315.00,84.00,45.00,25.54,140.00,14.00,0.00,30.03,1010.30,1.50,20.00,OVC,M,M,M,2100.00,M,M,M,HZ,M,M,M,M,M,M,81.61,KWMC 010556Z AUTO 14014G20KT 1 1/2SM HZ OVC021 29/07 A3003 RMK AO2 SLP103 T02890072 10406 20250 53016,M
INS,2022-08-01 05:58,-115.6733,36.5872,955.00,72.70,68.50,86.67,0.00,0.00,T,30.13,1015.60,10.00,M,SCT,OVC,M,M,10000.00,13000.00,M,M,M,M,M,M,M,M,M,72.70,KINS 010558Z AUTO 00000KT 10SM SCT100 OVC130 23/20 A3013 RMK AO2 RAE11 SLP156 P0000 60000 T02260203 10281 20217 50006,M
LSV,2022-08-01 05:58,-115.0343,36.2362,570.00,84.20,62.60,48.32,210.00,4.00,0.00,30.05,1015.10,10.00,M,SCT,BKN,M,M,15000.00,20000.00,M,M,M,M,M,M,M,M,M,85.03,KLSV 010558Z 21004KT 10SM SCT150 BKN200 29/17 A3005 RMK SLP151 WND DATA ESTMD ALSTG/SLP ESTMD 5////,M
LOL,2022-08-01 05:59,-118.5701,40.0684,1192.43,81.00,51.00,35.38,200.00,18.00,0.00,30.06,M,3.00,26.00,BKN,M,M,M,1300.00,M,M,M,HZ,M,M,M,26.00,200.00,2022-08-01 05:59,80.23,KLOL 010559Z AUTO 20018G26KT 3SM HZ BKN013 27/11 A3006 RMK AO2 PK WND 20026/0559 T02720106,M
WMC,2022-08-01 06:03,-117.8072,40.9019,1315.00,84.00,46.00,26.52,140.00,14.00,0.00,30.03,M,1.00,22.00,VV ,M,M,M,1500.00,M,M,M,HZ,M,M,M,M,M,M,81.69,KWMC 010603Z AUTO 14014G22KT 1SM HZ VV015 29/08 A3003 RMK AO2 T02890078,M
CXP,2022-08-01 06:10,-119.7326,39.1923,1431.00,77.00,50.00,38.74,0.00,0.00,0.00,30.17,M,10.00,M,CLR,M,M,M,M,M,M,M,M,M,M,M,M,M,M,77.00,KCXP 010610Z AUTO 00000KT 10SM CLR 25/10 A3017 RMK AO2,M
WMC,2022-08-01 06:13,-117.8072,40.9019,1315.00,83.00,47.00,28.43,150.00,15.00,0.00,30.04,M,1.00,25.00,VV ,M,M,M,1400.00,M,M,M,HZ,M,M,M,M,M,M,81.01,KWMC 010613Z AUTO 15015G25KT 1SM HZ VV014 28/08 A3004 RMK AO2 T02830083,M
TMT,2022-08-01 06:15,-117.1971,39.4643,1749.34,M,M,M,210.00,8.00,0.00,30.25,M,10.00,M,CLR,M,M,M,M,M,M,M,M,M,M,M,M,M,M,M,KTMT 010615Z AUTO 21008KT 10SM CLR A3025 RMK AO2,M
HTH,2022-08-01 06:15,-118.6315,38.5448,1282.89,71.60,55.40,56.63,150.00,20.00,0.00,30.19,M,10.00,25.00,CLR,M,M,M,M,M,M,M,M,M,M,M,M,M,M,71.60,KHTH 010615Z AUTO 15020G25KT 10SM CLR 22/13 A3019 RMK A01,M
BAM,2022-08-01 06:15,-116.8743,40.5990,1382.36,82.40,44.60,26.49,230.00,19.00,0.00,30.08,M,10.00,22.00,CLR,M,M,M,M,M,M,M,M,M,M,M,M,M,M,80.50,KBAM 010615Z AUTO 23019G22KT 10SM CLR 28/07 A3008 RMK AO1,M
MEV,2022-08-01 06:15,-119.7500,38.9963,1441.42,73.40,51.80,46.71,0.00,0.00,0.00,30.16,M,10.00,M,CLR,M,M,M,M,M,M,M,M,M,M,M,M,M,M,73.40,KMEV 010615Z AUTO 00000KT 10SM CLR 23/11 A3016 RMK AO2,M
RTS,2022-08-01 06:15,-119.8764,39.6682,1539.00,77.00,46.40,33.85,290.00,12.00,0.00,30.19,M,10.00,M,CLR,M,M,M,M,M,M,M,M,M,M,M,M,M,M,77.00,KRTS 010615Z AUTO 29012KT 10SM CLR 25/08 A3019 RMK AO2,M
BVU,2022-08-01 06:15,-114.8611,35.9475,671.00,M,M,M,M,M,0.00,M,M,M,M,M,M,M,M,M,M,M,M,M,M,M,M,M,M,M,M,KBVU 010615Z AUTO RMK AO2 PNO PWINO TSNO,M
LOL,2022-08-01 06:19,-118.5701,40.0684,1192.43,81.00,51.00,35.38,210.00,14.00,0.00,30.07,M,5.00,20.00,BKN,M,M,M,1500.00,M,M,M,HZ,M,M,M,26.00,200.00,2022-08-01 05:59,80.23,KLOL 010619Z AUTO 21014G20KT 5SM HZ BKN015 27/11 A3007 RMK AO2 PK WND 20026/0559 T02720106,M
WMC,2022-08-01 06:20,-117.8072,40.9019,1315.00,83.00,48.00,29.64,150.00,14.00,0.00,30.04,M,1.25,25.00,OVC,M,M,M,1500.00,M,M,M,HZ,M,M,M,M,M,M,81.11,KWMC 010620Z AUTO 15014G25KT 1 1/4SM HZ OVC015 28/09 A3004 RMK AO2 T02830089,M
LOL,2022-08-01 06:25,-118.5701,40.0684,1192.43,81.00,51.00,35.38,220.00,14.00,0.00,30.07,M,2.00,20.00,BKN,M,M,M,1300.00,M,M,M,HZ,M,M,M,26.00,200.00,2022-08-01 05:59,80.23,KLOL 010625Z AUTO 22014G20KT 2SM HZ BKN013 27/11 A3007 RMK AO2 PK WND 20026/0559 T02720106,M
LOL,2022-08-01 06:28,-118.5701,40.0684,1192.43,81.00,51.00,35.38,230.00,12.00,0.00,30.07,M,0.75,19.00,VV ,M,M,M,1100.00,M,M,M,HZ,M,M,M,26.00,200.00,2022-08-01 05:59,80.23,KLOL 010628Z AUTO 23012G19KT 3/4SM HZ VV011 27/11 A3007 RMK AO2 PK WND 20026/0559 T02720106,M
WMC,2022-08-01 06:30,-117.8072,40.9019,1315.00,83.00,48.00,29.64,170.00,14.00,0.00,30.05,M,1.75,21.00,OVC,M,M,M,1900.00,M,M,M,HZ,M,M,M,M,M,M,81.11,KWMC 010630Z AUTO 17014G21KT 1 3/4SM HZ OVC019 28/09 A3005 RMK AO2 T02830089,M
CXP,2022-08-01 06:30,-119.7326,39.1923,1431.00,77.00,51.80,41.42,0.00,0.00,0.00,30.18,M,10.00,M,CLR,M,M,M,M,M,M,M,M,M,M,M,M,M,M,77.00,KCXP 010630Z AUTO 00000KT 10SM CLR 25/11 A3018 RMK AO2,M
TMT,2022-08-01 06:35,-117.1971,39.4643,1749.34,M,M,M,160.00,5.00,0.00,30.25,M,7.00,M,CLR,M,M,M,M,M,M,M,M,M,M,M,M,M,M,M,KTMT 010635Z AUTO 16005KT 7SM CLR A3025 RMK AO2,M
HTH,2022-08-01 06:35,-118.6315,38.5448,1282.89,73.40,55.40,53.29,180.00,20.00,0.00,30.17,M,10.00,27.00,CLR,M,M,M,M,M,M,M,M,M,M,M,M,M,M,73.40,KHTH 010635Z AUTO 18020G27KT 10SM CLR 23/13 A3017 RMK A01,M
BAM,2022-08-01 06:35,-116.8743,40.5990,1382.36,82.40,46.40,28.36,220.00,15.00,0.00,30.08,M,10.00,24.00,CLR,M,M,M,M,M,M,M,M,M,M,M,M,M,M,80.64,KBAM 010635Z AUTO 22015G24KT 10SM CLR 28/08 A3008 RMK AO1,M
MEV,2022-08-01 06:35,-119.7500,38.9963,1441.42,71.60,51.80,49.64,10.00,5.00,0.00,30.16,M,10.00,M,BKN,M,M,M,10000.00,M,M,M,M,M,M,M,M,M,M,71.60,KMEV 010635Z AUTO 01005KT 10SM BKN100 22/11 A3016 RMK AO2,M
RTS,2022-08-01 06:35,-119.8764,39.6682,1539.00,77.00,46.40,33.85,270.00,10.00,0.00,30.19,M,10.00,15.00,CLR,M,M,M,M,M,M,M,M,M,M,M,M,M,M,77.00,KRTS 010635Z AUTO 27010G15KT 10SM CLR 25/08 A3019 RMK AO2,M
BVU,2022-08-01 06:35,-114.8611,35.9475,671.00,M,M,M,M,M,0.00,M,M,M,M,M,M,M,M,M,M,M,M,M,M,M,M,M,M,M,M,KBVU 010635Z AUTO RMK AO2 PNO PWINO TSNO,M
WMC,2022-08-01 06:37,-117.8072,40.9019,1315.00,83.00,48.00,29.64,170.00,13.00,0.00,30.05,M,2.50,21.00,OVC,M,M,M,2300.00,M,M,M,HZ,M,M,M,M,M,M,81.11,KWMC 010637Z AUTO 17013G21KT 2 1/2SM HZ OVC023 28/09 A3005 RMK AO2 T02830089,M
LOL,2022-08-01 06:37,-118.5701,40.0684,1192.43,80.00,52.00,37.67,220.00,14.00,0.00,30.07,M,0.50,M,VV ,M,M,M,800.00,M,M,M,HZ,M,M,M,26.00,200.00,2022-08-01 05:59,79.81,KLOL 010637Z AUTO 22014KT 1/2SM HZ VV008 27/11 A3007 RMK AO2 PK WND 20026/0559 T02670111,M
WMC,2022-08-01 06:45,-117.8072,40.9019,1315.00,82.00,48.00,30.51,160.00,16.00,0.00,30.05,M,4.00,22.00,OVC,M,M,M,2500.00,M,M,M,HZ,M,M,M,M,M,M,80.53,KWMC 010645Z AUTO 16016G22KT 4SM HZ OVC025 28/09 A3005 RMK AO2 T02780089,M
CXP,2022-08-01 06:50,-119.7326,39.1923,1431.00,75.20,51.80,43.97,0.00,0.00,0.00,30.18,M,10.00,M,CLR,M,M,M,M,M,M,M,M,M,M,M,M,M,M,75.20,KCXP 010650Z AUTO 00000KT 10SM CLR 24/11 A3018 RMK AO2,M
P68,2022-08-01 06:53,-116.0056,39.6014,1993.00,70.00,48.00,45.50,140.00,6.00,0.00,30.26,1014.70,M,M,M,M,M,M,M,M,M,M,M,M,M,M,M,M,M,70.00,KP68 010653Z AUTO 14006KT 21/09 A3026 RMK AO1 SLP147 T02110089,M
ELY,2022-08-01 06:53,-114.8453,39.2950,1909.00,66.00,51.00,58.62,220.00,10.00,0.00,30.31,1014.60,10.00,M,CLR,M,M,M,M,M,M,M,M,M,M,M,M,M,M,66.00,KELY 010653Z AUTO 22010KT 10SM CLR 19/11 A3031 RMK AO2 SLP146 T01890106 403280122,M
VGT,2022-08-01 06:53,-115.1933,36.2111,667.00,83.00,66.00,56.75,320.00,4.00,0.00,30.06,1016.80,10.00,M,CLR,M,M,M,M,M,M,M,M,M,M,M,M,M,M,85.07,KVGT 010653Z AUTO 32004KT 10SM CLR 28/19 A3006 RMK AO2 SLP168 T02830189,M
DRA,2022-08-01 06:53,-116.0278,36.6206,1009.00,73.00,68.00,84.34,0.00,0.00,0.00,30.14,1015.90,10.00,M,BKN,M,M,M,11000.00,M,M,M,M,M,M,M,M,M,M,73.00,KDRA 010653Z AUTO 00000KT 10SM BKN110 23/20 A3014 RMK AO2 SLP159 T02280200,M
LOL,2022-08-01 06:53,-118.5701,40.0684,1192.43,81.00,52.00,36.58,220.00,14.00,0.00,30.07,1012.80,0.75,21.00,VV ,M,M,M,500.00,M,M,M,HZ,M,M,M,26.00,200.00,2022-08-01 05:59,80.34,KLOL 010653Z AUTO 22014G21KT 3/4SM HZ VV005 27/11 A3007 RMK AO2 PK WND 20026/0559 SLP128 T02720111,M
BAM,2022-08-01 06:55,-116.8743,40.5990,1382.36,82.40,46.40,28.36,230.00,16.00,0.00,30.09,M,10.00,24.00,CLR,M,M,M,M,M,M,M,M,M,M,M,M,M,M,80.64,KBAM 010655Z AUTO 23016G24KT 10SM CLR 28/08 A3009 RMK AO1,M
MEV,2022-08-01 06:55,-119.7500,38.9963,1441.42,71.60,51.80,49.64,40.00,6.00,0.00,30.17,M,10.00,M,SCT,M,M,M,11000.00,M,M,M,M,M,M,M,M,M,M,71.60,KMEV 010655Z AUTO 04006KT 10SM SCT110 22/11 A3017 RMK AO2,M
RNO,2022-08-01 06:55,-119.7711,39.4839,1341.00,83.00,53.00,35.81,270.00,9.00,0.00,30.13,1013.10,10.00,M,BKN,OVC,M,M,14000.00,18000.00,M,M,M,M,M,M,M,M,M,81.73,KRNO 010655Z 27009KT 10SM BKN140 OVC180 28/12 A3013 RMK AO2 SLP131 T02830117,M
TMT,2022-08-01 06:55,-117.1971,39.4643,1749.34,M,M,M,240.00,3.00,0.00,30.26,M,10.00,M,CLR,M,M,M,M,M,M,M,M,M,M,M,M,M,M,M,KTMT 010655Z AUTO 24003KT 10SM CLR A3026 RMK AO2,M
RTS,2022-08-01 06:55,-119.8764,39.6682,1539.00,75.20,44.60,33.57,260.00,7.00,0.00,30.20,M,10.00,13.00,CLR,M,M,M,M,M,M,M,M,M,M,M,M,M,M,75.20,KRTS 010655Z AUTO 26007G13KT 10SM CLR 24/07 A3020 RMK AO2,M
HTH,2022-08-01 06:55,-118.6315,38.5448,1282.89,73.40,53.60,49.90,200.00,13.00,0.00,30.17,M,10.00,21.00,CLR,M,M,M,M,M,M,M,M,M,M,M,M,M,M,73.40,KHTH 010655Z AUTO 20013G21KT 10SM CLR 23/12 A3017 RMK A01,M
BVU,2022-08-01 06:55,-114.8611,35.9475,671.00,M,M,M,M,M,0.00,M,M,M,M,M,M,M,M,M,M,M,M,M,M,M,M,M,M,M,M,KBVU 010655Z AUTO RMK AO2 PNO PWINO TSNO,M
TPH,2022-08-01 06:56,-117.0904,38.0505,1654.00,65.00,62.00,90.64,140.00,5.00,0.00,30.26,1016.60,10.00,M,BKN,M,M,M,12000.00,M,M,M,M,M,M,M,M,M,M,64.90,KTPH 010656Z AUTO 14005KT 10SM BKN120 18/17 A3026 RMK AO2 SLP166 T01830167,M
EKO,2022-08-01 06:56,-115.7860,40.8242,1367.00,77.00,48.00,35.95,160.00,20.00,0.00,30.15,1013.60,9.00,29.00,CLR,M,M,M,M,M,M,M,M,M,M,M,29.00,160.00,2022-08-01 06:55,77.00,KEKO 010656Z AUTO 16020G29KT 9SM CLR 25/09 A3015 RMK AO2 PK WND 16029/0655 SLP136 T02500089,M
WMC,2022-08-01 06:56,-117.8072,40.9019,1315.00,82.00,48.00,30.51,150.00,15.00,0.00,30.05,1010.80,4.00,21.00,OVC,M,M,M,2900.00,M,M,M,HZ,M,M,M,27.00,150.00,2022-08-01 06:46,80.53,KWMC 010656Z AUTO 15015G21KT 4SM HZ OVC029 28/09 A3005 RMK AO2 PK WND 15027/0646 SLP108 T02780089,M
LAS,2022-08-01 06:56,-115.1634,36.0719,663.00,82.00,64.00,54.50,0.00,0.00,0.00,30.07,1015.90,10.00,M,FEW,BKN,M,M,14000.00,20000.00,M,M,M,M,M,M,M,M,M,83.47,KLAS 010656Z 00000KT 10SM FEW140 BKN200 28/18 A3007 RMK AO2 SLP159 ACC DSNT SW T02780178,M
HND,2022-08-01 06:56,-115.1344,35.9729,742.79,76.00,67.00,73.68,210.00,11.00,0.00,30.10,1018.70,10.00,M,CLR,M,M,M,M,M,M,M,M,M,M,M,M,M,M,75.90,KHND 010656Z AUTO 21011KT 10SM CLR 24/19 A3010 RMK AO2 SLP187 T02440194 403280228,M
NFL,2022-08-01 06:56,-118.7010,39.4166,1199.00,78.00,51.00,38.92,160.00,10.00,0.00,30.11,1016.30,10.00,M,CLR,M,M,M,M,M,M,M,M,M,M,M,M,M,M,78.10,KNFL 010656Z AUTO 16010KT 10SM CLR 26/11 A3011 RMK AO2 SLP163 T02560106,M
LSV,2022-08-01 06:57,-115.0343,36.2362,570.00,82.40,64.40,54.55,210.00,7.00,0.00,30.05,1015.10,10.00,M,SCT,M,M,M,15000.00,M,M,M,M,M,M,M,M,M,M,83.98,KLSV 010657Z 21007KT 10SM SCT150 28/18 A3005 RMK SLP151 WND DATA ESTMD ALSTG/SLP151 ESTMD,M
INS,2022-08-01 06:58,-115.6733,36.5872,955.00,73.80,66.00,76.61,0.00,0.00,0.00,30.13,1015.70,10.00,M,OVC,M,M,M,12000.00,M,M,M,M,M,M,M,M,M,M,73.80,KINS 010658Z AUTO 00000KT 10SM OVC120 23/19 A3013 RMK AO2 SLP157 T02320189,M
WMC,2022-08-01 07:10,-117.8072,40.9019,1315.00,82.00,48.00,30.51,160.00,15.00,0.00,30.05,M,4.00,24.00,OVC,M,M,M,3100.00,M,M,M,HZ,M,M,M,M,M,M,80.53,KWMC 010710Z AUTO 16015G24KT 4SM HZ OVC031 28/09 A3005 RMK AO2 T02780089,M
CXP,2022-08-01 07:10,-119.7326,39.1923,1431.00,77.00,50.00,38.74,0.00,0.00,0.00,30.18,M,10.00,M,CLR,M,M,M,M,M,M,M,M,M,M,M,M,M,M,77.00,KCXP 010710Z AUTO 00000KT 10SM CLR 25/10 A3018 RMK AO2,M
LOL,2022-08-01 07:11,-118.5701,40.0684,1192.43,79.00,52.00,39.06,230.00,15.00,0.00,30.08,M,1.75,M,OVC,M,M,M,600.00,M,M,M,HZ,M,M,M,M,M,M,79.00,KLOL 010711Z AUTO 23015KT 1 3/4SM HZ OVC006 26/11 A3008 RMK AO2 T02610111,M
LOL,2022-08-01 07:13,-118.5701,40.0684,1192.43,79.00,52.00,39.06,220.00,16.00,0.00,30.08,M,3.00,M,OVC,M,M,M,600.00,M,M,M,HZ,M,M,M,M,M,M,79.00,KLOL 010713Z AUTO 22016KT 3SM HZ OVC006 26/11 A3008 RMK AO2 T02610111,M
MEV,2022-08-01 07:15,-119.7500,38.9963,1441.42,69.80,51.80,52.77,0.00,0.00,0.00,30.17,M,10.00,M,FEW,M,M,M,11000.00,M,M,M,M,M,M,M,M,M,M,69.80,KMEV 010715Z AUTO 00000KT 10SM FEW110 21/11 A3017 RMK AO2,M
BAM,2022-08-01 07:15,-116.8743,40.5990,1382.36,80.60,46.40,30.07,220.00,14.00,0.00,30.09,M,10.00,18.00,CLR,M,M,M,M,M,M,M,M,M,M,M,M,M,M,79.56,KBAM 010715Z AUTO 22014G18KT 10SM CLR 27/08 A3009 RMK AO1,M
HTH,2022-08-01 07:15,-118.6315,38.5448,1282.89,73.40,53.60,49.90,170.00,9.00,0.00,30.17,M,10.00,M,CLR,M,M,M,M,M,M,M,M,M,M,M,M,M,M,73.40,KHTH 010715Z AUTO 17009KT 10SM CLR 23/12 A3017 RMK A01,M
TMT,2022-08-01 07:15,-117.1971,39.4643,1749.34,M,M,M,170.00,5.00,0.00,30.26,M,10.00,M,CLR,M,M,M,M,M,M,M,M,M,M,M,M,M,M,M,KTMT 010715Z AUTO 17005KT 10SM CLR A3026 RMK AO2,M
BVU,2022-08-01 07:15,-114.8611,35.9475,671.00,M,M,M,M,M,0.00,M,M,M,M,M,M,M,M,M,M,M,M,M,M,M,M,M,M,M,M,KBVU 010715Z AUTO RMK AO2 PNO PWINO TSNO,M
RTS,2022-08-01 07:15,-119.8764,39.6682,1539.00,75.20,44.60,33.57,0.00,0.00,0.00,30.20,M,10.00,M,CLR,M,M,M,M,M,M,M,M,M,M,M,M,M,M,75.20,KRTS 010715Z AUTO 00000KT 10SM CLR 24/07 A3020 RMK AO2,M
CXP,2022-08-01 07:30,-119.7326,39.1923,1431.00,75.20,51.80,43.97,0.00,0.00,0.00,30.18,M,10.00,M,CLR,M,M,M,M,M,M,M,M,M,M,M,M,M,M,75.20,KCXP 010730Z AUTO 00000KT 10SM CLR 24/11 A3018 RMK AO2,M
RTS,2022-08-01 07:35,-119.8764,39.6682,1539.00,75.20,44.60,33.57,290.00,4.00,0.00,30.20,M,10.00,M,CLR,M,M,M,M,M,M,M,M,M,M,M,M,M,M,75.20,KRTS 010735Z AUTO 29004KT 10SM CLR 24/07 A3020 RMK AO2,M
MEV,2022-08-01 07:35,-119.7500,38.9963,1441.42,68.00,51.80,56.13,0.00,0.00,0.00,30.17,M,10.00,M,CLR,M,M,M,M,M,M,M,M,M,M,M,M,M,M,68.00,KMEV 010735Z AUTO 00000KT 10SM CLR 20/11 A3017 RMK AO2,M
BAM,2022-08-01 07:35,-116.8743,40.5990,1382.36,78.80,48.20,34.13,230.00,15.00,0.00,30.09,M,10.00,18.00,CLR,M,M,M,M,M,M,M,M,M,M,M,M,M,M,78.80,KBAM 010735Z AUTO 23015G18KT 10SM CLR 26/09 A3009 RMK AO1,M
TMT,2022-08-01 07:35,-117.1971,39.4643,1749.34,M,M,M,120.00,3.00,0.00,30.26,M,10.00,M,CLR,M,M,M,M,M,M,M,M,M,M,M,M,M,M,M,KTMT 010735Z AUTO 12003KT 10SM CLR A3026 RMK AO2,M
HTH,2022-08-01 07:35,-118.6315,38.5448,1282.89,71.60,53.60,53.03,120.00,11.00,0.00,30.16,M,10.00,M,CLR,M,M,M,M,M,M,M,M,M,M,M,M,M,M,71.60,KHTH 010735Z AUTO 12011KT 10SM CLR 22/12 A3016 RMK A01,M
BVU,2022-08-01 07:35,-114.8611,35.9475,671.00,M,M,M,M,M,0.00,M,M,M,M,M,M,M,M,M,M,M,M,M,M,M,M,M,M,M,M,KBVU 010735Z AUTO RMK AO2 PNO PWINO TSNO,M
CXP,2022-08-01 07:50,-119.7326,39.1923,1431.00,73.40,51.80,46.71,0.00,0.00,0.00,30.18,M,10.00,M,CLR,M,M,M,M,M,M,M,M,M,M,M,M,M,M,73.40,KCXP 010750Z AUTO 00000KT 10SM CLR 23/11 A3018 RMK AO2,M
P68,2022-08-01 07:53,-116.0056,39.6014,1993.00,69.00,47.00,45.02,190.00,3.00,0.00,30.26,1015.00,M,M,M,M,M,M,M,M,M,M,M,M,M,M,M,M,M,69.10,KP68 010753Z AUTO 19003KT 21/08 A3026 RMK AO1 SLP150 T02060083 403330150,M
VGT,2022-08-01 07:53,-115.1933,36.2111,667.00,82.00,65.00,56.24,330.00,10.00,0.00,30.05,1016.50,10.00,M,CLR,M,M,M,M,M,M,M,M,M,M,M,M,M,M,83.76,KVGT 010753Z AUTO 33010KT 10SM CLR 28/18 A3005 RMK AO2 SLP165 T02780183 403280278,M
DRA,2022-08-01 07:53,-116.0278,36.6206,1009.00,73.00,68.00,84.34,100.00,4.00,0.00,30.13,1015.80,10.00,M,FEW,M,M,M,12000.00,M,M,M,M,M,M,M,M,M,M,73.00,KDRA 010753Z AUTO 10004KT 10SM FEW120 23/20 A3013 RMK AO2 SLP158 T02280200 403170228,M
ELY,2022-08-01 07:53,-114.8453,39.2950,1909.00,65.00,51.00,60.90,200.00,10.00,0.00,30.31,1015.00,10.00,M,CLR,M,M,M,M,M,M,M,M,M,M,M,M,M,M,64.90,KELY 010753Z AUTO 20010KT 10SM CLR 18/11 A3031 RMK AO2 SLP150 T01830106,M
LOL,2022-08-01 07:53,-118.5701,40.0684,1192.43,78.00,52.00,40.23,230.00,16.00,0.00,30.08,1013.20,10.00,M,OVC,M,M,M,700.00,M,M,M,M,M,M,M,M,M,M,78.10,KLOL 010753Z AUTO 23016KT 10SM OVC007 26/11 A3008 RMK AO2 SLP132 T02560111 404000128,M
RNO,2022-08-01 07:55,-119.7711,39.4839,1341.00,81.00,53.00,38.09,270.00,6.00,0.00,30.14,1013.40,10.00,M,BKN,BKN,M,M,14000.00,19000.00,M,M,M,M,M,M,M,M,M,80.47,KRNO 010755Z 27006KT 10SM BKN140 BKN190 27/12 A3014 RMK AO2 SLP134 T02720117 403780206,M
HTH,2022-08-01 07:55,-118.6315,38.5448,1282.89,71.60,57.20,60.44,110.00,10.00,0.00,30.15,M,10.00,M,CLR,M,M,M,M,M,M,M,M,M,M,M,M,M,M,71.60,KHTH 010755Z AUTO 11010KT 10SM CLR 22/14 A3015 RMK A01,M
TMT,2022-08-01 07:55,-117.1971,39.4643,1749.34,M,M,M,140.00,7.00,0.00,30.26,M,10.00,M,CLR,M,M,M,M,M,M,M,M,M,M,M,M,M,M,M,KTMT 010755Z AUTO 14007KT 10SM CLR A3026 RMK AO2,M
MEV,2022-08-01 07:55,-119.7500,38.9963,1441.42,64.40,50.00,59.50,0.00,0.00,0.00,30.17,M,10.00,M,CLR,M,M,M,M,M,M,M,M,M,M,M,M,M,M,64.40,KMEV 010755Z AUTO 00000KT 10SM CLR 18/10 A3017 RMK AO2,M
RTS,2022-08-01 07:55,-119.8764,39.6682,1539.00,75.20,44.60,33.57,230.00,5.00,0.00,30.20,M,10.00,M,CLR,M,M,M,M,M,M,M,M,M,M,M,M,M,M,75.20,KRTS 010755Z AUTO 23005KT 10SM CLR 24/07 A3020 RMK AO2,M
BVU,2022-08-01 07:55,-114.8611,35.9475,671.00,M,M,M,M,M,0.00,M,M,M,M,M,M,M,M,M,M,M,M,M,M,M,M,M,M,M,M,KBVU 010755Z AUTO RMK AO2 PNO PWINO TSNO,M
BAM,2022-08-01 07:55,-116.8743,40.5990,1382.36,78.80,48.20,34.13,240.00,14.00,0.00,30.10,M,10.00,17.00,CLR,M,M,M,M,M,M,M,M,M,M,M,M,M,M,78.80,KBAM 010755Z AUTO 24014G17KT 10SM CLR 26/09 A3010 RMK AO1,M
WMC,2022-08-01 07:56,-117.8072,40.9019,1315.00,81.00,47.00,30.24,170.00,13.00,0.00,30.06,1011.20,6.00,21.00,OVC,M,M,M,3500.00,M,M,M,HZ,M,M,M,M,M,M,79.83,KWMC 010756Z AUTO 17013G21KT 6SM HZ OVC035 27/08 A3006 RMK AO2 SLP112 T02720083 404060150,M
EKO,2022-08-01 07:56,-115.7860,40.8242,1367.00,76.00,48.00,37.29,170.00,12.00,0.00,30.16,1014.00,10.00,M,CLR,M,M,M,M,M,M,M,M,M,M,M,28.00,170.00,2022-08-01 06:58,75.90,KEKO 010756Z AUTO 17012KT 10SM CLR 24/09 A3016 RMK AO2 PK WND 17028/0658 SLP140 T02440089 403720111,M
TPH,2022-08-01 07:56,-117.0904,38.0505,1654.00,64.00,62.00,93.54,120.00,6.00,0.00,30.25,1016.00,10.00,M,BKN,M,M,M,12000.00,M,M,M,M,M,M,M,M,M,M,64.00,KTPH 010756Z AUTO 12006KT 10SM BKN120 18/17 A3025 RMK AO2 SLP160 T01780167 403390161,M
NFL,2022-08-01 07:56,-118.7010,39.4166,1199.00,77.00,53.00,43.44,170.00,12.00,0.00,30.10,1015.90,10.00,M,CLR,M,M,M,M,M,M,M,M,M,M,M,M,M,M,77.00,KNFL 010756Z AUTO 17012KT 10SM CLR 25/12 A3010 RMK AO2 SLP159 T02500117 403830178,M
HND,2022-08-01 07:56,-115.1344,35.9729,742.79,76.00,67.00,73.68,170.00,7.00,0.00,30.10,1018.50,10.00,M,CLR,M,M,M,M,M,M,M,M,M,M,M,M,M,M,75.90,KHND 010756Z AUTO 17007KT 10SM CLR 24/19 A3010 RMK AO2 SLP185 T02440194,M
LAS,2022-08-01 07:56,-115.1634,36.0719,663.00,80.00,65.00,59.83,170.00,4.00,0.00,30.06,1015.50,10.00,M,BKN,BKN,M,M,14000.00,20000.00,M,M,M,M,M,M,M,M,M,81.91,KLAS 010756Z 17004KT 10SM BKN140 BKN200 27/18 A3006 RMK AO2 SLP155 T02670183 403280256,M
LSV,2022-08-01 07:58,-115.0343,36.2362,570.00,82.40,66.20,58.08,160.00,4.00,0.00,30.03,1014.40,10.00,M,SCT,M,M,M,15000.00,M,M,M,M,M,M,M,M,M,M,84.63,KLSV 010758Z 16004KT 10SM SCT150 28/19 A3003 RMK SLP144 WND DATA ESTMD ALSTG/SLP144 ESTMD,M
INS,2022-08-01 07:58,-115.6733,36.5872,955.00,74.50,66.70,76.67,190.00,3.00,0.00,30.13,1015.70,10.00,M,OVC,M,M,M,12000.00,M,M,M,M,M,M,M,M,M,M,74.50,KINS 010758Z AUTO 19003KT 10SM OVC120 24/19 A3013 RMK AO2 SLP157 T02360193 403220217,M
CXP,2022-08-01 08:10,-119.7326,39.1923,1431.00,71.60,51.80,49.64,0.00,0.00,0.00,30.18,M,10.00,M,CLR,M,M,M,M,M,M,M,M,M,M,M,M,M,M,71.60,KCXP 010810Z AUTO 00000KT 10SM CLR 22/11 A3018 RMK AO2,M
MEV,2022-08-01 08:15,-119.7500,38.9963,1441.42,62.60,51.80,67.75,140.00,4.00,0.00,30.17,M,10.00,M,CLR,M,M,M,M,M,M,M,M,M,M,M,M,M,M,62.60,KMEV 010815Z AUTO 14004KT 10SM CLR 17/11 A3017 RMK AO2,M
RTS,2022-08-01 08:15,-119.8764,39.6682,1539.00,75.20,44.60,33.57,280.00,5.00,0.00,30.20,M,10.00,M,CLR,M,M,M,M,M,M,M,M,M,M,M,M,M,M,75.20,KRTS 010815Z AUTO 28005KT 10SM CLR 24/07 A3020 RMK AO2,M
BVU,2022-08-01 08:15,-114.8611,35.9475,671.00,M,M,M,M,M,0.00,M,M,M,M,M,M,M,M,M,M,M,M,M,M,M,M,M,M,M,M,KBVU 010815Z AUTO RMK AO2 PNO PWINO TSNO,M
BAM,2022-08-01 08:15,-116.8743,40.5990,1382.36,78.80,48.20,34.13,240.00,13.00,0.00,30.10,M,10.00,19.00,CLR,M,M,M,M,M,M,M,M,M,M,M,M,M,M,78.80,KBAM 010815Z AUTO 24013G19KT 10SM CLR 26/09 A3010 RMK AO1,M
HTH,2022-08-01 08:15,-118.6315,38.5448,1282.89,71.60,57.20,60.44,70.00,4.00,0.00,30.15,M,10.00,11.00,CLR,M,M,M,M,M,M,M,M,M,M,M,M,M,M,71.60,KHTH 010815Z AUTO 07004G11KT 10SM CLR 22/14 A3015 RMK A01,M
TMT,2022-08-01 08:15,-117.1971,39.4643,1749.34,M,M,M,230.00,7.00,0.00,30.26,M,10.00,M,CLR,M,M,M,M,M,M,M,M,M,M,M,M,M,M,M,KTMT 010815Z AUTO 23007KT 10SM CLR A3026 RMK AO2,M
CXP,2022-08-01 08:30,-119.7326,39.1923,1431.00,69.80,51.80,52.77,0.00,0.00,0.00,30.18,M,10.00,M,CLR,M,M,M,M,M,M,M,M,M,M,M,M,M,M,69.80,KCXP 010830Z AUTO 00000KT 10SM CLR 21/11 A3018 RMK AO2,M
WMC,2022-08-01 08:34,-117.8072,40.9019,1315.00,79.00,48.00,33.66,180.00,11.00,0.00,30.06,M,5.00,M,OVC,M,M,M,2600.00,M,M,M,HZ,M,M,M,M,M,M,79.00,KWMC 010834Z AUTO 18011KT 5SM HZ OVC026 26/09 A3006 RMK AO2 T02610089,M
MEV,2022-08-01 08:35,-119.7500,38.9963,1441.42,60.80,51.80,72.20,110.00,3.00,0.00,30.17,M,10.00,M,CLR,M,M,M,M,M,M,M,M,M,M,M,M,M,M,60.80,KMEV 010835Z AUTO 11003KT 10SM CLR 16/11 A3017 RMK AO2,M
BVU,2022-08-01 08:35,-114.8611,35.9475,671.00,M,M,M,M,M,0.00,M,M,M,M,M,M,M,M,M,M,M,M,M,M,M,M,M,M,M,M,KBVU 010835Z AUTO RMK AO2 PNO PWINO TSNO,M
TMT,2022-08-01 08:35,-117.1971,39.4643,1749.34,M,M,M,170.00,5.00,0.00,30.26,M,10.00,M,CLR,M,M,M,M,M,M,M,M,M,M,M,M,M,M,M,KTMT 010835Z AUTO 17005KT 10SM CLR A3026 RMK AO2,M
BAM,2022-08-01 08:35,-116.8743,40.5990,1382.36,78.80,48.20,34.13,240.00,14.00,0.00,30.10,M,10.00,18.00,CLR,M,M,M,M,M,M,M,M,M,M,M,M,M,M,78.80,KBAM 010835Z AUTO 24014G18KT 10SM CLR 26/09 A3010 RMK AO1,M
HTH,2022-08-01 08:35,-118.6315,38.5448,1282.89,71.60,57.20,60.44,110.00,9.00,0.00,30.15,M,10.00,M,CLR,M,M,M,M,M,M,M,M,M,M,M,M,M,M,71.60,KHTH 010835Z AUTO 11009KT 10SM CLR 22/14 A3015 RMK A01,M
RTS,2022-08-01 08:35,-119.8764,39.6682,1539.00,73.40,44.60,35.66,270.00,10.00,0.00,30.20,M,10.00,M,CLR,M,M,M,M,M,M,M,M,M,M,M,M,M,M,73.40,KRTS 010835Z AUTO 27010KT 10SM CLR 23/07 A3020 RMK AO2,M
CXP,2022-08-01 08:50,-119.7326,39.1923,1431.00,69.80,51.80,52.77,60.00,3.00,0.00,30.18,M,10.00,M,CLR,M,M,M,M,M,M,M,M,M,M,M,M,M,M,69.80,KCXP 010850Z AUTO 06003KT 10SM CLR 21/11 A3018 RMK AO2,M
P68,2022-08-01 08:53,-116.0056,39.6014,1993.00,65.00,48.00,54.26,140.00,5.00,0.00,30.26,1015.30,M,M,M,M,M,M,M,M,M,M,M,M,M,M,M,M,M,64.90,KP68 010853Z AUTO 14005KT 18/09 A3026 RMK AO1 SLP153 T01830089 50000,M
ELY,2022-08-01 08:53,-114.8453,39.2950,1909.00,64.00,51.00,62.85,190.00,4.00,0.00,30.31,1015.60,10.00,M,CLR,M,M,M,M,M,M,M,M,M,M,M,M,M,M,64.00,KELY 010853Z AUTO 19004KT 10SM CLR 18/11 A3031 RMK AO2 SLP156 T01780106 50002,M
VGT,2022-08-01 08:53,-115.1933,36.2111,667.00,83.00,65.00,54.62,270.00,8.00,0.00,30.05,1016.60,10.00,M,CLR,M,M,M,M,M,M,M,M,M,M,M,M,M,M,84.64,KVGT 010853Z AUTO 27008KT 10SM CLR 28/18 A3005 RMK AO2 SLP166 T02830183 51002,M
DRA,2022-08-01 08:53,-116.0278,36.6206,1009.00,74.00,67.00,78.77,120.00,5.00,0.00,30.12,1015.70,10.00,M,CLR,M,M,M,M,M,M,M,M,M,M,M,M,M,M,73.90,KDRA 010853Z AUTO 12005KT 10SM CLR 23/19 A3012 RMK AO2 SLP157 T02330194 58003,M
LOL,2022-08-01 08:53,-118.5701,40.0684,1192.43,76.00,52.00,43.28,210.00,14.00,0.00,30.08,1013.10,10.00,M,OVC,M,M,M,800.00,M,M,M,M,M,M,M,M,M,M,75.90,KLOL 010853Z AUTO 21014KT 10SM OVC008 24/11 A3008 RMK AO2 SLP131 T02440111 50006,M
BAM,2022-08-01 08:55,-116.8743,40.5990,1382.36,77.00,48.20,36.22,230.00,10.00,0.00,30.11,M,10.00,M,CLR,M,M,M,M,M,M,M,M,M,M,M,M,M,M,77.00,KBAM 010855Z AUTO 23010KT 10SM CLR 25/09 A3011 RMK AO1,M
RTS,2022-08-01 08:55,-119.8764,39.6682,1539.00,73.40,44.60,35.66,280.00,9.00,0.00,30.20,M,10.00,M,CLR,M,M,M,M,M,M,M,M,M,M,M,M,M,M,73.40,KRTS 010855Z AUTO 28009KT 10SM CLR 23/07 A3020 RMK AO2,M
MEV,2022-08-01 08:55,-119.7500,38.9963,1441.42,62.60,50.00,63.38,120.00,3.00,0.00,30.17,M,10.00,M,FEW,M,M,M,4700.00,M,M,M,M,M,M,M,M,M,M,62.60,KMEV 010855Z AUTO 12003KT 10SM FEW047 17/10 A3017 RMK AO2,M
BVU,2022-08-01 08:55,-114.8611,35.9475,671.00,M,M,M,M,M,0.00,M,M,M,M,M,M,M,M,M,M,M,M,M,M,M,M,M,M,M,M,KBVU 010855Z AUTO RMK AO2 PNO PWINO TSNO,M
TMT,2022-08-01 08:55,-117.1971,39.4643,1749.34,M,M,M,190.00,5.00,0.00,30.26,M,10.00,M,CLR,M,M,M,M,M,M,M,M,M,M,M,M,M,M,M,KTMT 010855Z AUTO 19005KT 10SM CLR A3026 RMK AO2,M
RNO,2022-08-01 08:55,-119.7711,39.4839,1341.00,80.00,52.00,37.67,290.00,6.00,0.00,30.13,1013.10,10.00,M,SCT,BKN,M,M,15000.00,18000.00,M,M,M,M,M,M,M,M,M,79.81,KRNO 010855Z 29006KT 10SM SCT150 BKN180 27/11 A3013 RMK AO2 SLP131 T02670111 50005,M
HTH,2022-08-01 08:55,-118.6315,38.5448,1282.89,69.80,59.00,68.55,150.00,8.00,0.00,30.14,M,10.00,M,CLR,M,M,M,M,M,M,M,M,M,M,M,M,M,M,69.80,KHTH 010855Z AUTO 15008KT 10SM CLR 21/15 A3014 RMK A01,M
EKO,2022-08-01 08:56,-115.7860,40.8242,1367.00,74.00,48.00,39.87,260.00,8.00,0.00,30.17,1014.40,10.00,19.00,CLR,M,M,M,M,M,M,M,M,M,M,M,M,M,M,73.90,KEKO 010856Z AUTO 26008G19KT 10SM CLR 23/09 A3017 RMK AO2 SLP144 T02330089 51013,M
TPH,2022-08-01 08:56,-117.0904,38.0505,1654.00,64.00,60.00,87.14,110.00,4.00,0.00,30.26,1016.10,10.00,M,BKN,BKN,M,M,9000.00,12000.00,M,M,M,M,M,M,M,M,M,64.00,KTPH 010856Z AUTO 11004KT 10SM BKN090 BKN120 18/16 A3026 RMK AO2 SLP161 T01780156 55002,M
HND,2022-08-01 08:56,-115.1344,35.9729,742.79,75.00,67.00,75.92,210.00,7.00,0.00,30.09,1018.40,10.00,M,CLR,M,M,M,M,M,M,M,M,M,M,M,M,M,M,75.00,KHND 010856Z AUTO 21007KT 10SM CLR 24/19 A3009 RMK AO2 SLP184 T02390194 58000,M
LAS,2022-08-01 08:56,-115.1634,36.0719,663.00,78.00,65.00,63.90,200.00,3.00,0.00,30.06,1015.60,10.00,M,FEW,BKN,BKN,M,14000.00,18000.00,22000.00,M,M,M,M,M,M,M,M,78.10,KLAS 010856Z 20003KT 10SM FEW140 BKN180 BKN220 26/18 A3006 RMK AO2 SLP156 T02560183 50000,M
NFL,2022-08-01 08:56,-118.7010,39.4166,1199.00,74.00,53.00,48.18,180.00,7.00,0.00,30.10,1015.90,10.00,M,CLR,M,M,M,M,M,M,M,M,M,M,M,M,M,M,73.90,KNFL 010856Z AUTO 18007KT 10SM CLR 23/12 A3010 RMK AO2 SLP159 T02330117 50000,M
WMC,2022-08-01 08:56,-117.8072,40.9019,1315.00,79.00,48.00,33.66,180.00,12.00,0.00,30.07,1011.40,6.00,18.00,OVC,M,M,M,2500.00,M,M,M,HZ,M,M,M,M,M,M,79.00,KWMC 010856Z AUTO 18012G18KT 6SM HZ OVC025 26/09 A3007 RMK AO2 SLP114 T02610089 51009,M
INS,2022-08-01 08:58,-115.6733,36.5872,955.00,72.70,72.30,98.66,0.00,0.00,0.00,30.11,1015.20,10.00,M,OVC,M,M,M,13000.00,M,M,M,M,M,M,M,M,M,M,72.70,KINS 010858Z AUTO 00000KT 10SM OVC130 23/22 A3011 RMK AO2 SLP152 T02260224 58004,M
LSV,2022-08-01 08:58,-115.0343,36.2362,570.00,82.40,66.20,58.08,170.00,4.00,0.00,30.04,1014.90,10.00,M,SCT,M,M,M,15000.00,M,M,M,M,M,M,M,M,M,M,84.63,KLSV 010858Z COR 17004KT 10SM SCT150 28/19 A3004 RMK SLP149 WND DATA ESTMD ALSTG/SLP ESTMD,M
CXP,2022-08-01 09:10,-119.7326,39.1923,1431.00,71.60,51.80,49.64,0.00,0.00,0.00,30.18,M,10.00,M,CLR,M,M,M,M,M,M,M,M,M,M,M,M,M,M,71.60,KCXP 010910Z AUTO 00000KT 10SM CLR 22/11 A3018 RMK AO2,M
TMT,2022-08-01 09:15,-117.1971,39.4643,1749.34,M,M,M,200.00,4.00,0.00,30.26,M,10.00,M,SCT,M,M,M,12000.00,M,M,M,M,M,M,M,M,M,M,M,KTMT 010915Z AUTO 20004KT 10SM SCT120 A3026 RMK AO2,M
BVU,2022-08-01 09:15,-114.8611,35.9475,671.00,M,M,M,M,M,0.00,M,M,M,M,M,M,M,M,M,M,M,M,M,M,M,M,M,M,M,M,KBVU 010915Z AUTO RMK AO2 PNO PWINO TSNO,M
RTS,2022-08-01 09:15,-119.8764,39.6682,1539.00,73.40,46.40,38.18,300.00,13.00,0.00,30.20,M,10.00,M,CLR,M,M,M,M,M,M,M,M,M,M,M,M,M,M,73.40,KRTS 010915Z AUTO 30013KT 10SM CLR 23/08 A3020 RMK AO2,M
MEV,2022-08-01 09:15,-119.7500,38.9963,1441.42,64.40,50.00,59.50,0.00,0.00,0.00,30.17,M,10.00,M,CLR,M,M,M,M,M,M,M,M,M,M,M,M,M,M,64.40,KMEV 010915Z AUTO 00000KT 10SM CLR 18/10 A3017 RMK AO2,M
BAM,2022-08-01 09:15,-116.8743,40.5990,1382.36,77.00,50.00,38.74,250.00,7.00,0.00,30.12,M,10.00,M,CLR,M,M,M,M,M,M,M,M,M,M,M,M,M,M,77.00,KBAM 010915Z AUTO 25007KT 10SM CLR 25/10 A3012 RMK AO1,M
HTH,2022-08-01 09:15,-118.6315,38.5448,1282.89,69.80,59.00,68.55,160.00,5.00,0.00,30.14,M,10.00,M,CLR,M,M,M,M,M,M,M,M,M,M,M,M,M,M,69.80,KHTH 010915Z AUTO 16005KT 10SM CLR 21/15 A3014 RMK A01,M
WMC,2022-08-01 09:16,-117.8072,40.9019,1315.00,77.00,48.00,35.95,180.00,12.00,0.00,30.07,M,7.00,M,SCT,M,M,M,3000.00,M,M,M,M,M,M,M,M,M,M,77.00,KWMC 010916Z AUTO 18012KT 7SM SCT030 25/09 A3007 RMK AO2 T02500089,M
CXP,2022-08-01 09:30,-119.7326,39.1923,1431.00,69.80,51.80,52.77,80.00,3.00,0.00,30.18,M,10.00,M,CLR,M,M,M,M,M,M,M,M,M,M,M,M,M,M,69.80,KCXP 010930Z AUTO 08003KT 10SM CLR 21/11 A3018 RMK AO2,M
BAM,2022-08-01 09:35,-116.8743,40.5990,1382.36,75.20,48.20,38.46,260.00,7.00,0.00,30.12,M,10.00,M,CLR,M,M,M,M,M,M,M,M,M,M,M,M,M,M,75.20,KBAM 010935Z AUTO 26007KT 10SM CLR 24/09 A3012 RMK AO1,M
HTH,2022-08-01 09:35,-118.6315,38.5448,1282.89,69.80,59.00,68.55,130.00,4.00,0.00,30.14,M,10.00,M,CLR,M,M,M,M,M,M,M,M,M,M,M,M,M,M,69.80,KHTH 010935Z AUTO 13004KT 10SM CLR 21/15 A3014 RMK A01,M
RTS,2022-08-01 09:35,-119.8764,39.6682,1539.00,73.40,46.40,38.18,290.00,12.00,0.00,30.20,M,10.00,17.00,CLR,M,M,M,M,M,M,M,M,M,M,M,M,M,M,73.40,KRTS 010935Z AUTO 29012G17KT 10SM CLR 23/08 A3020 RMK AO2,M
MEV,2022-08-01 09:35,-119.7500,38.9963,1441.42,60.80,50.00,67.54,120.00,5.00,0.00,30.17,M,10.00,M,FEW,M,M,M,10000.00,M,M,M,M,M,M,M,M,M,M,60.80,KMEV 010935Z AUTO 12005KT 10SM FEW100 16/10 A3017 RMK AO2,M
TMT,2022-08-01 09:35,-117.1971,39.4643,1749.34,M,M,M,220.00,4.00,0.00,30.25,M,10.00,M,OVC,M,M,M,12000.00,M,M,M,M,M,M,M,M,M,M,M,KTMT 010935Z AUTO 22004KT 10SM OVC120 A3025 RMK AO2,M
BVU,2022-08-01 09:35,-114.8611,35.9475,671.00,M,M,M,M,M,0.00,M,M,M,M,M,M,M,M,M,M,M,M,M,M,M,M,M,M,M,M,KBVU 010935Z AUTO RMK AO2 PNO PWINO TSNO,M
LOL,2022-08-01 09:35,-118.5701,40.0684,1192.43,75.00,52.00,44.59,220.00,13.00,0.00,30.07,M,10.00,M,SCT,M,M,M,800.00,M,M,M,M,M,M,M,M,M,M,75.00,KLOL 010935Z AUTO 22013KT 10SM SCT008 24/11 A3007 RMK AO2 T02390111,M
LOL,2022-08-01 09:43,-118.5701,40.0684,1192.43,75.00,52.00,44.59,220.00,10.00,0.00,30.07,M,10.00,M,BKN,M,M,M,1100.00,M,M,M,M,M,M,M,M,M,M,75.00,KLOL 010943Z AUTO 22010KT 10SM BKN011 24/11 A3007 RMK AO2 T02390111,M
CXP,2022-08-01 09:50,-119.7326,39.1923,1431.00,69.80,53.60,56.38,0.00,0.00,0.00,30.18,M,10.00,M,CLR,M,M,M,M,M,M,M,M,M,M,M,M,M,M,69.80,KCXP 010950Z AUTO 00000KT 10SM CLR 21/12 A3018 RMK AO2,M
P68,2022-08-01 09:53,-116.0056,39.6014,1993.00,65.00,49.00,56.12,130.00,7.00,0.00,30.26,1014.90,M,M,M,M,M,M,M,M,M,M,M,M,M,M,M,M,M,64.90,KP68 010953Z AUTO 13007KT 18/09 A3026 RMK AO1 SLP149 T01830094,M
VGT,2022-08-01 09:53,-115.1933,36.2111,667.00,83.00,65.00,54.62,320.00,4.00,0.00,30.04,1016.40,10.00,M,CLR,M,M,M,M,M,M,M,M,M,M,M,M,M,M,84.64,KVGT 010953Z AUTO 32004KT 10SM CLR 28/18 A3004 RMK AO2 SLP164 T02830183,M
DRA,2022-08-01 09:53,-116.0278,36.6206,1009.00,73.00,67.00,81.20,330.00,3.00,0.00,30.11,1015.40,10.00,M,CLR,M,M,M,M,M,M,M,M,M,M,M,M,M,M,73.00,KDRA 010953Z AUTO 33003KT 10SM CLR 23/19 A3011 RMK AO2 SLP154 T02280194,M
ELY,2022-08-01 09:53,-114.8453,39.2950,1909.00,62.00,51.00,67.19,80.00,3.00,0.00,30.30,1015.10,10.00,M,CLR,M,M,M,M,M,M,M,M,M,M,M,M,M,M,62.10,KELY 010953Z AUTO 08003KT 10SM CLR 17/11 A3030 RMK AO2 SLP151 T01670106,M
LOL,2022-08-01 09:53,-118.5701,40.0684,1192.43,74.00,52.00,46.27,220.00,10.00,0.00,30.07,1012.90,10.00,M,BKN,M,M,M,1100.00,M,M,M,M,M,M,M,M,M,M,73.90,KLOL 010953Z AUTO 22010KT 10SM BKN011 23/11 A3007 RMK AO2 SLP129 T02330111,M
TMT,2022-08-01 09:55,-117.1971,39.4643,1749.34,M,M,M,240.00,3.00,0.00,30.25,M,10.00,M,OVC,M,M,M,12000.00,M,M,M,M,M,M,M,M,M,M,M,KTMT 010955Z AUTO 24003KT 10SM OVC120 A3025 RMK AO2,M
BAM,2022-08-01 09:55,-116.8743,40.5990,1382.36,73.40,48.20,40.85,260.00,7.00,0.00,30.12,M,10.00,M,CLR,M,M,M,M,M,M,M,M,M,M,M,M,M,M,73.40,KBAM 010955Z AUTO 26007KT 10SM CLR 23/09 A3012 RMK AO1,M
MEV,2022-08-01 09:55,-119.7500,38.9963,1441.42,62.60,50.00,63.38,100.00,7.00,0.00,30.17,M,10.00,M,FEW,FEW,M,M,5000.00,10000.00,M,M,M,M,M,M,M,M,M,62.60,KMEV 010955Z AUTO 10007KT 10SM FEW050 FEW100 17/10 A3017 RMK AO2,M
RNO,2022-08-01 09:55,-119.7711,39.4839,1341.00,78.00,51.00,38.92,M,5.00,0.00,30.13,1013.30,10.00,M,SCT,SCT,M,M,15000.00,18000.00,M,M,M,M,M,M,M,M,M,78.10,KRNO 010955Z VRB05KT 10SM SCT150 SCT180 26/11 A3013 RMK AO2 SLP133 T02560106,M
RTS,2022-08-01 09:55,-119.8764,39.6682,1539.00,73.40,46.40,38.18,270.00,16.00,0.00,30.19,M,10.00,21.00,CLR,M,M,M,M,M,M,M,M,M,M,M,M,M,M,73.40,KRTS 010955Z AUTO 27016G21KT 10SM CLR 23/08 A3019 RMK AO2,M
BVU,2022-08-01 09:55,-114.8611,35.9475,671.00,M,M,M,M,M,0.00,M,M,M,M,M,M,M,M,M,M,M,M,M,M,M,M,M,M,M,M,KBVU 010955Z AUTO RMK AO2 PNO PWINO TSNO,M
HTH,2022-08-01 09:55,-118.6315,38.5448,1282.89,69.80,57.20,64.26,0.00,0.00,0.00,30.14,M,10.00,M,CLR,M,M,M,M,M,M,M,M,M,M,M,M,M,M,69.80,KHTH 010955Z AUTO 00000KT 10SM CLR 21/14 A3014 RMK A01,M
LAS,2022-08-01 09:56,-115.1634,36.0719,663.00,78.00,65.00,63.90,200.00,3.00,0.00,30.05,1015.40,10.00,M,FEW,BKN,M,M,14000.00,19000.00,M,M,M,M,M,M,M,M,M,78.10,KLAS 010956Z 20003KT 10SM FEW140 BKN190 26/18 A3005 RMK AO2 SLP154 T02560183,M
WMC,2022-08-01 09:56,-117.8072,40.9019,1315.00,78.00,48.00,34.67,170.00,12.00,0.00,30.07,1011.40,8.00,18.00,CLR,M,M,M,M,M,M,M,M,M,M,M,M,M,M,78.10,KWMC 010956Z AUTO 17012G18KT 8SM CLR 26/09 A3007 RMK AO2 SLP114 T02560089,M
EKO,2022-08-01 09:56,-115.7860,40.8242,1367.00,71.00,48.00,43.83,240.00,7.00,0.00,30.18,1014.90,10.00,M,CLR,M,M,M,M,M,M,M,M,M,M,M,M,M,M,71.10,KEKO 010956Z AUTO 24007KT 10SM CLR 22/09 A3018 RMK AO2 SLP149 T02170089,M
HND,2022-08-01 09:56,-115.1344,35.9729,742.79,75.00,67.00,75.92,210.00,8.00,0.00,30.09,1018.30,10.00,M,CLR,M,M,M,M,M,M,M,M,M,M,M,M,M,M,75.00,KHND 010956Z AUTO 21008KT 10SM CLR 24/19 A3009 RMK AO2 SLP183 T02390194,M
NFL,2022-08-01 09:56,-118.7010,39.4166,1199.00,72.00,52.00,49.33,160.00,8.00,0.00,30.09,1015.60,10.00,M,CLR,M,M,M,M,M,M,M,M,M,M,M,M,M,M,72.00,KNFL 010956Z AUTO 16008KT 10SM CLR 22/11 A3009 RMK AO2 SLP156 T02220111,M
TPH,2022-08-01 09:56,-117.0904,38.0505,1654.00,64.00,61.00,89.97,0.00,0.00,0.00,30.26,1016.10,10.00,M,SCT,M,M,M,11000.00,M,M,M,M,M,M,M,M,M,M,64.00,KTPH 010956Z AUTO 00000KT 10SM SCT110 18/16 A3026 RMK AO2 SLP161 T01780161,M
LSV,2022-08-01 09:58,-115.0343,36.2362,570.00,80.60,66.20,61.58,120.00,4.00,0.00,30.02,1014.40,10.00,M,SCT,M,M,M,15000.00,M,M,M,M,M,M,M,M,M,M,82.75,KLSV 010958Z 12004KT 10SM SCT150 27/19 A3002 RMK SLP144 WND DATA ESTMD ALSTG/SLP ESTMD,M
INS,2022-08-01 09:58,-115.6733,36.5872,955.00,73.80,67.00,79.59,0.00,0.00,0.00,30.11,1015.20,10.00,M,OVC,M,M,M,14000.00,M,M,M,M,M,M,M,M,M,M,73.80,KINS 010958Z AUTO 00000KT 10SM OVC140 23/20 A3011 RMK AO2 SLP152 T02320195,M
LOL,2022-08-01 10:06,-118.5701,40.0684,1192.43,74.00,52.00,46.27,210.00,11.00,0.00,30.07,M,10.00,M,SCT,M,M,M,1000.00,M,M,M,M,M,M,M,M,M,M,73.90,KLOL 011006Z AUTO 21011KT 10SM SCT010 23/11 A3007 RMK AO2 T02330111,M
CXP,2022-08-01 10:10,-119.7326,39.1923,1431.00,69.80,53.60,56.38,50.00,3.00,0.00,30.18,M,10.00,M,CLR,M,M,M,M,M,M,M,M,M,M,M,M,M,M,69.80,KCXP 011010Z AUTO 05003KT 10SM CLR 21/12 A3018 RMK AO2,M
BAM,2022-08-01 10:15,-116.8743,40.5990,1382.36,75.20,50.00,41.14,260.00,10.00,0.00,30.12,M,10.00,M,CLR,M,M,M,M,M,M,M,M,M,M,M,M,M,M,75.20,KBAM 011015Z AUTO 26010KT 10SM CLR 24/10 A3012 RMK AO1,M
TMT,2022-08-01 10:15,-117.1971,39.4643,1749.34,M,M,M,200.00,3.00,0.00,30.25,M,10.00,M,BKN,M,M,M,12000.00,M,M,M,M,M,M,M,M,M,M,M,KTMT 011015Z AUTO 20003KT 10SM BKN120 A3025 RMK AO2,M
BVU,2022-08-01 10:15,-114.8611,35.9475,671.00,M,M,M,M,M,0.00,M,M,M,M,M,M,M,M,M,M,M,M,M,M,M,M,M,M,M,M,KBVU 011015Z AUTO RMK AO2 PNO PWINO TSNO,M
MEV,2022-08-01 10:15,-119.7500,38.9963,1441.42,62.60,50.00,63.38,120.00,5.00,0.00,30.17,M,10.00,M,SCT,M,M,M,10000.00,M,M,M,M,M,M,M,M,M,M,62.60,KMEV 011015Z AUTO 12005KT 10SM SCT100 17/10 A3017 RMK AO2,M
RTS,2022-08-01 10:15,-119.8764,39.6682,1539.00,71.60,46.40,40.57,270.00,11.00,0.00,30.20,M,10.00,M,CLR,M,M,M,M,M,M,M,M,M,M,M,M,M,M,71.60,KRTS 011015Z AUTO 27011KT 10SM CLR 22/08 A3020 RMK AO2,M
HTH,2022-08-01 10:15,-118.6315,38.5448,1282.89,69.80,59.00,68.55,120.00,8.00,0.00,30.14,M,10.00,M,CLR,M,M,M,M,M,M,M,M,M,M,M,M,M,M,69.80,KHTH 011015Z AUTO 12008KT 10SM CLR 21/15 A3014 RMK A01,M
CXP,2022-08-01 10:30,-119.7326,39.1923,1431.00,68.00,51.80,56.13,0.00,0.00,0.00,30.17,M,10.00,M,CLR,M,M,M,M,M,M,M,M,M,M,M,M,M,M,68.00,KCXP 011030Z AUTO 00000KT 10SM CLR 20/11 A3017 RMK AO2,M
HTH,2022-08-01 10:35,-118.6315,38.5448,1282.89,69.80,57.20,64.26,170.00,7.00,0.00,30.14,M,10.00,M,SCT,M,M,M,12000.00,M,M,M,M,M,M,M,M,M,M,69.80,KHTH 011035Z AUTO 17007KT 10SM SCT120 21/14 A3014 RMK A01,M
BVU,2022-08-01 10:35,-114.8611,35.9475,671.00,M,M,M,M,M,0.00,M,M,M,M,M,M,M,M,M,M,M,M,M,M,M,M,M,M,M,M,KBVU 011035Z AUTO RMK AO2 PNO PWINO TSNO,M
RTS,2022-08-01 10:35,-119.8764,39.6682,1539.00,71.60,46.40,40.57,270.00,7.00,0.00,30.20,M,10.00,M,CLR,M,M,M,M,M,M,M,M,M,M,M,M,M,M,71.60,KRTS 011035Z AUTO 27007KT 10SM CLR 22/08 A3020 RMK AO2,M
TMT,2022-08-01 10:35,-117.1971,39.4643,1749.34,59.00,47.50,65.59,0.00,0.00,0.00,30.25,M,10.00,M,SCT,M,M,M,12000.00,M,M,M,M,M,M,M,M,M,M,59.00,KTMT 011035Z AUTO 00000KT 10SM SCT120 15/09 A3025 RMK AO2 T01500086,M
BAM,2022-08-01 10:35,-116.8743,40.5990,1382.36,73.40,50.00,43.69,240.00,8.00,0.00,30.12,M,10.00,M,CLR,M,M,M,M,M,M,M,M,M,M,M,M,M,M,73.40,KBAM 011035Z AUTO 24008KT 10SM CLR 23/10 A3012 RMK AO1,M
MEV,2022-08-01 10:35,-119.7500,38.9963,1441.42,62.60,50.00,63.38,120.00,7.00,0.00,30.17,M,10.00,M,BKN,M,M,M,10000.00,M,M,M,M,M,M,M,M,M,M,62.60,KMEV 011035Z AUTO 12007KT 10SM BKN100 17/10 A3017 RMK AO2,M
CXP,2022-08-01 10:50,-119.7326,39.1923,1431.00,68.00,51.80,56.13,0.00,0.00,0.00,30.17,M,10.00,M,CLR,M,M,M,M,M,M,M,M,M,M,M,M,M,M,68.00,KCXP 011050Z AUTO 00000KT 10SM CLR 20/11 A3017 RMK AO2,M
ELY,2022-08-01 10:53,-114.8453,39.2950,1909.00,59.00,50.00,72.01,0.00,0.00,0.00,30.28,1014.60,10.00,M,CLR,M,M,M,M,M,M,M,M,M,M,M,M,M,M,59.00,KELY 011053Z AUTO 00000KT 10SM CLR 15/10 A3028 RMK AO2 SLP146 T01500100,M
P68,2022-08-01 10:53,-116.0056,39.6014,1993.00,63.00,49.00,59.98,M,3.00,0.00,30.25,1015.10,M,M,M,M,M,M,M,M,M,M,M,M,M,M,M,M,M,63.00,KP68 011053Z AUTO VRB03KT 17/09 A3025 RMK AO1 SLP151 T01720094,M
DRA,2022-08-01 10:53,-116.0278,36.6206,1009.00,72.00,67.00,83.99,130.00,3.00,0.00,30.11,1015.30,10.00,M,FEW,M,M,M,9500.00,M,M,M,M,M,M,M,M,M,M,72.00,KDRA 011053Z AUTO 13003KT 10SM FEW095 22/19 A3011 RMK AO2 SLP153 T02220194,M
VGT,2022-08-01 10:53,-115.1933,36.2111,667.00,82.00,66.00,58.43,30.00,4.00,0.00,30.03,1016.10,10.00,M,CLR,M,M,M,M,M,M,M,M,M,M,M,M,M,M,84.15,KVGT 011053Z AUTO 03004KT 10SM CLR 28/19 A3003 RMK AO2 SLP161 T02780189,M
LOL,2022-08-01 10:53,-118.5701,40.0684,1192.43,72.00,52.00,49.33,200.00,8.00,0.00,30.06,1012.60,10.00,M,CLR,M,M,M,M,M,M,M,M,M,M,M,M,M,M,72.00,KLOL 011053Z AUTO 20008KT 10SM CLR 22/11 A3006 RMK AO2 SLP126 T02220111,M
TMT,2022-08-01 10:55,-117.1971,39.4643,1749.34,M,M,M,170.00,3.00,0.00,30.25,M,10.00,M,BKN,M,M,M,12000.00,M,M,M,M,M,M,M,M,M,M,M,KTMT 011055Z AUTO 17003KT 10SM BKN120 A3025 RMK AO2,M
RTS,2022-08-01 10:55,-119.8764,39.6682,1539.00,69.80,46.40,43.13,280.00,8.00,0.00,30.20,M,10.00,M,CLR,M,M,M,M,M,M,M,M,M,M,M,M,M,M,69.80,KRTS 011055Z AUTO 28008KT 10SM CLR 21/08 A3020 RMK AO2,M
BAM,2022-08-01 10:55,-116.8743,40.5990,1382.36,73.40,50.00,43.69,220.00,5.00,0.00,30.13,M,10.00,M,CLR,M,M,M,M,M,M,M,M,M,M,M,M,M,M,73.40,KBAM 011055Z AUTO 22005KT 10SM CLR 23/10 A3013 RMK AO1,M
BVU,2022-08-01 10:55,-114.8611,35.9475,671.00,M,M,M,M,M,0.00,M,M,M,M,M,M,M,M,M,M,M,M,M,M,M,M,M,M,M,M,KBVU 011055Z AUTO RMK AO2 PNO PWINO TSNO,M
RNO,2022-08-01 10:55,-119.7711,39.4839,1341.00,76.00,52.00,43.28,50.00,4.00,0.00,30.13,1013.30,10.00,M,SCT,SCT,M,M,15000.00,18000.00,M,M,M,M,M,M,M,M,M,75.90,KRNO 011055Z 05004KT 10SM SCT150 SCT180 24/11 A3013 RMK AO2 SLP133 T02440111,M
HTH,2022-08-01 10:55,-118.6315,38.5448,1282.89,71.60,57.20,60.44,0.00,0.00,0.00,30.14,M,10.00,M,BKN,M,M,M,12000.00,M,M,M,M,M,M,M,M,M,M,71.60,KHTH 011055Z AUTO 00000KT 10SM BKN120 22/14 A3014 RMK A01,M
MEV,2022-08-01 10:55,-119.7500,38.9963,1441.42,62.60,50.00,63.38,140.00,5.00,0.00,30.17,M,10.00,M,SCT,M,M,M,10000.00,M,M,M,M,M,M,M,M,M,M,62.60,KMEV 011055Z AUTO 14005KT 10SM SCT100 17/10 A3017 RMK AO2,M
HND,2022-08-01 10:56,-115.1344,35.9729,742.79,75.00,67.00,75.92,220.00,6.00,0.00,30.08,1018.00,10.00,M,CLR,M,M,M,M,M,M,M,M,M,M,M,M,M,M,75.00,KHND 011056Z AUTO 22006KT 10SM CLR 24/19 A3008 RMK AO2 SLP180 T02390194,M
EKO,2022-08-01 10:56,-115.7860,40.8242,1367.00,71.00,48.00,43.83,280.00,8.00,0.00,30.17,1014.40,10.00,M,CLR,M,M,M,M,M,M,M,M,M,M,M,M,M,M,71.10,KEKO 011056Z AUTO 28008KT 10SM CLR 22/09 A3017 RMK AO2 SLP144 T02170089,M
LAS,2022-08-01 10:56,-115.1634,36.0719,663.00,78.00,66.00,66.39,170.00,4.00,0.00,30.05,1015.30,10.00,M,BKN,M,M,M,19000.00,M,M,M,M,M,M,M,M,M,M,78.10,KLAS 011056Z 17004KT 10SM BKN190 26/19 A3005 RMK AO2 SLP153 T02560189,M
TPH,2022-08-01 10:56,-117.0904,38.0505,1654.00,64.00,61.00,89.97,0.00,0.00,0.00,30.25,1017.10,10.00,M,FEW,OVC,M,M,3700.00,11000.00,M,M,M,M,M,M,M,M,M,64.00,KTPH 011056Z AUTO 00000KT 10SM FEW037 OVC110 18/16 A3025 RMK AO2 SLP171 T01780161,M
NFL,2022-08-01 10:56,-118.7010,39.4166,1199.00,74.00,51.00,44.76,180.00,8.00,0.00,30.09,1015.60,10.00,M,CLR,M,M,M,M,M,M,M,M,M,M,M,M,M,M,73.90,KNFL 011056Z AUTO 18008KT 10SM CLR 23/11 A3009 RMK AO2 SLP156 T02330106,M
WMC,2022-08-01 10:56,-117.8072,40.9019,1315.00,75.00,48.00,38.43,180.00,11.00,0.00,30.08,1011.80,10.00,M,CLR,M,M,M,M,M,M,M,M,M,M,M,M,M,M,75.00,KWMC 011056Z AUTO 18011KT 10SM CLR 24/09 A3008 RMK AO2 SLP118 T02390089,M
LSV,2022-08-01 10:58,-115.0343,36.2362,570.00,80.60,66.20,61.58,40.00,5.00,0.00,30.01,1014.00,10.00,M,FEW,M,M,M,15000.00,M,M,M,M,M,M,M,M,M,M,82.75,KLSV 011058Z 04005KT 10SM FEW150 27/19 A3001 RMK SLP140 WND DATA ESTMD ALSTG/SLP ESTMD,M
INS,2022-08-01 10:58,-115.6733,36.5872,955.00,73.60,72.70,97.01,300.00,3.00,0.00,30.10,1014.90,10.00,M,OVC,M,M,M,14000.00,M,M,M,M,M,M,M,M,M,M,73.60,KINS 011058Z AUTO 30003KT 10SM OVC140 23/23 A3010 RMK AO2 SLP149 T02310226,M
CXP,2022-08-01 11:10,-119.7326,39.1923,1431.00,68.00,53.60,59.97,0.00,0.00,0.00,30.17,M,10.00,M,CLR,M,M,M,M,M,M,M,M,M,M,M,M,M,M,68.00,KCXP 011110Z AUTO 00000KT 10SM CLR 20/12 A3017 RMK AO2,M
BAM,2022-08-01 11:15,-116.8743,40.5990,1382.36,71.60,50.00,46.43,220.00,4.00,0.00,30.13,M,10.00,M,CLR,M,M,M,M,M,M,M,M,M,M,M,M,M,M,71.60,KBAM 011115Z AUTO 22004KT 10SM CLR 22/10 A3013 RMK AO1,M
TMT,2022-08-01 11:15,-117.1971,39.4643,1749.34,M,M,M,180.00,5.00,0.00,30.25,M,10.00,M,BKN,M,M,M,12000.00,M,M,M,M,M,M,M,M,M,M,M,KTMT 011115Z AUTO 18005KT 10SM BKN120 A3025 RMK AO2,M
HTH,2022-08-01 11:15,-118.6315,38.5448,1282.89,69.80,59.00,68.55,0.00,0.00,0.00,30.14,M,10.00,M,SCT,M,M,M,12000.00,M,M,M,M,M,M,M,M,M,M,69.80,KHTH 011115Z AUTO 00000KT 10SM SCT120 21/15 A3014 RMK A01,M
MEV,2022-08-01 11:15,-119.7500,38.9963,1441.42,62.60,50.00,63.38,130.00,7.00,0.00,30.17,M,10.00,M,BKN,M,M,M,9500.00,M,M,M,M,M,M,M,M,M,M,62.60,KMEV 011115Z AUTO 13007KT 10SM BKN095 17/10 A3017 RMK AO2,M
RTS,2022-08-01 11:15,-119.8764,39.6682,1539.00,68.00,46.40,45.88,290.00,6.00,0.00,30.19,M,10.00,M,CLR,M,M,M,M,M,M,M,M,M,M,M,M,M,M,68.00,KRTS 011115Z AUTO 29006KT 10SM CLR 20/08 A3019 RMK AO2,M
BVU,2022-08-01 11:15,-114.8611,35.9475,671.00,M,M,M,M,M,0.00,M,M,M,M,M,M,M,M,M,M,M,M,M,M,M,M,M,M,M,M,KBVU 011115Z AUTO RMK AO2 PNO PWINO TSNO,M
CXP,2022-08-01 11:30,-119.7326,39.1923,1431.00,68.00,51.80,56.13,0.00,0.00,0.00,30.17,M,10.00,M,CLR,M,M,M,M,M,M,M,M,M,M,M,M,M,M,68.00,KCXP 011130Z AUTO 00000KT 10SM CLR 20/11 A3017 RMK AO2,M
BVU,2022-08-01 11:35,-114.8611,35.9475,671.00,M,M,M,M,M,0.00,M,M,M,M,M,M,M,M,M,M,M,M,M,M,M,M,M,M,M,M,KBVU 011135Z AUTO RMK AO2 PNO PWINO TSNO,M
TMT,2022-08-01 11:35,-117.1971,39.4643,1749.34,M,M,M,170.00,6.00,0.00,30.24,M,10.00,M,SCT,M,M,M,12000.00,M,M,M,M,M,M,M,M,M,M,M,KTMT 011135Z AUTO 17006KT 10SM SCT120 A3024 RMK AO2,M
BAM,2022-08-01 11:35,-116.8743,40.5990,1382.36,71.60,48.20,43.42,230.00,7.00,0.00,30.13,M,10.00,M,CLR,M,M,M,M,M,M,M,M,M,M,M,M,M,M,71.60,KBAM 011135Z AUTO 23007KT 10SM CLR 22/09 A3013 RMK AO1,M
HTH,2022-08-01 11:35,-118.6315,38.5448,1282.89,71.60,57.20,60.44,0.00,0.00,0.00,30.14,M,10.00,M,BKN,M,M,M,12000.00,M,M,M,M,M,M,M,M,M,M,71.60,KHTH 011135Z AUTO 00000KT 10SM BKN120 22/14 A3014 RMK A01,M
MEV,2022-08-01 11:35,-119.7500,38.9963,1441.42,64.40,51.80,63.60,120.00,5.00,0.00,30.16,M,10.00,M,OVC,M,M,M,10000.00,M,M,M,M,M,M,M,M,M,M,64.40,KMEV 011135Z AUTO 12005KT 10SM OVC100 18/11 A3016 RMK AO2,M
RTS,2022-08-01 11:35,-119.8764,39.6682,1539.00,66.20,44.60,45.60,290.00,6.00,0.00,30.19,M,10.00,M,CLR,M,M,M,M,M,M,M,M,M,M,M,M,M,M,66.20,KRTS 011135Z AUTO 29006KT 10SM CLR 19/07 A3019 RMK AO2,M
CXP,2022-08-01 11:50,-119.7326,39.1923,1431.00,69.80,51.80,52.77,0.00,0.00,0.00,30.17,M,10.00,M,CLR,M,M,M,M,M,M,M,M,M,M,M,M,M,M,69.80,KCXP 011150Z AUTO 00000KT 10SM CLR 21/11 A3017 RMK AO2,M
DRA,2022-08-01 11:53,-116.0278,36.6206,1009.00,72.00,67.00,83.99,0.00,0.00,0.00,30.11,1015.40,10.00,M,CLR,M,M,M,M,M,M,M,M,M,M,M,M,M,M,72.00,KDRA 011153Z AUTO 00000KT 10SM CLR 22/19 A3011 RMK AO2 SLP154 70001 T02220194 10244 20217 55004,M
VGT,2022-08-01 11:53,-115.1933,36.2111,667.00,81.00,66.00,60.37,0.00,0.00,0.00,30.04,1016.40,10.00,M,CLR,M,M,M,M,M,M,M,M,M,M,M,M,M,M,83.11,KVGT 011153Z AUTO 00000KT 10SM CLR 27/19 A3004 RMK AO2 SLP164 T02720189 10289 20272 55003,M
P68,2022-08-01 11:53,-116.0056,39.6014,1993.00,59.00,46.00,61.98,0.00,0.00,0.00,30.25,1015.70,M,M,M,M,M,M,M,M,M,M,M,M,M,M,M,M,M,59.00,KP68 011153Z AUTO 00000KT 15/08 A3025 RMK AO1 SLP157 T01500078 10228 20150 58002,M
LOL,2022-08-01 11:53,-118.5701,40.0684,1192.43,69.00,51.00,52.67,190.00,6.00,0.00,30.07,1012.80,10.00,M,CLR,M,M,M,M,M,M,M,M,M,M,M,M,M,M,69.10,KLOL 011153Z AUTO 19006KT 10SM CLR 21/11 A3007 RMK AO2 SLP128 T02060106 10272 20206 55003,M
ELY,2022-08-01 11:53,-114.8453,39.2950,1909.00,57.00,52.00,83.33,0.00,0.00,0.00,30.28,1015.20,10.00,M,CLR,M,M,M,M,M,M,M,M,M,M,M,M,M,M,57.00,KELY 011153Z AUTO 00000KT 10SM CLR 14/11 A3028 RMK AO2 SLP152 T01390111 10194 20139 55006,M
HTH,2022-08-01 11:55,-118.6315,38.5448,1282.89,69.80,57.20,64.26,0.00,0.00,0.00,30.14,M,10.00,M,BKN,M,M,M,12000.00,M,M,M,M,M,M,M,M,M,M,69.80,KHTH 011155Z AUTO 00000KT 10SM BKN120 21/14 A3014 RMK A01,M
BVU,2022-08-01 11:55,-114.8611,35.9475,671.00,M,M,M,M,M,0.00,M,M,M,M,M,M,M,M,M,M,M,M,M,M,M,M,M,M,M,M,KBVU 011155Z AUTO RMK AO2 PNO PWINO TSNO,M
MEV,2022-08-01 11:55,-119.7500,38.9963,1441.42,66.20,51.80,59.74,130.00,6.00,0.00,30.16,M,10.00,M,BKN,M,M,M,10000.00,M,M,M,M,M,M,M,M,M,M,66.20,KMEV 011155Z AUTO 13006KT 10SM BKN100 19/11 A3016 RMK AO2,M
RNO,2022-08-01 11:55,-119.7711,39.4839,1341.00,72.00,53.00,51.37,0.00,0.00,0.00,30.13,1013.50,10.00,M,BKN,BKN,M,M,15000.00,19000.00,M,M,M,M,M,M,M,M,M,72.00,KRNO 011155Z 00000KT 10SM BKN150 BKN190 22/12 A3013 RMK AO2 SLP135 T02220117 10283 20222 58001,M
TMT,2022-08-01 11:55,-117.1971,39.4643,1749.34,56.80,46.40,68.10,160.00,6.00,0.00,30.24,M,10.00,M,CLR,M,M,M,M,M,M,M,M,M,M,M,M,M,M,56.80,KTMT 011155Z AUTO 16006KT 10SM CLR 14/08 A3024 RMK AO2 T01380080,M
BAM,2022-08-01 11:55,-116.8743,40.5990,1382.36,69.80,46.40,43.13,0.00,0.00,0.00,30.13,M,10.00,M,CLR,M,M,M,M,M,M,M,M,M,M,M,M,M,M,69.80,KBAM 011155Z AUTO 00000KT 10SM CLR 21/08 A3013 RMK AO1,M
RTS,2022-08-01 11:55,-119.8764,39.6682,1539.00,64.40,44.60,48.55,340.00,4.00,0.00,30.19,M,10.00,M,CLR,M,M,M,M,M,M,M,M,M,M,M,M,M,M,64.40,KRTS 011155Z AUTO 34004KT 10SM CLR 18/07 A3019 RMK AO2,M
LAS,2022-08-01 11:56,-115.1634,36.0719,663.00,77.00,66.00,68.85,0.00,0.00,0.00,30.05,1015.40,10.00,M,BKN,M,M,M,20000.00,M,M,M,M,M,M,M,M,M,M,77.00,KLAS 011156Z 00000KT 10SM BKN200 25/19 A3005 RMK AO2 SLP154 70012 T02500189 10278 20250 55001,M
WMC,2022-08-01 11:56,-117.8072,40.9019,1315.00,73.00,48.00,41.10,180.00,12.00,0.00,30.08,1011.90,10.00,M,CLR,M,M,M,M,M,M,M,M,M,M,M,M,M,M,73.00,KWMC 011156Z AUTO 18012KT 10SM CLR 23/09 A3008 RMK AO2 SLP119 T02280089 10289 20228 52003,M
TPH,2022-08-01 11:56,-117.0904,38.0505,1654.00,65.00,60.00,84.44,0.00,0.00,0.00,30.25,1018.30,10.00,M,OVC,M,M,M,11000.00,M,M,M,M,M,M,M,M,M,M,64.90,KTPH 011156Z AUTO 00000KT 10SM OVC110 18/16 A3025 RMK AO2 SLP183 70109 T01830156 10189 20172 56002,M
EKO,2022-08-01 11:56,-115.7860,40.8242,1367.00,71.00,48.00,43.83,M,M,0.00,30.17,1014.40,10.00,M,CLR,M,M,M,M,M,M,M,M,M,M,M,M,M,M,71.10,KEKO 011156Z AUTO 10SM CLR 22/09 A3017 RMK AO2 SLP144 T02170089 10261 20211 51001,M
NFL,2022-08-01 11:56,-118.7010,39.4166,1199.00,72.00,52.00,49.33,180.00,6.00,0.00,30.09,1015.70,10.00,M,CLR,M,M,M,M,M,M,M,M,M,M,M,M,M,M,72.00,KNFL 011156Z AUTO 18006KT 10SM CLR 22/11 A3009 RMK AO2 SLP157 T02220111 10267 20222 55002,M
HND,2022-08-01 11:56,-115.1344,35.9729,742.79,74.00,66.00,76.36,200.00,6.00,0.00,30.09,1018.10,10.00,M,CLR,M,M,M,M,M,M,M,M,M,M,M,M,M,M,73.90,KHND 011156Z AUTO 20006KT 10SM CLR 23/19 A3009 RMK AO2 SLP181 70076 T02330189 10250 20233 55002,M
LSV,2022-08-01 11:58,-115.0343,36.2362,570.00,78.80,68.00,69.52,50.00,4.00,0.00,30.01,1014.00,10.00,M,FEW,M,M,M,15000.00,M,M,M,M,M,M,M,M,M,M,78.80,KLSV 011158Z 05004KT 10SM FEW150 26/20 A3001 RMK SLP140 WND DATA ESTMD ALSTG/SLP ESTMD,M
INS,2022-08-01 11:58,-115.6733,36.5872,955.00,73.60,70.30,89.43,0.00,0.00,0.00,30.11,1015.20,10.00,M,BKN,OVC,M,M,15000.00,18000.00,M,M,M,M,M,M,M,M,M,73.60,KINS 011158Z AUTO 00000KT 10SM BKN150 OVC180 23/21 A3011 RMK AO2 SLP152 T02310213 10238 20225 55002,M
CXP,2022-08-01 12:10,-119.7326,39.1923,1431.00,69.80,51.80,52.77,0.00,0.00,0.00,30.18,M,10.00,M,SCT,M,M,M,11000.00,M,M,M,M,M,M,M,M,M,M,69.80,KCXP 011210Z AUTO 00000KT 10SM SCT110 21/11 A3018 RMK AO2,M
HTH,2022-08-01 12:15,-118.6315,38.5448,1282.89,69.80,60.80,73.09,0.00,0.00,0.00,30.14,M,10.00,M,SCT,M,M,M,12000.00,M,M,M,M,M,M,M,M,M,M,69.80,KHTH 011215Z AUTO 00000KT 10SM SCT120 21/16 A3014 RMK A01,M
TMT,2022-08-01 12:15,-117.1971,39.4643,1749.34,55.80,46.00,69.29,170.00,5.00,0.00,30.25,M,10.00,M,SCT,M,M,M,11000.00,M,M,M,M,M,M,M,M,M,M,55.80,KTMT 011215Z AUTO 17005KT 10SM SCT110 13/08 A3025 RMK AO2 T01320077,M
RTS,2022-08-01 12:15,-119.8764,39.6682,1539.00,66.20,44.60,45.60,300.00,6.00,0.00,30.20,M,10.00,M,CLR,M,M,M,M,M,M,M,M,M,M,M,M,M,M,66.20,KRTS 011215Z AUTO 30006KT 10SM CLR 19/07 A3020 RMK AO2,M
BVU,2022-08-01 12:15,-114.8611,35.9475,671.00,M,M,M,M,M,0.00,M,M,M,M,M,M,M,M,M,M,M,M,M,M,M,M,M,M,M,M,KBVU 011215Z AUTO RMK AO2 PNO PWINO TSNO,M
MEV,2022-08-01 12:15,-119.7500,38.9963,1441.42,64.40,50.00,59.50,0.00,0.00,0.00,30.17,M,10.00,M,BKN,M,M,M,10000.00,M,M,M,M,M,M,M,M,M,M,64.40,KMEV 011215Z AUTO 00000KT 10SM BKN100 18/10 A3017 RMK AO2,M
BAM,2022-08-01 12:15,-116.8743,40.5990,1382.36,71.60,48.20,43.42,280.00,4.00,0.00,30.13,M,10.00,M,CLR,M,M,M,M,M,M,M,M,M,M,M,M,M,M,71.60,KBAM 011215Z AUTO 28004KT 10SM CLR 22/09 A3013 RMK AO1,M
CXP,2022-08-01 12:30,-119.7326,39.1923,1431.00,71.60,51.80,49.64,0.00,0.00,0.00,30.18,M,10.00,M,BKN,BKN,M,M,10000.00,12000.00,M,M,M,M,M,M,M,M,M,71.60,KCXP 011230Z AUTO 00000KT 10SM BKN100 BKN120 22/11 A3018 RMK AO2,M
RTS,2022-08-01 12:35,-119.8764,39.6682,1539.00,66.20,44.60,45.60,290.00,8.00,0.00,30.20,M,10.00,M,CLR,M,M,M,M,M,M,M,M,M,M,M,M,M,M,66.20,KRTS 011235Z AUTO 29008KT 10SM CLR 19/07 A3020 RMK AO2,M
BAM,2022-08-01 12:35,-116.8743,40.5990,1382.36,69.80,48.20,46.16,270.00,6.00,0.00,30.13,M,10.00,M,CLR,M,M,M,M,M,M,M,M,M,M,M,M,M,M,69.80,KBAM 011235Z AUTO 27006KT 10SM CLR 21/09 A3013 RMK AO1,M
HTH,2022-08-01 12:35,-118.6315,38.5448,1282.89,69.80,60.80,73.09,0.00,0.00,0.00,30.14,M,10.00,M,CLR,M,M,M,M,M,M,M,M,M,M,M,M,M,M,69.80,KHTH 011235Z AUTO 00000KT 10SM CLR 21/16 A3014 RMK A01,M
TMT,2022-08-01 12:35,-117.1971,39.4643,1749.34,M,M,M,0.00,0.00,0.00,30.25,M,10.00,M,BKN,M,M,M,11000.00,M,M,M,M,M,M,M,M,M,M,M,KTMT 011235Z AUTO 00000KT 10SM BKN110 A3025 RMK AO2,M
BVU,2022-08-01 12:35,-114.8611,35.9475,671.00,M,M,M,M,M,0.00,M,M,M,M,M,M,M,M,M,M,M,M,M,M,M,M,M,M,M,M,KBVU 011235Z AUTO RMK AO2 PNO PWINO TSNO,M
MEV,2022-08-01 12:35,-119.7500,38.9963,1441.42,66.20,51.80,59.74,120.00,8.00,0.00,30.17,M,10.00,M,BKN,M,M,M,10000.00,M,M,M,M,M,M,M,M,M,M,66.20,KMEV 011235Z AUTO 12008KT 10SM BKN100 19/11 A3017 RMK AO2,M
CXP,2022-08-01 12:50,-119.7326,39.1923,1431.00,71.60,51.80,49.64,0.00,0.00,0.00,30.18,M,10.00,M,OVC,M,M,M,10000.00,M,M,M,M,M,M,M,M,M,M,71.60,KCXP 011250Z AUTO 00000KT 10SM OVC100 22/11 A3018 RMK AO2,M
HND,2022-08-01 12:50,-115.1344,35.9729,742.79,73.40,66.20,78.19,200.00,5.00,0.00,30.10,M,10.00,M,CLR,M,M,M,M,M,M,M,M,M,M,M,M,M,M,73.40,KHND 011250Z 20005KT 10SM CLR 23/19 A3010 RMK SP,M
P68,2022-08-01 12:53,-116.0056,39.6014,1993.00,58.00,46.00,64.47,190.00,3.00,0.00,30.25,1015.80,M,M,M,M,M,M,M,M,M,M,M,M,M,M,M,M,M,57.90,KP68 011253Z AUTO 19003KT 14/08 A3025 RMK AO1 SLP158 T01440078,M
LOL,2022-08-01 12:53,-118.5701,40.0684,1192.43,66.00,50.00,56.27,0.00,0.00,0.00,30.08,1013.50,10.00,M,CLR,M,M,M,M,M,M,M,M,M,M,M,M,M,M,66.00,KLOL 011253Z AUTO 00000KT 10SM CLR 19/10 A3008 RMK AO2 SLP135 T01890100,M
VGT,2022-08-01 12:53,-115.1933,36.2111,667.00,80.00,67.00,64.14,0.00,0.00,0.00,30.05,1016.80,10.00,M,CLR,M,M,M,M,M,M,M,M,M,M,M,M,M,M,82.40,KVGT 011253Z 00000KT 10SM CLR 27/19 A3005 RMK AO2 SLP168 T02670194,M
ELY,2022-08-01 12:53,-114.8453,39.2950,1909.00,56.00,49.00,77.28,190.00,5.00,0.00,30.30,1015.70,10.00,M,BKN,M,M,M,12000.00,M,M,M,M,M,M,M,M,M,M,55.90,KELY 011253Z AUTO 19005KT 10SM BKN120 13/09 A3030 RMK AO2 SLP157 T01330094,M
DRA,2022-08-01 12:53,-116.0278,36.6206,1009.00,73.00,65.00,75.75,30.00,3.00,0.00,30.12,1015.60,10.00,M,CLR,M,M,M,M,M,M,M,M,M,M,M,M,M,M,73.00,KDRA 011253Z AUTO 03003KT 10SM CLR 23/18 A3012 RMK AO2 SLP156 T02280183,M
RTS,2022-08-01 12:55,-119.8764,39.6682,1539.00,64.40,44.60,48.55,290.00,7.00,0.00,30.20,M,10.00,M,CLR,M,M,M,M,M,M,M,M,M,M,M,M,M,M,64.40,KRTS 011255Z AUTO 29007KT 10SM CLR 18/07 A3020 RMK AO2,M
HTH,2022-08-01 12:55,-118.6315,38.5448,1282.89,69.80,59.00,68.55,180.00,4.00,0.00,30.14,M,10.00,M,FEW,M,M,M,12000.00,M,M,M,M,M,M,M,M,M,M,69.80,KHTH 011255Z AUTO 18004KT 10SM FEW120 21/15 A3014 RMK A01,M
BAM,2022-08-01 12:55,-116.8743,40.5990,1382.36,69.80,48.20,46.16,280.00,5.00,0.00,30.13,M,10.00,M,CLR,M,M,M,M,M,M,M,M,M,M,M,M,M,M,69.80,KBAM 011255Z AUTO 28005KT 10SM CLR 21/09 A3013 RMK AO1,M
MEV,2022-08-01 12:55,-119.7500,38.9963,1441.42,68.00,51.80,56.13,0.00,0.00,0.00,30.17,M,10.00,M,FEW,OVC,M,M,6000.00,10000.00,M,M,M,M,M,M,M,M,M,68.00,KMEV 011255Z AUTO 00000KT 10SM FEW060 OVC100 20/11 A3017 RMK AO2,M
RNO,2022-08-01 12:55,-119.7711,39.4839,1341.00,71.00,53.00,52.96,170.00,3.00,0.00,30.14,1014.10,10.00,M,FEW,SCT,BKN,BKN,8000.00,12000.00,15000.00,18000.00,M,M,M,M,M,M,M,71.10,KRNO 011255Z 17003KT 10SM FEW080 SCT120 BKN150 BKN180 22/12 A3014 RMK AO2 SLP141 ACC ALQDS T02170117,M
TMT,2022-08-01 12:55,-117.1971,39.4643,1749.34,M,M,M,160.00,3.00,0.00,30.25,M,10.00,M,SCT,M,M,M,11000.00,M,M,M,M,M,M,M,M,M,M,M,KTMT 011255Z AUTO 16003KT 10SM SCT110 A3025 RMK AO2,M
BVU,2022-08-01 12:55,-114.8611,35.9475,671.00,M,M,M,M,M,0.00,M,M,M,M,M,M,M,M,M,M,M,M,M,M,M,M,M,M,M,M,KBVU 011255Z AUTO RMK AO2 PNO PWINO TSNO,M
LAS,2022-08-01 12:56,-115.1634,36.0719,663.00,77.00,66.00,68.85,0.00,0.00,0.00,30.06,1015.70,10.00,M,FEW,BKN,M,M,16000.00,22000.00,M,M,M,M,M,M,M,M,M,77.00,KLAS 011256Z 00000KT 10SM FEW160 BKN220 25/19 A3006 RMK AO2 SLP157 T02500189,M
WMC,2022-08-01 12:56,-117.8072,40.9019,1315.00,73.00,48.00,41.10,190.00,12.00,0.00,30.09,1012.30,10.00,M,CLR,M,M,M,M,M,M,M,M,M,M,M,M,M,M,73.00,KWMC 011256Z AUTO 19012KT 10SM CLR 23/09 A3009 RMK AO2 SLP123 T02280089,M
HND,2022-08-01 12:56,-115.1344,35.9729,742.79,73.00,67.00,81.20,210.00,6.00,0.00,30.10,1018.40,10.00,M,CLR,M,M,M,M,M,M,M,M,M,M,M,M,M,M,73.00,KHND 011256Z 21006KT 10SM CLR 23/19 A3010 RMK AO2 SLP184 T02280194,M
EKO,2022-08-01 12:56,-115.7860,40.8242,1367.00,69.00,48.00,46.92,330.00,5.00,0.00,30.18,1015.00,10.00,M,CLR,M,M,M,M,M,M,M,M,M,M,M,M,M,M,69.10,KEKO 011256Z AUTO 33005KT 10SM CLR 21/09 A3018 RMK AO2 SLP150 T02060089,M
NFL,2022-08-01 12:56,-118.7010,39.4166,1199.00,74.00,54.00,49.79,170.00,9.00,0.00,30.09,1015.80,10.00,M,CLR,M,M,M,M,M,M,M,M,M,M,M,M,M,M,73.90,KNFL 011256Z AUTO 17009KT 10SM CLR 23/12 A3009 RMK AO2 SLP158 T02330122,M
TPH,2022-08-01 12:56,-117.0904,38.0505,1654.00,65.00,61.00,87.18,0.00,0.00,0.00,30.25,1018.50,10.00,M,OVC,M,M,M,11000.00,M,M,M,M,M,M,M,M,M,M,64.90,KTPH 011256Z AUTO 00000KT 10SM OVC110 18/16 A3025 RMK AO2 SLP185 T01830161,M
LSV,2022-08-01 12:58,-115.0343,36.2362,570.00,77.20,75.20,93.56,40.00,3.00,0.00,30.04,1015.00,10.00,M,FEW,M,M,M,19000.00,M,M,M,M,M,M,M,M,M,M,77.20,KLSV 011258Z 04003KT 10SM FEW190 25/24 A3004 RMK AO2A SLP150 T02510240 $,M
INS,2022-08-01 12:58,-115.6733,36.5872,955.00,73.00,68.20,84.92,0.00,0.00,0.00,30.11,1015.20,10.00,M,OVC,M,M,M,13000.00,M,M,M,M,M,M,M,M,M,M,73.00,KINS 011258Z AUTO 00000KT 10SM OVC130 23/20 A3011 RMK AO2 SLP152 T02280201,M
CXP,2022-08-01 13:10,-119.7326,39.1923,1431.00,71.60,51.80,49.64,0.00,0.00,0.00,30.18,M,10.00,M,SCT,SCT,OVC,M,5500.00,6500.00,10000.00,M,M,M,M,M,M,M,M,71.60,KCXP 011310Z AUTO 00000KT 10SM SCT055 SCT065 OVC100 22/11 A3018 RMK AO2,M
HTH,2022-08-01 13:15,-118.6315,38.5448,1282.89,69.80,59.00,68.55,130.00,4.00,0.00,30.15,M,10.00,M,BKN,M,M,M,12000.00,M,M,M,M,M,M,M,M,M,M,69.80,KHTH 011315Z AUTO 13004KT 10SM BKN120 21/15 A3015 RMK A01,M
BVU,2022-08-01 13:15,-114.8611,35.9475,671.00,M,M,M,M,M,0.00,M,M,M,M,M,M,M,M,M,M,M,M,M,M,M,M,M,M,M,M,KBVU 011315Z AUTO RMK AO2 PNO PWINO TSNO,M
TMT,2022-08-01 13:15,-117.1971,39.4643,1749.34,M,M,M,200.00,4.00,0.00,30.25,M,10.00,M,BKN,M,M,M,10000.00,M,M,M,M,M,M,M,M,M,M,M,KTMT 011315Z AUTO 20004KT 10SM BKN100 A3025 RMK AO2,M
RTS,2022-08-01 13:15,-119.8764,39.6682,1539.00,64.40,44.60,48.55,280.00,5.00,0.00,30.20,M,10.00,M,CLR,M,M,M,M,M,M,M,M,M,M,M,M,M,M,64.40,KRTS 011315Z AUTO 28005KT 10SM CLR 18/07 A3020 RMK AO2,M
MEV,2022-08-01 13:15,-119.7500,38.9963,1441.42,68.00,53.60,59.97,0.00,0.00,0.00,30.17,M,10.00,M,SCT,M,M,M,11000.00,M,M,M,M,M,M,M,M,M,M,68.00,KMEV 011315Z AUTO 00000KT 10SM SCT110 20/12 A3017 RMK AO2,M
BAM,2022-08-01 13:15,-116.8743,40.5990,1382.36,66.20,46.40,48.83,0.00,0.00,0.00,30.14,M,10.00,M,CLR,M,M,M,M,M,M,M,M,M,M,M,M,M,M,66.20,KBAM 011315Z AUTO 00000KT 10SM CLR 19/08 A3014 RMK AO1,M
CXP,2022-08-01 13:30,-119.7326,39.1923,1431.00,71.60,55.40,56.63,330.00,5.00,0.00,30.18,M,10.00,M,FEW,FEW,BKN,M,5500.00,6500.00,11000.00,M,M,M,M,M,M,M,M,71.60,KCXP 011330Z AUTO 33005KT 10SM FEW055 FEW065 BKN110 22/13 A3018 RMK AO2,M
BVU,2022-08-01 13:35,-114.8611,35.9475,671.00,M,M,M,M,M,0.00,M,M,M,M,M,M,M,M,M,M,M,M,M,M,M,M,M,M,M,M,KBVU 011335Z AUTO RMK AO2 PNO PWINO TSNO,M
RTS,2022-08-01 13:35,-119.8764,39.6682,1539.00,64.40,44.60,48.55,270.00,7.00,0.00,30.20,M,10.00,M,CLR,M,M,M,M,M,M,M,M,M,M,M,M,M,M,64.40,KRTS 011335Z AUTO 27007KT 10SM CLR 18/07 A3020 RMK AO2,M
MEV,2022-08-01 13:35,-119.7500,38.9963,1441.42,68.00,51.80,56.13,0.00,0.00,0.00,30.17,M,10.00,M,CLR,M,M,M,M,M,M,M,M,M,M,M,M,M,M,68.00,KMEV 011335Z AUTO 00000KT 10SM CLR 20/11 A3017 RMK AO2,M
BAM,2022-08-01 13:35,-116.8743,40.5990,1382.36,64.40,44.60,48.55,0.00,0.00,0.00,30.14,M,10.00,M,CLR,M,M,M,M,M,M,M,M,M,M,M,M,M,M,64.40,KBAM 011335Z AUTO 00000KT 10SM CLR 18/07 A3014 RMK AO1,M
HTH,2022-08-01 13:35,-118.6315,38.5448,1282.89,68.00,60.80,77.75,120.00,6.00,0.00,30.15,M,10.00,M,OVC,M,M,M,12000.00,M,M,M,M,M,M,M,M,M,M,68.00,KHTH 011335Z AUTO 12006KT 10SM OVC120 20/16 A3015 RMK A01,M
TMT,2022-08-01 13:35,-117.1971,39.4643,1749.34,59.50,48.60,67.14,0.00,0.00,0.00,30.26,M,10.00,M,OVC,M,M,M,10000.00,M,M,M,M,M,M,M,M,M,M,59.50,KTMT 011335Z AUTO 00000KT 10SM OVC100 15/09 A3026 RMK AO2 T01530092,M
CXP,2022-08-01 13:50,-119.7326,39.1923,1431.00,69.80,57.20,64.26,M,4.00,0.00,30.18,M,10.00,M,BKN,M,M,M,11000.00,M,M,M,M,M,M,M,M,M,M,69.80,KCXP 011350Z AUTO VRB04KT 10SM BKN110 21/14 A3018 RMK AO2,M
LOL,2022-08-01 13:53,-118.5701,40.0684,1192.43,67.00,50.00,54.54,0.00,0.00,0.00,30.09,1014.10,10.00,M,CLR,M,M,M,M,M,M,M,M,M,M,M,M,M,M,66.90,KLOL 011353Z AUTO 00000KT 10SM CLR 19/10 A3009 RMK AO2 SLP141 T01940100,M
ELY,2022-08-01 13:53,-114.8453,39.2950,1909.00,59.00,51.00,75.02,0.00,0.00,0.00,30.31,1016.60,10.00,M,BKN,M,M,M,11000.00,M,M,M,M,M,M,M,M,M,M,59.00,KELY 011353Z AUTO 00000KT 10SM BKN110 15/11 A3031 RMK AO2 SLP166 T01500106,M
P68,2022-08-01 13:53,-116.0056,39.6014,1993.00,62.00,48.00,59.86,210.00,7.00,0.00,30.26,1015.90,M,M,M,M,M,M,M,M,M,M,M,M,M,M,M,M,M,62.10,KP68 011353Z AUTO 21007KT 17/09 A3026 RMK AO1 SLP159 T01670089,M
DRA,2022-08-01 13:53,-116.0278,36.6206,1009.00,72.00,65.00,78.35,0.00,0.00,0.00,30.13,1016.00,10.00,M,CLR,M,M,M,M,M,M,M,M,M,M,M,M,M,M,72.00,KDRA 011353Z AUTO 00000KT 10SM CLR 22/18 A3013 RMK AO2 SLP160 T02220183,M
VGT,2022-08-01 13:53,-115.1933,36.2111,667.00,82.00,67.00,60.28,20.00,4.00,0.00,30.06,1017.00,10.00,M,CLR,M,M,M,M,M,M,M,M,M,M,M,M,M,M,84.48,KVGT 011353Z 02004KT 10SM CLR 28/19 A3006 RMK AO2 SLP170 T02780194,M
HTH,2022-08-01 13:55,-118.6315,38.5448,1282.89,69.80,59.00,68.55,130.00,5.00,0.00,30.16,M,10.00,M,BKN,M,M,M,12000.00,M,M,M,M,M,M,M,M,M,M,69.80,KHTH 011355Z AUTO 13005KT 10SM BKN120 21/15 A3016 RMK A01,M
BAM,2022-08-01 13:55,-116.8743,40.5990,1382.36,68.00,48.20,49.10,50.00,3.00,0.00,30.15,M,10.00,M,CLR,M,M,M,M,M,M,M,M,M,M,M,M,M,M,68.00,KBAM 011355Z AUTO 05003KT 10SM CLR 20/09 A3015 RMK AO1,M
TMT,2022-08-01 13:55,-117.1971,39.4643,1749.34,M,M,M,0.00,0.00,0.00,30.26,M,10.00,M,OVC,M,M,M,10000.00,M,M,M,M,M,M,M,M,M,M,M,KTMT 011355Z AUTO 00000KT 10SM OVC100 A3026 RMK AO2,M
BVU,2022-08-01 13:55,-114.8611,35.9475,671.00,M,M,M,M,M,0.00,M,M,M,M,M,M,M,M,M,M,M,M,M,M,M,M,M,M,M,M,KBVU 011355Z AUTO RMK AO2 PNO PWINO TSNO,M
RTS,2022-08-01 13:55,-119.8764,39.6682,1539.00,69.80,44.60,40.29,280.00,6.00,0.00,30.21,M,10.00,M,CLR,M,M,M,M,M,M,M,M,M,M,M,M,M,M,69.80,KRTS 011355Z AUTO 28006KT 10SM CLR 21/07 A3021 RMK AO2,M
RNO,2022-08-01 13:55,-119.7711,39.4839,1341.00,73.00,53.00,49.66,0.00,0.00,0.00,30.15,1014.50,10.00,M,SCT,BKN,BKN,BKN,9000.00,12000.00,16000.00,20000.00,M,M,M,M,M,M,M,73.00,KRNO 011355Z 00000KT 10SM SCT090 BKN120 BKN160 BKN200 23/12 A3015 RMK AO2 SLP145 ACC ALQDS T02280117,M
MEV,2022-08-01 13:55,-119.7500,38.9963,1441.42,68.00,53.60,59.97,150.00,3.00,0.00,30.18,M,10.00,M,CLR,M,M,M,M,M,M,M,M,M,M,M,M,M,M,68.00,KMEV 011355Z AUTO 15003KT 10SM CLR 20/12 A3018 RMK AO2,M
EKO,2022-08-01 13:56,-115.7860,40.8242,1367.00,71.00,49.00,45.33,330.00,4.00,0.00,30.19,1015.10,10.00,M,CLR,M,M,M,M,M,M,M,M,M,M,M,M,M,M,71.10,KEKO 011356Z AUTO 33004KT 10SM CLR 22/09 A3019 RMK AO2 SLP151 T02170094,M
TPH,2022-08-01 13:56,-117.0904,38.0505,1654.00,65.00,60.00,84.44,0.00,0.00,0.00,30.25,1018.30,10.00,M,FEW,BKN,M,M,9000.00,11000.00,M,M,M,M,M,M,M,M,M,64.90,KTPH 011356Z AUTO 00000KT 10SM FEW090 BKN110 18/16 A3025 RMK AO2 SLP183 T01830156,M
HND,2022-08-01 13:56,-115.1344,35.9729,742.79,75.00,67.00,75.92,220.00,6.00,0.00,30.11,1018.80,10.00,M,CLR,M,M,M,M,M,M,M,M,M,M,M,M,M,M,75.00,KHND 011356Z 22006KT 10SM CLR 24/19 A3011 RMK AO2 SLP188 T02390194,M
NFL,2022-08-01 13:56,-118.7010,39.4166,1199.00,75.00,55.00,49.78,170.00,10.00,0.00,30.10,1016.00,10.00,M,CLR,M,M,M,M,M,M,M,M,M,M,M,M,M,M,75.00,KNFL 011356Z AUTO 17010KT 10SM CLR 24/13 A3010 RMK AO2 SLP160 T02390128,M
LAS,2022-08-01 13:56,-115.1634,36.0719,663.00,78.00,66.00,66.39,190.00,4.00,0.00,30.07,1015.90,10.00,M,FEW,FEW,M,M,15000.00,22000.00,M,M,M,M,M,M,M,M,M,78.10,KLAS 011356Z 19004KT 10SM FEW150 FEW220 26/19 A3007 RMK AO2 SLP159 T02560189,M
WMC,2022-08-01 13:56,-117.8072,40.9019,1315.00,74.00,49.00,41.24,180.00,11.00,0.00,30.10,1012.60,10.00,M,CLR,M,M,M,M,M,M,M,M,M,M,M,M,M,M,73.90,KWMC 011356Z AUTO 18011KT 10SM CLR 23/09 A3010 RMK AO2 SLP126 T02330094,M
INS,2022-08-01 13:58,-115.6733,36.5872,955.00,74.80,66.40,75.12,0.00,0.00,0.00,30.12,1015.40,10.00,M,OVC,M,M,M,13000.00,M,M,M,M,M,M,M,M,M,M,74.80,KINS 011358Z AUTO 00000KT 10SM OVC130 24/19 A3012 RMK AO2 SLP154 T02380191,M
LSV,2022-08-01 13:58,-115.0343,36.2362,570.00,80.60,80.60,100.00,50.00,3.00,0.00,30.05,1015.30,10.00,M,FEW,M,M,M,20000.00,M,M,M,M,M,M,M,M,M,M,91.23,KLSV 011358Z AUTO 05003KT 10SM FEW200 27/27 A3005 RMK AO2 SLP153 T02700270 $,M
CXP,2022-08-01 14:10,-119.7326,39.1923,1431.00,71.60,57.20,60.44,340.00,3.00,0.00,30.19,M,10.00,M,OVC,M,M,M,11000.00,M,M,M,M,M,M,M,M,M,M,71.60,KCXP 011410Z AUTO 34003KT 10SM OVC110 22/14 A3019 RMK AO2,M
RTS,2022-08-01 14:15,-119.8764,39.6682,1539.00,73.40,44.60,35.66,270.00,7.00,0.00,30.21,M,10.00,M,CLR,M,M,M,M,M,M,M,M,M,M,M,M,M,M,73.40,KRTS 011415Z AUTO 27007KT 10SM CLR 23/07 A3021 RMK AO2,M
BVU,2022-08-01 14:15,-114.8611,35.9475,671.00,M,M,M,M,M,0.00,M,M,M,M,M,M,M,M,M,M,M,M,M,M,M,M,M,M,M,M,KBVU 011415Z AUTO RMK AO2 PNO PWINO TSNO,M
MEV,2022-08-01 14:15,-119.7500,38.9963,1441.42,69.80,51.80,52.77,0.00,0.00,0.00,30.18,M,10.00,M,FEW,M,M,M,10000.00,M,M,M,M,M,M,M,M,M,M,69.80,KMEV 011415Z AUTO 00000KT 10SM FEW100 21/11 A3018 RMK AO2,M
HTH,2022-08-01 14:15,-118.6315,38.5448,1282.89,71.60,59.00,64.48,130.00,5.00,0.00,30.15,M,10.00,M,FEW,M,M,M,12000.00,M,M,M,M,M,M,M,M,M,M,71.60,KHTH 011415Z AUTO 13005KT 10SM FEW120 22/15 A3015 RMK A01,M
TMT,2022-08-01 14:15,-117.1971,39.4643,1749.34,M,M,M,0.00,0.00,0.00,30.26,M,10.00,M,OVC,M,M,M,10000.00,M,M,M,M,M,M,M,M,M,M,M,KTMT 011415Z AUTO 00000KT 10SM OVC100 A3026 RMK AO2,M
BAM,2022-08-01 14:15,-116.8743,40.5990,1382.36,71.60,48.20,43.42,0.00,0.00,0.00,30.15,M,10.00,M,CLR,M,M,M,M,M,M,M,M,M,M,M,M,M,M,71.60,KBAM 011415Z AUTO 00000KT 10SM CLR 22/09 A3015 RMK AO1,M
CXP,2022-08-01 14:30,-119.7326,39.1923,1431.00,73.40,57.20,56.88,320.00,3.00,0.00,30.19,M,10.00,M,BKN,M,M,M,11000.00,M,M,M,M,M,M,M,M,M,M,73.40,KCXP 011430Z AUTO 32003KT 10SM BKN110 23/14 A3019 RMK AO2,M
TMT,2022-08-01 14:35,-117.1971,39.4643,1749.34,M,M,M,0.00,0.00,0.00,30.26,M,10.00,M,OVC,M,M,M,10000.00,M,M,M,M,M,M,M,M,M,M,M,KTMT 011435Z AUTO 00000KT 10SM OVC100 A3026 RMK AO2,M
HTH,2022-08-01 14:35,-118.6315,38.5448,1282.89,71.60,59.00,64.48,140.00,5.00,0.00,30.15,M,10.00,M,FEW,M,M,M,12000.00,M,M,M,M,M,M,M,M,M,M,71.60,KHTH 011435Z AUTO 14005KT 10SM FEW120 22/15 A3015 RMK A01,M
BAM,2022-08-01 14:35,-116.8743,40.5990,1382.36,73.40,48.20,40.85,0.00,0.00,0.00,30.15,M,10.00,M,CLR,M,M,M,M,M,M,M,M,M,M,M,M,M,M,73.40,KBAM 011435Z AUTO 00000KT 10SM CLR 23/09 A3015 RMK AO1,M
MEV,2022-08-01 14:35,-119.7500,38.9963,1441.42,69.80,53.60,56.38,0.00,0.00,0.00,30.18,M,10.00,M,FEW,M,M,M,10000.00,M,M,M,M,M,M,M,M,M,M,69.80,KMEV 011435Z AUTO 00000KT 10SM FEW100 21/12 A3018 RMK AO2,M
RTS,2022-08-01 14:35,-119.8764,39.6682,1539.00,73.40,44.60,35.66,290.00,9.00,0.00,30.21,M,10.00,M,CLR,M,M,M,M,M,M,M,M,M,M,M,M,M,M,73.40,KRTS 011435Z AUTO 29009KT 10SM CLR 23/07 A3021 RMK AO2,M
BVU,2022-08-01 14:35,-114.8611,35.9475,671.00,M,M,M,M,M,0.00,M,M,M,M,M,M,M,M,M,M,M,M,M,M,M,M,M,M,M,M,KBVU 011435Z AUTO RMK AO2 PNO PWINO TSNO,M
NFL,2022-08-01 14:37,-118.7010,39.4166,1199.00,76.00,54.00,46.57,170.00,11.00,0.00,30.10,M,10.00,M,FEW,BKN,M,M,8000.00,18000.00,M,M,M,M,M,M,M,M,M,75.90,KNFL 011437Z 17011KT 10SM FEW080 BKN180 24/12 A3010 RMK AO2 T02440122,M
CXP,2022-08-01 14:50,-119.7326,39.1923,1431.00,73.40,53.60,49.90,0.00,0.00,0.00,30.19,M,10.00,M,BKN,M,M,M,11000.00,M,M,M,M,M,M,M,M,M,M,73.40,KCXP 011450Z AUTO 00000KT 10SM BKN110 23/12 A3019 RMK AO2,M
P68,2022-08-01 14:53,-116.0056,39.6014,1993.00,67.00,50.00,54.54,210.00,4.00,0.00,30.25,1015.60,M,M,M,M,M,M,M,M,M,M,M,M,M,M,M,M,M,66.90,KP68 011453Z AUTO 21004KT 19/10 A3025 RMK AO1 SLP156 T01940100 50001,M
VGT,2022-08-01 14:53,-115.1933,36.2111,667.00,83.00,66.00,56.75,80.00,3.00,0.00,30.07,1017.40,10.00,M,CLR,M,M,M,M,M,M,M,M,M,M,M,M,M,M,85.07,KVGT 011453Z 08003KT 10SM CLR 28/19 A3007 RMK AO2 SLP174 T02830189 51009,M
ELY,2022-08-01 14:53,-114.8453,39.2950,1909.00,64.00,54.00,69.92,M,3.00,0.00,30.32,1016.70,10.00,M,CLR,M,M,M,M,M,M,M,M,M,M,M,M,M,M,64.00,KELY 011453Z AUTO VRB03KT 10SM CLR 18/12 A3032 RMK AO2 SLP167 T01780122 51010,M
LOL,2022-08-01 14:53,-118.5701,40.0684,1192.43,74.00,53.00,48.18,0.00,0.00,0.00,30.09,1014.20,10.00,M,CLR,M,M,M,M,M,M,M,M,M,M,M,M,M,M,73.90,KLOL 011453Z AUTO 00000KT 10SM CLR 23/12 A3009 RMK AO2 SLP142 T02330117 51009,M
DRA,2022-08-01 14:53,-116.0278,36.6206,1009.00,76.00,65.00,68.73,0.00,0.00,0.00,30.13,1016.00,10.00,M,FEW,M,M,M,12000.00,M,M,M,M,M,M,M,M,M,M,75.90,KDRA 011453Z AUTO 00000KT 10SM FEW120 24/18 A3013 RMK AO2 SLP160 T02440183 51006,M
RTS,2022-08-01 14:55,-119.8764,39.6682,1539.00,73.40,44.60,35.66,280.00,8.00,0.00,30.21,M,10.00,M,CLR,M,M,M,M,M,M,M,M,M,M,M,M,M,M,73.40,KRTS 011455Z AUTO 28008KT 10SM CLR 23/07 A3021 RMK AO2,M
RNO,2022-08-01 14:55,-119.7711,39.4839,1341.00,76.00,52.00,43.28,200.00,3.00,0.00,30.15,1014.50,10.00,M,BKN,BKN,OVC,M,14000.00,19000.00,24000.00,M,M,M,M,M,M,M,M,75.90,KRNO 011455Z 20003KT 10SM BKN140 BKN190 OVC240 24/11 A3015 RMK AO2 SLP145 VIRGA ACC SE THRU SW T02440111 51006,M
TMT,2022-08-01 14:55,-117.1971,39.4643,1749.34,M,M,M,0.00,0.00,0.00,30.26,M,10.00,M,BKN,BKN,M,M,10000.00,12000.00,M,M,M,M,M,M,M,M,M,M,KTMT 011455Z AUTO 00000KT 10SM BKN100 BKN120 A3026 RMK AO2,M
BAM,2022-08-01 14:55,-116.8743,40.5990,1382.36,75.20,48.20,38.46,0.00,0.00,0.00,30.15,M,10.00,M,CLR,M,M,M,M,M,M,M,M,M,M,M,M,M,M,75.20,KBAM 011455Z AUTO 00000KT 10SM CLR 24/09 A3015 RMK AO1,M
HTH,2022-08-01 14:55,-118.6315,38.5448,1282.89,73.40,59.00,60.67,130.00,4.00,0.00,30.15,M,10.00,M,CLR,M,M,M,M,M,M,M,M,M,M,M,M,M,M,73.40,KHTH 011455Z AUTO 13004KT 10SM CLR 23/15 A3015 RMK A01,M
BVU,2022-08-01 14:55,-114.8611,35.9475,671.00,M,M,M,M,M,0.00,M,M,M,M,M,M,M,M,M,M,M,M,M,M,M,M,M,M,M,M,KBVU 011455Z AUTO RMK AO2 PNO PWINO TSNO,M
MEV,2022-08-01 14:55,-119.7500,38.9963,1441.42,69.80,53.60,56.38,0.00,0.00,0.00,30.18,M,10.00,M,BKN,M,M,M,10000.00,M,M,M,M,M,M,M,M,M,M,69.80,KMEV 011455Z AUTO 00000KT 10SM BKN100 21/12 A3018 RMK AO2,M
LAS,2022-08-01 14:56,-115.1634,36.0719,663.00,81.00,65.00,58.10,0.00,0.00,0.00,30.08,1016.10,10.00,M,FEW,FEW,SCT,M,8500.00,15000.00,22000.00,M,M,M,M,M,M,M,M,82.79,KLAS 011456Z 00000KT 10SM FEW085 FEW150 SCT220 27/18 A3008 RMK AO2 SLP161 T02720183 53008,M
EKO,2022-08-01 14:56,-115.7860,40.8242,1367.00,76.00,49.00,38.57,0.00,0.00,0.00,30.19,1015.10,10.00,M,CLR,M,M,M,M,M,M,M,M,M,M,M,M,M,M,75.90,KEKO 011456Z AUTO 00000KT 10SM CLR 24/09 A3019 RMK AO2 SLP151 T02440094 51005,M
WMC,2022-08-01 14:56,-117.8072,40.9019,1315.00,81.00,50.00,33.97,190.00,12.00,0.00,30.10,1012.90,10.00,M,CLR,M,M,M,M,M,M,M,M,M,M,M,M,M,M,80.12,KWMC 011456Z AUTO 19012KT 10SM CLR 27/10 A3010 RMK AO2 SLP129 T02720100 51008,M
HND,2022-08-01 14:56,-115.1344,35.9729,742.79,79.00,67.00,66.49,230.00,5.00,0.00,30.11,1018.80,10.00,M,CLR,M,M,M,M,M,M,M,M,M,M,M,M,M,M,79.00,KHND 011456Z 23005KT 10SM CLR 26/19 A3011 RMK AO2 SLP188 T02610194 51008,M
TPH,2022-08-01 14:56,-117.0904,38.0505,1654.00,66.00,60.00,81.27,140.00,4.00,0.00,30.26,1018.50,10.00,M,OVC,M,M,M,9000.00,M,M,M,M,M,M,M,M,M,M,66.00,KTPH 011456Z AUTO 14004KT 10SM OVC090 19/16 A3026 RMK AO2 SLP185 T01890156 53002,M
NFL,2022-08-01 14:56,-118.7010,39.4166,1199.00,77.00,55.00,46.57,170.00,10.00,0.00,30.10,1015.90,10.00,M,FEW,SCT,BKN,BKN,8000.00,12000.00,18000.00,22000.00,M,M,M,M,M,M,M,77.00,KNFL 011456Z 17010KT 10SM FEW080 SCT120 BKN180 BKN220 25/13 A3010 RMK AO2 SLP159 T02500128 50003,M
INS,2022-08-01 14:58,-115.6733,36.5872,955.00,76.30,65.30,68.78,0.00,0.00,0.00,30.13,1015.70,10.00,M,SCT,SCT,M,M,13000.00,17000.00,M,M,M,M,M,M,M,M,M,76.30,KINS 011458Z AUTO 00000KT 10SM SCT130 SCT170 25/19 A3013 RMK AO2 SLP157 T02460185 52006,M
LSV,2022-08-01 14:58,-115.0343,36.2362,570.00,86.00,76.30,72.89,0.00,0.00,0.00,30.05,1015.20,10.00,M,CLR,M,M,M,M,M,M,M,M,M,M,M,M,M,M,96.36,KLSV 011458Z AUTO 00000KT 10SM CLR 30/25 A3005 RMK AO2 SLP152 T03000246 $,M
CXP,2022-08-01 15:10,-119.7326,39.1923,1431.00,75.20,51.80,43.97,0.00,0.00,0.00,30.19,M,10.00,M,OVC,M,M,M,11000.00,M,M,M,M,M,M,M,M,M,M,75.20,KCXP 011510Z AUTO 00000KT 10SM OVC110 24/11 A3019 RMK AO2,M
TMT,2022-08-01 15:15,-117.1971,39.4643,1749.34,M,M,M,0.00,0.00,0.00,30.25,M,10.00,M,SCT,M,M,M,10000.00,M,M,M,M,M,M,M,M,M,M,M,KTMT 011515Z AUTO 00000KT 10SM SCT100 A3025 RMK AO2,M
HTH,2022-08-01 15:15,-118.6315,38.5448,1282.89,75.20,59.00,57.12,100.00,5.00,0.00,30.15,M,10.00,M,CLR,M,M,M,M,M,M,M,M,M,M,M,M,M,M,75.20,KHTH 011515Z AUTO 10005KT 10SM CLR 24/15 A3015 RMK A01,M
BVU,2022-08-01 15:15,-114.8611,35.9475,671.00,M,M,M,M,M,0.00,M,M,M,M,M,M,M,M,M,M,M,M,M,M,M,M,M,M,M,M,KBVU 011515Z AUTO RMK AO2 PNO PWINO TSNO,M
BAM,2022-08-01 15:15,-116.8743,40.5990,1382.36,75.20,48.20,38.46,0.00,0.00,0.00,30.15,M,10.00,M,CLR,M,M,M,M,M,M,M,M,M,M,M,M,M,M,75.20,KBAM 011515Z AUTO 00000KT 10SM CLR 24/09 A3015 RMK AO1,M
RTS,2022-08-01 15:15,-119.8764,39.6682,1539.00,75.20,42.80,31.34,280.00,9.00,0.00,30.21,M,10.00,M,CLR,M,M,M,M,M,M,M,M,M,M,M,M,M,M,75.20,KRTS 011515Z AUTO 28009KT 10SM CLR 24/06 A3021 RMK AO2,M
MEV,2022-08-01 15:15,-119.7500,38.9963,1441.42,71.60,53.60,53.03,0.00,0.00,0.00,30.18,M,10.00,M,SCT,M,M,M,10000.00,M,M,M,M,M,M,M,M,M,M,71.60,KMEV 011515Z AUTO 00000KT 10SM SCT100 22/12 A3018 RMK AO2,M
CXP,2022-08-01 15:30,-119.7326,39.1923,1431.00,75.20,51.80,43.97,0.00,0.00,0.00,30.19,M,10.00,M,OVC,M,M,M,12000.00,M,M,M,M,M,M,M,M,M,M,75.20,KCXP 011530Z AUTO 00000KT 10SM OVC120 24/11 A3019 RMK AO2,M
RTS,2022-08-01 15:35,-119.8764,39.6682,1539.00,73.40,42.80,33.29,290.00,8.00,0.00,30.21,M,10.00,M,CLR,M,M,M,M,M,M,M,M,M,M,M,M,M,M,73.40,KRTS 011535Z AUTO 29008KT 10SM CLR 23/06 A3021 RMK AO2,M
BVU,2022-08-01 15:35,-114.8611,35.9475,671.00,M,M,M,M,M,0.00,M,M,M,M,M,M,M,M,M,M,M,M,M,M,M,M,M,M,M,M,KBVU 011535Z AUTO RMK AO2 PNO PWINO TSNO,M
BAM,2022-08-01 15:35,-116.8743,40.5990,1382.36,77.00,50.00,38.74,0.00,0.00,0.00,30.15,M,10.00,M,CLR,M,M,M,M,M,M,M,M,M,M,M,M,M,M,77.00,KBAM 011535Z AUTO 00000KT 10SM CLR 25/10 A3015 RMK AO1,M
TMT,2022-08-01 15:35,-117.1971,39.4643,1749.34,M,M,M,0.00,0.00,0.00,30.25,M,10.00,M,CLR,M,M,M,M,M,M,M,M,M,M,M,M,M,M,M,KTMT 011535Z AUTO 00000KT 10SM CLR A3025 RMK AO2,M
HTH,2022-08-01 15:35,-118.6315,38.5448,1282.89,75.20,57.20,53.55,110.00,6.00,0.00,30.15,M,10.00,M,FEW,M,M,M,12000.00,M,M,M,M,M,M,M,M,M,M,75.20,KHTH 011535Z AUTO 11006KT 10SM FEW120 24/14 A3015 RMK A01,M
MEV,2022-08-01 15:35,-119.7500,38.9963,1441.42,73.40,53.60,49.90,0.00,0.00,0.00,30.19,M,10.00,M,FEW,M,M,M,11000.00,M,M,M,M,M,M,M,M,M,M,73.40,KMEV 011535Z AUTO 00000KT 10SM FEW110 23/12 A3019 RMK AO2,M
CXP,2022-08-01 15:50,-119.7326,39.1923,1431.00,75.20,51.80,43.97,0.00,0.00,0.00,30.19,M,10.00,M,SCT,M,M,M,12000.00,M,M,M,M,M,M,M,M,M,M,75.20,KCXP 011550Z AUTO 00000KT 10SM SCT120 24/11 A3019 RMK AO2,M
LOL,2022-08-01 15:53,-118.5701,40.0684,1192.43,81.00,52.00,36.58,230.00,6.00,0.00,30.09,1013.90,10.00,M,CLR,M,M,M,M,M,M,M,M,M,M,M,M,M,M,80.34,KLOL 011553Z AUTO 23006KT 10SM CLR 27/11 A3009 RMK AO2 SLP139 T02720111,M
ELY,2022-08-01 15:53,-114.8453,39.2950,1909.00,68.00,53.00,58.88,220.00,4.00,0.00,30.32,1016.70,10.00,M,BKN,M,M,M,11000.00,M,M,M,M,M,M,M,M,M,M,68.00,KELY 011553Z AUTO 22004KT 10SM BKN110 20/12 A3032 RMK AO2 SLP167 T02000117,M
VGT,2022-08-01 15:53,-115.1933,36.2111,667.00,85.00,66.00,53.21,150.00,4.00,0.00,30.08,1017.50,10.00,M,CLR,M,M,M,M,M,M,M,M,M,M,M,M,M,M,87.13,KVGT 011553Z 15004KT 10SM CLR 29/19 A3008 RMK AO2 SLP175 T02940189,M
P68,2022-08-01 15:53,-116.0056,39.6014,1993.00,70.00,51.00,51.07,160.00,10.00,0.00,30.26,1016.10,M,M,M,M,M,M,M,M,M,M,M,M,M,M,M,M,M,70.00,KP68 011553Z AUTO 16010KT 21/11 A3026 RMK AO1 SLP161 T02110106,M
DRA,2022-08-01 15:53,-116.0278,36.6206,1009.00,79.00,65.00,62.03,0.00,0.00,0.00,30.14,1016.30,10.00,M,CLR,M,M,M,M,M,M,M,M,M,M,M,M,M,M,79.00,KDRA 011553Z AUTO 00000KT 10SM CLR 26/18 A3014 RMK AO2 SLP163 T02610183,M
MEV,2022-08-01 15:55,-119.7500,38.9963,1441.42,75.20,53.60,46.98,140.00,3.00,0.00,30.19,M,10.00,M,FEW,M,M,M,11000.00,M,M,M,M,M,M,M,M,M,M,75.20,KMEV 011555Z AUTO 14003KT 10SM FEW110 24/12 A3019 RMK AO2,M
BAM,2022-08-01 15:55,-116.8743,40.5990,1382.36,77.00,50.00,38.74,40.00,3.00,0.00,30.15,M,10.00,M,CLR,M,M,M,M,M,M,M,M,M,M,M,M,M,M,77.00,KBAM 011555Z AUTO 04003KT 10SM CLR 25/10 A3015 RMK AO1,M
HTH,2022-08-01 15:55,-118.6315,38.5448,1282.89,75.20,57.20,53.55,120.00,5.00,0.00,30.15,M,10.00,M,FEW,M,M,M,12000.00,M,M,M,M,M,M,M,M,M,M,75.20,KHTH 011555Z AUTO 12005KT 10SM FEW120 24/14 A3015 RMK A01,M
05U,2022-08-01 15:55,-116.0051,39.6042,1811.23,71.60,51.80,49.64,170.00,9.00,0.00,30.29,M,10.00,M,FEW,M,M,M,11000.00,M,M,M,M,M,M,M,M,M,M,71.60,K05U 011555Z AUTO 17009KT 10SM FEW110 22/11 A3029 RMK A01,M
TMT,2022-08-01 15:55,-117.1971,39.4643,1749.34,M,M,M,0.00,0.00,0.00,30.25,M,10.00,M,CLR,M,M,M,M,M,M,M,M,M,M,M,M,M,M,M,KTMT 011555Z AUTO 00000KT 10SM CLR A3025 RMK AO2,M
RNO,2022-08-01 15:55,-119.7711,39.4839,1341.00,76.00,52.00,43.28,200.00,3.00,0.00,30.16,1014.80,10.00,M,BKN,OVC,M,M,13000.00,19000.00,M,M,M,M,M,M,M,M,M,75.90,KRNO 011555Z COR 20003KT 10SM BKN130 OVC190 24/11 A3016 RMK AO2 SLP148 VIRGA ACC DSNT E THRU SE T02440111,M
RTS,2022-08-01 15:55,-119.8764,39.6682,1539.00,75.20,42.80,31.34,290.00,9.00,0.00,30.21,M,10.00,M,CLR,M,M,M,M,M,M,M,M,M,M,M,M,M,M,75.20,KRTS 011555Z AUTO 29009KT 10SM CLR 24/06 A3021 RMK AO2,M
BVU,2022-08-01 15:55,-114.8611,35.9475,671.00,M,M,M,M,M,0.00,M,M,M,M,M,M,M,M,M,M,M,M,M,M,M,M,M,M,M,M,KBVU 011555Z AUTO RMK AO2 PWINO TSNO,M
LAS,2022-08-01 15:56,-115.1634,36.0719,663.00,84.00,65.00,52.71,0.00,0.00,0.00,30.08,1016.30,10.00,M,FEW,FEW,SCT,M,8000.00,15000.00,22000.00,M,M,M,M,M,M,M,M,85.72,KLAS 011556Z 00000KT 10SM FEW080 FEW150 SCT220 29/18 A3008 RMK AO2 SLP163 T02890183,M
WMC,2022-08-01 15:56,-117.8072,40.9019,1315.00,82.00,50.00,32.88,190.00,9.00,0.00,30.11,1013.70,10.00,M,CLR,M,M,M,M,M,M,M,M,M,M,M,M,M,M,80.73,KWMC 011556Z AUTO 19009KT 10SM CLR 28/10 A3011 RMK AO2 SLP137 T02780100,M
NFL,2022-08-01 15:56,-118.7010,39.4166,1199.00,80.00,54.00,40.54,170.00,11.00,0.00,30.10,1016.10,10.00,M,FEW,SCT,BKN,BKN,8000.00,12000.00,16000.00,20000.00,M,M,M,M,M,M,M,80.04,KNFL 011556Z 17011KT 10SM FEW080 SCT120 BKN160 BKN200 27/12 A3010 RMK AO2 SLP161 T02670122,M
HND,2022-08-01 15:56,-115.1344,35.9729,742.79,84.00,66.00,54.77,340.00,3.00,0.00,30.12,1018.90,10.00,M,CLR,M,M,M,M,M,M,M,M,M,M,M,M,M,M,86.20,KHND 011556Z 34003KT 10SM CLR 29/19 A3012 RMK AO2 SLP189 T02890189,M
TPH,2022-08-01 15:56,-117.0904,38.0505,1654.00,67.00,60.00,78.77,M,5.00,0.00,30.26,1018.70,10.00,M,BKN,OVC,M,M,9000.00,10000.00,M,M,M,M,M,M,M,M,M,66.90,KTPH 011556Z AUTO VRB05KT 10SM BKN090 OVC100 19/16 A3026 RMK AO2 SLP187 T01940156,M
EKO,2022-08-01 15:56,-115.7860,40.8242,1367.00,74.00,49.00,41.24,0.00,0.00,0.00,30.19,1015.50,10.00,M,CLR,M,M,M,M,M,M,M,M,M,M,M,M,M,M,73.90,KEKO 011556Z AUTO 00000KT 10SM CLR 23/09 A3019 RMK AO2 SLP155 T02330094,M
LSV,2022-08-01 15:58,-115.0343,36.2362,570.00,89.40,68.20,49.76,0.00,0.00,0.00,30.06,1015.40,10.00,M,CLR,M,M,M,M,M,M,M,M,M,M,M,M,M,M,93.39,KLSV 011558Z AUTO 00000KT 10SM CLR 32/20 A3006 RMK AO2 SLP154 T03190201 $,M
INS,2022-08-01 15:58,-115.6733,36.5872,955.00,78.80,67.00,66.93,330.00,3.00,0.00,30.13,1015.90,10.00,M,CLR,M,M,M,M,M,M,M,M,M,M,M,M,M,M,78.80,KINS 011558Z AUTO 33003KT 10SM CLR 26/19 A3013 RMK AO2 SLP159 T02600194,M
CXP,2022-08-01 16:10,-119.7326,39.1923,1431.00,75.20,53.60,46.98,0.00,0.00,0.00,30.19,M,10.00,M,CLR,M,M,M,M,M,M,M,M,M,M,M,M,M,M,75.20,KCXP 011610Z AUTO 00000KT 10SM CLR 24/12 A3019 RMK AO2,M
TMT,2022-08-01 16:15,-117.1971,39.4643,1749.34,M,M,M,0.00,0.00,0.00,30.25,M,10.00,M,CLR,M,M,M,M,M,M,M,M,M,M,M,M,M,M,M,KTMT 011615Z AUTO 00000KT 10SM CLR A3025 RMK AO2,M
BVU,2022-08-01 16:15,-114.8611,35.9475,671.00,M,M,M,M,M,0.00,M,M,M,M,M,M,M,M,M,M,M,M,M,M,M,M,M,M,M,M,KBVU 011615Z AUTO RMK AO2 PNO PWINO TSNO,M
RTS,2022-08-01 16:15,-119.8764,39.6682,1539.00,75.20,44.60,33.57,260.00,11.00,0.00,30.21,M,10.00,M,CLR,M,M,M,M,M,M,M,M,M,M,M,M,M,M,75.20,KRTS 011615Z AUTO 26011KT 10SM CLR 24/07 A3021 RMK AO2,M
05U,2022-08-01 16:15,-116.0051,39.6042,1811.23,73.40,51.80,46.71,160.00,10.00,0.00,30.28,M,9.00,M,CLR,M,M,M,M,M,M,M,M,M,M,M,M,M,M,73.40,K05U 011615Z AUTO 16010KT 9SM CLR 23/11 A3028 RMK A01,M
MEV,2022-08-01 16:15,-119.7500,38.9963,1441.42,75.20,51.80,43.97,0.00,0.00,0.00,30.19,M,9.00,M,CLR,M,M,M,M,M,M,M,M,M,M,M,M,M,M,75.20,KMEV 011615Z AUTO 00000KT 9SM CLR 24/11 A3019 RMK AO2,M
BAM,2022-08-01 16:15,-116.8743,40.5990,1382.36,78.80,50.00,36.51,0.00,0.00,0.00,30.14,M,10.00,M,CLR,M,M,M,M,M,M,M,M,M,M,M,M,M,M,78.80,KBAM 011615Z AUTO 00000KT 10SM CLR 26/10 A3014 RMK AO1,M
HTH,2022-08-01 16:15,-118.6315,38.5448,1282.89,77.00,57.20,50.43,140.00,5.00,0.00,30.15,M,10.00,M,FEW,M,M,M,12000.00,M,M,M,M,M,M,M,M,M,M,77.00,KHTH 011615Z AUTO 14005KT 10SM FEW120 25/14 A3015 RMK A01,M
CXP,2022-08-01 16:30,-119.7326,39.1923,1431.00,75.20,53.60,46.98,0.00,0.00,0.00,30.19,M,10.00,M,CLR,M,M,M,M,M,M,M,M,M,M,M,M,M,M,75.20,KCXP 011630Z AUTO 00000KT 10SM CLR 24/12 A3019 RMK AO2,M
TMT,2022-08-01 16:35,-117.1971,39.4643,1749.34,M,M,M,0.00,0.00,0.00,30.24,M,10.00,M,CLR,M,M,M,M,M,M,M,M,M,M,M,M,M,M,M,KTMT 011635Z AUTO 00000KT 10SM CLR A3024 RMK AO2,M
RTS,2022-08-01 16:35,-119.8764,39.6682,1539.00,75.20,44.60,33.57,270.00,8.00,0.00,30.21,M,10.00,16.00,CLR,M,M,M,M,M,M,M,M,M,M,M,M,M,M,75.20,KRTS 011635Z AUTO 27008G16KT 10SM CLR 24/07 A3021 RMK AO2,M
HTH,2022-08-01 16:35,-118.6315,38.5448,1282.89,77.00,57.20,50.43,100.00,11.00,0.00,30.15,M,10.00,M,BKN,M,M,M,12000.00,M,M,M,M,M,M,M,M,M,M,77.00,KHTH 011635Z AUTO 10011KT 10SM BKN120 25/14 A3015 RMK A01,M
BAM,2022-08-01 16:35,-116.8743,40.5990,1382.36,80.60,50.00,34.41,0.00,0.00,0.00,30.14,M,10.00,M,CLR,M,M,M,M,M,M,M,M,M,M,M,M,M,M,79.88,KBAM 011635Z AUTO 00000KT 10SM CLR 27/10 A3014 RMK AO1,M
BVU,2022-08-01 16:35,-114.8611,35.9475,671.00,M,M,M,M,M,0.00,M,M,M,M,M,M,M,M,M,M,M,M,M,M,M,M,M,M,M,M,KBVU 011635Z AUTO RMK AO2 PNO PWINO TSNO,M
MEV,2022-08-01 16:35,-119.7500,38.9963,1441.42,77.00,50.00,38.74,120.00,3.00,0.00,30.18,M,10.00,M,CLR,M,M,M,M,M,M,M,M,M,M,M,M,M,M,77.00,KMEV 011635Z AUTO 12003KT 10SM CLR 25/10 A3018 RMK AO2,M
05U,2022-08-01 16:35,-116.0051,39.6042,1811.23,73.40,51.80,46.71,160.00,10.00,0.00,30.29,M,7.00,M,SCT,M,M,M,9000.00,M,M,M,M,M,M,M,M,M,M,73.40,K05U 011635Z AUTO 16010KT 7SM SCT090 23/11 A3029 RMK A01,M
CXP,2022-08-01 16:50,-119.7326,39.1923,1431.00,77.00,53.60,44.25,0.00,0.00,0.00,30.19,M,10.00,M,CLR,M,M,M,M,M,M,M,M,M,M,M,M,M,M,77.00,KCXP 011650Z AUTO 00000KT 10SM CLR 25/12 A3019 RMK AO2,M
ELY,2022-08-01 16:53,-114.8453,39.2950,1909.00,72.00,53.00,51.37,200.00,6.00,0.00,30.31,1016.00,10.00,M,CLR,M,M,M,M,M,M,M,M,M,M,M,M,M,M,72.00,KELY 011653Z AUTO 20006KT 10SM CLR 22/12 A3031 RMK AO2 SLP160 T02220117,M
VGT,2022-08-01 16:53,-115.1933,36.2111,667.00,87.00,65.00,47.73,M,M,0.00,30.07,1017.30,10.00,M,CLR,M,M,M,M,M,M,M,M,M,M,M,M,M,M,88.86,KVGT 011653Z 10SM CLR 31/18 A3007 RMK AO2 SLP173 T03060183,M
LOL,2022-08-01 16:53,-118.5701,40.0684,1192.43,86.00,49.00,27.74,220.00,9.00,0.00,30.08,1013.70,10.00,M,CLR,M,M,M,M,M,M,M,M,M,M,M,M,M,M,83.48,KLOL 011653Z AUTO 22009KT 10SM CLR 30/09 A3008 RMK AO2 SLP137 T03000094,M
P68,2022-08-01 16:53,-116.0056,39.6014,1993.00,72.00,52.00,49.33,160.00,10.00,0.00,30.26,1016.00,M,M,M,M,M,M,M,M,M,M,M,M,M,M,M,M,M,72.00,KP68 011653Z AUTO 16010KT 22/11 A3026 RMK AO1 SLP160 T02220111,M
DRA,2022-08-01 16:53,-116.0278,36.6206,1009.00,82.00,64.00,54.50,M,4.00,0.00,30.14,1016.10,10.00,M,BKN,BKN,M,M,3500.00,12000.00,M,M,M,M,M,M,M,M,M,83.47,KDRA 011653Z AUTO VRB04KT 10SM BKN035 BKN120 28/18 A3014 RMK AO2 SLP161 T02780178,M
RNO,2022-08-01 16:55,-119.7711,39.4839,1341.00,78.00,52.00,40.23,230.00,3.00,0.00,30.15,1014.70,10.00,M,BKN,OVC,M,M,16000.00,23000.00,M,M,M,M,M,M,M,M,M,78.10,KRNO 011655Z 23003KT 10SM BKN160 OVC230 26/11 A3015 RMK AO2 SLP147 T02560111,M
BVU,2022-08-01 16:55,-114.8611,35.9475,671.00,M,M,M,M,M,0.00,M,M,M,M,M,M,M,M,M,M,M,M,M,M,M,M,M,M,M,M,KBVU 011655Z AUTO RMK AO2 PNO PWINO TSNO,M
05U,2022-08-01 16:55,-116.0051,39.6042,1811.23,73.40,51.80,46.71,160.00,8.00,0.00,30.29,M,9.00,M,BKN,M,M,M,8000.00,M,M,M,M,M,M,M,M,M,M,73.40,K05U 011655Z AUTO 16008KT 9SM BKN080 23/11 A3029 RMK A01,M
MEV,2022-08-01 16:55,-119.7500,38.9963,1441.42,77.00,50.00,38.74,0.00,0.00,0.00,30.18,M,10.00,M,CLR,M,M,M,M,M,M,M,M,M,M,M,M,M,M,77.00,KMEV 011655Z AUTO 00000KT 10SM CLR 25/10 A3018 RMK AO2,M
BAM,2022-08-01 16:55,-116.8743,40.5990,1382.36,80.60,50.00,34.41,190.00,3.00,0.00,30.14,M,10.00,M,CLR,M,M,M,M,M,M,M,M,M,M,M,M,M,M,79.88,KBAM 011655Z AUTO 19003KT 10SM CLR 27/10 A3014 RMK AO1,M
HTH,2022-08-01 16:55,-118.6315,38.5448,1282.89,77.00,59.00,53.80,100.00,11.00,0.00,30.15,M,10.00,M,SCT,M,M,M,12000.00,M,M,M,M,M,M,M,M,M,M,77.00,KHTH 011655Z AUTO 10011KT 10SM SCT120 25/15 A3015 RMK A01,M
TMT,2022-08-01 16:55,-117.1971,39.4643,1749.34,M,M,M,0.00,0.00,0.00,30.24,M,10.00,M,CLR,M,M,M,M,M,M,M,M,M,M,M,M,M,M,M,KTMT 011655Z AUTO 00000KT 10SM CLR A3024 RMK AO2,M
RTS,2022-08-01 16:55,-119.8764,39.6682,1539.00,75.20,44.60,33.57,280.00,8.00,0.00,30.21,M,10.00,13.00,CLR,M,M,M,M,M,M,M,M,M,M,M,M,M,M,75.20,KRTS 011655Z AUTO 28008G13KT 10SM CLR 24/07 A3021 RMK AO2,M
NFL,2022-08-01 16:56,-118.7010,39.4166,1199.00,83.00,53.00,35.81,200.00,7.00,0.00,30.10,1015.80,10.00,M,FEW,SCT,BKN,OVC,8000.00,12000.00,17000.00,20000.00,M,M,M,M,M,M,M,81.73,KNFL 011656Z 20007KT 10SM FEW080 SCT120 BKN170 OVC200 28/12 A3010 RMK AO2 SLP158 T02830117,M
WMC,2022-08-01 16:56,-117.8072,40.9019,1315.00,85.00,50.00,29.94,M,M,0.00,30.10,1013.00,10.00,M,CLR,M,M,M,M,M,M,M,M,M,M,M,M,M,M,82.76,KWMC 011656Z AUTO 10SM CLR 29/10 A3010 RMK AO2 SLP130 T02940100,M
EKO,2022-08-01 16:56,-115.7860,40.8242,1367.00,78.00,49.00,35.86,M,3.00,0.00,30.18,1015.40,10.00,M,CLR,M,M,M,M,M,M,M,M,M,M,M,M,M,M,78.10,KEKO 011656Z AUTO VRB03KT 10SM CLR 26/09 A3018 RMK AO2 SLP154 T02560094,M
HND,2022-08-01 16:56,-115.1344,35.9729,742.79,84.00,65.00,52.71,0.00,0.00,0.00,30.12,1018.90,10.00,M,CLR,M,M,M,M,M,M,M,M,M,M,M,M,M,M,85.72,KHND 011656Z 00000KT 10SM CLR 29/18 A3012 RMK AO2 SLP189 T02890183,M
TPH,2022-08-01 16:56,-117.0904,38.0505,1654.00,69.00,61.00,75.40,150.00,6.00,0.00,30.27,1018.80,10.00,M,FEW,OVC,M,M,1800.00,10000.00,M,M,M,M,M,M,M,M,M,69.10,KTPH 011656Z AUTO 15006KT 10SM FEW018 OVC100 21/16 A3027 RMK AO2 SLP188 T02060161,M
LAS,2022-08-01 16:56,-115.1634,36.0719,663.00,86.00,65.00,49.44,60.00,4.00,0.00,30.08,1016.30,10.00,M,FEW,FEW,SCT,M,8000.00,15000.00,22000.00,M,M,M,M,M,M,M,M,87.73,KLAS 011656Z 06004KT 10SM FEW080 FEW150 SCT220 30/18 A3008 RMK AO2 SLP163 T03000183,M
LSV,2022-08-01 16:58,-115.0343,36.2362,570.00,92.30,68.40,45.75,0.00,0.00,0.00,30.05,M,10.00,M,CLR,M,M,M,M,M,M,M,M,M,M,M,M,M,M,96.91,KLSV 011658Z AUTO 00000KT 10SM CLR 34/20 A3005 RMK AO2 SLPNO T03350202 $,M
INS,2022-08-01 16:58,-115.6733,36.5872,955.00,80.80,66.00,60.76,0.00,0.00,0.00,30.13,1016.10,10.00,M,CLR,M,M,M,M,M,M,M,M,M,M,M,M,M,M,82.91,KINS 011658Z AUTO 00000KT 10SM CLR 27/19 A3013 RMK AO2 SLP161 T02710189,M
CXP,2022-08-01 17:10,-119.7326,39.1923,1431.00,77.00,51.80,41.42,0.00,0.00,0.00,30.19,M,10.00,M,CLR,M,M,M,M,M,M,M,M,M,M,M,M,M,M,77.00,KCXP 011710Z AUTO 00000KT 10SM CLR 25/11 A3019 RMK AO2,M
BVU,2022-08-01 17:15,-114.8611,35.9475,671.00,M,M,M,M,M,0.00,M,M,M,M,M,M,M,M,M,M,M,M,M,M,M,M,M,M,M,M,KBVU 011715Z AUTO RMK AO2 PNO PWINO TSNO,M
RTS,2022-08-01 17:15,-119.8764,39.6682,1539.00,77.00,44.60,31.62,280.00,12.00,0.00,30.21,M,10.00,M,CLR,M,M,M,M,M,M,M,M,M,M,M,M,M,M,77.00,KRTS 011715Z AUTO 28012KT 10SM CLR 25/07 A3021 RMK AO2,M
05U,2022-08-01 17:15,-116.0051,39.6042,1811.23,75.20,51.80,43.97,160.00,9.00,0.00,30.29,M,10.00,M,FEW,FEW,M,M,8000.00,10000.00,M,M,M,M,M,M,M,M,M,75.20,K05U 011715Z AUTO 16009KT 10SM FEW080 FEW100 24/11 A3029 RMK A01,M
MEV,2022-08-01 17:15,-119.7500,38.9963,1441.42,78.80,50.00,36.51,0.00,0.00,0.00,30.19,M,10.00,M,CLR,M,M,M,M,M,M,M,M,M,M,M,M,M,M,78.80,KMEV 011715Z AUTO 00000KT 10SM CLR 26/10 A3019 RMK AO2,M
BAM,2022-08-01 17:15,-116.8743,40.5990,1382.36,82.40,50.00,32.46,160.00,3.00,0.00,30.15,M,10.00,M,CLR,M,M,M,M,M,M,M,M,M,M,M,M,M,M,80.99,KBAM 011715Z AUTO 16003KT 10SM CLR 28/10 A3015 RMK AO1,M
HTH,2022-08-01 17:15,-118.6315,38.5448,1282.89,77.00,57.20,50.43,90.00,9.00,0.00,30.16,M,10.00,M,M,M,M,M,M,M,M,M,M,M,M,M,M,M,M,77.00,KHTH 011715Z AUTO 09009KT 10SM 25/14 A3016 RMK A01,M
TMT,2022-08-01 17:15,-117.1971,39.4643,1749.34,M,M,M,0.00,0.00,0.00,30.24,M,10.00,M,CLR,M,M,M,M,M,M,M,M,M,M,M,M,M,M,M,KTMT 011715Z AUTO 00000KT 10SM CLR A3024 RMK AO2,M
CXP,2022-08-01 17:30,-119.7326,39.1923,1431.00,78.80,50.00,36.51,0.00,0.00,0.00,30.19,M,10.00,M,CLR,M,M,M,M,M,M,M,M,M,M,M,M,M,M,78.80,KCXP 011730Z AUTO 00000KT 10SM CLR 26/10 A3019 RMK AO2,M
BAM,2022-08-01 17:35,-116.8743,40.5990,1382.36,84.20,50.00,30.62,200.00,5.00,0.00,30.14,M,10.00,M,CLR,M,M,M,M,M,M,M,M,M,M,M,M,M,M,82.24,KBAM 011735Z AUTO 20005KT 10SM CLR 29/10 A3014 RMK AO1,M
TMT,2022-08-01 17:35,-117.1971,39.4643,1749.34,M,M,M,0.00,0.00,0.00,30.25,M,10.00,M,SCT,M,M,M,10000.00,M,M,M,M,M,M,M,M,M,M,M,KTMT 011735Z AUTO 00000KT 10SM SCT100 A3025 RMK AO2,M
HTH,2022-08-01 17:35,-118.6315,38.5448,1282.89,78.80,57.20,47.52,110.00,10.00,0.00,30.16,M,10.00,M,M,M,M,M,M,M,M,M,M,M,M,M,M,M,M,78.80,KHTH 011735Z AUTO 11010KT 10SM 26/14 A3016 RMK A01,M
BVU,2022-08-01 17:35,-114.8611,35.9475,671.00,M,M,M,M,M,0.00,M,M,M,M,M,M,M,M,M,M,M,M,M,M,M,M,M,M,M,M,KBVU 011735Z AUTO RMK AO2 PNO PWINO TSNO,M
RTS,2022-08-01 17:35,-119.8764,39.6682,1539.00,77.00,46.40,33.85,270.00,10.00,0.00,30.21,M,10.00,17.00,CLR,M,M,M,M,M,M,M,M,M,M,M,M,M,M,77.00,KRTS 011735Z AUTO 27010G17KT 10SM CLR 25/08 A3021 RMK AO2,M
05U,2022-08-01 17:35,-116.0051,39.6042,1811.23,75.20,51.80,43.97,160.00,9.00,0.00,30.29,M,10.00,M,SCT,M,M,M,9000.00,M,M,M,M,M,M,M,M,M,M,75.20,K05U 011735Z AUTO 16009KT 10SM SCT090 24/11 A3029 RMK A01,M
MEV,2022-08-01 17:35,-119.7500,38.9963,1441.42,78.80,50.00,36.51,0.00,0.00,0.00,30.19,M,10.00,M,FEW,M,M,M,11000.00,M,M,M,M,M,M,M,M,M,M,78.80,KMEV 011735Z AUTO 00000KT 10SM FEW110 26/10 A3019 RMK AO2,M
CXP,2022-08-01 17:50,-119.7326,39.1923,1431.00,78.80,50.00,36.51,0.00,0.00,0.00,30.20,M,10.00,M,CLR,M,M,M,M,M,M,M,M,M,M,M,M,M,M,78.80,KCXP 011750Z AUTO 00000KT 10SM CLR 26/10 A3020 RMK AO2,M
P68,2022-08-01 17:53,-116.0056,39.6014,1993.00,73.00,53.00,49.66,150.00,13.00,0.00,30.26,1015.90,M,M,M,M,M,M,M,M,M,M,M,M,M,M,M,M,M,73.00,KP68 011753Z AUTO 15013KT 23/12 A3026 RMK AO1 SLP159 T02280117 10233 20139 51002,M
DRA,2022-08-01 17:53,-116.0278,36.6206,1009.00,87.00,63.00,44.66,M,M,0.00,30.14,1015.70,10.00,M,SCT,M,M,M,4300.00,M,M,M,M,M,M,M,M,M,M,87.96,KDRA 011753Z AUTO 10SM SCT043 31/17 A3014 RMK AO2 SLP157 T03060172 10306 20222 50001,M
VGT,2022-08-01 17:53,-115.1933,36.2111,667.00,89.00,64.00,43.42,110.00,8.00,0.00,30.06,1017.00,10.00,M,CLR,M,M,M,M,M,M,M,M,M,M,M,M,M,M,90.49,KVGT 011753Z 11008KT 10SM CLR 32/18 A3006 RMK AO2 SLP170 T03170178 10322 20261 58002,M
ELY,2022-08-01 17:53,-114.8453,39.2950,1909.00,73.00,52.00,47.69,M,M,0.00,30.31,1016.10,10.00,M,BKN,M,M,M,10000.00,M,M,M,M,M,M,M,M,M,M,73.00,KELY 011753Z AUTO 10SM BKN100 23/11 A3031 RMK AO2 SLP161 T02280111 10239 20117 57003,M
LOL,2022-08-01 17:53,-118.5701,40.0684,1192.43,86.00,46.00,24.88,190.00,4.00,0.00,30.08,1013.60,10.00,M,CLR,M,M,M,M,M,M,M,M,M,M,M,M,M,M,83.19,KLOL 011753Z AUTO 19004KT 10SM CLR 30/08 A3008 RMK AO2 SLP136 T03000078 10306 20183 56005,M
RNO,2022-08-01 17:55,-119.7711,39.4839,1341.00,81.00,52.00,36.58,0.00,0.00,0.00,30.16,1014.70,10.00,M,FEW,BKN,OVC,M,10000.00,16000.00,23000.00,M,M,M,M,M,M,M,M,80.34,KRNO 011755Z 00000KT 10SM FEW100 BKN160 OVC230 27/11 A3016 RMK AO2 SLP147 T02720111 10272 20217 51001,M
TMT,2022-08-01 17:55,-117.1971,39.4643,1749.34,M,M,M,0.00,0.00,0.00,30.25,M,10.00,M,BKN,M,M,M,10000.00,M,M,M,M,M,M,M,M,M,M,M,KTMT 011755Z AUTO 00000KT 10SM BKN100 A3025 RMK AO2,M
BAM,2022-08-01 17:55,-116.8743,40.5990,1382.36,86.00,48.20,27.03,220.00,5.00,0.00,30.14,M,10.00,M,CLR,M,M,M,M,M,M,M,M,M,M,M,M,M,M,83.40,KBAM 011755Z AUTO 22005KT 10SM CLR 30/09 A3014 RMK AO1,M
RTS,2022-08-01 17:55,-119.8764,39.6682,1539.00,77.00,46.40,33.85,280.00,10.00,0.00,30.22,M,10.00,17.00,CLR,M,M,M,M,M,M,M,M,M,M,M,M,M,M,77.00,KRTS 011755Z AUTO 28010G17KT 10SM CLR 25/08 A3022 RMK AO2,M
05U,2022-08-01 17:55,-116.0051,39.6042,1811.23,75.20,53.60,46.98,150.00,9.00,0.00,30.29,M,10.00,M,SCT,M,M,M,9000.00,M,M,M,M,M,M,M,M,M,M,75.20,K05U 011755Z AUTO 15009KT 10SM SCT090 24/12 A3029 RMK A01,M
MEV,2022-08-01 17:55,-119.7500,38.9963,1441.42,80.60,50.00,34.41,250.00,10.00,0.00,30.19,M,10.00,M,CLR,M,M,M,M,M,M,M,M,M,M,M,M,M,M,79.88,KMEV 011755Z AUTO 25010KT 10SM CLR 27/10 A3019 RMK AO2,M
HTH,2022-08-01 17:55,-118.6315,38.5448,1282.89,78.80,57.20,47.52,120.00,7.00,0.00,30.16,M,10.00,M,FEW,M,M,M,12000.00,M,M,M,M,M,M,M,M,M,M,78.80,KHTH 011755Z AUTO 12007KT 10SM FEW120 26/14 A3016 RMK A01,M
BVU,2022-08-01 17:55,-114.8611,35.9475,671.00,M,M,M,M,M,0.00,M,M,M,M,M,M,M,M,M,M,M,M,M,M,M,M,M,M,M,M,KBVU 011755Z AUTO RMK AO2 PNO PWINO TSNO,M
EKO,2022-08-01 17:56,-115.7860,40.8242,1367.00,81.00,49.00,32.60,170.00,7.00,0.00,30.19,1015.60,10.00,M,CLR,M,M,M,M,M,M,M,M,M,M,M,M,M,M,80.01,KEKO 011756Z AUTO 17007KT 10SM CLR 27/09 A3019 RMK AO2 SLP156 T02720094 10272 20200 55001,M
NFL,2022-08-01 17:56,-118.7010,39.4166,1199.00,85.00,51.00,31.19,220.00,10.00,0.00,30.10,1016.10,10.00,M,FEW,BKN,OVC,M,8000.00,13000.00,17000.00,M,M,M,M,M,M,M,M,82.90,KNFL 011756Z COR 22010KT 10SM FEW080 BKN130 OVC170 29/11 A3010 RMK AO2 SLP161 T02940106 10294 20222 53001,M
HND,2022-08-01 17:56,-115.1344,35.9729,742.79,88.00,66.00,48.20,M,3.00,0.00,30.11,1018.50,10.00,M,CLR,M,M,M,M,M,M,M,M,M,M,M,M,M,M,90.41,KHND 011756Z VRB03KT 10SM CLR 31/19 A3011 RMK AO2 SLP185 T03110189 10311 20228 58001,M
WMC,2022-08-01 17:56,-117.8072,40.9019,1315.00,87.00,50.00,27.91,M,3.00,0.00,30.09,1012.70,10.00,M,CLR,M,M,M,M,M,M,M,M,M,M,M,M,M,M,84.51,KWMC 011756Z AUTO VRB03KT 10SM CLR 31/10 A3009 RMK AO2 SLP127 T03060100 10311 20222 58004,M
LAS,2022-08-01 17:56,-115.1634,36.0719,663.00,90.00,65.00,43.55,M,6.00,0.00,30.07,1015.70,10.00,M,FEW,FEW,SCT,M,8000.00,15000.00,22000.00,M,M,M,M,M,M,M,M,91.94,KLAS 011756Z VRB06KT 10SM FEW080 FEW150 SCT220 32/18 A3007 RMK AO2 SLP157 CB DSNT NW T03220183 10322 20250 58001,M
TPH,2022-08-01 17:56,-117.0904,38.0505,1654.00,71.00,61.00,70.42,210.00,6.00,0.00,30.27,1018.50,10.00,M,SCT,SCT,OVC,M,2500.00,3400.00,9000.00,M,M,M,M,M,M,M,M,71.10,KTPH 011756Z AUTO 21006KT 10SM SCT025 SCT034 OVC090 22/16 A3027 RMK AO2 SLP185 T02170161 10217 20183 50002,M
LSV,2022-08-01 17:58,-115.0343,36.2362,570.00,95.00,66.00,38.73,0.00,0.00,0.00,30.05,M,10.00,M,CLR,M,M,M,M,M,M,M,M,M,M,M,M,M,M,98.32,KLSV 011758Z AUTO 00000KT 10SM CLR 35/19 A3005 RMK AO2 SLPNO T03500189 10350 20250 58002 $,M
INS,2022-08-01 17:58,-115.6733,36.5872,955.00,82.60,64.20,53.82,0.00,0.00,0.00,30.13,1015.90,10.00,M,CLR,M,M,M,M,M,M,M,M,M,M,M,M,M,M,84.10,KINS 011758Z AUTO 00000KT 10SM CLR 28/18 A3013 RMK AO2 SLP159 T02810179 10284 20228 50000,M
CXP,2022-08-01 18:10,-119.7326,39.1923,1431.00,80.60,48.20,32.18,M,6.00,0.00,30.20,M,10.00,M,CLR,M,M,M,M,M,M,M,M,M,M,M,M,M,M,79.71,KCXP 011810Z AUTO VRB06KT 10SM CLR 27/09 A3020 RMK AO2,M
TMT,2022-08-01 18:10,-117.1971,39.4643,1749.34,M,M,M,320.00,3.00,0.00,30.25,M,10.00,M,SCT,M,M,M,10000.00,M,M,M,M,M,M,M,M,M,M,M,KTMT 011810Z AUTO 32003KT 10SM SCT100 A3025 RMK AO2,M
BVU,2022-08-01 18:15,-114.8611,35.9475,671.00,M,M,M,0.00,0.00,0.00,30.07,M,M,M,M,M,M,M,M,M,M,M,M,M,M,M,M,M,M,M,KBVU 011815Z AUTO 00000KT A3007 RMK AO2 PWINO TSNO,M
05U,2022-08-01 18:15,-116.0051,39.6042,1811.23,75.20,51.80,43.97,160.00,10.00,0.00,30.29,M,9.00,M,SCT,M,M,M,9000.00,M,M,M,M,M,M,M,M,M,M,75.20,K05U 011815Z AUTO 16010KT 9SM SCT090 24/11 A3029 RMK A01,M
RTS,2022-08-01 18:15,-119.8764,39.6682,1539.00,78.80,46.40,31.90,270.00,10.00,0.00,30.22,M,10.00,16.00,CLR,M,M,M,M,M,M,M,M,M,M,M,M,M,M,78.80,KRTS 011815Z AUTO 27010G16KT 10SM CLR 26/08 A3022 RMK AO2,M
MEV,2022-08-01 18:15,-119.7500,38.9963,1441.42,80.60,50.00,34.41,260.00,7.00,0.00,30.19,M,10.00,M,CLR,M,M,M,M,M,M,M,M,M,M,M,M,M,M,79.88,KMEV 011815Z AUTO 26007KT 10SM CLR 27/10 A3019 RMK AO2,M
HTH,2022-08-01 18:15,-118.6315,38.5448,1282.89,78.80,55.40,44.52,0.00,0.00,0.00,30.16,M,10.00,M,CLR,M,M,M,M,M,M,M,M,M,M,M,M,M,M,78.80,KHTH 011815Z AUTO 00000KT 10SM CLR 26/13 A3016 RMK A01,M
BAM,2022-08-01 18:15,-116.8743,40.5990,1382.36,86.00,48.20,27.03,220.00,6.00,0.00,30.14,M,10.00,M,SCT,M,M,M,12000.00,M,M,M,M,M,M,M,M,M,M,83.40,KBAM 011815Z AUTO 22006KT 10SM SCT120 30/09 A3014 RMK AO1,M
CXP,2022-08-01 18:30,-119.7326,39.1923,1431.00,80.60,50.00,34.41,260.00,7.00,0.00,30.20,M,10.00,M,CLR,M,M,M,M,M,M,M,M,M,M,M,M,M,M,79.88,KCXP 011830Z AUTO 26007KT 10SM CLR 27/10 A3020 RMK AO2,M
05U,2022-08-01 18:35,-116.0051,39.6042,1811.23,77.00,51.80,41.42,160.00,9.00,0.00,30.28,M,10.00,M,BKN,M,M,M,8500.00,M,M,M,M,M,M,M,M,M,M,77.00,K05U 011835Z AUTO 16009KT 10SM BKN085 25/11 A3028 RMK A01,M
BVU,2022-08-01 18:35,-114.8611,35.9475,671.00,91.40,64.40,40.96,210.00,4.00,0.00,30.07,M,M,M,M,M,M,M,M,M,M,M,M,M,M,M,M,M,M,93.19,KBVU 011835Z AUTO 21004KT 33/18 A3007 RMK AO2 PWINO TSNO,M
RTS,2022-08-01 18:35,-119.8764,39.6682,1539.00,78.80,46.40,31.90,250.00,10.00,0.00,30.22,M,10.00,18.00,CLR,M,M,M,M,M,M,M,M,M,M,M,M,M,M,78.80,KRTS 011835Z AUTO 25010G18KT 10SM CLR 26/08 A3022 RMK AO2,M
MEV,2022-08-01 18:35,-119.7500,38.9963,1441.42,80.60,51.80,36.79,270.00,9.00,0.00,30.19,M,10.00,M,CLR,M,M,M,M,M,M,M,M,M,M,M,M,M,M,80.08,KMEV 011835Z AUTO 27009KT 10SM CLR 27/11 A3019 RMK AO2,M
BAM,2022-08-01 18:35,-116.8743,40.5990,1382.36,86.00,48.20,27.03,190.00,5.00,0.00,30.14,M,10.00,M,SCT,M,M,M,12000.00,M,M,M,M,M,M,M,M,M,M,83.40,KBAM 011835Z AUTO 19005KT 10SM SCT120 30/09 A3014 RMK AO1,M
HTH,2022-08-01 18:35,-118.6315,38.5448,1282.89,80.60,55.40,41.97,0.00,0.00,0.00,30.16,M,10.00,M,CLR,M,M,M,M,M,M,M,M,M,M,M,M,M,M,80.53,KHTH 011835Z AUTO 00000KT 10SM CLR 27/13 A3016 RMK A01,M
TMT,2022-08-01 18:35,-117.1971,39.4643,1749.34,M,M,M,330.00,4.00,0.00,30.25,M,10.00,M,SCT,M,M,M,10000.00,M,M,M,M,M,M,M,M,M,M,M,KTMT 011835Z AUTO 33004KT 10SM SCT100 A3025 RMK AO2,M
CXP,2022-08-01 18:50,-119.7326,39.1923,1431.00,80.60,50.00,34.41,230.00,4.00,0.00,30.19,M,10.00,M,CLR,M,M,M,M,M,M,M,M,M,M,M,M,M,M,79.88,KCXP 011850Z AUTO 23004KT 10SM CLR 27/10 A3019 RMK AO2,M
INS,2022-08-01 18:51,-115.6733,36.5872,955.00,82.40,62.60,51.21,270.00,8.00,0.00,30.12,1015.40,9.00,M,FEW,SCT,BKN,BKN,9000.00,11000.00,19000.00,22000.00,VCTS RA,M,M,M,M,M,M,83.41,KINS 011851Z AUTO 27008KT 9SM VCTS RA FEW090 SCT110 BKN190 BKN220 28/17 A3012 RMK AO2 RAB51 SLP154,M
P68,2022-08-01 18:53,-116.0056,39.6014,1993.00,76.00,51.00,41.86,130.00,8.00,0.00,30.25,1015.40,M,M,M,M,M,M,M,M,M,M,M,M,M,M,M,M,M,75.90,KP68 011853Z AUTO 13008KT 110V180 24/11 A3025 RMK AO1 SLP154 T02440106,M
ELY,2022-08-01 18:53,-114.8453,39.2950,1909.00,76.00,53.00,45.06,M,M,0.00,30.29,1015.30,10.00,M,CLR,M,M,M,M,M,M,M,M,M,M,M,M,M,M,75.90,KELY 011853Z AUTO 10SM CLR 24/12 A3029 RMK AO2 LTG DSNT SE SLP153 T02440117,M
DRA,2022-08-01 18:53,-116.0278,36.6206,1009.00,89.00,63.00,41.92,240.00,8.00,0.00,30.12,1015.10,10.00,19.00,FEW,M,M,M,8500.00,M,M,M,M,M,M,M,M,M,M,89.99,KDRA 011853Z AUTO 24008G19KT 200V260 10SM FEW085 32/17 A3012 RMK AO2 SLP151 T03170172,M
VGT,2022-08-01 18:53,-115.1933,36.2111,667.00,92.00,64.00,39.76,170.00,7.00,0.00,30.04,1016.20,10.00,M,CLR,M,M,M,M,M,M,M,M,M,M,M,M,M,M,93.51,KVGT 011853Z 17007KT 10SM CLR 33/18 A3004 RMK AO2 LTG DSNT NW SLP162 T03330178,M
LOL,2022-08-01 18:53,-118.5701,40.0684,1192.43,89.00,45.00,21.70,M,M,0.00,30.08,1013.30,10.00,M,CLR,M,M,M,M,M,M,M,M,M,M,M,M,M,M,85.66,KLOL 011853Z AUTO 10SM CLR 32/07 A3008 RMK AO2 SLP133 T03170072,M
RNO,2022-08-01 18:55,-119.7711,39.4839,1341.00,86.00,49.00,27.74,300.00,11.00,0.00,30.15,1014.10,10.00,14.00,BKN,OVC,M,M,17000.00,25000.00,M,M,M,M,M,M,M,M,M,83.48,KRNO 011855Z 30011G14KT 10SM BKN170 OVC250 30/09 A3015 RMK AO2 SLP141 T03000094,M
TMT,2022-08-01 18:55,-117.1971,39.4643,1749.34,M,M,M,270.00,4.00,0.00,30.25,M,10.00,M,BKN,M,M,M,10000.00,M,M,M,M,M,M,M,M,M,M,M,KTMT 011855Z AUTO 27004KT 10SM BKN100 A3025 RMK AO2,M
BAM,2022-08-01 18:55,-116.8743,40.5990,1382.36,86.00,48.20,27.03,230.00,4.00,0.00,30.13,M,10.00,M,SCT,M,M,M,12000.00,M,M,M,M,M,M,M,M,M,M,83.40,KBAM 011855Z AUTO 23004KT 10SM SCT120 30/09 A3013 RMK AO1,M
BVU,2022-08-01 18:55,-114.8611,35.9475,671.00,91.40,64.40,40.96,0.00,0.00,0.00,30.06,M,M,M,CLR,M,M,M,M,M,M,M,M,M,M,M,M,M,M,93.19,KBVU 011855Z AUTO 00000KT CLR 33/18 A3006 RMK AO2 PWINO TSNO,M
05U,2022-08-01 18:55,-116.0051,39.6042,1811.23,78.80,51.80,39.02,200.00,4.00,0.00,30.28,M,9.00,11.00,SCT,M,M,M,8000.00,M,M,M,M,M,M,M,M,M,M,78.80,K05U 011855Z AUTO 20004G11KT 9SM SCT080 26/11 A3028 RMK A01,M
RTS,2022-08-01 18:55,-119.8764,39.6682,1539.00,78.80,46.40,31.90,250.00,8.00,0.00,30.21,M,10.00,M,CLR,M,M,M,M,M,M,M,M,M,M,M,M,M,M,78.80,KRTS 011855Z AUTO 25008KT 10SM CLR 26/08 A3021 RMK AO2,M
MEV,2022-08-01 18:55,-119.7500,38.9963,1441.42,82.40,51.80,34.69,280.00,10.00,0.00,30.19,M,10.00,M,FEW,M,M,M,11000.00,M,M,M,M,M,M,M,M,M,M,81.20,KMEV 011855Z AUTO 28010KT 10SM FEW110 28/11 A3019 RMK AO2,M
HTH,2022-08-01 18:55,-118.6315,38.5448,1282.89,80.60,55.40,41.97,240.00,4.00,0.00,30.15,M,10.00,M,CLR,M,M,M,M,M,M,M,M,M,M,M,M,M,M,80.53,KHTH 011855Z AUTO 24004KT 10SM CLR 27/13 A3015 RMK A01,M
LAS,2022-08-01 18:56,-115.1634,36.0719,663.00,91.00,63.00,39.49,140.00,4.00,0.00,30.05,1014.90,10.00,M,FEW,FEW,SCT,M,8000.00,15000.00,22000.00,M,M,M,M,M,M,M,M,92.00,KLAS 011856Z 14004KT 10SM FEW080 FEW150 SCT220 33/17 A3005 RMK AO2 LTG DSNT NW SLP149 CB DSNT S AND W-N T03280172,M
WMC,2022-08-01 18:56,-117.8072,40.9019,1315.00,92.00,49.00,23.03,240.00,9.00,0.00,30.08,1012.30,10.00,15.00,CLR,M,M,M,M,M,M,M,M,M,M,M,M,M,M,88.66,KWMC 011856Z AUTO 24009G15KT 10SM CLR 33/09 A3008 RMK AO2 SLP123 T03330094 $,M
NFL,2022-08-01 18:56,-118.7010,39.4166,1199.00,87.00,49.00,26.79,210.00,10.00,0.00,30.10,1016.10,10.00,M,FEW,BKN,OVC,M,8000.00,14000.00,17000.00,M,M,M,M,M,M,M,M,84.37,KNFL 011856Z 21010KT 10SM FEW080 BKN140 OVC170 31/09 A3010 RMK AO2 SLP161 T03060094,M
TPH,2022-08-01 18:56,-117.0904,38.0505,1654.00,74.00,60.00,62.05,220.00,6.00,0.00,30.26,1017.70,10.00,M,OVC,M,M,M,10000.00,M,M,M,M,M,M,M,M,M,M,73.90,KTPH 011856Z AUTO 22006KT 10SM OVC100 23/16 A3026 RMK AO2 SLP177 T02330156,M
ELY,2022-08-01 18:56,-114.8453,39.2950,1909.00,76.00,53.00,45.06,210.00,9.00,0.00,30.29,M,0.75,M,CLR,M,M,M,M,M,M,M,HZ,M,M,M,M,M,M,75.90,KELY 011856Z AUTO 21009KT 3/4SM HZ CLR 24/12 A3029 RMK AO2 LTG DSNT SE T02440117 $,M
EKO,2022-08-01 18:56,-115.7860,40.8242,1367.00,82.00,49.00,31.56,M,5.00,0.00,30.18,1015.10,10.00,M,CLR,M,M,M,M,M,M,M,M,M,M,M,M,M,M,80.61,KEKO 011856Z AUTO VRB05KT 10SM CLR 28/09 A3018 RMK AO2 SLP151 T02780094,M
HND,2022-08-01 18:56,-115.1344,35.9729,742.79,90.00,65.00,43.55,0.00,0.00,0.00,30.09,1017.60,10.00,M,CLR,M,M,M,M,M,M,M,M,M,M,M,M,M,M,91.94,KHND 011856Z 00000KT 10SM CLR 32/18 A3009 RMK AO2 SLP176 T03220183,M
LSV,2022-08-01 18:58,-115.0343,36.2362,570.00,96.60,65.00,35.73,120.00,4.00,0.00,30.02,M,10.00,M,CLR,M,M,M,M,M,M,M,M,M,M,M,M,M,M,99.59,KLSV 011858Z AUTO 12004KT 10SM CLR 36/18 A3002 RMK AO2 SLPNO T03590184 $,M
INS,2022-08-01 18:58,-115.6733,36.5872,955.00,81.00,66.70,61.85,250.00,20.00,T,30.12,1015.60,6.00,25.00,FEW,SCT,BKN,BKN,300.00,8000.00,11000.00,22000.00,VCTS RA,M,M,M,27.00,270.00,2022-08-01 18:54,83.33,KINS 011858Z AUTO 25020G25KT 6SM VCTS RA FEW003 SCT080 BKN110 BKN220 27/19 A3012 RMK AO2 PK WND 27027/54 VIS 2 3/4 RWY08 RAB51 SLP156 P0000 T02720193,M
INS,2022-08-01 19:03,-115.6733,36.5872,955.00,77.00,66.20,69.33,260.00,11.00,0.00,30.12,1015.70,7.00,25.00,FEW,BKN,BKN,BKN,300.00,8000.00,11000.00,22000.00,VCTS RA,M,M,M,M,M,M,77.00,KINS 011903Z AUTO 26011G25KT 7SM VCTS RA FEW003 BKN080 BKN110 BKN220 25/19 A3012 RMK AO2 SLP157,M
ELY,2022-08-01 19:04,-114.8453,39.2950,1909.00,77.00,53.00,43.44,M,5.00,0.00,30.29,M,5.00,M,CLR,M,M,M,M,M,M,M,HZ,M,M,M,M,M,M,77.00,KELY 011904Z AUTO VRB05KT 5SM HZ CLR 25/12 A3029 RMK AO2 T02500117 $,M
CXP,2022-08-01 19:10,-119.7326,39.1923,1431.00,80.60,48.20,32.18,M,5.00,0.00,30.19,M,10.00,10.00,FEW,M,M,M,12000.00,M,M,M,M,M,M,M,M,M,M,79.71,KCXP 011910Z AUTO VRB05G10KT 10SM FEW120 27/09 A3019 RMK AO2,M
HTH,2022-08-01 19:15,-118.6315,38.5448,1282.89,82.40,55.40,39.58,M,3.00,0.00,30.14,M,10.00,M,CLR,M,M,M,M,M,M,M,M,M,M,M,M,M,M,81.75,KHTH 011915Z AUTO VRB03KT 10SM CLR 28/13 A3014 RMK A01,M
BVU,2022-08-01 19:15,-114.8611,35.9475,671.00,93.20,64.40,38.73,M,4.00,0.00,30.05,M,M,10.00,CLR,M,M,M,M,M,M,M,M,M,M,M,M,M,M,95.20,KBVU 011915Z AUTO VRB04G10KT CLR 34/18 A3005 RMK AO2 PWINO TSNO,M
RTS,2022-08-01 19:15,-119.8764,39.6682,1539.00,80.60,48.20,32.18,M,6.00,0.00,30.21,M,10.00,15.00,CLR,M,M,M,M,M,M,M,M,M,M,M,M,M,M,79.71,KRTS 011915Z AUTO VRB06G15KT 10SM CLR 27/09 A3021 RMK AO2,M
05U,2022-08-01 19:15,-116.0051,39.6042,1811.23,78.80,50.00,36.51,0.00,0.00,0.00,30.27,M,10.00,M,SCT,M,M,M,8000.00,M,M,M,M,M,M,M,M,M,M,78.80,K05U 011915Z AUTO 00000KT 10SM SCT080 26/10 A3027 RMK A01,M
MEV,2022-08-01 19:15,-119.7500,38.9963,1441.42,82.40,50.00,32.46,270.00,9.00,0.00,30.18,M,10.00,M,CLR,M,M,M,M,M,M,M,M,M,M,M,M,M,M,80.99,KMEV 011915Z AUTO 27009KT 10SM CLR 28/10 A3018 RMK AO2,M
BAM,2022-08-01 19:15,-116.8743,40.5990,1382.36,86.00,50.00,28.90,230.00,5.00,0.00,30.13,M,10.00,M,SCT,M,M,M,12000.00,M,M,M,M,M,M,M,M,M,M,83.62,KBAM 011915Z AUTO 23005KT 10SM SCT120 30/10 A3013 RMK AO1,M
TMT,2022-08-01 19:15,-117.1971,39.4643,1749.34,M,M,M,230.00,3.00,0.00,30.25,M,10.00,M,SCT,M,M,M,9000.00,M,M,M,M,M,M,M,M,M,M,M,KTMT 011915Z AUTO 23003KT 10SM SCT090 A3025 RMK AO2 LTG DSNT E,M
INS,2022-08-01 19:18,-115.6733,36.5872,955.00,78.80,62.60,57.60,0.00,0.00,0.00,30.11,1015.20,10.00,M,FEW,SCT,BKN,M,300.00,7000.00,14000.00,M,-RA,M,M,M,M,M,M,78.80,KINS 011918Z AUTO 00000KT 10SM -RA FEW003 SCT070 BKN140 26/17 A3011 RMK AO2 SLP152,M
ELY,2022-08-01 19:18,-114.8453,39.2950,1909.00,79.00,51.00,37.78,190.00,11.00,0.00,30.28,M,10.00,17.00,FEW,M,M,M,200.00,M,M,M,M,M,M,M,M,M,M,79.00,KELY 011918Z AUTO 19011G17KT 10SM FEW002 26/11 A3028 RMK AO2 T02610106,M
INS,2022-08-01 19:20,-115.6733,36.5872,955.00,80.60,62.60,54.30,0.00,0.00,0.00,30.11,1015.20,10.00,M,FEW,SCT,BKN,M,300.00,7000.00,14000.00,M,M,M,M,M,M,M,M,81.84,KINS 011920Z AUTO 00000KT 10SM FEW003 SCT070 BKN140 27/17 A3011 RMK AO2 RAE20 SLP152,M
CXP,2022-08-01 19:30,-119.7326,39.1923,1431.00,82.40,50.00,32.46,M,4.00,0.00,30.19,M,10.00,M,CLR,M,M,M,M,M,M,M,M,M,M,M,M,M,M,80.99,KCXP 011930Z AUTO VRB04KT 10SM CLR 28/10 A3019 RMK AO2,M
BAM,2022-08-01 19:35,-116.8743,40.5990,1382.36,87.80,50.00,27.29,230.00,5.00,0.00,30.13,M,10.00,M,CLR,M,M,M,M,M,M,M,M,M,M,M,M,M,M,85.11,KBAM 011935Z AUTO 23005KT 10SM CLR 31/10 A3013 RMK AO1,M
BVU,2022-08-01 19:35,-114.8611,35.9475,671.00,93.20,62.60,36.35,220.00,5.00,0.00,30.04,M,M,11.00,CLR,M,M,M,M,M,M,M,M,M,M,M,M,M,M,94.20,KBVU 011935Z AUTO 22005G11KT CLR 34/17 A3004 RMK AO2 PWINO TSNO,M
TMT,2022-08-01 19:35,-117.1971,39.4643,1749.34,M,M,M,40.00,5.00,0.00,30.24,M,10.00,M,CLR,M,M,M,M,M,M,M,M,M,M,M,M,M,M,M,KTMT 011935Z AUTO 04005KT 10SM CLR A3024 RMK AO2,M
MEV,2022-08-01 19:35,-119.7500,38.9963,1441.42,84.20,51.80,32.73,290.00,8.00,0.00,30.18,M,10.00,13.00,FEW,M,M,M,11000.00,M,M,M,M,M,M,M,M,M,M,82.48,KMEV 011935Z AUTO 29008G13KT 10SM FEW110 29/11 A3018 RMK AO2,M
05U,2022-08-01 19:35,-116.0051,39.6042,1811.23,78.80,50.00,36.51,0.00,0.00,0.00,30.26,M,10.00,M,SCT,SCT,SCT,M,5000.00,7500.00,9000.00,M,M,M,M,M,M,M,M,78.80,K05U 011935Z AUTO 00000KT 10SM SCT050 SCT075 SCT090 26/10 A3026 RMK A01,M
RTS,2022-08-01 19:35,-119.8764,39.6682,1539.00,80.60,46.40,30.07,280.00,13.00,0.00,30.21,M,10.00,M,CLR,M,M,M,M,M,M,M,M,M,M,M,M,M,M,79.56,KRTS 011935Z AUTO 28013KT 10SM CLR 27/08 A3021 RMK AO2,M
HTH,2022-08-01 19:35,-118.6315,38.5448,1282.89,84.20,53.60,34.97,0.00,0.00,0.00,30.14,M,10.00,M,FEW,M,M,M,11000.00,M,M,M,M,M,M,M,M,M,M,82.76,KHTH 011935Z AUTO 00000KT 10SM FEW110 29/12 A3014 RMK A01,M
CXP,2022-08-01 19:50,-119.7326,39.1923,1431.00,84.20,48.20,28.63,210.00,5.00,0.00,30.19,M,10.00,11.00,CLR,M,M,M,M,M,M,M,M,M,M,M,M,M,M,82.04,KCXP 011950Z AUTO 21005G11KT 10SM CLR 29/09 A3019 RMK AO2,M
P68,2022-08-01 19:53,-116.0056,39.6014,1993.00,77.00,52.00,41.72,150.00,8.00,0.00,30.23,1014.70,M,M,M,M,M,M,M,M,M,M,M,M,M,M,M,M,M,77.00,KP68 011953Z AUTO 15008KT 25/11 A3023 RMK AO1 SLP147 T02500111,M
LOL,2022-08-01 19:53,-118.5701,40.0684,1192.43,91.00,45.00,20.45,220.00,11.00,0.00,30.06,1012.90,10.00,17.00,CLR,M,M,M,M,M,M,M,M,M,M,M,M,M,M,87.35,KLOL 011953Z AUTO 22011G17KT 10SM CLR 33/07 A3006 RMK AO2 SLP129 T03280072,M
VGT,2022-08-01 19:53,-115.1933,36.2111,667.00,94.00,63.00,36.08,100.00,7.00,0.00,30.01,1015.20,10.00,15.00,CLR,M,M,M,M,M,M,M,M,M,M,M,M,M,M,95.19,KVGT 011953Z 10007G15KT 10SM CLR 34/17 A3001 RMK AO2 SLP152 T03440172,M
DRA,2022-08-01 19:53,-116.0278,36.6206,1009.00,92.00,58.00,32.03,210.00,12.00,0.00,30.09,1014.00,10.00,22.00,FEW,M,M,M,12000.00,M,M,M,M,M,M,M,M,M,M,90.80,KDRA 011953Z AUTO 21012G22KT 10SM FEW120 33/14 A3009 RMK AO2 SLP140 T03330144,M
ELY,2022-08-01 19:53,-114.8453,39.2950,1909.00,80.00,52.00,37.67,M,6.00,0.00,30.26,1013.90,10.00,M,FEW,M,M,M,6000.00,M,M,M,M,M,M,M,M,M,M,79.81,KELY 011953Z AUTO VRB06KT 10SM FEW060 27/11 A3026 RMK AO2 SLP139 T02670111,M
05U,2022-08-01 19:55,-116.0051,39.6042,1811.23,78.80,51.80,39.02,140.00,4.00,0.00,30.26,M,10.00,M,SCT,SCT,M,M,5000.00,7000.00,M,M,M,M,M,M,M,M,M,78.80,K05U 011955Z AUTO 14004KT 10SM SCT050 SCT070 26/11 A3026 RMK A01,M
MEV,2022-08-01 19:55,-119.7500,38.9963,1441.42,86.00,50.00,28.90,290.00,12.00,0.00,30.18,M,10.00,M,FEW,M,M,M,11000.00,M,M,M,M,M,M,M,M,M,M,83.62,KMEV 011955Z AUTO 29012KT 10SM FEW110 30/10 A3018 RMK AO2,M
TMT,2022-08-01 19:55,-117.1971,39.4643,1749.34,M,M,M,280.00,4.00,0.00,30.24,M,10.00,M,SCT,M,M,M,4600.00,M,M,M,-RA,M,M,M,M,M,M,M,KTMT 011955Z AUTO 28004KT 10SM -RA SCT046 A3024 RMK AO2,M
HTH,2022-08-01 19:55,-118.6315,38.5448,1282.89,84.20,51.80,32.73,0.00,0.00,0.00,30.13,M,10.00,M,FEW,M,M,M,11000.00,M,M,M,M,M,M,M,M,M,M,82.48,KHTH 011955Z AUTO 00000KT 10SM FEW110 29/11 A3013 RMK A01,M
BVU,2022-08-01 19:55,-114.8611,35.9475,671.00,93.20,64.40,38.73,0.00,0.00,0.00,30.03,M,M,M,M,M,M,M,M,M,M,M,M,M,M,M,M,M,M,95.20,KBVU 011955Z AUTO 00000KT 34/18 A3003 RMK AO2 PWINO TSNO,M
RNO,2022-08-01 19:55,-119.7711,39.4839,1341.00,85.00,50.00,29.94,310.00,13.00,0.00,30.14,1014.00,10.00,19.00,BKN,OVC,M,M,13000.00,21000.00,M,M,M,M,M,M,M,M,M,82.76,KRNO 011955Z 31013G19KT 10SM BKN130 OVC210 29/10 A3014 RMK AO2 SLP140 T02940100,M
BAM,2022-08-01 19:55,-116.8743,40.5990,1382.36,87.80,50.00,27.29,260.00,4.00,0.00,30.13,M,10.00,M,CLR,M,M,M,M,M,M,M,M,M,M,M,M,M,M,85.11,KBAM 011955Z AUTO 26004KT 10SM CLR 31/10 A3013 RMK AO1,M
RTS,2022-08-01 19:55,-119.8764,39.6682,1539.00,80.60,46.40,30.07,320.00,13.00,0.00,30.20,M,10.00,M,CLR,M,M,M,M,M,M,M,M,M,M,M,M,M,M,79.56,KRTS 011955Z AUTO 32013KT 10SM CLR 27/08 A3020 RMK AO2,M
EKO,2022-08-01 19:56,-115.7860,40.8242,1367.00,82.00,50.00,32.88,140.00,11.00,0.00,30.18,1015.40,10.00,18.00,FEW,SCT,SCT,M,5500.00,7000.00,8500.00,M,M,M,M,M,M,M,M,80.73,KEKO 011956Z AUTO 14011G18KT 10SM FEW055 SCT070 SCT085 28/10 A3018 RMK AO2 SLP154 T02780100,M
HND,2022-08-01 19:56,-115.1344,35.9729,742.79,94.00,62.00,34.95,150.00,8.00,0.00,30.06,1016.50,10.00,M,FEW,M,M,M,7000.00,M,M,M,M,M,M,M,M,M,M,94.72,KHND 011956Z 15008KT 10SM FEW070 34/17 A3006 RMK AO2 SLP165 T03440167,M
NFL,2022-08-01 19:56,-118.7010,39.4166,1199.00,88.00,48.00,25.17,240.00,9.00,0.00,30.09,1015.80,10.00,M,FEW,BKN,OVC,M,8000.00,11000.00,14000.00,M,M,M,M,M,M,M,M,85.02,KNFL 011956Z COR 24009KT 10SM FEW080 BKN110 OVC140 31/09 A3009 RMK AO2 SLP158 T03110089,M
LAS,2022-08-01 19:56,-115.1634,36.0719,663.00,94.00,63.00,36.08,140.00,7.00,0.00,30.02,1014.00,10.00,M,FEW,FEW,SCT,M,8000.00,15000.00,22000.00,M,M,M,M,M,M,M,M,95.19,KLAS 011956Z 14007KT 10SM FEW080 FEW150 SCT220 34/17 A3002 RMK AO2 SLP140 CB DSNT SE AND NW-N T03440172,M
TPH,2022-08-01 19:56,-117.0904,38.0505,1654.00,76.00,59.00,55.80,140.00,9.00,0.00,30.23,1016.70,10.00,15.00,SCT,BKN,M,M,5500.00,7000.00,M,M,M,M,M,M,M,M,M,75.90,KTPH 011956Z AUTO 14009G15KT 10SM SCT055 BKN070 24/15 A3023 RMK AO2 LTG DSNT E SLP167 T02440150,M
WMC,2022-08-01 19:56,-117.8072,40.9019,1315.00,91.00,48.00,22.90,M,M,T,30.07,1012.00,10.00,M,FEW,SCT,M,M,4800.00,6500.00,M,M,-RA,M,M,M,M,M,M,87.69,KWMC 011956Z AUTO 10SM -RA FEW048 SCT065 33/09 A3007 RMK AO2 RAB53 SLP120 P0000 T03280089 $,M
LSV,2022-08-01 19:58,-115.0343,36.2362,570.00,98.80,63.70,31.82,160.00,7.00,0.00,29.99,M,10.00,M,FEW,SCT,M,M,8000.00,15000.00,M,M,M,M,M,M,M,M,M,101.29,KLSV 011958Z COR 16007KT 10SM FEW080 SCT150 37/18 A2999 RMK AO2 SLPNO T03710176 $ COR 2006,M
INS,2022-08-01 19:58,-115.6733,36.5872,955.00,84.40,63.00,48.86,0.00,0.00,T,30.09,1014.40,10.00,M,CLR,M,M,M,M,M,M,M,M,M,M,M,M,M,M,85.40,KINS 011958Z AUTO 00000KT 10SM CLR 29/17 A3009 RMK AO2 RAE20 SLP144 P0000 T02910173,M
CXP,2022-08-01 20:10,-119.7326,39.1923,1431.00,82.40,50.00,32.46,270.00,7.00,0.00,30.18,M,10.00,M,CLR,M,M,M,M,M,M,M,M,M,M,M,M,M,M,80.99,KCXP 012010Z AUTO 27007KT 230V290 10SM CLR 28/10 A3018 RMK AO2,M
RTS,2022-08-01 20:15,-119.8764,39.6682,1539.00,80.60,46.40,30.07,320.00,12.00,0.00,30.20,M,10.00,M,CLR,M,M,M,M,M,M,M,M,M,M,M,M,M,M,79.56,KRTS 012015Z AUTO 32012KT 10SM CLR 27/08 A3020 RMK AO2,M
BAM,2022-08-01 20:15,-116.8743,40.5990,1382.36,87.80,50.00,27.29,240.00,6.00,0.00,30.13,M,10.00,M,CLR,M,M,M,M,M,M,M,M,M,M,M,M,M,M,85.11,KBAM 012015Z AUTO 24006KT 10SM CLR 31/10 A3013 RMK AO1,M
MEV,2022-08-01 20:15,-119.7500,38.9963,1441.42,84.20,50.00,30.62,360.00,8.00,0.00,30.17,M,10.00,14.00,FEW,M,M,M,11000.00,M,M,M,M,M,M,M,M,M,M,82.24,KMEV 012015Z AUTO 36008G14KT 10SM FEW110 29/10 A3017 RMK AO2,M
05U,2022-08-01 20:15,-116.0051,39.6042,1811.23,80.60,51.80,36.79,0.00,0.00,0.00,30.25,M,10.00,M,FEW,SCT,M,M,6000.00,10000.00,M,M,M,M,M,M,M,M,M,80.08,K05U 012015Z AUTO 00000KT 10SM FEW060 SCT100 27/11 A3025 RMK A01,M
BVU,2022-08-01 20:15,-114.8611,35.9475,671.00,91.40,62.60,38.45,M,3.00,0.00,30.02,M,M,M,M,M,M,M,M,M,M,M,M,M,M,M,M,M,M,92.23,KBVU 012015Z AUTO VRB03KT 33/17 A3002 RMK AO2 PWINO TSNO,M
TMT,2022-08-01 20:15,-117.1971,39.4643,1749.34,M,M,M,50.00,9.00,0.00,30.24,M,10.00,M,SCT,M,M,M,6500.00,M,M,M,M,M,M,M,M,M,M,M,KTMT 012015Z AUTO 05009KT 10SM SCT065 A3024 RMK AO2,M
TPH,2022-08-01 20:15,-117.0904,38.0505,1654.00,75.00,60.00,59.81,130.00,4.00,T,30.23,M,10.00,M,BKN,OVC,M,M,4500.00,5500.00,M,M,VCTS,M,M,M,M,M,M,75.00,KTPH 012015Z AUTO 13004KT 10SM VCTS BKN045 OVC055 24/16 A3023 RMK AO2 LTG DSNT E RAB1958E08 P0000 T02390156,M
HTH,2022-08-01 20:15,-118.6315,38.5448,1282.89,84.20,51.80,32.73,M,4.00,0.00,30.12,M,10.00,M,BKN,M,M,M,11000.00,M,M,M,M,M,M,M,M,M,M,82.48,KHTH 012015Z AUTO VRB04KT 10SM BKN110 29/11 A3012 RMK A01,M
CXP,2022-08-01 20:30,-119.7326,39.1923,1431.00,84.20,48.20,28.63,260.00,9.00,0.00,30.18,M,10.00,M,CLR,M,M,M,M,M,M,M,M,M,M,M,M,M,M,82.04,KCXP 012030Z AUTO 26009KT 10SM CLR 29/09 A3018 RMK AO2,M
TPH,2022-08-01 20:30,-117.0904,38.0505,1654.00,75.00,61.00,61.75,150.00,8.00,T,30.23,M,10.00,15.00,OVC,M,M,M,4500.00,M,M,M,M,M,M,M,M,M,M,75.00,KTPH 012030Z AUTO 15008G15KT 10SM OVC045 24/16 A3023 RMK AO2 LTG DSNT E RAB1958E08 P0000 T02390161,M
TMT,2022-08-01 20:35,-117.1971,39.4643,1749.34,M,M,M,60.00,6.00,0.00,30.24,M,10.00,M,SCT,M,M,M,10000.00,M,M,M,M,M,M,M,M,M,M,M,KTMT 012035Z AUTO 06006KT 10SM SCT100 A3024 RMK AO2,M
BVU,2022-08-01 20:35,-114.8611,35.9475,671.00,91.40,62.60,38.45,0.00,0.00,0.00,30.01,M,M,M,M,M,M,M,M,M,M,M,M,M,M,M,M,M,M,92.23,KBVU 012035Z AUTO 00000KT 33/17 A3001 RMK AO2 PWINO TSNO,M
MEV,2022-08-01 20:35,-119.7500,38.9963,1441.42,84.20,50.00,30.62,330.00,7.00,0.00,30.17,M,10.00,M,SCT,M,M,M,11000.00,M,M,M,M,M,M,M,M,M,M,82.24,KMEV 012035Z AUTO 33007KT 10SM SCT110 29/10 A3017 RMK AO2,M
05U,2022-08-01 20:35,-116.0051,39.6042,1811.23,78.80,50.00,36.51,0.00,0.00,0.00,30.24,M,10.00,M,SCT,BKN,M,M,5500.00,7000.00,M,M,M,M,M,M,M,M,M,78.80,K05U 012035Z AUTO 00000KT 10SM SCT055 BKN070 26/10 A3024 RMK A01,M
BAM,2022-08-01 20:35,-116.8743,40.5990,1382.36,87.80,48.20,25.52,260.00,8.00,0.00,30.12,M,10.00,M,BKN,M,M,M,11000.00,M,M,M,M,M,M,M,M,M,M,84.87,KBAM 012035Z AUTO 26008KT 10SM BKN110 31/09 A3012 RMK AO1,M
RTS,2022-08-01 20:35,-119.8764,39.6682,1539.00,82.40,48.20,30.35,310.00,15.00,0.00,30.20,M,10.00,M,CLR,M,M,M,M,M,M,M,M,M,M,M,M,M,M,80.80,KRTS 012035Z AUTO 31015KT 10SM CLR 28/09 A3020 RMK AO2,M
HTH,2022-08-01 20:35,-118.6315,38.5448,1282.89,84.20,50.00,30.62,350.00,4.00,0.00,30.12,M,10.00,10.00,BKN,M,M,M,11000.00,M,M,M,M,M,M,M,M,M,M,82.24,KHTH 012035Z AUTO 35004G10KT 10SM BKN110 29/10 A3012 RMK A01,M
LOL,2022-08-01 20:46,-118.5701,40.0684,1192.43,92.00,46.00,20.65,140.00,13.00,0.00,30.05,M,10.00,M,CLR,M,M,M,M,M,M,M,M,M,M,M,M,M,M,88.28,KLOL 012046Z AUTO 14013KT 10SM CLR 33/08 A3005 RMK AO2 WSHFT 2026 T03330078,M
CXP,2022-08-01 20:50,-119.7326,39.1923,1431.00,84.20,48.20,28.63,260.00,7.00,0.00,30.17,M,10.00,M,CLR,M,M,M,M,M,M,M,M,M,M,M,M,M,M,82.04,KCXP 012050Z AUTO 26007KT 240V310 10SM CLR 29/09 A3017 RMK AO2,M
VGT,2022-08-01 20:53,-115.1933,36.2111,667.00,98.00,62.00,30.72,130.00,7.00,0.00,29.98,1014.00,10.00,M,CLR,M,M,M,M,M,M,M,M,M,M,M,M,M,M,99.51,KVGT 012053Z 13007KT 090V170 10SM CLR 37/17 A2998 RMK AO2 LTG DSNT SE SLP140 T03670167 58026,M
DRA,2022-08-01 20:53,-116.0278,36.6206,1009.00,93.00,59.00,32.19,250.00,13.00,0.00,30.07,1013.10,10.00,22.00,FEW,M,M,M,7000.00,M,M,M,M,M,M,M,M,M,M,92.35,KDRA 012053Z AUTO 25013G22KT 10SM FEW070 34/15 A3007 RMK AO2 SLP131 T03390150 58020,M
ELY,2022-08-01 20:53,-114.8453,39.2950,1909.00,80.00,52.00,37.67,230.00,10.00,0.00,30.24,1013.20,10.00,M,SCT,M,M,M,6500.00,M,M,M,M,M,M,M,M,M,M,79.81,KELY 012053Z AUTO 23010KT 10SM SCT065 27/11 A3024 RMK AO2 LTG DSNT SE AND S SLP132 T02670111 58021,M
P68,2022-08-01 20:53,-116.0056,39.6014,1993.00,76.00,52.00,43.28,260.00,15.00,0.00,30.22,1014.70,M,21.00,M,M,M,M,M,M,M,M,M,M,M,M,M,M,M,75.90,KP68 012053Z AUTO 26015G21KT 24/11 A3022 RMK AO1 SLP147 T02440111 56013,M
LOL,2022-08-01 20:53,-118.5701,40.0684,1192.43,91.00,46.00,21.24,150.00,12.00,0.00,30.05,1012.40,10.00,M,CLR,M,M,M,M,M,M,M,M,M,M,M,M,M,M,87.45,KLOL 012053Z AUTO 15012KT 10SM CLR 33/08 A3005 RMK AO2 WSHFT 2026 SLP124 T03280078 58010,M
TMT,2022-08-01 20:55,-117.1971,39.4643,1749.34,M,M,M,70.00,6.00,0.00,30.24,M,10.00,M,SCT,M,M,M,10000.00,M,M,M,M,M,M,M,M,M,M,M,KTMT 012055Z AUTO 07006KT 10SM SCT100 A3024 RMK AO2 LTG DSNT SE AND S,M
HTH,2022-08-01 20:55,-118.6315,38.5448,1282.89,84.20,50.00,30.62,330.00,3.00,0.00,30.11,M,10.00,M,SCT,M,M,M,11000.00,M,M,M,M,M,M,M,M,M,M,82.24,KHTH 012055Z AUTO 33003KT 10SM SCT110 29/10 A3011 RMK A01,M
BAM,2022-08-01 20:55,-116.8743,40.5990,1382.36,89.60,50.00,25.79,230.00,6.00,0.00,30.11,M,10.00,M,SCT,M,M,M,11000.00,M,M,M,M,M,M,M,M,M,M,86.70,KBAM 012055Z AUTO 23006KT 10SM SCT110 32/10 A3011 RMK AO1,M
MEV,2022-08-01 20:55,-119.7500,38.9963,1441.42,84.20,50.00,30.62,M,4.00,0.00,30.16,M,10.00,12.00,FEW,M,M,M,11000.00,M,M,M,M,M,M,M,M,M,M,82.24,KMEV 012055Z AUTO VRB04G12KT 10SM FEW110 29/10 A3016 RMK AO2,M
05U,2022-08-01 20:55,-116.0051,39.6042,1811.23,77.00,53.60,44.25,250.00,14.00,0.00,30.24,M,10.00,M,BKN,OVC,M,M,6000.00,7000.00,M,M,M,M,M,M,M,M,M,77.00,K05U 012055Z AUTO 25014KT 10SM BKN060 OVC070 25/12 A3024 RMK A01,M
RTS,2022-08-01 20:55,-119.8764,39.6682,1539.00,82.40,48.20,30.35,310.00,19.00,0.00,30.19,M,10.00,M,CLR,M,M,M,M,M,M,M,M,M,M,M,M,M,M,80.80,KRTS 012055Z AUTO 31019KT 10SM CLR 28/09 A3019 RMK AO2,M
BVU,2022-08-01 20:55,-114.8611,35.9475,671.00,91.40,66.20,43.61,180.00,12.00,0.00,30.02,M,M,M,M,M,M,M,M,M,M,M,M,M,M,M,M,M,M,94.29,KBVU 012055Z AUTO 18012KT 33/19 A3002 RMK AO2 PWINO TSNO,M
RNO,2022-08-01 20:55,-119.7711,39.4839,1341.00,86.00,51.00,30.11,290.00,15.00,0.00,30.12,1013.40,10.00,M,FEW,BKN,OVC,M,9500.00,13000.00,21000.00,M,M,M,M,M,M,M,M,83.77,KRNO 012055Z 29015KT 10SM FEW095 BKN130 OVC210 30/11 A3012 RMK AO2 SLP134 T03000106 58009,M
LAS,2022-08-01 20:56,-115.1634,36.0719,663.00,97.00,59.00,28.46,170.00,8.00,0.00,30.00,1012.90,10.00,16.00,FEW,SCT,SCT,M,8000.00,15000.00,22000.00,M,M,M,M,M,M,M,M,96.72,KLAS 012056Z 17008G16KT 10SM FEW080 SCT150 SCT220 36/15 A3000 RMK AO2 LTG DSNT SE AND S SLP129 CB DSNT N AND SE-S T03610150 58025,M
EKO,2022-08-01 20:56,-115.7860,40.8242,1367.00,76.00,51.00,41.86,50.00,7.00,T,30.19,1016.20,10.00,M,FEW,SCT,OVC,M,4600.00,8000.00,9500.00,M,-RA,M,M,M,M,M,M,75.90,KEKO 012056Z AUTO 05007KT 10SM -RA FEW046 SCT080 OVC095 24/11 A3019 RMK AO2 RAB19 SLP162 P0000 60000 T02440106 53001,M
HND,2022-08-01 20:56,-115.1344,35.9729,742.79,97.00,62.00,31.77,230.00,9.00,0.00,30.04,1015.70,10.00,M,CLR,M,M,M,M,M,M,M,M,M,M,M,M,M,M,98.24,KHND 012056Z 23009KT 10SM CLR 36/17 A3004 RMK AO2 LTG DSNT SE AND S SLP157 T03610167 56024,M
TPH,2022-08-01 20:56,-117.0904,38.0505,1654.00,73.00,62.00,68.66,110.00,13.00,T,30.23,1016.80,10.00,M,BKN,BKN,M,M,4600.00,5500.00,M,M,M,M,M,M,M,M,M,73.00,KTPH 012056Z AUTO 11013KT 10SM BKN046 BKN055 23/17 A3023 RMK AO2 LTG DSNT E RAB1958E08 SLP168 P0000 60000 T02280167 56012,M
NFL,2022-08-01 20:56,-118.7010,39.4166,1199.00,89.00,45.00,21.70,230.00,7.00,0.00,30.07,1015.10,10.00,M,SCT,BKN,OVC,M,8000.00,11000.00,14000.00,M,M,M,M,M,M,M,M,85.66,KNFL 012056Z 23007KT 10SM SCT080 BKN110 OVC140 32/07 A3007 RMK AO2 SLP151 T03170072 58009,M
WMC,2022-08-01 20:56,-117.8072,40.9019,1315.00,93.00,48.00,21.51,280.00,10.00,T,30.06,1011.70,10.00,M,FEW,M,M,M,8000.00,M,M,M,M,M,M,M,M,M,M,89.58,KWMC 012056Z AUTO 28010KT 10SM FEW080 34/09 A3006 RMK AO2 RAE05 SLP117 P0000 60000 T03390089 56009 $,M
LSV,2022-08-01 20:58,-115.0343,36.2362,570.00,101.00,62.80,28.93,180.00,11.00,0.00,29.96,M,10.00,17.00,SCT,M,M,M,10000.00,M,M,M,M,M,M,M,M,M,M,103.22,KLSV 012058Z 18011G17KT 10SM SCT100 38/17 A2996 RMK AO2A SLPNO T03830171 57027 $,M
INS,2022-08-01 20:58,-115.6733,36.5872,955.00,87.60,61.70,41.99,90.00,7.00,0.00,30.06,1013.20,10.00,M,FEW,M,M,M,14000.00,M,M,M,M,M,M,M,M,M,M,87.91,KINS 012058Z AUTO 09007KT 10SM FEW140 31/17 A3006 RMK AO2 SLP132 60000 T03090165 58021,M
CXP,2022-08-01 21:10,-119.7326,39.1923,1431.00,84.20,46.40,26.76,M,5.00,0.00,30.17,M,10.00,12.00,CLR,M,M,M,M,M,M,M,M,M,M,M,M,M,M,81.87,KCXP 012110Z AUTO VRB05G12KT 10SM CLR 29/08 A3017 RMK AO2,M
BAM,2022-08-01 21:15,-116.8743,40.5990,1382.36,89.60,50.00,25.79,150.00,11.00,0.00,30.11,M,10.00,M,CLR,M,M,M,M,M,M,M,M,M,M,M,M,M,M,86.70,KBAM 012115Z AUTO 15011KT 10SM CLR 32/10 A3011 RMK AO1,M
RTS,2022-08-01 21:15,-119.8764,39.6682,1539.00,80.60,50.00,34.41,320.00,17.00,0.00,30.19,M,10.00,M,CLR,M,M,M,M,M,M,M,M,M,M,M,M,M,M,79.88,KRTS 012115Z AUTO 32017KT 10SM CLR 27/10 A3019 RMK AO2,M
05U,2022-08-01 21:15,-116.0051,39.6042,1811.23,69.80,57.20,64.26,240.00,13.00,0.00,30.25,M,9.00,18.00,OVC,M,M,M,5500.00,M,M,M,M,M,M,M,M,M,M,69.80,K05U 012115Z AUTO 24013G18KT 9SM OVC055 21/14 A3025 RMK A01,M
MEV,2022-08-01 21:15,-119.7500,38.9963,1441.42,86.00,50.00,28.90,280.00,9.00,0.00,30.15,M,10.00,M,FEW,M,M,M,12000.00,M,M,M,M,M,M,M,M,M,M,83.62,KMEV 012115Z AUTO 28009KT 10SM FEW120 30/10 A3015 RMK AO2,M
TMT,2022-08-01 21:15,-117.1971,39.4643,1749.34,M,M,M,20.00,5.00,0.00,30.23,M,10.00,M,BKN,M,M,M,10000.00,M,M,M,M,M,M,M,M,M,M,M,KTMT 012115Z AUTO 02005KT 10SM BKN100 A3023 RMK AO2,M
HTH,2022-08-01 21:15,-118.6315,38.5448,1282.89,86.00,51.80,30.90,M,7.00,0.00,30.11,M,10.00,M,FEW,M,M,M,12000.00,M,M,M,M,M,M,M,M,M,M,83.87,KHTH 012115Z AUTO VRB07KT 10SM FEW120 30/11 A3011 RMK A01,M
HND,2022-08-01 21:16,-115.1344,35.9729,742.79,93.20,62.60,36.35,190.00,18.00,0.00,30.03,M,10.00,21.00,CLR,M,M,M,M,M,M,M,TS,M,M,M,M,M,M,94.20,KHND 012116Z 19018G21KT 10SM TS CLR 34/17 A3003 RMK AO2 LTG DSNT SE AND S TSB10,M
LAS,2022-08-01 21:16,-115.1634,36.0719,663.00,97.00,59.00,28.46,170.00,9.00,0.00,29.99,M,10.00,15.00,FEW,SCT,SCT,M,8000.00,15000.00,22000.00,M,VCTS,M,M,M,M,M,M,96.72,KLAS 012116Z 17009G15KT 10SM VCTS FEW080 SCT150 SCT220 36/15 A2999 RMK AO2 LTG DSNT SE AND S CB DSNT N AND SE-S T03610150,M
LAS,2022-08-01 21:20,-115.1634,36.0719,663.00,96.00,59.00,29.25,M,6.00,0.00,29.99,M,10.00,16.00,FEW,SCT,SCT,M,8000.00,15000.00,22000.00,M,TS,M,M,M,M,M,M,95.72,KLAS 012120Z VRB06G16KT 10SM TS FEW080CB SCT150 SCT220 36/15 A2999 RMK AO2 LTG DSNT SE AND S TSB20 OCNL LTGICCCCG E-S TS E-S MOV NE CB DSNT N T03560150,M
HND,2022-08-01 21:25,-115.1344,35.9729,742.79,91.40,68.00,46.41,150.00,18.00,0.00,30.04,M,10.00,M,FEW,M,M,M,7000.00,M,M,M,M,M,M,M,M,M,M,95.55,KHND 012125Z 15018KT 10SM FEW070 33/20 A3004 RMK AO2 WSHFT 2110 LTG DSNT E-S TSB10E25,M
CXP,2022-08-01 21:30,-119.7326,39.1923,1431.00,84.20,46.40,26.76,230.00,6.00,0.00,30.16,M,10.00,M,CLR,M,M,M,M,M,M,M,M,M,M,M,M,M,M,81.87,KCXP 012130Z AUTO 23006KT 10SM CLR 29/08 A3016 RMK AO2,M
LAS,2022-08-01 21:34,-115.1634,36.0719,663.00,96.00,59.00,29.25,150.00,9.00,0.00,29.99,M,10.00,M,FEW,SCT,SCT,M,8000.00,15000.00,22000.00,M,TS,M,M,M,M,M,M,95.72,KLAS 012134Z 15009KT 10SM TS FEW080CB SCT150 SCT220 36/15 A2999 RMK AO2 LTG DSNT SE AND S TSB20 OCNL LTGICCCCG E-S TS E-S MOV NE CB DSNT N T03560150,M
MEV,2022-08-01 21:35,-119.7500,38.9963,1441.42,86.00,50.00,28.90,310.00,9.00,0.00,30.15,M,10.00,15.00,SCT,M,M,M,11000.00,M,M,M,M,M,M,M,M,M,M,83.62,KMEV 012135Z AUTO 31009G15KT 10SM SCT110 30/10 A3015 RMK AO2,M
TMT,2022-08-01 21:35,-117.1971,39.4643,1749.34,M,M,M,0.00,0.00,0.00,30.23,M,10.00,M,BKN,M,M,M,10000.00,M,M,M,M,M,M,M,M,M,M,M,KTMT 012135Z AUTO 00000KT 10SM BKN100 A3023 RMK AO2,M
BVU,2022-08-01 21:35,-114.8611,35.9475,671.00,80.60,66.20,61.58,160.00,10.00,0.00,30.03,M,M,20.00,M,M,M,M,M,M,M,M,M,M,M,M,M,M,M,82.75,KBVU 012135Z AUTO 16010G20KT 27/19 A3003 RMK AO2 PWINO TSNO,M
RTS,2022-08-01 21:35,-119.8764,39.6682,1539.00,80.60,50.00,34.41,310.00,14.00,0.00,30.19,M,10.00,20.00,CLR,M,M,M,M,M,M,M,M,M,M,M,M,M,M,79.88,KRTS 012135Z AUTO 31014G20KT 10SM CLR 27/10 A3019 RMK AO2,M
05U,2022-08-01 21:35,-116.0051,39.6042,1811.23,69.80,57.20,64.26,280.00,10.00,0.00,30.25,M,10.00,M,BKN,BKN,M,M,6000.00,7500.00,M,M,M,M,M,M,M,M,M,69.80,K05U 012135Z AUTO 28010KT 10SM BKN060 BKN075 21/14 A3025 RMK A01,M
BAM,2022-08-01 21:35,-116.8743,40.5990,1382.36,89.60,50.00,25.79,150.00,10.00,0.00,30.10,M,10.00,14.00,CLR,M,M,M,M,M,M,M,M,M,M,M,M,M,M,86.70,KBAM 012135Z AUTO 15010G14KT 10SM CLR 32/10 A3010 RMK AO1,M
HTH,2022-08-01 21:35,-118.6315,38.5448,1282.89,86.00,51.80,30.90,320.00,6.00,0.00,30.11,M,10.00,M,FEW,M,M,M,11000.00,M,M,M,M,M,M,M,M,M,M,83.87,KHTH 012135Z AUTO 32006KT 10SM FEW110 30/11 A3011 RMK A01,M
CXP,2022-08-01 21:50,-119.7326,39.1923,1431.00,84.20,46.40,26.76,310.00,4.00,0.00,30.16,M,10.00,M,FEW,M,M,M,11000.00,M,M,M,M,M,M,M,M,M,M,81.87,KCXP 012150Z AUTO 31004KT 10SM FEW110 29/08 A3016 RMK AO2,M
DRA,2022-08-01 21:53,-116.0278,36.6206,1009.00,94.00,58.00,30.10,230.00,13.00,0.00,30.05,1012.20,10.00,18.00,CLR,M,M,M,M,M,M,M,M,M,M,M,M,M,M,92.90,KDRA 012153Z AUTO 23013G18KT 180V250 10SM CLR 34/14 A3005 RMK AO2 SLP122 T03440144,M
LOL,2022-08-01 21:53,-118.5701,40.0684,1192.43,96.00,44.00,16.87,160.00,11.00,0.00,30.02,1011.40,10.00,17.00,CLR,M,M,M,M,M,M,M,M,M,M,M,M,M,M,92.05,KLOL 012153Z AUTO 16011G17KT 10SM CLR 36/07 A3002 RMK AO2 SLP114 T03560067,M
VGT,2022-08-01 21:53,-115.1933,36.2111,667.00,97.00,62.00,31.77,110.00,13.00,0.00,29.96,1013.30,10.00,M,SCT,M,M,M,8000.00,M,M,M,M,M,M,M,M,M,M,98.24,KVGT 012153Z 11013KT 10SM SCT080 36/17 A2996 RMK AO2 LTG DSNT SE SLP133 T03610167,M
P68,2022-08-01 21:53,-116.0056,39.6014,1993.00,75.00,54.00,47.99,280.00,7.00,0.00,30.21,1014.70,M,M,M,M,M,M,M,M,M,M,M,M,M,M,28.00,280.00,2022-08-01 20:59,75.00,KP68 012153Z AUTO 28007KT 24/12 A3021 RMK AO1 PK WND 28028/2059 SLP147 T02390122,M
ELY,2022-08-01 21:53,-114.8453,39.2950,1909.00,81.00,51.00,35.38,240.00,10.00,0.00,30.21,1012.30,10.00,17.00,BKN,OVC,M,M,6500.00,8000.00,M,M,M,M,M,M,M,M,M,80.23,KELY 012153Z AUTO 24010G17KT 10SM BKN065 OVC080 27/11 A3021 RMK AO2 LTG DSNT NE AND SE SLP123 T02720106,M
BAM,2022-08-01 21:55,-116.8743,40.5990,1382.36,89.60,50.00,25.79,120.00,11.00,0.00,30.10,M,10.00,15.00,CLR,M,M,M,M,M,M,M,M,M,M,M,M,M,M,86.70,KBAM 012155Z AUTO 12011G15KT 10SM CLR 32/10 A3010 RMK AO1,M
BVU,2022-08-01 21:55,-114.8611,35.9475,671.00,82.40,64.40,54.55,M,5.00,0.00,30.02,M,M,M,M,M,M,M,M,M,M,M,M,M,M,M,M,M,M,83.98,KBVU 012155Z AUTO VRB05KT 28/18 A3002 RMK AO2 PWINO TSNO,M
RTS,2022-08-01 21:55,-119.8764,39.6682,1539.00,80.60,50.00,34.41,310.00,17.00,0.00,30.19,M,10.00,22.00,CLR,M,M,M,M,M,M,M,M,M,M,M,M,M,M,79.88,KRTS 012155Z AUTO 31017G22KT 10SM CLR 27/10 A3019 RMK AO2,M
05U,2022-08-01 21:55,-116.0051,39.6042,1811.23,75.20,53.60,46.98,280.00,5.00,0.00,30.24,M,10.00,M,SCT,BKN,BKN,M,6000.00,7500.00,10000.00,M,M,M,M,M,M,M,M,75.20,K05U 012155Z AUTO 28005KT 10SM SCT060 BKN075 BKN100 24/12 A3024 RMK A01,M
MEV,2022-08-01 21:55,-119.7500,38.9963,1441.42,86.00,50.00,28.90,280.00,12.00,0.00,30.15,M,10.00,18.00,BKN,M,M,M,11000.00,M,M,M,M,M,M,M,M,M,M,83.62,KMEV 012155Z AUTO 28012G18KT 10SM BKN110 30/10 A3015 RMK AO2,M
HTH,2022-08-01 21:55,-118.6315,38.5448,1282.89,84.20,50.00,30.62,300.00,8.00,0.00,30.11,M,10.00,M,SCT,M,M,M,11000.00,M,M,M,M,M,M,M,M,M,M,82.24,KHTH 012155Z AUTO 30008KT 10SM SCT110 29/10 A3011 RMK A01,M
TMT,2022-08-01 21:55,-117.1971,39.4643,1749.34,M,M,M,0.00,0.00,0.00,30.22,M,10.00,M,SCT,M,M,M,10000.00,M,M,M,M,M,M,M,M,M,M,M,KTMT 012155Z AUTO 00000KT 10SM SCT100 A3022 RMK AO2 LTG DSNT SE,M
RNO,2022-08-01 21:55,-119.7711,39.4839,1341.00,88.00,51.00,28.25,280.00,17.00,0.00,30.11,1012.90,10.00,20.00,FEW,BKN,BKN,M,9500.00,15000.00,24000.00,M,M,M,M,M,M,M,M,85.45,KRNO 012155Z 28017G20KT 10SM FEW095 BKN150 BKN240 31/11 A3011 RMK AO2 SLP129 T03110106,M
HND,2022-08-01 21:56,-115.1344,35.9729,742.79,86.00,64.00,47.91,160.00,18.00,0.00,30.02,1015.60,10.00,26.00,CLR,M,M,M,M,M,M,M,M,M,M,M,27.00,160.00,2022-08-01 21:44,87.31,KHND 012156Z 16018G26KT 10SM CLR 30/18 A3002 RMK AO2 PK WND 16027/2144 WSHFT 2110 LTG DSNT S TSB10E25 SLP156 T03000178,M
LAS,2022-08-01 21:56,-115.1634,36.0719,663.00,93.00,65.00,39.65,170.00,11.00,0.00,29.98,1012.40,10.00,21.00,FEW,SCT,SCT,M,8000.00,15000.00,22000.00,M,TS,M,M,M,M,M,M,95.27,KLAS 012156Z 17011G21KT 10SM TS FEW080CB SCT150 SCT220 34/18 A2998 RMK AO2 TSB20 SLP124 OCNL LTGICCCCG E-S TS E-S MOV NE CB DSNT N T03390183,M
EKO,2022-08-01 21:56,-115.7860,40.8242,1367.00,82.00,48.00,30.51,70.00,6.00,T,30.16,1014.80,10.00,M,FEW,SCT,BKN,M,5500.00,7000.00,11000.00,M,M,M,M,M,M,M,M,80.53,KEKO 012156Z AUTO 07006KT 10SM FEW055 SCT070 BKN110 28/09 A3016 RMK AO2 RAE2059 SLP148 P0000 T02780089,M
NFL,2022-08-01 21:56,-118.7010,39.4166,1199.00,88.00,46.00,23.34,200.00,5.00,0.00,30.06,1014.80,10.00,M,SCT,BKN,OVC,M,8000.00,11000.00,15000.00,M,M,M,M,M,M,M,M,84.81,KNFL 012156Z 20005KT 10SM SCT080 BKN110 OVC150 31/08 A3006 RMK AO2 SLP148 T03110078,M
TPH,2022-08-01 21:56,-117.0904,38.0505,1654.00,75.00,60.00,59.81,120.00,8.00,0.00,30.20,1015.60,10.00,M,CLR,M,M,M,M,M,M,M,M,M,M,M,M,M,M,75.00,KTPH 012156Z AUTO 12008KT 10SM CLR 24/16 A3020 RMK AO2 SLP156 T02390156,M
WMC,2022-08-01 21:56,-117.8072,40.9019,1315.00,87.00,51.00,29.07,210.00,19.00,0.00,30.05,1011.50,10.00,27.00,CLR,M,M,M,M,M,M,M,M,M,M,M,27.00,210.00,2022-08-01 21:56,84.67,KWMC 012156Z AUTO 21019G27KT 10SM CLR 31/11 A3005 RMK AO2 PK WND 21027/2156 SLP115 T03060106 $,M
INS,2022-08-01 21:58,-115.6733,36.5872,955.00,89.60,59.00,35.81,90.00,7.00,0.00,30.04,1012.30,10.00,M,CLR,M,M,M,M,M,M,M,M,M,M,M,M,M,M,88.86,KINS 012158Z AUTO 09007KT 10SM CLR 32/15 A3004 RMK AO2 SLP123 T03200150,M
LSV,2022-08-01 21:58,-115.0343,36.2362,570.00,96.00,64.00,34.80,150.00,9.00,0.00,29.95,M,10.00,M,FEW,SCT,M,M,8000.00,18000.00,M,M,M,M,M,M,M,M,M,98.23,KLSV 012158Z 15009KT 10SM FEW080 SCT180 36/18 A2995 RMK AO2A SLPNO T03560177 $,M
CXP,2022-08-01 22:10,-119.7326,39.1923,1431.00,86.00,46.40,25.26,220.00,5.00,0.00,30.16,M,10.00,11.00,SCT,M,M,M,11000.00,M,M,M,M,M,M,M,M,M,M,83.22,KCXP 012210Z AUTO 22005G11KT 10SM SCT110 30/08 A3016 RMK AO2,M
RTS,2022-08-01 22:15,-119.8764,39.6682,1539.00,80.60,50.00,34.41,310.00,17.00,0.00,30.18,M,10.00,22.00,CLR,M,M,M,M,M,M,M,M,M,M,M,M,M,M,79.88,KRTS 012215Z AUTO 31017G22KT 10SM CLR 27/10 A3018 RMK AO2,M
BVU,2022-08-01 22:15,-114.8611,35.9475,671.00,82.40,62.60,51.21,260.00,11.00,0.00,30.01,M,M,M,M,M,M,M,M,M,M,M,M,M,M,M,M,M,M,83.41,KBVU 012215Z AUTO 26011KT 28/17 A3001 RMK AO2 PWINO TSNO,M
TMT,2022-08-01 22:15,-117.1971,39.4643,1749.34,74.00,54.50,50.71,210.00,18.00,0.00,30.22,M,10.00,23.00,SCT,SCT,M,M,6500.00,9000.00,M,M,M,M,M,M,M,M,M,73.90,KTMT 012215Z AUTO 21018G23KT 10SM SCT065 SCT090 23/13 A3022 RMK AO2 T02330125,M
BAM,2022-08-01 22:15,-116.8743,40.5990,1382.36,87.80,48.20,25.52,130.00,9.00,0.00,30.09,M,10.00,17.00,CLR,M,M,M,M,M,M,M,M,M,M,M,M,M,M,84.87,KBAM 012215Z AUTO 13009G17KT 10SM CLR 31/09 A3009 RMK AO1,M
HTH,2022-08-01 22:15,-118.6315,38.5448,1282.89,84.20,50.00,30.62,290.00,10.00,0.00,30.11,M,10.00,M,FEW,M,M,M,11000.00,M,M,M,M,M,M,M,M,M,M,82.24,KHTH 012215Z AUTO 29010KT 10SM FEW110 29/10 A3011 RMK A01,M
MEV,2022-08-01 22:15,-119.7500,38.9963,1441.42,86.00,50.00,28.90,300.00,14.00,0.00,30.14,M,10.00,M,BKN,M,M,M,11000.00,M,M,M,M,M,M,M,M,M,M,83.62,KMEV 012215Z AUTO 30014KT 10SM BKN110 30/10 A3014 RMK AO2,M
CXP,2022-08-01 22:30,-119.7326,39.1923,1431.00,84.20,50.00,30.62,250.00,10.00,0.00,30.15,M,10.00,M,BKN,M,M,M,11000.00,M,M,M,M,M,M,M,M,M,M,82.24,KCXP 012230Z AUTO 25010KT 230V290 10SM BKN110 29/10 A3015 RMK AO2,M
ELY,2022-08-01 22:34,-114.8453,39.2950,1909.00,85.00,52.00,32.24,230.00,15.00,0.00,30.20,M,10.00,23.00,BKN,OVC,M,M,6500.00,11000.00,M,M,VCTS,M,M,M,M,M,M,83.03,KELY 012234Z AUTO 23015G23KT 10SM VCTS BKN065 OVC110 29/11 A3020 RMK AO2 LTG DSNT ALQDS T02940111,M
HTH,2022-08-01 22:35,-118.6315,38.5448,1282.89,84.20,53.60,34.97,240.00,9.00,0.00,30.11,M,10.00,M,CLR,M,M,M,M,M,M,M,M,M,M,M,M,M,M,82.76,KHTH 012235Z AUTO 24009KT 10SM CLR 29/12 A3011 RMK A01,M
TMT,2022-08-01 22:35,-117.1971,39.4643,1749.34,68.00,59.50,74.23,200.00,15.00,0.00,30.22,M,10.00,M,SCT,SCT,BKN,M,3100.00,3800.00,6500.00,M,-RA,M,M,M,M,M,M,68.00,KTMT 012235Z AUTO 20015KT 10SM -RA SCT031 SCT038 BKN065 20/15 A3022 RMK AO2 T02000153,M
BAM,2022-08-01 22:35,-116.8743,40.5990,1382.36,87.80,50.00,27.29,140.00,17.00,0.00,30.10,M,10.00,M,CLR,M,M,M,M,M,M,M,M,M,M,M,M,M,M,85.11,KBAM 012235Z AUTO 14017KT 10SM CLR 31/10 A3010 RMK AO1,M
MEV,2022-08-01 22:35,-119.7500,38.9963,1441.42,84.20,50.00,30.62,280.00,14.00,0.00,30.14,M,10.00,M,FEW,M,M,M,11000.00,M,M,M,M,M,M,M,M,M,M,82.24,KMEV 012235Z AUTO 28014KT 10SM FEW110 29/10 A3014 RMK AO2,M
05U,2022-08-01 22:35,-116.0051,39.6042,1811.23,M,M,M,M,M,0.00,M,M,M,M,M,M,M,M,M,M,M,M,M,M,M,M,M,M,M,M,K05U 012235Z AUTO RMK A01 PNO,M
RTS,2022-08-01 22:35,-119.8764,39.6682,1539.00,78.80,50.00,36.51,310.00,21.00,0.00,30.19,M,10.00,M,CLR,M,M,M,M,M,M,M,M,M,M,M,M,M,M,78.80,KRTS 012235Z AUTO 31021KT 10SM CLR 26/10 A3019 RMK AO2,M
BVU,2022-08-01 22:35,-114.8611,35.9475,671.00,82.40,62.60,51.21,240.00,11.00,0.00,30.02,M,M,M,M,M,M,M,M,M,M,M,M,M,M,M,M,M,M,83.41,KBVU 012235Z AUTO 24011KT 28/17 A3002 RMK AO2 PWINO TSNO,M
WMC,2022-08-01 22:36,-117.8072,40.9019,1315.00,83.00,55.00,38.38,150.00,18.00,0.00,30.07,M,10.00,25.00,CLR,M,M,M,M,M,M,M,M,M,M,M,28.00,150.00,2022-08-01 22:26,82.03,KWMC 012236Z AUTO 15018G25KT 10SM CLR 28/13 A3007 RMK AO2 PK WND 15028/2226 WSHFT 2216 T02830128 $,M
CXP,2022-08-01 22:50,-119.7326,39.1923,1431.00,82.40,48.20,30.35,260.00,14.00,0.00,30.15,M,10.00,M,OVC,M,M,M,11000.00,M,M,M,M,M,M,M,M,M,M,80.80,KCXP 012250Z AUTO 26014KT 10SM OVC110 28/09 A3015 RMK AO2,M
DRA,2022-08-01 22:53,-116.0278,36.6206,1009.00,96.00,57.00,27.23,230.00,13.00,0.00,30.03,1011.50,10.00,19.00,CLR,M,M,M,M,M,M,M,M,M,M,M,M,M,M,94.94,KDRA 012253Z AUTO 23013G19KT 10SM CLR 36/14 A3003 RMK AO2 SLP115 T03560139,M
LOL,2022-08-01 22:53,-118.5701,40.0684,1192.43,94.00,43.00,17.31,240.00,7.00,0.00,30.01,1011.40,10.00,18.00,SCT,M,M,M,11000.00,M,M,M,M,M,M,M,M,M,M,89.84,KLOL 012253Z AUTO 24007G18KT 10SM SCT110 34/06 A3001 RMK AO2 SLP114 T03440061,M
VGT,2022-08-01 22:53,-115.1933,36.2111,667.00,93.00,65.00,39.65,110.00,12.00,0.00,29.95,1013.20,10.00,M,CLR,M,M,M,M,M,M,M,M,M,M,M,M,M,M,95.27,KVGT 012253Z 11012KT 10SM CLR 34/18 A2995 RMK AO2 LTG DSNT S SLP132 T03390183,M
ELY,2022-08-01 22:53,-114.8453,39.2950,1909.00,81.00,52.00,36.58,220.00,15.00,0.00,30.20,1012.20,10.00,26.00,BKN,BKN,M,M,6500.00,11000.00,M,M,M,M,M,M,27.00,200.00,2022-08-01 22:41,80.34,KELY 012253Z AUTO 22015G26KT 10SM BKN065 BKN110 27/11 A3020 RMK AO2 PK WND 20027/2241 LTG DSNT ALQDS SLP122 T02720111,M
BAM,2022-08-01 22:55,-116.8743,40.5990,1382.36,86.00,48.20,27.03,130.00,19.00,0.00,30.09,M,10.00,22.00,SCT,M,M,M,12000.00,M,M,M,M,M,M,M,M,M,M,83.40,KBAM 012255Z AUTO 13019G22KT 10SM SCT120 30/09 A3009 RMK AO1,M
BVU,2022-08-01 22:55,-114.8611,35.9475,671.00,84.20,62.60,48.32,260.00,9.00,0.00,30.00,M,M,M,M,M,M,M,M,M,M,M,M,M,M,M,M,M,M,85.03,KBVU 012255Z AUTO 26009KT 29/17 A3000 RMK AO2 PWINO TSNO,M
TMT,2022-08-01 22:55,-117.1971,39.4643,1749.34,69.60,57.70,65.88,190.00,12.00,0.00,30.22,M,10.00,M,SCT,SCT,BKN,M,3100.00,3800.00,8500.00,M,-DZ,M,M,M,M,M,M,69.60,KTMT 012255Z AUTO 19012KT 10SM -DZ SCT031 SCT038 BKN085 21/14 A3022 RMK AO2 LTG DSNT E T02090143,M
RNO,2022-08-01 22:55,-119.7711,39.4839,1341.00,88.00,51.00,28.25,290.00,16.00,0.00,30.10,1012.90,10.00,23.00,SCT,BKN,BKN,M,9500.00,15000.00,25000.00,M,M,M,M,M,M,M,M,85.45,KRNO 012255Z 29016G23KT 10SM SCT095 BKN150 BKN250 31/11 A3010 RMK AO2 SLP129 FU SW T03110106,M
RTS,2022-08-01 22:55,-119.8764,39.6682,1539.00,78.80,50.00,36.51,310.00,17.00,0.00,30.19,M,10.00,25.00,CLR,M,M,M,M,M,M,M,M,M,M,M,M,M,M,78.80,KRTS 012255Z AUTO 31017G25KT 10SM CLR 26/10 A3019 RMK AO2,M
05U,2022-08-01 22:55,-116.0051,39.6042,1811.23,M,M,M,M,M,0.00,M,M,M,M,M,M,M,M,M,M,M,M,M,M,M,M,M,M,M,M,K05U 012255Z AUTO RMK A01 PNO,M
MEV,2022-08-01 22:55,-119.7500,38.9963,1441.42,82.40,50.00,32.46,280.00,10.00,0.00,30.14,M,10.00,17.00,FEW,M,M,M,11000.00,M,M,M,M,M,M,M,M,M,M,80.99,KMEV 012255Z AUTO 28010G17KT 10SM FEW110 28/10 A3014 RMK AO2,M
HTH,2022-08-01 22:55,-118.6315,38.5448,1282.89,82.40,53.60,37.07,240.00,10.00,0.00,30.11,M,10.00,M,CLR,M,M,M,M,M,M,M,M,M,M,M,M,M,M,81.46,KHTH 012255Z AUTO 24010KT 10SM CLR 28/12 A3011 RMK A01,M
LAS,2022-08-01 22:56,-115.1634,36.0719,663.00,92.00,62.00,37.19,170.00,10.00,0.00,29.96,1012.00,10.00,18.00,SCT,BKN,BKN,M,8000.00,15000.00,22000.00,M,TS,M,M,M,M,M,M,92.52,KLAS 012256Z 17010G18KT 10SM TS SCT080CB BKN150 BKN220 33/17 A2996 RMK AO2 LTG DSNT SW SLP120 OCNL LTGICCCCG S-SW TS S-SW MOV NE CB DSNT ALQDS T03330167,M
TPH,2022-08-01 22:56,-117.0904,38.0505,1654.00,79.00,57.00,46.87,130.00,4.00,0.00,30.19,1015.00,10.00,M,BKN,M,M,M,11000.00,M,M,M,M,M,M,M,M,M,M,79.00,KTPH 012256Z AUTO 13004KT 10SM BKN110 26/14 A3019 RMK AO2 SLP150 T02610139,M
NFL,2022-08-01 22:56,-118.7010,39.4166,1199.00,88.00,46.00,23.34,160.00,5.00,0.00,30.05,1014.50,10.00,M,SCT,BKN,OVC,M,8000.00,12000.00,18000.00,M,M,M,M,M,M,M,M,84.81,KNFL 012256Z 16005KT 10SM SCT080 BKN120 OVC180 31/08 A3005 RMK AO2 SLP145 CB DSNT S-SW T03110078,M
EKO,2022-08-01 22:56,-115.7860,40.8242,1367.00,84.00,44.00,24.68,0.00,0.00,0.00,30.13,1013.80,10.00,M,BKN,M,M,M,10000.00,M,M,M,M,M,M,M,M,M,M,81.55,KEKO 012256Z AUTO 00000KT 10SM BKN100 29/07 A3013 RMK AO2 SLP138 T02890067,M
HND,2022-08-01 22:56,-115.1344,35.9729,742.79,88.00,62.00,42.05,170.00,18.00,0.00,30.00,1014.90,10.00,M,CLR,M,M,M,M,M,M,M,M,M,M,M,M,M,M,88.47,KHND 012256Z 17018KT 10SM CLR 31/17 A3000 RMK AO2 LTG DSNT SW SLP149 T03110167,M
WMC,2022-08-01 22:56,-117.8072,40.9019,1315.00,80.00,54.00,40.54,180.00,18.00,0.00,30.07,1012.70,10.00,28.00,CLR,M,M,M,M,M,M,M,M,M,M,M,29.00,160.00,2022-08-01 22:41,80.04,KWMC 012256Z AUTO 18018G28KT 10SM CLR 27/12 A3007 RMK AO2 PK WND 16029/2241 WSHFT 2216 SLP127 T02670122 $,M
LSV,2022-08-01 22:58,-115.0343,36.2362,570.00,94.50,64.80,37.72,150.00,13.00,0.00,29.93,M,10.00,M,FEW,M,M,M,20000.00,M,M,M,M,M,M,M,M,M,M,96.93,KLSV 012258Z AUTO 15013KT 10SM FEW200 35/18 A2993 RMK AO2 SLPNO T03470182 $,M
INS,2022-08-01 22:58,-115.6733,36.5872,955.00,91.00,60.00,35.75,140.00,10.00,0.00,30.01,1011.30,10.00,M,CLR,M,M,M,M,M,M,M,M,M,M,M,M,M,M,90.58,KINS 012258Z AUTO 14010KT 10SM CLR 33/16 A3001 RMK AO2 SLP113 T03270156,M
TPH,2022-08-01 23:08,-117.0904,38.0505,1654.00,78.00,57.00,48.28,140.00,6.00,0.00,30.20,M,10.00,M,BKN,M,M,M,10000.00,M,M,M,VCTS,M,M,M,M,M,M,78.10,KTPH 012308Z AUTO 14006KT 10SM VCTS BKN100 26/14 A3020 RMK AO2 T02560139,M
CXP,2022-08-01 23:10,-119.7326,39.1923,1431.00,82.40,50.00,32.46,270.00,9.00,0.00,30.15,M,10.00,20.00,BKN,M,M,M,11000.00,M,M,M,M,M,M,M,M,M,M,80.99,KCXP 012310Z AUTO 27009G20KT 10SM BKN110 28/10 A3015 RMK AO2,M
ELY,2022-08-01 23:13,-114.8453,39.2950,1909.00,78.00,54.00,43.30,230.00,15.00,0.00,30.21,M,10.00,26.00,FEW,SCT,M,M,6500.00,11000.00,M,M,VCTS,M,M,M,28.00,210.00,2022-08-01 22:56,78.10,KELY 012313Z AUTO 23015G26KT 10SM VCTS FEW065 SCT110 26/12 A3021 RMK AO2 PK WND 21028/2256 LTG DSNT ALQDS T02560122,M
BAM,2022-08-01 23:15,-116.8743,40.5990,1382.36,86.00,50.00,28.90,120.00,17.00,0.00,30.09,M,10.00,21.00,SCT,M,M,M,12000.00,M,M,M,M,M,M,M,M,M,M,83.62,KBAM 012315Z AUTO 12017G21KT 10SM SCT120 30/10 A3009 RMK AO1,M
05U,2022-08-01 23:15,-116.0051,39.6042,1811.23,M,M,M,M,M,0.00,M,M,M,M,M,M,M,M,M,M,M,M,M,M,M,M,M,M,M,M,K05U 012315Z AUTO RMK A01 PNO,M
RTS,2022-08-01 23:15,-119.8764,39.6682,1539.00,77.00,51.80,41.42,310.00,17.00,0.00,30.18,M,10.00,22.00,CLR,M,M,M,M,M,M,M,M,M,M,M,M,M,M,77.00,KRTS 012315Z AUTO 31017G22KT 10SM CLR 25/11 A3018 RMK AO2,M
BVU,2022-08-01 23:15,-114.8611,35.9475,671.00,84.20,62.60,48.32,230.00,10.00,0.00,29.99,M,M,17.00,M,M,M,M,M,M,M,M,M,M,M,M,M,M,M,85.03,KBVU 012315Z AUTO 23010G17KT 29/17 A2999 RMK AO2 PWINO TSNO,M
TMT,2022-08-01 23:15,-117.1971,39.4643,1749.34,M,M,M,200.00,12.00,0.00,30.22,M,10.00,M,OVC,M,M,M,8500.00,M,M,M,M,M,M,M,M,M,M,M,KTMT 012315Z AUTO 20012KT 10SM OVC085 A3022 RMK AO2 LTG DSNT S,M
HTH,2022-08-01 23:15,-118.6315,38.5448,1282.89,82.40,53.60,37.07,250.00,15.00,0.00,30.10,M,10.00,M,CLR,M,M,M,M,M,M,M,M,M,M,M,M,M,M,81.46,KHTH 012315Z AUTO 25015KT 10SM CLR 28/12 A3010 RMK A01,M
MEV,2022-08-01 23:15,-119.7500,38.9963,1441.42,80.60,51.80,36.79,290.00,12.00,0.00,30.15,M,10.00,21.00,BKN,M,M,M,11000.00,M,M,M,M,M,M,M,M,M,M,80.08,KMEV 012315Z AUTO 29012G21KT 10SM BKN110 27/11 A3015 RMK AO2,M
INS,2022-08-01 23:16,-115.6733,36.5872,955.00,89.60,60.80,38.18,140.00,14.00,0.00,30.01,1011.30,10.00,M,FEW,FEW,BKN,M,8000.00,14000.00,16000.00,M,-RA,M,M,M,M,M,M,89.54,KINS 012316Z AUTO 14014KT 10SM -RA FEW080 FEW140 BKN160 32/16 A3001 RMK AO2 RAB16 SLP113,M
INS,2022-08-01 23:22,-115.6733,36.5872,955.00,87.80,62.60,43.07,140.00,8.00,0.00,30.01,1011.40,10.00,M,FEW,SCT,BKN,M,2200.00,13000.00,16000.00,M,-TSRA,M,M,M,M,M,M,88.48,KINS 012322Z AUTO 14008KT 10SM -TSRA FEW022 SCT130 BKN160 31/17 A3001 RMK AO2 RAB16 TSB22 SLP114,M
TPH,2022-08-01 23:23,-117.0904,38.0505,1654.00,77.00,56.00,48.12,0.00,0.00,0.00,30.19,M,10.00,M,FEW,BKN,OVC,M,7000.00,8500.00,11000.00,M,M,M,M,M,M,M,M,77.00,KTPH 012323Z AUTO 00000KT 10SM FEW070 BKN085 OVC110 25/13 A3019 RMK AO2 LTG DSNT E AND NW T02500133,M
CXP,2022-08-01 23:30,-119.7326,39.1923,1431.00,82.40,50.00,32.46,270.00,12.00,0.00,30.15,M,10.00,22.00,BKN,M,M,M,12000.00,M,M,M,M,M,M,M,M,M,M,80.99,KCXP 012330Z AUTO 27012G22KT 10SM BKN120 28/10 A3015 RMK AO2,M
INS,2022-08-01 23:32,-115.6733,36.5872,955.00,87.80,64.40,45.88,130.00,7.00,0.00,30.01,1011.40,10.00,M,SCT,BKN,BKN,OVC,2900.00,9500.00,13000.00,16000.00,-TSRA,M,M,M,M,M,M,89.33,KINS 012332Z AUTO 13007KT 10SM -TSRA SCT029 BKN095 BKN130 OVC160 31/18 A3001 RMK AO2 RAB16 TSB22 SLP114,M
TMT,2022-08-01 23:35,-117.1971,39.4643,1749.34,M,M,M,210.00,6.00,0.00,30.22,M,10.00,M,SCT,BKN,OVC,M,4500.00,7000.00,8500.00,M,-RA,M,M,M,M,M,M,M,KTMT 012335Z AUTO 21006KT 10SM -RA SCT045 BKN070 OVC085 A3022 RMK AO2,M
BVU,2022-08-01 23:35,-114.8611,35.9475,671.00,86.00,62.60,45.61,230.00,9.00,0.00,29.99,M,M,M,M,M,M,M,M,M,M,M,M,M,M,M,M,M,M,86.72,KBVU 012335Z AUTO 23009KT 30/17 A2999 RMK AO2 PWINO TSNO,M
BAM,2022-08-01 23:35,-116.8743,40.5990,1382.36,87.80,50.00,27.29,120.00,16.00,0.00,30.09,M,10.00,20.00,CLR,M,M,M,M,M,M,M,M,M,M,M,M,M,M,85.11,KBAM 012335Z AUTO 12016G20KT 10SM CLR 31/10 A3009 RMK AO1,M
RTS,2022-08-01 23:35,-119.8764,39.6682,1539.00,77.00,50.00,38.74,300.00,18.00,0.00,30.18,M,10.00,23.00,CLR,M,M,M,M,M,M,M,M,M,M,M,M,M,M,77.00,KRTS 012335Z AUTO 30018G23KT 10SM CLR 25/10 A3018 RMK AO2,M
05U,2022-08-01 23:35,-116.0051,39.6042,1811.23,M,M,M,M,M,0.00,M,M,M,M,M,M,M,M,M,M,M,M,M,M,M,M,M,M,M,M,K05U 012335Z AUTO RMK A01 PNO,M
MEV,2022-08-01 23:35,-119.7500,38.9963,1441.42,78.80,51.80,39.02,280.00,17.00,0.00,30.15,M,10.00,M,BKN,M,M,M,11000.00,M,M,M,M,M,M,M,M,M,M,78.80,KMEV 012335Z AUTO 28017KT 10SM BKN110 26/11 A3015 RMK AO2,M
HTH,2022-08-01 23:35,-118.6315,38.5448,1282.89,82.40,53.60,37.07,250.00,15.00,0.00,30.10,M,10.00,M,CLR,M,M,M,M,M,M,M,M,M,M,M,M,M,M,81.46,KHTH 012335Z AUTO 25015KT 10SM CLR 28/12 A3010 RMK A01,M
INS,2022-08-01 23:48,-115.6733,36.5872,955.00,86.00,64.40,48.58,50.00,3.00,0.00,30.00,1011.10,10.00,M,FEW,SCT,BKN,BKN,3600.00,8000.00,9500.00,20000.00,M,M,M,M,M,M,M,87.49,KINS 012348Z AUTO 05003KT 10SM FEW036 SCT080 BKN095 BKN200 30/18 A3000 RMK AO2 LTG DSNT W RAB16E48 TSB22E38 SLP111,M
CXP,2022-08-01 23:50,-119.7326,39.1923,1431.00,80.60,50.00,34.41,280.00,11.00,0.00,30.15,M,10.00,20.00,SCT,M,M,M,12000.00,M,M,M,M,M,M,M,M,M,M,79.88,KCXP 012350Z AUTO 28011G20KT 240V300 10SM SCT120 27/10 A3015 RMK AO2,M
VGT,2022-08-01 23:53,-115.1933,36.2111,667.00,94.00,62.00,34.95,170.00,12.00,0.00,29.94,1012.80,10.00,M,CLR,M,M,M,M,M,M,M,M,M,M,M,M,M,M,94.72,KVGT 012353Z 17012KT 10SM CLR 34/17 A2994 RMK AO2 SLP128 T03440167 10372 20317 56013,M
LOL,2022-08-01 23:53,-118.5701,40.0684,1192.43,94.00,43.00,17.31,0.00,0.00,0.00,30.00,1011.10,10.00,M,SCT,M,M,M,11000.00,M,M,M,M,M,M,M,M,M,M,89.84,KLOL 012353Z AUTO 00000KT 10SM SCT110 34/06 A3000 RMK AO2 SLP111 T03440061 10356 20300 56013,M
ELY,2022-08-01 23:53,-114.8453,39.2950,1909.00,74.00,55.00,51.64,250.00,16.00,0.00,30.23,1014.20,10.00,32.00,BKN,M,M,M,9500.00,M,M,M,VCTS,M,M,M,32.00,260.00,2022-08-01 23:47,73.90,KELY 012353Z AUTO 25016G32KT 10SM VCTS BKN095 23/13 A3023 RMK AO2 PK WND 26032/2347 LTG DSNT ALQDS SLP142 T02330128 10294 20228 55003,M
DRA,2022-08-01 23:53,-116.0278,36.6206,1009.00,96.00,57.00,27.23,210.00,11.00,0.00,30.00,1010.80,10.00,23.00,CLR,M,M,M,M,M,M,M,M,M,M,M,26.00,220.00,2022-08-01 23:34,94.94,KDRA 012353Z AUTO 21011G23KT 10SM CLR 36/14 A3000 RMK AO2 PK WND 22026/2334 SLP108 T03560139 10356 20294 56020,M
TMT,2022-08-01 23:55,-117.1971,39.4643,1749.34,M,M,M,210.00,8.00,0.00,30.21,M,10.00,M,SCT,SCT,BKN,M,3300.00,4300.00,7000.00,M,M,M,M,M,M,M,M,M,KTMT 012355Z AUTO 21008KT 10SM SCT033 SCT043 BKN070 A3021 RMK AO2 LTG DSNT E AND S,M
MEV,2022-08-01 23:55,-119.7500,38.9963,1441.42,78.80,51.80,39.02,280.00,14.00,0.00,30.16,M,10.00,19.00,BKN,M,M,M,11000.00,M,M,M,M,M,M,M,M,M,M,78.80,KMEV 012355Z AUTO 28014G19KT 10SM BKN110 26/11 A3016 RMK AO2,M
HTH,2022-08-01 23:55,-118.6315,38.5448,1282.89,84.20,51.80,32.73,260.00,12.00,0.00,30.10,M,10.00,19.00,CLR,M,M,M,M,M,M,M,M,M,M,M,M,M,M,82.48,KHTH 012355Z AUTO 26012G19KT 10SM CLR 29/11 A3010 RMK A01,M
BAM,2022-08-01 23:55,-116.8743,40.5990,1382.36,87.80,48.20,25.52,120.00,10.00,0.00,30.09,M,10.00,M,CLR,M,M,M,M,M,M,M,M,M,M,M,M,M,M,84.87,KBAM 012355Z AUTO 12010KT 10SM CLR 31/09 A3009 RMK AO1,M
RNO,2022-08-01 23:55,-119.7711,39.4839,1341.00,84.00,51.00,32.10,290.00,18.00,0.00,30.10,1013.20,10.00,M,SCT,BKN,BKN,M,9000.00,15000.00,25000.00,M,M,M,M,M,M,M,M,82.23,KRNO 012355Z 29018KT 10SM SCT090 BKN150 BKN250 29/11 A3010 RMK AO2 SLP132 T02890106 10317 20267 56007,M
BVU,2022-08-01 23:55,-114.8611,35.9475,671.00,86.00,62.60,45.61,240.00,9.00,0.00,29.99,M,M,M,M,M,M,M,M,M,M,M,M,M,M,M,M,M,M,86.72,KBVU 012355Z AUTO 24009KT 30/17 A2999 RMK AO2 PWINO TSNO,M
05U,2022-08-01 23:55,-116.0051,39.6042,1811.23,M,M,M,M,M,0.00,M,M,M,M,M,M,M,M,M,M,M,M,M,M,M,M,M,M,M,M,K05U 012355Z AUTO RMK A01 PNO,M
RTS,2022-08-01 23:55,-119.8764,39.6682,1539.00,78.80,48.20,34.13,300.00,16.00,0.00,30.18,M,10.00,25.00,CLR,M,M,M,M,M,M,M,M,M,M,M,M,M,M,78.80,KRTS 012355Z AUTO 30016G25KT 10SM CLR 26/09 A3018 RMK AO2,M
INS,2022-08-01 23:56,-115.6733,36.5872,955.00,87.80,66.20,48.84,320.00,4.00,0.00,30.00,1011.10,10.00,M,FEW,SCT,SCT,BKN,5000.00,8000.00,9500.00,13000.00,-DZ,M,M,M,M,M,M,90.31,KINS 012356Z AUTO 32004KT 10SM -DZ FEW050 SCT080 SCT095 BKN130 BKN160 BKN200 31/19 A3000 RMK AO2 RAB16E48DZB56 TSB22E38 SLP111,M
EKO,2022-08-01 23:56,-115.7860,40.8242,1367.00,76.00,46.00,34.58,M,3.00,0.00,30.12,1014.00,10.00,M,BKN,M,M,M,9000.00,M,M,M,M,M,M,M,M,M,M,75.90,KEKO 012356Z AUTO VRB03KT 10SM BKN090 24/08 A3012 RMK AO2 SLP140 60000 T02440078 10289 20244 56020,M
WMC,2022-08-01 23:56,-117.8072,40.9019,1315.00,77.00,57.00,50.07,160.00,18.00,0.00,30.06,1012.70,10.00,25.00,FEW,M,M,M,12000.00,M,M,M,M,M,M,M,28.00,170.00,2022-08-01 23:23,77.00,KWMC 012356Z AUTO 16018G25KT 10SM FEW120 25/14 A3006 RMK AO2 PK WND 17028/2323 SLP127 60000 T02500139 10344 20244 56002,M
NFL,2022-08-01 23:56,-118.7010,39.4166,1199.00,89.00,47.00,23.32,190.00,7.00,0.00,30.04,1014.20,10.00,M,SCT,BKN,BKN,BKN,8000.00,12000.00,18000.00,25000.00,M,M,M,M,M,M,M,85.85,KNFL 012356Z 19007KT 10SM SCT080 BKN120 BKN180 BKN250 32/08 A3004 RMK AO2 SLP142 CB DSNT S-SW T03170083 10322 20294 56009,M
TPH,2022-08-01 23:56,-117.0904,38.0505,1654.00,76.00,59.00,55.80,M,4.00,0.00,30.19,1014.90,10.00,M,BKN,OVC,M,M,5500.00,7000.00,M,M,VCTS,M,M,M,M,M,M,75.90,KTPH 012356Z AUTO VRB04KT 10SM VCTS BKN055 OVC070 24/15 A3019 RMK AO2 LTG DSNT SW AND NW SLP149 60000 T02440150 10261 20217 56012,M
LAS,2022-08-01 23:56,-115.1634,36.0719,663.00,89.00,64.00,43.42,180.00,11.00,0.00,29.95,1011.70,10.00,19.00,SCT,BKN,BKN,M,8000.00,15000.00,22000.00,M,TS,M,M,M,M,M,M,90.49,KLAS 012356Z 18011G19KT 10SM TS SCT080CB BKN150 BKN220 32/18 A2995 RMK AO2 SLP117 OCNL LTGIC S-SW TS S-SW MOV NE CB DSNT ALQDS T03170178 10367 20311 56015,M
HND,2022-08-01 23:56,-115.1344,35.9729,742.79,83.00,66.00,56.75,220.00,16.00,T,29.99,1014.80,10.00,M,FEW,SCT,M,M,7500.00,12000.00,M,M,-RA,M,M,M,M,M,M,85.07,KHND 012356Z 22016KT 10SM -RA FEW075 SCT120 28/19 A2999 RMK AO2 RAB52 SLP148 P0000 60000 T02830189 10361 20283 56013,M
INS,2022-08-01 23:58,-115.6733,36.5872,955.00,87.30,65.70,48.77,330.00,4.00,T,30.00,1011.10,10.00,M,FEW,SCT,SCT,BKN,5000.00,8000.00,9500.00,13000.00,-DZ,M,M,M,M,M,M,89.49,KINS 012358Z AUTO 33004KT 10SM -DZ FEW050 SCT080 SCT095 BKN130 BKN160 BKN200 31/19 A3000 RMK AO2 RAB16E48DZB56 TSB22E38 SLP111 P0000 60000 T03070187 10327 20247 57017,M
LSV,2022-08-01 23:58,-115.0343,36.2362,570.00,92.80,62.60,36.81,150.00,9.00,0.00,29.93,M,10.00,M,CLR,M,M,M,M,M,M,M,M,M,M,M,M,M,M,93.75,KLSV 012358Z AUTO 15009KT 10SM CLR 34/17 A2993 RMK AO2 SLPNO T03380170 10384 20338 57012 $,M
