station,valid,lon,lat,elevation,tmpf,dwpf,relh,drct,sknt,p01i,alti,mslp,vsby,gust,skyc1,skyc2,skyc3,skyc4,skyl1,skyl2,skyl3,skyl4,wxcodes,ice_accretion_1hr,ice_accretion_3hr,ice_accretion_6hr,peak_wind_gust,peak_wind_drct,peak_wind_time,feel,metar,snowdepth
HND,2023-01-10 00:03,-115.1344,35.9729,742.79,55.40,39.20,54.34,M,3.00,0.00,30.00,M,10.00,M,FEW,OVC,M,M,6000.00,8500.00,M,M,M,M,M,M,M,M,M,55.40,KHND 100003Z VRB03KT 10SM FEW060 OVC085 13/04 A3000 RMK AO2 WSHFT 2343,M
LSV,2023-01-10 00:10,-115.0343,36.2362,570.00,57.20,37.40,47.44,60.00,8.00,0.00,29.98,1014.90,10.00,M,BKN,M,M,M,6500.00,M,M,M,-RA,M,M,M,M,M,M,57.20,KLSV 100010Z AUTO 06008KT 10SM -RA BKN065 14/03 A2998 RMK AO2 RAB10 SLP149 $,M
05U,2023-01-10 00:10,-116.0051,39.6042,1811.23,37.40,33.80,86.69,360.00,6.00,0.00,29.89,M,7.00,M,BKN,OVC,M,M,2700.00,3200.00,M,M,M,M,M,M,M,M,M,32.03,K05U 100010Z AUTO 36006KT 7SM BKN027 OVC032 03/01 A2989 RMK A01,M
TPH,2023-01-10 00:13,-117.0904,38.0505,1654.00,40.00,40.00,100.00,150.00,6.00,0.02,29.91,M,2.50,M,OVC,M,M,M,400.00,M,M,M,-RA BR,M,M,M,M,M,M,35.04,KTPH 100013Z AUTO 15006KT 2 1/2SM -RA BR OVC004 04/04 A2991 RMK AO2 P0002 T00440044,M
BVU,2023-01-10 00:15,-114.8611,35.9475,671.00,57.20,30.20,35.57,180.00,12.00,0.00,30.01,M,10.00,23.00,BKN,BKN,M,M,8500.00,11000.00,M,M,M,M,M,M,M,M,M,57.20,KBVU 100015Z AUTO 18012G23KT 10SM BKN085 BKN110 14/M01 A3001 RMK AO2,M
CXP,2023-01-10 00:15,-119.7326,39.1923,1431.00,41.00,26.60,56.22,310.00,7.00,0.00,29.81,M,10.00,M,CLR,M,M,M,M,M,M,M,M,M,M,M,M,M,M,35.75,KCXP 100015Z AUTO 31007KT 10SM CLR 05/M03 A2981 RMK AO2,M
RTS,2023-01-10 00:15,-119.8764,39.6682,1539.00,39.20,24.80,55.95,0.00,0.00,0.00,29.82,M,10.00,M,CLR,M,M,M,M,M,M,M,M,M,M,M,M,M,M,39.20,KRTS 100015Z AUTO 00000KT 10SM CLR 04/M04 A2982 RMK AO2,M
MEV,2023-01-10 00:15,-119.7500,38.9963,1441.42,37.40,33.80,86.69,0.00,0.00,0.00,29.79,M,10.00,M,SCT,M,M,M,4800.00,M,M,M,M,M,M,M,M,M,M,37.40,KMEV 100015Z AUTO 00000KT 10SM SCT048 03/01 A2979 RMK AO2,M
BAM,2023-01-10 00:15,-116.8743,40.5990,1382.36,42.80,41.00,93.30,230.00,10.00,0.00,29.81,M,10.00,M,SCT,SCT,BKN,M,2800.00,5000.00,9000.00,M,M,M,M,M,M,M,M,36.51,KBAM 100015Z AUTO 23010KT 10SM SCT028 SCT050 BKN090 06/05 A2981 RMK AO1,M
TMT,2023-01-10 00:15,-117.1971,39.4643,1749.34,34.70,34.20,98.03,190.00,3.00,0.00,29.86,M,10.00,M,BKN,OVC,M,M,4000.00,5000.00,M,M,RA,M,M,M,M,M,M,31.78,KTMT 100015Z AUTO 19003KT 10SM RA BKN040 OVC050 02/01 A2986 RMK AO2 T00150012,M
LSV,2023-01-10 00:19,-115.0343,36.2362,570.00,57.20,35.60,44.19,50.00,9.00,0.00,29.98,1014.90,10.00,M,BKN,M,M,M,7000.00,M,M,M,M,M,M,M,M,M,M,57.20,KLSV 100019Z AUTO 05009KT 10SM BKN070 14/02 A2998 RMK AO2 RAB10E19 SLP149 $,M
05U,2023-01-10 00:30,-116.0051,39.6042,1811.23,35.60,33.80,93.08,10.00,4.00,0.00,29.89,M,8.00,M,BKN,OVC,M,M,2500.00,3300.00,M,M,M,M,M,M,M,M,M,31.62,K05U 100030Z AUTO 01004KT 8SM BKN025 OVC033 02/01 A2989 RMK A01,M
BVU,2023-01-10 00:35,-114.8611,35.9475,671.00,57.20,30.20,35.57,190.00,9.00,0.00,30.01,M,10.00,16.00,BKN,BKN,M,M,8000.00,11000.00,M,M,M,M,M,M,M,M,M,57.20,KBVU 100035Z AUTO 19009G16KT 10SM BKN080 BKN110 14/M01 A3001 RMK AO2,M
CXP,2023-01-10 00:35,-119.7326,39.1923,1431.00,39.20,28.40,64.93,310.00,8.00,0.00,29.81,M,10.00,M,CLR,M,M,M,M,M,M,M,M,M,M,M,M,M,M,32.98,KCXP 100035Z AUTO 31008KT 10SM CLR 04/M02 A2981 RMK AO2,M
RTS,2023-01-10 00:35,-119.8764,39.6682,1539.00,39.20,23.00,51.89,230.00,6.00,0.00,29.82,M,10.00,M,CLR,M,M,M,M,M,M,M,M,M,M,M,M,M,M,34.20,KRTS 100035Z AUTO 23006KT 10SM CLR 04/M05 A2982 RMK AO2,M
MEV,2023-01-10 00:35,-119.7500,38.9963,1441.42,37.40,32.00,80.65,0.00,0.00,0.00,29.79,M,10.00,M,FEW,SCT,SCT,M,4800.00,5500.00,10000.00,M,M,M,M,M,M,M,M,37.40,KMEV 100035Z AUTO 00000KT 10SM FEW048 SCT055 SCT100 03/00 A2979 RMK AO2,M
BAM,2023-01-10 00:35,-116.8743,40.5990,1382.36,42.80,41.00,93.30,250.00,3.00,0.00,29.82,M,10.00,M,SCT,M,M,M,12000.00,M,M,M,M,M,M,M,M,M,M,41.03,KBAM 100035Z AUTO 25003KT 10SM SCT120 06/05 A2982 RMK AO1,M
TMT,2023-01-10 00:35,-117.1971,39.4643,1749.34,34.00,33.80,99.20,0.00,0.00,0.00,29.87,M,4.00,M,BKN,OVC,M,M,3000.00,3900.00,M,M,RA,M,M,M,M,M,M,34.00,KTMT 100035Z AUTO 00000KT 4SM RA BKN030 OVC039 01/01 A2987 RMK AO2 T00110010,M
LSV,2023-01-10 00:41,-115.0343,36.2362,570.00,55.40,37.40,50.64,50.00,7.00,0.00,29.98,1015.00,10.00,M,FEW,OVC,M,M,4700.00,7000.00,M,M,-RA,M,M,M,M,M,M,55.40,KLSV 100041Z AUTO 05007KT 10SM -RA FEW047 OVC070 13/03 A2998 RMK AO2 RAB10E19RAB41 SLP150 $,M
TPH,2023-01-10 00:41,-117.0904,38.0505,1654.00,40.00,39.00,96.55,150.00,5.00,0.06,29.90,M,3.00,M,BKN,OVC,M,M,400.00,1300.00,M,M,RA BR,M,M,M,M,M,M,35.78,KTPH 100041Z AUTO 15005KT 3SM RA BR BKN004 OVC013 04/04 A2990 RMK AO2 P0006 T00440039,M
TPH,2023-01-10 00:49,-117.0904,38.0505,1654.00,40.00,40.00,100.00,150.00,4.00,0.07,29.90,M,4.00,M,BKN,BKN,OVC,M,500.00,800.00,1400.00,M,RA BR,M,M,M,M,M,M,36.65,KTPH 100049Z AUTO 15004KT 4SM RA BR BKN005 BKN008 OVC014 04/04 A2990 RMK AO2 P0007 T00440044,M
05U,2023-01-10 00:50,-116.0051,39.6042,1811.23,35.60,33.80,93.08,10.00,5.00,0.00,29.90,M,6.00,M,FEW,OVC,M,M,1900.00,2600.00,M,M,BR,M,M,M,M,M,M,30.67,K05U 100050Z AUTO 01005KT 6SM BR FEW019 OVC026 02/01 A2990 RMK A01,M
DRA,2023-01-10 00:53,-116.0278,36.6206,1009.00,55.00,41.00,59.13,190.00,27.00,0.00,29.91,1011.20,10.00,38.00,FEW,SCT,BKN,M,4200.00,5500.00,7000.00,M,M,M,M,M,38.00,190.00,2023-01-10 00:52,55.00,KDRA 100053Z AUTO 19027G38KT 10SM FEW042 SCT055 BKN070 13/05 A2991 RMK AO2 PK WND 19038/0052 SLP112 T01280050,M
ELY,2023-01-10 00:53,-114.8453,39.2950,1909.00,36.00,32.00,85.23,210.00,12.00,T,29.91,1011.60,10.00,M,OVC,M,M,M,3100.00,M,M,M,-RA,M,M,M,M,M,M,27.09,KELY 100053Z AUTO 21012KT 10SM -RA OVC031 02/00 A2991 RMK AO2 RAB32 SLP116 P0000 T00220000,M
VGT,2023-01-10 00:53,-115.1933,36.2111,667.00,54.00,43.00,66.24,0.00,0.00,T,30.00,1017.30,10.00,M,OVC,M,M,M,5500.00,M,M,M,-RA,M,M,M,M,M,M,54.00,KVGT 100053Z 00000KT 10SM -RA OVC055 12/06 A3000 RMK AO2 RAB01E13B39 SLP173 P0000 T01220061,M
P68,2023-01-10 00:53,-116.0056,39.6014,1993.00,34.00,33.00,96.46,20.00,7.00,0.00,29.87,1010.70,M,M,M,M,M,M,M,M,M,M,M,M,M,M,M,M,M,27.22,KP68 100053Z AUTO 02007KT 01/01 A2987 RMK AO1 SLP107 T00110006,M
LOL,2023-01-10 00:53,-118.5701,40.0684,1192.43,42.00,41.00,95.84,30.00,3.00,0.00,29.81,1010.30,10.00,M,FEW,M,M,M,5500.00,M,M,M,M,M,M,M,M,M,M,40.23,KLOL 100053Z AUTO 03003KT 10SM FEW055 06/05 A2981 RMK AO2 SLP103 T00560050 TSNO,M
BVU,2023-01-10 00:55,-114.8611,35.9475,671.00,57.20,30.20,35.57,180.00,12.00,0.00,30.02,M,10.00,17.00,SCT,M,M,M,9000.00,M,M,M,M,M,M,M,M,M,M,57.20,KBVU 100055Z AUTO 18012G17KT 10SM SCT090 14/M01 A3002 RMK AO2,M
CXP,2023-01-10 00:55,-119.7326,39.1923,1431.00,39.20,28.40,64.93,0.00,0.00,0.00,29.81,M,10.00,M,CLR,M,M,M,M,M,M,M,M,M,M,M,M,M,M,39.20,KCXP 100055Z AUTO 00000KT 10SM CLR 04/M02 A2981 RMK AO2,M
RTS,2023-01-10 00:55,-119.8764,39.6682,1539.00,37.40,24.80,60.04,250.00,6.00,0.00,29.81,M,10.00,M,FEW,M,M,M,12000.00,M,M,M,M,M,M,M,M,M,M,32.03,KRTS 100055Z AUTO 25006KT 10SM FEW120 03/M04 A2981 RMK AO2,M
MEV,2023-01-10 00:55,-119.7500,38.9963,1441.42,37.40,30.20,74.98,0.00,0.00,0.00,29.80,M,10.00,M,FEW,SCT,BKN,M,5500.00,10000.00,12000.00,M,M,M,M,M,M,M,M,37.40,KMEV 100055Z AUTO 00000KT 10SM FEW055 SCT100 BKN120 03/M01 A2980 RMK AO2,M
BAM,2023-01-10 00:55,-116.8743,40.5990,1382.36,42.80,41.00,93.30,0.00,0.00,0.00,29.83,M,10.00,M,SCT,M,M,M,3300.00,M,M,M,M,M,M,M,M,M,M,42.80,KBAM 100055Z AUTO 00000KT 10SM SCT033 06/05 A2983 RMK AO1,M
TMT,2023-01-10 00:55,-117.1971,39.4643,1749.34,34.00,33.80,99.20,300.00,3.00,0.02,29.87,M,4.00,M,SCT,OVC,M,M,800.00,2800.00,M,M,RA,M,M,M,M,M,M,30.97,KTMT 100055Z AUTO 30003KT 4SM RA SCT008 OVC028 01/01 A2987 RMK AO2 P0002 T00110010,M
LSV,2023-01-10 00:55,-115.0343,36.2362,570.00,54.50,35.20,47.96,50.00,8.00,T,29.99,1015.30,10.00,M,FEW,SCT,BKN,M,4500.00,5000.00,7500.00,M,-RA,M,M,M,M,M,M,54.50,KLSV 100055Z AUTO 05008KT 10SM -RA FEW045 SCT050 BKN075 13/02 A2999 RMK AO2 RAB10E19RAB41 SLP153 P0000 T01250018 $,M
INS,2023-01-10 00:55,-115.6733,36.5872,955.00,49.50,36.00,59.77,100.00,17.00,0.00,29.94,1012.90,10.00,M,BKN,OVC,M,M,5000.00,9000.00,M,M,M,M,M,M,37.00,100.00,2023-01-10 00:06,43.00,KINS 100055Z AUTO 10017KT 10SM BKN050 OVC090 10/02 A2994 RMK AO2 PK WND 10037/06 SLP129 T00970023 $,M
RNO,2023-01-10 00:55,-119.7711,39.4839,1341.00,42.00,34.00,72.78,50.00,4.00,0.00,29.80,1008.20,10.00,M,FEW,SCT,OVC,M,5000.00,9000.00,14000.00,M,M,M,M,M,M,M,M,39.21,KRNO 100055Z 05004KT 10SM FEW050 SCT090 OVC140 06/01 A2980 RMK AO2 SLP082 T00560011,M
WMC,2023-01-10 00:56,-117.8072,40.9019,1315.00,42.00,36.00,78.80,200.00,8.00,0.00,29.80,1009.00,10.00,M,FEW,M,M,M,4700.00,M,M,M,M,M,M,M,M,M,M,36.55,KWMC 100056Z AUTO 20008KT 10SM FEW047 06/02 A2980 RMK AO2 SLP090 T00560022,M
NFL,2023-01-10 00:56,-118.7010,39.4166,1199.00,43.00,41.00,92.58,M,5.00,0.00,29.81,1007.10,10.00,M,SCT,BKN,OVC,M,3000.00,5000.00,7000.00,M,M,M,M,M,M,M,M,39.46,KNFL 100056Z VRB05KT 10SM SCT030 BKN050 OVC070 06/05 A2981 RMK AO2 SLP071 WR// T00610050,M
LAS,2023-01-10 00:56,-115.1634,36.0719,663.00,52.00,43.00,71.28,310.00,4.00,T,30.00,1015.70,10.00,M,FEW,SCT,BKN,OVC,5000.00,6000.00,7000.00,15000.00,M,M,M,M,M,M,M,52.00,KLAS 100056Z 31004KT 10SM FEW050 SCT060 BKN070 OVC150 11/06 A3000 RMK AO2 RAB29E41 SLP157 P0000 T01110061,M
INS,2023-01-10 00:56,-115.6733,36.5872,955.00,50.00,35.60,57.52,90.00,18.00,0.00,29.94,1012.90,10.00,M,BKN,OVC,M,M,5000.00,9000.00,M,M,-RA,M,M,M,M,M,M,50.00,KINS 100056Z AUTO 09018KT 10SM -RA BKN050 OVC090 10/02 A2994 RMK AO2 RAB54 SLP129 $,M
HND,2023-01-10 00:56,-115.1344,35.9729,742.79,55.00,33.00,43.31,160.00,12.00,0.00,30.00,1017.60,10.00,18.00,SCT,BKN,BKN,M,7500.00,9000.00,11000.00,M,M,M,M,M,M,M,M,55.00,KHND 100056Z 16012G18KT 10SM SCT075 BKN090 BKN110 13/01 A3000 RMK AO2 WSHFT 2343 SLP176 T01280006,M
EKO,2023-01-10 00:56,-115.7860,40.8242,1367.00,38.00,35.00,89.53,190.00,8.00,0.04,29.84,1011.40,7.00,M,OVC,M,M,M,2400.00,M,M,M,-RA,M,M,M,M,M,M,31.38,KEKO 100056Z AUTO 19008KT 7SM -RA OVC024 03/02 A2984 RMK AO2 SLP114 P0004 T00330017,M
TPH,2023-01-10 00:56,-117.0904,38.0505,1654.00,40.00,40.00,100.00,150.00,4.00,0.08,29.90,1011.70,4.00,M,BKN,BKN,OVC,M,300.00,700.00,1100.00,M,RA BR,M,M,M,M,M,M,36.65,KTPH 100056Z AUTO 15004KT 4SM RA BR BKN003 BKN007 OVC011 04/04 A2990 RMK AO2 SLP117 P0008 T00440044,M
INS,2023-01-10 01:09,-115.6733,36.5872,955.00,48.20,39.20,70.88,110.00,15.00,0.00,29.94,1013.10,10.00,M,OVC,M,M,M,5500.00,M,M,M,M,M,M,M,M,M,M,41.78,KINS 100109Z AUTO 11015KT 10SM OVC055 09/04 A2994 RMK AO2 RAB0054E09 SLP131 $,M
05U,2023-01-10 01:10,-116.0051,39.6042,1811.23,35.60,33.80,93.08,10.00,5.00,0.00,29.89,M,6.00,M,OVC,M,M,M,2300.00,M,M,M,BR,M,M,M,M,M,M,30.67,K05U 100110Z AUTO 01005KT 6SM BR OVC023 02/01 A2989 RMK A01,M
BVU,2023-01-10 01:15,-114.8611,35.9475,671.00,57.20,32.00,38.26,160.00,14.00,0.00,30.01,M,10.00,20.00,FEW,SCT,BKN,M,4500.00,6000.00,7500.00,M,M,M,M,M,M,M,M,57.20,KBVU 100115Z AUTO 16014G20KT 10SM FEW045 SCT060 BKN075 14/M00 A3001 RMK AO2,M
CXP,2023-01-10 01:15,-119.7326,39.1923,1431.00,39.20,28.40,64.93,90.00,5.00,0.00,29.81,M,10.00,M,BKN,M,M,M,11000.00,M,M,M,M,M,M,M,M,M,M,34.95,KCXP 100115Z AUTO 09005KT 10SM BKN110 04/M02 A2981 RMK AO2,M
RTS,2023-01-10 01:15,-119.8764,39.6682,1539.00,37.40,23.00,55.68,250.00,5.00,0.00,29.82,M,10.00,M,SCT,M,M,M,12000.00,M,M,M,M,M,M,M,M,M,M,32.81,KRTS 100115Z AUTO 25005KT 10SM SCT120 03/M05 A2982 RMK AO2,M
MEV,2023-01-10 01:15,-119.7500,38.9963,1441.42,37.40,30.20,74.98,0.00,0.00,0.00,29.80,M,10.00,M,FEW,SCT,BKN,M,6000.00,8000.00,9500.00,M,M,M,M,M,M,M,M,37.40,KMEV 100115Z AUTO 00000KT 10SM FEW060 SCT080 BKN095 03/M01 A2980 RMK AO2,M
BAM,2023-01-10 01:15,-116.8743,40.5990,1382.36,42.80,39.20,86.99,270.00,6.00,0.00,29.83,M,10.00,M,SCT,SCT,SCT,M,1800.00,2700.00,3300.00,M,M,M,M,M,M,M,M,38.54,KBAM 100115Z AUTO 27006KT 10SM SCT018 SCT027 SCT033 06/04 A2983 RMK AO1,M
TMT,2023-01-10 01:15,-117.1971,39.4643,1749.34,33.80,33.40,98.41,50.00,4.00,0.02,29.86,M,4.00,M,SCT,OVC,M,M,800.00,2600.00,M,M,RA,M,M,M,M,M,M,29.52,KTMT 100115Z AUTO 05004KT 4SM RA SCT008 OVC026 01/01 A2986 RMK AO2 P0002 T00100008,M
ELY,2023-01-10 01:18,-114.8453,39.2950,1909.00,35.00,33.00,92.32,200.00,12.00,T,29.90,M,10.00,M,SCT,OVC,M,M,1700.00,2600.00,M,M,-RA,M,M,M,M,M,M,25.95,KELY 100118Z AUTO 20012KT 10SM -RA SCT017 OVC026 02/01 A2990 RMK AO2 P0000 T00170006,M
BVU,2023-01-10 01:35,-114.8611,35.9475,671.00,55.40,32.00,40.84,150.00,11.00,0.00,30.02,M,10.00,M,FEW,SCT,BKN,M,4100.00,5500.00,7500.00,M,M,M,M,M,M,M,M,55.40,KBVU 100135Z AUTO 15011KT 10SM FEW041 SCT055 BKN075 13/00 A3002 RMK AO2,M
CXP,2023-01-10 01:35,-119.7326,39.1923,1431.00,37.40,30.20,74.98,0.00,0.00,0.00,29.81,M,10.00,M,SCT,OVC,M,M,8000.00,10000.00,M,M,M,M,M,M,M,M,M,37.40,KCXP 100135Z AUTO 00000KT 10SM SCT080 OVC100 03/M01 A2981 RMK AO2,M
RTS,2023-01-10 01:35,-119.8764,39.6682,1539.00,35.60,24.80,64.46,290.00,6.00,0.00,29.81,M,10.00,M,FEW,M,M,M,12000.00,M,M,M,M,M,M,M,M,M,M,29.87,KRTS 100135Z AUTO 29006KT 10SM FEW120 02/M04 A2981 RMK AO2,M
05U,2023-01-10 01:35,-116.0051,39.6042,1811.23,35.60,33.80,93.08,10.00,5.00,0.00,29.88,M,10.00,M,OVC,M,M,M,2300.00,M,M,M,M,M,M,M,M,M,M,30.67,K05U 100135Z AUTO 01005KT 10SM OVC023 02/01 A2988 RMK A01,M
MEV,2023-01-10 01:35,-119.7500,38.9963,1441.42,35.60,32.00,86.59,0.00,0.00,0.00,29.79,M,10.00,M,FEW,BKN,OVC,M,6500.00,7500.00,9500.00,M,M,M,M,M,M,M,M,35.60,KMEV 100135Z AUTO 00000KT 10SM FEW065 BKN075 OVC095 02/00 A2979 RMK AO2,M
BAM,2023-01-10 01:35,-116.8743,40.5990,1382.36,42.80,41.00,93.30,0.00,0.00,0.00,29.84,M,10.00,M,BKN,M,M,M,2700.00,M,M,M,M,M,M,M,M,M,M,42.80,KBAM 100135Z AUTO 00000KT 10SM BKN027 06/05 A2984 RMK AO1,M
TMT,2023-01-10 01:35,-117.1971,39.4643,1749.34,33.40,33.40,100.00,70.00,4.00,0.03,29.86,M,7.00,M,SCT,OVC,M,M,1800.00,2600.00,M,M,-RA,M,M,M,M,M,M,29.06,KTMT 100135Z AUTO 07004KT 7SM -RA SCT018 OVC026 01/01 A2986 RMK AO2 P0003 T00080008,M
LSV,2023-01-10 01:36,-115.0343,36.2362,570.00,51.80,37.40,57.77,60.00,5.00,0.00,29.99,1015.50,10.00,M,FEW,SCT,M,M,5000.00,7000.00,M,M,M,M,M,M,M,M,M,51.80,KLSV 100136Z AUTO 06005KT 10SM FEW050 SCT070 11/03 A2999 RMK AO2 RAE36 SLP155 $,M
LSV,2023-01-10 01:39,-115.0343,36.2362,570.00,51.80,37.40,57.77,60.00,7.00,0.00,29.98,1015.10,10.00,M,SCT,M,M,M,6500.00,M,M,M,-RA,M,M,M,M,M,M,51.80,KLSV 100139Z AUTO 06007KT 10SM -RA SCT065 11/03 A2998 RMK AO2 RAE36RAB39 SLP151 $,M
INS,2023-01-10 01:47,-115.6733,36.5872,955.00,46.40,39.20,75.84,100.00,16.00,0.00,29.94,1013.10,10.00,M,OVC,M,M,M,5500.00,M,M,M,-RA,M,M,M,M,M,M,39.19,KINS 100147Z AUTO 10016KT 10SM -RA OVC055 08/04 A2994 RMK AO2 RAB0055E09RAB47 SLP131 $,M
INS,2023-01-10 01:48,-115.6733,36.5872,955.00,46.40,39.20,75.84,100.00,15.00,0.00,29.94,1013.10,10.00,M,OVC,M,M,M,5500.00,M,M,M,M,M,M,M,M,M,M,39.45,KINS 100148Z AUTO 10015KT 10SM OVC055 08/04 A2994 RMK AO2 RAB0055E09RAB47E48 SLP131 $,M
ELY,2023-01-10 01:49,-114.8453,39.2950,1909.00,35.60,33.80,93.08,200.00,14.00,T,29.89,M,10.00,25.00,FEW,OVC,M,M,1600.00,3600.00,M,M,-RA,M,M,M,M,M,M,25.80,KELY 100149Z AUTO 20014G25KT 10SM -RA FEW016 OVC036 02/01 A2989 RMK AO2 P0000,M
LSV,2023-01-10 01:51,-115.0343,36.2362,570.00,51.80,39.20,61.99,80.00,9.00,0.00,29.98,1015.10,10.00,M,BKN,M,M,M,6500.00,M,M,M,M,M,M,M,M,M,M,51.80,KLSV 100151Z AUTO 08009KT 10SM BKN065 11/04 A2998 RMK AO2 RAE36RAB39E51 SLP151 $,M
P68,2023-01-10 01:53,-116.0056,39.6014,1993.00,34.00,32.00,92.29,340.00,5.00,0.03,29.84,1009.70,M,M,M,M,M,M,M,M,M,M,M,M,M,M,M,M,M,28.77,KP68 100153Z AUTO 34005KT 01/00 A2984 RMK AO1 SLP097 P0003 T00110000,M
VGT,2023-01-10 01:53,-115.1933,36.2111,667.00,53.00,41.00,63.38,50.00,6.00,0.01,29.99,1017.10,10.00,M,OVC,M,M,M,6500.00,M,M,M,M,M,M,M,M,M,M,53.10,KVGT 100153Z 05006KT 10SM OVC065 12/05 A2999 RMK AO2 RAE36 SLP171 P0001 T01170050,M
DRA,2023-01-10 01:53,-116.0278,36.6206,1009.00,53.00,44.00,71.40,190.00,22.00,T,29.90,1011.10,10.00,29.00,OVC,M,M,M,6500.00,M,M,M,-RA,M,M,M,42.00,190.00,2023-01-10 01:00,53.10,KDRA 100153Z AUTO 19022G29KT 10SM -RA OVC065 12/07 A2990 RMK AO2 PK WND 19042/0100 RAB0058 SLP111 P0000 T01170067,M
ELY,2023-01-10 01:53,-114.8453,39.2950,1909.00,35.00,33.00,92.32,190.00,15.00,T,29.89,1011.50,10.00,25.00,SCT,SCT,OVC,M,1600.00,3300.00,4000.00,M,-RA,M,M,M,M,M,M,24.80,KELY 100153Z AUTO 19015G25KT 10SM -RA SCT016 SCT033 OVC040 02/01 A2989 RMK AO2 SLP115 P0000 T00170006,M
LOL,2023-01-10 01:53,-118.5701,40.0684,1192.43,40.00,40.00,100.00,0.00,0.00,0.00,29.80,1010.00,10.00,M,CLR,M,M,M,M,M,M,M,M,M,M,M,M,M,M,39.90,KLOL 100153Z AUTO 00000KT 10SM CLR 04/04 A2980 RMK AO2 SLP100 T00440044,M
BVU,2023-01-10 01:55,-114.8611,35.9475,671.00,55.40,33.80,43.90,170.00,7.00,0.00,30.02,M,10.00,M,FEW,SCT,BKN,M,4900.00,6000.00,7500.00,M,M,M,M,M,M,M,M,55.40,KBVU 100155Z AUTO 17007KT 10SM FEW049 SCT060 BKN075 13/01 A3002 RMK AO2,M
CXP,2023-01-10 01:55,-119.7326,39.1923,1431.00,39.20,28.40,64.93,0.00,0.00,0.00,29.81,M,10.00,M,BKN,OVC,M,M,7500.00,9500.00,M,M,M,M,M,M,M,M,M,39.20,KCXP 100155Z AUTO 00000KT 10SM BKN075 OVC095 04/M02 A2981 RMK AO2,M
RNO,2023-01-10 01:55,-119.7711,39.4839,1341.00,42.00,28.90,59.22,0.00,0.00,0.00,29.79,1008.00,10.00,M,BKN,OVC,M,M,9000.00,14000.00,M,M,M,M,M,M,M,M,M,42.10,KRNO 100155Z 00000KT 10SM BKN090 OVC140 06/M02 A2979 RMK AO2 SLP080 T00561017,M
RTS,2023-01-10 01:55,-119.8764,39.6682,1539.00,37.40,21.20,51.61,260.00,5.00,0.00,29.80,M,10.00,M,BKN,M,M,M,11000.00,M,M,M,M,M,M,M,M,M,M,32.81,KRTS 100155Z AUTO 26005KT 10SM BKN110 03/M06 A2980 RMK AO2,M
05U,2023-01-10 01:55,-116.0051,39.6042,1811.23,33.80,33.80,100.00,330.00,5.00,0.01,29.87,M,10.00,M,BKN,BKN,OVC,M,2300.00,2700.00,7500.00,M,M,M,M,M,M,M,M,28.53,K05U 100155Z AUTO 33005KT 10SM BKN023 BKN027 OVC075 01/01 A2987 RMK A01 P0001,M
MEV,2023-01-10 01:55,-119.7500,38.9963,1441.42,33.80,32.00,93.03,90.00,4.00,0.00,29.79,M,10.00,M,FEW,BKN,OVC,M,5500.00,7500.00,10000.00,M,M,M,M,M,M,M,M,29.52,KMEV 100155Z AUTO 09004KT 10SM FEW055 BKN075 OVC100 01/M00 A2979 RMK AO2,M
BAM,2023-01-10 01:55,-116.8743,40.5990,1382.36,42.80,41.00,93.30,240.00,5.00,0.00,29.84,M,10.00,M,BKN,M,M,M,2500.00,M,M,M,M,M,M,M,M,M,M,39.22,KBAM 100155Z AUTO 24005KT 10SM BKN025 06/05 A2984 RMK AO1,M
TMT,2023-01-10 01:55,-117.1971,39.4643,1749.34,33.40,33.40,100.00,60.00,6.00,0.03,29.86,M,7.00,M,OVC,M,M,M,1800.00,M,M,M,DZ,M,M,M,M,M,M,27.22,KTMT 100155Z AUTO 06006KT 7SM DZ OVC018 01/01 A2986 RMK AO2 P0003 T00080008,M
INS,2023-01-10 01:55,-115.6733,36.5872,955.00,46.20,39.00,75.83,100.00,18.00,T,29.94,1013.10,10.00,M,OVC,M,M,M,5500.00,M,M,M,M,M,M,M,M,M,M,38.44,KINS 100155Z AUTO 10018KT 10SM OVC055 08/04 A2994 RMK AO2 RAB0054E09RAB47E48 SLP131 P0000 T00790039 $,M
LSV,2023-01-10 01:55,-115.0343,36.2362,570.00,51.60,40.60,65.95,60.00,7.00,T,29.98,1015.10,10.00,M,BKN,M,M,M,6500.00,M,M,M,M,M,M,M,M,M,M,51.60,KLSV 100155Z AUTO 06007KT 10SM BKN065 11/05 A2998 RMK AO2 RAE36RAB39E51 SLP151 P0000 T01090048 $,M
WMC,2023-01-10 01:56,-117.8072,40.9019,1315.00,41.00,37.00,85.54,190.00,9.00,0.00,29.80,1009.00,10.00,M,CLR,M,M,M,M,M,M,M,M,M,M,M,M,M,M,34.70,KWMC 100156Z AUTO 19009KT 10SM CLR 05/03 A2980 RMK AO2 SLP090 T00500028,M
NFL,2023-01-10 01:56,-118.7010,39.4166,1199.00,43.00,41.00,92.58,270.00,5.00,0.00,29.79,1006.60,10.00,M,SCT,BKN,OVC,M,3000.00,5000.00,7000.00,M,M,M,M,M,M,M,M,39.46,KNFL 100156Z 27005KT 10SM SCT030 BKN050 OVC070 06/05 A2979 RMK AO2 SLP066 WR// T00610050,M
HND,2023-01-10 01:56,-115.1344,35.9729,742.79,52.00,41.00,66.00,10.00,3.00,T,30.01,1018.10,10.00,M,OVC,M,M,M,6000.00,M,M,M,M,M,M,M,M,M,M,52.00,KHND 100156Z 01003KT 10SM OVC060 11/05 A3001 RMK AO2 RAB17E28 SLP181 P0000 T01110050,M
TPH,2023-01-10 01:56,-117.0904,38.0505,1654.00,40.00,39.00,96.55,180.00,9.00,0.09,29.87,1010.90,5.00,M,BKN,BKN,OVC,M,400.00,1300.00,2600.00,M,-RA BR,M,M,M,M,M,M,33.34,KTPH 100156Z AUTO 18009KT 5SM -RA BR BKN004 BKN013 OVC026 04/04 A2987 RMK AO2 SLP109 P0009 T00440039,M
EKO,2023-01-10 01:56,-115.7860,40.8242,1367.00,37.00,35.00,92.76,270.00,4.00,0.05,29.84,1011.60,8.00,M,SCT,OVC,M,M,1900.00,2500.00,M,M,-RA,M,M,M,M,M,M,33.26,KEKO 100156Z AUTO 27004KT 8SM -RA SCT019 OVC025 03/02 A2984 RMK AO2 SLP116 P0005 T00280017,M
LAS,2023-01-10 01:56,-115.1634,36.0719,663.00,53.00,40.00,60.73,130.00,3.00,0.00,30.00,1015.40,10.00,M,BKN,OVC,M,M,6000.00,7000.00,M,M,M,M,M,M,M,M,M,53.10,KLAS 100156Z 13003KT 10SM BKN060 OVC070 12/04 A3000 RMK AO2 SLP154 T01170044,M
INS,2023-01-10 02:08,-115.6733,36.5872,955.00,46.40,39.20,75.84,100.00,16.00,0.00,29.95,1013.50,10.00,M,OVC,M,M,M,5500.00,M,M,M,-RA,M,M,M,M,M,M,39.19,KINS 100208Z AUTO 10016KT 10SM -RA OVC055 08/04 A2995 RMK AO2 RAB08 SLP135 $,M
BVU,2023-01-10 02:15,-114.8611,35.9475,671.00,57.20,32.00,38.26,140.00,15.00,0.00,30.02,M,10.00,M,FEW,SCT,BKN,M,2100.00,3600.00,4800.00,M,M,M,M,M,M,M,M,57.20,KBVU 100215Z AUTO 14015KT 10SM FEW021 SCT036 BKN048 14/00 A3002 RMK AO2,M
CXP,2023-01-10 02:15,-119.7326,39.1923,1431.00,37.40,30.20,74.98,100.00,8.00,0.00,29.80,M,10.00,M,OVC,M,M,M,7500.00,M,M,M,M,M,M,M,M,M,M,30.76,KCXP 100215Z AUTO 10008KT 10SM OVC075 03/M01 A2980 RMK AO2,M
RTS,2023-01-10 02:15,-119.8764,39.6682,1539.00,41.00,5.00,21.97,210.00,9.00,0.00,29.79,M,10.00,15.00,BKN,M,M,M,12000.00,M,M,M,M,M,M,M,M,M,M,34.70,KRTS 100215Z AUTO 21009G15KT 10SM BKN120 05/M15 A2979 RMK AO2,M
05U,2023-01-10 02:15,-116.0051,39.6042,1811.23,33.80,33.80,100.00,330.00,6.00,0.00,29.86,M,10.00,M,SCT,BKN,BKN,M,2400.00,4300.00,7000.00,M,M,M,M,M,M,M,M,27.70,K05U 100215Z AUTO 33006KT 10SM SCT024 BKN043 BKN070 01/01 A2986 RMK A01,M
MEV,2023-01-10 02:15,-119.7500,38.9963,1441.42,33.80,32.00,93.03,110.00,7.00,0.00,29.78,M,10.00,M,OVC,M,M,M,7500.00,M,M,M,M,M,M,M,M,M,M,26.97,KMEV 100215Z AUTO 11007KT 10SM OVC075 01/M00 A2978 RMK AO2,M
BAM,2023-01-10 02:15,-116.8743,40.5990,1382.36,42.80,39.20,86.99,230.00,6.00,0.00,29.83,M,10.00,M,CLR,M,M,M,M,M,M,M,M,M,M,M,M,M,M,38.54,KBAM 100215Z AUTO 23006KT 10SM CLR 06/04 A2983 RMK AO1,M
TMT,2023-01-10 02:15,-117.1971,39.4643,1749.34,33.80,33.80,100.00,60.00,7.00,0.01,29.86,M,4.00,M,BKN,OVC,M,M,1800.00,2400.00,M,M,RA,M,M,M,M,M,M,26.97,KTMT 100215Z AUTO 06007KT 4SM RA BKN018 OVC024 01/01 A2986 RMK AO2 P0001 T00100010,M
INS,2023-01-10 02:23,-115.6733,36.5872,955.00,46.40,39.20,75.84,90.00,21.00,0.00,29.94,1013.10,10.00,M,BKN,OVC,M,M,6000.00,9000.00,M,M,M,M,M,M,M,M,M,38.06,KINS 100223Z AUTO 09021KT 10SM BKN060 OVC090 08/04 A2994 RMK AO2 RAB08E23 SLP131 $,M
LSV,2023-01-10 02:28,-115.0343,36.2362,570.00,51.80,41.00,66.48,50.00,7.00,0.00,29.98,1015.00,10.00,M,OVC,M,M,M,6500.00,M,M,M,-RA,M,M,M,M,M,M,51.80,KLSV 100228Z AUTO 05007KT 10SM -RA OVC065 11/05 A2998 RMK AO2 RAB28 SLP150 $,M
BVU,2023-01-10 02:35,-114.8611,35.9475,671.00,57.20,33.80,41.13,150.00,13.00,0.00,30.02,M,10.00,M,FEW,BKN,OVC,M,2200.00,7500.00,10000.00,M,M,M,M,M,M,M,M,57.20,KBVU 100235Z AUTO 15013KT 10SM FEW022 BKN075 OVC100 14/01 A3002 RMK AO2,M
CXP,2023-01-10 02:35,-119.7326,39.1923,1431.00,37.40,32.00,80.65,60.00,4.00,0.00,29.80,M,10.00,M,BKN,OVC,M,M,7500.00,10000.00,M,M,M,M,M,M,M,M,M,33.73,KCXP 100235Z AUTO 06004KT 10SM BKN075 OVC100 03/00 A2980 RMK AO2,M
RTS,2023-01-10 02:35,-119.8764,39.6682,1539.00,37.40,21.20,51.61,10.00,4.00,0.00,29.79,M,10.00,12.00,BKN,M,M,M,12000.00,M,M,M,M,M,M,M,M,M,M,33.73,KRTS 100235Z AUTO 01004G12KT 10SM BKN120 03/M06 A2979 RMK AO2,M
05U,2023-01-10 02:35,-116.0051,39.6042,1811.23,33.80,33.80,100.00,340.00,4.00,0.00,29.87,M,10.00,M,BKN,OVC,M,M,4600.00,6000.00,M,M,M,M,M,M,M,M,M,29.52,K05U 100235Z AUTO 34004KT 10SM BKN046 OVC060 01/01 A2987 RMK A01,M
MEV,2023-01-10 02:35,-119.7500,38.9963,1441.42,37.40,32.00,80.65,170.00,4.00,0.00,29.78,M,10.00,10.00,FEW,OVC,M,M,5500.00,7000.00,M,M,M,M,M,M,M,M,M,33.73,KMEV 100235Z AUTO 17004G10KT 10SM FEW055 OVC070 03/M00 A2978 RMK AO2,M
BAM,2023-01-10 02:35,-116.8743,40.5990,1382.36,41.00,39.20,93.24,0.00,0.00,0.00,29.83,M,10.00,M,CLR,M,M,M,M,M,M,M,M,M,M,M,M,M,M,41.00,KBAM 100235Z AUTO 00000KT 10SM CLR 05/04 A2983 RMK AO1,M
TMT,2023-01-10 02:35,-117.1971,39.4643,1749.34,33.30,33.00,99.20,40.00,6.00,0.01,29.85,M,10.00,M,SCT,OVC,M,M,1900.00,2400.00,M,M,-DZ,M,M,M,M,M,M,27.10,KTMT 100235Z AUTO 04006KT 10SM -DZ SCT019 OVC024 01/01 A2985 RMK AO2 P0001 T00070006,M
ELY,2023-01-10 02:41,-114.8453,39.2950,1909.00,35.00,33.00,92.32,190.00,13.00,0.01,29.90,M,10.00,M,FEW,OVC,M,M,1400.00,2400.00,M,M,-RA,M,M,M,26.00,180.00,2023-01-10 02:04,25.54,KELY 100241Z AUTO 19013KT 10SM -RA FEW014 OVC024 02/01 A2990 RMK AO2 PK WND 18026/0204 P0001 T00170006,M
LSV,2023-01-10 02:47,-115.0343,36.2362,570.00,51.80,37.40,57.77,80.00,8.00,0.00,29.99,1015.30,10.00,M,OVC,M,M,M,6500.00,M,M,M,M,M,M,M,M,M,M,51.80,KLSV 100247Z AUTO 08008KT 10SM OVC065 11/03 A2999 RMK AO2 RAB28E47 SLP153 $,M
P68,2023-01-10 02:53,-116.0056,39.6014,1993.00,34.00,32.00,92.29,350.00,4.00,0.00,29.84,1009.80,M,M,M,M,M,M,M,M,M,M,M,M,M,M,M,M,M,29.76,KP68 100253Z AUTO 35004KT 01/00 A2984 RMK AO1 SLP098 60003 T00110000 58003,M
DRA,2023-01-10 02:53,-116.0278,36.6206,1009.00,51.00,45.00,79.54,190.00,18.00,0.01,29.92,1011.90,10.00,30.00,OVC,M,M,M,6000.00,M,M,M,-RA,M,M,M,34.00,190.00,2023-01-10 02:07,51.10,KDRA 100253Z AUTO 19018G30KT 10SM -RA OVC060 11/07 A2992 RMK AO2 PK WND 19034/0207 RAE0158B21 SLP119 P0001 60001 T01060072 53006,M
LOL,2023-01-10 02:53,-118.5701,40.0684,1192.43,40.00,39.00,96.55,0.00,0.00,0.00,29.79,1009.20,10.00,M,SCT,M,M,M,12000.00,M,M,M,M,M,M,M,M,M,M,39.90,KLOL 100253Z AUTO 00000KT 10SM SCT120 04/04 A2979 RMK AO2 SLP092 T00440039 58002,M
ELY,2023-01-10 02:53,-114.8453,39.2950,1909.00,35.00,33.00,92.32,200.00,11.00,0.02,29.90,1011.70,8.00,M,FEW,OVC,M,M,1500.00,2400.00,M,M,-RA,M,M,M,26.00,180.00,2023-01-10 02:04,26.38,KELY 100253Z AUTO 20011KT 8SM -RA FEW015 OVC024 02/01 A2990 RMK AO2 PK WND 18026/0204 SLP117 P0002 60002 T00170006 55001,M
VGT,2023-01-10 02:53,-115.1933,36.2111,667.00,53.00,40.00,60.73,30.00,7.00,T,30.00,1017.40,10.00,M,OVC,M,M,M,6000.00,M,M,M,-RA,M,M,M,M,M,M,53.10,KVGT 100253Z 03007KT 10SM -RA OVC060 12/04 A3000 RMK AO2 RAB16 SLP174 P0000 60001 T01170044 52003,M
BVU,2023-01-10 02:55,-114.8611,35.9475,671.00,57.20,35.60,44.19,150.00,6.00,0.00,30.02,M,10.00,M,FEW,BKN,OVC,M,5500.00,7500.00,9500.00,M,M,M,M,M,M,M,M,57.20,KBVU 100255Z AUTO 15006KT 10SM FEW055 BKN075 OVC095 14/02 A3002 RMK AO2,M
CXP,2023-01-10 02:55,-119.7326,39.1923,1431.00,37.40,32.00,80.65,0.00,0.00,0.00,29.79,M,10.00,M,BKN,OVC,M,M,7500.00,9500.00,M,M,M,M,M,M,M,M,M,37.40,KCXP 100255Z AUTO 00000KT 10SM BKN075 OVC095 03/00 A2979 RMK AO2,M
RNO,2023-01-10 02:55,-119.7711,39.4839,1341.00,39.00,30.00,69.85,0.00,0.00,0.00,29.77,1007.50,10.00,M,BKN,OVC,M,M,7000.00,12000.00,M,M,M,M,M,M,M,M,M,39.00,KRNO 100255Z 00000KT 10SM BKN070 OVC120 04/M01 A2977 RMK AO2 SLP075 T00391011 58008,M
RTS,2023-01-10 02:55,-119.8764,39.6682,1539.00,35.60,23.00,59.79,0.00,0.00,0.00,29.78,M,10.00,M,OVC,M,M,M,11000.00,M,M,M,M,M,M,M,M,M,M,35.60,KRTS 100255Z AUTO 00000KT 10SM OVC110 02/M05 A2978 RMK AO2,M
05U,2023-01-10 02:55,-116.0051,39.6042,1811.23,33.80,33.80,100.00,10.00,3.00,0.01,29.87,M,10.00,M,SCT,BKN,OVC,M,2400.00,4400.00,8000.00,M,M,M,M,M,M,M,M,30.75,K05U 100255Z AUTO 01003KT 10SM SCT024 BKN044 OVC080 01/01 A2987 RMK A01 P0001,M
MEV,2023-01-10 02:55,-119.7500,38.9963,1441.42,35.60,32.00,86.59,180.00,11.00,0.00,29.79,M,10.00,M,SCT,BKN,OVC,M,4300.00,5500.00,7500.00,M,M,M,M,M,M,M,M,27.02,KMEV 100255Z AUTO 18011KT 10SM SCT043 BKN055 OVC075 02/00 A2979 RMK AO2,M
BAM,2023-01-10 02:55,-116.8743,40.5990,1382.36,42.80,39.20,86.99,360.00,5.00,0.00,29.82,M,10.00,M,BKN,BKN,M,M,900.00,2600.00,M,M,M,M,M,M,M,M,M,39.22,KBAM 100255Z AUTO 36005KT 10SM BKN009 BKN026 06/04 A2982 RMK AO1,M
LSV,2023-01-10 02:55,-115.0343,36.2362,570.00,53.20,39.70,60.04,60.00,9.00,T,29.98,1015.00,10.00,M,OVC,M,M,M,6500.00,M,M,M,M,M,M,M,M,M,M,53.20,KLSV 100255Z AUTO 06009KT 10SM OVC065 12/04 A2998 RMK AO2 RAB28E47 SLP150 P0000 60000 T01180043 50000 $,M
INS,2023-01-10 02:55,-115.6733,36.5872,955.00,46.40,38.00,72.08,100.00,16.00,T,29.95,1013.50,10.00,M,BKN,OVC,M,M,6500.00,8500.00,M,M,M,M,M,M,26.00,120.00,2023-01-10 02:31,39.19,KINS 100255Z AUTO 10016KT 10SM BKN065 OVC085 08/03 A2995 RMK AO2 PK WND 12026/31 RAB08E23 SLP135 P0000 60000 T00800033 53003 $,M
TMT,2023-01-10 02:55,-117.1971,39.4643,1749.34,33.00,33.00,99.20,70.00,4.00,0.01,29.85,M,10.00,M,BKN,OVC,M,M,2400.00,2900.00,M,M,-RA,M,M,M,M,M,M,28.70,KTMT 100255Z AUTO 07004KT 10SM -RA BKN024 OVC029 01/01 A2985 RMK AO2 P0001 60007 T00060005,M
HND,2023-01-10 02:56,-115.1344,35.9729,742.79,54.00,34.00,46.57,170.00,11.00,T,30.01,1017.90,10.00,M,FEW,SCT,M,M,5500.00,11000.00,M,M,M,M,M,M,M,M,M,54.00,KHND 100256Z 17011KT 10SM FEW055 SCT110 12/01 A3001 RMK AO2 RAB29E55 SLP179 P0000 60000 T01220011 50004,M
LAS,2023-01-10 02:56,-115.1634,36.0719,663.00,51.00,43.00,73.69,280.00,5.00,0.00,30.00,1015.70,10.00,M,BKN,OVC,M,M,6000.00,7000.00,M,M,M,M,M,M,M,M,M,51.10,KLAS 100256Z 28005KT 10SM BKN060 OVC070 11/06 A3000 RMK AO2 SLP157 60000 T01060061 51004,M
INS,2023-01-10 02:56,-115.6733,36.5872,955.00,46.40,37.40,70.68,100.00,18.00,0.00,29.95,1013.50,10.00,M,BKN,OVC,M,M,6500.00,8000.00,M,M,-RA,M,M,M,M,M,M,38.70,KINS 100256Z AUTO 10018KT 10SM -RA BKN065 OVC080 08/03 A2995 RMK AO2 RAB54 SLP135 $,M
EKO,2023-01-10 02:56,-115.7860,40.8242,1367.00,37.00,35.00,92.76,330.00,6.00,0.02,29.84,1011.10,4.00,M,BKN,OVC,M,M,1900.00,2400.00,M,M,RA BR,M,M,M,M,M,M,31.55,KEKO 100256Z AUTO 33006KT 4SM RA BR BKN019 OVC024 03/02 A2984 RMK AO2 RAE09B37 SLP111 P0002 60011 T00280017 50004,M
NFL,2023-01-10 02:56,-118.7010,39.4166,1199.00,43.00,40.00,88.71,170.00,10.00,T,29.79,1006.60,9.00,M,SCT,BKN,OVC,M,2000.00,3000.00,5000.00,M,-RA,M,M,M,M,M,M,36.76,KNFL 100256Z 17010KT 9SM -RA SCT020 BKN030 OVC050 06/04 A2979 RMK AO2 RAB38 SLP066 WR// P0000 60000 T00610044 58004,M
WMC,2023-01-10 02:56,-117.8072,40.9019,1315.00,42.00,37.00,81.98,190.00,7.00,0.00,29.81,1009.30,10.00,M,CLR,M,M,M,M,M,M,M,M,M,M,M,M,M,M,37.09,KWMC 100256Z AUTO 19007KT 10SM CLR 06/03 A2981 RMK AO2 SLP093 T00560028 51006,M
TPH,2023-01-10 02:56,-117.0904,38.0505,1654.00,40.00,40.00,100.00,160.00,9.00,0.01,29.86,1010.60,3.00,M,OVC,M,M,M,500.00,M,M,M,BR,M,M,M,M,M,M,33.34,KTPH 100256Z AUTO 16009KT 3SM BR OVC005 04/04 A2986 RMK AO2 RAE49 CIG 002V009 SLP106 P0001 60018 T00440044 58012,M
05U,2023-01-10 03:10,-116.0051,39.6042,1811.23,33.80,33.80,100.00,0.00,0.00,0.00,29.87,M,10.00,M,SCT,BKN,OVC,M,2300.00,6000.00,8000.00,M,M,M,M,M,M,M,M,33.80,K05U 100310Z AUTO 00000KT 10SM SCT023 BKN060 OVC080 01/01 A2987 RMK A01,M
BVU,2023-01-10 03:15,-114.8611,35.9475,671.00,57.20,33.80,41.13,180.00,15.00,0.00,30.02,M,10.00,21.00,FEW,BKN,BKN,M,5500.00,7000.00,9000.00,M,M,M,M,M,M,M,M,57.20,KBVU 100315Z AUTO 18015G21KT 10SM FEW055 BKN070 BKN090 14/01 A3002 RMK AO2,M
CXP,2023-01-10 03:15,-119.7326,39.1923,1431.00,37.40,32.00,80.65,300.00,5.00,0.00,29.81,M,10.00,M,SCT,OVC,M,M,6500.00,7500.00,M,M,M,M,M,M,M,M,M,32.81,KCXP 100315Z AUTO 30005KT 10SM SCT065 OVC075 03/00 A2981 RMK AO2,M
RTS,2023-01-10 03:15,-119.8764,39.6682,1539.00,35.60,23.00,59.79,160.00,5.00,0.00,29.78,M,10.00,M,OVC,M,M,M,11000.00,M,M,M,M,M,M,M,M,M,M,30.67,KRTS 100315Z AUTO 16005KT 10SM OVC110 02/M05 A2978 RMK AO2,M
MEV,2023-01-10 03:15,-119.7500,38.9963,1441.42,35.60,33.80,93.08,150.00,7.00,0.00,29.80,M,10.00,M,FEW,SCT,BKN,M,1600.00,3400.00,4400.00,M,M,M,M,M,M,M,M,29.17,KMEV 100315Z AUTO 15007KT 10SM FEW016 SCT034 BKN044 02/01 A2980 RMK AO2,M
BAM,2023-01-10 03:15,-116.8743,40.5990,1382.36,42.80,37.40,81.07,240.00,4.00,0.00,29.83,M,10.00,M,SCT,SCT,BKN,M,1100.00,2800.00,3500.00,M,M,M,M,M,M,M,M,40.03,KBAM 100315Z AUTO 24004KT 10SM SCT011 SCT028 BKN035 06/03 A2983 RMK AO1,M
TMT,2023-01-10 03:15,-117.1971,39.4643,1749.34,33.00,33.00,100.00,30.00,3.00,0.00,29.84,M,10.00,M,OVC,M,M,M,2600.00,M,M,M,-RA,M,M,M,M,M,M,29.72,KTMT 100315Z AUTO 03003KT 10SM -RA OVC026 01/01 A2984 RMK AO2 T00050005,M
LSV,2023-01-10 03:18,-115.0343,36.2362,570.00,53.60,39.20,58.02,70.00,8.00,0.00,29.98,1015.00,10.00,M,OVC,M,M,M,6500.00,M,M,M,-RA,M,M,M,M,M,M,53.60,KLSV 100318Z AUTO 07008KT 10SM -RA OVC065 12/04 A2998 RMK AO2 RAB18 SLP150 $,M
INS,2023-01-10 03:20,-115.6733,36.5872,955.00,46.40,37.40,70.68,100.00,23.00,0.00,29.94,1012.90,10.00,M,BKN,OVC,M,M,6500.00,8000.00,M,M,M,M,M,M,M,M,M,37.67,KINS 100320Z AUTO 10023KT 10SM BKN065 OVC080 08/03 A2994 RMK AO2 RAB0254E20 SLP129 $,M
LSV,2023-01-10 03:28,-115.0343,36.2362,570.00,53.60,37.40,54.07,60.00,9.00,0.00,29.98,1015.00,10.00,M,OVC,M,M,M,7000.00,M,M,M,M,M,M,M,M,M,M,53.60,KLSV 100328Z AUTO 06009KT 10SM OVC070 12/03 A2998 RMK AO2 RAB18E28 SLP150 $,M
BVU,2023-01-10 03:35,-114.8611,35.9475,671.00,57.20,32.00,38.26,180.00,14.00,0.00,30.02,M,10.00,20.00,FEW,FEW,BKN,M,5000.00,7000.00,7500.00,M,M,M,M,M,M,M,M,57.20,KBVU 100335Z AUTO 18014G20KT 10SM FEW050 FEW070 BKN075 14/00 A3002 RMK AO2,M
CXP,2023-01-10 03:35,-119.7326,39.1923,1431.00,37.40,32.00,80.65,0.00,0.00,0.00,29.82,M,10.00,M,BKN,OVC,M,M,7000.00,7500.00,M,M,M,M,M,M,M,M,M,37.40,KCXP 100335Z AUTO 00000KT 10SM BKN070 OVC075 03/00 A2982 RMK AO2,M
RTS,2023-01-10 03:35,-119.8764,39.6682,1539.00,33.80,24.80,69.25,240.00,5.00,0.00,29.78,M,10.00,M,OVC,M,M,M,10000.00,M,M,M,M,M,M,M,M,M,M,28.53,KRTS 100335Z AUTO 24005KT 10SM OVC100 01/M04 A2978 RMK AO2,M
05U,2023-01-10 03:35,-116.0051,39.6042,1811.23,33.80,33.80,100.00,0.00,0.00,0.00,29.87,M,10.00,M,FEW,BKN,OVC,M,1900.00,2700.00,6000.00,M,M,M,M,M,M,M,M,33.80,K05U 100335Z AUTO 00000KT 10SM FEW019 BKN027 OVC060 01/01 A2987 RMK A01,M
MEV,2023-01-10 03:35,-119.7500,38.9963,1441.42,37.40,33.80,86.69,160.00,14.00,0.00,29.81,M,10.00,M,SCT,BKN,OVC,M,3300.00,4500.00,5500.00,M,M,M,M,M,M,M,M,28.12,KMEV 100335Z AUTO 16014KT 10SM SCT033 BKN045 OVC055 03/01 A2981 RMK AO2,M
BAM,2023-01-10 03:35,-116.8743,40.5990,1382.36,42.80,37.40,81.07,250.00,5.00,0.00,29.84,M,10.00,M,SCT,SCT,BKN,M,3500.00,5500.00,10000.00,M,M,M,M,M,M,M,M,39.22,KBAM 100335Z AUTO 25005KT 10SM SCT035 SCT055 BKN100 06/03 A2984 RMK AO1,M
TMT,2023-01-10 03:35,-117.1971,39.4643,1749.34,33.00,32.70,99.20,0.00,0.00,0.01,29.84,M,5.00,M,OVC,M,M,M,2400.00,M,M,M,RA,M,M,M,M,M,M,32.90,KTMT 100335Z AUTO 00000KT 5SM RA OVC024 01/00 A2984 RMK AO2 P0001 T00050004,M
INS,2023-01-10 03:47,-115.6733,36.5872,955.00,46.40,37.40,70.68,100.00,17.00,0.00,29.93,1012.50,10.00,24.00,FEW,BKN,OVC,M,4600.00,6500.00,9000.00,M,-RA,M,M,M,M,M,M,38.94,KINS 100347Z AUTO 10017G24KT 10SM -RA FEW046 BKN065 OVC090 08/03 A2993 RMK AO2 RAB0254E20RAB47 SLP125 $,M
P68,2023-01-10 03:53,-116.0056,39.6014,1993.00,34.00,32.00,92.29,0.00,0.00,0.00,29.84,1009.30,M,M,M,M,M,M,M,M,M,M,M,M,M,M,M,M,M,34.00,KP68 100353Z AUTO 00000KT 01/00 A2984 RMK AO1 SLP093 T00110000,M
LOL,2023-01-10 03:53,-118.5701,40.0684,1192.43,39.00,39.00,100.00,130.00,4.00,0.00,29.78,1008.90,10.00,M,BKN,OVC,M,M,9500.00,11000.00,M,M,M,M,M,M,M,M,M,35.59,KLOL 100353Z AUTO 13004KT 10SM BKN095 OVC110 04/04 A2978 RMK AO2 SLP089 T00390039,M
ELY,2023-01-10 03:53,-114.8453,39.2950,1909.00,34.00,33.00,96.46,200.00,14.00,0.02,29.89,1011.70,10.00,M,OVC,M,M,M,2500.00,M,M,M,-RA,M,M,M,M,M,M,23.74,KELY 100353Z AUTO 20014KT 10SM -RA OVC025 01/01 A2989 RMK AO2 SLP117 P0002 T00110006,M
DRA,2023-01-10 03:53,-116.0278,36.6206,1009.00,53.00,44.00,71.40,160.00,19.00,0.02,29.91,1011.30,10.00,31.00,OVC,M,M,M,5500.00,M,M,M,-RA,M,M,M,31.00,170.00,2023-01-10 03:52,53.10,KDRA 100353Z AUTO 16019G31KT 10SM -RA OVC055 12/07 A2991 RMK AO2 PK WND 17031/0352 SLP113 P0002 T01170067,M
VGT,2023-01-10 03:53,-115.1933,36.2111,667.00,53.00,40.00,60.73,60.00,5.00,T,29.99,1017.10,10.00,M,OVC,M,M,M,6000.00,M,M,M,M,M,M,M,M,M,M,53.10,KVGT 100353Z 06005KT 10SM OVC060 12/04 A2999 RMK AO2 RAE18 SLP171 P0000 T01170044,M
BVU,2023-01-10 03:55,-114.8611,35.9475,671.00,57.20,32.00,38.26,180.00,11.00,0.00,30.01,M,10.00,17.00,BKN,BKN,OVC,M,7500.00,9000.00,11000.00,M,M,M,M,M,M,M,M,57.20,KBVU 100355Z AUTO 18011G17KT 10SM BKN075 BKN090 OVC110 14/M00 A3001 RMK AO2,M
CXP,2023-01-10 03:55,-119.7326,39.1923,1431.00,37.40,32.00,80.65,330.00,4.00,0.00,29.82,M,10.00,M,BKN,OVC,M,M,6500.00,7000.00,M,M,M,M,M,M,M,M,M,33.73,KCXP 100355Z AUTO 33004KT 10SM BKN065 OVC070 03/00 A2982 RMK AO2,M
RNO,2023-01-10 03:55,-119.7711,39.4839,1341.00,38.00,32.00,79.08,150.00,4.00,0.00,29.77,1007.70,10.00,M,SCT,OVC,M,M,7000.00,11000.00,M,M,M,M,M,M,M,M,M,34.31,KRNO 100355Z 15004KT 10SM SCT070 OVC110 03/00 A2977 RMK AO2 SLP077 T00330000,M
RTS,2023-01-10 03:55,-119.8764,39.6682,1539.00,33.80,24.80,69.25,0.00,0.00,0.00,29.78,M,10.00,M,FEW,OVC,M,M,7500.00,10000.00,M,M,M,M,M,M,M,M,M,33.80,KRTS 100355Z AUTO 00000KT 10SM FEW075 OVC100 01/M04 A2978 RMK AO2,M
05U,2023-01-10 03:55,-116.0051,39.6042,1811.23,33.80,33.80,100.00,0.00,0.00,0.00,29.86,M,10.00,M,FEW,SCT,OVC,M,1900.00,2500.00,3400.00,M,M,M,M,M,M,M,M,33.80,K05U 100355Z AUTO 00000KT 10SM FEW019 SCT025 OVC034 01/01 A2986 RMK A01,M
MEV,2023-01-10 03:55,-119.7500,38.9963,1441.42,37.40,32.00,80.65,180.00,12.00,0.00,29.81,M,10.00,M,FEW,SCT,BKN,M,2700.00,3700.00,4700.00,M,M,M,M,M,M,M,M,28.87,KMEV 100355Z AUTO 18012KT 10SM FEW027 SCT037 BKN047 03/M00 A2981 RMK AO2,M
BAM,2023-01-10 03:55,-116.8743,40.5990,1382.36,41.00,37.40,86.89,260.00,4.00,0.00,29.84,M,10.00,M,SCT,BKN,OVC,M,3000.00,3500.00,11000.00,M,M,M,M,M,M,M,M,37.93,KBAM 100355Z AUTO 26004KT 10SM SCT030 BKN035 OVC110 05/03 A2984 RMK AO1,M
INS,2023-01-10 03:55,-115.6733,36.5872,955.00,46.00,37.60,72.32,100.00,16.00,T,29.94,1012.70,10.00,M,BKN,OVC,M,M,6000.00,8000.00,M,M,-RA,M,M,M,30.00,110.00,2023-01-10 03:10,38.67,KINS 100355Z AUTO 10016KT 10SM -RA BKN060 OVC080 08/03 A2994 RMK AO2 PK WND 11030/10 RAB0254E20RAB47 SLP127 P0000 T00780031 $,M
LSV,2023-01-10 03:55,-115.0343,36.2362,570.00,53.00,39.00,59.07,50.00,12.00,T,29.97,1014.60,10.00,M,OVC,M,M,M,6500.00,M,M,M,M,M,M,M,M,M,M,52.90,KLSV 100355Z AUTO 05012KT 10SM OVC065 12/04 A2997 RMK AO2 RAB18E28 SLP146 P0000 T01160039 $,M
TMT,2023-01-10 03:55,-117.1971,39.4643,1749.34,33.00,33.00,100.00,0.00,0.00,0.03,29.84,M,5.00,M,OVC,M,M,M,2200.00,M,M,M,RA,M,M,M,M,M,M,32.90,KTMT 100355Z AUTO 00000KT 5SM RA OVC022 01/01 A2984 RMK AO2 P0003 T00050005,M
NFL,2023-01-10 03:56,-118.7010,39.4166,1199.00,41.00,39.00,92.52,170.00,8.00,0.04,29.79,1006.80,6.00,M,SCT,BKN,OVC,M,2000.00,3000.00,5000.00,M,RA BR,M,M,M,M,M,M,35.20,KNFL 100356Z 17008KT 6SM RA BR SCT020 BKN030 OVC050 05/04 A2979 RMK AO2 SLP068 WR// P0004 T00500039,M
HND,2023-01-10 03:56,-115.1344,35.9729,742.79,54.00,34.00,46.57,170.00,16.00,T,30.00,1017.40,10.00,22.00,FEW,BKN,BKN,M,5000.00,6500.00,11000.00,M,-RA,M,M,M,M,M,M,54.00,KHND 100356Z 17016G22KT 10SM -RA FEW050 BKN065 BKN110 12/01 A3000 RMK AO2 RAB49 SLP174 P0000 T01220011,M
EKO,2023-01-10 03:56,-115.7860,40.8242,1367.00,36.00,35.00,96.49,90.00,3.00,0.04,29.84,1010.90,9.00,M,OVC,M,M,M,2100.00,M,M,M,M,M,M,M,M,M,M,33.26,KEKO 100356Z AUTO 09003KT 9SM OVC021 02/02 A2984 RMK AO2 RAE52UPB52E56 SLP109 P0004 T00220017,M
WMC,2023-01-10 03:56,-117.8072,40.9019,1315.00,39.00,35.00,85.76,180.00,4.00,0.00,29.78,1008.30,10.00,M,CLR,M,M,M,M,M,M,M,M,M,M,M,M,M,M,35.59,KWMC 100356Z AUTO 18004KT 10SM CLR 04/02 A2978 RMK AO2 SLP083 T00390017,M
TPH,2023-01-10 03:56,-117.0904,38.0505,1654.00,40.00,40.00,100.00,180.00,9.00,0.03,29.87,1010.70,9.00,M,OVC,M,M,M,500.00,M,M,M,-RA,M,M,M,M,M,M,33.34,KTPH 100356Z AUTO 18009KT 9SM -RA OVC005 04/04 A2987 RMK AO2 RAB0258 SLP107 P0003 T00440044,M
LAS,2023-01-10 03:56,-115.1634,36.0719,663.00,51.00,42.00,71.19,240.00,4.00,0.00,29.99,1015.30,10.00,M,SCT,BKN,OVC,M,6000.00,7000.00,10000.00,M,M,M,M,M,M,M,M,51.10,KLAS 100356Z 24004KT 10SM SCT060 BKN070 OVC100 11/06 A2999 RMK AO2 SLP153 T01060056,M
INS,2023-01-10 04:01,-115.6733,36.5872,955.00,46.40,37.40,70.68,90.00,19.00,0.00,29.92,1012.00,10.00,M,BKN,OVC,M,M,6000.00,7500.00,M,M,M,M,M,M,M,M,M,38.48,KINS 100401Z AUTO 09019KT 10SM BKN060 OVC075 08/03 A2992 RMK AO2 RAE01 PRESFR SLP120 $,M
BVU,2023-01-10 04:15,-114.8611,35.9475,671.00,57.20,30.20,35.57,190.00,15.00,0.00,30.02,M,10.00,M,FEW,FEW,BKN,M,7500.00,9000.00,11000.00,M,M,M,M,M,M,M,M,57.20,KBVU 100415Z AUTO 19015KT 10SM FEW075 FEW090 BKN110 14/M01 A3002 RMK AO2,M
CXP,2023-01-10 04:15,-119.7326,39.1923,1431.00,37.40,32.00,80.65,0.00,0.00,0.00,29.84,M,10.00,M,FEW,BKN,OVC,M,5000.00,6500.00,7500.00,M,M,M,M,M,M,M,M,37.40,KCXP 100415Z AUTO 00000KT 10SM FEW050 BKN065 OVC075 03/M00 A2984 RMK AO2,M
RTS,2023-01-10 04:15,-119.8764,39.6682,1539.00,33.80,26.60,74.63,M,6.00,0.00,29.78,M,10.00,M,FEW,OVC,M,M,7500.00,9500.00,M,M,M,M,M,M,M,M,M,27.70,KRTS 100415Z AUTO VRB06KT 10SM FEW075 OVC095 01/M03 A2978 RMK AO2,M
05U,2023-01-10 04:15,-116.0051,39.6042,1811.23,33.80,33.80,100.00,20.00,4.00,0.00,29.86,M,10.00,M,SCT,BKN,OVC,M,2500.00,3300.00,4000.00,M,M,M,M,M,M,M,M,29.52,K05U 100415Z AUTO 02004KT 10SM SCT025 BKN033 OVC040 01/01 A2986 RMK A01,M
MEV,2023-01-10 04:15,-119.7500,38.9963,1441.42,35.60,32.00,86.59,120.00,6.00,0.00,29.83,M,10.00,11.00,FEW,SCT,BKN,M,3100.00,4500.00,5500.00,M,M,M,M,M,M,M,M,29.87,KMEV 100415Z AUTO 12006G11KT 10SM FEW031 SCT045 BKN055 02/00 A2983 RMK AO2,M
BAM,2023-01-10 04:15,-116.8743,40.5990,1382.36,41.00,37.40,86.89,260.00,5.00,0.00,29.82,M,10.00,M,SCT,SCT,BKN,M,3000.00,3600.00,12000.00,M,M,M,M,M,M,M,M,37.08,KBAM 100415Z AUTO 26005KT 10SM SCT030 SCT036 BKN120 05/03 A2982 RMK AO1,M
TMT,2023-01-10 04:15,-117.1971,39.4643,1749.34,33.00,32.70,99.20,330.00,4.00,0.01,29.83,M,7.00,M,BKN,OVC,M,M,2200.00,3000.00,M,M,-RA,M,M,M,M,M,M,28.47,KTMT 100415Z AUTO 33004KT 7SM -RA BKN022 OVC030 01/00 A2983 RMK AO2 P0001 T00050004,M
INS,2023-01-10 04:24,-115.6733,36.5872,955.00,46.40,39.20,75.84,130.00,11.00,0.00,29.94,1012.70,10.00,M,FEW,FEW,BKN,BKN,3200.00,4400.00,6000.00,7500.00,M,M,M,M,M,M,M,40.66,KINS 100424Z AUTO 13011KT 10SM FEW032 FEW044 BKN060 BKN075 OVC100 08/04 A2994 RMK AO2 WSHFT 12 RAE01 SLP127 $,M
ELY,2023-01-10 04:24,-114.8453,39.2950,1909.00,33.00,32.00,95.67,200.00,14.00,T,29.89,M,10.00,M,OVC,M,M,M,3100.00,M,M,M,-RA,M,M,M,M,M,M,22.58,KELY 100424Z AUTO 20014KT 10SM -RA OVC031 01/00 A2989 RMK AO2 P0000 T00060000,M
05U,2023-01-10 04:30,-116.0051,39.6042,1811.23,33.80,33.80,100.00,10.00,5.00,0.00,29.85,M,10.00,M,FEW,BKN,OVC,M,2200.00,2600.00,4700.00,M,M,M,M,M,M,M,M,28.53,K05U 100430Z AUTO 01005KT 10SM FEW022 BKN026 OVC047 01/01 A2985 RMK A01,M
INS,2023-01-10 04:32,-115.6733,36.5872,955.00,46.40,37.40,70.68,140.00,7.00,0.00,29.94,1012.70,10.00,20.00,FEW,SCT,BKN,BKN,4300.00,5000.00,6000.00,7000.00,-RA,M,M,M,M,M,M,42.33,KINS 100432Z AUTO 14007G20KT 10SM -RA FEW043 SCT050 BKN060 BKN070 OVC095 08/03 A2994 RMK AO2 RAE01RAB32 SLP127 $,M
BVU,2023-01-10 04:35,-114.8611,35.9475,671.00,57.20,28.40,33.05,190.00,15.00,0.00,30.01,M,10.00,23.00,BKN,OVC,M,M,7000.00,10000.00,M,M,M,M,M,M,M,M,M,57.20,KBVU 100435Z AUTO 19015G23KT 10SM BKN070 OVC100 14/M02 A3001 RMK AO2,M
CXP,2023-01-10 04:35,-119.7326,39.1923,1431.00,37.40,28.40,69.67,180.00,6.00,0.00,29.82,M,10.00,16.00,SCT,BKN,OVC,M,3100.00,4000.00,7500.00,M,M,M,M,M,M,M,M,32.03,KCXP 100435Z AUTO 18006G16KT 10SM SCT031 BKN040 OVC075 03/M02 A2982 RMK AO2,M
RTS,2023-01-10 04:35,-119.8764,39.6682,1539.00,33.80,24.80,69.25,350.00,5.00,0.00,29.78,M,10.00,M,FEW,SCT,M,M,7500.00,9500.00,M,M,M,M,M,M,M,M,M,28.53,KRTS 100435Z AUTO 35005KT 10SM FEW075 SCT095 01/M04 A2978 RMK AO2,M
MEV,2023-01-10 04:35,-119.7500,38.9963,1441.42,35.60,32.00,86.59,130.00,17.00,0.00,29.81,M,8.00,24.00,SCT,BKN,OVC,M,700.00,1500.00,4800.00,M,-RA,M,M,M,M,M,M,24.79,KMEV 100435Z AUTO 13017G24KT 8SM -RA SCT007 BKN015 OVC048 02/M00 A2981 RMK AO2,M
BAM,2023-01-10 04:35,-116.8743,40.5990,1382.36,41.00,37.40,86.89,80.00,3.00,0.00,29.81,M,10.00,M,OVC,M,M,M,11000.00,M,M,M,M,M,M,M,M,M,M,38.98,KBAM 100435Z AUTO 08003KT 10SM OVC110 05/03 A2981 RMK AO1,M
TMT,2023-01-10 04:35,-117.1971,39.4643,1749.34,33.00,33.00,100.00,360.00,4.00,0.02,29.83,M,10.00,M,OVC,M,M,M,2200.00,M,M,M,-RA,M,M,M,M,M,M,28.47,KTMT 100435Z AUTO 36004KT 10SM -RA OVC022 01/01 A2983 RMK AO2 P0002 T00050005,M
LSV,2023-01-10 04:45,-115.0343,36.2362,570.00,51.80,41.00,66.48,50.00,10.00,0.00,29.97,1014.60,10.00,M,OVC,M,M,M,6500.00,M,M,M,-RA,M,M,M,M,M,M,51.80,KLSV 100445Z AUTO 05010KT 10SM -RA OVC065 11/05 A2997 RMK AO2 RAB45 SLP146 $,M
TPH,2023-01-10 04:48,-117.0904,38.0505,1654.00,40.00,40.00,100.00,170.00,9.00,0.03,29.86,M,7.00,M,OVC,M,M,M,400.00,M,M,M,-RA,M,M,M,M,M,M,33.34,KTPH 100448Z AUTO 17009KT 7SM -RA OVC004 04/04 A2986 RMK AO2 P0003 T00440044,M
P68,2023-01-10 04:53,-116.0056,39.6014,1993.00,33.00,32.00,95.67,330.00,6.00,0.00,29.82,1008.80,M,M,M,M,M,M,M,M,M,M,M,M,M,M,M,M,M,26.86,KP68 100453Z AUTO 33006KT 01/00 A2982 RMK AO1 SLP088 T00060000,M
ELY,2023-01-10 04:53,-114.8453,39.2950,1909.00,33.00,32.00,95.67,200.00,14.00,T,29.88,1011.10,8.00,M,OVC,M,M,M,3600.00,M,M,M,-SN,M,M,M,M,M,M,22.58,KELY 100453Z AUTO 20014KT 8SM -SN OVC036 01/00 A2988 RMK AO2 RAE43SNB43 SLP111 P0000 T00060000,M
LOL,2023-01-10 04:53,-118.5701,40.0684,1192.43,39.00,39.00,100.00,240.00,5.00,0.00,29.79,1008.80,10.00,M,OVC,M,M,M,7000.00,M,M,M,M,M,M,M,M,M,M,34.71,KLOL 100453Z AUTO 24005KT 10SM OVC070 04/04 A2979 RMK AO2 SLP088 T00390039,M
DRA,2023-01-10 04:53,-116.0278,36.6206,1009.00,52.00,44.00,74.35,180.00,18.00,T,29.91,1011.40,10.00,28.00,OVC,M,M,M,5500.00,M,M,M,-RA,M,M,M,31.00,180.00,2023-01-10 04:35,52.00,KDRA 100453Z AUTO 18018G28KT 10SM -RA OVC055 11/07 A2991 RMK AO2 PK WND 18031/0435 SLP114 P0000 T01110067,M
VGT,2023-01-10 04:53,-115.1933,36.2111,667.00,52.00,40.00,63.24,60.00,7.00,T,29.99,1017.10,10.00,M,OVC,M,M,M,6500.00,M,M,M,-RA,M,M,M,M,M,M,52.00,KVGT 100453Z AUTO 06007KT 10SM -RA OVC065 11/04 A2999 RMK AO2 RAB41 SLP171 P0000 T01110044,M
BVU,2023-01-10 04:55,-114.8611,35.9475,671.00,57.20,28.40,33.05,190.00,13.00,0.00,30.01,M,10.00,25.00,FEW,BKN,OVC,M,3500.00,7500.00,9500.00,M,M,M,M,M,M,M,M,57.20,KBVU 100455Z AUTO 19013G25KT 10SM FEW035 BKN075 OVC095 14/M02 A3001 RMK AO2,M
CXP,2023-01-10 04:55,-119.7326,39.1923,1431.00,37.40,30.20,74.98,160.00,8.00,0.00,29.81,M,10.00,14.00,FEW,SCT,BKN,M,3000.00,3900.00,12000.00,M,M,M,M,M,M,M,M,30.76,KCXP 100455Z AUTO 16008G14KT 10SM FEW030 SCT039 BKN120 03/M01 A2981 RMK AO2,M
RNO,2023-01-10 04:55,-119.7711,39.4839,1341.00,39.00,30.00,69.85,0.00,0.00,0.00,29.76,1007.10,10.00,M,FEW,BKN,OVC,M,7000.00,10000.00,14000.00,M,M,M,M,M,M,M,M,39.00,KRNO 100455Z 00000KT 10SM FEW070 BKN100 OVC140 04/M01 A2976 RMK AO2 SLP071 T00391011,M
RTS,2023-01-10 04:55,-119.8764,39.6682,1539.00,32.00,26.60,80.22,0.00,0.00,0.00,29.78,M,10.00,M,CLR,M,M,M,M,M,M,M,M,M,M,M,M,M,M,32.00,KRTS 100455Z AUTO 00000KT 10SM CLR M00/M03 A2978 RMK AO2,M
05U,2023-01-10 04:55,-116.0051,39.6042,1811.23,33.80,33.80,100.00,330.00,6.00,0.00,29.85,M,10.00,M,SCT,OVC,M,M,200.00,2600.00,M,M,M,M,M,M,M,M,M,27.70,K05U 100455Z AUTO 33006KT 10SM SCT002 OVC026 01/01 A2985 RMK A01,M
MEV,2023-01-10 04:55,-119.7500,38.9963,1441.42,33.80,32.00,93.03,130.00,7.00,0.00,29.81,M,9.00,16.00,BKN,BKN,OVC,M,700.00,1600.00,3600.00,M,UP,M,M,M,M,M,M,26.97,KMEV 100455Z AUTO 13007G16KT 9SM UP BKN007 BKN016 OVC036 01/00 A2981 RMK AO2,M
BAM,2023-01-10 04:55,-116.8743,40.5990,1382.36,41.00,37.40,86.89,170.00,3.00,0.00,29.81,M,10.00,M,OVC,M,M,M,10000.00,M,M,M,M,M,M,M,M,M,M,38.98,KBAM 100455Z AUTO 17003KT 10SM OVC100 05/03 A2981 RMK AO1,M
TMT,2023-01-10 04:55,-117.1971,39.4643,1749.34,32.50,32.40,99.60,30.00,7.00,0.03,29.80,M,7.00,M,OVC,M,M,M,2000.00,M,M,M,RA,M,M,M,M,M,M,25.39,KTMT 100455Z AUTO 03007KT 7SM RA OVC020 00/00 A2980 RMK AO2 P0003 T00030002,M
INS,2023-01-10 04:55,-115.6733,36.5872,955.00,47.50,38.80,71.64,150.00,4.00,T,29.93,1012.30,10.00,M,FEW,BKN,OVC,M,4800.00,6500.00,9000.00,M,-RA,M,M,M,M,M,M,45.52,KINS 100455Z AUTO 15004KT 10SM -RA FEW048 BKN065 OVC090 09/04 A2993 RMK AO2 RAE01RAB32 SLP123 P0000 T00860038 $,M
LSV,2023-01-10 04:55,-115.0343,36.2362,570.00,52.30,39.70,62.06,50.00,7.00,T,29.97,1014.60,10.00,M,OVC,M,M,M,6500.00,M,M,M,-RA,M,M,M,M,M,M,52.30,KLSV 100455Z AUTO 05007KT 10SM -RA OVC065 11/04 A2997 RMK AO2 RAB45 SLP146 P0000 T01130043 $,M
EKO,2023-01-10 04:56,-115.7860,40.8242,1367.00,36.00,34.00,92.35,110.00,3.00,0.00,29.82,1010.20,10.00,M,BKN,OVC,M,M,2300.00,3300.00,M,M,M,M,M,M,M,M,M,33.26,KEKO 100456Z AUTO 11003KT 10SM BKN023 OVC033 02/01 A2982 RMK AO2 SLP102 T00220011,M
NFL,2023-01-10 04:56,-118.7010,39.4166,1199.00,39.00,36.00,88.87,280.00,8.00,0.09,29.83,1007.70,8.00,M,SCT,BKN,OVC,M,2000.00,3000.00,5000.00,M,-RA,M,M,M,M,M,M,32.74,KNFL 100456Z 28008KT 8SM -RA SCT020 BKN030 OVC050 04/02 A2983 RMK AO2 SLP077 WR// P0009 T00390022,M
HND,2023-01-10 04:56,-115.1344,35.9729,742.79,55.00,34.00,44.90,170.00,7.00,T,30.00,1017.40,10.00,M,BKN,OVC,M,M,7000.00,10000.00,M,M,M,M,M,M,M,M,M,55.00,KHND 100456Z AUTO 17007KT 10SM BKN070 OVC100 13/01 A3000 RMK AO2 RAE26 SLP174 P0000 T01280011,M
LAS,2023-01-10 04:56,-115.1634,36.0719,663.00,50.00,43.00,76.76,270.00,6.00,0.00,29.98,1015.10,10.00,M,SCT,BKN,OVC,M,6000.00,7000.00,10000.00,M,M,M,M,M,M,M,M,50.00,KLAS 100456Z 27006KT 10SM SCT060 BKN070 OVC100 10/06 A2998 RMK AO2 SLP151 T01000061,M
WMC,2023-01-10 04:56,-117.8072,40.9019,1315.00,40.00,36.00,85.81,0.00,0.00,0.00,29.78,1008.30,10.00,M,OVC,M,M,M,11000.00,M,M,M,M,M,M,M,M,M,M,39.90,KWMC 100456Z AUTO 00000KT 10SM OVC110 04/02 A2978 RMK AO2 SLP083 T00440022,M
TPH,2023-01-10 04:56,-117.0904,38.0505,1654.00,40.00,40.00,100.00,170.00,10.00,0.03,29.86,1010.30,10.00,M,OVC,M,M,M,400.00,M,M,M,-RA,M,M,M,M,M,M,32.87,KTPH 100456Z AUTO 17010KT 10SM -RA OVC004 04/04 A2986 RMK AO2 CIG 003V007 SLP103 P0003 T00440044,M
INS,2023-01-10 05:01,-115.6733,36.5872,955.00,46.40,41.00,81.34,0.00,0.00,0.00,29.94,1012.70,10.00,M,FEW,BKN,OVC,M,4800.00,6500.00,9000.00,M,M,M,M,M,M,M,M,46.40,KINS 100501Z AUTO 00000KT 10SM FEW048 BKN065 OVC090 08/05 A2994 RMK AO2 RAE01 SLP127 $,M
TPH,2023-01-10 05:05,-117.0904,38.0505,1654.00,40.00,40.00,100.00,160.00,13.00,T,29.82,M,10.00,19.00,BKN,OVC,M,M,600.00,1200.00,M,M,-RA,M,M,M,M,M,M,31.69,KTPH 100505Z AUTO 16013G19KT 10SM -RA BKN006 OVC012 04/04 A2982 RMK AO2 CIG 003V010 PRESFR P0000 T00440044,M
EKO,2023-01-10 05:12,-115.7860,40.8242,1367.00,36.00,34.00,92.35,60.00,5.00,0.00,29.81,M,10.00,M,FEW,BKN,OVC,M,2300.00,3300.00,11000.00,M,M,M,M,M,M,M,M,31.15,KEKO 100512Z AUTO 06005KT 10SM FEW023 BKN033 OVC110 02/01 A2981 RMK AO2 T00220011,M
ELY,2023-01-10 05:12,-114.8453,39.2950,1909.00,33.00,32.00,93.03,210.00,13.00,0.01,29.87,M,4.00,M,SCT,OVC,M,M,1900.00,2600.00,M,M,-SN BR,M,M,M,M,M,M,23.87,KELY 100512Z AUTO 21013KT 4SM -SN BR SCT019 OVC026 01/00 A2987 RMK AO2 P0001 T00060000,M
BVU,2023-01-10 05:15,-114.8611,35.9475,671.00,59.00,30.20,33.35,190.00,15.00,0.00,30.00,M,10.00,23.00,BKN,OVC,M,M,8000.00,9500.00,M,M,M,M,M,M,M,M,M,59.00,KBVU 100515Z AUTO 19015G23KT 10SM BKN080 OVC095 15/M01 A3000 RMK AO2,M
CXP,2023-01-10 05:15,-119.7326,39.1923,1431.00,37.40,30.20,74.98,220.00,6.00,0.00,29.81,M,10.00,M,FEW,M,M,M,12000.00,M,M,M,M,M,M,M,M,M,M,32.03,KCXP 100515Z AUTO 22006KT 10SM FEW120 03/M01 A2981 RMK AO2,M
RTS,2023-01-10 05:15,-119.8764,39.6682,1539.00,32.00,23.00,69.04,0.00,0.00,0.00,29.78,M,10.00,M,FEW,M,M,M,12000.00,M,M,M,M,M,M,M,M,M,M,32.00,KRTS 100515Z AUTO 00000KT 10SM FEW120 00/M05 A2978 RMK AO2,M
05U,2023-01-10 05:15,-116.0051,39.6042,1811.23,33.80,33.80,100.00,330.00,5.00,0.00,29.85,M,4.00,M,OVC,M,M,M,200.00,M,M,M,BR,M,M,M,M,M,M,28.53,K05U 100515Z AUTO 33005KT 4SM BR OVC002 01/01 A2985 RMK A01,M
MEV,2023-01-10 05:15,-119.7500,38.9963,1441.42,33.80,32.00,93.03,130.00,6.00,0.00,29.81,M,10.00,M,FEW,SCT,BKN,M,700.00,3700.00,4400.00,M,M,M,M,M,M,M,M,27.70,KMEV 100515Z AUTO 13006KT 10SM FEW007 SCT037 BKN044 01/00 A2981 RMK AO2,M
BAM,2023-01-10 05:15,-116.8743,40.5990,1382.36,39.20,37.40,93.19,130.00,5.00,0.00,29.81,M,10.00,M,OVC,M,M,M,10000.00,M,M,M,M,M,M,M,M,M,M,34.95,KBAM 100515Z AUTO 13005KT 10SM OVC100 04/03 A2981 RMK AO1,M
TMT,2023-01-10 05:15,-117.1971,39.4643,1749.34,32.20,32.20,100.00,10.00,9.00,0.00,29.77,M,10.00,M,BKN,OVC,M,M,2000.00,2900.00,M,M,-RA,M,M,M,M,M,M,23.76,KTMT 100515Z AUTO 01009KT 10SM -RA BKN020 OVC029 00/00 A2977 RMK AO2 T00010001,M
TPH,2023-01-10 05:22,-117.0904,38.0505,1654.00,41.00,40.00,95.82,170.00,14.00,T,29.83,M,10.00,22.00,BKN,OVC,M,M,800.00,1300.00,M,M,M,M,M,M,M,M,M,32.76,KTPH 100522Z AUTO 17014G22KT 10SM BKN008 OVC013 05/04 A2983 RMK AO2 RAE09 CIG 005V011 P0000 T00500044,M
LOL,2023-01-10 05:28,-118.5701,40.0684,1192.43,39.00,36.00,88.87,170.00,16.00,0.00,29.80,M,10.00,M,OVC,M,M,M,7000.00,M,M,M,M,M,M,M,M,M,M,29.54,KLOL 100528Z AUTO 17016KT 10SM OVC070 04/02 A2980 RMK AO2 WSHFT 0508 T00390022,M
INS,2023-01-10 05:29,-115.6733,36.5872,955.00,48.20,39.20,70.88,280.00,7.00,0.00,29.95,1012.80,10.00,M,BKN,OVC,M,M,6000.00,7000.00,M,M,-RA,M,M,M,M,M,M,44.53,KINS 100529Z AUTO 28007KT 10SM -RA BKN060 OVC070 09/04 A2995 RMK AO2 RAE01RAB29 SLP128 $,M
RNO,2023-01-10 05:29,-119.7711,39.4839,1341.00,39.00,30.00,69.85,170.00,14.00,0.00,29.76,M,10.00,M,FEW,BKN,OVC,M,6000.00,10000.00,15000.00,M,M,M,M,M,M,M,M,30.19,KRNO 100529Z 17014KT 10SM FEW060 BKN100 OVC150 04/M01 A2976 RMK AO2 WSHFT 0514 T00391011,M
BVU,2023-01-10 05:35,-114.8611,35.9475,671.00,59.00,32.00,35.87,170.00,20.00,0.00,30.00,M,10.00,25.00,FEW,BKN,OVC,M,6500.00,8000.00,9000.00,M,M,M,M,M,M,M,M,59.00,KBVU 100535Z AUTO 17020G25KT 10SM FEW065 BKN080 OVC090 15/M00 A3000 RMK AO2,M
CXP,2023-01-10 05:35,-119.7326,39.1923,1431.00,35.60,30.20,80.51,0.00,0.00,0.00,29.81,M,10.00,M,FEW,M,M,M,2100.00,M,M,M,M,M,M,M,M,M,M,35.60,KCXP 100535Z AUTO 00000KT 10SM FEW021 02/M01 A2981 RMK AO2,M
RTS,2023-01-10 05:35,-119.8764,39.6682,1539.00,30.20,24.80,80.07,0.00,0.00,0.00,29.78,M,10.00,M,CLR,M,M,M,M,M,M,M,M,M,M,M,M,M,M,30.20,KRTS 100535Z AUTO 00000KT 10SM CLR M01/M04 A2978 RMK AO2,M
05U,2023-01-10 05:35,-116.0051,39.6042,1811.23,33.80,33.80,100.00,0.00,0.00,0.00,29.85,M,1.75,M,OVC,M,M,M,200.00,M,M,M,BR,M,M,M,M,M,M,33.80,K05U 100535Z AUTO 00000KT 1 3/4SM BR OVC002 01/01 A2985 RMK A01,M
MEV,2023-01-10 05:35,-119.7500,38.9963,1441.42,33.80,32.00,93.03,140.00,3.00,0.00,29.80,M,10.00,M,FEW,SCT,SCT,M,3800.00,4500.00,5500.00,M,M,M,M,M,M,M,M,30.75,KMEV 100535Z AUTO 14003KT 10SM FEW038 SCT045 SCT055 01/M00 A2980 RMK AO2,M
BAM,2023-01-10 05:35,-116.8743,40.5990,1382.36,39.20,37.40,93.19,350.00,5.00,0.00,29.81,M,10.00,M,SCT,BKN,OVC,M,4400.00,7000.00,9000.00,M,M,M,M,M,M,M,M,34.95,KBAM 100535Z AUTO 35005KT 10SM SCT044 BKN070 OVC090 04/03 A2981 RMK AO1,M
TMT,2023-01-10 05:35,-117.1971,39.4643,1749.34,32.50,32.40,99.60,320.00,10.00,0.00,29.76,M,10.00,M,OVC,M,M,M,2200.00,M,M,M,M,M,M,M,M,M,M,23.60,KTMT 100535Z AUTO 32010KT 10SM OVC022 00/00 A2976 RMK AO2 T00030002,M
P68,2023-01-10 05:53,-116.0056,39.6014,1993.00,33.00,30.90,91.51,350.00,4.00,0.06,29.81,1008.00,M,M,M,M,M,M,M,M,M,M,M,M,M,M,M,M,M,28.70,KP68 100553Z AUTO 35004KT 01/M01 A2981 RMK AO1 SLP080 P0006 60009 T00061006 10044 20006 58010,M
ELY,2023-01-10 05:53,-114.8453,39.2950,1909.00,33.00,32.00,95.67,200.00,14.00,0.02,29.87,1010.30,8.00,M,BKN,OVC,M,M,1800.00,2900.00,M,M,-SN,M,M,M,M,M,M,22.58,KELY 100553Z AUTO 20014KT 8SM -SN BKN018 OVC029 01/00 A2987 RMK AO2 SLP103 P0002 60006 T00060000 10033 20006 58009,M
LOL,2023-01-10 05:53,-118.5701,40.0684,1192.43,39.00,36.00,88.87,210.00,12.00,T,29.84,1010.60,10.00,20.00,BKN,OVC,M,M,4600.00,7000.00,M,M,-RA,M,M,M,M,M,M,30.91,KLOL 100553Z AUTO 21012G20KT 10SM -RA BKN046 OVC070 04/02 A2984 RMK AO2 WSHFT 0508 RAB49 PRESRR SLP106 P0000 60000 T00390022 10067 20033 53014,M
VGT,2023-01-10 05:53,-115.1933,36.2111,667.00,52.00,40.00,63.24,20.00,7.00,0.01,29.98,1016.90,10.00,M,OVC,M,M,M,6500.00,M,M,M,-RA,M,M,M,M,M,M,52.00,KVGT 100553Z AUTO 02007KT 10SM -RA OVC065 11/04 A2998 RMK AO2 SLP169 P0001 60002 T01110044 10133 20111 56004,M
DRA,2023-01-10 05:53,-116.0278,36.6206,1009.00,51.00,44.00,76.86,190.00,17.00,0.02,29.92,1011.50,10.00,26.00,OVC,M,M,M,5500.00,M,M,M,M,M,M,M,35.00,190.00,2023-01-10 05:31,51.10,KDRA 100553Z AUTO 19017G26KT 10SM OVC055 11/07 A2992 RMK AO2 PK WND 19035/0531 RAE40 SLP115 P0002 60005 T01060067 10139 20094 55001,M
BVU,2023-01-10 05:55,-114.8611,35.9475,671.00,57.20,32.00,38.26,160.00,20.00,0.00,30.01,M,10.00,26.00,FEW,BKN,OVC,M,5000.00,6500.00,8500.00,M,M,M,M,M,M,M,M,57.20,KBVU 100555Z AUTO 16020G26KT 10SM FEW050 BKN065 OVC085 14/00 A3001 RMK AO2,M
CXP,2023-01-10 05:55,-119.7326,39.1923,1431.00,35.60,30.20,80.51,300.00,4.00,0.00,29.81,M,10.00,M,FEW,M,M,M,2100.00,M,M,M,M,M,M,M,M,M,M,31.62,KCXP 100555Z AUTO 30004KT 10SM FEW021 02/M01 A2981 RMK AO2,M
RNO,2023-01-10 05:55,-119.7711,39.4839,1341.00,37.00,28.90,72.24,180.00,8.00,0.00,29.77,1007.70,10.00,M,FEW,SCT,BKN,M,5000.00,10000.00,22000.00,M,M,M,M,M,M,M,M,30.27,KRNO 100555Z 18008KT 10SM FEW050 SCT100 BKN220 03/M02 A2977 RMK AO2 WSHFT 0514 SLP077 T00281017 10072 20028 55000,M
RTS,2023-01-10 05:55,-119.8764,39.6682,1539.00,30.20,23.00,74.26,0.00,0.00,0.00,29.78,M,10.00,M,CLR,M,M,M,M,M,M,M,M,M,M,M,M,M,M,30.20,KRTS 100555Z AUTO 00000KT 10SM CLR M01/M05 A2978 RMK AO2,M
05U,2023-01-10 05:55,-116.0051,39.6042,1811.23,33.80,33.80,100.00,10.00,3.00,0.05,29.83,M,2.00,M,OVC,M,M,M,200.00,M,M,M,BR,M,M,M,M,M,M,30.75,K05U 100555Z AUTO 01003KT 2SM BR OVC002 01/01 A2983 RMK A01 P0005,M
MEV,2023-01-10 05:55,-119.7500,38.9963,1441.42,33.80,32.00,93.03,0.00,0.00,0.00,29.80,M,10.00,M,CLR,M,M,M,M,M,M,M,M,M,M,M,M,M,M,33.80,KMEV 100555Z AUTO 00000KT 10SM CLR 01/M00 A2980 RMK AO2,M
BAM,2023-01-10 05:55,-116.8743,40.5990,1382.36,39.20,37.40,93.19,60.00,4.00,0.00,29.80,M,10.00,M,SCT,BKN,OVC,M,4200.00,6000.00,7000.00,M,M,M,M,M,M,M,M,35.83,KBAM 100555Z AUTO 06004KT 10SM SCT042 BKN060 OVC070 04/03 A2980 RMK AO1,M
TMT,2023-01-10 05:55,-117.1971,39.4643,1749.34,32.40,32.00,98.40,330.00,8.00,0.00,29.77,M,10.00,M,OVC,M,M,M,2400.00,M,M,M,M,M,M,M,M,M,M,24.61,KTMT 100555Z AUTO 33008KT 10SM OVC024 00/00 A2977 RMK AO2 60013 T00020000 10015 20001,M
INS,2023-01-10 05:55,-115.6733,36.5872,955.00,46.00,41.40,84.19,140.00,5.00,T,29.95,1013.00,10.00,M,SCT,OVC,M,M,5000.00,7000.00,M,M,-RA,M,M,M,M,M,M,42.90,KINS 100555Z AUTO 14005KT 10SM -RA SCT050 OVC070 08/05 A2995 RMK AO2 RAE01RAB29 SLP130 P0000 60000 T00770052 10098 20077 53003 $,M
LSV,2023-01-10 05:55,-115.0343,36.2362,570.00,51.40,40.00,65.16,120.00,4.00,T,29.97,1014.50,10.00,M,OVC,M,M,M,6500.00,M,M,M,-RA,M,M,M,M,M,M,51.40,KLSV 100555Z AUTO 12004KT 10SM -RA OVC065 11/05 A2997 RMK AO2 RAE13DZB13E14RAB14 SLP145 P0000 60000 T01080045 10142 20108 56004 $,M
EKO,2023-01-10 05:56,-115.7860,40.8242,1367.00,36.00,34.00,92.35,0.00,0.00,0.00,29.80,1009.50,10.00,M,SCT,OVC,M,M,1600.00,9000.00,M,M,M,M,M,M,M,M,M,36.00,KEKO 100556Z AUTO 00000KT 10SM SCT016 OVC090 02/01 A2980 RMK AO2 SLP095 60015 T00220011 10039 20017 58012,M
WMC,2023-01-10 05:56,-117.8072,40.9019,1315.00,37.00,34.00,88.78,0.00,0.00,0.00,29.78,1008.30,10.00,M,OVC,M,M,M,9000.00,M,M,M,M,M,M,M,M,M,M,37.00,KWMC 100556Z AUTO 00000KT 10SM OVC090 03/01 A2978 RMK AO2 SLP083 T00280011 10072 20028 56010,M
HND,2023-01-10 05:56,-115.1344,35.9729,742.79,54.00,34.00,46.57,170.00,12.00,T,30.00,1017.30,10.00,M,OVC,M,M,M,7000.00,M,M,M,-RA,M,M,M,M,M,M,54.00,KHND 100556Z AUTO 17012KT 10SM -RA OVC070 12/01 A3000 RMK AO2 RAB56 SLP173 P0000 60000 T01220011 10139 20106 56003,M
LAS,2023-01-10 05:56,-115.1634,36.0719,663.00,55.00,34.00,44.90,180.00,9.00,0.00,29.98,1014.70,10.00,17.00,OVC,M,M,M,7000.00,M,M,M,M,M,M,M,M,M,M,55.00,KLAS 100556Z 18009G17KT 10SM OVC070 13/01 A2998 RMK AO2 SLP147 60000 T01280011 10133 20100 56007,M
NFL,2023-01-10 05:56,-118.7010,39.4166,1199.00,37.00,35.00,92.76,190.00,7.00,0.07,29.84,1008.20,5.00,M,BKN,OVC,M,M,2000.00,3000.00,M,M,RA BR,M,M,M,M,M,M,30.87,KNFL 100556Z 19007KT 5SM RA BR BKN020 OVC030 03/02 A2984 RMK AO2 SLP082 WR// P0007 60020 T00280017 10072 20028 53016,M
TPH,2023-01-10 05:56,-117.0904,38.0505,1654.00,41.00,40.00,95.82,180.00,21.00,T,29.82,1008.60,10.00,29.00,BKN,OVC,M,M,900.00,1600.00,M,M,M,M,M,M,29.00,170.00,2023-01-10 05:56,30.86,KTPH 100556Z AUTO 18021G29KT 10SM BKN009 OVC016 05/04 A2982 RMK AO2 PK WND 17029/0556 RAE09 CIG 006V012 SLP086 P0000 60024 T00500044 10056 20044 58014,M
LSV,2023-01-10 06:02,-115.0343,36.2362,570.00,51.80,41.00,66.48,30.00,11.00,0.00,29.97,1014.50,10.00,M,OVC,M,M,M,6500.00,M,M,M,M,M,M,M,M,M,M,51.80,KLSV 100602Z AUTO 03011KT 10SM OVC065 11/05 A2997 RMK AO2 RAE0558DZB0558E02 SLP145 $,M
TPH,2023-01-10 06:02,-117.0904,38.0505,1654.00,41.00,40.00,95.82,180.00,19.00,0.00,29.81,M,10.00,29.00,SCT,OVC,M,M,900.00,1500.00,M,M,M,M,M,M,28.00,190.00,2023-01-10 06:02,31.34,KTPH 100602Z AUTO 18019G29KT 10SM SCT009 OVC015 05/04 A2981 RMK AO2 PK WND 19028/0602 T00500044,M
EKO,2023-01-10 06:05,-115.7860,40.8242,1367.00,36.00,34.00,92.35,0.00,0.00,0.00,29.80,M,10.00,M,BKN,OVC,M,M,1600.00,8500.00,M,M,M,M,M,M,M,M,M,36.00,KEKO 100605Z AUTO 00000KT 10SM BKN016 OVC085 02/01 A2980 RMK AO2 T00220011,M
ELY,2023-01-10 06:13,-114.8453,39.2950,1909.00,33.00,32.00,95.67,200.00,12.00,T,29.86,M,8.00,M,SCT,OVC,M,M,1800.00,3500.00,M,M,-SN,M,M,M,M,M,M,23.40,KELY 100613Z AUTO 20012KT 8SM -SN SCT018 OVC035 01/00 A2986 RMK AO2 P0000 T00060000,M
LSV,2023-01-10 06:14,-115.0343,36.2362,570.00,51.80,41.00,66.48,50.00,12.00,0.00,29.98,1014.90,10.00,19.00,OVC,M,M,M,6500.00,M,M,M,-RA,M,M,M,M,M,M,51.80,KLSV 100614Z AUTO 05012G19KT 10SM -RA OVC065 11/05 A2998 RMK AO2 RAE0558DZB0558E02RAB14 SLP149 $,M
BVU,2023-01-10 06:15,-114.8611,35.9475,671.00,57.20,32.00,38.26,160.00,17.00,0.00,30.01,M,10.00,23.00,FEW,BKN,OVC,M,6500.00,7500.00,8500.00,M,M,M,M,M,M,M,M,57.20,KBVU 100615Z AUTO 16017G23KT 10SM FEW065 BKN075 OVC085 14/M00 A3001 RMK AO2,M
CXP,2023-01-10 06:15,-119.7326,39.1923,1431.00,33.80,30.20,86.49,0.00,0.00,0.00,29.81,M,10.00,M,CLR,M,M,M,M,M,M,M,M,M,M,M,M,M,M,33.80,KCXP 100615Z AUTO 00000KT 10SM CLR 01/M01 A2981 RMK AO2,M
RTS,2023-01-10 06:15,-119.8764,39.6682,1539.00,26.60,23.00,86.07,320.00,3.00,0.00,29.80,M,10.00,M,CLR,M,M,M,M,M,M,M,M,M,M,M,M,M,M,22.52,KRTS 100615Z AUTO 32003KT 10SM CLR M03/M05 A2980 RMK AO2,M
05U,2023-01-10 06:15,-116.0051,39.6042,1811.23,33.80,33.80,100.00,0.00,0.00,0.00,29.82,M,2.50,M,OVC,M,M,M,200.00,M,M,M,BR,M,M,M,M,M,M,33.80,K05U 100615Z AUTO 00000KT 2 1/2SM BR OVC002 01/01 A2982 RMK A01,M
MEV,2023-01-10 06:15,-119.7500,38.9963,1441.42,32.00,30.20,92.97,0.00,0.00,0.00,29.80,M,10.00,M,CLR,M,M,M,M,M,M,M,M,M,M,M,M,M,M,32.00,KMEV 100615Z AUTO 00000KT 10SM CLR 00/M01 A2980 RMK AO2,M
BAM,2023-01-10 06:15,-116.8743,40.5990,1382.36,41.00,39.20,93.24,360.00,6.00,0.00,29.80,M,10.00,M,SCT,BKN,OVC,M,800.00,4700.00,6500.00,M,M,M,M,M,M,M,M,36.37,KBAM 100615Z AUTO 36006KT 10SM SCT008 BKN047 OVC065 05/04 A2980 RMK AO1,M
TMT,2023-01-10 06:15,-117.1971,39.4643,1749.34,33.00,32.20,97.22,340.00,4.00,0.00,29.78,M,10.00,M,OVC,M,M,M,2200.00,M,M,M,M,M,M,M,M,M,M,28.47,KTMT 100615Z AUTO 34004KT 10SM OVC022 01/00 A2978 RMK AO2 T00050001,M
LOL,2023-01-10 06:17,-118.5701,40.0684,1192.43,38.00,36.00,92.78,130.00,6.00,0.01,29.80,M,6.00,M,OVC,M,M,M,2500.00,M,M,M,RA BR,M,M,M,M,M,M,32.64,KLOL 100617Z AUTO 13006KT 6SM RA BR OVC025 03/02 A2980 RMK AO2 PRESFR P0001 T00330022,M
EKO,2023-01-10 06:18,-115.7860,40.8242,1367.00,36.00,33.00,89.09,70.00,7.00,0.00,29.79,M,10.00,M,SCT,OVC,M,M,1600.00,8500.00,M,M,M,M,M,M,M,M,M,29.65,KEKO 100618Z AUTO 07007KT 10SM SCT016 OVC085 02/01 A2979 RMK AO2 T00220006,M
INS,2023-01-10 06:20,-115.6733,36.5872,955.00,46.40,39.20,75.84,120.00,7.00,0.00,29.95,1013.00,10.00,M,SCT,OVC,M,M,5000.00,8000.00,M,M,M,M,M,M,M,M,M,42.33,KINS 100620Z AUTO 12007KT 10SM SCT050 OVC080 08/04 A2995 RMK AO2 RAE20 SLP130 $,M
TPH,2023-01-10 06:21,-117.0904,38.0505,1654.00,41.00,39.00,92.52,180.00,19.00,0.00,29.82,M,10.00,29.00,BKN,OVC,M,M,900.00,1500.00,M,M,M,M,M,M,29.00,170.00,2023-01-10 06:10,31.34,KTPH 100621Z AUTO 18019G29KT 10SM BKN009 OVC015 05/04 A2982 RMK AO2 PK WND 17029/0610 T00500039,M
BVU,2023-01-10 06:35,-114.8611,35.9475,671.00,57.20,32.00,38.26,160.00,14.00,0.00,30.01,M,10.00,M,OVC,M,M,M,7000.00,M,M,M,M,M,M,M,M,M,M,57.20,KBVU 100635Z AUTO 16014KT 10SM OVC070 14/M00 A3001 RMK AO2,M
CXP,2023-01-10 06:35,-119.7326,39.1923,1431.00,33.80,30.20,86.49,0.00,0.00,0.00,29.81,M,10.00,M,CLR,M,M,M,M,M,M,M,M,M,M,M,M,M,M,33.80,KCXP 100635Z AUTO 00000KT 10SM CLR 01/M01 A2981 RMK AO2,M
RTS,2023-01-10 06:35,-119.8764,39.6682,1539.00,26.60,23.00,86.07,0.00,0.00,0.00,29.79,M,10.00,M,CLR,M,M,M,M,M,M,M,M,M,M,M,M,M,M,26.60,KRTS 100635Z AUTO 00000KT 10SM CLR M03/M05 A2979 RMK AO2,M
05U,2023-01-10 06:35,-116.0051,39.6042,1811.23,33.80,33.80,100.00,0.00,0.00,0.00,29.81,M,9.00,M,FEW,SCT,BKN,M,200.00,1300.00,2100.00,M,M,M,M,M,M,M,M,33.80,K05U 100635Z AUTO 00000KT 9SM FEW002 SCT013 BKN021 01/01 A2981 RMK A01,M
MEV,2023-01-10 06:35,-119.7500,38.9963,1441.42,33.80,32.00,93.03,0.00,0.00,0.00,29.80,M,10.00,M,FEW,M,M,M,4500.00,M,M,M,M,M,M,M,M,M,M,33.80,KMEV 100635Z AUTO 00000KT 10SM FEW045 01/M00 A2980 RMK AO2,M
BAM,2023-01-10 06:35,-116.8743,40.5990,1382.36,41.00,39.20,93.24,0.00,0.00,0.00,29.81,M,10.00,M,SCT,BKN,OVC,M,800.00,3600.00,4800.00,M,M,M,M,M,M,M,M,41.00,KBAM 100635Z AUTO 00000KT 10SM SCT008 BKN036 OVC048 05/04 A2981 RMK AO1,M
TMT,2023-01-10 06:35,-117.1971,39.4643,1749.34,33.00,32.20,97.22,310.00,4.00,0.00,29.80,M,10.00,M,BKN,OVC,M,M,800.00,2000.00,M,M,M,M,M,M,M,M,M,28.47,KTMT 100635Z AUTO 31004KT 10SM BKN008 OVC020 01/00 A2980 RMK AO2 T00050001,M
ELY,2023-01-10 06:46,-114.8453,39.2950,1909.00,34.00,32.00,92.29,200.00,10.00,T,29.84,M,10.00,M,SCT,OVC,M,M,1600.00,2900.00,M,M,-RA,M,M,M,M,M,M,25.48,KELY 100646Z AUTO 20010KT 10SM -RA SCT016 OVC029 01/00 A2984 RMK AO2 UPB15E18RAB30SNE15B18E30 P0000 T00110000,M
LOL,2023-01-10 06:48,-118.5701,40.0684,1192.43,37.40,35.60,93.14,160.00,5.00,0.01,29.81,M,10.00,M,SCT,OVC,M,M,1700.00,3700.00,M,M,M,M,M,M,M,M,M,32.81,KLOL 100648Z AUTO 16005KT 10SM SCT017 OVC037 03/02 A2981 RMK AO2 RAE43 P0001,M
TPH,2023-01-10 06:48,-117.0904,38.0505,1654.00,41.00,40.00,95.82,180.00,14.00,0.00,29.83,M,10.00,23.00,BKN,OVC,M,M,1100.00,1400.00,M,M,M,M,M,M,29.00,170.00,2023-01-10 06:10,32.76,KTPH 100648Z AUTO 18014G23KT 10SM BKN011 OVC014 05/04 A2983 RMK AO2 PK WND 17029/0610 T00500044,M
P68,2023-01-10 06:53,-116.0056,39.6014,1993.00,35.00,32.00,88.33,M,6.00,0.01,29.77,1006.30,M,M,M,M,M,M,M,M,M,M,M,M,M,M,M,M,M,29.26,KP68 100653Z AUTO VRB06KT 02/00 A2977 RMK AO1 SLP063 P0001 T00170000,M
ELY,2023-01-10 06:53,-114.8453,39.2950,1909.00,34.00,32.00,92.29,190.00,10.00,0.01,29.84,1009.10,10.00,M,SCT,OVC,M,M,1500.00,2900.00,M,M,-RA,M,M,M,M,M,M,25.48,KELY 100653Z AUTO 19010KT 10SM -RA SCT015 OVC029 01/00 A2984 RMK AO2 UPB15E18RAB30SNE15B18E30 SLP091 P0001 T00110000,M
LOL,2023-01-10 06:53,-118.5701,40.0684,1192.43,37.00,36.00,96.13,180.00,5.00,0.01,29.81,1010.00,10.00,M,BKN,BKN,OVC,M,1700.00,3400.00,4100.00,M,M,M,M,M,M,M,M,32.33,KLOL 100653Z AUTO 18005KT 10SM BKN017 BKN034 OVC041 03/02 A2981 RMK AO2 RAE43 SLP100 P0001 T00280022,M
DRA,2023-01-10 06:53,-116.0278,36.6206,1009.00,52.00,42.00,68.86,180.00,25.00,0.00,29.91,1010.50,10.00,34.00,FEW,BKN,OVC,M,3800.00,5000.00,7000.00,M,M,M,M,M,39.00,180.00,2023-01-10 06:28,52.00,KDRA 100653Z AUTO 18025G34KT 10SM FEW038 BKN050 OVC070 11/06 A2991 RMK AO2 PK WND 18039/0628 SLP105 T01110056,M
VGT,2023-01-10 06:53,-115.1933,36.2111,667.00,51.00,43.00,73.69,0.00,0.00,0.02,30.00,1017.40,10.00,M,OVC,M,M,M,6000.00,M,M,M,-RA,M,M,M,M,M,M,51.10,KVGT 100653Z AUTO 00000KT 10SM -RA OVC060 11/06 A3000 RMK AO2 SLP174 P0002 T01060061,M
BVU,2023-01-10 06:55,-114.8611,35.9475,671.00,57.20,32.00,38.26,160.00,13.00,0.00,30.02,M,10.00,19.00,OVC,M,M,M,7000.00,M,M,M,M,M,M,M,M,M,M,57.20,KBVU 100655Z AUTO 16013G19KT 10SM OVC070 14/00 A3002 RMK AO2,M
CXP,2023-01-10 06:55,-119.7326,39.1923,1431.00,35.60,30.20,80.51,0.00,0.00,0.00,29.81,M,10.00,M,CLR,M,M,M,M,M,M,M,M,M,M,M,M,M,M,35.60,KCXP 100655Z AUTO 00000KT 10SM CLR 02/M01 A2981 RMK AO2,M
RNO,2023-01-10 06:55,-119.7711,39.4839,1341.00,36.00,28.90,75.15,240.00,8.00,0.00,29.79,1008.50,10.00,M,SCT,SCT,M,M,10000.00,18000.00,M,M,M,M,M,M,M,M,M,29.04,KRNO 100655Z 24008KT 10SM SCT100 SCT180 02/M02 A2979 RMK AO2 SLP085 T00221017,M
RTS,2023-01-10 06:55,-119.8764,39.6682,1539.00,24.80,21.20,85.96,30.00,3.00,0.00,29.79,M,10.00,M,CLR,M,M,M,M,M,M,M,M,M,M,M,M,M,M,20.46,KRTS 100655Z AUTO 03003KT 10SM CLR M04/M06 A2979 RMK AO2,M
05U,2023-01-10 06:55,-116.0051,39.6042,1811.23,35.60,35.60,100.00,80.00,10.00,0.01,29.79,M,10.00,15.00,SCT,BKN,OVC,M,2300.00,2800.00,4200.00,M,M,M,M,M,M,M,M,27.48,K05U 100655Z AUTO 08010G15KT 10SM SCT023 BKN028 OVC042 02/02 A2979 RMK A01 P0001,M
MEV,2023-01-10 06:55,-119.7500,38.9963,1441.42,32.00,30.20,92.97,0.00,0.00,0.00,29.79,M,10.00,M,SCT,SCT,M,M,4200.00,4700.00,M,M,M,M,M,M,M,M,M,32.00,KMEV 100655Z AUTO 00000KT 10SM SCT042 SCT047 00/M01 A2979 RMK AO2,M
BAM,2023-01-10 06:55,-116.8743,40.5990,1382.36,41.00,37.40,86.89,270.00,11.00,0.00,29.84,M,10.00,14.00,SCT,BKN,OVC,M,1600.00,2200.00,3600.00,M,M,M,M,M,M,M,M,33.84,KBAM 100655Z AUTO 27011G14KT 10SM SCT016 BKN022 OVC036 05/03 A2984 RMK AO1,M
TMT,2023-01-10 06:55,-117.1971,39.4643,1749.34,32.40,32.00,98.40,320.00,11.00,0.03,29.83,M,1.50,M,OVC,M,M,M,800.00,M,M,M,-SN,M,M,M,M,M,M,22.97,KTMT 100655Z AUTO 32011KT 1 1/2SM -SN OVC008 00/00 A2983 RMK AO2 P0003 T00020000,M
INS,2023-01-10 06:55,-115.6733,36.5872,955.00,46.40,38.80,74.67,100.00,8.00,0.01,29.94,1012.40,10.00,M,BKN,OVC,M,M,4800.00,6000.00,M,M,M,M,M,M,M,M,M,41.85,KINS 100655Z AUTO 10008KT 10SM BKN048 OVC060 08/04 A2994 RMK AO2 RAE20 SLP124 P0001 T00800038 $,M
LSV,2023-01-10 06:55,-115.0343,36.2362,570.00,50.40,39.70,66.57,60.00,3.00,T,29.98,1014.90,10.00,M,BKN,M,M,M,6000.00,M,M,M,-RA,M,M,M,M,M,M,50.40,KLSV 100655Z AUTO 06003KT 10SM -RA BKN060 10/04 A2998 RMK AO2 RAE0558DZB0558E02RAB14E15DZB15E17RAB17 SLP149 P0000 T01020043 $,M
WMC,2023-01-10 06:56,-117.8072,40.9019,1315.00,39.00,36.00,88.87,160.00,8.00,0.00,29.82,1009.50,10.00,M,SCT,OVC,M,M,2700.00,7500.00,M,M,M,M,M,M,M,M,M,32.74,KWMC 100656Z AUTO 16008KT 10SM SCT027 OVC075 04/02 A2982 RMK AO2 SLP095 T00390022,M
LAS,2023-01-10 06:56,-115.1634,36.0719,663.00,49.00,43.00,79.98,260.00,5.00,0.02,30.01,1016.00,8.00,M,OVC,M,M,M,5500.00,M,M,M,-RA,M,M,M,M,M,M,46.47,KLAS 100656Z 26005KT 8SM -RA OVC055 09/06 A3001 RMK AO2 RAB28 SLP160 MTNS OBSCURED DSNT SW-NW P0002 T00940061,M
NFL,2023-01-10 06:56,-118.7010,39.4166,1199.00,36.00,35.00,96.49,140.00,5.00,0.02,29.81,1007.30,10.00,M,BKN,OVC,M,M,2000.00,3000.00,M,M,M,M,M,M,M,M,M,31.15,KNFL 100656Z 14005KT 10SM BKN020 OVC030 02/02 A2981 RMK AO2 RAE33UPB33E35 SLP073 WR// P0002 T00220017,M
TPH,2023-01-10 06:56,-117.0904,38.0505,1654.00,41.00,40.00,95.82,200.00,15.00,0.00,29.84,1009.40,10.00,21.00,BKN,OVC,M,M,1100.00,1500.00,M,M,M,M,M,M,29.00,170.00,2023-01-10 06:10,32.45,KTPH 100656Z AUTO 20015G21KT 10SM BKN011 OVC015 05/04 A2984 RMK AO2 PK WND 17029/0610 SLP094 T00500044,M
HND,2023-01-10 06:56,-115.1344,35.9729,742.79,53.00,39.00,58.64,170.00,10.00,T,30.03,1018.40,9.00,M,OVC,M,M,M,6000.00,M,M,M,-RA,M,M,M,M,M,M,53.10,KHND 100656Z AUTO 17010KT 9SM -RA OVC060 12/04 A3003 RMK AO2 SLP184 P0000 T01170039 401390072,M
EKO,2023-01-10 06:56,-115.7860,40.8242,1367.00,35.00,33.00,92.32,100.00,5.00,0.00,29.79,1009.20,10.00,M,BKN,OVC,M,M,4400.00,7000.00,M,M,M,M,M,M,M,M,M,30.08,KEKO 100656Z AUTO 10005KT 10SM BKN044 OVC070 02/01 A2979 RMK AO2 SLP092 T00170006,M
NFL,2023-01-10 07:03,-118.7010,39.4166,1199.00,36.00,34.00,92.35,120.00,4.00,0.00,29.82,M,10.00,M,FEW,BKN,M,M,900.00,9000.00,M,M,M,M,M,M,M,M,M,32.09,KNFL 100703Z AUTO 12004KT 10SM FEW009 BKN090 02/01 A2982 RMK AO2 T00220011,M
LOL,2023-01-10 07:09,-118.5701,40.0684,1192.43,37.00,36.00,96.13,140.00,5.00,0.00,29.81,M,10.00,M,FEW,SCT,OVC,M,1100.00,1900.00,3400.00,M,M,M,M,M,M,M,M,32.33,KLOL 100709Z AUTO 14005KT 10SM FEW011 SCT019 OVC034 03/02 A2981 RMK AO2 T00280022,M
05U,2023-01-10 07:10,-116.0051,39.6042,1811.23,35.60,35.60,100.00,170.00,6.00,0.00,29.80,M,10.00,M,SCT,BKN,OVC,M,2700.00,3400.00,4100.00,M,M,M,M,M,M,M,M,29.87,K05U 100710Z AUTO 17006KT 10SM SCT027 BKN034 OVC041 02/02 A2980 RMK A01,M
ELY,2023-01-10 07:11,-114.8453,39.2950,1909.00,35.00,33.00,92.32,190.00,14.00,T,29.84,M,10.00,23.00,FEW,OVC,M,M,1500.00,3100.00,M,M,-RA,M,M,M,M,M,M,25.16,KELY 100711Z AUTO 19014G23KT 10SM -RA FEW015 OVC031 02/01 A2984 RMK AO2 P0000 T00170006,M
BVU,2023-01-10 07:15,-114.8611,35.9475,671.00,57.20,35.60,44.19,150.00,10.00,0.00,30.01,M,10.00,17.00,FEW,OVC,M,M,5000.00,6500.00,M,M,M,M,M,M,M,M,M,57.20,KBVU 100715Z AUTO 15010G17KT 10SM FEW050 OVC065 14/02 A3001 RMK AO2,M
CXP,2023-01-10 07:15,-119.7326,39.1923,1431.00,35.60,30.20,80.51,0.00,0.00,0.00,29.81,M,10.00,M,CLR,M,M,M,M,M,M,M,M,M,M,M,M,M,M,35.60,KCXP 100715Z AUTO 00000KT 10SM CLR 02/M01 A2981 RMK AO2,M
RTS,2023-01-10 07:15,-119.8764,39.6682,1539.00,24.80,21.20,85.96,0.00,0.00,0.00,29.81,M,10.00,M,CLR,M,M,M,M,M,M,M,M,M,M,M,M,M,M,24.80,KRTS 100715Z AUTO 00000KT 10SM CLR M04/M06 A2981 RMK AO2,M
MEV,2023-01-10 07:15,-119.7500,38.9963,1441.42,32.00,30.20,92.97,30.00,4.00,0.00,29.79,M,10.00,M,SCT,SCT,M,M,4400.00,5000.00,M,M,M,M,M,M,M,M,M,27.42,KMEV 100715Z AUTO 03004KT 10SM SCT044 SCT050 00/M01 A2979 RMK AO2,M
BAM,2023-01-10 07:15,-116.8743,40.5990,1382.36,37.40,35.60,93.14,280.00,7.00,0.00,29.84,M,7.00,M,BKN,OVC,M,M,1600.00,2100.00,M,M,M,M,M,M,M,M,M,31.36,KBAM 100715Z AUTO 28007KT 7SM BKN016 OVC021 03/02 A2984 RMK AO1,M
TMT,2023-01-10 07:15,-117.1971,39.4643,1749.34,32.00,32.00,100.00,320.00,4.00,0.04,29.85,M,0.75,M,OVC,M,M,M,800.00,M,M,M,SN,M,M,M,M,M,M,27.42,KTMT 100715Z AUTO 32004KT 3/4SM SN OVC008 00/00 A2985 RMK AO2 P0004 T00000000,M
LOL,2023-01-10 07:16,-118.5701,40.0684,1192.43,37.00,35.00,92.76,140.00,7.00,0.00,29.81,M,10.00,M,FEW,BKN,OVC,M,1100.00,1700.00,3100.00,M,M,M,M,M,M,M,M,30.87,KLOL 100716Z AUTO 14007KT 10SM FEW011 BKN017 OVC031 03/02 A2981 RMK AO2 T00280017,M
NFL,2023-01-10 07:17,-118.7010,39.4166,1199.00,36.00,34.00,92.35,130.00,9.00,0.00,29.81,M,10.00,15.00,FEW,BKN,OVC,M,1100.00,2100.00,9000.00,M,M,M,M,M,M,M,M,28.49,KNFL 100717Z AUTO 13009G15KT 10SM FEW011 BKN021 OVC090 02/01 A2981 RMK AO2 T00220011,M
NFL,2023-01-10 07:26,-118.7010,39.4166,1199.00,36.00,34.00,92.35,140.00,9.00,0.00,29.81,M,10.00,M,FEW,SCT,BKN,M,1100.00,2000.00,9500.00,M,M,M,M,M,M,M,M,28.49,KNFL 100726Z AUTO 14009KT 10SM FEW011 SCT020 BKN095 02/01 A2981 RMK AO2 T00220011,M
LSV,2023-01-10 07:28,-115.0343,36.2362,570.00,50.00,39.20,66.27,80.00,3.00,0.00,29.95,1013.80,10.00,M,FEW,M,M,M,6000.00,M,M,M,M,M,M,M,M,M,M,50.00,KLSV 100728Z AUTO 08003KT 10SM FEW060 10/04 A2995 RMK AO2 RAE00DZB00E02RAB02E28 SLP138 $,M
05U,2023-01-10 07:30,-116.0051,39.6042,1811.23,35.60,35.60,100.00,130.00,8.00,0.00,29.79,M,10.00,M,FEW,BKN,OVC,M,2700.00,3600.00,4700.00,M,M,M,M,M,M,M,M,28.55,K05U 100730Z AUTO 13008KT 10SM FEW027 BKN036 OVC047 02/02 A2979 RMK A01,M
CXP,2023-01-10 07:35,-119.7326,39.1923,1431.00,32.00,28.40,86.39,110.00,4.00,0.00,29.80,M,10.00,M,CLR,M,M,M,M,M,M,M,M,M,M,M,M,M,M,27.42,KCXP 100735Z AUTO 11004KT 10SM CLR 00/M02 A2980 RMK AO2,M
BVU,2023-01-10 07:35,-114.8611,35.9475,671.00,57.20,35.60,44.19,170.00,13.00,0.00,29.99,M,10.00,20.00,FEW,OVC,M,M,5000.00,6000.00,M,M,M,M,M,M,M,M,M,57.20,KBVU 100735Z AUTO 17013G20KT 10SM FEW050 OVC060 14/02 A2999 RMK AO2,M
RTS,2023-01-10 07:35,-119.8764,39.6682,1539.00,24.80,23.00,92.74,40.00,4.00,0.00,29.80,M,10.00,M,CLR,M,M,M,M,M,M,M,M,M,M,M,M,M,M,19.01,KRTS 100735Z AUTO 04004KT 10SM CLR M04/M05 A2980 RMK AO2,M
MEV,2023-01-10 07:35,-119.7500,38.9963,1441.42,30.20,28.40,92.92,50.00,6.00,0.00,29.79,M,10.00,M,FEW,SCT,M,M,3300.00,4400.00,M,M,M,M,M,M,M,M,M,23.36,KMEV 100735Z AUTO 05006KT 10SM FEW033 SCT044 M01/M02 A2979 RMK AO2,M
BAM,2023-01-10 07:35,-116.8743,40.5990,1382.36,35.60,33.80,93.08,280.00,10.00,0.00,29.87,M,7.00,M,OVC,M,M,M,1300.00,M,M,M,M,M,M,M,M,M,M,27.48,KBAM 100735Z AUTO 28010KT 7SM OVC013 02/01 A2987 RMK AO1,M
TMT,2023-01-10 07:35,-117.1971,39.4643,1749.34,32.00,32.00,100.00,320.00,7.00,0.06,29.87,M,1.50,M,OVC,M,M,M,800.00,M,M,M,-SN,M,M,M,M,M,M,24.78,KTMT 100735Z AUTO 32007KT 1 1/2SM -SN OVC008 00/00 A2987 RMK AO2 P0006 T00000000,M
EKO,2023-01-10 07:44,-115.7860,40.8242,1367.00,36.00,34.00,92.35,360.00,3.00,T,29.79,M,10.00,M,OVC,M,M,M,2700.00,M,M,M,-RA,M,M,M,M,M,M,33.26,KEKO 100744Z AUTO 36003KT 10SM -RA OVC027 02/01 A2979 RMK AO2 UPB25E27RAB27 P0000 T00220011,M
05U,2023-01-10 07:50,-116.0051,39.6042,1811.23,35.60,33.80,93.08,150.00,5.00,0.00,29.77,M,10.00,M,FEW,BKN,BKN,M,3800.00,4700.00,5500.00,M,M,M,M,M,M,M,M,30.67,K05U 100750Z AUTO 15005KT 10SM FEW038 BKN047 BKN055 02/01 A2977 RMK A01,M
P68,2023-01-10 07:53,-116.0056,39.6014,1993.00,36.00,32.00,85.23,140.00,4.00,0.00,29.75,1005.30,M,M,M,M,M,M,M,M,M,M,M,M,M,M,M,M,M,32.09,KP68 100753Z AUTO 14004KT 02/00 A2975 RMK AO1 SLP053 T00220000 400440000,M
DRA,2023-01-10 07:53,-116.0278,36.6206,1009.00,53.00,41.00,63.38,190.00,25.00,0.00,29.90,1010.20,10.00,39.00,BKN,OVC,M,M,3600.00,4400.00,M,M,M,M,M,M,39.00,230.00,2023-01-10 07:48,53.10,KDRA 100753Z AUTO 19025G39KT 10SM BKN036 OVC044 12/05 A2990 RMK AO2 PK WND 23039/0748 SLP102 T01170050 401440044,M
VGT,2023-01-10 07:53,-115.1933,36.2111,667.00,51.00,43.00,73.69,0.00,0.00,0.01,29.97,1016.30,10.00,M,FEW,SCT,BKN,M,6000.00,8000.00,9500.00,M,M,M,M,M,M,M,M,51.10,KVGT 100753Z AUTO 00000KT 10SM FEW060 SCT080 BKN095 11/06 A2997 RMK AO2 RAE36 SLP163 P0001 T01060061 401390083,M
LOL,2023-01-10 07:53,-118.5701,40.0684,1192.43,36.00,36.00,100.00,0.00,0.00,0.00,29.81,1010.00,10.00,M,OVC,M,M,M,1800.00,M,M,M,M,M,M,M,M,M,M,36.00,KLOL 100753Z AUTO 00000KT 10SM OVC018 02/02 A2981 RMK AO2 SLP100 T00220022 400720000,M
ELY,2023-01-10 07:53,-114.8453,39.2950,1909.00,35.00,32.00,88.33,160.00,23.00,0.01,29.78,1006.80,10.00,34.00,BKN,OVC,M,M,3200.00,10000.00,M,M,-RA,M,M,M,34.00,160.00,2023-01-10 07:48,22.48,KELY 100753Z AUTO 16023G34KT 10SM -RA BKN032 OVC100 02/00 A2978 RMK AO2 PK WND 16034/0748 SLP068 P0001 T00170000 400391022,M
BVU,2023-01-10 07:55,-114.8611,35.9475,671.00,55.40,33.80,43.90,170.00,9.00,0.00,29.99,M,10.00,15.00,BKN,BKN,BKN,M,6000.00,7500.00,11000.00,M,M,M,M,M,M,M,M,55.40,KBVU 100755Z AUTO 17009G15KT 10SM BKN060 BKN075 BKN110 13/01 A2999 RMK AO2,M
CXP,2023-01-10 07:55,-119.7326,39.1923,1431.00,32.00,28.40,86.39,100.00,5.00,0.00,29.80,M,10.00,M,CLR,M,M,M,M,M,M,M,M,M,M,M,M,M,M,26.40,KCXP 100755Z AUTO 10005KT 10SM CLR M00/M02 A2980 RMK AO2,M
RNO,2023-01-10 07:55,-119.7711,39.4839,1341.00,32.00,26.10,78.58,20.00,4.00,0.00,29.77,1008.00,10.00,M,FEW,M,M,M,6000.00,M,M,M,M,M,M,M,M,M,M,27.42,KRNO 100755Z 02004KT 10SM FEW060 00/M03 A2977 RMK AO2 SLP080 T00001033 400780000,M
RTS,2023-01-10 07:55,-119.8764,39.6682,1539.00,26.60,23.00,86.07,0.00,0.00,0.00,29.79,M,10.00,M,CLR,M,M,M,M,M,M,M,M,M,M,M,M,M,M,26.60,KRTS 100755Z AUTO 00000KT 10SM CLR M03/M05 A2979 RMK AO2,M
MEV,2023-01-10 07:55,-119.7500,38.9963,1441.42,32.00,28.40,86.39,20.00,5.00,0.00,29.77,M,10.00,M,FEW,SCT,SCT,M,4400.00,5000.00,6500.00,M,M,M,M,M,M,M,M,26.40,KMEV 100755Z AUTO 02005KT 10SM FEW044 SCT050 SCT065 00/M02 A2977 RMK AO2,M
BAM,2023-01-10 07:55,-116.8743,40.5990,1382.36,35.60,33.80,93.08,200.00,7.00,0.00,29.86,M,7.00,M,SCT,BKN,OVC,M,1000.00,1500.00,2600.00,M,M,M,M,M,M,M,M,29.17,KBAM 100755Z AUTO 20007KT 7SM SCT010 BKN015 OVC026 02/01 A2986 RMK AO1,M
TMT,2023-01-10 07:55,-117.1971,39.4643,1749.34,32.00,32.00,100.00,300.00,5.00,0.08,29.92,M,1.00,M,OVC,M,M,M,600.00,M,M,M,SN,M,M,M,M,M,M,26.40,KTMT 100755Z AUTO 30005KT 1SM SN OVC006 00/00 A2992 RMK AO2 P0008 T00000000 400471040,M
INS,2023-01-10 07:55,-115.6733,36.5872,955.00,48.60,39.20,69.82,140.00,16.00,0.00,29.93,1012.10,10.00,26.00,OVC,M,M,M,4700.00,M,M,M,M,M,M,M,26.00,130.00,2023-01-10 07:44,42.05,KINS 100755Z AUTO 14016G26KT 10SM OVC047 09/04 A2993 RMK AO2 PK WND 13026/44 SLP121 T00920040 401040024 $,M
LSV,2023-01-10 07:55,-115.0343,36.2362,570.00,50.20,40.50,69.19,360.00,3.00,T,29.95,1013.80,10.00,M,BKN,M,M,M,6000.00,M,M,M,M,M,M,M,M,M,M,50.20,KLSV 100755Z AUTO 36003KT 10SM BKN060 10/05 A2995 RMK AO2 RAE00DZB00E02RAB02E28 SLP138 P0000 T01010047 401540077 $,M
NFL,2023-01-10 07:56,-118.7010,39.4166,1199.00,36.00,34.00,92.35,150.00,14.00,0.00,29.81,1007.40,10.00,M,OVC,M,M,M,8500.00,M,M,M,M,M,M,M,M,M,M,26.32,KNFL 100756Z AUTO 15014KT 10SM OVC085 02/01 A2981 RMK AO2 SLP074 T00220011 400780022,M
HND,2023-01-10 07:56,-115.1344,35.9729,742.79,53.00,41.00,63.38,140.00,5.00,T,29.99,1016.90,10.00,M,BKN,OVC,M,M,5500.00,7000.00,M,M,M,M,M,M,M,M,M,53.10,KHND 100756Z AUTO 14005KT 10SM BKN055 OVC070 12/05 A2999 RMK AO2 RAE34 SLP169 P0000 T01170050,M
TPH,2023-01-10 07:56,-117.0904,38.0505,1654.00,41.00,40.00,95.82,210.00,15.00,0.02,29.86,1010.20,10.00,M,BKN,OVC,M,M,1000.00,1400.00,M,M,-RA,M,M,M,30.00,190.00,2023-01-10 07:15,32.45,KTPH 100756Z AUTO 21015KT 10SM -RA BKN010 OVC014 05/04 A2986 RMK AO2 PK WND 19030/0715 RAB21 SLP102 P0002 T00500044 400560017,M
EKO,2023-01-10 07:56,-115.7860,40.8242,1367.00,35.00,34.00,95.71,340.00,5.00,0.01,29.78,1009.00,8.00,M,OVC,M,M,M,2100.00,M,M,M,-RA,M,M,M,M,M,M,30.08,KEKO 100756Z AUTO 34005KT 8SM -RA OVC021 02/01 A2978 RMK AO2 UPB25E27RAB27 SLP090 P0001 T00170011 400441028,M
WMC,2023-01-10 07:56,-117.8072,40.9019,1315.00,38.00,33.00,82.66,160.00,15.00,T,29.79,1008.50,10.00,M,FEW,SCT,SCT,M,2300.00,4600.00,6000.00,M,-RA,M,M,M,M,M,M,28.43,KWMC 100756Z AUTO 16015KT 10SM -RA FEW023 SCT046 SCT060 03/01 A2979 RMK AO2 RAB22 SLP085 P0000 T00330006 400720011,M
LAS,2023-01-10 07:56,-115.1634,36.0719,663.00,51.00,49.00,92.14,140.00,3.00,0.01,29.97,1014.60,9.00,M,BKN,OVC,M,M,6000.00,9500.00,M,M,M,M,M,M,M,M,M,51.10,KLAS 100756Z 14003KT 9SM BKN060 OVC095 11/09 A2997 RMK AO2 RAE34 SLP146 P0001 T01060094 401330083,M
CXP,2023-01-10 08:10,-119.7326,39.1923,1431.00,33.80,28.40,80.36,290.00,7.00,0.00,29.79,M,10.00,M,CLR,M,M,M,M,M,M,M,M,M,M,M,M,M,M,26.97,KCXP 100810Z AUTO 29007KT 10SM CLR 01/M02 A2979 RMK AO2,M
05U,2023-01-10 08:10,-116.0051,39.6042,1811.23,35.60,33.80,93.08,70.00,5.00,0.00,29.77,M,10.00,M,BKN,OVC,M,M,4000.00,4600.00,M,M,M,M,M,M,M,M,M,30.67,K05U 100810Z AUTO 07005KT 10SM BKN040 OVC046 02/01 A2977 RMK A01,M
BVU,2023-01-10 08:15,-114.8611,35.9475,671.00,57.20,33.80,41.13,160.00,20.00,0.00,29.98,M,10.00,M,SCT,BKN,M,M,6500.00,9500.00,M,M,M,M,M,M,M,M,M,57.20,KBVU 100815Z AUTO 16020KT 10SM SCT065 BKN095 14/01 A2998 RMK AO2,M
RTS,2023-01-10 08:15,-119.8764,39.6682,1539.00,24.80,21.20,85.96,M,3.00,0.00,29.77,M,10.00,10.00,FEW,M,M,M,5000.00,M,M,M,M,M,M,M,M,M,M,20.46,KRTS 100815Z AUTO VRB03G10KT 10SM FEW050 M04/M06 A2977 RMK AO2,M
MEV,2023-01-10 08:15,-119.7500,38.9963,1441.42,30.20,28.40,92.92,350.00,4.00,0.00,29.77,M,10.00,M,FEW,FEW,SCT,M,4000.00,4900.00,7000.00,M,M,M,M,M,M,M,M,25.32,KMEV 100815Z AUTO 35004KT 10SM FEW040 FEW049 SCT070 M01/M02 A2977 RMK AO2,M
BAM,2023-01-10 08:15,-116.8743,40.5990,1382.36,33.80,33.80,100.00,190.00,7.00,0.00,29.86,M,10.00,M,SCT,OVC,M,M,1700.00,2600.00,M,M,M,M,M,M,M,M,M,26.97,KBAM 100815Z AUTO 19007KT 10SM SCT017 OVC026 01/01 A2986 RMK AO1,M
TMT,2023-01-10 08:15,-117.1971,39.4643,1749.34,32.00,31.80,99.20,70.00,4.00,0.02,29.87,M,0.75,M,OVC,M,M,M,800.00,M,M,M,SN,M,M,M,M,M,M,27.42,KTMT 100815Z AUTO 07004KT 3/4SM SN OVC008 00/00 A2987 RMK AO2 P0002 T00001001,M
ELY,2023-01-10 08:29,-114.8453,39.2950,1909.00,34.00,32.00,92.29,180.00,17.00,T,29.81,M,10.00,31.00,FEW,OVC,M,M,1900.00,2800.00,M,M,-RA,M,M,M,35.00,160.00,2023-01-10 08:15,22.70,KELY 100829Z AUTO 18017G31KT 10SM -RA FEW019 OVC028 01/00 A2981 RMK AO2 PK WND 16035/0815 P0000 T00110000,M
05U,2023-01-10 08:30,-116.0051,39.6042,1811.23,35.60,33.80,93.08,0.00,0.00,0.00,29.77,M,10.00,M,FEW,OVC,M,M,3400.00,4100.00,M,M,M,M,M,M,M,M,M,35.60,K05U 100830Z AUTO 00000KT 10SM FEW034 OVC041 02/01 A2977 RMK A01,M
TPH,2023-01-10 08:31,-117.0904,38.0505,1654.00,41.00,40.00,95.82,210.00,13.00,0.03,29.86,M,8.00,M,BKN,OVC,M,M,900.00,1500.00,M,M,-RA,M,M,M,M,M,M,33.10,KTPH 100831Z AUTO 21013KT 8SM -RA BKN009 OVC015 05/04 A2986 RMK AO2 P0003 T00500044 $,M
BVU,2023-01-10 08:35,-114.8611,35.9475,671.00,57.20,32.00,38.26,160.00,17.00,0.00,29.98,M,10.00,23.00,SCT,BKN,M,M,7500.00,9000.00,M,M,M,M,M,M,M,M,M,57.20,KBVU 100835Z AUTO 16017G23KT 10SM SCT075 BKN090 14/00 A2998 RMK AO2,M
CXP,2023-01-10 08:35,-119.7326,39.1923,1431.00,32.00,28.40,86.39,0.00,0.00,0.00,29.78,M,10.00,M,CLR,M,M,M,M,M,M,M,M,M,M,M,M,M,M,32.00,KCXP 100835Z AUTO 00000KT 10SM CLR M00/M02 A2978 RMK AO2,M
RTS,2023-01-10 08:35,-119.8764,39.6682,1539.00,30.20,23.00,74.26,330.00,7.00,0.00,29.77,M,10.00,M,SCT,M,M,M,4800.00,M,M,M,M,M,M,M,M,M,M,22.59,KRTS 100835Z AUTO 33007KT 10SM SCT048 M01/M05 A2977 RMK AO2,M
MEV,2023-01-10 08:35,-119.7500,38.9963,1441.42,30.20,28.40,92.92,50.00,6.00,0.00,29.76,M,10.00,M,FEW,SCT,BKN,M,4100.00,4800.00,6000.00,M,M,M,M,M,M,M,M,23.36,KMEV 100835Z AUTO 05006KT 10SM FEW041 SCT048 BKN060 M01/M02 A2976 RMK AO2,M
BAM,2023-01-10 08:35,-116.8743,40.5990,1382.36,35.60,33.80,93.08,170.00,7.00,0.00,29.86,M,10.00,M,SCT,BKN,OVC,M,2100.00,2800.00,3400.00,M,M,M,M,M,M,M,M,29.17,KBAM 100835Z AUTO 17007KT 10SM SCT021 BKN028 OVC034 02/01 A2986 RMK AO1,M
TMT,2023-01-10 08:35,-117.1971,39.4643,1749.34,32.00,32.00,100.00,0.00,0.00,0.06,29.88,M,0.75,M,OVC,M,M,M,600.00,M,M,M,-SN,M,M,M,M,M,M,32.00,KTMT 100835Z AUTO 00000KT 3/4SM -SN OVC006 00/00 A2988 RMK AO2 P0006 T00000000,M
EKO,2023-01-10 08:51,-115.7860,40.8242,1367.00,33.80,30.20,86.49,230.00,6.00,0.08,29.81,M,2.50,M,OVC,M,M,M,1400.00,M,M,M,-SN BR,M,M,M,M,M,M,27.70,KEKO 100851Z AUTO 23006KT 2 1/2SM -SN BR OVC014 01/M01 A2981 RMK AO2 RAE44SNB44 P0008,M
P68,2023-01-10 08:53,-116.0056,39.6014,1993.00,35.00,30.90,84.49,270.00,13.00,0.00,29.78,1006.60,M,23.00,M,M,M,M,M,M,M,M,M,M,M,M,M,M,M,25.54,KP68 100853Z AUTO 27013G23KT 02/M01 A2978 RMK AO1 PRESRR SLP066 60001 T00171006 55007,M
ELY,2023-01-10 08:53,-114.8453,39.2950,1909.00,35.00,32.00,88.33,160.00,19.00,T,29.80,1007.40,10.00,29.00,SCT,BKN,OVC,M,1700.00,2600.00,3400.00,M,-RA,M,M,M,35.00,160.00,2023-01-10 08:15,23.54,KELY 100853Z AUTO 16019G29KT 10SM -RA SCT017 BKN026 OVC034 02/00 A2980 RMK AO2 PK WND 16035/0815 SLP074 P0000 60002 T00170000 55020,M
DRA,2023-01-10 08:53,-116.0278,36.6206,1009.00,53.00,42.00,66.13,210.00,20.00,0.00,29.91,1010.50,10.00,34.00,OVC,M,M,M,3300.00,M,M,M,M,M,M,M,38.00,200.00,2023-01-10 08:23,53.10,KDRA 100853Z AUTO 21020G34KT 10SM OVC033 12/06 A2991 RMK AO2 PK WND 20038/0823 SLP105 T01170056 55003,M
VGT,2023-01-10 08:53,-115.1933,36.2111,667.00,51.00,42.00,71.19,90.00,5.00,0.00,29.95,1015.70,10.00,M,BKN,OVC,M,M,7500.00,8500.00,M,M,M,M,M,M,M,M,M,51.10,KVGT 100853Z AUTO 09005KT 10SM BKN075 OVC085 11/06 A2995 RMK AO2 SLP157 60003 T01060056 58010,M
LOL,2023-01-10 08:53,-118.5701,40.0684,1192.43,35.00,35.00,100.00,280.00,5.00,0.00,29.81,1010.00,10.00,M,OVC,M,M,M,2400.00,M,M,M,M,M,M,M,M,M,M,30.08,KLOL 100853Z AUTO 28005KT 10SM OVC024 02/02 A2981 RMK AO2 SLP100 60001 T00170017 58002,M
EKO,2023-01-10 08:54,-115.7860,40.8242,1367.00,33.80,30.20,86.49,230.00,6.00,0.08,29.82,M,1.75,M,FEW,OVC,M,M,800.00,1200.00,M,M,-SN BR,M,M,M,M,M,M,27.70,KEKO 100854Z AUTO 23006KT 1 3/4SM -SN BR FEW008 OVC012 01/M01 A2982 RMK AO2 RAE44SNB44 P0008,M
BVU,2023-01-10 08:55,-114.8611,35.9475,671.00,57.20,32.00,38.26,160.00,16.00,0.00,29.99,M,10.00,M,BKN,BKN,M,M,7000.00,8500.00,M,M,M,M,M,M,M,M,M,57.20,KBVU 100855Z AUTO 16016KT 10SM BKN070 BKN085 14/M00 A2999 RMK AO2,M
CXP,2023-01-10 08:55,-119.7326,39.1923,1431.00,32.00,28.40,86.39,100.00,9.00,0.00,29.78,M,10.00,14.00,FEW,FEW,M,M,4700.00,6000.00,M,M,M,M,M,M,M,M,M,23.51,KCXP 100855Z AUTO 10009G14KT 10SM FEW047 FEW060 M00/M02 A2978 RMK AO2,M
RNO,2023-01-10 08:55,-119.7711,39.4839,1341.00,30.90,27.00,85.26,320.00,4.00,0.00,29.75,1007.40,10.00,M,FEW,FEW,M,M,6000.00,20000.00,M,M,M,M,M,M,M,M,M,26.14,KRNO 100855Z 32004KT 10SM FEW060 FEW200 M01/M03 A2975 RMK AO2 SLP074 T10061028 58007,M
RTS,2023-01-10 08:55,-119.8764,39.6682,1539.00,30.20,23.00,74.26,0.00,0.00,0.00,29.76,M,10.00,M,SCT,M,M,M,4700.00,M,M,M,M,M,M,M,M,M,M,30.20,KRTS 100855Z AUTO 00000KT 10SM SCT047 M01/M05 A2976 RMK AO2,M
05U,2023-01-10 08:55,-116.0051,39.6042,1811.23,35.60,33.80,93.08,290.00,10.00,0.02,29.82,M,2.50,17.00,FEW,SCT,BKN,M,300.00,2000.00,3500.00,M,BR,M,M,M,M,M,M,27.48,K05U 100855Z AUTO 29010G17KT 2 1/2SM BR FEW003 SCT020 BKN035 02/01 A2982 RMK A01 P0002,M
MEV,2023-01-10 08:55,-119.7500,38.9963,1441.42,32.00,28.40,86.39,0.00,0.00,0.00,29.76,M,10.00,M,FEW,SCT,OVC,M,3300.00,4600.00,6000.00,M,M,M,M,M,M,M,M,32.00,KMEV 100855Z AUTO 00000KT 10SM FEW033 SCT046 OVC060 M00/M02 A2976 RMK AO2,M
BAM,2023-01-10 08:55,-116.8743,40.5990,1382.36,35.60,33.80,93.08,150.00,11.00,0.00,29.83,M,10.00,M,BKN,OVC,M,M,2800.00,3600.00,M,M,M,M,M,M,M,M,M,27.02,KBAM 100855Z AUTO 15011KT 10SM BKN028 OVC036 02/01 A2983 RMK AO1,M
TMT,2023-01-10 08:55,-117.1971,39.4643,1749.34,31.80,31.60,99.20,0.00,0.00,0.06,29.87,M,4.00,M,SCT,BKN,OVC,M,600.00,1900.00,5000.00,M,-SN,M,M,M,M,M,M,31.80,KTMT 100855Z AUTO 00000KT 4SM -SN SCT006 BKN019 OVC050 00/00 A2987 RMK AO2 P0006 60017 T10011002,M
INS,2023-01-10 08:55,-115.6733,36.5872,955.00,50.20,40.00,68.12,200.00,12.00,0.00,29.92,1011.50,10.00,21.00,BKN,OVC,M,M,5000.00,7000.00,M,M,M,M,M,M,M,M,M,50.20,KINS 100855Z AUTO 20012G21KT 10SM BKN050 OVC070 10/05 A2992 RMK AO2 SLP115 60000 T01010045 55009 $,M
LSV,2023-01-10 08:55,-115.0343,36.2362,570.00,52.00,44.00,73.78,70.00,8.00,0.00,29.94,1013.40,10.00,M,BKN,M,M,M,7500.00,M,M,M,M,M,M,M,M,M,M,52.00,KLSV 100855Z AUTO 07008KT 10SM BKN075 11/07 A2994 RMK AO2 SLP134 60000 T01110066 58009 $,M
EKO,2023-01-10 08:56,-115.7860,40.8242,1367.00,33.00,30.90,91.51,230.00,6.00,0.08,29.82,1010.20,1.50,M,FEW,OVC,M,M,800.00,1200.00,M,M,-SN BR,M,M,M,M,M,M,26.86,KEKO 100856Z AUTO 23006KT 1 1/2SM -SN BR FEW008 OVC012 01/M01 A2982 RMK AO2 RAE44SNB44 SLP102 P0008 60009 T00061006 53005,M
WMC,2023-01-10 08:56,-117.8072,40.9019,1315.00,36.00,32.00,85.23,170.00,6.00,T,29.80,1008.90,10.00,M,SCT,M,M,M,4200.00,M,M,M,M,M,M,M,M,M,M,30.35,KWMC 100856Z AUTO 17006KT 10SM SCT042 02/00 A2980 RMK AO2 RAE0758 SLP089 P0000 60000 T00220000 51006,M
HND,2023-01-10 08:56,-115.1344,35.9729,742.79,54.00,39.00,56.74,170.00,12.00,0.00,29.99,1016.80,10.00,M,BKN,BKN,M,M,7500.00,9000.00,M,M,M,M,M,M,M,M,M,54.00,KHND 100856Z AUTO 17012KT 10SM BKN075 BKN090 12/04 A2999 RMK AO2 SLP168 60000 T01220039 58003,M
LAS,2023-01-10 08:56,-115.1634,36.0719,663.00,55.00,41.00,59.13,190.00,9.00,0.00,29.96,1014.00,9.00,16.00,FEW,OVC,M,M,6000.00,9000.00,M,M,M,M,M,M,M,M,M,55.00,KLAS 100856Z 19009G16KT 9SM FEW060 OVC090 13/05 A2996 RMK AO2 SLP140 60003 T01280050 58006,M
TPH,2023-01-10 08:56,-117.0904,38.0505,1654.00,41.00,40.00,95.82,200.00,6.00,0.03,29.86,1010.00,10.00,M,BKN,OVC,M,M,900.00,1400.00,M,M,M,M,M,M,M,M,M,36.37,KTPH 100856Z AUTO 20006KT 10SM BKN009 OVC014 05/04 A2986 RMK AO2 RAE45 SLP100 P0003 60005 T00500044 51013 $,M
NFL,2023-01-10 08:56,-118.7010,39.4166,1199.00,35.00,33.00,92.32,150.00,10.00,0.00,29.80,1006.80,10.00,M,CLR,M,M,M,M,M,M,M,M,M,M,M,M,M,M,26.86,KNFL 100856Z AUTO 15010KT 10SM CLR 02/01 A2980 RMK AO2 SLP068 60002 T00170006 56014,M
P68,2023-01-10 09:01,-116.0056,39.6014,1993.00,35.00,30.90,84.49,290.00,11.00,0.04,29.82,M,M,M,M,M,M,M,M,M,M,M,M,M,M,M,M,M,M,26.38,KP68 100901Z AUTO 29011KT 02/M01 A2982 RMK AO1 WSHFT 0844 PRESRR P0004 T00171006,M
05U,2023-01-10 09:10,-116.0051,39.6042,1811.23,33.80,32.00,93.03,290.00,21.00,0.00,29.87,M,M,28.00,M,M,M,M,M,M,M,M,M,M,M,M,M,M,M,21.25,K05U 100910Z AUTO 29021G28KT 01/00 A2987 RMK A01,M
TPH,2023-01-10 09:10,-117.0904,38.0505,1654.00,40.00,39.00,96.55,190.00,11.00,0.00,29.86,M,10.00,M,FEW,OVC,M,M,800.00,1100.00,M,M,M,M,M,M,M,M,M,32.45,KTPH 100910Z AUTO 19011KT 10SM FEW008 OVC011 04/04 A2986 RMK AO2 T00440039 $,M
BVU,2023-01-10 09:15,-114.8611,35.9475,671.00,57.20,30.20,35.57,170.00,16.00,0.00,30.00,M,10.00,M,BKN,OVC,M,M,7500.00,8500.00,M,M,M,M,M,M,M,M,M,57.20,KBVU 100915Z AUTO 17016KT 10SM BKN075 OVC085 14/M01 A3000 RMK AO2,M
CXP,2023-01-10 09:15,-119.7326,39.1923,1431.00,33.80,28.40,80.36,0.00,0.00,0.00,29.77,M,10.00,13.00,FEW,FEW,BKN,M,4100.00,4800.00,6000.00,M,M,M,M,M,M,M,M,33.80,KCXP 100915Z AUTO 00000G13KT 10SM FEW041 FEW048 BKN060 01/M02 A2977 RMK AO2,M
RTS,2023-01-10 09:15,-119.8764,39.6682,1539.00,26.60,23.00,86.07,0.00,0.00,0.00,29.75,M,10.00,M,SCT,M,M,M,4800.00,M,M,M,M,M,M,M,M,M,M,26.60,KRTS 100915Z AUTO 00000KT 10SM SCT048 M03/M05 A2975 RMK AO2,M
MEV,2023-01-10 09:15,-119.7500,38.9963,1441.42,35.60,30.20,80.51,M,5.00,0.00,29.76,M,10.00,M,FEW,BKN,OVC,M,4400.00,5500.00,7500.00,M,M,M,M,M,M,M,M,30.67,KMEV 100915Z AUTO VRB05KT 10SM FEW044 BKN055 OVC075 02/M01 A2976 RMK AO2,M
BAM,2023-01-10 09:15,-116.8743,40.5990,1382.36,35.60,33.80,93.08,140.00,6.00,0.00,29.83,M,10.00,M,SCT,SCT,BKN,M,2000.00,2900.00,10000.00,M,M,M,M,M,M,M,M,29.87,KBAM 100915Z AUTO 14006KT 10SM SCT020 SCT029 BKN100 02/01 A2983 RMK AO1,M
TMT,2023-01-10 09:15,-117.1971,39.4643,1749.34,31.60,31.60,100.00,130.00,3.00,0.00,29.86,M,5.00,M,SCT,BKN,OVC,M,1400.00,3100.00,4100.00,M,-SN,M,M,M,M,M,M,28.23,KTMT 100915Z AUTO 13003KT 5SM -SN SCT014 BKN031 OVC041 00/00 A2986 RMK AO2 T10021002,M
EKO,2023-01-10 09:16,-115.7860,40.8242,1367.00,33.00,32.00,95.67,210.00,7.00,0.04,29.84,M,0.75,M,VV ,M,M,M,900.00,M,M,M,-SN BR,M,M,M,M,M,M,26.12,KEKO 100916Z AUTO 21007KT 3/4SM -SN BR VV009 01/00 A2984 RMK AO2 P0004 T00060000,M
EKO,2023-01-10 09:32,-115.7860,40.8242,1367.00,33.00,32.00,95.67,210.00,5.00,0.09,29.85,M,1.50,M,OVC,M,M,M,700.00,M,M,M,-SN BR,M,M,M,M,M,M,27.70,KEKO 100932Z AUTO 21005KT 1 1/2SM -SN BR OVC007 01/00 A2985 RMK AO2 P0009 T00060000,M
BVU,2023-01-10 09:35,-114.8611,35.9475,671.00,55.40,30.20,37.97,170.00,11.00,0.00,30.00,M,10.00,18.00,SCT,SCT,SCT,M,8000.00,8500.00,12000.00,M,M,M,M,M,M,M,M,55.40,KBVU 100935Z AUTO 17011G18KT 10SM SCT080 SCT085 SCT120 13/M01 A3000 RMK AO2,M
CXP,2023-01-10 09:35,-119.7326,39.1923,1431.00,32.00,28.40,86.39,70.00,8.00,0.00,29.77,M,10.00,M,FEW,SCT,BKN,M,4100.00,9500.00,11000.00,M,M,M,M,M,M,M,M,24.11,KCXP 100935Z AUTO 07008KT 10SM FEW041 SCT095 BKN110 00/M02 A2977 RMK AO2,M
RTS,2023-01-10 09:35,-119.8764,39.6682,1539.00,28.40,23.00,79.92,130.00,3.00,0.00,29.74,M,10.00,M,SCT,SCT,M,M,5000.00,12000.00,M,M,M,M,M,M,M,M,M,24.57,KRTS 100935Z AUTO 13003KT 10SM SCT050 SCT120 M02/M05 A2974 RMK AO2,M
05U,2023-01-10 09:35,-116.0051,39.6042,1811.23,33.80,32.00,93.03,330.00,8.00,0.00,29.88,M,1.00,16.00,M,M,M,M,M,M,M,M,BR,M,M,M,M,M,M,26.33,K05U 100935Z AUTO 33008G16KT 1SM BR 01/00 A2988 RMK A01,M
MEV,2023-01-10 09:35,-119.7500,38.9963,1441.42,35.60,30.20,80.51,330.00,9.00,0.00,29.73,M,10.00,M,SCT,BKN,OVC,M,4300.00,5500.00,11000.00,M,M,M,M,M,M,M,M,27.99,KMEV 100935Z AUTO 33009KT 10SM SCT043 BKN055 OVC110 02/M01 A2973 RMK AO2,M
BAM,2023-01-10 09:35,-116.8743,40.5990,1382.36,33.80,33.80,100.00,160.00,3.00,0.00,29.84,M,10.00,M,BKN,M,M,M,10000.00,M,M,M,M,M,M,M,M,M,M,30.75,KBAM 100935Z AUTO 16003KT 10SM BKN100 01/01 A2984 RMK AO1,M
TMT,2023-01-10 09:35,-117.1971,39.4643,1749.34,31.50,31.50,100.00,0.00,0.00,0.00,29.86,M,4.00,M,SCT,BKN,OVC,M,1400.00,2100.00,2900.00,M,-SN,M,M,M,M,M,M,31.50,KTMT 100935Z AUTO 00000KT 4SM -SN SCT014 BKN021 OVC029 00/00 A2986 RMK AO2 T10031003,M
ELY,2023-01-10 09:48,-114.8453,39.2950,1909.00,33.80,32.00,93.03,160.00,23.00,T,29.80,M,10.00,33.00,SCT,BKN,OVC,M,1900.00,5000.00,7000.00,M,-RA,M,M,M,36.00,150.00,2023-01-10 09:23,20.73,KELY 100948Z AUTO 16023G33KT 10SM -RA SCT019 BKN050 OVC070 01/00 A2980 RMK AO2 PK WND 15036/0923 P0000,M
TPH,2023-01-10 09:48,-117.0904,38.0505,1654.00,40.00,39.00,96.55,150.00,6.00,0.00,29.88,M,10.00,M,SCT,BKN,OVC,M,1300.00,2000.00,3200.00,M,M,M,M,M,M,M,M,35.04,KTPH 100948Z AUTO 15006KT 10SM SCT013 BKN020 OVC032 04/04 A2988 RMK AO2 T00440039 $,M
P68,2023-01-10 09:53,-116.0056,39.6014,1993.00,33.00,30.90,91.51,30.00,5.00,0.07,29.85,1009.60,M,M,M,M,M,M,M,M,M,M,M,M,M,M,27.00,290.00,2023-01-10 09:19,27.70,KP68 100953Z AUTO 03005KT 01/M01 A2985 RMK AO1 PK WND 29027/0919 SLP096 P0007 T00061006 $,M
ELY,2023-01-10 09:53,-114.8453,39.2950,1909.00,34.00,32.00,92.29,160.00,24.00,T,29.81,1007.50,8.00,35.00,SCT,OVC,M,M,1900.00,3500.00,M,M,-SN,M,M,M,36.00,150.00,2023-01-10 09:23,20.76,KELY 100953Z AUTO 16024G35KT 8SM -SN SCT019 OVC035 01/00 A2981 RMK AO2 PK WND 15036/0923 RAE53SNB53 SLP075 P0000 T00110000,M
VGT,2023-01-10 09:53,-115.1933,36.2111,667.00,55.00,41.00,59.13,0.00,0.00,T,29.96,1015.90,10.00,M,BKN,OVC,M,M,6500.00,8000.00,M,M,-RA,M,M,M,M,M,M,55.00,KVGT 100953Z AUTO 00000KT 10SM -RA BKN065 OVC080 13/05 A2996 RMK AO2 RAB48 SLP159 P0000 T01280050,M
LOL,2023-01-10 09:53,-118.5701,40.0684,1192.43,34.00,34.00,100.00,320.00,3.00,0.00,29.81,1009.90,10.00,M,BKN,M,M,M,2300.00,M,M,M,M,M,M,M,M,M,M,30.97,KLOL 100953Z AUTO 32003KT 10SM BKN023 01/01 A2981 RMK AO2 SLP099 T00110011,M
DRA,2023-01-10 09:53,-116.0278,36.6206,1009.00,54.00,42.00,63.98,210.00,19.00,0.00,29.93,1011.10,10.00,33.00,OVC,M,M,M,3400.00,M,M,M,M,M,M,M,39.00,190.00,2023-01-10 09:43,54.00,KDRA 100953Z AUTO 21019G33KT 10SM OVC034 12/06 A2993 RMK AO2 PK WND 19039/0943 SLP111 T01220056,M
EKO,2023-01-10 09:54,-115.7860,40.8242,1367.00,33.80,32.00,93.03,140.00,6.03,M,29.84,M,1.50,M,SCT,OVC,M,M,498.00,1000.00,M,M,-SN BR,M,M,M,M,M,M,27.68,SPECI KEKO 100954Z 14006KT 1 1/2SM -SN BR SCT005 OVC010 01/00 A2984 RMK AO2 P0012 FIBI,M
BVU,2023-01-10 09:55,-114.8611,35.9475,671.00,55.40,30.20,37.97,170.00,17.00,0.00,29.99,M,10.00,25.00,SCT,M,M,M,12000.00,M,M,M,M,M,M,M,M,M,M,55.40,KBVU 100955Z AUTO 17017G25KT 10SM SCT120 13/M01 A2999 RMK AO2,M
CXP,2023-01-10 09:55,-119.7326,39.1923,1431.00,33.80,30.20,86.49,80.00,7.00,0.00,29.75,M,10.00,M,FEW,SCT,BKN,M,7500.00,9000.00,11000.00,M,M,M,M,M,M,M,M,26.97,KCXP 100955Z AUTO 08007KT 10SM FEW075 SCT090 BKN110 01/M01 A2975 RMK AO2,M
RNO,2023-01-10 09:55,-119.7711,39.4839,1341.00,30.00,26.10,85.21,0.00,0.00,0.00,29.72,1006.40,10.00,M,FEW,SCT,M,M,6000.00,18000.00,M,M,M,M,M,M,M,M,M,30.00,KRNO 100955Z 00000KT 10SM FEW060 SCT180 M01/M03 A2972 RMK AO2 SLP064 T10111033,M
RTS,2023-01-10 09:55,-119.8764,39.6682,1539.00,28.40,23.00,79.92,M,6.00,0.00,29.74,M,10.00,M,FEW,BKN,BKN,M,4500.00,5000.00,6500.00,M,M,M,M,M,M,M,M,21.19,KRTS 100955Z AUTO VRB06KT 10SM FEW045 BKN050 BKN065 M02/M05 A2974 RMK AO2,M
05U,2023-01-10 09:55,-116.0051,39.6042,1811.23,33.80,32.00,93.03,40.00,4.00,0.02,29.88,M,4.00,M,M,M,M,M,M,M,M,M,BR,M,M,M,M,M,M,29.52,K05U 100955Z AUTO 04004KT 4SM BR 01/00 A2988 RMK A01 P0002,M
MEV,2023-01-10 09:55,-119.7500,38.9963,1441.42,33.80,30.20,86.49,70.00,5.00,0.00,29.73,M,10.00,M,FEW,SCT,BKN,M,5500.00,7000.00,9000.00,M,M,M,M,M,M,M,M,28.53,KMEV 100955Z AUTO 07005KT 10SM FEW055 SCT070 BKN090 01/M01 A2973 RMK AO2,M
BAM,2023-01-10 09:55,-116.8743,40.5990,1382.36,33.80,33.80,100.00,0.00,0.00,0.00,29.84,M,10.00,M,OVC,M,M,M,10000.00,M,M,M,M,M,M,M,M,M,M,33.80,KBAM 100955Z AUTO 00000KT 10SM OVC100 01/01 A2984 RMK AO1,M
TMT,2023-01-10 09:55,-117.1971,39.4643,1749.34,31.10,31.10,100.00,0.00,0.00,0.01,29.86,M,2.50,M,SCT,OVC,M,M,1800.00,2300.00,M,M,-SN,M,M,M,M,M,M,31.10,KTMT 100955Z AUTO 00000KT 2 1/2SM -SN SCT018 OVC023 00/00 A2986 RMK AO2 P0001 T10051005,M
INS,2023-01-10 09:55,-115.6733,36.5872,955.00,55.20,38.80,53.88,220.00,20.00,0.00,29.93,1011.50,10.00,26.00,CLR,M,M,M,M,M,M,M,M,M,M,M,28.00,210.00,2023-01-10 09:25,55.20,KINS 100955Z AUTO 22020G26KT 10SM CLR 13/04 A2993 RMK AO2 PK WND 21028/25 SLP115 T01290038 $,M
LSV,2023-01-10 09:55,-115.0343,36.2362,570.00,55.20,40.30,57.13,170.00,7.00,0.00,29.94,1013.10,10.00,M,OVC,M,M,M,7000.00,M,M,M,M,M,M,M,M,M,M,55.20,KLSV 100955Z AUTO 17007KT 10SM OVC070 13/05 A2994 RMK AO2 SLP131 T01290046 $,M
EKO,2023-01-10 09:56,-115.7860,40.8242,1367.00,33.00,32.00,95.67,130.00,6.00,0.12,29.84,1011.00,1.75,M,SCT,OVC,M,M,500.00,1200.00,M,M,-SN BR,M,M,M,M,M,M,26.86,KEKO 100956Z AUTO 13006KT 1 3/4SM -SN BR SCT005 OVC012 01/00 A2984 RMK AO2 SLP110 P0012 T00060000,M
NFL,2023-01-10 09:56,-118.7010,39.4166,1199.00,37.00,34.00,88.78,140.00,7.00,0.00,29.78,1006.30,10.00,M,FEW,BKN,M,M,4700.00,6000.00,M,M,M,M,M,M,M,M,M,30.87,KNFL 100956Z AUTO 14007KT 10SM FEW047 BKN060 03/01 A2978 RMK AO2 SLP063 T00280011,M
HND,2023-01-10 09:56,-115.1344,35.9729,742.79,54.00,36.00,50.42,170.00,16.00,0.00,29.99,1016.70,10.00,M,BKN,OVC,M,M,8000.00,11000.00,M,M,M,M,M,M,M,M,M,54.00,KHND 100956Z AUTO 17016KT 10SM BKN080 OVC110 12/02 A2999 RMK AO2 SLP167 T01220022,M
TPH,2023-01-10 09:56,-117.0904,38.0505,1654.00,40.00,39.00,96.55,130.00,6.00,0.00,29.88,1010.80,10.00,M,BKN,BKN,OVC,M,1500.00,2200.00,2700.00,M,M,M,M,M,M,M,M,35.04,KTPH 100956Z AUTO 13006KT 10SM BKN015 BKN022 OVC027 04/04 A2988 RMK AO2 SLP108 T00440039 $,M
WMC,2023-01-10 09:56,-117.8072,40.9019,1315.00,37.00,33.00,85.64,180.00,10.00,0.00,29.79,1008.50,10.00,M,OVC,M,M,M,4300.00,M,M,M,M,M,M,M,M,M,M,29.24,KWMC 100956Z AUTO 18010KT 10SM OVC043 03/01 A2979 RMK AO2 SLP085 T00280006,M
LAS,2023-01-10 09:56,-115.1634,36.0719,663.00,55.00,38.00,52.40,200.00,9.00,0.00,29.96,1013.90,10.00,17.00,SCT,OVC,M,M,5500.00,7500.00,M,M,M,M,M,M,M,M,M,55.00,KLAS 100956Z 20009G17KT 10SM SCT055 OVC075 13/03 A2996 RMK AO2 SLP139 TOPS OF MTNS OBSCURED DSNT SW-NW T01280033,M
ELY,2023-01-10 10:02,-114.8453,39.2950,1909.00,34.00,32.00,92.29,160.00,21.00,T,29.81,M,4.00,32.00,FEW,OVC,M,M,1700.00,2500.00,M,M,-SN BR,M,M,M,32.00,170.00,2023-01-10 09:55,21.52,KELY 101002Z AUTO 16021G32KT 4SM -SN BR FEW017 OVC025 01/00 A2981 RMK AO2 PK WND 17032/0955 P0000 T00110000,M
EKO,2023-01-10 10:03,-115.7860,40.8242,1367.00,33.00,32.00,95.67,100.00,4.00,0.01,29.83,M,3.00,M,FEW,OVC,M,M,500.00,1500.00,M,M,-SN BR,M,M,M,M,M,M,28.70,KEKO 101003Z AUTO 10004KT 3SM -SN BR FEW005 OVC015 01/00 A2983 RMK AO2 P0001 T00060000,M
TPH,2023-01-10 10:04,-117.0904,38.0505,1654.00,40.00,39.00,96.55,150.00,9.00,0.00,29.88,M,10.00,M,SCT,BKN,OVC,M,800.00,1500.00,2700.00,M,M,M,M,M,M,M,M,33.34,KTPH 101004Z AUTO 15009KT 10SM SCT008 BKN015 OVC027 04/04 A2988 RMK AO2 T00440039 $,M
05U,2023-01-10 10:10,-116.0051,39.6042,1811.23,33.80,32.00,93.03,0.00,0.00,0.00,29.89,M,9.00,M,M,M,M,M,M,M,M,M,M,M,M,M,M,M,M,33.80,K05U 101010Z AUTO 00000KT 9SM 01/00 A2989 RMK A01,M
TPH,2023-01-10 10:12,-117.0904,38.0505,1654.00,40.00,39.00,96.55,150.00,8.00,0.00,29.88,M,10.00,M,BKN,BKN,OVC,M,1000.00,1700.00,2200.00,M,M,M,M,M,M,M,M,33.84,KTPH 101012Z AUTO 15008KT 10SM BKN010 BKN017 OVC022 04/04 A2988 RMK AO2 CIG 008V012 T00440039 $,M
BVU,2023-01-10 10:15,-114.8611,35.9475,671.00,57.20,30.20,35.57,180.00,19.00,0.00,29.99,M,10.00,26.00,FEW,BKN,M,M,7500.00,12000.00,M,M,M,M,M,M,M,M,M,57.20,KBVU 101015Z AUTO 18019G26KT 10SM FEW075 BKN120 14/M01 A2999 RMK AO2,M
CXP,2023-01-10 10:15,-119.7326,39.1923,1431.00,32.00,28.40,86.39,70.00,15.00,0.00,29.76,M,10.00,M,FEW,BKN,M,M,9000.00,11000.00,M,M,M,M,M,M,M,M,M,20.78,KCXP 101015Z AUTO 07015KT 10SM FEW090 BKN110 M00/M02 A2976 RMK AO2,M
RTS,2023-01-10 10:15,-119.8764,39.6682,1539.00,28.40,23.00,79.92,0.00,0.00,0.00,29.72,M,10.00,M,SCT,BKN,M,M,5500.00,11000.00,M,M,M,M,M,M,M,M,M,28.40,KRTS 101015Z AUTO 00000KT 10SM SCT055 BKN110 M02/M05 A2972 RMK AO2,M
MEV,2023-01-10 10:15,-119.7500,38.9963,1441.42,37.40,32.00,80.65,130.00,12.00,0.00,29.75,M,10.00,M,FEW,SCT,BKN,M,2400.00,5000.00,6500.00,M,M,M,M,M,M,M,M,28.87,KMEV 101015Z AUTO 13012KT 10SM FEW024 SCT050 BKN065 03/00 A2975 RMK AO2,M
BAM,2023-01-10 10:15,-116.8743,40.5990,1382.36,33.80,33.80,100.00,200.00,5.00,0.00,29.84,M,10.00,M,BKN,M,M,M,9000.00,M,M,M,M,M,M,M,M,M,M,28.53,KBAM 101015Z AUTO 20005KT 10SM BKN090 01/01 A2984 RMK AO1,M
TMT,2023-01-10 10:15,-117.1971,39.4643,1749.34,30.00,29.80,99.19,0.00,0.00,0.00,29.85,M,7.00,M,SCT,BKN,OVC,M,1300.00,2400.00,6500.00,M,M,M,M,M,M,M,M,30.00,KTMT 101015Z AUTO 00000KT 7SM SCT013 BKN024 OVC065 M01/M01 A2985 RMK AO2 T10111012,M
EKO,2023-01-10 10:29,-115.7860,40.8242,1367.00,34.00,32.00,92.29,90.00,4.00,0.01,29.82,M,10.00,M,FEW,SCT,BKN,M,800.00,7000.00,10000.00,M,M,M,M,M,M,M,M,29.76,KEKO 101029Z AUTO 09004KT 10SM FEW008 SCT070 BKN100 01/00 A2982 RMK AO2 SNE15 P0001 T00110000,M
05U,2023-01-10 10:30,-116.0051,39.6042,1811.23,33.80,32.00,93.03,0.00,0.00,0.00,29.89,M,10.00,M,M,M,M,M,M,M,M,M,M,M,M,M,M,M,M,33.80,K05U 101030Z AUTO 00000KT 10SM 01/00 A2989 RMK A01,M
BVU,2023-01-10 10:35,-114.8611,35.9475,671.00,55.40,30.20,37.97,180.00,17.00,0.00,29.99,M,10.00,24.00,SCT,SCT,M,M,7500.00,9500.00,M,M,M,M,M,M,M,M,M,55.40,KBVU 101035Z AUTO 18017G24KT 10SM SCT075 SCT095 13/M01 A2999 RMK AO2,M
CXP,2023-01-10 10:35,-119.7326,39.1923,1431.00,33.80,30.20,86.49,110.00,8.00,0.00,29.75,M,10.00,13.00,FEW,SCT,BKN,M,5500.00,6500.00,7500.00,M,M,M,M,M,M,M,M,26.33,KCXP 101035Z AUTO 11008G13KT 10SM FEW055 SCT065 BKN075 01/M01 A2975 RMK AO2,M
RTS,2023-01-10 10:35,-119.8764,39.6682,1539.00,30.20,21.20,68.83,M,3.00,0.00,29.72,M,10.00,M,FEW,FEW,SCT,M,5500.00,7500.00,8500.00,M,M,M,M,M,M,M,M,26.63,KRTS 101035Z AUTO VRB03KT 10SM FEW055 FEW075 SCT085 M01/M06 A2972 RMK AO2,M
MEV,2023-01-10 10:35,-119.7500,38.9963,1441.42,37.40,32.00,80.65,200.00,6.00,0.00,29.74,M,10.00,11.00,FEW,BKN,OVC,M,3100.00,4300.00,6000.00,M,M,M,M,M,M,M,M,32.03,KMEV 101035Z AUTO 20006G11KT 10SM FEW031 BKN043 OVC060 03/M00 A2974 RMK AO2,M
BAM,2023-01-10 10:35,-116.8743,40.5990,1382.36,33.80,33.80,100.00,230.00,4.00,0.00,29.84,M,10.00,M,BKN,BKN,M,M,4000.00,9000.00,M,M,M,M,M,M,M,M,M,29.52,KBAM 101035Z AUTO 23004KT 10SM BKN040 BKN090 01/01 A2984 RMK AO1,M
TMT,2023-01-10 10:35,-117.1971,39.4643,1749.34,27.10,27.00,99.59,0.00,0.00,0.00,29.85,M,0.50,M,BKN,OVC,M,M,100.00,700.00,M,M,FZFG,M,M,M,M,M,M,27.10,KTMT 101035Z AUTO 00000KT 1/2SM FZFG BKN001 OVC007 M03/M03 A2985 RMK AO2 T10271028,M
05U,2023-01-10 10:50,-116.0051,39.6042,1811.23,33.80,32.00,93.03,0.00,0.00,0.00,29.89,M,10.00,M,M,M,M,M,M,M,M,M,M,M,M,M,M,M,M,33.80,K05U 101050Z AUTO 00000KT 10SM 01/00 A2989 RMK A01,M
P68,2023-01-10 10:53,-116.0056,39.6014,1993.00,32.00,30.90,95.65,150.00,4.00,0.00,29.87,1010.20,M,M,M,M,M,M,M,M,M,M,M,M,M,M,M,M,M,27.42,KP68 101053Z AUTO 15004KT 00/M01 A2987 RMK AO1 SLP102 T00001006 $,M
DRA,2023-01-10 10:53,-116.0278,36.6206,1009.00,54.00,41.00,61.32,180.00,21.00,0.00,29.92,1010.60,10.00,40.00,OVC,M,M,M,3600.00,M,M,M,M,M,M,M,40.00,210.00,2023-01-10 10:50,54.00,KDRA 101053Z AUTO 18021G40KT 10SM OVC036 12/05 A2992 RMK AO2 PK WND 21040/1050 SLP106 T01220050,M
VGT,2023-01-10 10:53,-115.1933,36.2111,667.00,54.00,41.00,61.32,50.00,7.00,T,29.96,1015.80,10.00,M,OVC,M,M,M,6000.00,M,M,M,M,M,M,M,M,M,M,54.00,KVGT 101053Z AUTO 05007KT 10SM OVC060 12/05 A2996 RMK AO2 RAE13 SLP158 P0000 T01220050,M
LOL,2023-01-10 10:53,-118.5701,40.0684,1192.43,32.00,32.00,100.00,50.00,5.00,0.00,29.77,1008.80,10.00,M,SCT,M,M,M,2200.00,M,M,M,M,M,M,M,M,M,M,26.40,KLOL 101053Z AUTO 05005KT 10SM SCT022 00/00 A2977 RMK AO2 SLP088 T00000000,M
ELY,2023-01-10 10:53,-114.8453,39.2950,1909.00,35.00,33.00,92.32,170.00,16.00,0.02,29.83,1008.10,10.00,28.00,BKN,OVC,M,M,1500.00,3500.00,M,M,-RA,M,M,M,32.00,170.00,2023-01-10 09:55,24.46,KELY 101053Z AUTO 17016G28KT 10SM -RA BKN015 OVC035 02/01 A2983 RMK AO2 PK WND 17032/0955 RAB07SNE07 SLP081 P0002 T00170006,M
BVU,2023-01-10 10:55,-114.8611,35.9475,671.00,55.40,32.00,40.84,180.00,13.00,0.00,29.99,M,10.00,20.00,FEW,SCT,SCT,M,6500.00,7500.00,9000.00,M,M,M,M,M,M,M,M,55.40,KBVU 101055Z AUTO 18013G20KT 10SM FEW065 SCT075 SCT090 13/M00 A2999 RMK AO2,M
CXP,2023-01-10 10:55,-119.7326,39.1923,1431.00,33.80,30.20,86.49,70.00,10.00,0.00,29.73,M,10.00,M,BKN,OVC,M,M,5500.00,7000.00,M,M,M,M,M,M,M,M,M,25.23,KCXP 101055Z AUTO 07010KT 10SM BKN055 OVC070 01/M01 A2973 RMK AO2,M
RNO,2023-01-10 10:55,-119.7711,39.4839,1341.00,30.00,26.10,85.21,210.00,5.00,0.00,29.71,1005.80,10.00,M,FEW,FEW,BKN,M,6000.00,12000.00,23000.00,M,M,M,M,M,M,M,M,24.02,KRNO 101055Z 21005KT 10SM FEW060 FEW120 BKN230 M01/M03 A2971 RMK AO2 SLP058 T10111033,M
RTS,2023-01-10 10:55,-119.8764,39.6682,1539.00,26.60,21.20,79.77,10.00,5.00,0.00,29.71,M,10.00,M,SCT,M,M,M,9000.00,M,M,M,M,M,M,M,M,M,M,19.98,KRTS 101055Z AUTO 01005KT 10SM SCT090 M03/M06 A2971 RMK AO2,M
MEV,2023-01-10 10:55,-119.7500,38.9963,1441.42,35.60,32.00,86.59,0.00,0.00,0.00,29.73,M,10.00,M,FEW,SCT,BKN,M,2700.00,3900.00,5000.00,M,M,M,M,M,M,M,M,35.60,KMEV 101055Z AUTO 00000KT 10SM FEW027 SCT039 BKN050 02/M00 A2973 RMK AO2,M
BAM,2023-01-10 10:55,-116.8743,40.5990,1382.36,33.80,33.80,100.00,230.00,4.00,0.00,29.84,M,10.00,M,OVC,M,M,M,4000.00,M,M,M,M,M,M,M,M,M,M,29.52,KBAM 101055Z AUTO 23004KT 10SM OVC040 01/01 A2984 RMK AO1,M
TMT,2023-01-10 10:55,-117.1971,39.4643,1749.34,26.40,26.10,98.77,0.00,0.00,0.00,29.85,M,0.75,M,BKN,OVC,M,M,100.00,700.00,M,M,-SN,M,M,M,M,M,M,26.40,KTMT 101055Z AUTO 00000KT 3/4SM -SN BKN001 OVC007 M03/M03 A2985 RMK AO2 T10311033,M
INS,2023-01-10 10:55,-115.6733,36.5872,955.00,56.00,37.80,50.15,210.00,21.00,0.00,29.91,1011.00,10.00,M,CLR,M,M,M,M,M,M,M,M,M,M,M,27.00,230.00,2023-01-10 10:35,56.10,KINS 101055Z AUTO 21021KT 10SM CLR 13/03 A2991 RMK AO2 PK WND 23027/35 SLP110 T01340032 $,M
LSV,2023-01-10 10:55,-115.0343,36.2362,570.00,54.30,39.40,57.00,0.00,0.00,0.00,29.95,1013.50,10.00,M,OVC,M,M,M,6000.00,M,M,M,M,M,M,M,M,M,M,54.30,KLSV 101055Z AUTO 00000KT 10SM OVC060 12/04 A2995 RMK AO2 SLP135 T01240041 $,M
EKO,2023-01-10 10:56,-115.7860,40.8242,1367.00,34.00,32.00,92.29,0.00,0.00,0.01,29.83,1010.80,10.00,M,FEW,OVC,M,M,1300.00,10000.00,M,M,M,M,M,M,M,M,M,34.00,KEKO 101056Z AUTO 00000KT 10SM FEW013 OVC100 01/00 A2983 RMK AO2 SNE15 SLP108 P0001 T00110000,M
WMC,2023-01-10 10:56,-117.8072,40.9019,1315.00,35.00,30.90,84.49,190.00,8.00,0.00,29.79,1008.40,10.00,M,CLR,M,M,M,M,M,M,M,M,M,M,M,M,M,M,27.93,KWMC 101056Z AUTO 19008KT 10SM CLR 02/M01 A2979 RMK AO2 SLP084 T00171006,M
HND,2023-01-10 10:56,-115.1344,35.9729,742.79,53.00,36.00,52.11,160.00,15.00,0.00,29.98,1016.40,10.00,19.00,BKN,M,M,M,9000.00,M,M,M,M,M,M,M,M,M,M,53.10,KHND 101056Z AUTO 16015G19KT 10SM BKN090 12/02 A2998 RMK AO2 SLP164 T01170022,M
LAS,2023-01-10 10:56,-115.1634,36.0719,663.00,54.00,36.00,50.42,190.00,9.00,0.00,29.95,1013.70,10.00,M,FEW,OVC,M,M,4500.00,8500.00,M,M,M,M,M,M,M,M,M,54.00,KLAS 101056Z 19009KT 10SM FEW045 OVC085 12/02 A2995 RMK AO2 SLP137 SHRA OBSCURES MTNS DSNT W-N T01220022,M
NFL,2023-01-10 10:56,-118.7010,39.4166,1199.00,36.00,33.00,89.09,140.00,6.00,0.00,29.77,1005.90,10.00,M,CLR,M,M,M,M,M,M,M,M,M,M,M,M,M,M,30.35,KNFL 101056Z AUTO 14006KT 10SM CLR 02/01 A2977 RMK AO2 SLP059 T00220006,M
TPH,2023-01-10 10:56,-117.0904,38.0505,1654.00,40.00,39.00,96.55,150.00,4.00,0.00,29.87,1010.70,10.00,M,OVC,M,M,M,1200.00,M,M,M,M,M,M,M,M,M,M,36.65,KTPH 101056Z AUTO 15004KT 10SM OVC012 04/04 A2987 RMK AO2 SLP107 T00440039 $,M
ELY,2023-01-10 11:00,-114.8453,39.2950,1909.00,36.00,33.00,93.08,190.00,11.00,T,29.85,M,10.00,25.00,SCT,BKN,OVC,M,1500.00,3300.00,4200.00,M,M,M,M,M,M,M,M,27.02,KELY 101100Z AUTO 19011G25KT 10SM SCT015 BKN033 OVC042 02/01 A2985 RMK AO2 RAE1057 PRESRR P0000 T00220006,M
LOL,2023-01-10 11:02,-118.5701,40.0684,1192.43,32.00,32.00,100.00,40.00,4.00,0.00,29.77,M,10.00,M,BKN,M,M,M,2300.00,M,M,M,M,M,M,M,M,M,M,27.42,KLOL 101102Z AUTO 04004KT 10SM BKN023 00/00 A2977 RMK AO2 T00000000,M
EKO,2023-01-10 11:06,-115.7860,40.8242,1367.00,34.00,30.90,88.27,20.00,3.00,0.00,29.83,M,10.00,M,FEW,BKN,OVC,M,900.00,1300.00,9500.00,M,M,M,M,M,M,M,M,30.97,KEKO 101106Z AUTO 02003KT 10SM FEW009 BKN013 OVC095 01/M01 A2983 RMK AO2 T00111006,M
TPH,2023-01-10 11:08,-117.0904,38.0505,1654.00,39.00,38.00,95.78,180.00,4.00,0.00,29.88,M,10.00,M,OVC,M,M,M,1500.00,M,M,M,M,M,M,M,M,M,M,35.59,KTPH 101108Z AUTO 18004KT 10SM OVC015 04/03 A2988 RMK AO2 T00390033 $,M
LOL,2023-01-10 11:13,-118.5701,40.0684,1192.43,32.00,32.00,100.00,0.00,0.00,0.00,29.77,M,10.00,M,FEW,M,M,M,2300.00,M,M,M,M,M,M,M,M,M,M,32.00,KLOL 101113Z AUTO 00000KT 10SM FEW023 00/00 A2977 RMK AO2 T00000000,M
BVU,2023-01-10 11:15,-114.8611,35.9475,671.00,55.40,30.20,37.97,180.00,15.00,0.00,29.98,M,10.00,M,FEW,BKN,M,M,7500.00,10000.00,M,M,M,M,M,M,M,M,M,55.40,KBVU 101115Z AUTO 18015KT 10SM FEW075 BKN100 13/M01 A2998 RMK AO2,M
CXP,2023-01-10 11:15,-119.7326,39.1923,1431.00,32.00,30.20,92.97,80.00,14.00,0.00,29.74,M,10.00,M,FEW,SCT,BKN,M,4400.00,5500.00,6500.00,M,M,M,M,M,M,M,M,21.16,KCXP 101115Z AUTO 08014KT 10SM FEW044 SCT055 BKN065 00/M01 A2974 RMK AO2,M
RTS,2023-01-10 11:15,-119.8764,39.6682,1539.00,26.60,23.00,86.07,80.00,4.00,0.00,29.71,M,10.00,M,SCT,BKN,BKN,M,6000.00,6500.00,8500.00,M,M,M,M,M,M,M,M,21.11,KRTS 101115Z AUTO 08004KT 10SM SCT060 BKN065 BKN085 M03/M05 A2971 RMK AO2,M
05U,2023-01-10 11:15,-116.0051,39.6042,1811.23,32.00,32.00,100.00,0.00,0.00,0.00,29.88,M,10.00,M,M,M,M,M,M,M,M,M,M,M,M,M,M,M,M,32.00,K05U 101115Z AUTO 00000KT 10SM 00/00 A2988 RMK A01,M
MEV,2023-01-10 11:15,-119.7500,38.9963,1441.42,33.80,32.00,93.03,0.00,0.00,0.00,29.71,M,10.00,M,FEW,SCT,BKN,M,3900.00,4800.00,5500.00,M,M,M,M,M,M,M,M,33.80,KMEV 101115Z AUTO 00000KT 10SM FEW039 SCT048 BKN055 01/M00 A2971 RMK AO2,M
BAM,2023-01-10 11:15,-116.8743,40.5990,1382.36,33.80,33.80,100.00,140.00,5.00,0.00,29.84,M,10.00,M,OVC,M,M,M,3400.00,M,M,M,M,M,M,M,M,M,M,28.53,KBAM 101115Z AUTO 14005KT 10SM OVC034 01/01 A2984 RMK AO1,M
TMT,2023-01-10 11:15,-117.1971,39.4643,1749.34,25.90,25.30,97.54,0.00,0.00,0.00,29.84,M,0.75,M,OVC,M,M,M,200.00,M,M,M,BR,M,M,M,M,M,M,25.90,KTMT 101115Z AUTO 00000KT 3/4SM BR OVC002 M03/M04 A2984 RMK AO2 T10341037,M
ELY,2023-01-10 11:17,-114.8453,39.2950,1909.00,36.00,33.00,89.09,M,M,0.01,29.87,M,5.00,M,FEW,BKN,OVC,M,1500.00,2600.00,3100.00,M,-RA BR,M,M,M,M,M,M,M,KELY 101117Z AUTO 5SM -RA BR FEW015 BKN026 OVC031 02/01 A2987 RMK AO2 RAE1057B05 PRESRR P0001 T00220006,M
05U,2023-01-10 11:30,-116.0051,39.6042,1811.23,32.00,32.00,100.00,0.00,0.00,0.00,29.88,M,10.00,M,M,M,M,M,M,M,M,M,M,M,M,M,M,M,M,32.00,K05U 101130Z AUTO 00000KT 10SM M00/M00 A2988 RMK A01,M
BVU,2023-01-10 11:35,-114.8611,35.9475,671.00,55.40,32.00,40.84,190.00,14.00,0.00,29.98,M,10.00,M,SCT,M,M,M,9500.00,M,M,M,M,M,M,M,M,M,M,55.40,KBVU 101135Z AUTO 19014KT 10SM SCT095 13/M00 A2998 RMK AO2,M
CXP,2023-01-10 11:35,-119.7326,39.1923,1431.00,33.80,30.20,86.49,70.00,8.00,0.00,29.71,M,10.00,17.00,FEW,SCT,BKN,M,3700.00,4500.00,5000.00,M,M,M,M,M,M,M,M,26.33,KCXP 101135Z AUTO 07008G17KT 10SM FEW037 SCT045 BKN050 01/M01 A2971 RMK AO2,M
RTS,2023-01-10 11:35,-119.8764,39.6682,1539.00,32.00,24.80,74.44,70.00,7.00,0.00,29.69,M,10.00,M,BKN,OVC,M,M,4700.00,5500.00,M,M,M,M,M,M,M,M,M,24.78,KRTS 101135Z AUTO 07007KT 10SM BKN047 OVC055 M00/M04 A2969 RMK AO2,M
MEV,2023-01-10 11:35,-119.7500,38.9963,1441.42,33.80,32.00,93.03,0.00,0.00,0.00,29.69,M,10.00,M,FEW,BKN,OVC,M,4800.00,5500.00,6500.00,M,M,M,M,M,M,M,M,33.80,KMEV 101135Z AUTO 00000KT 10SM FEW048 BKN055 OVC065 01/M00 A2969 RMK AO2,M
BAM,2023-01-10 11:35,-116.8743,40.5990,1382.36,33.80,33.80,100.00,130.00,4.00,0.00,29.84,M,10.00,M,BKN,OVC,M,M,3400.00,9500.00,M,M,M,M,M,M,M,M,M,29.52,KBAM 101135Z AUTO 13004KT 10SM BKN034 OVC095 01/01 A2984 RMK AO1,M
TMT,2023-01-10 11:35,-117.1971,39.4643,1749.34,23.40,22.80,97.51,0.00,0.00,0.00,29.82,M,0.50,M,OVC,M,M,M,200.00,M,M,M,FZFG,M,M,M,M,M,M,23.40,KTMT 101135Z AUTO 00000KT 1/2SM FZFG OVC002 M05/M05 A2982 RMK AO2 T10481051,M
TPH,2023-01-10 11:39,-117.0904,38.0505,1654.00,38.00,37.00,96.52,170.00,8.00,0.00,29.86,M,10.00,M,SCT,M,M,M,1500.00,M,M,M,M,M,M,M,M,M,M,31.38,KTPH 101139Z AUTO 17008KT 10SM SCT015 03/03 A2986 RMK AO2 T00330028 $,M
05U,2023-01-10 11:50,-116.0051,39.6042,1811.23,30.20,30.20,100.00,0.00,0.00,0.00,29.87,M,10.00,M,M,M,M,M,M,M,M,M,M,M,M,M,M,M,M,30.20,K05U 101150Z AUTO 00000KT 10SM M01/M01 A2987 RMK A01,M
P68,2023-01-10 11:53,-116.0056,39.6014,1993.00,30.00,28.00,92.15,180.00,5.00,0.00,29.84,1009.60,M,M,M,M,M,M,M,M,M,M,M,M,M,M,M,M,M,24.02,KP68 101153Z AUTO 18005KT M01/M02 A2984 RMK AO1 SLP096 60008 70017 T10111022 10028 21011 $,M
DRA,2023-01-10 11:53,-116.0278,36.6206,1009.00,54.00,41.00,61.32,200.00,19.00,0.00,29.91,1010.30,10.00,31.00,OVC,M,M,M,3900.00,M,M,M,M,M,M,M,42.00,220.00,2023-01-10 11:23,54.00,KDRA 101153Z AUTO 20019G31KT 10SM OVC039 12/05 A2991 RMK AO2 PK WND 22042/1123 SLP103 70006 T01220050 10122 20106 58001,M
VGT,2023-01-10 11:53,-115.1933,36.2111,667.00,51.00,39.00,63.12,90.00,9.00,0.00,29.95,1015.50,10.00,M,FEW,SCT,SCT,M,4400.00,7000.00,8000.00,M,M,M,M,M,M,M,M,51.10,KVGT 101153Z AUTO 09009KT 10SM FEW044 SCT070 SCT080 11/04 A2995 RMK AO2 SLP155 60003 70005 T01060039 10128 20094 58002,M
LOL,2023-01-10 11:53,-118.5701,40.0684,1192.43,32.00,32.00,100.00,50.00,4.00,0.00,29.73,1007.50,10.00,M,SCT,M,M,M,6500.00,M,M,M,M,M,M,M,M,M,M,27.42,KLOL 101153Z AUTO 05004KT 10SM SCT065 00/00 A2973 RMK AO2 SLP075 60001 70007 T00000000 10044 21006 58023,M
ELY,2023-01-10 11:53,-114.8453,39.2950,1909.00,35.00,32.00,88.33,220.00,12.00,0.02,29.88,1010.10,10.00,21.00,FEW,BKN,OVC,M,1800.00,3600.00,8000.00,M,-RA,M,M,M,M,M,M,25.95,KELY 101153Z AUTO 22012G21KT 10SM -RA FEW018 BKN036 OVC080 02/00 A2988 RMK AO2 RAE1057B05 SLP101 P0002 60006 70014 T00170000 10028 20006 53021,M
EKO,2023-01-10 11:54,-115.7860,40.8242,1367.00,33.80,32.00,93.03,200.00,5.05,M,29.83,M,10.00,M,BKN,OVC,M,M,698.00,1200.00,M,M,M,M,M,M,M,M,M,28.48,SPECI KEKO 101154Z 20005KT 10SM BKN007 OVC012 01/00 A2983 RMK AO2 FIBI,M
BVU,2023-01-10 11:55,-114.8611,35.9475,671.00,55.40,32.00,40.84,170.00,7.00,0.00,29.99,M,10.00,14.00,FEW,M,M,M,11000.00,M,M,M,M,M,M,M,M,M,M,55.40,KBVU 101155Z AUTO 17007G14KT 10SM FEW110 13/M00 A2999 RMK AO2,M
CXP,2023-01-10 11:55,-119.7326,39.1923,1431.00,32.00,30.20,92.97,80.00,16.00,0.00,29.68,M,10.00,M,FEW,BKN,OVC,M,4600.00,5500.00,7500.00,M,M,M,M,M,M,M,M,20.42,KCXP 101155Z AUTO 08016KT 10SM FEW046 BKN055 OVC075 00/M01 A2968 RMK AO2,M
RNO,2023-01-10 11:55,-119.7711,39.4839,1341.00,32.00,28.00,84.98,M,4.00,0.00,29.65,1003.80,10.00,M,SCT,SCT,BKN,M,5500.00,12000.00,20000.00,M,M,M,M,M,M,M,M,27.42,KRNO 101155Z VRB04KT 10SM SCT055 SCT120 BKN200 00/M02 A2965 RMK AO2 SLP038 70069 T00001022 10028 21011 58028,M
RTS,2023-01-10 11:55,-119.8764,39.6682,1539.00,32.00,26.60,80.22,70.00,6.00,0.00,29.67,M,10.00,M,FEW,SCT,BKN,M,3500.00,4600.00,5500.00,M,M,M,M,M,M,M,M,25.53,KRTS 101155Z AUTO 07006KT 10SM FEW035 SCT046 BKN055 00/M03 A2967 RMK AO2,M
MEV,2023-01-10 11:55,-119.7500,38.9963,1441.42,35.60,32.00,86.59,0.00,0.00,0.00,29.67,M,10.00,M,FEW,OVC,M,M,3900.00,5000.00,M,M,M,M,M,M,M,M,M,35.60,KMEV 101155Z AUTO 00000KT 10SM FEW039 OVC050 02/M00 A2967 RMK AO2,M
BAM,2023-01-10 11:55,-116.8743,40.5990,1382.36,33.80,32.00,93.03,110.00,3.00,0.00,29.83,M,10.00,M,SCT,OVC,M,M,3400.00,7500.00,M,M,M,M,M,M,M,M,M,30.75,KBAM 101155Z AUTO 11003KT 10SM SCT034 OVC075 01/00 A2983 RMK AO1,M
TMT,2023-01-10 11:55,-117.1971,39.4643,1749.34,19.60,18.70,96.22,0.00,0.00,0.00,29.82,M,0.50,M,OVC,M,M,M,200.00,M,M,M,FZFG,M,M,M,M,M,M,19.60,KTMT 101155Z AUTO 00000KT 1/2SM FZFG OVC002 M07/M07 A2982 RMK AO2 60018 70039 T10691074 10005 21069,M
INS,2023-01-10 11:55,-115.6733,36.5872,955.00,49.00,39.40,69.07,60.00,5.00,0.00,29.91,1011.20,10.00,M,CLR,M,M,M,M,M,M,M,M,M,M,M,M,M,M,46.70,KINS 101155Z AUTO 06005KT 10SM CLR 10/04 A2991 RMK AO2 SLP112 60001 70001 T00950041 10134 20078 $,M
LSV,2023-01-10 11:55,-115.0343,36.2362,570.00,55.40,38.00,52.05,140.00,7.00,0.00,29.94,1013.10,10.00,M,OVC,M,M,M,6000.00,M,M,M,M,M,M,M,M,M,M,55.40,KLSV 101155Z AUTO 14007KT 10SM OVC060 13/03 A2994 RMK AO2 SLP131 60000 T01300034 10131 20096 $,M
WMC,2023-01-10 11:56,-117.8072,40.9019,1315.00,35.00,32.00,88.33,180.00,14.00,0.00,29.75,1007.10,10.00,M,BKN,M,M,M,8500.00,M,M,M,M,M,M,M,M,M,M,25.16,KWMC 101156Z AUTO 18014KT 10SM BKN085 02/00 A2975 RMK AO2 SLP071 60000 70018 T00170000 10044 20011 58014,M
HND,2023-01-10 11:56,-115.1344,35.9729,742.79,52.00,34.00,50.12,180.00,15.00,0.00,29.97,1016.20,10.00,18.00,BKN,M,M,M,9000.00,M,M,M,M,M,M,M,M,M,M,52.00,KHND 101156Z AUTO 18015G18KT 10SM BKN090 11/01 A2997 RMK AO2 SLP162 60000 T01110011 10128 20106 58005,M
EKO,2023-01-10 11:56,-115.7860,40.8242,1367.00,33.00,32.00,95.67,190.00,5.00,0.00,29.83,1010.70,10.00,M,BKN,OVC,M,M,700.00,1200.00,M,M,M,M,M,M,M,M,M,27.70,KEKO 101156Z AUTO 19005KT 10SM BKN007 OVC012 01/00 A2983 RMK AO2 SLP107 60022 70067 T00060000 10022 20000 50003,M
NFL,2023-01-10 11:56,-118.7010,39.4166,1199.00,35.00,32.00,88.33,140.00,7.00,0.00,29.73,1004.70,10.00,M,FEW,M,M,M,11000.00,M,M,M,M,M,M,M,M,M,M,28.56,KNFL 101156Z AUTO 14007KT 10SM FEW110 02/00 A2973 RMK AO2 SLP047 60002 70037 T00170000 10028 20017 58021,M
LAS,2023-01-10 11:56,-115.1634,36.0719,663.00,53.00,34.00,48.13,190.00,9.00,0.00,29.95,1013.60,10.00,16.00,FEW,OVC,M,M,4500.00,8500.00,M,M,M,M,M,M,M,M,M,53.10,KLAS 101156Z 19009G16KT 10SM FEW045 OVC085 12/01 A2995 RMK AO2 SLP136 SHRA OBSCURES MTNS DSNT N 60003 70003 T01170011 10133 20094 58004,M
TPH,2023-01-10 11:56,-117.0904,38.0505,1654.00,38.00,38.00,100.00,110.00,9.00,0.00,29.85,1010.10,10.00,M,FEW,FEW,SCT,M,1600.00,2100.00,4000.00,M,M,M,M,M,M,M,M,30.85,KTPH 101156Z AUTO 11009KT 10SM FEW016 FEW021 SCT040 03/03 A2985 RMK AO2 SLP101 60005 70038 T00330033 10050 20033 58003 $,M
TPH,2023-01-10 12:07,-117.0904,38.0505,1654.00,39.00,38.00,95.78,130.00,10.00,0.00,29.86,M,10.00,M,SCT,BKN,BKN,M,1100.00,1800.00,4100.00,M,M,M,M,M,M,M,M,31.75,KTPH 101207Z AUTO 13010KT 10SM SCT011 BKN018 BKN041 04/03 A2986 RMK AO2 T00390033 $,M
05U,2023-01-10 12:10,-116.0051,39.6042,1811.23,28.40,28.40,100.00,0.00,0.00,0.00,29.87,M,10.00,M,M,M,M,M,M,M,M,M,M,M,M,M,M,M,M,28.40,K05U 101210Z AUTO 00000KT 10SM M02/M02 A2987 RMK A01,M
BVU,2023-01-10 12:15,-114.8611,35.9475,671.00,55.40,32.00,40.84,190.00,10.00,0.00,29.99,M,10.00,M,FEW,M,M,M,11000.00,M,M,M,M,M,M,M,M,M,M,55.40,KBVU 101215Z AUTO 19010KT 10SM FEW110 13/00 A2999 RMK AO2,M
CXP,2023-01-10 12:15,-119.7326,39.1923,1431.00,32.00,32.00,100.00,80.00,14.00,0.00,29.67,M,10.00,M,BKN,BKN,OVC,M,200.00,4400.00,6000.00,M,M,M,M,M,M,M,M,21.16,KCXP 101215Z AUTO 08014KT 10SM BKN002 BKN044 OVC060 00/M00 A2967 RMK AO2,M
RTS,2023-01-10 12:15,-119.8764,39.6682,1539.00,33.80,28.40,80.36,80.00,7.00,0.00,29.65,M,10.00,12.00,FEW,BKN,BKN,M,2600.00,5500.00,6500.00,M,M,M,M,M,M,M,M,26.97,KRTS 101215Z AUTO 08007G12KT 10SM FEW026 BKN055 BKN065 01/M02 A2965 RMK AO2,M
MEV,2023-01-10 12:15,-119.7500,38.9963,1441.42,37.40,32.00,80.65,0.00,0.00,0.00,29.66,M,10.00,M,FEW,SCT,BKN,M,3400.00,4400.00,5000.00,M,M,M,M,M,M,M,M,37.40,KMEV 101215Z AUTO 00000KT 10SM FEW034 SCT044 BKN050 03/M00 A2966 RMK AO2,M
BAM,2023-01-10 12:15,-116.8743,40.5990,1382.36,33.80,32.00,93.03,90.00,5.00,0.00,29.81,M,10.00,M,SCT,BKN,OVC,M,3000.00,7000.00,8500.00,M,M,M,M,M,M,M,M,28.53,KBAM 101215Z AUTO 09005KT 10SM SCT030 BKN070 OVC085 01/00 A2981 RMK AO1,M
TMT,2023-01-10 12:15,-117.1971,39.4643,1749.34,21.40,20.70,97.08,0.00,0.00,0.00,29.80,M,0.50,M,OVC,M,M,M,200.00,M,M,M,FZFG,M,M,M,M,M,M,21.40,KTMT 101215Z AUTO 00000KT 1/2SM FZFG OVC002 M06/M06 A2980 RMK AO2 LTG DSNT W T10591063,M
TPH,2023-01-10 12:15,-117.0904,38.0505,1654.00,40.00,38.00,92.48,160.00,9.00,0.00,29.87,M,10.00,M,BKN,BKN,OVC,M,1300.00,2000.00,4100.00,M,M,M,M,M,M,M,M,33.34,KTPH 101215Z AUTO 16009KT 10SM BKN013 BKN020 OVC041 04/03 A2987 RMK AO2 T00440033 $,M
EKO,2023-01-10 12:29,-115.7860,40.8242,1367.00,33.00,32.00,95.67,340.00,4.00,0.00,29.81,M,10.00,M,FEW,BKN,BKN,M,600.00,1700.00,8000.00,M,M,M,M,M,M,M,M,28.70,KEKO 101229Z AUTO 34004KT 10SM FEW006 BKN017 BKN080 01/00 A2981 RMK AO2 T00060000,M
BVU,2023-01-10 12:35,-114.8611,35.9475,671.00,53.60,32.00,43.61,190.00,9.00,0.00,29.98,M,10.00,15.00,CLR,M,M,M,M,M,M,M,M,M,M,M,M,M,M,53.60,KBVU 101235Z AUTO 19009G15KT 10SM CLR 12/00 A2998 RMK AO2,M
CXP,2023-01-10 12:35,-119.7326,39.1923,1431.00,32.00,32.00,100.00,70.00,14.00,0.00,29.65,M,4.00,M,OVC,M,M,M,300.00,M,M,M,-RA BR,M,M,M,M,M,M,21.16,KCXP 101235Z AUTO 07014KT 4SM -RA BR OVC003 00/M00 A2965 RMK AO2,M
RTS,2023-01-10 12:35,-119.8764,39.6682,1539.00,33.80,28.40,80.36,70.00,7.00,0.00,29.62,M,10.00,M,FEW,SCT,BKN,M,2600.00,4700.00,5500.00,M,M,M,M,M,M,M,M,26.97,KRTS 101235Z AUTO 07007KT 10SM FEW026 SCT047 BKN055 01/M02 A2962 RMK AO2,M
05U,2023-01-10 12:35,-116.0051,39.6042,1811.23,28.40,28.40,100.00,0.00,0.00,0.00,29.86,M,10.00,M,M,M,M,M,M,M,M,M,M,M,M,M,M,M,M,28.40,K05U 101235Z AUTO 00000KT 10SM M02/M02 A2986 RMK A01,M
MEV,2023-01-10 12:35,-119.7500,38.9963,1441.42,37.40,32.00,80.65,130.00,10.00,0.00,29.62,M,9.00,16.00,SCT,BKN,OVC,M,1400.00,3400.00,4600.00,M,-RA,M,M,M,M,M,M,29.74,KMEV 101235Z AUTO 13010G16KT 9SM -RA SCT014 BKN034 OVC046 03/00 A2962 RMK AO2 LTG DSNT SW,M
BAM,2023-01-10 12:35,-116.8743,40.5990,1382.36,33.80,32.00,93.03,110.00,4.00,0.00,29.81,M,10.00,M,SCT,OVC,M,M,7000.00,8500.00,M,M,M,M,M,M,M,M,M,29.52,KBAM 101235Z AUTO 11004KT 10SM SCT070 OVC085 01/00 A2981 RMK AO1,M
TMT,2023-01-10 12:35,-117.1971,39.4643,1749.34,21.20,20.10,95.43,0.00,0.00,0.00,29.79,M,0.50,M,OVC,M,M,M,200.00,M,M,M,FZFG,M,M,M,M,M,M,21.20,KTMT 101235Z AUTO 00000KT 1/2SM FZFG OVC002 M06/M07 A2979 RMK AO2 T10601066,M
EKO,2023-01-10 12:47,-115.7860,40.8242,1367.00,33.00,30.90,91.51,210.00,3.00,0.00,29.81,M,10.00,M,BKN,BKN,BKN,M,500.00,1700.00,8000.00,M,M,M,M,M,M,M,M,29.95,KEKO 101247Z AUTO 21003KT 10SM BKN005 BKN017 BKN080 01/M01 A2981 RMK AO2 T00061006,M
DRA,2023-01-10 12:53,-116.0278,36.6206,1009.00,54.00,41.00,61.32,200.00,19.00,0.00,29.90,1010.20,10.00,30.00,FEW,FEW,SCT,M,3800.00,6000.00,7000.00,M,M,M,M,M,30.00,200.00,2023-01-10 12:46,54.00,KDRA 101253Z AUTO 20019G30KT 10SM FEW038 FEW060 SCT070 12/05 A2990 RMK AO2 PK WND 20030/1246 SLP102 T01220050,M
ELY,2023-01-10 12:53,-114.8453,39.2950,1909.00,34.00,32.00,92.29,110.00,6.00,T,29.87,1010.50,10.00,M,SCT,OVC,M,M,3000.00,3600.00,M,M,-RA,M,M,M,M,M,M,27.94,KELY 101253Z AUTO 11006KT 10SM -RA SCT030 OVC036 01/00 A2987 RMK AO2 RAE03B44 SLP105 P0000 T00110000,M
VGT,2023-01-10 12:53,-115.1933,36.2111,667.00,52.00,37.00,56.45,90.00,4.00,0.00,29.96,1016.10,10.00,M,SCT,BKN,M,M,6000.00,8000.00,M,M,M,M,M,M,M,M,M,52.00,KVGT 101253Z AUTO 09004KT 10SM SCT060 BKN080 11/03 A2996 RMK AO2 SLP161 T01110028,M
LOL,2023-01-10 12:53,-118.5701,40.0684,1192.43,30.90,30.90,100.00,50.00,3.00,0.00,29.69,1006.20,10.00,M,FEW,M,M,M,6500.00,M,M,M,M,M,M,M,M,M,M,27.43,KLOL 101253Z AUTO 05003KT 10SM FEW065 M01/M01 A2969 RMK AO2 SLP062 T10061006,M
P68,2023-01-10 12:53,-116.0056,39.6014,1993.00,33.00,28.90,84.36,220.00,5.00,0.00,29.82,1009.10,M,17.00,M,M,M,M,M,M,M,M,M,M,M,M,M,M,M,27.70,KP68 101253Z AUTO 22005G17KT 01/M02 A2982 RMK AO1 SLP091 T00061017 $,M
BVU,2023-01-10 12:55,-114.8611,35.9475,671.00,55.40,33.80,43.90,210.00,9.00,0.00,29.98,M,10.00,15.00,SCT,BKN,M,M,6500.00,7500.00,M,M,M,M,M,M,M,M,M,55.40,KBVU 101255Z AUTO 21009G15KT 10SM SCT065 BKN075 13/01 A2998 RMK AO2,M
CXP,2023-01-10 12:55,-119.7326,39.1923,1431.00,33.80,33.80,100.00,80.00,11.00,0.00,29.61,M,6.00,M,SCT,BKN,BKN,M,300.00,900.00,3000.00,M,-RA BR,M,M,M,M,M,M,24.74,KCXP 101255Z AUTO 08011KT 6SM -RA BR SCT003 BKN009 BKN030 01/01 A2961 RMK AO2 LTG DSNT S AND SW,M
RNO,2023-01-10 12:55,-119.7711,39.4839,1341.00,37.00,30.90,78.37,70.00,8.00,0.00,29.59,1001.20,10.00,M,BKN,OVC,M,M,4000.00,6000.00,M,M,M,M,M,M,M,M,M,30.27,KRNO 101255Z 07008KT 10SM BKN040 OVC060 03/M01 A2959 RMK AO2 SLP012 T00281006,M
RTS,2023-01-10 12:55,-119.8764,39.6682,1539.00,33.80,28.40,80.36,110.00,4.00,0.00,29.61,M,9.00,13.00,SCT,BKN,OVC,M,2600.00,3700.00,5000.00,M,-SN,M,M,M,M,M,M,29.52,KRTS 101255Z AUTO 11004G13KT 9SM -SN SCT026 BKN037 OVC050 01/M02 A2961 RMK AO2,M
05U,2023-01-10 12:55,-116.0051,39.6042,1811.23,32.00,32.00,100.00,0.00,0.00,0.00,29.85,M,10.00,12.00,M,M,M,M,M,M,M,M,M,M,M,M,M,M,M,32.00,K05U 101255Z AUTO 00000G12KT 10SM 00/M00 A2985 RMK A01,M
MEV,2023-01-10 12:55,-119.7500,38.9963,1441.42,35.60,32.00,86.59,170.00,5.00,0.00,29.59,M,8.00,M,BKN,BKN,OVC,M,1300.00,1800.00,2500.00,M,UP,M,M,M,M,M,M,30.67,KMEV 101255Z AUTO 17005KT 8SM UP BKN013 BKN018 OVC025 02/00 A2959 RMK AO2 LTG DSNT SW,M
BAM,2023-01-10 12:55,-116.8743,40.5990,1382.36,33.80,32.00,93.03,90.00,5.00,0.00,29.79,M,10.00,M,SCT,M,M,M,8500.00,M,M,M,M,M,M,M,M,M,M,28.53,KBAM 101255Z AUTO 09005KT 10SM SCT085 01/00 A2979 RMK AO1,M
TMT,2023-01-10 12:55,-117.1971,39.4643,1749.34,19.20,17.80,94.17,0.00,0.00,0.00,29.78,M,0.75,M,OVC,M,M,M,200.00,M,M,M,BR,M,M,M,M,M,M,19.20,KTMT 101255Z AUTO 00000KT 3/4SM BR OVC002 M07/M08 A2978 RMK AO2 T10711079,M
INS,2023-01-10 12:55,-115.6733,36.5872,955.00,50.00,38.70,64.99,190.00,8.00,0.00,29.92,1011.50,10.00,M,FEW,FEW,M,M,5500.00,8000.00,M,M,M,M,M,M,26.00,120.00,2023-01-10 12:15,50.00,KINS 101255Z AUTO 19008KT 10SM FEW055 FEW080 10/04 A2992 RMK AO2 PK WND 12026/15 SLP115 T01000037 $,M
LSV,2023-01-10 12:55,-115.0343,36.2362,570.00,55.00,36.70,49.98,150.00,11.00,0.00,29.94,1013.20,10.00,M,BKN,OVC,M,M,6000.00,7500.00,M,M,M,M,M,M,M,M,M,55.00,KLSV 101255Z AUTO 15011KT 10SM BKN060 OVC075 13/03 A2994 RMK AO2 SLP132 T01280026 $,M
WMC,2023-01-10 12:56,-117.8072,40.9019,1315.00,35.00,30.90,84.49,100.00,4.00,0.00,29.74,1006.90,10.00,M,BKN,OVC,M,M,6000.00,7000.00,M,M,M,M,M,M,M,M,M,31.04,KWMC 101256Z AUTO 10004KT 10SM BKN060 OVC070 02/M01 A2974 RMK AO2 SLP069 T00171006,M
TPH,2023-01-10 12:56,-117.0904,38.0505,1654.00,40.00,39.00,96.55,140.00,11.00,0.00,29.83,1009.30,10.00,M,BKN,BKN,OVC,M,1300.00,1700.00,2400.00,M,M,M,M,M,M,M,M,32.45,KTPH 101256Z AUTO 14011KT 10SM BKN013 BKN017 OVC024 04/04 A2983 RMK AO2 SLP093 T00440039 $,M
LAS,2023-01-10 12:56,-115.1634,36.0719,663.00,53.00,34.00,48.13,180.00,9.00,0.00,29.96,1014.00,10.00,16.00,BKN,M,M,M,8500.00,M,M,M,M,M,M,M,M,M,M,53.10,KLAS 101256Z 18009G16KT 10SM BKN085 12/01 A2996 RMK AO2 SLP140 T01170011,M
NFL,2023-01-10 12:56,-118.7010,39.4166,1199.00,37.00,33.00,85.64,100.00,8.00,0.00,29.67,1003.00,10.00,M,SCT,M,M,M,11000.00,M,M,M,M,M,M,M,M,M,M,30.27,KNFL 101256Z AUTO 10008KT 10SM SCT110 03/01 A2967 RMK AO2 PRESFR SLP030 T00280006,M
HND,2023-01-10 12:56,-115.1344,35.9729,742.79,52.00,33.00,48.34,170.00,16.00,0.00,29.98,1016.40,10.00,22.00,SCT,SCT,M,M,5500.00,7000.00,M,M,M,M,M,M,M,M,M,52.00,KHND 101256Z AUTO 17016G22KT 10SM SCT055 SCT070 11/01 A2998 RMK AO2 SLP164 T01110006,M
EKO,2023-01-10 12:56,-115.7860,40.8242,1367.00,33.00,30.90,91.51,190.00,4.00,0.00,29.81,1010.20,10.00,M,BKN,M,M,M,500.00,M,M,M,M,M,M,M,M,M,M,28.70,KEKO 101256Z AUTO 19004KT 10SM BKN005 01/M01 A2981 RMK AO2 CIG 003V008 SLP102 T00061006,M
EKO,2023-01-10 13:07,-115.7860,40.8242,1367.00,33.00,32.00,95.67,0.00,0.00,0.00,29.80,M,10.00,M,OVC,M,M,M,400.00,M,M,M,M,M,M,M,M,M,M,33.10,KEKO 101307Z AUTO 00000KT 10SM OVC004 01/00 A2980 RMK AO2 CIG 002V006 T00060000,M
CXP,2023-01-10 13:10,-119.7326,39.1923,1431.00,33.80,32.00,93.03,100.00,11.00,0.00,29.62,M,9.00,17.00,FEW,SCT,BKN,M,200.00,2400.00,2800.00,M,-RA,M,M,M,M,M,M,24.74,KCXP 101310Z AUTO 10011G17KT 9SM -RA FEW002 SCT024 BKN028 01/00 A2962 RMK AO2,M
05U,2023-01-10 13:10,-116.0051,39.6042,1811.23,32.00,32.00,100.00,170.00,11.00,0.00,29.84,M,10.00,M,M,M,M,M,M,M,M,M,M,M,M,M,M,M,M,22.47,K05U 101310Z AUTO 17011KT 10SM 00/M00 A2984 RMK A01,M
BVU,2023-01-10 13:15,-114.8611,35.9475,671.00,55.40,32.00,40.84,190.00,15.00,0.00,29.99,M,10.00,M,OVC,M,M,M,6500.00,M,M,M,M,M,M,M,M,M,M,55.40,KBVU 101315Z AUTO 19015KT 10SM OVC065 13/00 A2999 RMK AO2,M
RTS,2023-01-10 13:15,-119.8764,39.6682,1539.00,33.80,30.20,86.49,140.00,6.00,0.00,29.60,M,4.00,M,SCT,BKN,BKN,M,2100.00,2800.00,3700.00,M,-SN,M,M,M,M,M,M,27.70,KRTS 101315Z AUTO 14006KT 4SM -SN SCT021 BKN028 BKN037 01/M01 A2960 RMK AO2,M
MEV,2023-01-10 13:15,-119.7500,38.9963,1441.42,37.40,32.00,80.65,200.00,8.00,0.00,29.60,M,6.00,17.00,OVC,M,M,M,1200.00,M,M,M,-RA HZ,M,M,M,M,M,M,30.76,KMEV 101315Z AUTO 20008G17KT 6SM -RA HZ OVC012 03/00 A2960 RMK AO2,M
BAM,2023-01-10 13:15,-116.8743,40.5990,1382.36,33.80,33.80,100.00,80.00,6.00,0.00,29.77,M,10.00,M,SCT,M,M,M,6000.00,M,M,M,M,M,M,M,M,M,M,27.70,KBAM 101315Z AUTO 08006KT 10SM SCT060 01/01 A2977 RMK AO1,M
TMT,2023-01-10 13:15,-117.1971,39.4643,1749.34,18.90,17.80,95.39,0.00,0.00,0.00,29.77,M,0.50,M,OVC,M,M,M,200.00,M,M,M,FZFG,M,M,M,M,M,M,18.90,KTMT 101315Z AUTO 00000KT 1/2SM FZFG OVC002 M07/M08 A2977 RMK AO2 T10731079,M
TPH,2023-01-10 13:26,-117.0904,38.0505,1654.00,40.00,39.00,96.55,160.00,10.00,0.00,29.81,M,10.00,M,BKN,BKN,OVC,M,800.00,1600.00,3000.00,M,M,M,M,M,M,M,M,32.87,KTPH 101326Z AUTO 16010KT 10SM BKN008 BKN016 OVC030 04/04 A2981 RMK AO2 CIG 007V011 T00440039 $,M
TPH,2023-01-10 13:33,-117.0904,38.0505,1654.00,40.00,39.00,96.55,180.00,14.00,0.00,29.81,M,10.00,19.00,SCT,SCT,BKN,M,800.00,1400.00,2600.00,M,M,M,M,M,M,M,M,31.35,KTPH 101333Z AUTO 18014G19KT 10SM SCT008 SCT014 BKN026 04/04 A2981 RMK AO2 T00440039 $,M
BVU,2023-01-10 13:35,-114.8611,35.9475,671.00,53.60,33.80,46.88,250.00,7.00,0.00,30.00,M,10.00,13.00,OVC,M,M,M,7000.00,M,M,M,M,M,M,M,M,M,M,53.60,KBVU 101335Z AUTO 25007G13KT 10SM OVC070 12/01 A3000 RMK AO2,M
CXP,2023-01-10 13:35,-119.7326,39.1923,1431.00,33.80,32.00,93.03,M,M,0.00,29.64,M,0.75,M,OVC,M,M,M,300.00,M,M,M,-SN BR,M,M,M,M,M,M,M,KCXP 101335Z AUTO 3/4SM -SN BR OVC003 01/M00 A2964 RMK AO2,M
RTS,2023-01-10 13:35,-119.8764,39.6682,1539.00,33.80,30.20,86.49,130.00,11.00,0.00,29.61,M,2.50,M,SCT,BKN,OVC,M,300.00,1500.00,2000.00,M,-SN,M,M,M,M,M,M,24.74,KRTS 101335Z AUTO 13011KT 2 1/2SM -SN SCT003 BKN015 OVC020 01/M01 A2961 RMK AO2,M
05U,2023-01-10 13:35,-116.0051,39.6042,1811.23,32.00,30.20,92.97,170.00,14.00,0.00,29.83,M,10.00,M,M,M,M,M,M,M,M,M,M,M,M,M,M,M,M,21.16,K05U 101335Z AUTO 17014KT 10SM M00/M01 A2983 RMK A01,M
MEV,2023-01-10 13:35,-119.7500,38.9963,1441.42,33.80,32.00,93.03,270.00,13.00,0.00,29.64,M,2.50,M,SCT,OVC,M,M,600.00,1000.00,M,M,-SN BR,M,M,M,M,M,M,23.87,KMEV 101335Z AUTO 27013KT 2 1/2SM -SN BR SCT006 OVC010 01/00 A2964 RMK AO2 VIS 1 3/4V5,M
BAM,2023-01-10 13:35,-116.8743,40.5990,1382.36,33.80,33.80,100.00,90.00,3.00,0.00,29.77,M,10.00,M,SCT,M,M,M,6000.00,M,M,M,M,M,M,M,M,M,M,30.75,KBAM 101335Z AUTO 09003KT 10SM SCT060 01/01 A2977 RMK AO1,M
TMT,2023-01-10 13:35,-117.1971,39.4643,1749.34,18.00,16.50,93.73,0.00,0.00,0.00,29.75,M,0.50,M,OVC,M,M,M,200.00,M,M,M,FZFG,M,M,M,M,M,M,18.00,KTMT 101335Z AUTO 00000KT 1/2SM FZFG OVC002 M08/M09 A2975 RMK AO2 T10781086,M
ELY,2023-01-10 13:46,-114.8453,39.2950,1909.00,33.00,32.00,95.67,0.00,0.00,T,29.88,M,10.00,M,BKN,OVC,M,M,2900.00,3500.00,M,M,M,M,M,M,M,M,M,33.10,KELY 101346Z AUTO 00000KT 10SM BKN029 OVC035 01/00 A2988 RMK AO2 RAE1254 P0000 T00060000,M
05U,2023-01-10 13:50,-116.0051,39.6042,1811.23,32.00,30.20,92.97,180.00,11.00,0.00,29.83,M,10.00,M,M,M,M,M,M,M,M,M,M,M,M,M,M,M,M,22.47,K05U 101350Z AUTO 18011KT 10SM M00/M01 A2983 RMK A01,M
P68,2023-01-10 13:53,-116.0056,39.6014,1993.00,32.00,28.00,84.98,170.00,13.00,0.00,29.80,1008.50,M,M,M,M,M,M,M,M,M,M,M,M,M,M,M,M,M,21.57,KP68 101353Z AUTO 17013KT 00/M02 A2980 RMK AO1 SLP085 T00001022 $,M
ELY,2023-01-10 13:53,-114.8453,39.2950,1909.00,33.00,32.00,95.67,210.00,4.00,T,29.88,1011.00,10.00,M,BKN,OVC,M,M,2800.00,3700.00,M,M,M,M,M,M,M,M,M,28.70,KELY 101353Z AUTO 21004KT 10SM BKN028 OVC037 01/00 A2988 RMK AO2 RAE1254 SLP110 P0000 T00060000,M
RNO,2023-01-10 13:53,-119.7711,39.4839,1341.00,37.40,32.00,80.65,210.00,9.00,0.01,29.65,M,7.00,17.00,FEW,OVC,M,M,1600.00,2400.00,M,M,RA,M,M,M,M,M,M,30.23,KRNO 101353Z 21009G17KT 7SM RA FEW016 OVC024 03/00 A2965 RMK AO2 RAB08 PRESRR P0001,M
LOL,2023-01-10 13:53,-118.5701,40.0684,1192.43,32.00,32.00,100.00,30.00,3.00,0.00,29.65,1004.90,10.00,M,SCT,M,M,M,11000.00,M,M,M,M,M,M,M,M,M,M,28.69,KLOL 101353Z AUTO 03003KT 10SM SCT110 00/00 A2965 RMK AO2 SLP049 T00000000,M
VGT,2023-01-10 13:53,-115.1933,36.2111,667.00,50.00,38.00,62.98,70.00,9.00,0.00,29.95,1015.70,10.00,M,CLR,M,M,M,M,M,M,M,M,M,M,M,M,M,M,50.00,KVGT 101353Z AUTO 07009KT 10SM CLR 10/03 A2995 RMK AO2 SLP157 T01000033,M
DRA,2023-01-10 13:53,-116.0278,36.6206,1009.00,53.00,40.00,60.73,200.00,19.00,0.00,29.90,1010.40,10.00,29.00,CLR,M,M,M,M,M,M,M,M,M,M,M,33.00,200.00,2023-01-10 13:41,53.10,KDRA 101353Z AUTO 20019G29KT 10SM CLR 12/04 A2990 RMK AO2 PK WND 20033/1341 SLP104 T01170044,M
BVU,2023-01-10 13:55,-114.8611,35.9475,671.00,51.80,33.80,50.08,250.00,4.00,0.00,29.99,M,10.00,M,BKN,M,M,M,7000.00,M,M,M,M,M,M,M,M,M,M,51.80,KBVU 101355Z AUTO 25004KT 10SM BKN070 11/01 A2999 RMK AO2,M
CXP,2023-01-10 13:55,-119.7326,39.1923,1431.00,32.00,32.00,100.00,M,M,0.03,29.67,M,0.75,M,OVC,M,M,M,300.00,M,M,M,-SN BR,M,M,M,M,M,M,M,KCXP 101355Z AUTO 3/4SM -SN BR OVC003 00/M00 A2967 RMK AO2 P0003,M
RNO,2023-01-10 13:55,-119.7711,39.4839,1341.00,37.00,32.00,81.93,210.00,12.00,0.01,29.65,1003.30,6.00,M,FEW,BKN,OVC,M,1600.00,2400.00,2900.00,M,+RA,M,M,M,M,M,M,28.37,KRNO 101355Z 21012KT 6SM +RA FEW016 BKN024 OVC029 03/00 A2965 RMK AO2 RAB08 PRESRR SLP033 P0001 T00280000,M
RTS,2023-01-10 13:55,-119.8764,39.6682,1539.00,32.00,32.00,100.00,M,M,0.01,29.65,M,0.75,M,OVC,M,M,M,200.00,M,M,M,-SN,M,M,M,M,M,M,M,KRTS 101355Z AUTO 3/4SM -SN OVC002 00/M00 A2965 RMK AO2 P0001,M
MEV,2023-01-10 13:55,-119.7500,38.9963,1441.42,33.80,32.00,93.03,320.00,3.00,0.10,29.66,M,1.50,M,OVC,M,M,M,500.00,M,M,M,-SN BR,M,M,M,M,M,M,30.75,KMEV 101355Z AUTO 32003KT 1 1/2SM -SN BR OVC005 01/00 A2966 RMK AO2 P0010,M
BAM,2023-01-10 13:55,-116.8743,40.5990,1382.36,33.80,33.80,100.00,70.00,7.00,0.00,29.76,M,10.00,M,CLR,M,M,M,M,M,M,M,M,M,M,M,M,M,M,26.97,KBAM 101355Z AUTO 07007KT 10SM CLR 01/01 A2976 RMK AO1,M
TMT,2023-01-10 13:55,-117.1971,39.4643,1749.34,17.80,16.30,93.72,0.00,0.00,0.00,29.74,M,0.50,M,OVC,M,M,M,200.00,M,M,M,-SN,M,M,M,M,M,M,17.80,KTMT 101355Z AUTO 00000KT 1/2SM -SN OVC002 M08/M09 A2974 RMK AO2 T10791087,M
INS,2023-01-10 13:55,-115.6733,36.5872,955.00,50.70,36.00,56.94,130.00,10.00,0.00,29.92,1011.70,10.00,17.00,FEW,BKN,M,M,6000.00,17000.00,M,M,M,M,M,M,M,M,M,50.70,KINS 101355Z AUTO 13010G17KT 10SM FEW060 BKN170 10/02 A2992 RMK AO2 SLP117 T01040022 $,M
LSV,2023-01-10 13:55,-115.0343,36.2362,570.00,53.40,37.20,54.04,140.00,11.00,0.00,29.93,1013.10,10.00,M,FEW,M,M,M,8000.00,M,M,M,M,M,M,M,M,M,M,53.40,KLSV 101355Z AUTO 14011KT 10SM FEW080 12/03 A2993 RMK AO2 SLP131 T01190029 $,M
EKO,2023-01-10 13:56,-115.7860,40.8242,1367.00,33.00,32.00,95.67,0.00,0.00,0.00,29.80,1009.90,10.00,M,OVC,M,M,M,200.00,M,M,M,M,M,M,M,M,M,M,33.10,KEKO 101356Z AUTO 00000KT 10SM OVC002 01/00 A2980 RMK AO2 SLP099 T00060000 PWINO FZRANO $,M
WMC,2023-01-10 13:56,-117.8072,40.9019,1315.00,35.00,30.90,84.49,120.00,8.00,0.00,29.70,1005.70,10.00,M,SCT,M,M,M,7000.00,M,M,M,M,M,M,M,M,M,M,27.93,KWMC 101356Z AUTO 12008KT 10SM SCT070 02/M01 A2970 RMK AO2 SLP057 T00171006,M
TPH,2023-01-10 13:56,-117.0904,38.0505,1654.00,41.00,39.00,92.52,170.00,13.00,0.00,29.80,1007.80,10.00,M,FEW,BKN,BKN,M,1000.00,1800.00,2500.00,M,M,M,M,M,M,M,M,33.10,KTPH 101356Z AUTO 17013KT 10SM FEW010 BKN018 BKN025 05/04 A2980 RMK AO2 SLP078 T00500039 $,M
LAS,2023-01-10 13:56,-115.1634,36.0719,663.00,52.00,34.00,50.12,160.00,5.00,0.00,29.95,1013.60,10.00,M,FEW,SCT,SCT,M,5000.00,10000.00,20000.00,M,M,M,M,M,M,M,M,52.00,KLAS 101356Z 16005KT 10SM FEW050 SCT100 SCT200 11/01 A2995 RMK AO2 SLP136 T01110011,M
HND,2023-01-10 13:56,-115.1344,35.9729,742.79,51.00,34.00,51.81,170.00,12.00,0.00,29.97,1016.20,10.00,M,CLR,M,M,M,M,M,M,M,M,M,M,M,M,M,M,51.10,KHND 101356Z AUTO 17012KT 10SM CLR 11/01 A2997 RMK AO2 SLP162 T01060011,M
NFL,2023-01-10 13:56,-118.7010,39.4166,1199.00,35.00,33.00,92.32,340.00,3.00,0.00,29.63,1001.80,10.00,M,FEW,BKN,OVC,M,4600.00,8500.00,10000.00,M,M,M,M,M,M,M,M,32.23,KNFL 101356Z AUTO 34003KT 10SM FEW046 BKN085 OVC100 02/01 A2963 RMK AO2 SLP018 T00170006,M
RNO,2023-01-10 14:06,-119.7711,39.4839,1341.00,35.00,32.00,88.33,150.00,7.00,0.04,29.65,M,2.00,M,OVC,M,M,M,1600.00,M,M,M,+RA BR,M,M,M,M,M,M,28.56,KRNO 101406Z 15007KT 2SM +RA BR OVC016 02/00 A2965 RMK AO2 P0004 T00170000,M
ELY,2023-01-10 14:12,-114.8453,39.2950,1909.00,33.00,32.00,95.67,170.00,6.00,T,29.87,M,10.00,M,SCT,OVC,M,M,2700.00,3300.00,M,M,-RA,M,M,M,M,M,M,26.86,KELY 101412Z AUTO 17006KT 10SM -RA SCT027 OVC033 01/00 A2987 RMK AO2 RAB09 P0000 T00060000,M
TPH,2023-01-10 14:13,-117.0904,38.0505,1654.00,40.00,39.00,96.55,160.00,12.00,0.00,29.79,M,10.00,24.00,FEW,FEW,SCT,M,900.00,1200.00,2000.00,M,M,M,M,M,M,M,M,32.06,KTPH 101413Z AUTO 16012G24KT 10SM FEW009 FEW012 SCT020 04/04 A2979 RMK AO2 T00440039 $,M
BVU,2023-01-10 14:15,-114.8611,35.9475,671.00,51.80,32.00,46.59,230.00,6.00,0.00,29.99,M,10.00,M,FEW,M,M,M,6500.00,M,M,M,M,M,M,M,M,M,M,51.80,KBVU 101415Z AUTO 23006KT 180V240 10SM FEW065 11/00 A2999 RMK AO2,M
CXP,2023-01-10 14:15,-119.7326,39.1923,1431.00,32.00,32.00,100.00,M,M,0.00,29.69,M,2.50,M,OVC,M,M,M,500.00,M,M,M,-SN BR,M,M,M,M,M,M,M,KCXP 101415Z AUTO 2 1/2SM -SN BR OVC005 00/00 A2969 RMK AO2 VIS 1V5,M
RTS,2023-01-10 14:15,-119.8764,39.6682,1539.00,32.00,32.00,100.00,0.00,0.00,0.00,29.65,M,0.75,M,OVC,M,M,M,200.00,M,M,M,-SN,M,M,M,M,M,M,32.00,KRTS 101415Z AUTO 00000KT 3/4SM -SN OVC002 00/M00 A2965 RMK AO2,M
05U,2023-01-10 14:15,-116.0051,39.6042,1811.23,32.00,30.20,92.97,160.00,13.00,0.00,29.81,M,10.00,M,M,M,M,M,M,M,M,M,M,M,M,M,M,M,M,21.57,K05U 101415Z AUTO 16013KT 10SM 00/M01 A2981 RMK A01,M
MEV,2023-01-10 14:15,-119.7500,38.9963,1441.42,32.00,32.00,100.00,M,6.00,0.00,29.65,M,1.25,M,OVC,M,M,M,300.00,M,M,M,-SN BR,M,M,M,M,M,M,25.53,KMEV 101415Z AUTO VRB06KT 1 1/4SM -SN BR OVC003 00/M00 A2965 RMK AO2 VIS 3/4V2 1/2,M
BAM,2023-01-10 14:15,-116.8743,40.5990,1382.36,33.80,33.80,100.00,70.00,13.00,0.00,29.76,M,10.00,M,CLR,M,M,M,M,M,M,M,M,M,M,M,M,M,M,23.87,KBAM 101415Z AUTO 07013KT 10SM CLR 01/01 A2976 RMK AO1,M
LSV,2023-01-10 14:15,-115.0343,36.2362,570.00,53.60,35.60,50.36,180.00,11.00,0.00,29.94,1013.50,10.00,19.00,FEW,M,M,M,6000.00,M,M,M,M,M,M,M,M,M,M,53.60,KLSV 101415Z AUTO 18011G19KT 10SM FEW060 12/02 A2994 RMK AO2 WSHFT 01 SLP135 $,M
TMT,2023-01-10 14:15,-117.1971,39.4643,1749.34,18.70,17.20,93.75,0.00,0.00,0.00,29.71,M,0.75,M,OVC,M,M,M,200.00,M,M,M,BR,M,M,M,M,M,M,18.70,KTMT 101415Z AUTO 00000KT 3/4SM BR OVC002 M07/M08 A2971 RMK AO2 LTG DSNT W T10741082,M
RNO,2023-01-10 14:23,-119.7711,39.4839,1341.00,35.00,33.00,92.32,0.00,0.00,0.07,29.65,M,3.00,M,SCT,SCT,OVC,M,800.00,1700.00,2300.00,M,-RA BR,M,M,M,M,M,M,35.10,KRNO 101423Z 00000KT 3SM -RA BR SCT008 SCT017 OVC023 02/01 A2965 RMK AO2 SFC VIS 4 P0007 T00170006,M
05U,2023-01-10 14:30,-116.0051,39.6042,1811.23,33.80,32.00,93.03,140.00,13.00,0.00,29.80,M,10.00,19.00,M,M,M,M,M,M,M,M,M,M,M,M,M,M,M,23.87,K05U 101430Z AUTO 14013G19KT 10SM 01/M00 A2980 RMK A01,M
RNO,2023-01-10 14:33,-119.7711,39.4839,1341.00,35.00,33.00,92.32,310.00,4.00,0.07,29.65,M,3.00,M,BKN,BKN,OVC,M,800.00,1800.00,2700.00,M,-RA BR,M,M,M,M,M,M,31.04,KRNO 101433Z 31004KT 3SM -RA BR BKN008 BKN018 OVC027 02/01 A2965 RMK AO2 P0007 T00170006,M
BVU,2023-01-10 14:35,-114.8611,35.9475,671.00,51.80,32.00,46.59,230.00,6.00,0.00,30.00,M,10.00,12.00,CLR,M,M,M,M,M,M,M,M,M,M,M,M,M,M,51.80,KBVU 101435Z AUTO 23006G12KT 10SM CLR 11/00 A3000 RMK AO2,M
CXP,2023-01-10 14:35,-119.7326,39.1923,1431.00,33.80,32.00,93.03,M,M,0.00,29.68,M,7.00,M,SCT,BKN,BKN,M,500.00,1000.00,2900.00,M,-SN,M,M,M,M,M,M,M,KCXP 101435Z AUTO 7SM -SN SCT005 BKN010 BKN029 01/00 A2968 RMK AO2,M
RTS,2023-01-10 14:35,-119.8764,39.6682,1539.00,33.80,32.00,93.03,190.00,11.00,0.00,29.65,M,3.00,M,OVC,M,M,M,300.00,M,M,M,-SN,M,M,M,M,M,M,24.74,KRTS 101435Z AUTO 19011KT 140V210 3SM -SN OVC003 01/00 A2965 RMK AO2,M
MEV,2023-01-10 14:35,-119.7500,38.9963,1441.42,32.00,32.00,100.00,360.00,4.00,0.00,29.67,M,1.25,M,OVC,M,M,M,400.00,M,M,M,-SN BR,M,M,M,M,M,M,27.42,KMEV 101435Z AUTO 36004KT 1 1/4SM -SN BR OVC004 00/00 A2967 RMK AO2,M
BAM,2023-01-10 14:35,-116.8743,40.5990,1382.36,33.80,32.00,93.03,80.00,10.00,0.00,29.75,M,10.00,M,CLR,M,M,M,M,M,M,M,M,M,M,M,M,M,M,25.23,KBAM 101435Z AUTO 08010KT 10SM CLR 01/00 A2975 RMK AO1,M
TMT,2023-01-10 14:35,-117.1971,39.4643,1749.34,17.60,16.00,93.31,0.00,0.00,0.00,29.70,M,0.50,M,OVC,M,M,M,200.00,M,M,M,FZFG,M,M,M,M,M,M,17.60,KTMT 101435Z AUTO 00000KT 1/2SM FZFG OVC002 M08/M09 A2970 RMK AO2 T10801089,M
NFL,2023-01-10 14:46,-118.7010,39.4166,1199.00,34.00,33.00,96.46,290.00,5.00,0.00,29.65,M,10.00,M,SCT,BKN,OVC,M,4000.00,5000.00,7500.00,M,M,M,M,M,M,M,M,28.77,KNFL 101446Z 29005KT 10SM SCT040 BKN050 OVC075 01/01 A2965 RMK AO2 T00110006,M
05U,2023-01-10 14:50,-116.0051,39.6042,1811.23,33.80,32.00,93.03,160.00,14.00,0.00,29.80,M,8.00,21.00,M,M,M,M,M,M,M,M,M,M,M,M,M,M,M,23.48,K05U 101450Z AUTO 16014G21KT 8SM 01/00 A2980 RMK A01,M
RNO,2023-01-10 14:51,-119.7711,39.4839,1341.00,35.60,33.80,93.08,M,4.00,0.08,29.65,M,3.00,M,SCT,SCT,OVC,M,900.00,1600.00,2600.00,M,-RA BR,M,M,M,M,M,M,31.62,KRNO 101451Z VRB04KT 3SM -RA BR SCT009 SCT016 OVC026 02/01 A2965 RMK AO2 P0008,M
P68,2023-01-10 14:53,-116.0056,39.6014,1993.00,34.00,30.00,85.11,160.00,14.00,0.00,29.77,1007.20,M,M,M,M,M,M,M,M,M,M,M,M,M,M,M,M,M,23.74,KP68 101453Z AUTO 16014KT 01/M01 A2977 RMK AO1 SLP072 T00111011 58021 $,M
DRA,2023-01-10 14:53,-116.0278,36.6206,1009.00,53.00,39.00,58.64,210.00,15.00,0.00,29.89,1010.30,10.00,30.00,FEW,M,M,M,4300.00,M,M,M,M,M,M,M,31.00,190.00,2023-01-10 13:56,53.10,KDRA 101453Z AUTO 21015G30KT 10SM FEW043 12/04 A2989 RMK AO2 PK WND 19031/1356 SLP103 T01170039 58003,M
LOL,2023-01-10 14:53,-118.5701,40.0684,1192.43,32.00,32.00,100.00,0.00,0.00,0.01,29.64,1004.50,8.00,M,OVC,M,M,M,4400.00,M,M,M,UP,M,M,M,M,M,M,32.00,KLOL 101453Z AUTO 00000KT 8SM UP OVC044 00/00 A2964 RMK AO2 UPB38 SLP045 P0001 60001 T00000000 56028,M
ELY,2023-01-10 14:53,-114.8453,39.2950,1909.00,36.00,33.00,89.09,150.00,14.00,T,29.84,1008.90,10.00,22.00,FEW,BKN,OVC,M,2600.00,3400.00,6000.00,M,M,M,M,M,M,M,M,26.32,KELY 101453Z AUTO 15014G22KT 10SM FEW026 BKN034 OVC060 02/01 A2984 RMK AO2 RAB09E35 SLP089 P0000 60000 T00220006 58012,M
VGT,2023-01-10 14:53,-115.1933,36.2111,667.00,49.00,37.00,63.34,70.00,7.00,0.00,29.94,1015.60,10.00,M,CLR,M,M,M,M,M,M,M,M,M,M,M,M,M,M,45.38,KVGT 101453Z 07007KT 10SM CLR 09/03 A2994 RMK AO2 SLP156 T00940028 58001,M
EKO,2023-01-10 14:54,-115.7860,40.8242,1367.00,33.80,30.20,86.49,50.00,4.08,M,29.79,M,10.00,M,OVC,M,M,M,498.00,M,M,M,M,M,M,M,M,M,M,29.43,SPECI KEKO 101454Z 05004KT 10SM OVC005 01/M01 A2979 RMK AO2 CIG 002V007 PWINO FZRANO $ FIBI,M
BVU,2023-01-10 14:55,-114.8611,35.9475,671.00,50.00,32.00,49.81,230.00,6.00,0.00,29.99,M,10.00,M,CLR,M,M,M,M,M,M,M,M,M,M,M,M,M,M,50.00,KBVU 101455Z AUTO 23006KT 10SM CLR 10/00 A2999 RMK AO2,M
CXP,2023-01-10 14:55,-119.7326,39.1923,1431.00,33.80,33.80,100.00,190.00,10.00,0.08,29.69,M,3.00,19.00,BKN,BKN,BKN,M,600.00,1200.00,2900.00,M,-SN BR,M,M,M,M,M,M,25.23,KCXP 101455Z AUTO 19010G19KT 160V230 3SM -SN BR BKN006 BKN012 BKN029 01/01 A2969 RMK AO2 P0008,M
RTS,2023-01-10 14:55,-119.8764,39.6682,1539.00,33.80,30.20,86.49,190.00,17.00,0.14,29.65,M,3.00,M,SCT,BKN,OVC,M,300.00,600.00,2900.00,M,-RA,M,M,M,M,M,M,22.43,KRTS 101455Z AUTO 19017KT 3SM -RA SCT003 BKN006 OVC029 01/M01 A2965 RMK AO2 P0014,M
MEV,2023-01-10 14:55,-119.7500,38.9963,1441.42,32.00,32.00,100.00,60.00,4.00,0.14,29.69,M,1.50,M,OVC,M,M,M,300.00,M,M,M,-SN BR,M,M,M,M,M,M,27.42,KMEV 101455Z AUTO 06004KT 1 1/2SM -SN BR OVC003 00/M00 A2969 RMK AO2 P0014,M
BAM,2023-01-10 14:55,-116.8743,40.5990,1382.36,33.80,32.00,93.03,70.00,10.00,0.00,29.73,M,10.00,M,CLR,M,M,M,M,M,M,M,M,M,M,M,M,M,M,25.23,KBAM 101455Z AUTO 07010KT 10SM CLR 01/00 A2973 RMK AO1,M
TMT,2023-01-10 14:55,-117.1971,39.4643,1749.34,18.90,17.60,94.57,0.00,0.00,0.00,29.70,M,0.25,M,OVC,M,M,M,200.00,M,M,M,FZFG,M,M,M,M,M,M,18.90,KTMT 101455Z AUTO 00000KT 1/4SM FZFG OVC002 M07/M08 A2970 RMK AO2 T10731080,M
INS,2023-01-10 14:55,-115.6733,36.5872,955.00,49.60,34.50,55.88,120.00,9.00,0.00,29.91,1011.40,10.00,M,FEW,OVC,M,M,6500.00,16000.00,M,M,M,M,M,M,M,M,M,45.40,KINS 101455Z AUTO 12009KT 10SM FEW065 OVC160 10/01 A2991 RMK AO2 SLP114 T00980014 58001 $,M
LSV,2023-01-10 14:55,-115.0343,36.2362,570.00,52.50,37.20,55.86,10.00,4.00,0.00,29.94,1013.50,10.00,M,OVC,M,M,M,5500.00,M,M,M,M,M,M,M,M,M,M,52.50,KLSV 101455Z AUTO 01004KT 10SM OVC055 11/03 A2994 RMK AO2 SLP135 T01140029 55001 $,M
RNO,2023-01-10 14:55,-119.7711,39.4839,1341.00,36.00,33.00,89.09,190.00,9.00,0.08,29.65,1003.70,3.00,M,SCT,SCT,OVC,M,900.00,1800.00,2600.00,M,-RA BR,M,M,M,M,M,M,28.49,KRNO 101455Z 19009KT 3SM -RA BR SCT009 SCT018 OVC026 02/01 A2965 RMK AO2 SLP037 P0008 60009 T00220006 51019,M
EKO,2023-01-10 14:56,-115.7860,40.8242,1367.00,33.00,30.90,91.51,50.00,4.00,0.00,29.79,1009.40,10.00,M,OVC,M,M,M,500.00,M,M,M,M,M,M,M,M,M,M,28.70,KEKO 101456Z AUTO 05004KT 10SM OVC005 01/M01 A2979 RMK AO2 CIG 002V007 SLP094 T00061006 58012 PWINO FZRANO $,M
WMC,2023-01-10 14:56,-117.8072,40.9019,1315.00,35.00,30.90,84.49,50.00,6.00,0.00,29.68,1005.00,10.00,M,SCT,BKN,M,M,6000.00,11000.00,M,M,M,M,M,M,M,M,M,29.26,KWMC 101456Z AUTO 05006KT 10SM SCT060 BKN110 02/M01 A2968 RMK AO2 SLP050 T00171006 58020,M
TPH,2023-01-10 14:56,-117.0904,38.0505,1654.00,41.00,39.00,92.52,170.00,16.00,0.00,29.77,1006.70,10.00,M,FEW,BKN,BKN,M,1300.00,2400.00,3000.00,M,M,M,M,M,M,M,M,32.15,KTPH 101456Z AUTO 17016KT 10SM FEW013 BKN024 BKN030 05/04 A2977 RMK AO2 SLP067 T00500039 58024 $,M
LAS,2023-01-10 14:56,-115.1634,36.0719,663.00,52.00,34.00,50.12,190.00,12.00,0.00,29.95,1013.90,10.00,M,FEW,SCT,BKN,M,5500.00,9000.00,20000.00,M,M,M,M,M,M,M,M,52.00,KLAS 101456Z 19012KT 10SM FEW055 SCT090 BKN200 11/01 A2995 RMK AO2 SLP139 T01110011 51002,M
HND,2023-01-10 14:56,-115.1344,35.9729,742.79,51.00,34.00,51.81,170.00,12.00,0.00,29.97,1016.30,10.00,M,SCT,M,M,M,5500.00,M,M,M,M,M,M,M,M,M,M,51.10,KHND 101456Z 17012KT 10SM SCT055 11/01 A2997 RMK AO2 SLP163 T01060011 55001,M
NFL,2023-01-10 14:56,-118.7010,39.4166,1199.00,35.00,33.00,92.32,250.00,5.00,T,29.65,1002.50,10.00,M,OVC,M,M,M,4100.00,M,M,M,-RA,M,M,M,M,M,M,30.08,KNFL 101456Z COR 25005KT 10SM -RA OVC041 02/01 A2965 RMK AO2 RAB55 SLP025 WR// P0000 60000 T00170006 55021,M
TPH,2023-01-10 15:03,-117.0904,38.0505,1654.00,41.00,39.00,92.52,160.00,15.00,0.00,29.76,M,10.00,M,FEW,SCT,BKN,M,1600.00,2400.00,3000.00,M,M,M,M,M,M,M,M,32.45,KTPH 101503Z AUTO 16015KT 10SM FEW016 SCT024 BKN030 05/04 A2976 RMK AO2 T00500039 $,M
05U,2023-01-10 15:10,-116.0051,39.6042,1811.23,33.80,32.00,93.03,170.00,9.00,0.00,29.78,M,10.00,15.00,M,M,M,M,M,M,M,M,M,M,M,M,M,M,M,25.75,K05U 101510Z AUTO 17009G15KT 10SM 01/00 A2978 RMK A01,M
TPH,2023-01-10 15:10,-117.0904,38.0505,1654.00,41.00,38.00,88.62,170.00,18.00,0.00,29.76,M,10.00,32.00,SCT,BKN,BKN,M,1700.00,2300.00,2800.00,M,M,M,M,M,32.00,190.00,2023-01-10 15:08,31.60,KTPH 101510Z AUTO 17018G32KT 10SM SCT017 BKN023 BKN028 05/03 A2976 RMK AO2 PK WND 19032/1508 T00500033 $,M
RNO,2023-01-10 15:13,-119.7711,39.4839,1341.00,36.00,30.90,81.53,170.00,17.00,T,29.66,M,3.00,23.00,SCT,OVC,M,M,1400.00,2500.00,M,M,-RASN,M,M,M,M,M,M,25.32,KRNO 101513Z 17017G23KT 3SM -RASN SCT014 OVC025 02/M01 A2966 RMK AO2 WSHFT 1457 SNB11 P0000 T00221006,M
BVU,2023-01-10 15:15,-114.8611,35.9475,671.00,50.00,33.80,53.54,210.00,5.00,0.00,29.99,M,10.00,M,CLR,M,M,M,M,M,M,M,M,M,M,M,M,M,M,50.00,KBVU 101515Z AUTO 21005KT 10SM CLR 10/01 A2999 RMK AO2,M
CXP,2023-01-10 15:15,-119.7326,39.1923,1431.00,33.80,32.00,93.03,190.00,7.00,0.00,29.70,M,0.75,12.00,OVC,M,M,M,300.00,M,M,M,-SN BR,M,M,M,M,M,M,26.97,KCXP 101515Z AUTO 19007G12KT 3/4SM -SN BR OVC003 01/00 A2970 RMK AO2,M
RTS,2023-01-10 15:15,-119.8764,39.6682,1539.00,33.80,30.20,86.49,180.00,12.00,0.00,29.65,M,1.25,20.00,M,M,M,M,M,M,M,M,-SN,M,M,M,M,M,M,24.29,KRTS 101515Z AUTO 18012G20KT 1 1/4SM -SN 01/M01 A2965 RMK AO2,M
MEV,2023-01-10 15:15,-119.7500,38.9963,1441.42,32.00,32.00,100.00,160.00,14.00,0.00,29.68,M,1.25,M,OVC,M,M,M,300.00,M,M,M,-SN BR,M,M,M,M,M,M,21.16,KMEV 101515Z AUTO 16014KT 1 1/4SM -SN BR OVC003 00/00 A2968 RMK AO2,M
BAM,2023-01-10 15:15,-116.8743,40.5990,1382.36,35.60,32.00,86.59,80.00,9.00,0.00,29.73,M,10.00,15.00,CLR,M,M,M,M,M,M,M,M,M,M,M,M,M,M,27.99,KBAM 101515Z AUTO 08009G15KT 10SM CLR 02/00 A2973 RMK AO1,M
TMT,2023-01-10 15:15,-117.1971,39.4643,1749.34,19.60,18.50,95.40,0.00,0.00,0.00,29.68,M,0.50,M,OVC,M,M,M,200.00,M,M,M,FZFG,M,M,M,M,M,M,19.60,KTMT 101515Z AUTO 00000KT 1/2SM FZFG OVC002 M07/M07 A2968 RMK AO2 T10691075,M
NFL,2023-01-10 15:18,-118.7010,39.4166,1199.00,34.00,32.00,92.29,280.00,17.00,0.05,29.69,M,4.00,M,FEW,OVC,M,M,2000.00,2500.00,M,M,RA BR,M,M,M,M,M,M,22.70,KNFL 101518Z 28017KT 4SM RA BR FEW020 OVC025 01/00 A2969 RMK AO2 UPE1457RAB1457 P0005 T00110000,M
LOL,2023-01-10 15:27,-118.5701,40.0684,1192.43,32.00,32.00,100.00,260.00,6.00,0.04,29.66,M,3.00,M,OVC,M,M,M,2600.00,M,M,M,UP BR,T,M,M,M,M,M,25.53,KLOL 101527Z AUTO 26006KT 3SM UP BR OVC026 00/00 A2966 RMK AO2 P0004 I1000 T00000000,M
NFL,2023-01-10 15:29,-118.7010,39.4166,1199.00,34.00,32.00,92.29,280.00,14.00,0.11,29.69,M,3.00,M,OVC,M,M,M,1900.00,M,M,M,SN BR,M,M,M,M,M,M,23.74,KNFL 101529Z 28014KT 3SM SN BR OVC019 01/00 A2969 RMK AO2 WSHFT 1509 UPE1457RAB1457E25SNB25 WR// P0011 T00110000,M
05U,2023-01-10 15:30,-116.0051,39.6042,1811.23,33.80,32.00,93.03,150.00,12.00,0.00,29.77,M,9.00,M,M,M,M,M,M,M,M,M,M,M,M,M,M,M,M,24.29,K05U 101530Z AUTO 15012KT 9SM 01/00 A2977 RMK A01,M
BVU,2023-01-10 15:35,-114.8611,35.9475,671.00,53.60,33.80,46.88,210.00,4.00,0.00,29.97,M,10.00,13.00,CLR,M,M,M,M,M,M,M,M,M,M,M,M,M,M,53.60,KBVU 101535Z AUTO 21004G13KT 10SM CLR 12/01 A2997 RMK AO2,M
CXP,2023-01-10 15:35,-119.7326,39.1923,1431.00,33.80,32.00,93.03,190.00,7.00,0.00,29.69,M,1.00,M,OVC,M,M,M,300.00,M,M,M,-SN BR,M,M,M,M,M,M,26.97,KCXP 101535Z AUTO 19007KT 1SM -SN BR OVC003 01/00 A2969 RMK AO2,M
RTS,2023-01-10 15:35,-119.8764,39.6682,1539.00,32.00,32.00,100.00,140.00,11.00,0.00,29.65,M,0.75,M,OVC,M,M,M,300.00,M,M,M,-SN,M,M,M,M,M,M,22.47,KRTS 101535Z AUTO 14011KT 3/4SM -SN OVC003 00/M00 A2965 RMK AO2,M
MEV,2023-01-10 15:35,-119.7500,38.9963,1441.42,33.80,32.00,93.03,160.00,13.00,0.00,29.67,M,0.25,19.00,OVC,M,M,M,300.00,M,M,M,SN FG,M,M,M,M,M,M,23.87,KMEV 101535Z AUTO 16013G19KT 1/4SM SN FG OVC003 01/00 A2967 RMK AO2,M
BAM,2023-01-10 15:35,-116.8743,40.5990,1382.36,37.40,32.00,80.65,80.00,9.00,0.00,29.72,M,10.00,15.00,CLR,M,M,M,M,M,M,M,M,M,M,M,M,M,M,30.23,KBAM 101535Z AUTO 08009G15KT 10SM CLR 03/00 A2972 RMK AO1,M
TMT,2023-01-10 15:35,-117.1971,39.4643,1749.34,20.70,19.60,95.42,0.00,0.00,0.00,29.68,M,7.00,M,SCT,OVC,M,M,200.00,11000.00,M,M,M,M,M,M,M,M,M,20.70,KTMT 101535Z AUTO 00000KT 7SM SCT002 OVC110 M06/M07 A2968 RMK AO2 T10631069,M
NFL,2023-01-10 15:36,-118.7010,39.4166,1199.00,33.00,32.00,95.67,260.00,12.00,0.14,29.72,M,2.00,M,OVC,M,M,M,1900.00,M,M,M,-SN BR,M,M,M,M,M,M,23.40,KNFL 101536Z 26012KT 2SM -SN BR OVC019 01/00 A2972 RMK AO2 WSHFT 1509 UPE1457RAB1457E25SNB25 PRESRR WR// P0014 T00060000,M
EKO,2023-01-10 15:45,-115.7860,40.8242,1367.00,33.00,30.90,91.51,50.00,6.00,0.00,29.78,M,10.00,M,OVC,M,M,M,300.00,M,M,M,M,M,M,M,M,M,M,26.86,KEKO 101545Z AUTO 05006KT 10SM OVC003 01/M01 A2978 RMK AO2 T00061006 PWINO FZRANO $,M
TPH,2023-01-10 15:49,-117.0904,38.0505,1654.00,41.00,38.00,88.62,170.00,17.00,0.00,29.73,M,10.00,28.00,FEW,SCT,M,M,1400.00,4200.00,M,M,M,M,M,M,32.00,190.00,2023-01-10 15:08,31.87,KTPH 101549Z AUTO 17017G28KT 10SM FEW014 SCT042 05/03 A2973 RMK AO2 PK WND 19032/1508 T00500033 $,M
P68,2023-01-10 15:53,-116.0056,39.6014,1993.00,37.00,32.00,81.93,160.00,18.00,0.00,29.74,1005.90,M,22.00,M,M,M,M,M,M,M,M,M,M,M,M,M,M,M,26.33,KP68 101553Z AUTO 16018G22KT 03/00 A2974 RMK AO1 SLP059 T00280000 $,M
VGT,2023-01-10 15:53,-115.1933,36.2111,667.00,50.00,37.00,60.79,30.00,6.00,0.00,29.94,1015.40,10.00,M,CLR,M,M,M,M,M,M,M,M,M,M,M,M,M,M,50.00,KVGT 101553Z 03006KT 10SM CLR 10/03 A2994 RMK AO2 SLP154 T01000028,M
LOL,2023-01-10 15:53,-118.5701,40.0684,1192.43,34.00,M,M,250.00,10.00,0.10,29.71,1006.70,4.00,M,FEW,OVC,M,M,1100.00,1800.00,M,M,+RA,T,M,M,M,M,M,M,KLOL 101553Z AUTO 25010KT 4SM +RA FEW011 OVC018 01/ A2971 RMK AO2 UPE37RAB37 PRESRR SLP067 P0010 I1000 T0011 $,M
DRA,2023-01-10 15:53,-116.0278,36.6206,1009.00,54.00,40.00,58.76,190.00,15.00,0.00,29.88,1009.50,10.00,27.00,BKN,M,M,M,4000.00,M,M,M,M,M,M,M,32.00,180.00,2023-01-10 15:28,54.00,KDRA 101553Z AUTO 19015G27KT 10SM BKN040 12/04 A2988 RMK AO2 PK WND 18032/1528 SLP095 T01220044,M
ELY,2023-01-10 15:53,-114.8453,39.2950,1909.00,37.00,33.00,85.64,170.00,14.00,T,29.82,1008.40,10.00,27.00,SCT,BKN,OVC,M,3200.00,4200.00,5500.00,M,M,M,M,M,28.00,160.00,2023-01-10 15:05,27.61,KELY 101553Z AUTO 17014G27KT 10SM SCT032 BKN042 OVC055 03/01 A2982 RMK AO2 PK WND 16028/1505 RAB11E22 SLP084 P0000 T00280006,M
BVU,2023-01-10 15:55,-114.8611,35.9475,671.00,55.40,33.80,43.90,210.00,9.00,0.00,29.96,M,10.00,14.00,CLR,M,M,M,M,M,M,M,M,M,M,M,M,M,M,55.40,KBVU 101555Z AUTO 21009G14KT 10SM CLR 13/01 A2996 RMK AO2,M
CXP,2023-01-10 15:55,-119.7326,39.1923,1431.00,33.80,32.00,93.03,M,6.00,0.08,29.69,M,0.50,M,OVC,M,M,M,300.00,M,M,M,-SN FG,M,M,M,M,M,M,27.70,KCXP 101555Z AUTO VRB06KT 1/2SM -SN FG OVC003 01/00 A2969 RMK AO2 P0008,M
RTS,2023-01-10 15:55,-119.8764,39.6682,1539.00,32.00,32.00,100.00,190.00,6.00,0.00,29.66,M,1.00,17.00,BKN,OVC,M,M,300.00,700.00,M,M,-RA,M,M,M,M,M,M,25.53,KRTS 101555Z AUTO 19006G17KT 1SM -RA BKN003 OVC007 00/M00 A2966 RMK AO2,M
05U,2023-01-10 15:55,-116.0051,39.6042,1811.23,35.60,33.80,93.08,160.00,14.00,0.00,29.77,M,5.00,19.00,M,M,M,M,M,M,M,M,BR,M,M,M,M,M,M,25.80,K05U 101555Z AUTO 16014G19KT 5SM BR 02/01 A2977 RMK A01,M
MEV,2023-01-10 15:55,-119.7500,38.9963,1441.42,33.80,32.00,93.03,150.00,13.00,0.07,29.67,M,1.50,18.00,OVC,M,M,M,300.00,M,M,M,-SN BR,M,M,M,M,M,M,23.87,KMEV 101555Z AUTO 15013G18KT 1 1/2SM -SN BR OVC003 01/00 A2967 RMK AO2 P0007 VIS 1 1/4V3,M
BAM,2023-01-10 15:55,-116.8743,40.5990,1382.36,35.60,33.80,93.08,70.00,9.00,0.00,29.71,M,10.00,M,CLR,M,M,M,M,M,M,M,M,M,M,M,M,M,M,27.99,KBAM 101555Z AUTO 07009KT 10SM CLR 02/01 A2971 RMK AO1,M
TMT,2023-01-10 15:55,-117.1971,39.4643,1749.34,23.00,22.10,96.28,0.00,0.00,0.00,29.65,M,10.00,M,SCT,OVC,M,M,200.00,11000.00,M,M,M,M,M,M,M,M,M,23.00,KTMT 101555Z AUTO 00000KT 10SM SCT002 OVC110 M05/M05 A2965 RMK AO2 T10501055,M
LSV,2023-01-10 15:55,-115.0343,36.2362,570.00,53.20,36.50,52.96,70.00,6.00,0.00,29.92,1012.70,10.00,M,BKN,M,M,M,6000.00,M,M,M,M,M,M,M,M,M,M,53.20,KLSV 101555Z AUTO 07006KT 10SM BKN060 12/03 A2992 RMK AO2 SLP127 T01180025 $,M
INS,2023-01-10 15:55,-115.6733,36.5872,955.00,49.30,35.00,57.88,130.00,15.00,0.00,29.88,1010.30,10.00,20.00,FEW,BKN,OVC,M,7000.00,14000.00,17000.00,M,M,M,M,M,M,M,M,43.21,KINS 101555Z AUTO 13015G20KT 10SM FEW070 BKN140 OVC170 10/02 A2988 RMK AO2 SLP103 T00960017 $,M
RNO,2023-01-10 15:55,-119.7711,39.4839,1341.00,35.00,33.00,92.32,M,3.00,0.03,29.66,1004.10,2.50,M,OVC,M,M,M,2100.00,M,M,M,-RASN,M,M,M,M,M,M,32.23,KRNO 101555Z VRB03KT 2 1/2SM -RASN OVC021 02/01 A2966 RMK AO2 WSHFT 1457 SNB11 SLP041 P0003 T00170006,M
WMC,2023-01-10 15:56,-117.8072,40.9019,1315.00,35.00,30.90,84.49,50.00,9.00,0.00,29.66,1004.60,10.00,M,OVC,M,M,M,7000.00,M,M,M,M,M,M,M,M,M,M,27.37,KWMC 101556Z AUTO 05009KT 10SM OVC070 02/M01 A2966 RMK AO2 SLP046 T00171006,M
LAS,2023-01-10 15:56,-115.1634,36.0719,663.00,53.00,34.00,48.13,180.00,10.00,0.00,29.94,1013.50,10.00,18.00,SCT,BKN,BKN,M,5500.00,9000.00,20000.00,M,M,M,M,M,M,M,M,53.10,KLAS 101556Z 18010G18KT 10SM SCT055 BKN090 BKN200 12/01 A2994 RMK AO2 SLP135 T01170011,M
TPH,2023-01-10 15:56,-117.0904,38.0505,1654.00,41.00,38.00,88.62,180.00,23.00,0.00,29.72,1005.00,10.00,33.00,FEW,FEW,M,M,1400.00,2200.00,M,M,M,M,M,M,33.00,190.00,2023-01-10 15:55,30.41,KTPH 101556Z AUTO 18023G33KT 10SM FEW014 FEW022 05/03 A2972 RMK AO2 PK WND 19033/1555 SLP050 T00500033 $,M
EKO,2023-01-10 15:56,-115.7860,40.8242,1367.00,33.00,30.90,91.51,70.00,5.00,0.00,29.78,1009.10,10.00,M,BKN,OVC,M,M,300.00,800.00,M,M,M,M,M,M,M,M,M,27.70,KEKO 101556Z AUTO 07005KT 10SM BKN003 OVC008 01/M01 A2978 RMK AO2 SLP091 T00061006 PWINO FZRANO $,M
NFL,2023-01-10 15:56,-118.7010,39.4166,1199.00,33.00,32.00,95.67,250.00,7.00,0.23,29.72,1004.60,2.00,M,OVC,M,M,M,1500.00,M,M,M,-SN BR,M,M,M,M,M,M,26.12,KNFL 101556Z 25007KT 2SM -SN BR OVC015 01/00 A2972 RMK AO2 WSHFT 1509 UPE1457RAB1457E25SNB25 SLP046 WR// P0023 T00060000,M
HND,2023-01-10 15:56,-115.1344,35.9729,742.79,53.00,34.00,48.13,160.00,19.00,0.00,29.95,1015.60,10.00,23.00,CLR,M,M,M,M,M,M,M,M,M,M,M,M,M,M,53.10,KHND 101556Z 16019G23KT 10SM CLR 12/01 A2995 RMK AO2 SLP156 T01170011,M
LOL,2023-01-10 15:58,-118.5701,40.0684,1192.43,33.00,M,M,220.00,12.00,0.01,29.71,M,2.50,M,FEW,OVC,M,M,900.00,1600.00,M,M,-SN,M,M,M,M,M,M,M,KLOL 101558Z AUTO 22012KT 2 1/2SM -SN FEW009 OVC016 01/ A2971 RMK AO2 RAE57SNB57 P0001 T0006 $,M
LOL,2023-01-10 16:03,-118.5701,40.0684,1192.43,32.00,M,M,220.00,10.00,0.03,29.72,M,1.75,M,FEW,OVC,M,M,900.00,1400.00,M,M,-SN,M,M,M,M,M,M,M,KLOL 101603Z AUTO 22010KT 1 3/4SM -SN FEW009 OVC014 00/ A2972 RMK AO2 RAE1557SNB1557 P0003 T0000 $,M
EKO,2023-01-10 16:06,-115.7860,40.8242,1367.00,33.00,30.90,91.51,70.00,6.00,0.00,29.78,M,10.00,M,OVC,M,M,M,500.00,M,M,M,M,M,M,M,M,M,M,26.86,KEKO 101606Z AUTO 07006KT 10SM OVC005 01/M01 A2978 RMK AO2 CIG 003V008 T00061006 PWINO FZRANO $,M
05U,2023-01-10 16:10,-116.0051,39.6042,1811.23,37.40,33.80,86.69,140.00,11.00,0.00,29.76,M,6.00,17.00,M,M,M,M,M,M,M,M,BR,M,M,M,M,M,M,29.29,K05U 101610Z AUTO 14011G17KT 6SM BR 03/01 A2976 RMK A01,M
LOL,2023-01-10 16:12,-118.5701,40.0684,1192.43,32.00,M,M,210.00,10.00,0.06,29.72,M,1.25,M,FEW,OVC,M,M,900.00,1200.00,M,M,-SN,M,M,M,M,M,M,M,KLOL 101612Z AUTO 21010KT 1 1/4SM -SN FEW009 OVC012 00/ A2972 RMK AO2 WSHFT 1552 RAE1557SNB1557 P0006 T0000 $,M
BVU,2023-01-10 16:15,-114.8611,35.9475,671.00,55.40,32.00,40.84,200.00,13.00,0.00,29.98,M,10.00,18.00,CLR,M,M,M,M,M,M,M,M,M,M,M,M,M,M,55.40,KBVU 101615Z AUTO 20013G18KT 10SM CLR 13/00 A2998 RMK AO2,M
CXP,2023-01-10 16:15,-119.7326,39.1923,1431.00,33.80,32.00,93.03,0.00,0.00,0.00,29.69,M,0.50,M,OVC,M,M,M,300.00,M,M,M,-SN BR,M,M,M,M,M,M,33.80,KCXP 101615Z AUTO 00000KT 1/2SM -SN BR OVC003 01/00 A2969 RMK AO2,M
RTS,2023-01-10 16:15,-119.8764,39.6682,1539.00,32.00,32.00,100.00,160.00,11.00,0.00,29.66,M,1.00,M,BKN,BKN,BKN,M,300.00,700.00,1800.00,M,-SN,M,M,M,M,M,M,22.47,KRTS 101615Z AUTO 16011KT 1SM -SN BKN003 BKN007 BKN018 00/M00 A2966 RMK AO2,M
MEV,2023-01-10 16:15,-119.7500,38.9963,1441.42,33.80,32.00,93.03,140.00,14.00,0.00,29.69,M,1.25,M,OVC,M,M,M,400.00,M,M,M,-SN BR,M,M,M,M,M,M,23.48,KMEV 101615Z AUTO 14014KT 1 1/4SM -SN BR OVC004 01/00 A2969 RMK AO2,M
BAM,2023-01-10 16:15,-116.8743,40.5990,1382.36,37.40,33.80,86.69,70.00,11.00,0.00,29.71,M,10.00,M,SCT,M,M,M,12000.00,M,M,M,M,M,M,M,M,M,M,29.29,KBAM 101615Z AUTO 07011KT 10SM SCT120 03/01 A2971 RMK AO1,M
TMT,2023-01-10 16:15,-117.1971,39.4643,1749.34,22.10,20.80,94.65,0.00,0.00,0.00,29.66,M,10.00,M,OVC,M,M,M,10000.00,M,M,M,M,M,M,M,M,M,M,22.10,KTMT 101615Z AUTO 00000KT 10SM OVC100 M05/M06 A2966 RMK AO2 LTG DSNT W T10551062,M
ELY,2023-01-10 16:21,-114.8453,39.2950,1909.00,36.00,33.00,89.09,150.00,20.00,T,29.83,M,7.00,26.00,BKN,OVC,M,M,2900.00,3600.00,M,M,-RA,M,M,M,29.00,170.00,2023-01-10 15:56,24.45,KELY 101621Z AUTO 15020G26KT 7SM -RA BKN029 OVC036 02/01 A2983 RMK AO2 PK WND 17029/1556 RAB1558 P0000 T00220006,M
LOL,2023-01-10 16:24,-118.5701,40.0684,1192.43,32.00,M,M,220.00,9.00,0.10,29.73,M,0.75,M,VV ,M,M,M,1100.00,M,M,M,-SN,M,M,M,M,M,M,M,KLOL 101624Z AUTO 22009KT 3/4SM -SN VV011 00/ A2973 RMK AO2 WSHFT 1552 RAE1557SNB1557 P0010 T0000,M
NFL,2023-01-10 16:27,-118.7010,39.4166,1199.00,35.00,34.00,95.71,200.00,9.00,0.09,29.72,M,5.00,M,OVC,M,M,M,1700.00,M,M,M,-RA BR,M,M,M,M,M,M,27.37,KNFL 101627Z COR 20009KT 5SM -RA BR OVC017 02/01 A2972 RMK AO2 RAB01SNE1559 WR// P0009 T00170011,M
05U,2023-01-10 16:30,-116.0051,39.6042,1811.23,37.40,33.80,86.69,160.00,10.00,0.00,29.76,M,4.00,16.00,M,M,M,M,M,M,M,M,BR,M,M,M,M,M,M,29.74,K05U 101630Z AUTO 16010G16KT 4SM BR 03/01 A2976 RMK A01,M
RNO,2023-01-10 16:31,-119.7711,39.4839,1341.00,35.00,33.00,92.32,190.00,6.00,0.02,29.66,M,5.00,M,OVC,M,M,M,2800.00,M,M,M,-RASN,M,M,M,M,M,M,29.26,KRNO 101631Z 19006KT 5SM -RASN OVC028 02/01 A2966 RMK AO2 P0002 T00170006,M
LOL,2023-01-10 16:32,-118.5701,40.0684,1192.43,32.00,M,M,200.00,7.00,0.12,29.73,M,2.00,M,OVC,M,M,M,1400.00,M,M,M,-SN,M,M,M,M,M,M,M,KLOL 101632Z AUTO 20007KT 2SM -SN OVC014 00/ A2973 RMK AO2 WSHFT 1552 RAE1557SNB1557 P0012 T0000,M
BVU,2023-01-10 16:35,-114.8611,35.9475,671.00,55.40,32.00,40.84,230.00,4.00,0.00,29.99,M,10.00,11.00,BKN,BKN,M,M,6500.00,10000.00,M,M,M,M,M,M,M,M,M,55.40,KBVU 101635Z AUTO 23004G11KT 10SM BKN065 BKN100 13/M00 A2999 RMK AO2,M
CXP,2023-01-10 16:35,-119.7326,39.1923,1431.00,32.00,32.00,100.00,200.00,5.00,0.00,29.72,M,0.25,M,OVC,M,M,M,300.00,M,M,M,SN FG,M,M,M,M,M,M,26.40,KCXP 101635Z AUTO 20005KT 1/4SM SN FG OVC003 00/00 A2972 RMK AO2,M
RTS,2023-01-10 16:35,-119.8764,39.6682,1539.00,32.00,32.00,100.00,170.00,6.00,0.00,29.66,M,1.00,11.00,OVC,M,M,M,300.00,M,M,M,-SN,M,M,M,M,M,M,25.53,KRTS 101635Z AUTO 17006G11KT 1SM -SN OVC003 00/M00 A2966 RMK AO2,M
MEV,2023-01-10 16:35,-119.7500,38.9963,1441.42,33.80,32.00,93.03,150.00,14.00,0.00,29.70,M,1.00,M,OVC,M,M,M,400.00,M,M,M,-SN BR,M,M,M,M,M,M,23.48,KMEV 101635Z AUTO 15014KT 1SM -SN BR OVC004 01/00 A2970 RMK AO2,M
BAM,2023-01-10 16:35,-116.8743,40.5990,1382.36,35.60,32.00,86.59,70.00,16.00,0.00,29.69,M,10.00,19.00,BKN,BKN,M,M,10000.00,12000.00,M,M,M,M,M,M,M,M,M,25.11,KBAM 101635Z AUTO 07016G19KT 10SM BKN100 BKN120 02/00 A2969 RMK AO1,M
TMT,2023-01-10 16:35,-117.1971,39.4643,1749.34,23.00,22.10,96.28,0.00,0.00,0.00,29.66,M,10.00,M,SCT,OVC,M,M,6500.00,11000.00,M,M,M,M,M,M,M,M,M,23.00,KTMT 101635Z AUTO 00000KT 10SM SCT065 OVC110 M05/M05 A2966 RMK AO2 LTG DSNT S T10501055,M
ELY,2023-01-10 16:37,-114.8453,39.2950,1909.00,36.00,33.00,89.09,160.00,20.00,T,29.82,M,10.00,28.00,FEW,OVC,M,M,2200.00,3000.00,M,M,-RA,M,M,M,30.00,160.00,2023-01-10 16:26,24.45,KELY 101637Z AUTO 16020G28KT 10SM -RA FEW022 OVC030 02/01 A2982 RMK AO2 PK WND 16030/1626 RAB1558 P0000 T00220006,M
LOL,2023-01-10 16:41,-118.5701,40.0684,1192.43,32.00,M,M,170.00,6.00,0.12,29.73,M,5.00,M,OVC,M,M,M,2100.00,M,M,M,-SN,M,M,M,M,M,M,M,KLOL 101641Z AUTO 17006KT 5SM -SN OVC021 00/ A2973 RMK AO2 WSHFT 1552 RAE1557SNB1557 P0012 T0000,M
TPH,2023-01-10 16:45,-117.0904,38.0505,1654.00,42.00,38.00,84.93,180.00,33.00,0.00,29.72,M,10.00,46.00,SCT,BKN,BKN,M,1700.00,2300.00,3300.00,M,M,M,M,M,46.00,190.00,2023-01-10 16:45,30.11,KTPH 101645Z AUTO 18033G46KT 10SM SCT017 BKN023 BKN033 06/03 A2972 RMK AO2 PK WND 19046/1645 T00560033,M
NFL,2023-01-10 16:47,-118.7010,39.4166,1199.00,36.00,34.00,92.35,190.00,7.00,0.09,29.71,M,10.00,M,SCT,BKN,BKN,BKN,1700.00,3000.00,7000.00,13000.00,M,M,M,M,M,M,M,29.65,KNFL 101647Z COR 19007KT 10SM SCT017 BKN030 BKN070 BKN130 02/01 A2971 RMK AO2 RAB01E47SNE1559 WR// P0009 T00220011,M
RNO,2023-01-10 16:52,-119.7711,39.4839,1341.00,35.60,32.00,86.59,220.00,8.00,0.03,29.69,M,2.50,M,OVC,M,M,M,2300.00,M,M,M,-SNRA,M,M,M,M,M,M,28.55,KRNO 101652Z 22008KT 2 1/2SM -SNRA OVC023 02/00 A2969 RMK AO2 P0003,M
LOL,2023-01-10 16:53,-118.5701,40.0684,1192.43,32.00,M,M,110.00,5.00,0.12,29.71,1007.00,9.00,M,OVC,M,M,M,3400.00,M,M,M,UP,M,M,M,M,M,M,M,KLOL 101653Z AUTO 11005KT 9SM UP OVC034 00/ A2971 RMK AO2 WSHFT 1552 RAE1557UPB44SNB1557E44 SLP070 P0012 T0000,M
ELY,2023-01-10 16:53,-114.8453,39.2950,1909.00,37.00,33.00,85.64,150.00,19.00,T,29.80,1007.80,10.00,34.00,SCT,BKN,OVC,M,2800.00,3700.00,4900.00,M,M,M,M,M,34.00,140.00,2023-01-10 16:44,26.05,KELY 101653Z AUTO 15019G34KT 10SM SCT028 BKN037 OVC049 03/01 A2980 RMK AO2 PK WND 14034/1644 RAB1558E41 SLP078 P0000 T00280006,M
P68,2023-01-10 16:53,-116.0056,39.6014,1993.00,38.00,32.00,79.08,150.00,10.00,0.00,29.72,1004.80,M,M,M,M,M,M,M,M,M,M,M,M,M,M,M,M,M,30.37,KP68 101653Z AUTO 15010KT 03/00 A2972 RMK AO1 SLP048 T00330000,M
DRA,2023-01-10 16:53,-116.0278,36.6206,1009.00,53.00,42.00,66.13,200.00,9.00,T,29.86,1009.00,10.00,M,BKN,BKN,OVC,M,4100.00,5000.00,7000.00,M,-RA,M,M,M,27.00,190.00,2023-01-10 16:13,53.10,KDRA 101653Z AUTO 20009KT 10SM -RA BKN041 BKN050 OVC070 12/06 A2986 RMK AO2 PK WND 19027/1613 RAB45 SLP090 P0000 T01170056,M
VGT,2023-01-10 16:53,-115.1933,36.2111,667.00,51.00,38.00,60.46,0.00,0.00,0.00,29.95,1015.70,10.00,M,FEW,BKN,BKN,M,6500.00,9000.00,11000.00,M,M,M,M,M,M,M,M,51.10,KVGT 101653Z 00000KT 10SM FEW065 BKN090 BKN110 11/03 A2995 RMK AO2 SLP157 T01060033,M
BVU,2023-01-10 16:55,-114.8611,35.9475,671.00,55.40,32.00,40.84,M,6.00,0.00,29.99,M,10.00,15.00,BKN,M,M,M,6500.00,M,M,M,M,M,M,M,M,M,M,55.40,KBVU 101655Z AUTO VRB06G15KT 10SM BKN065 13/00 A2999 RMK AO2,M
CXP,2023-01-10 16:55,-119.7326,39.1923,1431.00,33.80,32.00,93.03,190.00,5.00,0.10,29.72,M,0.50,14.00,OVC,M,M,M,300.00,M,M,M,-SN FG,M,M,M,M,M,M,28.53,KCXP 101655Z AUTO 19005G14KT 1/2SM -SN FG OVC003 01/00 A2972 RMK AO2 P0010,M
RTS,2023-01-10 16:55,-119.8764,39.6682,1539.00,32.00,32.00,100.00,150.00,10.00,0.01,29.69,M,0.75,16.00,BKN,M,M,M,400.00,M,M,M,-SN,M,M,M,M,M,M,22.97,KRTS 101655Z AUTO 15010G16KT 3/4SM -SN BKN004 00/M00 A2969 RMK AO2 P0001,M
05U,2023-01-10 16:55,-116.0051,39.6042,1811.23,37.40,33.80,86.69,160.00,12.00,0.00,29.75,M,10.00,M,M,M,M,M,M,M,M,M,M,M,M,M,M,M,M,28.87,K05U 101655Z AUTO 16012KT 10SM 03/01 A2975 RMK A01,M
MEV,2023-01-10 16:55,-119.7500,38.9963,1441.42,33.80,32.00,93.03,150.00,11.00,0.03,29.70,M,2.00,M,SCT,BKN,M,M,400.00,1000.00,M,M,-SN BR,M,M,M,M,M,M,24.74,KMEV 101655Z AUTO 15011KT 2SM -SN BR SCT004 BKN010 01/00 A2970 RMK AO2 P0003 VIS 3/4V5,M
BAM,2023-01-10 16:55,-116.8743,40.5990,1382.36,37.40,33.80,86.69,80.00,13.00,0.00,29.68,M,10.00,16.00,SCT,SCT,M,M,10000.00,12000.00,M,M,M,M,M,M,M,M,M,28.49,KBAM 101655Z AUTO 08013G16KT 10SM SCT100 SCT120 03/01 A2968 RMK AO1,M
TMT,2023-01-10 16:55,-117.1971,39.4643,1749.34,25.00,24.30,97.12,0.00,0.00,0.00,29.66,M,10.00,M,BKN,OVC,M,M,6000.00,11000.00,M,M,M,M,M,M,M,M,M,25.00,KTMT 101655Z AUTO 00000KT 10SM BKN060 OVC110 M04/M04 A2966 RMK AO2 T10391043,M
INS,2023-01-10 16:55,-115.6733,36.5872,955.00,49.80,35.20,57.03,130.00,21.00,0.00,29.87,1010.00,10.00,30.00,BKN,OVC,M,M,6500.00,8000.00,M,M,M,M,M,M,31.00,130.00,2023-01-10 16:52,42.59,KINS 101655Z AUTO 13021G30KT 10SM BKN065 OVC080 10/02 A2987 RMK AO2 PK WND 13031/52 SLP100 T00990018 $,M
RNO,2023-01-10 16:55,-119.7711,39.4839,1341.00,35.00,32.00,88.33,220.00,6.00,0.03,29.68,1004.90,2.50,M,OVC,M,M,M,2300.00,M,M,M,-SNRA,M,M,M,M,M,M,29.26,KRNO 101655Z 22006KT 2 1/2SM -SNRA OVC023 02/00 A2968 RMK AO2 SLP049 P0003 T00170000,M
EKO,2023-01-10 16:56,-115.7860,40.8242,1367.00,34.00,30.90,88.27,20.00,5.00,0.00,29.76,1008.50,10.00,M,BKN,M,M,M,700.00,M,M,M,M,M,M,M,M,M,M,28.77,KEKO 101656Z AUTO 02005KT 10SM BKN007 01/M01 A2976 RMK AO2 CIG 006V010 SLP085 T00111006 PWINO FZRANO $,M
WMC,2023-01-10 16:56,-117.8072,40.9019,1315.00,38.00,32.00,79.08,50.00,6.00,0.00,29.67,1004.40,10.00,M,BKN,OVC,M,M,5500.00,7000.00,M,M,M,M,M,M,M,M,M,32.64,KWMC 101656Z AUTO 05006KT 10SM BKN055 OVC070 03/00 A2967 RMK AO2 SLP044 T00330000,M
NFL,2023-01-10 16:56,-118.7010,39.4166,1199.00,36.00,34.00,92.35,170.00,8.00,0.09,29.72,1004.60,10.00,M,SCT,BKN,BKN,BKN,1700.00,3000.00,7000.00,13000.00,M,M,M,M,M,M,M,29.04,KNFL 101656Z COR 17008KT 10SM SCT017 BKN030 BKN070 BKN130 02/01 A2972 RMK AO2 RAB01E47SNE1559 SLP046 WR// P0009 T00220011,M
LAS,2023-01-10 16:56,-115.1634,36.0719,663.00,56.00,34.00,43.46,180.00,9.00,0.00,29.96,1013.90,10.00,M,SCT,BKN,BKN,M,5500.00,9500.00,20000.00,M,M,M,M,M,M,M,M,55.90,KLAS 101656Z 18009KT 10SM SCT055 BKN095 BKN200 13/01 A2996 RMK AO2 SLP139 T01330011,M
HND,2023-01-10 16:56,-115.1344,35.9729,742.79,56.00,33.00,41.92,170.00,17.00,0.00,29.97,1015.80,10.00,21.00,CLR,M,M,M,M,M,M,M,M,M,M,M,M,M,M,55.90,KHND 101656Z 17017G21KT 10SM CLR 13/01 A2997 RMK AO2 SLP158 T01330006,M
TPH,2023-01-10 16:56,-117.0904,38.0505,1654.00,42.00,38.00,84.93,180.00,26.00,0.00,29.74,1005.70,10.00,40.00,FEW,BKN,BKN,M,1500.00,1900.00,2600.00,M,M,M,M,M,46.00,190.00,2023-01-10 16:45,31.30,KTPH 101656Z AUTO 18026G40KT 10SM FEW015 BKN019 BKN026 06/03 A2974 RMK AO2 PK WND 19046/1645 PRESRR SLP057 T00560033,M
INS,2023-01-10 17:02,-115.6733,36.5872,955.00,50.00,35.60,57.52,130.00,21.00,0.00,29.88,1010.30,10.00,30.00,OVC,M,M,M,7000.00,M,M,M,-RA,M,M,M,M,M,M,50.00,KINS 101702Z AUTO 13021G30KT 10SM -RA OVC070 10/02 A2988 RMK AO2 RAB02 SLP103 $,M
RNO,2023-01-10 17:05,-119.7711,39.4839,1341.00,36.00,33.00,89.09,290.00,6.00,0.01,29.69,M,6.00,M,SCT,OVC,M,M,2300.00,3500.00,M,M,-RA,M,M,M,M,M,M,30.35,KRNO 101705Z 29006KT 6SM -RA SCT023 OVC035 02/01 A2969 RMK AO2 SNE04 P0001 T00220006,M
05U,2023-01-10 17:10,-116.0051,39.6042,1811.23,39.20,33.80,80.79,150.00,4.00,0.00,29.73,M,10.00,M,M,M,M,M,M,M,M,M,M,M,M,M,M,M,M,35.83,K05U 101710Z AUTO 15004KT 10SM 04/01 A2973 RMK A01,M
INS,2023-01-10 17:14,-115.6733,36.5872,955.00,48.20,35.60,61.52,120.00,18.00,0.00,29.87,1010.00,10.00,28.00,OVC,M,M,M,6500.00,M,M,M,M,M,M,M,M,M,M,41.07,KINS 101714Z AUTO 12018G28KT 10SM OVC065 09/02 A2987 RMK AO2 RAB02E14 SLP100 $,M
EKO,2023-01-10 17:14,-115.7860,40.8242,1367.00,34.00,30.90,88.27,50.00,7.00,0.00,29.75,M,10.00,M,SCT,BKN,BKN,M,1000.00,1400.00,6000.00,M,M,M,M,M,M,M,M,27.22,KEKO 101714Z AUTO 05007KT 10SM SCT010 BKN014 BKN060 01/M01 A2975 RMK AO2 T00111006 PWINO FZRANO $,M
BVU,2023-01-10 17:15,-114.8611,35.9475,671.00,57.20,32.00,38.26,M,6.00,0.00,29.99,M,10.00,17.00,SCT,BKN,M,M,5000.00,6000.00,M,M,M,M,M,M,M,M,M,57.20,KBVU 101715Z AUTO VRB06G17KT 10SM SCT050 BKN060 14/00 A2999 RMK AO2,M
CXP,2023-01-10 17:15,-119.7326,39.1923,1431.00,32.00,32.00,100.00,140.00,4.00,0.00,29.72,M,0.50,M,OVC,M,M,M,300.00,M,M,M,-SN FG,M,M,M,M,M,M,27.42,KCXP 101715Z AUTO 14004KT 1/2SM -SN FG OVC003 00/00 A2972 RMK AO2,M
RTS,2023-01-10 17:15,-119.8764,39.6682,1539.00,32.00,32.00,100.00,160.00,9.00,0.00,29.69,M,1.50,M,SCT,M,M,M,300.00,M,M,M,-SN,M,M,M,M,M,M,23.51,KRTS 101715Z AUTO 16009KT 1 1/2SM -SN SCT003 00/M00 A2969 RMK AO2,M
MEV,2023-01-10 17:15,-119.7500,38.9963,1441.42,33.80,32.00,93.03,160.00,15.00,0.00,29.71,M,7.00,22.00,FEW,FEW,SCT,M,400.00,800.00,2000.00,M,-SN,M,M,M,M,M,M,23.11,KMEV 101715Z AUTO 16015G22KT 7SM -SN FEW004 FEW008 SCT020 01/00 A2971 RMK AO2,M
BAM,2023-01-10 17:15,-116.8743,40.5990,1382.36,35.60,33.80,93.08,70.00,10.00,0.00,29.69,M,10.00,18.00,BKN,M,M,M,12000.00,M,M,M,M,M,M,M,M,M,M,27.48,KBAM 101715Z AUTO 07010G18KT 10SM BKN120 02/01 A2969 RMK AO1,M
TMT,2023-01-10 17:15,-117.1971,39.4643,1749.34,26.20,25.50,97.14,0.00,0.00,0.00,29.68,M,10.00,M,BKN,OVC,M,M,6000.00,7000.00,M,M,M,M,M,M,M,M,M,26.20,KTMT 101715Z AUTO 00000KT 10SM BKN060 OVC070 M03/M04 A2968 RMK AO2 T10321036,M
RNO,2023-01-10 17:21,-119.7711,39.4839,1341.00,36.00,32.00,85.23,270.00,6.00,0.01,29.70,M,2.00,M,BKN,OVC,M,M,2300.00,3500.00,M,M,-RASN,M,M,M,M,M,M,30.35,KRNO 101721Z 27006KT 2SM -RASN BKN023 OVC035 02/00 A2970 RMK AO2 SNE04B21 P0001 T00220000,M
EKO,2023-01-10 17:28,-115.7860,40.8242,1367.00,34.00,30.90,88.27,40.00,8.00,0.00,29.74,M,10.00,M,SCT,OVC,M,M,1300.00,6500.00,M,M,M,M,M,M,M,M,M,26.58,KEKO 101728Z AUTO 04008KT 10SM SCT013 OVC065 01/M01 A2974 RMK AO2 T00111006 PWINO FZRANO $,M
INS,2023-01-10 17:29,-115.6733,36.5872,955.00,48.20,37.40,66.05,110.00,23.00,0.00,29.87,1010.00,10.00,30.00,BKN,OVC,M,M,6000.00,7000.00,M,M,-RA,M,M,M,M,M,M,40.09,KINS 101729Z AUTO 11023G30KT 10SM -RA BKN060 OVC070 09/03 A2987 RMK AO2 RAB02E14RAB29 SLP100 $,M
05U,2023-01-10 17:30,-116.0051,39.6042,1811.23,39.20,35.60,86.79,150.00,6.00,0.00,29.75,M,8.00,15.00,M,M,M,M,M,M,M,M,M,M,M,M,M,M,M,34.20,K05U 101730Z AUTO 15006G15KT 8SM 04/02 A2975 RMK A01,M
INS,2023-01-10 17:33,-115.6733,36.5872,955.00,48.20,37.40,66.05,110.00,21.00,0.00,29.87,1010.00,10.00,30.00,BKN,OVC,M,M,6000.00,7500.00,M,M,M,M,M,M,M,M,M,40.46,KINS 101733Z AUTO 11021G30KT 10SM BKN060 OVC075 09/03 A2987 RMK AO2 RAB02E14RAB29E33 SLP100 $,M
BVU,2023-01-10 17:35,-114.8611,35.9475,671.00,57.20,32.00,38.26,170.00,13.00,0.00,29.96,M,10.00,25.00,FEW,BKN,M,M,5000.00,6000.00,M,M,M,M,M,M,M,M,M,57.20,KBVU 101735Z AUTO 17013G25KT 10SM FEW050 BKN060 14/M00 A2996 RMK AO2,M
CXP,2023-01-10 17:35,-119.7326,39.1923,1431.00,33.80,33.80,100.00,180.00,5.00,0.00,29.73,M,9.00,M,SCT,SCT,BKN,M,300.00,1500.00,2100.00,M,M,M,M,M,M,M,M,28.53,KCXP 101735Z AUTO 18005KT 9SM SCT003 SCT015 BKN021 01/01 A2973 RMK AO2,M
WMC,2023-01-10 17:35,-117.8072,40.9019,1315.00,35.00,32.00,88.33,260.00,12.00,T,29.74,M,2.50,17.00,FEW,OVC,M,M,1300.00,2500.00,M,M,-SN BR,M,M,M,M,M,M,25.95,KWMC 101735Z AUTO 26012G17KT 2 1/2SM -SN BR FEW013 OVC025 02/00 A2974 RMK AO2 RAB11E35UPB20E25SNB35 PRESRR P0000 T00170000,M
RTS,2023-01-10 17:35,-119.8764,39.6682,1539.00,33.80,30.20,86.49,220.00,10.00,0.00,29.69,M,9.00,M,CLR,M,M,M,M,M,M,M,-DZ,M,M,M,M,M,M,25.23,KRTS 101735Z AUTO 22010KT 9SM -DZ CLR 01/M01 A2969 RMK AO2,M
MEV,2023-01-10 17:35,-119.7500,38.9963,1441.42,33.80,32.00,93.03,170.00,10.00,0.00,29.73,M,7.00,M,FEW,SCT,BKN,M,1600.00,2400.00,4000.00,M,-SN,M,M,M,M,M,M,25.23,KMEV 101735Z AUTO 17010KT 7SM -SN FEW016 SCT024 BKN040 01/M00 A2973 RMK AO2,M
BAM,2023-01-10 17:35,-116.8743,40.5990,1382.36,37.40,33.80,86.69,80.00,8.00,0.00,29.69,M,10.00,M,SCT,BKN,OVC,M,8000.00,10000.00,12000.00,M,M,M,M,M,M,M,M,30.76,KBAM 101735Z AUTO 08008KT 10SM SCT080 BKN100 OVC120 03/01 A2969 RMK AO1,M
TMT,2023-01-10 17:35,-117.1971,39.4643,1749.34,28.20,27.90,98.78,0.00,0.00,0.00,29.70,M,10.00,M,BKN,OVC,M,M,4600.00,6000.00,M,M,M,M,M,M,M,M,M,28.20,KTMT 101735Z AUTO 00000KT 10SM BKN046 OVC060 M02/M02 A2970 RMK AO2 T10211023,M
WMC,2023-01-10 17:42,-117.8072,40.9019,1315.00,34.00,30.00,85.11,270.00,12.00,0.03,29.75,M,1.25,M,BKN,BKN,OVC,M,1500.00,2200.00,2700.00,M,-SN BR,M,M,M,M,M,M,24.55,KWMC 101742Z AUTO 27012KT 1 1/4SM -SN BR BKN015 BKN022 OVC027 01/M01 A2975 RMK AO2 RAB11E35UPB20E25SNB35 PRESRR P0003 T00111011,M
INS,2023-01-10 17:43,-115.6733,36.5872,955.00,48.20,35.60,61.52,120.00,20.00,0.00,29.86,1009.70,10.00,29.00,OVC,M,M,M,6000.00,M,M,M,-RA,M,M,M,M,M,M,40.66,KINS 101743Z AUTO 12020G29KT 10SM -RA OVC060 09/02 A2986 RMK AO2 RAB02E14RAB29E33RAB43 SLP097 $,M
DRA,2023-01-10 17:44,-116.0278,36.6206,1009.00,49.00,45.00,86.33,240.00,13.00,0.08,29.87,M,2.50,19.00,FEW,OVC,M,M,3000.00,3900.00,M,M,+RA BR,M,M,M,M,M,M,43.22,KDRA 101744Z AUTO 24013G19KT 2 1/2SM +RA BR FEW030 OVC039 09/07 A2987 RMK AO2 P0008 T00940072,M
WMC,2023-01-10 17:49,-117.8072,40.9019,1315.00,33.00,30.00,88.23,280.00,7.00,0.06,29.74,M,1.00,17.00,BKN,OVC,M,M,1300.00,2200.00,M,M,-SN BR,M,M,M,M,M,M,26.12,KWMC 101749Z AUTO 28007G17KT 1SM -SN BR BKN013 OVC022 01/M01 A2974 RMK AO2 RAB11E35UPB20E25SNB35 P0006 T00061011,M
LOL,2023-01-10 17:49,-118.5701,40.0684,1192.43,33.80,M,M,90.00,4.00,T,29.73,M,10.00,M,BKN,BKN,M,M,1500.00,11000.00,M,M,M,M,M,M,M,M,M,M,KLOL 101749Z AUTO 09004KT 10SM BKN015 BKN110 01/ A2973 RMK AO2 UPE06 P0000,M
05U,2023-01-10 17:50,-116.0051,39.6042,1811.23,39.20,33.80,80.79,170.00,11.00,0.00,29.75,M,10.00,M,M,M,M,M,M,M,M,M,M,M,M,M,M,M,M,31.57,K05U 101750Z AUTO 17011KT 140V200 10SM 04/01 A2975 RMK A01,M
P68,2023-01-10 17:53,-116.0056,39.6014,1993.00,40.00,32.00,73.14,180.00,12.00,0.00,29.72,1004.80,M,19.00,M,M,M,M,M,M,M,M,M,M,M,M,M,M,M,32.06,KP68 101753Z AUTO 18012G19KT 04/00 A2972 RMK AO1 SLP048 T00440000 10044 21028 55013,M
DRA,2023-01-10 17:53,-116.0278,36.6206,1009.00,49.00,46.00,89.67,210.00,14.00,0.13,29.87,1009.80,2.50,M,FEW,SCT,OVC,M,2100.00,3000.00,3900.00,M,+RA BR,M,M,M,M,M,M,42.95,KDRA 101753Z AUTO 21014KT 2 1/2SM +RA BR FEW021 SCT030 OVC039 09/08 A2987 RMK AO2 VIS 1 3/4V5 SLP098 P0013 60013 T00940078 10122 20094 55006,M
VGT,2023-01-10 17:53,-115.1933,36.2111,667.00,54.00,39.00,56.74,50.00,4.00,0.00,29.92,1014.60,10.00,M,BKN,M,M,M,11000.00,M,M,M,M,M,M,M,M,M,M,54.00,KVGT 101753Z 05004KT 10SM BKN110 12/04 A2992 RMK AO2 SLP146 T01220039 10122 20089 58007,M
ELY,2023-01-10 17:53,-114.8453,39.2950,1909.00,36.00,33.00,89.09,170.00,28.00,T,29.78,1007.20,5.00,38.00,FEW,BKN,OVC,M,1700.00,2500.00,4700.00,M,-RA BR,M,M,M,38.00,170.00,2023-01-10 17:52,22.59,KELY 101753Z AUTO 17028G38KT 5SM -RA BR FEW017 BKN025 OVC047 02/01 A2978 RMK AO2 PK WND 17038/1752 RAB22 SLP072 P0000 60000 T00220006 10033 20006 58016,M
LOL,2023-01-10 17:53,-118.5701,40.0684,1192.43,33.00,M,M,80.00,4.00,T,29.73,1007.50,10.00,M,BKN,BKN,M,M,1400.00,11000.00,M,M,M,M,M,T,M,M,M,M,KLOL 101753Z AUTO 08004KT 10SM BKN014 BKN110 01/ A2973 RMK AO2 UPE06 SLP075 P0000 60023 I6000 T0006 10011 21006 50004,M
EKO,2023-01-10 17:54,-115.7860,40.8242,1367.00,33.80,30.20,86.49,60.00,5.05,M,29.75,M,10.00,M,BKN,BKN,OVC,M,1499.00,4199.00,4799.00,M,M,M,M,M,M,M,M,28.48,SPECI KEKO 101754Z 06005KT 10SM BKN015 BKN042 OVC048 01/M01 A2975 RMK AO2 PWINO FZRANO $ FIBI,M
BVU,2023-01-10 17:55,-114.8611,35.9475,671.00,57.20,32.00,38.26,150.00,13.00,0.00,29.95,M,10.00,19.00,SCT,BKN,M,M,5000.00,6500.00,M,M,M,M,M,M,M,M,M,57.20,KBVU 101755Z AUTO 15013G19KT 10SM SCT050 BKN065 14/00 A2995 RMK AO2,M
CXP,2023-01-10 17:55,-119.7326,39.1923,1431.00,33.80,33.80,100.00,190.00,8.00,0.02,29.73,M,8.00,14.00,BKN,BKN,BKN,M,1500.00,2000.00,2500.00,M,UP,M,M,M,M,M,M,26.33,KCXP 101755Z AUTO 19008G14KT 170V230 8SM UP BKN015 BKN020 BKN025 01/01 A2973 RMK AO2 P0002,M
RNO,2023-01-10 17:55,-119.7711,39.4839,1341.00,36.00,32.00,85.23,170.00,10.00,0.03,29.70,1005.60,3.00,M,BKN,OVC,M,M,1900.00,3500.00,M,M,-RASN,M,M,M,M,M,M,27.98,KRNO 101755Z 17010KT 3SM -RASN BKN019 OVC035 02/00 A2970 RMK AO2 SNE04B21 SLP056 P0003 60018 T00220000 10033 20000 51013,M
RTS,2023-01-10 17:55,-119.8764,39.6682,1539.00,33.80,30.20,86.49,260.00,9.00,0.00,29.70,M,2.00,15.00,CLR,M,M,M,M,M,M,M,-SN,M,M,M,M,M,M,25.75,KRTS 101755Z AUTO 26009G15KT 2SM -SN CLR 01/M01 A2970 RMK AO2,M
MEV,2023-01-10 17:55,-119.7500,38.9963,1441.42,33.80,32.00,93.03,160.00,11.00,0.01,29.73,M,0.75,16.00,BKN,BKN,BKN,M,400.00,1600.00,2400.00,M,-SN BR,M,M,M,M,M,M,24.74,KMEV 101755Z AUTO 16011G16KT 3/4SM -SN BR BKN004 BKN016 BKN024 01/M00 A2973 RMK AO2 P0001,M
BAM,2023-01-10 17:55,-116.8743,40.5990,1382.36,37.40,33.80,86.69,170.00,5.00,0.00,29.71,M,10.00,M,SCT,BKN,OVC,M,4800.00,6000.00,10000.00,M,M,M,M,M,M,M,M,32.81,KBAM 101755Z AUTO 17005KT 10SM SCT048 BKN060 OVC100 03/01 A2971 RMK AO1,M
TMT,2023-01-10 17:55,-117.1971,39.4643,1749.34,30.70,30.40,98.79,0.00,0.00,0.00,29.71,M,10.00,M,SCT,OVC,M,M,3700.00,4400.00,M,M,UP,M,M,M,M,M,M,30.70,KTMT 101755Z AUTO 00000KT 10SM UP SCT037 OVC044 M01/M01 A2971 RMK AO2 T10071009 11007 21080,M
INS,2023-01-10 17:55,-115.6733,36.5872,955.00,47.70,36.00,63.94,130.00,23.00,T,29.87,1010.20,10.00,31.00,FEW,FEW,OVC,M,2800.00,4000.00,6000.00,M,-RA,M,M,M,32.00,120.00,2023-01-10 17:17,39.42,KINS 101755Z AUTO 13023G31KT 10SM -RA FEW028 FEW040 OVC060 09/02 A2987 RMK AO2 PK WND 12032/17 RAB02E14RAB29E33RAB43 SLP102 P0000 60000 T00870023 10108 20087 56013 $,M
LSV,2023-01-10 17:55,-115.0343,36.2362,570.00,55.40,38.00,52.05,70.00,10.00,0.00,29.90,1012.00,10.00,M,FEW,M,M,M,14000.00,M,M,M,M,M,M,M,M,M,M,55.40,KLSV 101755Z AUTO 07010KT 10SM FEW140 13/03 A2990 RMK AO2 SLP120 T01300034 10130 20112 55011 $,M
EKO,2023-01-10 17:56,-115.7860,40.8242,1367.00,34.00,30.90,88.27,50.00,7.00,0.00,29.75,1008.00,10.00,M,BKN,BKN,OVC,M,1500.00,4300.00,5000.00,M,M,M,M,M,M,M,M,27.22,KEKO 101756Z AUTO 05007KT 10SM BKN015 BKN043 OVC050 01/M01 A2975 RMK AO2 SLP080 T00111006 10011 20006 58011 PWINO FZRANO $,M
WMC,2023-01-10 17:56,-117.8072,40.9019,1315.00,33.00,30.00,88.23,280.00,5.00,0.08,29.74,1007.50,1.00,M,VV ,M,M,M,1200.00,M,M,M,-SN BR,M,M,M,M,M,M,27.70,KWMC 101756Z AUTO 28005KT 1SM -SN BR VV012 01/M01 A2974 RMK AO2 RAB11E35UPB20E25SNB35 SLP075 P0008 60008 T00061011 10033 20006 53016,M
NFL,2023-01-10 17:56,-118.7010,39.4166,1199.00,39.00,34.00,82.08,230.00,8.00,0.00,29.72,1004.50,10.00,M,SCT,SCT,BKN,BKN,1500.00,3000.00,6000.00,13000.00,M,M,M,M,M,M,M,32.74,KNFL 101756Z 23008KT 10SM SCT015 SCT030 BKN060 BKN130 04/01 A2972 RMK AO2 SLP045 WR// 60032 T00390011 10039 20000 50020,M
LAS,2023-01-10 17:56,-115.1634,36.0719,663.00,57.00,33.00,40.28,150.00,13.00,0.00,29.92,1012.60,10.00,21.00,SCT,BKN,BKN,M,5500.00,10000.00,20000.00,M,M,M,M,M,M,M,M,57.00,KLAS 101756Z 15013G21KT 10SM SCT055 BKN100 BKN200 14/01 A2992 RMK AO2 SLP126 T01390006 10144 20111 58009,M
TPH,2023-01-10 17:56,-117.0904,38.0505,1654.00,42.00,37.00,81.98,190.00,23.00,0.00,29.75,1005.80,10.00,35.00,SCT,BKN,BKN,M,2100.00,2600.00,3900.00,M,M,M,M,M,40.00,170.00,2023-01-10 17:15,31.89,KTPH 101756Z AUTO 19023G35KT 10SM SCT021 BKN026 BKN039 06/03 A2975 RMK AO2 PK WND 17040/1715 SLP058 T00560028 10056 20039 55005,M
HND,2023-01-10 17:56,-115.1344,35.9729,742.79,56.00,33.00,41.92,150.00,10.00,0.00,29.94,1015.10,10.00,17.00,BKN,M,M,M,9500.00,M,M,M,M,M,M,M,26.00,160.00,2023-01-10 17:17,55.90,KHND 101756Z 15010G17KT 10SM BKN095 13/01 A2994 RMK AO2 PK WND 16026/1717 SLP151 T01330006 10133 20106 58009,M
DRA,2023-01-10 17:57,-116.0278,36.6206,1009.00,49.00,46.00,89.67,220.00,12.00,0.02,29.87,M,4.00,20.00,SCT,BKN,OVC,M,2400.00,3700.00,5000.00,M,-RA BR,M,M,M,M,M,M,43.51,KDRA 101757Z AUTO 22012G20KT 4SM -RA BR SCT024 BKN037 OVC050 09/08 A2987 RMK AO2 P0002 T00940078,M
LOL,2023-01-10 18:06,-118.5701,40.0684,1192.43,33.00,M,M,120.00,6.00,0.00,29.72,M,10.00,M,BKN,OVC,M,M,900.00,1400.00,M,M,M,M,M,M,M,M,M,M,KLOL 101806Z AUTO 12006KT 10SM BKN009 OVC014 01/ A2972 RMK AO2 T0006,M
RNO,2023-01-10 18:07,-119.7711,39.4839,1341.00,36.00,32.00,85.23,180.00,9.00,T,29.69,M,3.00,M,FEW,BKN,BKN,M,1000.00,3200.00,6500.00,M,-RA,M,M,M,M,M,M,28.49,KRNO 101807Z 18009KT 3SM -RA FEW010 BKN032 BKN065 02/00 A2969 RMK AO2 SFC VIS 6 SNE01 P0000 T00220000,M
EKO,2023-01-10 18:08,-115.7860,40.8242,1367.00,34.00,30.00,85.11,30.00,7.00,0.00,29.75,M,10.00,M,SCT,BKN,OVC,M,1500.00,4100.00,5000.00,M,M,M,M,M,M,M,M,27.22,KEKO 101808Z AUTO 03007KT 10SM SCT015 BKN041 OVC050 01/M01 A2975 RMK AO2 T00111011 PWINO FZRANO $,M
05U,2023-01-10 18:10,-116.0051,39.6042,1811.23,41.00,33.80,75.33,170.00,9.00,0.00,29.75,M,8.00,14.00,M,M,M,M,M,M,M,M,M,M,M,M,M,M,M,34.70,K05U 101810Z AUTO 17009G14KT 8SM 05/01 A2975 RMK A01,M
WMC,2023-01-10 18:12,-117.8072,40.9019,1315.00,33.00,30.90,91.51,110.00,7.00,0.03,29.74,M,2.00,M,OVC,M,M,M,1500.00,M,M,M,-SN BR,M,M,M,M,M,M,26.12,KWMC 101812Z AUTO 11007KT 2SM -SN BR OVC015 01/M01 A2974 RMK AO2 P0003 T00061006,M
TPH,2023-01-10 18:13,-117.0904,38.0505,1654.00,43.00,37.00,79.19,200.00,26.00,0.00,29.75,M,10.00,35.00,FEW,SCT,BKN,M,2500.00,3800.00,9000.00,M,M,M,M,M,35.00,200.00,2023-01-10 18:12,32.52,KTPH 101813Z AUTO 20026G35KT 10SM FEW025 SCT038 BKN090 06/03 A2975 RMK AO2 PK WND 20035/1812 T00610028,M
BVU,2023-01-10 18:15,-114.8611,35.9475,671.00,57.20,32.00,38.26,180.00,17.00,0.00,29.96,M,10.00,24.00,OVC,M,M,M,5000.00,M,M,M,M,M,M,M,M,M,M,57.20,KBVU 101815Z AUTO 18017G24KT 10SM OVC050 14/M00 A2996 RMK AO2,M
CXP,2023-01-10 18:15,-119.7326,39.1923,1431.00,33.80,32.00,93.03,180.00,7.00,0.00,29.74,M,7.00,M,FEW,SCT,SCT,M,1600.00,2400.00,3100.00,M,-SN,M,M,M,M,M,M,26.97,KCXP 101815Z AUTO 18007KT 7SM -SN FEW016 SCT024 SCT031 01/00 A2974 RMK AO2 LTG DSNT W,M
RTS,2023-01-10 18:15,-119.8764,39.6682,1539.00,33.80,30.20,86.49,80.00,4.00,0.00,29.70,M,4.00,M,FEW,M,M,M,2500.00,M,M,M,-SN,M,M,M,M,M,M,29.52,KRTS 101815Z AUTO 08004KT 4SM -SN FEW025 01/M01 A2970 RMK AO2,M
MEV,2023-01-10 18:15,-119.7500,38.9963,1441.42,33.80,32.00,93.03,140.00,9.00,0.00,29.74,M,1.25,16.00,SCT,M,M,M,300.00,M,M,M,-SN BR,M,M,M,M,M,M,25.75,KMEV 101815Z AUTO 14009G16KT 1 1/4SM -SN BR SCT003 01/M00 A2974 RMK AO2 LTG DSNT NW VIS 3/4V2 1/2,M
BAM,2023-01-10 18:15,-116.8743,40.5990,1382.36,35.60,33.80,93.08,190.00,4.00,0.00,29.71,M,10.00,M,SCT,BKN,OVC,M,3900.00,4600.00,6000.00,M,M,M,M,M,M,M,M,31.62,KBAM 101815Z AUTO 19004KT 10SM SCT039 BKN046 OVC060 02/01 A2971 RMK AO1,M
WMC,2023-01-10 18:20,-117.8072,40.9019,1315.00,33.00,30.90,91.51,120.00,5.00,0.04,29.74,M,7.00,M,FEW,BKN,OVC,M,1700.00,2300.00,5000.00,M,-SN,M,M,M,M,M,M,27.70,KWMC 101820Z AUTO 12005KT 7SM -SN FEW017 BKN023 OVC050 01/M01 A2974 RMK AO2 P0004 T00061006,M
RNO,2023-01-10 18:23,-119.7711,39.4839,1341.00,37.00,33.00,85.64,0.00,0.00,T,29.70,M,8.00,M,FEW,BKN,BKN,M,1000.00,4000.00,9500.00,M,M,M,M,M,M,M,M,37.00,KRNO 101823Z 00000KT 8SM FEW010 BKN040 BKN095 03/01 A2970 RMK AO2 RAE13SNE01 P0000 T00280006,M
ELY,2023-01-10 18:26,-114.8453,39.2950,1909.00,37.00,33.00,85.64,160.00,28.00,T,29.79,M,10.00,41.00,SCT,BKN,OVC,M,1900.00,4100.00,5500.00,M,M,M,M,M,41.00,140.00,2023-01-10 18:19,23.96,KELY 101826Z AUTO 16028G41KT 10SM SCT019 BKN041 OVC055 03/01 A2979 RMK AO2 PK WND 14041/1819 RAE11 P0000 T00280006,M
WMC,2023-01-10 18:30,-117.8072,40.9019,1315.00,33.00,30.90,91.51,110.00,7.00,0.04,29.72,M,10.00,M,FEW,BKN,OVC,M,1700.00,3500.00,6000.00,M,UP,M,M,M,M,M,M,26.12,KWMC 101830Z AUTO 11007KT 10SM UP FEW017 BKN035 OVC060 01/M01 A2972 RMK AO2 UPB23SNE23 P0004 T00061006,M
BVU,2023-01-10 18:35,-114.8611,35.9475,671.00,57.20,32.00,38.26,150.00,15.00,0.00,29.94,M,10.00,20.00,BKN,M,M,M,5000.00,M,M,M,M,M,M,M,M,M,M,57.20,KBVU 101835Z AUTO 15015G20KT 10SM BKN050 14/M00 A2994 RMK AO2,M
CXP,2023-01-10 18:35,-119.7326,39.1923,1431.00,33.80,32.00,93.03,190.00,8.00,0.00,29.74,M,3.00,M,FEW,FEW,M,M,2400.00,3100.00,M,M,-SN BR,M,M,M,M,M,M,26.33,KCXP 101835Z AUTO 19008KT 3SM -SN BR FEW024 FEW031 01/M00 A2974 RMK AO2,M
RTS,2023-01-10 18:35,-119.8764,39.6682,1539.00,33.80,30.20,86.49,110.00,7.00,0.00,29.70,M,3.00,M,FEW,SCT,BKN,M,700.00,1400.00,1900.00,M,-SN,M,M,M,M,M,M,26.97,KRTS 101835Z AUTO 11007KT 3SM -SN FEW007 SCT014 BKN019 01/M01 A2970 RMK AO2,M
05U,2023-01-10 18:35,-116.0051,39.6042,1811.23,41.00,33.80,75.33,160.00,14.00,0.00,29.73,M,7.00,M,M,M,M,M,M,M,M,M,M,M,M,M,M,M,M,32.76,K05U 101835Z AUTO 16014KT 7SM 05/01 A2973 RMK A01,M
MEV,2023-01-10 18:35,-119.7500,38.9963,1441.42,33.80,32.00,93.03,150.00,7.00,0.00,29.75,M,0.25,M,OVC,M,M,M,300.00,M,M,M,SN FG,M,M,M,M,M,M,26.97,KMEV 101835Z AUTO 15007KT 1/4SM SN FG OVC003 01/M00 A2975 RMK AO2,M
BAM,2023-01-10 18:35,-116.8743,40.5990,1382.36,35.60,33.80,93.08,230.00,5.00,0.00,29.72,M,10.00,M,SCT,BKN,OVC,M,3000.00,3900.00,4600.00,M,M,M,M,M,M,M,M,30.67,KBAM 101835Z AUTO 23005KT 10SM SCT030 BKN039 OVC046 02/01 A2972 RMK AO1,M
TMT,2023-01-10 18:35,-117.1971,39.4643,1749.34,32.00,32.00,100.00,260.00,4.00,0.01,29.75,M,0.25,M,OVC,M,M,M,500.00,M,M,M,SN,M,M,M,M,M,M,27.42,KTMT 101835Z AUTO 26004KT 1/4SM SN OVC005 00/00 A2975 RMK AO2 P0001 T00000000,M
INS,2023-01-10 18:40,-115.6733,36.5872,955.00,46.40,39.20,75.84,100.00,24.00,0.00,29.86,1009.90,10.00,27.00,FEW,FEW,BKN,BKN,400.00,3000.00,3900.00,4900.00,M,M,M,M,M,M,M,37.49,KINS 101840Z AUTO 10024G27KT 10SM FEW004 FEW030 BKN039 BKN049 BKN075 OVC110 08/04 A2986 RMK AO2 RAE40 SLP099 $,M
05U,2023-01-10 18:50,-116.0051,39.6042,1811.23,39.20,33.80,80.79,170.00,19.00,0.00,29.72,M,9.00,M,M,M,M,M,M,M,M,M,M,M,M,M,M,M,M,28.96,K05U 101850Z AUTO 17019KT 9SM 04/01 A2972 RMK A01,M
ELY,2023-01-10 18:53,-114.8453,39.2950,1909.00,37.00,32.00,81.93,150.00,29.00,T,29.77,1006.40,10.00,44.00,SCT,BKN,OVC,M,2100.00,3900.00,4600.00,M,M,M,M,M,44.00,150.00,2023-01-10 18:46,23.76,KELY 101853Z AUTO 15029G44KT 10SM SCT021 BKN039 OVC046 03/00 A2977 RMK AO2 PK WND 15044/1846 RAE11B27E44 SLP064 P0000 T00280000,M
LOL,2023-01-10 18:53,-118.5701,40.0684,1192.43,33.00,M,M,170.00,3.00,0.00,29.73,1008.00,10.00,M,OVC,M,M,M,800.00,M,M,M,M,M,M,M,M,M,M,M,KLOL 101853Z AUTO 17003KT 10SM OVC008 01/ A2973 RMK AO2 SLP080 T0006,M
P68,2023-01-10 18:53,-116.0056,39.6014,1993.00,39.00,33.00,79.17,170.00,19.00,0.00,29.69,1003.50,M,27.00,M,M,M,M,M,M,M,M,M,M,M,M,27.00,170.00,2023-01-10 18:51,28.69,KP68 101853Z AUTO 17019G27KT 04/01 A2969 RMK AO1 PK WND 17027/1851 SLP035 T00390006,M
DRA,2023-01-10 18:53,-116.0278,36.6206,1009.00,52.00,42.00,68.86,210.00,15.00,0.02,29.83,1008.00,10.00,46.00,BKN,OVC,M,M,5000.00,6500.00,M,M,-RA,M,M,M,46.00,180.00,2023-01-10 18:48,52.00,KDRA 101853Z AUTO 21015G46KT 10SM -RA BKN050 OVC065 11/06 A2983 RMK AO2 PK WND 18046/1848 RAE03B46 SLP080 P0002 T01110056,M
VGT,2023-01-10 18:53,-115.1933,36.2111,667.00,58.00,38.00,47.18,150.00,8.00,T,29.89,1013.20,10.00,M,FEW,M,M,M,8500.00,M,M,M,M,M,M,M,M,M,M,57.90,KVGT 101853Z 15008KT 10SM FEW085 14/03 A2989 RMK AO2 RAB20E29 SLP132 P0000 T01440033,M
BVU,2023-01-10 18:55,-114.8611,35.9475,671.00,57.20,32.00,38.26,140.00,14.00,0.00,29.93,M,10.00,M,OVC,M,M,M,4900.00,M,M,M,M,M,M,M,M,M,M,57.20,KBVU 101855Z AUTO 14014KT 10SM OVC049 14/00 A2993 RMK AO2,M
CXP,2023-01-10 18:55,-119.7326,39.1923,1431.00,33.80,32.00,93.03,170.00,11.00,0.01,29.73,M,3.00,18.00,CLR,M,M,M,M,M,M,M,-SN BR,M,M,M,M,M,M,24.74,KCXP 101855Z AUTO 17011G18KT 3SM -SN BR CLR 01/M00 A2973 RMK AO2 P0001,M
RTS,2023-01-10 18:55,-119.8764,39.6682,1539.00,33.80,30.20,86.49,60.00,7.00,0.00,29.70,M,5.00,M,SCT,BKN,BKN,M,700.00,1300.00,1800.00,M,-SN,M,M,M,M,M,M,26.97,KRTS 101855Z AUTO 06007KT 5SM -SN SCT007 BKN013 BKN018 01/M01 A2970 RMK AO2,M
MEV,2023-01-10 18:55,-119.7500,38.9963,1441.42,32.00,32.00,100.00,150.00,15.00,0.01,29.74,M,0.25,M,OVC,M,M,M,300.00,M,M,M,SN FG,M,M,M,M,M,M,20.78,KMEV 101855Z AUTO 15015KT 1/4SM SN FG OVC003 00/M00 A2974 RMK AO2 P0001,M
BAM,2023-01-10 18:55,-116.8743,40.5990,1382.36,33.80,33.80,100.00,240.00,13.00,0.00,29.76,M,2.00,22.00,BKN,BKN,OVC,M,1300.00,2100.00,2700.00,M,M,M,M,M,M,M,M,23.87,KBAM 101855Z AUTO 24013G22KT 2SM BKN013 BKN021 OVC027 01/01 A2976 RMK AO1,M
TMT,2023-01-10 18:55,-117.1971,39.4643,1749.34,32.00,32.00,100.00,210.00,4.00,0.03,29.77,M,0.75,M,OVC,M,M,M,700.00,M,M,M,-SN,M,M,M,M,M,M,27.42,KTMT 101855Z AUTO 21004KT 3/4SM -SN OVC007 00/00 A2977 RMK AO2 LTG DSNT W P0003 T00000000,M
LSV,2023-01-10 18:55,-115.0343,36.2362,570.00,61.00,37.80,42.07,160.00,14.00,0.00,29.87,1010.80,10.00,20.00,FEW,FEW,M,M,6000.00,10000.00,M,M,M,M,M,M,M,M,M,61.00,KLSV 101855Z AUTO 16014G20KT 10SM FEW060 FEW100 16/03 A2987 RMK AO2 SLP108 T01610032 $,M
INS,2023-01-10 18:55,-115.6733,36.5872,955.00,46.60,38.00,72.10,120.00,20.00,0.01,29.85,1009.50,10.00,27.00,FEW,BKN,BKN,OVC,2800.00,4700.00,6000.00,7500.00,M,M,M,M,29.00,120.00,2023-01-10 18:40,38.53,KINS 101855Z AUTO 12020G27KT 10SM FEW028 BKN047 BKN060 OVC075 08/03 A2985 RMK AO2 PK WND 12029/40 RAE40 SLP095 P0001 T00810034 $,M
RNO,2023-01-10 18:55,-119.7711,39.4839,1341.00,39.00,33.00,79.17,0.00,0.00,T,29.69,1005.10,10.00,M,FEW,BKN,BKN,M,2000.00,5500.00,9000.00,M,M,M,M,M,M,M,M,39.00,KRNO 101855Z 00000KT 10SM FEW020 BKN055 BKN090 04/01 A2969 RMK AO2 RAE13SNE01 SLP051 P0000 T00390006,M
EKO,2023-01-10 18:56,-115.7860,40.8242,1367.00,34.00,30.90,88.27,80.00,6.00,0.00,29.71,1006.70,10.00,M,FEW,SCT,OVC,M,3900.00,4800.00,6000.00,M,M,M,M,M,M,M,M,27.94,KEKO 101856Z AUTO 08006KT 10SM FEW039 SCT048 OVC060 01/M01 A2971 RMK AO2 SLP067 T00111006 PWINO FZRANO $,M
WMC,2023-01-10 18:56,-117.8072,40.9019,1315.00,34.00,30.90,88.27,200.00,7.00,0.04,29.69,1005.50,10.00,M,SCT,BKN,OVC,M,1800.00,2400.00,10000.00,M,M,M,M,M,M,M,M,27.22,KWMC 101856Z AUTO 20007KT 10SM SCT018 BKN024 OVC100 01/M01 A2969 RMK AO2 UPB23E33RAB50E54SNE23B33E50 SLP055 P0004 T00111006,M
NFL,2023-01-10 18:56,-118.7010,39.4166,1199.00,41.00,36.00,82.22,230.00,8.00,0.00,29.72,1004.60,10.00,M,SCT,SCT,BKN,BKN,1000.00,3000.00,8000.00,13000.00,M,M,M,M,M,M,M,35.20,KNFL 101856Z 23008KT 10SM SCT010 SCT030 BKN080 BKN130 05/02 A2972 RMK AO2 SLP046 T00500022,M
LAS,2023-01-10 18:56,-115.1634,36.0719,663.00,61.00,36.00,39.19,170.00,14.00,0.00,29.87,1010.90,10.00,22.00,FEW,SCT,M,M,5500.00,10000.00,M,M,M,M,M,M,M,M,M,61.00,KLAS 101856Z 17014G22KT 10SM FEW055 SCT100 16/02 A2987 RMK AO2 SLP109 T01610022,M
HND,2023-01-10 18:56,-115.1344,35.9729,742.79,60.00,35.00,39.04,150.00,13.00,0.00,29.90,1013.30,10.00,21.00,CLR,M,M,M,M,M,M,M,M,M,M,M,30.00,150.00,2023-01-10 18:37,60.10,KHND 101856Z 15013G21KT 10SM CLR 16/02 A2990 RMK AO2 PK WND 15030/1837 SLP133 T01560017,M
TPH,2023-01-10 18:56,-117.0904,38.0505,1654.00,42.00,38.00,84.93,200.00,21.00,T,29.75,1005.80,10.00,29.00,SCT,BKN,OVC,M,1300.00,2100.00,4600.00,M,-RA,M,M,M,37.00,200.00,2023-01-10 18:17,32.32,KTPH 101856Z AUTO 20021G29KT 10SM -RA SCT013 BKN021 OVC046 06/03 A2975 RMK AO2 PK WND 20037/1817 RAB30 SLP058 P0000 T00560033,M
INS,2023-01-10 18:57,-115.6733,36.5872,955.00,46.40,37.40,70.68,120.00,19.00,0.00,29.85,1009.50,10.00,27.00,FEW,BKN,BKN,BKN,3700.00,4700.00,6000.00,7500.00,-RA,M,M,M,M,M,M,38.48,KINS 101857Z AUTO 12019G27KT 10SM -RA FEW037 BKN047 BKN060 BKN075 OVC110 08/03 A2985 RMK AO2 RAB57 SLP095 $,M
ELY,2023-01-10 19:03,-114.8453,39.2950,1909.00,37.00,32.00,81.93,160.00,23.00,0.00,29.77,M,10.00,40.00,BKN,BKN,OVC,M,2100.00,4000.00,5000.00,M,M,M,M,M,40.00,150.00,2023-01-10 18:55,25.03,KELY 101903Z AUTO 16023G40KT 10SM BKN021 BKN040 OVC050 03/00 A2977 RMK AO2 PK WND 15040/1855 T00280000,M
INS,2023-01-10 19:07,-115.6733,36.5872,955.00,46.40,39.20,75.84,100.00,20.00,0.00,29.83,1008.90,10.00,24.00,SCT,OVC,M,M,4700.00,6000.00,M,M,M,M,M,M,M,M,M,38.26,KINS 101907Z AUTO 10020G24KT 10SM SCT047 OVC060 08/04 A2983 RMK AO2 RAB1857E1858DZB1858E06RAB06E07 PRESFR SLP089 $,M
BVU,2023-01-10 19:15,-114.8611,35.9475,671.00,59.00,33.80,38.56,150.00,14.00,0.00,29.91,M,10.00,20.00,OVC,M,M,M,5000.00,M,M,M,M,M,M,M,M,M,M,59.00,KBVU 101915Z AUTO 15014G20KT 10SM OVC050 15/01 A2991 RMK AO2 LTG DSNT W AND NW,M
CXP,2023-01-10 19:15,-119.7326,39.1923,1431.00,33.80,32.00,93.03,170.00,11.00,0.00,29.74,M,2.50,18.00,CLR,M,M,M,M,M,M,M,-SN BR,M,M,M,M,M,M,24.74,KCXP 101915Z AUTO 17011G18KT 2 1/2SM -SN BR CLR 01/00 A2974 RMK AO2 VIS 1 3/4V5,M
RTS,2023-01-10 19:15,-119.8764,39.6682,1539.00,33.80,30.20,86.49,270.00,8.00,0.00,29.71,M,4.00,M,FEW,BKN,BKN,M,800.00,1400.00,2100.00,M,-SN,M,M,M,M,M,M,26.33,KRTS 101915Z AUTO 27008KT 250V310 4SM -SN FEW008 BKN014 BKN021 01/M01 A2971 RMK AO2,M
05U,2023-01-10 19:15,-116.0051,39.6042,1811.23,39.20,33.80,80.79,160.00,20.00,0.00,29.69,M,7.00,28.00,M,M,M,M,M,M,M,M,M,M,M,M,M,M,M,28.70,K05U 101915Z AUTO 16020G28KT 7SM 04/01 A2969 RMK A01,M
MEV,2023-01-10 19:15,-119.7500,38.9963,1441.42,32.00,32.00,100.00,170.00,15.00,0.00,29.74,M,0.25,26.00,OVC,M,M,M,300.00,M,M,M,SN FG,M,M,M,M,M,M,20.78,KMEV 101915Z AUTO 17015G26KT 1/4SM SN FG OVC003 00/00 A2974 RMK AO2,M
BAM,2023-01-10 19:15,-116.8743,40.5990,1382.36,33.80,33.80,100.00,230.00,13.00,0.00,29.76,M,5.00,M,BKN,OVC,M,M,1300.00,2000.00,M,M,M,M,M,M,M,M,M,23.87,KBAM 101915Z AUTO 23013KT 5SM BKN013 OVC020 01/01 A2976 RMK AO1,M
TMT,2023-01-10 19:15,-117.1971,39.4643,1749.34,32.00,32.00,100.00,200.00,5.00,0.00,29.76,M,1.00,M,OVC,M,M,M,1000.00,M,M,M,-SN,M,M,M,M,M,M,26.40,KTMT 101915Z AUTO 20005KT 1SM -SN OVC010 00/00 A2976 RMK AO2 VIS 1/2V2 1/2 LTG DSNT S AND W T00000000,M
ELY,2023-01-10 19:22,-114.8453,39.2950,1909.00,36.00,33.00,89.09,170.00,26.00,T,29.76,M,10.00,34.00,SCT,SCT,OVC,M,2000.00,4200.00,5000.00,M,-RA,M,M,M,40.00,150.00,2023-01-10 18:55,23.01,KELY 101922Z AUTO 17026G34KT 10SM -RA SCT020 SCT042 OVC050 02/01 A2976 RMK AO2 PK WND 15040/1855 RAB18 P0000 T00220006,M
INS,2023-01-10 19:24,-115.6733,36.5872,955.00,48.20,37.40,66.05,130.00,18.00,0.00,29.82,1008.30,10.00,27.00,BKN,OVC,M,M,4900.00,6500.00,M,M,-RA,M,M,M,M,M,M,41.07,KINS 101924Z AUTO 13018G27KT 10SM -RA BKN049 OVC065 09/03 A2982 RMK AO2 RAB1857E1858DZB1858E06RAB06E07RAB24 SLP083 $,M
EKO,2023-01-10 19:25,-115.7860,40.8242,1367.00,34.00,30.90,88.27,70.00,6.00,0.00,29.69,M,2.00,M,BKN,OVC,M,M,3300.00,4200.00,M,M,BR,M,M,M,M,M,M,27.94,KEKO 101925Z AUTO 07006KT 2SM BR BKN033 OVC042 01/M01 A2969 RMK AO2 T00111006 PWINO FZRANO,M
RNO,2023-01-10 19:25,-119.7711,39.4839,1341.00,39.00,32.00,75.75,210.00,14.00,T,29.72,M,3.00,M,BKN,OVC,M,M,2500.00,4500.00,M,M,-RASN,M,M,M,M,M,M,30.19,KRNO 101925Z 21014KT 3SM -RASN BKN025 OVC045 04/00 A2972 RMK AO2 RAB24SNB24 P0000 T00390000,M
WMC,2023-01-10 19:28,-117.8072,40.9019,1315.00,35.00,32.00,88.33,180.00,12.00,0.00,29.69,M,10.00,M,FEW,SCT,SCT,M,1800.00,2300.00,4700.00,M,M,M,M,M,M,M,M,25.95,KWMC 101928Z AUTO 18012KT 10SM FEW018 SCT023 SCT047 02/00 A2969 RMK AO2 T00170000,M
RNO,2023-01-10 19:28,-119.7711,39.4839,1341.00,38.00,30.90,75.64,230.00,16.00,T,29.72,M,1.00,21.00,OVC,M,M,M,2500.00,M,M,M,-SNRA,M,M,M,M,M,M,28.11,KRNO 101928Z 23016G21KT 1SM -SNRA OVC025 03/M01 A2972 RMK AO2 RAB24SNB24 P0000 T00331006 RVRNO,M
05U,2023-01-10 19:30,-116.0051,39.6042,1811.23,41.00,33.80,75.33,170.00,19.00,0.00,29.69,M,9.00,29.00,M,M,M,M,M,M,M,M,M,M,M,M,M,M,M,31.34,K05U 101930Z AUTO 17019G29KT 9SM 05/01 A2969 RMK A01,M
TPH,2023-01-10 19:32,-117.0904,38.0505,1654.00,40.00,38.00,92.48,220.00,21.00,0.01,29.75,M,9.00,34.00,SCT,BKN,OVC,M,1800.00,3500.00,4500.00,M,-RA,M,M,M,34.00,210.00,2023-01-10 19:24,29.39,KTPH 101932Z AUTO 22021G34KT 9SM -RA SCT018 BKN035 OVC045 04/03 A2975 RMK AO2 PK WND 21034/1924 P0001 T00440033,M
INS,2023-01-10 19:34,-115.6733,36.5872,955.00,48.20,37.40,66.05,130.00,19.00,0.00,29.80,1007.60,10.00,25.00,BKN,OVC,M,M,4900.00,6000.00,M,M,M,M,M,M,M,M,M,40.86,KINS 101934Z AUTO 13019G25KT 10SM BKN049 OVC060 09/03 A2980 RMK AO2 RAB1857E1858DZB1858E06RAB06E07RAB24E34 PRESFR SLP076 $,M
BVU,2023-01-10 19:35,-114.8611,35.9475,671.00,60.80,35.60,38.85,150.00,17.00,0.00,29.87,M,10.00,24.00,OVC,M,M,M,4900.00,M,M,M,M,M,M,M,M,M,M,60.80,KBVU 101935Z AUTO 15017G24KT 10SM OVC049 16/02 A2987 RMK AO2,M
CXP,2023-01-10 19:35,-119.7326,39.1923,1431.00,33.80,32.00,93.03,M,3.00,0.00,29.74,M,0.50,M,BKN,BKN,M,M,600.00,1100.00,M,M,-SN BR,M,M,M,M,M,M,30.75,KCXP 101935Z AUTO VRB03KT 1/2SM -SN BR BKN006 BKN011 01/00 A2974 RMK AO2 LTG DSNT S AND W VIS 1/4V1 3/4,M
EKO,2023-01-10 19:35,-115.7860,40.8242,1367.00,34.00,30.90,88.27,60.00,6.00,0.00,29.68,M,3.00,M,BKN,OVC,M,M,3300.00,4100.00,M,M,BR,M,M,M,M,M,M,27.94,KEKO 101935Z AUTO 06006KT 3SM BR BKN033 OVC041 01/M01 A2968 RMK AO2 T00111006 PWINO FZRANO,M
RNO,2023-01-10 19:35,-119.7711,39.4839,1341.00,36.00,30.90,81.53,200.00,12.00,T,29.73,M,0.75,21.00,OVC,M,M,M,1600.00,M,M,M,-SN,M,M,M,M,M,M,27.09,KRNO 101935Z 20012G21KT 3/4SM -SN OVC016 02/M01 A2973 RMK AO2 RAB24E30SNB24 P0000 T00221006 RVRNO,M
RTS,2023-01-10 19:35,-119.8764,39.6682,1539.00,33.80,32.00,93.03,M,4.00,0.00,29.71,M,0.75,M,BKN,BKN,M,M,500.00,1500.00,M,M,-SN,M,M,M,M,M,M,29.52,KRTS 101935Z AUTO VRB04KT 3/4SM -SN BKN005 BKN015 01/M00 A2971 RMK AO2,M
MEV,2023-01-10 19:35,-119.7500,38.9963,1441.42,33.80,32.00,93.03,160.00,17.00,0.00,29.73,M,2.50,22.00,FEW,SCT,SCT,M,300.00,4600.00,5000.00,M,-SN BR,M,M,M,M,M,M,22.43,KMEV 101935Z AUTO 16017G22KT 2 1/2SM -SN BR FEW003 SCT046 SCT050 01/00 A2973 RMK AO2 LTG DSNT S AND W VIS 1V5,M
BAM,2023-01-10 19:35,-116.8743,40.5990,1382.36,33.80,33.80,100.00,220.00,7.00,0.00,29.75,M,2.50,M,OVC,M,M,M,1800.00,M,M,M,M,M,M,M,M,M,M,26.97,KBAM 101935Z AUTO 22007KT 2 1/2SM OVC018 01/01 A2975 RMK AO1 VIS 1V5,M
TMT,2023-01-10 19:35,-117.1971,39.4643,1749.34,32.00,32.00,100.00,190.00,7.00,0.00,29.74,M,1.00,M,BKN,OVC,M,M,800.00,1500.00,M,M,-SN,M,M,M,M,M,M,24.78,KTMT 101935Z AUTO 19007KT 1SM -SN BKN008 OVC015 00/00 A2974 RMK AO2 VIS 1/2V3 LTG DSNT W T00000000,M
LOL,2023-01-10 19:35,-118.5701,40.0684,1192.43,35.00,M,M,180.00,5.00,0.00,29.70,M,10.00,M,BKN,M,M,M,300.00,M,M,M,M,M,M,M,M,M,M,M,KLOL 101935Z AUTO 18005KT 10SM BKN003 02/ A2970 RMK AO2 CIG 003V008 T0017 TSNO,M
RNO,2023-01-10 19:38,-119.7711,39.4839,1341.00,34.00,30.90,88.27,200.00,10.00,0.01,29.73,M,0.25,M,OVC,M,M,M,1200.00,M,M,M,+SN,M,M,M,M,M,M,25.48,KRNO 101938Z 20010KT 1/4SM +SN OVC012 01/M01 A2973 RMK AO2 RAB24E30SNB24 P0001 T00111006 RVRNO,M
LOL,2023-01-10 19:41,-118.5701,40.0684,1192.43,35.00,M,M,170.00,5.00,0.00,29.70,M,10.00,M,SCT,M,M,M,400.00,M,M,M,M,M,M,M,M,M,M,M,KLOL 101941Z AUTO 17005KT 10SM SCT004 02/ A2970 RMK AO2 T0017 TSNO,M
05U,2023-01-10 19:50,-116.0051,39.6042,1811.23,41.00,33.80,75.33,180.00,18.00,0.00,29.69,M,10.00,25.00,M,M,M,M,M,M,M,M,M,M,M,M,M,M,M,31.60,K05U 101950Z AUTO 18018G25KT 10SM 05/01 A2969 RMK A01,M
RNO,2023-01-10 19:51,-119.7711,39.4839,1341.00,33.80,32.00,93.03,140.00,10.00,0.06,29.70,M,0.75,M,OVC,M,M,M,1600.00,M,M,M,-SN,M,M,M,M,M,M,25.23,KRNO 101951Z 14010KT 3/4SM -SN OVC016 01/00 A2970 RMK AO2 WSHFT 1933 RAB24E30SNB24 PRESFR P0006 RVRNO,M
P68,2023-01-10 19:53,-116.0056,39.6014,1993.00,39.00,32.00,75.75,180.00,26.00,0.00,29.66,1002.20,M,39.00,M,M,M,M,M,M,M,M,M,M,M,M,39.00,190.00,2023-01-10 19:51,27.08,KP68 101953Z AUTO 18026G39KT 04/00 A2966 RMK AO1 PK WND 19039/1951 SLP022 T00390000,M
VGT,2023-01-10 19:53,-115.1933,36.2111,667.00,61.00,39.00,44.10,150.00,16.00,0.00,29.81,1010.70,10.00,20.00,BKN,OVC,M,M,10000.00,11000.00,M,M,M,M,M,M,M,M,M,61.00,KVGT 101953Z 15016G20KT 10SM BKN100 OVC110 16/04 A2981 RMK AO2 PRESFR SLP107 T01610039,M
LOL,2023-01-10 19:53,-118.5701,40.0684,1192.43,36.00,M,M,0.00,0.00,0.00,29.70,1006.70,10.00,M,SCT,BKN,M,M,400.00,11000.00,M,M,M,M,M,M,M,M,M,M,KLOL 101953Z AUTO 00000KT 10SM SCT004 BKN110 02/ A2970 RMK AO2 SLP067 T0022 TSNO,M
ELY,2023-01-10 19:53,-114.8453,39.2950,1909.00,36.00,33.00,89.09,160.00,22.00,T,29.72,1004.70,10.00,32.00,BKN,BKN,OVC,M,4900.00,5500.00,7000.00,M,-RA,M,M,M,40.00,150.00,2023-01-10 18:55,23.93,KELY 101953Z AUTO 16022G32KT 10SM -RA BKN049 BKN055 OVC070 02/01 A2972 RMK AO2 PK WND 15040/1855 RAB18 SLP047 P0000 T00220006,M
DRA,2023-01-10 19:53,-116.0278,36.6206,1009.00,49.00,45.00,86.33,220.00,16.00,0.05,29.81,1007.70,4.00,30.00,FEW,BKN,OVC,M,3200.00,4000.00,5000.00,M,RA BR,M,M,M,35.00,200.00,2023-01-10 19:30,42.45,KDRA 101953Z AUTO 22016G30KT 4SM RA BR FEW032 BKN040 OVC050 09/07 A2981 RMK AO2 PK WND 20035/1930 SLP077 P0005 T00940072,M
BVU,2023-01-10 19:55,-114.8611,35.9475,671.00,62.60,37.40,39.14,170.00,21.00,0.00,29.87,M,10.00,29.00,BKN,BKN,BKN,M,4900.00,6500.00,7500.00,M,M,M,M,M,M,M,M,62.60,KBVU 101955Z AUTO 17021G29KT 10SM BKN049 BKN065 BKN075 17/03 A2987 RMK AO2,M
CXP,2023-01-10 19:55,-119.7326,39.1923,1431.00,33.80,32.00,93.03,230.00,6.00,0.01,29.76,M,0.50,11.00,OVC,M,M,M,300.00,M,M,M,-SN FG,M,M,M,M,M,M,27.70,KCXP 101955Z AUTO 23006G11KT 1/2SM -SN FG OVC003 01/00 A2976 RMK AO2 P0001,M
INS,2023-01-10 19:55,-115.6733,36.5872,955.00,48.70,37.60,65.34,140.00,13.00,T,29.81,1007.90,10.00,25.00,BKN,OVC,M,M,5000.00,6500.00,M,M,M,M,M,M,27.00,130.00,2023-01-10 19:21,42.96,KINS 101955Z AUTO 14013G25KT 10SM BKN050 OVC065 09/03 A2981 RMK AO2 PK WND 13027/21 RAB1857E1858DZB1858E06RAB06E07RAB24E34 SLP079 P0000 T00930031 $,M
RNO,2023-01-10 19:55,-119.7711,39.4839,1341.00,34.00,32.00,92.29,140.00,11.00,0.07,29.70,1006.20,0.75,M,OVC,M,M,M,1600.00,M,M,M,-SN,M,M,M,M,M,M,24.99,KRNO 101955Z 14011KT 3/4SM -SN OVC016 01/00 A2970 RMK AO2 WSHFT 1933 TWR VIS 2 1/2 RAB24E30SNB24 SLP062 P0007 T00110000 RVRNO,M
RTS,2023-01-10 19:55,-119.8764,39.6682,1539.00,33.80,32.00,93.03,50.00,12.00,0.00,29.68,M,1.50,M,FEW,BKN,BKN,M,500.00,1900.00,2700.00,M,-SN,M,M,M,M,M,M,24.29,KRTS 101955Z AUTO 05012KT 1 1/2SM -SN FEW005 BKN019 BKN027 01/M00 A2968 RMK AO2,M
MEV,2023-01-10 19:55,-119.7500,38.9963,1441.42,33.80,32.00,93.03,160.00,17.00,0.02,29.73,M,0.75,26.00,SCT,BKN,M,M,4600.00,5500.00,M,M,-SN BR,M,M,M,M,M,M,22.43,KMEV 101955Z AUTO 16017G26KT 3/4SM -SN BR SCT046 BKN055 01/M00 A2973 RMK AO2 P0002,M
BAM,2023-01-10 19:55,-116.8743,40.5990,1382.36,33.80,33.80,100.00,120.00,6.00,0.00,29.71,M,4.00,M,SCT,BKN,OVC,M,600.00,1600.00,3900.00,M,M,M,M,M,M,M,M,27.70,KBAM 101955Z AUTO 12006KT 4SM SCT006 BKN016 OVC039 01/01 A2971 RMK AO1,M
TMT,2023-01-10 19:55,-117.1971,39.4643,1749.34,32.20,32.00,99.20,230.00,5.00,0.00,29.71,M,10.00,M,SCT,SCT,BKN,M,800.00,1400.00,9500.00,M,M,M,M,M,M,M,M,26.63,KTMT 101955Z AUTO 23005KT 10SM SCT008 SCT014 BKN095 00/00 A2971 RMK AO2 T00010000,M
LSV,2023-01-10 19:55,-115.0343,36.2362,570.00,62.60,39.20,42.00,170.00,19.00,0.00,29.80,1008.30,10.00,25.00,CLR,M,M,M,M,M,M,M,M,M,M,M,M,M,M,62.60,KLSV 101955Z AUTO 17019G25KT 10SM CLR 17/04 A2980 RMK AO2 PRESFR SLP083 T01700040 $,M
WMC,2023-01-10 19:56,-117.8072,40.9019,1315.00,37.00,34.00,88.78,210.00,10.00,0.00,29.68,1005.20,10.00,M,FEW,BKN,OVC,M,2900.00,3700.00,4600.00,M,M,M,M,M,M,M,M,29.24,KWMC 101956Z AUTO 21010KT 10SM FEW029 BKN037 OVC046 03/01 A2968 RMK AO2 SLP052 T00280011,M
NFL,2023-01-10 19:56,-118.7010,39.4166,1199.00,42.00,36.00,78.80,240.00,15.00,0.00,29.72,1004.50,10.00,M,SCT,SCT,BKN,BKN,1000.00,3000.00,8000.00,13000.00,M,M,M,M,M,M,M,33.87,KNFL 101956Z 24015KT 10SM SCT010 SCT030 BKN080 BKN130 06/02 A2972 RMK AO2 SLP045 T00560022,M
LAS,2023-01-10 19:56,-115.1634,36.0719,663.00,61.00,36.00,39.19,150.00,7.00,0.00,29.82,1009.10,10.00,17.00,SCT,BKN,M,M,6000.00,8500.00,M,M,M,M,M,M,M,M,M,61.00,KLAS 101956Z 15007G17KT 10SM SCT060 BKN085 16/02 A2982 RMK AO2 PRESFR SLP091 T01610022,M
INS,2023-01-10 19:56,-115.6733,36.5872,955.00,48.20,37.40,66.05,130.00,15.00,0.00,29.80,1007.60,10.00,25.00,BKN,OVC,M,M,5000.00,6500.00,M,M,-RA,M,M,M,M,M,M,41.78,KINS 101956Z AUTO 13015G25KT 10SM -RA BKN050 OVC065 09/03 A2980 RMK AO2 RAB55 SLP076 $,M
EKO,2023-01-10 19:56,-115.7860,40.8242,1367.00,35.00,32.00,88.33,70.00,6.00,0.00,29.66,1004.90,7.00,M,FEW,SCT,OVC,M,1800.00,2300.00,3100.00,M,M,T,M,M,M,M,M,29.26,KEKO 101956Z AUTO 07006KT 7SM FEW018 SCT023 OVC031 02/00 A2966 RMK AO2 SLP049 I1000 T00170000 PWINO FZRANO,M
HND,2023-01-10 19:56,-115.1344,35.9729,742.79,60.00,36.00,40.46,150.00,26.00,0.00,29.84,1011.20,10.00,30.00,FEW,M,M,M,9000.00,M,M,M,M,M,M,M,30.00,150.00,2023-01-10 19:55,60.10,KHND 101956Z 15026G30KT 10SM FEW090 16/02 A2984 RMK AO2 PK WND 15030/1955 SLP112 T01560022,M
TPH,2023-01-10 19:56,-117.0904,38.0505,1654.00,40.00,38.00,92.48,220.00,6.00,0.03,29.74,1005.70,10.00,M,FEW,BKN,OVC,M,2300.00,3300.00,9000.00,M,M,M,M,M,34.00,210.00,2023-01-10 19:24,35.04,KTPH 101956Z AUTO 22006KT 10SM FEW023 BKN033 OVC090 04/03 A2974 RMK AO2 PK WND 21034/1924 RAE50 SLP057 P0003 T00440033,M
DRA,2023-01-10 19:59,-116.0278,36.6206,1009.00,48.00,45.00,89.29,210.00,19.00,0.03,29.82,M,2.50,30.00,FEW,OVC,M,M,3200.00,4000.00,M,M,RA BR,M,M,M,30.00,220.00,2023-01-10 19:54,40.60,KDRA 101959Z AUTO 21019G30KT 2 1/2SM RA BR FEW032 OVC040 09/07 A2982 RMK AO2 PK WND 22030/1954 P0003 T00890072,M
RNO,2023-01-10 20:00,-119.7711,39.4839,1341.00,35.00,32.00,88.33,140.00,16.00,T,29.69,M,3.00,23.00,FEW,BKN,BKN,M,1000.00,2600.00,5500.00,M,-SN,M,M,M,M,M,M,24.46,KRNO 102000Z 14016G23KT 3SM -SN FEW010 BKN026 BKN055 02/00 A2969 RMK AO2 SFC VIS 5 PRESFR P0000 T00170000,M
LOL,2023-01-10 20:03,-118.5701,40.0684,1192.43,36.00,M,M,0.00,0.00,0.00,29.71,M,10.00,M,FEW,BKN,BKN,M,500.00,1800.00,11000.00,M,M,M,M,M,M,M,M,M,KLOL 102003Z AUTO 00000KT 10SM FEW005 BKN018 BKN110 02/ A2971 RMK AO2 T0022 TSNO,M
DRA,2023-01-10 20:04,-116.0278,36.6206,1009.00,48.00,45.00,89.29,220.00,18.00,0.04,29.82,M,3.00,27.00,FEW,SCT,OVC,M,900.00,3000.00,4000.00,M,RA BR,M,M,M,30.00,220.00,2023-01-10 19:54,40.81,KDRA 102004Z AUTO 22018G27KT 3SM RA BR FEW009 SCT030 OVC040 09/07 A2982 RMK AO2 PK WND 22030/1954 P0004 T00890072,M
DRA,2023-01-10 20:09,-116.0278,36.6206,1009.00,47.00,45.00,93.06,220.00,18.00,0.06,29.81,M,2.50,27.00,FEW,SCT,OVC,M,900.00,2500.00,3600.00,M,+RA BR,M,M,M,30.00,220.00,2023-01-10 19:54,39.36,KDRA 102009Z AUTO 22018G27KT 2 1/2SM +RA BR FEW009 SCT025 OVC036 08/07 A2981 RMK AO2 PK WND 22030/1954 P0006 T00830072,M
EKO,2023-01-10 20:12,-115.7860,40.8242,1367.00,34.00,32.00,92.29,0.00,0.00,0.00,29.64,M,5.00,M,BKN,OVC,M,M,1900.00,3000.00,M,M,BR,M,M,M,M,M,M,34.00,KEKO 102012Z AUTO 00000KT 5SM BR BKN019 OVC030 01/00 A2964 RMK AO2 T00110000 PWINO FZRANO $,M
RNO,2023-01-10 20:13,-119.7711,39.4839,1341.00,36.00,33.00,89.09,150.00,15.00,T,29.69,M,9.00,20.00,FEW,BKN,BKN,M,1000.00,3100.00,5500.00,M,M,M,M,M,M,M,M,25.97,KRNO 102013Z 15015G20KT 9SM FEW010 BKN031 BKN055 02/01 A2969 RMK AO2 SNE12 P0000 T00220006,M
BVU,2023-01-10 20:15,-114.8611,35.9475,671.00,62.60,37.40,39.14,170.00,22.00,0.00,29.83,M,9.00,33.00,FEW,FEW,SCT,M,4900.00,5500.00,7000.00,M,M,M,M,M,M,M,M,62.60,KBVU 102015Z AUTO 17022G33KT 9SM FEW049 FEW055 SCT070 17/03 A2983 RMK AO2,M
CXP,2023-01-10 20:15,-119.7326,39.1923,1431.00,33.80,32.00,93.03,210.00,7.00,0.00,29.76,M,0.25,M,OVC,M,M,M,300.00,M,M,M,+SN FG,M,M,M,M,M,M,26.97,KCXP 102015Z AUTO 21007KT M1/4SM +SN FG OVC003 01/M00 A2976 RMK AO2,M
LSV,2023-01-10 20:15,-115.0343,36.2362,570.00,62.60,41.00,45.04,170.00,21.00,0.00,29.77,1007.30,9.00,31.00,BKN,M,M,M,6000.00,M,M,M,-RA,M,M,M,M,M,M,62.60,KLSV 102015Z 17021G31KT 9SM -RA BKN060 17/05 A2977 RMK PRESFR RAB10 SLP073 $,M
RTS,2023-01-10 20:15,-119.8764,39.6682,1539.00,33.80,30.20,86.49,100.00,9.00,0.00,29.70,M,10.00,M,BKN,OVC,M,M,1900.00,2600.00,M,M,M,M,M,M,M,M,M,25.75,KRTS 102015Z AUTO 10009KT 10SM BKN019 OVC026 01/M01 A2970 RMK AO2,M
05U,2023-01-10 20:15,-116.0051,39.6042,1811.23,39.20,33.80,80.79,170.00,11.00,0.00,29.69,M,10.00,20.00,M,M,M,M,M,M,M,M,M,M,M,M,M,M,M,31.57,K05U 102015Z AUTO 17011G20KT 10SM 04/01 A2969 RMK A01,M
MEV,2023-01-10 20:15,-119.7500,38.9963,1441.42,33.80,32.00,93.03,180.00,17.00,0.00,29.74,M,1.00,26.00,SCT,SCT,M,M,400.00,1000.00,M,M,-SN BR,M,M,M,M,M,M,22.43,KMEV 102015Z AUTO 18017G26KT 1SM -SN BR SCT004 SCT010 01/M00 A2974 RMK AO2 VIS 1/4V2,M
BAM,2023-01-10 20:15,-116.8743,40.5990,1382.36,33.80,33.80,100.00,70.00,4.00,0.00,29.71,M,10.00,M,SCT,BKN,OVC,M,600.00,6000.00,7500.00,M,M,M,M,M,M,M,M,29.52,KBAM 102015Z AUTO 07004KT 10SM SCT006 BKN060 OVC075 01/01 A2971 RMK AO1,M
TMT,2023-01-10 20:15,-117.1971,39.4643,1749.34,33.00,30.70,91.51,230.00,12.00,0.00,29.72,M,10.00,M,BKN,BKN,M,M,10000.00,12000.00,M,M,M,M,M,M,M,M,M,23.15,KTMT 102015Z AUTO 23012KT 10SM BKN100 BKN120 01/M01 A2972 RMK AO2 LTG DSNT W T00051007,M
DRA,2023-01-10 20:15,-116.0278,36.6206,1009.00,47.00,45.00,93.06,210.00,21.00,0.09,29.82,M,4.00,30.00,FEW,BKN,OVC,M,1100.00,3600.00,4400.00,M,-RA BR,M,M,M,30.00,220.00,2023-01-10 19:54,38.73,KDRA 102015Z AUTO 21021G30KT 4SM -RA BR FEW011 BKN036 OVC044 08/07 A2982 RMK AO2 PK WND 22030/1954 P0009 T00830072,M
ELY,2023-01-10 20:19,-114.8453,39.2950,1909.00,34.00,33.00,96.46,160.00,20.00,T,29.70,M,6.00,32.00,BKN,BKN,OVC,M,2900.00,3800.00,5500.00,M,-RA BR,M,M,M,36.00,170.00,2023-01-10 20:07,21.80,KELY 102019Z AUTO 16020G32KT 6SM -RA BR BKN029 BKN038 OVC055 01/01 A2970 RMK AO2 PK WND 17036/2007 P0000 T00110006,M
DRA,2023-01-10 20:19,-116.0278,36.6206,1009.00,47.00,45.00,93.06,200.00,19.00,0.10,29.81,M,6.00,30.00,FEW,OVC,M,M,900.00,3900.00,M,M,-RA BR,M,M,M,30.00,220.00,2023-01-10 19:54,39.14,KDRA 102019Z AUTO 20019G30KT 6SM -RA BR FEW009 OVC039 08/07 A2981 RMK AO2 PK WND 22030/1954 P0010 T00830072,M
EKO,2023-01-10 20:24,-115.7860,40.8242,1367.00,34.00,32.00,92.29,240.00,10.00,0.00,29.68,M,1.50,M,FEW,OVC,M,M,1100.00,1700.00,M,M,BR,M,M,M,M,M,M,25.48,KEKO 102024Z AUTO 24010KT 1 1/2SM BR FEW011 OVC017 01/00 A2968 RMK AO2 PRESRR T00110000 PWINO FZRANO $,M
LOL,2023-01-10 20:24,-118.5701,40.0684,1192.43,37.00,M,M,0.00,0.00,0.00,29.72,M,10.00,M,BKN,OVC,M,M,1300.00,1800.00,M,M,M,M,M,M,M,M,M,M,KLOL 102024Z AUTO 00000KT 10SM BKN013 OVC018 03/ A2972 RMK AO2 T0028 TSNO,M
INS,2023-01-10 20:26,-115.6733,36.5872,955.00,48.20,39.20,70.88,160.00,12.00,0.00,29.81,1007.90,5.00,19.00,SCT,SCT,BKN,OVC,400.00,2100.00,2800.00,4200.00,-RA,M,M,M,M,M,M,42.62,KINS 102026Z AUTO 16012G19KT 5SM -RA SCT004 SCT021 BKN028 OVC042 09/04 A2981 RMK AO2 RAB1955 BKN V SCT SLP079 $,M
EKO,2023-01-10 20:26,-115.7860,40.8242,1367.00,33.00,30.90,91.51,230.00,13.00,0.00,29.69,M,0.75,18.00,FEW,SCT,OVC,M,300.00,900.00,1700.00,M,BR,T,M,M,M,M,M,22.98,KEKO 102026Z AUTO 23013G18KT 3/4SM BR FEW003 SCT009 OVC017 01/M01 A2969 RMK AO2 PRESRR I1000 T00061006 PWINO FZRANO $,M
ELY,2023-01-10 20:27,-114.8453,39.2950,1909.00,35.00,34.00,95.71,160.00,23.00,T,29.70,M,10.00,31.00,BKN,BKN,OVC,M,3800.00,4800.00,6000.00,M,-RA,M,M,M,36.00,170.00,2023-01-10 20:07,22.48,KELY 102027Z AUTO 16023G31KT 10SM -RA BKN038 BKN048 OVC060 02/01 A2970 RMK AO2 PK WND 17036/2007 P0000 T00170011,M
P68,2023-01-10 20:28,-116.0056,39.6014,1993.00,36.00,30.90,81.53,290.00,15.00,0.00,29.68,M,M,20.00,M,M,M,M,M,M,M,M,M,M,M,M,38.00,180.00,2023-01-10 19:56,25.97,KP68 102028Z AUTO 29015G20KT 02/M01 A2968 RMK AO1 PK WND 18038/1956 WSHFT 2011 T00221006,M
05U,2023-01-10 20:30,-116.0051,39.6042,1811.23,37.40,32.00,80.65,290.00,11.00,0.00,29.71,M,4.00,20.00,M,M,M,M,M,M,M,M,HZ,M,M,M,M,M,M,29.29,K05U 102030Z AUTO 29011G20KT 4SM HZ 03/M00 A2971 RMK A01,M
P68,2023-01-10 20:32,-116.0056,39.6014,1993.00,35.00,30.00,81.46,280.00,13.00,0.01,29.69,M,M,23.00,M,M,M,M,M,M,M,M,M,M,M,M,38.00,180.00,2023-01-10 19:56,25.54,KP68 102032Z AUTO 28013G23KT 02/M01 A2969 RMK AO1 PK WND 18038/1956 WSHFT 2015 P0001 T00171011,M
BVU,2023-01-10 20:35,-114.8611,35.9475,671.00,62.60,37.40,39.14,170.00,27.00,0.00,29.81,M,9.00,M,FEW,M,M,M,7500.00,M,M,M,M,M,M,M,M,M,M,62.60,KBVU 102035Z AUTO 17027KT 9SM FEW075 17/03 A2981 RMK AO2,M
CXP,2023-01-10 20:35,-119.7326,39.1923,1431.00,33.80,32.00,93.03,0.00,0.00,0.00,29.74,M,0.25,M,OVC,M,M,M,200.00,M,M,M,SN FG,M,M,M,M,M,M,33.80,KCXP 102035Z AUTO 00000KT 1/4SM SN FG OVC002 01/00 A2974 RMK AO2,M
RTS,2023-01-10 20:35,-119.8764,39.6682,1539.00,33.80,28.40,80.36,90.00,11.00,0.00,29.69,M,10.00,M,OVC,M,M,M,2000.00,M,M,M,M,M,M,M,M,M,M,24.74,KRTS 102035Z AUTO 09011KT 10SM OVC020 01/M02 A2969 RMK AO2,M
MEV,2023-01-10 20:35,-119.7500,38.9963,1441.42,32.00,32.00,100.00,190.00,8.00,0.00,29.75,M,0.25,M,OVC,M,M,M,300.00,M,M,M,SN FG,M,M,M,M,M,M,24.11,KMEV 102035Z AUTO 19008KT 1/4SM SN FG OVC003 00/M00 A2975 RMK AO2 LTG DSNT W AND NW,M
BAM,2023-01-10 20:35,-116.8743,40.5990,1382.36,33.80,33.80,100.00,0.00,0.00,0.00,29.69,M,10.00,M,BKN,OVC,M,M,7000.00,9000.00,M,M,M,M,M,M,M,M,M,33.80,KBAM 102035Z AUTO 00000KT 10SM BKN070 OVC090 01/01 A2969 RMK AO1,M
LSV,2023-01-10 20:35,-115.0343,36.2362,570.00,59.00,44.60,58.77,160.00,16.00,0.00,29.75,1006.70,10.00,M,FEW,SCT,M,M,4200.00,5500.00,M,M,M,M,M,M,M,M,M,59.00,KLSV 102035Z AUTO 16016KT 10SM FEW042 SCT055 15/07 A2975 RMK AO2 RAB16E35 SLP067 $,M
TMT,2023-01-10 20:35,-117.1971,39.4643,1749.34,33.00,30.20,88.95,250.00,9.00,0.01,29.69,M,10.00,M,SCT,BKN,M,M,9000.00,11000.00,M,M,M,M,M,M,M,M,M,24.88,KTMT 102035Z AUTO 25009KT 10SM SCT090 BKN110 01/M01 A2969 RMK AO2 LTG DSNT W P0001 T00061010,M
INS,2023-01-10 20:36,-115.6733,36.5872,955.00,46.40,39.20,75.84,120.00,9.00,0.00,29.80,1007.60,4.00,M,BKN,BKN,BKN,OVC,400.00,2100.00,4100.00,4800.00,RA,M,M,M,M,M,M,41.42,KINS 102036Z AUTO 12009KT 4SM RA BKN004 BKN021 BKN041 OVC048 08/04 A2980 RMK AO2 RAB1955 BKN004 V SCT SLP076 $,M
EKO,2023-01-10 20:37,-115.7860,40.8242,1367.00,33.00,32.00,95.67,210.00,11.00,0.00,29.70,M,0.50,M,BKN,OVC,M,M,500.00,1800.00,M,M,FG,0.01,M,M,M,M,M,23.86,KEKO 102037Z AUTO 21011KT 1/2SM FG BKN005 OVC018 01/00 A2970 RMK AO2 I1001 T00060000 PWINO FZRANO $,M
LSV,2023-01-10 20:40,-115.0343,36.2362,570.00,59.00,42.80,54.86,160.00,15.00,0.00,29.75,1006.70,10.00,M,FEW,BKN,M,M,3800.00,5500.00,M,M,-RA,M,M,M,M,M,M,59.00,KLSV 102040Z AUTO 16015KT 10SM -RA FEW038 BKN055 15/06 A2975 RMK AO2 RAB16E35RAB40 SLP067 $,M
LOL,2023-01-10 20:44,-118.5701,40.0684,1192.43,39.00,M,M,190.00,10.00,0.00,29.70,M,10.00,M,SCT,M,M,M,1300.00,M,M,M,M,M,M,M,M,M,M,M,KLOL 102044Z AUTO 19010KT 10SM SCT013 04/ A2970 RMK AO2 T0039 TSNO,M
DRA,2023-01-10 20:48,-116.0278,36.6206,1009.00,47.00,43.00,86.21,220.00,20.00,0.17,29.82,M,8.00,30.00,SCT,BKN,OVC,M,1600.00,2100.00,4000.00,M,-RA,M,M,M,35.00,210.00,2023-01-10 20:23,38.93,KDRA 102048Z AUTO 22020G30KT 8SM -RA SCT016 BKN021 OVC040 08/06 A2982 RMK AO2 PK WND 21035/2023 P0017 T00830061,M
05U,2023-01-10 20:50,-116.0051,39.6042,1811.23,33.80,32.00,93.03,300.00,6.00,0.00,29.72,M,0.50,13.00,M,M,M,M,M,M,M,M,FG,M,M,M,M,M,M,27.70,K05U 102050Z AUTO 30006G13KT 1/2SM FG 01/M00 A2972 RMK A01,M
DRA,2023-01-10 20:53,-116.0278,36.6206,1009.00,46.00,43.00,89.20,230.00,23.00,0.17,29.82,1007.90,8.00,30.00,SCT,BKN,OVC,M,1600.00,2100.00,3500.00,M,-RA,M,M,M,35.00,210.00,2023-01-10 20:23,37.13,KDRA 102053Z AUTO 23023G30KT 8SM -RA SCT016 BKN021 OVC035 08/06 A2982 RMK AO2 PK WND 21035/2023 SLP079 P0017 60024 T00780061 55017,M
VGT,2023-01-10 20:53,-115.1933,36.2111,667.00,54.00,45.00,71.50,320.00,13.00,0.09,29.78,1009.80,4.00,18.00,OVC,M,M,M,5500.00,M,M,M,-RA,M,M,M,M,M,M,54.00,KVGT 102053Z 32013G18KT 4SM -RA OVC055 12/07 A2978 RMK AO2 RAB06 SLP098 P0009 60009 T01220072 56044,M
P68,2023-01-10 20:53,-116.0056,39.6014,1993.00,33.00,30.90,91.51,290.00,9.00,0.04,29.70,1004.40,M,M,M,M,M,M,M,M,M,M,M,M,M,M,38.00,180.00,2023-01-10 19:56,24.88,KP68 102053Z AUTO 29009KT 01/M01 A2970 RMK AO1 PK WND 18038/1956 WSHFT 2015 SLP044 P0004 60004 T00061006 55008,M
ELY,2023-01-10 20:53,-114.8453,39.2950,1909.00,35.00,33.00,92.32,170.00,17.00,T,29.69,1003.90,10.00,29.00,BKN,OVC,M,M,3800.00,5500.00,M,M,-RA,M,M,M,36.00,170.00,2023-01-10 20:07,24.14,KELY 102053Z AUTO 17017G29KT 10SM -RA BKN038 OVC055 02/01 A2969 RMK AO2 PK WND 17036/2007 SNB39E48 SLP039 P0000 60000 T00170006 58026,M
BVU,2023-01-10 20:55,-114.8611,35.9475,671.00,60.80,37.40,41.71,170.00,24.00,0.00,29.80,M,10.00,32.00,SCT,M,M,M,7000.00,M,M,M,M,M,M,M,M,M,M,60.80,KBVU 102055Z AUTO 17024G32KT 10SM SCT070 16/03 A2980 RMK AO2,M
CXP,2023-01-10 20:55,-119.7326,39.1923,1431.00,33.80,32.00,93.03,190.00,9.00,0.13,29.75,M,0.25,M,OVC,M,M,M,300.00,M,M,M,SN FG,M,M,M,M,M,M,25.75,KCXP 102055Z AUTO 19009KT 1/4SM SN FG OVC003 01/00 A2975 RMK AO2 P0013,M
RTS,2023-01-10 20:55,-119.8764,39.6682,1539.00,35.60,26.60,69.46,100.00,9.00,0.00,29.68,M,10.00,14.00,BKN,OVC,M,M,2000.00,2500.00,M,M,M,M,M,M,M,M,M,27.99,KRTS 102055Z AUTO 10009G14KT 10SM BKN020 OVC025 02/M03 A2968 RMK AO2,M
MEV,2023-01-10 20:55,-119.7500,38.9963,1441.42,32.00,32.00,100.00,M,5.00,0.05,29.75,M,0.25,10.00,OVC,M,M,M,300.00,M,M,M,+SN FG,M,M,M,M,M,M,26.40,KMEV 102055Z AUTO VRB05G10KT M1/4SM +SN FG OVC003 00/M00 A2975 RMK AO2 P0005,M
BAM,2023-01-10 20:55,-116.8743,40.5990,1382.36,33.80,33.80,100.00,240.00,6.00,0.00,29.70,M,10.00,M,SCT,SCT,BKN,M,7000.00,9000.00,11000.00,M,M,M,M,M,M,M,M,27.70,KBAM 102055Z AUTO 24006KT 10SM SCT070 SCT090 BKN110 01/01 A2970 RMK AO1,M
TMT,2023-01-10 20:55,-117.1971,39.4643,1749.34,33.00,30.60,91.13,240.00,7.00,0.01,29.71,M,10.00,M,SCT,M,M,M,11000.00,M,M,M,M,M,M,M,M,M,M,25.88,KTMT 102055Z AUTO 24007KT 10SM SCT110 01/M01 A2971 RMK AO2 P0001 60004 T00051008,M
LSV,2023-01-10 20:55,-115.0343,36.2362,570.00,58.60,43.50,57.16,170.00,22.00,T,29.74,1006.40,10.00,28.00,SCT,BKN,M,M,4000.00,6000.00,M,M,-RA,M,M,M,31.00,180.00,2023-01-10 20:07,58.60,KLSV 102055Z AUTO 17022G28KT 10SM -RA SCT040 BKN060 15/06 A2974 RMK AO2 PK WND 18031/07 RAB16E35RAB40 SLP064 P0000 60000 T01480064 57051 $,M
RNO,2023-01-10 20:55,-119.7711,39.4839,1341.00,38.00,32.00,79.08,140.00,16.00,T,29.68,1005.10,10.00,M,FEW,BKN,BKN,M,2000.00,4900.00,19000.00,M,M,M,M,M,M,M,M,28.11,KRNO 102055Z 14016KT 10SM FEW020 BKN049 BKN190 03/00 A2968 RMK AO2 SNE12 SLP051 P0000 60007 T00330000 58004,M
INS,2023-01-10 20:55,-115.6733,36.5872,955.00,47.00,41.20,79.83,330.00,10.00,0.08,29.81,1007.90,8.00,M,BKN,BKN,BKN,OVC,400.00,1300.00,3400.00,4600.00,-RA,M,M,M,29.00,130.00,2023-01-10 20:08,41.90,KINS 102055Z AUTO 33010KT 8SM -RA BKN004 BKN013 BKN034 OVC046 08/05 A2981 RMK AO2 PK WND 13029/08 RAB1955 SLP079 P0008 60009 T00840051 55020 $,M
WMC,2023-01-10 20:56,-117.8072,40.9019,1315.00,39.00,37.00,92.45,M,4.00,0.00,29.68,1004.90,10.00,M,FEW,M,M,M,1000.00,M,M,M,M,M,M,M,M,M,M,35.59,KWMC 102056Z AUTO VRB04KT 10SM FEW010 04/03 A2968 RMK AO2 SLP049 60004 T00390028 56018,M
NFL,2023-01-10 20:56,-118.7010,39.4166,1199.00,40.00,34.00,79.25,240.00,13.00,0.00,29.71,1004.10,10.00,M,SCT,SCT,BKN,BKN,1000.00,3000.00,8500.00,11000.00,M,M,M,M,28.00,240.00,2023-01-10 20:14,31.69,KNFL 102056Z COR 24013KT 10SM SCT010 SCT030 BKN085 BKN110 04/01 A2971 RMK AO2 PK WND 24028/2014 SLP041 T00440011 58003,M
LAS,2023-01-10 20:56,-115.1634,36.0719,663.00,59.00,40.00,49.04,170.00,9.00,T,29.77,1007.20,10.00,25.00,FEW,BKN,BKN,M,4000.00,6500.00,8000.00,M,-RA,M,M,M,29.00,160.00,2023-01-10 20:32,59.00,KLAS 102056Z 17009G25KT 10SM -RA FEW040 BKN065 BKN080 15/04 A2977 RMK AO2 PK WND 16029/2032 RAB15 SLP072 P0000 60000 T01500044 57049,M
EKO,2023-01-10 20:56,-115.7860,40.8242,1367.00,33.00,30.90,91.51,260.00,11.00,0.00,29.70,1006.80,0.50,M,VV ,M,M,M,500.00,M,M,M,FG,0.02,0.02,M,M,M,M,23.86,KEKO 102056Z AUTO 26011KT 1/2SM FG VV005 01/M01 A2970 RMK AO2 SLP068 I1002 I3002 T00061006 55014 PWINO FZRANO,M
HND,2023-01-10 20:56,-115.1344,35.9729,742.79,58.00,44.00,59.98,170.00,19.00,0.01,29.78,1009.30,10.00,32.00,FEW,BKN,OVC,M,4600.00,6500.00,8000.00,M,-RA,M,M,M,35.00,150.00,2023-01-10 20:30,57.90,KHND 102056Z 17019G32KT 10SM -RA FEW046 BKN065 OVC080 14/07 A2978 RMK AO2 PK WND 15035/2030 RAB32 SLP093 P0001 60001 T01440067 58052,M
TPH,2023-01-10 20:56,-117.0904,38.0505,1654.00,40.00,35.00,82.80,170.00,13.00,0.00,29.71,1004.60,10.00,21.00,CLR,M,M,M,M,M,M,M,M,M,M,M,M,M,M,31.69,KTPH 102056Z AUTO 17013G21KT 10SM CLR 04/02 A2971 RMK AO2 SLP046 60003 T00440017 58012,M
LSV,2023-01-10 21:00,-115.0343,36.2362,570.00,59.00,42.80,54.86,170.00,23.00,0.00,29.74,1006.40,10.00,28.00,FEW,BKN,M,M,3900.00,6000.00,M,M,M,M,M,M,M,M,M,59.00,KLSV 102100Z AUTO 17023G28KT 10SM FEW039 BKN060 15/06 A2974 RMK AO2 RAE00 SLP064 $,M
DRA,2023-01-10 21:02,-116.0278,36.6206,1009.00,46.00,43.00,89.20,230.00,22.00,0.02,29.84,M,3.00,29.00,BKN,BKN,OVC,M,1400.00,2100.00,3900.00,M,RA BR,M,M,M,29.00,240.00,2023-01-10 21:02,37.33,KDRA 102102Z AUTO 23022G29KT 3SM RA BR BKN014 BKN021 OVC039 08/06 A2984 RMK AO2 PK WND 24029/2102 P0002 T00780061,M
05U,2023-01-10 21:05,-116.0051,39.6042,1811.23,33.80,32.00,93.03,300.00,5.00,0.00,29.73,M,0.25,13.00,M,M,M,M,M,M,M,M,FG,M,M,M,M,M,M,28.53,K05U 102105Z AUTO 30005G13KT 1/4SM FG 01/M00 A2973 RMK A01,M
DRA,2023-01-10 21:06,-116.0278,36.6206,1009.00,46.00,43.00,89.20,240.00,23.00,0.03,29.85,M,1.75,37.00,BKN,BKN,OVC,M,1200.00,1700.00,2200.00,M,+RA BR,M,M,M,37.00,230.00,2023-01-10 21:05,37.13,KDRA 102106Z AUTO 24023G37KT 1 3/4SM +RA BR BKN012 BKN017 OVC022 08/06 A2985 RMK AO2 PK WND 23037/2105 PRESRR P0003 T00780061,M
LAS,2023-01-10 21:08,-115.1634,36.0719,663.00,59.00,43.00,55.28,230.00,13.00,0.01,29.78,M,7.00,26.00,BKN,OVC,M,M,6000.00,7500.00,M,M,-TSRA,M,M,M,26.00,230.00,2023-01-10 21:03,59.00,KLAS 102108Z 23013G26KT 7SM -TSRA BKN060CB OVC075 15/06 A2978 RMK AO2 PK WND 23026/2103 TSB08 OCNL LTGIC SW TS SW MOV NE P0001 T01500061,M
DRA,2023-01-10 21:11,-116.0278,36.6206,1009.00,45.00,43.00,92.65,230.00,21.00,0.07,29.85,M,1.25,37.00,SCT,BKN,OVC,M,1000.00,1500.00,2400.00,M,+RA BR,M,M,M,37.00,230.00,2023-01-10 21:05,36.19,KDRA 102111Z AUTO 23021G37KT 1 1/4SM +RA BR SCT010 BKN015 OVC024 07/06 A2985 RMK AO2 PK WND 23037/2105 P0007 T00720061,M
LSV,2023-01-10 21:11,-115.0343,36.2362,570.00,59.00,42.80,54.86,170.00,18.00,0.00,29.74,1006.30,10.00,37.00,FEW,BKN,M,M,4100.00,6000.00,M,M,-RA,M,M,M,M,M,M,59.00,KLSV 102111Z AUTO 17018G37KT 10SM -RA FEW041 BKN060 15/06 A2974 RMK AO2 RAE00RAB11 SLP063 $,M
HND,2023-01-10 21:11,-115.1344,35.9729,742.79,57.20,42.80,58.52,180.00,20.00,T,29.80,M,10.00,29.00,FEW,BKN,OVC,M,4100.00,6000.00,8000.00,M,VCTS -RA,M,M,M,29.00,180.00,2023-01-10 21:04,57.20,KHND 102111Z 18020G29KT 10SM VCTS -RA FEW041 BKN060 OVC080 14/06 A2980 RMK AO2 PK WND 18029/2104 LTG DSNT N TSB05 PRESRR P0000,M
EKO,2023-01-10 21:13,-115.7860,40.8242,1367.00,34.00,32.00,92.29,260.00,12.00,0.00,29.70,M,1.50,M,OVC,M,M,M,900.00,M,M,M,BR,M,M,M,M,M,M,24.55,KEKO 102113Z AUTO 26012KT 1 1/2SM BR OVC009 01/00 A2970 RMK AO2 T00110000 PWINO FZRANO $,M
BVU,2023-01-10 21:15,-114.8611,35.9475,671.00,60.80,37.40,41.71,170.00,27.00,0.00,29.79,M,9.00,34.00,SCT,M,M,M,7000.00,M,M,M,M,M,M,M,M,M,M,60.80,KBVU 102115Z AUTO 17027G34KT 9SM SCT070 16/03 A2979 RMK AO2 LTG DSNT W AND NW,M
CXP,2023-01-10 21:15,-119.7326,39.1923,1431.00,32.00,32.00,100.00,180.00,11.00,0.00,29.75,M,0.25,19.00,OVC,M,M,M,300.00,M,M,M,SN FG,M,M,M,M,M,M,22.47,KCXP 102115Z AUTO 18011G19KT 1/4SM SN FG OVC003 00/00 A2975 RMK AO2,M
EKO,2023-01-10 21:15,-115.7860,40.8242,1367.00,34.00,30.90,88.27,260.00,13.00,0.00,29.70,M,2.00,M,OVC,M,M,M,1100.00,M,M,M,BR,M,M,M,M,M,M,24.13,KEKO 102115Z AUTO 26013KT 2SM BR OVC011 01/M01 A2970 RMK AO2 T00111006 PWINO FZRANO $,M
RTS,2023-01-10 21:15,-119.8764,39.6682,1539.00,35.60,28.40,74.80,50.00,6.00,0.00,29.68,M,10.00,M,FEW,BKN,OVC,M,2000.00,2600.00,3900.00,M,M,M,M,M,M,M,M,29.87,KRTS 102115Z AUTO 05006KT 10SM FEW020 BKN026 OVC039 02/M02 A2968 RMK AO2,M
MEV,2023-01-10 21:15,-119.7500,38.9963,1441.42,32.00,32.00,100.00,120.00,10.00,0.00,29.74,M,0.25,M,OVC,M,M,M,300.00,M,M,M,SN FG,M,M,M,M,M,M,22.97,KMEV 102115Z AUTO 12010KT 1/4SM SN FG OVC003 00/M00 A2974 RMK AO2,M
BAM,2023-01-10 21:15,-116.8743,40.5990,1382.36,35.60,33.80,93.08,250.00,9.00,0.00,29.70,M,10.00,M,SCT,M,M,M,12000.00,M,M,M,M,M,M,M,M,M,M,27.99,KBAM 102115Z AUTO 25009KT 10SM SCT120 02/01 A2970 RMK AO1,M
TMT,2023-01-10 21:15,-117.1971,39.4643,1749.34,34.00,30.40,86.50,200.00,8.00,0.00,29.71,M,10.00,M,SCT,M,M,M,5500.00,M,M,M,M,M,M,M,M,M,M,26.58,KTMT 102115Z AUTO 20008KT 10SM SCT055 01/M01 A2971 RMK AO2 T00111009,M
VGT,2023-01-10 21:17,-115.1933,36.2111,667.00,53.00,46.00,76.75,280.00,8.00,0.01,29.82,M,10.00,M,BKN,OVC,M,M,5500.00,7000.00,M,M,TS,M,M,M,M,M,M,53.10,KVGT 102117Z 28008KT 10SM TS BKN055 OVC070 12/08 A2982 RMK AO2 LTG DSNT S RAE17 TSB11 PRESRR P0001 T01170078,M
DRA,2023-01-10 21:17,-116.0278,36.6206,1009.00,45.00,42.00,89.49,220.00,18.00,0.13,29.85,M,1.75,33.00,SCT,BKN,OVC,M,1000.00,1500.00,2400.00,M,+RA BR,M,M,M,37.00,230.00,2023-01-10 21:05,36.86,KDRA 102117Z AUTO 22018G33KT 1 3/4SM +RA BR SCT010 BKN015 OVC024 07/06 A2985 RMK AO2 PK WND 23037/2105 P0013 T00720056,M
LSV,2023-01-10 21:18,-115.0343,36.2362,570.00,59.00,42.80,54.86,180.00,29.00,0.00,29.75,1006.60,8.00,35.00,FEW,SCT,OVC,M,3000.00,4200.00,5500.00,M,-TSRA,M,M,M,M,M,M,59.00,KLSV 102118Z AUTO 18029G35KT 8SM -TSRA FEW030 SCT042 OVC055 15/06 A2975 RMK AO2 RAE00RAB11 TSB18 SLP066 $,M
LSV,2023-01-10 21:19,-115.0343,36.2362,570.00,59.00,44.60,58.77,180.00,26.00,0.00,29.76,1007.00,3.00,35.00,SCT,OVC,M,M,4200.00,5500.00,M,M,TSRA,M,M,M,M,M,M,59.00,KLSV 102119Z 18026G35KT 3SM TSRA SCT042CB OVC055 15/07 A2976 RMK RAE00RAB11 TSB18 PRESRR SLP070 $,M
ELY,2023-01-10 21:19,-114.8453,39.2950,1909.00,34.00,33.00,96.46,170.00,16.00,0.01,29.69,M,6.00,24.00,BKN,BKN,OVC,M,2700.00,3400.00,5500.00,M,-RA BR,M,M,M,29.00,170.00,2023-01-10 20:54,23.03,KELY 102119Z AUTO 17016G24KT 6SM -RA BR BKN027 BKN034 OVC055 01/01 A2969 RMK AO2 PK WND 17029/2054 P0001 T00110006,M
LSV,2023-01-10 21:20,-115.0343,36.2362,570.00,59.00,42.80,54.86,190.00,23.00,0.00,29.77,1007.30,8.00,35.00,FEW,SCT,OVC,M,3400.00,4400.00,6000.00,M,TSRA,M,M,M,M,M,M,59.00,KLSV 102120Z AUTO 19023G35KT 8SM TSRA FEW034 SCT044 OVC060 15/06 A2977 RMK AO2 RAE00RAB11 TSB18 SLP073 $,M
LAS,2023-01-10 21:20,-115.1634,36.0719,663.00,53.00,47.00,79.40,240.00,11.00,0.05,29.82,M,1.75,36.00,BKN,OVC,M,M,4500.00,6000.00,M,M,+TSRA,M,M,M,36.00,260.00,2023-01-10 21:15,53.10,KLAS 102120Z 24011G36KT 1 3/4SM +TSRA BKN045CB OVC060 12/08 A2982 RMK AO2 PK WND 26036/2115 WSHFT 2102 TSB08 OCNL LTGIC OHD TS OHD MOV NE P0005 T01170083,M
DRA,2023-01-10 21:21,-116.0278,36.6206,1009.00,44.00,41.00,88.77,220.00,23.00,0.15,29.85,M,2.50,34.00,SCT,BKN,OVC,M,1000.00,1500.00,2400.00,M,RA BR,M,M,M,37.00,230.00,2023-01-10 21:05,34.58,KDRA 102121Z AUTO 22023G34KT 2 1/2SM RA BR SCT010 BKN015 OVC024 07/05 A2985 RMK AO2 PK WND 23037/2105 P0015 T00670050,M
LSV,2023-01-10 21:22,-115.0343,36.2362,570.00,59.00,44.60,58.77,210.00,18.00,0.00,29.78,1007.60,6.00,35.00,FEW,BKN,OVC,M,3200.00,4000.00,6000.00,M,TSRA,M,M,M,M,M,M,59.00,KLSV 102122Z AUTO 21018G35KT 6SM TSRA FEW032 BKN040 OVC060 15/07 A2978 RMK AO2 RAE00RAB11 TSB18 SLP076 $,M
EKO,2023-01-10 21:23,-115.7860,40.8242,1367.00,33.00,30.90,91.51,260.00,9.00,T,29.69,M,1.25,M,OVC,M,M,M,1100.00,M,M,M,-SN BR,M,M,M,M,M,M,24.88,KEKO 102123Z AUTO 26009KT 1 1/4SM -SN BR OVC011 01/M01 A2969 RMK AO2 SNB19 P0000 T00061006,M
LSV,2023-01-10 21:24,-115.0343,36.2362,570.00,57.20,42.80,58.52,210.00,22.00,0.00,29.79,1008.10,6.00,35.00,BKN,OVC,M,M,3800.00,6000.00,M,M,TSRA,M,M,M,M,M,M,57.20,KLSV 102124Z AUTO 21022G35KT 6SM TSRA BKN038 OVC060 14/06 A2979 RMK AO2 WSHFT 10 RAE00RAB11 TSB18 SLP081 $,M
LAS,2023-01-10 21:25,-115.1634,36.0719,663.00,53.00,47.00,79.40,250.00,13.00,0.08,29.82,M,3.00,26.00,BKN,OVC,M,M,4500.00,6000.00,M,M,TSRA,M,M,M,36.00,260.00,2023-01-10 21:15,53.10,KLAS 102125Z 25013G26KT 3SM TSRA BKN045CB OVC060 12/08 A2982 RMK AO2 PK WND 26036/2115 WSHFT 2102 TSB08 OCNL LTGIC OHD TS OHD MOV NE P0008 T01170083,M
DRA,2023-01-10 21:27,-116.0278,36.6206,1009.00,44.00,41.00,88.77,200.00,17.00,0.16,29.84,M,4.00,34.00,SCT,SCT,OVC,M,1000.00,1500.00,2800.00,M,RA BR,M,M,M,37.00,230.00,2023-01-10 21:05,35.93,KDRA 102127Z AUTO 20017G34KT 4SM RA BR SCT010 SCT015 OVC028 07/05 A2984 RMK AO2 PK WND 23037/2105 P0016 T00670050,M
HND,2023-01-10 21:28,-115.1344,35.9729,742.79,53.60,46.40,76.50,240.00,14.00,0.07,29.85,M,7.00,28.00,FEW,SCT,OVC,M,3500.00,4800.00,6000.00,M,VCTS RA,M,M,M,45.00,220.00,2023-01-10 21:16,53.60,KHND 102128Z 24014G28KT 7SM VCTS RA FEW035 SCT048 OVC060 12/08 A2985 RMK AO2 PK WND 22045/2116 WSHFT 2108 LTG DSNT N AND NE TSB05 PRESRR P0007,M
LSV,2023-01-10 21:28,-115.0343,36.2362,570.00,55.40,44.60,66.91,240.00,18.00,0.00,29.80,1008.40,3.00,35.00,BKN,BKN,OVC,M,3500.00,4300.00,6000.00,M,TSRA,M,M,M,M,M,M,55.40,KLSV 102128Z 24018G35KT 3SM TSRA BKN035 BKN043 OVC060 13/07 A2980 RMK AO2A RAE00RAB11 TSB18 SLP084 $,M
INS,2023-01-10 21:30,-115.6733,36.5872,955.00,46.40,41.00,81.34,250.00,16.00,0.00,29.86,1009.20,7.00,28.00,SCT,BKN,BKN,M,400.00,1100.00,3300.00,M,-RA,M,M,M,M,M,M,39.19,KINS 102130Z AUTO 25016G28KT 7SM -RA SCT004 BKN011 BKN033 08/05 A2986 RMK AO2 PRESRR SLP092 $,M
DRA,2023-01-10 21:31,-116.0278,36.6206,1009.00,44.00,41.00,88.77,200.00,15.00,0.17,29.83,M,6.00,31.00,FEW,BKN,OVC,M,1000.00,3300.00,7000.00,M,-RA BR,M,M,M,37.00,230.00,2023-01-10 21:05,36.47,KDRA 102131Z AUTO 20015G31KT 6SM -RA BR FEW010 BKN033 OVC070 07/05 A2983 RMK AO2 PK WND 23037/2105 P0017 T00670050,M
VGT,2023-01-10 21:33,-115.1933,36.2111,667.00,52.00,47.00,82.68,250.00,5.00,0.04,29.82,M,3.00,M,OVC,M,M,M,5500.00,M,M,M,RA,M,M,M,M,M,M,52.00,KVGT 102133Z 25005KT 3SM RA OVC055 11/08 A2982 RMK AO2 RAE17B18 TSB11E31 P0004 T01110083,M
EKO,2023-01-10 21:33,-115.7860,40.8242,1367.00,33.00,32.00,95.67,160.00,6.00,0.01,29.69,M,3.00,M,OVC,M,M,M,1300.00,M,M,M,-SN BR,M,M,M,M,M,M,26.86,KEKO 102133Z AUTO 16006KT 3SM -SN BR OVC013 01/00 A2969 RMK AO2 SNB19 P0001 T00060000,M
LSV,2023-01-10 21:34,-115.0343,36.2362,570.00,55.40,44.60,66.91,210.00,14.00,0.00,29.79,1008.10,4.00,32.00,SCT,BKN,BKN,M,3200.00,4200.00,6000.00,M,TSRA,M,M,M,M,M,M,55.40,KLSV 102134Z AUTO 21014G32KT 4SM TSRA SCT032 BKN042 BKN060 13/07 A2979 RMK AO2 RAE00RAB11 TSB18 SLP081 $,M
BVU,2023-01-10 21:35,-114.8611,35.9475,671.00,57.20,42.80,58.52,200.00,28.00,0.00,29.82,M,4.00,38.00,FEW,BKN,BKN,M,4100.00,5500.00,6500.00,M,HZ,M,M,M,M,M,M,57.20,KBVU 102135Z AUTO 20028G38KT 4SM HZ FEW041 BKN055 BKN065 14/06 A2982 RMK AO2,M
CXP,2023-01-10 21:35,-119.7326,39.1923,1431.00,33.80,32.00,93.03,180.00,7.00,0.00,29.73,M,6.00,M,FEW,FEW,FEW,M,300.00,2000.00,3400.00,M,-SN BR,M,M,M,M,M,M,26.97,KCXP 102135Z AUTO 18007KT 6SM -SN BR FEW003 FEW020 FEW034 01/00 A2973 RMK AO2,M
INS,2023-01-10 21:35,-115.6733,36.5872,955.00,46.40,41.00,81.34,250.00,15.00,0.00,29.86,1009.20,7.00,M,BKN,BKN,BKN,OVC,400.00,1100.00,3200.00,4500.00,-RA,M,M,M,M,M,M,39.45,KINS 102135Z AUTO 25015KT 7SM -RA BKN004 BKN011 BKN032 OVC045 08/05 A2986 RMK AO2 BKN004 V SCT SLP092 $,M
HND,2023-01-10 21:35,-115.1344,35.9729,742.79,53.60,44.60,71.45,230.00,23.00,0.08,29.86,M,10.00,28.00,FEW,BKN,OVC,M,3500.00,5000.00,5500.00,M,RA,M,M,M,45.00,220.00,2023-01-10 21:16,53.60,KHND 102135Z 23023G28KT 10SM RA FEW035 BKN050 OVC055 12/07 A2986 RMK AO2 PK WND 22045/2116 WSHFT 2108 LTG DSNT NE TSB05E29 P0008,M
RTS,2023-01-10 21:35,-119.8764,39.6682,1539.00,35.60,28.40,74.80,140.00,6.00,0.00,29.69,M,10.00,12.00,SCT,BKN,OVC,M,2700.00,3400.00,4800.00,M,M,M,M,M,M,M,M,29.87,KRTS 102135Z AUTO 14006G12KT 10SM SCT027 BKN034 OVC048 02/M02 A2969 RMK AO2,M
05U,2023-01-10 21:35,-116.0051,39.6042,1811.23,33.80,32.00,93.03,50.00,8.00,0.00,29.70,M,0.50,M,M,M,M,M,M,M,M,M,FG,M,M,M,M,M,M,26.33,K05U 102135Z AUTO 05008KT 1/2SM FG 01/00 A2970 RMK A01,M
MEV,2023-01-10 21:35,-119.7500,38.9963,1441.42,33.80,32.00,93.03,140.00,11.00,0.00,29.73,M,1.50,20.00,BKN,BKN,M,M,300.00,2900.00,M,M,-SN BR,M,M,M,M,M,M,24.74,KMEV 102135Z AUTO 14011G20KT 1 1/2SM -SN BR BKN003 BKN029 01/00 A2973 RMK AO2 VIS 1/2V4,M
BAM,2023-01-10 21:35,-116.8743,40.5990,1382.36,37.40,35.60,93.14,240.00,11.00,0.00,29.69,M,10.00,M,CLR,M,M,M,M,M,M,M,M,M,M,M,M,M,M,29.29,KBAM 102135Z AUTO 24011KT 10SM CLR 03/02 A2969 RMK AO1,M
LSV,2023-01-10 21:35,-115.0343,36.2362,570.00,55.40,44.60,66.91,200.00,13.00,0.00,29.79,1008.10,5.00,32.00,SCT,BKN,BKN,M,3200.00,4200.00,6000.00,M,-TSRA,M,M,M,M,M,M,55.40,KLSV 102135Z AUTO 20013G32KT 5SM -TSRA SCT032 BKN042 BKN060 13/07 A2979 RMK AO2 WSHFT 26 RAE00RAB11 TSB18 SLP081 $,M
TMT,2023-01-10 21:35,-117.1971,39.4643,1749.34,34.00,30.20,85.80,220.00,7.00,0.00,29.71,M,10.00,M,SCT,M,M,M,5000.00,M,M,M,M,M,M,M,M,M,M,27.22,KTMT 102135Z AUTO 22007KT 10SM SCT050 01/M01 A2971 RMK AO2 T00111010,M
LSV,2023-01-10 21:36,-115.0343,36.2362,570.00,53.60,44.60,71.45,200.00,14.00,0.00,29.79,1008.20,6.00,32.00,SCT,BKN,BKN,M,3200.00,4200.00,6000.00,M,VCTS -RA,M,M,M,M,M,M,53.60,KLSV 102136Z AUTO 20014G32KT 6SM VCTS -RA SCT032 BKN042 BKN060 12/07 A2979 RMK AO2 RAE00RAB11 TSB18E36 SLP082 $,M
LAS,2023-01-10 21:37,-115.1634,36.0719,663.00,53.00,45.00,73.89,250.00,14.00,0.10,29.85,M,10.00,25.00,FEW,OVC,M,M,4300.00,5500.00,M,M,-RA,M,M,M,36.00,260.00,2023-01-10 21:15,53.10,KLAS 102137Z 25014G25KT 10SM -RA FEW043 OVC055 12/07 A2985 RMK AO2 PK WND 26036/2115 WSHFT 2102 TSB08E31B32E33 TS MOV NE P0010 T01170072,M
LSV,2023-01-10 21:37,-115.0343,36.2362,570.00,53.60,44.60,71.45,210.00,13.00,0.00,29.80,1008.60,7.00,M,SCT,SCT,BKN,M,3200.00,4200.00,6000.00,M,VCTS -RA,M,M,M,M,M,M,53.60,KLSV 102137Z AUTO 21013KT 7SM VCTS -RA SCT032 SCT042 BKN060 12/07 A2980 RMK AO2 RAE00RAB11 TSB18E36 SLP086 $,M
INS,2023-01-10 21:40,-115.6733,36.5872,955.00,46.40,41.00,81.34,260.00,13.00,0.00,29.86,1009.40,5.00,M,BKN,BKN,BKN,OVC,400.00,1100.00,3200.00,4500.00,HZ,M,M,M,M,M,M,40.02,KINS 102140Z AUTO 26013KT 5SM HZ BKN004 BKN011 BKN032 OVC045 08/05 A2986 RMK AO2 RAE40 BKN004 V SCT SLP094 $,M
EKO,2023-01-10 21:40,-115.7860,40.8242,1367.00,33.00,32.00,95.67,150.00,5.00,0.01,29.70,M,9.00,M,FEW,SCT,OVC,M,600.00,1200.00,1900.00,M,M,M,M,M,M,M,M,27.70,KEKO 102140Z AUTO 15005KT 9SM FEW006 SCT012 OVC019 01/00 A2970 RMK AO2 SNB19E37 P0001 T00060000,M
INS,2023-01-10 21:41,-115.6733,36.5872,955.00,46.40,41.00,81.34,260.00,15.00,0.00,29.86,1009.40,5.00,M,BKN,BKN,BKN,OVC,400.00,1000.00,3300.00,4500.00,RA,M,M,M,M,M,M,39.45,KINS 102141Z AUTO 26015KT 5SM RA BKN004 BKN010 BKN033 OVC045 08/05 A2986 RMK AO2 RAE40RAB41 BKN004 V SCT SLP094 $,M
DRA,2023-01-10 21:41,-116.0278,36.6206,1009.00,44.00,39.00,82.12,160.00,10.00,0.17,29.80,M,10.00,M,FEW,BKN,OVC,M,1700.00,3500.00,10000.00,M,-RA,M,M,M,37.00,230.00,2023-01-10 21:05,38.14,KDRA 102141Z AUTO 16010KT 10SM -RA FEW017 BKN035 OVC100 07/04 A2980 RMK AO2 PK WND 23037/2105 WSHFT 2124 P0017 T00670039,M
LSV,2023-01-10 21:44,-115.0343,36.2362,570.00,53.60,44.60,71.45,220.00,17.00,0.00,29.80,1008.60,10.00,M,SCT,M,M,M,3200.00,M,M,M,M,M,M,M,M,M,M,53.60,KLSV 102144Z AUTO 22017KT 10SM SCT032 12/07 A2980 RMK AO2 RAE00RAB11E39 TSB18E36 SLP086 $,M
05U,2023-01-10 21:50,-116.0051,39.6042,1811.23,33.80,32.00,93.03,60.00,7.00,0.00,29.71,M,3.00,M,M,M,M,M,M,M,M,M,BR,M,M,M,M,M,M,26.97,K05U 102150Z AUTO 06007KT 3SM BR 01/00 A2971 RMK A01,M
CXP,2023-01-10 21:50,-119.7326,39.1923,1431.00,33.80,32.00,93.03,230.00,4.00,0.00,29.73,M,9.00,13.00,FEW,SCT,M,M,3500.00,4300.00,M,M,M,M,M,M,M,M,M,29.52,KCXP 102150Z AUTO 23004G13KT 9SM FEW035 SCT043 01/00 A2973 RMK AO2,M
P68,2023-01-10 21:53,-116.0056,39.6014,1993.00,32.00,30.90,95.65,60.00,8.00,0.10,29.69,1004.50,M,M,M,M,M,M,M,M,M,M,M,M,M,M,M,M,M,24.11,KP68 102153Z AUTO 06008KT 00/M01 A2969 RMK AO1 SLP045 P0010 T00001006,M
DRA,2023-01-10 21:53,-116.0278,36.6206,1009.00,45.00,39.00,79.36,170.00,13.00,0.17,29.79,1007.00,10.00,M,SCT,BKN,OVC,M,4300.00,8000.00,10000.00,M,M,M,M,M,37.00,230.00,2023-01-10 21:05,38.22,KDRA 102153Z AUTO 17013KT 10SM SCT043 BKN080 OVC100 07/04 A2979 RMK AO2 PK WND 23037/2105 WSHFT 2124 RAE48 SLP070 P0017 T00720039,M
ELY,2023-01-10 21:53,-114.8453,39.2950,1909.00,34.00,33.00,96.46,160.00,20.00,0.02,29.67,1003.80,9.00,27.00,BKN,OVC,M,M,2500.00,3300.00,M,M,-SN,M,M,M,29.00,170.00,2023-01-10 20:54,21.80,KELY 102153Z AUTO 16020G27KT 9SM -SN BKN025 OVC033 01/01 A2967 RMK AO2 PK WND 17029/2054 RAE51SNB34 SLP038 P0002 T00110006,M
VGT,2023-01-10 21:53,-115.1933,36.2111,667.00,56.00,43.00,61.81,250.00,17.00,0.04,29.81,1010.50,10.00,29.00,SCT,BKN,OVC,M,5500.00,7000.00,11000.00,M,M,M,M,M,29.00,250.00,2023-01-10 21:50,55.90,KVGT 102153Z 25017G29KT 10SM SCT055 BKN070 OVC110 13/06 A2981 RMK AO2 PK WND 25029/2150 RAE17B18E48 TSB11E31 SLP105 P0004 T01330061,M
LOL,2023-01-10 21:53,-118.5701,40.0684,1192.43,40.00,35.00,82.80,220.00,11.00,0.00,29.69,1006.10,10.00,M,CLR,M,M,M,M,M,M,M,M,M,M,M,M,M,M,32.45,KLOL 102153Z AUTO 22011KT 10SM CLR 04/02 A2969 RMK AO2 SLP061 T00440017 TSNO,M
BVU,2023-01-10 21:55,-114.8611,35.9475,671.00,51.80,48.20,87.47,230.00,21.00,0.00,29.86,M,2.00,30.00,FEW,SCT,BKN,M,400.00,2900.00,3800.00,M,RA,M,M,M,M,M,M,51.80,KBVU 102155Z AUTO 23021G30KT 2SM RA FEW004 SCT029 BKN038 11/09 A2986 RMK AO2 VIS 1 1/2V3,M
RNO,2023-01-10 21:55,-119.7711,39.4839,1341.00,39.00,30.90,72.45,160.00,13.00,0.00,29.68,1005.00,10.00,29.00,FEW,BKN,BKN,M,2000.00,5500.00,19000.00,M,M,M,M,M,29.00,160.00,2023-01-10 21:51,30.54,KRNO 102155Z 16013G29KT 10SM FEW020 BKN055 BKN190 04/M01 A2968 RMK AO2 PK WND 16029/2151 SLP050 MTN TOPS OBSCD DSNT SW THRU NW T00391006,M
RTS,2023-01-10 21:55,-119.8764,39.6682,1539.00,37.40,26.60,64.70,220.00,15.00,0.00,29.68,M,10.00,21.00,BKN,BKN,BKN,M,3500.00,4100.00,4800.00,M,M,M,M,M,M,M,M,27.78,KRTS 102155Z AUTO 22015G21KT 10SM BKN035 BKN041 BKN048 03/M03 A2968 RMK AO2,M
BAM,2023-01-10 21:55,-116.8743,40.5990,1382.36,37.40,35.60,93.14,240.00,9.00,0.00,29.71,M,10.00,M,SCT,M,M,M,10000.00,M,M,M,M,M,M,M,M,M,M,30.23,KBAM 102155Z AUTO 24009KT 10SM SCT100 03/02 A2971 RMK AO1,M
MEV,2023-01-10 21:55,-119.7500,38.9963,1441.42,33.80,32.00,93.03,160.00,9.00,0.03,29.73,M,3.00,14.00,FEW,M,M,M,2700.00,M,M,M,-SN BR,M,M,M,M,M,M,25.75,KMEV 102155Z AUTO 16009G14KT 3SM -SN BR FEW027 01/M00 A2973 RMK AO2 LTG DSNT W P0003,M
TMT,2023-01-10 21:55,-117.1971,39.4643,1749.34,34.70,29.30,80.44,240.00,9.00,0.00,29.71,M,10.00,M,SCT,SCT,SCT,M,4600.00,5000.00,11000.00,M,M,M,M,M,M,M,M,26.87,KTMT 102155Z AUTO 24009KT 10SM SCT046 SCT050 SCT110 02/M01 A2971 RMK AO2 LTG DSNT W T00151015,M
INS,2023-01-10 21:55,-115.6733,36.5872,955.00,45.50,40.30,81.91,200.00,7.00,0.06,29.87,1009.80,6.00,22.00,BKN,BKN,BKN,OVC,400.00,1200.00,2800.00,3900.00,RA,M,M,M,28.00,250.00,2023-01-10 21:22,41.23,KINS 102155Z AUTO 20007G22KT 6SM RA BKN004 BKN012 BKN028 OVC039 08/05 A2987 RMK AO2 PK WND 25028/22 RAE40RAB41 SLP098 P0006 T00750046 $,M
LSV,2023-01-10 21:55,-115.0343,36.2362,570.00,53.80,48.40,81.88,220.00,19.00,0.24,29.80,1008.60,10.00,M,SCT,BKN,M,M,2400.00,4900.00,M,M,M,M,M,M,37.00,180.00,2023-01-10 21:01,53.80,KLSV 102155Z COR AUTO 22019KT 10SM SCT024 BKN049 12/09 A2980 RMK AO2 PK WND 18037/01 RAE00RAB11E39 TSB18E36 SLP086 P0024 T01210091 $ COR 2243,M
EKO,2023-01-10 21:56,-115.7860,40.8242,1367.00,34.00,30.90,88.27,90.00,6.00,0.01,29.70,1006.70,3.00,M,FEW,OVC,M,M,1200.00,2500.00,M,M,-SN BR,M,M,M,M,M,M,27.94,KEKO 102156Z AUTO 09006KT 3SM -SN BR FEW012 OVC025 01/M01 A2970 RMK AO2 SNB19E37B53 SLP067 P0001 T00111006,M
LAS,2023-01-10 21:56,-115.1634,36.0719,663.00,52.00,39.00,61.06,240.00,19.00,0.10,29.85,1010.10,10.00,30.00,FEW,BKN,OVC,M,4300.00,5500.00,7000.00,M,M,M,M,M,36.00,260.00,2023-01-10 21:15,52.00,KLAS 102156Z 24019G30KT 10SM FEW043 BKN055 OVC070 11/04 A2985 RMK AO2 PK WND 26036/2115 WSHFT 2102 RAE45 TSB08E31B32E33 SLP101 P0010 T01110039,M
NFL,2023-01-10 21:56,-118.7010,39.4166,1199.00,44.00,32.00,62.21,210.00,17.00,0.00,29.71,1004.10,10.00,M,SCT,SCT,SCT,BKN,1000.00,3000.00,8000.00,13000.00,M,M,M,M,M,M,M,35.93,KNFL 102156Z 21017KT 10SM SCT010 SCT030 SCT080 BKN130 07/00 A2971 RMK AO2 SLP041 T00670000,M
WMC,2023-01-10 21:56,-117.8072,40.9019,1315.00,42.00,35.00,76.04,180.00,16.00,0.00,29.66,1004.10,10.00,20.00,CLR,M,M,M,M,M,M,M,M,M,M,M,M,M,M,33.58,KWMC 102156Z AUTO 18016G20KT 10SM CLR 06/02 A2966 RMK AO2 SLP041 T00560017,M
HND,2023-01-10 21:56,-115.1344,35.9729,742.79,51.00,42.00,71.19,220.00,18.00,0.10,29.88,1013.10,10.00,21.00,OVC,M,M,M,5000.00,M,M,M,-RA,M,M,M,45.00,220.00,2023-01-10 21:16,51.10,KHND 102156Z 22018G21KT 10SM -RA OVC050 11/06 A2988 RMK AO2 PK WND 22045/2116 WSHFT 2108 TSB05E29 SLP131 P0010 T01060056,M
TPH,2023-01-10 21:56,-117.0904,38.0505,1654.00,44.00,35.00,70.43,250.00,16.00,0.00,29.72,1004.90,10.00,24.00,FEW,SCT,BKN,M,4900.00,6500.00,8000.00,M,M,M,M,M,M,M,M,36.19,KTPH 102156Z AUTO 25016G24KT 10SM FEW049 SCT065 BKN080 07/02 A2972 RMK AO2 SLP049 T00670017,M
EKO,2023-01-10 21:59,-115.7860,40.8242,1367.00,34.00,30.90,88.27,90.00,7.00,T,29.70,M,1.75,M,FEW,OVC,M,M,1100.00,2300.00,M,M,-SN BR,M,M,M,M,M,M,27.22,KEKO 102159Z AUTO 09007KT 1 3/4SM -SN BR FEW011 OVC023 01/M01 A2970 RMK AO2 P0000 T00111006,M
MEV,2023-01-10 22:00,-119.7500,38.9963,1441.42,33.80,32.00,93.03,170.00,6.00,0.00,29.73,M,3.00,12.00,FEW,M,M,M,2700.00,M,M,M,-SN BR,M,M,M,M,M,M,27.70,KMEV 102200Z AUTO 17006G12KT 3SM -SN BR FEW027 01/M00 A2973 RMK AO2 LTG DSNT W,M
INS,2023-01-10 22:05,-115.6733,36.5872,955.00,44.60,37.40,75.68,190.00,8.00,0.00,29.87,1009.80,10.00,M,SCT,M,M,M,400.00,M,M,M,-RA,M,M,M,M,M,M,39.63,KINS 102205Z AUTO 19008KT 10SM -RA SCT004 07/03 A2987 RMK AO2 SLP098 $,M
INS,2023-01-10 22:10,-115.6733,36.5872,955.00,44.60,37.40,75.68,150.00,13.00,0.00,29.84,1008.70,10.00,M,SCT,SCT,SCT,BKN,400.00,1100.00,1900.00,2500.00,-RA,M,M,M,M,M,M,37.71,KINS 102210Z AUTO 15013KT 10SM -RA SCT004 SCT011 SCT019 BKN025 07/03 A2984 RMK AO2 PRESFR SLP087 $,M
ELY,2023-01-10 22:10,-114.8453,39.2950,1909.00,34.00,32.00,92.29,160.00,18.00,0.01,29.68,M,1.75,29.00,OVC,M,M,M,1900.00,M,M,M,-SN BR,M,M,M,29.00,150.00,2023-01-10 22:07,22.38,KELY 102210Z AUTO 16018G29KT 1 3/4SM -SN BR OVC019 01/00 A2968 RMK AO2 PK WND 15029/2207 RAB00E05 P0001 T00110000,M
05U,2023-01-10 22:10,-116.0051,39.6042,1811.23,33.80,32.00,93.03,30.00,5.00,0.00,29.72,M,10.00,M,M,M,M,M,M,M,M,M,M,M,M,M,M,M,M,28.53,K05U 102210Z AUTO 03005KT 10SM 01/00 A2972 RMK A01,M
EKO,2023-01-10 22:11,-115.7860,40.8242,1367.00,34.00,32.00,92.29,70.00,5.00,0.01,29.71,M,3.00,M,FEW,OVC,M,M,1600.00,2900.00,M,M,-SN BR,M,M,M,M,M,M,28.77,KEKO 102211Z AUTO 07005KT 3SM -SN BR FEW016 OVC029 01/00 A2971 RMK AO2 P0001 T00110000,M
BVU,2023-01-10 22:15,-114.8611,35.9475,671.00,51.80,48.20,87.47,230.00,15.00,0.00,29.87,M,4.00,23.00,FEW,BKN,OVC,M,2800.00,3700.00,4400.00,M,-RA,M,M,M,M,M,M,51.80,KBVU 102215Z AUTO 23015G23KT 4SM -RA FEW028 BKN037 OVC044 11/09 A2987 RMK AO2,M
CXP,2023-01-10 22:15,-119.7326,39.1923,1431.00,33.80,32.00,93.03,0.00,0.00,0.00,29.74,M,1.25,M,SCT,SCT,SCT,M,1200.00,2800.00,3400.00,M,-SN BR,M,M,M,M,M,M,33.80,KCXP 102215Z AUTO 00000KT 1 1/4SM -SN BR SCT012 SCT028 SCT034 01/M00 A2974 RMK AO2,M
INS,2023-01-10 22:15,-115.6733,36.5872,955.00,44.60,35.60,70.48,130.00,15.00,0.00,29.81,1007.70,10.00,M,FEW,SCT,SCT,SCT,400.00,1100.00,2000.00,2600.00,-RA,M,M,M,M,M,M,37.11,KINS 102215Z AUTO 13015KT 10SM -RA FEW004 SCT011 SCT020 SCT026 07/02 A2981 RMK AO2 PRESFR SLP077 $,M
ELY,2023-01-10 22:15,-114.8453,39.2950,1909.00,33.00,32.00,95.67,160.00,17.00,0.01,29.69,M,0.75,29.00,VV ,M,M,M,1500.00,M,M,M,-SN BR,M,M,M,29.00,150.00,2023-01-10 22:07,21.52,KELY 102215Z AUTO 16017G29KT 3/4SM -SN BR VV015 01/00 A2969 RMK AO2 PK WND 15029/2207 RAB00E05 P0001 T00060000,M
RTS,2023-01-10 22:15,-119.8764,39.6682,1539.00,37.40,24.80,60.04,250.00,9.00,0.00,29.69,M,10.00,M,BKN,BKN,M,M,3500.00,4300.00,M,M,M,M,M,M,M,M,M,30.23,KRTS 102215Z AUTO 25009KT 10SM BKN035 BKN043 03/M04 A2969 RMK AO2,M
BAM,2023-01-10 22:15,-116.8743,40.5990,1382.36,37.40,35.60,93.14,240.00,9.00,0.00,29.71,M,10.00,M,CLR,M,M,M,M,M,M,M,M,M,M,M,M,M,M,30.23,KBAM 102215Z AUTO 24009KT 10SM CLR 03/02 A2971 RMK AO1,M
TMT,2023-01-10 22:15,-117.1971,39.4643,1749.34,35.40,30.00,80.49,250.00,7.00,0.00,29.71,M,10.00,M,BKN,M,M,M,12000.00,M,M,M,M,M,M,M,M,M,M,28.92,KTMT 102215Z AUTO 25007KT 10SM BKN120 02/M01 A2971 RMK AO2 T00191011,M
ELY,2023-01-10 22:21,-114.8453,39.2950,1909.00,33.00,32.00,95.67,170.00,15.00,0.03,29.70,M,0.75,28.00,FEW,OVC,M,M,800.00,1300.00,M,M,-SN BR,M,M,M,29.00,150.00,2023-01-10 22:07,22.21,KELY 102221Z AUTO 17015G28KT 3/4SM -SN BR FEW008 OVC013 01/00 A2970 RMK AO2 PK WND 15029/2207 RAB00E05 P0003 T00060000,M
INS,2023-01-10 22:25,-115.6733,36.5872,955.00,44.60,35.60,70.48,140.00,11.00,0.00,29.78,1006.70,10.00,21.00,FEW,BKN,BKN,M,2200.00,4700.00,9000.00,M,M,M,M,M,M,M,M,38.39,KINS 102225Z AUTO 14011G21KT 10SM FEW022 BKN047 BKN090 07/02 A2978 RMK AO2 RAE25 PRESFR SLP067 $,M
05U,2023-01-10 22:30,-116.0051,39.6042,1811.23,32.00,32.00,100.00,50.00,6.00,0.00,29.71,M,10.00,M,M,M,M,M,M,M,M,M,M,M,M,M,M,M,M,25.53,K05U 102230Z AUTO 05006KT 10SM 00/00 A2971 RMK A01,M
ELY,2023-01-10 22:34,-114.8453,39.2950,1909.00,33.00,32.00,95.67,220.00,21.00,0.05,29.74,M,0.25,33.00,VV ,M,M,M,700.00,M,M,M,+SN FG,M,M,M,33.00,230.00,2023-01-10 22:32,20.32,KELY 102234Z AUTO 22021G33KT 1/4SM +SN FG VV007 01/00 A2974 RMK AO2 PK WND 23033/2232 WSHFT 2220 RAB00E05 P0005 T00060000,M
BVU,2023-01-10 22:35,-114.8611,35.9475,671.00,51.80,41.00,66.48,270.00,22.00,0.00,29.89,M,8.00,30.00,FEW,OVC,M,M,3500.00,4400.00,M,M,-RA,M,M,M,M,M,M,51.80,KBVU 102235Z AUTO 27022G30KT 8SM -RA FEW035 OVC044 11/05 A2989 RMK AO2,M
CXP,2023-01-10 22:35,-119.7326,39.1923,1431.00,33.80,32.00,93.03,310.00,3.00,0.00,29.74,M,9.00,M,FEW,SCT,SCT,M,1800.00,3000.00,3700.00,M,-RA,M,M,M,M,M,M,30.75,KCXP 102235Z AUTO 31003KT 9SM -RA FEW018 SCT030 SCT037 01/M00 A2974 RMK AO2,M
RTS,2023-01-10 22:35,-119.8764,39.6682,1539.00,37.40,26.60,64.70,M,6.00,0.00,29.70,M,10.00,14.00,BKN,BKN,M,M,3600.00,4200.00,M,M,M,M,M,M,M,M,M,32.03,KRTS 102235Z AUTO VRB06G14KT 10SM BKN036 BKN042 03/M03 A2970 RMK AO2,M
BAM,2023-01-10 22:35,-116.8743,40.5990,1382.36,37.40,35.60,93.14,270.00,7.00,0.00,29.71,M,10.00,M,CLR,M,M,M,M,M,M,M,M,M,M,M,M,M,M,31.36,KBAM 102235Z AUTO 27007KT 10SM CLR 03/02 A2971 RMK AO1,M
TMT,2023-01-10 22:35,-117.1971,39.4643,1749.34,34.20,29.30,82.06,230.00,12.00,0.00,29.72,M,10.00,M,SCT,SCT,M,M,5000.00,12000.00,M,M,M,M,M,M,M,M,M,24.80,KTMT 102235Z AUTO 23012KT 10SM SCT050 SCT120 01/M01 A2972 RMK AO2 T00121015,M
INS,2023-01-10 22:42,-115.6733,36.5872,955.00,50.00,26.60,39.95,220.00,17.00,0.00,29.76,1005.60,10.00,M,FEW,BKN,BKN,OVC,2500.00,9000.00,11000.00,13000.00,M,M,M,M,M,M,M,50.00,KINS 102242Z AUTO 22017KT 10SM FEW025 BKN090 BKN110 OVC130 10/M03 A2976 RMK AO2 WSHFT 31 RAE25 PRESFR SLP056 $,M
LSV,2023-01-10 22:44,-115.0343,36.2362,570.00,53.60,41.00,62.23,250.00,26.00,0.00,29.87,1011.00,10.00,33.00,SCT,M,M,M,7000.00,M,M,M,M,M,M,M,M,M,M,53.60,KLSV 102244Z AUTO 25026G33KT 10SM SCT070 12/05 A2987 RMK AO2 PRESRR SLP110 $,M
LSV,2023-01-10 22:46,-115.0343,36.2362,570.00,53.60,41.00,62.23,250.00,18.00,0.00,29.87,1011.00,10.00,33.00,FEW,M,M,M,7000.00,M,M,M,-RA,M,M,M,M,M,M,53.60,KLSV 102246Z AUTO 25018G33KT 10SM -RA FEW070 12/05 A2987 RMK AO2 RAB46 SLP110 $,M
05U,2023-01-10 22:50,-116.0051,39.6042,1811.23,33.80,32.00,93.03,50.00,4.00,0.00,29.73,M,10.00,M,M,M,M,M,M,M,M,M,M,M,M,M,M,M,M,29.52,K05U 102250Z AUTO 05004KT 10SM 01/00 A2973 RMK A01,M
LSV,2023-01-10 22:51,-115.0343,36.2362,570.00,53.60,39.20,58.02,240.00,18.00,0.00,29.88,1011.30,10.00,32.00,FEW,M,M,M,7000.00,M,M,M,M,M,M,M,M,M,M,53.60,KLSV 102251Z AUTO 24018G32KT 10SM FEW070 12/04 A2988 RMK AO2 RAB46E51 SLP113 $,M
INS,2023-01-10 22:52,-115.6733,36.5872,955.00,51.80,24.80,34.69,250.00,14.00,0.00,29.76,1005.60,10.00,27.00,SCT,BKN,M,M,9000.00,13000.00,M,M,M,M,M,M,M,M,M,51.80,KINS 102252Z AUTO 25014G27KT 10SM SCT090 BKN130 11/M04 A2976 RMK AO2 WSHFT 45 RAE25 SLP056 $,M
P68,2023-01-10 22:53,-116.0056,39.6014,1993.00,33.00,30.90,91.51,60.00,4.00,0.00,29.71,1005.30,M,M,M,M,M,M,M,M,M,M,M,M,M,M,M,M,M,28.70,KP68 102253Z AUTO 06004KT 01/M01 A2971 RMK AO1 PRESRR SLP053 T00061006,M
DRA,2023-01-10 22:53,-116.0278,36.6206,1009.00,50.00,32.00,49.81,210.00,16.00,0.00,29.79,1006.80,10.00,29.00,CLR,M,M,M,M,M,M,M,M,M,M,M,29.00,220.00,2023-01-10 22:50,50.00,KDRA 102253Z AUTO 21016G29KT 10SM CLR 10/00 A2979 RMK AO2 PK WND 22029/2250 SLP068 T01000000,M
ELY,2023-01-10 22:53,-114.8453,39.2950,1909.00,32.00,32.00,100.00,200.00,10.00,0.11,29.75,1006.60,0.25,27.00,VV ,M,M,M,600.00,M,M,M,+SN FG,M,M,M,33.00,230.00,2023-01-10 22:32,22.97,KELY 102253Z AUTO 20010G27KT 1/4SM +SN FG VV006 00/00 A2975 RMK AO2 PK WND 23033/2232 WSHFT 2220 RAB00E05 SLP066 P0011 T00000000,M
LOL,2023-01-10 22:53,-118.5701,40.0684,1192.43,41.00,35.00,79.34,210.00,14.00,0.00,29.70,1006.50,10.00,M,CLR,M,M,M,M,M,M,M,M,M,M,M,M,M,M,32.76,KLOL 102253Z AUTO 21014KT 10SM CLR 05/02 A2970 RMK AO2 SLP065 T00500017 TSNO,M
VGT,2023-01-10 22:53,-115.1933,36.2111,667.00,51.00,38.00,60.46,220.00,14.00,T,29.89,1013.50,10.00,24.00,FEW,BKN,OVC,M,4400.00,9000.00,10000.00,M,-RA,M,M,M,41.00,260.00,2023-01-10 22:29,51.10,KVGT 102253Z 22014G24KT 10SM -RA FEW044 BKN090 OVC100 11/03 A2989 RMK AO2 PK WND 26041/2229 RAB23 SLP135 P0000 T01060033,M
BVU,2023-01-10 22:55,-114.8611,35.9475,671.00,50.00,41.00,71.07,290.00,18.00,0.00,29.93,M,5.00,35.00,FEW,FEW,OVC,M,3100.00,3600.00,4500.00,M,-RA,M,M,M,M,M,M,50.00,KBVU 102255Z AUTO 29018G35KT 5SM -RA FEW031 FEW036 OVC045 10/05 A2993 RMK AO2,M
CXP,2023-01-10 22:55,-119.7326,39.1923,1431.00,35.60,32.00,86.59,0.00,0.00,0.00,29.74,M,10.00,M,BKN,BKN,M,M,3300.00,4100.00,M,M,M,M,M,M,M,M,M,35.60,KCXP 102255Z AUTO 00000KT 10SM BKN033 BKN041 02/M00 A2974 RMK AO2,M
RNO,2023-01-10 22:55,-119.7711,39.4839,1341.00,39.00,28.90,66.79,140.00,18.00,0.00,29.67,1004.90,10.00,28.00,BKN,BKN,M,M,5500.00,10000.00,M,M,M,M,M,M,34.00,170.00,2023-01-10 22:30,28.96,KRNO 102255Z 14018G28KT 10SM BKN055 BKN100 04/M02 A2967 RMK AO2 PK WND 17034/2230 SLP049 MTN TOPS OBSCD DSNT SW THRU NW T00391017,M
RTS,2023-01-10 22:55,-119.8764,39.6682,1539.00,37.40,26.60,64.70,250.00,5.00,0.00,29.70,M,10.00,14.00,BKN,OVC,M,M,3400.00,4100.00,M,M,M,M,M,M,M,M,M,32.81,KRTS 102255Z AUTO 25005G14KT 10SM BKN034 OVC041 03/M03 A2970 RMK AO2,M
BAM,2023-01-10 22:55,-116.8743,40.5990,1382.36,37.40,35.60,93.14,270.00,5.00,0.00,29.72,M,10.00,M,CLR,M,M,M,M,M,M,M,M,M,M,M,M,M,M,32.81,KBAM 102255Z AUTO 27005KT 10SM CLR 03/02 A2972 RMK AO1,M
TMT,2023-01-10 22:55,-117.1971,39.4643,1749.34,35.60,28.90,76.35,210.00,13.00,0.00,29.73,M,10.00,M,SCT,SCT,SCT,M,5000.00,10000.00,12000.00,M,M,M,M,M,M,M,M,26.18,KTMT 102255Z AUTO 21013KT 10SM SCT050 SCT100 SCT120 02/M02 A2973 RMK AO2 T00201017,M
INS,2023-01-10 22:55,-115.6733,36.5872,955.00,52.20,25.30,34.90,280.00,16.00,T,29.76,1005.60,10.00,27.00,SCT,BKN,M,M,9000.00,13000.00,M,M,M,M,M,M,27.00,210.00,2023-01-10 22:48,52.20,KINS 102255Z AUTO 28016G27KT 10SM SCT090 BKN130 11/M04 A2976 RMK AO2 PK WND 21027/48 RAE25 SLP056 P0000 T01121037 $,M
LSV,2023-01-10 22:55,-115.0343,36.2362,570.00,52.70,40.50,63.08,230.00,18.00,0.01,29.88,1011.30,10.00,26.00,FEW,M,M,M,7000.00,M,M,M,M,M,M,M,41.00,240.00,2023-01-10 22:29,52.70,KLSV 102255Z AUTO 23018G26KT 10SM FEW070 12/05 A2988 RMK AO2 PK WND 24041/29 RAB46E51 SLP113 P0001 T01150047 $,M
EKO,2023-01-10 22:56,-115.7860,40.8242,1367.00,34.00,30.90,88.27,290.00,3.00,0.01,29.71,1007.00,10.00,M,BKN,OVC,M,M,2600.00,11000.00,M,M,M,M,M,M,M,M,M,30.97,KEKO 102256Z AUTO 29003KT 10SM BKN026 OVC110 01/M01 A2971 RMK AO2 SNE18 SLP070 P0001 T00111006,M
WMC,2023-01-10 22:56,-117.8072,40.9019,1315.00,43.00,33.00,67.82,160.00,5.00,0.00,29.69,1005.20,10.00,M,SCT,M,M,M,4600.00,M,M,M,M,M,M,M,M,M,M,39.46,KWMC 102256Z AUTO 16005KT 10SM SCT046 06/01 A2969 RMK AO2 SLP052 T00610006,M
HND,2023-01-10 22:56,-115.1344,35.9729,742.79,48.00,38.00,67.87,240.00,13.00,0.02,29.95,1015.70,10.00,21.00,BKN,OVC,M,M,3900.00,5000.00,M,M,-RA,M,M,M,32.00,220.00,2023-01-10 22:29,42.07,KHND 102256Z 24013G21KT 10SM -RA BKN039 OVC050 09/03 A2995 RMK AO2 PK WND 22032/2229 SLP157 P0002 T00890033,M
NFL,2023-01-10 22:56,-118.7010,39.4166,1199.00,44.00,33.00,65.02,190.00,12.00,0.00,29.71,1004.20,10.00,M,SCT,SCT,BKN,BKN,3000.00,8000.00,15000.00,25000.00,M,M,M,M,M,M,M,37.40,KNFL 102256Z 19012KT 10SM SCT030 SCT080 BKN150 BKN250 07/01 A2971 RMK AO2 SLP042 SH DSNT SW-W T00670006,M
LAS,2023-01-10 22:56,-115.1634,36.0719,663.00,49.00,38.00,65.62,230.00,16.00,0.01,29.91,1012.50,10.00,26.00,FEW,BKN,OVC,M,3500.00,4600.00,7000.00,M,-RA,M,M,M,32.00,240.00,2023-01-10 22:00,42.45,KLAS 102256Z 23016G26KT 10SM -RA FEW035 BKN046 OVC070 09/03 A2991 RMK AO2 PK WND 24032/2200 RAB08 SLP125 P0001 T00940033,M
ELY,2023-01-10 23:05,-114.8453,39.2950,1909.00,33.00,32.00,95.67,130.00,11.00,0.02,29.73,M,0.75,18.00,VV ,M,M,M,1000.00,M,M,M,-SN BR,M,M,M,M,M,M,23.86,KELY 102305Z AUTO 13011G18KT 3/4SM -SN BR VV010 01/00 A2973 RMK AO2 P0002 T00060000,M
EKO,2023-01-10 23:08,-115.7860,40.8242,1367.00,34.00,30.90,88.27,280.00,4.00,0.00,29.71,M,10.00,M,SCT,BKN,OVC,M,2400.00,3500.00,10000.00,M,M,M,M,M,M,M,M,29.76,KEKO 102308Z AUTO 28004KT 10SM SCT024 BKN035 OVC100 01/M01 A2971 RMK AO2 T00111006,M
BVU,2023-01-10 23:15,-114.8611,35.9475,671.00,48.20,39.20,70.88,250.00,23.00,0.00,29.92,M,9.00,M,FEW,SCT,BKN,M,3500.00,4200.00,5000.00,M,-RA,M,M,M,M,M,M,40.09,KBVU 102315Z AUTO 25023KT 9SM -RA FEW035 SCT042 BKN050 09/04 A2992 RMK AO2,M
CXP,2023-01-10 23:15,-119.7326,39.1923,1431.00,33.80,30.20,86.49,M,3.00,0.00,29.74,M,10.00,M,OVC,M,M,M,3600.00,M,M,M,UP,M,M,M,M,M,M,30.75,KCXP 102315Z AUTO VRB03KT 10SM UP OVC036 01/M01 A2974 RMK AO2,M
RTS,2023-01-10 23:15,-119.8764,39.6682,1539.00,37.40,26.60,64.70,280.00,10.00,0.00,29.71,M,10.00,20.00,BKN,OVC,M,M,3300.00,4000.00,M,M,M,M,M,M,M,M,M,29.74,KRTS 102315Z AUTO 28010G20KT 240V300 10SM BKN033 OVC040 03/M03 A2971 RMK AO2,M
05U,2023-01-10 23:15,-116.0051,39.6042,1811.23,33.80,32.00,93.03,0.00,0.00,0.00,29.73,M,10.00,M,M,M,M,M,M,M,M,M,M,M,M,M,M,M,M,33.80,K05U 102315Z AUTO 00000KT 10SM 01/00 A2973 RMK A01,M
BAM,2023-01-10 23:15,-116.8743,40.5990,1382.36,39.20,35.60,86.79,250.00,7.00,0.00,29.71,M,10.00,M,CLR,M,M,M,M,M,M,M,M,M,M,M,M,M,M,33.56,KBAM 102315Z AUTO 25007KT 10SM CLR 04/02 A2971 RMK AO1,M
TMT,2023-01-10 23:15,-117.1971,39.4643,1749.34,34.70,28.40,77.53,220.00,10.00,0.00,29.74,M,10.00,M,SCT,SCT,M,M,10000.00,12000.00,M,M,M,M,M,M,M,M,M,26.35,KTMT 102315Z AUTO 22010KT 10SM SCT100 SCT120 02/M02 A2974 RMK AO2 T00151020,M
INS,2023-01-10 23:17,-115.6733,36.5872,955.00,50.00,33.80,53.54,250.00,18.00,0.00,29.80,1007.00,10.00,22.00,SCT,BKN,BKN,M,14000.00,19000.00,21000.00,M,M,M,M,M,M,M,M,50.00,KINS 102317Z AUTO 25018G22KT 10SM SCT140 BKN190 BKN210 10/01 A2980 RMK AO2 WSHFT 04 PRESRR SLP070 $,M
ELY,2023-01-10 23:19,-114.8453,39.2950,1909.00,33.00,30.90,91.51,130.00,11.00,0.03,29.71,M,1.25,21.00,BKN,BKN,OVC,M,1000.00,7000.00,9000.00,M,-SN BR,M,M,M,M,M,M,23.86,KELY 102319Z AUTO 13011G21KT 1 1/4SM -SN BR BKN010 BKN070 OVC090 01/M01 A2971 RMK AO2 WSHFT 2305 P0003 T00061006,M
ELY,2023-01-10 23:21,-114.8453,39.2950,1909.00,33.00,30.90,91.51,130.00,10.00,0.03,29.71,M,2.00,21.00,BKN,BKN,OVC,M,1000.00,7000.00,9500.00,M,-SN BR,M,M,M,M,M,M,24.35,KELY 102321Z AUTO 13010G21KT 2SM -SN BR BKN010 BKN070 OVC095 01/M01 A2971 RMK AO2 WSHFT 2305 P0003 T00061006,M
ELY,2023-01-10 23:25,-114.8453,39.2950,1909.00,33.00,30.00,88.23,130.00,11.00,0.03,29.69,M,5.00,M,SCT,BKN,OVC,M,1200.00,7000.00,9500.00,M,-SN BR,M,M,M,M,M,M,23.86,KELY 102325Z AUTO 13011KT 5SM -SN BR SCT012 BKN070 OVC095 01/M01 A2969 RMK AO2 WSHFT 2305 PRESFR P0003 T00061011,M
05U,2023-01-10 23:30,-116.0051,39.6042,1811.23,33.80,32.00,93.03,0.00,0.00,0.00,29.74,M,10.00,M,M,M,M,M,M,M,M,M,M,M,M,M,M,M,M,33.80,K05U 102330Z AUTO 00000KT 10SM 01/00 A2974 RMK A01,M
BVU,2023-01-10 23:35,-114.8611,35.9475,671.00,48.20,41.00,76.01,240.00,21.00,0.00,29.94,M,8.00,30.00,SCT,BKN,OVC,M,3600.00,4300.00,5500.00,M,-RA,M,M,M,M,M,M,40.46,KBVU 102335Z AUTO 24021G30KT 8SM -RA SCT036 BKN043 OVC055 09/05 A2994 RMK AO2,M
CXP,2023-01-10 23:35,-119.7326,39.1923,1431.00,35.60,30.20,80.51,M,6.00,0.00,29.75,M,9.00,M,BKN,OVC,M,M,3500.00,4200.00,M,M,-RA,M,M,M,M,M,M,29.87,KCXP 102335Z AUTO VRB06KT 9SM -RA BKN035 OVC042 02/M01 A2975 RMK AO2,M
RTS,2023-01-10 23:35,-119.8764,39.6682,1539.00,35.60,28.40,74.80,270.00,13.00,0.00,29.72,M,10.00,M,SCT,OVC,M,M,2500.00,3400.00,M,M,M,M,M,M,M,M,M,26.18,KRTS 102335Z AUTO 27013KT 10SM SCT025 OVC034 02/M02 A2972 RMK AO2,M
BAM,2023-01-10 23:35,-116.8743,40.5990,1382.36,39.20,35.60,86.79,250.00,8.00,0.00,29.72,M,10.00,M,CLR,M,M,M,M,M,M,M,M,M,M,M,M,M,M,32.98,KBAM 102335Z AUTO 25008KT 10SM CLR 04/02 A2972 RMK AO1,M
TMT,2023-01-10 23:35,-117.1971,39.4643,1749.34,33.60,27.90,79.36,220.00,9.00,0.00,29.74,M,10.00,M,CLR,M,M,M,M,M,M,M,M,M,M,M,M,M,M,25.50,KTMT 102335Z AUTO 22009KT 10SM CLR 01/M02 A2974 RMK AO2 T00091023,M
ELY,2023-01-10 23:44,-114.8453,39.2950,1909.00,34.00,28.90,81.37,200.00,10.00,0.03,29.71,M,10.00,18.00,FEW,BKN,OVC,M,2700.00,6000.00,11000.00,M,M,M,M,M,M,M,M,25.48,KELY 102344Z AUTO 20010G18KT 10SM FEW027 BKN060 OVC110 01/M02 A2971 RMK AO2 WSHFT 2330 SNE27 P0003 T00111017,M
P68,2023-01-10 23:53,-116.0056,39.6014,1993.00,32.00,30.00,92.22,210.00,4.00,0.00,29.73,1006.50,M,M,M,M,M,M,M,M,M,M,M,M,M,M,M,M,M,27.42,KP68 102353Z AUTO 21004KT 00/M01 A2973 RMK AO1 SLP065 60014 T00001011 10044 20000 53009,M
DRA,2023-01-10 23:53,-116.0278,36.6206,1009.00,48.00,34.00,58.16,200.00,19.00,0.00,29.82,1007.80,10.00,34.00,CLR,M,M,M,M,M,M,M,M,M,M,M,34.00,220.00,2023-01-10 23:31,40.60,KDRA 102353Z AUTO 20019G34KT 10SM CLR 09/01 A2982 RMK AO2 PK WND 22034/2331 SLP078 60041 T00890011 10117 20067 53000,M
ELY,2023-01-10 23:53,-114.8453,39.2950,1909.00,34.00,28.90,81.37,180.00,12.00,0.03,29.71,1004.70,10.00,17.00,BKN,OVC,M,M,4400.00,11000.00,M,M,M,M,M,M,M,M,M,24.55,KELY 102353Z AUTO 18012G17KT 10SM BKN044 OVC110 01/M02 A2971 RMK AO2 WSHFT 2330 SNE27 SLP047 P0003 60016 T00111017 10028 20000 50006,M
LOL,2023-01-10 23:53,-118.5701,40.0684,1192.43,41.00,33.00,73.25,210.00,13.00,0.00,29.71,1007.00,10.00,M,CLR,M,M,M,M,M,M,M,M,M,M,M,M,M,M,33.10,KLOL 102353Z AUTO 21013KT 10SM CLR 05/01 A2971 RMK AO2 SLP070 T00500006 10061 20006 53007 TSNO,M
VGT,2023-01-10 23:53,-115.1933,36.2111,667.00,51.00,37.00,58.36,210.00,14.00,T,29.86,1012.90,10.00,M,BKN,M,M,M,11000.00,M,M,M,M,M,M,M,M,M,M,51.10,KVGT 102353Z 21014KT 10SM BKN110 11/03 A2986 RMK AO2 RAE21 SLP129 P0000 60013 T01060028 10161 20100 50026,M
BVU,2023-01-10 23:55,-114.8611,35.9475,671.00,46.40,41.00,81.34,210.00,19.00,0.00,29.90,M,6.00,29.00,FEW,BKN,OVC,M,2800.00,3600.00,4800.00,M,-DZ,M,M,M,M,M,M,38.48,KBVU 102355Z AUTO 21019G29KT 6SM -DZ FEW028 BKN036 OVC048 08/05 A2990 RMK AO2,M
CXP,2023-01-10 23:55,-119.7326,39.1923,1431.00,35.60,30.20,80.51,20.00,3.00,0.00,29.75,M,7.00,M,BKN,OVC,M,M,3500.00,4200.00,M,M,UP,M,M,M,M,M,M,32.80,KCXP 102355Z AUTO 02003KT 7SM UP BKN035 OVC042 02/M01 A2975 RMK AO2 LTG DSNT SW AND W,M
RNO,2023-01-10 23:55,-119.7711,39.4839,1341.00,39.00,30.00,69.85,150.00,18.00,0.00,29.70,1005.70,10.00,34.00,SCT,BKN,M,M,5500.00,10000.00,M,M,M,M,M,M,34.00,150.00,2023-01-10 23:51,28.96,KRNO 102355Z 15018G34KT 10SM SCT055 BKN100 04/M01 A2970 RMK AO2 PK WND 15034/2351 SLP057 MTN TOPS OBSCD DSNT SW THRU NW 60007 T00391011 10056 20006 53006,M
RTS,2023-01-10 23:55,-119.8764,39.6682,1539.00,35.60,26.60,69.46,260.00,14.00,0.00,29.72,M,10.00,20.00,FEW,SCT,M,M,2500.00,3100.00,M,M,M,M,M,M,M,M,M,25.80,KRTS 102355Z AUTO 26014G20KT 10SM FEW025 SCT031 02/M03 A2972 RMK AO2,M
05U,2023-01-10 23:55,-116.0051,39.6042,1811.23,32.00,32.00,100.00,200.00,4.00,0.00,29.75,M,10.00,M,M,M,M,M,M,M,M,M,M,M,M,M,M,M,M,27.42,K05U 102355Z AUTO 20004KT 10SM 00/M00 A2975 RMK A01,M
BAM,2023-01-10 23:55,-116.8743,40.5990,1382.36,41.00,35.60,80.93,220.00,6.00,0.00,29.75,M,10.00,M,BKN,BKN,M,M,5500.00,9000.00,M,M,M,M,M,M,M,M,M,36.37,KBAM 102355Z AUTO 22006KT 10SM BKN055 BKN090 05/02 A2975 RMK AO1,M
TMT,2023-01-10 23:55,-117.1971,39.4643,1749.34,33.00,26.60,76.75,230.00,10.00,0.00,29.75,M,10.00,M,CLR,M,M,M,M,M,M,M,M,M,M,M,M,M,M,24.35,KTMT 102355Z AUTO 23010KT 10SM CLR 01/M03 A2975 RMK AO2 60004 T00061030 10020 21004,M
INS,2023-01-10 23:55,-115.6733,36.5872,955.00,50.20,28.60,43.06,230.00,21.00,0.00,29.82,1008.10,10.00,M,CLR,M,M,M,M,M,M,M,M,M,M,M,31.00,220.00,2023-01-10 23:42,50.20,KINS 102355Z AUTO 23021KT 10SM CLR 10/M02 A2982 RMK AO2 PK WND 22031/42 SLP081 60015 T01011019 10112 20072 50004 $,M
LSV,2023-01-10 23:55,-115.0343,36.2362,570.00,50.70,39.00,64.07,200.00,18.00,0.00,29.83,1009.60,10.00,M,BKN,M,M,M,12000.00,M,M,M,M,M,M,M,M,M,M,50.70,KLSV 102355Z COR AUTO 20018KT 10SM BKN120 10/04 A2983 RMK AO2 SLP096 60001 T01040039 10170 20104 50027 $ COR 0002,M
WMC,2023-01-10 23:56,-117.8072,40.9019,1315.00,41.00,30.90,67.03,240.00,6.00,0.00,29.71,1006.00,10.00,M,BKN,BKN,OVC,M,4100.00,5000.00,7500.00,M,M,M,M,M,M,M,M,36.37,KWMC 102356Z AUTO 24006KT 10SM BKN041 BKN050 OVC075 05/M01 A2971 RMK AO2 SLP060 60004 T00501006 10067 20006 53009,M
NFL,2023-01-10 23:56,-118.7010,39.4166,1199.00,43.00,30.00,59.83,200.00,10.00,0.00,29.75,1005.30,10.00,15.00,SCT,SCT,BKN,BKN,3000.00,8000.00,15000.00,25000.00,M,M,M,M,M,M,M,36.76,KNFL 102356Z 20010G15KT 10SM SCT030 SCT080 BKN150 BKN250 06/M01 A2975 RMK AO2 SLP053 SH DSNT SW-W T00611011 10067 20039 53012,M
LAS,2023-01-10 23:56,-115.1634,36.0719,663.00,49.00,37.00,63.34,210.00,12.00,T,29.85,1010.50,10.00,25.00,FEW,BKN,BKN,BKN,3500.00,4600.00,7000.00,25000.00,M,M,M,M,31.00,200.00,2023-01-10 23:39,43.51,KLAS 102356Z 21012G25KT 10SM FEW035 BKN046 BKN070CB BKN250 09/03 A2985 RMK AO2 PK WND 20031/2339 RAE17 SLP105 CB NE-SE MOV NE P0000 60011 T00940028 10161 20089 50026,M
EKO,2023-01-10 23:56,-115.7860,40.8242,1367.00,33.00,30.90,91.51,270.00,5.00,0.00,29.71,1007.10,10.00,M,FEW,M,M,M,2400.00,M,M,M,M,M,M,0.02,M,M,M,27.70,KEKO 102356Z AUTO 27005KT 10SM FEW024 01/M01 A2971 RMK AO2 SLP071 60002 I6002 T00061006 10017 20006 50003,M
HND,2023-01-10 23:56,-115.1344,35.9729,742.79,47.00,38.00,70.73,200.00,20.00,0.02,29.86,1012.60,10.00,M,FEW,BKN,BKN,M,4600.00,6000.00,7500.00,M,-RA,M,M,M,37.00,210.00,2023-01-10 23:28,38.93,KHND 102356Z 20020KT 10SM -RA FEW046 BKN060 BKN075 08/03 A2986 RMK AO2 PK WND 21037/2328 SLP126 P0002 60015 T00830033 10167 20078 50025,M
