station,valid,lon,lat,elevation,tmpf,dwpf,relh,drct,sknt,p01i,alti,mslp,vsby,gust,skyc1,skyc2,skyc3,skyc4,skyl1,skyl2,skyl3,skyl4,wxcodes,ice_accretion_1hr,ice_accretion_3hr,ice_accretion_6hr,peak_wind_gust,peak_wind_drct,peak_wind_time,feel,metar,snowdepth
RTS,2025-07-17 00:05,-119.8764,39.6682,1539.00,89.60,39.20,17.13,300.00,19.00,0.00,30.00,M,10.00,24.00,CLR,M,M,M,M,M,M,M,M,M,M,M,M,M,M,85.74,KRTS 170005Z AUTO 30019G24KT 10SM CLR 32/04 A3000 RMK AO2,M
MEV,2025-07-17 00:05,-119.7500,38.9963,1441.42,89.60,44.60,21.10,270.00,14.00,0.00,29.95,M,10.00,M,CLR,M,M,M,M,M,M,M,M,M,M,M,M,M,M,86.07,KMEV 170005Z AUTO 27014KT 10SM CLR 32/07 A2995 RMK AO2,M
TMT,2025-07-17 00:10,-117.1971,39.4643,1749.34,78.00,38.00,23.73,180.00,11.00,0.00,30.05,M,7.00,36.00,SCT,SCT,OVC,M,5000.00,6000.00,8500.00,M,-RA,M,M,M,M,M,M,78.00,KTMT 170010Z AUTO 18011G36KT 150V220 7SM -RA SCT050 SCT060 OVC085 26/03 A3005 RMK AO2 T02560034,M
BVU,2025-07-17 00:15,-114.8611,35.9475,671.00,100.40,50.00,18.57,150.00,21.00,0.00,29.75,M,10.00,27.00,CLR,M,M,M,M,M,M,M,M,M,M,M,M,M,M,97.45,KBVU 170015Z AUTO 15021G27KT 10SM CLR 38/10 A2975 RMK AO2,M
BAM,2025-07-17 00:15,-116.8743,40.5990,1382.36,98.60,35.60,11.27,340.00,8.00,0.00,29.89,M,10.00,M,CLR,M,M,M,M,M,M,M,M,M,M,M,M,M,M,93.24,KBAM 170015Z AUTO 34008KT 10SM CLR 37/02 A2989 RMK AO1,M
CXP,2025-07-17 00:15,-119.7326,39.1923,1431.00,91.40,42.80,18.62,300.00,12.00,0.00,29.97,M,10.00,18.00,CLR,M,M,M,M,M,M,M,M,M,M,M,M,M,M,87.53,KCXP 170015Z AUTO 30012G18KT 10SM CLR 33/06 A2997 RMK AO2,M
05U,2025-07-17 00:15,-116.0051,39.6042,1811.23,86.00,32.00,14.42,10.00,8.00,0.00,30.03,M,10.00,M,CLR,M,M,M,M,M,M,M,M,M,M,M,M,M,M,82.64,K05U 170015Z AUTO 01008KT 10SM CLR 30/M00 A3003 RMK A01,M
HTH,2025-07-17 00:15,-118.6315,38.5448,1282.89,98.60,28.40,8.43,320.00,13.00,0.00,29.85,M,10.00,M,CLR,M,M,M,M,M,M,M,M,M,M,M,M,M,M,92.26,KHTH 170015Z AUTO 32013KT 10SM CLR 37/M02 A2985 RMK A01,M
RNO,2025-07-17 00:18,-119.7711,39.4839,1341.00,96.00,42.00,15.67,300.00,14.00,0.00,29.91,M,10.00,25.00,FEW,FEW,M,M,9000.00,14000.00,M,M,M,M,M,M,M,M,M,91.74,KRNO 170018Z 30014G25KT 10SM FEW090 FEW140 36/06 A2991 RMK AO2 WSHFT 0003 CB DSNT S T03560056,M
INS,2025-07-17 00:19,-115.6733,36.5872,955.00,102.20,28.40,7.57,130.00,12.00,0.00,29.81,1003.10,10.00,M,CLR,M,M,M,M,M,M,M,M,M,M,M,M,M,M,95.30,KINS 170019Z AUTO 13012KT 10SM CLR 39/M02 A2981 RMK AO2 WSHFT 12 SLP031 $,M
TMT,2025-07-17 00:30,-117.1971,39.4643,1749.34,80.00,38.50,22.66,140.00,14.00,0.00,30.03,M,10.00,24.00,SCT,BKN,BKN,M,5000.00,9500.00,12000.00,M,M,M,M,M,M,M,M,78.77,KTMT 170030Z AUTO 14014G24KT 10SM SCT050 BKN095 BKN120 27/04 A3003 RMK AO2 T02660036,M
LSV,2025-07-17 00:34,-115.0343,36.2362,570.00,105.80,28.40,6.80,210.00,12.00,0.00,29.68,1001.70,10.00,M,CLR,M,M,M,M,M,M,M,M,M,M,M,M,M,M,98.34,KLSV 170034Z AUTO 21012KT 10SM CLR 41/M02 A2968 RMK AO2 WSHFT 23 SLP017 $,M
BVU,2025-07-17 00:35,-114.8611,35.9475,671.00,100.40,51.80,19.85,160.00,20.00,0.00,29.75,M,10.00,26.00,CLR,M,M,M,M,M,M,M,M,M,M,M,M,M,M,97.93,KBVU 170035Z AUTO 16020G26KT 10SM CLR 38/11 A2975 RMK AO2,M
BAM,2025-07-17 00:35,-116.8743,40.5990,1382.36,96.80,35.60,11.90,350.00,11.00,0.00,29.89,M,10.00,M,CLR,M,M,M,M,M,M,M,M,M,M,M,M,M,M,91.74,KBAM 170035Z AUTO 35011KT 10SM CLR 36/02 A2989 RMK AO1,M
CXP,2025-07-17 00:35,-119.7326,39.1923,1431.00,89.60,42.80,19.69,310.00,10.00,0.00,29.97,M,10.00,16.00,CLR,M,M,M,M,M,M,M,M,M,M,M,M,M,M,85.93,KCXP 170035Z AUTO 31010G16KT 10SM CLR 32/06 A2997 RMK AO2,M
RTS,2025-07-17 00:35,-119.8764,39.6682,1539.00,87.80,41.00,19.44,300.00,18.00,0.00,30.00,M,10.00,23.00,CLR,M,M,M,M,M,M,M,M,M,M,M,M,M,M,84.30,KRTS 170035Z AUTO 30018G23KT 10SM CLR 31/05 A3000 RMK AO2,M
05U,2025-07-17 00:35,-116.0051,39.6042,1811.23,86.00,32.00,14.42,0.00,0.00,0.00,30.03,M,10.00,10.00,CLR,M,M,M,M,M,M,M,M,M,M,M,M,M,M,82.64,K05U 170035Z AUTO 00000G10KT 10SM CLR 30/M00 A3003 RMK A01,M
MEV,2025-07-17 00:35,-119.7500,38.9963,1441.42,89.60,42.80,19.69,270.00,13.00,0.00,29.95,M,10.00,19.00,CLR,M,M,M,M,M,M,M,M,M,M,M,M,M,M,85.93,KMEV 170035Z AUTO 27013G19KT 10SM CLR 32/06 A2995 RMK AO2,M
HTH,2025-07-17 00:35,-118.6315,38.5448,1282.89,98.60,28.40,8.43,330.00,13.00,0.00,29.85,M,10.00,18.00,CLR,M,M,M,M,M,M,M,M,M,M,M,M,M,M,92.26,KHTH 170035Z AUTO 33013G18KT 10SM CLR 37/M02 A2985 RMK A01,M
TMT,2025-07-17 00:50,-117.1971,39.4643,1749.34,78.00,41.00,26.67,350.00,7.00,0.00,30.05,M,10.00,M,SCT,M,M,M,12000.00,M,M,M,M,M,M,M,M,M,M,78.00,KTMT 170050Z AUTO 35007KT 10SM SCT120 26/05 A3005 RMK AO2 T02560049,M
P68,2025-07-17 00:53,-116.0056,39.6014,1993.00,86.00,31.00,13.85,350.00,7.00,0.00,30.01,1007.40,M,M,M,M,M,M,M,M,M,M,M,M,M,M,M,M,M,82.64,KP68 170053Z AUTO 35007KT 30/M01 A3001 RMK AO1 SLP074 T03001006,M
DRA,2025-07-17 00:53,-116.0278,36.6206,1009.00,97.00,46.00,17.70,210.00,20.00,0.00,29.84,1004.80,10.00,27.00,CLR,M,M,M,M,M,M,M,M,M,M,M,31.00,220.00,2025-07-17 00:25,93.20,KDRA 170053Z AUTO 21020G27KT 10SM CLR 36/08 A2984 RMK AO2 PK WND 22031/0025 SLP048 T03610078,M
ELY,2025-07-17 00:53,-114.8453,39.2950,1909.00,88.00,24.00,9.74,50.00,4.00,0.00,30.02,1005.70,10.00,M,CLR,M,M,M,M,M,M,M,M,M,M,M,M,M,M,83.65,KELY 170053Z AUTO 05004KT 10SM CLR 31/M04 A3002 RMK AO2 SLP057 T03111044,M
VGT,2025-07-17 00:53,-115.1933,36.2111,667.00,103.00,39.00,11.30,230.00,15.00,0.00,29.74,1005.40,10.00,19.00,CLR,M,M,M,M,M,M,M,M,M,M,M,M,M,M,97.67,KVGT 170053Z 23015G19KT 10SM CLR 39/04 A2974 RMK AO2 SLP054 T03940039,M
LOL,2025-07-17 00:53,-118.5701,40.0684,1192.43,98.00,31.00,9.54,270.00,7.00,0.00,29.84,1005.20,10.00,M,CLR,M,M,M,M,M,M,M,M,M,M,M,M,M,M,92.07,KLOL 170053Z AUTO 27007KT 10SM CLR 37/M01 A2984 RMK AO2 SLP052 T03671006,M
BVU,2025-07-17 00:55,-114.8611,35.9475,671.00,100.40,51.80,19.85,150.00,20.00,0.00,29.74,M,10.00,27.00,CLR,M,M,M,M,M,M,M,M,M,M,M,M,M,M,97.93,KBVU 170055Z AUTO 15020G27KT 10SM CLR 38/11 A2974 RMK AO2,M
RNO,2025-07-17 00:55,-119.7711,39.4839,1341.00,93.00,43.00,17.85,290.00,16.00,0.00,29.91,1006.50,10.00,24.00,FEW,FEW,M,M,9000.00,14000.00,M,M,M,M,M,M,M,M,M,89.01,KRNO 170055Z 29016G24KT 10SM FEW090 FEW140 34/06 A2991 RMK AO2 WSHFT 0003 SLP065 CB DSNT S T03390061,M
BAM,2025-07-17 00:55,-116.8743,40.5990,1382.36,96.80,37.40,12.78,340.00,10.00,0.00,29.89,M,10.00,16.00,CLR,M,M,M,M,M,M,M,M,M,M,M,M,M,M,92.06,KBAM 170055Z AUTO 34010G16KT 10SM CLR 36/03 A2989 RMK AO1,M
CXP,2025-07-17 00:55,-119.7326,39.1923,1431.00,89.60,42.80,19.69,290.00,9.00,0.00,29.97,M,10.00,M,CLR,M,M,M,M,M,M,M,M,M,M,M,M,M,M,85.93,KCXP 170055Z AUTO 29009KT 10SM CLR 32/06 A2997 RMK AO2,M
RTS,2025-07-17 00:55,-119.8764,39.6682,1539.00,86.00,41.00,20.59,300.00,20.00,0.00,29.99,M,10.00,26.00,CLR,M,M,M,M,M,M,M,M,M,M,M,M,M,M,82.86,KRTS 170055Z AUTO 30020G26KT 10SM CLR 30/05 A2999 RMK AO2,M
05U,2025-07-17 00:55,-116.0051,39.6042,1811.23,86.00,32.00,14.42,0.00,0.00,0.00,30.03,M,10.00,M,CLR,M,M,M,M,M,M,M,M,M,M,M,M,M,M,82.64,K05U 170055Z AUTO 00000KT 10SM CLR 30/M00 A3003 RMK A01,M
MEV,2025-07-17 00:55,-119.7500,38.9963,1441.42,87.80,44.60,22.33,280.00,13.00,0.00,29.95,M,10.00,M,CLR,M,M,M,M,M,M,M,M,M,M,M,M,M,M,84.53,KMEV 170055Z AUTO 28013KT 10SM CLR 31/07 A2995 RMK AO2,M
HTH,2025-07-17 00:55,-118.6315,38.5448,1282.89,98.60,30.20,9.07,280.00,13.00,0.00,29.86,M,10.00,M,CLR,M,M,M,M,M,M,M,M,M,M,M,M,M,M,92.47,KHTH 170055Z AUTO 28013KT 10SM CLR 37/M01 A2986 RMK A01,M
INS,2025-07-17 00:55,-115.6733,36.5872,955.00,100.40,28.40,7.98,80.00,10.00,0.00,29.80,1003.00,10.00,M,CLR,M,M,M,M,M,M,M,M,M,M,M,M,M,M,93.78,KINS 170055Z AUTO 08010KT 10SM CLR 38/M02 A2980 RMK AO2 SLP030 T03801020 $,M
LSV,2025-07-17 00:55,-115.0343,36.2362,570.00,105.00,28.60,7.02,220.00,11.00,0.00,29.68,1001.70,10.00,M,CLR,M,M,M,M,M,M,M,M,M,M,M,M,M,M,97.69,KLSV 170055Z AUTO 22011KT 10SM CLR 41/M02 A2968 RMK AO2 SLP017 T04061019 $,M
EKO,2025-07-17 00:56,-115.7860,40.8242,1367.00,94.00,27.00,9.16,350.00,6.00,0.00,29.91,1006.90,10.00,M,CLR,M,M,M,M,M,M,M,M,M,M,M,M,M,M,88.37,KEKO 170056Z AUTO 35006KT 10SM CLR 34/M03 A2991 RMK AO2 SLP069 T03441028,M
WMC,2025-07-17 00:56,-117.8072,40.9019,1315.00,96.00,30.00,9.74,0.00,0.00,0.00,29.87,1005.70,10.00,M,FEW,M,M,M,11000.00,M,M,M,M,M,M,M,M,M,M,90.28,KWMC 170056Z AUTO 00000KT 10SM FEW110 36/M01 A2987 RMK AO2 SLP057 T03561011 TSNO,M
HND,2025-07-17 00:56,-115.1344,35.9729,742.79,101.00,44.00,14.54,250.00,13.00,0.00,29.80,1007.00,10.00,17.00,CLR,M,M,M,M,M,M,M,M,M,M,M,M,M,M,96.82,KHND 170056Z 25013G17KT 10SM CLR 38/07 A2980 RMK AO2 SLP070 T03830067 $,M
TPH,2025-07-17 00:56,-117.0904,38.0505,1654.00,92.00,27.00,9.74,170.00,13.00,0.00,29.97,1006.60,10.00,20.00,CLR,M,M,M,M,M,M,M,M,M,M,M,26.00,200.00,2025-07-17 00:04,86.85,KTPH 170056Z AUTO 17013G20KT 10SM CLR 33/M03 A2997 RMK AO2 PK WND 20026/0004 SLP066 T03331028 $,M
LAS,2025-07-17 00:56,-115.1634,36.0719,663.00,103.00,39.00,11.30,220.00,10.00,0.00,29.76,1004.60,10.00,M,FEW,FEW,M,M,15000.00,18000.00,M,M,M,M,M,M,M,M,M,97.67,KLAS 170056Z 22010KT 10SM FEW150 FEW180 39/04 A2976 RMK AO2 SLP046 T03940039,M
NFL,2025-07-17 00:57,-118.7010,39.4166,1199.00,98.00,34.00,10.77,310.00,5.00,0.00,29.83,1007.90,9.00,M,SCT,SCT,M,M,8000.00,20000.00,M,M,M,M,M,M,M,M,M,92.48,KNFL 170057Z 31005KT 9SM SCT080 SCT200 37/01 A2983 RMK AO2 SLP079 CB DSNT S-SW T03670011,M
RTS,2025-07-17 01:05,-119.8764,39.6682,1539.00,86.00,41.00,20.59,300.00,18.00,0.00,30.00,M,10.00,28.00,CLR,M,M,M,M,M,M,M,M,M,M,M,M,M,M,82.86,KRTS 170105Z AUTO 30018G28KT 10SM CLR 30/05 A3000 RMK AO2,M
MEV,2025-07-17 01:05,-119.7500,38.9963,1441.42,87.80,44.60,22.33,270.00,14.00,0.00,29.95,M,10.00,19.00,CLR,M,M,M,M,M,M,M,M,M,M,M,M,M,M,84.53,KMEV 170105Z AUTO 27014G19KT 10SM CLR 31/07 A2995 RMK AO2,M
TMT,2025-07-17 01:10,-117.1971,39.4643,1749.34,78.00,41.00,26.67,70.00,17.00,0.00,30.05,M,10.00,23.00,BKN,M,M,M,12000.00,M,M,M,M,M,M,M,M,M,M,78.00,KTMT 170110Z AUTO 07017G23KT 10SM BKN120 26/05 A3005 RMK AO2 T02550049,M
BVU,2025-07-17 01:15,-114.8611,35.9475,671.00,100.40,51.80,19.85,150.00,21.00,0.00,29.74,M,10.00,M,CLR,M,M,M,M,M,M,M,M,M,M,M,M,M,M,97.93,KBVU 170115Z AUTO 15021KT 10SM CLR 38/11 A2974 RMK AO2,M
BAM,2025-07-17 01:15,-116.8743,40.5990,1382.36,95.00,35.60,12.58,340.00,8.00,0.00,29.89,M,10.00,M,CLR,M,M,M,M,M,M,M,M,M,M,M,M,M,M,90.27,KBAM 170115Z AUTO 34008KT 10SM CLR 35/02 A2989 RMK AO1,M
CXP,2025-07-17 01:15,-119.7326,39.1923,1431.00,87.80,42.80,20.84,270.00,9.00,0.00,29.97,M,10.00,18.00,CLR,M,M,M,M,M,M,M,M,M,M,M,M,M,M,84.40,KCXP 170115Z AUTO 27009G18KT 10SM CLR 31/06 A2997 RMK AO2,M
05U,2025-07-17 01:15,-116.0051,39.6042,1811.23,86.00,32.00,14.42,350.00,13.00,0.00,30.04,M,10.00,M,FEW,M,M,M,5500.00,M,M,M,M,M,M,M,M,M,M,82.64,K05U 170115Z AUTO 35013KT 10SM FEW055 30/00 A3004 RMK A01,M
HTH,2025-07-17 01:15,-118.6315,38.5448,1282.89,95.00,32.00,10.89,270.00,22.00,0.00,29.87,M,10.00,27.00,CLR,M,M,M,M,M,M,M,M,M,M,M,M,M,M,89.72,KHTH 170115Z AUTO 27022G27KT 10SM CLR 35/00 A2987 RMK A01,M
INS,2025-07-17 01:18,-115.6733,36.5872,955.00,100.40,28.40,7.98,130.00,11.00,0.00,29.80,1002.90,10.00,M,CLR,M,M,M,M,M,M,M,M,M,M,M,M,M,M,93.78,KINS 170118Z AUTO 13011KT 10SM CLR 38/M02 A2980 RMK AO2 WSHFT 16 SLP029 $,M
INS,2025-07-17 01:19,-115.6733,36.5872,955.00,100.40,28.40,7.98,200.00,12.00,0.00,29.80,1002.90,10.00,17.00,CLR,M,M,M,M,M,M,M,M,M,M,M,M,M,M,93.78,KINS 170119Z AUTO 20012G17KT 10SM CLR 38/M02 A2980 RMK AO2 WSHFT 18 SLP029 $,M
RTS,2025-07-17 01:25,-119.8764,39.6682,1539.00,86.00,39.20,19.19,310.00,19.00,0.00,30.00,M,10.00,24.00,CLR,M,M,M,M,M,M,M,M,M,M,M,M,M,M,82.79,KRTS 170125Z AUTO 31019G24KT 10SM CLR 30/04 A3000 RMK AO2,M
MEV,2025-07-17 01:25,-119.7500,38.9963,1441.42,87.80,44.60,22.33,280.00,14.00,0.00,29.95,M,10.00,M,CLR,M,M,M,M,M,M,M,M,M,M,M,M,M,M,84.53,KMEV 170125Z AUTO 28014KT 10SM CLR 31/07 A2995 RMK AO2,M
TMT,2025-07-17 01:30,-117.1971,39.4643,1749.34,79.00,40.60,25.41,70.00,11.00,0.00,30.03,M,10.00,16.00,SCT,M,M,M,12000.00,M,M,M,M,M,M,M,M,M,M,79.00,KTMT 170130Z AUTO 07011G16KT 10SM SCT120 26/05 A3003 RMK AO2 T02610048,M
BVU,2025-07-17 01:35,-114.8611,35.9475,671.00,98.60,51.80,20.95,150.00,22.00,0.00,29.74,M,10.00,M,CLR,M,M,M,M,M,M,M,M,M,M,M,M,M,M,96.03,KBVU 170135Z AUTO 15022KT 10SM CLR 37/11 A2974 RMK AO2,M
BAM,2025-07-17 01:35,-116.8743,40.5990,1382.36,96.80,35.60,11.90,340.00,9.00,0.00,29.89,M,10.00,M,CLR,M,M,M,M,M,M,M,M,M,M,M,M,M,M,91.74,KBAM 170135Z AUTO 34009KT 10SM CLR 36/02 A2989 RMK AO1,M
05U,2025-07-17 01:35,-116.0051,39.6042,1811.23,86.00,32.00,14.42,340.00,13.00,0.00,30.04,M,10.00,22.00,CLR,M,M,M,M,M,M,M,M,M,M,M,M,M,M,82.64,K05U 170135Z AUTO 34013G22KT 310V010 10SM CLR 30/M00 A3004 RMK A01,M
HTH,2025-07-17 01:35,-118.6315,38.5448,1282.89,95.00,33.80,11.70,260.00,15.00,0.00,29.88,M,10.00,23.00,CLR,M,M,M,M,M,M,M,M,M,M,M,M,M,M,89.98,KHTH 170135Z AUTO 26015G23KT 10SM CLR 35/01 A2988 RMK A01,M
CXP,2025-07-17 01:35,-119.7326,39.1923,1431.00,87.80,42.80,20.84,280.00,8.00,0.00,29.97,M,10.00,14.00,CLR,M,M,M,M,M,M,M,M,M,M,M,M,M,M,84.40,KCXP 170135Z AUTO 28008G14KT 10SM CLR 31/06 A2997 RMK AO2,M
LSV,2025-07-17 01:40,-115.0343,36.2362,570.00,104.00,32.00,8.30,250.00,13.00,0.00,29.68,1001.70,10.00,18.00,CLR,M,M,M,M,M,M,M,M,M,M,M,M,M,M,97.30,KLSV 170140Z AUTO 25013G18KT 10SM CLR 40/M00 A2968 RMK AO2 WSHFT 34 SLP017 $,M
TMT,2025-07-17 01:50,-117.1971,39.4643,1749.34,80.60,40.60,24.12,80.00,14.00,0.00,30.03,M,10.00,M,CLR,M,M,M,M,M,M,M,M,M,M,M,M,M,M,79.18,KTMT 170150Z AUTO 08014KT 10SM CLR 27/05 A3003 RMK AO2 T02700048,M
P68,2025-07-17 01:53,-116.0056,39.6014,1993.00,85.00,33.00,15.50,350.00,14.00,0.00,30.02,1007.30,M,23.00,M,M,M,M,M,M,M,M,M,M,M,M,M,M,M,81.89,KP68 170153Z AUTO 35014G23KT 29/01 A3002 RMK AO1 SLP073 T02940006,M
DRA,2025-07-17 01:53,-116.0278,36.6206,1009.00,96.00,45.00,17.57,210.00,16.00,0.00,29.84,1004.60,10.00,23.00,CLR,M,M,M,M,M,M,M,M,M,M,M,31.00,220.00,2025-07-17 01:11,92.08,KDRA 170153Z AUTO 21016G23KT 10SM CLR 36/07 A2984 RMK AO2 PK WND 22031/0111 SLP046 T03560072,M
ELY,2025-07-17 01:53,-114.8453,39.2950,1909.00,87.00,25.00,10.49,60.00,6.00,0.00,30.03,1005.70,10.00,M,CLR,M,M,M,M,M,M,M,M,M,M,M,M,M,M,82.99,KELY 170153Z AUTO 06006KT 10SM CLR 31/M04 A3003 RMK AO2 SLP057 T03061039,M
VGT,2025-07-17 01:53,-115.1933,36.2111,667.00,100.00,40.00,12.84,220.00,12.00,0.00,29.74,1005.60,10.00,M,CLR,M,M,M,M,M,M,M,M,M,M,M,M,M,M,95.28,KVGT 170153Z 22012KT 10SM CLR 38/04 A2974 RMK AO2 SLP056 T03780044,M
LOL,2025-07-17 01:53,-118.5701,40.0684,1192.43,96.00,30.00,9.74,320.00,5.00,0.00,29.84,1005.00,10.00,M,CLR,M,M,M,M,M,M,M,M,M,M,M,M,M,M,90.28,KLOL 170153Z AUTO 32005KT 10SM CLR 36/M01 A2984 RMK AO2 SLP050 T03561011,M
BVU,2025-07-17 01:55,-114.8611,35.9475,671.00,98.60,51.80,20.95,150.00,21.00,0.00,29.74,M,10.00,27.00,CLR,M,M,M,M,M,M,M,M,M,M,M,M,M,M,96.03,KBVU 170155Z AUTO 15021G27KT 10SM CLR 37/11 A2974 RMK AO2,M
RNO,2025-07-17 01:55,-119.7711,39.4839,1341.00,89.00,43.00,20.22,290.00,17.00,0.00,29.93,1007.50,10.00,27.00,FEW,M,M,M,9000.00,M,M,M,M,M,M,M,27.00,310.00,2025-07-17 01:22,85.43,KRNO 170155Z 29017G27KT 10SM FEW090 32/06 A2993 RMK AO2 PK WND 31027/0122 SLP075 CB DSNT SE T03170061,M
BAM,2025-07-17 01:55,-116.8743,40.5990,1382.36,93.20,37.40,14.27,330.00,8.00,0.00,29.89,M,10.00,M,CLR,M,M,M,M,M,M,M,M,M,M,M,M,M,M,88.83,KBAM 170155Z AUTO 33008KT 10SM CLR 34/03 A2989 RMK AO1,M
CXP,2025-07-17 01:55,-119.7326,39.1923,1431.00,87.80,42.80,20.84,250.00,7.00,0.00,29.97,M,10.00,13.00,CLR,M,M,M,M,M,M,M,M,M,M,M,M,M,M,84.40,KCXP 170155Z AUTO 25007G13KT 10SM CLR 31/06 A2997 RMK AO2,M
RTS,2025-07-17 01:55,-119.8764,39.6682,1539.00,84.20,37.40,18.94,310.00,20.00,0.00,30.01,M,10.00,M,CLR,M,M,M,M,M,M,M,M,M,M,M,M,M,M,81.38,KRTS 170155Z AUTO 31020KT 10SM CLR 29/03 A3001 RMK AO2,M
05U,2025-07-17 01:55,-116.0051,39.6042,1811.23,84.20,33.80,16.42,340.00,11.00,0.00,30.05,M,10.00,18.00,CLR,M,M,M,M,M,M,M,M,M,M,M,M,M,M,81.30,K05U 170155Z AUTO 34011G18KT 10SM CLR 29/01 A3005 RMK A01,M
MEV,2025-07-17 01:55,-119.7500,38.9963,1441.42,86.00,44.60,23.64,270.00,10.00,0.00,29.96,M,10.00,17.00,CLR,M,M,M,M,M,M,M,M,M,M,M,M,M,M,83.08,KMEV 170155Z AUTO 27010G17KT 10SM CLR 30/07 A2996 RMK AO2,M
HTH,2025-07-17 01:55,-118.6315,38.5448,1282.89,93.20,30.20,10.70,330.00,12.00,0.00,29.88,M,10.00,30.00,CLR,M,M,M,M,M,M,M,M,M,M,M,M,M,M,88.10,KHTH 170155Z AUTO 33012G30KT 10SM CLR 34/M01 A2988 RMK A01,M
INS,2025-07-17 01:55,-115.6733,36.5872,955.00,99.30,27.70,8.02,120.00,10.00,0.00,29.81,1003.10,10.00,M,CLR,M,M,M,M,M,M,M,M,M,M,M,M,M,M,92.77,KINS 170155Z AUTO 12010KT 10SM CLR 37/M02 A2981 RMK AO2 SLP031 T03741024 $,M
LSV,2025-07-17 01:55,-115.0343,36.2362,570.00,103.00,33.30,9.01,240.00,12.00,0.00,29.68,1001.70,10.00,M,CLR,M,M,M,M,M,M,M,M,M,M,M,M,M,M,96.63,KLSV 170155Z AUTO 24012KT 10SM CLR 40/01 A2968 RMK AO2 SLP017 T03950007 $,M
EKO,2025-07-17 01:56,-115.7860,40.8242,1367.00,92.00,29.00,10.57,280.00,8.00,0.00,29.92,1007.00,10.00,M,CLR,M,M,M,M,M,M,M,M,M,M,M,M,M,M,87.05,KEKO 170156Z AUTO 28008KT 10SM CLR 33/M02 A2992 RMK AO2 SLP070 T03331017,M
WMC,2025-07-17 01:56,-117.8072,40.9019,1315.00,95.00,30.00,10.04,310.00,9.00,0.00,29.87,1005.50,10.00,M,CLR,M,M,M,M,M,M,M,M,M,M,M,M,M,M,89.46,KWMC 170156Z AUTO 31009KT 10SM CLR 35/M01 A2987 RMK AO2 SLP055 T03501011 TSNO,M
HND,2025-07-17 01:56,-115.1344,35.9729,742.79,99.00,45.00,16.04,250.00,11.00,0.00,29.80,1007.20,10.00,M,CLR,M,M,M,M,M,M,M,M,M,M,M,M,M,M,95.02,KHND 170156Z 25011KT 10SM CLR 37/07 A2980 RMK AO2 SLP072 T03720072 $,M
TPH,2025-07-17 01:56,-117.0904,38.0505,1654.00,90.00,29.00,11.25,170.00,13.00,0.00,29.98,1006.50,10.00,20.00,CLR,M,M,M,M,M,M,M,M,M,M,M,M,M,M,85.53,KTPH 170156Z AUTO 17013G20KT 10SM CLR 32/M02 A2998 RMK AO2 SLP065 T03221017 $,M
LAS,2025-07-17 01:56,-115.1634,36.0719,663.00,101.00,41.00,12.96,270.00,11.00,0.00,29.77,1004.70,10.00,M,FEW,FEW,M,M,15000.00,18000.00,M,M,M,M,M,M,M,M,M,96.37,KLAS 170156Z 27011KT 10SM FEW150 FEW180 38/05 A2977 RMK AO2 SLP047 T03830050,M
NFL,2025-07-17 01:57,-118.7010,39.4166,1199.00,98.00,34.00,10.77,330.00,6.00,0.00,29.84,1008.10,9.00,M,SCT,SCT,M,M,8000.00,20000.00,M,M,M,M,M,M,M,M,M,92.48,KNFL 170157Z 33006KT 9SM SCT080 SCT200 37/01 A2984 RMK AO2 SLP081 CB DSNT SW T03670011,M
TMT,2025-07-17 02:10,-117.1971,39.4643,1749.34,81.70,40.00,22.73,110.00,12.00,0.00,30.03,M,10.00,20.00,CLR,M,M,M,M,M,M,M,M,M,M,M,M,M,M,79.80,KTMT 170210Z AUTO 11012G20KT 10SM CLR 28/05 A3003 RMK AO2 T02760045,M
BVU,2025-07-17 02:15,-114.8611,35.9475,671.00,96.80,51.80,22.13,150.00,19.00,0.00,29.75,M,10.00,25.00,CLR,M,M,M,M,M,M,M,M,M,M,M,M,M,M,94.14,KBVU 170215Z AUTO 15019G25KT 10SM CLR 36/11 A2975 RMK AO2,M
BAM,2025-07-17 02:15,-116.8743,40.5990,1382.36,91.40,37.40,15.09,330.00,8.00,0.00,29.90,M,10.00,M,CLR,M,M,M,M,M,M,M,M,M,M,M,M,M,M,87.23,KBAM 170215Z AUTO 33008KT 10SM CLR 33/03 A2990 RMK AO1,M
CXP,2025-07-17 02:15,-119.7326,39.1923,1431.00,86.00,44.60,23.64,240.00,9.00,0.00,29.98,M,10.00,M,CLR,M,M,M,M,M,M,M,M,M,M,M,M,M,M,83.08,KCXP 170215Z AUTO 24009KT 10SM CLR 30/07 A2998 RMK AO2,M
RTS,2025-07-17 02:15,-119.8764,39.6682,1539.00,82.40,37.40,20.08,320.00,13.00,0.00,30.01,M,10.00,24.00,CLR,M,M,M,M,M,M,M,M,M,M,M,M,M,M,80.14,KRTS 170215Z AUTO 32013G24KT 10SM CLR 28/03 A3001 RMK AO2,M
05U,2025-07-17 02:15,-116.0051,39.6042,1811.23,82.40,33.80,17.40,350.00,6.00,0.00,30.06,M,10.00,M,CLR,M,M,M,M,M,M,M,M,M,M,M,M,M,M,80.04,K05U 170215Z AUTO 35006KT 10SM CLR 28/01 A3006 RMK A01,M
MEV,2025-07-17 02:15,-119.7500,38.9963,1441.42,84.20,44.60,25.04,280.00,12.00,0.00,29.97,M,10.00,M,CLR,M,M,M,M,M,M,M,M,M,M,M,M,M,M,81.73,KMEV 170215Z AUTO 28012KT 10SM CLR 29/07 A2997 RMK AO2,M
HTH,2025-07-17 02:15,-118.6315,38.5448,1282.89,91.40,30.20,11.31,290.00,14.00,0.00,29.89,M,10.00,22.00,FEW,M,M,M,11000.00,M,M,M,M,M,M,M,M,M,M,86.71,KHTH 170215Z AUTO 29014G22KT 10SM FEW110 33/M01 A2989 RMK A01,M
RTS,2025-07-17 02:25,-119.8764,39.6682,1539.00,82.40,37.40,20.08,300.00,16.00,0.00,30.02,M,10.00,24.00,CLR,M,M,M,M,M,M,M,M,M,M,M,M,M,M,80.14,KRTS 170225Z AUTO 30016G24KT 10SM CLR 28/03 A3002 RMK AO2,M
MEV,2025-07-17 02:25,-119.7500,38.9963,1441.42,82.40,44.60,26.53,280.00,10.00,0.00,29.98,M,10.00,15.00,CLR,M,M,M,M,M,M,M,M,M,M,M,M,M,M,80.51,KMEV 170225Z AUTO 28010G15KT 10SM CLR 28/07 A2998 RMK AO2,M
05U,2025-07-17 02:30,-116.0051,39.6042,1811.23,80.60,33.80,18.45,330.00,10.00,0.00,30.06,M,10.00,16.00,CLR,M,M,M,M,M,M,M,M,M,M,M,M,M,M,78.88,K05U 170230Z AUTO 33010G16KT 10SM CLR 27/01 A3006 RMK A01,M
TMT,2025-07-17 02:30,-117.1971,39.4643,1749.34,80.20,40.00,23.87,140.00,10.00,0.00,30.02,M,10.00,17.00,CLR,M,M,M,M,M,M,M,M,M,M,M,M,M,M,78.92,KTMT 170230Z AUTO 14010G17KT 10SM CLR 27/04 A3002 RMK AO2 T02680044,M
BVU,2025-07-17 02:35,-114.8611,35.9475,671.00,96.80,51.80,22.13,160.00,20.00,0.00,29.75,M,10.00,M,CLR,M,M,M,M,M,M,M,M,M,M,M,M,M,M,94.14,KBVU 170235Z AUTO 16020KT 10SM CLR 36/11 A2975 RMK AO2,M
BAM,2025-07-17 02:35,-116.8743,40.5990,1382.36,89.60,41.00,18.37,340.00,6.00,0.00,29.90,M,10.00,M,CLR,M,M,M,M,M,M,M,M,M,M,M,M,M,M,85.82,KBAM 170235Z AUTO 34006KT 10SM CLR 32/05 A2990 RMK AO1,M
CXP,2025-07-17 02:35,-119.7326,39.1923,1431.00,84.20,42.80,23.37,260.00,9.00,0.00,29.98,M,10.00,15.00,CLR,M,M,M,M,M,M,M,M,M,M,M,M,M,M,81.61,KCXP 170235Z AUTO 26009G15KT 10SM CLR 29/06 A2998 RMK AO2,M
HTH,2025-07-17 02:35,-118.6315,38.5448,1282.89,91.40,30.20,11.31,260.00,8.00,0.00,29.89,M,10.00,21.00,FEW,FEW,M,M,10000.00,12000.00,M,M,M,M,M,M,M,M,M,86.71,KHTH 170235Z AUTO 26008G21KT 210V310 10SM FEW100 FEW120 33/M01 A2989 RMK A01,M
RTS,2025-07-17 02:45,-119.8764,39.6682,1539.00,80.60,35.60,19.82,290.00,12.00,0.00,30.03,M,10.00,21.00,CLR,M,M,M,M,M,M,M,M,M,M,M,M,M,M,78.95,KRTS 170245Z AUTO 29012G21KT 10SM CLR 27/02 A3003 RMK AO2,M
MEV,2025-07-17 02:45,-119.7500,38.9963,1441.42,82.40,46.40,28.41,280.00,5.00,0.00,29.98,M,10.00,13.00,CLR,M,M,M,M,M,M,M,M,M,M,M,M,M,M,80.64,KMEV 170245Z AUTO 28005G13KT 10SM CLR 28/08 A2998 RMK AO2,M
TMT,2025-07-17 02:50,-117.1971,39.4643,1749.34,75.70,45.30,33.94,170.00,7.00,0.00,30.03,M,10.00,M,CLR,M,M,M,M,M,M,M,M,M,M,M,M,M,M,75.70,KTMT 170250Z AUTO 17007KT 10SM CLR 24/07 A3003 RMK AO2 T02430074,M
CXP,2025-07-17 02:50,-119.7326,39.1923,1431.00,84.20,42.80,23.37,260.00,8.00,0.00,29.99,M,10.00,M,CLR,M,M,M,M,M,M,M,M,M,M,M,M,M,M,81.61,KCXP 170250Z AUTO 26008KT 10SM CLR 29/06 A2999 RMK AO2,M
05U,2025-07-17 02:50,-116.0051,39.6042,1811.23,77.00,35.60,22.31,50.00,5.00,0.00,30.07,M,10.00,M,CLR,M,M,M,M,M,M,M,M,M,M,M,M,M,M,77.00,K05U 170250Z AUTO 05005KT 10SM CLR 25/02 A3007 RMK A01,M
P68,2025-07-17 02:53,-116.0056,39.6014,1993.00,77.00,36.00,22.66,80.00,6.00,0.00,30.04,1008.10,M,M,M,M,M,M,M,M,M,M,M,M,M,M,M,M,M,77.00,KP68 170253Z AUTO 08006KT 25/02 A3004 RMK AO1 SLP081 T02500022 53011,M
DRA,2025-07-17 02:53,-116.0278,36.6206,1009.00,93.00,44.00,18.55,200.00,16.00,0.00,29.85,1004.80,10.00,22.00,CLR,M,M,M,M,M,M,M,M,M,M,M,26.00,220.00,2025-07-17 01:57,89.10,KDRA 170253Z AUTO 20016G22KT 10SM CLR 34/07 A2985 RMK AO2 PK WND 22026/0157 SLP048 T03390067 55003,M
ELY,2025-07-17 02:53,-114.8453,39.2950,1909.00,79.00,24.00,13.02,260.00,4.00,0.00,30.05,1005.40,10.00,M,CLR,M,M,M,M,M,M,M,M,M,M,M,M,M,M,79.00,KELY 170253Z AUTO 26004KT 10SM CLR 26/M04 A3005 RMK AO2 SLP054 T02611044 53003,M
VGT,2025-07-17 02:53,-115.1933,36.2111,667.00,99.00,41.00,13.76,220.00,11.00,0.00,29.75,1005.80,10.00,M,CLR,M,M,M,M,M,M,M,M,M,M,M,M,M,M,94.48,KVGT 170253Z 22011KT 10SM CLR 37/05 A2975 RMK AO2 SLP058 T03720050 55003,M
LOL,2025-07-17 02:53,-118.5701,40.0684,1192.43,93.00,30.00,10.68,280.00,8.00,0.00,29.85,1005.40,10.00,M,CLR,M,M,M,M,M,M,M,M,M,M,M,M,M,M,87.92,KLOL 170253Z AUTO 28008KT 10SM CLR 34/M01 A2985 RMK AO2 SLP054 T03391011 55001,M
BVU,2025-07-17 02:55,-114.8611,35.9475,671.00,95.00,51.80,23.38,160.00,17.00,0.00,29.76,M,10.00,25.00,CLR,M,M,M,M,M,M,M,M,M,M,M,M,M,M,92.29,KBVU 170255Z AUTO 16017G25KT 10SM CLR 35/11 A2976 RMK AO2,M
RNO,2025-07-17 02:55,-119.7711,39.4839,1341.00,84.00,40.00,21.11,280.00,17.00,0.00,29.95,1008.20,10.00,29.00,FEW,FEW,M,M,9000.00,20000.00,M,M,M,M,M,M,29.00,280.00,2025-07-17 02:50,81.33,KRNO 170255Z 28017G29KT 10SM FEW090 FEW200 29/04 A2995 RMK AO2 PK WND 28029/0250 SLP082 T02890044 53010,M
BAM,2025-07-17 02:55,-116.8743,40.5990,1382.36,89.60,41.00,18.37,330.00,7.00,0.00,29.90,M,10.00,M,CLR,M,M,M,M,M,M,M,M,M,M,M,M,M,M,85.82,KBAM 170255Z AUTO 33007KT 10SM CLR 32/05 A2990 RMK AO1,M
INS,2025-07-17 02:55,-115.6733,36.5872,955.00,96.00,33.00,10.99,140.00,11.00,0.00,29.82,1003.50,10.00,M,CLR,M,M,M,M,M,M,M,M,M,M,M,M,M,M,90.68,KINS 170255Z AUTO 14011KT 10SM CLR 36/01 A2982 RMK AO2 SLP035 T03560006 55000 $,M
LSV,2025-07-17 02:55,-115.0343,36.2362,570.00,100.00,36.00,10.98,220.00,6.00,0.00,29.70,1002.40,10.00,M,CLR,M,M,M,M,M,M,M,M,M,M,M,M,M,M,94.50,KLSV 170255Z AUTO 22006KT 10SM CLR 38/02 A2970 RMK AO2 SLP024 T03780023 55001 $,M
HTH,2025-07-17 02:55,-118.6315,38.5448,1282.89,91.40,32.00,12.17,360.00,17.00,0.00,29.89,M,10.00,29.00,CLR,M,M,M,M,M,M,M,M,M,M,M,M,M,M,86.92,KHTH 170255Z AUTO 36017G29KT 10SM CLR 33/00 A2989 RMK A01,M
EKO,2025-07-17 02:56,-115.7860,40.8242,1367.00,84.00,38.00,19.52,170.00,17.00,0.00,29.95,1008.10,10.00,26.00,CLR,M,M,M,M,M,M,M,M,M,M,M,30.00,170.00,2025-07-17 02:44,81.26,KEKO 170256Z AUTO 17017G26KT 10SM CLR 29/03 A2995 RMK AO2 PK WND 17030/0244 SLP081 T02890033 53006,M
WMC,2025-07-17 02:56,-117.8072,40.9019,1315.00,90.00,31.00,12.21,330.00,6.00,0.00,29.88,1005.80,10.00,M,CLR,M,M,M,M,M,M,M,M,M,M,M,M,M,M,85.74,KWMC 170256Z AUTO 33006KT 10SM CLR 32/M01 A2988 RMK AO2 SLP058 T03221006 55001 TSNO,M
HND,2025-07-17 02:56,-115.1344,35.9729,742.79,97.00,47.00,18.39,230.00,8.00,0.00,29.81,1007.50,10.00,M,CLR,M,M,M,M,M,M,M,M,M,M,M,M,M,M,93.36,KHND 170256Z 23008KT 10SM CLR 36/08 A2981 RMK AO2 SLP075 T03610083 55001 $,M
TPH,2025-07-17 02:56,-117.0904,38.0505,1654.00,85.00,30.00,13.73,190.00,15.00,0.00,29.99,1006.20,10.00,M,CLR,M,M,M,M,M,M,M,M,M,M,M,M,M,M,81.86,KTPH 170256Z AUTO 19015KT 10SM CLR 29/M01 A2999 RMK AO2 SLP062 T02941011 53001 $,M
LAS,2025-07-17 02:56,-115.1634,36.0719,663.00,99.00,44.00,15.44,230.00,12.00,0.00,29.77,1004.80,10.00,M,FEW,M,M,M,18000.00,M,M,M,M,M,M,M,M,M,M,94.87,KLAS 170256Z 23012KT 10SM FEW180 37/07 A2977 RMK AO2 SLP048 T03720067 55003,M
NFL,2025-07-17 02:57,-118.7010,39.4166,1199.00,93.00,37.00,14.14,340.00,5.00,0.00,29.85,1008.50,9.00,M,SCT,SCT,SCT,M,8000.00,12000.00,20000.00,M,M,M,M,M,M,M,M,88.63,KNFL 170257Z 34005KT 9SM SCT080 SCT120 SCT200 34/03 A2985 RMK AO2 SLP085 CB DSNT SW T03390028 53001,M
RTS,2025-07-17 03:05,-119.8764,39.6682,1539.00,78.80,35.60,21.02,300.00,12.00,0.00,30.03,M,10.00,20.00,CLR,M,M,M,M,M,M,M,M,M,M,M,M,M,M,78.80,KRTS 170305Z AUTO 30012G20KT 10SM CLR 26/02 A3003 RMK AO2,M
MEV,2025-07-17 03:05,-119.7500,38.9963,1441.42,80.60,44.60,28.13,290.00,10.00,0.00,29.97,M,10.00,17.00,CLR,M,M,M,M,M,M,M,M,M,M,M,M,M,M,79.43,KMEV 170305Z AUTO 29010G17KT 10SM CLR 27/07 A2997 RMK AO2,M
TMT,2025-07-17 03:10,-117.1971,39.4643,1749.34,73.40,44.40,35.42,150.00,7.00,0.00,30.03,M,10.00,M,CLR,M,M,M,M,M,M,M,M,M,M,M,M,M,M,73.40,KTMT 170310Z AUTO 15007KT 10SM CLR 23/07 A3003 RMK AO2 T02300069,M
BVU,2025-07-17 03:15,-114.8611,35.9475,671.00,95.00,51.80,23.38,150.00,17.00,0.00,29.77,M,10.00,M,CLR,M,M,M,M,M,M,M,M,M,M,M,M,M,M,92.29,KBVU 170315Z AUTO 15017KT 10SM CLR 35/11 A2977 RMK AO2,M
BAM,2025-07-17 03:15,-116.8743,40.5990,1382.36,87.80,37.40,16.89,330.00,8.00,0.00,29.91,M,10.00,M,CLR,M,M,M,M,M,M,M,M,M,M,M,M,M,M,84.17,KBAM 170315Z AUTO 33008KT 10SM CLR 31/03 A2991 RMK AO1,M
CXP,2025-07-17 03:15,-119.7326,39.1923,1431.00,82.40,42.80,24.77,260.00,5.00,0.00,29.99,M,10.00,11.00,CLR,M,M,M,M,M,M,M,M,M,M,M,M,M,M,80.39,KCXP 170315Z AUTO 26005G11KT 10SM CLR 28/06 A2999 RMK AO2,M
05U,2025-07-17 03:15,-116.0051,39.6042,1811.23,75.20,37.40,25.43,0.00,0.00,0.00,30.07,M,10.00,M,CLR,M,M,M,M,M,M,M,M,M,M,M,M,M,M,75.20,K05U 170315Z AUTO 00000KT 10SM CLR 24/03 A3007 RMK A01,M
HTH,2025-07-17 03:15,-118.6315,38.5448,1282.89,87.80,33.80,14.64,320.00,15.00,0.00,29.90,M,10.00,24.00,CLR,M,M,M,M,M,M,M,M,M,M,M,M,M,M,84.10,KHTH 170315Z AUTO 32015G24KT 10SM CLR 31/01 A2990 RMK A01,M
RTS,2025-07-17 03:25,-119.8764,39.6682,1539.00,77.00,35.60,22.31,300.00,15.00,0.00,30.04,M,10.00,M,CLR,M,M,M,M,M,M,M,M,M,M,M,M,M,M,77.00,KRTS 170325Z AUTO 30015KT 10SM CLR 25/02 A3004 RMK AO2,M
MEV,2025-07-17 03:25,-119.7500,38.9963,1441.42,78.80,44.60,29.83,290.00,10.00,0.00,29.97,M,10.00,M,CLR,M,M,M,M,M,M,M,M,M,M,M,M,M,M,78.80,KMEV 170325Z AUTO 29010KT 10SM CLR 26/07 A2997 RMK AO2,M
TMT,2025-07-17 03:30,-117.1971,39.4643,1749.34,73.20,41.50,31.90,160.00,4.00,0.00,30.03,M,10.00,M,CLR,M,M,M,M,M,M,M,M,M,M,M,M,M,M,73.20,KTMT 170330Z AUTO 16004KT 10SM CLR 23/05 A3003 RMK AO2 T02290053,M
BVU,2025-07-17 03:35,-114.8611,35.9475,671.00,95.00,51.80,23.38,160.00,15.00,0.00,29.78,M,10.00,24.00,CLR,M,M,M,M,M,M,M,M,M,M,M,M,M,M,92.29,KBVU 170335Z AUTO 16015G24KT 10SM CLR 35/11 A2978 RMK AO2,M
BAM,2025-07-17 03:35,-116.8743,40.5990,1382.36,86.00,39.20,19.19,330.00,10.00,0.00,29.91,M,10.00,M,CLR,M,M,M,M,M,M,M,M,M,M,M,M,M,M,82.79,KBAM 170335Z AUTO 33010KT 10SM CLR 30/04 A2991 RMK AO1,M
CXP,2025-07-17 03:35,-119.7326,39.1923,1431.00,80.60,42.80,26.26,M,4.00,0.00,29.99,M,10.00,M,CLR,M,M,M,M,M,M,M,M,M,M,M,M,M,M,79.31,KCXP 170335Z AUTO VRB04KT 10SM CLR 27/06 A2999 RMK AO2,M
05U,2025-07-17 03:35,-116.0051,39.6042,1811.23,69.80,35.60,28.41,0.00,0.00,0.00,30.07,M,10.00,M,CLR,M,M,M,M,M,M,M,M,M,M,M,M,M,M,69.80,K05U 170335Z AUTO 00000KT 10SM CLR 21/02 A3007 RMK A01,M
HTH,2025-07-17 03:35,-118.6315,38.5448,1282.89,87.80,33.80,14.64,220.00,10.00,0.00,29.90,M,10.00,M,CLR,M,M,M,M,M,M,M,M,M,M,M,M,M,M,84.10,KHTH 170335Z AUTO 22010KT 10SM CLR 31/01 A2990 RMK A01,M
TMT,2025-07-17 03:50,-117.1971,39.4643,1749.34,75.20,39.00,27.07,0.00,0.00,0.00,30.03,M,10.00,M,CLR,M,M,M,M,M,M,M,M,M,M,M,M,M,M,75.20,KTMT 170350Z AUTO 00000KT 10SM CLR 24/04 A3003 RMK AO2 T02400038,M
P68,2025-07-17 03:53,-116.0056,39.6014,1993.00,70.00,36.00,28.67,210.00,4.00,0.00,30.05,1008.30,M,M,M,M,M,M,M,M,M,M,M,M,M,M,M,M,M,70.00,KP68 170353Z AUTO 21004KT 21/02 A3005 RMK AO1 SLP083 T02110022,M
DRA,2025-07-17 03:53,-116.0278,36.6206,1009.00,91.00,43.00,19.00,190.00,13.00,0.00,29.86,1005.10,10.00,24.00,CLR,M,M,M,M,M,M,M,M,M,M,M,M,M,M,87.18,KDRA 170353Z AUTO 19013G24KT 10SM CLR 33/06 A2986 RMK AO2 SLP051 T03280061,M
ELY,2025-07-17 03:53,-114.8453,39.2950,1909.00,76.00,22.00,13.21,180.00,7.00,0.00,30.07,1006.20,10.00,M,CLR,M,M,M,M,M,M,M,M,M,M,M,M,M,M,76.00,KELY 170353Z AUTO 18007KT 10SM CLR 24/M06 A3007 RMK AO2 SLP062 T02441056,M
VGT,2025-07-17 03:53,-115.1933,36.2111,667.00,97.00,43.00,15.79,200.00,8.00,0.00,29.76,1006.30,10.00,M,CLR,M,M,M,M,M,M,M,M,M,M,M,M,M,M,92.80,KVGT 170353Z 20008KT 10SM CLR 36/06 A2976 RMK AO2 SLP063 T03610061,M
LOL,2025-07-17 03:53,-118.5701,40.0684,1192.43,82.00,29.00,14.52,310.00,6.00,0.00,29.86,1006.10,10.00,M,CLR,M,M,M,M,M,M,M,M,M,M,M,M,M,M,79.67,KLOL 170353Z AUTO 31006KT 10SM CLR 28/M02 A2986 RMK AO2 SLP061 T02781017,M
BVU,2025-07-17 03:55,-114.8611,35.9475,671.00,93.20,51.80,24.71,160.00,15.00,0.00,29.78,M,10.00,M,CLR,M,M,M,M,M,M,M,M,M,M,M,M,M,M,90.47,KBVU 170355Z AUTO 16015KT 10SM CLR 34/11 A2978 RMK AO2,M
RNO,2025-07-17 03:55,-119.7711,39.4839,1341.00,81.00,40.00,23.26,270.00,17.00,0.00,29.96,1008.50,10.00,30.00,FEW,M,M,M,9000.00,M,M,M,M,M,M,M,32.00,280.00,2025-07-17 03:32,79.38,KRNO 170355Z 27017G30KT 10SM FEW090 27/04 A2996 RMK AO2 PK WND 28032/0332 SLP085 T02720044,M
BAM,2025-07-17 03:55,-116.8743,40.5990,1382.36,82.40,39.20,21.54,340.00,7.00,0.00,29.92,M,10.00,M,CLR,M,M,M,M,M,M,M,M,M,M,M,M,M,M,80.21,KBAM 170355Z AUTO 34007KT 10SM CLR 28/04 A2992 RMK AO1,M
CXP,2025-07-17 03:55,-119.7326,39.1923,1431.00,78.80,41.00,25.98,310.00,6.00,0.00,29.98,M,10.00,M,CLR,M,M,M,M,M,M,M,M,M,M,M,M,M,M,78.80,KCXP 170355Z AUTO 31006KT 10SM CLR 26/05 A2998 RMK AO2,M
RTS,2025-07-17 03:55,-119.8764,39.6682,1539.00,75.20,37.40,25.43,300.00,16.00,0.00,30.04,M,10.00,M,CLR,M,M,M,M,M,M,M,M,M,M,M,M,M,M,75.20,KRTS 170355Z AUTO 30016KT 10SM CLR 24/03 A3004 RMK AO2,M
05U,2025-07-17 03:55,-116.0051,39.6042,1811.23,68.00,35.60,30.21,0.00,0.00,0.00,30.07,M,10.00,M,CLR,M,M,M,M,M,M,M,M,M,M,M,M,M,M,68.00,K05U 170355Z AUTO 00000KT 10SM CLR 20/02 A3007 RMK A01,M
MEV,2025-07-17 03:55,-119.7500,38.9963,1441.42,77.00,44.60,31.65,280.00,9.00,0.00,29.97,M,10.00,15.00,CLR,M,M,M,M,M,M,M,M,M,M,M,M,M,M,77.00,KMEV 170355Z AUTO 28009G15KT 10SM CLR 25/07 A2997 RMK AO2,M
HTH,2025-07-17 03:55,-118.6315,38.5448,1282.89,87.80,35.60,15.73,180.00,7.00,0.00,29.91,M,10.00,M,CLR,M,M,M,M,M,M,M,M,M,M,M,M,M,M,84.12,KHTH 170355Z AUTO 18007KT 10SM CLR 31/02 A2991 RMK A01,M
LSV,2025-07-17 03:55,-115.0343,36.2362,570.00,97.50,38.30,12.96,180.00,7.00,0.00,29.72,1003.10,10.00,M,CLR,M,M,M,M,M,M,M,M,M,M,M,M,M,M,92.81,KLSV 170355Z AUTO 18007KT 10SM CLR 36/04 A2972 RMK AO2 SLP031 T03640035 $,M
INS,2025-07-17 03:55,-115.6733,36.5872,955.00,92.00,32.00,11.94,330.00,5.00,0.00,29.84,1004.30,10.00,M,CLR,M,M,M,M,M,M,M,M,M,M,M,M,M,M,87.38,KINS 170355Z AUTO 33005KT 10SM CLR 33/00 A2984 RMK AO2 SLP043 T03340001 $,M
HND,2025-07-17 03:56,-115.1344,35.9729,742.79,95.00,47.00,19.54,210.00,8.00,0.00,29.83,1008.20,10.00,M,CLR,M,M,M,M,M,M,M,M,M,M,M,M,M,M,91.39,KHND 170356Z AUTO 21008KT 10SM CLR 35/08 A2983 RMK AO2 SLP082 T03500083 $,M
EKO,2025-07-17 03:56,-115.7860,40.8242,1367.00,82.00,36.00,19.24,270.00,9.00,0.00,29.96,1008.30,10.00,14.00,CLR,M,M,M,M,M,M,M,M,M,M,M,M,M,M,79.83,KEKO 170356Z AUTO 27009G14KT 10SM CLR 28/02 A2996 RMK AO2 SLP083 T02780022,M
WMC,2025-07-17 03:56,-117.8072,40.9019,1315.00,78.00,30.00,17.23,0.00,0.00,0.00,29.89,1006.60,10.00,M,CLR,M,M,M,M,M,M,M,M,M,M,M,M,M,M,78.00,KWMC 170356Z AUTO 00000KT 10SM CLR 26/M01 A2989 RMK AO2 SLP066 T02561011 TSNO,M
TPH,2025-07-17 03:56,-117.0904,38.0505,1654.00,81.00,29.00,15.00,180.00,9.00,0.00,30.02,1007.40,10.00,M,CLR,M,M,M,M,M,M,M,M,M,M,M,M,M,M,79.00,KTPH 170356Z AUTO 18009KT 10SM CLR 27/M02 A3002 RMK AO2 SLP074 T02721017 $,M
LAS,2025-07-17 03:56,-115.1634,36.0719,663.00,97.00,43.00,15.79,220.00,9.00,0.00,29.79,1005.50,10.00,M,CLR,M,M,M,M,M,M,M,M,M,M,M,M,M,M,92.80,KLAS 170356Z 22009KT 10SM CLR 36/06 A2979 RMK AO2 SLP055 T03610061,M
NFL,2025-07-17 03:57,-118.7010,39.4166,1199.00,89.00,40.00,18.01,290.00,9.00,0.00,29.87,1009.00,10.00,M,SCT,SCT,SCT,M,8000.00,12000.00,20000.00,M,M,M,M,M,M,M,M,85.26,KNFL 170357Z 29009KT 10SM SCT080 SCT120 SCT200 32/04 A2987 RMK AO2 SLP090 T03170044,M
TMT,2025-07-17 04:10,-117.1971,39.4643,1749.34,70.70,42.60,36.21,250.00,6.00,0.00,30.05,M,10.00,M,CLR,M,M,M,M,M,M,M,M,M,M,M,M,M,M,70.70,KTMT 170410Z AUTO 25006KT 10SM CLR 22/06 A3005 RMK AO2 T02150059,M
BVU,2025-07-17 04:15,-114.8611,35.9475,671.00,93.20,51.80,24.71,160.00,17.00,0.00,29.79,M,10.00,M,CLR,M,M,M,M,M,M,M,M,M,M,M,M,M,M,90.47,KBVU 170415Z AUTO 16017KT 10SM CLR 34/11 A2979 RMK AO2,M
BAM,2025-07-17 04:15,-116.8743,40.5990,1382.36,82.40,35.60,18.70,290.00,5.00,0.00,29.92,M,10.00,M,CLR,M,M,M,M,M,M,M,M,M,M,M,M,M,M,80.08,KBAM 170415Z AUTO 29005KT 10SM CLR 28/02 A2992 RMK AO1,M
CXP,2025-07-17 04:15,-119.7326,39.1923,1431.00,78.80,42.80,27.85,0.00,0.00,0.00,30.00,M,10.00,M,CLR,M,M,M,M,M,M,M,M,M,M,M,M,M,M,78.80,KCXP 170415Z AUTO 00000KT 10SM CLR 26/06 A3000 RMK AO2,M
RTS,2025-07-17 04:15,-119.8764,39.6682,1539.00,75.20,37.40,25.43,290.00,13.00,0.00,30.05,M,10.00,M,CLR,M,M,M,M,M,M,M,M,M,M,M,M,M,M,75.20,KRTS 170415Z AUTO 29013KT 10SM CLR 24/03 A3005 RMK AO2,M
05U,2025-07-17 04:15,-116.0051,39.6042,1811.23,66.20,32.00,27.84,0.00,0.00,0.00,30.08,M,10.00,M,CLR,M,M,M,M,M,M,M,M,M,M,M,M,M,M,66.20,K05U 170415Z AUTO 00000KT 10SM CLR 19/00 A3008 RMK A01,M
MEV,2025-07-17 04:15,-119.7500,38.9963,1441.42,77.00,44.60,31.65,0.00,0.00,0.00,29.98,M,10.00,11.00,CLR,M,M,M,M,M,M,M,M,M,M,M,M,M,M,77.00,KMEV 170415Z AUTO 00000G11KT 10SM CLR 25/07 A2998 RMK AO2,M
HTH,2025-07-17 04:15,-118.6315,38.5448,1282.89,86.00,35.60,16.66,100.00,14.00,0.00,29.93,M,10.00,M,CLR,M,M,M,M,M,M,M,M,M,M,M,M,M,M,82.69,KHTH 170415Z AUTO 10014KT 10SM CLR 30/02 A2993 RMK A01,M
TMT,2025-07-17 04:30,-117.1971,39.4643,1749.34,66.00,46.20,48.82,250.00,7.00,0.00,30.05,M,10.00,M,CLR,M,M,M,M,M,M,M,M,M,M,M,M,M,M,66.00,KTMT 170430Z AUTO 25007KT 10SM CLR 19/08 A3005 RMK AO2 T01880079,M
BVU,2025-07-17 04:35,-114.8611,35.9475,671.00,93.20,51.80,24.71,160.00,15.00,0.00,29.80,M,10.00,M,CLR,M,M,M,M,M,M,M,M,M,M,M,M,M,M,90.47,KBVU 170435Z AUTO 16015KT 10SM CLR 34/11 A2980 RMK AO2,M
CXP,2025-07-17 04:35,-119.7326,39.1923,1431.00,77.00,42.80,29.55,30.00,5.00,0.00,30.01,M,10.00,M,CLR,M,M,M,M,M,M,M,M,M,M,M,M,M,M,77.00,KCXP 170435Z AUTO 03005KT 10SM CLR 25/06 A3001 RMK AO2,M
RTS,2025-07-17 04:35,-119.8764,39.6682,1539.00,73.40,39.20,28.98,310.00,12.00,0.00,30.06,M,10.00,18.00,CLR,M,M,M,M,M,M,M,M,M,M,M,M,M,M,73.40,KRTS 170435Z AUTO 31012G18KT 10SM CLR 23/04 A3006 RMK AO2,M
05U,2025-07-17 04:35,-116.0051,39.6042,1811.23,66.20,32.00,27.84,170.00,4.00,0.00,30.08,M,10.00,M,CLR,M,M,M,M,M,M,M,M,M,M,M,M,M,M,66.20,K05U 170435Z AUTO 17004KT 10SM CLR 19/00 A3008 RMK A01,M
MEV,2025-07-17 04:35,-119.7500,38.9963,1441.42,75.20,44.60,33.60,0.00,0.00,0.00,29.99,M,10.00,M,CLR,M,M,M,M,M,M,M,M,M,M,M,M,M,M,75.20,KMEV 170435Z AUTO 00000KT 10SM CLR 24/07 A2999 RMK AO2,M
BAM,2025-07-17 04:35,-116.8743,40.5990,1382.36,77.00,35.60,22.31,120.00,3.00,0.00,29.93,M,10.00,M,CLR,M,M,M,M,M,M,M,M,M,M,M,M,M,M,77.00,KBAM 170435Z AUTO 12003KT 10SM CLR 25/02 A2993 RMK AO1,M
HTH,2025-07-17 04:35,-118.6315,38.5448,1282.89,87.80,35.60,15.73,90.00,17.00,0.00,29.93,M,10.00,29.00,CLR,M,M,M,M,M,M,M,M,M,M,M,M,M,M,84.12,KHTH 170435Z AUTO 09017G29KT 10SM CLR 31/02 A2993 RMK A01,M
TMT,2025-07-17 04:50,-117.1971,39.4643,1749.34,63.50,43.50,48.06,130.00,4.00,0.00,30.05,M,10.00,M,CLR,M,M,M,M,M,M,M,M,M,M,M,M,M,M,63.50,KTMT 170450Z AUTO 13004KT 10SM CLR 18/06 A3005 RMK AO2 T01750064,M
LOL,2025-07-17 04:53,-118.5701,40.0684,1192.43,83.00,30.00,14.64,330.00,9.00,0.00,29.88,1006.60,10.00,M,CLR,M,M,M,M,M,M,M,M,M,M,M,M,M,M,80.39,KLOL 170453Z AUTO 33009KT 10SM CLR 28/M01 A2988 RMK AO2 SLP066 T02831011,M
P68,2025-07-17 04:53,-116.0056,39.6014,1993.00,62.00,32.00,32.24,170.00,5.00,0.00,30.06,1008.80,M,M,M,M,M,M,M,M,M,M,M,M,M,M,M,M,M,62.00,KP68 170453Z AUTO 17005KT 17/00 A3006 RMK AO1 SLP088 T01670000,M
DRA,2025-07-17 04:53,-116.0278,36.6206,1009.00,91.00,43.00,19.00,200.00,10.00,0.00,29.88,1005.60,10.00,M,CLR,M,M,M,M,M,M,M,M,M,M,M,M,M,M,87.18,KDRA 170453Z AUTO 20010KT 10SM CLR 33/06 A2988 RMK AO2 SLP056 T03280061,M
ELY,2025-07-17 04:53,-114.8453,39.2950,1909.00,75.00,25.00,15.49,90.00,3.00,0.00,30.10,1006.70,10.00,M,CLR,M,M,M,M,M,M,M,M,M,M,M,M,M,M,75.00,KELY 170453Z AUTO 09003KT 10SM CLR 24/M04 A3010 RMK AO2 SLP067 T02391039,M
VGT,2025-07-17 04:53,-115.1933,36.2111,667.00,95.00,44.00,17.44,170.00,9.00,0.00,29.79,1007.10,10.00,M,CLR,M,M,M,M,M,M,M,M,M,M,M,M,M,M,91.00,KVGT 170453Z AUTO 17009KT 10SM CLR 35/07 A2979 RMK AO2 SLP071 T03500067,M
BAM,2025-07-17 04:55,-116.8743,40.5990,1382.36,77.00,35.60,22.31,170.00,4.00,0.00,29.93,M,10.00,M,CLR,M,M,M,M,M,M,M,M,M,M,M,M,M,M,77.00,KBAM 170455Z AUTO 17004KT 10SM CLR 25/02 A2993 RMK AO1,M
BVU,2025-07-17 04:55,-114.8611,35.9475,671.00,93.20,51.80,24.71,170.00,12.00,0.00,29.81,M,10.00,M,CLR,M,M,M,M,M,M,M,M,M,M,M,M,M,M,90.47,KBVU 170455Z AUTO 17012KT 10SM CLR 34/11 A2981 RMK AO2,M
RNO,2025-07-17 04:55,-119.7711,39.4839,1341.00,79.00,40.00,24.83,330.00,12.00,0.00,30.00,1009.60,10.00,22.00,FEW,M,M,M,9000.00,M,M,M,M,M,M,M,29.00,290.00,2025-07-17 04:08,79.00,KRNO 170455Z 33012G22KT 290V360 10SM FEW090 26/04 A3000 RMK AO2 PK WND 29029/0408 SLP096 T02610044,M
CXP,2025-07-17 04:55,-119.7326,39.1923,1431.00,77.00,42.80,29.55,340.00,5.00,0.00,30.01,M,10.00,M,CLR,M,M,M,M,M,M,M,M,M,M,M,M,M,M,77.00,KCXP 170455Z AUTO 34005KT 10SM CLR 25/06 A3001 RMK AO2,M
RTS,2025-07-17 04:55,-119.8764,39.6682,1539.00,73.40,41.00,31.08,310.00,13.00,0.00,30.06,M,10.00,19.00,CLR,M,M,M,M,M,M,M,M,M,M,M,M,M,M,73.40,KRTS 170455Z AUTO 31013G19KT 10SM CLR 23/05 A3006 RMK AO2,M
05U,2025-07-17 04:55,-116.0051,39.6042,1811.23,62.60,32.00,31.56,0.00,0.00,0.00,30.08,M,10.00,M,CLR,M,M,M,M,M,M,M,M,M,M,M,M,M,M,62.60,K05U 170455Z AUTO 00000KT 10SM CLR 17/00 A3008 RMK A01,M
MEV,2025-07-17 04:55,-119.7500,38.9963,1441.42,73.40,44.60,35.69,M,5.00,0.00,30.00,M,10.00,M,CLR,M,M,M,M,M,M,M,M,M,M,M,M,M,M,73.40,KMEV 170455Z AUTO VRB05KT 10SM CLR 23/07 A3000 RMK AO2,M
HTH,2025-07-17 04:55,-118.6315,38.5448,1282.89,87.80,33.80,14.64,100.00,13.00,0.00,29.93,M,10.00,21.00,SCT,M,M,M,12000.00,M,M,M,M,M,M,M,M,M,M,84.10,KHTH 170455Z AUTO 10013G21KT 10SM SCT120 31/01 A2993 RMK A01,M
INS,2025-07-17 04:55,-115.6733,36.5872,955.00,89.20,33.80,14.01,100.00,4.00,0.00,29.86,1004.90,10.00,M,CLR,M,M,M,M,M,M,M,M,M,M,M,M,M,M,85.25,KINS 170455Z AUTO 10004KT 10SM CLR 32/01 A2986 RMK AO2 SLP049 T03180010 $,M
LSV,2025-07-17 04:55,-115.0343,36.2362,570.00,97.00,46.60,18.11,150.00,11.00,0.00,29.74,1003.80,10.00,M,CLR,M,M,M,M,M,M,M,M,M,M,M,M,M,M,93.30,KLSV 170455Z AUTO 15011KT 10SM CLR 36/08 A2974 RMK AO2 SLP038 T03620081 $,M
HND,2025-07-17 04:56,-115.1344,35.9729,742.79,94.00,48.00,20.93,190.00,10.00,0.00,29.85,1008.80,10.00,M,CLR,M,M,M,M,M,M,M,M,M,M,M,M,M,M,90.56,KHND 170456Z AUTO 19010KT 10SM CLR 34/09 A2985 RMK AO2 SLP088 T03440089 $,M
TPH,2025-07-17 04:56,-117.0904,38.0505,1654.00,77.00,26.00,15.11,200.00,6.00,0.00,30.04,1008.40,10.00,M,CLR,M,M,M,M,M,M,M,M,M,M,M,M,M,M,77.00,KTPH 170456Z AUTO 20006KT 10SM CLR 25/M03 A3004 RMK AO2 SLP084 T02501033 $,M
LAS,2025-07-17 04:56,-115.1634,36.0719,663.00,96.00,46.00,18.25,210.00,9.00,0.00,29.81,1006.10,10.00,M,CLR,M,M,M,M,M,M,M,M,M,M,M,M,M,M,92.22,KLAS 170456Z 21009KT 10SM CLR 36/08 A2981 RMK AO2 SLP061 T03560078,M
EKO,2025-07-17 04:56,-115.7860,40.8242,1367.00,75.00,38.00,26.21,0.00,0.00,0.00,29.98,1008.70,10.00,M,CLR,M,M,M,M,M,M,M,M,M,M,M,M,M,M,75.00,KEKO 170456Z AUTO 00000KT 10SM CLR 24/03 A2998 RMK AO2 SLP087 T02390033,M
WMC,2025-07-17 04:56,-117.8072,40.9019,1315.00,73.00,31.00,21.19,130.00,3.00,0.00,29.90,1007.10,10.00,M,CLR,M,M,M,M,M,M,M,M,M,M,M,M,M,M,73.00,KWMC 170456Z AUTO 13003KT 10SM CLR 23/M01 A2990 RMK AO2 SLP071 T02281006 TSNO,M
NFL,2025-07-17 04:57,-118.7010,39.4166,1199.00,85.00,43.00,22.96,290.00,11.00,0.00,29.89,1009.70,10.00,M,FEW,SCT,M,M,8000.00,20000.00,M,M,M,M,M,M,M,M,M,82.21,KNFL 170457Z 29011KT 10SM FEW080 SCT200 29/06 A2989 RMK AO2 SLP097 T02940061,M
CXP,2025-07-17 05:10,-119.7326,39.1923,1431.00,75.20,42.80,31.37,340.00,6.00,0.00,30.02,M,10.00,M,CLR,M,M,M,M,M,M,M,M,M,M,M,M,M,M,75.20,KCXP 170510Z AUTO 34006KT 10SM CLR 24/06 A3002 RMK AO2,M
TMT,2025-07-17 05:10,-117.1971,39.4643,1749.34,66.00,41.50,40.79,210.00,3.00,0.00,30.05,M,10.00,M,CLR,M,M,M,M,M,M,M,M,M,M,M,M,M,M,66.00,KTMT 170510Z AUTO 21003KT 10SM CLR 19/05 A3005 RMK AO2 T01890053,M
BVU,2025-07-17 05:15,-114.8611,35.9475,671.00,91.40,51.80,26.12,160.00,13.00,0.00,29.82,M,10.00,M,CLR,M,M,M,M,M,M,M,M,M,M,M,M,M,M,88.71,KBVU 170515Z AUTO 16013KT 10SM CLR 33/11 A2982 RMK AO2,M
BAM,2025-07-17 05:15,-116.8743,40.5990,1382.36,75.20,33.80,22.04,130.00,3.00,0.00,29.94,M,10.00,M,CLR,M,M,M,M,M,M,M,M,M,M,M,M,M,M,75.20,KBAM 170515Z AUTO 13003KT 10SM CLR 24/01 A2994 RMK AO1,M
RTS,2025-07-17 05:15,-119.8764,39.6682,1539.00,71.60,41.00,33.02,320.00,12.00,0.00,30.06,M,10.00,M,CLR,M,M,M,M,M,M,M,M,M,M,M,M,M,M,71.60,KRTS 170515Z AUTO 32012KT 10SM CLR 22/05 A3006 RMK AO2,M
05U,2025-07-17 05:15,-116.0051,39.6042,1811.23,62.60,32.00,31.56,0.00,0.00,0.00,30.08,M,10.00,M,CLR,M,M,M,M,M,M,M,M,M,M,M,M,M,M,62.60,K05U 170515Z AUTO 00000KT 10SM CLR 17/00 A3008 RMK A01,M
MEV,2025-07-17 05:15,-119.7500,38.9963,1441.42,75.20,44.60,33.60,0.00,0.00,0.00,30.01,M,10.00,M,FEW,M,M,M,4700.00,M,M,M,M,M,M,M,M,M,M,75.20,KMEV 170515Z AUTO 00000KT 10SM FEW047 24/07 A3001 RMK AO2,M
HTH,2025-07-17 05:15,-118.6315,38.5448,1282.89,87.80,35.60,15.73,140.00,12.00,0.00,29.94,M,10.00,M,SCT,M,M,M,11000.00,M,M,M,M,M,M,M,M,M,M,84.12,KHTH 170515Z AUTO 14012KT 10SM SCT110 31/02 A2994 RMK A01,M
TMT,2025-07-17 05:30,-117.1971,39.4643,1749.34,61.70,42.00,48.33,0.00,0.00,0.00,30.05,M,10.00,M,CLR,M,M,M,M,M,M,M,M,M,M,M,M,M,M,61.70,KTMT 170530Z AUTO 00000KT 10SM CLR 17/06 A3005 RMK AO2 T01650056,M
BVU,2025-07-17 05:35,-114.8611,35.9475,671.00,91.40,53.60,27.91,170.00,11.00,0.00,29.82,M,10.00,M,CLR,M,M,M,M,M,M,M,M,M,M,M,M,M,M,89.09,KBVU 170535Z AUTO 17011KT 10SM CLR 33/12 A2982 RMK AO2,M
BAM,2025-07-17 05:35,-116.8743,40.5990,1382.36,73.40,33.80,23.41,0.00,0.00,0.00,29.93,M,10.00,M,CLR,M,M,M,M,M,M,M,M,M,M,M,M,M,M,73.40,KBAM 170535Z AUTO 00000KT 10SM CLR 23/01 A2993 RMK AO1,M
CXP,2025-07-17 05:35,-119.7326,39.1923,1431.00,77.00,42.80,29.55,0.00,0.00,0.00,30.03,M,10.00,M,CLR,M,M,M,M,M,M,M,M,M,M,M,M,M,M,77.00,KCXP 170535Z AUTO 00000KT 10SM CLR 25/06 A3003 RMK AO2,M
RTS,2025-07-17 05:35,-119.8764,39.6682,1539.00,71.60,39.20,30.79,310.00,11.00,0.00,30.07,M,10.00,M,CLR,M,M,M,M,M,M,M,M,M,M,M,M,M,M,71.60,KRTS 170535Z AUTO 31011KT 10SM CLR 22/04 A3007 RMK AO2,M
05U,2025-07-17 05:35,-116.0051,39.6042,1811.23,64.40,32.00,29.63,0.00,0.00,0.00,30.07,M,10.00,M,CLR,M,M,M,M,M,M,M,M,M,M,M,M,M,M,64.40,K05U 170535Z AUTO 00000KT 10SM CLR 18/M00 A3007 RMK A01,M
MEV,2025-07-17 05:35,-119.7500,38.9963,1441.42,71.60,42.80,35.40,0.00,0.00,0.00,30.02,M,10.00,M,CLR,M,M,M,M,M,M,M,M,M,M,M,M,M,M,71.60,KMEV 170535Z AUTO 00000KT 10SM CLR 22/06 A3002 RMK AO2,M
HTH,2025-07-17 05:35,-118.6315,38.5448,1282.89,86.00,35.60,16.66,200.00,7.00,0.00,29.95,M,10.00,12.00,FEW,M,M,M,12000.00,M,M,M,M,M,M,M,M,M,M,82.69,KHTH 170535Z AUTO 20007G12KT 10SM FEW120 30/02 A2995 RMK A01,M
TMT,2025-07-17 05:50,-117.1971,39.4643,1749.34,62.40,41.00,45.37,0.00,0.00,0.00,30.05,M,10.00,M,CLR,M,M,M,M,M,M,M,M,M,M,M,M,M,M,62.40,KTMT 170550Z AUTO 00000KT 10SM CLR 17/05 A3005 RMK AO2 T01690051,M
P68,2025-07-17 05:53,-116.0056,39.6014,1993.00,60.00,32.00,34.60,250.00,6.00,0.00,30.05,1008.30,M,M,M,M,M,M,M,M,M,M,M,M,M,M,M,M,M,60.00,KP68 170553Z AUTO 25006KT 16/00 A3005 RMK AO1 SLP083 T01560000 10317 20156 50002,M
DRA,2025-07-17 05:53,-116.0278,36.6206,1009.00,89.00,43.00,20.22,230.00,10.00,0.00,29.88,1005.60,10.00,19.00,CLR,M,M,M,M,M,M,M,M,M,M,M,M,M,M,85.43,KDRA 170553Z AUTO 23010G19KT 10SM CLR 32/06 A2988 RMK AO2 SLP056 T03170061 10372 20317 51008,M
ELY,2025-07-17 05:53,-114.8453,39.2950,1909.00,65.00,24.00,20.89,180.00,6.00,0.00,30.09,1007.30,10.00,M,CLR,M,M,M,M,M,M,M,M,M,M,M,M,M,M,65.00,KELY 170553Z AUTO 18006KT 10SM CLR 18/M04 A3009 RMK AO2 SLP073 T01831044 10322 20183 50013,M
VGT,2025-07-17 05:53,-115.1933,36.2111,667.00,94.00,46.00,19.41,170.00,9.00,0.00,29.80,1007.40,10.00,M,CLR,M,M,M,M,M,M,M,M,M,M,M,M,M,M,90.28,KVGT 170553Z AUTO 17009KT 10SM CLR 34/08 A2980 RMK AO2 SLP074 T03440078 10400 20344 51016,M
LOL,2025-07-17 05:53,-118.5701,40.0684,1192.43,84.00,39.00,20.30,320.00,17.00,0.00,29.88,1006.40,10.00,24.00,CLR,M,M,M,M,M,M,M,M,M,M,M,M,M,M,81.29,KLOL 170553Z AUTO 32017G24KT 10SM CLR 29/04 A2988 RMK AO2 SLP064 T02890039 10372 20267 51009,M
BVU,2025-07-17 05:55,-114.8611,35.9475,671.00,91.40,51.80,26.12,160.00,12.00,0.00,29.82,M,10.00,20.00,CLR,M,M,M,M,M,M,M,M,M,M,M,M,M,M,88.71,KBVU 170555Z AUTO 16012G20KT 10SM CLR 33/11 A2982 RMK AO2,M
RNO,2025-07-17 05:55,-119.7711,39.4839,1341.00,78.00,40.00,25.66,320.00,9.00,0.00,30.01,1009.80,10.00,18.00,CLR,M,M,M,M,M,M,M,M,M,M,M,M,M,M,78.00,KRNO 170555Z 32009G18KT 10SM CLR 26/04 A3001 RMK AO2 SLP098 T02560044 10361 20256 52017,M
BAM,2025-07-17 05:55,-116.8743,40.5990,1382.36,73.40,33.80,23.41,0.00,0.00,0.00,29.93,M,10.00,M,CLR,M,M,M,M,M,M,M,M,M,M,M,M,M,M,73.40,KBAM 170555Z AUTO 00000KT 10SM CLR 23/01 A2993 RMK AO1,M
CXP,2025-07-17 05:55,-119.7326,39.1923,1431.00,77.00,41.00,27.57,M,5.00,0.00,30.03,M,10.00,11.00,CLR,M,M,M,M,M,M,M,M,M,M,M,M,M,M,77.00,KCXP 170555Z AUTO VRB05G11KT 10SM CLR 25/05 A3003 RMK AO2,M
LSV,2025-07-17 05:55,-115.0343,36.2362,570.00,96.00,47.00,18.96,160.00,10.00,0.00,29.75,1004.10,10.00,M,CLR,M,M,M,M,M,M,M,M,M,M,M,M,M,M,92.37,KLSV 170555Z AUTO 16010KT 10SM CLR 36/08 A2975 RMK AO2 SLP041 T03560084 10410 20356 52016 $,M
RTS,2025-07-17 05:55,-119.8764,39.6682,1539.00,71.60,39.20,30.79,310.00,6.00,0.00,30.07,M,10.00,16.00,CLR,M,M,M,M,M,M,M,M,M,M,M,M,M,M,71.60,KRTS 170555Z AUTO 31006G16KT 10SM CLR 22/04 A3007 RMK AO2,M
05U,2025-07-17 05:55,-116.0051,39.6042,1811.23,60.80,32.00,33.64,0.00,0.00,0.00,30.07,M,10.00,M,CLR,M,M,M,M,M,M,M,M,M,M,M,M,M,M,60.80,K05U 170555Z AUTO 00000KT 10SM CLR 16/00 A3007 RMK A01,M
MEV,2025-07-17 05:55,-119.7500,38.9963,1441.42,71.60,44.60,37.92,0.00,0.00,0.00,30.02,M,10.00,M,CLR,M,M,M,M,M,M,M,M,M,M,M,M,M,M,71.60,KMEV 170555Z AUTO 00000KT 10SM CLR 22/07 A3002 RMK AO2,M
HTH,2025-07-17 05:55,-118.6315,38.5448,1282.89,86.00,35.60,16.66,270.00,11.00,0.00,29.94,M,10.00,M,CLR,M,M,M,M,M,M,M,M,M,M,M,M,M,M,82.69,KHTH 170555Z AUTO 27011KT 10SM CLR 30/02 A2994 RMK A01,M
INS,2025-07-17 05:55,-115.6733,36.5872,955.00,86.70,33.40,14.92,0.00,0.00,0.00,29.86,1004.90,10.00,M,CLR,M,M,M,M,M,M,M,M,M,M,M,M,M,M,83.21,KINS 170555Z AUTO 00000KT 10SM CLR 30/01 A2986 RMK AO2 SLP049 T03040008 10387 20304 52014 $,M
EKO,2025-07-17 05:56,-115.7860,40.8242,1367.00,71.00,37.00,28.82,50.00,3.00,0.00,29.97,1008.50,10.00,M,CLR,M,M,M,M,M,M,M,M,M,M,M,M,M,M,71.00,KEKO 170556Z AUTO 05003KT 10SM CLR 22/03 A2997 RMK AO2 SLP085 T02170028 10350 20217 50007,M
WMC,2025-07-17 05:56,-117.8072,40.9019,1315.00,70.00,32.00,24.43,0.00,0.00,0.00,29.91,1007.20,10.00,M,CLR,M,M,M,M,M,M,M,M,M,M,M,M,M,M,70.00,KWMC 170556Z AUTO 00000KT 10SM CLR 21/00 A2991 RMK AO2 SLP072 T02110000 10367 20206 51008 TSNO,M
HND,2025-07-17 05:56,-115.1344,35.9729,742.79,92.00,52.00,25.83,170.00,10.00,0.00,29.86,1009.10,10.00,M,CLR,M,M,M,M,M,M,M,M,M,M,M,M,M,M,89.33,KHND 170556Z AUTO 17010KT 10SM CLR 33/11 A2986 RMK AO2 SLP091 T03330111 10394 20333 51016 $,M
TPH,2025-07-17 05:56,-117.0904,38.0505,1654.00,74.00,24.00,15.36,100.00,3.00,0.00,30.05,1008.60,10.00,M,CLR,M,M,M,M,M,M,M,M,M,M,M,M,M,M,74.00,KTPH 170556Z AUTO 10003KT 10SM CLR 23/M04 A3005 RMK AO2 SLP086 T02331044 10339 20217 51018 $,M
LAS,2025-07-17 05:56,-115.1634,36.0719,663.00,95.00,49.00,21.07,190.00,8.00,0.00,29.82,1006.30,10.00,17.00,CLR,M,M,M,M,M,M,M,M,M,M,M,M,M,M,91.72,KLAS 170556Z 19008G17KT 10SM CLR 35/09 A2982 RMK AO2 SLP063 T03500094 10400 20350 51015,M
NFL,2025-07-17 05:57,-118.7010,39.4166,1199.00,82.00,40.00,22.51,270.00,8.00,0.00,29.90,1009.90,10.00,M,FEW,M,M,M,20000.00,M,M,M,M,M,M,M,M,M,M,79.99,KNFL 170557Z 27008KT 10SM FEW200 28/04 A2990 RMK AO2 SLP099 T02780044 10378 20278 51014,M
RTS,2025-07-17 06:05,-119.8764,39.6682,1539.00,71.60,39.20,30.79,290.00,7.00,0.00,30.07,M,10.00,13.00,CLR,M,M,M,M,M,M,M,M,M,M,M,M,M,M,71.60,KRTS 170605Z AUTO 29007G13KT 10SM CLR 22/04 A3007 RMK AO2,M
MEV,2025-07-17 06:05,-119.7500,38.9963,1441.42,68.00,46.40,45.91,60.00,6.00,0.00,30.02,M,10.00,M,CLR,M,M,M,M,M,M,M,M,M,M,M,M,M,M,68.00,KMEV 170605Z AUTO 06006KT 10SM CLR 20/08 A3002 RMK AO2,M
CXP,2025-07-17 06:10,-119.7326,39.1923,1431.00,77.00,42.80,29.55,310.00,9.00,0.00,30.04,M,10.00,M,CLR,M,M,M,M,M,M,M,M,M,M,M,M,M,M,77.00,KCXP 170610Z AUTO 31009KT 10SM CLR 25/06 A3004 RMK AO2,M
TMT,2025-07-17 06:10,-117.1971,39.4643,1749.34,61.70,43.00,50.23,230.00,3.00,0.00,30.05,M,10.00,M,CLR,M,M,M,M,M,M,M,M,M,M,M,M,M,M,61.70,KTMT 170610Z AUTO 23003KT 10SM CLR 17/06 A3005 RMK AO2 T01650062,M
BVU,2025-07-17 06:15,-114.8611,35.9475,671.00,91.40,51.80,26.12,170.00,13.00,0.00,29.82,M,10.00,M,CLR,M,M,M,M,M,M,M,M,M,M,M,M,M,M,88.71,KBVU 170615Z AUTO 17013KT 10SM CLR 33/11 A2982 RMK AO2,M
BAM,2025-07-17 06:15,-116.8743,40.5990,1382.36,69.80,33.80,26.44,110.00,3.00,0.00,29.93,M,10.00,M,CLR,M,M,M,M,M,M,M,M,M,M,M,M,M,M,69.80,KBAM 170615Z AUTO 11003KT 10SM CLR 21/01 A2993 RMK AO1,M
05U,2025-07-17 06:15,-116.0051,39.6042,1811.23,64.40,32.00,29.63,200.00,6.00,0.00,30.07,M,10.00,M,FEW,FEW,M,M,10000.00,12000.00,M,M,M,M,M,M,M,M,M,64.40,K05U 170615Z AUTO 20006KT 10SM FEW100 FEW120 18/00 A3007 RMK A01,M
HTH,2025-07-17 06:15,-118.6315,38.5448,1282.89,87.80,35.60,15.73,300.00,4.00,0.00,29.94,M,10.00,M,CLR,M,M,M,M,M,M,M,M,M,M,M,M,M,M,84.12,KHTH 170615Z AUTO 30004KT 10SM CLR 31/02 A2994 RMK A01,M
TMT,2025-07-17 06:30,-117.1971,39.4643,1749.34,60.00,42.40,52.13,200.00,6.00,0.00,30.05,M,10.00,M,CLR,M,M,M,M,M,M,M,M,M,M,M,M,M,M,60.00,KTMT 170630Z AUTO 20006KT 10SM CLR 16/06 A3005 RMK AO2 T01560058,M
BVU,2025-07-17 06:35,-114.8611,35.9475,671.00,91.40,51.80,26.12,150.00,12.00,0.00,29.83,M,10.00,18.00,CLR,M,M,M,M,M,M,M,M,M,M,M,M,M,M,88.71,KBVU 170635Z AUTO 15012G18KT 10SM CLR 33/11 A2983 RMK AO2,M
CXP,2025-07-17 06:35,-119.7326,39.1923,1431.00,75.20,41.00,29.26,280.00,6.00,0.00,30.04,M,10.00,12.00,CLR,M,M,M,M,M,M,M,M,M,M,M,M,M,M,75.20,KCXP 170635Z AUTO 28006G12KT 10SM CLR 24/05 A3004 RMK AO2,M
RTS,2025-07-17 06:35,-119.8764,39.6682,1539.00,69.80,39.20,32.73,290.00,6.00,0.00,30.07,M,10.00,M,CLR,M,M,M,M,M,M,M,M,M,M,M,M,M,M,69.80,KRTS 170635Z AUTO 29006KT 10SM CLR 21/04 A3007 RMK AO2,M
05U,2025-07-17 06:35,-116.0051,39.6042,1811.23,68.00,32.00,26.16,0.00,0.00,0.00,30.07,M,10.00,M,FEW,FEW,SCT,M,6000.00,8000.00,11000.00,M,M,M,M,M,M,M,M,68.00,K05U 170635Z AUTO 00000KT 10SM FEW060 FEW080 SCT110 20/M00 A3007 RMK A01,M
HTH,2025-07-17 06:35,-118.6315,38.5448,1282.89,86.00,35.60,16.66,260.00,6.00,0.00,29.94,M,10.00,M,CLR,M,M,M,M,M,M,M,M,M,M,M,M,M,M,82.69,KHTH 170635Z AUTO 26006KT 10SM CLR 30/02 A2994 RMK A01,M
BAM,2025-07-17 06:35,-116.8743,40.5990,1382.36,69.80,33.80,26.44,0.00,0.00,0.00,29.94,M,10.00,M,CLR,M,M,M,M,M,M,M,M,M,M,M,M,M,M,69.80,KBAM 170635Z AUTO 00000KT 10SM CLR 21/01 A2994 RMK AO1,M
TMT,2025-07-17 06:50,-117.1971,39.4643,1749.34,57.20,43.50,60.12,200.00,4.00,0.00,30.06,M,10.00,M,CLR,M,M,M,M,M,M,M,M,M,M,M,M,M,M,57.20,KTMT 170650Z AUTO 20004KT 10SM CLR 14/06 A3006 RMK AO2 T01400064,M
P68,2025-07-17 06:53,-116.0056,39.6014,1993.00,69.00,32.00,25.28,220.00,6.00,0.00,30.05,1007.40,M,M,M,M,M,M,M,M,M,M,M,M,M,M,M,M,M,69.00,KP68 170653Z AUTO 22006KT 21/00 A3005 RMK AO1 SLP074 T02060000,M
DRA,2025-07-17 06:53,-116.0278,36.6206,1009.00,89.00,48.00,24.45,200.00,18.00,0.00,29.88,1005.80,10.00,25.00,CLR,M,M,M,M,M,M,M,M,M,M,M,27.00,210.00,2025-07-17 06:33,85.90,KDRA 170653Z AUTO 20018G25KT 10SM CLR 32/09 A2988 RMK AO2 PK WND 21027/0633 SLP058 T03170089,M
ELY,2025-07-17 06:53,-114.8453,39.2950,1909.00,63.00,24.00,22.40,0.00,0.00,0.00,30.10,1007.70,10.00,M,CLR,M,M,M,M,M,M,M,M,M,M,M,M,M,M,63.00,KELY 170653Z AUTO 00000KT 10SM CLR 17/M04 A3010 RMK AO2 SLP077 T01721044,M
VGT,2025-07-17 06:53,-115.1933,36.2111,667.00,93.00,51.00,24.14,170.00,12.00,0.00,29.81,1007.80,10.00,M,CLR,M,M,M,M,M,M,M,M,M,M,M,M,M,M,90.11,KVGT 170653Z AUTO 17012KT 10SM CLR 34/11 A2981 RMK AO2 SLP078 T03390106,M
LOL,2025-07-17 06:53,-118.5701,40.0684,1192.43,82.00,36.00,19.24,340.00,11.00,0.00,29.89,1006.60,10.00,20.00,CLR,M,M,M,M,M,M,M,M,M,M,M,26.00,320.00,2025-07-17 06:36,79.83,KLOL 170653Z AUTO 34011G20KT 10SM CLR 28/02 A2989 RMK AO2 PK WND 32026/0636 SLP066 T02780022,M
BVU,2025-07-17 06:55,-114.8611,35.9475,671.00,91.40,53.60,27.91,150.00,16.00,0.00,29.83,M,10.00,M,CLR,M,M,M,M,M,M,M,M,M,M,M,M,M,M,89.09,KBVU 170655Z AUTO 15016KT 10SM CLR 33/12 A2983 RMK AO2,M
RNO,2025-07-17 06:55,-119.7711,39.4839,1341.00,76.00,42.00,29.62,320.00,7.00,0.00,30.02,1010.00,10.00,M,CLR,M,M,M,M,M,M,M,M,M,M,M,M,M,M,76.00,KRNO 170655Z 32007KT 280V350 10SM CLR 24/06 A3002 RMK AO2 SLP100 T02440056,M
BAM,2025-07-17 06:55,-116.8743,40.5990,1382.36,68.00,32.00,26.16,260.00,4.00,0.00,29.95,M,10.00,M,CLR,M,M,M,M,M,M,M,M,M,M,M,M,M,M,68.00,KBAM 170655Z AUTO 26004KT 10SM CLR 20/00 A2995 RMK AO1,M
CXP,2025-07-17 06:55,-119.7326,39.1923,1431.00,75.20,41.00,29.26,300.00,5.00,0.00,30.04,M,10.00,10.00,CLR,M,M,M,M,M,M,M,M,M,M,M,M,M,M,75.20,KCXP 170655Z AUTO 30005G10KT 10SM CLR 24/05 A3004 RMK AO2,M
INS,2025-07-17 06:55,-115.6733,36.5872,955.00,86.00,34.50,15.94,100.00,4.00,0.00,29.87,1005.20,10.00,M,CLR,M,M,M,M,M,M,M,M,M,M,M,M,M,M,82.67,KINS 170655Z AUTO 10004KT 10SM CLR 30/01 A2987 RMK AO2 SLP052 T03000014 $,M
LSV,2025-07-17 06:55,-115.0343,36.2362,570.00,95.00,50.00,21.87,160.00,15.00,0.00,29.76,1004.40,10.00,M,CLR,M,M,M,M,M,M,M,M,M,M,M,M,M,M,91.90,KLSV 170655Z 16015KT 10SM CLR 35/10 A2976 RMK AO2A SLP044 T03490100 $,M
RTS,2025-07-17 06:55,-119.8764,39.6682,1539.00,69.80,39.20,32.73,290.00,11.00,0.00,30.08,M,10.00,M,CLR,M,M,M,M,M,M,M,M,M,M,M,M,M,M,69.80,KRTS 170655Z AUTO 29011KT 10SM CLR 21/04 A3008 RMK AO2,M
05U,2025-07-17 06:55,-116.0051,39.6042,1811.23,68.00,32.00,26.16,0.00,0.00,0.00,30.07,M,10.00,M,CLR,M,M,M,M,M,M,M,M,M,M,M,M,M,M,68.00,K05U 170655Z AUTO 00000KT 10SM CLR 20/00 A3007 RMK A01,M
MEV,2025-07-17 06:55,-119.7500,38.9963,1441.42,69.80,44.60,40.31,0.00,0.00,0.00,30.03,M,10.00,M,CLR,M,M,M,M,M,M,M,M,M,M,M,M,M,M,69.80,KMEV 170655Z AUTO 00000KT 10SM CLR 21/07 A3003 RMK AO2,M
HTH,2025-07-17 06:55,-118.6315,38.5448,1282.89,84.20,33.80,16.42,260.00,9.00,0.00,29.93,M,10.00,M,CLR,M,M,M,M,M,M,M,M,M,M,M,M,M,M,81.30,KHTH 170655Z AUTO 26009KT 10SM CLR 29/01 A2993 RMK A01,M
EKO,2025-07-17 06:56,-115.7860,40.8242,1367.00,68.00,37.00,31.93,70.00,6.00,0.00,29.98,1008.70,10.00,M,CLR,M,M,M,M,M,M,M,M,M,M,M,M,M,M,68.00,KEKO 170656Z AUTO 07006KT 10SM CLR 20/03 A2998 RMK AO2 SLP087 T02000028,M
WMC,2025-07-17 06:56,-117.8072,40.9019,1315.00,74.00,29.00,18.89,310.00,6.00,0.00,29.91,1007.00,10.00,M,CLR,M,M,M,M,M,M,M,M,M,M,M,M,M,M,74.00,KWMC 170656Z AUTO 31006KT 10SM CLR 23/M02 A2991 RMK AO2 SLP070 T02331017 TSNO,M
HND,2025-07-17 06:56,-115.1344,35.9729,742.79,90.00,53.00,28.52,160.00,15.00,0.00,29.87,1009.50,10.00,M,CLR,M,M,M,M,M,M,M,M,M,M,M,M,M,M,87.62,KHND 170656Z AUTO 16015KT 10SM CLR 32/12 A2987 RMK AO2 SLP095 T03220117 404000283 $,M
TPH,2025-07-17 06:56,-117.0904,38.0505,1654.00,71.00,23.00,16.30,120.00,8.00,0.00,30.05,1008.70,10.00,M,CLR,M,M,M,M,M,M,M,M,M,M,M,M,M,M,71.00,KTPH 170656Z AUTO 12008KT 10SM CLR 22/M05 A3005 RMK AO2 SLP087 T02171050 $,M
LAS,2025-07-17 06:56,-115.1634,36.0719,663.00,93.00,51.00,24.14,170.00,8.00,0.00,29.83,1006.90,10.00,M,BKN,M,M,M,17000.00,M,M,M,M,M,M,M,M,M,M,90.11,KLAS 170656Z 17008KT 10SM BKN170 34/11 A2983 RMK AO2 SLP069 T03390106,M
NFL,2025-07-17 06:57,-118.7010,39.4166,1199.00,76.00,39.00,26.36,0.00,0.00,0.00,29.93,1010.80,10.00,M,CLR,M,M,M,M,M,M,M,M,M,M,M,M,M,M,76.00,KNFL 170657Z AUTO 00000KT 10SM CLR 24/04 A2993 RMK AO2 SLP108 T02440039,M
TMT,2025-07-17 07:10,-117.1971,39.4643,1749.34,58.00,39.70,50.44,230.00,7.00,0.00,30.06,M,10.00,M,CLR,M,M,M,M,M,M,M,M,M,M,M,M,M,M,58.00,KTMT 170710Z AUTO 23007KT 10SM CLR 14/04 A3006 RMK AO2 T01440043,M
BVU,2025-07-17 07:15,-114.8611,35.9475,671.00,91.40,53.60,27.91,160.00,16.00,0.00,29.83,M,10.00,23.00,CLR,M,M,M,M,M,M,M,M,M,M,M,M,M,M,89.09,KBVU 170715Z AUTO 16016G23KT 10SM CLR 33/12 A2983 RMK AO2,M
BAM,2025-07-17 07:15,-116.8743,40.5990,1382.36,68.00,32.00,26.16,0.00,0.00,0.00,29.95,M,10.00,M,CLR,M,M,M,M,M,M,M,M,M,M,M,M,M,M,68.00,KBAM 170715Z AUTO 00000KT 10SM CLR 20/00 A2995 RMK AO1,M
CXP,2025-07-17 07:15,-119.7326,39.1923,1431.00,71.60,42.80,35.40,0.00,0.00,0.00,30.04,M,10.00,M,CLR,M,M,M,M,M,M,M,M,M,M,M,M,M,M,71.60,KCXP 170715Z AUTO 00000KT 10SM CLR 22/06 A3004 RMK AO2,M
RTS,2025-07-17 07:15,-119.8764,39.6682,1539.00,69.80,39.20,32.73,300.00,10.00,0.00,30.08,M,10.00,M,CLR,M,M,M,M,M,M,M,M,M,M,M,M,M,M,69.80,KRTS 170715Z AUTO 30010KT 10SM CLR 21/04 A3008 RMK AO2,M
05U,2025-07-17 07:15,-116.0051,39.6042,1811.23,68.00,32.00,26.16,0.00,0.00,0.00,30.07,M,10.00,M,CLR,M,M,M,M,M,M,M,M,M,M,M,M,M,M,68.00,K05U 170715Z AUTO 00000KT 10SM CLR 20/M00 A3007 RMK A01,M
MEV,2025-07-17 07:15,-119.7500,38.9963,1441.42,66.20,44.60,45.62,110.00,4.00,0.00,30.04,M,10.00,M,CLR,M,M,M,M,M,M,M,M,M,M,M,M,M,M,66.20,KMEV 170715Z AUTO 11004KT 10SM CLR 19/07 A3004 RMK AO2,M
HTH,2025-07-17 07:15,-118.6315,38.5448,1282.89,84.20,35.60,17.64,290.00,5.00,0.00,29.94,M,10.00,M,CLR,M,M,M,M,M,M,M,M,M,M,M,M,M,M,81.34,KHTH 170715Z AUTO 29005KT 10SM CLR 29/02 A2994 RMK A01,M
TMT,2025-07-17 07:30,-117.1971,39.4643,1749.34,57.60,38.00,47.88,150.00,3.00,0.00,30.07,M,10.00,M,CLR,M,M,M,M,M,M,M,M,M,M,M,M,M,M,57.60,KTMT 170730Z AUTO 15003KT 10SM CLR 14/03 A3007 RMK AO2 T01420033,M
BVU,2025-07-17 07:35,-114.8611,35.9475,671.00,89.60,55.40,31.53,190.00,10.00,0.00,29.84,M,10.00,18.00,CLR,M,M,M,M,M,M,M,M,M,M,M,M,M,M,87.80,KBVU 170735Z AUTO 19010G18KT 10SM CLR 32/13 A2984 RMK AO2,M
BAM,2025-07-17 07:35,-116.8743,40.5990,1382.36,64.40,32.00,29.63,0.00,0.00,0.00,29.95,M,10.00,M,CLR,M,M,M,M,M,M,M,M,M,M,M,M,M,M,64.40,KBAM 170735Z AUTO 00000KT 10SM CLR 18/00 A2995 RMK AO1,M
CXP,2025-07-17 07:35,-119.7326,39.1923,1431.00,69.80,44.60,40.31,160.00,4.00,0.00,30.05,M,10.00,M,CLR,M,M,M,M,M,M,M,M,M,M,M,M,M,M,69.80,KCXP 170735Z AUTO 16004KT 10SM CLR 21/07 A3005 RMK AO2,M
RTS,2025-07-17 07:35,-119.8764,39.6682,1539.00,68.00,39.20,34.81,300.00,11.00,0.00,30.08,M,10.00,M,CLR,M,M,M,M,M,M,M,M,M,M,M,M,M,M,68.00,KRTS 170735Z AUTO 30011KT 10SM CLR 20/04 A3008 RMK AO2,M
05U,2025-07-17 07:35,-116.0051,39.6042,1811.23,69.80,32.00,24.60,0.00,0.00,0.00,30.07,M,10.00,M,CLR,M,M,M,M,M,M,M,M,M,M,M,M,M,M,69.80,K05U 170735Z AUTO 00000KT 10SM CLR 21/00 A3007 RMK A01,M
MEV,2025-07-17 07:35,-119.7500,38.9963,1441.42,68.00,44.60,42.87,0.00,0.00,0.00,30.04,M,10.00,M,CLR,M,M,M,M,M,M,M,M,M,M,M,M,M,M,68.00,KMEV 170735Z AUTO 00000KT 10SM CLR 20/07 A3004 RMK AO2,M
HTH,2025-07-17 07:35,-118.6315,38.5448,1282.89,82.40,35.60,18.70,0.00,0.00,0.00,29.94,M,10.00,M,CLR,M,M,M,M,M,M,M,M,M,M,M,M,M,M,80.08,KHTH 170735Z AUTO 00000KT 10SM CLR 28/02 A2994 RMK A01,M
TMT,2025-07-17 07:50,-117.1971,39.4643,1749.34,59.00,39.20,47.72,0.00,0.00,0.00,30.07,M,10.00,M,CLR,M,M,M,M,M,M,M,M,M,M,M,M,M,M,59.00,KTMT 170750Z AUTO 00000KT 10SM CLR 15/04 A3007 RMK AO2 T01500040,M
P68,2025-07-17 07:53,-116.0056,39.6014,1993.00,72.00,32.00,22.83,210.00,5.00,0.00,30.05,1007.30,M,M,M,M,M,M,M,M,M,M,M,M,M,M,M,M,M,72.00,KP68 170753Z AUTO 21005KT 22/00 A3005 RMK AO1 SLP073 T02220000 403280106,M
DRA,2025-07-17 07:53,-116.0278,36.6206,1009.00,89.00,47.00,23.55,200.00,14.00,0.00,29.89,1005.90,10.00,22.00,CLR,M,M,M,M,M,M,M,M,M,M,M,26.00,210.00,2025-07-17 07:00,85.78,KDRA 170753Z AUTO 20014G22KT 10SM CLR 32/08 A2989 RMK AO2 PK WND 21026/0700 SLP059 T03170083 403780239,M
ELY,2025-07-17 07:53,-114.8453,39.2950,1909.00,66.00,22.00,18.55,220.00,10.00,0.00,30.10,1007.30,10.00,M,CLR,M,M,M,M,M,M,M,M,M,M,M,M,M,M,66.00,KELY 170753Z AUTO 22010KT 10SM CLR 19/M06 A3010 RMK AO2 SLP073 T01891056 403330111,M
VGT,2025-07-17 07:53,-115.1933,36.2111,667.00,92.00,51.00,24.90,170.00,11.00,0.00,29.82,1008.10,10.00,M,CLR,M,M,M,M,M,M,M,M,M,M,M,M,M,M,89.13,KVGT 170753Z AUTO 17011KT 10SM CLR 33/11 A2982 RMK AO2 SLP081 T03330106 404000294,M
LOL,2025-07-17 07:53,-118.5701,40.0684,1192.43,76.00,39.00,26.36,80.00,5.00,0.00,29.91,1007.80,10.00,M,CLR,M,M,M,M,M,M,M,M,M,M,M,M,M,M,76.00,KLOL 170753Z AUTO 08005KT 10SM CLR 24/04 A2991 RMK AO2 SLP078 T02440039 403720172,M
BVU,2025-07-17 07:55,-114.8611,35.9475,671.00,89.60,55.40,31.53,M,5.00,0.00,29.85,M,10.00,11.00,CLR,M,M,M,M,M,M,M,M,M,M,M,M,M,M,87.80,KBVU 170755Z AUTO VRB05G11KT 10SM CLR 32/13 A2985 RMK AO2,M
RNO,2025-07-17 07:55,-119.7711,39.4839,1341.00,75.00,42.00,30.62,270.00,7.00,0.00,30.02,1010.00,10.00,M,CLR,M,M,M,M,M,M,M,M,M,M,M,M,M,M,75.00,KRNO 170755Z 27007KT 10SM CLR 24/06 A3002 RMK AO2 SLP100 T02390056 403610167,M
BAM,2025-07-17 07:55,-116.8743,40.5990,1382.36,60.80,30.20,31.27,130.00,5.00,0.00,29.95,M,10.00,M,CLR,M,M,M,M,M,M,M,M,M,M,M,M,M,M,60.80,KBAM 170755Z AUTO 13005KT 10SM CLR 16/M01 A2995 RMK AO1,M
CXP,2025-07-17 07:55,-119.7326,39.1923,1431.00,69.80,42.80,37.63,0.00,0.00,0.00,30.05,M,10.00,M,CLR,M,M,M,M,M,M,M,M,M,M,M,M,M,M,69.80,KCXP 170755Z AUTO 00000KT 10SM CLR 21/06 A3005 RMK AO2,M
RTS,2025-07-17 07:55,-119.8764,39.6682,1539.00,68.00,39.20,34.81,290.00,11.00,0.00,30.08,M,10.00,M,CLR,M,M,M,M,M,M,M,M,M,M,M,M,M,M,68.00,KRTS 170755Z AUTO 29011KT 10SM CLR 20/04 A3008 RMK AO2,M
05U,2025-07-17 07:55,-116.0051,39.6042,1811.23,71.60,32.00,23.14,0.00,0.00,0.00,30.08,M,10.00,M,SCT,M,M,M,12000.00,M,M,M,M,M,M,M,M,M,M,71.60,K05U 170755Z AUTO 00000KT 10SM SCT120 22/00 A3008 RMK A01,M
MEV,2025-07-17 07:55,-119.7500,38.9963,1441.42,64.40,44.60,48.57,0.00,0.00,0.00,30.04,M,10.00,M,CLR,M,M,M,M,M,M,M,M,M,M,M,M,M,M,64.40,KMEV 170755Z AUTO 00000KT 10SM CLR 18/07 A3004 RMK AO2,M
HTH,2025-07-17 07:55,-118.6315,38.5448,1282.89,80.60,44.60,28.13,70.00,5.00,0.00,29.95,M,10.00,M,CLR,M,M,M,M,M,M,M,M,M,M,M,M,M,M,79.43,KHTH 170755Z AUTO 07005KT 10SM CLR 27/07 A2995 RMK A01,M
INS,2025-07-17 07:55,-115.6733,36.5872,955.00,82.80,35.00,18.02,120.00,4.00,0.00,29.88,1005.50,10.00,M,CLR,M,M,M,M,M,M,M,M,M,M,M,M,M,M,80.34,KINS 170755Z AUTO 12004KT 10SM CLR 28/02 A2988 RMK AO2 SLP055 T02820016 403890235 $,M
LSV,2025-07-17 07:55,-115.0343,36.2362,570.00,94.00,50.40,22.89,160.00,15.00,0.00,29.77,1004.80,10.00,M,BKN,M,M,M,17000.00,M,M,M,M,M,M,M,M,M,M,90.98,KLSV 170755Z 16015KT 10SM BKN170 34/10 A2977 RMK AO2A SLP048 T03440102 404100309 $,M
EKO,2025-07-17 07:56,-115.7860,40.8242,1367.00,67.00,38.00,34.38,60.00,3.00,0.00,29.99,1008.80,10.00,M,CLR,M,M,M,M,M,M,M,M,M,M,M,M,M,M,67.00,KEKO 170756Z AUTO 06003KT 10SM CLR 19/03 A2999 RMK AO2 SLP088 T01940033 403500100,M
WMC,2025-07-17 07:56,-117.8072,40.9019,1315.00,73.00,31.00,21.19,60.00,5.00,0.00,29.93,1007.50,10.00,M,CLR,M,M,M,M,M,M,M,M,M,M,M,M,M,M,73.00,KWMC 170756Z AUTO 06005KT 10SM CLR 23/M01 A2993 RMK AO2 SLP075 T02281006 403720144 TSNO,M
HND,2025-07-17 07:56,-115.1344,35.9729,742.79,89.00,53.00,29.43,170.00,14.00,0.00,29.88,1009.60,10.00,20.00,CLR,M,M,M,M,M,M,M,M,M,M,M,M,M,M,86.69,KHND 170756Z AUTO 17014G20KT 10SM CLR 32/12 A2988 RMK AO2 SLP096 T03170117 $,M
TPH,2025-07-17 07:56,-117.0904,38.0505,1654.00,69.00,23.00,17.45,110.00,8.00,0.00,30.06,1009.00,10.00,M,CLR,M,M,M,M,M,M,M,M,M,M,M,M,M,M,69.00,KTPH 170756Z AUTO 11008KT 10SM CLR 21/M05 A3006 RMK AO2 SLP090 T02061050 403440139 $,M
LAS,2025-07-17 07:56,-115.1634,36.0719,663.00,91.00,51.00,25.68,170.00,9.00,0.00,29.84,1007.30,10.00,M,BKN,M,M,M,18000.00,M,M,M,M,M,M,M,M,M,M,88.17,KLAS 170756Z 17009KT 10SM BKN180 33/11 A2984 RMK AO2 SLP073 ACC OHD AND ALQDS T03280106 404060294,M
NFL,2025-07-17 07:57,-118.7010,39.4166,1199.00,70.00,38.00,31.02,160.00,6.00,0.00,29.94,1011.00,10.00,M,CLR,M,M,M,M,M,M,M,M,M,M,M,M,M,M,70.00,KNFL 170757Z AUTO 16006KT 10SM CLR 21/03 A2994 RMK AO2 SLP110 T02110033 403780172,M
RTS,2025-07-17 08:05,-119.8764,39.6682,1539.00,66.20,39.20,37.04,290.00,12.00,0.00,30.07,M,10.00,M,CLR,M,M,M,M,M,M,M,M,M,M,M,M,M,M,66.20,KRTS 170805Z AUTO 29012KT 10SM CLR 19/04 A3007 RMK AO2,M
MEV,2025-07-17 08:05,-119.7500,38.9963,1441.42,64.40,44.60,48.57,150.00,5.00,0.00,30.04,M,10.00,M,CLR,M,M,M,M,M,M,M,M,M,M,M,M,M,M,64.40,KMEV 170805Z AUTO 15005KT 10SM CLR 18/07 A3004 RMK AO2,M
05U,2025-07-17 08:10,-116.0051,39.6042,1811.23,71.60,32.00,23.14,210.00,6.00,0.00,30.08,M,10.00,M,FEW,SCT,BKN,M,6000.00,8000.00,12000.00,M,M,M,M,M,M,M,M,71.60,K05U 170810Z AUTO 21006KT 10SM FEW060 SCT080 BKN120 22/00 A3008 RMK A01,M
TMT,2025-07-17 08:10,-117.1971,39.4643,1749.34,54.70,41.00,59.78,330.00,3.00,0.00,30.07,M,10.00,M,CLR,M,M,M,M,M,M,M,M,M,M,M,M,M,M,54.70,KTMT 170810Z AUTO 33003KT 10SM CLR 13/05 A3007 RMK AO2 T01260051,M
BVU,2025-07-17 08:15,-114.8611,35.9475,671.00,89.60,53.60,29.53,280.00,4.00,0.00,29.85,M,10.00,11.00,CLR,M,M,M,M,M,M,M,M,M,M,M,M,M,M,87.37,KBVU 170815Z AUTO 28004G11KT 10SM CLR 32/12 A2985 RMK AO2,M
BAM,2025-07-17 08:15,-116.8743,40.5990,1382.36,64.40,32.00,29.63,120.00,5.00,0.00,29.95,M,10.00,M,CLR,M,M,M,M,M,M,M,M,M,M,M,M,M,M,64.40,KBAM 170815Z AUTO 12005KT 10SM CLR 18/00 A2995 RMK AO1,M
CXP,2025-07-17 08:15,-119.7326,39.1923,1431.00,68.00,42.80,40.02,0.00,0.00,0.00,30.05,M,10.00,M,CLR,M,M,M,M,M,M,M,M,M,M,M,M,M,M,68.00,KCXP 170815Z AUTO 00000KT 10SM CLR 20/06 A3005 RMK AO2,M
HTH,2025-07-17 08:15,-118.6315,38.5448,1282.89,82.40,41.00,23.10,M,5.00,0.00,29.95,M,10.00,M,CLR,M,M,M,M,M,M,M,M,M,M,M,M,M,M,80.29,KHTH 170815Z AUTO VRB05KT 10SM CLR 28/05 A2995 RMK A01,M
TMT,2025-07-17 08:30,-117.1971,39.4643,1749.34,52.00,41.00,65.99,0.00,0.00,0.00,30.07,M,10.00,M,CLR,M,M,M,M,M,M,M,M,M,M,M,M,M,M,52.00,KTMT 170830Z AUTO 00000KT 10SM CLR 11/05 A3007 RMK AO2 T01110051,M
CXP,2025-07-17 08:35,-119.7326,39.1923,1431.00,68.00,42.80,40.02,0.00,0.00,0.00,30.04,M,10.00,M,CLR,M,M,M,M,M,M,M,M,M,M,M,M,M,M,68.00,KCXP 170835Z AUTO 00000KT 10SM CLR 20/06 A3004 RMK AO2,M
RTS,2025-07-17 08:35,-119.8764,39.6682,1539.00,66.20,39.20,37.04,280.00,11.00,0.00,30.07,M,10.00,M,CLR,M,M,M,M,M,M,M,M,M,M,M,M,M,M,66.20,KRTS 170835Z AUTO 28011KT 10SM CLR 19/04 A3007 RMK AO2,M
05U,2025-07-17 08:35,-116.0051,39.6042,1811.23,68.00,32.00,26.16,210.00,7.00,0.00,30.08,M,10.00,M,FEW,SCT,M,M,9000.00,12000.00,M,M,M,M,M,M,M,M,M,68.00,K05U 170835Z AUTO 21007KT 10SM FEW090 SCT120 20/M00 A3008 RMK A01,M
MEV,2025-07-17 08:35,-119.7500,38.9963,1441.42,60.80,46.40,59.02,160.00,7.00,0.00,30.03,M,10.00,M,CLR,M,M,M,M,M,M,M,M,M,M,M,M,M,M,60.80,KMEV 170835Z AUTO 16007KT 10SM CLR 16/08 A3003 RMK AO2,M
HTH,2025-07-17 08:35,-118.6315,38.5448,1282.89,M,M,M,M,M,0.00,29.95,M,M,M,M,M,M,M,M,M,M,M,M,M,M,M,M,M,M,M,KHTH 170835Z AUTO A2995 RMK A01,M
BVU,2025-07-17 08:35,-114.8611,35.9475,671.00,89.60,55.40,31.53,230.00,7.00,0.00,29.85,M,10.00,M,CLR,M,M,M,M,M,M,M,M,M,M,M,M,M,M,87.80,KBVU 170835Z AUTO 23007KT 10SM CLR 32/13 A2985 RMK AO2,M
BAM,2025-07-17 08:35,-116.8743,40.5990,1382.36,60.80,32.00,33.64,0.00,0.00,0.00,29.95,M,10.00,M,CLR,M,M,M,M,M,M,M,M,M,M,M,M,M,M,60.80,KBAM 170835Z AUTO 00000KT 10SM CLR 16/00 A2995 RMK AO1,M
TMT,2025-07-17 08:50,-117.1971,39.4643,1749.34,52.30,40.30,63.52,110.00,3.00,0.00,30.07,M,10.00,M,CLR,M,M,M,M,M,M,M,M,M,M,M,M,M,M,52.30,KTMT 170850Z AUTO 11003KT 10SM CLR 11/05 A3007 RMK AO2 T01130046,M
P68,2025-07-17 08:53,-116.0056,39.6014,1993.00,67.00,33.00,28.19,200.00,6.00,0.00,30.06,1007.90,M,M,M,M,M,M,M,M,M,M,M,M,M,M,M,M,M,67.00,KP68 170853Z AUTO 20006KT 19/01 A3006 RMK AO1 SLP079 T01940006 53003,M
DRA,2025-07-17 08:53,-116.0278,36.6206,1009.00,88.00,40.00,18.59,200.00,14.00,0.00,29.90,1006.20,10.00,19.00,CLR,M,M,M,M,M,M,M,M,M,M,M,M,M,M,84.42,KDRA 170853Z AUTO 20014G19KT 10SM CLR 31/04 A2990 RMK AO2 SLP062 T03110044 51006,M
ELY,2025-07-17 08:53,-114.8453,39.2950,1909.00,66.00,23.00,19.35,210.00,11.00,0.00,30.10,1007.30,10.00,M,CLR,M,M,M,M,M,M,M,M,M,M,M,M,M,M,66.00,KELY 170853Z AUTO 21011KT 10SM CLR 19/M05 A3010 RMK AO2 SLP073 T01891050 51003,M
VGT,2025-07-17 08:53,-115.1933,36.2111,667.00,91.00,51.00,25.68,170.00,10.00,0.00,29.83,1008.30,10.00,M,CLR,M,M,M,M,M,M,M,M,M,M,M,M,M,M,88.17,KVGT 170853Z AUTO 17010KT 10SM CLR 33/11 A2983 RMK AO2 SLP083 T03280106 51010,M
LOL,2025-07-17 08:53,-118.5701,40.0684,1192.43,73.00,35.00,24.89,320.00,9.00,0.00,29.91,1007.90,10.00,M,CLR,M,M,M,M,M,M,M,M,M,M,M,M,M,M,73.00,KLOL 170853Z AUTO 32009KT 10SM CLR 23/02 A2991 RMK AO2 SLP079 T02280017 51011,M
BVU,2025-07-17 08:55,-114.8611,35.9475,671.00,89.60,53.60,29.53,210.00,12.00,0.00,29.85,M,10.00,M,CLR,M,M,M,M,M,M,M,M,M,M,M,M,M,M,87.37,KBVU 170855Z AUTO 21012KT 10SM CLR 32/12 A2985 RMK AO2,M
RNO,2025-07-17 08:55,-119.7711,39.4839,1341.00,74.00,42.00,31.66,280.00,3.00,0.00,30.02,1009.80,10.00,M,CLR,M,M,M,M,M,M,M,M,M,M,M,M,M,M,74.00,KRNO 170855Z 28003KT 10SM CLR 23/06 A3002 RMK AO2 SLP098 T02330056 50003,M
BAM,2025-07-17 08:55,-116.8743,40.5990,1382.36,64.40,32.00,29.63,330.00,3.00,0.00,29.95,M,10.00,M,CLR,M,M,M,M,M,M,M,M,M,M,M,M,M,M,64.40,KBAM 170855Z AUTO 33003KT 10SM CLR 18/00 A2995 RMK AO1,M
HTH,2025-07-17 08:55,-118.6315,38.5448,1282.89,M,M,M,280.00,7.00,0.00,29.96,M,M,M,M,M,M,M,M,M,M,M,M,M,M,M,M,M,M,M,KHTH 170855Z AUTO 28007KT A2996 RMK A01,M
CXP,2025-07-17 08:55,-119.7326,39.1923,1431.00,68.00,42.80,40.02,120.00,3.00,0.00,30.04,M,10.00,M,CLR,M,M,M,M,M,M,M,M,M,M,M,M,M,M,68.00,KCXP 170855Z AUTO 12003KT 10SM CLR 20/06 A3004 RMK AO2,M
INS,2025-07-17 08:55,-115.6733,36.5872,955.00,84.20,42.40,23.01,0.00,0.00,0.00,29.88,1005.50,10.00,M,BKN,M,M,M,16000.00,M,M,M,M,M,M,M,M,M,M,81.59,KINS 170855Z AUTO 00000KT 10SM BKN160 29/06 A2988 RMK AO2 SLP055 T02900058 52005 $,M
RTS,2025-07-17 08:55,-119.8764,39.6682,1539.00,68.00,39.20,34.81,280.00,11.00,0.00,30.07,M,10.00,M,CLR,M,M,M,M,M,M,M,M,M,M,M,M,M,M,68.00,KRTS 170855Z AUTO 28011KT 10SM CLR 20/04 A3007 RMK AO2,M
05U,2025-07-17 08:55,-116.0051,39.6042,1811.23,66.20,32.00,27.84,0.00,0.00,0.00,30.08,M,10.00,M,CLR,M,M,M,M,M,M,M,M,M,M,M,M,M,M,66.20,K05U 170855Z AUTO 00000KT 10SM CLR 19/00 A3008 RMK A01,M
MEV,2025-07-17 08:55,-119.7500,38.9963,1441.42,57.20,44.60,62.70,140.00,8.00,0.00,30.03,M,10.00,M,CLR,M,M,M,M,M,M,M,M,M,M,M,M,M,M,57.20,KMEV 170855Z AUTO 14008KT 10SM CLR 14/07 A3003 RMK AO2,M
LSV,2025-07-17 08:55,-115.0343,36.2362,570.00,92.00,53.00,26.80,180.00,14.00,0.00,29.78,1005.10,10.00,M,BKN,M,M,M,17000.00,M,M,M,M,M,M,M,M,M,M,89.54,KLSV 170855Z 18014KT 10SM BKN170 33/12 A2978 RMK AO2A SLP051 T03330117 52010 $,M
EKO,2025-07-17 08:56,-115.7860,40.8242,1367.00,60.00,41.00,49.39,220.00,3.00,0.00,29.99,1009.40,10.00,M,CLR,M,M,M,M,M,M,M,M,M,M,M,M,M,M,60.00,KEKO 170856Z AUTO 22003KT 10SM CLR 16/05 A2999 RMK AO2 SLP094 T01560050 51008,M
WMC,2025-07-17 08:56,-117.8072,40.9019,1315.00,66.00,32.00,28.03,0.00,0.00,0.00,29.93,1007.70,10.00,M,CLR,M,M,M,M,M,M,M,M,M,M,M,M,M,M,66.00,KWMC 170856Z AUTO 00000KT 10SM CLR 19/00 A2993 RMK AO2 SLP077 T01890000 50007 TSNO,M
HND,2025-07-17 08:56,-115.1344,35.9729,742.79,87.00,54.00,32.52,160.00,11.00,0.00,29.88,1009.80,10.00,M,CLR,M,M,M,M,M,M,M,M,M,M,M,M,M,M,85.12,KHND 170856Z AUTO 16011KT 10SM CLR 31/12 A2988 RMK AO2 SLP098 T03060122 51006 $,M
TPH,2025-07-17 08:56,-117.0904,38.0505,1654.00,62.00,21.00,20.45,0.00,0.00,0.00,30.07,1009.50,10.00,M,CLR,M,M,M,M,M,M,M,M,M,M,M,M,M,M,62.00,KTPH 170856Z AUTO 00000KT 10SM CLR 17/M06 A3007 RMK AO2 SLP095 T01671061 52004 $,M
LAS,2025-07-17 08:56,-115.1634,36.0719,663.00,90.00,51.00,26.50,190.00,4.00,0.00,29.86,1007.60,10.00,M,BKN,M,M,M,19000.00,M,M,M,M,M,M,M,M,M,M,87.24,KLAS 170856Z 19004KT 10SM BKN190 32/11 A2986 RMK AO2 SLP076 VIRGA DSNT W ACC E T03220106 51012,M
NFL,2025-07-17 08:57,-118.7010,39.4166,1199.00,74.00,40.00,29.30,210.00,4.00,0.00,29.94,1011.10,10.00,M,CLR,M,M,M,M,M,M,M,M,M,M,M,M,M,M,74.00,KNFL 170857Z AUTO 21004KT 10SM CLR 23/04 A2994 RMK AO2 SLP111 T02330044 51012,M
TMT,2025-07-17 09:10,-117.1971,39.4643,1749.34,54.50,37.80,53.15,0.00,0.00,0.00,30.07,M,10.00,M,CLR,M,M,M,M,M,M,M,M,M,M,M,M,M,M,54.50,KTMT 170910Z AUTO 00000KT 10SM CLR 13/03 A3007 RMK AO2 T01250032,M
BAM,2025-07-17 09:15,-116.8743,40.5990,1382.36,60.80,33.80,36.16,340.00,3.00,0.00,29.95,M,10.00,M,CLR,M,M,M,M,M,M,M,M,M,M,M,M,M,M,60.80,KBAM 170915Z AUTO 34003KT 10SM CLR 16/01 A2995 RMK AO1,M
CXP,2025-07-17 09:15,-119.7326,39.1923,1431.00,68.00,42.80,40.02,0.00,0.00,0.00,30.04,M,10.00,M,CLR,M,M,M,M,M,M,M,M,M,M,M,M,M,M,68.00,KCXP 170915Z AUTO 00000KT 10SM CLR 20/06 A3004 RMK AO2,M
RTS,2025-07-17 09:15,-119.8764,39.6682,1539.00,68.00,39.20,34.81,270.00,11.00,0.00,30.07,M,10.00,M,CLR,M,M,M,M,M,M,M,M,M,M,M,M,M,M,68.00,KRTS 170915Z AUTO 27011KT 10SM CLR 20/04 A3007 RMK AO2,M
05U,2025-07-17 09:15,-116.0051,39.6042,1811.23,64.40,33.80,31.86,0.00,0.00,0.00,30.09,M,10.00,M,CLR,M,M,M,M,M,M,M,M,M,M,M,M,M,M,64.40,K05U 170915Z AUTO 00000KT 10SM CLR 18/01 A3009 RMK A01,M
MEV,2025-07-17 09:15,-119.7500,38.9963,1441.42,60.80,42.80,51.46,110.00,8.00,0.00,30.03,M,10.00,M,CLR,M,M,M,M,M,M,M,M,M,M,M,M,M,M,60.80,KMEV 170915Z AUTO 11008KT 10SM CLR 16/06 A3003 RMK AO2,M
HTH,2025-07-17 09:15,-118.6315,38.5448,1282.89,78.80,42.80,27.85,250.00,5.00,0.00,29.96,M,10.00,M,M,M,M,M,M,M,M,M,M,M,M,M,M,M,M,78.80,KHTH 170915Z AUTO 25005KT 10SM 26/06 A2996 RMK A01,M
BVU,2025-07-17 09:15,-114.8611,35.9475,671.00,87.80,53.60,31.25,180.00,12.00,0.00,29.85,M,10.00,M,CLR,M,M,M,M,M,M,M,M,M,M,M,M,M,M,85.73,KBVU 170915Z AUTO 18012KT 10SM CLR 31/12 A2985 RMK AO2,M
TMT,2025-07-17 09:30,-117.1971,39.4643,1749.34,51.60,41.00,66.97,310.00,7.00,0.00,30.07,M,10.00,M,CLR,M,M,M,M,M,M,M,M,M,M,M,M,M,M,51.60,KTMT 170930Z AUTO 31007KT 10SM CLR 11/05 A3007 RMK AO2 T01090050,M
BVU,2025-07-17 09:35,-114.8611,35.9475,671.00,87.80,53.60,31.25,160.00,13.00,0.00,29.85,M,10.00,M,CLR,M,M,M,M,M,M,M,M,M,M,M,M,M,M,85.73,KBVU 170935Z AUTO 16013KT 10SM CLR 31/12 A2985 RMK AO2,M
BAM,2025-07-17 09:35,-116.8743,40.5990,1382.36,59.00,32.00,35.86,0.00,0.00,0.00,29.96,M,10.00,M,CLR,M,M,M,M,M,M,M,M,M,M,M,M,M,M,59.00,KBAM 170935Z AUTO 00000KT 10SM CLR 15/00 A2996 RMK AO1,M
CXP,2025-07-17 09:35,-119.7326,39.1923,1431.00,66.20,42.80,42.59,0.00,0.00,0.00,30.04,M,10.00,M,CLR,M,M,M,M,M,M,M,M,M,M,M,M,M,M,66.20,KCXP 170935Z AUTO 00000KT 10SM CLR 19/06 A3004 RMK AO2,M
RTS,2025-07-17 09:35,-119.8764,39.6682,1539.00,68.00,39.20,34.81,260.00,12.00,0.00,30.07,M,10.00,M,CLR,M,M,M,M,M,M,M,M,M,M,M,M,M,M,68.00,KRTS 170935Z AUTO 26012KT 10SM CLR 20/04 A3007 RMK AO2,M
05U,2025-07-17 09:35,-116.0051,39.6042,1811.23,64.40,30.20,27.55,0.00,0.00,0.00,30.09,M,10.00,M,CLR,M,M,M,M,M,M,M,M,M,M,M,M,M,M,64.40,K05U 170935Z AUTO 00000KT 10SM CLR 18/M01 A3009 RMK A01,M
MEV,2025-07-17 09:35,-119.7500,38.9963,1441.42,60.80,42.80,51.46,110.00,6.00,0.00,30.03,M,10.00,M,FEW,FEW,FEW,M,3600.00,4600.00,5000.00,M,M,M,M,M,M,M,M,60.80,KMEV 170935Z AUTO 11006KT 10SM FEW036 FEW046 FEW050 16/06 A3003 RMK AO2,M
HTH,2025-07-17 09:35,-118.6315,38.5448,1282.89,78.80,42.80,27.85,270.00,6.00,0.00,29.96,M,10.00,M,CLR,M,M,M,M,M,M,M,M,M,M,M,M,M,M,78.80,KHTH 170935Z AUTO 27006KT 10SM CLR 26/06 A2996 RMK A01,M
RTS,2025-07-17 09:45,-119.8764,39.6682,1539.00,68.00,39.20,34.81,260.00,10.00,0.00,30.07,M,10.00,M,CLR,M,M,M,M,M,M,M,M,M,M,M,M,M,M,68.00,KRTS 170945Z AUTO 26010KT 10SM CLR 20/04 A3007 RMK AO2,M
MEV,2025-07-17 09:45,-119.7500,38.9963,1441.42,60.80,42.80,51.46,100.00,7.00,0.00,30.03,M,10.00,M,FEW,SCT,SCT,M,3600.00,4600.00,5000.00,M,M,M,M,M,M,M,M,60.80,KMEV 170945Z AUTO 10007KT 10SM FEW036 SCT046 SCT050 16/06 A3003 RMK AO2,M
TMT,2025-07-17 09:50,-117.1971,39.4643,1749.34,51.60,41.50,68.28,240.00,5.00,0.00,30.06,M,10.00,M,CLR,M,M,M,M,M,M,M,M,M,M,M,M,M,M,51.60,KTMT 170950Z AUTO 24005KT 10SM CLR 11/05 A3006 RMK AO2 T01090053,M
P68,2025-07-17 09:53,-116.0056,39.6014,1993.00,64.00,31.00,28.86,210.00,5.00,0.00,30.07,1008.50,M,M,M,M,M,M,M,M,M,M,M,M,M,M,M,M,M,64.00,KP68 170953Z AUTO 21005KT 18/M01 A3007 RMK AO1 SLP085 T01781006,M
DRA,2025-07-17 09:53,-116.0278,36.6206,1009.00,87.00,39.00,18.45,200.00,9.00,0.00,29.90,1006.40,10.00,M,CLR,M,M,M,M,M,M,M,M,M,M,M,M,M,M,83.57,KDRA 170953Z AUTO 20009KT 10SM CLR 31/04 A2990 RMK AO2 SLP064 T03060039,M
ELY,2025-07-17 09:53,-114.8453,39.2950,1909.00,66.00,24.00,20.17,210.00,11.00,0.00,30.11,1007.50,10.00,M,CLR,M,M,M,M,M,M,M,M,M,M,M,M,M,M,66.00,KELY 170953Z AUTO 21011KT 10SM CLR 19/M04 A3011 RMK AO2 SLP075 T01891044,M
VGT,2025-07-17 09:53,-115.1933,36.2111,667.00,90.00,49.00,24.60,160.00,10.00,0.00,29.84,1008.70,10.00,M,CLR,M,M,M,M,M,M,M,M,M,M,M,M,M,M,86.92,KVGT 170953Z AUTO 16010KT 10SM CLR 32/09 A2984 RMK AO2 SLP087 T03220094,M
LOL,2025-07-17 09:53,-118.5701,40.0684,1192.43,66.00,39.00,37.01,80.00,3.00,0.00,29.93,1008.70,10.00,M,CLR,M,M,M,M,M,M,M,M,M,M,M,M,M,M,66.00,KLOL 170953Z AUTO 08003KT 10SM CLR 19/04 A2993 RMK AO2 SLP087 T01890039,M
BVU,2025-07-17 09:55,-114.8611,35.9475,671.00,87.80,55.40,33.37,150.00,14.00,0.00,29.85,M,10.00,M,CLR,M,M,M,M,M,M,M,M,M,M,M,M,M,M,86.13,KBVU 170955Z AUTO 15014KT 10SM CLR 31/13 A2985 RMK AO2,M
RNO,2025-07-17 09:55,-119.7711,39.4839,1341.00,71.00,41.00,33.70,50.00,4.00,0.00,30.02,1009.90,10.00,M,CLR,M,M,M,M,M,M,M,M,M,M,M,M,M,M,71.00,KRNO 170955Z 05004KT 10SM CLR 22/05 A3002 RMK AO2 SLP099 T02170050,M
BAM,2025-07-17 09:55,-116.8743,40.5990,1382.36,59.00,32.00,35.86,170.00,4.00,0.00,29.97,M,10.00,M,CLR,M,M,M,M,M,M,M,M,M,M,M,M,M,M,59.00,KBAM 170955Z AUTO 17004KT 10SM CLR 15/00 A2997 RMK AO1,M
CXP,2025-07-17 09:55,-119.7326,39.1923,1431.00,66.20,42.80,42.59,0.00,0.00,0.00,30.04,M,10.00,M,CLR,M,M,M,M,M,M,M,M,M,M,M,M,M,M,66.20,KCXP 170955Z AUTO 00000KT 10SM CLR 19/06 A3004 RMK AO2,M
05U,2025-07-17 09:55,-116.0051,39.6042,1811.23,64.40,32.00,29.63,0.00,0.00,0.00,30.09,M,10.00,M,CLR,M,M,M,M,M,M,M,M,M,M,M,M,M,M,64.40,K05U 170955Z AUTO 00000KT 10SM CLR 18/M00 A3009 RMK A01,M
HTH,2025-07-17 09:55,-118.6315,38.5448,1282.89,78.80,42.80,27.85,310.00,9.00,0.00,29.96,M,10.00,M,CLR,M,M,M,M,M,M,M,M,M,M,M,M,M,M,78.80,KHTH 170955Z AUTO 31009KT 10SM CLR 26/06 A2996 RMK A01,M
INS,2025-07-17 09:55,-115.6733,36.5872,955.00,83.00,39.00,20.97,0.00,0.00,0.00,29.89,1005.90,10.00,M,CLR,M,M,M,M,M,M,M,M,M,M,M,M,M,M,80.60,KINS 170955Z AUTO 00000KT 10SM CLR 28/04 A2989 RMK AO2 SLP059 T02830039 $,M
LSV,2025-07-17 09:55,-115.0343,36.2362,570.00,91.80,51.00,25.05,140.00,5.00,0.00,29.79,1005.40,10.00,M,BKN,M,M,M,20000.00,M,M,M,M,M,M,M,M,M,M,88.94,KLSV 170955Z 14005KT 10SM BKN200 33/11 A2979 RMK AO2A SLP054 T03320105 $,M
EKO,2025-07-17 09:56,-115.7860,40.8242,1367.00,59.00,39.00,47.35,0.00,0.00,0.00,30.00,1009.50,10.00,M,CLR,M,M,M,M,M,M,M,M,M,M,M,M,M,M,59.00,KEKO 170956Z AUTO 00000KT 10SM CLR 15/04 A3000 RMK AO2 SLP095 T01500039,M
WMC,2025-07-17 09:56,-117.8072,40.9019,1315.00,67.00,33.00,28.19,350.00,4.00,0.00,29.94,1008.00,10.00,M,CLR,M,M,M,M,M,M,M,M,M,M,M,M,M,M,67.00,KWMC 170956Z AUTO 35004KT 10SM CLR 19/01 A2994 RMK AO2 SLP080 T01940006 TSNO,M
HND,2025-07-17 09:56,-115.1344,35.9729,742.79,88.00,48.00,25.23,200.00,13.00,0.00,29.88,1009.90,10.00,M,CLR,M,M,M,M,M,M,M,M,M,M,M,M,M,M,85.03,KHND 170956Z AUTO 20013KT 10SM CLR 31/09 A2988 RMK AO2 SLP099 T03110089 $,M
TPH,2025-07-17 09:56,-117.0904,38.0505,1654.00,62.00,20.00,19.59,40.00,3.00,0.00,30.07,1009.60,10.00,M,CLR,M,M,M,M,M,M,M,M,M,M,M,M,M,M,62.00,KTPH 170956Z AUTO 04003KT 10SM CLR 17/M07 A3007 RMK AO2 SLP096 T01671067 $,M
LAS,2025-07-17 09:56,-115.1634,36.0719,663.00,90.00,48.00,23.69,210.00,7.00,0.00,29.86,1007.80,10.00,M,BKN,M,M,M,18000.00,M,M,M,M,M,M,M,M,M,M,86.79,KLAS 170956Z 21007KT 10SM BKN180 32/09 A2986 RMK AO2 SLP078 VIRGA W ACC DSNT E T03220089,M
NFL,2025-07-17 09:57,-118.7010,39.4166,1199.00,71.00,41.00,33.70,230.00,7.00,0.00,29.94,1011.20,10.00,M,CLR,M,M,M,M,M,M,M,M,M,M,M,M,M,M,71.00,KNFL 170957Z AUTO 23007KT 10SM CLR 22/05 A2994 RMK AO2 SLP112 T02170050,M
TMT,2025-07-17 10:10,-117.1971,39.4643,1749.34,48.00,39.40,71.96,120.00,8.00,0.00,30.07,M,10.00,M,CLR,M,M,M,M,M,M,M,M,M,M,M,M,M,M,43.82,KTMT 171010Z AUTO 12008KT 10SM CLR 09/04 A3007 RMK AO2 T00880041,M
BVU,2025-07-17 10:15,-114.8611,35.9475,671.00,86.00,55.40,35.33,140.00,14.00,0.00,29.85,M,10.00,M,CLR,M,M,M,M,M,M,M,M,M,M,M,M,M,M,84.56,KBVU 171015Z AUTO 14014KT 10SM CLR 30/13 A2985 RMK AO2,M
BAM,2025-07-17 10:15,-116.8743,40.5990,1382.36,59.00,32.00,35.86,0.00,0.00,0.00,29.97,M,10.00,M,CLR,M,M,M,M,M,M,M,M,M,M,M,M,M,M,59.00,KBAM 171015Z AUTO 00000KT 10SM CLR 15/00 A2997 RMK AO1,M
CXP,2025-07-17 10:15,-119.7326,39.1923,1431.00,64.40,42.80,45.34,0.00,0.00,0.00,30.04,M,10.00,M,CLR,M,M,M,M,M,M,M,M,M,M,M,M,M,M,64.40,KCXP 171015Z AUTO 00000KT 10SM CLR 18/06 A3004 RMK AO2,M
RTS,2025-07-17 10:15,-119.8764,39.6682,1539.00,62.60,39.20,42.00,310.00,9.00,0.00,30.07,M,10.00,M,CLR,M,M,M,M,M,M,M,M,M,M,M,M,M,M,62.60,KRTS 171015Z AUTO 31009KT 10SM CLR 17/04 A3007 RMK AO2,M
05U,2025-07-17 10:15,-116.0051,39.6042,1811.23,62.60,30.20,29.34,0.00,0.00,0.00,30.09,M,10.00,M,CLR,M,M,M,M,M,M,M,M,M,M,M,M,M,M,62.60,K05U 171015Z AUTO 00000KT 10SM CLR 17/M01 A3009 RMK A01,M
MEV,2025-07-17 10:15,-119.7500,38.9963,1441.42,60.80,42.80,51.46,100.00,8.00,0.00,30.03,M,10.00,M,FEW,FEW,FEW,M,4200.00,4900.00,5500.00,M,M,M,M,M,M,M,M,60.80,KMEV 171015Z AUTO 10008KT 10SM FEW042 FEW049 FEW055 16/06 A3003 RMK AO2,M
HTH,2025-07-17 10:15,-118.6315,38.5448,1282.89,77.00,41.00,27.57,320.00,8.00,0.00,29.96,M,10.00,M,CLR,M,M,M,M,M,M,M,M,M,M,M,M,M,M,77.00,KHTH 171015Z AUTO 32008KT 10SM CLR 25/05 A2996 RMK A01,M
TMT,2025-07-17 10:30,-117.1971,39.4643,1749.34,48.60,38.00,66.61,130.00,3.00,0.00,30.07,M,10.00,M,CLR,M,M,M,M,M,M,M,M,M,M,M,M,M,M,47.67,KTMT 171030Z AUTO 13003KT 10SM CLR 09/03 A3007 RMK AO2 T00920033,M
BVU,2025-07-17 10:35,-114.8611,35.9475,671.00,86.00,55.40,35.33,140.00,12.00,0.00,29.86,M,10.00,M,CLR,M,M,M,M,M,M,M,M,M,M,M,M,M,M,84.56,KBVU 171035Z AUTO 14012KT 10SM CLR 30/13 A2986 RMK AO2,M
BAM,2025-07-17 10:35,-116.8743,40.5990,1382.36,60.80,32.00,33.64,160.00,3.00,0.00,29.97,M,10.00,M,CLR,M,M,M,M,M,M,M,M,M,M,M,M,M,M,60.80,KBAM 171035Z AUTO 16003KT 10SM CLR 16/00 A2997 RMK AO1,M
CXP,2025-07-17 10:35,-119.7326,39.1923,1431.00,62.60,42.80,48.29,290.00,5.00,0.00,30.05,M,10.00,M,CLR,M,M,M,M,M,M,M,M,M,M,M,M,M,M,62.60,KCXP 171035Z AUTO 29005KT 10SM CLR 17/06 A3005 RMK AO2,M
RTS,2025-07-17 10:35,-119.8764,39.6682,1539.00,62.60,39.20,42.00,300.00,6.00,0.00,30.08,M,10.00,M,CLR,M,M,M,M,M,M,M,M,M,M,M,M,M,M,62.60,KRTS 171035Z AUTO 30006KT 10SM CLR 17/04 A3008 RMK AO2,M
05U,2025-07-17 10:35,-116.0051,39.6042,1811.23,60.80,30.20,31.27,0.00,0.00,0.00,30.09,M,10.00,M,CLR,M,M,M,M,M,M,M,M,M,M,M,M,M,M,60.80,K05U 171035Z AUTO 00000KT 10SM CLR 16/M01 A3009 RMK A01,M
MEV,2025-07-17 10:35,-119.7500,38.9963,1441.42,57.20,42.80,58.52,0.00,0.00,0.00,30.03,M,10.00,M,CLR,M,M,M,M,M,M,M,M,M,M,M,M,M,M,57.20,KMEV 171035Z AUTO 00000KT 10SM CLR 14/06 A3003 RMK AO2,M
HTH,2025-07-17 10:35,-118.6315,38.5448,1282.89,77.00,41.00,27.57,330.00,9.00,0.00,29.97,M,10.00,M,CLR,M,M,M,M,M,M,M,M,M,M,M,M,M,M,77.00,KHTH 171035Z AUTO 33009KT 10SM CLR 25/05 A2997 RMK A01,M
TMT,2025-07-17 10:50,-117.1971,39.4643,1749.34,49.60,38.30,64.93,160.00,4.00,0.00,30.07,M,10.00,M,CLR,M,M,M,M,M,M,M,M,M,M,M,M,M,M,47.97,KTMT 171050Z AUTO 16004KT 10SM CLR 10/04 A3007 RMK AO2 T00980035,M
P68,2025-07-17 10:53,-116.0056,39.6014,1993.00,62.00,31.00,30.96,190.00,9.00,0.00,30.08,1009.00,M,M,M,M,M,M,M,M,M,M,M,M,M,M,M,M,M,62.00,KP68 171053Z AUTO 19009KT 17/M01 A3008 RMK AO1 SLP090 T01671006,M
DRA,2025-07-17 10:53,-116.0278,36.6206,1009.00,87.00,39.00,18.45,190.00,16.00,0.00,29.91,1006.50,10.00,M,CLR,M,M,M,M,M,M,M,M,M,M,M,M,M,M,83.57,KDRA 171053Z AUTO 19016KT 10SM CLR 31/04 A2991 RMK AO2 SLP065 T03060039,M
ELY,2025-07-17 10:53,-114.8453,39.2950,1909.00,67.00,25.00,20.32,210.00,11.00,0.00,30.11,1007.40,10.00,M,CLR,M,M,M,M,M,M,M,M,M,M,M,M,M,M,67.00,KELY 171053Z AUTO 21011KT 10SM CLR 19/M04 A3011 RMK AO2 SLP074 T01941039,M
VGT,2025-07-17 10:53,-115.1933,36.2111,667.00,89.00,45.00,21.83,150.00,11.00,0.00,29.84,1008.90,10.00,M,CLR,M,M,M,M,M,M,M,M,M,M,M,M,M,M,85.58,KVGT 171053Z AUTO 15011KT 10SM CLR 32/07 A2984 RMK AO2 SLP089 T03170072,M
LOL,2025-07-17 10:53,-118.5701,40.0684,1192.43,61.00,36.00,39.19,100.00,4.00,0.00,29.94,1009.00,10.00,M,CLR,M,M,M,M,M,M,M,M,M,M,M,M,M,M,61.00,KLOL 171053Z AUTO 10004KT 10SM CLR 16/02 A2994 RMK AO2 SLP090 T01610022,M
BVU,2025-07-17 10:55,-114.8611,35.9475,671.00,86.00,55.40,35.33,150.00,12.00,0.00,29.86,M,10.00,M,CLR,M,M,M,M,M,M,M,M,M,M,M,M,M,M,84.56,KBVU 171055Z AUTO 15012KT 10SM CLR 30/13 A2986 RMK AO2,M
RNO,2025-07-17 10:55,-119.7711,39.4839,1341.00,70.00,40.00,33.54,30.00,5.00,0.00,30.03,1010.10,10.00,M,FEW,M,M,M,10000.00,M,M,M,M,M,M,M,M,M,M,70.00,KRNO 171055Z 03005KT 10SM FEW100 21/04 A3003 RMK AO2 SLP101 T02110044,M
BAM,2025-07-17 10:55,-116.8743,40.5990,1382.36,62.60,32.00,31.56,110.00,4.00,0.00,29.97,M,10.00,M,CLR,M,M,M,M,M,M,M,M,M,M,M,M,M,M,62.60,KBAM 171055Z AUTO 11004KT 10SM CLR 17/00 A2997 RMK AO1,M
CXP,2025-07-17 10:55,-119.7326,39.1923,1431.00,64.40,42.80,45.34,0.00,0.00,0.00,30.05,M,10.00,M,CLR,M,M,M,M,M,M,M,M,M,M,M,M,M,M,64.40,KCXP 171055Z AUTO 00000KT 10SM CLR 18/06 A3005 RMK AO2,M
RTS,2025-07-17 10:55,-119.8764,39.6682,1539.00,60.80,39.20,44.76,320.00,6.00,0.00,30.08,M,10.00,M,CLR,M,M,M,M,M,M,M,M,M,M,M,M,M,M,60.80,KRTS 171055Z AUTO 32006KT 10SM CLR 16/04 A3008 RMK AO2,M
05U,2025-07-17 10:55,-116.0051,39.6042,1811.23,62.60,30.20,29.34,0.00,0.00,0.00,30.10,M,10.00,M,CLR,M,M,M,M,M,M,M,M,M,M,M,M,M,M,62.60,K05U 171055Z AUTO 00000KT 10SM CLR 17/M01 A3010 RMK A01,M
MEV,2025-07-17 10:55,-119.7500,38.9963,1441.42,59.00,42.80,54.86,0.00,0.00,0.00,30.04,M,10.00,M,CLR,M,M,M,M,M,M,M,M,M,M,M,M,M,M,59.00,KMEV 171055Z AUTO 00000KT 10SM CLR 15/06 A3004 RMK AO2,M
HTH,2025-07-17 10:55,-118.6315,38.5448,1282.89,77.00,41.00,27.57,340.00,5.00,0.00,29.97,M,10.00,M,CLR,M,M,M,M,M,M,M,M,M,M,M,M,M,M,77.00,KHTH 171055Z AUTO 34005KT 10SM CLR 25/05 A2997 RMK A01,M
INS,2025-07-17 10:55,-115.6733,36.5872,955.00,81.50,40.00,22.88,270.00,4.00,0.00,29.90,1006.20,10.00,M,SCT,BKN,M,M,16000.00,19000.00,M,M,M,M,M,M,M,M,M,79.68,KINS 171055Z AUTO 27004KT 10SM SCT160 BKN190 28/05 A2990 RMK AO2 SLP062 T02750045 $,M
LSV,2025-07-17 10:55,-115.0343,36.2362,570.00,90.70,52.00,26.90,150.00,13.00,0.00,29.80,1005.80,10.00,M,SCT,BKN,M,M,17000.00,19000.00,M,M,M,M,M,M,M,M,M,88.08,KLSV 171055Z 15013KT 10SM SCT170 BKN190 33/11 A2980 RMK AO2A SLP058 T03260111 $,M
EKO,2025-07-17 10:56,-115.7860,40.8242,1367.00,60.00,39.00,45.69,90.00,3.00,0.00,30.00,1009.60,10.00,M,CLR,M,M,M,M,M,M,M,M,M,M,M,M,M,M,60.00,KEKO 171056Z AUTO 09003KT 10SM CLR 16/04 A3000 RMK AO2 SLP096 T01560039,M
WMC,2025-07-17 10:56,-117.8072,40.9019,1315.00,63.00,35.00,35.10,0.00,0.00,0.00,29.95,1008.40,10.00,M,CLR,M,M,M,M,M,M,M,M,M,M,M,M,M,M,63.00,KWMC 171056Z AUTO 00000KT 10SM CLR 17/02 A2995 RMK AO2 SLP084 T01720017 TSNO,M
HND,2025-07-17 10:56,-115.1344,35.9729,742.79,87.00,48.00,26.04,200.00,14.00,0.00,29.89,1010.00,10.00,M,CLR,M,M,M,M,M,M,M,M,M,M,M,M,M,M,84.19,KHND 171056Z AUTO 20014KT 10SM CLR 31/09 A2989 RMK AO2 SLP100 T03060089 $,M
TPH,2025-07-17 10:56,-117.0904,38.0505,1654.00,59.00,19.00,20.89,330.00,4.00,0.00,30.08,1010.00,10.00,M,M,M,M,M,M,M,M,M,M,M,M,M,M,M,M,59.00,KTPH 171056Z AUTO 33004KT 10SM 15/M07 A3008 RMK AO2 SLP100 T01501072 $,M
LAS,2025-07-17 10:56,-115.1634,36.0719,663.00,89.00,45.00,21.83,180.00,7.00,0.00,29.87,1008.10,10.00,M,SCT,M,M,M,19000.00,M,M,M,M,M,M,M,M,M,M,85.58,KLAS 171056Z COR 18007KT 10SM SCT190 32/07 A2987 RMK AO2 SLP081 T03170072,M
NFL,2025-07-17 10:57,-118.7010,39.4166,1199.00,68.00,41.00,37.34,220.00,3.00,0.00,29.95,1011.40,10.00,M,CLR,M,M,M,M,M,M,M,M,M,M,M,M,M,M,68.00,KNFL 171057Z AUTO 22003KT 10SM CLR 20/05 A2995 RMK AO2 SLP114 T02000050,M
TMT,2025-07-17 11:10,-117.1971,39.4643,1749.34,47.50,39.40,73.33,270.00,4.00,0.00,30.07,M,10.00,M,CLR,M,M,M,M,M,M,M,M,M,M,M,M,M,M,45.52,KTMT 171110Z AUTO 27004KT 10SM CLR 09/04 A3007 RMK AO2 T00860041,M
BVU,2025-07-17 11:15,-114.8611,35.9475,671.00,86.00,55.40,35.33,140.00,13.00,0.00,29.86,M,10.00,M,CLR,M,M,M,M,M,M,M,M,M,M,M,M,M,M,84.56,KBVU 171115Z AUTO 14013KT 10SM CLR 30/13 A2986 RMK AO2,M
BAM,2025-07-17 11:15,-116.8743,40.5990,1382.36,59.00,32.00,35.86,280.00,5.00,0.00,29.97,M,10.00,M,CLR,M,M,M,M,M,M,M,M,M,M,M,M,M,M,59.00,KBAM 171115Z AUTO 28005KT 10SM CLR 15/00 A2997 RMK AO1,M
CXP,2025-07-17 11:15,-119.7326,39.1923,1431.00,62.60,44.60,51.73,0.00,0.00,0.00,30.05,M,10.00,M,CLR,M,M,M,M,M,M,M,M,M,M,M,M,M,M,62.60,KCXP 171115Z AUTO 00000KT 10SM CLR 17/07 A3005 RMK AO2,M
RTS,2025-07-17 11:15,-119.8764,39.6682,1539.00,62.60,39.20,42.00,310.00,8.00,0.00,30.08,M,10.00,M,CLR,M,M,M,M,M,M,M,M,M,M,M,M,M,M,62.60,KRTS 171115Z AUTO 31008KT 10SM CLR 17/04 A3008 RMK AO2,M
05U,2025-07-17 11:15,-116.0051,39.6042,1811.23,60.80,30.20,31.27,0.00,0.00,0.00,30.10,M,10.00,M,CLR,M,M,M,M,M,M,M,M,M,M,M,M,M,M,60.80,K05U 171115Z AUTO 00000KT 10SM CLR 16/M01 A3010 RMK A01,M
MEV,2025-07-17 11:15,-119.7500,38.9963,1441.42,57.20,42.80,58.52,0.00,0.00,0.00,30.04,M,10.00,M,CLR,M,M,M,M,M,M,M,M,M,M,M,M,M,M,57.20,KMEV 171115Z AUTO 00000KT 10SM CLR 14/06 A3004 RMK AO2,M
HTH,2025-07-17 11:15,-118.6315,38.5448,1282.89,73.40,44.60,35.69,0.00,0.00,0.00,29.98,M,10.00,M,CLR,M,M,M,M,M,M,M,M,M,M,M,M,M,M,73.40,KHTH 171115Z AUTO 00000KT 10SM CLR 23/07 A2998 RMK A01,M
RTS,2025-07-17 11:25,-119.8764,39.6682,1539.00,60.80,39.20,44.76,320.00,9.00,0.00,30.08,M,10.00,M,CLR,M,M,M,M,M,M,M,M,M,M,M,M,M,M,60.80,KRTS 171125Z AUTO 32009KT 10SM CLR 16/04 A3008 RMK AO2,M
MEV,2025-07-17 11:25,-119.7500,38.9963,1441.42,55.40,41.00,58.27,130.00,3.00,0.00,30.04,M,10.00,M,CLR,M,M,M,M,M,M,M,M,M,M,M,M,M,M,55.40,KMEV 171125Z AUTO 13003KT 10SM CLR 13/05 A3004 RMK AO2,M
TMT,2025-07-17 11:30,-117.1971,39.4643,1749.34,48.60,39.70,71.19,330.00,4.00,0.00,30.08,M,10.00,M,CLR,M,M,M,M,M,M,M,M,M,M,M,M,M,M,46.80,KTMT 171130Z AUTO 33004KT 10SM CLR 09/04 A3008 RMK AO2 T00920043,M
BVU,2025-07-17 11:35,-114.8611,35.9475,671.00,86.00,55.40,35.33,150.00,12.00,0.00,29.86,M,10.00,M,CLR,M,M,M,M,M,M,M,M,M,M,M,M,M,M,84.56,KBVU 171135Z AUTO 15012KT 10SM CLR 30/13 A2986 RMK AO2,M
BAM,2025-07-17 11:35,-116.8743,40.5990,1382.36,59.00,32.00,35.86,0.00,0.00,0.00,29.97,M,10.00,M,CLR,M,M,M,M,M,M,M,M,M,M,M,M,M,M,59.00,KBAM 171135Z AUTO 00000KT 10SM CLR 15/00 A2997 RMK AO1,M
CXP,2025-07-17 11:35,-119.7326,39.1923,1431.00,60.80,44.60,55.13,0.00,0.00,0.00,30.05,M,10.00,M,CLR,M,M,M,M,M,M,M,M,M,M,M,M,M,M,60.80,KCXP 171135Z AUTO 00000KT 10SM CLR 16/07 A3005 RMK AO2,M
05U,2025-07-17 11:35,-116.0051,39.6042,1811.23,62.60,30.20,29.34,0.00,0.00,0.00,30.10,M,10.00,M,CLR,M,M,M,M,M,M,M,M,M,M,M,M,M,M,62.60,K05U 171135Z AUTO 00000KT 10SM CLR 17/M01 A3010 RMK A01,M
HTH,2025-07-17 11:35,-118.6315,38.5448,1282.89,73.40,46.40,38.21,0.00,0.00,0.00,29.98,M,10.00,M,CLR,M,M,M,M,M,M,M,M,M,M,M,M,M,M,73.40,KHTH 171135Z AUTO 00000KT 10SM CLR 23/08 A2998 RMK A01,M
TMT,2025-07-17 11:50,-117.1971,39.4643,1749.34,49.00,38.30,66.40,190.00,5.00,0.00,30.08,M,10.00,M,CLR,M,M,M,M,M,M,M,M,M,M,M,M,M,M,46.58,KTMT 171150Z AUTO 19005KT 10SM CLR 10/04 A3008 RMK AO2 T00950035,M
P68,2025-07-17 11:53,-116.0056,39.6014,1993.00,59.00,30.00,33.07,190.00,5.00,0.00,30.07,1009.10,M,M,M,M,M,M,M,M,M,M,M,M,M,M,M,M,M,59.00,KP68 171153Z AUTO 19005KT 15/M01 A3007 RMK AO1 SLP091 T01501011 10222 20144 50004,M
DRA,2025-07-17 11:53,-116.0278,36.6206,1009.00,85.00,39.00,19.66,190.00,10.00,0.00,29.92,1007.00,10.00,M,CLR,M,M,M,M,M,M,M,M,M,M,M,M,M,M,82.02,KDRA 171153Z AUTO 19010KT 10SM CLR 29/04 A2992 RMK AO2 SLP070 T02940039 10322 20294 53006,M
ELY,2025-07-17 11:53,-114.8453,39.2950,1909.00,65.00,27.00,23.66,220.00,13.00,0.00,30.13,1008.20,10.00,M,CLR,M,M,M,M,M,M,M,M,M,M,M,M,M,M,65.00,KELY 171153Z AUTO 22013KT 10SM CLR 18/M03 A3013 RMK AO2 SLP082 T01831028 10211 20167 53006,M
VGT,2025-07-17 11:53,-115.1933,36.2111,667.00,88.00,46.00,23.40,140.00,10.00,0.00,29.85,1009.00,10.00,M,CLR,M,M,M,M,M,M,M,M,M,M,M,M,M,M,84.82,KVGT 171153Z AUTO 14010KT 10SM CLR 31/08 A2985 RMK AO2 SLP090 T03110078 10344 20311 51006,M
LOL,2025-07-17 11:53,-118.5701,40.0684,1192.43,59.00,36.00,42.08,290.00,4.00,0.00,29.94,1009.40,10.00,M,CLR,M,M,M,M,M,M,M,M,M,M,M,M,M,M,59.00,KLOL 171153Z AUTO 29004KT 10SM CLR 15/02 A2994 RMK AO2 SLP094 T01500022 10289 20144 51009,M
BVU,2025-07-17 11:55,-114.8611,35.9475,671.00,84.20,55.40,37.42,150.00,14.00,0.00,29.87,M,10.00,M,CLR,M,M,M,M,M,M,M,M,M,M,M,M,M,M,83.10,KBVU 171155Z AUTO 15014KT 10SM CLR 29/13 A2987 RMK AO2,M
RNO,2025-07-17 11:55,-119.7711,39.4839,1341.00,67.00,43.00,41.74,300.00,3.00,0.00,30.03,1010.50,10.00,M,FEW,M,M,M,10000.00,M,M,M,M,M,M,M,M,M,M,67.00,KRNO 171155Z 30003KT 10SM FEW100 19/06 A3003 RMK AO2 SLP105 T01940061 10256 20194 53004,M
BAM,2025-07-17 11:55,-116.8743,40.5990,1382.36,59.00,32.00,35.86,120.00,4.00,0.00,29.98,M,10.00,M,CLR,M,M,M,M,M,M,M,M,M,M,M,M,M,M,59.00,KBAM 171155Z AUTO 12004KT 10SM CLR 15/00 A2998 RMK AO1,M
CXP,2025-07-17 11:55,-119.7326,39.1923,1431.00,60.80,44.60,55.13,0.00,0.00,0.00,30.06,M,10.00,M,CLR,M,M,M,M,M,M,M,M,M,M,M,M,M,M,60.80,KCXP 171155Z AUTO 00000KT 10SM CLR 16/07 A3006 RMK AO2,M
RTS,2025-07-17 11:55,-119.8764,39.6682,1539.00,57.20,35.60,44.18,310.00,6.00,0.00,30.08,M,10.00,M,CLR,M,M,M,M,M,M,M,M,M,M,M,M,M,M,57.20,KRTS 171155Z AUTO 31006KT 10SM CLR 14/02 A3008 RMK AO2,M
05U,2025-07-17 11:55,-116.0051,39.6042,1811.23,59.00,30.20,33.34,0.00,0.00,0.00,30.10,M,10.00,M,CLR,M,M,M,M,M,M,M,M,M,M,M,M,M,M,59.00,K05U 171155Z AUTO 00000KT 10SM CLR 15/M01 A3010 RMK A01,M
MEV,2025-07-17 11:55,-119.7500,38.9963,1441.42,53.60,42.80,66.70,120.00,5.00,0.00,30.04,M,10.00,M,CLR,M,M,M,M,M,M,M,M,M,M,M,M,M,M,53.60,KMEV 171155Z AUTO 12005KT 10SM CLR 12/06 A3004 RMK AO2,M
HTH,2025-07-17 11:55,-118.6315,38.5448,1282.89,71.60,48.20,43.45,0.00,0.00,0.00,29.99,M,10.00,M,CLR,M,M,M,M,M,M,M,M,M,M,M,M,M,M,71.60,KHTH 171155Z AUTO 00000KT 10SM CLR 22/09 A2999 RMK A01,M
INS,2025-07-17 11:55,-115.6733,36.5872,955.00,79.70,41.70,25.92,0.00,0.00,0.00,29.91,1006.60,10.00,M,CLR,M,M,M,M,M,M,M,M,M,M,M,M,M,M,79.70,KINS 171155Z AUTO 00000KT 10SM CLR 27/05 A2991 RMK AO2 SLP066 T02650054 10322 20256 52008 $,M
LSV,2025-07-17 11:55,-115.0343,36.2362,570.00,90.00,51.60,27.09,170.00,15.00,0.00,29.80,1005.80,10.00,M,BKN,M,M,M,17000.00,M,M,M,M,M,M,M,M,M,M,87.34,KLSV 171155Z 17015KT 10SM BKN170 32/11 A2980 RMK AO2A SLP058 T03230109 10355 20323 51007 $,M
EKO,2025-07-17 11:56,-115.7860,40.8242,1367.00,55.00,41.00,59.13,0.00,0.00,0.00,30.02,1010.40,10.00,M,CLR,M,M,M,M,M,M,M,M,M,M,M,M,M,M,55.00,KEKO 171156Z AUTO 00000KT 10SM CLR 13/05 A3002 RMK AO2 SLP104 T01280050 10217 20122 53008,M
WMC,2025-07-17 11:56,-117.8072,40.9019,1315.00,57.00,34.00,41.75,0.00,0.00,0.00,29.96,1009.10,10.00,M,CLR,M,M,M,M,M,M,M,M,M,M,M,M,M,M,57.00,KWMC 171156Z AUTO 00000KT 10SM CLR 14/01 A2996 RMK AO2 SLP091 T01390011 10256 20139 51008 TSNO,M
HND,2025-07-17 11:56,-115.1344,35.9729,742.79,85.00,53.00,33.41,170.00,10.00,0.00,29.90,1010.70,10.00,M,CLR,M,M,M,M,M,M,M,M,M,M,M,M,M,M,83.28,KHND 171156Z AUTO 17010KT 10SM CLR 29/12 A2990 RMK AO2 SLP107 T02940117 10333 20289 53008 $,M
TPH,2025-07-17 11:56,-117.0904,38.0505,1654.00,58.00,21.00,23.57,340.00,5.00,0.00,30.08,1010.30,10.00,M,CLR,M,M,M,M,M,M,M,M,M,M,M,M,M,M,58.00,KTPH 171156Z AUTO 34005KT 10SM CLR 14/M06 A3008 RMK AO2 SLP103 T01441061 10233 20144 53004 $,M
LAS,2025-07-17 11:56,-115.1634,36.0719,663.00,88.00,43.00,20.87,160.00,6.00,0.00,29.87,1008.20,10.00,M,BKN,M,M,M,19000.00,M,M,M,M,M,M,M,M,M,M,84.58,KLAS 171156Z 16006KT 10SM BKN190 31/06 A2987 RMK AO2 SLP082 T03110061 10350 20311 51005,M
NFL,2025-07-17 11:57,-118.7010,39.4166,1199.00,64.00,39.00,39.68,200.00,3.00,0.00,29.96,1011.60,10.00,M,CLR,M,M,M,M,M,M,M,M,M,M,M,M,M,M,64.00,KNFL 171157Z AUTO 20003KT 10SM CLR 18/04 A2996 RMK AO2 SLP116 T01780039 10278 20167 53005,M
RTS,2025-07-17 12:05,-119.8764,39.6682,1539.00,57.20,37.40,47.44,320.00,7.00,0.00,30.08,M,10.00,M,CLR,M,M,M,M,M,M,M,M,M,M,M,M,M,M,57.20,KRTS 171205Z AUTO 32007KT 10SM CLR 14/03 A3008 RMK AO2,M
MEV,2025-07-17 12:05,-119.7500,38.9963,1441.42,55.40,42.80,62.46,0.00,0.00,0.00,30.04,M,10.00,M,CLR,M,M,M,M,M,M,M,M,M,M,M,M,M,M,55.40,KMEV 171205Z AUTO 00000KT 10SM CLR 13/06 A3004 RMK AO2,M
TMT,2025-07-17 12:10,-117.1971,39.4643,1749.34,46.20,38.00,72.91,0.00,0.00,0.00,30.09,M,10.00,M,CLR,M,M,M,M,M,M,M,M,M,M,M,M,M,M,46.20,KTMT 171210Z AUTO 00000KT 10SM CLR 08/03 A3009 RMK AO2 T00790033,M
BVU,2025-07-17 12:15,-114.8611,35.9475,671.00,84.20,57.20,39.93,150.00,15.00,0.00,29.88,M,10.00,M,CLR,M,M,M,M,M,M,M,M,M,M,M,M,M,M,83.48,KBVU 171215Z AUTO 15015KT 10SM CLR 29/14 A2988 RMK AO2,M
BAM,2025-07-17 12:15,-116.8743,40.5990,1382.36,53.60,30.20,40.53,0.00,0.00,0.00,29.99,M,10.00,M,CLR,M,M,M,M,M,M,M,M,M,M,M,M,M,M,53.60,KBAM 171215Z AUTO 00000KT 10SM CLR 12/M01 A2999 RMK AO1,M
CXP,2025-07-17 12:15,-119.7326,39.1923,1431.00,60.80,44.60,55.13,0.00,0.00,0.00,30.06,M,10.00,M,CLR,M,M,M,M,M,M,M,M,M,M,M,M,M,M,60.80,KCXP 171215Z AUTO 00000KT 10SM CLR 16/07 A3006 RMK AO2,M
05U,2025-07-17 12:15,-116.0051,39.6042,1811.23,55.40,28.40,35.27,0.00,0.00,0.00,30.10,M,10.00,M,CLR,M,M,M,M,M,M,M,M,M,M,M,M,M,M,55.40,K05U 171215Z AUTO 00000KT 10SM CLR 13/M02 A3010 RMK A01,M
HTH,2025-07-17 12:15,-118.6315,38.5448,1282.89,71.60,48.20,43.45,0.00,0.00,0.00,29.99,M,10.00,M,CLR,M,M,M,M,M,M,M,M,M,M,M,M,M,M,71.60,KHTH 171215Z AUTO 00000KT 10SM CLR 22/09 A2999 RMK A01,M
TMT,2025-07-17 12:30,-117.1971,39.4643,1749.34,43.70,38.70,82.41,160.00,5.00,0.00,30.09,M,10.00,M,CLR,M,M,M,M,M,M,M,M,M,M,M,M,M,M,40.29,KTMT 171230Z AUTO 16005KT 10SM CLR 07/04 A3009 RMK AO2 T00650037,M
BVU,2025-07-17 12:35,-114.8611,35.9475,671.00,84.20,57.20,39.93,150.00,15.00,0.00,29.88,M,10.00,M,CLR,M,M,M,M,M,M,M,M,M,M,M,M,M,M,83.48,KBVU 171235Z AUTO 15015KT 10SM CLR 29/14 A2988 RMK AO2,M
BAM,2025-07-17 12:35,-116.8743,40.5990,1382.36,55.40,30.20,37.96,0.00,0.00,0.00,29.99,M,10.00,M,CLR,M,M,M,M,M,M,M,M,M,M,M,M,M,M,55.40,KBAM 171235Z AUTO 00000KT 10SM CLR 13/M01 A2999 RMK AO1,M
CXP,2025-07-17 12:35,-119.7326,39.1923,1431.00,62.60,44.60,51.73,0.00,0.00,0.00,30.06,M,10.00,M,CLR,M,M,M,M,M,M,M,M,M,M,M,M,M,M,62.60,KCXP 171235Z AUTO 00000KT 10SM CLR 17/07 A3006 RMK AO2,M
RTS,2025-07-17 12:35,-119.8764,39.6682,1539.00,53.60,35.60,50.35,310.00,8.00,0.00,30.09,M,10.00,M,CLR,M,M,M,M,M,M,M,M,M,M,M,M,M,M,53.60,KRTS 171235Z AUTO 31008KT 10SM CLR 12/02 A3009 RMK AO2,M
05U,2025-07-17 12:35,-116.0051,39.6042,1811.23,53.60,28.40,37.66,0.00,0.00,0.00,30.11,M,10.00,M,CLR,M,M,M,M,M,M,M,M,M,M,M,M,M,M,53.60,K05U 171235Z AUTO 00000KT 10SM CLR 12/M02 A3011 RMK A01,M
MEV,2025-07-17 12:35,-119.7500,38.9963,1441.42,55.40,42.80,62.46,180.00,3.00,0.00,30.05,M,10.00,M,CLR,M,M,M,M,M,M,M,M,M,M,M,M,M,M,55.40,KMEV 171235Z AUTO 18003KT 10SM CLR 13/06 A3005 RMK AO2,M
HTH,2025-07-17 12:35,-118.6315,38.5448,1282.89,71.60,48.20,43.45,240.00,4.00,0.00,30.00,M,10.00,M,CLR,M,M,M,M,M,M,M,M,M,M,M,M,M,M,71.60,KHTH 171235Z AUTO 24004KT 10SM CLR 22/09 A3000 RMK A01,M
RTS,2025-07-17 12:45,-119.8764,39.6682,1539.00,55.40,35.60,47.15,310.00,8.00,0.00,30.09,M,10.00,M,CLR,M,M,M,M,M,M,M,M,M,M,M,M,M,M,55.40,KRTS 171245Z AUTO 31008KT 10SM CLR 13/02 A3009 RMK AO2,M
MEV,2025-07-17 12:45,-119.7500,38.9963,1441.42,53.60,42.80,66.70,M,4.00,0.00,30.06,M,10.00,M,CLR,M,M,M,M,M,M,M,M,M,M,M,M,M,M,53.60,KMEV 171245Z AUTO VRB04KT 10SM CLR 12/06 A3006 RMK AO2,M
TMT,2025-07-17 12:50,-117.1971,39.4643,1749.34,43.30,37.40,79.52,160.00,5.00,0.00,30.10,M,10.00,M,CLR,M,M,M,M,M,M,M,M,M,M,M,M,M,M,39.82,KTMT 171250Z AUTO 16005KT 10SM CLR 06/03 A3010 RMK AO2 T00630030,M
P68,2025-07-17 12:53,-116.0056,39.6014,1993.00,52.00,29.00,40.93,230.00,4.00,0.00,30.09,1010.50,M,M,M,M,M,M,M,M,M,M,M,M,M,M,M,M,M,52.00,KP68 171253Z AUTO 23004KT 11/M02 A3009 RMK AO1 SLP105 T01111017,M
DRA,2025-07-17 12:53,-116.0278,36.6206,1009.00,83.00,40.00,21.80,0.00,0.00,0.00,29.93,1007.70,10.00,M,CLR,M,M,M,M,M,M,M,M,M,M,M,M,M,M,80.64,KDRA 171253Z AUTO 00000KT 10SM CLR 28/04 A2993 RMK AO2 SLP077 T02830044,M
ELY,2025-07-17 12:53,-114.8453,39.2950,1909.00,63.00,29.00,27.55,210.00,12.00,0.00,30.14,1009.10,10.00,M,CLR,M,M,M,M,M,M,M,M,M,M,M,M,M,M,63.00,KELY 171253Z AUTO 21012KT 10SM CLR 17/M02 A3014 RMK AO2 SLP091 T01721017,M
VGT,2025-07-17 12:53,-115.1933,36.2111,667.00,86.00,51.00,30.06,130.00,11.00,0.00,29.87,1009.90,10.00,M,CLR,M,M,M,M,M,M,M,M,M,M,M,M,M,M,83.76,KVGT 171253Z AUTO 13011KT 10SM CLR 30/11 A2987 RMK AO2 SLP099 T03000106,M
LOL,2025-07-17 12:53,-118.5701,40.0684,1192.43,61.00,37.00,40.77,0.00,0.00,0.00,29.95,1009.60,10.00,M,CLR,M,M,M,M,M,M,M,M,M,M,M,M,M,M,61.00,KLOL 171253Z AUTO 00000KT 10SM CLR 16/03 A2995 RMK AO2 SLP096 T01610028,M
BVU,2025-07-17 12:55,-114.8611,35.9475,671.00,82.40,57.20,42.32,160.00,8.00,0.00,29.90,M,10.00,M,CLR,M,M,M,M,M,M,M,M,M,M,M,M,M,M,82.09,KBVU 171255Z AUTO 16008KT 10SM CLR 28/14 A2990 RMK AO2,M
RNO,2025-07-17 12:55,-119.7711,39.4839,1341.00,68.00,41.00,37.34,350.00,4.00,0.00,30.05,1011.10,10.00,M,FEW,M,M,M,10000.00,M,M,M,M,M,M,M,M,M,M,68.00,KRNO 171255Z 35004KT 10SM FEW100 20/05 A3005 RMK AO2 SLP111 T02000050,M
BAM,2025-07-17 12:55,-116.8743,40.5990,1382.36,53.60,30.20,40.53,130.00,4.00,0.00,29.99,M,10.00,M,CLR,M,M,M,M,M,M,M,M,M,M,M,M,M,M,53.60,KBAM 171255Z AUTO 13004KT 10SM CLR 12/M01 A2999 RMK AO1,M
CXP,2025-07-17 12:55,-119.7326,39.1923,1431.00,62.60,42.80,48.29,0.00,0.00,0.00,30.07,M,10.00,M,CLR,M,M,M,M,M,M,M,M,M,M,M,M,M,M,62.60,KCXP 171255Z AUTO 00000KT 10SM CLR 17/06 A3007 RMK AO2,M
05U,2025-07-17 12:55,-116.0051,39.6042,1811.23,53.60,30.20,40.53,0.00,0.00,0.00,30.11,M,10.00,M,CLR,M,M,M,M,M,M,M,M,M,M,M,M,M,M,53.60,K05U 171255Z AUTO 00000KT 10SM CLR 12/M01 A3011 RMK A01,M
HTH,2025-07-17 12:55,-118.6315,38.5448,1282.89,71.60,50.00,46.47,M,4.00,0.00,30.00,M,10.00,M,CLR,M,M,M,M,M,M,M,M,M,M,M,M,M,M,71.60,KHTH 171255Z AUTO VRB04KT 10SM CLR 22/10 A3000 RMK A01,M
INS,2025-07-17 12:55,-115.6733,36.5872,955.00,78.00,44.00,29.93,250.00,4.00,0.00,29.92,1007.00,10.00,M,CLR,M,M,M,M,M,M,M,M,M,M,M,M,M,M,78.00,KINS 171255Z AUTO 25004KT 10SM CLR 26/07 A2992 RMK AO2 SLP070 T02560067 $,M
LSV,2025-07-17 12:55,-115.0343,36.2362,570.00,88.00,55.20,32.92,160.00,19.00,0.00,29.82,1006.50,10.00,M,BKN,BKN,M,M,17000.00,19000.00,M,M,M,M,M,M,30.00,190.00,2025-07-17 12:22,86.26,KLSV 171255Z 16019KT 10SM BKN170 BKN190 31/13 A2982 RMK AO2A PK WND 19030/22 SLP065 T03110129 $,M
EKO,2025-07-17 12:56,-115.7860,40.8242,1367.00,57.00,39.00,50.88,100.00,4.00,0.00,30.03,1010.80,10.00,M,CLR,M,M,M,M,M,M,M,M,M,M,M,M,M,M,57.00,KEKO 171256Z AUTO 10004KT 10SM CLR 14/04 A3003 RMK AO2 SLP108 T01390039,M
WMC,2025-07-17 12:56,-117.8072,40.9019,1315.00,54.00,30.00,39.62,160.00,7.00,0.00,29.97,1009.80,10.00,M,CLR,M,M,M,M,M,M,M,M,M,M,M,M,M,M,54.00,KWMC 171256Z AUTO 16007KT 10SM CLR 12/M01 A2997 RMK AO2 SLP098 T01221011 TSNO,M
HND,2025-07-17 12:56,-115.1344,35.9729,742.79,83.00,56.00,39.74,170.00,12.00,0.00,29.93,1011.50,10.00,M,CLR,M,M,M,M,M,M,M,M,M,M,M,M,M,M,82.30,KHND 171256Z 17012KT 10SM CLR 28/13 A2993 RMK AO2 SLP115 T02830133 $,M
TPH,2025-07-17 12:56,-117.0904,38.0505,1654.00,58.00,20.00,22.59,350.00,7.00,0.00,30.10,1011.00,10.00,M,CLR,M,M,M,M,M,M,M,M,M,M,M,M,M,M,58.00,KTPH 171256Z AUTO 35007KT 10SM CLR 14/M07 A3010 RMK AO2 SLP110 T01441067 $,M
LAS,2025-07-17 12:56,-115.1634,36.0719,663.00,86.00,52.00,31.19,160.00,6.00,0.00,29.90,1009.10,10.00,15.00,FEW,SCT,SCT,M,11000.00,15000.00,20000.00,M,M,M,M,M,M,M,M,83.92,KLAS 171256Z 16006G15KT 10SM FEW110 SCT150 SCT200 30/11 A2990 RMK AO2 SLP091 T03000111,M
NFL,2025-07-17 12:57,-118.7010,39.4166,1199.00,65.00,40.00,39.84,0.00,0.00,0.00,29.97,1012.10,9.00,M,CLR,M,M,M,M,M,M,M,M,M,M,M,M,M,M,65.00,KNFL 171257Z AUTO 00000KT 9SM CLR 18/04 A2997 RMK AO2 SLP121 T01830044,M
05U,2025-07-17 13:10,-116.0051,39.6042,1811.23,55.40,30.20,37.96,0.00,0.00,0.00,30.12,M,10.00,M,CLR,M,M,M,M,M,M,M,M,M,M,M,M,M,M,55.40,K05U 171310Z AUTO 00000KT 10SM CLR 13/M01 A3012 RMK A01,M
TMT,2025-07-17 13:10,-117.1971,39.4643,1749.34,46.00,38.50,74.91,0.00,0.00,0.00,30.10,M,10.00,M,CLR,M,M,M,M,M,M,M,M,M,M,M,M,M,M,46.00,KTMT 171310Z AUTO 00000KT 10SM CLR 08/04 A3010 RMK AO2 T00770036,M
BVU,2025-07-17 13:15,-114.8611,35.9475,671.00,82.40,57.20,42.32,170.00,5.00,0.00,29.90,M,10.00,M,CLR,M,M,M,M,M,M,M,M,M,M,M,M,M,M,82.09,KBVU 171315Z AUTO 17005KT 10SM CLR 28/14 A2990 RMK AO2,M
BAM,2025-07-17 13:15,-116.8743,40.5990,1382.36,55.40,32.00,40.83,90.00,3.00,0.00,29.99,M,10.00,M,CLR,M,M,M,M,M,M,M,M,M,M,M,M,M,M,55.40,KBAM 171315Z AUTO 09003KT 10SM CLR 13/00 A2999 RMK AO1,M
CXP,2025-07-17 13:15,-119.7326,39.1923,1431.00,62.60,44.60,51.73,0.00,0.00,0.00,30.07,M,10.00,M,CLR,M,M,M,M,M,M,M,M,M,M,M,M,M,M,62.60,KCXP 171315Z AUTO 00000KT 10SM CLR 17/07 A3007 RMK AO2,M
RTS,2025-07-17 13:15,-119.8764,39.6682,1539.00,57.20,35.60,44.18,330.00,9.00,0.00,30.10,M,10.00,M,CLR,M,M,M,M,M,M,M,M,M,M,M,M,M,M,57.20,KRTS 171315Z AUTO 33009KT 10SM CLR 14/02 A3010 RMK AO2,M
MEV,2025-07-17 13:15,-119.7500,38.9963,1441.42,51.80,42.80,71.26,0.00,0.00,0.00,30.06,M,9.00,M,CLR,M,M,M,M,M,M,M,M,M,M,M,M,M,M,51.80,KMEV 171315Z AUTO 00000KT 9SM CLR 11/06 A3006 RMK AO2,M
HTH,2025-07-17 13:15,-118.6315,38.5448,1282.89,73.40,48.20,40.89,0.00,0.00,0.00,30.01,M,10.00,M,CLR,M,M,M,M,M,M,M,M,M,M,M,M,M,M,73.40,KHTH 171315Z AUTO 00000KT 10SM CLR 23/09 A3001 RMK A01,M
TMT,2025-07-17 13:30,-117.1971,39.4643,1749.34,49.50,39.70,68.84,350.00,3.00,0.00,30.11,M,10.00,M,CLR,M,M,M,M,M,M,M,M,M,M,M,M,M,M,48.69,KTMT 171330Z AUTO 35003KT 10SM CLR 10/04 A3011 RMK AO2 T00970043,M
BVU,2025-07-17 13:35,-114.8611,35.9475,671.00,82.40,57.20,42.32,170.00,9.00,0.00,29.91,M,10.00,M,CLR,M,M,M,M,M,M,M,M,M,M,M,M,M,M,82.09,KBVU 171335Z AUTO 17009KT 10SM CLR 28/14 A2991 RMK AO2,M
BAM,2025-07-17 13:35,-116.8743,40.5990,1382.36,60.80,32.00,33.64,0.00,0.00,0.00,30.00,M,10.00,M,CLR,M,M,M,M,M,M,M,M,M,M,M,M,M,M,60.80,KBAM 171335Z AUTO 00000KT 10SM CLR 16/00 A3000 RMK AO1,M
CXP,2025-07-17 13:35,-119.7326,39.1923,1431.00,62.60,44.60,51.73,180.00,4.00,0.00,30.07,M,10.00,M,CLR,M,M,M,M,M,M,M,M,M,M,M,M,M,M,62.60,KCXP 171335Z AUTO 18004KT 10SM CLR 17/07 A3007 RMK AO2,M
RTS,2025-07-17 13:35,-119.8764,39.6682,1539.00,59.00,37.40,44.47,330.00,10.00,0.00,30.10,M,10.00,M,CLR,M,M,M,M,M,M,M,M,M,M,M,M,M,M,59.00,KRTS 171335Z AUTO 33010KT 10SM CLR 15/03 A3010 RMK AO2,M
05U,2025-07-17 13:35,-116.0051,39.6042,1811.23,62.60,30.20,29.34,0.00,0.00,0.00,30.12,M,10.00,M,CLR,M,M,M,M,M,M,M,M,M,M,M,M,M,M,62.60,K05U 171335Z AUTO 00000KT 10SM CLR 17/M01 A3012 RMK A01,M
MEV,2025-07-17 13:35,-119.7500,38.9963,1441.42,53.60,42.80,66.70,110.00,4.00,0.00,30.07,M,10.00,M,CLR,M,M,M,M,M,M,M,M,M,M,M,M,M,M,53.60,KMEV 171335Z AUTO 11004KT 10SM CLR 12/06 A3007 RMK AO2,M
HTH,2025-07-17 13:35,-118.6315,38.5448,1282.89,73.40,46.40,38.21,0.00,0.00,0.00,30.02,M,10.00,M,CLR,M,M,M,M,M,M,M,M,M,M,M,M,M,M,73.40,KHTH 171335Z AUTO 00000KT 10SM CLR 23/08 A3002 RMK A01,M
RTS,2025-07-17 13:45,-119.8764,39.6682,1539.00,60.80,37.40,41.71,330.00,7.00,0.00,30.10,M,10.00,M,CLR,M,M,M,M,M,M,M,M,M,M,M,M,M,M,60.80,KRTS 171345Z AUTO 33007KT 10SM CLR 16/03 A3010 RMK AO2,M
MEV,2025-07-17 13:45,-119.7500,38.9963,1441.42,55.40,42.80,62.46,110.00,4.00,0.00,30.07,M,10.00,M,CLR,M,M,M,M,M,M,M,M,M,M,M,M,M,M,55.40,KMEV 171345Z AUTO 11004KT 10SM CLR 13/06 A3007 RMK AO2,M
TMT,2025-07-17 13:50,-117.1971,39.4643,1749.34,52.30,40.00,62.78,0.00,0.00,0.00,30.11,M,10.00,M,CLR,M,M,M,M,M,M,M,M,M,M,M,M,M,M,52.30,KTMT 171350Z AUTO 00000KT 10SM CLR 11/05 A3011 RMK AO2 T01130045,M
P68,2025-07-17 13:53,-116.0056,39.6014,1993.00,65.00,30.00,26.76,200.00,7.00,0.00,30.10,1009.90,M,M,M,M,M,M,M,M,M,M,M,M,M,M,M,M,M,65.00,KP68 171353Z AUTO 20007KT 18/M01 A3010 RMK AO1 SLP099 T01831011,M
DRA,2025-07-17 13:53,-116.0278,36.6206,1009.00,86.00,39.00,19.04,M,3.00,0.00,29.95,1008.20,10.00,M,CLR,M,M,M,M,M,M,M,M,M,M,M,M,M,M,82.78,KDRA 171353Z AUTO VRB03KT 10SM CLR 30/04 A2995 RMK AO2 SLP082 T03000039,M
ELY,2025-07-17 13:53,-114.8453,39.2950,1909.00,67.00,34.00,29.34,210.00,9.00,0.00,30.16,1009.30,10.00,M,CLR,M,M,M,M,M,M,M,M,M,M,M,M,M,M,67.00,KELY 171353Z AUTO 21009KT 10SM CLR 19/01 A3016 RMK AO2 SLP093 T01940011,M
VGT,2025-07-17 13:53,-115.1933,36.2111,667.00,86.00,55.00,34.82,160.00,4.00,0.00,29.89,1010.80,10.00,M,CLR,M,M,M,M,M,M,M,M,M,M,M,M,M,M,84.47,KVGT 171353Z 16004KT 10SM CLR 30/13 A2989 RMK AO2 SLP108 T03000128,M
LOL,2025-07-17 13:53,-118.5701,40.0684,1192.43,64.00,38.00,38.16,0.00,0.00,0.00,29.97,1010.30,10.00,M,CLR,M,M,M,M,M,M,M,M,M,M,M,M,M,M,64.00,KLOL 171353Z AUTO 00000KT 10SM CLR 18/03 A2997 RMK AO2 SLP103 T01780033,M
BVU,2025-07-17 13:55,-114.8611,35.9475,671.00,82.40,59.00,45.14,170.00,11.00,0.00,29.92,M,10.00,M,CLR,M,M,M,M,M,M,M,M,M,M,M,M,M,M,82.47,KBVU 171355Z AUTO 17011KT 10SM CLR 28/15 A2992 RMK AO2,M
RNO,2025-07-17 13:55,-119.7711,39.4839,1341.00,68.00,43.00,40.33,M,3.00,0.00,30.06,1011.80,10.00,M,FEW,M,M,M,25000.00,M,M,M,M,M,M,M,M,M,M,68.00,KRNO 171355Z VRB03KT 10SM FEW250 20/06 A3006 RMK AO2 SLP118 T02000061,M
BAM,2025-07-17 13:55,-116.8743,40.5990,1382.36,62.60,32.00,31.56,0.00,0.00,0.00,30.00,M,10.00,M,CLR,M,M,M,M,M,M,M,M,M,M,M,M,M,M,62.60,KBAM 171355Z AUTO 00000KT 10SM CLR 17/00 A3000 RMK AO1,M
CXP,2025-07-17 13:55,-119.7326,39.1923,1431.00,66.20,44.60,45.62,0.00,0.00,0.00,30.08,M,10.00,M,CLR,M,M,M,M,M,M,M,M,M,M,M,M,M,M,66.20,KCXP 171355Z AUTO 00000KT 10SM CLR 19/07 A3008 RMK AO2,M
05U,2025-07-17 13:55,-116.0051,39.6042,1811.23,64.40,30.20,27.55,0.00,0.00,0.00,30.13,M,10.00,M,CLR,M,M,M,M,M,M,M,M,M,M,M,M,M,M,64.40,K05U 171355Z AUTO 00000KT 10SM CLR 18/M01 A3013 RMK A01,M
HTH,2025-07-17 13:55,-118.6315,38.5448,1282.89,75.20,46.40,35.98,0.00,0.00,0.00,30.02,M,10.00,M,CLR,M,M,M,M,M,M,M,M,M,M,M,M,M,M,75.20,KHTH 171355Z AUTO 00000KT 10SM CLR 24/08 A3002 RMK A01,M
INS,2025-07-17 13:55,-115.6733,36.5872,955.00,80.00,43.00,26.98,120.00,3.00,0.00,29.95,1008.00,10.00,M,CLR,M,M,M,M,M,M,M,M,M,M,M,M,M,M,78.97,KINS 171355Z AUTO 12003KT 10SM CLR 27/06 A2995 RMK AO2 SLP080 T02660061 $,M
LSV,2025-07-17 13:55,-115.0343,36.2362,570.00,89.00,54.50,31.09,150.00,17.00,0.00,29.83,1006.80,10.00,M,SCT,M,M,M,22000.00,M,M,M,M,M,M,M,27.00,190.00,2025-07-17 13:11,87.01,KLSV 171355Z 15017KT 10SM SCT220 32/13 A2983 RMK AO2A PK WND 19027/11 SLP068 T03170125 $,M
EKO,2025-07-17 13:56,-115.7860,40.8242,1367.00,62.00,43.00,49.70,80.00,4.00,0.00,30.04,1010.80,10.00,M,CLR,M,M,M,M,M,M,M,M,M,M,M,M,M,M,62.00,KEKO 171356Z AUTO 08004KT 10SM CLR 17/06 A3004 RMK AO2 SLP108 T01670061,M
WMC,2025-07-17 13:56,-117.8072,40.9019,1315.00,63.00,35.00,35.10,140.00,4.00,0.00,29.98,1009.70,10.00,M,CLR,M,M,M,M,M,M,M,M,M,M,M,M,M,M,63.00,KWMC 171356Z AUTO 14004KT 10SM CLR 17/02 A2998 RMK AO2 SLP097 T01720017 TSNO,M
HND,2025-07-17 13:56,-115.1344,35.9729,742.79,83.00,58.00,42.72,170.00,14.00,0.00,29.95,1012.20,10.00,M,CLR,M,M,M,M,M,M,M,M,M,M,M,M,M,M,82.71,KHND 171356Z 17014KT 10SM CLR 28/14 A2995 RMK AO2 SLP122 T02830144 $,M
TPH,2025-07-17 13:56,-117.0904,38.0505,1654.00,63.00,22.00,20.59,350.00,6.00,0.00,30.11,1011.10,10.00,M,CLR,M,M,M,M,M,M,M,M,M,M,M,M,M,M,63.00,KTPH 171356Z AUTO 35006KT 10SM CLR 17/M06 A3011 RMK AO2 SLP111 T01721056 $,M
LAS,2025-07-17 13:56,-115.1634,36.0719,663.00,86.00,56.00,36.10,170.00,9.00,0.00,29.91,1009.60,10.00,18.00,FEW,SCT,M,M,10000.00,15000.00,M,M,M,M,M,M,M,M,M,84.69,KLAS 171356Z 17009G18KT 10SM FEW100 SCT150 30/13 A2991 RMK AO2 SLP096 T03000133,M
NFL,2025-07-17 13:57,-118.7010,39.4166,1199.00,70.00,40.00,33.54,200.00,5.00,0.00,29.99,1012.50,9.00,M,CLR,M,M,M,M,M,M,M,M,M,M,M,M,M,M,70.00,KNFL 171357Z 20005KT 9SM CLR 21/04 A2999 RMK AO2 SLP125 T02110044,M
TMT,2025-07-17 14:10,-117.1971,39.4643,1749.34,58.00,39.00,49.08,0.00,0.00,0.00,30.11,M,10.00,M,CLR,M,M,M,M,M,M,M,M,M,M,M,M,M,M,58.00,KTMT 171410Z AUTO 00000KT 10SM CLR 14/04 A3011 RMK AO2 T01440039,M
BAM,2025-07-17 14:15,-116.8743,40.5990,1382.36,66.20,32.00,27.84,0.00,0.00,0.00,30.00,M,10.00,M,CLR,M,M,M,M,M,M,M,M,M,M,M,M,M,M,66.20,KBAM 171415Z AUTO 00000KT 10SM CLR 19/00 A3000 RMK AO1,M
CXP,2025-07-17 14:15,-119.7326,39.1923,1431.00,68.00,46.40,45.91,0.00,0.00,0.00,30.08,M,10.00,M,CLR,M,M,M,M,M,M,M,M,M,M,M,M,M,M,68.00,KCXP 171415Z AUTO 00000KT 10SM CLR 20/08 A3008 RMK AO2,M
RTS,2025-07-17 14:15,-119.8764,39.6682,1539.00,64.40,37.40,36.75,330.00,7.00,0.00,30.10,M,10.00,M,CLR,M,M,M,M,M,M,M,M,M,M,M,M,M,M,64.40,KRTS 171415Z AUTO 33007KT 10SM CLR 18/03 A3010 RMK AO2,M
05U,2025-07-17 14:15,-116.0051,39.6042,1811.23,68.00,30.20,24.32,0.00,0.00,0.00,30.13,M,10.00,M,CLR,M,M,M,M,M,M,M,M,M,M,M,M,M,M,68.00,K05U 171415Z AUTO 00000KT 10SM CLR 20/M01 A3013 RMK A01,M
MEV,2025-07-17 14:15,-119.7500,38.9963,1441.42,62.60,42.80,48.29,0.00,0.00,0.00,30.07,M,10.00,M,CLR,M,M,M,M,M,M,M,M,M,M,M,M,M,M,62.60,KMEV 171415Z AUTO 00000KT 10SM CLR 17/06 A3007 RMK AO2,M
HTH,2025-07-17 14:15,-118.6315,38.5448,1282.89,75.20,46.40,35.98,0.00,0.00,0.00,30.02,M,10.00,M,M,M,M,M,M,M,M,M,M,M,M,M,M,M,M,75.20,KHTH 171415Z AUTO 00000KT 10SM 24/08 A3002 RMK A01,M
BVU,2025-07-17 14:15,-114.8611,35.9475,671.00,82.40,59.00,45.14,160.00,11.00,0.00,29.92,M,10.00,M,CLR,M,M,M,M,M,M,M,M,M,M,M,M,M,M,82.47,KBVU 171415Z AUTO 16011KT 10SM CLR 28/15 A2992 RMK AO2,M
TMT,2025-07-17 14:30,-117.1971,39.4643,1749.34,59.70,38.70,45.65,0.00,0.00,0.00,30.11,M,10.00,M,CLR,M,M,M,M,M,M,M,M,M,M,M,M,M,M,59.70,KTMT 171430Z AUTO 00000KT 10SM CLR 15/04 A3011 RMK AO2 T01540037,M
BVU,2025-07-17 14:35,-114.8611,35.9475,671.00,84.20,59.00,42.60,160.00,13.00,0.00,29.93,M,10.00,M,CLR,M,M,M,M,M,M,M,M,M,M,M,M,M,M,83.93,KBVU 171435Z AUTO 16013KT 10SM CLR 29/15 A2993 RMK AO2,M
BAM,2025-07-17 14:35,-116.8743,40.5990,1382.36,69.80,33.80,26.44,0.00,0.00,0.00,30.01,M,10.00,M,CLR,M,M,M,M,M,M,M,M,M,M,M,M,M,M,69.80,KBAM 171435Z AUTO 00000KT 10SM CLR 21/01 A3001 RMK AO1,M
CXP,2025-07-17 14:35,-119.7326,39.1923,1431.00,69.80,46.40,43.16,190.00,3.00,0.00,30.08,M,10.00,M,CLR,M,M,M,M,M,M,M,M,M,M,M,M,M,M,69.80,KCXP 171435Z AUTO 19003KT 10SM CLR 21/08 A3008 RMK AO2,M
RTS,2025-07-17 14:35,-119.8764,39.6682,1539.00,68.00,37.40,32.44,320.00,6.00,0.00,30.10,M,10.00,M,CLR,M,M,M,M,M,M,M,M,M,M,M,M,M,M,68.00,KRTS 171435Z AUTO 32006KT 10SM CLR 20/03 A3010 RMK AO2,M
05U,2025-07-17 14:35,-116.0051,39.6042,1811.23,73.40,28.40,18.81,0.00,0.00,0.00,30.13,M,9.00,M,CLR,M,M,M,M,M,M,M,M,M,M,M,M,M,M,73.40,K05U 171435Z AUTO 00000KT 9SM CLR 23/M02 A3013 RMK A01,M
MEV,2025-07-17 14:35,-119.7500,38.9963,1441.42,64.40,42.80,45.34,0.00,0.00,0.00,30.07,M,10.00,M,CLR,M,M,M,M,M,M,M,M,M,M,M,M,M,M,64.40,KMEV 171435Z AUTO 00000KT 10SM CLR 18/06 A3007 RMK AO2,M
HTH,2025-07-17 14:35,-118.6315,38.5448,1282.89,75.20,48.20,38.50,340.00,3.00,0.00,30.02,M,10.00,M,CLR,M,M,M,M,M,M,M,M,M,M,M,M,M,M,75.20,KHTH 171435Z AUTO 34003KT 10SM CLR 24/09 A3002 RMK A01,M
TMT,2025-07-17 14:50,-117.1971,39.4643,1749.34,63.00,41.00,44.42,0.00,0.00,0.00,30.12,M,10.00,M,CLR,M,M,M,M,M,M,M,M,M,M,M,M,M,M,63.00,KTMT 171450Z AUTO 00000KT 10SM CLR 17/05 A3012 RMK AO2 T01730049,M
P68,2025-07-17 14:53,-116.0056,39.6014,1993.00,75.00,30.00,19.03,240.00,4.00,0.00,30.11,1010.00,M,M,M,M,M,M,M,M,M,M,M,M,M,M,M,M,M,75.00,KP68 171453Z AUTO 24004KT 24/M01 A3011 RMK AO1 SLP100 T02391011 51009,M
DRA,2025-07-17 14:53,-116.0278,36.6206,1009.00,89.00,38.00,16.66,220.00,16.00,0.00,29.96,1008.60,10.00,M,CLR,M,M,M,M,M,M,M,M,M,M,M,M,M,M,85.18,KDRA 171453Z AUTO 22016KT 10SM CLR 32/03 A2996 RMK AO2 SLP086 T03170033 51014,M
ELY,2025-07-17 14:53,-114.8453,39.2950,1909.00,73.00,34.00,23.92,200.00,9.00,0.00,30.17,1009.90,10.00,M,CLR,M,M,M,M,M,M,M,M,M,M,M,M,M,M,73.00,KELY 171453Z AUTO 20009KT 10SM CLR 23/01 A3017 RMK AO2 SLP099 T02280011 51012,M
VGT,2025-07-17 14:53,-115.1933,36.2111,667.00,89.00,52.00,28.37,150.00,10.00,0.00,29.91,1011.20,10.00,M,CLR,M,M,M,M,M,M,M,M,M,M,M,M,M,M,86.50,KVGT 171453Z 15010KT 10SM CLR 32/11 A2991 RMK AO2 SLP112 T03170111 51019,M
LOL,2025-07-17 14:53,-118.5701,40.0684,1192.43,71.00,37.00,28.82,0.00,0.00,0.00,29.99,1010.50,10.00,M,CLR,M,M,M,M,M,M,M,M,M,M,M,M,M,M,71.00,KLOL 171453Z AUTO 00000KT 10SM CLR 22/03 A2999 RMK AO2 SLP105 T02170028 53013,M
BAM,2025-07-17 14:55,-116.8743,40.5990,1382.36,71.60,33.80,24.87,0.00,0.00,0.00,30.01,M,10.00,M,CLR,M,M,M,M,M,M,M,M,M,M,M,M,M,M,71.60,KBAM 171455Z AUTO 00000KT 10SM CLR 22/01 A3001 RMK AO1,M
BVU,2025-07-17 14:55,-114.8611,35.9475,671.00,84.20,59.00,42.60,150.00,12.00,0.00,29.94,M,10.00,17.00,CLR,M,M,M,M,M,M,M,M,M,M,M,M,M,M,83.93,KBVU 171455Z AUTO 15012G17KT 10SM CLR 29/15 A2994 RMK AO2,M
RNO,2025-07-17 14:55,-119.7711,39.4839,1341.00,70.00,43.00,37.66,0.00,0.00,0.00,30.07,1012.20,10.00,M,CLR,M,M,M,M,M,M,M,M,M,M,M,M,M,M,70.00,KRNO 171455Z 00000KT 10SM CLR 21/06 A3007 RMK AO2 SLP122 T02110061 51009,M
CXP,2025-07-17 14:55,-119.7326,39.1923,1431.00,71.60,46.40,40.60,0.00,0.00,0.00,30.08,M,10.00,M,CLR,M,M,M,M,M,M,M,M,M,M,M,M,M,M,71.60,KCXP 171455Z AUTO 00000KT 10SM CLR 22/08 A3008 RMK AO2,M
RTS,2025-07-17 14:55,-119.8764,39.6682,1539.00,69.80,37.40,30.50,280.00,8.00,0.00,30.10,M,10.00,M,CLR,M,M,M,M,M,M,M,M,M,M,M,M,M,M,69.80,KRTS 171455Z AUTO 28008KT 10SM CLR 21/03 A3010 RMK AO2,M
05U,2025-07-17 14:55,-116.0051,39.6042,1811.23,75.20,28.40,17.71,0.00,0.00,0.00,30.14,M,10.00,M,CLR,M,M,M,M,M,M,M,M,M,M,M,M,M,M,75.20,K05U 171455Z AUTO 00000KT 10SM CLR 24/M02 A3014 RMK A01,M
MEV,2025-07-17 14:55,-119.7500,38.9963,1441.42,66.20,44.60,45.62,0.00,0.00,0.00,30.08,M,10.00,M,CLR,M,M,M,M,M,M,M,M,M,M,M,M,M,M,66.20,KMEV 171455Z AUTO 00000KT 10SM CLR 19/07 A3008 RMK AO2,M
HTH,2025-07-17 14:55,-118.6315,38.5448,1282.89,77.00,48.20,36.27,310.00,3.00,0.00,30.03,M,10.00,M,CLR,M,M,M,M,M,M,M,M,M,M,M,M,M,M,77.00,KHTH 171455Z AUTO 31003KT 10SM CLR 25/09 A3003 RMK A01,M
INS,2025-07-17 14:55,-115.6733,36.5872,955.00,85.00,51.00,31.04,100.00,12.00,0.00,29.95,1007.90,10.00,M,CLR,M,M,M,M,M,M,M,M,M,M,M,M,M,M,82.97,KINS 171455Z AUTO 10012KT 10SM CLR 30/11 A2995 RMK AO2 SLP079 T02950106 52015 $,M
LSV,2025-07-17 14:55,-115.0343,36.2362,570.00,89.60,56.70,33.05,140.00,16.00,0.00,29.86,1007.90,10.00,M,FEW,M,M,M,22000.00,M,M,M,M,M,M,M,M,M,M,88.15,KLSV 171455Z 14016KT 10SM FEW220 32/14 A2986 RMK AO2A SLP079 T03200137 52019 CHINO RWY03R $,M
TPH,2025-07-17 14:56,-117.0904,38.0505,1654.00,71.00,26.00,18.47,170.00,3.00,0.00,30.12,1011.30,10.00,M,CLR,M,M,M,M,M,M,M,M,M,M,M,M,M,M,71.00,KTPH 171456Z AUTO 17003KT 10SM CLR 22/M03 A3012 RMK AO2 SLP113 T02171033 51013 $,M
LAS,2025-07-17 14:56,-115.1634,36.0719,663.00,89.00,52.00,28.37,190.00,13.00,0.00,29.93,1010.20,10.00,19.00,FEW,FEW,M,M,15000.00,20000.00,M,M,M,M,M,M,M,M,M,86.50,KLAS 171456Z 19013G19KT 10SM FEW150 FEW200 32/11 A2993 RMK AO2 SLP102 T03170111 51018,M
EKO,2025-07-17 14:56,-115.7860,40.8242,1367.00,68.00,41.00,37.34,70.00,3.00,0.00,30.05,1011.20,10.00,M,CLR,M,M,M,M,M,M,M,M,M,M,M,M,M,M,68.00,KEKO 171456Z AUTO 07003KT 10SM CLR 20/05 A3005 RMK AO2 SLP112 T02000050 51007,M
WMC,2025-07-17 14:56,-117.8072,40.9019,1315.00,77.00,36.00,22.66,310.00,4.00,0.00,30.00,1009.60,10.00,M,CLR,M,M,M,M,M,M,M,M,M,M,M,M,M,M,77.00,KWMC 171456Z AUTO 31004KT 10SM CLR 25/02 A3000 RMK AO2 SLP096 T02500022 51012 TSNO,M
HND,2025-07-17 14:56,-115.1344,35.9729,742.79,88.00,52.00,29.28,190.00,13.00,0.00,29.96,1012.70,10.00,M,CLR,M,M,M,M,M,M,M,M,M,M,M,M,M,M,85.61,KHND 171456Z 19013KT 10SM CLR 31/11 A2996 RMK AO2 SLP127 T03110111 51018 $,M
NFL,2025-07-17 14:57,-118.7010,39.4166,1199.00,76.00,41.00,28.49,230.00,3.00,0.00,30.00,1012.80,9.00,M,CLR,M,M,M,M,M,M,M,M,M,M,M,M,M,M,76.00,KNFL 171457Z 23003KT 9SM CLR 24/05 A3000 RMK AO2 SLP128 T02440050 51012,M
TMT,2025-07-17 15:10,-117.1971,39.4643,1749.34,65.70,40.00,38.88,0.00,0.00,0.00,30.12,M,10.00,M,CLR,M,M,M,M,M,M,M,M,M,M,M,M,M,M,65.70,KTMT 171510Z AUTO 00000KT 10SM CLR 19/04 A3012 RMK AO2 T01870044,M
BAM,2025-07-17 15:15,-116.8743,40.5990,1382.36,75.20,35.60,23.68,0.00,0.00,0.00,30.02,M,10.00,M,CLR,M,M,M,M,M,M,M,M,M,M,M,M,M,M,75.20,KBAM 171515Z AUTO 00000KT 10SM CLR 24/02 A3002 RMK AO1,M
CXP,2025-07-17 15:15,-119.7326,39.1923,1431.00,73.40,42.80,33.31,170.00,4.00,0.00,30.09,M,10.00,M,CLR,M,M,M,M,M,M,M,M,M,M,M,M,M,M,73.40,KCXP 171515Z AUTO 17004KT 10SM CLR 23/06 A3009 RMK AO2,M
RTS,2025-07-17 15:15,-119.8764,39.6682,1539.00,71.60,37.40,28.69,310.00,7.00,0.00,30.11,M,10.00,M,CLR,M,M,M,M,M,M,M,M,M,M,M,M,M,M,71.60,KRTS 171515Z AUTO 31007KT 10SM CLR 22/03 A3011 RMK AO2,M
05U,2025-07-17 15:15,-116.0051,39.6042,1811.23,77.00,26.60,15.49,0.00,0.00,0.00,30.14,M,10.00,M,CLR,M,M,M,M,M,M,M,M,M,M,M,M,M,M,77.00,K05U 171515Z AUTO 00000KT 10SM CLR 25/M03 A3014 RMK A01,M
MEV,2025-07-17 15:15,-119.7500,38.9963,1441.42,68.00,44.60,42.87,0.00,0.00,0.00,30.08,M,10.00,M,CLR,M,M,M,M,M,M,M,M,M,M,M,M,M,M,68.00,KMEV 171515Z AUTO 00000KT 10SM CLR 20/07 A3008 RMK AO2,M
HTH,2025-07-17 15:15,-118.6315,38.5448,1282.89,77.00,42.80,29.55,320.00,4.00,0.00,30.03,M,10.00,M,CLR,M,M,M,M,M,M,M,M,M,M,M,M,M,M,77.00,KHTH 171515Z AUTO 32004KT 10SM CLR 25/06 A3003 RMK A01,M
TMT,2025-07-17 15:30,-117.1971,39.4643,1749.34,70.00,40.60,34.33,0.00,0.00,0.00,30.12,M,10.00,M,CLR,M,M,M,M,M,M,M,M,M,M,M,M,M,M,70.00,KTMT 171530Z AUTO 00000KT 10SM CLR 21/05 A3012 RMK AO2 T02110048,M
BVU,2025-07-17 15:35,-114.8611,35.9475,671.00,86.00,59.00,40.22,160.00,15.00,0.00,29.94,M,10.00,M,CLR,M,M,M,M,M,M,M,M,M,M,M,M,M,M,85.49,KBVU 171535Z AUTO 16015KT 10SM CLR 30/15 A2994 RMK AO2,M
BAM,2025-07-17 15:35,-116.8743,40.5990,1382.36,78.80,35.60,21.02,0.00,0.00,0.00,30.03,M,10.00,M,CLR,M,M,M,M,M,M,M,M,M,M,M,M,M,M,78.80,KBAM 171535Z AUTO 00000KT 10SM CLR 26/02 A3003 RMK AO1,M
CXP,2025-07-17 15:35,-119.7326,39.1923,1431.00,75.20,42.80,31.37,190.00,3.00,0.00,30.09,M,10.00,M,CLR,M,M,M,M,M,M,M,M,M,M,M,M,M,M,75.20,KCXP 171535Z AUTO 19003KT 10SM CLR 24/06 A3009 RMK AO2,M
RTS,2025-07-17 15:35,-119.8764,39.6682,1539.00,73.40,35.60,25.15,290.00,9.00,0.00,30.11,M,10.00,M,CLR,M,M,M,M,M,M,M,M,M,M,M,M,M,M,73.40,KRTS 171535Z AUTO 29009KT 10SM CLR 23/02 A3011 RMK AO2,M
05U,2025-07-17 15:35,-116.0051,39.6042,1811.23,78.80,26.60,14.60,0.00,0.00,0.00,30.14,M,10.00,M,CLR,M,M,M,M,M,M,M,M,M,M,M,M,M,M,78.80,K05U 171535Z AUTO 00000KT 10SM CLR 26/M03 A3014 RMK A01,M
MEV,2025-07-17 15:35,-119.7500,38.9963,1441.42,71.60,42.80,35.40,200.00,3.00,0.00,30.08,M,10.00,M,CLR,M,M,M,M,M,M,M,M,M,M,M,M,M,M,71.60,KMEV 171535Z AUTO 20003KT 10SM CLR 22/06 A3008 RMK AO2,M
HTH,2025-07-17 15:35,-118.6315,38.5448,1282.89,78.80,42.80,27.85,M,3.00,0.00,30.03,M,10.00,M,CLR,M,M,M,M,M,M,M,M,M,M,M,M,M,M,78.80,KHTH 171535Z AUTO VRB03KT 10SM CLR 26/06 A3003 RMK A01,M
TMT,2025-07-17 15:50,-117.1971,39.4643,1749.34,73.80,42.00,31.87,0.00,0.00,0.00,30.12,M,10.00,M,CLR,M,M,M,M,M,M,M,M,M,M,M,M,M,M,73.80,KTMT 171550Z AUTO 00000KT 10SM CLR 23/06 A3012 RMK AO2 T02320055,M
P68,2025-07-17 15:53,-116.0056,39.6014,1993.00,79.00,28.00,15.36,M,3.00,0.00,30.11,1010.20,M,M,M,M,M,M,M,M,M,M,M,M,M,M,M,M,M,79.00,KP68 171553Z AUTO VRB03KT 26/M02 A3011 RMK AO1 SLP102 T02611022,M
DRA,2025-07-17 15:53,-116.0278,36.6206,1009.00,91.00,42.00,18.28,210.00,12.00,0.00,29.97,1009.00,10.00,20.00,CLR,M,M,M,M,M,M,M,M,M,M,M,M,M,M,87.11,KDRA 171553Z AUTO 21012G20KT 10SM CLR 33/06 A2997 RMK AO2 SLP090 T03280056,M
ELY,2025-07-17 15:53,-114.8453,39.2950,1909.00,78.00,32.00,18.69,170.00,7.00,0.00,30.17,1009.70,10.00,M,CLR,M,M,M,M,M,M,M,M,M,M,M,M,M,M,78.00,KELY 171553Z AUTO 17007KT 10SM CLR 26/00 A3017 RMK AO2 SLP097 T02560000,M
VGT,2025-07-17 15:53,-115.1933,36.2111,667.00,91.00,49.00,23.84,140.00,13.00,0.00,29.91,1011.40,10.00,M,CLR,M,M,M,M,M,M,M,M,M,M,M,M,M,M,87.84,KVGT 171553Z 14013KT 10SM CLR 33/09 A2991 RMK AO2 SLP114 T03280094,M
LOL,2025-07-17 15:53,-118.5701,40.0684,1192.43,79.00,36.00,21.22,0.00,0.00,0.00,30.00,1011.00,10.00,M,CLR,M,M,M,M,M,M,M,M,M,M,M,M,M,M,79.00,KLOL 171553Z AUTO 00000KT 10SM CLR 26/02 A3000 RMK AO2 SLP110 T02610022,M
BVU,2025-07-17 15:55,-114.8611,35.9475,671.00,86.00,59.00,40.22,160.00,13.00,0.00,29.94,M,10.00,19.00,CLR,M,M,M,M,M,M,M,M,M,M,M,M,M,M,85.49,KBVU 171555Z AUTO 16013G19KT 10SM CLR 30/15 A2994 RMK AO2,M
RNO,2025-07-17 15:55,-119.7711,39.4839,1341.00,75.00,42.00,30.62,0.00,0.00,0.00,30.07,1012.20,10.00,M,CLR,M,M,M,M,M,M,M,M,M,M,M,M,M,M,75.00,KRNO 171555Z 00000KT 10SM CLR 24/06 A3007 RMK AO2 SLP122 T02390056,M
LSV,2025-07-17 15:55,-115.0343,36.2362,570.00,90.70,56.70,31.93,140.00,16.00,0.00,29.87,1008.30,10.00,M,FEW,M,M,M,22000.00,M,M,M,M,M,M,M,M,M,M,89.23,KLSV 171555Z 14016KT 10SM FEW220 33/14 A2987 RMK AO2A SLP083 T03260137 $,M
BAM,2025-07-17 15:55,-116.8743,40.5990,1382.36,80.60,37.40,21.28,240.00,3.00,0.00,30.03,M,10.00,M,CLR,M,M,M,M,M,M,M,M,M,M,M,M,M,M,79.02,KBAM 171555Z AUTO 24003KT 10SM CLR 27/03 A3003 RMK AO1,M
CXP,2025-07-17 15:55,-119.7326,39.1923,1431.00,77.00,42.80,29.55,160.00,4.00,0.00,30.09,M,10.00,M,CLR,M,M,M,M,M,M,M,M,M,M,M,M,M,M,77.00,KCXP 171555Z AUTO 16004KT 10SM CLR 25/06 A3009 RMK AO2,M
RTS,2025-07-17 15:55,-119.8764,39.6682,1539.00,73.40,35.60,25.15,280.00,8.00,0.00,30.11,M,10.00,M,CLR,M,M,M,M,M,M,M,M,M,M,M,M,M,M,73.40,KRTS 171555Z AUTO 28008KT 10SM CLR 23/02 A3011 RMK AO2,M
05U,2025-07-17 15:55,-116.0051,39.6042,1811.23,80.60,26.60,13.76,0.00,0.00,0.00,30.14,M,10.00,M,CLR,M,M,M,M,M,M,M,M,M,M,M,M,M,M,78.68,K05U 171555Z AUTO 00000KT 10SM CLR 27/M03 A3014 RMK A01,M
MEV,2025-07-17 15:55,-119.7500,38.9963,1441.42,73.40,44.60,35.69,0.00,0.00,0.00,30.08,M,10.00,M,CLR,M,M,M,M,M,M,M,M,M,M,M,M,M,M,73.40,KMEV 171555Z AUTO 00000KT 10SM CLR 23/07 A3008 RMK AO2,M
HTH,2025-07-17 15:55,-118.6315,38.5448,1282.89,78.80,42.80,27.85,360.00,5.00,0.00,30.04,M,10.00,M,CLR,M,M,M,M,M,M,M,M,M,M,M,M,M,M,78.80,KHTH 171555Z AUTO 36005KT 10SM CLR 26/06 A3004 RMK A01,M
INS,2025-07-17 15:55,-115.6733,36.5872,955.00,87.30,49.00,26.78,110.00,9.00,0.00,29.96,1008.40,10.00,M,CLR,M,M,M,M,M,M,M,M,M,M,M,M,M,M,84.56,KINS 171555Z AUTO 11009KT 10SM CLR 31/10 A2996 RMK AO2 SLP084 T03070095 $,M
EKO,2025-07-17 15:56,-115.7860,40.8242,1367.00,76.00,40.00,27.41,0.00,0.00,0.00,30.05,1010.90,10.00,M,CLR,M,M,M,M,M,M,M,M,M,M,M,M,M,M,76.00,KEKO 171556Z AUTO 00000KT 10SM CLR 24/04 A3005 RMK AO2 SLP109 T02440044,M
WMC,2025-07-17 15:56,-117.8072,40.9019,1315.00,83.00,37.00,19.38,300.00,6.00,0.00,30.00,1010.20,10.00,M,CLR,M,M,M,M,M,M,M,M,M,M,M,M,M,M,80.53,KWMC 171556Z AUTO 30006KT 10SM CLR 28/03 A3000 RMK AO2 SLP102 T02830028 TSNO,M
HND,2025-07-17 15:56,-115.1344,35.9729,742.79,90.00,56.00,31.82,210.00,15.00,0.00,29.97,1012.80,10.00,M,CLR,M,M,M,M,M,M,M,M,M,M,M,M,M,M,88.34,KHND 171556Z 21015KT 10SM CLR 32/13 A2997 RMK AO2 SLP128 T03220133 $,M
TPH,2025-07-17 15:56,-117.0904,38.0505,1654.00,77.00,29.00,17.10,140.00,8.00,0.00,30.13,1011.30,10.00,M,CLR,M,M,M,M,M,M,M,M,M,M,M,M,M,M,77.00,KTPH 171556Z AUTO 14008KT 10SM CLR 25/M02 A3013 RMK AO2 SLP113 T02501017,M
LAS,2025-07-17 15:56,-115.1634,36.0719,663.00,91.00,49.00,23.84,180.00,11.00,0.00,29.93,1010.30,10.00,20.00,FEW,FEW,M,M,15000.00,20000.00,M,M,M,M,M,M,M,M,M,87.84,KLAS 171556Z 18011G20KT 10SM FEW150 FEW200 33/09 A2993 RMK AO2 SLP103 T03280094,M
NFL,2025-07-17 15:57,-118.7010,39.4166,1199.00,80.00,41.00,24.98,M,3.00,0.00,30.01,1013.10,8.00,M,FEW,M,M,M,20000.00,M,M,M,M,M,M,M,M,M,M,78.87,KNFL 171557Z VRB03KT 8SM FEW200 27/05 A3001 RMK AO2 SLP131 T02670050,M
TMT,2025-07-17 16:10,-117.1971,39.4643,1749.34,76.00,41.00,28.49,0.00,0.00,0.00,30.12,M,10.00,M,CLR,M,M,M,M,M,M,M,M,M,M,M,M,M,M,76.00,KTMT 171610Z AUTO 00000KT 10SM CLR 24/05 A3012 RMK AO2 T02440051,M
BAM,2025-07-17 16:15,-116.8743,40.5990,1382.36,80.60,37.40,21.28,290.00,3.00,0.00,30.03,M,10.00,M,CLR,M,M,M,M,M,M,M,M,M,M,M,M,M,M,79.02,KBAM 171615Z AUTO 29003KT 10SM CLR 27/03 A3003 RMK AO1,M
CXP,2025-07-17 16:15,-119.7326,39.1923,1431.00,77.00,41.00,27.57,270.00,3.00,0.00,30.09,M,10.00,M,CLR,M,M,M,M,M,M,M,M,M,M,M,M,M,M,77.00,KCXP 171615Z AUTO 27003KT 10SM CLR 25/05 A3009 RMK AO2,M
RTS,2025-07-17 16:15,-119.8764,39.6682,1539.00,75.20,37.40,25.43,250.00,9.00,0.00,30.11,M,10.00,M,CLR,M,M,M,M,M,M,M,M,M,M,M,M,M,M,75.20,KRTS 171615Z AUTO 25009KT 10SM CLR 24/03 A3011 RMK AO2,M
05U,2025-07-17 16:15,-116.0051,39.6042,1811.23,82.40,26.60,12.98,0.00,0.00,0.00,30.13,M,10.00,M,CLR,M,M,M,M,M,M,M,M,M,M,M,M,M,M,79.92,K05U 171615Z AUTO 00000KT 10SM CLR 28/M03 A3013 RMK A01,M
MEV,2025-07-17 16:15,-119.7500,38.9963,1441.42,73.40,44.60,35.69,0.00,0.00,0.00,30.08,M,10.00,M,CLR,M,M,M,M,M,M,M,M,M,M,M,M,M,M,73.40,KMEV 171615Z AUTO 00000KT 10SM CLR 23/07 A3008 RMK AO2,M
HTH,2025-07-17 16:15,-118.6315,38.5448,1282.89,80.60,42.80,26.26,0.00,0.00,0.00,30.04,M,10.00,M,CLR,M,M,M,M,M,M,M,M,M,M,M,M,M,M,79.31,KHTH 171615Z AUTO 00000KT 10SM CLR 27/06 A3004 RMK A01,M
TMT,2025-07-17 16:30,-117.1971,39.4643,1749.34,78.40,42.00,27.36,260.00,3.00,0.00,30.11,M,10.00,M,CLR,M,M,M,M,M,M,M,M,M,M,M,M,M,M,78.40,KTMT 171630Z AUTO 26003KT 10SM CLR 26/06 A3011 RMK AO2 T02580056,M
BAM,2025-07-17 16:35,-116.8743,40.5990,1382.36,82.40,37.40,20.08,360.00,4.00,0.00,30.03,M,10.00,M,CLR,M,M,M,M,M,M,M,M,M,M,M,M,M,M,80.14,KBAM 171635Z AUTO 36004KT 10SM CLR 28/03 A3003 RMK AO1,M
CXP,2025-07-17 16:35,-119.7326,39.1923,1431.00,78.80,39.20,24.22,M,4.00,0.00,30.09,M,10.00,M,CLR,M,M,M,M,M,M,M,M,M,M,M,M,M,M,78.80,KCXP 171635Z AUTO VRB04KT 10SM CLR 26/04 A3009 RMK AO2,M
RTS,2025-07-17 16:35,-119.8764,39.6682,1539.00,77.00,35.60,22.31,260.00,9.00,0.00,30.11,M,10.00,M,CLR,M,M,M,M,M,M,M,M,M,M,M,M,M,M,77.00,KRTS 171635Z AUTO 26009KT 10SM CLR 25/02 A3011 RMK AO2,M
05U,2025-07-17 16:35,-116.0051,39.6042,1811.23,82.40,26.60,12.98,0.00,0.00,0.00,30.13,M,10.00,M,CLR,M,M,M,M,M,M,M,M,M,M,M,M,M,M,79.92,K05U 171635Z AUTO 00000KT 10SM CLR 28/M03 A3013 RMK A01,M
MEV,2025-07-17 16:35,-119.7500,38.9963,1441.42,75.20,44.60,33.60,0.00,0.00,0.00,30.07,M,10.00,M,CLR,M,M,M,M,M,M,M,M,M,M,M,M,M,M,75.20,KMEV 171635Z AUTO 00000KT 10SM CLR 24/07 A3007 RMK AO2,M
HTH,2025-07-17 16:35,-118.6315,38.5448,1282.89,82.40,42.80,24.77,340.00,5.00,0.00,30.03,M,10.00,M,CLR,M,M,M,M,M,M,M,M,M,M,M,M,M,M,80.39,KHTH 171635Z AUTO 34005KT 10SM CLR 28/06 A3003 RMK A01,M
TMT,2025-07-17 16:50,-117.1971,39.4643,1749.34,81.00,42.80,25.92,0.00,0.00,0.00,30.11,M,10.00,M,CLR,M,M,M,M,M,M,M,M,M,M,M,M,M,M,79.53,KTMT 171650Z AUTO 00000KT 10SM CLR 27/06 A3011 RMK AO2 T02720060,M
P68,2025-07-17 16:53,-116.0056,39.6014,1993.00,84.00,28.00,13.06,M,5.00,0.00,30.10,1010.30,M,M,M,M,M,M,M,M,M,M,M,M,M,M,M,M,M,81.10,KP68 171653Z AUTO VRB05KT 29/M02 A3010 RMK AO1 SLP103 T02891022,M
DRA,2025-07-17 16:53,-116.0278,36.6206,1009.00,93.00,46.00,20.01,210.00,16.00,0.00,29.97,1008.80,10.00,M,CLR,M,M,M,M,M,M,M,M,M,M,M,26.00,230.00,2025-07-17 16:25,89.32,KDRA 171653Z AUTO 21016KT 10SM CLR 34/08 A2997 RMK AO2 PK WND 23026/1625 SLP088 T03390078,M
ELY,2025-07-17 16:53,-114.8453,39.2950,1909.00,82.00,28.00,13.93,120.00,7.00,0.00,30.15,1008.80,10.00,M,CLR,M,M,M,M,M,M,M,M,M,M,M,M,M,M,79.66,KELY 171653Z AUTO 12007KT 10SM CLR 28/M02 A3015 RMK AO2 SLP088 T02781022,M
VGT,2025-07-17 16:53,-115.1933,36.2111,667.00,94.00,48.00,20.93,160.00,12.00,0.00,29.91,1011.40,10.00,19.00,CLR,M,M,M,M,M,M,M,M,M,M,M,M,M,M,90.56,KVGT 171653Z 16012G19KT 10SM CLR 34/09 A2991 RMK AO2 SLP114 T03440089,M
LOL,2025-07-17 16:53,-118.5701,40.0684,1192.43,85.00,34.00,16.14,180.00,4.00,0.00,29.99,1010.60,10.00,M,CLR,M,M,M,M,M,M,M,M,M,M,M,M,M,M,81.90,KLOL 171653Z AUTO 18004KT 10SM CLR 29/01 A2999 RMK AO2 SLP106 T02940011,M
BVU,2025-07-17 16:55,-114.8611,35.9475,671.00,89.60,57.20,33.65,160.00,14.00,0.00,29.94,M,10.00,M,CLR,M,M,M,M,M,M,M,M,M,M,M,M,M,M,88.30,KBVU 171655Z AUTO 16014KT 10SM CLR 32/14 A2994 RMK AO2,M
RNO,2025-07-17 16:55,-119.7711,39.4839,1341.00,80.00,40.00,24.03,M,3.00,0.00,30.06,1011.50,10.00,M,CLR,M,M,M,M,M,M,M,M,M,M,M,M,M,M,78.83,KRNO 171655Z VRB03KT 10SM CLR 27/04 A3006 RMK AO2 SLP115 T02670044,M
BAM,2025-07-17 16:55,-116.8743,40.5990,1382.36,84.20,39.20,20.33,360.00,4.00,0.00,30.03,M,10.00,M,CLR,M,M,M,M,M,M,M,M,M,M,M,M,M,M,81.44,KBAM 171655Z AUTO 36004KT 10SM CLR 29/04 A3003 RMK AO1,M
CXP,2025-07-17 16:55,-119.7326,39.1923,1431.00,78.80,39.20,24.22,0.00,0.00,0.00,30.08,M,10.00,M,CLR,M,M,M,M,M,M,M,M,M,M,M,M,M,M,78.80,KCXP 171655Z AUTO 00000KT 10SM CLR 26/04 A3008 RMK AO2,M
RTS,2025-07-17 16:55,-119.8764,39.6682,1539.00,77.00,35.60,22.31,240.00,9.00,0.00,30.11,M,10.00,M,CLR,M,M,M,M,M,M,M,M,M,M,M,M,M,M,77.00,KRTS 171655Z AUTO 24009KT 10SM CLR 25/02 A3011 RMK AO2,M
05U,2025-07-17 16:55,-116.0051,39.6042,1811.23,82.40,28.40,13.98,0.00,0.00,0.00,30.13,M,10.00,M,CLR,M,M,M,M,M,M,M,M,M,M,M,M,M,M,79.94,K05U 171655Z AUTO 00000KT 10SM CLR 28/M02 A3013 RMK A01,M
MEV,2025-07-17 16:55,-119.7500,38.9963,1441.42,77.00,42.80,29.55,290.00,3.00,0.00,30.07,M,10.00,M,CLR,M,M,M,M,M,M,M,M,M,M,M,M,M,M,77.00,KMEV 171655Z AUTO 29003KT 10SM CLR 25/06 A3007 RMK AO2,M
HTH,2025-07-17 16:55,-118.6315,38.5448,1282.89,82.40,41.00,23.10,350.00,7.00,0.00,30.03,M,10.00,M,CLR,M,M,M,M,M,M,M,M,M,M,M,M,M,M,80.29,KHTH 171655Z AUTO 35007KT 320V020 10SM CLR 28/05 A3003 RMK A01,M
INS,2025-07-17 16:55,-115.6733,36.5872,955.00,91.40,46.00,21.03,90.00,7.00,0.00,29.96,1008.40,10.00,M,OVC,M,M,M,17000.00,M,M,M,M,M,M,M,M,M,M,87.83,KINS 171655Z AUTO 09007KT 10SM OVC170 33/08 A2996 RMK AO2 SLP084 T03300077 $,M
LSV,2025-07-17 16:55,-115.0343,36.2362,570.00,93.20,56.00,28.81,150.00,11.00,0.00,29.87,1008.30,10.00,M,FEW,FEW,M,M,15000.00,25000.00,M,M,M,M,M,M,M,M,M,91.55,KLSV 171655Z 15011KT 10SM FEW150 FEW250 34/13 A2987 RMK AO2A SLP083 T03400134 $,M
EKO,2025-07-17 16:56,-115.7860,40.8242,1367.00,81.00,37.00,20.68,0.00,0.00,0.00,30.04,1010.70,10.00,M,CLR,M,M,M,M,M,M,M,M,M,M,M,M,M,M,79.24,KEKO 171656Z AUTO 00000KT 10SM CLR 27/03 A3004 RMK AO2 SLP107 T02720028,M
WMC,2025-07-17 16:56,-117.8072,40.9019,1315.00,85.00,37.00,18.18,270.00,6.00,0.00,30.00,1010.40,10.00,M,CLR,M,M,M,M,M,M,M,M,M,M,M,M,M,M,81.96,KWMC 171656Z AUTO 27006KT 10SM CLR 29/03 A3000 RMK AO2 SLP104 T02940028 TSNO,M
HND,2025-07-17 16:56,-115.1344,35.9729,742.79,93.00,56.00,28.99,210.00,15.00,0.00,29.96,1012.60,10.00,M,CLR,M,M,M,M,M,M,M,M,M,M,M,M,M,M,91.35,KHND 171656Z 21015KT 10SM CLR 34/13 A2996 RMK AO2 SLP126 T03390133 $,M
TPH,2025-07-17 16:56,-117.0904,38.0505,1654.00,81.00,29.00,15.00,190.00,6.00,0.00,30.12,1011.00,10.00,M,CLR,M,M,M,M,M,M,M,M,M,M,M,M,M,M,79.00,KTPH 171656Z AUTO 19006KT 10SM CLR 27/M02 A3012 RMK AO2 SLP110 T02721017,M
LAS,2025-07-17 16:56,-115.1634,36.0719,663.00,94.00,49.00,21.72,180.00,12.00,0.00,29.93,1010.40,10.00,21.00,FEW,FEW,M,M,15000.00,20000.00,M,M,M,M,M,M,M,M,M,90.73,KLAS 171656Z 18012G21KT 10SM FEW150 FEW200 34/09 A2993 RMK AO2 SLP104 T03440094,M
NFL,2025-07-17 16:57,-118.7010,39.4166,1199.00,85.00,37.00,18.18,0.00,0.00,0.00,30.00,1013.10,9.00,M,FEW,M,M,M,20000.00,M,M,M,M,M,M,M,M,M,M,81.96,KNFL 171657Z 00000KT 9SM FEW200 29/03 A3000 RMK AO2 SLP131 T02940028,M
05U,2025-07-17 17:10,-116.0051,39.6042,1811.23,84.20,26.60,12.25,0.00,0.00,0.00,30.13,M,10.00,M,CLR,M,M,M,M,M,M,M,M,M,M,M,M,M,M,81.14,K05U 171710Z AUTO 00000KT 10SM CLR 29/M03 A3013 RMK A01,M
TMT,2025-07-17 17:10,-117.1971,39.4643,1749.34,82.20,41.00,23.25,0.00,0.00,0.00,30.11,M,10.00,M,CLR,M,M,M,M,M,M,M,M,M,M,M,M,M,M,80.16,KTMT 171710Z AUTO 00000KT 10SM CLR 28/05 A3011 RMK AO2 T02790049,M
BVU,2025-07-17 17:15,-114.8611,35.9475,671.00,89.60,57.20,33.65,160.00,17.00,0.00,29.94,M,10.00,M,CLR,M,M,M,M,M,M,M,M,M,M,M,M,M,M,88.30,KBVU 171715Z AUTO 16017KT 10SM CLR 32/14 A2994 RMK AO2,M
BAM,2025-07-17 17:15,-116.8743,40.5990,1382.36,86.00,39.20,19.19,340.00,4.00,0.00,30.03,M,10.00,M,CLR,M,M,M,M,M,M,M,M,M,M,M,M,M,M,82.79,KBAM 171715Z AUTO 34004KT 10SM CLR 30/04 A3003 RMK AO1,M
CXP,2025-07-17 17:15,-119.7326,39.1923,1431.00,80.60,39.20,22.84,M,5.00,0.00,30.08,M,10.00,M,CLR,M,M,M,M,M,M,M,M,M,M,M,M,M,M,79.11,KCXP 171715Z AUTO VRB05KT 10SM CLR 27/04 A3008 RMK AO2,M
RTS,2025-07-17 17:15,-119.8764,39.6682,1539.00,78.80,32.00,18.20,280.00,10.00,0.00,30.11,M,10.00,M,CLR,M,M,M,M,M,M,M,M,M,M,M,M,M,M,78.80,KRTS 171715Z AUTO 28010KT 10SM CLR 26/00 A3011 RMK AO2,M
MEV,2025-07-17 17:15,-119.7500,38.9963,1441.42,78.80,41.00,25.98,290.00,4.00,0.00,30.07,M,10.00,M,CLR,M,M,M,M,M,M,M,M,M,M,M,M,M,M,78.80,KMEV 171715Z AUTO 29004KT 10SM CLR 26/05 A3007 RMK AO2,M
HTH,2025-07-17 17:15,-118.6315,38.5448,1282.89,84.20,41.00,21.80,340.00,7.00,0.00,30.03,M,10.00,M,CLR,M,M,M,M,M,M,M,M,M,M,M,M,M,M,81.52,KHTH 171715Z AUTO 34007KT 300V030 10SM CLR 29/05 A3003 RMK A01,M
TMT,2025-07-17 17:30,-117.1971,39.4643,1749.34,83.70,40.00,21.31,230.00,3.00,0.00,30.11,M,10.00,M,CLR,M,M,M,M,M,M,M,M,M,M,M,M,M,M,81.12,KTMT 171730Z AUTO 23003KT 10SM CLR 29/04 A3011 RMK AO2 T02870044,M
BVU,2025-07-17 17:35,-114.8611,35.9475,671.00,89.60,57.20,33.65,150.00,15.00,0.00,29.94,M,10.00,21.00,CLR,M,M,M,M,M,M,M,M,M,M,M,M,M,M,88.30,KBVU 171735Z AUTO 15015G21KT 10SM CLR 32/14 A2994 RMK AO2,M
BAM,2025-07-17 17:35,-116.8743,40.5990,1382.36,86.00,39.20,19.19,50.00,3.00,0.00,30.03,M,10.00,M,CLR,M,M,M,M,M,M,M,M,M,M,M,M,M,M,82.79,KBAM 171735Z AUTO 05003KT 10SM CLR 30/04 A3003 RMK AO1,M
CXP,2025-07-17 17:35,-119.7326,39.1923,1431.00,82.40,37.40,20.08,M,5.00,0.00,30.08,M,10.00,M,CLR,M,M,M,M,M,M,M,M,M,M,M,M,M,M,80.14,KCXP 171735Z AUTO VRB05KT 10SM CLR 28/03 A3008 RMK AO2,M
RTS,2025-07-17 17:35,-119.8764,39.6682,1539.00,78.80,30.20,16.92,M,6.00,0.00,30.11,M,10.00,M,CLR,M,M,M,M,M,M,M,M,M,M,M,M,M,M,78.80,KRTS 171735Z AUTO VRB06KT 10SM CLR 26/M01 A3011 RMK AO2,M
05U,2025-07-17 17:35,-116.0051,39.6042,1811.23,86.00,28.40,12.46,240.00,4.00,0.00,30.13,M,10.00,M,CLR,M,M,M,M,M,M,M,M,M,M,M,M,M,M,82.54,K05U 171735Z AUTO 24004KT 10SM CLR 30/M02 A3013 RMK A01,M
MEV,2025-07-17 17:35,-119.7500,38.9963,1441.42,80.60,41.00,24.49,0.00,0.00,0.00,30.07,M,10.00,M,CLR,M,M,M,M,M,M,M,M,M,M,M,M,M,M,79.20,KMEV 171735Z AUTO 00000KT 10SM CLR 27/05 A3007 RMK AO2,M
HTH,2025-07-17 17:35,-118.6315,38.5448,1282.89,84.20,41.00,21.80,340.00,8.00,0.00,30.02,M,10.00,M,CLR,M,M,M,M,M,M,M,M,M,M,M,M,M,M,81.52,KHTH 171735Z AUTO 34008KT 320V020 10SM CLR 29/05 A3002 RMK A01,M
TMT,2025-07-17 17:50,-117.1971,39.4643,1749.34,85.00,40.00,20.44,220.00,5.00,0.00,30.10,M,10.00,M,CLR,M,M,M,M,M,M,M,M,M,M,M,M,M,M,82.06,KTMT 171750Z AUTO 22005KT 10SM CLR 29/04 A3010 RMK AO2 T02940044,M
P68,2025-07-17 17:53,-116.0056,39.6014,1993.00,86.00,28.00,12.25,M,3.00,0.00,30.09,1009.90,M,M,M,M,M,M,M,M,M,M,M,M,M,M,M,M,M,82.51,KP68 171753Z AUTO VRB03KT 30/M02 A3009 RMK AO1 SLP099 T03001022 10300 20111 58004,M
DRA,2025-07-17 17:53,-116.0278,36.6206,1009.00,94.00,46.00,19.41,210.00,15.00,0.00,29.97,1008.90,10.00,26.00,CLR,M,M,M,M,M,M,M,M,M,M,M,29.00,210.00,2025-07-17 17:43,90.28,KDRA 171753Z AUTO 21015G26KT 10SM CLR 34/08 A2997 RMK AO2 PK WND 21029/1743 SLP089 T03440078 10350 20256 51003,M
ELY,2025-07-17 17:53,-114.8453,39.2950,1909.00,84.00,28.00,13.06,260.00,6.00,0.00,30.15,1009.40,10.00,M,CLR,M,M,M,M,M,M,M,M,M,M,M,M,M,M,81.10,KELY 171753Z AUTO 26006KT 10SM CLR 29/M02 A3015 RMK AO2 SLP094 T02891022 10294 20172 58005,M
VGT,2025-07-17 17:53,-115.1933,36.2111,667.00,94.00,57.00,29.14,110.00,15.00,0.00,29.91,1011.40,10.00,24.00,CLR,M,M,M,M,M,M,M,M,M,M,M,M,M,M,92.72,KVGT 171753Z 11015G24KT 10SM CLR 34/14 A2991 RMK AO2 SLP114 T03440139 10350 20300 51002,M
LOL,2025-07-17 17:53,-118.5701,40.0684,1192.43,88.00,35.00,15.27,170.00,6.00,0.00,29.98,1010.00,10.00,M,CLR,M,M,M,M,M,M,M,M,M,M,M,M,M,M,84.28,KLOL 171753Z AUTO 17006KT 10SM CLR 31/02 A2998 RMK AO2 SLP100 T03110017 10311 20156 58001,M
BVU,2025-07-17 17:55,-114.8611,35.9475,671.00,91.40,57.20,31.81,160.00,16.00,0.00,29.94,M,10.00,M,CLR,M,M,M,M,M,M,M,M,M,M,M,M,M,M,90.08,KBVU 171755Z AUTO 16016KT 10SM CLR 33/14 A2994 RMK AO2,M
RNO,2025-07-17 17:55,-119.7711,39.4839,1341.00,84.00,35.00,17.34,280.00,4.00,0.00,30.05,1011.10,10.00,M,CLR,M,M,M,M,M,M,M,M,M,M,M,M,M,M,81.18,KRNO 171755Z 28004KT 10SM CLR 29/02 A3005 RMK AO2 SLP111 T02890017 10289 20194 58005,M
BAM,2025-07-17 17:55,-116.8743,40.5990,1382.36,87.80,39.20,18.13,300.00,4.00,0.00,30.02,M,10.00,M,CLR,M,M,M,M,M,M,M,M,M,M,M,M,M,M,84.22,KBAM 171755Z AUTO 30004KT 10SM CLR 31/04 A3002 RMK AO1,M
CXP,2025-07-17 17:55,-119.7326,39.1923,1431.00,82.40,35.60,18.70,M,4.00,0.00,30.07,M,10.00,M,CLR,M,M,M,M,M,M,M,M,M,M,M,M,M,M,80.08,KCXP 171755Z AUTO VRB04KT 10SM CLR 28/02 A3007 RMK AO2,M
RTS,2025-07-17 17:55,-119.8764,39.6682,1539.00,78.80,32.00,18.20,M,4.00,0.00,30.11,M,10.00,11.00,CLR,M,M,M,M,M,M,M,M,M,M,M,M,M,M,78.80,KRTS 171755Z AUTO VRB04G11KT 10SM CLR 26/M00 A3011 RMK AO2,M
05U,2025-07-17 17:55,-116.0051,39.6042,1811.23,86.00,28.40,12.46,190.00,4.00,0.00,30.12,M,10.00,M,CLR,M,M,M,M,M,M,M,M,M,M,M,M,M,M,82.54,K05U 171755Z AUTO 19004KT 10SM CLR 30/M02 A3012 RMK A01,M
MEV,2025-07-17 17:55,-119.7500,38.9963,1441.42,82.40,41.00,23.10,M,4.00,0.00,30.06,M,10.00,M,CLR,M,M,M,M,M,M,M,M,M,M,M,M,M,M,80.29,KMEV 171755Z AUTO VRB04KT 10SM CLR 28/05 A3006 RMK AO2,M
HTH,2025-07-17 17:55,-118.6315,38.5448,1282.89,84.20,41.00,21.80,M,3.00,0.00,30.02,M,10.00,10.00,CLR,M,M,M,M,M,M,M,M,M,M,M,M,M,M,81.52,KHTH 171755Z AUTO VRB03G10KT 10SM CLR 29/05 A3002 RMK A01,M
INS,2025-07-17 17:55,-115.6733,36.5872,955.00,93.60,45.00,18.92,90.00,6.00,0.00,29.96,1008.40,10.00,M,FEW,M,M,M,18000.00,M,M,M,M,M,M,M,M,M,M,89.78,KINS 171755Z AUTO 09006KT 10SM FEW180 34/07 A2996 RMK AO2 SLP084 T03420073 10342 20251 50002 $,M
LSV,2025-07-17 17:55,-115.0343,36.2362,570.00,95.50,56.00,26.84,130.00,17.00,0.00,29.87,1008.30,10.00,28.00,FEW,SCT,M,M,15000.00,22000.00,M,M,M,M,M,M,M,M,M,93.98,KLSV 171755Z 13017G28KT 10SM FEW150 SCT220 35/13 A2987 RMK AO2A SLP083 T03530134 10353 20309 50003 $,M
EKO,2025-07-17 17:56,-115.7860,40.8242,1367.00,87.00,36.00,16.39,270.00,6.00,0.00,30.03,1010.20,10.00,M,CLR,M,M,M,M,M,M,M,M,M,M,M,M,M,M,83.49,KEKO 171756Z AUTO 27006KT 10SM CLR 31/02 A3003 RMK AO2 SLP102 T03060022 10306 20122 58005,M
HND,2025-07-17 17:56,-115.1344,35.9729,742.79,93.00,58.00,31.15,160.00,13.00,0.00,29.96,1012.80,10.00,20.00,CLR,M,M,M,M,M,M,M,M,M,M,M,M,M,M,92.01,KHND 171756Z 16013G20KT 10SM CLR 34/14 A2996 RMK AO2 SLP128 T03390144 10344 20283 51001 $,M
TPH,2025-07-17 17:56,-117.0904,38.0505,1654.00,85.00,28.00,12.65,170.00,12.00,0.00,30.11,1010.30,10.00,18.00,CLR,M,M,M,M,M,M,M,M,M,M,M,M,M,M,81.80,KTPH 171756Z AUTO 17012G18KT 10SM CLR 29/M02 A3011 RMK AO2 SLP103 T02941022 10294 20139 58005,M
LAS,2025-07-17 17:56,-115.1634,36.0719,663.00,94.00,54.00,26.13,160.00,9.00,0.00,29.93,1010.30,10.00,18.00,FEW,SCT,BKN,M,10000.00,15000.00,20000.00,M,M,M,M,M,M,M,M,91.81,KLAS 171756Z 16009G18KT 10SM FEW100 SCT150 BKN200 34/12 A2993 RMK AO2 SLP103 T03440122 10350 20294 50001,M
NFL,2025-07-17 17:57,-118.7010,39.4166,1199.00,87.00,36.00,16.39,M,3.00,0.00,30.00,1012.90,9.00,M,FEW,M,M,M,20000.00,M,M,M,M,M,M,M,M,M,M,83.49,KNFL 171757Z VRB03KT 9SM FEW200 31/02 A3000 RMK AO2 SLP129 T03060022 10306 20172 50001,M
TMT,2025-07-17 18:10,-117.1971,39.4643,1749.34,85.00,39.00,19.66,240.00,5.00,0.00,30.10,M,10.00,M,CLR,M,M,M,M,M,M,M,M,M,M,M,M,M,M,82.02,KTMT 171810Z AUTO 24005KT 10SM CLR 29/04 A3010 RMK AO2 T02940038,M
BVU,2025-07-17 18:15,-114.8611,35.9475,671.00,91.40,57.20,31.81,140.00,18.00,0.00,29.93,M,10.00,M,CLR,M,M,M,M,M,M,M,M,M,M,M,M,M,M,90.08,KBVU 171815Z AUTO 14018KT 10SM CLR 33/14 A2993 RMK AO2,M
BAM,2025-07-17 18:15,-116.8743,40.5990,1382.36,89.60,37.40,15.96,290.00,4.00,0.00,30.01,M,10.00,M,CLR,M,M,M,M,M,M,M,M,M,M,M,M,M,M,85.67,KBAM 171815Z AUTO 29004KT 10SM CLR 32/03 A3001 RMK AO1,M
CXP,2025-07-17 18:15,-119.7326,39.1923,1431.00,84.20,35.60,17.64,0.00,0.00,0.00,30.07,M,10.00,M,CLR,M,M,M,M,M,M,M,M,M,M,M,M,M,M,81.34,KCXP 171815Z AUTO 00000KT 10SM CLR 29/02 A3007 RMK AO2,M
RTS,2025-07-17 18:15,-119.8764,39.6682,1539.00,80.60,32.00,17.16,M,5.00,0.00,30.10,M,10.00,12.00,CLR,M,M,M,M,M,M,M,M,M,M,M,M,M,M,78.82,KRTS 171815Z AUTO VRB05G12KT 10SM CLR 27/M00 A3010 RMK AO2,M
05U,2025-07-17 18:15,-116.0051,39.6042,1811.23,87.80,26.60,10.93,M,4.00,0.00,30.11,M,10.00,M,CLR,M,M,M,M,M,M,M,M,M,M,M,M,M,M,83.69,K05U 171815Z AUTO VRB04KT 10SM CLR 31/M03 A3011 RMK A01,M
MEV,2025-07-17 18:15,-119.7500,38.9963,1441.42,80.60,42.80,26.26,0.00,0.00,0.00,30.05,M,10.00,M,CLR,M,M,M,M,M,M,M,M,M,M,M,M,M,M,79.31,KMEV 171815Z AUTO 00000KT 10SM CLR 27/06 A3005 RMK AO2,M
HTH,2025-07-17 18:15,-118.6315,38.5448,1282.89,86.00,39.20,19.19,M,4.00,0.00,30.01,M,10.00,13.00,CLR,M,M,M,M,M,M,M,M,M,M,M,M,M,M,82.79,KHTH 171815Z AUTO VRB04G13KT 10SM CLR 30/04 A3001 RMK A01,M
RTS,2025-07-17 18:25,-119.8764,39.6682,1539.00,82.40,32.00,16.19,290.00,8.00,0.00,30.10,M,10.00,13.00,CLR,M,M,M,M,M,M,M,M,M,M,M,M,M,M,80.00,KRTS 171825Z AUTO 29008G13KT 10SM CLR 28/00 A3010 RMK AO2,M
MEV,2025-07-17 18:25,-119.7500,38.9963,1441.42,84.20,42.80,23.37,180.00,4.00,0.00,30.05,M,9.00,M,CLR,M,M,M,M,M,M,M,M,M,M,M,M,M,M,81.61,KMEV 171825Z AUTO 18004KT 9SM CLR 29/06 A3005 RMK AO2,M
TMT,2025-07-17 18:30,-117.1971,39.4643,1749.34,85.50,37.60,18.32,0.00,0.00,0.00,30.09,M,10.00,M,CLR,M,M,M,M,M,M,M,M,M,M,M,M,M,M,82.35,KTMT 171830Z AUTO 00000KT 10SM CLR 30/03 A3009 RMK AO2 T02970031,M
BVU,2025-07-17 18:35,-114.8611,35.9475,671.00,93.20,57.20,30.08,150.00,16.00,0.00,29.93,M,10.00,22.00,CLR,M,M,M,M,M,M,M,M,M,M,M,M,M,M,91.94,KBVU 171835Z AUTO 15016G22KT 10SM CLR 34/14 A2993 RMK AO2,M
BAM,2025-07-17 18:35,-116.8743,40.5990,1382.36,89.60,37.40,15.96,300.00,3.00,0.00,30.00,M,10.00,M,CLR,M,M,M,M,M,M,M,M,M,M,M,M,M,M,85.67,KBAM 171835Z AUTO 30003KT 10SM CLR 32/03 A3000 RMK AO1,M
CXP,2025-07-17 18:35,-119.7326,39.1923,1431.00,84.20,35.60,17.64,M,4.00,0.00,30.06,M,10.00,M,CLR,M,M,M,M,M,M,M,M,M,M,M,M,M,M,81.34,KCXP 171835Z AUTO VRB04KT 10SM CLR 29/02 A3006 RMK AO2,M
05U,2025-07-17 18:35,-116.0051,39.6042,1811.23,87.80,26.60,10.93,0.00,0.00,0.00,30.11,M,10.00,10.00,CLR,M,M,M,M,M,M,M,M,M,M,M,M,M,M,83.69,K05U 171835Z AUTO 00000G10KT 10SM CLR 31/M03 A3011 RMK A01,M
HTH,2025-07-17 18:35,-118.6315,38.5448,1282.89,87.80,39.20,18.13,350.00,10.00,0.00,30.00,M,10.00,M,CLR,M,M,M,M,M,M,M,M,M,M,M,M,M,M,84.22,KHTH 171835Z AUTO 35010KT 10SM CLR 31/04 A3000 RMK A01,M
INS,2025-07-17 18:41,-115.6733,36.5872,955.00,95.00,44.60,17.85,120.00,12.00,0.00,29.95,1007.90,10.00,17.00,CLR,M,M,M,M,M,M,M,M,M,M,M,M,M,M,91.07,KINS 171841Z AUTO 12012G17KT 10SM CLR 35/07 A2995 RMK AO2 WSHFT 39 SLP079 $,M
TMT,2025-07-17 18:50,-117.1971,39.4643,1749.34,86.50,38.30,18.24,0.00,0.00,0.00,30.09,M,10.00,M,CLR,M,M,M,M,M,M,M,M,M,M,M,M,M,M,83.15,KTMT 171850Z AUTO 00000KT 10SM CLR 30/04 A3009 RMK AO2 T03030035,M
P68,2025-07-17 18:53,-116.0056,39.6014,1993.00,90.00,27.00,10.37,140.00,13.00,0.00,30.08,1008.30,M,M,M,M,M,M,M,M,M,M,M,M,M,M,M,M,M,85.35,KP68 171853Z AUTO 14013KT 32/M03 A3008 RMK AO1 SLP083 T03221028,M
DRA,2025-07-17 18:53,-116.0278,36.6206,1009.00,95.00,48.00,20.29,210.00,18.00,0.00,29.97,1008.90,10.00,27.00,CLR,M,M,M,M,M,M,M,M,M,M,M,29.00,230.00,2025-07-17 18:41,91.54,KDRA 171853Z AUTO 21018G27KT 10SM CLR 35/09 A2997 RMK AO2 PK WND 23029/1841 SLP089 T03500089,M
ELY,2025-07-17 18:53,-114.8453,39.2950,1909.00,88.00,28.00,11.50,210.00,13.00,0.00,30.13,1008.60,10.00,21.00,CLR,M,M,M,M,M,M,M,M,M,M,M,M,M,M,83.95,KELY 171853Z AUTO 21013G21KT 10SM CLR 31/M02 A3013 RMK AO2 SLP086 T03111022,M
VGT,2025-07-17 18:53,-115.1933,36.2111,667.00,95.00,56.00,27.25,130.00,8.00,0.00,29.90,1011.00,10.00,22.00,CLR,M,M,M,M,M,M,M,M,M,M,M,M,M,M,93.44,KVGT 171853Z 13008G22KT 10SM CLR 35/13 A2990 RMK AO2 SLP110 T03500133,M
LOL,2025-07-17 18:53,-118.5701,40.0684,1192.43,92.00,35.00,13.47,140.00,6.00,0.00,29.97,1009.40,10.00,M,CLR,M,M,M,M,M,M,M,M,M,M,M,M,M,M,87.68,KLOL 171853Z AUTO 14006KT 10SM CLR 33/02 A2997 RMK AO2 SLP094 T03330017,M
BVU,2025-07-17 18:55,-114.8611,35.9475,671.00,91.40,57.20,31.81,140.00,16.00,0.00,29.92,M,10.00,22.00,CLR,M,M,M,M,M,M,M,M,M,M,M,M,M,M,90.08,KBVU 171855Z AUTO 14016G22KT 10SM CLR 33/14 A2992 RMK AO2,M
RNO,2025-07-17 18:55,-119.7711,39.4839,1341.00,86.00,35.00,16.27,280.00,8.00,0.00,30.03,1010.50,10.00,M,CLR,M,M,M,M,M,M,M,M,M,M,M,M,M,M,82.68,KRNO 171855Z 28008KT 10SM CLR 30/02 A3003 RMK AO2 SLP105 T03000017,M
BAM,2025-07-17 18:55,-116.8743,40.5990,1382.36,91.40,37.40,15.09,0.00,0.00,0.00,30.00,M,10.00,M,CLR,M,M,M,M,M,M,M,M,M,M,M,M,M,M,87.23,KBAM 171855Z AUTO 00000KT 10SM CLR 33/03 A3000 RMK AO1,M
CXP,2025-07-17 18:55,-119.7326,39.1923,1431.00,86.00,35.60,16.66,M,5.00,0.00,30.06,M,10.00,M,CLR,M,M,M,M,M,M,M,M,M,M,M,M,M,M,82.69,KCXP 171855Z AUTO VRB05KT 10SM CLR 30/02 A3006 RMK AO2,M
RTS,2025-07-17 18:55,-119.8764,39.6682,1539.00,82.40,30.20,15.05,330.00,8.00,0.00,30.09,M,10.00,M,CLR,M,M,M,M,M,M,M,M,M,M,M,M,M,M,79.97,KRTS 171855Z AUTO 33008KT 300V360 10SM CLR 28/M01 A3009 RMK AO2,M
05U,2025-07-17 18:55,-116.0051,39.6042,1811.23,89.60,24.80,9.58,140.00,11.00,0.00,30.11,M,10.00,M,CLR,M,M,M,M,M,M,M,M,M,M,M,M,M,M,84.88,K05U 171855Z AUTO 14011KT 10SM CLR 32/M04 A3011 RMK A01,M
MEV,2025-07-17 18:55,-119.7500,38.9963,1441.42,84.20,39.20,20.33,M,3.00,0.00,30.04,M,10.00,M,CLR,M,M,M,M,M,M,M,M,M,M,M,M,M,M,81.44,KMEV 171855Z AUTO VRB03KT 10SM CLR 29/04 A3004 RMK AO2,M
HTH,2025-07-17 18:55,-118.6315,38.5448,1282.89,87.80,39.20,18.13,350.00,6.00,0.00,30.00,M,10.00,12.00,CLR,M,M,M,M,M,M,M,M,M,M,M,M,M,M,84.22,KHTH 171855Z AUTO 35006G12KT 10SM CLR 31/04 A3000 RMK A01,M
INS,2025-07-17 18:55,-115.6733,36.5872,955.00,94.00,44.00,17.99,100.00,12.00,0.00,29.95,1007.90,10.00,17.00,CLR,M,M,M,M,M,M,M,M,M,M,M,M,M,M,90.05,KINS 171855Z AUTO 10012G17KT 10SM CLR 35/07 A2995 RMK AO2 SLP079 T03450067 $,M
LSV,2025-07-17 18:55,-115.0343,36.2362,570.00,95.70,55.20,25.91,150.00,10.00,0.00,29.86,1007.90,10.00,M,FEW,BKN,M,M,15000.00,22000.00,M,M,M,M,M,M,M,M,M,93.93,KLSV 171855Z 15010KT 10SM FEW150 BKN220 35/13 A2986 RMK AO2A SLP079 T03540129 $,M
EKO,2025-07-17 18:56,-115.7860,40.8242,1367.00,91.00,37.00,15.04,220.00,7.00,0.00,30.01,1009.40,10.00,M,CLR,M,M,M,M,M,M,M,M,M,M,M,M,M,M,86.87,KEKO 171856Z AUTO 22007KT 10SM CLR 33/03 A3001 RMK AO2 SLP094 T03280028,M
HND,2025-07-17 18:56,-115.1344,35.9729,742.79,95.00,58.00,29.29,160.00,5.00,0.00,29.95,1012.40,10.00,M,CLR,M,M,M,M,M,M,M,M,M,M,M,M,M,M,94.15,KHND 171856Z 16005KT 10SM CLR 35/14 A2995 RMK AO2 SLP124 T03500144 $,M
TPH,2025-07-17 18:56,-117.0904,38.0505,1654.00,88.00,27.00,11.04,190.00,10.00,0.00,30.09,1009.90,10.00,19.00,CLR,M,M,M,M,M,M,M,M,M,M,M,M,M,M,83.87,KTPH 171856Z AUTO 19010G19KT 10SM CLR 31/M03 A3009 RMK AO2 SLP099 T03111028,M
LAS,2025-07-17 18:56,-115.1634,36.0719,663.00,97.00,54.00,23.84,170.00,7.00,0.00,29.92,1010.00,10.00,19.00,FEW,BKN,M,M,11000.00,20000.00,M,M,M,M,M,M,M,M,M,94.95,KLAS 171856Z 17007G19KT 10SM FEW110 BKN200 36/12 A2992 RMK AO2 SLP100 T03610122,M
NFL,2025-07-17 18:57,-118.7010,39.4166,1199.00,90.00,36.00,14.92,M,4.00,0.00,29.98,1012.40,10.00,M,FEW,SCT,M,M,8000.00,20000.00,M,M,M,M,M,M,M,M,M,85.97,KNFL 171857Z VRB04KT 10SM FEW080 SCT200 32/02 A2998 RMK AO2 SLP124 T03220022,M
TMT,2025-07-17 19:10,-117.1971,39.4643,1749.34,87.40,38.00,17.52,230.00,5.00,0.00,30.09,M,10.00,M,CLR,M,M,M,M,M,M,M,M,M,M,M,M,M,M,83.86,KTMT 171910Z AUTO 23005KT 10SM CLR 31/03 A3009 RMK AO2 T03080033,M
BVU,2025-07-17 19:15,-114.8611,35.9475,671.00,93.20,55.40,28.19,150.00,14.00,0.00,29.92,M,10.00,19.00,CLR,M,M,M,M,M,M,M,M,M,M,M,M,M,M,91.37,KBVU 171915Z AUTO 15014G19KT 10SM CLR 34/13 A2992 RMK AO2,M
BAM,2025-07-17 19:15,-116.8743,40.5990,1382.36,95.00,37.40,13.50,260.00,3.00,0.00,29.99,M,10.00,M,CLR,M,M,M,M,M,M,M,M,M,M,M,M,M,M,90.46,KBAM 171915Z AUTO 26003KT 10SM CLR 35/03 A2999 RMK AO1,M
CXP,2025-07-17 19:15,-119.7326,39.1923,1431.00,87.80,35.60,15.73,330.00,7.00,0.00,30.05,M,10.00,M,CLR,M,M,M,M,M,M,M,M,M,M,M,M,M,M,84.12,KCXP 171915Z AUTO 33007KT 300V360 10SM CLR 31/02 A3005 RMK AO2,M
RTS,2025-07-17 19:15,-119.8764,39.6682,1539.00,82.40,30.20,15.05,M,4.00,0.00,30.09,M,10.00,13.00,CLR,M,M,M,M,M,M,M,M,M,M,M,M,M,M,79.97,KRTS 171915Z AUTO VRB04G13KT 10SM CLR 28/M01 A3009 RMK AO2,M
05U,2025-07-17 19:15,-116.0051,39.6042,1811.23,91.40,23.00,8.40,M,6.00,0.00,30.11,M,10.00,13.00,CLR,M,M,M,M,M,M,M,M,M,M,M,M,M,M,86.09,K05U 171915Z AUTO VRB06G13KT 10SM CLR 33/M05 A3011 RMK A01,M
MEV,2025-07-17 19:15,-119.7500,38.9963,1441.42,86.00,37.40,17.89,290.00,6.00,0.00,30.04,M,10.00,M,CLR,M,M,M,M,M,M,M,M,M,M,M,M,M,M,82.73,KMEV 171915Z AUTO 29006KT 10SM CLR 30/03 A3004 RMK AO2,M
HTH,2025-07-17 19:15,-118.6315,38.5448,1282.89,89.60,37.40,15.96,330.00,7.00,0.00,29.99,M,10.00,13.00,CLR,M,M,M,M,M,M,M,M,M,M,M,M,M,M,85.67,KHTH 171915Z AUTO 33007G13KT 300V010 10SM CLR 32/03 A2999 RMK A01,M
TMT,2025-07-17 19:30,-117.1971,39.4643,1749.34,86.00,38.50,18.68,200.00,9.00,0.00,30.09,M,10.00,M,CLR,M,M,M,M,M,M,M,M,M,M,M,M,M,M,82.76,KTMT 171930Z AUTO 20009KT 10SM CLR 30/04 A3009 RMK AO2 T03000036,M
BVU,2025-07-17 19:35,-114.8611,35.9475,671.00,95.00,55.40,26.67,140.00,15.00,0.00,29.91,M,10.00,M,CLR,M,M,M,M,M,M,M,M,M,M,M,M,M,M,93.25,KBVU 171935Z AUTO 14015KT 10SM CLR 35/13 A2991 RMK AO2,M
CXP,2025-07-17 19:35,-119.7326,39.1923,1431.00,87.80,35.60,15.73,10.00,4.00,0.00,30.05,M,10.00,12.00,CLR,M,M,M,M,M,M,M,M,M,M,M,M,M,M,84.12,KCXP 171935Z AUTO 01004G12KT 10SM CLR 31/02 A3005 RMK AO2,M
RTS,2025-07-17 19:35,-119.8764,39.6682,1539.00,84.20,32.00,15.28,0.00,0.00,0.00,30.08,M,10.00,14.00,CLR,M,M,M,M,M,M,M,M,M,M,M,M,M,M,81.28,KRTS 171935Z AUTO 00000G14KT 10SM CLR 29/M00 A3008 RMK AO2,M
05U,2025-07-17 19:35,-116.0051,39.6042,1811.23,91.40,21.20,7.78,M,4.00,0.00,30.10,M,10.00,12.00,CLR,M,M,M,M,M,M,M,M,M,M,M,M,M,M,85.97,K05U 171935Z AUTO VRB04G12KT 10SM CLR 33/M06 A3010 RMK A01,M
MEV,2025-07-17 19:35,-119.7500,38.9963,1441.42,86.00,35.60,16.66,M,5.00,0.00,30.03,M,10.00,M,CLR,M,M,M,M,M,M,M,M,M,M,M,M,M,M,82.69,KMEV 171935Z AUTO VRB05KT 10SM CLR 30/02 A3003 RMK AO2,M
HTH,2025-07-17 19:35,-118.6315,38.5448,1282.89,89.60,37.40,15.96,350.00,7.00,0.00,29.99,M,10.00,M,CLR,M,M,M,M,M,M,M,M,M,M,M,M,M,M,85.67,KHTH 171935Z AUTO 35007KT 320V030 10SM CLR 32/03 A2999 RMK A01,M
BAM,2025-07-17 19:35,-116.8743,40.5990,1382.36,93.20,35.60,13.29,200.00,6.00,0.00,29.99,M,10.00,M,CLR,M,M,M,M,M,M,M,M,M,M,M,M,M,M,88.76,KBAM 171935Z AUTO 20006KT 10SM CLR 34/02 A2999 RMK AO1,M
INS,2025-07-17 19:40,-115.6733,36.5872,955.00,96.80,46.40,18.08,70.00,13.00,0.00,29.94,1007.70,10.00,21.00,FEW,M,M,M,20000.00,M,M,M,M,M,M,M,M,M,M,93.07,KINS 171940Z AUTO 07013G21KT 10SM FEW200 36/08 A2994 RMK AO2 WSHFT 32 SLP077 $,M
INS,2025-07-17 19:44,-115.6733,36.5872,955.00,96.80,46.40,18.08,100.00,11.00,0.00,29.94,1007.70,10.00,18.00,FEW,M,M,M,20000.00,M,M,M,M,M,M,M,M,M,M,93.07,KINS 171944Z AUTO 10011G18KT 10SM FEW200 36/08 A2994 RMK AO2 WSHFT 41 SLP077 $,M
TMT,2025-07-17 19:50,-117.1971,39.4643,1749.34,83.00,34.00,17.21,220.00,16.00,0.00,30.10,M,10.00,26.00,SCT,M,M,M,11000.00,M,M,M,M,M,M,M,M,M,M,80.45,KTMT 171950Z AUTO 22016G26KT 10SM SCT110 28/01 A3010 RMK AO2 T02840012,M
P68,2025-07-17 19:53,-116.0056,39.6014,1993.00,90.00,22.00,8.41,M,M,0.00,30.06,1007.40,M,M,M,M,M,M,M,M,M,M,M,M,M,M,M,M,M,84.98,KP68 171953Z AUTO 32/M06 A3006 RMK AO1 SLP074 T03221056,M
DRA,2025-07-17 19:53,-116.0278,36.6206,1009.00,96.00,47.00,18.96,230.00,12.00,0.00,29.96,1008.40,10.00,26.00,CLR,M,M,M,M,M,M,M,M,M,M,M,28.00,210.00,2025-07-17 19:23,92.37,KDRA 171953Z AUTO 23012G26KT 10SM CLR 36/08 A2996 RMK AO2 PK WND 21028/1923 SLP084 T03560083,M
ELY,2025-07-17 19:53,-114.8453,39.2950,1909.00,89.00,24.00,9.44,270.00,13.00,0.00,30.11,1007.60,10.00,22.00,CLR,M,M,M,M,M,M,M,M,M,M,M,M,M,M,84.38,KELY 171953Z AUTO 27013G22KT 10SM CLR 32/M04 A3011 RMK AO2 SLP076 T03171044,M
VGT,2025-07-17 19:53,-115.1933,36.2111,667.00,99.00,54.00,22.44,160.00,12.00,0.00,29.88,1010.20,10.00,20.00,CLR,M,M,M,M,M,M,M,M,M,M,M,M,M,M,97.10,KVGT 171953Z 16012G20KT 10SM CLR 37/12 A2988 RMK AO2 SLP102 T03720122,M
LOL,2025-07-17 19:53,-118.5701,40.0684,1192.43,92.00,34.00,12.94,0.00,0.00,0.00,29.95,1009.20,10.00,M,CLR,M,M,M,M,M,M,M,M,M,M,M,M,M,M,87.65,KLOL 171953Z AUTO 00000KT 10SM CLR 33/01 A2995 RMK AO2 SLP092 T03330011,M
BVU,2025-07-17 19:55,-114.8611,35.9475,671.00,95.00,55.40,26.67,150.00,14.00,0.00,29.90,M,10.00,M,CLR,M,M,M,M,M,M,M,M,M,M,M,M,M,M,93.25,KBVU 171955Z AUTO 15014KT 10SM CLR 35/13 A2990 RMK AO2,M
RNO,2025-07-17 19:55,-119.7711,39.4839,1341.00,88.00,35.00,15.27,240.00,5.00,0.00,30.02,1009.90,10.00,M,FEW,M,M,M,9000.00,M,M,M,M,M,M,M,M,M,M,84.28,KRNO 171955Z 24005KT 10SM FEW090 31/02 A3002 RMK AO2 SLP099 T03110017,M
BAM,2025-07-17 19:55,-116.8743,40.5990,1382.36,95.00,35.60,12.58,260.00,6.00,0.00,29.98,M,10.00,M,CLR,M,M,M,M,M,M,M,M,M,M,M,M,M,M,90.27,KBAM 171955Z AUTO 26006KT 10SM CLR 35/02 A2998 RMK AO1,M
CXP,2025-07-17 19:55,-119.7326,39.1923,1431.00,87.80,35.60,15.73,M,6.00,0.00,30.04,M,10.00,M,CLR,M,M,M,M,M,M,M,M,M,M,M,M,M,M,84.12,KCXP 171955Z AUTO VRB06KT 10SM CLR 31/02 A3004 RMK AO2,M
INS,2025-07-17 19:55,-115.6733,36.5872,955.00,96.30,46.00,18.09,90.00,13.00,0.00,29.93,1007.40,10.00,19.00,FEW,M,M,M,21000.00,M,M,M,M,M,M,M,M,M,M,92.51,KINS 171955Z AUTO 09013G19KT 10SM FEW210 36/08 A2993 RMK AO2 SLP074 T03570077 $,M
RTS,2025-07-17 19:55,-119.8764,39.6682,1539.00,84.20,32.00,15.28,M,5.00,0.00,30.07,M,10.00,16.00,CLR,M,M,M,M,M,M,M,M,M,M,M,M,M,M,81.28,KRTS 171955Z AUTO VRB05G16KT 10SM CLR 29/M00 A3007 RMK AO2,M
05U,2025-07-17 19:55,-116.0051,39.6042,1811.23,91.40,23.00,8.40,0.00,0.00,0.00,30.09,M,10.00,M,CLR,M,M,M,M,M,M,M,M,M,M,M,M,M,M,86.09,K05U 171955Z AUTO 00000KT 10SM CLR 33/M05 A3009 RMK A01,M
MEV,2025-07-17 19:55,-119.7500,38.9963,1441.42,87.80,35.60,15.73,320.00,4.00,0.00,30.03,M,10.00,10.00,CLR,M,M,M,M,M,M,M,M,M,M,M,M,M,M,84.12,KMEV 171955Z AUTO 32004G10KT 10SM CLR 31/02 A3003 RMK AO2,M
HTH,2025-07-17 19:55,-118.6315,38.5448,1282.89,91.40,37.40,15.09,M,4.00,0.00,29.97,M,10.00,11.00,CLR,M,M,M,M,M,M,M,M,M,M,M,M,M,M,87.23,KHTH 171955Z AUTO VRB04G11KT 10SM CLR 33/03 A2997 RMK A01,M
LSV,2025-07-17 19:55,-115.0343,36.2362,570.00,98.00,55.00,23.99,140.00,9.00,0.00,29.84,1007.20,10.00,17.00,FEW,SCT,M,M,15000.00,22000.00,M,M,M,M,M,M,M,M,M,96.34,KLSV 171955Z 14009G17KT 10SM FEW150 SCT220 37/13 A2984 RMK AO2A TCU DSNT N SLP072 T03660127 $,M
EKO,2025-07-17 19:56,-115.7860,40.8242,1367.00,93.00,35.00,13.06,M,5.00,0.00,29.99,1008.70,10.00,M,CLR,M,M,M,M,M,M,M,M,M,M,M,M,M,M,88.56,KEKO 171956Z AUTO VRB05KT 10SM CLR 34/02 A2999 RMK AO2 SLP087 T03390017,M
HND,2025-07-17 19:56,-115.1344,35.9729,742.79,96.00,56.00,26.43,140.00,7.00,0.00,29.94,1011.80,10.00,M,CLR,M,M,M,M,M,M,M,M,M,M,M,M,M,M,94.51,KHND 171956Z 14007KT 10SM CLR 36/13 A2994 RMK AO2 SLP118 T03560133 $,M
TPH,2025-07-17 19:56,-117.0904,38.0505,1654.00,90.00,27.00,10.37,180.00,12.00,0.00,30.08,1009.30,10.00,22.00,CLR,M,M,M,M,M,M,M,M,M,M,M,M,M,M,85.35,KTPH 171956Z AUTO 18012G22KT 10SM CLR 32/M03 A3008 RMK AO2 SLP093 T03221028,M
LAS,2025-07-17 19:56,-115.1634,36.0719,663.00,98.00,53.00,22.30,M,4.00,0.00,29.90,1009.30,10.00,18.00,FEW,BKN,M,M,11000.00,20000.00,M,M,M,M,M,M,M,M,M,95.72,KLAS 171956Z VRB04G18KT 10SM FEW110 BKN200 37/12 A2990 RMK AO2 SLP093 T03670117,M
NFL,2025-07-17 19:57,-118.7010,39.4166,1199.00,92.00,36.00,14.02,210.00,6.00,0.00,29.96,1011.90,9.00,M,SCT,SCT,M,M,8000.00,20000.00,M,M,M,M,M,M,M,M,M,87.71,KNFL 171957Z 21006KT 9SM SCT080 SCT200 33/02 A2996 RMK AO2 SLP119 T03330022,M
INS,2025-07-17 19:57,-115.6733,36.5872,955.00,96.80,44.60,16.89,140.00,12.00,0.00,29.93,1007.40,10.00,19.00,FEW,M,M,M,21000.00,M,M,M,M,M,M,M,M,M,M,92.81,KINS 171957Z AUTO 14012G19KT 10SM FEW210 36/07 A2993 RMK AO2 WSHFT 55 SLP074 $,M
LAS,2025-07-17 20:00,-115.1634,36.0719,663.00,98.00,53.00,22.30,210.00,9.00,0.00,29.90,M,10.00,15.00,FEW,BKN,M,M,11000.00,20000.00,M,M,M,M,M,M,M,M,M,95.72,KLAS 172000Z 21009G15KT 170V230 10SM FEW110 BKN200 37/12 A2990 RMK AO2 T03670117,M
TMT,2025-07-17 20:10,-117.1971,39.4643,1749.34,82.60,38.00,20.42,260.00,8.00,0.00,30.10,M,10.00,M,SCT,BKN,BKN,M,6000.00,9500.00,12000.00,M,M,M,M,M,M,M,M,80.29,KTMT 172010Z AUTO 26008KT 10SM SCT060 BKN095 BKN120 28/03 A3010 RMK AO2 T02810033,M
BVU,2025-07-17 20:15,-114.8611,35.9475,671.00,95.00,55.40,26.67,140.00,16.00,0.00,29.89,M,10.00,M,CLR,M,M,M,M,M,M,M,M,M,M,M,M,M,M,93.25,KBVU 172015Z AUTO 14016KT 10SM CLR 35/13 A2989 RMK AO2,M
BAM,2025-07-17 20:15,-116.8743,40.5990,1382.36,95.00,35.60,12.58,0.00,0.00,0.00,29.97,M,10.00,M,CLR,M,M,M,M,M,M,M,M,M,M,M,M,M,M,90.27,KBAM 172015Z AUTO 00000KT 10SM CLR 35/02 A2997 RMK AO1,M
CXP,2025-07-17 20:15,-119.7326,39.1923,1431.00,89.60,35.60,14.87,270.00,8.00,0.00,30.03,M,10.00,13.00,CLR,M,M,M,M,M,M,M,M,M,M,M,M,M,M,85.62,KCXP 172015Z AUTO 27008G13KT 10SM CLR 32/02 A3003 RMK AO2,M
INS,2025-07-17 20:15,-115.6733,36.5872,955.00,96.80,46.40,18.08,50.00,11.00,0.00,29.92,1007.00,10.00,19.00,CLR,M,M,M,M,M,M,M,M,M,M,M,M,M,M,93.07,KINS 172015Z AUTO 05011G19KT 10SM CLR 36/08 A2992 RMK AO2 WSHFT 09 SLP070 $,M
RTS,2025-07-17 20:15,-119.8764,39.6682,1539.00,84.20,32.00,15.28,50.00,5.00,0.00,30.07,M,10.00,M,CLR,M,M,M,M,M,M,M,M,M,M,M,M,M,M,81.28,KRTS 172015Z AUTO 05005KT 10SM CLR 29/00 A3007 RMK AO2,M
05U,2025-07-17 20:15,-116.0051,39.6042,1811.23,87.80,23.00,9.40,0.00,0.00,0.00,30.08,M,10.00,M,CLR,M,M,M,M,M,M,M,M,M,M,M,M,M,M,83.44,K05U 172015Z AUTO 00000KT 10SM CLR 31/M05 A3008 RMK A01,M
MEV,2025-07-17 20:15,-119.7500,38.9963,1441.42,89.60,33.80,13.84,320.00,6.00,0.00,30.02,M,10.00,12.00,CLR,M,M,M,M,M,M,M,M,M,M,M,M,M,M,85.59,KMEV 172015Z AUTO 32006G12KT 10SM CLR 32/01 A3002 RMK AO2,M
HTH,2025-07-17 20:15,-118.6315,38.5448,1282.89,91.40,35.60,14.05,M,5.00,0.00,29.96,M,10.00,M,CLR,M,M,M,M,M,M,M,M,M,M,M,M,M,M,87.17,KHTH 172015Z AUTO VRB05KT 10SM CLR 33/02 A2996 RMK A01,M
INS,2025-07-17 20:17,-115.6733,36.5872,955.00,96.80,46.40,18.08,100.00,10.00,0.00,29.92,1007.00,10.00,19.00,CLR,M,M,M,M,M,M,M,M,M,M,M,M,M,M,93.07,KINS 172017Z AUTO 10010G19KT 10SM CLR 36/08 A2992 RMK AO2 WSHFT 16 SLP070 $,M
TMT,2025-07-17 20:30,-117.1971,39.4643,1749.34,82.60,35.00,18.14,300.00,10.00,0.00,30.09,M,10.00,14.00,SCT,M,M,M,9500.00,M,M,M,M,M,M,M,M,M,M,80.20,KTMT 172030Z AUTO 30010G14KT 10SM SCT095 28/02 A3009 RMK AO2 T02810016,M
BVU,2025-07-17 20:35,-114.8611,35.9475,671.00,95.00,55.40,26.67,150.00,18.00,0.00,29.88,M,10.00,M,CLR,M,M,M,M,M,M,M,M,M,M,M,M,M,M,93.25,KBVU 172035Z AUTO 15018KT 10SM CLR 35/13 A2988 RMK AO2,M
BAM,2025-07-17 20:35,-116.8743,40.5990,1382.36,96.80,35.60,11.90,280.00,9.00,0.00,29.96,M,10.00,M,CLR,M,M,M,M,M,M,M,M,M,M,M,M,M,M,91.74,KBAM 172035Z AUTO 28009KT 10SM CLR 36/02 A2996 RMK AO1,M
CXP,2025-07-17 20:35,-119.7326,39.1923,1431.00,89.60,35.60,14.87,290.00,8.00,0.00,30.03,M,10.00,14.00,CLR,M,M,M,M,M,M,M,M,M,M,M,M,M,M,85.62,KCXP 172035Z AUTO 29008G14KT 10SM CLR 32/02 A3003 RMK AO2,M
RTS,2025-07-17 20:35,-119.8764,39.6682,1539.00,86.00,32.00,14.42,200.00,6.00,0.00,30.07,M,10.00,13.00,CLR,M,M,M,M,M,M,M,M,M,M,M,M,M,M,82.64,KRTS 172035Z AUTO 20006G13KT 10SM CLR 30/00 A3007 RMK AO2,M
05U,2025-07-17 20:35,-116.0051,39.6042,1811.23,87.80,24.80,10.14,230.00,10.00,0.00,30.07,M,10.00,M,CLR,M,M,M,M,M,M,M,M,M,M,M,M,M,M,83.56,K05U 172035Z AUTO 23010KT 10SM CLR 31/M04 A3007 RMK A01,M
MEV,2025-07-17 20:35,-119.7500,38.9963,1441.42,87.80,37.40,16.89,340.00,8.00,0.00,30.01,M,10.00,13.00,CLR,M,M,M,M,M,M,M,M,M,M,M,M,M,M,84.17,KMEV 172035Z AUTO 34008G13KT 300V040 10SM CLR 31/03 A3001 RMK AO2,M
HTH,2025-07-17 20:35,-118.6315,38.5448,1282.89,93.20,35.60,13.29,M,5.00,0.00,29.95,M,10.00,13.00,CLR,M,M,M,M,M,M,M,M,M,M,M,M,M,M,88.76,KHTH 172035Z AUTO VRB05G13KT 10SM CLR 34/02 A2995 RMK A01,M
TMT,2025-07-17 20:50,-117.1971,39.4643,1749.34,84.00,33.60,16.40,250.00,3.00,0.00,30.08,M,10.00,14.00,CLR,M,M,M,M,M,M,M,M,M,M,M,M,M,M,81.15,KTMT 172050Z AUTO 25003G14KT 10SM CLR 29/01 A3008 RMK AO2 T02880009,M
P68,2025-07-17 20:53,-116.0056,39.6014,1993.00,91.00,25.00,9.25,220.00,10.00,0.00,30.04,1007.10,M,19.00,M,M,M,M,M,M,M,M,M,M,M,M,M,M,M,85.94,KP68 172053Z AUTO 22010G19KT 33/M04 A3004 RMK AO1 SLP071 T03281039 58015,M
DRA,2025-07-17 20:53,-116.0278,36.6206,1009.00,97.00,48.00,19.09,210.00,12.00,0.00,29.94,1007.60,10.00,23.00,CLR,M,M,M,M,M,M,M,M,M,M,M,M,M,M,93.54,KDRA 172053Z AUTO 21012G23KT 10SM CLR 36/09 A2994 RMK AO2 SLP076 T03610089 58011,M
ELY,2025-07-17 20:53,-114.8453,39.2950,1909.00,92.00,21.00,7.58,210.00,15.00,0.00,30.09,1006.40,10.00,23.00,CLR,M,M,M,M,M,M,M,M,M,M,M,M,M,M,86.40,KELY 172053Z AUTO 21015G23KT 10SM CLR 33/M06 A3009 RMK AO2 SLP064 T03331061 58017,M
VGT,2025-07-17 20:53,-115.1933,36.2111,667.00,99.00,54.00,22.44,120.00,15.00,0.00,29.86,1009.50,10.00,22.00,CLR,M,M,M,M,M,M,M,M,M,M,M,M,M,M,97.10,KVGT 172053Z 12015G22KT 10SM CLR 37/12 A2986 RMK AO2 SLP095 T03720122 58017,M
LOL,2025-07-17 20:53,-118.5701,40.0684,1192.43,95.00,33.00,11.34,150.00,7.00,0.00,29.93,1008.40,10.00,M,CLR,M,M,M,M,M,M,M,M,M,M,M,M,M,M,89.86,KLOL 172053Z AUTO 15007KT 110V220 10SM CLR 35/01 A2993 RMK AO2 SLP084 T03500006 58017,M
BVU,2025-07-17 20:55,-114.8611,35.9475,671.00,95.00,55.40,26.67,150.00,18.00,0.00,29.88,M,10.00,M,CLR,M,M,M,M,M,M,M,M,M,M,M,M,M,M,93.25,KBVU 172055Z AUTO 15018KT 10SM CLR 35/13 A2988 RMK AO2,M
RNO,2025-07-17 20:55,-119.7711,39.4839,1341.00,90.00,38.00,16.14,250.00,7.00,0.00,30.00,1009.20,10.00,M,FEW,M,M,M,9000.00,M,M,M,M,M,M,M,M,M,M,86.03,KRNO 172055Z 25007KT 10SM FEW090 32/03 A3000 RMK AO2 SLP092 T03220033 58016,M
BAM,2025-07-17 20:55,-116.8743,40.5990,1382.36,96.80,33.80,11.08,0.00,0.00,0.00,29.95,M,10.00,M,CLR,M,M,M,M,M,M,M,M,M,M,M,M,M,M,91.45,KBAM 172055Z AUTO 00000KT 10SM CLR 36/01 A2995 RMK AO1,M
CXP,2025-07-17 20:55,-119.7326,39.1923,1431.00,91.40,33.80,13.08,310.00,6.00,0.00,30.02,M,10.00,17.00,CLR,M,M,M,M,M,M,M,M,M,M,M,M,M,M,87.13,KCXP 172055Z AUTO 31006G17KT 10SM CLR 33/01 A3002 RMK AO2,M
RTS,2025-07-17 20:55,-119.8764,39.6682,1539.00,86.00,32.00,14.42,300.00,9.00,0.00,30.06,M,10.00,M,CLR,M,M,M,M,M,M,M,M,M,M,M,M,M,M,82.64,KRTS 172055Z AUTO 30009KT 250V360 10SM CLR 30/00 A3006 RMK AO2,M
05U,2025-07-17 20:55,-116.0051,39.6042,1811.23,93.20,24.80,8.56,210.00,10.00,0.00,30.07,M,10.00,16.00,CLR,M,M,M,M,M,M,M,M,M,M,M,M,M,M,87.57,K05U 172055Z AUTO 21010G16KT 10SM CLR 34/M04 A3007 RMK A01,M
MEV,2025-07-17 20:55,-119.7500,38.9963,1441.42,89.60,41.00,18.37,270.00,11.00,0.00,30.01,M,10.00,18.00,CLR,M,M,M,M,M,M,M,M,M,M,M,M,M,M,85.82,KMEV 172055Z AUTO 27011G18KT 10SM CLR 32/05 A3001 RMK AO2,M
HTH,2025-07-17 20:55,-118.6315,38.5448,1282.89,93.20,35.60,13.29,10.00,8.00,0.00,29.94,M,10.00,M,CLR,M,M,M,M,M,M,M,M,M,M,M,M,M,M,88.76,KHTH 172055Z AUTO 01008KT 10SM CLR 34/02 A2994 RMK A01,M
INS,2025-07-17 20:55,-115.6733,36.5872,955.00,97.00,46.60,18.11,70.00,11.00,0.00,29.91,1006.60,10.00,16.00,FEW,M,M,M,20000.00,M,M,M,M,M,M,M,M,M,M,93.30,KINS 172055Z AUTO 07011G16KT 10SM FEW200 36/08 A2991 RMK AO2 SLP066 T03620081 57017 $,M
LSV,2025-07-17 20:55,-115.0343,36.2362,570.00,99.30,55.00,23.06,110.00,13.00,0.00,29.81,1006.20,10.00,M,FEW,SCT,M,M,15000.00,22000.00,M,M,M,M,M,M,M,M,M,97.76,KLSV 172055Z 11013KT 10SM FEW150 SCT220 37/13 A2981 RMK AO2A SLP062 T03740127 58020 $,M
EKO,2025-07-17 20:56,-115.7860,40.8242,1367.00,94.00,34.00,12.17,200.00,8.00,0.00,29.97,1008.20,10.00,M,CLR,M,M,M,M,M,M,M,M,M,M,M,M,M,M,89.22,KEKO 172056Z AUTO 20008KT 10SM CLR 34/01 A2997 RMK AO2 LTG DSNT S SLP082 T03440011 58019,M
HND,2025-07-17 20:56,-115.1344,35.9729,742.79,99.00,56.00,24.13,190.00,12.00,0.00,29.91,1010.70,10.00,M,FEW,M,M,M,9000.00,M,M,M,M,M,M,M,M,M,M,97.78,KHND 172056Z 19012KT 10SM FEW090 37/13 A2991 RMK AO2 SLP107 T03720133 58019 $,M
TPH,2025-07-17 20:56,-117.0904,38.0505,1654.00,91.00,28.00,10.47,200.00,12.00,0.00,30.06,1009.30,10.00,24.00,CLR,M,M,M,M,M,M,M,M,M,M,M,27.00,200.00,2025-07-17 20:41,86.19,KTPH 172056Z AUTO 20012G24KT 10SM CLR 33/M02 A3006 RMK AO2 PK WND 20027/2041 SLP093 T03281022 58014,M
LAS,2025-07-17 20:56,-115.1634,36.0719,663.00,99.00,53.00,21.63,210.00,8.00,0.00,29.88,1008.40,10.00,M,FEW,BKN,M,M,11000.00,20000.00,M,M,M,M,M,M,M,M,M,96.79,KLAS 172056Z 21008KT 10SM FEW110 BKN200 37/12 A2988 RMK AO2 SLP084 T03720117 58017,M
NFL,2025-07-17 20:57,-118.7010,39.4166,1199.00,94.00,37.00,13.71,10.00,3.00,0.00,29.94,1011.00,10.00,M,SCT,SCT,M,M,8000.00,20000.00,M,M,M,M,M,M,M,M,M,89.53,KNFL 172057Z 01003KT 10SM SCT080 SCT200 34/03 A2994 RMK AO2 SLP110 T03440028 58019,M
TMT,2025-07-17 21:10,-117.1971,39.4643,1749.34,85.30,33.00,15.35,0.00,0.00,0.00,30.07,M,10.00,M,CLR,M,M,M,M,M,M,M,M,M,M,M,M,M,M,82.11,KTMT 172110Z AUTO 00000KT 10SM CLR 30/01 A3007 RMK AO2 T02960005,M
BAM,2025-07-17 21:15,-116.8743,40.5990,1382.36,98.60,33.80,10.49,230.00,4.00,0.00,29.95,M,10.00,M,CLR,M,M,M,M,M,M,M,M,M,M,M,M,M,M,92.96,KBAM 172115Z AUTO 23004KT 10SM CLR 37/01 A2995 RMK AO1,M
CXP,2025-07-17 21:15,-119.7326,39.1923,1431.00,91.40,37.40,15.09,300.00,9.00,0.00,30.02,M,10.00,17.00,CLR,M,M,M,M,M,M,M,M,M,M,M,M,M,M,87.23,KCXP 172115Z AUTO 30009G17KT 270V330 10SM CLR 33/03 A3002 RMK AO2,M
RTS,2025-07-17 21:15,-119.8764,39.6682,1539.00,86.00,32.00,14.42,M,5.00,0.00,30.05,M,10.00,M,CLR,M,M,M,M,M,M,M,M,M,M,M,M,M,M,82.64,KRTS 172115Z AUTO VRB05KT 10SM CLR 30/00 A3005 RMK AO2,M
05U,2025-07-17 21:15,-116.0051,39.6042,1811.23,93.20,19.40,6.82,220.00,14.00,0.00,30.06,M,10.00,20.00,CLR,M,M,M,M,M,M,M,M,M,M,M,M,M,M,87.18,K05U 172115Z AUTO 22014G20KT 10SM CLR 34/M07 A3006 RMK A01,M
MEV,2025-07-17 21:15,-119.7500,38.9963,1441.42,89.60,41.00,18.37,260.00,8.00,0.00,30.01,M,10.00,16.00,CLR,M,M,M,M,M,M,M,M,M,M,M,M,M,M,85.82,KMEV 172115Z AUTO 26008G16KT 10SM CLR 32/05 A3001 RMK AO2,M
HTH,2025-07-17 21:15,-118.6315,38.5448,1282.89,95.00,33.80,11.70,360.00,7.00,0.00,29.93,M,10.00,M,CLR,M,M,M,M,M,M,M,M,M,M,M,M,M,M,89.98,KHTH 172115Z AUTO 36007KT 10SM CLR 35/01 A2993 RMK A01,M
BVU,2025-07-17 21:15,-114.8611,35.9475,671.00,93.20,55.40,28.19,140.00,17.00,0.00,29.88,M,10.00,M,CLR,M,M,M,M,M,M,M,M,M,M,M,M,M,M,91.37,KBVU 172115Z AUTO 14017KT 10SM CLR 34/13 A2988 RMK AO2,M
TMT,2025-07-17 21:30,-117.1971,39.4643,1749.34,87.30,32.40,14.06,190.00,4.00,0.00,30.06,M,10.00,M,CLR,M,M,M,M,M,M,M,M,M,M,M,M,M,M,83.68,KTMT 172130Z AUTO 19004KT 10SM CLR 31/00 A3006 RMK AO2 T03070002,M
BVU,2025-07-17 21:35,-114.8611,35.9475,671.00,95.00,55.40,26.67,170.00,15.00,0.00,29.87,M,10.00,M,CLR,M,M,M,M,M,M,M,M,M,M,M,M,M,M,93.25,KBVU 172135Z AUTO 17015KT 10SM CLR 35/13 A2987 RMK AO2,M
BAM,2025-07-17 21:35,-116.8743,40.5990,1382.36,98.60,33.80,10.49,220.00,10.00,0.00,29.93,M,10.00,M,CLR,M,M,M,M,M,M,M,M,M,M,M,M,M,M,92.96,KBAM 172135Z AUTO 22010KT 10SM CLR 37/01 A2993 RMK AO1,M
CXP,2025-07-17 21:35,-119.7326,39.1923,1431.00,91.40,37.40,15.09,310.00,11.00,0.00,30.01,M,10.00,17.00,CLR,M,M,M,M,M,M,M,M,M,M,M,M,M,M,87.23,KCXP 172135Z AUTO 31011G17KT 10SM CLR 33/03 A3001 RMK AO2,M
RTS,2025-07-17 21:35,-119.8764,39.6682,1539.00,86.00,32.00,14.42,M,4.00,0.00,30.05,M,10.00,13.00,CLR,M,M,M,M,M,M,M,M,M,M,M,M,M,M,82.64,KRTS 172135Z AUTO VRB04G13KT 10SM CLR 30/00 A3005 RMK AO2,M
05U,2025-07-17 21:35,-116.0051,39.6042,1811.23,89.60,19.40,7.63,260.00,9.00,0.00,30.06,M,10.00,20.00,CLR,M,M,M,M,M,M,M,M,M,M,M,M,M,M,84.54,K05U 172135Z AUTO 26009G20KT 230V300 10SM CLR 32/M07 A3006 RMK A01,M
MEV,2025-07-17 21:35,-119.7500,38.9963,1441.42,89.60,42.80,19.69,280.00,13.00,0.00,30.00,M,10.00,18.00,CLR,M,M,M,M,M,M,M,M,M,M,M,M,M,M,85.93,KMEV 172135Z AUTO 28013G18KT 10SM CLR 32/06 A3000 RMK AO2,M
HTH,2025-07-17 21:35,-118.6315,38.5448,1282.89,95.00,33.80,11.70,330.00,8.00,0.00,29.92,M,10.00,14.00,CLR,M,M,M,M,M,M,M,M,M,M,M,M,M,M,89.98,KHTH 172135Z AUTO 33008G14KT 10SM CLR 35/01 A2992 RMK A01,M
TMT,2025-07-17 21:50,-117.1971,39.4643,1749.34,87.00,33.00,14.55,280.00,3.00,0.00,30.05,M,10.00,M,CLR,M,M,M,M,M,M,M,M,M,M,M,M,M,M,83.44,KTMT 172150Z AUTO 28003KT 10SM CLR 31/01 A3005 RMK AO2 T03050005,M
P68,2025-07-17 21:53,-116.0056,39.6014,1993.00,92.00,22.00,7.90,300.00,8.00,0.00,30.02,1006.50,M,18.00,M,M,M,M,M,M,M,M,M,M,M,M,29.00,200.00,2025-07-17 21:04,86.46,KP68 172153Z AUTO 30008G18KT 33/M06 A3002 RMK AO1 PK WND 20029/2104 SLP065 T03331056,M
DRA,2025-07-17 21:53,-116.0278,36.6206,1009.00,98.00,49.00,19.23,210.00,7.00,0.00,29.91,1006.80,10.00,24.00,CLR,M,M,M,M,M,M,M,M,M,M,M,27.00,220.00,2025-07-17 21:43,94.75,KDRA 172153Z AUTO 21007G24KT 10SM CLR 37/09 A2991 RMK AO2 PK WND 22027/2143 SLP068 T03670094,M
ELY,2025-07-17 21:53,-114.8453,39.2950,1909.00,87.00,19.00,8.14,M,M,0.00,30.07,1006.30,10.00,M,CLR,M,M,M,M,M,M,M,M,M,M,M,M,M,M,82.64,KELY 172153Z AUTO 10SM CLR 31/M07 A3007 RMK AO2 SLP063 T03061072,M
VGT,2025-07-17 21:53,-115.1933,36.2111,667.00,100.00,55.00,22.58,150.00,19.00,0.00,29.83,1008.50,10.00,26.00,CLR,M,M,M,M,M,M,M,M,M,M,M,26.00,150.00,2025-07-17 21:53,98.52,KVGT 172153Z 15019G26KT 10SM CLR 38/13 A2983 RMK AO2 PK WND 15026/2153 SLP085 T03780128,M
LOL,2025-07-17 21:53,-118.5701,40.0684,1192.43,98.00,32.00,9.94,200.00,7.00,0.00,29.90,1007.60,10.00,17.00,CLR,M,M,M,M,M,M,M,M,M,M,M,M,M,M,92.20,KLOL 172153Z AUTO 20007G17KT 10SM CLR 37/00 A2990 RMK AO2 SLP076 T03670000,M
BVU,2025-07-17 21:55,-114.8611,35.9475,671.00,96.80,55.40,25.24,150.00,16.00,0.00,29.86,M,10.00,M,CLR,M,M,M,M,M,M,M,M,M,M,M,M,M,M,95.18,KBVU 172155Z AUTO 15016KT 10SM CLR 36/13 A2986 RMK AO2,M
RNO,2025-07-17 21:55,-119.7711,39.4839,1341.00,92.00,37.00,14.58,M,4.00,0.00,29.97,1008.20,10.00,M,FEW,M,M,M,9000.00,M,M,M,M,M,M,M,M,M,M,87.74,KRNO 172155Z VRB04KT 10SM FEW090 33/03 A2997 RMK AO2 SLP082 T03330028,M
CXP,2025-07-17 21:55,-119.7326,39.1923,1431.00,89.60,39.20,17.13,280.00,12.00,0.00,30.01,M,10.00,M,CLR,M,M,M,M,M,M,M,M,M,M,M,M,M,M,85.74,KCXP 172155Z AUTO 28012KT 10SM CLR 32/04 A3001 RMK AO2,M
LSV,2025-07-17 21:55,-115.0343,36.2362,570.00,99.00,54.70,23.02,110.00,18.00,0.00,29.78,1005.20,10.00,23.00,FEW,SCT,M,M,15000.00,22000.00,M,M,M,M,M,M,27.00,150.00,2025-07-17 21:28,97.33,KLSV 172155Z 11018G23KT 10SM FEW150 SCT220 37/13 A2978 RMK AO2A PK WND 15027/28 SLP052 T03720126 $,M
RTS,2025-07-17 21:55,-119.8764,39.6682,1539.00,86.00,32.00,14.42,360.00,8.00,0.00,30.04,M,10.00,18.00,CLR,M,M,M,M,M,M,M,M,M,M,M,M,M,M,82.64,KRTS 172155Z AUTO 36008G18KT 320V050 10SM CLR 30/00 A3004 RMK AO2,M
05U,2025-07-17 21:55,-116.0051,39.6042,1811.23,93.20,23.00,7.94,270.00,12.00,0.00,30.04,M,10.00,M,CLR,M,M,M,M,M,M,M,M,M,M,M,M,M,M,87.43,K05U 172155Z AUTO 27012KT 10SM CLR 34/M05 A3004 RMK A01,M
MEV,2025-07-17 21:55,-119.7500,38.9963,1441.42,89.60,41.00,18.37,300.00,14.00,0.00,30.00,M,10.00,19.00,CLR,M,M,M,M,M,M,M,M,M,M,M,M,M,M,85.82,KMEV 172155Z AUTO 30014G19KT 10SM CLR 32/05 A3000 RMK AO2,M
HTH,2025-07-17 21:55,-118.6315,38.5448,1282.89,95.00,32.00,10.89,M,6.00,0.00,29.91,M,10.00,M,CLR,M,M,M,M,M,M,M,M,M,M,M,M,M,M,89.72,KHTH 172155Z AUTO VRB06KT 10SM CLR 35/M00 A2991 RMK A01,M
BAM,2025-07-17 21:55,-116.8743,40.5990,1382.36,98.60,33.80,10.49,210.00,7.00,0.00,29.92,M,10.00,14.00,CLR,M,M,M,M,M,M,M,M,M,M,M,M,M,M,92.96,KBAM 172155Z AUTO 21007G14KT 10SM CLR 37/01 A2992 RMK AO1,M
INS,2025-07-17 21:55,-115.6733,36.5872,955.00,97.70,45.50,17.01,80.00,5.00,0.00,29.88,1005.50,10.00,M,CLR,M,M,M,M,M,M,M,M,M,M,M,M,M,M,93.82,KINS 172155Z AUTO 08005KT 10SM CLR 37/08 A2988 RMK AO2 SLP055 T03650075 $,M
TPH,2025-07-17 21:56,-117.0904,38.0505,1654.00,92.00,27.00,9.74,190.00,15.00,0.00,30.04,1008.60,10.00,23.00,CLR,M,M,M,M,M,M,M,M,M,M,M,27.00,180.00,2025-07-17 21:44,86.85,KTPH 172156Z AUTO 19015G23KT 10SM CLR 33/M03 A3004 RMK AO2 PK WND 18027/2144 SLP086 T03331028,M
EKO,2025-07-17 21:56,-115.7860,40.8242,1367.00,91.00,33.00,12.83,150.00,6.00,0.00,29.96,1008.00,10.00,M,CLR,M,M,M,M,M,M,M,M,M,M,M,29.00,220.00,2025-07-17 21:13,86.74,KEKO 172156Z AUTO 15006KT 10SM CLR 33/01 A2996 RMK AO2 PK WND 22029/2113 SLP080 T03280006,M
HND,2025-07-17 21:56,-115.1344,35.9729,742.79,97.00,57.00,26.58,150.00,16.00,0.00,29.89,1010.10,10.00,21.00,CLR,M,M,M,M,M,M,M,M,M,M,M,M,M,M,95.96,KHND 172156Z 15016G21KT 10SM CLR 36/14 A2989 RMK AO2 SLP101 T03610139 $,M
LAS,2025-07-17 21:56,-115.1634,36.0719,663.00,98.00,56.00,24.87,140.00,13.00,0.00,29.85,1007.50,10.00,21.00,FEW,BKN,M,M,11000.00,20000.00,M,M,M,M,M,M,M,M,M,96.69,KLAS 172156Z 14013G21KT 10SM FEW110 BKN200 37/13 A2985 RMK AO2 SLP075 CB DSNT N AND S T03670133,M
NFL,2025-07-17 21:57,-118.7010,39.4166,1199.00,95.00,36.00,12.78,M,3.00,0.00,29.91,1010.20,10.00,M,SCT,M,M,M,8000.00,M,M,M,M,M,M,M,M,M,M,90.33,KNFL 172157Z VRB03KT 10SM SCT080 35/02 A2991 RMK AO2 SLP102 T03500022,M
TMT,2025-07-17 22:10,-117.1971,39.4643,1749.34,86.00,33.00,15.02,340.00,5.00,0.00,30.05,M,10.00,M,CLR,M,M,M,M,M,M,M,M,M,M,M,M,M,M,82.65,KTMT 172210Z AUTO 34005KT 10SM CLR 30/01 A3005 RMK AO2 T03000006,M
BAM,2025-07-17 22:15,-116.8743,40.5990,1382.36,98.60,35.60,11.27,200.00,3.00,0.00,29.92,M,10.00,M,CLR,M,M,M,M,M,M,M,M,M,M,M,M,M,M,93.24,KBAM 172215Z AUTO 20003KT 10SM CLR 37/02 A2992 RMK AO1,M
CXP,2025-07-17 22:15,-119.7326,39.1923,1431.00,91.40,39.20,16.19,280.00,12.00,0.00,30.01,M,10.00,20.00,CLR,M,M,M,M,M,M,M,M,M,M,M,M,M,M,87.31,KCXP 172215Z AUTO 28012G20KT 10SM CLR 33/04 A3001 RMK AO2,M
RTS,2025-07-17 22:15,-119.8764,39.6682,1539.00,87.80,33.80,14.64,280.00,10.00,0.00,30.04,M,10.00,15.00,CLR,M,M,M,M,M,M,M,M,M,M,M,M,M,M,84.10,KRTS 172215Z AUTO 28010G15KT 10SM CLR 31/01 A3004 RMK AO2,M
05U,2025-07-17 22:15,-116.0051,39.6042,1811.23,89.60,26.60,10.32,240.00,13.00,0.00,30.05,M,10.00,19.00,CLR,M,M,M,M,M,M,M,M,M,M,M,M,M,M,85.02,K05U 172215Z AUTO 24013G19KT 10SM CLR 32/M03 A3005 RMK A01,M
MEV,2025-07-17 22:15,-119.7500,38.9963,1441.42,91.40,42.80,18.62,280.00,12.00,0.00,29.99,M,10.00,M,CLR,M,M,M,M,M,M,M,M,M,M,M,M,M,M,87.53,KMEV 172215Z AUTO 28012KT 10SM CLR 33/06 A2999 RMK AO2,M
HTH,2025-07-17 22:15,-118.6315,38.5448,1282.89,96.80,30.20,9.58,330.00,7.00,0.00,29.90,M,10.00,12.00,CLR,M,M,M,M,M,M,M,M,M,M,M,M,M,M,90.97,KHTH 172215Z AUTO 33007G12KT 300V360 10SM CLR 36/M01 A2990 RMK A01,M
TMT,2025-07-17 22:30,-117.1971,39.4643,1749.34,89.00,33.30,13.82,360.00,10.00,0.00,30.05,M,10.00,M,CLR,M,M,M,M,M,M,M,M,M,M,M,M,M,M,85.08,KTMT 172230Z AUTO 36010KT 10SM CLR 32/01 A3005 RMK AO2 T03170007,M
BAM,2025-07-17 22:35,-116.8743,40.5990,1382.36,96.80,35.60,11.90,330.00,7.00,0.00,29.92,M,10.00,M,CLR,M,M,M,M,M,M,M,M,M,M,M,M,M,M,91.74,KBAM 172235Z AUTO 33007KT 10SM CLR 36/02 A2992 RMK AO1,M
CXP,2025-07-17 22:35,-119.7326,39.1923,1431.00,89.60,41.00,18.37,270.00,16.00,0.00,30.00,M,9.00,25.00,CLR,M,M,M,M,M,M,M,M,M,M,M,M,M,M,85.82,KCXP 172235Z AUTO 27016G25KT 9SM CLR 32/05 A3000 RMK AO2,M
RTS,2025-07-17 22:35,-119.8764,39.6682,1539.00,89.60,33.80,13.84,280.00,15.00,0.00,30.03,M,10.00,M,CLR,M,M,M,M,M,M,M,M,M,M,M,M,M,M,85.59,KRTS 172235Z AUTO 28015KT 270V330 10SM CLR 32/01 A3003 RMK AO2,M
05U,2025-07-17 22:35,-116.0051,39.6042,1811.23,91.40,26.60,9.76,250.00,17.00,0.00,30.05,M,10.00,M,CLR,M,M,M,M,M,M,M,M,M,M,M,M,M,M,86.37,K05U 172235Z AUTO 25017KT 10SM CLR 33/M03 A3005 RMK A01,M
MEV,2025-07-17 22:35,-119.7500,38.9963,1441.42,89.60,41.00,18.37,280.00,13.00,0.00,29.99,M,10.00,M,CLR,M,M,M,M,M,M,M,M,M,M,M,M,M,M,85.82,KMEV 172235Z AUTO 28013KT 10SM CLR 32/05 A2999 RMK AO2,M
HTH,2025-07-17 22:35,-118.6315,38.5448,1282.89,96.80,30.20,9.58,350.00,11.00,0.00,29.89,M,10.00,17.00,CLR,M,M,M,M,M,M,M,M,M,M,M,M,M,M,90.97,KHTH 172235Z AUTO 35011G17KT 10SM CLR 36/M01 A2989 RMK A01,M
MEV,2025-07-17 22:45,-119.7500,38.9963,1441.42,89.60,42.80,19.69,280.00,14.00,0.00,29.99,M,10.00,20.00,CLR,M,M,M,M,M,M,M,M,M,M,M,M,M,M,85.93,KMEV 172245Z AUTO 28014G20KT 10SM CLR 32/06 A2999 RMK AO2,M
TMT,2025-07-17 22:50,-117.1971,39.4643,1749.34,87.60,33.40,14.50,310.00,6.00,0.00,30.04,M,10.00,M,CLR,M,M,M,M,M,M,M,M,M,M,M,M,M,M,83.93,KTMT 172250Z AUTO 31006KT 10SM CLR 31/01 A3004 RMK AO2 T03090008,M
EKO,2025-07-17 22:51,-115.7860,40.8242,1367.00,87.80,37.40,16.89,150.00,13.00,T,29.97,M,10.00,30.00,FEW,M,M,M,4300.00,M,M,M,VCTS,M,M,M,30.00,170.00,2025-07-17 22:42,84.17,KEKO 172251Z AUTO 15013G30KT 10SM VCTS FEW043 31/03 A2997 RMK AO2 PK WND 17030/2242 RAB31E37 P0000,M
P68,2025-07-17 22:53,-116.0056,39.6014,1993.00,89.00,28.00,11.15,260.00,14.00,0.00,30.03,1007.10,M,M,M,M,M,M,M,M,M,M,M,M,M,M,M,M,M,84.69,KP68 172253Z AUTO 26014KT 32/M02 A3003 RMK AO1 SLP071 T03171022,M
DRA,2025-07-17 22:53,-116.0278,36.6206,1009.00,99.00,49.00,18.66,230.00,16.00,0.00,29.89,1006.00,10.00,27.00,CLR,M,M,M,M,M,M,M,M,M,M,M,27.00,240.00,2025-07-17 22:49,95.77,KDRA 172253Z AUTO 23016G27KT 10SM CLR 37/09 A2989 RMK AO2 PK WND 24027/2249 SLP060 T03720094,M
ELY,2025-07-17 22:53,-114.8453,39.2950,1909.00,91.00,23.00,8.50,240.00,13.00,0.00,30.05,1005.30,10.00,24.00,CLR,M,M,M,M,M,M,M,M,M,M,M,M,M,M,85.79,KELY 172253Z AUTO 24013G24KT 10SM CLR 33/M05 A3005 RMK AO2 SLP053 T03281050,M
VGT,2025-07-17 22:53,-115.1933,36.2111,667.00,99.00,55.00,23.27,150.00,16.00,0.00,29.81,1008.00,10.00,23.00,CLR,M,M,M,M,M,M,M,M,M,M,M,29.00,140.00,2025-07-17 22:02,97.43,KVGT 172253Z 15016G23KT 10SM CLR 37/13 A2981 RMK AO2 PK WND 14029/2202 LTG DSNT N AND NW SLP080 T03720128,M
LOL,2025-07-17 22:53,-118.5701,40.0684,1192.43,99.00,32.00,9.64,250.00,10.00,0.00,29.88,1007.20,10.00,15.00,CLR,M,M,M,M,M,M,M,M,M,M,M,M,M,M,93.04,KLOL 172253Z AUTO 25010G15KT 220V280 10SM CLR 37/00 A2988 RMK AO2 SLP072 T03720000,M
RNO,2025-07-17 22:55,-119.7711,39.4839,1341.00,94.00,39.00,14.83,280.00,15.00,0.00,29.95,1007.60,10.00,25.00,FEW,FEW,M,M,9000.00,16000.00,M,M,M,M,M,M,M,M,M,89.64,KRNO 172255Z 28015G25KT 10SM FEW090 FEW160 34/04 A2995 RMK AO2 SLP076 T03440039,M
BAM,2025-07-17 22:55,-116.8743,40.5990,1382.36,96.80,35.60,11.90,330.00,4.00,0.00,29.92,M,10.00,M,CLR,M,M,M,M,M,M,M,M,M,M,M,M,M,M,91.74,KBAM 172255Z AUTO 33004KT 10SM CLR 36/02 A2992 RMK AO1,M
CXP,2025-07-17 22:55,-119.7326,39.1923,1431.00,89.60,39.20,17.13,290.00,14.00,0.00,30.00,M,9.00,21.00,CLR,M,M,M,M,M,M,M,M,M,M,M,M,M,M,85.74,KCXP 172255Z AUTO 29014G21KT 9SM CLR 32/04 A3000 RMK AO2,M
RTS,2025-07-17 22:55,-119.8764,39.6682,1539.00,89.60,33.80,13.84,310.00,17.00,0.00,30.03,M,10.00,M,CLR,M,M,M,M,M,M,M,M,M,M,M,M,M,M,85.59,KRTS 172255Z AUTO 31017KT 10SM CLR 32/01 A3003 RMK AO2,M
05U,2025-07-17 22:55,-116.0051,39.6042,1811.23,87.80,28.40,11.77,260.00,12.00,0.00,30.05,M,10.00,M,CLR,M,M,M,M,M,M,M,M,M,M,M,M,M,M,83.84,K05U 172255Z AUTO 26012KT 10SM CLR 31/M02 A3005 RMK A01,M
HTH,2025-07-17 22:55,-118.6315,38.5448,1282.89,95.00,30.20,10.12,300.00,11.00,0.00,29.89,M,10.00,M,CLR,M,M,M,M,M,M,M,M,M,M,M,M,M,M,89.49,KHTH 172255Z AUTO 30011KT 10SM CLR 35/M01 A2989 RMK A01,M
INS,2025-07-17 22:55,-115.6733,36.5872,955.00,98.00,44.20,16.04,120.00,8.00,0.00,29.86,1004.90,10.00,M,FEW,SCT,M,M,10000.00,20000.00,M,M,VCTS,M,M,M,M,M,M,93.92,KINS 172255Z AUTO 12008KT 10SM VCTS FEW100 SCT200 37/07 A2986 RMK AO2 SLP049 T03670068 $,M
LSV,2025-07-17 22:55,-115.0343,36.2362,570.00,100.60,53.40,20.92,120.00,17.00,0.00,29.77,1004.80,10.00,22.00,FEW,SCT,M,M,15000.00,22000.00,M,M,M,M,M,M,M,M,M,98.63,KLSV 172255Z 12017G22KT 10SM FEW150 SCT220 38/12 A2977 RMK AO2A LTG DSNT NW SLP048 T03810119 $,M
EKO,2025-07-17 22:56,-115.7860,40.8242,1367.00,87.00,36.00,16.39,160.00,15.00,T,29.98,1009.00,10.00,23.00,CLR,M,M,M,M,M,M,M,VCTS,M,M,M,30.00,170.00,2025-07-17 22:42,83.49,KEKO 172256Z AUTO 16015G23KT 10SM VCTS CLR 31/02 A2998 RMK AO2 PK WND 17030/2242 RAB31E37 SLP090 P0000 T03060022,M
HND,2025-07-17 22:56,-115.1344,35.9729,742.79,98.00,56.00,24.87,130.00,11.00,0.00,29.87,1009.50,10.00,16.00,CLR,M,M,M,M,M,M,M,M,M,M,M,M,M,M,96.69,KHND 172256Z 13011G16KT 10SM CLR 37/13 A2987 RMK AO2 LTG DSNT S AND SW SLP095 T03670133 $,M
TPH,2025-07-17 22:56,-117.0904,38.0505,1654.00,91.00,25.00,9.25,170.00,12.00,0.00,30.02,1008.40,10.00,17.00,CLR,M,M,M,M,M,M,M,M,M,M,M,M,M,M,85.94,KTPH 172256Z AUTO 17012G17KT 10SM CLR 33/M04 A3002 RMK AO2 SLP084 T03281039,M
LAS,2025-07-17 22:56,-115.1634,36.0719,663.00,99.00,54.00,22.44,140.00,11.00,0.00,29.83,1006.90,10.00,19.00,FEW,SCT,BKN,M,11000.00,18000.00,23000.00,M,M,M,M,M,M,M,M,97.10,KLAS 172256Z 14011G19KT 10SM FEW110 SCT180 BKN230 37/12 A2983 RMK AO2 LTG DSNT S SLP069 ACC E-S-W CB DSNT N AND E-SE T03720122,M
NFL,2025-07-17 22:57,-118.7010,39.4166,1199.00,97.00,37.00,12.50,M,4.00,0.00,29.89,1009.60,9.00,15.00,SCT,M,M,M,8000.00,M,M,M,M,M,M,M,M,M,M,92.15,KNFL 172257Z VRB04G15KT 9SM SCT080 36/03 A2989 RMK AO2 SLP096 T03610028,M
EKO,2025-07-17 23:06,-115.7860,40.8242,1367.00,87.00,37.00,17.06,210.00,12.00,0.00,29.98,M,10.00,M,CLR,M,M,M,M,M,M,M,M,M,M,M,M,M,M,83.51,KEKO 172306Z AUTO 21012KT 10SM CLR 31/03 A2998 RMK AO2 LTG DSNT N T03060028,M
05U,2025-07-17 23:10,-116.0051,39.6042,1811.23,91.40,26.60,9.76,240.00,17.00,0.00,30.05,M,10.00,M,CLR,M,M,M,M,M,M,M,M,M,M,M,M,M,M,86.37,K05U 172310Z AUTO 24017KT 10SM CLR 33/M03 A3005 RMK A01,M
TMT,2025-07-17 23:10,-117.1971,39.4643,1749.34,87.40,34.00,14.95,350.00,10.00,0.00,30.04,M,10.00,14.00,CLR,M,M,M,M,M,M,M,M,M,M,M,M,M,M,83.77,KTMT 172310Z AUTO 35010G14KT 10SM CLR 31/01 A3004 RMK AO2 T03080011,M
EKO,2025-07-17 23:13,-115.7860,40.8242,1367.00,86.00,37.00,17.61,190.00,16.00,0.00,29.99,M,10.00,25.00,CLR,M,M,M,M,M,M,M,VCTS,M,M,M,M,M,M,82.72,KEKO 172313Z AUTO 19016G25KT 10SM VCTS CLR 30/03 A2999 RMK AO2 LTG DSNT W T03000028,M
CXP,2025-07-17 23:15,-119.7326,39.1923,1431.00,89.60,41.00,18.37,240.00,10.00,0.00,30.00,M,10.00,17.00,CLR,M,M,M,M,M,M,M,M,M,M,M,M,M,M,85.82,KCXP 172315Z AUTO 24010G17KT 200V260 10SM CLR 32/05 A3000 RMK AO2,M
RTS,2025-07-17 23:15,-119.8764,39.6682,1539.00,87.80,33.80,14.64,320.00,14.00,0.00,30.03,M,10.00,22.00,CLR,M,M,M,M,M,M,M,M,M,M,M,M,M,M,84.10,KRTS 172315Z AUTO 32014G22KT 10SM CLR 31/01 A3003 RMK AO2,M
MEV,2025-07-17 23:15,-119.7500,38.9963,1441.42,89.60,42.80,19.69,290.00,15.00,0.00,29.98,M,10.00,22.00,CLR,M,M,M,M,M,M,M,M,M,M,M,M,M,M,85.93,KMEV 172315Z AUTO 29015G22KT 240V330 10SM CLR 32/06 A2998 RMK AO2,M
BAM,2025-07-17 23:15,-116.8743,40.5990,1382.36,95.00,35.60,12.58,300.00,5.00,0.00,29.92,M,10.00,M,CLR,M,M,M,M,M,M,M,M,M,M,M,M,M,M,90.27,KBAM 172315Z AUTO 30005KT 10SM CLR 35/02 A2992 RMK AO1,M
HTH,2025-07-17 23:15,-118.6315,38.5448,1282.89,93.20,35.60,13.29,310.00,21.00,0.00,29.89,M,10.00,31.00,CLR,M,M,M,M,M,M,M,M,M,M,M,M,M,M,88.76,KHTH 172315Z AUTO 31021G31KT 10SM CLR 34/02 A2989 RMK A01,M
EKO,2025-07-17 23:28,-115.7860,40.8242,1367.00,87.00,35.00,15.76,260.00,27.00,0.00,29.98,M,10.00,36.00,BKN,M,M,M,11000.00,M,M,M,M,M,M,M,36.00,270.00,2025-07-17 23:28,83.47,KEKO 172328Z AUTO 26027G36KT 10SM BKN110 31/02 A2998 RMK AO2 PK WND 27036/2328 T03060017,M
TMT,2025-07-17 23:30,-117.1971,39.4643,1749.34,89.20,34.00,14.13,350.00,8.00,0.00,30.03,M,10.00,M,CLR,M,M,M,M,M,M,M,M,M,M,M,M,M,M,85.26,KTMT 172330Z AUTO 35008KT 10SM CLR 32/01 A3003 RMK AO2 T03180011,M
BVU,2025-07-17 23:35,-114.8611,35.9475,671.00,95.00,55.40,26.67,140.00,20.00,0.00,29.84,M,10.00,M,CLR,M,M,M,M,M,M,M,M,M,M,M,M,M,M,93.25,KBVU 172335Z AUTO 14020KT 10SM CLR 35/13 A2984 RMK AO2,M
EKO,2025-07-17 23:35,-115.7860,40.8242,1367.00,86.00,35.00,16.27,250.00,22.00,0.00,29.99,M,10.00,36.00,FEW,BKN,M,M,7000.00,11000.00,M,M,M,M,M,M,36.00,250.00,2025-07-17 23:31,82.68,KEKO 172335Z AUTO 25022G36KT 10SM FEW070 BKN110 30/02 A2999 RMK AO2 PK WND 25036/2331 WSHFT 2315 T03000017,M
BAM,2025-07-17 23:35,-116.8743,40.5990,1382.36,91.40,41.00,17.37,210.00,14.00,0.00,29.93,M,7.00,26.00,SCT,SCT,M,M,9000.00,11000.00,M,M,M,M,M,M,M,M,M,87.41,KBAM 172335Z AUTO 21014G26KT 7SM SCT090 SCT110 33/05 A2993 RMK AO1,M
CXP,2025-07-17 23:35,-119.7326,39.1923,1431.00,89.60,41.00,18.37,250.00,9.00,0.00,30.00,M,10.00,18.00,CLR,M,M,M,M,M,M,M,M,M,M,M,M,M,M,85.82,KCXP 172335Z AUTO 25009G18KT 10SM CLR 32/05 A3000 RMK AO2,M
RTS,2025-07-17 23:35,-119.8764,39.6682,1539.00,87.80,35.60,15.73,320.00,21.00,0.00,30.02,M,10.00,32.00,CLR,M,M,M,M,M,M,M,M,M,M,M,M,M,M,84.12,KRTS 172335Z AUTO 32021G32KT 10SM CLR 31/02 A3002 RMK AO2,M
05U,2025-07-17 23:35,-116.0051,39.6042,1811.23,87.80,26.60,10.93,260.00,12.00,0.00,30.05,M,10.00,M,CLR,M,M,M,M,M,M,M,M,M,M,M,M,M,M,83.69,K05U 172335Z AUTO 26012KT 10SM CLR 31/M03 A3005 RMK A01,M
MEV,2025-07-17 23:35,-119.7500,38.9963,1441.42,89.60,42.80,19.69,280.00,14.00,0.00,29.99,M,10.00,20.00,CLR,M,M,M,M,M,M,M,M,M,M,M,M,M,M,85.93,KMEV 172335Z AUTO 28014G20KT 10SM CLR 32/06 A2999 RMK AO2,M
HTH,2025-07-17 23:35,-118.6315,38.5448,1282.89,93.20,30.20,10.70,300.00,15.00,0.00,29.89,M,10.00,22.00,CLR,M,M,M,M,M,M,M,M,M,M,M,M,M,M,88.10,KHTH 172335Z AUTO 30015G22KT 10SM CLR 34/M01 A2989 RMK A01,M
INS,2025-07-17 23:39,-115.6733,36.5872,955.00,96.80,48.20,19.35,160.00,16.00,0.00,29.86,1005.10,10.00,22.00,SCT,SCT,M,M,11000.00,21000.00,M,M,M,M,M,M,M,M,M,93.37,KINS 172339Z AUTO 16016G22KT 10SM SCT110 SCT210 36/09 A2986 RMK AO2 WSHFT 37 LTG DSNT NE-E SLP051 $,M
RTS,2025-07-17 23:45,-119.8764,39.6682,1539.00,87.80,35.60,15.73,300.00,17.00,0.00,30.03,M,10.00,28.00,CLR,M,M,M,M,M,M,M,M,M,M,M,M,M,M,84.12,KRTS 172345Z AUTO 30017G28KT 10SM CLR 31/02 A3003 RMK AO2,M
MEV,2025-07-17 23:45,-119.7500,38.9963,1441.42,89.60,44.60,21.10,290.00,12.00,0.00,29.98,M,10.00,21.00,CLR,M,M,M,M,M,M,M,M,M,M,M,M,M,M,86.07,KMEV 172345Z AUTO 29012G21KT 10SM CLR 32/07 A2998 RMK AO2,M
TMT,2025-07-17 23:50,-117.1971,39.4643,1749.34,88.70,35.00,14.93,340.00,14.00,0.00,30.03,M,10.00,18.00,CLR,M,M,M,M,M,M,M,M,M,M,M,M,M,M,84.86,KTMT 172350Z AUTO 34014G18KT 10SM CLR 32/02 A3003 RMK AO2 T03150016,M
P68,2025-07-17 23:53,-116.0056,39.6014,1993.00,89.00,27.00,10.70,260.00,11.00,0.00,30.01,1007.00,M,M,M,M,M,M,M,M,M,M,M,M,M,M,26.00,250.00,2025-07-17 23:08,84.61,KP68 172353Z AUTO 26011KT 32/M03 A3001 RMK AO1 PK WND 25026/2308 SLP070 T03171028 10350 20300 56007,M
DRA,2025-07-17 23:53,-116.0278,36.6206,1009.00,98.00,50.00,19.96,210.00,15.00,0.00,29.88,1005.50,10.00,23.00,CLR,M,M,M,M,M,M,M,M,M,M,M,26.00,220.00,2025-07-17 23:05,94.96,KDRA 172353Z AUTO 21015G23KT 10SM CLR 37/10 A2988 RMK AO2 PK WND 22026/2305 SLP055 T03670100 10378 20344 56019,M
ELY,2025-07-17 23:53,-114.8453,39.2950,1909.00,91.00,22.00,8.15,230.00,11.00,0.00,30.04,1005.10,10.00,24.00,CLR,M,M,M,M,M,M,M,M,M,M,M,M,M,M,85.72,KELY 172353Z AUTO 23011G24KT 10SM CLR 33/M06 A3004 RMK AO2 SLP051 T03281056 10333 20289 56013,M
VGT,2025-07-17 23:53,-115.1933,36.2111,667.00,99.00,55.00,23.27,120.00,22.00,0.00,29.81,1007.70,10.00,27.00,CLR,M,M,M,M,M,M,M,M,M,M,M,28.00,130.00,2025-07-17 23:29,97.43,KVGT 172353Z 12022G27KT 10SM CLR 37/13 A2981 RMK AO2 PK WND 13028/2329 LTG DSNT N AND NW SLP077 T03720128 10383 20344 56017,M
LOL,2025-07-17 23:53,-118.5701,40.0684,1192.43,97.00,31.00,9.84,260.00,6.00,0.00,29.87,1007.00,10.00,19.00,CLR,M,M,M,M,M,M,M,M,M,M,M,M,M,M,91.23,KLOL 172353Z AUTO 26006G19KT 10SM CLR 36/M01 A2987 RMK AO2 SLP070 T03611006 10372 20306 56017,M
BVU,2025-07-17 23:55,-114.8611,35.9475,671.00,96.80,55.40,25.24,160.00,20.00,0.00,29.84,M,10.00,M,CLR,M,M,M,M,M,M,M,M,M,M,M,M,M,M,95.18,KBVU 172355Z AUTO 16020KT 10SM CLR 36/13 A2984 RMK AO2,M
RNO,2025-07-17 23:55,-119.7711,39.4839,1341.00,93.00,41.00,16.53,290.00,15.00,0.00,29.95,1007.60,10.00,24.00,FEW,FEW,M,M,9000.00,16000.00,M,M,M,M,M,M,30.00,270.00,2025-07-17 23:35,88.85,KRNO 172355Z 29015G24KT 10SM FEW090 FEW160 34/05 A2995 RMK AO2 PK WND 27030/2335 SLP076 CB DSNT SE T03390050 10350 20283 56015,M
BAM,2025-07-17 23:55,-116.8743,40.5990,1382.36,80.60,51.80,36.84,260.00,4.00,0.00,29.96,M,7.00,M,SCT,SCT,BKN,M,5500.00,7000.00,10000.00,M,M,M,M,M,M,M,M,80.08,KBAM 172355Z AUTO 26004KT 7SM SCT055 SCT070 BKN100 27/11 A2996 RMK AO1,M
CXP,2025-07-17 23:55,-119.7326,39.1923,1431.00,89.60,42.80,19.69,270.00,14.00,0.00,30.00,M,10.00,21.00,CLR,M,M,M,M,M,M,M,M,M,M,M,M,M,M,85.93,KCXP 172355Z AUTO 27014G21KT 10SM CLR 32/06 A3000 RMK AO2,M
05U,2025-07-17 23:55,-116.0051,39.6042,1811.23,87.80,28.40,11.77,270.00,8.00,0.00,30.04,M,10.00,M,CLR,M,M,M,M,M,M,M,M,M,M,M,M,M,M,83.84,K05U 172355Z AUTO 27008KT 10SM CLR 31/M02 A3004 RMK A01,M
HTH,2025-07-17 23:55,-118.6315,38.5448,1282.89,93.20,28.40,9.94,310.00,19.00,0.00,29.88,M,10.00,27.00,CLR,M,M,M,M,M,M,M,M,M,M,M,M,M,M,87.90,KHTH 172355Z AUTO 31019G27KT 10SM CLR 34/M02 A2988 RMK A01,M
INS,2025-07-17 23:55,-115.6733,36.5872,955.00,94.30,44.20,17.96,190.00,13.00,0.00,29.86,1005.10,10.00,19.00,FEW,BKN,M,M,11000.00,21000.00,M,M,VCTS,M,M,M,M,M,M,90.35,KINS 172355Z AUTO 19013G19KT 10SM VCTS FEW110 BKN210 35/07 A2986 RMK AO2 SLP051 T03460068 10375 20340 57015 $,M
LSV,2025-07-17 23:55,-115.0343,36.2362,570.00,100.40,53.20,20.89,120.00,19.00,0.00,29.76,1004.50,10.00,24.00,FEW,SCT,M,M,12000.00,22000.00,M,M,M,M,M,M,28.00,150.00,2025-07-17 23:49,98.35,KLSV 172355Z 12019G24KT 10SM FEW120 SCT220 38/12 A2976 RMK AO2A PK WND 15028/49 LTG DSNT SW-N SLP045 T03800118 10384 20349 57016 $,M
EKO,2025-07-17 23:56,-115.7860,40.8242,1367.00,87.00,32.00,13.97,210.00,9.00,T,29.99,1009.70,10.00,45.00,FEW,SCT,SCT,M,7000.00,9500.00,12000.00,M,M,M,M,M,45.00,270.00,2025-07-17 23:48,83.43,KEKO 172356Z AUTO 21009G45KT 10SM FEW070 SCT095 SCT120 31/00 A2999 RMK AO2 PK WND 27045/2348 WSHFT 2315 LTG DSNT NW RAB41E50 SLP097 P0000 60000 T03060000 10356 20289 51009,M
HND,2025-07-17 23:56,-115.1344,35.9729,742.79,98.00,56.00,24.87,150.00,18.00,0.00,29.86,1009.20,10.00,22.00,CLR,M,M,M,M,M,M,M,M,M,M,M,M,M,M,96.69,KHND 172356Z 15018G22KT 10SM CLR 37/13 A2986 RMK AO2 LTG DSNT S AND SW SLP092 T03670133 10378 20339 56014 $,M
TPH,2025-07-17 23:56,-117.0904,38.0505,1654.00,90.00,24.00,9.15,200.00,8.00,0.00,30.01,1008.10,10.00,21.00,CLR,M,M,M,M,M,M,M,M,M,M,M,26.00,220.00,2025-07-17 22:59,85.12,KTPH 172356Z AUTO 20008G21KT 10SM CLR 32/M04 A3001 RMK AO2 PK WND 22026/2259 SLP081 T03221044 10344 20294 56016,M
LAS,2025-07-17 23:56,-115.1634,36.0719,663.00,99.00,54.00,22.44,150.00,10.00,0.00,29.82,1006.60,10.00,21.00,FEW,FEW,SCT,M,11000.00,18000.00,23000.00,M,M,M,M,M,M,M,M,97.10,KLAS 172356Z 15010G21KT 10SM FEW110 FEW180 SCT230 37/12 A2982 RMK AO2 LTG DSNT S-NW SLP066 CB DSNT N AND E AND S-W T03720122 10378 20344 56017,M
NFL,2025-07-17 23:57,-118.7010,39.4166,1199.00,98.00,37.00,12.13,320.00,7.00,0.00,29.87,1008.90,9.00,14.00,SCT,M,M,M,8000.00,M,M,M,M,M,M,M,M,M,M,92.98,KNFL 172357Z 32007G14KT 9SM SCT080 37/03 A2987 RMK AO2 SLP089 CB DSNT S T03670028 10367 20306 56021,M
