station,valid,lon,lat,elevation,tmpf,dwpf,relh,drct,sknt,p01i,alti,mslp,vsby,gust,skyc1,skyc2,skyc3,skyc4,skyl1,skyl2,skyl3,skyl4,wxcodes,ice_accretion_1hr,ice_accretion_3hr,ice_accretion_6hr,peak_wind_gust,peak_wind_drct,peak_wind_time,feel,metar,snowdepth
05U,2024-07-13 00:10,-116.0051,39.6042,1811.23,M,M,M,0.00,0.00,0.00,30.18,M,10.00,M,M,M,M,M,M,M,M,M,M,M,M,M,M,M,M,M,K05U 130010Z AUTO 00000KT 10SM A3018 RMK A01,M
BVU,2024-07-13 00:15,-114.8611,35.9475,671.00,111.20,44.60,10.96,150.00,16.00,0.00,29.78,M,10.00,M,CLR,M,M,M,M,M,M,M,M,M,M,M,M,M,M,106.44,KBVU 130015Z AUTO 15016KT 10SM CLR 44/07 A2978 RMK AO2,M
CXP,2024-07-13 00:15,-119.7326,39.1923,1431.00,91.40,32.00,12.14,190.00,11.00,0.00,30.15,M,10.00,16.00,FEW,FEW,FEW,M,3000.00,3900.00,4500.00,M,M,M,M,M,M,M,M,86.91,KCXP 130015Z AUTO 19011G16KT 10SM FEW030 FEW039 FEW045 33/M00 A3015 RMK AO2,M
RTS,2024-07-13 00:15,-119.8764,39.6682,1539.00,93.20,26.60,9.21,310.00,10.00,0.00,30.14,M,10.00,M,CLR,M,M,M,M,M,M,M,M,M,M,M,M,M,M,87.72,KRTS 130015Z AUTO 31010KT 270V330 10SM CLR 34/M03 A3014 RMK AO2,M
MEV,2024-07-13 00:15,-119.7500,38.9963,1441.42,87.80,33.80,14.61,M,4.00,0.00,30.18,M,10.00,16.00,FEW,FEW,FEW,M,4400.00,6000.00,7500.00,M,M,M,M,M,M,M,M,84.10,KMEV 130015Z AUTO VRB04G16KT 10SM FEW044 FEW060 FEW075 31/01 A3018 RMK AO2,M
HTH,2024-07-13 00:15,-118.6315,38.5448,1282.89,102.20,19.40,5.17,300.00,9.00,0.00,30.00,M,10.00,M,CLR,M,M,M,M,M,M,M,M,M,M,M,M,M,M,94.47,KHTH 130015Z AUTO 30009KT 10SM CLR 39/M07 A3000 RMK A01,M
TMT,2024-07-13 00:15,-117.1971,39.4643,1749.34,96.00,32.00,10.53,110.00,14.00,0.00,30.15,M,10.00,22.00,CLR,M,M,M,M,M,M,M,M,M,M,M,M,M,M,90.53,KTMT 130015Z AUTO 11014G22KT 10SM CLR 36/00 A3015 RMK AO2 T03551001,M
05U,2024-07-13 00:30,-116.0051,39.6042,1811.23,93.20,24.80,8.54,0.00,0.00,0.00,30.18,M,10.00,M,M,M,M,M,M,M,M,M,M,M,M,M,M,M,M,87.56,K05U 130030Z AUTO 00000KT 10SM 34/M04 A3018 RMK A01,M
BVU,2024-07-13 00:35,-114.8611,35.9475,671.00,111.20,44.60,10.96,140.00,16.00,0.00,29.79,M,10.00,M,CLR,M,M,M,M,M,M,M,M,M,M,M,M,M,M,106.44,KBVU 130035Z AUTO 14016KT 10SM CLR 44/07 A2979 RMK AO2,M
CXP,2024-07-13 00:35,-119.7326,39.1923,1431.00,91.40,32.00,12.14,160.00,18.00,0.00,30.14,M,10.00,26.00,FEW,M,M,M,11000.00,M,M,M,M,M,M,M,M,M,M,86.91,KCXP 130035Z AUTO 16018G26KT 10SM FEW110 33/M00 A3014 RMK AO2,M
RTS,2024-07-13 00:35,-119.8764,39.6682,1539.00,91.40,30.20,11.28,260.00,12.00,0.00,30.16,M,10.00,22.00,FEW,M,M,M,11000.00,M,M,M,M,M,M,M,M,M,M,86.71,KRTS 130035Z AUTO 26012G22KT 10SM FEW110 33/M01 A3016 RMK AO2,M
MEV,2024-07-13 00:35,-119.7500,38.9963,1441.42,87.80,37.40,16.86,200.00,14.00,0.00,30.19,M,10.00,23.00,FEW,FEW,M,M,7500.00,11000.00,M,M,M,M,M,M,M,M,M,84.16,KMEV 130035Z AUTO 20014G23KT 10SM FEW075 FEW110 31/03 A3019 RMK AO2,M
HTH,2024-07-13 00:35,-118.6315,38.5448,1282.89,100.40,28.40,7.95,320.00,18.00,0.00,30.00,M,10.00,26.00,CLR,M,M,M,M,M,M,M,M,M,M,M,M,M,M,93.77,KHTH 130035Z AUTO 32018G26KT 10SM CLR 38/M02 A3000 RMK A01,M
TMT,2024-07-13 00:35,-117.1971,39.4643,1749.34,94.00,32.00,11.19,70.00,16.00,0.00,30.16,M,10.00,21.00,CLR,M,M,M,M,M,M,M,M,M,M,M,M,M,M,88.93,KTMT 130035Z AUTO 07016G21KT 10SM CLR 34/00 A3016 RMK AO2 T03440000,M
05U,2024-07-13 00:50,-116.0051,39.6042,1811.23,91.40,24.80,9.04,40.00,13.00,0.00,30.18,M,10.00,18.00,M,M,M,M,M,M,M,M,M,M,M,M,M,M,M,86.21,K05U 130050Z AUTO 04013G18KT 10SM 33/M04 A3018 RMK A01,M
P68,2024-07-13 00:53,-116.0056,39.6014,1993.00,92.00,24.00,8.58,250.00,7.00,0.00,30.16,1011.70,M,24.00,M,M,M,M,M,M,M,M,M,M,M,M,M,M,M,86.60,KP68 130053Z AUTO 25007G24KT 170V290 33/M04 A3016 RMK AO1 SLP117 T03331044,M
DRA,2024-07-13 00:53,-116.0278,36.6206,1009.00,109.00,29.00,6.32,260.00,11.00,0.00,29.87,1005.10,10.00,M,CLR,M,M,M,M,M,M,M,M,M,M,M,M,M,M,101.14,KDRA 130053Z AUTO 26011KT 10SM CLR 43/M02 A2987 RMK AO2 SLP051 T04281017,M
ELY,2024-07-13 00:53,-114.8453,39.2950,1909.00,93.00,27.00,9.42,20.00,10.00,0.00,30.20,1010.80,10.00,20.00,CLR,M,M,M,M,M,M,M,M,M,M,M,M,M,M,87.60,KELY 130053Z AUTO 02010G20KT 10SM CLR 34/M03 A3020 RMK AO2 SLP108 T03391028,M
VGT,2024-07-13 00:53,-115.1933,36.2111,667.00,113.00,46.00,10.98,130.00,17.00,0.00,29.77,1006.10,10.00,M,CLR,M,M,M,M,M,M,M,M,M,M,M,M,M,M,108.58,KVGT 130053Z 13017KT 10SM CLR 45/08 A2977 RMK AO2 SLP061 T04500078,M
LOL,2024-07-13 00:53,-118.5701,40.0684,1192.43,102.00,26.00,6.87,250.00,4.00,0.00,29.97,1010.20,10.00,M,CLR,M,M,M,M,M,M,M,M,M,M,M,M,M,M,94.86,KLOL 130053Z AUTO 25004KT 10SM CLR 39/M03 A2997 RMK AO2 SLP102 T03891033,M
BVU,2024-07-13 00:55,-114.8611,35.9475,671.00,109.40,44.60,11.55,160.00,18.00,0.00,29.79,M,10.00,M,CLR,M,M,M,M,M,M,M,M,M,M,M,M,M,M,104.78,KBVU 130055Z AUTO 16018KT 10SM CLR 43/07 A2979 RMK AO2,M
CXP,2024-07-13 00:55,-119.7326,39.1923,1431.00,91.40,30.20,11.28,180.00,10.00,0.00,30.16,M,10.00,18.00,CLR,M,M,M,M,M,M,M,M,M,M,M,M,M,M,86.71,KCXP 130055Z AUTO 18010G18KT 10SM CLR 33/M01 A3016 RMK AO2,M
INS,2024-07-13 00:55,-115.6733,36.5872,955.00,109.00,18.00,3.98,360.00,5.00,0.00,29.85,1004.10,10.00,M,CLR,M,M,M,M,M,M,M,M,M,M,M,M,M,M,99.98,KINS 130055Z AUTO 36005KT 10SM CLR 43/M08 A2985 RMK AO2 SLP041 T04281078 $,M
RNO,2024-07-13 00:55,-119.7711,39.4839,1341.00,94.00,38.00,14.21,190.00,20.00,T,30.09,1012.20,10.00,29.00,BKN,BKN,M,M,9000.00,15000.00,M,M,M,M,M,M,39.00,180.00,2024-07-13 00:18,89.58,KRNO 130055Z 19020G29KT 10SM BKN090 BKN150 34/03 A3009 RMK AO2 PK WND 18039/0018 RAB14E31 SLP122 VIRGA P0000 T03440033,M
RTS,2024-07-13 00:55,-119.8764,39.6682,1539.00,89.60,32.00,12.84,130.00,6.00,0.00,30.17,M,10.00,17.00,FEW,M,M,M,11000.00,M,M,M,M,M,M,M,M,M,M,85.54,KRTS 130055Z AUTO 13006G17KT 10SM FEW110 32/00 A3017 RMK AO2,M
MEV,2024-07-13 00:55,-119.7500,38.9963,1441.42,86.00,39.20,19.15,170.00,13.00,0.00,30.20,M,10.00,22.00,CLR,M,M,M,M,M,M,M,M,M,M,M,M,M,M,82.79,KMEV 130055Z AUTO 17013G22KT 10SM CLR 30/04 A3020 RMK AO2,M
HTH,2024-07-13 00:55,-118.6315,38.5448,1282.89,98.60,26.60,7.80,250.00,13.00,0.00,30.03,M,10.00,19.00,CLR,M,M,M,M,M,M,M,M,M,M,M,M,M,M,92.07,KHTH 130055Z AUTO 25013G19KT 10SM CLR 37/M03 A3003 RMK A01,M
TMT,2024-07-13 00:55,-117.1971,39.4643,1749.34,93.70,30.70,10.72,100.00,7.00,0.00,30.15,M,10.00,16.00,CLR,M,M,M,M,M,M,M,M,M,M,M,M,M,M,88.53,KTMT 130055Z AUTO 10007G16KT 10SM CLR 34/M01 A3015 RMK AO2 T03431007,M
LSV,2024-07-13 00:55,-115.0343,36.2362,570.00,112.30,37.00,7.91,130.00,15.00,0.00,29.72,1002.80,10.00,M,CLR,M,M,M,M,M,M,M,M,M,M,M,M,M,M,105.64,KLSV 130055Z AUTO 13015KT 10SM CLR 45/03 A2972 RMK AO2 SLP028 T04460028 $,M
EKO,2024-07-13 00:56,-115.7860,40.8242,1367.00,100.00,25.00,6.99,260.00,11.00,0.00,30.08,1012.00,10.00,M,CLR,M,M,M,M,M,M,M,M,M,M,M,M,M,M,93.09,KEKO 130056Z AUTO 26011KT 10SM CLR 38/M04 A3008 RMK AO2 SLP120 T03781039,M
WMC,2024-07-13 00:56,-117.8072,40.9019,1315.00,103.00,24.00,6.13,290.00,7.00,0.00,30.01,1010.40,10.00,M,CLR,M,M,M,M,M,M,M,M,M,M,M,M,M,M,95.50,KWMC 130056Z AUTO 29007KT 10SM CLR 39/M04 A3001 RMK AO2 SLP104 T03941044,M
NFL,2024-07-13 00:56,-118.7010,39.4166,1199.00,102.00,27.00,7.16,290.00,7.00,0.00,29.98,1012.40,10.00,M,BKN,OVC,M,M,8000.00,12000.00,M,M,M,M,M,M,M,M,M,94.96,KNFL 130056Z 29007KT 10SM BKN080 OVC120 39/M03 A2998 RMK AO2 SLP124 T03891028,M
HND,2024-07-13 00:56,-115.1344,35.9729,742.79,111.00,43.00,10.37,150.00,13.00,0.00,29.83,1007.40,10.00,18.00,CLR,M,M,M,M,M,M,M,M,M,M,M,M,M,M,105.78,KHND 130056Z 15013G18KT 10SM CLR 44/06 A2983 RMK AO2 SLP074 T04390061,M
TPH,2024-07-13 00:56,-117.0904,38.0505,1654.00,97.00,25.00,7.66,M,6.00,0.00,30.10,1009.30,10.00,19.00,CLR,M,M,M,M,M,M,M,M,M,M,M,26.00,130.00,2024-07-12 23:57,90.58,KTPH 130056Z AUTO VRB06G19KT 10SM CLR 36/M04 A3010 RMK AO2 PK WND 13026/2357 SLP093 T03611039,M
LAS,2024-07-13 00:56,-115.1634,36.0719,663.00,114.00,44.00,9.89,130.00,11.00,0.00,29.79,1004.90,10.00,17.00,FEW,FEW,SCT,M,10000.00,15000.00,22000.00,M,M,M,M,M,M,M,M,108.81,KLAS 130056Z 13011G17KT 10SM FEW100 FEW150 SCT220 46/07 A2979 RMK AO2 SLP049 CB DSNT E-SE AND SW T04560067 $,M
RNO,2024-07-13 01:02,-119.7711,39.4839,1341.00,94.00,37.00,13.66,190.00,19.00,0.00,30.10,M,10.00,29.00,BKN,BKN,M,M,8000.00,15000.00,M,M,TS,M,M,M,M,M,M,89.53,KRNO 130102Z 19019G29KT 10SM TS BKN080CB BKN150 34/03 A3010 RMK AO2 TSB02 OCNL LTGIC W TS W MOV NE T03440028,M
BVU,2024-07-13 01:15,-114.8611,35.9475,671.00,109.40,42.80,10.78,130.00,28.00,0.00,29.81,M,5.00,38.00,CLR,M,M,M,M,M,M,M,HZ,M,M,M,M,M,M,104.25,KBVU 130115Z AUTO 13028G38KT 5SM HZ CLR 43/06 A2981 RMK AO2,M
CXP,2024-07-13 01:15,-119.7326,39.1923,1431.00,89.60,35.60,14.83,170.00,19.00,0.00,30.16,M,7.00,32.00,CLR,M,M,M,M,M,M,M,M,M,M,M,M,M,M,85.62,KCXP 130115Z AUTO 17019G32KT 7SM CLR 32/02 A3016 RMK AO2,M
RTS,2024-07-13 01:15,-119.8764,39.6682,1539.00,82.40,42.80,24.72,180.00,19.00,0.00,30.16,M,6.00,31.00,CLR,M,M,M,M,M,M,M,-DZ,M,M,M,M,M,M,80.39,KRTS 130115Z AUTO 18019G31KT 6SM -DZ CLR 28/06 A3016 RMK AO2,M
05U,2024-07-13 01:15,-116.0051,39.6042,1811.23,91.40,24.80,9.04,90.00,10.00,0.00,30.19,M,10.00,20.00,M,M,M,M,M,M,M,M,M,M,M,M,M,M,M,86.21,K05U 130115Z AUTO 09010G20KT 10SM 33/M04 A3019 RMK A01,M
MEV,2024-07-13 01:15,-119.7500,38.9963,1441.42,84.20,39.20,20.29,180.00,12.00,0.00,30.18,M,10.00,19.00,CLR,M,M,M,M,M,M,M,M,M,M,M,M,M,M,81.44,KMEV 130115Z AUTO 18012G19KT 10SM CLR 29/04 A3018 RMK AO2,M
HTH,2024-07-13 01:15,-118.6315,38.5448,1282.89,98.60,26.60,7.80,260.00,11.00,0.00,30.03,M,10.00,20.00,CLR,M,M,M,M,M,M,M,M,M,M,M,M,M,M,92.07,KHTH 130115Z AUTO 26011G20KT 10SM CLR 37/M03 A3003 RMK A01,M
TMT,2024-07-13 01:15,-117.1971,39.4643,1749.34,92.50,31.60,11.54,80.00,4.00,0.00,30.16,M,10.00,9.00,CLR,M,M,M,M,M,M,M,M,M,M,M,M,M,M,87.71,KTMT 130115Z AUTO 08004G09KT 10SM CLR 34/00 A3016 RMK AO2 T03361002,M
RTS,2024-07-13 01:20,-119.8764,39.6682,1539.00,82.40,42.80,24.72,160.00,16.00,0.00,30.17,M,9.00,27.00,CLR,M,M,M,M,M,M,M,-DZ,M,M,M,M,M,M,80.39,KRTS 130120Z AUTO 16016G27KT 9SM -DZ CLR 28/06 A3017 RMK AO2,M
LAS,2024-07-13 01:28,-115.1634,36.0719,663.00,112.00,47.00,11.73,110.00,15.00,0.00,29.80,M,10.00,24.00,FEW,FEW,SCT,M,10000.00,15000.00,22000.00,M,M,M,M,M,M,M,M,108.01,KLAS 130128Z 11015G24KT 10SM FEW100 FEW150 SCT220 44/08 A2980 RMK AO2 CB DSNT E-SE AND SW T04440083 $,M
CXP,2024-07-13 01:30,-119.7326,39.1923,1431.00,87.80,37.40,16.86,180.00,11.00,0.00,30.17,M,10.00,24.00,CLR,M,M,M,M,M,M,M,M,M,M,M,M,M,M,84.16,KCXP 130130Z AUTO 18011G24KT 10SM CLR 31/03 A3017 RMK AO2,M
HTH,2024-07-13 01:30,-118.6315,38.5448,1282.89,96.80,26.60,8.24,260.00,9.00,0.00,30.02,M,10.00,18.00,CLR,M,M,M,M,M,M,M,M,M,M,M,M,M,M,90.57,KHTH 130130Z AUTO 26009G18KT 240V300 10SM CLR 36/M03 A3002 RMK A01,M
LSV,2024-07-13 01:32,-115.0343,36.2362,570.00,111.20,33.80,7.19,120.00,19.00,0.00,29.73,1003.20,10.00,24.00,CLR,M,M,M,M,M,M,M,M,M,M,M,M,M,M,103.88,KLSV 130132Z 12019G24KT 10SM CLR 44/01 A2973 RMK SLP032 $,M
BVU,2024-07-13 01:35,-114.8611,35.9475,671.00,105.80,41.00,11.18,140.00,23.00,0.00,29.82,M,8.00,33.00,CLR,M,M,M,M,M,M,M,M,M,M,M,M,M,M,100.56,KBVU 130135Z AUTO 14023G33KT 8SM CLR 41/05 A2982 RMK AO2,M
05U,2024-07-13 01:35,-116.0051,39.6042,1811.23,91.40,24.80,9.04,150.00,8.00,0.00,30.19,M,10.00,14.00,M,M,M,M,M,M,M,M,M,M,M,M,M,M,M,86.21,K05U 130135Z AUTO 15008G14KT 10SM 33/M04 A3019 RMK A01,M
MEV,2024-07-13 01:35,-119.7500,38.9963,1441.42,84.20,37.40,18.91,230.00,6.00,0.00,30.16,M,10.00,12.00,CLR,M,M,M,M,M,M,M,M,M,M,M,M,M,M,81.38,KMEV 130135Z AUTO 23006G12KT 10SM CLR 29/03 A3016 RMK AO2,M
TMT,2024-07-13 01:35,-117.1971,39.4643,1749.34,91.00,33.30,12.95,60.00,6.00,0.00,30.16,M,10.00,M,CLR,M,M,M,M,M,M,M,M,M,M,M,M,M,M,86.77,KTMT 130135Z AUTO 06006KT 10SM CLR 33/01 A3016 RMK AO2 T03270007,M
P68,2024-07-13 01:36,-116.0056,39.6014,1993.00,92.00,23.00,8.22,350.00,9.00,0.00,30.17,M,M,18.00,M,M,M,M,M,M,M,M,M,M,M,M,32.00,270.00,2024-07-13 01:00,86.53,KP68 130136Z AUTO 35009G18KT 33/M05 A3017 RMK AO1 PK WND 27032/0100 WSHFT 0119 T03331050,M
RNO,2024-07-13 01:38,-119.7711,39.4839,1341.00,92.00,41.00,17.00,300.00,6.00,T,30.11,M,10.00,M,BKN,BKN,M,M,8000.00,14000.00,M,M,TS,M,M,M,27.00,200.00,2024-07-13 01:07,87.94,KRNO 130138Z 30006KT 10SM TS BKN080CB BKN140 33/05 A3011 RMK AO2 PK WND 20027/0107 RAB13E23 TSB02 OCNL LTGIC NW TS NW MOV NE P0000 T03330050,M
05U,2024-07-13 01:50,-116.0051,39.6042,1811.23,91.40,26.60,9.74,160.00,13.00,0.00,30.20,M,10.00,M,M,M,M,M,M,M,M,M,M,M,M,M,M,M,M,86.36,K05U 130150Z AUTO 16013KT 10SM 33/M03 A3020 RMK A01,M
P68,2024-07-13 01:53,-116.0056,39.6014,1993.00,91.00,26.00,9.62,350.00,10.00,0.00,30.18,1011.90,M,19.00,M,M,M,M,M,M,M,M,M,M,M,M,32.00,270.00,2024-07-13 01:00,86.01,KP68 130153Z AUTO 35010G19KT 33/M03 A3018 RMK AO1 PK WND 27032/0100 WSHFT 0119 SLP119 T03281033,M
DRA,2024-07-13 01:53,-116.0278,36.6206,1009.00,107.00,28.00,6.43,240.00,6.00,0.00,29.87,1005.10,10.00,M,CLR,M,M,M,M,M,M,M,M,M,M,M,M,M,M,99.30,KDRA 130153Z AUTO 24006KT 10SM CLR 42/M02 A2987 RMK AO2 SLP051 T04171022,M
ELY,2024-07-13 01:53,-114.8453,39.2950,1909.00,87.00,28.00,11.85,170.00,3.00,0.00,30.22,1011.80,10.00,M,CLR,M,M,M,M,M,M,M,M,M,M,M,M,M,M,83.22,KELY 130153Z AUTO 17003KT 10SM CLR 31/M02 A3022 RMK AO2 SLP118 T03061022,M
VGT,2024-07-13 01:53,-115.1933,36.2111,667.00,109.00,47.00,12.80,130.00,29.00,0.00,29.79,1006.90,5.00,40.00,FEW,M,M,M,2600.00,M,M,M,HZ,M,M,M,40.00,130.00,2024-07-13 01:49,105.20,KVGT 130153Z 13029G40KT 5SM HZ FEW026 43/08 A2979 RMK AO2 PK WND 13040/0149 SLP069 T04280083,M
LOL,2024-07-13 01:53,-118.5701,40.0684,1192.43,101.00,27.00,7.37,250.00,3.00,0.00,29.98,1010.10,10.00,M,CLR,M,M,M,M,M,M,M,M,M,M,M,M,M,M,94.12,KLOL 130153Z AUTO 25003KT 10SM CLR 38/M03 A2998 RMK AO2 SLP101 T03831028,M
BVU,2024-07-13 01:55,-114.8611,35.9475,671.00,104.00,41.00,11.79,120.00,21.00,0.00,29.83,M,9.00,28.00,CLR,M,M,M,M,M,M,M,M,M,M,M,M,M,M,98.97,KBVU 130155Z AUTO 12021G28KT 9SM CLR 40/05 A2983 RMK AO2,M
CXP,2024-07-13 01:55,-119.7326,39.1923,1431.00,86.00,37.40,17.85,0.00,0.00,0.00,30.18,M,10.00,13.00,CLR,M,M,M,M,M,M,M,M,M,M,M,M,M,M,82.73,KCXP 130155Z AUTO 00000G13KT 10SM CLR 30/03 A3018 RMK AO2,M
INS,2024-07-13 01:55,-115.6733,36.5872,955.00,108.30,22.60,4.94,120.00,15.00,0.00,29.85,1004.10,10.00,M,OVC,M,M,M,22000.00,M,M,M,M,M,M,M,M,M,M,99.79,KINS 130155Z AUTO 12015KT 10SM OVC220 42/M05 A2985 RMK AO2 SLP041 T04241052 $,M
RNO,2024-07-13 01:55,-119.7711,39.4839,1341.00,93.00,36.00,13.55,190.00,18.00,T,30.12,1013.10,10.00,26.00,BKN,BKN,M,M,8000.00,14000.00,M,M,TS,M,M,M,27.00,200.00,2024-07-13 01:07,88.59,KRNO 130155Z 19018G26KT 10SM TS BKN080CB BKN140 34/02 A3012 RMK AO2 PK WND 20027/0107 RAB13E23 TSB02 SLP131 OCNL LTGIC NW TS NW MOV NE P0000 T03390022,M
LSV,2024-07-13 01:55,-115.0343,36.2362,570.00,108.50,37.20,8.90,110.00,23.00,0.00,29.74,1003.50,10.00,29.00,CLR,M,M,M,M,M,M,M,M,M,M,M,34.00,120.00,2024-07-13 01:36,102.09,KLSV 130155Z AUTO 11023G29KT 10SM CLR 43/03 A2974 RMK AO2 PK WND 12034/36 SLP035 T04250029 $,M
RTS,2024-07-13 01:55,-119.8764,39.6682,1539.00,82.40,41.00,23.07,120.00,14.00,0.03,30.20,M,8.00,27.00,FEW,FEW,BKN,M,4900.00,7000.00,9500.00,M,-DZ,M,M,M,M,M,M,80.29,KRTS 130155Z AUTO 12014G27KT 8SM -DZ FEW049 FEW070 BKN095 28/05 A3020 RMK AO2 P0003,M
MEV,2024-07-13 01:55,-119.7500,38.9963,1441.42,82.40,42.80,24.72,0.00,0.00,0.00,30.15,M,10.00,M,CLR,M,M,M,M,M,M,M,M,M,M,M,M,M,M,80.39,KMEV 130155Z AUTO 00000KT 10SM CLR 28/06 A3015 RMK AO2,M
HTH,2024-07-13 01:55,-118.6315,38.5448,1282.89,96.80,28.40,8.87,270.00,12.00,0.00,30.03,M,10.00,M,CLR,M,M,M,M,M,M,M,M,M,M,M,M,M,M,90.75,KHTH 130155Z AUTO 27012KT 10SM CLR 36/M02 A3003 RMK A01,M
TMT,2024-07-13 01:55,-117.1971,39.4643,1749.34,91.00,31.00,11.80,80.00,8.00,0.00,30.16,M,10.00,M,CLR,M,M,M,M,M,M,M,M,M,M,M,M,M,M,86.49,KTMT 130155Z AUTO 08008KT 10SM CLR 33/M01 A3016 RMK AO2 T03281006,M
EKO,2024-07-13 01:56,-115.7860,40.8242,1367.00,99.00,26.00,7.52,270.00,11.00,0.00,30.08,1011.30,10.00,M,CLR,M,M,M,M,M,M,M,M,M,M,M,M,M,M,92.34,KEKO 130156Z AUTO 27011KT 10SM CLR 37/M03 A3008 RMK AO2 SLP113 T03721033,M
WMC,2024-07-13 01:56,-117.8072,40.9019,1315.00,101.00,24.00,6.51,270.00,4.00,0.00,30.01,1010.20,10.00,M,CLR,M,M,M,M,M,M,M,M,M,M,M,M,M,M,93.83,KWMC 130156Z AUTO 27004KT 10SM CLR 38/M04 A3001 RMK AO2 SLP102 T03831044,M
HND,2024-07-13 01:56,-115.1344,35.9729,742.79,104.00,48.00,15.40,130.00,21.00,0.00,29.86,1008.70,3.00,31.00,FEW,SCT,M,M,2600.00,3300.00,M,M,HZ,M,M,M,34.00,120.00,2024-07-13 01:45,100.60,KHND 130156Z 13021G31KT 3SM HZ FEW026 SCT033 40/09 A2986 RMK AO2 PK WND 12034/0145 SLP087 T04000089,M
TPH,2024-07-13 01:56,-117.0904,38.0505,1654.00,95.00,25.00,8.15,190.00,6.00,0.00,30.10,1009.00,10.00,M,CLR,M,M,M,M,M,M,M,M,M,M,M,M,M,M,88.93,KTPH 130156Z AUTO 19006KT 10SM CLR 35/M04 A3010 RMK AO2 SLP090 T03501039,M
LAS,2024-07-13 01:56,-115.1634,36.0719,663.00,108.00,46.00,12.69,130.00,11.00,0.00,29.82,1006.00,4.00,36.00,FEW,SCT,M,M,15000.00,22000.00,M,M,BLDU,M,M,M,36.00,120.00,2024-07-13 01:48,103.95,KLAS 130156Z 13011G36KT 4SM BLDU FEW150 SCT220 42/08 A2982 RMK AO2 PK WND 12036/0148 SLP060 T04220078 $,M
NFL,2024-07-13 01:56,-118.7010,39.4166,1199.00,97.00,35.00,11.51,260.00,21.00,0.00,30.00,1013.10,6.00,37.00,BKN,BKN,BKN,M,8000.00,12000.00,25000.00,M,BLDU,M,M,M,37.00,240.00,2024-07-13 01:52,91.79,KNFL 130156Z 26021G37KT 6SM BLDU BKN080 BKN120 BKN250 36/02 A3000 RMK PK WND 24037/0152 SLP131 CB DSNT SE T03610017,M
RNO,2024-07-13 02:04,-119.7711,39.4839,1341.00,93.00,36.00,13.55,190.00,20.00,0.00,30.12,M,10.00,26.00,BKN,BKN,M,M,9000.00,14000.00,M,M,TS,M,M,M,27.00,180.00,2024-07-13 02:00,88.59,KRNO 130204Z 19020G26KT 10SM TS BKN090CB BKN140 34/02 A3012 RMK AO2 PK WND 18027/0200 WSHFT 0144 OCNL LTGIC NW TS NW MOV NE T03390022,M
05U,2024-07-13 02:10,-116.0051,39.6042,1811.23,89.60,26.60,10.30,0.00,0.00,0.00,30.21,M,10.00,M,M,M,M,M,M,M,M,M,M,M,M,M,M,M,M,85.02,K05U 130210Z AUTO 00000KT 10SM 32/M03 A3021 RMK A01,M
HND,2024-07-13 02:12,-115.1344,35.9729,742.79,102.20,46.40,15.30,140.00,19.00,0.00,29.86,M,4.00,29.00,BKN,BKN,M,M,2500.00,3200.00,M,M,HZ,M,M,M,31.00,120.00,2024-07-13 02:00,98.43,KHND 130212Z 14019G29KT 4SM HZ BKN025 BKN032 39/08 A2986 RMK AO2 PK WND 12031/0200,M
BVU,2024-07-13 02:15,-114.8611,35.9475,671.00,104.00,39.20,11.00,130.00,18.00,0.00,29.84,M,10.00,27.00,CLR,M,M,M,M,M,M,M,M,M,M,M,M,M,M,98.56,KBVU 130215Z AUTO 13018G27KT 10SM CLR 40/04 A2984 RMK AO2,M
CXP,2024-07-13 02:15,-119.7326,39.1923,1431.00,86.00,37.40,17.85,M,4.00,0.00,30.16,M,10.00,M,CLR,M,M,M,M,M,M,M,M,M,M,M,M,M,M,82.73,KCXP 130215Z AUTO VRB04KT 10SM CLR 30/03 A3016 RMK AO2,M
RTS,2024-07-13 02:15,-119.8764,39.6682,1539.00,84.20,44.60,24.99,160.00,8.00,0.00,30.18,M,10.00,M,FEW,M,M,M,9500.00,M,M,M,M,M,M,M,M,M,M,81.73,KRTS 130215Z AUTO 16008KT 10SM FEW095 29/07 A3018 RMK AO2,M
MEV,2024-07-13 02:15,-119.7500,38.9963,1441.42,84.20,39.20,20.29,150.00,9.00,0.00,30.14,M,10.00,M,CLR,M,M,M,M,M,M,M,M,M,M,M,M,M,M,81.44,KMEV 130215Z AUTO 15009KT 10SM CLR 29/04 A3014 RMK AO2,M
HTH,2024-07-13 02:15,-118.6315,38.5448,1282.89,95.00,28.40,9.38,270.00,11.00,0.00,30.03,M,10.00,16.00,CLR,M,M,M,M,M,M,M,M,M,M,M,M,M,M,89.27,KHTH 130215Z AUTO 27011G16KT 10SM CLR 35/M02 A3003 RMK A01,M
TMT,2024-07-13 02:15,-117.1971,39.4643,1749.34,90.30,30.70,11.92,90.00,9.00,0.00,30.16,M,10.00,M,CLR,M,M,M,M,M,M,M,M,M,M,M,M,M,M,85.93,KTMT 130215Z AUTO 09009KT 10SM CLR 32/M01 A3016 RMK AO2 T03241007,M
RNO,2024-07-13 02:19,-119.7711,39.4839,1341.00,93.00,36.00,13.55,190.00,17.00,0.00,30.12,M,10.00,24.00,BKN,BKN,M,M,9000.00,14000.00,M,M,M,M,M,M,27.00,180.00,2024-07-13 02:00,88.59,KRNO 130219Z 19017G24KT 10SM BKN090 BKN140 34/02 A3012 RMK AO2 PK WND 18027/0200 WSHFT 0144 TSE19 T03390022,M
HND,2024-07-13 02:25,-115.1344,35.9729,742.79,102.20,46.40,15.30,130.00,20.00,0.00,29.87,M,6.00,33.00,FEW,OVC,M,M,2300.00,3000.00,M,M,HZ,M,M,M,33.00,120.00,2024-07-13 02:19,98.43,KHND 130225Z 13020G33KT 6SM HZ FEW023 OVC030 39/08 A2987 RMK AO2 PK WND 12033/0219,M
BVU,2024-07-13 02:35,-114.8611,35.9475,671.00,104.00,39.20,11.00,130.00,18.00,0.00,29.84,M,10.00,25.00,CLR,M,M,M,M,M,M,M,M,M,M,M,M,M,M,98.56,KBVU 130235Z AUTO 13018G25KT 10SM CLR 40/04 A2984 RMK AO2,M
CXP,2024-07-13 02:35,-119.7326,39.1923,1431.00,86.00,37.40,17.85,330.00,5.00,0.00,30.14,M,10.00,M,CLR,M,M,M,M,M,M,M,M,M,M,M,M,M,M,82.73,KCXP 130235Z AUTO 33005KT 10SM CLR 30/03 A3014 RMK AO2,M
RTS,2024-07-13 02:35,-119.8764,39.6682,1539.00,86.00,39.20,19.15,150.00,14.00,0.00,30.18,M,10.00,20.00,CLR,M,M,M,M,M,M,M,M,M,M,M,M,M,M,82.79,KRTS 130235Z AUTO 15014G20KT 10SM CLR 30/04 A3018 RMK AO2,M
05U,2024-07-13 02:35,-116.0051,39.6042,1811.23,89.60,26.60,10.30,290.00,8.00,0.00,30.23,M,10.00,14.00,M,M,M,M,M,M,M,M,M,M,M,M,M,M,M,85.02,K05U 130235Z AUTO 29008G14KT 10SM 32/M03 A3023 RMK A01,M
MEV,2024-07-13 02:35,-119.7500,38.9963,1441.42,78.80,44.60,29.79,120.00,3.00,0.00,30.13,M,10.00,M,CLR,M,M,M,M,M,M,M,M,M,M,M,M,M,M,78.80,KMEV 130235Z AUTO 12003KT 10SM CLR 26/07 A3013 RMK AO2,M
HTH,2024-07-13 02:35,-118.6315,38.5448,1282.89,93.20,32.00,11.48,10.00,9.00,0.00,30.04,M,10.00,15.00,CLR,M,M,M,M,M,M,M,M,M,M,M,M,M,M,88.31,KHTH 130235Z AUTO 01009G15KT 10SM CLR 34/M00 A3004 RMK A01,M
TMT,2024-07-13 02:35,-117.1971,39.4643,1749.34,87.60,32.00,13.68,80.00,6.00,0.00,30.17,M,10.00,M,CLR,M,M,M,M,M,M,M,M,M,M,M,M,M,M,83.92,KTMT 130235Z AUTO 08006KT 10SM CLR 31/00 A3017 RMK AO2 T03091001,M
P68,2024-07-13 02:53,-116.0056,39.6014,1993.00,87.00,29.00,12.35,90.00,4.00,0.00,30.21,1012.40,M,M,M,M,M,M,M,M,M,M,M,M,M,M,M,M,M,83.31,KP68 130253Z AUTO 09004KT 31/M02 A3021 RMK AO1 SLP124 T03061017 53015,M
DRA,2024-07-13 02:53,-116.0278,36.6206,1009.00,102.00,26.00,6.87,230.00,7.00,0.00,29.88,1005.20,10.00,M,CLR,M,M,M,M,M,M,M,M,M,M,M,M,M,M,94.86,KDRA 130253Z AUTO 23007KT 10SM CLR 39/M03 A2988 RMK AO2 SLP052 T03891033 53003,M
ELY,2024-07-13 02:53,-114.8453,39.2950,1909.00,78.00,33.00,19.43,200.00,7.00,0.00,30.22,1011.90,10.00,M,CLR,M,M,M,M,M,M,M,M,M,M,M,M,M,M,78.00,KELY 130253Z AUTO 20007KT 10SM CLR 26/01 A3022 RMK AO2 SLP119 T02560006 53002,M
VGT,2024-07-13 02:53,-115.1933,36.2111,667.00,105.00,45.00,13.35,130.00,15.00,0.00,29.83,1008.30,8.00,22.00,OVC,M,M,M,3500.00,M,M,M,M,M,M,M,36.00,140.00,2024-07-13 02:10,100.87,KVGT 130253Z 13015G22KT 8SM OVC035 41/07 A2983 RMK AO2 PK WND 14036/0210 SLP083 T04060072 53020,M
LOL,2024-07-13 02:53,-118.5701,40.0684,1192.43,98.00,28.00,8.41,280.00,13.00,0.00,29.98,1009.90,10.00,23.00,CLR,M,M,M,M,M,M,M,M,M,M,M,27.00,260.00,2024-07-13 02:23,91.71,KLOL 130253Z AUTO 28013G23KT 10SM CLR 37/M02 A2998 RMK AO2 PK WND 26027/0223 SLP099 T03671022 55000,M
BVU,2024-07-13 02:55,-114.8611,35.9475,671.00,102.20,37.40,10.81,130.00,17.00,0.00,29.84,M,10.00,23.00,CLR,M,M,M,M,M,M,M,M,M,M,M,M,M,M,96.63,KBVU 130255Z AUTO 13017G23KT 10SM CLR 39/03 A2984 RMK AO2,M
CXP,2024-07-13 02:55,-119.7326,39.1923,1431.00,84.20,39.20,20.29,0.00,0.00,0.00,30.14,M,10.00,M,CLR,M,M,M,M,M,M,M,M,M,M,M,M,M,M,81.44,KCXP 130255Z AUTO 00000KT 10SM CLR 29/04 A3014 RMK AO2,M
INS,2024-07-13 02:55,-115.6733,36.5872,955.00,103.30,38.50,10.93,130.00,22.00,0.00,29.87,1004.80,4.00,33.00,FEW,SCT,SCT,M,700.00,19000.00,22000.00,M,HZ,M,M,M,42.00,90.00,2024-07-13 02:40,97.80,KINS 130255Z AUTO 13022G33KT 4SM HZ FEW007 SCT190 SCT220 40/04 A2987 RMK AO2 PK WND 09042/40 SLP048 T03960036 53006 $,M
RNO,2024-07-13 02:55,-119.7711,39.4839,1341.00,91.00,37.00,15.00,150.00,17.00,0.00,30.13,1013.40,10.00,24.00,BKN,BKN,M,M,9000.00,15000.00,M,M,M,M,M,M,27.00,180.00,2024-07-13 02:00,86.86,KRNO 130255Z 15017G24KT 10SM BKN090 BKN150 33/03 A3013 RMK AO2 PK WND 18027/0200 WSHFT 0144 TSE19 SLP134 60000 T03280028 51022,M
LSV,2024-07-13 02:55,-115.0343,36.2362,570.00,106.00,38.30,10.01,140.00,14.00,0.00,29.77,1004.60,10.00,25.00,CLR,M,M,M,M,M,M,M,M,M,M,M,30.00,140.00,2024-07-13 02:44,100.12,KLSV 130255Z AUTO 14014G25KT 10SM CLR 41/04 A2977 RMK AO2 PK WND 14030/44 SLP046 T04120035 53018 $,M
RTS,2024-07-13 02:55,-119.8764,39.6682,1539.00,84.20,39.20,20.29,160.00,6.00,0.00,30.18,M,10.00,M,CLR,M,M,M,M,M,M,M,M,M,M,M,M,M,M,81.44,KRTS 130255Z AUTO 16006KT 10SM CLR 29/04 A3018 RMK AO2,M
05U,2024-07-13 02:55,-116.0051,39.6042,1811.23,87.80,30.20,12.64,0.00,0.00,0.00,30.24,M,10.00,M,M,M,M,M,M,M,M,M,M,M,M,M,M,M,M,84.01,K05U 130255Z AUTO 00000KT 10SM 31/M01 A3024 RMK A01,M
MEV,2024-07-13 02:55,-119.7500,38.9963,1441.42,78.80,50.00,36.51,100.00,6.00,0.00,30.14,M,10.00,M,CLR,M,M,M,M,M,M,M,M,M,M,M,M,M,M,78.80,KMEV 130255Z AUTO 10006KT 10SM CLR 26/10 A3014 RMK AO2,M
HTH,2024-07-13 02:55,-118.6315,38.5448,1282.89,91.40,33.80,13.05,340.00,11.00,0.00,30.04,M,10.00,17.00,CLR,M,M,M,M,M,M,M,M,M,M,M,M,M,M,87.13,KHTH 130255Z AUTO 34011G17KT 10SM CLR 33/01 A3004 RMK A01,M
TMT,2024-07-13 02:55,-117.1971,39.4643,1749.34,85.30,32.00,14.72,360.00,5.00,0.00,30.18,M,10.00,M,CLR,M,M,M,M,M,M,M,M,M,M,M,M,M,M,82.10,KTMT 130255Z AUTO 36005KT 10SM CLR 30/00 A3018 RMK AO2 T02960000,M
EKO,2024-07-13 02:56,-115.7860,40.8242,1367.00,95.00,27.00,8.85,330.00,5.00,0.00,30.09,1012.00,10.00,M,CLR,M,M,M,M,M,M,M,M,M,M,M,M,M,M,89.12,KEKO 130256Z AUTO 33005KT 10SM CLR 35/M03 A3009 RMK AO2 SLP120 T03501028 53001,M
WMC,2024-07-13 02:56,-117.8072,40.9019,1315.00,95.00,28.00,9.22,340.00,5.00,0.00,30.02,1010.40,10.00,M,CLR,M,M,M,M,M,M,M,M,M,M,M,M,M,M,89.22,KWMC 130256Z AUTO 34005KT 10SM CLR 35/M02 A3002 RMK AO2 SLP104 T03501022 55000,M
HND,2024-07-13 02:56,-115.1344,35.9729,742.79,101.00,45.00,15.04,140.00,25.00,0.00,29.87,1009.00,10.00,33.00,BKN,M,M,M,3600.00,M,M,M,M,M,M,M,34.00,130.00,2024-07-13 02:44,96.97,KHND 130256Z 14025G33KT 10SM BKN036 38/07 A2987 RMK AO2 PK WND 13034/0244 SLP090 T03830072 53014,M
TPH,2024-07-13 02:56,-117.0904,38.0505,1654.00,89.00,24.00,9.42,240.00,6.00,0.00,30.11,1009.00,10.00,M,CLR,M,M,M,M,M,M,M,M,M,M,M,M,M,M,84.38,KTPH 130256Z AUTO 24006KT 10SM CLR 32/M04 A3011 RMK AO2 SLP090 T03171044 51007,M
LAS,2024-07-13 02:56,-115.1634,36.0719,663.00,105.00,43.00,12.37,120.00,13.00,0.00,29.84,1006.90,4.00,26.00,FEW,SCT,M,M,15000.00,22000.00,M,M,BLDU,M,M,M,30.00,140.00,2024-07-13 01:59,100.36,KLAS 130256Z 12013G26KT 4SM BLDU FEW150 SCT220 41/06 A2984 RMK AO2 PK WND 14030/0159 SLP069 T04060061 53018 $,M
NFL,2024-07-13 02:56,-118.7010,39.4166,1199.00,92.00,38.00,15.12,230.00,7.00,0.00,30.02,1013.50,10.00,M,BKN,BKN,BKN,M,8000.00,12000.00,25000.00,M,M,M,M,M,29.00,240.00,2024-07-13 02:06,87.78,KNFL 130256Z 23007KT 10SM BKN080 BKN120 BKN250 33/03 A3002 RMK PK WND 24029/0206 SLP135 CB DSNT E T03330033 53009,M
05U,2024-07-13 03:10,-116.0051,39.6042,1811.23,86.00,28.40,12.44,300.00,9.00,0.00,30.24,M,10.00,M,M,M,M,M,M,M,M,M,M,M,M,M,M,M,M,82.54,K05U 130310Z AUTO 30009KT 10SM 30/M02 A3024 RMK A01,M
BVU,2024-07-13 03:15,-114.8611,35.9475,671.00,102.20,35.60,10.07,130.00,13.00,0.00,29.84,M,10.00,20.00,FEW,SCT,SCT,M,3300.00,4000.00,5000.00,M,M,M,M,M,M,M,M,96.30,KBVU 130315Z AUTO 13013G20KT 10SM FEW033 SCT040 SCT050 39/02 A2984 RMK AO2,M
CXP,2024-07-13 03:15,-119.7326,39.1923,1431.00,82.40,39.20,21.51,0.00,0.00,0.00,30.15,M,10.00,M,CLR,M,M,M,M,M,M,M,M,M,M,M,M,M,M,80.21,KCXP 130315Z AUTO 00000KT 10SM CLR 28/04 A3015 RMK AO2,M
RTS,2024-07-13 03:15,-119.8764,39.6682,1539.00,78.80,50.00,36.51,0.00,0.00,0.00,30.18,M,10.00,M,CLR,M,M,M,M,M,M,M,M,M,M,M,M,M,M,78.80,KRTS 130315Z AUTO 00000KT 10SM CLR 26/10 A3018 RMK AO2,M
MEV,2024-07-13 03:15,-119.7500,38.9963,1441.42,77.00,46.40,33.85,90.00,5.00,0.00,30.13,M,10.00,M,CLR,M,M,M,M,M,M,M,M,M,M,M,M,M,M,77.00,KMEV 130315Z AUTO 09005KT 10SM CLR 25/08 A3013 RMK AO2,M
HTH,2024-07-13 03:15,-118.6315,38.5448,1282.89,89.60,33.80,13.80,310.00,7.00,0.00,30.05,M,10.00,15.00,CLR,M,M,M,M,M,M,M,M,M,M,M,M,M,M,85.59,KHTH 130315Z AUTO 31007G15KT 10SM CLR 32/01 A3005 RMK A01,M
TMT,2024-07-13 03:15,-117.1971,39.4643,1749.34,84.20,31.60,15.01,340.00,7.00,0.00,30.18,M,10.00,M,CLR,M,M,M,M,M,M,M,M,M,M,M,M,M,M,81.27,KTMT 130315Z AUTO 34007KT 10SM CLR 29/00 A3018 RMK AO2 T02901002,M
INS,2024-07-13 03:20,-115.6733,36.5872,955.00,100.40,39.20,12.25,120.00,18.00,0.00,29.89,1005.40,8.00,25.00,BKN,M,M,M,1200.00,M,M,M,M,M,M,M,M,M,M,95.43,KINS 130320Z AUTO 12018G25KT 8SM BKN012 38/04 A2989 RMK AO2 SLP054 $,M
INS,2024-07-13 03:25,-115.6733,36.5872,955.00,100.40,39.20,12.25,130.00,18.00,0.00,29.89,1005.40,8.00,25.00,BKN,M,M,M,1600.00,M,M,M,M,M,M,M,M,M,M,95.43,KINS 130325Z AUTO 13018G25KT 8SM BKN016 38/04 A2989 RMK AO2 SLP054 $,M
LAS,2024-07-13 03:25,-115.1634,36.0719,663.00,104.00,43.00,12.74,150.00,6.00,0.00,29.85,M,6.00,16.00,FEW,SCT,M,M,15000.00,22000.00,M,M,BLDU,M,M,M,M,M,M,99.47,KLAS 130325Z 15006G16KT 6SM BLDU FEW150 SCT220 40/06 A2985 RMK AO2 T04000061 $,M
BVU,2024-07-13 03:35,-114.8611,35.9475,671.00,102.20,35.60,10.07,150.00,12.00,0.00,29.84,M,10.00,M,FEW,BKN,BKN,M,2900.00,3400.00,4300.00,M,M,M,M,M,M,M,M,96.30,KBVU 130335Z AUTO 15012KT 10SM FEW029 BKN034 BKN043 39/02 A2984 RMK AO2,M
CXP,2024-07-13 03:35,-119.7326,39.1923,1431.00,84.20,39.20,20.29,30.00,5.00,0.00,30.14,M,10.00,M,CLR,M,M,M,M,M,M,M,M,M,M,M,M,M,M,81.44,KCXP 130335Z AUTO 03005KT 10SM CLR 29/04 A3014 RMK AO2,M
RTS,2024-07-13 03:35,-119.8764,39.6682,1539.00,77.00,51.80,41.42,310.00,7.00,0.00,30.18,M,10.00,M,CLR,M,M,M,M,M,M,M,M,M,M,M,M,M,M,77.00,KRTS 130335Z AUTO 31007KT 10SM CLR 25/11 A3018 RMK AO2,M
05U,2024-07-13 03:35,-116.0051,39.6042,1811.23,82.40,30.20,15.03,0.00,0.00,0.00,30.24,M,10.00,M,M,M,M,M,M,M,M,M,M,M,M,M,M,M,M,79.97,K05U 130335Z AUTO 00000KT 10SM 28/M01 A3024 RMK A01,M
MEV,2024-07-13 03:35,-119.7500,38.9963,1441.42,77.00,44.60,31.62,0.00,0.00,0.00,30.13,M,10.00,M,CLR,M,M,M,M,M,M,M,M,M,M,M,M,M,M,77.00,KMEV 130335Z AUTO 00000KT 10SM CLR 25/07 A3013 RMK AO2,M
HTH,2024-07-13 03:35,-118.6315,38.5448,1282.89,89.60,33.80,13.80,300.00,5.00,0.00,30.06,M,10.00,M,CLR,M,M,M,M,M,M,M,M,M,M,M,M,M,M,85.59,KHTH 130335Z AUTO 30005KT 10SM CLR 32/01 A3006 RMK A01,M
TMT,2024-07-13 03:35,-117.1971,39.4643,1749.34,85.00,30.60,14.05,360.00,7.00,0.00,30.18,M,10.00,M,CLR,M,M,M,M,M,M,M,M,M,M,M,M,M,M,81.86,KTMT 130335Z AUTO 36007KT 10SM CLR 29/M01 A3018 RMK AO2 T02941008,M
05U,2024-07-13 03:50,-116.0051,39.6042,1811.23,78.80,30.20,16.90,0.00,0.00,0.00,30.24,M,10.00,M,M,M,M,M,M,M,M,M,M,M,M,M,M,M,M,78.80,K05U 130350Z AUTO 00000KT 10SM 26/M01 A3024 RMK A01,M
P68,2024-07-13 03:53,-116.0056,39.6014,1993.00,81.00,28.00,14.38,160.00,8.00,0.00,30.22,1012.50,M,M,M,M,M,M,M,M,M,M,M,M,M,M,M,M,M,78.98,KP68 130353Z AUTO 16008KT 27/M02 A3022 RMK AO1 SLP125 T02721022,M
DRA,2024-07-13 03:53,-116.0278,36.6206,1009.00,99.00,26.00,7.52,110.00,5.00,0.00,29.90,1006.10,10.00,M,CLR,M,M,M,M,M,M,M,M,M,M,M,M,M,M,92.34,KDRA 130353Z AUTO 11005KT 10SM CLR 37/M03 A2990 RMK AO2 SLP061 T03721033,M
ELY,2024-07-13 03:53,-114.8453,39.2950,1909.00,77.00,33.00,20.09,190.00,6.00,0.00,30.23,1011.50,10.00,M,CLR,M,M,M,M,M,M,M,M,M,M,M,M,M,M,77.00,KELY 130353Z AUTO 19006KT 10SM CLR 25/01 A3023 RMK AO2 SLP115 T02500006,M
VGT,2024-07-13 03:53,-115.1933,36.2111,667.00,104.00,44.00,13.24,200.00,6.00,0.00,29.87,1009.30,10.00,M,BKN,M,M,M,5000.00,M,M,M,M,M,M,M,26.00,140.00,2024-07-13 03:06,99.70,KVGT 130353Z AUTO 20006KT 10SM BKN050 40/07 A2987 RMK AO2 PK WND 14026/0306 SLP093 T04000067,M
LOL,2024-07-13 03:53,-118.5701,40.0684,1192.43,93.00,32.00,11.55,290.00,15.00,0.00,30.01,1010.70,10.00,23.00,CLR,M,M,M,M,M,M,M,M,M,M,M,34.00,280.00,2024-07-13 03:01,88.15,KLOL 130353Z AUTO 29015G23KT 10SM CLR 34/00 A3001 RMK AO2 PK WND 28034/0301 SLP107 T03390000,M
BVU,2024-07-13 03:55,-114.8611,35.9475,671.00,102.20,37.40,10.81,180.00,8.00,0.00,29.85,M,10.00,13.00,FEW,SCT,BKN,M,3100.00,3600.00,4700.00,M,M,M,M,M,M,M,M,96.63,KBVU 130355Z AUTO 18008G13KT 10SM FEW031 SCT036 BKN047 39/03 A2985 RMK AO2,M
CXP,2024-07-13 03:55,-119.7326,39.1923,1431.00,82.40,41.00,23.07,0.00,0.00,0.00,30.14,M,10.00,M,CLR,M,M,M,M,M,M,M,M,M,M,M,M,M,M,80.29,KCXP 130355Z AUTO 00000KT 10SM CLR 28/05 A3014 RMK AO2,M
INS,2024-07-13 03:55,-115.6733,36.5872,955.00,100.60,41.00,13.06,130.00,22.00,0.00,29.90,1005.70,6.00,26.00,OVC,M,M,M,1900.00,M,M,M,HZ,M,M,M,32.00,90.00,2024-07-13 03:08,95.98,KINS 130355Z AUTO 13022G26KT 6SM HZ OVC019 38/05 A2990 RMK AO2 PK WND 09032/08 SLP057 T03810049 $,M
RNO,2024-07-13 03:55,-119.7711,39.4839,1341.00,90.00,40.00,17.41,260.00,18.00,0.00,30.07,1011.30,10.00,29.00,BKN,BKN,M,M,10000.00,17000.00,M,M,M,M,M,M,29.00,270.00,2024-07-13 03:54,86.11,KRNO 130355Z 26018G29KT 10SM BKN100 BKN170 32/04 A3007 RMK AO2 PK WND 27029/0354 SLP113 T03220044,M
RTS,2024-07-13 03:55,-119.8764,39.6682,1539.00,77.00,48.20,36.22,320.00,9.00,0.00,30.17,M,10.00,M,CLR,M,M,M,M,M,M,M,M,M,M,M,M,M,M,77.00,KRTS 130355Z AUTO 32009KT 10SM CLR 25/09 A3017 RMK AO2,M
MEV,2024-07-13 03:55,-119.7500,38.9963,1441.42,75.20,46.40,35.94,40.00,5.00,0.00,30.12,M,10.00,M,CLR,M,M,M,M,M,M,M,M,M,M,M,M,M,M,75.20,KMEV 130355Z AUTO 04005KT 10SM CLR 24/08 A3012 RMK AO2,M
HTH,2024-07-13 03:55,-118.6315,38.5448,1282.89,89.60,37.40,15.92,40.00,10.00,0.00,30.07,M,10.00,M,CLR,M,M,M,M,M,M,M,M,M,M,M,M,M,M,85.67,KHTH 130355Z AUTO 04010KT 10SM CLR 32/03 A3007 RMK A01,M
TMT,2024-07-13 03:55,-117.1971,39.4643,1749.34,82.20,31.00,15.63,20.00,7.00,0.00,30.19,M,10.00,M,CLR,M,M,M,M,M,M,M,M,M,M,M,M,M,M,79.84,KTMT 130355Z AUTO 02007KT 10SM CLR 28/M01 A3019 RMK AO2 T02791006,M
LSV,2024-07-13 03:55,-115.0343,36.2362,570.00,105.30,35.00,8.97,160.00,6.00,0.00,29.79,1005.20,10.00,M,CLR,M,M,M,M,M,M,M,M,M,M,M,30.00,160.00,2024-07-13 02:59,98.88,KLSV 130355Z AUTO 16006KT 10SM CLR 41/02 A2979 RMK AO2 PK WND 16030/0259 SLP052 T04070016 $,M
LAS,2024-07-13 03:56,-115.1634,36.0719,663.00,104.00,42.00,12.26,M,4.00,0.00,29.86,1007.70,10.00,M,FEW,SCT,M,M,15000.00,22000.00,M,M,M,M,M,M,M,M,M,99.21,KLAS 130356Z VRB04KT 10SM FEW150 SCT220 40/06 A2986 RMK AO2 SLP077 VC BLDU T04000056 $,M
EKO,2024-07-13 03:56,-115.7860,40.8242,1367.00,94.00,26.00,8.76,330.00,14.00,0.00,30.11,1012.20,10.00,20.00,CLR,M,M,M,M,M,M,M,M,M,M,M,26.00,350.00,2024-07-13 03:35,88.27,KEKO 130356Z AUTO 33014G20KT 10SM CLR 34/M03 A3011 RMK AO2 PK WND 35026/0335 SLP122 T03441033,M
WMC,2024-07-13 03:56,-117.8072,40.9019,1315.00,87.00,28.00,11.85,0.00,0.00,0.00,30.04,1010.80,10.00,M,CLR,M,M,M,M,M,M,M,M,M,M,M,M,M,M,83.22,KWMC 130356Z AUTO 00000KT 10SM CLR 31/M02 A3004 RMK AO2 SLP108 T03061022,M
NFL,2024-07-13 03:56,-118.7010,39.4166,1199.00,90.00,37.00,15.48,290.00,6.00,0.00,30.03,1013.90,10.00,M,BKN,OVC,M,M,8000.00,12000.00,M,M,M,M,M,M,M,M,M,86.00,KNFL 130356Z 29006KT 10SM BKN080 OVC120 32/03 A3003 RMK AO2 SLP139 CB DSNT E T03220028,M
HND,2024-07-13 03:56,-115.1344,35.9729,742.79,101.00,46.00,15.62,150.00,14.00,0.00,29.89,1009.60,10.00,23.00,CLR,M,M,M,M,M,M,M,M,M,M,M,28.00,130.00,2024-07-13 03:25,97.16,KHND 130356Z AUTO 15014G23KT 10SM CLR 38/08 A2989 RMK AO2 PK WND 13028/0325 SLP096 T03830078,M
TPH,2024-07-13 03:56,-117.0904,38.0505,1654.00,93.00,25.00,8.67,M,M,0.00,30.12,1008.60,10.00,M,CLR,M,M,M,M,M,M,M,M,M,M,M,M,M,M,87.43,KTPH 130356Z AUTO 10SM CLR 34/M04 A3012 RMK AO2 SLP086 T03391039,M
05U,2024-07-13 04:10,-116.0051,39.6042,1811.23,80.60,28.40,14.81,0.00,0.00,0.00,30.25,M,10.00,M,M,M,M,M,M,M,M,M,M,M,M,M,M,M,M,78.72,K05U 130410Z AUTO 00000KT 10SM 27/M02 A3025 RMK A01,M
BVU,2024-07-13 04:15,-114.8611,35.9475,671.00,100.40,39.20,12.25,220.00,8.00,0.00,29.85,M,10.00,13.00,FEW,FEW,FEW,M,3000.00,3600.00,5000.00,M,M,M,M,M,M,M,M,95.43,KBVU 130415Z AUTO 22008G13KT 10SM FEW030 FEW036 FEW050 38/04 A2985 RMK AO2,M
CXP,2024-07-13 04:15,-119.7326,39.1923,1431.00,82.40,39.20,21.51,M,3.00,0.00,30.15,M,10.00,M,CLR,M,M,M,M,M,M,M,M,M,M,M,M,M,M,80.21,KCXP 130415Z AUTO VRB03KT 10SM CLR 28/04 A3015 RMK AO2,M
RTS,2024-07-13 04:15,-119.8764,39.6682,1539.00,78.80,44.60,29.79,M,4.00,0.00,30.18,M,10.00,10.00,CLR,M,M,M,M,M,M,M,M,M,M,M,M,M,M,78.80,KRTS 130415Z AUTO VRB04G10KT 10SM CLR 26/07 A3018 RMK AO2,M
MEV,2024-07-13 04:15,-119.7500,38.9963,1441.42,71.60,46.40,40.57,190.00,5.00,0.00,30.14,M,10.00,M,CLR,M,M,M,M,M,M,M,M,M,M,M,M,M,M,71.60,KMEV 130415Z AUTO 19005KT 10SM CLR 22/08 A3014 RMK AO2,M
HTH,2024-07-13 04:15,-118.6315,38.5448,1282.89,89.60,35.60,14.83,40.00,5.00,0.00,30.08,M,10.00,M,CLR,M,M,M,M,M,M,M,M,M,M,M,M,M,M,85.62,KHTH 130415Z AUTO 04005KT 10SM CLR 32/02 A3008 RMK A01,M
TMT,2024-07-13 04:15,-117.1971,39.4643,1749.34,83.00,31.00,15.23,80.00,5.00,0.00,30.21,M,10.00,M,SCT,M,M,M,12000.00,M,M,M,M,M,M,M,M,M,M,80.40,KTMT 130415Z AUTO 08005KT 10SM SCT120 28/M01 A3021 RMK AO2 T02831006,M
BVU,2024-07-13 04:35,-114.8611,35.9475,671.00,100.40,39.20,12.25,230.00,9.00,0.00,29.85,M,10.00,M,CLR,M,M,M,M,M,M,M,M,M,M,M,M,M,M,95.43,KBVU 130435Z AUTO 23009KT 10SM CLR 38/04 A2985 RMK AO2,M
CXP,2024-07-13 04:35,-119.7326,39.1923,1431.00,82.40,39.20,21.51,0.00,0.00,0.00,30.14,M,10.00,M,CLR,M,M,M,M,M,M,M,M,M,M,M,M,M,M,80.21,KCXP 130435Z AUTO 00000KT 10SM CLR 28/04 A3014 RMK AO2,M
RTS,2024-07-13 04:35,-119.8764,39.6682,1539.00,78.80,42.80,27.81,320.00,8.00,0.00,30.18,M,10.00,M,CLR,M,M,M,M,M,M,M,M,M,M,M,M,M,M,78.80,KRTS 130435Z AUTO 32008KT 10SM CLR 26/06 A3018 RMK AO2,M
05U,2024-07-13 04:35,-116.0051,39.6042,1811.23,78.80,28.40,15.71,0.00,0.00,0.00,30.25,M,10.00,M,M,M,M,M,M,M,M,M,M,M,M,M,M,M,M,78.80,K05U 130435Z AUTO 00000KT 10SM 26/M02 A3025 RMK A01,M
MEV,2024-07-13 04:35,-119.7500,38.9963,1441.42,69.80,46.40,43.13,0.00,0.00,0.00,30.14,M,10.00,M,CLR,M,M,M,M,M,M,M,M,M,M,M,M,M,M,69.80,KMEV 130435Z AUTO 00000KT 10SM CLR 21/08 A3014 RMK AO2,M
HTH,2024-07-13 04:35,-118.6315,38.5448,1282.89,89.60,35.60,14.83,0.00,0.00,0.00,30.09,M,10.00,12.00,CLR,M,M,M,M,M,M,M,M,M,M,M,M,M,M,85.62,KHTH 130435Z AUTO 00000G12KT 10SM CLR 32/02 A3009 RMK A01,M
TMT,2024-07-13 04:35,-117.1971,39.4643,1749.34,83.50,31.50,15.29,90.00,4.00,0.00,30.22,M,10.00,M,CLR,M,M,M,M,M,M,M,M,M,M,M,M,M,M,80.76,KTMT 130435Z AUTO 09004KT 10SM CLR 29/00 A3022 RMK AO2 T02861003,M
LAS,2024-07-13 04:36,-115.1634,36.0719,663.00,103.00,43.00,13.12,230.00,7.00,0.00,29.90,M,10.00,17.00,FEW,SCT,M,M,15000.00,22000.00,M,M,M,M,M,M,M,M,M,98.56,KLAS 130436Z 23007G17KT 10SM FEW150 SCT220 39/06 A2990 RMK AO2 VC BLDU T03940061 $,M
RTS,2024-07-13 04:50,-119.8764,39.6682,1539.00,78.80,41.00,25.95,310.00,8.00,0.00,30.17,M,10.00,M,CLR,M,M,M,M,M,M,M,M,M,M,M,M,M,M,78.80,KRTS 130450Z AUTO 31008KT 10SM CLR 26/05 A3017 RMK AO2,M
HTH,2024-07-13 04:50,-118.6315,38.5448,1282.89,87.80,35.60,15.70,110.00,7.00,0.00,30.09,M,10.00,M,CLR,M,M,M,M,M,M,M,M,M,M,M,M,M,M,84.12,KHTH 130450Z AUTO 11007KT 10SM CLR 31/02 A3009 RMK A01,M
05U,2024-07-13 04:50,-116.0051,39.6042,1811.23,80.60,28.40,14.81,0.00,0.00,0.00,30.26,M,10.00,M,M,M,M,M,M,M,M,M,M,M,M,M,M,M,M,78.72,K05U 130450Z AUTO 00000KT 10SM 27/M02 A3026 RMK A01,M
CXP,2024-07-13 04:50,-119.7326,39.1923,1431.00,80.60,39.20,22.81,230.00,3.00,0.00,30.15,M,10.00,M,CLR,M,M,M,M,M,M,M,M,M,M,M,M,M,M,79.10,KCXP 130450Z AUTO 23003KT 10SM CLR 27/04 A3015 RMK AO2,M
MEV,2024-07-13 04:50,-119.7500,38.9963,1441.42,68.00,50.00,52.51,130.00,3.00,0.00,30.14,M,10.00,M,FEW,M,M,M,5000.00,M,M,M,M,M,M,M,M,M,M,68.00,KMEV 130450Z AUTO 13003KT 10SM FEW050 20/10 A3014 RMK AO2,M
P68,2024-07-13 04:53,-116.0056,39.6014,1993.00,83.00,29.00,14.04,M,4.00,0.00,30.23,1012.60,M,M,M,M,M,M,M,M,M,M,M,M,M,M,M,M,M,80.37,KP68 130453Z AUTO VRB04KT 28/M02 A3023 RMK AO1 SLP126 T02831017,M
DRA,2024-07-13 04:53,-116.0278,36.6206,1009.00,98.00,36.00,11.62,M,3.00,0.00,29.93,1006.70,10.00,M,CLR,M,M,M,M,M,M,M,M,M,M,M,M,M,M,92.79,KDRA 130453Z AUTO VRB03KT 10SM CLR 37/02 A2993 RMK AO2 SLP067 T03670022,M
ELY,2024-07-13 04:53,-114.8453,39.2950,1909.00,76.00,30.00,18.40,0.00,0.00,0.00,30.26,1011.90,10.00,M,CLR,M,M,M,M,M,M,M,M,M,M,M,M,M,M,76.00,KELY 130453Z AUTO 00000KT 10SM CLR 24/M01 A3026 RMK AO2 SLP119 T02441011,M
VGT,2024-07-13 04:53,-115.1933,36.2111,667.00,103.00,44.00,13.64,210.00,10.00,0.00,29.88,1009.60,10.00,M,CLR,M,M,M,M,M,M,M,M,M,M,M,M,M,M,98.74,KVGT 130453Z AUTO 21010KT 10SM CLR 39/07 A2988 RMK AO2 SLP096 T03940067,M
LOL,2024-07-13 04:53,-118.5701,40.0684,1192.43,92.00,32.00,11.91,300.00,13.00,0.00,30.02,1010.90,10.00,M,CLR,M,M,M,M,M,M,M,M,M,M,M,M,M,M,87.38,KLOL 130453Z AUTO 30013KT 10SM CLR 33/00 A3002 RMK AO2 SLP109 T03330000,M
BVU,2024-07-13 04:55,-114.8611,35.9475,671.00,100.40,39.20,12.25,200.00,5.00,0.00,29.89,M,10.00,M,CLR,M,M,M,M,M,M,M,M,M,M,M,M,M,M,95.43,KBVU 130455Z AUTO 20005KT 10SM CLR 38/04 A2989 RMK AO2,M
INS,2024-07-13 04:55,-115.6733,36.5872,955.00,98.40,39.00,12.91,110.00,13.00,0.00,29.92,1006.40,6.00,M,OVC,M,M,M,1600.00,M,M,M,HZ,M,M,M,30.00,110.00,2024-07-13 03:57,93.68,KINS 130455Z AUTO 11013KT 6SM HZ OVC016 37/04 A2992 RMK AO2 PK WND 11030/0357 SLP064 T03690039 $,M
RNO,2024-07-13 04:55,-119.7711,39.4839,1341.00,90.00,38.00,16.10,320.00,7.00,0.00,30.11,1012.40,10.00,M,SCT,BKN,M,M,10000.00,18000.00,M,M,M,M,M,M,M,M,M,86.03,KRNO 130455Z 32007KT 10SM SCT100 BKN180 32/03 A3011 RMK AO2 SLP124 T03220033,M
TMT,2024-07-13 04:55,-117.1971,39.4643,1749.34,84.20,31.50,14.95,340.00,7.00,0.00,30.22,M,10.00,M,CLR,M,M,M,M,M,M,M,M,M,M,M,M,M,M,81.27,KTMT 130455Z AUTO 34007KT 10SM CLR 29/00 A3022 RMK AO2 T02901003,M
LSV,2024-07-13 04:55,-115.0343,36.2362,570.00,104.40,34.00,8.85,280.00,9.00,0.00,29.81,1005.80,10.00,M,SCT,M,M,M,20000.00,M,M,M,M,M,M,M,M,M,M,97.93,KLSV 130455Z AUTO 28009KT 10SM SCT200 40/01 A2981 RMK AO2 SLP058 T04020012 $,M
EKO,2024-07-13 04:56,-115.7860,40.8242,1367.00,91.00,29.00,10.88,200.00,5.00,0.00,30.15,1013.30,10.00,M,CLR,M,M,M,M,M,M,M,M,M,M,M,29.00,350.00,2024-07-13 04:02,86.28,KEKO 130456Z AUTO 20005KT 10SM CLR 33/M02 A3015 RMK AO2 PK WND 35029/0402 SLP133 T03281017,M
WMC,2024-07-13 04:56,-117.8072,40.9019,1315.00,82.00,26.00,12.81,0.00,0.00,0.00,30.06,1011.50,10.00,M,CLR,M,M,M,M,M,M,M,M,M,M,M,M,M,M,79.61,KWMC 130456Z AUTO 00000KT 10SM CLR 28/M03 A3006 RMK AO2 SLP115 T02781033,M
HND,2024-07-13 04:56,-115.1344,35.9729,742.79,99.00,46.00,16.60,210.00,11.00,0.00,29.92,1010.70,10.00,M,CLR,M,M,M,M,M,M,M,M,M,M,M,M,M,M,95.17,KHND 130456Z AUTO 21011KT 10SM CLR 37/08 A2992 RMK AO2 SLP107 T03720078,M
TPH,2024-07-13 04:56,-117.0904,38.0505,1654.00,89.00,31.00,12.57,310.00,13.00,0.00,30.14,1009.40,10.00,26.00,FEW,M,M,M,12000.00,M,M,M,M,M,M,M,33.00,350.00,2024-07-13 04:42,84.98,KTPH 130456Z AUTO 31013G26KT 10SM FEW120 32/M01 A3014 RMK AO2 PK WND 35033/0442 SLP094 T03171006,M
LAS,2024-07-13 04:56,-115.1634,36.0719,663.00,103.00,43.00,13.12,220.00,7.00,0.00,29.89,1008.40,10.00,14.00,FEW,SCT,M,M,15000.00,22000.00,M,M,M,M,M,M,M,M,M,98.56,KLAS 130456Z 22007G14KT 10SM FEW150 SCT220 39/06 A2989 RMK AO2 SLP084 T03940061 $,M
NFL,2024-07-13 04:56,-118.7010,39.4166,1199.00,83.00,37.00,19.35,M,5.00,0.00,30.05,1014.40,10.00,M,BKN,OVC,M,M,8000.00,12000.00,M,M,M,M,M,M,M,M,M,80.53,KNFL 130456Z VRB05KT 10SM BKN080 OVC120 28/03 A3005 RMK AO2 SLP144 T02830028,M
BVU,2024-07-13 05:15,-114.8611,35.9475,671.00,98.60,41.00,13.87,230.00,9.00,0.00,29.87,M,10.00,M,CLR,M,M,M,M,M,M,M,M,M,M,M,M,M,M,94.09,KBVU 130515Z AUTO 23009KT 10SM CLR 37/05 A2987 RMK AO2,M
CXP,2024-07-13 05:15,-119.7326,39.1923,1431.00,80.60,39.20,22.81,0.00,0.00,0.00,30.16,M,10.00,M,CLR,M,M,M,M,M,M,M,M,M,M,M,M,M,M,79.10,KCXP 130515Z AUTO 00000KT 10SM CLR 27/04 A3016 RMK AO2,M
RTS,2024-07-13 05:15,-119.8764,39.6682,1539.00,78.80,42.80,27.81,340.00,4.00,0.00,30.18,M,10.00,M,CLR,M,M,M,M,M,M,M,M,M,M,M,M,M,M,78.80,KRTS 130515Z AUTO 34004KT 10SM CLR 26/06 A3018 RMK AO2,M
05U,2024-07-13 05:15,-116.0051,39.6042,1811.23,84.20,28.40,13.18,230.00,9.00,0.00,30.26,M,10.00,21.00,M,M,M,M,M,M,M,M,M,M,M,M,M,M,M,81.25,K05U 130515Z AUTO 23009G21KT 170V300 10SM 29/M02 A3026 RMK A01,M
MEV,2024-07-13 05:15,-119.7500,38.9963,1441.42,66.20,48.20,52.25,100.00,6.00,0.00,30.15,M,10.00,M,CLR,M,M,M,M,M,M,M,M,M,M,M,M,M,M,66.20,KMEV 130515Z AUTO 10006KT 10SM CLR 19/09 A3015 RMK AO2,M
HTH,2024-07-13 05:15,-118.6315,38.5448,1282.89,86.00,35.60,16.63,170.00,8.00,0.00,30.10,M,10.00,M,CLR,M,M,M,M,M,M,M,M,M,M,M,M,M,M,82.69,KHTH 130515Z AUTO 17008KT 10SM CLR 30/02 A3010 RMK A01,M
TMT,2024-07-13 05:15,-117.1971,39.4643,1749.34,82.20,31.30,15.82,0.00,0.00,0.00,30.23,M,10.00,M,SCT,M,M,M,12000.00,M,M,M,M,M,M,M,M,M,M,79.85,KTMT 130515Z AUTO 00000KT 10SM SCT120 28/00 A3023 RMK AO2 T02791004,M
INS,2024-07-13 05:30,-115.6733,36.5872,955.00,98.60,39.20,12.94,120.00,13.00,0.00,29.93,1006.70,7.00,M,OVC,M,M,M,1300.00,M,M,M,M,M,M,M,M,M,M,93.89,KINS 130530Z AUTO 12013KT 7SM OVC013 37/04 A2993 RMK AO2 SLP067 $,M
05U,2024-07-13 05:30,-116.0051,39.6042,1811.23,84.20,30.20,14.18,170.00,4.00,0.00,30.24,M,10.00,12.00,M,M,M,M,M,M,M,M,M,M,M,M,M,M,M,81.26,K05U 130530Z AUTO 17004G12KT 10SM 29/M01 A3024 RMK A01,M
BVU,2024-07-13 05:35,-114.8611,35.9475,671.00,98.60,41.00,13.87,250.00,9.00,0.00,29.88,M,10.00,M,CLR,M,M,M,M,M,M,M,M,M,M,M,M,M,M,94.09,KBVU 130535Z AUTO 25009KT 10SM CLR 37/05 A2988 RMK AO2,M
CXP,2024-07-13 05:35,-119.7326,39.1923,1431.00,77.00,39.20,25.67,350.00,3.00,0.00,30.16,M,10.00,M,CLR,M,M,M,M,M,M,M,M,M,M,M,M,M,M,77.00,KCXP 130535Z AUTO 35003KT 10SM CLR 25/04 A3016 RMK AO2,M
RTS,2024-07-13 05:35,-119.8764,39.6682,1539.00,77.00,41.00,27.53,290.00,5.00,0.00,30.17,M,10.00,10.00,FEW,FEW,M,M,8500.00,11000.00,M,M,M,M,M,M,M,M,M,77.00,KRTS 130535Z AUTO 29005G10KT 10SM FEW085 FEW110 25/05 A3017 RMK AO2,M
MEV,2024-07-13 05:35,-119.7500,38.9963,1441.42,66.20,44.60,45.60,130.00,7.00,0.00,30.15,M,10.00,M,FEW,M,M,M,5000.00,M,M,M,M,M,M,M,M,M,M,66.20,KMEV 130535Z AUTO 13007KT 10SM FEW050 19/07 A3015 RMK AO2,M
HTH,2024-07-13 05:35,-118.6315,38.5448,1282.89,84.20,33.80,16.39,160.00,6.00,0.00,30.10,M,10.00,M,CLR,M,M,M,M,M,M,M,M,M,M,M,M,M,M,81.30,KHTH 130535Z AUTO 16006KT 10SM CLR 29/01 A3010 RMK A01,M
TMT,2024-07-13 05:35,-117.1971,39.4643,1749.34,80.00,31.50,17.13,50.00,3.00,0.00,30.24,M,10.00,M,SCT,M,M,M,12000.00,M,M,M,M,M,M,M,M,M,M,78.51,KTMT 130535Z AUTO 05003KT 10SM SCT120 27/00 A3024 RMK AO2 T02671003,M
05U,2024-07-13 05:50,-116.0051,39.6042,1811.23,80.60,28.40,14.81,0.00,0.00,0.00,30.25,M,10.00,M,M,M,M,M,M,M,M,M,M,M,M,M,M,M,M,78.72,K05U 130550Z AUTO 00000KT 10SM 27/M02 A3025 RMK A01,M
P68,2024-07-13 05:53,-116.0056,39.6014,1993.00,84.00,29.00,13.59,M,3.00,0.00,30.22,1012.10,M,M,M,M,M,M,M,M,M,M,M,M,M,M,29.00,140.00,2024-07-13 05:12,81.10,KP68 130553Z AUTO VRB03KT 29/M02 A3022 RMK AO1 PK WND 14029/0512 SLP121 T02891017 10344 20250 50005,M
DRA,2024-07-13 05:53,-116.0278,36.6206,1009.00,98.00,37.00,12.08,0.00,0.00,0.00,29.93,1006.90,10.00,M,FEW,M,M,M,3500.00,M,M,M,M,M,M,M,M,M,M,92.97,KDRA 130553Z AUTO 00000KT 10SM FEW035 37/03 A2993 RMK AO2 SLP069 T03670028 10439 20361 51017,M
ELY,2024-07-13 05:53,-114.8453,39.2950,1909.00,78.00,30.00,17.22,M,3.00,0.00,30.27,1011.40,10.00,M,CLR,M,M,M,M,M,M,M,M,M,M,M,M,M,M,78.00,KELY 130553Z AUTO VRB03KT 10SM CLR 26/M01 A3027 RMK AO2 SLP114 T02561011 10339 20239 51012,M
VGT,2024-07-13 05:53,-115.1933,36.2111,667.00,102.00,45.00,14.60,170.00,3.00,0.00,29.87,1009.50,10.00,M,CLR,M,M,M,M,M,M,M,M,M,M,M,M,M,M,97.95,KVGT 130553Z AUTO 17003KT 10SM CLR 39/07 A2987 RMK AO2 SLP095 T03890072 10461 20389 50013,M
LOL,2024-07-13 05:53,-118.5701,40.0684,1192.43,89.00,34.00,14.18,60.00,3.00,0.00,30.03,1011.30,10.00,M,CLR,M,M,M,M,M,M,M,M,M,M,M,M,M,M,85.09,KLOL 130553Z AUTO 06003KT 10SM CLR 32/01 A3003 RMK AO2 SLP113 T03170011 10400 20289 51016,M
BVU,2024-07-13 05:55,-114.8611,35.9475,671.00,98.60,41.00,13.87,230.00,6.00,0.00,29.88,M,10.00,M,CLR,M,M,M,M,M,M,M,M,M,M,M,M,M,M,94.09,KBVU 130555Z AUTO 23006KT 10SM CLR 37/05 A2988 RMK AO2,M
CXP,2024-07-13 05:55,-119.7326,39.1923,1431.00,77.00,39.20,25.67,0.00,0.00,0.00,30.16,M,10.00,M,CLR,M,M,M,M,M,M,M,M,M,M,M,M,M,M,77.00,KCXP 130555Z AUTO 00000KT 10SM CLR 25/04 A3016 RMK AO2,M
INS,2024-07-13 05:55,-115.6733,36.5872,955.00,96.00,39.00,13.90,100.00,11.00,0.00,29.93,1006.70,9.00,M,SCT,OVC,M,M,1300.00,18000.00,M,M,M,M,M,M,M,M,M,91.48,KINS 130555Z AUTO 10011KT 9SM SCT013 OVC180 36/04 A2993 RMK AO2 SLP067 T03550039 10435 20355 51016 $,M
RNO,2024-07-13 05:55,-119.7711,39.4839,1341.00,88.00,41.00,19.28,270.00,5.00,0.00,30.11,1012.30,10.00,M,SCT,BKN,M,M,10000.00,18000.00,M,M,M,M,M,M,M,M,M,84.46,KRNO 130555Z 27005KT 10SM SCT100 BKN180 31/05 A3011 RMK AO2 SLP123 60000 T03110050 10383 20306 55004,M
RTS,2024-07-13 05:55,-119.8764,39.6682,1539.00,80.60,39.20,22.81,250.00,8.00,0.00,30.17,M,10.00,M,CLR,M,M,M,M,M,M,M,M,M,M,M,M,M,M,79.10,KRTS 130555Z AUTO 25008KT 10SM CLR 27/04 A3017 RMK AO2,M
MEV,2024-07-13 05:55,-119.7500,38.9963,1441.42,68.00,41.00,37.32,160.00,4.00,0.00,30.16,M,10.00,M,FEW,FEW,M,M,5500.00,12000.00,M,M,M,M,M,M,M,M,M,68.00,KMEV 130555Z AUTO 16004KT 10SM FEW055 FEW120 20/05 A3016 RMK AO2,M
HTH,2024-07-13 05:55,-118.6315,38.5448,1282.89,84.20,32.00,15.25,180.00,7.00,0.00,30.10,M,10.00,M,CLR,M,M,M,M,M,M,M,M,M,M,M,M,M,M,81.28,KHTH 130555Z AUTO 18007KT 10SM CLR 29/M00 A3010 RMK A01,M
TMT,2024-07-13 05:55,-117.1971,39.4643,1749.34,78.30,31.60,18.19,0.00,0.00,0.00,30.24,M,10.00,M,CLR,M,M,M,M,M,M,M,M,M,M,M,M,M,M,78.30,KTMT 130555Z AUTO 00000KT 10SM CLR 26/00 A3024 RMK AO2 T02571002 10360 20249,M
LSV,2024-07-13 05:55,-115.0343,36.2362,570.00,102.70,38.00,10.91,200.00,5.00,0.00,29.82,1006.20,10.00,M,FEW,M,M,M,20000.00,M,M,M,M,M,M,M,M,M,M,97.18,KLSV 130555Z AUTO 20005KT 10SM FEW200 39/03 A2982 RMK AO2 SLP062 T03930034 10451 20391 52018 $,M
EKO,2024-07-13 05:56,-115.7860,40.8242,1367.00,85.00,31.00,14.28,310.00,4.00,0.00,30.15,1013.00,10.00,M,CLR,M,M,M,M,M,M,M,M,M,M,M,M,M,M,81.87,KEKO 130556Z AUTO 31004KT 10SM CLR 29/M01 A3015 RMK AO2 SLP130 T02941006 10383 20294 50017,M
WMC,2024-07-13 05:56,-117.8072,40.9019,1315.00,80.00,28.00,14.85,0.00,0.00,0.00,30.08,1011.90,10.00,M,CLR,M,M,M,M,M,M,M,M,M,M,M,M,M,M,78.40,KWMC 130556Z AUTO 00000KT 10SM CLR 27/M02 A3008 RMK AO2 SLP119 T02671022 10406 20250 53016,M
NFL,2024-07-13 05:56,-118.7010,39.4166,1199.00,81.00,36.00,19.85,M,5.00,0.00,30.05,1014.60,10.00,M,BKN,OVC,M,M,8000.00,12000.00,M,M,M,M,M,M,M,M,M,79.20,KNFL 130556Z VRB05KT 10SM BKN080 OVC120 27/02 A3005 RMK AO2 SLP146 T02720022 10394 20272 51011,M
HND,2024-07-13 05:56,-115.1344,35.9729,742.79,98.00,48.00,18.45,160.00,8.00,0.00,29.92,1010.70,10.00,M,CLR,M,M,M,M,M,M,M,M,M,M,M,M,M,M,94.53,KHND 130556Z AUTO 16008KT 10SM CLR 37/09 A2992 RMK AO2 SLP107 T03670089 10450 20367 50016,M
TPH,2024-07-13 05:56,-117.0904,38.0505,1654.00,89.00,31.00,12.57,30.00,10.00,T,30.20,1011.10,10.00,M,FEW,FEW,SCT,M,6500.00,8000.00,12000.00,M,M,M,M,M,40.00,60.00,2024-07-13 05:40,84.98,KTPH 130556Z AUTO 03010KT 10SM FEW065 FEW080 SCT120 32/M01 A3020 RMK AO2 PK WND 06040/0540 RAB42E52 SLP111 P0000 60000 T03171006 10367 20317 53025,M
LAS,2024-07-13 05:56,-115.1634,36.0719,663.00,101.00,45.00,15.04,140.00,4.00,0.00,29.89,1008.40,10.00,M,FEW,BKN,M,M,15000.00,22000.00,M,M,M,M,M,M,M,M,M,96.97,KLAS 130556Z 14004KT 10SM FEW150 BKN220 38/07 A2989 RMK AO2 SLP084 T03830072 10461 20383 50015 $,M
05U,2024-07-13 06:10,-116.0051,39.6042,1811.23,80.60,28.40,14.81,0.00,0.00,0.00,30.25,M,10.00,M,M,M,M,M,M,M,M,M,M,M,M,M,M,M,M,78.72,K05U 130610Z AUTO 00000KT 10SM 27/M02 A3025 RMK A01,M
BVU,2024-07-13 06:15,-114.8611,35.9475,671.00,96.80,41.00,14.66,240.00,4.00,0.00,29.87,M,10.00,M,CLR,M,M,M,M,M,M,M,M,M,M,M,M,M,M,92.39,KBVU 130615Z AUTO 24004KT 10SM CLR 36/05 A2987 RMK AO2,M
CXP,2024-07-13 06:15,-119.7326,39.1923,1431.00,78.80,41.00,25.95,0.00,0.00,0.00,30.16,M,10.00,M,CLR,M,M,M,M,M,M,M,M,M,M,M,M,M,M,78.80,KCXP 130615Z AUTO 00000KT 10SM CLR 26/05 A3016 RMK AO2,M
RTS,2024-07-13 06:15,-119.8764,39.6682,1539.00,80.60,39.20,22.81,240.00,9.00,0.00,30.17,M,10.00,14.00,CLR,M,M,M,M,M,M,M,M,M,M,M,M,M,M,79.10,KRTS 130615Z AUTO 24009G14KT 10SM CLR 27/04 A3017 RMK AO2,M
MEV,2024-07-13 06:15,-119.7500,38.9963,1441.42,69.80,39.20,32.72,190.00,3.00,0.00,30.16,M,10.00,M,FEW,FEW,M,M,5500.00,11000.00,M,M,M,M,M,M,M,M,M,69.80,KMEV 130615Z AUTO 19003KT 10SM FEW055 FEW110 21/04 A3016 RMK AO2,M
HTH,2024-07-13 06:15,-118.6315,38.5448,1282.89,86.00,30.20,13.38,180.00,7.00,0.00,30.10,M,10.00,M,CLR,M,M,M,M,M,M,M,M,M,M,M,M,M,M,82.64,KHTH 130615Z AUTO 18007KT 10SM CLR 30/M01 A3010 RMK A01,M
TMT,2024-07-13 06:15,-117.1971,39.4643,1749.34,73.60,31.00,20.76,90.00,4.00,0.00,30.24,M,10.00,M,CLR,M,M,M,M,M,M,M,M,M,M,M,M,M,M,73.60,KTMT 130615Z AUTO 09004KT 10SM CLR 23/M01 A3024 RMK AO2 T02311006,M
05U,2024-07-13 06:30,-116.0051,39.6042,1811.23,78.80,28.40,15.71,0.00,0.00,0.00,30.25,M,10.00,M,M,M,M,M,M,M,M,M,M,M,M,M,M,M,M,78.80,K05U 130630Z AUTO 00000KT 10SM 26/M02 A3025 RMK A01,M
BVU,2024-07-13 06:35,-114.8611,35.9475,671.00,96.80,41.00,14.66,0.00,0.00,0.00,29.88,M,10.00,M,CLR,M,M,M,M,M,M,M,M,M,M,M,M,M,M,92.39,KBVU 130635Z AUTO 00000KT 10SM CLR 36/05 A2988 RMK AO2,M
CXP,2024-07-13 06:35,-119.7326,39.1923,1431.00,78.80,39.20,24.19,330.00,4.00,0.00,30.17,M,10.00,M,CLR,M,M,M,M,M,M,M,M,M,M,M,M,M,M,78.80,KCXP 130635Z AUTO 33004KT 10SM CLR 26/04 A3017 RMK AO2,M
RTS,2024-07-13 06:35,-119.8764,39.6682,1539.00,80.60,39.20,22.81,270.00,7.00,0.00,30.17,M,10.00,M,CLR,M,M,M,M,M,M,M,M,M,M,M,M,M,M,79.10,KRTS 130635Z AUTO 27007KT 10SM CLR 27/04 A3017 RMK AO2,M
MEV,2024-07-13 06:35,-119.7500,38.9963,1441.42,69.80,42.80,37.61,260.00,4.00,0.00,30.15,M,10.00,M,CLR,M,M,M,M,M,M,M,M,M,M,M,M,M,M,69.80,KMEV 130635Z AUTO 26004KT 10SM CLR 21/06 A3015 RMK AO2,M
HTH,2024-07-13 06:35,-118.6315,38.5448,1282.89,82.40,32.00,16.17,280.00,4.00,0.00,30.10,M,10.00,M,CLR,M,M,M,M,M,M,M,M,M,M,M,M,M,M,80.00,KHTH 130635Z AUTO 28004KT 10SM CLR 28/M00 A3010 RMK A01,M
TMT,2024-07-13 06:35,-117.1971,39.4643,1749.34,73.00,31.00,21.18,50.00,6.00,0.00,30.24,M,10.00,M,CLR,M,M,M,M,M,M,M,M,M,M,M,M,M,M,73.00,KTMT 130635Z AUTO 05006KT 10SM CLR 23/00 A3024 RMK AO2 T02271005,M
05U,2024-07-13 06:50,-116.0051,39.6042,1811.23,77.00,28.40,16.67,0.00,0.00,0.00,30.25,M,10.00,M,M,M,M,M,M,M,M,M,M,M,M,M,M,M,M,77.00,K05U 130650Z AUTO 00000KT 10SM 25/M02 A3025 RMK A01,M
P68,2024-07-13 06:53,-116.0056,39.6014,1993.00,77.00,29.00,17.08,10.00,3.00,0.00,30.22,1012.40,M,M,M,M,M,M,M,M,M,M,M,M,M,M,M,M,M,77.00,KP68 130653Z AUTO 01003KT 25/M02 A3022 RMK AO1 SLP124 T02501017,M
DRA,2024-07-13 06:53,-116.0278,36.6206,1009.00,94.00,36.00,13.13,330.00,4.00,0.00,29.95,1007.60,10.00,M,CLR,M,M,M,M,M,M,M,M,M,M,M,M,M,M,89.49,KDRA 130653Z AUTO 33004KT 10SM CLR 34/02 A2995 RMK AO2 SLP076 T03440022,M
ELY,2024-07-13 06:53,-114.8453,39.2950,1909.00,69.00,31.00,24.27,190.00,5.00,0.00,30.27,1012.60,10.00,M,CLR,M,M,M,M,M,M,M,M,M,M,M,M,M,M,69.00,KELY 130653Z AUTO 19005KT 10SM CLR 21/M01 A3027 RMK AO2 SLP126 T02061006,M
VGT,2024-07-13 06:53,-115.1933,36.2111,667.00,101.00,46.00,15.62,210.00,3.00,0.00,29.87,1009.60,10.00,M,CLR,M,M,M,M,M,M,M,M,M,M,M,M,M,M,97.16,KVGT 130653Z AUTO 21003KT 10SM CLR 38/08 A2987 RMK AO2 SLP096 T03830078,M
LOL,2024-07-13 06:53,-118.5701,40.0684,1192.43,80.00,38.00,22.19,180.00,6.00,0.00,30.05,1012.00,10.00,M,CLR,M,M,M,M,M,M,M,M,M,M,M,M,M,M,78.74,KLOL 130653Z AUTO 18006KT 10SM CLR 27/03 A3005 RMK AO2 SLP120 T02670033,M
BVU,2024-07-13 06:55,-114.8611,35.9475,671.00,91.40,50.00,24.37,70.00,3.00,0.00,29.88,M,10.00,M,CLR,M,M,M,M,M,M,M,M,M,M,M,M,M,M,88.36,KBVU 130655Z AUTO 07003KT 10SM CLR 33/10 A2988 RMK AO2,M
CXP,2024-07-13 06:55,-119.7326,39.1923,1431.00,78.80,41.00,25.95,0.00,0.00,0.00,30.17,M,10.00,M,FEW,M,M,M,12000.00,M,M,M,M,M,M,M,M,M,M,78.80,KCXP 130655Z AUTO 00000KT 10SM FEW120 26/05 A3017 RMK AO2,M
INS,2024-07-13 06:55,-115.6733,36.5872,955.00,96.80,37.80,12.94,100.00,11.00,0.00,29.94,1007.00,10.00,17.00,FEW,BKN,BKN,M,1100.00,14000.00,17000.00,M,M,M,M,M,M,M,M,92.11,KINS 130655Z AUTO 10011G17KT 10SM FEW011 BKN140 BKN170 36/03 A2994 RMK AO2 SLP070 T03600032 $,M
RNO,2024-07-13 06:55,-119.7711,39.4839,1341.00,84.00,40.00,21.07,160.00,9.00,0.00,30.12,1012.50,10.00,M,FEW,BKN,M,M,10000.00,18000.00,M,M,M,M,M,M,M,M,M,81.33,KRNO 130655Z 16009KT 10SM FEW100 BKN180 29/04 A3012 RMK AO2 SLP125 T02890044,M
LSV,2024-07-13 06:55,-115.0343,36.2362,570.00,98.60,37.20,11.96,90.00,7.00,0.00,29.82,1006.30,10.00,M,BKN,M,M,M,20000.00,M,M,M,M,M,M,M,M,M,M,93.51,KLSV 130655Z AUTO 09007KT 10SM BKN200 37/03 A2982 RMK AO2 SLP063 T03700029 $,M
RTS,2024-07-13 06:55,-119.8764,39.6682,1539.00,77.00,39.20,25.67,0.00,0.00,0.00,30.17,M,10.00,M,CLR,M,M,M,M,M,M,M,M,M,M,M,M,M,M,77.00,KRTS 130655Z AUTO 00000KT 10SM CLR 25/04 A3017 RMK AO2,M
MEV,2024-07-13 06:55,-119.7500,38.9963,1441.42,69.80,42.80,37.61,0.00,0.00,0.00,30.16,M,10.00,M,CLR,M,M,M,M,M,M,M,M,M,M,M,M,M,M,69.80,KMEV 130655Z AUTO 00000KT 10SM CLR 21/06 A3016 RMK AO2,M
HTH,2024-07-13 06:55,-118.6315,38.5448,1282.89,80.60,30.20,15.94,150.00,4.00,0.00,30.11,M,10.00,M,CLR,M,M,M,M,M,M,M,M,M,M,M,M,M,M,78.77,KHTH 130655Z AUTO 15004KT 10SM CLR 27/M01 A3011 RMK A01,M
TMT,2024-07-13 06:55,-117.1971,39.4643,1749.34,67.60,31.00,25.47,210.00,7.00,0.00,30.24,M,10.00,M,CLR,M,M,M,M,M,M,M,M,M,M,M,M,M,M,67.60,KTMT 130655Z AUTO 21007KT 10SM CLR 20/00 A3024 RMK AO2 T01981005,M
EKO,2024-07-13 06:56,-115.7860,40.8242,1367.00,85.00,32.00,14.86,30.00,5.00,0.00,30.14,1012.50,10.00,M,CLR,M,M,M,M,M,M,M,M,M,M,M,M,M,M,81.87,KEKO 130656Z AUTO 03005KT 10SM CLR 29/00 A3014 RMK AO2 SLP125 T02940000,M
WMC,2024-07-13 06:56,-117.8072,40.9019,1315.00,77.00,31.00,18.53,150.00,6.00,0.00,30.09,1012.40,10.00,M,CLR,M,M,M,M,M,M,M,M,M,M,M,M,M,M,77.00,KWMC 130656Z AUTO 15006KT 10SM CLR 25/M01 A3009 RMK AO2 SLP124 T02501006,M
HND,2024-07-13 06:56,-115.1344,35.9729,742.79,95.00,48.00,20.22,240.00,6.00,0.00,29.93,1010.90,10.00,M,CLR,M,M,M,M,M,M,M,M,M,M,M,M,M,M,91.53,KHND 130656Z AUTO 24006KT 10SM CLR 35/09 A2993 RMK AO2 SLP109 T03500089 404500322,M
TPH,2024-07-13 06:56,-117.0904,38.0505,1654.00,85.00,32.00,14.86,10.00,13.00,0.00,30.18,1010.40,10.00,M,CLR,M,M,M,M,M,M,M,M,M,M,M,43.00,360.00,2024-07-13 06:11,81.87,KTPH 130656Z AUTO 01013KT 10SM CLR 29/00 A3018 RMK AO2 PK WND 36043/0611 SLP104 T02940000,M
LAS,2024-07-13 06:56,-115.1634,36.0719,663.00,100.00,46.00,16.10,M,3.00,0.00,29.89,1008.50,10.00,M,SCT,BKN,M,M,15000.00,22000.00,M,M,M,M,M,M,M,M,M,96.16,KLAS 130656Z VRB03KT 10SM SCT150 BKN220 38/08 A2989 RMK AO2 SLP085 T03780078 $,M
05U,2024-07-13 07:05,-116.0051,39.6042,1811.23,75.20,28.40,17.70,0.00,0.00,0.00,30.25,M,10.00,M,M,M,M,M,M,M,M,M,M,M,M,M,M,M,M,75.20,K05U 130705Z AUTO 00000KT 10SM 24/M02 A3025 RMK A01,M
BVU,2024-07-13 07:15,-114.8611,35.9475,671.00,91.40,46.40,21.29,60.00,7.00,0.00,29.88,M,10.00,M,CLR,M,M,M,M,M,M,M,M,M,M,M,M,M,M,87.86,KBVU 130715Z AUTO 06007KT 10SM CLR 33/08 A2988 RMK AO2,M
CXP,2024-07-13 07:15,-119.7326,39.1923,1431.00,75.20,41.00,29.23,0.00,0.00,0.00,30.17,M,10.00,M,CLR,M,M,M,M,M,M,M,M,M,M,M,M,M,M,75.20,KCXP 130715Z AUTO 00000KT 10SM CLR 24/05 A3017 RMK AO2,M
RTS,2024-07-13 07:15,-119.8764,39.6682,1539.00,77.00,39.20,25.67,0.00,0.00,0.00,30.17,M,10.00,M,CLR,M,M,M,M,M,M,M,M,M,M,M,M,M,M,77.00,KRTS 130715Z AUTO 00000KT 10SM CLR 25/04 A3017 RMK AO2,M
MEV,2024-07-13 07:15,-119.7500,38.9963,1441.42,68.00,44.60,42.85,60.00,3.00,0.00,30.15,M,10.00,M,FEW,M,M,M,5500.00,M,M,M,M,M,M,M,M,M,M,68.00,KMEV 130715Z AUTO 06003KT 10SM FEW055 20/07 A3015 RMK AO2,M
HTH,2024-07-13 07:15,-118.6315,38.5448,1282.89,80.60,32.00,17.14,240.00,4.00,0.00,30.11,M,10.00,M,CLR,M,M,M,M,M,M,M,M,M,M,M,M,M,M,78.82,KHTH 130715Z AUTO 24004KT 10SM CLR 27/M00 A3011 RMK A01,M
TMT,2024-07-13 07:15,-117.1971,39.4643,1749.34,71.00,34.30,25.88,220.00,6.00,0.00,30.24,M,10.00,M,CLR,M,M,M,M,M,M,M,M,M,M,M,M,M,M,71.00,KTMT 130715Z AUTO 22006KT 10SM CLR 22/01 A3024 RMK AO2 T02160013,M
05U,2024-07-13 07:20,-116.0051,39.6042,1811.23,75.20,28.40,17.70,0.00,0.00,0.00,30.25,M,10.00,M,M,M,M,M,M,M,M,M,M,M,M,M,M,M,M,75.20,K05U 130720Z AUTO 00000KT 10SM 24/M02 A3025 RMK A01,M
BVU,2024-07-13 07:35,-114.8611,35.9475,671.00,91.40,46.40,21.29,50.00,6.00,0.00,29.87,M,10.00,M,CLR,M,M,M,M,M,M,M,M,M,M,M,M,M,M,87.86,KBVU 130735Z AUTO 05006KT 10SM CLR 33/08 A2987 RMK AO2,M
CXP,2024-07-13 07:35,-119.7326,39.1923,1431.00,75.20,42.80,31.34,0.00,0.00,0.00,30.17,M,10.00,M,CLR,M,M,M,M,M,M,M,M,M,M,M,M,M,M,75.20,KCXP 130735Z AUTO 00000KT 10SM CLR 24/06 A3017 RMK AO2,M
RTS,2024-07-13 07:35,-119.8764,39.6682,1539.00,78.80,37.40,22.54,350.00,3.00,0.00,30.18,M,10.00,M,CLR,M,M,M,M,M,M,M,M,M,M,M,M,M,M,78.80,KRTS 130735Z AUTO 35003KT 10SM CLR 26/03 A3018 RMK AO2,M
MEV,2024-07-13 07:35,-119.7500,38.9963,1441.42,64.40,42.80,45.32,110.00,5.00,0.00,30.15,M,10.00,M,CLR,M,M,M,M,M,M,M,M,M,M,M,M,M,M,64.40,KMEV 130735Z AUTO 11005KT 10SM CLR 18/06 A3015 RMK AO2,M
HTH,2024-07-13 07:35,-118.6315,38.5448,1282.89,80.60,32.00,17.14,260.00,5.00,0.00,30.10,M,7.00,M,CLR,M,M,M,M,M,M,M,M,M,M,M,M,M,M,78.82,KHTH 130735Z AUTO 26005KT 7SM CLR 27/00 A3010 RMK A01,M
TMT,2024-07-13 07:35,-117.1971,39.4643,1749.34,68.40,36.00,30.27,240.00,4.00,0.00,30.24,M,10.00,M,CLR,M,M,M,M,M,M,M,M,M,M,M,M,M,M,68.40,KTMT 130735Z AUTO 24004KT 10SM CLR 20/02 A3024 RMK AO2 T02020023,M
05U,2024-07-13 07:50,-116.0051,39.6042,1811.23,69.80,28.40,21.24,70.00,7.00,0.00,30.25,M,10.00,M,M,M,M,M,M,M,M,M,M,M,M,M,M,M,M,69.80,K05U 130750Z AUTO 07007KT 10SM 21/M02 A3025 RMK A01,M
P68,2024-07-13 07:53,-116.0056,39.6014,1993.00,71.00,30.00,21.77,M,6.00,0.00,30.23,1012.90,M,M,M,M,M,M,M,M,M,M,M,M,M,M,M,M,M,71.00,KP68 130753Z AUTO VRB06KT 22/M01 A3023 RMK AO1 SLP129 T02171011 403780128,M
DRA,2024-07-13 07:53,-116.0278,36.6206,1009.00,95.00,39.00,14.33,100.00,3.00,0.00,29.97,1007.90,10.00,M,CLR,M,M,M,M,M,M,M,M,M,M,M,M,M,M,90.55,KDRA 130753Z AUTO 10003KT 10SM CLR 35/04 A2997 RMK AO2 SLP079 T03500039 404440244,M
ELY,2024-07-13 07:53,-114.8453,39.2950,1909.00,75.00,31.00,19.81,210.00,10.00,0.00,30.28,1012.80,10.00,18.00,CLR,M,M,M,M,M,M,M,M,M,M,M,M,M,M,75.00,KELY 130753Z AUTO 21010G18KT 10SM CLR 24/M01 A3028 RMK AO2 SLP128 T02391006 403610133,M
VGT,2024-07-13 07:53,-115.1933,36.2111,667.00,99.00,47.00,17.23,110.00,6.00,0.00,29.88,1009.90,10.00,M,CLR,M,M,M,M,M,M,M,M,M,M,M,M,M,M,95.35,KVGT 130753Z AUTO 11006KT 10SM CLR 37/08 A2988 RMK AO2 SLP099 T03720083 404610322,M
LOL,2024-07-13 07:53,-118.5701,40.0684,1192.43,81.00,37.00,20.65,300.00,5.00,0.00,30.04,1011.50,10.00,M,CLR,M,M,M,M,M,M,M,M,M,M,M,M,M,M,79.24,KLOL 130753Z AUTO 30005KT 10SM CLR 27/03 A3004 RMK AO2 SLP115 T02720028 404060133,M
BVU,2024-07-13 07:55,-114.8611,35.9475,671.00,93.20,44.60,18.80,70.00,7.00,0.00,29.88,M,10.00,M,CLR,M,M,M,M,M,M,M,M,M,M,M,M,M,M,89.34,KBVU 130755Z AUTO 07007KT 10SM CLR 34/07 A2988 RMK AO2,M
CXP,2024-07-13 07:55,-119.7326,39.1923,1431.00,71.60,42.80,35.37,220.00,3.00,0.00,30.16,M,9.00,M,CLR,M,M,M,M,M,M,M,M,M,M,M,M,M,M,71.60,KCXP 130755Z AUTO 22003KT 9SM CLR 22/06 A3016 RMK AO2,M
INS,2024-07-13 07:55,-115.6733,36.5872,955.00,95.00,40.00,14.90,80.00,10.00,0.00,29.96,1007.70,10.00,M,SCT,M,M,M,19000.00,M,M,M,M,M,M,M,M,M,M,90.62,KINS 130755Z AUTO 08010KT 10SM SCT190 35/04 A2996 RMK AO2 SLP077 T03490044 404380269 $,M
RNO,2024-07-13 07:55,-119.7711,39.4839,1341.00,84.00,42.00,22.77,M,3.00,0.00,30.11,1011.90,10.00,M,SCT,M,M,M,15000.00,M,M,M,M,M,M,M,M,M,M,81.42,KRNO 130755Z VRB03KT 10SM SCT150 29/06 A3011 RMK AO2 SLP119 T02890056 404060211,M
LSV,2024-07-13 07:55,-115.0343,36.2362,570.00,98.20,39.00,12.99,40.00,9.00,0.00,29.83,1006.50,10.00,M,BKN,M,M,M,18000.00,M,M,M,M,M,M,M,M,M,M,93.52,KLSV 130755Z AUTO 04009KT 10SM BKN180 37/04 A2983 RMK AO2 SLP065 T03680038 404510322 $,M
RTS,2024-07-13 07:55,-119.8764,39.6682,1539.00,77.00,41.00,27.53,340.00,3.00,0.00,30.18,M,10.00,M,CLR,M,M,M,M,M,M,M,M,M,M,M,M,M,M,77.00,KRTS 130755Z AUTO 34003KT 10SM CLR 25/05 A3018 RMK AO2,M
MEV,2024-07-13 07:55,-119.7500,38.9963,1441.42,66.20,39.20,37.03,0.00,0.00,0.00,30.15,M,10.00,M,FEW,M,M,M,5000.00,M,M,M,M,M,M,M,M,M,M,66.20,KMEV 130755Z AUTO 00000KT 10SM FEW050 19/04 A3015 RMK AO2,M
HTH,2024-07-13 07:55,-118.6315,38.5448,1282.89,80.60,33.80,18.42,0.00,0.00,0.00,30.10,M,10.00,M,CLR,M,M,M,M,M,M,M,M,M,M,M,M,M,M,78.88,KHTH 130755Z AUTO 00000KT 10SM CLR 27/01 A3010 RMK A01,M
TMT,2024-07-13 07:55,-117.1971,39.4643,1749.34,66.60,37.20,33.77,200.00,4.00,0.00,30.22,M,10.00,M,CLR,M,M,M,M,M,M,M,M,M,M,M,M,M,M,66.60,KTMT 130755Z AUTO 20004KT 10SM CLR 19/03 A3022 RMK AO2 T01920029 403620065,M
EKO,2024-07-13 07:56,-115.7860,40.8242,1367.00,75.00,39.00,27.23,0.00,0.00,0.00,30.14,1012.90,10.00,M,CLR,M,M,M,M,M,M,M,M,M,M,M,M,M,M,75.00,KEKO 130756Z AUTO 00000KT 10SM CLR 24/04 A3014 RMK AO2 SLP129 T02390039 403940139,M
WMC,2024-07-13 07:56,-117.8072,40.9019,1315.00,71.00,30.00,21.77,190.00,3.00,0.00,30.09,1012.60,10.00,M,CLR,M,M,M,M,M,M,M,M,M,M,M,M,M,M,71.00,KWMC 130756Z AUTO 19003KT 10SM CLR 22/M01 A3009 RMK AO2 SLP126 T02171011 404110122,M
HND,2024-07-13 07:56,-115.1344,35.9729,742.79,93.00,49.00,22.34,0.00,0.00,0.00,29.93,1011.00,10.00,M,CLR,M,M,M,M,M,M,M,M,M,M,M,M,M,M,89.73,KHND 130756Z AUTO 00000KT 10SM CLR 34/09 A2993 RMK AO2 SLP110 T03390094,M
TPH,2024-07-13 07:56,-117.0904,38.0505,1654.00,79.00,32.00,18.06,20.00,8.00,0.00,30.17,1010.70,10.00,M,CLR,M,M,M,M,M,M,M,M,M,M,M,M,M,M,79.00,KTPH 130756Z AUTO 02008KT 10SM CLR 26/00 A3017 RMK AO2 SLP107 T02610000 404000206,M
LAS,2024-07-13 07:56,-115.1634,36.0719,663.00,99.00,48.00,17.90,0.00,0.00,0.00,29.89,1008.60,10.00,M,FEW,SCT,M,M,15000.00,22000.00,M,M,M,M,M,M,M,M,M,95.54,KLAS 130756Z 00000KT 10SM FEW150 SCT220 37/09 A2989 RMK AO2 SLP086 T03720089 404610344 $,M
BVU,2024-07-13 08:15,-114.8611,35.9475,671.00,93.20,44.60,18.80,80.00,7.00,0.00,29.88,M,10.00,M,CLR,M,M,M,M,M,M,M,M,M,M,M,M,M,M,89.34,KBVU 130815Z AUTO 08007KT 10SM CLR 34/07 A2988 RMK AO2,M
CXP,2024-07-13 08:15,-119.7326,39.1923,1431.00,73.40,42.80,33.29,360.00,3.00,0.00,30.16,M,10.00,M,CLR,M,M,M,M,M,M,M,M,M,M,M,M,M,M,73.40,KCXP 130815Z AUTO 36003KT 10SM CLR 23/06 A3016 RMK AO2,M
RTS,2024-07-13 08:15,-119.8764,39.6682,1539.00,77.00,41.00,27.53,40.00,4.00,0.00,30.18,M,10.00,M,CLR,M,M,M,M,M,M,M,M,M,M,M,M,M,M,77.00,KRTS 130815Z AUTO 04004KT 10SM CLR 25/05 A3018 RMK AO2,M
05U,2024-07-13 08:15,-116.0051,39.6042,1811.23,71.60,28.40,19.98,0.00,0.00,0.00,30.25,M,10.00,M,M,M,M,M,M,M,M,M,M,M,M,M,M,M,M,71.60,K05U 130815Z AUTO 00000KT 10SM 22/M02 A3025 RMK A01,M
MEV,2024-07-13 08:15,-119.7500,38.9963,1441.42,62.60,39.20,42.00,180.00,3.00,0.00,30.15,M,10.00,M,FEW,FEW,SCT,M,4100.00,5000.00,5500.00,M,M,M,M,M,M,M,M,62.60,KMEV 130815Z AUTO 18003KT 10SM FEW041 FEW050 SCT055 17/04 A3015 RMK AO2,M
HTH,2024-07-13 08:15,-118.6315,38.5448,1282.89,78.80,33.80,19.55,160.00,4.00,0.00,30.10,M,10.00,M,CLR,M,M,M,M,M,M,M,M,M,M,M,M,M,M,78.80,KHTH 130815Z AUTO 16004KT 10SM CLR 26/01 A3010 RMK A01,M
TMT,2024-07-13 08:15,-117.1971,39.4643,1749.34,63.50,35.20,34.76,0.00,0.00,0.00,30.22,M,10.00,M,CLR,M,M,M,M,M,M,M,M,M,M,M,M,M,M,63.50,KTMT 130815Z AUTO 00000KT 10SM CLR 18/02 A3022 RMK AO2 T01750018,M
05U,2024-07-13 08:30,-116.0051,39.6042,1811.23,69.80,28.40,21.24,0.00,0.00,0.00,30.25,M,10.00,M,M,M,M,M,M,M,M,M,M,M,M,M,M,M,M,69.80,K05U 130830Z AUTO 00000KT 10SM 21/M02 A3025 RMK A01,M
BVU,2024-07-13 08:35,-114.8611,35.9475,671.00,91.40,46.40,21.29,70.00,6.00,0.00,29.88,M,10.00,M,CLR,M,M,M,M,M,M,M,M,M,M,M,M,M,M,87.86,KBVU 130835Z AUTO 07006KT 10SM CLR 33/08 A2988 RMK AO2,M
CXP,2024-07-13 08:35,-119.7326,39.1923,1431.00,73.40,42.80,33.29,0.00,0.00,0.00,30.17,M,10.00,M,CLR,M,M,M,M,M,M,M,M,M,M,M,M,M,M,73.40,KCXP 130835Z AUTO 00000KT 10SM CLR 23/06 A3017 RMK AO2,M
RTS,2024-07-13 08:35,-119.8764,39.6682,1539.00,75.20,39.20,27.26,320.00,10.00,0.00,30.16,M,10.00,M,CLR,M,M,M,M,M,M,M,M,M,M,M,M,M,M,75.20,KRTS 130835Z AUTO 32010KT 10SM CLR 24/04 A3016 RMK AO2,M
MEV,2024-07-13 08:35,-119.7500,38.9963,1441.42,64.40,37.40,36.74,90.00,5.00,0.00,30.15,M,10.00,M,FEW,FEW,M,M,4500.00,5000.00,M,M,M,M,M,M,M,M,M,64.40,KMEV 130835Z AUTO 09005KT 10SM FEW045 FEW050 18/03 A3015 RMK AO2,M
HTH,2024-07-13 08:35,-118.6315,38.5448,1282.89,M,M,M,M,M,0.00,M,M,M,M,M,M,M,M,M,M,M,M,M,M,M,M,M,M,M,M,KHTH 130835Z AUTO RMK A01,M
TMT,2024-07-13 08:35,-117.1971,39.4643,1749.34,64.60,32.70,30.27,0.00,0.00,0.00,30.22,M,10.00,M,CLR,M,M,M,M,M,M,M,M,M,M,M,M,M,M,64.60,KTMT 130835Z AUTO 00000KT 10SM CLR 18/00 A3022 RMK AO2 T01810004,M
P68,2024-07-13 08:53,-116.0056,39.6014,1993.00,69.00,29.00,22.37,150.00,3.00,0.00,30.22,1012.80,M,M,M,M,M,M,M,M,M,M,M,M,M,M,M,M,M,69.00,KP68 130853Z AUTO 15003KT 21/M02 A3022 RMK AO1 SLP128 T02061017 50001,M
DRA,2024-07-13 08:53,-116.0278,36.6206,1009.00,92.00,43.00,18.36,120.00,10.00,0.00,29.97,1008.00,10.00,M,CLR,M,M,M,M,M,M,M,M,M,M,M,M,M,M,88.08,KDRA 130853Z AUTO 12010KT 10SM CLR 33/06 A2997 RMK AO2 SLP080 T03330061 51010,M
ELY,2024-07-13 08:53,-114.8453,39.2950,1909.00,71.00,34.00,25.58,210.00,9.00,0.00,30.28,1012.50,10.00,M,CLR,M,M,M,M,M,M,M,M,M,M,M,M,M,M,71.00,KELY 130853Z AUTO 21009KT 10SM CLR 22/01 A3028 RMK AO2 SLP125 T02170011 50004,M
VGT,2024-07-13 08:53,-115.1933,36.2111,667.00,97.00,47.00,18.32,160.00,3.00,0.00,29.89,1010.10,10.00,M,CLR,M,M,M,M,M,M,M,M,M,M,M,M,M,M,93.35,KVGT 130853Z AUTO 16003KT 10SM CLR 36/08 A2989 RMK AO2 SLP101 T03610083 53005,M
LOL,2024-07-13 08:53,-118.5701,40.0684,1192.43,78.00,35.00,21.05,330.00,6.00,0.00,30.04,1011.60,10.00,M,CLR,M,M,M,M,M,M,M,M,M,M,M,M,M,M,78.00,KLOL 130853Z AUTO 33006KT 10SM CLR 26/02 A3004 RMK AO2 SLP116 T02560017 51002,M
BVU,2024-07-13 08:55,-114.8611,35.9475,671.00,89.60,48.20,24.11,60.00,6.00,0.00,29.88,M,10.00,M,CLR,M,M,M,M,M,M,M,M,M,M,M,M,M,M,86.44,KBVU 130855Z AUTO 06006KT 10SM CLR 32/09 A2988 RMK AO2,M
CXP,2024-07-13 08:55,-119.7326,39.1923,1431.00,71.60,44.60,37.89,0.00,0.00,0.00,30.17,M,10.00,M,CLR,M,M,M,M,M,M,M,M,M,M,M,M,M,M,71.60,KCXP 130855Z AUTO 00000KT 10SM CLR 22/07 A3017 RMK AO2,M
INS,2024-07-13 08:55,-115.6733,36.5872,955.00,95.70,40.60,14.92,120.00,9.00,0.00,29.96,1007.60,10.00,M,FEW,BKN,M,M,15000.00,21000.00,M,M,M,M,M,M,M,M,M,91.32,KINS 130855Z AUTO 12009KT 10SM FEW150 BKN210 35/05 A2996 RMK AO2 SLP076 T03540048 50009 $,M
RNO,2024-07-13 08:55,-119.7711,39.4839,1341.00,82.00,39.00,21.62,130.00,5.00,0.00,30.11,1012.00,10.00,M,BKN,M,M,M,15000.00,M,M,M,M,M,M,M,M,M,M,79.94,KRNO 130855Z 13005KT 10SM BKN150 28/04 A3011 RMK AO2 SLP120 T02780039 58001,M
LSV,2024-07-13 08:55,-115.0343,36.2362,570.00,97.50,38.30,12.91,0.00,0.00,0.00,29.83,1006.50,10.00,M,CLR,M,M,M,M,M,M,M,M,M,M,M,M,M,M,92.79,KLSV 130855Z AUTO 00000KT 10SM CLR 36/04 A2983 RMK AO2 SLP065 T03640035 53001 $,M
RTS,2024-07-13 08:55,-119.8764,39.6682,1539.00,75.20,39.20,27.26,340.00,6.00,0.00,30.17,M,10.00,M,CLR,M,M,M,M,M,M,M,M,M,M,M,M,M,M,75.20,KRTS 130855Z AUTO 34006KT 10SM CLR 24/04 A3017 RMK AO2,M
05U,2024-07-13 08:55,-116.0051,39.6042,1811.23,68.00,28.40,22.59,0.00,0.00,0.00,30.25,M,10.00,M,M,M,M,M,M,M,M,M,M,M,M,M,M,M,M,68.00,K05U 130855Z AUTO 00000KT 10SM 20/M02 A3025 RMK A01,M
MEV,2024-07-13 08:55,-119.7500,38.9963,1441.42,64.40,44.60,48.55,0.00,0.00,0.00,30.16,M,10.00,M,FEW,M,M,M,5000.00,M,M,M,M,M,M,M,M,M,M,64.40,KMEV 130855Z AUTO 00000KT 10SM FEW050 18/07 A3016 RMK AO2,M
HTH,2024-07-13 08:55,-118.6315,38.5448,1282.89,77.00,32.00,19.30,140.00,8.00,0.00,30.10,M,10.00,M,M,M,M,M,M,M,M,M,M,M,M,M,M,M,M,77.00,KHTH 130855Z AUTO 14008KT 10SM 25/00 A3010 RMK A01,M
TMT,2024-07-13 08:55,-117.1971,39.4643,1749.34,66.00,32.00,28.03,230.00,4.00,0.00,30.22,M,10.00,M,CLR,M,M,M,M,M,M,M,M,M,M,M,M,M,M,66.00,KTMT 130855Z AUTO 23004KT 10SM CLR 19/00 A3022 RMK AO2 T01880001,M
EKO,2024-07-13 08:56,-115.7860,40.8242,1367.00,79.00,33.00,18.80,60.00,5.00,0.00,30.14,1012.80,10.00,M,CLR,M,M,M,M,M,M,M,M,M,M,M,M,M,M,79.00,KEKO 130856Z AUTO 06005KT 10SM CLR 26/01 A3014 RMK AO2 SLP128 T02610006 55002,M
WMC,2024-07-13 08:56,-117.8072,40.9019,1315.00,66.00,29.00,24.81,0.00,0.00,0.00,30.09,1012.70,10.00,M,CLR,M,M,M,M,M,M,M,M,M,M,M,M,M,M,66.00,KWMC 130856Z AUTO 00000KT 10SM CLR 19/M02 A3009 RMK AO2 SLP127 T01891017 50003,M
HND,2024-07-13 08:56,-115.1344,35.9729,742.79,92.00,48.00,22.19,250.00,5.00,0.00,29.94,1011.40,10.00,M,CLR,M,M,M,M,M,M,M,M,M,M,M,M,M,M,88.63,KHND 130856Z AUTO 25005KT 10SM CLR 33/09 A2994 RMK AO2 SLP114 T03330089 53006,M
TPH,2024-07-13 08:56,-117.0904,38.0505,1654.00,72.00,30.00,21.04,0.00,0.00,0.00,30.18,1011.60,10.00,M,CLR,M,M,M,M,M,M,M,M,M,M,M,M,M,M,72.00,KTPH 130856Z AUTO 00000KT 10SM CLR 22/M01 A3018 RMK AO2 SLP116 T02221011 55005,M
LAS,2024-07-13 08:56,-115.1634,36.0719,663.00,98.00,48.00,18.45,200.00,4.00,0.00,29.90,1008.80,10.00,M,FEW,M,M,M,15000.00,M,M,M,M,M,M,M,M,M,M,94.53,KLAS 130856Z 20004KT 10SM FEW150 37/09 A2990 RMK AO2 SLP088 T03670089 53004 $,M
NFL,2024-07-13 08:56,-118.7010,39.4166,1199.00,79.00,45.00,30.05,250.00,8.00,0.00,30.05,1014.50,10.00,M,CLR,M,M,M,M,M,M,M,M,M,M,M,M,M,M,79.00,KNFL 130856Z AUTO 25008KT 10SM CLR 26/07 A3005 RMK AO2 SLP145 T02610072 58001,M
05U,2024-07-13 09:10,-116.0051,39.6042,1811.23,66.20,28.40,24.04,0.00,0.00,0.00,30.24,M,10.00,M,M,M,M,M,M,M,M,M,M,M,M,M,M,M,M,66.20,K05U 130910Z AUTO 00000KT 10SM 19/M02 A3024 RMK A01,M
BVU,2024-07-13 09:15,-114.8611,35.9475,671.00,91.40,46.40,21.29,70.00,6.00,0.00,29.89,M,10.00,M,CLR,M,M,M,M,M,M,M,M,M,M,M,M,M,M,87.86,KBVU 130915Z AUTO 07006KT 10SM CLR 33/08 A2989 RMK AO2,M
CXP,2024-07-13 09:15,-119.7326,39.1923,1431.00,69.80,44.60,40.29,0.00,0.00,0.00,30.18,M,10.00,M,CLR,M,M,M,M,M,M,M,M,M,M,M,M,M,M,69.80,KCXP 130915Z AUTO 00000KT 10SM CLR 21/07 A3018 RMK AO2,M
RTS,2024-07-13 09:15,-119.8764,39.6682,1539.00,75.20,39.20,27.26,30.00,5.00,0.00,30.17,M,10.00,M,CLR,M,M,M,M,M,M,M,M,M,M,M,M,M,M,75.20,KRTS 130915Z AUTO 03005KT 10SM CLR 24/04 A3017 RMK AO2,M
MEV,2024-07-13 09:15,-119.7500,38.9963,1441.42,64.40,42.80,45.32,80.00,4.00,0.00,30.15,M,10.00,M,FEW,M,M,M,5500.00,M,M,M,M,M,M,M,M,M,M,64.40,KMEV 130915Z AUTO 08004KT 10SM FEW055 18/06 A3015 RMK AO2,M
HTH,2024-07-13 09:15,-118.6315,38.5448,1282.89,77.00,33.80,20.74,230.00,4.00,0.00,30.09,M,10.00,M,CLR,M,M,M,M,M,M,M,M,M,M,M,M,M,M,77.00,KHTH 130915Z AUTO 23004KT 10SM CLR 25/01 A3009 RMK A01,M
TMT,2024-07-13 09:15,-117.1971,39.4643,1749.34,62.40,32.00,31.79,140.00,6.00,0.00,30.22,M,10.00,M,CLR,M,M,M,M,M,M,M,M,M,M,M,M,M,M,62.40,KTMT 130915Z AUTO 14006KT 10SM CLR 17/00 A3022 RMK AO2 T01690000,M
05U,2024-07-13 09:30,-116.0051,39.6042,1811.23,68.00,28.40,22.59,0.00,0.00,0.00,30.25,M,10.00,M,M,M,M,M,M,M,M,M,M,M,M,M,M,M,M,68.00,K05U 130930Z AUTO 00000KT 10SM 20/M02 A3025 RMK A01,M
BVU,2024-07-13 09:35,-114.8611,35.9475,671.00,93.20,44.60,18.80,90.00,6.00,0.00,29.89,M,10.00,M,CLR,M,M,M,M,M,M,M,M,M,M,M,M,M,M,89.34,KBVU 130935Z AUTO 09006KT 10SM CLR 34/07 A2989 RMK AO2,M
CXP,2024-07-13 09:35,-119.7326,39.1923,1431.00,73.40,41.00,31.05,320.00,4.00,0.00,30.18,M,10.00,M,FEW,M,M,M,11000.00,M,M,M,M,M,M,M,M,M,M,73.40,KCXP 130935Z AUTO 32004KT 10SM FEW110 23/05 A3018 RMK AO2,M
RTS,2024-07-13 09:35,-119.8764,39.6682,1539.00,73.40,39.20,28.96,260.00,4.00,0.00,30.17,M,10.00,M,CLR,M,M,M,M,M,M,M,M,M,M,M,M,M,M,73.40,KRTS 130935Z AUTO 26004KT 10SM CLR 23/04 A3017 RMK AO2,M
MEV,2024-07-13 09:35,-119.7500,38.9963,1441.42,64.40,42.80,45.32,220.00,6.00,0.00,30.17,M,10.00,M,FEW,SCT,SCT,M,4900.00,5500.00,11000.00,M,M,M,M,M,M,M,M,64.40,KMEV 130935Z AUTO 22006KT 10SM FEW049 SCT055 SCT110 18/06 A3017 RMK AO2,M
HTH,2024-07-13 09:35,-118.6315,38.5448,1282.89,77.00,33.80,20.74,0.00,0.00,0.00,30.09,M,10.00,M,CLR,M,M,M,M,M,M,M,M,M,M,M,M,M,M,77.00,KHTH 130935Z AUTO 00000KT 10SM CLR 25/01 A3009 RMK A01,M
TMT,2024-07-13 09:35,-117.1971,39.4643,1749.34,61.70,33.80,35.03,260.00,3.00,0.00,30.22,M,10.00,M,CLR,M,M,M,M,M,M,M,M,M,M,M,M,M,M,61.70,KTMT 130935Z AUTO 26003KT 10SM CLR 17/01 A3022 RMK AO2 T01650010,M
05U,2024-07-13 09:50,-116.0051,39.6042,1811.23,68.00,28.40,22.59,0.00,0.00,0.00,30.24,M,10.00,M,M,M,M,M,M,M,M,M,M,M,M,M,M,M,M,68.00,K05U 130950Z AUTO 00000KT 10SM 20/M02 A3024 RMK A01,M
P68,2024-07-13 09:53,-116.0056,39.6014,1993.00,68.00,30.00,24.12,M,3.00,0.00,30.22,1012.80,M,M,M,M,M,M,M,M,M,M,M,M,M,M,M,M,M,68.00,KP68 130953Z AUTO VRB03KT 20/M01 A3022 RMK AO1 SLP128 T02001011,M
DRA,2024-07-13 09:53,-116.0278,36.6206,1009.00,91.00,44.00,19.68,20.00,5.00,0.00,29.97,1008.10,10.00,M,CLR,M,M,M,M,M,M,M,M,M,M,M,M,M,M,87.26,KDRA 130953Z AUTO 02005KT 10SM CLR 33/07 A2997 RMK AO2 SLP081 T03280067,M
ELY,2024-07-13 09:53,-114.8453,39.2950,1909.00,66.00,35.00,31.60,110.00,5.00,0.00,30.27,1012.70,10.00,M,CLR,M,M,M,M,M,M,M,M,M,M,M,M,M,M,66.00,KELY 130953Z AUTO 11005KT 10SM CLR 19/02 A3027 RMK AO2 SLP127 T01890017,M
VGT,2024-07-13 09:53,-115.1933,36.2111,667.00,95.00,47.00,19.48,70.00,4.00,0.00,29.89,1010.30,10.00,M,CLR,M,M,M,M,M,M,M,M,M,M,M,M,M,M,91.37,KVGT 130953Z AUTO 07004KT 10SM CLR 35/08 A2989 RMK AO2 SLP103 T03500083,M
LOL,2024-07-13 09:53,-118.5701,40.0684,1192.43,76.00,34.00,21.62,0.00,0.00,0.00,30.05,1011.90,10.00,M,CLR,M,M,M,M,M,M,M,M,M,M,M,M,M,M,76.00,KLOL 130953Z AUTO 00000KT 10SM CLR 24/01 A3005 RMK AO2 SLP119 T02440011,M
BVU,2024-07-13 09:55,-114.8611,35.9475,671.00,93.20,44.60,18.80,100.00,5.00,0.00,29.90,M,10.00,M,CLR,M,M,M,M,M,M,M,M,M,M,M,M,M,M,89.34,KBVU 130955Z AUTO 10005KT 10SM CLR 34/07 A2990 RMK AO2,M
CXP,2024-07-13 09:55,-119.7326,39.1923,1431.00,73.40,41.00,31.05,0.00,0.00,0.00,30.18,M,10.00,M,SCT,M,M,M,11000.00,M,M,M,M,M,M,M,M,M,M,73.40,KCXP 130955Z AUTO 00000KT 10SM SCT110 23/05 A3018 RMK AO2,M
INS,2024-07-13 09:55,-115.6733,36.5872,955.00,94.00,39.20,14.89,0.00,0.00,0.00,29.96,1007.60,10.00,M,BKN,M,M,M,18000.00,M,M,M,M,M,M,M,M,M,M,89.65,KINS 130955Z AUTO 00000KT 10SM BKN180 34/04 A2996 RMK AO2 SLP076 T03440040 $,M
RNO,2024-07-13 09:55,-119.7711,39.4839,1341.00,81.00,41.00,24.14,120.00,6.00,0.00,30.13,1012.80,10.00,M,BKN,M,M,M,15000.00,M,M,M,M,M,M,M,M,M,M,79.43,KRNO 130955Z 12006KT 10SM BKN150 27/05 A3013 RMK AO2 SLP128 T02720050,M
LSV,2024-07-13 09:55,-115.0343,36.2362,570.00,95.00,40.30,15.07,40.00,3.00,0.00,29.84,1006.90,10.00,M,CLR,M,M,M,M,M,M,M,M,M,M,M,M,M,M,90.64,KLSV 130955Z AUTO 04003KT 10SM CLR 35/05 A2984 RMK AO2 SLP069 T03510046 $,M
RTS,2024-07-13 09:55,-119.8764,39.6682,1539.00,71.60,41.00,33.00,0.00,0.00,0.00,30.18,M,10.00,M,CLR,M,M,M,M,M,M,M,M,M,M,M,M,M,M,71.60,KRTS 130955Z AUTO 00000KT 10SM CLR 22/05 A3018 RMK AO2,M
MEV,2024-07-13 09:55,-119.7500,38.9963,1441.42,66.20,48.20,52.25,270.00,6.00,0.00,30.16,M,10.00,M,FEW,SCT,M,M,5000.00,11000.00,M,M,M,M,M,M,M,M,M,66.20,KMEV 130955Z AUTO 27006KT 10SM FEW050 SCT110 19/09 A3016 RMK AO2,M
HTH,2024-07-13 09:55,-118.6315,38.5448,1282.89,77.00,33.80,20.74,190.00,3.00,0.00,30.09,M,10.00,M,CLR,M,M,M,M,M,M,M,M,M,M,M,M,M,M,77.00,KHTH 130955Z AUTO 19003KT 10SM CLR 25/01 A3009 RMK A01,M
TMT,2024-07-13 09:55,-117.1971,39.4643,1749.34,62.20,38.00,40.64,290.00,3.00,0.00,30.22,M,10.00,M,CLR,M,M,M,M,M,M,M,M,M,M,M,M,M,M,62.20,KTMT 130955Z AUTO 29003KT 10SM CLR 17/03 A3022 RMK AO2 T01680033,M
EKO,2024-07-13 09:56,-115.7860,40.8242,1367.00,81.00,31.00,16.25,330.00,5.00,0.00,30.14,1012.60,10.00,M,CLR,M,M,M,M,M,M,M,M,M,M,M,M,M,M,79.04,KEKO 130956Z AUTO 33005KT 10SM CLR 27/M01 A3014 RMK AO2 SLP126 T02721006,M
WMC,2024-07-13 09:56,-117.8072,40.9019,1315.00,70.00,32.00,24.42,80.00,4.00,0.00,30.08,1012.10,10.00,M,CLR,M,M,M,M,M,M,M,M,M,M,M,M,M,M,70.00,KWMC 130956Z AUTO 08004KT 10SM CLR 21/00 A3008 RMK AO2 SLP121 T02110000,M
HND,2024-07-13 09:56,-115.1344,35.9729,742.79,89.00,49.00,25.32,160.00,7.00,0.00,29.94,1011.70,10.00,M,CLR,M,M,M,M,M,M,M,M,M,M,M,M,M,M,86.01,KHND 130956Z AUTO 16007KT 10SM CLR 32/09 A2994 RMK AO2 SLP117 T03170094,M
TPH,2024-07-13 09:56,-117.0904,38.0505,1654.00,73.00,30.00,20.34,290.00,5.00,0.00,30.17,1011.00,10.00,M,CLR,M,M,M,M,M,M,M,M,M,M,M,M,M,M,73.00,KTPH 130956Z AUTO 29005KT 10SM CLR 23/M01 A3017 RMK AO2 SLP110 T02281011,M
LAS,2024-07-13 09:56,-115.1634,36.0719,663.00,96.00,48.00,19.61,240.00,3.00,0.00,29.90,1008.90,10.00,M,CLR,M,M,M,M,M,M,M,M,M,M,M,M,M,M,92.52,KLAS 130956Z 24003KT 10SM CLR 36/09 A2990 RMK AO2 SLP089 T03560089 $,M
NFL,2024-07-13 09:56,-118.7010,39.4166,1199.00,80.00,40.00,23.99,130.00,8.00,0.00,30.04,1014.20,10.00,M,CLR,M,M,M,M,M,M,M,M,M,M,M,M,M,M,78.83,KNFL 130956Z AUTO 13008KT 10SM CLR 27/04 A3004 RMK AO2 SLP142 T02670044,M
05U,2024-07-13 10:10,-116.0051,39.6042,1811.23,69.80,30.20,22.86,0.00,0.00,0.00,30.24,M,10.00,M,M,M,M,M,M,M,M,M,M,M,M,M,M,M,M,69.80,K05U 131010Z AUTO 00000KT 10SM 21/M01 A3024 RMK A01,M
BVU,2024-07-13 10:15,-114.8611,35.9475,671.00,95.00,42.80,16.60,120.00,7.00,0.00,29.90,M,10.00,M,CLR,M,M,M,M,M,M,M,M,M,M,M,M,M,M,90.86,KBVU 131015Z AUTO 12007KT 10SM CLR 35/06 A2990 RMK AO2,M
CXP,2024-07-13 10:15,-119.7326,39.1923,1431.00,73.40,42.80,33.29,0.00,0.00,0.00,30.18,M,10.00,M,FEW,M,M,M,11000.00,M,M,M,M,M,M,M,M,M,M,73.40,KCXP 131015Z AUTO 00000KT 10SM FEW110 23/06 A3018 RMK AO2,M
RTS,2024-07-13 10:15,-119.8764,39.6682,1539.00,71.60,42.80,35.37,100.00,3.00,0.00,30.18,M,10.00,M,FEW,M,M,M,11000.00,M,M,M,M,M,M,M,M,M,M,71.60,KRTS 131015Z AUTO 10003KT 10SM FEW110 22/06 A3018 RMK AO2,M
MEV,2024-07-13 10:15,-119.7500,38.9963,1441.42,68.00,44.60,42.85,20.00,7.00,0.00,30.16,M,10.00,M,FEW,SCT,M,M,7000.00,11000.00,M,M,M,M,M,M,M,M,M,68.00,KMEV 131015Z AUTO 02007KT 10SM FEW070 SCT110 20/07 A3016 RMK AO2,M
HTH,2024-07-13 10:15,-118.6315,38.5448,1282.89,75.20,33.80,22.02,200.00,4.00,0.00,30.09,M,10.00,M,CLR,M,M,M,M,M,M,M,M,M,M,M,M,M,M,75.20,KHTH 131015Z AUTO 20004KT 10SM CLR 24/01 A3009 RMK A01,M
TMT,2024-07-13 10:15,-117.1971,39.4643,1749.34,62.00,36.00,37.83,280.00,6.00,0.00,30.22,M,10.00,M,CLR,M,M,M,M,M,M,M,M,M,M,M,M,M,M,62.00,KTMT 131015Z AUTO 28006KT 10SM CLR 17/02 A3022 RMK AO2 T01660022,M
05U,2024-07-13 10:30,-116.0051,39.6042,1811.23,73.40,30.20,20.23,0.00,0.00,0.00,30.24,M,10.00,M,M,M,M,M,M,M,M,M,M,M,M,M,M,M,M,73.40,K05U 131030Z AUTO 00000KT 10SM 23/M01 A3024 RMK A01,M
BVU,2024-07-13 10:35,-114.8611,35.9475,671.00,93.20,42.80,17.55,160.00,4.00,0.00,29.91,M,10.00,M,CLR,M,M,M,M,M,M,M,M,M,M,M,M,M,M,89.17,KBVU 131035Z AUTO 16004KT 10SM CLR 34/06 A2991 RMK AO2,M
CXP,2024-07-13 10:35,-119.7326,39.1923,1431.00,73.40,41.00,31.05,330.00,3.00,0.00,30.17,M,10.00,M,CLR,M,M,M,M,M,M,M,M,M,M,M,M,M,M,73.40,KCXP 131035Z AUTO 33003KT 10SM CLR 23/05 A3017 RMK AO2,M
RTS,2024-07-13 10:35,-119.8764,39.6682,1539.00,69.80,42.80,37.61,0.00,0.00,0.00,30.19,M,10.00,M,FEW,M,M,M,11000.00,M,M,M,M,M,M,M,M,M,M,69.80,KRTS 131035Z AUTO 00000KT 10SM FEW110 21/06 A3019 RMK AO2,M
MEV,2024-07-13 10:35,-119.7500,38.9963,1441.42,66.20,44.60,45.60,40.00,7.00,0.00,30.14,M,10.00,M,FEW,FEW,FEW,M,5500.00,7000.00,12000.00,M,M,M,M,M,M,M,M,66.20,KMEV 131035Z AUTO 04007KT 10SM FEW055 FEW070 FEW120 19/07 A3014 RMK AO2,M
HTH,2024-07-13 10:35,-118.6315,38.5448,1282.89,75.20,33.80,22.02,140.00,4.00,0.00,30.09,M,10.00,M,CLR,M,M,M,M,M,M,M,M,M,M,M,M,M,M,75.20,KHTH 131035Z AUTO 14004KT 10SM CLR 24/01 A3009 RMK A01,M
TMT,2024-07-13 10:35,-117.1971,39.4643,1749.34,63.70,34.50,33.57,180.00,4.00,0.00,30.22,M,10.00,M,CLR,M,M,M,M,M,M,M,M,M,M,M,M,M,M,63.70,KTMT 131035Z AUTO 18004KT 10SM CLR 18/01 A3022 RMK AO2 T01760014,M
05U,2024-07-13 10:45,-116.0051,39.6042,1811.23,73.40,30.20,20.23,0.00,0.00,0.00,30.24,M,10.00,M,M,M,M,M,M,M,M,M,M,M,M,M,M,M,M,73.40,K05U 131045Z AUTO 00000KT 10SM 23/M01 A3024 RMK A01,M
P68,2024-07-13 10:53,-116.0056,39.6014,1993.00,73.00,30.00,20.34,190.00,5.00,0.00,30.21,1012.30,M,M,M,M,M,M,M,M,M,M,M,M,M,M,M,M,M,73.00,KP68 131053Z AUTO 19005KT 23/M01 A3021 RMK AO1 SLP123 T02281011,M
DRA,2024-07-13 10:53,-116.0278,36.6206,1009.00,88.00,43.00,20.82,10.00,3.00,0.00,29.98,1008.80,10.00,M,CLR,M,M,M,M,M,M,M,M,M,M,M,M,M,M,84.58,KDRA 131053Z AUTO 01003KT 10SM CLR 31/06 A2998 RMK AO2 SLP088 T03110061,M
ELY,2024-07-13 10:53,-114.8453,39.2950,1909.00,63.00,36.00,36.52,200.00,5.00,0.00,30.28,1013.50,10.00,M,CLR,M,M,M,M,M,M,M,M,M,M,M,M,M,M,63.00,KELY 131053Z AUTO 20005KT 10SM CLR 17/02 A3028 RMK AO2 SLP135 T01720022,M
VGT,2024-07-13 10:53,-115.1933,36.2111,667.00,94.00,48.00,20.86,350.00,3.00,0.00,29.91,1010.80,10.00,M,CLR,M,M,M,M,M,M,M,M,M,M,M,M,M,M,90.55,KVGT 131053Z AUTO 35003KT 10SM CLR 34/09 A2991 RMK AO2 SLP108 T03440089,M
LOL,2024-07-13 10:53,-118.5701,40.0684,1192.43,74.00,34.00,23.11,360.00,5.00,0.00,30.05,1012.00,10.00,M,CLR,M,M,M,M,M,M,M,M,M,M,M,M,M,M,74.00,KLOL 131053Z AUTO 36005KT 10SM CLR 23/01 A3005 RMK AO2 SLP120 T02330011,M
BVU,2024-07-13 10:55,-114.8611,35.9475,671.00,91.40,46.40,21.29,0.00,0.00,0.00,29.91,M,10.00,M,CLR,M,M,M,M,M,M,M,M,M,M,M,M,M,M,87.86,KBVU 131055Z AUTO 00000KT 10SM CLR 33/08 A2991 RMK AO2,M
CXP,2024-07-13 10:55,-119.7326,39.1923,1431.00,73.40,41.00,31.05,0.00,0.00,0.00,30.16,M,10.00,M,CLR,M,M,M,M,M,M,M,M,M,M,M,M,M,M,73.40,KCXP 131055Z AUTO 00000KT 10SM CLR 23/05 A3016 RMK AO2,M
INS,2024-07-13 10:55,-115.6733,36.5872,955.00,92.70,41.40,16.89,0.00,0.00,0.00,29.97,1007.90,10.00,M,BKN,OVC,M,M,16000.00,19000.00,M,M,M,M,M,M,M,M,M,88.60,KINS 131055Z AUTO 00000KT 10SM BKN160 OVC190 34/05 A2997 RMK AO2 SLP079 T03370052 $,M
RNO,2024-07-13 10:55,-119.7711,39.4839,1341.00,80.00,42.00,25.93,0.00,0.00,0.00,30.13,1012.80,10.00,M,BKN,M,M,M,15000.00,M,M,M,M,M,M,M,M,M,M,78.92,KRNO 131055Z 00000KT 10SM BKN150 27/06 A3013 RMK AO2 SLP128 T02670056,M
LSV,2024-07-13 10:55,-115.0343,36.2362,570.00,93.20,40.30,15.94,0.00,0.00,0.00,29.86,1007.60,10.00,M,CLR,M,M,M,M,M,M,M,M,M,M,M,M,M,M,88.98,KLSV 131055Z AUTO 00000KT 10SM CLR 34/05 A2986 RMK AO2 SLP076 T03400046 $,M
RTS,2024-07-13 10:55,-119.8764,39.6682,1539.00,68.00,42.80,40.00,300.00,7.00,0.00,30.19,M,10.00,M,CLR,M,M,M,M,M,M,M,M,M,M,M,M,M,M,68.00,KRTS 131055Z AUTO 30007KT 10SM CLR 20/06 A3019 RMK AO2,M
MEV,2024-07-13 10:55,-119.7500,38.9963,1441.42,66.20,44.60,45.60,350.00,7.00,0.00,30.13,M,10.00,12.00,FEW,M,M,M,5500.00,M,M,M,M,M,M,M,M,M,M,66.20,KMEV 131055Z AUTO 35007G12KT 10SM FEW055 19/07 A3013 RMK AO2,M
HTH,2024-07-13 10:55,-118.6315,38.5448,1282.89,77.00,32.00,19.30,190.00,3.00,0.00,30.08,M,10.00,M,CLR,M,M,M,M,M,M,M,M,M,M,M,M,M,M,77.00,KHTH 131055Z AUTO 19003KT 10SM CLR 25/00 A3008 RMK A01,M
TMT,2024-07-13 10:55,-117.1971,39.4643,1749.34,58.30,35.00,41.47,0.00,0.00,0.00,30.22,M,10.00,M,CLR,M,M,M,M,M,M,M,M,M,M,M,M,M,M,58.30,KTMT 131055Z AUTO 00000KT 10SM CLR 15/02 A3022 RMK AO2 T01460016,M
EKO,2024-07-13 10:56,-115.7860,40.8242,1367.00,75.00,34.00,22.35,350.00,3.00,0.00,30.14,1012.90,10.00,M,CLR,M,M,M,M,M,M,M,M,M,M,M,M,M,M,75.00,KEKO 131056Z AUTO 35003KT 10SM CLR 24/01 A3014 RMK AO2 SLP129 T02390011,M
WMC,2024-07-13 10:56,-117.8072,40.9019,1315.00,63.00,29.00,27.56,0.00,0.00,0.00,30.09,1012.70,10.00,M,CLR,M,M,M,M,M,M,M,M,M,M,M,M,M,M,63.00,KWMC 131056Z AUTO 00000KT 10SM CLR 17/M02 A3009 RMK AO2 SLP127 T01721017,M
HND,2024-07-13 10:56,-115.1344,35.9729,742.79,90.00,50.00,25.46,160.00,7.00,0.00,29.96,1012.10,10.00,M,CLR,M,M,M,M,M,M,M,M,M,M,M,M,M,M,87.06,KHND 131056Z AUTO 16007KT 10SM CLR 32/10 A2996 RMK AO2 SLP121 T03220100,M
TPH,2024-07-13 10:56,-117.0904,38.0505,1654.00,74.00,31.00,20.48,360.00,9.00,0.00,30.17,1011.00,10.00,M,CLR,M,M,M,M,M,M,M,M,M,M,M,M,M,M,74.00,KTPH 131056Z AUTO 36009KT 10SM CLR 23/M01 A3017 RMK AO2 SLP110 T02331006,M
LAS,2024-07-13 10:56,-115.1634,36.0719,663.00,94.00,49.00,21.65,260.00,3.00,0.00,29.93,1009.70,10.00,M,FEW,M,M,M,15000.00,M,M,M,M,M,M,M,M,M,M,90.71,KLAS 131056Z 26003KT 10SM FEW150 34/09 A2993 RMK AO2 SLP097 T03440094 $,M
05U,2024-07-13 11:05,-116.0051,39.6042,1811.23,71.60,30.20,21.50,0.00,0.00,0.00,30.24,M,10.00,M,M,M,M,M,M,M,M,M,M,M,M,M,M,M,M,71.60,K05U 131105Z AUTO 00000KT 10SM 22/M01 A3024 RMK A01,M
BVU,2024-07-13 11:15,-114.8611,35.9475,671.00,87.80,44.60,22.27,0.00,0.00,0.00,29.91,M,10.00,M,CLR,M,M,M,M,M,M,M,M,M,M,M,M,M,M,84.53,KBVU 131115Z AUTO 00000KT 10SM CLR 31/07 A2991 RMK AO2,M
CXP,2024-07-13 11:15,-119.7326,39.1923,1431.00,69.80,42.80,37.61,60.00,4.00,0.00,30.15,M,10.00,M,CLR,M,M,M,M,M,M,M,M,M,M,M,M,M,M,69.80,KCXP 131115Z AUTO 06004KT 10SM CLR 21/06 A3015 RMK AO2,M
RTS,2024-07-13 11:15,-119.8764,39.6682,1539.00,69.80,41.00,35.09,350.00,8.00,0.00,30.19,M,10.00,M,CLR,M,M,M,M,M,M,M,M,M,M,M,M,M,M,69.80,KRTS 131115Z AUTO 35008KT 10SM CLR 21/05 A3019 RMK AO2,M
MEV,2024-07-13 11:15,-119.7500,38.9963,1441.42,66.20,42.80,42.57,180.00,5.00,0.00,30.14,M,10.00,20.00,FEW,FEW,M,M,5000.00,6000.00,M,M,M,M,M,M,M,M,M,66.20,KMEV 131115Z AUTO 18005G20KT 10SM FEW050 FEW060 19/06 A3014 RMK AO2,M
HTH,2024-07-13 11:15,-118.6315,38.5448,1282.89,77.00,33.80,20.74,200.00,4.00,0.00,30.08,M,10.00,M,CLR,M,M,M,M,M,M,M,M,M,M,M,M,M,M,77.00,KHTH 131115Z AUTO 20004KT 10SM CLR 25/01 A3008 RMK A01,M
TMT,2024-07-13 11:15,-117.1971,39.4643,1749.34,58.60,35.20,41.36,0.00,0.00,0.00,30.23,M,10.00,M,CLR,M,M,M,M,M,M,M,M,M,M,M,M,M,M,58.60,KTMT 131115Z AUTO 00000KT 10SM CLR 15/02 A3023 RMK AO2 T01480018,M
05U,2024-07-13 11:30,-116.0051,39.6042,1811.23,69.80,32.00,24.59,0.00,0.00,0.00,30.25,M,10.00,M,M,M,M,M,M,M,M,M,M,M,M,M,M,M,M,69.80,K05U 131130Z AUTO 00000KT 10SM 21/M00 A3025 RMK A01,M
BVU,2024-07-13 11:35,-114.8611,35.9475,671.00,84.20,50.00,30.62,0.00,0.00,0.00,29.92,M,10.00,M,CLR,M,M,M,M,M,M,M,M,M,M,M,M,M,M,82.24,KBVU 131135Z AUTO 00000KT 10SM CLR 29/10 A2992 RMK AO2,M
CXP,2024-07-13 11:35,-119.7326,39.1923,1431.00,71.60,41.00,33.00,0.00,0.00,0.00,30.15,M,10.00,M,CLR,M,M,M,M,M,M,M,M,M,M,M,M,M,M,71.60,KCXP 131135Z AUTO 00000KT 10SM CLR 22/05 A3015 RMK AO2,M
RTS,2024-07-13 11:35,-119.8764,39.6682,1539.00,73.40,37.40,26.98,340.00,9.00,0.00,30.19,M,10.00,M,CLR,M,M,M,M,M,M,M,M,M,M,M,M,M,M,73.40,KRTS 131135Z AUTO 34009KT 10SM CLR 23/03 A3019 RMK AO2,M
MEV,2024-07-13 11:35,-119.7500,38.9963,1441.42,64.40,46.40,51.98,200.00,3.00,0.00,30.15,M,10.00,M,FEW,FEW,M,M,5000.00,5500.00,M,M,M,M,M,M,M,M,M,64.40,KMEV 131135Z AUTO 20003KT 10SM FEW050 FEW055 18/08 A3015 RMK AO2,M
HTH,2024-07-13 11:35,-118.6315,38.5448,1282.89,77.00,33.80,20.74,0.00,0.00,0.00,30.08,M,10.00,M,CLR,M,M,M,M,M,M,M,M,M,M,M,M,M,M,77.00,KHTH 131135Z AUTO 00000KT 10SM CLR 25/01 A3008 RMK A01,M
TMT,2024-07-13 11:35,-117.1971,39.4643,1749.34,57.00,38.00,48.93,290.00,5.00,0.00,30.23,M,10.00,M,CLR,M,M,M,M,M,M,M,M,M,M,M,M,M,M,57.00,KTMT 131135Z AUTO 29005KT 10SM CLR 14/03 A3023 RMK AO2 T01390034,M
05U,2024-07-13 11:45,-116.0051,39.6042,1811.23,68.00,28.40,22.59,0.00,0.00,0.00,30.25,M,10.00,M,M,M,M,M,M,M,M,M,M,M,M,M,M,M,M,68.00,K05U 131145Z AUTO 00000KT 10SM 20/M02 A3025 RMK A01,M
P68,2024-07-13 11:53,-116.0056,39.6014,1993.00,64.00,31.00,28.86,300.00,5.00,0.00,30.23,1013.80,M,M,M,M,M,M,M,M,M,M,M,M,M,M,M,M,M,64.00,KP68 131153Z AUTO 30005KT 18/M01 A3023 RMK AO1 SLP138 T01781006 10283 20178 53002,M
DRA,2024-07-13 11:53,-116.0278,36.6206,1009.00,88.00,41.00,19.28,20.00,4.00,0.00,30.00,1009.20,10.00,M,CLR,M,M,M,M,M,M,M,M,M,M,M,M,M,M,84.46,KDRA 131153Z AUTO 02004KT 10SM CLR 31/05 A3000 RMK AO2 SLP092 T03110050 10367 20289 53010,M
ELY,2024-07-13 11:53,-114.8453,39.2950,1909.00,65.00,36.00,34.05,180.00,7.00,0.00,30.29,1013.80,10.00,M,CLR,M,M,M,M,M,M,M,M,M,M,M,M,M,M,65.00,KELY 131153Z AUTO 18007KT 10SM CLR 18/02 A3029 RMK AO2 SLP138 T01830022 10256 20167 53003,M
VGT,2024-07-13 11:53,-115.1933,36.2111,667.00,93.00,48.00,21.51,340.00,3.00,0.00,29.93,1011.50,10.00,M,CLR,M,M,M,M,M,M,M,M,M,M,M,M,M,M,89.58,KVGT 131153Z AUTO 34003KT 10SM CLR 34/09 A2993 RMK AO2 SLP115 T03390089 10389 20333 53013,M
LOL,2024-07-13 11:53,-118.5701,40.0684,1192.43,71.00,35.00,26.62,180.00,10.00,0.00,30.08,1013.30,10.00,M,CLR,M,M,M,M,M,M,M,M,M,M,M,M,M,M,71.00,KLOL 131153Z AUTO 18010KT 10SM CLR 22/02 A3008 RMK AO2 SLP133 T02170017 10317 20217 53012,M
BVU,2024-07-13 11:55,-114.8611,35.9475,671.00,86.00,48.20,27.03,0.00,0.00,0.00,29.93,M,10.00,M,CLR,M,M,M,M,M,M,M,M,M,M,M,M,M,M,83.40,KBVU 131155Z AUTO 00000KT 10SM CLR 30/09 A2993 RMK AO2,M
CXP,2024-07-13 11:55,-119.7326,39.1923,1431.00,69.80,42.80,37.61,0.00,0.00,0.00,30.15,M,10.00,M,CLR,M,M,M,M,M,M,M,M,M,M,M,M,M,M,69.80,KCXP 131155Z AUTO 00000KT 10SM CLR 21/06 A3015 RMK AO2,M
INS,2024-07-13 11:55,-115.6733,36.5872,955.00,91.00,41.50,17.88,70.00,6.00,0.00,29.99,1008.70,10.00,M,FEW,M,M,M,16000.00,M,M,M,M,M,M,M,M,M,M,87.07,KINS 131155Z AUTO 07006KT 10SM FEW160 33/05 A2999 RMK AO2 SLP087 T03280053 10361 20317 53011 $,M
RNO,2024-07-13 11:55,-119.7711,39.4839,1341.00,80.00,41.00,24.94,0.00,0.00,0.00,30.13,1012.80,10.00,M,BKN,M,M,M,15000.00,M,M,M,M,M,M,M,M,M,M,78.87,KRNO 131155Z 00000KT 10SM BKN150 27/05 A3013 RMK AO2 SLP128 T02670050 10311 20267 51006,M
RTS,2024-07-13 11:55,-119.8764,39.6682,1539.00,75.20,37.40,25.40,320.00,6.00,0.00,30.19,M,10.00,M,FEW,M,M,M,12000.00,M,M,M,M,M,M,M,M,M,M,75.20,KRTS 131155Z AUTO 32006KT 10SM FEW120 24/03 A3019 RMK AO2,M
MEV,2024-07-13 11:55,-119.7500,38.9963,1441.42,62.60,46.40,55.37,230.00,4.00,0.00,30.15,M,10.00,M,CLR,M,M,M,M,M,M,M,M,M,M,M,M,M,M,62.60,KMEV 131155Z AUTO 23004KT 10SM CLR 17/08 A3015 RMK AO2,M
HTH,2024-07-13 11:55,-118.6315,38.5448,1282.89,75.20,32.00,20.49,0.00,0.00,0.00,30.09,M,10.00,M,CLR,M,M,M,M,M,M,M,M,M,M,M,M,M,M,75.20,KHTH 131155Z AUTO 00000KT 10SM CLR 24/00 A3009 RMK A01,M
TMT,2024-07-13 11:55,-117.1971,39.4643,1749.34,55.80,37.40,49.91,200.00,5.00,0.00,30.24,M,10.00,M,CLR,M,M,M,M,M,M,M,M,M,M,M,M,M,M,55.80,KTMT 131155Z AUTO 20005KT 10SM CLR 13/03 A3024 RMK AO2 T01320030 10244 20132,M
LSV,2024-07-13 11:55,-115.0343,36.2362,570.00,91.40,40.50,16.99,80.00,4.00,0.00,29.88,1008.30,10.00,M,CLR,M,M,M,M,M,M,M,M,M,M,M,M,M,M,87.37,KLSV 131155Z AUTO 08004KT 10SM CLR 33/05 A2988 RMK AO2 SLP083 T03300047 10392 20330 52017 $,M
EKO,2024-07-13 11:56,-115.7860,40.8242,1367.00,71.00,35.00,26.62,0.00,0.00,0.00,30.17,1014.00,10.00,M,CLR,M,M,M,M,M,M,M,M,M,M,M,M,M,M,71.00,KEKO 131156Z AUTO 00000KT 10SM CLR 22/02 A3017 RMK AO2 SLP140 T02170017 10306 20200 53007,M
WMC,2024-07-13 11:56,-117.8072,40.9019,1315.00,65.00,32.00,29.02,100.00,4.00,0.00,30.10,1012.90,10.00,M,CLR,M,M,M,M,M,M,M,M,M,M,M,M,M,M,65.00,KWMC 131156Z AUTO 10004KT 10SM CLR 18/00 A3010 RMK AO2 SLP129 T01830000 10283 20167 53002,M
HND,2024-07-13 11:56,-115.1344,35.9729,742.79,90.00,50.00,25.46,250.00,6.00,0.00,29.98,1012.70,10.00,M,CLR,M,M,M,M,M,M,M,M,M,M,M,M,M,M,87.06,KHND 131156Z AUTO 25006KT 10SM CLR 32/10 A2998 RMK AO2 SLP127 T03220100 10367 20317 53012,M
TPH,2024-07-13 11:56,-117.0904,38.0505,1654.00,70.00,31.00,23.45,10.00,4.00,0.00,30.20,1012.70,10.00,M,CLR,M,M,M,M,M,M,M,M,M,M,M,M,M,M,70.00,KTPH 131156Z AUTO 01004KT 10SM CLR 21/M01 A3020 RMK AO2 SLP127 T02111006 10317 20211 53006,M
LAS,2024-07-13 11:56,-115.1634,36.0719,663.00,94.00,48.00,20.86,0.00,0.00,0.00,29.95,1010.40,10.00,M,FEW,SCT,M,M,15000.00,23000.00,M,M,M,M,M,M,M,M,M,90.55,KLAS 131156Z 00000KT 10SM FEW150 SCT230 34/09 A2995 RMK AO2 SLP104 T03440089 10383 20339 53015 $,M
05U,2024-07-13 12:10,-116.0051,39.6042,1811.23,64.40,33.80,31.85,0.00,0.00,0.00,30.26,M,10.00,M,M,M,M,M,M,M,M,M,M,M,M,M,M,M,M,64.40,K05U 131210Z AUTO 00000KT 10SM 18/01 A3026 RMK A01,M
BVU,2024-07-13 12:15,-114.8611,35.9475,671.00,86.00,48.20,27.03,320.00,3.00,0.00,29.93,M,10.00,M,CLR,M,M,M,M,M,M,M,M,M,M,M,M,M,M,83.40,KBVU 131215Z AUTO 32003KT 10SM CLR 30/09 A2993 RMK AO2,M
CXP,2024-07-13 12:15,-119.7326,39.1923,1431.00,69.80,42.80,37.61,0.00,0.00,0.00,30.16,M,10.00,M,CLR,M,M,M,M,M,M,M,M,M,M,M,M,M,M,69.80,KCXP 131215Z AUTO 00000KT 10SM CLR 21/06 A3016 RMK AO2,M
RTS,2024-07-13 12:15,-119.8764,39.6682,1539.00,73.40,39.20,28.96,50.00,7.00,0.00,30.18,M,10.00,M,FEW,M,M,M,12000.00,M,M,M,M,M,M,M,M,M,M,73.40,KRTS 131215Z AUTO 05007KT 10SM FEW120 23/04 A3018 RMK AO2,M
MEV,2024-07-13 12:15,-119.7500,38.9963,1441.42,60.80,46.40,59.01,0.00,0.00,0.00,30.15,M,10.00,M,FEW,FEW,M,M,5000.00,5500.00,M,M,M,M,M,M,M,M,M,60.80,KMEV 131215Z AUTO 00000KT 10SM FEW050 FEW055 16/08 A3015 RMK AO2,M
HTH,2024-07-13 12:15,-118.6315,38.5448,1282.89,73.40,33.80,23.39,0.00,0.00,0.00,30.10,M,10.00,M,CLR,M,M,M,M,M,M,M,M,M,M,M,M,M,M,73.40,KHTH 131215Z AUTO 00000KT 10SM CLR 23/01 A3010 RMK A01,M
TMT,2024-07-13 12:15,-117.1971,39.4643,1749.34,53.60,35.80,50.76,160.00,4.00,0.00,30.24,M,10.00,M,CLR,M,M,M,M,M,M,M,M,M,M,M,M,M,M,53.60,KTMT 131215Z AUTO 16004KT 10SM CLR 12/02 A3024 RMK AO2 T01200021,M
05U,2024-07-13 12:30,-116.0051,39.6042,1811.23,64.40,32.00,29.63,0.00,0.00,0.00,30.27,M,10.00,M,M,M,M,M,M,M,M,M,M,M,M,M,M,M,M,64.40,K05U 131230Z AUTO 00000KT 10SM 18/00 A3027 RMK A01,M
BVU,2024-07-13 12:35,-114.8611,35.9475,671.00,87.80,44.60,22.27,290.00,4.00,0.00,29.94,M,10.00,M,CLR,M,M,M,M,M,M,M,M,M,M,M,M,M,M,84.53,KBVU 131235Z AUTO 29004KT 10SM CLR 31/07 A2994 RMK AO2,M
CXP,2024-07-13 12:35,-119.7326,39.1923,1431.00,68.00,42.80,40.00,0.00,0.00,0.00,30.17,M,10.00,M,CLR,M,M,M,M,M,M,M,M,M,M,M,M,M,M,68.00,KCXP 131235Z AUTO 00000KT 10SM CLR 20/06 A3017 RMK AO2,M
RTS,2024-07-13 12:35,-119.8764,39.6682,1539.00,71.60,39.20,30.77,230.00,3.00,0.00,30.19,M,10.00,M,CLR,M,M,M,M,M,M,M,M,M,M,M,M,M,M,71.60,KRTS 131235Z AUTO 23003KT 10SM CLR 22/04 A3019 RMK AO2,M
MEV,2024-07-13 12:35,-119.7500,38.9963,1441.42,59.00,46.40,62.92,140.00,4.00,0.00,30.17,M,10.00,M,CLR,M,M,M,M,M,M,M,M,M,M,M,M,M,M,59.00,KMEV 131235Z AUTO 14004KT 10SM CLR 15/08 A3017 RMK AO2,M
HTH,2024-07-13 12:35,-118.6315,38.5448,1282.89,75.20,35.60,23.66,250.00,6.00,0.00,30.11,M,10.00,M,CLR,M,M,M,M,M,M,M,M,M,M,M,M,M,M,75.20,KHTH 131235Z AUTO 25006KT 10SM CLR 24/02 A3011 RMK A01,M
TMT,2024-07-13 12:35,-117.1971,39.4643,1749.34,53.20,33.60,47.19,150.00,6.00,0.00,30.24,M,10.00,M,CLR,M,M,M,M,M,M,M,M,M,M,M,M,M,M,53.20,KTMT 131235Z AUTO 15006KT 10SM CLR 12/01 A3024 RMK AO2 T01180009,M
05U,2024-07-13 12:45,-116.0051,39.6042,1811.23,66.20,30.20,25.88,0.00,0.00,0.00,30.27,M,10.00,M,M,M,M,M,M,M,M,M,M,M,M,M,M,M,M,66.20,K05U 131245Z AUTO 00000KT 10SM 19/M01 A3027 RMK A01,M
P68,2024-07-13 12:53,-116.0056,39.6014,1993.00,66.00,32.00,28.03,220.00,3.00,0.00,30.25,1014.30,M,M,M,M,M,M,M,M,M,M,M,M,M,M,M,M,M,66.00,KP68 131253Z AUTO 22003KT 19/00 A3025 RMK AO1 SLP143 T01890000,M
DRA,2024-07-13 12:53,-116.0278,36.6206,1009.00,83.00,42.00,23.51,300.00,5.00,0.00,30.02,1010.20,10.00,M,CLR,M,M,M,M,M,M,M,M,M,M,M,M,M,M,80.74,KDRA 131253Z AUTO 30005KT 10SM CLR 28/06 A3002 RMK AO2 SLP102 T02830056,M
ELY,2024-07-13 12:53,-114.8453,39.2950,1909.00,65.00,37.00,35.42,140.00,6.00,0.00,30.30,1013.80,10.00,M,CLR,M,M,M,M,M,M,M,M,M,M,M,M,M,M,65.00,KELY 131253Z AUTO 14006KT 10SM CLR 18/03 A3030 RMK AO2 SLP138 T01830028,M
VGT,2024-07-13 12:53,-115.1933,36.2111,667.00,93.00,48.00,21.51,280.00,3.00,0.00,29.94,1011.90,10.00,M,CLR,M,M,M,M,M,M,M,M,M,M,M,M,M,M,89.58,KVGT 131253Z 28003KT 10SM CLR 34/09 A2994 RMK AO2 SLP119 T03390089,M
LOL,2024-07-13 12:53,-118.5701,40.0684,1192.43,72.00,34.00,24.72,340.00,8.00,0.00,30.07,1013.00,10.00,M,CLR,M,M,M,M,M,M,M,M,M,M,M,M,M,M,72.00,KLOL 131253Z AUTO 34008KT 10SM CLR 22/01 A3007 RMK AO2 SLP130 T02220011,M
BVU,2024-07-13 12:55,-114.8611,35.9475,671.00,87.80,48.20,25.52,0.00,0.00,0.00,29.94,M,10.00,M,CLR,M,M,M,M,M,M,M,M,M,M,M,M,M,M,84.87,KBVU 131255Z AUTO 00000KT 10SM CLR 31/09 A2994 RMK AO2,M
CXP,2024-07-13 12:55,-119.7326,39.1923,1431.00,69.80,42.80,37.61,M,4.00,0.00,30.18,M,10.00,M,CLR,M,M,M,M,M,M,M,M,M,M,M,M,M,M,69.80,KCXP 131255Z AUTO VRB04KT 10SM CLR 21/06 A3018 RMK AO2,M
INS,2024-07-13 12:55,-115.6733,36.5872,955.00,89.00,41.00,18.68,90.00,11.00,0.00,30.00,1009.20,10.00,M,CLR,M,M,M,M,M,M,M,M,M,M,M,M,M,M,85.30,KINS 131255Z AUTO 09011KT 10SM CLR 32/05 A3000 RMK AO2 SLP092 T03160051 $,M
RNO,2024-07-13 12:55,-119.7711,39.4839,1341.00,79.00,42.00,26.79,270.00,6.00,0.00,30.13,1013.10,10.00,M,BKN,M,M,M,15000.00,M,M,M,M,M,M,M,M,M,M,79.00,KRNO 131255Z 27006KT 10SM BKN150 26/06 A3013 RMK AO2 SLP131 T02610056,M
RTS,2024-07-13 12:55,-119.8764,39.6682,1539.00,71.60,37.40,28.68,0.00,0.00,0.00,30.18,M,10.00,M,CLR,M,M,M,M,M,M,M,M,M,M,M,M,M,M,71.60,KRTS 131255Z AUTO 00000KT 10SM CLR 22/03 A3018 RMK AO2,M
MEV,2024-07-13 12:55,-119.7500,38.9963,1441.42,60.80,48.20,63.15,60.00,5.00,0.00,30.17,M,10.00,M,CLR,M,M,M,M,M,M,M,M,M,M,M,M,M,M,60.80,KMEV 131255Z AUTO 06005KT 10SM CLR 16/09 A3017 RMK AO2,M
HTH,2024-07-13 12:55,-118.6315,38.5448,1282.89,75.20,35.60,23.66,M,4.00,0.00,30.11,M,10.00,M,CLR,M,M,M,M,M,M,M,M,M,M,M,M,M,M,75.20,KHTH 131255Z AUTO VRB04KT 10SM CLR 24/02 A3011 RMK A01,M
TMT,2024-07-13 12:55,-117.1971,39.4643,1749.34,55.20,33.00,42.82,170.00,4.00,0.00,30.25,M,10.00,M,CLR,M,M,M,M,M,M,M,M,M,M,M,M,M,M,55.20,KTMT 131255Z AUTO 17004KT 10SM CLR 13/01 A3025 RMK AO2 T01290005,M
LSV,2024-07-13 12:55,-115.0343,36.2362,570.00,89.40,40.30,17.95,40.00,5.00,0.00,29.88,1008.40,10.00,M,CLR,M,M,M,M,M,M,M,M,M,M,M,M,M,M,85.61,KLSV 131255Z AUTO 04005KT 10SM CLR 32/05 A2988 RMK AO2 SLP084 T03190046 $,M
EKO,2024-07-13 12:56,-115.7860,40.8242,1367.00,68.00,34.00,28.34,70.00,5.00,0.00,30.18,1014.70,10.00,M,CLR,M,M,M,M,M,M,M,M,M,M,M,M,M,M,68.00,KEKO 131256Z AUTO 07005KT 10SM CLR 20/01 A3018 RMK AO2 SLP147 T02000011,M
WMC,2024-07-13 12:56,-117.8072,40.9019,1315.00,65.00,33.00,30.21,140.00,5.00,0.00,30.11,1013.70,10.00,M,CLR,M,M,M,M,M,M,M,M,M,M,M,M,M,M,65.00,KWMC 131256Z AUTO 14005KT 10SM CLR 18/01 A3011 RMK AO2 SLP137 T01830006,M
NFL,2024-07-13 12:56,-118.7010,39.4166,1199.00,76.00,38.00,25.32,200.00,3.00,0.00,30.07,1015.00,10.00,M,CLR,M,M,M,M,M,M,M,M,M,M,M,M,M,M,76.00,KNFL 131256Z AUTO 20003KT 10SM CLR 24/03 A3007 RMK AO2 SLP150 T02440033,M
HND,2024-07-13 12:56,-115.1344,35.9729,742.79,89.00,49.00,25.32,220.00,4.00,0.00,29.99,1013.20,10.00,M,CLR,M,M,M,M,M,M,M,M,M,M,M,M,M,M,86.01,KHND 131256Z AUTO 22004KT 10SM CLR 32/09 A2999 RMK AO2 SLP132 T03170094,M
TPH,2024-07-13 12:56,-117.0904,38.0505,1654.00,70.00,30.00,22.52,350.00,6.00,0.00,30.21,1013.00,10.00,M,CLR,M,M,M,M,M,M,M,M,M,M,M,M,M,M,70.00,KTPH 131256Z AUTO 35006KT 10SM CLR 21/M01 A3021 RMK AO2 SLP130 T02111011,M
LAS,2024-07-13 12:56,-115.1634,36.0719,663.00,93.00,48.00,21.51,250.00,3.00,0.00,29.96,1010.80,10.00,M,SCT,M,M,M,15000.00,M,M,M,M,M,M,M,M,M,M,89.58,KLAS 131256Z 25003KT 10SM SCT150 34/09 A2996 RMK AO2 SLP108 T03390089 $,M
BVU,2024-07-13 13:15,-114.8611,35.9475,671.00,86.00,51.80,30.90,10.00,4.00,0.00,29.95,M,10.00,M,CLR,M,M,M,M,M,M,M,M,M,M,M,M,M,M,83.87,KBVU 131315Z AUTO 01004KT 10SM CLR 30/11 A2995 RMK AO2,M
CXP,2024-07-13 13:15,-119.7326,39.1923,1431.00,69.80,42.80,37.61,290.00,3.00,0.00,30.19,M,10.00,M,CLR,M,M,M,M,M,M,M,M,M,M,M,M,M,M,69.80,KCXP 131315Z AUTO 29003KT 10SM CLR 21/06 A3019 RMK AO2,M
RTS,2024-07-13 13:15,-119.8764,39.6682,1539.00,69.80,37.40,30.49,0.00,0.00,0.00,30.19,M,10.00,M,CLR,M,M,M,M,M,M,M,M,M,M,M,M,M,M,69.80,KRTS 131315Z AUTO 00000KT 10SM CLR 21/03 A3019 RMK AO2,M
05U,2024-07-13 13:15,-116.0051,39.6042,1811.23,66.20,30.20,25.88,0.00,0.00,0.00,30.27,M,10.00,M,M,M,M,M,M,M,M,M,M,M,M,M,M,M,M,66.20,K05U 131315Z AUTO 00000KT 10SM 19/M01 A3027 RMK A01,M
MEV,2024-07-13 13:15,-119.7500,38.9963,1441.42,64.40,44.60,48.55,330.00,6.00,0.00,30.16,M,10.00,M,CLR,M,M,M,M,M,M,M,M,M,M,M,M,M,M,64.40,KMEV 131315Z AUTO 33006KT 10SM CLR 18/07 A3016 RMK AO2,M
HTH,2024-07-13 13:15,-118.6315,38.5448,1282.89,73.40,35.60,25.13,0.00,0.00,0.00,30.11,M,10.00,M,CLR,M,M,M,M,M,M,M,M,M,M,M,M,M,M,73.40,KHTH 131315Z AUTO 00000KT 10SM CLR 23/02 A3011 RMK A01,M
TMT,2024-07-13 13:15,-117.1971,39.4643,1749.34,55.40,34.70,45.50,270.00,3.00,0.00,30.25,M,10.00,M,CLR,M,M,M,M,M,M,M,M,M,M,M,M,M,M,55.40,KTMT 131315Z AUTO 27003KT 10SM CLR 13/02 A3025 RMK AO2 T01300015,M
05U,2024-07-13 13:20,-116.0051,39.6042,1811.23,66.20,30.20,25.88,10.00,5.00,0.00,30.27,M,10.00,M,M,M,M,M,M,M,M,M,M,M,M,M,M,M,M,66.20,K05U 131320Z AUTO 01005KT 10SM 19/M01 A3027 RMK A01,M
BVU,2024-07-13 13:35,-114.8611,35.9475,671.00,87.80,51.80,29.18,0.00,0.00,0.00,29.95,M,10.00,M,CLR,M,M,M,M,M,M,M,M,M,M,M,M,M,M,85.39,KBVU 131335Z AUTO 00000KT 10SM CLR 31/11 A2995 RMK AO2,M
CXP,2024-07-13 13:35,-119.7326,39.1923,1431.00,71.60,41.00,33.00,330.00,9.00,0.00,30.18,M,10.00,M,CLR,M,M,M,M,M,M,M,M,M,M,M,M,M,M,71.60,KCXP 131335Z AUTO 33009KT 10SM CLR 22/05 A3018 RMK AO2,M
RTS,2024-07-13 13:35,-119.8764,39.6682,1539.00,69.80,39.20,32.72,320.00,3.00,0.00,30.19,M,10.00,M,CLR,M,M,M,M,M,M,M,M,M,M,M,M,M,M,69.80,KRTS 131335Z AUTO 32003KT 10SM CLR 21/04 A3019 RMK AO2,M
MEV,2024-07-13 13:35,-119.7500,38.9963,1441.42,64.40,46.40,51.98,30.00,6.00,0.00,30.16,M,10.00,M,CLR,M,M,M,M,M,M,M,M,M,M,M,M,M,M,64.40,KMEV 131335Z AUTO 03006KT 10SM CLR 18/08 A3016 RMK AO2,M
HTH,2024-07-13 13:35,-118.6315,38.5448,1282.89,75.20,37.40,25.40,190.00,3.00,0.00,30.12,M,10.00,M,CLR,M,M,M,M,M,M,M,M,M,M,M,M,M,M,75.20,KHTH 131335Z AUTO 19003KT 10SM CLR 24/03 A3012 RMK A01,M
TMT,2024-07-13 13:35,-117.1971,39.4643,1749.34,55.20,36.50,49.23,0.00,0.00,0.00,30.26,M,10.00,M,CLR,M,M,M,M,M,M,M,M,M,M,M,M,M,M,55.20,KTMT 131335Z AUTO 00000KT 10SM CLR 13/03 A3026 RMK AO2 T01290025,M
P68,2024-07-13 13:53,-116.0056,39.6014,1993.00,67.00,33.00,28.18,0.00,0.00,0.00,30.26,1014.80,M,M,M,M,M,M,M,M,M,M,M,M,M,M,M,M,M,67.00,KP68 131353Z AUTO 00000KT 19/01 A3026 RMK AO1 SLP148 T01940006,M
DRA,2024-07-13 13:53,-116.0278,36.6206,1009.00,89.00,45.00,21.77,0.00,0.00,0.00,30.03,1010.40,10.00,M,CLR,M,M,M,M,M,M,M,M,M,M,M,M,M,M,85.58,KDRA 131353Z AUTO 00000KT 10SM CLR 32/07 A3003 RMK AO2 SLP104 T03170072,M
ELY,2024-07-13 13:53,-114.8453,39.2950,1909.00,67.00,38.00,34.37,180.00,10.00,0.00,30.31,1014.80,10.00,M,CLR,M,M,M,M,M,M,M,M,M,M,M,M,M,M,67.00,KELY 131353Z AUTO 18010KT 10SM CLR 19/03 A3031 RMK AO2 SLP148 T01940033,M
VGT,2024-07-13 13:53,-115.1933,36.2111,667.00,94.00,48.00,20.86,0.00,0.00,0.00,29.96,1012.50,10.00,M,CLR,M,M,M,M,M,M,M,M,M,M,M,M,M,M,90.55,KVGT 131353Z 00000KT 10SM CLR 34/09 A2996 RMK AO2 SLP125 T03440089,M
LOL,2024-07-13 13:53,-118.5701,40.0684,1192.43,74.00,42.00,31.63,130.00,6.00,0.00,30.08,1013.00,10.00,M,CLR,M,M,M,M,M,M,M,M,M,M,M,M,M,M,74.00,KLOL 131353Z AUTO 13006KT 10SM CLR 23/06 A3008 RMK AO2 SLP130 T02330056,M
BVU,2024-07-13 13:55,-114.8611,35.9475,671.00,89.60,53.60,29.45,0.00,0.00,0.00,29.95,M,10.00,M,CLR,M,M,M,M,M,M,M,M,M,M,M,M,M,M,87.36,KBVU 131355Z AUTO 00000KT 10SM CLR 32/12 A2995 RMK AO2,M
CXP,2024-07-13 13:55,-119.7326,39.1923,1431.00,71.60,42.80,35.37,140.00,4.00,0.00,30.18,M,10.00,M,CLR,M,M,M,M,M,M,M,M,M,M,M,M,M,M,71.60,KCXP 131355Z AUTO 14004KT 10SM CLR 22/06 A3018 RMK AO2,M
INS,2024-07-13 13:55,-115.6733,36.5872,955.00,89.00,40.00,17.96,220.00,6.00,0.00,30.02,1009.90,10.00,M,CLR,M,M,M,M,M,M,M,M,M,M,M,M,M,M,85.26,KINS 131355Z AUTO 22006KT 10SM CLR 32/04 A3002 RMK AO2 SLP099 T03160044 $,M
RNO,2024-07-13 13:55,-119.7711,39.4839,1341.00,77.00,42.00,28.62,260.00,8.00,0.00,30.14,1013.70,10.00,M,FEW,SCT,M,M,10000.00,18000.00,M,M,M,M,M,M,M,M,M,77.00,KRNO 131355Z 26008KT 10SM FEW100 SCT180 25/06 A3014 RMK AO2 SLP137 VIRGA E T02500056,M
LSV,2024-07-13 13:55,-115.0343,36.2362,570.00,93.00,41.70,16.93,80.00,5.00,0.00,29.91,1009.40,10.00,M,CLR,M,M,M,M,M,M,M,M,M,M,M,M,M,M,88.90,KLSV 131355Z AUTO 08005KT 10SM CLR 34/05 A2991 RMK AO2 SLP094 T03390054 $,M
RTS,2024-07-13 13:55,-119.8764,39.6682,1539.00,66.20,41.00,39.72,350.00,5.00,0.00,30.20,M,10.00,M,CLR,M,M,M,M,M,M,M,M,M,M,M,M,M,M,66.20,KRTS 131355Z AUTO 35005KT 10SM CLR 19/05 A3020 RMK AO2,M
05U,2024-07-13 13:55,-116.0051,39.6042,1811.23,66.20,32.00,27.83,0.00,0.00,0.00,30.28,M,10.00,M,M,M,M,M,M,M,M,M,M,M,M,M,M,M,M,66.20,K05U 131355Z AUTO 00000KT 10SM 19/M00 A3028 RMK A01,M
MEV,2024-07-13 13:55,-119.7500,38.9963,1441.42,66.20,48.20,52.25,130.00,6.00,0.00,30.16,M,10.00,M,CLR,M,M,M,M,M,M,M,M,M,M,M,M,M,M,66.20,KMEV 131355Z AUTO 13006KT 10SM CLR 19/09 A3016 RMK AO2,M
HTH,2024-07-13 13:55,-118.6315,38.5448,1282.89,75.20,39.20,27.26,310.00,4.00,0.00,30.12,M,10.00,M,CLR,M,M,M,M,M,M,M,M,M,M,M,M,M,M,75.20,KHTH 131355Z AUTO 31004KT 10SM CLR 24/04 A3012 RMK A01,M
TMT,2024-07-13 13:55,-117.1971,39.4643,1749.34,58.60,36.50,43.54,0.00,0.00,0.00,30.27,M,10.00,M,CLR,M,M,M,M,M,M,M,M,M,M,M,M,M,M,58.60,KTMT 131355Z AUTO 00000KT 10SM CLR 15/03 A3027 RMK AO2 T01480025,M
EKO,2024-07-13 13:56,-115.7860,40.8242,1367.00,72.00,40.00,31.32,90.00,4.00,0.00,30.19,1015.00,10.00,M,CLR,M,M,M,M,M,M,M,M,M,M,M,M,M,M,72.00,KEKO 131356Z AUTO 09004KT 10SM CLR 22/04 A3019 RMK AO2 SLP150 T02220044,M
WMC,2024-07-13 13:56,-117.8072,40.9019,1315.00,71.00,32.00,23.60,280.00,3.00,0.00,30.13,1013.90,10.00,M,CLR,M,M,M,M,M,M,M,M,M,M,M,M,M,M,71.00,KWMC 131356Z AUTO 28003KT 10SM CLR 22/00 A3013 RMK AO2 SLP139 T02170000,M
HND,2024-07-13 13:56,-115.1344,35.9729,742.79,91.00,53.00,27.57,0.00,0.00,0.00,30.00,1013.50,10.00,M,CLR,M,M,M,M,M,M,M,M,M,M,M,M,M,M,88.55,KHND 131356Z 00000KT 10SM CLR 33/12 A3000 RMK AO2 SLP135 T03280117,M
TPH,2024-07-13 13:56,-117.0904,38.0505,1654.00,74.00,32.00,21.33,0.00,0.00,0.00,30.23,1013.70,10.00,M,CLR,M,M,M,M,M,M,M,M,M,M,M,M,M,M,74.00,KTPH 131356Z AUTO 00000KT 10SM CLR 23/00 A3023 RMK AO2 SLP137 T02330000,M
LAS,2024-07-13 13:56,-115.1634,36.0719,663.00,95.00,49.00,21.00,0.00,0.00,0.00,29.96,1011.10,10.00,M,FEW,M,M,M,15000.00,M,M,M,M,M,M,M,M,M,M,91.70,KLAS 131356Z 00000KT 10SM FEW150 35/09 A2996 RMK AO2 SLP111 T03500094 $,M
NFL,2024-07-13 13:56,-118.7010,39.4166,1199.00,81.00,42.00,25.09,260.00,7.00,0.00,30.07,1015.10,10.00,M,CLR,M,M,M,M,M,M,M,M,M,M,M,M,M,M,79.48,KNFL 131356Z AUTO 26007KT 10SM CLR 27/06 A3007 RMK AO2 SLP151 T02720056,M
BVU,2024-07-13 14:15,-114.8611,35.9475,671.00,89.60,51.80,27.56,10.00,5.00,0.00,29.95,M,10.00,M,CLR,M,M,M,M,M,M,M,M,M,M,M,M,M,M,87.00,KBVU 131415Z AUTO 01005KT 10SM CLR 32/11 A2995 RMK AO2,M
CXP,2024-07-13 14:15,-119.7326,39.1923,1431.00,73.40,42.80,33.29,0.00,0.00,0.00,30.17,M,10.00,M,CLR,M,M,M,M,M,M,M,M,M,M,M,M,M,M,73.40,KCXP 131415Z AUTO 00000KT 10SM CLR 23/06 A3017 RMK AO2,M
RTS,2024-07-13 14:15,-119.8764,39.6682,1539.00,66.20,39.20,37.03,330.00,5.00,0.00,30.20,M,10.00,M,CLR,M,M,M,M,M,M,M,M,M,M,M,M,M,M,66.20,KRTS 131415Z AUTO 33005KT 10SM CLR 19/04 A3020 RMK AO2,M
05U,2024-07-13 14:15,-116.0051,39.6042,1811.23,69.80,32.00,24.59,0.00,0.00,0.00,30.29,M,10.00,M,M,M,M,M,M,M,M,M,M,M,M,M,M,M,M,69.80,K05U 131415Z AUTO 00000KT 10SM 21/00 A3029 RMK A01,M
MEV,2024-07-13 14:15,-119.7500,38.9963,1441.42,68.00,44.60,42.85,130.00,7.00,0.00,30.17,M,10.00,M,CLR,M,M,M,M,M,M,M,M,M,M,M,M,M,M,68.00,KMEV 131415Z AUTO 13007KT 10SM CLR 20/07 A3017 RMK AO2,M
HTH,2024-07-13 14:15,-118.6315,38.5448,1282.89,75.20,37.40,25.40,340.00,7.00,0.00,30.13,M,10.00,M,CLR,M,M,M,M,M,M,M,M,M,M,M,M,M,M,75.20,KHTH 131415Z AUTO 34007KT 10SM CLR 24/03 A3013 RMK A01,M
TMT,2024-07-13 14:15,-117.1971,39.4643,1749.34,59.00,38.30,46.07,0.00,0.00,0.00,30.27,M,10.00,M,CLR,M,M,M,M,M,M,M,M,M,M,M,M,M,M,59.00,KTMT 131415Z AUTO 00000KT 10SM CLR 15/04 A3027 RMK AO2 T01510035,M
05U,2024-07-13 14:30,-116.0051,39.6042,1811.23,73.40,32.00,21.76,0.00,0.00,0.00,30.29,M,10.00,M,M,M,M,M,M,M,M,M,M,M,M,M,M,M,M,73.40,K05U 131430Z AUTO 00000KT 10SM 23/00 A3029 RMK A01,M
BVU,2024-07-13 14:35,-114.8611,35.9475,671.00,91.40,50.00,24.37,360.00,5.00,0.00,29.94,M,10.00,M,CLR,M,M,M,M,M,M,M,M,M,M,M,M,M,M,88.36,KBVU 131435Z AUTO 36005KT 10SM CLR 33/10 A2994 RMK AO2,M
CXP,2024-07-13 14:35,-119.7326,39.1923,1431.00,73.40,42.80,33.29,0.00,0.00,0.00,30.17,M,10.00,M,CLR,M,M,M,M,M,M,M,M,M,M,M,M,M,M,73.40,KCXP 131435Z AUTO 00000KT 10SM CLR 23/06 A3017 RMK AO2,M
RTS,2024-07-13 14:35,-119.8764,39.6682,1539.00,66.20,39.20,37.03,0.00,0.00,0.00,30.20,M,10.00,M,CLR,M,M,M,M,M,M,M,M,M,M,M,M,M,M,66.20,KRTS 131435Z AUTO 00000KT 10SM CLR 19/04 A3020 RMK AO2,M
MEV,2024-07-13 14:35,-119.7500,38.9963,1441.42,69.80,46.40,43.13,220.00,5.00,0.00,30.17,M,10.00,M,CLR,M,M,M,M,M,M,M,M,M,M,M,M,M,M,69.80,KMEV 131435Z AUTO 22005KT 10SM CLR 21/08 A3017 RMK AO2,M
HTH,2024-07-13 14:35,-118.6315,38.5448,1282.89,73.40,35.60,25.13,220.00,4.00,0.00,30.14,M,10.00,M,CLR,M,M,M,M,M,M,M,M,M,M,M,M,M,M,73.40,KHTH 131435Z AUTO 22004KT 10SM CLR 23/02 A3014 RMK A01,M
TMT,2024-07-13 14:35,-117.1971,39.4643,1749.34,58.50,39.00,48.21,180.00,3.00,0.00,30.27,M,10.00,M,CLR,M,M,M,M,M,M,M,M,M,M,M,M,M,M,58.50,KTMT 131435Z AUTO 18003KT 10SM CLR 15/04 A3027 RMK AO2 T01470038,M
05U,2024-07-13 14:45,-116.0051,39.6042,1811.23,75.20,32.00,20.49,0.00,0.00,0.00,30.29,M,10.00,M,M,M,M,M,M,M,M,M,M,M,M,M,M,M,M,75.20,K05U 131445Z AUTO 00000KT 10SM 24/00 A3029 RMK A01,M
P68,2024-07-13 14:53,-116.0056,39.6014,1993.00,78.00,33.00,19.43,220.00,4.00,0.00,30.26,1014.30,M,M,M,M,M,M,M,M,M,M,M,M,M,M,M,M,M,78.00,KP68 131453Z AUTO 22004KT 26/01 A3026 RMK AO1 SLP143 T02560006 51009,M
DRA,2024-07-13 14:53,-116.0278,36.6206,1009.00,94.00,45.00,18.62,M,3.00,0.00,30.04,1010.90,10.00,M,CLR,M,M,M,M,M,M,M,M,M,M,M,M,M,M,90.15,KDRA 131453Z AUTO VRB03KT 10SM CLR 34/07 A3004 RMK AO2 SLP109 T03440072 51014,M
ELY,2024-07-13 14:53,-114.8453,39.2950,1909.00,76.00,38.00,25.32,190.00,12.00,0.00,30.32,1015.00,10.00,M,CLR,M,M,M,M,M,M,M,M,M,M,M,M,M,M,76.00,KELY 131453Z AUTO 19012KT 10SM CLR 24/03 A3032 RMK AO2 SLP150 T02440033 51008,M
VGT,2024-07-13 14:53,-115.1933,36.2111,667.00,95.00,47.00,19.48,90.00,3.00,0.00,29.96,1012.90,10.00,M,CLR,M,M,M,M,M,M,M,M,M,M,M,M,M,M,91.37,KVGT 131453Z 09003KT 10SM CLR 35/08 A2996 RMK AO2 SLP129 T03500083 51011,M
LOL,2024-07-13 14:53,-118.5701,40.0684,1192.43,78.00,40.00,25.62,310.00,4.00,0.00,30.09,1013.40,10.00,M,CLR,M,M,M,M,M,M,M,M,M,M,M,M,M,M,78.00,KLOL 131453Z AUTO 31004KT 10SM CLR 26/04 A3009 RMK AO2 SLP134 T02560044 53002,M
BVU,2024-07-13 14:55,-114.8611,35.9475,671.00,95.00,44.60,17.78,0.00,0.00,0.00,29.95,M,10.00,M,CLR,M,M,M,M,M,M,M,M,M,M,M,M,M,M,91.06,KBVU 131455Z AUTO 00000KT 10SM CLR 35/07 A2995 RMK AO2,M
CXP,2024-07-13 14:55,-119.7326,39.1923,1431.00,77.00,44.60,31.62,M,5.00,0.00,30.18,M,10.00,M,CLR,M,M,M,M,M,M,M,M,M,M,M,M,M,M,77.00,KCXP 131455Z AUTO VRB05KT 10SM CLR 25/07 A3018 RMK AO2,M
INS,2024-07-13 14:55,-115.6733,36.5872,955.00,95.00,41.70,15.91,240.00,3.00,0.00,30.02,1009.90,10.00,M,CLR,M,M,M,M,M,M,M,M,M,M,M,M,M,M,90.76,KINS 131455Z AUTO 24003KT 10SM CLR 35/05 A3002 RMK AO2 SLP099 T03500054 52010 $,M
RNO,2024-07-13 14:55,-119.7711,39.4839,1341.00,78.00,43.00,28.77,260.00,5.00,0.00,30.14,1013.90,10.00,M,FEW,SCT,M,M,6000.00,12000.00,M,M,M,M,M,M,M,M,M,78.00,KRNO 131455Z 26005KT 10SM FEW060 SCT120 26/06 A3014 RMK AO2 SLP139 T02560061 53003,M
LSV,2024-07-13 14:55,-115.0343,36.2362,570.00,96.40,41.00,14.84,40.00,5.00,0.00,29.90,1009.00,10.00,M,CLR,M,M,M,M,M,M,M,M,M,M,M,M,M,M,92.01,KLSV 131455Z AUTO 04005KT 10SM CLR 36/05 A2990 RMK AO2 SLP090 T03580051 50007 $,M
RTS,2024-07-13 14:55,-119.8764,39.6682,1539.00,71.60,39.20,30.77,0.00,0.00,0.00,30.20,M,10.00,M,CLR,M,M,M,M,M,M,M,M,M,M,M,M,M,M,71.60,KRTS 131455Z AUTO 00000KT 10SM CLR 22/04 A3020 RMK AO2,M
MEV,2024-07-13 14:55,-119.7500,38.9963,1441.42,68.00,48.20,49.10,220.00,8.00,0.00,30.19,M,10.00,M,CLR,M,M,M,M,M,M,M,M,M,M,M,M,M,M,68.00,KMEV 131455Z AUTO 22008KT 10SM CLR 20/09 A3019 RMK AO2,M
HTH,2024-07-13 14:55,-118.6315,38.5448,1282.89,78.80,35.60,21.00,250.00,9.00,0.00,30.13,M,10.00,M,CLR,M,M,M,M,M,M,M,M,M,M,M,M,M,M,78.80,KHTH 131455Z AUTO 25009KT 10SM CLR 26/02 A3013 RMK A01,M
TMT,2024-07-13 14:55,-117.1971,39.4643,1749.34,62.40,37.60,39.73,290.00,3.00,0.00,30.27,M,10.00,M,CLR,M,M,M,M,M,M,M,M,M,M,M,M,M,M,62.40,KTMT 131455Z AUTO 29003KT 10SM CLR 17/03 A3027 RMK AO2 T01690031,M
EKO,2024-07-13 14:56,-115.7860,40.8242,1367.00,75.00,35.00,23.26,80.00,4.00,0.00,30.20,1015.40,10.00,M,CLR,M,M,M,M,M,M,M,M,M,M,M,M,M,M,75.00,KEKO 131456Z AUTO 08004KT 10SM CLR 24/02 A3020 RMK AO2 SLP154 T02390017 51010,M
WMC,2024-07-13 14:56,-117.8072,40.9019,1315.00,81.00,33.00,17.61,0.00,0.00,0.00,30.13,1013.70,10.00,M,CLR,M,M,M,M,M,M,M,M,M,M,M,M,M,M,79.10,KWMC 131456Z AUTO 00000KT 10SM CLR 27/01 A3013 RMK AO2 SLP137 T02720006 50009,M
HND,2024-07-13 14:56,-115.1344,35.9729,742.79,94.00,51.00,23.33,310.00,3.00,0.00,30.00,1013.70,10.00,M,CLR,M,M,M,M,M,M,M,M,M,M,M,M,M,M,91.08,KHND 131456Z 31003KT 10SM CLR 34/11 A3000 RMK AO2 SLP137 T03440106 51008,M
TPH,2024-07-13 14:56,-117.0904,38.0505,1654.00,79.00,33.00,18.80,270.00,4.00,0.00,30.25,1014.30,10.00,M,CLR,M,M,M,M,M,M,M,M,M,M,M,M,M,M,79.00,KTPH 131456Z AUTO 27004KT 10SM CLR 26/01 A3025 RMK AO2 SLP143 T02610006 53013,M
LAS,2024-07-13 14:56,-115.1634,36.0719,663.00,96.00,52.00,22.76,10.00,4.00,0.00,29.97,1011.20,10.00,M,SCT,M,M,M,15000.00,M,M,M,M,M,M,M,M,M,M,93.34,KLAS 131456Z 01004KT 10SM SCT150 36/11 A2997 RMK AO2 SLP112 T03560111 51006 $,M
05U,2024-07-13 15:00,-116.0051,39.6042,1811.23,80.60,32.00,17.14,0.00,0.00,0.00,30.29,M,10.00,M,M,M,M,M,M,M,M,M,M,M,M,M,M,M,M,78.82,K05U 131500Z AUTO 00000KT 10SM 27/M00 A3029 RMK A01,M
BVU,2024-07-13 15:15,-114.8611,35.9475,671.00,96.80,44.60,16.83,180.00,5.00,0.00,29.96,M,10.00,M,CLR,M,M,M,M,M,M,M,M,M,M,M,M,M,M,92.79,KBVU 131515Z AUTO 18005KT 10SM CLR 36/07 A2996 RMK AO2,M
CXP,2024-07-13 15:15,-119.7326,39.1923,1431.00,77.00,44.60,31.62,200.00,7.00,0.00,30.19,M,10.00,13.00,CLR,M,M,M,M,M,M,M,M,M,M,M,M,M,M,77.00,KCXP 131515Z AUTO 20007G13KT 160V230 10SM CLR 25/07 A3019 RMK AO2,M
RTS,2024-07-13 15:15,-119.8764,39.6682,1539.00,78.80,39.20,24.19,330.00,5.00,0.00,30.20,M,10.00,M,CLR,M,M,M,M,M,M,M,M,M,M,M,M,M,M,78.80,KRTS 131515Z AUTO 33005KT 10SM CLR 26/04 A3020 RMK AO2,M
MEV,2024-07-13 15:15,-119.7500,38.9963,1441.42,71.60,44.60,37.89,260.00,4.00,0.00,30.19,M,10.00,M,CLR,M,M,M,M,M,M,M,M,M,M,M,M,M,M,71.60,KMEV 131515Z AUTO 26004KT 10SM CLR 22/07 A3019 RMK AO2,M
HTH,2024-07-13 15:15,-118.6315,38.5448,1282.89,82.40,35.60,18.67,0.00,0.00,0.00,30.14,M,10.00,M,CLR,M,M,M,M,M,M,M,M,M,M,M,M,M,M,80.08,KHTH 131515Z AUTO 00000KT 10SM CLR 28/02 A3014 RMK A01,M
TMT,2024-07-13 15:15,-117.1971,39.4643,1749.34,65.50,38.00,36.20,0.00,0.00,0.00,30.27,M,10.00,M,CLR,M,M,M,M,M,M,M,M,M,M,M,M,M,M,65.50,KTMT 131515Z AUTO 00000KT 10SM CLR 19/03 A3027 RMK AO2 T01860033,M
05U,2024-07-13 15:25,-116.0051,39.6042,1811.23,84.20,32.00,15.25,0.00,0.00,0.00,30.29,M,10.00,M,M,M,M,M,M,M,M,M,M,M,M,M,M,M,M,81.28,K05U 131525Z AUTO 00000KT 10SM 29/00 A3029 RMK A01,M
HTH,2024-07-13 15:30,-118.6315,38.5448,1282.89,84.20,35.60,17.61,0.00,0.00,0.00,30.14,M,10.00,M,CLR,M,M,M,M,M,M,M,M,M,M,M,M,M,M,81.34,KHTH 131530Z AUTO 00000KT 10SM CLR 29/02 A3014 RMK A01,M
BVU,2024-07-13 15:35,-114.8611,35.9475,671.00,96.80,44.60,16.83,0.00,0.00,0.00,29.96,M,10.00,M,CLR,M,M,M,M,M,M,M,M,M,M,M,M,M,M,92.79,KBVU 131535Z AUTO 00000KT 10SM CLR 36/07 A2996 RMK AO2,M
CXP,2024-07-13 15:35,-119.7326,39.1923,1431.00,77.00,42.80,29.51,200.00,7.00,0.00,30.20,M,10.00,17.00,CLR,M,M,M,M,M,M,M,M,M,M,M,M,M,M,77.00,KCXP 131535Z AUTO 20007G17KT 10SM CLR 25/06 A3020 RMK AO2,M
RTS,2024-07-13 15:35,-119.8764,39.6682,1539.00,82.40,35.60,18.67,320.00,4.00,0.00,30.19,M,10.00,M,CLR,M,M,M,M,M,M,M,M,M,M,M,M,M,M,80.08,KRTS 131535Z AUTO 32004KT 10SM CLR 28/02 A3019 RMK AO2,M
MEV,2024-07-13 15:35,-119.7500,38.9963,1441.42,75.20,42.80,31.34,0.00,0.00,0.00,30.20,M,10.00,M,CLR,M,M,M,M,M,M,M,M,M,M,M,M,M,M,75.20,KMEV 131535Z AUTO 00000KT 10SM CLR 24/06 A3020 RMK AO2,M
TMT,2024-07-13 15:35,-117.1971,39.4643,1749.34,68.00,37.20,32.17,0.00,0.00,0.00,30.27,M,10.00,M,CLR,M,M,M,M,M,M,M,M,M,M,M,M,M,M,68.00,KTMT 131535Z AUTO 00000KT 10SM CLR 20/03 A3027 RMK AO2 T02010029,M
05U,2024-07-13 15:50,-116.0051,39.6042,1811.23,86.00,33.80,15.48,0.00,0.00,0.00,30.29,M,10.00,M,M,M,M,M,M,M,M,M,M,M,M,M,M,M,M,82.66,K05U 131550Z AUTO 00000KT 10SM 30/01 A3029 RMK A01,M
P68,2024-07-13 15:53,-116.0056,39.6014,1993.00,84.00,34.00,16.63,110.00,4.00,0.00,30.26,1014.20,M,M,M,M,M,M,M,M,M,M,M,M,M,M,M,M,M,81.16,KP68 131553Z AUTO 11004KT 29/01 A3026 RMK AO1 SLP142 T02890011,M
DRA,2024-07-13 15:53,-116.0278,36.6206,1009.00,97.00,46.00,17.64,0.00,0.00,0.00,30.05,1011.00,10.00,M,CLR,M,M,M,M,M,M,M,M,M,M,M,M,M,M,93.19,KDRA 131553Z AUTO 00000KT 10SM CLR 36/08 A3005 RMK AO2 SLP110 T03610078,M
ELY,2024-07-13 15:53,-114.8453,39.2950,1909.00,81.00,39.00,22.33,230.00,12.00,0.00,30.34,1015.20,10.00,M,CLR,M,M,M,M,M,M,M,M,M,M,M,M,M,M,79.33,KELY 131553Z AUTO 23012KT 10SM CLR 27/04 A3034 RMK AO2 SLP152 T02720039,M
VGT,2024-07-13 15:53,-115.1933,36.2111,667.00,98.00,48.00,18.45,230.00,4.00,0.00,29.95,1012.40,10.00,M,CLR,M,M,M,M,M,M,M,M,M,M,M,M,M,M,94.53,KVGT 131553Z 23004KT 10SM CLR 37/09 A2995 RMK AO2 SLP124 T03670089,M
LOL,2024-07-13 15:53,-118.5701,40.0684,1192.43,88.00,37.00,16.49,0.00,0.00,0.00,30.08,1013.00,10.00,M,CLR,M,M,M,M,M,M,M,M,M,M,M,M,M,M,84.32,KLOL 131553Z AUTO 00000KT 10SM CLR 31/03 A3008 RMK AO2 SLP130 T03110028,M
BVU,2024-07-13 15:55,-114.8611,35.9475,671.00,98.60,44.60,15.93,M,4.00,0.00,29.96,M,10.00,M,CLR,M,M,M,M,M,M,M,M,M,M,M,M,M,M,94.55,KBVU 131555Z AUTO VRB04KT 10SM CLR 37/07 A2996 RMK AO2,M
CXP,2024-07-13 15:55,-119.7326,39.1923,1431.00,77.00,41.00,27.53,0.00,0.00,0.00,30.21,M,10.00,M,CLR,M,M,M,M,M,M,M,M,M,M,M,M,M,M,77.00,KCXP 131555Z AUTO 00000KT 10SM CLR 25/05 A3021 RMK AO2,M
INS,2024-07-13 15:55,-115.6733,36.5872,955.00,98.40,42.80,14.96,150.00,10.00,0.00,30.03,1010.10,10.00,M,CLR,M,M,M,M,M,M,M,M,M,M,M,M,M,M,94.11,KINS 131555Z AUTO 15010KT 10SM CLR 37/06 A3003 RMK AO2 SLP101 T03690060 $,M
RNO,2024-07-13 15:55,-119.7711,39.4839,1341.00,82.00,42.00,24.29,0.00,0.00,0.00,30.14,1013.80,10.00,M,SCT,BKN,M,M,7000.00,11000.00,M,M,M,M,M,M,M,M,M,80.09,KRNO 131555Z 00000KT 10SM SCT070 BKN110 28/06 A3014 RMK AO2 SLP138 T02780056,M
RTS,2024-07-13 15:55,-119.8764,39.6682,1539.00,84.20,35.60,17.61,300.00,4.00,0.00,30.19,M,10.00,M,CLR,M,M,M,M,M,M,M,M,M,M,M,M,M,M,81.34,KRTS 131555Z AUTO 30004KT 10SM CLR 29/02 A3019 RMK AO2,M
MEV,2024-07-13 15:55,-119.7500,38.9963,1441.42,73.40,46.40,38.18,70.00,6.00,0.00,30.20,M,10.00,M,CLR,M,M,M,M,M,M,M,M,M,M,M,M,M,M,73.40,KMEV 131555Z AUTO 07006KT 10SM CLR 23/08 A3020 RMK AO2,M
HTH,2024-07-13 15:55,-118.6315,38.5448,1282.89,84.20,35.60,17.61,0.00,0.00,0.00,30.14,M,10.00,M,CLR,M,M,M,M,M,M,M,M,M,M,M,M,M,M,81.34,KHTH 131555Z AUTO 00000KT 10SM CLR 29/02 A3014 RMK A01,M
TMT,2024-07-13 15:55,-117.1971,39.4643,1749.34,74.30,38.70,27.55,130.00,3.00,0.00,30.27,M,10.00,M,CLR,M,M,M,M,M,M,M,M,M,M,M,M,M,M,74.30,KTMT 131555Z AUTO 13003KT 10SM CLR 24/04 A3027 RMK AO2 T02350037,M
LSV,2024-07-13 15:55,-115.0343,36.2362,570.00,100.00,42.30,13.98,180.00,4.00,0.00,29.90,1009.00,10.00,M,CLR,M,M,M,M,M,M,M,M,M,M,M,M,M,M,95.58,KLSV 131555Z AUTO 18004KT 10SM CLR 38/06 A2990 RMK AO2 SLP090 T03780057 $,M
EKO,2024-07-13 15:56,-115.7860,40.8242,1367.00,82.00,36.00,19.21,0.00,0.00,0.00,30.20,1014.90,10.00,M,CLR,M,M,M,M,M,M,M,M,M,M,M,M,M,M,79.83,KEKO 131556Z AUTO 00000KT 10SM CLR 28/02 A3020 RMK AO2 SLP149 T02780022,M
WMC,2024-07-13 15:56,-117.8072,40.9019,1315.00,87.00,31.00,13.39,M,5.00,0.00,30.14,1014.20,10.00,M,CLR,M,M,M,M,M,M,M,M,M,M,M,M,M,M,83.43,KWMC 131556Z AUTO VRB05KT 10SM CLR 31/M01 A3014 RMK AO2 SLP142 T03061006,M
HND,2024-07-13 15:56,-115.1344,35.9729,742.79,98.00,53.00,22.21,0.00,0.00,0.00,30.00,1013.70,10.00,M,CLR,M,M,M,M,M,M,M,M,M,M,M,M,M,M,95.69,KHND 131556Z 00000KT 10SM CLR 37/12 A3000 RMK AO2 SLP137 T03670117,M
TPH,2024-07-13 15:56,-117.0904,38.0505,1654.00,86.00,36.00,16.89,0.00,0.00,0.00,30.25,1013.20,10.00,M,CLR,M,M,M,M,M,M,M,M,M,M,M,M,M,M,82.70,KTPH 131556Z AUTO 00000KT 10SM CLR 30/02 A3025 RMK AO2 SLP132 T03000022,M
LAS,2024-07-13 15:56,-115.1634,36.0719,663.00,100.00,52.00,20.15,M,4.00,0.00,29.97,1011.30,10.00,M,SCT,M,M,M,15000.00,M,M,M,M,M,M,M,M,M,M,97.53,KLAS 131556Z VRB04KT 10SM SCT150 38/11 A2997 RMK AO2 SLP113 T03780111 $,M
05U,2024-07-13 16:10,-116.0051,39.6042,1811.23,86.00,33.80,15.48,0.00,0.00,0.00,30.29,M,10.00,M,M,M,M,M,M,M,M,M,M,M,M,M,M,M,M,82.66,K05U 131610Z AUTO 00000KT 10SM 30/01 A3029 RMK A01,M
BVU,2024-07-13 16:15,-114.8611,35.9475,671.00,100.40,48.20,17.28,140.00,11.00,0.00,29.96,M,10.00,M,CLR,M,M,M,M,M,M,M,M,M,M,M,M,M,M,97.00,KBVU 131615Z AUTO 14011KT 10SM CLR 38/09 A2996 RMK AO2,M
CXP,2024-07-13 16:15,-119.7326,39.1923,1431.00,78.80,41.00,25.95,40.00,5.00,0.00,30.21,M,10.00,M,CLR,M,M,M,M,M,M,M,M,M,M,M,M,M,M,78.80,KCXP 131615Z AUTO 04005KT 10SM CLR 26/05 A3021 RMK AO2,M
RTS,2024-07-13 16:15,-119.8764,39.6682,1539.00,84.20,33.80,16.39,0.00,0.00,0.00,30.20,M,10.00,M,CLR,M,M,M,M,M,M,M,M,M,M,M,M,M,M,81.30,KRTS 131615Z AUTO 00000KT 10SM CLR 29/01 A3020 RMK AO2,M
MEV,2024-07-13 16:15,-119.7500,38.9963,1441.42,75.20,48.20,38.46,220.00,5.00,0.00,30.21,M,10.00,M,CLR,M,M,M,M,M,M,M,M,M,M,M,M,M,M,75.20,KMEV 131615Z AUTO 22005KT 10SM CLR 24/09 A3021 RMK AO2,M
HTH,2024-07-13 16:15,-118.6315,38.5448,1282.89,87.80,33.80,14.61,30.00,3.00,0.00,30.14,M,10.00,M,CLR,M,M,M,M,M,M,M,M,M,M,M,M,M,M,84.10,KHTH 131615Z AUTO 03003KT 10SM CLR 31/01 A3014 RMK A01,M
TMT,2024-07-13 16:15,-117.1971,39.4643,1749.34,77.40,38.50,24.65,0.00,0.00,0.00,30.26,M,10.00,M,CLR,M,M,M,M,M,M,M,M,M,M,M,M,M,M,77.40,KTMT 131615Z AUTO 00000KT 10SM CLR 25/04 A3026 RMK AO2 T02520036,M
05U,2024-07-13 16:30,-116.0051,39.6042,1811.23,87.80,33.80,14.61,0.00,0.00,0.00,30.29,M,10.00,M,M,M,M,M,M,M,M,M,M,M,M,M,M,M,M,84.10,K05U 131630Z AUTO 00000KT 10SM 31/01 A3029 RMK A01,M
BVU,2024-07-13 16:35,-114.8611,35.9475,671.00,102.20,48.20,16.37,160.00,11.00,0.00,29.96,M,10.00,M,CLR,M,M,M,M,M,M,M,M,M,M,M,M,M,M,98.83,KBVU 131635Z AUTO 16011KT 10SM CLR 39/09 A2996 RMK AO2,M
CXP,2024-07-13 16:35,-119.7326,39.1923,1431.00,80.60,39.20,22.81,M,3.00,0.00,30.21,M,10.00,M,CLR,M,M,M,M,M,M,M,M,M,M,M,M,M,M,79.10,KCXP 131635Z AUTO VRB03KT 10SM CLR 27/04 A3021 RMK AO2,M
RTS,2024-07-13 16:35,-119.8764,39.6682,1539.00,82.40,41.00,23.07,160.00,10.00,0.00,30.22,M,10.00,M,CLR,M,M,M,M,M,M,M,M,M,M,M,M,M,M,80.29,KRTS 131635Z AUTO 16010KT 10SM CLR 28/05 A3022 RMK AO2,M
MEV,2024-07-13 16:35,-119.7500,38.9963,1441.42,75.20,46.40,35.94,100.00,4.00,0.00,30.21,M,10.00,M,CLR,M,M,M,M,M,M,M,M,M,M,M,M,M,M,75.20,KMEV 131635Z AUTO 10004KT 10SM CLR 24/08 A3021 RMK AO2,M
HTH,2024-07-13 16:35,-118.6315,38.5448,1282.89,89.60,32.00,12.84,0.00,0.00,0.00,30.14,M,10.00,M,CLR,M,M,M,M,M,M,M,M,M,M,M,M,M,M,85.54,KHTH 131635Z AUTO 00000KT 10SM CLR 32/00 A3014 RMK A01,M
TMT,2024-07-13 16:35,-117.1971,39.4643,1749.34,81.00,37.60,21.14,300.00,3.00,0.00,30.25,M,10.00,M,CLR,M,M,M,M,M,M,M,M,M,M,M,M,M,M,79.26,KTMT 131635Z AUTO 30003KT 10SM CLR 27/03 A3025 RMK AO2 T02730031,M
05U,2024-07-13 16:45,-116.0051,39.6042,1811.23,87.80,33.80,14.61,0.00,0.00,0.00,30.28,M,10.00,M,M,M,M,M,M,M,M,M,M,M,M,M,M,M,M,84.10,K05U 131645Z AUTO 00000KT 10SM 31/01 A3028 RMK A01,M
P68,2024-07-13 16:53,-116.0056,39.6014,1993.00,87.00,35.00,15.72,200.00,8.00,0.00,30.26,1013.80,M,M,M,M,M,M,M,M,M,M,M,M,M,M,M,M,M,83.47,KP68 131653Z AUTO 20008KT 31/02 A3026 RMK AO1 SLP138 T03060017,M
DRA,2024-07-13 16:53,-116.0278,36.6206,1009.00,99.00,48.00,17.90,M,3.00,0.00,30.04,1010.50,10.00,M,CLR,M,M,M,M,M,M,M,M,M,M,M,M,M,M,95.54,KDRA 131653Z AUTO VRB03KT 10SM CLR 37/09 A3004 RMK AO2 SLP105 T03720089,M
ELY,2024-07-13 16:53,-114.8453,39.2950,1909.00,85.00,36.00,17.44,240.00,8.00,0.00,30.33,1014.50,10.00,18.00,FEW,M,M,M,11000.00,M,M,M,M,M,M,M,M,M,M,81.93,KELY 131653Z AUTO 24008G18KT 10SM FEW110 29/02 A3033 RMK AO2 SLP145 T02940022,M
VGT,2024-07-13 16:53,-115.1933,36.2111,667.00,102.00,50.00,17.62,100.00,10.00,0.00,29.96,1012.50,10.00,M,CLR,M,M,M,M,M,M,M,M,M,M,M,M,M,M,99.07,KVGT 131653Z 10010KT 10SM CLR 39/10 A2996 RMK AO2 SLP125 T03890100,M
LOL,2024-07-13 16:53,-118.5701,40.0684,1192.43,93.00,40.00,15.85,0.00,0.00,0.00,30.07,1012.50,10.00,M,CLR,M,M,M,M,M,M,M,M,M,M,M,M,M,M,88.78,KLOL 131653Z AUTO 00000KT 10SM CLR 34/04 A3007 RMK AO2 SLP125 T03390044,M
BVU,2024-07-13 16:55,-114.8611,35.9475,671.00,102.20,48.20,16.37,160.00,11.00,0.00,29.96,M,10.00,16.00,CLR,M,M,M,M,M,M,M,M,M,M,M,M,M,M,98.83,KBVU 131655Z AUTO 16011G16KT 10SM CLR 39/09 A2996 RMK AO2,M
CXP,2024-07-13 16:55,-119.7326,39.1923,1431.00,80.60,39.20,22.81,M,6.00,0.00,30.22,M,10.00,13.00,CLR,M,M,M,M,M,M,M,M,M,M,M,M,M,M,79.10,KCXP 131655Z AUTO VRB06G13KT 10SM CLR 27/04 A3022 RMK AO2,M
INS,2024-07-13 16:55,-115.6733,36.5872,955.00,99.00,41.50,13.97,10.00,3.00,0.00,30.01,1009.50,10.00,M,CLR,M,M,M,M,M,M,M,M,M,M,M,M,M,M,94.53,KINS 131655Z AUTO 01003KT 10SM CLR 37/05 A3001 RMK AO2 SLP095 T03730053 $,M
RNO,2024-07-13 16:55,-119.7711,39.4839,1341.00,85.00,43.00,22.91,10.00,3.00,0.00,30.16,1014.00,10.00,M,BKN,BKN,M,M,7000.00,11000.00,M,M,M,M,M,M,M,M,M,82.21,KRNO 131655Z 01003KT 10SM BKN070 BKN110 29/06 A3016 RMK AO2 SLP140 VIRGA T02940061,M
LSV,2024-07-13 16:55,-115.0343,36.2362,570.00,102.60,42.30,12.93,110.00,6.00,0.00,29.91,1009.30,10.00,M,CLR,M,M,M,M,M,M,M,M,M,M,M,M,M,M,98.05,KLSV 131655Z AUTO 11006KT 10SM CLR 39/06 A2991 RMK AO2 SLP093 T03920057 $,M
RTS,2024-07-13 16:55,-119.8764,39.6682,1539.00,82.40,39.20,21.51,140.00,4.00,0.00,30.22,M,10.00,M,CLR,M,M,M,M,M,M,M,M,M,M,M,M,M,M,80.21,KRTS 131655Z AUTO 14004KT 10SM CLR 28/04 A3022 RMK AO2,M
MEV,2024-07-13 16:55,-119.7500,38.9963,1441.42,77.00,46.40,33.85,280.00,5.00,0.00,30.20,M,9.00,M,CLR,M,M,M,M,M,M,M,M,M,M,M,M,M,M,77.00,KMEV 131655Z AUTO 28005KT 9SM CLR 25/08 A3020 RMK AO2,M
HTH,2024-07-13 16:55,-118.6315,38.5448,1282.89,89.60,32.00,12.84,0.00,0.00,0.00,30.14,M,10.00,M,CLR,M,M,M,M,M,M,M,M,M,M,M,M,M,M,85.54,KHTH 131655Z AUTO 00000KT 10SM CLR 32/00 A3014 RMK A01,M
TMT,2024-07-13 16:55,-117.1971,39.4643,1749.34,83.30,36.50,18.79,250.00,3.00,0.00,30.25,M,10.00,M,CLR,M,M,M,M,M,M,M,M,M,M,M,M,M,M,80.72,KTMT 131655Z AUTO 25003KT 10SM CLR 29/03 A3025 RMK AO2 T02850025,M
EKO,2024-07-13 16:56,-115.7860,40.8242,1367.00,90.00,35.00,14.30,0.00,0.00,0.00,30.19,1014.10,10.00,M,CLR,M,M,M,M,M,M,M,M,M,M,M,M,M,M,85.95,KEKO 131656Z AUTO 00000KT 10SM CLR 32/02 A3019 RMK AO2 SLP141 T03220017,M
WMC,2024-07-13 16:56,-117.8072,40.9019,1315.00,93.00,31.00,11.09,M,5.00,0.00,30.12,1013.40,10.00,M,CLR,M,M,M,M,M,M,M,M,M,M,M,M,M,M,88.03,KWMC 131656Z AUTO VRB05KT 10SM CLR 34/M01 A3012 RMK AO2 SLP134 T03391006,M
NFL,2024-07-13 16:56,-118.7010,39.4166,1199.00,93.00,38.00,14.66,200.00,5.00,0.00,30.08,1015.50,10.00,M,CLR,M,M,M,M,M,M,M,M,M,M,M,M,M,M,88.68,KNFL 131656Z AUTO 20005KT 10SM CLR 34/03 A3008 RMK AO2 SLP155 T03390033,M
HND,2024-07-13 16:56,-115.1344,35.9729,742.79,102.00,53.00,19.68,90.00,3.00,0.00,30.00,1013.40,10.00,M,CLR,M,M,M,M,M,M,M,M,M,M,M,M,M,M,99.96,KHND 131656Z 09003KT 10SM CLR 39/12 A3000 RMK AO2 SLP134 T03890117,M
TPH,2024-07-13 16:56,-117.0904,38.0505,1654.00,90.00,39.00,16.74,180.00,6.00,0.00,30.24,1012.80,10.00,M,CLR,M,M,M,M,M,M,M,M,M,M,M,M,M,M,86.07,KTPH 131656Z AUTO 18006KT 10SM CLR 32/04 A3024 RMK AO2 SLP128 T03220039,M
LAS,2024-07-13 16:56,-115.1634,36.0719,663.00,104.00,51.00,17.22,70.00,8.00,0.00,29.97,1011.20,10.00,M,SCT,M,M,M,15000.00,M,M,M,M,M,M,M,M,M,M,101.44,KLAS 131656Z 07008KT 10SM SCT150 40/11 A2997 RMK AO2 SLP112 T04000106 $,M
05U,2024-07-13 17:05,-116.0051,39.6042,1811.23,89.60,35.60,14.83,330.00,14.00,0.00,30.29,M,10.00,M,M,M,M,M,M,M,M,M,M,M,M,M,M,M,M,85.62,K05U 131705Z AUTO 33014KT 10SM 32/02 A3029 RMK A01,M
BVU,2024-07-13 17:15,-114.8611,35.9475,671.00,104.00,48.20,15.52,150.00,15.00,0.00,29.96,M,10.00,M,CLR,M,M,M,M,M,M,M,M,M,M,M,M,M,M,100.65,KBVU 131715Z AUTO 15015KT 10SM CLR 40/09 A2996 RMK AO2,M
CXP,2024-07-13 17:15,-119.7326,39.1923,1431.00,80.60,39.20,22.81,0.00,0.00,0.00,30.21,M,10.00,M,CLR,M,M,M,M,M,M,M,M,M,M,M,M,M,M,79.10,KCXP 131715Z AUTO 00000KT 10SM CLR 27/04 A3021 RMK AO2,M
RTS,2024-07-13 17:15,-119.8764,39.6682,1539.00,84.20,33.80,16.39,0.00,0.00,0.00,30.21,M,10.00,M,CLR,M,M,M,M,M,M,M,M,M,M,M,M,M,M,81.30,KRTS 131715Z AUTO 00000KT 10SM CLR 29/01 A3021 RMK AO2,M
MEV,2024-07-13 17:15,-119.7500,38.9963,1441.42,77.00,44.60,31.62,360.00,8.00,0.00,30.19,M,10.00,M,CLR,M,M,M,M,M,M,M,M,M,M,M,M,M,M,77.00,KMEV 131715Z AUTO 36008KT 10SM CLR 25/07 A3019 RMK AO2,M
HTH,2024-07-13 17:15,-118.6315,38.5448,1282.89,89.60,32.00,12.84,0.00,0.00,0.00,30.13,M,9.00,M,CLR,M,M,M,M,M,M,M,M,M,M,M,M,M,M,85.54,KHTH 131715Z AUTO 00000KT 9SM CLR 32/00 A3013 RMK A01,M
TMT,2024-07-13 17:15,-117.1971,39.4643,1749.34,86.50,35.60,16.36,0.00,0.00,0.00,30.25,M,10.00,M,CLR,M,M,M,M,M,M,M,M,M,M,M,M,M,M,83.08,KTMT 131715Z AUTO 00000KT 10SM CLR 30/02 A3025 RMK AO2 T03030020,M
05U,2024-07-13 17:30,-116.0051,39.6042,1811.23,95.00,37.40,13.46,340.00,15.00,0.00,30.29,M,9.00,M,M,M,M,M,M,M,M,M,M,M,M,M,M,M,M,90.46,K05U 131730Z AUTO 34015KT 9SM 35/03 A3029 RMK A01,M
BVU,2024-07-13 17:35,-114.8611,35.9475,671.00,100.40,48.20,17.28,140.00,14.00,0.00,29.97,M,10.00,19.00,CLR,M,M,M,M,M,M,M,VCTS,M,M,M,M,M,M,97.00,KBVU 131735Z AUTO 14014G19KT 10SM VCTS CLR 38/09 A2997 RMK AO2 LTG DSNT SE,M
CXP,2024-07-13 17:35,-119.7326,39.1923,1431.00,82.40,39.20,21.51,M,3.00,0.00,30.20,M,10.00,M,CLR,M,M,M,M,M,M,M,M,M,M,M,M,M,M,80.21,KCXP 131735Z AUTO VRB03KT 10SM CLR 28/04 A3020 RMK AO2,M
RTS,2024-07-13 17:35,-119.8764,39.6682,1539.00,86.00,35.60,16.63,0.00,0.00,0.00,30.21,M,10.00,M,CLR,M,M,M,M,M,M,M,M,M,M,M,M,M,M,82.69,KRTS 131735Z AUTO 00000KT 10SM CLR 30/02 A3021 RMK AO2,M
MEV,2024-07-13 17:35,-119.7500,38.9963,1441.42,78.80,44.60,29.79,50.00,6.00,0.00,30.19,M,10.00,M,CLR,M,M,M,M,M,M,M,M,M,M,M,M,M,M,78.80,KMEV 131735Z AUTO 05006KT 10SM CLR 26/07 A3019 RMK AO2,M
HTH,2024-07-13 17:35,-118.6315,38.5448,1282.89,93.20,32.00,11.48,350.00,3.00,0.00,30.13,M,2.00,M,CLR,M,M,M,M,M,M,M,HZ,M,M,M,M,M,M,88.31,KHTH 131735Z AUTO 35003KT 2SM HZ CLR 34/M00 A3013 RMK A01,M
TMT,2024-07-13 17:35,-117.1971,39.4643,1749.34,88.70,36.00,15.50,240.00,3.00,0.00,30.25,M,10.00,M,CLR,M,M,M,M,M,M,M,M,M,M,M,M,M,M,84.87,KTMT 131735Z AUTO 24003KT 10SM CLR 32/02 A3025 RMK AO2 T03150022,M
05U,2024-07-13 17:50,-116.0051,39.6042,1811.23,95.00,35.60,12.53,330.00,12.00,0.00,30.29,M,10.00,17.00,M,M,M,M,M,M,M,M,M,M,M,M,M,M,M,90.25,K05U 131750Z AUTO 33012G17KT 10SM 35/02 A3029 RMK A01,M
P68,2024-07-13 17:53,-116.0056,39.6014,1993.00,92.00,35.00,13.43,180.00,18.00,0.00,30.26,1013.40,M,24.00,M,M,M,M,M,M,M,M,M,M,M,M,M,M,M,87.68,KP68 131753Z AUTO 18018G24KT 33/02 A3026 RMK AO1 SLP134 T03330017 10333 20172 56002,M
DRA,2024-07-13 17:53,-116.0278,36.6206,1009.00,102.00,50.00,17.62,280.00,11.00,0.00,30.03,1010.40,10.00,16.00,CLR,M,M,M,M,M,M,M,M,M,M,M,M,M,M,99.07,KDRA 131753Z AUTO 28011G16KT 10SM CLR 39/10 A3003 RMK AO2 SLP104 T03890100 10389 20278 58004,M
ELY,2024-07-13 17:53,-114.8453,39.2950,1909.00,88.00,37.00,16.49,M,M,0.00,30.31,1013.70,10.00,M,CLR,M,M,M,M,M,M,M,M,M,M,M,M,M,M,84.32,KELY 131753Z AUTO 10SM CLR 31/03 A3031 RMK AO2 SLP137 T03110028 10311 20172 58002,M
VGT,2024-07-13 17:53,-115.1933,36.2111,667.00,105.00,51.00,16.72,100.00,7.00,0.00,29.96,1012.60,10.00,M,CLR,M,M,M,M,M,M,M,M,M,M,M,M,M,M,102.47,KVGT 131753Z 10007KT 10SM CLR 41/11 A2996 RMK AO2 SLP126 T04060106 10406 20328 55001,M
LOL,2024-07-13 17:53,-118.5701,40.0684,1192.43,97.00,43.00,15.73,130.00,6.00,0.00,30.07,1012.30,10.00,M,CLR,M,M,M,M,M,M,M,M,M,M,M,M,M,M,92.79,KLOL 131753Z AUTO 13006KT 10SM CLR 36/06 A3007 RMK AO2 SLP123 T03610061 10367 20200 57006,M
BVU,2024-07-13 17:55,-114.8611,35.9475,671.00,100.40,50.00,18.48,140.00,18.00,0.00,29.99,M,10.00,M,CLR,M,M,M,M,M,M,M,M,M,M,M,M,M,M,97.42,KBVU 131755Z AUTO 14018KT 10SM CLR 38/10 A2999 RMK AO2 LTG DSNT SE,M
CXP,2024-07-13 17:55,-119.7326,39.1923,1431.00,86.00,39.20,19.15,0.00,0.00,0.00,30.19,M,10.00,M,CLR,M,M,M,M,M,M,M,M,M,M,M,M,M,M,82.79,KCXP 131755Z AUTO 00000KT 10SM CLR 30/04 A3019 RMK AO2,M
INS,2024-07-13 17:55,-115.6733,36.5872,955.00,102.60,40.30,11.97,90.00,5.00,0.00,30.01,1009.50,10.00,M,FEW,M,M,M,18000.00,M,M,M,M,M,M,M,M,M,M,97.57,KINS 131755Z AUTO 09005KT 10SM FEW180 39/05 A3001 RMK AO2 SLP095 T03920046 10393 20313 58004 $,M
RNO,2024-07-13 17:55,-119.7711,39.4839,1341.00,91.00,43.00,18.94,M,4.00,0.00,30.15,1013.50,10.00,M,SCT,BKN,M,M,5000.00,10000.00,M,M,M,M,M,M,M,M,M,87.18,KRNO 131755Z VRB04KT 10SM SCT050 BKN100 33/06 A3015 RMK AO2 SLP135 T03280061 10328 20239 50002,M
LSV,2024-07-13 17:55,-115.0343,36.2362,570.00,105.40,42.40,11.94,110.00,13.00,0.00,29.91,1009.30,10.00,18.00,FEW,M,M,M,21000.00,M,M,M,M,M,M,M,M,M,M,100.56,KLSV 131755Z AUTO 11013G18KT 10SM FEW210 41/06 A2991 RMK AO2 SLP093 T04080058 10410 20318 51002 $,M
RTS,2024-07-13 17:55,-119.8764,39.6682,1539.00,89.60,33.80,13.80,0.00,0.00,0.00,30.21,M,10.00,M,CLR,M,M,M,M,M,M,M,M,M,M,M,M,M,M,85.59,KRTS 131755Z AUTO 00000KT 10SM CLR 32/01 A3021 RMK AO2,M
MEV,2024-07-13 17:55,-119.7500,38.9963,1441.42,86.00,41.00,20.54,M,6.00,0.00,30.18,M,10.00,M,CLR,M,M,M,M,M,M,M,M,M,M,M,M,M,M,82.86,KMEV 131755Z AUTO VRB06KT 10SM CLR 30/05 A3018 RMK AO2,M
HTH,2024-07-13 17:55,-118.6315,38.5448,1282.89,95.00,30.20,10.09,360.00,7.00,0.00,30.12,M,5.00,M,CLR,M,M,M,M,M,M,M,HZ,M,M,M,M,M,M,89.48,KHTH 131755Z AUTO 36007KT 5SM HZ CLR 35/M01 A3012 RMK A01,M
TMT,2024-07-13 17:55,-117.1971,39.4643,1749.34,91.60,37.00,14.72,0.00,0.00,0.00,30.24,M,7.00,M,CLR,M,M,M,M,M,M,M,M,M,M,M,M,M,M,87.39,KTMT 131755Z AUTO 00000KT 7SM CLR 33/03 A3024 RMK AO2 T03310028 10331 20112,M
EKO,2024-07-13 17:56,-115.7860,40.8242,1367.00,95.00,36.00,12.73,0.00,0.00,0.00,30.18,1014.00,10.00,M,CLR,M,M,M,M,M,M,M,M,M,M,M,M,M,M,90.32,KEKO 131756Z AUTO 00000KT 10SM CLR 35/02 A3018 RMK AO2 SLP140 T03500022 10350 20189 58006,M
WMC,2024-07-13 17:56,-117.8072,40.9019,1315.00,98.00,29.00,8.77,30.00,6.00,0.00,30.11,1012.90,10.00,M,CLR,M,M,M,M,M,M,M,M,M,M,M,M,M,M,91.82,KWMC 131756Z AUTO 03006KT 10SM CLR 37/M02 A3011 RMK AO2 SLP129 T03671017 10367 20172 58006,M
HND,2024-07-13 17:56,-115.1344,35.9729,742.79,105.00,53.00,18.00,140.00,11.00,0.00,30.01,1013.70,10.00,M,CLR,M,M,M,M,M,M,M,M,M,M,M,M,M,M,103.16,KHND 131756Z 14011KT 10SM CLR 41/12 A3001 RMK AO2 SLP137 T04060117 10411 20306 53002,M
TPH,2024-07-13 17:56,-117.0904,38.0505,1654.00,91.00,38.00,15.60,M,M,0.00,30.23,1012.70,10.00,M,CLR,M,M,M,M,M,M,M,M,M,M,M,M,M,M,86.90,KTPH 131756Z AUTO 10SM CLR 33/03 A3023 RMK AO2 SLP127 T03280033 10333 20200 58003,M
LAS,2024-07-13 17:56,-115.1634,36.0719,663.00,106.00,50.00,15.64,110.00,8.00,0.00,29.97,1011.20,10.00,15.00,SCT,M,M,M,15000.00,M,M,M,M,M,M,M,M,M,M,103.18,KLAS 131756Z 11008G15KT 10SM SCT150 41/10 A2997 RMK AO2 SLP112 SH DSNT SE-S T04110100 10417 20333 51002 $,M
05U,2024-07-13 18:10,-116.0051,39.6042,1811.23,95.00,35.60,12.53,330.00,13.00,0.00,30.28,M,10.00,19.00,M,M,M,M,M,M,M,M,M,M,M,M,M,M,M,90.25,K05U 131810Z AUTO 33013G19KT 10SM 35/02 A3028 RMK A01,M
BVU,2024-07-13 18:15,-114.8611,35.9475,671.00,100.40,50.00,18.48,150.00,17.00,0.00,29.99,M,10.00,24.00,CLR,M,M,M,M,M,M,M,M,M,M,M,M,M,M,97.42,KBVU 131815Z AUTO 15017G24KT 10SM CLR 38/10 A2999 RMK AO2 LTG DSNT SE AND S,M
CXP,2024-07-13 18:15,-119.7326,39.1923,1431.00,89.60,37.40,15.92,M,4.00,0.00,30.19,M,10.00,M,CLR,M,M,M,M,M,M,M,M,M,M,M,M,M,M,85.67,KCXP 131815Z AUTO VRB04KT 10SM CLR 32/03 A3019 RMK AO2,M
RTS,2024-07-13 18:15,-119.8764,39.6682,1539.00,89.60,33.80,13.80,M,4.00,0.00,30.21,M,10.00,M,CLR,M,M,M,M,M,M,M,M,M,M,M,M,M,M,85.59,KRTS 131815Z AUTO VRB04KT 10SM CLR 32/01 A3021 RMK AO2,M
MEV,2024-07-13 18:15,-119.7500,38.9963,1441.42,89.60,39.20,17.09,M,4.00,0.00,30.18,M,10.00,M,CLR,M,M,M,M,M,M,M,M,M,M,M,M,M,M,85.73,KMEV 131815Z AUTO VRB04KT 10SM CLR 32/04 A3018 RMK AO2,M
HTH,2024-07-13 18:15,-118.6315,38.5448,1282.89,95.00,30.20,10.09,20.00,4.00,0.00,30.11,M,4.00,11.00,CLR,M,M,M,M,M,M,M,HZ,M,M,M,M,M,M,89.48,KHTH 131815Z AUTO 02004G11KT 4SM HZ CLR 35/M01 A3011 RMK A01,M
TMT,2024-07-13 18:15,-117.1971,39.4643,1749.34,91.60,35.80,14.04,220.00,3.00,0.00,30.24,M,10.00,14.00,CLR,M,M,M,M,M,M,M,M,M,M,M,M,M,M,87.35,KTMT 131815Z AUTO 22003G14KT 10SM CLR 33/02 A3024 RMK AO2 T03310021,M
05U,2024-07-13 18:25,-116.0051,39.6042,1811.23,96.80,35.60,11.86,340.00,10.00,0.00,30.28,M,10.00,19.00,M,M,M,M,M,M,M,M,M,M,M,M,M,M,M,91.72,K05U 131825Z AUTO 34010G19KT 300V010 10SM 36/02 A3028 RMK A01,M
BVU,2024-07-13 18:35,-114.8611,35.9475,671.00,100.40,50.00,18.48,150.00,17.00,0.00,29.99,M,10.00,23.00,CLR,M,M,M,M,M,M,M,M,M,M,M,M,M,M,97.42,KBVU 131835Z AUTO 15017G23KT 10SM CLR 38/10 A2999 RMK AO2,M
CXP,2024-07-13 18:35,-119.7326,39.1923,1431.00,93.20,35.60,13.25,0.00,0.00,0.00,30.18,M,10.00,M,CLR,M,M,M,M,M,M,M,M,M,M,M,M,M,M,88.76,KCXP 131835Z AUTO 00000KT 10SM CLR 34/02 A3018 RMK AO2,M
RTS,2024-07-13 18:35,-119.8764,39.6682,1539.00,89.60,33.80,13.80,110.00,6.00,0.00,30.21,M,10.00,M,CLR,M,M,M,M,M,M,M,M,M,M,M,M,M,M,85.59,KRTS 131835Z AUTO 11006KT 10SM CLR 32/01 A3021 RMK AO2,M
MEV,2024-07-13 18:35,-119.7500,38.9963,1441.42,91.40,39.20,16.15,M,6.00,0.00,30.18,M,10.00,M,CLR,M,M,M,M,M,M,M,M,M,M,M,M,M,M,87.30,KMEV 131835Z AUTO VRB06KT 10SM CLR 33/04 A3018 RMK AO2,M
HTH,2024-07-13 18:35,-118.6315,38.5448,1282.89,96.80,35.60,11.86,340.00,11.00,0.00,30.11,M,8.00,16.00,CLR,M,M,M,M,M,M,M,M,M,M,M,M,M,M,91.72,KHTH 131835Z AUTO 34011G16KT 8SM CLR 36/02 A3011 RMK A01,M
TMT,2024-07-13 18:35,-117.1971,39.4643,1749.34,93.20,36.00,13.46,130.00,8.00,0.00,30.24,M,10.00,14.00,CLR,M,M,M,M,M,M,M,M,M,M,M,M,M,M,88.77,KTMT 131835Z AUTO 13008G14KT 10SM CLR 34/02 A3024 RMK AO2 T03400022,M
05U,2024-07-13 18:45,-116.0051,39.6042,1811.23,96.80,33.80,11.04,310.00,13.00,0.00,30.28,M,10.00,19.00,M,M,M,M,M,M,M,M,M,M,M,M,M,M,M,91.44,K05U 131845Z AUTO 31013G19KT 10SM 36/01 A3028 RMK A01,M
LSV,2024-07-13 18:46,-115.0343,36.2362,570.00,105.80,46.40,13.75,160.00,15.00,0.00,29.91,1009.30,10.00,29.00,FEW,FEW,SCT,BKN,13000.00,16000.00,19000.00,21000.00,M,M,M,M,M,M,M,101.97,KLSV 131846Z AUTO 16015G29KT 10SM FEW130 FEW160 SCT190 BKN210 41/08 A2991 RMK AO2 WSHFT 33 SLP093 $,M
P68,2024-07-13 18:53,-116.0056,39.6014,1993.00,94.00,34.00,12.13,160.00,12.00,0.00,30.24,1013.20,M,25.00,M,M,M,M,M,M,M,M,M,M,M,M,26.00,140.00,2024-07-13 18:17,89.21,KP68 131853Z AUTO 16012G25KT 34/01 A3024 RMK AO1 PK WND 14026/1817 SLP132 T03440011,M
DRA,2024-07-13 18:53,-116.0278,36.6206,1009.00,105.00,45.00,13.35,240.00,13.00,0.00,30.03,1010.30,10.00,21.00,CLR,M,M,M,M,M,M,M,M,M,M,M,M,M,M,100.87,KDRA 131853Z AUTO 24013G21KT 10SM CLR 41/07 A3003 RMK AO2 SLP103 T04060072,M
ELY,2024-07-13 18:53,-114.8453,39.2950,1909.00,88.00,36.00,15.85,0.00,0.00,0.00,30.30,1014.00,10.00,M,CLR,M,M,M,M,M,M,M,M,M,M,M,M,M,M,84.29,KELY 131853Z AUTO 00000KT 10SM CLR 31/02 A3030 RMK AO2 SLP140 T03110022,M
VGT,2024-07-13 18:53,-115.1933,36.2111,667.00,106.00,52.00,16.84,120.00,20.00,0.00,29.96,1012.60,10.00,M,CLR,M,M,M,M,M,M,M,M,M,M,M,29.00,120.00,2024-07-13 18:33,103.85,KVGT 131853Z 12020KT 10SM CLR 41/11 A2996 RMK AO2 PK WND 12029/1833 LTG DSNT NW SLP126 T04110111,M
LOL,2024-07-13 18:53,-118.5701,40.0684,1192.43,101.00,33.00,9.41,0.00,0.00,0.00,30.06,1012.10,10.00,M,CLR,M,M,M,M,M,M,M,M,M,M,M,M,M,M,94.86,KLOL 131853Z AUTO 00000KT 10SM CLR 38/01 A3006 RMK AO2 SLP121 T03830006,M
BVU,2024-07-13 18:55,-114.8611,35.9475,671.00,100.40,50.00,18.48,160.00,19.00,0.00,29.99,M,10.00,25.00,CLR,M,M,M,M,M,M,M,M,M,M,M,M,M,M,97.42,KBVU 131855Z AUTO 16019G25KT 10SM CLR 38/10 A2999 RMK AO2,M
CXP,2024-07-13 18:55,-119.7326,39.1923,1431.00,96.80,37.40,12.73,210.00,7.00,0.00,30.18,M,10.00,14.00,CLR,M,M,M,M,M,M,M,M,M,M,M,M,M,M,92.04,KCXP 131855Z AUTO 21007G14KT 190V250 10SM CLR 36/03 A3018 RMK AO2,M
INS,2024-07-13 18:55,-115.6733,36.5872,955.00,103.50,41.00,11.97,140.00,12.00,0.00,30.01,1009.40,10.00,M,SCT,M,M,M,17000.00,M,M,M,VCTS,M,M,M,M,M,M,98.53,KINS 131855Z AUTO 14012KT 10SM VCTS SCT170 40/05 A3001 RMK AO2 SLP094 T03970049 $,M
RNO,2024-07-13 18:55,-119.7711,39.4839,1341.00,97.00,39.00,13.48,M,4.00,0.00,30.14,1013.00,10.00,M,SCT,SCT,M,M,6000.00,12000.00,M,M,M,M,M,M,M,M,M,92.40,KRNO 131855Z VRB04KT 10SM SCT060 SCT120 36/04 A3014 RMK AO2 SLP130 T03610039,M
RTS,2024-07-13 18:55,-119.8764,39.6682,1539.00,91.40,33.80,13.05,M,3.00,0.00,30.21,M,10.00,M,CLR,M,M,M,M,M,M,M,M,M,M,M,M,M,M,87.13,KRTS 131855Z AUTO VRB03KT 10SM CLR 33/01 A3021 RMK AO2,M
MEV,2024-07-13 18:55,-119.7500,38.9963,1441.42,91.40,37.40,15.05,180.00,5.00,0.00,30.17,M,9.00,11.00,CLR,M,M,M,M,M,M,M,-RA,M,M,M,M,M,M,87.23,KMEV 131855Z AUTO 18005G11KT 9SM -RA CLR 33/03 A3017 RMK AO2,M
HTH,2024-07-13 18:55,-118.6315,38.5448,1282.89,96.80,30.20,9.55,330.00,9.00,0.00,30.11,M,9.00,M,M,M,M,M,M,M,M,M,M,M,M,M,M,M,M,90.96,KHTH 131855Z AUTO 33009KT 9SM 36/M01 A3011 RMK A01,M
TMT,2024-07-13 18:55,-117.1971,39.4643,1749.34,94.00,36.50,13.40,190.00,4.00,0.00,30.23,M,10.00,M,CLR,M,M,M,M,M,M,M,M,M,M,M,M,M,M,89.51,KTMT 131855Z AUTO 19004KT 10SM CLR 35/03 A3023 RMK AO2 T03450025,M
LSV,2024-07-13 18:55,-115.0343,36.2362,570.00,105.30,46.20,13.85,140.00,16.00,0.00,29.92,1009.70,10.00,23.00,FEW,SCT,SCT,M,13000.00,17000.00,20000.00,M,M,M,M,M,29.00,150.00,2024-07-13 18:36,101.44,KLSV 131855Z AUTO 14016G23KT 10SM FEW130 SCT170 SCT200 41/08 A2992 RMK AO2 PK WND 15029/36 SLP097 T04070079 $,M
EKO,2024-07-13 18:56,-115.7860,40.8242,1367.00,97.00,36.00,11.98,240.00,4.00,0.00,30.17,1013.30,10.00,M,CLR,M,M,M,M,M,M,M,M,M,M,M,M,M,M,91.96,KEKO 131856Z AUTO 24004KT 10SM CLR 36/02 A3017 RMK AO2 SLP133 T03610022,M
WMC,2024-07-13 18:56,-117.8072,40.9019,1315.00,101.00,27.00,7.37,M,4.00,0.00,30.09,1012.40,10.00,M,CLR,M,M,M,M,M,M,M,M,M,M,M,M,M,M,94.12,KWMC 131856Z AUTO VRB04KT 10SM CLR 38/M03 A3009 RMK AO2 SLP124 T03831028,M
HND,2024-07-13 18:56,-115.1344,35.9729,742.79,102.00,54.00,20.42,150.00,16.00,0.00,30.02,1014.30,10.00,M,CLR,M,M,M,M,M,M,M,M,M,M,M,M,M,M,100.30,KHND 131856Z 15016KT 10SM CLR 39/12 A3002 RMK AO2 LTG DSNT NW SLP143 T03890122,M
TPH,2024-07-13 18:56,-117.0904,38.0505,1654.00,94.00,44.00,17.93,220.00,18.00,0.00,30.22,1012.20,10.00,28.00,CLR,M,M,M,M,M,M,M,M,M,M,M,28.00,190.00,2024-07-13 18:51,90.04,KTPH 131856Z AUTO 22018G28KT 10SM CLR 34/07 A3022 RMK AO2 PK WND 19028/1851 SLP122 T03440067,M
LAS,2024-07-13 18:56,-115.1634,36.0719,663.00,105.00,51.00,16.72,140.00,14.00,0.00,29.98,1011.50,10.00,23.00,FEW,BKN,M,M,10000.00,14000.00,M,M,M,M,M,M,M,M,M,102.47,KLAS 131856Z 14014G23KT 10SM FEW100 BKN140 41/11 A2998 RMK AO2 LTG DSNT W SLP115 SH DSNT SE-S T04060106 $,M
05U,2024-07-13 19:10,-116.0051,39.6042,1811.23,96.80,33.80,11.04,290.00,7.00,0.00,30.27,M,10.00,18.00,M,M,M,M,M,M,M,M,M,M,M,M,M,M,M,91.44,K05U 131910Z AUTO 29007G18KT 10SM 36/01 A3027 RMK A01,M
INS,2024-07-13 19:13,-115.6733,36.5872,955.00,102.20,42.80,13.34,210.00,12.00,0.00,30.02,1009.90,10.00,17.00,SCT,M,M,M,17000.00,M,M,M,TS,M,M,M,M,M,M,97.76,KINS 131913Z AUTO 21012G17KT 10SM TS SCT170 39/06 A3002 RMK AO2 TSB13 SLP099 $,M
INS,2024-07-13 19:14,-115.6733,36.5872,955.00,102.20,42.80,13.34,220.00,13.00,0.00,30.02,1009.90,10.00,M,SCT,M,M,M,17000.00,M,M,M,TS,M,M,M,M,M,M,97.76,KINS 131914Z AUTO 22013KT 10SM TS SCT170 39/06 A3002 RMK AO2 WSHFT 12 TSB13 SLP099 $,M
BVU,2024-07-13 19:15,-114.8611,35.9475,671.00,98.60,50.00,19.52,140.00,20.00,0.00,29.99,M,10.00,26.00,CLR,M,M,M,M,M,M,M,M,M,M,M,M,M,M,95.56,KBVU 131915Z AUTO 14020G26KT 10SM CLR 37/10 A2999 RMK AO2,M
CXP,2024-07-13 19:15,-119.7326,39.1923,1431.00,96.80,35.60,11.86,180.00,7.00,0.00,30.18,M,10.00,M,CLR,M,M,M,M,M,M,M,M,M,M,M,M,M,M,91.72,KCXP 131915Z AUTO 18007KT 10SM CLR 36/02 A3018 RMK AO2,M
RTS,2024-07-13 19:15,-119.8764,39.6682,1539.00,95.00,32.00,10.85,230.00,11.00,0.00,30.20,M,10.00,17.00,CLR,M,M,M,M,M,M,M,M,M,M,M,M,M,M,89.71,KRTS 131915Z AUTO 23011G17KT 10SM CLR 35/M00 A3020 RMK AO2,M
MEV,2024-07-13 19:15,-119.7500,38.9963,1441.42,95.00,35.60,12.53,220.00,5.00,0.00,30.17,M,10.00,M,CLR,M,M,M,M,M,M,M,M,M,M,M,M,M,M,90.25,KMEV 131915Z AUTO 22005KT 10SM CLR 35/02 A3017 RMK AO2,M
HTH,2024-07-13 19:15,-118.6315,38.5448,1282.89,98.60,30.20,9.04,340.00,8.00,0.00,30.11,M,10.00,M,CLR,M,M,M,M,M,M,M,M,M,M,M,M,M,M,92.46,KHTH 131915Z AUTO 34008KT 310V020 10SM CLR 37/M01 A3011 RMK A01,M
TMT,2024-07-13 19:15,-117.1971,39.4643,1749.34,93.40,34.30,12.51,250.00,5.00,0.00,30.23,M,10.00,M,CLR,M,M,M,M,M,M,M,M,M,M,M,M,M,M,88.78,KTMT 131915Z AUTO 25005KT 10SM CLR 34/01 A3023 RMK AO2 T03410013,M
05U,2024-07-13 19:25,-116.0051,39.6042,1811.23,96.80,33.80,11.04,340.00,8.00,0.00,30.27,M,10.00,14.00,M,M,M,M,M,M,M,M,M,M,M,M,M,M,M,91.44,K05U 131925Z AUTO 34008G14KT 320V020 10SM 36/01 A3027 RMK A01,M
INS,2024-07-13 19:28,-115.6733,36.5872,955.00,96.80,44.60,16.83,230.00,10.00,0.00,30.03,1010.30,10.00,15.00,SCT,BKN,M,M,13000.00,17000.00,M,M,VCTS,M,M,M,M,M,M,92.79,KINS 131928Z AUTO 23010G15KT 10SM VCTS SCT130 BKN170 36/07 A3003 RMK AO2 TSB13E28 SLP103 $,M
BVU,2024-07-13 19:35,-114.8611,35.9475,671.00,98.60,48.20,18.25,100.00,14.00,0.00,30.00,M,10.00,M,FEW,FEW,M,M,8000.00,10000.00,M,M,M,M,M,M,M,M,M,95.17,KBVU 131935Z AUTO 10014KT 10SM FEW080 FEW100 37/09 A3000 RMK AO2,M
CXP,2024-07-13 19:35,-119.7326,39.1923,1431.00,96.80,33.80,11.04,M,6.00,0.00,30.17,M,10.00,M,CLR,M,M,M,M,M,M,M,M,M,M,M,M,M,M,91.44,KCXP 131935Z AUTO VRB06KT 10SM CLR 36/01 A3017 RMK AO2,M
RTS,2024-07-13 19:35,-119.8764,39.6682,1539.00,95.00,32.00,10.85,230.00,8.00,0.00,30.20,M,10.00,19.00,CLR,M,M,M,M,M,M,M,M,M,M,M,M,M,M,89.71,KRTS 131935Z AUTO 23008G19KT 10SM CLR 35/M00 A3020 RMK AO2,M
MEV,2024-07-13 19:35,-119.7500,38.9963,1441.42,93.20,35.60,13.25,310.00,4.00,0.00,30.16,M,10.00,M,CLR,M,M,M,M,M,M,M,M,M,M,M,M,M,M,88.76,KMEV 131935Z AUTO 31004KT 10SM CLR 34/02 A3016 RMK AO2,M
HTH,2024-07-13 19:35,-118.6315,38.5448,1282.89,96.80,30.20,9.55,320.00,10.00,0.00,30.11,M,10.00,M,CLR,M,M,M,M,M,M,M,M,M,M,M,M,M,M,90.96,KHTH 131935Z AUTO 32010KT 10SM CLR 36/M01 A3011 RMK A01,M
TMT,2024-07-13 19:35,-117.1971,39.4643,1749.34,95.00,35.00,12.24,190.00,3.00,0.00,30.22,M,10.00,M,CLR,M,M,M,M,M,M,M,M,M,M,M,M,M,M,90.15,KTMT 131935Z AUTO 19003KT 10SM CLR 35/02 A3022 RMK AO2 T03500016,M
INS,2024-07-13 19:37,-115.6733,36.5872,955.00,96.80,42.80,15.71,250.00,16.00,0.00,30.03,1010.30,10.00,M,BKN,M,M,M,13000.00,M,M,M,TS,M,M,M,M,M,M,92.57,KINS 131937Z AUTO 25016KT 10SM TS BKN130 36/06 A3003 RMK AO2 TSB13E28TSB37 SLP103 $,M
DRA,2024-07-13 19:47,-116.0278,36.6206,1009.00,99.00,47.00,17.23,100.00,18.00,0.00,30.03,M,10.00,26.00,CLR,M,M,M,M,M,M,M,M,M,M,M,26.00,120.00,2024-07-13 19:46,95.35,KDRA 131947Z AUTO 10018G26KT 10SM CLR 37/08 A3003 RMK AO2 PK WND 12026/1946 WSHFT 1930 T03720083,M
05U,2024-07-13 19:50,-116.0051,39.6042,1811.23,96.80,35.60,11.86,30.00,8.00,0.00,30.26,M,10.00,16.00,M,M,M,M,M,M,M,M,M,M,M,M,M,M,M,91.72,K05U 131950Z AUTO 03008G16KT 10SM 36/02 A3026 RMK A01,M
P68,2024-07-13 19:53,-116.0056,39.6014,1993.00,93.00,34.00,12.51,M,M,0.00,30.23,1013.20,M,M,M,M,M,M,M,M,M,M,M,M,M,M,M,M,M,88.42,KP68 131953Z AUTO 34/01 A3023 RMK AO1 SLP132 T03390011,M
DRA,2024-07-13 19:53,-116.0278,36.6206,1009.00,99.00,47.00,17.23,90.00,21.00,0.00,30.03,1010.60,10.00,27.00,FEW,M,M,M,12000.00,M,M,M,M,M,M,M,27.00,80.00,2024-07-13 19:52,95.35,KDRA 131953Z AUTO 09021G27KT 10SM FEW120 37/08 A3003 RMK AO2 PK WND 08027/1952 WSHFT 1930 SLP106 T03720083,M
ELY,2024-07-13 19:53,-114.8453,39.2950,1909.00,92.00,36.00,13.98,240.00,8.00,0.00,30.28,1012.20,10.00,14.00,CLR,M,M,M,M,M,M,M,M,M,M,M,M,M,M,87.71,KELY 131953Z AUTO 24008G14KT 10SM CLR 33/02 A3028 RMK AO2 SLP122 T03330022,M
VGT,2024-07-13 19:53,-115.1933,36.2111,667.00,103.00,52.00,18.41,140.00,21.00,0.00,29.96,1012.60,10.00,32.00,CLR,M,M,M,M,M,M,M,M,M,M,M,32.00,140.00,2024-07-13 19:49,100.70,KVGT 131953Z 14021G32KT 10SM CLR 39/11 A2996 RMK AO2 PK WND 14032/1949 LTG DSNT W AND NW SLP126 T03940111,M
LOL,2024-07-13 19:53,-118.5701,40.0684,1192.43,101.00,32.00,9.04,0.00,0.00,0.00,30.05,1011.70,10.00,M,CLR,M,M,M,M,M,M,M,M,M,M,M,M,M,M,94.72,KLOL 131953Z AUTO 00000KT 10SM CLR 38/00 A3005 RMK AO2 SLP117 T03830000,M
BVU,2024-07-13 19:55,-114.8611,35.9475,671.00,98.60,44.60,15.93,70.00,10.00,0.00,29.98,M,10.00,23.00,FEW,FEW,FEW,M,6500.00,7500.00,9500.00,M,M,M,M,M,M,M,M,94.55,KBVU 131955Z AUTO 07010G23KT 10SM FEW065 FEW075 FEW095 37/07 A2998 RMK AO2,M
CXP,2024-07-13 19:55,-119.7326,39.1923,1431.00,95.00,35.60,12.53,200.00,4.00,0.00,30.17,M,10.00,M,CLR,M,M,M,M,M,M,M,M,M,M,M,M,M,M,90.25,KCXP 131955Z AUTO 20004KT 10SM CLR 35/02 A3017 RMK AO2,M
INS,2024-07-13 19:55,-115.6733,36.5872,955.00,95.00,47.70,20.00,220.00,22.00,0.00,30.04,1010.80,10.00,28.00,OVC,M,M,M,12000.00,M,M,M,TS,M,M,M,M,M,M,91.48,KINS 131955Z AUTO 22022G28KT 10SM TS OVC120 35/09 A3004 RMK AO2 TSB13E28TSB37 SLP108 T03500087 $,M
RNO,2024-07-13 19:55,-119.7711,39.4839,1341.00,99.00,38.00,12.19,340.00,7.00,0.00,30.12,1012.50,10.00,22.00,SCT,SCT,M,M,8000.00,15000.00,M,M,M,M,M,M,M,M,M,93.99,KRNO 131955Z 34007G22KT 10SM SCT080 SCT150 37/03 A3012 RMK AO2 SLP125 T03720033,M
RTS,2024-07-13 19:55,-119.8764,39.6682,1539.00,93.20,33.80,12.34,240.00,12.00,0.00,30.19,M,10.00,20.00,CLR,M,M,M,M,M,M,M,M,M,M,M,M,M,M,88.55,KRTS 131955Z AUTO 24012G20KT 10SM CLR 34/01 A3019 RMK AO2,M
MEV,2024-07-13 19:55,-119.7500,38.9963,1441.42,95.00,35.60,12.53,M,4.00,0.00,30.16,M,10.00,M,CLR,M,M,M,M,M,M,M,M,M,M,M,M,M,M,90.25,KMEV 131955Z AUTO VRB04KT 10SM CLR 35/02 A3016 RMK AO2,M
HTH,2024-07-13 19:55,-118.6315,38.5448,1282.89,98.60,30.20,9.04,310.00,7.00,0.00,30.10,M,10.00,12.00,CLR,M,M,M,M,M,M,M,M,M,M,M,M,M,M,92.46,KHTH 131955Z AUTO 31007G12KT 10SM CLR 37/M01 A3010 RMK A01,M
TMT,2024-07-13 19:55,-117.1971,39.4643,1749.34,96.30,36.70,12.58,240.00,15.00,0.00,30.22,M,10.00,M,CLR,M,M,M,M,M,M,M,M,M,M,M,M,M,M,91.50,KTMT 131955Z AUTO 24015KT 10SM CLR 36/03 A3022 RMK AO2 T03570026,M
LSV,2024-07-13 19:55,-115.0343,36.2362,570.00,104.00,45.30,13.91,160.00,26.00,0.00,29.90,1009.10,10.00,31.00,FEW,FEW,M,M,18000.00,21000.00,M,M,M,M,M,M,31.00,160.00,2024-07-13 19:49,99.97,KLSV 131955Z AUTO 16026G31KT 10SM FEW180 FEW210 40/07 A2990 RMK AO2 PK WND 16031/49 LTG DSNT W SLP091 T04000074 $,M
EKO,2024-07-13 19:56,-115.7860,40.8242,1367.00,97.00,34.00,11.06,190.00,6.00,0.00,30.16,1013.50,10.00,M,CLR,M,M,M,M,M,M,M,M,M,M,M,M,M,M,91.64,KEKO 131956Z AUTO 19006KT 10SM CLR 36/01 A3016 RMK AO2 SLP135 T03610011,M
WMC,2024-07-13 19:56,-117.8072,40.9019,1315.00,104.00,29.00,7.32,350.00,9.00,0.00,30.07,1011.90,10.00,14.00,CLR,M,M,M,M,M,M,M,M,M,M,M,M,M,M,96.88,KWMC 131956Z AUTO 35009G14KT 10SM CLR 40/M02 A3007 RMK AO2 SLP119 T04001017,M
HND,2024-07-13 19:56,-115.1344,35.9729,742.79,98.00,54.00,23.04,140.00,16.00,0.00,30.02,1014.50,10.00,27.00,CLR,M,M,M,M,M,M,M,M,M,M,M,27.00,130.00,2024-07-13 19:47,95.99,KHND 131956Z 14016G27KT 10SM CLR 37/12 A3002 RMK AO2 PK WND 13027/1947 LTG DSNT NW SLP145 T03670122,M
TPH,2024-07-13 19:56,-117.0904,38.0505,1654.00,94.00,44.00,17.93,210.00,14.00,0.00,30.22,1013.00,10.00,25.00,CLR,M,M,M,M,M,M,M,M,M,M,M,29.00,200.00,2024-07-13 19:00,90.04,KTPH 131956Z AUTO 21014G25KT 10SM CLR 34/07 A3022 RMK AO2 PK WND 20029/1900 SLP130 T03440067,M
LAS,2024-07-13 19:56,-115.1634,36.0719,663.00,102.00,52.00,18.97,150.00,13.00,0.00,29.98,1011.80,10.00,26.00,SCT,BKN,M,M,10000.00,13000.00,M,M,M,M,M,M,28.00,150.00,2024-07-13 19:46,99.65,KLAS 131956Z 15013G26KT 10SM SCT100 BKN130 39/11 A2998 RMK AO2 PK WND 15028/1946 LTG DSNT NW SLP118 CB DSNT N T03890111 $,M
NFL,2024-07-13 19:56,-118.7010,39.4166,1199.00,101.00,34.00,9.80,280.00,7.00,0.00,30.07,1015.00,10.00,M,CLR,M,M,M,M,M,M,M,M,M,M,M,M,M,M,95.01,KNFL 131956Z AUTO 28007KT 10SM CLR 38/01 A3007 RMK AO2 SLP150 T03830011,M
INS,2024-07-13 20:03,-115.6733,36.5872,955.00,93.20,48.20,21.54,260.00,21.00,0.00,30.03,1010.50,10.00,28.00,OVC,M,M,M,12000.00,M,M,M,TS,M,M,M,M,M,M,89.80,KINS 132003Z AUTO 26021G28KT 10SM TS OVC120 34/09 A3003 RMK AO2 WSHFT 1953 SLP105 $,M
05U,2024-07-13 20:10,-116.0051,39.6042,1811.23,95.00,33.80,11.67,50.00,11.00,0.00,30.25,M,10.00,M,M,M,M,M,M,M,M,M,M,M,M,M,M,M,M,89.97,K05U 132010Z AUTO 05011KT 10SM 35/01 A3025 RMK A01,M
INS,2024-07-13 20:11,-115.6733,36.5872,955.00,93.20,50.00,23.04,280.00,17.00,0.00,30.04,1010.80,10.00,M,BKN,OVC,M,M,12000.00,14000.00,M,M,VCTS,M,M,M,M,M,M,90.10,KINS 132011Z AUTO 28017KT 10SM VCTS BKN120 OVC140 34/10 A3004 RMK AO2 TSE11 SLP108 $,M
BVU,2024-07-13 20:15,-114.8611,35.9475,671.00,100.40,44.60,15.08,70.00,10.00,0.00,29.97,M,10.00,M,CLR,M,M,M,M,M,M,M,M,M,M,M,M,M,M,96.31,KBVU 132015Z AUTO 07010KT 10SM CLR 38/07 A2997 RMK AO2,M
CXP,2024-07-13 20:15,-119.7326,39.1923,1431.00,93.20,33.80,12.34,0.00,0.00,0.00,30.17,M,10.00,10.00,CLR,M,M,M,M,M,M,M,M,M,M,M,M,M,M,88.55,KCXP 132015Z AUTO 00000G10KT 10SM CLR 34/01 A3017 RMK AO2,M
RTS,2024-07-13 20:15,-119.8764,39.6682,1539.00,95.00,33.80,11.67,270.00,9.00,0.00,30.19,M,10.00,M,CLR,M,M,M,M,M,M,M,M,M,M,M,M,M,M,89.97,KRTS 132015Z AUTO 27009KT 230V290 10SM CLR 35/01 A3019 RMK AO2,M
MEV,2024-07-13 20:15,-119.7500,38.9963,1441.42,96.80,33.80,11.04,280.00,5.00,0.00,30.15,M,10.00,M,CLR,M,M,M,M,M,M,M,M,M,M,M,M,M,M,91.44,KMEV 132015Z AUTO 28005KT 10SM CLR 36/01 A3015 RMK AO2,M
HTH,2024-07-13 20:15,-118.6315,38.5448,1282.89,96.80,30.20,9.55,310.00,7.00,0.00,30.09,M,10.00,M,CLR,M,M,M,M,M,M,M,M,M,M,M,M,M,M,90.96,KHTH 132015Z AUTO 31007KT 10SM CLR 36/M01 A3009 RMK A01,M
TMT,2024-07-13 20:15,-117.1971,39.4643,1749.34,95.70,35.20,12.07,190.00,4.00,0.00,30.22,M,10.00,20.00,CLR,M,M,M,M,M,M,M,M,M,M,M,M,M,M,90.75,KTMT 132015Z AUTO 19004G20KT 10SM CLR 35/02 A3022 RMK AO2 T03540018,M
05U,2024-07-13 20:30,-116.0051,39.6042,1811.23,91.40,33.80,13.05,0.00,0.00,0.00,30.25,M,10.00,10.00,M,M,M,M,M,M,M,M,M,M,M,M,M,M,M,87.13,K05U 132030Z AUTO 00000G10KT 10SM 33/01 A3025 RMK A01,M
BVU,2024-07-13 20:35,-114.8611,35.9475,671.00,100.40,42.80,14.08,40.00,3.00,0.00,29.96,M,10.00,M,CLR,M,M,M,M,M,M,M,M,M,M,M,M,M,M,96.04,KBVU 132035Z AUTO 04003KT 10SM CLR 38/06 A2996 RMK AO2,M
CXP,2024-07-13 20:35,-119.7326,39.1923,1431.00,95.00,35.60,12.53,330.00,3.00,0.00,30.16,M,10.00,M,CLR,M,M,M,M,M,M,M,M,M,M,M,M,M,M,90.25,KCXP 132035Z AUTO 33003KT 10SM CLR 35/02 A3016 RMK AO2,M
RTS,2024-07-13 20:35,-119.8764,39.6682,1539.00,95.00,32.00,10.85,M,6.00,0.00,30.19,M,10.00,11.00,CLR,M,M,M,M,M,M,M,M,M,M,M,M,M,M,89.71,KRTS 132035Z AUTO VRB06G11KT 10SM CLR 35/00 A3019 RMK AO2,M
MEV,2024-07-13 20:35,-119.7500,38.9963,1441.42,95.00,32.00,10.85,M,5.00,0.00,30.15,M,10.00,M,CLR,M,M,M,M,M,M,M,M,M,M,M,M,M,M,89.71,KMEV 132035Z AUTO VRB05KT 10SM CLR 35/00 A3015 RMK AO2,M
HTH,2024-07-13 20:35,-118.6315,38.5448,1282.89,98.60,30.20,9.04,300.00,7.00,0.00,30.09,M,10.00,M,CLR,M,M,M,M,M,M,M,M,M,M,M,M,M,M,92.46,KHTH 132035Z AUTO 30007KT 260V320 10SM CLR 37/M01 A3009 RMK A01,M
TMT,2024-07-13 20:35,-117.1971,39.4643,1749.34,91.60,37.00,14.72,230.00,12.00,0.00,30.22,M,10.00,16.00,CLR,M,M,M,M,M,M,M,M,M,M,M,M,M,M,87.39,KTMT 132035Z AUTO 23012G16KT 10SM CLR 33/03 A3022 RMK AO2 T03310028,M
05U,2024-07-13 20:50,-116.0051,39.6042,1811.23,91.40,33.80,13.05,0.00,0.00,0.00,30.25,M,10.00,M,M,M,M,M,M,M,M,M,M,M,M,M,M,M,M,87.13,K05U 132050Z AUTO 00000KT 10SM 33/01 A3025 RMK A01,M
P68,2024-07-13 20:53,-116.0056,39.6014,1993.00,91.00,34.00,13.32,270.00,5.00,0.00,30.22,1013.30,M,M,M,M,M,M,M,M,M,M,M,M,M,M,M,M,M,86.79,KP68 132053Z AUTO 27005KT 33/01 A3022 RMK AO1 SLP133 T03280011 56010,M
DRA,2024-07-13 20:53,-116.0278,36.6206,1009.00,91.00,53.00,27.57,90.00,14.00,0.00,30.07,1012.20,10.00,M,BKN,M,M,M,12000.00,M,M,M,M,M,M,M,29.00,110.00,2024-07-13 20:19,88.55,KDRA 132053Z AUTO 09014KT 10SM BKN120 33/12 A3007 RMK AO2 PK WND 11029/2019 PRESRR SLP122 T03280117 53011,M
ELY,2024-07-13 20:53,-114.8453,39.2950,1909.00,94.00,36.00,13.13,M,4.00,0.00,30.25,1011.60,10.00,M,CLR,M,M,M,M,M,M,M,M,M,M,M,M,M,M,89.49,KELY 132053Z AUTO VRB04KT 10SM CLR 34/02 A3025 RMK AO2 SLP116 T03440022 58017,M
VGT,2024-07-13 20:53,-115.1933,36.2111,667.00,105.00,46.00,13.86,140.00,12.00,0.00,29.94,1012.00,10.00,M,CLR,M,M,M,M,M,M,M,M,M,M,M,34.00,140.00,2024-07-13 20:04,101.10,KVGT 132053Z 14012KT 10SM CLR 41/08 A2994 RMK AO2 PK WND 14034/2004 LTG DSNT NW SLP120 T04060078 58006,M
LOL,2024-07-13 20:53,-118.5701,40.0684,1192.43,103.00,33.00,8.86,220.00,10.00,0.00,30.03,1011.30,10.00,M,CLR,M,M,M,M,M,M,M,M,M,M,M,M,M,M,96.57,KLOL 132053Z AUTO 22010KT 10SM CLR 39/01 A3003 RMK AO2 SLP113 T03940006 58010,M
BVU,2024-07-13 20:55,-114.8611,35.9475,671.00,104.00,41.00,11.79,M,4.00,0.00,29.95,M,10.00,M,CLR,M,M,M,M,M,M,M,M,M,M,M,M,M,M,98.97,KBVU 132055Z AUTO VRB04KT 10SM CLR 40/05 A2995 RMK AO2,M
CXP,2024-07-13 20:55,-119.7326,39.1923,1431.00,95.00,32.00,10.85,70.00,5.00,0.00,30.15,M,10.00,M,CLR,M,M,M,M,M,M,M,M,M,M,M,M,M,M,89.71,KCXP 132055Z AUTO 07005KT 10SM CLR 35/00 A3015 RMK AO2,M
INS,2024-07-13 20:55,-115.6733,36.5872,955.00,95.00,46.20,18.90,210.00,23.00,0.00,30.06,1011.50,10.00,30.00,FEW,BKN,OVC,M,11000.00,13000.00,16000.00,M,VCTS,M,M,M,30.00,200.00,2024-07-13 20:50,91.26,KINS 132055Z AUTO 21023G30KT 10SM VCTS FEW110 BKN130 OVC160 35/08 A3006 RMK AO2 PK WND 20030/50 TSE11 SLP115 T03500079 53014 $,M
RNO,2024-07-13 20:55,-119.7711,39.4839,1341.00,98.00,37.00,12.08,30.00,8.00,0.00,30.11,1012.10,10.00,M,SCT,BKN,M,M,8000.00,16000.00,M,M,M,M,M,M,M,M,M,92.97,KRNO 132055Z 03008KT 10SM SCT080 BKN160 37/03 A3011 RMK AO2 SLP121 T03670028 58012,M
RTS,2024-07-13 20:55,-119.8764,39.6682,1539.00,95.00,32.00,10.85,M,6.00,0.00,30.18,M,10.00,14.00,CLR,M,M,M,M,M,M,M,M,M,M,M,M,M,M,89.71,KRTS 132055Z AUTO VRB06G14KT 10SM CLR 35/M00 A3018 RMK AO2,M
MEV,2024-07-13 20:55,-119.7500,38.9963,1441.42,95.00,32.00,10.85,130.00,5.00,0.00,30.14,M,10.00,M,CLR,M,M,M,M,M,M,M,M,M,M,M,M,M,M,89.71,KMEV 132055Z AUTO 13005KT 10SM CLR 35/00 A3014 RMK AO2,M
HTH,2024-07-13 20:55,-118.6315,38.5448,1282.89,98.60,28.40,8.40,M,4.00,0.00,30.09,M,10.00,M,CLR,M,M,M,M,M,M,M,M,M,M,M,M,M,M,92.25,KHTH 132055Z AUTO VRB04KT 10SM CLR 37/M02 A3009 RMK A01,M
TMT,2024-07-13 20:55,-117.1971,39.4643,1749.34,90.30,38.50,16.26,230.00,15.00,0.00,30.23,M,10.00,19.00,CLR,M,M,M,M,M,M,M,M,M,M,M,M,M,M,86.31,KTMT 132055Z AUTO 23015G19KT 10SM CLR 32/04 A3023 RMK AO2 T03240036,M
LSV,2024-07-13 20:55,-115.0343,36.2362,570.00,107.40,36.50,8.95,120.00,7.00,0.00,29.88,1008.30,10.00,M,SCT,SCT,BKN,M,14000.00,17000.00,20000.00,M,M,M,M,M,33.00,160.00,2024-07-13 19:58,100.98,KLSV 132055Z AUTO 12007KT 10SM SCT140 SCT170 BKN200 42/03 A2988 RMK AO2 PK WND 16033/1958 SLP083 T04190025 58010 $,M
EKO,2024-07-13 20:56,-115.7860,40.8242,1367.00,94.00,35.00,12.62,80.00,12.00,0.00,30.16,1013.50,7.00,37.00,FEW,M,M,M,10000.00,M,M,M,M,M,M,M,37.00,120.00,2024-07-13 20:53,89.36,KEKO 132056Z AUTO 08012G37KT 040V120 7SM FEW100 34/02 A3016 RMK AO2 PK WND 12037/2053 SLP135 T03440017 55007,M
WMC,2024-07-13 20:56,-117.8072,40.9019,1315.00,104.00,30.00,7.62,M,M,0.00,30.05,1011.50,10.00,M,CLR,M,M,M,M,M,M,M,M,M,M,M,M,M,M,97.00,KWMC 132056Z AUTO 10SM CLR 40/M01 A3005 RMK AO2 SLP115 T04001011 58015,M
NFL,2024-07-13 20:56,-118.7010,39.4166,1199.00,103.00,35.00,9.60,280.00,7.00,0.00,30.05,1014.40,10.00,M,CLR,M,M,M,M,M,M,M,M,M,M,M,M,M,M,96.89,KNFL 132056Z AUTO 28007KT 240V310 10SM CLR 39/02 A3005 RMK AO2 SLP144 T03940017 58011,M
HND,2024-07-13 20:56,-115.1344,35.9729,742.79,105.00,51.00,16.72,120.00,9.00,0.00,29.99,1013.20,10.00,16.00,CLR,M,M,M,M,M,M,M,M,M,M,M,M,M,M,102.47,KHND 132056Z 12009G16KT 10SM CLR 41/11 A2999 RMK AO2 SLP132 T04060106 58006,M
TPH,2024-07-13 20:56,-117.0904,38.0505,1654.00,94.00,41.00,15.97,230.00,8.00,0.00,30.20,1013.00,10.00,19.00,CLR,M,M,M,M,M,M,M,M,M,M,M,27.00,230.00,2024-07-13 20:09,89.77,KTPH 132056Z AUTO 23008G19KT 10SM CLR 34/05 A3020 RMK AO2 PK WND 23027/2009 SLP130 T03440050 58009,M
LAS,2024-07-13 20:56,-115.1634,36.0719,663.00,104.00,48.00,15.40,120.00,7.00,0.00,29.96,1010.90,10.00,16.00,SCT,BKN,M,M,10000.00,13000.00,M,M,M,M,M,M,M,M,M,100.60,KLAS 132056Z 12007G16KT 10SM SCT100 BKN130 40/09 A2996 RMK AO2 SLP109 CB DSNT E T04000089 58005 $,M
INS,2024-07-13 20:59,-115.6733,36.5872,955.00,93.20,48.20,21.54,210.00,24.00,0.00,30.06,1011.50,10.00,30.00,BKN,BKN,M,M,13000.00,16000.00,M,M,TS,M,M,M,M,M,M,89.80,KINS 132059Z AUTO 21024G30KT 10SM TS BKN130 BKN160 34/09 A3006 RMK AO2 TSB59 SLP115 $,M
DRA,2024-07-13 21:03,-116.0278,36.6206,1009.00,89.00,54.00,30.45,120.00,18.00,0.00,30.08,M,8.00,33.00,FEW,BKN,M,M,10000.00,12000.00,M,M,M,M,M,M,33.00,130.00,2024-07-13 21:01,86.89,KDRA 132103Z AUTO 12018G33KT 8SM FEW100 BKN120 32/12 A3008 RMK AO2 PK WND 13033/2101 WSHFT 2046 T03170122,M
05U,2024-07-13 21:10,-116.0051,39.6042,1811.23,91.40,37.40,15.05,120.00,8.00,0.00,30.26,M,9.00,M,M,M,M,M,M,M,M,M,M,M,M,M,M,M,M,87.23,K05U 132110Z AUTO 12008KT 080V140 9SM 33/03 A3026 RMK A01,M
BVU,2024-07-13 21:15,-114.8611,35.9475,671.00,105.80,41.00,11.18,170.00,9.00,0.00,29.94,M,10.00,M,CLR,M,M,M,M,M,M,M,M,M,M,M,M,M,M,100.56,KBVU 132115Z AUTO 17009KT 10SM CLR 41/05 A2994 RMK AO2,M
CXP,2024-07-13 21:15,-119.7326,39.1923,1431.00,98.60,33.80,10.45,0.00,0.00,0.00,30.14,M,10.00,M,CLR,M,M,M,M,M,M,M,M,M,M,M,M,M,M,92.94,KCXP 132115Z AUTO 00000KT 10SM CLR 37/01 A3014 RMK AO2,M
INS,2024-07-13 21:15,-115.6733,36.5872,955.00,93.20,42.80,17.55,230.00,22.00,0.00,30.04,1010.80,10.00,27.00,SCT,BKN,M,M,13000.00,15000.00,M,M,VCTS,M,M,M,M,M,M,89.17,KINS 132115Z AUTO 23022G27KT 10SM VCTS SCT130 BKN150 34/06 A3004 RMK AO2 TSB2059E15 PRESFR SLP108 $,M
RTS,2024-07-13 21:15,-119.8764,39.6682,1539.00,96.80,32.00,10.27,20.00,10.00,0.00,30.17,M,10.00,M,CLR,M,M,M,M,M,M,M,M,M,M,M,M,M,M,91.19,KRTS 132115Z AUTO 02010KT 10SM CLR 36/M00 A3017 RMK AO2,M
MEV,2024-07-13 21:15,-119.7500,38.9963,1441.42,95.00,33.80,11.67,220.00,4.00,0.00,30.13,M,10.00,M,CLR,M,M,M,M,M,M,M,M,M,M,M,M,M,M,89.97,KMEV 132115Z AUTO 22004KT 10SM CLR 35/01 A3013 RMK AO2,M
HTH,2024-07-13 21:15,-118.6315,38.5448,1282.89,98.60,30.20,9.04,150.00,14.00,0.00,30.08,M,10.00,M,CLR,M,M,M,M,M,M,M,M,M,M,M,M,M,M,92.46,KHTH 132115Z AUTO 15014KT 10SM CLR 37/M01 A3008 RMK A01,M
TMT,2024-07-13 21:15,-117.1971,39.4643,1749.34,91.00,35.40,14.08,210.00,9.00,0.00,30.22,M,10.00,M,CLR,M,M,M,M,M,M,M,M,M,M,M,M,M,M,86.82,KTMT 132115Z AUTO 21009KT 10SM CLR 33/02 A3022 RMK AO2 T03270019,M
INS,2024-07-13 21:28,-115.6733,36.5872,955.00,95.00,42.80,16.60,270.00,15.00,0.00,30.03,1010.50,10.00,27.00,SCT,M,M,M,15000.00,M,M,M,M,M,M,M,M,M,M,90.86,KINS 132128Z AUTO 27015G27KT 10SM SCT150 35/06 A3003 RMK AO2 WSHFT 14 LTG DSNT SE-S TSB2059E15 SLP105 $,M
05U,2024-07-13 21:30,-116.0051,39.6042,1811.23,87.80,37.40,16.86,80.00,9.00,0.00,30.26,M,10.00,17.00,M,M,M,M,M,M,M,M,M,M,M,M,M,M,M,84.16,K05U 132130Z AUTO 08009G17KT 10SM 31/03 A3026 RMK A01,M
BVU,2024-07-13 21:35,-114.8611,35.9475,671.00,105.80,42.80,11.98,M,6.00,0.00,29.93,M,10.00,12.00,CLR,M,M,M,M,M,M,M,M,M,M,M,M,M,M,101.02,KBVU 132135Z AUTO VRB06G12KT 10SM CLR 41/06 A2993 RMK AO2,M
CXP,2024-07-13 21:35,-119.7326,39.1923,1431.00,96.80,33.80,11.04,M,5.00,0.00,30.13,M,10.00,M,CLR,M,M,M,M,M,M,M,M,M,M,M,M,M,M,91.44,KCXP 132135Z AUTO VRB05KT 10SM CLR 36/01 A3013 RMK AO2,M
RTS,2024-07-13 21:35,-119.8764,39.6682,1539.00,95.00,32.00,10.85,M,6.00,0.00,30.17,M,10.00,12.00,CLR,M,M,M,M,M,M,M,M,M,M,M,M,M,M,89.71,KRTS 132135Z AUTO VRB06G12KT 10SM CLR 35/M00 A3017 RMK AO2,M
MEV,2024-07-13 21:35,-119.7500,38.9963,1441.42,95.00,37.40,13.46,280.00,12.00,0.00,30.12,M,10.00,19.00,CLR,M,M,M,M,M,M,M,M,M,M,M,M,M,M,90.46,KMEV 132135Z AUTO 28012G19KT 10SM CLR 35/03 A3012 RMK AO2,M
HTH,2024-07-13 21:35,-118.6315,38.5448,1282.89,98.60,32.00,9.72,160.00,15.00,0.00,30.08,M,10.00,24.00,CLR,M,M,M,M,M,M,M,M,M,M,M,M,M,M,92.69,KHTH 132135Z AUTO 16015G24KT 10SM CLR 37/M00 A3008 RMK A01,M
TMT,2024-07-13 21:35,-117.1971,39.4643,1749.34,90.00,36.00,14.88,210.00,14.00,0.00,30.24,M,10.00,23.00,CLR,M,M,M,M,M,M,M,M,M,M,M,M,M,M,85.97,KTMT 132135Z AUTO 21014G23KT 150V220 10SM CLR 32/02 A3024 RMK AO2 T03230023,M
05U,2024-07-13 21:50,-116.0051,39.6042,1811.23,87.80,39.20,18.09,160.00,4.00,0.00,30.25,M,10.00,16.00,M,M,M,M,M,M,M,M,M,M,M,M,M,M,M,84.22,K05U 132150Z AUTO 16004G16KT 10SM 31/04 A3025 RMK A01,M
P68,2024-07-13 21:53,-116.0056,39.6014,1993.00,88.00,39.00,17.83,360.00,5.00,0.00,30.22,1013.70,M,M,M,M,M,M,M,M,M,M,M,M,M,M,M,M,M,84.38,KP68 132153Z AUTO 36005KT 31/04 A3022 RMK AO1 SLP137 T03110039,M
DRA,2024-07-13 21:53,-116.0278,36.6206,1009.00,88.00,57.00,35.05,M,4.00,0.01,30.06,1012.10,10.00,M,BKN,M,M,M,12000.00,M,M,M,M,M,M,M,33.00,130.00,2024-07-13 21:01,86.71,KDRA 132153Z AUTO VRB04KT 10SM BKN120 31/14 A3006 RMK AO2 PK WND 13033/2101 WSHFT 2046 RAB04E23 SLP121 P0001 T03110139,M
ELY,2024-07-13 21:53,-114.8453,39.2950,1909.00,95.00,33.00,11.30,240.00,13.00,0.00,30.22,1010.80,10.00,20.00,CLR,M,M,M,M,M,M,M,M,M,M,M,M,M,M,89.85,KELY 132153Z AUTO 24013G20KT 10SM CLR 35/01 A3022 RMK AO2 SLP108 T03500006,M
VGT,2024-07-13 21:53,-115.1933,36.2111,667.00,107.00,47.00,13.57,170.00,10.00,0.00,29.92,1011.30,10.00,15.00,CLR,M,M,M,M,M,M,M,M,M,M,M,M,M,M,103.30,KVGT 132153Z 17010G15KT 10SM CLR 42/08 A2992 RMK AO2 LTG DSNT W AND NW SLP113 T04170083,M
LOL,2024-07-13 21:53,-118.5701,40.0684,1192.43,101.00,33.00,9.41,220.00,4.00,0.00,30.02,1010.90,10.00,17.00,CLR,M,M,M,M,M,M,M,M,M,M,M,M,M,M,94.86,KLOL 132153Z AUTO 22004G17KT 10SM CLR 38/01 A3002 RMK AO2 SLP109 T03830006,M
BVU,2024-07-13 21:55,-114.8611,35.9475,671.00,105.80,44.60,12.84,0.00,0.00,0.00,29.92,M,10.00,12.00,CLR,M,M,M,M,M,M,M,M,M,M,M,M,M,M,101.53,KBVU 132155Z AUTO 00000G12KT 10SM CLR 41/07 A2992 RMK AO2 LTG DSNT W AND NW,M
CXP,2024-07-13 21:55,-119.7326,39.1923,1431.00,98.60,33.80,10.45,290.00,5.00,0.00,30.13,M,10.00,15.00,CLR,M,M,M,M,M,M,M,M,M,M,M,M,M,M,92.94,KCXP 132155Z AUTO 29005G15KT 10SM CLR 37/01 A3013 RMK AO2 LTG DSNT SE AND S,M
INS,2024-07-13 21:55,-115.6733,36.5872,955.00,91.20,48.20,22.93,240.00,9.00,0.00,30.04,1010.90,10.00,M,SCT,BKN,M,M,15000.00,17000.00,M,M,M,M,M,M,29.00,220.00,2024-07-13 21:01,87.91,KINS 132155Z AUTO 24009KT 10SM SCT150 BKN170 33/09 A3004 RMK AO2 PK WND 22029/01 LTG DSNT S TSB2059E15 SLP109 T03290090 $,M
RNO,2024-07-13 21:55,-119.7711,39.4839,1341.00,102.00,37.00,10.71,320.00,7.00,0.00,30.09,1011.20,10.00,M,SCT,BKN,M,M,8000.00,14000.00,M,M,M,M,M,M,M,M,M,96.38,KRNO 132155Z 32007KT 10SM SCT080 BKN140 39/03 A3009 RMK AO2 SLP112 T03890028,M
LSV,2024-07-13 21:55,-115.0343,36.2362,570.00,108.30,34.00,7.89,170.00,7.00,0.00,29.86,1007.60,10.00,M,FEW,M,M,M,21000.00,M,M,M,M,M,M,M,M,M,M,101.31,KLSV 132155Z AUTO 17007KT 10SM FEW210 42/01 A2986 RMK AO2 SLP076 T04240012 $,M
RTS,2024-07-13 21:55,-119.8764,39.6682,1539.00,95.00,32.00,10.85,320.00,16.00,0.00,30.16,M,10.00,22.00,CLR,M,M,M,M,M,M,M,M,M,M,M,M,M,M,89.71,KRTS 132155Z AUTO 32016G22KT 10SM CLR 35/M00 A3016 RMK AO2,M
MEV,2024-07-13 21:55,-119.7500,38.9963,1441.42,96.80,37.40,12.73,270.00,18.00,0.00,30.12,M,10.00,23.00,CLR,M,M,M,M,M,M,M,M,M,M,M,M,M,M,92.04,KMEV 132155Z AUTO 27018G23KT 10SM CLR 36/03 A3012 RMK AO2 LTG DSNT S,M
HTH,2024-07-13 21:55,-118.6315,38.5448,1282.89,98.60,30.20,9.04,180.00,12.00,0.00,30.07,M,10.00,20.00,CLR,M,M,M,M,M,M,M,M,M,M,M,M,M,M,92.46,KHTH 132155Z AUTO 18012G20KT 10SM CLR 37/M01 A3007 RMK A01,M
TMT,2024-07-13 21:55,-117.1971,39.4643,1749.34,88.00,37.00,16.49,140.00,11.00,0.00,30.23,M,10.00,16.00,CLR,M,M,M,M,M,M,M,M,M,M,M,M,M,M,84.32,KTMT 132155Z AUTO 14011G16KT 100V180 10SM CLR 31/03 A3023 RMK AO2 T03120028,M
EKO,2024-07-13 21:56,-115.7860,40.8242,1367.00,95.00,37.00,13.25,M,5.00,0.00,30.14,1012.60,10.00,M,CLR,M,M,M,M,M,M,M,M,M,M,M,M,M,M,90.44,KEKO 132156Z AUTO VRB05KT 10SM CLR 35/03 A3014 RMK AO2 SLP126 T03500028,M
WMC,2024-07-13 21:56,-117.8072,40.9019,1315.00,105.00,30.00,7.40,0.00,0.00,0.00,30.04,1010.50,10.00,M,CLR,M,M,M,M,M,M,M,M,M,M,M,M,M,M,97.85,KWMC 132156Z AUTO 00000KT 10SM CLR 41/M01 A3004 RMK AO2 SLP105 T04061011,M
NFL,2024-07-13 21:56,-118.7010,39.4166,1199.00,102.00,34.00,9.51,160.00,4.00,0.00,30.03,1013.80,10.00,M,CLR,M,M,M,M,M,M,M,M,M,M,M,M,M,M,95.87,KNFL 132156Z AUTO 16004KT 10SM CLR 39/01 A3003 RMK AO2 SLP138 T03890011,M
HND,2024-07-13 21:56,-115.1344,35.9729,742.79,106.00,50.00,15.64,110.00,7.00,0.00,29.97,1012.40,10.00,M,CLR,M,M,M,M,M,M,M,M,M,M,M,M,M,M,103.18,KHND 132156Z 11007KT 10SM CLR 41/10 A2997 RMK AO2 LTG DSNT NW SLP124 T04110100,M
TPH,2024-07-13 21:56,-117.0904,38.0505,1654.00,95.00,38.00,13.78,M,M,0.00,30.18,1012.00,10.00,M,CLR,M,M,M,M,M,M,M,M,M,M,M,M,M,M,90.49,KTPH 132156Z AUTO 10SM CLR 35/03 A3018 RMK AO2 LTG DSNT E AND SE SLP120 T03500033,M
INS,2024-07-13 22:01,-115.6733,36.5872,955.00,93.20,48.20,21.54,190.00,17.00,0.00,30.05,1011.30,10.00,23.00,SCT,BKN,M,M,15000.00,17000.00,M,M,M,M,M,M,M,M,M,89.80,KINS 132201Z AUTO 19017G23KT 10SM SCT150 BKN170 34/09 A3005 RMK AO2 WSHFT 2155 LTG DSNT S SLP113 $,M
LAS,2024-07-13 22:01,-115.1634,36.0719,663.00,104.00,48.00,15.40,160.00,6.00,0.00,29.93,M,10.00,M,SCT,BKN,M,M,12000.00,18000.00,M,M,M,M,M,M,M,M,M,100.60,KLAS 132201Z 16006KT 10SM SCT120 BKN180 40/09 A2993 RMK AO2 LTG DSNT NW T04000089 $,M
05U,2024-07-13 22:10,-116.0051,39.6042,1811.23,91.40,35.60,14.02,70.00,10.00,0.00,30.24,M,10.00,M,M,M,M,M,M,M,M,M,M,M,M,M,M,M,M,87.17,K05U 132210Z AUTO 07010KT 10SM 33/02 A3024 RMK A01,M
TPH,2024-07-13 22:12,-117.0904,38.0505,1654.00,93.00,38.00,14.66,230.00,4.00,0.00,30.18,M,10.00,M,CLR,M,M,M,M,M,M,M,VCTS,M,M,M,M,M,M,88.68,KTPH 132212Z AUTO 23004KT 10SM VCTS CLR 34/03 A3018 RMK AO2 LTG DSNT NE-SE T03390033,M
BVU,2024-07-13 22:15,-114.8611,35.9475,671.00,107.60,46.40,13.04,190.00,8.00,0.00,29.91,M,10.00,13.00,CLR,M,M,M,M,M,M,M,M,M,M,M,M,M,M,103.71,KBVU 132215Z AUTO 19008G13KT 140V200 10SM CLR 42/08 A2991 RMK AO2,M
CXP,2024-07-13 22:15,-119.7326,39.1923,1431.00,96.80,33.80,11.04,250.00,10.00,0.00,30.12,M,10.00,M,CLR,M,M,M,M,M,M,M,M,M,M,M,M,M,M,91.44,KCXP 132215Z AUTO 25010KT 210V280 10SM CLR 36/01 A3012 RMK AO2 LTG DSNT N AND SE,M
RTS,2024-07-13 22:15,-119.8764,39.6682,1539.00,95.00,32.00,10.85,310.00,12.00,0.00,30.16,M,10.00,18.00,CLR,M,M,M,M,M,M,M,M,M,M,M,M,M,M,89.71,KRTS 132215Z AUTO 31012G18KT 10SM CLR 35/00 A3016 RMK AO2,M
MEV,2024-07-13 22:15,-119.7500,38.9963,1441.42,93.20,39.20,15.27,280.00,12.00,0.00,30.12,M,10.00,21.00,CLR,M,M,M,M,M,M,M,M,M,M,M,M,M,M,88.92,KMEV 132215Z AUTO 28012G21KT 10SM CLR 34/04 A3012 RMK AO2 LTG DSNT SE-SW,M
BAM,2024-07-13 22:15,-116.8743,40.5990,1382.36,96.80,33.80,11.04,260.00,8.00,0.00,30.10,M,10.00,15.00,M,M,M,M,M,M,M,M,M,M,M,M,M,M,M,91.44,KBAM 132215Z AUTO 26008G15KT 10SM 36/01 A3010 RMK AO1,M
HTH,2024-07-13 22:15,-118.6315,38.5448,1282.89,98.60,30.20,9.04,M,4.00,0.00,30.05,M,10.00,10.00,CLR,M,M,M,M,M,M,M,M,M,M,M,M,M,M,92.46,KHTH 132215Z AUTO VRB04G10KT 10SM CLR 37/M01 A3005 RMK A01,M
TMT,2024-07-13 22:15,-117.1971,39.4643,1749.34,84.20,39.70,20.69,150.00,17.00,0.00,30.25,M,10.00,21.00,SCT,M,M,M,12000.00,M,M,M,M,M,M,M,M,M,M,81.46,KTMT 132215Z AUTO 15017G21KT 10SM SCT120 29/04 A3025 RMK AO2 T02900043,M
05U,2024-07-13 22:30,-116.0051,39.6042,1811.23,93.20,35.60,13.25,M,5.00,0.00,30.24,M,10.00,11.00,M,M,M,M,M,M,M,M,M,M,M,M,M,M,M,88.76,K05U 132230Z AUTO VRB05G11KT 10SM 34/02 A3024 RMK A01,M
BVU,2024-07-13 22:35,-114.8611,35.9475,671.00,107.60,46.40,13.04,190.00,8.00,0.00,29.90,M,10.00,M,CLR,M,M,M,M,M,M,M,M,M,M,M,M,M,M,103.71,KBVU 132235Z AUTO 19008KT 10SM CLR 42/08 A2990 RMK AO2,M
CXP,2024-07-13 22:35,-119.7326,39.1923,1431.00,96.80,33.80,11.04,330.00,9.00,0.00,30.13,M,10.00,16.00,CLR,M,M,M,M,M,M,M,M,M,M,M,M,M,M,91.44,KCXP 132235Z AUTO 33009G16KT 10SM CLR 36/01 A3013 RMK AO2 LTG DSNT E AND SE AND NW,M
RTS,2024-07-13 22:35,-119.8764,39.6682,1539.00,93.20,33.80,12.34,290.00,13.00,0.00,30.16,M,10.00,M,CLR,M,M,M,M,M,M,M,M,M,M,M,M,M,M,88.55,KRTS 132235Z AUTO 29013KT 10SM CLR 34/01 A3016 RMK AO2,M
MEV,2024-07-13 22:35,-119.7500,38.9963,1441.42,89.60,41.00,18.33,200.00,12.00,0.00,30.16,M,10.00,18.00,CLR,M,M,M,M,M,M,M,M,M,M,M,M,M,M,85.82,KMEV 132235Z AUTO 20012G18KT 160V230 10SM CLR 32/05 A3016 RMK AO2 LTG DSNT E AND S AND NW,M
BAM,2024-07-13 22:35,-116.8743,40.5990,1382.36,98.60,33.80,10.45,270.00,9.00,0.00,30.09,M,10.00,18.00,CLR,M,M,M,M,M,M,M,M,M,M,M,M,M,M,92.94,KBAM 132235Z AUTO 27009G18KT 230V300 10SM CLR 37/01 A3009 RMK AO1,M
HTH,2024-07-13 22:35,-118.6315,38.5448,1282.89,100.40,30.20,8.56,M,3.00,0.00,30.05,M,10.00,M,CLR,M,M,M,M,M,M,M,M,M,M,M,M,M,M,93.98,KHTH 132235Z AUTO VRB03KT 10SM CLR 38/M01 A3005 RMK A01,M
TMT,2024-07-13 22:35,-117.1971,39.4643,1749.34,85.50,39.40,19.62,180.00,9.00,0.00,30.27,M,10.00,14.00,SCT,BKN,M,M,9500.00,11000.00,M,M,M,M,M,M,M,M,M,82.41,KTMT 132235Z AUTO 18009G14KT 10SM SCT095 BKN110 30/04 A3027 RMK AO2 T02970041,M
RNO,2024-07-13 22:43,-119.7711,39.4839,1341.00,100.00,37.00,11.37,290.00,9.00,0.00,30.08,M,10.00,14.00,BKN,BKN,M,M,12000.00,16000.00,M,M,TS,M,M,M,M,M,M,94.66,KRNO 132243Z 29009G14KT 10SM TS BKN120CB BKN160 38/03 A3008 RMK AO2 TSB42 OCNL LTGIC S TS S MOV N T03780028,M
HND,2024-07-13 22:43,-115.1344,35.9729,742.79,105.80,51.80,16.82,190.00,5.00,0.00,29.96,M,10.00,M,CLR,M,M,M,M,M,M,M,TS,M,M,M,M,M,M,103.57,KHND 132243Z 19005KT 10SM TS CLR 41/11 A2996 RMK AO2 TSB37,M
TPH,2024-07-13 22:48,-117.0904,38.0505,1654.00,87.00,46.00,24.10,90.00,27.00,T,30.19,M,7.00,44.00,SCT,M,M,M,12000.00,M,M,M,-RA,M,M,M,44.00,90.00,2024-07-13 22:39,83.98,KTPH 132248Z AUTO 09027G44KT 7SM -RA SCT120 31/08 A3019 RMK AO2 PK WND 09044/2239 WSHFT 2234 LTG DSNT N-E RAB38 P0000 T03060078,M
05U,2024-07-13 22:50,-116.0051,39.6042,1811.23,95.00,39.20,14.44,200.00,11.00,0.00,30.24,M,10.00,M,M,M,M,M,M,M,M,M,M,M,M,M,M,M,M,90.57,K05U 132250Z AUTO 20011KT 10SM 35/04 A3024 RMK A01,M
P68,2024-07-13 22:53,-116.0056,39.6014,1993.00,92.00,38.00,15.12,40.00,12.00,0.00,30.20,1012.30,M,21.00,M,M,M,M,M,M,M,M,M,M,M,M,M,M,M,87.78,KP68 132253Z AUTO 04012G21KT 33/03 A3020 RMK AO1 WSHFT 2236 SLP123 T03330033,M
DRA,2024-07-13 22:53,-116.0278,36.6206,1009.00,90.00,52.00,27.42,10.00,13.00,T,30.05,1012.00,10.00,M,FEW,SCT,BKN,M,5000.00,9000.00,11000.00,M,M,M,M,M,M,M,M,87.40,KDRA 132253Z AUTO 01013KT 10SM FEW050 SCT090 BKN110 32/11 A3005 RMK AO2 RAB25E34 SLP120 P0000 T03220111,M
ELY,2024-07-13 22:53,-114.8453,39.2950,1909.00,94.00,34.00,12.13,M,5.00,0.00,30.20,1010.50,10.00,22.00,CLR,M,M,M,M,M,M,M,M,M,M,M,M,M,M,89.21,KELY 132253Z AUTO VRB05G22KT 10SM CLR 34/01 A3020 RMK AO2 SLP105 T03440011,M
VGT,2024-07-13 22:53,-115.1933,36.2111,667.00,107.00,51.00,15.76,310.00,13.00,0.00,29.91,1010.90,10.00,M,CLR,M,M,M,M,M,M,M,M,M,M,M,M,M,M,104.53,KVGT 132253Z 31013KT 10SM CLR 42/11 A2991 RMK AO2 LTG DSNT S SLP109 T04170106,M
LOL,2024-07-13 22:53,-118.5701,40.0684,1192.43,104.00,33.00,8.60,0.00,0.00,0.00,29.99,1010.00,10.00,M,CLR,M,M,M,M,M,M,M,M,M,M,M,M,M,M,97.43,KLOL 132253Z AUTO 00000KT 10SM CLR 40/01 A2999 RMK AO2 SLP100 T04000006,M
BVU,2024-07-13 22:55,-114.8611,35.9475,671.00,107.60,46.40,13.04,M,5.00,0.00,29.89,M,10.00,14.00,CLR,M,M,M,M,M,M,M,M,M,M,M,M,M,M,103.71,KBVU 132255Z AUTO VRB05G14KT 10SM CLR 42/08 A2989 RMK AO2 LTG DSNT W AND NW,M
CXP,2024-07-13 22:55,-119.7326,39.1923,1431.00,95.00,39.20,14.44,260.00,7.00,0.00,30.14,M,10.00,13.00,CLR,M,M,M,M,M,M,M,M,M,M,M,M,M,M,90.57,KCXP 132255Z AUTO 26007G13KT 230V290 10SM CLR 35/04 A3014 RMK AO2,M
INS,2024-07-13 22:55,-115.6733,36.5872,955.00,96.00,41.00,15.02,200.00,8.00,0.00,30.03,1010.50,10.00,M,FEW,SCT,M,M,16000.00,18000.00,M,M,M,M,M,M,34.00,200.00,2024-07-13 22:16,91.64,KINS 132255Z AUTO 20008KT 10SM FEW160 SCT180 36/05 A3003 RMK AO2 PK WND 20034/16 SLP105 T03550049 $,M
RNO,2024-07-13 22:55,-119.7711,39.4839,1341.00,98.00,40.00,13.59,260.00,15.00,0.00,30.08,1011.30,10.00,22.00,BKN,BKN,M,M,12000.00,16000.00,M,M,TS,M,M,M,M,M,M,93.42,KRNO 132255Z 26015G22KT 10SM TS BKN120CB BKN160 37/04 A3008 RMK AO2 TSB42 SLP113 OCNL LTGIC OHD TS OHD MOV N VIRGA T03670044,M
LSV,2024-07-13 22:55,-115.0343,36.2362,570.00,108.00,44.40,11.94,320.00,12.00,0.00,29.84,1007.00,10.00,18.00,CLR,M,M,M,M,M,M,M,M,M,M,M,M,M,M,103.45,KLSV 132255Z AUTO 32012G18KT 10SM CLR 42/07 A2984 RMK AO2 SLP070 T04230069 $,M
RTS,2024-07-13 22:55,-119.8764,39.6682,1539.00,91.40,32.00,12.14,300.00,14.00,0.00,30.16,M,10.00,M,CLR,M,M,M,M,M,M,M,M,M,M,M,M,M,M,86.91,KRTS 132255Z AUTO 30014KT 10SM CLR 33/00 A3016 RMK AO2,M
MEV,2024-07-13 22:55,-119.7500,38.9963,1441.42,82.40,44.60,26.49,180.00,25.00,0.00,30.17,M,8.00,31.00,FEW,FEW,SCT,M,6000.00,7000.00,11000.00,M,M,M,M,M,M,M,M,80.50,KMEV 132255Z AUTO 18025G31KT 8SM FEW060 FEW070 SCT110 28/07 A3017 RMK AO2 LTG DSNT ALQDS,M
BAM,2024-07-13 22:55,-116.8743,40.5990,1382.36,98.60,35.60,11.23,240.00,4.00,0.00,30.09,M,10.00,M,CLR,M,M,M,M,M,M,M,M,M,M,M,M,M,M,93.23,KBAM 132255Z AUTO 24004KT 10SM CLR 37/02 A3009 RMK AO1,M
HTH,2024-07-13 22:55,-118.6315,38.5448,1282.89,102.20,26.60,7.00,160.00,10.00,0.00,30.04,M,10.00,M,CLR,M,M,M,M,M,M,M,M,M,M,M,M,M,M,95.09,KHTH 132255Z AUTO 16010KT 10SM CLR 39/M03 A3004 RMK A01,M
TMT,2024-07-13 22:55,-117.1971,39.4643,1749.34,86.00,39.00,19.01,110.00,5.00,0.00,30.24,M,10.00,M,SCT,SCT,M,M,9500.00,12000.00,M,M,M,M,M,M,M,M,M,82.78,KTMT 132255Z AUTO 11005KT 10SM SCT095 SCT120 30/04 A3024 RMK AO2 T03000039,M
EKO,2024-07-13 22:56,-115.7860,40.8242,1367.00,91.00,43.00,18.94,240.00,8.00,T,30.13,1013.20,10.00,M,CLR,M,M,M,M,M,M,M,M,M,M,M,M,M,M,87.18,KEKO 132256Z AUTO 24008KT 10SM CLR 33/06 A3013 RMK AO2 RAB00E09 SLP132 P0000 T03280061,M
WMC,2024-07-13 22:56,-117.8072,40.9019,1315.00,102.00,30.00,8.09,190.00,3.00,0.00,30.03,1010.90,10.00,M,CLR,M,M,M,M,M,M,M,M,M,M,M,M,M,M,95.31,KWMC 132256Z AUTO 19003KT 10SM CLR 39/M01 A3003 RMK AO2 SLP109 T03891011,M
HND,2024-07-13 22:56,-115.1344,35.9729,742.79,103.00,54.00,19.81,220.00,12.00,0.00,29.96,1012.40,9.00,15.00,CLR,M,M,M,M,M,M,M,TS,M,M,M,M,M,M,101.38,KHND 132256Z 22012G15KT 9SM TS CLR 39/12 A2996 RMK AO2 TSB37 SLP124 T03940122,M
TPH,2024-07-13 22:56,-117.0904,38.0505,1654.00,87.00,45.00,23.20,90.00,19.00,T,30.19,1013.20,10.00,37.00,FEW,SCT,M,M,8500.00,12000.00,M,M,M,M,M,M,44.00,90.00,2024-07-13 22:39,83.90,KTPH 132256Z AUTO 09019G37KT 10SM FEW085 SCT120 31/07 A3019 RMK AO2 PK WND 09044/2239 WSHFT 2234 LTG DSNT N AND NE RAB38E51 SLP132 P0000 T03060072,M
LAS,2024-07-13 22:56,-115.1634,36.0719,663.00,104.00,48.00,15.40,300.00,11.00,0.00,29.92,1009.70,10.00,15.00,SCT,BKN,M,M,12000.00,15000.00,M,M,M,M,M,M,M,M,M,100.60,KLAS 132256Z 30011G15KT 10SM SCT120 BKN150 40/09 A2992 RMK AO2 SLP097 T04000089 $,M
NFL,2024-07-13 22:56,-118.7010,39.4166,1199.00,103.00,34.00,9.23,290.00,9.00,0.00,30.00,1013.10,10.00,M,CLR,M,M,M,M,M,M,M,M,M,M,M,M,M,M,96.72,KNFL 132256Z AUTO 29009KT 10SM CLR 39/01 A3000 RMK AO2 SLP131 T03940011,M
LSV,2024-07-13 22:58,-115.0343,36.2362,570.00,107.60,42.80,11.37,340.00,13.00,0.00,29.85,1007.40,10.00,20.00,CLR,M,M,M,M,M,M,M,M,M,M,M,M,M,M,102.63,KLSV 132258Z AUTO 34013G20KT 10SM CLR 42/06 A2985 RMK AO2 WSHFT 49 LTG DSNT S SLP074 $,M
05U,2024-07-13 23:10,-116.0051,39.6042,1811.23,95.00,37.40,13.46,170.00,11.00,0.00,30.23,M,10.00,M,M,M,M,M,M,M,M,M,M,M,M,M,M,M,M,90.46,K05U 132310Z AUTO 17011KT 10SM 35/03 A3023 RMK A01,M
BVU,2024-07-13 23:15,-114.8611,35.9475,671.00,107.60,46.40,13.04,M,4.00,0.00,29.89,M,10.00,10.00,CLR,M,M,M,M,M,M,M,M,M,M,M,M,M,M,103.71,KBVU 132315Z AUTO VRB04G10KT 10SM CLR 42/08 A2989 RMK AO2 LTG DSNT W,M
CXP,2024-07-13 23:15,-119.7326,39.1923,1431.00,86.00,44.60,23.59,190.00,22.00,0.00,30.18,M,6.00,36.00,CLR,M,M,M,M,M,M,M,HZ,M,M,M,M,M,M,83.07,KCXP 132315Z AUTO 19022G36KT 6SM HZ CLR 30/07 A3018 RMK AO2 LTG DSNT N AND SW,M
RTS,2024-07-13 23:15,-119.8764,39.6682,1539.00,89.60,37.40,15.92,250.00,17.00,0.00,30.16,M,10.00,26.00,CLR,M,M,M,M,M,M,M,M,M,M,M,M,M,M,85.67,KRTS 132315Z AUTO 25017G26KT 10SM CLR 32/03 A3016 RMK AO2,M
MEV,2024-07-13 23:15,-119.7500,38.9963,1441.42,80.60,44.60,28.08,200.00,19.00,0.00,30.20,M,10.00,25.00,SCT,BKN,OVC,M,5000.00,6000.00,11000.00,M,M,M,M,M,M,M,M,79.42,KMEV 132315Z AUTO 20019G25KT 10SM SCT050 BKN060 OVC110 27/07 A3020 RMK AO2 LTG DSNT SW,M
BAM,2024-07-13 23:15,-116.8743,40.5990,1382.36,98.60,35.60,11.23,230.00,6.00,0.00,30.08,M,10.00,M,CLR,M,M,M,M,M,M,M,M,M,M,M,M,M,M,93.23,KBAM 132315Z AUTO 23006KT 10SM CLR 37/02 A3008 RMK AO1,M
HTH,2024-07-13 23:15,-118.6315,38.5448,1282.89,100.40,28.40,7.95,140.00,4.00,0.00,30.04,M,10.00,17.00,CLR,M,M,M,M,M,M,M,M,M,M,M,M,M,M,93.77,KHTH 132315Z AUTO 14004G17KT 10SM CLR 38/M02 A3004 RMK A01,M
TMT,2024-07-13 23:15,-117.1971,39.4643,1749.34,88.70,39.60,17.86,90.00,6.00,0.00,30.21,M,10.00,M,CLR,M,M,M,M,M,M,M,M,M,M,M,M,M,M,84.99,KTMT 132315Z AUTO 09006KT 10SM CLR 32/04 A3021 RMK AO2 T03150042,M
HND,2024-07-13 23:19,-115.1344,35.9729,742.79,100.40,51.80,19.76,300.00,8.00,0.00,29.95,M,10.00,21.00,CLR,M,M,M,M,M,M,M,M,M,M,M,M,M,M,97.90,KHND 132319Z 30008G21KT 10SM CLR 38/11 A2995 RMK AO2 TSE13,M
EKO,2024-07-13 23:21,-115.7860,40.8242,1367.00,92.00,40.00,16.35,330.00,11.00,T,30.13,M,10.00,M,CLR,M,M,M,M,M,M,M,M,M,M,M,M,M,M,87.88,KEKO 132321Z AUTO 33011KT 10SM CLR 33/04 A3013 RMK AO2 WSHFT 2301 RAB02E11 P0000 T03330044,M
DRA,2024-07-13 23:27,-116.0278,36.6206,1009.00,93.00,50.00,23.18,40.00,13.00,0.00,30.01,M,10.00,M,FEW,M,M,M,12000.00,M,M,M,M,M,M,M,M,M,M,89.90,KDRA 132327Z AUTO 04013KT 10SM FEW120 34/10 A3001 RMK AO2 WSHFT 2310 T03390100,M
05U,2024-07-13 23:30,-116.0051,39.6042,1811.23,95.00,37.40,13.46,170.00,9.00,0.00,30.22,M,10.00,16.00,M,M,M,M,M,M,M,M,M,M,M,M,M,M,M,90.46,K05U 132330Z AUTO 17009G16KT 10SM 35/03 A3022 RMK A01,M
HND,2024-07-13 23:32,-115.1344,35.9729,742.79,100.40,51.80,19.76,280.00,7.00,0.00,29.95,M,10.00,M,CLR,M,M,M,M,M,M,M,VCTS,M,M,M,M,M,M,97.90,KHND 132332Z 28007KT 10SM VCTS CLR 38/11 A2995 RMK AO2 LTG DSNT SW TSE13B26,M
BVU,2024-07-13 23:35,-114.8611,35.9475,671.00,107.60,46.40,13.04,160.00,10.00,0.00,29.88,M,10.00,M,CLR,M,M,M,M,M,M,M,M,M,M,M,M,M,M,103.71,KBVU 132335Z AUTO 16010KT 140V200 10SM CLR 42/08 A2988 RMK AO2,M
CXP,2024-07-13 23:35,-119.7326,39.1923,1431.00,82.40,46.40,28.36,200.00,11.00,0.00,30.19,M,10.00,22.00,CLR,M,M,M,M,M,M,M,M,M,M,M,M,M,M,80.64,KCXP 132335Z AUTO 20011G22KT 170V240 10SM CLR 28/08 A3019 RMK AO2,M
RTS,2024-07-13 23:35,-119.8764,39.6682,1539.00,86.00,41.00,20.54,270.00,15.00,0.00,30.17,M,10.00,23.00,CLR,M,M,M,M,M,M,M,M,M,M,M,M,M,M,82.86,KRTS 132335Z AUTO 27015G23KT 10SM CLR 30/05 A3017 RMK AO2,M
MEV,2024-07-13 23:35,-119.7500,38.9963,1441.42,80.60,44.60,28.08,220.00,17.00,0.00,30.20,M,9.00,26.00,FEW,SCT,BKN,M,4300.00,6000.00,7000.00,M,-RA,M,M,M,M,M,M,79.42,KMEV 132335Z AUTO 22017G26KT 9SM -RA FEW043 SCT060 BKN070 27/07 A3020 RMK AO2 LTG DSNT SW AND W,M
BAM,2024-07-13 23:35,-116.8743,40.5990,1382.36,98.60,35.60,11.23,210.00,5.00,0.00,30.08,M,10.00,M,CLR,M,M,M,M,M,M,M,M,M,M,M,M,M,M,93.23,KBAM 132335Z AUTO 21005KT 10SM CLR 37/02 A3008 RMK AO1,M
HTH,2024-07-13 23:35,-118.6315,38.5448,1282.89,100.40,28.40,7.95,140.00,12.00,0.00,30.03,M,10.00,17.00,M,M,M,M,M,M,M,M,M,M,M,M,M,M,M,93.77,KHTH 132335Z AUTO 14012G17KT 10SM 38/M02 A3003 RMK A01,M
TMT,2024-07-13 23:35,-117.1971,39.4643,1749.34,88.50,39.40,17.83,100.00,4.00,0.00,30.20,M,10.00,M,CLR,M,M,M,M,M,M,M,M,M,M,M,M,M,M,84.81,KTMT 132335Z AUTO 10004KT 10SM CLR 31/04 A3020 RMK AO2 T03140041,M
TPH,2024-07-13 23:43,-117.0904,38.0505,1654.00,84.00,48.00,28.60,100.00,31.00,T,30.23,M,10.00,41.00,FEW,M,M,M,4700.00,M,M,M,VCTS -RA,M,M,M,41.00,110.00,2024-07-13 23:43,81.87,KTPH 132343Z AUTO 10031G41KT 10SM VCTS -RA FEW047 29/09 A3023 RMK AO2 PK WND 11041/2343 LTG DSNT SW RAB07 P0000 T02890089,M
HND,2024-07-13 23:48,-115.1344,35.9729,742.79,98.60,57.20,25.41,250.00,17.00,T,29.95,M,10.00,22.00,CLR,M,M,M,M,M,M,M,-RA,M,M,M,M,M,M,97.76,KHND 132348Z 25017G22KT 10SM -RA CLR 37/14 A2995 RMK AO2 TSE13B26E42RAB46 P0000,M
05U,2024-07-13 23:50,-116.0051,39.6042,1811.23,95.00,35.60,12.53,160.00,6.00,0.00,30.21,M,10.00,M,M,M,M,M,M,M,M,M,M,M,M,M,M,M,M,90.25,K05U 132350Z AUTO 16006KT 10SM 35/02 A3021 RMK A01,M
RNO,2024-07-13 23:52,-119.7711,39.4839,1341.00,87.80,48.20,25.52,190.00,16.00,0.02,30.14,M,10.00,20.00,BKN,BKN,M,M,12000.00,16000.00,M,M,TS,M,M,M,M,M,M,84.87,KRNO 132352Z 19016G20KT 10SM TS BKN120CB BKN160 31/09 A3014 RMK AO2 RAB03E39 OCNL LTGICCG OHD TS OHD MOV N P0002 $,M
P68,2024-07-13 23:53,-116.0056,39.6014,1993.00,94.00,35.00,12.62,M,6.00,0.00,30.18,1012.10,M,M,M,M,M,M,M,M,M,M,M,M,M,M,M,M,M,89.36,KP68 132353Z AUTO VRB06KT 34/02 A3018 RMK AO1 SLP121 T03440017 10356 20306 58010,M
DRA,2024-07-13 23:53,-116.0278,36.6206,1009.00,94.00,50.00,22.48,50.00,15.00,0.00,30.01,1010.20,10.00,M,CLR,M,M,M,M,M,M,M,M,M,M,M,M,M,M,90.89,KDRA 132353Z AUTO 05015KT 10SM CLR 34/10 A3001 RMK AO2 WSHFT 2310 SLP102 60001 T03440100 10406 20283 58018,M
ELY,2024-07-13 23:53,-114.8453,39.2950,1909.00,85.00,41.00,21.21,150.00,22.00,0.00,30.24,1012.50,10.00,33.00,CLR,M,M,M,M,M,M,M,M,M,M,M,33.00,140.00,2024-07-13 23:43,82.10,KELY 132353Z AUTO 15022G33KT 10SM CLR 29/05 A3024 RMK AO2 PK WND 14033/2343 LTG DSNT N AND W SLP125 T02940050 10367 20294 55005,M
VGT,2024-07-13 23:53,-115.1933,36.2111,667.00,105.00,50.00,16.11,350.00,13.00,T,29.89,1010.40,10.00,18.00,FEW,M,M,M,3500.00,M,M,M,-RA,M,M,M,M,M,M,102.16,KVGT 132353Z 35013G18KT 10SM -RA FEW035 41/10 A2989 RMK AO2 RAB46 SLP104 P0000 60000 T04060100 10422 20394 56016,M
LOL,2024-07-13 23:53,-118.5701,40.0684,1192.43,104.00,33.00,8.60,160.00,7.00,0.00,29.97,1009.40,10.00,M,CLR,M,M,M,M,M,M,M,M,M,M,M,M,M,M,97.43,KLOL 132353Z AUTO 16007KT 10SM CLR 40/01 A2997 RMK AO2 SLP094 T04000006 10411 20356 58019,M
BVU,2024-07-13 23:55,-114.8611,35.9475,671.00,107.60,46.40,13.04,100.00,9.00,0.00,29.87,M,10.00,15.00,CLR,M,M,M,M,M,M,M,M,M,M,M,M,M,M,103.71,KBVU 132355Z AUTO 10009G15KT 10SM CLR 42/08 A2987 RMK AO2 LTG DSNT E AND SE,M
CXP,2024-07-13 23:55,-119.7326,39.1923,1431.00,82.40,44.60,26.49,190.00,8.00,0.00,30.18,M,10.00,17.00,CLR,M,M,M,M,M,M,M,M,M,M,M,M,M,M,80.50,KCXP 132355Z AUTO 19008G17KT 10SM CLR 28/07 A3018 RMK AO2 LTG DSNT SW,M
INS,2024-07-13 23:55,-115.6733,36.5872,955.00,97.70,44.00,16.00,330.00,7.00,0.00,30.01,1009.80,10.00,M,FEW,FEW,M,M,19000.00,22000.00,M,M,M,M,M,M,M,M,M,93.59,KINS 132355Z AUTO 33007KT 10SM FEW190 FEW220 37/07 A3001 RMK AO2 SLP098 T03650066 10402 20324 57016 $,M
RNO,2024-07-13 23:55,-119.7711,39.4839,1341.00,86.00,49.00,27.85,180.00,15.00,0.02,30.14,1014.10,10.00,20.00,BKN,BKN,M,M,12000.00,16000.00,M,M,M,M,M,M,M,M,M,83.49,KRNO 132355Z 18015G20KT 10SM BKN120 BKN160 30/09 A3014 RMK AO2 RAB03E39 TSE53 SLP141 VIRGA P0002 60002 T03000094 10394 20289 53010 $,M
LSV,2024-07-13 23:55,-115.0343,36.2362,570.00,106.50,43.00,11.83,300.00,14.00,0.00,29.83,1006.70,10.00,M,CLR,M,M,M,M,M,M,M,M,M,M,M,M,M,M,101.70,KLSV 132355Z AUTO 30014KT 10SM CLR 41/06 A2983 RMK AO2 SLP067 T04140062 10431 20400 57014 $,M
RTS,2024-07-13 23:55,-119.8764,39.6682,1539.00,86.00,35.60,16.63,200.00,27.00,0.00,30.18,M,10.00,32.00,FEW,SCT,M,M,8000.00,10000.00,M,M,M,M,M,M,M,M,M,82.69,KRTS 132355Z AUTO 20027G32KT 10SM FEW080 SCT100 30/02 A3018 RMK AO2,M
MEV,2024-07-13 23:55,-119.7500,38.9963,1441.42,82.40,41.00,23.07,250.00,15.00,0.00,30.19,M,10.00,21.00,FEW,FEW,SCT,M,4300.00,5500.00,7500.00,M,M,M,M,M,M,M,M,80.29,KMEV 132355Z AUTO 25015G21KT 10SM FEW043 FEW055 SCT075 28/05 A3019 RMK AO2 LTG DSNT SW AND W,M
BAM,2024-07-13 23:55,-116.8743,40.5990,1382.36,98.60,37.40,12.05,160.00,17.00,0.00,30.08,M,10.00,23.00,CLR,M,M,M,M,M,M,M,M,M,M,M,M,M,M,93.54,KBAM 132355Z AUTO 16017G23KT 10SM CLR 37/03 A3008 RMK AO1,M
HTH,2024-07-13 23:55,-118.6315,38.5448,1282.89,100.40,26.60,7.39,M,6.00,0.00,30.03,M,10.00,M,CLR,M,M,M,M,M,M,M,M,M,M,M,M,M,M,93.57,KHTH 132355Z AUTO VRB06KT 10SM CLR 38/M03 A3003 RMK A01,M
TMT,2024-07-13 23:55,-117.1971,39.4643,1749.34,87.30,40.30,19.18,110.00,5.00,0.00,30.20,M,10.00,M,CLR,M,M,M,M,M,M,M,M,M,M,M,M,M,M,83.86,KTMT 132355Z AUTO 11005KT 10SM CLR 31/05 A3020 RMK AO2 T03070046 10358 20287,M
EKO,2024-07-13 23:56,-115.7860,40.8242,1367.00,95.00,38.00,13.78,340.00,8.00,T,30.12,1012.70,10.00,M,CLR,M,M,M,M,M,M,M,M,M,M,M,M,M,M,90.49,KEKO 132356Z AUTO 34008KT 10SM CLR 35/03 A3012 RMK AO2 WSHFT 2301 RAB02E11 SLP127 P0000 60000 T03500033 10378 20311 56011,M
WMC,2024-07-13 23:56,-117.8072,40.9019,1315.00,101.00,30.00,8.34,90.00,11.00,0.00,30.02,1010.50,10.00,22.00,CLR,M,M,M,M,M,M,M,M,M,M,M,M,M,M,94.46,KWMC 132356Z AUTO 09011G22KT 10SM CLR 38/M01 A3002 RMK AO2 SLP105 T03831011 10417 20367 56011,M
HND,2024-07-13 23:56,-115.1344,35.9729,742.79,98.00,56.00,24.78,360.00,5.00,T,29.94,1012.00,10.00,22.00,CLR,M,M,M,M,M,M,M,-RA,M,M,M,M,M,M,96.65,KHND 132356Z 36005G22KT 10SM -RA CLR 37/13 A2994 RMK AO2 TSE13B26E42RAB46 SLP120 P0000 60000 T03670133 10417 20361 56014,M
TPH,2024-07-13 23:56,-117.0904,38.0505,1654.00,81.00,50.00,33.97,110.00,27.00,T,30.25,1016.20,10.00,42.00,FEW,FEW,M,M,3000.00,12000.00,M,M,-RA,M,M,M,49.00,90.00,2024-07-13 23:45,80.12,KTPH 132356Z AUTO 11027G42KT 10SM -RA FEW030 FEW120 27/10 A3025 RMK AO2 PK WND 09049/2345 RAB07 SLP162 P0000 60000 T02720100 10361 20272 53015,M
LAS,2024-07-13 23:56,-115.1634,36.0719,663.00,95.00,57.00,28.16,280.00,24.00,0.01,29.92,1009.80,2.50,50.00,FEW,BKN,M,M,9500.00,12000.00,M,M,RA SQ,M,M,M,50.00,230.00,2024-07-13 23:54,93.75,KLAS 132356Z 28024G50KT 2 1/2SM RA SQ FEW095 BKN120 35/14 A2992 RMK AO2 PK WND 23050/2354 VIS 3/4V5 RAB51 SLP098 LTG DSNT S CB DSNT S P0001 60001 T03500139 10428 20350 $,M
