station,valid,lon,lat,elevation,tmpf,dwpf,relh,drct,sknt,p01i,alti,mslp,vsby,gust,skyc1,skyc2,skyc3,skyc4,skyl1,skyl2,skyl3,skyl4,wxcodes,ice_accretion_1hr,ice_accretion_3hr,ice_accretion_6hr,peak_wind_gust,peak_wind_drct,peak_wind_time,feel,metar,snowdepth
BVU,2022-08-08 00:15,-114.8611,35.9475,671.00,102.20,44.60,14.29,140.00,4.00,0.00,29.90,M,M,M,M,M,M,M,M,M,M,M,M,M,M,M,M,M,M,98.07,KBVU 080015Z AUTO 14004KT 39/07 A2990 RMK AO2 PWINO TSNO,M
CXP,2022-08-08 00:15,-119.7326,39.1923,1431.00,93.20,37.40,14.23,M,6.00,0.00,30.10,M,10.00,M,SCT,M,M,M,11000.00,M,M,M,M,M,M,M,M,M,M,88.83,KCXP 080015Z AUTO VRB06KT 10SM SCT110 34/03 A3010 RMK AO2,M
RTS,2022-08-08 00:15,-119.8764,39.6682,1539.00,89.60,35.60,14.83,M,4.00,0.00,30.14,M,10.00,M,SCT,M,M,M,11000.00,M,M,M,M,M,M,M,M,M,M,85.62,KRTS 080015Z AUTO VRB04KT 10SM SCT110 32/02 A3014 RMK AO2,M
MEV,2022-08-08 00:15,-119.7500,38.9963,1441.42,93.20,42.80,17.55,M,4.00,0.00,30.09,M,10.00,M,FEW,M,M,M,12000.00,M,M,M,M,M,M,M,M,M,M,89.17,KMEV 080015Z AUTO VRB04KT 10SM FEW120 34/06 A3009 RMK AO2,M
BAM,2022-08-08 00:15,-116.8743,40.5990,1382.36,95.00,37.40,13.46,40.00,3.00,0.00,30.13,M,10.00,M,CLR,M,M,M,M,M,M,M,M,M,M,M,M,M,M,90.46,KBAM 080015Z AUTO 04003KT 10SM CLR 35/03 A3013 RMK AO1,M
HTH,2022-08-08 00:15,-118.6315,38.5448,1282.89,93.20,37.40,14.23,300.00,5.00,0.00,30.05,M,10.00,M,CLR,M,M,M,M,M,M,M,M,M,M,M,M,M,M,88.83,KHTH 080015Z AUTO 30005KT 10SM CLR 34/03 A3005 RMK A01,M
TMT,2022-08-08 00:15,-117.1971,39.4643,1749.34,M,M,M,290.00,6.00,0.00,30.22,M,10.00,M,CLR,M,M,M,M,M,M,M,M,M,M,M,M,M,M,M,KTMT 080015Z AUTO 29006KT 10SM CLR A3022 RMK AO2,M
TMT,2022-08-08 00:35,-117.1971,39.4643,1749.34,M,M,M,0.00,0.00,0.00,30.22,M,10.00,M,CLR,M,M,M,M,M,M,M,M,M,M,M,M,M,M,M,KTMT 080035Z AUTO 00000KT 10SM CLR A3022 RMK AO2,M
HTH,2022-08-08 00:35,-118.6315,38.5448,1282.89,93.20,39.20,15.27,330.00,4.00,0.00,30.04,M,10.00,M,CLR,M,M,M,M,M,M,M,M,M,M,M,M,M,M,88.92,KHTH 080035Z AUTO 33004KT 10SM CLR 34/04 A3004 RMK A01,M
MEV,2022-08-08 00:35,-119.7500,38.9963,1441.42,91.40,48.20,22.78,270.00,13.00,0.00,30.09,M,10.00,M,SCT,M,M,M,12000.00,M,M,M,M,M,M,M,M,M,M,88.09,KMEV 080035Z AUTO 27013KT 10SM SCT120 33/09 A3009 RMK AO2,M
RTS,2022-08-08 00:35,-119.8764,39.6682,1539.00,89.60,37.40,15.92,180.00,6.00,0.00,30.14,M,10.00,M,BKN,M,M,M,11000.00,M,M,M,M,M,M,M,M,M,M,85.67,KRTS 080035Z AUTO 18006KT 10SM BKN110 32/03 A3014 RMK AO2,M
CXP,2022-08-08 00:35,-119.7326,39.1923,1431.00,95.00,37.40,13.46,280.00,6.00,0.00,30.10,M,10.00,13.00,BKN,M,M,M,11000.00,M,M,M,M,M,M,M,M,M,M,90.46,KCXP 080035Z AUTO 28006G13KT 10SM BKN110 35/03 A3010 RMK AO2,M
BVU,2022-08-08 00:35,-114.8611,35.9475,671.00,102.20,44.60,14.29,0.00,0.00,0.00,29.90,M,M,M,M,M,M,M,M,M,M,M,M,M,M,M,M,M,M,98.07,KBVU 080035Z AUTO 00000KT 39/07 A2990 RMK AO2 PWINO TSNO,M
BAM,2022-08-08 00:35,-116.8743,40.5990,1382.36,95.00,37.40,13.46,40.00,5.00,0.00,30.13,M,10.00,M,CLR,M,M,M,M,M,M,M,M,M,M,M,M,M,M,90.46,KBAM 080035Z AUTO 04005KT 10SM CLR 35/03 A3013 RMK AO1,M
VGT,2022-08-08 00:53,-115.1933,36.2111,667.00,104.00,48.00,15.40,120.00,7.00,0.00,29.89,1010.60,10.00,M,CLR,M,M,M,M,M,M,M,M,M,M,M,M,M,M,100.60,KVGT 080053Z 12007KT 10SM CLR 40/09 A2989 RMK AO2 SLP106 T04000089 PNO,M
LOL,2022-08-08 00:53,-118.5701,40.0684,1192.43,97.00,36.00,11.98,110.00,5.00,0.00,30.02,1012.00,10.00,M,CLR,M,M,M,M,M,M,M,M,M,M,M,M,M,M,91.96,KLOL 080053Z AUTO 11005KT 10SM CLR 36/02 A3002 RMK AO2 SLP120 T03610022,M
DRA,2022-08-08 00:53,-116.0278,36.6206,1009.00,100.00,45.00,15.50,M,4.00,0.00,29.98,1009.40,10.00,M,FEW,M,M,M,11000.00,M,M,M,M,M,M,M,M,M,M,95.99,KDRA 080053Z AUTO VRB04KT 10SM FEW110 38/07 A2998 RMK AO2 SLP094 T03780072,M
ELY,2022-08-08 00:53,-114.8453,39.2950,1909.00,83.00,37.00,19.41,10.00,7.00,0.00,30.26,1015.70,10.00,M,CLR,M,M,M,M,M,M,M,M,M,M,M,M,M,M,80.46,KELY 080053Z AUTO 01007KT 10SM CLR 28/03 A3026 RMK AO2 SLP157 T02830028,M
MEV,2022-08-08 00:55,-119.7500,38.9963,1441.42,89.60,50.00,25.79,280.00,12.00,0.00,30.09,M,10.00,18.00,FEW,M,M,M,12000.00,M,M,M,M,M,M,M,M,M,M,86.70,KMEV 080055Z AUTO 28012G18KT 10SM FEW120 32/10 A3009 RMK AO2,M
RTS,2022-08-08 00:55,-119.8764,39.6682,1539.00,87.80,37.40,16.86,90.00,3.00,0.00,30.13,M,10.00,M,FEW,M,M,M,11000.00,M,M,M,M,M,M,M,M,M,M,84.16,KRTS 080055Z AUTO 09003KT 10SM FEW110 31/03 A3013 RMK AO2,M
TMT,2022-08-08 00:55,-117.1971,39.4643,1749.34,M,M,M,320.00,3.00,0.00,30.21,M,10.00,M,CLR,M,M,M,M,M,M,M,M,M,M,M,M,M,M,M,KTMT 080055Z AUTO 32003KT 10SM CLR A3021 RMK AO2,M
BVU,2022-08-08 00:55,-114.8611,35.9475,671.00,102.20,44.60,14.29,30.00,7.00,0.00,29.90,M,M,M,M,M,M,M,M,M,M,M,M,M,M,M,M,M,M,98.07,KBVU 080055Z AUTO 03007KT 39/07 A2990 RMK AO2 PWINO TSNO,M
CXP,2022-08-08 00:55,-119.7326,39.1923,1431.00,91.40,41.00,17.32,110.00,7.00,0.00,30.10,M,10.00,M,OVC,M,M,M,11000.00,M,M,M,M,M,M,M,M,M,M,87.40,KCXP 080055Z AUTO 11007KT 10SM OVC110 33/05 A3010 RMK AO2,M
RNO,2022-08-08 00:55,-119.7711,39.4839,1341.00,94.00,44.00,18.05,M,4.00,0.00,30.06,1011.40,10.00,M,BKN,M,M,M,8000.00,M,M,M,M,M,M,M,M,M,M,89.95,KRNO 080055Z VRB04KT 10SM BKN080TCU 34/07 A3006 RMK AO2 SLP114 TCU ALQDS T03440067,M
HTH,2022-08-08 00:55,-118.6315,38.5448,1282.89,93.20,39.20,15.27,0.00,0.00,0.00,30.04,M,10.00,M,SCT,M,M,M,12000.00,M,M,M,M,M,M,M,M,M,M,88.92,KHTH 080055Z AUTO 00000KT 10SM SCT120 34/04 A3004 RMK A01,M
BAM,2022-08-08 00:55,-116.8743,40.5990,1382.36,95.00,37.40,13.46,80.00,7.00,0.00,30.12,M,10.00,M,CLR,M,M,M,M,M,M,M,M,M,M,M,M,M,M,90.46,KBAM 080055Z AUTO 08007KT 10SM CLR 35/03 A3012 RMK AO1,M
NFL,2022-08-08 00:56,-118.7010,39.4166,1199.00,98.00,35.00,11.17,M,3.00,0.00,30.00,1013.00,10.00,M,SCT,SCT,M,M,9000.00,14000.00,M,M,M,M,M,M,M,M,M,92.73,KNFL 080056Z VRB03KT 10SM SCT090 SCT140 37/02 A3000 RMK AO2 SLP130 SH DSNT W T03670017 PNO $,M
WMC,2022-08-08 00:56,-117.8072,40.9019,1315.00,92.00,43.00,18.42,80.00,8.00,0.00,30.09,1013.60,10.00,M,CLR,M,M,M,M,M,M,M,M,M,M,M,M,M,M,87.99,KWMC 080056Z AUTO 08008KT 10SM CLR 33/06 A3009 RMK AO2 SLP136 T03330061,M
HND,2022-08-08 00:56,-115.1344,35.9729,742.79,101.00,50.00,18.21,0.00,0.00,0.00,29.94,1011.90,10.00,M,CLR,M,M,M,M,M,M,M,M,M,M,M,M,M,M,97.94,KHND 080056Z 00000KT 10SM CLR 38/10 A2994 RMK AO2 SLP119 T03830100,M
TPH,2022-08-08 00:56,-117.0904,38.0505,1654.00,88.00,43.00,20.82,210.00,7.00,0.00,30.17,1013.60,10.00,M,CLR,M,M,M,M,M,M,M,M,M,M,M,M,M,M,84.58,KTPH 080056Z AUTO 21007KT 10SM CLR 31/06 A3017 RMK AO2 SLP136 T03110061,M
LAS,2022-08-08 00:56,-115.1634,36.0719,663.00,102.00,48.00,16.35,M,3.00,0.00,29.90,1009.40,10.00,M,FEW,FEW,M,M,10000.00,25000.00,M,M,M,M,M,M,M,M,M,98.58,KLAS 080056Z VRB03KT 10SM FEW100 FEW250 39/09 A2990 RMK AO2 SLP094 CB DSNT SE T03890089,M
EKO,2022-08-08 00:56,-115.7860,40.8242,1367.00,85.00,40.00,20.39,0.00,0.00,0.00,30.17,1016.80,10.00,M,CLR,M,M,M,M,M,M,M,M,M,M,M,M,M,M,81.98,KEKO 080056Z AUTO 00000KT 10SM CLR 29/04 A3017 RMK AO2 SLP168 T02940044 $,M
INS,2022-08-08 00:58,-115.6733,36.5872,955.00,98.00,42.40,14.87,130.00,7.00,0.00,29.96,1009.20,10.00,M,FEW,BKN,M,M,12000.00,15000.00,M,M,M,M,M,M,M,M,M,93.77,KINS 080058Z AUTO 13007KT 10SM FEW120 BKN150 37/06 A2996 RMK AO2 SLP092 T03670058,M
LSV,2022-08-08 00:58,-115.0343,36.2362,570.00,105.30,44.40,12.93,0.00,0.00,0.00,29.86,1008.10,10.00,M,CLR,M,M,M,M,M,M,M,M,M,M,M,M,M,M,101.02,KLSV 080058Z 00000KT 10SM CLR 41/07 A2986 RMK AO2A SLP081 T04070069 $,M
TMT,2022-08-08 01:15,-117.1971,39.4643,1749.34,M,M,M,310.00,3.00,0.00,30.21,M,10.00,M,CLR,M,M,M,M,M,M,M,M,M,M,M,M,M,M,M,KTMT 080115Z AUTO 31003KT 10SM CLR A3021 RMK AO2,M
CXP,2022-08-08 01:15,-119.7326,39.1923,1431.00,91.40,39.20,16.15,70.00,7.00,0.00,30.10,M,10.00,12.00,SCT,M,M,M,11000.00,M,M,M,M,M,M,M,M,M,M,87.30,KCXP 080115Z AUTO 07007G12KT 10SM SCT110 33/04 A3010 RMK AO2,M
BVU,2022-08-08 01:15,-114.8611,35.9475,671.00,102.20,44.60,14.29,0.00,0.00,0.00,29.89,M,M,M,M,M,M,M,M,M,M,M,M,M,M,M,M,M,M,98.07,KBVU 080115Z AUTO 00000KT 39/07 A2989 RMK AO2 PWINO TSNO,M
MEV,2022-08-08 01:15,-119.7500,38.9963,1441.42,89.60,50.00,25.79,270.00,13.00,0.00,30.09,M,10.00,M,FEW,M,M,M,12000.00,M,M,M,M,M,M,M,M,M,M,86.70,KMEV 080115Z AUTO 27013KT 10SM FEW120 32/10 A3009 RMK AO2,M
HTH,2022-08-08 01:15,-118.6315,38.5448,1282.89,93.20,37.40,14.23,110.00,8.00,0.00,30.03,M,10.00,M,SCT,M,M,M,12000.00,M,M,M,M,M,M,M,M,M,M,88.83,KHTH 080115Z AUTO 11008KT 060V170 10SM SCT120 34/03 A3003 RMK A01,M
RTS,2022-08-08 01:15,-119.8764,39.6682,1539.00,86.00,41.00,20.54,280.00,10.00,0.00,30.13,M,10.00,M,SCT,M,M,M,12000.00,M,M,M,M,M,M,M,M,M,M,82.86,KRTS 080115Z AUTO 28010KT 10SM SCT120 30/05 A3013 RMK AO2,M
BAM,2022-08-08 01:15,-116.8743,40.5990,1382.36,93.20,37.40,14.23,40.00,9.00,0.00,30.12,M,10.00,M,CLR,M,M,M,M,M,M,M,M,M,M,M,M,M,M,88.83,KBAM 080115Z AUTO 04009KT 10SM CLR 34/03 A3012 RMK AO1,M
BVU,2022-08-08 01:35,-114.8611,35.9475,671.00,102.20,44.60,14.29,0.00,0.00,0.00,29.89,M,M,M,M,M,M,M,M,M,M,M,M,M,M,M,M,M,M,98.07,KBVU 080135Z AUTO 00000KT 39/07 A2989 RMK AO2 PWINO TSNO,M
BAM,2022-08-08 01:35,-116.8743,40.5990,1382.36,93.20,37.40,14.23,40.00,9.00,0.00,30.11,M,10.00,M,CLR,M,M,M,M,M,M,M,M,M,M,M,M,M,M,88.83,KBAM 080135Z AUTO 04009KT 10SM CLR 34/03 A3011 RMK AO1,M
HTH,2022-08-08 01:35,-118.6315,38.5448,1282.89,93.20,39.20,15.27,110.00,12.00,0.00,30.03,M,10.00,M,SCT,M,M,M,12000.00,M,M,M,M,M,M,M,M,M,M,88.92,KHTH 080135Z AUTO 11012KT 10SM SCT120 34/04 A3003 RMK A01,M
RTS,2022-08-08 01:35,-119.8764,39.6682,1539.00,87.80,42.80,20.79,290.00,12.00,0.00,30.13,M,10.00,M,BKN,M,M,M,11000.00,M,M,M,M,M,M,M,M,M,M,84.40,KRTS 080135Z AUTO 29012KT 10SM BKN110 31/06 A3013 RMK AO2,M
CXP,2022-08-08 01:35,-119.7326,39.1923,1431.00,89.60,39.20,17.09,30.00,5.00,0.00,30.09,M,10.00,M,BKN,M,M,M,12000.00,M,M,M,M,M,M,M,M,M,M,85.73,KCXP 080135Z AUTO 03005KT 10SM BKN120 32/04 A3009 RMK AO2,M
TMT,2022-08-08 01:35,-117.1971,39.4643,1749.34,M,M,M,270.00,5.00,0.00,30.21,M,10.00,M,CLR,M,M,M,M,M,M,M,M,M,M,M,M,M,M,M,KTMT 080135Z AUTO 27005KT 10SM CLR A3021 RMK AO2,M
MEV,2022-08-08 01:35,-119.7500,38.9963,1441.42,87.80,50.00,27.29,270.00,11.00,0.00,30.09,M,10.00,M,FEW,M,M,M,11000.00,M,M,M,M,M,M,M,M,M,M,85.11,KMEV 080135Z AUTO 27011KT 10SM FEW110 31/10 A3009 RMK AO2,M
LOL,2022-08-08 01:53,-118.5701,40.0684,1192.43,96.00,38.00,13.27,100.00,5.00,0.00,30.01,1011.30,10.00,M,CLR,M,M,M,M,M,M,M,M,M,M,M,M,M,M,91.49,KLOL 080153Z AUTO 10005KT 10SM CLR 36/03 A3001 RMK AO2 SLP113 T03560033,M
DRA,2022-08-08 01:53,-116.0278,36.6206,1009.00,98.00,46.00,17.06,250.00,6.00,0.00,29.98,1009.30,10.00,M,BKN,M,M,M,11000.00,M,M,M,M,M,M,M,M,M,M,94.28,KDRA 080153Z AUTO 25006KT 10SM BKN110 37/08 A2998 RMK AO2 SLP093 T03670078,M
ELY,2022-08-08 01:53,-114.8453,39.2950,1909.00,81.00,42.00,25.19,360.00,9.00,0.00,30.26,1015.50,10.00,M,SCT,M,M,M,12000.00,M,M,M,M,M,M,M,M,M,M,79.49,KELY 080153Z AUTO 36009KT 10SM SCT120 27/06 A3026 RMK AO2 SLP155 T02720056,M
VGT,2022-08-08 01:53,-115.1933,36.2111,667.00,103.00,47.00,15.27,0.00,0.00,0.00,29.88,1010.40,10.00,M,CLR,M,M,M,M,M,M,M,M,M,M,M,M,M,M,99.23,KVGT 080153Z 00000KT 10SM CLR 39/08 A2988 RMK AO2 SLP104 T03940083 PNO,M
TMT,2022-08-08 01:55,-117.1971,39.4643,1749.34,M,M,M,280.00,3.00,0.00,30.21,M,10.00,M,CLR,M,M,M,M,M,M,M,M,M,M,M,M,M,M,M,KTMT 080155Z AUTO 28003KT 10SM CLR A3021 RMK AO2,M
BVU,2022-08-08 01:55,-114.8611,35.9475,671.00,102.20,46.40,15.30,30.00,5.00,0.00,29.90,M,M,M,M,M,M,M,M,M,M,M,M,M,M,M,M,M,M,98.43,KBVU 080155Z AUTO 03005KT 39/08 A2990 RMK AO2 PWINO TSNO,M
CXP,2022-08-08 01:55,-119.7326,39.1923,1431.00,91.40,44.60,19.89,320.00,8.00,0.00,30.09,M,10.00,M,FEW,M,M,M,12000.00,M,M,M,M,M,M,M,M,M,M,87.68,KCXP 080155Z AUTO 32008KT 10SM FEW120 33/07 A3009 RMK AO2,M
RNO,2022-08-08 01:55,-119.7711,39.4839,1341.00,91.00,45.00,20.45,110.00,7.00,0.00,30.07,1011.90,10.00,M,BKN,M,M,M,8000.00,M,M,M,M,M,M,M,M,M,M,87.35,KRNO 080155Z 11007KT 10SM BKN080CB 33/07 A3007 RMK AO2 SLP119 CB N-OHD-SW T03280072,M
RTS,2022-08-08 01:55,-119.8764,39.6682,1539.00,87.80,44.60,22.27,290.00,15.00,0.00,30.13,M,10.00,M,SCT,M,M,M,11000.00,M,M,M,M,M,M,M,M,M,M,84.53,KRTS 080155Z AUTO 29015KT 10SM SCT110 31/07 A3013 RMK AO2,M
MEV,2022-08-08 01:55,-119.7500,38.9963,1441.42,86.00,50.00,28.90,270.00,10.00,0.00,30.10,M,10.00,M,SCT,M,M,M,12000.00,M,M,M,M,M,M,M,M,M,M,83.62,KMEV 080155Z AUTO 27010KT 10SM SCT120 30/10 A3010 RMK AO2,M
BAM,2022-08-08 01:55,-116.8743,40.5990,1382.36,91.40,37.40,15.05,50.00,10.00,0.00,30.11,M,10.00,M,CLR,M,M,M,M,M,M,M,M,M,M,M,M,M,M,87.23,KBAM 080155Z AUTO 05010KT 10SM CLR 33/03 A3011 RMK AO1,M
HTH,2022-08-08 01:55,-118.6315,38.5448,1282.89,93.20,39.20,15.27,90.00,14.00,0.00,30.02,M,10.00,19.00,SCT,M,M,M,12000.00,M,M,M,M,M,M,M,M,M,M,88.92,KHTH 080155Z AUTO 09014G19KT 070V150 10SM SCT120 34/04 A3002 RMK A01,M
NFL,2022-08-08 01:56,-118.7010,39.4166,1199.00,96.00,33.00,10.97,110.00,5.00,0.00,30.00,1012.90,10.00,M,CLR,M,M,M,M,M,M,M,M,M,M,M,M,M,M,90.76,KNFL 080156Z AUTO 11005KT 10SM CLR 36/01 A3000 RMK AO2 SLP129 T03560006 PNO $,M
TPH,2022-08-08 01:56,-117.0904,38.0505,1654.00,87.00,42.00,20.70,200.00,7.00,0.00,30.17,1013.30,10.00,M,CLR,M,M,M,M,M,M,M,M,M,M,M,M,M,M,83.79,KTPH 080156Z AUTO 20007KT 10SM CLR 31/06 A3017 RMK AO2 SLP133 T03060056,M
LAS,2022-08-08 01:56,-115.1634,36.0719,663.00,102.00,48.00,16.35,0.00,0.00,0.00,29.90,1009.10,10.00,M,FEW,FEW,M,M,10000.00,25000.00,M,M,M,M,M,M,M,M,M,98.58,KLAS 080156Z 00000KT 10SM FEW100 FEW250 39/09 A2990 RMK AO2 SLP091 T03890089,M
HND,2022-08-08 01:56,-115.1344,35.9729,742.79,100.00,50.00,18.71,60.00,3.00,0.00,29.94,1011.90,10.00,M,CLR,M,M,M,M,M,M,M,M,M,M,M,M,M,M,97.00,KHND 080156Z 06003KT 10SM CLR 38/10 A2994 RMK AO2 SLP119 T03780100,M
WMC,2022-08-08 01:56,-117.8072,40.9019,1315.00,93.00,41.00,16.48,80.00,8.00,0.00,30.08,1013.10,10.00,M,CLR,M,M,M,M,M,M,M,M,M,M,M,M,M,M,88.85,KWMC 080156Z AUTO 08008KT 10SM CLR 34/05 A3008 RMK AO2 SLP131 T03390050,M
EKO,2022-08-08 01:56,-115.7860,40.8242,1367.00,84.00,39.00,20.27,80.00,4.00,0.00,30.17,1016.00,10.00,M,CLR,M,M,M,M,M,M,M,M,M,M,M,M,M,M,81.29,KEKO 080156Z AUTO 08004KT 10SM CLR 29/04 A3017 RMK AO2 SLP160 T02890039 $,M
INS,2022-08-08 01:58,-115.6733,36.5872,955.00,97.30,42.00,14.94,140.00,7.00,0.00,29.96,1009.20,10.00,M,BKN,BKN,M,M,15000.00,17000.00,M,M,M,M,M,M,M,M,M,92.95,KINS 080158Z AUTO 14007KT 10SM BKN150 BKN170 36/06 A2996 RMK AO2 SLP092 T03630055,M
LSV,2022-08-08 01:58,-115.0343,36.2362,570.00,103.00,44.40,13.89,120.00,5.00,0.00,29.85,1007.90,10.00,M,CLR,M,M,M,M,M,M,M,M,M,M,M,M,M,M,98.72,KLSV 080158Z 12005KT 10SM CLR 39/07 A2985 RMK AO2A SLP079 T03940069 $,M
BVU,2022-08-08 02:15,-114.8611,35.9475,671.00,100.40,46.40,16.15,60.00,5.00,0.00,29.90,M,M,M,M,M,M,M,M,M,M,M,M,M,M,M,M,M,M,96.63,KBVU 080215Z AUTO 06005KT 38/08 A2990 RMK AO2 PWINO TSNO,M
MEV,2022-08-08 02:15,-119.7500,38.9963,1441.42,86.00,50.00,28.90,290.00,6.00,0.00,30.10,M,10.00,M,OVC,M,M,M,11000.00,M,M,M,M,M,M,M,M,M,M,83.62,KMEV 080215Z AUTO 29006KT 10SM OVC110 30/10 A3010 RMK AO2,M
RTS,2022-08-08 02:15,-119.8764,39.6682,1539.00,86.00,44.60,23.59,280.00,11.00,0.00,30.14,M,10.00,M,BKN,M,M,M,11000.00,M,M,M,M,M,M,M,M,M,M,83.07,KRTS 080215Z AUTO 28011KT 10SM BKN110 30/07 A3014 RMK AO2,M
BAM,2022-08-08 02:15,-116.8743,40.5990,1382.36,89.60,37.40,15.92,60.00,8.00,0.00,30.12,M,10.00,M,CLR,M,M,M,M,M,M,M,M,M,M,M,M,M,M,85.67,KBAM 080215Z AUTO 06008KT 10SM CLR 32/03 A3012 RMK AO1,M
HTH,2022-08-08 02:15,-118.6315,38.5448,1282.89,93.20,39.20,15.27,130.00,9.00,0.00,30.03,M,10.00,M,CLR,M,M,M,M,M,M,M,M,M,M,M,M,M,M,88.92,KHTH 080215Z AUTO 13009KT 10SM CLR 34/04 A3003 RMK A01,M
TMT,2022-08-08 02:15,-117.1971,39.4643,1749.34,M,M,M,300.00,3.00,0.00,30.21,M,10.00,M,CLR,M,M,M,M,M,M,M,M,M,M,M,M,M,M,M,KTMT 080215Z AUTO 30003KT 10SM CLR A3021 RMK AO2,M
CXP,2022-08-08 02:15,-119.7326,39.1923,1431.00,89.60,46.40,22.53,270.00,7.00,0.00,30.10,M,10.00,13.00,BKN,M,M,M,12000.00,M,M,M,M,M,M,M,M,M,M,86.24,KCXP 080215Z AUTO 27007G13KT 10SM BKN120 32/08 A3010 RMK AO2,M
RNO,2022-08-08 02:17,-119.7711,39.4839,1341.00,88.00,48.00,25.17,60.00,7.00,T,30.06,M,10.00,29.00,BKN,M,M,M,8000.00,M,M,M,-RA,M,M,M,33.00,170.00,2022-08-08 02:03,85.02,KRNO 080217Z 06007G29KT 10SM -RA BKN080CB 31/09 A3006 RMK AO2 PK WND 17033/0203 WSHFT 0157 RAB01 CB N-OHD-SW MOV NE P0000 T03110089,M
MEV,2022-08-08 02:35,-119.7500,38.9963,1441.42,84.20,50.00,30.62,270.00,8.00,0.00,30.10,M,10.00,M,BKN,M,M,M,11000.00,M,M,M,M,M,M,M,M,M,M,82.24,KMEV 080235Z AUTO 27008KT 10SM BKN110 29/10 A3010 RMK AO2,M
HTH,2022-08-08 02:35,-118.6315,38.5448,1282.89,91.40,39.20,16.15,110.00,12.00,0.00,30.03,M,10.00,M,CLR,M,M,M,M,M,M,M,M,M,M,M,M,M,M,87.30,KHTH 080235Z AUTO 11012KT 10SM CLR 33/04 A3003 RMK A01,M
BAM,2022-08-08 02:35,-116.8743,40.5990,1382.36,87.80,37.40,16.86,50.00,7.00,0.00,30.12,M,10.00,M,CLR,M,M,M,M,M,M,M,M,M,M,M,M,M,M,84.16,KBAM 080235Z AUTO 05007KT 10SM CLR 31/03 A3012 RMK AO1,M
RTS,2022-08-08 02:35,-119.8764,39.6682,1539.00,82.40,48.20,30.35,150.00,9.00,0.00,30.16,M,10.00,M,FEW,BKN,OVC,M,4900.00,9500.00,11000.00,M,-DZ,M,M,M,M,M,M,80.80,KRTS 080235Z AUTO 15009KT 10SM -DZ FEW049 BKN095 OVC110 28/09 A3016 RMK AO2,M
TMT,2022-08-08 02:35,-117.1971,39.4643,1749.34,77.20,52.30,41.91,130.00,5.00,0.00,30.22,M,10.00,M,SCT,M,M,M,12000.00,M,M,M,M,M,M,M,M,M,M,77.20,KTMT 080235Z AUTO 13005KT 10SM SCT120 25/11 A3022 RMK AO2 T02510113,M
CXP,2022-08-08 02:35,-119.7326,39.1923,1431.00,86.00,46.40,25.26,260.00,5.00,0.00,30.11,M,10.00,12.00,FEW,BKN,M,M,8500.00,12000.00,M,M,M,M,M,M,M,M,M,83.22,KCXP 080235Z AUTO 26005G12KT 10SM FEW085 BKN120 30/08 A3011 RMK AO2,M
BVU,2022-08-08 02:35,-114.8611,35.9475,671.00,98.60,48.20,18.25,50.00,4.00,0.00,29.90,M,M,M,M,M,M,M,M,M,M,M,M,M,M,M,M,M,M,95.17,KBVU 080235Z AUTO 05004KT 37/09 A2990 RMK AO2 PWINO TSNO,M
RNO,2022-08-08 02:47,-119.7711,39.4839,1341.00,86.00,49.00,27.74,300.00,11.00,T,30.07,M,10.00,20.00,BKN,M,M,M,8000.00,M,M,M,M,M,M,M,33.00,170.00,2022-08-08 02:03,83.48,KRNO 080247Z 30011G20KT 10SM BKN080CB 30/09 A3007 RMK AO2 PK WND 17033/0203 WSHFT 0227 RAB01E41 CB N MOV N P0000 T03000094,M
VGT,2022-08-08 02:53,-115.1933,36.2111,667.00,101.00,47.00,16.21,0.00,0.00,0.00,29.90,1010.80,10.00,M,CLR,M,M,M,M,M,M,M,M,M,M,M,M,M,M,97.23,KVGT 080253Z 00000KT 10SM CLR 38/08 A2990 RMK AO2 SLP108 6//// T03830083 55000 PNO,M
DRA,2022-08-08 02:53,-116.0278,36.6206,1009.00,87.00,57.00,36.07,90.00,21.00,T,30.02,1011.10,10.00,30.00,FEW,SCT,BKN,M,3200.00,9500.00,11000.00,M,-RA,M,M,M,33.00,140.00,2022-08-08 02:33,85.89,KDRA 080253Z AUTO 09021G30KT 10SM -RA FEW032 SCT095 BKN110 31/14 A3002 RMK AO2 PK WND 14033/0233 RAB39 SLP111 P0000 60000 T03060139 53009,M
ELY,2022-08-08 02:53,-114.8453,39.2950,1909.00,72.00,48.00,42.51,350.00,5.00,0.00,30.27,1016.10,10.00,M,CLR,M,M,M,M,M,M,M,M,M,M,M,M,M,M,72.00,KELY 080253Z AUTO 35005KT 10SM CLR 22/09 A3027 RMK AO2 SLP161 T02220089 55002,M
LOL,2022-08-08 02:53,-118.5701,40.0684,1192.43,88.00,42.00,20.11,130.00,7.00,0.00,30.02,1011.80,10.00,M,CLR,M,M,M,M,M,M,M,M,M,M,M,M,M,M,84.52,KLOL 080253Z AUTO 13007KT 10SM CLR 31/06 A3002 RMK AO2 SLP118 T03110056 55005,M
CXP,2022-08-08 02:55,-119.7326,39.1923,1431.00,86.00,46.40,25.26,290.00,7.00,0.00,30.11,M,10.00,M,FEW,FEW,M,M,8500.00,11000.00,M,M,M,M,M,M,M,M,M,83.22,KCXP 080255Z AUTO 29007KT 10SM FEW085 FEW110 30/08 A3011 RMK AO2,M
TMT,2022-08-08 02:55,-117.1971,39.4643,1749.34,M,M,M,90.00,3.00,0.00,30.22,M,10.00,M,SCT,M,M,M,12000.00,M,M,M,M,M,M,M,M,M,M,M,KTMT 080255Z AUTO 09003KT 10SM SCT120 A3022 RMK AO2,M
BVU,2022-08-08 02:55,-114.8611,35.9475,671.00,96.80,50.00,20.62,30.00,4.00,0.00,29.91,M,M,M,M,M,M,M,M,M,M,M,M,M,M,M,M,M,M,93.71,KBVU 080255Z AUTO 03004KT 36/10 A2991 RMK AO2 PWINO TSNO,M
RTS,2022-08-08 02:55,-119.8764,39.6682,1539.00,82.40,46.40,28.36,M,5.00,0.00,30.18,M,10.00,19.00,FEW,BKN,OVC,M,4900.00,7000.00,9000.00,M,M,M,M,M,M,M,M,80.64,KRTS 080255Z AUTO VRB05G19KT 10SM FEW049 BKN070 OVC090 28/08 A3018 RMK AO2,M
MEV,2022-08-08 02:55,-119.7500,38.9963,1441.42,82.40,50.00,32.46,280.00,12.00,0.00,30.11,M,10.00,M,FEW,M,M,M,12000.00,M,M,M,M,M,M,M,M,M,M,80.99,KMEV 080255Z AUTO 28012KT 10SM FEW120 28/10 A3011 RMK AO2,M
BAM,2022-08-08 02:55,-116.8743,40.5990,1382.36,84.20,37.40,18.91,70.00,6.00,0.00,30.13,M,10.00,M,CLR,M,M,M,M,M,M,M,M,M,M,M,M,M,M,81.38,KBAM 080255Z AUTO 07006KT 10SM CLR 29/03 A3013 RMK AO1,M
HTH,2022-08-08 02:55,-118.6315,38.5448,1282.89,91.40,39.20,16.15,150.00,8.00,0.00,30.04,M,10.00,14.00,CLR,M,M,M,M,M,M,M,M,M,M,M,M,M,M,87.30,KHTH 080255Z AUTO 15008G14KT 10SM CLR 33/04 A3004 RMK A01,M
RNO,2022-08-08 02:55,-119.7711,39.4839,1341.00,85.00,49.00,28.74,320.00,12.00,T,30.07,1012.20,10.00,M,BKN,M,M,M,8000.00,M,M,M,M,M,M,M,33.00,170.00,2022-08-08 02:03,82.63,KRNO 080255Z 32012KT 10SM BKN080CB 29/09 A3007 RMK AO2 PK WND 17033/0203 WSHFT 0227 RAB01E41 SLP122 CB N MOV N P0000 60000 T02940094 53002,M
EKO,2022-08-08 02:56,-115.7860,40.8242,1367.00,78.00,43.00,28.68,0.00,0.00,0.00,30.18,1016.60,10.00,M,CLR,M,M,M,M,M,M,M,M,M,M,M,M,M,M,78.10,KEKO 080256Z AUTO 00000KT 10SM CLR 26/06 A3018 RMK AO2 SLP166 T02560061 55004 $,M
HND,2022-08-08 02:56,-115.1344,35.9729,742.79,99.00,50.00,19.28,0.00,0.00,0.00,29.95,1012.20,10.00,M,CLR,M,M,M,M,M,M,M,M,M,M,M,M,M,M,95.97,KHND 080256Z 00000KT 10SM CLR 37/10 A2995 RMK AO2 SLP122 T03720100 55000,M
TPH,2022-08-08 02:56,-117.0904,38.0505,1654.00,81.00,50.00,33.97,190.00,5.00,0.00,30.18,1013.90,10.00,M,CLR,M,M,M,M,M,M,M,M,M,M,M,M,M,M,80.12,KTPH 080256Z AUTO 19005KT 10SM CLR 27/10 A3018 RMK AO2 SLP139 T02720100 55000,M
LAS,2022-08-08 02:56,-115.1634,36.0719,663.00,100.00,48.00,17.36,100.00,5.00,0.00,29.91,1009.60,10.00,M,FEW,SCT,SCT,M,10000.00,20000.00,25000.00,M,M,M,M,M,M,M,M,96.55,KLAS 080256Z 10005KT 10SM FEW100 SCT200 SCT250 38/09 A2991 RMK AO2 SLP096 T03780089 55001,M
NFL,2022-08-08 02:56,-118.7010,39.4166,1199.00,90.00,39.00,16.74,120.00,9.00,0.00,30.00,1013.10,10.00,M,CLR,M,M,M,M,M,M,M,M,M,M,M,M,M,M,86.07,KNFL 080256Z AUTO 12009KT 10SM CLR 32/04 A3000 RMK AO2 SLP131 6//// T03220039 55004 PNO $,M
WMC,2022-08-08 02:56,-117.8072,40.9019,1315.00,88.00,38.00,17.08,50.00,6.00,0.00,30.08,1013.20,10.00,M,CLR,M,M,M,M,M,M,M,M,M,M,M,M,M,M,84.34,KWMC 080256Z AUTO 05006KT 10SM CLR 31/03 A3008 RMK AO2 SLP132 T03110033 55004,M
LSV,2022-08-08 02:58,-115.0343,36.2362,570.00,100.20,47.50,16.94,200.00,6.00,0.00,29.87,1008.60,10.00,M,CLR,M,M,M,M,M,M,M,M,M,M,M,M,M,M,96.65,KLSV 080258Z 20006KT 10SM CLR 38/09 A2987 RMK AO2A SLP086 T03790086 55000 $,M
INS,2022-08-08 02:58,-115.6733,36.5872,955.00,94.00,48.20,20.95,200.00,9.00,0.00,29.98,1009.60,10.00,M,OVC,M,M,M,14000.00,M,M,M,M,M,M,M,M,M,M,90.68,KINS 080258Z AUTO 20009KT 10SM OVC140 35/09 A2998 RMK AO2 SLP096 T03450090 53002,M
MEV,2022-08-08 03:15,-119.7500,38.9963,1441.42,80.60,50.00,34.41,270.00,10.00,0.00,30.11,M,10.00,M,CLR,M,M,M,M,M,M,M,M,M,M,M,M,M,M,79.88,KMEV 080315Z AUTO 27010KT 10SM CLR 27/10 A3011 RMK AO2,M
BAM,2022-08-08 03:15,-116.8743,40.5990,1382.36,80.60,37.40,21.25,70.00,5.00,0.00,30.13,M,10.00,M,CLR,M,M,M,M,M,M,M,M,M,M,M,M,M,M,79.02,KBAM 080315Z AUTO 07005KT 10SM CLR 27/03 A3013 RMK AO1,M
TMT,2022-08-08 03:15,-117.1971,39.4643,1749.34,M,M,M,80.00,3.00,0.00,30.22,M,10.00,M,CLR,M,M,M,M,M,M,M,M,M,M,M,M,M,M,M,KTMT 080315Z AUTO 08003KT 10SM CLR A3022 RMK AO2,M
HTH,2022-08-08 03:15,-118.6315,38.5448,1282.89,89.60,41.00,18.33,150.00,8.00,0.00,30.05,M,10.00,M,CLR,M,M,M,M,M,M,M,M,M,M,M,M,M,M,85.82,KHTH 080315Z AUTO 15008KT 10SM CLR 32/05 A3005 RMK A01,M
BVU,2022-08-08 03:15,-114.8611,35.9475,671.00,95.00,51.80,23.30,0.00,0.00,0.00,29.91,M,M,M,M,M,M,M,M,M,M,M,M,M,M,M,M,M,M,92.26,KBVU 080315Z AUTO 00000KT 35/11 A2991 RMK AO2 PWINO TSNO,M
CXP,2022-08-08 03:15,-119.7326,39.1923,1431.00,86.00,46.40,25.26,270.00,4.00,0.00,30.11,M,10.00,10.00,CLR,M,M,M,M,M,M,M,M,M,M,M,M,M,M,83.22,KCXP 080315Z AUTO 27004G10KT 10SM CLR 30/08 A3011 RMK AO2,M
RTS,2022-08-08 03:15,-119.8764,39.6682,1539.00,80.60,46.40,30.07,330.00,13.00,0.00,30.16,M,10.00,M,FEW,SCT,BKN,M,3200.00,4900.00,7000.00,M,M,M,M,M,M,M,M,79.56,KRTS 080315Z AUTO 33013KT 10SM FEW032 SCT049 BKN070 27/08 A3016 RMK AO2,M
MEV,2022-08-08 03:35,-119.7500,38.9963,1441.42,78.80,51.80,39.02,120.00,5.00,0.00,30.12,M,10.00,M,FEW,M,M,M,12000.00,M,M,M,M,M,M,M,M,M,M,78.80,KMEV 080335Z AUTO 12005KT 10SM FEW120 26/11 A3012 RMK AO2,M
BVU,2022-08-08 03:35,-114.8611,35.9475,671.00,93.20,53.60,26.31,0.00,0.00,0.00,29.91,M,M,M,M,M,M,M,M,M,M,M,M,M,M,M,M,M,M,90.86,KBVU 080335Z AUTO 00000KT 34/12 A2991 RMK AO2 PWINO TSNO,M
CXP,2022-08-08 03:35,-119.7326,39.1923,1431.00,84.20,46.40,26.76,0.00,0.00,0.00,30.12,M,10.00,M,BKN,M,M,M,12000.00,M,M,M,M,M,M,M,M,M,M,81.87,KCXP 080335Z AUTO 00000KT 10SM BKN120 29/08 A3012 RMK AO2,M
HTH,2022-08-08 03:35,-118.6315,38.5448,1282.89,87.80,41.00,19.40,170.00,6.00,0.00,30.05,M,10.00,M,CLR,M,M,M,M,M,M,M,M,M,M,M,M,M,M,84.30,KHTH 080335Z AUTO 17006KT 10SM CLR 31/05 A3005 RMK A01,M
RTS,2022-08-08 03:35,-119.8764,39.6682,1539.00,78.80,46.40,31.90,320.00,9.00,0.00,30.15,M,10.00,M,FEW,SCT,BKN,M,2600.00,5000.00,7500.00,M,M,M,M,M,M,M,M,78.80,KRTS 080335Z AUTO 32009KT 10SM FEW026 SCT050 BKN075 26/08 A3015 RMK AO2,M
BAM,2022-08-08 03:35,-116.8743,40.5990,1382.36,78.80,39.20,24.19,80.00,5.00,0.00,30.13,M,10.00,M,CLR,M,M,M,M,M,M,M,M,M,M,M,M,M,M,78.80,KBAM 080335Z AUTO 08005KT 10SM CLR 26/04 A3013 RMK AO1,M
TMT,2022-08-08 03:35,-117.1971,39.4643,1749.34,M,M,M,130.00,6.00,0.00,30.22,M,10.00,M,CLR,M,M,M,M,M,M,M,M,M,M,M,M,M,M,M,KTMT 080335Z AUTO 13006KT 10SM CLR A3022 RMK AO2,M
DRA,2022-08-08 03:53,-116.0278,36.6206,1009.00,91.00,48.00,22.90,50.00,14.00,T,30.02,1010.60,10.00,23.00,BKN,M,M,M,11000.00,M,M,M,M,M,M,M,33.00,60.00,2022-08-08 03:21,87.69,KDRA 080353Z AUTO 05014G23KT 10SM BKN110 33/09 A3002 RMK AO2 PK WND 06033/0321 RAE02 SLP106 P0000 T03280089,M
LOL,2022-08-08 03:53,-118.5701,40.0684,1192.43,83.00,41.00,22.70,120.00,5.00,0.00,30.02,1012.00,10.00,M,CLR,M,M,M,M,M,M,M,M,M,M,M,M,M,M,80.62,KLOL 080353Z AUTO 12005KT 10SM CLR 28/05 A3002 RMK AO2 SLP120 T02830050,M
VGT,2022-08-08 03:53,-115.1933,36.2111,667.00,101.00,48.00,16.90,180.00,3.00,0.00,29.91,1011.00,10.00,M,CLR,M,M,M,M,M,M,M,M,M,M,M,M,M,M,97.46,KVGT 080353Z 18003KT 10SM CLR 38/09 A2991 RMK AO2 SLP110 T03830089 PNO,M
ELY,2022-08-08 03:53,-114.8453,39.2950,1909.00,72.00,47.00,40.79,0.00,0.00,0.00,30.30,1016.30,10.00,M,CLR,M,M,M,M,M,M,M,M,M,M,M,M,M,M,72.00,KELY 080353Z AUTO 00000KT 10SM CLR 22/08 A3030 RMK AO2 SLP163 T02220083,M
RNO,2022-08-08 03:55,-119.7711,39.4839,1341.00,84.00,48.00,28.60,280.00,9.00,0.00,30.09,1012.80,10.00,M,BKN,M,M,M,8000.00,M,M,M,M,M,M,M,M,M,M,81.87,KRNO 080355Z 28009KT 10SM BKN080 29/09 A3009 RMK AO2 SLP128 T02890089,M
BAM,2022-08-08 03:55,-116.8743,40.5990,1382.36,77.00,37.40,23.93,80.00,6.00,0.00,30.14,M,10.00,M,CLR,M,M,M,M,M,M,M,M,M,M,M,M,M,M,77.00,KBAM 080355Z AUTO 08006KT 10SM CLR 25/03 A3014 RMK AO1,M
HTH,2022-08-08 03:55,-118.6315,38.5448,1282.89,86.00,42.80,22.02,140.00,5.00,0.00,30.06,M,10.00,M,CLR,M,M,M,M,M,M,M,M,M,M,M,M,M,M,82.95,KHTH 080355Z AUTO 14005KT 10SM CLR 30/06 A3006 RMK A01,M
BVU,2022-08-08 03:55,-114.8611,35.9475,671.00,91.40,55.40,29.72,0.00,0.00,0.00,29.92,M,M,M,M,M,M,M,M,M,M,M,M,M,M,M,M,M,M,89.53,KBVU 080355Z AUTO 00000KT 33/13 A2992 RMK AO2 PWINO TSNO,M
CXP,2022-08-08 03:55,-119.7326,39.1923,1431.00,84.20,46.40,26.76,0.00,0.00,0.00,30.13,M,10.00,M,OVC,M,M,M,12000.00,M,M,M,M,M,M,M,M,M,M,81.87,KCXP 080355Z AUTO 00000KT 10SM OVC120 29/08 A3013 RMK AO2,M
MEV,2022-08-08 03:55,-119.7500,38.9963,1441.42,78.80,50.00,36.51,0.00,0.00,0.00,30.13,M,10.00,M,FEW,M,M,M,12000.00,M,M,M,M,M,M,M,M,M,M,78.80,KMEV 080355Z AUTO 00000KT 10SM FEW120 26/10 A3013 RMK AO2,M
RTS,2022-08-08 03:55,-119.8764,39.6682,1539.00,78.80,44.60,29.79,280.00,7.00,0.00,30.15,M,10.00,13.00,FEW,M,M,M,12000.00,M,M,M,M,M,M,M,M,M,M,78.80,KRTS 080355Z AUTO 28007G13KT 10SM FEW120 26/07 A3015 RMK AO2,M
TMT,2022-08-08 03:55,-117.1971,39.4643,1749.34,M,M,M,160.00,6.00,0.00,30.22,M,10.00,M,CLR,M,M,M,M,M,M,M,M,M,M,M,M,M,M,M,KTMT 080355Z AUTO 16006KT 10SM CLR A3022 RMK AO2,M
EKO,2022-08-08 03:56,-115.7860,40.8242,1367.00,71.00,50.00,47.23,10.00,3.00,0.00,30.19,1017.20,10.00,M,CLR,M,M,M,M,M,M,M,M,M,M,M,M,M,M,71.10,KEKO 080356Z AUTO 01003KT 10SM CLR 22/10 A3019 RMK AO2 SLP172 T02170100 $,M
HND,2022-08-08 03:56,-115.1344,35.9729,742.79,95.00,53.00,24.44,0.00,0.00,0.00,29.96,1012.70,10.00,M,CLR,M,M,M,M,M,M,M,M,M,M,M,M,M,M,92.58,KHND 080356Z AUTO 00000KT 10SM CLR 35/12 A2996 RMK AO2 SLP127 T03500117,M
WMC,2022-08-08 03:56,-117.8072,40.9019,1315.00,84.00,39.00,20.27,60.00,7.00,0.00,30.09,1013.40,10.00,M,CLR,M,M,M,M,M,M,M,M,M,M,M,M,M,M,81.29,KWMC 080356Z AUTO 06007KT 10SM CLR 29/04 A3009 RMK AO2 SLP134 T02890039,M
LAS,2022-08-08 03:56,-115.1634,36.0719,663.00,99.00,48.00,17.90,90.00,3.00,0.00,29.92,1009.90,10.00,M,FEW,SCT,M,M,20000.00,25000.00,M,M,M,M,M,M,M,M,M,95.54,KLAS 080356Z 09003KT 10SM FEW200 SCT250 37/09 A2992 RMK AO2 SLP099 T03720089,M
NFL,2022-08-08 03:56,-118.7010,39.4166,1199.00,84.00,45.00,25.54,70.00,6.00,0.00,30.01,1013.40,10.00,M,CLR,M,M,M,M,M,M,M,M,M,M,M,M,M,M,81.61,KNFL 080356Z AUTO 07006KT 10SM CLR 29/07 A3001 RMK AO2 SLP134 T02890072 PNO $,M
TPH,2022-08-08 03:56,-117.0904,38.0505,1654.00,78.00,51.00,38.92,150.00,7.00,0.00,30.20,1014.30,10.00,M,FEW,M,M,M,10000.00,M,M,M,M,M,M,M,M,M,M,78.10,KTPH 080356Z AUTO 15007KT 10SM FEW100 26/11 A3020 RMK AO2 SLP143 T02560106,M
INS,2022-08-08 03:58,-115.6733,36.5872,955.00,91.60,47.30,21.89,240.00,8.00,0.00,30.00,1010.40,10.00,M,CLR,M,M,M,M,M,M,M,M,M,M,M,M,M,M,88.16,KINS 080358Z AUTO 24008KT 10SM CLR 33/09 A3000 RMK AO2 SLP104 T03310085,M
LSV,2022-08-08 03:58,-115.0343,36.2362,570.00,96.80,50.00,20.62,0.00,0.00,0.00,29.90,M,10.00,M,CLR,M,M,M,M,M,M,M,M,M,M,M,M,M,M,93.71,KLSV 080358Z 00000KT 10SM CLR 36/10 A2990 RMK AO2A SLPNO WND DATA ESTMD T0360095 $,M
HTH,2022-08-08 04:15,-118.6315,38.5448,1282.89,84.20,42.80,23.33,160.00,8.00,0.00,30.06,M,10.00,M,CLR,M,M,M,M,M,M,M,M,M,M,M,M,M,M,81.61,KHTH 080415Z AUTO 16008KT 10SM CLR 29/06 A3006 RMK A01,M
MEV,2022-08-08 04:15,-119.7500,38.9963,1441.42,78.80,51.80,39.02,0.00,0.00,0.00,30.13,M,10.00,M,CLR,M,M,M,M,M,M,M,M,M,M,M,M,M,M,78.80,KMEV 080415Z AUTO 00000KT 10SM CLR 26/11 A3013 RMK AO2,M
RTS,2022-08-08 04:15,-119.8764,39.6682,1539.00,78.80,44.60,29.79,300.00,5.00,0.00,30.17,M,10.00,M,CLR,M,M,M,M,M,M,M,M,M,M,M,M,M,M,78.80,KRTS 080415Z AUTO 30005KT 10SM CLR 26/07 A3017 RMK AO2,M
CXP,2022-08-08 04:15,-119.7326,39.1923,1431.00,82.40,46.40,28.36,330.00,7.00,0.00,30.13,M,10.00,M,FEW,SCT,BKN,M,2400.00,4100.00,11000.00,M,M,M,M,M,M,M,M,80.64,KCXP 080415Z AUTO 33007KT 10SM FEW024 SCT041 BKN110 28/08 A3013 RMK AO2,M
BVU,2022-08-08 04:15,-114.8611,35.9475,671.00,91.40,53.60,27.83,30.00,4.00,0.00,29.93,M,M,M,M,M,M,M,M,M,M,M,M,M,M,M,M,M,M,89.08,KBVU 080415Z AUTO 03004KT 33/12 A2993 RMK AO2 PWINO TSNO,M
TMT,2022-08-08 04:15,-117.1971,39.4643,1749.34,M,M,M,230.00,8.00,0.00,30.24,M,10.00,M,CLR,M,M,M,M,M,M,M,M,M,M,M,M,M,M,M,KTMT 080415Z AUTO 23008KT 10SM CLR A3024 RMK AO2,M
BAM,2022-08-08 04:15,-116.8743,40.5990,1382.36,75.20,35.60,23.66,160.00,3.00,0.00,30.14,M,10.00,M,CLR,M,M,M,M,M,M,M,M,M,M,M,M,M,M,75.20,KBAM 080415Z AUTO 16003KT 10SM CLR 24/02 A3014 RMK AO1,M
CXP,2022-08-08 04:35,-119.7326,39.1923,1431.00,82.40,46.40,28.36,360.00,5.00,0.00,30.14,M,10.00,M,FEW,FEW,FEW,M,3500.00,4200.00,12000.00,M,M,M,M,M,M,M,M,80.64,KCXP 080435Z AUTO 36005KT 10SM FEW035 FEW042 FEW120 28/08 A3014 RMK AO2,M
BVU,2022-08-08 04:35,-114.8611,35.9475,671.00,95.00,50.00,21.79,220.00,5.00,0.00,29.94,M,M,12.00,M,M,M,M,M,M,M,M,M,M,M,M,M,M,M,91.89,KBVU 080435Z AUTO 22005G12KT 35/10 A2994 RMK AO2 PWINO TSNO,M
TMT,2022-08-08 04:35,-117.1971,39.4643,1749.34,M,M,M,240.00,3.00,0.00,30.24,M,10.00,M,SCT,M,M,M,10000.00,M,M,M,M,M,M,M,M,M,M,M,KTMT 080435Z AUTO 24003KT 10SM SCT100 A3024 RMK AO2,M
HTH,2022-08-08 04:35,-118.6315,38.5448,1282.89,84.20,41.00,21.76,130.00,9.00,0.00,30.07,M,10.00,M,CLR,M,M,M,M,M,M,M,M,M,M,M,M,M,M,81.52,KHTH 080435Z AUTO 13009KT 10SM CLR 29/05 A3007 RMK A01,M
BAM,2022-08-08 04:35,-116.8743,40.5990,1382.36,77.00,37.40,23.93,160.00,8.00,0.00,30.15,M,10.00,M,CLR,M,M,M,M,M,M,M,M,M,M,M,M,M,M,77.00,KBAM 080435Z AUTO 16008KT 10SM CLR 25/03 A3015 RMK AO1,M
MEV,2022-08-08 04:35,-119.7500,38.9963,1441.42,73.40,55.40,53.29,100.00,3.00,0.00,30.14,M,10.00,M,FEW,M,M,M,12000.00,M,M,M,M,M,M,M,M,M,M,73.40,KMEV 080435Z AUTO 10003KT 10SM FEW120 23/13 A3014 RMK AO2,M
RTS,2022-08-08 04:35,-119.8764,39.6682,1539.00,75.20,44.60,33.57,300.00,7.00,0.00,30.17,M,10.00,M,CLR,M,M,M,M,M,M,M,M,M,M,M,M,M,M,75.20,KRTS 080435Z AUTO 30007KT 10SM CLR 24/07 A3017 RMK AO2,M
LOL,2022-08-08 04:53,-118.5701,40.0684,1192.43,81.00,40.00,23.13,360.00,3.00,0.00,30.04,1012.50,10.00,M,CLR,M,M,M,M,M,M,M,M,M,M,M,M,M,M,79.37,KLOL 080453Z AUTO 36003KT 10SM CLR 27/04 A3004 RMK AO2 SLP125 T02720044,M
DRA,2022-08-08 04:53,-116.0278,36.6206,1009.00,89.00,49.00,25.14,170.00,4.00,0.00,30.02,1010.70,10.00,M,CLR,M,M,M,M,M,M,M,M,M,M,M,M,M,M,86.09,KDRA 080453Z AUTO 17004KT 10SM CLR 32/09 A3002 RMK AO2 SLP107 T03170094,M
VGT,2022-08-08 04:53,-115.1933,36.2111,667.00,98.00,50.00,19.82,360.00,6.00,0.00,29.93,1011.80,10.00,M,CLR,M,M,M,M,M,M,M,M,M,M,M,M,M,M,95.04,KVGT 080453Z AUTO 36006KT 10SM CLR 37/10 A2993 RMK AO2 SLP118 T03670100 PNO,M
ELY,2022-08-08 04:53,-114.8453,39.2950,1909.00,65.00,52.00,62.96,0.00,0.00,0.00,30.32,1016.90,10.00,M,BKN,M,M,M,11000.00,M,M,M,M,M,M,M,M,M,M,64.90,KELY 080453Z AUTO 00000KT 10SM BKN110 18/11 A3032 RMK AO2 SLP169 T01830111,M
TMT,2022-08-08 04:55,-117.1971,39.4643,1749.34,67.00,53.80,62.32,0.00,0.00,0.00,30.25,M,10.00,M,SCT,M,M,M,10000.00,M,M,M,M,M,M,M,M,M,M,67.10,KTMT 080455Z AUTO 00000KT 10SM SCT100 20/12 A3025 RMK AO2 T01950121,M
RNO,2022-08-08 04:55,-119.7711,39.4839,1341.00,83.00,47.00,28.43,310.00,8.00,0.00,30.12,1013.50,10.00,M,SCT,M,M,M,8000.00,M,M,M,M,M,M,M,M,M,M,81.01,KRNO 080455Z 31008KT 10SM SCT080 28/08 A3012 RMK AO2 SLP135 T02830083,M
CXP,2022-08-08 04:55,-119.7326,39.1923,1431.00,82.40,46.40,28.36,360.00,4.00,0.00,30.15,M,10.00,M,CLR,M,M,M,M,M,M,M,M,M,M,M,M,M,M,80.64,KCXP 080455Z AUTO 36004KT 10SM CLR 28/08 A3015 RMK AO2,M
BVU,2022-08-08 04:55,-114.8611,35.9475,671.00,91.40,51.80,26.05,0.00,0.00,0.00,29.95,M,M,M,M,M,M,M,M,M,M,M,M,M,M,M,M,M,M,88.69,KBVU 080455Z AUTO 00000KT 33/11 A2995 RMK AO2 PWINO TSNO,M
RTS,2022-08-08 04:55,-119.8764,39.6682,1539.00,77.00,42.80,29.51,280.00,9.00,0.00,30.18,M,10.00,14.00,CLR,M,M,M,M,M,M,M,M,M,M,M,M,M,M,77.00,KRTS 080455Z AUTO 28009G14KT 10SM CLR 25/06 A3018 RMK AO2,M
MEV,2022-08-08 04:55,-119.7500,38.9963,1441.42,71.60,55.40,56.63,100.00,4.00,0.00,30.15,M,10.00,M,SCT,M,M,M,12000.00,M,M,M,M,M,M,M,M,M,M,71.60,KMEV 080455Z AUTO 10004KT 10SM SCT120 22/13 A3015 RMK AO2,M
BAM,2022-08-08 04:55,-116.8743,40.5990,1382.36,77.00,41.00,27.53,140.00,5.00,0.00,30.16,M,10.00,M,CLR,M,M,M,M,M,M,M,M,M,M,M,M,M,M,77.00,KBAM 080455Z AUTO 14005KT 10SM CLR 25/05 A3016 RMK AO1,M
HTH,2022-08-08 04:55,-118.6315,38.5448,1282.89,82.40,41.00,23.07,140.00,9.00,0.00,30.08,M,10.00,M,CLR,M,M,M,M,M,M,M,M,M,M,M,M,M,M,80.29,KHTH 080455Z AUTO 14009KT 10SM CLR 28/05 A3008 RMK A01,M
TPH,2022-08-08 04:56,-117.0904,38.0505,1654.00,73.00,55.00,53.23,220.00,5.00,0.00,30.23,1015.50,10.00,M,CLR,M,M,M,M,M,M,M,M,M,M,M,M,M,M,73.00,KTPH 080456Z AUTO 22005KT 10SM CLR 23/13 A3023 RMK AO2 SLP155 T02280128,M
WMC,2022-08-08 04:56,-117.8072,40.9019,1315.00,79.00,39.00,23.85,0.00,0.00,0.00,30.10,1013.70,10.00,M,CLR,M,M,M,M,M,M,M,M,M,M,M,M,M,M,79.00,KWMC 080456Z AUTO 00000KT 10SM CLR 26/04 A3010 RMK AO2 SLP137 T02610039,M
HND,2022-08-08 04:56,-115.1344,35.9729,742.79,93.00,52.00,24.97,220.00,12.00,0.00,29.98,1013.30,10.00,M,CLR,M,M,M,M,M,M,M,M,M,M,M,M,M,M,90.29,KHND 080456Z AUTO 22012KT 10SM CLR 34/11 A2998 RMK AO2 SLP133 T03390111,M
NFL,2022-08-08 04:56,-118.7010,39.4166,1199.00,82.00,45.00,27.24,120.00,4.00,0.00,30.03,1013.90,10.00,M,CLR,M,M,M,M,M,M,M,M,M,M,M,M,M,M,80.28,KNFL 080456Z AUTO 12004KT 10SM CLR 28/07 A3003 RMK AO2 SLP139 T02780072 PNO $,M
EKO,2022-08-08 04:56,-115.7860,40.8242,1367.00,69.00,49.00,48.53,30.00,5.00,0.00,30.20,1017.50,10.00,M,CLR,M,M,M,M,M,M,M,M,M,M,M,M,M,M,69.10,KEKO 080456Z AUTO 03005KT 10SM CLR 21/09 A3020 RMK AO2 SLP175 T02060094 $,M
LAS,2022-08-08 04:56,-115.1634,36.0719,663.00,98.00,49.00,19.02,190.00,4.00,0.00,29.93,1010.40,10.00,M,FEW,SCT,M,M,20000.00,25000.00,M,M,M,M,M,M,M,M,M,94.81,KLAS 080456Z 19004KT 10SM FEW200 SCT250 37/09 A2993 RMK AO2 SLP104 T03670094,M
INS,2022-08-08 04:58,-115.6733,36.5872,955.00,89.40,49.00,24.91,0.00,0.00,0.00,30.01,1010.60,10.00,M,FEW,M,M,M,15000.00,M,M,M,M,M,M,M,M,M,M,86.36,KINS 080458Z AUTO 00000KT 10SM FEW150 32/09 A3001 RMK AO2 SLP106 T03190094,M
LSV,2022-08-08 04:58,-115.0343,36.2362,570.00,M,M,M,0.00,0.00,0.00,29.90,M,10.00,M,CLR,M,M,M,M,M,M,M,M,M,M,M,M,M,M,M,KLSV 080458Z 00000KT 10SM CLR A2990 RMK AO2A SLPNO WND DATA ESTMD ALSTG ESTMD $,M
MEV,2022-08-08 05:15,-119.7500,38.9963,1441.42,71.60,53.60,53.03,80.00,6.00,0.00,30.15,M,10.00,M,BKN,M,M,M,12000.00,M,M,M,M,M,M,M,M,M,M,71.60,KMEV 080515Z AUTO 08006KT 10SM BKN120 22/12 A3015 RMK AO2,M
RTS,2022-08-08 05:15,-119.8764,39.6682,1539.00,75.20,42.80,31.34,270.00,9.00,0.00,30.19,M,10.00,M,FEW,M,M,M,12000.00,M,M,M,M,M,M,M,M,M,M,75.20,KRTS 080515Z AUTO 27009KT 10SM FEW120 24/06 A3019 RMK AO2,M
HTH,2022-08-08 05:15,-118.6315,38.5448,1282.89,82.40,41.00,23.07,140.00,8.00,0.00,30.07,M,10.00,M,CLR,M,M,M,M,M,M,M,M,M,M,M,M,M,M,80.29,KHTH 080515Z AUTO 14008KT 10SM CLR 28/05 A3007 RMK A01,M
BVU,2022-08-08 05:15,-114.8611,35.9475,671.00,91.40,55.40,29.72,0.00,0.00,0.00,29.95,M,M,M,M,M,M,M,M,M,M,M,M,M,M,M,M,M,M,89.53,KBVU 080515Z AUTO 00000KT 33/13 A2995 RMK AO2 PWINO TSNO,M
CXP,2022-08-08 05:15,-119.7326,39.1923,1431.00,80.60,46.40,30.07,0.00,0.00,0.00,30.16,M,10.00,M,CLR,M,M,M,M,M,M,M,M,M,M,M,M,M,M,79.56,KCXP 080515Z AUTO 00000KT 10SM CLR 27/08 A3016 RMK AO2,M
TMT,2022-08-08 05:20,-117.1971,39.4643,1749.34,67.00,53.80,62.75,320.00,3.00,0.00,30.25,M,10.00,M,CLR,M,M,M,M,M,M,M,M,M,M,M,M,M,M,66.90,KTMT 080520Z AUTO 32003KT 10SM CLR 19/12 A3025 RMK AO2 T01940121,M
BAM,2022-08-08 05:20,-116.8743,40.5990,1382.36,75.20,41.00,29.23,130.00,6.00,0.00,30.15,M,10.00,M,CLR,M,M,M,M,M,M,M,M,M,M,M,M,M,M,75.20,KBAM 080520Z AUTO 13006KT 10SM CLR 24/05 A3015 RMK AO1,M
TMT,2022-08-08 05:35,-117.1971,39.4643,1749.34,68.20,54.00,60.44,340.00,3.00,0.00,30.25,M,10.00,M,CLR,M,M,M,M,M,M,M,M,M,M,M,M,M,M,68.20,KTMT 080535Z AUTO 34003KT 10SM CLR 20/12 A3025 RMK AO2 T02010122,M
CXP,2022-08-08 05:35,-119.7326,39.1923,1431.00,80.60,44.60,28.08,60.00,4.00,0.00,30.16,M,10.00,M,CLR,M,M,M,M,M,M,M,M,M,M,M,M,M,M,79.42,KCXP 080535Z AUTO 06004KT 10SM CLR 27/07 A3016 RMK AO2,M
BVU,2022-08-08 05:35,-114.8611,35.9475,671.00,91.40,57.20,31.72,0.00,0.00,0.00,29.95,M,M,M,M,M,M,M,M,M,M,M,M,M,M,M,M,M,M,90.06,KBVU 080535Z AUTO 00000KT 33/14 A2995 RMK AO2 PWINO TSNO,M
HTH,2022-08-08 05:35,-118.6315,38.5448,1282.89,80.60,41.00,24.46,M,6.00,0.00,30.08,M,10.00,M,CLR,M,M,M,M,M,M,M,M,M,M,M,M,M,M,79.20,KHTH 080535Z AUTO VRB06KT 10SM CLR 27/05 A3008 RMK A01,M
BAM,2022-08-08 05:35,-116.8743,40.5990,1382.36,75.20,41.00,29.23,70.00,5.00,0.00,30.15,M,10.00,M,CLR,M,M,M,M,M,M,M,M,M,M,M,M,M,M,75.20,KBAM 080535Z AUTO 07005KT 10SM CLR 24/05 A3015 RMK AO1,M
MEV,2022-08-08 05:35,-119.7500,38.9963,1441.42,71.60,53.60,53.03,100.00,4.00,0.00,30.15,M,10.00,M,BKN,M,M,M,12000.00,M,M,M,M,M,M,M,M,M,M,71.60,KMEV 080535Z AUTO 10004KT 10SM BKN120 22/12 A3015 RMK AO2,M
RTS,2022-08-08 05:35,-119.8764,39.6682,1539.00,73.40,44.60,35.66,270.00,7.00,0.00,30.19,M,10.00,M,BKN,M,M,M,12000.00,M,M,M,M,M,M,M,M,M,M,73.40,KRTS 080535Z AUTO 27007KT 10SM BKN120 23/07 A3019 RMK AO2,M
LOL,2022-08-08 05:53,-118.5701,40.0684,1192.43,75.00,39.00,27.23,340.00,3.00,0.00,30.04,1012.60,10.00,M,CLR,M,M,M,M,M,M,M,M,M,M,M,M,M,M,75.00,KLOL 080553Z AUTO 34003KT 10SM CLR 24/04 A3004 RMK AO2 SLP126 T02390039 10367 20239 50008,M
DRA,2022-08-08 05:53,-116.0278,36.6206,1009.00,84.00,58.00,41.14,70.00,4.00,0.00,30.03,1011.10,10.00,M,CLR,M,M,M,M,M,M,M,M,M,M,M,M,M,M,83.47,KDRA 080553Z AUTO 07004KT 10SM CLR 29/14 A3003 RMK AO2 SLP111 60000 T02890144 10389 20289 53004,M
ELY,2022-08-08 05:53,-114.8453,39.2950,1909.00,64.00,50.00,60.34,130.00,3.00,0.00,30.33,1016.70,10.00,M,CLR,M,M,M,M,M,M,M,M,M,M,M,M,M,M,64.00,KELY 080553Z AUTO 13003KT 10SM CLR 18/10 A3033 RMK AO2 SLP167 T01780100 10294 20167 51015,M
VGT,2022-08-08 05:53,-115.1933,36.2111,667.00,94.00,51.00,23.48,300.00,4.00,0.00,29.93,1011.90,10.00,M,CLR,M,M,M,M,M,M,M,M,M,M,M,M,M,M,91.00,KVGT 080553Z AUTO 30004KT 10SM CLR 34/11 A2993 RMK AO2 SLP119 6//// T03440106 10406 20344 51010 PNO,M
CXP,2022-08-08 05:55,-119.7326,39.1923,1431.00,78.80,46.40,31.90,0.00,0.00,0.00,30.16,M,10.00,M,CLR,M,M,M,M,M,M,M,M,M,M,M,M,M,M,78.80,KCXP 080555Z AUTO 00000KT 10SM CLR 26/08 A3016 RMK AO2,M
HTH,2022-08-08 05:55,-118.6315,38.5448,1282.89,78.80,42.80,27.81,130.00,11.00,0.00,30.08,M,10.00,M,CLR,M,M,M,M,M,M,M,M,M,M,M,M,M,M,78.80,KHTH 080555Z AUTO 13011KT 10SM CLR 26/06 A3008 RMK A01,M
BAM,2022-08-08 05:55,-116.8743,40.5990,1382.36,71.60,39.20,30.77,100.00,4.00,0.00,30.16,M,10.00,M,CLR,M,M,M,M,M,M,M,M,M,M,M,M,M,M,71.60,KBAM 080555Z AUTO 10004KT 10SM CLR 22/04 A3016 RMK AO1,M
RTS,2022-08-08 05:55,-119.8764,39.6682,1539.00,73.40,44.60,35.66,280.00,9.00,0.00,30.19,M,10.00,M,BKN,M,M,M,12000.00,M,M,M,M,M,M,M,M,M,M,73.40,KRTS 080555Z AUTO 28009KT 10SM BKN120 23/07 A3019 RMK AO2,M
TMT,2022-08-08 05:55,-117.1971,39.4643,1749.34,64.20,56.30,75.49,0.00,0.00,0.00,30.25,M,10.00,M,SCT,M,M,M,12000.00,M,M,M,M,M,M,M,M,M,M,64.20,KTMT 080555Z AUTO 00000KT 10SM SCT120 18/14 A3025 RMK AO2 T01790135,M
MEV,2022-08-08 05:55,-119.7500,38.9963,1441.42,69.80,53.60,56.38,110.00,7.00,0.00,30.15,M,10.00,M,SCT,M,M,M,12000.00,M,M,M,M,M,M,M,M,M,M,69.80,KMEV 080555Z AUTO 11007KT 10SM SCT120 21/12 A3015 RMK AO2,M
RNO,2022-08-08 05:55,-119.7711,39.4839,1341.00,80.00,48.00,32.46,0.00,0.00,0.00,30.12,1013.60,10.00,M,SCT,M,M,M,8000.00,M,M,M,M,M,M,M,M,M,M,79.42,KRNO 080555Z 00000KT 10SM SCT080 27/09 A3012 RMK AO2 SLP136 60000 T02670089 10356 20267 51015,M
BVU,2022-08-08 05:55,-114.8611,35.9475,671.00,91.40,55.40,29.72,0.00,0.00,0.00,29.95,M,M,M,M,M,M,M,M,M,M,M,M,M,M,M,M,M,M,89.53,KBVU 080555Z AUTO 00000KT 33/13 A2995 RMK AO2 PWINO TSNO,M
EKO,2022-08-08 05:56,-115.7860,40.8242,1367.00,64.00,48.00,55.99,100.00,3.00,0.00,30.21,1017.80,10.00,M,CLR,M,M,M,M,M,M,M,M,M,M,M,M,M,M,64.00,KEKO 080556Z AUTO 10003KT 10SM CLR 18/09 A3021 RMK AO2 SLP178 T01780089 10300 20172 51010 $,M
HND,2022-08-08 05:56,-115.1344,35.9729,742.79,92.00,55.00,28.84,180.00,8.00,0.00,29.99,1013.50,10.00,M,CLR,M,M,M,M,M,M,M,M,M,M,M,M,M,M,89.92,KHND 080556Z AUTO 18008KT 10SM CLR 33/13 A2999 RMK AO2 SLP135 T03330128 10394 20333 51012,M
LAS,2022-08-08 05:56,-115.1634,36.0719,663.00,95.00,52.00,23.47,230.00,6.00,0.00,29.94,1010.60,10.00,M,FEW,SCT,M,M,20000.00,25000.00,M,M,M,M,M,M,M,M,M,92.31,KLAS 080556Z 23006KT 10SM FEW200 SCT250 35/11 A2994 RMK AO2 SLP106 T03500111 10400 20350 51009,M
NFL,2022-08-08 05:56,-118.7010,39.4166,1199.00,80.00,44.00,28.01,90.00,8.00,0.00,30.03,1014.00,10.00,M,CLR,M,M,M,M,M,M,M,M,M,M,M,M,M,M,79.12,KNFL 080556Z AUTO 09008KT 10SM CLR 27/07 A3003 RMK AO2 SLP140 6//// T02670067 10378 20267 51009 PNO $,M
TPH,2022-08-08 05:56,-117.0904,38.0505,1654.00,73.00,53.00,49.66,320.00,3.00,0.00,30.23,1015.20,10.00,M,CLR,M,M,M,M,M,M,M,M,M,M,M,M,M,M,73.00,KTPH 080556Z AUTO 32003KT 10SM CLR 23/12 A3023 RMK AO2 SLP152 T02280117 10317 20217 51013,M
WMC,2022-08-08 05:56,-117.8072,40.9019,1315.00,77.00,40.00,26.38,60.00,5.00,0.00,30.10,1013.60,10.00,M,CLR,M,M,M,M,M,M,M,M,M,M,M,M,M,M,77.00,KWMC 080556Z AUTO 06005KT 10SM CLR 25/04 A3010 RMK AO2 SLP136 T02500044 10344 20244 51006,M
INS,2022-08-08 05:58,-115.6733,36.5872,955.00,87.40,48.40,26.04,80.00,3.00,0.00,30.02,1011.00,10.00,M,CLR,M,M,M,M,M,M,M,M,M,M,M,M,M,M,84.56,KINS 080558Z AUTO 08003KT 10SM CLR 31/09 A3002 RMK AO2 SLP110 T03080091 10376 20308 51013,M
LSV,2022-08-08 05:58,-115.0343,36.2362,570.00,93.20,50.00,23.04,120.00,3.00,0.00,29.93,M,10.00,M,CLR,M,M,M,M,M,M,M,M,M,M,M,M,M,M,90.10,KLSV 080558Z 12003KT 10SM CLR 34/10 A2993 RMK AO2A SLPNO WND DATA ESTMD 10409 20374 $,M
MEV,2022-08-08 06:15,-119.7500,38.9963,1441.42,68.00,53.60,59.97,120.00,8.00,0.00,30.15,M,10.00,M,CLR,M,M,M,M,M,M,M,M,M,M,M,M,M,M,68.00,KMEV 080615Z AUTO 12008KT 10SM CLR 20/12 A3015 RMK AO2,M
CXP,2022-08-08 06:15,-119.7326,39.1923,1431.00,78.80,46.40,31.90,0.00,0.00,0.00,30.16,M,9.00,M,CLR,M,M,M,M,M,M,M,M,M,M,M,M,M,M,78.80,KCXP 080615Z AUTO 00000KT 9SM CLR 26/08 A3016 RMK AO2,M
RTS,2022-08-08 06:15,-119.8764,39.6682,1539.00,75.20,42.80,31.34,260.00,7.00,0.00,30.19,M,10.00,M,SCT,M,M,M,12000.00,M,M,M,M,M,M,M,M,M,M,75.20,KRTS 080615Z AUTO 26007KT 10SM SCT120 24/06 A3019 RMK AO2,M
BVU,2022-08-08 06:15,-114.8611,35.9475,671.00,93.20,55.40,28.10,130.00,3.00,0.00,29.95,M,M,M,M,M,M,M,M,M,M,M,M,M,M,M,M,M,M,91.35,KBVU 080615Z AUTO 13003KT 34/13 A2995 RMK AO2 PWINO TSNO,M
HTH,2022-08-08 06:15,-118.6315,38.5448,1282.89,82.40,42.80,24.72,150.00,5.00,0.00,30.08,M,10.00,M,M,M,M,M,M,M,M,M,M,M,M,M,M,M,M,80.39,KHTH 080615Z AUTO 15005KT 10SM 28/06 A3008 RMK A01,M
TMT,2022-08-08 06:15,-117.1971,39.4643,1749.34,64.60,55.20,71.53,0.00,0.00,0.00,30.25,M,10.00,M,SCT,M,M,M,12000.00,M,M,M,M,M,M,M,M,M,M,64.60,KTMT 080615Z AUTO 00000KT 10SM SCT120 18/13 A3025 RMK AO2 T01810129,M
BAM,2022-08-08 06:15,-116.8743,40.5990,1382.36,73.40,37.40,26.98,80.00,6.00,0.00,30.16,M,10.00,M,CLR,M,M,M,M,M,M,M,M,M,M,M,M,M,M,73.40,KBAM 080615Z AUTO 08006KT 10SM CLR 23/03 A3016 RMK AO1,M
CXP,2022-08-08 06:35,-119.7326,39.1923,1431.00,77.00,46.40,33.85,0.00,0.00,0.00,30.16,M,10.00,M,FEW,M,M,M,12000.00,M,M,M,M,M,M,M,M,M,M,77.00,KCXP 080635Z AUTO 00000KT 10SM FEW120 25/08 A3016 RMK AO2,M
BVU,2022-08-08 06:35,-114.8611,35.9475,671.00,91.40,55.40,29.72,0.00,0.00,0.00,29.95,M,M,M,M,M,M,M,M,M,M,M,M,M,M,M,M,M,M,89.53,KBVU 080635Z AUTO 00000KT 33/13 A2995 RMK AO2 PWINO TSNO,M
RTS,2022-08-08 06:35,-119.8764,39.6682,1539.00,73.40,42.80,33.29,280.00,5.00,0.00,30.19,M,10.00,M,BKN,M,M,M,12000.00,M,M,M,M,M,M,M,M,M,M,73.40,KRTS 080635Z AUTO 28005KT 10SM BKN120 23/06 A3019 RMK AO2,M
MEV,2022-08-08 06:35,-119.7500,38.9963,1441.42,66.20,51.80,59.74,120.00,5.00,0.00,30.15,M,10.00,M,CLR,M,M,M,M,M,M,M,M,M,M,M,M,M,M,66.20,KMEV 080635Z AUTO 12005KT 10SM CLR 19/11 A3015 RMK AO2,M
BAM,2022-08-08 06:35,-116.8743,40.5990,1382.36,73.40,37.40,26.98,80.00,5.00,0.00,30.16,M,10.00,M,CLR,M,M,M,M,M,M,M,M,M,M,M,M,M,M,73.40,KBAM 080635Z AUTO 08005KT 10SM CLR 23/03 A3016 RMK AO1,M
HTH,2022-08-08 06:35,-118.6315,38.5448,1282.89,84.20,42.80,23.33,150.00,10.00,0.00,30.09,M,10.00,M,M,M,M,M,M,M,M,M,M,M,M,M,M,M,M,81.61,KHTH 080635Z AUTO 15010KT 10SM 29/06 A3009 RMK A01,M
TMT,2022-08-08 06:35,-117.1971,39.4643,1749.34,M,M,M,0.00,0.00,0.00,30.25,M,10.00,M,BKN,M,M,M,12000.00,M,M,M,M,M,M,M,M,M,M,M,KTMT 080635Z AUTO 00000KT 10SM BKN120 A3025 RMK AO2,M
DRA,2022-08-08 06:53,-116.0278,36.6206,1009.00,82.00,59.00,45.66,50.00,4.00,0.00,30.03,1011.20,10.00,M,CLR,M,M,M,M,M,M,M,M,M,M,M,M,M,M,82.15,KDRA 080653Z AUTO 05004KT 10SM CLR 28/15 A3003 RMK AO2 SLP112 T02780150,M
ELY,2022-08-08 06:53,-114.8453,39.2950,1909.00,60.00,51.00,72.13,160.00,5.00,0.00,30.33,1016.70,10.00,M,CLR,M,M,M,M,M,M,M,M,M,M,M,M,M,M,60.10,KELY 080653Z AUTO 16005KT 10SM CLR 16/11 A3033 RMK AO2 SLP167 T01560106 403060083,M
LOL,2022-08-08 06:53,-118.5701,40.0684,1192.43,80.00,39.00,23.00,30.00,5.00,0.00,30.05,1012.20,10.00,M,CLR,M,M,M,M,M,M,M,M,M,M,M,M,M,M,78.89,KLOL 080653Z AUTO 03005KT 10SM CLR 27/04 A3005 RMK AO2 SLP122 T02670039,M
VGT,2022-08-08 06:53,-115.1933,36.2111,667.00,94.00,51.00,23.48,360.00,4.00,0.00,29.93,1011.80,10.00,M,CLR,M,M,M,M,M,M,M,M,M,M,M,M,M,M,91.00,KVGT 080653Z AUTO 36004KT 10SM CLR 34/11 A2993 RMK AO2 SLP118 T03440106 PNO,M
RNO,2022-08-08 06:55,-119.7711,39.4839,1341.00,80.00,47.00,31.15,310.00,5.00,0.00,30.13,1013.40,10.00,M,SCT,BKN,M,M,8000.00,13000.00,M,M,M,M,M,M,M,M,M,79.33,KRNO 080655Z 31005KT 10SM SCT080 BKN130 27/08 A3013 RMK AO2 SLP134 T02670083,M
BAM,2022-08-08 06:55,-116.8743,40.5990,1382.36,73.40,41.00,31.05,80.00,3.00,0.00,30.16,M,10.00,M,CLR,M,M,M,M,M,M,M,M,M,M,M,M,M,M,73.40,KBAM 080655Z AUTO 08003KT 10SM CLR 23/05 A3016 RMK AO1,M
TMT,2022-08-08 06:55,-117.1971,39.4643,1749.34,65.70,55.00,68.35,0.00,0.00,0.00,30.25,M,10.00,M,SCT,M,M,M,12000.00,M,M,M,M,M,M,M,M,M,M,65.70,KTMT 080655Z AUTO 00000KT 10SM SCT120 19/13 A3025 RMK AO2 T01870128,M
CXP,2022-08-08 06:55,-119.7326,39.1923,1431.00,75.20,48.20,38.46,0.00,0.00,0.00,30.16,M,10.00,M,BKN,M,M,M,12000.00,M,M,M,M,M,M,M,M,M,M,75.20,KCXP 080655Z AUTO 00000KT 10SM BKN120 24/09 A3016 RMK AO2,M
BVU,2022-08-08 06:55,-114.8611,35.9475,671.00,91.40,57.20,31.72,170.00,6.00,0.00,29.96,M,M,M,M,M,M,M,M,M,M,M,M,M,M,M,M,M,M,90.06,KBVU 080655Z AUTO 17006KT 33/14 A2996 RMK AO2 PWINO TSNO,M
RTS,2022-08-08 06:55,-119.8764,39.6682,1539.00,71.60,44.60,37.89,300.00,5.00,0.00,30.19,M,10.00,M,SCT,M,M,M,12000.00,M,M,M,M,M,M,M,M,M,M,71.60,KRTS 080655Z AUTO 30005KT 10SM SCT120 22/07 A3019 RMK AO2,M
MEV,2022-08-08 06:55,-119.7500,38.9963,1441.42,66.20,53.60,63.82,0.00,0.00,0.00,30.16,M,10.00,M,CLR,M,M,M,M,M,M,M,M,M,M,M,M,M,M,66.20,KMEV 080655Z AUTO 00000KT 10SM CLR 19/12 A3016 RMK AO2,M
HTH,2022-08-08 06:55,-118.6315,38.5448,1282.89,82.40,42.80,24.72,150.00,9.00,0.00,30.09,M,10.00,M,CLR,M,M,M,M,M,M,M,M,M,M,M,M,M,M,80.39,KHTH 080655Z AUTO 15009KT 10SM CLR 28/06 A3009 RMK A01,M
HND,2022-08-08 06:56,-115.1344,35.9729,742.79,91.00,55.00,29.66,170.00,7.00,0.00,29.99,1013.40,10.00,M,CLR,M,M,M,M,M,M,M,M,M,M,M,M,M,M,89.03,KHND 080656Z AUTO 17007KT 10SM CLR 33/13 A2999 RMK AO2 SLP134 T03280128 403940278,M
LAS,2022-08-08 06:56,-115.1634,36.0719,663.00,93.00,52.00,24.97,220.00,4.00,0.00,29.94,1010.70,10.00,M,FEW,SCT,M,M,18000.00,25000.00,M,M,M,M,M,M,M,M,M,90.29,KLAS 080656Z 22004KT 10SM FEW180 SCT250 34/11 A2994 RMK AO2 SLP107 T03390111,M
TPH,2022-08-08 06:56,-117.0904,38.0505,1654.00,69.00,57.00,65.35,310.00,5.00,0.00,30.23,1015.10,10.00,M,CLR,M,M,M,M,M,M,M,M,M,M,M,M,M,M,69.10,KTPH 080656Z AUTO 31005KT 10SM CLR 21/14 A3023 RMK AO2 SLP151 T02060139,M
WMC,2022-08-08 06:56,-117.8072,40.9019,1315.00,74.00,42.00,31.86,80.00,9.00,0.00,30.11,1014.00,10.00,M,CLR,M,M,M,M,M,M,M,M,M,M,M,M,M,M,73.90,KWMC 080656Z AUTO 08009KT 10SM CLR 23/06 A3011 RMK AO2 SLP140 T02330056,M
NFL,2022-08-08 06:56,-118.7010,39.4166,1199.00,80.00,42.00,25.94,170.00,8.00,0.00,30.05,1014.50,10.00,M,CLR,M,M,M,M,M,M,M,M,M,M,M,M,M,M,78.99,KNFL 080656Z AUTO 17008KT 10SM CLR 27/06 A3005 RMK AO2 SLP145 T02670056 PNO $,M
EKO,2022-08-08 06:56,-115.7860,40.8242,1367.00,66.00,50.00,56.27,30.00,4.00,0.00,30.23,1017.90,10.00,M,CLR,M,M,M,M,M,M,M,M,M,M,M,M,M,M,66.00,KEKO 080656Z AUTO 03004KT 10SM CLR 19/10 A3023 RMK AO2 SLP179 T01890100 $,M
LSV,2022-08-08 06:58,-115.0343,36.2362,570.00,93.20,50.00,23.04,30.00,4.00,0.00,29.95,M,10.00,M,CLR,M,M,M,M,M,M,M,M,M,M,M,M,M,M,90.10,KLSV 080658Z 03004KT 10SM CLR 34/10 A2995 RMK AO2A SLPNO RVRNO $,M
INS,2022-08-08 06:58,-115.6733,36.5872,955.00,85.50,49.50,28.83,0.00,0.00,0.00,30.02,1011.00,10.00,M,CLR,M,M,M,M,M,M,M,M,M,M,M,M,M,M,83.16,KINS 080658Z AUTO 00000KT 10SM CLR 30/10 A3002 RMK AO2 SLP110 T02970097,M
CXP,2022-08-08 07:10,-119.7326,39.1923,1431.00,73.40,46.40,38.18,0.00,0.00,0.00,30.17,M,10.00,M,SCT,M,M,M,12000.00,M,M,M,M,M,M,M,M,M,M,73.40,KCXP 080710Z AUTO 00000KT 10SM SCT120 23/08 A3017 RMK AO2,M
HTH,2022-08-08 07:15,-118.6315,38.5448,1282.89,80.60,42.80,26.22,120.00,11.00,0.00,30.09,M,10.00,M,CLR,M,M,M,M,M,M,M,M,M,M,M,M,M,M,79.30,KHTH 080715Z AUTO 12011KT 10SM CLR 27/06 A3009 RMK A01,M
BAM,2022-08-08 07:15,-116.8743,40.5990,1382.36,71.60,41.00,33.00,90.00,5.00,0.00,30.16,M,10.00,M,CLR,M,M,M,M,M,M,M,M,M,M,M,M,M,M,71.60,KBAM 080715Z AUTO 09005KT 10SM CLR 22/05 A3016 RMK AO1,M
MEV,2022-08-08 07:15,-119.7500,38.9963,1441.42,64.40,53.60,67.95,100.00,5.00,0.00,30.16,M,10.00,M,CLR,M,M,M,M,M,M,M,M,M,M,M,M,M,M,64.40,KMEV 080715Z AUTO 10005KT 10SM CLR 18/12 A3016 RMK AO2,M
RTS,2022-08-08 07:15,-119.8764,39.6682,1539.00,71.60,42.80,35.37,290.00,6.00,0.00,30.19,M,10.00,M,FEW,M,M,M,12000.00,M,M,M,M,M,M,M,M,M,M,71.60,KRTS 080715Z AUTO 29006KT 10SM FEW120 22/06 A3019 RMK AO2,M
BVU,2022-08-08 07:15,-114.8611,35.9475,671.00,91.40,57.20,31.72,170.00,4.00,0.00,29.96,M,M,M,M,M,M,M,M,M,M,M,M,M,M,M,M,M,M,90.06,KBVU 080715Z AUTO 17004KT 33/14 A2996 RMK AO2 PWINO TSNO,M
TMT,2022-08-08 07:15,-117.1971,39.4643,1749.34,64.00,55.60,74.38,340.00,3.00,0.00,30.25,M,10.00,M,CLR,M,M,M,M,M,M,M,M,M,M,M,M,M,M,63.90,KTMT 080715Z AUTO 34003KT 10SM CLR 18/13 A3025 RMK AO2 T01770131,M
RTS,2022-08-08 07:35,-119.8764,39.6682,1539.00,71.60,42.80,35.37,290.00,7.00,0.00,30.19,M,10.00,M,CLR,M,M,M,M,M,M,M,M,M,M,M,M,M,M,71.60,KRTS 080735Z AUTO 29007KT 10SM CLR 22/06 A3019 RMK AO2,M
CXP,2022-08-08 07:35,-119.7326,39.1923,1431.00,73.40,46.40,38.18,0.00,0.00,0.00,30.16,M,10.00,M,CLR,M,M,M,M,M,M,M,M,M,M,M,M,M,M,73.40,KCXP 080735Z AUTO 00000KT 10SM CLR 23/08 A3016 RMK AO2,M
MEV,2022-08-08 07:35,-119.7500,38.9963,1441.42,62.60,51.80,67.75,120.00,4.00,0.00,30.16,M,10.00,M,CLR,M,M,M,M,M,M,M,M,M,M,M,M,M,M,62.60,KMEV 080735Z AUTO 12004KT 10SM CLR 17/11 A3016 RMK AO2,M
HTH,2022-08-08 07:35,-118.6315,38.5448,1282.89,80.60,42.80,26.22,130.00,5.00,0.00,30.09,M,10.00,12.00,M,M,M,M,M,M,M,M,M,M,M,M,M,M,M,79.30,KHTH 080735Z AUTO 13005G12KT 10SM 27/06 A3009 RMK A01,M
TMT,2022-08-08 07:35,-117.1971,39.4643,1749.34,62.60,56.30,79.86,280.00,3.00,0.00,30.25,M,10.00,M,CLR,M,M,M,M,M,M,M,M,M,M,M,M,M,M,62.60,KTMT 080735Z AUTO 28003KT 10SM CLR 17/14 A3025 RMK AO2 T01700135,M
BVU,2022-08-08 07:35,-114.8611,35.9475,671.00,91.40,57.20,31.72,0.00,0.00,0.00,29.96,M,M,M,M,M,M,M,M,M,M,M,M,M,M,M,M,M,M,90.06,KBVU 080735Z AUTO 00000KT 33/14 A2996 RMK AO2 PWINO TSNO,M
BAM,2022-08-08 07:35,-116.8743,40.5990,1382.36,73.40,41.00,31.05,70.00,6.00,0.00,30.16,M,10.00,M,CLR,M,M,M,M,M,M,M,M,M,M,M,M,M,M,73.40,KBAM 080735Z AUTO 07006KT 10SM CLR 23/05 A3016 RMK AO1,M
ELY,2022-08-08 07:53,-114.8453,39.2950,1909.00,58.00,50.00,74.91,170.00,5.00,0.00,30.32,1016.60,10.00,M,CLR,M,M,M,M,M,M,M,M,M,M,M,M,M,M,57.90,KELY 080753Z AUTO 17005KT 10SM CLR 14/10 A3032 RMK AO2 SLP166 T01440100,M
VGT,2022-08-08 07:53,-115.1933,36.2111,667.00,91.00,51.00,25.70,60.00,6.00,0.00,29.93,1012.00,10.00,M,CLR,M,M,M,M,M,M,M,M,M,M,M,M,M,M,88.18,KVGT 080753Z AUTO 06006KT 10SM CLR 33/11 A2993 RMK AO2 SLP120 T03280106 404060283 PNO,M
LOL,2022-08-08 07:53,-118.5701,40.0684,1192.43,68.00,38.00,33.07,300.00,4.00,0.00,30.04,1012.60,10.00,M,CLR,M,M,M,M,M,M,M,M,M,M,M,M,M,M,68.00,KLOL 080753Z AUTO 30004KT 10SM CLR 20/03 A3004 RMK AO2 SLP126 T02000033 403720122,M
DRA,2022-08-08 07:53,-116.0278,36.6206,1009.00,81.00,55.00,40.83,40.00,6.00,0.00,30.03,1011.10,10.00,M,CLR,M,M,M,M,M,M,M,M,M,M,M,M,M,M,80.73,KDRA 080753Z AUTO 04006KT 10SM CLR 27/13 A3003 RMK AO2 SLP111 T02720128 403890244,M
BVU,2022-08-08 07:55,-114.8611,35.9475,671.00,87.80,59.00,37.90,0.00,0.00,0.00,29.95,M,M,M,M,M,M,M,M,M,M,M,M,M,M,M,M,M,M,87.12,KBVU 080755Z AUTO 00000KT 31/15 A2995 RMK AO2 PWINO TSNO,M
RTS,2022-08-08 07:55,-119.8764,39.6682,1539.00,69.80,42.80,37.61,320.00,8.00,0.00,30.18,M,10.00,M,CLR,M,M,M,M,M,M,M,M,M,M,M,M,M,M,69.80,KRTS 080755Z AUTO 32008KT 10SM CLR 21/06 A3018 RMK AO2,M
TMT,2022-08-08 07:55,-117.1971,39.4643,1749.34,61.00,56.30,84.50,270.00,5.00,0.00,30.25,M,10.00,M,CLR,M,M,M,M,M,M,M,M,M,M,M,M,M,M,61.00,KTMT 080755Z AUTO 27005KT 10SM CLR 16/14 A3025 RMK AO2 T01610135,M
RNO,2022-08-08 07:55,-119.7711,39.4839,1341.00,74.00,55.00,51.64,170.00,5.00,0.00,30.13,1013.50,10.00,M,BKN,M,M,M,13000.00,M,M,M,M,M,M,M,M,M,M,73.90,KRNO 080755Z 17005KT 10SM BKN130 23/13 A3013 RMK AO2 SLP135 T02330128 403670183,M
CXP,2022-08-08 07:55,-119.7326,39.1923,1431.00,71.60,48.20,43.42,0.00,0.00,0.00,30.16,M,10.00,M,CLR,M,M,M,M,M,M,M,M,M,M,M,M,M,M,71.60,KCXP 080755Z AUTO 00000KT 10SM CLR 22/09 A3016 RMK AO2,M
HTH,2022-08-08 07:55,-118.6315,38.5448,1282.89,80.60,42.80,26.22,150.00,9.00,0.00,30.09,M,10.00,M,M,M,M,M,M,M,M,M,M,M,M,M,M,M,M,79.30,KHTH 080755Z AUTO 15009KT 10SM 27/06 A3009 RMK A01,M
BAM,2022-08-08 07:55,-116.8743,40.5990,1382.36,73.40,41.00,31.05,70.00,7.00,0.00,30.15,M,10.00,M,CLR,M,M,M,M,M,M,M,M,M,M,M,M,M,M,73.40,KBAM 080755Z AUTO 07007KT 10SM CLR 23/05 A3015 RMK AO1,M
MEV,2022-08-08 07:55,-119.7500,38.9963,1441.42,62.60,51.80,67.75,120.00,5.00,0.00,30.16,M,10.00,M,CLR,M,M,M,M,M,M,M,M,M,M,M,M,M,M,62.60,KMEV 080755Z AUTO 12005KT 10SM CLR 17/11 A3016 RMK AO2,M
WMC,2022-08-08 07:56,-117.8072,40.9019,1315.00,75.00,41.00,29.43,70.00,9.00,0.00,30.11,1013.50,10.00,M,CLR,M,M,M,M,M,M,M,M,M,M,M,M,M,M,75.00,KWMC 080756Z AUTO 07009KT 10SM CLR 24/05 A3011 RMK AO2 SLP135 T02390050 403560172,M
EKO,2022-08-08 07:56,-115.7860,40.8242,1367.00,61.00,49.00,64.37,80.00,3.00,0.00,30.22,1017.90,10.00,M,CLR,M,M,M,M,M,M,M,M,M,M,M,M,M,M,61.00,KEKO 080756Z AUTO 08003KT 10SM CLR 16/09 A3022 RMK AO2 SLP179 T01610094 403060100 $,M
LAS,2022-08-08 07:56,-115.1634,36.0719,663.00,92.00,54.00,27.80,230.00,3.00,0.00,29.95,1010.80,10.00,M,FEW,SCT,M,M,18000.00,25000.00,M,M,M,M,M,M,M,M,M,89.66,KLAS 080756Z 23003KT 10SM FEW180 SCT250 33/12 A2995 RMK AO2 SLP108 T03330122 404000283,M
NFL,2022-08-08 07:56,-118.7010,39.4166,1199.00,74.00,46.00,36.98,180.00,6.00,0.00,30.05,1014.50,10.00,M,CLR,M,M,M,M,M,M,M,M,M,M,M,M,M,M,73.90,KNFL 080756Z AUTO 18006KT 10SM CLR 23/08 A3005 RMK AO2 SLP145 T02330078 403780178 PNO $,M
TPH,2022-08-08 07:56,-117.0904,38.0505,1654.00,69.00,54.00,58.60,340.00,3.00,0.00,30.22,1014.70,10.00,M,CLR,M,M,M,M,M,M,M,M,M,M,M,M,M,M,69.10,KTPH 080756Z AUTO 34003KT 10SM CLR 21/12 A3022 RMK AO2 SLP147 T02060122 403220161,M
HND,2022-08-08 07:56,-115.1344,35.9729,742.79,90.00,55.00,30.61,180.00,7.00,0.00,29.98,1013.30,10.00,M,CLR,M,M,M,M,M,M,M,M,M,M,M,M,M,M,88.06,KHND 080756Z AUTO 18007KT 10SM CLR 32/13 A2998 RMK AO2 SLP133 T03220128,M
INS,2022-08-08 07:58,-115.6733,36.5872,955.00,83.80,50.00,31.02,0.00,0.00,0.00,30.02,1011.00,10.00,M,CLR,M,M,M,M,M,M,M,M,M,M,M,M,M,M,81.95,KINS 080758Z AUTO 00000KT 10SM CLR 29/10 A3002 RMK AO2 SLP110 T02880100 403790224,M
LSV,2022-08-08 07:58,-115.0343,36.2362,570.00,91.40,53.60,27.83,10.00,3.00,0.00,29.91,M,10.00,M,CLR,M,M,M,M,M,M,M,M,M,M,M,M,M,M,89.08,KLSV 080758Z 01003KT 10SM CLR 33/12 A2991 RMK AO2A SLPNO ALSTG ESTMD 404230305 RVRNO $,M
BAM,2022-08-08 08:15,-116.8743,40.5990,1382.36,73.40,41.00,31.05,80.00,8.00,0.00,30.15,M,10.00,M,CLR,M,M,M,M,M,M,M,M,M,M,M,M,M,M,73.40,KBAM 080815Z AUTO 08008KT 10SM CLR 23/05 A3015 RMK AO1,M
RTS,2022-08-08 08:15,-119.8764,39.6682,1539.00,71.60,42.80,35.37,300.00,7.00,0.00,30.18,M,10.00,M,CLR,M,M,M,M,M,M,M,M,M,M,M,M,M,M,71.60,KRTS 080815Z AUTO 30007KT 10SM CLR 22/06 A3018 RMK AO2,M
MEV,2022-08-08 08:15,-119.7500,38.9963,1441.42,64.40,51.80,63.60,0.00,0.00,0.00,30.16,M,10.00,M,CLR,M,M,M,M,M,M,M,M,M,M,M,M,M,M,64.40,KMEV 080815Z AUTO 00000KT 10SM CLR 18/11 A3016 RMK AO2,M
CXP,2022-08-08 08:15,-119.7326,39.1923,1431.00,71.60,46.40,40.57,0.00,0.00,0.00,30.17,M,10.00,M,CLR,M,M,M,M,M,M,M,M,M,M,M,M,M,M,71.60,KCXP 080815Z AUTO 00000KT 10SM CLR 22/08 A3017 RMK AO2,M
BVU,2022-08-08 08:15,-114.8611,35.9475,671.00,86.00,60.80,42.80,0.00,0.00,0.00,29.95,M,M,M,M,M,M,M,M,M,M,M,M,M,M,M,M,M,M,86.05,KBVU 080815Z AUTO 00000KT 30/16 A2995 RMK AO2 PWINO TSNO,M
TMT,2022-08-08 08:15,-117.1971,39.4643,1749.34,62.00,54.50,76.67,230.00,6.00,0.00,30.25,M,10.00,M,CLR,M,M,M,M,M,M,M,M,M,M,M,M,M,M,61.90,KTMT 080815Z AUTO 23006KT 10SM CLR 17/13 A3025 RMK AO2 T01660125,M
HTH,2022-08-08 08:15,-118.6315,38.5448,1282.89,80.60,44.60,28.08,170.00,5.00,0.00,30.10,M,10.00,M,CLR,M,M,M,M,M,M,M,M,M,M,M,M,M,M,79.42,KHTH 080815Z AUTO 17005KT 10SM CLR 27/07 A3010 RMK A01,M
CXP,2022-08-08 08:35,-119.7326,39.1923,1431.00,71.60,44.60,37.89,0.00,0.00,0.00,30.16,M,10.00,M,CLR,M,M,M,M,M,M,M,M,M,M,M,M,M,M,71.60,KCXP 080835Z AUTO 00000KT 10SM CLR 22/07 A3016 RMK AO2,M
RTS,2022-08-08 08:35,-119.8764,39.6682,1539.00,68.00,44.60,42.85,310.00,6.00,0.00,30.19,M,10.00,M,CLR,M,M,M,M,M,M,M,M,M,M,M,M,M,M,68.00,KRTS 080835Z AUTO 31006KT 10SM CLR 20/07 A3019 RMK AO2,M
MEV,2022-08-08 08:35,-119.7500,38.9963,1441.42,62.60,51.80,67.75,120.00,5.00,0.00,30.15,M,10.00,M,CLR,M,M,M,M,M,M,M,M,M,M,M,M,M,M,62.60,KMEV 080835Z AUTO 12005KT 10SM CLR 17/11 A3015 RMK AO2,M
BAM,2022-08-08 08:35,-116.8743,40.5990,1382.36,75.20,42.80,31.34,80.00,7.00,0.00,30.15,M,10.00,M,CLR,M,M,M,M,M,M,M,M,M,M,M,M,M,M,75.20,KBAM 080835Z AUTO 08007KT 10SM CLR 24/06 A3015 RMK AO1,M
HTH,2022-08-08 08:35,-118.6315,38.5448,1282.89,78.80,44.60,29.79,0.00,0.00,0.00,30.10,M,10.00,M,CLR,M,M,M,M,M,M,M,M,M,M,M,M,M,M,78.80,KHTH 080835Z AUTO 00000KT 10SM CLR 26/07 A3010 RMK A01,M
TMT,2022-08-08 08:35,-117.1971,39.4643,1749.34,63.00,52.00,67.29,190.00,8.00,0.00,30.25,M,10.00,M,CLR,M,M,M,M,M,M,M,M,M,M,M,M,M,M,63.00,KTMT 080835Z AUTO 19008KT 10SM CLR 17/11 A3025 RMK AO2 T01720111,M
BVU,2022-08-08 08:35,-114.8611,35.9475,671.00,86.00,60.80,42.80,40.00,3.00,0.00,29.95,M,M,M,M,M,M,M,M,M,M,M,M,M,M,M,M,M,M,86.05,KBVU 080835Z AUTO 04003KT 30/16 A2995 RMK AO2 PWINO TSNO,M
DRA,2022-08-08 08:53,-116.0278,36.6206,1009.00,80.00,62.00,54.23,50.00,3.00,0.00,30.03,1010.90,10.00,M,CLR,M,M,M,M,M,M,M,M,M,M,M,M,M,M,81.31,KDRA 080853Z AUTO 05003KT 10SM CLR 27/17 A3003 RMK AO2 SLP109 T02670167 58001,M
LOL,2022-08-08 08:53,-118.5701,40.0684,1192.43,72.00,38.00,28.85,320.00,6.00,0.00,30.04,1012.20,10.00,M,CLR,M,M,M,M,M,M,M,M,M,M,M,M,M,M,72.00,KLOL 080853Z AUTO 32006KT 10SM CLR 22/03 A3004 RMK AO2 SLP122 T02220033 58001,M
ELY,2022-08-08 08:53,-114.8453,39.2950,1909.00,57.00,50.00,77.38,0.00,0.00,0.00,30.32,1016.60,10.00,M,CLR,M,M,M,M,M,M,M,M,M,M,M,M,M,M,57.00,KELY 080853Z AUTO 00000KT 10SM CLR 14/10 A3032 RMK AO2 SLP166 T01390100 58001,M
VGT,2022-08-08 08:53,-115.1933,36.2111,667.00,91.00,50.00,24.68,350.00,3.00,0.00,29.93,1011.70,10.00,M,CLR,M,M,M,M,M,M,M,M,M,M,M,M,M,M,87.99,KVGT 080853Z AUTO 35003KT 10SM CLR 33/10 A2993 RMK AO2 SLP117 6//// T03280100 50000 PNO,M
TMT,2022-08-08 08:55,-117.1971,39.4643,1749.34,61.70,52.20,70.97,210.00,3.00,0.00,30.25,M,10.00,M,CLR,M,M,M,M,M,M,M,M,M,M,M,M,M,M,61.70,KTMT 080855Z AUTO 21003KT 10SM CLR 17/11 A3025 RMK AO2 T01650112,M
RNO,2022-08-08 08:55,-119.7711,39.4839,1341.00,74.00,54.00,49.79,190.00,4.00,0.00,30.13,1013.50,10.00,M,FEW,M,M,M,13000.00,M,M,M,M,M,M,M,M,M,M,73.90,KRNO 080855Z 19004KT 10SM FEW130 23/12 A3013 RMK AO2 SLP135 T02330122 52001,M
RTS,2022-08-08 08:55,-119.8764,39.6682,1539.00,68.00,46.40,45.88,330.00,7.00,0.00,30.18,M,10.00,M,BKN,M,M,M,12000.00,M,M,M,M,M,M,M,M,M,M,68.00,KRTS 080855Z AUTO 33007KT 10SM BKN120 20/08 A3018 RMK AO2,M
BAM,2022-08-08 08:55,-116.8743,40.5990,1382.36,73.40,42.80,33.29,80.00,8.00,0.00,30.15,M,10.00,M,CLR,M,M,M,M,M,M,M,M,M,M,M,M,M,M,73.40,KBAM 080855Z AUTO 08008KT 10SM CLR 23/06 A3015 RMK AO1,M
MEV,2022-08-08 08:55,-119.7500,38.9963,1441.42,60.80,51.80,72.20,110.00,5.00,0.00,30.15,M,10.00,M,CLR,M,M,M,M,M,M,M,M,M,M,M,M,M,M,60.80,KMEV 080855Z AUTO 11005KT 10SM CLR 16/11 A3015 RMK AO2,M
HTH,2022-08-08 08:55,-118.6315,38.5448,1282.89,75.20,44.60,33.57,130.00,7.00,0.00,30.09,M,10.00,M,CLR,M,M,M,M,M,M,M,M,M,M,M,M,M,M,75.20,KHTH 080855Z AUTO 13007KT 10SM CLR 24/07 A3009 RMK A01,M
BVU,2022-08-08 08:55,-114.8611,35.9475,671.00,86.00,60.80,42.80,0.00,0.00,0.00,29.95,M,M,M,M,M,M,M,M,M,M,M,M,M,M,M,M,M,M,86.05,KBVU 080855Z AUTO 00000KT 30/16 A2995 RMK AO2 PWINO TSNO,M
CXP,2022-08-08 08:55,-119.7326,39.1923,1431.00,73.40,46.40,38.18,0.00,0.00,0.00,30.16,M,10.00,M,CLR,M,M,M,M,M,M,M,M,M,M,M,M,M,M,73.40,KCXP 080855Z AUTO 00000KT 10SM CLR 23/08 A3016 RMK AO2,M
NFL,2022-08-08 08:56,-118.7010,39.4166,1199.00,71.00,48.00,43.83,200.00,5.00,0.00,30.06,1014.70,10.00,M,CLR,M,M,M,M,M,M,M,M,M,M,M,M,M,M,71.10,KNFL 080856Z AUTO 20005KT 10SM CLR 22/09 A3006 RMK AO2 SLP147 6//// T02170089 51007 PNO $,M
TPH,2022-08-08 08:56,-117.0904,38.0505,1654.00,67.00,57.00,70.49,20.00,6.00,0.00,30.22,1014.80,10.00,M,CLR,M,M,M,M,M,M,M,M,M,M,M,M,M,M,66.90,KTPH 080856Z AUTO 02006KT 10SM CLR 19/14 A3022 RMK AO2 SLP148 T01940139 58004,M
LAS,2022-08-08 08:56,-115.1634,36.0719,663.00,91.00,54.00,28.60,190.00,3.00,0.00,29.93,1010.30,10.00,M,FEW,BKN,M,M,18000.00,21000.00,M,M,M,M,M,M,M,M,M,88.78,KLAS 080856Z 19003KT 10SM FEW180 BKN210 33/12 A2993 RMK AO2 SLP103 T03280122 58002,M
LSV,2022-08-08 08:56,-115.0343,36.2362,570.00,91.40,53.60,27.83,350.00,4.00,0.00,29.90,1009.40,10.00,M,FEW,BKN,M,M,18000.00,21000.00,M,M,M,M,M,M,M,M,M,89.08,KLSV 080856Z 35004KT 10SM FEW180 BKN210 33/12 A2990 RMK SLP094 5//// WND DATA ESTMD ALSTG/SLP ESTMD $,M
HND,2022-08-08 08:56,-115.1344,35.9729,742.79,90.00,56.00,31.62,180.00,5.00,0.00,29.98,1013.10,10.00,M,CLR,M,M,M,M,M,M,M,M,M,M,M,M,M,M,88.29,KHND 080856Z AUTO 18005KT 10SM CLR 32/13 A2998 RMK AO2 SLP131 T03220133 58003,M
WMC,2022-08-08 08:56,-117.8072,40.9019,1315.00,73.00,42.00,32.84,50.00,11.00,0.00,30.10,1013.20,10.00,19.00,CLR,M,M,M,M,M,M,M,M,M,M,M,M,M,M,73.00,KWMC 080856Z AUTO 05011G19KT 10SM CLR 23/06 A3010 RMK AO2 SLP132 T02280056 58001,M
EKO,2022-08-08 08:56,-115.7860,40.8242,1367.00,59.00,51.00,75.02,70.00,4.00,0.00,30.21,1017.40,10.00,M,CLR,M,M,M,M,M,M,M,M,M,M,M,M,M,M,59.00,KEKO 080856Z AUTO 07004KT 10SM CLR 15/11 A3021 RMK AO2 SLP174 T01500106 58001 $,M
INS,2022-08-08 08:58,-115.6733,36.5872,955.00,79.50,53.00,40.01,170.00,3.00,0.00,30.01,1010.80,10.00,M,BKN,M,M,M,16000.00,M,M,M,M,M,M,M,M,M,M,79.50,KINS 080858Z AUTO 17003KT 10SM BKN160 26/12 A3001 RMK AO2 SLP108 T02640117 56001,M
MEV,2022-08-08 09:15,-119.7500,38.9963,1441.42,60.80,51.80,72.20,110.00,7.00,0.00,30.15,M,10.00,M,CLR,M,M,M,M,M,M,M,M,M,M,M,M,M,M,60.80,KMEV 080915Z AUTO 11007KT 10SM CLR 16/11 A3015 RMK AO2,M
BAM,2022-08-08 09:15,-116.8743,40.5990,1382.36,77.00,42.80,29.51,80.00,9.00,0.00,30.15,M,10.00,M,CLR,M,M,M,M,M,M,M,M,M,M,M,M,M,M,77.00,KBAM 080915Z AUTO 08009KT 10SM CLR 25/06 A3015 RMK AO1,M
HTH,2022-08-08 09:15,-118.6315,38.5448,1282.89,75.20,44.60,33.57,140.00,9.00,0.00,30.09,M,10.00,M,CLR,M,M,M,M,M,M,M,M,M,M,M,M,M,M,75.20,KHTH 080915Z AUTO 14009KT 10SM CLR 24/07 A3009 RMK A01,M
TMT,2022-08-08 09:15,-117.1971,39.4643,1749.34,58.80,53.00,80.74,0.00,0.00,0.00,30.25,M,10.00,M,SCT,M,M,M,10000.00,M,M,M,M,M,M,M,M,M,M,58.80,KTMT 080915Z AUTO 00000KT 10SM SCT100 15/12 A3025 RMK AO2 T01490116,M
BVU,2022-08-08 09:15,-114.8611,35.9475,671.00,86.00,60.80,42.80,0.00,0.00,0.00,29.95,M,M,M,M,M,M,M,M,M,M,M,M,M,M,M,M,M,M,86.05,KBVU 080915Z AUTO 00000KT 30/16 A2995 RMK AO2 PWINO TSNO,M
CXP,2022-08-08 09:15,-119.7326,39.1923,1431.00,69.80,46.40,43.13,0.00,0.00,0.00,30.16,M,10.00,M,CLR,M,M,M,M,M,M,M,M,M,M,M,M,M,M,69.80,KCXP 080915Z AUTO 00000KT 10SM CLR 21/08 A3016 RMK AO2,M
RTS,2022-08-08 09:15,-119.8764,39.6682,1539.00,68.00,44.60,42.85,320.00,6.00,0.00,30.19,M,10.00,M,FEW,M,M,M,12000.00,M,M,M,M,M,M,M,M,M,M,68.00,KRTS 080915Z AUTO 32006KT 10SM FEW120 20/07 A3019 RMK AO2,M
HTH,2022-08-08 09:35,-118.6315,38.5448,1282.89,77.00,44.60,31.62,150.00,7.00,0.00,30.10,M,10.00,M,CLR,M,M,M,M,M,M,M,M,M,M,M,M,M,M,77.00,KHTH 080935Z AUTO 15007KT 10SM CLR 25/07 A3010 RMK A01,M
TMT,2022-08-08 09:35,-117.1971,39.4643,1749.34,60.00,53.00,77.63,0.00,0.00,0.00,30.25,M,10.00,M,SCT,M,M,M,10000.00,M,M,M,M,M,M,M,M,M,M,59.90,KTMT 080935Z AUTO 00000KT 10SM SCT100 16/12 A3025 RMK AO2 T01550116,M
BVU,2022-08-08 09:35,-114.8611,35.9475,671.00,86.00,60.80,42.80,0.00,0.00,0.00,29.95,M,M,M,M,M,M,M,M,M,M,M,M,M,M,M,M,M,M,86.05,KBVU 080935Z AUTO 00000KT 30/16 A2995 RMK AO2 PWINO TSNO,M
CXP,2022-08-08 09:35,-119.7326,39.1923,1431.00,69.80,46.40,43.13,0.00,0.00,0.00,30.16,M,10.00,M,CLR,M,M,M,M,M,M,M,M,M,M,M,M,M,M,69.80,KCXP 080935Z AUTO 00000KT 10SM CLR 21/08 A3016 RMK AO2,M
RTS,2022-08-08 09:35,-119.8764,39.6682,1539.00,66.20,44.60,45.60,360.00,7.00,0.00,30.19,M,10.00,M,CLR,M,M,M,M,M,M,M,M,M,M,M,M,M,M,66.20,KRTS 080935Z AUTO 36007KT 10SM CLR 19/07 A3019 RMK AO2,M
MEV,2022-08-08 09:35,-119.7500,38.9963,1441.42,60.80,51.80,72.20,120.00,7.00,0.00,30.15,M,10.00,M,CLR,M,M,M,M,M,M,M,M,M,M,M,M,M,M,60.80,KMEV 080935Z AUTO 12007KT 10SM CLR 16/11 A3015 RMK AO2,M
BAM,2022-08-08 09:35,-116.8743,40.5990,1382.36,75.20,44.60,33.57,80.00,8.00,0.00,30.15,M,10.00,M,CLR,M,M,M,M,M,M,M,M,M,M,M,M,M,M,75.20,KBAM 080935Z AUTO 08008KT 10SM CLR 24/07 A3015 RMK AO1,M
DRA,2022-08-08 09:53,-116.0278,36.6206,1009.00,80.00,60.00,50.52,70.00,3.00,0.00,30.03,1010.80,10.00,M,CLR,M,M,M,M,M,M,M,M,M,M,M,M,M,M,80.94,KDRA 080953Z AUTO 07003KT 10SM CLR 27/16 A3003 RMK AO2 SLP108 T02670156,M
ELY,2022-08-08 09:53,-114.8453,39.2950,1909.00,54.00,50.00,86.29,150.00,4.00,0.00,30.33,1017.20,10.00,M,CLR,M,M,M,M,M,M,M,M,M,M,M,M,M,M,54.00,KELY 080953Z AUTO 15004KT 10SM CLR 12/10 A3033 RMK AO2 SLP172 T01220100,M
LOL,2022-08-08 09:53,-118.5701,40.0684,1192.43,69.00,40.00,34.43,190.00,6.00,0.00,30.05,1012.80,10.00,M,CLR,M,M,M,M,M,M,M,M,M,M,M,M,M,M,69.10,KLOL 080953Z AUTO 19006KT 10SM CLR 21/04 A3005 RMK AO2 SLP128 T02060044,M
VGT,2022-08-08 09:53,-115.1933,36.2111,667.00,88.00,50.00,27.12,320.00,4.00,0.00,29.93,1011.80,10.00,M,CLR,M,M,M,M,M,M,M,M,M,M,M,M,M,M,85.28,KVGT 080953Z AUTO 32004KT 10SM CLR 31/10 A2993 RMK AO2 SLP118 T03110100 PNO,M
CXP,2022-08-08 09:55,-119.7326,39.1923,1431.00,68.00,46.40,45.88,0.00,0.00,0.00,30.16,M,10.00,M,CLR,M,M,M,M,M,M,M,M,M,M,M,M,M,M,68.00,KCXP 080955Z AUTO 00000KT 10SM CLR 20/08 A3016 RMK AO2,M
BVU,2022-08-08 09:55,-114.8611,35.9475,671.00,86.00,60.80,42.80,0.00,0.00,0.00,29.95,M,M,M,M,M,M,M,M,M,M,M,M,M,M,M,M,M,M,86.05,KBVU 080955Z AUTO 00000KT 30/16 A2995 RMK AO2 PWINO TSNO,M
RTS,2022-08-08 09:55,-119.8764,39.6682,1539.00,66.20,44.60,45.60,340.00,5.00,0.00,30.19,M,10.00,M,CLR,M,M,M,M,M,M,M,M,M,M,M,M,M,M,66.20,KRTS 080955Z AUTO 34005KT 10SM CLR 19/07 A3019 RMK AO2,M
RNO,2022-08-08 09:55,-119.7711,39.4839,1341.00,71.00,56.00,58.65,190.00,3.00,0.00,30.13,1013.60,10.00,M,CLR,M,M,M,M,M,M,M,M,M,M,M,M,M,M,71.10,KRNO 080955Z 19003KT 10SM CLR 22/13 A3013 RMK AO2 SLP136 T02170133,M
MEV,2022-08-08 09:55,-119.7500,38.9963,1441.42,59.00,51.80,76.98,120.00,7.00,0.00,30.15,M,10.00,M,CLR,M,M,M,M,M,M,M,M,M,M,M,M,M,M,59.00,KMEV 080955Z AUTO 12007KT 10SM CLR 15/11 A3015 RMK AO2,M
BAM,2022-08-08 09:55,-116.8743,40.5990,1382.36,73.40,44.60,35.66,70.00,12.00,0.00,30.15,M,10.00,M,CLR,M,M,M,M,M,M,M,M,M,M,M,M,M,M,73.40,KBAM 080955Z AUTO 07012KT 10SM CLR 23/07 A3015 RMK AO1,M
HTH,2022-08-08 09:55,-118.6315,38.5448,1282.89,75.20,44.60,33.57,140.00,11.00,0.00,30.10,M,10.00,M,CLR,M,M,M,M,M,M,M,M,M,M,M,M,M,M,75.20,KHTH 080955Z AUTO 14011KT 10SM CLR 24/07 A3010 RMK A01,M
TMT,2022-08-08 09:55,-117.1971,39.4643,1749.34,58.80,52.70,80.15,0.00,0.00,0.00,30.25,M,10.00,M,CLR,M,M,M,M,M,M,M,M,M,M,M,M,M,M,58.80,KTMT 080955Z AUTO 00000KT 10SM CLR 15/12 A3025 RMK AO2 T01490115,M
NFL,2022-08-08 09:56,-118.7010,39.4166,1199.00,74.00,48.00,39.87,220.00,7.00,0.00,30.07,1015.00,10.00,M,CLR,M,M,M,M,M,M,M,M,M,M,M,M,M,M,73.90,KNFL 080956Z AUTO 22007KT 10SM CLR 23/09 A3007 RMK AO2 SLP150 T02330089 PNO $,M
WMC,2022-08-08 09:56,-117.8072,40.9019,1315.00,73.00,43.00,34.00,60.00,10.00,0.00,30.10,1013.40,10.00,M,CLR,M,M,M,M,M,M,M,M,M,M,M,M,M,M,73.00,KWMC 080956Z AUTO 06010KT 10SM CLR 23/06 A3010 RMK AO2 SLP134 T02280061,M
LSV,2022-08-08 09:56,-115.0343,36.2362,570.00,89.60,53.60,29.45,330.00,3.00,0.00,29.94,1010.80,10.00,M,SCT,M,M,M,25000.00,M,M,M,M,M,M,M,M,M,M,87.36,KLSV 080956Z 33003KT 10SM SCT250 32/12 A2994 RMK SLP108 WND DATA ESTMD ALSTG/SLP ESTMD $,M
TPH,2022-08-08 09:56,-117.0904,38.0505,1654.00,66.00,55.00,67.64,350.00,7.00,0.00,30.22,1015.00,10.00,M,CLR,M,M,M,M,M,M,M,M,M,M,M,M,M,M,66.00,KTPH 080956Z AUTO 35007KT 10SM CLR 19/13 A3022 RMK AO2 SLP150 T01890128,M
LAS,2022-08-08 09:56,-115.1634,36.0719,663.00,89.00,54.00,30.36,0.00,0.00,0.00,29.94,1010.50,10.00,M,BKN,BKN,M,M,18000.00,24000.00,M,M,M,M,M,M,M,M,M,86.98,KLAS 080956Z 00000KT 10SM BKN180 BKN240 32/12 A2994 RMK AO2 SLP105 T03170122,M
EKO,2022-08-08 09:56,-115.7860,40.8242,1367.00,58.00,49.00,71.90,60.00,4.00,0.00,30.21,1017.60,10.00,M,CLR,M,M,M,M,M,M,M,M,M,M,M,M,M,M,57.90,KEKO 080956Z AUTO 06004KT 10SM CLR 14/09 A3021 RMK AO2 SLP176 T01440094 $,M
HND,2022-08-08 09:56,-115.1344,35.9729,742.79,88.00,56.00,33.68,200.00,7.00,0.00,29.98,1013.40,10.00,M,CLR,M,M,M,M,M,M,M,M,M,M,M,M,M,M,86.42,KHND 080956Z AUTO 20007KT 10SM CLR 31/13 A2998 RMK AO2 SLP134 T03110133,M
INS,2022-08-08 09:58,-115.6733,36.5872,955.00,82.60,49.00,30.95,240.00,4.00,0.00,30.02,1011.00,10.00,M,BKN,M,M,M,18000.00,M,M,M,M,M,M,M,M,M,M,81.00,KINS 080958Z AUTO 24004KT 10SM BKN180 28/09 A3002 RMK AO2 SLP110 T02810094,M
RTS,2022-08-08 10:15,-119.8764,39.6682,1539.00,66.20,44.60,45.60,340.00,4.00,0.00,30.19,M,10.00,M,CLR,M,M,M,M,M,M,M,M,M,M,M,M,M,M,66.20,KRTS 081015Z AUTO 34004KT 10SM CLR 19/07 A3019 RMK AO2,M
MEV,2022-08-08 10:15,-119.7500,38.9963,1441.42,60.80,51.80,72.20,130.00,5.00,0.00,30.15,M,10.00,M,FEW,M,M,M,12000.00,M,M,M,M,M,M,M,M,M,M,60.80,KMEV 081015Z AUTO 13005KT 10SM FEW120 16/11 A3015 RMK AO2,M
BVU,2022-08-08 10:15,-114.8611,35.9475,671.00,86.00,60.80,42.80,0.00,0.00,0.00,29.95,M,M,M,M,M,M,M,M,M,M,M,M,M,M,M,M,M,M,86.05,KBVU 081015Z AUTO 00000KT 30/16 A2995 RMK AO2 PWINO TSNO,M
BAM,2022-08-08 10:15,-116.8743,40.5990,1382.36,75.20,44.60,33.57,60.00,10.00,0.00,30.15,M,10.00,M,CLR,M,M,M,M,M,M,M,M,M,M,M,M,M,M,75.20,KBAM 081015Z AUTO 06010KT 10SM CLR 24/07 A3015 RMK AO1,M
HTH,2022-08-08 10:15,-118.6315,38.5448,1282.89,77.00,44.60,31.62,260.00,4.00,0.00,30.11,M,10.00,M,CLR,M,M,M,M,M,M,M,M,M,M,M,M,M,M,77.00,KHTH 081015Z AUTO 26004KT 10SM CLR 25/07 A3011 RMK A01,M
TMT,2022-08-08 10:15,-117.1971,39.4643,1749.34,57.70,52.70,83.37,0.00,0.00,0.00,30.26,M,10.00,M,SCT,M,M,M,12000.00,M,M,M,M,M,M,M,M,M,M,57.70,KTMT 081015Z AUTO 00000KT 10SM SCT120 14/12 A3026 RMK AO2 T01430115,M
CXP,2022-08-08 10:15,-119.7326,39.1923,1431.00,68.00,44.60,42.85,0.00,0.00,0.00,30.17,M,10.00,M,CLR,M,M,M,M,M,M,M,M,M,M,M,M,M,M,68.00,KCXP 081015Z AUTO 00000KT 10SM CLR 20/07 A3017 RMK AO2,M
BAM,2022-08-08 10:35,-116.8743,40.5990,1382.36,73.40,44.60,35.66,0.00,0.00,0.00,30.16,M,10.00,M,CLR,M,M,M,M,M,M,M,M,M,M,M,M,M,M,73.40,KBAM 081035Z AUTO 00000KT 10SM CLR 23/07 A3016 RMK AO1,M
BVU,2022-08-08 10:35,-114.8611,35.9475,671.00,86.00,60.80,42.80,80.00,3.00,0.00,29.95,M,M,M,M,M,M,M,M,M,M,M,M,M,M,M,M,M,M,86.05,KBVU 081035Z AUTO 08003KT 30/16 A2995 RMK AO2 PWINO TSNO,M
TMT,2022-08-08 10:35,-117.1971,39.4643,1749.34,57.70,52.70,83.37,0.00,0.00,0.00,30.26,M,10.00,M,CLR,M,M,M,M,M,M,M,M,M,M,M,M,M,M,57.70,KTMT 081035Z AUTO 00000KT 10SM CLR 14/12 A3026 RMK AO2 T01430115,M
HTH,2022-08-08 10:35,-118.6315,38.5448,1282.89,75.20,44.60,33.57,0.00,0.00,0.00,30.11,M,10.00,M,CLR,M,M,M,M,M,M,M,M,M,M,M,M,M,M,75.20,KHTH 081035Z AUTO 00000KT 10SM CLR 24/07 A3011 RMK A01,M
CXP,2022-08-08 10:35,-119.7326,39.1923,1431.00,68.00,46.40,45.88,0.00,0.00,0.00,30.17,M,10.00,M,CLR,M,M,M,M,M,M,M,M,M,M,M,M,M,M,68.00,KCXP 081035Z AUTO 00000KT 10SM CLR 20/08 A3017 RMK AO2,M
RTS,2022-08-08 10:35,-119.8764,39.6682,1539.00,64.40,46.40,51.98,340.00,5.00,0.00,30.19,M,10.00,M,CLR,M,M,M,M,M,M,M,M,M,M,M,M,M,M,64.40,KRTS 081035Z AUTO 34005KT 10SM CLR 18/08 A3019 RMK AO2,M
MEV,2022-08-08 10:35,-119.7500,38.9963,1441.42,59.00,51.80,76.98,150.00,4.00,0.00,30.16,M,10.00,M,FEW,M,M,M,12000.00,M,M,M,M,M,M,M,M,M,M,59.00,KMEV 081035Z AUTO 15004KT 10SM FEW120 15/11 A3016 RMK AO2,M
LOL,2022-08-08 10:53,-118.5701,40.0684,1192.43,71.00,39.00,31.05,0.00,0.00,0.00,30.06,1013.00,10.00,M,CLR,M,M,M,M,M,M,M,M,M,M,M,M,M,M,71.10,KLOL 081053Z AUTO 00000KT 10SM CLR 22/04 A3006 RMK AO2 SLP130 T02170039,M
ELY,2022-08-08 10:53,-114.8453,39.2950,1909.00,54.00,50.00,86.29,160.00,6.00,0.00,30.33,1016.80,10.00,M,CLR,M,M,M,M,M,M,M,M,M,M,M,M,M,M,54.00,KELY 081053Z AUTO 16006KT 10SM CLR 12/10 A3033 RMK AO2 SLP168 T01220100,M
VGT,2022-08-08 10:53,-115.1933,36.2111,667.00,87.00,53.00,31.30,330.00,4.00,0.00,29.94,1012.20,10.00,M,CLR,M,M,M,M,M,M,M,M,M,M,M,M,M,M,85.01,KVGT 081053Z AUTO 33004KT 10SM CLR 31/12 A2994 RMK AO2 SLP122 T03060117 PNO,M
DRA,2022-08-08 10:53,-116.0278,36.6206,1009.00,80.00,59.00,48.58,100.00,5.00,0.00,30.03,1011.10,10.00,M,CLR,M,M,M,M,M,M,M,M,M,M,M,M,M,M,80.76,KDRA 081053Z AUTO 10005KT 10SM CLR 27/15 A3003 RMK AO2 SLP111 T02670150,M
BAM,2022-08-08 10:55,-116.8743,40.5990,1382.36,71.60,44.60,37.89,0.00,0.00,0.00,30.16,M,10.00,M,CLR,M,M,M,M,M,M,M,M,M,M,M,M,M,M,71.60,KBAM 081055Z AUTO 00000KT 10SM CLR 22/07 A3016 RMK AO1,M
HTH,2022-08-08 10:55,-118.6315,38.5448,1282.89,73.40,46.40,38.18,0.00,0.00,0.00,30.12,M,10.00,M,CLR,M,M,M,M,M,M,M,M,M,M,M,M,M,M,73.40,KHTH 081055Z AUTO 00000KT 10SM CLR 23/08 A3012 RMK A01,M
MEV,2022-08-08 10:55,-119.7500,38.9963,1441.42,59.00,51.80,76.98,110.00,4.00,0.00,30.16,M,10.00,M,CLR,M,M,M,M,M,M,M,M,M,M,M,M,M,M,59.00,KMEV 081055Z AUTO 11004KT 10SM CLR 15/11 A3016 RMK AO2,M
RTS,2022-08-08 10:55,-119.8764,39.6682,1539.00,66.20,44.60,45.60,350.00,4.00,0.00,30.19,M,10.00,M,CLR,M,M,M,M,M,M,M,M,M,M,M,M,M,M,66.20,KRTS 081055Z AUTO 35004KT 10SM CLR 19/07 A3019 RMK AO2,M
RNO,2022-08-08 10:55,-119.7711,39.4839,1341.00,69.00,57.00,65.35,180.00,5.00,0.00,30.14,1014.00,10.00,M,FEW,M,M,M,15000.00,M,M,M,M,M,M,M,M,M,M,69.10,KRNO 081055Z 18005KT 10SM FEW150 21/14 A3014 RMK AO2 SLP140 T02060139,M
CXP,2022-08-08 10:55,-119.7326,39.1923,1431.00,68.00,44.60,42.85,300.00,3.00,0.00,30.17,M,10.00,M,BKN,M,M,M,12000.00,M,M,M,M,M,M,M,M,M,M,68.00,KCXP 081055Z AUTO 30003KT 10SM BKN120 20/07 A3017 RMK AO2,M
BVU,2022-08-08 10:55,-114.8611,35.9475,671.00,86.00,62.60,45.61,60.00,3.00,0.00,29.96,M,M,M,M,M,M,M,M,M,M,M,M,M,M,M,M,M,M,86.72,KBVU 081055Z AUTO 06003KT 30/17 A2996 RMK AO2 PWINO TSNO,M
TMT,2022-08-08 10:55,-117.1971,39.4643,1749.34,58.80,52.30,78.98,230.00,5.00,0.00,30.26,M,10.00,M,SCT,M,M,M,12000.00,M,M,M,M,M,M,M,M,M,M,58.80,KTMT 081055Z AUTO 23005KT 10SM SCT120 15/11 A3026 RMK AO2 T01490113,M
EKO,2022-08-08 10:56,-115.7860,40.8242,1367.00,57.00,48.00,71.81,40.00,3.00,0.00,30.23,1018.40,10.00,M,CLR,M,M,M,M,M,M,M,M,M,M,M,M,M,M,57.00,KEKO 081056Z AUTO 04003KT 10SM CLR 14/09 A3023 RMK AO2 SLP184 T01390089 $,M
NFL,2022-08-08 10:56,-118.7010,39.4166,1199.00,69.00,48.00,46.92,180.00,7.00,0.00,30.07,1015.20,10.00,M,CLR,M,M,M,M,M,M,M,M,M,M,M,M,M,M,69.10,KNFL 081056Z AUTO 18007KT 10SM CLR 21/09 A3007 RMK AO2 SLP152 T02060089 PNO $,M
TPH,2022-08-08 10:56,-117.0904,38.0505,1654.00,66.00,54.00,65.21,10.00,10.00,0.00,30.23,1014.90,10.00,M,CLR,M,M,M,M,M,M,M,M,M,M,M,M,M,M,66.00,KTPH 081056Z AUTO 01010KT 10SM CLR 19/12 A3023 RMK AO2 SLP149 T01890122,M
WMC,2022-08-08 10:56,-117.8072,40.9019,1315.00,72.00,42.00,33.97,70.00,9.00,0.00,30.11,1013.50,10.00,M,CLR,M,M,M,M,M,M,M,M,M,M,M,M,M,M,72.00,KWMC 081056Z AUTO 07009KT 10SM CLR 22/06 A3011 RMK AO2 SLP135 T02220056,M
LAS,2022-08-08 10:56,-115.1634,36.0719,663.00,88.00,51.00,28.25,290.00,4.00,0.00,29.95,1010.90,10.00,M,BKN,BKN,M,M,18000.00,24000.00,M,M,M,M,M,M,M,M,M,85.45,KLAS 081056Z 29004KT 10SM BKN180 BKN240 31/11 A2995 RMK AO2 SLP109 T03110106,M
HND,2022-08-08 10:56,-115.1344,35.9729,742.79,87.00,56.00,34.66,190.00,8.00,0.00,29.98,1013.30,10.00,M,CLR,M,M,M,M,M,M,M,M,M,M,M,M,M,M,85.61,KHND 081056Z AUTO 19008KT 10SM CLR 31/13 A2998 RMK AO2 SLP133 T03060133,M
LSV,2022-08-08 10:58,-115.0343,36.2362,570.00,87.80,53.60,31.17,30.00,8.00,0.00,29.95,1011.20,10.00,M,CLR,M,M,M,M,M,M,M,M,M,M,M,M,M,M,85.72,KLSV 081058Z 03008KT 10SM CLR 31/12 A2995 RMK SLP112 WND DATA ESTMD ALSTG/SLP ESTMD $,M
INS,2022-08-08 10:58,-115.6733,36.5872,955.00,79.50,49.50,35.02,0.00,0.00,0.00,30.02,1011.00,10.00,M,BKN,OVC,M,M,16000.00,18000.00,M,M,M,M,M,M,M,M,M,79.50,KINS 081058Z AUTO 00000KT 10SM BKN160 OVC180 26/10 A3002 RMK AO2 SLP110 T02640097,M
BAM,2022-08-08 11:15,-116.8743,40.5990,1382.36,71.60,44.60,37.89,0.00,0.00,0.00,30.16,M,10.00,M,SCT,M,M,M,12000.00,M,M,M,M,M,M,M,M,M,M,71.60,KBAM 081115Z AUTO 00000KT 10SM SCT120 22/07 A3016 RMK AO1,M
MEV,2022-08-08 11:15,-119.7500,38.9963,1441.42,59.00,51.80,76.98,M,3.00,0.00,30.16,M,10.00,M,CLR,M,M,M,M,M,M,M,M,M,M,M,M,M,M,59.00,KMEV 081115Z AUTO VRB03KT 10SM CLR 15/11 A3016 RMK AO2,M
RTS,2022-08-08 11:15,-119.8764,39.6682,1539.00,66.20,44.60,45.60,330.00,5.00,0.00,30.19,M,10.00,M,CLR,M,M,M,M,M,M,M,M,M,M,M,M,M,M,66.20,KRTS 081115Z AUTO 33005KT 10SM CLR 19/07 A3019 RMK AO2,M
CXP,2022-08-08 11:15,-119.7326,39.1923,1431.00,68.00,46.40,45.88,0.00,0.00,0.00,30.17,M,10.00,M,BKN,M,M,M,12000.00,M,M,M,M,M,M,M,M,M,M,68.00,KCXP 081115Z AUTO 00000KT 10SM BKN120 20/08 A3017 RMK AO2,M
BVU,2022-08-08 11:15,-114.8611,35.9475,671.00,84.20,62.60,48.32,50.00,3.00,0.00,29.96,M,M,M,M,M,M,M,M,M,M,M,M,M,M,M,M,M,M,85.03,KBVU 081115Z AUTO 05003KT 29/17 A2996 RMK AO2 PWINO TSNO,M
TMT,2022-08-08 11:15,-117.1971,39.4643,1749.34,58.80,52.00,78.11,240.00,4.00,0.00,30.26,M,10.00,M,CLR,M,M,M,M,M,M,M,M,M,M,M,M,M,M,58.80,KTMT 081115Z AUTO 24004KT 10SM CLR 15/11 A3026 RMK AO2 T01490111,M
HTH,2022-08-08 11:15,-118.6315,38.5448,1282.89,71.60,44.60,37.89,270.00,3.00,0.00,30.11,M,10.00,M,CLR,M,M,M,M,M,M,M,M,M,M,M,M,M,M,71.60,KHTH 081115Z AUTO 27003KT 10SM CLR 22/07 A3011 RMK A01,M
RTS,2022-08-08 11:35,-119.8764,39.6682,1539.00,60.80,46.40,59.01,340.00,4.00,0.00,30.19,M,10.00,M,CLR,M,M,M,M,M,M,M,M,M,M,M,M,M,M,60.80,KRTS 081135Z AUTO 34004KT 10SM CLR 16/08 A3019 RMK AO2,M
TMT,2022-08-08 11:35,-117.1971,39.4643,1749.34,59.00,52.20,78.13,220.00,6.00,0.00,30.26,M,10.00,M,SCT,M,M,M,11000.00,M,M,M,M,M,M,M,M,M,M,59.00,KTMT 081135Z AUTO 22006KT 10SM SCT110 15/11 A3026 RMK AO2 T01500112,M
MEV,2022-08-08 11:35,-119.7500,38.9963,1441.42,62.60,50.00,63.38,0.00,0.00,0.00,30.16,M,10.00,M,BKN,M,M,M,12000.00,M,M,M,M,M,M,M,M,M,M,62.60,KMEV 081135Z AUTO 00000KT 10SM BKN120 17/10 A3016 RMK AO2,M
BVU,2022-08-08 11:35,-114.8611,35.9475,671.00,82.40,64.40,54.55,60.00,4.00,0.00,29.96,M,M,M,M,M,M,M,M,M,M,M,M,M,M,M,M,M,M,83.98,KBVU 081135Z AUTO 06004KT 28/18 A2996 RMK AO2 PWINO TSNO,M
CXP,2022-08-08 11:35,-119.7326,39.1923,1431.00,64.40,48.20,55.63,0.00,0.00,0.00,30.17,M,10.00,M,SCT,M,M,M,12000.00,M,M,M,M,M,M,M,M,M,M,64.40,KCXP 081135Z AUTO 00000KT 10SM SCT120 18/09 A3017 RMK AO2,M
HTH,2022-08-08 11:35,-118.6315,38.5448,1282.89,71.60,44.60,37.89,0.00,0.00,0.00,30.11,M,10.00,M,CLR,M,M,M,M,M,M,M,M,M,M,M,M,M,M,71.60,KHTH 081135Z AUTO 00000KT 10SM CLR 22/07 A3011 RMK A01,M
BAM,2022-08-08 11:35,-116.8743,40.5990,1382.36,68.00,46.40,45.88,30.00,3.00,0.00,30.16,M,10.00,M,SCT,M,M,M,12000.00,M,M,M,M,M,M,M,M,M,M,68.00,KBAM 081135Z AUTO 03003KT 10SM SCT120 20/08 A3016 RMK AO1,M
CXP,2022-08-08 11:50,-119.7326,39.1923,1431.00,64.40,48.20,55.63,0.00,0.00,0.00,30.17,M,10.00,M,FEW,M,M,M,12000.00,M,M,M,M,M,M,M,M,M,M,64.40,KCXP 081150Z AUTO 00000KT 10SM FEW120 18/09 A3017 RMK AO2,M
VGT,2022-08-08 11:53,-115.1933,36.2111,667.00,86.00,53.00,32.41,340.00,7.00,0.00,29.94,1012.50,10.00,M,CLR,M,M,M,M,M,M,M,M,M,M,M,M,M,M,84.09,KVGT 081153Z AUTO 34007KT 10SM CLR 30/12 A2994 RMK AO2 SLP125 6//// 7//// T03000117 10356 20300 53005 PNO,M
DRA,2022-08-08 11:53,-116.0278,36.6206,1009.00,81.00,57.00,43.90,0.00,0.00,0.00,30.03,1011.10,10.00,M,CLR,M,M,M,M,M,M,M,M,M,M,M,M,M,M,81.05,KDRA 081153Z AUTO 00000KT 10SM CLR 27/14 A3003 RMK AO2 SLP111 T02720139 10294 20256 53003,M
LOL,2022-08-08 11:53,-118.5701,40.0684,1192.43,66.00,40.00,38.32,340.00,5.00,0.00,30.07,1013.40,10.00,M,CLR,M,M,M,M,M,M,M,M,M,M,M,M,M,M,66.00,KLOL 081153Z AUTO 34005KT 10SM CLR 19/04 A3007 RMK AO2 SLP134 T01890044 10267 20183 51008,M
ELY,2022-08-08 11:53,-114.8453,39.2950,1909.00,52.00,49.00,89.13,180.00,5.00,0.00,30.33,1017.30,10.00,M,CLR,M,M,M,M,M,M,M,M,M,M,M,M,M,M,52.00,KELY 081153Z AUTO 18005KT 10SM CLR 11/09 A3033 RMK AO2 SLP173 T01110094 10178 20106 50002,M
RNO,2022-08-08 11:55,-119.7711,39.4839,1341.00,68.00,56.00,65.22,0.00,0.00,0.00,30.14,1014.10,10.00,M,SCT,M,M,M,15000.00,M,M,M,M,M,M,M,M,M,M,68.00,KRNO 081155Z 00000KT 10SM SCT150 20/13 A3014 RMK AO2 SLP141 T02000133 10272 20194 50003,M
MEV,2022-08-08 11:55,-119.7500,38.9963,1441.42,59.00,51.80,76.98,0.00,0.00,0.00,30.16,M,10.00,M,BKN,M,M,M,11000.00,M,M,M,M,M,M,M,M,M,M,59.00,KMEV 081155Z AUTO 00000KT 10SM BKN110 15/11 A3016 RMK AO2,M
RTS,2022-08-08 11:55,-119.8764,39.6682,1539.00,60.80,46.40,59.01,350.00,5.00,0.00,30.19,M,10.00,M,CLR,M,M,M,M,M,M,M,M,M,M,M,M,M,M,60.80,KRTS 081155Z AUTO 35005KT 10SM CLR 16/08 A3019 RMK AO2,M
TMT,2022-08-08 11:55,-117.1971,39.4643,1749.34,53.60,51.00,90.53,210.00,4.00,0.00,30.26,M,10.00,M,SCT,M,M,M,11000.00,M,M,M,M,M,M,M,M,M,M,53.60,KTMT 081155Z AUTO 21004KT 10SM SCT110 12/11 A3026 RMK AO2 T01200105 10197 20120,M
BVU,2022-08-08 11:55,-114.8611,35.9475,671.00,84.20,62.60,48.32,80.00,4.00,0.00,29.96,M,M,M,M,M,M,M,M,M,M,M,M,M,M,M,M,M,M,85.03,KBVU 081155Z AUTO 08004KT 29/17 A2996 RMK AO2 PWINO TSNO,M
HTH,2022-08-08 11:55,-118.6315,38.5448,1282.89,71.60,44.60,37.89,240.00,4.00,0.00,30.11,M,10.00,M,CLR,M,M,M,M,M,M,M,M,M,M,M,M,M,M,71.60,KHTH 081155Z AUTO 24004KT 10SM CLR 22/07 A3011 RMK A01,M
BAM,2022-08-08 11:55,-116.8743,40.5990,1382.36,64.40,46.40,51.98,40.00,3.00,0.00,30.16,M,10.00,M,CLR,M,M,M,M,M,M,M,M,M,M,M,M,M,M,64.40,KBAM 081155Z AUTO 04003KT 10SM CLR 18/08 A3016 RMK AO1,M
EKO,2022-08-08 11:56,-115.7860,40.8242,1367.00,55.00,51.00,86.66,0.00,0.00,0.00,30.23,1018.40,10.00,M,CLR,M,M,M,M,M,M,M,M,M,M,M,M,M,M,55.00,KEKO 081156Z AUTO 00000KT 10SM CLR 13/11 A3023 RMK AO2 SLP184 T01280106 10194 20106 51007 $,M
LAS,2022-08-08 11:56,-115.1634,36.0719,663.00,86.00,52.00,31.13,280.00,5.00,0.00,29.95,1011.00,10.00,M,FEW,SCT,M,M,18000.00,25000.00,M,M,M,M,M,M,M,M,M,83.91,KLAS 081156Z 28005KT 10SM FEW180 SCT250 30/11 A2995 RMK AO2 SLP110 T03000111 10350 20300 51006,M
TPH,2022-08-08 11:56,-117.0904,38.0505,1654.00,65.00,54.00,67.76,20.00,9.00,0.00,30.23,1015.10,10.00,M,CLR,M,M,M,M,M,M,M,M,M,M,M,M,M,M,64.90,KTPH 081156Z AUTO 02009KT 10SM CLR 18/12 A3023 RMK AO2 SLP151 T01830122 10228 20183 50003,M
NFL,2022-08-08 11:56,-118.7010,39.4166,1199.00,68.00,49.00,50.40,190.00,5.00,0.00,30.08,1015.20,10.00,M,CLR,M,M,M,M,M,M,M,M,M,M,M,M,M,M,68.00,KNFL 081156Z AUTO 19005KT 10SM CLR 20/09 A3008 RMK AO2 SLP152 6//// 7//// T02000094 10294 20194 51005 PNO $,M
HND,2022-08-08 11:56,-115.1344,35.9729,742.79,87.00,57.00,36.07,230.00,8.00,0.00,29.99,1013.60,10.00,M,CLR,M,M,M,M,M,M,M,M,M,M,M,M,M,M,85.89,KHND 081156Z AUTO 23008KT 10SM CLR 31/14 A2999 RMK AO2 SLP136 T03060139 10333 20306 53005,M
LSV,2022-08-08 11:56,-115.0343,36.2362,570.00,86.00,53.60,33.01,50.00,10.00,0.00,29.95,1011.30,10.00,M,CLR,M,M,M,M,M,M,M,M,M,M,M,M,M,M,84.18,KLSV 081156Z 05010KT 10SM CLR 30/12 A2995 RMK SLP113 5//// WND DATA ESTMD ALSTG/SLP ESTMD $,M
WMC,2022-08-08 11:56,-117.8072,40.9019,1315.00,68.00,43.00,40.31,100.00,7.00,0.00,30.11,1014.00,10.00,M,CLR,M,M,M,M,M,M,M,M,M,M,M,M,M,M,68.00,KWMC 081156Z AUTO 10007KT 10SM CLR 20/06 A3011 RMK AO2 SLP140 T02000061 10256 20200 53004,M
INS,2022-08-08 11:58,-115.6733,36.5872,955.00,78.00,51.80,39.94,0.00,0.00,0.00,30.03,1011.30,10.00,M,CLR,M,M,M,M,M,M,M,M,M,M,M,M,M,M,78.10,KINS 081158Z AUTO 00000KT 10SM CLR 26/11 A3003 RMK AO2 SLP113 T02560110 10310 20256 52005,M
MEV,2022-08-08 12:15,-119.7500,38.9963,1441.42,57.20,51.80,82.12,130.00,3.00,0.00,30.16,M,10.00,M,SCT,M,M,M,11000.00,M,M,M,M,M,M,M,M,M,M,57.20,KMEV 081215Z AUTO 13003KT 10SM SCT110 14/11 A3016 RMK AO2,M
BAM,2022-08-08 12:15,-116.8743,40.5990,1382.36,62.60,41.00,45.04,160.00,3.00,0.00,30.16,M,10.00,M,CLR,M,M,M,M,M,M,M,M,M,M,M,M,M,M,62.60,KBAM 081215Z AUTO 16003KT 10SM CLR 17/05 A3016 RMK AO1,M
HTH,2022-08-08 12:15,-118.6315,38.5448,1282.89,68.00,46.40,45.88,0.00,0.00,0.00,30.12,M,10.00,M,CLR,M,M,M,M,M,M,M,M,M,M,M,M,M,M,68.00,KHTH 081215Z AUTO 00000KT 10SM CLR 20/08 A3012 RMK A01,M
CXP,2022-08-08 12:15,-119.7326,39.1923,1431.00,62.60,48.20,59.26,0.00,0.00,0.00,30.17,M,10.00,M,FEW,M,M,M,12000.00,M,M,M,M,M,M,M,M,M,M,62.60,KCXP 081215Z AUTO 00000KT 10SM FEW120 17/09 A3017 RMK AO2,M
RTS,2022-08-08 12:15,-119.8764,39.6682,1539.00,62.60,44.60,51.72,0.00,0.00,0.00,30.19,M,10.00,M,CLR,M,M,M,M,M,M,M,M,M,M,M,M,M,M,62.60,KRTS 081215Z AUTO 00000KT 10SM CLR 17/07 A3019 RMK AO2,M
BVU,2022-08-08 12:15,-114.8611,35.9475,671.00,84.20,62.60,48.32,80.00,4.00,0.00,29.96,M,M,M,M,M,M,M,M,M,M,M,M,M,M,M,M,M,M,85.03,KBVU 081215Z AUTO 08004KT 29/17 A2996 RMK AO2 PWINO TSNO,M
TMT,2022-08-08 12:15,-117.1971,39.4643,1749.34,54.00,51.00,89.22,250.00,3.00,0.00,30.26,M,10.00,M,CLR,M,M,M,M,M,M,M,M,M,M,M,M,M,M,54.00,KTMT 081215Z AUTO 25003KT 10SM CLR 12/11 A3026 RMK AO2 T01220105,M
TMT,2022-08-08 12:35,-117.1971,39.4643,1749.34,55.00,51.30,87.62,220.00,5.00,0.00,30.27,M,10.00,M,CLR,M,M,M,M,M,M,M,M,M,M,M,M,M,M,54.90,KTMT 081235Z AUTO 22005KT 10SM CLR 13/11 A3027 RMK AO2 T01270107,M
BVU,2022-08-08 12:35,-114.8611,35.9475,671.00,86.00,62.60,45.61,70.00,3.00,0.00,29.97,M,M,M,M,M,M,M,M,M,M,M,M,M,M,M,M,M,M,86.72,KBVU 081235Z AUTO 07003KT 30/17 A2997 RMK AO2 PWINO TSNO,M
CXP,2022-08-08 12:35,-119.7326,39.1923,1431.00,64.40,48.20,55.63,0.00,0.00,0.00,30.17,M,10.00,M,BKN,M,M,M,11000.00,M,M,M,M,M,M,M,M,M,M,64.40,KCXP 081235Z AUTO 00000KT 10SM BKN110 18/09 A3017 RMK AO2,M
RTS,2022-08-08 12:35,-119.8764,39.6682,1539.00,60.80,44.60,55.12,310.00,3.00,0.00,30.19,M,10.00,M,CLR,M,M,M,M,M,M,M,M,M,M,M,M,M,M,60.80,KRTS 081235Z AUTO 31003KT 10SM CLR 16/07 A3019 RMK AO2,M
MEV,2022-08-08 12:35,-119.7500,38.9963,1441.42,57.20,51.80,82.12,0.00,0.00,0.00,30.17,M,10.00,M,FEW,M,M,M,12000.00,M,M,M,M,M,M,M,M,M,M,57.20,KMEV 081235Z AUTO 00000KT 10SM FEW120 14/11 A3017 RMK AO2,M
BAM,2022-08-08 12:35,-116.8743,40.5990,1382.36,68.00,42.80,40.00,0.00,0.00,0.00,30.16,M,10.00,M,CLR,M,M,M,M,M,M,M,M,M,M,M,M,M,M,68.00,KBAM 081235Z AUTO 00000KT 10SM CLR 20/06 A3016 RMK AO1,M
HTH,2022-08-08 12:35,-118.6315,38.5448,1282.89,68.00,48.20,49.10,150.00,3.00,0.00,30.12,M,10.00,M,CLR,M,M,M,M,M,M,M,M,M,M,M,M,M,M,68.00,KHTH 081235Z AUTO 15003KT 10SM CLR 20/09 A3012 RMK A01,M
CXP,2022-08-08 12:50,-119.7326,39.1923,1431.00,64.40,48.20,55.63,0.00,0.00,0.00,30.18,M,10.00,M,SCT,M,M,M,11000.00,M,M,M,M,M,M,M,M,M,M,64.40,KCXP 081250Z AUTO 00000KT 10SM SCT110 18/09 A3018 RMK AO2,M
LOL,2022-08-08 12:53,-118.5701,40.0684,1192.43,69.00,40.00,34.43,100.00,3.00,0.00,30.08,1013.60,10.00,M,CLR,M,M,M,M,M,M,M,M,M,M,M,M,M,M,69.10,KLOL 081253Z AUTO 10003KT 10SM CLR 21/04 A3008 RMK AO2 SLP136 T02060044,M
DRA,2022-08-08 12:53,-116.0278,36.6206,1009.00,78.00,56.00,46.40,80.00,6.00,0.00,30.05,1011.80,10.00,M,CLR,M,M,M,M,M,M,M,M,M,M,M,M,M,M,78.10,KDRA 081253Z AUTO 08006KT 10SM CLR 26/13 A3005 RMK AO2 SLP118 T02560133,M
VGT,2022-08-08 12:53,-115.1933,36.2111,667.00,86.00,53.00,32.41,330.00,6.00,0.00,29.96,1013.00,10.00,M,CLR,M,M,M,M,M,M,M,M,M,M,M,M,M,M,84.09,KVGT 081253Z 33006KT 10SM CLR 30/12 A2996 RMK AO2 SLP130 T03000117 PNO,M
ELY,2022-08-08 12:53,-114.8453,39.2950,1909.00,51.00,48.00,89.09,160.00,6.00,0.00,30.34,1017.80,10.00,M,CLR,M,M,M,M,M,M,M,M,M,M,M,M,M,M,51.10,KELY 081253Z AUTO 16006KT 10SM CLR 11/09 A3034 RMK AO2 SLP178 T01060089,M
RNO,2022-08-08 12:55,-119.7711,39.4839,1341.00,67.00,55.00,65.56,M,3.00,0.00,30.14,1014.40,10.00,M,SCT,M,M,M,15000.00,M,M,M,M,M,M,M,M,M,M,66.90,KRNO 081255Z VRB03KT 10SM SCT150 19/13 A3014 RMK AO2 SLP144 T01940128,M
TMT,2022-08-08 12:55,-117.1971,39.4643,1749.34,55.00,51.00,86.34,230.00,4.00,0.00,30.27,M,10.00,M,CLR,M,M,M,M,M,M,M,M,M,M,M,M,M,M,54.90,KTMT 081255Z AUTO 23004KT 10SM CLR 13/11 A3027 RMK AO2 T01270105,M
BVU,2022-08-08 12:55,-114.8611,35.9475,671.00,86.00,62.60,45.61,M,4.00,0.00,29.98,M,M,M,M,M,M,M,M,M,M,M,M,M,M,M,M,M,M,86.72,KBVU 081255Z AUTO VRB04KT 30/17 A2998 RMK AO2 PWINO TSNO,M
HTH,2022-08-08 12:55,-118.6315,38.5448,1282.89,68.00,46.40,45.88,190.00,3.00,0.00,30.13,M,10.00,M,CLR,M,M,M,M,M,M,M,M,M,M,M,M,M,M,68.00,KHTH 081255Z AUTO 19003KT 10SM CLR 20/08 A3013 RMK A01,M
BAM,2022-08-08 12:55,-116.8743,40.5990,1382.36,68.00,42.80,40.00,110.00,4.00,0.00,30.18,M,10.00,M,CLR,M,M,M,M,M,M,M,M,M,M,M,M,M,M,68.00,KBAM 081255Z AUTO 11004KT 10SM CLR 20/06 A3018 RMK AO1,M
MEV,2022-08-08 12:55,-119.7500,38.9963,1441.42,57.20,51.80,82.12,100.00,4.00,0.00,30.17,M,10.00,M,CLR,M,M,M,M,M,M,M,M,M,M,M,M,M,M,57.20,KMEV 081255Z AUTO 10004KT 10SM CLR 14/11 A3017 RMK AO2,M
RTS,2022-08-08 12:55,-119.8764,39.6682,1539.00,59.00,46.40,62.92,350.00,4.00,0.00,30.19,M,10.00,M,CLR,M,M,M,M,M,M,M,M,M,M,M,M,M,M,59.00,KRTS 081255Z AUTO 35004KT 10SM CLR 15/08 A3019 RMK AO2,M
EKO,2022-08-08 12:56,-115.7860,40.8242,1367.00,56.00,51.00,83.88,0.00,0.00,0.00,30.24,1018.70,10.00,M,CLR,M,M,M,M,M,M,M,M,M,M,M,M,M,M,55.90,KEKO 081256Z AUTO 00000KT 10SM CLR 13/11 A3024 RMK AO2 SLP187 T01330106 $,M
LAS,2022-08-08 12:56,-115.1634,36.0719,663.00,86.00,55.00,34.74,270.00,6.00,0.00,29.97,1011.60,10.00,M,SCT,BKN,M,M,16000.00,22000.00,M,M,M,M,M,M,M,M,M,84.46,KLAS 081256Z 27006KT 10SM SCT160 BKN220 30/13 A2997 RMK AO2 SLP116 ACC DSNT S-W T03000128,M
NFL,2022-08-08 12:56,-118.7010,39.4166,1199.00,65.00,47.00,52.06,180.00,7.00,0.00,30.09,1015.60,10.00,M,CLR,M,M,M,M,M,M,M,M,M,M,M,M,M,M,64.90,KNFL 081256Z AUTO 18007KT 10SM CLR 18/08 A3009 RMK AO2 SLP156 T01830083 PNO $,M
LSV,2022-08-08 12:56,-115.0343,36.2362,570.00,86.00,51.80,30.90,60.00,7.00,0.00,29.93,1010.60,10.00,M,FEW,SCT,M,M,18000.00,25000.00,M,M,M,M,M,M,M,M,M,83.87,KLSV 081256Z 06007KT 10SM FEW180 SCT250 30/11 A2993 RMK SLP106 WND DATA ESTMD ALSTG/SLP ESTMD $,M
WMC,2022-08-08 12:56,-117.8072,40.9019,1315.00,71.00,43.00,36.25,60.00,8.00,0.00,30.12,1014.20,10.00,M,FEW,M,M,M,12000.00,M,M,M,M,M,M,M,M,M,M,71.10,KWMC 081256Z AUTO 06008KT 10SM FEW120 22/06 A3012 RMK AO2 SLP142 T02170061,M
TPH,2022-08-08 12:56,-117.0904,38.0505,1654.00,65.00,53.00,65.56,10.00,9.00,0.00,30.23,1015.30,10.00,M,CLR,M,M,M,M,M,M,M,M,M,M,M,M,M,M,64.90,KTPH 081256Z AUTO 01009KT 10SM CLR 18/12 A3023 RMK AO2 SLP153 T01830117,M
HND,2022-08-08 12:56,-115.1344,35.9729,742.79,86.00,58.00,38.58,200.00,6.00,0.00,30.01,1014.30,10.00,M,CLR,M,M,M,M,M,M,M,M,M,M,M,M,M,M,85.16,KHND 081256Z AUTO 20006KT 10SM CLR 30/14 A3001 RMK AO2 SLP143 T03000144,M
INS,2022-08-08 12:58,-115.6733,36.5872,955.00,77.20,51.60,40.84,0.00,0.00,0.00,30.05,1012.20,10.00,M,FEW,M,M,M,18000.00,M,M,M,M,M,M,M,M,M,M,77.20,KINS 081258Z AUTO 00000KT 10SM FEW180 25/11 A3005 RMK AO2 SLP122 T02510109,M
RTS,2022-08-08 13:15,-119.8764,39.6682,1539.00,59.00,46.40,62.92,0.00,0.00,0.00,30.20,M,10.00,M,CLR,M,M,M,M,M,M,M,M,M,M,M,M,M,M,59.00,KRTS 081315Z AUTO 00000KT 10SM CLR 15/08 A3020 RMK AO2,M
HTH,2022-08-08 13:15,-118.6315,38.5448,1282.89,68.00,46.40,45.88,0.00,0.00,0.00,30.13,M,10.00,M,CLR,M,M,M,M,M,M,M,M,M,M,M,M,M,M,68.00,KHTH 081315Z AUTO 00000KT 10SM CLR 20/08 A3013 RMK A01,M
BAM,2022-08-08 13:15,-116.8743,40.5990,1382.36,69.80,44.60,40.29,80.00,9.00,0.00,30.18,M,10.00,M,SCT,M,M,M,11000.00,M,M,M,M,M,M,M,M,M,M,69.80,KBAM 081315Z AUTO 08009KT 10SM SCT110 21/07 A3018 RMK AO1,M
MEV,2022-08-08 13:15,-119.7500,38.9963,1441.42,57.20,51.80,82.12,0.00,0.00,0.00,30.17,M,10.00,M,CLR,M,M,M,M,M,M,M,M,M,M,M,M,M,M,57.20,KMEV 081315Z AUTO 00000KT 10SM CLR 14/11 A3017 RMK AO2,M
CXP,2022-08-08 13:15,-119.7326,39.1923,1431.00,64.40,48.20,55.63,0.00,0.00,0.00,30.18,M,10.00,M,CLR,M,M,M,M,M,M,M,M,M,M,M,M,M,M,64.40,KCXP 081315Z AUTO 00000KT 10SM CLR 18/09 A3018 RMK AO2,M
BVU,2022-08-08 13:15,-114.8611,35.9475,671.00,87.80,59.00,37.90,0.00,0.00,0.00,29.99,M,M,M,M,M,M,M,M,M,M,M,M,M,M,M,M,M,M,87.12,KBVU 081315Z AUTO 00000KT 31/15 A2999 RMK AO2 PWINO TSNO,M
TMT,2022-08-08 13:15,-117.1971,39.4643,1749.34,53.00,49.60,87.86,220.00,3.00,0.00,30.27,M,10.00,M,CLR,M,M,M,M,M,M,M,M,M,M,M,M,M,M,53.10,KTMT 081315Z AUTO 22003KT 10SM CLR 12/10 A3027 RMK AO2 T01170098,M
CXP,2022-08-08 13:30,-119.7326,39.1923,1431.00,62.60,48.20,59.26,0.00,0.00,0.00,30.19,M,10.00,M,CLR,M,M,M,M,M,M,M,M,M,M,M,M,M,M,62.60,KCXP 081330Z AUTO 00000KT 10SM CLR 17/09 A3019 RMK AO2,M
MEV,2022-08-08 13:35,-119.7500,38.9963,1441.42,55.40,50.00,81.99,0.00,0.00,0.00,30.18,M,10.00,M,CLR,M,M,M,M,M,M,M,M,M,M,M,M,M,M,55.40,KMEV 081335Z AUTO 00000KT 10SM CLR 13/10 A3018 RMK AO2,M
BVU,2022-08-08 13:35,-114.8611,35.9475,671.00,86.00,60.80,42.80,0.00,0.00,0.00,29.99,M,M,M,M,M,M,M,M,M,M,M,M,M,M,M,M,M,M,86.05,KBVU 081335Z AUTO 00000KT 30/16 A2999 RMK AO2 PWINO TSNO,M
BAM,2022-08-08 13:35,-116.8743,40.5990,1382.36,71.60,46.40,40.57,90.00,6.00,0.00,30.19,M,10.00,M,BKN,M,M,M,11000.00,M,M,M,M,M,M,M,M,M,M,71.60,KBAM 081335Z AUTO 09006KT 10SM BKN110 22/08 A3019 RMK AO1,M
RTS,2022-08-08 13:35,-119.8764,39.6682,1539.00,59.00,46.40,62.92,320.00,3.00,0.00,30.20,M,10.00,M,FEW,M,M,M,11000.00,M,M,M,M,M,M,M,M,M,M,59.00,KRTS 081335Z AUTO 32003KT 10SM FEW110 15/08 A3020 RMK AO2,M
HTH,2022-08-08 13:35,-118.6315,38.5448,1282.89,69.80,48.20,46.16,160.00,4.00,0.00,30.14,M,10.00,M,CLR,M,M,M,M,M,M,M,M,M,M,M,M,M,M,69.80,KHTH 081335Z AUTO 16004KT 10SM CLR 21/09 A3014 RMK A01,M
TMT,2022-08-08 13:35,-117.1971,39.4643,1749.34,54.70,51.00,86.97,0.00,0.00,0.00,30.28,M,10.00,M,CLR,M,M,M,M,M,M,M,M,M,M,M,M,M,M,54.70,KTMT 081335Z AUTO 00000KT 10SM CLR 13/11 A3028 RMK AO2 T01260105,M
LOL,2022-08-08 13:53,-118.5701,40.0684,1192.43,68.00,41.00,37.32,0.00,0.00,0.00,30.10,1014.40,10.00,M,CLR,M,M,M,M,M,M,M,M,M,M,M,M,M,M,68.00,KLOL 081353Z AUTO 00000KT 10SM CLR 20/05 A3010 RMK AO2 SLP144 T02000050,M
VGT,2022-08-08 13:53,-115.1933,36.2111,667.00,87.00,53.00,31.30,340.00,7.00,0.00,29.98,1013.60,10.00,M,CLR,M,M,M,M,M,M,M,M,M,M,M,M,M,M,85.01,KVGT 081353Z 34007KT 10SM CLR 31/12 A2998 RMK AO2 SLP136 T03060117 PNO,M
ELY,2022-08-08 13:53,-114.8453,39.2950,1909.00,55.00,50.00,83.20,210.00,5.00,0.00,30.34,1017.60,10.00,M,CLR,M,M,M,M,M,M,M,M,M,M,M,M,M,M,55.00,KELY 081353Z AUTO 21005KT 10SM CLR 13/10 A3034 RMK AO2 SLP176 T01280100,M
DRA,2022-08-08 13:53,-116.0278,36.6206,1009.00,81.00,55.00,40.83,0.00,0.00,0.00,30.06,1012.20,10.00,M,CLR,M,M,M,M,M,M,M,M,M,M,M,M,M,M,80.73,KDRA 081353Z AUTO 00000KT 10SM CLR 27/13 A3006 RMK AO2 SLP122 T02720128,M
TMT,2022-08-08 13:55,-117.1971,39.4643,1749.34,57.60,53.00,84.29,0.00,0.00,0.00,30.28,M,10.00,M,CLR,M,M,M,M,M,M,M,M,M,M,M,M,M,M,57.60,KTMT 081355Z AUTO 00000KT 10SM CLR 14/12 A3028 RMK AO2 T01420116,M
RNO,2022-08-08 13:55,-119.7711,39.4839,1341.00,71.00,50.00,47.23,0.00,0.00,0.00,30.16,1014.90,10.00,M,SCT,M,M,M,11000.00,M,M,M,M,M,M,M,M,M,M,71.10,KRNO 081355Z 00000KT 10SM SCT110 22/10 A3016 RMK AO2 SLP149 T02170100,M
BVU,2022-08-08 13:55,-114.8611,35.9475,671.00,87.80,60.80,40.41,0.00,0.00,0.00,29.99,M,M,M,M,M,M,M,M,M,M,M,M,M,M,M,M,M,M,87.75,KBVU 081355Z AUTO 00000KT 31/16 A2999 RMK AO2 PWINO TSNO,M
HTH,2022-08-08 13:55,-118.6315,38.5448,1282.89,71.60,46.40,40.57,140.00,3.00,0.00,30.14,M,10.00,M,CLR,M,M,M,M,M,M,M,M,M,M,M,M,M,M,71.60,KHTH 081355Z AUTO 14003KT 10SM CLR 22/08 A3014 RMK A01,M
RTS,2022-08-08 13:55,-119.8764,39.6682,1539.00,62.60,46.40,55.37,350.00,3.00,0.00,30.21,M,10.00,M,FEW,M,M,M,11000.00,M,M,M,M,M,M,M,M,M,M,62.60,KRTS 081355Z AUTO 35003KT 10SM FEW110 17/08 A3021 RMK AO2,M
MEV,2022-08-08 13:55,-119.7500,38.9963,1441.42,57.20,53.60,87.74,0.00,0.00,0.00,30.18,M,10.00,M,CLR,M,M,M,M,M,M,M,M,M,M,M,M,M,M,57.20,KMEV 081355Z AUTO 00000KT 10SM CLR 14/12 A3018 RMK AO2,M
CXP,2022-08-08 13:55,-119.7326,39.1923,1431.00,64.40,48.20,55.63,0.00,0.00,0.00,30.19,M,10.00,M,CLR,M,M,M,M,M,M,M,M,M,M,M,M,M,M,64.40,KCXP 081355Z AUTO 00000KT 10SM CLR 18/09 A3019 RMK AO2,M
BAM,2022-08-08 13:55,-116.8743,40.5990,1382.36,69.80,46.40,43.13,100.00,6.00,0.00,30.18,M,10.00,M,OVC,M,M,M,11000.00,M,M,M,M,M,M,M,M,M,M,69.80,KBAM 081355Z AUTO 10006KT 10SM OVC110 21/08 A3018 RMK AO1,M
TPH,2022-08-08 13:56,-117.0904,38.0505,1654.00,68.00,52.00,56.55,10.00,9.00,0.00,30.24,1015.30,10.00,M,CLR,M,M,M,M,M,M,M,M,M,M,M,M,M,M,68.00,KTPH 081356Z AUTO 01009KT 10SM CLR 20/11 A3024 RMK AO2 SLP153 T02000111,M
LAS,2022-08-08 13:56,-115.1634,36.0719,663.00,87.00,57.00,36.07,280.00,4.00,0.00,29.99,1012.20,10.00,M,BKN,BKN,M,M,16000.00,22000.00,M,M,M,M,M,M,M,M,M,85.89,KLAS 081356Z 28004KT 10SM BKN160 BKN220 31/14 A2999 RMK AO2 SLP122 ACC DSNT W T03060139,M
HND,2022-08-08 13:56,-115.1344,35.9729,742.79,87.00,58.00,37.25,210.00,5.00,0.00,30.03,1014.90,10.00,M,CLR,M,M,M,M,M,M,M,M,M,M,M,M,M,M,86.14,KHND 081356Z 21005KT 10SM CLR 31/14 A3003 RMK AO2 SLP149 T03060144,M
EKO,2022-08-08 13:56,-115.7860,40.8242,1367.00,55.00,52.00,89.59,0.00,0.00,0.00,30.25,1019.20,10.00,M,CLR,M,M,M,M,M,M,M,M,M,M,M,M,M,M,55.00,KEKO 081356Z AUTO 00000KT 10SM CLR 13/11 A3025 RMK AO2 SLP192 T01280111 $,M
WMC,2022-08-08 13:56,-117.8072,40.9019,1315.00,71.00,43.00,36.25,60.00,11.00,0.00,30.13,1014.50,10.00,M,CLR,M,M,M,M,M,M,M,M,M,M,M,M,M,M,71.10,KWMC 081356Z AUTO 06011KT 10SM CLR 22/06 A3013 RMK AO2 SLP145 T02170061,M
NFL,2022-08-08 13:56,-118.7010,39.4166,1199.00,70.00,47.00,43.66,160.00,5.00,0.00,30.11,1016.10,10.00,M,CLR,M,M,M,M,M,M,M,M,M,M,M,M,M,M,70.00,KNFL 081356Z AUTO 16005KT 10SM CLR 21/08 A3011 RMK AO2 SLP161 T02110083 PNO $,M
INS,2022-08-08 13:58,-115.6733,36.5872,955.00,78.30,49.00,35.89,0.00,0.00,0.00,30.06,1012.50,10.00,M,BKN,M,M,M,18000.00,M,M,M,M,M,M,M,M,M,M,78.30,KINS 081358Z AUTO 00000KT 10SM BKN180 26/10 A3006 RMK AO2 SLP125 T02570095,M
LSV,2022-08-08 13:58,-115.0343,36.2362,570.00,90.00,61.00,37.85,0.00,0.00,0.00,29.96,1011.60,10.00,M,OVC,M,M,M,15000.00,M,M,M,M,M,M,M,M,M,M,90.13,KLSV 081358Z AUTO 00000KT 10SM OVC150 32/16 A2996 RMK AO2 SLP116 T03230161 $,M
MEV,2022-08-08 14:15,-119.7500,38.9963,1441.42,60.80,53.60,77.14,0.00,0.00,0.00,30.18,M,10.00,M,CLR,M,M,M,M,M,M,M,M,M,M,M,M,M,M,60.80,KMEV 081415Z AUTO 00000KT 10SM CLR 16/12 A3018 RMK AO2,M
BVU,2022-08-08 14:15,-114.8611,35.9475,671.00,89.60,59.00,35.81,0.00,0.00,0.00,29.99,M,M,M,M,M,M,M,M,M,M,M,M,M,M,M,M,M,M,88.86,KBVU 081415Z AUTO 00000KT 32/15 A2999 RMK AO2 PWINO TSNO,M
TMT,2022-08-08 14:15,-117.1971,39.4643,1749.34,62.00,51.30,68.17,0.00,0.00,0.00,30.27,M,10.00,M,CLR,M,M,M,M,M,M,M,M,M,M,M,M,M,M,61.90,KTMT 081415Z AUTO 00000KT 10SM CLR 17/11 A3027 RMK AO2 T01660107,M
HTH,2022-08-08 14:15,-118.6315,38.5448,1282.89,71.60,46.40,40.57,0.00,0.00,0.00,30.14,M,10.00,M,CLR,M,M,M,M,M,M,M,M,M,M,M,M,M,M,71.60,KHTH 081415Z AUTO 00000KT 10SM CLR 22/08 A3014 RMK A01,M
BAM,2022-08-08 14:15,-116.8743,40.5990,1382.36,78.80,50.00,36.51,110.00,10.00,0.00,30.17,M,10.00,14.00,OVC,M,M,M,11000.00,M,M,M,M,M,M,M,M,M,M,78.80,KBAM 081415Z AUTO 11010G14KT 10SM OVC110 26/10 A3017 RMK AO1,M
CXP,2022-08-08 14:15,-119.7326,39.1923,1431.00,66.20,50.00,55.88,0.00,0.00,0.00,30.19,M,10.00,M,CLR,M,M,M,M,M,M,M,M,M,M,M,M,M,M,66.20,KCXP 081415Z AUTO 00000KT 10SM CLR 19/10 A3019 RMK AO2,M
RTS,2022-08-08 14:15,-119.8764,39.6682,1539.00,66.20,46.40,48.83,320.00,3.00,0.00,30.21,M,10.00,M,CLR,M,M,M,M,M,M,M,M,M,M,M,M,M,M,66.20,KRTS 081415Z AUTO 32003KT 10SM CLR 19/08 A3021 RMK AO2,M
CXP,2022-08-08 14:35,-119.7326,39.1923,1431.00,68.00,50.00,52.51,0.00,0.00,0.00,30.19,M,10.00,M,CLR,M,M,M,M,M,M,M,M,M,M,M,M,M,M,68.00,KCXP 081435Z AUTO 00000KT 10SM CLR 20/10 A3019 RMK AO2,M
RTS,2022-08-08 14:35,-119.8764,39.6682,1539.00,68.00,46.40,45.88,0.00,0.00,0.00,30.20,M,10.00,M,CLR,M,M,M,M,M,M,M,M,M,M,M,M,M,M,68.00,KRTS 081435Z AUTO 00000KT 10SM CLR 20/08 A3020 RMK AO2,M
MEV,2022-08-08 14:35,-119.7500,38.9963,1441.42,64.40,51.80,63.60,0.00,0.00,0.00,30.18,M,10.00,M,CLR,M,M,M,M,M,M,M,M,M,M,M,M,M,M,64.40,KMEV 081435Z AUTO 00000KT 10SM CLR 18/11 A3018 RMK AO2,M
BAM,2022-08-08 14:35,-116.8743,40.5990,1382.36,78.80,50.00,36.51,80.00,13.00,0.00,30.16,M,10.00,17.00,OVC,M,M,M,11000.00,M,M,M,M,M,M,M,M,M,M,78.80,KBAM 081435Z AUTO 08013G17KT 10SM OVC110 26/10 A3016 RMK AO1,M
BVU,2022-08-08 14:35,-114.8611,35.9475,671.00,89.60,59.00,35.81,0.00,0.00,0.00,29.99,M,M,M,M,M,M,M,M,M,M,M,M,M,M,M,M,M,M,88.86,KBVU 081435Z AUTO 00000KT 32/15 A2999 RMK AO2 PWINO TSNO,M
TMT,2022-08-08 14:35,-117.1971,39.4643,1749.34,62.80,52.00,67.77,210.00,3.00,0.00,30.28,M,10.00,M,CLR,M,M,M,M,M,M,M,M,M,M,M,M,M,M,62.80,KTMT 081435Z AUTO 21003KT 10SM CLR 17/11 A3028 RMK AO2 T01710111,M
HTH,2022-08-08 14:35,-118.6315,38.5448,1282.89,73.40,48.20,40.85,0.00,0.00,0.00,30.15,M,10.00,M,CLR,M,M,M,M,M,M,M,M,M,M,M,M,M,M,73.40,KHTH 081435Z AUTO 00000KT 10SM CLR 23/09 A3015 RMK A01,M
NFL,2022-08-08 14:45,-118.7010,39.4166,1199.00,77.00,47.00,34.50,180.00,4.00,0.00,30.11,M,10.00,M,FEW,M,M,M,8000.00,M,M,M,M,M,M,M,M,M,M,77.00,KNFL 081445Z 18004KT 10SM FEW080 25/08 A3011 RMK AO2 T02500083,M
LOL,2022-08-08 14:53,-118.5701,40.0684,1192.43,77.00,43.00,29.74,300.00,3.00,0.00,30.11,1014.60,10.00,M,CLR,M,M,M,M,M,M,M,M,M,M,M,M,M,M,77.00,KLOL 081453Z AUTO 30003KT 10SM CLR 25/06 A3011 RMK AO2 SLP146 T02500061 51012,M
VGT,2022-08-08 14:53,-115.1933,36.2111,667.00,89.00,55.00,31.49,340.00,6.00,0.00,29.99,1013.90,10.00,M,CLR,M,M,M,M,M,M,M,M,M,M,M,M,M,M,87.21,KVGT 081453Z 34006KT 10SM CLR 32/13 A2999 RMK AO2 SLP139 6//// T03170128 51013 PNO,M
DRA,2022-08-08 14:53,-116.0278,36.6206,1009.00,84.00,52.00,33.19,320.00,3.00,0.00,30.07,1012.90,10.00,M,CLR,M,M,M,M,M,M,M,M,M,M,M,M,M,M,82.36,KDRA 081453Z AUTO 32003KT 10SM CLR 29/11 A3007 RMK AO2 SLP129 T02890111 51012,M
ELY,2022-08-08 14:53,-114.8453,39.2950,1909.00,64.00,49.00,57.91,170.00,4.00,0.00,30.34,1017.80,10.00,M,CLR,M,M,M,M,M,M,M,M,M,M,M,M,M,M,64.00,KELY 081453Z AUTO 17004KT 10SM CLR 18/09 A3034 RMK AO2 SLP178 T01780094 51004,M
BAM,2022-08-08 14:55,-116.8743,40.5990,1382.36,80.60,48.20,32.18,180.00,7.00,0.00,30.17,M,10.00,M,SCT,SCT,SCT,M,5500.00,7000.00,11000.00,M,M,M,M,M,M,M,M,79.71,KBAM 081455Z AUTO 18007KT 10SM SCT055 SCT070 SCT110 27/09 A3017 RMK AO1,M
BVU,2022-08-08 14:55,-114.8611,35.9475,671.00,91.40,59.00,33.84,150.00,4.00,0.00,30.00,M,M,M,M,M,M,M,M,M,M,M,M,M,M,M,M,M,M,90.68,KBVU 081455Z AUTO 15004KT 33/15 A3000 RMK AO2 PWINO TSNO,M
CXP,2022-08-08 14:55,-119.7326,39.1923,1431.00,69.80,50.00,49.37,0.00,0.00,0.00,30.19,M,10.00,M,CLR,M,M,M,M,M,M,M,M,M,M,M,M,M,M,69.80,KCXP 081455Z AUTO 00000KT 10SM CLR 21/10 A3019 RMK AO2,M
RTS,2022-08-08 14:55,-119.8764,39.6682,1539.00,69.80,44.60,40.29,0.00,0.00,0.00,30.21,M,10.00,M,CLR,M,M,M,M,M,M,M,M,M,M,M,M,M,M,69.80,KRTS 081455Z AUTO 00000KT 10SM CLR 21/07 A3021 RMK AO2,M
MEV,2022-08-08 14:55,-119.7500,38.9963,1441.42,66.20,50.00,55.88,0.00,0.00,0.00,30.18,M,10.00,M,CLR,M,M,M,M,M,M,M,M,M,M,M,M,M,M,66.20,KMEV 081455Z AUTO 00000KT 10SM CLR 19/10 A3018 RMK AO2,M
HTH,2022-08-08 14:55,-118.6315,38.5448,1282.89,75.20,46.40,35.94,0.00,0.00,0.00,30.15,M,10.00,M,CLR,M,M,M,M,M,M,M,M,M,M,M,M,M,M,75.20,KHTH 081455Z AUTO 00000KT 10SM CLR 24/08 A3015 RMK A01,M
TMT,2022-08-08 14:55,-117.1971,39.4643,1749.34,64.00,53.80,69.66,0.00,0.00,0.00,30.28,M,10.00,M,CLR,M,M,M,M,M,M,M,M,M,M,M,M,M,M,63.90,KTMT 081455Z AUTO 00000KT 10SM CLR 18/12 A3028 RMK AO2 T01770121,M
RNO,2022-08-08 14:55,-119.7711,39.4839,1341.00,74.00,49.00,41.24,0.00,0.00,0.00,30.16,1014.90,10.00,M,FEW,M,M,M,11000.00,M,M,M,M,M,M,M,M,M,M,73.90,KRNO 081455Z 00000KT 10SM FEW110 23/09 A3016 RMK AO2 SLP149 T02330094 50005,M
EKO,2022-08-08 14:56,-115.7860,40.8242,1367.00,58.00,50.00,74.91,0.00,0.00,0.00,30.25,1019.60,10.00,M,SCT,M,M,M,12000.00,M,M,M,M,M,M,M,M,M,M,57.90,KEKO 081456Z AUTO 00000KT 10SM SCT120 14/10 A3025 RMK AO2 SLP196 T01440100 51006 $,M
LAS,2022-08-08 14:56,-115.1634,36.0719,663.00,90.00,58.00,33.99,310.00,4.00,0.00,30.00,1012.60,10.00,M,BKN,BKN,M,M,16000.00,22000.00,M,M,M,M,M,M,M,M,M,88.89,KLAS 081456Z 31004KT 10SM BKN160 BKN220 32/14 A3000 RMK AO2 SLP126 T03220144 51015,M
WMC,2022-08-08 14:56,-117.8072,40.9019,1315.00,73.00,44.00,35.46,60.00,13.00,T,30.14,1014.90,10.00,M,BKN,M,M,M,12000.00,M,M,M,M,M,M,M,M,M,M,73.00,KWMC 081456Z AUTO 06013KT 10SM BKN120 23/07 A3014 RMK AO2 RAB38E48 SLP149 P0000 60000 T02280067 51008,M
HND,2022-08-08 14:56,-115.1344,35.9729,742.79,89.00,58.00,34.97,M,3.00,0.00,30.04,1015.20,10.00,M,CLR,M,M,M,M,M,M,M,M,M,M,M,M,M,M,88.01,KHND 081456Z VRB03KT 10SM CLR 32/14 A3004 RMK AO2 SLP152 T03170144 51014,M
NFL,2022-08-08 14:56,-118.7010,39.4166,1199.00,78.00,47.00,33.26,180.00,4.00,0.00,30.11,1016.20,10.00,M,FEW,M,M,M,8000.00,M,M,M,M,M,M,M,M,M,M,78.10,KNFL 081456Z 18004KT 10SM FEW080 26/08 A3011 RMK AO2 SLP162 6//// T02560083 51010,M
TPH,2022-08-08 14:56,-117.0904,38.0505,1654.00,75.00,52.00,44.59,30.00,5.00,0.00,30.25,1015.60,10.00,M,CLR,M,M,M,M,M,M,M,M,M,M,M,M,M,M,75.00,KTPH 081456Z AUTO 03005KT 10SM CLR 24/11 A3025 RMK AO2 SLP156 T02390111 53006,M
INS,2022-08-08 14:58,-115.6733,36.5872,955.00,82.40,49.50,31.86,120.00,3.00,0.00,30.07,1012.80,10.00,M,BKN,M,M,M,16000.00,M,M,M,M,M,M,M,M,M,M,80.93,KINS 081458Z AUTO 12003KT 10SM BKN160 28/10 A3007 RMK AO2 SLP128 T02800097 52011,M
LSV,2022-08-08 14:58,-115.0343,36.2362,570.00,92.70,58.50,31.92,220.00,3.00,0.00,29.96,1011.60,10.00,M,FEW,M,M,M,16000.00,M,M,M,M,M,M,M,M,M,M,91.85,KLSV 081458Z AUTO 22003KT 10SM FEW160 34/15 A2996 RMK AO2 SLP116 T03370147 $,M
BAM,2022-08-08 15:15,-116.8743,40.5990,1382.36,73.40,46.40,38.18,250.00,5.00,0.00,30.18,M,10.00,M,CLR,M,M,M,M,M,M,M,M,M,M,M,M,M,M,73.40,KBAM 081515Z AUTO 25005KT 10SM CLR 23/08 A3018 RMK AO1,M
TMT,2022-08-08 15:15,-117.1971,39.4643,1749.34,66.70,54.30,64.35,0.00,0.00,0.00,30.28,M,10.00,M,CLR,M,M,M,M,M,M,M,M,M,M,M,M,M,M,66.70,KTMT 081515Z AUTO 00000KT 10SM CLR 19/12 A3028 RMK AO2 T01930124,M
RTS,2022-08-08 15:15,-119.8764,39.6682,1539.00,71.60,44.60,37.89,0.00,0.00,0.00,30.20,M,10.00,M,CLR,M,M,M,M,M,M,M,M,M,M,M,M,M,M,71.60,KRTS 081515Z AUTO 00000KT 10SM CLR 22/07 A3020 RMK AO2,M
CXP,2022-08-08 15:15,-119.7326,39.1923,1431.00,71.60,48.20,43.42,210.00,4.00,0.00,30.19,M,10.00,M,CLR,M,M,M,M,M,M,M,M,M,M,M,M,M,M,71.60,KCXP 081515Z AUTO 21004KT 10SM CLR 22/09 A3019 RMK AO2,M
BVU,2022-08-08 15:15,-114.8611,35.9475,671.00,93.20,59.00,31.99,0.00,0.00,0.00,30.00,M,M,M,M,M,M,M,M,M,M,M,M,M,M,M,M,M,M,92.57,KBVU 081515Z AUTO 00000KT 34/15 A3000 RMK AO2 PWINO TSNO,M
HTH,2022-08-08 15:15,-118.6315,38.5448,1282.89,75.20,44.60,33.57,0.00,0.00,0.00,30.16,M,10.00,M,FEW,M,M,M,12000.00,M,M,M,M,M,M,M,M,M,M,75.20,KHTH 081515Z AUTO 00000KT 10SM FEW120 24/07 A3016 RMK A01,M
MEV,2022-08-08 15:15,-119.7500,38.9963,1441.42,69.80,51.80,52.77,0.00,0.00,0.00,30.18,M,10.00,M,CLR,M,M,M,M,M,M,M,M,M,M,M,M,M,M,69.80,KMEV 081515Z AUTO 00000KT 10SM CLR 21/11 A3018 RMK AO2,M
CXP,2022-08-08 15:35,-119.7326,39.1923,1431.00,73.40,48.20,40.85,M,3.00,0.00,30.19,M,10.00,M,CLR,M,M,M,M,M,M,M,M,M,M,M,M,M,M,73.40,KCXP 081535Z AUTO VRB03KT 10SM CLR 23/09 A3019 RMK AO2,M
RTS,2022-08-08 15:35,-119.8764,39.6682,1539.00,73.40,44.60,35.66,0.00,0.00,0.00,30.20,M,10.00,M,CLR,M,M,M,M,M,M,M,M,M,M,M,M,M,M,73.40,KRTS 081535Z AUTO 00000KT 10SM CLR 23/07 A3020 RMK AO2,M
HTH,2022-08-08 15:35,-118.6315,38.5448,1282.89,78.80,44.60,29.79,0.00,0.00,0.00,30.16,M,10.00,M,CLR,M,M,M,M,M,M,M,M,M,M,M,M,M,M,78.80,KHTH 081535Z AUTO 00000KT 10SM CLR 26/07 A3016 RMK A01,M
BAM,2022-08-08 15:35,-116.8743,40.5990,1382.36,77.00,48.20,36.22,310.00,3.00,0.00,30.19,M,10.00,M,CLR,M,M,M,M,M,M,M,M,M,M,M,M,M,M,77.00,KBAM 081535Z AUTO 31003KT 10SM CLR 25/09 A3019 RMK AO1,M
MEV,2022-08-08 15:35,-119.7500,38.9963,1441.42,71.60,51.80,49.64,0.00,0.00,0.00,30.18,M,10.00,M,CLR,M,M,M,M,M,M,M,M,M,M,M,M,M,M,71.60,KMEV 081535Z AUTO 00000KT 10SM CLR 22/11 A3018 RMK AO2,M
BVU,2022-08-08 15:35,-114.8611,35.9475,671.00,93.20,59.00,31.99,120.00,5.00,0.00,30.01,M,M,11.00,M,M,M,M,M,M,M,M,M,M,M,M,M,M,M,92.57,KBVU 081535Z AUTO 12005G11KT 34/15 A3001 RMK AO2 PWINO TSNO,M
TMT,2022-08-08 15:35,-117.1971,39.4643,1749.34,70.30,53.80,55.84,90.00,4.00,0.00,30.28,M,10.00,M,CLR,M,M,M,M,M,M,M,M,M,M,M,M,M,M,70.30,KTMT 081535Z AUTO 09004KT 10SM CLR 21/12 A3028 RMK AO2 T02130121,M
VGT,2022-08-08 15:53,-115.1933,36.2111,667.00,93.00,57.00,29.96,90.00,6.00,0.00,30.00,1014.20,10.00,M,CLR,M,M,M,M,M,M,M,M,M,M,M,M,M,M,91.64,KVGT 081553Z 09006KT 10SM CLR 34/14 A3000 RMK AO2 SLP142 T03390139 PNO,M
ELY,2022-08-08 15:53,-114.8453,39.2950,1909.00,70.00,49.00,47.06,170.00,4.00,0.00,30.34,1016.90,10.00,M,CLR,M,M,M,M,M,M,M,M,M,M,M,M,M,M,70.00,KELY 081553Z AUTO 17004KT 10SM CLR 21/09 A3034 RMK AO2 SLP169 T02110094,M
LOL,2022-08-08 15:53,-118.5701,40.0684,1192.43,82.00,44.00,26.33,70.00,3.00,0.00,30.11,1014.80,10.00,M,CLR,M,M,M,M,M,M,M,M,M,M,M,M,M,M,80.22,KLOL 081553Z AUTO 07003KT 10SM CLR 28/07 A3011 RMK AO2 SLP148 T02780067,M
DRA,2022-08-08 15:53,-116.0278,36.6206,1009.00,89.00,50.00,26.19,210.00,3.00,0.00,30.08,1012.70,10.00,M,CLR,M,M,M,M,M,M,M,M,M,M,M,M,M,M,86.25,KDRA 081553Z AUTO 21003KT 10SM CLR 32/10 A3008 RMK AO2 SLP127 T03170100,M
HTH,2022-08-08 15:55,-118.6315,38.5448,1282.89,78.80,44.60,29.79,0.00,0.00,0.00,30.16,M,10.00,M,CLR,M,M,M,M,M,M,M,M,M,M,M,M,M,M,78.80,KHTH 081555Z AUTO 00000KT 10SM CLR 26/07 A3016 RMK A01,M
RNO,2022-08-08 15:55,-119.7711,39.4839,1341.00,78.00,49.00,35.86,0.00,0.00,0.00,30.15,1014.70,10.00,M,FEW,M,M,M,10000.00,M,M,M,M,M,M,M,M,M,M,78.10,KRNO 081555Z 00000KT 10SM FEW100 26/09 A3015 RMK AO2 SLP147 T02560094,M
BVU,2022-08-08 15:55,-114.8611,35.9475,671.00,95.00,59.00,30.26,170.00,9.00,0.00,30.01,M,M,M,M,M,M,M,M,M,M,M,M,M,M,M,M,M,M,94.51,KBVU 081555Z AUTO 17009KT 35/15 A3001 RMK AO2 PWINO TSNO,M
CXP,2022-08-08 15:55,-119.7326,39.1923,1431.00,75.20,48.20,38.46,250.00,4.00,0.00,30.19,M,10.00,M,CLR,M,M,M,M,M,M,M,M,M,M,M,M,M,M,75.20,KCXP 081555Z AUTO 25004KT 10SM CLR 24/09 A3019 RMK AO2,M
RTS,2022-08-08 15:55,-119.8764,39.6682,1539.00,75.20,46.40,35.94,0.00,0.00,0.00,30.20,M,10.00,M,CLR,M,M,M,M,M,M,M,M,M,M,M,M,M,M,75.20,KRTS 081555Z AUTO 00000KT 10SM CLR 24/08 A3020 RMK AO2,M
TMT,2022-08-08 15:55,-117.1971,39.4643,1749.34,M,M,M,0.00,0.00,0.00,30.28,M,10.00,M,CLR,M,M,M,M,M,M,M,M,M,M,M,M,M,M,M,KTMT 081555Z AUTO 00000KT 10SM CLR A3028 RMK AO2,M
MEV,2022-08-08 15:55,-119.7500,38.9963,1441.42,73.40,51.80,46.71,0.00,0.00,0.00,30.18,M,10.00,M,CLR,M,M,M,M,M,M,M,M,M,M,M,M,M,M,73.40,KMEV 081555Z AUTO 00000KT 10SM CLR 23/11 A3018 RMK AO2,M
BAM,2022-08-08 15:55,-116.8743,40.5990,1382.36,78.80,48.20,34.13,350.00,3.00,0.00,30.19,M,10.00,M,CLR,M,M,M,M,M,M,M,M,M,M,M,M,M,M,78.80,KBAM 081555Z AUTO 35003KT 10SM CLR 26/09 A3019 RMK AO1,M
TPH,2022-08-08 15:56,-117.0904,38.0505,1654.00,78.00,48.00,34.67,0.00,0.00,0.00,30.25,1015.80,10.00,M,CLR,M,M,M,M,M,M,M,M,M,M,M,M,M,M,78.10,KTPH 081556Z AUTO 00000KT 10SM CLR 26/09 A3025 RMK AO2 SLP158 T02560089,M
LAS,2022-08-08 15:56,-115.1634,36.0719,663.00,91.00,59.00,34.27,0.00,0.00,0.00,30.01,1013.10,10.00,M,BKN,BKN,M,M,16000.00,22000.00,M,M,M,M,M,M,M,M,M,90.27,KLAS 081556Z 00000KT 10SM BKN160 BKN220 33/15 A3001 RMK AO2 SLP131 T03280150,M
EKO,2022-08-08 15:56,-115.7860,40.8242,1367.00,64.00,50.00,60.34,0.00,0.00,0.00,30.25,1019.60,10.00,M,FEW,M,M,M,11000.00,M,M,M,M,M,M,M,M,M,M,64.00,KEKO 081556Z AUTO 00000KT 10SM FEW110 18/10 A3025 RMK AO2 SLP196 T01780100,M
WMC,2022-08-08 15:56,-117.8072,40.9019,1315.00,79.00,45.00,30.05,50.00,12.00,0.00,30.14,1015.00,10.00,M,CLR,M,M,M,M,M,M,M,M,M,M,M,M,M,M,79.00,KWMC 081556Z AUTO 05012KT 10SM CLR 26/07 A3014 RMK AO2 SLP150 T02610072,M
HND,2022-08-08 15:56,-115.1344,35.9729,742.79,92.00,59.00,33.31,290.00,4.00,0.00,30.05,1015.70,10.00,M,CLR,M,M,M,M,M,M,M,M,M,M,M,M,M,M,91.20,KHND 081556Z 29004KT 10SM CLR 33/15 A3005 RMK AO2 SLP157 T03330150,M
NFL,2022-08-08 15:56,-118.7010,39.4166,1199.00,84.00,43.00,23.66,260.00,3.00,0.00,30.11,1016.30,10.00,M,FEW,SCT,M,M,8000.00,17000.00,M,M,M,M,M,M,M,M,M,81.48,KNFL 081556Z 26003KT 10SM FEW080 SCT170 29/06 A3011 RMK AO2 SLP163 T02890061,M
INS,2022-08-08 15:58,-115.6733,36.5872,955.00,86.40,48.40,26.88,90.00,3.00,0.00,30.07,1012.70,10.00,M,BKN,M,M,M,15000.00,M,M,M,M,M,M,M,M,M,M,83.74,KINS 081558Z AUTO 09003KT 10SM BKN150 30/09 A3007 RMK AO2 SLP127 T03020091,M
LSV,2022-08-08 15:58,-115.0343,36.2362,570.00,96.40,60.00,29.93,200.00,3.00,0.00,29.98,M,10.00,M,FEW,M,M,M,16000.00,M,M,M,M,M,M,M,M,M,M,96.45,KLSV 081558Z AUTO 20003KT 10SM FEW160 36/16 A2998 RMK AO2 SLPNO T03580155 $,M
TMT,2022-08-08 16:15,-117.1971,39.4643,1749.34,74.00,52.20,46.61,0.00,0.00,0.00,30.28,M,10.00,M,CLR,M,M,M,M,M,M,M,M,M,M,M,M,M,M,73.90,KTMT 081615Z AUTO 00000KT 10SM CLR 23/11 A3028 RMK AO2 T02330112,M
CXP,2022-08-08 16:15,-119.7326,39.1923,1431.00,77.00,46.40,33.85,0.00,0.00,0.00,30.18,M,10.00,M,CLR,M,M,M,M,M,M,M,M,M,M,M,M,M,M,77.00,KCXP 081615Z AUTO 00000KT 10SM CLR 25/08 A3018 RMK AO2,M
RTS,2022-08-08 16:15,-119.8764,39.6682,1539.00,77.00,42.80,29.51,M,3.00,0.00,30.20,M,10.00,M,CLR,M,M,M,M,M,M,M,M,M,M,M,M,M,M,77.00,KRTS 081615Z AUTO VRB03KT 10SM CLR 25/06 A3020 RMK AO2,M
MEV,2022-08-08 16:15,-119.7500,38.9963,1441.42,75.20,50.00,41.14,0.00,0.00,0.00,30.17,M,10.00,M,CLR,M,M,M,M,M,M,M,M,M,M,M,M,M,M,75.20,KMEV 081615Z AUTO 00000KT 10SM CLR 24/10 A3017 RMK AO2,M
BAM,2022-08-08 16:15,-116.8743,40.5990,1382.36,80.60,50.00,34.41,40.00,7.00,0.00,30.19,M,10.00,M,CLR,M,M,M,M,M,M,M,M,M,M,M,M,M,M,79.88,KBAM 081615Z AUTO 04007KT 10SM CLR 27/10 A3019 RMK AO1,M
BVU,2022-08-08 16:15,-114.8611,35.9475,671.00,95.00,60.80,32.27,140.00,8.00,0.00,30.01,M,M,13.00,M,M,M,M,M,M,M,M,M,M,M,M,M,M,M,95.30,KBVU 081615Z AUTO 14008G13KT 35/16 A3001 RMK AO2 PWINO TSNO,M
HTH,2022-08-08 16:15,-118.6315,38.5448,1282.89,80.60,44.60,28.08,0.00,0.00,0.00,30.16,M,10.00,M,CLR,M,M,M,M,M,M,M,M,M,M,M,M,M,M,79.42,KHTH 081615Z AUTO 00000KT 10SM CLR 27/07 A3016 RMK A01,M
HTH,2022-08-08 16:35,-118.6315,38.5448,1282.89,82.40,44.60,26.49,360.00,3.00,0.00,30.15,M,10.00,M,CLR,M,M,M,M,M,M,M,M,M,M,M,M,M,M,80.50,KHTH 081635Z AUTO 36003KT 10SM CLR 28/07 A3015 RMK A01,M
BAM,2022-08-08 16:35,-116.8743,40.5990,1382.36,82.40,51.80,34.69,50.00,12.00,0.00,30.19,M,10.00,M,CLR,M,M,M,M,M,M,M,M,M,M,M,M,M,M,81.20,KBAM 081635Z AUTO 05012KT 10SM CLR 28/11 A3019 RMK AO1,M
TMT,2022-08-08 16:35,-117.1971,39.4643,1749.34,M,M,M,0.00,0.00,0.00,30.28,M,10.00,M,CLR,M,M,M,M,M,M,M,M,M,M,M,M,M,M,M,KTMT 081635Z AUTO 00000KT 10SM CLR A3028 RMK AO2,M
MEV,2022-08-08 16:35,-119.7500,38.9963,1441.42,77.00,50.00,38.74,0.00,0.00,0.00,30.17,M,7.00,M,CLR,M,M,M,M,M,M,M,M,M,M,M,M,M,M,77.00,KMEV 081635Z AUTO 00000KT 7SM CLR 25/10 A3017 RMK AO2,M
BVU,2022-08-08 16:35,-114.8611,35.9475,671.00,95.00,59.00,30.26,170.00,9.00,0.00,30.01,M,M,M,M,M,M,M,M,M,M,M,M,M,M,M,M,M,M,94.51,KBVU 081635Z AUTO 17009KT 35/15 A3001 RMK AO2 PWINO TSNO,M
CXP,2022-08-08 16:35,-119.7326,39.1923,1431.00,78.80,46.40,31.90,0.00,0.00,0.00,30.18,M,10.00,M,CLR,M,M,M,M,M,M,M,M,M,M,M,M,M,M,78.80,KCXP 081635Z AUTO 00000KT 10SM CLR 26/08 A3018 RMK AO2,M
RTS,2022-08-08 16:35,-119.8764,39.6682,1539.00,78.80,42.80,27.81,140.00,5.00,0.00,30.20,M,10.00,M,CLR,M,M,M,M,M,M,M,M,M,M,M,M,M,M,78.80,KRTS 081635Z AUTO 14005KT 10SM CLR 26/06 A3020 RMK AO2,M
LOL,2022-08-08 16:53,-118.5701,40.0684,1192.43,85.00,45.00,24.81,150.00,6.00,0.00,30.10,1014.50,10.00,M,CLR,M,M,M,M,M,M,M,M,M,M,M,M,M,M,82.27,KLOL 081653Z AUTO 15006KT 10SM CLR 29/07 A3010 RMK AO2 SLP145 T02940072,M
ELY,2022-08-08 16:53,-114.8453,39.2950,1909.00,78.00,47.00,33.26,M,3.00,0.00,30.33,1016.40,10.00,M,CLR,M,M,M,M,M,M,M,M,M,M,M,M,M,M,78.10,KELY 081653Z AUTO VRB03KT 10SM CLR 26/08 A3033 RMK AO2 SLP164 T02560083,M
DRA,2022-08-08 16:53,-116.0278,36.6206,1009.00,95.00,49.00,20.92,260.00,3.00,0.00,30.08,1012.60,10.00,M,FEW,M,M,M,12000.00,M,M,M,M,M,M,M,M,M,M,91.68,KDRA 081653Z AUTO 26003KT 10SM FEW120 35/09 A3008 RMK AO2 SLP126 T03500094,M
VGT,2022-08-08 16:53,-115.1933,36.2111,667.00,94.00,57.00,29.14,90.00,6.00,0.00,30.00,1014.30,10.00,M,CLR,M,M,M,M,M,M,M,M,M,M,M,M,M,M,92.58,KVGT 081653Z 09006KT 10SM CLR 34/14 A3000 RMK AO2 SLP143 T03440139 PNO,M
BVU,2022-08-08 16:55,-114.8611,35.9475,671.00,96.80,59.00,28.63,M,4.00,0.00,30.01,M,M,13.00,M,M,M,M,M,M,M,M,M,M,M,M,M,M,M,96.50,KBVU 081655Z AUTO VRB04G13KT 36/15 A3001 RMK AO2 PWINO TSNO,M
TMT,2022-08-08 16:55,-117.1971,39.4643,1749.34,M,M,M,0.00,0.00,0.00,30.27,M,10.00,M,CLR,M,M,M,M,M,M,M,M,M,M,M,M,M,M,M,KTMT 081655Z AUTO 00000KT 10SM CLR A3027 RMK AO2,M
MEV,2022-08-08 16:55,-119.7500,38.9963,1441.42,77.00,51.80,41.42,250.00,4.00,0.00,30.17,M,10.00,M,FEW,M,M,M,9500.00,M,M,M,M,M,M,M,M,M,M,77.00,KMEV 081655Z AUTO 25004KT 10SM FEW095 25/11 A3017 RMK AO2,M
BAM,2022-08-08 16:55,-116.8743,40.5990,1382.36,82.40,51.80,34.69,70.00,9.00,0.00,30.19,M,10.00,M,CLR,M,M,M,M,M,M,M,M,M,M,M,M,M,M,81.20,KBAM 081655Z AUTO 07009KT 10SM CLR 28/11 A3019 RMK AO1,M
HTH,2022-08-08 16:55,-118.6315,38.5448,1282.89,82.40,44.60,26.49,0.00,0.00,0.00,30.15,M,10.00,M,FEW,M,M,M,10000.00,M,M,M,M,M,M,M,M,M,M,80.50,KHTH 081655Z AUTO 00000KT 10SM FEW100 28/07 A3015 RMK A01,M
RTS,2022-08-08 16:55,-119.8764,39.6682,1539.00,80.60,42.80,26.22,110.00,3.00,0.00,30.19,M,10.00,M,CLR,M,M,M,M,M,M,M,M,M,M,M,M,M,M,79.30,KRTS 081655Z AUTO 11003KT 10SM CLR 27/06 A3019 RMK AO2,M
RNO,2022-08-08 16:55,-119.7711,39.4839,1341.00,83.00,49.00,30.65,260.00,3.00,0.00,30.14,1014.00,10.00,M,FEW,M,M,M,11000.00,M,M,M,M,M,M,M,M,M,M,81.20,KRNO 081655Z 26003KT 10SM FEW110 28/09 A3014 RMK AO2 SLP140 ACC SE THRU SW T02830094,M
CXP,2022-08-08 16:55,-119.7326,39.1923,1431.00,80.60,48.20,32.18,M,3.00,0.00,30.18,M,10.00,M,FEW,M,M,M,11000.00,M,M,M,M,M,M,M,M,M,M,79.71,KCXP 081655Z AUTO VRB03KT 10SM FEW110 27/09 A3018 RMK AO2,M
LAS,2022-08-08 16:56,-115.1634,36.0719,663.00,94.00,59.00,31.31,340.00,3.00,0.00,30.01,1012.90,10.00,M,FEW,BKN,BKN,M,11000.00,16000.00,22000.00,M,M,M,M,M,M,M,M,93.32,KLAS 081656Z 34003KT 10SM FEW110 BKN160 BKN220 34/15 A3001 RMK AO2 SLP129 T03440150,M
TPH,2022-08-08 16:56,-117.0904,38.0505,1654.00,81.00,50.00,33.97,150.00,8.00,0.00,30.25,1016.00,10.00,M,BKN,M,M,M,12000.00,M,M,M,M,M,M,M,M,M,M,80.12,KTPH 081656Z AUTO 15008KT 10SM BKN120 27/10 A3025 RMK AO2 SLP160 T02720100,M
NFL,2022-08-08 16:56,-118.7010,39.4166,1199.00,88.00,43.00,20.82,130.00,5.00,0.00,30.11,1016.20,10.00,M,SCT,SCT,M,M,8000.00,17000.00,M,M,M,M,M,M,M,M,M,84.58,KNFL 081656Z 13005KT 10SM SCT080 SCT170 31/06 A3011 RMK AO2 SLP162 T03110061,M
HND,2022-08-08 16:56,-115.1344,35.9729,742.79,94.00,59.00,31.31,0.00,0.00,0.00,30.05,1015.50,10.00,M,CLR,M,M,M,M,M,M,M,M,M,M,M,M,M,M,93.32,KHND 081656Z 00000KT 10SM CLR 34/15 A3005 RMK AO2 SLP155 T03440150,M
EKO,2022-08-08 16:56,-115.7860,40.8242,1367.00,71.00,50.00,47.23,60.00,3.00,0.00,30.24,1018.80,10.00,M,CLR,M,M,M,M,M,M,M,M,M,M,M,M,M,M,71.10,KEKO 081656Z AUTO 06003KT 10SM CLR 22/10 A3024 RMK AO2 SLP188 T02170100,M
WMC,2022-08-08 16:56,-117.8072,40.9019,1315.00,86.00,44.00,23.14,80.00,5.00,0.00,30.14,1014.80,10.00,M,CLR,M,M,M,M,M,M,M,M,M,M,M,M,M,M,83.04,KWMC 081656Z AUTO 08005KT 10SM CLR 30/07 A3014 RMK AO2 SLP148 T03000067,M
LSV,2022-08-08 16:58,-115.0343,36.2362,570.00,100.20,60.00,26.86,340.00,3.00,0.00,29.97,M,10.00,M,FEW,M,M,M,15000.00,M,M,M,M,M,M,M,M,M,M,100.88,KLSV 081658Z AUTO 34003KT 10SM FEW150 38/16 A2997 RMK AO2 SLPNO T03790156 $,M
INS,2022-08-08 16:58,-115.6733,36.5872,955.00,88.20,50.00,26.95,110.00,3.00,0.00,30.07,1012.80,10.00,M,OVC,M,M,M,13000.00,M,M,M,M,M,M,M,M,M,M,85.45,KINS 081658Z AUTO 11003KT 10SM OVC130 31/10 A3007 RMK AO2 SLP128 T03120100,M
CXP,2022-08-08 17:10,-119.7326,39.1923,1431.00,82.40,46.40,28.36,0.00,0.00,0.00,30.17,M,10.00,M,CLR,M,M,M,M,M,M,M,M,M,M,M,M,M,M,80.64,KCXP 081710Z AUTO 00000KT 10SM CLR 28/08 A3017 RMK AO2,M
TMT,2022-08-08 17:15,-117.1971,39.4643,1749.34,M,M,M,0.00,0.00,0.00,30.27,M,10.00,M,CLR,M,M,M,M,M,M,M,M,M,M,M,M,M,M,M,KTMT 081715Z AUTO 00000KT 10SM CLR A3027 RMK AO2,M
BAM,2022-08-08 17:15,-116.8743,40.5990,1382.36,86.00,50.00,28.90,50.00,9.00,0.00,30.18,M,10.00,M,CLR,M,M,M,M,M,M,M,M,M,M,M,M,M,M,83.62,KBAM 081715Z AUTO 05009KT 10SM CLR 30/10 A3018 RMK AO1,M
BVU,2022-08-08 17:15,-114.8611,35.9475,671.00,96.80,59.00,28.63,150.00,7.00,0.00,30.00,M,M,M,M,M,M,M,M,M,M,M,M,M,M,M,M,M,M,96.50,KBVU 081715Z AUTO 15007KT 110V170 36/15 A3000 RMK AO2 PWINO TSNO,M
MEV,2022-08-08 17:15,-119.7500,38.9963,1441.42,78.80,50.00,36.51,0.00,0.00,0.00,30.17,M,8.00,M,SCT,M,M,M,10000.00,M,M,M,M,M,M,M,M,M,M,78.80,KMEV 081715Z AUTO 00000KT 8SM SCT100 26/10 A3017 RMK AO2,M
RTS,2022-08-08 17:15,-119.8764,39.6682,1539.00,80.60,42.80,26.22,150.00,6.00,0.00,30.19,M,10.00,M,CLR,M,M,M,M,M,M,M,M,M,M,M,M,M,M,79.30,KRTS 081715Z AUTO 15006KT 10SM CLR 27/06 A3019 RMK AO2,M
HTH,2022-08-08 17:15,-118.6315,38.5448,1282.89,84.20,44.60,24.99,50.00,4.00,0.00,30.14,M,10.00,M,FEW,M,M,M,10000.00,M,M,M,M,M,M,M,M,M,M,81.73,KHTH 081715Z AUTO 05004KT 10SM FEW100 29/07 A3014 RMK A01,M
TMT,2022-08-08 17:35,-117.1971,39.4643,1749.34,M,M,M,0.00,0.00,0.00,30.27,M,10.00,M,CLR,M,M,M,M,M,M,M,M,M,M,M,M,M,M,M,KTMT 081735Z AUTO 00000KT 10SM CLR A3027 RMK AO2,M
MEV,2022-08-08 17:35,-119.7500,38.9963,1441.42,78.80,50.00,36.51,0.00,0.00,0.00,30.16,M,10.00,M,SCT,M,M,M,11000.00,M,M,M,M,M,M,M,M,M,M,78.80,KMEV 081735Z AUTO 00000KT 10SM SCT110 26/10 A3016 RMK AO2,M
BVU,2022-08-08 17:35,-114.8611,35.9475,671.00,98.60,57.20,25.41,220.00,6.00,0.00,30.00,M,M,M,M,M,M,M,M,M,M,M,M,M,M,M,M,M,M,97.76,KBVU 081735Z AUTO 22006KT 37/14 A3000 RMK AO2 PWINO TSNO,M
BAM,2022-08-08 17:35,-116.8743,40.5990,1382.36,87.80,50.00,27.29,60.00,11.00,0.00,30.17,M,10.00,M,CLR,M,M,M,M,M,M,M,M,M,M,M,M,M,M,85.11,KBAM 081735Z AUTO 06011KT 10SM CLR 31/10 A3017 RMK AO1,M
RTS,2022-08-08 17:35,-119.8764,39.6682,1539.00,82.40,44.60,26.49,160.00,4.00,0.00,30.19,M,10.00,M,CLR,M,M,M,M,M,M,M,M,M,M,M,M,M,M,80.50,KRTS 081735Z AUTO 16004KT 10SM CLR 28/07 A3019 RMK AO2,M
HTH,2022-08-08 17:35,-118.6315,38.5448,1282.89,84.20,44.60,24.99,0.00,0.00,0.00,30.14,M,10.00,M,SCT,SCT,M,M,10000.00,12000.00,M,M,M,M,M,M,M,M,M,81.73,KHTH 081735Z AUTO 00000KT 10SM SCT100 SCT120 29/07 A3014 RMK A01,M
CXP,2022-08-08 17:35,-119.7326,39.1923,1431.00,84.20,44.60,24.99,140.00,4.00,0.00,30.17,M,10.00,M,SCT,M,M,M,10000.00,M,M,M,M,M,M,M,M,M,M,81.73,KCXP 081735Z AUTO 14004KT 10SM SCT100 29/07 A3017 RMK AO2,M
DRA,2022-08-08 17:53,-116.0278,36.6206,1009.00,96.00,50.00,21.07,M,5.00,0.00,30.07,1012.50,10.00,M,CLR,M,M,M,M,M,M,M,M,M,M,M,M,M,M,93.00,KDRA 081753Z AUTO VRB05KT 10SM CLR 36/10 A3007 RMK AO2 SLP125 T03560100 10361 20256 50000,M
LOL,2022-08-08 17:53,-118.5701,40.0684,1192.43,90.00,45.00,21.10,M,3.00,0.00,30.09,1014.10,10.00,M,CLR,M,M,M,M,M,M,M,M,M,M,M,M,M,M,86.45,KLOL 081753Z AUTO VRB03KT 10SM CLR 32/07 A3009 RMK AO2 SLP141 T03220072 10328 20172 58004,M
ELY,2022-08-08 17:53,-114.8453,39.2950,1909.00,82.00,45.00,27.24,M,M,0.00,30.32,1016.00,10.00,M,CLR,M,M,M,M,M,M,M,M,M,M,M,M,M,M,80.28,KELY 081753Z AUTO 10SM CLR 28/07 A3032 RMK AO2 SLP160 T02780072 10278 20100 58005,M
VGT,2022-08-08 17:53,-115.1933,36.2111,667.00,96.00,56.00,26.16,130.00,5.00,0.00,29.99,1014.00,10.00,M,CLR,M,M,M,M,M,M,M,M,M,M,M,M,M,M,94.55,KVGT 081753Z 13005KT 10SM CLR 36/13 A2999 RMK AO2 SLP140 6//// T03560133 10361 20300 50002 PNO $,M
HTH,2022-08-08 17:55,-118.6315,38.5448,1282.89,86.00,44.60,23.59,M,3.00,0.00,30.14,M,10.00,M,SCT,M,M,M,10000.00,M,M,M,M,M,M,M,M,M,M,83.07,KHTH 081755Z AUTO VRB03KT 10SM SCT100 30/07 A3014 RMK A01,M
MEV,2022-08-08 17:55,-119.7500,38.9963,1441.42,80.60,51.80,36.79,0.00,0.00,0.00,30.16,M,10.00,M,BKN,BKN,M,M,10000.00,12000.00,M,M,M,M,M,M,M,M,M,80.08,KMEV 081755Z AUTO 00000KT 10SM BKN100 BKN120 27/11 A3016 RMK AO2,M
BAM,2022-08-08 17:55,-116.8743,40.5990,1382.36,89.60,48.20,24.11,60.00,13.00,0.00,30.17,M,10.00,M,CLR,M,M,M,M,M,M,M,M,M,M,M,M,M,M,86.44,KBAM 081755Z AUTO 06013KT 10SM CLR 32/09 A3017 RMK AO1,M
RNO,2022-08-08 17:55,-119.7711,39.4839,1341.00,85.00,47.00,26.66,0.00,0.00,0.00,30.13,1013.60,10.00,M,BKN,M,M,M,10000.00,M,M,M,M,M,M,M,M,M,M,82.42,KRNO 081755Z 00000KT 10SM BKN100 29/08 A3013 RMK AO2 SLP136 ACC ALQDS T02940083 10306 20194 58008,M
CXP,2022-08-08 17:55,-119.7326,39.1923,1431.00,84.20,44.60,24.99,130.00,3.00,0.00,30.17,M,10.00,M,SCT,SCT,M,M,10000.00,12000.00,M,M,M,M,M,M,M,M,M,81.73,KCXP 081755Z AUTO 13003KT 10SM SCT100 SCT120 29/07 A3017 RMK AO2,M
BVU,2022-08-08 17:55,-114.8611,35.9475,671.00,98.60,60.80,28.90,180.00,12.00,0.00,30.00,M,M,18.00,M,M,M,M,M,M,M,M,M,M,M,M,M,M,M,99.39,KBVU 081755Z AUTO 18012G18KT 37/16 A3000 RMK AO2 PWINO TSNO,M
TMT,2022-08-08 17:55,-117.1971,39.4643,1749.34,M,M,M,0.00,0.00,0.00,30.26,M,10.00,M,CLR,M,M,M,M,M,M,M,M,M,M,M,M,M,M,M,KTMT 081755Z AUTO 00000KT 10SM CLR A3026 RMK AO2,M
RTS,2022-08-08 17:55,-119.8764,39.6682,1539.00,82.40,44.60,26.49,M,4.00,0.00,30.19,M,10.00,M,CLR,M,M,M,M,M,M,M,M,M,M,M,M,M,M,80.50,KRTS 081755Z AUTO VRB04KT 10SM CLR 28/07 A3019 RMK AO2,M
EKO,2022-08-08 17:56,-115.7860,40.8242,1367.00,75.00,48.00,38.43,20.00,3.00,0.00,30.24,1018.60,10.00,M,CLR,M,M,M,M,M,M,M,M,M,M,M,M,M,M,75.00,KEKO 081756Z AUTO 02003KT 10SM CLR 24/09 A3024 RMK AO2 SLP186 T02390089 10239 20100 58005,M
NFL,2022-08-08 17:56,-118.7010,39.4166,1199.00,90.00,39.00,16.74,0.00,0.00,0.00,30.10,1015.90,10.00,M,SCT,SCT,SCT,M,8000.00,12000.00,15000.00,M,M,M,M,M,M,M,M,86.07,KNFL 081756Z COR 00000KT 10SM SCT080 SCT120 SCT150 32/04 A3010 RMK AO2 SLP159 CB DSNT SE-SW 6//// T03220039 10322 20183 58003,M
TPH,2022-08-08 17:56,-117.0904,38.0505,1654.00,86.00,48.00,26.82,140.00,10.00,0.00,30.25,1015.20,10.00,M,CLR,M,M,M,M,M,M,M,M,M,M,M,M,M,M,83.38,KTPH 081756Z AUTO 14010KT 10SM CLR 30/09 A3025 RMK AO2 SLP152 T03000089 10300 20183 50000,M
LAS,2022-08-08 17:56,-115.1634,36.0719,663.00,97.00,58.00,27.36,M,3.00,0.00,30.00,1012.60,10.00,M,FEW,SCT,SCT,M,10000.00,16000.00,22000.00,M,M,M,M,M,M,M,M,96.26,KLAS 081756Z VRB03KT 10SM FEW100 SCT160 SCT220 36/14 A3000 RMK AO2 SLP126 T03610144 10361 20300 50001,M
WMC,2022-08-08 17:56,-117.8072,40.9019,1315.00,90.00,45.00,21.10,M,3.00,0.00,30.13,1014.30,10.00,M,CLR,M,M,M,M,M,M,M,M,M,M,M,M,M,M,86.45,KWMC 081756Z AUTO VRB03KT 10SM CLR 32/07 A3013 RMK AO2 SLP143 60000 T03220072 10322 20200 58002,M
HND,2022-08-08 17:56,-115.1344,35.9729,742.79,98.00,59.00,27.52,160.00,5.00,0.00,30.04,1015.10,10.00,M,CLR,M,M,M,M,M,M,M,M,M,M,M,M,M,M,97.96,KHND 081756Z 16005KT 10SM CLR 37/15 A3004 RMK AO2 SLP151 T03670150 10367 20300 50001,M
LSV,2022-08-08 17:58,-115.0343,36.2362,570.00,103.00,59.20,23.84,200.00,5.00,0.00,29.96,M,10.00,M,FEW,M,M,M,14000.00,M,M,M,M,M,M,M,M,M,M,103.75,KLSV 081758Z AUTO 20005KT 10SM FEW140 40/15 A2996 RMK AO2 SLPNO T03950151 10397 20302 50000 $,M
INS,2022-08-08 17:58,-115.6733,36.5872,955.00,92.70,48.20,21.88,60.00,3.00,0.00,30.07,1012.70,10.00,M,OVC,M,M,M,16000.00,M,M,M,M,M,M,M,M,M,M,89.32,KINS 081758Z AUTO 06003KT 10SM OVC160 34/09 A3007 RMK AO2 SLP127 T03370090 10337 20243 58001,M
BAM,2022-08-08 18:15,-116.8743,40.5990,1382.36,91.40,50.00,24.37,60.00,13.00,0.00,30.17,M,10.00,M,CLR,M,M,M,M,M,M,M,M,M,M,M,M,M,M,88.36,KBAM 081815Z AUTO 06013KT 10SM CLR 33/10 A3017 RMK AO1,M
HTH,2022-08-08 18:15,-118.6315,38.5448,1282.89,86.00,44.60,23.59,M,3.00,0.00,30.14,M,10.00,M,CLR,M,M,M,M,M,M,M,M,M,M,M,M,M,M,83.07,KHTH 081815Z AUTO VRB03KT 10SM CLR 30/07 A3014 RMK A01,M
MEV,2022-08-08 18:15,-119.7500,38.9963,1441.42,84.20,50.00,30.62,0.00,0.00,0.00,30.16,M,10.00,M,SCT,M,M,M,10000.00,M,M,M,M,M,M,M,M,M,M,82.24,KMEV 081815Z AUTO 00000KT 10SM SCT100 29/10 A3016 RMK AO2,M
RTS,2022-08-08 18:15,-119.8764,39.6682,1539.00,86.00,42.80,22.02,M,5.00,0.00,30.19,M,10.00,10.00,CLR,M,M,M,M,M,M,M,M,M,M,M,M,M,M,82.95,KRTS 081815Z AUTO VRB05G10KT 10SM CLR 30/06 A3019 RMK AO2,M
CXP,2022-08-08 18:15,-119.7326,39.1923,1431.00,84.20,42.80,23.33,200.00,3.00,0.00,30.17,M,10.00,M,BKN,M,M,M,10000.00,M,M,M,M,M,M,M,M,M,M,81.61,KCXP 081815Z AUTO 20003KT 10SM BKN100 29/06 A3017 RMK AO2,M
BVU,2022-08-08 18:15,-114.8611,35.9475,671.00,96.80,60.80,30.53,170.00,10.00,0.00,29.99,M,M,M,M,M,M,M,M,M,M,M,M,M,M,M,M,M,M,97.33,KBVU 081815Z AUTO 17010KT 36/16 A2999 RMK AO2 PWINO TSNO,M
TMT,2022-08-08 18:15,-117.1971,39.4643,1749.34,M,M,M,290.00,3.00,0.00,30.26,M,10.00,M,CLR,M,M,M,M,M,M,M,M,M,M,M,M,M,M,M,KTMT 081815Z AUTO 29003KT 10SM CLR A3026 RMK AO2,M
TMT,2022-08-08 18:35,-117.1971,39.4643,1749.34,M,M,M,280.00,3.00,0.00,30.25,M,10.00,M,CLR,M,M,M,M,M,M,M,M,M,M,M,M,M,M,M,KTMT 081835Z AUTO 28003KT 10SM CLR A3025 RMK AO2,M
RTS,2022-08-08 18:35,-119.8764,39.6682,1539.00,86.00,42.80,22.02,150.00,10.00,0.00,30.18,M,10.00,M,CLR,M,M,M,M,M,M,M,M,M,M,M,M,M,M,82.95,KRTS 081835Z AUTO 15010KT 10SM CLR 30/06 A3018 RMK AO2,M
HTH,2022-08-08 18:35,-118.6315,38.5448,1282.89,87.80,44.60,22.27,130.00,5.00,0.00,30.13,M,10.00,M,CLR,M,M,M,M,M,M,M,M,M,M,M,M,M,M,84.53,KHTH 081835Z AUTO 13005KT 10SM CLR 31/07 A3013 RMK A01,M
BAM,2022-08-08 18:35,-116.8743,40.5990,1382.36,91.40,48.20,22.78,60.00,12.00,0.00,30.16,M,10.00,M,CLR,M,M,M,M,M,M,M,M,M,M,M,M,M,M,88.09,KBAM 081835Z AUTO 06012KT 10SM CLR 33/09 A3016 RMK AO1,M
MEV,2022-08-08 18:35,-119.7500,38.9963,1441.42,84.20,48.20,28.63,M,4.00,0.00,30.16,M,10.00,M,SCT,M,M,M,10000.00,M,M,M,M,M,M,M,M,M,M,82.04,KMEV 081835Z AUTO VRB04KT 10SM SCT100 29/09 A3016 RMK AO2,M
BVU,2022-08-08 18:35,-114.8611,35.9475,671.00,96.80,59.00,28.63,M,5.00,0.00,29.99,M,M,13.00,M,M,M,M,M,M,M,M,M,M,M,M,M,M,M,96.50,KBVU 081835Z AUTO VRB05G13KT 36/15 A2999 RMK AO2 PWINO TSNO,M
CXP,2022-08-08 18:35,-119.7326,39.1923,1431.00,86.00,44.60,23.59,0.00,0.00,0.00,30.16,M,10.00,M,BKN,M,M,M,10000.00,M,M,M,M,M,M,M,M,M,M,83.07,KCXP 081835Z AUTO 00000KT 10SM BKN100 30/07 A3016 RMK AO2,M
ELY,2022-08-08 18:53,-114.8453,39.2950,1909.00,84.00,39.00,20.27,0.00,0.00,0.00,30.30,1015.30,10.00,M,CLR,M,M,M,M,M,M,M,M,M,M,M,M,M,M,81.29,KELY 081853Z AUTO 00000KT 10SM CLR 29/04 A3030 RMK AO2 SLP153 T02890039,M
LOL,2022-08-08 18:53,-118.5701,40.0684,1192.43,93.00,43.00,17.80,130.00,5.00,0.00,30.08,1013.20,10.00,M,CLR,M,M,M,M,M,M,M,M,M,M,M,M,M,M,89.00,KLOL 081853Z AUTO 13005KT 10SM CLR 34/06 A3008 RMK AO2 SLP132 T03390061,M
VGT,2022-08-08 18:53,-115.1933,36.2111,667.00,99.00,56.00,23.95,M,5.00,0.00,29.97,1013.20,10.00,M,CLR,M,M,M,M,M,M,M,M,M,M,M,M,M,M,97.71,KVGT 081853Z VRB05KT 10SM CLR 37/13 A2997 RMK AO2 SLP132 T03720133 PNO $,M
DRA,2022-08-08 18:53,-116.0278,36.6206,1009.00,94.00,52.00,24.28,200.00,8.00,0.00,30.07,1012.50,10.00,M,CLR,M,M,M,M,M,M,M,M,M,M,M,M,M,M,91.19,KDRA 081853Z AUTO 20008KT 10SM CLR 34/11 A3007 RMK AO2 SLP125 T03440111,M
TMT,2022-08-08 18:55,-117.1971,39.4643,1749.34,M,M,M,270.00,3.00,0.00,30.24,M,10.00,M,CLR,M,M,M,M,M,M,M,M,M,M,M,M,M,M,M,KTMT 081855Z AUTO 27003KT 10SM CLR A3024 RMK AO2,M
BAM,2022-08-08 18:55,-116.8743,40.5990,1382.36,93.20,46.40,20.13,50.00,10.00,0.00,30.15,M,10.00,M,CLR,M,M,M,M,M,M,M,M,M,M,M,M,M,M,89.55,KBAM 081855Z AUTO 05010KT 10SM CLR 34/08 A3015 RMK AO1,M
MEV,2022-08-08 18:55,-119.7500,38.9963,1441.42,82.40,51.80,34.69,130.00,15.00,0.00,30.17,M,10.00,20.00,BKN,M,M,M,9500.00,M,M,M,M,M,M,M,M,M,M,81.20,KMEV 081855Z AUTO 13015G20KT 10SM BKN095 28/11 A3017 RMK AO2,M
RTS,2022-08-08 18:55,-119.8764,39.6682,1539.00,87.80,42.80,20.79,160.00,10.00,0.00,30.18,M,10.00,17.00,CLR,M,M,M,M,M,M,M,M,M,M,M,M,M,M,84.40,KRTS 081855Z AUTO 16010G17KT 120V180 10SM CLR 31/06 A3018 RMK AO2,M
RNO,2022-08-08 18:55,-119.7711,39.4839,1341.00,88.00,49.00,26.03,190.00,6.00,T,30.12,1013.10,10.00,M,BKN,BKN,M,M,9500.00,18000.00,M,M,-RA,M,M,M,M,M,M,85.13,KRNO 081855Z 19006KT 10SM -RA BKN095 BKN180 31/09 A3012 RMK AO2 RAB54 SLP131 ACC ALQDS P0000 T03110094,M
CXP,2022-08-08 18:55,-119.7326,39.1923,1431.00,86.00,42.80,22.02,M,3.00,0.00,30.16,M,10.00,M,SCT,M,M,M,10000.00,M,M,M,M,M,M,M,M,M,M,82.95,KCXP 081855Z AUTO VRB03KT 10SM SCT100 30/06 A3016 RMK AO2,M
BVU,2022-08-08 18:55,-114.8611,35.9475,671.00,98.60,60.80,28.90,170.00,13.00,0.00,29.98,M,M,M,M,M,M,M,M,M,M,M,M,M,M,M,M,M,M,99.39,KBVU 081855Z AUTO 17013KT 37/16 A2998 RMK AO2 PWINO TSNO,M
HTH,2022-08-08 18:55,-118.6315,38.5448,1282.89,89.60,44.60,21.04,100.00,7.00,0.00,30.12,M,10.00,M,CLR,M,M,M,M,M,M,M,M,M,M,M,M,M,M,86.07,KHTH 081855Z AUTO 10007KT 070V160 10SM CLR 32/07 A3012 RMK A01,M
EKO,2022-08-08 18:56,-115.7860,40.8242,1367.00,83.00,45.00,26.46,M,4.00,0.00,30.21,1017.00,10.00,M,CLR,M,M,M,M,M,M,M,M,M,M,M,M,M,M,80.86,KEKO 081856Z AUTO VRB04KT 10SM CLR 28/07 A3021 RMK AO2 SLP170 T02830072,M
NFL,2022-08-08 18:56,-118.7010,39.4166,1199.00,94.00,42.00,16.72,M,4.00,0.00,30.08,1015.30,10.00,M,SCT,SCT,BKN,M,8000.00,11000.00,17000.00,M,M,M,M,M,M,M,M,89.76,KNFL 081856Z VRB04KT 10SM SCT080 SCT110 BKN170 34/06 A3008 RMK AO2 SLP153 CB DSNT SE-SW T03440056,M
TPH,2022-08-08 18:56,-117.0904,38.0505,1654.00,86.00,47.00,25.74,170.00,10.00,0.00,30.23,1014.90,10.00,20.00,BKN,M,M,M,8500.00,M,M,M,M,M,M,M,M,M,M,83.27,KTPH 081856Z AUTO 17010G20KT 10SM BKN085 30/08 A3023 RMK AO2 SLP149 T03000083,M
HND,2022-08-08 18:56,-115.1344,35.9729,742.79,99.00,58.00,25.74,240.00,7.00,0.00,30.02,1014.30,10.00,M,CLR,M,M,M,M,M,M,M,M,M,M,M,M,M,M,98.49,KHND 081856Z 24007KT 10SM CLR 37/14 A3002 RMK AO2 SLP143 T03720144,M
LAS,2022-08-08 18:56,-115.1634,36.0719,663.00,99.00,57.00,24.92,190.00,3.00,0.00,29.98,1011.90,10.00,M,FEW,SCT,SCT,M,10000.00,16000.00,22000.00,M,M,M,M,M,M,M,M,98.12,KLAS 081856Z 19003KT 10SM FEW100 SCT160 SCT220 37/14 A2998 RMK AO2 SLP119 CB DSNT NW T03720139,M
WMC,2022-08-08 18:56,-117.8072,40.9019,1315.00,96.00,45.00,17.46,150.00,7.00,0.00,30.11,1013.40,10.00,M,CLR,M,M,M,M,M,M,M,M,M,M,M,M,M,M,92.17,KWMC 081856Z AUTO 15007KT 10SM CLR 36/07 A3011 RMK AO2 SLP134 T03560072,M
LSV,2022-08-08 18:58,-115.0343,36.2362,570.00,105.80,59.00,21.85,0.00,0.00,0.00,29.94,M,10.00,M,CLR,M,M,M,M,M,M,M,M,M,M,M,M,M,M,106.72,KLSV 081858Z AUTO 00000KT 10SM CLR 41/15 A2994 RMK AO2 SLPNO T04100150 $,M
INS,2022-08-08 18:58,-115.6733,36.5872,955.00,93.40,47.50,20.85,0.00,0.00,0.00,30.05,1012.00,10.00,M,OVC,M,M,M,13000.00,M,M,M,M,M,M,M,M,M,M,89.89,KINS 081858Z AUTO 00000KT 10SM OVC130 34/09 A3005 RMK AO2 SLP120 T03410086,M
TMT,2022-08-08 19:15,-117.1971,39.4643,1749.34,M,M,M,210.00,5.00,0.00,30.24,M,10.00,M,CLR,M,M,M,M,M,M,M,M,M,M,M,M,M,M,M,KTMT 081915Z AUTO 21005KT 10SM CLR A3024 RMK AO2 LTG DSNT SW AND W,M
CXP,2022-08-08 19:15,-119.7326,39.1923,1431.00,84.20,50.00,30.62,110.00,18.00,0.00,30.17,M,9.00,29.00,SCT,M,M,M,9500.00,M,M,M,M,M,M,M,M,M,M,82.24,KCXP 081915Z AUTO 11018G29KT 9SM SCT095 29/10 A3017 RMK AO2,M
RTS,2022-08-08 19:15,-119.8764,39.6682,1539.00,86.00,42.80,22.02,160.00,14.00,0.00,30.17,M,10.00,M,CLR,M,M,M,M,M,M,M,M,M,M,M,M,M,M,82.95,KRTS 081915Z AUTO 16014KT 120V180 10SM CLR 30/06 A3017 RMK AO2,M
MEV,2022-08-08 19:15,-119.7500,38.9963,1441.42,84.20,48.20,28.63,80.00,15.00,0.00,30.16,M,10.00,22.00,FEW,M,M,M,9500.00,M,M,M,M,M,M,M,M,M,M,82.04,KMEV 081915Z AUTO 08015G22KT 10SM FEW095 29/09 A3016 RMK AO2,M
BAM,2022-08-08 19:15,-116.8743,40.5990,1382.36,95.00,46.40,19.04,30.00,6.00,0.00,30.14,M,10.00,16.00,CLR,M,M,M,M,M,M,M,M,M,M,M,M,M,M,91.29,KBAM 081915Z AUTO 03006G16KT 10SM CLR 35/08 A3014 RMK AO1,M
HTH,2022-08-08 19:15,-118.6315,38.5448,1282.89,89.60,44.60,21.04,80.00,10.00,0.00,30.10,M,10.00,15.00,CLR,M,M,M,M,M,M,M,M,M,M,M,M,M,M,86.07,KHTH 081915Z AUTO 08010G15KT 10SM CLR 32/07 A3010 RMK A01,M
BVU,2022-08-08 19:15,-114.8611,35.9475,671.00,98.60,60.80,28.90,160.00,13.00,0.00,29.98,M,M,M,M,M,M,M,M,M,M,M,M,M,M,M,M,M,M,99.39,KBVU 081915Z AUTO 16013KT 37/16 A2998 RMK AO2 PWINO TSNO,M
RTS,2022-08-08 19:35,-119.8764,39.6682,1539.00,86.00,42.80,22.02,140.00,9.00,0.00,30.17,M,10.00,17.00,CLR,M,M,M,M,M,M,M,M,M,M,M,M,M,M,82.95,KRTS 081935Z AUTO 14009G17KT 10SM CLR 30/06 A3017 RMK AO2,M
BAM,2022-08-08 19:35,-116.8743,40.5990,1382.36,91.40,46.40,21.29,80.00,8.00,0.00,30.15,M,10.00,M,SCT,BKN,BKN,M,6000.00,7000.00,11000.00,M,M,M,M,M,M,M,M,87.86,KBAM 081935Z AUTO 08008KT 10SM SCT060 BKN070 BKN110 33/08 A3015 RMK AO1,M
HTH,2022-08-08 19:35,-118.6315,38.5448,1282.89,91.40,46.40,21.29,M,3.00,0.00,30.09,M,10.00,M,CLR,M,M,M,M,M,M,M,M,M,M,M,M,M,M,87.86,KHTH 081935Z AUTO VRB03KT 10SM CLR 33/08 A3009 RMK A01,M
TMT,2022-08-08 19:35,-117.1971,39.4643,1749.34,M,M,M,250.00,14.00,0.00,30.24,M,10.00,19.00,SCT,M,M,M,9500.00,M,M,M,VCTS,M,M,M,M,M,M,M,KTMT 081935Z AUTO 25014G19KT 10SM VCTS SCT095 A3024 RMK AO2 LTG DSNT S AND W,M
BVU,2022-08-08 19:35,-114.8611,35.9475,671.00,100.40,59.00,25.67,200.00,10.00,0.00,29.97,M,M,16.00,M,M,M,M,M,M,M,M,M,M,M,M,M,M,M,100.57,KBVU 081935Z AUTO 20010G16KT 38/15 A2997 RMK AO2 PWINO TSNO,M
CXP,2022-08-08 19:35,-119.7326,39.1923,1431.00,84.20,50.00,30.62,70.00,16.00,0.00,30.17,M,10.00,22.00,FEW,M,M,M,9500.00,M,M,M,M,M,M,M,M,M,M,82.24,KCXP 081935Z AUTO 07016G22KT 10SM FEW095 29/10 A3017 RMK AO2,M
MEV,2022-08-08 19:35,-119.7500,38.9963,1441.42,86.00,46.40,25.26,M,4.00,0.00,30.15,M,10.00,11.00,CLR,M,M,M,M,M,M,M,M,M,M,M,M,M,M,83.22,KMEV 081935Z AUTO VRB04G11KT 10SM CLR 30/08 A3015 RMK AO2,M
DRA,2022-08-08 19:53,-116.0278,36.6206,1009.00,94.00,51.00,23.48,240.00,6.00,0.00,30.05,1012.00,10.00,M,FEW,FEW,M,M,3200.00,8500.00,M,M,M,M,M,M,M,M,M,91.00,KDRA 081953Z AUTO 24006KT 10SM FEW032 FEW085 34/11 A3005 RMK AO2 SLP120 T03440106,M
VGT,2022-08-08 19:53,-115.1933,36.2111,667.00,102.00,56.00,21.88,90.00,3.00,0.00,29.95,1012.30,10.00,M,CLR,M,M,M,M,M,M,M,M,M,M,M,M,M,M,101.01,KVGT 081953Z 09003KT 10SM CLR 39/13 A2995 RMK AO2 SLP123 T03890133,M
ELY,2022-08-08 19:53,-114.8453,39.2950,1909.00,84.00,37.00,18.74,M,4.00,0.00,30.28,1014.90,10.00,M,CLR,M,M,M,M,M,M,M,M,M,M,M,M,M,M,81.23,KELY 081953Z AUTO VRB04KT 10SM CLR 29/03 A3028 RMK AO2 SLP149 T02890028,M
LOL,2022-08-08 19:53,-118.5701,40.0684,1192.43,95.00,43.00,16.73,160.00,7.00,0.00,30.06,1013.00,10.00,M,CLR,M,M,M,M,M,M,M,M,M,M,M,M,M,M,90.88,KLOL 081953Z AUTO 16007KT 140V200 10SM CLR 35/06 A3006 RMK AO2 SLP130 T03500061,M
BAM,2022-08-08 19:55,-116.8743,40.5990,1382.36,86.00,53.60,33.01,120.00,11.00,0.00,30.15,M,10.00,M,SCT,SCT,SCT,M,3400.00,6000.00,7000.00,M,M,M,M,M,M,M,M,84.18,KBAM 081955Z AUTO 12011KT 10SM SCT034 SCT060 SCT070 30/12 A3015 RMK AO1,M
BVU,2022-08-08 19:55,-114.8611,35.9475,671.00,100.40,59.00,25.67,150.00,8.00,0.00,29.97,M,M,17.00,M,M,M,M,M,M,M,M,M,M,M,M,M,M,M,100.57,KBVU 081955Z AUTO 15008G17KT 38/15 A2997 RMK AO2 PWINO TSNO,M
CXP,2022-08-08 19:55,-119.7326,39.1923,1431.00,84.20,48.20,28.63,60.00,15.00,0.00,30.16,M,10.00,M,CLR,M,M,M,M,M,M,M,M,M,M,M,M,M,M,82.04,KCXP 081955Z AUTO 06015KT 10SM CLR 29/09 A3016 RMK AO2,M
RNO,2022-08-08 19:55,-119.7711,39.4839,1341.00,81.00,59.00,47.17,140.00,13.00,T,30.13,1014.10,10.00,26.00,BKN,BKN,M,M,10000.00,18000.00,M,M,-RA,M,M,M,26.00,170.00,2022-08-08 19:46,81.40,KRNO 081955Z 14013G26KT 10SM -RA BKN100CB BKN180 27/15 A3013 RMK AO2 PK WND 17026/1946 RAE05B50 SLP141 CB OHD AND W MOV N CB DSNT E P0000 T02720150,M
RTS,2022-08-08 19:55,-119.8764,39.6682,1539.00,87.80,42.80,20.79,130.00,7.00,0.00,30.17,M,10.00,19.00,CLR,M,M,M,M,M,M,M,M,M,M,M,M,M,M,84.40,KRTS 081955Z AUTO 13007G19KT 080V170 10SM CLR 31/06 A3017 RMK AO2,M
MEV,2022-08-08 19:55,-119.7500,38.9963,1441.42,86.00,46.40,25.26,M,3.00,0.00,30.15,M,10.00,M,CLR,M,M,M,M,M,M,M,M,M,M,M,M,M,M,83.22,KMEV 081955Z AUTO VRB03KT 10SM CLR 30/08 A3015 RMK AO2,M
HTH,2022-08-08 19:55,-118.6315,38.5448,1282.89,91.40,44.60,19.89,10.00,5.00,0.00,30.08,M,10.00,M,SCT,M,M,M,10000.00,M,M,M,M,M,M,M,M,M,M,87.68,KHTH 081955Z AUTO 01005KT 10SM SCT100 33/07 A3008 RMK A01,M
TMT,2022-08-08 19:55,-117.1971,39.4643,1749.34,M,M,M,230.00,18.00,0.00,30.25,M,10.00,22.00,SCT,SCT,BKN,M,6500.00,7500.00,9500.00,M,RA,M,M,M,M,M,M,M,KTMT 081955Z AUTO 23018G22KT 10SM RA SCT065 SCT075 BKN095 A3025 RMK AO2 LTG DSNT S AND W,M
HND,2022-08-08 19:56,-115.1344,35.9729,742.79,99.00,57.00,24.92,260.00,7.00,0.00,30.00,1013.80,10.00,M,FEW,M,M,M,12000.00,M,M,M,M,M,M,M,M,M,M,98.12,KHND 081956Z 26007KT 10SM FEW120 37/14 A3000 RMK AO2 SLP138 T03720139,M
LAS,2022-08-08 19:56,-115.1634,36.0719,663.00,99.00,56.00,23.95,M,3.00,0.00,29.96,1011.20,10.00,M,FEW,SCT,BKN,M,10000.00,16000.00,22000.00,M,M,M,M,M,M,M,M,97.71,KLAS 081956Z VRB03KT 10SM FEW100 SCT160 BKN220 37/13 A2996 RMK AO2 SLP112 TCU SE T03720133,M
EKO,2022-08-08 19:56,-115.7860,40.8242,1367.00,84.00,44.00,24.68,30.00,5.00,0.00,30.19,1016.40,10.00,M,CLR,M,M,M,M,M,M,M,M,M,M,M,M,M,M,81.55,KEKO 081956Z AUTO 03005KT 10SM CLR 29/07 A3019 RMK AO2 SLP164 T02890067,M
TPH,2022-08-08 19:56,-117.0904,38.0505,1654.00,86.00,47.00,25.74,140.00,7.00,0.00,30.21,1014.50,10.00,26.00,BKN,M,M,M,9000.00,M,M,M,M,M,M,M,26.00,130.00,2022-08-08 19:47,83.27,KTPH 081956Z AUTO 14007G26KT 10SM BKN090 30/08 A3021 RMK AO2 PK WND 13026/1947 SLP145 T03000083,M
WMC,2022-08-08 19:56,-117.8072,40.9019,1315.00,99.00,44.00,15.44,10.00,7.00,0.00,30.08,1012.40,10.00,M,FEW,M,M,M,11000.00,M,M,M,M,M,M,M,M,M,M,94.87,KWMC 081956Z AUTO 01007KT 10SM FEW110 37/07 A3008 RMK AO2 SLP124 T03720067,M
NFL,2022-08-08 19:56,-118.7010,39.4166,1199.00,94.00,43.00,17.31,170.00,14.00,0.00,30.07,1015.00,10.00,19.00,SCT,BKN,BKN,M,8000.00,11000.00,17000.00,M,M,M,M,M,M,M,M,89.84,KNFL 081956Z COR 17014G19KT 10SM SCT080 BKN110 BKN170 34/06 A3007 RMK AO2 SLP150 CB DSNT SE-SW-W T03440061,M
INS,2022-08-08 19:58,-115.6733,36.5872,955.00,95.20,47.70,19.87,170.00,3.00,0.00,30.03,1011.30,10.00,M,CLR,M,M,M,M,M,M,M,M,M,M,M,M,M,M,91.68,KINS 081958Z AUTO 17003KT 10SM CLR 35/09 A3003 RMK AO2 SLP113 T03510087,M
LSV,2022-08-08 19:58,-115.0343,36.2362,570.00,105.30,57.20,20.78,200.00,4.00,0.00,29.92,M,10.00,M,FEW,SCT,BKN,M,15000.00,18000.00,20000.00,M,M,M,M,M,M,M,M,105.24,KLSV 081958Z AUTO 20004KT 10SM FEW150 SCT180 BKN200 41/14 A2992 RMK AO2 SLPNO T04070140 $,M
RNO,2022-08-08 20:10,-119.7711,39.4839,1341.00,82.00,50.00,32.88,140.00,11.00,T,30.12,M,10.00,22.00,BKN,BKN,M,M,10000.00,18000.00,M,M,-TSRA,M,M,M,M,M,M,80.73,KRNO 082010Z 14011G22KT 10SM -TSRA BKN100CB BKN180 28/10 A3012 RMK AO2 TSB04 CB N AND W MOV N CB DSNT NE P0000 T02780100,M
HTH,2022-08-08 20:15,-118.6315,38.5448,1282.89,89.60,46.40,22.53,280.00,19.00,0.00,30.08,M,10.00,24.00,BKN,M,M,M,10000.00,M,M,M,M,M,M,M,M,M,M,86.24,KHTH 082015Z AUTO 28019G24KT 10SM BKN100 32/08 A3008 RMK A01,M
TMT,2022-08-08 20:15,-117.1971,39.4643,1749.34,78.00,49.80,37.33,240.00,13.00,0.00,30.25,M,10.00,M,M,M,M,M,M,M,M,M,-TSDZ,M,M,M,M,M,M,77.90,KTMT 082015Z AUTO 24013KT 10SM -TSDZ 26/10 A3025 RMK AO2 LTG DSNT NW T02550099,M
BVU,2022-08-08 20:15,-114.8611,35.9475,671.00,100.40,59.00,25.67,150.00,10.00,0.00,29.95,M,M,18.00,M,M,M,M,M,M,M,M,M,M,M,M,M,M,M,100.57,KBVU 082015Z AUTO 15010G18KT 100V190 38/15 A2995 RMK AO2 PWINO TSNO,M
CXP,2022-08-08 20:15,-119.7326,39.1923,1431.00,86.00,44.60,23.59,60.00,12.00,0.00,30.16,M,10.00,M,CLR,M,M,M,M,M,M,M,M,M,M,M,M,M,M,83.07,KCXP 082015Z AUTO 06012KT 10SM CLR 30/07 A3016 RMK AO2,M
RTS,2022-08-08 20:15,-119.8764,39.6682,1539.00,82.40,48.20,30.35,140.00,25.00,0.00,30.17,M,10.00,33.00,FEW,M,M,M,10000.00,M,M,M,M,M,M,M,M,M,M,80.80,KRTS 082015Z AUTO 14025G33KT 10SM FEW100 28/09 A3017 RMK AO2,M
MEV,2022-08-08 20:15,-119.7500,38.9963,1441.42,86.00,50.00,28.90,240.00,8.00,0.00,30.14,M,10.00,M,FEW,FEW,SCT,M,4900.00,7000.00,9500.00,M,M,M,M,M,M,M,M,83.62,KMEV 082015Z AUTO 24008KT 10SM FEW049 FEW070 SCT095 30/10 A3014 RMK AO2,M
BAM,2022-08-08 20:15,-116.8743,40.5990,1382.36,89.60,51.80,27.56,100.00,17.00,0.00,30.14,M,10.00,22.00,CLR,M,M,M,M,M,M,M,M,M,M,M,M,M,M,87.00,KBAM 082015Z AUTO 10017G22KT 10SM CLR 32/11 A3014 RMK AO1,M
RNO,2022-08-08 20:21,-119.7711,39.4839,1341.00,84.00,50.00,30.82,120.00,12.00,T,30.11,M,10.00,19.00,BKN,BKN,M,M,8500.00,18000.00,M,M,M,M,M,M,M,M,M,82.09,KRNO 082021Z 12012G19KT 10SM BKN085 BKN180 29/10 A3011 RMK AO2 RAE12 TSB04E19 CB DSNT N AND NW MOV N P0000 T02890100 $,M
CXP,2022-08-08 20:35,-119.7326,39.1923,1431.00,84.20,44.60,24.99,40.00,7.00,0.00,30.14,M,10.00,M,FEW,FEW,SCT,M,6500.00,8000.00,10000.00,M,M,M,M,M,M,M,M,81.73,KCXP 082035Z AUTO 04007KT 020V080 10SM FEW065 FEW080 SCT100 29/07 A3014 RMK AO2,M
TMT,2022-08-08 20:35,-117.1971,39.4643,1749.34,M,M,M,230.00,14.00,0.00,30.25,M,10.00,19.00,SCT,SCT,SCT,M,7000.00,8500.00,11000.00,M,M,M,M,M,M,M,M,M,KTMT 082035Z AUTO 23014G19KT 10SM SCT070 SCT085 SCT110 A3025 RMK AO2 LTG DSNT S,M
MEV,2022-08-08 20:35,-119.7500,38.9963,1441.42,86.00,50.00,28.90,300.00,4.00,0.00,30.13,M,10.00,M,CLR,M,M,M,M,M,M,M,M,M,M,M,M,M,M,83.62,KMEV 082035Z AUTO 30004KT 10SM CLR 30/10 A3013 RMK AO2,M
BAM,2022-08-08 20:35,-116.8743,40.5990,1382.36,87.80,50.00,27.29,90.00,18.00,0.00,30.13,M,10.00,M,CLR,M,M,M,M,M,M,M,M,M,M,M,M,M,M,85.11,KBAM 082035Z AUTO 09018KT 10SM CLR 31/10 A3013 RMK AO1,M
HTH,2022-08-08 20:35,-118.6315,38.5448,1282.89,82.40,51.80,34.69,280.00,13.00,0.00,30.07,M,10.00,30.00,OVC,M,M,M,10000.00,M,M,M,M,M,M,M,M,M,M,81.20,KHTH 082035Z AUTO 28013G30KT 10SM OVC100 28/11 A3007 RMK A01,M
RTS,2022-08-08 20:35,-119.8764,39.6682,1539.00,80.60,48.20,32.18,130.00,13.00,0.00,30.18,M,10.00,20.00,FEW,M,M,M,10000.00,M,M,M,M,M,M,M,M,M,M,79.71,KRTS 082035Z AUTO 13013G20KT 10SM FEW100 27/09 A3018 RMK AO2,M
BVU,2022-08-08 20:35,-114.8611,35.9475,671.00,100.40,57.20,24.06,100.00,7.00,0.00,29.95,M,M,M,M,M,M,M,M,M,M,M,M,M,M,M,M,M,M,99.77,KBVU 082035Z AUTO 10007KT 38/14 A2995 RMK AO2 PWINO TSNO,M
TMT,2022-08-08 20:50,-117.1971,39.4643,1749.34,80.00,49.00,34.05,260.00,13.00,0.00,30.25,M,10.00,18.00,M,M,M,M,M,M,M,M,M,M,M,M,M,M,M,79.90,KTMT 082050Z AUTO 26013G18KT 10SM 27/10 A3025 RMK AO2 LTG DSNT N AND SW T02660095 PWINO,M
LOL,2022-08-08 20:53,-118.5701,40.0684,1192.43,97.00,43.00,15.73,190.00,6.00,0.00,30.04,1011.90,10.00,16.00,CLR,M,M,M,M,M,M,M,M,M,M,M,M,M,M,92.79,KLOL 082053Z AUTO 19006G16KT 10SM CLR 36/06 A3004 RMK AO2 SLP119 T03610061 58017,M
ELY,2022-08-08 20:53,-114.8453,39.2950,1909.00,84.00,36.00,18.01,0.00,0.00,0.00,30.27,1014.40,10.00,M,FEW,M,M,M,11000.00,M,M,M,M,M,M,M,M,M,M,81.20,KELY 082053Z AUTO 00000KT 10SM FEW110 29/02 A3027 RMK AO2 SLP144 T02890022 56016,M
VGT,2022-08-08 20:53,-115.1933,36.2111,667.00,103.00,56.00,21.30,M,4.00,0.00,29.92,1011.40,10.00,M,CLR,M,M,M,M,M,M,M,M,M,M,M,M,M,M,102.01,KVGT 082053Z VRB04KT 10SM CLR 39/13 A2992 RMK AO2 LTG DSNT SW SLP114 6//// T03940133 58022,M
DRA,2022-08-08 20:53,-116.0278,36.6206,1009.00,96.00,52.00,22.69,290.00,7.00,0.00,30.03,1011.20,10.00,15.00,CLR,M,M,M,M,M,M,M,M,M,M,M,M,M,M,93.44,KDRA 082053Z AUTO 29007G15KT 10SM CLR 36/11 A3003 RMK AO2 SLP112 T03560111 58013,M
CXP,2022-08-08 20:55,-119.7326,39.1923,1431.00,86.00,48.20,27.03,110.00,6.00,0.00,30.14,M,10.00,12.00,FEW,FEW,M,M,8000.00,10000.00,M,M,M,M,M,M,M,M,M,83.40,KCXP 082055Z AUTO 11006G12KT 10SM FEW080 FEW100 30/09 A3014 RMK AO2 LTG DSNT SE,M
BVU,2022-08-08 20:55,-114.8611,35.9475,671.00,100.40,57.20,24.06,210.00,6.00,0.00,29.94,M,M,14.00,M,M,M,M,M,M,M,M,M,M,M,M,M,M,M,99.77,KBVU 082055Z AUTO 21006G14KT 38/14 A2994 RMK AO2 PWINO TSNO,M
RTS,2022-08-08 20:55,-119.8764,39.6682,1539.00,84.20,44.60,24.99,160.00,9.00,0.00,30.17,M,10.00,14.00,CLR,M,M,M,M,M,M,M,M,M,M,M,M,M,M,81.73,KRTS 082055Z AUTO 16009G14KT 10SM CLR 29/07 A3017 RMK AO2,M
MEV,2022-08-08 20:55,-119.7500,38.9963,1441.42,87.80,48.20,25.52,M,6.00,0.00,30.12,M,10.00,M,CLR,M,M,M,M,M,M,M,M,M,M,M,M,M,M,84.87,KMEV 082055Z AUTO VRB06KT 10SM CLR 31/09 A3012 RMK AO2 LTG DSNT SE,M
BAM,2022-08-08 20:55,-116.8743,40.5990,1382.36,91.40,50.00,24.37,80.00,17.00,0.00,30.12,M,10.00,22.00,CLR,M,M,M,M,M,M,M,M,M,M,M,M,M,M,88.36,KBAM 082055Z AUTO 08017G22KT 10SM CLR 33/10 A3012 RMK AO1,M
HTH,2022-08-08 20:55,-118.6315,38.5448,1282.89,84.20,51.80,32.73,270.00,18.00,0.00,30.07,M,10.00,M,SCT,M,M,M,10000.00,M,M,M,M,M,M,M,M,M,M,82.48,KHTH 082055Z AUTO 27018KT 10SM SCT100 29/11 A3007 RMK A01,M
RNO,2022-08-08 20:55,-119.7711,39.4839,1341.00,86.00,53.00,32.41,290.00,8.00,T,30.10,1013.00,10.00,M,BKN,BKN,M,M,10000.00,23000.00,M,M,M,M,M,M,M,M,M,84.09,KRNO 082055Z 29008KT 10SM BKN100 BKN230 30/12 A3010 RMK AO2 LTG DSNT N RAE12 TSB04E19 SLP130 CB DSNT N P0000 60000 T03000117 58008 $,M
LAS,2022-08-08 20:56,-115.1634,36.0719,663.00,99.00,54.00,22.35,M,3.00,0.00,29.94,1010.50,10.00,M,FEW,SCT,BKN,M,10000.00,16000.00,22000.00,M,M,M,M,M,M,M,M,97.06,KLAS 082056Z VRB03KT 10SM FEW100 SCT160 BKN220 37/12 A2994 RMK AO2 LTG DSNT W SLP105 CB DSNT S AND W-NW T03720122 58020,M
EKO,2022-08-08 20:56,-115.7860,40.8242,1367.00,85.00,42.00,22.20,0.00,0.00,0.00,30.16,1015.70,10.00,M,CLR,M,M,M,M,M,M,M,M,M,M,M,M,M,M,82.08,KEKO 082056Z AUTO 00000KT 10SM CLR 29/06 A3016 RMK AO2 SLP157 T02940056 57022,M
LSV,2022-08-08 20:56,-115.0343,36.2362,570.00,104.50,58.00,21.83,150.00,7.00,0.00,29.89,M,10.00,15.00,SCT,BKN,M,M,12000.00,17000.00,M,M,M,M,M,M,M,M,M,104.69,KLSV 082056Z 15007G15KT 10SM SCT120 BKN170 40/14 A2989 RMK A02A LTG DSNT W SLPNO T04030144 57022 $,M
TPH,2022-08-08 20:56,-117.0904,38.0505,1654.00,86.00,49.00,27.74,160.00,8.00,T,30.20,1014.10,10.00,18.00,FEW,BKN,BKN,M,4300.00,9000.00,11000.00,M,-RA,M,M,M,M,M,M,83.48,KTPH 082056Z AUTO 16008G18KT 10SM -RA FEW043 BKN090 BKN110 30/09 A3020 RMK AO2 RAB53 SLP141 P0000 60000 T03000094 56015,M
NFL,2022-08-08 20:56,-118.7010,39.4166,1199.00,95.00,44.00,17.45,M,5.00,0.00,30.04,1014.00,10.00,15.00,SCT,BKN,BKN,M,8000.00,11000.00,17000.00,M,M,M,M,M,M,M,M,91.00,KNFL 082056Z VRB05G15KT 10SM SCT080 BKN110 BKN170 35/07 A3004 RMK AO2 WSHFT 1957 SLP140 CB DSNT NE-SE-S T03500067 58019,M
WMC,2022-08-08 20:56,-117.8072,40.9019,1315.00,97.00,43.00,15.73,0.00,0.00,0.00,30.06,1011.70,10.00,M,CLR,M,M,M,M,M,M,M,M,M,M,M,M,M,M,92.79,KWMC 082056Z AUTO 00000KT 10SM CLR 36/06 A3006 RMK AO2 SLP117 T03610061 58021,M
HND,2022-08-08 20:56,-115.1344,35.9729,742.79,100.00,59.00,25.98,320.00,7.00,0.00,29.98,1013.00,10.00,M,CLR,M,M,M,M,M,M,M,M,M,M,M,M,M,M,100.11,KHND 082056Z 32007KT 10SM CLR 38/15 A2998 RMK AO2 LTG DSNT W SLP130 T03780150 56019,M
INS,2022-08-08 20:58,-115.6733,36.5872,955.00,95.50,46.60,18.89,360.00,3.00,0.00,30.01,1010.80,10.00,M,SCT,SCT,M,M,17000.00,20000.00,M,M,M,M,M,M,M,M,M,91.80,KINS 082058Z AUTO 36003KT 10SM SCT170 SCT200 35/08 A3001 RMK AO2 SLP108 T03530081 57018,M
HTH,2022-08-08 21:15,-118.6315,38.5448,1282.89,77.00,60.80,57.36,160.00,29.00,0.00,30.15,M,2.50,46.00,FEW,SCT,BKN,M,400.00,5000.00,10000.00,M,HZ,M,M,M,M,M,M,77.00,KHTH 082115Z AUTO 16029G46KT 2 1/2SM HZ FEW004 SCT050 BKN100 25/16 A3015 RMK A01,M
BAM,2022-08-08 21:15,-116.8743,40.5990,1382.36,89.60,51.80,27.56,70.00,13.00,0.00,30.12,M,10.00,20.00,CLR,M,M,M,M,M,M,M,M,M,M,M,M,M,M,87.00,KBAM 082115Z AUTO 07013G20KT 10SM CLR 32/11 A3012 RMK AO1,M
TMT,2022-08-08 21:15,-117.1971,39.4643,1749.34,M,M,M,200.00,9.00,0.00,30.26,M,10.00,M,SCT,SCT,M,M,6500.00,9500.00,M,M,M,M,M,M,M,M,M,M,KTMT 082115Z AUTO 20009KT 10SM SCT065 SCT095 A3026 RMK AO2,M
BVU,2022-08-08 21:15,-114.8611,35.9475,671.00,100.40,59.00,25.67,120.00,7.00,0.00,29.93,M,M,13.00,M,M,M,M,M,M,M,M,M,M,M,M,M,M,M,100.57,KBVU 082115Z AUTO 12007G13KT 090V160 38/15 A2993 RMK AO2 PWINO TSNO,M
CXP,2022-08-08 21:15,-119.7326,39.1923,1431.00,87.80,46.40,23.85,M,5.00,0.00,30.13,M,10.00,10.00,CLR,M,M,M,M,M,M,M,M,M,M,M,M,M,M,84.68,KCXP 082115Z AUTO VRB05G10KT 10SM CLR 31/08 A3013 RMK AO2,M
RTS,2022-08-08 21:15,-119.8764,39.6682,1539.00,84.20,44.60,24.99,140.00,6.00,0.00,30.16,M,10.00,M,CLR,M,M,M,M,M,M,M,M,M,M,M,M,M,M,81.73,KRTS 082115Z AUTO 14006KT 10SM CLR 29/07 A3016 RMK AO2,M
MEV,2022-08-08 21:15,-119.7500,38.9963,1441.42,87.80,50.00,27.29,300.00,8.00,0.00,30.11,M,10.00,M,CLR,M,M,M,M,M,M,M,M,M,M,M,M,M,M,85.11,KMEV 082115Z AUTO 30008KT 10SM CLR 31/10 A3011 RMK AO2,M
BVU,2022-08-08 21:35,-114.8611,35.9475,671.00,100.40,57.20,24.06,130.00,8.00,0.00,29.92,M,M,14.00,M,M,M,M,M,M,M,M,M,M,M,M,M,M,M,99.77,KBVU 082135Z AUTO 13008G14KT 38/14 A2992 RMK AO2 PWINO TSNO,M
TMT,2022-08-08 21:35,-117.1971,39.4643,1749.34,M,M,M,200.00,16.00,0.00,30.26,M,10.00,19.00,SCT,M,M,M,9500.00,M,M,M,M,M,M,M,M,M,M,M,KTMT 082135Z AUTO 20016G19KT 10SM SCT095 A3026 RMK AO2,M
MEV,2022-08-08 21:35,-119.7500,38.9963,1441.42,87.80,48.20,25.52,350.00,7.00,0.00,30.10,M,10.00,12.00,CLR,M,M,M,M,M,M,M,M,M,M,M,M,M,M,84.87,KMEV 082135Z AUTO 35007G12KT 10SM CLR 31/09 A3010 RMK AO2,M
CXP,2022-08-08 21:35,-119.7326,39.1923,1431.00,87.80,44.60,22.27,M,3.00,0.00,30.12,M,10.00,M,CLR,M,M,M,M,M,M,M,M,M,M,M,M,M,M,84.53,KCXP 082135Z AUTO VRB03KT 10SM CLR 31/07 A3012 RMK AO2,M
RTS,2022-08-08 21:35,-119.8764,39.6682,1539.00,86.00,44.60,23.59,M,5.00,0.00,30.15,M,10.00,M,CLR,M,M,M,M,M,M,M,M,M,M,M,M,M,M,83.07,KRTS 082135Z AUTO VRB05KT 10SM CLR 30/07 A3015 RMK AO2,M
BAM,2022-08-08 21:35,-116.8743,40.5990,1382.36,91.40,46.40,21.29,100.00,3.00,0.00,30.12,M,10.00,M,CLR,M,M,M,M,M,M,M,M,M,M,M,M,M,M,87.86,KBAM 082135Z AUTO 10003KT 10SM CLR 33/08 A3012 RMK AO1,M
HTH,2022-08-08 21:35,-118.6315,38.5448,1282.89,73.40,57.20,56.88,320.00,8.00,0.00,30.11,M,5.00,M,FEW,SCT,BKN,M,500.00,3600.00,4800.00,M,HZ,M,M,M,M,M,M,73.40,KHTH 082135Z AUTO 32008KT 5SM HZ FEW005 SCT036 BKN048 23/14 A3011 RMK A01,M
LOL,2022-08-08 21:36,-118.5701,40.0684,1192.43,98.00,45.00,16.42,160.00,16.00,0.00,30.02,M,2.50,23.00,SCT,BKN,BKN,M,2000.00,2900.00,11000.00,M,HZ,M,M,M,M,M,M,94.12,KLOL 082136Z AUTO 16016G23KT 2 1/2SM HZ SCT020 BKN029 BKN110 37/07 A3002 RMK AO2 VIS 2V4 T03670072,M
LOL,2022-08-08 21:43,-118.5701,40.0684,1192.43,97.00,44.00,16.41,160.00,11.00,0.00,30.02,M,4.00,22.00,BKN,M,M,M,2600.00,M,M,M,HZ,M,M,M,M,M,M,92.92,KLOL 082143Z AUTO 16011G22KT 4SM HZ BKN026 36/07 A3002 RMK AO2 T03610067,M
DRA,2022-08-08 21:53,-116.0278,36.6206,1009.00,98.00,50.00,19.82,200.00,6.00,0.00,30.01,1010.30,10.00,16.00,CLR,M,M,M,M,M,M,M,M,M,M,M,M,M,M,95.04,KDRA 082153Z AUTO 20006G16KT 10SM CLR 37/10 A3001 RMK AO2 SLP103 T03670100,M
ELY,2022-08-08 21:53,-114.8453,39.2950,1909.00,83.00,38.00,20.11,330.00,3.00,0.00,30.26,1014.50,10.00,M,FEW,SCT,BKN,M,7000.00,8000.00,11000.00,M,M,M,M,M,M,M,M,80.49,KELY 082153Z AUTO 33003KT 10SM FEW070 SCT080 BKN110 28/03 A3026 RMK AO2 SLP145 T02830033,M
VGT,2022-08-08 21:53,-115.1933,36.2111,667.00,102.00,54.00,20.42,0.00,0.00,0.00,29.89,1010.70,10.00,M,CLR,M,M,M,M,M,M,M,M,M,M,M,M,M,M,100.30,KVGT 082153Z 00000KT 10SM CLR 39/12 A2989 RMK AO2 LTG DSNT S AND SW SLP107 T03890122,M
LOL,2022-08-08 21:53,-118.5701,40.0684,1192.43,97.00,44.00,16.41,180.00,8.00,0.00,30.01,1011.40,7.00,19.00,SCT,M,M,M,2400.00,M,M,M,M,M,M,M,M,M,M,92.92,KLOL 082153Z AUTO 18008G19KT 140V200 7SM SCT024 36/07 A3001 RMK AO2 SLP114 T03610067,M
RTS,2022-08-08 21:55,-119.8764,39.6682,1539.00,86.00,42.80,22.02,M,6.00,0.00,30.13,M,10.00,M,CLR,M,M,M,M,M,M,M,M,M,M,M,M,M,M,82.95,KRTS 082155Z AUTO VRB06KT 10SM CLR 30/06 A3013 RMK AO2,M
HTH,2022-08-08 21:55,-118.6315,38.5448,1282.89,73.40,59.00,60.67,110.00,3.00,0.12,30.11,M,10.00,M,FEW,FEW,SCT,M,4300.00,6000.00,11000.00,M,M,M,M,M,M,M,M,73.40,KHTH 082155Z AUTO 11003KT 10SM FEW043 FEW060 SCT110 23/15 A3011 RMK A01 P0012,M
TMT,2022-08-08 21:55,-117.1971,39.4643,1749.34,74.80,52.50,45.73,170.00,16.00,0.00,30.26,M,10.00,20.00,SCT,SCT,SCT,M,3300.00,4200.00,4900.00,M,RA,M,M,M,M,M,M,74.80,KTMT 082155Z AUTO 17016G20KT 10SM RA SCT033 SCT042 SCT049 24/11 A3026 RMK AO2 LTG DSNT W T02380114,M
BAM,2022-08-08 21:55,-116.8743,40.5990,1382.36,91.40,42.80,18.56,210.00,17.00,0.00,30.12,M,10.00,28.00,CLR,M,M,M,M,M,M,M,M,M,M,M,M,M,M,87.52,KBAM 082155Z AUTO 21017G28KT 10SM CLR 33/06 A3012 RMK AO1,M
BVU,2022-08-08 21:55,-114.8611,35.9475,671.00,100.40,57.20,24.06,0.00,0.00,0.00,29.91,M,M,11.00,M,M,M,M,M,M,M,M,M,M,M,M,M,M,M,99.77,KBVU 082155Z AUTO 00000G11KT 38/14 A2991 RMK AO2 PWINO TSNO,M
CXP,2022-08-08 21:55,-119.7326,39.1923,1431.00,89.60,44.60,21.04,M,6.00,0.00,30.10,M,10.00,M,CLR,M,M,M,M,M,M,M,M,M,M,M,M,M,M,86.07,KCXP 082155Z AUTO VRB06KT 10SM CLR 32/07 A3010 RMK AO2,M
RNO,2022-08-08 21:55,-119.7711,39.4839,1341.00,90.00,48.00,23.63,90.00,6.00,0.00,30.07,1011.70,10.00,M,SCT,SCT,M,M,10000.00,23000.00,M,M,M,M,M,M,M,M,M,86.78,KRNO 082155Z 09006KT 10SM SCT100 SCT230 32/09 A3007 RMK AO2 SLP117 CB DSNT NW T03220089,M
MEV,2022-08-08 21:55,-119.7500,38.9963,1441.42,87.80,46.40,23.85,0.00,0.00,0.00,30.09,M,10.00,M,CLR,M,M,M,M,M,M,M,M,M,M,M,M,M,M,84.68,KMEV 082155Z AUTO 00000KT 10SM CLR 31/08 A3009 RMK AO2,M
HND,2022-08-08 21:56,-115.1344,35.9729,742.79,102.00,57.00,22.77,230.00,8.00,0.00,29.95,1012.00,10.00,14.00,CLR,M,M,M,M,M,M,M,M,M,M,M,M,M,M,101.47,KHND 082156Z 23008G14KT 10SM CLR 39/14 A2995 RMK AO2 LTG DSNT S SLP120 T03890139,M
LSV,2022-08-08 21:56,-115.0343,36.2362,570.00,107.80,56.50,18.83,90.00,10.00,0.00,29.87,M,10.00,M,FEW,SCT,M,M,14000.00,20000.00,M,M,M,M,M,M,M,M,M,107.65,KLSV 082156Z 09010KT 10SM FEW140 SCT200 42/14 A2987 RMK LTG DSNT W SLPNO T04210136 $,M
WMC,2022-08-08 21:56,-117.8072,40.9019,1315.00,95.00,40.00,14.84,180.00,4.00,0.00,30.04,1011.20,10.00,M,CLR,M,M,M,M,M,M,M,M,M,M,M,M,M,M,90.61,KWMC 082156Z AUTO 18004KT 10SM CLR 35/04 A3004 RMK AO2 SLP112 T03500044,M
NFL,2022-08-08 21:56,-118.7010,39.4166,1199.00,95.00,44.00,17.45,220.00,9.00,0.00,30.01,1013.30,10.00,M,SCT,BKN,BKN,M,8000.00,11000.00,17000.00,M,M,M,M,M,M,M,M,91.00,KNFL 082156Z 22009KT 10SM SCT080 BKN110 BKN170 35/07 A3001 RMK AO2 SLP133 CB DSNT NE-SE-S T03500067,M
LAS,2022-08-08 21:56,-115.1634,36.0719,663.00,101.00,57.00,23.53,M,4.00,0.00,29.90,1009.40,10.00,M,FEW,SCT,BKN,M,10000.00,16000.00,22000.00,M,M,M,M,M,M,M,M,100.24,KLAS 082156Z VRB04KT 10SM FEW100CB SCT160 BKN220 38/14 A2990 RMK AO2 LTG DSNT S SLP094 CB DSNT VC S AND W AND DSNT ALQDS T03830139,M
TPH,2022-08-08 21:56,-117.0904,38.0505,1654.00,87.00,51.00,29.07,150.00,17.00,T,30.18,1013.70,10.00,27.00,FEW,BKN,BKN,M,7000.00,10000.00,11000.00,M,VCTS,M,M,M,27.00,150.00,2022-08-08 21:51,84.67,KTPH 082156Z AUTO 15017G27KT 10SM VCTS FEW070 BKN100 BKN110 31/11 A3018 RMK AO2 PK WND 15027/2151 WSHFT 2139 RAE30B46E55 SLP137 P0000 T03060106,M
EKO,2022-08-08 21:56,-115.7860,40.8242,1367.00,85.00,41.00,21.28,60.00,3.00,0.00,30.14,1014.90,10.00,M,CLR,M,M,M,M,M,M,M,M,M,M,M,M,M,M,82.03,KEKO 082156Z AUTO 06003KT 10SM CLR 29/05 A3014 RMK AO2 SLP149 T02940050,M
INS,2022-08-08 21:58,-115.6733,36.5872,955.00,94.80,48.70,20.89,220.00,3.00,0.00,29.98,1009.60,10.00,M,BKN,M,M,M,17000.00,M,M,M,M,M,M,M,M,M,M,91.45,KINS 082158Z AUTO 22003KT 10SM BKN170 35/09 A2998 RMK AO2 SLP096 T03490093,M
TPH,2022-08-08 22:14,-117.0904,38.0505,1654.00,85.00,48.00,27.79,160.00,12.00,0.00,30.18,M,10.00,M,FEW,SCT,M,M,7000.00,9000.00,M,M,M,M,M,M,M,M,M,82.53,KTPH 082214Z AUTO 16012KT 10SM FEW070 SCT090 29/09 A3018 RMK AO2 LTG DSNT SE AND W T02940089,M
BAM,2022-08-08 22:15,-116.8743,40.5990,1382.36,86.00,48.20,27.03,260.00,28.00,0.00,30.12,M,5.00,38.00,SCT,SCT,BKN,M,6500.00,8500.00,12000.00,M,M,M,M,M,M,M,M,83.40,KBAM 082215Z AUTO 26028G38KT 5SM SCT065 SCT085 BKN120 30/09 A3012 RMK AO1,M
RTS,2022-08-08 22:15,-119.8764,39.6682,1539.00,87.80,41.00,19.40,M,5.00,0.00,30.13,M,10.00,M,CLR,M,M,M,M,M,M,M,M,M,M,M,M,M,M,84.30,KRTS 082215Z AUTO VRB05KT 10SM CLR 31/05 A3013 RMK AO2,M
MEV,2022-08-08 22:15,-119.7500,38.9963,1441.42,89.60,46.40,22.53,280.00,5.00,0.00,30.09,M,10.00,M,FEW,M,M,M,11000.00,M,M,M,M,M,M,M,M,M,M,86.24,KMEV 082215Z AUTO 28005KT 10SM FEW110 32/08 A3009 RMK AO2,M
HTH,2022-08-08 22:15,-118.6315,38.5448,1282.89,78.80,59.00,50.69,120.00,13.00,0.00,30.11,M,10.00,M,FEW,M,M,M,10000.00,M,M,M,M,M,M,M,M,M,M,78.80,KHTH 082215Z AUTO 12013KT 10SM FEW100 26/15 A3011 RMK A01,M
TMT,2022-08-08 22:15,-117.1971,39.4643,1749.34,M,M,M,100.00,7.00,0.00,30.23,M,10.00,M,SCT,SCT,SCT,M,3400.00,4100.00,4900.00,M,-RA,M,M,M,M,M,M,M,KTMT 082215Z AUTO 10007KT 10SM -RA SCT034 SCT041 SCT049 A3023 RMK AO2,M
BVU,2022-08-08 22:15,-114.8611,35.9475,671.00,100.40,59.00,25.67,170.00,7.00,0.00,29.90,M,M,18.00,M,M,M,M,M,M,M,M,M,M,M,M,M,M,M,100.57,KBVU 082215Z AUTO 17007G18KT 060V200 38/15 A2990 RMK AO2 PWINO TSNO,M
CXP,2022-08-08 22:15,-119.7326,39.1923,1431.00,89.60,44.60,21.04,M,3.00,0.00,30.10,M,10.00,M,CLR,M,M,M,M,M,M,M,M,M,M,M,M,M,M,86.07,KCXP 082215Z AUTO VRB03KT 10SM CLR 32/07 A3010 RMK AO2,M
TMT,2022-08-08 22:35,-117.1971,39.4643,1749.34,M,M,M,0.00,0.00,0.00,30.22,M,10.00,M,SCT,M,M,M,11000.00,M,M,M,M,M,M,M,M,M,M,M,KTMT 082235Z AUTO 00000KT 10SM SCT110 A3022 RMK AO2,M
CXP,2022-08-08 22:35,-119.7326,39.1923,1431.00,89.60,44.60,21.04,240.00,7.00,0.00,30.09,M,10.00,M,FEW,M,M,M,9500.00,M,M,M,M,M,M,M,M,M,M,86.07,KCXP 082235Z AUTO 24007KT 220V290 10SM FEW095 32/07 A3009 RMK AO2,M
BVU,2022-08-08 22:35,-114.8611,35.9475,671.00,100.40,57.20,24.06,140.00,7.00,0.00,29.89,M,M,13.00,M,M,M,M,M,M,M,M,M,M,M,M,M,M,M,99.77,KBVU 082235Z AUTO 14007G13KT 38/14 A2989 RMK AO2 PWINO TSNO,M
HTH,2022-08-08 22:35,-118.6315,38.5448,1282.89,80.60,55.40,41.97,0.00,0.00,0.00,30.08,M,10.00,M,CLR,M,M,M,M,M,M,M,M,M,M,M,M,M,M,80.53,KHTH 082235Z AUTO 00000KT 10SM CLR 27/13 A3008 RMK A01,M
RTS,2022-08-08 22:35,-119.8764,39.6682,1539.00,87.80,41.00,19.40,150.00,6.00,0.00,30.12,M,10.00,M,CLR,M,M,M,M,M,M,M,M,M,M,M,M,M,M,84.30,KRTS 082235Z AUTO 15006KT 10SM CLR 31/05 A3012 RMK AO2,M
MEV,2022-08-08 22:35,-119.7500,38.9963,1441.42,87.80,46.40,23.85,0.00,0.00,0.00,30.08,M,10.00,M,SCT,M,M,M,11000.00,M,M,M,M,M,M,M,M,M,M,84.68,KMEV 082235Z AUTO 00000KT 10SM SCT110 31/08 A3008 RMK AO2,M
BAM,2022-08-08 22:35,-116.8743,40.5990,1382.36,82.40,50.00,32.46,250.00,19.00,0.00,30.13,M,10.00,31.00,SCT,SCT,BKN,M,6500.00,8500.00,11000.00,M,M,M,M,M,M,M,M,80.99,KBAM 082235Z AUTO 25019G31KT 10SM SCT065 SCT085 BKN110 28/10 A3013 RMK AO1,M
WMC,2022-08-08 22:46,-117.8072,40.9019,1315.00,87.00,48.00,25.90,160.00,19.00,T,30.06,M,10.00,31.00,SCT,SCT,BKN,M,4500.00,9500.00,12000.00,M,-RA,M,M,M,31.00,170.00,2022-08-08 22:46,84.27,KWMC 082246Z AUTO 16019G31KT 10SM -RA SCT045 SCT095 BKN120 31/09 A3006 RMK AO2 PK WND 17031/2246 WSHFT 2226 LTG DSNT E RAB40 P0000 T03060089,M
TMT,2022-08-08 22:50,-117.1971,39.4643,1749.34,M,M,M,30.00,3.00,0.00,30.22,M,10.00,M,SCT,M,M,M,11000.00,M,M,M,M,M,M,M,M,M,M,M,KTMT 082250Z AUTO 03003KT 10SM SCT110 A3022 RMK AO2 LTG DSNT S,M
ELY,2022-08-08 22:53,-114.8453,39.2950,1909.00,82.00,40.00,22.39,290.00,5.00,0.00,30.23,1013.90,10.00,M,FEW,SCT,M,M,10000.00,12000.00,M,M,M,M,M,M,M,M,M,79.98,KELY 082253Z AUTO 29005KT 10SM FEW100 SCT120 28/04 A3023 RMK AO2 SLP139 T02780044,M
LOL,2022-08-08 22:53,-118.5701,40.0684,1192.43,95.00,44.00,17.45,M,5.00,0.00,29.99,1010.70,10.00,M,CLR,M,M,M,M,M,M,M,M,M,M,M,M,M,M,91.00,KLOL 082253Z AUTO VRB05KT 10SM CLR 35/07 A2999 RMK AO2 LTG DSNT S SLP107 T03500067,M
VGT,2022-08-08 22:53,-115.1933,36.2111,667.00,103.00,56.00,21.30,190.00,8.00,0.00,29.87,1009.80,10.00,M,CLR,M,M,M,M,M,M,M,M,M,M,M,M,M,M,102.01,KVGT 082253Z 19008KT 10SM CLR 39/13 A2987 RMK AO2 SLP098 T03940133,M
DRA,2022-08-08 22:53,-116.0278,36.6206,1009.00,97.00,47.00,18.25,200.00,8.00,0.00,29.98,1009.30,10.00,M,CLR,M,M,M,M,M,M,M,M,M,M,M,M,M,M,93.33,KDRA 082253Z AUTO 20008KT 10SM CLR 36/08 A2998 RMK AO2 SLP093 T03610083,M
BAM,2022-08-08 22:55,-116.8743,40.5990,1382.36,82.40,50.00,32.46,230.00,16.00,0.00,30.14,M,10.00,27.00,OVC,M,M,M,10000.00,M,M,M,M,M,M,M,M,M,M,80.99,KBAM 082255Z AUTO 23016G27KT 10SM OVC100 28/10 A3014 RMK AO1,M
RNO,2022-08-08 22:55,-119.7711,39.4839,1341.00,91.00,49.00,23.68,330.00,6.00,0.00,30.04,1010.90,10.00,M,SCT,SCT,M,M,11000.00,25000.00,M,M,M,M,M,M,M,M,M,87.82,KRNO 082255Z 33006KT 10SM SCT110 SCT250 33/09 A3004 RMK AO2 LTG DSNT SE SLP109 CB DSNT SE THRU S T03280094,M
BVU,2022-08-08 22:55,-114.8611,35.9475,671.00,100.40,59.00,25.67,M,4.00,0.00,29.88,M,M,17.00,M,M,M,M,M,M,M,M,M,M,M,M,M,M,M,100.57,KBVU 082255Z AUTO VRB04G17KT 38/15 A2988 RMK AO2 PWINO TSNO,M
CXP,2022-08-08 22:55,-119.7326,39.1923,1431.00,89.60,46.40,22.53,170.00,3.00,0.00,30.09,M,10.00,M,BKN,BKN,M,M,9500.00,12000.00,M,M,M,M,M,M,M,M,M,86.24,KCXP 082255Z AUTO 17003KT 10SM BKN095 BKN120 32/08 A3009 RMK AO2 LTG DSNT E,M
RTS,2022-08-08 22:55,-119.8764,39.6682,1539.00,87.80,42.80,20.79,130.00,4.00,0.00,30.11,M,10.00,M,FEW,FEW,M,M,10000.00,12000.00,M,M,M,M,M,M,M,M,M,84.40,KRTS 082255Z AUTO 13004KT 10SM FEW100 FEW120 31/06 A3011 RMK AO2,M
MEV,2022-08-08 22:55,-119.7500,38.9963,1441.42,87.80,48.20,25.52,70.00,8.00,0.00,30.07,M,10.00,M,BKN,M,M,M,10000.00,M,M,M,M,M,M,M,M,M,M,84.87,KMEV 082255Z AUTO 07008KT 10SM BKN100 31/09 A3007 RMK AO2,M
HTH,2022-08-08 22:55,-118.6315,38.5448,1282.89,80.60,60.80,50.95,160.00,15.00,0.00,30.12,M,10.00,22.00,FEW,SCT,M,M,10000.00,12000.00,M,M,M,M,M,M,M,M,M,81.46,KHTH 082255Z AUTO 16015G22KT 10SM FEW100 SCT120 27/16 A3012 RMK A01,M
WMC,2022-08-08 22:56,-117.8072,40.9019,1315.00,81.00,55.00,40.83,160.00,22.00,T,30.07,1013.20,8.00,34.00,FEW,FEW,BKN,M,4300.00,10000.00,12000.00,M,-RA,M,M,M,34.00,150.00,2022-08-08 22:47,80.73,KWMC 082256Z AUTO 16022G34KT 8SM -RA FEW043 FEW100 BKN120 27/13 A3007 RMK AO2 PK WND 15034/2247 WSHFT 2226 RAB40 PRESRR SLP132 P0000 T02720128,M
TPH,2022-08-08 22:56,-117.0904,38.0505,1654.00,87.00,49.00,26.79,160.00,15.00,0.00,30.16,1012.70,10.00,M,BKN,M,M,M,10000.00,M,M,M,M,M,M,M,M,M,M,84.37,KTPH 082256Z AUTO 16015KT 10SM BKN100 31/09 A3016 RMK AO2 LTG DSNT W AND NW SLP127 T03060094,M
EKO,2022-08-08 22:56,-115.7860,40.8242,1367.00,83.00,39.00,21.00,0.00,0.00,0.00,30.13,1014.80,10.00,M,CLR,M,M,M,M,M,M,M,M,M,M,M,M,M,M,80.53,KEKO 082256Z AUTO 00000KT 10SM CLR 28/04 A3013 RMK AO2 SLP148 T02830039,M
LAS,2022-08-08 22:56,-115.1634,36.0719,663.00,100.00,55.00,22.49,M,3.00,0.00,29.88,1008.60,10.00,M,FEW,SCT,BKN,M,10000.00,16000.00,22000.00,M,M,M,M,M,M,M,M,98.48,KLAS 082256Z COR VRB03KT 10SM FEW100CB SCT160 BKN220 38/13 A2988 RMK AO2 SLP086 CB VC S AND W AND DSNT ALQDS T03780128,M
HND,2022-08-08 22:56,-115.1344,35.9729,742.79,95.00,60.00,31.47,200.00,19.00,0.00,29.92,1011.40,10.00,22.00,CLR,M,M,M,M,M,M,M,M,M,M,M,M,M,M,94.98,KHND 082256Z 20019G22KT 10SM CLR 35/16 A2992 RMK AO2 SLP114 T03500156,M
LSV,2022-08-08 22:56,-115.0343,36.2362,570.00,105.80,53.40,17.84,130.00,7.00,0.00,29.83,M,10.00,M,SCT,BKN,M,M,12000.00,17000.00,M,M,M,M,M,M,M,M,M,104.16,KLSV 082256Z 13007KT 10SM SCT120 BKN170 41/12 A2983 RMK A02A LGT DSNT S SLPNO T04100119 $,M
NFL,2022-08-08 22:56,-118.7010,39.4166,1199.00,84.00,53.00,34.56,190.00,26.00,0.00,30.06,1014.60,4.00,39.00,SCT,BKN,BKN,M,8000.00,12000.00,25000.00,M,BLDU,M,M,M,40.00,190.00,2022-08-08 22:46,82.52,KNFL 082256Z 19026G39KT 4SM BLDU SCT080 BKN120 BKN250 29/12 A3006 RMK AO2 PK WND 19040/2246 SLP146 OCNL LTGICCG DSNT SE-S CB DSNT SE-S T02890117,M
INS,2022-08-08 22:58,-115.6733,36.5872,955.00,95.70,48.20,19.94,170.00,3.00,0.00,29.96,1009.10,10.00,M,BKN,M,M,M,20000.00,M,M,M,M,M,M,M,M,M,M,92.26,KINS 082258Z AUTO 17003KT 10SM BKN200 35/09 A2996 RMK AO2 SLP091 T03540090,M
MEV,2022-08-08 23:15,-119.7500,38.9963,1441.42,78.80,57.20,47.52,110.00,17.00,0.00,30.08,M,8.00,24.00,FEW,FEW,BKN,M,4500.00,6500.00,9000.00,M,-RA,M,M,M,M,M,M,78.80,KMEV 082315Z AUTO 11017G24KT 8SM -RA FEW045 FEW065 BKN090 26/14 A3008 RMK AO2 LTG DSNT NE-SE,M
BVU,2022-08-08 23:15,-114.8611,35.9475,671.00,102.20,59.00,24.32,170.00,10.00,0.00,29.87,M,M,M,M,M,M,M,M,M,M,M,M,M,M,M,M,M,M,102.62,KBVU 082315Z AUTO 17010KT 39/15 A2987 RMK AO2 PWINO TSNO,M
CXP,2022-08-08 23:15,-119.7326,39.1923,1431.00,80.60,59.00,47.79,110.00,14.00,0.00,30.10,M,3.00,21.00,FEW,BKN,BKN,M,7500.00,9000.00,12000.00,M,-RA HZ,M,M,M,M,M,M,81.11,KCXP 082315Z AUTO 11014G21KT 3SM -RA HZ FEW075 BKN090 BKN120 27/15 A3010 RMK AO2 LTG DSNT SE,M
RTS,2022-08-08 23:15,-119.8764,39.6682,1539.00,87.80,42.80,20.79,180.00,5.00,0.00,30.11,M,10.00,11.00,FEW,M,M,M,10000.00,M,M,M,M,M,M,M,M,M,M,84.40,KRTS 082315Z AUTO 18005G11KT 10SM FEW100 31/06 A3011 RMK AO2,M
BAM,2022-08-08 23:15,-116.8743,40.5990,1382.36,80.60,51.80,36.79,200.00,18.00,0.00,30.16,M,10.00,24.00,SCT,OVC,M,M,9000.00,11000.00,M,M,M,M,M,M,M,M,M,80.08,KBAM 082315Z AUTO 20018G24KT 10SM SCT090 OVC110 27/11 A3016 RMK AO1,M
HTH,2022-08-08 23:15,-118.6315,38.5448,1282.89,73.40,60.80,64.69,180.00,18.00,0.00,30.10,M,2.00,36.00,FEW,SCT,BKN,M,300.00,3100.00,12000.00,M,HZ,M,M,M,M,M,M,73.40,KHTH 082315Z AUTO 18018G36KT 2SM HZ FEW003 SCT031 BKN120 23/16 A3010 RMK A01,M
TMT,2022-08-08 23:15,-117.1971,39.4643,1749.34,M,M,M,350.00,4.00,0.00,30.20,M,10.00,M,SCT,M,M,M,12000.00,M,M,M,M,M,M,M,M,M,M,M,KTMT 082315Z AUTO 35004KT 10SM SCT120 A3020 RMK AO2,M
RTS,2022-08-08 23:35,-119.8764,39.6682,1539.00,86.00,42.80,22.02,70.00,6.00,0.00,30.11,M,10.00,M,FEW,FEW,M,M,10000.00,12000.00,M,M,M,M,M,M,M,M,M,82.95,KRTS 082335Z AUTO 07006KT 10SM FEW100 FEW120 30/06 A3011 RMK AO2,M
BVU,2022-08-08 23:35,-114.8611,35.9475,671.00,102.20,57.20,22.79,220.00,10.00,0.00,29.88,M,M,20.00,M,M,M,M,M,M,M,M,M,M,M,M,M,M,M,101.78,KBVU 082335Z AUTO 22010G20KT 39/14 A2988 RMK AO2 PWINO TSNO,M
MEV,2022-08-08 23:35,-119.7500,38.9963,1441.42,75.20,62.60,64.91,100.00,13.00,0.00,30.08,M,10.00,M,FEW,FEW,BKN,M,4300.00,6500.00,9000.00,M,M,M,M,M,M,M,M,75.20,KMEV 082335Z AUTO 10013KT 10SM FEW043 FEW065 BKN090 24/17 A3008 RMK AO2 LTG DSNT SE,M
CXP,2022-08-08 23:35,-119.7326,39.1923,1431.00,77.00,55.40,47.25,40.00,17.00,0.00,30.11,M,10.00,22.00,FEW,FEW,BKN,M,6000.00,8000.00,9500.00,M,M,M,M,M,M,M,M,77.00,KCXP 082335Z AUTO 04017G22KT 10SM FEW060 FEW080 BKN095 25/13 A3011 RMK AO2 LTG DSNT SE,M
HTH,2022-08-08 23:35,-118.6315,38.5448,1282.89,75.20,59.00,57.12,140.00,10.00,0.00,30.09,M,9.00,M,SCT,SCT,SCT,M,3400.00,5000.00,9000.00,M,M,M,M,M,M,M,M,75.20,KHTH 082335Z AUTO 14010KT 9SM SCT034 SCT050 SCT090 24/15 A3009 RMK A01,M
BAM,2022-08-08 23:35,-116.8743,40.5990,1382.36,78.80,55.40,44.52,190.00,9.00,0.00,30.16,M,10.00,16.00,OVC,M,M,M,10000.00,M,M,M,M,M,M,M,M,M,M,78.80,KBAM 082335Z AUTO 19009G16KT 10SM OVC100 26/13 A3016 RMK AO1,M
TMT,2022-08-08 23:35,-117.1971,39.4643,1749.34,M,M,M,340.00,6.00,0.00,30.19,M,10.00,M,SCT,M,M,M,12000.00,M,M,M,M,M,M,M,M,M,M,M,KTMT 082335Z AUTO 34006KT 10SM SCT120 A3019 RMK AO2 LTG DSNT S AND SW,M
NFL,2022-08-08 23:37,-118.7010,39.4166,1199.00,80.00,58.00,46.70,80.00,9.00,T,30.04,M,10.00,M,BKN,OVC,M,M,8000.00,12000.00,M,M,-RA,M,M,M,35.00,190.00,2022-08-08 22:57,80.58,KNFL 082337Z 08009KT 10SM -RA BKN080 OVC120 27/14 A3004 RMK AO2 PK WND 19035/2257 WSHFT 2317 RAB07 CB DSNT NE-E AND SW-W P0000 T02670144,M
LOL,2022-08-08 23:49,-118.5701,40.0684,1192.43,89.60,50.00,25.79,170.00,31.00,T,30.03,M,0.25,44.00,FEW,BKN,M,M,200.00,11000.00,M,M,-RA SQ,M,M,M,44.00,170.00,2022-08-08 23:46,86.70,KLOL 082349Z AUTO 17031G44KT 1/4SM -RA SQ FEW002 BKN110 32/10 A3003 RMK AO2 PK WND 17044/2346 LTG DSNT SE AND S RAB49 PRESRR P0000,M
VGT,2022-08-08 23:53,-115.1933,36.2111,667.00,102.00,54.00,20.42,200.00,6.00,0.00,29.86,1009.50,10.00,M,CLR,M,M,M,M,M,M,M,M,M,M,M,M,M,M,100.30,KVGT 082353Z 20006KT 10SM CLR 39/12 A2986 RMK AO2 SLP095 6//// T03890122 10400 20356 56020,M
LOL,2022-08-08 23:53,-118.5701,40.0684,1192.43,82.00,55.00,39.52,180.00,37.00,T,30.03,1012.80,0.25,48.00,SCT,BKN,M,M,200.00,11000.00,M,M,-RA SQ,M,M,M,48.00,180.00,2022-08-08 23:53,81.40,KLOL 082353Z AUTO 18037G48KT 1/4SM -RA SQ SCT002 BKN110 28/13 A3003 RMK AO2 PK WND 18048/2353 LTG DSNT SE AND W RAB49 SLP128 P0000 60000 T02780128 10367 20278 55003,M
ELY,2022-08-08 23:53,-114.8453,39.2950,1909.00,84.00,38.00,19.41,0.00,0.00,0.00,30.22,1013.40,10.00,M,BKN,M,M,M,11000.00,M,M,M,M,M,M,M,M,M,M,81.25,KELY 082353Z AUTO 00000KT 10SM BKN110 29/03 A3022 RMK AO2 SLP134 T02890033 10311 20272 58014,M
DRA,2022-08-08 23:53,-116.0278,36.6206,1009.00,96.00,46.00,18.13,M,3.00,0.00,29.96,1008.80,10.00,M,CLR,M,M,M,M,M,M,M,M,M,M,M,M,M,M,92.30,KDRA 082353Z AUTO VRB03KT 10SM CLR 36/08 A2996 RMK AO2 SLP088 T03560078 10372 20339 56020,M
RTS,2022-08-08 23:55,-119.8764,39.6682,1539.00,86.00,44.60,23.59,140.00,21.00,0.00,30.11,M,10.00,28.00,FEW,FEW,M,M,10000.00,12000.00,M,M,M,M,M,M,M,M,M,83.07,KRTS 082355Z AUTO 14021G28KT 10SM FEW100 FEW120 30/07 A3011 RMK AO2,M
TMT,2022-08-08 23:55,-117.1971,39.4643,1749.34,M,M,M,310.00,4.00,0.00,30.19,M,10.00,M,CLR,M,M,M,M,M,M,M,M,M,M,M,M,M,M,M,KTMT 082355Z AUTO 31004KT 10SM CLR A3019 RMK AO2 LTG DSNT S AND SW 6////,M
MEV,2022-08-08 23:55,-119.7500,38.9963,1441.42,80.60,60.80,50.95,90.00,7.00,0.00,30.08,M,10.00,M,BKN,M,M,M,9000.00,M,M,M,M,M,M,M,M,M,M,81.46,KMEV 082355Z AUTO 09007KT 10SM BKN090 27/16 A3008 RMK AO2,M
BAM,2022-08-08 23:55,-116.8743,40.5990,1382.36,78.80,55.40,44.52,170.00,9.00,0.00,30.15,M,10.00,M,SCT,OVC,M,M,7000.00,10000.00,M,M,M,M,M,M,M,M,M,78.80,KBAM 082355Z AUTO 17009KT 10SM SCT070 OVC100 26/13 A3015 RMK AO1,M
CXP,2022-08-08 23:55,-119.7326,39.1923,1431.00,78.80,53.60,41.69,50.00,16.00,0.00,30.10,M,10.00,23.00,FEW,SCT,BKN,M,3200.00,5000.00,6500.00,M,M,M,M,M,M,M,M,78.80,KCXP 082355Z AUTO 05016G23KT 10SM FEW032 SCT050 BKN065 26/12 A3010 RMK AO2,M
BVU,2022-08-08 23:55,-114.8611,35.9475,671.00,102.20,57.20,22.79,M,4.00,0.00,29.87,M,M,14.00,M,M,M,M,M,M,M,M,M,M,M,M,M,M,M,101.78,KBVU 082355Z AUTO VRB04G14KT 39/14 A2987 RMK AO2 PWINO TSNO,M
RNO,2022-08-08 23:55,-119.7711,39.4839,1341.00,79.00,57.00,46.87,120.00,16.00,0.00,30.06,1012.50,10.00,25.00,BKN,BKN,M,M,10000.00,25000.00,M,M,VCTS,M,M,M,M,M,M,79.00,KRNO 082355Z 12016G25KT 10SM VCTS BKN100 BKN250 26/14 A3006 RMK AO2 SLP125 CB DSNT SE THRU NE 60000 T02610139 10333 20261 55012,M
HTH,2022-08-08 23:55,-118.6315,38.5448,1282.89,75.20,59.00,57.12,160.00,12.00,0.07,30.08,M,10.00,M,CLR,M,M,M,M,M,M,M,M,M,M,M,M,M,M,75.20,KHTH 082355Z AUTO 16012KT 10SM CLR 24/15 A3008 RMK A01 P0007,M
WMC,2022-08-08 23:56,-117.8072,40.9019,1315.00,90.00,50.00,25.46,180.00,19.00,T,30.04,1011.90,10.00,29.00,FEW,M,M,M,11000.00,M,M,M,M,M,M,M,35.00,180.00,2022-08-08 23:05,87.06,KWMC 082356Z AUTO 18019G29KT 10SM FEW110 32/10 A3004 RMK AO2 PK WND 18035/2305 RAE39 SLP119 P0000 60000 T03220100 10372 20256 58004,M
TPH,2022-08-08 23:56,-117.0904,38.0505,1654.00,85.00,49.00,28.74,160.00,13.00,0.00,30.15,1012.90,10.00,M,BKN,M,M,M,11000.00,M,M,M,M,M,M,M,28.00,170.00,2022-08-08 23:15,82.63,KTPH 082356Z AUTO 16013KT 10SM BKN110 29/09 A3015 RMK AO2 PK WND 17028/2315 LTG DSNT SW AND NW SLP129 60000 T02940094 10317 20261 56013,M
NFL,2022-08-08 23:56,-118.7010,39.4166,1199.00,85.00,55.00,35.99,70.00,10.00,T,30.05,1014.50,10.00,M,BKN,OVC,M,M,8000.00,12000.00,M,M,M,M,M,M,35.00,190.00,2022-08-08 22:57,83.56,KNFL 082356Z 07010KT 10SM BKN080 OVC120 29/13 A3005 RMK AO2 PK WND 19035/2257 WSHFT 2317 RAB07E41 SLP145 CB DSNT NE-E AND SW-W P0000 60000 T02940128 10361 20256 53005,M
HND,2022-08-08 23:56,-115.1344,35.9729,742.79,97.00,59.00,28.46,240.00,12.00,0.00,29.92,1011.30,10.00,M,CLR,M,M,M,M,M,M,M,M,M,M,M,M,M,M,96.72,KHND 082356Z 24012KT 10SM CLR 36/15 A2992 RMK AO2 SLP113 T03610150 10389 20344 56017,M
LAS,2022-08-08 23:56,-115.1634,36.0719,663.00,98.00,57.00,25.61,200.00,10.00,0.00,29.88,1008.60,10.00,M,SCT,SCT,BKN,M,12000.00,16000.00,22000.00,M,M,M,M,M,M,M,M,97.13,KLAS 082356Z 20010KT 10SM SCT120 SCT160 BKN220 37/14 A2988 RMK AO2 SLP086 ACC N-E CB DSNT ALQDS T03670139 10389 20356 56019,M
EKO,2022-08-08 23:56,-115.7860,40.8242,1367.00,77.00,44.00,31.02,290.00,22.00,0.00,30.13,1015.70,10.00,32.00,CLR,M,M,M,M,M,M,M,M,M,M,M,33.00,290.00,2022-08-08 23:46,77.00,KEKO 082356Z AUTO 29022G32KT 10SM CLR 25/07 A3013 RMK AO2 PK WND 29033/2346 SLP157 T02500067 10300 20239 55008,M
LSV,2022-08-08 23:58,-115.0343,36.2362,570.00,103.80,56.00,20.88,180.00,15.00,0.00,29.82,M,10.00,M,SCT,BKN,M,M,13000.00,17000.00,M,M,M,M,M,M,M,M,M,103.08,KLSV 082358Z 18015KT 10SM SCT130 BKN170 40/13 A2982 RMK AO2A SLPNO T03990134 10423 20394 57022 $,M
INS,2022-08-08 23:58,-115.6733,36.5872,955.00,96.30,48.60,19.87,230.00,4.00,0.00,29.95,1008.70,10.00,M,CLR,M,M,M,M,M,M,M,M,M,M,M,M,M,M,92.93,KINS 082358Z AUTO 23004KT 10SM CLR 36/09 A2995 RMK AO2 SLP087 T03570092 10368 20336 57018,M
