station,valid,lon,lat,elevation,tmpf,dwpf,relh,drct,sknt,p01i,alti,mslp,vsby,gust,skyc1,skyc2,skyc3,skyc4,skyl1,skyl2,skyl3,skyl4,wxcodes,ice_accretion_1hr,ice_accretion_3hr,ice_accretion_6hr,peak_wind_gust,peak_wind_drct,peak_wind_time,feel,metar,snowdepth
LOL,2024-02-07 00:00,-118.5701,40.0684,1192.43,36.00,34.00,92.35,0.00,0.00,0.01,29.58,M,9.00,M,SCT,BKN,OVC,M,500.00,2600.00,3300.00,M,-RA,M,M,M,M,M,M,36.00,KLOL 070000Z AUTO 00000KT 9SM -RA SCT005 BKN026 OVC033 02/01 A2958 RMK AO2 P0001 T00220011,M
NFL,2024-02-07 00:07,-118.7010,39.4166,1199.00,40.00,35.00,82.15,360.00,8.00,0.00,29.58,M,10.00,M,SCT,BKN,OVC,M,1000.00,2000.00,3000.00,M,M,M,M,M,M,M,M,33.97,KNFL 070007Z 36008KT 10SM SCT010 BKN020 OVC030 04/02 A2958 RMK AO2 WR// T00440017,M
EKO,2024-02-07 00:08,-115.7860,40.8242,1367.00,38.00,34.00,85.35,60.00,4.00,0.01,29.50,M,9.00,M,OVC,M,M,M,1700.00,M,M,M,-RA,M,M,M,M,M,M,34.43,KEKO 070008Z AUTO 06004KT 9SM -RA OVC017 03/01 A2950 RMK AO2 P0001 T00330011,M
BVU,2024-02-07 00:15,-114.8611,35.9475,671.00,48.20,42.80,81.47,240.00,9.00,0.00,29.57,M,1.75,20.00,SCT,BKN,OVC,M,300.00,1300.00,3200.00,M,+RA,M,M,M,M,M,M,43.66,KBVU 070015Z AUTO 24009G20KT 1 3/4SM +RA SCT003 BKN013 OVC032 09/06 A2957 RMK AO2,M
CXP,2024-02-07 00:15,-119.7326,39.1923,1431.00,39.20,30.20,69.88,310.00,6.00,0.00,29.59,M,10.00,M,FEW,M,M,M,6000.00,M,M,M,M,M,M,M,M,M,M,34.20,KCXP 070015Z AUTO 31006KT 10SM FEW060 04/M01 A2959 RMK AO2,M
RTS,2024-02-07 00:15,-119.8764,39.6682,1539.00,37.40,28.40,69.67,350.00,8.00,0.00,29.60,M,10.00,M,FEW,FEW,M,M,3900.00,5000.00,M,M,M,M,M,M,M,M,M,30.76,KRTS 070015Z AUTO 35008KT 10SM FEW039 FEW050 03/M02 A2960 RMK AO2,M
05U,2024-02-07 00:15,-116.0051,39.6042,1811.23,M,M,M,70.00,6.00,0.00,29.52,M,9.00,M,M,M,M,M,M,M,M,M,M,M,M,M,M,M,M,M,K05U 070015Z AUTO 07006KT 9SM A2952 RMK A01,M
MEV,2024-02-07 00:15,-119.7500,38.9963,1441.42,37.40,32.00,80.65,0.00,0.00,0.00,29.59,M,10.00,M,CLR,M,M,M,M,M,M,M,M,M,M,M,M,M,M,37.40,KMEV 070015Z AUTO 00000KT 10SM CLR 03/M00 A2959 RMK AO2,M
BAM,2024-02-07 00:15,-116.8743,40.5990,1382.36,39.20,37.40,93.19,320.00,6.00,0.00,29.52,M,4.00,M,SCT,BKN,OVC,M,600.00,1500.00,3600.00,M,M,M,M,M,M,M,M,34.20,KBAM 070015Z AUTO 32006KT 4SM SCT006 BKN015 OVC036 04/03 A2952 RMK AO1,M
HTH,2024-02-07 00:15,-118.6315,38.5448,1282.89,41.00,33.80,75.33,260.00,5.00,0.00,29.58,M,10.00,M,FEW,M,M,M,2200.00,M,M,M,M,M,M,M,M,M,M,37.08,KHTH 070015Z AUTO 26005KT 10SM FEW022 05/01 A2958 RMK A01,M
TMT,2024-02-07 00:15,-117.1971,39.4643,1749.34,35.00,30.60,83.80,230.00,7.00,0.00,29.54,M,10.00,M,BKN,OVC,M,M,2100.00,3900.00,M,M,M,M,M,M,M,M,M,28.44,KTMT 070015Z AUTO 23007KT 10SM BKN021 OVC039 02/M01 A2954 RMK AO2 T00171008,M
INS,2024-02-07 00:32,-115.6733,36.5872,955.00,44.60,41.00,87.09,50.00,4.00,0.00,29.57,1000.30,10.00,M,FEW,SCT,BKN,M,1600.00,4100.00,6000.00,M,M,M,M,M,M,M,M,42.13,KINS 070032Z AUTO 05004KT 10SM FEW016 SCT041 BKN060 07/05 A2957 RMK AO2 RAE29DZB29E32 SLP003 $,M
BVU,2024-02-07 00:35,-114.8611,35.9475,671.00,46.40,42.80,87.19,160.00,4.00,0.00,29.58,M,3.00,M,FEW,BKN,OVC,M,300.00,2800.00,3300.00,M,-RA,M,M,M,M,M,M,44.24,KBVU 070035Z AUTO 16004KT 3SM -RA FEW003 BKN028 OVC033 08/06 A2958 RMK AO2,M
CXP,2024-02-07 00:35,-119.7326,39.1923,1431.00,39.20,30.20,69.88,270.00,5.00,0.00,29.59,M,10.00,M,SCT,BKN,BKN,M,3100.00,3600.00,4800.00,M,M,M,M,M,M,M,M,34.95,KCXP 070035Z AUTO 27005KT 10SM SCT031 BKN036 BKN048 04/M01 A2959 RMK AO2,M
EKO,2024-02-07 00:35,-115.7860,40.8242,1367.00,38.00,34.00,85.35,0.00,0.00,0.02,29.49,M,6.00,M,FEW,OVC,M,M,800.00,1400.00,M,M,-RA BR,M,M,M,M,M,M,38.00,KEKO 070035Z AUTO 00000KT 6SM -RA BR FEW008 OVC014 03/01 A2949 RMK AO2 P0002 T00330011,M
RTS,2024-02-07 00:35,-119.8764,39.6682,1539.00,37.40,28.40,69.67,330.00,6.00,0.00,29.60,M,10.00,M,BKN,M,M,M,5500.00,M,M,M,M,M,M,M,M,M,M,32.03,KRTS 070035Z AUTO 33006KT 10SM BKN055 03/M02 A2960 RMK AO2,M
05U,2024-02-07 00:35,-116.0051,39.6042,1811.23,M,M,M,70.00,3.00,0.00,29.52,M,10.00,M,M,M,M,M,M,M,M,M,M,M,M,M,M,M,M,M,K05U 070035Z AUTO 07003KT 10SM A2952 RMK A01,M
MEV,2024-02-07 00:35,-119.7500,38.9963,1441.42,37.40,32.00,80.65,0.00,0.00,0.00,29.59,M,10.00,M,CLR,M,M,M,M,M,M,M,M,M,M,M,M,M,M,37.40,KMEV 070035Z AUTO 00000KT 10SM CLR 03/M00 A2959 RMK AO2,M
BAM,2024-02-07 00:35,-116.8743,40.5990,1382.36,39.20,37.40,93.19,300.00,7.00,0.00,29.52,M,5.00,M,SCT,SCT,OVC,M,600.00,1000.00,1500.00,M,M,M,M,M,M,M,M,33.56,KBAM 070035Z AUTO 30007KT 5SM SCT006 SCT010 OVC015 04/03 A2952 RMK AO1,M
HTH,2024-02-07 00:35,-118.6315,38.5448,1282.89,41.00,33.80,75.33,220.00,4.00,0.00,29.58,M,10.00,M,CLR,M,M,M,M,M,M,M,M,M,M,M,M,M,M,37.93,KHTH 070035Z AUTO 22004KT 10SM CLR 05/01 A2958 RMK A01,M
TMT,2024-02-07 00:35,-117.1971,39.4643,1749.34,34.00,30.00,85.11,240.00,10.00,0.00,29.54,M,10.00,M,BKN,OVC,M,M,2800.00,3900.00,M,M,M,M,M,M,M,M,M,25.48,KTMT 070035Z AUTO 24010KT 10SM BKN028 OVC039 01/M01 A2954 RMK AO2 T00111011,M
ELY,2024-02-07 00:38,-114.8453,39.2950,1909.00,34.00,31.00,88.63,180.00,12.00,0.01,29.51,M,9.00,21.00,OVC,M,M,M,3300.00,M,M,M,-SN,M,M,M,M,M,M,24.55,KELY 070038Z AUTO 18012G21KT 9SM -SN OVC033 01/M01 A2951 RMK AO2 UPE2354B22E29SNB2354E22B29 P0001 T00111006,M
VGT,2024-02-07 00:39,-115.1933,36.2111,667.00,50.00,46.00,86.06,90.00,3.00,T,29.56,M,10.00,M,BKN,BKN,OVC,M,1000.00,8000.00,11000.00,M,M,M,M,M,M,M,M,50.00,KVGT 070039Z 09003KT 10SM BKN010 BKN080 OVC110 10/08 A2956 RMK AO2 RAB06E19 P0000 T01000078,M
INS,2024-02-07 00:47,-115.6733,36.5872,955.00,44.60,39.20,81.20,0.00,0.00,0.00,29.57,1000.30,10.00,M,BKN,BKN,BKN,BKN,1700.00,4100.00,6000.00,8000.00,M,M,M,M,M,M,M,44.60,KINS 070047Z AUTO 00000KT 10SM BKN017 BKN041 BKN060 BKN080 07/04 A2957 RMK AO2 RAE29DZB29E32 BKN017 V SCT SLP003 $,M
LOL,2024-02-07 00:51,-118.5701,40.0684,1192.43,35.60,35.60,100.00,60.00,5.00,0.01,29.58,M,10.00,M,FEW,SCT,OVC,M,600.00,3500.00,6000.00,M,M,M,M,M,M,M,M,30.67,KLOL 070051Z AUTO 06005KT 10SM FEW006 SCT035 OVC060 02/02 A2958 RMK AO2 RAE42 P0001,M
DRA,2024-02-07 00:53,-116.0278,36.6206,1009.00,44.00,41.00,89.11,150.00,3.00,0.00,29.56,999.90,10.00,M,BKN,BKN,OVC,M,3200.00,3800.00,4800.00,M,M,M,M,M,M,M,M,42.41,KDRA 070053Z AUTO 15003KT 10SM BKN032 BKN038 OVC048 07/05 A2956 RMK AO2 SLP999 T00670050,M
ELY,2024-02-07 00:53,-114.8453,39.2950,1909.00,34.00,31.00,88.63,190.00,10.00,0.01,29.51,997.90,10.00,M,SCT,BKN,OVC,M,3500.00,4200.00,10000.00,M,M,M,M,M,M,M,M,25.48,KELY 070053Z AUTO 19010KT 10SM SCT035 BKN042 OVC100 01/M01 A2951 RMK AO2 UPE2354B22E29SNB2354E22B29E39 SLP979 P0001 T00111006,M
VGT,2024-02-07 00:53,-115.1933,36.2111,667.00,50.00,46.00,86.06,110.00,5.00,T,29.57,1002.80,5.00,M,BKN,BKN,OVC,M,3000.00,7500.00,10000.00,M,-RA BR,M,M,M,M,M,M,50.00,KVGT 070053Z 11005KT 5SM -RA BR BKN030 BKN075 OVC100 10/08 A2957 RMK AO2 RAB06E19B50 SLP028 P0000 T01000078,M
LOL,2024-02-07 00:53,-118.5701,40.0684,1192.43,35.00,35.00,100.00,60.00,5.00,0.01,29.58,1002.50,10.00,M,FEW,SCT,BKN,M,600.00,3800.00,6000.00,M,M,M,M,M,M,M,M,29.96,KLOL 070053Z AUTO 06005KT 10SM FEW006 SCT038 BKN060 02/02 A2958 RMK AO2 RAE42 SLP025 P0001 T00170017,M
P68,2024-02-07 00:53,-116.0056,39.6014,1993.00,35.00,32.00,88.68,220.00,4.00,0.00,29.49,996.90,M,M,M,M,M,M,M,M,M,M,M,M,M,M,M,M,M,30.92,KP68 070053Z AUTO 22004KT 02/00 A2949 RMK AO1 SLP969 T00170000,M
BVU,2024-02-07 00:55,-114.8611,35.9475,671.00,46.40,44.60,93.40,270.00,3.00,0.00,29.58,M,4.00,M,BKN,OVC,M,M,3100.00,4000.00,M,M,-RA,M,M,M,M,M,M,45.15,KBVU 070055Z AUTO 27003KT 4SM -RA BKN031 OVC040 08/07 A2958 RMK AO2,M
CXP,2024-02-07 00:55,-119.7326,39.1923,1431.00,39.20,30.20,69.88,0.00,0.00,0.00,29.60,M,10.00,M,SCT,SCT,OVC,M,3000.00,3400.00,4900.00,M,M,M,M,M,M,M,M,39.20,KCXP 070055Z AUTO 00000KT 10SM SCT030 SCT034 OVC049 04/M01 A2960 RMK AO2,M
INS,2024-02-07 00:55,-115.6733,36.5872,955.00,45.00,39.70,81.55,0.00,0.00,T,29.57,1000.30,10.00,M,BKN,BKN,OVC,M,1700.00,6000.00,8000.00,M,M,M,M,M,M,M,M,45.00,KINS 070055Z AUTO 00000KT 10SM BKN017 BKN060 OVC080 07/04 A2957 RMK AO2 RAE29DZB29E32 SLP003 P0000 T00720043 $,M
RNO,2024-02-07 00:55,-119.7711,39.4839,1341.00,41.00,29.00,62.04,360.00,9.00,0.00,29.59,1001.40,10.00,18.00,SCT,BKN,M,M,4500.00,15000.00,M,M,M,M,M,M,M,M,M,34.70,KRNO 070055Z 36009G18KT 10SM SCT045 BKN150 05/M02 A2959 RMK AO2 SLP014 MTN TOPS OBSCD DSNT SW THRU NW T00501017,M
RTS,2024-02-07 00:55,-119.8764,39.6682,1539.00,35.60,28.40,74.80,340.00,7.00,0.00,29.60,M,10.00,M,SCT,M,M,M,5500.00,M,M,M,M,M,M,M,M,M,M,29.17,KRTS 070055Z AUTO 34007KT 10SM SCT055 02/M02 A2960 RMK AO2,M
05U,2024-02-07 00:55,-116.0051,39.6042,1811.23,M,M,M,20.00,4.00,0.00,29.52,M,10.00,M,M,M,M,M,M,M,M,M,M,M,M,M,M,M,M,M,K05U 070055Z AUTO 02004KT 10SM A2952 RMK A01,M
MEV,2024-02-07 00:55,-119.7500,38.9963,1441.42,35.60,30.20,80.51,0.00,0.00,0.00,29.59,M,10.00,M,SCT,M,M,M,2500.00,M,M,M,M,M,M,M,M,M,M,35.60,KMEV 070055Z AUTO 00000KT 10SM SCT025 02/M01 A2959 RMK AO2,M
BAM,2024-02-07 00:55,-116.8743,40.5990,1382.36,37.40,35.60,93.14,320.00,5.00,0.00,29.53,M,5.00,M,BKN,OVC,M,M,900.00,1500.00,M,M,M,M,M,M,M,M,M,32.81,KBAM 070055Z AUTO 32005KT 5SM BKN009 OVC015 03/02 A2953 RMK AO1,M
HTH,2024-02-07 00:55,-118.6315,38.5448,1282.89,41.00,35.60,80.93,210.00,3.00,0.00,29.58,M,10.00,M,CLR,M,M,M,M,M,M,M,M,M,M,M,M,M,M,38.98,KHTH 070055Z AUTO 21003KT 10SM CLR 05/02 A2958 RMK A01,M
LSV,2024-02-07 00:55,-115.0343,36.2362,570.00,51.00,47.50,87.76,90.00,3.00,0.00,29.55,1000.20,10.00,M,SCT,BKN,BKN,M,2300.00,3000.00,6000.00,M,M,M,M,M,M,M,M,51.00,KLSV 070055Z AUTO 09003KT 10SM SCT023 BKN030 BKN060 11/09 A2955 RMK AO2 SLP002 T01050086 $,M
TMT,2024-02-07 00:55,-117.1971,39.4643,1749.34,33.80,29.70,84.75,240.00,9.00,0.00,29.54,M,10.00,M,OVC,M,M,M,2800.00,M,M,M,M,M,M,M,M,M,M,25.75,KTMT 070055Z AUTO 24009KT 10SM OVC028 01/M01 A2954 RMK AO2 T00101013,M
EKO,2024-02-07 00:56,-115.7860,40.8242,1367.00,37.00,34.00,88.78,0.00,0.00,0.03,29.49,998.60,6.00,M,OVC,M,M,M,1200.00,M,M,M,-RA BR,M,M,M,M,M,M,37.00,KEKO 070056Z AUTO 00000KT 6SM -RA BR OVC012 03/01 A2949 RMK AO2 SLP986 P0003 T00280011,M
NFL,2024-02-07 00:56,-118.7010,39.4166,1199.00,40.00,36.00,85.48,360.00,6.00,0.00,29.58,1000.30,10.00,M,SCT,BKN,OVC,M,1000.00,2000.00,3000.00,M,M,M,M,M,M,M,M,35.17,KNFL 070056Z 36006KT 10SM SCT010 BKN020 OVC030 04/02 A2958 RMK AO2 SLP003 WR// T00440022,M
HND,2024-02-07 00:56,-115.1344,35.9729,742.79,47.00,43.00,85.89,210.00,17.00,0.04,29.60,1004.00,10.00,M,BKN,OVC,M,M,4200.00,4900.00,M,M,RA,M,M,M,M,M,M,39.73,KHND 070056Z 21017KT 10SM RA BKN042 OVC049 08/06 A2960 RMK AO2 RAE00B28 SLP040 P0004 T00830061,M
TPH,2024-02-07 00:56,-117.0904,38.0505,1654.00,34.00,30.00,85.11,310.00,4.00,0.00,29.55,1000.70,10.00,M,FEW,M,M,M,1800.00,M,M,M,M,M,M,M,M,M,M,29.76,KTPH 070056Z AUTO 31004KT 10SM FEW018 01/M01 A2955 RMK AO2 SLP007 T00111011,M
LAS,2024-02-07 00:56,-115.1634,36.0719,663.00,48.00,47.00,96.31,0.00,0.00,T,29.58,1001.30,7.00,M,FEW,SCT,BKN,OVC,1200.00,4300.00,8000.00,18000.00,-RA,M,M,M,M,M,M,48.00,KLAS 070056Z 00000KT 7SM -RA FEW012 SCT043 BKN080 OVC180 09/08 A2958 RMK AO2 RAE03B45 SLP013 P0000 T00890083,M
WMC,2024-02-07 00:56,-117.8072,40.9019,1315.00,35.00,32.00,88.68,270.00,11.00,0.01,29.55,1001.10,7.00,M,OVC,M,M,M,1300.00,M,M,M,-SN,M,M,M,M,M,M,26.26,KWMC 070056Z AUTO 27011KT 7SM -SN OVC013 02/00 A2955 RMK AO2 UPB02E40SNE2359B40 SLP011 P0001 T00170000,M
LSV,2024-02-07 01:03,-115.0343,36.2362,570.00,51.80,48.20,87.47,0.00,0.00,0.00,29.55,1000.20,10.00,M,BKN,BKN,M,M,2200.00,2900.00,M,M,-RA,M,M,M,M,M,M,51.80,KLSV 070103Z AUTO 00000KT 10SM -RA BKN022 BKN029 11/09 A2955 RMK AO2 RAB03 CIG 022V030 SLP002 $,M
LAS,2024-02-07 01:03,-115.1634,36.0719,663.00,48.00,47.00,96.31,0.00,0.00,0.01,29.58,M,7.00,M,SCT,SCT,BKN,OVC,600.00,1200.00,5000.00,15000.00,-RA,M,M,M,M,M,M,48.00,KLAS 070103Z 00000KT 7SM -RA SCT006 SCT012 BKN050 OVC150 09/08 A2958 RMK AO2 P0001 T00890083,M
CXP,2024-02-07 01:10,-119.7326,39.1923,1431.00,39.20,30.20,69.88,330.00,4.00,0.00,29.61,M,10.00,M,FEW,OVC,M,M,3300.00,4900.00,M,M,M,M,M,M,M,M,M,35.83,KCXP 070110Z AUTO 33004KT 10SM FEW033 OVC049 04/M01 A2961 RMK AO2,M
05U,2024-02-07 01:10,-116.0051,39.6042,1811.23,M,M,M,0.00,0.00,0.00,29.52,M,10.00,M,M,M,M,M,M,M,M,M,M,M,M,M,M,M,M,M,K05U 070110Z AUTO 00000KT 10SM A2952 RMK A01,M
HTH,2024-02-07 01:10,-118.6315,38.5448,1282.89,39.20,35.60,86.79,0.00,0.00,0.00,29.59,M,10.00,M,CLR,M,M,M,M,M,M,M,M,M,M,M,M,M,M,39.20,KHTH 070110Z AUTO 00000KT 10SM CLR 04/02 A2959 RMK A01,M
TPH,2024-02-07 01:13,-117.0904,38.0505,1654.00,34.00,30.00,85.11,M,3.00,0.00,29.55,M,10.00,M,BKN,M,M,M,2200.00,M,M,M,M,M,M,M,M,M,M,30.97,KTPH 070113Z AUTO VRB03KT 10SM BKN022 01/M01 A2955 RMK AO2 T00111011,M
LSV,2024-02-07 01:13,-115.0343,36.2362,570.00,51.80,46.40,81.74,190.00,3.00,0.00,29.55,1000.20,9.00,M,SCT,SCT,M,M,2200.00,3000.00,M,M,-RA,M,M,M,M,M,M,51.80,KLSV 070113Z AUTO 19003KT 9SM -RA SCT022 SCT030 11/08 A2955 RMK AO2 RAB03E04DZB04E05RAB05 SLP002 $,M
BVU,2024-02-07 01:15,-114.8611,35.9475,671.00,46.40,44.60,93.40,240.00,3.00,0.00,29.59,M,4.00,M,FEW,SCT,BKN,M,2600.00,3100.00,4100.00,M,-RA,M,M,M,M,M,M,45.15,KBVU 070115Z AUTO 24003KT 4SM -RA FEW026 SCT031 BKN041 08/07 A2959 RMK AO2,M
INS,2024-02-07 01:15,-115.6733,36.5872,955.00,44.60,41.00,87.09,350.00,3.00,0.00,29.57,1000.30,10.00,M,SCT,OVC,M,M,1800.00,9000.00,M,M,M,M,M,M,M,M,M,43.09,KINS 070115Z AUTO 35003KT 10SM SCT018 OVC090 07/05 A2957 RMK AO2 SLP003 $,M
DRA,2024-02-07 01:15,-116.0278,36.6206,1009.00,44.00,41.00,89.11,140.00,4.00,0.00,29.56,M,10.00,M,OVC,M,M,M,2900.00,M,M,M,M,M,M,M,M,M,M,41.43,KDRA 070115Z AUTO 14004KT 10SM OVC029 07/05 A2956 RMK AO2 T00670050,M
RTS,2024-02-07 01:15,-119.8764,39.6682,1539.00,35.60,28.40,74.80,330.00,5.00,0.00,29.61,M,10.00,M,CLR,M,M,M,M,M,M,M,M,M,M,M,M,M,M,30.67,KRTS 070115Z AUTO 33005KT 10SM CLR 02/M02 A2961 RMK AO2,M
MEV,2024-02-07 01:15,-119.7500,38.9963,1441.42,32.00,30.20,92.97,0.00,0.00,0.00,29.60,M,10.00,M,BKN,BKN,OVC,M,2600.00,4100.00,5000.00,M,M,M,M,M,M,M,M,32.00,KMEV 070115Z AUTO 00000KT 10SM BKN026 BKN041 OVC050 00/M01 A2960 RMK AO2,M
BAM,2024-02-07 01:15,-116.8743,40.5990,1382.36,37.40,35.60,93.14,240.00,5.00,0.00,29.53,M,7.00,M,OVC,M,M,M,900.00,M,M,M,M,M,M,M,M,M,M,32.81,KBAM 070115Z AUTO 24005KT 7SM OVC009 03/02 A2953 RMK AO1,M
TMT,2024-02-07 01:15,-117.1971,39.4643,1749.34,33.30,30.20,88.24,240.00,11.00,0.00,29.55,M,10.00,M,BKN,OVC,M,M,2600.00,3200.00,M,M,M,M,M,M,M,M,M,24.11,KTMT 070115Z AUTO 24011KT 10SM BKN026 OVC032 01/M01 A2955 RMK AO2 T00071010,M
ELY,2024-02-07 01:26,-114.8453,39.2950,1909.00,33.00,31.00,92.25,210.00,11.00,0.00,29.52,M,10.00,M,BKN,BKN,OVC,M,1600.00,2600.00,4600.00,M,M,M,M,M,M,M,M,23.73,KELY 070126Z AUTO 21011KT 10SM BKN016 BKN026 OVC046 01/M01 A2952 RMK AO2 T00061006,M
05U,2024-02-07 01:30,-116.0051,39.6042,1811.23,M,M,M,0.00,0.00,0.00,29.53,M,10.00,M,M,M,M,M,M,M,M,M,M,M,M,M,M,M,M,M,K05U 070130Z AUTO 00000KT 10SM A2953 RMK A01,M
LSV,2024-02-07 01:33,-115.0343,36.2362,570.00,50.00,48.20,93.50,240.00,3.00,0.00,29.56,1000.70,10.00,M,CLR,M,M,M,M,M,M,M,M,M,M,M,M,M,M,50.00,KLSV 070133Z AUTO 24003KT 10SM CLR 10/09 A2956 RMK AO2 RAB03E04DZB04E05RAB05E33 SLP007 $,M
BVU,2024-02-07 01:35,-114.8611,35.9475,671.00,46.40,46.40,100.00,0.00,0.00,0.00,29.59,M,10.00,M,FEW,BKN,OVC,M,2900.00,4700.00,5500.00,M,M,M,M,M,M,M,M,46.40,KBVU 070135Z AUTO 00000KT 10SM FEW029 BKN047 OVC055 08/08 A2959 RMK AO2,M
CXP,2024-02-07 01:35,-119.7326,39.1923,1431.00,39.20,30.20,69.88,260.00,4.00,0.00,29.61,M,10.00,M,OVC,M,M,M,5000.00,M,M,M,M,M,M,M,M,M,M,35.83,KCXP 070135Z AUTO 26004KT 10SM OVC050 04/M01 A2961 RMK AO2,M
RTS,2024-02-07 01:35,-119.8764,39.6682,1539.00,35.60,26.60,69.46,320.00,7.00,0.00,29.61,M,10.00,M,FEW,SCT,M,M,3500.00,4300.00,M,M,M,M,M,M,M,M,M,29.17,KRTS 070135Z AUTO 32007KT 10SM FEW035 SCT043 02/M03 A2961 RMK AO2,M
MEV,2024-02-07 01:35,-119.7500,38.9963,1441.42,32.00,30.20,92.97,0.00,0.00,0.00,29.60,M,10.00,M,FEW,OVC,M,M,2700.00,4200.00,M,M,M,M,M,M,M,M,M,32.00,KMEV 070135Z AUTO 00000KT 10SM FEW027 OVC042 00/M01 A2960 RMK AO2,M
BAM,2024-02-07 01:35,-116.8743,40.5990,1382.36,37.40,35.60,93.14,270.00,5.00,0.00,29.53,M,7.00,M,BKN,OVC,M,M,900.00,1500.00,M,M,M,M,M,M,M,M,M,32.81,KBAM 070135Z AUTO 27005KT 7SM BKN009 OVC015 03/02 A2953 RMK AO1,M
HTH,2024-02-07 01:35,-118.6315,38.5448,1282.89,39.20,35.60,86.79,240.00,4.00,0.00,29.59,M,10.00,M,BKN,BKN,M,M,2300.00,2800.00,M,M,M,M,M,M,M,M,M,35.83,KHTH 070135Z AUTO 24004KT 10SM BKN023 BKN028 04/02 A2959 RMK A01,M
TMT,2024-02-07 01:35,-117.1971,39.4643,1749.34,33.00,30.00,88.58,250.00,8.00,0.00,29.55,M,10.00,M,SCT,OVC,M,M,2600.00,3400.00,M,M,M,M,M,M,M,M,M,25.34,KTMT 070135Z AUTO 25008KT 10SM SCT026 OVC034 01/M01 A2955 RMK AO2 T00051012,M
LSV,2024-02-07 01:40,-115.0343,36.2362,570.00,51.80,46.40,81.74,260.00,4.00,0.00,29.56,1000.60,10.00,M,FEW,M,M,M,1900.00,M,M,M,-RA,M,M,M,M,M,M,51.80,KLSV 070140Z AUTO 26004KT 10SM -RA FEW019 11/08 A2956 RMK AO2 RAB03E04DZB04E05RAB05E33RAB40 SLP006 $,M
WMC,2024-02-07 01:42,-117.8072,40.9019,1315.00,35.00,32.00,88.68,270.00,7.00,0.02,29.56,M,9.00,M,BKN,OVC,M,M,900.00,1200.00,M,M,-SN,M,M,M,M,M,M,28.44,KWMC 070142Z AUTO 27007KT 9SM -SN BKN009 OVC012 02/00 A2956 RMK AO2 UPB39E42SNE39B42 P0002 T00170000,M
INS,2024-02-07 01:45,-115.6733,36.5872,955.00,44.60,41.00,87.09,0.00,0.00,0.00,29.58,1000.70,10.00,M,BKN,OVC,M,M,2900.00,9500.00,M,M,M,M,M,M,M,M,M,44.60,KINS 070145Z AUTO 00000KT 10SM BKN029 OVC095 07/05 A2958 RMK AO2 BKN V SCT SLP007 $,M
EKO,2024-02-07 01:47,-115.7860,40.8242,1367.00,37.00,34.00,88.78,0.00,0.00,0.03,29.49,M,9.00,M,FEW,OVC,M,M,800.00,1300.00,M,M,-RA,M,M,M,M,M,M,37.00,KEKO 070147Z AUTO 00000KT 9SM -RA FEW008 OVC013 03/01 A2949 RMK AO2 P0003 T00280011,M
DRA,2024-02-07 01:53,-116.0278,36.6206,1009.00,44.00,40.00,85.71,0.00,0.00,0.02,29.57,1000.30,10.00,M,BKN,OVC,M,M,2900.00,3600.00,M,M,M,M,M,M,M,M,M,44.00,KDRA 070153Z AUTO 00000KT 10SM BKN029 OVC036 07/04 A2957 RMK AO2 RAB21E50 SLP003 P0002 T00670044,M
ELY,2024-02-07 01:53,-114.8453,39.2950,1909.00,33.00,31.00,92.25,180.00,8.00,0.00,29.52,998.70,10.00,M,BKN,BKN,OVC,M,1600.00,3000.00,8000.00,M,M,M,M,M,M,M,M,25.34,KELY 070153Z AUTO 18008KT 10SM BKN016 BKN030 OVC080 01/M01 A2952 RMK AO2 SLP987 T00061006,M
VGT,2024-02-07 01:53,-115.1933,36.2111,667.00,50.00,48.00,92.80,150.00,4.00,0.09,29.57,1003.00,5.00,M,BKN,OVC,M,M,3000.00,3200.00,M,M,-RA BR,M,M,M,M,M,M,50.00,KVGT 070153Z 15004KT 5SM -RA BR BKN030 OVC032 10/09 A2957 RMK AO2 SLP030 P0009 T01000089,M
LOL,2024-02-07 01:53,-118.5701,40.0684,1192.43,34.00,34.00,100.00,0.00,0.00,0.00,29.59,1003.00,10.00,M,BKN,OVC,M,M,4800.00,5500.00,M,M,M,M,M,M,M,M,M,34.00,KLOL 070153Z AUTO 00000KT 10SM BKN048 OVC055 01/01 A2959 RMK AO2 SLP030 T00110011,M
P68,2024-02-07 01:53,-116.0056,39.6014,1993.00,35.00,31.00,85.17,180.00,3.00,0.00,29.50,997.60,M,M,M,M,M,M,M,M,M,M,M,M,M,M,M,M,M,32.12,KP68 070153Z AUTO 18003KT 02/M01 A2950 RMK AO1 SLP976 T00171006,M
EKO,2024-02-07 01:54,-115.7860,40.8242,1367.00,37.40,33.80,86.69,310.00,2.92,M,29.49,M,10.00,M,SCT,OVC,M,M,800.00,1499.00,M,M,-RA,M,M,M,M,M,M,34.97,SPECI KEKO 070154Z 31003KT 10SM -RA SCT008 OVC015 03/01 A2949 RMK AO2 P0003 FIBI,M
BVU,2024-02-07 01:55,-114.8611,35.9475,671.00,46.40,46.40,100.00,0.00,0.00,0.00,29.60,M,10.00,M,FEW,OVC,M,M,3700.00,4600.00,M,M,M,M,M,M,M,M,M,46.40,KBVU 070155Z AUTO 00000KT 10SM FEW037 OVC046 08/08 A2960 RMK AO2,M
CXP,2024-02-07 01:55,-119.7326,39.1923,1431.00,37.40,30.20,74.98,280.00,5.00,0.00,29.61,M,10.00,M,BKN,OVC,M,M,3900.00,5000.00,M,M,M,M,M,M,M,M,M,32.81,KCXP 070155Z AUTO 28005KT 10SM BKN039 OVC050 03/M01 A2961 RMK AO2,M
INS,2024-02-07 01:55,-115.6733,36.5872,955.00,44.20,41.00,88.43,0.00,0.00,0.00,29.59,1001.00,10.00,M,BKN,OVC,M,M,2800.00,10000.00,M,M,M,M,M,M,M,M,M,44.20,KINS 070155Z AUTO 00000KT 10SM BKN028 OVC100 07/05 A2959 RMK AO2 SLP010 T00680050 $,M
RNO,2024-02-07 01:55,-119.7711,39.4839,1341.00,40.00,30.00,67.18,350.00,5.00,0.00,29.61,1002.10,10.00,M,SCT,BKN,M,M,5000.00,14000.00,M,M,M,M,M,M,M,M,M,35.90,KRNO 070155Z 35005KT 10SM SCT050 BKN140 04/M01 A2961 RMK AO2 SLP021 T00441011,M
RTS,2024-02-07 01:55,-119.8764,39.6682,1539.00,33.80,28.40,80.36,310.00,6.00,0.00,29.61,M,10.00,M,BKN,M,M,M,4200.00,M,M,M,M,M,M,M,M,M,M,27.70,KRTS 070155Z AUTO 31006KT 10SM BKN042 01/M02 A2961 RMK AO2,M
05U,2024-02-07 01:55,-116.0051,39.6042,1811.23,M,M,M,0.00,0.00,0.00,29.53,M,10.00,M,M,M,M,M,M,M,M,M,M,M,M,M,M,M,M,M,K05U 070155Z AUTO 00000KT 10SM A2953 RMK A01,M
MEV,2024-02-07 01:55,-119.7500,38.9963,1441.42,32.00,30.20,92.97,0.00,0.00,0.00,29.60,M,10.00,M,OVC,M,M,M,4300.00,M,M,M,M,M,M,M,M,M,M,32.00,KMEV 070155Z AUTO 00000KT 10SM OVC043 00/M01 A2960 RMK AO2,M
BAM,2024-02-07 01:55,-116.8743,40.5990,1382.36,37.40,35.60,93.14,260.00,6.00,0.00,29.54,M,7.00,M,OVC,M,M,M,900.00,M,M,M,M,M,M,M,M,M,M,32.03,KBAM 070155Z AUTO 26006KT 7SM OVC009 03/02 A2954 RMK AO1,M
HTH,2024-02-07 01:55,-118.6315,38.5448,1282.89,39.20,33.80,80.79,0.00,0.00,0.00,29.59,M,10.00,M,BKN,BKN,OVC,M,2500.00,2900.00,3400.00,M,M,M,M,M,M,M,M,39.20,KHTH 070155Z AUTO 00000KT 10SM BKN025 BKN029 OVC034 04/01 A2959 RMK A01,M
LSV,2024-02-07 01:55,-115.0343,36.2362,570.00,51.00,46.60,84.83,200.00,6.00,0.01,29.56,1000.70,10.00,M,SCT,M,M,M,1600.00,M,M,M,-RA,M,M,M,M,M,M,51.00,KLSV 070155Z AUTO 20006KT 10SM -RA SCT016 11/08 A2956 RMK AO2 RAB03E04DZB04E05RAB05E33RAB40 SLP007 P0001 T01050081 $,M
EKO,2024-02-07 01:56,-115.7860,40.8242,1367.00,37.00,34.00,88.78,300.00,3.00,0.03,29.49,998.80,10.00,M,SCT,OVC,M,M,800.00,1500.00,M,M,-RA,M,M,M,M,M,M,34.40,KEKO 070156Z AUTO 30003KT 10SM -RA SCT008 OVC015 03/01 A2949 RMK AO2 SLP988 P0003 T00280011,M
NFL,2024-02-07 01:56,-118.7010,39.4166,1199.00,39.00,36.00,88.87,M,5.00,0.00,29.59,1000.60,10.00,M,SCT,BKN,OVC,M,1000.00,2000.00,3000.00,M,M,M,M,M,M,M,M,34.71,KNFL 070156Z VRB05KT 10SM SCT010 BKN020 OVC030 04/02 A2959 RMK AO2 SLP006 WR// T00390022,M
HND,2024-02-07 01:56,-115.1344,35.9729,742.79,45.00,40.00,82.51,190.00,14.00,0.05,29.61,1004.80,10.00,M,BKN,BKN,OVC,M,4500.00,5500.00,7000.00,M,-RA,M,M,M,M,M,M,37.92,KHND 070156Z 19014KT 10SM -RA BKN045 BKN055 OVC070 07/04 A2961 RMK AO2 SLP048 P0005 T00720044,M
TPH,2024-02-07 01:56,-117.0904,38.0505,1654.00,33.00,29.00,85.04,310.00,5.00,0.00,29.56,1001.10,10.00,M,SCT,M,M,M,2000.00,M,M,M,M,M,M,M,M,M,M,27.58,KTPH 070156Z AUTO 31005KT 10SM SCT020 01/M02 A2956 RMK AO2 SLP011 T00061017,M
LAS,2024-02-07 01:56,-115.1634,36.0719,663.00,46.00,42.00,85.83,190.00,8.00,0.07,29.58,1001.50,10.00,M,FEW,SCT,OVC,M,600.00,1200.00,4800.00,M,-RA,M,M,M,M,M,M,41.36,KLAS 070156Z 19008KT 10SM -RA FEW006 SCT012 OVC048 08/06 A2958 RMK AO2 SLP015 P0007 T00780056,M
WMC,2024-02-07 01:56,-117.8072,40.9019,1315.00,35.00,32.00,88.68,280.00,7.00,0.02,29.56,1001.40,9.00,M,OVC,M,M,M,800.00,M,M,M,UP,M,M,M,M,M,M,28.44,KWMC 070156Z AUTO 28007KT 9SM UP OVC008 02/00 A2956 RMK AO2 UPB39E42B51SNE39B42E51 SLP014 P0002 T00170000,M
DRA,2024-02-07 02:03,-116.0278,36.6206,1009.00,43.00,39.00,85.66,M,6.00,0.00,29.57,M,10.00,M,FEW,BKN,OVC,M,2700.00,3300.00,10000.00,M,M,M,M,M,M,M,M,38.78,KDRA 070203Z AUTO VRB06KT 10SM FEW027 BKN033 OVC100 06/04 A2957 RMK AO2 T00610039,M
EKO,2024-02-07 02:05,-115.7860,40.8242,1367.00,37.00,34.00,88.78,0.00,0.00,T,29.49,M,10.00,M,BKN,OVC,M,M,800.00,1500.00,M,M,UP,M,M,M,M,M,M,37.00,KEKO 070205Z AUTO 00000KT 10SM UP BKN008 OVC015 03/01 A2949 RMK AO2 RAE04UPB04 P0000 T00280011,M
LSV,2024-02-07 02:05,-115.0343,36.2362,570.00,50.00,46.40,87.37,180.00,13.00,0.00,29.56,1000.70,10.00,M,BKN,BKN,M,M,1500.00,1900.00,M,M,-RA,M,M,M,M,M,M,50.00,KLSV 070205Z AUTO 18013KT 10SM -RA BKN015 BKN019 10/08 A2956 RMK AO2 SLP007 $,M
VGT,2024-02-07 02:07,-115.1933,36.2111,667.00,50.00,47.00,89.37,120.00,7.00,0.01,29.57,M,7.00,M,SCT,SCT,OVC,M,700.00,1600.00,4300.00,M,-RA,M,M,M,M,M,M,50.00,KVGT 070207Z 12007KT 7SM -RA SCT007 SCT016 OVC043 10/08 A2957 RMK AO2 P0001 T01000083,M
ELY,2024-02-07 02:07,-114.8453,39.2950,1909.00,33.00,31.00,92.25,190.00,8.00,0.00,29.52,M,10.00,M,BKN,BKN,OVC,M,1400.00,3300.00,8000.00,M,M,M,M,M,M,M,M,25.34,KELY 070207Z AUTO 19008KT 10SM BKN014 BKN033 OVC080 01/M01 A2952 RMK AO2 T00061006,M
BVU,2024-02-07 02:15,-114.8611,35.9475,671.00,44.60,42.80,93.35,170.00,6.00,0.00,29.59,M,10.00,M,SCT,BKN,OVC,M,2000.00,4200.00,4800.00,M,M,M,M,M,M,M,M,40.71,KBVU 070215Z AUTO 17006KT 10SM SCT020 BKN042 OVC048 07/06 A2959 RMK AO2,M
CXP,2024-02-07 02:15,-119.7326,39.1923,1431.00,37.40,30.20,74.98,0.00,0.00,0.00,29.62,M,10.00,M,OVC,M,M,M,4000.00,M,M,M,M,M,M,M,M,M,M,37.40,KCXP 070215Z AUTO 00000KT 10SM OVC040 03/M01 A2962 RMK AO2,M
RTS,2024-02-07 02:15,-119.8764,39.6682,1539.00,33.80,28.40,80.36,300.00,4.00,0.00,29.62,M,10.00,M,OVC,M,M,M,4500.00,M,M,M,M,M,M,M,M,M,M,29.52,KRTS 070215Z AUTO 30004KT 10SM OVC045 01/M02 A2962 RMK AO2,M
05U,2024-02-07 02:15,-116.0051,39.6042,1811.23,M,M,M,40.00,9.00,0.00,29.53,M,10.00,M,M,M,M,M,M,M,M,M,M,M,M,M,M,M,M,M,K05U 070215Z AUTO 04009KT 10SM A2953 RMK A01,M
MEV,2024-02-07 02:15,-119.7500,38.9963,1441.42,32.00,30.20,92.97,350.00,3.00,0.00,29.61,M,10.00,M,SCT,OVC,M,M,2400.00,4400.00,M,M,M,M,M,M,M,M,M,28.69,KMEV 070215Z AUTO 35003KT 10SM SCT024 OVC044 00/M01 A2961 RMK AO2,M
BAM,2024-02-07 02:15,-116.8743,40.5990,1382.36,37.40,35.60,93.14,240.00,6.00,0.00,29.54,M,10.00,M,OVC,M,M,M,900.00,M,M,M,M,M,M,M,M,M,M,32.03,KBAM 070215Z AUTO 24006KT 10SM OVC009 03/02 A2954 RMK AO1,M
HTH,2024-02-07 02:15,-118.6315,38.5448,1282.89,39.20,35.60,86.79,250.00,4.00,0.00,29.60,M,10.00,M,SCT,OVC,M,M,2700.00,3400.00,M,M,M,M,M,M,M,M,M,35.83,KHTH 070215Z AUTO 25004KT 10SM SCT027 OVC034 04/02 A2960 RMK A01,M
LSV,2024-02-07 02:15,-115.0343,36.2362,570.00,50.00,44.60,81.61,190.00,13.00,0.00,29.55,1000.40,10.00,M,SCT,M,M,M,1500.00,M,M,M,-RA,M,M,M,M,M,M,50.00,KLSV 070215Z AUTO 19013KT 10SM -RA SCT015 10/07 A2955 RMK AO2 SLP004 $,M
TMT,2024-02-07 02:15,-117.1971,39.4643,1749.34,33.00,30.20,89.31,230.00,6.00,0.00,29.57,M,10.00,M,OVC,M,M,M,3200.00,M,M,M,M,M,M,M,M,M,M,26.73,KTMT 070215Z AUTO 23006KT 10SM OVC032 01/M01 A2957 RMK AO2 T00051010,M
VGT,2024-02-07 02:20,-115.1933,36.2111,667.00,49.00,44.00,82.79,150.00,10.00,0.01,29.57,M,10.00,M,SCT,BKN,OVC,M,1600.00,2800.00,4700.00,M,-RA,M,M,M,M,M,M,44.29,KVGT 070220Z 15010KT 10SM -RA SCT016 BKN028 OVC047 09/07 A2957 RMK AO2 P0001 T00940067,M
ELY,2024-02-07 02:22,-114.8453,39.2950,1909.00,33.00,31.00,92.25,180.00,8.00,0.00,29.52,M,10.00,M,SCT,BKN,OVC,M,1300.00,4900.00,8500.00,M,M,M,M,M,M,M,M,25.34,KELY 070222Z AUTO 18008KT 10SM SCT013 BKN049 OVC085 01/M01 A2952 RMK AO2 T00061006,M
INS,2024-02-07 02:24,-115.6733,36.5872,955.00,44.60,39.20,81.20,0.00,0.00,0.00,29.59,1001.00,10.00,M,OVC,M,M,M,2900.00,M,M,M,-RA,M,M,M,M,M,M,44.60,KINS 070224Z AUTO 00000KT 10SM -RA OVC029 07/04 A2959 RMK AO2 RAB24 SLP010 $,M
LSV,2024-02-07 02:29,-115.0343,36.2362,570.00,50.00,44.60,81.61,170.00,9.00,0.00,29.55,1000.40,10.00,M,CLR,M,M,M,M,M,M,M,M,M,M,M,M,M,M,50.00,KLSV 070229Z AUTO 17009KT 10SM CLR 10/07 A2955 RMK AO2 RAE29DZB29E29 SLP004 $,M
BVU,2024-02-07 02:35,-114.8611,35.9475,671.00,44.60,41.00,87.09,130.00,5.00,0.00,29.57,M,10.00,M,FEW,BKN,OVC,M,2000.00,5000.00,8000.00,M,M,M,M,M,M,M,M,41.36,KBVU 070235Z AUTO 13005KT 10SM FEW020 BKN050 OVC080 07/05 A2957 RMK AO2,M
CXP,2024-02-07 02:35,-119.7326,39.1923,1431.00,37.40,30.20,74.98,200.00,7.00,0.00,29.62,M,10.00,M,OVC,M,M,M,4300.00,M,M,M,M,M,M,M,M,M,M,31.36,KCXP 070235Z AUTO 20007KT 10SM OVC043 03/M01 A2962 RMK AO2,M
RTS,2024-02-07 02:35,-119.8764,39.6682,1539.00,33.80,28.40,80.36,290.00,4.00,0.00,29.62,M,10.00,M,BKN,OVC,M,M,4600.00,5500.00,M,M,M,M,M,M,M,M,M,29.52,KRTS 070235Z AUTO 29004KT 10SM BKN046 OVC055 01/M02 A2962 RMK AO2,M
05U,2024-02-07 02:35,-116.0051,39.6042,1811.23,M,M,M,60.00,6.00,0.00,29.54,M,6.00,12.00,M,M,M,M,M,M,M,M,HZ,M,M,M,M,M,M,M,K05U 070235Z AUTO 06006G12KT 6SM HZ A2954 RMK A01,M
MEV,2024-02-07 02:35,-119.7500,38.9963,1441.42,33.80,32.00,93.03,0.00,0.00,0.00,29.61,M,10.00,M,BKN,OVC,M,M,2300.00,2800.00,M,M,M,M,M,M,M,M,M,33.80,KMEV 070235Z AUTO 00000KT 10SM BKN023 OVC028 01/M00 A2961 RMK AO2,M
BAM,2024-02-07 02:35,-116.8743,40.5990,1382.36,37.40,35.60,93.14,230.00,5.00,0.00,29.54,M,10.00,M,OVC,M,M,M,1300.00,M,M,M,M,M,M,M,M,M,M,32.81,KBAM 070235Z AUTO 23005KT 10SM OVC013 03/02 A2954 RMK AO1,M
HTH,2024-02-07 02:35,-118.6315,38.5448,1282.89,39.20,35.60,86.79,340.00,6.00,0.00,29.61,M,10.00,M,SCT,BKN,OVC,M,2100.00,3200.00,4200.00,M,M,M,M,M,M,M,M,34.20,KHTH 070235Z AUTO 34006KT 10SM SCT021 BKN032 OVC042 04/02 A2961 RMK A01,M
TMT,2024-02-07 02:35,-117.1971,39.4643,1749.34,33.00,29.70,87.51,220.00,7.00,0.00,29.57,M,10.00,M,OVC,M,M,M,3600.00,M,M,M,M,M,M,M,M,M,M,26.00,KTMT 070235Z AUTO 22007KT 10SM OVC036 01/M01 A2957 RMK AO2 T00051013,M
DRA,2024-02-07 02:53,-116.0278,36.6206,1009.00,42.00,40.00,92.55,190.00,4.00,0.00,29.55,999.60,10.00,M,BKN,OVC,M,M,1900.00,9500.00,M,M,M,M,M,M,M,M,M,39.10,KDRA 070253Z AUTO 19004KT 10SM BKN019 OVC095 06/04 A2955 RMK AO2 SLP996 60002 T00560044 58001,M
ELY,2024-02-07 02:53,-114.8453,39.2950,1909.00,33.00,30.00,88.58,210.00,9.00,0.00,29.52,998.70,10.00,M,SCT,BKN,OVC,M,1500.00,8500.00,11000.00,M,M,M,M,M,M,M,M,24.76,KELY 070253Z AUTO 21009KT 10SM SCT015 BKN085 OVC110 01/M01 A2952 RMK AO2 SLP987 60001 T00061011 50003,M
VGT,2024-02-07 02:53,-115.1933,36.2111,667.00,49.00,42.00,76.67,290.00,7.00,0.01,29.54,1002.00,10.00,M,SCT,BKN,OVC,M,1600.00,2800.00,4700.00,M,-RA,M,M,M,M,M,M,45.50,KVGT 070253Z 29007KT 10SM -RA SCT016 BKN028 OVC047 09/06 A2954 RMK AO2 SLP020 P0001 60010 T00940056 58005,M
LOL,2024-02-07 02:53,-118.5701,40.0684,1192.43,34.00,33.00,96.08,20.00,4.00,0.00,29.60,1003.20,10.00,M,SCT,SCT,OVC,M,5000.00,6500.00,7500.00,M,M,M,M,M,M,M,M,29.76,KLOL 070253Z AUTO 02004KT 10SM SCT050 SCT065 OVC075 01/01 A2960 RMK AO2 SLP032 60001 T00110006 53005,M
P68,2024-02-07 02:53,-116.0056,39.6014,1993.00,34.00,31.00,88.63,250.00,5.00,0.00,29.52,998.00,M,M,M,M,M,M,M,M,M,M,M,M,M,M,M,M,M,28.77,KP68 070253Z AUTO 25005KT 01/M01 A2952 RMK AO1 SLP980 T00111006 53005,M
TMT,2024-02-07 02:55,-117.1971,39.4643,1749.34,32.50,29.70,89.28,220.00,7.00,0.00,29.57,M,10.00,M,OVC,M,M,M,3800.00,M,M,M,M,M,M,M,M,M,M,25.39,KTMT 070255Z AUTO 22007KT 10SM OVC038 00/M01 A2957 RMK AO2 T00031013,M
BVU,2024-02-07 02:55,-114.8611,35.9475,671.00,44.60,41.00,87.09,140.00,3.00,0.00,29.57,M,10.00,M,BKN,OVC,M,M,6500.00,8000.00,M,M,M,M,M,M,M,M,M,43.09,KBVU 070255Z AUTO 14003KT 10SM BKN065 OVC080 07/05 A2957 RMK AO2,M
CXP,2024-02-07 02:55,-119.7326,39.1923,1431.00,35.60,30.20,80.51,0.00,0.00,0.00,29.62,M,10.00,M,OVC,M,M,M,4500.00,M,M,M,M,M,M,M,M,M,M,35.60,KCXP 070255Z AUTO 00000KT 10SM OVC045 02/M01 A2962 RMK AO2,M
INS,2024-02-07 02:55,-115.6733,36.5872,955.00,44.00,41.00,89.11,20.00,6.00,T,29.56,1000.00,10.00,M,OVC,M,M,M,2600.00,M,M,M,-RA,M,M,M,M,M,M,39.98,KINS 070255Z AUTO 02006KT 10SM -RA OVC026 07/05 A2956 RMK AO2 RAB24 SLP000 P0000 60000 T00660049 58004 $,M
RNO,2024-02-07 02:55,-119.7711,39.4839,1341.00,39.00,29.00,67.06,350.00,7.00,0.00,29.61,1002.20,10.00,M,BKN,BKN,M,M,5500.00,13000.00,M,M,M,M,M,M,M,M,M,33.31,KRNO 070255Z 35007KT 10SM BKN055 BKN130 04/M02 A2961 RMK AO2 SLP022 T00391017 53007,M
RTS,2024-02-07 02:55,-119.8764,39.6682,1539.00,33.80,26.60,74.63,320.00,3.00,0.00,29.62,M,10.00,M,SCT,OVC,M,M,4600.00,5500.00,M,M,M,M,M,M,M,M,M,30.75,KRTS 070255Z AUTO 32003KT 10SM SCT046 OVC055 01/M03 A2962 RMK AO2,M
05U,2024-02-07 02:55,-116.0051,39.6042,1811.23,M,M,M,50.00,5.00,0.00,29.54,M,10.00,M,M,M,M,M,M,M,M,M,M,M,M,M,M,M,M,M,K05U 070255Z AUTO 05005KT 10SM A2954 RMK A01,M
MEV,2024-02-07 02:55,-119.7500,38.9963,1441.42,32.00,32.00,100.00,0.00,0.00,0.00,29.62,M,10.00,M,SCT,BKN,OVC,M,2200.00,3400.00,4900.00,M,M,M,M,M,M,M,M,32.00,KMEV 070255Z AUTO 00000KT 10SM SCT022 BKN034 OVC049 00/M00 A2962 RMK AO2,M
BAM,2024-02-07 02:55,-116.8743,40.5990,1382.36,37.40,35.60,93.14,240.00,5.00,0.00,29.54,M,10.00,M,OVC,M,M,M,1500.00,M,M,M,M,M,M,M,M,M,M,32.81,KBAM 070255Z AUTO 24005KT 10SM OVC015 03/02 A2954 RMK AO1,M
HTH,2024-02-07 02:55,-118.6315,38.5448,1282.89,39.20,35.60,86.79,330.00,6.00,0.00,29.61,M,10.00,M,FEW,BKN,OVC,M,1700.00,2100.00,3200.00,M,M,M,M,M,M,M,M,34.20,KHTH 070255Z AUTO 33006KT 10SM FEW017 BKN021 OVC032 04/02 A2961 RMK A01,M
LSV,2024-02-07 02:55,-115.0343,36.2362,570.00,48.70,43.50,82.14,160.00,8.00,0.01,29.53,999.80,10.00,M,FEW,M,M,M,13000.00,M,M,M,M,M,M,M,M,M,M,44.68,KLSV 070255Z AUTO 16008KT 10SM FEW130 09/06 A2953 RMK AO2 RAE29DZB29E29 SLP998 P0001 60002 T00930064 58003 $,M
EKO,2024-02-07 02:56,-115.7860,40.8242,1367.00,36.00,34.00,92.35,130.00,3.00,T,29.49,998.80,10.00,M,BKN,OVC,M,M,500.00,1100.00,M,M,UP,M,M,M,M,M,M,33.26,KEKO 070256Z AUTO 13003KT 10SM UP BKN005 OVC011 02/01 A2949 RMK AO2 RAE04UPB04E08B49 SLP988 P0000 60006 T00220011 56001,M
NFL,2024-02-07 02:56,-118.7010,39.4166,1199.00,39.00,35.00,85.42,M,5.00,0.00,29.60,1001.00,10.00,M,SCT,BKN,OVC,M,2000.00,3000.00,5000.00,M,M,M,M,M,M,M,M,34.71,KNFL 070256Z VRB05KT 10SM SCT020 BKN030 OVC050 04/02 A2960 RMK AO2 SLP010 WR// T00390017 53008,M
HND,2024-02-07 02:56,-115.1344,35.9729,742.79,45.00,40.00,82.51,190.00,9.00,T,29.57,1003.50,10.00,M,BKN,OVC,M,M,10000.00,12000.00,M,M,M,M,M,M,M,M,M,39.68,KHND 070256Z 19009KT 10SM BKN100 OVC120 07/04 A2957 RMK AO2 RAE27 SLP035 P0000 60009 T00720044 50001,M
TPH,2024-02-07 02:56,-117.0904,38.0505,1654.00,33.00,29.00,85.04,330.00,5.00,0.00,29.56,1001.20,10.00,M,CLR,M,M,M,M,M,M,M,M,M,M,M,M,M,M,27.58,KTPH 070256Z AUTO 33005KT 10SM CLR 01/M02 A2956 RMK AO2 SLP012 T00061017 51004,M
LAS,2024-02-07 02:56,-115.1634,36.0719,663.00,45.00,41.00,85.77,190.00,8.00,T,29.55,1000.40,10.00,M,FEW,SCT,OVC,M,600.00,1200.00,4800.00,M,M,M,M,M,M,M,M,40.13,KLAS 070256Z 19008KT 10SM FEW006 SCT012 OVC048 07/05 A2955 RMK AO2 RAE12 SLP004 P0000 60007 T00720050 58004,M
WMC,2024-02-07 02:56,-117.8072,40.9019,1315.00,35.00,32.00,88.68,320.00,5.00,0.01,29.57,1001.60,9.00,M,OVC,M,M,M,800.00,M,M,M,-SN,M,M,M,M,M,M,29.96,KWMC 070256Z AUTO 32005KT 9SM -SN OVC008 02/00 A2957 RMK AO2 UPE14B32E55RAB14E32SNB55 SLP016 P0001 60004 T00170000 53006,M
VGT,2024-02-07 03:00,-115.1933,36.2111,667.00,48.00,43.00,82.72,330.00,6.00,T,29.54,M,10.00,M,SCT,M,M,M,12000.00,M,M,M,-RA,M,M,M,M,M,M,44.80,KVGT 070300Z 33006KT 10SM -RA SCT120 09/06 A2954 RMK AO2 P0000 T00890061,M
INS,2024-02-07 03:04,-115.6733,36.5872,955.00,44.60,39.20,81.20,50.00,6.00,0.00,29.57,1000.30,10.00,M,OVC,M,M,M,2600.00,M,M,M,M,M,M,M,M,M,M,40.71,KINS 070304Z AUTO 05006KT 10SM OVC026 07/04 A2957 RMK AO2 RAE02DZB02E04 SLP003 $,M
BVU,2024-02-07 03:15,-114.8611,35.9475,671.00,44.60,41.00,87.09,0.00,0.00,0.00,29.57,M,10.00,M,FEW,BKN,OVC,M,4500.00,6500.00,7500.00,M,M,M,M,M,M,M,M,44.60,KBVU 070315Z AUTO 00000KT 10SM FEW045 BKN065 OVC075 07/05 A2957 RMK AO2,M
CXP,2024-02-07 03:15,-119.7326,39.1923,1431.00,35.60,30.20,80.51,190.00,4.00,0.00,29.63,M,10.00,M,OVC,M,M,M,4800.00,M,M,M,M,M,M,M,M,M,M,31.62,KCXP 070315Z AUTO 19004KT 10SM OVC048 02/M01 A2963 RMK AO2,M
RTS,2024-02-07 03:15,-119.8764,39.6682,1539.00,32.00,26.60,80.22,0.00,0.00,0.00,29.62,M,10.00,M,OVC,M,M,M,5500.00,M,M,M,M,M,M,M,M,M,M,32.00,KRTS 070315Z AUTO 00000KT 10SM OVC055 00/M03 A2962 RMK AO2,M
05U,2024-02-07 03:15,-116.0051,39.6042,1811.23,M,M,M,40.00,7.00,0.00,29.54,M,10.00,M,M,M,M,M,M,M,M,M,M,M,M,M,M,M,M,M,K05U 070315Z AUTO 04007KT 10SM A2954 RMK A01,M
MEV,2024-02-07 03:15,-119.7500,38.9963,1441.42,33.80,32.00,93.03,350.00,4.00,0.00,29.63,M,1.50,M,BKN,BKN,OVC,M,400.00,1100.00,2100.00,M,-SN BR,M,M,M,M,M,M,29.52,KMEV 070315Z AUTO 35004KT 1 1/2SM -SN BR BKN004 BKN011 OVC021 01/M00 A2963 RMK AO2,M
BAM,2024-02-07 03:15,-116.8743,40.5990,1382.36,37.40,35.60,93.14,230.00,7.00,0.00,29.55,M,7.00,M,OVC,M,M,M,1700.00,M,M,M,M,M,M,M,M,M,M,31.36,KBAM 070315Z AUTO 23007KT 7SM OVC017 03/02 A2955 RMK AO1,M
HTH,2024-02-07 03:15,-118.6315,38.5448,1282.89,39.20,35.60,86.79,320.00,12.00,0.00,29.61,M,10.00,M,BKN,BKN,OVC,M,2000.00,3200.00,3800.00,M,M,M,M,M,M,M,M,31.17,KHTH 070315Z AUTO 32012KT 10SM BKN020 BKN032 OVC038 04/02 A2961 RMK A01,M
TMT,2024-02-07 03:15,-117.1971,39.4643,1749.34,32.50,29.00,86.77,230.00,3.00,0.00,29.57,M,10.00,M,BKN,BKN,OVC,M,2100.00,2800.00,4000.00,M,M,M,M,M,M,M,M,29.26,KTMT 070315Z AUTO 23003KT 10SM BKN021 BKN028 OVC040 00/M02 A2957 RMK AO2 T00031016,M
BVU,2024-02-07 03:35,-114.8611,35.9475,671.00,44.60,41.00,87.09,0.00,0.00,0.00,29.58,M,10.00,M,BKN,BKN,OVC,M,6500.00,7500.00,8500.00,M,M,M,M,M,M,M,M,44.60,KBVU 070335Z AUTO 00000KT 10SM BKN065 BKN075 OVC085 07/05 A2958 RMK AO2,M
BAM,2024-02-07 03:35,-116.8743,40.5990,1382.36,37.40,35.60,93.14,240.00,5.00,0.00,29.55,M,10.00,M,OVC,M,M,M,1900.00,M,M,M,M,M,M,M,M,M,M,32.81,KBAM 070335Z AUTO 24005KT 10SM OVC019 03/02 A2955 RMK AO1,M
TMT,2024-02-07 03:35,-117.1971,39.4643,1749.34,32.50,29.00,86.77,240.00,5.00,0.00,29.57,M,10.00,M,BKN,OVC,M,M,2100.00,2700.00,M,M,M,M,M,M,M,M,M,26.99,KTMT 070335Z AUTO 24005KT 10SM BKN021 OVC027 00/M02 A2957 RMK AO2 T00031016,M
DRA,2024-02-07 03:53,-116.0278,36.6206,1009.00,43.00,40.00,89.06,250.00,3.00,0.00,29.56,999.90,10.00,M,OVC,M,M,M,2400.00,M,M,M,M,M,M,M,M,M,M,41.26,KDRA 070353Z AUTO 25003KT 10SM OVC024 06/04 A2956 RMK AO2 SLP999 T00610044,M
ELY,2024-02-07 03:53,-114.8453,39.2950,1909.00,33.00,30.00,88.58,210.00,11.00,0.00,29.52,998.60,10.00,M,FEW,M,M,M,8000.00,M,M,M,M,M,M,M,M,M,M,23.73,KELY 070353Z AUTO 21011KT 10SM FEW080 01/M01 A2952 RMK AO2 SLP986 T00061011,M
VGT,2024-02-07 03:53,-115.1933,36.2111,667.00,48.00,43.00,82.72,160.00,9.00,T,29.56,1002.70,10.00,M,SCT,BKN,OVC,M,2600.00,4300.00,11000.00,M,-RA,M,M,M,M,M,M,43.41,KVGT 070353Z 16009KT 10SM -RA SCT026 BKN043 OVC110 09/06 A2956 RMK AO2 SLP027 P0000 T00890061,M
LOL,2024-02-07 03:53,-118.5701,40.0684,1192.43,34.00,33.00,96.08,0.00,0.00,0.00,29.60,1003.30,10.00,M,OVC,M,M,M,8000.00,M,M,M,M,M,M,M,M,M,M,34.00,KLOL 070353Z AUTO 00000KT 10SM OVC080 01/01 A2960 RMK AO2 SLP033 T00110006,M
P68,2024-02-07 03:53,-116.0056,39.6014,1993.00,34.00,29.00,81.71,220.00,8.00,0.00,29.52,998.10,M,M,M,M,M,M,M,M,M,M,M,M,M,M,M,M,M,26.58,KP68 070353Z AUTO 22008KT 01/M02 A2952 RMK AO1 SLP981 T00111017,M
BVU,2024-02-07 03:55,-114.8611,35.9475,671.00,44.60,41.00,87.09,0.00,0.00,0.00,29.59,M,10.00,M,FEW,FEW,BKN,M,6000.00,7000.00,8500.00,M,M,M,M,M,M,M,M,44.60,KBVU 070355Z AUTO 00000KT 10SM FEW060 FEW070 BKN085 07/05 A2959 RMK AO2,M
CXP,2024-02-07 03:55,-119.7326,39.1923,1431.00,35.60,32.00,86.59,190.00,5.00,0.00,29.64,M,10.00,M,OVC,M,M,M,5000.00,M,M,M,M,M,M,M,M,M,M,30.67,KCXP 070355Z AUTO 19005KT 10SM OVC050 02/M00 A2964 RMK AO2,M
INS,2024-02-07 03:55,-115.6733,36.5872,955.00,43.00,39.20,86.33,280.00,5.00,0.01,29.56,1000.00,10.00,M,BKN,OVC,M,M,2300.00,2900.00,M,M,M,M,M,M,M,M,M,39.46,KINS 070355Z AUTO 28005KT 10SM BKN023 OVC029 06/04 A2956 RMK AO2 RAE02DZB02E04 SLP000 P0001 T00620040 $,M
RNO,2024-02-07 03:55,-119.7711,39.4839,1341.00,39.00,29.00,67.06,0.00,0.00,0.00,29.62,1002.70,10.00,M,BKN,M,M,M,5500.00,M,M,M,M,M,M,M,M,M,M,39.00,KRNO 070355Z 00000KT 10SM BKN055 04/M02 A2962 RMK AO2 SLP027 T00391017,M
RTS,2024-02-07 03:55,-119.8764,39.6682,1539.00,32.00,26.60,80.22,330.00,3.00,0.00,29.63,M,10.00,M,OVC,M,M,M,5500.00,M,M,M,M,M,M,M,M,M,M,28.69,KRTS 070355Z AUTO 33003KT 10SM OVC055 M00/M03 A2963 RMK AO2,M
05U,2024-02-07 03:55,-116.0051,39.6042,1811.23,M,M,M,30.00,9.00,0.00,29.55,M,10.00,M,M,M,M,M,M,M,M,M,M,M,M,M,M,M,M,M,K05U 070355Z AUTO 03009KT 10SM A2955 RMK A01,M
MEV,2024-02-07 03:55,-119.7500,38.9963,1441.42,32.00,32.00,100.00,230.00,3.00,0.00,29.63,M,0.75,M,OVC,M,M,M,300.00,M,M,M,-SN BR,M,M,M,M,M,M,28.69,KMEV 070355Z AUTO 23003KT 3/4SM -SN BR OVC003 00/M00 A2963 RMK AO2,M
BAM,2024-02-07 03:55,-116.8743,40.5990,1382.36,37.40,35.60,93.14,250.00,7.00,0.00,29.55,M,7.00,M,BKN,OVC,M,M,1700.00,2300.00,M,M,M,M,M,M,M,M,M,31.36,KBAM 070355Z AUTO 25007KT 7SM BKN017 OVC023 03/02 A2955 RMK AO1,M
HTH,2024-02-07 03:55,-118.6315,38.5448,1282.89,37.40,35.60,93.14,320.00,6.00,0.00,29.62,M,10.00,M,FEW,SCT,OVC,M,2300.00,5000.00,6000.00,M,M,M,M,M,M,M,M,32.03,KHTH 070355Z AUTO 32006KT 10SM FEW023 SCT050 OVC060 03/02 A2962 RMK A01,M
LSV,2024-02-07 03:55,-115.0343,36.2362,570.00,48.70,41.00,74.60,190.00,10.00,0.00,29.54,1000.00,10.00,M,CLR,M,M,M,M,M,M,M,M,M,M,M,M,M,M,43.91,KLSV 070355Z AUTO 19010KT 10SM CLR 09/05 A2954 RMK AO2 SLP000 T00930051 $,M
TMT,2024-02-07 03:55,-117.1971,39.4643,1749.34,32.50,29.00,86.77,250.00,6.00,0.00,29.58,M,10.00,M,SCT,SCT,OVC,M,2300.00,2800.00,3500.00,M,M,M,M,M,M,M,M,26.13,KTMT 070355Z AUTO 25006KT 10SM SCT023 SCT028 OVC035 00/M02 A2958 RMK AO2 T00031017,M
HND,2024-02-07 03:56,-115.1344,35.9729,742.79,44.00,39.00,82.44,200.00,14.00,0.00,29.59,1004.00,10.00,M,FEW,M,M,M,12000.00,M,M,M,M,M,M,M,M,M,M,36.63,KHND 070356Z 20014KT 10SM FEW120 07/04 A2959 RMK AO2 SLP040 T00670039,M
LAS,2024-02-07 03:56,-115.1634,36.0719,663.00,46.00,40.00,79.44,200.00,9.00,0.00,29.57,1001.10,10.00,M,FEW,SCT,OVC,M,1200.00,4800.00,10000.00,M,M,M,M,M,M,M,M,40.92,KLAS 070356Z 20009KT 10SM FEW012 SCT048 OVC100 08/04 A2957 RMK AO2 SLP011 T00780044,M
EKO,2024-02-07 03:56,-115.7860,40.8242,1367.00,36.00,34.00,92.35,230.00,3.00,0.01,29.50,999.00,7.00,M,OVC,M,M,M,800.00,M,M,M,M,M,M,M,M,M,M,33.26,KEKO 070356Z AUTO 23003KT 7SM OVC008 02/01 A2950 RMK AO2 UPE25RAB43E52 CIG 005V011 SLP990 P0001 T00220011,M
NFL,2024-02-07 03:56,-118.7010,39.4166,1199.00,39.00,36.00,88.87,M,5.00,0.00,29.61,1001.20,10.00,M,SCT,BKN,OVC,M,2000.00,3000.00,5000.00,M,M,M,M,M,M,M,M,34.71,KNFL 070356Z VRB05KT 10SM SCT020 BKN030 OVC050 04/02 A2961 RMK AO2 SLP012 WR// T00390022,M
TPH,2024-02-07 03:56,-117.0904,38.0505,1654.00,32.00,29.00,88.53,230.00,4.00,0.00,29.57,1001.90,10.00,M,CLR,M,M,M,M,M,M,M,M,M,M,M,M,M,M,27.42,KTPH 070356Z AUTO 23004KT 10SM CLR 00/M02 A2957 RMK AO2 SLP019 T00001017,M
WMC,2024-02-07 03:56,-117.8072,40.9019,1315.00,33.00,30.00,88.58,0.00,0.00,0.02,29.58,1002.10,7.00,M,OVC,M,M,M,600.00,M,M,M,-SN,M,M,M,M,M,M,33.00,KWMC 070356Z AUTO 00000KT 7SM -SN OVC006 01/M01 A2958 RMK AO2 SLP021 P0002 T00061011,M
CXP,2024-02-07 04:10,-119.7326,39.1923,1431.00,33.80,32.00,93.03,0.00,0.00,0.00,29.64,M,10.00,M,OVC,M,M,M,5000.00,M,M,M,M,M,M,M,M,M,M,33.80,KCXP 070410Z AUTO 00000KT 10SM OVC050 01/M00 A2964 RMK AO2,M
05U,2024-02-07 04:10,-116.0051,39.6042,1811.23,M,M,M,40.00,9.00,0.00,29.55,M,10.00,M,M,M,M,M,M,M,M,M,M,M,M,M,M,M,M,M,K05U 070410Z AUTO 04009KT 10SM A2955 RMK A01,M
HTH,2024-02-07 04:10,-118.6315,38.5448,1282.89,37.40,35.60,93.14,320.00,4.00,0.00,29.63,M,10.00,M,OVC,M,M,M,6000.00,M,M,M,M,M,M,M,M,M,M,33.73,KHTH 070410Z AUTO 32004KT 10SM OVC060 03/02 A2963 RMK A01,M
BVU,2024-02-07 04:15,-114.8611,35.9475,671.00,44.60,41.00,87.09,0.00,0.00,0.00,29.59,M,10.00,M,BKN,M,M,M,11000.00,M,M,M,M,M,M,M,M,M,M,44.60,KBVU 070415Z AUTO 00000KT 10SM BKN110 07/05 A2959 RMK AO2,M
ELY,2024-02-07 04:15,-114.8453,39.2950,1909.00,33.00,29.00,85.04,210.00,10.00,0.00,29.53,M,10.00,M,SCT,BKN,M,M,1800.00,2400.00,M,M,M,M,M,M,M,M,M,24.22,KELY 070415Z AUTO 21010KT 10SM SCT018 BKN024 01/M02 A2953 RMK AO2 T00061017,M
RTS,2024-02-07 04:15,-119.8764,39.6682,1539.00,30.20,26.60,86.28,0.00,0.00,0.00,29.63,M,10.00,M,BKN,M,M,M,5500.00,M,M,M,M,M,M,M,M,M,M,30.20,KRTS 070415Z AUTO 00000KT 10SM BKN055 M01/M03 A2963 RMK AO2,M
MEV,2024-02-07 04:15,-119.7500,38.9963,1441.42,32.00,32.00,100.00,240.00,3.00,0.00,29.64,M,2.50,M,BKN,BKN,OVC,M,300.00,800.00,4300.00,M,UP BR,M,M,M,M,M,M,28.69,KMEV 070415Z AUTO 24003KT 2 1/2SM UP BR BKN003 BKN008 OVC043 00/00 A2964 RMK AO2,M
BAM,2024-02-07 04:15,-116.8743,40.5990,1382.36,37.40,35.60,93.14,240.00,6.00,0.00,29.56,M,10.00,M,OVC,M,M,M,1900.00,M,M,M,M,M,M,M,M,M,M,32.03,KBAM 070415Z AUTO 24006KT 10SM OVC019 03/02 A2956 RMK AO1,M
TMT,2024-02-07 04:15,-117.1971,39.4643,1749.34,32.40,29.00,87.12,230.00,6.00,0.00,29.58,M,10.00,M,SCT,BKN,OVC,M,2600.00,3500.00,4500.00,M,M,M,M,M,M,M,M,26.01,KTMT 070415Z AUTO 23006KT 10SM SCT026 BKN035 OVC045 00/M02 A2958 RMK AO2 T00021016,M
LOL,2024-02-07 04:22,-118.5701,40.0684,1192.43,33.00,33.00,100.00,180.00,4.00,0.00,29.61,M,10.00,M,FEW,SCT,OVC,M,200.00,6500.00,8500.00,M,M,M,M,M,M,M,M,28.59,KLOL 070422Z AUTO 18004KT 10SM FEW002 SCT065 OVC085 01/01 A2961 RMK AO2 T00060006,M
LSV,2024-02-07 04:25,-115.0343,36.2362,570.00,48.20,41.00,76.01,170.00,6.00,0.00,29.56,1000.70,10.00,M,BKN,BKN,M,M,4000.00,5500.00,M,M,M,M,M,M,M,M,M,45.04,KLSV 070425Z AUTO 17006KT 10SM BKN040 BKN055 09/05 A2956 RMK AO2 SLP007 $,M
05U,2024-02-07 04:30,-116.0051,39.6042,1811.23,33.80,30.20,86.49,10.00,6.00,0.00,29.56,M,10.00,M,M,M,M,M,M,M,M,M,M,M,M,M,M,M,M,27.70,K05U 070430Z AUTO 01006KT 10SM 01/M01 A2956 RMK A01,M
BVU,2024-02-07 04:35,-114.8611,35.9475,671.00,46.40,39.20,75.84,0.00,0.00,0.00,29.59,M,10.00,M,SCT,BKN,M,M,5500.00,11000.00,M,M,M,M,M,M,M,M,M,46.40,KBVU 070435Z AUTO 00000KT 10SM SCT055 BKN110 08/04 A2959 RMK AO2,M
CXP,2024-02-07 04:35,-119.7326,39.1923,1431.00,33.80,32.00,93.03,0.00,0.00,0.00,29.65,M,10.00,M,SCT,OVC,M,M,2200.00,5500.00,M,M,M,M,M,M,M,M,M,33.80,KCXP 070435Z AUTO 00000KT 10SM SCT022 OVC055 01/M00 A2965 RMK AO2,M
RTS,2024-02-07 04:35,-119.8764,39.6682,1539.00,30.20,28.40,92.92,0.00,0.00,0.00,29.63,M,10.00,M,FEW,M,M,M,5500.00,M,M,M,M,M,M,M,M,M,M,30.20,KRTS 070435Z AUTO 00000KT 10SM FEW055 M01/M02 A2963 RMK AO2,M
MEV,2024-02-07 04:35,-119.7500,38.9963,1441.42,32.00,32.00,100.00,0.00,0.00,0.00,29.64,M,2.50,M,FEW,SCT,BKN,M,400.00,1100.00,2700.00,M,-SN BR,M,M,M,M,M,M,32.00,KMEV 070435Z AUTO 00000KT 2 1/2SM -SN BR FEW004 SCT011 BKN027 00/00 A2964 RMK AO2 VIS 1 3/4V2 1/2,M
BAM,2024-02-07 04:35,-116.8743,40.5990,1382.36,37.40,35.60,93.14,240.00,7.00,0.00,29.56,M,7.00,M,BKN,OVC,M,M,2100.00,2800.00,M,M,M,M,M,M,M,M,M,31.36,KBAM 070435Z AUTO 24007KT 7SM BKN021 OVC028 03/02 A2956 RMK AO1,M
HTH,2024-02-07 04:35,-118.6315,38.5448,1282.89,37.40,35.60,93.14,300.00,4.00,0.00,29.63,M,10.00,M,BKN,BKN,OVC,M,2800.00,3500.00,6500.00,M,M,M,M,M,M,M,M,33.73,KHTH 070435Z AUTO 30004KT 10SM BKN028 BKN035 OVC065 03/02 A2963 RMK A01,M
LSV,2024-02-07 04:35,-115.0343,36.2362,570.00,48.20,41.00,76.01,0.00,0.00,0.00,29.56,1000.70,10.00,M,BKN,BKN,M,M,4200.00,5500.00,M,M,M,M,M,M,M,M,M,48.20,KLSV 070435Z AUTO 00000KT 10SM BKN042 BKN055 09/05 A2956 RMK AO2 SLP007 $,M
TMT,2024-02-07 04:35,-117.1971,39.4643,1749.34,33.00,28.20,82.30,240.00,9.00,0.00,29.58,M,10.00,M,SCT,SCT,OVC,M,3300.00,4000.00,4900.00,M,M,M,M,M,M,M,M,24.76,KTMT 070435Z AUTO 24009KT 10SM SCT033 SCT040 OVC049 01/M02 A2958 RMK AO2 T00051021,M
EKO,2024-02-07 04:37,-115.7860,40.8242,1367.00,35.00,33.00,92.32,220.00,8.00,T,29.51,M,6.00,M,SCT,BKN,OVC,M,400.00,1400.00,1900.00,M,BR,M,M,M,M,M,M,27.81,KEKO 070437Z AUTO 22008KT 6SM BR SCT004 BKN014 OVC019 02/01 A2951 RMK AO2 RAB0358E21UPB21E37 P0000 T00170006,M
DRA,2024-02-07 04:53,-116.0278,36.6206,1009.00,43.00,40.00,89.06,260.00,5.00,T,29.57,1000.10,10.00,M,OVC,M,M,M,2300.00,M,M,M,M,M,M,M,M,M,M,39.46,KDRA 070453Z AUTO 26005KT 10SM OVC023 06/04 A2957 RMK AO2 RAB11E29 SLP001 P0000 T00610044,M
ELY,2024-02-07 04:53,-114.8453,39.2950,1909.00,32.00,29.00,88.53,220.00,7.00,0.00,29.53,998.70,10.00,M,OVC,M,M,M,2000.00,M,M,M,M,M,M,M,M,M,M,24.78,KELY 070453Z AUTO 22007KT 10SM OVC020 00/M02 A2953 RMK AO2 SLP987 T00001017,M
VGT,2024-02-07 04:53,-115.1933,36.2111,667.00,48.00,42.00,79.60,130.00,5.00,T,29.58,1003.30,10.00,M,BKN,OVC,M,M,3400.00,4100.00,M,M,-RA,M,M,M,M,M,M,45.40,KVGT 070453Z AUTO 13005KT 10SM -RA BKN034 OVC041 09/06 A2958 RMK AO2 SLP033 P0000 T00890056,M
LOL,2024-02-07 04:53,-118.5701,40.0684,1192.43,32.00,32.00,100.00,0.00,0.00,0.00,29.61,1004.10,10.00,M,OVC,M,M,M,6000.00,M,M,M,M,M,M,M,M,M,M,32.00,KLOL 070453Z AUTO 00000KT 10SM OVC060 00/00 A2961 RMK AO2 SLP041 T00000000,M
P68,2024-02-07 04:53,-116.0056,39.6014,1993.00,34.00,29.00,81.71,230.00,8.00,0.00,29.53,998.30,M,M,M,M,M,M,M,M,M,M,M,M,M,M,M,M,M,26.58,KP68 070453Z AUTO 23008KT 01/M02 A2953 RMK AO1 SLP983 T00111017,M
LSV,2024-02-07 04:55,-115.0343,36.2362,570.00,49.00,40.60,72.63,250.00,5.00,0.00,29.56,1000.70,10.00,M,SCT,SCT,BKN,M,4500.00,5500.00,7000.00,M,M,M,M,M,M,M,M,46.58,KLSV 070455Z AUTO 25005KT 10SM SCT045 SCT055 BKN070 09/05 A2956 RMK AO2 SLP007 T00940048 $,M
BVU,2024-02-07 04:55,-114.8611,35.9475,671.00,46.40,39.20,75.84,0.00,0.00,0.00,29.59,M,10.00,M,OVC,M,M,M,5000.00,M,M,M,M,M,M,M,M,M,M,46.40,KBVU 070455Z AUTO 00000KT 10SM OVC050 08/04 A2959 RMK AO2,M
CXP,2024-02-07 04:55,-119.7326,39.1923,1431.00,33.80,32.00,93.03,0.00,0.00,0.00,29.65,M,10.00,M,FEW,OVC,M,M,2200.00,5500.00,M,M,M,M,M,M,M,M,M,33.80,KCXP 070455Z AUTO 00000KT 10SM FEW022 OVC055 01/M00 A2965 RMK AO2,M
INS,2024-02-07 04:55,-115.6733,36.5872,955.00,43.70,39.20,84.04,0.00,0.00,0.00,29.58,1000.70,10.00,M,OVC,M,M,M,2000.00,M,M,M,M,M,M,M,M,M,M,43.70,KINS 070455Z AUTO 00000KT 10SM OVC020 07/04 A2958 RMK AO2 SLP007 T00650040 $,M
RNO,2024-02-07 04:55,-119.7711,39.4839,1341.00,36.00,28.00,72.43,0.00,0.00,0.00,29.63,1003.10,10.00,M,SCT,M,M,M,6500.00,M,M,M,M,M,M,M,M,M,M,36.00,KRNO 070455Z 00000KT 10SM SCT065 02/M02 A2963 RMK AO2 SLP031 T00221022,M
RTS,2024-02-07 04:55,-119.8764,39.6682,1539.00,32.00,28.40,86.39,0.00,0.00,0.00,29.64,M,10.00,M,CLR,M,M,M,M,M,M,M,M,M,M,M,M,M,M,32.00,KRTS 070455Z AUTO 00000KT 10SM CLR M00/M02 A2964 RMK AO2,M
05U,2024-02-07 04:55,-116.0051,39.6042,1811.23,M,M,M,30.00,9.00,0.00,29.56,M,10.00,M,M,M,M,M,M,M,M,M,M,M,M,M,M,M,M,M,K05U 070455Z AUTO 03009KT 10SM A2956 RMK A01,M
MEV,2024-02-07 04:55,-119.7500,38.9963,1441.42,32.00,32.00,100.00,0.00,0.00,0.00,29.64,M,3.00,M,FEW,FEW,OVC,M,500.00,900.00,2500.00,M,BR,M,M,M,M,M,M,32.00,KMEV 070455Z AUTO 00000KT 3SM BR FEW005 FEW009 OVC025 00/M00 A2964 RMK AO2,M
BAM,2024-02-07 04:55,-116.8743,40.5990,1382.36,37.40,35.60,93.14,240.00,8.00,0.00,29.56,M,10.00,M,BKN,BKN,OVC,M,2300.00,2800.00,3900.00,M,M,M,M,M,M,M,M,30.76,KBAM 070455Z AUTO 24008KT 10SM BKN023 BKN028 OVC039 03/02 A2956 RMK AO1,M
HTH,2024-02-07 04:55,-118.6315,38.5448,1282.89,37.40,35.60,93.14,250.00,4.00,0.00,29.63,M,10.00,M,OVC,M,M,M,3000.00,M,M,M,M,M,M,M,M,M,M,33.73,KHTH 070455Z AUTO 25004KT 10SM OVC030 03/02 A2963 RMK A01,M
TMT,2024-02-07 04:55,-117.1971,39.4643,1749.34,32.40,28.80,86.41,240.00,9.00,0.00,29.58,M,10.00,M,BKN,OVC,M,M,3200.00,4900.00,M,M,M,M,M,M,M,M,M,24.01,KTMT 070455Z AUTO 24009KT 10SM BKN032 OVC049 00/M02 A2958 RMK AO2 T00021018,M
EKO,2024-02-07 04:56,-115.7860,40.8242,1367.00,35.00,33.00,92.32,230.00,6.00,T,29.51,999.70,10.00,M,BKN,OVC,M,M,1400.00,2000.00,M,M,M,M,M,M,M,M,M,29.14,KEKO 070456Z AUTO 23006KT 10SM BKN014 OVC020 02/01 A2951 RMK AO2 RAB0358E21UPB21E37 SLP997 P0000 T00170006,M
NFL,2024-02-07 04:56,-118.7010,39.4166,1199.00,38.00,36.00,92.42,190.00,5.00,0.00,29.61,1001.30,10.00,M,SCT,BKN,OVC,M,2000.00,3000.00,5000.00,M,M,M,M,M,M,M,M,33.52,KNFL 070456Z 19005KT 10SM SCT020 BKN030 OVC050 03/02 A2961 RMK AO2 SLP013 T00330022,M
HND,2024-02-07 04:56,-115.1344,35.9729,742.79,44.00,38.00,79.27,180.00,13.00,0.00,29.60,1004.30,10.00,M,SCT,M,M,M,4000.00,M,M,M,M,M,M,M,M,M,M,36.94,KHND 070456Z AUTO 18013KT 10SM SCT040 07/03 A2960 RMK AO2 SLP043 T00670033,M
TPH,2024-02-07 04:56,-117.0904,38.0505,1654.00,32.00,29.00,88.53,350.00,9.00,0.00,29.56,1001.30,10.00,M,CLR,M,M,M,M,M,M,M,M,M,M,M,M,M,M,23.51,KTPH 070456Z AUTO 35009KT 10SM CLR 00/M02 A2956 RMK AO2 SLP013 T00001017,M
LAS,2024-02-07 04:56,-115.1634,36.0719,663.00,45.00,38.00,76.31,190.00,9.00,0.00,29.57,1001.20,10.00,19.00,FEW,SCT,OVC,M,1200.00,4800.00,10000.00,M,M,M,M,M,M,M,M,39.68,KLAS 070456Z 19009G19KT 10SM FEW012 SCT048 OVC100 07/03 A2957 RMK AO2 SLP012 T00720033,M
WMC,2024-02-07 04:56,-117.8072,40.9019,1315.00,35.00,31.00,85.17,290.00,4.00,T,29.58,1002.20,10.00,M,OVC,M,M,M,800.00,M,M,M,UP,M,M,M,M,M,M,30.92,KWMC 070456Z AUTO 29004KT 10SM UP OVC008 02/M01 A2958 RMK AO2 UPB10SNE10 CIG 005V010 SLP022 P0000 T00171006,M
INS,2024-02-07 05:06,-115.6733,36.5872,955.00,44.60,39.20,81.20,0.00,0.00,0.00,29.58,1000.70,10.00,M,SCT,BKN,BKN,OVC,2000.00,2800.00,3900.00,4700.00,-RA,M,M,M,M,M,M,44.60,KINS 070506Z AUTO 00000KT 10SM -RA SCT020 BKN028 BKN039 OVC047 07/04 A2958 RMK AO2 RAB06 SLP007 $,M
05U,2024-02-07 05:10,-116.0051,39.6042,1811.23,M,M,M,30.00,8.00,0.00,29.56,M,10.00,M,M,M,M,M,M,M,M,M,M,M,M,M,M,M,M,M,K05U 070510Z AUTO 03008KT 10SM A2956 RMK A01,M
INS,2024-02-07 05:11,-115.6733,36.5872,955.00,44.60,39.20,81.20,0.00,0.00,0.00,29.58,1000.70,10.00,M,SCT,SCT,BKN,OVC,2000.00,2800.00,4100.00,4900.00,-RA,M,M,M,M,M,M,44.60,KINS 070511Z AUTO 00000KT 10SM -RA SCT020 SCT028 BKN041 OVC049 07/04 A2958 RMK AO2 RAB06 SLP007 $,M
BVU,2024-02-07 05:15,-114.8611,35.9475,671.00,46.40,41.00,81.34,120.00,5.00,0.00,29.61,M,10.00,M,BKN,OVC,M,M,4500.00,5000.00,M,M,M,M,M,M,M,M,M,43.50,KBVU 070515Z AUTO 12005KT 10SM BKN045 OVC050 08/05 A2961 RMK AO2,M
CXP,2024-02-07 05:15,-119.7326,39.1923,1431.00,33.80,32.00,93.03,0.00,0.00,0.00,29.65,M,10.00,M,FEW,OVC,M,M,2000.00,5500.00,M,M,M,M,M,M,M,M,M,33.80,KCXP 070515Z AUTO 00000KT 10SM FEW020 OVC055 01/M00 A2965 RMK AO2,M
RTS,2024-02-07 05:15,-119.8764,39.6682,1539.00,28.40,24.80,86.18,330.00,6.00,0.00,29.64,M,10.00,M,CLR,M,M,M,M,M,M,M,M,M,M,M,M,M,M,21.19,KRTS 070515Z AUTO 33006KT 10SM CLR M02/M04 A2964 RMK AO2,M
MEV,2024-02-07 05:15,-119.7500,38.9963,1441.42,32.00,32.00,100.00,100.00,3.00,0.00,29.65,M,2.50,M,FEW,BKN,OVC,M,700.00,2600.00,4600.00,M,BR,M,M,M,M,M,M,28.69,KMEV 070515Z AUTO 10003KT 2 1/2SM BR FEW007 BKN026 OVC046 M00/M00 A2965 RMK AO2,M
BAM,2024-02-07 05:15,-116.8743,40.5990,1382.36,37.40,35.60,93.14,240.00,9.00,0.00,29.56,M,10.00,M,SCT,OVC,M,M,2300.00,3700.00,M,M,M,M,M,M,M,M,M,30.23,KBAM 070515Z AUTO 24009KT 10SM SCT023 OVC037 03/02 A2956 RMK AO1,M
HTH,2024-02-07 05:15,-118.6315,38.5448,1282.89,37.40,35.60,93.14,230.00,3.00,0.00,29.64,M,10.00,M,BKN,OVC,M,M,3000.00,6500.00,M,M,M,M,M,M,M,M,M,34.86,KHTH 070515Z AUTO 23003KT 10SM BKN030 OVC065 03/02 A2964 RMK A01,M
TMT,2024-02-07 05:15,-117.1971,39.4643,1749.34,32.50,28.80,86.06,230.00,8.00,0.00,29.58,M,10.00,M,OVC,M,M,M,3000.00,M,M,M,M,M,M,M,M,M,M,24.73,KTMT 070515Z AUTO 23008KT 10SM OVC030 00/M02 A2958 RMK AO2 T00031018,M
INS,2024-02-07 05:18,-115.6733,36.5872,955.00,42.80,39.20,86.99,0.00,0.00,0.00,29.57,1000.30,10.00,M,FEW,FEW,SCT,OVC,2000.00,2800.00,3700.00,4600.00,M,M,M,M,M,M,M,42.80,KINS 070518Z AUTO 00000KT 10SM FEW020 FEW028 SCT037 OVC046 06/04 A2957 RMK AO2 RAB06E13DZB13E18 SLP003 $,M
DRA,2024-02-07 05:22,-116.0278,36.6206,1009.00,43.00,39.00,85.66,220.00,7.00,0.00,29.57,M,10.00,M,SCT,SCT,OVC,M,2300.00,7000.00,10000.00,M,M,M,M,M,M,M,M,38.19,KDRA 070522Z AUTO 22007KT 10SM SCT023 SCT070 OVC100 06/04 A2957 RMK AO2 T00610039,M
WMC,2024-02-07 05:23,-117.8072,40.9019,1315.00,35.00,32.00,88.68,280.00,6.00,T,29.59,M,10.00,M,OVC,M,M,M,1000.00,M,M,M,M,M,M,M,M,M,M,29.14,KWMC 070523Z AUTO 28006KT 10SM OVC010 02/00 A2959 RMK AO2 UPE12 P0000 T00170000,M
DRA,2024-02-07 05:29,-116.0278,36.6206,1009.00,43.00,39.00,85.66,240.00,6.00,0.00,29.57,M,10.00,M,BKN,BKN,OVC,M,2100.00,2600.00,10000.00,M,M,M,M,M,M,M,M,38.78,KDRA 070529Z AUTO 24006KT 10SM BKN021 BKN026 OVC100 06/04 A2957 RMK AO2 T00610039,M
BVU,2024-02-07 05:35,-114.8611,35.9475,671.00,46.40,39.20,75.84,290.00,4.00,0.00,29.61,M,10.00,M,BKN,OVC,M,M,4400.00,6000.00,M,M,M,M,M,M,M,M,M,44.24,KBVU 070535Z AUTO 29004KT 10SM BKN044 OVC060 08/04 A2961 RMK AO2,M
CXP,2024-02-07 05:35,-119.7326,39.1923,1431.00,33.80,32.00,93.03,0.00,0.00,0.00,29.66,M,10.00,M,FEW,BKN,M,M,2000.00,5500.00,M,M,M,M,M,M,M,M,M,33.80,KCXP 070535Z AUTO 00000KT 10SM FEW020 BKN055 01/M00 A2966 RMK AO2,M
RTS,2024-02-07 05:35,-119.8764,39.6682,1539.00,28.40,26.60,92.86,320.00,4.00,0.00,29.65,M,10.00,M,CLR,M,M,M,M,M,M,M,M,M,M,M,M,M,M,23.22,KRTS 070535Z AUTO 32004KT 10SM CLR M02/M03 A2965 RMK AO2,M
05U,2024-02-07 05:35,-116.0051,39.6042,1811.23,M,M,M,20.00,10.00,0.00,29.55,M,10.00,M,M,M,M,M,M,M,M,M,M,M,M,M,M,M,M,M,K05U 070535Z AUTO 02010KT 10SM A2955 RMK A01,M
MEV,2024-02-07 05:35,-119.7500,38.9963,1441.42,32.00,32.00,100.00,120.00,4.00,0.00,29.65,M,1.00,M,BKN,OVC,M,M,400.00,700.00,M,M,-SN BR,M,M,M,M,M,M,27.42,KMEV 070535Z AUTO 12004KT 1SM -SN BR BKN004 OVC007 M00/M00 A2965 RMK AO2,M
BAM,2024-02-07 05:35,-116.8743,40.5990,1382.36,37.40,35.60,93.14,240.00,8.00,0.00,29.57,M,10.00,M,BKN,OVC,M,M,2300.00,3700.00,M,M,M,M,M,M,M,M,M,30.76,KBAM 070535Z AUTO 24008KT 10SM BKN023 OVC037 03/02 A2957 RMK AO1,M
HTH,2024-02-07 05:35,-118.6315,38.5448,1282.89,37.40,35.60,93.14,250.00,3.00,0.00,29.64,M,10.00,M,FEW,OVC,M,M,3100.00,7000.00,M,M,M,M,M,M,M,M,M,34.86,KHTH 070535Z AUTO 25003KT 10SM FEW031 OVC070 03/02 A2964 RMK A01,M
TMT,2024-02-07 05:35,-117.1971,39.4643,1749.34,32.00,29.30,89.63,240.00,8.00,0.00,29.58,M,10.00,M,OVC,M,M,M,2800.00,M,M,M,M,M,M,M,M,M,M,24.11,KTMT 070535Z AUTO 24008KT 10SM OVC028 00/M01 A2958 RMK AO2 T00011015,M
LSV,2024-02-07 05:45,-115.0343,36.2362,570.00,48.20,42.80,81.47,100.00,4.00,0.00,29.58,1001.40,10.00,M,BKN,BKN,M,M,3900.00,8000.00,M,M,M,M,M,M,M,M,M,46.34,KLSV 070545Z AUTO 10004KT 10SM BKN039 BKN080 09/06 A2958 RMK AO2 VIS 2 1/4 RWY03R SLP014 $,M
WMC,2024-02-07 05:51,-117.8072,40.9019,1315.00,35.60,32.00,86.59,280.00,5.00,T,29.59,M,10.00,M,OVC,M,M,M,900.00,M,M,M,M,M,M,M,M,M,M,30.67,KWMC 070551Z AUTO 28005KT 10SM OVC009 02/00 A2959 RMK AO2 UPE12 P0000,M
P68,2024-02-07 05:53,-116.0056,39.6014,1993.00,33.00,28.00,81.63,240.00,8.00,0.00,29.53,998.00,M,M,M,M,M,M,M,M,M,M,M,M,M,M,M,M,M,25.34,KP68 070553Z AUTO 24008KT 01/M02 A2953 RMK AO1 SLP980 T00061022 10022 20006 50003,M
DRA,2024-02-07 05:53,-116.0278,36.6206,1009.00,43.00,39.00,85.66,240.00,6.00,0.00,29.57,1000.20,10.00,M,BKN,OVC,M,M,2200.00,3300.00,M,M,M,M,M,M,M,M,M,38.78,KDRA 070553Z AUTO 24006KT 10SM BKN022 OVC033 06/04 A2957 RMK AO2 SLP002 60002 T00610039 10072 20056 51008,M
ELY,2024-02-07 05:53,-114.8453,39.2950,1909.00,32.00,28.00,84.98,0.00,0.00,0.00,29.52,998.30,10.00,M,SCT,OVC,M,M,2400.00,3100.00,M,M,M,M,M,M,M,M,M,32.00,KELY 070553Z AUTO 00000KT 10SM SCT024 OVC031 00/M02 A2952 RMK AO2 SLP983 60001 T00001022 10017 20000 51001,M
VGT,2024-02-07 05:53,-115.1933,36.2111,667.00,47.00,41.00,79.52,140.00,5.00,T,29.60,1004.00,10.00,M,OVC,M,M,M,4200.00,M,M,M,-RA,M,M,M,M,M,M,44.21,KVGT 070553Z AUTO 14005KT 10SM -RA OVC042 08/05 A2960 RMK AO2 SLP040 P0000 60010 T00830050 10100 20083 53012,M
LOL,2024-02-07 05:53,-118.5701,40.0684,1192.43,32.00,32.00,100.00,100.00,3.00,T,29.62,1004.30,10.00,M,FEW,SCT,OVC,M,3900.00,4700.00,6000.00,M,M,M,M,M,M,M,M,28.69,KLOL 070553Z AUTO 10003KT 10SM FEW039 SCT047 OVC060 00/00 A2962 RMK AO2 RAB14E49 SLP043 P0000 60001 T00000000 10022 20000 51006,M
TMT,2024-02-07 05:55,-117.1971,39.4643,1749.34,32.00,29.00,88.53,240.00,5.00,0.00,29.58,M,10.00,M,OVC,M,M,M,2400.00,M,M,M,M,M,M,M,M,M,M,26.40,KTMT 070555Z AUTO 24005KT 10SM OVC024 00/M02 A2958 RMK AO2 T00011016 10019 20001,M
LSV,2024-02-07 05:55,-115.0343,36.2362,570.00,47.70,43.00,83.66,50.00,5.00,0.00,29.58,1001.40,10.00,M,OVC,M,M,M,3800.00,M,M,M,M,M,M,M,M,M,M,45.04,KLSV 070555Z AUTO 05005KT 10SM OVC038 09/06 A2958 RMK AO2 VIS 1 3/4 RWY03R SLP014 60002 T00870061 10108 20085 52016 $,M
BVU,2024-02-07 05:55,-114.8611,35.9475,671.00,46.40,41.00,81.34,220.00,5.00,0.00,29.62,M,10.00,M,OVC,M,M,M,4300.00,M,M,M,M,M,M,M,M,M,M,43.50,KBVU 070555Z AUTO 22005KT 10SM OVC043 08/05 A2962 RMK AO2,M
CXP,2024-02-07 05:55,-119.7326,39.1923,1431.00,33.80,32.00,93.03,280.00,4.00,0.00,29.66,M,9.00,M,BKN,BKN,BKN,M,500.00,4100.00,5500.00,M,M,M,M,M,M,M,M,29.52,KCXP 070555Z AUTO 28004KT 9SM BKN005 BKN041 BKN055 01/M00 A2966 RMK AO2,M
INS,2024-02-07 05:55,-115.6733,36.5872,955.00,43.50,38.70,83.05,180.00,4.00,T,29.58,1000.70,10.00,M,SCT,OVC,M,M,2900.00,7500.00,M,M,M,M,M,M,M,M,M,40.85,KINS 070555Z AUTO 18004KT 10SM SCT029 OVC075 06/04 A2958 RMK AO2 RAB06E13DZB13E18 SLP007 P0000 60001 T00640037 10072 20061 52007 $,M
RNO,2024-02-07 05:55,-119.7711,39.4839,1341.00,34.00,28.00,78.43,0.00,0.00,0.00,29.64,1003.70,10.00,M,SCT,M,M,M,5000.00,M,M,M,M,M,M,M,M,M,M,34.00,KRNO 070555Z 00000KT 10SM SCT050 01/M02 A2964 RMK AO2 SLP037 T00111022 10061 20011 51009,M
RTS,2024-02-07 05:55,-119.8764,39.6682,1539.00,26.60,24.80,92.80,330.00,4.00,0.00,29.65,M,10.00,M,CLR,M,M,M,M,M,M,M,M,M,M,M,M,M,M,21.11,KRTS 070555Z AUTO 33004KT 10SM CLR M03/M04 A2965 RMK AO2,M
05U,2024-02-07 05:55,-116.0051,39.6042,1811.23,M,M,M,40.00,8.00,0.00,29.55,M,10.00,M,M,M,M,M,M,M,M,M,M,M,M,M,M,M,M,M,K05U 070555Z AUTO 04008KT 10SM A2955 RMK A01,M
MEV,2024-02-07 05:55,-119.7500,38.9963,1441.42,32.00,32.00,100.00,110.00,5.00,0.00,29.65,M,4.00,M,OVC,M,M,M,400.00,M,M,M,BR,M,M,M,M,M,M,26.40,KMEV 070555Z AUTO 11005KT 4SM BR OVC004 M00/M00 A2965 RMK AO2,M
BAM,2024-02-07 05:55,-116.8743,40.5990,1382.36,37.40,35.60,93.14,250.00,5.00,0.00,29.57,M,10.00,M,OVC,M,M,M,2300.00,M,M,M,M,M,M,M,M,M,M,32.81,KBAM 070555Z AUTO 25005KT 10SM OVC023 03/02 A2957 RMK AO1,M
HTH,2024-02-07 05:55,-118.6315,38.5448,1282.89,37.40,35.60,93.14,0.00,0.00,0.00,29.64,M,10.00,M,OVC,M,M,M,7000.00,M,M,M,M,M,M,M,M,M,M,37.40,KHTH 070555Z AUTO 00000KT 10SM OVC070 03/02 A2964 RMK A01,M
WMC,2024-02-07 05:56,-117.8072,40.9019,1315.00,35.00,32.00,88.68,280.00,5.00,T,29.59,1002.30,10.00,M,OVC,M,M,M,900.00,M,M,M,UP,M,M,M,M,M,M,29.96,KWMC 070556Z AUTO 28005KT 10SM UP OVC009 02/00 A2959 RMK AO2 UPE12B55 SLP023 P0000 60006 T00170000 10017 20006 51004,M
EKO,2024-02-07 05:56,-115.7860,40.8242,1367.00,35.00,33.00,92.32,230.00,7.00,0.01,29.52,999.50,10.00,M,OVC,M,M,M,1300.00,M,M,M,M,M,M,M,M,M,M,28.44,KEKO 070556Z AUTO 23007KT 10SM OVC013 02/01 A2952 RMK AO2 RAB24E33 SLP995 P0001 60008 T00170006 10033 20017 51007,M
NFL,2024-02-07 05:56,-118.7010,39.4166,1199.00,38.00,36.00,92.42,M,5.00,0.00,29.62,1001.40,10.00,M,SCT,BKN,OVC,M,2000.00,3000.00,5000.00,M,M,M,M,M,M,M,M,33.52,KNFL 070556Z VRB05KT 10SM SCT020 BKN030 OVC050 03/02 A2962 RMK AO2 SLP014 T00330022 10044 20033 51005,M
HND,2024-02-07 05:56,-115.1344,35.9729,742.79,45.00,38.00,76.31,180.00,12.00,0.00,29.62,1004.90,10.00,M,OVC,M,M,M,5000.00,M,M,M,M,M,M,M,M,M,M,38.55,KHND 070556Z AUTO 18012KT 10SM OVC050 07/03 A2962 RMK AO2 SLP049 60009 T00720033 10100 20067 53016,M
TPH,2024-02-07 05:56,-117.0904,38.0505,1654.00,33.00,29.00,85.04,320.00,9.00,0.00,29.56,1001.40,10.00,M,FEW,FEW,M,M,1400.00,4200.00,M,M,M,M,M,M,M,M,M,24.76,KTPH 070556Z AUTO 32009KT 10SM FEW014 FEW042 01/M02 A2956 RMK AO2 SLP014 T00061017 10017 21006 51001,M
LAS,2024-02-07 05:56,-115.1634,36.0719,663.00,45.00,39.00,79.36,180.00,8.00,0.00,29.59,1002.00,10.00,15.00,SCT,BKN,BKN,OVC,4800.00,6000.00,10000.00,20000.00,M,M,M,M,M,M,M,40.13,KLAS 070556Z 18008G15KT 10SM SCT048 BKN060 BKN100 OVC200 07/04 A2959 RMK AO2 SLP020 60007 T00720039 10094 20067 52015,M
DRA,2024-02-07 06:03,-116.0278,36.6206,1009.00,43.00,38.00,82.37,240.00,8.00,0.00,29.58,M,10.00,M,SCT,OVC,M,M,2400.00,3500.00,M,M,M,M,M,M,M,M,M,37.66,KDRA 070603Z AUTO 24008KT 10SM SCT024 OVC035 06/03 A2958 RMK AO2 T00610033,M
INS,2024-02-07 06:05,-115.6733,36.5872,955.00,44.60,37.40,75.68,0.00,0.00,0.00,29.58,1000.40,10.00,M,FEW,OVC,M,M,2900.00,7500.00,M,M,-RA,M,M,M,M,M,M,44.60,KINS 070605Z AUTO 00000KT 10SM -RA FEW029 OVC075 07/03 A2958 RMK AO2 RAB05 SLP004 $,M
CXP,2024-02-07 06:10,-119.7326,39.1923,1431.00,33.80,32.00,93.03,0.00,0.00,0.00,29.66,M,10.00,M,SCT,SCT,SCT,M,500.00,1000.00,4100.00,M,M,M,M,M,M,M,M,33.80,KCXP 070610Z AUTO 00000KT 10SM SCT005 SCT010 SCT041 01/M00 A2966 RMK AO2,M
05U,2024-02-07 06:10,-116.0051,39.6042,1811.23,33.80,28.40,80.36,40.00,9.00,0.00,29.55,M,10.00,M,M,M,M,M,M,M,M,M,M,M,M,M,M,M,M,25.75,K05U 070610Z AUTO 04009KT 10SM 01/M02 A2955 RMK A01,M
HTH,2024-02-07 06:10,-118.6315,38.5448,1282.89,37.40,35.60,93.14,0.00,0.00,0.00,29.64,M,10.00,M,OVC,M,M,M,7000.00,M,M,M,M,M,M,M,M,M,M,37.40,KHTH 070610Z AUTO 00000KT 10SM OVC070 03/02 A2964 RMK A01,M
BVU,2024-02-07 06:15,-114.8611,35.9475,671.00,46.40,41.00,81.34,210.00,8.00,0.00,29.62,M,10.00,M,OVC,M,M,M,4500.00,M,M,M,M,M,M,M,M,M,M,41.85,KBVU 070615Z AUTO 21008KT 10SM OVC045 08/05 A2962 RMK AO2,M
RTS,2024-02-07 06:15,-119.8764,39.6682,1539.00,26.60,24.80,92.80,320.00,4.00,0.00,29.65,M,10.00,M,SCT,M,M,M,3300.00,M,M,M,M,M,M,M,M,M,M,21.11,KRTS 070615Z AUTO 32004KT 10SM SCT033 M03/M04 A2965 RMK AO2,M
MEV,2024-02-07 06:15,-119.7500,38.9963,1441.42,32.00,32.00,100.00,120.00,6.00,0.00,29.65,M,5.00,M,OVC,M,M,M,400.00,M,M,M,BR,M,M,M,M,M,M,25.53,KMEV 070615Z AUTO 12006KT 5SM BR OVC004 00/00 A2965 RMK AO2,M
BAM,2024-02-07 06:15,-116.8743,40.5990,1382.36,37.40,35.60,93.14,260.00,7.00,0.00,29.57,M,10.00,M,OVC,M,M,M,1700.00,M,M,M,M,M,M,M,M,M,M,31.36,KBAM 070615Z AUTO 26007KT 10SM OVC017 03/02 A2957 RMK AO1,M
TMT,2024-02-07 06:15,-117.1971,39.4643,1749.34,32.00,29.30,89.63,240.00,5.00,0.00,29.58,M,10.00,M,BKN,OVC,M,M,2400.00,3400.00,M,M,M,M,M,M,M,M,M,26.40,KTMT 070615Z AUTO 24005KT 10SM BKN024 OVC034 00/M01 A2958 RMK AO2 T00011015,M
LOL,2024-02-07 06:20,-118.5701,40.0684,1192.43,32.00,32.00,100.00,80.00,4.00,0.00,29.62,M,9.00,M,SCT,BKN,OVC,M,200.00,4100.00,8500.00,M,M,M,M,M,M,M,M,27.42,KLOL 070620Z AUTO 08004KT 9SM SCT002 BKN041 OVC085 00/00 A2962 RMK AO2 T00000000,M
INS,2024-02-07 06:21,-115.6733,36.5872,955.00,42.80,39.20,86.99,0.00,0.00,0.00,29.58,1000.70,10.00,M,BKN,OVC,M,M,3000.00,7500.00,M,M,M,M,M,M,M,M,M,42.80,KINS 070621Z AUTO 00000KT 10SM BKN030 OVC075 06/04 A2958 RMK AO2 RAB05E19DZB19E21 SLP007 $,M
INS,2024-02-07 06:26,-115.6733,36.5872,955.00,42.80,39.20,86.99,0.00,0.00,0.00,29.58,1000.70,10.00,M,BKN,BKN,OVC,M,2800.00,3300.00,7500.00,M,M,M,M,M,M,M,M,42.80,KINS 070626Z AUTO 00000KT 10SM BKN028 BKN033 OVC075 06/04 A2958 RMK AO2 RAB05E19DZB19E21 SLP007 $,M
LOL,2024-02-07 06:29,-118.5701,40.0684,1192.43,32.00,31.00,96.04,70.00,4.00,0.00,29.62,M,8.00,M,FEW,BKN,OVC,M,100.00,1700.00,8000.00,M,M,M,M,M,M,M,M,27.42,KLOL 070629Z AUTO 07004KT 8SM FEW001 BKN017 OVC080 00/M01 A2962 RMK AO2 T00001006,M
WMC,2024-02-07 06:31,-117.8072,40.9019,1315.00,35.00,32.00,88.68,0.00,0.00,0.01,29.59,M,10.00,M,OVC,M,M,M,1000.00,M,M,M,UP,M,M,M,M,M,M,35.00,KWMC 070631Z AUTO 00000KT 10SM UP OVC010 02/00 A2959 RMK AO2 UPE03B23SNB03E23 P0001 T00170000,M
LOL,2024-02-07 06:32,-118.5701,40.0684,1192.43,31.00,31.00,100.00,80.00,4.00,0.00,29.62,M,8.00,M,SCT,BKN,OVC,M,100.00,900.00,8000.00,M,M,M,M,M,M,M,M,26.25,KLOL 070632Z AUTO 08004KT 8SM SCT001 BKN009 OVC080 M01/M01 A2962 RMK AO2 T10061006,M
BVU,2024-02-07 06:35,-114.8611,35.9475,671.00,46.40,39.20,75.84,200.00,6.00,0.00,29.63,M,10.00,M,OVC,M,M,M,4500.00,M,M,M,M,M,M,M,M,M,M,42.87,KBVU 070635Z AUTO 20006KT 10SM OVC045 08/04 A2963 RMK AO2,M
CXP,2024-02-07 06:35,-119.7326,39.1923,1431.00,32.00,32.00,100.00,0.00,0.00,0.00,29.66,M,10.00,M,BKN,BKN,M,M,800.00,1200.00,M,M,M,M,M,M,M,M,M,32.00,KCXP 070635Z AUTO 00000KT 10SM BKN008 BKN012 00/M00 A2966 RMK AO2,M
RTS,2024-02-07 06:35,-119.8764,39.6682,1539.00,28.40,26.60,92.86,310.00,4.00,0.00,29.65,M,10.00,M,OVC,M,M,M,3300.00,M,M,M,M,M,M,M,M,M,M,23.22,KRTS 070635Z AUTO 31004KT 10SM OVC033 M02/M03 A2965 RMK AO2,M
05U,2024-02-07 06:35,-116.0051,39.6042,1811.23,33.80,28.40,80.36,40.00,9.00,0.00,29.54,M,10.00,M,M,M,M,M,M,M,M,M,M,M,M,M,M,M,M,25.75,K05U 070635Z AUTO 04009KT 10SM 01/M02 A2954 RMK A01,M
MEV,2024-02-07 06:35,-119.7500,38.9963,1441.42,32.00,32.00,100.00,130.00,4.00,0.00,29.65,M,7.00,M,OVC,M,M,M,500.00,M,M,M,M,M,M,M,M,M,M,27.42,KMEV 070635Z AUTO 13004KT 7SM OVC005 00/00 A2965 RMK AO2,M
BAM,2024-02-07 06:35,-116.8743,40.5990,1382.36,35.60,35.60,100.00,250.00,3.00,0.00,29.57,M,10.00,M,BKN,OVC,M,M,1900.00,2400.00,M,M,M,M,M,M,M,M,M,32.80,KBAM 070635Z AUTO 25003KT 10SM BKN019 OVC024 02/02 A2957 RMK AO1,M
HTH,2024-02-07 06:35,-118.6315,38.5448,1282.89,37.40,33.80,86.69,0.00,0.00,0.00,29.64,M,10.00,M,FEW,SCT,OVC,M,4500.00,6000.00,7000.00,M,M,M,M,M,M,M,M,37.40,KHTH 070635Z AUTO 00000KT 10SM FEW045 SCT060 OVC070 03/01 A2964 RMK A01,M
TMT,2024-02-07 06:35,-117.1971,39.4643,1749.34,32.00,29.30,89.63,240.00,4.00,0.00,29.58,M,10.00,M,SCT,BKN,OVC,M,2300.00,2800.00,3500.00,M,M,M,M,M,M,M,M,27.42,KTMT 070635Z AUTO 24004KT 10SM SCT023 BKN028 OVC035 00/M01 A2958 RMK AO2 T00001015,M
LOL,2024-02-07 06:39,-118.5701,40.0684,1192.43,31.00,31.00,100.00,80.00,4.00,0.00,29.62,M,3.00,M,BKN,BKN,OVC,M,300.00,1700.00,9000.00,M,BR,M,M,M,M,M,M,26.25,KLOL 070639Z AUTO 08004KT 3SM BR BKN003 BKN017 OVC090 M01/M01 A2962 RMK AO2 T10061006,M
LOL,2024-02-07 06:42,-118.5701,40.0684,1192.43,31.00,31.00,100.00,80.00,3.00,0.00,29.62,M,1.75,M,BKN,OVC,M,M,300.00,8500.00,M,M,BR,M,M,M,M,M,M,27.55,KLOL 070642Z AUTO 08003KT 1 3/4SM BR BKN003 OVC085 M01/M01 A2962 RMK AO2 T10061006,M
LOL,2024-02-07 06:50,-118.5701,40.0684,1192.43,30.20,30.20,100.00,70.00,4.00,0.00,29.62,M,0.50,M,SCT,BKN,OVC,M,300.00,7000.00,8500.00,M,FZFG,M,M,M,M,M,M,25.32,KLOL 070650Z AUTO 07004KT 1/2SM FZFG SCT003 BKN070 OVC085 M01/M01 A2962 RMK AO2,M
DRA,2024-02-07 06:53,-116.0278,36.6206,1009.00,42.00,38.00,85.60,230.00,9.00,0.00,29.59,1000.80,10.00,M,FEW,OVC,M,M,2400.00,7000.00,M,M,M,M,M,M,M,M,M,35.95,KDRA 070653Z AUTO 23009KT 10SM FEW024 OVC070 06/03 A2959 RMK AO2 SLP008 T00560033,M
ELY,2024-02-07 06:53,-114.8453,39.2950,1909.00,30.00,27.00,88.44,190.00,3.00,0.00,29.53,999.00,10.00,M,FEW,SCT,BKN,M,1900.00,2400.00,4200.00,M,M,M,M,M,M,M,M,26.40,KELY 070653Z AUTO 19003KT 10SM FEW019 SCT024 BKN042 M01/M03 A2953 RMK AO2 SLP990 T10111028,M
VGT,2024-02-07 06:53,-115.1933,36.2111,667.00,46.00,41.00,82.58,0.00,0.00,0.01,29.61,1004.30,10.00,M,SCT,BKN,OVC,M,3000.00,3700.00,8500.00,M,-RA,M,M,M,M,M,M,46.00,KVGT 070653Z AUTO 00000KT 10SM -RA SCT030 BKN037 OVC085 08/05 A2961 RMK AO2 SLP043 P0001 T00780050,M
LOL,2024-02-07 06:53,-118.5701,40.0684,1192.43,31.00,31.00,100.00,70.00,4.00,0.00,29.62,1004.50,0.75,M,SCT,BKN,OVC,M,200.00,7000.00,8500.00,M,BR,M,M,M,M,M,M,26.25,KLOL 070653Z AUTO 07004KT 3/4SM BR SCT002 BKN070 OVC085 M01/M01 A2962 RMK AO2 SLP045 T10061006,M
P68,2024-02-07 06:53,-116.0056,39.6014,1993.00,33.00,28.00,81.63,240.00,7.00,0.00,29.53,998.40,M,M,M,M,M,M,M,M,M,M,M,M,M,M,M,M,M,26.00,KP68 070653Z AUTO 24007KT 01/M02 A2953 RMK AO1 SLP984 T00061022,M
BVU,2024-02-07 06:55,-114.8611,35.9475,671.00,46.40,39.20,75.84,190.00,8.00,0.00,29.63,M,10.00,17.00,OVC,M,M,M,4600.00,M,M,M,M,M,M,M,M,M,M,41.85,KBVU 070655Z AUTO 19008G17KT 10SM OVC046 08/04 A2963 RMK AO2,M
CXP,2024-02-07 06:55,-119.7326,39.1923,1431.00,32.00,32.00,100.00,0.00,0.00,0.00,29.66,M,10.00,M,OVC,M,M,M,700.00,M,M,M,M,M,M,M,M,M,M,32.00,KCXP 070655Z AUTO 00000KT 10SM OVC007 00/M00 A2966 RMK AO2,M
INS,2024-02-07 06:55,-115.6733,36.5872,955.00,43.00,39.20,86.33,0.00,0.00,T,29.59,1001.00,10.00,M,BKN,BKN,OVC,M,2900.00,3700.00,4800.00,M,M,M,M,M,M,M,M,43.00,KINS 070655Z AUTO 00000KT 10SM BKN029 BKN037 OVC048 06/04 A2959 RMK AO2 RAB05E19DZB19E21 SLP010 P0000 T00620040 $,M
RNO,2024-02-07 06:55,-119.7711,39.4839,1341.00,33.00,28.00,81.63,0.00,0.00,0.00,29.65,1003.80,10.00,M,SCT,M,M,M,5000.00,M,M,M,M,M,M,M,M,M,M,33.00,KRNO 070655Z 00000KT 10SM SCT050 01/M02 A2965 RMK AO2 SLP038 T00061022,M
RTS,2024-02-07 06:55,-119.8764,39.6682,1539.00,26.60,24.80,92.80,320.00,5.00,0.00,29.65,M,10.00,M,BKN,M,M,M,3500.00,M,M,M,M,M,M,M,M,M,M,19.98,KRTS 070655Z AUTO 32005KT 10SM BKN035 M03/M04 A2965 RMK AO2,M
05U,2024-02-07 06:55,-116.0051,39.6042,1811.23,33.80,28.40,80.36,40.00,5.00,0.00,29.55,M,10.00,M,M,M,M,M,M,M,M,M,M,M,M,M,M,M,M,28.53,K05U 070655Z AUTO 04005KT 10SM 01/M02 A2955 RMK A01,M
MEV,2024-02-07 06:55,-119.7500,38.9963,1441.42,32.00,32.00,100.00,160.00,4.00,0.00,29.65,M,7.00,M,OVC,M,M,M,700.00,M,M,M,M,M,M,M,M,M,M,27.42,KMEV 070655Z AUTO 16004KT 7SM OVC007 00/00 A2965 RMK AO2,M
BAM,2024-02-07 06:55,-116.8743,40.5990,1382.36,35.60,35.60,100.00,0.00,0.00,0.00,29.58,M,10.00,M,BKN,OVC,M,M,1400.00,2200.00,M,M,M,M,M,M,M,M,M,35.60,KBAM 070655Z AUTO 00000KT 10SM BKN014 OVC022 02/02 A2958 RMK AO1,M
HTH,2024-02-07 06:55,-118.6315,38.5448,1282.89,35.60,33.80,93.08,220.00,4.00,0.00,29.64,M,10.00,M,BKN,BKN,OVC,M,4600.00,5500.00,7000.00,M,M,M,M,M,M,M,M,31.62,KHTH 070655Z AUTO 22004KT 10SM BKN046 BKN055 OVC070 02/01 A2964 RMK A01,M
LSV,2024-02-07 06:55,-115.0343,36.2362,570.00,49.30,39.60,69.09,210.00,11.00,0.00,29.59,1001.60,10.00,M,OVC,M,M,M,4000.00,M,M,M,M,M,M,M,M,M,M,44.33,KLSV 070655Z AUTO 21011KT 10SM OVC040 10/04 A2959 RMK AO2 SLP016 T00960042 $,M
TMT,2024-02-07 06:55,-117.1971,39.4643,1749.34,32.00,29.30,89.63,230.00,6.00,0.00,29.58,M,10.00,M,OVC,M,M,M,2300.00,M,M,M,M,M,M,M,M,M,M,25.53,KTMT 070655Z AUTO 23006KT 10SM OVC023 00/M01 A2958 RMK AO2 T00001015,M
EKO,2024-02-07 06:56,-115.7860,40.8242,1367.00,35.00,33.00,92.32,230.00,9.00,0.00,29.52,999.40,10.00,M,BKN,OVC,M,M,1400.00,2000.00,M,M,M,M,M,M,M,M,M,27.24,KEKO 070656Z AUTO 23009KT 10SM BKN014 OVC020 02/01 A2952 RMK AO2 SLP994 T00170006,M
NFL,2024-02-07 06:56,-118.7010,39.4166,1199.00,37.00,35.00,92.39,M,5.00,0.00,29.62,1001.60,10.00,M,SCT,BKN,OVC,M,2000.00,3000.00,5000.00,M,M,M,M,M,M,M,M,32.33,KNFL 070656Z VRB05KT 10SM SCT020 BKN030 OVC050 03/02 A2962 RMK AO2 SLP016 T00280017,M
HND,2024-02-07 06:56,-115.1344,35.9729,742.79,46.00,38.00,73.47,180.00,12.00,0.00,29.64,1005.30,10.00,M,SCT,OVC,M,M,3800.00,6000.00,M,M,M,M,M,M,M,M,M,39.82,KHND 070656Z AUTO 18012KT 10SM SCT038 OVC060 08/03 A2964 RMK AO2 SLP053 T00780033 401060061,M
TPH,2024-02-07 06:56,-117.0904,38.0505,1654.00,33.00,29.00,85.04,310.00,12.00,0.00,29.57,1001.60,10.00,M,CLR,M,M,M,M,M,M,M,M,M,M,M,M,M,M,23.27,KTPH 070656Z AUTO 31012KT 10SM CLR 01/M02 A2957 RMK AO2 SLP016 T00061017,M
LAS,2024-02-07 06:56,-115.1634,36.0719,663.00,46.00,38.00,73.47,190.00,10.00,0.00,29.60,1002.20,10.00,20.00,SCT,BKN,OVC,M,5000.00,8000.00,20000.00,M,M,M,M,M,M,M,M,40.52,KLAS 070656Z 19010G20KT 10SM SCT050 BKN080 OVC200 08/03 A2960 RMK AO2 SLP022 T00780033,M
WMC,2024-02-07 06:56,-117.8072,40.9019,1315.00,35.00,32.00,88.68,0.00,0.00,0.01,29.59,1002.30,10.00,M,OVC,M,M,M,1200.00,M,M,M,UP,M,M,M,M,M,M,35.00,KWMC 070656Z AUTO 00000KT 10SM UP OVC012 02/00 A2959 RMK AO2 UPE03B23SNB03E23 SLP023 P0001 T00170000,M
LOL,2024-02-07 07:02,-118.5701,40.0684,1192.43,31.00,31.00,100.00,30.00,3.00,0.00,29.62,M,2.00,M,FEW,BKN,OVC,M,200.00,7000.00,8500.00,M,BR,M,M,M,M,M,M,27.55,KLOL 070702Z AUTO 03003KT 2SM BR FEW002 BKN070 OVC085 M01/M01 A2962 RMK AO2 T10061006,M
EKO,2024-02-07 07:03,-115.7860,40.8242,1367.00,35.00,33.00,92.32,230.00,8.00,0.00,29.52,M,10.00,M,OVC,M,M,M,1700.00,M,M,M,M,M,M,M,M,M,M,27.81,KEKO 070703Z AUTO 23008KT 10SM OVC017 02/01 A2952 RMK AO2 T00170006,M
LOL,2024-02-07 07:10,-118.5701,40.0684,1192.43,31.00,31.00,100.00,0.00,0.00,0.00,29.62,M,3.00,M,FEW,OVC,M,M,200.00,8000.00,M,M,BR,M,M,M,M,M,M,31.00,KLOL 070710Z AUTO 00000KT 3SM BR FEW002 OVC080 M01/M01 A2962 RMK AO2 T10061006,M
INS,2024-02-07 07:14,-115.6733,36.5872,955.00,42.80,39.20,86.99,0.00,0.00,0.00,29.59,1001.00,10.00,M,BKN,BKN,OVC,M,2800.00,3500.00,4500.00,M,-RA,M,M,M,M,M,M,42.80,KINS 070714Z AUTO 00000KT 10SM -RA BKN028 BKN035 OVC045 06/04 A2959 RMK AO2 RAB14 SLP010 $,M
BVU,2024-02-07 07:15,-114.8611,35.9475,671.00,46.40,39.20,75.84,190.00,10.00,0.00,29.64,M,10.00,M,OVC,M,M,M,4300.00,M,M,M,M,M,M,M,M,M,M,41.03,KBVU 070715Z AUTO 19010KT 10SM OVC043 08/04 A2964 RMK AO2,M
CXP,2024-02-07 07:15,-119.7326,39.1923,1431.00,32.00,32.00,100.00,0.00,0.00,0.00,29.66,M,8.00,M,BKN,OVC,M,M,600.00,1300.00,M,M,M,M,M,M,M,M,M,32.00,KCXP 070715Z AUTO 00000KT 8SM BKN006 OVC013 00/M00 A2966 RMK AO2,M
RTS,2024-02-07 07:15,-119.8764,39.6682,1539.00,26.60,24.80,92.80,310.00,4.00,0.00,29.65,M,10.00,M,OVC,M,M,M,3600.00,M,M,M,M,M,M,M,M,M,M,21.11,KRTS 070715Z AUTO 31004KT 10SM OVC036 M03/M04 A2965 RMK AO2,M
05U,2024-02-07 07:15,-116.0051,39.6042,1811.23,33.80,28.40,80.36,50.00,8.00,0.00,29.56,M,10.00,M,M,M,M,M,M,M,M,M,M,M,M,M,M,M,M,26.33,K05U 070715Z AUTO 05008KT 10SM 01/M02 A2956 RMK A01,M
MEV,2024-02-07 07:15,-119.7500,38.9963,1441.42,32.00,32.00,100.00,140.00,3.00,0.00,29.65,M,8.00,M,OVC,M,M,M,600.00,M,M,M,M,M,M,M,M,M,M,28.69,KMEV 070715Z AUTO 14003KT 8SM OVC006 00/00 A2965 RMK AO2,M
BAM,2024-02-07 07:15,-116.8743,40.5990,1382.36,35.60,35.60,100.00,10.00,6.00,0.00,29.58,M,10.00,M,OVC,M,M,M,1400.00,M,M,M,M,M,M,M,M,M,M,29.87,KBAM 070715Z AUTO 01006KT 10SM OVC014 02/02 A2958 RMK AO1,M
HTH,2024-02-07 07:15,-118.6315,38.5448,1282.89,33.80,32.00,93.03,220.00,4.00,0.00,29.64,M,10.00,M,FEW,SCT,SCT,M,4600.00,5500.00,6500.00,M,M,M,M,M,M,M,M,29.52,KHTH 070715Z AUTO 22004KT 10SM FEW046 SCT055 SCT065 01/00 A2964 RMK A01,M
TMT,2024-02-07 07:15,-117.1971,39.4643,1749.34,32.00,29.00,88.53,240.00,6.00,0.00,29.58,M,10.00,M,OVC,M,M,M,2500.00,M,M,M,M,M,M,M,M,M,M,25.53,KTMT 070715Z AUTO 24006KT 10SM OVC025 00/M02 A2958 RMK AO2 T00001016,M
BVU,2024-02-07 07:35,-114.8611,35.9475,671.00,46.40,41.00,81.34,170.00,10.00,0.00,29.64,M,10.00,M,OVC,M,M,M,4400.00,M,M,M,M,M,M,M,M,M,M,41.03,KBVU 070735Z AUTO 17010KT 10SM OVC044 08/05 A2964 RMK AO2,M
CXP,2024-02-07 07:35,-119.7326,39.1923,1431.00,33.80,32.00,93.03,0.00,0.00,0.00,29.67,M,10.00,M,OVC,M,M,M,500.00,M,M,M,M,M,M,M,M,M,M,33.80,KCXP 070735Z AUTO 00000KT 10SM OVC005 01/00 A2967 RMK AO2,M
RTS,2024-02-07 07:35,-119.8764,39.6682,1539.00,28.40,24.80,86.18,330.00,3.00,0.00,29.65,M,10.00,M,BKN,M,M,M,3700.00,M,M,M,M,M,M,M,M,M,M,24.57,KRTS 070735Z AUTO 33003KT 10SM BKN037 M02/M04 A2965 RMK AO2,M
05U,2024-02-07 07:35,-116.0051,39.6042,1811.23,M,M,M,40.00,8.00,0.00,29.57,M,10.00,M,M,M,M,M,M,M,M,M,M,M,M,M,M,M,M,M,K05U 070735Z AUTO 04008KT 10SM A2957 RMK A01,M
MEV,2024-02-07 07:35,-119.7500,38.9963,1441.42,32.00,32.00,100.00,150.00,4.00,0.00,29.65,M,10.00,M,FEW,BKN,OVC,M,400.00,1000.00,1600.00,M,M,M,M,M,M,M,M,27.42,KMEV 070735Z AUTO 15004KT 10SM FEW004 BKN010 OVC016 00/00 A2965 RMK AO2,M
BAM,2024-02-07 07:35,-116.8743,40.5990,1382.36,35.60,35.60,100.00,10.00,5.00,0.00,29.57,M,10.00,M,OVC,M,M,M,1600.00,M,M,M,M,M,M,M,M,M,M,30.67,KBAM 070735Z AUTO 01005KT 10SM OVC016 02/02 A2957 RMK AO1,M
HTH,2024-02-07 07:35,-118.6315,38.5448,1282.89,33.80,32.00,93.03,210.00,4.00,0.00,29.65,M,10.00,M,FEW,FEW,M,M,5500.00,6500.00,M,M,M,M,M,M,M,M,M,29.52,KHTH 070735Z AUTO 21004KT 10SM FEW055 FEW065 01/00 A2965 RMK A01,M
LSV,2024-02-07 07:35,-115.0343,36.2362,570.00,50.00,39.20,66.27,190.00,8.00,0.00,29.59,1001.60,10.00,M,BKN,M,M,M,5000.00,M,M,M,M,M,M,M,M,M,M,50.00,KLSV 070735Z AUTO 19008KT 10SM BKN050 10/04 A2959 RMK AO2 SLP016 $,M
TMT,2024-02-07 07:35,-117.1971,39.4643,1749.34,32.00,29.00,88.53,240.00,5.00,0.00,29.59,M,10.00,M,OVC,M,M,M,2700.00,M,M,M,M,M,M,M,M,M,M,26.40,KTMT 070735Z AUTO 24005KT 10SM OVC027 00/M02 A2959 RMK AO2 T00001016,M
WMC,2024-02-07 07:36,-117.8072,40.9019,1315.00,35.00,32.00,88.68,280.00,7.00,T,29.59,M,10.00,M,SCT,OVC,M,M,1300.00,3000.00,M,M,-RA,M,M,M,M,M,M,28.44,KWMC 070736Z AUTO 28007KT 10SM -RA SCT013 OVC030 02/00 A2959 RMK AO2 UPE33RAB33 P0000 T00170000,M
INS,2024-02-07 07:44,-115.6733,36.5872,955.00,42.80,41.00,93.30,100.00,7.00,0.00,29.60,1001.10,10.00,M,BKN,OVC,M,M,1700.00,2500.00,M,M,M,M,M,M,M,M,M,37.94,KINS 070744Z AUTO 10007KT 10SM BKN017 OVC025 06/05 A2960 RMK AO2 RAB14E44 SLP011 $,M
WMC,2024-02-07 07:48,-117.8072,40.9019,1315.00,35.00,32.00,88.68,290.00,3.00,T,29.59,M,10.00,M,BKN,BKN,OVC,M,1200.00,2200.00,3200.00,M,-RA,M,M,M,M,M,M,32.12,KWMC 070748Z AUTO 29003KT 10SM -RA BKN012 BKN022 OVC032 02/00 A2959 RMK AO2 UPE33RAB33 P0000 T00170000,M
DRA,2024-02-07 07:53,-116.0278,36.6206,1009.00,42.00,37.00,82.30,210.00,13.00,0.00,29.60,1001.20,10.00,19.00,FEW,BKN,OVC,M,2400.00,6000.00,7000.00,M,M,M,M,M,M,M,M,34.38,KDRA 070753Z AUTO 21013G19KT 10SM FEW024 BKN060 OVC070 06/03 A2960 RMK AO2 SLP012 T00560028 400720039,M
ELY,2024-02-07 07:53,-114.8453,39.2950,1909.00,30.00,27.00,88.44,170.00,4.00,0.00,29.51,998.10,10.00,M,OVC,M,M,M,4200.00,M,M,M,M,M,M,M,M,M,M,25.08,KELY 070753Z AUTO 17004KT 10SM OVC042 M01/M03 A2951 RMK AO2 SLP981 T10111028 400331011,M
VGT,2024-02-07 07:53,-115.1933,36.2111,667.00,46.00,42.00,85.83,340.00,5.00,T,29.60,1004.20,10.00,M,FEW,OVC,M,M,6500.00,8000.00,M,M,-RA,M,M,M,M,M,M,43.02,KVGT 070753Z AUTO 34005KT 10SM -RA FEW065 OVC080 08/06 A2960 RMK AO2 SLP042 P0000 T00780056 401060078,M
LOL,2024-02-07 07:53,-118.5701,40.0684,1192.43,32.00,32.00,100.00,0.00,0.00,0.00,29.62,1004.60,7.00,M,BKN,OVC,M,M,6500.00,8500.00,M,M,M,M,M,M,M,M,M,32.00,KLOL 070753Z AUTO 00000KT 7SM BKN065 OVC085 00/00 A2962 RMK AO2 SLP046 T00000000 400281006,M
P68,2024-02-07 07:53,-116.0056,39.6014,1993.00,33.00,27.00,78.34,0.00,0.00,0.00,29.55,998.90,M,M,M,M,M,M,M,M,M,M,M,M,M,M,M,M,M,33.00,KP68 070753Z AUTO 00000KT 01/M03 A2955 RMK AO1 SLP989 T00061028 400440006,M
BVU,2024-02-07 07:55,-114.8611,35.9475,671.00,46.40,42.80,87.19,160.00,10.00,0.00,29.63,M,10.00,M,BKN,OVC,M,M,4700.00,8000.00,M,M,M,M,M,M,M,M,M,41.03,KBVU 070755Z AUTO 16010KT 10SM BKN047 OVC080 08/06 A2963 RMK AO2,M
CXP,2024-02-07 07:55,-119.7326,39.1923,1431.00,33.80,32.00,93.03,0.00,0.00,0.00,29.67,M,10.00,M,OVC,M,M,M,500.00,M,M,M,M,M,M,M,M,M,M,33.80,KCXP 070755Z AUTO 00000KT 10SM OVC005 01/00 A2967 RMK AO2,M
RNO,2024-02-07 07:55,-119.7711,39.4839,1341.00,33.00,28.00,81.63,0.00,0.00,0.00,29.65,1003.70,10.00,M,BKN,M,M,M,3700.00,M,M,M,M,M,M,M,M,M,M,33.00,KRNO 070755Z 00000KT 10SM BKN037 01/M02 A2965 RMK AO2 SLP037 T00061022 400670000,M
RTS,2024-02-07 07:55,-119.8764,39.6682,1539.00,28.40,23.00,79.92,330.00,3.00,0.00,29.65,M,10.00,M,OVC,M,M,M,3500.00,M,M,M,M,M,M,M,M,M,M,24.57,KRTS 070755Z AUTO 33003KT 10SM OVC035 M02/M05 A2965 RMK AO2,M
05U,2024-02-07 07:55,-116.0051,39.6042,1811.23,M,M,M,0.00,0.00,0.00,29.58,M,10.00,M,M,M,M,M,M,M,M,M,M,M,M,M,M,M,M,M,K05U 070755Z AUTO 00000KT 10SM A2958 RMK A01,M
MEV,2024-02-07 07:55,-119.7500,38.9963,1441.42,32.00,32.00,100.00,0.00,0.00,0.00,29.65,M,10.00,M,FEW,BKN,OVC,M,500.00,1000.00,1600.00,M,M,M,M,M,M,M,M,32.00,KMEV 070755Z AUTO 00000KT 10SM FEW005 BKN010 OVC016 00/M00 A2965 RMK AO2,M
BAM,2024-02-07 07:55,-116.8743,40.5990,1382.36,35.60,35.60,100.00,340.00,3.00,0.00,29.57,M,7.00,M,BKN,OVC,M,M,1100.00,1900.00,M,M,M,M,M,M,M,M,M,32.80,KBAM 070755Z AUTO 34003KT 7SM BKN011 OVC019 02/02 A2957 RMK AO1,M
HTH,2024-02-07 07:55,-118.6315,38.5448,1282.89,33.80,32.00,93.03,200.00,4.00,0.00,29.65,M,10.00,M,FEW,FEW,M,M,5500.00,6500.00,M,M,M,M,M,M,M,M,M,29.52,KHTH 070755Z AUTO 20004KT 10SM FEW055 FEW065 01/00 A2965 RMK A01,M
LSV,2024-02-07 07:55,-115.0343,36.2362,570.00,49.30,39.20,68.02,190.00,13.00,0.00,29.59,1001.60,10.00,M,SCT,SCT,M,M,5500.00,8000.00,M,M,M,M,M,M,M,M,M,43.73,KLSV 070755Z AUTO 19013KT 10SM SCT055 SCT080 10/04 A2959 RMK AO2 SLP016 T00960040 401080074 $,M
TMT,2024-02-07 07:55,-117.1971,39.4643,1749.34,32.00,29.00,88.53,240.00,5.00,0.00,29.59,M,10.00,M,OVC,M,M,M,2700.00,M,M,M,M,M,M,M,M,M,M,26.40,KTMT 070755Z AUTO 24005KT 10SM OVC027 00/M02 A2959 RMK AO2 T00001016 400241001,M
INS,2024-02-07 07:55,-115.6733,36.5872,955.00,43.00,39.70,88.03,100.00,8.00,T,29.60,1001.10,10.00,M,BKN,OVC,M,M,1700.00,2700.00,M,M,M,M,M,M,M,M,M,37.66,KINS 070755Z AUTO 10008KT 10SM BKN017 OVC027 06/04 A2960 RMK AO2 RAB14E44 SLP011 P0000 T00610043 400770042 $,M
EKO,2024-02-07 07:56,-115.7860,40.8242,1367.00,35.00,32.00,88.68,230.00,6.00,0.00,29.50,998.70,10.00,M,OVC,M,M,M,1500.00,M,M,M,M,M,M,M,M,M,M,29.14,KEKO 070756Z AUTO 23006KT 10SM OVC015 02/00 A2950 RMK AO2 SLP987 T00170000 400500017,M
NFL,2024-02-07 07:56,-118.7010,39.4166,1199.00,38.00,36.00,92.42,190.00,5.00,0.00,29.62,1001.50,10.00,M,SCT,OVC,M,M,4800.00,6000.00,M,M,M,M,M,M,M,M,M,33.52,KNFL 070756Z AUTO 19005KT 10SM SCT048 OVC060 03/02 A2962 RMK AO2 SLP015 T00330022 400500011,M
HND,2024-02-07 07:56,-115.1344,35.9729,742.79,45.00,38.00,76.31,200.00,12.00,0.00,29.64,1005.30,10.00,M,FEW,OVC,M,M,7500.00,9500.00,M,M,M,M,M,M,M,M,M,38.55,KHND 070756Z AUTO 20012KT 10SM FEW075 OVC095 07/03 A2964 RMK AO2 SLP053 T00720033,M
TPH,2024-02-07 07:56,-117.0904,38.0505,1654.00,33.00,29.00,85.04,320.00,14.00,0.00,29.58,1002.00,10.00,M,FEW,M,M,M,1700.00,M,M,M,M,M,M,M,M,M,M,22.45,KTPH 070756Z AUTO 32014KT 10SM FEW017 01/M02 A2958 RMK AO2 SLP020 T00061017 400221006,M
LAS,2024-02-07 07:56,-115.1634,36.0719,663.00,46.00,39.00,76.40,190.00,6.00,0.00,29.61,1002.50,10.00,M,BKN,OVC,M,M,6500.00,7500.00,M,M,M,M,M,M,M,M,M,42.39,KLAS 070756Z 19006KT 10SM BKN065 OVC075 08/04 A2961 RMK AO2 SLP025 T00780039 400940067,M
WMC,2024-02-07 07:56,-117.8072,40.9019,1315.00,35.00,32.00,88.68,290.00,3.00,0.01,29.59,1002.40,10.00,M,BKN,BKN,OVC,M,1400.00,2600.00,3200.00,M,-RA,M,M,M,M,M,M,32.12,KWMC 070756Z AUTO 29003KT 10SM -RA BKN014 BKN026 OVC032 02/00 A2959 RMK AO2 UPE33RAB33 SLP024 P0001 T00170000 400330006,M
DRA,2024-02-07 08:03,-116.0278,36.6206,1009.00,42.00,37.00,82.30,220.00,10.00,0.00,29.60,M,10.00,M,BKN,BKN,OVC,M,2300.00,6000.00,7000.00,M,M,M,M,M,M,M,M,35.51,KDRA 070803Z AUTO 22010KT 10SM BKN023 BKN060 OVC070 06/03 A2960 RMK AO2 T00560028,M
WMC,2024-02-07 08:03,-117.8072,40.9019,1315.00,35.00,32.00,88.68,0.00,0.00,T,29.59,M,10.00,M,FEW,BKN,OVC,M,1200.00,1600.00,2700.00,M,-RA,M,M,M,M,M,M,35.00,KWMC 070803Z AUTO 00000KT 10SM -RA FEW012 BKN016 OVC027 02/00 A2959 RMK AO2 P0000 T00170000,M
BVU,2024-02-07 08:15,-114.8611,35.9475,671.00,46.40,41.00,81.34,150.00,9.00,0.00,29.63,M,10.00,M,FEW,BKN,BKN,M,4400.00,5000.00,8500.00,M,M,M,M,M,M,M,M,41.42,KBVU 070815Z AUTO 15009KT 10SM FEW044 BKN050 BKN085 08/05 A2963 RMK AO2,M
CXP,2024-02-07 08:15,-119.7326,39.1923,1431.00,33.80,32.00,93.03,0.00,0.00,0.00,29.67,M,10.00,M,OVC,M,M,M,600.00,M,M,M,M,M,M,M,M,M,M,33.80,KCXP 070815Z AUTO 00000KT 10SM OVC006 01/00 A2967 RMK AO2,M
RTS,2024-02-07 08:15,-119.8764,39.6682,1539.00,26.60,23.00,86.07,350.00,5.00,0.00,29.65,M,10.00,M,OVC,M,M,M,3500.00,M,M,M,M,M,M,M,M,M,M,19.98,KRTS 070815Z AUTO 35005KT 10SM OVC035 M03/M05 A2965 RMK AO2,M
05U,2024-02-07 08:15,-116.0051,39.6042,1811.23,M,M,M,50.00,4.00,0.00,29.56,M,10.00,M,M,M,M,M,M,M,M,M,M,M,M,M,M,M,M,M,K05U 070815Z AUTO 05004KT 10SM A2956 RMK A01,M
MEV,2024-02-07 08:15,-119.7500,38.9963,1441.42,32.00,32.00,100.00,0.00,0.00,0.00,29.65,M,9.00,M,OVC,M,M,M,900.00,M,M,M,M,M,M,M,M,M,M,32.00,KMEV 070815Z AUTO 00000KT 9SM OVC009 00/M00 A2965 RMK AO2,M
BAM,2024-02-07 08:15,-116.8743,40.5990,1382.36,35.60,35.60,100.00,20.00,4.00,0.00,29.56,M,4.00,M,OVC,M,M,M,900.00,M,M,M,M,M,M,M,M,M,M,31.62,KBAM 070815Z AUTO 02004KT 4SM OVC009 02/02 A2956 RMK AO1,M
HTH,2024-02-07 08:15,-118.6315,38.5448,1282.89,33.80,32.00,93.03,220.00,4.00,0.00,29.65,M,10.00,M,BKN,M,M,M,5500.00,M,M,M,M,M,M,M,M,M,M,29.52,KHTH 070815Z AUTO 22004KT 10SM BKN055 01/00 A2965 RMK A01,M
TMT,2024-02-07 08:15,-117.1971,39.4643,1749.34,32.00,29.30,89.63,220.00,4.00,0.00,29.59,M,10.00,M,OVC,M,M,M,2500.00,M,M,M,M,M,M,M,M,M,M,27.42,KTMT 070815Z AUTO 22004KT 10SM OVC025 00/M01 A2959 RMK AO2 T00011015,M
INS,2024-02-07 08:23,-115.6733,36.5872,955.00,42.80,39.20,86.99,90.00,6.00,0.00,29.60,1001.10,10.00,M,BKN,OVC,M,M,1500.00,2800.00,M,M,-RA,M,M,M,M,M,M,38.54,KINS 070823Z AUTO 09006KT 10SM -RA BKN015 OVC028 06/04 A2960 RMK AO2 RAB23 SLP011 $,M
INS,2024-02-07 08:33,-115.6733,36.5872,955.00,42.80,39.20,86.99,90.00,6.00,0.00,29.60,1001.10,10.00,M,OVC,M,M,M,1700.00,M,M,M,M,M,M,M,M,M,M,38.54,KINS 070833Z AUTO 09006KT 10SM OVC017 06/04 A2960 RMK AO2 RAB23E33 SLP011 $,M
BVU,2024-02-07 08:35,-114.8611,35.9475,671.00,46.40,42.80,87.19,150.00,12.00,0.00,29.63,M,10.00,M,BKN,OVC,M,M,4400.00,5000.00,M,M,M,M,M,M,M,M,M,40.33,KBVU 070835Z AUTO 15012KT 10SM BKN044 OVC050 08/06 A2963 RMK AO2,M
CXP,2024-02-07 08:35,-119.7326,39.1923,1431.00,33.80,32.00,93.03,0.00,0.00,0.00,29.67,M,10.00,M,BKN,OVC,M,M,700.00,1200.00,M,M,M,M,M,M,M,M,M,33.80,KCXP 070835Z AUTO 00000KT 10SM BKN007 OVC012 01/00 A2967 RMK AO2,M
INS,2024-02-07 08:35,-115.6733,36.5872,955.00,42.80,39.20,86.99,90.00,7.00,0.00,29.60,1001.10,10.00,M,OVC,M,M,M,1700.00,M,M,M,-RA,M,M,M,M,M,M,37.94,KINS 070835Z AUTO 09007KT 10SM -RA OVC017 06/04 A2960 RMK AO2 RAB23E33RAB35 SLP011 $,M
RTS,2024-02-07 08:35,-119.8764,39.6682,1539.00,26.60,24.80,92.80,350.00,3.00,0.00,29.64,M,10.00,M,BKN,M,M,M,3300.00,M,M,M,M,M,M,M,M,M,M,22.52,KRTS 070835Z AUTO 35003KT 10SM BKN033 M03/M04 A2964 RMK AO2,M
05U,2024-02-07 08:35,-116.0051,39.6042,1811.23,M,M,M,60.00,10.00,0.00,29.56,M,10.00,M,M,M,M,M,M,M,M,M,M,M,M,M,M,M,M,M,K05U 070835Z AUTO 06010KT 10SM A2956 RMK A01,M
MEV,2024-02-07 08:35,-119.7500,38.9963,1441.42,32.00,30.20,92.97,0.00,0.00,0.00,29.65,M,4.00,M,SCT,BKN,BKN,M,600.00,1100.00,3900.00,M,BR,M,M,M,M,M,M,32.00,KMEV 070835Z AUTO 00000KT 4SM BR SCT006 BKN011 BKN039 M00/M01 A2965 RMK AO2,M
BAM,2024-02-07 08:35,-116.8743,40.5990,1382.36,35.60,35.60,100.00,0.00,0.00,0.00,29.57,M,4.00,M,BKN,OVC,M,M,700.00,1100.00,M,M,M,M,M,M,M,M,M,35.60,KBAM 070835Z AUTO 00000KT 4SM BKN007 OVC011 02/02 A2957 RMK AO1,M
HTH,2024-02-07 08:35,-118.6315,38.5448,1282.89,33.80,32.00,93.03,220.00,7.00,0.00,29.64,M,10.00,M,OVC,M,M,M,5500.00,M,M,M,M,M,M,M,M,M,M,26.97,KHTH 070835Z AUTO 22007KT 10SM OVC055 01/00 A2964 RMK A01,M
TMT,2024-02-07 08:35,-117.1971,39.4643,1749.34,32.00,29.30,89.63,230.00,4.00,0.00,29.59,M,10.00,M,BKN,OVC,M,M,2500.00,3200.00,M,M,M,M,M,M,M,M,M,27.42,KTMT 070835Z AUTO 23004KT 10SM BKN025 OVC032 00/M01 A2959 RMK AO2 T00001015,M
INS,2024-02-07 08:42,-115.6733,36.5872,955.00,42.80,39.20,86.99,100.00,8.00,0.00,29.60,1001.10,10.00,M,OVC,M,M,M,1700.00,M,M,M,M,M,M,M,M,M,M,37.42,KINS 070842Z AUTO 10008KT 10SM OVC017 06/04 A2960 RMK AO2 RAB23E33RAB35E42 SLP011 $,M
EKO,2024-02-07 08:42,-115.7860,40.8242,1367.00,34.00,31.00,88.63,230.00,8.00,0.00,29.53,M,10.00,18.00,OVC,M,M,M,1400.00,M,M,M,M,M,M,M,M,M,M,26.58,KEKO 070842Z AUTO 23008G18KT 10SM OVC014 01/M01 A2953 RMK AO2 T00111006,M
DRA,2024-02-07 08:42,-116.0278,36.6206,1009.00,38.00,35.00,88.83,330.00,13.00,0.01,29.62,M,10.00,M,BKN,OVC,M,M,1300.00,2000.00,M,M,-RA,M,M,M,M,M,M,29.26,KDRA 070842Z AUTO 33013KT 10SM -RA BKN013 OVC020 03/02 A2962 RMK AO2 RAB04 P0001 T00330017,M
WMC,2024-02-07 08:43,-117.8072,40.9019,1315.00,35.00,31.00,85.17,0.00,0.00,0.01,29.58,M,10.00,M,FEW,BKN,OVC,M,1900.00,5000.00,7500.00,M,M,M,M,M,M,M,M,35.00,KWMC 070843Z AUTO 00000KT 10SM FEW019 BKN050 OVC075 02/M01 A2958 RMK AO2 RAE41 P0001 T00171006,M
05U,2024-02-07 08:50,-116.0051,39.6042,1811.23,M,M,M,50.00,8.00,0.00,29.57,M,10.00,M,M,M,M,M,M,M,M,M,M,M,M,M,M,M,M,M,K05U 070850Z AUTO 05008KT 10SM A2957 RMK A01,M
DRA,2024-02-07 08:53,-116.0278,36.6206,1009.00,38.00,36.00,92.42,330.00,8.00,0.02,29.62,1002.10,8.00,M,BKN,OVC,M,M,1300.00,2000.00,M,M,-RA,M,M,M,M,M,M,31.50,KDRA 070853Z AUTO 33008KT 8SM -RA BKN013 OVC020 03/02 A2962 RMK AO2 RAB04 SLP021 P0002 60002 T00330022 53014,M
ELY,2024-02-07 08:53,-114.8453,39.2950,1909.00,31.00,28.00,88.48,100.00,4.00,0.00,29.53,998.90,10.00,M,FEW,BKN,OVC,M,1800.00,2200.00,4400.00,M,M,M,M,M,M,M,M,26.25,KELY 070853Z AUTO 10004KT 10SM FEW018 BKN022 OVC044 M01/M02 A2953 RMK AO2 SLP989 T10061022 53002,M
VGT,2024-02-07 08:53,-115.1933,36.2111,667.00,45.00,42.00,89.15,0.00,0.00,T,29.61,1004.40,10.00,M,CLR,M,M,M,M,M,M,M,-RA,M,M,M,M,M,M,45.00,KVGT 070853Z AUTO 00000KT 10SM -RA CLR 07/06 A2961 RMK AO2 SLP044 P0000 60001 T00720056 51004,M
LOL,2024-02-07 08:53,-118.5701,40.0684,1192.43,33.00,32.00,96.06,0.00,0.00,0.00,29.62,1004.40,8.00,M,SCT,OVC,M,M,6000.00,9500.00,M,M,M,M,M,M,M,M,M,33.00,KLOL 070853Z AUTO 00000KT 8SM SCT060 OVC095 01/00 A2962 RMK AO2 SLP044 T00060000 50000,M
P68,2024-02-07 08:53,-116.0056,39.6014,1993.00,32.00,28.00,84.98,250.00,8.00,0.00,29.55,999.10,M,M,M,M,M,M,M,M,M,M,M,M,M,M,M,M,M,24.11,KP68 070853Z AUTO 25008KT 00/M02 A2955 RMK AO1 SLP991 T00001022 50006,M
BVU,2024-02-07 08:55,-114.8611,35.9475,671.00,46.40,42.80,87.19,150.00,11.00,0.00,29.63,M,10.00,M,OVC,M,M,M,4100.00,M,M,M,M,M,M,M,M,M,M,40.66,KBVU 070855Z AUTO 15011KT 10SM OVC041 08/06 A2963 RMK AO2,M
CXP,2024-02-07 08:55,-119.7326,39.1923,1431.00,33.80,32.00,93.03,0.00,0.00,0.00,29.66,M,10.00,M,BKN,OVC,M,M,800.00,1600.00,M,M,M,M,M,M,M,M,M,33.80,KCXP 070855Z AUTO 00000KT 10SM BKN008 OVC016 01/M00 A2966 RMK AO2,M
INS,2024-02-07 08:55,-115.6733,36.5872,955.00,42.40,39.20,88.34,100.00,8.00,T,29.61,1001.50,10.00,M,BKN,OVC,M,M,1800.00,2800.00,M,M,M,M,M,M,M,M,M,36.92,KINS 070855Z AUTO 10008KT 10SM BKN018 OVC028 06/04 A2961 RMK AO2 RAB23E33RAB35E42 SLP015 P0000 60000 T00580040 52008 $,M
RNO,2024-02-07 08:55,-119.7711,39.4839,1341.00,32.00,26.00,78.25,200.00,4.00,0.00,29.65,1003.70,10.00,M,BKN,M,M,M,4000.00,M,M,M,M,M,M,M,M,M,M,27.42,KRNO 070855Z 20004KT 10SM BKN040 00/M03 A2965 RMK AO2 SLP037 T00001033 51001,M
RTS,2024-02-07 08:55,-119.8764,39.6682,1539.00,26.60,24.80,92.80,0.00,0.00,0.00,29.65,M,10.00,M,CLR,M,M,M,M,M,M,M,M,M,M,M,M,M,M,26.60,KRTS 070855Z AUTO 00000KT 10SM CLR M03/M04 A2965 RMK AO2,M
MEV,2024-02-07 08:55,-119.7500,38.9963,1441.42,28.40,28.40,100.00,0.00,0.00,0.00,29.65,M,0.25,M,BKN,BKN,OVC,M,500.00,900.00,1800.00,M,FZFG,M,M,M,M,M,M,28.40,KMEV 070855Z AUTO 00000KT 1/4SM FZFG BKN005 BKN009 OVC018 M02/M02 A2965 RMK AO2,M
BAM,2024-02-07 08:55,-116.8743,40.5990,1382.36,35.60,35.60,100.00,10.00,3.00,0.00,29.57,M,4.00,M,OVC,M,M,M,700.00,M,M,M,M,M,M,M,M,M,M,32.80,KBAM 070855Z AUTO 01003KT 4SM OVC007 02/02 A2957 RMK AO1,M
HTH,2024-02-07 08:55,-118.6315,38.5448,1282.89,33.80,32.00,93.03,220.00,6.00,0.00,29.65,M,10.00,M,OVC,M,M,M,5500.00,M,M,M,M,M,M,M,M,M,M,27.70,KHTH 070855Z AUTO 22006KT 10SM OVC055 01/00 A2965 RMK A01,M
LSV,2024-02-07 08:55,-115.0343,36.2362,570.00,49.50,38.70,66.21,180.00,15.00,0.00,29.59,1001.60,10.00,M,FEW,BKN,M,M,6000.00,7500.00,M,M,M,M,M,M,M,M,M,43.47,KLSV 070855Z AUTO 18015KT 10SM FEW060 BKN075 10/04 A2959 RMK AO2 SLP016 T00970037 52004 $,M
TMT,2024-02-07 08:55,-117.1971,39.4643,1749.34,32.00,29.30,89.63,270.00,4.00,0.00,29.60,M,10.00,M,BKN,OVC,M,M,2500.00,3200.00,M,M,M,M,M,M,M,M,M,27.42,KTMT 070855Z AUTO 27004KT 10SM BKN025 OVC032 00/M01 A2960 RMK AO2 T00011015,M
EKO,2024-02-07 08:56,-115.7860,40.8242,1367.00,35.00,32.00,88.68,260.00,10.00,0.00,29.53,999.90,10.00,M,OVC,M,M,M,1400.00,M,M,M,M,M,M,M,M,M,M,26.73,KEKO 070856Z AUTO 26010KT 10SM OVC014 02/00 A2953 RMK AO2 SLP999 T00170000 53005,M
NFL,2024-02-07 08:56,-118.7010,39.4166,1199.00,37.00,35.00,92.39,200.00,4.00,0.00,29.62,1001.60,10.00,M,SCT,BKN,OVC,M,3800.00,4600.00,7500.00,M,M,M,M,M,M,M,M,33.26,KNFL 070856Z AUTO 20004KT 10SM SCT038 BKN046 OVC075 03/02 A2962 RMK AO2 SLP016 T00280017 51002,M
HND,2024-02-07 08:56,-115.1344,35.9729,742.79,44.00,38.00,79.27,190.00,16.00,0.00,29.63,1005.20,10.00,21.00,OVC,M,M,M,10000.00,M,M,M,M,M,M,M,M,M,M,36.06,KHND 070856Z AUTO 19016G21KT 10SM OVC100 07/03 A2963 RMK AO2 SLP052 T00670033 50003,M
TPH,2024-02-07 08:56,-117.0904,38.0505,1654.00,32.00,29.00,88.53,360.00,8.00,0.00,29.58,1001.70,10.00,M,BKN,M,M,M,1400.00,M,M,M,M,M,M,M,M,M,M,24.11,KTPH 070856Z AUTO 36008KT 10SM BKN014 00/M02 A2958 RMK AO2 SLP017 T00001017 50005,M
LAS,2024-02-07 08:56,-115.1634,36.0719,663.00,45.00,38.00,76.31,190.00,10.00,0.00,29.61,1002.60,10.00,M,FEW,BKN,M,M,7500.00,20000.00,M,M,M,M,M,M,M,M,M,39.27,KLAS 070856Z 19010KT 10SM FEW075 BKN200 07/03 A2961 RMK AO2 SLP026 T00720033 51007,M
WMC,2024-02-07 08:56,-117.8072,40.9019,1315.00,35.00,31.00,85.17,0.00,0.00,0.01,29.59,1002.30,10.00,M,FEW,SCT,OVC,M,2700.00,5500.00,8000.00,M,M,M,M,M,M,M,M,35.00,KWMC 070856Z AUTO 00000KT 10SM FEW027 SCT055 OVC080 02/M01 A2959 RMK AO2 RAE41 SLP023 P0001 60003 T00171006 58001,M
INS,2024-02-07 08:58,-115.6733,36.5872,955.00,42.80,39.20,86.99,100.00,9.00,0.00,29.61,1001.50,10.00,M,BKN,OVC,M,M,1800.00,2800.00,M,M,-RA,M,M,M,M,M,M,36.94,KINS 070858Z AUTO 10009KT 10SM -RA BKN018 OVC028 06/04 A2961 RMK AO2 RAB58 SLP015 $,M
TPH,2024-02-07 09:04,-117.0904,38.0505,1654.00,32.00,29.00,88.53,350.00,7.00,0.00,29.58,M,10.00,M,SCT,M,M,M,1400.00,M,M,M,M,M,M,M,M,M,M,24.78,KTPH 070904Z AUTO 35007KT 10SM SCT014 00/M02 A2958 RMK AO2 T00001017,M
EKO,2024-02-07 09:07,-115.7860,40.8242,1367.00,35.00,32.00,88.68,240.00,8.00,0.00,29.54,M,10.00,M,OVC,M,M,M,1500.00,M,M,M,M,M,M,M,M,M,M,27.81,KEKO 070907Z AUTO 24008KT 10SM OVC015 02/00 A2954 RMK AO2 T00170000,M
INS,2024-02-07 09:10,-115.6733,36.5872,955.00,42.80,39.20,86.99,360.00,5.00,0.00,29.61,1001.50,10.00,M,BKN,OVC,M,M,1800.00,2700.00,M,M,M,M,M,M,M,M,M,39.22,KINS 070910Z AUTO 36005KT 10SM BKN018 OVC027 06/04 A2961 RMK AO2 RAB0858E08DZB08E10 SLP015 $,M
BVU,2024-02-07 09:15,-114.8611,35.9475,671.00,46.40,42.80,87.19,160.00,9.00,0.00,29.63,M,10.00,M,BKN,BKN,M,M,3900.00,4400.00,M,M,M,M,M,M,M,M,M,41.42,KBVU 070915Z AUTO 16009KT 10SM BKN039 BKN044 08/06 A2963 RMK AO2,M
CXP,2024-02-07 09:15,-119.7326,39.1923,1431.00,33.80,32.00,93.03,0.00,0.00,0.00,29.66,M,10.00,M,FEW,OVC,M,M,800.00,1700.00,M,M,M,M,M,M,M,M,M,33.80,KCXP 070915Z AUTO 00000KT 10SM FEW008 OVC017 01/M00 A2966 RMK AO2,M
RTS,2024-02-07 09:15,-119.8764,39.6682,1539.00,26.60,24.80,92.80,340.00,4.00,0.00,29.64,M,10.00,M,CLR,M,M,M,M,M,M,M,M,M,M,M,M,M,M,21.11,KRTS 070915Z AUTO 34004KT 10SM CLR M03/M04 A2964 RMK AO2,M
05U,2024-02-07 09:15,-116.0051,39.6042,1811.23,M,M,M,70.00,7.00,0.00,29.57,M,10.00,M,M,M,M,M,M,M,M,M,M,M,M,M,M,M,M,M,K05U 070915Z AUTO 07007KT 10SM A2957 RMK A01,M
MEV,2024-02-07 09:15,-119.7500,38.9963,1441.42,28.40,28.40,100.00,0.00,0.00,0.00,29.65,M,0.25,M,OVC,M,M,M,200.00,M,M,M,FZFG,M,M,M,M,M,M,28.40,KMEV 070915Z AUTO 00000KT M1/4SM FZFG OVC002 M02/M02 A2965 RMK AO2,M
BAM,2024-02-07 09:15,-116.8743,40.5990,1382.36,35.60,33.80,93.08,40.00,3.00,0.00,29.59,M,4.00,M,SCT,BKN,OVC,M,300.00,700.00,1700.00,M,M,M,M,M,M,M,M,32.80,KBAM 070915Z AUTO 04003KT 4SM SCT003 BKN007 OVC017 02/01 A2959 RMK AO1,M
HTH,2024-02-07 09:15,-118.6315,38.5448,1282.89,32.00,32.00,100.00,200.00,7.00,0.00,29.65,M,10.00,M,BKN,M,M,M,5500.00,M,M,M,M,M,M,M,M,M,M,24.78,KHTH 070915Z AUTO 20007KT 10SM BKN055 00/M00 A2965 RMK A01,M
TMT,2024-02-07 09:15,-117.1971,39.4643,1749.34,32.00,29.70,91.10,0.00,0.00,0.00,29.61,M,10.00,M,OVC,M,M,M,2300.00,M,M,M,M,M,M,M,M,M,M,32.00,KTMT 070915Z AUTO 00000KT 10SM OVC023 00/M01 A2961 RMK AO2 T00001013,M
INS,2024-02-07 09:20,-115.6733,36.5872,955.00,42.80,39.20,86.99,60.00,4.00,0.00,29.61,1001.50,10.00,M,BKN,OVC,M,M,1800.00,2700.00,M,M,-RA,M,M,M,M,M,M,40.03,KINS 070920Z AUTO 06004KT 10SM -RA BKN018 OVC027 06/04 A2961 RMK AO2 RAB0858E08DZB08E10RAB20 SLP015 $,M
ELY,2024-02-07 09:25,-114.8453,39.2950,1909.00,32.00,28.00,84.98,0.00,0.00,0.00,29.53,M,10.00,M,FEW,BKN,OVC,M,2300.00,3500.00,4700.00,M,M,M,M,M,M,M,M,32.00,KELY 070925Z AUTO 00000KT 10SM FEW023 BKN035 OVC047 00/M02 A2953 RMK AO2 T00001022,M
TPH,2024-02-07 09:32,-117.0904,38.0505,1654.00,33.00,29.00,85.04,310.00,15.00,0.00,29.57,M,10.00,M,CLR,M,M,M,M,M,M,M,M,M,M,M,M,M,M,22.08,KTPH 070932Z AUTO 31015KT 10SM CLR 01/M02 A2957 RMK AO2 WSHFT 0912 T00061017,M
EKO,2024-02-07 09:33,-115.7860,40.8242,1367.00,35.00,32.00,88.68,220.00,7.00,0.00,29.54,M,10.00,M,OVC,M,M,M,1400.00,M,M,M,M,M,M,M,M,M,M,28.44,KEKO 070933Z AUTO 22007KT 10SM OVC014 02/00 A2954 RMK AO2 T00170000,M
BVU,2024-02-07 09:35,-114.8611,35.9475,671.00,46.40,41.00,81.34,210.00,12.00,0.00,29.64,M,10.00,M,FEW,SCT,SCT,M,3100.00,3800.00,4400.00,M,M,M,M,M,M,M,M,40.33,KBVU 070935Z AUTO 21012KT 10SM FEW031 SCT038 SCT044 08/05 A2964 RMK AO2,M
CXP,2024-02-07 09:35,-119.7326,39.1923,1431.00,32.00,30.20,92.97,0.00,0.00,0.00,29.66,M,10.00,M,SCT,OVC,M,M,900.00,1600.00,M,M,M,M,M,M,M,M,M,32.00,KCXP 070935Z AUTO 00000KT 10SM SCT009 OVC016 00/M01 A2966 RMK AO2,M
RTS,2024-02-07 09:35,-119.8764,39.6682,1539.00,24.80,21.20,85.96,360.00,6.00,0.00,29.65,M,10.00,M,CLR,M,M,M,M,M,M,M,M,M,M,M,M,M,M,16.86,KRTS 070935Z AUTO 36006KT 10SM CLR M04/M06 A2965 RMK AO2,M
05U,2024-02-07 09:35,-116.0051,39.6042,1811.23,M,M,M,0.00,0.00,0.00,29.58,M,10.00,M,M,M,M,M,M,M,M,M,M,M,M,M,M,M,M,M,K05U 070935Z AUTO 00000KT 10SM A2958 RMK A01,M
MEV,2024-02-07 09:35,-119.7500,38.9963,1441.42,30.20,30.20,100.00,140.00,4.00,0.00,29.65,M,0.25,M,OVC,M,M,M,200.00,M,M,M,FZFG,M,M,M,M,M,M,25.32,KMEV 070935Z AUTO 14004KT 1/4SM FZFG OVC002 M01/M01 A2965 RMK AO2,M
BAM,2024-02-07 09:35,-116.8743,40.5990,1382.36,35.60,35.60,100.00,0.00,0.00,0.00,29.59,M,10.00,M,SCT,SCT,OVC,M,300.00,700.00,1700.00,M,M,M,M,M,M,M,M,35.60,KBAM 070935Z AUTO 00000KT 10SM SCT003 SCT007 OVC017 02/02 A2959 RMK AO1,M
HTH,2024-02-07 09:35,-118.6315,38.5448,1282.89,32.00,30.20,92.97,180.00,5.00,0.00,29.65,M,10.00,M,FEW,FEW,M,M,5000.00,5500.00,M,M,M,M,M,M,M,M,M,26.40,KHTH 070935Z AUTO 18005KT 10SM FEW050 FEW055 00/M01 A2965 RMK A01,M
TMT,2024-02-07 09:35,-117.1971,39.4643,1749.34,32.00,29.50,90.36,250.00,3.00,0.00,29.61,M,10.00,M,OVC,M,M,M,2300.00,M,M,M,M,M,M,M,M,M,M,28.69,KTMT 070935Z AUTO 25003KT 10SM OVC023 00/M01 A2961 RMK AO2 T00001014,M
INS,2024-02-07 09:40,-115.6733,36.5872,955.00,42.80,37.40,81.07,360.00,4.00,0.00,29.61,1001.50,10.00,M,BKN,OVC,M,M,700.00,2000.00,M,M,-RA,M,M,M,M,M,M,40.03,KINS 070940Z AUTO 36004KT 10SM -RA BKN007 OVC020 06/03 A2961 RMK AO2 RAB0858E08DZB08E10RAB20E30DZB30E32RAB32 SLP015 $,M
ELY,2024-02-07 09:42,-114.8453,39.2950,1909.00,31.00,28.00,88.48,0.00,0.00,0.00,29.54,M,10.00,M,BKN,BKN,OVC,M,2700.00,3300.00,4500.00,M,M,M,M,M,M,M,M,31.00,KELY 070942Z AUTO 00000KT 10SM BKN027 BKN033 OVC045 M01/M02 A2954 RMK AO2 T10061022,M
INS,2024-02-07 09:45,-115.6733,36.5872,955.00,41.00,35.60,80.93,250.00,7.00,0.00,29.62,1002.10,10.00,M,SCT,SCT,OVC,M,600.00,1000.00,1900.00,M,-RA,M,M,M,M,M,M,35.75,KINS 070945Z AUTO 25007KT 10SM -RA SCT006 SCT010 OVC019 05/02 A2962 RMK AO2 RAB0858E08DZB08E10RAB20E30DZB30E32RAB32 SLP021 $,M
LSV,2024-02-07 09:45,-115.0343,36.2362,570.00,48.20,39.20,70.88,180.00,11.00,0.00,29.60,1002.10,10.00,M,BKN,BKN,M,M,4700.00,5500.00,M,M,M,M,M,M,M,M,M,42.94,KLSV 070945Z AUTO 18011KT 10SM BKN047 BKN055 09/04 A2960 RMK AO2 SLP021 $,M
DRA,2024-02-07 09:53,-116.0278,36.6206,1009.00,37.00,36.00,96.13,0.00,0.00,0.06,29.63,1002.50,6.00,M,OVC,M,M,M,1200.00,M,M,M,RA BR,M,M,M,M,M,M,37.00,KDRA 070953Z AUTO 00000KT 6SM RA BR OVC012 03/02 A2963 RMK AO2 SLP025 P0006 T00280022,M
ELY,2024-02-07 09:53,-114.8453,39.2950,1909.00,31.00,28.00,88.48,60.00,3.00,0.00,29.54,998.80,10.00,M,FEW,BKN,OVC,M,1900.00,2800.00,3300.00,M,M,M,M,M,M,M,M,27.55,KELY 070953Z AUTO 06003KT 10SM FEW019 BKN028 OVC033 M01/M02 A2954 RMK AO2 SLP988 T10061022,M
VGT,2024-02-07 09:53,-115.1933,36.2111,667.00,48.00,38.00,68.13,170.00,11.00,T,29.60,1003.90,10.00,M,FEW,M,M,M,11000.00,M,M,M,-RA,M,M,M,M,M,M,42.69,KVGT 070953Z AUTO 17011KT 10SM -RA FEW110 09/03 A2960 RMK AO2 SLP039 P0000 T00890033,M
LOL,2024-02-07 09:53,-118.5701,40.0684,1192.43,32.00,32.00,100.00,0.00,0.00,0.00,29.63,1004.70,6.00,M,SCT,BKN,OVC,M,700.00,5000.00,6000.00,M,BR,M,M,M,M,M,M,32.00,KLOL 070953Z AUTO 00000KT 6SM BR SCT007 BKN050 OVC060 00/00 A2963 RMK AO2 SLP047 T00000000,M
P68,2024-02-07 09:53,-116.0056,39.6014,1993.00,32.00,28.00,84.98,280.00,4.00,0.00,29.56,999.40,M,M,M,M,M,M,M,M,M,M,M,M,M,M,M,M,M,27.42,KP68 070953Z AUTO 28004KT 00/M02 A2956 RMK AO1 SLP994 T00001022 $,M
BVU,2024-02-07 09:55,-114.8611,35.9475,671.00,44.60,41.00,87.09,190.00,11.00,0.00,29.64,M,10.00,M,FEW,M,M,M,3100.00,M,M,M,M,M,M,M,M,M,M,38.39,KBVU 070955Z AUTO 19011KT 10SM FEW031 07/05 A2964 RMK AO2,M
CXP,2024-02-07 09:55,-119.7326,39.1923,1431.00,32.00,30.20,92.97,0.00,0.00,0.00,29.67,M,10.00,M,BKN,OVC,M,M,800.00,1500.00,M,M,M,M,M,M,M,M,M,32.00,KCXP 070955Z AUTO 00000KT 10SM BKN008 OVC015 00/M01 A2967 RMK AO2,M
INS,2024-02-07 09:55,-115.6733,36.5872,955.00,42.00,36.70,81.33,250.00,5.00,T,29.62,1001.80,10.00,M,FEW,OVC,M,M,700.00,1900.00,M,M,-RA,M,M,M,M,M,M,38.27,KINS 070955Z AUTO 25005KT 10SM -RA FEW007 OVC019 06/03 A2962 RMK AO2 RAB0858E08DZB08E10RAB20E30DZB30E32RAB32 SLP018 P0000 T00560026 $,M
RNO,2024-02-07 09:55,-119.7711,39.4839,1341.00,31.00,26.00,81.48,200.00,3.00,0.00,29.65,1003.90,10.00,M,SCT,M,M,M,3800.00,M,M,M,M,M,M,M,M,M,M,27.55,KRNO 070955Z 20003KT 10SM SCT038 M01/M03 A2965 RMK AO2 SLP039 T10061033,M
RTS,2024-02-07 09:55,-119.8764,39.6682,1539.00,24.80,21.20,85.96,320.00,5.00,0.00,29.66,M,10.00,M,SCT,M,M,M,3800.00,M,M,M,M,M,M,M,M,M,M,17.84,KRTS 070955Z AUTO 32005KT 10SM SCT038 M04/M06 A2966 RMK AO2,M
05U,2024-02-07 09:55,-116.0051,39.6042,1811.23,M,M,M,60.00,4.00,0.00,29.58,M,10.00,M,M,M,M,M,M,M,M,M,M,M,M,M,M,M,M,M,K05U 070955Z AUTO 06004KT 10SM A2958 RMK A01,M
MEV,2024-02-07 09:55,-119.7500,38.9963,1441.42,30.20,30.20,100.00,0.00,0.00,0.00,29.66,M,9.00,M,OVC,M,M,M,500.00,M,M,M,M,M,M,M,M,M,M,30.20,KMEV 070955Z AUTO 00000KT 9SM OVC005 M01/M01 A2966 RMK AO2,M
BAM,2024-02-07 09:55,-116.8743,40.5990,1382.36,35.60,35.60,100.00,220.00,6.00,0.00,29.59,M,7.00,M,SCT,OVC,M,M,700.00,1500.00,M,M,M,M,M,M,M,M,M,29.87,KBAM 070955Z AUTO 22006KT 7SM SCT007 OVC015 02/02 A2959 RMK AO1,M
HTH,2024-02-07 09:55,-118.6315,38.5448,1282.89,32.00,28.40,86.39,0.00,0.00,0.00,29.64,M,10.00,M,CLR,M,M,M,M,M,M,M,M,M,M,M,M,M,M,32.00,KHTH 070955Z AUTO 00000KT 10SM CLR M00/M02 A2964 RMK A01,M
LSV,2024-02-07 09:55,-115.0343,36.2362,570.00,48.60,38.50,67.94,180.00,11.00,0.00,29.60,1001.90,10.00,M,SCT,M,M,M,4800.00,M,M,M,M,M,M,M,M,M,M,43.44,KLSV 070955Z AUTO 18011KT 10SM SCT048 09/04 A2960 RMK AO2 SLP019 T00920036 $,M
TMT,2024-02-07 09:55,-117.1971,39.4643,1749.34,32.00,29.30,89.63,240.00,5.00,0.00,29.61,M,10.00,M,BKN,OVC,M,M,2300.00,3500.00,M,M,-SN,M,M,M,M,M,M,26.40,KTMT 070955Z AUTO 24005KT 10SM -SN BKN023 OVC035 00/M01 A2961 RMK AO2 T00001015,M
EKO,2024-02-07 09:56,-115.7860,40.8242,1367.00,35.00,32.00,88.68,230.00,6.00,0.00,29.54,1000.20,10.00,M,OVC,M,M,M,1300.00,M,M,M,M,M,M,M,M,M,M,29.14,KEKO 070956Z AUTO 23006KT 10SM OVC013 02/00 A2954 RMK AO2 SLP002 T00170000,M
NFL,2024-02-07 09:56,-118.7010,39.4166,1199.00,37.00,34.00,88.78,190.00,3.00,0.00,29.63,1001.80,10.00,M,BKN,OVC,M,M,4000.00,7000.00,M,M,M,M,M,M,M,M,M,34.40,KNFL 070956Z AUTO 19003KT 10SM BKN040 OVC070 03/01 A2963 RMK AO2 SLP018 T00280011,M
HND,2024-02-07 09:56,-115.1344,35.9729,742.79,44.00,37.00,76.22,200.00,21.00,0.00,29.63,1005.10,10.00,25.00,BKN,M,M,M,12000.00,M,M,M,M,M,M,M,M,M,M,34.86,KHND 070956Z AUTO 20021G25KT 10SM BKN120 07/03 A2963 RMK AO2 SLP051 T00670028,M
TPH,2024-02-07 09:56,-117.0904,38.0505,1654.00,33.00,29.00,85.04,310.00,14.00,0.00,29.57,1001.30,10.00,24.00,CLR,M,M,M,M,M,M,M,M,M,M,M,26.00,310.00,2024-02-07 09:38,22.45,KTPH 070956Z AUTO 31014G24KT 10SM CLR 01/M02 A2957 RMK AO2 PK WND 31026/0938 WSHFT 0912 SLP013 T00061017,M
LAS,2024-02-07 09:56,-115.1634,36.0719,663.00,46.00,37.00,70.64,190.00,11.00,0.00,29.62,1002.90,10.00,19.00,FEW,BKN,M,M,8000.00,20000.00,M,M,M,M,M,M,M,M,M,40.16,KLAS 070956Z 19011G19KT 10SM FEW080 BKN200 08/03 A2962 RMK AO2 SLP029 T00780028,M
WMC,2024-02-07 09:56,-117.8072,40.9019,1315.00,35.00,32.00,88.68,250.00,5.00,0.00,29.60,1002.80,10.00,M,OVC,M,M,M,3500.00,M,M,M,M,M,M,M,M,M,M,29.96,KWMC 070956Z AUTO 25005KT 10SM OVC035 02/00 A2960 RMK AO2 SLP028 T00170000,M
DRA,2024-02-07 09:59,-116.0278,36.6206,1009.00,38.00,36.00,92.42,0.00,0.00,0.01,29.63,M,7.00,M,OVC,M,M,M,900.00,M,M,M,-RA,M,M,M,M,M,M,38.00,KDRA 070959Z AUTO 00000KT 7SM -RA OVC009 03/02 A2963 RMK AO2 P0001 T00330022,M
INS,2024-02-07 10:10,-115.6733,36.5872,955.00,42.80,37.40,81.07,260.00,4.00,0.00,29.61,1001.50,10.00,M,OVC,M,M,M,2000.00,M,M,M,M,M,M,M,M,M,M,40.03,KINS 071010Z AUTO 26004KT 10SM OVC020 06/03 A2961 RMK AO2 RAE10 OVC V BKN SLP015 $,M
DRA,2024-02-07 10:11,-116.0278,36.6206,1009.00,38.00,36.00,92.42,350.00,3.00,0.03,29.63,M,10.00,M,BKN,OVC,M,M,500.00,1000.00,M,M,-RA,M,M,M,M,M,M,35.55,KDRA 071011Z AUTO 35003KT 10SM -RA BKN005 OVC010 03/02 A2963 RMK AO2 P0003 T00330022,M
BVU,2024-02-07 10:15,-114.8611,35.9475,671.00,46.40,41.00,81.34,190.00,13.00,0.00,29.64,M,10.00,M,CLR,M,M,M,M,M,M,M,M,M,M,M,M,M,M,40.02,KBVU 071015Z AUTO 19013KT 10SM CLR 08/05 A2964 RMK AO2,M
CXP,2024-02-07 10:15,-119.7326,39.1923,1431.00,32.00,30.20,92.97,0.00,0.00,0.00,29.67,M,10.00,M,BKN,OVC,M,M,800.00,1400.00,M,M,M,M,M,M,M,M,M,32.00,KCXP 071015Z AUTO 00000KT 10SM BKN008 OVC014 00/M01 A2967 RMK AO2,M
RTS,2024-02-07 10:15,-119.8764,39.6682,1539.00,26.60,24.80,92.80,320.00,6.00,0.00,29.66,M,10.00,M,SCT,M,M,M,3900.00,M,M,M,M,M,M,M,M,M,M,19.03,KRTS 071015Z AUTO 32006KT 10SM SCT039 M03/M04 A2966 RMK AO2,M
05U,2024-02-07 10:15,-116.0051,39.6042,1811.23,M,M,M,0.00,0.00,0.00,29.58,M,10.00,M,M,M,M,M,M,M,M,M,M,M,M,M,M,M,M,M,K05U 071015Z AUTO 00000KT 10SM A2958 RMK A01,M
MEV,2024-02-07 10:15,-119.7500,38.9963,1441.42,26.60,26.60,100.00,120.00,5.00,0.00,29.66,M,10.00,M,BKN,BKN,M,M,700.00,1000.00,M,M,M,M,M,M,M,M,M,19.98,KMEV 071015Z AUTO 12005KT 10SM BKN007 BKN010 M03/M03 A2966 RMK AO2,M
BAM,2024-02-07 10:15,-116.8743,40.5990,1382.36,35.60,33.80,93.08,230.00,5.00,0.00,29.60,M,10.00,M,OVC,M,M,M,1500.00,M,M,M,M,M,M,M,M,M,M,30.67,KBAM 071015Z AUTO 23005KT 10SM OVC015 02/01 A2960 RMK AO1,M
HTH,2024-02-07 10:15,-118.6315,38.5448,1282.89,32.00,30.20,92.97,0.00,0.00,0.00,29.65,M,10.00,M,FEW,M,M,M,5500.00,M,M,M,M,M,M,M,M,M,M,32.00,KHTH 071015Z AUTO 00000KT 10SM FEW055 M00/M01 A2965 RMK A01,M
TMT,2024-02-07 10:15,-117.1971,39.4643,1749.34,32.00,29.30,89.63,220.00,5.00,0.00,29.61,M,10.00,M,SCT,BKN,OVC,M,2300.00,3700.00,4200.00,M,M,M,M,M,M,M,M,26.40,KTMT 071015Z AUTO 22005KT 10SM SCT023 BKN037 OVC042 00/M01 A2961 RMK AO2 T00001015,M
INS,2024-02-07 10:21,-115.6733,36.5872,955.00,42.80,37.40,81.07,0.00,0.00,0.00,29.62,1001.80,10.00,M,BKN,OVC,M,M,2100.00,4500.00,M,M,-RA,M,M,M,M,M,M,42.80,KINS 071021Z AUTO 00000KT 10SM -RA BKN021 OVC045 06/03 A2962 RMK AO2 RAE10RAB21 SLP018 $,M
EKO,2024-02-07 10:30,-115.7860,40.8242,1367.00,34.00,32.00,92.29,230.00,6.00,0.00,29.55,M,10.00,M,SCT,BKN,OVC,M,1100.00,2000.00,2500.00,M,M,M,M,M,M,M,M,27.94,KEKO 071030Z AUTO 23006KT 10SM SCT011 BKN020 OVC025 01/00 A2955 RMK AO2 T00110000,M
DRA,2024-02-07 10:30,-116.0278,36.6206,1009.00,38.00,37.00,96.14,0.00,0.00,0.04,29.63,M,10.00,M,OVC,M,M,M,600.00,M,M,M,-RA,M,M,M,M,M,M,38.00,KDRA 071030Z AUTO 00000KT 10SM -RA OVC006 03/03 A2963 RMK AO2 P0004 T00330028,M
BVU,2024-02-07 10:35,-114.8611,35.9475,671.00,44.60,41.00,87.09,180.00,11.00,0.00,29.64,M,10.00,M,FEW,FEW,SCT,M,2600.00,3900.00,5500.00,M,M,M,M,M,M,M,M,38.39,KBVU 071035Z AUTO 18011KT 10SM FEW026 FEW039 SCT055 07/05 A2964 RMK AO2,M
CXP,2024-02-07 10:35,-119.7326,39.1923,1431.00,33.80,30.20,86.49,0.00,0.00,0.00,29.67,M,10.00,M,SCT,BKN,OVC,M,700.00,1200.00,3900.00,M,M,M,M,M,M,M,M,33.80,KCXP 071035Z AUTO 00000KT 10SM SCT007 BKN012 OVC039 01/M01 A2967 RMK AO2,M
RTS,2024-02-07 10:35,-119.8764,39.6682,1539.00,24.80,23.00,92.74,280.00,9.00,0.00,29.66,M,10.00,M,CLR,M,M,M,M,M,M,M,M,M,M,M,M,M,M,14.56,KRTS 071035Z AUTO 28009KT 10SM CLR M04/M05 A2966 RMK AO2,M
05U,2024-02-07 10:35,-116.0051,39.6042,1811.23,M,M,M,50.00,6.00,0.00,29.58,M,10.00,M,M,M,M,M,M,M,M,M,M,M,M,M,M,M,M,M,K05U 071035Z AUTO 05006KT 10SM A2958 RMK A01,M
MEV,2024-02-07 10:35,-119.7500,38.9963,1441.42,24.80,24.80,100.00,0.00,0.00,0.00,29.67,M,10.00,M,CLR,M,M,M,M,M,M,M,M,M,M,M,M,M,M,24.80,KMEV 071035Z AUTO 00000KT 10SM CLR M04/M04 A2967 RMK AO2,M
BAM,2024-02-07 10:35,-116.8743,40.5990,1382.36,35.60,33.80,93.08,230.00,7.00,0.00,29.60,M,7.00,M,BKN,OVC,M,M,1500.00,1900.00,M,M,M,M,M,M,M,M,M,29.17,KBAM 071035Z AUTO 23007KT 7SM BKN015 OVC019 02/01 A2960 RMK AO1,M
HTH,2024-02-07 10:35,-118.6315,38.5448,1282.89,30.20,28.40,92.92,0.00,0.00,0.00,29.65,M,10.00,M,SCT,SCT,M,M,5000.00,6000.00,M,M,M,M,M,M,M,M,M,30.20,KHTH 071035Z AUTO 00000KT 10SM SCT050 SCT060 M01/M02 A2965 RMK A01,M
TMT,2024-02-07 10:35,-117.1971,39.4643,1749.34,32.00,29.70,91.10,220.00,6.00,0.00,29.61,M,10.00,M,BKN,OVC,M,M,3700.00,7000.00,M,M,M,M,M,M,M,M,M,25.53,KTMT 071035Z AUTO 22006KT 10SM BKN037 OVC070 00/M01 A2961 RMK AO2 T10011013,M
ELY,2024-02-07 10:38,-114.8453,39.2950,1909.00,31.00,29.00,92.19,340.00,4.00,T,29.53,M,6.00,M,FEW,BKN,OVC,M,1400.00,3000.00,4100.00,M,BR,M,M,M,M,M,M,26.25,KELY 071038Z AUTO 34004KT 6SM BR FEW014 BKN030 OVC041 M01/M02 A2953 RMK AO2 UPB09E11SNB11E27 P0000 T10061017,M
INS,2024-02-07 10:39,-115.6733,36.5872,955.00,42.80,35.60,75.50,300.00,4.00,0.00,29.63,1002.20,10.00,M,OVC,M,M,M,2100.00,M,M,M,M,M,M,M,M,M,M,40.03,KINS 071039Z AUTO 30004KT 10SM OVC021 06/02 A2963 RMK AO2 RAE10RAB21E39 SLP022 $,M
ELY,2024-02-07 10:46,-114.8453,39.2950,1909.00,31.00,29.00,92.19,320.00,3.00,T,29.53,M,9.00,M,SCT,OVC,M,M,1400.00,2600.00,M,M,M,M,M,M,M,M,M,27.55,KELY 071046Z AUTO 32003KT 9SM SCT014 OVC026 M01/M02 A2953 RMK AO2 UPB09E11SNB11E27 P0000 T10061017,M
05U,2024-02-07 10:50,-116.0051,39.6042,1811.23,M,M,M,50.00,3.00,0.00,29.58,M,10.00,M,M,M,M,M,M,M,M,M,M,M,M,M,M,M,M,M,K05U 071050Z AUTO 05003KT 10SM A2958 RMK A01,M
EKO,2024-02-07 10:52,-115.7860,40.8242,1367.00,33.80,32.00,93.03,200.00,6.00,0.00,29.55,M,10.00,M,BKN,OVC,M,M,1300.00,1800.00,M,M,M,M,M,M,M,M,M,27.70,KEKO 071052Z AUTO 20006KT 10SM BKN013 OVC018 01/00 A2955 RMK AO2,M
DRA,2024-02-07 10:53,-116.0278,36.6206,1009.00,37.00,36.00,96.13,40.00,3.00,0.05,29.63,1002.50,9.00,M,BKN,OVC,M,M,600.00,2600.00,M,M,RA,M,M,M,M,M,M,34.40,KDRA 071053Z AUTO 04003KT 9SM RA BKN006 OVC026 03/02 A2963 RMK AO2 SLP025 P0005 T00280022,M
ELY,2024-02-07 10:53,-114.8453,39.2950,1909.00,31.00,29.00,92.19,0.00,0.00,T,29.53,998.60,8.00,M,BKN,BKN,OVC,M,1400.00,2100.00,2600.00,M,-SN,M,M,M,M,M,M,31.00,KELY 071053Z AUTO 00000KT 8SM -SN BKN014 BKN021 OVC026 M01/M02 A2953 RMK AO2 UPB09E11SNB11E27B50 SLP986 P0000 T10061017,M
VGT,2024-02-07 10:53,-115.1933,36.2111,667.00,48.00,37.00,65.51,200.00,13.00,T,29.61,1004.30,10.00,M,OVC,M,M,M,11000.00,M,M,M,-RA,M,M,M,M,M,M,42.07,KVGT 071053Z AUTO 20013KT 10SM -RA OVC110 09/03 A2961 RMK AO2 SLP043 P0000 T00890028,M
LOL,2024-02-07 10:53,-118.5701,40.0684,1192.43,33.00,33.00,100.00,310.00,3.00,0.00,29.63,1004.60,10.00,M,OVC,M,M,M,5000.00,M,M,M,M,M,M,M,M,M,M,29.83,KLOL 071053Z AUTO 31003KT 10SM OVC050 01/01 A2963 RMK AO2 SLP046 T00060006,M
P68,2024-02-07 10:53,-116.0056,39.6014,1993.00,32.00,29.00,88.53,170.00,3.00,0.00,29.55,999.30,M,M,M,M,M,M,M,M,M,M,M,M,M,M,M,M,M,28.69,KP68 071053Z AUTO 17003KT 00/M02 A2955 RMK AO1 SLP993 T00001017 $,M
EKO,2024-02-07 10:54,-115.7860,40.8242,1367.00,33.80,32.00,93.03,210.00,6.03,M,29.55,M,10.00,M,FEW,OVC,M,M,1000.00,1499.00,M,M,M,M,M,M,M,M,M,27.68,SPECI KEKO 071054Z 21006KT 10SM FEW010 OVC015 01/00 A2955 RMK AO2 FIBI,M
BVU,2024-02-07 10:55,-114.8611,35.9475,671.00,44.60,41.00,87.09,180.00,9.00,0.00,29.65,M,10.00,M,FEW,BKN,BKN,M,5000.00,7500.00,11000.00,M,M,M,M,M,M,M,M,39.18,KBVU 071055Z AUTO 18009KT 10SM FEW050 BKN075 BKN110 07/05 A2965 RMK AO2,M
CXP,2024-02-07 10:55,-119.7326,39.1923,1431.00,32.00,30.20,92.97,0.00,0.00,0.00,29.67,M,10.00,M,SCT,OVC,M,M,1200.00,4100.00,M,M,M,M,M,M,M,M,M,32.00,KCXP 071055Z AUTO 00000KT 10SM SCT012 OVC041 00/M01 A2967 RMK AO2,M
INS,2024-02-07 10:55,-115.6733,36.5872,955.00,41.70,35.00,76.92,250.00,14.00,T,29.63,1002.40,10.00,M,SCT,OVC,M,M,2100.00,2700.00,M,M,M,M,M,M,M,M,M,33.67,KINS 071055Z AUTO 25014KT 10SM SCT021 OVC027 05/02 A2963 RMK AO2 RAE10RAB21E39 SLP024 P0000 T00540017 $,M
RNO,2024-02-07 10:55,-119.7711,39.4839,1341.00,30.00,25.00,81.40,0.00,0.00,0.00,29.65,1003.90,10.00,M,SCT,M,M,M,4000.00,M,M,M,M,M,M,M,M,M,M,30.00,KRNO 071055Z 00000KT 10SM SCT040 M01/M04 A2965 RMK AO2 SLP039 T10111039,M
RTS,2024-02-07 10:55,-119.8764,39.6682,1539.00,28.40,24.80,86.18,0.00,0.00,0.00,29.65,M,10.00,M,SCT,M,M,M,3700.00,M,M,M,M,M,M,M,M,M,M,28.40,KRTS 071055Z AUTO 00000KT 10SM SCT037 M02/M04 A2965 RMK AO2,M
MEV,2024-02-07 10:55,-119.7500,38.9963,1441.42,24.80,23.00,92.74,140.00,7.00,0.00,29.67,M,10.00,M,SCT,SCT,M,M,3900.00,4500.00,M,M,M,M,M,M,M,M,M,16.00,KMEV 071055Z AUTO 14007KT 10SM SCT039 SCT045 M04/M05 A2967 RMK AO2,M
BAM,2024-02-07 10:55,-116.8743,40.5990,1382.36,35.60,33.80,93.08,240.00,7.00,0.00,29.60,M,5.00,M,BKN,OVC,M,M,1300.00,1800.00,M,M,M,M,M,M,M,M,M,29.17,KBAM 071055Z AUTO 24007KT 5SM BKN013 OVC018 02/01 A2960 RMK AO1,M
HTH,2024-02-07 10:55,-118.6315,38.5448,1282.89,30.20,28.40,92.92,160.00,4.00,0.00,29.65,M,10.00,M,FEW,M,M,M,6000.00,M,M,M,M,M,M,M,M,M,M,25.32,KHTH 071055Z AUTO 16004KT 10SM FEW060 M01/M02 A2965 RMK A01,M
LSV,2024-02-07 10:55,-115.0343,36.2362,570.00,48.60,37.40,65.07,190.00,14.00,0.00,29.60,1001.90,10.00,M,SCT,M,M,M,10000.00,M,M,M,M,M,M,M,M,M,M,42.56,KLSV 071055Z AUTO 19014KT 10SM SCT100 09/03 A2960 RMK AO2 SLP019 T00920030 $,M
EKO,2024-02-07 10:56,-115.7860,40.8242,1367.00,34.00,32.00,92.29,210.00,7.00,0.00,29.55,1000.70,10.00,M,FEW,OVC,M,M,1000.00,1500.00,M,M,M,M,M,M,M,M,M,27.22,KEKO 071056Z AUTO 21007KT 10SM FEW010 OVC015 01/00 A2955 RMK AO2 SLP007 T00110000,M
HND,2024-02-07 10:56,-115.1344,35.9729,742.79,43.00,37.00,79.19,190.00,14.00,0.00,29.65,1005.70,10.00,M,OVC,M,M,M,11000.00,M,M,M,M,M,M,M,M,M,M,35.34,KHND 071056Z AUTO 19014KT 10SM OVC110 06/03 A2965 RMK AO2 SLP057 T00610028,M
TPH,2024-02-07 10:56,-117.0904,38.0505,1654.00,33.00,29.00,85.04,310.00,14.00,0.00,29.57,1001.30,10.00,23.00,CLR,M,M,M,M,M,M,M,M,M,M,M,26.00,310.00,2024-02-07 10:09,22.45,KTPH 071056Z AUTO 31014G23KT 10SM CLR 01/M02 A2957 RMK AO2 PK WND 31026/1009 SLP013 T00061017,M
LAS,2024-02-07 10:56,-115.1634,36.0719,663.00,45.00,37.00,73.37,180.00,6.00,0.00,29.62,1002.90,10.00,M,FEW,SCT,M,M,9000.00,11000.00,M,M,M,M,M,M,M,M,M,41.19,KLAS 071056Z 18006KT 10SM FEW090 SCT110 07/03 A2962 RMK AO2 SLP029 T00720028,M
WMC,2024-02-07 10:56,-117.8072,40.9019,1315.00,34.00,32.00,92.29,260.00,4.00,T,29.60,1003.00,10.00,M,FEW,BKN,OVC,M,1200.00,3100.00,3900.00,M,-RA,M,M,M,M,M,M,29.76,KWMC 071056Z AUTO 26004KT 10SM -RA FEW012 BKN031 OVC039 01/00 A2960 RMK AO2 RAB41UPB44E45 SLP030 P0000 T00110000,M
NFL,2024-02-07 10:56,-118.7010,39.4166,1199.00,37.00,33.00,85.29,230.00,3.00,0.00,29.63,1001.80,10.00,M,OVC,M,M,M,4100.00,M,M,M,M,M,M,M,M,M,M,34.40,KNFL 071056Z AUTO 23003KT 10SM OVC041 03/01 A2963 RMK AO2 SLP018 T00280006,M
EKO,2024-02-07 11:03,-115.7860,40.8242,1367.00,34.00,32.00,92.29,210.00,6.00,0.00,29.55,M,10.00,M,OVC,M,M,M,1300.00,M,M,M,M,M,M,M,M,M,M,27.94,KEKO 071103Z AUTO 21006KT 10SM OVC013 01/00 A2955 RMK AO2 T00110000,M
WMC,2024-02-07 11:08,-117.8072,40.9019,1315.00,35.00,32.00,88.68,200.00,3.00,T,29.60,M,10.00,M,FEW,BKN,OVC,M,1300.00,2500.00,3100.00,M,-RA,M,M,M,M,M,M,32.12,KWMC 071108Z AUTO 20003KT 10SM -RA FEW013 BKN025 OVC031 02/00 A2960 RMK AO2 P0000 T00170000,M
DRA,2024-02-07 11:09,-116.0278,36.6206,1009.00,37.00,36.00,96.13,0.00,0.00,0.03,29.63,M,8.00,M,SCT,OVC,M,M,600.00,2400.00,M,M,-RA,M,M,M,M,M,M,37.00,KDRA 071109Z AUTO 00000KT 8SM -RA SCT006 OVC024 03/02 A2963 RMK AO2 P0003 T00280022,M
ELY,2024-02-07 11:09,-114.8453,39.2950,1909.00,31.00,29.00,92.19,0.00,0.00,T,29.53,M,8.00,M,SCT,SCT,OVC,M,1400.00,2000.00,3000.00,M,-SN,M,M,M,M,M,M,31.00,KELY 071109Z AUTO 00000KT 8SM -SN SCT014 SCT020 OVC030 M01/M02 A2953 RMK AO2 P0000 T10061017,M
BVU,2024-02-07 11:15,-114.8611,35.9475,671.00,44.60,41.00,87.09,160.00,8.00,0.00,29.65,M,10.00,M,FEW,SCT,BKN,M,2500.00,3900.00,4800.00,M,M,M,M,M,M,M,M,39.63,KBVU 071115Z AUTO 16008KT 10SM FEW025 SCT039 BKN048 07/05 A2965 RMK AO2,M
CXP,2024-02-07 11:15,-119.7326,39.1923,1431.00,32.00,30.20,92.97,0.00,0.00,0.00,29.67,M,8.00,M,SCT,SCT,OVC,M,700.00,1100.00,4100.00,M,M,M,M,M,M,M,M,32.00,KCXP 071115Z AUTO 00000KT 8SM SCT007 SCT011 OVC041 M00/M01 A2967 RMK AO2,M
INS,2024-02-07 11:15,-115.6733,36.5872,955.00,41.00,35.60,80.93,260.00,13.00,0.00,29.63,1002.40,10.00,M,OVC,M,M,M,3000.00,M,M,M,M,M,M,M,M,M,M,33.10,KINS 071115Z AUTO 26013KT 10SM OVC030 05/02 A2963 RMK AO2 SLP024 $,M
RTS,2024-02-07 11:15,-119.8764,39.6682,1539.00,28.40,24.80,86.18,0.00,0.00,0.00,29.65,M,10.00,M,BKN,M,M,M,3700.00,M,M,M,M,M,M,M,M,M,M,28.40,KRTS 071115Z AUTO 00000KT 10SM BKN037 M02/M04 A2965 RMK AO2,M
05U,2024-02-07 11:15,-116.0051,39.6042,1811.23,M,M,M,0.00,0.00,0.00,29.57,M,10.00,M,M,M,M,M,M,M,M,M,M,M,M,M,M,M,M,M,K05U 071115Z AUTO 00000KT 10SM A2957 RMK A01,M
MEV,2024-02-07 11:15,-119.7500,38.9963,1441.42,23.00,21.20,92.69,110.00,4.00,0.00,29.66,M,10.00,M,FEW,M,M,M,3700.00,M,M,M,M,M,M,M,M,M,M,16.91,KMEV 071115Z AUTO 11004KT 10SM FEW037 M05/M06 A2966 RMK AO2,M
BAM,2024-02-07 11:15,-116.8743,40.5990,1382.36,33.80,33.80,100.00,220.00,6.00,0.00,29.60,M,4.00,M,BKN,OVC,M,M,1300.00,1900.00,M,M,M,M,M,M,M,M,M,27.70,KBAM 071115Z AUTO 22006KT 4SM BKN013 OVC019 01/01 A2960 RMK AO1,M
HTH,2024-02-07 11:15,-118.6315,38.5448,1282.89,30.20,28.40,92.92,220.00,4.00,0.00,29.65,M,10.00,M,CLR,M,M,M,M,M,M,M,M,M,M,M,M,M,M,25.32,KHTH 071115Z AUTO 22004KT 10SM CLR M01/M02 A2965 RMK A01,M
WMC,2024-02-07 11:15,-117.8072,40.9019,1315.00,34.00,32.00,92.29,200.00,3.00,T,29.60,M,10.00,M,FEW,SCT,OVC,M,1300.00,2300.00,4400.00,M,-RA,M,M,M,M,M,M,30.97,KWMC 071115Z AUTO 20003KT 10SM -RA FEW013 SCT023 OVC044 01/00 A2960 RMK AO2 P0000 T00110000,M
TMT,2024-02-07 11:15,-117.1971,39.4643,1749.34,32.00,28.40,86.39,220.00,4.00,0.00,29.61,M,10.00,M,SCT,BKN,OVC,M,1700.00,3900.00,7500.00,M,M,M,M,M,M,M,M,27.42,KTMT 071115Z AUTO 22004KT 10SM SCT017 BKN039 OVC075 00/M02 A2961 RMK AO2 T00001020,M
EKO,2024-02-07 11:30,-115.7860,40.8242,1367.00,34.00,32.00,92.29,230.00,7.00,0.00,29.55,M,10.00,M,SCT,BKN,OVC,M,1400.00,3800.00,6500.00,M,M,M,M,M,M,M,M,27.22,KEKO 071130Z AUTO 23007KT 10SM SCT014 BKN038 OVC065 01/00 A2955 RMK AO2 T00110000,M
BVU,2024-02-07 11:35,-114.8611,35.9475,671.00,44.60,39.20,81.20,180.00,7.00,0.00,29.65,M,10.00,M,FEW,BKN,OVC,M,2100.00,3400.00,6000.00,M,M,M,M,M,M,M,M,40.14,KBVU 071135Z AUTO 18007KT 10SM FEW021 BKN034 OVC060 07/04 A2965 RMK AO2,M
CXP,2024-02-07 11:35,-119.7326,39.1923,1431.00,30.20,30.20,100.00,0.00,0.00,0.00,29.67,M,8.00,M,BKN,BKN,OVC,M,700.00,1100.00,4200.00,M,M,M,M,M,M,M,M,30.20,KCXP 071135Z AUTO 00000KT 8SM BKN007 BKN011 OVC042 M01/M01 A2967 RMK AO2,M
RTS,2024-02-07 11:35,-119.8764,39.6682,1539.00,30.20,24.80,80.07,0.00,0.00,0.00,29.64,M,10.00,M,OVC,M,M,M,3700.00,M,M,M,M,M,M,M,M,M,M,30.20,KRTS 071135Z AUTO 00000KT 10SM OVC037 M01/M04 A2964 RMK AO2,M
05U,2024-02-07 11:35,-116.0051,39.6042,1811.23,M,M,M,320.00,5.00,0.00,29.57,M,10.00,M,M,M,M,M,M,M,M,M,M,M,M,M,M,M,M,M,K05U 071135Z AUTO 32005KT 10SM A2957 RMK A01,M
MEV,2024-02-07 11:35,-119.7500,38.9963,1441.42,24.80,24.80,100.00,130.00,9.00,0.00,29.66,M,10.00,M,BKN,BKN,M,M,4300.00,5500.00,M,M,M,M,M,M,M,M,M,14.56,KMEV 071135Z AUTO 13009KT 10SM BKN043 BKN055 M04/M04 A2966 RMK AO2,M
BAM,2024-02-07 11:35,-116.8743,40.5990,1382.36,35.60,33.80,93.08,240.00,5.00,0.00,29.60,M,7.00,M,OVC,M,M,M,1100.00,M,M,M,M,M,M,M,M,M,M,30.67,KBAM 071135Z AUTO 24005KT 7SM OVC011 02/01 A2960 RMK AO1,M
HTH,2024-02-07 11:35,-118.6315,38.5448,1282.89,30.20,28.40,92.92,230.00,4.00,0.00,29.65,M,10.00,M,CLR,M,M,M,M,M,M,M,M,M,M,M,M,M,M,25.32,KHTH 071135Z AUTO 23004KT 10SM CLR M01/M02 A2965 RMK A01,M
TMT,2024-02-07 11:35,-117.1971,39.4643,1749.34,31.60,28.40,87.79,240.00,4.00,0.00,29.61,M,10.00,M,BKN,BKN,OVC,M,1700.00,3900.00,7500.00,M,M,M,M,M,M,M,M,26.95,KTMT 071135Z AUTO 24004KT 10SM BKN017 BKN039 OVC075 00/M02 A2961 RMK AO2 T10021020,M
LOL,2024-02-07 11:38,-118.5701,40.0684,1192.43,32.00,32.00,100.00,0.00,0.00,0.00,29.63,M,7.00,M,SCT,BKN,OVC,M,700.00,5500.00,7500.00,M,M,M,M,M,M,M,M,32.00,KLOL 071138Z AUTO 00000KT 7SM SCT007 BKN055 OVC075 00/00 A2963 RMK AO2 T00000000,M
DRA,2024-02-07 11:53,-116.0278,36.6206,1009.00,38.00,36.00,92.42,0.00,0.00,0.06,29.63,1002.30,9.00,M,OVC,M,M,M,2500.00,M,M,M,-RA,M,M,M,M,M,M,38.00,KDRA 071153Z AUTO 00000KT 9SM -RA OVC025 03/02 A2963 RMK AO2 UPB33E45 SLP023 P0006 60019 70053 T00330022 10061 20028 51003,M
ELY,2024-02-07 11:53,-114.8453,39.2950,1909.00,31.00,28.00,88.48,0.00,0.00,0.01,29.52,998.70,10.00,M,FEW,OVC,M,M,3700.00,5500.00,M,M,M,M,M,M,M,M,M,31.00,KELY 071153Z AUTO 00000KT 10SM FEW037 OVC055 M01/M02 A2952 RMK AO2 SNE43 SLP987 P0001 60001 70003 T10061022 10000 21011 58002,M
VGT,2024-02-07 11:53,-115.1933,36.2111,667.00,47.00,37.00,68.02,210.00,6.00,T,29.62,1004.60,10.00,M,BKN,BKN,M,M,9000.00,10000.00,M,M,-RA,M,M,M,M,M,M,43.60,KVGT 071153Z AUTO 21006KT 10SM -RA BKN090 BKN100 08/03 A2962 RMK AO2 SLP046 P0000 60001 70018 T00830028 10089 20072 53003,M
LOL,2024-02-07 11:53,-118.5701,40.0684,1192.43,32.00,32.00,100.00,130.00,3.00,0.00,29.62,1004.40,7.00,M,BKN,OVC,M,M,700.00,7500.00,M,M,M,M,M,M,M,M,M,28.69,KLOL 071153Z AUTO 13003KT 7SM BKN007 OVC075 00/00 A2962 RMK AO2 SLP044 70039 T00000000 10006 21006 50002,M
P68,2024-02-07 11:53,-116.0056,39.6014,1993.00,33.00,28.00,81.63,0.00,0.00,0.00,29.55,999.40,M,M,M,M,M,M,M,M,M,M,M,M,M,M,M,M,M,33.00,KP68 071153Z AUTO 00000KT 01/M02 A2955 RMK AO1 SLP994 T00061022 10006 20000 51002 $,M
BVU,2024-02-07 11:55,-114.8611,35.9475,671.00,44.60,39.20,81.20,150.00,6.00,0.00,29.65,M,10.00,M,FEW,FEW,SCT,M,1900.00,3100.00,7500.00,M,M,M,M,M,M,M,M,40.71,KBVU 071155Z AUTO 15006KT 10SM FEW019 FEW031 SCT075 07/04 A2965 RMK AO2,M
CXP,2024-02-07 11:55,-119.7326,39.1923,1431.00,32.00,30.20,92.97,0.00,0.00,0.00,29.67,M,9.00,M,SCT,BKN,OVC,M,700.00,1200.00,4300.00,M,M,M,M,M,M,M,M,32.00,KCXP 071155Z AUTO 00000KT 9SM SCT007 BKN012 OVC043 M00/M01 A2967 RMK AO2,M
INS,2024-02-07 11:55,-115.6733,36.5872,955.00,40.50,35.00,80.57,250.00,11.00,0.00,29.63,1002.40,10.00,M,SCT,BKN,OVC,M,3900.00,5000.00,6500.00,M,M,M,M,M,M,M,M,33.21,KINS 071155Z AUTO 25011KT 10SM SCT039 BKN050 OVC065 05/02 A2963 RMK AO2 SLP024 60000 70023 T00470017 10065 20043 51007 $,M
RNO,2024-02-07 11:55,-119.7711,39.4839,1341.00,30.00,26.00,84.85,0.00,0.00,0.00,29.65,1003.80,10.00,M,SCT,M,M,M,4700.00,M,M,M,M,M,M,M,M,M,M,30.00,KRNO 071155Z 00000KT 10SM SCT047 M01/M03 A2965 RMK AO2 SLP038 70001 T10111033 10017 21017 50001,M
LSV,2024-02-07 11:55,-115.0343,36.2362,570.00,47.70,37.20,66.77,190.00,12.00,0.00,29.61,1002.30,10.00,M,CLR,M,M,M,M,M,M,M,M,M,M,M,M,M,M,41.98,KLSV 071155Z AUTO 19012KT 10SM CLR 09/03 A2961 RMK AO2 SLP023 70010 T00870029 10098 20086 50004 $,M
RTS,2024-02-07 11:55,-119.8764,39.6682,1539.00,26.60,24.80,92.80,0.00,0.00,0.00,29.64,M,10.00,M,OVC,M,M,M,3800.00,M,M,M,M,M,M,M,M,M,M,26.60,KRTS 071155Z AUTO 00000KT 10SM OVC038 M03/M04 A2964 RMK AO2,M
05U,2024-02-07 11:55,-116.0051,39.6042,1811.23,M,M,M,0.00,0.00,0.00,29.58,M,10.00,M,M,M,M,M,M,M,M,M,M,M,M,M,M,M,M,M,K05U 071155Z AUTO 00000KT 10SM A2958 RMK A01,M
MEV,2024-02-07 11:55,-119.7500,38.9963,1441.42,23.00,23.00,100.00,140.00,4.00,0.00,29.66,M,10.00,M,FEW,BKN,OVC,M,600.00,4300.00,4800.00,M,M,M,M,M,M,M,M,16.91,KMEV 071155Z AUTO 14004KT 10SM FEW006 BKN043 OVC048 M05/M05 A2966 RMK AO2,M
BAM,2024-02-07 11:55,-116.8743,40.5990,1382.36,35.60,33.80,93.08,260.00,5.00,0.00,29.60,M,7.00,M,OVC,M,M,M,1100.00,M,M,M,M,M,M,M,M,M,M,30.67,KBAM 071155Z AUTO 26005KT 7SM OVC011 02/01 A2960 RMK AO1,M
HTH,2024-02-07 11:55,-118.6315,38.5448,1282.89,30.20,28.40,92.92,240.00,4.00,0.00,29.65,M,10.00,M,CLR,M,M,M,M,M,M,M,M,M,M,M,M,M,M,25.32,KHTH 071155Z AUTO 24004KT 10SM CLR M01/M02 A2965 RMK A01,M
TMT,2024-02-07 11:55,-117.1971,39.4643,1749.34,31.50,28.40,88.15,230.00,4.00,0.00,29.61,M,10.00,M,SCT,SCT,OVC,M,1700.00,3500.00,7500.00,M,M,M,M,M,M,M,M,26.84,KTMT 071155Z AUTO 23004KT 10SM SCT017 SCT035 OVC075 00/M02 A2961 RMK AO2 70001 T10031020 10002 21005,M
EKO,2024-02-07 11:56,-115.7860,40.8242,1367.00,34.00,32.00,92.29,230.00,5.00,0.00,29.55,1000.90,10.00,M,SCT,SCT,OVC,M,1300.00,1800.00,3800.00,M,M,M,M,M,M,M,M,28.77,KEKO 071156Z AUTO 23005KT 10SM SCT013 SCT018 OVC038 01/00 A2955 RMK AO2 SLP009 70018 T00110000 10017 20011 50002,M
NFL,2024-02-07 11:56,-118.7010,39.4166,1199.00,35.00,30.00,81.78,230.00,3.00,0.00,29.63,1001.90,10.00,M,BKN,OVC,M,M,4700.00,6000.00,M,M,M,M,M,M,M,M,M,32.12,KNFL 071156Z AUTO 23003KT 10SM BKN047 OVC060 02/M01 A2963 RMK AO2 SLP019 70028 T00171011 10033 20017 51003,M
HND,2024-02-07 11:56,-115.1344,35.9729,742.79,43.00,36.00,76.12,180.00,14.00,0.00,29.64,1005.50,10.00,M,SCT,BKN,M,M,9000.00,11000.00,M,M,M,M,M,M,M,M,M,35.34,KHND 071156Z AUTO 18014KT 10SM SCT090 BKN110 06/02 A2964 RMK AO2 SLP055 70013 T00610022 10078 20061 50004,M
TPH,2024-02-07 11:56,-117.0904,38.0505,1654.00,32.00,28.00,84.98,300.00,13.00,0.00,29.58,1001.50,10.00,M,CLR,M,M,M,M,M,M,M,M,M,M,M,27.00,310.00,2024-02-07 10:57,21.57,KTPH 071156Z AUTO 30013KT 10SM CLR 00/M02 A2958 RMK AO2 PK WND 31027/1057 SLP015 70029 T00001022 10011 20000 55001,M
LAS,2024-02-07 11:56,-115.1634,36.0719,663.00,44.00,37.00,76.22,240.00,5.00,0.00,29.63,1003.20,10.00,M,SCT,M,M,M,10000.00,M,M,M,M,M,M,M,M,M,M,40.65,KLAS 071156Z 24005KT 10SM SCT100 07/03 A2963 RMK AO2 SLP032 70015 T00670028 10083 20067 53005,M
WMC,2024-02-07 11:56,-117.8072,40.9019,1315.00,34.00,31.00,88.63,180.00,3.00,T,29.60,1002.70,10.00,M,BKN,OVC,M,M,4700.00,6500.00,M,M,-RA,M,M,M,M,M,M,30.97,KWMC 071156Z AUTO 18003KT 10SM -RA BKN047 OVC065 01/M01 A2960 RMK AO2 SLP027 P0000 60003 70031 T00111006 10017 20011 50004,M
EKO,2024-02-07 12:10,-115.7860,40.8242,1367.00,33.00,32.00,96.06,230.00,5.00,0.00,29.55,M,10.00,M,BKN,BKN,OVC,M,1300.00,3400.00,8000.00,M,M,M,M,M,M,M,M,27.58,KEKO 071210Z AUTO 23005KT 10SM BKN013 BKN034 OVC080 01/00 A2955 RMK AO2 T00060000,M
05U,2024-02-07 12:10,-116.0051,39.6042,1811.23,32.00,28.40,86.39,290.00,3.00,0.00,29.58,M,10.00,M,M,M,M,M,M,M,M,M,M,M,M,M,M,M,M,28.69,K05U 071210Z AUTO 29003KT 10SM 00/M02 A2958 RMK A01,M
DRA,2024-02-07 12:12,-116.0278,36.6206,1009.00,38.00,36.00,92.42,360.00,3.00,T,29.63,M,10.00,M,OVC,M,M,M,3300.00,M,M,M,M,M,M,M,M,M,M,35.55,KDRA 071212Z AUTO 36003KT 10SM OVC033 03/02 A2963 RMK AO2 RAE07 P0000 T00330022,M
BVU,2024-02-07 12:15,-114.8611,35.9475,671.00,44.60,37.40,75.68,140.00,6.00,0.00,29.67,M,10.00,M,BKN,BKN,M,M,7000.00,12000.00,M,M,M,M,M,M,M,M,M,40.71,KBVU 071215Z AUTO 14006KT 10SM BKN070 BKN120 07/03 A2967 RMK AO2,M
CXP,2024-02-07 12:15,-119.7326,39.1923,1431.00,30.20,30.20,100.00,0.00,0.00,0.00,29.66,M,7.00,M,FEW,SCT,OVC,M,1000.00,1300.00,4200.00,M,M,M,M,M,M,M,M,30.20,KCXP 071215Z AUTO 00000KT 7SM FEW010 SCT013 OVC042 M01/M01 A2966 RMK AO2,M
RTS,2024-02-07 12:15,-119.8764,39.6682,1539.00,26.60,24.80,92.80,0.00,0.00,0.00,29.64,M,10.00,M,OVC,M,M,M,3900.00,M,M,M,M,M,M,M,M,M,M,26.60,KRTS 071215Z AUTO 00000KT 10SM OVC039 M03/M04 A2964 RMK AO2,M
MEV,2024-02-07 12:15,-119.7500,38.9963,1441.42,24.80,23.00,92.74,130.00,6.00,0.00,29.66,M,10.00,M,FEW,FEW,BKN,M,500.00,1000.00,4800.00,M,M,M,M,M,M,M,M,16.86,KMEV 071215Z AUTO 13006KT 10SM FEW005 FEW010 BKN048 M04/M05 A2966 RMK AO2,M
BAM,2024-02-07 12:15,-116.8743,40.5990,1382.36,33.80,33.80,100.00,300.00,4.00,0.00,29.61,M,4.00,M,SCT,SCT,OVC,M,400.00,800.00,1300.00,M,M,M,M,M,M,M,M,29.52,KBAM 071215Z AUTO 30004KT 4SM SCT004 SCT008 OVC013 01/01 A2961 RMK AO1,M
HTH,2024-02-07 12:15,-118.6315,38.5448,1282.89,28.40,28.40,100.00,0.00,0.00,0.00,29.65,M,10.00,M,CLR,M,M,M,M,M,M,M,M,M,M,M,M,M,M,28.40,KHTH 071215Z AUTO 00000KT 10SM CLR M02/M02 A2965 RMK A01,M
TMT,2024-02-07 12:15,-117.1971,39.4643,1749.34,30.70,28.20,90.31,230.00,4.00,0.00,29.61,M,10.00,M,SCT,BKN,OVC,M,1900.00,5000.00,7500.00,M,M,M,M,M,M,M,M,25.90,KTMT 071215Z AUTO 23004KT 10SM SCT019 BKN050 OVC075 M01/M02 A2961 RMK AO2 T10071021,M
INS,2024-02-07 12:30,-115.6733,36.5872,955.00,41.00,35.60,80.93,230.00,10.00,0.00,29.63,1002.40,10.00,M,BKN,BKN,OVC,M,2900.00,4500.00,5500.00,M,M,M,M,M,M,M,M,34.25,KINS 071230Z AUTO 23010KT 10SM BKN029 BKN045 OVC055 05/02 A2963 RMK AO2 CIG 029V048 BKN029 V SCT SLP024 $,M
BVU,2024-02-07 12:35,-114.8611,35.9475,671.00,44.60,37.40,75.68,160.00,6.00,0.00,29.67,M,10.00,M,BKN,OVC,M,M,6000.00,7500.00,M,M,M,M,M,M,M,M,M,40.71,KBVU 071235Z AUTO 16006KT 10SM BKN060 OVC075 07/03 A2967 RMK AO2,M
CXP,2024-02-07 12:35,-119.7326,39.1923,1431.00,30.20,30.20,100.00,240.00,6.00,0.00,29.67,M,9.00,M,FEW,OVC,M,M,3100.00,4100.00,M,M,M,M,M,M,M,M,M,23.36,KCXP 071235Z AUTO 24006KT 9SM FEW031 OVC041 M01/M01 A2967 RMK AO2,M
INS,2024-02-07 12:35,-115.6733,36.5872,955.00,41.00,35.60,80.93,230.00,10.00,0.00,29.63,1002.40,10.00,M,SCT,OVC,M,M,2900.00,5500.00,M,M,M,M,M,M,M,M,M,34.25,KINS 071235Z AUTO 23010KT 10SM SCT029 OVC055 05/02 A2963 RMK AO2 SLP024 $,M
RTS,2024-02-07 12:35,-119.8764,39.6682,1539.00,26.60,24.80,92.80,110.00,6.00,0.00,29.64,M,10.00,M,OVC,M,M,M,4200.00,M,M,M,M,M,M,M,M,M,M,19.03,KRTS 071235Z AUTO 11006KT 10SM OVC042 M03/M04 A2964 RMK AO2,M
05U,2024-02-07 12:35,-116.0051,39.6042,1811.23,33.80,28.40,80.36,0.00,0.00,0.00,29.58,M,10.00,M,M,M,M,M,M,M,M,M,M,M,M,M,M,M,M,33.80,K05U 071235Z AUTO 00000KT 10SM 01/M02 A2958 RMK A01,M
MEV,2024-02-07 12:35,-119.7500,38.9963,1441.42,23.00,21.20,92.69,0.00,0.00,0.00,29.66,M,10.00,M,BKN,M,M,M,4800.00,M,M,M,M,M,M,M,M,M,M,23.00,KMEV 071235Z AUTO 00000KT 10SM BKN048 M05/M06 A2966 RMK AO2,M
BAM,2024-02-07 12:35,-116.8743,40.5990,1382.36,33.80,33.80,100.00,260.00,4.00,0.00,29.61,M,2.50,M,BKN,BKN,OVC,M,400.00,800.00,1300.00,M,M,M,M,M,M,M,M,29.52,KBAM 071235Z AUTO 26004KT 2 1/2SM BKN004 BKN008 OVC013 01/01 A2961 RMK AO1,M
HTH,2024-02-07 12:35,-118.6315,38.5448,1282.89,30.20,28.40,92.92,210.00,3.00,0.00,29.66,M,10.00,M,CLR,M,M,M,M,M,M,M,M,M,M,M,M,M,M,26.63,KHTH 071235Z AUTO 21003KT 10SM CLR M01/M02 A2966 RMK A01,M
TMT,2024-02-07 12:35,-117.1971,39.4643,1749.34,30.70,28.20,90.31,260.00,6.00,0.00,29.62,M,10.00,M,BKN,BKN,OVC,M,1900.00,5000.00,7500.00,M,M,M,M,M,M,M,M,23.96,KTMT 071235Z AUTO 26006KT 10SM BKN019 BKN050 OVC075 M01/M02 A2962 RMK AO2 T10071021,M
LOL,2024-02-07 12:42,-118.5701,40.0684,1192.43,31.00,31.00,100.00,0.00,0.00,0.00,29.62,M,5.00,M,OVC,M,M,M,400.00,M,M,M,BR,M,M,M,M,M,M,31.00,KLOL 071242Z AUTO 00000KT 5SM BR OVC004 M01/M01 A2962 RMK AO2 T10061006,M
05U,2024-02-07 12:50,-116.0051,39.6042,1811.23,32.00,28.40,86.39,310.00,3.00,0.00,29.58,M,10.00,M,M,M,M,M,M,M,M,M,M,M,M,M,M,M,M,28.69,K05U 071250Z AUTO 31003KT 10SM 00/M02 A2958 RMK A01,M
EKO,2024-02-07 12:52,-115.7860,40.8242,1367.00,33.80,30.20,86.49,220.00,7.00,0.00,29.54,M,10.00,M,SCT,BKN,M,M,1400.00,9000.00,M,M,M,M,M,M,M,M,M,26.97,KEKO 071252Z AUTO 22007KT 10SM SCT014 BKN090 01/M01 A2954 RMK AO2,M
DRA,2024-02-07 12:53,-116.0278,36.6206,1009.00,38.00,36.00,92.42,330.00,4.00,T,29.65,1003.00,10.00,M,OVC,M,M,M,5500.00,M,M,M,M,M,M,M,M,M,M,34.43,KDRA 071253Z AUTO 33004KT 10SM OVC055 03/02 A2965 RMK AO2 RAE07 SLP030 P0000 T00330022,M
ELY,2024-02-07 12:53,-114.8453,39.2950,1909.00,31.00,26.00,81.48,270.00,6.00,T,29.53,999.10,5.00,M,OVC,M,M,M,5000.00,M,M,M,-SN,M,M,M,M,M,M,24.33,KELY 071253Z AUTO 27006KT 5SM -SN OVC050 M01/M03 A2953 RMK AO2 SNB24 SLP991 P0000 T10061033,M
VGT,2024-02-07 12:53,-115.1933,36.2111,667.00,43.00,39.00,85.66,290.00,7.00,T,29.64,1005.50,10.00,M,FEW,M,M,M,12000.00,M,M,M,-RA,M,M,M,M,M,M,38.19,KVGT 071253Z AUTO 29007KT 10SM -RA FEW120 06/04 A2964 RMK AO2 SLP055 P0000 T00610039,M
LOL,2024-02-07 12:53,-118.5701,40.0684,1192.43,31.00,31.00,100.00,0.00,0.00,0.00,29.62,1004.60,6.00,M,OVC,M,M,M,400.00,M,M,M,BR,M,M,M,M,M,M,31.00,KLOL 071253Z AUTO 00000KT 6SM BR OVC004 M01/M01 A2962 RMK AO2 SLP046 T10061006,M
P68,2024-02-07 12:53,-116.0056,39.6014,1993.00,32.00,28.00,84.98,0.00,0.00,0.00,29.56,999.80,M,M,M,M,M,M,M,M,M,M,M,M,M,M,M,M,M,32.00,KP68 071253Z AUTO 00000KT 00/M02 A2956 RMK AO1 SLP998 T00001022 $,M
BVU,2024-02-07 12:55,-114.8611,35.9475,671.00,44.60,37.40,75.68,180.00,8.00,0.00,29.66,M,10.00,M,FEW,SCT,OVC,M,5000.00,6000.00,7500.00,M,M,M,M,M,M,M,M,39.63,KBVU 071255Z AUTO 18008KT 10SM FEW050 SCT060 OVC075 07/03 A2966 RMK AO2,M
CXP,2024-02-07 12:55,-119.7326,39.1923,1431.00,30.20,26.60,86.28,0.00,0.00,0.00,29.67,M,10.00,M,FEW,SCT,OVC,M,2800.00,3300.00,4300.00,M,M,M,M,M,M,M,M,30.20,KCXP 071255Z AUTO 00000KT 10SM FEW028 SCT033 OVC043 M01/M03 A2967 RMK AO2,M
INS,2024-02-07 12:55,-115.6733,36.5872,955.00,40.60,35.60,82.19,240.00,11.00,0.00,29.64,1002.70,10.00,M,BKN,OVC,M,M,5000.00,6000.00,M,M,M,M,M,M,M,M,M,33.33,KINS 071255Z AUTO 24011KT 10SM BKN050 OVC060 05/02 A2964 RMK AO2 SLP027 T00480020 $,M
RNO,2024-02-07 12:55,-119.7711,39.4839,1341.00,28.00,24.00,84.72,0.00,0.00,0.00,29.64,1003.90,10.00,M,SCT,M,M,M,5000.00,M,M,M,M,M,M,M,M,M,M,28.00,KRNO 071255Z 00000KT 10SM SCT050 M02/M04 A2964 RMK AO2 SLP039 T10221044,M
RTS,2024-02-07 12:55,-119.8764,39.6682,1539.00,26.60,26.60,100.00,90.00,4.00,0.00,29.64,M,10.00,M,BKN,M,M,M,4200.00,M,M,M,M,M,M,M,M,M,M,21.11,KRTS 071255Z AUTO 09004KT 10SM BKN042 M03/M03 A2964 RMK AO2,M
MEV,2024-02-07 12:55,-119.7500,38.9963,1441.42,23.00,21.20,92.69,0.00,0.00,0.00,29.67,M,10.00,M,SCT,BKN,M,M,4800.00,5500.00,M,M,M,M,M,M,M,M,M,23.00,KMEV 071255Z AUTO 00000KT 10SM SCT048 BKN055 M05/M06 A2967 RMK AO2,M
BAM,2024-02-07 12:55,-116.8743,40.5990,1382.36,33.80,33.80,100.00,250.00,4.00,0.00,29.61,M,5.00,M,SCT,OVC,M,M,400.00,1100.00,M,M,M,M,M,M,M,M,M,29.52,KBAM 071255Z AUTO 25004KT 5SM SCT004 OVC011 01/01 A2961 RMK AO1,M
HTH,2024-02-07 12:55,-118.6315,38.5448,1282.89,30.20,30.20,100.00,280.00,5.00,0.00,29.66,M,10.00,M,CLR,M,M,M,M,M,M,M,M,M,M,M,M,M,M,24.26,KHTH 071255Z AUTO 28005KT 10SM CLR M01/M01 A2966 RMK A01,M
TMT,2024-02-07 12:55,-117.1971,39.4643,1749.34,32.00,27.70,83.94,270.00,3.00,0.00,29.61,M,10.00,M,BKN,OVC,M,M,2100.00,2900.00,M,M,M,M,M,M,M,M,M,28.69,KTMT 071255Z AUTO 27003KT 10SM BKN021 OVC029 00/M02 A2961 RMK AO2 T00001024,M
LSV,2024-02-07 12:55,-115.0343,36.2362,570.00,47.70,37.20,66.77,190.00,11.00,0.00,29.62,1002.60,10.00,M,BKN,BKN,M,M,8000.00,9000.00,M,M,M,M,M,M,M,M,M,42.31,KLSV 071255Z AUTO 19011KT 10SM BKN080 BKN090 09/03 A2962 RMK AO2 SLP026 T00870029 $,M
EKO,2024-02-07 12:56,-115.7860,40.8242,1367.00,33.00,31.00,92.25,220.00,6.00,0.00,29.55,1001.00,10.00,M,FEW,OVC,M,M,1400.00,9000.00,M,M,M,M,M,M,M,M,M,26.73,KEKO 071256Z AUTO 22006KT 10SM FEW014 OVC090 01/M01 A2955 RMK AO2 SLP010 T00061006,M
HND,2024-02-07 12:56,-115.1344,35.9729,742.79,42.00,35.00,76.03,200.00,10.00,0.00,29.67,1006.90,10.00,M,BKN,BKN,M,M,8000.00,10000.00,M,M,M,M,M,M,M,M,M,35.51,KHND 071256Z AUTO 20010KT 10SM BKN080 BKN100 06/02 A2967 RMK AO2 SLP069 T00560017,M
TPH,2024-02-07 12:56,-117.0904,38.0505,1654.00,30.00,28.00,92.15,20.00,7.00,0.00,29.60,1002.90,10.00,M,FEW,M,M,M,1300.00,M,M,M,M,M,M,M,M,M,M,22.34,KTPH 071256Z AUTO 02007KT 10SM FEW013 M01/M02 A2960 RMK AO2 SLP029 T10111022,M
LAS,2024-02-07 12:56,-115.1634,36.0719,663.00,44.00,36.00,73.27,180.00,7.00,0.00,29.64,1003.50,10.00,16.00,BKN,M,M,M,10000.00,M,M,M,M,M,M,M,M,M,M,39.41,KLAS 071256Z 18007G16KT 10SM BKN100 07/02 A2964 RMK AO2 SLP035 T00670022,M
WMC,2024-02-07 12:56,-117.8072,40.9019,1315.00,33.00,30.00,88.58,180.00,6.00,T,29.59,1002.70,10.00,M,SCT,BKN,M,M,2700.00,6000.00,M,M,M,M,M,M,M,M,M,26.73,KWMC 071256Z AUTO 18006KT 10SM SCT027 BKN060 01/M01 A2959 RMK AO2 RAE05 SLP027 P0000 T00061011,M
NFL,2024-02-07 12:56,-118.7010,39.4166,1199.00,34.00,30.00,85.11,170.00,6.00,0.00,29.63,1001.80,10.00,M,BKN,M,M,M,6500.00,M,M,M,M,M,M,M,M,M,M,27.94,KNFL 071256Z AUTO 17006KT 10SM BKN065 01/M01 A2963 RMK AO2 SLP018 T00111011,M
RTS,2024-02-07 13:00,-119.8764,39.6682,1539.00,26.60,26.60,100.00,0.00,0.00,0.00,29.64,M,10.00,M,BKN,M,M,M,4200.00,M,M,M,M,M,M,M,M,M,M,26.60,KRTS 071300Z AUTO 00000KT 10SM BKN042 M03/M03 A2964 RMK AO2,M
MEV,2024-02-07 13:00,-119.7500,38.9963,1441.42,21.20,21.20,100.00,50.00,4.00,0.00,29.66,M,10.00,M,FEW,SCT,M,M,4700.00,5500.00,M,M,M,M,M,M,M,M,M,14.81,KMEV 071300Z AUTO 05004KT 10SM FEW047 SCT055 M06/M06 A2966 RMK AO2,M
WMC,2024-02-07 13:03,-117.8072,40.9019,1315.00,33.00,30.00,88.58,210.00,6.00,0.00,29.59,M,10.00,M,BKN,BKN,M,M,2800.00,6500.00,M,M,M,M,M,M,M,M,M,26.73,KWMC 071303Z AUTO 21006KT 10SM BKN028 BKN065 01/M01 A2959 RMK AO2 T00061011,M
INS,2024-02-07 13:06,-115.6733,36.5872,955.00,41.00,35.60,80.93,230.00,9.00,0.00,29.63,1002.40,10.00,M,BKN,OVC,M,M,4900.00,5500.00,M,M,-RA,M,M,M,M,M,M,34.70,KINS 071306Z AUTO 23009KT 10SM -RA BKN049 OVC055 05/02 A2963 RMK AO2 RAB06 SLP024 $,M
05U,2024-02-07 13:10,-116.0051,39.6042,1811.23,32.00,28.40,86.39,M,4.00,0.00,29.58,M,10.00,M,M,M,M,M,M,M,M,M,M,M,M,M,M,M,M,27.42,K05U 071310Z AUTO VRB04KT 10SM 00/M02 A2958 RMK A01,M
BVU,2024-02-07 13:15,-114.8611,35.9475,671.00,44.60,39.20,81.20,190.00,7.00,0.00,29.67,M,10.00,M,FEW,FEW,OVC,M,3800.00,6000.00,7000.00,M,M,M,M,M,M,M,M,40.14,KBVU 071315Z AUTO 19007KT 10SM FEW038 FEW060 OVC070 07/04 A2967 RMK AO2,M
CXP,2024-02-07 13:15,-119.7326,39.1923,1431.00,30.20,26.60,86.28,170.00,6.00,0.00,29.66,M,10.00,12.00,FEW,OVC,M,M,3100.00,4700.00,M,M,M,M,M,M,M,M,M,23.36,KCXP 071315Z AUTO 17006G12KT 10SM FEW031 OVC047 M01/M03 A2966 RMK AO2,M
BAM,2024-02-07 13:15,-116.8743,40.5990,1382.36,33.80,33.80,100.00,0.00,0.00,0.00,29.61,M,10.00,M,OVC,M,M,M,1300.00,M,M,M,M,M,M,M,M,M,M,33.80,KBAM 071315Z AUTO 00000KT 10SM OVC013 01/01 A2961 RMK AO1,M
HTH,2024-02-07 13:15,-118.6315,38.5448,1282.89,30.20,30.20,100.00,170.00,3.00,0.00,29.66,M,10.00,M,CLR,M,M,M,M,M,M,M,M,M,M,M,M,M,M,26.63,KHTH 071315Z AUTO 17003KT 10SM CLR M01/M01 A2966 RMK A01,M
TMT,2024-02-07 13:15,-117.1971,39.4643,1749.34,32.00,27.50,83.25,0.00,0.00,0.00,29.61,M,10.00,M,BKN,BKN,OVC,M,2100.00,2700.00,4100.00,M,M,M,M,M,M,M,M,32.00,KTMT 071315Z AUTO 00000KT 10SM BKN021 BKN027 OVC041 00/M02 A2961 RMK AO2 T10011025,M
EKO,2024-02-07 13:17,-115.7860,40.8242,1367.00,34.00,31.00,88.63,210.00,8.00,0.00,29.55,M,10.00,M,BKN,OVC,M,M,1700.00,9000.00,M,M,M,M,M,M,M,M,M,26.58,KEKO 071317Z AUTO 21008KT 10SM BKN017 OVC090 01/M01 A2955 RMK AO2 T00111006,M
INS,2024-02-07 13:21,-115.6733,36.5872,955.00,41.00,35.60,80.93,220.00,9.00,0.00,29.64,1002.70,10.00,M,FEW,OVC,M,M,3500.00,5000.00,M,M,M,M,M,M,M,M,M,34.70,KINS 071321Z AUTO 22009KT 10SM FEW035 OVC050 05/02 A2964 RMK AO2 RAB06E14DZB14E21 SLP027 $,M
INS,2024-02-07 13:25,-115.6733,36.5872,955.00,42.80,35.60,75.50,210.00,10.00,0.00,29.64,1002.70,10.00,M,SCT,BKN,OVC,M,3700.00,4900.00,6000.00,M,-DZ,M,M,M,M,M,M,36.51,KINS 071325Z AUTO 21010KT 10SM -DZ SCT037 BKN049 OVC060 06/02 A2964 RMK AO2 RAB06E14DZB14E21DZB25 SLP027 $,M
WMC,2024-02-07 13:28,-117.8072,40.9019,1315.00,33.00,30.00,88.58,190.00,5.00,0.00,29.59,M,10.00,M,SCT,M,M,M,2800.00,M,M,M,M,M,M,M,M,M,M,27.58,KWMC 071328Z AUTO 19005KT 10SM SCT028 01/M01 A2959 RMK AO2 T00061011,M
LOL,2024-02-07 13:32,-118.5701,40.0684,1192.43,31.00,31.00,100.00,280.00,4.00,0.00,29.62,M,4.00,M,OVC,M,M,M,300.00,M,M,M,BR,M,M,M,M,M,M,26.25,KLOL 071332Z AUTO 28004KT 4SM BR OVC003 M01/M01 A2962 RMK AO2 T10061006,M
BVU,2024-02-07 13:35,-114.8611,35.9475,671.00,44.60,37.40,75.68,190.00,8.00,0.00,29.67,M,10.00,M,FEW,SCT,OVC,M,3800.00,4500.00,7500.00,M,M,M,M,M,M,M,M,39.63,KBVU 071335Z AUTO 19008KT 10SM FEW038 SCT045 OVC075 07/03 A2967 RMK AO2,M
CXP,2024-02-07 13:35,-119.7326,39.1923,1431.00,30.20,26.60,86.28,M,3.00,0.00,29.66,M,10.00,M,OVC,M,M,M,4900.00,M,M,M,M,M,M,M,M,M,M,26.63,KCXP 071335Z AUTO VRB03KT 10SM OVC049 M01/M03 A2966 RMK AO2,M
RTS,2024-02-07 13:35,-119.8764,39.6682,1539.00,26.60,23.00,86.07,0.00,0.00,0.00,29.63,M,10.00,M,SCT,SCT,M,M,4400.00,5000.00,M,M,M,M,M,M,M,M,M,26.60,KRTS 071335Z AUTO 00000KT 10SM SCT044 SCT050 M03/M05 A2963 RMK AO2,M
MEV,2024-02-07 13:35,-119.7500,38.9963,1441.42,21.20,19.40,92.63,100.00,5.00,0.00,29.65,M,10.00,M,OVC,M,M,M,5000.00,M,M,M,M,M,M,M,M,M,M,13.57,KMEV 071335Z AUTO 10005KT 10SM OVC050 M06/M07 A2965 RMK AO2,M
BAM,2024-02-07 13:35,-116.8743,40.5990,1382.36,33.80,33.80,100.00,0.00,0.00,0.00,29.60,M,10.00,M,OVC,M,M,M,1700.00,M,M,M,M,M,M,M,M,M,M,33.80,KBAM 071335Z AUTO 00000KT 10SM OVC017 01/01 A2960 RMK AO1,M
HTH,2024-02-07 13:35,-118.6315,38.5448,1282.89,30.20,28.40,92.92,160.00,4.00,0.00,29.67,M,10.00,M,FEW,FEW,M,M,900.00,3700.00,M,M,M,M,M,M,M,M,M,25.32,KHTH 071335Z AUTO 16004KT 10SM FEW009 FEW037 M01/M02 A2967 RMK A01,M
TMT,2024-02-07 13:35,-117.1971,39.4643,1749.34,30.60,27.50,88.10,270.00,3.00,0.00,29.61,M,10.00,M,SCT,BKN,OVC,M,1900.00,2800.00,4500.00,M,M,M,M,M,M,M,M,27.09,KTMT 071335Z AUTO 27003KT 10SM SCT019 BKN028 OVC045 M01/M02 A2961 RMK AO2 T10081025,M
EKO,2024-02-07 13:36,-115.7860,40.8242,1367.00,34.00,31.00,88.63,210.00,5.00,0.00,29.55,M,10.00,M,BKN,OVC,M,M,1300.00,4300.00,M,M,M,M,M,M,M,M,M,28.77,KEKO 071336Z AUTO 21005KT 10SM BKN013 OVC043 01/M01 A2955 RMK AO2 T00111006,M
LOL,2024-02-07 13:42,-118.5701,40.0684,1192.43,31.00,31.00,100.00,280.00,3.00,0.00,29.63,M,2.00,M,OVC,M,M,M,300.00,M,M,M,BR,M,M,M,M,M,M,27.55,KLOL 071342Z AUTO 28003KT 2SM BR OVC003 M01/M01 A2963 RMK AO2 T10061006,M
INS,2024-02-07 13:48,-115.6733,36.5872,955.00,41.00,35.60,80.93,250.00,6.00,0.00,29.65,1003.10,10.00,M,FEW,FEW,BKN,BKN,1900.00,3600.00,4800.00,6000.00,M,M,M,M,M,M,M,36.37,KINS 071348Z AUTO 25006KT 10SM FEW019 FEW036 BKN048 BKN060 OVC070 05/02 A2965 RMK AO2 RAB06E14DZB14E21DZB25E28RAB28E43DZB43E48 SLP031 $,M
DRA,2024-02-07 13:53,-116.0278,36.6206,1009.00,38.00,37.00,96.14,340.00,4.00,0.00,29.65,1003.30,10.00,M,FEW,OVC,M,M,2900.00,5000.00,M,M,M,M,M,M,M,M,M,34.43,KDRA 071353Z AUTO 34004KT 10SM FEW029 OVC050 03/03 A2965 RMK AO2 SLP033 T00330028,M
ELY,2024-02-07 13:53,-114.8453,39.2950,1909.00,30.00,26.00,84.85,330.00,3.00,T,29.54,999.50,10.00,M,FEW,FEW,OVC,M,2400.00,3200.00,6000.00,M,M,M,M,M,M,M,M,26.40,KELY 071353Z AUTO 33003KT 10SM FEW024 FEW032 OVC060 M01/M03 A2954 RMK AO2 SNE35 SLP995 P0000 T10111033,M
VGT,2024-02-07 13:53,-115.1933,36.2111,667.00,44.00,39.00,82.44,320.00,7.00,T,29.66,1006.10,10.00,M,BKN,M,M,M,3500.00,M,M,M,-RA,M,M,M,M,M,M,39.41,KVGT 071353Z 32007KT 10SM -RA BKN035 07/04 A2966 RMK AO2 SLP061 P0000 T00670039,M
LOL,2024-02-07 13:53,-118.5701,40.0684,1192.43,31.00,31.00,100.00,0.00,0.00,0.00,29.62,1004.60,2.50,M,OVC,M,M,M,300.00,M,M,M,BR,M,M,M,M,M,M,31.00,KLOL 071353Z AUTO 00000KT 2 1/2SM BR OVC003 M01/M01 A2962 RMK AO2 SLP046 T10061006,M
P68,2024-02-07 13:53,-116.0056,39.6014,1993.00,32.00,27.00,81.55,320.00,5.00,0.00,29.56,999.80,M,M,M,M,M,M,M,M,M,M,M,M,M,M,M,M,M,26.40,KP68 071353Z AUTO 32005KT 00/M03 A2956 RMK AO1 SLP998 T00001028 $,M
BVU,2024-02-07 13:55,-114.8611,35.9475,671.00,44.60,37.40,75.68,190.00,6.00,0.00,29.68,M,10.00,M,BKN,OVC,M,M,4200.00,4700.00,M,M,M,M,M,M,M,M,M,40.71,KBVU 071355Z AUTO 19006KT 10SM BKN042 OVC047 07/03 A2968 RMK AO2,M
CXP,2024-02-07 13:55,-119.7326,39.1923,1431.00,30.20,26.60,86.28,M,5.00,0.00,29.66,M,10.00,M,OVC,M,M,M,5000.00,M,M,M,M,M,M,M,M,M,M,24.26,KCXP 071355Z AUTO VRB05KT 10SM OVC050 M01/M03 A2966 RMK AO2,M
INS,2024-02-07 13:55,-115.6733,36.5872,955.00,41.70,35.40,78.15,300.00,5.00,T,29.65,M,10.00,M,FEW,FEW,BKN,BKN,1900.00,3400.00,4900.00,5500.00,M,M,M,M,M,M,M,37.92,KINS 071355Z AUTO 30005KT 10SM FEW019 FEW034 BKN049 BKN055 OVC070 05/02 A2965 RMK AO2 RAB39E43DZB43E48 SLPNO P0000 T00540019 $,M
RNO,2024-02-07 13:55,-119.7711,39.4839,1341.00,30.00,26.00,84.85,0.00,0.00,0.00,29.64,1003.60,10.00,M,BKN,BKN,M,M,5000.00,20000.00,M,M,M,M,M,M,M,M,M,30.00,KRNO 071355Z 00000KT 10SM BKN050 BKN200 M01/M03 A2964 RMK AO2 SLP036 T10111033,M
RTS,2024-02-07 13:55,-119.8764,39.6682,1539.00,26.60,23.00,86.07,0.00,0.00,0.00,29.63,M,10.00,M,BKN,M,M,M,4800.00,M,M,M,M,M,M,M,M,M,M,26.60,KRTS 071355Z AUTO 00000KT 10SM BKN048 M03/M05 A2963 RMK AO2,M
05U,2024-02-07 13:55,-116.0051,39.6042,1811.23,M,M,M,90.00,3.00,0.00,29.59,M,10.00,M,M,M,M,M,M,M,M,M,M,M,M,M,M,M,M,M,K05U 071355Z AUTO 09003KT 10SM A2959 RMK A01,M
MEV,2024-02-07 13:55,-119.7500,38.9963,1441.42,23.00,21.20,92.69,M,6.00,0.00,29.66,M,10.00,M,OVC,M,M,M,4900.00,M,M,M,M,M,M,M,M,M,M,14.69,KMEV 071355Z AUTO VRB06KT 10SM OVC049 M05/M06 A2966 RMK AO2,M
BAM,2024-02-07 13:55,-116.8743,40.5990,1382.36,33.80,33.80,100.00,0.00,0.00,0.00,29.60,M,10.00,M,BKN,OVC,M,M,1700.00,3500.00,M,M,M,M,M,M,M,M,M,33.80,KBAM 071355Z AUTO 00000KT 10SM BKN017 OVC035 01/01 A2960 RMK AO1,M
HTH,2024-02-07 13:55,-118.6315,38.5448,1282.89,30.20,30.20,100.00,200.00,3.00,0.00,29.66,M,10.00,M,BKN,M,M,M,800.00,M,M,M,M,M,M,M,M,M,M,26.63,KHTH 071355Z AUTO 20003KT 10SM BKN008 M01/M01 A2966 RMK A01,M
TMT,2024-02-07 13:55,-117.1971,39.4643,1749.34,31.00,28.00,88.48,220.00,3.00,0.00,29.61,M,10.00,M,BKN,OVC,M,M,3000.00,3600.00,M,M,M,M,M,M,M,M,M,27.55,KTMT 071355Z AUTO 22003KT 10SM BKN030 OVC036 M01/M02 A2961 RMK AO2 T10061022,M
LSV,2024-02-07 13:55,-115.0343,36.2362,570.00,46.00,35.80,67.36,190.00,13.00,0.00,29.64,M,10.00,M,SCT,M,M,M,7500.00,M,M,M,M,M,M,M,M,M,M,39.50,KLSV 071355Z AUTO 19013KT 10SM SCT075 08/02 A2964 RMK AO2 SLPNO T00780021 $,M
EKO,2024-02-07 13:56,-115.7860,40.8242,1367.00,34.00,31.00,88.63,200.00,5.00,0.00,29.55,1000.90,10.00,M,BKN,OVC,M,M,1300.00,4300.00,M,M,M,M,M,M,M,M,M,28.77,KEKO 071356Z AUTO 20005KT 10SM BKN013 OVC043 01/M01 A2955 RMK AO2 SLP009 T00111006,M
NFL,2024-02-07 13:56,-118.7010,39.4166,1199.00,33.00,29.00,85.04,0.00,0.00,0.00,29.64,1002.00,10.00,M,SCT,M,M,M,5500.00,M,M,M,M,M,M,M,M,M,M,33.00,KNFL 071356Z AUTO 00000KT 10SM SCT055 01/M02 A2964 RMK AO2 SLP020 T00061017,M
HND,2024-02-07 13:56,-115.1344,35.9729,742.79,42.00,35.00,76.03,200.00,16.00,0.00,29.68,1007.30,10.00,M,FEW,M,M,M,12000.00,M,M,M,M,M,M,M,M,M,M,33.45,KHND 071356Z AUTO 20016KT 10SM FEW120 06/02 A2968 RMK AO2 SLP073 T00560017,M
TPH,2024-02-07 13:56,-117.0904,38.0505,1654.00,32.00,27.00,81.55,320.00,14.00,0.00,29.61,1003.10,10.00,18.00,CLR,M,M,M,M,M,M,M,M,M,M,M,M,M,M,21.16,KTPH 071356Z AUTO 32014G18KT 10SM CLR 00/M03 A2961 RMK AO2 SLP031 T00001028,M
LAS,2024-02-07 13:56,-115.1634,36.0719,663.00,43.00,36.00,76.12,230.00,3.00,0.00,29.67,1004.80,10.00,M,FEW,SCT,BKN,M,3800.00,9000.00,15000.00,M,M,M,M,M,M,M,M,41.26,KLAS 071356Z 23003KT 10SM FEW038 SCT090 BKN150 06/02 A2967 RMK AO2 SLP048 T00610022,M
WMC,2024-02-07 13:56,-117.8072,40.9019,1315.00,33.00,30.00,88.58,190.00,6.00,0.00,29.59,1002.50,10.00,M,SCT,SCT,M,M,4800.00,6500.00,M,M,M,M,M,M,M,M,M,26.73,KWMC 071356Z AUTO 19006KT 10SM SCT048 SCT065 01/M01 A2959 RMK AO2 SLP025 T00061011,M
LOL,2024-02-07 14:03,-118.5701,40.0684,1192.43,32.00,32.00,100.00,0.00,0.00,0.00,29.63,M,0.75,M,OVC,M,M,M,300.00,M,M,M,BR,M,M,M,M,M,M,32.00,KLOL 071403Z AUTO 00000KT 3/4SM BR OVC003 00/00 A2963 RMK AO2 T00000000,M
BVU,2024-02-07 14:15,-114.8611,35.9475,671.00,44.60,37.40,75.68,220.00,7.00,0.00,29.69,M,10.00,M,OVC,M,M,M,3800.00,M,M,M,M,M,M,M,M,M,M,40.14,KBVU 071415Z AUTO 22007KT 10SM OVC038 07/03 A2969 RMK AO2,M
CXP,2024-02-07 14:15,-119.7326,39.1923,1431.00,30.20,24.80,80.07,0.00,0.00,0.00,29.65,M,10.00,M,OVC,M,M,M,5000.00,M,M,M,M,M,M,M,M,M,M,30.20,KCXP 071415Z AUTO 00000KT 10SM OVC050 M01/M04 A2965 RMK AO2,M
RTS,2024-02-07 14:15,-119.8764,39.6682,1539.00,26.60,23.00,86.07,10.00,6.00,0.00,29.63,M,10.00,M,FEW,OVC,M,M,4300.00,5000.00,M,M,M,M,M,M,M,M,M,19.03,KRTS 071415Z AUTO 01006KT 10SM FEW043 OVC050 M03/M05 A2963 RMK AO2,M
05U,2024-02-07 14:15,-116.0051,39.6042,1811.23,32.00,26.60,80.22,90.00,6.00,0.00,29.59,M,10.00,M,M,M,M,M,M,M,M,M,M,M,M,M,M,M,M,25.53,K05U 071415Z AUTO 09006KT 10SM 00/M03 A2959 RMK A01,M
MEV,2024-02-07 14:15,-119.7500,38.9963,1441.42,23.00,21.20,92.69,100.00,5.00,0.00,29.65,M,10.00,M,BKN,BKN,M,M,5000.00,5500.00,M,M,M,M,M,M,M,M,M,15.71,KMEV 071415Z AUTO 10005KT 10SM BKN050 BKN055 M05/M06 A2965 RMK AO2,M
BAM,2024-02-07 14:15,-116.8743,40.5990,1382.36,33.80,33.80,100.00,60.00,3.00,0.00,29.60,M,10.00,M,OVC,M,M,M,1900.00,M,M,M,M,M,M,M,M,M,M,30.75,KBAM 071415Z AUTO 06003KT 10SM OVC019 01/01 A2960 RMK AO1,M
HTH,2024-02-07 14:15,-118.6315,38.5448,1282.89,32.00,30.20,92.97,210.00,4.00,0.00,29.67,M,10.00,M,OVC,M,M,M,700.00,M,M,M,M,M,M,M,M,M,M,27.42,KHTH 071415Z AUTO 21004KT 10SM OVC007 M00/M01 A2967 RMK A01,M
TMT,2024-02-07 14:15,-117.1971,39.4643,1749.34,31.00,27.70,87.40,220.00,4.00,0.00,29.62,M,10.00,M,BKN,BKN,BKN,M,2800.00,3600.00,4600.00,M,M,M,M,M,M,M,M,26.25,KTMT 071415Z AUTO 22004KT 10SM BKN028 BKN036 BKN046 00/M02 A2962 RMK AO2 T10051024,M
DRA,2024-02-07 14:16,-116.0278,36.6206,1009.00,38.00,37.00,96.14,250.00,3.00,T,29.67,M,10.00,M,BKN,OVC,M,M,1100.00,3800.00,M,M,M,M,M,M,M,M,M,35.55,KDRA 071416Z AUTO 25003KT 10SM BKN011 OVC038 03/03 A2967 RMK AO2 RAB1358E16 P0000 T00330028,M
LOL,2024-02-07 14:16,-118.5701,40.0684,1192.43,32.00,32.00,100.00,0.00,0.00,0.00,29.63,M,0.25,M,VV ,M,M,M,200.00,M,M,M,FG,M,M,M,M,M,M,32.00,KLOL 071416Z AUTO 00000KT 1/4SM FG VV002 00/00 A2963 RMK AO2 T00000000,M
EKO,2024-02-07 14:25,-115.7860,40.8242,1367.00,33.00,31.00,92.25,260.00,6.00,0.00,29.56,M,10.00,M,SCT,SCT,OVC,M,1000.00,4700.00,6000.00,M,M,M,M,M,M,M,M,26.73,KEKO 071425Z AUTO 26006KT 10SM SCT010 SCT047 OVC060 01/M01 A2956 RMK AO2 T00061006,M
BVU,2024-02-07 14:35,-114.8611,35.9475,671.00,44.60,37.40,75.68,220.00,6.00,0.00,29.70,M,10.00,M,OVC,M,M,M,3600.00,M,M,M,M,M,M,M,M,M,M,40.71,KBVU 071435Z AUTO 22006KT 10SM OVC036 07/03 A2970 RMK AO2,M
CXP,2024-02-07 14:35,-119.7326,39.1923,1431.00,30.20,24.80,80.07,300.00,5.00,0.00,29.65,M,10.00,M,BKN,OVC,M,M,5000.00,5500.00,M,M,M,M,M,M,M,M,M,24.26,KCXP 071435Z AUTO 30005KT 10SM BKN050 OVC055 M01/M04 A2965 RMK AO2,M
RTS,2024-02-07 14:35,-119.8764,39.6682,1539.00,28.40,24.80,86.18,320.00,5.00,0.00,29.64,M,10.00,M,BKN,OVC,M,M,4700.00,5500.00,M,M,M,M,M,M,M,M,M,22.12,KRTS 071435Z AUTO 32005KT 10SM BKN047 OVC055 M02/M04 A2964 RMK AO2,M
05U,2024-02-07 14:35,-116.0051,39.6042,1811.23,32.00,26.60,80.22,90.00,8.00,0.00,29.59,M,10.00,M,M,M,M,M,M,M,M,M,M,M,M,M,M,M,M,24.11,K05U 071435Z AUTO 09008KT 10SM 00/M03 A2959 RMK A01,M
MEV,2024-02-07 14:35,-119.7500,38.9963,1441.42,19.40,17.60,92.57,0.00,0.00,0.00,29.65,M,10.00,M,BKN,M,M,M,5000.00,M,M,M,M,M,M,M,M,M,M,19.40,KMEV 071435Z AUTO 00000KT 10SM BKN050 M07/M08 A2965 RMK AO2,M
BAM,2024-02-07 14:35,-116.8743,40.5990,1382.36,35.60,33.80,93.08,0.00,0.00,0.00,29.60,M,10.00,M,OVC,M,M,M,1900.00,M,M,M,M,M,M,M,M,M,M,35.60,KBAM 071435Z AUTO 00000KT 10SM OVC019 02/01 A2960 RMK AO1,M
HTH,2024-02-07 14:35,-118.6315,38.5448,1282.89,32.00,30.20,92.97,0.00,0.00,0.00,29.66,M,10.00,M,OVC,M,M,M,700.00,M,M,M,M,M,M,M,M,M,M,32.00,KHTH 071435Z AUTO 00000KT 10SM OVC007 M00/M01 A2966 RMK A01,M
TMT,2024-02-07 14:35,-117.1971,39.4643,1749.34,30.70,28.00,89.57,240.00,3.00,0.00,29.62,M,10.00,M,BKN,BKN,BKN,M,2800.00,3300.00,4600.00,M,M,M,M,M,M,M,M,27.20,KTMT 071435Z AUTO 24003KT 10SM BKN028 BKN033 BKN046 M01/M02 A2962 RMK AO2 T10071023,M
LSV,2024-02-07 14:45,-115.0343,36.2362,570.00,46.40,35.60,65.83,190.00,10.00,0.00,29.66,M,10.00,M,BKN,BKN,BKN,M,4700.00,6000.00,7000.00,M,M,M,M,M,M,M,M,41.03,KLSV 071445Z AUTO 19010KT 10SM BKN047 BKN060 BKN070 08/02 A2966 RMK AO2 SLPNO $,M
INS,2024-02-07 14:48,-115.6733,36.5872,955.00,41.00,35.60,80.93,250.00,5.00,0.00,29.67,M,10.00,M,SCT,OVC,M,M,3700.00,5500.00,M,M,-RA,M,M,M,M,M,M,37.08,KINS 071448Z AUTO 25005KT 10SM -RA SCT037 OVC055 05/02 A2967 RMK AO2 RAB48 SLPNO $,M
DRA,2024-02-07 14:53,-116.0278,36.6206,1009.00,38.00,37.00,96.14,0.00,0.00,T,29.68,1004.20,10.00,M,OVC,M,M,M,1200.00,M,M,M,M,M,M,M,M,M,M,38.00,KDRA 071453Z AUTO 00000KT 10SM OVC012 03/03 A2968 RMK AO2 RAB1358E16 SLP042 P0000 60000 T00330028 53014,M
ELY,2024-02-07 14:53,-114.8453,39.2950,1909.00,30.00,26.00,84.85,240.00,4.00,0.00,29.55,999.90,10.00,M,OVC,M,M,M,5500.00,M,M,M,M,M,M,M,M,M,M,25.08,KELY 071453Z AUTO 24004KT 10SM OVC055 M01/M03 A2955 RMK AO2 SLP999 60000 T10111033 53007,M
VGT,2024-02-07 14:53,-115.1933,36.2111,667.00,44.00,39.00,82.44,0.00,0.00,T,29.68,1006.80,10.00,M,SCT,OVC,M,M,4300.00,5000.00,M,M,-RA,M,M,M,M,M,M,44.00,KVGT 071453Z 00000KT 10SM -RA SCT043 OVC050 07/04 A2968 RMK AO2 SLP068 P0000 60000 T00670039 51019,M
LOL,2024-02-07 14:53,-118.5701,40.0684,1192.43,30.00,30.00,100.00,170.00,3.00,0.00,29.63,1005.00,0.25,M,VV ,M,M,M,200.00,M,M,M,FZFG,M,M,M,M,M,M,26.40,KLOL 071453Z AUTO 17003KT 1/4SM FZFG VV002 M01/M01 A2963 RMK AO2 SLP050 T10111011 53004,M
P68,2024-02-07 14:53,-116.0056,39.6014,1993.00,32.00,26.00,78.25,280.00,9.00,0.00,29.56,1000.10,M,M,M,M,M,M,M,M,M,M,M,M,M,M,M,M,M,23.51,KP68 071453Z AUTO 28009KT 00/M03 A2956 RMK AO1 SLP001 T00001033 51002 $,M
BVU,2024-02-07 14:55,-114.8611,35.9475,671.00,44.60,37.40,75.68,210.00,7.00,0.00,29.70,M,10.00,M,BKN,OVC,M,M,3600.00,4900.00,M,M,M,M,M,M,M,M,M,40.14,KBVU 071455Z AUTO 21007KT 10SM BKN036 OVC049 07/03 A2970 RMK AO2,M
CXP,2024-02-07 14:55,-119.7326,39.1923,1431.00,30.20,24.80,80.07,0.00,0.00,0.00,29.65,M,10.00,M,SCT,OVC,M,M,4800.00,5500.00,M,M,M,M,M,M,M,M,M,30.20,KCXP 071455Z AUTO 00000KT 10SM SCT048 OVC055 M01/M04 A2965 RMK AO2,M
INS,2024-02-07 14:55,-115.6733,36.5872,955.00,41.00,36.00,82.22,230.00,6.00,T,29.67,M,10.00,M,BKN,BKN,OVC,M,3400.00,4500.00,5500.00,M,-RA,M,M,M,M,M,M,36.37,KINS 071455Z AUTO 23006KT 10SM -RA BKN034 BKN045 OVC055 05/02 A2967 RMK AO2 RAB48 SLPNO P0000 60000 T00490023 $,M
RNO,2024-02-07 14:55,-119.7711,39.4839,1341.00,30.00,26.00,84.85,140.00,5.00,0.00,29.64,1003.60,10.00,M,BKN,BKN,M,M,5000.00,20000.00,M,M,M,M,M,M,M,M,M,24.02,KRNO 071455Z 14005KT 10SM BKN050 BKN200 M01/M03 A2964 RMK AO2 SLP036 MTN TOPS OBSCD DSNT SW THRU NW T10111033 56004,M
RTS,2024-02-07 14:55,-119.8764,39.6682,1539.00,30.20,24.80,80.07,260.00,6.00,0.00,29.64,M,10.00,M,BKN,M,M,M,4800.00,M,M,M,M,M,M,M,M,M,M,23.36,KRTS 071455Z AUTO 26006KT 10SM BKN048 M01/M04 A2964 RMK AO2,M
05U,2024-02-07 14:55,-116.0051,39.6042,1811.23,32.00,26.60,80.22,90.00,7.00,0.00,29.59,M,10.00,M,M,M,M,M,M,M,M,M,M,M,M,M,M,M,M,24.78,K05U 071455Z AUTO 09007KT 10SM M00/M03 A2959 RMK A01,M
MEV,2024-02-07 14:55,-119.7500,38.9963,1441.42,19.40,17.60,92.57,0.00,0.00,0.00,29.64,M,10.00,M,SCT,M,M,M,5500.00,M,M,M,M,M,M,M,M,M,M,19.40,KMEV 071455Z AUTO 00000KT 10SM SCT055 M07/M08 A2964 RMK AO2,M
BAM,2024-02-07 14:55,-116.8743,40.5990,1382.36,33.80,33.80,100.00,0.00,0.00,0.00,29.60,M,10.00,M,BKN,BKN,OVC,M,1900.00,2700.00,3600.00,M,M,M,M,M,M,M,M,33.80,KBAM 071455Z AUTO 00000KT 10SM BKN019 BKN027 OVC036 01/01 A2960 RMK AO1,M
HTH,2024-02-07 14:55,-118.6315,38.5448,1282.89,33.80,32.00,93.03,0.00,0.00,0.00,29.67,M,10.00,M,SCT,M,M,M,800.00,M,M,M,M,M,M,M,M,M,M,33.80,KHTH 071455Z AUTO 00000KT 10SM SCT008 01/00 A2967 RMK A01,M
TMT,2024-02-07 14:55,-117.1971,39.4643,1749.34,29.50,27.30,91.38,240.00,3.00,0.00,29.62,M,10.00,M,SCT,BKN,M,M,2500.00,3200.00,M,M,M,M,M,M,M,M,M,25.83,KTMT 071455Z AUTO 24003KT 10SM SCT025 BKN032 M01/M03 A2962 RMK AO2 T10141026,M
LSV,2024-02-07 14:55,-115.0343,36.2362,570.00,45.70,36.00,68.68,190.00,13.00,0.00,29.66,M,10.00,M,BKN,OVC,M,M,4500.00,7000.00,M,M,M,M,M,M,M,M,M,39.12,KLSV 071455Z AUTO 19013KT 10SM BKN045 OVC070 08/02 A2966 RMK AO2 SLPNO T00760023 $,M
EKO,2024-02-07 14:56,-115.7860,40.8242,1367.00,33.00,30.00,88.58,220.00,6.00,0.00,29.56,1001.40,10.00,M,SCT,SCT,OVC,M,2800.00,3300.00,4600.00,M,M,M,M,M,M,M,M,26.73,KEKO 071456Z AUTO 22006KT 10SM SCT028 SCT033 OVC046 01/M01 A2956 RMK AO2 SLP014 T00061011 53005,M
NFL,2024-02-07 14:56,-118.7010,39.4166,1199.00,34.00,30.00,85.11,0.00,0.00,0.00,29.64,1002.20,10.00,M,SCT,SCT,BKN,M,5000.00,10000.00,15000.00,M,M,M,M,M,M,M,M,34.00,KNFL 071456Z 00000KT 10SM SCT050 SCT100 BKN150 01/M01 A2964 RMK AO2 SLP022 PATCHY IR// T00111011 53002,M
HND,2024-02-07 14:56,-115.1344,35.9729,742.79,42.00,35.00,76.03,210.00,15.00,0.00,29.71,1008.10,10.00,M,OVC,M,M,M,9000.00,M,M,M,M,M,M,M,M,M,M,33.74,KHND 071456Z 21015KT 10SM OVC090 06/02 A2971 RMK AO2 SLP081 T00560017 51020,M
TPH,2024-02-07 14:56,-117.0904,38.0505,1654.00,32.00,27.00,81.55,340.00,8.00,0.00,29.63,1003.80,10.00,15.00,FEW,M,M,M,1500.00,M,M,M,M,M,M,M,M,M,M,24.11,KTPH 071456Z AUTO 34008G15KT 10SM FEW015 00/M03 A2963 RMK AO2 SLP038 T00001028 51016,M
LAS,2024-02-07 14:56,-115.1634,36.0719,663.00,43.00,36.00,76.12,200.00,6.00,0.00,29.69,1005.40,10.00,M,FEW,SCT,BKN,M,1500.00,3800.00,9500.00,M,M,M,M,M,M,M,M,38.78,KLAS 071456Z 20006KT 10SM FEW015 SCT038 BKN095 06/02 A2969 RMK AO2 SLP054 T00610022 53018,M
WMC,2024-02-07 14:56,-117.8072,40.9019,1315.00,34.00,30.00,85.11,240.00,7.00,0.00,29.60,1002.90,10.00,M,BKN,M,M,M,6000.00,M,M,M,M,M,M,M,M,M,M,27.22,KWMC 071456Z AUTO 24007KT 10SM BKN060 01/M01 A2960 RMK AO2 SLP029 60000 T00111011 53002,M
INS,2024-02-07 15:01,-115.6733,36.5872,955.00,41.00,35.60,80.93,240.00,6.00,0.00,29.68,M,10.00,M,SCT,SCT,BKN,OVC,3400.00,4400.00,5500.00,7500.00,M,M,M,M,M,M,M,36.37,KINS 071501Z AUTO 24006KT 10SM SCT034 SCT044 BKN055 OVC075 05/02 A2968 RMK AO2 RAE01 SLPNO $,M
05U,2024-02-07 15:10,-116.0051,39.6042,1811.23,32.00,26.60,80.22,70.00,10.00,0.00,29.59,M,10.00,M,M,M,M,M,M,M,M,M,M,M,M,M,M,M,M,22.97,K05U 071510Z AUTO 07010KT 10SM 00/M03 A2959 RMK A01,M
LOL,2024-02-07 15:14,-118.5701,40.0684,1192.43,30.00,30.00,100.00,0.00,0.00,0.00,29.64,M,0.25,M,VV ,M,M,M,200.00,M,M,M,FZFG,M,M,M,M,M,M,30.00,KLOL 071514Z AUTO 00000KT M1/4SM FZFG VV002 M01/M01 A2964 RMK AO2 T10111011,M
BVU,2024-02-07 15:15,-114.8611,35.9475,671.00,44.60,35.60,70.48,220.00,9.00,0.00,29.71,M,10.00,M,FEW,OVC,M,M,3600.00,5000.00,M,M,M,M,M,M,M,M,M,39.18,KBVU 071515Z AUTO 22009KT 10SM FEW036 OVC050 07/02 A2971 RMK AO2,M
CXP,2024-02-07 15:15,-119.7326,39.1923,1431.00,32.00,24.80,74.44,0.00,0.00,0.00,29.66,M,10.00,M,SCT,BKN,OVC,M,4600.00,5000.00,6000.00,M,M,M,M,M,M,M,M,32.00,KCXP 071515Z AUTO 00000KT 10SM SCT046 BKN050 OVC060 M00/M04 A2966 RMK AO2,M
LSV,2024-02-07 15:15,-115.0343,36.2362,570.00,46.40,35.60,65.83,190.00,12.00,0.00,29.66,M,10.00,M,SCT,M,M,M,4400.00,M,M,M,M,M,M,M,M,M,M,40.33,KLSV 071515Z AUTO 19012KT 10SM SCT044 08/02 A2966 RMK AO2 SLPNO $,M
RTS,2024-02-07 15:15,-119.8764,39.6682,1539.00,28.40,24.80,86.18,320.00,5.00,0.00,29.64,M,10.00,M,BKN,M,M,M,4700.00,M,M,M,M,M,M,M,M,M,M,22.12,KRTS 071515Z AUTO 32005KT 10SM BKN047 M02/M04 A2964 RMK AO2,M
MEV,2024-02-07 15:15,-119.7500,38.9963,1441.42,21.20,17.60,85.74,240.00,6.00,0.00,29.66,M,10.00,M,SCT,SCT,M,M,5500.00,6500.00,M,M,M,M,M,M,M,M,M,12.52,KMEV 071515Z AUTO 24006KT 10SM SCT055 SCT065 M06/M08 A2966 RMK AO2,M
BAM,2024-02-07 15:15,-116.8743,40.5990,1382.36,33.80,33.80,100.00,80.00,3.00,0.00,29.60,M,10.00,M,BKN,BKN,BKN,M,2100.00,3800.00,11000.00,M,M,M,M,M,M,M,M,30.75,KBAM 071515Z AUTO 08003KT 10SM BKN021 BKN038 BKN110 01/01 A2960 RMK AO1,M
HTH,2024-02-07 15:15,-118.6315,38.5448,1282.89,30.20,28.40,92.92,150.00,6.00,0.00,29.67,M,10.00,M,CLR,M,M,M,M,M,M,M,M,M,M,M,M,M,M,23.36,KHTH 071515Z AUTO 15006KT 10SM CLR M01/M02 A2967 RMK A01,M
TMT,2024-02-07 15:15,-117.1971,39.4643,1749.34,29.50,27.50,92.13,220.00,4.00,0.00,29.62,M,10.00,M,SCT,OVC,M,M,3400.00,5000.00,M,M,M,M,M,M,M,M,M,24.50,KTMT 071515Z AUTO 22004KT 10SM SCT034 OVC050 M01/M02 A2962 RMK AO2 T10141025,M
DRA,2024-02-07 15:30,-116.0278,36.6206,1009.00,38.00,37.00,96.14,240.00,6.00,0.00,29.69,M,10.00,M,OVC,M,M,M,800.00,M,M,M,M,M,M,M,M,M,M,32.76,KDRA 071530Z AUTO 24006KT 10SM OVC008 03/03 A2969 RMK AO2 CIG 005V011 T00330028,M
BVU,2024-02-07 15:35,-114.8611,35.9475,671.00,44.60,37.40,75.68,210.00,8.00,0.00,29.72,M,10.00,M,BKN,OVC,M,M,5000.00,6000.00,M,M,M,M,M,M,M,M,M,39.63,KBVU 071535Z AUTO 21008KT 10SM BKN050 OVC060 07/03 A2972 RMK AO2,M
CXP,2024-02-07 15:35,-119.7326,39.1923,1431.00,32.00,23.00,69.04,M,4.00,0.00,29.66,M,10.00,M,BKN,OVC,M,M,4900.00,5500.00,M,M,M,M,M,M,M,M,M,27.42,KCXP 071535Z AUTO VRB04KT 10SM BKN049 OVC055 00/M05 A2966 RMK AO2,M
RTS,2024-02-07 15:35,-119.8764,39.6682,1539.00,28.40,24.80,86.18,0.00,0.00,0.00,29.64,M,10.00,M,SCT,M,M,M,4800.00,M,M,M,M,M,M,M,M,M,M,28.40,KRTS 071535Z AUTO 00000KT 10SM SCT048 M02/M04 A2964 RMK AO2,M
05U,2024-02-07 15:35,-116.0051,39.6042,1811.23,32.00,26.60,80.22,70.00,10.00,0.00,29.60,M,10.00,15.00,M,M,M,M,M,M,M,M,M,M,M,M,M,M,M,22.97,K05U 071535Z AUTO 07010G15KT 10SM 00/M03 A2960 RMK A01,M
MEV,2024-02-07 15:35,-119.7500,38.9963,1441.42,21.20,19.40,92.63,100.00,3.00,0.00,29.65,M,10.00,M,FEW,M,M,M,5500.00,M,M,M,M,M,M,M,M,M,M,16.34,KMEV 071535Z AUTO 10003KT 10SM FEW055 M06/M07 A2965 RMK AO2,M
BAM,2024-02-07 15:35,-116.8743,40.5990,1382.36,33.80,33.80,100.00,0.00,0.00,0.00,29.61,M,10.00,M,SCT,BKN,M,M,2100.00,12000.00,M,M,M,M,M,M,M,M,M,33.80,KBAM 071535Z AUTO 00000KT 10SM SCT021 BKN120 01/01 A2961 RMK AO1,M
HTH,2024-02-07 15:35,-118.6315,38.5448,1282.89,30.20,30.20,100.00,0.00,0.00,0.00,29.68,M,10.00,M,CLR,M,M,M,M,M,M,M,M,M,M,M,M,M,M,30.20,KHTH 071535Z AUTO 00000KT 10SM CLR M01/M01 A2968 RMK A01,M
TMT,2024-02-07 15:35,-117.1971,39.4643,1749.34,31.00,27.70,87.40,230.00,7.00,0.00,29.63,M,10.00,M,SCT,OVC,M,M,3200.00,4800.00,M,M,M,M,M,M,M,M,M,23.56,KTMT 071535Z AUTO 23007KT 10SM SCT032 OVC048 M01/M02 A2963 RMK AO2 T10061024,M
LOL,2024-02-07 15:46,-118.5701,40.0684,1192.43,30.00,30.00,100.00,0.00,0.00,0.00,29.64,M,0.25,M,VV ,M,M,M,500.00,M,M,M,FZFG,M,M,M,M,M,M,30.00,KLOL 071546Z AUTO 00000KT M1/4SM FZFG VV005 M01/M01 A2964 RMK AO2 T10111011,M
DRA,2024-02-07 15:53,-116.0278,36.6206,1009.00,39.00,38.00,96.16,270.00,9.00,0.00,29.70,1005.00,10.00,M,OVC,M,M,M,700.00,M,M,M,M,M,M,M,M,M,M,32.22,KDRA 071553Z AUTO 27009KT 10SM OVC007 04/03 A2970 RMK AO2 SLP050 T00390033,M
ELY,2024-02-07 15:53,-114.8453,39.2950,1909.00,31.00,26.00,81.48,270.00,3.00,T,29.57,1000.60,10.00,M,BKN,OVC,M,M,3600.00,6000.00,M,M,M,M,M,M,M,M,M,27.55,KELY 071553Z AUTO 27003KT 10SM BKN036 OVC060 M01/M03 A2957 RMK AO2 SNB15E44 SLP006 P0000 T10061033,M
VGT,2024-02-07 15:53,-115.1933,36.2111,667.00,47.00,40.00,76.49,230.00,5.00,T,29.70,1007.60,10.00,M,FEW,BKN,BKN,M,4500.00,6500.00,11000.00,M,-RA,M,M,M,M,M,M,44.21,KVGT 071553Z 23005KT 10SM -RA FEW045 BKN065 BKN110 08/04 A2970 RMK AO2 SLP076 P0000 T00830044,M
LOL,2024-02-07 15:53,-118.5701,40.0684,1192.43,30.00,30.00,100.00,0.00,0.00,0.00,29.65,1005.40,0.25,M,VV ,M,M,M,700.00,M,M,M,FZFG,M,M,M,M,M,M,30.00,KLOL 071553Z AUTO 00000KT 1/4SM FZFG VV007 M01/M01 A2965 RMK AO2 SLP054 T10111011,M
P68,2024-02-07 15:53,-116.0056,39.6014,1993.00,32.00,26.00,78.25,280.00,7.00,0.00,29.58,1000.80,M,M,M,M,M,M,M,M,M,M,M,M,M,M,M,M,M,24.78,KP68 071553Z AUTO 28007KT 00/M03 A2958 RMK AO1 SLP008 T00001033 $,M
BVU,2024-02-07 15:55,-114.8611,35.9475,671.00,44.60,37.40,75.68,210.00,9.00,0.00,29.73,M,10.00,M,OVC,M,M,M,5500.00,M,M,M,M,M,M,M,M,M,M,39.18,KBVU 071555Z AUTO 21009KT 10SM OVC055 07/03 A2973 RMK AO2,M
CXP,2024-02-07 15:55,-119.7326,39.1923,1431.00,32.00,23.00,69.04,310.00,3.00,0.00,29.66,M,10.00,M,SCT,BKN,BKN,M,5000.00,5500.00,12000.00,M,M,M,M,M,M,M,M,28.69,KCXP 071555Z AUTO 31003KT 10SM SCT050 BKN055 BKN120 00/M05 A2966 RMK AO2,M
RNO,2024-02-07 15:55,-119.7711,39.4839,1341.00,31.00,27.00,84.92,0.00,0.00,0.00,29.65,1004.00,10.00,M,BKN,BKN,M,M,5500.00,20000.00,M,M,M,M,M,M,M,M,M,31.00,KRNO 071555Z 00000KT 10SM BKN055 BKN200 M01/M03 A2965 RMK AO2 SLP040 T10061028,M
RTS,2024-02-07 15:55,-119.8764,39.6682,1539.00,28.40,24.80,86.18,0.00,0.00,0.00,29.64,M,10.00,M,CLR,M,M,M,M,M,M,M,M,M,M,M,M,M,M,28.40,KRTS 071555Z AUTO 00000KT 10SM CLR M02/M04 A2964 RMK AO2,M
05U,2024-02-07 15:55,-116.0051,39.6042,1811.23,32.00,26.60,80.22,80.00,10.00,0.00,29.60,M,10.00,M,M,M,M,M,M,M,M,M,M,M,M,M,M,M,M,22.97,K05U 071555Z AUTO 08010KT 10SM 00/M03 A2960 RMK A01,M
MEV,2024-02-07 15:55,-119.7500,38.9963,1441.42,24.80,23.00,92.74,210.00,3.00,0.00,29.66,M,10.00,M,FEW,FEW,M,M,5500.00,6500.00,M,M,M,M,M,M,M,M,M,20.46,KMEV 071555Z AUTO 21003KT 10SM FEW055 FEW065 M04/M05 A2966 RMK AO2,M
BAM,2024-02-07 15:55,-116.8743,40.5990,1382.36,33.80,33.80,100.00,0.00,0.00,0.00,29.62,M,10.00,M,SCT,BKN,BKN,M,2000.00,2900.00,3500.00,M,M,M,M,M,M,M,M,33.80,KBAM 071555Z AUTO 00000KT 10SM SCT020 BKN029 BKN035 01/01 A2962 RMK AO1,M
HTH,2024-02-07 15:55,-118.6315,38.5448,1282.89,32.00,28.40,86.39,150.00,7.00,0.00,29.67,M,10.00,M,CLR,M,M,M,M,M,M,M,M,M,M,M,M,M,M,24.78,KHTH 071555Z AUTO 15007KT 10SM CLR M00/M02 A2967 RMK A01,M
TMT,2024-02-07 15:55,-117.1971,39.4643,1749.34,32.00,28.20,85.68,250.00,9.00,0.00,29.64,M,10.00,M,BKN,BKN,OVC,M,2800.00,3300.00,4600.00,M,M,M,M,M,M,M,M,23.51,KTMT 071555Z AUTO 25009KT 10SM BKN028 BKN033 OVC046 00/M02 A2964 RMK AO2 T10011021,M
10U,2024-02-07 15:55,-116.1876,41.9532,1637.00,26.60,26.60,100.00,210.00,5.00,0.00,29.58,M,10.00,M,BKN,BKN,OVC,M,1400.00,1900.00,5500.00,M,M,M,M,M,M,M,M,19.98,K10U 071555Z AUTO 21005KT 10SM BKN014 BKN019 OVC055 M03/M03 A2958 RMK AO2,M
INS,2024-02-07 15:55,-115.6733,36.5872,955.00,40.60,36.00,83.51,200.00,8.00,T,29.70,M,10.00,M,SCT,OVC,M,M,5000.00,7000.00,M,M,M,M,M,M,M,M,M,34.71,KINS 071555Z AUTO 20008KT 10SM SCT050 OVC070 05/02 A2970 RMK AO2 RAE01 SLPNO P0000 T00480023 $,M
LSV,2024-02-07 15:55,-115.0343,36.2362,570.00,46.00,37.20,71.19,200.00,10.00,0.00,29.68,M,10.00,M,FEW,BKN,M,M,5000.00,6000.00,M,M,M,M,M,M,M,M,M,40.52,KLSV 071555Z AUTO 20010KT 10SM FEW050 BKN060 08/03 A2968 RMK AO2 SLPNO T00780029 $,M
EKO,2024-02-07 15:56,-115.7860,40.8242,1367.00,34.00,30.00,85.11,240.00,5.00,0.00,29.57,1001.80,10.00,M,FEW,BKN,OVC,M,1200.00,5500.00,8000.00,M,M,M,M,M,M,M,M,28.77,KEKO 071556Z AUTO 24005KT 10SM FEW012 BKN055 OVC080 01/M01 A2957 RMK AO2 SLP018 T00111011,M
NFL,2024-02-07 15:56,-118.7010,39.4166,1199.00,34.00,30.00,85.11,180.00,7.00,0.00,29.65,1002.50,10.00,M,SCT,SCT,BKN,BKN,5000.00,10000.00,15000.00,20000.00,M,M,M,M,M,M,M,27.22,KNFL 071556Z 18007KT 10SM SCT050 SCT100 BKN150 BKN200 01/M01 A2965 RMK AO2 SLP025 T00111011,M
HND,2024-02-07 15:56,-115.1344,35.9729,742.79,42.00,36.00,79.11,200.00,13.00,0.00,29.73,1009.10,10.00,M,FEW,SCT,M,M,4400.00,9000.00,M,M,M,M,M,M,M,M,M,34.38,KHND 071556Z 20013KT 10SM FEW044 SCT090 06/02 A2973 RMK AO2 SLP091 T00560022,M
TPH,2024-02-07 15:56,-117.0904,38.0505,1654.00,34.00,28.00,78.43,20.00,6.00,0.00,29.64,1004.20,10.00,M,SCT,M,M,M,1600.00,M,M,M,M,M,M,M,M,M,M,27.94,KTPH 071556Z AUTO 02006KT 10SM SCT016 01/M02 A2964 RMK AO2 SLP042 T00111022,M
LAS,2024-02-07 15:56,-115.1634,36.0719,663.00,45.00,36.00,70.53,190.00,8.00,0.00,29.71,1005.90,10.00,15.00,FEW,SCT,BKN,M,3800.00,6000.00,10000.00,M,M,M,M,M,M,M,M,40.13,KLAS 071556Z 19008G15KT 10SM FEW038 SCT060 BKN100 07/02 A2971 RMK AO2 SLP059 T00720022,M
WMC,2024-02-07 15:56,-117.8072,40.9019,1315.00,35.00,30.00,81.78,220.00,5.00,0.00,29.62,1003.70,10.00,M,BKN,OVC,M,M,4200.00,5000.00,M,M,M,M,M,M,M,M,M,29.96,KWMC 071556Z AUTO 22005KT 10SM BKN042 OVC050 02/M01 A2962 RMK AO2 SLP037 T00171011,M
LOL,2024-02-07 15:57,-118.5701,40.0684,1192.43,30.00,30.00,100.00,0.00,0.00,0.00,29.65,M,0.25,M,VV ,M,M,M,400.00,M,M,M,FZFG,M,M,M,M,M,M,30.00,KLOL 071557Z AUTO 00000KT M1/4SM FZFG VV004 M01/M01 A2965 RMK AO2 T10111011,M
TPH,2024-02-07 16:03,-117.0904,38.0505,1654.00,34.00,27.00,75.26,360.00,4.00,0.00,29.65,M,10.00,M,BKN,M,M,M,1600.00,M,M,M,M,M,M,M,M,M,M,29.76,KTPH 071603Z AUTO 36004KT 10SM BKN016 01/M03 A2965 RMK AO2 T00111028,M
LOL,2024-02-07 16:10,-118.5701,40.0684,1192.43,31.00,31.00,100.00,30.00,3.00,0.00,29.64,M,0.25,M,VV ,M,M,M,400.00,M,M,M,FZFG,M,M,M,M,M,M,27.55,KLOL 071610Z AUTO 03003KT 1/4SM FZFG VV004 M01/M01 A2964 RMK AO2 T10061006,M
05U,2024-02-07 16:10,-116.0051,39.6042,1811.23,32.00,26.60,80.22,70.00,4.00,0.00,29.61,M,10.00,10.00,M,M,M,M,M,M,M,M,M,M,M,M,M,M,M,27.42,K05U 071610Z AUTO 07004G10KT 10SM 00/M03 A2961 RMK A01,M
BVU,2024-02-07 16:15,-114.8611,35.9475,671.00,44.60,37.40,75.68,230.00,10.00,0.00,29.73,M,10.00,M,OVC,M,M,M,6000.00,M,M,M,M,M,M,M,M,M,M,38.77,KBVU 071615Z AUTO 23010KT 10SM OVC060 07/03 A2973 RMK AO2,M
CXP,2024-02-07 16:15,-119.7326,39.1923,1431.00,32.00,23.00,69.04,0.00,0.00,0.00,29.67,M,10.00,M,SCT,BKN,BKN,M,4700.00,5500.00,12000.00,M,M,M,M,M,M,M,M,32.00,KCXP 071615Z AUTO 00000KT 10SM SCT047 BKN055 BKN120 00/M05 A2967 RMK AO2,M
RTS,2024-02-07 16:15,-119.8764,39.6682,1539.00,30.20,24.80,80.07,0.00,0.00,0.00,29.64,M,10.00,M,CLR,M,M,M,M,M,M,M,M,M,M,M,M,M,M,30.20,KRTS 071615Z AUTO 00000KT 10SM CLR M01/M04 A2964 RMK AO2,M
MEV,2024-02-07 16:15,-119.7500,38.9963,1441.42,24.80,23.00,92.74,0.00,0.00,0.00,29.65,M,10.00,M,FEW,M,M,M,6000.00,M,M,M,M,M,M,M,M,M,M,24.80,KMEV 071615Z AUTO 00000KT 10SM FEW060 M04/M05 A2965 RMK AO2,M
BAM,2024-02-07 16:15,-116.8743,40.5990,1382.36,33.80,33.80,100.00,0.00,0.00,0.00,29.63,M,10.00,M,SCT,BKN,OVC,M,2200.00,3700.00,4600.00,M,M,M,M,M,M,M,M,33.80,KBAM 071615Z AUTO 00000KT 10SM SCT022 BKN037 OVC046 01/01 A2963 RMK AO1,M
HTH,2024-02-07 16:15,-118.6315,38.5448,1282.89,33.80,26.60,74.63,160.00,5.00,0.00,29.69,M,10.00,M,CLR,M,M,M,M,M,M,M,M,M,M,M,M,M,M,28.53,KHTH 071615Z AUTO 16005KT 10SM CLR 01/M03 A2969 RMK A01,M
10U,2024-02-07 16:15,-116.1876,41.9532,1637.00,30.20,28.40,92.92,180.00,4.00,0.00,29.58,M,10.00,M,BKN,OVC,M,M,4600.00,5000.00,M,M,M,M,M,M,M,M,M,25.32,K10U 071615Z AUTO 18004KT 10SM BKN046 OVC050 M01/M02 A2958 RMK AO2,M
TMT,2024-02-07 16:15,-117.1971,39.4643,1749.34,32.00,28.00,84.98,230.00,5.00,0.00,29.64,M,10.00,M,BKN,BKN,OVC,M,3000.00,3600.00,5500.00,M,M,M,M,M,M,M,M,26.40,KTMT 071615Z AUTO 23005KT 10SM BKN030 BKN036 OVC055 00/M02 A2964 RMK AO2 T00001022,M
EKO,2024-02-07 16:20,-115.7860,40.8242,1367.00,34.00,31.00,88.63,210.00,4.00,0.00,29.57,M,10.00,M,BKN,OVC,M,M,1200.00,5500.00,M,M,M,M,M,M,M,M,M,29.76,KEKO 071620Z AUTO 21004KT 10SM BKN012 OVC055 01/M01 A2957 RMK AO2 T00111006,M
LOL,2024-02-07 16:22,-118.5701,40.0684,1192.43,31.00,31.00,100.00,0.00,0.00,0.00,29.64,M,0.25,M,VV ,M,M,M,200.00,M,M,M,FZFG,M,M,M,M,M,M,31.00,KLOL 071622Z AUTO 00000KT 1/4SM FZFG VV002 M01/M01 A2964 RMK AO2 T10061006,M
TPH,2024-02-07 16:27,-117.0904,38.0505,1654.00,34.00,27.00,75.26,320.00,3.00,0.00,29.65,M,10.00,M,SCT,M,M,M,1600.00,M,M,M,M,M,M,M,M,M,M,30.97,KTPH 071627Z AUTO 32003KT 10SM SCT016 01/M03 A2965 RMK AO2 T00111028,M
05U,2024-02-07 16:30,-116.0051,39.6042,1811.23,M,M,M,0.00,0.00,0.00,29.61,M,10.00,M,M,M,M,M,M,M,M,M,M,M,M,M,M,M,M,M,K05U 071630Z AUTO 00000KT 10SM A2961 RMK A01,M
BVU,2024-02-07 16:35,-114.8611,35.9475,671.00,46.40,37.40,70.68,210.00,8.00,0.00,29.74,M,10.00,M,FEW,OVC,M,M,3500.00,5500.00,M,M,M,M,M,M,M,M,M,41.85,KBVU 071635Z AUTO 21008KT 10SM FEW035 OVC055 08/03 A2974 RMK AO2,M
CXP,2024-02-07 16:35,-119.7326,39.1923,1431.00,33.80,23.00,64.23,300.00,3.00,0.00,29.66,M,10.00,M,BKN,BKN,M,M,4700.00,5500.00,M,M,M,M,M,M,M,M,M,30.75,KCXP 071635Z AUTO 30003KT 10SM BKN047 BKN055 01/M05 A2966 RMK AO2,M
RTS,2024-02-07 16:35,-119.8764,39.6682,1539.00,32.00,26.60,80.22,0.00,0.00,0.00,29.64,M,10.00,M,SCT,SCT,M,M,4100.00,8000.00,M,M,M,M,M,M,M,M,M,32.00,KRTS 071635Z AUTO 00000KT 10SM SCT041 SCT080 00/M03 A2964 RMK AO2,M
MEV,2024-02-07 16:35,-119.7500,38.9963,1441.42,26.60,23.00,86.07,280.00,3.00,0.00,29.65,M,10.00,M,CLR,M,M,M,M,M,M,M,M,M,M,M,M,M,M,22.52,KMEV 071635Z AUTO 28003KT 10SM CLR M03/M05 A2965 RMK AO2,M
BAM,2024-02-07 16:35,-116.8743,40.5990,1382.36,33.80,33.80,100.00,0.00,0.00,0.00,29.63,M,10.00,M,OVC,M,M,M,4000.00,M,M,M,M,M,M,M,M,M,M,33.80,KBAM 071635Z AUTO 00000KT 10SM OVC040 01/01 A2963 RMK AO1,M
HTH,2024-02-07 16:35,-118.6315,38.5448,1282.89,35.60,26.60,69.46,160.00,7.00,0.00,29.68,M,10.00,M,CLR,M,M,M,M,M,M,M,M,M,M,M,M,M,M,29.17,KHTH 071635Z AUTO 16007KT 10SM CLR 02/M03 A2968 RMK A01,M
10U,2024-02-07 16:35,-116.1876,41.9532,1637.00,30.20,28.40,92.92,170.00,3.00,0.00,29.58,M,10.00,M,BKN,BKN,OVC,M,1100.00,2100.00,5000.00,M,M,M,M,M,M,M,M,26.63,K10U 071635Z AUTO 17003KT 10SM BKN011 BKN021 OVC050 M01/M02 A2958 RMK AO2,M
TMT,2024-02-07 16:35,-117.1971,39.4643,1749.34,32.00,27.00,81.55,220.00,7.00,0.00,29.64,M,10.00,M,SCT,SCT,OVC,M,3300.00,4300.00,5500.00,M,M,M,M,M,M,M,M,24.78,KTMT 071635Z AUTO 22007KT 10SM SCT033 SCT043 OVC055 00/M03 A2964 RMK AO2 T00001027,M
VGT,2024-02-07 16:45,-115.1933,36.2111,667.00,48.00,37.00,65.51,160.00,5.00,T,29.71,M,10.00,M,FEW,M,M,M,6500.00,M,M,M,M,M,M,M,M,M,M,45.40,KVGT 071645Z 16005KT 10SM FEW065 09/03 A2971 RMK AO2 RAE45 P0000 T00890028,M
VGT,2024-02-07 16:49,-115.1933,36.2111,667.00,48.20,37.40,66.05,170.00,4.00,T,29.72,M,10.00,M,FEW,M,M,M,6500.00,M,M,M,M,M,M,M,M,M,M,46.34,KVGT 071649Z 17004KT 10SM FEW065 09/03 A2972 RMK AO2 RAE45 P0000,M
DRA,2024-02-07 16:53,-116.0278,36.6206,1009.00,40.00,38.00,92.49,240.00,9.00,0.00,29.72,1005.50,10.00,M,OVC,M,M,M,800.00,M,M,M,M,M,M,M,M,M,M,33.46,KDRA 071653Z AUTO 24009KT 10SM OVC008 04/03 A2972 RMK AO2 SLP055 T00440033,M
ELY,2024-02-07 16:53,-114.8453,39.2950,1909.00,32.00,26.00,78.25,250.00,4.00,0.00,29.58,1000.80,10.00,M,FEW,SCT,OVC,M,2400.00,3200.00,6000.00,M,M,M,M,M,M,M,M,27.42,KELY 071653Z AUTO 25004KT 10SM FEW024 SCT032 OVC060 00/M03 A2958 RMK AO2 SLP008 T00001033,M
VGT,2024-02-07 16:53,-115.1933,36.2111,667.00,48.00,37.00,65.51,170.00,5.00,T,29.72,1008.10,10.00,M,FEW,M,M,M,6500.00,M,M,M,M,M,M,M,M,M,M,45.40,KVGT 071653Z 17005KT 10SM FEW065 09/03 A2972 RMK AO2 RAE45 SLP081 P0000 T00890028,M
LOL,2024-02-07 16:53,-118.5701,40.0684,1192.43,31.00,31.00,100.00,20.00,4.00,0.00,29.65,1005.40,0.25,M,VV ,M,M,M,200.00,M,M,M,FZFG,M,M,M,M,M,M,26.25,KLOL 071653Z AUTO 02004KT 1/4SM FZFG VV002 M01/M01 A2965 RMK AO2 SLP054 T10061006,M
P68,2024-02-07 16:53,-116.0056,39.6014,1993.00,33.00,26.00,75.17,M,6.00,0.00,29.60,1001.10,M,M,M,M,M,M,M,M,M,M,M,M,M,M,M,M,M,26.73,KP68 071653Z AUTO VRB06KT 01/M03 A2960 RMK AO1 SLP011 T00061033 $,M
BVU,2024-02-07 16:55,-114.8611,35.9475,671.00,46.40,37.40,70.68,210.00,9.00,0.00,29.74,M,10.00,M,SCT,BKN,BKN,M,3500.00,5500.00,7000.00,M,M,M,M,M,M,M,M,41.42,KBVU 071655Z AUTO 21009KT 10SM SCT035 BKN055 BKN070 08/03 A2974 RMK AO2,M
CXP,2024-02-07 16:55,-119.7326,39.1923,1431.00,33.80,23.00,64.23,0.00,0.00,0.00,29.66,M,10.00,M,OVC,M,M,M,4600.00,M,M,M,M,M,M,M,M,M,M,33.80,KCXP 071655Z AUTO 00000KT 10SM OVC046 01/M05 A2966 RMK AO2,M
INS,2024-02-07 16:55,-115.6733,36.5872,955.00,41.70,37.00,83.25,210.00,8.00,0.00,29.72,M,10.00,M,FEW,BKN,OVC,M,1200.00,4200.00,5000.00,M,M,M,M,M,M,M,M,36.06,KINS 071655Z AUTO 21008KT 10SM FEW012 BKN042 OVC050 05/03 A2972 RMK AO2 SLPNO T00540027 $,M
RNO,2024-02-07 16:55,-119.7711,39.4839,1341.00,33.00,27.00,78.34,180.00,4.00,0.00,29.64,1003.90,10.00,M,BKN,BKN,M,M,6000.00,12000.00,M,M,M,M,M,M,M,M,M,28.59,KRNO 071655Z 18004KT 10SM BKN060 BKN120 01/M03 A2964 RMK AO2 SLP039 T00061028,M
RTS,2024-02-07 16:55,-119.8764,39.6682,1539.00,32.00,24.80,74.44,M,6.00,0.00,29.64,M,10.00,M,BKN,BKN,BKN,M,3800.00,4400.00,6500.00,M,M,M,M,M,M,M,M,25.53,KRTS 071655Z AUTO VRB06KT 10SM BKN038 BKN044 BKN065 00/M04 A2964 RMK AO2,M
05U,2024-02-07 16:55,-116.0051,39.6042,1811.23,M,M,M,30.00,4.00,0.00,29.62,M,10.00,M,M,M,M,M,M,M,M,M,M,M,M,M,M,M,M,M,K05U 071655Z AUTO 03004KT 10SM A2962 RMK A01,M
MEV,2024-02-07 16:55,-119.7500,38.9963,1441.42,26.60,23.00,86.07,0.00,0.00,0.00,29.65,M,10.00,M,FEW,M,M,M,6000.00,M,M,M,M,M,M,M,M,M,M,26.60,KMEV 071655Z AUTO 00000KT 10SM FEW060 M03/M05 A2965 RMK AO2,M
BAM,2024-02-07 16:55,-116.8743,40.5990,1382.36,33.80,33.80,100.00,0.00,0.00,0.00,29.63,M,10.00,M,SCT,OVC,M,M,4000.00,5000.00,M,M,M,M,M,M,M,M,M,33.80,KBAM 071655Z AUTO 00000KT 10SM SCT040 OVC050 01/01 A2963 RMK AO1,M
HTH,2024-02-07 16:55,-118.6315,38.5448,1282.89,37.40,26.60,64.70,140.00,4.00,0.00,29.69,M,10.00,M,CLR,M,M,M,M,M,M,M,M,M,M,M,M,M,M,33.73,KHTH 071655Z AUTO 14004KT 10SM CLR 03/M03 A2969 RMK A01,M
TMT,2024-02-07 16:55,-117.1971,39.4643,1749.34,32.00,27.50,83.25,230.00,12.00,0.00,29.65,M,10.00,M,SCT,OVC,M,M,3800.00,5500.00,M,M,M,M,M,M,M,M,M,22.00,KTMT 071655Z AUTO 23012KT 10SM SCT038 OVC055 00/M02 A2965 RMK AO2 T00001025,M
10U,2024-02-07 16:55,-116.1876,41.9532,1637.00,30.20,28.40,92.92,0.00,0.00,0.00,29.59,M,10.00,M,OVC,M,M,M,800.00,M,M,M,M,M,M,M,M,M,M,30.20,K10U 071655Z AUTO 00000KT 10SM OVC008 M01/M02 A2959 RMK AO2,M
LSV,2024-02-07 16:55,-115.0343,36.2362,570.00,48.40,38.00,67.12,210.00,11.00,0.00,29.70,M,10.00,M,CLR,M,M,M,M,M,M,M,M,M,M,M,M,M,M,43.19,KLSV 071655Z AUTO 21011KT 10SM CLR 09/03 A2970 RMK AO2 SLPNO T00910033 $,M
EKO,2024-02-07 16:56,-115.7860,40.8242,1367.00,34.00,31.00,88.63,220.00,6.00,0.00,29.58,1002.20,10.00,M,OVC,M,M,M,1200.00,M,M,M,M,M,M,M,M,M,M,27.94,KEKO 071656Z AUTO 22006KT 10SM OVC012 01/M01 A2958 RMK AO2 SLP022 T00111006,M
NFL,2024-02-07 16:56,-118.7010,39.4166,1199.00,39.00,33.00,78.86,150.00,9.00,0.00,29.65,1002.50,10.00,M,SCT,SCT,BKN,BKN,5000.00,10000.00,15000.00,20000.00,M,M,M,M,M,M,M,32.22,KNFL 071656Z 15009KT 10SM SCT050 SCT100 BKN150 BKN200 04/01 A2965 RMK AO2 SLP025 T00390006,M
HND,2024-02-07 16:56,-115.1344,35.9729,742.79,46.00,37.00,70.64,200.00,16.00,0.00,29.75,1009.40,10.00,M,CLR,M,M,M,M,M,M,M,M,M,M,M,M,M,M,38.67,KHND 071656Z 20016KT 10SM CLR 08/03 A2975 RMK AO2 SLP094 T00780028,M
TPH,2024-02-07 16:56,-117.0904,38.0505,1654.00,33.00,28.00,81.63,20.00,7.00,0.00,29.66,1004.70,10.00,M,CLR,M,M,M,M,M,M,M,M,M,M,M,M,M,M,26.00,KTPH 071656Z AUTO 02007KT 10SM CLR 01/M02 A2966 RMK AO2 SLP047 T00061022,M
LAS,2024-02-07 16:56,-115.1634,36.0719,663.00,46.00,37.00,70.64,190.00,8.00,0.00,29.72,1006.30,10.00,18.00,FEW,SCT,BKN,BKN,3800.00,6000.00,10000.00,20000.00,M,M,M,M,M,M,M,41.36,KLAS 071656Z 19008G18KT 10SM FEW038 SCT060 BKN100 BKN200 08/03 A2972 RMK AO2 SLP063 T00780028,M
WMC,2024-02-07 16:56,-117.8072,40.9019,1315.00,37.00,29.00,72.54,210.00,6.00,0.00,29.63,1003.50,10.00,M,SCT,SCT,M,M,5000.00,6000.00,M,M,M,M,M,M,M,M,M,31.55,KWMC 071656Z AUTO 21006KT 10SM SCT050 SCT060 03/M02 A2963 RMK AO2 SLP035 T00281017,M
LOL,2024-02-07 16:58,-118.5701,40.0684,1192.43,32.00,32.00,100.00,10.00,4.00,0.00,29.65,M,1.00,M,BKN,OVC,M,M,200.00,6500.00,M,M,BR,M,M,M,M,M,M,27.42,KLOL 071658Z AUTO 01004KT 1SM BR BKN002 OVC065 00/00 A2965 RMK AO2 T00000000,M
LOL,2024-02-07 17:02,-118.5701,40.0684,1192.43,32.00,32.00,100.00,30.00,4.00,0.00,29.65,M,4.00,M,BKN,OVC,M,M,200.00,6500.00,M,M,BR,M,M,M,M,M,M,27.42,KLOL 071702Z AUTO 03004KT 4SM BR BKN002 OVC065 00/00 A2965 RMK AO2 T00000000,M
INS,2024-02-07 17:05,-115.6733,36.5872,955.00,42.80,37.40,81.07,200.00,6.00,0.00,29.72,M,10.00,M,BKN,OVC,M,M,1300.00,4200.00,M,M,M,M,M,M,M,M,M,38.54,KINS 071705Z AUTO 20006KT 10SM BKN013 OVC042 06/03 A2972 RMK AO2 CIG 013V042 SLPNO $,M
INS,2024-02-07 17:10,-115.6733,36.5872,955.00,42.80,37.40,81.07,210.00,6.00,0.00,29.72,M,10.00,M,SCT,OVC,M,M,1200.00,4200.00,M,M,M,M,M,M,M,M,M,38.54,KINS 071710Z AUTO 21006KT 10SM SCT012 OVC042 06/03 A2972 RMK AO2 SLPNO $,M
BVU,2024-02-07 17:15,-114.8611,35.9475,671.00,48.20,37.40,66.05,220.00,10.00,0.00,29.75,M,10.00,M,FEW,M,M,M,3600.00,M,M,M,M,M,M,M,M,M,M,43.28,KBVU 071715Z AUTO 22010KT 10SM FEW036 09/03 A2975 RMK AO2,M
CXP,2024-02-07 17:15,-119.7326,39.1923,1431.00,33.80,23.00,64.23,0.00,0.00,0.00,29.66,M,10.00,M,OVC,M,M,M,4700.00,M,M,M,M,M,M,M,M,M,M,33.80,KCXP 071715Z AUTO 00000KT 10SM OVC047 01/M05 A2966 RMK AO2,M
INS,2024-02-07 17:15,-115.6733,36.5872,955.00,42.80,37.40,81.07,200.00,3.00,0.00,29.72,M,10.00,M,BKN,OVC,M,M,1300.00,4100.00,M,M,M,M,M,M,M,M,M,41.03,KINS 071715Z AUTO 20003KT 10SM BKN013 OVC041 06/03 A2972 RMK AO2 CIG 013V042 SLPNO $,M
RTS,2024-02-07 17:15,-119.8764,39.6682,1539.00,35.60,24.80,64.46,260.00,6.00,0.00,29.64,M,10.00,M,SCT,SCT,M,M,3700.00,4400.00,M,M,M,M,M,M,M,M,M,29.87,KRTS 071715Z AUTO 26006KT 10SM SCT037 SCT044 02/M04 A2964 RMK AO2,M
05U,2024-02-07 17:15,-116.0051,39.6042,1811.23,M,M,M,150.00,5.00,0.00,29.63,M,10.00,M,M,M,M,M,M,M,M,M,M,M,M,M,M,M,M,M,K05U 071715Z AUTO 15005KT 10SM A2963 RMK A01,M
MEV,2024-02-07 17:15,-119.7500,38.9963,1441.42,28.40,24.80,86.18,0.00,0.00,0.00,29.64,M,10.00,M,SCT,M,M,M,6000.00,M,M,M,M,M,M,M,M,M,M,28.40,KMEV 071715Z AUTO 00000KT 10SM SCT060 M02/M04 A2964 RMK AO2,M
BAM,2024-02-07 17:15,-116.8743,40.5990,1382.36,35.60,33.80,93.08,240.00,4.00,0.00,29.63,M,10.00,M,BKN,BKN,OVC,M,3800.00,4600.00,5000.00,M,M,M,M,M,M,M,M,31.62,KBAM 071715Z AUTO 24004KT 10SM BKN038 BKN046 OVC050 02/01 A2963 RMK AO1,M
HTH,2024-02-07 17:15,-118.6315,38.5448,1282.89,39.20,26.60,60.29,0.00,0.00,0.00,29.69,M,10.00,M,CLR,M,M,M,M,M,M,M,M,M,M,M,M,M,M,39.20,KHTH 071715Z AUTO 00000KT 10SM CLR 04/M03 A2969 RMK A01,M
10U,2024-02-07 17:15,-116.1876,41.9532,1637.00,32.00,28.40,86.39,220.00,5.00,0.00,29.59,M,10.00,M,OVC,M,M,M,600.00,M,M,M,M,M,M,M,M,M,M,26.40,K10U 071715Z AUTO 22005KT 10SM OVC006 M00/M02 A2959 RMK AO2,M
TMT,2024-02-07 17:15,-117.1971,39.4643,1749.34,32.40,27.30,81.25,220.00,8.00,0.00,29.65,M,10.00,M,SCT,OVC,M,M,3800.00,5000.00,M,M,M,M,M,M,M,M,M,24.61,KTMT 071715Z AUTO 22008KT 10SM SCT038 OVC050 00/M03 A2965 RMK AO2 T00021026,M
DRA,2024-02-07 17:26,-116.0278,36.6206,1009.00,39.00,38.00,96.16,240.00,8.00,0.00,29.74,M,10.00,M,OVC,M,M,M,500.00,M,M,M,M,M,M,M,M,M,M,32.74,KDRA 071726Z AUTO 24008KT 10SM OVC005 04/03 A2974 RMK AO2 CIG 003V008 T00390033,M
INS,2024-02-07 17:30,-115.6733,36.5872,955.00,44.60,35.60,70.48,0.00,0.00,0.00,29.72,M,10.00,M,SCT,BKN,BKN,M,1300.00,4000.00,5000.00,M,M,M,M,M,M,M,M,44.60,KINS 071730Z AUTO 00000KT 10SM SCT013 BKN040 BKN050 07/02 A2972 RMK AO2 SLPNO $,M
BVU,2024-02-07 17:35,-114.8611,35.9475,671.00,48.20,37.40,66.05,230.00,10.00,0.00,29.75,M,10.00,M,BKN,M,M,M,3900.00,M,M,M,M,M,M,M,M,M,M,43.28,KBVU 071735Z AUTO 23010KT 10SM BKN039 09/03 A2975 RMK AO2,M
CXP,2024-02-07 17:35,-119.7326,39.1923,1431.00,35.60,23.00,59.79,0.00,0.00,0.00,29.66,M,10.00,M,OVC,M,M,M,4800.00,M,M,M,M,M,M,M,M,M,M,35.60,KCXP 071735Z AUTO 00000KT 10SM OVC048 02/M05 A2966 RMK AO2,M
RTS,2024-02-07 17:35,-119.8764,39.6682,1539.00,33.80,24.80,69.25,150.00,4.00,0.00,29.64,M,10.00,M,SCT,SCT,M,M,3800.00,4500.00,M,M,M,M,M,M,M,M,M,29.52,KRTS 071735Z AUTO 15004KT 10SM SCT038 SCT045 01/M04 A2964 RMK AO2,M
05U,2024-02-07 17:35,-116.0051,39.6042,1811.23,33.80,26.60,74.63,0.00,0.00,0.00,29.63,M,10.00,M,M,M,M,M,M,M,M,M,M,M,M,M,M,M,M,33.80,K05U 071735Z AUTO 00000KT 10SM 01/M03 A2963 RMK A01,M
MEV,2024-02-07 17:35,-119.7500,38.9963,1441.42,32.00,26.60,80.22,0.00,0.00,0.00,29.64,M,10.00,M,FEW,M,M,M,6000.00,M,M,M,M,M,M,M,M,M,M,32.00,KMEV 071735Z AUTO 00000KT 10SM FEW060 M00/M03 A2964 RMK AO2,M
BAM,2024-02-07 17:35,-116.8743,40.5990,1382.36,35.60,33.80,93.08,270.00,3.00,0.00,29.63,M,10.00,M,OVC,M,M,M,3600.00,M,M,M,M,M,M,M,M,M,M,32.80,KBAM 071735Z AUTO 27003KT 10SM OVC036 02/01 A2963 RMK AO1,M
HTH,2024-02-07 17:35,-118.6315,38.5448,1282.89,39.20,23.00,51.89,120.00,4.00,0.00,29.69,M,10.00,M,CLR,M,M,M,M,M,M,M,M,M,M,M,M,M,M,35.83,KHTH 071735Z AUTO 12004KT 10SM CLR 04/M05 A2969 RMK A01,M
10U,2024-02-07 17:35,-116.1876,41.9532,1637.00,32.00,30.20,92.97,200.00,6.00,0.00,29.59,M,10.00,M,BKN,BKN,OVC,M,600.00,1000.00,5500.00,M,M,M,M,M,M,M,M,25.53,K10U 071735Z AUTO 20006KT 10SM BKN006 BKN010 OVC055 M00/M01 A2959 RMK AO2,M
TMT,2024-02-07 17:35,-117.1971,39.4643,1749.34,33.40,26.80,76.46,240.00,7.00,0.00,29.66,M,10.00,M,OVC,M,M,M,5000.00,M,M,M,M,M,M,M,M,M,M,26.49,KTMT 071735Z AUTO 24007KT 10SM OVC050 01/M03 A2966 RMK AO2 T00081029,M
LOL,2024-02-07 17:44,-118.5701,40.0684,1192.43,33.00,33.00,100.00,0.00,0.00,0.00,29.66,M,10.00,M,SCT,SCT,OVC,M,300.00,5000.00,6000.00,M,M,M,M,M,M,M,M,33.00,KLOL 071744Z AUTO 00000KT 10SM SCT003 SCT050 OVC060 01/01 A2966 RMK AO2 T00060006,M
CXP,2024-02-07 17:50,-119.7326,39.1923,1431.00,37.40,23.00,55.68,190.00,8.00,0.00,29.65,M,10.00,M,OVC,M,M,M,4900.00,M,M,M,M,M,M,M,M,M,M,30.76,KCXP 071750Z AUTO 19008KT 10SM OVC049 03/M05 A2965 RMK AO2,M
DRA,2024-02-07 17:53,-116.0278,36.6206,1009.00,40.00,39.00,96.18,230.00,10.00,0.00,29.74,1006.10,10.00,M,SCT,OVC,M,M,500.00,900.00,M,M,M,M,M,M,M,M,M,33.00,KDRA 071753Z AUTO 23010KT 10SM SCT005 OVC009 04/04 A2974 RMK AO2 CIG 007V012 SLP061 60000 T00440039 10044 20033 51019,M
ELY,2024-02-07 17:53,-114.8453,39.2950,1909.00,33.00,27.00,78.34,270.00,6.00,0.00,29.60,1001.30,10.00,M,BKN,OVC,M,M,3300.00,5500.00,M,M,M,M,M,M,M,M,M,26.73,KELY 071753Z AUTO 27006KT 10SM BKN033 OVC055 01/M03 A2960 RMK AO2 SLP013 60000 T00061028 10006 21017 53013,M
VGT,2024-02-07 17:53,-115.1933,36.2111,667.00,50.00,38.00,63.23,130.00,5.00,0.00,29.74,1008.60,10.00,M,CLR,M,M,M,M,M,M,M,M,M,M,M,M,M,M,50.00,KVGT 071753Z 13005KT 10SM CLR 10/03 A2974 RMK AO2 SLP086 60000 T01000033 10100 20061 51019,M
LOL,2024-02-07 17:53,-118.5701,40.0684,1192.43,34.00,34.00,100.00,110.00,3.00,0.00,29.66,1005.80,10.00,M,FEW,OVC,M,M,400.00,6500.00,M,M,M,M,M,M,M,M,M,30.97,KLOL 071753Z AUTO 11003KT 10SM FEW004 OVC065 01/01 A2966 RMK AO2 SLP058 T00110011 10011 21011 53007,M
P68,2024-02-07 17:53,-116.0056,39.6014,1993.00,34.00,27.00,75.26,M,4.00,0.00,29.61,1001.40,M,M,M,M,M,M,M,M,M,M,M,M,M,M,M,M,M,29.76,KP68 071753Z AUTO VRB04KT 01/M03 A2961 RMK AO1 SLP014 T00111028 10011 20000 51013 $,M
BVU,2024-02-07 17:55,-114.8611,35.9475,671.00,48.20,37.40,66.05,230.00,7.00,0.00,29.76,M,10.00,M,OVC,M,M,M,4000.00,M,M,M,M,M,M,M,M,M,M,44.53,KBVU 071755Z AUTO 23007KT 10SM OVC040 09/03 A2976 RMK AO2,M
RNO,2024-02-07 17:55,-119.7711,39.4839,1341.00,36.00,28.00,72.43,60.00,5.00,0.00,29.64,1003.70,10.00,M,BKN,BKN,M,M,5500.00,11000.00,M,M,M,M,M,M,M,M,M,31.15,KRNO 071755Z 06005KT 10SM BKN055 BKN110 02/M02 A2964 RMK AO2 SLP037 T00221022 10022 21022 50001,M
RTS,2024-02-07 17:55,-119.8764,39.6682,1539.00,35.60,23.00,59.79,140.00,3.00,0.00,29.64,M,10.00,M,FEW,SCT,SCT,M,3800.00,4500.00,5500.00,M,M,M,M,M,M,M,M,32.80,KRTS 071755Z AUTO 14003KT 10SM FEW038 SCT045 SCT055 02/M05 A2964 RMK AO2,M
05U,2024-02-07 17:55,-116.0051,39.6042,1811.23,35.60,26.60,69.46,280.00,4.00,0.00,29.63,M,10.00,M,M,M,M,M,M,M,M,M,M,M,M,M,M,M,M,31.62,K05U 071755Z AUTO 28004KT 10SM 02/M03 A2963 RMK A01,M
MEV,2024-02-07 17:55,-119.7500,38.9963,1441.42,33.80,28.40,80.36,0.00,0.00,0.00,29.65,M,10.00,M,BKN,M,M,M,6000.00,M,M,M,M,M,M,M,M,M,M,33.80,KMEV 071755Z AUTO 00000KT 10SM BKN060 01/M02 A2965 RMK AO2,M
BAM,2024-02-07 17:55,-116.8743,40.5990,1382.36,35.60,33.80,93.08,310.00,4.00,0.00,29.64,M,10.00,M,SCT,BKN,OVC,M,2600.00,3300.00,4200.00,M,M,M,M,M,M,M,M,31.62,KBAM 071755Z AUTO 31004KT 10SM SCT026 BKN033 OVC042 02/01 A2964 RMK AO1,M
HTH,2024-02-07 17:55,-118.6315,38.5448,1282.89,41.00,24.80,52.17,100.00,5.00,0.00,29.68,M,10.00,M,CLR,M,M,M,M,M,M,M,M,M,M,M,M,M,M,37.08,KHTH 071755Z AUTO 10005KT 10SM CLR 05/M04 A2968 RMK A01,M
10U,2024-02-07 17:55,-116.1876,41.9532,1637.00,32.00,30.20,92.97,200.00,7.00,0.00,29.59,M,10.00,M,SCT,OVC,M,M,700.00,5000.00,M,M,M,M,M,M,M,M,M,24.78,K10U 071755Z AUTO 20007KT 10SM SCT007 OVC050 M00/M01 A2959 RMK AO2,M
TMT,2024-02-07 17:55,-117.1971,39.4643,1749.34,34.50,26.80,73.17,240.00,9.00,0.00,29.66,M,10.00,M,OVC,M,M,M,6000.00,M,M,M,M,M,M,M,M,M,M,26.62,KTMT 071755Z AUTO 24009KT 10SM OVC060 01/M03 A2966 RMK AO2 T00141029 10015 21015,M
INS,2024-02-07 17:55,-115.6733,36.5872,955.00,46.80,36.70,67.73,260.00,16.00,0.00,29.73,M,10.00,M,FEW,FEW,SCT,SCT,4000.00,5000.00,18000.00,21000.00,M,M,M,M,M,M,M,39.71,KINS 071755Z AUTO 26016KT 10SM FEW040 FEW050 SCT180 SCT210 08/03 A2973 RMK AO2 SLPNO 60000 T00820026 10082 20047 52016 $,M
LSV,2024-02-07 17:55,-115.0343,36.2362,570.00,51.00,38.30,61.65,190.00,13.00,0.00,29.72,M,10.00,M,FEW,M,M,M,5500.00,M,M,M,M,M,M,M,M,M,M,51.00,KLSV 071755Z AUTO 19013KT 10SM FEW055 11/04 A2972 RMK AO2 SLPNO T01050035 10105 20073 52020 $,M
EKO,2024-02-07 17:56,-115.7860,40.8242,1367.00,35.00,31.00,85.17,250.00,10.00,T,29.59,1002.50,10.00,M,SCT,BKN,OVC,M,1300.00,1800.00,4100.00,M,M,M,M,M,M,M,M,26.73,KEKO 071756Z AUTO 25010KT 10SM SCT013 BKN018 OVC041 02/M01 A2959 RMK AO2 SNB33E43 SLP025 P0000 60000 T00171006 10017 20006 51009,M
NFL,2024-02-07 17:56,-118.7010,39.4166,1199.00,43.00,33.00,67.54,140.00,8.00,0.00,29.65,1002.50,10.00,M,SCT,BKN,BKN,M,5000.00,7000.00,12000.00,M,M,M,M,M,M,M,M,37.66,KNFL 071756Z 14008KT 10SM SCT050 BKN070 BKN120 06/01 A2965 RMK AO2 SLP025 6//// T00610006 10061 20000 50003 PNO $,M
TPH,2024-02-07 17:56,-117.0904,38.0505,1654.00,34.00,29.00,81.71,20.00,6.00,0.00,29.67,1005.00,10.00,M,CLR,M,M,M,M,M,M,M,M,M,M,M,M,M,M,27.94,KTPH 071756Z AUTO 02006KT 10SM CLR 01/M02 A2967 RMK AO2 SLP050 T00111017 10017 21011 53012,M
LAS,2024-02-07 17:56,-115.1634,36.0719,663.00,48.00,36.00,62.97,200.00,13.00,0.00,29.74,1006.90,10.00,21.00,FEW,SCT,SCT,BKN,3800.00,6000.00,10000.00,20000.00,M,M,M,M,M,M,M,42.07,KLAS 071756Z 20013G21KT 10SM FEW038 SCT060 SCT100 BKN200 09/02 A2974 RMK AO2 SLP069 T00890022 10089 20061 51017,M
WMC,2024-02-07 17:56,-117.8072,40.9019,1315.00,40.00,29.00,64.50,M,6.00,0.00,29.63,1003.10,10.00,M,SCT,M,M,M,6000.00,M,M,M,M,M,M,M,M,M,M,35.17,KWMC 071756Z AUTO VRB06KT 10SM SCT060 04/M02 A2963 RMK AO2 SLP031 60000 T00441017 10050 20006 51006,M
HND,2024-02-07 17:56,-115.1344,35.9729,742.79,47.00,37.00,68.02,200.00,16.00,0.00,29.77,1009.90,10.00,M,SCT,M,M,M,8000.00,M,M,M,M,M,M,M,M,M,M,39.97,KHND 071756Z COR 20016KT 10SM SCT080 08/03 A2977 RMK AO2 SLP099 T00830028 10083 20050 51019,M
EKO,2024-02-07 18:10,-115.7860,40.8242,1367.00,36.00,31.00,81.86,240.00,11.00,0.00,29.60,M,10.00,M,SCT,SCT,OVC,M,1500.00,2200.00,4300.00,M,M,M,M,M,M,M,M,27.52,KEKO 071810Z AUTO 24011KT 10SM SCT015 SCT022 OVC043 02/M01 A2960 RMK AO2 T00221006,M
BVU,2024-02-07 18:15,-114.8611,35.9475,671.00,50.00,37.40,61.76,220.00,10.00,0.00,29.77,M,10.00,M,OVC,M,M,M,3900.00,M,M,M,M,M,M,M,M,M,M,50.00,KBVU 071815Z AUTO 22010KT 10SM OVC039 10/03 A2977 RMK AO2,M
CXP,2024-02-07 18:15,-119.7326,39.1923,1431.00,39.20,21.20,48.10,190.00,6.00,0.00,29.66,M,10.00,M,SCT,OVC,M,M,5000.00,6000.00,M,M,M,M,M,M,M,M,M,34.20,KCXP 071815Z AUTO 19006KT 10SM SCT050 OVC060 04/M06 A2966 RMK AO2,M
RTS,2024-02-07 18:15,-119.8764,39.6682,1539.00,37.40,21.20,51.61,0.00,0.00,0.00,29.64,M,10.00,M,BKN,BKN,OVC,M,4100.00,5500.00,6500.00,M,M,M,M,M,M,M,M,37.40,KRTS 071815Z AUTO 00000KT 10SM BKN041 BKN055 OVC065 03/M06 A2964 RMK AO2,M
05U,2024-02-07 18:15,-116.0051,39.6042,1811.23,35.60,26.60,69.46,M,5.00,0.00,29.64,M,10.00,10.00,M,M,M,M,M,M,M,M,M,M,M,M,M,M,M,30.67,K05U 071815Z AUTO VRB05G10KT 10SM 02/M03 A2964 RMK A01,M
MEV,2024-02-07 18:15,-119.7500,38.9963,1441.42,33.80,26.60,74.63,0.00,0.00,0.00,29.65,M,10.00,M,BKN,OVC,M,M,5500.00,6500.00,M,M,M,M,M,M,M,M,M,33.80,KMEV 071815Z AUTO 00000KT 10SM BKN055 OVC065 01/M03 A2965 RMK AO2,M
BAM,2024-02-07 18:15,-116.8743,40.5990,1382.36,37.40,35.60,93.14,290.00,3.00,0.00,29.64,M,10.00,M,SCT,BKN,OVC,M,1900.00,2600.00,4100.00,M,M,M,M,M,M,M,M,34.86,KBAM 071815Z AUTO 29003KT 10SM SCT019 BKN026 OVC041 03/02 A2964 RMK AO1,M
HTH,2024-02-07 18:15,-118.6315,38.5448,1282.89,41.00,23.00,48.39,0.00,0.00,0.00,29.68,M,10.00,M,CLR,M,M,M,M,M,M,M,M,M,M,M,M,M,M,41.00,KHTH 071815Z AUTO 00000KT 10SM CLR 05/M05 A2968 RMK A01,M
10U,2024-02-07 18:15,-116.1876,41.9532,1637.00,32.00,30.20,92.97,210.00,6.00,0.00,29.60,M,10.00,M,FEW,OVC,M,M,600.00,5000.00,M,M,M,M,M,M,M,M,M,25.53,K10U 071815Z AUTO 21006KT 10SM FEW006 OVC050 00/M01 A2960 RMK AO2,M
TMT,2024-02-07 18:15,-117.1971,39.4643,1749.34,34.70,24.60,66.26,240.00,10.00,0.00,29.66,M,10.00,M,SCT,M,M,M,6000.00,M,M,M,M,M,M,M,M,M,M,26.35,KTMT 071815Z AUTO 24010KT 10SM SCT060 02/M04 A2966 RMK AO2 T00151041,M
DRA,2024-02-07 18:16,-116.0278,36.6206,1009.00,44.00,41.00,89.11,250.00,14.00,0.00,29.74,M,10.00,M,SCT,BKN,OVC,M,900.00,1600.00,2900.00,M,M,M,M,M,M,M,M,36.63,KDRA 071816Z AUTO 25014KT 10SM SCT009 BKN016 OVC029 07/05 A2974 RMK AO2 T00670050,M
BVU,2024-02-07 18:35,-114.8611,35.9475,671.00,50.00,37.40,61.76,220.00,11.00,0.00,29.77,M,10.00,M,OVC,M,M,M,3800.00,M,M,M,M,M,M,M,M,M,M,50.00,KBVU 071835Z AUTO 22011KT 10SM OVC038 10/03 A2977 RMK AO2,M
CXP,2024-02-07 18:35,-119.7326,39.1923,1431.00,39.20,21.20,48.10,210.00,6.00,0.00,29.66,M,10.00,16.00,BKN,OVC,M,M,5000.00,6000.00,M,M,M,M,M,M,M,M,M,34.20,KCXP 071835Z AUTO 21006G16KT 10SM BKN050 OVC060 04/M06 A2966 RMK AO2,M
RTS,2024-02-07 18:35,-119.8764,39.6682,1539.00,37.40,21.20,51.61,180.00,11.00,0.00,29.63,M,10.00,M,BKN,OVC,M,M,4100.00,4700.00,M,M,M,M,M,M,M,M,M,29.29,KRTS 071835Z AUTO 18011KT 10SM BKN041 OVC047 03/M06 A2963 RMK AO2,M
05U,2024-02-07 18:35,-116.0051,39.6042,1811.23,35.60,26.60,69.46,60.00,12.00,0.00,29.64,M,9.00,M,M,M,M,M,M,M,M,M,M,M,M,M,M,M,M,26.58,K05U 071835Z AUTO 06012KT 9SM 02/M03 A2964 RMK A01,M
MEV,2024-02-07 18:35,-119.7500,38.9963,1441.42,37.40,24.80,60.04,60.00,3.00,0.00,29.65,M,10.00,M,FEW,BKN,M,M,4700.00,5500.00,M,M,M,M,M,M,M,M,M,34.86,KMEV 071835Z AUTO 06003KT 10SM FEW047 BKN055 03/M04 A2965 RMK AO2,M
BAM,2024-02-07 18:35,-116.8743,40.5990,1382.36,37.40,35.60,93.14,260.00,3.00,0.00,29.65,M,10.00,M,SCT,BKN,OVC,M,1400.00,2100.00,4200.00,M,M,M,M,M,M,M,M,34.86,KBAM 071835Z AUTO 26003KT 10SM SCT014 BKN021 OVC042 03/02 A2965 RMK AO1,M
HTH,2024-02-07 18:35,-118.6315,38.5448,1282.89,42.80,24.80,48.67,M,4.00,0.00,29.68,M,10.00,M,CLR,M,M,M,M,M,M,M,M,M,M,M,M,M,M,40.03,KHTH 071835Z AUTO VRB04KT 10SM CLR 06/M04 A2968 RMK A01,M
10U,2024-02-07 18:35,-116.1876,41.9532,1637.00,32.00,30.20,92.97,210.00,8.00,0.00,29.60,M,10.00,M,FEW,OVC,M,M,600.00,5500.00,M,M,M,M,M,M,M,M,M,24.11,K10U 071835Z AUTO 21008KT 10SM FEW006 OVC055 00/M01 A2960 RMK AO2,M
TMT,2024-02-07 18:35,-117.1971,39.4643,1749.34,35.00,25.50,67.97,230.00,10.00,0.00,29.66,M,10.00,15.00,SCT,M,M,M,6000.00,M,M,M,M,M,M,M,M,M,M,26.73,KTMT 071835Z AUTO 23010G15KT 10SM SCT060 02/M04 A2966 RMK AO2 T00171036,M
DRA,2024-02-07 18:37,-116.0278,36.6206,1009.00,41.00,39.00,92.52,250.00,11.00,0.00,29.75,M,10.00,M,FEW,BKN,OVC,M,1000.00,1400.00,2900.00,M,M,M,M,M,M,M,M,33.84,KDRA 071837Z AUTO 25011KT 10SM FEW010 BKN014 OVC029 05/04 A2975 RMK AO2 T00500039,M
DRA,2024-02-07 18:41,-116.0278,36.6206,1009.00,41.00,39.00,92.52,240.00,12.00,0.00,29.75,M,10.00,M,FEW,BKN,OVC,M,800.00,1400.00,2200.00,M,M,M,M,M,M,M,M,33.46,KDRA 071841Z AUTO 24012KT 10SM FEW008 BKN014 OVC022 05/04 A2975 RMK AO2 T00500039,M
DRA,2024-02-07 18:47,-116.0278,36.6206,1009.00,42.00,39.00,89.01,250.00,11.00,0.00,29.75,M,10.00,M,FEW,BKN,OVC,M,1000.00,1600.00,2200.00,M,M,M,M,M,M,M,M,35.10,KDRA 071847Z AUTO 25011KT 10SM FEW010 BKN016 OVC022 06/04 A2975 RMK AO2 T00560039,M
CXP,2024-02-07 18:50,-119.7326,39.1923,1431.00,39.20,21.20,48.10,210.00,8.00,0.00,29.66,M,10.00,M,BKN,OVC,M,M,5500.00,6500.00,M,M,M,M,M,M,M,M,M,32.98,KCXP 071850Z AUTO 21008KT 170V260 10SM BKN055 OVC065 04/M06 A2966 RMK AO2,M
DRA,2024-02-07 18:53,-116.0278,36.6206,1009.00,42.00,39.00,89.01,260.00,10.00,0.00,29.75,1006.30,10.00,M,FEW,BKN,OVC,M,1000.00,1400.00,2300.00,M,M,M,M,M,M,M,M,35.51,KDRA 071853Z AUTO 26010KT 10SM FEW010 BKN014 OVC023 06/04 A2975 RMK AO2 SLP063 T00560039,M
ELY,2024-02-07 18:53,-114.8453,39.2950,1909.00,34.00,25.00,69.28,260.00,6.00,0.00,29.60,1001.80,10.00,M,FEW,OVC,M,M,4400.00,5500.00,M,M,M,M,M,M,M,M,M,27.94,KELY 071853Z AUTO 26006KT 10SM FEW044 OVC055 01/M04 A2960 RMK AO2 SLP018 T00111039,M
VGT,2024-02-07 18:53,-115.1933,36.2111,667.00,51.00,39.00,63.36,20.00,7.00,0.00,29.74,1008.90,10.00,M,BKN,OVC,M,M,3600.00,5000.00,M,M,M,M,M,M,M,M,M,51.00,KVGT 071853Z 02007KT 10SM BKN036 OVC050 11/04 A2974 RMK AO2 SLP089 T01060039,M
LOL,2024-02-07 18:53,-118.5701,40.0684,1192.43,36.00,34.00,92.35,0.00,0.00,0.00,29.66,1005.60,10.00,M,BKN,OVC,M,M,5000.00,6000.00,M,M,M,M,M,M,M,M,M,36.00,KLOL 071853Z AUTO 00000KT 10SM BKN050 OVC060 02/01 A2966 RMK AO2 SLP056 T00220011,M
P68,2024-02-07 18:53,-116.0056,39.6014,1993.00,35.00,26.00,69.39,250.00,13.00,0.00,29.62,1001.90,M,M,M,M,M,M,M,M,M,M,M,M,M,M,M,M,M,25.41,KP68 071853Z AUTO 25013KT 02/M03 A2962 RMK AO1 SLP019 T00171033 $,M
BVU,2024-02-07 18:55,-114.8611,35.9475,671.00,50.00,37.40,61.76,220.00,13.00,0.00,29.77,M,10.00,18.00,BKN,OVC,M,M,3900.00,4600.00,M,M,M,M,M,M,M,M,M,50.00,KBVU 071855Z AUTO 22013G18KT 10SM BKN039 OVC046 10/03 A2977 RMK AO2,M
INS,2024-02-07 18:55,-115.6733,36.5872,955.00,47.70,36.50,64.95,260.00,16.00,0.00,29.73,M,10.00,M,CLR,M,M,M,M,M,M,M,M,M,M,M,M,M,M,40.88,KINS 071855Z AUTO 26016KT 10SM CLR 09/03 A2973 RMK AO2 SLPNO T00870025 $,M
RNO,2024-02-07 18:55,-119.7711,39.4839,1341.00,41.00,27.00,57.15,0.00,0.00,0.00,29.62,1002.90,10.00,M,BKN,BKN,M,M,5500.00,11000.00,M,M,M,M,M,M,M,M,M,41.00,KRNO 071855Z 00000KT 10SM BKN055 BKN110 05/M03 A2962 RMK AO2 SLP029 MTN TOPS OBSCD DSNT SW T00501028,M
RTS,2024-02-07 18:55,-119.8764,39.6682,1539.00,37.40,21.20,51.61,180.00,10.00,0.00,29.63,M,10.00,19.00,BKN,BKN,BKN,M,4200.00,4800.00,6500.00,M,M,M,M,M,M,M,M,29.74,KRTS 071855Z AUTO 18010G19KT 10SM BKN042 BKN048 BKN065 03/M06 A2963 RMK AO2,M
05U,2024-02-07 18:55,-116.0051,39.6042,1811.23,35.60,26.60,69.46,50.00,11.00,0.00,29.64,M,10.00,16.00,M,M,M,M,M,M,M,M,M,M,M,M,M,M,M,27.02,K05U 071855Z AUTO 05011G16KT 10SM 02/M03 A2964 RMK A01,M
MEV,2024-02-07 18:55,-119.7500,38.9963,1441.42,35.60,24.80,64.46,340.00,4.00,0.00,29.65,M,10.00,M,FEW,M,M,M,5500.00,M,M,M,M,M,M,M,M,M,M,31.62,KMEV 071855Z AUTO 34004KT 10SM FEW055 02/M04 A2965 RMK AO2,M
BAM,2024-02-07 18:55,-116.8743,40.5990,1382.36,37.40,32.00,80.65,0.00,0.00,0.00,29.65,M,10.00,M,BKN,BKN,OVC,M,1400.00,2100.00,3100.00,M,M,M,M,M,M,M,M,37.40,KBAM 071855Z AUTO 00000KT 10SM BKN014 BKN021 OVC031 03/00 A2965 RMK AO1,M
HTH,2024-02-07 18:55,-118.6315,38.5448,1282.89,41.00,26.60,56.22,0.00,0.00,0.00,29.68,M,10.00,M,CLR,M,M,M,M,M,M,M,M,M,M,M,M,M,M,41.00,KHTH 071855Z AUTO 00000KT 10SM CLR 05/M03 A2968 RMK A01,M
TMT,2024-02-07 18:55,-117.1971,39.4643,1749.34,37.40,25.50,61.81,240.00,13.00,0.00,29.66,M,10.00,16.00,SCT,M,M,M,6000.00,M,M,M,M,M,M,M,M,M,M,28.49,KTMT 071855Z AUTO 24013G16KT 10SM SCT060 03/M04 A2966 RMK AO2 T00301036,M
10U,2024-02-07 18:55,-116.1876,41.9532,1637.00,32.00,30.20,92.97,220.00,10.00,0.00,29.60,M,10.00,M,FEW,OVC,M,M,700.00,5500.00,M,M,M,M,M,M,M,M,M,22.97,K10U 071855Z AUTO 22010KT 10SM FEW007 OVC055 00/M01 A2960 RMK AO2,M
LSV,2024-02-07 18:55,-115.0343,36.2362,570.00,51.40,36.30,56.14,180.00,14.00,0.00,29.73,M,10.00,M,FEW,BKN,BKN,M,3900.00,5000.00,20000.00,M,M,M,M,M,M,M,M,51.40,KLSV 071855Z AUTO 18014KT 10SM FEW039 BKN050 BKN200 11/02 A2973 RMK AO2 SLPNO T01080024 $,M
EKO,2024-02-07 18:56,-115.7860,40.8242,1367.00,37.00,30.00,75.56,250.00,11.00,0.00,29.60,1002.70,10.00,M,FEW,FEW,OVC,M,1800.00,2400.00,7000.00,M,M,M,M,M,M,M,M,28.79,KEKO 071856Z AUTO 25011KT 10SM FEW018 FEW024 OVC070 03/M01 A2960 RMK AO2 SLP027 T00281011,M
NFL,2024-02-07 18:56,-118.7010,39.4166,1199.00,43.00,30.00,59.83,170.00,8.00,0.00,29.66,1002.60,10.00,M,SCT,BKN,BKN,M,4000.00,7000.00,10000.00,M,M,M,M,M,M,M,M,37.66,KNFL 071856Z 17008KT 10SM SCT040 BKN070 BKN100 06/M01 A2966 RMK AO2 SLP026 T00611011,M
HND,2024-02-07 18:56,-115.1344,35.9729,742.79,47.00,36.00,65.38,210.00,17.00,0.00,29.77,1009.90,10.00,M,CLR,M,M,M,M,M,M,M,M,M,M,M,M,M,M,39.73,KHND 071856Z 21017KT 10SM CLR 08/02 A2977 RMK AO2 SLP099 T00830022,M
TPH,2024-02-07 18:56,-117.0904,38.0505,1654.00,35.00,29.00,78.51,0.00,0.00,0.00,29.69,1005.50,10.00,M,CLR,M,M,M,M,M,M,M,M,M,M,M,M,M,M,35.00,KTPH 071856Z AUTO 00000KT 10SM CLR 02/M02 A2969 RMK AO2 SLP055 T00171017,M
LAS,2024-02-07 18:56,-115.1634,36.0719,663.00,49.00,37.00,63.10,190.00,11.00,0.00,29.75,1007.10,10.00,19.00,FEW,SCT,SCT,M,3800.00,6000.00,20000.00,M,M,M,M,M,M,M,M,43.95,KLAS 071856Z 19011G19KT 10SM FEW038 SCT060 SCT200 09/03 A2975 RMK AO2 SLP071 T00940028,M
WMC,2024-02-07 18:56,-117.8072,40.9019,1315.00,40.00,27.00,59.41,240.00,11.00,0.00,29.64,1003.50,10.00,M,OVC,M,M,M,6000.00,M,M,M,M,M,M,M,M,M,M,32.58,KWMC 071856Z AUTO 24011KT 10SM OVC060 04/M03 A2964 RMK AO2 SLP035 T00441028,M
DRA,2024-02-07 18:59,-116.0278,36.6206,1009.00,42.00,39.00,89.01,250.00,13.00,0.00,29.75,M,10.00,M,FEW,BKN,OVC,M,800.00,1800.00,2300.00,M,M,M,M,M,M,M,M,34.38,KDRA 071859Z AUTO 25013KT 10SM FEW008 BKN018 OVC023 06/04 A2975 RMK AO2 T00560039,M
BVU,2024-02-07 19:15,-114.8611,35.9475,671.00,50.00,37.40,61.76,230.00,11.00,0.00,29.76,M,10.00,M,SCT,M,M,M,4500.00,M,M,M,M,M,M,M,M,M,M,50.00,KBVU 071915Z AUTO 23011KT 10SM SCT045 10/03 A2976 RMK AO2,M
CXP,2024-02-07 19:15,-119.7326,39.1923,1431.00,39.20,19.40,44.55,220.00,6.00,0.00,29.65,M,10.00,13.00,SCT,SCT,SCT,M,5500.00,6500.00,7500.00,M,M,M,M,M,M,M,M,34.20,KCXP 071915Z AUTO 22006G13KT 10SM SCT055 SCT065 SCT075 04/M07 A2965 RMK AO2,M
RTS,2024-02-07 19:15,-119.8764,39.6682,1539.00,37.40,23.00,55.68,180.00,10.00,0.00,29.63,M,10.00,M,BKN,BKN,M,M,4300.00,4900.00,M,M,M,M,M,M,M,M,M,29.74,KRTS 071915Z AUTO 18010KT 10SM BKN043 BKN049 03/M05 A2963 RMK AO2,M
05U,2024-02-07 19:15,-116.0051,39.6042,1811.23,35.60,26.60,69.46,60.00,13.00,0.00,29.64,M,10.00,M,M,M,M,M,M,M,M,M,M,M,M,M,M,M,M,26.18,K05U 071915Z AUTO 06013KT 10SM 02/M03 A2964 RMK A01,M
MEV,2024-02-07 19:15,-119.7500,38.9963,1441.42,37.40,24.80,60.04,70.00,4.00,0.00,29.64,M,10.00,M,FEW,M,M,M,4600.00,M,M,M,M,M,M,M,M,M,M,33.73,KMEV 071915Z AUTO 07004KT 10SM FEW046 03/M04 A2964 RMK AO2,M
BAM,2024-02-07 19:15,-116.8743,40.5990,1382.36,39.20,33.80,80.79,0.00,0.00,0.00,29.65,M,10.00,M,SCT,BKN,OVC,M,1500.00,2900.00,3400.00,M,M,M,M,M,M,M,M,39.20,KBAM 071915Z AUTO 00000KT 10SM SCT015 BKN029 OVC034 04/01 A2965 RMK AO1,M
HTH,2024-02-07 19:15,-118.6315,38.5448,1282.89,42.80,26.60,52.45,310.00,3.00,0.00,29.67,M,10.00,M,CLR,M,M,M,M,M,M,M,M,M,M,M,M,M,M,41.03,KHTH 071915Z AUTO 31003KT 10SM CLR 06/M03 A2967 RMK A01,M
10U,2024-02-07 19:15,-116.1876,41.9532,1637.00,33.80,30.20,86.49,220.00,9.00,0.00,29.60,M,10.00,M,OVC,M,M,M,6000.00,M,M,M,M,M,M,M,M,M,M,25.75,K10U 071915Z AUTO 22009KT 10SM OVC060 01/M01 A2960 RMK AO2,M
TMT,2024-02-07 19:15,-117.1971,39.4643,1749.34,36.00,25.30,64.78,270.00,10.00,0.00,29.65,M,10.00,M,SCT,SCT,M,M,2900.00,6000.00,M,M,M,M,M,M,M,M,M,27.98,KTMT 071915Z AUTO 27010KT 10SM SCT029 SCT060 02/M04 A2965 RMK AO2 T00221037,M
EKO,2024-02-07 19:27,-115.7860,40.8242,1367.00,34.00,30.00,85.11,240.00,12.00,T,29.60,M,2.50,18.00,BKN,BKN,OVC,M,1800.00,3400.00,7000.00,M,-SN BR,M,M,M,M,M,M,24.55,KEKO 071927Z AUTO 24012G18KT 2 1/2SM -SN BR BKN018 BKN034 OVC070 01/M01 A2960 RMK AO2 SNB22 P0000 T00111011,M
BVU,2024-02-07 19:35,-114.8611,35.9475,671.00,50.00,37.40,61.76,220.00,13.00,0.00,29.76,M,10.00,M,SCT,M,M,M,4200.00,M,M,M,M,M,M,M,M,M,M,50.00,KBVU 071935Z AUTO 22013KT 10SM SCT042 10/03 A2976 RMK AO2,M
CXP,2024-02-07 19:35,-119.7326,39.1923,1431.00,39.20,19.40,44.55,M,6.00,0.00,29.64,M,10.00,M,FEW,M,M,M,5500.00,M,M,M,M,M,M,M,M,M,M,34.20,KCXP 071935Z AUTO VRB06KT 10SM FEW055 04/M07 A2964 RMK AO2,M
EKO,2024-02-07 19:35,-115.7860,40.8242,1367.00,34.00,31.00,88.63,230.00,7.00,T,29.60,M,1.25,M,BKN,BKN,OVC,M,1700.00,3300.00,6000.00,M,-SN BR,M,M,M,M,M,M,27.22,KEKO 071935Z AUTO 23007KT 1 1/4SM -SN BR BKN017 BKN033 OVC060 01/M01 A2960 RMK AO2 SNB22 P0000 T00111006,M
RTS,2024-02-07 19:35,-119.8764,39.6682,1539.00,37.40,21.20,51.61,160.00,6.00,0.00,29.62,M,10.00,17.00,FEW,FEW,SCT,M,4200.00,4800.00,5500.00,M,M,M,M,M,M,M,M,32.03,KRTS 071935Z AUTO 16006G17KT 10SM FEW042 FEW048 SCT055 03/M06 A2962 RMK AO2,M
05U,2024-02-07 19:35,-116.0051,39.6042,1811.23,37.40,26.60,64.70,60.00,10.00,0.00,29.64,M,10.00,M,M,M,M,M,M,M,M,M,M,M,M,M,M,M,M,29.74,K05U 071935Z AUTO 06010KT 10SM 03/M03 A2964 RMK A01,M
MEV,2024-02-07 19:35,-119.7500,38.9963,1441.42,37.40,24.80,60.04,40.00,5.00,0.00,29.63,M,10.00,M,CLR,M,M,M,M,M,M,M,M,M,M,M,M,M,M,32.81,KMEV 071935Z AUTO 04005KT 10SM CLR 03/M04 A2963 RMK AO2,M
BAM,2024-02-07 19:35,-116.8743,40.5990,1382.36,37.40,33.80,86.69,330.00,4.00,0.00,29.64,M,7.00,M,BKN,BKN,OVC,M,2000.00,2700.00,3300.00,M,M,M,M,M,M,M,M,33.73,KBAM 071935Z AUTO 33004KT 7SM BKN020 BKN027 OVC033 03/01 A2964 RMK AO1,M
HTH,2024-02-07 19:35,-118.6315,38.5448,1282.89,42.80,26.60,52.45,330.00,4.00,0.00,29.66,M,10.00,M,FEW,M,M,M,8500.00,M,M,M,M,M,M,M,M,M,M,40.03,KHTH 071935Z AUTO 33004KT 10SM FEW085 06/M03 A2966 RMK A01,M
10U,2024-02-07 19:35,-116.1876,41.9532,1637.00,33.80,30.20,86.49,220.00,9.00,0.00,29.60,M,10.00,M,FEW,SCT,OVC,M,1100.00,5500.00,6000.00,M,M,M,M,M,M,M,M,25.75,K10U 071935Z AUTO 22009KT 10SM FEW011 SCT055 OVC060 01/M01 A2960 RMK AO2,M
TMT,2024-02-07 19:35,-117.1971,39.4643,1749.34,36.30,24.40,61.66,270.00,8.00,0.00,29.65,M,10.00,M,SCT,M,M,M,4800.00,M,M,M,M,M,M,M,M,M,M,29.41,KTMT 071935Z AUTO 27008KT 10SM SCT048 02/M04 A2965 RMK AO2 T00241042,M
EKO,2024-02-07 19:42,-115.7860,40.8242,1367.00,35.00,32.00,88.68,250.00,8.00,T,29.60,M,3.00,M,FEW,BKN,OVC,M,1400.00,1900.00,4400.00,M,-SN BR,M,M,M,M,M,M,27.81,KEKO 071942Z AUTO 25008KT 3SM -SN BR FEW014 BKN019 OVC044 02/00 A2960 RMK AO2 SNB22 P0000 T00170000,M
CXP,2024-02-07 19:50,-119.7326,39.1923,1431.00,39.20,19.40,44.55,240.00,7.00,0.00,29.64,M,10.00,13.00,FEW,M,M,M,6000.00,M,M,M,M,M,M,M,M,M,M,33.56,KCXP 071950Z AUTO 24007G13KT 10SM FEW060 04/M07 A2964 RMK AO2,M
DRA,2024-02-07 19:53,-116.0278,36.6206,1009.00,45.00,37.00,73.37,240.00,12.00,0.00,29.74,1006.00,10.00,M,FEW,SCT,OVC,M,2000.00,2600.00,3500.00,M,M,M,M,M,M,M,M,38.55,KDRA 071953Z AUTO 24012KT 10SM FEW020 SCT026 OVC035 07/03 A2974 RMK AO2 SLP060 T00720028,M
ELY,2024-02-07 19:53,-114.8453,39.2950,1909.00,35.00,25.00,66.57,260.00,11.00,0.00,29.60,1001.40,10.00,M,OVC,M,M,M,5000.00,M,M,M,M,M,M,M,M,M,M,26.26,KELY 071953Z AUTO 26011KT 10SM OVC050 02/M04 A2960 RMK AO2 SLP014 T00171039,M
VGT,2024-02-07 19:53,-115.1933,36.2111,667.00,52.00,38.00,58.71,40.00,5.00,0.00,29.73,1008.50,10.00,M,BKN,M,M,M,5500.00,M,M,M,M,M,M,M,M,M,M,52.00,KVGT 071953Z 04005KT 10SM BKN055 11/03 A2973 RMK AO2 SLP085 T01110033,M
LOL,2024-02-07 19:53,-118.5701,40.0684,1192.43,39.00,31.00,72.75,210.00,6.00,0.00,29.65,1004.80,10.00,M,FEW,OVC,M,M,1500.00,5000.00,M,M,M,M,M,M,M,M,M,33.96,KLOL 071953Z AUTO 21006KT 10SM FEW015 OVC050 04/M01 A2965 RMK AO2 SLP048 T00391006,M
P68,2024-02-07 19:53,-116.0056,39.6014,1993.00,39.00,26.00,59.27,260.00,14.00,0.00,29.60,1000.70,M,21.00,M,M,M,M,M,M,M,M,M,M,M,M,M,M,M,30.19,KP68 071953Z AUTO 26014G21KT 04/M03 A2960 RMK AO1 SLP007 T00391033 $,M
BVU,2024-02-07 19:55,-114.8611,35.9475,671.00,51.80,37.40,57.77,220.00,14.00,0.00,29.76,M,10.00,M,BKN,BKN,M,M,4300.00,5000.00,M,M,M,M,M,M,M,M,M,51.80,KBVU 071955Z AUTO 22014KT 10SM BKN043 BKN050 11/03 A2976 RMK AO2,M
RNO,2024-02-07 19:55,-119.7711,39.4839,1341.00,42.00,23.00,46.55,220.00,5.00,0.00,29.61,1002.10,10.00,M,FEW,BKN,BKN,M,4500.00,6500.00,12000.00,M,M,M,M,M,M,M,M,38.27,KRNO 071955Z 22005KT 10SM FEW045 BKN065 BKN120 06/M05 A2961 RMK AO2 SLP021 APRNT ROTOR CLD S ACSL S THRU SW T00561050,M
RTS,2024-02-07 19:55,-119.8764,39.6682,1539.00,37.40,21.20,51.61,140.00,7.00,0.00,29.61,M,10.00,M,FEW,SCT,BKN,M,4600.00,7000.00,9000.00,M,M,M,M,M,M,M,M,31.36,KRTS 071955Z AUTO 14007KT 10SM FEW046 SCT070 BKN090 03/M06 A2961 RMK AO2,M
05U,2024-02-07 19:55,-116.0051,39.6042,1811.23,39.20,24.80,55.95,60.00,12.00,0.00,29.63,M,10.00,M,M,M,M,M,M,M,M,M,M,M,M,M,M,M,M,31.17,K05U 071955Z AUTO 06012KT 10SM 04/M04 A2963 RMK A01,M
MEV,2024-02-07 19:55,-119.7500,38.9963,1441.42,37.40,24.80,60.04,20.00,3.00,0.00,29.62,M,10.00,M,CLR,M,M,M,M,M,M,M,M,M,M,M,M,M,M,34.86,KMEV 071955Z AUTO 02003KT 10SM CLR 03/M04 A2962 RMK AO2,M
BAM,2024-02-07 19:55,-116.8743,40.5990,1382.36,37.40,33.80,86.69,330.00,6.00,0.00,29.64,M,10.00,M,BKN,OVC,M,M,2200.00,2800.00,M,M,M,M,M,M,M,M,M,32.03,KBAM 071955Z AUTO 33006KT 10SM BKN022 OVC028 03/01 A2964 RMK AO1,M
HTH,2024-02-07 19:55,-118.6315,38.5448,1282.89,42.80,26.60,52.45,310.00,6.00,0.00,29.66,M,10.00,M,CLR,M,M,M,M,M,M,M,M,M,M,M,M,M,M,38.54,KHTH 071955Z AUTO 31006KT 10SM CLR 06/M03 A2966 RMK A01,M
TMT,2024-02-07 19:55,-117.1971,39.4643,1749.34,36.00,24.00,61.37,290.00,10.00,0.00,29.64,M,10.00,M,BKN,M,M,M,5000.00,M,M,M,M,M,M,M,M,M,M,27.98,KTMT 071955Z AUTO 29010KT 10SM BKN050 02/M04 A2964 RMK AO2 T00221044,M
INS,2024-02-07 19:55,-115.6733,36.5872,955.00,49.60,35.40,57.92,280.00,14.00,0.00,29.73,M,10.00,M,CLR,M,M,M,M,M,M,M,M,M,M,M,M,M,M,43.85,KINS 071955Z AUTO 28014KT 10SM CLR 10/02 A2973 RMK AO2 SLPNO T00980019 $,M
LSV,2024-02-07 19:55,-115.0343,36.2362,570.00,54.00,35.80,50.02,210.00,7.00,0.00,29.72,M,10.00,M,BKN,M,M,M,5500.00,M,M,M,M,M,M,M,M,M,M,54.00,KLSV 071955Z AUTO 21007KT 10SM BKN055 12/02 A2972 RMK AO2 SLPNO T01220021 $,M
10U,2024-02-07 19:55,-116.1876,41.9532,1637.00,33.80,32.00,93.03,230.00,8.00,0.00,29.60,M,10.00,M,FEW,SCT,BKN,M,900.00,1200.00,4300.00,M,M,M,M,M,M,M,M,26.33,K10U 071955Z AUTO 23008KT 10SM FEW009 SCT012 BKN043 01/M00 A2960 RMK AO2,M
EKO,2024-02-07 19:56,-115.7860,40.8242,1367.00,37.00,30.00,75.56,260.00,9.00,T,29.59,1002.50,9.00,M,FEW,BKN,OVC,M,1700.00,4200.00,7500.00,M,M,M,M,M,M,M,M,29.73,KEKO 071956Z AUTO 26009KT 9SM FEW017 BKN042 OVC075 03/M01 A2959 RMK AO2 SNB22E52 SLP025 P0000 T00281011,M
NFL,2024-02-07 19:56,-118.7010,39.4166,1199.00,45.00,30.00,55.43,190.00,11.00,0.00,29.63,1001.90,10.00,M,SCT,BKN,OVC,M,4000.00,7000.00,10000.00,M,M,M,M,M,M,M,M,38.89,KNFL 071956Z 19011KT 10SM SCT040 BKN070 OVC100 07/M01 A2963 RMK AO2 SLP019 T00721011,M
HND,2024-02-07 19:56,-115.1344,35.9729,742.79,50.00,37.00,60.79,220.00,16.00,0.00,29.76,1009.50,10.00,25.00,FEW,M,M,M,6000.00,M,M,M,M,M,M,M,26.00,210.00,2024-02-07 19:45,50.00,KHND 071956Z 22016G25KT 10SM FEW060 10/03 A2976 RMK AO2 PK WND 21026/1945 SLP095 T01000028,M
TPH,2024-02-07 19:56,-117.0904,38.0505,1654.00,38.00,29.00,69.74,0.00,0.00,0.00,29.67,1004.50,10.00,M,SCT,M,M,M,2100.00,M,M,M,M,M,M,M,M,M,M,38.00,KTPH 071956Z AUTO 00000KT 10SM SCT021 03/M02 A2967 RMK AO2 SLP045 T00331017,M
LAS,2024-02-07 19:56,-115.1634,36.0719,663.00,52.00,36.00,54.26,200.00,10.00,0.00,29.73,1006.50,10.00,18.00,FEW,FEW,SCT,M,3800.00,6000.00,20000.00,M,M,M,M,M,M,M,M,52.00,KLAS 071956Z 20010G18KT 10SM FEW038 FEW060 SCT200 11/02 A2973 RMK AO2 SLP065 T01110022,M
WMC,2024-02-07 19:56,-117.8072,40.9019,1315.00,41.00,27.00,57.15,240.00,10.00,0.00,29.62,1003.00,10.00,M,BKN,M,M,M,6500.00,M,M,M,M,M,M,M,M,M,M,34.25,KWMC 071956Z AUTO 24010KT 10SM BKN065 05/M03 A2962 RMK AO2 SLP030 T00501028,M
05U,2024-02-07 20:10,-116.0051,39.6042,1811.23,39.20,24.80,55.95,50.00,16.00,0.00,29.62,M,10.00,21.00,M,M,M,M,M,M,M,M,M,M,M,M,M,M,M,29.80,K05U 072010Z AUTO 05016G21KT 10SM 04/M04 A2962 RMK A01,M
BVU,2024-02-07 20:15,-114.8611,35.9475,671.00,51.80,37.40,57.77,220.00,16.00,0.00,29.75,M,10.00,M,OVC,M,M,M,4400.00,M,M,M,M,M,M,M,M,M,M,51.80,KBVU 072015Z AUTO 22016KT 10SM OVC044 11/03 A2975 RMK AO2,M
CXP,2024-02-07 20:15,-119.7326,39.1923,1431.00,39.20,21.20,48.10,240.00,6.00,0.00,29.62,M,10.00,12.00,SCT,M,M,M,9500.00,M,M,M,M,M,M,M,M,M,M,34.20,KCXP 072015Z AUTO 24006G12KT 10SM SCT095 04/M06 A2962 RMK AO2,M
RTS,2024-02-07 20:15,-119.8764,39.6682,1539.00,37.40,19.40,47.80,0.00,0.00,0.00,29.61,M,10.00,M,SCT,SCT,BKN,M,4700.00,5500.00,9000.00,M,M,M,M,M,M,M,M,37.40,KRTS 072015Z AUTO 00000KT 10SM SCT047 SCT055 BKN090 03/M07 A2961 RMK AO2,M
MEV,2024-02-07 20:15,-119.7500,38.9963,1441.42,37.40,23.00,55.68,50.00,4.00,0.00,29.61,M,10.00,M,SCT,SCT,M,M,7000.00,8500.00,M,M,M,M,M,M,M,M,M,33.73,KMEV 072015Z AUTO 05004KT 10SM SCT070 SCT085 03/M05 A2961 RMK AO2,M
BAM,2024-02-07 20:15,-116.8743,40.5990,1382.36,35.60,33.80,93.08,40.00,4.00,0.00,29.63,M,10.00,M,SCT,BKN,OVC,M,2000.00,3900.00,5500.00,M,M,M,M,M,M,M,M,31.62,KBAM 072015Z AUTO 04004KT 10SM SCT020 BKN039 OVC055 02/01 A2963 RMK AO1,M
HTH,2024-02-07 20:15,-118.6315,38.5448,1282.89,42.80,26.60,52.45,310.00,4.00,0.00,29.65,M,10.00,M,CLR,M,M,M,M,M,M,M,M,M,M,M,M,M,M,40.03,KHTH 072015Z AUTO 31004KT 10SM CLR 06/M03 A2965 RMK A01,M
10U,2024-02-07 20:15,-116.1876,41.9532,1637.00,33.80,30.20,86.49,230.00,11.00,0.00,29.60,M,10.00,M,SCT,BKN,OVC,M,1000.00,4200.00,4900.00,M,-SN,M,M,M,M,M,M,24.74,K10U 072015Z AUTO 23011KT 10SM -SN SCT010 BKN042 OVC049 01/M01 A2960 RMK AO2,M
TMT,2024-02-07 20:15,-117.1971,39.4643,1749.34,39.00,23.00,52.30,280.00,10.00,0.00,29.64,M,10.00,M,SCT,BKN,OVC,M,4100.00,4800.00,5500.00,M,M,M,M,M,M,M,M,31.75,KTMT 072015Z AUTO 28010KT 10SM SCT041 BKN048 OVC055 04/M05 A2964 RMK AO2 T00391050,M
EKO,2024-02-07 20:16,-115.7860,40.8242,1367.00,37.00,30.00,75.56,270.00,10.00,T,29.60,M,9.00,15.00,BKN,BKN,OVC,M,1800.00,2700.00,7500.00,M,M,M,M,M,M,M,M,29.24,KEKO 072016Z AUTO 27010G15KT 9SM BKN018 BKN027 OVC075 03/M01 A2960 RMK AO2 SNB05E15 P0000 T00281011,M
LSV,2024-02-07 20:25,-115.0343,36.2362,570.00,55.40,35.60,47.16,200.00,8.00,0.00,29.71,M,10.00,M,BKN,BKN,M,M,4400.00,6000.00,M,M,M,M,M,M,M,M,M,55.40,KLSV 072025Z AUTO 20008KT 10SM BKN044 BKN060 13/02 A2971 RMK AO2 SLPNO $,M
BVU,2024-02-07 20:35,-114.8611,35.9475,671.00,53.60,37.40,54.07,220.00,15.00,0.00,29.75,M,10.00,M,OVC,M,M,M,4700.00,M,M,M,M,M,M,M,M,M,M,53.60,KBVU 072035Z AUTO 22015KT 10SM OVC047 12/03 A2975 RMK AO2,M
CXP,2024-02-07 20:35,-119.7326,39.1923,1431.00,41.00,21.20,44.85,180.00,8.00,0.00,29.61,M,10.00,M,FEW,FEW,M,M,5500.00,9500.00,M,M,M,M,M,M,M,M,M,35.20,KCXP 072035Z AUTO 18008KT 10SM FEW055 FEW095 05/M06 A2961 RMK AO2,M
RTS,2024-02-07 20:35,-119.8764,39.6682,1539.00,37.40,21.20,51.61,270.00,14.00,0.00,29.60,M,10.00,M,FEW,SCT,SCT,M,4800.00,6000.00,9000.00,M,M,M,M,M,M,M,M,28.12,KRTS 072035Z AUTO 27014KT 10SM FEW048 SCT060 SCT090 03/M06 A2960 RMK AO2,M
05U,2024-02-07 20:35,-116.0051,39.6042,1811.23,37.40,24.80,60.04,40.00,15.00,0.00,29.62,M,10.00,M,M,M,M,M,M,M,M,M,M,M,M,M,M,M,M,27.78,K05U 072035Z AUTO 04015KT 10SM 03/M04 A2962 RMK A01,M
MEV,2024-02-07 20:35,-119.7500,38.9963,1441.42,39.20,23.00,51.89,160.00,6.00,0.00,29.60,M,10.00,M,FEW,FEW,M,M,6500.00,8500.00,M,M,M,M,M,M,M,M,M,34.20,KMEV 072035Z AUTO 16006KT 10SM FEW065 FEW085 04/M05 A2960 RMK AO2,M
BAM,2024-02-07 20:35,-116.8743,40.5990,1382.36,35.60,33.80,93.08,50.00,5.00,0.00,29.63,M,10.00,M,SCT,BKN,OVC,M,4000.00,4800.00,6500.00,M,M,M,M,M,M,M,M,30.67,KBAM 072035Z AUTO 05005KT 10SM SCT040 BKN048 OVC065 02/01 A2963 RMK AO1,M
HTH,2024-02-07 20:35,-118.6315,38.5448,1282.89,42.80,26.60,52.45,0.00,0.00,0.00,29.64,M,10.00,M,CLR,M,M,M,M,M,M,M,M,M,M,M,M,M,M,42.80,KHTH 072035Z AUTO 00000KT 10SM CLR 06/M03 A2964 RMK A01,M
10U,2024-02-07 20:35,-116.1876,41.9532,1637.00,33.80,30.20,86.49,230.00,10.00,0.00,29.60,M,9.00,M,FEW,BKN,OVC,M,900.00,3400.00,4400.00,M,UP,M,M,M,M,M,M,25.23,K10U 072035Z AUTO 23010KT 9SM UP FEW009 BKN034 OVC044 01/M01 A2960 RMK AO2,M
TMT,2024-02-07 20:35,-117.1971,39.4643,1749.34,38.70,22.50,51.81,230.00,11.00,0.00,29.64,M,10.00,16.00,SCT,BKN,BKN,M,4100.00,4800.00,6000.00,M,M,M,M,M,M,M,M,30.93,KTMT 072035Z AUTO 23011G16KT 10SM SCT041 BKN048 BKN060 04/M05 A2964 RMK AO2 T00371053,M
ELY,2024-02-07 20:36,-114.8453,39.2950,1909.00,34.00,25.00,69.28,310.00,5.00,T,29.60,M,1.75,17.00,FEW,BKN,OVC,M,2900.00,3900.00,6000.00,M,-SN,M,M,M,M,M,M,28.77,KELY 072036Z AUTO 31005G17KT 1 3/4SM -SN FEW029 BKN039 OVC060 01/M04 A2960 RMK AO2 SNB32 P0000 T00111039,M
ELY,2024-02-07 20:44,-114.8453,39.2950,1909.00,33.00,27.00,78.34,340.00,6.00,T,29.60,M,3.00,M,SCT,BKN,OVC,M,2700.00,3500.00,6000.00,M,-SN,M,M,M,M,M,M,26.73,KELY 072044Z AUTO 34006KT 3SM -SN SCT027 BKN035 OVC060 01/M03 A2960 RMK AO2 SNB32 P0000 T00061028,M
EKO,2024-02-07 20:46,-115.7860,40.8242,1367.00,37.00,29.00,72.54,290.00,8.00,T,29.60,M,10.00,M,FEW,BKN,OVC,M,2000.00,4000.00,4800.00,M,M,M,M,M,M,M,M,30.27,KEKO 072046Z AUTO 29008KT 10SM FEW020 BKN040 OVC048 03/M02 A2960 RMK AO2 SNB05E15 P0000 T00281017,M
TPH,2024-02-07 20:47,-117.0904,38.0505,1654.00,40.00,29.00,64.50,80.00,4.00,0.00,29.65,M,10.00,M,SCT,BKN,M,M,2400.00,2900.00,M,M,M,M,M,M,M,M,M,36.76,KTPH 072047Z AUTO 08004KT 10SM SCT024 BKN029 04/M02 A2965 RMK AO2 T00441017,M
P68,2024-02-07 20:53,-116.0056,39.6014,1993.00,41.00,24.00,50.46,270.00,12.00,0.00,29.59,1000.00,M,19.00,M,M,M,M,M,M,M,M,M,M,M,M,M,M,M,33.46,KP68 072053Z AUTO 27012G19KT 05/M04 A2959 RMK AO1 SLP000 T00501044 58005 $,M
DRA,2024-02-07 20:53,-116.0278,36.6206,1009.00,46.00,37.00,70.64,230.00,14.00,0.00,29.73,1005.80,10.00,24.00,SCT,BKN,OVC,M,2400.00,3100.00,4200.00,M,M,M,M,M,M,M,M,39.21,KDRA 072053Z AUTO 23014G24KT 10SM SCT024 BKN031 OVC042 08/03 A2973 RMK AO2 SLP058 T00780028 58003,M
ELY,2024-02-07 20:53,-114.8453,39.2950,1909.00,33.00,27.00,78.34,250.00,9.00,T,29.60,1001.60,4.00,M,BKN,BKN,OVC,M,2700.00,3400.00,4200.00,M,-SN,M,M,M,M,M,M,24.76,KELY 072053Z AUTO 25009KT 4SM -SN BKN027 BKN034 OVC042 01/M03 A2960 RMK AO2 SNB32 SLP016 P0000 60000 T00061028 51001,M
VGT,2024-02-07 20:53,-115.1933,36.2111,667.00,54.00,38.00,54.56,40.00,5.00,0.00,29.72,1007.90,10.00,M,BKN,M,M,M,5500.00,M,M,M,M,M,M,M,M,M,M,54.00,KVGT 072053Z 04005KT 10SM BKN055 12/03 A2972 RMK AO2 SLP079 T01220033 58006,M
LOL,2024-02-07 20:53,-118.5701,40.0684,1192.43,39.00,31.00,72.75,0.00,0.00,T,29.63,1004.10,10.00,M,SCT,OVC,M,M,6000.00,9000.00,M,M,M,M,M,M,M,M,M,39.00,KLOL 072053Z AUTO 00000KT 10SM SCT060 OVC090 04/M01 A2963 RMK AO2 RAB00E16 SLP041 P0000 60000 T00391006 58010,M
TMT,2024-02-07 20:55,-117.1971,39.4643,1749.34,39.20,22.60,51.03,260.00,10.00,0.00,29.63,M,10.00,17.00,SCT,M,M,M,6000.00,M,M,M,M,M,M,M,M,M,M,32.00,KTMT 072055Z AUTO 26010G17KT 10SM SCT060 04/M05 A2963 RMK AO2 T00401052,M
BVU,2024-02-07 20:55,-114.8611,35.9475,671.00,53.60,37.40,54.07,230.00,16.00,0.00,29.75,M,10.00,22.00,BKN,M,M,M,4900.00,M,M,M,M,M,M,M,M,M,M,53.60,KBVU 072055Z AUTO 23016G22KT 10SM BKN049 12/03 A2975 RMK AO2,M
CXP,2024-02-07 20:55,-119.7326,39.1923,1431.00,42.80,21.20,41.84,M,4.00,0.00,29.60,M,10.00,13.00,SCT,BKN,M,M,5500.00,6500.00,M,M,M,M,M,M,M,M,M,40.03,KCXP 072055Z AUTO VRB04G13KT 10SM SCT055 BKN065 06/M06 A2960 RMK AO2,M
RNO,2024-02-07 20:55,-119.7711,39.4839,1341.00,44.00,23.00,43.11,190.00,12.00,0.00,29.58,1001.10,10.00,20.00,SCT,BKN,BKN,M,6500.00,11000.00,18000.00,M,M,M,M,M,M,M,M,37.27,KRNO 072055Z 19012G20KT 10SM SCT065 BKN110 BKN180 07/M05 A2958 RMK AO2 SLP011 ACSL SE THRU SW T00671050 58018,M
RTS,2024-02-07 20:55,-119.8764,39.6682,1539.00,37.40,19.40,47.80,0.00,0.00,0.00,29.59,M,10.00,10.00,SCT,SCT,SCT,M,5000.00,5500.00,9000.00,M,M,M,M,M,M,M,M,37.40,KRTS 072055Z AUTO 00000G10KT 10SM SCT050 SCT055 SCT090 03/M07 A2959 RMK AO2,M
05U,2024-02-07 20:55,-116.0051,39.6042,1811.23,41.00,23.00,48.39,60.00,13.00,0.00,29.62,M,10.00,M,M,M,M,M,M,M,M,M,M,M,M,M,M,M,M,33.10,K05U 072055Z AUTO 06013KT 10SM 05/M05 A2962 RMK A01,M
MEV,2024-02-07 20:55,-119.7500,38.9963,1441.42,41.00,21.20,44.85,200.00,3.00,0.00,29.59,M,10.00,M,FEW,M,M,M,8500.00,M,M,M,M,M,M,M,M,M,M,38.98,KMEV 072055Z AUTO 20003KT 10SM FEW085 05/M06 A2959 RMK AO2,M
BAM,2024-02-07 20:55,-116.8743,40.5990,1382.36,35.60,33.80,93.08,0.00,0.00,0.00,29.63,M,10.00,M,SCT,BKN,OVC,M,3400.00,4800.00,7000.00,M,M,M,M,M,M,M,M,35.60,KBAM 072055Z AUTO 00000KT 10SM SCT034 BKN048 OVC070 02/01 A2963 RMK AO1,M
HTH,2024-02-07 20:55,-118.6315,38.5448,1282.89,42.80,26.60,52.45,0.00,0.00,0.00,29.63,M,10.00,M,CLR,M,M,M,M,M,M,M,M,M,M,M,M,M,M,42.80,KHTH 072055Z AUTO 00000KT 10SM CLR 06/M03 A2963 RMK A01,M
INS,2024-02-07 20:55,-115.6733,36.5872,955.00,50.70,35.00,54.72,280.00,11.00,0.00,29.71,M,10.00,M,SCT,M,M,M,5000.00,M,M,M,M,M,M,M,M,M,M,50.70,KINS 072055Z AUTO 28011KT 10SM SCT050 10/02 A2971 RMK AO2 SLPNO T01040017 58005 $,M
LSV,2024-02-07 20:55,-115.0343,36.2362,570.00,56.00,36.70,48.20,170.00,13.00,0.00,29.70,M,10.00,M,SCT,BKN,M,M,4400.00,6000.00,M,M,M,M,M,M,M,M,M,56.00,KLSV 072055Z AUTO 17013KT 10SM SCT044 BKN060 13/03 A2970 RMK AO2 SLPNO T01340026 58008 $,M
10U,2024-02-07 20:55,-116.1876,41.9532,1637.00,33.80,30.20,86.49,240.00,8.00,0.00,29.59,M,10.00,M,SCT,OVC,M,M,3400.00,4100.00,M,M,M,M,M,M,M,M,M,26.33,K10U 072055Z AUTO 24008KT 10SM SCT034 OVC041 01/M01 A2959 RMK AO2,M
WMC,2024-02-07 20:56,-117.8072,40.9019,1315.00,40.00,30.00,67.18,230.00,12.00,T,29.62,1002.90,10.00,18.00,FEW,BKN,OVC,M,3200.00,4300.00,6000.00,M,M,M,M,M,M,M,M,32.18,KWMC 072056Z AUTO 23012G18KT 10SM FEW032 BKN043 OVC060 04/M01 A2962 RMK AO2 SNB30E42 SLP029 P0000 60000 T00441011 58002,M
NFL,2024-02-07 20:56,-118.7010,39.4166,1199.00,45.00,26.00,47.04,200.00,16.00,0.00,29.62,1001.40,10.00,22.00,SCT,BKN,OVC,M,4000.00,6000.00,8500.00,M,M,M,M,M,M,M,M,37.36,KNFL 072056Z 20016G22KT 10SM SCT040 BKN060 OVC085 07/M03 A2962 RMK AO2 SLP014 6//// T00721033 58011,M
EKO,2024-02-07 20:56,-115.7860,40.8242,1367.00,37.00,29.00,72.54,280.00,7.00,T,29.60,1002.50,10.00,M,FEW,SCT,OVC,M,2200.00,2900.00,4000.00,M,M,M,M,M,M,M,M,30.87,KEKO 072056Z AUTO 28007KT 10SM FEW022 SCT029 OVC040 03/M02 A2960 RMK AO2 SNB05E15 SLP025 P0000 60000 T00281017 51001,M
ELY,2024-02-07 20:56,-114.8453,39.2950,1909.00,33.00,27.00,78.34,250.00,11.00,T,29.60,M,2.50,18.00,SCT,BKN,OVC,M,2700.00,3400.00,4500.00,M,-SN,M,M,M,M,M,M,23.73,KELY 072056Z AUTO 25011G18KT 2 1/2SM -SN SCT027 BKN034 OVC045 01/M03 A2960 RMK AO2 P0000 T00061028,M
HND,2024-02-07 20:56,-115.1344,35.9729,742.79,51.00,37.00,58.58,210.00,19.00,0.00,29.76,1009.30,10.00,M,SCT,M,M,M,5000.00,M,M,M,M,M,M,M,M,M,M,51.00,KHND 072056Z 21019KT 10SM SCT050 11/03 A2976 RMK AO2 SLP093 T01060028 58003,M
TPH,2024-02-07 20:56,-117.0904,38.0505,1654.00,39.00,28.00,64.37,M,3.00,0.00,29.65,1003.80,10.00,M,SCT,SCT,BKN,M,2400.00,2900.00,3400.00,M,M,M,M,M,M,M,M,36.69,KTPH 072056Z AUTO VRB03KT 10SM SCT024 SCT029 BKN034 04/M02 A2965 RMK AO2 SLP038 T00391022 58006,M
LAS,2024-02-07 20:56,-115.1634,36.0719,663.00,52.00,36.00,54.26,200.00,16.00,0.00,29.73,1006.30,10.00,26.00,FEW,SCT,SCT,M,3800.00,6000.00,20000.00,M,M,M,M,M,26.00,190.00,2024-02-07 20:52,52.00,KLAS 072056Z 20016G26KT 10SM FEW038 SCT060 SCT200 11/02 A2973 RMK AO2 PK WND 19026/2052 SLP063 T01110022 58004,M
DRA,2024-02-07 20:58,-116.0278,36.6206,1009.00,47.00,37.00,68.02,220.00,11.00,0.00,29.73,M,10.00,22.00,BKN,BKN,OVC,M,2600.00,3300.00,4200.00,M,M,M,M,M,M,M,M,41.42,KDRA 072058Z AUTO 22011G22KT 10SM BKN026 BKN033 OVC042 08/03 A2973 RMK AO2 T00830028,M
ELY,2024-02-07 21:02,-114.8453,39.2950,1909.00,32.00,27.00,81.55,220.00,8.00,T,29.61,M,1.25,18.00,FEW,BKN,OVC,M,2700.00,3700.00,4700.00,M,-SN,M,M,M,M,M,M,24.11,KELY 072102Z AUTO 22008G18KT 1 1/4SM -SN FEW027 BKN037 OVC047 00/M03 A2961 RMK AO2 VIS 3/4V3 P0000 T00001028,M
TPH,2024-02-07 21:03,-117.0904,38.0505,1654.00,39.00,28.00,64.37,360.00,4.00,0.00,29.65,M,10.00,M,FEW,BKN,OVC,M,2300.00,2900.00,4700.00,M,M,M,M,M,M,M,M,35.59,KTPH 072103Z AUTO 36004KT 10SM FEW023 BKN029 OVC047 04/M02 A2965 RMK AO2 T00391022,M
LSV,2024-02-07 21:05,-115.0343,36.2362,570.00,55.40,35.60,47.16,180.00,13.00,0.00,29.69,M,10.00,M,BKN,BKN,M,M,4600.00,6000.00,M,M,M,M,M,M,M,M,M,55.40,KLSV 072105Z AUTO 18013KT 10SM BKN046 BKN060 13/02 A2969 RMK AO2 SLPNO $,M
ELY,2024-02-07 21:10,-114.8453,39.2950,1909.00,30.00,27.00,88.44,210.00,10.00,T,29.61,M,0.25,17.00,SCT,BKN,OVC,M,800.00,2700.00,4500.00,M,+SN FZFG,M,M,M,M,M,M,20.46,KELY 072110Z AUTO 21010G17KT 1/4SM +SN FZFG SCT008 BKN027 OVC045 M01/M03 A2961 RMK AO2 P0000 T10111028,M
BVU,2024-02-07 21:15,-114.8611,35.9475,671.00,53.60,37.40,54.07,230.00,20.00,0.00,29.75,M,10.00,M,BKN,BKN,M,M,5000.00,5500.00,M,M,M,M,M,M,M,M,M,53.60,KBVU 072115Z AUTO 23020KT 10SM BKN050 BKN055 12/03 A2975 RMK AO2,M
CXP,2024-02-07 21:15,-119.7326,39.1923,1431.00,44.60,21.20,39.06,180.00,7.00,0.00,29.60,M,10.00,M,SCT,SCT,BKN,M,5000.00,6500.00,10000.00,M,M,M,M,M,M,M,M,40.14,KCXP 072115Z AUTO 18007KT 10SM SCT050 SCT065 BKN100 07/M06 A2960 RMK AO2,M
RTS,2024-02-07 21:15,-119.8764,39.6682,1539.00,37.40,21.20,51.61,100.00,6.00,0.00,29.59,M,10.00,M,BKN,OVC,M,M,4900.00,5500.00,M,M,M,M,M,M,M,M,M,32.03,KRTS 072115Z AUTO 10006KT 10SM BKN049 OVC055 03/M06 A2959 RMK AO2,M
05U,2024-02-07 21:15,-116.0051,39.6042,1811.23,41.00,23.00,48.39,40.00,9.00,0.00,29.62,M,10.00,18.00,M,M,M,M,M,M,M,M,M,M,M,M,M,M,M,34.70,K05U 072115Z AUTO 04009G18KT 10SM 05/M05 A2962 RMK A01,M
MEV,2024-02-07 21:15,-119.7500,38.9963,1441.42,41.00,24.80,52.17,200.00,8.00,0.00,29.58,M,10.00,M,CLR,M,M,M,M,M,M,M,M,M,M,M,M,M,M,35.20,KMEV 072115Z AUTO 20008KT 10SM CLR 05/M04 A2958 RMK AO2,M
BAM,2024-02-07 21:15,-116.8743,40.5990,1382.36,37.40,33.80,86.69,80.00,3.00,0.00,29.63,M,10.00,M,SCT,SCT,OVC,M,3700.00,4500.00,5500.00,M,M,M,M,M,M,M,M,34.86,KBAM 072115Z AUTO 08003KT 10SM SCT037 SCT045 OVC055 03/01 A2963 RMK AO1,M
HTH,2024-02-07 21:15,-118.6315,38.5448,1282.89,42.80,26.60,52.45,0.00,0.00,0.00,29.61,M,10.00,M,CLR,M,M,M,M,M,M,M,M,M,M,M,M,M,M,42.80,KHTH 072115Z AUTO 00000KT 10SM CLR 06/M03 A2961 RMK A01,M
10U,2024-02-07 21:15,-116.1876,41.9532,1637.00,35.60,30.20,80.51,250.00,9.00,0.00,29.59,M,10.00,14.00,FEW,SCT,BKN,M,4000.00,4500.00,5500.00,M,M,M,M,M,M,M,M,27.99,K10U 072115Z AUTO 25009G14KT 10SM FEW040 SCT045 BKN055 02/M01 A2959 RMK AO2,M
TMT,2024-02-07 21:15,-117.1971,39.4643,1749.34,38.30,22.50,52.63,240.00,11.00,0.00,29.63,M,10.00,16.00,CLR,M,M,M,M,M,M,M,M,M,M,M,M,M,M,30.43,KTMT 072115Z AUTO 24011G16KT 10SM CLR 04/M05 A2963 RMK AO2 T00351053,M
LSV,2024-02-07 21:15,-115.0343,36.2362,570.00,55.40,35.60,47.16,190.00,14.00,0.00,29.69,M,10.00,M,SCT,BKN,M,M,4800.00,6000.00,M,M,M,M,M,M,M,M,M,55.40,KLSV 072115Z AUTO 19014KT 10SM SCT048 BKN060 13/02 A2969 RMK AO2 SLPNO $,M
TPH,2024-02-07 21:21,-117.0904,38.0505,1654.00,39.00,28.00,64.37,M,3.00,0.00,29.64,M,10.00,M,SCT,BKN,OVC,M,2800.00,3600.00,4600.00,M,M,M,M,M,M,M,M,36.69,KTPH 072121Z AUTO VRB03KT 10SM SCT028 BKN036 OVC046 04/M02 A2964 RMK AO2 T00391022,M
ELY,2024-02-07 21:22,-114.8453,39.2950,1909.00,30.00,29.00,96.00,180.00,9.00,0.03,29.60,M,0.25,M,BKN,BKN,OVC,M,600.00,4000.00,4800.00,M,+SN FZFG,M,M,M,M,M,M,21.03,KELY 072122Z AUTO 18009KT 1/4SM +SN FZFG BKN006 BKN040 OVC048 M01/M02 A2960 RMK AO2 P0003 T10111017,M
DRA,2024-02-07 21:27,-116.0278,36.6206,1009.00,48.00,39.00,70.85,220.00,14.00,0.00,29.72,M,10.00,20.00,FEW,OVC,M,M,2500.00,3100.00,M,M,M,M,M,M,M,M,M,41.79,KDRA 072127Z AUTO 22014G20KT 10SM FEW025 OVC031 09/04 A2972 RMK AO2 T00890039,M
ELY,2024-02-07 21:30,-114.8453,39.2950,1909.00,30.00,29.00,96.00,170.00,7.00,0.04,29.60,M,0.75,M,SCT,BKN,OVC,M,600.00,3500.00,4600.00,M,-SN BR,M,M,M,M,M,M,22.34,KELY 072130Z AUTO 17007KT 3/4SM -SN BR SCT006 BKN035 OVC046 M01/M02 A2960 RMK AO2 P0004 T10111017,M
TPH,2024-02-07 21:31,-117.0904,38.0505,1654.00,40.00,29.00,64.50,100.00,3.00,0.00,29.64,M,10.00,M,BKN,BKN,OVC,M,2800.00,4600.00,5500.00,M,M,M,M,M,M,M,M,37.83,KTPH 072131Z AUTO 10003KT 10SM BKN028 BKN046 OVC055 04/M02 A2964 RMK AO2 T00441017,M
ELY,2024-02-07 21:34,-114.8453,39.2950,1909.00,30.00,29.00,96.00,200.00,6.00,0.04,29.60,M,1.25,M,BKN,BKN,OVC,M,1000.00,4200.00,5000.00,M,-SN BR,M,M,M,M,M,M,23.12,KELY 072134Z AUTO 20006KT 1 1/4SM -SN BR BKN010 BKN042 OVC050 M01/M02 A2960 RMK AO2 VIS 3/4V2 1/2 P0004 T10111017,M
TMT,2024-02-07 21:35,-117.1971,39.4643,1749.34,38.50,22.00,51.13,250.00,7.00,0.00,29.62,M,10.00,M,CLR,M,M,M,M,M,M,M,M,M,M,M,M,M,M,32.70,KTMT 072135Z AUTO 25007KT 10SM CLR 04/M05 A2962 RMK AO2 T00361055,M
BVU,2024-02-07 21:35,-114.8611,35.9475,671.00,53.60,37.40,54.07,230.00,14.00,0.00,29.74,M,10.00,23.00,SCT,OVC,M,M,4600.00,5000.00,M,M,M,M,M,M,M,M,M,53.60,KBVU 072135Z AUTO 23014G23KT 10SM SCT046 OVC050 12/03 A2974 RMK AO2,M
CXP,2024-02-07 21:35,-119.7326,39.1923,1431.00,44.60,21.20,39.06,190.00,4.00,0.00,29.59,M,10.00,M,SCT,BKN,BKN,M,5000.00,6500.00,10000.00,M,M,M,M,M,M,M,M,42.13,KCXP 072135Z AUTO 19004KT 10SM SCT050 BKN065 BKN100 07/M06 A2959 RMK AO2,M
RTS,2024-02-07 21:35,-119.8764,39.6682,1539.00,37.40,21.20,51.61,90.00,6.00,0.00,29.59,M,10.00,M,OVC,M,M,M,5000.00,M,M,M,M,M,M,M,M,M,M,32.03,KRTS 072135Z AUTO 09006KT 10SM OVC050 03/M06 A2959 RMK AO2,M
05U,2024-02-07 21:35,-116.0051,39.6042,1811.23,41.00,19.40,41.54,50.00,12.00,0.00,29.62,M,10.00,M,M,M,M,M,M,M,M,M,M,M,M,M,M,M,M,33.46,K05U 072135Z AUTO 05012KT 10SM 05/M07 A2962 RMK A01,M
MEV,2024-02-07 21:35,-119.7500,38.9963,1441.42,39.20,21.20,48.10,M,6.00,0.00,29.57,M,10.00,13.00,CLR,M,M,M,M,M,M,M,M,M,M,M,M,M,M,34.20,KMEV 072135Z AUTO VRB06G13KT 160V230 10SM CLR 04/M06 A2957 RMK AO2,M
BAM,2024-02-07 21:35,-116.8743,40.5990,1382.36,39.20,32.00,75.16,0.00,0.00,0.00,29.63,M,10.00,M,BKN,OVC,M,M,6000.00,7000.00,M,M,M,M,M,M,M,M,M,39.20,KBAM 072135Z AUTO 00000KT 10SM BKN060 OVC070 04/00 A2963 RMK AO1,M
HTH,2024-02-07 21:35,-118.6315,38.5448,1282.89,44.60,26.60,48.96,0.00,0.00,0.00,29.61,M,10.00,M,FEW,M,M,M,10000.00,M,M,M,M,M,M,M,M,M,M,44.60,KHTH 072135Z AUTO 00000KT 10SM FEW100 07/M03 A2961 RMK A01,M
10U,2024-02-07 21:35,-116.1876,41.9532,1637.00,35.60,28.40,74.80,240.00,8.00,0.00,29.60,M,10.00,M,FEW,SCT,BKN,M,1700.00,2400.00,5000.00,M,M,M,M,M,M,M,M,28.55,K10U 072135Z AUTO 24008KT 10SM FEW017 SCT024 BKN050 02/M02 A2960 RMK AO2,M
ELY,2024-02-07 21:46,-114.8453,39.2950,1909.00,31.00,28.00,88.48,230.00,5.00,0.04,29.60,M,1.25,M,BKN,BKN,OVC,M,2300.00,3400.00,4400.00,M,-SN BR,M,M,M,M,M,M,25.21,KELY 072146Z AUTO 23005KT 1 1/4SM -SN BR BKN023 BKN034 OVC044 M01/M02 A2960 RMK AO2 P0004 T10061022,M
DRA,2024-02-07 21:53,-116.0278,36.6206,1009.00,48.00,38.00,68.13,190.00,15.00,0.00,29.71,1004.80,10.00,21.00,FEW,M,M,M,3100.00,M,M,M,M,M,M,M,M,M,M,41.52,KDRA 072153Z AUTO 19015G21KT 10SM FEW031 09/03 A2971 RMK AO2 SLP048 T00890033,M
ELY,2024-02-07 21:53,-114.8453,39.2950,1909.00,31.00,27.00,84.92,230.00,5.00,0.05,29.60,1002.10,1.25,M,SCT,BKN,OVC,M,2900.00,3400.00,4400.00,M,-SN BR,M,M,M,M,M,M,25.21,KELY 072153Z AUTO 23005KT 1 1/4SM -SN BR SCT029 BKN034 OVC044 M01/M03 A2960 RMK AO2 SLP021 P0005 T10061028,M
VGT,2024-02-07 21:53,-115.1933,36.2111,667.00,55.00,36.00,48.62,0.00,0.00,0.00,29.71,1007.60,10.00,M,OVC,M,M,M,6500.00,M,M,M,M,M,M,M,M,M,M,55.00,KVGT 072153Z 00000KT 10SM OVC065 13/02 A2971 RMK AO2 SLP076 T01280022,M
LOL,2024-02-07 21:53,-118.5701,40.0684,1192.43,41.00,31.00,67.30,0.00,0.00,0.00,29.61,1003.40,10.00,M,FEW,OVC,M,M,7000.00,8500.00,M,M,M,M,M,M,M,M,M,41.00,KLOL 072153Z AUTO 00000KT 10SM FEW070 OVC085 05/M01 A2961 RMK AO2 SLP034 T00501006,M
P68,2024-02-07 21:53,-116.0056,39.6014,1993.00,39.00,19.00,44.14,270.00,10.00,0.00,29.59,1000.40,M,M,M,M,M,M,M,M,M,M,M,M,M,M,M,M,M,31.75,KP68 072153Z AUTO 27010KT 04/M07 A2959 RMK AO1 SLP004 T00391072 $,M
BVU,2024-02-07 21:55,-114.8611,35.9475,671.00,53.60,37.40,54.07,230.00,17.00,0.00,29.74,M,10.00,M,FEW,BKN,M,M,4600.00,5500.00,M,M,M,M,M,M,M,M,M,53.60,KBVU 072155Z AUTO 23017KT 10SM FEW046 BKN055 12/03 A2974 RMK AO2,M
CXP,2024-02-07 21:55,-119.7326,39.1923,1431.00,42.80,23.00,45.14,170.00,8.00,0.00,29.59,M,10.00,M,SCT,BKN,M,M,5000.00,7000.00,M,M,M,M,M,M,M,M,M,37.42,KCXP 072155Z AUTO 17008KT 10SM SCT050 BKN070 06/M05 A2959 RMK AO2,M
RNO,2024-02-07 21:55,-119.7711,39.4839,1341.00,44.00,23.00,43.11,170.00,12.00,0.00,29.57,1000.80,10.00,M,SCT,BKN,BKN,M,5500.00,11000.00,18000.00,M,M,M,M,M,M,M,M,37.27,KRNO 072155Z 17012KT 10SM SCT055 BKN110 BKN180 07/M05 A2957 RMK AO2 SLP008 T00671050,M
RTS,2024-02-07 21:55,-119.8764,39.6682,1539.00,37.40,21.20,51.61,230.00,7.00,0.00,29.59,M,10.00,17.00,BKN,BKN,M,M,5000.00,5500.00,M,M,M,M,M,M,M,M,M,31.36,KRTS 072155Z AUTO 23007G17KT 10SM BKN050 BKN055 03/M06 A2959 RMK AO2,M
05U,2024-02-07 21:55,-116.0051,39.6042,1811.23,41.00,19.40,41.54,80.00,12.00,0.00,29.62,M,10.00,M,M,M,M,M,M,M,M,M,M,M,M,M,M,M,M,33.46,K05U 072155Z AUTO 08012KT 10SM 05/M07 A2962 RMK A01,M
MEV,2024-02-07 21:55,-119.7500,38.9963,1441.42,41.00,23.00,48.39,M,6.00,0.00,29.57,M,10.00,M,FEW,M,M,M,6000.00,M,M,M,M,M,M,M,M,M,M,36.37,KMEV 072155Z AUTO VRB06KT 10SM FEW060 05/M05 A2957 RMK AO2,M
BAM,2024-02-07 21:55,-116.8743,40.5990,1382.36,41.00,32.00,70.08,200.00,6.00,0.00,29.62,M,10.00,M,SCT,SCT,OVC,M,3200.00,4000.00,6000.00,M,M,M,M,M,M,M,M,36.37,KBAM 072155Z AUTO 20006KT 10SM SCT032 SCT040 OVC060 05/00 A2962 RMK AO1,M
HTH,2024-02-07 21:55,-118.6315,38.5448,1282.89,44.60,24.80,45.44,100.00,7.00,0.00,29.59,M,10.00,M,SCT,M,M,M,10000.00,M,M,M,M,M,M,M,M,M,M,40.14,KHTH 072155Z AUTO 10007KT 10SM SCT100 07/M04 A2959 RMK A01,M
TMT,2024-02-07 21:55,-117.1971,39.4643,1749.34,37.60,22.30,53.64,240.00,9.00,0.00,29.62,M,10.00,M,CLR,M,M,M,M,M,M,M,M,M,M,M,M,M,M,30.48,KTMT 072155Z AUTO 24009KT 10SM CLR 03/M05 A2962 RMK AO2 T00311054,M
10U,2024-02-07 21:55,-116.1876,41.9532,1637.00,35.60,30.20,80.51,240.00,9.00,0.00,29.59,M,10.00,M,FEW,BKN,BKN,M,2300.00,3400.00,4100.00,M,M,M,M,M,M,M,M,27.99,K10U 072155Z AUTO 24009KT 10SM FEW023 BKN034 BKN041 02/M01 A2959 RMK AO2,M
INS,2024-02-07 21:55,-115.6733,36.5872,955.00,51.30,34.70,52.88,270.00,8.00,0.00,29.69,M,10.00,16.00,BKN,OVC,M,M,4700.00,6000.00,M,M,M,M,M,M,M,M,M,51.30,KINS 072155Z AUTO 27008G16KT 10SM BKN047 OVC060 11/02 A2969 RMK AO2 SLPNO T01070015 $,M
LSV,2024-02-07 21:55,-115.0343,36.2362,570.00,55.60,36.00,47.57,190.00,16.00,0.00,29.69,M,10.00,M,FEW,BKN,M,M,4900.00,6500.00,M,M,M,M,M,M,M,M,M,55.60,KLSV 072155Z AUTO 19016KT 10SM FEW049 BKN065 13/02 A2969 RMK AO2 SLPNO T01310023 $,M
EKO,2024-02-07 21:56,-115.7860,40.8242,1367.00,37.00,28.00,69.63,280.00,8.00,T,29.60,1002.60,8.00,M,SCT,BKN,OVC,M,2500.00,3300.00,4900.00,M,-SN,M,M,M,M,M,M,30.27,KEKO 072156Z AUTO 28008KT 8SM -SN SCT025 BKN033 OVC049 03/M02 A2960 RMK AO2 SNB55 SLP026 P0000 T00281022,M
NFL,2024-02-07 21:56,-118.7010,39.4166,1199.00,43.00,28.00,55.14,160.00,8.00,0.00,29.60,1000.90,10.00,M,SCT,BKN,BKN,M,4000.00,8000.00,11000.00,M,M,M,M,M,M,M,M,37.66,KNFL 072156Z 16008KT 10SM SCT040 BKN080 BKN110 06/M02 A2960 RMK AO2 SLP009 T00611022,M
HND,2024-02-07 21:56,-115.1344,35.9729,742.79,53.00,38.00,56.59,230.00,16.00,0.00,29.75,1009.10,10.00,21.00,BKN,M,M,M,5000.00,M,M,M,M,M,M,M,26.00,200.00,2024-02-07 21:22,53.00,KHND 072156Z 23016G21KT 10SM BKN050 12/03 A2975 RMK AO2 PK WND 20026/2122 SLP091 T01170033,M
TPH,2024-02-07 21:56,-117.0904,38.0505,1654.00,40.00,28.00,61.91,190.00,7.00,0.00,29.64,1003.00,10.00,M,SCT,BKN,BKN,M,2900.00,3500.00,4600.00,M,M,M,M,M,M,M,M,34.53,KTPH 072156Z AUTO 19007KT 160V220 10SM SCT029 BKN035 BKN046 04/M02 A2964 RMK AO2 SLP030 T00441022,M
LAS,2024-02-07 21:56,-115.1634,36.0719,663.00,53.00,37.00,54.41,210.00,14.00,0.00,29.72,1006.10,10.00,25.00,SCT,SCT,M,M,6000.00,9000.00,M,M,M,M,M,M,M,M,M,53.00,KLAS 072156Z 21014G25KT 10SM SCT060 SCT090 12/03 A2972 RMK AO2 SLP061 T01170028,M
WMC,2024-02-07 21:56,-117.8072,40.9019,1315.00,39.00,30.00,69.85,260.00,9.00,T,29.62,1003.00,10.00,M,FEW,BKN,OVC,M,3600.00,4900.00,6000.00,M,-RA,M,M,M,M,M,M,32.22,KWMC 072156Z AUTO 26009KT 10SM -RA FEW036 BKN049 OVC060 04/M01 A2962 RMK AO2 RAB08E28B50 SLP030 P0000 T00391011,M
ELY,2024-02-07 21:58,-114.8453,39.2950,1909.00,31.00,28.00,88.48,170.00,8.00,T,29.60,M,2.00,M,SCT,OVC,M,M,3100.00,4400.00,M,M,-SN BR,M,M,M,M,M,M,22.88,KELY 072158Z AUTO 17008KT 2SM -SN BR SCT031 OVC044 M01/M02 A2960 RMK AO2 P0000 T10061022,M
ELY,2024-02-07 22:07,-114.8453,39.2950,1909.00,31.00,27.00,84.92,190.00,9.00,T,29.61,M,4.00,M,SCT,BKN,OVC,M,3200.00,4600.00,5500.00,M,-SN BR,M,M,M,M,M,M,22.27,KELY 072207Z AUTO 19009KT 4SM -SN BR SCT032 BKN046 OVC055 M01/M03 A2961 RMK AO2 P0000 T10061028,M
EKO,2024-02-07 22:08,-115.7860,40.8242,1367.00,36.00,28.00,72.43,260.00,10.00,T,29.60,M,7.00,M,BKN,BKN,OVC,M,2200.00,2700.00,3300.00,M,-SN,M,M,M,M,M,M,27.98,KEKO 072208Z AUTO 26010KT 7SM -SN BKN022 BKN027 OVC033 02/M02 A2960 RMK AO2 P0000 T00221022,M
05U,2024-02-07 22:10,-116.0051,39.6042,1811.23,41.00,19.40,41.54,80.00,10.00,0.00,29.62,M,10.00,M,M,M,M,M,M,M,M,M,M,M,M,M,M,M,M,34.25,K05U 072210Z AUTO 08010KT 10SM 05/M07 A2962 RMK A01,M
ELY,2024-02-07 22:11,-114.8453,39.2950,1909.00,30.00,27.00,88.44,190.00,10.00,T,29.61,M,1.75,M,FEW,BKN,OVC,M,3200.00,4300.00,6500.00,M,-SN BR,M,M,M,M,M,M,20.46,KELY 072211Z AUTO 19010KT 1 3/4SM -SN BR FEW032 BKN043 OVC065 M01/M03 A2961 RMK AO2 P0000 T10111028,M
BVU,2024-02-07 22:15,-114.8611,35.9475,671.00,53.60,37.40,54.07,220.00,16.00,0.00,29.75,M,10.00,21.00,CLR,M,M,M,M,M,M,M,M,M,M,M,M,M,M,53.60,KBVU 072215Z AUTO 22016G21KT 10SM CLR 12/03 A2975 RMK AO2,M
CXP,2024-02-07 22:15,-119.7326,39.1923,1431.00,41.00,23.00,48.39,180.00,6.00,0.00,29.59,M,10.00,M,BKN,BKN,OVC,M,5000.00,6500.00,7000.00,M,M,M,M,M,M,M,M,36.37,KCXP 072215Z AUTO 18006KT 10SM BKN050 BKN065 OVC070 05/M05 A2959 RMK AO2,M
RTS,2024-02-07 22:15,-119.8764,39.6682,1539.00,37.40,23.00,55.68,300.00,10.00,0.00,29.59,M,10.00,M,CLR,M,M,M,M,M,M,M,M,M,M,M,M,M,M,29.74,KRTS 072215Z AUTO 30010KT 10SM CLR 03/M05 A2959 RMK AO2,M
MEV,2024-02-07 22:15,-119.7500,38.9963,1441.42,39.20,24.80,55.95,170.00,9.00,0.00,29.57,M,10.00,16.00,SCT,SCT,M,M,5500.00,6500.00,M,M,M,M,M,M,M,M,M,32.47,KMEV 072215Z AUTO 17009G16KT 10SM SCT055 SCT065 04/M04 A2957 RMK AO2,M
BAM,2024-02-07 22:15,-116.8743,40.5990,1382.36,41.00,32.00,70.08,0.00,0.00,0.00,29.62,M,10.00,M,SCT,BKN,M,M,6000.00,7000.00,M,M,M,M,M,M,M,M,M,41.00,KBAM 072215Z AUTO 00000KT 10SM SCT060 BKN070 05/00 A2962 RMK AO1,M
HTH,2024-02-07 22:15,-118.6315,38.5448,1282.89,46.40,23.00,39.36,170.00,8.00,0.00,29.58,M,10.00,M,CLR,M,M,M,M,M,M,M,M,M,M,M,M,M,M,41.85,KHTH 072215Z AUTO 17008KT 10SM CLR 08/M05 A2958 RMK A01,M
10U,2024-02-07 22:15,-116.1876,41.9532,1637.00,35.60,28.40,74.80,240.00,10.00,0.00,29.60,M,10.00,M,FEW,SCT,M,M,3100.00,3900.00,M,M,M,M,M,M,M,M,M,27.48,K10U 072215Z AUTO 24010KT 10SM FEW031 SCT039 02/M02 A2960 RMK AO2,M
TMT,2024-02-07 22:15,-117.1971,39.4643,1749.34,38.30,21.70,50.88,240.00,8.00,0.00,29.62,M,10.00,M,CLR,M,M,M,M,M,M,M,M,M,M,M,M,M,M,31.87,KTMT 072215Z AUTO 24008KT 10SM CLR 04/M06 A2962 RMK AO2 T00351057,M
ELY,2024-02-07 22:19,-114.8453,39.2950,1909.00,30.00,27.00,88.44,170.00,7.00,T,29.61,M,3.00,16.00,SCT,BKN,OVC,M,4100.00,5500.00,7000.00,M,-SN BR,M,M,M,M,M,M,22.34,KELY 072219Z AUTO 17007G16KT 3SM -SN BR SCT041 BKN055 OVC070 M01/M03 A2961 RMK AO2 P0000 T10111028,M
EKO,2024-02-07 22:22,-115.7860,40.8242,1367.00,35.00,28.00,75.36,250.00,10.00,T,29.61,M,1.75,M,BKN,BKN,OVC,M,1900.00,2400.00,3100.00,M,-SN,M,M,M,M,M,M,26.73,KEKO 072222Z AUTO 25010KT 1 3/4SM -SN BKN019 BKN024 OVC031 02/M02 A2961 RMK AO2 VIS 1/2V5 P0000 T00171022,M
WMC,2024-02-07 22:23,-117.8072,40.9019,1315.00,40.00,30.00,67.18,280.00,5.00,T,29.62,M,10.00,M,BKN,OVC,M,M,2400.00,3500.00,M,M,M,M,M,M,M,M,M,35.90,KWMC 072223Z AUTO 28005KT 10SM BKN024 OVC035 04/M01 A2962 RMK AO2 RAE02 P0000 T00441011,M
EKO,2024-02-07 22:28,-115.7860,40.8242,1367.00,33.00,29.00,85.04,250.00,7.00,T,29.61,M,0.50,M,SCT,BKN,OVC,M,900.00,1900.00,3100.00,M,SN FG,M,M,M,M,M,M,26.00,KEKO 072228Z AUTO 25007KT 1/2SM SN FG SCT009 BKN019 OVC031 01/M02 A2961 RMK AO2 P0000 T00061017,M
HTH,2024-02-07 22:30,-118.6315,38.5448,1282.89,46.40,19.40,33.79,210.00,12.00,0.00,29.58,M,10.00,M,CLR,M,M,M,M,M,M,M,M,M,M,M,M,M,M,40.33,KHTH 072230Z AUTO 21012KT 10SM CLR 08/M07 A2958 RMK A01,M
CXP,2024-02-07 22:35,-119.7326,39.1923,1431.00,41.00,23.00,48.39,M,5.00,0.00,29.60,M,10.00,M,FEW,BKN,BKN,M,4300.00,5000.00,6000.00,M,M,M,M,M,M,M,M,37.08,KCXP 072235Z AUTO VRB05KT 10SM FEW043 BKN050 BKN060 05/M05 A2960 RMK AO2,M
EKO,2024-02-07 22:35,-115.7860,40.8242,1367.00,33.00,30.00,88.58,240.00,5.00,T,29.61,M,0.50,M,BKN,BKN,OVC,M,900.00,1900.00,3100.00,M,SN FG,M,M,M,M,M,M,27.58,KEKO 072235Z AUTO 24005KT 1/2SM SN FG BKN009 BKN019 OVC031 01/M01 A2961 RMK AO2 P0000 T00061011,M
RTS,2024-02-07 22:35,-119.8764,39.6682,1539.00,37.40,23.00,55.68,310.00,4.00,0.00,29.59,M,10.00,M,SCT,BKN,M,M,4300.00,4900.00,M,M,M,M,M,M,M,M,M,33.73,KRTS 072235Z AUTO 31004KT 10SM SCT043 BKN049 03/M05 A2959 RMK AO2,M
05U,2024-02-07 22:35,-116.0051,39.6042,1811.23,39.20,19.40,44.55,M,4.00,0.00,29.62,M,10.00,M,M,M,M,M,M,M,M,M,M,M,M,M,M,M,M,35.83,K05U 072235Z AUTO VRB04KT 10SM 04/M07 A2962 RMK A01,M
MEV,2024-02-07 22:35,-119.7500,38.9963,1441.42,39.20,23.00,51.89,200.00,11.00,0.00,29.58,M,10.00,M,FEW,BKN,OVC,M,4400.00,5500.00,6500.00,M,M,M,M,M,M,M,M,31.57,KMEV 072235Z AUTO 20011KT 10SM FEW044 BKN055 OVC065 04/M05 A2958 RMK AO2,M
BAM,2024-02-07 22:35,-116.8743,40.5990,1382.36,41.00,30.20,65.16,0.00,0.00,0.00,29.63,M,10.00,M,SCT,SCT,BKN,M,6000.00,7000.00,8000.00,M,M,M,M,M,M,M,M,41.00,KBAM 072235Z AUTO 00000KT 10SM SCT060 SCT070 BKN080 05/M01 A2963 RMK AO1,M
10U,2024-02-07 22:35,-116.1876,41.9532,1637.00,37.40,28.40,69.67,M,6.00,0.00,29.60,M,10.00,15.00,CLR,M,M,M,M,M,M,M,M,M,M,M,M,M,M,32.03,K10U 072235Z AUTO VRB06G15KT 10SM CLR 03/M02 A2960 RMK AO2,M
TMT,2024-02-07 22:35,-117.1971,39.4643,1749.34,37.60,20.30,49.29,280.00,6.00,0.00,29.62,M,10.00,9.00,SCT,M,M,M,7500.00,M,M,M,M,M,M,M,M,M,M,32.27,KTMT 072235Z AUTO 28006G09KT 10SM SCT075 03/M06 A2962 RMK AO2 T00311065,M
BVU,2024-02-07 22:35,-114.8611,35.9475,671.00,53.60,37.40,54.07,230.00,15.00,0.00,29.76,M,10.00,M,FEW,FEW,M,M,4500.00,5000.00,M,M,M,M,M,M,M,M,M,53.60,KBVU 072235Z AUTO 23015KT 10SM FEW045 FEW050 12/03 A2976 RMK AO2,M
WMC,2024-02-07 22:45,-117.8072,40.9019,1315.00,39.00,30.00,69.85,270.00,4.00,T,29.63,M,10.00,M,SCT,OVC,M,M,2400.00,8500.00,M,M,M,M,M,M,M,M,M,35.59,KWMC 072245Z AUTO 27004KT 10SM SCT024 OVC085 04/M01 A2963 RMK AO2 RAE02 P0000 T00391011,M
DRA,2024-02-07 22:53,-116.0278,36.6206,1009.00,49.00,35.00,58.30,200.00,17.00,0.00,29.69,1004.30,10.00,26.00,CLR,M,M,M,M,M,M,M,M,M,M,M,29.00,200.00,2024-02-07 22:36,42.35,KDRA 072253Z AUTO 20017G26KT 10SM CLR 09/02 A2969 RMK AO2 PK WND 20029/2236 SLP043 T00940017,M
ELY,2024-02-07 22:53,-114.8453,39.2950,1909.00,33.00,28.00,81.63,170.00,7.00,T,29.61,1002.20,10.00,M,OVC,M,M,M,6500.00,M,M,M,M,M,M,M,M,M,M,26.00,KELY 072253Z AUTO 17007KT 10SM OVC065 01/M02 A2961 RMK AO2 SNE22 SLP022 P0000 T00061022,M
VGT,2024-02-07 22:53,-115.1933,36.2111,667.00,56.00,34.00,43.30,220.00,12.00,0.00,29.72,1007.80,10.00,18.00,BKN,OVC,M,M,6000.00,7500.00,M,M,M,M,M,M,M,M,M,56.00,KVGT 072253Z 22012G18KT 10SM BKN060 OVC075 13/01 A2972 RMK AO2 SLP078 T01330011,M
LOL,2024-02-07 22:53,-118.5701,40.0684,1192.43,40.00,31.00,69.97,190.00,9.00,0.00,29.62,1003.70,10.00,M,SCT,OVC,M,M,3500.00,4700.00,M,M,M,M,M,M,M,M,M,33.46,KLOL 072253Z AUTO 19009KT 10SM SCT035 OVC047 04/M01 A2962 RMK AO2 SLP037 T00441006,M
P68,2024-02-07 22:53,-116.0056,39.6014,1993.00,39.00,21.00,48.06,290.00,7.00,0.00,29.60,1000.70,M,M,M,M,M,M,M,M,M,M,M,M,M,M,M,M,M,33.31,KP68 072253Z AUTO 29007KT 04/M06 A2960 RMK AO1 SLP007 T00391061 $,M
EKO,2024-02-07 22:54,-115.7860,40.8242,1367.00,33.80,32.00,93.03,M,2.92,M,29.61,M,1.00,M,FEW,BKN,OVC,M,298.00,898.00,2299.00,M,-SN BR,M,M,M,M,M,M,30.86,SPECI KEKO 072254Z VRB03KT 1SM -SN BR FEW003 BKN009 OVC023 01/00 A2961 RMK AO2 P0002 FIBI,M
TMT,2024-02-07 22:55,-117.1971,39.4643,1749.34,37.40,21.60,52.49,280.00,7.00,0.00,29.62,M,10.00,M,SCT,SCT,SCT,M,6500.00,7500.00,9000.00,M,M,M,M,M,M,M,M,31.36,KTMT 072255Z AUTO 28007KT 10SM SCT065 SCT075 SCT090 03/M06 A2962 RMK AO2 T00301058,M
CXP,2024-02-07 22:55,-119.7326,39.1923,1431.00,39.20,24.80,55.95,0.00,0.00,0.00,29.61,M,4.00,10.00,SCT,SCT,BKN,M,2500.00,3000.00,3800.00,M,-RA HZ,M,M,M,M,M,M,39.20,KCXP 072255Z AUTO 00000G10KT 4SM -RA HZ SCT025 SCT030 BKN038 04/M04 A2961 RMK AO2,M
RNO,2024-02-07 22:55,-119.7711,39.4839,1341.00,44.00,22.00,41.34,310.00,8.00,0.00,29.57,1001.10,10.00,M,BKN,OVC,M,M,6000.00,13000.00,M,M,M,M,M,M,M,M,M,38.90,KRNO 072255Z 31008KT 10SM BKN060 OVC130 07/M06 A2957 RMK AO2 SLP011 MTN TOPS OBSCD DSNT SW T00671056,M
RTS,2024-02-07 22:55,-119.8764,39.6682,1539.00,37.40,24.80,60.04,260.00,4.00,0.00,29.60,M,10.00,M,FEW,SCT,OVC,M,2500.00,3900.00,4600.00,M,M,M,M,M,M,M,M,33.73,KRTS 072255Z AUTO 26004KT 10SM FEW025 SCT039 OVC046 03/M04 A2960 RMK AO2,M
05U,2024-02-07 22:55,-116.0051,39.6042,1811.23,41.00,19.40,41.54,80.00,9.00,0.00,29.63,M,10.00,M,M,M,M,M,M,M,M,M,M,M,M,M,M,M,M,34.70,K05U 072255Z AUTO 08009KT 10SM 05/M07 A2963 RMK A01,M
MEV,2024-02-07 22:55,-119.7500,38.9963,1441.42,39.20,23.00,51.89,200.00,10.00,0.00,29.58,M,10.00,15.00,BKN,M,M,M,6000.00,M,M,M,M,M,M,M,M,M,M,32.00,KMEV 072255Z AUTO 20010G15KT 10SM BKN060 04/M05 A2958 RMK AO2,M
BAM,2024-02-07 22:55,-116.8743,40.5990,1382.36,41.00,33.80,75.33,180.00,6.00,0.00,29.63,M,10.00,M,SCT,BKN,OVC,M,3100.00,6500.00,9000.00,M,M,M,M,M,M,M,M,36.37,KBAM 072255Z AUTO 18006KT 10SM SCT031 BKN065 OVC090 05/01 A2963 RMK AO1,M
HTH,2024-02-07 22:55,-118.6315,38.5448,1282.89,48.20,19.40,31.57,190.00,7.00,0.00,29.58,M,10.00,M,CLR,M,M,M,M,M,M,M,M,M,M,M,M,M,M,44.53,KHTH 072255Z AUTO 19007KT 10SM CLR 09/M07 A2958 RMK A01,M
INS,2024-02-07 22:55,-115.6733,36.5872,955.00,50.50,34.50,54.04,30.00,11.00,0.00,29.69,M,10.00,M,SCT,BKN,M,M,4900.00,7000.00,M,M,M,M,M,M,M,M,M,50.50,KINS 072255Z AUTO 03011KT 10SM SCT049 BKN070 10/01 A2969 RMK AO2 SLPNO T01030014 $,M
10U,2024-02-07 22:55,-116.1876,41.9532,1637.00,33.80,30.20,86.49,310.00,11.00,0.00,29.61,M,10.00,M,FEW,FEW,SCT,M,1700.00,4600.00,6500.00,M,M,M,M,M,M,M,M,24.74,K10U 072255Z AUTO 31011KT 10SM FEW017 FEW046 SCT065 01/M01 A2961 RMK AO2,M
LSV,2024-02-07 22:55,-115.0343,36.2362,570.00,55.00,36.00,48.62,220.00,20.00,0.00,29.70,M,10.00,24.00,BKN,BKN,M,M,5000.00,6500.00,M,M,M,M,M,M,26.00,230.00,2024-02-07 22:40,55.00,KLSV 072255Z AUTO 22020G24KT 10SM BKN050 BKN065 13/02 A2970 RMK AO2 PK WND 23026/40 SLPNO T01280023 $,M
WMC,2024-02-07 22:56,-117.8072,40.9019,1315.00,39.00,30.00,69.85,0.00,0.00,T,29.63,1003.40,10.00,M,SCT,OVC,M,M,6500.00,8500.00,M,M,M,M,M,M,M,M,M,39.00,KWMC 072256Z AUTO 00000KT 10SM SCT065 OVC085 04/M01 A2963 RMK AO2 RAE02 SLP034 P0000 T00391011,M
EKO,2024-02-07 22:56,-115.7860,40.8242,1367.00,35.00,32.00,88.68,160.00,4.00,0.02,29.61,1003.30,1.00,M,FEW,BKN,BKN,M,300.00,900.00,2300.00,M,-SN BR,M,M,M,M,M,M,30.92,KEKO 072256Z AUTO 16004KT 1SM -SN BR FEW003 BKN009 BKN023 02/00 A2961 RMK AO2 SLP033 P0002 T00170000,M
NFL,2024-02-07 22:56,-118.7010,39.4166,1199.00,43.00,31.00,62.31,110.00,11.00,0.00,29.60,1000.90,10.00,M,SCT,BKN,BKN,BKN,3000.00,5000.00,10000.00,25000.00,M,M,M,M,M,M,M,36.37,KNFL 072256Z 11011KT 10SM SCT030 BKN050 BKN100 BKN250 06/M01 A2960 RMK AO2 SLP009 SH DSNT N-NE AND SW T00611006,M
HND,2024-02-07 22:56,-115.1344,35.9729,742.79,52.00,35.00,52.15,230.00,16.00,0.00,29.76,1009.50,10.00,M,CLR,M,M,M,M,M,M,M,M,M,M,M,M,M,M,52.00,KHND 072256Z 23016KT 10SM CLR 11/02 A2976 RMK AO2 SLP095 T01110017,M
TPH,2024-02-07 22:56,-117.0904,38.0505,1654.00,40.00,29.00,64.50,190.00,13.00,0.00,29.64,1003.00,10.00,M,SCT,BKN,BKN,M,3500.00,4400.00,5000.00,M,M,M,M,M,26.00,180.00,2024-02-07 22:31,31.82,KTPH 072256Z AUTO 19013KT 10SM SCT035 BKN044 BKN050 04/M02 A2964 RMK AO2 PK WND 18026/2231 SLP030 T00441017,M
LAS,2024-02-07 22:56,-115.1634,36.0719,663.00,52.00,36.00,54.26,230.00,10.00,0.00,29.74,1006.70,10.00,18.00,SCT,SCT,M,M,6000.00,9000.00,M,M,M,M,M,M,M,M,M,52.00,KLAS 072256Z 23010G18KT 10SM SCT060 SCT090 11/02 A2974 RMK AO2 SLP067 T01110022,M
EKO,2024-02-07 22:59,-115.7860,40.8242,1367.00,35.00,32.00,88.68,160.00,4.00,T,29.61,M,2.50,M,FEW,BKN,BKN,M,300.00,1100.00,2300.00,M,-SN BR,M,M,M,M,M,M,30.92,KEKO 072259Z AUTO 16004KT 2 1/2SM -SN BR FEW003 BKN011 BKN023 02/00 A2961 RMK AO2 P0000 T00170000,M
EKO,2024-02-07 23:01,-115.7860,40.8242,1367.00,35.00,32.00,88.68,150.00,5.00,T,29.61,M,4.00,M,SCT,BKN,M,M,1100.00,2500.00,M,M,-SN BR,M,M,M,M,M,M,29.96,KEKO 072301Z AUTO 15005KT 4SM -SN BR SCT011 BKN025 02/00 A2961 RMK AO2 P0000 T00170000,M
BVU,2024-02-07 23:15,-114.8611,35.9475,671.00,53.60,35.60,50.36,220.00,13.00,0.00,29.75,M,10.00,M,SCT,SCT,M,M,5500.00,7000.00,M,M,M,M,M,M,M,M,M,53.60,KBVU 072315Z AUTO 22013KT 10SM SCT055 SCT070 12/02 A2975 RMK AO2,M
CXP,2024-02-07 23:15,-119.7326,39.1923,1431.00,39.20,24.80,55.95,0.00,0.00,0.00,29.61,M,10.00,M,FEW,FEW,FEW,M,2500.00,2900.00,4500.00,M,M,M,M,M,M,M,M,39.20,KCXP 072315Z AUTO 00000KT 10SM FEW025 FEW029 FEW045 04/M04 A2961 RMK AO2,M
RTS,2024-02-07 23:15,-119.8764,39.6682,1539.00,35.60,24.80,64.46,290.00,5.00,0.00,29.61,M,5.00,M,FEW,SCT,BKN,M,1600.00,2500.00,3800.00,M,-SN,M,M,M,M,M,M,30.67,KRTS 072315Z AUTO 29005KT 5SM -SN FEW016 SCT025 BKN038 02/M04 A2961 RMK AO2,M
05U,2024-02-07 23:15,-116.0051,39.6042,1811.23,41.00,19.40,41.54,70.00,6.00,0.00,29.63,M,10.00,12.00,M,M,M,M,M,M,M,M,M,M,M,M,M,M,M,36.37,K05U 072315Z AUTO 07006G12KT 10SM 05/M07 A2963 RMK A01,M
MEV,2024-02-07 23:15,-119.7500,38.9963,1441.42,39.20,24.80,55.95,220.00,7.00,0.00,29.58,M,10.00,12.00,BKN,M,M,M,6000.00,M,M,M,M,M,M,M,M,M,M,33.56,KMEV 072315Z AUTO 22007G12KT 10SM BKN060 04/M04 A2958 RMK AO2,M
BAM,2024-02-07 23:15,-116.8743,40.5990,1382.36,41.00,32.00,70.08,210.00,4.00,0.00,29.64,M,10.00,M,SCT,SCT,BKN,M,3100.00,5500.00,6500.00,M,M,M,M,M,M,M,M,37.93,KBAM 072315Z AUTO 21004KT 10SM SCT031 SCT055 BKN065 05/00 A2964 RMK AO1,M
HTH,2024-02-07 23:15,-118.6315,38.5448,1282.89,46.40,19.40,33.79,190.00,5.00,0.00,29.58,M,10.00,M,CLR,M,M,M,M,M,M,M,M,M,M,M,M,M,M,43.50,KHTH 072315Z AUTO 19005KT 10SM CLR 08/M07 A2958 RMK A01,M
10U,2024-02-07 23:15,-116.1876,41.9532,1637.00,32.00,28.40,86.39,320.00,7.00,0.00,29.61,M,10.00,M,FEW,OVC,M,M,4700.00,6000.00,M,M,M,M,M,M,M,M,M,24.78,K10U 072315Z AUTO 32007KT 10SM FEW047 OVC060 00/M02 A2961 RMK AO2,M
TMT,2024-02-07 23:15,-117.1971,39.4643,1749.34,36.70,21.60,53.96,260.00,6.00,0.00,29.62,M,10.00,M,BKN,M,M,M,6500.00,M,M,M,M,M,M,M,M,M,M,31.19,KTMT 072315Z AUTO 26006KT 10SM BKN065 03/M06 A2962 RMK AO2 T00261058,M
EKO,2024-02-07 23:18,-115.7860,40.8242,1367.00,36.00,32.00,85.23,150.00,5.00,T,29.61,M,10.00,M,FEW,BKN,M,M,2100.00,4100.00,M,M,M,M,M,M,M,M,M,31.15,KEKO 072318Z AUTO 15005KT 10SM FEW021 BKN041 02/00 A2961 RMK AO2 SNE03 P0000 T00220000,M
BVU,2024-02-07 23:35,-114.8611,35.9475,671.00,53.60,35.60,50.36,230.00,12.00,0.00,29.76,M,10.00,M,BKN,BKN,M,M,5500.00,6500.00,M,M,M,M,M,M,M,M,M,53.60,KBVU 072335Z AUTO 23012KT 10SM BKN055 BKN065 12/02 A2976 RMK AO2,M
CXP,2024-02-07 23:35,-119.7326,39.1923,1431.00,39.20,24.80,55.95,0.00,0.00,0.00,29.61,M,10.00,M,CLR,M,M,M,M,M,M,M,M,M,M,M,M,M,M,39.20,KCXP 072335Z AUTO 00000KT 10SM CLR 04/M04 A2961 RMK AO2,M
RTS,2024-02-07 23:35,-119.8764,39.6682,1539.00,33.80,26.60,74.63,20.00,6.00,0.00,29.61,M,7.00,M,FEW,M,M,M,2700.00,M,M,M,-SN,M,M,M,M,M,M,27.70,KRTS 072335Z AUTO 02006KT 7SM -SN FEW027 01/M03 A2961 RMK AO2,M
05U,2024-02-07 23:35,-116.0051,39.6042,1811.23,39.20,19.40,44.55,80.00,7.00,0.00,29.63,M,10.00,M,M,M,M,M,M,M,M,M,M,M,M,M,M,M,M,33.56,K05U 072335Z AUTO 08007KT 10SM 04/M07 A2963 RMK A01,M
MEV,2024-02-07 23:35,-119.7500,38.9963,1441.42,39.20,24.80,55.95,200.00,6.00,0.00,29.59,M,10.00,M,SCT,M,M,M,6000.00,M,M,M,M,M,M,M,M,M,M,34.20,KMEV 072335Z AUTO 20006KT 10SM SCT060 04/M04 A2959 RMK AO2,M
BAM,2024-02-07 23:35,-116.8743,40.5990,1382.36,41.00,32.00,70.08,240.00,10.00,0.00,29.64,M,10.00,15.00,SCT,SCT,BKN,M,5000.00,6500.00,7000.00,M,M,M,M,M,M,M,M,34.25,KBAM 072335Z AUTO 24010G15KT 10SM SCT050 SCT065 BKN070 05/00 A2964 RMK AO1,M
HTH,2024-02-07 23:35,-118.6315,38.5448,1282.89,46.40,24.80,42.44,M,3.00,0.00,29.58,M,10.00,10.00,SCT,M,M,M,11000.00,M,M,M,M,M,M,M,M,M,M,45.15,KHTH 072335Z AUTO VRB03G10KT 10SM SCT110 08/M04 A2958 RMK A01,M
10U,2024-02-07 23:35,-116.1876,41.9532,1637.00,32.00,28.40,86.39,310.00,6.00,0.00,29.62,M,10.00,M,FEW,OVC,M,M,3500.00,6000.00,M,M,M,M,M,M,M,M,M,25.53,K10U 072335Z AUTO 31006KT 10SM FEW035 OVC060 00/M02 A2962 RMK AO2,M
TMT,2024-02-07 23:35,-117.1971,39.4643,1749.34,36.50,21.40,53.93,270.00,4.00,0.00,29.63,M,10.00,M,SCT,BKN,OVC,M,4200.00,6500.00,7000.00,M,M,M,M,M,M,M,M,32.68,KTMT 072335Z AUTO 27004KT 10SM SCT042 BKN065 OVC070 03/M06 A2963 RMK AO2 T00251059,M
WMC,2024-02-07 23:42,-117.8072,40.9019,1315.00,37.00,31.00,78.69,0.00,0.00,T,29.64,M,9.00,M,BKN,OVC,M,M,2900.00,3900.00,M,M,-SN,M,M,M,M,M,M,37.00,KWMC 072342Z AUTO 00000KT 9SM -SN BKN029 OVC039 03/M01 A2964 RMK AO2 SNB24 P0000 T00281006,M
DRA,2024-02-07 23:53,-116.0278,36.6206,1009.00,48.00,34.00,58.16,190.00,14.00,0.00,29.70,1004.60,10.00,M,OVC,M,M,M,6500.00,M,M,M,M,M,M,M,28.00,210.00,2024-02-07 23:14,41.79,KDRA 072353Z AUTO 19014KT 10SM OVC065 09/01 A2970 RMK AO2 PK WND 21028/2314 SLP046 T00890011 10100 20056 55009,M
ELY,2024-02-07 23:53,-114.8453,39.2950,1909.00,33.00,26.00,75.17,310.00,9.00,T,29.63,1002.60,9.00,14.00,FEW,SCT,OVC,M,2000.00,3500.00,7000.00,M,M,M,M,M,M,M,M,24.76,KELY 072353Z AUTO 31009G14KT 9SM FEW020 SCT035 OVC070 01/M03 A2963 RMK AO2 SNB37E51 SLP026 P0000 60005 T00061033 10028 21011 53008,M
VGT,2024-02-07 23:53,-115.1933,36.2111,667.00,55.00,35.00,46.73,210.00,15.00,0.00,29.72,1007.80,10.00,M,FEW,FEW,M,M,5000.00,7000.00,M,M,M,M,M,M,33.00,200.00,2024-02-07 23:14,55.00,KVGT 072353Z 21015KT 10SM FEW050 FEW070 13/02 A2972 RMK AO2 PK WND 20033/2314 SLP078 T01280017 10139 20100 50000,M
LOL,2024-02-07 23:53,-118.5701,40.0684,1192.43,37.00,34.00,88.78,100.00,4.00,0.00,29.63,1004.50,10.00,M,FEW,OVC,M,M,5000.00,7500.00,M,M,M,M,M,M,M,M,M,33.26,KLOL 072353Z AUTO 10004KT 10SM FEW050 OVC075 03/01 A2963 RMK AO2 SLP045 60000 T00280011 10050 20011 53002,M
P68,2024-02-07 23:53,-116.0056,39.6014,1993.00,37.00,21.00,51.99,280.00,6.00,0.00,29.61,1001.50,M,M,M,M,M,M,M,M,M,M,M,M,M,M,M,M,M,31.55,KP68 072353Z AUTO 28006KT 03/M06 A2961 RMK AO1 SLP015 T00281061 10050 20011 53007 $,M
BVU,2024-02-07 23:55,-114.8611,35.9475,671.00,53.60,37.40,54.07,170.00,8.00,0.00,29.75,M,10.00,M,OVC,M,M,M,5500.00,M,M,M,M,M,M,M,M,M,M,53.60,KBVU 072355Z AUTO 17008KT 10SM OVC055 12/03 A2975 RMK AO2,M
CXP,2024-02-07 23:55,-119.7326,39.1923,1431.00,39.20,24.80,55.95,80.00,3.00,0.00,29.61,M,10.00,M,SCT,SCT,M,M,4800.00,5500.00,M,M,M,M,M,M,M,M,M,36.92,KCXP 072355Z AUTO 08003KT 10SM SCT048 SCT055 04/M04 A2961 RMK AO2,M
RNO,2024-02-07 23:55,-119.7711,39.4839,1341.00,41.00,26.00,54.84,300.00,7.00,T,29.60,1002.30,10.00,M,BKN,BKN,M,M,5000.00,13000.00,M,M,-RA,M,M,M,M,M,M,35.75,KRNO 072355Z 30007KT 10SM -RA BKN050 BKN130 05/M03 A2960 RMK AO2 RAB47 SLP023 MTN TOPS OBSCD DSNT SW THRU NW P0000 60000 T00501033 10072 20022 53007,M
RTS,2024-02-07 23:55,-119.8764,39.6682,1539.00,33.80,28.40,80.36,20.00,6.00,0.00,29.62,M,10.00,M,FEW,SCT,BKN,M,2600.00,3000.00,3600.00,M,M,M,M,M,M,M,M,27.70,KRTS 072355Z AUTO 02006KT 10SM FEW026 SCT030 BKN036 01/M02 A2962 RMK AO2,M
05U,2024-02-07 23:55,-116.0051,39.6042,1811.23,39.20,21.20,48.10,90.00,7.00,0.00,29.64,M,10.00,M,M,M,M,M,M,M,M,M,M,M,M,M,M,M,M,33.56,K05U 072355Z AUTO 09007KT 10SM 04/M06 A2964 RMK A01,M
MEV,2024-02-07 23:55,-119.7500,38.9963,1441.42,37.40,24.80,60.04,180.00,6.00,0.00,29.59,M,10.00,M,FEW,M,M,M,5500.00,M,M,M,M,M,M,M,M,M,M,32.03,KMEV 072355Z AUTO 18006KT 10SM FEW055 03/M04 A2959 RMK AO2,M
BAM,2024-02-07 23:55,-116.8743,40.5990,1382.36,41.00,32.00,70.08,250.00,8.00,0.00,29.65,M,10.00,M,SCT,OVC,M,M,6500.00,7000.00,M,M,M,M,M,M,M,M,M,35.20,KBAM 072355Z AUTO 25008KT 10SM SCT065 OVC070 05/00 A2965 RMK AO1,M
HTH,2024-02-07 23:55,-118.6315,38.5448,1282.89,46.40,21.20,36.48,210.00,10.00,0.00,29.58,M,10.00,M,BKN,M,M,M,10000.00,M,M,M,M,M,M,M,M,M,M,41.03,KHTH 072355Z AUTO 21010KT 10SM BKN100 08/M06 A2958 RMK A01,M
TMT,2024-02-07 23:55,-117.1971,39.4643,1749.34,36.50,21.60,54.39,270.00,3.00,0.00,29.63,M,10.00,M,BKN,OVC,M,M,4600.00,5500.00,M,M,M,M,M,M,M,M,M,33.83,KTMT 072355Z AUTO 27003KT 10SM BKN046 OVC055 03/M06 A2963 RMK AO2 T00251058 10041 20015,M
10U,2024-02-07 23:55,-116.1876,41.9532,1637.00,33.80,28.40,80.36,310.00,5.00,0.00,29.62,M,10.00,M,FEW,SCT,OVC,M,3300.00,4900.00,5500.00,M,M,M,M,M,M,M,M,28.53,K10U 072355Z AUTO 31005KT 10SM FEW033 SCT049 OVC055 01/M02 A2962 RMK AO2,M
INS,2024-02-07 23:55,-115.6733,36.5872,955.00,49.60,35.00,57.01,120.00,8.00,0.00,29.71,M,10.00,M,BKN,BKN,M,M,6000.00,7500.00,M,M,M,M,M,M,M,M,M,45.79,KINS 072355Z AUTO 12008KT 10SM BKN060 BKN075 10/02 A2971 RMK AO2 SLPNO T00980017 10117 20079 53001 $,M
LSV,2024-02-07 23:55,-115.0343,36.2362,570.00,56.00,35.00,45.06,200.00,11.00,0.00,29.70,M,10.00,M,CLR,M,M,M,M,M,M,M,M,M,M,M,M,M,M,56.00,KLSV 072355Z AUTO 20011KT 10SM CLR 13/02 A2970 RMK AO2 SLPNO T01330016 10136 20105 53003 $,M
EKO,2024-02-07 23:56,-115.7860,40.8242,1367.00,37.00,31.00,78.69,210.00,7.00,T,29.62,1003.20,10.00,M,CLR,M,M,M,M,M,M,M,M,M,M,M,M,M,M,30.87,KEKO 072356Z AUTO 21007KT 10SM CLR 03/M01 A2962 RMK AO2 SNE03 SLP032 P0000 60002 T00281006 10028 20006 51005,M
NFL,2024-02-07 23:56,-118.7010,39.4166,1199.00,43.00,30.00,59.83,120.00,9.00,0.00,29.60,1000.80,10.00,M,SCT,BKN,BKN,BKN,3000.00,5000.00,10000.00,25000.00,M,M,M,M,M,M,M,37.19,KNFL 072356Z 12009KT 10SM SCT030 BKN050 BKN100 BKN250 06/M01 A2960 RMK AO2 SLP008 SH DSNT N-NE AND SW 6//// T00611011 10078 20056 56005,M
HND,2024-02-07 23:56,-115.1344,35.9729,742.79,52.00,36.00,54.26,180.00,9.00,0.00,29.76,1009.40,10.00,21.00,SCT,M,M,M,5000.00,M,M,M,M,M,M,M,M,M,M,52.00,KHND 072356Z 18009G21KT 10SM SCT050 11/02 A2976 RMK AO2 SLP094 T01110022 10117 20078 52001,M
TPH,2024-02-07 23:56,-117.0904,38.0505,1654.00,38.00,31.00,75.65,170.00,18.00,0.00,29.64,1003.40,10.00,25.00,SCT,BKN,BKN,M,2400.00,3800.00,5000.00,M,M,M,M,M,M,M,M,27.65,KTPH 072356Z AUTO 17018G25KT 10SM SCT024 BKN038 BKN050 03/M01 A2964 RMK AO2 SLP034 T00331006 10050 20017 56005,M
LAS,2024-02-07 23:56,-115.1634,36.0719,663.00,53.00,35.00,50.27,190.00,10.00,0.00,29.73,1006.50,10.00,15.00,SCT,SCT,SCT,M,6000.00,9000.00,16000.00,M,M,M,M,M,M,M,M,53.00,KLAS 072356Z 19010G15KT 10SM SCT060 SCT090 SCT160 12/02 A2973 RMK AO2 SLP065 T01170017 10122 20089 52002,M
WMC,2024-02-07 23:56,-117.8072,40.9019,1315.00,37.00,31.00,78.69,0.00,0.00,T,29.64,1003.90,10.00,M,BKN,BKN,OVC,M,3200.00,4700.00,7000.00,M,M,M,M,M,M,M,M,37.00,KWMC 072356Z AUTO 00000KT 10SM BKN032 BKN047 OVC070 03/M01 A2964 RMK AO2 SNB24E43 SLP039 P0000 60000 T00281006 10056 20022 53006,M
