station,valid,lon,lat,elevation,tmpf,dwpf,relh,drct,sknt,p01i,alti,mslp,vsby,gust,skyc1,skyc2,skyc3,skyc4,skyl1,skyl2,skyl3,skyl4,wxcodes,ice_accretion_1hr,ice_accretion_3hr,ice_accretion_6hr,peak_wind_gust,peak_wind_drct,peak_wind_time,feel,metar,snowdepth
BVU,2024-03-15 00:15,-114.8611,35.9475,671.00,57.20,24.80,28.48,90.00,9.00,0.00,29.82,M,10.00,M,FEW,SCT,M,M,6000.00,10000.00,M,M,M,M,M,M,M,M,M,57.20,KBVU 150015Z AUTO 09009KT 10SM FEW060 SCT100 14/M04 A2982 RMK AO2,M
CXP,2024-03-15 00:15,-119.7326,39.1923,1431.00,48.20,15.80,27.04,30.00,14.00,0.00,30.11,M,10.00,23.00,FEW,M,M,M,6500.00,M,M,M,M,M,M,M,M,M,M,42.04,KCXP 150015Z AUTO 03014G23KT 10SM FEW065 09/M09 A3011 RMK AO2,M
RTS,2024-03-15 00:15,-119.8764,39.6682,1539.00,44.60,15.80,30.98,50.00,13.00,0.00,30.14,M,10.00,19.00,CLR,M,M,M,M,M,M,M,M,M,M,M,M,M,M,37.71,KRTS 150015Z AUTO 05013G19KT 10SM CLR 07/M09 A3014 RMK AO2,M
MEV,2024-03-15 00:15,-119.7500,38.9963,1441.42,48.20,14.00,24.99,10.00,13.00,0.00,30.09,M,10.00,24.00,CLR,M,M,M,M,M,M,M,M,M,M,M,M,M,M,42.32,KMEV 150015Z AUTO 01013G24KT 10SM CLR 09/M10 A3009 RMK AO2,M
HTH,2024-03-15 00:15,-118.6315,38.5448,1282.89,48.20,19.40,31.57,330.00,19.00,0.00,30.08,M,10.00,27.00,BKN,M,M,M,7500.00,M,M,M,M,M,M,M,M,M,M,40.86,KHTH 150015Z AUTO 33019G27KT 10SM BKN075 09/M07 A3008 RMK A01,M
10U,2024-03-15 00:15,-116.1876,41.9532,1637.00,41.00,21.20,44.85,30.00,13.00,0.00,30.19,M,10.00,18.00,CLR,M,M,M,M,M,M,M,M,M,M,M,M,M,M,33.10,K10U 150015Z AUTO 03013G18KT 10SM CLR 05/M06 A3019 RMK AO2,M
TMT,2024-03-15 00:15,-117.1971,39.4643,1749.34,39.20,21.00,47.69,30.00,16.00,0.00,30.09,M,10.00,20.00,SCT,M,M,M,5000.00,M,M,M,M,M,M,M,M,M,M,29.80,KTMT 150015Z AUTO 03016G20KT 10SM SCT050 04/M06 A3009 RMK AO2 T00401061,M
BVU,2024-03-15 00:35,-114.8611,35.9475,671.00,57.20,24.80,28.48,90.00,14.00,0.00,29.82,M,10.00,20.00,BKN,M,M,M,10000.00,M,M,M,M,M,M,M,M,M,M,57.20,KBVU 150035Z AUTO 09014G20KT 10SM BKN100 14/M04 A2982 RMK AO2,M
CXP,2024-03-15 00:35,-119.7326,39.1923,1431.00,48.20,15.80,27.04,40.00,14.00,0.00,30.11,M,10.00,21.00,CLR,M,M,M,M,M,M,M,M,M,M,M,M,M,M,42.04,KCXP 150035Z AUTO 04014G21KT 10SM CLR 09/M09 A3011 RMK AO2,M
RTS,2024-03-15 00:35,-119.8764,39.6682,1539.00,44.60,15.80,30.98,50.00,10.00,0.00,30.14,M,10.00,16.00,CLR,M,M,M,M,M,M,M,M,M,M,M,M,M,M,38.77,KRTS 150035Z AUTO 05010G16KT 10SM CLR 07/M09 A3014 RMK AO2,M
MEV,2024-03-15 00:35,-119.7500,38.9963,1441.42,48.20,15.80,27.04,40.00,19.00,0.00,30.09,M,10.00,M,FEW,M,M,M,7000.00,M,M,M,M,M,M,M,M,M,M,40.86,KMEV 150035Z AUTO 04019KT 10SM FEW070 09/M09 A3009 RMK AO2,M
HTH,2024-03-15 00:35,-118.6315,38.5448,1282.89,48.20,19.40,31.57,350.00,16.00,0.00,30.07,M,10.00,24.00,FEW,BKN,M,M,6500.00,7500.00,M,M,M,M,M,M,M,M,M,41.53,KHTH 150035Z AUTO 35016G24KT 10SM FEW065 BKN075 09/M07 A3007 RMK A01,M
10U,2024-03-15 00:35,-116.1876,41.9532,1637.00,41.00,19.40,41.54,40.00,12.00,0.00,30.19,M,10.00,M,CLR,M,M,M,M,M,M,M,M,M,M,M,M,M,M,33.46,K10U 150035Z AUTO 04012KT 10SM CLR 05/M07 A3019 RMK AO2,M
TMT,2024-03-15 00:35,-117.1971,39.4643,1749.34,39.20,21.20,48.10,30.00,16.00,0.00,30.09,M,10.00,M,SCT,M,M,M,5000.00,M,M,M,M,M,M,M,M,M,M,29.80,KTMT 150035Z AUTO 03016KT 10SM SCT050 04/M06 A3009 RMK AO2 T00401060,M
DRA,2024-03-15 00:53,-116.0278,36.6206,1009.00,56.00,17.00,21.36,60.00,22.00,0.00,29.82,1008.50,10.00,30.00,CLR,M,M,M,M,M,M,M,M,M,M,M,31.00,40.00,2024-03-15 00:11,56.00,KDRA 150053Z AUTO 06022G30KT 10SM CLR 13/M08 A2982 RMK AO2 PK WND 04031/0011 SLP085 T01331083,M
ELY,2024-03-15 00:53,-114.8453,39.2950,1909.00,37.00,25.00,61.50,20.00,16.00,0.00,30.03,1017.90,10.00,24.00,FEW,SCT,OVC,M,3200.00,4300.00,6000.00,M,M,M,M,M,M,M,M,26.94,KELY 150053Z AUTO 02016G24KT 10SM FEW032 SCT043 OVC060 03/M04 A3003 RMK AO2 SLP179 T00281039,M
VGT,2024-03-15 00:53,-115.1933,36.2111,667.00,61.00,21.00,21.19,60.00,14.00,0.00,29.80,1010.50,10.00,24.00,OVC,M,M,M,9500.00,M,M,M,M,M,M,M,29.00,60.00,2024-03-15 00:24,61.00,KVGT 150053Z 06014G24KT 10SM OVC095 16/M06 A2980 RMK AO2 PK WND 06029/0024 SLP105 T01611061,M
LOL,2024-03-15 00:53,-118.5701,40.0684,1192.43,51.00,20.00,29.18,20.00,19.00,0.00,30.10,1019.90,10.00,26.00,FEW,M,M,M,7000.00,M,M,M,M,M,M,M,30.00,40.00,2024-03-15 00:03,51.00,KLOL 150053Z AUTO 02019G26KT 10SM FEW070 11/M07 A3010 RMK AO2 PK WND 04030/0003 SLP199 T01061067,M
BVU,2024-03-15 00:55,-114.8611,35.9475,671.00,57.20,24.80,28.48,30.00,12.00,0.00,29.81,M,10.00,M,FEW,SCT,M,M,4100.00,10000.00,M,M,M,M,M,M,M,M,M,57.20,KBVU 150055Z AUTO 03012KT 10SM FEW041 SCT100 14/M04 A2981 RMK AO2,M
CXP,2024-03-15 00:55,-119.7326,39.1923,1431.00,48.20,15.80,27.04,50.00,15.00,0.00,30.11,M,10.00,20.00,CLR,M,M,M,M,M,M,M,M,M,M,M,M,M,M,41.78,KCXP 150055Z AUTO 05015G20KT 10SM CLR 09/M09 A3011 RMK AO2,M
RNO,2024-03-15 00:55,-119.7711,39.4839,1341.00,49.00,17.00,27.64,40.00,11.00,0.00,30.11,1019.40,10.00,M,FEW,M,M,M,7000.00,M,M,M,M,M,M,M,M,M,M,43.95,KRNO 150055Z 04011KT 10SM FEW070 09/M08 A3011 RMK AO2 SLP194 T00941083,M
RTS,2024-03-15 00:55,-119.8764,39.6682,1539.00,44.60,15.80,30.98,50.00,11.00,0.00,30.14,M,10.00,16.00,CLR,M,M,M,M,M,M,M,M,M,M,M,M,M,M,38.39,KRTS 150055Z AUTO 05011G16KT 10SM CLR 07/M09 A3014 RMK AO2,M
MEV,2024-03-15 00:55,-119.7500,38.9963,1441.42,48.20,15.80,27.04,40.00,10.00,0.00,30.09,M,10.00,20.00,BKN,BKN,M,M,7000.00,8000.00,M,M,M,M,M,M,M,M,M,43.28,KMEV 150055Z AUTO 04010G20KT 10SM BKN070 BKN080 09/M09 A3009 RMK AO2,M
HTH,2024-03-15 00:55,-118.6315,38.5448,1282.89,48.20,17.60,29.23,350.00,13.00,0.00,30.06,M,10.00,26.00,FEW,SCT,M,M,7000.00,8000.00,M,M,M,M,M,M,M,M,M,42.32,KHTH 150055Z AUTO 35013G26KT 10SM FEW070 SCT080 09/M08 A3006 RMK A01,M
TMT,2024-03-15 00:55,-117.1971,39.4643,1749.34,39.70,22.00,48.79,20.00,15.00,0.00,30.08,M,10.00,M,BKN,M,M,M,5000.00,M,M,M,M,M,M,M,M,M,M,30.76,KTMT 150055Z AUTO 02015KT 10SM BKN050 04/M06 A3008 RMK AO2 T00431056,M
INS,2024-03-15 00:55,-115.6733,36.5872,955.00,56.00,15.40,19.93,30.00,15.00,0.00,29.85,1009.30,10.00,M,BKN,M,M,M,11000.00,M,M,M,M,M,M,M,32.00,30.00,2024-03-15 00:19,56.00,KINS 150055Z AUTO 03015KT 10SM BKN110 13/M09 A2985 RMK AO2 PK WND 03032/19 SLP093 T01331092 $,M
LSV,2024-03-15 00:55,-115.0343,36.2362,570.00,62.00,18.00,18.00,50.00,21.00,0.00,29.78,M,10.00,27.00,CLR,M,M,M,M,M,M,M,M,M,M,M,30.00,30.00,2024-03-15 00:00,62.00,KLSV 150055Z AUTO 05021G27KT 10SM CLR 17/M08 A2978 RMK AO2 PK WND 03030/00 SLPNO T01661078 $,M
10U,2024-03-15 00:55,-116.1876,41.9532,1637.00,41.00,21.20,44.85,50.00,11.00,0.00,30.20,M,10.00,M,CLR,M,M,M,M,M,M,M,M,M,M,M,M,M,M,33.84,K10U 150055Z AUTO 05011KT 10SM CLR 05/M06 A3020 RMK AO2,M
EKO,2024-03-15 00:56,-115.7860,40.8242,1367.00,44.00,21.00,39.62,30.00,16.00,0.00,30.10,1020.10,10.00,M,CLR,M,M,M,M,M,M,M,M,M,M,M,30.00,20.00,2024-03-15 00:09,36.06,KEKO 150056Z AUTO 03016KT 10SM CLR 07/M06 A3010 RMK AO2 PK WND 02030/0009 SLP201 T00671061,M
WMC,2024-03-15 00:56,-117.8072,40.9019,1315.00,50.00,19.00,29.02,50.00,19.00,0.00,30.12,1020.50,10.00,28.00,CLR,M,M,M,M,M,M,M,M,M,M,M,28.00,40.00,2024-03-15 00:52,50.00,KWMC 150056Z AUTO 05019G28KT 10SM CLR 10/M07 A3012 RMK AO2 PK WND 04028/0052 SLP205 T01001072,M
NFL,2024-03-15 00:56,-118.7010,39.4166,1199.00,50.00,19.00,29.02,30.00,18.00,0.00,30.08,1015.50,10.00,26.00,SCT,SCT,SCT,M,5000.00,10000.00,25000.00,M,M,M,M,M,26.00,10.00,2024-03-15 00:47,50.00,KNFL 150056Z 03018G26KT 10SM SCT050 SCT100 SCT250 10/M07 A3008 RMK AO2 PK WND 01026/0047 SLP155 T01001072,M
HND,2024-03-15 00:56,-115.1344,35.9729,742.79,57.00,24.00,27.75,60.00,10.00,0.00,29.84,1011.80,10.00,18.00,SCT,OVC,M,M,7000.00,8500.00,M,M,M,M,M,M,M,M,M,57.00,KHND 150056Z 06010G18KT 10SM SCT070 OVC085 14/M04 A2984 RMK AO2 SLP118 T01391044,M
TPH,2024-03-15 00:56,-117.0904,38.0505,1654.00,46.00,16.00,29.63,30.00,18.00,0.00,29.98,1015.30,10.00,M,BKN,OVC,M,M,8000.00,9000.00,M,M,M,M,M,M,M,M,M,38.18,KTPH 150056Z AUTO 03018KT 10SM BKN080 OVC090 08/M09 A2998 RMK AO2 SLP153 T00781089,M
LAS,2024-03-15 00:56,-115.1634,36.0719,663.00,57.00,24.00,27.75,70.00,14.00,0.00,29.82,1009.30,10.00,M,BKN,BKN,BKN,M,8500.00,14000.00,25000.00,M,M,M,M,M,36.00,30.00,2024-03-15 00:20,57.00,KLAS 150056Z 07014KT 10SM BKN085 BKN140 BKN250 14/M04 A2982 RMK AO2 PK WND 03036/0020 SLP093 VIRGA OHD-ALQDS T01391044,M
BVU,2024-03-15 01:15,-114.8611,35.9475,671.00,57.20,26.60,30.69,50.00,10.00,0.00,29.82,M,10.00,16.00,BKN,BKN,M,M,8000.00,9000.00,M,M,M,M,M,M,M,M,M,57.20,KBVU 150115Z AUTO 05010G16KT 10SM BKN080 BKN090 14/M03 A2982 RMK AO2,M
CXP,2024-03-15 01:15,-119.7326,39.1923,1431.00,46.40,15.80,28.93,60.00,15.00,0.00,30.11,M,10.00,22.00,CLR,M,M,M,M,M,M,M,M,M,M,M,M,M,M,39.45,KCXP 150115Z AUTO 06015G22KT 10SM CLR 08/M09 A3011 RMK AO2,M
RTS,2024-03-15 01:15,-119.8764,39.6682,1539.00,44.60,14.00,28.64,40.00,5.00,0.00,30.13,M,10.00,M,BKN,M,M,M,6500.00,M,M,M,M,M,M,M,M,M,M,41.36,KRTS 150115Z AUTO 04005KT 10SM BKN065 07/M10 A3013 RMK AO2,M
MEV,2024-03-15 01:15,-119.7500,38.9963,1441.42,46.40,15.80,28.93,40.00,15.00,0.00,30.09,M,10.00,M,BKN,M,M,M,7000.00,M,M,M,M,M,M,M,M,M,M,39.45,KMEV 150115Z AUTO 04015KT 10SM BKN070 08/M09 A3009 RMK AO2,M
HTH,2024-03-15 01:15,-118.6315,38.5448,1282.89,46.40,19.40,33.79,340.00,15.00,0.00,30.07,M,10.00,22.00,BKN,BKN,M,M,7000.00,8000.00,M,M,M,M,M,M,M,M,M,39.45,KHTH 150115Z AUTO 34015G22KT 10SM BKN070 BKN080 08/M07 A3007 RMK A01,M
10U,2024-03-15 01:15,-116.1876,41.9532,1637.00,39.20,21.20,48.10,30.00,9.00,0.00,30.20,M,10.00,M,CLR,M,M,M,M,M,M,M,M,M,M,M,M,M,M,32.47,K10U 150115Z AUTO 03009KT 10SM CLR 04/M06 A3020 RMK AO2,M
TMT,2024-03-15 01:15,-117.1971,39.4643,1749.34,39.20,22.00,49.75,30.00,14.00,0.00,30.08,M,10.00,20.00,BKN,M,M,M,5000.00,M,M,M,M,M,M,M,M,M,M,30.44,KTMT 150115Z AUTO 03014G20KT 10SM BKN050 04/M05 A3008 RMK AO2 T00401055,M
BVU,2024-03-15 01:35,-114.8611,35.9475,671.00,57.20,24.80,28.48,50.00,7.00,0.00,29.82,M,10.00,14.00,BKN,BKN,M,M,8000.00,10000.00,M,M,M,M,M,M,M,M,M,57.20,KBVU 150135Z AUTO 05007G14KT 10SM BKN080 BKN100 14/M04 A2982 RMK AO2,M
CXP,2024-03-15 01:35,-119.7326,39.1923,1431.00,46.40,15.80,28.93,50.00,16.00,0.00,30.10,M,10.00,M,CLR,M,M,M,M,M,M,M,M,M,M,M,M,M,M,39.19,KCXP 150135Z AUTO 05016KT 10SM CLR 08/M09 A3010 RMK AO2,M
RTS,2024-03-15 01:35,-119.8764,39.6682,1539.00,42.80,14.00,30.68,0.00,0.00,0.00,30.12,M,10.00,M,SCT,M,M,M,6500.00,M,M,M,M,M,M,M,M,M,M,42.80,KRTS 150135Z AUTO 00000KT 10SM SCT065 06/M10 A3012 RMK AO2,M
MEV,2024-03-15 01:35,-119.7500,38.9963,1441.42,46.40,15.80,28.93,10.00,14.00,0.00,30.09,M,10.00,M,BKN,M,M,M,7000.00,M,M,M,M,M,M,M,M,M,M,39.72,KMEV 150135Z AUTO 01014KT 10SM BKN070 08/M09 A3009 RMK AO2,M
HTH,2024-03-15 01:35,-118.6315,38.5448,1282.89,46.40,19.40,33.79,350.00,16.00,0.00,30.07,M,10.00,21.00,OVC,M,M,M,7000.00,M,M,M,M,M,M,M,M,M,M,39.19,KHTH 150135Z AUTO 35016G21KT 10SM OVC070 08/M07 A3007 RMK A01,M
10U,2024-03-15 01:35,-116.1876,41.9532,1637.00,37.40,21.20,51.61,30.00,7.00,0.00,30.20,M,10.00,M,CLR,M,M,M,M,M,M,M,M,M,M,M,M,M,M,31.36,K10U 150135Z AUTO 03007KT 10SM CLR 03/M06 A3020 RMK AO2,M
TMT,2024-03-15 01:35,-117.1971,39.4643,1749.34,39.00,23.00,52.30,20.00,15.00,0.00,30.08,M,10.00,M,BKN,M,M,M,5000.00,M,M,M,M,M,M,M,M,M,M,29.85,KTMT 150135Z AUTO 02015KT 10SM BKN050 04/M05 A3008 RMK AO2 T00381051,M
DRA,2024-03-15 01:53,-116.0278,36.6206,1009.00,53.00,19.00,25.98,30.00,19.00,0.00,29.84,1009.00,10.00,29.00,CLR,M,M,M,M,M,M,M,M,M,M,M,34.00,30.00,2024-03-15 01:39,53.00,KDRA 150153Z AUTO 03019G29KT 10SM CLR 12/M07 A2984 RMK AO2 PK WND 03034/0139 SLP090 T01171072,M
ELY,2024-03-15 01:53,-114.8453,39.2950,1909.00,35.00,21.00,56.27,30.00,16.00,0.00,30.01,1017.60,10.00,M,OVC,M,M,M,9500.00,M,M,M,M,M,M,M,M,M,M,24.33,KELY 150153Z AUTO 03016KT 10SM OVC095 02/M06 A3001 RMK AO2 SLP176 T00171061,M
VGT,2024-03-15 01:53,-115.1933,36.2111,667.00,60.00,22.00,22.91,40.00,13.00,0.00,29.82,1011.10,10.00,25.00,BKN,OVC,M,M,9000.00,10000.00,M,M,M,M,M,M,32.00,80.00,2024-03-15 01:15,60.00,KVGT 150153Z 04013G25KT 10SM BKN090 OVC100 16/M06 A2982 RMK AO2 PK WND 08032/0115 SLP111 T01561056,M
LOL,2024-03-15 01:53,-118.5701,40.0684,1192.43,48.00,21.00,34.05,20.00,12.00,0.00,30.10,1020.20,10.00,21.00,CLR,M,M,M,M,M,M,M,M,M,M,M,26.00,40.00,2024-03-15 01:07,42.37,KLOL 150153Z AUTO 02012G21KT 10SM CLR 09/M06 A3010 RMK AO2 PK WND 04026/0107 SLP202 T00891061,M
BVU,2024-03-15 01:55,-114.8611,35.9475,671.00,55.40,24.80,30.40,30.00,7.00,0.00,29.82,M,10.00,M,BKN,OVC,M,M,7500.00,9500.00,M,M,M,M,M,M,M,M,M,55.40,KBVU 150155Z AUTO 03007KT 10SM BKN075 OVC095 13/M04 A2982 RMK AO2,M
CXP,2024-03-15 01:55,-119.7326,39.1923,1431.00,46.40,15.80,28.93,30.00,14.00,0.00,30.10,M,10.00,M,SCT,SCT,M,M,6000.00,7000.00,M,M,M,M,M,M,M,M,M,39.72,KCXP 150155Z AUTO 03014KT 10SM SCT060 SCT070 08/M09 A3010 RMK AO2,M
INS,2024-03-15 01:55,-115.6733,36.5872,955.00,54.00,16.00,22.00,30.00,23.00,0.00,29.86,1009.90,10.00,27.00,BKN,OVC,M,M,10000.00,13000.00,M,M,M,M,M,M,29.00,30.00,2024-03-15 01:26,54.00,KINS 150155Z AUTO 03023G27KT 10SM BKN100 OVC130 12/M09 A2986 RMK AO2 PK WND 03029/26 SLP099 T01221089 $,M
RNO,2024-03-15 01:55,-119.7711,39.4839,1341.00,47.00,17.00,29.79,10.00,10.00,0.00,30.10,1019.30,10.00,M,SCT,M,M,M,7000.00,M,M,M,M,M,M,M,M,M,M,41.78,KRNO 150155Z 01010KT 10SM SCT070 08/M08 A3010 RMK AO2 SLP193 T00831083,M
LSV,2024-03-15 01:55,-115.0343,36.2362,570.00,60.60,19.20,19.91,40.00,21.00,0.00,29.80,M,10.00,M,CLR,M,M,M,M,M,M,M,M,M,M,M,30.00,50.00,2024-03-15 01:25,60.60,KLSV 150155Z AUTO 04021KT 10SM CLR 16/M07 A2980 RMK AO2 PK WND 05030/25 SLPNO T01591071 $,M
RTS,2024-03-15 01:55,-119.8764,39.6682,1539.00,42.80,15.80,33.18,0.00,0.00,0.00,30.12,M,10.00,M,CLR,M,M,M,M,M,M,M,M,M,M,M,M,M,M,42.80,KRTS 150155Z AUTO 00000KT 10SM CLR 06/M09 A3012 RMK AO2,M
MEV,2024-03-15 01:55,-119.7500,38.9963,1441.42,44.60,15.80,30.98,40.00,7.00,0.00,30.09,M,10.00,14.00,M,M,M,M,M,M,M,M,M,M,M,M,M,M,M,40.14,KMEV 150155Z AUTO 04007G14KT 10SM 07/M09 A3009 RMK AO2,M
HTH,2024-03-15 01:55,-118.6315,38.5448,1282.89,46.40,21.20,36.48,340.00,14.00,0.00,30.07,M,10.00,19.00,OVC,M,M,M,7000.00,M,M,M,M,M,M,M,M,M,M,39.72,KHTH 150155Z AUTO 34014G19KT 10SM OVC070 08/M06 A3007 RMK A01,M
TMT,2024-03-15 01:55,-117.1971,39.4643,1749.34,38.50,23.00,53.33,20.00,16.00,0.00,30.08,M,10.00,20.00,OVC,M,M,M,5000.00,M,M,M,M,M,M,M,M,M,M,28.89,KTMT 150155Z AUTO 02016G20KT 10SM OVC050 04/M05 A3008 RMK AO2 T00361051,M
10U,2024-03-15 01:55,-116.1876,41.9532,1637.00,35.60,21.20,55.41,30.00,7.00,0.00,30.20,M,10.00,M,CLR,M,M,M,M,M,M,M,M,M,M,M,M,M,M,29.17,K10U 150155Z AUTO 03007KT 10SM CLR 02/M06 A3020 RMK AO2,M
EKO,2024-03-15 01:56,-115.7860,40.8242,1367.00,41.00,21.00,44.47,30.00,16.00,0.00,30.11,1020.70,10.00,22.00,CLR,M,M,M,M,M,M,M,M,M,M,M,M,M,M,32.15,KEKO 150156Z AUTO 03016G22KT 10SM CLR 05/M06 A3011 RMK AO2 SLP207 T00501061,M
WMC,2024-03-15 01:56,-117.8072,40.9019,1315.00,47.00,20.00,33.89,30.00,13.00,0.00,30.13,1021.10,10.00,22.00,CLR,M,M,M,M,M,M,M,M,M,M,M,M,M,M,40.79,KWMC 150156Z AUTO 03013G22KT 10SM CLR 08/M07 A3013 RMK AO2 SLP211 T00831067,M
NFL,2024-03-15 01:56,-118.7010,39.4166,1199.00,49.00,20.00,31.44,20.00,14.00,0.00,30.08,1015.20,10.00,25.00,SCT,SCT,SCT,M,5000.00,10000.00,25000.00,M,M,M,M,M,M,M,M,43.08,KNFL 150156Z 02014G25KT 10SM SCT050 SCT100 SCT250 09/M07 A3008 RMK AO2 SLP152 T00941067,M
HND,2024-03-15 01:56,-115.1344,35.9729,742.79,56.00,25.00,30.00,50.00,8.00,0.00,29.84,1011.90,10.00,M,FEW,OVC,M,M,7000.00,9000.00,M,M,M,M,M,M,M,M,M,56.00,KHND 150156Z 05008KT 10SM FEW070 OVC090 13/M04 A2984 RMK AO2 SLP119 T01331039,M
TPH,2024-03-15 01:56,-117.0904,38.0505,1654.00,42.00,20.00,41.00,10.00,18.00,0.00,29.98,1015.70,10.00,M,BKN,M,M,M,6500.00,M,M,M,M,M,M,M,32.00,10.00,2024-03-15 01:00,32.91,KTPH 150156Z AUTO 01018KT 10SM BKN065 06/M07 A2998 RMK AO2 PK WND 01032/0100 SLP157 T00561067,M
LAS,2024-03-15 01:56,-115.1634,36.0719,663.00,55.00,26.00,32.42,60.00,10.00,0.00,29.82,1009.50,10.00,M,FEW,BKN,BKN,M,7000.00,10000.00,14000.00,M,M,M,M,M,M,M,M,55.00,KLAS 150156Z 06010KT 10SM FEW070 BKN100 BKN140 13/M03 A2982 RMK AO2 SLP095 VIRGA SW-NW-N ACSL DSNT ALQDS T01281033,M
BVU,2024-03-15 02:15,-114.8611,35.9475,671.00,55.40,26.60,32.76,30.00,6.00,0.00,29.82,M,10.00,M,FEW,OVC,M,M,6000.00,7500.00,M,M,M,M,M,M,M,M,M,55.40,KBVU 150215Z AUTO 03006KT 10SM FEW060 OVC075 13/M03 A2982 RMK AO2,M
CXP,2024-03-15 02:15,-119.7326,39.1923,1431.00,44.60,15.80,30.98,30.00,15.00,0.00,30.09,M,10.00,20.00,SCT,SCT,BKN,M,4800.00,5500.00,6500.00,M,M,M,M,M,M,M,M,37.11,KCXP 150215Z AUTO 03015G20KT 10SM SCT048 SCT055 BKN065 07/M09 A3009 RMK AO2,M
RTS,2024-03-15 02:15,-119.8764,39.6682,1539.00,41.00,15.80,35.57,270.00,5.00,0.00,30.12,M,10.00,M,CLR,M,M,M,M,M,M,M,M,M,M,M,M,M,M,37.08,KRTS 150215Z AUTO 27005KT 10SM CLR 05/M09 A3012 RMK AO2,M
MEV,2024-03-15 02:15,-119.7500,38.9963,1441.42,44.60,15.80,30.98,80.00,8.00,0.00,30.08,M,10.00,14.00,OVC,M,M,M,7000.00,M,M,M,M,M,M,M,M,M,M,39.63,KMEV 150215Z AUTO 08008G14KT 10SM OVC070 07/M09 A3008 RMK AO2,M
HTH,2024-03-15 02:15,-118.6315,38.5448,1282.89,46.40,21.20,36.48,330.00,16.00,0.00,30.07,M,10.00,M,SCT,OVC,M,M,7000.00,8500.00,M,M,M,M,M,M,M,M,M,39.19,KHTH 150215Z AUTO 33016KT 10SM SCT070 OVC085 08/M06 A3007 RMK A01,M
10U,2024-03-15 02:15,-116.1876,41.9532,1637.00,33.80,21.20,59.53,40.00,8.00,0.00,30.20,M,10.00,M,CLR,M,M,M,M,M,M,M,M,M,M,M,M,M,M,26.33,K10U 150215Z AUTO 04008KT 10SM CLR 01/M06 A3020 RMK AO2,M
TMT,2024-03-15 02:15,-117.1971,39.4643,1749.34,38.00,23.00,54.39,30.00,15.00,0.00,30.08,M,10.00,19.00,BKN,M,M,M,5000.00,M,M,M,M,M,M,M,M,M,M,28.56,KTMT 150215Z AUTO 03015G19KT 10SM BKN050 03/M05 A3008 RMK AO2 T00331051,M
BVU,2024-03-15 02:35,-114.8611,35.9475,671.00,55.40,24.80,30.40,40.00,6.00,0.00,29.82,M,10.00,M,SCT,BKN,OVC,M,5500.00,7500.00,10000.00,M,M,M,M,M,M,M,M,55.40,KBVU 150235Z AUTO 04006KT 10SM SCT055 BKN075 OVC100 13/M04 A2982 RMK AO2,M
CXP,2024-03-15 02:35,-119.7326,39.1923,1431.00,44.60,17.60,33.49,20.00,11.00,0.00,30.10,M,10.00,16.00,SCT,BKN,OVC,M,5000.00,6000.00,7000.00,M,M,M,M,M,M,M,M,38.39,KCXP 150235Z AUTO 02011G16KT 10SM SCT050 BKN060 OVC070 07/M08 A3010 RMK AO2,M
RTS,2024-03-15 02:35,-119.8764,39.6682,1539.00,39.20,15.80,38.15,300.00,4.00,0.00,30.12,M,10.00,M,CLR,M,M,M,M,M,M,M,M,M,M,M,M,M,M,35.83,KRTS 150235Z AUTO 30004KT 10SM CLR 04/M09 A3012 RMK AO2,M
MEV,2024-03-15 02:35,-119.7500,38.9963,1441.42,42.80,15.80,33.18,90.00,8.00,0.00,30.08,M,10.00,M,BKN,M,M,M,7000.00,M,M,M,M,M,M,M,M,M,M,37.42,KMEV 150235Z AUTO 09008KT 10SM BKN070 06/M09 A3008 RMK AO2,M
HTH,2024-03-15 02:35,-118.6315,38.5448,1282.89,46.40,21.20,36.48,340.00,12.00,0.00,30.06,M,10.00,M,BKN,OVC,M,M,7500.00,8500.00,M,M,M,M,M,M,M,M,M,40.33,KHTH 150235Z AUTO 34012KT 10SM BKN075 OVC085 08/M06 A3006 RMK A01,M
10U,2024-03-15 02:35,-116.1876,41.9532,1637.00,32.00,21.20,63.99,40.00,9.00,0.00,30.20,M,10.00,M,CLR,M,M,M,M,M,M,M,M,M,M,M,M,M,M,23.51,K10U 150235Z AUTO 04009KT 10SM CLR 00/M06 A3020 RMK AO2,M
TMT,2024-03-15 02:35,-117.1971,39.4643,1749.34,38.30,23.40,54.66,30.00,14.00,0.00,30.08,M,10.00,19.00,OVC,M,M,M,5000.00,M,M,M,M,M,M,M,M,M,M,29.28,KTMT 150235Z AUTO 03014G19KT 10SM OVC050 04/M05 A3008 RMK AO2 T00351048,M
DRA,2024-03-15 02:53,-116.0278,36.6206,1009.00,51.00,21.00,30.45,30.00,16.00,0.00,29.86,1009.80,10.00,25.00,FEW,M,M,M,12000.00,M,M,M,M,M,M,M,33.00,40.00,2024-03-15 02:00,51.00,KDRA 150253Z AUTO 03016G25KT 10SM FEW120 11/M06 A2986 RMK AO2 PK WND 04033/0200 SLP098 T01061061 53013,M
ELY,2024-03-15 02:53,-114.8453,39.2950,1909.00,31.00,22.00,68.92,360.00,7.00,0.00,30.03,1018.40,10.00,M,CLR,M,M,M,M,M,M,M,M,M,M,M,M,M,M,23.56,KELY 150253Z AUTO 36007KT 10SM CLR M01/M06 A3003 RMK AO2 SLP184 T10061056 55003,M
VGT,2024-03-15 02:53,-115.1933,36.2111,667.00,58.00,23.00,25.67,40.00,12.00,0.00,29.84,1011.90,10.00,21.00,BKN,M,M,M,10000.00,M,M,M,M,M,M,M,29.00,40.00,2024-03-15 02:24,58.00,KVGT 150253Z 04012G21KT 10SM BKN100 14/M05 A2984 RMK AO2 PK WND 04029/0224 SLP119 T01441050 53014,M
LOL,2024-03-15 02:53,-118.5701,40.0684,1192.43,45.00,21.00,38.14,20.00,11.00,0.00,30.11,1020.70,10.00,M,CLR,M,M,M,M,M,M,M,M,M,M,M,26.00,20.00,2024-03-15 02:22,38.89,KLOL 150253Z AUTO 02011KT 10SM CLR 07/M06 A3011 RMK AO2 PK WND 02026/0222 SLP207 T00721061 55003,M
BVU,2024-03-15 02:55,-114.8611,35.9475,671.00,55.40,26.60,32.76,30.00,15.00,0.00,29.82,M,10.00,M,FEW,SCT,BKN,M,5500.00,8000.00,10000.00,M,M,M,M,M,M,M,M,55.40,KBVU 150255Z AUTO 03015KT 10SM FEW055 SCT080 BKN100 13/M03 A2982 RMK AO2,M
CXP,2024-03-15 02:55,-119.7326,39.1923,1431.00,44.60,17.60,33.49,20.00,13.00,0.00,30.10,M,10.00,M,SCT,OVC,M,M,5500.00,6500.00,M,M,M,M,M,M,M,M,M,37.71,KCXP 150255Z AUTO 02013KT 10SM SCT055 OVC065 07/M08 A3010 RMK AO2,M
RNO,2024-03-15 02:55,-119.7711,39.4839,1341.00,45.00,17.00,32.14,350.00,4.00,0.00,30.12,1019.90,10.00,M,FEW,M,M,M,7000.00,M,M,M,M,M,M,M,M,M,M,42.60,KRNO 150255Z 35004KT 10SM FEW070 07/M08 A3012 RMK AO2 SLP199 T00721083 55001,M
RTS,2024-03-15 02:55,-119.8764,39.6682,1539.00,37.40,17.60,44.25,300.00,4.00,0.00,30.13,M,10.00,M,CLR,M,M,M,M,M,M,M,M,M,M,M,M,M,M,33.73,KRTS 150255Z AUTO 30004KT 10SM CLR 03/M08 A3013 RMK AO2,M
MEV,2024-03-15 02:55,-119.7500,38.9963,1441.42,42.80,15.80,33.18,0.00,0.00,0.00,30.09,M,10.00,M,BKN,OVC,M,M,6500.00,7500.00,M,M,M,M,M,M,M,M,M,42.80,KMEV 150255Z AUTO 00000KT 10SM BKN065 OVC075 06/M09 A3009 RMK AO2,M
HTH,2024-03-15 02:55,-118.6315,38.5448,1282.89,46.40,23.00,39.36,340.00,12.00,0.00,30.07,M,10.00,M,OVC,M,M,M,7000.00,M,M,M,M,M,M,M,M,M,M,40.33,KHTH 150255Z AUTO 34012KT 10SM OVC070 08/M05 A3007 RMK A01,M
TMT,2024-03-15 02:55,-117.1971,39.4643,1749.34,37.40,23.00,55.68,20.00,19.00,0.00,30.08,M,10.00,23.00,OVC,M,M,M,6000.00,M,M,M,M,M,M,M,M,M,M,26.58,KTMT 150255Z AUTO 02019G23KT 10SM OVC060 03/M05 A3008 RMK AO2 T00301050,M
10U,2024-03-15 02:55,-116.1876,41.9532,1637.00,32.00,21.20,63.99,30.00,8.00,0.00,30.21,M,10.00,M,CLR,M,M,M,M,M,M,M,M,M,M,M,M,M,M,24.11,K10U 150255Z AUTO 03008KT 10SM CLR 00/M06 A3021 RMK AO2,M
INS,2024-03-15 02:55,-115.6733,36.5872,955.00,52.50,17.80,25.13,30.00,21.00,0.00,29.87,1010.20,10.00,M,SCT,BKN,BKN,BKN,10000.00,13000.00,17000.00,19000.00,M,M,M,M,27.00,30.00,2024-03-15 02:51,52.50,KINS 150255Z AUTO 03021KT 10SM SCT100 BKN130 BKN170 BKN190 11/M08 A2987 RMK AO2 PK WND 03027/51 SLP102 T01141079 52010 $,M
LSV,2024-03-15 02:55,-115.0343,36.2362,570.00,59.00,21.00,22.76,40.00,18.00,0.00,29.81,M,10.00,M,CLR,M,M,M,M,M,M,M,M,M,M,M,35.00,50.00,2024-03-15 02:05,59.00,KLSV 150255Z AUTO 04018KT 10SM CLR 15/M06 A2981 RMK AO2 PK WND 05035/05 SLPNO T01491061 52015 $,M
EKO,2024-03-15 02:56,-115.7860,40.8242,1367.00,39.00,21.00,48.06,20.00,14.00,0.00,30.12,1021.10,10.00,24.00,CLR,M,M,M,M,M,M,M,M,M,M,M,26.00,30.00,2024-03-15 02:07,30.19,KEKO 150256Z AUTO 02014G24KT 10SM CLR 04/M06 A3012 RMK AO2 PK WND 03026/0207 SLP211 T00391061 53006,M
WMC,2024-03-15 02:56,-117.8072,40.9019,1315.00,43.00,20.00,39.46,50.00,11.00,0.00,30.14,1021.70,10.00,M,CLR,M,M,M,M,M,M,M,M,M,M,M,M,M,M,36.37,KWMC 150256Z AUTO 05011KT 10SM CLR 06/M07 A3014 RMK AO2 SLP217 T00611067 53001,M
NFL,2024-03-15 02:56,-118.7010,39.4166,1199.00,46.00,22.00,38.31,30.00,12.00,0.00,30.08,1015.50,10.00,18.00,FEW,FEW,M,M,10000.00,25000.00,M,M,M,M,M,M,M,M,M,39.82,KNFL 150256Z 03012G18KT 10SM FEW100 FEW250 08/M06 A3008 RMK AO2 SLP155 T00781056 55005,M
HND,2024-03-15 02:56,-115.1344,35.9729,742.79,55.00,25.00,31.11,40.00,13.00,0.00,29.85,1012.40,10.00,17.00,OVC,M,M,M,8500.00,M,M,M,M,M,M,M,M,M,M,55.00,KHND 150256Z 04013G17KT 10SM OVC085 13/M04 A2985 RMK AO2 SLP124 T01281039 53008,M
TPH,2024-03-15 02:56,-117.0904,38.0505,1654.00,40.00,21.00,46.23,10.00,14.00,0.00,29.99,1016.00,10.00,M,BKN,M,M,M,7000.00,M,M,M,M,M,M,M,M,M,M,31.47,KTPH 150256Z AUTO 01014KT 10SM BKN070 04/M06 A2999 RMK AO2 SLP160 T00441061 53002,M
LAS,2024-03-15 02:56,-115.1634,36.0719,663.00,56.00,23.00,27.59,40.00,19.00,0.00,29.84,1010.00,10.00,28.00,BKN,BKN,M,M,9000.00,14000.00,M,M,M,M,M,M,31.00,50.00,2024-03-15 02:24,56.00,KLAS 150256Z 04019G28KT 10SM BKN090 BKN140 13/M05 A2984 RMK AO2 PK WND 05031/0224 SLP100 T01331050 51012,M
BVU,2024-03-15 03:15,-114.8611,35.9475,671.00,55.40,28.40,35.28,40.00,14.00,0.00,29.83,M,10.00,20.00,SCT,BKN,BKN,M,7000.00,8000.00,8500.00,M,M,M,M,M,M,M,M,55.40,KBVU 150315Z AUTO 04014G20KT 10SM SCT070 BKN080 BKN085 13/M02 A2983 RMK AO2,M
CXP,2024-03-15 03:15,-119.7326,39.1923,1431.00,44.60,17.60,33.49,10.00,13.00,0.00,30.11,M,10.00,19.00,OVC,M,M,M,6500.00,M,M,M,M,M,M,M,M,M,M,37.71,KCXP 150315Z AUTO 01013G19KT 10SM OVC065 07/M08 A3011 RMK AO2,M
RTS,2024-03-15 03:15,-119.8764,39.6682,1539.00,39.20,15.80,38.15,0.00,0.00,0.00,30.13,M,10.00,M,CLR,M,M,M,M,M,M,M,M,M,M,M,M,M,M,39.20,KRTS 150315Z AUTO 00000KT 10SM CLR 04/M09 A3013 RMK AO2,M
MEV,2024-03-15 03:15,-119.7500,38.9963,1441.42,42.80,17.60,35.87,150.00,5.00,0.00,30.09,M,10.00,M,OVC,M,M,M,6500.00,M,M,M,M,M,M,M,M,M,M,39.22,KMEV 150315Z AUTO 15005KT 10SM OVC065 06/M08 A3009 RMK AO2,M
HTH,2024-03-15 03:15,-118.6315,38.5448,1282.89,46.40,21.20,36.48,350.00,8.00,0.00,30.08,M,10.00,15.00,OVC,M,M,M,7000.00,M,M,M,M,M,M,M,M,M,M,41.85,KHTH 150315Z AUTO 35008G15KT 10SM OVC070 08/M06 A3008 RMK A01,M
10U,2024-03-15 03:15,-116.1876,41.9532,1637.00,30.20,21.20,68.83,20.00,5.00,0.00,30.20,M,10.00,M,CLR,M,M,M,M,M,M,M,M,M,M,M,M,M,M,24.26,K10U 150315Z AUTO 02005KT 10SM CLR M01/M06 A3020 RMK AO2,M
TMT,2024-03-15 03:15,-117.1971,39.4643,1749.34,36.00,22.60,57.86,20.00,18.00,0.00,30.08,M,10.00,24.00,SCT,M,M,M,6000.00,M,M,M,M,M,M,M,M,M,M,25.01,KTMT 150315Z AUTO 02018G24KT 10SM SCT060 02/M05 A3008 RMK AO2 T00231052,M
BVU,2024-03-15 03:35,-114.8611,35.9475,671.00,55.40,28.40,35.28,50.00,13.00,0.00,29.83,M,10.00,20.00,OVC,M,M,M,7000.00,M,M,M,M,M,M,M,M,M,M,55.40,KBVU 150335Z AUTO 05013G20KT 10SM OVC070 13/M02 A2983 RMK AO2,M
CXP,2024-03-15 03:35,-119.7326,39.1923,1431.00,44.60,17.60,33.49,10.00,10.00,0.00,30.12,M,10.00,M,OVC,M,M,M,6500.00,M,M,M,M,M,M,M,M,M,M,38.77,KCXP 150335Z AUTO 01010KT 10SM OVC065 07/M08 A3012 RMK AO2,M
RTS,2024-03-15 03:35,-119.8764,39.6682,1539.00,39.20,15.80,38.15,20.00,5.00,0.00,30.13,M,10.00,M,CLR,M,M,M,M,M,M,M,M,M,M,M,M,M,M,34.95,KRTS 150335Z AUTO 02005KT 10SM CLR 04/M09 A3013 RMK AO2,M
MEV,2024-03-15 03:35,-119.7500,38.9963,1441.42,42.80,17.60,35.87,0.00,0.00,0.00,30.09,M,10.00,M,OVC,M,M,M,6500.00,M,M,M,M,M,M,M,M,M,M,42.80,KMEV 150335Z AUTO 00000KT 10SM OVC065 06/M08 A3009 RMK AO2,M
HTH,2024-03-15 03:35,-118.6315,38.5448,1282.89,44.60,23.00,42.14,320.00,10.00,0.00,30.08,M,10.00,M,OVC,M,M,M,7000.00,M,M,M,M,M,M,M,M,M,M,38.77,KHTH 150335Z AUTO 32010KT 10SM OVC070 07/M05 A3008 RMK A01,M
10U,2024-03-15 03:35,-116.1876,41.9532,1637.00,28.40,21.20,74.08,10.00,5.00,0.00,30.20,M,10.00,M,CLR,M,M,M,M,M,M,M,M,M,M,M,M,M,M,22.12,K10U 150335Z AUTO 01005KT 10SM CLR M02/M06 A3020 RMK AO2,M
TMT,2024-03-15 03:35,-117.1971,39.4643,1749.34,35.60,22.00,57.32,30.00,17.00,0.00,30.09,M,10.00,20.00,SCT,M,M,M,4500.00,M,M,M,M,M,M,M,M,M,M,24.79,KTMT 150335Z AUTO 03017G20KT 10SM SCT045 02/M05 A3009 RMK AO2 T00201055,M
DRA,2024-03-15 03:53,-116.0278,36.6206,1009.00,50.00,21.00,31.60,30.00,22.00,0.00,29.85,1009.30,10.00,29.00,CLR,M,M,M,M,M,M,M,M,M,M,M,29.00,30.00,2024-03-15 03:52,50.00,KDRA 150353Z AUTO 03022G29KT 10SM CLR 10/M06 A2985 RMK AO2 PK WND 03029/0352 SLP093 T01001061,M
ELY,2024-03-15 03:53,-114.8453,39.2950,1909.00,32.00,23.00,69.04,350.00,8.00,0.00,30.04,1018.20,10.00,M,BKN,BKN,M,M,5500.00,6500.00,M,M,M,M,M,M,M,M,M,24.11,KELY 150353Z AUTO 35008KT 10SM BKN055 BKN065 00/M05 A3004 RMK AO2 SLP182 T00001050,M
VGT,2024-03-15 03:53,-115.1933,36.2111,667.00,58.00,24.00,26.77,20.00,11.00,0.00,29.85,1012.00,10.00,24.00,OVC,M,M,M,9500.00,M,M,M,M,M,M,M,27.00,40.00,2024-03-15 03:23,58.00,KVGT 150353Z AUTO 02011G24KT 10SM OVC095 14/M04 A2985 RMK AO2 PK WND 04027/0323 SLP120 T01441044,M
LOL,2024-03-15 03:53,-118.5701,40.0684,1192.43,44.00,22.00,41.34,10.00,12.00,0.00,30.11,1020.70,10.00,M,CLR,M,M,M,M,M,M,M,M,M,M,M,M,M,M,37.27,KLOL 150353Z AUTO 01012KT 10SM CLR 07/M06 A3011 RMK AO2 SLP207 T00671056,M
BVU,2024-03-15 03:55,-114.8611,35.9475,671.00,55.40,24.80,30.40,40.00,17.00,0.00,29.83,M,10.00,22.00,FEW,SCT,OVC,M,5500.00,7000.00,7500.00,M,M,M,M,M,M,M,M,55.40,KBVU 150355Z AUTO 04017G22KT 10SM FEW055 SCT070 OVC075 13/M04 A2983 RMK AO2,M
CXP,2024-03-15 03:55,-119.7326,39.1923,1431.00,44.60,17.60,33.49,360.00,11.00,0.00,30.12,M,10.00,M,OVC,M,M,M,6500.00,M,M,M,M,M,M,M,M,M,M,38.39,KCXP 150355Z AUTO 36011KT 10SM OVC065 07/M08 A3012 RMK AO2,M
INS,2024-03-15 03:55,-115.6733,36.5872,955.00,52.00,18.30,26.15,50.00,14.00,0.00,29.88,1010.30,10.00,23.00,OVC,M,M,M,9000.00,M,M,M,M,M,M,M,31.00,50.00,2024-03-15 03:09,52.00,KINS 150355Z AUTO 05014G23KT 10SM OVC090 11/M08 A2988 RMK AO2 PK WND 05031/09 SLP103 T01121076 $,M
RNO,2024-03-15 03:55,-119.7711,39.4839,1341.00,45.00,18.00,33.55,40.00,5.00,0.00,30.12,1019.50,10.00,M,CLR,M,M,M,M,M,M,M,M,M,M,M,M,M,M,41.83,KRNO 150355Z 04005KT 10SM CLR 07/M08 A3012 RMK AO2 SLP195 T00721078,M
RTS,2024-03-15 03:55,-119.8764,39.6682,1539.00,39.20,17.60,41.24,0.00,0.00,0.00,30.13,M,10.00,M,CLR,M,M,M,M,M,M,M,M,M,M,M,M,M,M,39.20,KRTS 150355Z AUTO 00000KT 10SM CLR 04/M08 A3013 RMK AO2,M
MEV,2024-03-15 03:55,-119.7500,38.9963,1441.42,42.80,17.60,35.87,0.00,0.00,0.00,30.10,M,10.00,M,OVC,M,M,M,6500.00,M,M,M,M,M,M,M,M,M,M,42.80,KMEV 150355Z AUTO 00000KT 10SM OVC065 06/M08 A3010 RMK AO2,M
HTH,2024-03-15 03:55,-118.6315,38.5448,1282.89,44.60,23.00,42.14,340.00,12.00,0.00,30.08,M,10.00,M,OVC,M,M,M,7000.00,M,M,M,M,M,M,M,M,M,M,38.04,KHTH 150355Z AUTO 34012KT 10SM OVC070 07/M05 A3008 RMK A01,M
TMT,2024-03-15 03:55,-117.1971,39.4643,1749.34,35.60,22.50,58.54,30.00,14.00,0.00,30.10,M,10.00,M,BKN,BKN,M,M,4900.00,5500.00,M,M,M,M,M,M,M,M,M,25.80,KTMT 150355Z AUTO 03014KT 10SM BKN049 BKN055 02/M05 A3010 RMK AO2 T00201053,M
10U,2024-03-15 03:55,-116.1876,41.9532,1637.00,28.40,21.20,74.08,360.00,6.00,0.00,30.20,M,10.00,M,CLR,M,M,M,M,M,M,M,M,M,M,M,M,M,M,21.19,K10U 150355Z AUTO 36006KT 10SM CLR M02/M06 A3020 RMK AO2,M
LSV,2024-03-15 03:55,-115.0343,36.2362,570.00,58.00,21.60,24.20,30.00,20.00,0.00,29.82,1009.20,10.00,28.00,CLR,M,M,M,M,M,M,M,M,M,M,M,30.00,40.00,2024-03-15 03:19,58.00,KLSV 150355Z AUTO 03020G28KT 10SM CLR 15/M06 A2982 RMK AO2 PK WND 04030/19 SLP092 T01451058 $,M
EKO,2024-03-15 03:56,-115.7860,40.8242,1367.00,36.00,21.00,54.08,40.00,9.00,0.00,30.13,1021.40,10.00,18.00,CLR,M,M,M,M,M,M,M,M,M,M,M,M,M,M,28.49,KEKO 150356Z AUTO 04009G18KT 10SM CLR 02/M06 A3013 RMK AO2 SLP214 T00221061,M
WMC,2024-03-15 03:56,-117.8072,40.9019,1315.00,41.00,21.00,44.47,70.00,11.00,0.00,30.15,1021.80,10.00,17.00,CLR,M,M,M,M,M,M,M,M,M,M,M,M,M,M,33.84,KWMC 150356Z AUTO 07011G17KT 10SM CLR 05/M06 A3015 RMK AO2 SLP218 T00501061,M
NFL,2024-03-15 03:56,-118.7010,39.4166,1199.00,45.00,22.00,39.79,10.00,8.00,0.00,30.09,1015.60,10.00,M,FEW,FEW,M,M,10000.00,25000.00,M,M,M,M,M,M,M,M,M,40.13,KNFL 150356Z 01008KT 10SM FEW100 FEW250 07/M06 A3009 RMK AO2 SLP156 T00721056,M
HND,2024-03-15 03:56,-115.1344,35.9729,742.79,55.00,24.00,29.83,50.00,13.00,0.00,29.86,1012.80,10.00,19.00,BKN,OVC,M,M,8000.00,9000.00,M,M,M,M,M,M,M,M,M,55.00,KHND 150356Z AUTO 05013G19KT 10SM BKN080 OVC090 13/M04 A2986 RMK AO2 SLP128 T01281044,M
TPH,2024-03-15 03:56,-117.0904,38.0505,1654.00,39.00,20.00,46.06,20.00,12.00,0.00,29.99,1015.80,10.00,M,CLR,M,M,M,M,M,M,M,M,M,M,M,M,M,M,30.91,KTPH 150356Z AUTO 02012KT 10SM CLR 04/M07 A2999 RMK AO2 SLP158 T00391067,M
LAS,2024-03-15 03:56,-115.1634,36.0719,663.00,55.00,23.00,28.61,40.00,15.00,0.00,29.84,1010.20,10.00,25.00,BKN,BKN,M,M,8500.00,14000.00,M,M,M,M,M,M,29.00,50.00,2024-03-15 03:09,55.00,KLAS 150356Z 04015G25KT 10SM BKN085 BKN140 13/M05 A2984 RMK AO2 PK WND 05029/0309 SLP102 T01281050,M
BVU,2024-03-15 04:15,-114.8611,35.9475,671.00,55.40,24.80,30.40,40.00,17.00,0.00,29.83,M,10.00,24.00,FEW,SCT,OVC,M,6500.00,7500.00,8500.00,M,M,M,M,M,M,M,M,55.40,KBVU 150415Z AUTO 04017G24KT 10SM FEW065 SCT075 OVC085 13/M04 A2983 RMK AO2,M
CXP,2024-03-15 04:15,-119.7326,39.1923,1431.00,44.60,17.60,33.49,10.00,12.00,0.00,30.12,M,10.00,M,OVC,M,M,M,6500.00,M,M,M,M,M,M,M,M,M,M,38.04,KCXP 150415Z AUTO 01012KT 10SM OVC065 07/M08 A3012 RMK AO2,M
RTS,2024-03-15 04:15,-119.8764,39.6682,1539.00,39.20,17.60,41.24,0.00,0.00,0.00,30.13,M,10.00,M,CLR,M,M,M,M,M,M,M,M,M,M,M,M,M,M,39.20,KRTS 150415Z AUTO 00000KT 10SM CLR 04/M08 A3013 RMK AO2,M
MEV,2024-03-15 04:15,-119.7500,38.9963,1441.42,42.80,17.60,35.87,0.00,0.00,0.00,30.10,M,10.00,M,OVC,M,M,M,6500.00,M,M,M,M,M,M,M,M,M,M,42.80,KMEV 150415Z AUTO 00000KT 10SM OVC065 06/M08 A3010 RMK AO2,M
HTH,2024-03-15 04:15,-118.6315,38.5448,1282.89,44.60,23.00,42.14,330.00,11.00,0.00,30.09,M,10.00,16.00,OVC,M,M,M,7000.00,M,M,M,M,M,M,M,M,M,M,38.39,KHTH 150415Z AUTO 33011G16KT 10SM OVC070 07/M05 A3009 RMK A01,M
10U,2024-03-15 04:15,-116.1876,41.9532,1637.00,28.40,21.20,74.08,0.00,0.00,0.00,30.21,M,10.00,M,CLR,M,M,M,M,M,M,M,M,M,M,M,M,M,M,28.40,K10U 150415Z AUTO 00000KT 10SM CLR M02/M06 A3021 RMK AO2,M
TMT,2024-03-15 04:15,-117.1971,39.4643,1749.34,35.00,22.00,58.70,30.00,15.00,0.00,30.09,M,10.00,20.00,SCT,SCT,M,M,4900.00,5500.00,M,M,M,M,M,M,M,M,M,24.67,KTMT 150415Z AUTO 03015G20KT 10SM SCT049 SCT055 02/M05 A3009 RMK AO2 T00171055,M
BVU,2024-03-15 04:35,-114.8611,35.9475,671.00,55.40,26.60,32.76,30.00,12.00,0.00,29.83,M,10.00,M,OVC,M,M,M,8000.00,M,M,M,M,M,M,M,M,M,M,55.40,KBVU 150435Z AUTO 03012KT 10SM OVC080 13/M03 A2983 RMK AO2,M
CXP,2024-03-15 04:35,-119.7326,39.1923,1431.00,44.60,19.40,36.18,360.00,8.00,0.00,30.12,M,10.00,17.00,OVC,M,M,M,6500.00,M,M,M,M,M,M,M,M,M,M,39.63,KCXP 150435Z AUTO 36008G17KT 10SM OVC065 07/M07 A3012 RMK AO2,M
RTS,2024-03-15 04:35,-119.8764,39.6682,1539.00,37.40,17.60,44.25,300.00,4.00,0.00,30.13,M,10.00,M,CLR,M,M,M,M,M,M,M,M,M,M,M,M,M,M,33.73,KRTS 150435Z AUTO 30004KT 10SM CLR 03/M08 A3013 RMK AO2,M
MEV,2024-03-15 04:35,-119.7500,38.9963,1441.42,42.80,17.60,35.87,0.00,0.00,0.00,30.10,M,10.00,M,OVC,M,M,M,6000.00,M,M,M,M,M,M,M,M,M,M,42.80,KMEV 150435Z AUTO 00000KT 10SM OVC060 06/M08 A3010 RMK AO2,M
HTH,2024-03-15 04:35,-118.6315,38.5448,1282.89,44.60,21.20,39.06,340.00,12.00,0.00,30.08,M,10.00,M,OVC,M,M,M,7000.00,M,M,M,M,M,M,M,M,M,M,38.04,KHTH 150435Z AUTO 34012KT 10SM OVC070 07/M06 A3008 RMK A01,M
10U,2024-03-15 04:35,-116.1876,41.9532,1637.00,33.80,19.40,55.14,110.00,5.00,0.00,30.21,M,10.00,11.00,CLR,M,M,M,M,M,M,M,M,M,M,M,M,M,M,28.53,K10U 150435Z AUTO 11005G11KT 10SM CLR 01/M07 A3021 RMK AO2,M
TMT,2024-03-15 04:35,-117.1971,39.4643,1749.34,34.70,22.00,59.41,30.00,12.00,0.00,30.10,M,10.00,17.00,CLR,M,M,M,M,M,M,M,M,M,M,M,M,M,M,25.44,KTMT 150435Z AUTO 03012G17KT 10SM CLR 02/M05 A3010 RMK AO2 T00151055,M
DRA,2024-03-15 04:53,-116.0278,36.6206,1009.00,49.00,23.00,35.69,30.00,20.00,0.00,29.85,1009.30,10.00,M,FEW,M,M,M,10000.00,M,M,M,M,M,M,M,31.00,20.00,2024-03-15 04:37,41.72,KDRA 150453Z AUTO 03020KT 10SM FEW100 09/M05 A2985 RMK AO2 PK WND 02031/0437 SLP093 T00941050,M
ELY,2024-03-15 04:53,-114.8453,39.2950,1909.00,33.00,22.00,63.59,320.00,10.00,0.00,30.05,1017.80,10.00,19.00,BKN,OVC,M,M,4300.00,5500.00,M,M,M,M,M,M,M,M,M,24.22,KELY 150453Z AUTO 32010G19KT 10SM BKN043 OVC055 01/M06 A3005 RMK AO2 SLP178 T00061056,M
VGT,2024-03-15 04:53,-115.1933,36.2111,667.00,57.00,24.00,27.75,30.00,13.00,0.00,29.85,1012.10,10.00,20.00,BKN,M,M,M,9000.00,M,M,M,M,M,M,M,M,M,M,57.00,KVGT 150453Z AUTO 03013G20KT 10SM BKN090 14/M04 A2985 RMK AO2 SLP121 T01391044,M
LOL,2024-03-15 04:53,-118.5701,40.0684,1192.43,43.00,22.00,42.95,10.00,11.00,0.00,30.13,1020.80,10.00,M,CLR,M,M,M,M,M,M,M,M,M,M,M,M,M,M,36.37,KLOL 150453Z AUTO 01011KT 10SM CLR 06/M06 A3013 RMK AO2 SLP208 T00611056,M
BVU,2024-03-15 04:55,-114.8611,35.9475,671.00,53.60,28.40,37.67,30.00,13.00,0.00,29.82,M,10.00,M,SCT,M,M,M,8000.00,M,M,M,M,M,M,M,M,M,M,53.60,KBVU 150455Z AUTO 03013KT 10SM SCT080 12/M02 A2982 RMK AO2,M
CXP,2024-03-15 04:55,-119.7326,39.1923,1431.00,42.80,19.40,38.75,360.00,9.00,0.00,30.12,M,10.00,16.00,OVC,M,M,M,6000.00,M,M,M,M,M,M,M,M,M,M,36.94,KCXP 150455Z AUTO 36009G16KT 10SM OVC060 06/M07 A3012 RMK AO2,M
INS,2024-03-15 04:55,-115.6733,36.5872,955.00,51.30,20.00,28.86,40.00,16.00,0.00,29.88,1010.30,10.00,M,BKN,M,M,M,10000.00,M,M,M,M,M,M,M,M,M,M,51.30,KINS 150455Z AUTO 04016KT 10SM BKN100 11/M07 A2988 RMK AO2 SLP103 T01071066 $,M
RNO,2024-03-15 04:55,-119.7711,39.4839,1341.00,43.00,18.00,36.22,320.00,4.00,0.00,30.12,1019.80,10.00,M,CLR,M,M,M,M,M,M,M,M,M,M,M,M,M,M,40.27,KRNO 150455Z 32004KT 10SM CLR 06/M08 A3012 RMK AO2 SLP198 T00611078,M
RTS,2024-03-15 04:55,-119.8764,39.6682,1539.00,37.40,17.60,44.25,270.00,3.00,0.00,30.14,M,10.00,M,CLR,M,M,M,M,M,M,M,M,M,M,M,M,M,M,34.86,KRTS 150455Z AUTO 27003KT 10SM CLR 03/M08 A3014 RMK AO2,M
MEV,2024-03-15 04:55,-119.7500,38.9963,1441.42,42.80,17.60,35.87,0.00,0.00,0.00,30.10,M,10.00,M,OVC,M,M,M,6000.00,M,M,M,M,M,M,M,M,M,M,42.80,KMEV 150455Z AUTO 00000KT 10SM OVC060 06/M08 A3010 RMK AO2,M
HTH,2024-03-15 04:55,-118.6315,38.5448,1282.89,44.60,21.20,39.06,330.00,14.00,0.00,30.08,M,10.00,M,OVC,M,M,M,7000.00,M,M,M,M,M,M,M,M,M,M,37.40,KHTH 150455Z AUTO 33014KT 10SM OVC070 07/M06 A3008 RMK A01,M
TMT,2024-03-15 04:55,-117.1971,39.4643,1749.34,33.40,22.00,62.57,60.00,10.00,0.00,30.11,M,10.00,M,CLR,M,M,M,M,M,M,M,M,M,M,M,M,M,M,24.72,KTMT 150455Z AUTO 06010KT 10SM CLR 01/M05 A3011 RMK AO2 T00081055,M
10U,2024-03-15 04:55,-116.1876,41.9532,1637.00,32.00,19.40,59.27,70.00,5.00,0.00,30.21,M,10.00,10.00,CLR,M,M,M,M,M,M,M,M,M,M,M,M,M,M,26.40,K10U 150455Z AUTO 07005G10KT 10SM CLR M00/M07 A3021 RMK AO2,M
LSV,2024-03-15 04:55,-115.0343,36.2362,570.00,57.60,22.00,24.97,20.00,15.00,0.00,29.81,1008.90,10.00,24.00,CLR,M,M,M,M,M,M,M,M,M,M,M,27.00,40.00,2024-03-15 03:59,57.60,KLSV 150455Z AUTO 02015G24KT 10SM CLR 14/M06 A2981 RMK AO2 PK WND 04027/0359 SLP089 T01421056 $,M
EKO,2024-03-15 04:56,-115.7860,40.8242,1367.00,36.00,20.00,51.83,M,5.00,0.00,30.14,1021.00,10.00,M,SCT,M,M,M,10000.00,M,M,M,M,M,M,M,M,M,M,31.15,KEKO 150456Z AUTO VRB05KT 10SM SCT100 02/M07 A3014 RMK AO2 SLP210 T00221067,M
WMC,2024-03-15 04:56,-117.8072,40.9019,1315.00,39.00,20.00,46.06,60.00,13.00,0.00,30.16,1021.70,10.00,M,CLR,M,M,M,M,M,M,M,M,M,M,M,M,M,M,30.54,KWMC 150456Z AUTO 06013KT 10SM CLR 04/M07 A3016 RMK AO2 SLP217 T00391067,M
NFL,2024-03-15 04:56,-118.7010,39.4166,1199.00,41.00,22.00,46.39,340.00,6.00,0.00,30.10,1015.90,10.00,M,FEW,FEW,M,M,10000.00,25000.00,M,M,M,M,M,M,M,M,M,36.37,KNFL 150456Z 34006KT 10SM FEW100 FEW250 05/M06 A3010 RMK AO2 SLP159 T00501056,M
HND,2024-03-15 04:56,-115.1344,35.9729,742.79,54.00,25.00,32.26,40.00,12.00,0.00,29.86,1012.90,10.00,M,OVC,M,M,M,8000.00,M,M,M,M,M,M,M,M,M,M,54.00,KHND 150456Z AUTO 04012KT 10SM OVC080 12/M04 A2986 RMK AO2 SLP129 T01221039,M
TPH,2024-03-15 04:56,-117.0904,38.0505,1654.00,38.00,19.00,45.90,20.00,15.00,0.00,30.00,1015.50,10.00,19.00,CLR,M,M,M,M,M,M,M,M,M,M,M,M,M,M,28.56,KTPH 150456Z AUTO 02015G19KT 10SM CLR 03/M07 A3000 RMK AO2 SLP155 T00331072,M
LAS,2024-03-15 04:56,-115.1634,36.0719,663.00,55.00,24.00,29.83,20.00,16.00,0.00,29.84,1010.20,10.00,23.00,OVC,M,M,M,8500.00,M,M,M,M,M,M,M,26.00,40.00,2024-03-15 04:15,55.00,KLAS 150456Z 02016G23KT 10SM OVC085 13/M04 A2984 RMK AO2 PK WND 04026/0415 SLP102 T01281044,M
BVU,2024-03-15 05:15,-114.8611,35.9475,671.00,53.60,26.60,34.98,30.00,11.00,0.00,29.83,M,10.00,19.00,FEW,M,M,M,11000.00,M,M,M,M,M,M,M,M,M,M,53.60,KBVU 150515Z AUTO 03011G19KT 10SM FEW110 12/M03 A2983 RMK AO2,M
CXP,2024-03-15 05:15,-119.7326,39.1923,1431.00,42.80,19.40,38.75,360.00,9.00,0.00,30.12,M,10.00,16.00,BKN,OVC,M,M,5000.00,6000.00,M,M,M,M,M,M,M,M,M,36.94,KCXP 150515Z AUTO 36009G16KT 10SM BKN050 OVC060 06/M07 A3012 RMK AO2,M
RTS,2024-03-15 05:15,-119.8764,39.6682,1539.00,37.40,17.60,44.25,0.00,0.00,0.00,30.14,M,10.00,M,CLR,M,M,M,M,M,M,M,M,M,M,M,M,M,M,37.40,KRTS 150515Z AUTO 00000KT 10SM CLR 03/M08 A3014 RMK AO2,M
MEV,2024-03-15 05:15,-119.7500,38.9963,1441.42,42.80,19.40,38.75,0.00,0.00,0.00,30.11,M,10.00,M,OVC,M,M,M,6500.00,M,M,M,M,M,M,M,M,M,M,42.80,KMEV 150515Z AUTO 00000KT 10SM OVC065 06/M07 A3011 RMK AO2,M
HTH,2024-03-15 05:15,-118.6315,38.5448,1282.89,44.60,21.20,39.06,340.00,15.00,0.00,30.08,M,10.00,20.00,OVC,M,M,M,7500.00,M,M,M,M,M,M,M,M,M,M,37.11,KHTH 150515Z AUTO 34015G20KT 10SM OVC075 07/M06 A3008 RMK A01,M
10U,2024-03-15 05:15,-116.1876,41.9532,1637.00,32.00,19.40,59.27,60.00,11.00,0.00,30.21,M,10.00,16.00,CLR,M,M,M,M,M,M,M,M,M,M,M,M,M,M,22.47,K10U 150515Z AUTO 06011G16KT 10SM CLR 00/M07 A3021 RMK AO2,M
TMT,2024-03-15 05:15,-117.1971,39.4643,1749.34,33.00,22.00,63.59,50.00,8.00,0.00,30.11,M,10.00,M,CLR,M,M,M,M,M,M,M,M,M,M,M,M,M,M,25.34,KTMT 150515Z AUTO 05008KT 10SM CLR 01/M06 A3011 RMK AO2 T00051056,M
LAS,2024-03-15 05:23,-115.1634,36.0719,663.00,55.00,24.00,29.83,20.00,15.00,0.00,29.84,M,10.00,M,OVC,M,M,M,8500.00,M,M,M,M,M,M,M,M,M,M,55.00,KLAS 150523Z 02015KT 10SM OVC085 13/M04 A2984 RMK AO2 T01281044,M
BVU,2024-03-15 05:35,-114.8611,35.9475,671.00,53.60,28.40,37.67,20.00,11.00,0.00,29.82,M,10.00,M,SCT,M,M,M,12000.00,M,M,M,M,M,M,M,M,M,M,53.60,KBVU 150535Z AUTO 02011KT 10SM SCT120 12/M02 A2982 RMK AO2,M
CXP,2024-03-15 05:35,-119.7326,39.1923,1431.00,42.80,19.40,38.75,10.00,10.00,0.00,30.12,M,10.00,M,SCT,BKN,M,M,5000.00,6000.00,M,M,M,M,M,M,M,M,M,36.51,KCXP 150535Z AUTO 01010KT 10SM SCT050 BKN060 06/M07 A3012 RMK AO2,M
RTS,2024-03-15 05:35,-119.8764,39.6682,1539.00,39.20,17.60,41.24,60.00,7.00,0.00,30.14,M,10.00,M,CLR,M,M,M,M,M,M,M,M,M,M,M,M,M,M,33.56,KRTS 150535Z AUTO 06007KT 040V100 10SM CLR 04/M08 A3014 RMK AO2,M
MEV,2024-03-15 05:35,-119.7500,38.9963,1441.42,41.00,19.40,41.54,20.00,5.00,0.00,30.11,M,10.00,M,OVC,M,M,M,6000.00,M,M,M,M,M,M,M,M,M,M,37.08,KMEV 150535Z AUTO 02005KT 10SM OVC060 05/M07 A3011 RMK AO2,M
HTH,2024-03-15 05:35,-118.6315,38.5448,1282.89,44.60,21.20,39.06,340.00,10.00,0.00,30.09,M,10.00,16.00,FEW,OVC,M,M,4500.00,7000.00,M,M,M,M,M,M,M,M,M,38.77,KHTH 150535Z AUTO 34010G16KT 10SM FEW045 OVC070 07/M06 A3009 RMK A01,M
10U,2024-03-15 05:35,-116.1876,41.9532,1637.00,33.80,19.40,55.14,70.00,11.00,0.00,30.21,M,10.00,20.00,CLR,M,M,M,M,M,M,M,M,M,M,M,M,M,M,24.74,K10U 150535Z AUTO 07011G20KT 10SM CLR 01/M07 A3021 RMK AO2,M
TMT,2024-03-15 05:35,-117.1971,39.4643,1749.34,32.50,22.50,66.26,60.00,8.00,0.00,30.11,M,10.00,M,BKN,M,M,M,7000.00,M,M,M,M,M,M,M,M,M,M,24.73,KTMT 150535Z AUTO 06008KT 10SM BKN070 00/M05 A3011 RMK AO2 T00031053,M
DRA,2024-03-15 05:53,-116.0278,36.6206,1009.00,49.00,24.00,37.22,40.00,21.00,0.00,29.85,1009.00,10.00,27.00,SCT,M,M,M,10000.00,M,M,M,M,M,M,M,28.00,40.00,2024-03-15 05:36,41.53,KDRA 150553Z AUTO 04021G27KT 10SM SCT100 09/M04 A2985 RMK AO2 PK WND 04028/0536 SLP090 T00941044 10144 20094 56002,M
ELY,2024-03-15 05:53,-114.8453,39.2950,1909.00,31.00,25.00,78.16,330.00,18.00,T,30.04,1017.70,4.00,26.00,SCT,BKN,OVC,M,2300.00,2900.00,4000.00,M,-SN,M,M,M,26.00,330.00,2024-03-15 05:49,18.43,KELY 150553Z AUTO 33018G26KT 4SM -SN SCT023 BKN029 OVC040 M01/M04 A3004 RMK AO2 PK WND 33026/0549 SNB44 SLP177 P0000 60000 T10061039 10033 21006 51001,M
VGT,2024-03-15 05:53,-115.1933,36.2111,667.00,57.00,26.00,30.16,10.00,11.00,0.00,29.84,1011.60,10.00,M,BKN,M,M,M,9500.00,M,M,M,M,M,M,M,M,M,M,57.00,KVGT 150553Z AUTO 01011KT 10SM BKN095 14/M03 A2984 RMK AO2 SLP116 T01391033 10167 20139 58001,M
LOL,2024-03-15 05:53,-118.5701,40.0684,1192.43,41.00,21.00,44.47,30.00,6.00,0.00,30.13,1020.90,10.00,M,CLR,M,M,M,M,M,M,M,M,M,M,M,M,M,M,36.37,KLOL 150553Z AUTO 03006KT 10SM CLR 05/M06 A3013 RMK AO2 SLP209 T00501061 10111 20050 53007,M
BVU,2024-03-15 05:55,-114.8611,35.9475,671.00,53.60,24.80,32.46,10.00,11.00,0.00,29.82,M,10.00,16.00,FEW,SCT,M,M,10000.00,12000.00,M,M,M,M,M,M,M,M,M,53.60,KBVU 150555Z AUTO 01011G16KT 10SM FEW100 SCT120 12/M04 A2982 RMK AO2,M
CXP,2024-03-15 05:55,-119.7326,39.1923,1431.00,42.80,19.40,38.75,30.00,10.00,0.00,30.13,M,10.00,18.00,FEW,FEW,M,M,5000.00,6000.00,M,M,M,M,M,M,M,M,M,36.51,KCXP 150555Z AUTO 03010G18KT 10SM FEW050 FEW060 06/M07 A3013 RMK AO2,M
INS,2024-03-15 05:55,-115.6733,36.5872,955.00,51.00,21.60,31.24,50.00,12.00,0.00,29.88,1010.10,10.00,M,BKN,M,M,M,10000.00,M,M,M,M,M,M,M,M,M,M,51.00,KINS 150555Z AUTO 05012KT 10SM BKN100 11/M06 A2988 RMK AO2 SLP101 T01061058 10141 20101 51005 $,M
RNO,2024-03-15 05:55,-119.7711,39.4839,1341.00,44.00,20.00,37.97,20.00,10.00,0.00,30.13,1019.60,10.00,M,CLR,M,M,M,M,M,M,M,M,M,M,M,M,M,M,38.02,KRNO 150555Z 02010KT 10SM CLR 07/M07 A3013 RMK AO2 SLP196 T00671067 10106 20061 53005,M
LSV,2024-03-15 05:55,-115.0343,36.2362,570.00,57.20,23.50,26.98,30.00,17.00,0.00,29.80,1008.40,10.00,M,CLR,M,M,M,M,M,M,M,M,M,M,M,26.00,30.00,2024-03-15 05:49,57.20,KLSV 150555Z AUTO 03017KT 10SM CLR 14/M05 A2980 RMK AO2 PK WND 03026/49 SLP084 T01401047 10177 20139 58002 $,M
RTS,2024-03-15 05:55,-119.8764,39.6682,1539.00,39.20,19.40,44.55,40.00,9.00,0.00,30.13,M,10.00,M,CLR,M,M,M,M,M,M,M,M,M,M,M,M,M,M,32.47,KRTS 150555Z AUTO 04009KT 10SM CLR 04/M07 A3013 RMK AO2,M
MEV,2024-03-15 05:55,-119.7500,38.9963,1441.42,41.00,19.40,41.54,20.00,7.00,0.00,30.11,M,10.00,M,OVC,M,M,M,6000.00,M,M,M,M,M,M,M,M,M,M,35.75,KMEV 150555Z AUTO 02007KT 10SM OVC060 05/M07 A3011 RMK AO2,M
HTH,2024-03-15 05:55,-118.6315,38.5448,1282.89,44.60,23.00,42.14,330.00,9.00,0.00,30.09,M,10.00,M,FEW,BKN,OVC,M,4500.00,7000.00,8000.00,M,M,M,M,M,M,M,M,39.18,KHTH 150555Z AUTO 33009KT 10SM FEW045 BKN070 OVC080 07/M05 A3009 RMK A01,M
TMT,2024-03-15 05:55,-117.1971,39.4643,1749.34,33.00,22.00,63.59,10.00,9.00,0.00,30.11,M,10.00,M,OVC,M,M,M,7000.00,M,M,M,M,M,M,M,M,M,M,24.76,KTMT 150555Z AUTO 01009KT 10SM OVC070 01/M05 A3011 RMK AO2 T00051055 10043 20002,M
10U,2024-03-15 05:55,-116.1876,41.9532,1637.00,33.80,17.60,51.04,50.00,11.00,0.00,30.21,M,10.00,M,CLR,M,M,M,M,M,M,M,M,M,M,M,M,M,M,24.74,K10U 150555Z AUTO 05011KT 10SM CLR 01/M08 A3021 RMK AO2,M
EKO,2024-03-15 05:56,-115.7860,40.8242,1367.00,35.00,19.00,51.67,40.00,9.00,0.00,30.13,1020.90,10.00,M,SCT,M,M,M,11000.00,M,M,M,M,M,M,M,M,M,M,27.24,KEKO 150556Z AUTO 04009KT 10SM SCT110 02/M07 A3013 RMK AO2 SLP209 T00171072 10083 20011 50004,M
WMC,2024-03-15 05:56,-117.8072,40.9019,1315.00,39.00,20.00,46.06,30.00,15.00,0.00,30.17,1021.60,10.00,M,CLR,M,M,M,M,M,M,M,M,M,M,M,M,M,M,29.85,KWMC 150556Z AUTO 03015KT 10SM CLR 04/M07 A3017 RMK AO2 SLP216 T00391067 10106 20028 51007,M
NFL,2024-03-15 05:56,-118.7010,39.4166,1199.00,41.00,24.00,50.46,340.00,7.00,0.00,30.11,1016.20,10.00,M,FEW,SCT,M,M,10000.00,25000.00,M,M,M,M,M,M,M,M,M,35.75,KNFL 150556Z 34007KT 10SM FEW100 SCT250 05/M04 A3011 RMK AO2 SLP162 T00501044 10111 20044 53007,M
HND,2024-03-15 05:56,-115.1344,35.9729,742.79,53.00,25.00,33.46,30.00,8.00,0.00,29.85,1012.30,10.00,M,BKN,BKN,M,M,8500.00,12000.00,M,M,M,M,M,M,M,M,M,53.00,KHND 150556Z AUTO 03008KT 10SM BKN085 BKN120 12/M04 A2985 RMK AO2 SLP123 T01171039 10144 20117 50000,M
TPH,2024-03-15 05:56,-117.0904,38.0505,1654.00,37.00,20.00,49.82,10.00,12.00,0.00,30.00,1015.30,10.00,M,BKN,M,M,M,11000.00,M,M,M,M,M,M,M,M,M,M,28.37,KTPH 150556Z AUTO 01012KT 10SM BKN110 03/M07 A3000 RMK AO2 SLP153 T00281067 10083 20022 51004,M
LAS,2024-03-15 05:56,-115.1634,36.0719,663.00,54.00,25.00,32.26,20.00,14.00,0.00,29.84,1009.80,10.00,M,BKN,M,M,M,8500.00,M,M,M,M,M,M,M,M,M,M,54.00,KLAS 150556Z 02014KT 10SM BKN085 12/M04 A2984 RMK AO2 SLP098 BKN V OVC T01221039 10150 20122 58000,M
ELY,2024-03-15 06:08,-114.8453,39.2950,1909.00,31.00,26.00,81.48,320.00,15.00,T,30.04,M,2.50,28.00,FEW,BKN,OVC,M,1300.00,2100.00,2500.00,M,-SN,M,M,M,28.00,330.00,2024-03-15 06:02,19.48,KELY 150608Z AUTO 32015G28KT 2 1/2SM -SN FEW013 BKN021 OVC025 M01/M03 A3004 RMK AO2 PK WND 33028/0602 P0000 T10061033,M
MEV,2024-03-15 06:10,-119.7500,38.9963,1441.42,41.00,19.40,41.54,10.00,10.00,0.00,30.11,M,10.00,M,OVC,M,M,M,6000.00,M,M,M,M,M,M,M,M,M,M,34.25,KMEV 150610Z AUTO 01010KT 10SM OVC060 05/M07 A3011 RMK AO2,M
RTS,2024-03-15 06:10,-119.8764,39.6682,1539.00,39.20,19.40,44.55,40.00,8.00,0.00,30.14,M,10.00,M,CLR,M,M,M,M,M,M,M,M,M,M,M,M,M,M,32.98,KRTS 150610Z AUTO 04008KT 10SM CLR 04/M07 A3014 RMK AO2,M
BVU,2024-03-15 06:15,-114.8611,35.9475,671.00,53.60,24.80,32.46,10.00,8.00,0.00,29.81,M,10.00,13.00,BKN,M,M,M,11000.00,M,M,M,M,M,M,M,M,M,M,53.60,KBVU 150615Z AUTO 01008G13KT 10SM BKN110 12/M04 A2981 RMK AO2,M
CXP,2024-03-15 06:15,-119.7326,39.1923,1431.00,42.80,19.40,38.75,30.00,13.00,0.00,30.12,M,10.00,18.00,CLR,M,M,M,M,M,M,M,M,M,M,M,M,M,M,35.40,KCXP 150615Z AUTO 03013G18KT 10SM CLR 06/M07 A3012 RMK AO2,M
HTH,2024-03-15 06:15,-118.6315,38.5448,1282.89,44.60,23.00,42.14,320.00,12.00,0.00,30.08,M,10.00,M,BKN,BKN,OVC,M,7000.00,8000.00,9000.00,M,M,M,M,M,M,M,M,38.04,KHTH 150615Z AUTO 32012KT 10SM BKN070 BKN080 OVC090 07/M05 A3008 RMK A01,M
10U,2024-03-15 06:15,-116.1876,41.9532,1637.00,35.60,17.60,47.51,40.00,12.00,0.00,30.21,M,10.00,M,CLR,M,M,M,M,M,M,M,M,M,M,M,M,M,M,26.58,K10U 150615Z AUTO 04012KT 10SM CLR 02/M08 A3021 RMK AO2,M
TMT,2024-03-15 06:15,-117.1971,39.4643,1749.34,32.00,22.00,66.20,20.00,9.00,0.00,30.11,M,10.00,M,SCT,M,M,M,7000.00,M,M,M,M,M,M,M,M,M,M,23.51,KTMT 150615Z AUTO 02009KT 10SM SCT070 00/M06 A3011 RMK AO2 T00001056,M
ELY,2024-03-15 06:20,-114.8453,39.2950,1909.00,30.00,27.00,88.44,330.00,13.00,T,30.04,M,3.00,26.00,BKN,BKN,OVC,M,1000.00,1600.00,2400.00,M,-SN BR,M,M,M,28.00,330.00,2024-03-15 06:02,19.01,KELY 150620Z AUTO 33013G26KT 3SM -SN BR BKN010 BKN016 OVC024 M01/M03 A3004 RMK AO2 PK WND 33028/0602 CIG 007V013 P0000 T10111028,M
ELY,2024-03-15 06:23,-114.8453,39.2950,1909.00,30.00,27.00,88.44,340.00,16.00,T,30.04,M,3.00,26.00,BKN,BKN,OVC,M,800.00,1400.00,2100.00,M,-SN BR,M,M,M,28.00,330.00,2024-03-15 06:02,17.81,KELY 150623Z AUTO 34016G26KT 3SM -SN BR BKN008 BKN014 OVC021 M01/M03 A3004 RMK AO2 PK WND 33028/0602 CIG 007V013 P0000 T10111028,M
BVU,2024-03-15 06:35,-114.8611,35.9475,671.00,51.80,24.80,34.69,350.00,8.00,0.00,29.81,M,10.00,M,OVC,M,M,M,11000.00,M,M,M,M,M,M,M,M,M,M,51.80,KBVU 150635Z AUTO 35008KT 10SM OVC110 11/M04 A2981 RMK AO2,M
CXP,2024-03-15 06:35,-119.7326,39.1923,1431.00,41.00,19.40,41.54,30.00,12.00,0.00,30.12,M,10.00,M,CLR,M,M,M,M,M,M,M,M,M,M,M,M,M,M,33.46,KCXP 150635Z AUTO 03012KT 10SM CLR 05/M07 A3012 RMK AO2,M
HTH,2024-03-15 06:35,-118.6315,38.5448,1282.89,44.60,23.00,42.14,350.00,9.00,0.00,30.09,M,10.00,M,FEW,OVC,M,M,7000.00,8500.00,M,M,M,M,M,M,M,M,M,39.18,KHTH 150635Z AUTO 35009KT 10SM FEW070 OVC085 07/M05 A3009 RMK A01,M
10U,2024-03-15 06:35,-116.1876,41.9532,1637.00,35.60,19.40,51.33,40.00,12.00,0.00,30.20,M,10.00,M,CLR,M,M,M,M,M,M,M,M,M,M,M,M,M,M,26.58,K10U 150635Z AUTO 04012KT 10SM CLR 02/M07 A3020 RMK AO2,M
TMT,2024-03-15 06:35,-117.1971,39.4643,1749.34,31.00,22.00,68.92,20.00,6.00,0.00,30.11,M,10.00,M,CLR,M,M,M,M,M,M,M,M,M,M,M,M,M,M,24.33,KTMT 150635Z AUTO 02006KT 10SM CLR 00/M06 A3011 RMK AO2 T10051056,M
ELY,2024-03-15 06:41,-114.8453,39.2950,1909.00,30.00,26.00,84.85,340.00,17.00,T,30.04,M,2.50,25.00,OVC,M,M,M,900.00,M,M,M,-SN BR,M,M,M,28.00,330.00,2024-03-15 06:02,17.46,KELY 150641Z AUTO 34017G25KT 2 1/2SM -SN BR OVC009 M01/M03 A3004 RMK AO2 PK WND 33028/0602 CIG 007V013 P0000 T10111033,M
DRA,2024-03-15 06:53,-116.0278,36.6206,1009.00,48.00,25.00,40.29,30.00,20.00,0.00,29.84,1008.80,10.00,27.00,BKN,M,M,M,10000.00,M,M,M,M,M,M,M,28.00,40.00,2024-03-15 05:56,40.39,KDRA 150653Z AUTO 03020G27KT 10SM BKN100 09/M04 A2984 RMK AO2 PK WND 04028/0556 SLP088 T00891039,M
ELY,2024-03-15 06:53,-114.8453,39.2950,1909.00,30.00,26.00,84.85,340.00,14.00,T,30.04,1017.10,2.00,28.00,OVC,M,M,M,800.00,M,M,M,-SN BR,M,M,M,28.00,340.00,2024-03-15 06:44,18.58,KELY 150653Z AUTO 34014G28KT 2SM -SN BR OVC008 M01/M03 A3004 RMK AO2 PK WND 34028/0644 SLP171 P0000 T10111033,M
VGT,2024-03-15 06:53,-115.1933,36.2111,667.00,56.00,26.00,31.27,340.00,9.00,0.00,29.83,1011.20,10.00,M,OVC,M,M,M,8500.00,M,M,M,M,M,M,M,M,M,M,56.00,KVGT 150653Z AUTO 34009KT 10SM OVC085 13/M03 A2983 RMK AO2 SLP112 T01331033,M
LOL,2024-03-15 06:53,-118.5701,40.0684,1192.43,39.00,20.00,46.06,40.00,7.00,0.00,30.13,1020.90,10.00,M,CLR,M,M,M,M,M,M,M,M,M,M,M,M,M,M,33.31,KLOL 150653Z AUTO 04007KT 10SM CLR 04/M07 A3013 RMK AO2 SLP209 T00391067,M
BVU,2024-03-15 06:55,-114.8611,35.9475,671.00,53.60,24.80,32.46,10.00,16.00,0.00,29.80,M,10.00,M,OVC,M,M,M,10000.00,M,M,M,M,M,M,M,M,M,M,53.60,KBVU 150655Z AUTO 01016KT 10SM OVC100 12/M04 A2980 RMK AO2,M
CXP,2024-03-15 06:55,-119.7326,39.1923,1431.00,41.00,19.40,41.54,40.00,11.00,0.00,30.12,M,10.00,M,CLR,M,M,M,M,M,M,M,M,M,M,M,M,M,M,33.84,KCXP 150655Z AUTO 04011KT 10SM CLR 05/M07 A3012 RMK AO2,M
INS,2024-03-15 06:55,-115.6733,36.5872,955.00,51.30,22.50,32.09,40.00,15.00,0.00,29.87,1009.60,10.00,M,OVC,M,M,M,9000.00,M,M,M,M,M,M,M,M,M,M,51.30,KINS 150655Z AUTO 04015KT 10SM OVC090 11/M05 A2987 RMK AO2 SLP096 T01071053 $,M
RNO,2024-03-15 06:55,-119.7711,39.4839,1341.00,42.00,21.00,42.78,10.00,8.00,0.00,30.13,1019.70,10.00,M,FEW,M,M,M,8000.00,M,M,M,M,M,M,M,M,M,M,36.43,KRNO 150655Z 01008KT 10SM FEW080 06/M06 A3013 RMK AO2 SLP197 T00561061,M
LSV,2024-03-15 06:55,-115.0343,36.2362,570.00,57.00,24.30,28.10,40.00,15.00,0.00,29.79,1008.00,10.00,24.00,CLR,M,M,M,M,M,M,M,M,M,M,M,M,M,M,57.00,KLSV 150655Z AUTO 04015G24KT 10SM CLR 14/M04 A2979 RMK AO2 SLP080 T01391043 $,M
HTH,2024-03-15 06:55,-118.6315,38.5448,1282.89,44.60,23.00,42.14,350.00,8.00,0.00,30.09,M,10.00,M,BKN,OVC,M,M,6500.00,8500.00,M,M,M,M,M,M,M,M,M,39.63,KHTH 150655Z AUTO 35008KT 10SM BKN065 OVC085 07/M05 A3009 RMK A01,M
TMT,2024-03-15 06:55,-117.1971,39.4643,1749.34,31.00,22.00,68.92,30.00,10.00,0.00,30.11,M,10.00,M,CLR,M,M,M,M,M,M,M,M,M,M,M,M,M,M,21.71,KTMT 150655Z AUTO 03010KT 10SM CLR 00/M05 A3011 RMK AO2 T10051055,M
10U,2024-03-15 06:55,-116.1876,41.9532,1637.00,33.80,19.40,55.14,80.00,12.00,0.00,30.19,M,10.00,18.00,CLR,M,M,M,M,M,M,M,M,M,M,M,M,M,M,24.29,K10U 150655Z AUTO 08012G18KT 10SM CLR 01/M07 A3019 RMK AO2,M
EKO,2024-03-15 06:56,-115.7860,40.8242,1367.00,36.00,19.00,49.66,50.00,10.00,0.00,30.14,1020.70,10.00,18.00,CLR,M,M,M,M,M,M,M,M,M,M,M,M,M,M,27.98,KEKO 150656Z AUTO 05010G18KT 10SM CLR 02/M07 A3014 RMK AO2 SLP207 T00221072,M
WMC,2024-03-15 06:56,-117.8072,40.9019,1315.00,37.00,20.00,49.82,40.00,16.00,0.00,30.16,1021.50,10.00,25.00,CLR,M,M,M,M,M,M,M,M,M,M,M,M,M,M,26.94,KWMC 150656Z AUTO 04016G25KT 10SM CLR 03/M07 A3016 RMK AO2 SLP215 T00281067,M
NFL,2024-03-15 06:56,-118.7010,39.4166,1199.00,41.00,22.00,46.39,10.00,6.00,0.00,30.11,1016.20,10.00,M,CLR,M,M,M,M,M,M,M,M,M,M,M,M,M,M,36.37,KNFL 150656Z AUTO 01006KT 10SM CLR 05/M06 A3011 RMK AO2 SLP162 T00501056,M
HND,2024-03-15 06:56,-115.1344,35.9729,742.79,53.00,25.00,33.46,20.00,11.00,0.00,29.84,1011.90,10.00,M,BKN,M,M,M,11000.00,M,M,M,M,M,M,M,M,M,M,53.00,KHND 150656Z AUTO 02011KT 10SM BKN110 12/M04 A2984 RMK AO2 SLP119 T01171039 401610056,M
TPH,2024-03-15 06:56,-117.0904,38.0505,1654.00,37.00,20.00,49.82,10.00,14.00,0.00,29.99,1014.50,10.00,M,CLR,M,M,M,M,M,M,M,M,M,M,M,M,M,M,27.61,KTPH 150656Z AUTO 01014KT 10SM CLR 03/M07 A2999 RMK AO2 SLP145 T00281067,M
LAS,2024-03-15 06:56,-115.1634,36.0719,663.00,54.00,26.00,33.63,10.00,17.00,0.00,29.82,1009.10,10.00,M,BKN,M,M,M,8500.00,M,M,M,M,M,M,M,M,M,M,54.00,KLAS 150656Z 01017KT 10SM BKN085 12/M03 A2982 RMK AO2 SLP091 T01221033,M
ELY,2024-03-15 07:06,-114.8453,39.2950,1909.00,30.00,26.00,84.85,340.00,16.00,T,30.04,M,5.00,25.00,SCT,BKN,OVC,M,800.00,2100.00,3000.00,M,-SN BR,M,M,M,M,M,M,17.81,KELY 150706Z AUTO 34016G25KT 5SM -SN BR SCT008 BKN021 OVC030 M01/M03 A3004 RMK AO2 P0000 T10111033,M
BVU,2024-03-15 07:15,-114.8611,35.9475,671.00,53.60,24.80,32.46,10.00,15.00,0.00,29.80,M,10.00,22.00,FEW,OVC,M,M,7500.00,9500.00,M,M,M,M,M,M,M,M,M,53.60,KBVU 150715Z AUTO 01015G22KT 10SM FEW075 OVC095 12/M04 A2980 RMK AO2,M
CXP,2024-03-15 07:15,-119.7326,39.1923,1431.00,41.00,19.40,41.54,30.00,10.00,0.00,30.12,M,10.00,17.00,CLR,M,M,M,M,M,M,M,M,M,M,M,M,M,M,34.25,KCXP 150715Z AUTO 03010G17KT 10SM CLR 05/M07 A3012 RMK AO2,M
HTH,2024-03-15 07:15,-118.6315,38.5448,1282.89,42.80,21.20,41.84,340.00,8.00,0.00,30.08,M,10.00,M,SCT,BKN,M,M,6500.00,8500.00,M,M,M,M,M,M,M,M,M,37.42,KHTH 150715Z AUTO 34008KT 10SM SCT065 BKN085 06/M06 A3008 RMK A01,M
10U,2024-03-15 07:15,-116.1876,41.9532,1637.00,30.20,19.40,63.75,230.00,5.00,0.00,30.20,M,10.00,M,CLR,M,M,M,M,M,M,M,M,M,M,M,M,M,M,24.26,K10U 150715Z AUTO 23005KT 10SM CLR M01/M07 A3020 RMK AO2,M
ELY,2024-03-15 07:19,-114.8453,39.2950,1909.00,30.00,25.00,81.40,330.00,14.00,T,30.03,M,9.00,M,FEW,SCT,OVC,M,800.00,2600.00,3200.00,M,M,M,M,M,M,M,M,18.58,KELY 150719Z AUTO 33014KT 9SM FEW008 SCT026 OVC032 M01/M04 A3003 RMK AO2 SNE16 P0000 T10111039,M
BVU,2024-03-15 07:35,-114.8611,35.9475,671.00,53.60,26.60,34.98,360.00,14.00,0.00,29.80,M,10.00,M,BKN,OVC,M,M,8000.00,9500.00,M,M,M,M,M,M,M,M,M,53.60,KBVU 150735Z AUTO 36014KT 10SM BKN080 OVC095 12/M03 A2980 RMK AO2,M
CXP,2024-03-15 07:35,-119.7326,39.1923,1431.00,41.00,19.40,41.54,30.00,10.00,0.00,30.11,M,10.00,16.00,CLR,M,M,M,M,M,M,M,M,M,M,M,M,M,M,34.25,KCXP 150735Z AUTO 03010G16KT 10SM CLR 05/M07 A3011 RMK AO2,M
HTH,2024-03-15 07:35,-118.6315,38.5448,1282.89,42.80,21.20,41.84,350.00,7.00,0.00,30.08,M,10.00,13.00,SCT,OVC,M,M,8000.00,9000.00,M,M,M,M,M,M,M,M,M,37.94,KHTH 150735Z AUTO 35007G13KT 10SM SCT080 OVC090 06/M06 A3008 RMK A01,M
10U,2024-03-15 07:35,-116.1876,41.9532,1637.00,28.40,19.40,68.61,120.00,3.00,0.00,30.20,M,10.00,M,CLR,M,M,M,M,M,M,M,M,M,M,M,M,M,M,24.57,K10U 150735Z AUTO 12003KT 10SM CLR M02/M07 A3020 RMK AO2,M
TMT,2024-03-15 07:35,-117.1971,39.4643,1749.34,30.60,22.00,70.05,40.00,8.00,0.00,30.10,M,10.00,M,SCT,BKN,M,M,7000.00,8000.00,M,M,M,M,M,M,M,M,M,22.39,KTMT 150735Z AUTO 04008KT 10SM SCT070 BKN080 M01/M05 A3010 RMK AO2 T10081055,M
DRA,2024-03-15 07:53,-116.0278,36.6206,1009.00,49.00,25.00,38.81,30.00,23.00,0.00,29.83,1008.20,10.00,31.00,OVC,M,M,M,10000.00,M,M,M,M,M,M,M,31.00,30.00,2024-03-15 07:47,41.16,KDRA 150753Z AUTO 03023G31KT 10SM OVC100 09/M04 A2983 RMK AO2 PK WND 03031/0747 SLP082 T00941039 401500028,M
ELY,2024-03-15 07:53,-114.8453,39.2950,1909.00,30.00,24.00,78.07,340.00,20.00,T,30.03,1017.20,10.00,28.00,OVC,M,M,M,3200.00,M,M,M,M,M,M,M,28.00,350.00,2024-03-15 07:52,16.48,KELY 150753Z AUTO 34020G28KT 10SM OVC032 M01/M04 A3003 RMK AO2 PK WND 35028/0752 SNE16 SLP172 P0000 T10111044 400331067,M
VGT,2024-03-15 07:53,-115.1933,36.2111,667.00,57.00,27.00,31.43,10.00,10.00,0.00,29.81,1010.60,10.00,M,OVC,M,M,M,8500.00,M,M,M,M,M,M,M,M,M,M,57.00,KVGT 150753Z AUTO 01010KT 10SM OVC085 14/M03 A2981 RMK AO2 SLP106 T01391028 401780072,M
LOL,2024-03-15 07:53,-118.5701,40.0684,1192.43,39.00,20.00,46.06,20.00,7.00,0.00,30.13,1020.50,10.00,M,CLR,M,M,M,M,M,M,M,M,M,M,M,M,M,M,33.31,KLOL 150753Z AUTO 02007KT 10SM CLR 04/M07 A3013 RMK AO2 SLP205 T00391067 401111050,M
BVU,2024-03-15 07:55,-114.8611,35.9475,671.00,53.60,26.60,34.98,360.00,18.00,0.00,29.79,M,10.00,M,FEW,BKN,OVC,M,6500.00,8000.00,9000.00,M,M,M,M,M,M,M,M,53.60,KBVU 150755Z AUTO 36018KT 10SM FEW065 BKN080 OVC090 12/M03 A2979 RMK AO2,M
CXP,2024-03-15 07:55,-119.7326,39.1923,1431.00,41.00,19.40,41.54,40.00,11.00,0.00,30.11,M,10.00,M,CLR,M,M,M,M,M,M,M,M,M,M,M,M,M,M,33.84,KCXP 150755Z AUTO 04011KT 10SM CLR 05/M07 A3011 RMK AO2,M
INS,2024-03-15 07:55,-115.6733,36.5872,955.00,50.00,23.40,34.97,30.00,9.00,0.00,29.86,1009.20,10.00,M,OVC,M,M,M,9500.00,M,M,M,M,M,M,M,M,M,M,50.00,KINS 150755Z AUTO 03009KT 10SM OVC095 10/M05 A2986 RMK AO2 SLP092 T01001048 401500038 $,M
RNO,2024-03-15 07:55,-119.7711,39.4839,1341.00,40.00,20.00,44.30,330.00,3.00,0.00,30.13,1019.50,10.00,M,FEW,M,M,M,8000.00,M,M,M,M,M,M,M,M,M,M,37.83,KRNO 150755Z 33003KT 10SM FEW080 04/M07 A3013 RMK AO2 SLP195 T00441067 401111022,M
HTH,2024-03-15 07:55,-118.6315,38.5448,1282.89,42.80,21.20,41.84,360.00,12.00,0.00,30.07,M,10.00,M,OVC,M,M,M,9000.00,M,M,M,M,M,M,M,M,M,M,35.75,KHTH 150755Z AUTO 36012KT 10SM OVC090 06/M06 A3007 RMK A01,M
TMT,2024-03-15 07:55,-117.1971,39.4643,1749.34,31.00,22.00,68.92,20.00,4.00,0.00,30.10,M,10.00,M,BKN,M,M,M,8000.00,M,M,M,M,M,M,M,M,M,M,26.25,KTMT 150755Z AUTO 02004KT 10SM BKN080 M01/M05 A3010 RMK AO2 T10061055 400561077,M
10U,2024-03-15 07:55,-116.1876,41.9532,1637.00,28.40,19.40,68.61,0.00,0.00,0.00,30.20,M,10.00,M,CLR,M,M,M,M,M,M,M,M,M,M,M,M,M,M,28.40,K10U 150755Z AUTO 00000KT 10SM CLR M02/M07 A3020 RMK AO2,M
LSV,2024-03-15 07:55,-115.0343,36.2362,570.00,57.20,25.00,28.72,30.00,14.00,0.00,29.78,1007.60,10.00,M,FEW,M,M,M,11000.00,M,M,M,M,M,M,M,26.00,20.00,2024-03-15 06:59,57.20,KLSV 150755Z AUTO 03014KT 10SM FEW110 14/M04 A2978 RMK AO2 PK WND 02026/0659 SLP076 T01401038 401780091 $,M
EKO,2024-03-15 07:56,-115.7860,40.8242,1367.00,35.00,19.00,51.67,50.00,9.00,0.00,30.12,1020.00,10.00,M,SCT,M,M,M,9000.00,M,M,M,M,M,M,M,M,M,M,27.24,KEKO 150756Z AUTO 05009KT 10SM SCT090 02/M07 A3012 RMK AO2 SLP200 T00171072 400941017,M
WMC,2024-03-15 07:56,-117.8072,40.9019,1315.00,36.00,20.00,51.83,40.00,12.00,0.00,30.16,1021.00,10.00,M,CLR,M,M,M,M,M,M,M,M,M,M,M,M,M,M,27.09,KWMC 150756Z AUTO 04012KT 10SM CLR 02/M07 A3016 RMK AO2 SLP210 T00221067 401111056,M
NFL,2024-03-15 07:56,-118.7010,39.4166,1199.00,38.00,22.00,52.14,360.00,14.00,0.00,30.09,1015.70,10.00,M,CLR,M,M,M,M,M,M,M,M,M,M,M,M,M,M,28.90,KNFL 150756Z AUTO 36014KT 10SM CLR 03/M06 A3009 RMK AO2 SLP157 T00331056 401171050,M
HND,2024-03-15 07:56,-115.1344,35.9729,742.79,53.00,26.00,34.88,40.00,11.00,0.00,29.83,1011.30,10.00,16.00,FEW,OVC,M,M,8000.00,11000.00,M,M,M,M,M,M,M,M,M,53.00,KHND 150756Z AUTO 04011G16KT 10SM FEW080 OVC110 12/M03 A2983 RMK AO2 SLP113 T01171033,M
TPH,2024-03-15 07:56,-117.0904,38.0505,1654.00,37.00,21.00,51.99,360.00,13.00,0.00,29.98,1014.10,10.00,M,SCT,M,M,M,7000.00,M,M,M,M,M,M,M,M,M,M,27.97,KTPH 150756Z AUTO 36013KT 10SM SCT070 03/M06 A2998 RMK AO2 SLP141 T00281061 400891044,M
LAS,2024-03-15 07:56,-115.1634,36.0719,663.00,54.00,26.00,33.63,360.00,16.00,0.00,29.80,1008.70,10.00,22.00,OVC,M,M,M,8000.00,M,M,M,M,M,M,M,M,M,M,54.00,KLAS 150756Z 36016G22KT 10SM OVC080 12/M03 A2980 RMK AO2 SLP087 OVC V BKN T01221033 401560061,M
BVU,2024-03-15 08:15,-114.8611,35.9475,671.00,53.60,26.60,34.98,10.00,17.00,0.00,29.79,M,10.00,M,SCT,BKN,OVC,M,6000.00,7500.00,8500.00,M,M,M,M,M,M,M,M,53.60,KBVU 150815Z AUTO 01017KT 10SM SCT060 BKN075 OVC085 12/M03 A2979 RMK AO2,M
CXP,2024-03-15 08:15,-119.7326,39.1923,1431.00,39.20,19.40,44.55,40.00,11.00,0.00,30.12,M,10.00,M,CLR,M,M,M,M,M,M,M,M,M,M,M,M,M,M,31.57,KCXP 150815Z AUTO 04011KT 10SM CLR 04/M07 A3012 RMK AO2,M
HTH,2024-03-15 08:15,-118.6315,38.5448,1282.89,42.80,23.00,45.14,330.00,7.00,0.00,30.07,M,10.00,13.00,BKN,OVC,M,M,8000.00,9000.00,M,M,M,M,M,M,M,M,M,37.94,KHTH 150815Z AUTO 33007G13KT 10SM BKN080 OVC090 06/M05 A3007 RMK A01,M
10U,2024-03-15 08:15,-116.1876,41.9532,1637.00,26.60,21.20,79.77,0.00,0.00,0.00,30.20,M,10.00,M,CLR,M,M,M,M,M,M,M,M,M,M,M,M,M,M,26.60,K10U 150815Z AUTO 00000KT 10SM CLR M03/M06 A3020 RMK AO2,M
TMT,2024-03-15 08:15,-117.1971,39.4643,1749.34,29.00,21.70,73.83,0.00,0.00,0.00,30.09,M,10.00,M,BKN,M,M,M,8000.00,M,M,M,M,M,M,M,M,M,M,29.00,KTMT 150815Z AUTO 00000KT 10SM BKN080 M02/M06 A3009 RMK AO2 T10161057,M
ELY,2024-03-15 08:26,-114.8453,39.2950,1909.00,30.00,24.00,78.07,340.00,16.00,0.00,30.02,M,10.00,29.00,BKN,OVC,M,M,2800.00,3600.00,M,M,M,M,M,M,30.00,350.00,2024-03-15 08:03,17.81,KELY 150826Z AUTO 34016G29KT 10SM BKN028 OVC036 M01/M04 A3002 RMK AO2 PK WND 35030/0803 T10111044,M
BVU,2024-03-15 08:35,-114.8611,35.9475,671.00,53.60,26.60,34.98,20.00,12.00,0.00,29.79,M,10.00,18.00,BKN,OVC,M,M,6000.00,7500.00,M,M,M,M,M,M,M,M,M,53.60,KBVU 150835Z AUTO 02012G18KT 10SM BKN060 OVC075 12/M03 A2979 RMK AO2,M
CXP,2024-03-15 08:35,-119.7326,39.1923,1431.00,39.20,19.40,44.55,40.00,10.00,0.00,30.12,M,10.00,M,CLR,M,M,M,M,M,M,M,M,M,M,M,M,M,M,32.00,KCXP 150835Z AUTO 04010KT 10SM CLR 04/M07 A3012 RMK AO2,M
HTH,2024-03-15 08:35,-118.6315,38.5448,1282.89,42.80,23.00,45.14,310.00,8.00,0.00,30.08,M,10.00,M,SCT,OVC,M,M,6500.00,8000.00,M,M,M,M,M,M,M,M,M,37.42,KHTH 150835Z AUTO 31008KT 10SM SCT065 OVC080 06/M05 A3008 RMK A01,M
10U,2024-03-15 08:35,-116.1876,41.9532,1637.00,26.60,19.40,73.89,330.00,9.00,0.00,30.19,M,10.00,M,CLR,M,M,M,M,M,M,M,M,M,M,M,M,M,M,16.80,K10U 150835Z AUTO 33009KT 10SM CLR M03/M07 A3019 RMK AO2,M
TMT,2024-03-15 08:35,-117.1971,39.4643,1749.34,30.00,22.00,71.78,60.00,9.00,0.00,30.09,M,10.00,M,SCT,M,M,M,8000.00,M,M,M,M,M,M,M,M,M,M,21.03,KTMT 150835Z AUTO 06009KT 10SM SCT080 M01/M06 A3009 RMK AO2 T10111056,M
ELY,2024-03-15 08:44,-114.8453,39.2950,1909.00,30.00,24.00,78.07,340.00,13.00,0.00,30.02,M,10.00,26.00,OVC,M,M,M,3100.00,M,M,M,M,M,M,M,30.00,350.00,2024-03-15 08:03,19.01,KELY 150844Z AUTO 34013G26KT 10SM OVC031 M01/M04 A3002 RMK AO2 PK WND 35030/0803 T10111044,M
DRA,2024-03-15 08:53,-116.0278,36.6206,1009.00,48.00,25.00,40.29,20.00,18.00,0.00,29.83,1008.10,10.00,M,OVC,M,M,M,10000.00,M,M,M,M,M,M,M,32.00,30.00,2024-03-15 08:04,40.81,KDRA 150853Z AUTO 02018KT 10SM OVC100 09/M04 A2983 RMK AO2 PK WND 03032/0804 SLP081 T00891039 55007,M
ELY,2024-03-15 08:53,-114.8453,39.2950,1909.00,30.00,23.00,74.87,320.00,8.00,0.00,30.02,1017.00,10.00,24.00,BKN,OVC,M,M,3100.00,3800.00,M,M,M,M,M,M,30.00,350.00,2024-03-15 08:03,21.65,KELY 150853Z AUTO 32008G24KT 10SM BKN031 OVC038 M01/M05 A3002 RMK AO2 PK WND 35030/0803 SLP170 60000 T10111050 58005,M
VGT,2024-03-15 08:53,-115.1933,36.2111,667.00,57.00,27.00,31.43,360.00,8.00,0.00,29.81,1010.30,10.00,M,OVC,M,M,M,8000.00,M,M,M,M,M,M,M,M,M,M,57.00,KVGT 150853Z AUTO 36008KT 10SM OVC080 14/M03 A2981 RMK AO2 SLP103 T01391028 56009,M
LOL,2024-03-15 08:53,-118.5701,40.0684,1192.43,38.00,20.00,47.90,40.00,5.00,0.00,30.12,1020.00,10.00,M,CLR,M,M,M,M,M,M,M,M,M,M,M,M,M,M,33.52,KLOL 150853Z AUTO 04005KT 10SM CLR 03/M07 A3012 RMK AO2 SLP200 T00331067 58005,M
BVU,2024-03-15 08:55,-114.8611,35.9475,671.00,53.60,26.60,34.98,10.00,14.00,0.00,29.79,M,10.00,M,FEW,BKN,OVC,M,4600.00,5500.00,6500.00,M,M,M,M,M,M,M,M,53.60,KBVU 150855Z AUTO 01014KT 10SM FEW046 BKN055 OVC065 12/M03 A2979 RMK AO2,M
CXP,2024-03-15 08:55,-119.7326,39.1923,1431.00,39.20,19.40,44.55,30.00,9.00,0.00,30.12,M,10.00,M,CLR,M,M,M,M,M,M,M,M,M,M,M,M,M,M,32.47,KCXP 150855Z AUTO 03009KT 10SM CLR 04/M07 A3012 RMK AO2,M
INS,2024-03-15 08:55,-115.6733,36.5872,955.00,50.50,24.00,35.20,20.00,8.00,0.00,29.84,1008.50,10.00,M,BKN,OVC,M,M,9000.00,11000.00,M,M,M,M,M,M,M,M,M,50.50,KINS 150855Z AUTO 02008KT 10SM BKN090 OVC110 10/M04 A2984 RMK AO2 SLP085 T01031045 57011 $,M
RNO,2024-03-15 08:55,-119.7711,39.4839,1341.00,39.00,20.00,46.06,0.00,0.00,0.00,30.12,1019.10,10.00,M,FEW,M,M,M,8000.00,M,M,M,M,M,M,M,M,M,M,39.00,KRNO 150855Z 00000KT 10SM FEW080 04/M07 A3012 RMK AO2 SLP191 T00391067 58002,M
HTH,2024-03-15 08:55,-118.6315,38.5448,1282.89,42.80,24.80,48.67,320.00,9.00,0.00,30.08,M,10.00,M,FEW,OVC,M,M,6000.00,7000.00,M,M,M,M,M,M,M,M,M,36.94,KHTH 150855Z AUTO 32009KT 10SM FEW060 OVC070 06/M04 A3008 RMK A01,M
TMT,2024-03-15 08:55,-117.1971,39.4643,1749.34,30.00,21.70,70.88,70.00,11.00,0.00,30.08,M,10.00,M,SCT,M,M,M,8000.00,M,M,M,M,M,M,M,M,M,M,19.94,KTMT 150855Z AUTO 07011KT 10SM SCT080 M01/M06 A3008 RMK AO2 T10111057,M
10U,2024-03-15 08:55,-116.1876,41.9532,1637.00,28.40,19.40,68.61,M,3.00,0.00,30.19,M,10.00,M,CLR,M,M,M,M,M,M,M,M,M,M,M,M,M,M,24.57,K10U 150855Z AUTO VRB03KT 10SM CLR M02/M07 A3019 RMK AO2,M
LSV,2024-03-15 08:55,-115.0343,36.2362,570.00,57.20,26.00,29.94,40.00,23.00,0.00,29.78,1007.50,10.00,28.00,CLR,M,M,M,M,M,M,M,M,M,M,M,28.00,30.00,2024-03-15 08:52,57.20,KLSV 150855Z AUTO 04023G28KT 10SM CLR 14/M03 A2978 RMK AO2 PK WND 03028/52 SLP075 T01401033 56008 $,M
EKO,2024-03-15 08:56,-115.7860,40.8242,1367.00,35.00,20.00,53.93,50.00,9.00,0.00,30.11,1019.70,10.00,M,CLR,M,M,M,M,M,M,M,M,M,M,M,M,M,M,27.24,KEKO 150856Z AUTO 05009KT 10SM CLR 02/M07 A3011 RMK AO2 SLP197 T00171067 58005,M
WMC,2024-03-15 08:56,-117.8072,40.9019,1315.00,35.00,20.00,53.93,30.00,12.00,0.00,30.15,1020.80,10.00,M,CLR,M,M,M,M,M,M,M,M,M,M,M,M,M,M,25.82,KWMC 150856Z AUTO 03012KT 10SM CLR 02/M07 A3015 RMK AO2 SLP208 T00171067 58005,M
NFL,2024-03-15 08:56,-118.7010,39.4166,1199.00,36.00,21.00,54.08,10.00,11.00,0.00,30.09,1015.70,10.00,M,CLR,M,M,M,M,M,M,M,M,M,M,M,M,M,M,27.52,KNFL 150856Z AUTO 01011KT 10SM CLR 02/M06 A3009 RMK AO2 SLP157 T00221061 58005,M
HND,2024-03-15 08:56,-115.1344,35.9729,742.79,53.00,27.00,36.36,30.00,14.00,0.00,29.82,1010.80,10.00,18.00,OVC,M,M,M,7000.00,M,M,M,M,M,M,M,M,M,M,53.00,KHND 150856Z AUTO 03014G18KT 10SM OVC070 12/M03 A2982 RMK AO2 SLP108 T01171028 58010,M
TPH,2024-03-15 08:56,-117.0904,38.0505,1654.00,36.00,23.00,58.85,20.00,16.00,0.00,29.98,1014.10,10.00,24.00,BKN,OVC,M,M,7000.00,8000.00,M,M,M,M,M,M,M,M,M,25.63,KTPH 150856Z AUTO 02016G24KT 10SM BKN070 OVC080 02/M05 A2998 RMK AO2 SLP141 T00221050 56006,M
LAS,2024-03-15 08:56,-115.1634,36.0719,663.00,54.00,27.00,35.05,20.00,14.00,0.00,29.81,1008.60,10.00,M,FEW,OVC,M,M,4500.00,6000.00,M,M,M,M,M,M,M,M,M,54.00,KLAS 150856Z 02014KT 10SM FEW045 OVC060 12/M03 A2981 RMK AO2 SLP086 CIG LWR SW-NW SHSN OBSCURES MTNS DSNT SW-NW T01221028 55009,M
BVU,2024-03-15 09:15,-114.8611,35.9475,671.00,53.60,26.60,34.98,10.00,10.00,0.00,29.79,M,10.00,M,SCT,BKN,OVC,M,4700.00,5500.00,7000.00,M,M,M,M,M,M,M,M,53.60,KBVU 150915Z AUTO 01010KT 10SM SCT047 BKN055 OVC070 12/M03 A2979 RMK AO2,M
CXP,2024-03-15 09:15,-119.7326,39.1923,1431.00,39.20,19.40,44.55,40.00,9.00,0.00,30.11,M,10.00,M,CLR,M,M,M,M,M,M,M,M,M,M,M,M,M,M,32.47,KCXP 150915Z AUTO 04009KT 10SM CLR 04/M07 A3011 RMK AO2,M
HTH,2024-03-15 09:15,-118.6315,38.5448,1282.89,42.80,24.80,48.67,320.00,12.00,0.00,30.07,M,10.00,M,BKN,OVC,M,M,7500.00,8500.00,M,M,M,M,M,M,M,M,M,35.75,KHTH 150915Z AUTO 32012KT 10SM BKN075 OVC085 06/M04 A3007 RMK A01,M
10U,2024-03-15 09:15,-116.1876,41.9532,1637.00,30.20,19.40,63.75,320.00,9.00,0.00,30.18,M,10.00,M,CLR,M,M,M,M,M,M,M,M,M,M,M,M,M,M,21.28,K10U 150915Z AUTO 32009KT 10SM CLR M01/M07 A3018 RMK AO2,M
TMT,2024-03-15 09:15,-117.1971,39.4643,1749.34,29.30,21.40,72.01,50.00,8.00,0.00,30.08,M,10.00,M,SCT,M,M,M,6000.00,M,M,M,M,M,M,M,M,M,M,20.79,KTMT 150915Z AUTO 05008KT 10SM SCT060 M01/M06 A3008 RMK AO2 T10151059,M
CXP,2024-03-15 09:30,-119.7326,39.1923,1431.00,39.20,17.60,41.24,40.00,9.00,0.00,30.10,M,10.00,14.00,CLR,M,M,M,M,M,M,M,M,M,M,M,M,M,M,32.47,KCXP 150930Z AUTO 04009G14KT 10SM CLR 04/M08 A3010 RMK AO2,M
BVU,2024-03-15 09:35,-114.8611,35.9475,671.00,53.60,30.20,40.54,30.00,9.00,0.00,29.78,M,10.00,22.00,FEW,SCT,BKN,M,2100.00,3700.00,4800.00,M,M,M,M,M,M,M,M,53.60,KBVU 150935Z AUTO 03009G22KT 10SM FEW021 SCT037 BKN048 12/M01 A2978 RMK AO2,M
HTH,2024-03-15 09:35,-118.6315,38.5448,1282.89,42.80,23.00,45.14,340.00,14.00,0.00,30.06,M,10.00,M,FEW,SCT,OVC,M,6000.00,7500.00,9000.00,M,M,M,M,M,M,M,M,35.08,KHTH 150935Z AUTO 34014KT 10SM FEW060 SCT075 OVC090 06/M05 A3006 RMK A01,M
10U,2024-03-15 09:35,-116.1876,41.9532,1637.00,32.00,19.40,59.27,320.00,7.00,0.00,30.18,M,10.00,M,CLR,M,M,M,M,M,M,M,M,M,M,M,M,M,M,24.78,K10U 150935Z AUTO 32007KT 10SM CLR 00/M07 A3018 RMK AO2,M
TMT,2024-03-15 09:35,-117.1971,39.4643,1749.34,29.00,21.00,71.67,20.00,8.00,0.00,30.07,M,10.00,M,SCT,M,M,M,6000.00,M,M,M,M,M,M,M,M,M,M,20.42,KTMT 150935Z AUTO 02008KT 10SM SCT060 M02/M06 A3007 RMK AO2 T10171061,M
ELY,2024-03-15 09:41,-114.8453,39.2950,1909.00,30.00,23.00,74.87,350.00,16.00,0.00,30.02,M,10.00,23.00,BKN,OVC,M,M,2800.00,3300.00,M,M,M,M,M,M,M,M,M,17.81,KELY 150941Z AUTO 35016G23KT 10SM BKN028 OVC033 M01/M05 A3002 RMK AO2 T10111050,M
DRA,2024-03-15 09:53,-116.0278,36.6206,1009.00,48.00,24.00,38.64,30.00,22.00,0.00,29.81,1007.20,10.00,31.00,OVC,M,M,M,9000.00,M,M,M,M,M,M,M,31.00,30.00,2024-03-15 09:24,40.00,KDRA 150953Z AUTO 03022G31KT 10SM OVC090 09/M04 A2981 RMK AO2 PK WND 03031/0924 SLP072 T00891044,M
ELY,2024-03-15 09:53,-114.8453,39.2950,1909.00,30.00,23.00,74.87,360.00,16.00,0.00,30.02,1016.40,10.00,M,BKN,OVC,M,M,2800.00,3700.00,M,M,M,M,M,M,M,M,M,17.81,KELY 150953Z AUTO 36016KT 10SM BKN028 OVC037 M01/M05 A3002 RMK AO2 SLP164 T10111050,M
VGT,2024-03-15 09:53,-115.1933,36.2111,667.00,57.00,27.00,31.43,30.00,14.00,0.00,29.80,1009.90,10.00,21.00,FEW,OVC,M,M,5500.00,7000.00,M,M,M,M,M,M,M,M,M,57.00,KVGT 150953Z AUTO 03014G21KT 10SM FEW055 OVC070 14/M03 A2980 RMK AO2 SLP099 T01391028,M
LOL,2024-03-15 09:53,-118.5701,40.0684,1192.43,36.00,20.00,51.83,30.00,10.00,0.00,30.10,1019.60,10.00,M,CLR,M,M,M,M,M,M,M,M,M,M,M,M,M,M,27.98,KLOL 150953Z AUTO 03010KT 10SM CLR 02/M07 A3010 RMK AO2 SLP196 T00221067,M
BVU,2024-03-15 09:55,-114.8611,35.9475,671.00,51.80,33.80,50.08,40.00,19.00,0.00,29.78,M,10.00,27.00,FEW,SCT,BKN,M,2300.00,3300.00,3900.00,M,M,M,M,M,M,M,M,51.80,KBVU 150955Z AUTO 04019G27KT 10SM FEW023 SCT033 BKN039 11/01 A2978 RMK AO2,M
CXP,2024-03-15 09:55,-119.7326,39.1923,1431.00,39.20,17.60,41.24,40.00,9.00,0.00,30.09,M,10.00,15.00,CLR,M,M,M,M,M,M,M,M,M,M,M,M,M,M,32.47,KCXP 150955Z AUTO 04009G15KT 10SM CLR 04/M08 A3009 RMK AO2,M
INS,2024-03-15 09:55,-115.6733,36.5872,955.00,50.40,22.30,32.90,30.00,9.00,0.00,29.83,1008.00,10.00,M,OVC,M,M,M,8000.00,M,M,M,M,M,M,M,M,M,M,50.40,KINS 150955Z AUTO 03009KT 10SM OVC080 10/M05 A2983 RMK AO2 SLP080 T01021054 $,M
RNO,2024-03-15 09:55,-119.7711,39.4839,1341.00,39.00,19.00,44.14,70.00,3.00,0.00,30.11,1018.80,10.00,M,FEW,M,M,M,8000.00,M,M,M,M,M,M,M,M,M,M,36.69,KRNO 150955Z 07003KT 10SM FEW080 04/M07 A3011 RMK AO2 SLP188 T00391072,M
RTS,2024-03-15 09:55,-119.8764,39.6682,1539.00,33.80,17.60,51.04,220.00,4.00,0.00,30.11,M,10.00,M,CLR,M,M,M,M,M,M,M,M,M,M,M,M,M,M,29.52,KRTS 150955Z AUTO 22004KT 10SM CLR 01/M08 A3011 RMK AO2,M
MEV,2024-03-15 09:55,-119.7500,38.9963,1441.42,33.80,19.40,55.14,240.00,5.00,0.00,30.06,M,10.00,M,FEW,FEW,M,M,4200.00,4800.00,M,M,M,M,M,M,M,M,M,28.53,KMEV 150955Z AUTO 24005KT 10SM FEW042 FEW048 01/M07 A3006 RMK AO2,M
HTH,2024-03-15 09:55,-118.6315,38.5448,1282.89,41.00,24.80,52.17,340.00,13.00,0.00,30.05,M,10.00,M,FEW,SCT,OVC,M,6000.00,7500.00,9000.00,M,M,M,M,M,M,M,M,33.10,KHTH 150955Z AUTO 34013KT 10SM FEW060 SCT075 OVC090 05/M04 A3005 RMK A01,M
TMT,2024-03-15 09:55,-117.1971,39.4643,1749.34,28.20,20.70,73.12,260.00,4.00,0.00,30.07,M,10.00,M,CLR,M,M,M,M,M,M,M,M,M,M,M,M,M,M,22.98,KTMT 150955Z AUTO 26004KT 10SM CLR M02/M06 A3007 RMK AO2 T10211063,M
10U,2024-03-15 09:55,-116.1876,41.9532,1637.00,32.00,19.40,59.27,340.00,8.00,0.00,30.17,M,10.00,13.00,CLR,M,M,M,M,M,M,M,M,M,M,M,M,M,M,24.11,K10U 150955Z AUTO 34008G13KT 10SM CLR M00/M07 A3017 RMK AO2,M
LSV,2024-03-15 09:55,-115.0343,36.2362,570.00,57.20,26.80,30.95,40.00,21.00,0.00,29.77,1007.20,10.00,31.00,FEW,M,M,M,7000.00,M,M,M,M,M,M,M,M,M,M,57.20,KLSV 150955Z AUTO 04021G31KT 10SM FEW070 14/M03 A2977 RMK AO2 SLP072 T01401029 $,M
EKO,2024-03-15 09:56,-115.7860,40.8242,1367.00,35.00,20.00,53.93,50.00,8.00,0.00,30.09,1018.60,10.00,17.00,CLR,M,M,M,M,M,M,M,M,M,M,M,M,M,M,27.81,KEKO 150956Z AUTO 05008G17KT 10SM CLR 02/M07 A3009 RMK AO2 SLP186 T00171067,M
WMC,2024-03-15 09:56,-117.8072,40.9019,1315.00,33.00,20.00,58.41,250.00,6.00,0.00,30.14,1020.60,10.00,M,CLR,M,M,M,M,M,M,M,M,M,M,M,M,M,M,26.73,KWMC 150956Z AUTO 25006KT 10SM CLR 01/M07 A3014 RMK AO2 SLP206 T00061067,M
NFL,2024-03-15 09:56,-118.7010,39.4166,1199.00,36.00,21.00,54.08,360.00,11.00,0.00,30.07,1015.10,10.00,M,SCT,M,M,M,10000.00,M,M,M,M,M,M,M,M,M,M,27.52,KNFL 150956Z AUTO 36011KT 10SM SCT100 02/M06 A3007 RMK AO2 SLP151 T00221061,M
HND,2024-03-15 09:56,-115.1344,35.9729,742.79,53.00,29.00,39.47,40.00,13.00,T,29.81,1010.40,10.00,M,FEW,OVC,M,M,5000.00,6000.00,M,M,M,M,M,M,M,M,M,53.00,KHND 150956Z AUTO 04013KT 10SM FEW050 OVC060 12/M02 A2981 RMK AO2 RAB27E46 SLP104 P0000 T01171017,M
TPH,2024-03-15 09:56,-117.0904,38.0505,1654.00,35.00,22.00,58.70,20.00,18.00,0.00,29.94,1012.90,10.00,29.00,CLR,M,M,M,M,M,M,M,M,M,M,M,29.00,20.00,2024-03-15 09:49,23.70,KTPH 150956Z AUTO 02018G29KT 10SM CLR 02/M06 A2994 RMK AO2 PK WND 02029/0949 SLP129 T00171056,M
LAS,2024-03-15 09:56,-115.1634,36.0719,663.00,53.00,28.00,37.88,40.00,12.00,T,29.80,1008.20,10.00,M,FEW,SCT,OVC,M,4000.00,5000.00,6000.00,M,M,M,M,M,44.00,10.00,2024-03-15 09:08,53.00,KLAS 150956Z 04012KT 10SM FEW040 SCT050 OVC060 12/M02 A2980 RMK AO2 PK WND 01044/0908 RAB27E40 SLP082 VCSH CIG LWR SW-NW SHSN OBSCURES MTNS DSNT SW-NW P0000 T01171022,M
ELY,2024-03-15 10:06,-114.8453,39.2950,1909.00,30.00,23.00,74.87,360.00,16.00,0.00,30.01,M,10.00,26.00,SCT,BKN,OVC,M,3000.00,4300.00,5000.00,M,M,M,M,M,26.00,350.00,2024-03-15 10:03,17.81,KELY 151006Z AUTO 36016G26KT 10SM SCT030 BKN043 OVC050 M01/M05 A3001 RMK AO2 PK WND 35026/1003 T10111050,M
HTH,2024-03-15 10:15,-118.6315,38.5448,1282.89,41.00,23.00,48.39,340.00,13.00,0.00,30.05,M,10.00,M,OVC,M,M,M,8500.00,M,M,M,M,M,M,M,M,M,M,33.10,KHTH 151015Z AUTO 34013KT 10SM OVC085 05/M05 A3005 RMK A01,M
10U,2024-03-15 10:15,-116.1876,41.9532,1637.00,32.00,19.40,59.27,10.00,10.00,0.00,30.17,M,10.00,M,CLR,M,M,M,M,M,M,M,M,M,M,M,M,M,M,22.97,K10U 151015Z AUTO 01010KT 10SM CLR 00/M07 A3017 RMK AO2,M
BVU,2024-03-15 10:15,-114.8611,35.9475,671.00,50.00,35.60,57.52,360.00,10.00,0.00,29.77,M,9.00,23.00,BKN,OVC,M,M,3400.00,4300.00,M,M,-RA,M,M,M,M,M,M,50.00,KBVU 151015Z AUTO 36010G23KT 9SM -RA BKN034 OVC043 10/02 A2977 RMK AO2,M
CXP,2024-03-15 10:15,-119.7326,39.1923,1431.00,39.20,17.60,41.24,30.00,10.00,0.00,30.09,M,10.00,16.00,CLR,M,M,M,M,M,M,M,M,M,M,M,M,M,M,32.00,KCXP 151015Z AUTO 03010G16KT 10SM CLR 04/M08 A3009 RMK AO2,M
RTS,2024-03-15 10:15,-119.8764,39.6682,1539.00,32.00,17.60,54.87,0.00,0.00,0.00,30.11,M,10.00,M,CLR,M,M,M,M,M,M,M,M,M,M,M,M,M,M,32.00,KRTS 151015Z AUTO 00000KT 10SM CLR M00/M08 A3011 RMK AO2,M
MEV,2024-03-15 10:15,-119.7500,38.9963,1441.42,33.80,19.40,55.14,M,5.00,0.00,30.05,M,10.00,M,FEW,FEW,M,M,4200.00,4800.00,M,M,M,M,M,M,M,M,M,28.53,KMEV 151015Z AUTO VRB05KT 10SM FEW042 FEW048 01/M07 A3005 RMK AO2,M
TMT,2024-03-15 10:15,-117.1971,39.4643,1749.34,27.50,20.70,75.25,330.00,9.00,0.00,30.06,M,10.00,M,BKN,M,M,M,6000.00,M,M,M,M,M,M,M,M,M,M,17.92,KTMT 151015Z AUTO 33009KT 10SM BKN060 M02/M06 A3006 RMK AO2 T10251063,M
BVU,2024-03-15 10:35,-114.8611,35.9475,671.00,50.00,35.60,57.52,20.00,16.00,0.00,29.77,M,9.00,23.00,SCT,BKN,OVC,M,3300.00,4000.00,5500.00,M,-RA,M,M,M,M,M,M,50.00,KBVU 151035Z AUTO 02016G23KT 9SM -RA SCT033 BKN040 OVC055 10/02 A2977 RMK AO2,M
CXP,2024-03-15 10:35,-119.7326,39.1923,1431.00,39.20,17.60,41.24,30.00,11.00,0.00,30.08,M,10.00,M,CLR,M,M,M,M,M,M,M,M,M,M,M,M,M,M,31.57,KCXP 151035Z AUTO 03011KT 10SM CLR 04/M08 A3008 RMK AO2,M
RTS,2024-03-15 10:35,-119.8764,39.6682,1539.00,33.80,15.80,47.22,340.00,4.00,0.00,30.10,M,10.00,M,CLR,M,M,M,M,M,M,M,M,M,M,M,M,M,M,29.52,KRTS 151035Z AUTO 34004KT 10SM CLR 01/M09 A3010 RMK AO2,M
MEV,2024-03-15 10:35,-119.7500,38.9963,1441.42,33.80,19.40,55.14,250.00,5.00,0.00,30.05,M,10.00,M,FEW,SCT,M,M,4700.00,9000.00,M,M,M,M,M,M,M,M,M,28.53,KMEV 151035Z AUTO 25005KT 10SM FEW047 SCT090 01/M07 A3005 RMK AO2,M
HTH,2024-03-15 10:35,-118.6315,38.5448,1282.89,39.20,23.00,51.89,340.00,12.00,0.00,30.05,M,10.00,M,OVC,M,M,M,9000.00,M,M,M,M,M,M,M,M,M,M,31.17,KHTH 151035Z AUTO 34012KT 10SM OVC090 04/M05 A3005 RMK A01,M
10U,2024-03-15 10:35,-116.1876,41.9532,1637.00,30.20,21.20,68.83,350.00,9.00,0.00,30.16,M,10.00,M,CLR,M,M,M,M,M,M,M,M,M,M,M,M,M,M,21.28,K10U 151035Z AUTO 35009KT 10SM CLR M01/M06 A3016 RMK AO2,M
TMT,2024-03-15 10:35,-117.1971,39.4643,1749.34,28.00,20.50,73.10,350.00,10.00,0.00,30.06,M,10.00,M,SCT,M,M,M,6000.00,M,M,M,M,M,M,M,M,M,M,17.95,KTMT 151035Z AUTO 35010KT 10SM SCT060 M02/M06 A3006 RMK AO2 T10231064,M
LSV,2024-03-15 10:42,-115.0343,36.2362,570.00,51.80,37.40,57.77,50.00,22.00,0.00,29.77,1007.30,8.00,32.00,BKN,M,M,M,6000.00,M,M,M,-RA,M,M,M,M,M,M,51.80,KLSV 151042Z 05022G32KT 8SM -RA BKN060 11/03 A2977 RMK AO2A RAB42 SLP073 $,M
DRA,2024-03-15 10:53,-116.0278,36.6206,1009.00,48.00,24.00,38.64,40.00,13.00,0.00,29.80,1007.10,10.00,24.00,OVC,M,M,M,8000.00,M,M,M,M,M,M,M,32.00,30.00,2024-03-15 10:09,42.07,KDRA 151053Z AUTO 04013G24KT 10SM OVC080 09/M04 A2980 RMK AO2 PK WND 03032/1009 SLP071 T00891044,M
ELY,2024-03-15 10:53,-114.8453,39.2950,1909.00,30.00,23.00,74.87,360.00,15.00,0.00,29.99,1015.30,10.00,M,BKN,OVC,M,M,3500.00,4600.00,M,M,M,M,M,M,29.00,360.00,2024-03-15 10:14,18.19,KELY 151053Z AUTO 36015KT 10SM BKN035 OVC046 M01/M05 A2999 RMK AO2 PK WND 36029/1014 SLP153 T10111050,M
VGT,2024-03-15 10:53,-115.1933,36.2111,667.00,54.00,31.00,41.27,50.00,19.00,0.00,29.79,1009.60,10.00,33.00,SCT,OVC,M,M,4800.00,6000.00,M,M,M,M,M,M,33.00,360.00,2024-03-15 10:49,54.00,KVGT 151053Z AUTO 05019G33KT 10SM SCT048 OVC060 12/M01 A2979 RMK AO2 PK WND 36033/1049 SLP096 T01221006,M
LOL,2024-03-15 10:53,-118.5701,40.0684,1192.43,34.00,20.00,56.12,60.00,10.00,0.00,30.08,1018.90,10.00,M,CLR,M,M,M,M,M,M,M,M,M,M,M,M,M,M,25.48,KLOL 151053Z AUTO 06010KT 10SM CLR 01/M07 A3008 RMK AO2 SLP189 T00111067,M
BVU,2024-03-15 10:55,-114.8611,35.9475,671.00,48.20,37.40,66.05,10.00,13.00,0.00,29.77,M,9.00,21.00,FEW,SCT,BKN,M,2100.00,3500.00,5000.00,M,-RA,M,M,M,M,M,M,42.32,KBVU 151055Z AUTO 01013G21KT 9SM -RA FEW021 SCT035 BKN050 09/03 A2977 RMK AO2,M
CXP,2024-03-15 10:55,-119.7326,39.1923,1431.00,37.40,17.60,44.25,40.00,9.00,0.00,30.07,M,10.00,M,CLR,M,M,M,M,M,M,M,M,M,M,M,M,M,M,30.23,KCXP 151055Z AUTO 04009KT 10SM CLR 03/M08 A3007 RMK AO2,M
INS,2024-03-15 10:55,-115.6733,36.5872,955.00,50.00,22.60,33.81,40.00,14.00,0.00,29.82,1007.70,10.00,M,BKN,OVC,M,M,6000.00,8500.00,M,M,M,M,M,M,M,M,M,50.00,KINS 151055Z AUTO 04014KT 10SM BKN060 OVC085 10/M05 A2982 RMK AO2 SLP077 T01001052 $,M
RNO,2024-03-15 10:55,-119.7711,39.4839,1341.00,37.00,19.00,47.74,0.00,0.00,0.00,30.08,1017.70,10.00,M,CLR,M,M,M,M,M,M,M,M,M,M,M,M,M,M,37.00,KRNO 151055Z 00000KT 10SM CLR 03/M07 A3008 RMK AO2 SLP177 T00281072,M
LSV,2024-03-15 10:55,-115.0343,36.2362,570.00,50.00,38.30,63.98,40.00,14.00,0.01,29.77,1007.30,10.00,26.00,CLR,M,M,M,M,M,M,M,M,M,M,M,37.00,30.00,2024-03-15 10:32,50.00,KLSV 151055Z 04014G26KT 10SM CLR 10/04 A2977 RMK AO2A PK WND 03037/32 RAB42E48 SLP073 P0001 T01000035 $,M
RTS,2024-03-15 10:55,-119.8764,39.6682,1539.00,32.00,15.80,50.75,M,4.00,0.00,30.09,M,10.00,M,CLR,M,M,M,M,M,M,M,M,M,M,M,M,M,M,27.42,KRTS 151055Z AUTO VRB04KT 10SM CLR M00/M09 A3009 RMK AO2,M
MEV,2024-03-15 10:55,-119.7500,38.9963,1441.42,33.80,21.20,59.53,330.00,6.00,0.00,30.04,M,10.00,M,BKN,M,M,M,9000.00,M,M,M,M,M,M,M,M,M,M,27.70,KMEV 151055Z AUTO 33006KT 10SM BKN090 01/M06 A3004 RMK AO2,M
HTH,2024-03-15 10:55,-118.6315,38.5448,1282.89,39.20,24.80,55.95,340.00,12.00,0.00,30.04,M,10.00,M,OVC,M,M,M,9000.00,M,M,M,M,M,M,M,M,M,M,31.17,KHTH 151055Z AUTO 34012KT 10SM OVC090 04/M04 A3004 RMK A01,M
TMT,2024-03-15 10:55,-117.1971,39.4643,1749.34,27.50,20.30,73.98,350.00,9.00,0.00,30.05,M,10.00,M,SCT,M,M,M,5000.00,M,M,M,M,M,M,M,M,M,M,17.92,KTMT 151055Z AUTO 35009KT 10SM SCT050 M02/M06 A3005 RMK AO2 T10251065,M
10U,2024-03-15 10:55,-116.1876,41.9532,1637.00,32.00,19.40,59.27,340.00,12.00,0.00,30.15,M,10.00,M,CLR,M,M,M,M,M,M,M,M,M,M,M,M,M,M,22.00,K10U 151055Z AUTO 34012KT 10SM CLR M00/M07 A3015 RMK AO2,M
EKO,2024-03-15 10:56,-115.7860,40.8242,1367.00,34.00,19.00,53.77,40.00,12.00,0.00,30.07,1018.00,10.00,19.00,CLR,M,M,M,M,M,M,M,M,M,M,M,M,M,M,24.55,KEKO 151056Z AUTO 04012G19KT 10SM CLR 01/M07 A3007 RMK AO2 SLP180 T00111072,M
WMC,2024-03-15 10:56,-117.8072,40.9019,1315.00,35.00,20.00,53.93,30.00,4.00,0.00,30.13,1019.80,10.00,16.00,CLR,M,M,M,M,M,M,M,M,M,M,M,M,M,M,30.92,KWMC 151056Z AUTO 03004G16KT 10SM CLR 02/M07 A3013 RMK AO2 SLP198 T00171067,M
NFL,2024-03-15 10:56,-118.7010,39.4166,1199.00,35.00,20.00,53.93,350.00,11.00,0.00,30.06,1014.70,10.00,M,CLR,M,M,M,M,M,M,M,M,M,M,M,M,M,M,26.26,KNFL 151056Z AUTO 35011KT 10SM CLR 02/M07 A3006 RMK AO2 SLP147 T00171067,M
HND,2024-03-15 10:56,-115.1344,35.9729,742.79,47.00,37.00,68.02,10.00,17.00,T,29.81,1010.70,10.00,22.00,BKN,OVC,M,M,3700.00,4600.00,M,M,-RA,M,M,M,31.00,30.00,2024-03-15 10:04,39.73,KHND 151056Z AUTO 01017G22KT 10SM -RA BKN037 OVC046 08/03 A2981 RMK AO2 PK WND 03031/1004 RAB04 SLP107 P0000 T00830028,M
TPH,2024-03-15 10:56,-117.0904,38.0505,1654.00,33.00,21.00,60.95,350.00,12.00,0.00,29.95,1013.20,10.00,M,CLR,M,M,M,M,M,M,M,M,M,M,M,M,M,M,23.27,KTPH 151056Z AUTO 35012KT 10SM CLR 01/M06 A2995 RMK AO2 SLP132 T00061061,M
LAS,2024-03-15 10:56,-115.1634,36.0719,663.00,48.00,37.00,65.51,50.00,27.00,T,29.80,1008.50,10.00,34.00,BKN,OVC,M,M,3900.00,5000.00,M,M,-RA,M,M,M,34.00,60.00,2024-03-15 10:55,39.15,KLAS 151056Z 05027G34KT 10SM -RA BKN039 OVC050 09/03 A2980 RMK AO2 PK WND 06034/1055 RAB06 SLP085 CIG LWR SW-NW SHSN OBSCURES MTNS DSNT SW-NW P0000 T00890028,M
LAS,2024-03-15 11:00,-115.1634,36.0719,663.00,47.00,37.00,68.02,40.00,21.00,T,29.80,M,6.00,34.00,BKN,OVC,M,M,3700.00,5000.00,M,M,RA,M,M,M,31.00,40.00,2024-03-15 10:58,38.86,KLAS 151100Z 04021G34KT 6SM RA BKN037 OVC050 08/03 A2980 RMK AO2 PK WND 04031/1058 CIG LWR SW-NW SHSN OBSCURES MTNS DSNT SW-NW P0000 T00830028,M
BVU,2024-03-15 11:15,-114.8611,35.9475,671.00,48.20,39.20,70.88,350.00,8.00,0.00,29.76,M,10.00,14.00,FEW,OVC,M,M,3900.00,6000.00,M,M,-RA,M,M,M,M,M,M,44.07,KBVU 151115Z AUTO 35008G14KT 10SM -RA FEW039 OVC060 09/04 A2976 RMK AO2,M
CXP,2024-03-15 11:15,-119.7326,39.1923,1431.00,37.40,17.60,44.25,40.00,10.00,0.00,30.07,M,10.00,M,CLR,M,M,M,M,M,M,M,M,M,M,M,M,M,M,29.74,KCXP 151115Z AUTO 04010KT 10SM CLR 03/M08 A3007 RMK AO2,M
RTS,2024-03-15 11:15,-119.8764,39.6682,1539.00,30.20,15.80,54.59,360.00,7.00,0.00,30.09,M,10.00,M,CLR,M,M,M,M,M,M,M,M,M,M,M,M,M,M,22.59,KRTS 151115Z AUTO 36007KT 10SM CLR M01/M09 A3009 RMK AO2,M
MEV,2024-03-15 11:15,-119.7500,38.9963,1441.42,33.80,19.40,55.14,340.00,7.00,0.00,30.03,M,10.00,M,FEW,M,M,M,9000.00,M,M,M,M,M,M,M,M,M,M,26.97,KMEV 151115Z AUTO 34007KT 10SM FEW090 01/M07 A3003 RMK AO2,M
HTH,2024-03-15 11:15,-118.6315,38.5448,1282.89,39.20,21.20,48.10,340.00,14.00,0.00,30.03,M,10.00,M,OVC,M,M,M,9500.00,M,M,M,M,M,M,M,M,M,M,30.44,KHTH 151115Z AUTO 34014KT 10SM OVC095 04/M06 A3003 RMK A01,M
10U,2024-03-15 11:15,-116.1876,41.9532,1637.00,32.00,19.40,59.27,340.00,10.00,0.00,30.15,M,10.00,M,CLR,M,M,M,M,M,M,M,M,M,M,M,M,M,M,22.97,K10U 151115Z AUTO 34010KT 10SM CLR 00/M07 A3015 RMK AO2,M
TMT,2024-03-15 11:15,-117.1971,39.4643,1749.34,28.20,20.00,70.97,30.00,11.00,0.00,30.04,M,10.00,M,SCT,M,M,M,5000.00,M,M,M,M,M,M,M,M,M,M,17.66,KTMT 151115Z AUTO 03011KT 10SM SCT050 M02/M07 A3004 RMK AO2 T10211066,M
BVU,2024-03-15 11:35,-114.8611,35.9475,671.00,48.20,37.40,66.05,350.00,15.00,0.00,29.75,M,10.00,M,OVC,M,M,M,5000.00,M,M,M,-DZ,M,M,M,M,M,M,41.78,KBVU 151135Z AUTO 35015KT 10SM -DZ OVC050 09/03 A2975 RMK AO2,M
CXP,2024-03-15 11:35,-119.7326,39.1923,1431.00,37.40,15.80,40.93,40.00,12.00,0.00,30.06,M,10.00,M,CLR,M,M,M,M,M,M,M,M,M,M,M,M,M,M,28.87,KCXP 151135Z AUTO 04012KT 10SM CLR 03/M09 A3006 RMK AO2,M
RTS,2024-03-15 11:35,-119.8764,39.6682,1539.00,30.20,15.80,54.59,10.00,7.00,0.00,30.08,M,10.00,M,CLR,M,M,M,M,M,M,M,M,M,M,M,M,M,M,22.59,KRTS 151135Z AUTO 01007KT 10SM CLR M01/M09 A3008 RMK AO2,M
MEV,2024-03-15 11:35,-119.7500,38.9963,1441.42,33.80,19.40,55.14,350.00,11.00,0.00,30.03,M,10.00,M,FEW,FEW,M,M,4600.00,9500.00,M,M,M,M,M,M,M,M,M,24.74,KMEV 151135Z AUTO 35011KT 10SM FEW046 FEW095 01/M07 A3003 RMK AO2,M
HTH,2024-03-15 11:35,-118.6315,38.5448,1282.89,39.20,21.20,48.10,340.00,13.00,0.00,30.04,M,10.00,M,FEW,OVC,M,M,7000.00,9000.00,M,M,M,M,M,M,M,M,M,30.79,KHTH 151135Z AUTO 34013KT 10SM FEW070 OVC090 04/M06 A3004 RMK A01,M
10U,2024-03-15 11:35,-116.1876,41.9532,1637.00,32.00,19.40,59.27,340.00,10.00,0.00,30.16,M,10.00,16.00,CLR,M,M,M,M,M,M,M,M,M,M,M,M,M,M,22.97,K10U 151135Z AUTO 34010G16KT 10SM CLR M00/M07 A3016 RMK AO2,M
TMT,2024-03-15 11:35,-117.1971,39.4643,1749.34,27.70,20.00,72.45,50.00,6.00,0.00,30.04,M,10.00,M,CLR,M,M,M,M,M,M,M,M,M,M,M,M,M,M,20.35,KTMT 151135Z AUTO 05006KT 10SM CLR M02/M07 A3004 RMK AO2 T10241067,M
DRA,2024-03-15 11:53,-116.0278,36.6206,1009.00,48.00,24.00,38.64,40.00,19.00,0.00,29.78,1006.20,10.00,29.00,OVC,M,M,M,7500.00,M,M,M,M,M,M,M,29.00,40.00,2024-03-15 11:44,40.60,KDRA 151153Z AUTO 04019G29KT 10SM OVC075 09/M04 A2978 RMK AO2 PK WND 04029/1144 SLP062 T00891044 10094 20089 58015,M
ELY,2024-03-15 11:53,-114.8453,39.2950,1909.00,30.00,22.00,71.78,360.00,19.00,0.00,29.98,1014.90,10.00,26.00,OVC,M,M,M,3800.00,M,M,M,M,M,M,M,28.00,360.00,2024-03-15 11:09,16.79,KELY 151153Z AUTO 36019G26KT 10SM OVC038 M01/M06 A2998 RMK AO2 PK WND 36028/1109 SLP149 60000 T10111056 11006 21017 58013,M
VGT,2024-03-15 11:53,-115.1933,36.2111,667.00,50.00,37.00,60.79,30.00,10.00,0.02,29.79,1010.00,10.00,M,BKN,OVC,M,M,5000.00,6000.00,M,M,-RA,M,M,M,35.00,40.00,2024-03-15 10:57,50.00,KVGT 151153Z AUTO 03010KT 10SM -RA BKN050 OVC060 10/03 A2979 RMK AO2 PK WND 04035/1057 RAB1054 SLP100 P0002 60002 70002 T01000028 10139 20100 55005,M
LOL,2024-03-15 11:53,-118.5701,40.0684,1192.43,36.00,19.00,49.66,30.00,9.00,0.00,30.06,1018.10,10.00,M,CLR,M,M,M,M,M,M,M,M,M,M,M,M,M,M,28.49,KLOL 151153Z AUTO 03009KT 10SM CLR 02/M07 A3006 RMK AO2 SLP181 T00221072 10050 20011 58016,M
BVU,2024-03-15 11:55,-114.8611,35.9475,671.00,48.20,37.40,66.05,350.00,13.00,0.00,29.75,M,9.00,21.00,FEW,SCT,BKN,M,2400.00,3600.00,4300.00,M,-RA,M,M,M,M,M,M,42.32,KBVU 151155Z AUTO 35013G21KT 9SM -RA FEW024 SCT036 BKN043 09/03 A2975 RMK AO2,M
CXP,2024-03-15 11:55,-119.7326,39.1923,1431.00,37.40,15.80,40.93,30.00,12.00,0.00,30.06,M,10.00,18.00,CLR,M,M,M,M,M,M,M,M,M,M,M,M,M,M,28.87,KCXP 151155Z AUTO 03012G18KT 10SM CLR 03/M09 A3006 RMK AO2,M
INS,2024-03-15 11:55,-115.6733,36.5872,955.00,49.50,23.50,35.78,40.00,15.00,0.00,29.80,1007.00,10.00,M,BKN,OVC,M,M,5500.00,8500.00,M,M,M,M,M,M,M,M,M,43.47,KINS 151155Z AUTO 04015KT 10SM BKN055 OVC085 10/M05 A2980 RMK AO2 SLP070 T00971047 10108 20097 57013 $,M
RNO,2024-03-15 11:55,-119.7711,39.4839,1341.00,33.00,19.00,55.97,180.00,4.00,0.00,30.07,1017.60,10.00,M,CLR,M,M,M,M,M,M,M,M,M,M,M,M,M,M,28.59,KRNO 151155Z 18004KT 10SM CLR 01/M07 A3007 RMK AO2 SLP176 T00061072 10067 20006 58016,M
LSV,2024-03-15 11:55,-115.0343,36.2362,570.00,50.50,36.30,58.05,360.00,7.00,0.00,29.75,1006.60,10.00,M,BKN,M,M,M,6500.00,M,M,M,M,M,M,M,26.00,30.00,2024-03-15 11:02,50.50,KLSV 151155Z 36007KT 10SM BKN065 10/02 A2975 RMK AO2A PK WND 03026/02 SLP066 60001 7//// T01030024 10141 20099 55008 $,M
RTS,2024-03-15 11:55,-119.8764,39.6682,1539.00,30.20,15.80,54.59,M,4.00,0.00,30.08,M,10.00,M,CLR,M,M,M,M,M,M,M,M,M,M,M,M,M,M,25.32,KRTS 151155Z AUTO VRB04KT 10SM CLR M01/M09 A3008 RMK AO2,M
MEV,2024-03-15 11:55,-119.7500,38.9963,1441.42,33.80,19.40,55.14,330.00,9.00,0.00,30.04,M,10.00,M,BKN,M,M,M,9500.00,M,M,M,M,M,M,M,M,M,M,25.75,KMEV 151155Z AUTO 33009KT 10SM BKN095 01/M07 A3004 RMK AO2,M
HTH,2024-03-15 11:55,-118.6315,38.5448,1282.89,39.20,19.40,44.55,340.00,14.00,0.00,30.03,M,10.00,M,SCT,OVC,M,M,6500.00,9500.00,M,M,M,M,M,M,M,M,M,30.44,KHTH 151155Z AUTO 34014KT 10SM SCT065 OVC095 04/M07 A3003 RMK A01,M
TMT,2024-03-15 11:55,-117.1971,39.4643,1749.34,27.00,20.00,74.57,80.00,8.00,0.00,30.05,M,10.00,M,SCT,M,M,M,5000.00,M,M,M,M,M,M,M,M,M,M,17.95,KTMT 151155Z AUTO 08008KT 10SM SCT050 M03/M07 A3005 RMK AO2 T10281066 10005 21028,M
10U,2024-03-15 11:55,-116.1876,41.9532,1637.00,28.40,21.20,74.08,360.00,10.00,0.00,30.15,M,10.00,M,CLR,M,M,M,M,M,M,M,M,M,M,M,M,M,M,18.45,K10U 151155Z AUTO 36010KT 10SM CLR M02/M06 A3015 RMK AO2,M
EKO,2024-03-15 11:56,-115.7860,40.8242,1367.00,34.00,18.00,51.52,60.00,13.00,0.00,30.06,1018.00,10.00,23.00,CLR,M,M,M,M,M,M,M,M,M,M,M,M,M,M,24.13,KEKO 151156Z AUTO 06013G23KT 10SM CLR 01/M08 A3006 RMK AO2 SLP180 T00111078 10028 20006 56016,M
WMC,2024-03-15 11:56,-117.8072,40.9019,1315.00,35.00,20.00,53.93,70.00,5.00,0.00,30.12,1019.60,10.00,M,CLR,M,M,M,M,M,M,M,M,M,M,M,M,M,M,29.96,KWMC 151156Z AUTO 07005KT 10SM CLR 02/M07 A3012 RMK AO2 SLP196 T00171067 10039 20006 58008,M
NFL,2024-03-15 11:56,-118.7010,39.4166,1199.00,34.00,21.00,58.56,350.00,11.00,0.00,30.04,1014.20,10.00,M,CLR,M,M,M,M,M,M,M,M,M,M,M,M,M,M,24.99,KNFL 151156Z AUTO 35011KT 10SM CLR 01/M06 A3004 RMK AO2 SLP142 T00111061 10050 20011 56015,M
HND,2024-03-15 11:56,-115.1344,35.9729,742.79,45.00,40.00,82.51,360.00,8.00,0.04,29.80,1010.50,10.00,M,OVC,M,M,M,3600.00,M,M,M,-RA,M,M,M,M,M,M,40.13,KHND 151156Z AUTO 36008KT 10SM -RA OVC036 07/04 A2980 RMK AO2 SLP105 P0004 60004 70004 T00720044 10117 20072 58005,M
TPH,2024-03-15 11:56,-117.0904,38.0505,1654.00,33.00,20.00,58.41,340.00,11.00,0.00,29.94,1012.90,10.00,M,CLR,M,M,M,M,M,M,M,M,M,M,M,M,M,M,23.73,KTPH 151156Z AUTO 34011KT 10SM CLR 01/M07 A2994 RMK AO2 SLP129 T00061067 10028 20006 56011,M
LAS,2024-03-15 11:56,-115.1634,36.0719,663.00,47.00,38.00,70.74,350.00,13.00,0.03,29.79,1008.00,9.00,22.00,FEW,OVC,M,M,3500.00,4500.00,M,M,-RA,M,M,M,31.00,40.00,2024-03-15 10:58,40.79,KLAS 151156Z 35013G22KT 9SM -RA FEW035 OVC045 08/03 A2979 RMK AO2 PK WND 04031/1058 SLP080 VIS LWR SW-NW MTNS OBSCURED DSNT S-W-N P0003 60003 70003 T00830033 10128 20083 58006,M
BVU,2024-03-15 12:15,-114.8611,35.9475,671.00,48.20,37.40,66.05,340.00,14.00,0.00,29.75,M,8.00,22.00,FEW,SCT,BKN,M,2400.00,3500.00,4300.00,M,-RA,M,M,M,M,M,M,42.04,KBVU 151215Z AUTO 34014G22KT 8SM -RA FEW024 SCT035 BKN043 09/03 A2975 RMK AO2,M
CXP,2024-03-15 12:15,-119.7326,39.1923,1431.00,37.40,15.80,40.93,20.00,15.00,0.00,30.05,M,10.00,21.00,CLR,M,M,M,M,M,M,M,M,M,M,M,M,M,M,27.78,KCXP 151215Z AUTO 02015G21KT 10SM CLR 03/M09 A3005 RMK AO2,M
RTS,2024-03-15 12:15,-119.8764,39.6682,1539.00,26.60,15.80,63.27,0.00,0.00,0.00,30.07,M,10.00,M,CLR,M,M,M,M,M,M,M,M,M,M,M,M,M,M,26.60,KRTS 151215Z AUTO 00000KT 10SM CLR M03/M09 A3007 RMK AO2,M
MEV,2024-03-15 12:15,-119.7500,38.9963,1441.42,33.80,19.40,55.14,350.00,8.00,0.00,30.04,M,10.00,M,OVC,M,M,M,9000.00,M,M,M,M,M,M,M,M,M,M,26.33,KMEV 151215Z AUTO 35008KT 10SM OVC090 01/M07 A3004 RMK AO2,M
HTH,2024-03-15 12:15,-118.6315,38.5448,1282.89,37.40,21.20,51.61,350.00,11.00,0.00,30.04,M,10.00,17.00,FEW,BKN,OVC,M,6500.00,7500.00,8500.00,M,M,M,M,M,M,M,M,29.29,KHTH 151215Z AUTO 35011G17KT 10SM FEW065 BKN075 OVC085 03/M06 A3004 RMK A01,M
10U,2024-03-15 12:15,-116.1876,41.9532,1637.00,30.20,19.40,63.75,40.00,13.00,0.00,30.15,M,10.00,M,CLR,M,M,M,M,M,M,M,M,M,M,M,M,M,M,19.26,K10U 151215Z AUTO 04013KT 10SM CLR M01/M07 A3015 RMK AO2,M
TMT,2024-03-15 12:15,-117.1971,39.4643,1749.34,27.50,20.00,73.04,30.00,8.00,0.00,30.05,M,10.00,M,BKN,M,M,M,5000.00,M,M,M,M,M,M,M,M,M,M,18.57,KTMT 151215Z AUTO 03008KT 10SM BKN050 M02/M07 A3005 RMK AO2 T10251066,M
BVU,2024-03-15 12:35,-114.8611,35.9475,671.00,48.20,39.20,70.88,340.00,13.00,0.00,29.75,M,8.00,21.00,FEW,SCT,BKN,M,2300.00,3600.00,4300.00,M,-RA,M,M,M,M,M,M,42.32,KBVU 151235Z AUTO 34013G21KT 8SM -RA FEW023 SCT036 BKN043 09/04 A2975 RMK AO2,M
CXP,2024-03-15 12:35,-119.7326,39.1923,1431.00,37.40,15.80,40.93,10.00,10.00,0.00,30.05,M,10.00,18.00,CLR,M,M,M,M,M,M,M,M,M,M,M,M,M,M,29.74,KCXP 151235Z AUTO 01010G18KT 10SM CLR 03/M09 A3005 RMK AO2,M
RTS,2024-03-15 12:35,-119.8764,39.6682,1539.00,24.80,15.80,68.18,M,3.00,0.00,30.07,M,10.00,M,CLR,M,M,M,M,M,M,M,M,M,M,M,M,M,M,20.46,KRTS 151235Z AUTO VRB03KT 10SM CLR M04/M09 A3007 RMK AO2,M
MEV,2024-03-15 12:35,-119.7500,38.9963,1441.42,33.80,19.40,55.14,360.00,11.00,0.00,30.04,M,10.00,M,OVC,M,M,M,9000.00,M,M,M,M,M,M,M,M,M,M,24.74,KMEV 151235Z AUTO 36011KT 10SM OVC090 01/M07 A3004 RMK AO2,M
HTH,2024-03-15 12:35,-118.6315,38.5448,1282.89,39.20,21.20,48.10,350.00,14.00,0.00,30.04,M,10.00,M,SCT,OVC,M,M,6000.00,7500.00,M,M,M,M,M,M,M,M,M,30.44,KHTH 151235Z AUTO 35014KT 10SM SCT060 OVC075 04/M06 A3004 RMK A01,M
10U,2024-03-15 12:35,-116.1876,41.9532,1637.00,32.00,19.40,59.27,30.00,10.00,0.00,30.15,M,10.00,17.00,CLR,M,M,M,M,M,M,M,M,M,M,M,M,M,M,22.97,K10U 151235Z AUTO 03010G17KT 10SM CLR M00/M07 A3015 RMK AO2,M
TMT,2024-03-15 12:35,-117.1971,39.4643,1749.34,27.00,19.60,73.30,30.00,5.00,0.00,30.04,M,10.00,M,BKN,M,M,M,4800.00,M,M,M,M,M,M,M,M,M,M,20.46,KTMT 151235Z AUTO 03005KT 10SM BKN048 M03/M07 A3004 RMK AO2 T10271069,M
LSV,2024-03-15 12:37,-115.0343,36.2362,570.00,51.80,37.40,57.77,330.00,12.00,0.00,29.75,1006.60,10.00,22.00,BKN,M,M,M,6500.00,M,M,M,M,M,M,M,M,M,M,51.80,KLSV 151237Z 33012G22KT 10SM BKN065 11/03 A2975 RMK AO2A WSHFT 23 SLP066 $,M
DRA,2024-03-15 12:53,-116.0278,36.6206,1009.00,48.00,26.00,42.00,50.00,22.00,0.00,29.80,1006.80,10.00,32.00,SCT,BKN,OVC,M,5500.00,7500.00,11000.00,M,M,M,M,M,32.00,40.00,2024-03-15 11:59,40.00,KDRA 151253Z AUTO 05022G32KT 10SM SCT055 BKN075 OVC110 09/M03 A2980 RMK AO2 PK WND 04032/1159 SLP068 T00891033,M
ELY,2024-03-15 12:53,-114.8453,39.2950,1909.00,29.00,21.00,71.67,360.00,16.00,0.00,29.98,1014.80,10.00,25.00,FEW,M,M,M,3800.00,M,M,M,M,M,M,M,27.00,10.00,2024-03-15 12:00,16.51,KELY 151253Z AUTO 36016G25KT 10SM FEW038 M02/M06 A2998 RMK AO2 PK WND 01027/1200 SLP148 T10171061,M
VGT,2024-03-15 12:53,-115.1933,36.2111,667.00,47.00,38.00,70.74,320.00,9.00,0.02,29.78,1009.70,10.00,M,OVC,M,M,M,4500.00,M,M,M,-RA,M,M,M,M,M,M,42.17,KVGT 151253Z 32009KT 10SM -RA OVC045 08/03 A2978 RMK AO2 SLP097 P0002 T00830033,M
LOL,2024-03-15 12:53,-118.5701,40.0684,1192.43,34.00,19.00,53.77,20.00,9.00,0.00,30.07,1018.40,10.00,M,CLR,M,M,M,M,M,M,M,M,M,M,M,M,M,M,26.00,KLOL 151253Z AUTO 02009KT 10SM CLR 01/M07 A3007 RMK AO2 SLP184 T00111072,M
BVU,2024-03-15 12:55,-114.8611,35.9475,671.00,46.40,39.20,75.84,330.00,15.00,0.00,29.74,M,5.00,M,FEW,SCT,BKN,M,2100.00,2900.00,3300.00,M,RA,M,M,M,M,M,M,39.45,KBVU 151255Z AUTO 33015KT 5SM RA FEW021 SCT029 BKN033 08/04 A2974 RMK AO2,M
CXP,2024-03-15 12:55,-119.7326,39.1923,1431.00,37.40,15.80,40.93,10.00,9.00,0.00,30.06,M,10.00,M,CLR,M,M,M,M,M,M,M,M,M,M,M,M,M,M,30.23,KCXP 151255Z AUTO 01009KT 10SM CLR 03/M09 A3006 RMK AO2,M
INS,2024-03-15 12:55,-115.6733,36.5872,955.00,46.00,30.70,54.91,40.00,17.00,0.00,29.82,1007.90,10.00,23.00,BKN,BKN,OVC,M,4200.00,5000.00,6000.00,M,M,M,M,M,M,M,M,38.42,KINS 151255Z AUTO 04017G23KT 10SM BKN042 BKN050 OVC060 08/M01 A2982 RMK AO2 SLP079 T00781007 $,M
RNO,2024-03-15 12:55,-119.7711,39.4839,1341.00,37.00,17.00,43.80,10.00,8.00,0.00,30.06,1017.00,10.00,M,CLR,M,M,M,M,M,M,M,M,M,M,M,M,M,M,30.27,KRNO 151255Z 01008KT 10SM CLR 03/M08 A3006 RMK AO2 SLP170 T00281083,M
RTS,2024-03-15 12:55,-119.8764,39.6682,1539.00,23.00,15.80,73.51,260.00,3.00,0.00,30.07,M,10.00,M,CLR,M,M,M,M,M,M,M,M,M,M,M,M,M,M,18.40,KRTS 151255Z AUTO 26003KT 10SM CLR M05/M09 A3007 RMK AO2,M
MEV,2024-03-15 12:55,-119.7500,38.9963,1441.42,35.60,17.60,47.51,10.00,11.00,0.00,30.05,M,10.00,M,OVC,M,M,M,8500.00,M,M,M,M,M,M,M,M,M,M,27.02,KMEV 151255Z AUTO 01011KT 10SM OVC085 02/M08 A3005 RMK AO2,M
HTH,2024-03-15 12:55,-118.6315,38.5448,1282.89,37.40,21.20,51.61,340.00,12.00,0.00,30.04,M,10.00,19.00,BKN,OVC,M,M,7000.00,7500.00,M,M,M,M,M,M,M,M,M,28.87,KHTH 151255Z AUTO 34012G19KT 10SM BKN070 OVC075 03/M06 A3004 RMK A01,M
TMT,2024-03-15 12:55,-117.1971,39.4643,1749.34,26.80,20.00,75.18,0.00,0.00,0.00,30.04,M,10.00,M,BKN,M,M,M,4800.00,M,M,M,M,M,M,M,M,M,M,26.80,KTMT 151255Z AUTO 00000KT 10SM BKN048 M03/M07 A3004 RMK AO2 T10291067,M
10U,2024-03-15 12:55,-116.1876,41.9532,1637.00,32.00,19.40,59.27,30.00,10.00,0.00,30.15,M,10.00,16.00,CLR,M,M,M,M,M,M,M,M,M,M,M,M,M,M,22.97,K10U 151255Z AUTO 03010G16KT 10SM CLR M00/M07 A3015 RMK AO2,M
LSV,2024-03-15 12:55,-115.0343,36.2362,570.00,51.60,36.00,55.07,340.00,13.00,0.00,29.75,1006.60,10.00,M,BKN,M,M,M,6000.00,M,M,M,M,M,M,M,M,M,M,51.60,KLSV 151255Z AUTO 34013KT 10SM BKN060 11/02 A2975 RMK AO2 SLP066 T01090022 $,M
EKO,2024-03-15 12:56,-115.7860,40.8242,1367.00,34.00,18.00,51.52,50.00,9.00,0.00,30.06,1018.10,10.00,15.00,CLR,M,M,M,M,M,M,M,M,M,M,M,M,M,M,26.00,KEKO 151256Z AUTO 05009G15KT 10SM CLR 01/M08 A3006 RMK AO2 SLP181 T00111078,M
WMC,2024-03-15 12:56,-117.8072,40.9019,1315.00,34.00,20.00,56.12,30.00,9.00,0.00,30.12,1019.70,10.00,M,CLR,M,M,M,M,M,M,M,M,M,M,M,M,M,M,26.00,KWMC 151256Z AUTO 03009KT 10SM CLR 01/M07 A3012 RMK AO2 SLP197 T00111067,M
NFL,2024-03-15 12:56,-118.7010,39.4166,1199.00,34.00,20.00,56.12,360.00,10.00,0.00,30.05,1014.40,10.00,M,CLR,M,M,M,M,M,M,M,M,M,M,M,M,M,M,25.48,KNFL 151256Z AUTO 36010KT 10SM CLR 01/M07 A3005 RMK AO2 SLP144 T00111067,M
HND,2024-03-15 12:56,-115.1344,35.9729,742.79,45.00,40.00,82.51,340.00,6.00,0.02,29.80,1010.50,10.00,M,OVC,M,M,M,3200.00,M,M,M,-RA,M,M,M,M,M,M,41.19,KHND 151256Z AUTO 34006KT 10SM -RA OVC032 07/04 A2980 RMK AO2 SLP105 P0002 T00720044,M
TPH,2024-03-15 12:56,-117.0904,38.0505,1654.00,31.00,19.00,60.67,360.00,11.00,0.00,29.94,1013.10,10.00,M,CLR,M,M,M,M,M,M,M,M,M,M,M,M,M,M,21.20,KTPH 151256Z AUTO 36011KT 10SM CLR M01/M07 A2994 RMK AO2 SLP131 T10061072,M
LAS,2024-03-15 12:56,-115.1634,36.0719,663.00,45.00,39.00,79.36,310.00,10.00,0.02,29.79,1008.50,10.00,M,FEW,OVC,M,M,3500.00,4000.00,M,M,-RA,M,M,M,M,M,M,39.27,KLAS 151256Z 31010KT 10SM -RA FEW035 OVC040 07/04 A2979 RMK AO2 SLP085 MTNS OBSCURED DSNT SW-NW P0002 T00720039,M
LSV,2024-03-15 13:11,-115.0343,36.2362,570.00,51.80,35.60,53.81,310.00,14.00,0.00,29.74,1006.30,10.00,21.00,OVC,M,M,M,6000.00,M,M,M,M,M,M,M,M,M,M,51.80,KLSV 151311Z AUTO 31014G21KT 10SM OVC060 11/02 A2974 RMK AO2 WSHFT 03 SLP063 $,M
BVU,2024-03-15 13:15,-114.8611,35.9475,671.00,46.40,39.20,75.84,340.00,17.00,0.00,29.74,M,7.00,22.00,FEW,SCT,BKN,M,400.00,2700.00,3400.00,M,-RA,M,M,M,M,M,M,38.94,KBVU 151315Z AUTO 34017G22KT 7SM -RA FEW004 SCT027 BKN034 08/04 A2974 RMK AO2,M
CXP,2024-03-15 13:15,-119.7326,39.1923,1431.00,35.60,15.80,43.95,10.00,8.00,0.00,30.07,M,10.00,M,CLR,M,M,M,M,M,M,M,M,M,M,M,M,M,M,28.55,KCXP 151315Z AUTO 01008KT 10SM CLR 02/M09 A3007 RMK AO2,M
RTS,2024-03-15 13:15,-119.8764,39.6682,1539.00,23.00,15.80,73.51,290.00,4.00,0.00,30.07,M,10.00,M,CLR,M,M,M,M,M,M,M,M,M,M,M,M,M,M,16.91,KRTS 151315Z AUTO 29004KT 10SM CLR M05/M09 A3007 RMK AO2,M
MEV,2024-03-15 13:15,-119.7500,38.9963,1441.42,33.80,17.60,51.04,M,5.00,0.00,30.05,M,10.00,11.00,BKN,OVC,M,M,8000.00,10000.00,M,M,M,M,M,M,M,M,M,28.53,KMEV 151315Z AUTO VRB05G11KT 10SM BKN080 OVC100 01/M08 A3005 RMK AO2,M
HTH,2024-03-15 13:15,-118.6315,38.5448,1282.89,37.40,19.40,47.80,340.00,9.00,0.00,30.04,M,10.00,17.00,FEW,OVC,M,M,6000.00,7000.00,M,M,M,M,M,M,M,M,M,30.23,KHTH 151315Z AUTO 34009G17KT 10SM FEW060 OVC070 03/M07 A3004 RMK A01,M
10U,2024-03-15 13:15,-116.1876,41.9532,1637.00,32.00,19.40,59.27,30.00,19.00,0.00,30.14,M,10.00,26.00,CLR,M,M,M,M,M,M,M,M,M,M,M,M,M,M,19.44,K10U 151315Z AUTO 03019G26KT 10SM CLR 00/M07 A3014 RMK AO2,M
TMT,2024-03-15 13:15,-117.1971,39.4643,1749.34,26.60,20.00,75.81,30.00,6.00,0.00,30.05,M,10.00,M,SCT,M,M,M,5000.00,M,M,M,M,M,M,M,M,M,M,19.03,KTMT 151315Z AUTO 03006KT 10SM SCT050 M03/M07 A3005 RMK AO2 T10301067,M
BVU,2024-03-15 13:35,-114.8611,35.9475,671.00,48.20,39.20,70.88,350.00,21.00,0.00,29.73,M,10.00,28.00,FEW,FEW,OVC,M,300.00,1200.00,6000.00,M,M,M,M,M,M,M,M,40.46,KBVU 151335Z AUTO 35021G28KT 10SM FEW003 FEW012 OVC060 09/04 A2973 RMK AO2,M
CXP,2024-03-15 13:35,-119.7326,39.1923,1431.00,33.80,17.60,51.04,0.00,0.00,0.00,30.08,M,10.00,M,CLR,M,M,M,M,M,M,M,M,M,M,M,M,M,M,33.80,KCXP 151335Z AUTO 00000KT 10SM CLR 01/M08 A3008 RMK AO2,M
RTS,2024-03-15 13:35,-119.8764,39.6682,1539.00,24.80,15.80,68.18,250.00,5.00,0.00,30.07,M,10.00,M,CLR,M,M,M,M,M,M,M,M,M,M,M,M,M,M,17.84,KRTS 151335Z AUTO 25005KT 10SM CLR M04/M09 A3007 RMK AO2,M
MEV,2024-03-15 13:35,-119.7500,38.9963,1441.42,33.80,17.60,51.04,0.00,0.00,0.00,30.06,M,10.00,M,BKN,M,M,M,8000.00,M,M,M,M,M,M,M,M,M,M,33.80,KMEV 151335Z AUTO 00000KT 10SM BKN080 01/M08 A3006 RMK AO2,M
HTH,2024-03-15 13:35,-118.6315,38.5448,1282.89,37.40,19.40,47.80,320.00,9.00,0.00,30.04,M,10.00,M,BKN,OVC,M,M,6000.00,7500.00,M,M,M,M,M,M,M,M,M,30.23,KHTH 151335Z AUTO 32009KT 10SM BKN060 OVC075 03/M07 A3004 RMK A01,M
10U,2024-03-15 13:35,-116.1876,41.9532,1637.00,32.00,19.40,59.27,40.00,17.00,0.00,30.15,M,10.00,25.00,CLR,M,M,M,M,M,M,M,M,M,M,M,M,M,M,20.08,K10U 151335Z AUTO 04017G25KT 10SM CLR M00/M07 A3015 RMK AO2,M
TMT,2024-03-15 13:35,-117.1971,39.4643,1749.34,27.00,20.00,74.57,10.00,10.00,0.00,30.04,M,10.00,M,BKN,M,M,M,5000.00,M,M,M,M,M,M,M,M,M,M,16.70,KTMT 151335Z AUTO 01010KT 10SM BKN050 M03/M07 A3004 RMK AO2 T10271066,M
NFL,2024-03-15 13:47,-118.7010,39.4166,1199.00,32.00,20.00,60.81,350.00,11.00,0.00,30.05,M,10.00,M,FEW,M,M,M,10000.00,M,M,M,M,M,M,M,M,M,M,22.47,KNFL 151347Z 35011KT 10SM FEW100 00/M07 A3005 RMK AO2 T00001067,M
DRA,2024-03-15 13:53,-116.0278,36.6206,1009.00,43.00,34.00,70.30,40.00,18.00,T,29.81,1007.90,10.00,24.00,OVC,M,M,M,3600.00,M,M,M,-RA,M,M,M,29.00,60.00,2024-03-15 13:24,34.23,KDRA 151353Z AUTO 04018G24KT 10SM -RA OVC036 06/01 A2981 RMK AO2 PK WND 06029/1324 RAB09 SLP079 P0000 T00610011,M
ELY,2024-03-15 13:53,-114.8453,39.2950,1909.00,29.00,20.00,68.69,360.00,19.00,0.00,29.99,1015.40,10.00,31.00,CLR,M,M,M,M,M,M,M,M,M,M,M,31.00,360.00,2024-03-15 13:46,15.47,KELY 151353Z AUTO 36019G31KT 10SM CLR M02/M07 A2999 RMK AO2 PK WND 36031/1346 SLP154 T10171067,M
VGT,2024-03-15 13:53,-115.1933,36.2111,667.00,48.00,39.00,70.85,310.00,14.00,0.04,29.77,1009.50,10.00,M,FEW,SCT,OVC,M,3400.00,4300.00,4900.00,M,-RA,M,M,M,M,M,M,41.79,KVGT 151353Z 31014KT 10SM -RA FEW034 SCT043 OVC049 09/04 A2977 RMK AO2 SLP095 P0004 T00890039,M
LOL,2024-03-15 13:53,-118.5701,40.0684,1192.43,34.00,19.00,53.77,40.00,10.00,0.00,30.07,1018.80,10.00,M,CLR,M,M,M,M,M,M,M,M,M,M,M,M,M,M,25.48,KLOL 151353Z AUTO 04010KT 10SM CLR 01/M07 A3007 RMK AO2 SLP188 T00111072,M
BVU,2024-03-15 13:55,-114.8611,35.9475,671.00,48.20,37.40,66.05,340.00,18.00,0.00,29.73,M,10.00,27.00,OVC,M,M,M,6000.00,M,M,M,-RA,M,M,M,M,M,M,41.07,KBVU 151355Z AUTO 34018G27KT 10SM -RA OVC060 09/03 A2973 RMK AO2,M
CXP,2024-03-15 13:55,-119.7326,39.1923,1431.00,33.80,15.80,47.22,0.00,0.00,0.00,30.08,M,10.00,M,FEW,M,M,M,9000.00,M,M,M,M,M,M,M,M,M,M,33.80,KCXP 151355Z AUTO 00000KT 10SM FEW090 01/M09 A3008 RMK AO2,M
INS,2024-03-15 13:55,-115.6733,36.5872,955.00,45.30,31.00,57.08,10.00,8.00,0.00,29.83,1008.40,10.00,M,OVC,M,M,M,3800.00,M,M,M,M,M,M,M,M,M,M,40.50,KINS 151355Z AUTO 01008KT 10SM OVC038 07/M01 A2983 RMK AO2 SLP084 T00741006 $,M
RNO,2024-03-15 13:55,-119.7711,39.4839,1341.00,35.00,18.00,49.50,M,3.00,0.00,30.07,1017.90,10.00,M,FEW,M,M,M,5000.00,M,M,M,M,M,M,M,M,M,M,32.12,KRNO 151355Z VRB03KT 10SM FEW050 02/M08 A3007 RMK AO2 SLP179 T00171078,M
LSV,2024-03-15 13:55,-115.0343,36.2362,570.00,51.00,35.80,55.86,300.00,17.00,0.00,29.75,1006.70,10.00,M,OVC,M,M,M,5000.00,M,M,M,M,M,M,M,M,M,M,51.00,KLSV 151355Z AUTO 30017KT 10SM OVC050 11/02 A2975 RMK AO2 SLP067 T01050021 $,M
RTS,2024-03-15 13:55,-119.8764,39.6682,1539.00,26.60,15.80,63.27,240.00,6.00,0.00,30.07,M,10.00,M,CLR,M,M,M,M,M,M,M,M,M,M,M,M,M,M,19.03,KRTS 151355Z AUTO 24006KT 10SM CLR M03/M09 A3007 RMK AO2,M
MEV,2024-03-15 13:55,-119.7500,38.9963,1441.42,30.20,17.60,59.01,190.00,3.00,0.00,30.06,M,10.00,M,BKN,M,M,M,8000.00,M,M,M,M,M,M,M,M,M,M,26.63,KMEV 151355Z AUTO 19003KT 10SM BKN080 M01/M08 A3006 RMK AO2,M
HTH,2024-03-15 13:55,-118.6315,38.5448,1282.89,37.40,19.40,47.80,340.00,10.00,0.00,30.05,M,10.00,M,OVC,M,M,M,6000.00,M,M,M,M,M,M,M,M,M,M,29.74,KHTH 151355Z AUTO 34010KT 10SM OVC060 03/M07 A3005 RMK A01,M
10U,2024-03-15 13:55,-116.1876,41.9532,1637.00,32.00,19.40,59.27,40.00,10.00,0.00,30.15,M,10.00,18.00,CLR,M,M,M,M,M,M,M,M,M,M,M,M,M,M,22.97,K10U 151355Z AUTO 04010G18KT 10SM CLR M00/M07 A3015 RMK AO2,M
TMT,2024-03-15 13:55,-117.1971,39.4643,1749.34,27.00,20.00,74.57,350.00,9.00,0.00,30.05,M,10.00,M,SCT,M,M,M,5000.00,M,M,M,M,M,M,M,M,M,M,17.30,KTMT 151355Z AUTO 35009KT 10SM SCT050 M03/M07 A3005 RMK AO2 T10281067,M
EKO,2024-03-15 13:56,-115.7860,40.8242,1367.00,33.00,18.00,53.62,M,6.00,0.00,30.06,1018.60,10.00,M,CLR,M,M,M,M,M,M,M,M,M,M,M,M,M,M,26.73,KEKO 151356Z AUTO VRB06KT 10SM CLR 01/M08 A3006 RMK AO2 SLP186 T00061078,M
WMC,2024-03-15 13:56,-117.8072,40.9019,1315.00,33.00,20.00,58.41,30.00,8.00,0.00,30.12,1020.00,10.00,M,CLR,M,M,M,M,M,M,M,M,M,M,M,M,M,M,25.34,KWMC 151356Z AUTO 03008KT 10SM CLR 01/M07 A3012 RMK AO2 SLP200 T00061067,M
NFL,2024-03-15 13:56,-118.7010,39.4166,1199.00,33.00,20.00,58.41,350.00,12.00,0.00,30.05,1014.50,10.00,M,FEW,M,M,M,10000.00,M,M,M,M,M,M,M,M,M,M,23.27,KNFL 151356Z 35012KT 10SM FEW100 01/M07 A3005 RMK AO2 SLP145 T00061067,M
HND,2024-03-15 13:56,-115.1344,35.9729,742.79,44.00,40.00,85.71,330.00,4.00,0.05,29.80,1010.70,10.00,M,BKN,OVC,M,M,3000.00,4000.00,M,M,-RA,M,M,M,M,M,M,41.43,KHND 151356Z 33004KT 10SM -RA BKN030 OVC040 07/04 A2980 RMK AO2 SLP107 P0005 T00670044,M
TPH,2024-03-15 13:56,-117.0904,38.0505,1654.00,31.00,19.00,60.67,340.00,11.00,0.00,29.94,1013.80,10.00,M,CLR,M,M,M,M,M,M,M,M,M,M,M,M,M,M,21.20,KTPH 151356Z AUTO 34011KT 10SM CLR M01/M07 A2994 RMK AO2 SLP138 T10061072,M
LAS,2024-03-15 13:56,-115.1634,36.0719,663.00,47.00,38.00,70.74,330.00,10.00,0.03,29.78,1008.10,10.00,M,FEW,BKN,OVC,M,3500.00,4200.00,5000.00,M,-RA,M,M,M,M,M,M,41.78,KLAS 151356Z 33010KT 10SM -RA FEW035 BKN042 OVC050 08/03 A2978 RMK AO2 SLP081 P0003 T00830033,M
LSV,2024-03-15 14:12,-115.0343,36.2362,570.00,51.80,35.60,53.81,340.00,11.00,0.00,29.76,1007.10,10.00,16.00,OVC,M,M,M,5000.00,M,M,M,-RA,M,M,M,M,M,M,51.80,KLSV 151412Z AUTO 34011G16KT 10SM -RA OVC050 11/02 A2976 RMK AO2 RAB12 SLP071 $,M
BVU,2024-03-15 14:15,-114.8611,35.9475,671.00,48.20,37.40,66.05,340.00,18.00,0.00,29.75,M,10.00,25.00,OVC,M,M,M,6000.00,M,M,M,M,M,M,M,M,M,M,41.07,KBVU 151415Z AUTO 34018G25KT 10SM OVC060 09/03 A2975 RMK AO2,M
CXP,2024-03-15 14:15,-119.7326,39.1923,1431.00,30.20,17.60,59.01,60.00,4.00,0.00,30.08,M,10.00,M,CLR,M,M,M,M,M,M,M,M,M,M,M,M,M,M,25.32,KCXP 151415Z AUTO 06004KT 10SM CLR M01/M08 A3008 RMK AO2,M
RTS,2024-03-15 14:15,-119.8764,39.6682,1539.00,28.40,15.80,58.75,210.00,7.00,0.00,30.08,M,10.00,M,CLR,M,M,M,M,M,M,M,M,M,M,M,M,M,M,20.39,KRTS 151415Z AUTO 21007KT 10SM CLR M02/M09 A3008 RMK AO2,M
MEV,2024-03-15 14:15,-119.7500,38.9963,1441.42,28.40,17.60,63.51,0.00,0.00,0.00,30.07,M,10.00,M,FEW,M,M,M,8000.00,M,M,M,M,M,M,M,M,M,M,28.40,KMEV 151415Z AUTO 00000KT 10SM FEW080 M02/M08 A3007 RMK AO2,M
HTH,2024-03-15 14:15,-118.6315,38.5448,1282.89,37.40,19.40,47.80,340.00,11.00,0.00,30.05,M,10.00,M,OVC,M,M,M,6000.00,M,M,M,M,M,M,M,M,M,M,29.29,KHTH 151415Z AUTO 34011KT 10SM OVC060 03/M07 A3005 RMK A01,M
10U,2024-03-15 14:15,-116.1876,41.9532,1637.00,30.20,19.40,63.75,310.00,9.00,0.00,30.15,M,10.00,14.00,CLR,M,M,M,M,M,M,M,M,M,M,M,M,M,M,21.28,K10U 151415Z AUTO 31009G14KT 10SM CLR M01/M07 A3015 RMK AO2,M
TMT,2024-03-15 14:15,-117.1971,39.4643,1749.34,26.00,20.00,77.71,0.00,0.00,0.00,30.05,M,10.00,M,SCT,M,M,M,5000.00,M,M,M,M,M,M,M,M,M,M,26.00,KTMT 151415Z AUTO 00000KT 10SM SCT050 M03/M07 A3005 RMK AO2 T10331067,M
LSV,2024-03-15 14:22,-115.0343,36.2362,570.00,51.80,35.60,53.81,330.00,9.00,0.00,29.76,1007.10,10.00,M,OVC,M,M,M,5000.00,M,M,M,M,M,M,M,M,M,M,51.80,KLSV 151422Z AUTO 33009KT 10SM OVC050 11/02 A2976 RMK AO2 RAB12E22 SLP071 $,M
LSV,2024-03-15 14:25,-115.0343,36.2362,570.00,51.80,35.60,53.81,310.00,9.00,0.00,29.76,1007.10,10.00,M,OVC,M,M,M,5000.00,M,M,M,-RA,M,M,M,M,M,M,51.80,KLSV 151425Z AUTO 31009KT 10SM -RA OVC050 11/02 A2976 RMK AO2 RAB12E22RAB25 SLP071 $,M
BVU,2024-03-15 14:35,-114.8611,35.9475,671.00,48.20,37.40,66.05,340.00,16.00,0.00,29.76,M,10.00,22.00,FEW,OVC,M,M,3800.00,6500.00,M,M,-RA,M,M,M,M,M,M,41.53,KBVU 151435Z AUTO 34016G22KT 10SM -RA FEW038 OVC065 09/03 A2976 RMK AO2,M
CXP,2024-03-15 14:35,-119.7326,39.1923,1431.00,32.00,17.60,54.87,0.00,0.00,0.00,30.09,M,10.00,M,CLR,M,M,M,M,M,M,M,M,M,M,M,M,M,M,32.00,KCXP 151435Z AUTO 00000KT 10SM CLR 00/M08 A3009 RMK AO2,M
LSV,2024-03-15 14:35,-115.0343,36.2362,570.00,51.80,35.60,53.81,30.00,14.00,0.00,29.77,1007.40,10.00,17.00,BKN,OVC,M,M,4800.00,7000.00,M,M,-RA,M,M,M,M,M,M,51.80,KLSV 151435Z AUTO 03014G17KT 10SM -RA BKN048 OVC070 11/02 A2977 RMK AO2 RAB12E22RAB25 SLP074 $,M
RTS,2024-03-15 14:35,-119.8764,39.6682,1539.00,30.20,15.80,54.59,M,4.00,0.00,30.08,M,10.00,M,CLR,M,M,M,M,M,M,M,M,M,M,M,M,M,M,25.32,KRTS 151435Z AUTO VRB04KT 10SM CLR M01/M09 A3008 RMK AO2,M
MEV,2024-03-15 14:35,-119.7500,38.9963,1441.42,24.80,15.80,68.18,120.00,4.00,0.00,30.07,M,10.00,M,CLR,M,M,M,M,M,M,M,M,M,M,M,M,M,M,19.01,KMEV 151435Z AUTO 12004KT 10SM CLR M04/M09 A3007 RMK AO2,M
HTH,2024-03-15 14:35,-118.6315,38.5448,1282.89,37.40,21.20,51.61,340.00,11.00,0.00,30.05,M,10.00,M,OVC,M,M,M,6000.00,M,M,M,M,M,M,M,M,M,M,29.29,KHTH 151435Z AUTO 34011KT 10SM OVC060 03/M06 A3005 RMK A01,M
10U,2024-03-15 14:35,-116.1876,41.9532,1637.00,30.20,19.40,63.75,M,6.00,0.00,30.14,M,10.00,13.00,CLR,M,M,M,M,M,M,M,M,M,M,M,M,M,M,23.36,K10U 151435Z AUTO VRB06G13KT 10SM CLR M01/M07 A3014 RMK AO2,M
TMT,2024-03-15 14:35,-117.1971,39.4643,1749.34,26.40,19.80,75.79,360.00,8.00,0.00,30.05,M,10.00,M,SCT,M,M,M,5000.00,M,M,M,M,M,M,M,M,M,M,17.21,KTMT 151435Z AUTO 36008KT 10SM SCT050 M03/M07 A3005 RMK AO2 T10311068,M
LSV,2024-03-15 14:40,-115.0343,36.2362,570.00,51.80,35.60,53.81,10.00,10.00,0.00,29.77,1007.40,10.00,17.00,BKN,OVC,M,M,4800.00,7000.00,M,M,M,M,M,M,M,M,M,51.80,KLSV 151440Z AUTO 01010G17KT 10SM BKN048 OVC070 11/02 A2977 RMK AO2 RAB12E22RAB25E38DZB38E40 SLP074 $,M
LSV,2024-03-15 14:50,-115.0343,36.2362,570.00,51.80,35.60,53.81,20.00,8.00,0.00,29.77,1007.40,10.00,M,SCT,OVC,M,M,4800.00,7000.00,M,M,M,M,M,M,M,M,M,51.80,KLSV 151450Z AUTO 02008KT 10SM SCT048 OVC070 11/02 A2977 RMK AO2 RAB12E22RAB25E38DZB38E40 SLP074 $,M
DRA,2024-03-15 14:53,-116.0278,36.6206,1009.00,43.00,34.00,70.30,50.00,8.00,0.01,29.83,1008.50,10.00,M,SCT,BKN,OVC,M,4000.00,4700.00,6000.00,M,-RA,M,M,M,27.00,40.00,2024-03-15 14:34,37.66,KDRA 151453Z AUTO 05008KT 020V080 10SM -RA SCT040 BKN047 OVC060 06/01 A2983 RMK AO2 PK WND 04027/1434 SLP085 P0001 60001 T00610011 51015,M
ELY,2024-03-15 14:53,-114.8453,39.2950,1909.00,30.00,20.00,65.94,10.00,17.00,0.00,29.99,1015.90,10.00,30.00,CLR,M,M,M,M,M,M,M,M,M,M,M,34.00,350.00,2024-03-15 14:12,17.46,KELY 151453Z AUTO 01017G30KT 10SM CLR M01/M07 A2999 RMK AO2 PK WND 35034/1412 SLP159 T10111067 53003,M
VGT,2024-03-15 14:53,-115.1933,36.2111,667.00,48.00,38.00,68.13,340.00,7.00,0.01,29.80,1010.30,8.00,M,OVC,M,M,M,4400.00,M,M,M,-RA,M,M,M,32.00,310.00,2024-03-15 14:38,44.28,KVGT 151453Z 34007KT 300V040 8SM -RA OVC044 09/03 A2980 RMK AO2 PK WND 31032/1438 SLP103 P0001 60007 T00890033 53001,M
LOL,2024-03-15 14:53,-118.5701,40.0684,1192.43,36.00,20.00,51.83,30.00,9.00,0.00,30.07,1018.80,10.00,M,CLR,M,M,M,M,M,M,M,M,M,M,M,M,M,M,28.49,KLOL 151453Z AUTO 03009KT 10SM CLR 02/M07 A3007 RMK AO2 SLP188 T00221067 51002,M
BVU,2024-03-15 14:55,-114.8611,35.9475,671.00,48.20,39.20,70.88,340.00,13.00,0.00,29.77,M,8.00,18.00,FEW,SCT,BKN,M,2900.00,3500.00,4500.00,M,-RA,M,M,M,M,M,M,42.32,KBVU 151455Z AUTO 34013G18KT 8SM -RA FEW029 SCT035 BKN045 09/04 A2977 RMK AO2,M
CXP,2024-03-15 14:55,-119.7326,39.1923,1431.00,33.80,17.60,51.04,0.00,0.00,0.00,30.08,M,10.00,M,CLR,M,M,M,M,M,M,M,M,M,M,M,M,M,M,33.80,KCXP 151455Z AUTO 00000KT 10SM CLR 01/M08 A3008 RMK AO2,M
INS,2024-03-15 14:55,-115.6733,36.5872,955.00,46.20,30.00,52.97,20.00,11.00,0.00,29.83,1008.40,10.00,M,BKN,OVC,M,M,4200.00,5500.00,M,M,M,M,M,M,M,M,M,40.41,KINS 151455Z AUTO 02011KT 10SM BKN042 OVC055 08/M01 A2983 RMK AO2 SLP084 T00791011 51006 $,M
RNO,2024-03-15 14:55,-119.7711,39.4839,1341.00,33.00,19.00,55.97,170.00,4.00,0.00,30.08,1018.40,10.00,M,FEW,M,M,M,5000.00,M,M,M,M,M,M,M,M,M,M,28.59,KRNO 151455Z 17004KT 10SM FEW050 01/M07 A3008 RMK AO2 SLP184 T00061072 53002,M
RTS,2024-03-15 14:55,-119.8764,39.6682,1539.00,30.20,15.80,54.59,180.00,7.00,0.00,30.07,M,10.00,M,CLR,M,M,M,M,M,M,M,M,M,M,M,M,M,M,22.59,KRTS 151455Z AUTO 18007KT 10SM CLR M01/M09 A3007 RMK AO2,M
MEV,2024-03-15 14:55,-119.7500,38.9963,1441.42,26.60,17.60,68.40,170.00,6.00,0.00,30.07,M,10.00,M,CLR,M,M,M,M,M,M,M,M,M,M,M,M,M,M,19.03,KMEV 151455Z AUTO 17006KT 10SM CLR M03/M08 A3007 RMK AO2,M
HTH,2024-03-15 14:55,-118.6315,38.5448,1282.89,39.20,19.40,44.55,340.00,13.00,0.00,30.05,M,10.00,M,BKN,OVC,M,M,6500.00,7500.00,M,M,M,M,M,M,M,M,M,30.79,KHTH 151455Z AUTO 34013KT 10SM BKN065 OVC075 04/M07 A3005 RMK A01,M
TMT,2024-03-15 14:55,-117.1971,39.4643,1749.34,29.00,20.50,70.16,10.00,10.00,0.00,30.05,M,10.00,M,CLR,M,M,M,M,M,M,M,M,M,M,M,M,M,M,19.21,KTMT 151455Z AUTO 01010KT 10SM CLR M02/M06 A3005 RMK AO2 T10161064,M
10U,2024-03-15 14:55,-116.1876,41.9532,1637.00,33.80,17.60,51.04,70.00,11.00,0.00,30.12,M,10.00,18.00,CLR,M,M,M,M,M,M,M,M,M,M,M,M,M,M,24.74,K10U 151455Z AUTO 07011G18KT 10SM CLR 01/M08 A3012 RMK AO2,M
LSV,2024-03-15 14:55,-115.0343,36.2362,570.00,52.50,35.00,51.20,30.00,8.00,T,29.77,1007.40,10.00,M,SCT,OVC,M,M,4800.00,7000.00,M,M,M,M,M,M,M,M,M,52.50,KLSV 151455Z AUTO 03008KT 10SM SCT048 OVC070 11/02 A2977 RMK AO2 RAB12E22RAB25E38DZB38E40 SLP074 P0000 60000 T01140016 53006 $,M
EKO,2024-03-15 14:56,-115.7860,40.8242,1367.00,35.00,19.00,51.67,80.00,4.00,0.00,30.08,1019.20,10.00,M,CLR,M,M,M,M,M,M,M,M,M,M,M,M,M,M,30.92,KEKO 151456Z AUTO 08004KT 10SM CLR 02/M07 A3008 RMK AO2 SLP192 T00171072 53005,M
WMC,2024-03-15 14:56,-117.8072,40.9019,1315.00,35.00,20.00,53.93,30.00,11.00,0.00,30.11,1019.90,10.00,20.00,CLR,M,M,M,M,M,M,M,M,M,M,M,M,M,M,26.26,KWMC 151456Z AUTO 03011G20KT 10SM CLR 02/M07 A3011 RMK AO2 SLP199 T00171067 58002,M
HND,2024-03-15 14:56,-115.1344,35.9729,742.79,45.00,41.00,85.77,10.00,5.00,0.02,29.81,1011.10,10.00,M,OVC,M,M,M,3500.00,M,M,M,-RA,M,M,M,M,M,M,41.83,KHND 151456Z 01005KT 10SM -RA OVC035 07/05 A2981 RMK AO2 SLP111 P0002 60009 T00720050 53004,M
TPH,2024-03-15 14:56,-117.0904,38.0505,1654.00,33.00,19.00,55.97,350.00,15.00,0.00,29.94,1013.70,10.00,M,CLR,M,M,M,M,M,M,M,M,M,M,M,M,M,M,22.08,KTPH 151456Z AUTO 35015KT 10SM CLR 01/M07 A2994 RMK AO2 SLP137 T00061072 50001,M
LAS,2024-03-15 14:56,-115.1634,36.0719,663.00,47.00,39.00,73.57,340.00,11.00,0.01,29.80,1008.50,8.00,M,OVC,M,M,M,3800.00,M,M,M,-RA,M,M,M,M,M,M,41.42,KLAS 151456Z 34011KT 8SM -RA OVC038 08/04 A2980 RMK AO2 RAE1358B41 SLP085 P0001 60006 T00830039 53003,M
NFL,2024-03-15 14:56,-118.7010,39.4166,1199.00,35.00,20.00,53.93,340.00,9.00,0.00,30.05,1014.50,10.00,M,FEW,FEW,M,M,10000.00,22000.00,M,M,M,M,M,M,M,M,M,27.24,KNFL 151456Z 34009KT 10SM FEW100 FEW220 02/M07 A3005 RMK AO2 SLP145 T00171067 51003,M
LSV,2024-03-15 15:05,-115.0343,36.2362,570.00,51.80,35.60,53.81,30.00,9.00,0.00,29.78,1007.80,10.00,M,BKN,OVC,M,M,4700.00,7000.00,M,M,M,M,M,M,M,M,M,51.80,KLSV 151505Z AUTO 03009KT 10SM BKN047 OVC070 11/02 A2978 RMK AO2 SLP078 $,M
RTS,2024-03-15 15:10,-119.8764,39.6682,1539.00,33.80,15.80,47.22,M,3.00,0.00,30.08,M,10.00,M,CLR,M,M,M,M,M,M,M,M,M,M,M,M,M,M,30.75,KRTS 151510Z AUTO VRB03KT 10SM CLR 01/M09 A3008 RMK AO2,M
BVU,2024-03-15 15:15,-114.8611,35.9475,671.00,48.20,39.20,70.88,360.00,10.00,0.00,29.77,M,7.00,19.00,FEW,SCT,OVC,M,2700.00,3800.00,4500.00,M,-RA,M,M,M,M,M,M,43.28,KBVU 151515Z AUTO 36010G19KT 7SM -RA FEW027 SCT038 OVC045 09/04 A2977 RMK AO2,M
CXP,2024-03-15 15:15,-119.7326,39.1923,1431.00,35.60,19.40,51.33,130.00,4.00,0.00,30.08,M,10.00,M,CLR,M,M,M,M,M,M,M,M,M,M,M,M,M,M,31.62,KCXP 151515Z AUTO 13004KT 10SM CLR 02/M07 A3008 RMK AO2,M
MEV,2024-03-15 15:15,-119.7500,38.9963,1441.42,33.80,19.40,55.14,0.00,0.00,0.00,30.07,M,10.00,M,FEW,FEW,M,M,5000.00,6000.00,M,M,M,M,M,M,M,M,M,33.80,KMEV 151515Z AUTO 00000KT 10SM FEW050 FEW060 01/M07 A3007 RMK AO2,M
HTH,2024-03-15 15:15,-118.6315,38.5448,1282.89,41.00,21.20,44.85,340.00,12.00,0.00,30.05,M,10.00,M,OVC,M,M,M,6500.00,M,M,M,M,M,M,M,M,M,M,33.46,KHTH 151515Z AUTO 34012KT 10SM OVC065 05/M06 A3005 RMK A01,M
10U,2024-03-15 15:15,-116.1876,41.9532,1637.00,35.60,17.60,47.51,50.00,6.00,0.00,30.13,M,10.00,11.00,CLR,M,M,M,M,M,M,M,M,M,M,M,M,M,M,29.87,K10U 151515Z AUTO 05006G11KT 10SM CLR 02/M08 A3013 RMK AO2,M
TMT,2024-03-15 15:15,-117.1971,39.4643,1749.34,31.00,21.20,66.63,0.00,0.00,0.00,30.05,M,10.00,M,CLR,M,M,M,M,M,M,M,M,M,M,M,M,M,M,31.00,KTMT 151515Z AUTO 00000KT 10SM CLR M01/M06 A3005 RMK AO2 T10061060,M
BVU,2024-03-15 15:35,-114.8611,35.9475,671.00,50.00,39.20,66.27,30.00,13.00,0.00,29.78,M,10.00,18.00,SCT,BKN,OVC,M,3900.00,4500.00,7500.00,M,-RA,M,M,M,M,M,M,50.00,KBVU 151535Z AUTO 03013G18KT 10SM -RA SCT039 BKN045 OVC075 10/04 A2978 RMK AO2,M
CXP,2024-03-15 15:35,-119.7326,39.1923,1431.00,37.40,17.60,44.25,130.00,3.00,0.00,30.09,M,10.00,M,CLR,M,M,M,M,M,M,M,M,M,M,M,M,M,M,34.86,KCXP 151535Z AUTO 13003KT 10SM CLR 03/M08 A3009 RMK AO2,M
RTS,2024-03-15 15:35,-119.8764,39.6682,1539.00,37.40,15.80,40.93,70.00,8.00,0.00,30.07,M,10.00,M,CLR,M,M,M,M,M,M,M,M,M,M,M,M,M,M,30.76,KRTS 151535Z AUTO 07008KT 10SM CLR 03/M09 A3007 RMK AO2,M
MEV,2024-03-15 15:35,-119.7500,38.9963,1441.42,35.60,19.40,51.33,310.00,3.00,0.00,30.07,M,10.00,M,BKN,M,M,M,6000.00,M,M,M,M,M,M,M,M,M,M,32.80,KMEV 151535Z AUTO 31003KT 10SM BKN060 02/M07 A3007 RMK AO2,M
HTH,2024-03-15 15:35,-118.6315,38.5448,1282.89,39.20,21.20,48.10,340.00,11.00,0.00,30.05,M,10.00,M,OVC,M,M,M,6000.00,M,M,M,M,M,M,M,M,M,M,31.57,KHTH 151535Z AUTO 34011KT 10SM OVC060 04/M06 A3005 RMK A01,M
TMT,2024-03-15 15:35,-117.1971,39.4643,1749.34,32.00,21.20,63.99,10.00,10.00,0.00,30.05,M,10.00,M,CLR,M,M,M,M,M,M,M,M,M,M,M,M,M,M,22.97,KTMT 151535Z AUTO 01010KT 10SM CLR 00/M06 A3005 RMK AO2 T10011060,M
DRA,2024-03-15 15:53,-116.0278,36.6206,1009.00,46.00,32.00,57.87,50.00,16.00,T,29.83,1008.60,10.00,24.00,OVC,M,M,M,4400.00,M,M,M,M,M,M,M,M,M,M,38.67,KDRA 151553Z AUTO 05016G24KT 10SM OVC044 08/00 A2983 RMK AO2 RAE05 SLP086 P0000 T00780000,M
ELY,2024-03-15 15:53,-114.8453,39.2950,1909.00,31.00,21.00,66.07,350.00,22.00,0.00,29.98,1015.30,10.00,31.00,FEW,M,M,M,4700.00,M,M,M,M,M,M,M,31.00,340.00,2024-03-15 15:52,17.24,KELY 151553Z AUTO 35022G31KT 10SM FEW047 M01/M06 A2998 RMK AO2 PK WND 34031/1552 SLP153 T10061061,M
VGT,2024-03-15 15:53,-115.1933,36.2111,667.00,49.00,38.00,65.63,340.00,11.00,0.01,29.81,1010.70,10.00,19.00,FEW,OVC,M,M,3600.00,4400.00,M,M,-RA,M,M,M,M,M,M,43.95,KVGT 151553Z 34011G19KT 10SM -RA FEW036 OVC044 09/03 A2981 RMK AO2 SLP107 P0001 T00940033,M
LOL,2024-03-15 15:53,-118.5701,40.0684,1192.43,41.00,20.00,42.62,40.00,9.00,0.00,30.07,1018.50,10.00,M,CLR,M,M,M,M,M,M,M,M,M,M,M,M,M,M,34.70,KLOL 151553Z AUTO 04009KT 10SM CLR 05/M07 A3007 RMK AO2 SLP185 T00501067,M
BVU,2024-03-15 15:55,-114.8611,35.9475,671.00,50.00,41.00,71.07,20.00,12.00,0.00,29.78,M,10.00,M,FEW,OVC,M,M,4500.00,5500.00,M,M,M,M,M,M,M,M,M,50.00,KBVU 151555Z AUTO 02012KT 10SM FEW045 OVC055 10/05 A2978 RMK AO2,M
CXP,2024-03-15 15:55,-119.7326,39.1923,1431.00,39.20,15.80,38.15,0.00,0.00,0.00,30.08,M,10.00,M,CLR,M,M,M,M,M,M,M,M,M,M,M,M,M,M,39.20,KCXP 151555Z AUTO 00000KT 10SM CLR 04/M09 A3008 RMK AO2,M
INS,2024-03-15 15:55,-115.6733,36.5872,955.00,48.00,29.00,47.52,20.00,13.00,0.00,29.83,1008.40,10.00,M,FEW,SCT,OVC,M,3000.00,3900.00,6000.00,M,M,M,M,M,M,M,M,42.07,KINS 151555Z AUTO 02013KT 10SM FEW030 SCT039 OVC060 09/M02 A2983 RMK AO2 SLP084 T00881016 $,M
RNO,2024-03-15 15:55,-119.7711,39.4839,1341.00,38.00,19.00,45.90,0.00,0.00,0.00,30.08,1017.80,10.00,M,SCT,M,M,M,6000.00,M,M,M,M,M,M,M,M,M,M,38.00,KRNO 151555Z 00000KT 10SM SCT060 03/M07 A3008 RMK AO2 SLP178 ACSL ALQDS T00331072,M
LSV,2024-03-15 15:55,-115.0343,36.2362,570.00,50.40,38.30,63.03,20.00,12.00,0.00,29.79,1008.20,10.00,19.00,BKN,BKN,M,M,3700.00,4400.00,M,M,M,M,M,M,M,M,M,50.40,KLSV 151555Z AUTO 02012G19KT 10SM BKN037 BKN044 10/04 A2979 RMK AO2 SLP082 T01020035 $,M
RTS,2024-03-15 15:55,-119.8764,39.6682,1539.00,37.40,17.60,44.25,60.00,12.00,0.00,30.07,M,10.00,M,CLR,M,M,M,M,M,M,M,M,M,M,M,M,M,M,28.87,KRTS 151555Z AUTO 06012KT 10SM CLR 03/M08 A3007 RMK AO2,M
MEV,2024-03-15 15:55,-119.7500,38.9963,1441.42,37.40,17.60,44.25,350.00,6.00,0.00,30.06,M,10.00,M,OVC,M,M,M,6000.00,M,M,M,M,M,M,M,M,M,M,32.03,KMEV 151555Z AUTO 35006KT 10SM OVC060 03/M08 A3006 RMK AO2,M
HTH,2024-03-15 15:55,-118.6315,38.5448,1282.89,39.20,21.20,48.10,350.00,13.00,0.00,30.06,M,10.00,M,OVC,M,M,M,5500.00,M,M,M,M,M,M,M,M,M,M,30.79,KHTH 151555Z AUTO 35013KT 10SM OVC055 04/M06 A3006 RMK A01,M
10U,2024-03-15 15:55,-116.1876,41.9532,1637.00,37.40,17.60,44.25,110.00,16.00,0.00,30.13,M,10.00,M,CLR,M,M,M,M,M,M,M,M,M,M,M,M,M,M,27.46,K10U 151555Z AUTO 11016KT 10SM CLR 03/M08 A3013 RMK AO2,M
TMT,2024-03-15 15:55,-117.1971,39.4643,1749.34,32.70,21.00,61.69,10.00,5.00,0.00,30.05,M,10.00,M,CLR,M,M,M,M,M,M,M,M,M,M,M,M,M,M,27.23,KTMT 151555Z AUTO 01005KT 10SM CLR 00/M06 A3005 RMK AO2 T00041061,M
INS,2024-03-15 15:56,-115.6733,36.5872,955.00,48.20,28.40,46.02,20.00,12.00,0.00,29.83,1008.40,10.00,M,SCT,BKN,OVC,M,3500.00,4500.00,6000.00,M,-RA,M,M,M,M,M,M,42.62,KINS 151556Z AUTO 02012KT 10SM -RA SCT035 BKN045 OVC060 09/M02 A2983 RMK AO2 RAB55 SLP084 $,M
EKO,2024-03-15 15:56,-115.7860,40.8242,1367.00,38.00,21.00,49.98,40.00,16.00,0.00,30.08,1019.20,10.00,27.00,CLR,M,M,M,M,M,M,M,M,M,M,M,27.00,40.00,2024-03-15 15:48,28.24,KEKO 151556Z AUTO 04016G27KT 10SM CLR 03/M06 A3008 RMK AO2 PK WND 04027/1548 SLP192 T00331061,M
WMC,2024-03-15 15:56,-117.8072,40.9019,1315.00,39.00,21.00,48.06,30.00,14.00,0.00,30.10,1019.40,10.00,M,CLR,M,M,M,M,M,M,M,M,M,M,M,M,M,M,30.19,KWMC 151556Z AUTO 03014KT 10SM CLR 04/M06 A3010 RMK AO2 SLP194 T00391061,M
LSV,2024-03-15 15:56,-115.0343,36.2362,570.00,50.00,37.40,61.76,20.00,16.00,0.00,29.79,1008.20,10.00,21.00,BKN,M,M,M,3700.00,M,M,M,-RA,M,M,M,M,M,M,50.00,KLSV 151556Z AUTO 02016G21KT 10SM -RA BKN037 10/03 A2979 RMK AO2 RAB55 SLP082 $,M
HND,2024-03-15 15:56,-115.1344,35.9729,742.79,45.00,41.00,85.77,360.00,8.00,0.06,29.83,1011.50,9.00,M,OVC,M,M,M,3100.00,M,M,M,RA,M,M,M,M,M,M,40.13,KHND 151556Z 36008KT 320V040 9SM RA OVC031 07/05 A2983 RMK AO2 SLP115 P0006 T00720050,M
TPH,2024-03-15 15:56,-117.0904,38.0505,1654.00,38.00,20.00,47.90,360.00,23.00,0.00,29.93,1013.10,10.00,29.00,SCT,M,M,M,10000.00,M,M,M,M,M,M,M,29.00,360.00,2024-03-15 15:53,26.38,KTPH 151556Z AUTO 36023G29KT 10SM SCT100 03/M07 A2993 RMK AO2 PK WND 36029/1553 SLP131 T00331067,M
LAS,2024-03-15 15:56,-115.1634,36.0719,663.00,47.00,39.00,73.57,10.00,11.00,0.02,29.81,1009.10,7.00,M,FEW,BKN,OVC,M,3000.00,3800.00,4500.00,M,-RA,M,M,M,M,M,M,41.42,KLAS 151556Z 01011KT 7SM -RA FEW030 BKN038 OVC045 08/04 A2981 RMK AO2 SLP091 P0002 T00830039,M
NFL,2024-03-15 15:56,-118.7010,39.4166,1199.00,42.00,20.00,41.00,10.00,10.00,0.00,30.05,1014.60,10.00,17.00,FEW,FEW,M,M,10000.00,22000.00,M,M,M,M,M,M,M,M,M,35.51,KNFL 151556Z 01010G17KT 10SM FEW100 FEW220 06/M07 A3005 RMK AO2 SLP146 T00561067,M
HND,2024-03-15 16:04,-115.1344,35.9729,742.79,44.60,41.00,87.09,10.00,13.00,0.02,29.83,M,9.00,17.00,OVC,M,M,M,2900.00,M,M,M,RA,M,M,M,M,M,M,37.71,KHND 151604Z 01013G17KT 9SM RA OVC029 07/05 A2983 RMK AO2 P0002,M
INS,2024-03-15 16:05,-115.6733,36.5872,955.00,48.20,30.20,49.53,20.00,9.00,0.00,29.83,1008.40,10.00,M,FEW,BKN,OVC,M,2900.00,4300.00,5500.00,M,M,M,M,M,M,M,M,43.66,KINS 151605Z AUTO 02009KT 10SM FEW029 BKN043 OVC055 09/M01 A2983 RMK AO2 RAB1555E05 SLP084 $,M
LSV,2024-03-15 16:06,-115.0343,36.2362,570.00,50.00,39.20,66.27,20.00,19.00,0.00,29.79,1008.20,10.00,M,SCT,M,M,M,3600.00,M,M,M,-RA,M,M,M,M,M,M,50.00,KLSV 151606Z AUTO 02019KT 10SM -RA SCT036 10/04 A2979 RMK AO2 RAB1555 SLP082 $,M
BVU,2024-03-15 16:15,-114.8611,35.9475,671.00,50.00,39.20,66.27,20.00,12.00,0.00,29.79,M,10.00,M,OVC,M,M,M,5000.00,M,M,M,M,M,M,M,M,M,M,50.00,KBVU 151615Z AUTO 02012KT 10SM OVC050 10/04 A2979 RMK AO2,M
CXP,2024-03-15 16:15,-119.7326,39.1923,1431.00,39.20,15.80,38.15,0.00,0.00,0.00,30.08,M,10.00,M,SCT,M,M,M,5000.00,M,M,M,M,M,M,M,M,M,M,39.20,KCXP 151615Z AUTO 00000KT 10SM SCT050 04/M09 A3008 RMK AO2,M
RTS,2024-03-15 16:15,-119.8764,39.6682,1539.00,39.20,15.80,38.15,60.00,15.00,0.00,30.07,M,10.00,M,CLR,M,M,M,M,M,M,M,M,M,M,M,M,M,M,30.11,KRTS 151615Z AUTO 06015KT 10SM CLR 04/M09 A3007 RMK AO2,M
MEV,2024-03-15 16:15,-119.7500,38.9963,1441.42,39.20,17.60,41.24,310.00,4.00,0.00,30.07,M,10.00,M,BKN,BKN,M,M,6000.00,7000.00,M,M,M,M,M,M,M,M,M,35.83,KMEV 151615Z AUTO 31004KT 10SM BKN060 BKN070 04/M08 A3007 RMK AO2,M
HTH,2024-03-15 16:15,-118.6315,38.5448,1282.89,39.20,19.40,44.55,340.00,13.00,0.00,30.06,M,10.00,M,OVC,M,M,M,5500.00,M,M,M,M,M,M,M,M,M,M,30.79,KHTH 151615Z AUTO 34013KT 10SM OVC055 04/M07 A3006 RMK A01,M
10U,2024-03-15 16:15,-116.1876,41.9532,1637.00,37.40,17.60,44.25,70.00,11.00,0.00,30.12,M,10.00,22.00,CLR,M,M,M,M,M,M,M,M,M,M,M,M,M,M,29.29,K10U 151615Z AUTO 07011G22KT 040V100 10SM CLR 03/M08 A3012 RMK AO2,M
TMT,2024-03-15 16:15,-117.1971,39.4643,1749.34,33.40,21.00,59.98,10.00,5.00,0.00,30.05,M,10.00,M,CLR,M,M,M,M,M,M,M,M,M,M,M,M,M,M,28.06,KTMT 151615Z AUTO 01005KT 10SM CLR 01/M06 A3005 RMK AO2 T00081062,M
LSV,2024-03-15 16:18,-115.0343,36.2362,570.00,50.00,39.20,66.27,30.00,17.00,0.00,29.80,1008.60,10.00,22.00,BKN,M,M,M,5000.00,M,M,M,M,M,M,M,M,M,M,50.00,KLSV 151618Z COR 03017G22KT 10SM BKN050 10/04 A2980 RMK AO2A RAB1555E18 SLP086 $ COR 1622,M
LSV,2024-03-15 16:25,-115.0343,36.2362,570.00,50.00,39.20,66.27,20.00,14.00,0.00,29.80,1008.60,10.00,M,FEW,M,M,M,5000.00,M,M,M,-RA,M,M,M,M,M,M,50.00,KLSV 151625Z AUTO 02014KT 10SM -RA FEW050 10/04 A2980 RMK AO2 RAB1555E18RAB25 SLP086 $,M
LSV,2024-03-15 16:33,-115.0343,36.2362,570.00,50.00,39.20,66.27,20.00,16.00,0.00,29.80,1008.60,10.00,M,FEW,M,M,M,5000.00,M,M,M,M,M,M,M,M,M,M,50.00,KLSV 151633Z AUTO 02016KT 10SM FEW050 10/04 A2980 RMK AO2 RAB1555E18RAB25E33 SLP086 $,M
BVU,2024-03-15 16:35,-114.8611,35.9475,671.00,48.20,41.00,76.01,20.00,16.00,0.00,29.80,M,9.00,M,BKN,OVC,M,M,3900.00,5000.00,M,M,M,M,M,M,M,M,M,41.53,KBVU 151635Z AUTO 02016KT 9SM BKN039 OVC050 09/05 A2980 RMK AO2,M
CXP,2024-03-15 16:35,-119.7326,39.1923,1431.00,41.00,17.60,38.45,0.00,0.00,0.00,30.08,M,10.00,M,SCT,M,M,M,5000.00,M,M,M,M,M,M,M,M,M,M,41.00,KCXP 151635Z AUTO 00000KT 10SM SCT050 05/M08 A3008 RMK AO2,M
RTS,2024-03-15 16:35,-119.8764,39.6682,1539.00,39.20,15.80,38.15,60.00,13.00,0.00,30.07,M,10.00,M,CLR,M,M,M,M,M,M,M,M,M,M,M,M,M,M,30.79,KRTS 151635Z AUTO 06013KT 10SM CLR 04/M09 A3007 RMK AO2,M
MEV,2024-03-15 16:35,-119.7500,38.9963,1441.42,39.20,17.60,41.24,350.00,6.00,0.00,30.06,M,10.00,M,FEW,M,M,M,6000.00,M,M,M,M,M,M,M,M,M,M,34.20,KMEV 151635Z AUTO 35006KT 10SM FEW060 04/M08 A3006 RMK AO2,M
HTH,2024-03-15 16:35,-118.6315,38.5448,1282.89,41.00,19.40,41.54,340.00,12.00,0.00,30.06,M,10.00,18.00,OVC,M,M,M,5500.00,M,M,M,M,M,M,M,M,M,M,33.46,KHTH 151635Z AUTO 34012G18KT 10SM OVC055 05/M07 A3006 RMK A01,M
10U,2024-03-15 16:35,-116.1876,41.9532,1637.00,39.20,17.60,41.24,60.00,6.00,0.00,30.14,M,10.00,14.00,CLR,M,M,M,M,M,M,M,M,M,M,M,M,M,M,34.20,K10U 151635Z AUTO 06006G14KT 10SM CLR 04/M08 A3014 RMK AO2,M
TMT,2024-03-15 16:35,-117.1971,39.4643,1749.34,35.40,21.70,57.05,340.00,9.00,0.00,30.04,M,10.00,M,CLR,M,M,M,M,M,M,M,M,M,M,M,M,M,M,27.74,KTMT 151635Z AUTO 34009KT 10SM CLR 02/M06 A3004 RMK AO2 T00191057,M
LSV,2024-03-15 16:42,-115.0343,36.2362,570.00,50.00,41.00,71.07,20.00,14.00,0.00,29.80,1008.60,10.00,M,SCT,M,M,M,5000.00,M,M,M,-RA,M,M,M,M,M,M,50.00,KLSV 151642Z AUTO 02014KT 10SM -RA SCT050 10/05 A2980 RMK AO2 RAB1555E18RAB25E33RAB42 SLP086 $,M
DRA,2024-03-15 16:53,-116.0278,36.6206,1009.00,47.00,32.00,55.73,30.00,17.00,T,29.81,1008.00,10.00,25.00,OVC,M,M,M,4600.00,M,M,M,M,M,M,M,26.00,30.00,2024-03-15 16:13,39.73,KDRA 151653Z AUTO 03017G25KT 10SM OVC046 08/00 A2981 RMK AO2 PK WND 03026/1613 RAB07E11 SLP080 P0000 T00830000 $,M
ELY,2024-03-15 16:53,-114.8453,39.2950,1909.00,34.00,21.00,58.56,20.00,18.00,0.00,29.98,1014.40,10.00,28.00,FEW,M,M,M,4000.00,M,M,M,M,M,M,M,31.00,10.00,2024-03-15 16:43,22.38,KELY 151653Z AUTO 02018G28KT 10SM FEW040 01/M06 A2998 RMK AO2 PK WND 01031/1643 SLP144 T00111061,M
VGT,2024-03-15 16:53,-115.1933,36.2111,667.00,49.00,40.00,70.96,350.00,4.00,0.03,29.83,1011.40,5.00,M,OVC,M,M,M,3700.00,M,M,M,-RA,M,M,M,M,M,M,47.27,KVGT 151653Z 35004KT 5SM -RA OVC037 09/04 A2983 RMK AO2 SLP114 P0003 T00940044,M
LOL,2024-03-15 16:53,-118.5701,40.0684,1192.43,46.00,20.00,35.19,20.00,10.00,0.00,30.06,1017.80,10.00,M,CLR,M,M,M,M,M,M,M,M,M,M,M,M,M,M,40.52,KLOL 151653Z AUTO 02010KT 10SM CLR 08/M07 A3006 RMK AO2 SLP178 T00781067,M
BVU,2024-03-15 16:55,-114.8611,35.9475,671.00,48.20,42.80,81.47,30.00,15.00,0.00,29.80,M,3.00,M,BKN,OVC,M,M,4000.00,4900.00,M,M,-RA,M,M,M,M,M,M,41.78,KBVU 151655Z AUTO 03015KT 3SM -RA BKN040 OVC049 09/06 A2980 RMK AO2,M
CXP,2024-03-15 16:55,-119.7326,39.1923,1431.00,41.00,17.60,38.45,0.00,0.00,0.00,30.08,M,10.00,M,FEW,M,M,M,5000.00,M,M,M,M,M,M,M,M,M,M,41.00,KCXP 151655Z AUTO 00000KT 10SM FEW050 05/M08 A3008 RMK AO2,M
INS,2024-03-15 16:55,-115.6733,36.5872,955.00,48.00,30.00,49.49,40.00,10.00,T,29.83,1008.40,10.00,M,OVC,M,M,M,4100.00,M,M,M,M,M,M,M,26.00,40.00,2024-03-15 16:30,43.03,KINS 151655Z AUTO 04010KT 10SM OVC041 09/M01 A2983 RMK AO2 PK WND 04026/30 RAB1555E05 SLP084 P0000 T00881011 $,M
RNO,2024-03-15 16:55,-119.7711,39.4839,1341.00,44.00,18.00,34.86,0.00,0.00,0.00,30.07,1017.30,10.00,M,FEW,M,M,M,6000.00,M,M,M,M,M,M,M,M,M,M,44.00,KRNO 151655Z 00000KT 10SM FEW060 07/M08 A3007 RMK AO2 SLP173 ACSL SE THRU SW T00671078,M
LSV,2024-03-15 16:55,-115.0343,36.2362,570.00,50.00,40.00,68.37,20.00,15.00,T,29.81,1008.90,10.00,21.00,SCT,M,M,M,5000.00,M,M,M,-RA,M,M,M,M,M,M,50.00,KLSV 151655Z AUTO 02015G21KT 10SM -RA SCT050 10/04 A2981 RMK AO2 RAB1555E18RAB25E33RAB42 SLP089 P0000 T01000044 $,M
RTS,2024-03-15 16:55,-119.8764,39.6682,1539.00,39.20,15.80,38.15,80.00,10.00,0.00,30.07,M,10.00,M,CLR,M,M,M,M,M,M,M,M,M,M,M,M,M,M,32.00,KRTS 151655Z AUTO 08010KT 10SM CLR 04/M09 A3007 RMK AO2,M
MEV,2024-03-15 16:55,-119.7500,38.9963,1441.42,39.20,17.60,41.24,20.00,7.00,0.00,30.05,M,10.00,M,SCT,M,M,M,6000.00,M,M,M,M,M,M,M,M,M,M,33.56,KMEV 151655Z AUTO 02007KT 10SM SCT060 04/M08 A3005 RMK AO2,M
HTH,2024-03-15 16:55,-118.6315,38.5448,1282.89,41.00,19.40,41.54,340.00,13.00,0.00,30.06,M,10.00,M,OVC,M,M,M,6000.00,M,M,M,M,M,M,M,M,M,M,33.10,KHTH 151655Z AUTO 34013KT 10SM OVC060 05/M07 A3006 RMK A01,M
TMT,2024-03-15 16:55,-117.1971,39.4643,1749.34,37.80,21.70,51.89,50.00,5.00,0.00,30.03,M,10.00,M,CLR,M,M,M,M,M,M,M,M,M,M,M,M,M,M,33.28,KTMT 151655Z AUTO 05005KT 10SM CLR 03/M06 A3003 RMK AO2 T00321057,M
10U,2024-03-15 16:55,-116.1876,41.9532,1637.00,39.20,19.40,44.55,M,5.00,0.00,30.14,M,10.00,14.00,FEW,M,M,M,5500.00,M,M,M,M,M,M,M,M,M,M,34.95,K10U 151655Z AUTO VRB05G14KT 10SM FEW055 04/M07 A3014 RMK AO2,M
EKO,2024-03-15 16:56,-115.7860,40.8242,1367.00,42.00,22.00,44.63,30.00,18.00,0.00,30.07,1018.50,10.00,26.00,CLR,M,M,M,M,M,M,M,M,M,M,M,31.00,40.00,2024-03-15 16:21,32.91,KEKO 151656Z AUTO 03018G26KT 10SM CLR 06/M06 A3007 RMK AO2 PK WND 04031/1621 SLP185 T00561056,M
WMC,2024-03-15 16:56,-117.8072,40.9019,1315.00,43.00,21.00,41.17,30.00,22.00,0.00,30.09,1018.90,10.00,29.00,CLR,M,M,M,M,M,M,M,M,M,M,M,30.00,30.00,2024-03-15 16:30,33.31,KWMC 151656Z AUTO 03022G29KT 10SM CLR 06/M06 A3009 RMK AO2 PK WND 03030/1630 SLP189 T00611061,M
HND,2024-03-15 16:56,-115.1344,35.9729,742.79,45.00,41.00,85.77,30.00,11.00,0.05,29.84,1012.10,10.00,M,OVC,M,M,M,2700.00,M,M,M,-RA,M,M,M,M,M,M,38.89,KHND 151656Z 03011KT 10SM -RA OVC027 07/05 A2984 RMK AO2 SLP121 P0005 T00720050,M
TPH,2024-03-15 16:56,-117.0904,38.0505,1654.00,40.00,19.00,42.45,20.00,18.00,0.00,29.93,1012.90,10.00,28.00,BKN,BKN,OVC,M,6000.00,7500.00,10000.00,M,M,M,M,M,29.00,30.00,2024-03-15 16:46,30.28,KTPH 151656Z AUTO 02018G28KT 10SM BKN060 BKN075 OVC100 04/M07 A2993 RMK AO2 PK WND 03029/1646 SLP129 T00441072,M
LAS,2024-03-15 16:56,-115.1634,36.0719,663.00,46.00,40.00,79.44,360.00,10.00,0.05,29.83,1009.70,8.00,M,BKN,OVC,M,M,3000.00,4000.00,M,M,-RA,M,M,M,27.00,30.00,2024-03-15 16:38,40.52,KLAS 151656Z 36010KT 8SM -RA BKN030 OVC040 08/04 A2983 RMK AO2 PK WND 03027/1638 SLP097 P0005 T00780044,M
NFL,2024-03-15 16:56,-118.7010,39.4166,1199.00,47.00,20.00,33.89,40.00,9.00,0.00,30.05,1014.60,10.00,M,FEW,FEW,M,M,10000.00,22000.00,M,M,M,M,M,M,M,M,M,42.17,KNFL 151656Z 04009KT 10SM FEW100 FEW220 08/M07 A3005 RMK SLP146 T00831067,M
LSV,2024-03-15 16:59,-115.0343,36.2362,570.00,50.00,39.20,66.27,30.00,15.00,0.00,29.81,1008.90,10.00,21.00,SCT,M,M,M,4800.00,M,M,M,M,M,M,M,M,M,M,50.00,KLSV 151659Z AUTO 03015G21KT 10SM SCT048 10/04 A2981 RMK AO2 RAE59 SLP089 $,M
LSV,2024-03-15 17:09,-115.0343,36.2362,570.00,50.00,39.20,66.27,30.00,15.00,0.00,29.81,1008.90,10.00,22.00,FEW,BKN,M,M,3500.00,4800.00,M,M,M,M,M,M,M,M,M,50.00,KLSV 151709Z AUTO 03015G22KT 10SM FEW035 BKN048 10/04 A2981 RMK AO2 RAE1659 SLP089 $,M
BVU,2024-03-15 17:15,-114.8611,35.9475,671.00,48.20,42.80,81.47,30.00,13.00,0.00,29.80,M,8.00,19.00,FEW,OVC,M,M,3900.00,4600.00,M,M,M,M,M,M,M,M,M,42.32,KBVU 151715Z AUTO 03013G19KT 8SM FEW039 OVC046 09/06 A2980 RMK AO2,M
CXP,2024-03-15 17:15,-119.7326,39.1923,1431.00,42.80,17.60,35.87,60.00,11.00,0.00,30.07,M,10.00,M,BKN,BKN,M,M,5000.00,5500.00,M,M,M,M,M,M,M,M,M,36.11,KCXP 151715Z AUTO 06011KT 10SM BKN050 BKN055 06/M08 A3007 RMK AO2,M
RTS,2024-03-15 17:15,-119.8764,39.6682,1539.00,41.00,15.80,35.57,70.00,10.00,0.00,30.06,M,10.00,17.00,CLR,M,M,M,M,M,M,M,M,M,M,M,M,M,M,34.25,KRTS 151715Z AUTO 07010G17KT 10SM CLR 05/M09 A3006 RMK AO2,M
MEV,2024-03-15 17:15,-119.7500,38.9963,1441.42,42.80,17.60,35.87,20.00,11.00,0.00,30.04,M,10.00,16.00,FEW,BKN,M,M,5000.00,6000.00,M,M,M,M,M,M,M,M,M,36.11,KMEV 151715Z AUTO 02011G16KT 10SM FEW050 BKN060 06/M08 A3004 RMK AO2,M
HTH,2024-03-15 17:15,-118.6315,38.5448,1282.89,42.80,19.40,38.75,320.00,12.00,0.00,30.05,M,10.00,18.00,BKN,OVC,M,M,5000.00,6000.00,M,M,M,M,M,M,M,M,M,35.75,KHTH 151715Z AUTO 32012G18KT 10SM BKN050 OVC060 06/M07 A3005 RMK A01,M
10U,2024-03-15 17:15,-116.1876,41.9532,1637.00,39.20,21.20,48.10,100.00,8.00,0.00,30.15,M,10.00,M,FEW,M,M,M,5500.00,M,M,M,M,M,M,M,M,M,M,32.98,K10U 151715Z AUTO 10008KT 060V120 10SM FEW055 04/M06 A3015 RMK AO2,M
TMT,2024-03-15 17:15,-117.1971,39.4643,1749.34,39.20,21.70,49.12,40.00,8.00,0.00,30.03,M,10.00,14.00,CLR,M,M,M,M,M,M,M,M,M,M,M,M,M,M,32.98,KTMT 151715Z AUTO 04008G14KT 10SM CLR 04/M06 A3003 RMK AO2 T00401057,M
INS,2024-03-15 17:28,-115.6733,36.5872,955.00,46.40,32.00,57.00,50.00,14.00,0.00,29.85,1009.30,10.00,M,FEW,OVC,M,M,1900.00,3700.00,M,M,-RA,M,M,M,M,M,M,39.72,KINS 151728Z AUTO 05014KT 10SM -RA FEW019 OVC037 08/M00 A2985 RMK AO2 RAB28 SLP093 $,M
BVU,2024-03-15 17:35,-114.8611,35.9475,671.00,48.20,42.80,81.47,20.00,13.00,0.00,29.81,M,9.00,M,FEW,OVC,M,M,3700.00,4600.00,M,M,-DZ,M,M,M,M,M,M,42.32,KBVU 151735Z AUTO 02013KT 9SM -DZ FEW037 OVC046 09/06 A2981 RMK AO2,M
CXP,2024-03-15 17:35,-119.7326,39.1923,1431.00,42.80,17.60,35.87,70.00,12.00,0.00,30.06,M,10.00,M,BKN,M,M,M,5000.00,M,M,M,M,M,M,M,M,M,M,35.75,KCXP 151735Z AUTO 07012KT 10SM BKN050 06/M08 A3006 RMK AO2,M
RTS,2024-03-15 17:35,-119.8764,39.6682,1539.00,42.80,15.80,33.18,60.00,11.00,0.00,30.06,M,10.00,17.00,CLR,M,M,M,M,M,M,M,M,M,M,M,M,M,M,36.11,KRTS 151735Z AUTO 06011G17KT 020V080 10SM CLR 06/M09 A3006 RMK AO2,M
MEV,2024-03-15 17:35,-119.7500,38.9963,1441.42,42.80,17.60,35.87,350.00,15.00,0.00,30.04,M,10.00,M,BKN,M,M,M,5500.00,M,M,M,M,M,M,M,M,M,M,34.78,KMEV 151735Z AUTO 35015KT 10SM BKN055 06/M08 A3004 RMK AO2,M
HTH,2024-03-15 17:35,-118.6315,38.5448,1282.89,44.60,19.40,36.18,320.00,13.00,0.00,30.05,M,10.00,19.00,FEW,SCT,M,M,5000.00,6000.00,M,M,M,M,M,M,M,M,M,37.71,KHTH 151735Z AUTO 32013G19KT 10SM FEW050 SCT060 07/M07 A3005 RMK A01,M
10U,2024-03-15 17:35,-116.1876,41.9532,1637.00,39.20,21.20,48.10,M,4.00,0.00,30.14,M,10.00,14.00,CLR,M,M,M,M,M,M,M,M,M,M,M,M,M,M,35.83,K10U 151735Z AUTO VRB04G14KT 10SM CLR 04/M06 A3014 RMK AO2,M
TMT,2024-03-15 17:35,-117.1971,39.4643,1749.34,40.00,21.70,47.62,40.00,9.00,0.00,30.02,M,10.00,15.00,CLR,M,M,M,M,M,M,M,M,M,M,M,M,M,M,33.46,KTMT 151735Z AUTO 04009G15KT 10SM CLR 04/M06 A3002 RMK AO2 T00441057,M
INS,2024-03-15 17:38,-115.6733,36.5872,955.00,46.40,32.00,57.00,50.00,17.00,0.00,29.85,1009.30,10.00,23.00,BKN,BKN,OVC,M,1900.00,2500.00,3500.00,M,-RA,M,M,M,M,M,M,38.94,KINS 151738Z AUTO 05017G23KT 10SM -RA BKN019 BKN025 OVC035 08/00 A2985 RMK AO2 RAB28 BKN019 V FEW SLP093 $,M
LSV,2024-03-15 17:45,-115.0343,36.2362,570.00,50.00,37.40,61.76,20.00,14.00,0.00,29.82,1009.20,10.00,20.00,BKN,M,M,M,4300.00,M,M,M,-RA,M,M,M,M,M,M,50.00,KLSV 151745Z AUTO 02014G20KT 10SM -RA BKN043 10/03 A2982 RMK AO2 RAE1659RAB45 SLP092 $,M
DRA,2024-03-15 17:53,-116.0278,36.6206,1009.00,47.00,33.00,58.01,30.00,19.00,0.00,29.83,1008.50,10.00,27.00,BKN,OVC,M,M,4100.00,5000.00,M,M,M,M,M,M,27.00,30.00,2024-03-15 17:50,39.27,KDRA 151753Z AUTO 03019G27KT 10SM BKN041 OVC050 08/01 A2983 RMK AO2 PK WND 03027/1750 SLP085 60001 T00830006 10094 20061 53001 $,M
ELY,2024-03-15 17:53,-114.8453,39.2950,1909.00,37.00,21.00,51.99,360.00,16.00,0.00,29.99,1014.90,10.00,28.00,SCT,BKN,M,M,4800.00,6000.00,M,M,M,M,M,M,37.00,20.00,2024-03-15 17:28,26.94,KELY 151753Z AUTO 36016G28KT 10SM SCT048 BKN060 03/M06 A2999 RMK AO2 PK WND 02037/1728 SLP149 T00281061 10039 21017 55001,M
VGT,2024-03-15 17:53,-115.1933,36.2111,667.00,48.00,41.00,76.58,330.00,4.00,0.04,29.85,1012.10,7.00,M,OVC,M,M,M,3300.00,M,M,M,-RA,M,M,M,M,M,M,46.10,KVGT 151753Z 33004KT 7SM -RA OVC033 09/05 A2985 RMK AO2 SLP121 P0004 60015 T00890050 10100 20083 53016,M
LOL,2024-03-15 17:53,-118.5701,40.0684,1192.43,50.00,19.00,29.02,30.00,7.00,0.00,30.05,1017.30,10.00,21.00,CLR,M,M,M,M,M,M,M,M,M,M,M,M,M,M,50.00,KLOL 151753Z AUTO 03007G21KT 10SM CLR 10/M07 A3005 RMK AO2 SLP173 T01001072 10100 21011 58007,M
BVU,2024-03-15 17:55,-114.8611,35.9475,671.00,48.20,41.00,76.01,20.00,15.00,0.00,29.81,M,10.00,M,OVC,M,M,M,4100.00,M,M,M,M,M,M,M,M,M,M,41.78,KBVU 151755Z AUTO 02015KT 10SM OVC041 09/05 A2981 RMK AO2,M
CXP,2024-03-15 17:55,-119.7326,39.1923,1431.00,44.60,17.60,33.49,60.00,12.00,0.00,30.07,M,10.00,M,SCT,M,M,M,5000.00,M,M,M,M,M,M,M,M,M,M,38.04,KCXP 151755Z AUTO 06012KT 10SM SCT050 07/M08 A3007 RMK AO2,M
INS,2024-03-15 17:55,-115.6733,36.5872,955.00,45.50,35.20,67.04,50.00,12.00,T,29.86,1009.70,10.00,M,FEW,BKN,OVC,M,400.00,1900.00,2600.00,M,-RA,M,M,M,M,M,M,39.18,KINS 151755Z AUTO 05012KT 10SM -RA FEW004 BKN019 OVC026 08/02 A2986 RMK AO2 RAB28 SLP097 P0000 60000 T00750018 10096 20073 53010 $,M
RNO,2024-03-15 17:55,-119.7711,39.4839,1341.00,46.00,18.00,32.30,100.00,5.00,0.00,30.06,1016.70,10.00,M,SCT,M,M,M,6000.00,M,M,M,M,M,M,M,M,M,M,43.02,KRNO 151755Z 10005KT 10SM SCT060 08/M08 A3006 RMK AO2 SLP167 ACSL ALQDS T00781078 10078 21006 58005,M
LSV,2024-03-15 17:55,-115.0343,36.2362,570.00,50.00,38.00,63.23,30.00,14.00,T,29.82,1009.20,10.00,19.00,BKN,M,M,M,4300.00,M,M,M,-RA,M,M,M,M,M,M,50.00,KLSV 151755Z AUTO 03014G19KT 10SM -RA BKN043 10/03 A2982 RMK AO2 RAE1659RAB45 SLP092 P0000 60000 T01000033 10115 20098 52015 $,M
RTS,2024-03-15 17:55,-119.8764,39.6682,1539.00,42.80,15.80,33.18,80.00,14.00,0.00,30.05,M,10.00,20.00,CLR,M,M,M,M,M,M,M,M,M,M,M,M,M,M,35.08,KRTS 151755Z AUTO 08014G20KT 10SM CLR 06/M09 A3005 RMK AO2,M
MEV,2024-03-15 17:55,-119.7500,38.9963,1441.42,44.60,17.60,33.49,10.00,12.00,0.00,30.04,M,10.00,19.00,OVC,M,M,M,5500.00,M,M,M,M,M,M,M,M,M,M,38.04,KMEV 151755Z AUTO 01012G19KT 10SM OVC055 07/M08 A3004 RMK AO2,M
HTH,2024-03-15 17:55,-118.6315,38.5448,1282.89,44.60,19.40,36.18,310.00,13.00,0.00,30.05,M,10.00,19.00,FEW,M,M,M,6000.00,M,M,M,M,M,M,M,M,M,M,37.71,KHTH 151755Z AUTO 31013G19KT 10SM FEW060 07/M07 A3005 RMK A01,M
TMT,2024-03-15 17:55,-117.1971,39.4643,1749.34,41.40,22.00,45.68,20.00,11.00,0.00,30.02,M,10.00,14.00,CLR,M,M,M,M,M,M,M,M,M,M,M,M,M,M,34.35,KTMT 151755Z AUTO 02011G14KT 10SM CLR 05/M05 A3002 RMK AO2 T00521055 10052 21035,M
10U,2024-03-15 17:55,-116.1876,41.9532,1637.00,41.00,23.00,48.39,80.00,7.00,0.00,30.14,M,10.00,13.00,CLR,M,M,M,M,M,M,M,M,M,M,M,M,M,M,35.75,K10U 151755Z AUTO 08007G13KT 050V120 10SM CLR 05/M05 A3014 RMK AO2,M
EKO,2024-03-15 17:56,-115.7860,40.8242,1367.00,45.00,22.00,39.79,60.00,19.00,0.00,30.06,1017.80,10.00,28.00,CLR,M,M,M,M,M,M,M,M,M,M,M,33.00,50.00,2024-03-15 17:23,36.63,KEKO 151756Z AUTO 06019G28KT 10SM CLR 07/M06 A3006 RMK AO2 PK WND 05033/1723 SLP178 T00721056 10072 20000 58006,M
WMC,2024-03-15 17:56,-117.8072,40.9019,1315.00,47.00,22.00,36.89,30.00,19.00,0.00,30.07,1018.00,10.00,28.00,CLR,M,M,M,M,M,M,M,M,M,M,M,28.00,30.00,2024-03-15 17:12,39.27,KWMC 151756Z AUTO 03019G28KT 10SM CLR 08/M06 A3007 RMK AO2 PK WND 03028/1712 SLP180 T00831056 10083 20000 58012,M
HND,2024-03-15 17:56,-115.1344,35.9729,742.79,45.00,40.00,82.51,20.00,11.00,0.03,29.86,1012.80,10.00,M,OVC,M,M,M,2300.00,M,M,M,-RA,M,M,M,M,M,M,38.89,KHND 151756Z 02011KT 10SM -RA OVC023 07/04 A2986 RMK AO2 SLP128 P0003 60023 T00720044 10078 20067 53015,M
TPH,2024-03-15 17:56,-117.0904,38.0505,1654.00,42.00,19.00,39.29,10.00,19.00,0.00,29.94,1012.90,10.00,27.00,OVC,M,M,M,6000.00,M,M,M,M,M,M,M,30.00,20.00,2024-03-15 17:10,32.66,KTPH 151756Z AUTO 01019G27KT 10SM OVC060 06/M07 A2994 RMK AO2 PK WND 02030/1710 SLP129 T00561072 10056 21011 55002,M
LAS,2024-03-15 17:56,-115.1634,36.0719,663.00,46.00,41.00,82.58,10.00,11.00,0.04,29.85,1010.50,7.00,M,FEW,OVC,M,M,2400.00,3300.00,M,M,-RA,M,M,M,M,M,M,40.16,KLAS 151756Z 01011KT 7SM -RA FEW024 OVC033 08/05 A2985 RMK AO2 SLP105 P0004 60017 T00780050 10089 20072 53017,M
NFL,2024-03-15 17:56,-118.7010,39.4166,1199.00,49.00,21.00,32.80,40.00,9.00,0.00,30.04,1014.20,10.00,21.00,FEW,FEW,M,M,10000.00,22000.00,M,M,M,M,M,M,M,M,M,44.65,KNFL 151756Z 04009G21KT 10SM FEW100 FEW220 09/M06 A3004 RMK SLP142 T00941061 10094 20000 58003,M
LSV,2024-03-15 17:59,-115.0343,36.2362,570.00,50.00,37.40,61.76,40.00,18.00,0.00,29.82,1009.20,10.00,M,BKN,M,M,M,4500.00,M,M,M,M,M,M,M,M,M,M,50.00,KLSV 151759Z AUTO 04018KT 10SM BKN045 10/03 A2982 RMK AO2 RAE59 SLP092 $,M
BVU,2024-03-15 18:15,-114.8611,35.9475,671.00,48.20,42.80,81.47,10.00,17.00,0.00,29.82,M,10.00,M,OVC,M,M,M,4000.00,M,M,M,M,M,M,M,M,M,M,41.30,KBVU 151815Z AUTO 01017KT 10SM OVC040 09/06 A2982 RMK AO2,M
CXP,2024-03-15 18:15,-119.7326,39.1923,1431.00,44.60,17.60,33.49,60.00,12.00,0.00,30.05,M,10.00,20.00,FEW,M,M,M,5500.00,M,M,M,M,M,M,M,M,M,M,38.04,KCXP 151815Z AUTO 06012G20KT 10SM FEW055 07/M08 A3005 RMK AO2,M
RTS,2024-03-15 18:15,-119.8764,39.6682,1539.00,42.80,15.80,33.18,90.00,11.00,0.00,30.06,M,10.00,22.00,CLR,M,M,M,M,M,M,M,M,M,M,M,M,M,M,36.11,KRTS 151815Z AUTO 09011G22KT 10SM CLR 06/M09 A3006 RMK AO2,M
MEV,2024-03-15 18:15,-119.7500,38.9963,1441.42,42.80,17.60,35.87,40.00,6.00,0.00,30.05,M,10.00,17.00,OVC,M,M,M,5500.00,M,M,M,M,M,M,M,M,M,M,38.54,KMEV 151815Z AUTO 04006G17KT 10SM OVC055 06/M08 A3005 RMK AO2,M
HTH,2024-03-15 18:15,-118.6315,38.5448,1282.89,44.60,19.40,36.18,320.00,15.00,0.00,30.03,M,10.00,M,CLR,M,M,M,M,M,M,M,M,M,M,M,M,M,M,37.11,KHTH 151815Z AUTO 32015KT 10SM CLR 07/M07 A3003 RMK A01,M
10U,2024-03-15 18:15,-116.1876,41.9532,1637.00,41.00,21.20,44.85,360.00,7.00,0.00,30.14,M,10.00,22.00,CLR,M,M,M,M,M,M,M,M,M,M,M,M,M,M,35.75,K10U 151815Z AUTO 36007G22KT 320V020 10SM CLR 05/M06 A3014 RMK AO2,M
TMT,2024-03-15 18:15,-117.1971,39.4643,1749.34,43.00,23.00,44.80,50.00,11.00,0.00,30.02,M,10.00,14.00,CLR,M,M,M,M,M,M,M,M,M,M,M,M,M,M,36.37,KTMT 151815Z AUTO 05011G14KT 10SM CLR 06/M05 A3002 RMK AO2 T00621050,M
INS,2024-03-15 18:25,-115.6733,36.5872,955.00,44.60,37.40,75.68,50.00,10.00,0.00,29.86,1009.70,4.00,M,BKN,OVC,M,M,400.00,2000.00,M,M,RA,M,M,M,M,M,M,38.77,KINS 151825Z AUTO 05010KT 4SM RA BKN004 OVC020 07/03 A2986 RMK AO2 BKN V SCT SLP097 $,M
LSV,2024-03-15 18:29,-115.0343,36.2362,570.00,51.80,37.40,57.77,30.00,20.00,0.00,29.82,1009.20,10.00,M,SCT,SCT,M,M,4700.00,20000.00,M,M,M,M,M,M,M,M,M,51.80,KLSV 151829Z AUTO 03020KT 10SM SCT047 SCT200 11/03 A2982 RMK AO2 RAE1759 SLP092 $,M
BVU,2024-03-15 18:35,-114.8611,35.9475,671.00,50.00,42.80,76.18,360.00,12.00,0.00,29.83,M,10.00,M,OVC,M,M,M,3900.00,M,M,M,M,M,M,M,M,M,M,50.00,KBVU 151835Z AUTO 36012KT 10SM OVC039 10/06 A2983 RMK AO2,M
CXP,2024-03-15 18:35,-119.7326,39.1923,1431.00,46.40,17.60,31.28,80.00,13.00,0.00,30.07,M,10.00,21.00,CLR,M,M,M,M,M,M,M,M,M,M,M,M,M,M,40.02,KCXP 151835Z AUTO 08013G21KT 10SM CLR 08/M08 A3007 RMK AO2,M
INS,2024-03-15 18:35,-115.6733,36.5872,955.00,44.60,35.60,70.48,40.00,8.00,0.00,29.87,1010.00,8.00,M,SCT,BKN,OVC,M,400.00,1400.00,2000.00,M,-RA,M,M,M,M,M,M,39.63,KINS 151835Z AUTO 04008KT 8SM -RA SCT004 BKN014 OVC020 07/02 A2987 RMK AO2 SLP100 $,M
RTS,2024-03-15 18:35,-119.8764,39.6682,1539.00,44.60,15.80,30.98,80.00,16.00,0.00,30.06,M,10.00,22.00,CLR,M,M,M,M,M,M,M,M,M,M,M,M,M,M,36.84,KRTS 151835Z AUTO 08016G22KT 10SM CLR 07/M09 A3006 RMK AO2,M
MEV,2024-03-15 18:35,-119.7500,38.9963,1441.42,42.80,17.60,35.87,160.00,6.00,0.00,30.05,M,10.00,M,OVC,M,M,M,5500.00,M,M,M,M,M,M,M,M,M,M,38.54,KMEV 151835Z AUTO 16006KT 10SM OVC055 06/M08 A3005 RMK AO2,M
HTH,2024-03-15 18:35,-118.6315,38.5448,1282.89,46.40,19.40,33.79,330.00,15.00,0.00,30.03,M,10.00,M,CLR,M,M,M,M,M,M,M,M,M,M,M,M,M,M,39.45,KHTH 151835Z AUTO 33015KT 10SM CLR 08/M07 A3003 RMK A01,M
10U,2024-03-15 18:35,-116.1876,41.9532,1637.00,42.80,24.80,48.67,10.00,14.00,0.00,30.13,M,10.00,20.00,CLR,M,M,M,M,M,M,M,M,M,M,M,M,M,M,35.08,K10U 151835Z AUTO 01014G20KT 10SM CLR 06/M04 A3013 RMK AO2,M
TMT,2024-03-15 18:35,-117.1971,39.4643,1749.34,43.70,22.30,42.34,70.00,13.00,0.00,30.01,M,10.00,16.00,CLR,M,M,M,M,M,M,M,M,M,M,M,M,M,M,36.56,KTMT 151835Z AUTO 07013G16KT 10SM CLR 07/M05 A3001 RMK AO2 T00651054,M
DRA,2024-03-15 18:44,-116.0278,36.6206,1009.00,43.00,38.00,82.37,80.00,12.00,0.01,29.86,M,6.00,20.00,BKN,OVC,M,M,2800.00,3800.00,M,M,-RA,M,M,M,29.00,30.00,2024-03-15 17:57,36.00,KDRA 151844Z AUTO 08012G20KT 6SM -RA BKN028 OVC038 06/03 A2986 RMK AO2 PK WND 03029/1757 RAB1757 P0001 T00610033,M
INS,2024-03-15 18:45,-115.6733,36.5872,955.00,44.60,37.40,75.68,30.00,12.00,0.00,29.87,1010.00,10.00,M,SCT,OVC,M,M,400.00,1800.00,M,M,-RA,M,M,M,M,M,M,38.04,KINS 151845Z AUTO 03012KT 10SM -RA SCT004 OVC018 07/03 A2987 RMK AO2 SLP100 $,M
LSV,2024-03-15 18:49,-115.0343,36.2362,570.00,53.60,35.60,50.36,10.00,15.00,0.00,29.83,1009.50,10.00,M,BKN,BKN,M,M,4500.00,20000.00,M,M,M,M,M,M,M,M,M,53.60,KLSV 151849Z AUTO 01015KT 10SM BKN045 BKN200 12/02 A2983 RMK AO2 RAE1759 SLP095 $,M
DRA,2024-03-15 18:53,-116.0278,36.6206,1009.00,42.00,38.00,85.60,60.00,16.00,0.02,29.86,1009.90,6.00,22.00,FEW,BKN,OVC,M,2100.00,2600.00,3800.00,M,RA BR,M,M,M,29.00,30.00,2024-03-15 17:57,33.45,KDRA 151853Z AUTO 06016G22KT 6SM RA BR FEW021 BKN026 OVC038 06/03 A2986 RMK AO2 PK WND 03029/1757 RAB1757 SLP099 P0002 T00560033,M
ELY,2024-03-15 18:53,-114.8453,39.2950,1909.00,42.00,23.00,46.55,10.00,24.00,0.00,29.96,1013.20,10.00,31.00,CLR,M,M,M,M,M,M,M,M,M,M,M,38.00,360.00,2024-03-15 18:29,31.55,KELY 151853Z AUTO 01024G31KT 10SM CLR 06/M05 A2996 RMK AO2 PK WND 36038/1829 SLP132 T00561050,M
VGT,2024-03-15 18:53,-115.1933,36.2111,667.00,49.00,42.00,76.67,330.00,8.00,0.03,29.86,1012.40,8.00,M,OVC,M,M,M,3500.00,M,M,M,-RA,M,M,M,M,M,M,45.05,KVGT 151853Z 33008KT 8SM -RA OVC035 09/06 A2986 RMK AO2 SLP124 P0003 T00940056,M
LOL,2024-03-15 18:53,-118.5701,40.0684,1192.43,52.00,19.00,26.95,30.00,7.00,0.00,30.03,1016.50,10.00,20.00,CLR,M,M,M,M,M,M,M,M,M,M,M,M,M,M,52.00,KLOL 151853Z AUTO 03007G20KT 010V080 10SM CLR 11/M07 A3003 RMK AO2 SLP165 T01111072,M
BVU,2024-03-15 18:55,-114.8611,35.9475,671.00,50.00,42.80,76.18,350.00,13.00,0.00,29.83,M,10.00,20.00,OVC,M,M,M,3800.00,M,M,M,M,M,M,M,M,M,M,50.00,KBVU 151855Z AUTO 35013G20KT 10SM OVC038 10/06 A2983 RMK AO2,M
CXP,2024-03-15 18:55,-119.7326,39.1923,1431.00,46.40,17.60,31.28,50.00,14.00,0.00,30.07,M,10.00,21.00,CLR,M,M,M,M,M,M,M,M,M,M,M,M,M,M,39.72,KCXP 151855Z AUTO 05014G21KT 10SM CLR 08/M08 A3007 RMK AO2,M
INS,2024-03-15 18:55,-115.6733,36.5872,955.00,44.60,37.20,75.08,30.00,6.00,0.06,29.87,1010.00,9.00,M,FEW,OVC,M,M,400.00,1800.00,M,M,-RA,M,M,M,M,M,M,40.71,KINS 151855Z AUTO 03006KT 9SM -RA FEW004 OVC018 07/03 A2987 RMK AO2 SLP100 P0006 T00700029 $,M
RNO,2024-03-15 18:55,-119.7711,39.4839,1341.00,50.00,19.00,29.02,100.00,7.00,0.00,30.05,1016.00,10.00,17.00,SCT,M,M,M,6000.00,M,M,M,M,M,M,M,M,M,M,50.00,KRNO 151855Z 10007G17KT 10SM SCT060 10/M07 A3005 RMK AO2 SLP160 SCSL ALQDS T01001072,M
LSV,2024-03-15 18:55,-115.0343,36.2362,570.00,53.40,36.30,52.16,10.00,13.00,T,29.83,1009.50,10.00,M,BKN,BKN,M,M,4500.00,20000.00,M,M,M,M,M,M,M,M,M,53.40,KLSV 151855Z AUTO 01013KT 10SM BKN045 BKN200 12/02 A2983 RMK AO2 RAE1759 SLP095 P0000 T01190024 $,M
RTS,2024-03-15 18:55,-119.8764,39.6682,1539.00,44.60,15.80,30.98,60.00,12.00,0.00,30.05,M,10.00,20.00,CLR,M,M,M,M,M,M,M,M,M,M,M,M,M,M,38.04,KRTS 151855Z AUTO 06012G20KT 10SM CLR 07/M09 A3005 RMK AO2,M
MEV,2024-03-15 18:55,-119.7500,38.9963,1441.42,44.60,19.40,36.18,M,6.00,0.00,30.04,M,10.00,11.00,SCT,OVC,M,M,5000.00,5500.00,M,M,M,M,M,M,M,M,M,40.71,KMEV 151855Z AUTO VRB06G11KT 10SM SCT050 OVC055 07/M07 A3004 RMK AO2,M
HTH,2024-03-15 18:55,-118.6315,38.5448,1282.89,46.40,19.40,33.79,330.00,16.00,0.00,30.02,M,10.00,M,CLR,M,M,M,M,M,M,M,M,M,M,M,M,M,M,39.19,KHTH 151855Z AUTO 33016KT 10SM CLR 08/M07 A3002 RMK A01,M
TMT,2024-03-15 18:55,-117.1971,39.4643,1749.34,44.60,23.00,42.14,70.00,15.00,0.00,30.00,M,10.00,21.00,CLR,M,M,M,M,M,M,M,M,M,M,M,M,M,M,37.11,KTMT 151855Z AUTO 07015G21KT 10SM CLR 07/M05 A3000 RMK AO2 T00701051,M
10U,2024-03-15 18:55,-116.1876,41.9532,1637.00,42.80,24.80,48.67,40.00,19.00,0.00,30.12,M,10.00,25.00,CLR,M,M,M,M,M,M,M,M,M,M,M,M,M,M,33.72,K10U 151855Z AUTO 04019G25KT 10SM CLR 06/M04 A3012 RMK AO2,M
EKO,2024-03-15 18:56,-115.7860,40.8242,1367.00,47.00,24.00,40.12,60.00,20.00,0.00,30.03,1016.40,10.00,32.00,CLR,M,M,M,M,M,M,M,M,M,M,M,32.00,50.00,2024-03-15 18:56,39.06,KEKO 151856Z AUTO 06020G32KT 10SM CLR 08/M04 A3003 RMK AO2 PK WND 05032/1856 SLP164 T00831044,M
WMC,2024-03-15 18:56,-117.8072,40.9019,1315.00,50.00,21.00,31.60,30.00,19.00,0.00,30.05,1017.00,10.00,30.00,CLR,M,M,M,M,M,M,M,M,M,M,M,30.00,20.00,2024-03-15 18:50,50.00,KWMC 151856Z AUTO 03019G30KT 10SM CLR 10/M06 A3005 RMK AO2 PK WND 02030/1850 SLP170 T01001061,M
HND,2024-03-15 18:56,-115.1344,35.9729,742.79,45.00,40.00,82.51,20.00,8.00,0.01,29.87,1013.30,10.00,M,OVC,M,M,M,2300.00,M,M,M,-RA,M,M,M,M,M,M,40.13,KHND 151856Z 02008KT 10SM -RA OVC023 07/04 A2987 RMK AO2 SLP133 P0001 T00720044,M
TPH,2024-03-15 18:56,-117.0904,38.0505,1654.00,42.00,21.00,42.78,360.00,19.00,0.00,29.94,1013.10,10.00,23.00,BKN,BKN,OVC,M,6000.00,7500.00,9000.00,M,M,M,M,M,28.00,10.00,2024-03-15 18:28,32.66,KTPH 151856Z AUTO 36019G23KT 10SM BKN060 BKN075 OVC090 06/M06 A2994 RMK AO2 PK WND 01028/1828 SLP131 T00561061,M
LAS,2024-03-15 18:56,-115.1634,36.0719,663.00,46.00,41.00,82.58,340.00,5.00,0.03,29.86,1010.90,10.00,M,BKN,BKN,M,M,3200.00,5500.00,M,M,M,M,M,M,M,M,M,43.02,KLAS 151856Z 34005KT 10SM BKN032 BKN055 08/05 A2986 RMK AO2 RAE46 SLP109 P0003 T00780050,M
NFL,2024-03-15 18:56,-118.7010,39.4166,1199.00,50.00,21.00,31.60,360.00,9.00,0.00,30.02,1013.70,10.00,24.00,FEW,FEW,M,M,10000.00,22000.00,M,M,M,M,M,M,M,M,M,50.00,KNFL 151856Z 36009G24KT 10SM FEW100 FEW220 10/M06 A3002 RMK SLP137 T01001061,M
LSV,2024-03-15 18:58,-115.0343,36.2362,570.00,53.60,35.60,50.36,330.00,13.00,0.00,29.83,1009.50,10.00,M,BKN,M,M,M,4500.00,M,M,M,M,M,M,M,M,M,M,53.60,KLSV 151858Z AUTO 33013KT 10SM BKN045 12/02 A2983 RMK AO2 WSHFT 52 SLP095 $,M
BVU,2024-03-15 19:15,-114.8611,35.9475,671.00,50.00,42.80,76.18,350.00,14.00,0.00,29.83,M,10.00,M,BKN,BKN,M,M,3800.00,7000.00,M,M,M,M,M,M,M,M,M,50.00,KBVU 151915Z AUTO 35014KT 10SM BKN038 BKN070 10/06 A2983 RMK AO2,M
CXP,2024-03-15 19:15,-119.7326,39.1923,1431.00,48.20,17.60,29.23,80.00,9.00,0.00,30.06,M,10.00,16.00,SCT,M,M,M,6000.00,M,M,M,M,M,M,M,M,M,M,43.66,KCXP 151915Z AUTO 08009G16KT 020V110 10SM SCT060 09/M08 A3006 RMK AO2,M
RTS,2024-03-15 19:15,-119.8764,39.6682,1539.00,44.60,15.80,30.98,70.00,11.00,0.00,30.05,M,10.00,18.00,CLR,M,M,M,M,M,M,M,M,M,M,M,M,M,M,38.39,KRTS 151915Z AUTO 07011G18KT 040V100 10SM CLR 07/M09 A3005 RMK AO2,M
MEV,2024-03-15 19:15,-119.7500,38.9963,1441.42,46.40,19.40,33.79,M,5.00,0.00,30.04,M,10.00,12.00,FEW,FEW,SCT,M,4400.00,5000.00,5500.00,M,M,M,M,M,M,M,M,43.50,KMEV 151915Z AUTO VRB05G12KT 10SM FEW044 FEW050 SCT055 08/M07 A3004 RMK AO2,M
HTH,2024-03-15 19:15,-118.6315,38.5448,1282.89,48.20,17.60,29.23,330.00,13.00,0.00,30.02,M,10.00,M,CLR,M,M,M,M,M,M,M,M,M,M,M,M,M,M,42.32,KHTH 151915Z AUTO 33013KT 10SM CLR 09/M08 A3002 RMK A01,M
10U,2024-03-15 19:15,-116.1876,41.9532,1637.00,42.80,24.80,48.67,40.00,21.00,0.00,30.11,M,10.00,29.00,CLR,M,M,M,M,M,M,M,M,M,M,M,M,M,M,33.26,K10U 151915Z AUTO 04021G29KT 10SM CLR 06/M04 A3011 RMK AO2,M
TMT,2024-03-15 19:15,-117.1971,39.4643,1749.34,46.00,23.40,40.63,80.00,14.00,0.00,29.99,M,10.00,20.00,CLR,M,M,M,M,M,M,M,M,M,M,M,M,M,M,39.21,KTMT 151915Z AUTO 08014G20KT 10SM CLR 08/M05 A2999 RMK AO2 T00781048,M
INS,2024-03-15 19:20,-115.6733,36.5872,955.00,44.60,37.40,75.68,40.00,5.00,0.00,29.87,1010.00,6.00,M,BKN,OVC,M,M,400.00,1900.00,M,M,-RA,M,M,M,M,M,M,41.36,KINS 151920Z AUTO 04005KT 6SM -RA BKN004 OVC019 07/03 A2987 RMK AO2 BKN V FEW SLP100 $,M
DRA,2024-03-15 19:32,-116.0278,36.6206,1009.00,43.00,38.00,82.37,90.00,11.00,0.04,29.86,M,10.00,19.00,FEW,SCT,OVC,M,2200.00,3000.00,3700.00,M,-RA,M,M,M,M,M,M,36.37,KDRA 151932Z AUTO 09011G19KT 10SM -RA FEW022 SCT030 OVC037 06/03 A2986 RMK AO2 P0004 T00610033,M
BVU,2024-03-15 19:35,-114.8611,35.9475,671.00,51.80,42.80,71.26,10.00,14.00,0.00,29.83,M,10.00,M,SCT,BKN,M,M,7500.00,11000.00,M,M,M,M,M,M,M,M,M,51.80,KBVU 151935Z AUTO 01014KT 10SM SCT075 BKN110 11/06 A2983 RMK AO2,M
CXP,2024-03-15 19:35,-119.7326,39.1923,1431.00,48.20,17.60,29.23,60.00,12.00,0.00,30.05,M,10.00,17.00,FEW,M,M,M,6000.00,M,M,M,M,M,M,M,M,M,M,42.62,KCXP 151935Z AUTO 06012G17KT 10SM FEW060 09/M08 A3005 RMK AO2,M
RTS,2024-03-15 19:35,-119.8764,39.6682,1539.00,44.60,15.80,30.98,M,6.00,0.00,30.06,M,10.00,15.00,FEW,M,M,M,6000.00,M,M,M,M,M,M,M,M,M,M,40.71,KRTS 151935Z AUTO VRB06G15KT 10SM FEW060 07/M09 A3006 RMK AO2,M
MEV,2024-03-15 19:35,-119.7500,38.9963,1441.42,46.40,17.60,31.28,10.00,7.00,0.00,30.03,M,10.00,13.00,SCT,SCT,M,M,6000.00,7000.00,M,M,M,M,M,M,M,M,M,42.33,KMEV 151935Z AUTO 01007G13KT 330V050 10SM SCT060 SCT070 08/M08 A3003 RMK AO2,M
HTH,2024-03-15 19:35,-118.6315,38.5448,1282.89,48.20,19.40,31.57,320.00,13.00,0.00,30.02,M,10.00,M,CLR,M,M,M,M,M,M,M,M,M,M,M,M,M,M,42.32,KHTH 151935Z AUTO 32013KT 10SM CLR 09/M07 A3002 RMK A01,M
10U,2024-03-15 19:35,-116.1876,41.9532,1637.00,44.60,26.60,48.96,40.00,13.00,0.00,30.11,M,10.00,20.00,CLR,M,M,M,M,M,M,M,M,M,M,M,M,M,M,37.71,K10U 151935Z AUTO 04013G20KT 10SM CLR 07/M03 A3011 RMK AO2,M
TMT,2024-03-15 19:35,-117.1971,39.4643,1749.34,46.60,23.50,39.89,50.00,17.00,0.00,29.98,M,10.00,22.00,CLR,M,M,M,M,M,M,M,M,M,M,M,M,M,M,39.20,KTMT 151935Z AUTO 05017G22KT 10SM CLR 08/M05 A2998 RMK AO2 T00811047,M
LSV,2024-03-15 19:47,-115.0343,36.2362,570.00,53.60,37.40,54.07,350.00,12.00,0.00,29.82,1009.10,10.00,M,BKN,M,M,M,3700.00,M,M,M,M,M,M,M,M,M,M,53.60,KLSV 151947Z AUTO 35012KT 10SM BKN037 12/03 A2982 RMK AO2 WSHFT 37 SLP091 $,M
DRA,2024-03-15 19:48,-116.0278,36.6206,1009.00,43.00,40.00,89.06,110.00,11.00,0.04,29.86,M,10.00,M,BKN,OVC,M,M,2200.00,3500.00,M,M,-RA,M,M,M,M,M,M,36.37,KDRA 151948Z AUTO 11011KT 10SM -RA BKN022 OVC035 06/04 A2986 RMK AO2 P0004 T00610044,M
DRA,2024-03-15 19:53,-116.0278,36.6206,1009.00,44.00,40.00,85.71,100.00,10.00,0.04,29.86,1009.60,10.00,M,BKN,BKN,OVC,M,2200.00,3000.00,3500.00,M,-RA,M,M,M,M,M,M,38.02,KDRA 151953Z AUTO 10010KT 10SM -RA BKN022 BKN030 OVC035 07/04 A2986 RMK AO2 SLP096 P0004 T00670044,M
ELY,2024-03-15 19:53,-114.8453,39.2950,1909.00,43.00,23.00,44.80,10.00,18.00,0.00,29.96,1012.70,10.00,25.00,CLR,M,M,M,M,M,M,M,M,M,M,M,34.00,20.00,2024-03-15 19:00,34.23,KELY 151953Z AUTO 01018G25KT 10SM CLR 06/M05 A2996 RMK AO2 PK WND 02034/1900 SLP127 T00611050,M
VGT,2024-03-15 19:53,-115.1933,36.2111,667.00,50.00,42.00,73.87,330.00,10.00,0.01,29.85,1012.10,10.00,M,OVC,M,M,M,3700.00,M,M,M,M,M,M,M,M,M,M,50.00,KVGT 151953Z 33010KT 10SM OVC037 10/06 A2985 RMK AO2 RAE06 SLP121 P0001 T01000056,M
LOL,2024-03-15 19:53,-118.5701,40.0684,1192.43,54.00,20.00,26.13,M,5.00,0.00,30.01,1015.70,10.00,19.00,CLR,M,M,M,M,M,M,M,M,M,M,M,M,M,M,54.00,KLOL 151953Z AUTO VRB05G19KT 10SM CLR 12/M07 A3001 RMK AO2 SLP157 T01221067,M
BVU,2024-03-15 19:55,-114.8611,35.9475,671.00,53.60,42.80,66.70,360.00,10.00,0.00,29.83,M,10.00,15.00,SCT,SCT,BKN,M,3800.00,4700.00,11000.00,M,M,M,M,M,M,M,M,53.60,KBVU 151955Z AUTO 36010G15KT 10SM SCT038 SCT047 BKN110 12/06 A2983 RMK AO2,M
CXP,2024-03-15 19:55,-119.7326,39.1923,1431.00,48.20,17.60,29.23,20.00,11.00,0.00,30.04,M,10.00,17.00,CLR,M,M,M,M,M,M,M,M,M,M,M,M,M,M,42.94,KCXP 151955Z AUTO 02011G17KT 350V070 10SM CLR 09/M08 A3004 RMK AO2,M
INS,2024-03-15 19:55,-115.6733,36.5872,955.00,44.40,37.60,76.86,190.00,5.00,0.05,29.87,1010.00,8.00,M,BKN,BKN,OVC,M,400.00,900.00,1700.00,M,-RA,M,M,M,M,M,M,41.12,KINS 151955Z AUTO 19005KT 8SM -RA BKN004 BKN009 OVC017 07/03 A2987 RMK AO2 BKN004 V OVC SLP100 P0005 T00690031 $,M
RNO,2024-03-15 19:55,-119.7711,39.4839,1341.00,52.00,19.00,26.95,M,4.00,0.00,30.03,1015.50,10.00,M,FEW,M,M,M,6500.00,M,M,M,M,M,M,M,M,M,M,52.00,KRNO 151955Z VRB04KT 10SM FEW065 11/M07 A3003 RMK AO2 SLP155 T01111072,M
RTS,2024-03-15 19:55,-119.8764,39.6682,1539.00,46.40,17.60,31.28,70.00,10.00,0.00,30.05,M,10.00,M,BKN,SCT,M,M,6000.00,7000.00,M,M,M,M,M,M,M,M,M,41.03,KRTS 151955Z AUTO 07010KT 10SM BKN060 SCT070 08/M08 A3005 RMK AO2,M
MEV,2024-03-15 19:55,-119.7500,38.9963,1441.42,46.40,17.60,31.28,340.00,7.00,0.00,30.01,M,10.00,M,OVC,M,M,M,6000.00,M,M,M,M,M,M,M,M,M,M,42.33,KMEV 151955Z AUTO 34007KT 300V010 10SM OVC060 08/M08 A3001 RMK AO2,M
HTH,2024-03-15 19:55,-118.6315,38.5448,1282.89,50.00,19.40,29.52,310.00,16.00,0.00,30.00,M,10.00,21.00,CLR,M,M,M,M,M,M,M,M,M,M,M,M,M,M,50.00,KHTH 151955Z AUTO 31016G21KT 10SM CLR 10/M07 A3000 RMK A01,M
10U,2024-03-15 19:55,-116.1876,41.9532,1637.00,44.60,26.60,48.96,40.00,16.00,0.00,30.11,M,10.00,21.00,CLR,M,M,M,M,M,M,M,M,M,M,M,M,M,M,36.84,K10U 151955Z AUTO 04016G21KT 10SM CLR 07/M03 A3011 RMK AO2,M
TMT,2024-03-15 19:55,-117.1971,39.4643,1749.34,47.30,23.40,38.69,60.00,17.00,0.00,29.97,M,10.00,24.00,CLR,M,M,M,M,M,M,M,M,M,M,M,M,M,M,40.12,KTMT 151955Z AUTO 06017G24KT 10SM CLR 09/M05 A2997 RMK AO2 T00851048,M
LSV,2024-03-15 19:55,-115.0343,36.2362,570.00,53.40,38.50,56.87,310.00,7.00,0.00,29.82,1009.10,10.00,M,OVC,M,M,M,3800.00,M,M,M,M,M,M,M,M,M,M,53.40,KLSV 151955Z AUTO 31007KT 10SM OVC038 12/04 A2982 RMK AO2 SLP091 T01190036 $,M
EKO,2024-03-15 19:56,-115.7860,40.8242,1367.00,50.00,24.00,35.86,40.00,21.00,0.00,30.01,1015.70,10.00,30.00,CLR,M,M,M,M,M,M,M,M,M,M,M,30.00,60.00,2024-03-15 19:12,50.00,KEKO 151956Z AUTO 04021G30KT 10SM CLR 10/M04 A3001 RMK AO2 PK WND 06030/1912 SLP157 T01001044,M
WMC,2024-03-15 19:56,-117.8072,40.9019,1315.00,53.00,23.00,30.78,60.00,15.00,0.00,30.04,1016.40,10.00,29.00,CLR,M,M,M,M,M,M,M,M,M,M,M,30.00,40.00,2024-03-15 19:04,53.00,KWMC 151956Z AUTO 06015G29KT 10SM CLR 12/M05 A3004 RMK AO2 PK WND 04030/1904 SLP164 T01171050,M
HND,2024-03-15 19:56,-115.1344,35.9729,742.79,47.00,42.00,82.65,330.00,7.00,T,29.87,1013.20,10.00,M,OVC,M,M,M,2500.00,M,M,M,-RA,M,M,M,M,M,M,43.06,KHND 151956Z 33007KT 10SM -RA OVC025 08/06 A2987 RMK AO2 SLP132 P0000 T00830056,M
TPH,2024-03-15 19:56,-117.0904,38.0505,1654.00,44.00,21.00,39.62,360.00,13.00,0.00,29.92,1012.20,10.00,M,OVC,M,M,M,5500.00,M,M,M,M,M,M,M,27.00,360.00,2024-03-15 18:59,36.94,KTPH 151956Z AUTO 36013KT 10SM OVC055 07/M06 A2992 RMK AO2 PK WND 36027/1859 SLP122 T00671061,M
LAS,2024-03-15 19:56,-115.1634,36.0719,663.00,48.00,41.00,76.58,330.00,6.00,0.00,29.86,1010.70,10.00,M,BKN,BKN,M,M,3200.00,5500.00,M,M,M,M,M,M,M,M,M,44.80,KLAS 151956Z 33006KT 10SM BKN032 BKN055 09/05 A2986 RMK AO2 SLP107 T00890050,M
NFL,2024-03-15 19:56,-118.7010,39.4166,1199.00,54.00,21.00,27.27,20.00,12.00,0.00,30.00,1012.90,10.00,20.00,FEW,SCT,SCT,M,6000.00,10000.00,20000.00,M,M,M,M,M,M,M,M,54.00,KNFL 151956Z 02012G20KT 10SM FEW060 SCT100 SCT200 12/M06 A3000 RMK SLP129 T01221061,M
INS,2024-03-15 19:58,-115.6733,36.5872,955.00,44.60,37.40,75.68,190.00,5.00,0.00,29.87,M,9.00,M,SCT,BKN,BKN,OVC,400.00,900.00,1800.00,2500.00,-RA,M,M,M,M,M,M,41.36,KINS 151958Z AUTO 19005KT 9SM -RA SCT004 BKN009 BKN018 OVC025 07/03 A2987 RMK AO2 SLPNO $,M
INS,2024-03-15 20:04,-115.6733,36.5872,955.00,44.60,37.40,75.68,180.00,5.00,0.00,29.87,M,10.00,M,SCT,SCT,BKN,OVC,400.00,800.00,2000.00,2500.00,-RA,M,M,M,M,M,M,41.36,KINS 152004Z AUTO 18005KT 10SM -RA SCT004 SCT008 BKN020 OVC025 07/03 A2987 RMK AO2 SLPNO $,M
DRA,2024-03-15 20:13,-116.0278,36.6206,1009.00,43.00,39.00,85.66,120.00,14.00,T,29.85,M,10.00,M,FEW,SCT,OVC,M,1700.00,2500.00,3800.00,M,-RA,M,M,M,M,M,M,35.34,KDRA 152013Z AUTO 12014KT 10SM -RA FEW017 SCT025 OVC038 06/04 A2985 RMK AO2 P0000 T00610039,M
INS,2024-03-15 20:14,-115.6733,36.5872,955.00,44.60,37.40,75.68,160.00,6.00,0.00,29.87,M,10.00,M,FEW,FEW,BKN,OVC,400.00,800.00,2400.00,2900.00,M,M,M,M,M,M,M,40.71,KINS 152014Z AUTO 16006KT 10SM FEW004 FEW008 BKN024 OVC029 07/03 A2987 RMK AO2 RAE12DZB12E13RAB13E14 SLPNO $,M
BVU,2024-03-15 20:15,-114.8611,35.9475,671.00,53.60,41.00,62.23,10.00,9.00,0.00,29.84,M,10.00,M,BKN,OVC,M,M,3500.00,4000.00,M,M,M,M,M,M,M,M,M,53.60,KBVU 152015Z AUTO 01009KT 10SM BKN035 OVC040 12/05 A2984 RMK AO2,M
CXP,2024-03-15 20:15,-119.7326,39.1923,1431.00,50.00,17.60,27.33,50.00,7.00,0.00,30.03,M,10.00,17.00,CLR,M,M,M,M,M,M,M,M,M,M,M,M,M,M,50.00,KCXP 152015Z AUTO 05007G17KT 020V090 10SM CLR 10/M08 A3003 RMK AO2,M
RTS,2024-03-15 20:15,-119.8764,39.6682,1539.00,48.20,17.60,29.23,60.00,15.00,0.00,30.02,M,10.00,M,FEW,M,M,M,6500.00,M,M,M,M,M,M,M,M,M,M,41.78,KRTS 152015Z AUTO 06015KT 10SM FEW065 09/M08 A3002 RMK AO2,M
MEV,2024-03-15 20:15,-119.7500,38.9963,1441.42,48.20,19.40,31.57,50.00,8.00,0.00,30.01,M,10.00,13.00,SCT,M,M,M,6000.00,M,M,M,M,M,M,M,M,M,M,44.07,KMEV 152015Z AUTO 05008G13KT 10SM SCT060 09/M07 A3001 RMK AO2,M
HTH,2024-03-15 20:15,-118.6315,38.5448,1282.89,50.00,17.60,27.33,340.00,16.00,0.00,30.00,M,10.00,M,CLR,M,M,M,M,M,M,M,M,M,M,M,M,M,M,50.00,KHTH 152015Z AUTO 34016KT 10SM CLR 10/M08 A3000 RMK A01,M
10U,2024-03-15 20:15,-116.1876,41.9532,1637.00,44.60,26.60,48.96,40.00,18.00,0.00,30.10,M,10.00,M,CLR,M,M,M,M,M,M,M,M,M,M,M,M,M,M,36.34,K10U 152015Z AUTO 04018KT 10SM CLR 07/M03 A3010 RMK AO2,M
TMT,2024-03-15 20:15,-117.1971,39.4643,1749.34,47.70,23.40,38.11,50.00,14.00,0.00,29.97,M,10.00,22.00,CLR,M,M,M,M,M,M,M,M,M,M,M,M,M,M,41.40,KTMT 152015Z AUTO 05014G22KT 10SM CLR 09/M05 A2997 RMK AO2 T00871048,M
BVU,2024-03-15 20:35,-114.8611,35.9475,671.00,51.80,42.80,71.26,10.00,6.00,0.00,29.84,M,6.00,M,SCT,BKN,OVC,M,3000.00,3600.00,5500.00,M,-RA,M,M,M,M,M,M,51.80,KBVU 152035Z AUTO 01006KT 6SM -RA SCT030 BKN036 OVC055 11/06 A2984 RMK AO2,M
CXP,2024-03-15 20:35,-119.7326,39.1923,1431.00,50.00,17.60,27.33,70.00,9.00,0.00,30.02,M,10.00,15.00,CLR,M,M,M,M,M,M,M,M,M,M,M,M,M,M,50.00,KCXP 152035Z AUTO 07009G15KT 030V090 10SM CLR 10/M08 A3002 RMK AO2,M
RTS,2024-03-15 20:35,-119.8764,39.6682,1539.00,48.20,17.60,29.23,50.00,14.00,0.00,30.02,M,10.00,M,CLR,M,M,M,M,M,M,M,M,M,M,M,M,M,M,42.04,KRTS 152035Z AUTO 05014KT 10SM CLR 09/M08 A3002 RMK AO2,M
MEV,2024-03-15 20:35,-119.7500,38.9963,1441.42,48.20,19.40,31.57,20.00,8.00,0.00,29.99,M,10.00,18.00,CLR,M,M,M,M,M,M,M,M,M,M,M,M,M,M,44.07,KMEV 152035Z AUTO 02008G18KT 330V030 10SM CLR 09/M07 A2999 RMK AO2,M
HTH,2024-03-15 20:35,-118.6315,38.5448,1282.89,50.00,17.60,27.33,320.00,16.00,0.00,29.99,M,10.00,M,CLR,M,M,M,M,M,M,M,M,M,M,M,M,M,M,50.00,KHTH 152035Z AUTO 32016KT 10SM CLR 10/M08 A2999 RMK A01,M
10U,2024-03-15 20:35,-116.1876,41.9532,1637.00,46.40,26.60,45.73,50.00,18.00,0.00,30.09,M,10.00,24.00,CLR,M,M,M,M,M,M,M,M,M,M,M,M,M,M,38.70,K10U 152035Z AUTO 05018G24KT 10SM CLR 08/M03 A3009 RMK AO2,M
TMT,2024-03-15 20:35,-117.1971,39.4643,1749.34,48.60,23.50,37.00,50.00,12.00,0.00,29.97,M,10.00,21.00,SCT,M,M,M,5500.00,M,M,M,M,M,M,M,M,M,M,43.13,KTMT 152035Z AUTO 05012G21KT 020V080 10SM SCT055 09/M05 A2997 RMK AO2 T00921047,M
INS,2024-03-15 20:49,-115.6733,36.5872,955.00,48.20,37.40,66.05,0.00,0.00,0.00,29.86,M,10.00,M,SCT,BKN,M,M,2800.00,3500.00,M,M,M,M,M,M,M,M,M,48.20,KINS 152049Z AUTO 00000KT 10SM SCT028 BKN035 09/03 A2986 RMK AO2 RAE12DZB12E13RAB13E14 SLPNO $,M
DRA,2024-03-15 20:53,-116.0278,36.6206,1009.00,47.00,41.00,79.52,110.00,14.00,T,29.84,1009.00,10.00,M,SCT,BKN,M,M,4000.00,6500.00,M,M,M,M,M,M,M,M,M,40.50,KDRA 152053Z AUTO 11014KT 10SM SCT040 BKN065 08/05 A2984 RMK AO2 RAE30 SLP090 P0000 60006 T00830050 50004,M
ELY,2024-03-15 20:53,-114.8453,39.2950,1909.00,45.00,25.00,45.12,10.00,17.00,0.00,29.94,1011.80,10.00,26.00,CLR,M,M,M,M,M,M,M,M,M,M,M,29.00,20.00,2024-03-15 20:07,37.11,KELY 152053Z AUTO 01017G26KT 10SM CLR 07/M04 A2994 RMK AO2 PK WND 02029/2007 SLP118 T00721039 56015,M
VGT,2024-03-15 20:53,-115.1933,36.2111,667.00,51.00,40.00,65.87,340.00,9.00,0.00,29.85,1012.00,10.00,M,FEW,OVC,M,M,4200.00,5000.00,M,M,M,M,M,M,M,M,M,51.00,KVGT 152053Z 34009KT 10SM FEW042 OVC050 11/04 A2985 RMK AO2 SLP120 60004 T01060044 50000,M
LOL,2024-03-15 20:53,-118.5701,40.0684,1192.43,56.00,20.00,24.30,40.00,15.00,0.00,29.97,1014.40,10.00,21.00,CLR,M,M,M,M,M,M,M,M,M,M,M,M,M,M,56.00,KLOL 152053Z AUTO 04015G21KT 10SM CLR 13/M07 A2997 RMK AO2 SLP144 T01331067 58024,M
BVU,2024-03-15 20:55,-114.8611,35.9475,671.00,51.80,42.80,71.26,280.00,4.00,0.00,29.84,M,5.00,M,SCT,BKN,OVC,M,2800.00,3300.00,5000.00,M,-RA,M,M,M,M,M,M,51.80,KBVU 152055Z AUTO 28004KT 5SM -RA SCT028 BKN033 OVC050 11/06 A2984 RMK AO2,M
CXP,2024-03-15 20:55,-119.7326,39.1923,1431.00,50.00,17.60,27.33,70.00,13.00,0.00,30.01,M,10.00,19.00,CLR,M,M,M,M,M,M,M,M,M,M,M,M,M,M,50.00,KCXP 152055Z AUTO 07013G19KT 10SM CLR 10/M08 A3001 RMK AO2,M
INS,2024-03-15 20:55,-115.6733,36.5872,955.00,47.50,37.80,68.88,270.00,3.00,0.01,29.86,M,10.00,M,SCT,SCT,BKN,M,2800.00,3500.00,7000.00,M,M,M,M,M,M,M,M,46.41,KINS 152055Z AUTO 27003KT 10SM SCT028 SCT035 BKN070 09/03 A2986 RMK AO2 RAE12DZB12E13RAB13E14 SLPNO P0001 60012 T00860032 50001 $,M
RNO,2024-03-15 20:55,-119.7711,39.4839,1341.00,53.00,19.00,25.98,130.00,8.00,0.00,29.99,1014.20,10.00,15.00,FEW,M,M,M,6500.00,M,M,M,M,M,M,M,M,M,M,53.00,KRNO 152055Z 13008G15KT 100V160 10SM FEW065 12/M07 A2999 RMK AO2 SLP142 T01171072 58020,M
LSV,2024-03-15 20:55,-115.0343,36.2362,570.00,53.60,38.70,56.90,290.00,10.00,0.00,29.82,M,10.00,M,BKN,OVC,M,M,4000.00,4900.00,M,M,M,M,M,M,M,M,M,53.60,KLSV 152055Z AUTO 29010KT 10SM BKN040 OVC049 12/04 A2982 RMK AO2 SLPNO 60000 T01200037 50000 $,M
RTS,2024-03-15 20:55,-119.8764,39.6682,1539.00,48.20,15.80,27.04,0.00,0.00,0.00,30.02,M,10.00,12.00,CLR,M,M,M,M,M,M,M,M,M,M,M,M,M,M,48.20,KRTS 152055Z AUTO 00000G12KT 10SM CLR 09/M09 A3002 RMK AO2,M
MEV,2024-03-15 20:55,-119.7500,38.9963,1441.42,50.00,19.40,29.52,360.00,11.00,0.00,29.98,M,10.00,M,CLR,M,M,M,M,M,M,M,M,M,M,M,M,M,M,50.00,KMEV 152055Z AUTO 36011KT 320V060 10SM CLR 10/M07 A2998 RMK AO2,M
HTH,2024-03-15 20:55,-118.6315,38.5448,1282.89,50.00,17.60,27.33,330.00,15.00,0.00,29.98,M,10.00,20.00,CLR,M,M,M,M,M,M,M,M,M,M,M,M,M,M,50.00,KHTH 152055Z AUTO 33015G20KT 10SM CLR 10/M08 A2998 RMK A01,M
TMT,2024-03-15 20:55,-117.1971,39.4643,1749.34,46.00,23.00,39.96,40.00,11.00,0.00,29.96,M,10.00,19.00,BKN,M,M,M,5500.00,M,M,M,M,M,M,M,M,M,M,40.16,KTMT 152055Z AUTO 04011G19KT 10SM BKN055 08/M05 A2996 RMK AO2 T00771050,M
10U,2024-03-15 20:55,-116.1876,41.9532,1637.00,46.40,26.60,45.73,50.00,16.00,0.00,30.08,M,10.00,25.00,CLR,M,M,M,M,M,M,M,M,M,M,M,M,M,M,39.19,K10U 152055Z AUTO 05016G25KT 10SM CLR 08/M03 A3008 RMK AO2,M
EKO,2024-03-15 20:56,-115.7860,40.8242,1367.00,51.00,24.00,34.55,50.00,20.00,0.00,29.99,1015.00,10.00,29.00,CLR,M,M,M,M,M,M,M,M,M,M,M,34.00,30.00,2024-03-15 20:22,51.00,KEKO 152056Z AUTO 05020G29KT 10SM CLR 11/M04 A2999 RMK AO2 PK WND 03034/2022 SLP150 T01061044 56019,M
WMC,2024-03-15 20:56,-117.8072,40.9019,1315.00,55.00,22.00,27.43,40.00,15.00,0.00,30.02,1015.70,10.00,23.00,CLR,M,M,M,M,M,M,M,M,M,M,M,M,M,M,55.00,KWMC 152056Z AUTO 04015G23KT 10SM CLR 13/M06 A3002 RMK AO2 SLP157 T01281056 56017,M
HND,2024-03-15 20:56,-115.1344,35.9729,742.79,49.00,40.00,70.96,20.00,5.00,T,29.87,1012.90,10.00,M,BKN,OVC,M,M,2900.00,3400.00,M,M,M,M,M,M,M,M,M,46.58,KHND 152056Z 02005KT 10SM BKN029 OVC034 09/04 A2987 RMK AO2 RAE24 SLP129 P0000 60001 T00940044 50003,M
TPH,2024-03-15 20:56,-117.0904,38.0505,1654.00,47.00,21.00,35.36,60.00,6.00,0.00,29.91,1011.50,10.00,M,OVC,M,M,M,6000.00,M,M,M,M,M,M,M,M,M,M,43.60,KTPH 152056Z AUTO 06006KT 10SM OVC060 08/M06 A2991 RMK AO2 SLP115 T00831061 58008,M
LAS,2024-03-15 20:56,-115.1634,36.0719,663.00,51.00,42.00,71.18,360.00,9.00,0.00,29.85,1010.30,10.00,M,SCT,BKN,OVC,M,3500.00,5000.00,7000.00,M,M,M,M,M,M,M,M,51.00,KLAS 152056Z 36009KT 10SM SCT035 BKN050 OVC070 11/06 A2985 RMK AO2 SLP103 60003 T01060056 50000,M
NFL,2024-03-15 20:56,-118.7010,39.4166,1199.00,55.00,21.00,26.29,40.00,14.00,0.00,29.97,1012.00,10.00,19.00,FEW,SCT,SCT,M,6000.00,10000.00,20000.00,M,M,M,M,M,M,M,M,55.00,KNFL 152056Z 04014G19KT 10SM FEW060 SCT100 SCT200 13/M06 A2997 RMK SLP120 T01281061 58022,M
LSV,2024-03-15 20:57,-115.0343,36.2362,570.00,53.60,39.20,58.02,300.00,9.00,0.00,29.82,M,10.00,M,BKN,OVC,M,M,4000.00,4900.00,M,M,-RA,M,M,M,M,M,M,53.60,KLSV 152057Z AUTO 30009KT 10SM -RA BKN040 OVC049 12/04 A2982 RMK AO2 RAB57 SLPNO $,M
HND,2024-03-15 21:05,-115.1344,35.9729,742.79,48.20,39.20,70.88,20.00,4.00,T,29.87,M,10.00,M,SCT,BKN,OVC,M,2900.00,3400.00,6000.00,M,-RA,M,M,M,M,M,M,46.34,KHND 152105Z 02004KT 10SM -RA SCT029 BKN034 OVC060 09/04 A2987 RMK AO2 RAB02 P0000,M
LSV,2024-03-15 21:07,-115.0343,36.2362,570.00,53.60,39.20,58.02,290.00,7.00,0.00,29.82,M,10.00,M,BKN,BKN,M,M,3800.00,4800.00,M,M,M,M,M,M,M,M,M,53.60,KLSV 152107Z AUTO 29007KT 10SM BKN038 BKN048 12/04 A2982 RMK AO2 RAB2057E07 SLPNO $,M
BVU,2024-03-15 21:15,-114.8611,35.9475,671.00,50.00,44.60,81.61,310.00,11.00,0.00,29.84,M,9.00,M,FEW,SCT,BKN,M,2700.00,3400.00,6500.00,M,-RA,M,M,M,M,M,M,50.00,KBVU 152115Z AUTO 31011KT 9SM -RA FEW027 SCT034 BKN065 10/07 A2984 RMK AO2 LTG DSNT SE,M
CXP,2024-03-15 21:15,-119.7326,39.1923,1431.00,51.80,17.60,25.56,80.00,12.00,0.00,30.00,M,10.00,21.00,CLR,M,M,M,M,M,M,M,M,M,M,M,M,M,M,51.80,KCXP 152115Z AUTO 08012G21KT 10SM CLR 11/M08 A3000 RMK AO2,M
RTS,2024-03-15 21:15,-119.8764,39.6682,1539.00,48.20,15.80,27.04,40.00,14.00,0.00,30.00,M,10.00,M,CLR,M,M,M,M,M,M,M,M,M,M,M,M,M,M,42.04,KRTS 152115Z AUTO 04014KT 10SM CLR 09/M09 A3000 RMK AO2,M
MEV,2024-03-15 21:15,-119.7500,38.9963,1441.42,50.00,17.60,27.33,40.00,9.00,0.00,29.98,M,10.00,M,CLR,M,M,M,M,M,M,M,M,M,M,M,M,M,M,50.00,KMEV 152115Z AUTO 04009KT 10SM CLR 10/M08 A2998 RMK AO2,M
HTH,2024-03-15 21:15,-118.6315,38.5448,1282.89,51.80,17.60,25.56,340.00,16.00,0.00,29.96,M,10.00,28.00,CLR,M,M,M,M,M,M,M,M,M,M,M,M,M,M,51.80,KHTH 152115Z AUTO 34016G28KT 10SM CLR 11/M08 A2996 RMK A01,M
10U,2024-03-15 21:15,-116.1876,41.9532,1637.00,46.40,26.60,45.73,40.00,17.00,0.00,30.07,M,10.00,24.00,CLR,M,M,M,M,M,M,M,M,M,M,M,M,M,M,38.94,K10U 152115Z AUTO 04017G24KT 020V090 10SM CLR 08/M03 A3007 RMK AO2,M
TMT,2024-03-15 21:15,-117.1971,39.4643,1749.34,49.60,24.00,36.40,50.00,11.00,0.00,29.95,M,10.00,22.00,BKN,M,M,M,6500.00,M,M,M,M,M,M,M,M,M,M,44.71,KTMT 152115Z AUTO 05011G22KT 030V110 10SM BKN065 10/M04 A2995 RMK AO2 T00981044,M
LSV,2024-03-15 21:28,-115.0343,36.2362,570.00,55.40,39.20,54.34,240.00,5.00,0.00,29.81,M,10.00,M,BKN,M,M,M,4000.00,M,M,M,-RA,M,M,M,M,M,M,55.40,KLSV 152128Z AUTO 24005KT 10SM -RA BKN040 13/04 A2981 RMK AO2 RAB2057E07RAB28 SLPNO $,M
BVU,2024-03-15 21:35,-114.8611,35.9475,671.00,50.00,44.60,81.61,300.00,11.00,0.00,29.84,M,10.00,M,SCT,BKN,BKN,M,3800.00,4400.00,6500.00,M,M,M,M,M,M,M,M,50.00,KBVU 152135Z AUTO 30011KT 10SM SCT038 BKN044 BKN065 10/07 A2984 RMK AO2,M
CXP,2024-03-15 21:35,-119.7326,39.1923,1431.00,51.80,17.60,25.56,70.00,13.00,0.00,29.98,M,10.00,M,CLR,M,M,M,M,M,M,M,M,M,M,M,M,M,M,51.80,KCXP 152135Z AUTO 07013KT 10SM CLR 11/M08 A2998 RMK AO2,M
RTS,2024-03-15 21:35,-119.8764,39.6682,1539.00,48.20,15.80,27.04,50.00,13.00,0.00,30.00,M,10.00,23.00,CLR,M,M,M,M,M,M,M,M,M,M,M,M,M,M,42.32,KRTS 152135Z AUTO 05013G23KT 10SM CLR 09/M09 A3000 RMK AO2,M
MEV,2024-03-15 21:35,-119.7500,38.9963,1441.42,51.80,17.60,25.56,50.00,8.00,0.00,29.97,M,10.00,M,FEW,M,M,M,7000.00,M,M,M,M,M,M,M,M,M,M,51.80,KMEV 152135Z AUTO 05008KT 030V100 10SM FEW070 11/M08 A2997 RMK AO2,M
HTH,2024-03-15 21:35,-118.6315,38.5448,1282.89,50.00,17.60,27.33,320.00,11.00,0.00,29.97,M,10.00,M,SCT,M,M,M,9000.00,M,M,M,M,M,M,M,M,M,M,50.00,KHTH 152135Z AUTO 32011KT 10SM SCT090 10/M08 A2997 RMK A01,M
10U,2024-03-15 21:35,-116.1876,41.9532,1637.00,48.20,24.80,39.66,60.00,12.00,0.00,30.06,M,10.00,18.00,CLR,M,M,M,M,M,M,M,M,M,M,M,M,M,M,42.62,K10U 152135Z AUTO 06012G18KT 10SM CLR 09/M04 A3006 RMK AO2,M
TMT,2024-03-15 21:35,-117.1971,39.4643,1749.34,50.00,24.60,36.77,80.00,15.00,0.00,29.95,M,10.00,22.00,SCT,M,M,M,6500.00,M,M,M,M,M,M,M,M,M,M,50.00,KTMT 152135Z AUTO 08015G22KT 10SM SCT065 10/M04 A2995 RMK AO2 T01011041,M
DRA,2024-03-15 21:53,-116.0278,36.6206,1009.00,48.00,39.00,70.85,120.00,12.00,0.00,29.84,1008.90,10.00,M,BKN,OVC,M,M,5000.00,7000.00,M,M,M,M,M,M,M,M,M,42.37,KDRA 152153Z AUTO 12012KT 10SM BKN050 OVC070 09/04 A2984 RMK AO2 SLP089 T00890039,M
ELY,2024-03-15 21:53,-114.8453,39.2950,1909.00,45.00,24.00,43.28,360.00,11.00,0.00,29.93,1011.60,10.00,18.00,SCT,BKN,M,M,6000.00,12000.00,M,M,M,M,M,M,M,M,M,38.89,KELY 152153Z AUTO 36011G18KT 10SM SCT060 BKN120 07/M04 A2993 RMK AO2 SLP116 T00721044,M
VGT,2024-03-15 21:53,-115.1933,36.2111,667.00,53.00,41.00,63.61,320.00,7.00,T,29.83,1011.50,10.00,M,FEW,BKN,OVC,M,4700.00,5500.00,7000.00,M,-RA,M,M,M,M,M,M,53.00,KVGT 152153Z 32007KT 10SM -RA FEW047 BKN055 OVC070 12/05 A2983 RMK AO2 RAB15 SLP115 P0000 T01170050,M
LOL,2024-03-15 21:53,-118.5701,40.0684,1192.43,57.00,21.00,24.45,10.00,15.00,0.00,29.96,1014.00,10.00,23.00,CLR,M,M,M,M,M,M,M,M,M,M,M,M,M,M,57.00,KLOL 152153Z AUTO 01015G23KT 10SM CLR 14/M06 A2996 RMK AO2 SLP140 T01391061,M
BVU,2024-03-15 21:55,-114.8611,35.9475,671.00,50.00,42.80,76.18,280.00,9.00,0.00,29.85,M,10.00,M,OVC,M,M,M,3700.00,M,M,M,M,M,M,M,M,M,M,50.00,KBVU 152155Z AUTO 28009KT 10SM OVC037 10/06 A2985 RMK AO2,M
CXP,2024-03-15 21:55,-119.7326,39.1923,1431.00,53.60,17.60,23.93,50.00,12.00,0.00,29.98,M,10.00,M,CLR,M,M,M,M,M,M,M,M,M,M,M,M,M,M,53.60,KCXP 152155Z AUTO 05012KT 030V090 10SM CLR 12/M08 A2998 RMK AO2,M
INS,2024-03-15 21:55,-115.6733,36.5872,955.00,48.40,37.20,65.04,0.00,0.00,0.00,29.85,M,10.00,M,OVC,M,M,M,3400.00,M,M,M,M,M,M,M,M,M,M,48.40,KINS 152155Z AUTO 00000KT 10SM OVC034 09/03 A2985 RMK AO2 SLPNO T00910029 $,M
RNO,2024-03-15 21:55,-119.7711,39.4839,1341.00,55.00,19.00,24.14,50.00,7.00,0.00,29.97,1013.20,10.00,18.00,FEW,M,M,M,6500.00,M,M,M,M,M,M,M,M,M,M,55.00,KRNO 152155Z 05007G18KT 290V130 10SM FEW065 13/M07 A2997 RMK AO2 SLP132 T01281072,M
RTS,2024-03-15 21:55,-119.8764,39.6682,1539.00,48.20,15.80,27.04,80.00,13.00,0.00,29.99,M,10.00,M,CLR,M,M,M,M,M,M,M,M,M,M,M,M,M,M,42.32,KRTS 152155Z AUTO 08013KT 10SM CLR 09/M09 A2999 RMK AO2,M
MEV,2024-03-15 21:55,-119.7500,38.9963,1441.42,51.80,17.60,25.56,30.00,11.00,0.00,29.96,M,10.00,16.00,FEW,M,M,M,7000.00,M,M,M,M,M,M,M,M,M,M,51.80,KMEV 152155Z AUTO 03011G16KT 10SM FEW070 11/M08 A2996 RMK AO2,M
HTH,2024-03-15 21:55,-118.6315,38.5448,1282.89,50.00,17.60,27.33,330.00,13.00,0.00,29.97,M,10.00,M,BKN,M,M,M,9500.00,M,M,M,M,M,M,M,M,M,M,50.00,KHTH 152155Z AUTO 33013KT 10SM BKN095 10/M08 A2997 RMK A01,M
TMT,2024-03-15 21:55,-117.1971,39.4643,1749.34,50.00,24.60,36.77,60.00,13.00,0.00,29.95,M,10.00,23.00,SCT,M,M,M,6000.00,M,M,M,M,M,M,M,M,M,M,50.00,KTMT 152155Z AUTO 06013G23KT 020V090 10SM SCT060 10/M04 A2995 RMK AO2 T01001041,M
10U,2024-03-15 21:55,-116.1876,41.9532,1637.00,46.40,26.60,45.73,50.00,20.00,0.00,30.05,M,10.00,27.00,CLR,M,M,M,M,M,M,M,M,M,M,M,M,M,M,38.26,K10U 152155Z AUTO 05020G27KT 10SM CLR 08/M03 A3005 RMK AO2,M
LSV,2024-03-15 21:55,-115.0343,36.2362,570.00,52.30,42.80,69.96,180.00,3.00,0.03,29.82,M,7.00,M,FEW,BKN,M,M,2400.00,3500.00,M,M,-RA,M,M,M,M,M,M,52.30,KLSV 152155Z AUTO 18003KT 7SM -RA FEW024 BKN035 11/06 A2982 RMK AO2 VIS 2 1/4 RWY03R RAB2057E07RAB28 SLPNO P0003 T01130060 $,M
EKO,2024-03-15 21:56,-115.7860,40.8242,1367.00,53.00,25.00,33.46,50.00,17.00,0.00,29.97,1014.10,10.00,24.00,CLR,M,M,M,M,M,M,M,M,M,M,M,29.00,70.00,2024-03-15 21:42,53.00,KEKO 152156Z AUTO 05017G24KT 10SM CLR 12/M04 A2997 RMK AO2 PK WND 07029/2142 SLP141 T01171039,M
WMC,2024-03-15 21:56,-117.8072,40.9019,1315.00,56.00,23.00,27.59,30.00,22.00,0.00,29.97,1013.90,10.00,30.00,CLR,M,M,M,M,M,M,M,M,M,M,M,30.00,30.00,2024-03-15 21:54,56.00,KWMC 152156Z AUTO 03022G30KT 10SM CLR 13/M05 A2997 RMK AO2 PK WND 03030/2154 SLP139 T01331050,M
HND,2024-03-15 21:56,-115.1344,35.9729,742.79,47.00,43.00,85.89,140.00,4.00,0.03,29.87,1013.20,10.00,M,BKN,OVC,M,M,3900.00,5000.00,M,M,-RA,M,M,M,M,M,M,44.94,KHND 152156Z 14004KT 10SM -RA BKN039 OVC050 08/06 A2987 RMK AO2 RAB02 SLP132 P0003 T00830061,M
TPH,2024-03-15 21:56,-117.0904,38.0505,1654.00,48.00,21.00,34.05,80.00,10.00,0.00,29.90,1011.30,10.00,M,OVC,M,M,M,6500.00,M,M,M,M,M,M,M,M,M,M,43.03,KTPH 152156Z AUTO 08010KT 10SM OVC065 09/M06 A2990 RMK AO2 SLP113 T00891061,M
LAS,2024-03-15 21:56,-115.1634,36.0719,663.00,50.00,40.00,68.37,60.00,3.00,T,29.86,1010.50,9.00,M,BKN,BKN,OVC,M,3800.00,5000.00,7000.00,M,-RA,M,M,M,M,M,M,50.00,KLAS 152156Z 06003KT 9SM -RA BKN038 BKN050 OVC070 10/04 A2986 RMK AO2 RAB41 SLP105 VIS LWR E-S-SW P0000 T01000044,M
NFL,2024-03-15 21:56,-118.7010,39.4166,1199.00,57.00,21.00,24.45,50.00,11.00,0.00,29.93,1010.90,10.00,M,SCT,SCT,M,M,6000.00,20000.00,M,M,M,M,M,M,M,M,M,57.00,KNFL 152156Z 05011KT 10SM SCT060 SCT200 14/M06 A2993 RMK SLP109 T01391061,M
LSV,2024-03-15 22:06,-115.0343,36.2362,570.00,51.80,44.60,76.34,230.00,4.00,0.00,29.82,M,5.00,M,SCT,BKN,M,M,2400.00,3500.00,M,M,HZ,M,M,M,M,M,M,51.80,KLSV 152206Z AUTO 23004KT 5SM HZ SCT024 BKN035 11/07 A2982 RMK AO2 RAE06 SLPNO $,M
INS,2024-03-15 22:12,-115.6733,36.5872,955.00,48.20,37.40,66.05,0.00,0.00,0.00,29.85,M,10.00,M,BKN,OVC,M,M,3200.00,6500.00,M,M,-RA,M,M,M,M,M,M,48.20,KINS 152212Z AUTO 00000KT 10SM -RA BKN032 OVC065 09/03 A2985 RMK AO2 RAB12 SLPNO $,M
LSV,2024-03-15 22:14,-115.0343,36.2362,570.00,51.80,44.60,76.34,240.00,4.00,0.00,29.82,M,7.00,M,SCT,BKN,M,M,2400.00,2900.00,M,M,-RA,M,M,M,M,M,M,51.80,KLSV 152214Z AUTO 24004KT 7SM -RA SCT024 BKN029 11/07 A2982 RMK AO2 VIS 2 1/2 RWY03R RAE06RAB14 CIG 029V035 CIG 018 RWY03R SLPNO $,M
BVU,2024-03-15 22:15,-114.8611,35.9475,671.00,50.00,41.00,71.07,300.00,7.00,0.00,29.85,M,5.00,13.00,FEW,BKN,OVC,M,2900.00,3600.00,4200.00,M,-RA,M,M,M,M,M,M,50.00,KBVU 152215Z AUTO 30007G13KT 5SM -RA FEW029 BKN036 OVC042 10/05 A2985 RMK AO2,M
CXP,2024-03-15 22:15,-119.7326,39.1923,1431.00,53.60,17.60,23.93,40.00,9.00,0.00,29.97,M,10.00,14.00,CLR,M,M,M,M,M,M,M,M,M,M,M,M,M,M,53.60,KCXP 152215Z AUTO 04009G14KT 10SM CLR 12/M08 A2997 RMK AO2,M
RTS,2024-03-15 22:15,-119.8764,39.6682,1539.00,50.00,15.80,25.28,70.00,10.00,0.00,29.99,M,10.00,20.00,CLR,M,M,M,M,M,M,M,M,M,M,M,M,M,M,50.00,KRTS 152215Z AUTO 07010G20KT 10SM CLR 10/M09 A2999 RMK AO2,M
MEV,2024-03-15 22:15,-119.7500,38.9963,1441.42,51.80,17.60,25.56,360.00,10.00,0.00,29.95,M,10.00,M,CLR,M,M,M,M,M,M,M,M,M,M,M,M,M,M,51.80,KMEV 152215Z AUTO 36010KT 10SM CLR 11/M08 A2995 RMK AO2,M
HTH,2024-03-15 22:15,-118.6315,38.5448,1282.89,50.00,17.60,27.33,330.00,13.00,0.00,29.96,M,10.00,M,OVC,M,M,M,9500.00,M,M,M,M,M,M,M,M,M,M,50.00,KHTH 152215Z AUTO 33013KT 10SM OVC095 10/M08 A2996 RMK A01,M
10U,2024-03-15 22:15,-116.1876,41.9532,1637.00,46.40,26.60,45.73,40.00,13.00,0.00,30.05,M,10.00,22.00,CLR,M,M,M,M,M,M,M,M,M,M,M,M,M,M,40.02,K10U 152215Z AUTO 04013G22KT 10SM CLR 08/M03 A3005 RMK AO2,M
TMT,2024-03-15 22:15,-117.1971,39.4643,1749.34,49.50,24.00,36.53,30.00,12.00,0.00,29.94,M,10.00,M,CLR,M,M,M,M,M,M,M,M,M,M,M,M,M,M,44.27,KTMT 152215Z AUTO 03012KT 10SM CLR 10/M04 A2994 RMK AO2 T00971044,M
LSV,2024-03-15 22:24,-115.0343,36.2362,570.00,51.80,44.60,76.34,240.00,5.00,0.00,29.82,M,10.00,M,FEW,SCT,M,M,2300.00,2900.00,M,M,-RA,M,M,M,M,M,M,51.80,KLSV 152224Z AUTO 24005KT 10SM -RA FEW023 SCT029 11/07 A2982 RMK AO2 RAE06RAB14 SLPNO $,M
LSV,2024-03-15 22:29,-115.0343,36.2362,570.00,51.80,46.40,81.74,260.00,6.00,0.00,29.82,M,10.00,M,FEW,M,M,M,2300.00,M,M,M,M,M,M,M,M,M,M,51.80,KLSV 152229Z AUTO 26006KT 10SM FEW023 11/08 A2982 RMK AO2 RAE06RAB14E29 SLPNO $,M
LSV,2024-03-15 22:34,-115.0343,36.2362,570.00,51.80,46.40,81.74,260.00,5.00,0.00,29.82,M,10.00,M,FEW,SCT,M,M,2200.00,2700.00,M,M,-RA,M,M,M,M,M,M,51.80,KLSV 152234Z AUTO 26005KT 10SM -RA FEW022 SCT027 11/08 A2982 RMK AO2 RAE06RAB14E29RAB34 SLPNO $,M
BVU,2024-03-15 22:35,-114.8611,35.9475,671.00,48.20,44.60,87.28,10.00,7.00,0.00,29.84,M,6.00,M,FEW,SCT,BKN,M,2500.00,3100.00,4000.00,M,-RA,M,M,M,M,M,M,44.53,KBVU 152235Z AUTO 01007KT 6SM -RA FEW025 SCT031 BKN040 09/07 A2984 RMK AO2,M
CXP,2024-03-15 22:35,-119.7326,39.1923,1431.00,53.60,17.60,23.93,50.00,9.00,0.00,29.96,M,10.00,17.00,CLR,M,M,M,M,M,M,M,M,M,M,M,M,M,M,53.60,KCXP 152235Z AUTO 05009G17KT 10SM CLR 12/M08 A2996 RMK AO2,M
RTS,2024-03-15 22:35,-119.8764,39.6682,1539.00,50.00,15.80,25.28,50.00,9.00,0.00,29.98,M,10.00,17.00,CLR,M,M,M,M,M,M,M,M,M,M,M,M,M,M,50.00,KRTS 152235Z AUTO 05009G17KT 10SM CLR 10/M09 A2998 RMK AO2,M
MEV,2024-03-15 22:35,-119.7500,38.9963,1441.42,51.80,17.60,25.56,M,5.00,0.00,29.94,M,10.00,M,CLR,M,M,M,M,M,M,M,M,M,M,M,M,M,M,51.80,KMEV 152235Z AUTO VRB05KT 10SM CLR 11/M08 A2994 RMK AO2,M
HTH,2024-03-15 22:35,-118.6315,38.5448,1282.89,51.80,17.60,25.56,330.00,11.00,0.00,29.96,M,10.00,17.00,FEW,BKN,M,M,7500.00,9500.00,M,M,M,M,M,M,M,M,M,51.80,KHTH 152235Z AUTO 33011G17KT 10SM FEW075 BKN095 11/M08 A2996 RMK A01,M
10U,2024-03-15 22:35,-116.1876,41.9532,1637.00,46.40,26.60,45.73,70.00,13.00,0.00,30.05,M,10.00,23.00,CLR,M,M,M,M,M,M,M,M,M,M,M,M,M,M,40.02,K10U 152235Z AUTO 07013G23KT 10SM CLR 08/M03 A3005 RMK AO2,M
TMT,2024-03-15 22:35,-117.1971,39.4643,1749.34,47.50,24.00,39.37,70.00,9.00,0.00,29.95,M,10.00,16.00,BKN,M,M,M,6000.00,M,M,M,M,M,M,M,M,M,M,42.79,KTMT 152235Z AUTO 07009G16KT 10SM BKN060 09/M04 A2995 RMK AO2 T00861045,M
INS,2024-03-15 22:42,-115.6733,36.5872,955.00,50.00,39.20,66.27,160.00,5.00,0.00,29.85,M,10.00,M,FEW,BKN,OVC,M,2600.00,3800.00,5500.00,M,M,M,M,M,M,M,M,50.00,KINS 152242Z AUTO 16005KT 10SM FEW026 BKN038 OVC055 10/04 A2985 RMK AO2 RAB12E42 SLPNO $,M
DRA,2024-03-15 22:53,-116.0278,36.6206,1009.00,49.00,39.00,68.25,130.00,9.00,0.00,29.84,1008.70,10.00,M,BKN,BKN,OVC,M,4400.00,5000.00,8000.00,M,M,M,M,M,M,M,M,44.65,KDRA 152253Z AUTO 13009KT 10SM BKN044 BKN050 OVC080 09/04 A2984 RMK AO2 SLP087 T00940039,M
ELY,2024-03-15 22:53,-114.8453,39.2950,1909.00,46.00,23.00,39.96,20.00,7.00,0.00,29.92,1011.10,10.00,M,FEW,M,M,M,6000.00,M,M,M,M,M,M,M,M,M,M,41.84,KELY 152253Z AUTO 02007KT 10SM FEW060 08/M05 A2992 RMK AO2 SLP111 T00781050,M
VGT,2024-03-15 22:53,-115.1933,36.2111,667.00,51.00,42.00,71.18,0.00,0.00,0.02,29.86,1012.60,10.00,M,BKN,OVC,M,M,4300.00,5500.00,M,M,-RA,M,M,M,M,M,M,51.00,KVGT 152253Z 00000KT 10SM -RA BKN043 OVC055 11/06 A2986 RMK AO2 LTG DSNT E SLP126 P0002 T01060056,M
LOL,2024-03-15 22:53,-118.5701,40.0684,1192.43,58.00,22.00,24.61,30.00,8.00,0.00,29.94,1013.60,10.00,21.00,CLR,M,M,M,M,M,M,M,M,M,M,M,M,M,M,58.00,KLOL 152253Z AUTO 03008G21KT 360V060 10SM CLR 14/M06 A2994 RMK AO2 SLP136 T01441056,M
BVU,2024-03-15 22:55,-114.8611,35.9475,671.00,50.00,41.00,71.07,30.00,6.00,0.00,29.85,M,10.00,M,FEW,SCT,BKN,M,4000.00,4600.00,5500.00,M,M,M,M,M,M,M,M,50.00,KBVU 152255Z AUTO 03006KT 10SM FEW040 SCT046 BKN055 10/05 A2985 RMK AO2,M
CXP,2024-03-15 22:55,-119.7326,39.1923,1431.00,53.60,17.60,23.93,70.00,15.00,0.00,29.96,M,10.00,M,CLR,M,M,M,M,M,M,M,M,M,M,M,M,M,M,53.60,KCXP 152255Z AUTO 07015KT 10SM CLR 12/M08 A2996 RMK AO2,M
INS,2024-03-15 22:55,-115.6733,36.5872,955.00,49.60,39.60,68.32,190.00,6.00,T,29.84,M,10.00,M,SCT,SCT,BKN,OVC,3800.00,4900.00,6500.00,8000.00,M,M,M,M,M,M,M,46.73,KINS 152255Z AUTO 19006KT 10SM SCT038 SCT049 BKN065 OVC080 10/04 A2984 RMK AO2 RAB12E42 SLPNO P0000 T00980042 $,M
RNO,2024-03-15 22:55,-119.7711,39.4839,1341.00,55.00,18.00,23.13,60.00,6.00,0.00,29.95,1012.70,10.00,22.00,FEW,M,M,M,7500.00,M,M,M,M,M,M,M,M,M,M,55.00,KRNO 152255Z 06006G22KT 10SM FEW075 13/M08 A2995 RMK AO2 SLP127 T01281078,M
RTS,2024-03-15 22:55,-119.8764,39.6682,1539.00,50.00,15.80,25.28,50.00,11.00,0.00,29.98,M,10.00,17.00,CLR,M,M,M,M,M,M,M,M,M,M,M,M,M,M,50.00,KRTS 152255Z AUTO 05011G17KT 10SM CLR 10/M09 A2998 RMK AO2,M
MEV,2024-03-15 22:55,-119.7500,38.9963,1441.42,51.80,17.60,25.56,M,5.00,0.00,29.95,M,10.00,17.00,CLR,M,M,M,M,M,M,M,M,M,M,M,M,M,M,51.80,KMEV 152255Z AUTO VRB05G17KT 10SM CLR 11/M08 A2995 RMK AO2,M
HTH,2024-03-15 22:55,-118.6315,38.5448,1282.89,51.80,17.60,25.56,320.00,12.00,0.00,29.96,M,10.00,M,FEW,FEW,M,M,7000.00,10000.00,M,M,M,M,M,M,M,M,M,51.80,KHTH 152255Z AUTO 32012KT 10SM FEW070 FEW100 11/M08 A2996 RMK A01,M
TMT,2024-03-15 22:55,-117.1971,39.4643,1749.34,49.00,23.70,36.76,60.00,9.00,0.00,29.95,M,10.00,M,OVC,M,M,M,6000.00,M,M,M,M,M,M,M,M,M,M,44.65,KTMT 152255Z AUTO 06009KT 10SM OVC060 10/M05 A2995 RMK AO2 T00951046,M
10U,2024-03-15 22:55,-116.1876,41.9532,1637.00,46.40,26.60,45.73,M,M,0.00,30.05,M,10.00,M,CLR,M,M,M,M,M,M,M,M,M,M,M,M,M,M,M,K10U 152255Z AUTO 10SM CLR 08/M03 A3005 RMK AO2,M
LSV,2024-03-15 22:55,-115.0343,36.2362,570.00,52.00,45.30,77.82,230.00,7.00,0.04,29.83,M,10.00,M,FEW,FEW,FEW,M,2100.00,2600.00,3500.00,M,-RA,M,M,M,M,M,M,52.00,KLSV 152255Z AUTO 23007KT 10SM -RA FEW021 FEW026 FEW035 11/07 A2983 RMK AO2 RAE06RAB14E29RAB34 SLPNO P0004 T01110074 $,M
EKO,2024-03-15 22:56,-115.7860,40.8242,1367.00,53.00,25.00,33.46,50.00,15.00,0.00,29.96,1013.80,10.00,27.00,CLR,M,M,M,M,M,M,M,M,M,M,M,27.00,60.00,2024-03-15 22:48,53.00,KEKO 152256Z AUTO 05015G27KT 10SM CLR 12/M04 A2996 RMK AO2 PK WND 06027/2248 SLP138 T01171039,M
WMC,2024-03-15 22:56,-117.8072,40.9019,1315.00,57.00,24.00,27.75,50.00,15.00,0.00,29.98,1014.30,10.00,24.00,CLR,M,M,M,M,M,M,M,M,M,M,M,32.00,10.00,2024-03-15 22:06,57.00,KWMC 152256Z AUTO 05015G24KT 10SM CLR 14/M04 A2998 RMK AO2 PK WND 01032/2206 SLP143 T01391044,M
HND,2024-03-15 22:56,-115.1344,35.9729,742.79,48.00,44.00,85.95,350.00,11.00,0.04,29.85,1012.70,10.00,M,SCT,OVC,M,M,4100.00,6000.00,M,M,-RA,M,M,M,M,M,M,42.69,KHND 152256Z 35011KT 10SM -RA SCT041 OVC060 09/07 A2985 RMK AO2 LTG DSNT NE PRESFR SLP127 P0004 T00890067,M
TPH,2024-03-15 22:56,-117.0904,38.0505,1654.00,48.00,24.00,38.64,40.00,7.00,0.00,29.90,1011.40,10.00,M,OVC,M,M,M,6000.00,M,M,M,M,M,M,M,M,M,M,44.28,KTPH 152256Z AUTO 04007KT 10SM OVC060 09/M04 A2990 RMK AO2 SLP114 T00891044,M
LAS,2024-03-15 22:56,-115.1634,36.0719,663.00,48.00,43.00,82.72,0.00,0.00,0.05,29.87,1011.30,9.00,M,BKN,BKN,OVC,M,3800.00,4500.00,5500.00,M,-RA,M,M,M,M,M,M,48.00,KLAS 152256Z 00000KT 9SM -RA BKN038 BKN045 OVC055 09/06 A2987 RMK AO2 LTG DSNT E SLP113 P0005 T00890061,M
NFL,2024-03-15 22:56,-118.7010,39.4166,1199.00,58.00,21.00,23.59,30.00,14.00,0.00,29.94,1011.00,10.00,23.00,SCT,SCT,M,M,6000.00,20000.00,M,M,M,M,M,M,M,M,M,58.00,KNFL 152256Z 03014G23KT 10SM SCT060 SCT200 14/M06 A2994 RMK SLP110 T01441061,M
LSV,2024-03-15 23:13,-115.0343,36.2362,570.00,51.80,44.60,76.34,220.00,7.00,0.00,29.84,M,9.00,M,SCT,M,M,M,2700.00,M,M,M,M,M,M,M,M,M,M,51.80,KLSV 152313Z AUTO 22007KT 9SM SCT027 11/07 A2984 RMK AO2 RAE13 SLPNO $,M
BVU,2024-03-15 23:15,-114.8611,35.9475,671.00,50.00,42.80,76.18,360.00,4.00,0.00,29.85,M,4.00,M,FEW,BKN,OVC,M,3000.00,4200.00,5500.00,M,-RA,M,M,M,M,M,M,50.00,KBVU 152315Z AUTO 36004KT 4SM -RA FEW030 BKN042 OVC055 10/06 A2985 RMK AO2,M
CXP,2024-03-15 23:15,-119.7326,39.1923,1431.00,55.40,17.60,22.41,70.00,16.00,0.00,29.96,M,10.00,M,CLR,M,M,M,M,M,M,M,M,M,M,M,M,M,M,55.40,KCXP 152315Z AUTO 07016KT 10SM CLR 13/M08 A2996 RMK AO2,M
RTS,2024-03-15 23:15,-119.8764,39.6682,1539.00,51.80,15.80,23.65,30.00,10.00,0.00,29.98,M,10.00,18.00,CLR,M,M,M,M,M,M,M,M,M,M,M,M,M,M,51.80,KRTS 152315Z AUTO 03010G18KT 10SM CLR 11/M09 A2998 RMK AO2,M
MEV,2024-03-15 23:15,-119.7500,38.9963,1441.42,53.60,17.60,23.93,70.00,16.00,0.00,29.95,M,10.00,M,CLR,M,M,M,M,M,M,M,M,M,M,M,M,M,M,53.60,KMEV 152315Z AUTO 07016KT 10SM CLR 12/M08 A2995 RMK AO2,M
HTH,2024-03-15 23:15,-118.6315,38.5448,1282.89,51.80,17.60,25.56,330.00,13.00,0.00,29.96,M,10.00,M,FEW,M,M,M,7500.00,M,M,M,M,M,M,M,M,M,M,51.80,KHTH 152315Z AUTO 33013KT 10SM FEW075 11/M08 A2996 RMK A01,M
10U,2024-03-15 23:15,-116.1876,41.9532,1637.00,46.40,26.60,45.73,M,M,0.00,30.05,M,10.00,M,CLR,M,M,M,M,M,M,M,M,M,M,M,M,M,M,M,K10U 152315Z AUTO 10SM CLR 08/M03 A3005 RMK AO2,M
TMT,2024-03-15 23:15,-117.1971,39.4643,1749.34,48.00,24.00,38.64,40.00,11.00,0.00,29.95,M,10.00,17.00,OVC,M,M,M,6000.00,M,M,M,M,M,M,M,M,M,M,42.69,KTMT 152315Z AUTO 04011G17KT 010V110 10SM OVC060 09/M04 A2995 RMK AO2 T00881045,M
LSV,2024-03-15 23:20,-115.0343,36.2362,570.00,51.80,44.60,76.34,230.00,8.00,0.00,29.84,M,7.00,M,SCT,M,M,M,2700.00,M,M,M,RA,M,M,M,M,M,M,51.80,KLSV 152320Z AUTO 23008KT 7SM RA SCT027 11/07 A2984 RMK AO2 RAE13RAB20 SLPNO $,M
BVU,2024-03-15 23:35,-114.8611,35.9475,671.00,51.80,41.00,66.48,M,4.00,0.00,29.85,M,10.00,M,FEW,FEW,BKN,M,3000.00,4200.00,5500.00,M,M,M,M,M,M,M,M,51.80,KBVU 152335Z AUTO VRB04KT 10SM FEW030 FEW042 BKN055 11/05 A2985 RMK AO2,M
CXP,2024-03-15 23:35,-119.7326,39.1923,1431.00,55.40,17.60,22.41,70.00,10.00,0.00,29.96,M,10.00,19.00,FEW,M,M,M,8000.00,M,M,M,M,M,M,M,M,M,M,55.40,KCXP 152335Z AUTO 07010G19KT 10SM FEW080 13/M08 A2996 RMK AO2,M
RTS,2024-03-15 23:35,-119.8764,39.6682,1539.00,51.80,15.80,23.65,80.00,10.00,0.00,29.98,M,10.00,M,CLR,M,M,M,M,M,M,M,M,M,M,M,M,M,M,51.80,KRTS 152335Z AUTO 08010KT 030V090 10SM CLR 11/M09 A2998 RMK AO2,M
MEV,2024-03-15 23:35,-119.7500,38.9963,1441.42,53.60,17.60,23.93,110.00,10.00,0.00,29.95,M,10.00,16.00,SCT,M,M,M,8000.00,M,M,M,M,M,M,M,M,M,M,53.60,KMEV 152335Z AUTO 11010G16KT 10SM SCT080 12/M08 A2995 RMK AO2,M
HTH,2024-03-15 23:35,-118.6315,38.5448,1282.89,51.80,17.60,25.56,320.00,12.00,0.00,29.95,M,10.00,M,FEW,M,M,M,10000.00,M,M,M,M,M,M,M,M,M,M,51.80,KHTH 152335Z AUTO 32012KT 10SM FEW100 11/M08 A2995 RMK A01,M
10U,2024-03-15 23:35,-116.1876,41.9532,1637.00,46.40,26.60,45.73,M,M,0.00,30.05,M,10.00,M,CLR,M,M,M,M,M,M,M,M,M,M,M,M,M,M,M,K10U 152335Z AUTO 10SM CLR 08/M03 A3005 RMK AO2,M
TMT,2024-03-15 23:35,-117.1971,39.4643,1749.34,49.50,24.40,37.15,60.00,11.00,0.00,29.95,M,10.00,17.00,BKN,OVC,M,M,6000.00,7500.00,M,M,M,M,M,M,M,M,M,44.58,KTMT 152335Z AUTO 06011G17KT 10SM BKN060 OVC075 10/M04 A2995 RMK AO2 T00971042,M
LSV,2024-03-15 23:37,-115.0343,36.2362,570.00,50.00,44.60,81.61,240.00,11.00,0.00,29.83,M,8.00,M,FEW,SCT,M,M,2500.00,3000.00,M,M,M,M,M,M,M,M,M,50.00,KLSV 152337Z AUTO 24011KT 8SM FEW025 SCT030 10/07 A2983 RMK AO2 RAE13RAB20E37 SLPNO $,M
LSV,2024-03-15 23:52,-115.0343,36.2362,570.00,50.00,44.60,81.61,220.00,7.00,0.00,29.84,M,10.00,M,CLR,M,M,M,M,M,M,M,-RA,M,M,M,M,M,M,50.00,KLSV 152352Z AUTO 22007KT 10SM -RA CLR 10/07 A2984 RMK AO2 RAE13RAB20E37RAB52 SLPNO $,M
DRA,2024-03-15 23:53,-116.0278,36.6206,1009.00,49.00,39.00,68.25,110.00,12.00,0.00,29.84,1008.80,10.00,M,BKN,OVC,M,M,6500.00,8500.00,M,M,M,M,M,M,M,M,M,43.64,KDRA 152353Z AUTO 11012KT 10SM BKN065 OVC085 09/04 A2984 RMK AO2 SLP088 60006 T00940039 10100 20056 53000,M
ELY,2024-03-15 23:53,-114.8453,39.2950,1909.00,44.00,24.00,44.96,50.00,14.00,0.00,29.92,1011.50,10.00,25.00,OVC,M,M,M,6000.00,M,M,M,M,M,M,M,M,M,M,36.63,KELY 152353Z AUTO 05014G25KT 10SM OVC060 07/M04 A2992 RMK AO2 SLP115 T00671044 10078 20028 55004,M
VGT,2024-03-15 23:53,-115.1933,36.2111,667.00,50.00,42.00,73.87,300.00,4.00,0.03,29.86,1012.90,10.00,M,BKN,BKN,OVC,M,3800.00,5500.00,7000.00,M,-RA,M,M,M,M,M,M,50.00,KVGT 152353Z 30004KT 10SM -RA BKN038 BKN055 OVC070 10/06 A2986 RMK AO2 SLP129 P0003 60009 T01000056 10117 20089 53004,M
LOL,2024-03-15 23:53,-118.5701,40.0684,1192.43,58.00,22.00,24.61,60.00,10.00,0.00,29.94,1013.30,10.00,M,CLR,M,M,M,M,M,M,M,M,M,M,M,M,M,M,58.00,KLOL 152353Z AUTO 06010KT 10SM CLR 14/M06 A2994 RMK AO2 SLP133 T01441056 10144 20094 56009,M
BVU,2024-03-15 23:55,-114.8611,35.9475,671.00,51.80,39.20,61.99,340.00,3.00,0.00,29.85,M,10.00,M,FEW,M,M,M,5500.00,M,M,M,M,M,M,M,M,M,M,51.80,KBVU 152355Z AUTO 34003KT 10SM FEW055 11/04 A2985 RMK AO2,M
CXP,2024-03-15 23:55,-119.7326,39.1923,1431.00,53.60,17.60,23.93,20.00,12.00,0.00,29.96,M,10.00,18.00,SCT,M,M,M,8000.00,M,M,M,M,M,M,M,M,M,M,53.60,KCXP 152355Z AUTO 02012G18KT 10SM SCT080 12/M08 A2996 RMK AO2,M
INS,2024-03-15 23:55,-115.6733,36.5872,955.00,51.00,38.00,60.92,0.00,0.00,0.00,29.85,M,10.00,M,BKN,M,M,M,7500.00,M,M,M,M,M,M,M,M,M,M,51.00,KINS 152355Z AUTO 00000KT 10SM BKN075 11/03 A2985 RMK AO2 SLPNO 60012 T01060034 10106 20065 55005 $,M
RNO,2024-03-15 23:55,-119.7711,39.4839,1341.00,55.00,18.00,23.13,20.00,5.00,0.00,29.96,1013.20,10.00,19.00,FEW,M,M,M,7500.00,M,M,M,M,M,M,M,M,M,M,55.00,KRNO 152355Z 02005G19KT 10SM FEW075 13/M08 A2996 RMK AO2 SLP132 T01281078 10139 20083 55012,M
LSV,2024-03-15 23:55,-115.0343,36.2362,570.00,51.00,44.60,78.63,210.00,8.00,0.09,29.84,M,10.00,M,CLR,M,M,M,M,M,M,M,-RA,M,M,M,M,M,M,51.00,KLSV 152355Z AUTO 21008KT 10SM -RA CLR 11/07 A2984 RMK AO2 RAE13RAB20E37RAB52 SLPNO P0009 60016 T01050070 10127 20102 52007 $,M
RTS,2024-03-15 23:55,-119.8764,39.6682,1539.00,51.80,15.80,23.65,100.00,13.00,0.00,29.98,M,10.00,M,CLR,M,M,M,M,M,M,M,M,M,M,M,M,M,M,51.80,KRTS 152355Z AUTO 10013KT 10SM CLR 11/M09 A2998 RMK AO2,M
MEV,2024-03-15 23:55,-119.7500,38.9963,1441.42,53.60,17.60,23.93,70.00,14.00,0.00,29.95,M,10.00,20.00,SCT,M,M,M,8000.00,M,M,M,M,M,M,M,M,M,M,53.60,KMEV 152355Z AUTO 07014G20KT 10SM SCT080 12/M08 A2995 RMK AO2,M
HTH,2024-03-15 23:55,-118.6315,38.5448,1282.89,53.60,17.60,23.93,310.00,10.00,0.00,29.94,M,10.00,M,SCT,SCT,M,M,6500.00,10000.00,M,M,M,M,M,M,M,M,M,53.60,KHTH 152355Z AUTO 31010KT 10SM SCT065 SCT100 12/M08 A2994 RMK A01,M
10U,2024-03-15 23:55,-116.1876,41.9532,1637.00,46.40,26.60,45.73,M,M,0.00,30.05,M,10.00,M,CLR,M,M,M,M,M,M,M,M,M,M,M,M,M,M,M,K10U 152355Z AUTO 10SM CLR 08/M03 A3005 RMK AO2,M
TMT,2024-03-15 23:55,-117.1971,39.4643,1749.34,48.70,24.00,37.64,50.00,11.00,0.00,29.95,M,10.00,17.00,BKN,OVC,M,M,6000.00,7500.00,M,M,M,M,M,M,M,M,M,43.57,KTMT 152355Z AUTO 05011G17KT 10SM BKN060 OVC075 09/M04 A2995 RMK AO2 T00931044 10108 20052,M
EKO,2024-03-15 23:56,-115.7860,40.8242,1367.00,52.00,25.00,34.72,40.00,17.00,0.00,29.96,1013.90,10.00,25.00,CLR,M,M,M,M,M,M,M,M,M,M,M,26.00,10.00,2024-03-15 22:59,52.00,KEKO 152356Z AUTO 04017G25KT 10SM CLR 11/M04 A2996 RMK AO2 PK WND 01026/2259 SLP139 T01111039 10117 20072 56009,M
WMC,2024-03-15 23:56,-117.8072,40.9019,1315.00,56.00,24.00,28.77,40.00,14.00,0.00,29.97,1014.00,10.00,20.00,CLR,M,M,M,M,M,M,M,M,M,M,M,28.00,40.00,2024-03-15 23:19,56.00,KWMC 152356Z AUTO 04014G20KT 10SM CLR 13/M04 A2997 RMK AO2 PK WND 04028/2319 SLP140 T01331044 10139 20078 56013,M
LSV,2024-03-15 23:56,-115.0343,36.2362,570.00,51.80,44.60,76.34,210.00,7.00,0.00,29.84,M,10.00,M,CLR,M,M,M,M,M,M,M,M,M,M,M,M,M,M,51.80,KLSV 152356Z AUTO 21007KT 10SM CLR 11/07 A2984 RMK AO2 RAE55 SLPNO $,M
HND,2024-03-15 23:56,-115.1344,35.9729,742.79,49.00,42.00,76.67,30.00,8.00,T,29.88,1013.50,10.00,M,FEW,BKN,OVC,M,4700.00,6000.00,8000.00,M,-RA,M,M,M,M,M,M,45.05,KHND 152356Z 03008KT 10SM -RA FEW047 BKN060 OVC080 09/06 A2988 RMK AO2 RAE07B54 SLP135 P0000 60008 T00940056 10094 20072 53002,M
TPH,2024-03-15 23:56,-117.0904,38.0505,1654.00,47.00,25.00,41.83,0.00,0.00,T,29.90,1011.70,10.00,M,OVC,M,M,M,6000.00,M,M,M,M,M,M,M,M,M,M,47.00,KTPH 152356Z AUTO 00000KT 10SM OVC060 08/M04 A2990 RMK AO2 RAB38E47 SLP117 P0000 60000 T00831039 10094 20050 55001,M
LAS,2024-03-15 23:56,-115.1634,36.0719,663.00,50.00,42.00,73.87,10.00,8.00,0.01,29.86,1011.00,10.00,M,SCT,BKN,BKN,BKN,3800.00,4500.00,5500.00,20000.00,M,M,M,M,M,M,M,50.00,KLAS 152356Z 01008KT 10SM SCT038 BKN045 BKN055 BKN200 10/06 A2986 RMK AO2 RAE13 SLP110 P0001 60009 T01000056 10106 20072 50004,M
NFL,2024-03-15 23:56,-118.7010,39.4166,1199.00,59.00,22.00,23.74,30.00,12.00,0.00,29.92,1010.60,10.00,M,SCT,SCT,M,M,6000.00,20000.00,M,M,M,M,M,M,M,M,M,59.00,KNFL 152356Z 03012KT 10SM SCT060 SCT200 15/M06 A2992 RMK SLP106 T01501056 10150 20094 56014,M
