station,valid,lon,lat,elevation,tmpf,dwpf,relh,drct,sknt,p01i,alti,mslp,vsby,gust,skyc1,skyc2,skyc3,skyc4,skyl1,skyl2,skyl3,skyl4,wxcodes,ice_accretion_1hr,ice_accretion_3hr,ice_accretion_6hr,peak_wind_gust,peak_wind_drct,peak_wind_time,feel,metar,snowdepth
EKO,2023-08-13 00:14,-115.7860,40.8242,1367.00,92.00,39.00,15.73,310.00,10.00,0.00,30.10,M,10.00,14.00,FEW,M,M,M,11000.00,M,M,M,VCTS,M,M,M,M,M,M,87.83,KEKO 130014Z AUTO 31010G14KT 10SM VCTS FEW110 33/04 A3010 RMK AO2 T03330039,M
BVU,2023-08-13 00:15,-114.8611,35.9475,671.00,100.40,42.80,14.08,140.00,13.00,0.00,29.87,M,10.00,19.00,CLR,M,M,M,M,M,M,M,M,M,M,M,M,M,M,96.04,KBVU 130015Z AUTO 14013G19KT 10SM CLR 38/06 A2987 RMK AO2,M
CXP,2023-08-13 00:15,-119.7326,39.1923,1431.00,89.60,35.60,14.83,70.00,6.00,0.00,30.11,M,10.00,14.00,CLR,M,M,M,M,M,M,M,M,M,M,M,M,M,M,85.62,KCXP 130015Z AUTO 07006G14KT 10SM CLR 32/02 A3011 RMK AO2,M
RTS,2023-08-13 00:15,-119.8764,39.6682,1539.00,89.60,35.60,14.83,130.00,10.00,0.00,30.14,M,10.00,M,CLR,M,M,M,M,M,M,M,M,M,M,M,M,M,M,85.62,KRTS 130015Z AUTO 13010KT 10SM CLR 32/02 A3014 RMK AO2,M
05U,2023-08-13 00:15,-116.0051,39.6042,1811.23,78.80,44.60,29.79,M,M,0.00,30.23,M,10.00,M,M,M,M,M,M,M,M,M,M,M,M,M,M,M,M,78.80,K05U 130015Z AUTO 10SM 26/07 A3023 RMK A01,M
MEV,2023-08-13 00:15,-119.7500,38.9963,1441.42,91.40,35.60,14.02,0.00,0.00,0.00,30.08,M,10.00,10.00,FEW,M,M,M,12000.00,M,M,M,M,M,M,M,M,M,M,87.17,KMEV 130015Z AUTO 00000G10KT 10SM FEW120 33/02 A3008 RMK AO2,M
HTH,2023-08-13 00:15,-118.6315,38.5448,1282.89,93.20,39.20,15.27,320.00,6.00,0.00,30.06,M,10.00,M,CLR,M,M,M,M,M,M,M,M,M,M,M,M,M,M,88.92,KHTH 130015Z AUTO 32006KT 10SM CLR 34/04 A3006 RMK A01,M
BAM,2023-08-13 00:15,-116.8743,40.5990,1382.36,95.00,33.80,11.67,330.00,5.00,0.00,30.08,M,10.00,14.00,CLR,M,M,M,M,M,M,M,M,M,M,M,M,M,M,89.97,KBAM 130015Z AUTO 33005G14KT 10SM CLR 35/01 A3008 RMK AO1,M
TMT,2023-08-13 00:15,-117.1971,39.4643,1749.34,78.30,41.50,26.89,30.00,4.00,0.00,30.22,M,M,M,SCT,OVC,M,M,10000.00,12000.00,M,M,M,M,M,M,M,M,M,78.30,KTMT 130015Z AUTO 03004KT SCT100 OVC120 26/05 A3022 RMK AO2 T02570053 PWINO,M
BVU,2023-08-13 00:35,-114.8611,35.9475,671.00,100.40,44.60,15.08,150.00,16.00,0.00,29.87,M,10.00,M,CLR,M,M,M,M,M,M,M,M,M,M,M,M,M,M,96.31,KBVU 130035Z AUTO 15016KT 10SM CLR 38/07 A2987 RMK AO2,M
CXP,2023-08-13 00:35,-119.7326,39.1923,1431.00,89.60,35.60,14.83,M,4.00,0.00,30.10,M,10.00,M,CLR,M,M,M,M,M,M,M,M,M,M,M,M,M,M,85.62,KCXP 130035Z AUTO VRB04KT 10SM CLR 32/02 A3010 RMK AO2,M
RTS,2023-08-13 00:35,-119.8764,39.6682,1539.00,87.80,35.60,15.70,160.00,8.00,0.00,30.14,M,10.00,M,CLR,M,M,M,M,M,M,M,M,M,M,M,M,M,M,84.12,KRTS 130035Z AUTO 16008KT 10SM CLR 31/02 A3014 RMK AO2,M
05U,2023-08-13 00:35,-116.0051,39.6042,1811.23,75.20,41.00,29.23,M,M,0.00,30.23,M,9.00,M,M,M,M,M,M,M,M,M,M,M,M,M,M,M,M,75.20,K05U 130035Z AUTO 9SM 24/05 A3023 RMK A01,M
MEV,2023-08-13 00:35,-119.7500,38.9963,1441.42,87.80,37.40,16.86,320.00,5.00,0.00,30.09,M,10.00,16.00,BKN,M,M,M,12000.00,M,M,M,M,M,M,M,M,M,M,84.16,KMEV 130035Z AUTO 32005G16KT 10SM BKN120 31/03 A3009 RMK AO2,M
BAM,2023-08-13 00:35,-116.8743,40.5990,1382.36,95.00,35.60,12.53,340.00,10.00,0.00,30.08,M,10.00,M,CLR,M,M,M,M,M,M,M,M,M,M,M,M,M,M,90.25,KBAM 130035Z AUTO 34010KT 10SM CLR 35/02 A3008 RMK AO1,M
HTH,2023-08-13 00:35,-118.6315,38.5448,1282.89,89.60,42.80,19.64,90.00,23.00,0.00,30.07,M,10.00,30.00,CLR,M,M,M,M,M,M,M,M,M,M,M,M,M,M,85.93,KHTH 130035Z AUTO 09023G30KT 10SM CLR 32/06 A3007 RMK A01,M
TMT,2023-08-13 00:35,-117.1971,39.4643,1749.34,77.40,43.00,29.35,280.00,4.00,0.00,30.22,M,M,9.00,OVC,M,M,M,11000.00,M,M,M,M,M,M,M,M,M,M,77.40,KTMT 130035Z AUTO 28004G09KT OVC110 25/06 A3022 RMK AO2 LTG DSNT E AND SW T02520061 PWINO,M
EKO,2023-08-13 00:38,-115.7860,40.8242,1367.00,91.00,43.00,18.94,250.00,10.00,0.00,30.10,M,10.00,M,BKN,M,M,M,11000.00,M,M,M,M,M,M,M,M,M,M,87.18,KEKO 130038Z AUTO 25010KT 10SM BKN110 33/06 A3010 RMK AO2 T03280061,M
CXP,2023-08-13 00:50,-119.7326,39.1923,1431.00,91.40,37.40,15.05,0.00,0.00,0.00,30.10,M,10.00,M,CLR,M,M,M,M,M,M,M,M,M,M,M,M,M,M,87.23,KCXP 130050Z AUTO 00000KT 10SM CLR 33/03 A3010 RMK AO2,M
P68,2023-08-13 00:53,-116.0056,39.6014,1993.00,78.00,38.00,23.70,200.00,5.00,0.00,30.20,1014.60,M,M,M,M,M,M,M,M,M,M,M,M,M,M,33.00,20.00,2023-08-13 00:20,78.00,KP68 130053Z AUTO 20005KT 26/03 A3020 RMK AO1 PK WND 02033/0020 SLP146 T02560033,M
DRA,2023-08-13 00:53,-116.0278,36.6206,1009.00,92.00,34.00,12.91,190.00,9.00,0.00,29.97,1009.80,10.00,16.00,CLR,M,M,M,M,M,M,M,M,M,M,M,M,M,M,87.64,KDRA 130053Z AUTO 19009G16KT 10SM CLR 33/01 A2997 RMK AO2 SLP098 T03330011,M
ELY,2023-08-13 00:53,-114.8453,39.2950,1909.00,78.00,42.00,27.69,50.00,12.00,0.00,30.23,1014.30,10.00,M,CLR,M,M,M,M,M,M,M,M,M,M,M,26.00,20.00,2023-08-12 23:54,78.00,KELY 130053Z AUTO 05012KT 10SM CLR 26/06 A3023 RMK AO2 PK WND 02026/2354 SLP143 T02560056,M
VGT,2023-08-13 00:53,-115.1933,36.2111,667.00,101.00,46.00,15.62,120.00,10.00,0.00,29.87,1010.00,10.00,16.00,CLR,M,M,M,M,M,M,M,M,M,M,M,M,M,M,97.16,KVGT 130053Z 12010G16KT 10SM CLR 38/08 A2987 RMK AO2 LTG DSNT W SLP100 T03830078,M
LOL,2023-08-13 00:53,-118.5701,40.0684,1192.43,94.00,41.00,15.97,90.00,5.00,0.00,30.01,1011.90,10.00,M,CLR,M,M,M,M,M,M,M,M,M,M,M,M,M,M,89.77,KLOL 130053Z AUTO 09005KT 10SM CLR 34/05 A3001 RMK AO2 LTG DSNT SE SLP119 T03440050,M
BVU,2023-08-13 00:55,-114.8611,35.9475,671.00,100.40,44.60,15.08,160.00,16.00,0.00,29.87,M,10.00,M,CLR,M,M,M,M,M,M,M,M,M,M,M,M,M,M,96.31,KBVU 130055Z AUTO 16016KT 10SM CLR 38/07 A2987 RMK AO2,M
INS,2023-08-13 00:55,-115.6733,36.5872,955.00,93.40,37.00,13.92,120.00,4.00,0.00,29.95,1009.40,10.00,M,CLR,M,M,M,M,M,M,M,M,M,M,M,M,M,M,88.99,KINS 130055Z AUTO 12004KT 10SM CLR 34/03 A2995 RMK AO2 SLP094 T03410028 $,M
RNO,2023-08-13 00:55,-119.7711,39.4839,1341.00,94.00,37.00,13.66,M,4.00,0.00,30.07,1011.80,10.00,M,SCT,BKN,BKN,M,10000.00,14000.00,20000.00,M,M,M,M,M,M,M,M,89.53,KRNO 130055Z VRB04KT 10SM SCT100CB BKN140 BKN200 34/03 A3007 RMK AO2 LTG DSNT SW SLP118 VIRGA CB NE MOV SW CB DSNT N AND SE AND S THRU SW TCU DSNT E AND S AND W T03440028,M
LSV,2023-08-13 00:55,-115.0343,36.2362,570.00,101.30,43.00,13.81,0.00,0.00,0.00,29.82,1007.10,10.00,M,CLR,M,M,M,M,M,M,M,M,M,M,M,M,M,M,96.93,KLSV 130055Z AUTO 00000KT 10SM CLR 39/06 A2982 RMK AO2 SLP071 T03850062 $,M
RTS,2023-08-13 00:55,-119.8764,39.6682,1539.00,89.60,30.20,11.94,40.00,9.00,0.00,30.14,M,10.00,M,CLR,M,M,M,M,M,M,M,M,M,M,M,M,M,M,85.34,KRTS 130055Z AUTO 04009KT 10SM CLR 32/M01 A3014 RMK AO2,M
05U,2023-08-13 00:55,-116.0051,39.6042,1811.23,77.00,37.40,23.93,M,M,0.00,30.22,M,10.00,M,M,M,M,M,M,M,M,M,M,M,M,M,M,M,M,77.00,K05U 130055Z AUTO 10SM 25/03 A3022 RMK A01,M
MEV,2023-08-13 00:55,-119.7500,38.9963,1441.42,87.80,41.00,19.40,330.00,5.00,0.00,30.09,M,10.00,M,SCT,M,M,M,12000.00,M,M,M,M,M,M,M,M,M,M,84.30,KMEV 130055Z AUTO 33005KT 10SM SCT120 31/05 A3009 RMK AO2,M
BAM,2023-08-13 00:55,-116.8743,40.5990,1382.36,95.00,37.40,13.46,340.00,11.00,0.00,30.08,M,10.00,M,CLR,M,M,M,M,M,M,M,M,M,M,M,M,M,M,90.46,KBAM 130055Z AUTO 34011KT 10SM CLR 35/03 A3008 RMK AO1,M
HTH,2023-08-13 00:55,-118.6315,38.5448,1282.89,86.00,41.00,20.54,90.00,21.00,0.00,30.09,M,10.00,27.00,CLR,M,M,M,M,M,M,M,M,M,M,M,M,M,M,82.86,KHTH 130055Z AUTO 09021G27KT 10SM CLR 30/05 A3009 RMK A01,M
TMT,2023-08-13 00:55,-117.1971,39.4643,1749.34,77.00,43.70,30.55,280.00,3.00,0.00,30.22,M,M,M,SCT,M,M,M,12000.00,M,M,M,M,M,M,M,M,M,M,77.00,KTMT 130055Z AUTO 28003KT SCT120 25/07 A3022 RMK AO2 T02500065 PWINO,M
EKO,2023-08-13 00:56,-115.7860,40.8242,1367.00,92.00,41.00,17.00,40.00,7.00,0.00,30.10,1012.90,10.00,M,BKN,M,M,M,11000.00,M,M,M,M,M,M,M,M,M,M,87.94,KEKO 130056Z AUTO 04007KT 10SM BKN110 33/05 A3010 RMK AO2 SLP129 T03330050,M
WMC,2023-08-13 00:56,-117.8072,40.9019,1315.00,96.00,32.00,10.53,310.00,13.00,0.00,30.06,1013.00,10.00,19.00,SCT,M,M,M,11000.00,M,M,M,M,M,M,M,M,M,M,90.53,KWMC 130056Z AUTO 31013G19KT 10SM SCT110 36/00 A3006 RMK AO2 SLP130 T03560000,M
NFL,2023-08-13 00:56,-118.7010,39.4166,1199.00,88.00,43.00,20.82,130.00,15.00,T,30.04,1014.10,10.00,22.00,CLR,M,M,M,M,M,M,M,-RA,M,M,M,35.00,130.00,2023-08-13 00:26,84.58,KNFL 130056Z AUTO 13015G22KT 10SM -RA CLR 31/06 A3004 RMK AO2 PK WND 13035/0026 RAB16 SLP141 P0000 T03110061,M
HND,2023-08-13 00:56,-115.1344,35.9729,742.79,100.00,37.00,11.37,40.00,5.00,0.00,29.91,1011.10,10.00,M,CLR,M,M,M,M,M,M,M,M,M,M,M,M,M,M,94.66,KHND 130056Z 04005KT 10SM CLR 38/03 A2991 RMK AO2 LTG DSNT NW SLP111 T03780028,M
TPH,2023-08-13 00:56,-117.0904,38.0505,1654.00,84.00,44.00,24.58,10.00,16.00,0.00,30.16,1013.40,10.00,23.00,CLR,M,M,M,M,M,M,M,M,M,M,M,35.00,30.00,2023-08-13 00:17,81.54,KTPH 130056Z AUTO 01016G23KT 10SM CLR 29/07 A3016 RMK AO2 PK WND 03035/0017 LTG DSNT SW AND W SLP134 T02890067 $,M
LAS,2023-08-13 00:56,-115.1634,36.0719,663.00,100.00,42.00,13.82,M,5.00,0.00,29.87,1008.40,10.00,M,FEW,M,M,M,10000.00,M,M,M,M,M,M,M,M,M,M,95.54,KLAS 130056Z VRB05KT 10SM FEW100 38/06 A2987 RMK AO2 LTG DSNT W AND NW SLP084 CB DSNT N TCU DSNT SE T03780056,M
BVU,2023-08-13 01:15,-114.8611,35.9475,671.00,98.60,44.60,15.93,140.00,18.00,0.00,29.88,M,10.00,M,CLR,M,M,M,M,M,M,M,M,M,M,M,M,M,M,94.55,KBVU 130115Z AUTO 14018KT 10SM CLR 37/07 A2988 RMK AO2,M
CXP,2023-08-13 01:15,-119.7326,39.1923,1431.00,89.60,37.40,15.92,360.00,5.00,0.00,30.10,M,10.00,14.00,CLR,M,M,M,M,M,M,M,M,M,M,M,M,M,M,85.67,KCXP 130115Z AUTO 36005G14KT 10SM CLR 32/03 A3010 RMK AO2,M
RTS,2023-08-13 01:15,-119.8764,39.6682,1539.00,87.80,28.40,11.74,360.00,4.00,0.00,30.14,M,10.00,M,CLR,M,M,M,M,M,M,M,M,M,M,M,M,M,M,83.84,KRTS 130115Z AUTO 36004KT 10SM CLR 31/M02 A3014 RMK AO2,M
05U,2023-08-13 01:15,-116.0051,39.6042,1811.23,75.20,42.80,31.34,M,M,0.00,30.22,M,10.00,M,M,M,M,M,M,M,M,M,M,M,M,M,M,M,M,75.20,K05U 130115Z AUTO 10SM 24/06 A3022 RMK A01,M
MEV,2023-08-13 01:15,-119.7500,38.9963,1441.42,86.00,44.60,23.59,M,5.00,0.00,30.09,M,10.00,M,OVC,M,M,M,12000.00,M,M,M,M,M,M,M,M,M,M,83.07,KMEV 130115Z AUTO VRB05KT 10SM OVC120 30/07 A3009 RMK AO2,M
HTH,2023-08-13 01:15,-118.6315,38.5448,1282.89,84.20,41.00,21.76,100.00,20.00,0.00,30.10,M,10.00,31.00,CLR,M,M,M,M,M,M,M,M,M,M,M,M,M,M,81.52,KHTH 130115Z AUTO 10020G31KT 10SM CLR 29/05 A3010 RMK A01,M
BAM,2023-08-13 01:15,-116.8743,40.5990,1382.36,93.20,37.40,14.23,320.00,11.00,0.00,30.07,M,10.00,15.00,CLR,M,M,M,M,M,M,M,M,M,M,M,M,M,M,88.83,KBAM 130115Z AUTO 32011G15KT 10SM CLR 34/03 A3007 RMK AO1,M
TMT,2023-08-13 01:15,-117.1971,39.4643,1749.34,77.00,44.00,30.90,300.00,5.00,0.00,30.22,M,M,M,CLR,M,M,M,M,M,M,M,M,M,M,M,M,M,M,77.00,KTMT 130115Z AUTO 30005KT CLR 25/07 A3022 RMK AO2 T02510066 PWINO,M
RNO,2023-08-13 01:29,-119.7711,39.4839,1341.00,92.00,36.00,13.98,130.00,8.00,0.00,30.06,M,10.00,28.00,SCT,BKN,BKN,M,10000.00,14000.00,20000.00,M,M,M,M,M,28.00,120.00,2023-08-13 01:26,87.71,KRNO 130129Z 13008G28KT 100V170 10SM SCT100CB BKN140 BKN200 33/02 A3006 RMK AO2 PK WND 12028/0126 WSHFT 0114 VIRGA CB NE THRU OHD MOV SW CB DSNT N AND E AND S TCU DSNT SW T03330022,M
BVU,2023-08-13 01:35,-114.8611,35.9475,671.00,98.60,42.80,14.87,140.00,14.00,0.00,29.88,M,10.00,19.00,CLR,M,M,M,M,M,M,M,M,M,M,M,M,M,M,94.30,KBVU 130135Z AUTO 14014G19KT 10SM CLR 37/06 A2988 RMK AO2,M
CXP,2023-08-13 01:35,-119.7326,39.1923,1431.00,89.60,39.20,17.09,330.00,6.00,0.00,30.10,M,10.00,M,CLR,M,M,M,M,M,M,M,M,M,M,M,M,M,M,85.73,KCXP 130135Z AUTO 33006KT 10SM CLR 32/04 A3010 RMK AO2,M
RTS,2023-08-13 01:35,-119.8764,39.6682,1539.00,89.60,30.20,11.94,40.00,8.00,0.00,30.13,M,10.00,13.00,CLR,M,M,M,M,M,M,M,M,M,M,M,M,M,M,85.34,KRTS 130135Z AUTO 04008G13KT 10SM CLR 32/M01 A3013 RMK AO2,M
05U,2023-08-13 01:35,-116.0051,39.6042,1811.23,73.40,46.40,38.18,M,M,0.00,30.22,M,10.00,M,M,M,M,M,M,M,M,M,M,M,M,M,M,M,M,73.40,K05U 130135Z AUTO 10SM 23/08 A3022 RMK A01,M
MEV,2023-08-13 01:35,-119.7500,38.9963,1441.42,84.20,51.80,32.73,260.00,12.00,0.00,30.09,M,10.00,19.00,OVC,M,M,M,12000.00,M,M,M,M,M,M,M,M,M,M,82.48,KMEV 130135Z AUTO 26012G19KT 10SM OVC120 29/11 A3009 RMK AO2,M
BAM,2023-08-13 01:35,-116.8743,40.5990,1382.36,91.40,37.40,15.05,310.00,10.00,0.00,30.07,M,10.00,M,CLR,M,M,M,M,M,M,M,M,M,M,M,M,M,M,87.23,KBAM 130135Z AUTO 31010KT 10SM CLR 33/03 A3007 RMK AO1,M
HTH,2023-08-13 01:35,-118.6315,38.5448,1282.89,77.00,51.80,41.42,90.00,17.00,0.00,30.11,M,9.00,24.00,FEW,FEW,M,M,6500.00,12000.00,M,M,M,M,M,M,M,M,M,77.00,KHTH 130135Z AUTO 09017G24KT 9SM FEW065 FEW120 25/11 A3011 RMK A01,M
TMT,2023-08-13 01:35,-117.1971,39.4643,1749.34,76.60,45.30,32.90,260.00,4.00,0.00,30.22,M,M,M,CLR,M,M,M,M,M,M,M,M,M,M,M,M,M,M,76.60,KTMT 130135Z AUTO 26004KT CLR 25/07 A3022 RMK AO2 T02480074 PWINO,M
P68,2023-08-13 01:53,-116.0056,39.6014,1993.00,71.00,48.00,43.98,140.00,3.00,0.00,30.20,1015.20,M,M,M,M,M,M,M,M,M,M,M,M,M,M,M,M,M,71.00,KP68 130153Z AUTO 14003KT 22/09 A3020 RMK AO1 SLP152 T02170089,M
DRA,2023-08-13 01:53,-116.0278,36.6206,1009.00,89.00,37.00,15.97,210.00,8.00,0.00,29.98,1010.10,10.00,M,CLR,M,M,M,M,M,M,M,M,M,M,M,28.00,220.00,2023-08-13 01:10,85.15,KDRA 130153Z AUTO 21008KT 10SM CLR 32/03 A2998 RMK AO2 PK WND 22028/0110 SLP101 T03170028,M
ELY,2023-08-13 01:53,-114.8453,39.2950,1909.00,73.00,44.00,35.32,340.00,5.00,0.00,30.23,1014.80,10.00,M,CLR,M,M,M,M,M,M,M,M,M,M,M,M,M,M,73.00,KELY 130153Z AUTO 34005KT 10SM CLR 23/07 A3023 RMK AO2 SLP148 T02280067,M
VGT,2023-08-13 01:53,-115.1933,36.2111,667.00,100.00,44.00,14.92,90.00,10.00,0.00,29.87,1010.20,10.00,M,CLR,M,M,M,M,M,M,M,M,M,M,M,M,M,M,95.83,KVGT 130153Z 09010KT 10SM CLR 38/07 A2987 RMK AO2 SLP102 T03780067,M
LOL,2023-08-13 01:53,-118.5701,40.0684,1192.43,91.00,40.00,16.87,0.00,0.00,0.00,30.01,1012.10,10.00,M,CLR,M,M,M,M,M,M,M,M,M,M,M,M,M,M,86.99,KLOL 130153Z AUTO 00000KT 10SM CLR 33/04 A3001 RMK AO2 SLP121 T03280044,M
BVU,2023-08-13 01:55,-114.8611,35.9475,671.00,96.80,42.80,15.71,130.00,14.00,0.00,29.88,M,10.00,M,CLR,M,M,M,M,M,M,M,M,M,M,M,M,M,M,92.57,KBVU 130155Z AUTO 13014KT 10SM CLR 36/06 A2988 RMK AO2,M
CXP,2023-08-13 01:55,-119.7326,39.1923,1431.00,87.80,39.20,18.09,360.00,3.00,0.00,30.10,M,10.00,M,CLR,M,M,M,M,M,M,M,M,M,M,M,M,M,M,84.22,KCXP 130155Z AUTO 36003KT 10SM CLR 31/04 A3010 RMK AO2,M
INS,2023-08-13 01:55,-115.6733,36.5872,955.00,89.00,44.00,20.96,270.00,11.00,0.00,29.96,1009.70,10.00,M,CLR,M,M,M,M,M,M,M,M,M,M,M,M,M,M,85.50,KINS 130155Z AUTO 27011KT 10SM CLR 32/07 A2996 RMK AO2 SLP097 T03170067 $,M
RNO,2023-08-13 01:55,-119.7711,39.4839,1341.00,92.00,36.00,13.98,M,4.00,0.00,30.06,1011.90,10.00,15.00,SCT,BKN,BKN,M,10000.00,14000.00,20000.00,M,M,M,M,M,33.00,150.00,2023-08-13 01:34,87.71,KRNO 130155Z VRB04G15KT 10SM SCT100CB BKN140 BKN200 33/02 A3006 RMK AO2 PK WND 15033/0134 WSHFT 0114 SLP119 VIRGA CB SW MOV SW CB DSNT N AND NE THRU S T03330022,M
LSV,2023-08-13 01:55,-115.0343,36.2362,570.00,99.00,45.00,15.98,90.00,6.00,0.00,29.83,1007.50,10.00,M,CLR,M,M,M,M,M,M,M,M,M,M,M,M,M,M,95.00,KLSV 130155Z AUTO 09006KT 10SM CLR 37/07 A2983 RMK AO2 SLP075 T03730072 $,M
RTS,2023-08-13 01:55,-119.8764,39.6682,1539.00,87.80,30.20,12.64,40.00,6.00,0.00,30.14,M,10.00,M,CLR,M,M,M,M,M,M,M,M,M,M,M,M,M,M,84.01,KRTS 130155Z AUTO 04006KT 10SM CLR 31/M01 A3014 RMK AO2,M
05U,2023-08-13 01:55,-116.0051,39.6042,1811.23,71.60,48.20,43.42,M,M,0.00,30.22,M,10.00,M,M,M,M,M,M,M,M,M,M,M,M,M,M,M,M,71.60,K05U 130155Z AUTO 10SM 22/09 A3022 RMK A01,M
MEV,2023-08-13 01:55,-119.7500,38.9963,1441.42,84.20,51.80,32.73,260.00,12.00,0.00,30.09,M,10.00,18.00,BKN,M,M,M,12000.00,M,M,M,M,M,M,M,M,M,M,82.48,KMEV 130155Z AUTO 26012G18KT 10SM BKN120 29/11 A3009 RMK AO2,M
BAM,2023-08-13 01:55,-116.8743,40.5990,1382.36,91.40,37.40,15.05,320.00,8.00,0.00,30.07,M,10.00,M,CLR,M,M,M,M,M,M,M,M,M,M,M,M,M,M,87.23,KBAM 130155Z AUTO 32008KT 10SM CLR 33/03 A3007 RMK AO1,M
HTH,2023-08-13 01:55,-118.6315,38.5448,1282.89,78.80,48.20,34.13,100.00,8.00,0.00,30.12,M,10.00,17.00,CLR,M,M,M,M,M,M,M,M,M,M,M,M,M,M,78.80,KHTH 130155Z AUTO 10008G17KT 10SM CLR 26/09 A3012 RMK A01,M
TMT,2023-08-13 01:55,-117.1971,39.4643,1749.34,75.70,46.20,35.08,200.00,5.00,0.00,30.22,M,M,M,CLR,M,M,M,M,M,M,M,M,M,M,M,M,M,M,75.70,KTMT 130155Z AUTO 20005KT CLR 24/08 A3022 RMK AO2 T02430079 PWINO,M
EKO,2023-08-13 01:56,-115.7860,40.8242,1367.00,85.00,46.00,25.69,0.00,0.00,0.00,30.10,1013.40,10.00,M,FEW,M,M,M,12000.00,M,M,M,M,M,M,M,M,M,M,82.42,KEKO 130156Z AUTO 00000KT 10SM FEW120 29/08 A3010 RMK AO2 SLP134 T02940078,M
WMC,2023-08-13 01:56,-117.8072,40.9019,1315.00,93.00,34.00,12.51,360.00,8.00,0.00,30.06,1012.70,10.00,M,FEW,M,M,M,11000.00,M,M,M,M,M,M,M,M,M,M,88.42,KWMC 130156Z AUTO 36008KT 10SM FEW110 34/01 A3006 RMK AO2 SLP127 T03390011,M
NFL,2023-08-13 01:56,-118.7010,39.4166,1199.00,89.00,40.00,17.96,140.00,11.00,T,30.04,1014.00,10.00,M,CLR,M,M,M,M,M,M,M,M,M,M,M,M,M,M,85.26,KNFL 130156Z AUTO 14011KT 10SM CLR 32/04 A3004 RMK AO2 RAE49 SLP140 P0000 T03170044,M
HND,2023-08-13 01:56,-115.1344,35.9729,742.79,99.00,38.00,12.19,230.00,3.00,0.00,29.92,1011.40,10.00,M,CLR,M,M,M,M,M,M,M,M,M,M,M,M,M,M,93.99,KHND 130156Z 23003KT 10SM CLR 37/03 A2992 RMK AO2 SLP114 T03720033,M
TPH,2023-08-13 01:56,-117.0904,38.0505,1654.00,79.00,44.00,28.93,20.00,14.00,0.00,30.17,1014.20,10.00,M,CLR,M,M,M,M,M,M,M,M,M,M,M,M,M,M,79.00,KTPH 130156Z AUTO 02014KT 10SM CLR 26/07 A3017 RMK AO2 LTG DSNT SE SLP142 T02610067 $,M
LAS,2023-08-13 01:56,-115.1634,36.0719,663.00,99.00,43.00,14.80,50.00,6.00,0.00,29.88,1008.60,10.00,M,FEW,FEW,SCT,M,10000.00,14000.00,20000.00,M,M,M,M,M,M,M,M,94.72,KLAS 130156Z 05006KT 10SM FEW100 FEW140 SCT200 37/06 A2988 RMK AO2 SLP086 TCU DSNT N AND E T03720061,M
BVU,2023-08-13 02:15,-114.8611,35.9475,671.00,96.80,42.80,15.71,130.00,13.00,0.00,29.89,M,10.00,M,CLR,M,M,M,M,M,M,M,M,M,M,M,M,M,M,92.57,KBVU 130215Z AUTO 13013KT 10SM CLR 36/06 A2989 RMK AO2,M
CXP,2023-08-13 02:15,-119.7326,39.1923,1431.00,89.60,37.40,15.92,20.00,5.00,0.00,30.10,M,10.00,M,CLR,M,M,M,M,M,M,M,M,M,M,M,M,M,M,85.67,KCXP 130215Z AUTO 02005KT 10SM CLR 32/03 A3010 RMK AO2,M
RTS,2023-08-13 02:15,-119.8764,39.6682,1539.00,87.80,32.00,13.59,60.00,7.00,0.00,30.14,M,10.00,M,CLR,M,M,M,M,M,M,M,M,M,M,M,M,M,M,84.08,KRTS 130215Z AUTO 06007KT 10SM CLR 31/M00 A3014 RMK AO2,M
05U,2023-08-13 02:15,-116.0051,39.6042,1811.23,69.80,50.00,49.37,M,M,0.00,30.22,M,10.00,M,M,M,M,M,M,M,M,M,M,M,M,M,M,M,M,69.80,K05U 130215Z AUTO 10SM 21/10 A3022 RMK A01,M
MEV,2023-08-13 02:15,-119.7500,38.9963,1441.42,84.20,51.80,32.73,260.00,7.00,0.00,30.10,M,10.00,15.00,SCT,M,M,M,12000.00,M,M,M,M,M,M,M,M,M,M,82.48,KMEV 130215Z AUTO 26007G15KT 10SM SCT120 29/11 A3010 RMK AO2,M
HTH,2023-08-13 02:15,-118.6315,38.5448,1282.89,80.60,44.60,28.08,220.00,7.00,0.00,30.12,M,10.00,M,FEW,SCT,BKN,M,4600.00,6500.00,11000.00,M,M,M,M,M,M,M,M,79.42,KHTH 130215Z AUTO 22007KT 10SM FEW046 SCT065 BKN110 27/07 A3012 RMK A01,M
BAM,2023-08-13 02:15,-116.8743,40.5990,1382.36,89.60,37.40,15.92,320.00,7.00,0.00,30.08,M,10.00,M,CLR,M,M,M,M,M,M,M,M,M,M,M,M,M,M,85.67,KBAM 130215Z AUTO 32007KT 10SM CLR 32/03 A3008 RMK AO1,M
TMT,2023-08-13 02:15,-117.1971,39.4643,1749.34,75.00,46.40,36.18,190.00,5.00,0.00,30.22,M,M,M,CLR,M,M,M,M,M,M,M,M,M,M,M,M,M,M,75.00,KTMT 130215Z AUTO 19005KT CLR 24/08 A3022 RMK AO2 T02390080 PWINO,M
HTH,2023-08-13 02:30,-118.6315,38.5448,1282.89,80.60,44.60,28.08,200.00,3.00,0.00,30.11,M,10.00,M,FEW,FEW,SCT,M,5500.00,6500.00,11000.00,M,M,M,M,M,M,M,M,79.42,KHTH 130230Z AUTO 20003KT 10SM FEW055 FEW065 SCT110 27/07 A3011 RMK A01,M
BVU,2023-08-13 02:35,-114.8611,35.9475,671.00,96.80,41.00,14.66,140.00,10.00,0.00,29.89,M,10.00,M,CLR,M,M,M,M,M,M,M,M,M,M,M,M,M,M,92.39,KBVU 130235Z AUTO 14010KT 10SM CLR 36/05 A2989 RMK AO2,M
CXP,2023-08-13 02:35,-119.7326,39.1923,1431.00,87.80,39.20,18.09,150.00,7.00,0.00,30.12,M,10.00,M,SCT,M,M,M,12000.00,M,M,M,M,M,M,M,M,M,M,84.22,KCXP 130235Z AUTO 15007KT 10SM SCT120 31/04 A3012 RMK AO2,M
RTS,2023-08-13 02:35,-119.8764,39.6682,1539.00,86.00,33.80,15.48,0.00,0.00,0.00,30.14,M,10.00,M,CLR,M,M,M,M,M,M,M,M,M,M,M,M,M,M,82.66,KRTS 130235Z AUTO 00000KT 10SM CLR 30/01 A3014 RMK AO2,M
05U,2023-08-13 02:35,-116.0051,39.6042,1811.23,69.80,50.00,49.37,M,M,0.00,30.22,M,10.00,M,M,M,M,M,M,M,M,M,M,M,M,M,M,M,M,69.80,K05U 130235Z AUTO 10SM 21/10 A3022 RMK A01,M
MEV,2023-08-13 02:35,-119.7500,38.9963,1441.42,82.40,50.00,32.46,130.00,5.00,0.00,30.12,M,10.00,10.00,SCT,M,M,M,11000.00,M,M,M,M,M,M,M,M,M,M,80.99,KMEV 130235Z AUTO 13005G10KT 10SM SCT110 28/10 A3012 RMK AO2,M
BAM,2023-08-13 02:35,-116.8743,40.5990,1382.36,87.80,37.40,16.86,330.00,8.00,0.00,30.08,M,10.00,M,CLR,M,M,M,M,M,M,M,M,M,M,M,M,M,M,84.16,KBAM 130235Z AUTO 33008KT 10SM CLR 31/03 A3008 RMK AO1,M
TMT,2023-08-13 02:35,-117.1971,39.4643,1749.34,74.00,46.60,37.70,220.00,5.00,0.00,30.22,M,M,M,CLR,M,M,M,M,M,M,M,M,M,M,M,M,M,M,74.00,KTMT 130235Z AUTO 22005KT CLR 23/08 A3022 RMK AO2 T02340081 PWINO,M
P68,2023-08-13 02:53,-116.0056,39.6014,1993.00,72.00,47.00,40.94,210.00,5.00,0.00,30.20,1015.20,M,M,M,M,M,M,M,M,M,M,M,M,M,M,M,M,M,72.00,KP68 130253Z AUTO 21005KT 22/08 A3020 RMK AO1 SLP152 T02220083 53003,M
DRA,2023-08-13 02:53,-116.0278,36.6206,1009.00,86.00,37.00,17.57,70.00,6.00,0.00,29.99,1010.20,10.00,M,CLR,M,M,M,M,M,M,M,M,M,M,M,M,M,M,82.72,KDRA 130253Z AUTO 07006KT 10SM CLR 30/03 A2999 RMK AO2 SLP102 T03000028 53005,M
ELY,2023-08-13 02:53,-114.8453,39.2950,1909.00,68.00,45.00,43.51,0.00,0.00,0.00,30.25,1015.00,10.00,M,CLR,M,M,M,M,M,M,M,M,M,M,M,M,M,M,68.00,KELY 130253Z AUTO 00000KT 10SM CLR 20/07 A3025 RMK AO2 SLP150 T02000072 53003,M
VGT,2023-08-13 02:53,-115.1933,36.2111,667.00,98.00,46.00,17.11,110.00,13.00,0.00,29.89,1010.70,10.00,M,CLR,M,M,M,M,M,M,M,M,M,M,M,M,M,M,94.18,KVGT 130253Z 11013KT 10SM CLR 37/08 A2989 RMK AO2 SLP107 T03670078 53003,M
LOL,2023-08-13 02:53,-118.5701,40.0684,1192.43,85.00,47.00,26.67,150.00,10.00,0.00,30.03,1012.50,10.00,M,CLR,M,M,M,M,M,M,M,M,M,M,M,M,M,M,82.51,KLOL 130253Z AUTO 15010KT 10SM CLR 29/08 A3003 RMK AO2 SLP125 T02940083 53002,M
BVU,2023-08-13 02:55,-114.8611,35.9475,671.00,95.00,41.00,15.49,140.00,9.00,0.00,29.90,M,10.00,M,CLR,M,M,M,M,M,M,M,M,M,M,M,M,M,M,90.70,KBVU 130255Z AUTO 14009KT 10SM CLR 35/05 A2990 RMK AO2,M
CXP,2023-08-13 02:55,-119.7326,39.1923,1431.00,84.20,41.00,21.76,160.00,6.00,0.00,30.13,M,10.00,M,BKN,M,M,M,12000.00,M,M,M,M,M,M,M,M,M,M,81.52,KCXP 130255Z AUTO 16006KT 10SM BKN120 29/05 A3013 RMK AO2 LTG DSNT S,M
INS,2023-08-13 02:55,-115.6733,36.5872,955.00,86.50,36.50,16.96,270.00,6.00,0.00,29.97,1010.10,10.00,M,CLR,M,M,M,M,M,M,M,M,M,M,M,M,M,M,83.10,KINS 130255Z AUTO 27006KT 10SM CLR 30/03 A2997 RMK AO2 SLP101 T03030025 53004 $,M
RNO,2023-08-13 02:55,-119.7711,39.4839,1341.00,87.00,42.00,20.68,80.00,14.00,0.00,30.08,1012.50,10.00,21.00,FEW,SCT,BKN,BKN,9000.00,11000.00,15000.00,20000.00,M,M,M,M,M,M,M,83.70,KRNO 130255Z 08014G21KT 10SM FEW090 SCT110CB BKN150 BKN200 31/06 A3008 RMK AO2 LTG DSNT SW SLP125 VIRGA CB N THRU NE MOV SW CB DSNT E AND SE THRU SW T03060056 53001,M
LSV,2023-08-13 02:55,-115.0343,36.2362,570.00,96.00,49.60,20.82,80.00,15.00,0.00,29.85,1008.00,10.00,M,CLR,M,M,M,M,M,M,M,M,M,M,M,M,M,M,92.81,KLSV 130255Z AUTO 08015KT 10SM CLR 36/10 A2985 RMK AO2 SLP080 T03550098 53004 $,M
RTS,2023-08-13 02:55,-119.8764,39.6682,1539.00,86.00,35.60,16.63,220.00,5.00,0.00,30.15,M,10.00,M,FEW,M,M,M,12000.00,M,M,M,M,M,M,M,M,M,M,82.69,KRTS 130255Z AUTO 22005KT 10SM FEW120 30/02 A3015 RMK AO2,M
05U,2023-08-13 02:55,-116.0051,39.6042,1811.23,69.80,46.40,43.13,M,M,0.00,30.23,M,10.00,M,M,M,M,M,M,M,M,M,M,M,M,M,M,M,M,69.80,K05U 130255Z AUTO 10SM 21/08 A3023 RMK A01,M
MEV,2023-08-13 02:55,-119.7500,38.9963,1441.42,78.80,50.00,36.51,150.00,4.00,0.00,30.12,M,10.00,M,FEW,M,M,M,11000.00,M,M,M,VCTS,M,M,M,M,M,M,78.80,KMEV 130255Z AUTO 15004KT 10SM VCTS FEW110 26/10 A3012 RMK AO2 LTG DSNT S,M
HTH,2023-08-13 02:55,-118.6315,38.5448,1282.89,77.00,51.80,41.42,130.00,4.00,0.00,30.11,M,10.00,M,CLR,M,M,M,M,M,M,M,M,M,M,M,M,M,M,77.00,KHTH 130255Z AUTO 13004KT 10SM CLR 25/11 A3011 RMK A01,M
BAM,2023-08-13 02:55,-116.8743,40.5990,1382.36,86.00,41.00,20.54,330.00,8.00,0.00,30.08,M,10.00,M,CLR,M,M,M,M,M,M,M,M,M,M,M,M,M,M,82.86,KBAM 130255Z AUTO 33008KT 10SM CLR 30/05 A3008 RMK AO1,M
TMT,2023-08-13 02:55,-117.1971,39.4643,1749.34,71.20,46.40,41.13,210.00,5.00,0.00,30.22,M,M,M,CLR,M,M,M,M,M,M,M,M,M,M,M,M,M,M,71.20,KTMT 130255Z AUTO 21005KT CLR 22/08 A3022 RMK AO2 T02180080 PWINO,M
EKO,2023-08-13 02:56,-115.7860,40.8242,1367.00,85.00,38.00,18.87,M,4.00,0.00,30.11,1013.60,10.00,M,FEW,M,M,M,12000.00,M,M,M,M,M,M,M,M,M,M,81.99,KEKO 130256Z AUTO VRB04KT 10SM FEW120 29/03 A3011 RMK AO2 SLP136 T02940033 53003,M
WMC,2023-08-13 02:56,-117.8072,40.9019,1315.00,85.00,33.00,15.47,350.00,5.00,0.00,30.06,1012.80,10.00,M,CLR,M,M,M,M,M,M,M,M,M,M,M,M,M,M,81.88,KWMC 130256Z AUTO 35005KT 10SM CLR 29/01 A3006 RMK AO2 SLP128 T02940006 53001,M
NFL,2023-08-13 02:56,-118.7010,39.4166,1199.00,88.00,39.00,17.83,140.00,12.00,0.00,30.04,1014.10,10.00,18.00,CLR,M,M,M,M,M,M,M,M,M,M,M,M,M,M,84.38,KNFL 130256Z AUTO 14012G18KT 10SM CLR 31/04 A3004 RMK AO2 SLP141 60000 T03110039 53001,M
HND,2023-08-13 02:56,-115.1344,35.9729,742.79,97.00,40.00,14.01,150.00,7.00,0.00,29.94,1011.90,10.00,M,CLR,M,M,M,M,M,M,M,M,M,M,M,M,M,M,92.49,KHND 130256Z 15007KT 10SM CLR 36/04 A2994 RMK AO2 SLP119 T03610044 53004,M
TPH,2023-08-13 02:56,-117.0904,38.0505,1654.00,76.00,45.00,33.19,340.00,11.00,0.00,30.19,1014.60,10.00,17.00,CLR,M,M,M,M,M,M,M,M,M,M,M,M,M,M,76.00,KTPH 130256Z AUTO 34011G17KT 10SM CLR 24/07 A3019 RMK AO2 LTG DSNT SE SLP146 T02440072 53009 $,M
LAS,2023-08-13 02:56,-115.1634,36.0719,663.00,97.00,43.00,15.73,110.00,6.00,0.00,29.88,1008.80,10.00,M,FEW,FEW,SCT,M,10000.00,14000.00,20000.00,M,M,M,M,M,M,M,M,92.79,KLAS 130256Z 11006KT 10SM FEW100 FEW140 SCT200 36/06 A2988 RMK AO2 SLP088 T03610061 53001,M
CXP,2023-08-13 03:10,-119.7326,39.1923,1431.00,84.20,41.00,21.76,M,3.00,0.00,30.13,M,10.00,M,SCT,M,M,M,12000.00,M,M,M,M,M,M,M,M,M,M,81.52,KCXP 130310Z AUTO VRB03KT 10SM SCT120 29/05 A3013 RMK AO2,M
BVU,2023-08-13 03:15,-114.8611,35.9475,671.00,95.00,44.60,17.78,130.00,10.00,0.00,29.91,M,10.00,M,CLR,M,M,M,M,M,M,M,M,M,M,M,M,M,M,91.06,KBVU 130315Z AUTO 13010KT 10SM CLR 35/07 A2991 RMK AO2,M
RTS,2023-08-13 03:15,-119.8764,39.6682,1539.00,82.40,46.40,28.36,260.00,6.00,0.00,30.16,M,10.00,M,CLR,M,M,M,M,M,M,M,M,M,M,M,M,M,M,80.64,KRTS 130315Z AUTO 26006KT 10SM CLR 28/08 A3016 RMK AO2,M
05U,2023-08-13 03:15,-116.0051,39.6042,1811.23,69.80,46.40,43.13,M,M,0.00,30.24,M,10.00,M,M,M,M,M,M,M,M,M,M,M,M,M,M,M,M,69.80,K05U 130315Z AUTO 10SM 21/08 A3024 RMK A01,M
MEV,2023-08-13 03:15,-119.7500,38.9963,1441.42,77.00,53.60,44.25,210.00,5.00,0.00,30.13,M,10.00,M,SCT,M,M,M,12000.00,M,M,M,M,M,M,M,M,M,M,77.00,KMEV 130315Z AUTO 21005KT 10SM SCT120 25/12 A3013 RMK AO2,M
HTH,2023-08-13 03:15,-118.6315,38.5448,1282.89,77.00,53.60,44.25,100.00,7.00,0.00,30.12,M,10.00,M,CLR,M,M,M,M,M,M,M,M,M,M,M,M,M,M,77.00,KHTH 130315Z AUTO 10007KT 10SM CLR 25/12 A3012 RMK A01,M
BAM,2023-08-13 03:15,-116.8743,40.5990,1382.36,82.40,39.20,21.51,330.00,7.00,0.00,30.08,M,10.00,M,CLR,M,M,M,M,M,M,M,M,M,M,M,M,M,M,80.21,KBAM 130315Z AUTO 33007KT 10SM CLR 28/04 A3008 RMK AO1,M
TMT,2023-08-13 03:15,-117.1971,39.4643,1749.34,67.50,48.00,49.58,160.00,3.00,0.00,30.23,M,M,M,SCT,M,M,M,12000.00,M,M,M,M,M,M,M,M,M,M,67.50,KTMT 130315Z AUTO 16003KT SCT120 20/09 A3023 RMK AO2 T01970089 PWINO,M
BVU,2023-08-13 03:35,-114.8611,35.9475,671.00,93.20,48.20,21.54,120.00,11.00,0.00,29.92,M,10.00,M,CLR,M,M,M,M,M,M,M,M,M,M,M,M,M,M,89.80,KBVU 130335Z AUTO 12011KT 10SM CLR 34/09 A2992 RMK AO2,M
CXP,2023-08-13 03:35,-119.7326,39.1923,1431.00,82.40,42.80,24.72,0.00,0.00,0.00,30.16,M,10.00,M,BKN,M,M,M,12000.00,M,M,M,M,M,M,M,M,M,M,80.39,KCXP 130335Z AUTO 00000KT 10SM BKN120 28/06 A3016 RMK AO2,M
RTS,2023-08-13 03:35,-119.8764,39.6682,1539.00,82.40,39.20,21.51,200.00,7.00,0.00,30.17,M,10.00,M,CLR,M,M,M,M,M,M,M,M,M,M,M,M,M,M,80.21,KRTS 130335Z AUTO 20007KT 10SM CLR 28/04 A3017 RMK AO2,M
05U,2023-08-13 03:35,-116.0051,39.6042,1811.23,68.00,46.40,45.88,M,M,0.00,30.24,M,10.00,M,M,M,M,M,M,M,M,M,M,M,M,M,M,M,M,68.00,K05U 130335Z AUTO 10SM 20/08 A3024 RMK A01,M
MEV,2023-08-13 03:35,-119.7500,38.9963,1441.42,77.00,53.60,44.25,180.00,7.00,0.00,30.13,M,10.00,M,OVC,M,M,M,12000.00,M,M,M,M,M,M,M,M,M,M,77.00,KMEV 130335Z AUTO 18007KT 10SM OVC120 25/12 A3013 RMK AO2,M
HTH,2023-08-13 03:35,-118.6315,38.5448,1282.89,77.00,46.40,33.85,100.00,7.00,0.00,30.12,M,10.00,M,CLR,M,M,M,M,M,M,M,M,M,M,M,M,M,M,77.00,KHTH 130335Z AUTO 10007KT 10SM CLR 25/08 A3012 RMK A01,M
BAM,2023-08-13 03:35,-116.8743,40.5990,1382.36,80.60,41.00,24.46,350.00,4.00,0.00,30.09,M,10.00,M,CLR,M,M,M,M,M,M,M,M,M,M,M,M,M,M,79.20,KBAM 130335Z AUTO 35004KT 10SM CLR 27/05 A3009 RMK AO1,M
TMT,2023-08-13 03:35,-117.1971,39.4643,1749.34,66.40,46.00,47.76,0.00,0.00,0.00,30.23,M,M,M,SCT,M,M,M,12000.00,M,M,M,M,M,M,M,M,M,M,66.40,KTMT 130335Z AUTO 00000KT SCT120 19/08 A3023 RMK AO2 T01910078 PWINO,M
P68,2023-08-13 03:53,-116.0056,39.6014,1993.00,68.00,47.00,46.93,200.00,8.00,0.00,30.22,1016.00,M,M,M,M,M,M,M,M,M,M,M,M,M,M,M,M,M,68.00,KP68 130353Z AUTO 20008KT 20/08 A3022 RMK AO1 SLP160 T02000083,M
DRA,2023-08-13 03:53,-116.0278,36.6206,1009.00,83.00,37.00,19.35,110.00,6.00,0.00,30.00,1010.60,10.00,M,CLR,M,M,M,M,M,M,M,M,M,M,M,M,M,M,80.53,KDRA 130353Z AUTO 11006KT 10SM CLR 28/03 A3000 RMK AO2 SLP106 T02830028,M
ELY,2023-08-13 03:53,-114.8453,39.2950,1909.00,60.00,50.00,69.49,180.00,7.00,0.00,30.25,1015.20,10.00,M,CLR,M,M,M,M,M,M,M,M,M,M,M,M,M,M,60.00,KELY 130353Z AUTO 18007KT 10SM CLR 16/10 A3025 RMK AO2 SLP152 T01560100,M
VGT,2023-08-13 03:53,-115.1933,36.2111,667.00,95.00,50.00,21.79,90.00,14.00,0.00,29.91,1011.30,10.00,M,CLR,M,M,M,M,M,M,M,M,M,M,M,M,M,M,91.89,KVGT 130353Z 09014KT 10SM CLR 35/10 A2991 RMK AO2 SLP113 T03500100,M
LOL,2023-08-13 03:53,-118.5701,40.0684,1192.43,79.00,43.00,27.84,240.00,8.00,0.00,30.04,1012.90,10.00,M,CLR,M,M,M,M,M,M,M,M,M,M,M,M,M,M,79.00,KLOL 130353Z AUTO 24008KT 10SM CLR 26/06 A3004 RMK AO2 SLP129 T02610061,M
BVU,2023-08-13 03:55,-114.8611,35.9475,671.00,93.20,48.20,21.54,120.00,10.00,0.00,29.93,M,10.00,M,CLR,M,M,M,M,M,M,M,M,M,M,M,M,M,M,89.80,KBVU 130355Z AUTO 12010KT 10SM CLR 34/09 A2993 RMK AO2,M
CXP,2023-08-13 03:55,-119.7326,39.1923,1431.00,82.40,44.60,26.49,0.00,0.00,0.00,30.16,M,10.00,M,FEW,FEW,BKN,M,5000.00,6000.00,11000.00,M,M,M,M,M,M,M,M,80.50,KCXP 130355Z AUTO 00000KT 10SM FEW050 FEW060 BKN110 28/07 A3016 RMK AO2,M
INS,2023-08-13 03:55,-115.6733,36.5872,955.00,82.80,39.00,21.07,250.00,9.00,0.00,29.99,1010.80,10.00,M,CLR,M,M,M,M,M,M,M,M,M,M,M,M,M,M,80.46,KINS 130355Z AUTO 25009KT 10SM CLR 28/04 A2999 RMK AO2 SLP108 T02820038 $,M
RNO,2023-08-13 03:55,-119.7711,39.4839,1341.00,85.00,41.00,21.21,150.00,7.00,0.00,30.10,1012.80,10.00,M,FEW,BKN,BKN,M,9000.00,11000.00,16000.00,M,M,M,M,M,M,M,M,82.10,KRNO 130355Z 15007KT 10SM FEW090 BKN110TCU BKN160 29/05 A3010 RMK AO2 SLP128 VIRGA TCU NW MOV SW CB DSNT E THRU SW AND W T02940050,M
LSV,2023-08-13 03:55,-115.0343,36.2362,570.00,94.00,49.30,21.90,70.00,16.00,0.00,29.87,1008.70,10.00,M,CLR,M,M,M,M,M,M,M,M,M,M,M,M,M,M,90.76,KLSV 130355Z AUTO 07016KT 10SM CLR 34/10 A2987 RMK AO2 SLP087 T03440096 $,M
RTS,2023-08-13 03:55,-119.8764,39.6682,1539.00,82.40,37.40,20.04,240.00,7.00,0.00,30.16,M,10.00,M,CLR,M,M,M,M,M,M,M,M,M,M,M,M,M,M,80.14,KRTS 130355Z AUTO 24007KT 10SM CLR 28/03 A3016 RMK AO2,M
05U,2023-08-13 03:55,-116.0051,39.6042,1811.23,68.00,46.40,45.88,M,M,0.00,30.25,M,10.00,M,M,M,M,M,M,M,M,M,M,M,M,M,M,M,M,68.00,K05U 130355Z AUTO 10SM 20/08 A3025 RMK A01,M
MEV,2023-08-13 03:55,-119.7500,38.9963,1441.42,77.00,53.60,44.25,280.00,4.00,0.00,30.14,M,10.00,M,FEW,FEW,BKN,M,3800.00,4500.00,12000.00,M,M,M,M,M,M,M,M,77.00,KMEV 130355Z AUTO 28004KT 10SM FEW038 FEW045 BKN120 25/12 A3014 RMK AO2,M
HTH,2023-08-13 03:55,-118.6315,38.5448,1282.89,77.00,48.20,36.22,130.00,5.00,0.00,30.12,M,10.00,M,SCT,M,M,M,12000.00,M,M,M,M,M,M,M,M,M,M,77.00,KHTH 130355Z AUTO 13005KT 10SM SCT120 25/09 A3012 RMK A01,M
BAM,2023-08-13 03:55,-116.8743,40.5990,1382.36,77.00,41.00,27.53,360.00,8.00,0.00,30.10,M,10.00,M,SCT,M,M,M,12000.00,M,M,M,M,M,M,M,M,M,M,77.00,KBAM 130355Z AUTO 36008KT 10SM SCT120 25/05 A3010 RMK AO1,M
TMT,2023-08-13 03:55,-117.1971,39.4643,1749.34,64.40,44.60,48.55,0.00,0.00,0.00,30.24,M,M,M,CLR,M,M,M,M,M,M,M,M,M,M,M,M,M,M,64.40,KTMT 130355Z AUTO 00000KT CLR 18/07 A3024 RMK AO2 T01800070 PWINO,M
EKO,2023-08-13 03:56,-115.7860,40.8242,1367.00,78.00,41.00,26.64,90.00,5.00,0.00,30.14,1014.50,10.00,M,CLR,M,M,M,M,M,M,M,M,M,M,M,M,M,M,78.00,KEKO 130356Z AUTO 09005KT 10SM CLR 26/05 A3014 RMK AO2 SLP145 T02560050,M
WMC,2023-08-13 03:56,-117.8072,40.9019,1315.00,78.00,32.00,18.67,340.00,4.00,0.00,30.08,1013.30,10.00,M,CLR,M,M,M,M,M,M,M,M,M,M,M,M,M,M,78.00,KWMC 130356Z AUTO 34004KT 10SM CLR 26/00 A3008 RMK AO2 SLP133 T02560000,M
NFL,2023-08-13 03:56,-118.7010,39.4166,1199.00,85.00,44.00,23.80,150.00,6.00,0.00,30.05,1014.40,10.00,18.00,CLR,M,M,M,M,M,M,M,M,M,M,M,M,M,M,82.27,KNFL 130356Z AUTO 15006G18KT 10SM CLR 29/07 A3005 RMK AO2 SLP144 T02940067,M
HND,2023-08-13 03:56,-115.1344,35.9729,742.79,94.00,38.00,14.21,160.00,13.00,0.00,29.96,1012.60,10.00,16.00,CLR,M,M,M,M,M,M,M,M,M,M,M,28.00,170.00,2023-08-13 03:02,89.58,KHND 130356Z AUTO 16013G16KT 10SM CLR 34/03 A2996 RMK AO2 PK WND 17028/0302 SLP126 T03440033,M
TPH,2023-08-13 03:56,-117.0904,38.0505,1654.00,73.00,45.00,36.70,340.00,6.00,0.00,30.20,1014.40,10.00,M,CLR,M,M,M,M,M,M,M,M,M,M,M,M,M,M,73.00,KTPH 130356Z AUTO 34006KT 10SM CLR 23/07 A3020 RMK AO2 SLP144 T02280072 $,M
LAS,2023-08-13 03:56,-115.1634,36.0719,663.00,96.00,40.00,14.45,160.00,4.00,0.00,29.91,1009.90,10.00,M,FEW,FEW,SCT,M,10000.00,15000.00,20000.00,M,M,M,M,M,M,M,M,91.55,KLAS 130356Z 16004KT 10SM FEW100 FEW150 SCT200 36/04 A2991 RMK AO2 SLP099 T03560044,M
05U,2023-08-13 04:10,-116.0051,39.6042,1811.23,66.20,46.40,48.83,M,M,0.00,30.25,M,10.00,M,M,M,M,M,M,M,M,M,M,M,M,M,M,M,M,66.20,K05U 130410Z AUTO 10SM 19/08 A3025 RMK A01,M
BVU,2023-08-13 04:15,-114.8611,35.9475,671.00,91.40,46.40,21.29,100.00,9.00,0.00,29.94,M,10.00,M,CLR,M,M,M,M,M,M,M,M,M,M,M,M,M,M,87.86,KBVU 130415Z AUTO 10009KT 10SM CLR 33/08 A2994 RMK AO2,M
CXP,2023-08-13 04:15,-119.7326,39.1923,1431.00,82.40,44.60,26.49,0.00,0.00,0.00,30.15,M,10.00,M,FEW,FEW,FEW,M,5000.00,6500.00,12000.00,M,M,M,M,M,M,M,M,80.50,KCXP 130415Z AUTO 00000KT 10SM FEW050 FEW065 FEW120 28/07 A3015 RMK AO2,M
RTS,2023-08-13 04:15,-119.8764,39.6682,1539.00,80.60,41.00,24.46,280.00,6.00,0.00,30.17,M,10.00,M,CLR,M,M,M,M,M,M,M,M,M,M,M,M,M,M,79.20,KRTS 130415Z AUTO 28006KT 10SM CLR 27/05 A3017 RMK AO2,M
MEV,2023-08-13 04:15,-119.7500,38.9963,1441.42,77.00,55.40,47.25,30.00,8.00,0.00,30.15,M,10.00,M,FEW,SCT,BKN,M,4100.00,10000.00,12000.00,M,M,M,M,M,M,M,M,77.00,KMEV 130415Z AUTO 03008KT 10SM FEW041 SCT100 BKN120 25/13 A3015 RMK AO2,M
HTH,2023-08-13 04:15,-118.6315,38.5448,1282.89,77.00,46.40,33.85,210.00,4.00,0.00,30.13,M,10.00,M,M,M,M,M,M,M,M,M,M,M,M,M,M,M,M,77.00,KHTH 130415Z AUTO 21004KT 10SM 25/08 A3013 RMK A01,M
BAM,2023-08-13 04:15,-116.8743,40.5990,1382.36,80.60,37.40,21.25,360.00,4.00,0.00,30.11,M,10.00,M,SCT,M,M,M,12000.00,M,M,M,M,M,M,M,M,M,M,79.02,KBAM 130415Z AUTO 36004KT 10SM SCT120 27/03 A3011 RMK AO1,M
TMT,2023-08-13 04:15,-117.1971,39.4643,1749.34,59.40,42.30,53.05,140.00,3.00,0.00,30.24,M,M,M,CLR,M,M,M,M,M,M,M,M,M,M,M,M,M,M,59.40,KTMT 130415Z AUTO 14003KT CLR 15/06 A3024 RMK AO2 T01520057 PWINO,M
BVU,2023-08-13 04:35,-114.8611,35.9475,671.00,91.40,46.40,21.29,80.00,7.00,0.00,29.94,M,10.00,M,CLR,M,M,M,M,M,M,M,M,M,M,M,M,M,M,87.86,KBVU 130435Z AUTO 08007KT 10SM CLR 33/08 A2994 RMK AO2,M
CXP,2023-08-13 04:35,-119.7326,39.1923,1431.00,80.60,48.20,32.18,250.00,4.00,0.00,30.16,M,10.00,M,FEW,M,M,M,12000.00,M,M,M,M,M,M,M,M,M,M,79.71,KCXP 130435Z AUTO 25004KT 10SM FEW120 27/09 A3016 RMK AO2,M
RTS,2023-08-13 04:35,-119.8764,39.6682,1539.00,77.00,46.40,33.85,270.00,10.00,0.00,30.18,M,10.00,M,CLR,M,M,M,M,M,M,M,M,M,M,M,M,M,M,77.00,KRTS 130435Z AUTO 27010KT 10SM CLR 25/08 A3018 RMK AO2,M
05U,2023-08-13 04:35,-116.0051,39.6042,1811.23,62.60,48.20,59.26,M,M,0.00,30.25,M,10.00,M,M,M,M,M,M,M,M,M,M,M,M,M,M,M,M,62.60,K05U 130435Z AUTO 10SM 17/09 A3025 RMK A01,M
MEV,2023-08-13 04:35,-119.7500,38.9963,1441.42,75.20,55.40,50.17,70.00,6.00,0.00,30.15,M,10.00,M,FEW,FEW,SCT,M,6000.00,7500.00,9500.00,M,M,M,M,M,M,M,M,75.20,KMEV 130435Z AUTO 07006KT 10SM FEW060 FEW075 SCT095 24/13 A3015 RMK AO2,M
HTH,2023-08-13 04:35,-118.6315,38.5448,1282.89,78.80,46.40,31.90,190.00,4.00,0.00,30.12,M,10.00,M,M,M,M,M,M,M,M,M,M,M,M,M,M,M,M,78.80,KHTH 130435Z AUTO 19004KT 10SM 26/08 A3012 RMK A01,M
BAM,2023-08-13 04:35,-116.8743,40.5990,1382.36,80.60,37.40,21.25,0.00,0.00,0.00,30.12,M,10.00,M,CLR,M,M,M,M,M,M,M,M,M,M,M,M,M,M,79.02,KBAM 130435Z AUTO 00000KT 10SM CLR 27/03 A3012 RMK AO1,M
TMT,2023-08-13 04:35,-117.1971,39.4643,1749.34,57.00,42.00,57.16,150.00,3.00,0.00,30.24,M,M,M,CLR,M,M,M,M,M,M,M,M,M,M,M,M,M,M,57.00,KTMT 130435Z AUTO 15003KT CLR 14/06 A3024 RMK AO2 T01380055 PWINO,M
P68,2023-08-13 04:53,-116.0056,39.6014,1993.00,60.00,49.00,66.95,150.00,7.00,0.00,30.23,1016.40,M,M,M,M,M,M,M,M,M,M,M,M,M,M,M,M,M,60.00,KP68 130453Z AUTO 15007KT 16/09 A3023 RMK AO1 SLP164 T01560094,M
DRA,2023-08-13 04:53,-116.0278,36.6206,1009.00,80.00,38.00,22.19,80.00,4.00,0.00,30.01,1010.90,10.00,M,CLR,M,M,M,M,M,M,M,M,M,M,M,M,M,M,78.74,KDRA 130453Z AUTO 08004KT 10SM CLR 27/03 A3001 RMK AO2 SLP109 T02670033,M
ELY,2023-08-13 04:53,-114.8453,39.2950,1909.00,57.00,47.00,69.16,220.00,5.00,0.00,30.26,1015.50,10.00,M,FEW,M,M,M,11000.00,M,M,M,M,M,M,M,M,M,M,57.00,KELY 130453Z AUTO 22005KT 10SM FEW110 14/08 A3026 RMK AO2 SLP155 T01390083,M
VGT,2023-08-13 04:53,-115.1933,36.2111,667.00,94.00,49.00,21.65,80.00,11.00,0.00,29.93,1012.10,10.00,M,CLR,M,M,M,M,M,M,M,M,M,M,M,M,M,M,90.71,KVGT 130453Z AUTO 08011KT 10SM CLR 34/09 A2993 RMK AO2 SLP121 T03440094,M
LOL,2023-08-13 04:53,-118.5701,40.0684,1192.43,77.00,42.00,28.62,270.00,4.00,0.00,30.06,1013.30,10.00,M,CLR,M,M,M,M,M,M,M,M,M,M,M,M,M,M,77.00,KLOL 130453Z AUTO 27004KT 10SM CLR 25/06 A3006 RMK AO2 SLP133 T02500056,M
BVU,2023-08-13 04:55,-114.8611,35.9475,671.00,89.60,46.40,22.53,80.00,7.00,0.00,29.94,M,10.00,M,CLR,M,M,M,M,M,M,M,M,M,M,M,M,M,M,86.24,KBVU 130455Z AUTO 08007KT 10SM CLR 32/08 A2994 RMK AO2,M
CXP,2023-08-13 04:55,-119.7326,39.1923,1431.00,80.60,48.20,32.18,0.00,0.00,0.00,30.16,M,10.00,M,CLR,M,M,M,M,M,M,M,M,M,M,M,M,M,M,79.71,KCXP 130455Z AUTO 00000KT 10SM CLR 27/09 A3016 RMK AO2,M
INS,2023-08-13 04:55,-115.6733,36.5872,955.00,80.00,43.00,26.94,0.00,0.00,0.00,30.01,1011.30,10.00,M,CLR,M,M,M,M,M,M,M,M,M,M,M,M,M,M,78.97,KINS 130455Z AUTO 00000KT 10SM CLR 27/06 A3001 RMK AO2 SLP113 T02670061 $,M
RNO,2023-08-13 04:55,-119.7711,39.4839,1341.00,85.00,48.00,27.70,280.00,3.00,0.00,30.12,1013.40,10.00,M,FEW,SCT,BKN,M,11000.00,16000.00,20000.00,M,M,M,M,M,M,M,M,82.61,KRNO 130455Z 28003KT 10SM FEW110 SCT160 BKN200 29/09 A3012 RMK AO2 SLP134 T02940089,M
LSV,2023-08-13 04:55,-115.0343,36.2362,570.00,93.40,48.70,21.81,70.00,11.00,0.00,29.89,1009.30,10.00,M,BKN,M,M,M,13000.00,M,M,M,M,M,M,M,M,M,M,90.07,KLSV 130455Z AUTO 07011KT 10SM BKN130 34/09 A2989 RMK AO2 SLP093 T03410093 $,M
RTS,2023-08-13 04:55,-119.8764,39.6682,1539.00,77.00,48.20,36.22,280.00,10.00,0.00,30.18,M,10.00,M,CLR,M,M,M,M,M,M,M,M,M,M,M,M,M,M,77.00,KRTS 130455Z AUTO 28010KT 10SM CLR 25/09 A3018 RMK AO2,M
05U,2023-08-13 04:55,-116.0051,39.6042,1811.23,60.80,48.20,63.15,M,M,0.00,30.25,M,10.00,M,M,M,M,M,M,M,M,M,M,M,M,M,M,M,M,60.80,K05U 130455Z AUTO 10SM 16/09 A3025 RMK A01,M
MEV,2023-08-13 04:55,-119.7500,38.9963,1441.42,71.60,55.40,56.63,160.00,6.00,0.00,30.16,M,10.00,M,FEW,SCT,BKN,M,4600.00,7500.00,12000.00,M,M,M,M,M,M,M,M,71.60,KMEV 130455Z AUTO 16006KT 10SM FEW046 SCT075 BKN120 22/13 A3016 RMK AO2,M
HTH,2023-08-13 04:55,-118.6315,38.5448,1282.89,77.00,50.00,38.74,M,M,0.00,30.12,M,10.00,M,M,M,M,M,M,M,M,M,M,M,M,M,M,M,M,77.00,KHTH 130455Z AUTO 10SM 25/10 A3012 RMK A01,M
BAM,2023-08-13 04:55,-116.8743,40.5990,1382.36,82.40,35.60,18.67,50.00,4.00,0.00,30.13,M,10.00,M,CLR,M,M,M,M,M,M,M,M,M,M,M,M,M,M,80.08,KBAM 130455Z AUTO 05004KT 10SM CLR 28/02 A3013 RMK AO1,M
TMT,2023-08-13 04:55,-117.1971,39.4643,1749.34,59.70,41.40,50.70,180.00,3.00,0.00,30.24,M,M,M,CLR,M,M,M,M,M,M,M,M,M,M,M,M,M,M,59.70,KTMT 130455Z AUTO 18003KT CLR 15/05 A3024 RMK AO2 T01540052 PWINO,M
EKO,2023-08-13 04:56,-115.7860,40.8242,1367.00,76.00,39.00,26.34,100.00,4.00,0.00,30.16,1015.20,10.00,M,CLR,M,M,M,M,M,M,M,M,M,M,M,M,M,M,76.00,KEKO 130456Z AUTO 10004KT 10SM CLR 24/04 A3016 RMK AO2 SLP152 T02440039,M
WMC,2023-08-13 04:56,-117.8072,40.9019,1315.00,81.00,33.00,17.61,50.00,8.00,0.00,30.10,1013.50,10.00,M,CLR,M,M,M,M,M,M,M,M,M,M,M,M,M,M,79.10,KWMC 130456Z AUTO 05008KT 10SM CLR 27/01 A3010 RMK AO2 SLP135 T02720006,M
NFL,2023-08-13 04:56,-118.7010,39.4166,1199.00,79.00,50.00,36.27,210.00,8.00,0.00,30.08,1015.20,10.00,M,CLR,M,M,M,M,M,M,M,M,M,M,M,M,M,M,79.00,KNFL 130456Z AUTO 21008KT 10SM CLR 26/10 A3008 RMK AO2 SLP152 T02610100,M
HND,2023-08-13 04:56,-115.1344,35.9729,742.79,92.00,43.00,18.36,140.00,9.00,0.00,29.98,1013.20,10.00,M,CLR,M,M,M,M,M,M,M,M,M,M,M,M,M,M,88.08,KHND 130456Z AUTO 14009KT 10SM CLR 33/06 A2998 RMK AO2 SLP132 T03330061,M
TPH,2023-08-13 04:56,-117.0904,38.0505,1654.00,70.00,46.00,42.20,230.00,6.00,0.00,30.21,1015.00,10.00,M,CLR,M,M,M,M,M,M,M,M,M,M,M,M,M,M,70.00,KTPH 130456Z AUTO 23006KT 10SM CLR 21/08 A3021 RMK AO2 SLP150 T02110078 $,M
LAS,2023-08-13 04:56,-115.1634,36.0719,663.00,92.00,49.00,23.04,120.00,5.00,0.00,29.93,1010.50,10.00,M,FEW,FEW,SCT,M,10000.00,15000.00,20000.00,M,M,M,M,M,M,M,M,88.77,KLAS 130456Z 12005KT 10SM FEW100 FEW150 SCT200 33/09 A2993 RMK AO2 SLP105 T03330094,M
LSV,2023-08-13 05:06,-115.0343,36.2362,570.00,93.20,48.20,21.54,10.00,12.00,0.00,29.91,1010.00,10.00,M,BKN,M,M,M,13000.00,M,M,M,M,M,M,M,M,M,M,89.80,KLSV 130506Z AUTO 01012KT 10SM BKN130 34/09 A2991 RMK AO2 WSHFT 04 PRESRR SLP100 $,M
CXP,2023-08-13 05:10,-119.7326,39.1923,1431.00,78.80,48.20,34.13,0.00,0.00,0.00,30.16,M,10.00,M,CLR,M,M,M,M,M,M,M,M,M,M,M,M,M,M,78.80,KCXP 130510Z AUTO 00000KT 10SM CLR 26/09 A3016 RMK AO2,M
05U,2023-08-13 05:10,-116.0051,39.6042,1811.23,60.80,48.20,63.15,M,M,0.00,30.25,M,10.00,M,M,M,M,M,M,M,M,M,M,M,M,M,M,M,M,60.80,K05U 130510Z AUTO 10SM 16/09 A3025 RMK A01,M
BVU,2023-08-13 05:15,-114.8611,35.9475,671.00,89.60,48.20,24.11,70.00,7.00,0.00,29.94,M,10.00,M,CLR,M,M,M,M,M,M,M,M,M,M,M,M,M,M,86.44,KBVU 130515Z AUTO 07007KT 10SM CLR 32/09 A2994 RMK AO2,M
RTS,2023-08-13 05:15,-119.8764,39.6682,1539.00,77.00,48.20,36.22,280.00,8.00,0.00,30.18,M,10.00,M,CLR,M,M,M,M,M,M,M,M,M,M,M,M,M,M,77.00,KRTS 130515Z AUTO 28008KT 10SM CLR 25/09 A3018 RMK AO2,M
MEV,2023-08-13 05:15,-119.7500,38.9963,1441.42,71.60,55.40,56.63,160.00,5.00,0.00,30.16,M,10.00,M,FEW,SCT,M,M,8000.00,12000.00,M,M,M,M,M,M,M,M,M,71.60,KMEV 130515Z AUTO 16005KT 10SM FEW080 SCT120 22/13 A3016 RMK AO2,M
HTH,2023-08-13 05:15,-118.6315,38.5448,1282.89,73.40,51.80,46.71,0.00,0.00,0.00,30.12,M,10.00,M,M,M,M,M,M,M,M,M,M,M,M,M,M,M,M,73.40,KHTH 130515Z AUTO 00000KT 10SM 23/11 A3012 RMK A01,M
BAM,2023-08-13 05:15,-116.8743,40.5990,1382.36,77.00,35.60,22.28,270.00,5.00,0.00,30.13,M,10.00,M,SCT,M,M,M,12000.00,M,M,M,M,M,M,M,M,M,M,77.00,KBAM 130515Z AUTO 27005KT 10SM SCT120 25/02 A3013 RMK AO1,M
TMT,2023-08-13 05:15,-117.1971,39.4643,1749.34,57.60,42.30,56.59,280.00,3.00,0.00,30.24,M,M,M,CLR,M,M,M,M,M,M,M,M,M,M,M,M,M,M,57.60,KTMT 130515Z AUTO 28003KT CLR 14/06 A3024 RMK AO2 T01420057 PWINO,M
HTH,2023-08-13 05:30,-118.6315,38.5448,1282.89,73.40,57.20,56.88,110.00,4.00,0.00,30.12,M,10.00,M,M,M,M,M,M,M,M,M,M,M,M,M,M,M,M,73.40,KHTH 130530Z AUTO 11004KT 10SM 23/14 A3012 RMK A01,M
BVU,2023-08-13 05:35,-114.8611,35.9475,671.00,87.80,48.20,25.52,70.00,5.00,0.00,29.94,M,10.00,M,CLR,M,M,M,M,M,M,M,M,M,M,M,M,M,M,84.87,KBVU 130535Z AUTO 07005KT 10SM CLR 31/09 A2994 RMK AO2,M
CXP,2023-08-13 05:35,-119.7326,39.1923,1431.00,77.00,48.20,36.22,160.00,3.00,0.00,30.17,M,10.00,M,CLR,M,M,M,M,M,M,M,M,M,M,M,M,M,M,77.00,KCXP 130535Z AUTO 16003KT 10SM CLR 25/09 A3017 RMK AO2,M
RTS,2023-08-13 05:35,-119.8764,39.6682,1539.00,75.20,48.20,38.46,290.00,3.00,0.00,30.19,M,10.00,10.00,CLR,M,M,M,M,M,M,M,M,M,M,M,M,M,M,75.20,KRTS 130535Z AUTO 29003G10KT 10SM CLR 24/09 A3019 RMK AO2,M
05U,2023-08-13 05:35,-116.0051,39.6042,1811.23,62.60,44.60,51.72,M,M,0.00,30.25,M,10.00,M,M,M,M,M,M,M,M,M,M,M,M,M,M,M,M,62.60,K05U 130535Z AUTO 10SM 17/07 A3025 RMK A01,M
MEV,2023-08-13 05:35,-119.7500,38.9963,1441.42,69.80,55.40,60.21,170.00,6.00,0.00,30.16,M,10.00,M,FEW,FEW,FEW,M,3000.00,3900.00,4600.00,M,M,M,M,M,M,M,M,69.80,KMEV 130535Z AUTO 17006KT 10SM FEW030 FEW039 FEW046 21/13 A3016 RMK AO2,M
BAM,2023-08-13 05:35,-116.8743,40.5990,1382.36,82.40,35.60,18.67,320.00,9.00,0.00,30.13,M,10.00,M,CLR,M,M,M,M,M,M,M,M,M,M,M,M,M,M,80.08,KBAM 130535Z AUTO 32009KT 280V340 10SM CLR 28/02 A3013 RMK AO1,M
TMT,2023-08-13 05:35,-117.1971,39.4643,1749.34,57.20,43.00,58.97,250.00,6.00,0.00,30.25,M,M,M,CLR,M,M,M,M,M,M,M,M,M,M,M,M,M,M,57.20,KTMT 130535Z AUTO 25006KT CLR 14/06 A3025 RMK AO2 T01400061 PWINO,M
P68,2023-08-13 05:53,-116.0056,39.6014,1993.00,61.00,46.00,57.72,220.00,5.00,0.00,30.23,1016.00,M,M,M,M,M,M,M,M,M,M,M,M,M,M,M,M,M,61.00,KP68 130553Z AUTO 22005KT 16/08 A3023 RMK AO1 SLP160 T01610078 10278 20156 51006,M
DRA,2023-08-13 05:53,-116.0278,36.6206,1009.00,81.00,38.00,21.48,0.00,0.00,0.00,30.03,1011.20,10.00,M,CLR,M,M,M,M,M,M,M,M,M,M,M,M,M,M,79.28,KDRA 130553Z AUTO 00000KT 10SM CLR 27/03 A3003 RMK AO2 SLP112 T02720033 10344 20256 53013,M
ELY,2023-08-13 05:53,-114.8453,39.2950,1909.00,61.00,44.00,53.49,190.00,11.00,0.00,30.26,1014.40,10.00,M,CLR,M,M,M,M,M,M,M,M,M,M,M,M,M,M,61.00,KELY 130553Z AUTO 19011KT 10SM CLR 16/07 A3026 RMK AO2 SLP144 T01610067 10261 20133 51004,M
VGT,2023-08-13 05:53,-115.1933,36.2111,667.00,92.00,48.00,22.19,70.00,14.00,0.00,29.95,1012.70,10.00,M,CLR,M,M,M,M,M,M,M,M,M,M,M,M,M,M,88.63,KVGT 130553Z AUTO 07014KT 10SM CLR 33/09 A2995 RMK AO2 SLP127 T03330089 10389 20333 51020,M
LOL,2023-08-13 05:53,-118.5701,40.0684,1192.43,70.00,43.00,37.64,120.00,6.00,0.00,30.06,1013.70,10.00,M,CLR,M,M,M,M,M,M,M,M,M,M,M,M,M,M,70.00,KLOL 130553Z AUTO 12006KT 10SM CLR 21/06 A3006 RMK AO2 SLP137 T02110061 10356 20206 51010,M
BVU,2023-08-13 05:55,-114.8611,35.9475,671.00,84.20,51.80,32.73,40.00,4.00,0.00,29.95,M,10.00,M,CLR,M,M,M,M,M,M,M,M,M,M,M,M,M,M,82.48,KBVU 130555Z AUTO 04004KT 10SM CLR 29/11 A2995 RMK AO2,M
CXP,2023-08-13 05:55,-119.7326,39.1923,1431.00,77.00,50.00,38.74,200.00,8.00,0.00,30.17,M,10.00,M,CLR,M,M,M,M,M,M,M,M,M,M,M,M,M,M,77.00,KCXP 130555Z AUTO 20008KT 10SM CLR 25/10 A3017 RMK AO2,M
INS,2023-08-13 05:55,-115.6733,36.5872,955.00,80.60,44.40,27.87,160.00,8.00,0.00,30.01,1011.10,10.00,M,CLR,M,M,M,M,M,M,M,M,M,M,M,M,M,M,79.41,KINS 130555Z AUTO 16008KT 10SM CLR 27/07 A3001 RMK AO2 SLP111 T02700069 10342 20248 51012 $,M
RNO,2023-08-13 05:55,-119.7711,39.4839,1341.00,82.00,52.00,35.41,180.00,4.00,0.00,30.13,1013.60,10.00,M,FEW,SCT,SCT,M,10000.00,12000.00,16000.00,M,M,M,M,M,M,M,M,80.97,KRNO 130555Z 18004KT 10SM FEW100 SCT120 SCT160 28/11 A3013 RMK AO2 SLP136 T02780111 10350 20278 51014,M
LSV,2023-08-13 05:55,-115.0343,36.2362,570.00,90.70,47.70,22.86,360.00,15.00,0.00,29.91,1009.90,10.00,M,SCT,M,M,M,13000.00,M,M,M,M,M,M,M,M,M,M,87.38,KLSV 130555Z AUTO 36015KT 10SM SCT130 33/09 A2991 RMK AO2 SLP099 T03260087 10386 20326 52021 $,M
RTS,2023-08-13 05:55,-119.8764,39.6682,1539.00,75.20,50.00,41.14,280.00,6.00,0.00,30.19,M,10.00,M,CLR,M,M,M,M,M,M,M,M,M,M,M,M,M,M,75.20,KRTS 130555Z AUTO 28006KT 10SM CLR 24/10 A3019 RMK AO2,M
05U,2023-08-13 05:55,-116.0051,39.6042,1811.23,60.80,46.40,59.01,M,M,0.00,30.25,M,10.00,M,M,M,M,M,M,M,M,M,M,M,M,M,M,M,M,60.80,K05U 130555Z AUTO 10SM 16/08 A3025 RMK A01,M
MEV,2023-08-13 05:55,-119.7500,38.9963,1441.42,71.60,53.60,53.03,190.00,6.00,0.00,30.16,M,10.00,M,FEW,SCT,BKN,M,3000.00,4800.00,12000.00,M,M,M,M,M,M,M,M,71.60,KMEV 130555Z AUTO 19006KT 10SM FEW030 SCT048 BKN120 22/12 A3016 RMK AO2,M
HTH,2023-08-13 05:55,-118.6315,38.5448,1282.89,75.20,48.20,38.46,140.00,13.00,0.00,30.12,M,10.00,M,BKN,M,M,M,11000.00,M,M,M,M,M,M,M,M,M,M,75.20,KHTH 130555Z AUTO 14013KT 10SM BKN110 24/09 A3012 RMK A01,M
BAM,2023-08-13 05:55,-116.8743,40.5990,1382.36,82.40,32.00,16.17,340.00,5.00,0.00,30.14,M,10.00,M,CLR,M,M,M,M,M,M,M,M,M,M,M,M,M,M,80.00,KBAM 130555Z AUTO 34005KT 10SM CLR 28/00 A3014 RMK AO1,M
TMT,2023-08-13 05:55,-117.1971,39.4643,1749.34,56.30,43.70,62.58,0.00,0.00,0.00,30.25,M,M,M,CLR,M,M,M,M,M,M,M,M,M,M,M,M,M,M,56.30,KTMT 130555Z AUTO 00000KT CLR 14/07 A3025 RMK AO2 T01350065 10260 20135 PWINO,M
EKO,2023-08-13 05:56,-115.7860,40.8242,1367.00,73.00,39.00,29.12,90.00,4.00,0.00,30.18,1015.50,10.00,M,CLR,M,M,M,M,M,M,M,M,M,M,M,M,M,M,73.00,KEKO 130556Z AUTO 09004KT 10SM CLR 23/04 A3018 RMK AO2 SLP155 T02280039 10333 20228 51020,M
WMC,2023-08-13 05:56,-117.8072,40.9019,1315.00,79.00,33.00,18.80,40.00,12.00,0.00,30.11,1013.90,10.00,M,CLR,M,M,M,M,M,M,M,M,M,M,M,M,M,M,79.00,KWMC 130556Z AUTO 04012KT 10SM CLR 26/01 A3011 RMK AO2 SLP139 T02610006 10361 20250 51015,M
HND,2023-08-13 05:56,-115.1344,35.9729,742.79,90.00,40.00,17.41,180.00,9.00,0.00,29.98,1013.40,10.00,M,CLR,M,M,M,M,M,M,M,M,M,M,M,M,M,M,86.11,KHND 130556Z AUTO 18009KT 10SM CLR 32/04 A2998 RMK AO2 SLP134 T03220044 10383 20322 51015,M
TPH,2023-08-13 05:56,-117.0904,38.0505,1654.00,68.00,43.00,40.31,0.00,0.00,0.00,30.20,1014.60,10.00,M,CLR,M,M,M,M,M,M,M,M,M,M,M,M,M,M,68.00,KTPH 130556Z AUTO 00000KT 10SM CLR 20/06 A3020 RMK AO2 SLP146 T02000061 10300 20200 50003 $,M
LAS,2023-08-13 05:56,-115.1634,36.0719,663.00,91.00,49.00,23.77,30.00,12.00,0.00,29.95,1011.00,10.00,M,FEW,SCT,M,M,10000.00,20000.00,M,M,M,M,M,M,M,M,M,87.83,KLAS 130556Z 03012KT 10SM FEW100 SCT200 33/09 A2995 RMK AO2 SLP110 T03280094 10389 20328 51021,M
BVU,2023-08-13 06:15,-114.8611,35.9475,671.00,84.20,51.80,32.73,60.00,4.00,0.00,29.95,M,10.00,M,CLR,M,M,M,M,M,M,M,M,M,M,M,M,M,M,82.48,KBVU 130615Z AUTO 06004KT 10SM CLR 29/11 A2995 RMK AO2,M
CXP,2023-08-13 06:15,-119.7326,39.1923,1431.00,75.20,51.80,43.97,180.00,4.00,0.00,30.17,M,10.00,M,CLR,M,M,M,M,M,M,M,M,M,M,M,M,M,M,75.20,KCXP 130615Z AUTO 18004KT 10SM CLR 24/11 A3017 RMK AO2,M
RTS,2023-08-13 06:15,-119.8764,39.6682,1539.00,73.40,50.00,43.69,290.00,9.00,0.00,30.19,M,10.00,M,CLR,M,M,M,M,M,M,M,M,M,M,M,M,M,M,73.40,KRTS 130615Z AUTO 29009KT 10SM CLR 23/10 A3019 RMK AO2,M
05U,2023-08-13 06:15,-116.0051,39.6042,1811.23,57.20,46.40,67.12,M,M,0.00,30.25,M,10.00,M,M,M,M,M,M,M,M,M,M,M,M,M,M,M,M,57.20,K05U 130615Z AUTO 10SM 14/08 A3025 RMK A01,M
MEV,2023-08-13 06:15,-119.7500,38.9963,1441.42,71.60,53.60,53.03,180.00,3.00,0.00,30.16,M,10.00,M,SCT,BKN,M,M,4500.00,12000.00,M,M,M,M,M,M,M,M,M,71.60,KMEV 130615Z AUTO 18003KT 10SM SCT045 BKN120 22/12 A3016 RMK AO2,M
HTH,2023-08-13 06:15,-118.6315,38.5448,1282.89,77.00,46.40,33.85,230.00,4.00,0.00,30.12,M,10.00,M,FEW,SCT,SCT,M,6500.00,8000.00,11000.00,M,M,M,M,M,M,M,M,77.00,KHTH 130615Z AUTO 23004KT 10SM FEW065 SCT080 SCT110 25/08 A3012 RMK A01,M
BAM,2023-08-13 06:15,-116.8743,40.5990,1382.36,80.60,32.00,17.14,30.00,5.00,0.00,30.15,M,10.00,M,CLR,M,M,M,M,M,M,M,M,M,M,M,M,M,M,78.82,KBAM 130615Z AUTO 03005KT 10SM CLR 27/00 A3015 RMK AO1,M
TMT,2023-08-13 06:15,-117.1971,39.4643,1749.34,55.40,43.70,64.65,0.00,0.00,0.00,30.24,M,M,M,SCT,M,M,M,12000.00,M,M,M,M,M,M,M,M,M,M,55.40,KTMT 130615Z AUTO 00000KT SCT120 13/07 A3024 RMK AO2 T01300065 PWINO,M
BVU,2023-08-13 06:35,-114.8611,35.9475,671.00,84.20,50.00,30.62,60.00,7.00,0.00,29.95,M,10.00,M,CLR,M,M,M,M,M,M,M,M,M,M,M,M,M,M,82.24,KBVU 130635Z AUTO 06007KT 10SM CLR 29/10 A2995 RMK AO2,M
CXP,2023-08-13 06:35,-119.7326,39.1923,1431.00,75.20,51.80,43.97,0.00,0.00,0.00,30.17,M,10.00,M,CLR,M,M,M,M,M,M,M,M,M,M,M,M,M,M,75.20,KCXP 130635Z AUTO 00000KT 10SM CLR 24/11 A3017 RMK AO2,M
RTS,2023-08-13 06:35,-119.8764,39.6682,1539.00,73.40,50.00,43.69,290.00,6.00,0.00,30.19,M,10.00,M,CLR,M,M,M,M,M,M,M,M,M,M,M,M,M,M,73.40,KRTS 130635Z AUTO 29006KT 10SM CLR 23/10 A3019 RMK AO2,M
05U,2023-08-13 06:35,-116.0051,39.6042,1811.23,57.20,48.20,71.83,M,M,0.00,30.26,M,10.00,M,M,M,M,M,M,M,M,M,M,M,M,M,M,M,M,57.20,K05U 130635Z AUTO 10SM 14/09 A3026 RMK A01,M
MEV,2023-08-13 06:35,-119.7500,38.9963,1441.42,71.60,53.60,53.03,80.00,6.00,0.00,30.16,M,10.00,M,FEW,FEW,SCT,M,3800.00,4500.00,12000.00,M,M,M,M,M,M,M,M,71.60,KMEV 130635Z AUTO 08006KT 10SM FEW038 FEW045 SCT120 22/12 A3016 RMK AO2,M
HTH,2023-08-13 06:35,-118.6315,38.5448,1282.89,75.20,50.00,41.14,0.00,0.00,0.00,30.12,M,10.00,M,FEW,FEW,BKN,M,5500.00,6500.00,12000.00,M,M,M,M,M,M,M,M,75.20,KHTH 130635Z AUTO 00000KT 10SM FEW055 FEW065 BKN120 24/10 A3012 RMK A01,M
BAM,2023-08-13 06:35,-116.8743,40.5990,1382.36,77.00,32.00,19.30,50.00,4.00,0.00,30.15,M,10.00,M,CLR,M,M,M,M,M,M,M,M,M,M,M,M,M,M,77.00,KBAM 130635Z AUTO 05004KT 10SM CLR 25/00 A3015 RMK AO1,M
TMT,2023-08-13 06:35,-117.1971,39.4643,1749.34,50.70,39.60,65.58,140.00,5.00,0.00,30.24,M,M,M,SCT,M,M,M,11000.00,M,M,M,M,M,M,M,M,M,M,50.70,KTMT 130635Z AUTO 14005KT SCT110 10/04 A3024 RMK AO2 T01040042 PWINO,M
CXP,2023-08-13 06:50,-119.7326,39.1923,1431.00,73.40,51.80,46.71,0.00,0.00,0.00,30.18,M,10.00,M,CLR,M,M,M,M,M,M,M,M,M,M,M,M,M,M,73.40,KCXP 130650Z AUTO 00000KT 10SM CLR 23/11 A3018 RMK AO2,M
P68,2023-08-13 06:53,-116.0056,39.6014,1993.00,60.00,47.00,62.11,180.00,5.00,0.00,30.23,1015.70,M,M,M,M,M,M,M,M,M,M,M,M,M,M,M,M,M,60.00,KP68 130653Z AUTO 18005KT 16/08 A3023 RMK AO1 SLP157 T01560083,M
DRA,2023-08-13 06:53,-116.0278,36.6206,1009.00,79.00,37.00,22.05,270.00,4.00,0.00,30.03,1011.40,10.00,M,CLR,M,M,M,M,M,M,M,M,M,M,M,M,M,M,79.00,KDRA 130653Z AUTO 27004KT 10SM CLR 26/03 A3003 RMK AO2 SLP114 T02610028,M
ELY,2023-08-13 06:53,-114.8453,39.2950,1909.00,62.00,45.00,53.63,200.00,12.00,0.00,30.26,1014.30,10.00,M,CLR,M,M,M,M,M,M,M,M,M,M,M,M,M,M,62.00,KELY 130653Z AUTO 20012KT 10SM CLR 17/07 A3026 RMK AO2 SLP143 T01670072,M
VGT,2023-08-13 06:53,-115.1933,36.2111,667.00,90.00,48.00,23.63,80.00,12.00,0.00,29.95,1012.70,10.00,M,CLR,M,M,M,M,M,M,M,M,M,M,M,M,M,M,86.78,KVGT 130653Z AUTO 08012KT 10SM CLR 32/09 A2995 RMK AO2 SLP127 T03220089,M
LOL,2023-08-13 06:53,-118.5701,40.0684,1192.43,69.00,44.00,40.47,10.00,6.00,0.00,30.07,1014.00,10.00,M,CLR,M,M,M,M,M,M,M,M,M,M,M,M,M,M,69.00,KLOL 130653Z AUTO 01006KT 10SM CLR 21/07 A3007 RMK AO2 SLP140 T02060067,M
BVU,2023-08-13 06:55,-114.8611,35.9475,671.00,86.00,50.00,28.90,80.00,5.00,0.00,29.95,M,10.00,M,CLR,M,M,M,M,M,M,M,M,M,M,M,M,M,M,83.62,KBVU 130655Z AUTO 08005KT 10SM CLR 30/10 A2995 RMK AO2,M
INS,2023-08-13 06:55,-115.6733,36.5872,955.00,82.00,47.50,29.95,100.00,3.00,0.00,30.02,1011.20,10.00,M,CLR,M,M,M,M,M,M,M,M,M,M,M,M,M,M,80.48,KINS 130655Z AUTO 10003KT 10SM CLR 28/09 A3002 RMK AO2 SLP112 T02780086 $,M
RNO,2023-08-13 06:55,-119.7711,39.4839,1341.00,80.00,52.00,37.79,270.00,4.00,0.00,30.13,1013.70,10.00,M,FEW,M,M,M,12000.00,M,M,M,M,M,M,M,M,M,M,79.75,KRNO 130655Z 27004KT 10SM FEW120 27/11 A3013 RMK AO2 SLP137 T02670111,M
RTS,2023-08-13 06:55,-119.8764,39.6682,1539.00,71.60,50.00,46.43,270.00,9.00,0.00,30.20,M,10.00,M,CLR,M,M,M,M,M,M,M,M,M,M,M,M,M,M,71.60,KRTS 130655Z AUTO 27009KT 10SM CLR 22/10 A3020 RMK AO2,M
05U,2023-08-13 06:55,-116.0051,39.6042,1811.23,59.00,48.20,67.33,M,M,0.00,30.25,M,10.00,M,M,M,M,M,M,M,M,M,M,M,M,M,M,M,M,59.00,K05U 130655Z AUTO 10SM 15/09 A3025 RMK A01,M
MEV,2023-08-13 06:55,-119.7500,38.9963,1441.42,71.60,53.60,53.03,140.00,5.00,0.00,30.17,M,10.00,M,FEW,FEW,M,M,4200.00,12000.00,M,M,M,M,M,M,M,M,M,71.60,KMEV 130655Z AUTO 14005KT 10SM FEW042 FEW120 22/12 A3017 RMK AO2,M
HTH,2023-08-13 06:55,-118.6315,38.5448,1282.89,73.40,48.20,40.85,130.00,7.00,0.00,30.13,M,10.00,M,SCT,M,M,M,12000.00,M,M,M,M,M,M,M,M,M,M,73.40,KHTH 130655Z AUTO 13007KT 10SM SCT120 23/09 A3013 RMK A01,M
BAM,2023-08-13 06:55,-116.8743,40.5990,1382.36,73.40,32.00,21.76,70.00,6.00,0.00,30.15,M,10.00,M,CLR,M,M,M,M,M,M,M,M,M,M,M,M,M,M,73.40,KBAM 130655Z AUTO 07006KT 10SM CLR 23/00 A3015 RMK AO1,M
TMT,2023-08-13 06:55,-117.1971,39.4643,1749.34,53.40,40.60,61.72,0.00,0.00,0.00,30.24,M,M,M,SCT,M,M,M,12000.00,M,M,M,M,M,M,M,M,M,M,53.40,KTMT 130655Z AUTO 00000KT SCT120 12/05 A3024 RMK AO2 T01190048 PWINO,M
LSV,2023-08-13 06:55,-115.0343,36.2362,570.00,88.50,48.20,24.96,30.00,15.00,0.00,29.91,1010.00,10.00,M,CLR,M,M,M,M,M,M,M,M,M,M,M,M,M,M,85.47,KLSV 130655Z AUTO 03015KT 10SM CLR 31/09 A2991 RMK AO2 SLP100 T03140090 $,M
EKO,2023-08-13 06:56,-115.7860,40.8242,1367.00,68.00,40.00,35.90,40.00,6.00,0.00,30.18,1015.80,10.00,M,CLR,M,M,M,M,M,M,M,M,M,M,M,M,M,M,68.00,KEKO 130656Z AUTO 04006KT 10SM CLR 20/04 A3018 RMK AO2 SLP158 T02000044,M
WMC,2023-08-13 06:56,-117.8072,40.9019,1315.00,77.00,30.00,17.80,M,4.00,0.00,30.14,1014.40,10.00,M,CLR,M,M,M,M,M,M,M,M,M,M,M,M,M,M,77.00,KWMC 130656Z AUTO VRB04KT 10SM CLR 25/M01 A3014 RMK AO2 SLP144 T02501011,M
NFL,2023-08-13 06:56,-118.7010,39.4166,1199.00,73.00,47.00,39.58,150.00,4.00,0.00,30.08,1015.20,10.00,M,CLR,M,M,M,M,M,M,M,M,M,M,M,M,M,M,73.00,KNFL 130656Z AUTO 15004KT 10SM CLR 23/08 A3008 RMK AO2 SLP152 T02280083,M
HND,2023-08-13 06:56,-115.1344,35.9729,742.79,88.00,48.00,25.17,210.00,3.00,0.00,30.00,1013.90,10.00,M,CLR,M,M,M,M,M,M,M,M,M,M,M,M,M,M,85.02,KHND 130656Z AUTO 21003KT 10SM CLR 31/09 A3000 RMK AO2 SLP139 T03110089 403890244,M
TPH,2023-08-13 06:56,-117.0904,38.0505,1654.00,66.00,43.00,43.20,90.00,4.00,0.00,30.21,1014.90,10.00,M,CLR,M,M,M,M,M,M,M,M,M,M,M,M,M,M,66.00,KTPH 130656Z AUTO 09004KT 10SM CLR 19/06 A3021 RMK AO2 SLP149 T01890061 $,M
LAS,2023-08-13 06:56,-115.1634,36.0719,663.00,89.00,48.00,24.39,60.00,9.00,0.00,29.96,1011.30,10.00,M,SCT,M,M,M,20000.00,M,M,M,M,M,M,M,M,M,M,85.89,KLAS 130656Z 06009KT 10SM SCT200 32/09 A2996 RMK AO2 SLP113 T03170089,M
BVU,2023-08-13 07:15,-114.8611,35.9475,671.00,86.00,48.20,27.03,0.00,0.00,0.00,29.95,M,10.00,M,CLR,M,M,M,M,M,M,M,M,M,M,M,M,M,M,83.40,KBVU 130715Z AUTO 00000KT 10SM CLR 30/09 A2995 RMK AO2,M
CXP,2023-08-13 07:15,-119.7326,39.1923,1431.00,73.40,51.80,46.71,M,3.00,0.00,30.18,M,10.00,M,CLR,M,M,M,M,M,M,M,M,M,M,M,M,M,M,73.40,KCXP 130715Z AUTO VRB03KT 10SM CLR 23/11 A3018 RMK AO2,M
RTS,2023-08-13 07:15,-119.8764,39.6682,1539.00,73.40,50.00,43.69,260.00,8.00,0.00,30.20,M,10.00,M,CLR,M,M,M,M,M,M,M,M,M,M,M,M,M,M,73.40,KRTS 130715Z AUTO 26008KT 10SM CLR 23/10 A3020 RMK AO2,M
05U,2023-08-13 07:15,-116.0051,39.6042,1811.23,60.80,48.20,63.15,M,M,0.00,30.26,M,10.00,M,M,M,M,M,M,M,M,M,M,M,M,M,M,M,M,60.80,K05U 130715Z AUTO 10SM 16/09 A3026 RMK A01,M
MEV,2023-08-13 07:15,-119.7500,38.9963,1441.42,69.80,53.60,56.38,0.00,0.00,0.00,30.17,M,10.00,M,FEW,M,M,M,4200.00,M,M,M,M,M,M,M,M,M,M,69.80,KMEV 130715Z AUTO 00000KT 10SM FEW042 21/12 A3017 RMK AO2,M
HTH,2023-08-13 07:15,-118.6315,38.5448,1282.89,77.00,41.00,27.53,180.00,14.00,0.00,30.13,M,10.00,M,SCT,M,M,M,12000.00,M,M,M,M,M,M,M,M,M,M,77.00,KHTH 130715Z AUTO 18014KT 10SM SCT120 25/05 A3013 RMK A01,M
BAM,2023-08-13 07:15,-116.8743,40.5990,1382.36,73.40,32.00,21.76,90.00,3.00,0.00,30.15,M,10.00,M,CLR,M,M,M,M,M,M,M,M,M,M,M,M,M,M,73.40,KBAM 130715Z AUTO 09003KT 10SM CLR 23/00 A3015 RMK AO1,M
TMT,2023-08-13 07:15,-117.1971,39.4643,1749.34,53.40,44.00,70.35,0.00,0.00,0.00,30.25,M,M,M,BKN,M,M,M,12000.00,M,M,M,M,M,M,M,M,M,M,53.40,KTMT 130715Z AUTO 00000KT BKN120 12/07 A3025 RMK AO2 T01190067 PWINO,M
BVU,2023-08-13 07:35,-114.8611,35.9475,671.00,84.20,50.00,30.62,50.00,7.00,0.00,29.95,M,10.00,M,CLR,M,M,M,M,M,M,M,M,M,M,M,M,M,M,82.24,KBVU 130735Z AUTO 05007KT 10SM CLR 29/10 A2995 RMK AO2,M
CXP,2023-08-13 07:35,-119.7326,39.1923,1431.00,71.60,53.60,53.03,0.00,0.00,0.00,30.18,M,10.00,M,CLR,M,M,M,M,M,M,M,M,M,M,M,M,M,M,71.60,KCXP 130735Z AUTO 00000KT 10SM CLR 22/12 A3018 RMK AO2,M
RTS,2023-08-13 07:35,-119.8764,39.6682,1539.00,71.60,50.00,46.43,300.00,9.00,0.00,30.20,M,10.00,M,CLR,M,M,M,M,M,M,M,M,M,M,M,M,M,M,71.60,KRTS 130735Z AUTO 30009KT 10SM CLR 22/10 A3020 RMK AO2,M
05U,2023-08-13 07:35,-116.0051,39.6042,1811.23,59.00,48.20,67.33,M,M,0.00,30.26,M,10.00,M,M,M,M,M,M,M,M,M,M,M,M,M,M,M,M,59.00,K05U 130735Z AUTO 10SM 15/09 A3026 RMK A01,M
MEV,2023-08-13 07:35,-119.7500,38.9963,1441.42,69.80,53.60,56.38,0.00,0.00,0.00,30.17,M,10.00,M,CLR,M,M,M,M,M,M,M,M,M,M,M,M,M,M,69.80,KMEV 130735Z AUTO 00000KT 10SM CLR 21/12 A3017 RMK AO2,M
HTH,2023-08-13 07:35,-118.6315,38.5448,1282.89,77.00,46.40,33.85,260.00,8.00,0.00,30.12,M,10.00,M,FEW,SCT,M,M,9000.00,12000.00,M,M,M,M,M,M,M,M,M,77.00,KHTH 130735Z AUTO 26008KT 10SM FEW090 SCT120 25/08 A3012 RMK A01,M
TMT,2023-08-13 07:35,-117.1971,39.4643,1749.34,54.70,44.80,69.16,0.00,0.00,0.00,30.25,M,M,M,OVC,M,M,M,12000.00,M,M,M,M,M,M,M,M,M,M,54.70,KTMT 130735Z AUTO 00000KT OVC120 13/07 A3025 RMK AO2 T01260071 PWINO,M
BAM,2023-08-13 07:35,-116.8743,40.5990,1382.36,71.60,32.00,23.13,60.00,3.00,0.00,30.16,M,10.00,M,CLR,M,M,M,M,M,M,M,M,M,M,M,M,M,M,71.60,KBAM 130735Z AUTO 06003KT 10SM CLR 22/00 A3016 RMK AO1,M
P68,2023-08-13 07:53,-116.0056,39.6014,1993.00,59.00,48.00,66.83,140.00,5.00,0.00,30.24,1015.50,M,M,M,M,M,M,M,M,M,M,M,M,M,M,M,M,M,59.00,KP68 130753Z AUTO 14005KT 15/09 A3024 RMK AO1 SLP155 T01500089 403060139,M
DRA,2023-08-13 07:53,-116.0278,36.6206,1009.00,77.00,40.00,26.49,10.00,5.00,0.00,30.03,1011.40,10.00,M,CLR,M,M,M,M,M,M,M,M,M,M,M,M,M,M,77.00,KDRA 130753Z AUTO 01005KT 10SM CLR 25/04 A3003 RMK AO2 SLP114 T02500044 403720211,M
ELY,2023-08-13 07:53,-114.8453,39.2950,1909.00,56.00,46.00,69.05,210.00,3.00,0.00,30.27,1015.00,10.00,M,SCT,OVC,M,M,10000.00,12000.00,M,M,M,M,M,M,M,M,M,56.00,KELY 130753Z AUTO 21003KT 10SM SCT100 OVC120 13/08 A3027 RMK AO2 SLP150 T01330078 402830100,M
VGT,2023-08-13 07:53,-115.1933,36.2111,667.00,89.00,48.00,24.39,M,3.00,0.00,29.96,1013.00,10.00,M,CLR,M,M,M,M,M,M,M,M,M,M,M,M,M,M,85.89,KVGT 130753Z AUTO VRB03KT 10SM CLR 32/09 A2996 RMK AO2 SLP130 T03170089 403940267,M
LOL,2023-08-13 07:53,-118.5701,40.0684,1192.43,72.00,42.00,33.84,50.00,8.00,0.00,30.08,1014.00,10.00,M,CLR,M,M,M,M,M,M,M,M,M,M,M,M,M,M,72.00,KLOL 130753Z AUTO 05008KT 10SM CLR 22/06 A3008 RMK AO2 SLP140 T02220056 403560144,M
BVU,2023-08-13 07:55,-114.8611,35.9475,671.00,86.00,48.20,27.03,40.00,5.00,0.00,29.95,M,10.00,M,CLR,M,M,M,M,M,M,M,M,M,M,M,M,M,M,83.40,KBVU 130755Z AUTO 04005KT 10SM CLR 30/09 A2995 RMK AO2,M
CXP,2023-08-13 07:55,-119.7326,39.1923,1431.00,73.40,51.80,46.71,0.00,0.00,0.00,30.18,M,10.00,M,CLR,M,M,M,M,M,M,M,M,M,M,M,M,M,M,73.40,KCXP 130755Z AUTO 00000KT 10SM CLR 23/11 A3018 RMK AO2,M
INS,2023-08-13 07:55,-115.6733,36.5872,955.00,79.30,47.00,32.10,150.00,4.00,0.00,30.01,1011.00,10.00,M,CLR,M,M,M,M,M,M,M,M,M,M,M,M,M,M,79.30,KINS 130755Z AUTO 15004KT 10SM CLR 26/08 A3001 RMK AO2 SLP110 T02630083 403500198 $,M
RNO,2023-08-13 07:55,-119.7711,39.4839,1341.00,78.00,52.00,40.36,200.00,5.00,0.00,30.14,1013.80,10.00,M,FEW,M,M,M,12000.00,M,M,M,M,M,M,M,M,M,M,78.00,KRNO 130755Z 20005KT 10SM FEW120 26/11 A3014 RMK AO2 SLP138 T02560111 403610183,M
LSV,2023-08-13 07:55,-115.0343,36.2362,570.00,87.60,48.40,25.88,30.00,15.00,0.00,29.91,1009.90,10.00,M,CLR,M,M,M,M,M,M,M,M,M,M,M,M,M,M,84.73,KLSV 130755Z AUTO 03015KT 10SM CLR 31/09 A2991 RMK AO2 SLP099 T03090091 404070243 $,M
RTS,2023-08-13 07:55,-119.8764,39.6682,1539.00,71.60,50.00,46.43,300.00,10.00,0.00,30.20,M,10.00,M,CLR,M,M,M,M,M,M,M,M,M,M,M,M,M,M,71.60,KRTS 130755Z AUTO 30010KT 10SM CLR 22/10 A3020 RMK AO2,M
05U,2023-08-13 07:55,-116.0051,39.6042,1811.23,59.00,48.20,67.33,M,M,0.00,30.26,M,10.00,M,M,M,M,M,M,M,M,M,M,M,M,M,M,M,M,59.00,K05U 130755Z AUTO 10SM 15/09 A3026 RMK A01,M
MEV,2023-08-13 07:55,-119.7500,38.9963,1441.42,68.00,53.60,59.97,110.00,3.00,0.00,30.17,M,10.00,M,FEW,M,M,M,4500.00,M,M,M,M,M,M,M,M,M,M,68.00,KMEV 130755Z AUTO 11003KT 10SM FEW045 20/12 A3017 RMK AO2,M
HTH,2023-08-13 07:55,-118.6315,38.5448,1282.89,75.20,48.20,38.46,120.00,4.00,0.00,30.11,M,10.00,M,FEW,SCT,M,M,8500.00,12000.00,M,M,M,M,M,M,M,M,M,75.20,KHTH 130755Z AUTO 12004KT 10SM FEW085 SCT120 24/09 A3011 RMK A01,M
EKO,2023-08-13 07:56,-115.7860,40.8242,1367.00,66.00,37.00,34.21,100.00,3.00,0.00,30.19,1016.10,10.00,M,CLR,M,M,M,M,M,M,M,M,M,M,M,M,M,M,66.00,KEKO 130756Z AUTO 10003KT 10SM CLR 19/03 A3019 RMK AO2 SLP161 T01890028 403330128,M
WMC,2023-08-13 07:56,-117.8072,40.9019,1315.00,74.00,27.00,17.39,40.00,8.00,0.00,30.14,1014.60,10.00,M,CLR,M,M,M,M,M,M,M,M,M,M,M,M,M,M,74.00,KWMC 130756Z AUTO 04008KT 10SM CLR 23/M03 A3014 RMK AO2 SLP146 T02331028 403670111,M
NFL,2023-08-13 07:56,-118.7010,39.4166,1199.00,72.00,42.00,33.84,170.00,5.00,0.00,30.08,1015.30,10.00,M,CLR,M,M,M,M,M,M,M,M,M,M,M,M,M,M,72.00,KNFL 130756Z AUTO 17005KT 10SM CLR 22/06 A3008 RMK AO2 SLP153 T02220056 403560189,M
HND,2023-08-13 07:56,-115.1344,35.9729,742.79,86.00,46.00,24.88,170.00,6.00,0.00,29.99,1013.90,10.00,M,CLR,M,M,M,M,M,M,M,M,M,M,M,M,M,M,83.19,KHND 130756Z AUTO 17006KT 10SM CLR 30/08 A2999 RMK AO2 SLP139 T03000078,M
TPH,2023-08-13 07:56,-117.0904,38.0505,1654.00,66.00,43.00,43.20,360.00,7.00,0.00,30.21,1014.60,10.00,M,CLR,M,M,M,M,M,M,M,M,M,M,M,M,M,M,66.00,KTPH 130756Z AUTO 36007KT 10SM CLR 19/06 A3021 RMK AO2 SLP146 T01890061 403170150 $,M
LAS,2023-08-13 07:56,-115.1634,36.0719,663.00,87.00,48.00,25.98,10.00,8.00,0.00,29.96,1011.40,10.00,M,FEW,M,M,M,20000.00,M,M,M,M,M,M,M,M,M,M,84.18,KLAS 130756Z 01008KT 10SM FEW200 31/09 A2996 RMK AO2 SLP114 T03060089 403890267,M
BVU,2023-08-13 08:15,-114.8611,35.9475,671.00,82.40,50.00,32.46,20.00,3.00,0.00,29.95,M,10.00,M,CLR,M,M,M,M,M,M,M,M,M,M,M,M,M,M,80.99,KBVU 130815Z AUTO 02003KT 10SM CLR 28/10 A2995 RMK AO2,M
CXP,2023-08-13 08:15,-119.7326,39.1923,1431.00,69.80,51.80,52.77,0.00,0.00,0.00,30.18,M,10.00,M,CLR,M,M,M,M,M,M,M,M,M,M,M,M,M,M,69.80,KCXP 130815Z AUTO 00000KT 10SM CLR 21/11 A3018 RMK AO2,M
RTS,2023-08-13 08:15,-119.8764,39.6682,1539.00,69.80,50.00,49.37,300.00,7.00,0.00,30.20,M,10.00,M,FEW,M,M,M,12000.00,M,M,M,M,M,M,M,M,M,M,69.80,KRTS 130815Z AUTO 30007KT 10SM FEW120 21/10 A3020 RMK AO2,M
05U,2023-08-13 08:15,-116.0051,39.6042,1811.23,60.80,46.40,59.01,M,M,0.00,30.26,M,10.00,M,M,M,M,M,M,M,M,M,M,M,M,M,M,M,M,60.80,K05U 130815Z AUTO 10SM 16/08 A3026 RMK A01,M
MEV,2023-08-13 08:15,-119.7500,38.9963,1441.42,68.00,51.80,56.13,0.00,0.00,0.00,30.17,M,10.00,M,FEW,M,M,M,4400.00,M,M,M,M,M,M,M,M,M,M,68.00,KMEV 130815Z AUTO 00000KT 10SM FEW044 20/11 A3017 RMK AO2,M
BAM,2023-08-13 08:15,-116.8743,40.5990,1382.36,69.80,35.60,28.39,360.00,6.00,0.00,30.16,M,10.00,M,CLR,M,M,M,M,M,M,M,M,M,M,M,M,M,M,69.80,KBAM 130815Z AUTO 36006KT 10SM CLR 21/02 A3016 RMK AO1,M
HTH,2023-08-13 08:15,-118.6315,38.5448,1282.89,73.40,48.20,40.85,120.00,6.00,0.00,30.12,M,10.00,M,SCT,M,M,M,12000.00,M,M,M,M,M,M,M,M,M,M,73.40,KHTH 130815Z AUTO 12006KT 10SM SCT120 23/09 A3012 RMK A01,M
TMT,2023-08-13 08:15,-117.1971,39.4643,1749.34,50.00,39.00,65.75,0.00,0.00,0.00,30.25,M,M,M,SCT,M,M,M,12000.00,M,M,M,M,M,M,M,M,M,M,50.00,KTMT 130815Z AUTO 00000KT SCT120 10/04 A3025 RMK AO2 T01000039 PWINO,M
BVU,2023-08-13 08:35,-114.8611,35.9475,671.00,80.60,53.60,39.30,40.00,5.00,0.00,29.95,M,10.00,M,CLR,M,M,M,M,M,M,M,M,M,M,M,M,M,M,80.29,KBVU 130835Z AUTO 04005KT 10SM CLR 27/12 A2995 RMK AO2,M
CXP,2023-08-13 08:35,-119.7326,39.1923,1431.00,71.60,51.80,49.64,340.00,3.00,0.00,30.18,M,10.00,M,CLR,M,M,M,M,M,M,M,M,M,M,M,M,M,M,71.60,KCXP 130835Z AUTO 34003KT 10SM CLR 22/11 A3018 RMK AO2,M
RTS,2023-08-13 08:35,-119.8764,39.6682,1539.00,71.60,50.00,46.43,290.00,9.00,0.00,30.20,M,10.00,M,CLR,M,M,M,M,M,M,M,M,M,M,M,M,M,M,71.60,KRTS 130835Z AUTO 29009KT 10SM CLR 22/10 A3020 RMK AO2,M
05U,2023-08-13 08:35,-116.0051,39.6042,1811.23,60.80,46.40,59.01,M,M,0.00,30.26,M,10.00,M,M,M,M,M,M,M,M,M,M,M,M,M,M,M,M,60.80,K05U 130835Z AUTO 10SM 16/08 A3026 RMK A01,M
MEV,2023-08-13 08:35,-119.7500,38.9963,1441.42,66.20,51.80,59.74,150.00,5.00,0.00,30.16,M,10.00,M,FEW,FEW,SCT,M,3500.00,4300.00,12000.00,M,M,M,M,M,M,M,M,66.20,KMEV 130835Z AUTO 15005KT 10SM FEW035 FEW043 SCT120 19/11 A3016 RMK AO2,M
HTH,2023-08-13 08:35,-118.6315,38.5448,1282.89,73.40,50.00,43.69,140.00,6.00,0.00,30.12,M,10.00,M,FEW,M,M,M,11000.00,M,M,M,M,M,M,M,M,M,M,73.40,KHTH 130835Z AUTO 14006KT 10SM FEW110 23/10 A3012 RMK A01,M
BAM,2023-08-13 08:35,-116.8743,40.5990,1382.36,69.80,33.80,26.43,30.00,4.00,0.00,30.17,M,10.00,M,CLR,M,M,M,M,M,M,M,M,M,M,M,M,M,M,69.80,KBAM 130835Z AUTO 03004KT 10SM CLR 21/01 A3017 RMK AO1,M
TMT,2023-08-13 08:35,-117.1971,39.4643,1749.34,49.00,39.60,69.87,170.00,5.00,0.00,30.25,M,M,M,CLR,M,M,M,M,M,M,M,M,M,M,M,M,M,M,46.58,KTMT 130835Z AUTO 17005KT CLR 10/04 A3025 RMK AO2 T00950042 PWINO,M
05U,2023-08-13 08:50,-116.0051,39.6042,1811.23,59.00,46.40,62.92,M,M,0.00,30.26,M,10.00,M,M,M,M,M,M,M,M,M,M,M,M,M,M,M,M,59.00,K05U 130850Z AUTO 10SM 15/08 A3026 RMK A01,M
P68,2023-08-13 08:53,-116.0056,39.6014,1993.00,59.00,47.00,64.36,190.00,4.00,0.00,30.24,1015.40,M,M,M,M,M,M,M,M,M,M,M,M,M,M,M,M,M,59.00,KP68 130853Z AUTO 19004KT 15/08 A3024 RMK AO1 SLP154 T01500083 51003,M
DRA,2023-08-13 08:53,-116.0278,36.6206,1009.00,73.00,41.00,31.47,0.00,0.00,0.00,30.03,1011.70,10.00,M,CLR,M,M,M,M,M,M,M,M,M,M,M,M,M,M,73.00,KDRA 130853Z AUTO 00000KT 10SM CLR 23/05 A3003 RMK AO2 SLP117 T02280050 53001,M
ELY,2023-08-13 08:53,-114.8453,39.2950,1909.00,58.00,46.00,64.24,120.00,5.00,0.00,30.28,1016.20,10.00,M,OVC,M,M,M,11000.00,M,M,M,M,M,M,M,M,M,M,58.00,KELY 130853Z AUTO 12005KT 10SM OVC110 14/08 A3028 RMK AO2 SLP162 T01440078 53005,M
VGT,2023-08-13 08:53,-115.1933,36.2111,667.00,88.00,49.00,26.13,0.00,0.00,0.00,29.96,1012.90,10.00,M,CLR,M,M,M,M,M,M,M,M,M,M,M,M,M,M,85.14,KVGT 130853Z AUTO 00000KT 10SM CLR 31/09 A2996 RMK AO2 SLP129 T03110094 52003,M
LOL,2023-08-13 08:53,-118.5701,40.0684,1192.43,72.00,35.00,25.73,50.00,8.00,0.00,30.09,1014.10,10.00,M,CLR,M,M,M,M,M,M,M,M,M,M,M,M,M,M,72.00,KLOL 130853Z AUTO 05008KT 10SM CLR 22/02 A3009 RMK AO2 SLP141 T02220017 51008,M
BVU,2023-08-13 08:55,-114.8611,35.9475,671.00,82.40,50.00,32.46,30.00,7.00,0.00,29.95,M,10.00,M,CLR,M,M,M,M,M,M,M,M,M,M,M,M,M,M,80.99,KBVU 130855Z AUTO 03007KT 10SM CLR 28/10 A2995 RMK AO2,M
CXP,2023-08-13 08:55,-119.7326,39.1923,1431.00,69.80,51.80,52.77,0.00,0.00,0.00,30.18,M,10.00,M,CLR,M,M,M,M,M,M,M,M,M,M,M,M,M,M,69.80,KCXP 130855Z AUTO 00000KT 10SM CLR 21/11 A3018 RMK AO2,M
INS,2023-08-13 08:55,-115.6733,36.5872,955.00,75.20,45.70,35.00,290.00,5.00,0.00,30.02,1011.50,10.00,M,CLR,M,M,M,M,M,M,M,M,M,M,M,M,M,M,75.20,KINS 130855Z AUTO 29005KT 10SM CLR 24/08 A3002 RMK AO2 SLP115 T02400076 50004 $,M
RNO,2023-08-13 08:55,-119.7711,39.4839,1341.00,76.00,45.00,33.19,220.00,3.00,0.00,30.14,1013.90,10.00,M,FEW,M,M,M,12000.00,M,M,M,M,M,M,M,M,M,M,76.00,KRNO 130855Z 22003KT 10SM FEW120 24/07 A3014 RMK AO2 SLP139 T02440072 53004,M
LSV,2023-08-13 08:55,-115.0343,36.2362,570.00,86.00,48.00,26.82,60.00,8.00,0.00,29.92,1010.30,10.00,M,CLR,M,M,M,M,M,M,M,M,M,M,M,M,M,M,83.38,KLSV 130855Z AUTO 06008KT 10SM CLR 30/09 A2992 RMK AO2 SLP103 T02990089 50001 $,M
RTS,2023-08-13 08:55,-119.8764,39.6682,1539.00,69.80,48.20,46.16,310.00,9.00,0.00,30.20,M,10.00,M,CLR,M,M,M,M,M,M,M,M,M,M,M,M,M,M,69.80,KRTS 130855Z AUTO 31009KT 10SM CLR 21/09 A3020 RMK AO2,M
MEV,2023-08-13 08:55,-119.7500,38.9963,1441.42,64.40,51.80,63.60,120.00,4.00,0.00,30.17,M,10.00,M,CLR,M,M,M,M,M,M,M,M,M,M,M,M,M,M,64.40,KMEV 130855Z AUTO 12004KT 10SM CLR 18/11 A3017 RMK AO2,M
HTH,2023-08-13 08:55,-118.6315,38.5448,1282.89,73.40,51.80,46.71,160.00,5.00,0.00,30.13,M,10.00,M,FEW,M,M,M,11000.00,M,M,M,M,M,M,M,M,M,M,73.40,KHTH 130855Z AUTO 16005KT 10SM FEW110 23/11 A3013 RMK A01,M
BAM,2023-08-13 08:55,-116.8743,40.5990,1382.36,68.00,33.80,28.11,340.00,5.00,0.00,30.17,M,10.00,M,CLR,M,M,M,M,M,M,M,M,M,M,M,M,M,M,68.00,KBAM 130855Z AUTO 34005KT 10SM CLR 20/01 A3017 RMK AO1,M
TMT,2023-08-13 08:55,-117.1971,39.4643,1749.34,50.40,40.60,68.94,240.00,4.00,0.00,30.25,M,M,M,CLR,M,M,M,M,M,M,M,M,M,M,M,M,M,M,50.40,KTMT 130855Z AUTO 24004KT CLR 10/05 A3025 RMK AO2 T01020048 PWINO,M
EKO,2023-08-13 08:56,-115.7860,40.8242,1367.00,57.00,42.00,57.16,260.00,4.00,0.00,30.20,1016.90,10.00,M,CLR,M,M,M,M,M,M,M,M,M,M,M,M,M,M,57.00,KEKO 130856Z AUTO 26004KT 10SM CLR 14/06 A3020 RMK AO2 SLP169 T01390056 53008,M
WMC,2023-08-13 08:56,-117.8072,40.9019,1315.00,73.00,27.00,17.99,50.00,9.00,0.00,30.14,1014.70,10.00,M,CLR,M,M,M,M,M,M,M,M,M,M,M,M,M,M,73.00,KWMC 130856Z AUTO 05009KT 10SM CLR 23/M03 A3014 RMK AO2 SLP147 T02281028 51008,M
NFL,2023-08-13 08:56,-118.7010,39.4166,1199.00,68.00,42.00,38.79,130.00,5.00,0.00,30.09,1015.50,10.00,M,CLR,M,M,M,M,M,M,M,M,M,M,M,M,M,M,68.00,KNFL 130856Z AUTO 13005KT 10SM CLR 20/06 A3009 RMK AO2 SLP155 T02000056 53004,M
HND,2023-08-13 08:56,-115.1344,35.9729,742.79,83.00,47.00,28.45,340.00,5.00,0.00,30.00,1014.30,10.00,M,CLR,M,M,M,M,M,M,M,M,M,M,M,M,M,M,81.09,KHND 130856Z AUTO 34005KT 10SM CLR 28/08 A3000 RMK AO2 SLP143 T02830083 51007,M
TPH,2023-08-13 08:56,-117.0904,38.0505,1654.00,68.00,44.00,41.88,10.00,10.00,0.00,30.20,1014.10,10.00,M,CLR,M,M,M,M,M,M,M,M,M,M,M,M,M,M,68.00,KTPH 130856Z AUTO 01010KT 10SM CLR 20/07 A3020 RMK AO2 SLP141 T02000067 58001 $,M
LAS,2023-08-13 08:56,-115.1634,36.0719,663.00,87.00,49.00,26.97,340.00,6.00,0.00,29.96,1011.50,10.00,M,CLR,M,M,M,M,M,M,M,M,M,M,M,M,M,M,84.30,KLAS 130856Z 34006KT 10SM CLR 31/09 A2996 RMK AO2 SLP115 T03060094 51004,M
BVU,2023-08-13 09:15,-114.8611,35.9475,671.00,82.40,50.00,32.46,50.00,6.00,0.00,29.95,M,10.00,M,CLR,M,M,M,M,M,M,M,M,M,M,M,M,M,M,80.99,KBVU 130915Z AUTO 05006KT 10SM CLR 28/10 A2995 RMK AO2,M
CXP,2023-08-13 09:15,-119.7326,39.1923,1431.00,68.00,51.80,56.13,0.00,0.00,0.00,30.18,M,10.00,M,CLR,M,M,M,M,M,M,M,M,M,M,M,M,M,M,68.00,KCXP 130915Z AUTO 00000KT 10SM CLR 20/11 A3018 RMK AO2,M
RTS,2023-08-13 09:15,-119.8764,39.6682,1539.00,68.00,48.20,49.10,340.00,7.00,0.00,30.20,M,10.00,M,CLR,M,M,M,M,M,M,M,M,M,M,M,M,M,M,68.00,KRTS 130915Z AUTO 34007KT 10SM CLR 20/09 A3020 RMK AO2,M
05U,2023-08-13 09:15,-116.0051,39.6042,1811.23,57.20,46.40,67.12,M,M,0.00,30.27,M,10.00,M,M,M,M,M,M,M,M,M,M,M,M,M,M,M,M,57.20,K05U 130915Z AUTO 10SM 14/08 A3027 RMK A01,M
MEV,2023-08-13 09:15,-119.7500,38.9963,1441.42,62.60,50.00,63.38,0.00,0.00,0.00,30.17,M,10.00,M,CLR,M,M,M,M,M,M,M,M,M,M,M,M,M,M,62.60,KMEV 130915Z AUTO 00000KT 10SM CLR 17/10 A3017 RMK AO2,M
HTH,2023-08-13 09:15,-118.6315,38.5448,1282.89,73.40,48.20,40.85,190.00,4.00,0.00,30.13,M,10.00,M,FEW,M,M,M,12000.00,M,M,M,M,M,M,M,M,M,M,73.40,KHTH 130915Z AUTO 19004KT 10SM FEW120 23/09 A3013 RMK A01,M
BAM,2023-08-13 09:15,-116.8743,40.5990,1382.36,66.20,35.60,32.14,360.00,7.00,0.00,30.17,M,10.00,M,CLR,M,M,M,M,M,M,M,M,M,M,M,M,M,M,66.20,KBAM 130915Z AUTO 36007KT 10SM CLR 19/02 A3017 RMK AO1,M
TMT,2023-08-13 09:15,-117.1971,39.4643,1749.34,49.60,41.00,72.14,0.00,0.00,0.00,30.25,M,M,M,CLR,M,M,M,M,M,M,M,M,M,M,M,M,M,M,49.60,KTMT 130915Z AUTO 00000KT CLR 10/05 A3025 RMK AO2 T00980051 PWINO,M
BVU,2023-08-13 09:35,-114.8611,35.9475,671.00,82.40,50.00,32.46,50.00,4.00,0.00,29.95,M,10.00,M,CLR,M,M,M,M,M,M,M,M,M,M,M,M,M,M,80.99,KBVU 130935Z AUTO 05004KT 10SM CLR 28/10 A2995 RMK AO2,M
CXP,2023-08-13 09:35,-119.7326,39.1923,1431.00,68.00,51.80,56.13,310.00,4.00,0.00,30.18,M,10.00,M,CLR,M,M,M,M,M,M,M,M,M,M,M,M,M,M,68.00,KCXP 130935Z AUTO 31004KT 10SM CLR 20/11 A3018 RMK AO2,M
RTS,2023-08-13 09:35,-119.8764,39.6682,1539.00,66.20,48.20,52.25,320.00,7.00,0.00,30.21,M,10.00,M,CLR,M,M,M,M,M,M,M,M,M,M,M,M,M,M,66.20,KRTS 130935Z AUTO 32007KT 10SM CLR 19/09 A3021 RMK AO2,M
05U,2023-08-13 09:35,-116.0051,39.6042,1811.23,55.40,46.40,71.64,M,M,0.00,30.27,M,10.00,M,M,M,M,M,M,M,M,M,M,M,M,M,M,M,M,55.40,K05U 130935Z AUTO 10SM 13/08 A3027 RMK A01,M
MEV,2023-08-13 09:35,-119.7500,38.9963,1441.42,62.60,48.20,59.26,120.00,5.00,0.00,30.17,M,10.00,M,CLR,M,M,M,M,M,M,M,M,M,M,M,M,M,M,62.60,KMEV 130935Z AUTO 12005KT 10SM CLR 17/09 A3017 RMK AO2,M
HTH,2023-08-13 09:35,-118.6315,38.5448,1282.89,73.40,48.20,40.85,0.00,0.00,0.00,30.12,M,10.00,M,FEW,FEW,SCT,M,7500.00,8500.00,11000.00,M,M,M,M,M,M,M,M,73.40,KHTH 130935Z AUTO 00000KT 10SM FEW075 FEW085 SCT110 23/09 A3012 RMK A01,M
BAM,2023-08-13 09:35,-116.8743,40.5990,1382.36,68.00,33.80,28.11,350.00,7.00,0.00,30.17,M,10.00,M,CLR,M,M,M,M,M,M,M,M,M,M,M,M,M,M,68.00,KBAM 130935Z AUTO 35007KT 10SM CLR 20/01 A3017 RMK AO1,M
TMT,2023-08-13 09:35,-117.1971,39.4643,1749.34,45.70,37.80,73.73,0.00,0.00,0.00,30.25,M,M,M,CLR,M,M,M,M,M,M,M,M,M,M,M,M,M,M,45.70,KTMT 130935Z AUTO 00000KT CLR 08/03 A3025 RMK AO2 T00760032 PWINO,M
VGT,2023-08-13 09:53,-115.1933,36.2111,667.00,86.00,50.00,28.90,260.00,3.00,0.00,29.96,1012.80,10.00,M,CLR,M,M,M,M,M,M,M,M,M,M,M,M,M,M,83.62,KVGT 130953Z AUTO 26003KT 10SM CLR 30/10 A2996 RMK AO2 SLP128 T03000100,M
P68,2023-08-13 09:53,-116.0056,39.6014,1993.00,57.00,46.00,66.59,190.00,4.00,0.00,30.24,1015.50,M,M,M,M,M,M,M,M,M,M,M,M,M,M,M,M,M,57.00,KP68 130953Z AUTO 19004KT 14/08 A3024 RMK AO1 SLP155 T01390078,M
DRA,2023-08-13 09:53,-116.0278,36.6206,1009.00,71.00,42.00,35.01,0.00,0.00,0.00,30.03,1011.70,10.00,M,CLR,M,M,M,M,M,M,M,M,M,M,M,M,M,M,71.00,KDRA 130953Z AUTO 00000KT 10SM CLR 22/06 A3003 RMK AO2 SLP117 T02170056,M
ELY,2023-08-13 09:53,-114.8453,39.2950,1909.00,53.00,46.00,77.03,180.00,8.00,0.00,30.28,1016.60,10.00,M,BKN,M,M,M,12000.00,M,M,M,M,M,M,M,M,M,M,53.00,KELY 130953Z AUTO 18008KT 10SM BKN120 12/08 A3028 RMK AO2 SLP166 T01170078,M
LOL,2023-08-13 09:53,-118.5701,40.0684,1192.43,63.00,38.00,39.51,60.00,6.00,0.00,30.10,1014.90,10.00,M,CLR,M,M,M,M,M,M,M,M,M,M,M,M,M,M,63.00,KLOL 130953Z AUTO 06006KT 10SM CLR 17/03 A3010 RMK AO2 SLP149 T01720033,M
BVU,2023-08-13 09:55,-114.8611,35.9475,671.00,78.80,51.80,39.02,80.00,3.00,0.00,29.95,M,10.00,M,CLR,M,M,M,M,M,M,M,M,M,M,M,M,M,M,78.80,KBVU 130955Z AUTO 08003KT 10SM CLR 26/11 A2995 RMK AO2,M
CXP,2023-08-13 09:55,-119.7326,39.1923,1431.00,64.40,51.80,63.60,0.00,0.00,0.00,30.18,M,10.00,M,CLR,M,M,M,M,M,M,M,M,M,M,M,M,M,M,64.40,KCXP 130955Z AUTO 00000KT 10SM CLR 18/11 A3018 RMK AO2,M
INS,2023-08-13 09:55,-115.6733,36.5872,955.00,73.40,44.80,35.93,230.00,5.00,0.00,30.02,1011.50,10.00,M,CLR,M,M,M,M,M,M,M,M,M,M,M,M,M,M,73.40,KINS 130955Z AUTO 23005KT 10SM CLR 23/07 A3002 RMK AO2 SLP115 T02300071 $,M
RNO,2023-08-13 09:55,-119.7711,39.4839,1341.00,74.00,48.00,39.74,0.00,0.00,0.00,30.15,1014.20,10.00,M,CLR,M,M,M,M,M,M,M,M,M,M,M,M,M,M,74.00,KRNO 130955Z 00000KT 10SM CLR 23/09 A3015 RMK AO2 SLP142 T02330089,M
LSV,2023-08-13 09:55,-115.0343,36.2362,570.00,83.30,47.70,28.93,70.00,6.00,0.00,29.91,1010.00,10.00,M,CLR,M,M,M,M,M,M,M,M,M,M,M,M,M,M,81.35,KLSV 130955Z AUTO 07006KT 10SM CLR 29/09 A2991 RMK AO2 SLP100 T02850087 $,M
RTS,2023-08-13 09:55,-119.8764,39.6682,1539.00,66.20,48.20,52.25,330.00,6.00,0.00,30.21,M,10.00,M,CLR,M,M,M,M,M,M,M,M,M,M,M,M,M,M,66.20,KRTS 130955Z AUTO 33006KT 10SM CLR 19/09 A3021 RMK AO2,M
05U,2023-08-13 09:55,-116.0051,39.6042,1811.23,55.40,46.40,71.64,M,M,0.00,30.26,M,10.00,M,M,M,M,M,M,M,M,M,M,M,M,M,M,M,M,55.40,K05U 130955Z AUTO 10SM 13/08 A3026 RMK A01,M
MEV,2023-08-13 09:55,-119.7500,38.9963,1441.42,60.80,48.20,63.15,160.00,3.00,0.00,30.17,M,10.00,M,FEW,FEW,M,M,5000.00,6000.00,M,M,M,M,M,M,M,M,M,60.80,KMEV 130955Z AUTO 16003KT 10SM FEW050 FEW060 16/09 A3017 RMK AO2,M
HTH,2023-08-13 09:55,-118.6315,38.5448,1282.89,73.40,50.00,43.69,40.00,6.00,0.00,30.12,M,10.00,M,FEW,SCT,BKN,M,4100.00,8000.00,11000.00,M,M,M,M,M,M,M,M,73.40,KHTH 130955Z AUTO 04006KT 10SM FEW041 SCT080 BKN110 23/10 A3012 RMK A01,M
BAM,2023-08-13 09:55,-116.8743,40.5990,1382.36,66.20,33.80,29.92,340.00,5.00,0.00,30.17,M,10.00,M,CLR,M,M,M,M,M,M,M,M,M,M,M,M,M,M,66.20,KBAM 130955Z AUTO 34005KT 10SM CLR 19/01 A3017 RMK AO1,M
TMT,2023-08-13 09:55,-117.1971,39.4643,1749.34,46.80,39.20,74.71,0.00,0.00,0.00,30.25,M,M,M,CLR,M,M,M,M,M,M,M,M,M,M,M,M,M,M,46.80,KTMT 130955Z AUTO 00000KT CLR 08/04 A3025 RMK AO2 T00820040 PWINO,M
EKO,2023-08-13 09:56,-115.7860,40.8242,1367.00,56.00,41.00,57.02,0.00,0.00,0.00,30.20,1017.10,10.00,M,CLR,M,M,M,M,M,M,M,M,M,M,M,M,M,M,56.00,KEKO 130956Z AUTO 00000KT 10SM CLR 13/05 A3020 RMK AO2 SLP171 T01330050,M
WMC,2023-08-13 09:56,-117.8072,40.9019,1315.00,72.00,30.00,21.04,40.00,8.00,0.00,30.15,1014.80,10.00,M,CLR,M,M,M,M,M,M,M,M,M,M,M,M,M,M,72.00,KWMC 130956Z AUTO 04008KT 10SM CLR 22/M01 A3015 RMK AO2 SLP148 T02221011,M
NFL,2023-08-13 09:56,-118.7010,39.4166,1199.00,66.00,41.00,39.99,150.00,7.00,0.00,30.08,1015.50,10.00,M,CLR,M,M,M,M,M,M,M,M,M,M,M,M,M,M,66.00,KNFL 130956Z AUTO 15007KT 10SM CLR 19/05 A3008 RMK AO2 SLP155 T01890050,M
HND,2023-08-13 09:56,-115.1344,35.9729,742.79,78.00,46.00,32.26,160.00,6.00,0.00,30.00,1014.30,10.00,M,CLR,M,M,M,M,M,M,M,M,M,M,M,M,M,M,78.00,KHND 130956Z AUTO 16006KT 10SM CLR 26/08 A3000 RMK AO2 SLP143 T02560078,M
TPH,2023-08-13 09:56,-117.0904,38.0505,1654.00,67.00,45.00,45.04,360.00,6.00,0.00,30.20,1014.60,10.00,M,CLR,M,M,M,M,M,M,M,M,M,M,M,M,M,M,67.00,KTPH 130956Z AUTO 36006KT 10SM CLR 19/07 A3020 RMK AO2 SLP146 T01940072 $,M
LAS,2023-08-13 09:56,-115.1634,36.0719,663.00,85.00,49.00,28.75,300.00,3.00,0.00,29.96,1011.40,10.00,M,CLR,M,M,M,M,M,M,M,M,M,M,M,M,M,M,82.71,KLAS 130956Z 30003KT 10SM CLR 29/09 A2996 RMK AO2 SLP114 T02940094,M
05U,2023-08-13 10:10,-116.0051,39.6042,1811.23,55.40,46.40,71.64,M,M,0.00,30.26,M,10.00,M,M,M,M,M,M,M,M,M,M,M,M,M,M,M,M,55.40,K05U 131010Z AUTO 10SM 13/08 A3026 RMK A01,M
BVU,2023-08-13 10:15,-114.8611,35.9475,671.00,78.80,50.00,36.51,0.00,0.00,0.00,29.95,M,10.00,M,CLR,M,M,M,M,M,M,M,M,M,M,M,M,M,M,78.80,KBVU 131015Z AUTO 00000KT 10SM CLR 26/10 A2995 RMK AO2,M
CXP,2023-08-13 10:15,-119.7326,39.1923,1431.00,66.20,51.80,59.74,0.00,0.00,0.00,30.19,M,10.00,M,CLR,M,M,M,M,M,M,M,M,M,M,M,M,M,M,66.20,KCXP 131015Z AUTO 00000KT 10SM CLR 19/11 A3019 RMK AO2,M
RTS,2023-08-13 10:15,-119.8764,39.6682,1539.00,66.20,48.20,52.25,290.00,8.00,0.00,30.21,M,10.00,M,CLR,M,M,M,M,M,M,M,M,M,M,M,M,M,M,66.20,KRTS 131015Z AUTO 29008KT 10SM CLR 19/09 A3021 RMK AO2,M
MEV,2023-08-13 10:15,-119.7500,38.9963,1441.42,60.80,50.00,67.54,150.00,5.00,0.00,30.17,M,10.00,M,FEW,FEW,FEW,M,3900.00,5000.00,6000.00,M,M,M,M,M,M,M,M,60.80,KMEV 131015Z AUTO 15005KT 10SM FEW039 FEW050 FEW060 16/10 A3017 RMK AO2,M
HTH,2023-08-13 10:15,-118.6315,38.5448,1282.89,71.60,50.00,46.43,100.00,6.00,0.00,30.11,M,10.00,M,CLR,M,M,M,M,M,M,M,M,M,M,M,M,M,M,71.60,KHTH 131015Z AUTO 10006KT 10SM CLR 22/10 A3011 RMK A01,M
BAM,2023-08-13 10:15,-116.8743,40.5990,1382.36,64.40,33.80,31.85,10.00,5.00,0.00,30.18,M,10.00,M,CLR,M,M,M,M,M,M,M,M,M,M,M,M,M,M,64.40,KBAM 131015Z AUTO 01005KT 10SM CLR 18/01 A3018 RMK AO1,M
TMT,2023-08-13 10:15,-117.1971,39.4643,1749.34,45.00,37.80,75.71,0.00,0.00,0.00,30.25,M,M,M,CLR,M,M,M,M,M,M,M,M,M,M,M,M,M,M,45.00,KTMT 131015Z AUTO 00000KT CLR 07/03 A3025 RMK AO2 T00730032 PWINO,M
BVU,2023-08-13 10:35,-114.8611,35.9475,671.00,78.80,51.80,39.02,0.00,0.00,0.00,29.95,M,10.00,M,CLR,M,M,M,M,M,M,M,M,M,M,M,M,M,M,78.80,KBVU 131035Z AUTO 00000KT 10SM CLR 26/11 A2995 RMK AO2,M
CXP,2023-08-13 10:35,-119.7326,39.1923,1431.00,66.20,51.80,59.74,340.00,4.00,0.00,30.19,M,10.00,M,CLR,M,M,M,M,M,M,M,M,M,M,M,M,M,M,66.20,KCXP 131035Z AUTO 34004KT 10SM CLR 19/11 A3019 RMK AO2,M
RTS,2023-08-13 10:35,-119.8764,39.6682,1539.00,64.40,48.20,55.63,310.00,6.00,0.00,30.21,M,10.00,M,CLR,M,M,M,M,M,M,M,M,M,M,M,M,M,M,64.40,KRTS 131035Z AUTO 31006KT 10SM CLR 18/09 A3021 RMK AO2,M
05U,2023-08-13 10:35,-116.0051,39.6042,1811.23,51.80,46.40,81.74,M,M,0.00,30.27,M,10.00,M,M,M,M,M,M,M,M,M,M,M,M,M,M,M,M,51.80,K05U 131035Z AUTO 10SM 11/08 A3027 RMK A01,M
MEV,2023-08-13 10:35,-119.7500,38.9963,1441.42,59.00,48.20,67.33,30.00,3.00,0.00,30.18,M,10.00,M,FEW,FEW,FEW,M,3800.00,4600.00,5000.00,M,M,M,M,M,M,M,M,59.00,KMEV 131035Z AUTO 03003KT 10SM FEW038 FEW046 FEW050 15/09 A3018 RMK AO2,M
HTH,2023-08-13 10:35,-118.6315,38.5448,1282.89,73.40,48.20,40.85,230.00,7.00,0.00,30.12,M,10.00,M,CLR,M,M,M,M,M,M,M,M,M,M,M,M,M,M,73.40,KHTH 131035Z AUTO 23007KT 10SM CLR 23/09 A3012 RMK A01,M
BAM,2023-08-13 10:35,-116.8743,40.5990,1382.36,62.60,35.60,36.45,350.00,5.00,0.00,30.18,M,10.00,M,CLR,M,M,M,M,M,M,M,M,M,M,M,M,M,M,62.60,KBAM 131035Z AUTO 35005KT 10SM CLR 17/02 A3018 RMK AO1,M
TMT,2023-08-13 10:35,-117.1971,39.4643,1749.34,46.00,37.80,72.89,0.00,0.00,0.00,30.25,M,M,M,CLR,M,M,M,M,M,M,M,M,M,M,M,M,M,M,46.00,KTMT 131035Z AUTO 00000KT CLR 08/03 A3025 RMK AO2 T00770032 PWINO,M
05U,2023-08-13 10:50,-116.0051,39.6042,1811.23,53.60,46.40,76.50,M,M,0.00,30.27,M,10.00,M,M,M,M,M,M,M,M,M,M,M,M,M,M,M,M,53.60,K05U 131050Z AUTO 10SM 12/08 A3027 RMK A01,M
P68,2023-08-13 10:53,-116.0056,39.6014,1993.00,53.00,46.00,77.03,100.00,4.00,0.00,30.24,1015.70,M,M,M,M,M,M,M,M,M,M,M,M,M,M,M,M,M,53.00,KP68 131053Z AUTO 10004KT 12/08 A3024 RMK AO1 SLP157 T01170078,M
DRA,2023-08-13 10:53,-116.0278,36.6206,1009.00,71.00,43.00,36.38,60.00,7.00,0.00,30.03,1011.60,10.00,M,CLR,M,M,M,M,M,M,M,M,M,M,M,M,M,M,71.00,KDRA 131053Z AUTO 06007KT 10SM CLR 22/06 A3003 RMK AO2 SLP116 T02170061,M
ELY,2023-08-13 10:53,-114.8453,39.2950,1909.00,52.00,45.00,76.94,200.00,7.00,0.00,30.28,1015.40,10.00,M,CLR,M,M,M,M,M,M,M,M,M,M,M,M,M,M,52.00,KELY 131053Z AUTO 20007KT 10SM CLR 11/07 A3028 RMK AO2 SLP154 T01110072,M
VGT,2023-08-13 10:53,-115.1933,36.2111,667.00,84.00,51.00,31.99,230.00,3.00,0.00,29.95,1012.70,10.00,M,CLR,M,M,M,M,M,M,M,M,M,M,M,M,M,M,82.22,KVGT 131053Z AUTO 23003KT 10SM CLR 29/11 A2995 RMK AO2 SLP127 T02890106,M
LOL,2023-08-13 10:53,-118.5701,40.0684,1192.43,69.00,32.00,25.27,40.00,8.00,0.00,30.10,1014.50,10.00,M,CLR,M,M,M,M,M,M,M,M,M,M,M,M,M,M,69.00,KLOL 131053Z AUTO 04008KT 10SM CLR 21/00 A3010 RMK AO2 SLP145 T02060000,M
BVU,2023-08-13 10:55,-114.8611,35.9475,671.00,77.00,48.20,36.22,330.00,3.00,0.00,29.95,M,10.00,M,CLR,M,M,M,M,M,M,M,M,M,M,M,M,M,M,77.00,KBVU 131055Z AUTO 33003KT 10SM CLR 25/09 A2995 RMK AO2,M
CXP,2023-08-13 10:55,-119.7326,39.1923,1431.00,64.40,50.00,59.50,0.00,0.00,0.00,30.19,M,10.00,M,CLR,M,M,M,M,M,M,M,M,M,M,M,M,M,M,64.40,KCXP 131055Z AUTO 00000KT 10SM CLR 18/10 A3019 RMK AO2,M
INS,2023-08-13 10:55,-115.6733,36.5872,955.00,70.50,46.20,41.80,0.00,0.00,0.00,30.02,1011.60,10.00,M,FEW,M,M,M,13000.00,M,M,M,M,M,M,M,M,M,M,70.50,KINS 131055Z AUTO 00000KT 10SM FEW130 21/08 A3002 RMK AO2 SLP116 T02140079 $,M
RNO,2023-08-13 10:55,-119.7711,39.4839,1341.00,71.00,50.00,47.39,280.00,3.00,0.00,30.15,1014.40,10.00,M,CLR,M,M,M,M,M,M,M,M,M,M,M,M,M,M,71.00,KRNO 131055Z 28003KT 10SM CLR 22/10 A3015 RMK AO2 SLP144 T02170100,M
LSV,2023-08-13 10:55,-115.0343,36.2362,570.00,82.20,47.70,29.98,20.00,4.00,0.00,29.91,1010.00,10.00,M,CLR,M,M,M,M,M,M,M,M,M,M,M,M,M,M,80.63,KLSV 131055Z AUTO 02004KT 10SM CLR 28/09 A2991 RMK AO2 SLP100 T02790087 $,M
RTS,2023-08-13 10:55,-119.8764,39.6682,1539.00,64.40,46.40,51.98,310.00,8.00,0.00,30.21,M,10.00,M,CLR,M,M,M,M,M,M,M,M,M,M,M,M,M,M,64.40,KRTS 131055Z AUTO 31008KT 10SM CLR 18/08 A3021 RMK AO2,M
MEV,2023-08-13 10:55,-119.7500,38.9963,1441.42,60.80,50.00,67.54,70.00,4.00,0.00,30.17,M,10.00,M,FEW,FEW,FEW,M,3800.00,4700.00,5500.00,M,M,M,M,M,M,M,M,60.80,KMEV 131055Z AUTO 07004KT 10SM FEW038 FEW047 FEW055 16/10 A3017 RMK AO2,M
HTH,2023-08-13 10:55,-118.6315,38.5448,1282.89,73.40,50.00,43.69,0.00,0.00,0.00,30.12,M,10.00,M,CLR,M,M,M,M,M,M,M,M,M,M,M,M,M,M,73.40,KHTH 131055Z AUTO 00000KT 10SM CLR 23/10 A3012 RMK A01,M
BAM,2023-08-13 10:55,-116.8743,40.5990,1382.36,59.00,33.80,38.56,0.00,0.00,0.00,30.18,M,10.00,M,CLR,M,M,M,M,M,M,M,M,M,M,M,M,M,M,59.00,KBAM 131055Z AUTO 00000KT 10SM CLR 15/01 A3018 RMK AO1,M
TMT,2023-08-13 10:55,-117.1971,39.4643,1749.34,43.50,37.00,77.69,110.00,4.00,0.00,30.25,M,M,M,CLR,M,M,M,M,M,M,M,M,M,M,M,M,M,M,40.85,KTMT 131055Z AUTO 11004KT CLR 06/03 A3025 RMK AO2 T00640028 PWINO,M
EKO,2023-08-13 10:56,-115.7860,40.8242,1367.00,56.00,37.00,48.77,0.00,0.00,0.00,30.20,1017.10,10.00,M,CLR,M,M,M,M,M,M,M,M,M,M,M,M,M,M,56.00,KEKO 131056Z AUTO 00000KT 10SM CLR 13/03 A3020 RMK AO2 SLP171 T01330028,M
WMC,2023-08-13 10:56,-117.8072,40.9019,1315.00,62.00,31.00,30.96,0.00,0.00,0.00,30.16,1015.70,10.00,M,CLR,M,M,M,M,M,M,M,M,M,M,M,M,M,M,62.00,KWMC 131056Z AUTO 00000KT 10SM CLR 17/M01 A3016 RMK AO2 SLP157 T01671006,M
NFL,2023-08-13 10:56,-118.7010,39.4166,1199.00,66.00,41.00,39.99,140.00,6.00,0.00,30.09,1015.70,10.00,M,CLR,M,M,M,M,M,M,M,M,M,M,M,M,M,M,66.00,KNFL 131056Z AUTO 14006KT 10SM CLR 19/05 A3009 RMK AO2 SLP157 T01890050,M
HND,2023-08-13 10:56,-115.1344,35.9729,742.79,78.00,47.00,33.50,160.00,5.00,0.00,30.00,1014.20,10.00,M,CLR,M,M,M,M,M,M,M,M,M,M,M,M,M,M,78.00,KHND 131056Z AUTO 16005KT 10SM CLR 26/08 A3000 RMK AO2 SLP142 T02560083,M
TPH,2023-08-13 10:56,-117.0904,38.0505,1654.00,65.00,43.00,44.73,20.00,7.00,0.00,30.21,1014.80,10.00,M,BKN,M,M,M,12000.00,M,M,M,M,M,M,M,M,M,M,65.00,KTPH 131056Z AUTO 02007KT 10SM BKN120 18/06 A3021 RMK AO2 SLP148 T01830061 $,M
LAS,2023-08-13 10:56,-115.1634,36.0719,663.00,85.00,49.00,28.75,310.00,3.00,0.00,29.96,1011.30,10.00,M,CLR,M,M,M,M,M,M,M,M,M,M,M,M,M,M,82.71,KLAS 131056Z 31003KT 10SM CLR 29/09 A2996 RMK AO2 SLP113 T02940094,M
BVU,2023-08-13 11:15,-114.8611,35.9475,671.00,77.00,50.00,38.74,0.00,0.00,0.00,29.94,M,10.00,M,CLR,M,M,M,M,M,M,M,M,M,M,M,M,M,M,77.00,KBVU 131115Z AUTO 00000KT 10SM CLR 25/10 A2994 RMK AO2,M
CXP,2023-08-13 11:15,-119.7326,39.1923,1431.00,64.40,51.80,63.60,0.00,0.00,0.00,30.19,M,10.00,M,CLR,M,M,M,M,M,M,M,M,M,M,M,M,M,M,64.40,KCXP 131115Z AUTO 00000KT 10SM CLR 18/11 A3019 RMK AO2,M
RTS,2023-08-13 11:15,-119.8764,39.6682,1539.00,62.60,48.20,59.26,330.00,4.00,0.00,30.21,M,10.00,M,CLR,M,M,M,M,M,M,M,M,M,M,M,M,M,M,62.60,KRTS 131115Z AUTO 33004KT 10SM CLR 17/09 A3021 RMK AO2,M
05U,2023-08-13 11:15,-116.0051,39.6042,1811.23,50.00,46.40,87.37,M,M,0.00,30.27,M,10.00,M,M,M,M,M,M,M,M,M,M,M,M,M,M,M,M,50.00,K05U 131115Z AUTO 10SM 10/08 A3027 RMK A01,M
MEV,2023-08-13 11:15,-119.7500,38.9963,1441.42,59.00,50.00,72.01,30.00,4.00,0.00,30.17,M,10.00,M,FEW,FEW,M,M,4800.00,5500.00,M,M,M,M,M,M,M,M,M,59.00,KMEV 131115Z AUTO 03004KT 10SM FEW048 FEW055 15/10 A3017 RMK AO2,M
HTH,2023-08-13 11:15,-118.6315,38.5448,1282.89,71.60,48.20,43.42,270.00,3.00,0.00,30.13,M,10.00,M,SCT,M,M,M,11000.00,M,M,M,M,M,M,M,M,M,M,71.60,KHTH 131115Z AUTO 27003KT 10SM SCT110 22/09 A3013 RMK A01,M
BAM,2023-08-13 11:15,-116.8743,40.5990,1382.36,60.80,33.80,36.16,10.00,4.00,0.00,30.18,M,10.00,M,CLR,M,M,M,M,M,M,M,M,M,M,M,M,M,M,60.80,KBAM 131115Z AUTO 01004KT 10SM CLR 16/01 A3018 RMK AO1,M
TMT,2023-08-13 11:15,-117.1971,39.4643,1749.34,46.00,38.00,73.47,180.00,3.00,0.00,30.26,M,M,M,CLR,M,M,M,M,M,M,M,M,M,M,M,M,M,M,44.69,KTMT 131115Z AUTO 18003KT CLR 08/03 A3026 RMK AO2 T00780033 PWINO,M
05U,2023-08-13 11:30,-116.0051,39.6042,1811.23,50.00,46.40,87.37,M,M,0.00,30.27,M,10.00,M,M,M,M,M,M,M,M,M,M,M,M,M,M,M,M,50.00,K05U 131130Z AUTO 10SM 10/08 A3027 RMK A01,M
BVU,2023-08-13 11:35,-114.8611,35.9475,671.00,78.80,50.00,36.51,0.00,0.00,0.00,29.95,M,10.00,M,CLR,M,M,M,M,M,M,M,M,M,M,M,M,M,M,78.80,KBVU 131135Z AUTO 00000KT 10SM CLR 26/10 A2995 RMK AO2,M
CXP,2023-08-13 11:35,-119.7326,39.1923,1431.00,64.40,50.00,59.50,0.00,0.00,0.00,30.19,M,10.00,M,CLR,M,M,M,M,M,M,M,M,M,M,M,M,M,M,64.40,KCXP 131135Z AUTO 00000KT 10SM CLR 18/10 A3019 RMK AO2,M
RTS,2023-08-13 11:35,-119.8764,39.6682,1539.00,62.60,48.20,59.26,310.00,9.00,0.00,30.21,M,10.00,M,CLR,M,M,M,M,M,M,M,M,M,M,M,M,M,M,62.60,KRTS 131135Z AUTO 31009KT 10SM CLR 17/09 A3021 RMK AO2,M
MEV,2023-08-13 11:35,-119.7500,38.9963,1441.42,59.00,48.20,67.33,110.00,6.00,0.00,30.17,M,10.00,M,FEW,FEW,M,M,4900.00,6000.00,M,M,M,M,M,M,M,M,M,59.00,KMEV 131135Z AUTO 11006KT 10SM FEW049 FEW060 15/09 A3017 RMK AO2,M
BAM,2023-08-13 11:35,-116.8743,40.5990,1382.36,60.80,33.80,36.16,360.00,7.00,0.00,30.18,M,10.00,M,CLR,M,M,M,M,M,M,M,M,M,M,M,M,M,M,60.80,KBAM 131135Z AUTO 36007KT 10SM CLR 16/01 A3018 RMK AO1,M
HTH,2023-08-13 11:35,-118.6315,38.5448,1282.89,71.60,48.20,43.42,190.00,3.00,0.00,30.13,M,10.00,M,FEW,BKN,M,M,8000.00,12000.00,M,M,M,M,M,M,M,M,M,71.60,KHTH 131135Z AUTO 19003KT 10SM FEW080 BKN120 22/09 A3013 RMK A01,M
TMT,2023-08-13 11:35,-117.1971,39.4643,1749.34,44.40,37.00,75.06,0.00,0.00,0.00,30.26,M,M,M,CLR,M,M,M,M,M,M,M,M,M,M,M,M,M,M,44.40,KTMT 131135Z AUTO 00000KT CLR 07/03 A3026 RMK AO2 T00690027 PWINO,M
P68,2023-08-13 11:53,-116.0056,39.6014,1993.00,51.00,46.00,82.93,170.00,5.00,0.00,30.25,1016.80,M,M,M,M,M,M,M,M,M,M,M,M,M,M,M,M,M,51.00,KP68 131153Z AUTO 17005KT 11/08 A3025 RMK AO1 SLP168 T01060078 10172 20100 53004,M
DRA,2023-08-13 11:53,-116.0278,36.6206,1009.00,71.00,44.00,37.80,100.00,5.00,0.00,30.03,1011.80,10.00,M,CLR,M,M,M,M,M,M,M,M,M,M,M,M,M,M,71.00,KDRA 131153Z AUTO 10005KT 10SM CLR 22/07 A3003 RMK AO2 SLP118 T02170067 10272 20206 55000,M
ELY,2023-08-13 11:53,-114.8453,39.2950,1909.00,50.00,43.00,76.76,180.00,8.00,0.00,30.28,1016.30,10.00,M,CLR,M,M,M,M,M,M,M,M,M,M,M,M,M,M,50.00,KELY 131153Z AUTO 18008KT 10SM CLR 10/06 A3028 RMK AO2 SLP163 T01000061 10172 20100 58001,M
VGT,2023-08-13 11:53,-115.1933,36.2111,667.00,82.00,51.00,34.12,300.00,4.00,0.00,29.96,1012.90,10.00,M,CLR,M,M,M,M,M,M,M,M,M,M,M,M,M,M,80.84,KVGT 131153Z AUTO 30004KT 10SM CLR 28/11 A2996 RMK AO2 SLP129 T02780106 10333 20272 55001,M
LOL,2023-08-13 11:53,-118.5701,40.0684,1192.43,68.00,30.00,24.12,50.00,9.00,0.00,30.09,1014.30,10.00,M,CLR,M,M,M,M,M,M,M,M,M,M,M,M,M,M,68.00,KLOL 131153Z AUTO 05009KT 10SM CLR 20/M01 A3009 RMK AO2 SLP143 T02001011 10233 20172 50001,M
BVU,2023-08-13 11:55,-114.8611,35.9475,671.00,78.80,50.00,36.51,0.00,0.00,0.00,29.95,M,10.00,M,CLR,M,M,M,M,M,M,M,M,M,M,M,M,M,M,78.80,KBVU 131155Z AUTO 00000KT 10SM CLR 26/10 A2995 RMK AO2,M
CXP,2023-08-13 11:55,-119.7326,39.1923,1431.00,62.60,51.80,67.75,0.00,0.00,0.00,30.18,M,10.00,M,CLR,M,M,M,M,M,M,M,M,M,M,M,M,M,M,62.60,KCXP 131155Z AUTO 00000KT 10SM CLR 17/11 A3018 RMK AO2,M
INS,2023-08-13 11:55,-115.6733,36.5872,955.00,72.00,48.20,42.83,240.00,4.00,0.00,30.03,1012.00,10.00,M,BKN,M,M,M,14000.00,M,M,M,M,M,M,M,M,M,M,72.00,KINS 131155Z AUTO 24004KT 10SM BKN140 22/09 A3003 RMK AO2 SLP120 T02220090 10294 20206 53002 $,M
RNO,2023-08-13 11:55,-119.7711,39.4839,1341.00,68.00,48.00,48.73,170.00,4.00,0.00,30.16,1015.10,10.00,M,CLR,M,M,M,M,M,M,M,M,M,M,M,M,M,M,68.00,KRNO 131155Z 17004KT 10SM CLR 20/09 A3016 RMK AO2 SLP151 T02000089 10278 20200 53006,M
RTS,2023-08-13 11:55,-119.8764,39.6682,1539.00,60.80,48.20,63.15,310.00,9.00,0.00,30.21,M,10.00,M,CLR,M,M,M,M,M,M,M,M,M,M,M,M,M,M,60.80,KRTS 131155Z AUTO 31009KT 10SM CLR 16/09 A3021 RMK AO2,M
05U,2023-08-13 11:55,-116.0051,39.6042,1811.23,51.80,46.40,81.74,M,M,0.00,30.28,M,10.00,M,M,M,M,M,M,M,M,M,M,M,M,M,M,M,M,51.80,K05U 131155Z AUTO 10SM 11/08 A3028 RMK A01,M
MEV,2023-08-13 11:55,-119.7500,38.9963,1441.42,59.00,48.20,67.33,100.00,5.00,0.00,30.17,M,10.00,M,FEW,SCT,M,M,4500.00,5500.00,M,M,M,M,M,M,M,M,M,59.00,KMEV 131155Z AUTO 10005KT 10SM FEW045 SCT055 15/09 A3017 RMK AO2,M
HTH,2023-08-13 11:55,-118.6315,38.5448,1282.89,71.60,48.20,43.42,170.00,8.00,0.00,30.15,M,10.00,M,FEW,FEW,OVC,M,5000.00,6500.00,12000.00,M,M,M,M,M,M,M,M,71.60,KHTH 131155Z AUTO 17008KT 10SM FEW050 FEW065 OVC120 22/09 A3015 RMK A01,M
BAM,2023-08-13 11:55,-116.8743,40.5990,1382.36,62.60,33.80,33.93,350.00,9.00,0.00,30.18,M,10.00,M,CLR,M,M,M,M,M,M,M,M,M,M,M,M,M,M,62.60,KBAM 131155Z AUTO 35009KT 10SM CLR 17/01 A3018 RMK AO1,M
TMT,2023-08-13 11:55,-117.1971,39.4643,1749.34,44.40,38.00,78.07,0.00,0.00,0.00,30.26,M,M,M,CLR,M,M,M,M,M,M,M,M,M,M,M,M,M,M,44.40,KTMT 131155Z AUTO 00000KT CLR 07/03 A3026 RMK AO2 T00690033 10131 20061 PWINO,M
LSV,2023-08-13 11:55,-115.0343,36.2362,570.00,80.00,46.60,30.90,50.00,5.00,0.00,29.92,1010.40,10.00,M,CLR,M,M,M,M,M,M,M,M,M,M,M,M,M,M,79.25,KLSV 131155Z AUTO 05005KT 10SM CLR 27/08 A2992 RMK AO2 SLP104 T02660081 10325 20266 55000 $,M
EKO,2023-08-13 11:56,-115.7860,40.8242,1367.00,51.00,40.00,65.87,0.00,0.00,0.00,30.21,1017.60,10.00,M,CLR,M,M,M,M,M,M,M,M,M,M,M,M,M,M,51.00,KEKO 131156Z AUTO 00000KT 10SM CLR 11/04 A3021 RMK AO2 SLP176 T01060044 10228 20106 53003,M
WMC,2023-08-13 11:56,-117.8072,40.9019,1315.00,64.00,31.00,28.86,350.00,6.00,0.00,30.16,1015.70,10.00,M,CLR,M,M,M,M,M,M,M,M,M,M,M,M,M,M,64.00,KWMC 131156Z AUTO 35006KT 10SM CLR 18/M01 A3016 RMK AO2 SLP157 T01781006 10261 20139 52006,M
NFL,2023-08-13 11:56,-118.7010,39.4166,1199.00,62.00,43.00,49.69,20.00,4.00,0.00,30.10,1015.80,10.00,M,CLR,M,M,M,M,M,M,M,M,M,M,M,M,M,M,62.00,KNFL 131156Z AUTO 02004KT 10SM CLR 17/06 A3010 RMK AO2 SLP158 T01670061 10244 20167 53003,M
HND,2023-08-13 11:56,-115.1344,35.9729,742.79,77.00,46.00,33.34,190.00,6.00,0.00,30.00,1014.20,10.00,M,CLR,M,M,M,M,M,M,M,M,M,M,M,M,M,M,77.00,KHND 131156Z AUTO 19006KT 10SM CLR 25/08 A3000 RMK AO2 SLP142 T02500078 10317 20244 55001,M
TPH,2023-08-13 11:56,-117.0904,38.0505,1654.00,64.00,47.00,53.92,350.00,5.00,0.00,30.21,1014.80,10.00,M,BKN,M,M,M,11000.00,M,M,M,M,M,M,M,M,M,M,64.00,KTPH 131156Z AUTO 35005KT 10SM BKN110 18/08 A3021 RMK AO2 SLP148 T01780083 10206 20178 50003 $,M
LAS,2023-08-13 11:56,-115.1634,36.0719,663.00,81.00,48.00,31.52,210.00,3.00,0.00,29.96,1011.40,10.00,M,FEW,FEW,M,M,11000.00,20000.00,M,M,M,M,M,M,M,M,M,79.92,KLAS 131156Z 21003KT 10SM FEW110 FEW200 27/09 A2996 RMK AO2 SLP114 T02720089 10328 20272 55001,M
BVU,2023-08-13 12:15,-114.8611,35.9475,671.00,77.00,50.00,38.74,50.00,5.00,0.00,29.95,M,10.00,M,CLR,M,M,M,M,M,M,M,M,M,M,M,M,M,M,77.00,KBVU 131215Z AUTO 05005KT 10SM CLR 25/10 A2995 RMK AO2,M
CXP,2023-08-13 12:15,-119.7326,39.1923,1431.00,60.80,50.00,67.54,140.00,3.00,0.00,30.19,M,10.00,M,CLR,M,M,M,M,M,M,M,M,M,M,M,M,M,M,60.80,KCXP 131215Z AUTO 14003KT 10SM CLR 16/10 A3019 RMK AO2,M
RTS,2023-08-13 12:15,-119.8764,39.6682,1539.00,62.60,46.40,55.37,310.00,9.00,0.00,30.21,M,10.00,M,CLR,M,M,M,M,M,M,M,M,M,M,M,M,M,M,62.60,KRTS 131215Z AUTO 31009KT 10SM CLR 17/08 A3021 RMK AO2,M
05U,2023-08-13 12:15,-116.0051,39.6042,1811.23,48.20,44.60,87.28,M,M,0.00,30.28,M,10.00,M,M,M,M,M,M,M,M,M,M,M,M,M,M,M,M,M,K05U 131215Z AUTO 10SM 09/07 A3028 RMK A01,M
MEV,2023-08-13 12:15,-119.7500,38.9963,1441.42,57.20,48.20,71.83,130.00,5.00,0.00,30.18,M,10.00,M,FEW,FEW,M,M,4700.00,5500.00,M,M,M,M,M,M,M,M,M,57.20,KMEV 131215Z AUTO 13005KT 10SM FEW047 FEW055 14/09 A3018 RMK AO2,M
HTH,2023-08-13 12:15,-118.6315,38.5448,1282.89,75.20,46.40,35.94,210.00,7.00,0.00,30.14,M,10.00,12.00,OVC,M,M,M,11000.00,M,M,M,M,M,M,M,M,M,M,75.20,KHTH 131215Z AUTO 21007G12KT 10SM OVC110 24/08 A3014 RMK A01,M
BAM,2023-08-13 12:15,-116.8743,40.5990,1382.36,57.20,33.80,41.13,30.00,5.00,0.00,30.19,M,10.00,M,CLR,M,M,M,M,M,M,M,M,M,M,M,M,M,M,57.20,KBAM 131215Z AUTO 03005KT 10SM CLR 14/01 A3019 RMK AO1,M
TMT,2023-08-13 12:15,-117.1971,39.4643,1749.34,43.50,37.00,77.69,20.00,3.00,0.00,30.27,M,M,M,CLR,M,M,M,M,M,M,M,M,M,M,M,M,M,M,41.84,KTMT 131215Z AUTO 02003KT CLR 06/03 A3027 RMK AO2 T00640028 PWINO,M
BVU,2023-08-13 12:35,-114.8611,35.9475,671.00,78.80,50.00,36.51,0.00,0.00,0.00,29.96,M,10.00,M,CLR,M,M,M,M,M,M,M,M,M,M,M,M,M,M,78.80,KBVU 131235Z AUTO 00000KT 10SM CLR 26/10 A2996 RMK AO2,M
CXP,2023-08-13 12:35,-119.7326,39.1923,1431.00,60.80,51.80,72.20,0.00,0.00,0.00,30.20,M,10.00,M,CLR,M,M,M,M,M,M,M,M,M,M,M,M,M,M,60.80,KCXP 131235Z AUTO 00000KT 10SM CLR 16/11 A3020 RMK AO2,M
RTS,2023-08-13 12:35,-119.8764,39.6682,1539.00,60.80,46.40,59.01,310.00,7.00,0.00,30.22,M,10.00,M,CLR,M,M,M,M,M,M,M,M,M,M,M,M,M,M,60.80,KRTS 131235Z AUTO 31007KT 10SM CLR 16/08 A3022 RMK AO2,M
05U,2023-08-13 12:35,-116.0051,39.6042,1811.23,50.00,44.60,81.61,M,M,0.00,30.29,M,10.00,M,M,M,M,M,M,M,M,M,M,M,M,M,M,M,M,50.00,K05U 131235Z AUTO 10SM 10/07 A3029 RMK A01,M
MEV,2023-08-13 12:35,-119.7500,38.9963,1441.42,55.40,46.40,71.64,120.00,4.00,0.00,30.19,M,10.00,M,FEW,FEW,FEW,M,3700.00,4800.00,5500.00,M,M,M,M,M,M,M,M,55.40,KMEV 131235Z AUTO 12004KT 10SM FEW037 FEW048 FEW055 13/08 A3019 RMK AO2,M
BAM,2023-08-13 12:35,-116.8743,40.5990,1382.36,55.40,35.60,47.16,40.00,5.00,0.00,30.19,M,10.00,M,CLR,M,M,M,M,M,M,M,M,M,M,M,M,M,M,55.40,KBAM 131235Z AUTO 04005KT 10SM CLR 13/02 A3019 RMK AO1,M
HTH,2023-08-13 12:35,-118.6315,38.5448,1282.89,77.00,44.60,31.62,210.00,5.00,0.00,30.15,M,10.00,M,OVC,M,M,M,11000.00,M,M,M,M,M,M,M,M,M,M,77.00,KHTH 131235Z AUTO 21005KT 10SM OVC110 25/07 A3015 RMK A01,M
TMT,2023-08-13 12:35,-117.1971,39.4643,1749.34,40.30,34.00,78.03,90.00,4.00,0.00,30.27,M,M,M,CLR,M,M,M,M,M,M,M,M,M,M,M,M,M,M,37.11,KTMT 131235Z AUTO 09004KT CLR 05/01 A3027 RMK AO2 T00460012 PWINO,M
P68,2023-08-13 12:53,-116.0056,39.6014,1993.00,51.00,45.00,79.84,180.00,4.00,0.00,30.26,1017.60,M,M,M,M,M,M,M,M,M,M,M,M,M,M,M,M,M,51.00,KP68 131253Z AUTO 18004KT 11/07 A3026 RMK AO1 SLP176 T01060072,M
DRA,2023-08-13 12:53,-116.0278,36.6206,1009.00,72.00,43.00,35.16,0.00,0.00,0.00,30.05,1012.50,10.00,M,CLR,M,M,M,M,M,M,M,M,M,M,M,M,M,M,72.00,KDRA 131253Z AUTO 00000KT 10SM CLR 22/06 A3005 RMK AO2 SLP125 T02220061,M
ELY,2023-08-13 12:53,-114.8453,39.2950,1909.00,48.00,43.00,82.72,180.00,7.00,0.00,30.29,1017.10,10.00,M,CLR,M,M,M,M,M,M,M,M,M,M,M,M,M,M,44.28,KELY 131253Z AUTO 18007KT 10SM CLR 09/06 A3029 RMK AO2 SLP171 T00890061,M
VGT,2023-08-13 12:53,-115.1933,36.2111,667.00,81.00,52.00,36.58,0.00,0.00,0.00,29.97,1013.60,10.00,M,CLR,M,M,M,M,M,M,M,M,M,M,M,M,M,M,80.34,KVGT 131253Z 00000KT 10SM CLR 27/11 A2997 RMK AO2 SLP136 T02720111,M
LOL,2023-08-13 12:53,-118.5701,40.0684,1192.43,57.00,33.00,40.12,0.00,0.00,0.00,30.11,1015.60,10.00,M,CLR,M,M,M,M,M,M,M,M,M,M,M,M,M,M,57.00,KLOL 131253Z AUTO 00000KT 10SM CLR 14/01 A3011 RMK AO2 SLP156 T01390006,M
BVU,2023-08-13 12:55,-114.8611,35.9475,671.00,78.80,48.20,34.13,0.00,0.00,0.00,29.96,M,10.00,M,CLR,M,M,M,M,M,M,M,M,M,M,M,M,M,M,78.80,KBVU 131255Z AUTO 00000KT 10SM CLR 26/09 A2996 RMK AO2,M
CXP,2023-08-13 12:55,-119.7326,39.1923,1431.00,62.60,50.00,63.38,0.00,0.00,0.00,30.20,M,10.00,M,CLR,M,M,M,M,M,M,M,M,M,M,M,M,M,M,62.60,KCXP 131255Z AUTO 00000KT 10SM CLR 17/10 A3020 RMK AO2,M
INS,2023-08-13 12:55,-115.6733,36.5872,955.00,70.30,48.00,45.04,250.00,6.00,0.00,30.04,1012.30,10.00,M,BKN,M,M,M,13000.00,M,M,M,M,M,M,M,M,M,M,70.30,KINS 131255Z AUTO 25006KT 10SM BKN130 21/09 A3004 RMK AO2 SLP123 T02130089 $,M
RNO,2023-08-13 12:55,-119.7711,39.4839,1341.00,70.00,49.00,47.24,240.00,4.00,0.00,30.17,1015.10,10.00,M,FEW,M,M,M,20000.00,M,M,M,M,M,M,M,M,M,M,70.00,KRNO 131255Z 24004KT 10SM FEW200 21/09 A3017 RMK AO2 SLP151 T02110094,M
LSV,2023-08-13 12:55,-115.0343,36.2362,570.00,78.40,46.00,31.84,40.00,6.00,0.00,29.93,1010.90,10.00,M,CLR,M,M,M,M,M,M,M,M,M,M,M,M,M,M,78.40,KLSV 131255Z AUTO 04006KT 10SM CLR 26/08 A2993 RMK AO2 SLP109 T02580078 $,M
RTS,2023-08-13 12:55,-119.8764,39.6682,1539.00,60.80,46.40,59.01,290.00,5.00,0.00,30.22,M,10.00,M,CLR,M,M,M,M,M,M,M,M,M,M,M,M,M,M,60.80,KRTS 131255Z AUTO 29005KT 10SM CLR 16/08 A3022 RMK AO2,M
05U,2023-08-13 12:55,-116.0051,39.6042,1811.23,50.00,44.60,81.61,M,M,0.00,30.29,M,10.00,M,M,M,M,M,M,M,M,M,M,M,M,M,M,M,M,50.00,K05U 131255Z AUTO 10SM 10/07 A3029 RMK A01,M
MEV,2023-08-13 12:55,-119.7500,38.9963,1441.42,55.40,48.20,76.66,90.00,5.00,0.00,30.19,M,10.00,M,CLR,M,M,M,M,M,M,M,M,M,M,M,M,M,M,55.40,KMEV 131255Z AUTO 09005KT 10SM CLR 13/09 A3019 RMK AO2,M
HTH,2023-08-13 12:55,-118.6315,38.5448,1282.89,73.40,48.20,40.85,110.00,6.00,0.00,30.17,M,10.00,23.00,BKN,M,M,M,11000.00,M,M,M,M,M,M,M,M,M,M,73.40,KHTH 131255Z AUTO 11006G23KT 10SM BKN110 23/09 A3017 RMK A01,M
BAM,2023-08-13 12:55,-116.8743,40.5990,1382.36,53.60,32.00,43.61,0.00,0.00,0.00,30.19,M,10.00,M,CLR,M,M,M,M,M,M,M,M,M,M,M,M,M,M,53.60,KBAM 131255Z AUTO 00000KT 10SM CLR 12/00 A3019 RMK AO1,M
TMT,2023-08-13 12:55,-117.1971,39.4643,1749.34,41.00,35.00,79.02,160.00,3.00,0.00,30.28,M,M,M,CLR,M,M,M,M,M,M,M,M,M,M,M,M,M,M,38.98,KTMT 131255Z AUTO 16003KT CLR 05/02 A3028 RMK AO2 T00500016 PWINO,M
EKO,2023-08-13 12:56,-115.7860,40.8242,1367.00,54.00,36.00,50.42,80.00,3.00,0.00,30.22,1017.80,10.00,M,CLR,M,M,M,M,M,M,M,M,M,M,M,M,M,M,54.00,KEKO 131256Z AUTO 08003KT 10SM CLR 12/02 A3022 RMK AO2 SLP178 T01220022,M
WMC,2023-08-13 12:56,-117.8072,40.9019,1315.00,57.00,31.00,37.01,330.00,7.00,0.00,30.17,1016.50,10.00,M,CLR,M,M,M,M,M,M,M,M,M,M,M,M,M,M,57.00,KWMC 131256Z AUTO 33007KT 10SM CLR 14/M01 A3017 RMK AO2 SLP165 T01391006,M
NFL,2023-08-13 12:56,-118.7010,39.4166,1199.00,62.00,44.00,51.63,0.00,0.00,0.00,30.12,1016.40,10.00,M,CLR,M,M,M,M,M,M,M,M,M,M,M,M,M,M,62.00,KNFL 131256Z AUTO 00000KT 10SM CLR 17/07 A3012 RMK AO2 SLP164 T01670067,M
HND,2023-08-13 12:56,-115.1344,35.9729,742.79,75.00,48.00,38.43,170.00,6.00,0.00,30.02,1014.90,10.00,M,CLR,M,M,M,M,M,M,M,M,M,M,M,M,M,M,75.00,KHND 131256Z AUTO 17006KT 10SM CLR 24/09 A3002 RMK AO2 SLP149 T02390089,M
TPH,2023-08-13 12:56,-117.0904,38.0505,1654.00,63.00,46.00,53.78,0.00,0.00,0.00,30.22,1015.60,10.00,M,BKN,M,M,M,11000.00,M,M,M,M,M,M,M,M,M,M,63.00,KTPH 131256Z AUTO 00000KT 10SM BKN110 17/08 A3022 RMK AO2 SLP156 T01720078 $,M
LAS,2023-08-13 12:56,-115.1634,36.0719,663.00,80.00,48.00,32.57,0.00,0.00,0.00,29.98,1012.00,10.00,M,FEW,FEW,M,M,11000.00,20000.00,M,M,M,M,M,M,M,M,M,79.37,KLAS 131256Z 00000KT 10SM FEW110 FEW200 27/09 A2998 RMK AO2 SLP120 T02670089,M
BVU,2023-08-13 13:15,-114.8611,35.9475,671.00,78.80,48.20,34.13,0.00,0.00,0.00,29.97,M,10.00,M,CLR,M,M,M,M,M,M,M,M,M,M,M,M,M,M,78.80,KBVU 131315Z AUTO 00000KT 10SM CLR 26/09 A2997 RMK AO2,M
CXP,2023-08-13 13:15,-119.7326,39.1923,1431.00,60.80,50.00,67.54,0.00,0.00,0.00,30.21,M,10.00,M,CLR,M,M,M,M,M,M,M,M,M,M,M,M,M,M,60.80,KCXP 131315Z AUTO 00000KT 10SM CLR 16/10 A3021 RMK AO2,M
RTS,2023-08-13 13:15,-119.8764,39.6682,1539.00,59.00,46.40,62.92,360.00,4.00,0.00,30.22,M,10.00,M,CLR,M,M,M,M,M,M,M,M,M,M,M,M,M,M,59.00,KRTS 131315Z AUTO 36004KT 10SM CLR 15/08 A3022 RMK AO2,M
05U,2023-08-13 13:15,-116.0051,39.6042,1811.23,50.00,44.60,81.61,M,M,0.00,30.29,M,10.00,M,M,M,M,M,M,M,M,M,M,M,M,M,M,M,M,50.00,K05U 131315Z AUTO 10SM 10/07 A3029 RMK A01,M
MEV,2023-08-13 13:15,-119.7500,38.9963,1441.42,55.40,48.20,76.66,80.00,4.00,0.00,30.20,M,10.00,M,CLR,M,M,M,M,M,M,M,M,M,M,M,M,M,M,55.40,KMEV 131315Z AUTO 08004KT 10SM CLR 13/09 A3020 RMK AO2,M
HTH,2023-08-13 13:15,-118.6315,38.5448,1282.89,73.40,50.00,43.69,90.00,4.00,0.00,30.17,M,10.00,M,FEW,M,M,M,11000.00,M,M,M,M,M,M,M,M,M,M,73.40,KHTH 131315Z AUTO 09004KT 10SM FEW110 23/10 A3017 RMK A01,M
BAM,2023-08-13 13:15,-116.8743,40.5990,1382.36,53.60,33.80,46.88,40.00,4.00,0.00,30.20,M,10.00,M,CLR,M,M,M,M,M,M,M,M,M,M,M,M,M,M,53.60,KBAM 131315Z AUTO 04004KT 10SM CLR 12/01 A3020 RMK AO1,M
TMT,2023-08-13 13:15,-117.1971,39.4643,1749.34,42.80,35.60,75.50,0.00,0.00,0.00,30.28,M,M,M,CLR,M,M,M,M,M,M,M,M,M,M,M,M,M,M,42.80,KTMT 131315Z AUTO 00000KT CLR 06/02 A3028 RMK AO2 T00600020 PWINO,M
05U,2023-08-13 13:30,-116.0051,39.6042,1811.23,51.80,44.60,76.34,M,M,0.00,30.30,M,10.00,M,M,M,M,M,M,M,M,M,M,M,M,M,M,M,M,51.80,K05U 131330Z AUTO 10SM 11/07 A3030 RMK A01,M
BVU,2023-08-13 13:35,-114.8611,35.9475,671.00,77.00,51.80,41.42,0.00,0.00,0.00,29.98,M,10.00,M,CLR,M,M,M,M,M,M,M,M,M,M,M,M,M,M,77.00,KBVU 131335Z AUTO 00000KT 10SM CLR 25/11 A2998 RMK AO2,M
CXP,2023-08-13 13:35,-119.7326,39.1923,1431.00,62.60,50.00,63.38,330.00,4.00,0.00,30.22,M,10.00,M,CLR,M,M,M,M,M,M,M,M,M,M,M,M,M,M,62.60,KCXP 131335Z AUTO 33004KT 10SM CLR 17/10 A3022 RMK AO2,M
RTS,2023-08-13 13:35,-119.8764,39.6682,1539.00,60.80,44.60,55.12,350.00,5.00,0.00,30.23,M,10.00,M,CLR,M,M,M,M,M,M,M,M,M,M,M,M,M,M,60.80,KRTS 131335Z AUTO 35005KT 10SM CLR 16/07 A3023 RMK AO2,M
MEV,2023-08-13 13:35,-119.7500,38.9963,1441.42,57.20,48.20,71.83,110.00,6.00,0.00,30.20,M,10.00,M,CLR,M,M,M,M,M,M,M,M,M,M,M,M,M,M,57.20,KMEV 131335Z AUTO 11006KT 10SM CLR 14/09 A3020 RMK AO2,M
HTH,2023-08-13 13:35,-118.6315,38.5448,1282.89,75.20,46.40,35.94,170.00,11.00,0.00,30.18,M,10.00,M,CLR,M,M,M,M,M,M,M,M,M,M,M,M,M,M,75.20,KHTH 131335Z AUTO 17011KT 10SM CLR 24/08 A3018 RMK A01,M
BAM,2023-08-13 13:35,-116.8743,40.5990,1382.36,53.60,33.80,46.88,0.00,0.00,0.00,30.21,M,10.00,M,CLR,M,M,M,M,M,M,M,M,M,M,M,M,M,M,53.60,KBAM 131335Z AUTO 00000KT 10SM CLR 12/01 A3021 RMK AO1,M
TMT,2023-08-13 13:35,-117.1971,39.4643,1749.34,45.30,36.70,71.68,0.00,0.00,0.00,30.29,M,M,M,CLR,M,M,M,M,M,M,M,M,M,M,M,M,M,M,45.30,KTMT 131335Z AUTO 00000KT CLR 07/03 A3029 RMK AO2 T00740026 PWINO,M
P68,2023-08-13 13:53,-116.0056,39.6014,1993.00,54.00,45.00,71.50,0.00,0.00,0.00,30.27,1018.40,M,M,M,M,M,M,M,M,M,M,M,M,M,M,M,M,M,54.00,KP68 131353Z AUTO 00000KT 12/07 A3027 RMK AO1 SLP184 T01220072,M
DRA,2023-08-13 13:53,-116.0278,36.6206,1009.00,75.00,44.00,33.03,60.00,4.00,0.00,30.06,1013.00,10.00,M,CLR,M,M,M,M,M,M,M,M,M,M,M,M,M,M,75.00,KDRA 131353Z AUTO 06004KT 10SM CLR 24/07 A3006 RMK AO2 SLP130 T02390067,M
ELY,2023-08-13 13:53,-114.8453,39.2950,1909.00,52.00,44.00,74.07,170.00,7.00,0.00,30.29,1017.20,10.00,M,CLR,M,M,M,M,M,M,M,M,M,M,M,M,M,M,52.00,KELY 131353Z AUTO 17007KT 10SM CLR 11/07 A3029 RMK AO2 SLP172 T01110067,M
VGT,2023-08-13 13:53,-115.1933,36.2111,667.00,82.00,52.00,35.41,320.00,4.00,0.00,29.99,1014.10,10.00,M,CLR,M,M,M,M,M,M,M,M,M,M,M,M,M,M,80.97,KVGT 131353Z 32004KT 10SM CLR 28/11 A2999 RMK AO2 SLP141 T02780111,M
LOL,2023-08-13 13:53,-118.5701,40.0684,1192.43,61.00,35.00,37.66,280.00,3.00,0.00,30.14,1016.50,10.00,M,CLR,M,M,M,M,M,M,M,M,M,M,M,M,M,M,61.00,KLOL 131353Z AUTO 28003KT 10SM CLR 16/02 A3014 RMK AO2 SLP165 T01610017,M
BVU,2023-08-13 13:55,-114.8611,35.9475,671.00,80.60,48.20,32.18,0.00,0.00,0.00,29.98,M,10.00,M,CLR,M,M,M,M,M,M,M,M,M,M,M,M,M,M,79.71,KBVU 131355Z AUTO 00000KT 10SM CLR 27/09 A2998 RMK AO2,M
CXP,2023-08-13 13:55,-119.7326,39.1923,1431.00,62.60,50.00,63.38,0.00,0.00,0.00,30.22,M,10.00,M,CLR,M,M,M,M,M,M,M,M,M,M,M,M,M,M,62.60,KCXP 131355Z AUTO 00000KT 10SM CLR 17/10 A3022 RMK AO2,M
INS,2023-08-13 13:55,-115.6733,36.5872,955.00,71.00,47.50,43.16,250.00,6.00,0.00,30.06,1013.20,10.00,M,OVC,M,M,M,14000.00,M,M,M,M,M,M,M,M,M,M,71.00,KINS 131355Z AUTO 25006KT 10SM OVC140 22/09 A3006 RMK AO2 SLP132 T02170086 $,M
RNO,2023-08-13 13:55,-119.7711,39.4839,1341.00,67.00,48.00,50.44,170.00,3.00,0.00,30.19,1016.00,10.00,M,FEW,M,M,M,15000.00,M,M,M,M,M,M,M,M,M,M,67.00,KRNO 131355Z 17003KT 10SM FEW150 19/09 A3019 RMK AO2 SLP160 T01940089,M
LSV,2023-08-13 13:55,-115.0343,36.2362,570.00,80.20,47.70,31.99,20.00,5.00,0.00,29.95,1011.50,10.00,M,CLR,M,M,M,M,M,M,M,M,M,M,M,M,M,M,79.45,KLSV 131355Z AUTO 02005KT 10SM CLR 27/09 A2995 RMK AO2 SLP115 T02680087 $,M
RTS,2023-08-13 13:55,-119.8764,39.6682,1539.00,62.60,44.60,51.72,350.00,4.00,0.00,30.23,M,10.00,M,CLR,M,M,M,M,M,M,M,M,M,M,M,M,M,M,62.60,KRTS 131355Z AUTO 35004KT 10SM CLR 17/07 A3023 RMK AO2,M
05U,2023-08-13 13:55,-116.0051,39.6042,1811.23,55.40,46.40,71.64,M,M,0.00,30.30,M,10.00,M,M,M,M,M,M,M,M,M,M,M,M,M,M,M,M,55.40,K05U 131355Z AUTO 10SM 13/08 A3030 RMK A01,M
MEV,2023-08-13 13:55,-119.7500,38.9963,1441.42,59.00,48.20,67.33,110.00,4.00,0.00,30.20,M,10.00,M,CLR,M,M,M,M,M,M,M,M,M,M,M,M,M,M,59.00,KMEV 131355Z AUTO 11004KT 10SM CLR 15/09 A3020 RMK AO2,M
BAM,2023-08-13 13:55,-116.8743,40.5990,1382.36,60.80,35.60,38.85,0.00,0.00,0.00,30.21,M,10.00,M,CLR,M,M,M,M,M,M,M,M,M,M,M,M,M,M,60.80,KBAM 131355Z AUTO 00000KT 10SM CLR 16/02 A3021 RMK AO1,M
HTH,2023-08-13 13:55,-118.6315,38.5448,1282.89,75.20,46.40,35.94,140.00,8.00,0.00,30.18,M,10.00,20.00,CLR,M,M,M,M,M,M,M,M,M,M,M,M,M,M,75.20,KHTH 131355Z AUTO 14008G20KT 10SM CLR 24/08 A3018 RMK A01,M
TMT,2023-08-13 13:55,-117.1971,39.4643,1749.34,49.00,41.00,73.77,0.00,0.00,0.00,30.29,M,M,M,CLR,M,M,M,M,M,M,M,M,M,M,M,M,M,M,49.00,KTMT 131355Z AUTO 00000KT CLR 10/05 A3029 RMK AO2 T00950049 PWINO,M
EKO,2023-08-13 13:56,-115.7860,40.8242,1367.00,57.00,40.00,52.90,90.00,4.00,0.00,30.24,1018.50,10.00,M,CLR,M,M,M,M,M,M,M,M,M,M,M,M,M,M,57.00,KEKO 131356Z AUTO 09004KT 10SM CLR 14/04 A3024 RMK AO2 SLP185 T01390044,M
WMC,2023-08-13 13:56,-117.8072,40.9019,1315.00,63.00,32.00,31.12,M,5.00,0.00,30.18,1016.80,10.00,M,CLR,M,M,M,M,M,M,M,M,M,M,M,M,M,M,63.00,KWMC 131356Z AUTO VRB05KT 10SM CLR 17/00 A3018 RMK AO2 SLP168 T01720000,M
NFL,2023-08-13 13:56,-118.7010,39.4166,1199.00,64.00,45.00,49.99,20.00,3.00,0.00,30.14,1017.20,10.00,M,CLR,M,M,M,M,M,M,M,M,M,M,M,M,M,M,64.00,KNFL 131356Z AUTO 02003KT 10SM CLR 18/07 A3014 RMK AO2 SLP172 T01780072,M
HND,2023-08-13 13:56,-115.1344,35.9729,742.79,78.00,48.00,34.78,190.00,3.00,0.00,30.03,1015.30,10.00,M,CLR,M,M,M,M,M,M,M,M,M,M,M,M,M,M,78.00,KHND 131356Z 19003KT 10SM CLR 26/09 A3003 RMK AO2 SLP153 T02560089,M
TPH,2023-08-13 13:56,-117.0904,38.0505,1654.00,64.00,44.00,48.12,240.00,4.00,0.00,30.24,1016.60,10.00,M,FEW,M,M,M,12000.00,M,M,M,M,M,M,M,M,M,M,64.00,KTPH 131356Z AUTO 24004KT 10SM FEW120 18/07 A3024 RMK AO2 SLP166 T01780067 $,M
LAS,2023-08-13 13:56,-115.1634,36.0719,663.00,83.00,49.00,30.67,0.00,0.00,0.00,29.99,1012.50,10.00,M,FEW,FEW,M,M,11000.00,20000.00,M,M,M,M,M,M,M,M,M,81.28,KLAS 131356Z 00000KT 10SM FEW110 FEW200 28/09 A2999 RMK AO2 SLP125 T02830094,M
BVU,2023-08-13 14:15,-114.8611,35.9475,671.00,82.40,46.40,28.36,0.00,0.00,0.00,29.99,M,10.00,M,CLR,M,M,M,M,M,M,M,M,M,M,M,M,M,M,80.64,KBVU 131415Z AUTO 00000KT 10SM CLR 28/08 A2999 RMK AO2,M
CXP,2023-08-13 14:15,-119.7326,39.1923,1431.00,64.40,50.00,59.50,0.00,0.00,0.00,30.22,M,10.00,M,CLR,M,M,M,M,M,M,M,M,M,M,M,M,M,M,64.40,KCXP 131415Z AUTO 00000KT 10SM CLR 18/10 A3022 RMK AO2,M
RTS,2023-08-13 14:15,-119.8764,39.6682,1539.00,64.40,42.80,45.32,340.00,3.00,0.00,30.24,M,10.00,M,CLR,M,M,M,M,M,M,M,M,M,M,M,M,M,M,64.40,KRTS 131415Z AUTO 34003KT 10SM CLR 18/06 A3024 RMK AO2,M
05U,2023-08-13 14:15,-116.0051,39.6042,1811.23,59.00,44.60,58.77,M,M,0.00,30.31,M,10.00,M,M,M,M,M,M,M,M,M,M,M,M,M,M,M,M,59.00,K05U 131415Z AUTO 10SM 15/07 A3031 RMK A01,M
MEV,2023-08-13 14:15,-119.7500,38.9963,1441.42,62.60,50.00,63.38,0.00,0.00,0.00,30.21,M,10.00,M,CLR,M,M,M,M,M,M,M,M,M,M,M,M,M,M,62.60,KMEV 131415Z AUTO 00000KT 10SM CLR 17/10 A3021 RMK AO2,M
HTH,2023-08-13 14:15,-118.6315,38.5448,1282.89,73.40,48.20,40.85,110.00,8.00,0.00,30.19,M,10.00,M,CLR,M,M,M,M,M,M,M,M,M,M,M,M,M,M,73.40,KHTH 131415Z AUTO 11008KT 10SM CLR 23/09 A3019 RMK A01,M
BAM,2023-08-13 14:15,-116.8743,40.5990,1382.36,62.60,35.60,36.45,20.00,3.00,0.00,30.22,M,10.00,M,CLR,M,M,M,M,M,M,M,M,M,M,M,M,M,M,62.60,KBAM 131415Z AUTO 02003KT 10SM CLR 17/02 A3022 RMK AO1,M
TMT,2023-08-13 14:15,-117.1971,39.4643,1749.34,51.80,41.40,67.52,0.00,0.00,0.00,30.30,M,M,M,CLR,M,M,M,M,M,M,M,M,M,M,M,M,M,M,51.80,KTMT 131415Z AUTO 00000KT CLR 11/05 A3030 RMK AO2 T01100052 PWINO,M
05U,2023-08-13 14:30,-116.0051,39.6042,1811.23,62.60,46.40,55.37,M,M,0.00,30.31,M,10.00,M,M,M,M,M,M,M,M,M,M,M,M,M,M,M,M,62.60,K05U 131430Z AUTO 10SM 17/08 A3031 RMK A01,M
BVU,2023-08-13 14:35,-114.8611,35.9475,671.00,82.40,46.40,28.36,0.00,0.00,0.00,30.00,M,10.00,M,CLR,M,M,M,M,M,M,M,M,M,M,M,M,M,M,80.64,KBVU 131435Z AUTO 00000KT 10SM CLR 28/08 A3000 RMK AO2,M
CXP,2023-08-13 14:35,-119.7326,39.1923,1431.00,66.20,50.00,55.88,0.00,0.00,0.00,30.23,M,10.00,M,CLR,M,M,M,M,M,M,M,M,M,M,M,M,M,M,66.20,KCXP 131435Z AUTO 00000KT 10SM CLR 19/10 A3023 RMK AO2,M
RTS,2023-08-13 14:35,-119.8764,39.6682,1539.00,68.00,41.00,37.32,340.00,3.00,0.00,30.24,M,10.00,M,CLR,M,M,M,M,M,M,M,M,M,M,M,M,M,M,68.00,KRTS 131435Z AUTO 34003KT 10SM CLR 20/05 A3024 RMK AO2,M
MEV,2023-08-13 14:35,-119.7500,38.9963,1441.42,66.20,50.00,55.88,220.00,3.00,0.00,30.22,M,10.00,M,CLR,M,M,M,M,M,M,M,M,M,M,M,M,M,M,66.20,KMEV 131435Z AUTO 22003KT 10SM CLR 19/10 A3022 RMK AO2,M
HTH,2023-08-13 14:35,-118.6315,38.5448,1282.89,75.20,48.20,38.46,130.00,8.00,0.00,30.19,M,10.00,M,CLR,M,M,M,M,M,M,M,M,M,M,M,M,M,M,75.20,KHTH 131435Z AUTO 13008KT 10SM CLR 24/09 A3019 RMK A01,M
BAM,2023-08-13 14:35,-116.8743,40.5990,1382.36,66.20,35.60,32.14,350.00,5.00,0.00,30.22,M,10.00,M,CLR,M,M,M,M,M,M,M,M,M,M,M,M,M,M,66.20,KBAM 131435Z AUTO 35005KT 10SM CLR 19/02 A3022 RMK AO1,M
TMT,2023-08-13 14:35,-117.1971,39.4643,1749.34,54.70,44.00,67.09,0.00,0.00,0.00,30.30,M,M,M,SCT,M,M,M,11000.00,M,M,M,M,M,M,M,M,M,M,54.70,KTMT 131435Z AUTO 00000KT SCT110 13/07 A3030 RMK AO2 T01260066 PWINO,M
05U,2023-08-13 14:50,-116.0051,39.6042,1811.23,64.40,46.40,51.98,M,M,0.00,30.31,M,10.00,M,M,M,M,M,M,M,M,M,M,M,M,M,M,M,M,64.40,K05U 131450Z AUTO 10SM 18/08 A3031 RMK A01,M
P68,2023-08-13 14:53,-116.0056,39.6014,1993.00,62.00,47.00,57.85,180.00,4.00,0.00,30.28,1017.70,M,M,M,M,M,M,M,M,M,M,M,M,M,M,M,M,M,62.00,KP68 131453Z AUTO 18004KT 17/08 A3028 RMK AO1 SLP177 T01670083 51008,M
DRA,2023-08-13 14:53,-116.0278,36.6206,1009.00,81.00,43.00,26.08,130.00,3.00,0.00,30.08,1013.30,10.00,M,CLR,M,M,M,M,M,M,M,M,M,M,M,M,M,M,79.54,KDRA 131453Z AUTO 13003KT 10SM CLR 27/06 A3008 RMK AO2 SLP133 T02720061 51014,M
ELY,2023-08-13 14:53,-114.8453,39.2950,1909.00,61.00,47.00,59.94,170.00,5.00,0.00,30.30,1017.00,10.00,M,CLR,M,M,M,M,M,M,M,M,M,M,M,M,M,M,61.00,KELY 131453Z AUTO 17005KT 10SM CLR 16/08 A3030 RMK AO2 SLP170 T01610083 51007,M
VGT,2023-08-13 14:53,-115.1933,36.2111,667.00,85.00,50.00,29.85,330.00,3.00,0.00,30.01,1014.70,10.00,M,CLR,M,M,M,M,M,M,M,M,M,M,M,M,M,M,82.83,KVGT 131453Z 33003KT 10SM CLR 29/10 A3001 RMK AO2 SLP147 T02940100 53016,M
LOL,2023-08-13 14:53,-118.5701,40.0684,1192.43,74.00,32.00,21.33,10.00,7.00,0.00,30.16,1016.60,10.00,M,CLR,M,M,M,M,M,M,M,M,M,M,M,M,M,M,74.00,KLOL 131453Z AUTO 01007KT 10SM CLR 23/00 A3016 RMK AO2 SLP166 T02330000 53019,M
BVU,2023-08-13 14:55,-114.8611,35.9475,671.00,84.20,46.40,26.76,0.00,0.00,0.00,30.00,M,10.00,M,CLR,M,M,M,M,M,M,M,M,M,M,M,M,M,M,81.87,KBVU 131455Z AUTO 00000KT 10SM CLR 29/08 A3000 RMK AO2,M
CXP,2023-08-13 14:55,-119.7326,39.1923,1431.00,68.00,51.80,56.13,0.00,0.00,0.00,30.24,M,10.00,M,CLR,M,M,M,M,M,M,M,M,M,M,M,M,M,M,68.00,KCXP 131455Z AUTO 00000KT 10SM CLR 20/11 A3024 RMK AO2,M
INS,2023-08-13 14:55,-115.6733,36.5872,955.00,75.00,47.70,38.00,240.00,4.00,0.00,30.08,1013.90,10.00,M,CLR,M,M,M,M,M,M,M,M,M,M,M,M,M,M,75.00,KINS 131455Z AUTO 24004KT 10SM CLR 24/09 A3008 RMK AO2 SLP139 T02390087 52014 $,M
RNO,2023-08-13 14:55,-119.7711,39.4839,1341.00,71.00,49.00,45.66,M,3.00,0.00,30.21,1016.80,10.00,M,FEW,M,M,M,15000.00,M,M,M,M,M,M,M,M,M,M,71.00,KRNO 131455Z VRB03KT 10SM FEW150 22/09 A3021 RMK AO2 SLP168 T02170094 53013,M
LSV,2023-08-13 14:55,-115.0343,36.2362,570.00,82.80,48.20,29.96,0.00,0.00,0.00,29.96,1011.90,10.00,M,CLR,M,M,M,M,M,M,M,M,M,M,M,M,M,M,81.06,KLSV 131455Z AUTO 00000KT 10SM CLR 28/09 A2996 RMK AO2 SLP119 T02820090 52016 $,M
RTS,2023-08-13 14:55,-119.8764,39.6682,1539.00,68.00,44.60,42.85,0.00,0.00,0.00,30.25,M,9.00,M,CLR,M,M,M,M,M,M,M,M,M,M,M,M,M,M,68.00,KRTS 131455Z AUTO 00000KT 9SM CLR 20/07 A3025 RMK AO2,M
MEV,2023-08-13 14:55,-119.7500,38.9963,1441.42,64.40,51.80,63.60,0.00,0.00,0.00,30.23,M,10.00,M,CLR,M,M,M,M,M,M,M,M,M,M,M,M,M,M,64.40,KMEV 131455Z AUTO 00000KT 10SM CLR 18/11 A3023 RMK AO2,M
HTH,2023-08-13 14:55,-118.6315,38.5448,1282.89,75.20,48.20,38.46,140.00,9.00,0.00,30.20,M,10.00,M,CLR,M,M,M,M,M,M,M,M,M,M,M,M,M,M,75.20,KHTH 131455Z AUTO 14009KT 10SM CLR 24/09 A3020 RMK A01,M
BAM,2023-08-13 14:55,-116.8743,40.5990,1382.36,68.00,39.20,34.80,0.00,0.00,0.00,30.22,M,10.00,M,CLR,M,M,M,M,M,M,M,M,M,M,M,M,M,M,68.00,KBAM 131455Z AUTO 00000KT 10SM CLR 20/04 A3022 RMK AO1,M
TMT,2023-08-13 14:55,-117.1971,39.4643,1749.34,54.50,44.60,69.14,0.00,0.00,0.00,30.30,M,M,M,SCT,M,M,M,11000.00,M,M,M,M,M,M,M,M,M,M,54.50,KTMT 131455Z AUTO 00000KT SCT110 13/07 A3030 RMK AO2 T01250070 PWINO,M
EKO,2023-08-13 14:56,-115.7860,40.8242,1367.00,62.00,39.00,42.56,110.00,4.00,0.00,30.25,1018.40,10.00,M,CLR,M,M,M,M,M,M,M,M,M,M,M,M,M,M,62.00,KEKO 131456Z AUTO 11004KT 10SM CLR 17/04 A3025 RMK AO2 SLP184 T01670039 51009,M
WMC,2023-08-13 14:56,-117.8072,40.9019,1315.00,73.00,33.00,22.96,350.00,7.00,0.00,30.20,1017.10,10.00,M,CLR,M,M,M,M,M,M,M,M,M,M,M,M,M,M,73.00,KWMC 131456Z AUTO 35007KT 10SM CLR 23/01 A3020 RMK AO2 SLP171 T02280006 53010,M
NFL,2023-08-13 14:56,-118.7010,39.4166,1199.00,69.00,47.00,45.35,250.00,3.00,0.00,30.17,1017.90,10.00,M,CLR,M,M,M,M,M,M,M,M,M,M,M,M,M,M,69.00,KNFL 131456Z AUTO 25003KT 10SM CLR 21/08 A3017 RMK AO2 SLP179 T02060083 53021,M
HND,2023-08-13 14:56,-115.1344,35.9729,742.79,85.00,49.00,28.75,0.00,0.00,0.00,30.05,1015.80,10.00,M,M,M,M,M,M,M,M,M,M,M,M,M,M,M,M,82.71,KHND 131456Z 00000KT 10SM 29/09 A3005 RMK AO2 SLP158 T02940094 52015,M
TPH,2023-08-13 14:56,-117.0904,38.0505,1654.00,67.00,44.00,43.35,70.00,6.00,0.00,30.26,1017.40,10.00,M,SCT,M,M,M,11000.00,M,M,M,M,M,M,M,M,M,M,67.00,KTPH 131456Z AUTO 07006KT 10SM SCT110 19/07 A3026 RMK AO2 SLP174 T01940067 53016 $,M
LAS,2023-08-13 14:56,-115.1634,36.0719,663.00,86.00,49.00,27.85,30.00,4.00,0.00,30.02,1013.30,10.00,M,FEW,FEW,M,M,11000.00,20000.00,M,M,M,M,M,M,M,M,M,83.49,KLAS 131456Z 03004KT 10SM FEW110 FEW200 30/09 A3002 RMK AO2 SLP133 T03000094 53018,M
BVU,2023-08-13 15:15,-114.8611,35.9475,671.00,86.00,46.40,25.26,0.00,0.00,0.00,30.00,M,10.00,M,CLR,M,M,M,M,M,M,M,M,M,M,M,M,M,M,83.22,KBVU 131515Z AUTO 00000KT 10SM CLR 30/08 A3000 RMK AO2,M
CXP,2023-08-13 15:15,-119.7326,39.1923,1431.00,68.00,50.00,52.51,0.00,0.00,0.00,30.25,M,10.00,M,CLR,M,M,M,M,M,M,M,M,M,M,M,M,M,M,68.00,KCXP 131515Z AUTO 00000KT 10SM CLR 20/10 A3025 RMK AO2,M
RTS,2023-08-13 15:15,-119.8764,39.6682,1539.00,69.80,44.60,40.29,130.00,3.00,0.00,30.26,M,10.00,M,CLR,M,M,M,M,M,M,M,M,M,M,M,M,M,M,69.80,KRTS 131515Z AUTO 13003KT 10SM CLR 21/07 A3026 RMK AO2,M
05U,2023-08-13 15:15,-116.0051,39.6042,1811.23,68.00,46.40,45.88,M,M,0.00,30.31,M,10.00,M,M,M,M,M,M,M,M,M,M,M,M,M,M,M,M,68.00,K05U 131515Z AUTO 10SM 20/08 A3031 RMK A01,M
MEV,2023-08-13 15:15,-119.7500,38.9963,1441.42,68.00,51.80,56.13,0.00,0.00,0.00,30.23,M,10.00,M,CLR,M,M,M,M,M,M,M,M,M,M,M,M,M,M,68.00,KMEV 131515Z AUTO 00000KT 10SM CLR 20/11 A3023 RMK AO2,M
HTH,2023-08-13 15:15,-118.6315,38.5448,1282.89,75.20,48.20,38.46,130.00,8.00,0.00,30.20,M,10.00,M,CLR,M,M,M,M,M,M,M,M,M,M,M,M,M,M,75.20,KHTH 131515Z AUTO 13008KT 10SM CLR 24/09 A3020 RMK A01,M
BAM,2023-08-13 15:15,-116.8743,40.5990,1382.36,71.60,33.80,24.86,340.00,4.00,0.00,30.23,M,10.00,M,CLR,M,M,M,M,M,M,M,M,M,M,M,M,M,M,71.60,KBAM 131515Z AUTO 34004KT 10SM CLR 22/01 A3023 RMK AO1,M
TMT,2023-08-13 15:15,-117.1971,39.4643,1749.34,58.00,45.00,61.85,0.00,0.00,0.00,30.31,M,M,M,SCT,M,M,M,11000.00,M,M,M,M,M,M,M,M,M,M,58.00,KTMT 131515Z AUTO 00000KT SCT110 14/07 A3031 RMK AO2 T01440072 PWINO,M
05U,2023-08-13 15:30,-116.0051,39.6042,1811.23,71.60,44.60,37.89,M,M,0.00,30.31,M,10.00,M,M,M,M,M,M,M,M,M,M,M,M,M,M,M,M,71.60,K05U 131530Z AUTO 10SM 22/07 A3031 RMK A01,M
BVU,2023-08-13 15:35,-114.8611,35.9475,671.00,87.80,46.40,23.85,0.00,0.00,0.00,30.01,M,10.00,M,CLR,M,M,M,M,M,M,M,M,M,M,M,M,M,M,84.68,KBVU 131535Z AUTO 00000KT 10SM CLR 31/08 A3001 RMK AO2,M
CXP,2023-08-13 15:35,-119.7326,39.1923,1431.00,69.80,50.00,49.37,0.00,0.00,0.00,30.25,M,10.00,M,CLR,M,M,M,M,M,M,M,M,M,M,M,M,M,M,69.80,KCXP 131535Z AUTO 00000KT 10SM CLR 21/10 A3025 RMK AO2,M
RTS,2023-08-13 15:35,-119.8764,39.6682,1539.00,73.40,44.60,35.66,0.00,0.00,0.00,30.26,M,10.00,M,CLR,M,M,M,M,M,M,M,M,M,M,M,M,M,M,73.40,KRTS 131535Z AUTO 00000KT 10SM CLR 23/07 A3026 RMK AO2,M
MEV,2023-08-13 15:35,-119.7500,38.9963,1441.42,69.80,50.00,49.37,0.00,0.00,0.00,30.23,M,10.00,M,CLR,M,M,M,M,M,M,M,M,M,M,M,M,M,M,69.80,KMEV 131535Z AUTO 00000KT 10SM CLR 21/10 A3023 RMK AO2,M
HTH,2023-08-13 15:35,-118.6315,38.5448,1282.89,77.00,48.20,36.22,110.00,9.00,0.00,30.20,M,10.00,M,CLR,M,M,M,M,M,M,M,M,M,M,M,M,M,M,77.00,KHTH 131535Z AUTO 11009KT 10SM CLR 25/09 A3020 RMK A01,M
BAM,2023-08-13 15:35,-116.8743,40.5990,1382.36,73.40,35.60,25.13,340.00,5.00,0.00,30.22,M,10.00,M,CLR,M,M,M,M,M,M,M,M,M,M,M,M,M,M,73.40,KBAM 131535Z AUTO 34005KT 10SM CLR 23/02 A3022 RMK AO1,M
TMT,2023-08-13 15:35,-117.1971,39.4643,1749.34,61.50,46.40,57.57,0.00,0.00,0.00,30.30,M,M,M,CLR,M,M,M,M,M,M,M,M,M,M,M,M,M,M,61.50,KTMT 131535Z AUTO 00000KT CLR 16/08 A3030 RMK AO2 T01640080 PWINO,M
P68,2023-08-13 15:53,-116.0056,39.6014,1993.00,71.00,43.00,36.38,M,3.00,0.00,30.28,1017.20,M,M,M,M,M,M,M,M,M,M,M,M,M,M,M,M,M,71.00,KP68 131553Z AUTO VRB03KT 22/06 A3028 RMK AO1 SLP172 T02170061,M
DRA,2023-08-13 15:53,-116.0278,36.6206,1009.00,87.00,45.00,23.20,140.00,5.00,0.00,30.08,1013.50,10.00,M,CLR,M,M,M,M,M,M,M,M,M,M,M,M,M,M,83.90,KDRA 131553Z AUTO 14005KT 10SM CLR 31/07 A3008 RMK AO2 SLP135 T03060072,M
ELY,2023-08-13 15:53,-114.8453,39.2950,1909.00,68.00,46.00,45.19,160.00,4.00,0.00,30.30,1017.30,10.00,M,CLR,M,M,M,M,M,M,M,M,M,M,M,M,M,M,68.00,KELY 131553Z AUTO 16004KT 10SM CLR 20/08 A3030 RMK AO2 SLP173 T02000078,M
VGT,2023-08-13 15:53,-115.1933,36.2111,667.00,89.00,50.00,26.28,0.00,0.00,0.00,30.01,1014.90,10.00,M,CLR,M,M,M,M,M,M,M,M,M,M,M,M,M,M,86.16,KVGT 131553Z 00000KT 10SM CLR 32/10 A3001 RMK AO2 SLP149 T03170100,M
LOL,2023-08-13 15:53,-118.5701,40.0684,1192.43,79.00,33.00,18.80,30.00,7.00,0.00,30.16,1017.00,10.00,M,CLR,M,M,M,M,M,M,M,M,M,M,M,M,M,M,79.00,KLOL 131553Z AUTO 03007KT 10SM CLR 26/01 A3016 RMK AO2 SLP170 T02610006,M
BVU,2023-08-13 15:55,-114.8611,35.9475,671.00,87.80,46.40,23.85,0.00,0.00,0.00,30.01,M,10.00,M,CLR,M,M,M,M,M,M,M,M,M,M,M,M,M,M,84.68,KBVU 131555Z AUTO 00000KT 10SM CLR 31/08 A3001 RMK AO2,M
CXP,2023-08-13 15:55,-119.7326,39.1923,1431.00,71.60,50.00,46.43,0.00,0.00,0.00,30.25,M,10.00,M,CLR,M,M,M,M,M,M,M,M,M,M,M,M,M,M,71.60,KCXP 131555Z AUTO 00000KT 10SM CLR 22/10 A3025 RMK AO2,M
INS,2023-08-13 15:55,-115.6733,36.5872,955.00,83.50,42.80,23.86,0.00,0.00,0.00,30.08,1013.50,10.00,M,CLR,M,M,M,M,M,M,M,M,M,M,M,M,M,M,81.12,KINS 131555Z AUTO 00000KT 10SM CLR 29/06 A3008 RMK AO2 SLP135 T02860060 $,M
RNO,2023-08-13 15:55,-119.7711,39.4839,1341.00,77.00,48.00,35.95,0.00,0.00,0.00,30.21,1016.70,10.00,M,FEW,M,M,M,15000.00,M,M,M,M,M,M,M,M,M,M,77.00,KRNO 131555Z 00000KT 10SM FEW150 25/09 A3021 RMK AO2 SLP167 T02500089,M
LSV,2023-08-13 15:55,-115.0343,36.2362,570.00,91.60,48.60,22.98,20.00,13.00,0.00,29.97,1012.10,10.00,M,CLR,M,M,M,M,M,M,M,M,M,M,M,M,M,M,88.34,KLSV 131555Z AUTO 02013KT 10SM CLR 33/09 A2997 RMK AO2 SLP121 T03310092 $,M
RTS,2023-08-13 15:55,-119.8764,39.6682,1539.00,75.20,37.40,25.40,0.00,0.00,0.00,30.26,M,10.00,M,CLR,M,M,M,M,M,M,M,M,M,M,M,M,M,M,75.20,KRTS 131555Z AUTO 00000KT 10SM CLR 24/03 A3026 RMK AO2,M
05U,2023-08-13 15:55,-116.0051,39.6042,1811.23,73.40,42.80,33.29,M,M,0.00,30.31,M,10.00,M,M,M,M,M,M,M,M,M,M,M,M,M,M,M,M,73.40,K05U 131555Z AUTO 10SM 23/06 A3031 RMK A01,M
MEV,2023-08-13 15:55,-119.7500,38.9963,1441.42,71.60,51.80,49.64,0.00,0.00,0.00,30.23,M,10.00,M,CLR,M,M,M,M,M,M,M,M,M,M,M,M,M,M,71.60,KMEV 131555Z AUTO 00000KT 10SM CLR 22/11 A3023 RMK AO2,M
HTH,2023-08-13 15:55,-118.6315,38.5448,1282.89,77.00,48.20,36.22,140.00,11.00,0.00,30.19,M,10.00,M,CLR,M,M,M,M,M,M,M,M,M,M,M,M,M,M,77.00,KHTH 131555Z AUTO 14011KT 10SM CLR 25/09 A3019 RMK A01,M
BAM,2023-08-13 15:55,-116.8743,40.5990,1382.36,75.20,37.40,25.40,0.00,0.00,0.00,30.23,M,10.00,M,CLR,M,M,M,M,M,M,M,M,M,M,M,M,M,M,75.20,KBAM 131555Z AUTO 00000KT 10SM CLR 24/03 A3023 RMK AO1,M
TMT,2023-08-13 15:55,-117.1971,39.4643,1749.34,66.40,46.00,47.76,200.00,3.00,0.00,30.30,M,M,M,CLR,M,M,M,M,M,M,M,M,M,M,M,M,M,M,66.40,KTMT 131555Z AUTO 20003KT CLR 19/08 A3030 RMK AO2 T01910077 PWINO,M
EKO,2023-08-13 15:56,-115.7860,40.8242,1367.00,70.00,39.00,32.24,0.00,0.00,0.00,30.25,1018.60,10.00,M,CLR,M,M,M,M,M,M,M,M,M,M,M,M,M,M,70.00,KEKO 131556Z AUTO 00000KT 10SM CLR 21/04 A3025 RMK AO2 SLP186 T02110039,M
WMC,2023-08-13 15:56,-117.8072,40.9019,1315.00,79.00,33.00,18.80,20.00,6.00,0.00,30.21,1017.50,10.00,M,CLR,M,M,M,M,M,M,M,M,M,M,M,M,M,M,79.00,KWMC 131556Z AUTO 02006KT 10SM CLR 26/01 A3021 RMK AO2 SLP175 T02610006,M
NFL,2023-08-13 15:56,-118.7010,39.4166,1199.00,78.00,46.00,32.26,230.00,4.00,0.00,30.17,1018.00,10.00,M,CLR,M,M,M,M,M,M,M,M,M,M,M,M,M,M,78.00,KNFL 131556Z AUTO 23004KT 10SM CLR 26/08 A3017 RMK AO2 SLP180 T02560078,M
HND,2023-08-13 15:56,-115.1344,35.9729,742.79,87.00,50.00,28.00,0.00,0.00,0.00,30.06,1016.20,10.00,M,CLR,M,M,M,M,M,M,M,M,M,M,M,M,M,M,84.43,KHND 131556Z 00000KT 10SM CLR 31/10 A3006 RMK AO2 SLP162 T03060100,M
TPH,2023-08-13 15:56,-117.0904,38.0505,1654.00,69.00,45.00,42.04,200.00,4.00,T,30.28,1018.30,10.00,M,FEW,SCT,OVC,M,5500.00,8000.00,9500.00,M,M,M,M,M,M,M,M,69.00,KTPH 131556Z AUTO 20004KT 10SM FEW055 SCT080 OVC095 21/07 A3028 RMK AO2 RAB25E39 SLP183 P0000 T02060072 $,M
LAS,2023-08-13 15:56,-115.1634,36.0719,663.00,89.00,49.00,25.32,20.00,6.00,0.00,30.02,1013.50,10.00,M,FEW,FEW,M,M,11000.00,20000.00,M,M,M,M,M,M,M,M,M,86.01,KLAS 131556Z 02006KT 10SM FEW110 FEW200 32/09 A3002 RMK AO2 SLP135 T03170094,M
BVU,2023-08-13 16:15,-114.8611,35.9475,671.00,89.60,48.20,24.11,0.00,0.00,0.00,30.01,M,10.00,M,CLR,M,M,M,M,M,M,M,M,M,M,M,M,M,M,86.44,KBVU 131615Z AUTO 00000KT 10SM CLR 32/09 A3001 RMK AO2,M
CXP,2023-08-13 16:15,-119.7326,39.1923,1431.00,75.20,51.80,43.97,0.00,0.00,0.00,30.24,M,10.00,M,CLR,M,M,M,M,M,M,M,M,M,M,M,M,M,M,75.20,KCXP 131615Z AUTO 00000KT 10SM CLR 24/11 A3024 RMK AO2,M
RTS,2023-08-13 16:15,-119.8764,39.6682,1539.00,77.00,35.60,22.28,0.00,0.00,0.00,30.25,M,9.00,M,CLR,M,M,M,M,M,M,M,M,M,M,M,M,M,M,77.00,KRTS 131615Z AUTO 00000KT 9SM CLR 25/02 A3025 RMK AO2,M
05U,2023-08-13 16:15,-116.0051,39.6042,1811.23,75.20,39.20,27.26,M,M,0.00,30.31,M,10.00,M,M,M,M,M,M,M,M,M,M,M,M,M,M,M,M,75.20,K05U 131615Z AUTO 10SM 24/04 A3031 RMK A01,M
MEV,2023-08-13 16:15,-119.7500,38.9963,1441.42,73.40,51.80,46.71,0.00,0.00,0.00,30.23,M,10.00,M,CLR,M,M,M,M,M,M,M,M,M,M,M,M,M,M,73.40,KMEV 131615Z AUTO 00000KT 10SM CLR 23/11 A3023 RMK AO2,M
HTH,2023-08-13 16:15,-118.6315,38.5448,1282.89,77.00,48.20,36.22,150.00,9.00,0.00,30.19,M,10.00,14.00,CLR,M,M,M,M,M,M,M,M,M,M,M,M,M,M,77.00,KHTH 131615Z AUTO 15009G14KT 10SM CLR 25/09 A3019 RMK A01,M
BAM,2023-08-13 16:15,-116.8743,40.5990,1382.36,77.00,35.60,22.28,0.00,0.00,0.00,30.22,M,10.00,M,CLR,M,M,M,M,M,M,M,M,M,M,M,M,M,M,77.00,KBAM 131615Z AUTO 00000KT 10SM CLR 25/02 A3022 RMK AO1,M
TMT,2023-08-13 16:15,-117.1971,39.4643,1749.34,69.30,46.00,43.22,0.00,0.00,0.00,30.29,M,M,M,CLR,M,M,M,M,M,M,M,M,M,M,M,M,M,M,69.30,KTMT 131615Z AUTO 00000KT CLR 21/08 A3029 RMK AO2 T02070077 PWINO,M
05U,2023-08-13 16:30,-116.0051,39.6042,1811.23,75.20,37.40,25.40,M,M,0.00,30.31,M,10.00,M,M,M,M,M,M,M,M,M,M,M,M,M,M,M,M,75.20,K05U 131630Z AUTO 10SM 24/03 A3031 RMK A01,M
BVU,2023-08-13 16:35,-114.8611,35.9475,671.00,91.40,48.20,22.78,0.00,0.00,0.00,30.01,M,10.00,M,CLR,M,M,M,M,M,M,M,M,M,M,M,M,M,M,88.09,KBVU 131635Z AUTO 00000KT 10SM CLR 33/09 A3001 RMK AO2,M
CXP,2023-08-13 16:35,-119.7326,39.1923,1431.00,75.20,50.00,41.14,0.00,0.00,0.00,30.24,M,10.00,M,CLR,M,M,M,M,M,M,M,M,M,M,M,M,M,M,75.20,KCXP 131635Z AUTO 00000KT 10SM CLR 24/10 A3024 RMK AO2,M
RTS,2023-08-13 16:35,-119.8764,39.6682,1539.00,78.80,33.80,19.55,120.00,5.00,0.00,30.25,M,9.00,M,CLR,M,M,M,M,M,M,M,M,M,M,M,M,M,M,78.80,KRTS 131635Z AUTO 12005KT 9SM CLR 26/01 A3025 RMK AO2,M
MEV,2023-08-13 16:35,-119.7500,38.9963,1441.42,75.20,51.80,43.97,0.00,0.00,0.00,30.22,M,10.00,M,CLR,M,M,M,M,M,M,M,M,M,M,M,M,M,M,75.20,KMEV 131635Z AUTO 00000KT 10SM CLR 24/11 A3022 RMK AO2,M
BAM,2023-08-13 16:35,-116.8743,40.5990,1382.36,78.80,35.60,21.00,360.00,4.00,0.00,30.21,M,10.00,M,CLR,M,M,M,M,M,M,M,M,M,M,M,M,M,M,78.80,KBAM 131635Z AUTO 36004KT 10SM CLR 26/02 A3021 RMK AO1,M
HTH,2023-08-13 16:35,-118.6315,38.5448,1282.89,78.80,50.00,36.51,150.00,10.00,0.00,30.19,M,10.00,M,M,M,M,M,M,M,M,M,M,M,M,M,M,M,M,78.80,KHTH 131635Z AUTO 15010KT 10SM 26/10 A3019 RMK A01,M
TMT,2023-08-13 16:35,-117.1971,39.4643,1749.34,72.00,45.30,38.39,0.00,0.00,0.00,30.29,M,M,M,CLR,M,M,M,M,M,M,M,M,M,M,M,M,M,M,72.00,KTMT 131635Z AUTO 00000KT CLR 22/07 A3029 RMK AO2 T02230074 PWINO,M
05U,2023-08-13 16:50,-116.0051,39.6042,1811.23,77.00,39.20,25.67,M,M,0.00,30.31,M,10.00,M,M,M,M,M,M,M,M,M,M,M,M,M,M,M,M,77.00,K05U 131650Z AUTO 10SM 25/04 A3031 RMK A01,M
P68,2023-08-13 16:53,-116.0056,39.6014,1993.00,76.00,40.00,27.38,30.00,4.00,0.00,30.28,1017.40,M,M,M,M,M,M,M,M,M,M,M,M,M,M,M,M,M,76.00,KP68 131653Z AUTO 03004KT 24/04 A3028 RMK AO1 SLP174 T02440044,M
DRA,2023-08-13 16:53,-116.0278,36.6206,1009.00,91.00,45.00,20.45,10.00,10.00,0.00,30.08,1013.40,10.00,M,CLR,M,M,M,M,M,M,M,M,M,M,M,M,M,M,87.35,KDRA 131653Z AUTO 01010KT 10SM CLR 33/07 A3008 RMK AO2 SLP134 T03280072,M
ELY,2023-08-13 16:53,-114.8453,39.2950,1909.00,74.00,46.00,36.85,70.00,3.00,0.00,30.30,1016.80,10.00,M,CLR,M,M,M,M,M,M,M,M,M,M,M,M,M,M,74.00,KELY 131653Z AUTO 07003KT 10SM CLR 23/08 A3030 RMK AO2 SLP168 T02330078,M
VGT,2023-08-13 16:53,-115.1933,36.2111,667.00,91.00,49.00,23.77,M,M,0.00,30.01,1014.90,10.00,M,CLR,M,M,M,M,M,M,M,M,M,M,M,M,M,M,87.83,KVGT 131653Z 10SM CLR 33/09 A3001 RMK AO2 SLP149 T03280094,M
LOL,2023-08-13 16:53,-118.5701,40.0684,1192.43,83.00,35.00,17.88,20.00,4.00,0.00,30.16,1016.70,10.00,M,CLR,M,M,M,M,M,M,M,M,M,M,M,M,M,M,80.47,KLOL 131653Z AUTO 02004KT 10SM CLR 28/02 A3016 RMK AO2 SLP167 T02830017,M
BVU,2023-08-13 16:55,-114.8611,35.9475,671.00,91.40,50.00,24.37,80.00,4.00,0.00,30.01,M,10.00,M,CLR,M,M,M,M,M,M,M,M,M,M,M,M,M,M,88.36,KBVU 131655Z AUTO 08004KT 10SM CLR 33/10 A3001 RMK AO2,M
CXP,2023-08-13 16:55,-119.7326,39.1923,1431.00,78.80,48.20,34.13,0.00,0.00,0.00,30.23,M,10.00,M,CLR,M,M,M,M,M,M,M,M,M,M,M,M,M,M,78.80,KCXP 131655Z AUTO 00000KT 10SM CLR 26/09 A3023 RMK AO2,M
INS,2023-08-13 16:55,-115.6733,36.5872,955.00,86.70,43.30,21.95,0.00,0.00,0.00,30.08,1013.70,10.00,M,CLR,M,M,M,M,M,M,M,M,M,M,M,M,M,M,83.54,KINS 131655Z AUTO 00000KT 10SM CLR 30/06 A3008 RMK AO2 SLP137 T03040063 $,M
RNO,2023-08-13 16:55,-119.7711,39.4839,1341.00,83.00,42.00,23.51,0.00,0.00,0.00,30.20,1015.90,10.00,M,FEW,M,M,M,15000.00,M,M,M,M,M,M,M,M,M,M,80.74,KRNO 131655Z 00000KT 10SM FEW150 28/06 A3020 RMK AO2 SLP159 T02830056,M
LSV,2023-08-13 16:55,-115.0343,36.2362,570.00,94.30,48.40,20.98,20.00,8.00,0.00,29.97,1012.00,10.00,M,CLR,M,M,M,M,M,M,M,M,M,M,M,M,M,M,90.90,KLSV 131655Z AUTO 02008KT 10SM CLR 35/09 A2997 RMK AO2 SLP120 T03460091 $,M
RTS,2023-08-13 16:55,-119.8764,39.6682,1539.00,78.80,33.80,19.55,M,6.00,0.00,30.25,M,10.00,M,CLR,M,M,M,M,M,M,M,M,M,M,M,M,M,M,78.80,KRTS 131655Z AUTO VRB06KT 10SM CLR 26/01 A3025 RMK AO2,M
MEV,2023-08-13 16:55,-119.7500,38.9963,1441.42,77.00,51.80,41.42,0.00,0.00,0.00,30.22,M,10.00,M,CLR,M,M,M,M,M,M,M,M,M,M,M,M,M,M,77.00,KMEV 131655Z AUTO 00000KT 10SM CLR 25/11 A3022 RMK AO2,M
BAM,2023-08-13 16:55,-116.8743,40.5990,1382.36,80.60,33.80,18.42,340.00,3.00,0.00,30.21,M,10.00,M,CLR,M,M,M,M,M,M,M,M,M,M,M,M,M,M,78.88,KBAM 131655Z AUTO 34003KT 10SM CLR 27/01 A3021 RMK AO1,M
HTH,2023-08-13 16:55,-118.6315,38.5448,1282.89,78.80,46.40,31.90,300.00,3.00,0.00,30.18,M,10.00,11.00,M,M,M,M,M,M,M,M,M,M,M,M,M,M,M,78.80,KHTH 131655Z AUTO 30003G11KT 10SM 26/08 A3018 RMK A01,M
TMT,2023-08-13 16:55,-117.1971,39.4643,1749.34,73.60,45.00,35.96,0.00,0.00,0.00,30.29,M,M,M,CLR,M,M,M,M,M,M,M,M,M,M,M,M,M,M,73.60,KTMT 131655Z AUTO 00000KT CLR 23/07 A3029 RMK AO2 T02310073 PWINO,M
EKO,2023-08-13 16:56,-115.7860,40.8242,1367.00,77.00,37.00,23.55,0.00,0.00,0.00,30.23,1017.50,10.00,M,CLR,M,M,M,M,M,M,M,M,M,M,M,M,M,M,77.00,KEKO 131656Z AUTO 00000KT 10SM CLR 25/03 A3023 RMK AO2 SLP175 T02500028,M
WMC,2023-08-13 16:56,-117.8072,40.9019,1315.00,83.00,34.00,17.18,330.00,6.00,0.00,30.19,1016.70,10.00,M,CLR,M,M,M,M,M,M,M,M,M,M,M,M,M,M,80.45,KWMC 131656Z AUTO 33006KT 10SM CLR 28/01 A3019 RMK AO2 SLP167 T02830011,M
NFL,2023-08-13 16:56,-118.7010,39.4166,1199.00,83.00,44.00,25.39,0.00,0.00,0.00,30.16,1017.70,10.00,M,CLR,M,M,M,M,M,M,M,M,M,M,M,M,M,M,80.86,KNFL 131656Z AUTO 00000KT 10SM CLR 28/07 A3016 RMK AO2 SLP177 T02830067,M
HND,2023-08-13 16:56,-115.1344,35.9729,742.79,89.00,50.00,26.28,M,3.00,0.00,30.06,1016.10,10.00,M,CLR,M,M,M,M,M,M,M,M,M,M,M,M,M,M,86.16,KHND 131656Z VRB03KT 10SM CLR 32/10 A3006 RMK AO2 SLP161 T03170100,M
TPH,2023-08-13 16:56,-117.0904,38.0505,1654.00,75.00,45.00,34.31,0.00,0.00,0.00,30.27,1017.40,10.00,M,CLR,M,M,M,M,M,M,M,M,M,M,M,M,M,M,75.00,KTPH 131656Z AUTO 00000KT 10SM CLR 24/07 A3027 RMK AO2 SLP174 T02390072 $,M
LAS,2023-08-13 16:56,-115.1634,36.0719,663.00,91.00,48.00,22.90,10.00,5.00,0.00,30.02,1013.50,10.00,M,FEW,FEW,M,M,13000.00,20000.00,M,M,M,M,M,M,M,M,M,87.69,KLAS 131656Z 01005KT 10SM FEW130 FEW200 33/09 A3002 RMK AO2 SLP135 T03280089,M
NFL,2023-08-13 16:58,-118.7010,39.4166,1199.00,84.00,44.00,24.58,M,4.00,0.00,30.16,M,10.00,M,FEW,FEW,M,M,9000.00,12000.00,M,M,M,M,M,M,M,M,M,81.54,KNFL 131658Z VRB04KT 10SM FEW090 FEW120 29/07 A3016 RMK AO2 T02890067,M
BVU,2023-08-13 17:15,-114.8611,35.9475,671.00,93.20,50.00,23.04,30.00,4.00,0.00,30.01,M,10.00,M,CLR,M,M,M,M,M,M,M,M,M,M,M,M,M,M,90.10,KBVU 131715Z AUTO 03004KT 10SM CLR 34/10 A3001 RMK AO2,M
CXP,2023-08-13 17:15,-119.7326,39.1923,1431.00,80.60,46.40,30.07,0.00,0.00,0.00,30.23,M,10.00,M,CLR,M,M,M,M,M,M,M,M,M,M,M,M,M,M,79.56,KCXP 131715Z AUTO 00000KT 10SM CLR 27/08 A3023 RMK AO2,M
RTS,2023-08-13 17:15,-119.8764,39.6682,1539.00,80.60,28.40,14.81,100.00,6.00,0.00,30.25,M,10.00,M,CLR,M,M,M,M,M,M,M,M,M,M,M,M,M,M,78.72,KRTS 131715Z AUTO 10006KT 10SM CLR 27/M02 A3025 RMK AO2,M
05U,2023-08-13 17:15,-116.0051,39.6042,1811.23,78.80,41.00,25.95,M,M,0.00,30.30,M,10.00,M,M,M,M,M,M,M,M,M,M,M,M,M,M,M,M,78.80,K05U 131715Z AUTO 10SM 26/05 A3030 RMK A01,M
MEV,2023-08-13 17:15,-119.7500,38.9963,1441.42,78.80,50.00,36.51,0.00,0.00,0.00,30.21,M,10.00,M,CLR,M,M,M,M,M,M,M,M,M,M,M,M,M,M,78.80,KMEV 131715Z AUTO 00000KT 10SM CLR 26/10 A3021 RMK AO2,M
HTH,2023-08-13 17:15,-118.6315,38.5448,1282.89,78.80,46.40,31.90,50.00,3.00,0.00,30.19,M,10.00,M,CLR,M,M,M,M,M,M,M,M,M,M,M,M,M,M,78.80,KHTH 131715Z AUTO 05003KT 10SM CLR 26/08 A3019 RMK A01,M
BAM,2023-08-13 17:15,-116.8743,40.5990,1382.36,80.60,33.80,18.42,10.00,3.00,0.00,30.21,M,10.00,M,CLR,M,M,M,M,M,M,M,M,M,M,M,M,M,M,78.88,KBAM 131715Z AUTO 01003KT 10SM CLR 27/01 A3021 RMK AO1,M
TMT,2023-08-13 17:15,-117.1971,39.4643,1749.34,75.60,44.40,32.87,350.00,3.00,0.00,30.28,M,M,M,CLR,M,M,M,M,M,M,M,M,M,M,M,M,M,M,75.60,KTMT 131715Z AUTO 35003KT CLR 24/07 A3028 RMK AO2 T02420069 PWINO,M
05U,2023-08-13 17:30,-116.0051,39.6042,1811.23,78.80,42.80,27.81,M,M,0.00,30.30,M,10.00,M,M,M,M,M,M,M,M,M,M,M,M,M,M,M,M,78.80,K05U 131730Z AUTO 10SM 26/06 A3030 RMK A01,M
BVU,2023-08-13 17:35,-114.8611,35.9475,671.00,93.20,48.20,21.54,130.00,4.00,0.00,30.01,M,10.00,M,CLR,M,M,M,M,M,M,M,M,M,M,M,M,M,M,89.80,KBVU 131735Z AUTO 13004KT 10SM CLR 34/09 A3001 RMK AO2,M
CXP,2023-08-13 17:35,-119.7326,39.1923,1431.00,82.40,37.40,20.04,M,3.00,0.00,30.22,M,10.00,M,CLR,M,M,M,M,M,M,M,M,M,M,M,M,M,M,80.14,KCXP 131735Z AUTO VRB03KT 10SM CLR 28/03 A3022 RMK AO2,M
RTS,2023-08-13 17:35,-119.8764,39.6682,1539.00,80.60,32.00,17.14,100.00,5.00,0.00,30.25,M,10.00,M,CLR,M,M,M,M,M,M,M,M,M,M,M,M,M,M,78.82,KRTS 131735Z AUTO 10005KT 10SM CLR 27/00 A3025 RMK AO2,M
MEV,2023-08-13 17:35,-119.7500,38.9963,1441.42,80.60,48.20,32.18,300.00,3.00,0.00,30.21,M,10.00,M,CLR,M,M,M,M,M,M,M,M,M,M,M,M,M,M,79.71,KMEV 131735Z AUTO 30003KT 10SM CLR 27/09 A3021 RMK AO2,M
HTH,2023-08-13 17:35,-118.6315,38.5448,1282.89,78.80,46.40,31.90,150.00,10.00,0.00,30.18,M,10.00,M,CLR,M,M,M,M,M,M,M,M,M,M,M,M,M,M,78.80,KHTH 131735Z AUTO 15010KT 10SM CLR 26/08 A3018 RMK A01,M
BAM,2023-08-13 17:35,-116.8743,40.5990,1382.36,82.40,35.60,18.67,360.00,5.00,0.00,30.21,M,10.00,M,CLR,M,M,M,M,M,M,M,M,M,M,M,M,M,M,80.08,KBAM 131735Z AUTO 36005KT 10SM CLR 28/02 A3021 RMK AO1,M
TMT,2023-08-13 17:35,-117.1971,39.4643,1749.34,76.60,43.00,30.14,0.00,0.00,0.00,30.28,M,M,M,CLR,M,M,M,M,M,M,M,M,M,M,M,M,M,M,76.60,KTMT 131735Z AUTO 00000KT CLR 25/06 A3028 RMK AO2 T02480062 PWINO,M
HTH,2023-08-13 17:50,-118.6315,38.5448,1282.89,78.80,46.40,31.90,160.00,9.00,0.00,30.19,M,10.00,M,CLR,M,M,M,M,M,M,M,M,M,M,M,M,M,M,78.80,KHTH 131750Z AUTO 16009KT 10SM CLR 26/08 A3019 RMK A01,M
P68,2023-08-13 17:53,-116.0056,39.6014,1993.00,79.00,43.00,27.84,360.00,4.00,0.00,30.28,1016.90,M,M,M,M,M,M,M,M,M,M,M,M,M,M,M,M,M,79.00,KP68 131753Z AUTO 36004KT 26/06 A3028 RMK AO1 SLP169 T02610061 10261 20094 58001,M
DRA,2023-08-13 17:53,-116.0278,36.6206,1009.00,93.00,45.00,19.21,30.00,8.00,0.00,30.08,1013.10,10.00,18.00,CLR,M,M,M,M,M,M,M,M,M,M,M,M,M,M,89.20,KDRA 131753Z AUTO 03008G18KT 350V060 10SM CLR 34/07 A3008 RMK AO2 SLP131 T03390072 10339 20211 50002,M
ELY,2023-08-13 17:53,-114.8453,39.2950,1909.00,77.00,44.00,30.90,0.00,0.00,0.00,30.30,1015.90,10.00,M,CLR,M,M,M,M,M,M,M,M,M,M,M,M,M,M,77.00,KELY 131753Z AUTO 00000KT 10SM CLR 25/07 A3030 RMK AO2 SLP159 T02500067 10261 20089 58002,M
VGT,2023-08-13 17:53,-115.1933,36.2111,667.00,94.00,48.00,20.86,110.00,6.00,0.00,30.01,1014.80,10.00,M,CLR,M,M,M,M,M,M,M,M,M,M,M,M,M,M,90.55,KVGT 131753Z 11006KT 10SM CLR 34/09 A3001 RMK AO2 SLP148 T03440089 10350 20261 50001,M
LOL,2023-08-13 17:53,-118.5701,40.0684,1192.43,86.00,37.00,17.57,80.00,4.00,0.00,30.15,1016.70,10.00,M,CLR,M,M,M,M,M,M,M,M,M,M,M,M,M,M,82.72,KLOL 131753Z AUTO 08004KT 10SM CLR 30/03 A3015 RMK AO2 SLP167 T03000028 10306 20133 58001,M
BVU,2023-08-13 17:55,-114.8611,35.9475,671.00,95.00,48.20,20.38,40.00,5.00,0.00,30.00,M,10.00,M,CLR,M,M,M,M,M,M,M,M,M,M,M,M,M,M,91.56,KBVU 131755Z AUTO 04005KT 10SM CLR 35/09 A3000 RMK AO2,M
CXP,2023-08-13 17:55,-119.7326,39.1923,1431.00,84.20,35.60,17.61,M,4.00,0.00,30.22,M,10.00,M,CLR,M,M,M,M,M,M,M,M,M,M,M,M,M,M,81.34,KCXP 131755Z AUTO VRB04KT 10SM CLR 29/02 A3022 RMK AO2,M
INS,2023-08-13 17:55,-115.6733,36.5872,955.00,90.00,43.50,19.92,0.00,0.00,0.00,30.08,1013.40,10.00,M,CLR,M,M,M,M,M,M,M,M,M,M,M,M,M,M,86.33,KINS 131755Z AUTO 00000KT 10SM CLR 32/06 A3008 RMK AO2 SLP134 T03220064 10322 20204 50001 $,M
RNO,2023-08-13 17:55,-119.7711,39.4839,1341.00,86.00,38.00,18.28,0.00,0.00,0.00,30.19,1015.60,10.00,M,FEW,M,M,M,15000.00,M,M,M,M,M,M,M,M,M,M,82.75,KRNO 131755Z 00000KT 10SM FEW150 30/03 A3019 RMK AO2 SLP156 T03000033 10300 20189 58005,M
LSV,2023-08-13 17:55,-115.0343,36.2362,570.00,97.00,48.00,19.02,50.00,8.00,0.00,29.97,1012.10,10.00,M,CLR,M,M,M,M,M,M,M,M,M,M,M,M,M,M,93.52,KLSV 131755Z AUTO 05008KT 10SM CLR 36/09 A2997 RMK AO2 SLP121 T03620089 10362 20257 50000 $,M
RTS,2023-08-13 17:55,-119.8764,39.6682,1539.00,82.40,33.80,17.38,170.00,5.00,0.00,30.24,M,10.00,M,CLR,M,M,M,M,M,M,M,M,M,M,M,M,M,M,80.03,KRTS 131755Z AUTO 17005KT 10SM CLR 28/01 A3024 RMK AO2,M
05U,2023-08-13 17:55,-116.0051,39.6042,1811.23,80.60,42.80,26.22,M,M,0.00,30.31,M,10.00,M,M,M,M,M,M,M,M,M,M,M,M,M,M,M,M,79.30,K05U 131755Z AUTO 10SM 27/06 A3031 RMK A01,M
MEV,2023-08-13 17:55,-119.7500,38.9963,1441.42,82.40,44.60,26.49,0.00,0.00,0.00,30.21,M,10.00,M,CLR,M,M,M,M,M,M,M,M,M,M,M,M,M,M,80.50,KMEV 131755Z AUTO 00000KT 10SM CLR 28/07 A3021 RMK AO2,M
BAM,2023-08-13 17:55,-116.8743,40.5990,1382.36,86.00,37.40,17.85,30.00,3.00,0.00,30.21,M,10.00,M,CLR,M,M,M,M,M,M,M,M,M,M,M,M,M,M,82.73,KBAM 131755Z AUTO 03003KT 10SM CLR 30/03 A3021 RMK AO1,M
TMT,2023-08-13 17:55,-117.1971,39.4643,1749.34,78.00,42.40,28.12,0.00,0.00,0.00,30.28,M,M,M,CLR,M,M,M,M,M,M,M,M,M,M,M,M,M,M,78.00,KTMT 131755Z AUTO 00000KT CLR 26/06 A3028 RMK AO2 T02550058 10255 20042 PWINO,M
EKO,2023-08-13 17:56,-115.7860,40.8242,1367.00,82.00,37.00,19.99,0.00,0.00,0.00,30.23,1017.10,10.00,M,CLR,M,M,M,M,M,M,M,M,M,M,M,M,M,M,79.86,KEKO 131756Z AUTO 00000KT 10SM CLR 28/03 A3023 RMK AO2 SLP171 T02780028 10278 20100 58006,M
WMC,2023-08-13 17:56,-117.8072,40.9019,1315.00,87.00,33.00,14.52,40.00,8.00,0.00,30.19,1016.40,10.00,M,CLR,M,M,M,M,M,M,M,M,M,M,M,M,M,M,83.44,KWMC 131756Z AUTO 04008KT 360V070 10SM CLR 31/01 A3019 RMK AO2 SLP164 T03060006 10311 20122 58002,M
NFL,2023-08-13 17:56,-118.7010,39.4166,1199.00,86.00,45.00,23.95,M,5.00,0.00,30.16,1017.60,10.00,M,FEW,FEW,M,M,9000.00,12000.00,M,M,M,M,M,M,M,M,M,83.10,KNFL 131756Z VRB05KT 10SM FEW090 FEW120 30/07 A3016 RMK AO2 SLP176 T03000072 10300 20150 58003,M
HND,2023-08-13 17:56,-115.1344,35.9729,742.79,92.00,50.00,23.92,M,5.00,0.00,30.05,1015.90,10.00,M,CLR,M,M,M,M,M,M,M,M,M,M,M,M,M,M,88.94,KHND 131756Z VRB05KT 10SM CLR 33/10 A3005 RMK AO2 LTG DSNT S SLP159 T03330100 10333 20239 50001,M
TPH,2023-08-13 17:56,-117.0904,38.0505,1654.00,75.00,45.00,34.31,180.00,19.00,0.00,30.29,1018.50,10.00,29.00,BKN,OVC,M,M,10000.00,11000.00,M,M,M,M,M,M,29.00,180.00,2023-08-13 17:56,75.00,KTPH 131756Z AUTO 18019G29KT 10SM BKN100 OVC110 24/07 A3029 RMK AO2 PK WND 18029/1756 SLP185 60000 T02390072 10256 20172 53009 $,M
LAS,2023-08-13 17:56,-115.1634,36.0719,663.00,93.00,48.00,21.51,M,6.00,0.00,30.02,1013.30,10.00,M,FEW,FEW,M,M,10000.00,13000.00,M,M,M,M,M,M,M,M,M,89.58,KLAS 131756Z VRB06KT 10SM FEW100 FEW130 34/09 A3002 RMK AO2 LTG DSNT S SLP133 CB DSNT S-SW T03390089 10344 20267 50000,M
TPH,2023-08-13 18:05,-117.0904,38.0505,1654.00,72.00,51.00,47.54,180.00,16.00,T,30.30,M,10.00,29.00,OVC,M,M,M,9500.00,M,M,M,-RA,M,M,M,27.00,170.00,2023-08-13 17:57,72.00,KTPH 131805Z AUTO 18016G29KT 10SM -RA OVC095 22/11 A3030 RMK AO2 PK WND 17027/1757 WSHFT 1745 RAB04 P0000 T02220106 $,M
BVU,2023-08-13 18:15,-114.8611,35.9475,671.00,95.00,48.20,20.38,M,4.00,0.00,30.00,M,10.00,10.00,CLR,M,M,M,M,M,M,M,M,M,M,M,M,M,M,91.56,KBVU 131815Z AUTO VRB04G10KT 10SM CLR 35/09 A3000 RMK AO2,M
CXP,2023-08-13 18:15,-119.7326,39.1923,1431.00,86.00,37.40,17.85,0.00,0.00,0.00,30.22,M,10.00,M,CLR,M,M,M,M,M,M,M,M,M,M,M,M,M,M,82.73,KCXP 131815Z AUTO 00000KT 10SM CLR 30/03 A3022 RMK AO2,M
RTS,2023-08-13 18:15,-119.8764,39.6682,1539.00,82.40,33.80,17.38,140.00,5.00,0.00,30.24,M,10.00,M,CLR,M,M,M,M,M,M,M,M,M,M,M,M,M,M,80.03,KRTS 131815Z AUTO 14005KT 10SM CLR 28/01 A3024 RMK AO2,M
05U,2023-08-13 18:15,-116.0051,39.6042,1811.23,80.60,42.80,26.22,M,M,0.00,30.30,M,10.00,M,M,M,M,M,M,M,M,M,M,M,M,M,M,M,M,79.30,K05U 131815Z AUTO 10SM 27/06 A3030 RMK A01,M
MEV,2023-08-13 18:15,-119.7500,38.9963,1441.42,82.40,44.60,26.49,0.00,0.00,0.00,30.21,M,10.00,M,CLR,M,M,M,M,M,M,M,M,M,M,M,M,M,M,80.50,KMEV 131815Z AUTO 00000KT 10SM CLR 28/07 A3021 RMK AO2,M
HTH,2023-08-13 18:15,-118.6315,38.5448,1282.89,82.40,50.00,32.46,150.00,5.00,0.00,30.19,M,10.00,M,FEW,M,M,M,12000.00,M,M,M,M,M,M,M,M,M,M,80.99,KHTH 131815Z AUTO 15005KT 10SM FEW120 28/10 A3019 RMK A01,M
BAM,2023-08-13 18:15,-116.8743,40.5990,1382.36,86.00,35.60,16.63,320.00,3.00,0.00,30.21,M,10.00,M,CLR,M,M,M,M,M,M,M,M,M,M,M,M,M,M,82.69,KBAM 131815Z AUTO 32003KT 10SM CLR 30/02 A3021 RMK AO1,M
TMT,2023-08-13 18:15,-117.1971,39.4643,1749.34,79.00,42.00,26.79,30.00,5.00,0.00,30.28,M,M,M,CLR,M,M,M,M,M,M,M,M,M,M,M,M,M,M,79.00,KTMT 131815Z AUTO 03005KT CLR 26/06 A3028 RMK AO2 T02620056 PWINO,M
BVU,2023-08-13 18:35,-114.8611,35.9475,671.00,95.00,48.20,20.38,50.00,4.00,0.00,29.99,M,10.00,M,CLR,M,M,M,M,M,M,M,M,M,M,M,M,M,M,91.56,KBVU 131835Z AUTO 05004KT 10SM CLR 35/09 A2999 RMK AO2,M
CXP,2023-08-13 18:35,-119.7326,39.1923,1431.00,86.00,35.60,16.63,0.00,0.00,0.00,30.21,M,10.00,M,CLR,M,M,M,M,M,M,M,M,M,M,M,M,M,M,82.69,KCXP 131835Z AUTO 00000KT 10SM CLR 30/02 A3021 RMK AO2,M
RTS,2023-08-13 18:35,-119.8764,39.6682,1539.00,84.20,33.80,16.39,M,4.00,0.00,30.24,M,10.00,M,CLR,M,M,M,M,M,M,M,M,M,M,M,M,M,M,81.30,KRTS 131835Z AUTO VRB04KT 10SM CLR 29/01 A3024 RMK AO2,M
05U,2023-08-13 18:35,-116.0051,39.6042,1811.23,84.20,42.80,23.33,M,M,0.00,30.30,M,10.00,M,M,M,M,M,M,M,M,M,M,M,M,M,M,M,M,81.61,K05U 131835Z AUTO 10SM 29/06 A3030 RMK A01,M
MEV,2023-08-13 18:35,-119.7500,38.9963,1441.42,84.20,42.80,23.33,M,3.00,0.00,30.21,M,9.00,M,CLR,M,M,M,M,M,M,M,M,M,M,M,M,M,M,81.61,KMEV 131835Z AUTO VRB03KT 9SM CLR 29/06 A3021 RMK AO2,M
HTH,2023-08-13 18:35,-118.6315,38.5448,1282.89,82.40,46.40,28.36,120.00,5.00,0.00,30.19,M,10.00,M,CLR,M,M,M,M,M,M,M,M,M,M,M,M,M,M,80.64,KHTH 131835Z AUTO 12005KT 10SM CLR 28/08 A3019 RMK A01,M
BAM,2023-08-13 18:35,-116.8743,40.5990,1382.36,87.80,35.60,15.70,10.00,4.00,0.00,30.20,M,10.00,M,CLR,M,M,M,M,M,M,M,M,M,M,M,M,M,M,84.12,KBAM 131835Z AUTO 01004KT 10SM CLR 31/02 A3020 RMK AO1,M
TMT,2023-08-13 18:35,-117.1971,39.4643,1749.34,82.00,42.80,25.05,20.00,4.00,0.00,30.28,M,M,M,CLR,M,M,M,M,M,M,M,M,M,M,M,M,M,M,80.13,KTMT 131835Z AUTO 02004KT CLR 28/06 A3028 RMK AO2 T02780060 PWINO,M
05U,2023-08-13 18:50,-116.0051,39.6042,1811.23,84.20,42.80,23.33,M,M,0.00,30.30,M,10.00,M,M,M,M,M,M,M,M,M,M,M,M,M,M,M,M,81.61,K05U 131850Z AUTO 10SM 29/06 A3030 RMK A01,M
P68,2023-08-13 18:53,-116.0056,39.6014,1993.00,82.00,42.00,24.29,340.00,3.00,0.00,30.26,1016.30,M,M,M,M,M,M,M,M,M,M,M,M,M,M,M,M,M,80.09,KP68 131853Z AUTO 34003KT 28/06 A3026 RMK AO1 SLP163 T02780056,M
DRA,2023-08-13 18:53,-116.0278,36.6206,1009.00,96.00,44.00,16.86,30.00,7.00,0.00,30.07,1012.50,10.00,M,CLR,M,M,M,M,M,M,M,M,M,M,M,M,M,M,91.95,KDRA 131853Z AUTO 03007KT 350V060 10SM CLR 36/07 A3007 RMK AO2 SLP125 T03560067,M
ELY,2023-08-13 18:53,-114.8453,39.2950,1909.00,81.00,45.00,28.15,20.00,5.00,0.00,30.29,1014.90,10.00,M,BKN,M,M,M,10000.00,M,M,M,M,M,M,M,M,M,M,79.68,KELY 131853Z AUTO 02005KT 10SM BKN100 27/07 A3029 RMK AO2 SLP149 T02720072,M
VGT,2023-08-13 18:53,-115.1933,36.2111,667.00,96.00,48.00,19.61,110.00,3.00,0.00,29.99,1014.00,10.00,M,CLR,M,M,M,M,M,M,M,M,M,M,M,M,M,M,92.52,KVGT 131853Z 11003KT 10SM CLR 36/09 A2999 RMK AO2 LTG DSNT N SLP140 T03560089,M
LOL,2023-08-13 18:53,-118.5701,40.0684,1192.43,89.00,36.00,15.36,130.00,4.00,0.00,30.14,1016.20,10.00,M,CLR,M,M,M,M,M,M,M,M,M,M,M,M,M,M,85.12,KLOL 131853Z AUTO 13004KT 10SM CLR 32/02 A3014 RMK AO2 SLP162 T03170022,M
BVU,2023-08-13 18:55,-114.8611,35.9475,671.00,96.80,48.20,19.28,30.00,5.00,0.00,29.98,M,10.00,11.00,CLR,M,M,M,M,M,M,M,M,M,M,M,M,M,M,93.36,KBVU 131855Z AUTO 03005G11KT 10SM CLR 36/09 A2998 RMK AO2,M
CXP,2023-08-13 18:55,-119.7326,39.1923,1431.00,87.80,37.40,16.86,100.00,4.00,0.00,30.21,M,10.00,10.00,CLR,M,M,M,M,M,M,M,M,M,M,M,M,M,M,84.16,KCXP 131855Z AUTO 10004G10KT 10SM CLR 31/03 A3021 RMK AO2,M
INS,2023-08-13 18:55,-115.6733,36.5872,955.00,90.50,41.00,17.81,0.00,0.00,0.00,30.06,1012.70,10.00,M,CLR,M,M,M,M,M,M,M,M,M,M,M,M,M,M,86.60,KINS 131855Z AUTO 00000KT 10SM CLR 33/05 A3006 RMK AO2 SLP127 T03250051 $,M
RNO,2023-08-13 18:55,-119.7711,39.4839,1341.00,91.00,38.00,15.60,0.00,0.00,0.00,30.18,1014.90,10.00,M,FEW,M,M,M,15000.00,M,M,M,M,M,M,M,M,M,M,86.90,KRNO 131855Z 00000KT 10SM FEW150 33/03 A3018 RMK AO2 SLP149 T03280033,M
LSV,2023-08-13 18:55,-115.0343,36.2362,570.00,101.00,46.60,15.98,0.00,0.00,0.00,29.94,1010.90,10.00,M,CLR,M,M,M,M,M,M,M,M,M,M,M,M,M,M,97.27,KLSV 131855Z AUTO 00000KT 10SM CLR 38/08 A2994 RMK AO2 SLP109 T03840081 $,M
RTS,2023-08-13 18:55,-119.8764,39.6682,1539.00,84.20,32.00,15.25,M,3.00,0.00,30.24,M,10.00,M,CLR,M,M,M,M,M,M,M,M,M,M,M,M,M,M,81.28,KRTS 131855Z AUTO VRB03KT 10SM CLR 29/00 A3024 RMK AO2,M
MEV,2023-08-13 18:55,-119.7500,38.9963,1441.42,86.00,42.80,22.02,M,5.00,0.00,30.20,M,9.00,M,CLR,M,M,M,M,M,M,M,M,M,M,M,M,M,M,82.95,KMEV 131855Z AUTO VRB05KT 9SM CLR 30/06 A3020 RMK AO2,M
HTH,2023-08-13 18:55,-118.6315,38.5448,1282.89,86.00,44.60,23.59,140.00,8.00,0.00,30.18,M,10.00,M,CLR,M,M,M,M,M,M,M,M,M,M,M,M,M,M,83.07,KHTH 131855Z AUTO 14008KT 10SM CLR 30/07 A3018 RMK A01,M
BAM,2023-08-13 18:55,-116.8743,40.5990,1382.36,87.80,33.80,14.61,340.00,5.00,0.00,30.20,M,10.00,M,CLR,M,M,M,M,M,M,M,M,M,M,M,M,M,M,84.10,KBAM 131855Z AUTO 34005KT 10SM CLR 31/01 A3020 RMK AO1,M
TMT,2023-08-13 18:55,-117.1971,39.4643,1749.34,82.20,42.40,24.51,0.00,0.00,0.00,30.27,M,M,M,CLR,M,M,M,M,M,M,M,M,M,M,M,M,M,M,80.24,KTMT 131855Z AUTO 00000KT CLR 28/06 A3027 RMK AO2 T02790058 PWINO,M
EKO,2023-08-13 18:56,-115.7860,40.8242,1367.00,87.00,34.00,15.11,80.00,6.00,0.00,30.22,1016.70,10.00,M,CLR,M,M,M,M,M,M,M,M,M,M,M,M,M,M,83.45,KEKO 131856Z AUTO 08006KT 10SM CLR 31/01 A3022 RMK AO2 SLP167 T03060011,M
WMC,2023-08-13 18:56,-117.8072,40.9019,1315.00,91.00,32.00,12.29,50.00,7.00,0.00,30.17,1015.80,10.00,M,CLR,M,M,M,M,M,M,M,M,M,M,M,M,M,M,86.61,KWMC 131856Z AUTO 05007KT 10SM CLR 33/00 A3017 RMK AO2 SLP158 T03280000,M
NFL,2023-08-13 18:56,-118.7010,39.4166,1199.00,89.00,45.00,21.77,300.00,5.00,0.00,30.14,1017.20,10.00,M,FEW,FEW,M,M,9000.00,12000.00,M,M,M,M,M,M,M,M,M,85.58,KNFL 131856Z 30005KT 10SM FEW090 FEW120 32/07 A3014 RMK AO2 SLP172 T03170072,M
HND,2023-08-13 18:56,-115.1344,35.9729,742.79,95.00,50.00,21.79,M,3.00,0.00,30.03,1015.00,10.00,M,CLR,M,M,M,M,M,M,M,M,M,M,M,M,M,M,91.89,KHND 131856Z VRB03KT 10SM CLR 35/10 A3003 RMK AO2 LTG DSNT S AND SW SLP150 T03500100,M
TPH,2023-08-13 18:56,-117.0904,38.0505,1654.00,75.00,46.00,35.64,170.00,10.00,T,30.30,1018.90,10.00,M,CLR,M,M,M,M,M,M,M,M,M,M,M,27.00,170.00,2023-08-13 17:57,75.00,KTPH 131856Z AUTO 17010KT 10SM CLR 24/08 A3030 RMK AO2 PK WND 17027/1757 WSHFT 1745 RAB04E25 SLP189 P0000 T02390078 $,M
LAS,2023-08-13 18:56,-115.1634,36.0719,663.00,96.00,48.00,19.61,M,4.00,0.00,29.99,1012.50,10.00,M,FEW,FEW,M,M,10000.00,13000.00,M,M,M,M,M,M,M,M,M,92.52,KLAS 131856Z VRB04KT 10SM FEW100 FEW130 36/09 A2999 RMK AO2 LTG DSNT S SLP125 CB DSNT N AND E-SE AND S-W T03560089,M
05U,2023-08-13 19:10,-116.0051,39.6042,1811.23,84.20,42.80,23.33,M,M,0.00,30.29,M,10.00,M,M,M,M,M,M,M,M,M,M,M,M,M,M,M,M,81.61,K05U 131910Z AUTO 10SM 29/06 A3029 RMK A01,M
BVU,2023-08-13 19:15,-114.8611,35.9475,671.00,96.80,46.40,18.02,50.00,6.00,0.00,29.97,M,10.00,M,CLR,M,M,M,M,M,M,M,M,M,M,M,M,M,M,93.05,KBVU 131915Z AUTO 05006KT 10SM CLR 36/08 A2997 RMK AO2,M
CXP,2023-08-13 19:15,-119.7326,39.1923,1431.00,87.80,37.40,16.86,70.00,9.00,0.00,30.20,M,10.00,M,CLR,M,M,M,M,M,M,M,M,M,M,M,M,M,M,84.16,KCXP 131915Z AUTO 07009KT 10SM CLR 31/03 A3020 RMK AO2,M
RTS,2023-08-13 19:15,-119.8764,39.6682,1539.00,86.00,32.00,14.40,0.00,0.00,0.00,30.23,M,10.00,M,CLR,M,M,M,M,M,M,M,M,M,M,M,M,M,M,82.64,KRTS 131915Z AUTO 00000KT 10SM CLR 30/00 A3023 RMK AO2,M
MEV,2023-08-13 19:15,-119.7500,38.9963,1441.42,84.20,42.80,23.33,M,4.00,0.00,30.19,M,8.00,M,CLR,M,M,M,M,M,M,M,M,M,M,M,M,M,M,81.61,KMEV 131915Z AUTO VRB04KT 8SM CLR 29/06 A3019 RMK AO2,M
HTH,2023-08-13 19:15,-118.6315,38.5448,1282.89,87.80,42.80,20.79,M,3.00,0.00,30.18,M,10.00,M,CLR,M,M,M,M,M,M,M,M,M,M,M,M,M,M,84.40,KHTH 131915Z AUTO VRB03KT 10SM CLR 31/06 A3018 RMK A01,M
BAM,2023-08-13 19:15,-116.8743,40.5990,1382.36,89.60,33.80,13.80,50.00,6.00,0.00,30.19,M,10.00,M,CLR,M,M,M,M,M,M,M,M,M,M,M,M,M,M,85.59,KBAM 131915Z AUTO 05006KT 10SM CLR 32/01 A3019 RMK AO1,M
TMT,2023-08-13 19:15,-117.1971,39.4643,1749.34,84.60,42.80,23.03,360.00,5.00,0.00,30.27,M,M,M,CLR,M,M,M,M,M,M,M,M,M,M,M,M,M,M,81.90,KTMT 131915Z AUTO 36005KT CLR 29/06 A3027 RMK AO2 T02920060 PWINO,M
05U,2023-08-13 19:30,-116.0051,39.6042,1811.23,84.20,42.80,23.33,M,M,0.00,30.28,M,10.00,M,M,M,M,M,M,M,M,M,M,M,M,M,M,M,M,81.61,K05U 131930Z AUTO 10SM 29/06 A3028 RMK A01,M
BVU,2023-08-13 19:35,-114.8611,35.9475,671.00,96.80,46.40,18.02,M,3.00,0.00,29.96,M,10.00,M,CLR,M,M,M,M,M,M,M,M,M,M,M,M,M,M,93.05,KBVU 131935Z AUTO VRB03KT 10SM CLR 36/08 A2996 RMK AO2 LTG DSNT SW,M
CXP,2023-08-13 19:35,-119.7326,39.1923,1431.00,89.60,37.40,15.92,60.00,9.00,0.00,30.20,M,10.00,14.00,CLR,M,M,M,M,M,M,M,M,M,M,M,M,M,M,85.67,KCXP 131935Z AUTO 06009G14KT 10SM CLR 32/03 A3020 RMK AO2,M
RTS,2023-08-13 19:35,-119.8764,39.6682,1539.00,86.00,33.80,15.48,M,3.00,0.00,30.23,M,10.00,M,CLR,M,M,M,M,M,M,M,M,M,M,M,M,M,M,82.66,KRTS 131935Z AUTO VRB03KT 10SM CLR 30/01 A3023 RMK AO2,M
MEV,2023-08-13 19:35,-119.7500,38.9963,1441.42,86.00,42.80,22.02,270.00,6.00,0.00,30.19,M,9.00,11.00,CLR,M,M,M,M,M,M,M,M,M,M,M,M,M,M,82.95,KMEV 131935Z AUTO 27006G11KT 9SM CLR 30/06 A3019 RMK AO2,M
HTH,2023-08-13 19:35,-118.6315,38.5448,1282.89,87.80,42.80,20.79,60.00,5.00,0.00,30.17,M,10.00,M,CLR,M,M,M,M,M,M,M,M,M,M,M,M,M,M,84.40,KHTH 131935Z AUTO 06005KT 10SM CLR 31/06 A3017 RMK A01,M
BAM,2023-08-13 19:35,-116.8743,40.5990,1382.36,89.60,33.80,13.80,40.00,4.00,0.00,30.19,M,10.00,M,CLR,M,M,M,M,M,M,M,M,M,M,M,M,M,M,85.59,KBAM 131935Z AUTO 04004KT 10SM CLR 32/01 A3019 RMK AO1,M
TMT,2023-08-13 19:35,-117.1971,39.4643,1749.34,86.00,41.00,20.54,20.00,4.00,0.00,30.26,M,M,M,CLR,M,M,M,M,M,M,M,M,M,M,M,M,M,M,82.86,KTMT 131935Z AUTO 02004KT CLR 30/05 A3026 RMK AO2 T02990050 PWINO,M
P68,2023-08-13 19:53,-116.0056,39.6014,1993.00,84.00,43.00,23.66,0.00,0.00,0.00,30.24,1015.40,M,M,M,M,M,M,M,M,M,M,M,M,M,M,M,M,M,81.48,KP68 131953Z AUTO 00000KT 29/06 A3024 RMK AO1 SLP154 T02890061,M
DRA,2023-08-13 19:53,-116.0278,36.6206,1009.00,98.00,42.00,14.68,320.00,7.00,0.00,30.05,1011.70,10.00,M,FEW,M,M,M,11000.00,M,M,M,M,M,M,M,M,M,M,93.63,KDRA 131953Z AUTO 32007KT 290V360 10SM FEW110 37/06 A3005 RMK AO2 SLP117 T03670056,M
ELY,2023-08-13 19:53,-114.8453,39.2950,1909.00,81.00,41.00,24.14,130.00,5.00,0.00,30.27,1014.90,10.00,M,FEW,M,M,M,11000.00,M,M,M,M,M,M,M,M,M,M,79.43,KELY 131953Z AUTO 13005KT 10SM FEW110 27/05 A3027 RMK AO2 SLP149 T02720050,M
VGT,2023-08-13 19:53,-115.1933,36.2111,667.00,100.00,46.00,16.10,M,3.00,0.00,29.96,1013.10,10.00,M,CLR,M,M,M,M,M,M,M,M,M,M,M,M,M,M,96.16,KVGT 131953Z VRB03KT 10SM CLR 38/08 A2996 RMK AO2 LTG DSNT N AND S AND SW SLP131 T03780078,M
LOL,2023-08-13 19:53,-118.5701,40.0684,1192.43,90.00,33.00,13.20,M,3.00,0.00,30.12,1015.30,10.00,M,CLR,M,M,M,M,M,M,M,M,M,M,M,M,M,M,85.92,KLOL 131953Z AUTO VRB03KT 10SM CLR 32/01 A3012 RMK AO2 SLP153 T03220006,M
BVU,2023-08-13 19:55,-114.8611,35.9475,671.00,98.60,46.40,17.05,M,3.00,0.00,29.95,M,10.00,M,CLR,M,M,M,M,M,M,M,M,M,M,M,M,M,M,94.84,KBVU 131955Z AUTO VRB03KT 10SM CLR 37/08 A2995 RMK AO2,M
CXP,2023-08-13 19:55,-119.7326,39.1923,1431.00,89.60,35.60,14.83,50.00,8.00,0.00,30.19,M,10.00,14.00,CLR,M,M,M,M,M,M,M,M,M,M,M,M,M,M,85.62,KCXP 131955Z AUTO 05008G14KT 10SM CLR 32/02 A3019 RMK AO2,M
INS,2023-08-13 19:55,-115.6733,36.5872,955.00,93.60,39.00,14.96,360.00,6.00,0.00,30.03,1011.60,10.00,M,CLR,M,M,M,M,M,M,M,M,M,M,M,M,M,M,89.27,KINS 131955Z AUTO 36006KT 10SM CLR 34/04 A3003 RMK AO2 SLP116 T03420038 $,M
RNO,2023-08-13 19:55,-119.7711,39.4839,1341.00,93.00,37.00,14.09,0.00,0.00,0.00,30.15,1014.10,10.00,M,FEW,FEW,M,M,10000.00,15000.00,M,M,M,M,M,M,M,M,M,88.63,KRNO 131955Z 00000KT 10SM FEW100 FEW150 34/03 A3015 RMK AO2 SLP141 T03390028,M
LSV,2023-08-13 19:55,-115.0343,36.2362,570.00,105.30,44.40,12.93,280.00,4.00,0.00,29.92,1010.20,10.00,M,CLR,M,M,M,M,M,M,M,M,M,M,M,M,M,M,101.02,KLSV 131955Z AUTO 28004KT 10SM CLR 41/07 A2992 RMK AO2 SLP102 T04070069 $,M
RTS,2023-08-13 19:55,-119.8764,39.6682,1539.00,87.80,32.00,13.59,120.00,7.00,0.00,30.22,M,10.00,M,CLR,M,M,M,M,M,M,M,M,M,M,M,M,M,M,84.08,KRTS 131955Z AUTO 12007KT 090V150 10SM CLR 31/00 A3022 RMK AO2,M
05U,2023-08-13 19:55,-116.0051,39.6042,1811.23,84.20,41.00,21.76,M,M,0.00,30.27,M,10.00,M,M,M,M,M,M,M,M,M,M,M,M,M,M,M,M,81.52,K05U 131955Z AUTO 10SM 29/05 A3027 RMK A01,M
MEV,2023-08-13 19:55,-119.7500,38.9963,1441.42,87.80,42.80,20.79,300.00,7.00,0.00,30.18,M,9.00,M,CLR,M,M,M,M,M,M,M,M,M,M,M,M,M,M,84.40,KMEV 131955Z AUTO 30007KT 9SM CLR 31/06 A3018 RMK AO2,M
HTH,2023-08-13 19:55,-118.6315,38.5448,1282.89,87.80,41.00,19.40,330.00,4.00,0.00,30.16,M,10.00,10.00,CLR,M,M,M,M,M,M,M,M,M,M,M,M,M,M,84.30,KHTH 131955Z AUTO 33004G10KT 10SM CLR 31/05 A3016 RMK A01,M
BAM,2023-08-13 19:55,-116.8743,40.5990,1382.36,89.60,32.00,12.84,10.00,6.00,0.00,30.19,M,10.00,M,CLR,M,M,M,M,M,M,M,M,M,M,M,M,M,M,85.54,KBAM 131955Z AUTO 01006KT 10SM CLR 32/00 A3019 RMK AO1,M
TMT,2023-08-13 19:55,-117.1971,39.4643,1749.34,86.00,37.00,17.57,340.00,6.00,0.00,30.25,M,M,M,CLR,M,M,M,M,M,M,M,M,M,M,M,M,M,M,82.72,KTMT 131955Z AUTO 34006KT CLR 30/03 A3025 RMK AO2 T03010028 PWINO,M
EKO,2023-08-13 19:56,-115.7860,40.8242,1367.00,90.00,35.00,14.30,90.00,4.00,0.00,30.20,1016.20,10.00,M,CLR,M,M,M,M,M,M,M,M,M,M,M,M,M,M,85.95,KEKO 131956Z AUTO 09004KT 10SM CLR 32/02 A3020 RMK AO2 SLP162 T03220017,M
WMC,2023-08-13 19:56,-117.8072,40.9019,1315.00,92.00,32.00,11.91,M,4.00,0.00,30.16,1015.40,10.00,15.00,CLR,M,M,M,M,M,M,M,M,M,M,M,M,M,M,87.38,KWMC 131956Z AUTO VRB04G15KT 10SM CLR 33/00 A3016 RMK AO2 SLP154 T03330000,M
NFL,2023-08-13 19:56,-118.7010,39.4166,1199.00,91.00,44.00,19.68,M,5.00,0.00,30.13,1016.70,10.00,M,FEW,FEW,M,M,9000.00,12000.00,M,M,M,M,M,M,M,M,M,87.26,KNFL 131956Z VRB05KT 10SM FEW090 FEW120 33/07 A3013 RMK AO2 SLP167 T03280067,M
HND,2023-08-13 19:56,-115.1344,35.9729,742.79,98.00,49.00,19.15,M,4.00,0.00,30.01,1014.20,10.00,M,CLR,M,M,M,M,M,M,M,M,M,M,M,M,M,M,94.72,KHND 131956Z VRB04KT 10SM CLR 37/09 A3001 RMK AO2 LTG DSNT S-W SLP142 T03670094,M
TPH,2023-08-13 19:56,-117.0904,38.0505,1654.00,79.00,42.00,26.79,M,M,0.00,30.27,1017.60,10.00,M,CLR,M,M,M,M,M,M,M,M,M,M,M,M,M,M,79.00,KTPH 131956Z AUTO 10SM CLR 26/06 A3027 RMK AO2 SLP176 T02610056 $,M
LAS,2023-08-13 19:56,-115.1634,36.0719,663.00,98.00,47.00,17.77,M,3.00,0.00,29.97,1011.60,10.00,M,FEW,SCT,SCT,M,9000.00,12000.00,20000.00,M,M,M,M,M,M,M,M,94.34,KLAS 131956Z VRB03KT 10SM FEW090 SCT120 SCT200 37/08 A2997 RMK AO2 LTG DSNT S-W SLP116 CB DSNT N AND E-SE AND S-W T03670083,M
BVU,2023-08-13 20:15,-114.8611,35.9475,671.00,98.60,44.60,15.93,160.00,6.00,0.00,29.94,M,10.00,M,CLR,M,M,M,M,M,M,M,M,M,M,M,M,M,M,94.55,KBVU 132015Z AUTO 16006KT 10SM CLR 37/07 A2994 RMK AO2,M
CXP,2023-08-13 20:15,-119.7326,39.1923,1431.00,91.40,33.80,13.05,60.00,12.00,0.00,30.19,M,9.00,M,CLR,M,M,M,M,M,M,M,M,M,M,M,M,M,M,87.13,KCXP 132015Z AUTO 06012KT 9SM CLR 33/01 A3019 RMK AO2,M
RTS,2023-08-13 20:15,-119.8764,39.6682,1539.00,87.80,32.00,13.59,M,5.00,0.00,30.22,M,10.00,M,CLR,M,M,M,M,M,M,M,M,M,M,M,M,M,M,84.08,KRTS 132015Z AUTO VRB05KT 10SM CLR 31/M00 A3022 RMK AO2,M
05U,2023-08-13 20:15,-116.0051,39.6042,1811.23,86.00,39.20,19.15,M,M,0.00,30.27,M,10.00,M,M,M,M,M,M,M,M,M,M,M,M,M,M,M,M,82.79,K05U 132015Z AUTO 10SM 30/04 A3027 RMK A01,M
MEV,2023-08-13 20:15,-119.7500,38.9963,1441.42,87.80,42.80,20.79,M,4.00,0.00,30.17,M,10.00,10.00,CLR,M,M,M,M,M,M,M,M,M,M,M,M,M,M,84.40,KMEV 132015Z AUTO VRB04G10KT 10SM CLR 31/06 A3017 RMK AO2,M
HTH,2023-08-13 20:15,-118.6315,38.5448,1282.89,89.60,41.00,18.33,M,4.00,0.00,30.16,M,10.00,M,CLR,M,M,M,M,M,M,M,M,M,M,M,M,M,M,85.82,KHTH 132015Z AUTO VRB04KT 10SM CLR 32/05 A3016 RMK A01,M
BAM,2023-08-13 20:15,-116.8743,40.5990,1382.36,91.40,30.20,11.28,270.00,3.00,0.00,30.19,M,10.00,M,CLR,M,M,M,M,M,M,M,M,M,M,M,M,M,M,86.71,KBAM 132015Z AUTO 27003KT 10SM CLR 33/M01 A3019 RMK AO1,M
TMT,2023-08-13 20:15,-117.1971,39.4643,1749.34,87.80,37.20,16.72,30.00,8.00,0.00,30.24,M,M,M,CLR,M,M,M,M,M,M,M,M,M,M,M,M,M,M,84.16,KTMT 132015Z AUTO 03008KT CLR 31/03 A3024 RMK AO2 T03100029 PWINO,M
05U,2023-08-13 20:30,-116.0051,39.6042,1811.23,87.80,35.60,15.70,M,M,0.00,30.26,M,10.00,M,M,M,M,M,M,M,M,M,M,M,M,M,M,M,M,84.12,K05U 132030Z AUTO 10SM 31/02 A3026 RMK A01,M
BVU,2023-08-13 20:35,-114.8611,35.9475,671.00,98.60,44.60,15.93,0.00,0.00,0.00,29.94,M,10.00,M,CLR,M,M,M,M,M,M,M,M,M,M,M,M,M,M,94.55,KBVU 132035Z AUTO 00000KT 10SM CLR 37/07 A2994 RMK AO2 LTG DSNT SW AND W,M
CXP,2023-08-13 20:35,-119.7326,39.1923,1431.00,91.40,32.00,12.14,60.00,10.00,0.00,30.18,M,10.00,18.00,CLR,M,M,M,M,M,M,M,M,M,M,M,M,M,M,86.91,KCXP 132035Z AUTO 06010G18KT 10SM CLR 33/00 A3018 RMK AO2,M
RTS,2023-08-13 20:35,-119.8764,39.6682,1539.00,89.60,30.20,11.94,200.00,8.00,0.00,30.21,M,10.00,M,CLR,M,M,M,M,M,M,M,M,M,M,M,M,M,M,85.34,KRTS 132035Z AUTO 20008KT 10SM CLR 32/M01 A3021 RMK AO2,M
MEV,2023-08-13 20:35,-119.7500,38.9963,1441.42,89.60,41.00,18.33,300.00,6.00,0.00,30.17,M,8.00,M,CLR,M,M,M,M,M,M,M,M,M,M,M,M,M,M,85.82,KMEV 132035Z AUTO 30006KT 8SM CLR 32/05 A3017 RMK AO2,M
HTH,2023-08-13 20:35,-118.6315,38.5448,1282.89,89.60,41.00,18.33,190.00,5.00,0.00,30.15,M,10.00,10.00,CLR,M,M,M,M,M,M,M,M,M,M,M,M,M,M,85.82,KHTH 132035Z AUTO 19005G10KT 10SM CLR 32/05 A3015 RMK A01,M
BAM,2023-08-13 20:35,-116.8743,40.5990,1382.36,91.40,28.40,10.48,350.00,3.00,0.00,30.17,M,10.00,M,CLR,M,M,M,M,M,M,M,M,M,M,M,M,M,M,86.53,KBAM 132035Z AUTO 35003KT 10SM CLR 33/M02 A3017 RMK AO1,M
TMT,2023-08-13 20:35,-117.1971,39.4643,1749.34,86.70,38.00,17.87,350.00,3.00,0.00,30.24,M,M,M,CLR,M,M,M,M,M,M,M,M,M,M,M,M,M,M,83.30,KTMT 132035Z AUTO 35003KT CLR 30/03 A3024 RMK AO2 T03040033 PWINO,M
05U,2023-08-13 20:50,-116.0051,39.6042,1811.23,87.80,37.40,16.86,M,M,0.00,30.26,M,10.00,M,M,M,M,M,M,M,M,M,M,M,M,M,M,M,M,84.16,K05U 132050Z AUTO 10SM 31/03 A3026 RMK A01,M
P68,2023-08-13 20:53,-116.0056,39.6014,1993.00,88.00,37.00,16.49,350.00,8.00,0.00,30.23,1014.50,M,16.00,M,M,M,M,M,M,M,M,M,M,M,M,M,M,M,84.32,KP68 132053Z AUTO 35008G16KT 31/03 A3023 RMK AO1 SLP145 T03110028 58014,M
DRA,2023-08-13 20:53,-116.0278,36.6206,1009.00,95.00,42.00,16.10,190.00,6.00,0.00,30.03,1011.60,10.00,M,CLR,M,M,M,M,M,M,M,M,M,M,M,M,M,M,90.79,KDRA 132053Z AUTO 19006KT 10SM CLR 35/06 A3003 RMK AO2 SLP116 T03500056 58016,M
ELY,2023-08-13 20:53,-114.8453,39.2950,1909.00,82.00,41.00,23.37,M,4.00,0.00,30.25,1014.10,10.00,M,CLR,M,M,M,M,M,M,M,M,M,M,M,M,M,M,80.04,KELY 132053Z AUTO VRB04KT 10SM CLR 28/05 A3025 RMK AO2 SLP141 T02780050 58013,M
VGT,2023-08-13 20:53,-115.1933,36.2111,667.00,99.00,44.00,15.38,M,4.00,0.00,29.94,1012.30,10.00,M,CLR,M,M,M,M,M,M,M,M,M,M,M,M,M,M,94.85,KVGT 132053Z VRB04KT 10SM CLR 37/07 A2994 RMK AO2 LTG DSNT ALQDS SLP123 T03720067 56022,M
LOL,2023-08-13 20:53,-118.5701,40.0684,1192.43,93.00,33.00,12.02,M,M,0.00,30.11,1014.60,10.00,M,CLR,M,M,M,M,M,M,M,M,M,M,M,M,M,M,88.28,KLOL 132053Z AUTO 10SM CLR 34/01 A3011 RMK AO2 SLP146 T03390006 58014,M
BVU,2023-08-13 20:55,-114.8611,35.9475,671.00,98.60,44.60,15.93,M,3.00,0.00,29.93,M,10.00,M,CLR,M,M,M,M,M,M,M,M,M,M,M,M,M,M,94.55,KBVU 132055Z AUTO VRB03KT 10SM CLR 37/07 A2993 RMK AO2,M
CXP,2023-08-13 20:55,-119.7326,39.1923,1431.00,91.40,33.80,13.05,60.00,9.00,0.00,30.17,M,10.00,16.00,CLR,M,M,M,M,M,M,M,M,M,M,M,M,M,M,87.13,KCXP 132055Z AUTO 06009G16KT 10SM CLR 33/01 A3017 RMK AO2,M
INS,2023-08-13 20:55,-115.6733,36.5872,955.00,94.60,38.00,13.95,290.00,5.00,0.00,30.02,1011.50,10.00,M,SCT,SCT,M,M,12000.00,15000.00,M,M,M,M,M,M,M,M,M,90.13,KINS 132055Z AUTO 29005KT 10SM SCT120 SCT150 35/03 A3002 RMK AO2 SLP115 T03480033 57020 $,M
RNO,2023-08-13 20:55,-119.7711,39.4839,1341.00,96.00,33.00,10.96,M,3.00,0.00,30.14,1013.60,10.00,M,FEW,FEW,M,M,10000.00,15000.00,M,M,M,M,M,M,M,M,M,90.66,KRNO 132055Z VRB03KT 10SM FEW100 FEW150 36/01 A3014 RMK AO2 SLP136 T03560006 58015,M
RTS,2023-08-13 20:55,-119.8764,39.6682,1539.00,89.60,30.20,11.94,140.00,7.00,0.00,30.21,M,10.00,M,CLR,M,M,M,M,M,M,M,M,M,M,M,M,M,M,85.34,KRTS 132055Z AUTO 14007KT 10SM CLR 32/M01 A3021 RMK AO2,M
MEV,2023-08-13 20:55,-119.7500,38.9963,1441.42,89.60,39.20,17.09,310.00,6.00,0.00,30.15,M,9.00,11.00,CLR,M,M,M,M,M,M,M,M,M,M,M,M,M,M,85.73,KMEV 132055Z AUTO 31006G11KT 9SM CLR 32/04 A3015 RMK AO2,M
HTH,2023-08-13 20:55,-118.6315,38.5448,1282.89,89.60,41.00,18.33,0.00,0.00,0.00,30.14,M,10.00,M,CLR,M,M,M,M,M,M,M,M,M,M,M,M,M,M,85.82,KHTH 132055Z AUTO 00000KT 10SM CLR 32/05 A3014 RMK A01,M
BAM,2023-08-13 20:55,-116.8743,40.5990,1382.36,91.40,30.20,11.28,30.00,5.00,0.00,30.17,M,10.00,M,CLR,M,M,M,M,M,M,M,M,M,M,M,M,M,M,86.71,KBAM 132055Z AUTO 03005KT 10SM CLR 33/M01 A3017 RMK AO1,M
TMT,2023-08-13 20:55,-117.1971,39.4643,1749.34,88.30,37.00,16.33,360.00,3.00,0.00,30.22,M,M,M,CLR,M,M,M,M,M,M,M,M,M,M,M,M,M,M,84.57,KTMT 132055Z AUTO 36003KT CLR 31/03 A3022 RMK AO2 T03130028 PWINO,M
LSV,2023-08-13 20:55,-115.0343,36.2362,570.00,106.50,41.00,10.95,270.00,5.00,0.00,29.89,1009.20,10.00,M,CLR,M,M,M,M,M,M,M,M,M,M,M,M,M,M,101.18,KLSV 132055Z AUTO 27005KT 10SM CLR 41/05 A2989 RMK AO2 SLP092 T04140050 57023 $,M
EKO,2023-08-13 20:56,-115.7860,40.8242,1367.00,89.00,34.00,14.18,0.00,0.00,0.00,30.19,1016.40,10.00,M,CLR,M,M,M,M,M,M,M,M,M,M,M,M,M,M,85.09,KEKO 132056Z AUTO 00000KT 10SM CLR 32/01 A3019 RMK AO2 SLP164 T03170011 58012,M
WMC,2023-08-13 20:56,-117.8072,40.9019,1315.00,93.00,32.00,11.55,310.00,5.00,0.00,30.15,1015.10,10.00,M,FEW,M,M,M,10000.00,M,M,M,M,M,M,M,M,M,M,88.15,KWMC 132056Z AUTO 31005KT 10SM FEW100 34/00 A3015 RMK AO2 SLP151 T03390000 56011,M
NFL,2023-08-13 20:56,-118.7010,39.4166,1199.00,94.00,42.00,16.60,330.00,8.00,0.00,30.10,1016.00,10.00,M,FEW,FEW,M,M,9000.00,16000.00,M,M,M,M,M,M,M,M,M,89.85,KNFL 132056Z 33008KT 10SM FEW090 FEW160 34/06 A3010 RMK AO2 SLP160 TCU DSNT SE-SW T03440056 58016,M
HND,2023-08-13 20:56,-115.1344,35.9729,742.79,99.00,44.00,15.38,230.00,18.00,0.00,29.99,1013.70,10.00,26.00,CLR,M,M,M,M,M,M,M,M,M,M,M,26.00,220.00,2023-08-13 20:54,94.85,KHND 132056Z 23018G26KT 10SM CLR 37/07 A2999 RMK AO2 PK WND 22026/2054 WSHFT 2040 LTG DSNT S AND W SLP137 T03720067 56021,M
TPH,2023-08-13 20:56,-117.0904,38.0505,1654.00,83.00,43.00,24.44,210.00,6.00,0.00,30.25,1016.00,10.00,M,FEW,M,M,M,11000.00,M,M,M,M,M,M,M,M,M,M,80.79,KTPH 132056Z AUTO 21006KT 10SM FEW110 28/06 A3025 RMK AO2 SLP160 60000 T02830061 58014 $,M
LAS,2023-08-13 20:56,-115.1634,36.0719,663.00,99.00,44.00,15.38,M,5.00,0.00,29.95,1011.00,10.00,M,FEW,SCT,SCT,M,9000.00,12000.00,20000.00,M,M,M,M,M,M,M,M,94.85,KLAS 132056Z VRB05KT 10SM FEW090 SCT120 SCT200 37/07 A2995 RMK AO2 LTG DSNT S AND W SLP110 CB DSNT N AND E-SE TCU DSNT E T03720067 56021,M
05U,2023-08-13 21:10,-116.0051,39.6042,1811.23,89.60,37.40,15.92,M,M,0.00,30.26,M,10.00,M,M,M,M,M,M,M,M,M,M,M,M,M,M,M,M,85.67,K05U 132110Z AUTO 10SM 32/03 A3026 RMK A01,M
BVU,2023-08-13 21:15,-114.8611,35.9475,671.00,100.40,42.80,14.08,50.00,7.00,0.00,29.93,M,10.00,M,CLR,M,M,M,M,M,M,M,VCTS,M,M,M,M,M,M,96.04,KBVU 132115Z AUTO 05007KT 10SM VCTS CLR 38/06 A2993 RMK AO2 LTG DSNT NE AND SE AND SW,M
CXP,2023-08-13 21:15,-119.7326,39.1923,1431.00,93.20,32.00,11.48,M,5.00,0.00,30.16,M,10.00,16.00,CLR,M,M,M,M,M,M,M,M,M,M,M,M,M,M,88.31,KCXP 132115Z AUTO VRB05G16KT 10SM CLR 34/00 A3016 RMK AO2,M
RTS,2023-08-13 21:15,-119.8764,39.6682,1539.00,89.60,30.20,11.94,M,6.00,0.00,30.20,M,10.00,13.00,CLR,M,M,M,M,M,M,M,M,M,M,M,M,M,M,85.34,KRTS 132115Z AUTO VRB06G13KT 10SM CLR 32/M01 A3020 RMK AO2,M
MEV,2023-08-13 21:15,-119.7500,38.9963,1441.42,91.40,37.40,15.05,M,6.00,0.00,30.15,M,9.00,M,CLR,M,M,M,M,M,M,M,M,M,M,M,M,M,M,87.23,KMEV 132115Z AUTO VRB06KT 9SM CLR 33/03 A3015 RMK AO2,M
HTH,2023-08-13 21:15,-118.6315,38.5448,1282.89,89.60,44.60,21.04,170.00,20.00,0.00,30.14,M,0.25,26.00,BKN,BKN,M,M,10000.00,12000.00,M,M,HZ,M,M,M,M,M,M,86.07,KHTH 132115Z AUTO 17020G26KT 1/4SM HZ BKN100 BKN120 32/07 A3014 RMK A01,M
BAM,2023-08-13 21:15,-116.8743,40.5990,1382.36,91.40,30.20,11.28,10.00,6.00,0.00,30.16,M,10.00,M,CLR,M,M,M,M,M,M,M,M,M,M,M,M,M,M,86.71,KBAM 132115Z AUTO 01006KT 10SM CLR 33/M01 A3016 RMK AO1,M
TMT,2023-08-13 21:15,-117.1971,39.4643,1749.34,86.40,36.30,16.88,330.00,5.00,0.00,30.22,M,M,16.00,CLR,M,M,M,M,M,M,M,M,M,M,M,M,M,M,83.02,KTMT 132115Z AUTO 33005G16KT CLR 30/02 A3022 RMK AO2 T03020024 PWINO,M
BVU,2023-08-13 21:35,-114.8611,35.9475,671.00,100.40,41.00,13.14,M,6.00,0.00,29.93,M,10.00,M,CLR,M,M,M,M,M,M,M,M,M,M,M,M,M,M,95.79,KBVU 132135Z AUTO VRB06KT 030V090 10SM CLR 38/05 A2993 RMK AO2 LTG DSNT E-SW,M
CXP,2023-08-13 21:35,-119.7326,39.1923,1431.00,93.20,32.00,11.48,50.00,9.00,0.00,30.16,M,10.00,M,CLR,M,M,M,M,M,M,M,M,M,M,M,M,M,M,88.31,KCXP 132135Z AUTO 05009KT 10SM CLR 34/00 A3016 RMK AO2,M
RTS,2023-08-13 21:35,-119.8764,39.6682,1539.00,89.60,30.20,11.94,100.00,7.00,0.00,30.19,M,10.00,13.00,CLR,M,M,M,M,M,M,M,M,M,M,M,M,M,M,85.34,KRTS 132135Z AUTO 10007G13KT 050V150 10SM CLR 32/M01 A3019 RMK AO2,M
05U,2023-08-13 21:35,-116.0051,39.6042,1811.23,89.60,37.40,15.92,M,M,0.00,30.24,M,10.00,M,M,M,M,M,M,M,M,M,M,M,M,M,M,M,M,85.67,K05U 132135Z AUTO 10SM 32/03 A3024 RMK A01,M
MEV,2023-08-13 21:35,-119.7500,38.9963,1441.42,89.60,37.40,15.92,0.00,0.00,0.00,30.14,M,9.00,M,FEW,M,M,M,12000.00,M,M,M,M,M,M,M,M,M,M,85.67,KMEV 132135Z AUTO 00000KT 9SM FEW120 32/03 A3014 RMK AO2,M
HTH,2023-08-13 21:35,-118.6315,38.5448,1282.89,87.80,46.40,23.85,160.00,15.00,0.00,30.13,M,10.00,24.00,SCT,M,M,M,10000.00,M,M,M,M,M,M,M,M,M,M,84.68,KHTH 132135Z AUTO 16015G24KT 10SM SCT100 31/08 A3013 RMK A01,M
BAM,2023-08-13 21:35,-116.8743,40.5990,1382.36,93.20,30.20,10.67,0.00,0.00,0.00,30.16,M,10.00,M,CLR,M,M,M,M,M,M,M,M,M,M,M,M,M,M,88.09,KBAM 132135Z AUTO 00000KT 10SM CLR 34/M01 A3016 RMK AO1,M
TMT,2023-08-13 21:35,-117.1971,39.4643,1749.34,88.00,37.00,16.49,30.00,6.00,0.00,30.21,M,M,16.00,CLR,M,M,M,M,M,M,M,M,M,M,M,M,M,M,84.32,KTMT 132135Z AUTO 03006G16KT CLR 31/03 A3021 RMK AO2 T03110027 PWINO,M
HND,2023-08-13 21:44,-115.1344,35.9729,742.79,96.80,42.80,15.71,240.00,13.00,0.00,29.99,M,10.00,M,CLR,M,M,M,M,M,M,M,VCTS,M,M,M,M,M,M,92.57,KHND 132144Z 24013KT 10SM VCTS CLR 36/06 A2999 RMK AO2 LTG DSNT E-SW TSB38,M
05U,2023-08-13 21:50,-116.0051,39.6042,1811.23,89.60,37.40,15.92,M,M,0.00,30.24,M,10.00,M,M,M,M,M,M,M,M,M,M,M,M,M,M,M,M,85.67,K05U 132150Z AUTO 10SM 32/03 A3024 RMK A01,M
P68,2023-08-13 21:53,-116.0056,39.6014,1993.00,88.00,35.00,15.23,10.00,9.00,0.00,30.20,1013.90,M,M,M,M,M,M,M,M,M,M,M,M,M,M,M,M,M,84.28,KP68 132153Z AUTO 01009KT 31/02 A3020 RMK AO1 SLP139 T03110017,M
DRA,2023-08-13 21:53,-116.0278,36.6206,1009.00,92.00,43.00,18.36,180.00,26.00,0.00,30.02,1011.50,10.00,36.00,SCT,M,M,M,12000.00,M,M,M,M,M,M,M,36.00,190.00,2023-08-13 21:46,88.08,KDRA 132153Z AUTO 18026G36KT 10SM SCT120 33/06 A3002 RMK AO2 PK WND 19036/2146 WSHFT 2138 SLP115 T03330061,M
ELY,2023-08-13 21:53,-114.8453,39.2950,1909.00,86.00,43.00,22.19,180.00,6.00,0.00,30.23,1013.40,10.00,M,CLR,M,M,M,M,M,M,M,M,M,M,M,M,M,M,82.97,KELY 132153Z AUTO 18006KT 10SM CLR 30/06 A3023 RMK AO2 SLP134 T03000061,M
VGT,2023-08-13 21:53,-115.1933,36.2111,667.00,101.00,46.00,15.62,250.00,16.00,0.00,29.92,1011.80,10.00,29.00,CLR,M,M,M,M,M,M,M,M,M,M,M,29.00,250.00,2023-08-13 21:53,97.16,KVGT 132153Z 25016G29KT 210V270 10SM CLR 38/08 A2992 RMK AO2 PK WND 25029/2153 LTG DSNT SE AND S SLP118 T03830078,M
LOL,2023-08-13 21:53,-118.5701,40.0684,1192.43,95.00,33.00,11.30,150.00,9.00,0.00,30.08,1014.10,10.00,14.00,CLR,M,M,M,M,M,M,M,M,M,M,M,M,M,M,89.85,KLOL 132153Z AUTO 15009G14KT 10SM CLR 35/01 A3008 RMK AO2 SLP141 T03500006,M
BVU,2023-08-13 21:55,-114.8611,35.9475,671.00,93.20,48.20,21.54,120.00,18.00,0.00,29.96,M,9.00,26.00,BKN,M,M,M,12000.00,M,M,M,VCTS,M,M,M,M,M,M,89.80,KBVU 132155Z AUTO 12018G26KT 9SM VCTS BKN120 34/09 A2996 RMK AO2 LTG DSNT ALQDS,M
CXP,2023-08-13 21:55,-119.7326,39.1923,1431.00,93.20,32.00,11.48,60.00,13.00,0.00,30.15,M,10.00,M,CLR,M,M,M,M,M,M,M,M,M,M,M,M,M,M,88.31,KCXP 132155Z AUTO 06013KT 10SM CLR 34/00 A3015 RMK AO2,M
INS,2023-08-13 21:55,-115.6733,36.5872,955.00,96.40,33.30,10.95,50.00,13.00,0.00,30.00,1010.60,10.00,16.00,FEW,FEW,M,M,12000.00,18000.00,M,M,M,M,M,M,M,M,M,91.04,KINS 132155Z AUTO 05013G16KT 10SM FEW120 FEW180 36/01 A3000 RMK AO2 SLP106 T03580007 $,M
RNO,2023-08-13 21:55,-119.7711,39.4839,1341.00,96.00,34.00,11.40,M,3.00,0.00,30.11,1012.90,10.00,M,FEW,FEW,M,M,12000.00,17000.00,M,M,M,M,M,M,M,M,M,90.81,KRNO 132155Z VRB03KT 10SM FEW120 FEW170 36/01 A3011 RMK AO2 SLP129 T03560011,M
LSV,2023-08-13 21:55,-115.0343,36.2362,570.00,105.60,42.60,11.96,210.00,4.00,0.00,29.88,1008.90,10.00,M,CLR,M,M,M,M,M,M,M,M,M,M,M,M,M,M,100.79,KLSV 132155Z AUTO 21004KT 10SM CLR 41/06 A2988 RMK AO2 LTG DSNT SE SLP089 T04090059 $,M
RTS,2023-08-13 21:55,-119.8764,39.6682,1539.00,91.40,28.40,10.48,M,7.00,0.00,30.18,M,10.00,14.00,CLR,M,M,M,M,M,M,M,M,M,M,M,M,M,M,86.53,KRTS 132155Z AUTO VRB07G14KT 10SM CLR 33/M02 A3018 RMK AO2,M
MEV,2023-08-13 21:55,-119.7500,38.9963,1441.42,89.60,35.60,14.83,0.00,0.00,0.00,30.13,M,10.00,M,FEW,M,M,M,12000.00,M,M,M,M,M,M,M,M,M,M,85.62,KMEV 132155Z AUTO 00000KT 10SM FEW120 32/02 A3013 RMK AO2,M
HTH,2023-08-13 21:55,-118.6315,38.5448,1282.89,87.80,46.40,23.85,140.00,17.00,0.00,30.14,M,10.00,24.00,BKN,M,M,M,10000.00,M,M,M,M,M,M,M,M,M,M,84.68,KHTH 132155Z AUTO 14017G24KT 10SM BKN100 31/08 A3014 RMK A01,M
BAM,2023-08-13 21:55,-116.8743,40.5990,1382.36,93.20,30.20,10.67,310.00,5.00,0.00,30.15,M,10.00,M,CLR,M,M,M,M,M,M,M,M,M,M,M,M,M,M,88.09,KBAM 132155Z AUTO 31005KT 10SM CLR 34/M01 A3015 RMK AO1,M
TMT,2023-08-13 21:55,-117.1971,39.4643,1749.34,88.00,37.60,16.88,20.00,9.00,0.00,30.21,M,M,16.00,SCT,M,M,M,12000.00,M,M,M,M,M,M,M,M,M,M,84.33,KTMT 132155Z AUTO 02009G16KT SCT120 31/03 A3021 RMK AO2 T03110031 PWINO,M
EKO,2023-08-13 21:56,-115.7860,40.8242,1367.00,91.00,34.00,13.32,300.00,4.00,0.00,30.17,1015.60,10.00,M,CLR,M,M,M,M,M,M,M,M,M,M,M,M,M,M,86.79,KEKO 132156Z AUTO 30004KT 10SM CLR 33/01 A3017 RMK AO2 SLP156 T03280011,M
WMC,2023-08-13 21:56,-117.8072,40.9019,1315.00,95.00,31.00,10.42,20.00,7.00,0.00,30.13,1014.10,10.00,M,FEW,M,M,M,11000.00,M,M,M,M,M,M,M,M,M,M,89.58,KWMC 132156Z AUTO 02007KT 10SM FEW110 35/M01 A3013 RMK AO2 SLP141 T03501006,M
NFL,2023-08-13 21:56,-118.7010,39.4166,1199.00,96.00,37.00,12.85,320.00,9.00,0.00,30.08,1015.20,10.00,M,FEW,FEW,M,M,9000.00,16000.00,M,M,M,M,M,M,M,M,M,91.31,KNFL 132156Z 32009KT 290V360 10SM FEW090 FEW160 36/03 A3008 RMK AO2 SLP152 TCU DSNT S-SW T03560028,M
HND,2023-08-13 21:56,-115.1344,35.9729,742.79,94.00,45.00,18.62,230.00,12.00,0.00,29.99,1014.20,10.00,18.00,CLR,M,M,M,M,M,M,M,VCTS,M,M,M,M,M,M,90.15,KHND 132156Z 23012G18KT 10SM VCTS CLR 34/07 A2999 RMK AO2 LTG DSNT E-SW TSB38 SLP142 T03440072,M
TPH,2023-08-13 21:56,-117.0904,38.0505,1654.00,83.00,43.00,24.44,0.00,0.00,0.00,30.22,1015.40,10.00,M,CLR,M,M,M,M,M,M,M,M,M,M,M,M,M,M,80.79,KTPH 132156Z AUTO 00000KT 10SM CLR 28/06 A3022 RMK AO2 SLP154 T02830061 $,M
LAS,2023-08-13 21:56,-115.1634,36.0719,663.00,99.00,44.00,15.38,260.00,24.00,0.00,29.94,1010.80,10.00,32.00,FEW,SCT,SCT,M,9000.00,12000.00,20000.00,M,M,M,M,M,32.00,270.00,2023-08-13 21:53,94.85,KLAS 132156Z 26024G32KT 10SM FEW090 SCT120 SCT200 37/07 A2994 RMK AO2 PK WND 27032/2153 LTG DSNT E-SW SLP108 TCU DSNT N T03720067,M
DRA,2023-08-13 21:57,-116.0278,36.6206,1009.00,92.00,43.00,18.36,200.00,19.00,0.00,30.02,M,10.00,34.00,SCT,M,M,M,12000.00,M,M,M,M,M,M,M,31.00,190.00,2023-08-13 21:54,88.08,KDRA 132157Z AUTO 20019G34KT 10SM SCT120 33/06 A3002 RMK AO2 PK WND 19031/2154 WSHFT 2140 T03330061,M
LAS,2023-08-13 22:08,-115.1634,36.0719,663.00,100.00,45.00,15.50,270.00,22.00,0.00,29.94,M,10.00,32.00,FEW,SCT,SCT,M,9000.00,12000.00,20000.00,M,TS,M,M,M,32.00,280.00,2023-08-13 22:06,95.99,KLAS 132208Z 27022G32KT 10SM TS FEW090 SCT120CB SCT200 38/07 A2994 RMK AO2 PK WND 28032/2206 LTG DSNT ALQDS TCU DSNT N T03780072,M
LAS,2023-08-13 22:10,-115.1634,36.0719,663.00,100.00,45.00,15.50,270.00,24.00,0.00,29.94,M,10.00,32.00,FEW,SCT,SCT,M,9000.00,12000.00,20000.00,M,TS,M,M,M,32.00,280.00,2023-08-13 22:06,95.99,KLAS 132210Z 27024G32KT 10SM TS FEW090 SCT120CB SCT200 38/07 A2994 RMK AO2 PK WND 28032/2206 LTG DSNT ALQDS TSB07 TS E AND S MOV NW T03780072,M
05U,2023-08-13 22:10,-116.0051,39.6042,1811.23,89.60,33.80,13.80,M,M,0.00,30.23,M,10.00,M,M,M,M,M,M,M,M,M,M,M,M,M,M,M,M,85.59,K05U 132210Z AUTO 10SM 32/01 A3023 RMK A01,M
BVU,2023-08-13 22:15,-114.8611,35.9475,671.00,93.20,46.40,20.13,150.00,13.00,0.00,29.98,M,10.00,23.00,FEW,SCT,OVC,M,4900.00,7000.00,11000.00,M,TS,M,M,M,M,M,M,89.55,KBVU 132215Z AUTO 15013G23KT 10SM TS FEW049 SCT070 OVC110 34/08 A2998 RMK AO2 LTG DSNT ALQDS,M
CXP,2023-08-13 22:15,-119.7326,39.1923,1431.00,93.20,32.00,11.48,60.00,11.00,0.00,30.14,M,10.00,M,CLR,M,M,M,M,M,M,M,M,M,M,M,M,M,M,88.31,KCXP 132215Z AUTO 06011KT 10SM CLR 34/M00 A3014 RMK AO2,M
RTS,2023-08-13 22:15,-119.8764,39.6682,1539.00,91.40,26.60,9.74,90.00,6.00,0.00,30.18,M,10.00,13.00,CLR,M,M,M,M,M,M,M,M,M,M,M,M,M,M,86.36,KRTS 132215Z AUTO 09006G13KT 10SM CLR 33/M03 A3018 RMK AO2,M
MEV,2023-08-13 22:15,-119.7500,38.9963,1441.42,91.40,32.00,12.14,340.00,5.00,0.00,30.12,M,10.00,M,CLR,M,M,M,M,M,M,M,M,M,M,M,M,M,M,86.91,KMEV 132215Z AUTO 34005KT 10SM CLR 33/00 A3012 RMK AO2,M
HTH,2023-08-13 22:15,-118.6315,38.5448,1282.89,86.00,44.60,23.59,150.00,14.00,0.00,30.15,M,10.00,M,SCT,M,M,M,10000.00,M,M,M,M,M,M,M,M,M,M,83.07,KHTH 132215Z AUTO 15014KT 10SM SCT100 30/07 A3015 RMK A01,M
BAM,2023-08-13 22:15,-116.8743,40.5990,1382.36,93.20,32.00,11.48,0.00,0.00,0.00,30.13,M,10.00,M,CLR,M,M,M,M,M,M,M,M,M,M,M,M,M,M,88.31,KBAM 132215Z AUTO 00000KT 10SM CLR 34/00 A3013 RMK AO1,M
TMT,2023-08-13 22:15,-117.1971,39.4643,1749.34,86.00,37.40,17.85,60.00,3.00,0.00,30.20,M,M,M,BKN,M,M,M,12000.00,M,M,M,M,M,M,M,M,M,M,82.73,KTMT 132215Z AUTO 06003KT BKN120 30/03 A3020 RMK AO2 T03010030 PWINO,M
LSV,2023-08-13 22:30,-115.0343,36.2362,570.00,105.80,42.80,11.98,190.00,17.00,0.00,29.87,1008.50,10.00,M,SCT,BKN,M,M,12000.00,15000.00,M,M,VCTS,M,M,M,M,M,M,101.02,KLSV 132230Z COR 19017KT 10SM VCTS SCT120CB BKN150 41/06 A2987 RMK SLP085 $ COR 2233,M
05U,2023-08-13 22:30,-116.0051,39.6042,1811.23,89.60,35.60,14.83,M,M,0.00,30.22,M,10.00,M,M,M,M,M,M,M,M,M,M,M,M,M,M,M,M,85.62,K05U 132230Z AUTO 10SM 32/02 A3022 RMK A01,M
HND,2023-08-13 22:33,-115.1344,35.9729,742.79,86.00,57.20,37.62,140.00,19.00,T,30.03,M,10.00,22.00,BKN,M,M,M,11000.00,M,M,M,VCTS -RA,M,M,M,M,M,M,84.97,KHND 132233Z 14019G22KT 10SM VCTS -RA BKN110 30/14 A3003 RMK AO2 WSHFT 2213 LTG DSNT ALQDS RAB23 PRESRR P0000,M
BVU,2023-08-13 22:35,-114.8611,35.9475,671.00,93.20,48.20,21.54,210.00,25.00,0.00,29.96,M,9.00,33.00,FEW,FEW,SCT,M,7000.00,7500.00,11000.00,M,M,M,M,M,M,M,M,89.80,KBVU 132235Z AUTO 21025G33KT 9SM FEW070 FEW075 SCT110 34/09 A2996 RMK AO2,M
CXP,2023-08-13 22:35,-119.7326,39.1923,1431.00,93.20,33.80,12.34,70.00,13.00,0.00,30.13,M,10.00,M,CLR,M,M,M,M,M,M,M,M,M,M,M,M,M,M,88.55,KCXP 132235Z AUTO 07013KT 10SM CLR 34/01 A3013 RMK AO2,M
RTS,2023-08-13 22:35,-119.8764,39.6682,1539.00,89.60,26.60,10.30,M,4.00,0.00,30.17,M,10.00,15.00,CLR,M,M,M,M,M,M,M,M,M,M,M,M,M,M,85.02,KRTS 132235Z AUTO VRB04G15KT 10SM CLR 32/M03 A3017 RMK AO2,M
MEV,2023-08-13 22:35,-119.7500,38.9963,1441.42,89.60,33.80,13.80,40.00,6.00,0.00,30.12,M,10.00,M,CLR,M,M,M,M,M,M,M,M,M,M,M,M,M,M,85.59,KMEV 132235Z AUTO 04006KT 10SM CLR 32/01 A3012 RMK AO2,M
HTH,2023-08-13 22:35,-118.6315,38.5448,1282.89,80.60,53.60,39.30,110.00,23.00,0.00,30.17,M,10.00,36.00,FEW,M,M,M,11000.00,M,M,M,M,M,M,M,M,M,M,80.29,KHTH 132235Z AUTO 11023G36KT 10SM FEW110 27/12 A3017 RMK A01,M
BAM,2023-08-13 22:35,-116.8743,40.5990,1382.36,95.00,32.00,10.85,360.00,8.00,0.00,30.13,M,10.00,M,CLR,M,M,M,M,M,M,M,M,M,M,M,M,M,M,89.71,KBAM 132235Z AUTO 36008KT 10SM CLR 35/00 A3013 RMK AO1,M
TMT,2023-08-13 22:35,-117.1971,39.4643,1749.34,86.00,36.70,17.36,340.00,4.00,0.00,30.20,M,M,9.00,SCT,M,M,M,12000.00,M,M,M,M,M,M,M,M,M,M,82.71,KTMT 132235Z AUTO 34004G09KT SCT120 30/03 A3020 RMK AO2 T03000026 PWINO,M
LSV,2023-08-13 22:44,-115.0343,36.2362,570.00,102.20,46.40,15.30,150.00,27.00,0.00,29.89,1009.30,9.00,35.00,FEW,M,M,M,12000.00,M,M,M,VCTS,M,M,M,M,M,M,98.43,KLSV 132244Z AUTO 15027G35KT 9SM VCTS FEW120 39/08 A2989 RMK AO2 WSHFT 30 PRESRR SLP093 $,M
LAS,2023-08-13 22:47,-115.1634,36.0719,663.00,92.00,47.00,21.38,160.00,13.00,0.00,29.98,M,10.00,27.00,FEW,BKN,BKN,M,9000.00,12000.00,20000.00,M,TS,M,M,M,32.00,280.00,2023-08-13 22:06,88.49,KLAS 132247Z 16013G27KT 10SM TS FEW090 BKN120CB BKN200 33/08 A2998 RMK AO2 PK WND 28032/2206 WSHFT 2233 LTG DSNT N AND NE AND S TSB07 TS E AND S MOV NW T03330083,M
LSV,2023-08-13 22:50,-115.0343,36.2362,570.00,98.60,48.20,18.25,160.00,26.00,0.00,29.90,1009.80,3.00,35.00,SCT,M,M,M,12000.00,M,M,M,VCTS HZ,M,M,M,M,M,M,95.17,KLSV 132250Z AUTO 16026G35KT 3SM VCTS HZ SCT120 37/09 A2990 RMK AO2 SLP098 $,M
LSV,2023-08-13 22:51,-115.0343,36.2362,570.00,98.60,50.00,19.52,150.00,26.00,0.00,29.91,1010.20,2.50,35.00,SCT,M,M,M,12000.00,M,M,M,VCTS HZ,M,M,M,M,M,M,95.56,KLSV 132251Z AUTO 15026G35KT 2 1/2SM VCTS HZ SCT120 37/10 A2991 RMK AO2 VIS 2 1/2V10 SLP102 $,M
LSV,2023-08-13 22:52,-115.0343,36.2362,570.00,96.80,50.00,20.62,140.00,23.00,0.00,29.91,1010.20,2.00,35.00,SCT,M,M,M,12000.00,M,M,M,VCTS HZ,M,M,M,M,M,M,93.71,KLSV 132252Z AUTO 14023G35KT 2SM VCTS HZ SCT120 36/10 A2991 RMK AO2 VIS 2V10 SLP102 $,M
P68,2023-08-13 22:53,-116.0056,39.6014,1993.00,89.00,32.00,13.09,M,5.00,0.00,30.18,1013.50,M,M,M,M,M,M,M,M,M,M,M,M,M,M,M,M,M,85.07,KP68 132253Z AUTO VRB05KT 32/00 A3018 RMK AO1 SLP135 T03170000,M
DRA,2023-08-13 22:53,-116.0278,36.6206,1009.00,88.00,45.00,22.47,210.00,16.00,0.00,30.02,1011.90,10.00,26.00,CLR,M,M,M,M,M,M,M,M,M,M,M,35.00,190.00,2023-08-13 22:00,84.72,KDRA 132253Z AUTO 21016G26KT 10SM CLR 31/07 A3002 RMK AO2 PK WND 19035/2200 WSHFT 2140 SLP119 T03110072,M
ELY,2023-08-13 22:53,-114.8453,39.2950,1909.00,83.00,41.00,22.62,70.00,4.00,0.00,30.22,1013.50,10.00,M,FEW,M,M,M,10000.00,M,M,M,M,M,M,M,M,M,M,80.69,KELY 132253Z AUTO 07004KT 10SM FEW100 28/05 A3022 RMK AO2 SLP135 T02830050,M
VGT,2023-08-13 22:53,-115.1933,36.2111,667.00,98.00,46.00,17.11,220.00,17.00,0.00,29.92,1011.90,10.00,28.00,CLR,M,M,M,M,M,M,M,M,M,M,M,32.00,240.00,2023-08-13 21:56,94.18,KVGT 132253Z 22017G28KT 10SM CLR 37/08 A2992 RMK AO2 PK WND 24032/2156 LTG DSNT ALQDS SLP119 T03670078,M
LOL,2023-08-13 22:53,-118.5701,40.0684,1192.43,96.00,31.00,10.11,M,5.00,0.00,30.05,1012.70,10.00,18.00,CLR,M,M,M,M,M,M,M,M,M,M,M,M,M,M,90.40,KLOL 132253Z AUTO VRB05G18KT 10SM CLR 36/M01 A3005 RMK AO2 SLP127 T03561006,M
LSV,2023-08-13 22:54,-115.0343,36.2362,570.00,96.80,50.00,20.62,140.00,23.00,0.00,29.91,1010.20,2.00,35.00,SCT,M,M,M,12000.00,M,M,M,VCTS -RA,M,M,M,M,M,M,93.71,KLSV 132254Z AUTO 14023G35KT 2SM VCTS -RA SCT120 36/10 A2991 RMK AO2 VIS 2V8 RAB54 SLP102 $,M
BVU,2023-08-13 22:55,-114.8611,35.9475,671.00,93.20,48.20,21.54,230.00,24.00,0.00,29.97,M,9.00,29.00,CLR,M,M,M,M,M,M,M,M,M,M,M,M,M,M,89.80,KBVU 132255Z AUTO 23024G29KT 9SM CLR 34/09 A2997 RMK AO2 LTG DSNT N AND NE AND SW,M
CXP,2023-08-13 22:55,-119.7326,39.1923,1431.00,93.20,32.00,11.48,M,5.00,0.00,30.13,M,10.00,14.00,CLR,M,M,M,M,M,M,M,M,M,M,M,M,M,M,88.31,KCXP 132255Z AUTO VRB05G14KT 10SM CLR 34/M00 A3013 RMK AO2,M
INS,2023-08-13 22:55,-115.6733,36.5872,955.00,97.00,33.80,10.97,360.00,7.00,0.00,29.98,1010.10,10.00,14.00,BKN,M,M,M,16000.00,M,M,M,M,M,M,M,M,M,M,91.61,KINS 132255Z AUTO 36007G14KT 10SM BKN160 36/01 A2998 RMK AO2 SLP101 T03620010 $,M
RNO,2023-08-13 22:55,-119.7711,39.4839,1341.00,96.00,34.00,11.40,360.00,8.00,0.00,30.09,1012.30,10.00,17.00,FEW,FEW,FEW,M,10000.00,12000.00,18000.00,M,M,M,M,M,M,M,M,90.81,KRNO 132255Z 36008G17KT 10SM FEW100 FEW120 FEW180 36/01 A3009 RMK AO2 SLP123 T03560011,M
LSV,2023-08-13 22:55,-115.0343,36.2362,570.00,96.40,50.00,20.87,140.00,24.00,T,29.91,1010.20,2.50,35.00,SCT,M,M,M,12000.00,M,M,M,VCTS -RA,M,M,M,35.00,130.00,2023-08-13 22:44,93.30,KLSV 132255Z AUTO 14024G35KT 2 1/2SM VCTS -RA SCT120 36/10 A2991 RMK AO2 PK WND 13035/44 VIS 2V8 RAB54 SLP102 P0000 T03580100 $,M
RTS,2023-08-13 22:55,-119.8764,39.6682,1539.00,91.40,26.60,9.74,M,4.00,0.00,30.16,M,10.00,M,CLR,M,M,M,M,M,M,M,M,M,M,M,M,M,M,86.36,KRTS 132255Z AUTO VRB04KT 10SM CLR 33/M03 A3016 RMK AO2,M
05U,2023-08-13 22:55,-116.0051,39.6042,1811.23,89.60,33.80,13.80,M,M,0.00,30.21,M,10.00,M,M,M,M,M,M,M,M,M,M,M,M,M,M,M,M,85.59,K05U 132255Z AUTO 10SM 32/01 A3021 RMK A01,M
MEV,2023-08-13 22:55,-119.7500,38.9963,1441.42,91.40,32.00,12.14,60.00,6.00,0.00,30.11,M,9.00,M,CLR,M,M,M,M,M,M,M,M,M,M,M,M,M,M,86.91,KMEV 132255Z AUTO 06006KT 9SM CLR 33/00 A3011 RMK AO2,M
HTH,2023-08-13 22:55,-118.6315,38.5448,1282.89,77.00,53.60,44.25,150.00,12.00,0.00,30.18,M,10.00,22.00,FEW,SCT,SCT,M,6500.00,8500.00,11000.00,M,M,M,M,M,M,M,M,77.00,KHTH 132255Z AUTO 15012G22KT 10SM FEW065 SCT085 SCT110 25/12 A3018 RMK A01,M
BAM,2023-08-13 22:55,-116.8743,40.5990,1382.36,95.00,32.00,10.85,300.00,5.00,0.00,30.13,M,10.00,9.00,CLR,M,M,M,M,M,M,M,M,M,M,M,M,M,M,89.71,KBAM 132255Z AUTO 30005G09KT 10SM CLR 35/00 A3013 RMK AO1,M
TMT,2023-08-13 22:55,-117.1971,39.4643,1749.34,85.60,47.00,26.17,210.00,18.00,0.00,30.21,M,M,23.00,SCT,M,M,M,12000.00,M,M,M,M,M,M,M,M,M,M,82.96,KTMT 132255Z AUTO 21018G23KT SCT120 30/08 A3021 RMK AO2 T02980084 PWINO,M
EKO,2023-08-13 22:56,-115.7860,40.8242,1367.00,92.00,35.00,13.43,90.00,6.00,0.00,30.15,1014.80,10.00,M,CLR,M,M,M,M,M,M,M,M,M,M,M,M,M,M,87.68,KEKO 132256Z AUTO 09006KT 10SM CLR 33/02 A3015 RMK AO2 SLP148 T03330017,M
WMC,2023-08-13 22:56,-117.8072,40.9019,1315.00,96.00,30.00,9.71,M,6.00,0.00,30.11,1014.10,10.00,M,FEW,M,M,M,11000.00,M,M,M,M,M,M,M,M,M,M,90.27,KWMC 132256Z AUTO VRB06KT 10SM FEW110 36/M01 A3011 RMK AO2 SLP141 T03561011,M
NFL,2023-08-13 22:56,-118.7010,39.4166,1199.00,98.00,35.00,11.16,30.00,9.00,0.00,30.06,1014.70,10.00,M,FEW,FEW,M,M,9000.00,16000.00,M,M,M,M,M,M,M,M,M,92.63,KNFL 132256Z 03009KT 10SM FEW090 FEW160 37/02 A3006 RMK AO2 SLP147 CB DSNT S T03670017,M
HND,2023-08-13 22:56,-115.1344,35.9729,742.79,84.00,53.00,34.43,190.00,24.00,T,30.02,1015.50,10.00,28.00,FEW,BKN,OVC,M,4300.00,9500.00,11000.00,M,-RA,M,M,M,30.00,160.00,2023-08-13 22:35,82.51,KHND 132256Z 19024G28KT 10SM -RA FEW043 BKN095 OVC110 29/12 A3002 RMK AO2 PK WND 16030/2235 WSHFT 2213 LTG DSNT ALQDS TSE53RAB23 SLP155 P0000 T02890117,M
TPH,2023-08-13 22:56,-117.0904,38.0505,1654.00,86.00,45.00,23.95,360.00,5.00,0.00,30.20,1014.40,10.00,M,CLR,M,M,M,M,M,M,M,M,M,M,M,M,M,M,83.10,KTPH 132256Z AUTO 36005KT 10SM CLR 30/07 A3020 RMK AO2 SLP144 T03000072 $,M
LAS,2023-08-13 22:56,-115.1634,36.0719,663.00,90.00,49.00,24.53,180.00,17.00,0.00,29.97,1012.00,10.00,36.00,FEW,BKN,BKN,M,9000.00,12000.00,20000.00,M,TS,M,M,M,36.00,170.00,2023-08-13 22:48,86.91,KLAS 132256Z 18017G36KT 10SM TS FEW090 BKN120CB BKN200 32/09 A2997 RMK AO2 PK WND 17036/2248 WSHFT 2233 LTG DSNT NE AND S SLP120 TSB07 TS S-SW MOV NW T03220094,M
LSV,2023-08-13 22:57,-115.0343,36.2362,570.00,95.00,51.80,23.30,150.00,20.00,0.00,29.92,1010.60,4.00,32.00,SCT,M,M,M,12000.00,M,M,M,VCTS -RA,M,M,M,M,M,M,92.26,KLSV 132257Z AUTO 15020G32KT 4SM VCTS -RA SCT120 35/11 A2992 RMK AO2 SLP106 $,M
LAS,2023-08-13 23:03,-115.1634,36.0719,663.00,89.00,49.00,25.32,190.00,19.00,0.00,29.97,M,10.00,34.00,FEW,SCT,BKN,M,9000.00,12000.00,20000.00,M,TS,M,M,M,34.00,190.00,2023-08-13 22:58,86.01,KLAS 132303Z 19019G34KT 10SM TS FEW090 SCT120CB BKN200 32/09 A2997 RMK AO2 PK WND 19034/2258 WSHFT 2243 LTG DSNT NE AND S TS S-W MOV NW T03170094,M
05U,2023-08-13 23:10,-116.0051,39.6042,1811.23,89.60,33.80,13.80,M,M,0.00,30.21,M,10.00,M,M,M,M,M,M,M,M,M,M,M,M,M,M,M,M,85.59,K05U 132310Z AUTO 10SM 32/01 A3021 RMK A01,M
INS,2023-08-13 23:11,-115.6733,36.5872,955.00,96.80,37.40,12.73,260.00,11.00,0.00,29.99,1010.60,10.00,M,SCT,OVC,M,M,12000.00,16000.00,M,M,M,M,M,M,M,M,M,92.04,KINS 132311Z AUTO 26011KT 10SM SCT120 OVC160 36/03 A2999 RMK AO2 WSHFT 08 SLP106 $,M
BVU,2023-08-13 23:15,-114.8611,35.9475,671.00,91.40,48.20,22.78,230.00,21.00,0.00,29.98,M,10.00,28.00,CLR,M,M,M,M,M,M,M,M,M,M,M,M,M,M,88.09,KBVU 132315Z AUTO 23021G28KT 10SM CLR 33/09 A2998 RMK AO2,M
CXP,2023-08-13 23:15,-119.7326,39.1923,1431.00,93.20,32.00,11.48,80.00,7.00,0.00,30.13,M,10.00,19.00,CLR,M,M,M,M,M,M,M,M,M,M,M,M,M,M,88.31,KCXP 132315Z AUTO 08007G19KT 10SM CLR 34/00 A3013 RMK AO2,M
RTS,2023-08-13 23:15,-119.8764,39.6682,1539.00,91.40,26.60,9.74,70.00,7.00,0.00,30.16,M,10.00,14.00,CLR,M,M,M,M,M,M,M,M,M,M,M,M,M,M,86.36,KRTS 132315Z AUTO 07007G14KT 040V110 10SM CLR 33/M03 A3016 RMK AO2,M
LAS,2023-08-13 23:15,-115.1634,36.0719,663.00,90.00,48.00,23.63,190.00,14.00,0.00,29.97,M,10.00,29.00,FEW,SCT,BKN,M,9000.00,12000.00,20000.00,M,M,M,M,M,34.00,190.00,2023-08-13 22:58,86.78,KLAS 132315Z 19014G29KT 10SM FEW090 SCT120 BKN200 32/09 A2997 RMK AO2 PK WND 19034/2258 WSHFT 2243 TSE08 MOV N T03220089,M
MEV,2023-08-13 23:15,-119.7500,38.9963,1441.42,93.20,32.00,11.48,20.00,9.00,0.00,30.10,M,10.00,15.00,CLR,M,M,M,M,M,M,M,M,M,M,M,M,M,M,88.31,KMEV 132315Z AUTO 02009G15KT 10SM CLR 34/M00 A3010 RMK AO2,M
HTH,2023-08-13 23:15,-118.6315,38.5448,1282.89,77.00,51.80,41.42,230.00,11.00,0.00,30.16,M,10.00,M,FEW,SCT,BKN,M,7000.00,8500.00,11000.00,M,M,M,M,M,M,M,M,77.00,KHTH 132315Z AUTO 23011KT 10SM FEW070 SCT085 BKN110 25/11 A3016 RMK A01,M
BAM,2023-08-13 23:15,-116.8743,40.5990,1382.36,95.00,32.00,10.85,330.00,6.00,0.00,30.12,M,10.00,M,CLR,M,M,M,M,M,M,M,M,M,M,M,M,M,M,89.71,KBAM 132315Z AUTO 33006KT 10SM CLR 35/00 A3012 RMK AO1,M
TMT,2023-08-13 23:15,-117.1971,39.4643,1749.34,82.80,46.60,28.21,210.00,20.00,0.00,30.21,M,M,25.00,BKN,M,M,M,12000.00,M,M,M,M,M,M,M,M,M,M,80.92,KTMT 132315Z AUTO 21020G25KT BKN120 28/08 A3021 RMK AO2 T02820081 PWINO,M
VGT,2023-08-13 23:24,-115.1933,36.2111,667.00,93.00,47.00,20.72,200.00,22.00,0.00,29.97,M,10.00,36.00,FEW,SCT,M,M,8500.00,11000.00,M,M,M,M,M,M,39.00,170.00,2023-08-13 23:11,89.44,KVGT 132324Z 20022G36KT 10SM FEW085 SCT110 34/08 A2997 RMK AO2 PK WND 17039/2311 WSHFT 2304 LTG DSNT N AND NW PRESRR T03390083,M
LSV,2023-08-13 23:28,-115.0343,36.2362,570.00,87.80,53.60,31.17,190.00,25.00,0.00,29.90,1010.10,10.00,M,FEW,FEW,SCT,SCT,4400.00,6000.00,7500.00,12000.00,M,M,M,M,M,M,M,85.72,KLSV 132328Z AUTO 19025KT 10SM FEW044 FEW060 SCT075 SCT120 31/12 A2990 RMK AO2 RAE07DZB07E09RAB09E28 SLP101 $,M
INS,2023-08-13 23:31,-115.6733,36.5872,955.00,93.20,42.80,17.55,100.00,23.00,0.00,29.99,1010.60,10.00,28.00,OVC,M,M,M,11000.00,M,M,M,TS HZ,M,M,M,M,M,M,89.17,KINS 132331Z AUTO 10023G28KT 10SM TS HZ OVC110 34/06 A2999 RMK AO2 TSB31 SLP106 $,M
INS,2023-08-13 23:32,-115.6733,36.5872,955.00,93.20,42.80,17.55,100.00,26.00,0.00,29.99,1010.60,10.00,28.00,FEW,OVC,M,M,9000.00,11000.00,M,M,TS -DZ,M,M,M,M,M,M,89.17,KINS 132332Z AUTO 10026G28KT 10SM TS -DZ FEW090 OVC110 34/06 A2999 RMK AO2 DZB31 TSB31 SLP106 $,M
BVU,2023-08-13 23:35,-114.8611,35.9475,671.00,91.40,46.40,21.29,250.00,14.00,0.00,29.96,M,10.00,19.00,CLR,M,M,M,M,M,M,M,M,M,M,M,M,M,M,87.86,KBVU 132335Z AUTO 25014G19KT 10SM CLR 33/08 A2996 RMK AO2,M
CXP,2023-08-13 23:35,-119.7326,39.1923,1431.00,93.20,32.00,11.48,90.00,7.00,0.00,30.12,M,10.00,13.00,CLR,M,M,M,M,M,M,M,M,M,M,M,M,M,M,88.31,KCXP 132335Z AUTO 09007G13KT 10SM CLR 34/00 A3012 RMK AO2 LTG DSNT SE,M
VGT,2023-08-13 23:35,-115.1933,36.2111,667.00,92.00,48.00,22.19,180.00,14.00,0.00,29.98,M,10.00,27.00,FEW,SCT,BKN,M,6500.00,9500.00,12000.00,M,VCTS,M,M,M,39.00,170.00,2023-08-13 23:11,88.63,KVGT 132335Z 18014G27KT 10SM VCTS FEW065 SCT095 BKN120 33/09 A2998 RMK AO2 PK WND 17039/2311 WSHFT 2304 LTG DSNT N AND NW T03330089,M
RTS,2023-08-13 23:35,-119.8764,39.6682,1539.00,91.40,26.60,9.74,M,4.00,0.00,30.16,M,10.00,14.00,CLR,M,M,M,M,M,M,M,M,M,M,M,M,M,M,86.36,KRTS 132335Z AUTO VRB04G14KT 10SM CLR 33/M03 A3016 RMK AO2,M
05U,2023-08-13 23:35,-116.0051,39.6042,1811.23,91.40,30.20,11.28,M,M,0.00,30.21,M,10.00,M,M,M,M,M,M,M,M,M,M,M,M,M,M,M,M,86.71,K05U 132335Z AUTO 10SM 33/M01 A3021 RMK A01,M
MEV,2023-08-13 23:35,-119.7500,38.9963,1441.42,91.40,30.20,11.28,70.00,6.00,0.00,30.10,M,10.00,14.00,CLR,M,M,M,M,M,M,M,M,M,M,M,M,M,M,86.71,KMEV 132335Z AUTO 07006G14KT 10SM CLR 33/M01 A3010 RMK AO2,M
HTH,2023-08-13 23:35,-118.6315,38.5448,1282.89,78.80,50.00,36.51,230.00,13.00,0.00,30.15,M,10.00,M,FEW,FEW,SCT,M,2500.00,5000.00,12000.00,M,M,M,M,M,M,M,M,78.80,KHTH 132335Z AUTO 23013KT 10SM FEW025 FEW050 SCT120 26/10 A3015 RMK A01,M
BAM,2023-08-13 23:35,-116.8743,40.5990,1382.36,95.00,32.00,10.85,320.00,9.00,0.00,30.11,M,10.00,M,CLR,M,M,M,M,M,M,M,M,M,M,M,M,M,M,89.71,KBAM 132335Z AUTO 32009KT 10SM CLR 35/00 A3011 RMK AO1,M
TMT,2023-08-13 23:35,-117.1971,39.4643,1749.34,83.30,46.40,27.54,210.00,16.00,0.00,30.20,M,M,21.00,SCT,M,M,M,12000.00,M,M,M,M,M,M,M,M,M,M,81.24,KTMT 132335Z AUTO 21016G21KT SCT120 29/08 A3020 RMK AO2 T02850080 PWINO,M
INS,2023-08-13 23:42,-115.6733,36.5872,955.00,91.40,37.40,15.05,140.00,18.00,0.00,30.00,1011.10,7.00,36.00,FEW,BKN,OVC,M,4200.00,9000.00,11000.00,M,TS -DZ,M,M,M,M,M,M,87.23,KINS 132342Z AUTO 14018G36KT 7SM TS -DZ FEW042 BKN090 OVC110 33/03 A3000 RMK AO2 WSHFT 31 DZB31 TSB31 SLP111 $,M
INS,2023-08-13 23:43,-115.6733,36.5872,955.00,91.40,37.40,15.05,190.00,17.00,0.00,29.99,1010.80,7.00,36.00,FEW,BKN,OVC,M,4200.00,9000.00,11000.00,M,TS -DZ,M,M,M,M,M,M,87.23,KINS 132343Z AUTO 19017G36KT 7SM TS -DZ FEW042 BKN090 OVC110 33/03 A2999 RMK AO2 WSHFT 42 DZB31 TSB31 SLP108 $,M
INS,2023-08-13 23:48,-115.6733,36.5872,955.00,89.60,35.60,14.83,230.00,22.00,0.00,29.99,1010.80,10.00,30.00,BKN,OVC,M,M,10000.00,12000.00,M,M,TS,M,M,M,M,M,M,85.62,KINS 132348Z AUTO 23022G30KT 10SM TS BKN100 OVC120 32/02 A2999 RMK AO2 DZB31E48 TSB31 SLP108 $,M
05U,2023-08-13 23:50,-116.0051,39.6042,1811.23,91.40,30.20,11.28,M,M,0.00,30.20,M,10.00,M,M,M,M,M,M,M,M,M,M,M,M,M,M,M,M,86.71,K05U 132350Z AUTO 10SM 33/M01 A3020 RMK A01,M
HTH,2023-08-13 23:50,-118.6315,38.5448,1282.89,80.60,48.20,32.18,190.00,4.00,0.00,30.14,M,10.00,11.00,FEW,M,M,M,12000.00,M,M,M,M,M,M,M,M,M,M,79.71,KHTH 132350Z AUTO 19004G11KT 10SM FEW120 27/09 A3014 RMK A01,M
INS,2023-08-13 23:51,-115.6733,36.5872,955.00,89.60,37.40,15.92,230.00,22.00,0.00,29.99,1010.80,10.00,25.00,BKN,OVC,M,M,10000.00,12000.00,M,M,TS -DZ,M,M,M,M,M,M,85.67,KINS 132351Z AUTO 23022G25KT 10SM TS -DZ BKN100 OVC120 32/03 A2999 RMK AO2 DZB31E48DZB51 TSB31 SLP108 $,M
P68,2023-08-13 23:53,-116.0056,39.6014,1993.00,89.00,29.00,11.59,350.00,6.00,0.00,30.17,1013.30,M,16.00,M,M,M,M,M,M,M,M,M,M,M,M,M,M,M,84.78,KP68 132353Z AUTO 35006G16KT 32/M02 A3017 RMK AO1 SLP133 T03171017 10328 20261 56015,M
DRA,2023-08-13 23:53,-116.0278,36.6206,1009.00,91.00,43.00,18.94,230.00,14.00,0.00,30.02,1011.60,10.00,22.00,CLR,M,M,M,M,M,M,M,M,M,M,M,27.00,220.00,2023-08-13 23:00,87.18,KDRA 132353Z AUTO 23014G22KT 10SM CLR 33/06 A3002 RMK AO2 PK WND 22027/2300 SLP116 T03280061 10372 20306 56004,M
ELY,2023-08-13 23:53,-114.8453,39.2950,1909.00,83.00,41.00,22.62,M,4.00,0.00,30.22,1013.60,10.00,M,FEW,M,M,M,10000.00,M,M,M,M,M,M,M,M,M,M,80.69,KELY 132353Z AUTO VRB04KT 10SM FEW100 28/05 A3022 RMK AO2 LTG DSNT SW SLP136 T02830050 10306 20250 56010,M
VGT,2023-08-13 23:53,-115.1933,36.2111,667.00,92.00,48.00,22.19,220.00,20.00,T,29.94,1012.90,10.00,26.00,FEW,SCT,BKN,M,4500.00,6000.00,9500.00,M,-RA,M,M,M,39.00,170.00,2023-08-13 23:11,88.63,KVGT 132353Z 22020G26KT 10SM -RA FEW045 SCT060 BKN095 33/09 A2994 RMK AO2 PK WND 17039/2311 WSHFT 2304 LTG DSNT N AND NW RAB41 SLP129 P0000 60000 T03330089 10389 20333 53005,M
LOL,2023-08-13 23:53,-118.5701,40.0684,1192.43,96.00,31.00,10.11,80.00,8.00,0.00,30.03,1012.20,10.00,M,CLR,M,M,M,M,M,M,M,M,M,M,M,M,M,M,90.40,KLOL 132353Z AUTO 08008KT 10SM CLR 36/M01 A3003 RMK AO2 SLP122 T03561006 10361 20294 56022,M
BVU,2023-08-13 23:55,-114.8611,35.9475,671.00,93.20,44.60,18.80,280.00,14.00,0.00,29.95,M,10.00,19.00,CLR,M,M,M,M,M,M,M,M,M,M,M,M,M,M,89.34,KBVU 132355Z AUTO 28014G19KT 10SM CLR 34/07 A2995 RMK AO2,M
CXP,2023-08-13 23:55,-119.7326,39.1923,1431.00,93.20,32.00,11.48,70.00,7.00,0.00,30.11,M,10.00,14.00,CLR,M,M,M,M,M,M,M,M,M,M,M,M,M,M,88.31,KCXP 132355Z AUTO 07007G14KT 10SM CLR 34/00 A3011 RMK AO2,M
RNO,2023-08-13 23:55,-119.7711,39.4839,1341.00,96.00,32.00,10.53,350.00,8.00,0.00,30.08,1012.00,10.00,M,FEW,SCT,SCT,M,10000.00,12000.00,18000.00,M,M,M,M,M,M,M,M,90.53,KRNO 132355Z 35008KT 10SM FEW100 SCT120 SCT180 36/00 A3008 RMK AO2 SLP120 CB DSNT S T03560000 10361 20300 56018,M
RTS,2023-08-13 23:55,-119.8764,39.6682,1539.00,89.60,26.60,10.30,50.00,12.00,0.00,30.15,M,10.00,17.00,CLR,M,M,M,M,M,M,M,M,M,M,M,M,M,M,85.02,KRTS 132355Z AUTO 05012G17KT 10SM CLR 32/M03 A3015 RMK AO2,M
MEV,2023-08-13 23:55,-119.7500,38.9963,1441.42,93.20,32.00,11.48,50.00,9.00,0.00,30.10,M,10.00,15.00,CLR,M,M,M,M,M,M,M,M,M,M,M,M,M,M,88.31,KMEV 132355Z AUTO 05009G15KT 350V090 10SM CLR 34/M00 A3010 RMK AO2,M
BAM,2023-08-13 23:55,-116.8743,40.5990,1382.36,95.00,32.00,10.85,330.00,10.00,0.00,30.11,M,10.00,M,CLR,M,M,M,M,M,M,M,M,M,M,M,M,M,M,89.71,KBAM 132355Z AUTO 33010KT 10SM CLR 35/00 A3011 RMK AO1,M
TMT,2023-08-13 23:55,-117.1971,39.4643,1749.34,83.00,46.80,28.24,200.00,17.00,0.00,30.19,M,M,23.00,CLR,M,M,M,M,M,M,M,M,M,M,M,M,M,M,81.07,KTMT 132355Z AUTO 20017G23KT CLR 28/08 A3019 RMK AO2 T02830082 10317 20257 PWINO,M
EKO,2023-08-13 23:56,-115.7860,40.8242,1367.00,92.00,34.00,12.91,60.00,8.00,0.00,30.13,1014.60,10.00,M,CLR,M,M,M,M,M,M,M,M,M,M,M,M,M,M,87.64,KEKO 132356Z AUTO 06008KT 10SM CLR 33/01 A3013 RMK AO2 SLP146 T03330011 10333 20278 56017,M
WMC,2023-08-13 23:56,-117.8072,40.9019,1315.00,95.00,32.00,10.85,280.00,5.00,0.00,30.09,1013.30,10.00,M,SCT,M,M,M,11000.00,M,M,M,M,M,M,M,M,M,M,89.71,KWMC 132356Z AUTO 28005KT 10SM SCT110 35/00 A3009 RMK AO2 SLP133 T03500000 10356 20306 56017,M
NFL,2023-08-13 23:56,-118.7010,39.4166,1199.00,96.00,35.00,11.87,M,4.00,0.00,30.04,1014.30,10.00,M,FEW,FEW,FEW,M,9000.00,16000.00,20000.00,M,M,M,M,M,M,M,M,90.97,KNFL 132356Z VRB04KT 10SM FEW090 FEW160 FEW200 36/02 A3004 RMK AO2 SLP143 CB DSNT SW T03560017 10372 20294 56017,M
HND,2023-08-13 23:56,-115.1344,35.9729,742.79,88.00,48.00,25.17,210.00,14.00,T,30.00,1014.70,10.00,20.00,CLR,M,M,M,M,M,M,M,M,M,M,M,33.00,200.00,2023-08-13 23:08,85.02,KHND 132356Z 21014G20KT 10SM CLR 31/09 A3000 RMK AO2 PK WND 20033/2308 RAE07 SLP147 P0000 60000 T03110089 10378 20278 50004,M
TPH,2023-08-13 23:56,-117.0904,38.0505,1654.00,85.00,43.00,22.91,0.00,0.00,0.00,30.18,1013.90,10.00,M,CLR,M,M,M,M,M,M,M,M,M,M,M,M,M,M,82.21,KTPH 132356Z AUTO 00000KT 10SM CLR 29/06 A3018 RMK AO2 LTG DSNT NE SLP139 60000 T02940061 10300 20222 56019 $,M
LAS,2023-08-13 23:56,-115.1634,36.0719,663.00,90.00,47.00,22.76,190.00,13.00,0.00,29.96,1011.90,10.00,25.00,FEW,SCT,BKN,M,9000.00,12000.00,20000.00,M,M,M,M,M,34.00,190.00,2023-08-13 22:58,86.66,KLAS 132356Z 19013G25KT 10SM FEW090 SCT120 BKN200 32/08 A2996 RMK AO2 PK WND 19034/2258 WSHFT 2243 SLP119 TSE08 MOV N SH DSNT SW T03220083 10383 20317 50005,M
INS,2023-08-13 23:57,-115.6733,36.5872,955.00,89.60,39.20,17.09,210.00,19.00,0.00,30.00,1011.10,10.00,25.00,SCT,BKN,M,M,9000.00,11000.00,M,M,-DZ,M,M,M,M,M,M,85.73,KINS 132357Z AUTO 21019G25KT 10SM -DZ SCT090 BKN110 32/04 A3000 RMK AO2 LTG DSNT NE TSE57 SLP111 $,M
