station,valid,lon,lat,elevation,tmpf,dwpf,relh,drct,sknt,p01i,alti,mslp,vsby,gust,skyc1,skyc2,skyc3,skyc4,skyl1,skyl2,skyl3,skyl4,wxcodes,ice_accretion_1hr,ice_accretion_3hr,ice_accretion_6hr,peak_wind_gust,peak_wind_drct,peak_wind_time,feel,metar,snowdepth
BVU,2025-05-05 00:15,-114.8611,35.9475,671.00,62.60,48.20,59.26,0.00,0.00,0.00,29.63,M,10.00,M,FEW,M,M,M,11000.00,M,M,M,M,M,M,M,M,M,M,62.60,KBVU 050015Z AUTO 00000KT 10SM FEW110 17/09 A2963 RMK AO2,M
BAM,2025-05-05 00:15,-116.8743,40.5990,1382.36,51.80,41.00,66.48,10.00,7.00,0.00,29.87,M,10.00,M,OVC,M,M,M,3500.00,M,M,M,M,M,M,M,M,M,M,51.80,KBAM 050015Z AUTO 01007KT 10SM OVC035 11/05 A2987 RMK AO1,M
CXP,2025-05-05 00:15,-119.7326,39.1923,1431.00,51.80,39.20,61.99,60.00,11.00,0.00,29.90,M,10.00,M,OVC,M,M,M,3600.00,M,M,M,M,M,M,M,M,M,M,51.80,KCXP 050015Z AUTO 06011KT 10SM OVC036 11/04 A2990 RMK AO2,M
RTS,2025-05-05 00:15,-119.8764,39.6682,1539.00,51.80,35.60,53.81,50.00,11.00,0.00,29.91,M,10.00,M,OVC,M,M,M,4200.00,M,M,M,M,M,M,M,M,M,M,51.80,KRTS 050015Z AUTO 05011KT 10SM OVC042 11/02 A2991 RMK AO2,M
MEV,2025-05-05 00:15,-119.7500,38.9963,1441.42,51.80,37.40,57.77,350.00,9.00,0.00,29.88,M,10.00,15.00,OVC,M,M,M,3600.00,M,M,M,M,M,M,M,M,M,M,51.80,KMEV 050015Z AUTO 35009G15KT 10SM OVC036 11/03 A2988 RMK AO2,M
HTH,2025-05-05 00:15,-118.6315,38.5448,1282.89,50.00,41.00,71.07,350.00,18.00,0.00,29.86,M,10.00,25.00,SCT,BKN,OVC,M,2600.00,4400.00,6000.00,M,M,M,M,M,M,M,M,50.00,KHTH 050015Z AUTO 35018G25KT 10SM SCT026 BKN044 OVC060 10/05 A2986 RMK A01,M
TMT,2025-05-05 00:15,-117.1971,39.4643,1749.34,42.80,42.00,96.97,350.00,9.00,0.00,29.87,M,10.00,M,SCT,OVC,M,M,800.00,1200.00,M,M,-RA,M,M,M,M,M,M,36.94,KTMT 050015Z AUTO 35009KT 10SM -RA SCT008 OVC012 06/06 A2987 RMK AO2 T00600055,M
10U,2025-05-05 00:15,-116.1876,41.9532,1637.00,48.20,39.20,70.88,360.00,5.00,0.00,29.90,M,10.00,M,OVC,M,M,M,2800.00,M,M,M,M,M,M,M,M,M,M,45.63,K10U 050015Z AUTO 36005KT 10SM OVC028 09/04 A2990 RMK AO2,M
CXP,2025-05-05 00:35,-119.7326,39.1923,1431.00,51.80,37.40,57.77,70.00,9.00,0.00,29.90,M,10.00,M,OVC,M,M,M,3400.00,M,M,M,M,M,M,M,M,M,M,51.80,KCXP 050035Z AUTO 07009KT 10SM OVC034 11/03 A2990 RMK AO2,M
RTS,2025-05-05 00:35,-119.8764,39.6682,1539.00,50.00,33.80,53.54,70.00,7.00,0.00,29.92,M,10.00,13.00,OVC,M,M,M,4200.00,M,M,M,M,M,M,M,M,M,M,50.00,KRTS 050035Z AUTO 07007G13KT 10SM OVC042 10/01 A2992 RMK AO2,M
MEV,2025-05-05 00:35,-119.7500,38.9963,1441.42,51.80,39.20,61.99,20.00,9.00,0.00,29.89,M,10.00,M,BKN,OVC,M,M,3800.00,4500.00,M,M,M,M,M,M,M,M,M,51.80,KMEV 050035Z AUTO 02009KT 10SM BKN038 OVC045 11/04 A2989 RMK AO2,M
HTH,2025-05-05 00:35,-118.6315,38.5448,1282.89,51.80,41.00,66.48,350.00,19.00,0.00,29.87,M,9.00,26.00,SCT,BKN,OVC,M,2900.00,3400.00,7000.00,M,M,M,M,M,M,M,M,51.80,KHTH 050035Z AUTO 35019G26KT 9SM SCT029 BKN034 OVC070 11/05 A2987 RMK A01,M
TMT,2025-05-05 00:35,-117.1971,39.4643,1749.34,42.80,42.00,96.97,340.00,8.00,0.00,29.87,M,10.00,M,BKN,OVC,M,M,1200.00,1900.00,M,M,-RA,M,M,M,M,M,M,37.42,KTMT 050035Z AUTO 34008KT 10SM -RA BKN012 OVC019 06/06 A2987 RMK AO2 T00600055,M
10U,2025-05-05 00:35,-116.1876,41.9532,1637.00,48.20,37.40,66.05,10.00,6.00,0.00,29.90,M,10.00,M,OVC,M,M,M,2900.00,M,M,M,M,M,M,M,M,M,M,45.04,K10U 050035Z AUTO 01006KT 10SM OVC029 09/03 A2990 RMK AO2,M
BVU,2025-05-05 00:35,-114.8611,35.9475,671.00,62.60,48.20,59.26,290.00,4.00,0.00,29.62,M,10.00,M,FEW,M,M,M,11000.00,M,M,M,M,M,M,M,M,M,M,62.60,KBVU 050035Z AUTO 29004KT 10SM FEW110 17/09 A2962 RMK AO2,M
BAM,2025-05-05 00:35,-116.8743,40.5990,1382.36,51.80,42.80,71.26,20.00,6.00,0.00,29.87,M,10.00,M,OVC,M,M,M,3500.00,M,M,M,M,M,M,M,M,M,M,51.80,KBAM 050035Z AUTO 02006KT 10SM OVC035 11/06 A2987 RMK AO1,M
P68,2025-05-05 00:53,-116.0056,39.6014,1993.00,48.00,43.00,82.72,10.00,11.00,0.00,29.82,1006.00,M,M,M,M,M,M,M,M,M,M,M,M,M,M,M,M,M,42.69,KP68 050053Z AUTO 01011KT 09/06 A2982 RMK AO1 SLP060 T00890061 $,M
DRA,2025-05-05 00:53,-116.0278,36.6206,1009.00,66.00,40.00,38.47,110.00,12.00,0.00,29.62,999.80,10.00,M,CLR,M,M,M,M,M,M,M,M,M,M,M,M,M,M,66.00,KDRA 050053Z AUTO 11012KT 10SM CLR 19/04 A2962 RMK AO2 SLP998 T01890044,M
ELY,2025-05-05 00:53,-114.8453,39.2950,1909.00,50.00,41.00,71.07,20.00,13.00,0.00,29.78,1003.40,10.00,M,CLR,M,M,M,M,M,M,M,M,M,M,M,M,M,M,50.00,KELY 050053Z AUTO 02013KT 10SM CLR 10/05 A2978 RMK AO2 SLP034 T01000050 $,M
VGT,2025-05-05 00:53,-115.1933,36.2111,667.00,67.00,45.00,45.04,10.00,5.00,0.00,29.61,1003.00,10.00,M,FEW,M,M,M,10000.00,M,M,M,M,M,M,M,M,M,M,67.00,KVGT 050053Z 01005KT 10SM FEW100 19/07 A2961 RMK AO2 SLP030 T01940072,M
BVU,2025-05-05 00:55,-114.8611,35.9475,671.00,62.60,48.20,59.26,0.00,0.00,0.00,29.62,M,10.00,M,CLR,M,M,M,M,M,M,M,M,M,M,M,M,M,M,62.60,KBVU 050055Z AUTO 00000KT 10SM CLR 17/09 A2962 RMK AO2,M
MEV,2025-05-05 00:55,-119.7500,38.9963,1441.42,51.80,39.20,61.99,40.00,9.00,0.00,29.89,M,10.00,M,BKN,OVC,M,M,3600.00,4400.00,M,M,M,M,M,M,M,M,M,51.80,KMEV 050055Z AUTO 04009KT 10SM BKN036 OVC044 11/04 A2989 RMK AO2,M
BAM,2025-05-05 00:55,-116.8743,40.5990,1382.36,51.80,41.00,66.48,360.00,6.00,0.00,29.87,M,10.00,M,OVC,M,M,M,3300.00,M,M,M,M,M,M,M,M,M,M,51.80,KBAM 050055Z AUTO 36006KT 10SM OVC033 11/05 A2987 RMK AO1,M
HTH,2025-05-05 00:55,-118.6315,38.5448,1282.89,51.80,41.00,66.48,360.00,18.00,0.00,29.87,M,10.00,25.00,FEW,SCT,BKN,M,3000.00,4100.00,5000.00,M,M,M,M,M,M,M,M,51.80,KHTH 050055Z AUTO 36018G25KT 10SM FEW030 SCT041 BKN050 11/05 A2987 RMK A01,M
TMT,2025-05-05 00:55,-117.1971,39.4643,1749.34,43.00,42.00,96.23,350.00,6.00,0.00,29.87,M,10.00,M,BKN,OVC,M,M,1900.00,2600.00,M,M,-RA,M,M,M,M,M,M,38.78,KTMT 050055Z AUTO 35006KT 10SM -RA BKN019 OVC026 06/06 A2987 RMK AO2 T00610055,M
10U,2025-05-05 00:55,-116.1876,41.9532,1637.00,48.20,37.40,66.05,0.00,0.00,0.00,29.90,M,10.00,M,OVC,M,M,M,3000.00,M,M,M,M,M,M,M,M,M,M,48.20,K10U 050055Z AUTO 00000KT 10SM OVC030 09/03 A2990 RMK AO2,M
CXP,2025-05-05 00:55,-119.7326,39.1923,1431.00,51.80,37.40,57.77,60.00,9.00,0.00,29.90,M,10.00,M,OVC,M,M,M,3700.00,M,M,M,M,M,M,M,M,M,M,51.80,KCXP 050055Z AUTO 06009KT 10SM OVC037 11/03 A2990 RMK AO2,M
RNO,2025-05-05 00:55,-119.7711,39.4839,1341.00,55.00,36.00,48.62,10.00,10.00,0.00,29.89,1009.80,10.00,M,SCT,M,M,M,5000.00,M,M,M,M,M,M,M,M,M,M,55.00,KRNO 050055Z 01010KT 10SM SCT050 13/02 A2989 RMK AO2 SLP098 T01280022 $,M
RTS,2025-05-05 00:55,-119.8764,39.6682,1539.00,51.80,33.80,50.08,70.00,8.00,0.00,29.92,M,10.00,M,OVC,M,M,M,4400.00,M,M,M,M,M,M,M,M,M,M,51.80,KRTS 050055Z AUTO 07008KT 10SM OVC044 11/01 A2992 RMK AO2,M
INS,2025-05-05 00:55,-115.6733,36.5872,955.00,63.30,46.40,54.03,120.00,13.00,0.00,29.63,1000.50,10.00,M,BKN,BKN,M,M,12000.00,15000.00,M,M,M,M,M,M,M,M,M,63.30,KINS 050055Z AUTO 12013KT 10SM BKN120 BKN150 17/08 A2963 RMK AO2 SLP005 T01740080 $,M
LSV,2025-05-05 00:55,-115.0343,36.2362,570.00,66.40,48.20,51.89,0.00,0.00,0.00,29.58,1000.30,10.00,M,SCT,BKN,M,M,10000.00,15000.00,M,M,M,M,M,M,M,M,M,66.40,KLSV 050055Z 00000KT 10SM SCT100 BKN150 19/09 A2958 RMK AO2A SLP003 T01910090 $,M
WMC,2025-05-05 00:56,-117.8072,40.9019,1315.00,52.00,39.00,61.06,40.00,10.00,0.00,29.88,1010.40,10.00,M,FEW,BKN,OVC,M,3100.00,4400.00,6000.00,M,M,M,M,M,M,M,M,52.00,KWMC 050056Z AUTO 04010KT 10SM FEW031 BKN044 OVC060 11/04 A2988 RMK AO2 SLP104 T01110039,M
EKO,2025-05-05 00:56,-115.7860,40.8242,1367.00,52.00,38.00,58.71,360.00,8.00,0.00,29.82,1008.40,10.00,M,FEW,SCT,OVC,M,3600.00,6000.00,9000.00,M,M,M,M,M,M,M,M,52.00,KEKO 050056Z AUTO 36008KT 10SM FEW036 SCT060 OVC090 11/03 A2982 RMK AO2 SLP084 T01110033,M
HND,2025-05-05 00:56,-115.1344,35.9729,742.79,66.00,45.00,46.62,310.00,3.00,0.00,29.65,1004.20,10.00,M,OVC,M,M,M,9000.00,M,M,M,M,M,M,M,M,M,M,66.00,KHND 050056Z 31003KT 10SM OVC090 19/07 A2965 RMK AO2 SLP042 T01890072 $,M
TPH,2025-05-05 00:56,-117.0904,38.0505,1654.00,53.00,42.00,66.12,330.00,18.00,T,29.76,1005.00,10.00,26.00,OVC,M,M,M,7000.00,M,M,M,M,M,M,M,26.00,330.00,2025-05-05 00:54,53.00,KTPH 050056Z AUTO 33018G26KT 10SM OVC070 12/06 A2976 RMK AO2 PK WND 33026/0054 RAB02E14 SLP050 P0000 T01170056 $,M
LAS,2025-05-05 00:56,-115.1634,36.0719,663.00,67.00,45.00,45.04,M,3.00,0.00,29.63,1001.80,10.00,M,SCT,BKN,BKN,BKN,7000.00,10000.00,17000.00,23000.00,M,M,M,M,M,M,M,67.00,KLAS 050056Z VRB03KT 10SM SCT070 BKN100 BKN170 BKN230 19/07 A2963 RMK AO2 SLP018 T01940072 $,M
NFL,2025-05-05 00:57,-118.7010,39.4166,1199.00,53.00,43.00,68.71,40.00,10.00,0.00,29.87,1008.90,10.00,19.00,BKN,OVC,M,M,4200.00,12000.00,M,M,M,M,M,M,M,M,M,53.00,KNFL 050057Z AUTO 04010G19KT 10SM BKN042 OVC120 12/06 A2987 RMK AO2 SLP089 T01170061,M
BVU,2025-05-05 01:15,-114.8611,35.9475,671.00,62.60,48.20,59.26,320.00,3.00,0.00,29.62,M,10.00,M,CLR,M,M,M,M,M,M,M,M,M,M,M,M,M,M,62.60,KBVU 050115Z AUTO 32003KT 10SM CLR 17/09 A2962 RMK AO2,M
BAM,2025-05-05 01:15,-116.8743,40.5990,1382.36,51.80,41.00,66.48,10.00,8.00,0.00,29.88,M,10.00,M,OVC,M,M,M,3000.00,M,M,M,M,M,M,M,M,M,M,51.80,KBAM 050115Z AUTO 01008KT 10SM OVC030 11/05 A2988 RMK AO1,M
CXP,2025-05-05 01:15,-119.7326,39.1923,1431.00,51.80,37.40,57.77,60.00,9.00,0.00,29.91,M,10.00,M,OVC,M,M,M,3900.00,M,M,M,M,M,M,M,M,M,M,51.80,KCXP 050115Z AUTO 06009KT 10SM OVC039 11/03 A2991 RMK AO2,M
RTS,2025-05-05 01:15,-119.8764,39.6682,1539.00,51.80,33.80,50.08,90.00,5.00,0.00,29.92,M,10.00,M,OVC,M,M,M,4400.00,M,M,M,M,M,M,M,M,M,M,51.80,KRTS 050115Z AUTO 09005KT 10SM OVC044 11/01 A2992 RMK AO2,M
MEV,2025-05-05 01:15,-119.7500,38.9963,1441.42,51.80,39.20,61.99,50.00,7.00,0.00,29.90,M,10.00,M,BKN,OVC,M,M,3800.00,4600.00,M,M,M,M,M,M,M,M,M,51.80,KMEV 050115Z AUTO 05007KT 10SM BKN038 OVC046 11/04 A2990 RMK AO2,M
HTH,2025-05-05 01:15,-118.6315,38.5448,1282.89,50.00,41.00,71.07,360.00,18.00,0.00,29.87,M,10.00,25.00,SCT,BKN,OVC,M,3600.00,4900.00,7500.00,M,M,M,M,M,M,M,M,50.00,KHTH 050115Z AUTO 36018G25KT 10SM SCT036 BKN049 OVC075 10/05 A2987 RMK A01,M
TMT,2025-05-05 01:15,-117.1971,39.4643,1749.34,43.30,42.30,96.23,350.00,5.00,0.00,29.87,M,10.00,M,BKN,OVC,M,M,1000.00,1900.00,M,M,-RA,M,M,M,M,M,M,39.82,KTMT 050115Z AUTO 35005KT 10SM -RA BKN010 OVC019 06/06 A2987 RMK AO2 T00630057,M
10U,2025-05-05 01:15,-116.1876,41.9532,1637.00,48.20,37.40,66.05,0.00,0.00,0.00,29.90,M,10.00,M,OVC,M,M,M,3300.00,M,M,M,M,M,M,M,M,M,M,48.20,K10U 050115Z AUTO 00000KT 10SM OVC033 09/03 A2990 RMK AO2,M
BVU,2025-05-05 01:35,-114.8611,35.9475,671.00,62.60,48.20,59.26,310.00,4.00,0.00,29.61,M,10.00,M,CLR,M,M,M,M,M,M,M,M,M,M,M,M,M,M,62.60,KBVU 050135Z AUTO 31004KT 10SM CLR 17/09 A2961 RMK AO2,M
BAM,2025-05-05 01:35,-116.8743,40.5990,1382.36,51.80,41.00,66.48,20.00,7.00,0.00,29.89,M,10.00,M,OVC,M,M,M,3200.00,M,M,M,M,M,M,M,M,M,M,51.80,KBAM 050135Z AUTO 02007KT 10SM OVC032 11/05 A2989 RMK AO1,M
CXP,2025-05-05 01:35,-119.7326,39.1923,1431.00,51.80,37.40,57.77,50.00,8.00,0.00,29.92,M,10.00,M,BKN,OVC,M,M,3700.00,4500.00,M,M,M,M,M,M,M,M,M,51.80,KCXP 050135Z AUTO 05008KT 10SM BKN037 OVC045 11/03 A2992 RMK AO2,M
RTS,2025-05-05 01:35,-119.8764,39.6682,1539.00,51.80,35.60,53.81,60.00,5.00,0.00,29.92,M,10.00,M,BKN,M,M,M,4600.00,M,M,M,M,M,M,M,M,M,M,51.80,KRTS 050135Z AUTO 06005KT 10SM BKN046 11/02 A2992 RMK AO2,M
MEV,2025-05-05 01:35,-119.7500,38.9963,1441.42,51.80,39.20,61.99,40.00,5.00,0.00,29.90,M,10.00,M,OVC,M,M,M,3700.00,M,M,M,M,M,M,M,M,M,M,51.80,KMEV 050135Z AUTO 04005KT 10SM OVC037 11/04 A2990 RMK AO2,M
HTH,2025-05-05 01:35,-118.6315,38.5448,1282.89,50.00,41.00,71.07,350.00,16.00,0.00,29.88,M,10.00,24.00,SCT,BKN,OVC,M,3500.00,4400.00,4900.00,M,M,M,M,M,M,M,M,50.00,KHTH 050135Z AUTO 35016G24KT 10SM SCT035 BKN044 OVC049 10/05 A2988 RMK A01,M
TMT,2025-05-05 01:35,-117.1971,39.4643,1749.34,43.70,42.30,94.77,360.00,7.00,0.00,29.89,M,10.00,M,OVC,M,M,M,1000.00,M,M,M,-RA,M,M,M,M,M,M,39.04,KTMT 050135Z AUTO 36007KT 10SM -RA OVC010 07/06 A2989 RMK AO2 T00650057,M
10U,2025-05-05 01:35,-116.1876,41.9532,1637.00,48.20,39.20,70.88,0.00,0.00,0.00,29.91,M,10.00,M,OVC,M,M,M,3300.00,M,M,M,M,M,M,M,M,M,M,48.20,K10U 050135Z AUTO 00000KT 10SM OVC033 09/04 A2991 RMK AO2,M
P68,2025-05-05 01:53,-116.0056,39.6014,1993.00,47.00,43.00,85.89,360.00,11.00,0.00,29.83,1006.40,M,M,M,M,M,M,M,M,M,M,M,M,M,M,M,M,M,41.42,KP68 050153Z AUTO 36011KT 08/06 A2983 RMK AO1 SLP064 T00830061 $,M
DRA,2025-05-05 01:53,-116.0278,36.6206,1009.00,65.00,41.00,41.41,100.00,12.00,0.00,29.62,1000.00,10.00,M,CLR,M,M,M,M,M,M,M,M,M,M,M,M,M,M,65.00,KDRA 050153Z AUTO 10012KT 10SM CLR 18/05 A2962 RMK AO2 SLP000 T01830050,M
ELY,2025-05-05 01:53,-114.8453,39.2950,1909.00,50.00,40.00,68.37,10.00,9.00,0.00,29.79,1003.50,10.00,M,CLR,M,M,M,M,M,M,M,M,M,M,M,M,M,M,50.00,KELY 050153Z AUTO 01009KT 10SM CLR 10/04 A2979 RMK AO2 SLP035 T01000044 $,M
VGT,2025-05-05 01:53,-115.1933,36.2111,667.00,66.00,45.00,46.62,0.00,0.00,0.00,29.61,1003.30,10.00,M,SCT,BKN,M,M,6000.00,7500.00,M,M,M,M,M,M,M,M,M,66.00,KVGT 050153Z 00000KT 10SM SCT060 BKN075 19/07 A2961 RMK AO2 SLP033 T01890072,M
BVU,2025-05-05 01:55,-114.8611,35.9475,671.00,62.60,48.20,59.26,0.00,0.00,0.00,29.61,M,10.00,M,CLR,M,M,M,M,M,M,M,M,M,M,M,M,M,M,62.60,KBVU 050155Z AUTO 00000KT 10SM CLR 17/09 A2961 RMK AO2,M
RNO,2025-05-05 01:55,-119.7711,39.4839,1341.00,55.00,35.00,46.73,40.00,10.00,0.00,29.90,1009.90,10.00,M,BKN,M,M,M,5000.00,M,M,M,M,M,M,M,M,M,M,55.00,KRNO 050155Z 04010KT 10SM BKN050 13/02 A2990 RMK AO2 SLP099 T01280017 $,M
BAM,2025-05-05 01:55,-116.8743,40.5990,1382.36,50.00,41.00,71.07,100.00,3.00,0.00,29.90,M,10.00,M,OVC,M,M,M,3200.00,M,M,M,M,M,M,M,M,M,M,50.00,KBAM 050155Z AUTO 10003KT 10SM OVC032 10/05 A2990 RMK AO1,M
RTS,2025-05-05 01:55,-119.8764,39.6682,1539.00,51.80,35.60,53.81,60.00,8.00,0.00,29.92,M,10.00,M,OVC,M,M,M,4700.00,M,M,M,M,M,M,M,M,M,M,51.80,KRTS 050155Z AUTO 06008KT 10SM OVC047 11/02 A2992 RMK AO2,M
MEV,2025-05-05 01:55,-119.7500,38.9963,1441.42,51.80,39.20,61.99,40.00,7.00,0.00,29.90,M,10.00,M,BKN,OVC,M,M,3700.00,4800.00,M,M,M,M,M,M,M,M,M,51.80,KMEV 050155Z AUTO 04007KT 10SM BKN037 OVC048 11/04 A2990 RMK AO2,M
HTH,2025-05-05 01:55,-118.6315,38.5448,1282.89,50.00,41.00,71.07,360.00,18.00,0.00,29.88,M,10.00,24.00,OVC,M,M,M,4000.00,M,M,M,M,M,M,M,M,M,M,50.00,KHTH 050155Z AUTO 36018G24KT 10SM OVC040 10/05 A2988 RMK A01,M
TMT,2025-05-05 01:55,-117.1971,39.4643,1749.34,43.30,42.00,95.13,360.00,7.00,0.00,29.89,M,10.00,M,OVC,M,M,M,1400.00,M,M,M,M,M,M,M,M,M,M,38.55,KTMT 050155Z AUTO 36007KT 10SM OVC014 06/06 A2989 RMK AO2 T00630056,M
10U,2025-05-05 01:55,-116.1876,41.9532,1637.00,48.20,39.20,70.88,0.00,0.00,0.00,29.91,M,10.00,M,OVC,M,M,M,3500.00,M,M,M,M,M,M,M,M,M,M,48.20,K10U 050155Z AUTO 00000KT 10SM OVC035 09/04 A2991 RMK AO2,M
CXP,2025-05-05 01:55,-119.7326,39.1923,1431.00,51.80,37.40,57.77,40.00,8.00,0.00,29.92,M,10.00,M,SCT,OVC,M,M,3700.00,4700.00,M,M,M,M,M,M,M,M,M,51.80,KCXP 050155Z AUTO 04008KT 10SM SCT037 OVC047 11/03 A2992 RMK AO2,M
INS,2025-05-05 01:55,-115.6733,36.5872,955.00,62.00,43.70,51.04,80.00,9.00,0.00,29.64,1000.90,10.00,M,SCT,M,M,M,12000.00,M,M,M,M,M,M,M,M,M,M,62.00,KINS 050155Z AUTO 08009KT 10SM SCT120 17/07 A2964 RMK AO2 SLP009 T01670065 $,M
LSV,2025-05-05 01:55,-115.0343,36.2362,570.00,66.40,48.20,51.89,90.00,5.00,0.00,29.58,1000.30,10.00,M,SCT,BKN,M,M,10000.00,15000.00,M,M,M,M,M,M,M,M,M,66.40,KLSV 050155Z 09005KT 10SM SCT100 BKN150 19/09 A2958 RMK AO2A SLP003 T01910090 $,M
EKO,2025-05-05 01:56,-115.7860,40.8242,1367.00,51.00,38.00,60.92,40.00,7.00,0.00,29.83,1008.70,10.00,M,BKN,OVC,M,M,7000.00,9000.00,M,M,M,M,M,M,M,M,M,51.00,KEKO 050156Z AUTO 04007KT 10SM BKN070 OVC090 11/03 A2983 RMK AO2 SLP087 T01060033,M
WMC,2025-05-05 01:56,-117.8072,40.9019,1315.00,51.00,40.00,65.87,40.00,7.00,0.00,29.89,1010.80,10.00,M,OVC,M,M,M,5000.00,M,M,M,M,M,M,M,M,M,M,51.00,KWMC 050156Z AUTO 04007KT 10SM OVC050 11/04 A2989 RMK AO2 SLP108 T01060044,M
HND,2025-05-05 01:56,-115.1344,35.9729,742.79,64.00,45.00,49.99,20.00,4.00,0.00,29.64,1004.20,10.00,M,SCT,M,M,M,10000.00,M,M,M,M,M,M,M,M,M,M,64.00,KHND 050156Z 02004KT 10SM SCT100 18/07 A2964 RMK AO2 SLP042 T01780072 $,M
TPH,2025-05-05 01:56,-117.0904,38.0505,1654.00,52.00,40.00,63.48,340.00,17.00,0.00,29.77,1005.20,10.00,27.00,BKN,M,M,M,7000.00,M,M,M,M,M,M,M,28.00,350.00,2025-05-05 01:39,52.00,KTPH 050156Z AUTO 34017G27KT 10SM BKN070 11/04 A2977 RMK AO2 PK WND 35028/0139 SLP052 T01110044 $,M
LAS,2025-05-05 01:56,-115.1634,36.0719,663.00,65.00,49.00,56.13,80.00,6.00,0.00,29.63,1002.10,10.00,M,FEW,FEW,SCT,BKN,8000.00,10000.00,16000.00,25000.00,M,M,M,M,M,M,M,65.00,KLAS 050156Z 08006KT 10SM FEW080 FEW100 SCT160 BKN250 18/09 A2963 RMK AO2 SLP021 T01830094 $,M
NFL,2025-05-05 01:57,-118.7010,39.4166,1199.00,54.00,42.00,63.74,20.00,10.00,0.00,29.87,1009.00,10.00,M,CLR,M,M,M,M,M,M,M,M,M,M,M,M,M,M,54.00,KNFL 050157Z AUTO 02010KT 10SM CLR 12/06 A2987 RMK AO2 SLP090 T01220056,M
RTS,2025-05-05 02:05,-119.8764,39.6682,1539.00,51.80,35.60,53.81,70.00,7.00,0.00,29.92,M,10.00,M,OVC,M,M,M,4700.00,M,M,M,M,M,M,M,M,M,M,51.80,KRTS 050205Z AUTO 07007KT 10SM OVC047 11/02 A2992 RMK AO2,M
MEV,2025-05-05 02:05,-119.7500,38.9963,1441.42,51.80,37.40,57.77,30.00,7.00,0.00,29.90,M,10.00,M,SCT,OVC,M,M,3800.00,4900.00,M,M,M,M,M,M,M,M,M,51.80,KMEV 050205Z AUTO 03007KT 10SM SCT038 OVC049 11/03 A2990 RMK AO2,M
BVU,2025-05-05 02:15,-114.8611,35.9475,671.00,62.60,50.00,63.38,0.00,0.00,0.00,29.62,M,10.00,M,FEW,M,M,M,12000.00,M,M,M,M,M,M,M,M,M,M,62.60,KBVU 050215Z AUTO 00000KT 10SM FEW120 17/10 A2962 RMK AO2,M
BAM,2025-05-05 02:15,-116.8743,40.5990,1382.36,50.00,41.00,71.07,0.00,0.00,0.00,29.90,M,10.00,M,BKN,OVC,M,M,3400.00,4100.00,M,M,M,M,M,M,M,M,M,50.00,KBAM 050215Z AUTO 00000KT 10SM BKN034 OVC041 10/05 A2990 RMK AO1,M
CXP,2025-05-05 02:15,-119.7326,39.1923,1431.00,51.80,37.40,57.77,60.00,7.00,0.00,29.92,M,10.00,M,FEW,OVC,M,M,3900.00,4700.00,M,M,M,M,M,M,M,M,M,51.80,KCXP 050215Z AUTO 06007KT 10SM FEW039 OVC047 11/03 A2992 RMK AO2,M
HTH,2025-05-05 02:15,-118.6315,38.5448,1282.89,50.00,41.00,71.07,360.00,14.00,0.00,29.89,M,10.00,21.00,OVC,M,M,M,4000.00,M,M,M,M,M,M,M,M,M,M,50.00,KHTH 050215Z AUTO 36014G21KT 10SM OVC040 10/05 A2989 RMK A01,M
TMT,2025-05-05 02:15,-117.1971,39.4643,1749.34,43.30,42.00,95.13,350.00,8.00,0.00,29.89,M,10.00,M,OVC,M,M,M,1800.00,M,M,M,M,M,M,M,M,M,M,38.03,KTMT 050215Z AUTO 35008KT 10SM OVC018 06/06 A2989 RMK AO2 T00630056,M
10U,2025-05-05 02:15,-116.1876,41.9532,1637.00,48.20,37.40,66.05,0.00,0.00,0.00,29.92,M,10.00,M,OVC,M,M,M,3800.00,M,M,M,M,M,M,M,M,M,M,48.20,K10U 050215Z AUTO 00000KT 10SM OVC038 09/03 A2992 RMK AO2,M
BVU,2025-05-05 02:35,-114.8611,35.9475,671.00,62.60,50.00,63.38,0.00,0.00,0.00,29.63,M,10.00,M,FEW,M,M,M,12000.00,M,M,M,M,M,M,M,M,M,M,62.60,KBVU 050235Z AUTO 00000KT 10SM FEW120 17/10 A2963 RMK AO2,M
BAM,2025-05-05 02:35,-116.8743,40.5990,1382.36,50.00,41.00,71.07,0.00,0.00,0.00,29.90,M,10.00,M,BKN,BKN,OVC,M,3600.00,4400.00,7000.00,M,M,M,M,M,M,M,M,50.00,KBAM 050235Z AUTO 00000KT 10SM BKN036 BKN044 OVC070 10/05 A2990 RMK AO1,M
CXP,2025-05-05 02:35,-119.7326,39.1923,1431.00,51.80,35.60,53.81,360.00,7.00,0.00,29.92,M,10.00,M,OVC,M,M,M,4700.00,M,M,M,M,M,M,M,M,M,M,51.80,KCXP 050235Z AUTO 36007KT 10SM OVC047 11/02 A2992 RMK AO2,M
RTS,2025-05-05 02:35,-119.8764,39.6682,1539.00,50.00,35.60,57.52,60.00,6.00,0.00,29.93,M,10.00,M,BKN,M,M,M,5000.00,M,M,M,M,M,M,M,M,M,M,50.00,KRTS 050235Z AUTO 06006KT 10SM BKN050 10/02 A2993 RMK AO2,M
MEV,2025-05-05 02:35,-119.7500,38.9963,1441.42,51.80,37.40,57.77,30.00,4.00,0.00,29.91,M,10.00,M,OVC,M,M,M,4900.00,M,M,M,M,M,M,M,M,M,M,51.80,KMEV 050235Z AUTO 03004KT 10SM OVC049 11/03 A2991 RMK AO2,M
HTH,2025-05-05 02:35,-118.6315,38.5448,1282.89,50.00,41.00,71.07,350.00,15.00,0.00,29.90,M,10.00,21.00,OVC,M,M,M,3900.00,M,M,M,M,M,M,M,M,M,M,50.00,KHTH 050235Z AUTO 35015G21KT 10SM OVC039 10/05 A2990 RMK A01,M
TMT,2025-05-05 02:35,-117.1971,39.4643,1749.34,43.30,42.00,95.13,340.00,8.00,0.00,29.89,M,10.00,M,OVC,M,M,M,1800.00,M,M,M,M,M,M,M,M,M,M,38.03,KTMT 050235Z AUTO 34008KT 10SM OVC018 06/06 A2989 RMK AO2 T00630055,M
10U,2025-05-05 02:35,-116.1876,41.9532,1637.00,48.20,39.20,70.88,230.00,3.00,0.00,29.92,M,10.00,M,OVC,M,M,M,3800.00,M,M,M,M,M,M,M,M,M,M,47.21,K10U 050235Z AUTO 23003KT 10SM OVC038 09/04 A2992 RMK AO2,M
MEV,2025-05-05 02:45,-119.7500,38.9963,1441.42,51.80,37.40,57.77,360.00,3.00,0.00,29.91,M,10.00,M,OVC,M,M,M,4800.00,M,M,M,M,M,M,M,M,M,M,51.80,KMEV 050245Z AUTO 36003KT 10SM OVC048 11/03 A2991 RMK AO2,M
RTS,2025-05-05 02:45,-119.8764,39.6682,1539.00,50.00,35.60,57.52,60.00,7.00,0.00,29.93,M,10.00,M,BKN,M,M,M,5000.00,M,M,M,M,M,M,M,M,M,M,50.00,KRTS 050245Z AUTO 06007KT 10SM BKN050 10/02 A2993 RMK AO2,M
P68,2025-05-05 02:53,-116.0056,39.6014,1993.00,46.00,43.00,89.20,330.00,8.00,0.00,29.84,1007.00,M,M,M,M,M,M,M,M,M,M,M,M,M,M,M,M,M,41.36,KP68 050253Z AUTO 33008KT 08/06 A2984 RMK AO1 SLP070 T00780061 51013 $,M
DRA,2025-05-05 02:53,-116.0278,36.6206,1009.00,63.00,40.00,42.72,50.00,6.00,0.00,29.64,1000.50,10.00,M,CLR,M,M,M,M,M,M,M,M,M,M,M,M,M,M,63.00,KDRA 050253Z AUTO 05006KT 10SM CLR 17/04 A2964 RMK AO2 SLP005 T01720044 53007,M
ELY,2025-05-05 02:53,-114.8453,39.2950,1909.00,49.00,41.00,73.77,360.00,6.00,0.00,29.81,1003.80,10.00,M,OVC,M,M,M,3500.00,M,M,M,M,M,M,M,M,M,M,46.00,KELY 050253Z AUTO 36006KT 10SM OVC035 09/05 A2981 RMK AO2 SLP038 T00940050 53013 $,M
VGT,2025-05-05 02:53,-115.1933,36.2111,667.00,65.00,48.00,54.07,140.00,6.00,0.00,29.63,1003.90,10.00,M,CLR,M,M,M,M,M,M,M,M,M,M,M,M,M,M,65.00,KVGT 050253Z 14006KT 10SM CLR 18/09 A2963 RMK AO2 SLP039 T01830089 53002,M
BVU,2025-05-05 02:55,-114.8611,35.9475,671.00,60.80,50.00,67.54,50.00,4.00,0.00,29.63,M,10.00,M,CLR,M,M,M,M,M,M,M,M,M,M,M,M,M,M,60.80,KBVU 050255Z AUTO 05004KT 10SM CLR 16/10 A2963 RMK AO2,M
RNO,2025-05-05 02:55,-119.7711,39.4839,1341.00,54.00,35.00,48.46,30.00,7.00,0.00,29.91,1010.40,10.00,M,BKN,M,M,M,5000.00,M,M,M,M,M,M,M,M,M,M,54.00,KRNO 050255Z 03007KT 10SM BKN050 12/02 A2991 RMK AO2 SLP104 T01220017 53004 $,M
BAM,2025-05-05 02:55,-116.8743,40.5990,1382.36,50.00,41.00,71.07,300.00,3.00,0.00,29.91,M,10.00,M,SCT,BKN,OVC,M,3800.00,4600.00,5000.00,M,M,M,M,M,M,M,M,50.00,KBAM 050255Z AUTO 30003KT 10SM SCT038 BKN046 OVC050 10/05 A2991 RMK AO1,M
CXP,2025-05-05 02:55,-119.7326,39.1923,1431.00,51.80,35.60,53.81,360.00,7.00,0.00,29.92,M,10.00,13.00,OVC,M,M,M,4900.00,M,M,M,M,M,M,M,M,M,M,51.80,KCXP 050255Z AUTO 36007G13KT 10SM OVC049 11/02 A2992 RMK AO2,M
HTH,2025-05-05 02:55,-118.6315,38.5448,1282.89,50.00,41.00,71.07,360.00,12.00,0.00,29.90,M,10.00,18.00,OVC,M,M,M,4100.00,M,M,M,M,M,M,M,M,M,M,50.00,KHTH 050255Z AUTO 36012G18KT 10SM OVC041 10/05 A2990 RMK A01,M
TMT,2025-05-05 02:55,-117.1971,39.4643,1749.34,43.30,42.00,95.13,10.00,4.00,0.00,29.90,M,10.00,M,OVC,M,M,M,1800.00,M,M,M,M,M,M,M,M,M,M,40.62,KTMT 050255Z AUTO 01004KT 10SM OVC018 06/06 A2990 RMK AO2 T00630056,M
10U,2025-05-05 02:55,-116.1876,41.9532,1637.00,46.40,41.00,81.34,0.00,0.00,0.00,29.92,M,10.00,M,OVC,M,M,M,3700.00,M,M,M,M,M,M,M,M,M,M,46.40,K10U 050255Z AUTO 00000KT 10SM OVC037 08/05 A2992 RMK AO2,M
INS,2025-05-05 02:55,-115.6733,36.5872,955.00,60.80,46.00,58.13,80.00,7.00,0.00,29.65,1001.20,10.00,M,SCT,M,M,M,17000.00,M,M,M,M,M,M,M,M,M,M,60.80,KINS 050255Z AUTO 08007KT 10SM SCT170 16/08 A2965 RMK AO2 SLP012 T01600077 53003 $,M
LSV,2025-05-05 02:55,-115.0343,36.2362,570.00,65.00,50.00,58.26,60.00,4.00,0.00,29.59,1000.80,10.00,M,SCT,BKN,M,M,10000.00,15000.00,M,M,M,M,M,M,M,M,M,65.00,KLSV 050255Z 06004KT 10SM SCT100 BKN150 18/10 A2959 RMK AO2A SLP008 T01830099 53001 $,M
EKO,2025-05-05 02:56,-115.7860,40.8242,1367.00,49.00,37.00,63.10,360.00,13.00,0.00,29.85,1009.00,10.00,22.00,SCT,OVC,M,M,4100.00,5500.00,M,M,M,M,M,M,M,M,M,43.35,KEKO 050256Z AUTO 36013G22KT 10SM SCT041 OVC055 09/03 A2985 RMK AO2 SLP090 T00940028 51014,M
WMC,2025-05-05 02:56,-117.8072,40.9019,1315.00,51.00,39.00,63.36,30.00,7.00,0.00,29.90,1011.30,10.00,M,BKN,OVC,M,M,4300.00,5000.00,M,M,M,M,M,M,M,M,M,51.00,KWMC 050256Z AUTO 03007KT 10SM BKN043 OVC050 11/04 A2990 RMK AO2 SLP113 T01060039 53005,M
HND,2025-05-05 02:56,-115.1344,35.9729,742.79,62.00,47.00,57.85,80.00,4.00,0.00,29.66,1004.90,10.00,M,OVC,M,M,M,11000.00,M,M,M,M,M,M,M,M,M,M,62.00,KHND 050256Z 08004KT 10SM OVC110 17/08 A2966 RMK AO2 SLP049 T01670083 53005 $,M
TPH,2025-05-05 02:56,-117.0904,38.0505,1654.00,50.00,39.00,65.75,350.00,22.00,0.00,29.79,1005.80,10.00,M,OVC,M,M,M,8000.00,M,M,M,M,M,M,M,30.00,350.00,2025-05-05 02:38,50.00,KTPH 050256Z AUTO 35022KT 10SM OVC080 10/04 A2979 RMK AO2 PK WND 35030/0238 SLP058 60000 T01000039 53011 $,M
LAS,2025-05-05 02:56,-115.1634,36.0719,663.00,64.00,48.00,55.99,100.00,5.00,0.00,29.65,1002.60,10.00,M,FEW,FEW,SCT,BKN,7000.00,10000.00,17000.00,25000.00,M,M,M,M,M,M,M,64.00,KLAS 050256Z 10005KT 10SM FEW070 FEW100 SCT170 BKN250 18/09 A2965 RMK AO2 SLP026 T01780089 53004 $,M
NFL,2025-05-05 02:57,-118.7010,39.4166,1199.00,50.00,43.00,76.76,10.00,7.00,0.00,29.89,1009.50,10.00,M,SCT,M,M,M,4400.00,M,M,M,M,M,M,M,M,M,M,50.00,KNFL 050257Z AUTO 01007KT 10SM SCT044 10/06 A2989 RMK AO2 SLP095 T01000061 53007,M
RTS,2025-05-05 03:05,-119.8764,39.6682,1539.00,48.20,35.60,61.52,70.00,5.00,0.00,29.94,M,10.00,M,OVC,M,M,M,5000.00,M,M,M,M,M,M,M,M,M,M,45.63,KRTS 050305Z AUTO 07005KT 10SM OVC050 09/02 A2994 RMK AO2,M
MEV,2025-05-05 03:05,-119.7500,38.9963,1441.42,51.80,37.40,57.77,30.00,5.00,0.00,29.91,M,10.00,M,OVC,M,M,M,4700.00,M,M,M,M,M,M,M,M,M,M,51.80,KMEV 050305Z AUTO 03005KT 10SM OVC047 11/03 A2991 RMK AO2,M
BVU,2025-05-05 03:15,-114.8611,35.9475,671.00,60.80,50.00,67.54,30.00,5.00,0.00,29.64,M,10.00,M,CLR,M,M,M,M,M,M,M,M,M,M,M,M,M,M,60.80,KBVU 050315Z AUTO 03005KT 10SM CLR 16/10 A2964 RMK AO2,M
BAM,2025-05-05 03:15,-116.8743,40.5990,1382.36,50.00,41.00,71.07,360.00,8.00,0.00,29.91,M,10.00,M,SCT,BKN,OVC,M,3800.00,4600.00,6000.00,M,M,M,M,M,M,M,M,50.00,KBAM 050315Z AUTO 36008KT 10SM SCT038 BKN046 OVC060 10/05 A2991 RMK AO1,M
CXP,2025-05-05 03:15,-119.7326,39.1923,1431.00,53.60,35.60,50.36,20.00,8.00,0.00,29.93,M,10.00,13.00,OVC,M,M,M,4800.00,M,M,M,M,M,M,M,M,M,M,53.60,KCXP 050315Z AUTO 02008G13KT 10SM OVC048 12/02 A2993 RMK AO2,M
HTH,2025-05-05 03:15,-118.6315,38.5448,1282.89,50.00,41.00,71.07,350.00,14.00,0.00,29.90,M,10.00,20.00,FEW,OVC,M,M,3700.00,4500.00,M,M,M,M,M,M,M,M,M,50.00,KHTH 050315Z AUTO 35014G20KT 10SM FEW037 OVC045 10/05 A2990 RMK A01,M
TMT,2025-05-05 03:15,-117.1971,39.4643,1749.34,43.70,42.00,93.68,10.00,4.00,0.00,29.91,M,10.00,M,SCT,OVC,M,M,1300.00,1800.00,M,M,M,M,M,M,M,M,M,41.08,KTMT 050315Z AUTO 01004KT 10SM SCT013 OVC018 07/06 A2991 RMK AO2 T00650056,M
10U,2025-05-05 03:15,-116.1876,41.9532,1637.00,46.40,41.00,81.34,260.00,4.00,0.00,29.93,M,10.00,M,OVC,M,M,M,3700.00,M,M,M,M,M,M,M,M,M,M,44.24,K10U 050315Z AUTO 26004KT 10SM OVC037 08/05 A2993 RMK AO2,M
BAM,2025-05-05 03:35,-116.8743,40.5990,1382.36,51.80,41.00,66.48,290.00,4.00,0.00,29.91,M,10.00,M,SCT,BKN,OVC,M,3800.00,4900.00,6000.00,M,M,M,M,M,M,M,M,51.80,KBAM 050335Z AUTO 29004KT 10SM SCT038 BKN049 OVC060 11/05 A2991 RMK AO1,M
CXP,2025-05-05 03:35,-119.7326,39.1923,1431.00,53.60,35.60,50.36,20.00,8.00,0.00,29.94,M,10.00,M,OVC,M,M,M,4900.00,M,M,M,M,M,M,M,M,M,M,53.60,KCXP 050335Z AUTO 02008KT 10SM OVC049 12/02 A2994 RMK AO2,M
RTS,2025-05-05 03:35,-119.8764,39.6682,1539.00,44.60,35.60,70.48,320.00,3.00,0.00,29.95,M,10.00,M,BKN,OVC,M,M,5000.00,5500.00,M,M,M,M,M,M,M,M,M,43.09,KRTS 050335Z AUTO 32003KT 10SM BKN050 OVC055 07/02 A2995 RMK AO2,M
MEV,2025-05-05 03:35,-119.7500,38.9963,1441.42,51.80,37.40,57.77,40.00,4.00,0.00,29.92,M,10.00,M,OVC,M,M,M,4400.00,M,M,M,M,M,M,M,M,M,M,51.80,KMEV 050335Z AUTO 04004KT 10SM OVC044 11/03 A2992 RMK AO2,M
HTH,2025-05-05 03:35,-118.6315,38.5448,1282.89,50.00,41.00,71.07,360.00,17.00,0.00,29.90,M,10.00,M,OVC,M,M,M,4800.00,M,M,M,M,M,M,M,M,M,M,50.00,KHTH 050335Z AUTO 36017KT 10SM OVC048 10/05 A2990 RMK A01,M
TMT,2025-05-05 03:35,-117.1971,39.4643,1749.34,43.70,41.40,91.54,10.00,9.00,0.00,29.91,M,10.00,M,OVC,M,M,M,1800.00,M,M,M,M,M,M,M,M,M,M,38.06,KTMT 050335Z AUTO 01009KT 10SM OVC018 07/05 A2991 RMK AO2 T00650052,M
10U,2025-05-05 03:35,-116.1876,41.9532,1637.00,46.40,41.00,81.34,310.00,3.00,0.00,29.94,M,10.00,M,OVC,M,M,M,3700.00,M,M,M,M,M,M,M,M,M,M,45.15,K10U 050335Z AUTO 31003KT 10SM OVC037 08/05 A2994 RMK AO2,M
BVU,2025-05-05 03:35,-114.8611,35.9475,671.00,60.80,50.00,67.54,40.00,4.00,0.00,29.64,M,10.00,M,CLR,M,M,M,M,M,M,M,M,M,M,M,M,M,M,60.80,KBVU 050335Z AUTO 04004KT 10SM CLR 16/10 A2964 RMK AO2,M
P68,2025-05-05 03:53,-116.0056,39.6014,1993.00,45.00,42.00,89.15,330.00,8.00,0.00,29.86,1007.30,M,M,M,M,M,M,M,M,M,M,M,M,M,M,M,M,M,40.13,KP68 050353Z AUTO 33008KT 07/06 A2986 RMK AO1 SLP073 T00720056 $,M
DRA,2025-05-05 03:53,-116.0278,36.6206,1009.00,61.00,41.00,47.66,320.00,4.00,0.00,29.67,1001.70,10.00,M,BKN,M,M,M,6500.00,M,M,M,M,M,M,M,M,M,M,61.00,KDRA 050353Z AUTO 32004KT 10SM BKN065 16/05 A2967 RMK AO2 SLP017 T01610050,M
ELY,2025-05-05 03:53,-114.8453,39.2950,1909.00,46.00,42.00,85.83,20.00,13.00,0.00,29.83,1005.20,10.00,M,SCT,BKN,M,M,3300.00,6500.00,M,M,M,M,M,M,M,M,M,39.50,KELY 050353Z AUTO 02013KT 10SM SCT033 BKN065 08/06 A2983 RMK AO2 SLP052 T00780056 $,M
VGT,2025-05-05 03:53,-115.1933,36.2111,667.00,63.00,49.00,60.20,140.00,6.00,0.00,29.66,1004.90,10.00,M,CLR,M,M,M,M,M,M,M,M,M,M,M,M,M,M,63.00,KVGT 050353Z 14006KT 10SM CLR 17/09 A2966 RMK AO2 SLP049 T01720094,M
BVU,2025-05-05 03:55,-114.8611,35.9475,671.00,60.80,51.80,72.20,20.00,4.00,0.00,29.65,M,10.00,M,CLR,M,M,M,M,M,M,M,M,M,M,M,M,M,M,60.80,KBVU 050355Z AUTO 02004KT 10SM CLR 16/11 A2965 RMK AO2,M
CXP,2025-05-05 03:55,-119.7326,39.1923,1431.00,53.60,35.60,50.36,20.00,8.00,0.00,29.94,M,10.00,M,OVC,M,M,M,4900.00,M,M,M,M,M,M,M,M,M,M,53.60,KCXP 050355Z AUTO 02008KT 10SM OVC049 12/02 A2994 RMK AO2,M
RTS,2025-05-05 03:55,-119.8764,39.6682,1539.00,46.40,33.80,61.28,0.00,0.00,0.00,29.96,M,10.00,M,OVC,M,M,M,5500.00,M,M,M,M,M,M,M,M,M,M,46.40,KRTS 050355Z AUTO 00000KT 10SM OVC055 08/01 A2996 RMK AO2,M
MEV,2025-05-05 03:55,-119.7500,38.9963,1441.42,50.00,39.20,66.27,40.00,4.00,0.00,29.93,M,10.00,M,OVC,M,M,M,4300.00,M,M,M,M,M,M,M,M,M,M,50.00,KMEV 050355Z AUTO 04004KT 10SM OVC043 10/04 A2993 RMK AO2,M
HTH,2025-05-05 03:55,-118.6315,38.5448,1282.89,50.00,41.00,71.07,350.00,13.00,0.00,29.91,M,10.00,M,OVC,M,M,M,4800.00,M,M,M,M,M,M,M,M,M,M,50.00,KHTH 050355Z AUTO 35013KT 10SM OVC048 10/05 A2991 RMK A01,M
TMT,2025-05-05 03:55,-117.1971,39.4643,1749.34,43.30,41.00,91.52,10.00,7.00,0.00,29.92,M,10.00,M,OVC,M,M,M,2000.00,M,M,M,M,M,M,M,M,M,M,38.55,KTMT 050355Z AUTO 01007KT 10SM OVC020 06/05 A2992 RMK AO2 T00630051,M
10U,2025-05-05 03:55,-116.1876,41.9532,1637.00,46.40,39.20,75.84,360.00,7.00,0.00,29.94,M,10.00,M,OVC,M,M,M,3800.00,M,M,M,M,M,M,M,M,M,M,42.33,K10U 050355Z AUTO 36007KT 10SM OVC038 08/04 A2994 RMK AO2,M
RNO,2025-05-05 03:55,-119.7711,39.4839,1341.00,53.00,36.00,52.30,20.00,4.00,0.00,29.93,1011.40,10.00,M,SCT,M,M,M,5000.00,M,M,M,M,M,M,M,M,M,M,53.00,KRNO 050355Z 02004KT 10SM SCT050 12/02 A2993 RMK AO2 SLP114 T01170022 $,M
BAM,2025-05-05 03:55,-116.8743,40.5990,1382.36,50.00,41.00,71.07,360.00,6.00,0.00,29.92,M,10.00,M,OVC,M,M,M,4900.00,M,M,M,M,M,M,M,M,M,M,50.00,KBAM 050355Z AUTO 36006KT 10SM OVC049 10/05 A2992 RMK AO1,M
INS,2025-05-05 03:55,-115.6733,36.5872,955.00,59.50,45.70,60.19,70.00,10.00,0.00,29.67,1002.10,10.00,M,BKN,M,M,M,8500.00,M,M,M,M,M,M,M,M,M,M,59.50,KINS 050355Z AUTO 07010KT 10SM BKN085 15/08 A2967 RMK AO2 SLP021 T01530076 $,M
LSV,2025-05-05 03:55,-115.0343,36.2362,570.00,64.00,52.00,64.97,40.00,3.00,0.00,29.62,1001.70,10.00,M,SCT,BKN,M,M,10000.00,15000.00,M,M,M,M,M,M,M,M,M,64.00,KLSV 050355Z 04003KT 10SM SCT100 BKN150 18/11 A2962 RMK AO2A SLP017 T01780111 $,M
EKO,2025-05-05 03:56,-115.7860,40.8242,1367.00,50.00,37.00,60.79,40.00,9.00,0.00,29.86,1009.20,10.00,18.00,FEW,OVC,M,M,3500.00,4900.00,M,M,M,M,M,M,M,M,M,50.00,KEKO 050356Z AUTO 04009G18KT 10SM FEW035 OVC049 10/03 A2986 RMK AO2 SLP092 T01000028,M
WMC,2025-05-05 03:56,-117.8072,40.9019,1315.00,50.00,39.00,65.75,360.00,5.00,0.00,29.92,1012.00,10.00,M,OVC,M,M,M,5500.00,M,M,M,M,M,M,M,M,M,M,50.00,KWMC 050356Z AUTO 36005KT 10SM OVC055 10/04 A2992 RMK AO2 SLP120 T01000039,M
HND,2025-05-05 03:56,-115.1344,35.9729,742.79,62.00,50.00,64.73,0.00,0.00,0.00,29.69,1005.60,10.00,M,BKN,M,M,M,6000.00,M,M,M,M,M,M,M,M,M,M,62.00,KHND 050356Z AUTO 00000KT 10SM BKN060 17/10 A2969 RMK AO2 SLP056 T01670100 $,M
TPH,2025-05-05 03:56,-117.0904,38.0505,1654.00,49.00,40.00,70.96,340.00,18.00,T,29.81,1006.40,10.00,M,SCT,OVC,M,M,7000.00,9000.00,M,M,-RA,M,M,M,27.00,350.00,2025-05-05 03:08,42.13,KTPH 050356Z AUTO 34018KT 10SM -RA SCT070 OVC090 09/04 A2981 RMK AO2 PK WND 35027/0308 RAB54 SLP064 P0000 T00940044 $,M
LAS,2025-05-05 03:56,-115.1634,36.0719,663.00,63.00,49.00,60.20,80.00,8.00,0.00,29.67,1003.50,10.00,M,BKN,BKN,M,M,7000.00,11000.00,M,M,M,M,M,M,M,M,M,63.00,KLAS 050356Z 08008KT 10SM BKN070 BKN110 17/09 A2967 RMK AO2 SLP035 T01720094 $,M
NFL,2025-05-05 03:57,-118.7010,39.4166,1199.00,51.00,43.00,73.97,360.00,3.00,0.00,29.91,1010.20,10.00,M,OVC,M,M,M,4500.00,M,M,M,M,M,M,M,M,M,M,51.00,KNFL 050357Z AUTO 36003KT 10SM OVC045 11/06 A2991 RMK AO2 SLP102 T01060061,M
ELY,2025-05-05 04:12,-114.8453,39.2950,1909.00,45.00,42.00,89.15,10.00,9.00,0.00,29.83,M,10.00,M,BKN,BKN,OVC,M,900.00,3500.00,6500.00,M,M,M,M,M,M,M,M,39.68,KELY 050412Z AUTO 01009KT 10SM BKN009 BKN035 OVC065 07/06 A2983 RMK AO2 T00720056 $,M
BVU,2025-05-05 04:15,-114.8611,35.9475,671.00,59.00,51.80,76.98,360.00,3.00,0.00,29.66,M,10.00,M,CLR,M,M,M,M,M,M,M,M,M,M,M,M,M,M,59.00,KBVU 050415Z AUTO 36003KT 10SM CLR 15/11 A2966 RMK AO2,M
BAM,2025-05-05 04:15,-116.8743,40.5990,1382.36,51.80,37.40,57.77,40.00,8.00,0.00,29.92,M,10.00,14.00,OVC,M,M,M,5500.00,M,M,M,M,M,M,M,M,M,M,51.80,KBAM 050415Z AUTO 04008G14KT 10SM OVC055 11/03 A2992 RMK AO1,M
CXP,2025-05-05 04:15,-119.7326,39.1923,1431.00,53.60,35.60,50.36,10.00,6.00,0.00,29.95,M,10.00,M,OVC,M,M,M,5000.00,M,M,M,M,M,M,M,M,M,M,53.60,KCXP 050415Z AUTO 01006KT 10SM OVC050 12/02 A2995 RMK AO2,M
RTS,2025-05-05 04:15,-119.8764,39.6682,1539.00,46.40,33.80,61.28,0.00,0.00,0.00,29.96,M,10.00,M,OVC,M,M,M,6000.00,M,M,M,M,M,M,M,M,M,M,46.40,KRTS 050415Z AUTO 00000KT 10SM OVC060 08/01 A2996 RMK AO2,M
MEV,2025-05-05 04:15,-119.7500,38.9963,1441.42,50.00,39.20,66.27,0.00,0.00,0.00,29.94,M,10.00,M,OVC,M,M,M,4600.00,M,M,M,M,M,M,M,M,M,M,50.00,KMEV 050415Z AUTO 00000KT 10SM OVC046 10/04 A2994 RMK AO2,M
HTH,2025-05-05 04:15,-118.6315,38.5448,1282.89,51.80,41.00,66.48,350.00,12.00,0.00,29.91,M,10.00,M,OVC,M,M,M,4700.00,M,M,M,M,M,M,M,M,M,M,51.80,KHTH 050415Z AUTO 35012KT 10SM OVC047 11/05 A2991 RMK A01,M
TMT,2025-05-05 04:15,-117.1971,39.4643,1749.34,43.30,41.00,91.52,360.00,7.00,0.00,29.93,M,10.00,M,OVC,M,M,M,2200.00,M,M,M,M,M,M,M,M,M,M,38.55,KTMT 050415Z AUTO 36007KT 10SM OVC022 06/05 A2993 RMK AO2 T00630050,M
10U,2025-05-05 04:15,-116.1876,41.9532,1637.00,46.40,35.60,65.83,20.00,8.00,0.00,29.95,M,10.00,M,OVC,M,M,M,3800.00,M,M,M,M,M,M,M,M,M,M,41.85,K10U 050415Z AUTO 02008KT 10SM OVC038 08/02 A2995 RMK AO2,M
RTS,2025-05-05 04:25,-119.8764,39.6682,1539.00,44.60,33.80,65.61,0.00,0.00,0.00,29.97,M,10.00,M,OVC,M,M,M,5500.00,M,M,M,M,M,M,M,M,M,M,44.60,KRTS 050425Z AUTO 00000KT 10SM OVC055 07/01 A2997 RMK AO2,M
MEV,2025-05-05 04:25,-119.7500,38.9963,1441.42,50.00,41.00,71.07,50.00,3.00,0.00,29.94,M,10.00,M,OVC,M,M,M,4600.00,M,M,M,M,M,M,M,M,M,M,50.00,KMEV 050425Z AUTO 05003KT 10SM OVC046 10/05 A2994 RMK AO2,M
ELY,2025-05-05 04:33,-114.8453,39.2950,1909.00,44.00,41.00,89.11,20.00,14.00,0.00,29.83,M,10.00,20.00,FEW,SCT,M,M,800.00,6000.00,M,M,M,M,M,M,M,M,M,36.63,KELY 050433Z AUTO 02014G20KT 10SM FEW008 SCT060 07/05 A2983 RMK AO2 T00670050 $,M
BVU,2025-05-05 04:35,-114.8611,35.9475,671.00,60.80,51.80,72.20,0.00,0.00,0.00,29.67,M,10.00,M,CLR,M,M,M,M,M,M,M,M,M,M,M,M,M,M,60.80,KBVU 050435Z AUTO 00000KT 10SM CLR 16/11 A2967 RMK AO2,M
BAM,2025-05-05 04:35,-116.8743,40.5990,1382.36,51.80,37.40,57.77,320.00,8.00,0.00,29.92,M,10.00,19.00,OVC,M,M,M,5000.00,M,M,M,M,M,M,M,M,M,M,51.80,KBAM 050435Z AUTO 32008G19KT 10SM OVC050 11/03 A2992 RMK AO1,M
CXP,2025-05-05 04:35,-119.7326,39.1923,1431.00,53.60,35.60,50.36,10.00,8.00,0.00,29.95,M,10.00,M,OVC,M,M,M,4800.00,M,M,M,M,M,M,M,M,M,M,53.60,KCXP 050435Z AUTO 01008KT 10SM OVC048 12/02 A2995 RMK AO2,M
HTH,2025-05-05 04:35,-118.6315,38.5448,1282.89,51.80,41.00,66.48,340.00,12.00,0.00,29.92,M,10.00,M,BKN,OVC,M,M,5000.00,6000.00,M,M,M,M,M,M,M,M,M,51.80,KHTH 050435Z AUTO 34012KT 10SM BKN050 OVC060 11/05 A2992 RMK A01,M
TMT,2025-05-05 04:35,-117.1971,39.4643,1749.34,43.00,40.60,91.16,10.00,10.00,0.00,29.93,M,10.00,M,OVC,M,M,M,2200.00,M,M,M,M,M,M,M,M,M,M,36.76,KTMT 050435Z AUTO 01010KT 10SM OVC022 06/05 A2993 RMK AO2 T00620048,M
10U,2025-05-05 04:35,-116.1876,41.9532,1637.00,46.40,35.60,65.83,10.00,9.00,0.00,29.96,M,10.00,M,OVC,M,M,M,3900.00,M,M,M,M,M,M,M,M,M,M,41.42,K10U 050435Z AUTO 01009KT 10SM OVC039 08/02 A2996 RMK AO2,M
RTS,2025-05-05 04:45,-119.8764,39.6682,1539.00,44.60,35.60,70.48,0.00,0.00,0.00,29.98,M,10.00,M,OVC,M,M,M,5500.00,M,M,M,M,M,M,M,M,M,M,44.60,KRTS 050445Z AUTO 00000KT 10SM OVC055 07/02 A2998 RMK AO2,M
P68,2025-05-05 04:53,-116.0056,39.6014,1993.00,44.00,41.00,89.11,340.00,8.00,0.00,29.87,1007.70,M,M,M,M,M,M,M,M,M,M,M,M,M,M,M,M,M,38.90,KP68 050453Z AUTO 34008KT 07/05 A2987 RMK AO1 SLP077 T00670050 $,M
DRA,2025-05-05 04:53,-116.0278,36.6206,1009.00,59.00,40.00,49.23,30.00,4.00,0.00,29.68,1002.20,10.00,M,FEW,SCT,M,M,5500.00,7500.00,M,M,M,M,M,M,M,M,M,59.00,KDRA 050453Z AUTO 03004KT 10SM FEW055 SCT075 15/04 A2968 RMK AO2 SLP022 T01500044,M
ELY,2025-05-05 04:53,-114.8453,39.2950,1909.00,44.00,40.00,85.71,10.00,14.00,0.00,29.83,1005.00,10.00,M,CLR,M,M,M,M,M,M,M,M,M,M,M,M,M,M,36.63,KELY 050453Z AUTO 01014KT 10SM CLR 07/04 A2983 RMK AO2 SLP050 T00670044 $,M
VGT,2025-05-05 04:53,-115.1933,36.2111,667.00,63.00,49.00,60.20,150.00,3.00,0.00,29.67,1005.30,10.00,M,CLR,M,M,M,M,M,M,M,M,M,M,M,M,M,M,63.00,KVGT 050453Z AUTO 15003KT 10SM CLR 17/09 A2967 RMK AO2 SLP053 T01720094,M
BVU,2025-05-05 04:55,-114.8611,35.9475,671.00,59.00,51.80,76.98,20.00,4.00,0.00,29.67,M,10.00,M,FEW,M,M,M,12000.00,M,M,M,M,M,M,M,M,M,M,59.00,KBVU 050455Z AUTO 02004KT 10SM FEW120 15/11 A2967 RMK AO2,M
RNO,2025-05-05 04:55,-119.7711,39.4839,1341.00,51.00,37.00,58.58,350.00,5.00,0.00,29.95,1012.30,10.00,M,BKN,M,M,M,5000.00,M,M,M,M,M,M,M,M,M,M,51.00,KRNO 050455Z 35005KT 10SM BKN050 11/03 A2995 RMK AO2 SLP123 T01060028 $,M
BAM,2025-05-05 04:55,-116.8743,40.5990,1382.36,50.00,41.00,71.07,320.00,7.00,0.00,29.92,M,10.00,M,BKN,OVC,M,M,6000.00,7000.00,M,M,M,M,M,M,M,M,M,50.00,KBAM 050455Z AUTO 32007KT 10SM BKN060 OVC070 10/05 A2992 RMK AO1,M
CXP,2025-05-05 04:55,-119.7326,39.1923,1431.00,53.60,35.60,50.36,30.00,7.00,0.00,29.96,M,10.00,M,OVC,M,M,M,4500.00,M,M,M,M,M,M,M,M,M,M,53.60,KCXP 050455Z AUTO 03007KT 10SM OVC045 12/02 A2996 RMK AO2,M
MEV,2025-05-05 04:55,-119.7500,38.9963,1441.42,50.00,39.20,66.27,50.00,4.00,0.00,29.94,M,10.00,M,OVC,M,M,M,4300.00,M,M,M,M,M,M,M,M,M,M,50.00,KMEV 050455Z AUTO 05004KT 10SM OVC043 10/04 A2994 RMK AO2,M
HTH,2025-05-05 04:55,-118.6315,38.5448,1282.89,51.80,41.00,66.48,350.00,11.00,0.00,29.93,M,10.00,17.00,OVC,M,M,M,5000.00,M,M,M,M,M,M,M,M,M,M,51.80,KHTH 050455Z AUTO 35011G17KT 10SM OVC050 11/05 A2993 RMK A01,M
TMT,2025-05-05 04:55,-117.1971,39.4643,1749.34,43.00,40.30,90.10,360.00,7.00,0.00,29.93,M,10.00,M,OVC,M,M,M,2300.00,M,M,M,M,M,M,M,M,M,M,38.19,KTMT 050455Z AUTO 36007KT 10SM OVC023 06/05 A2993 RMK AO2 T00610046,M
10U,2025-05-05 04:55,-116.1876,41.9532,1637.00,44.60,35.60,70.48,10.00,8.00,0.00,29.96,M,10.00,M,SCT,BKN,OVC,M,3900.00,7000.00,8500.00,M,M,M,M,M,M,M,M,39.63,K10U 050455Z AUTO 01008KT 10SM SCT039 BKN070 OVC085 07/02 A2996 RMK AO2,M
INS,2025-05-05 04:55,-115.6733,36.5872,955.00,58.30,46.60,65.01,120.00,5.00,0.00,29.69,1002.80,10.00,M,FEW,SCT,SCT,M,5500.00,9000.00,19000.00,M,M,M,M,M,M,M,M,58.30,KINS 050455Z AUTO 12005KT 10SM FEW055 SCT090 SCT190 15/08 A2969 RMK AO2 SLP028 T01460081 $,M
LSV,2025-05-05 04:55,-115.0343,36.2362,570.00,64.60,49.00,56.92,0.00,0.00,0.00,29.64,1002.50,10.00,M,SCT,BKN,M,M,10000.00,15000.00,M,M,M,M,M,M,M,M,M,64.60,KLSV 050455Z 00000KT 10SM SCT100 BKN150 18/09 A2964 RMK AO2A SLP025 T01810094 $,M
EKO,2025-05-05 04:56,-115.7860,40.8242,1367.00,49.00,36.00,60.66,20.00,6.00,0.00,29.88,1009.50,10.00,18.00,BKN,OVC,M,M,4000.00,5500.00,M,M,M,M,M,M,M,M,M,46.00,KEKO 050456Z AUTO 02006G18KT 10SM BKN040 OVC055 09/02 A2988 RMK AO2 SLP095 T00940022,M
WMC,2025-05-05 04:56,-117.8072,40.9019,1315.00,49.00,41.00,73.77,330.00,4.00,0.00,29.93,1012.40,10.00,M,OVC,M,M,M,6500.00,M,M,M,M,M,M,M,M,M,M,47.27,KWMC 050456Z AUTO 33004KT 10SM OVC065 09/05 A2993 RMK AO2 SLP124 T00940050,M
HND,2025-05-05 04:56,-115.1344,35.9729,742.79,62.00,49.00,62.36,0.00,0.00,0.00,29.70,1006.10,10.00,M,OVC,M,M,M,5000.00,M,M,M,M,M,M,M,M,M,M,62.00,KHND 050456Z AUTO 00000KT 10SM OVC050 17/09 A2970 RMK AO2 SLP061 T01670094 $,M
TPH,2025-05-05 04:56,-117.0904,38.0505,1654.00,49.00,38.00,65.63,330.00,14.00,T,29.83,1007.20,10.00,M,OVC,M,M,M,7000.00,M,M,M,M,M,M,M,M,M,M,43.08,KTPH 050456Z AUTO 33014KT 10SM OVC070 09/03 A2983 RMK AO2 RAE05 SLP072 P0000 T00940033 $,M
LAS,2025-05-05 04:56,-115.1634,36.0719,663.00,63.00,48.00,57.99,90.00,3.00,0.00,29.69,1004.00,10.00,M,BKN,M,M,M,6000.00,M,M,M,M,M,M,M,M,M,M,63.00,KLAS 050456Z 09003KT 10SM BKN060 17/09 A2969 RMK AO2 SLP040 T01720089 $,M
NFL,2025-05-05 04:57,-118.7010,39.4166,1199.00,50.00,43.00,76.76,310.00,3.00,0.00,29.91,1010.30,10.00,M,FEW,OVC,M,M,4900.00,6000.00,M,M,M,M,M,M,M,M,M,50.00,KNFL 050457Z AUTO 31003KT 10SM FEW049 OVC060 10/06 A2991 RMK AO2 SLP103 T01000061,M
10U,2025-05-05 05:10,-116.1876,41.9532,1637.00,44.60,35.60,70.48,10.00,8.00,0.00,29.97,M,10.00,13.00,FEW,BKN,OVC,M,5000.00,7000.00,8500.00,M,M,M,M,M,M,M,M,39.63,K10U 050510Z AUTO 01008G13KT 10SM FEW050 BKN070 OVC085 07/02 A2997 RMK AO2,M
RTS,2025-05-05 05:15,-119.8764,39.6682,1539.00,46.40,35.60,65.83,0.00,0.00,0.00,29.98,M,10.00,M,BKN,OVC,M,M,5000.00,6000.00,M,M,M,M,M,M,M,M,M,46.40,KRTS 050515Z AUTO 00000KT 10SM BKN050 OVC060 08/02 A2998 RMK AO2,M
MEV,2025-05-05 05:15,-119.7500,38.9963,1441.42,50.00,39.20,66.27,40.00,5.00,0.00,29.95,M,10.00,M,OVC,M,M,M,4200.00,M,M,M,M,M,M,M,M,M,M,50.00,KMEV 050515Z AUTO 04005KT 10SM OVC042 10/04 A2995 RMK AO2,M
BAM,2025-05-05 05:15,-116.8743,40.5990,1382.36,50.00,41.00,71.07,0.00,0.00,0.00,29.93,M,10.00,M,OVC,M,M,M,6000.00,M,M,M,M,M,M,M,M,M,M,50.00,KBAM 050515Z AUTO 00000KT 10SM OVC060 10/05 A2993 RMK AO1,M
HTH,2025-05-05 05:15,-118.6315,38.5448,1282.89,50.00,41.00,71.07,340.00,11.00,0.00,29.93,M,10.00,M,OVC,M,M,M,4700.00,M,M,M,M,M,M,M,M,M,M,50.00,KHTH 050515Z AUTO 34011KT 10SM OVC047 10/05 A2993 RMK A01,M
TMT,2025-05-05 05:15,-117.1971,39.4643,1749.34,42.80,40.00,89.75,360.00,7.00,0.00,29.93,M,10.00,M,SCT,SCT,OVC,M,2000.00,2400.00,3300.00,M,M,M,M,M,M,M,M,37.94,KTMT 050515Z AUTO 36007KT 10SM SCT020 SCT024 OVC033 06/05 A2993 RMK AO2 T00600045,M
BVU,2025-05-05 05:15,-114.8611,35.9475,671.00,60.80,50.00,67.54,0.00,0.00,0.00,29.67,M,10.00,M,CLR,M,M,M,M,M,M,M,M,M,M,M,M,M,M,60.80,KBVU 050515Z AUTO 00000KT 10SM CLR 16/10 A2967 RMK AO2,M
CXP,2025-05-05 05:15,-119.7326,39.1923,1431.00,51.80,35.60,53.81,60.00,8.00,0.00,29.96,M,10.00,M,SCT,OVC,M,M,4400.00,6000.00,M,M,M,M,M,M,M,M,M,51.80,KCXP 050515Z AUTO 06008KT 10SM SCT044 OVC060 11/02 A2996 RMK AO2,M
BVU,2025-05-05 05:35,-114.8611,35.9475,671.00,60.80,51.80,72.20,0.00,0.00,0.00,29.67,M,10.00,M,CLR,M,M,M,M,M,M,M,M,M,M,M,M,M,M,60.80,KBVU 050535Z AUTO 00000KT 10SM CLR 16/11 A2967 RMK AO2,M
BAM,2025-05-05 05:35,-116.8743,40.5990,1382.36,50.00,41.00,71.07,320.00,7.00,0.00,29.93,M,10.00,M,OVC,M,M,M,6000.00,M,M,M,M,M,M,M,M,M,M,50.00,KBAM 050535Z AUTO 32007KT 10SM OVC060 10/05 A2993 RMK AO1,M
CXP,2025-05-05 05:35,-119.7326,39.1923,1431.00,51.80,37.40,57.77,60.00,6.00,0.00,29.97,M,10.00,M,OVC,M,M,M,6000.00,M,M,M,M,M,M,M,M,M,M,51.80,KCXP 050535Z AUTO 06006KT 10SM OVC060 11/03 A2997 RMK AO2,M
RTS,2025-05-05 05:35,-119.8764,39.6682,1539.00,46.40,35.60,65.83,0.00,0.00,0.00,29.99,M,10.00,M,SCT,OVC,M,M,5000.00,6000.00,M,M,M,M,M,M,M,M,M,46.40,KRTS 050535Z AUTO 00000KT 10SM SCT050 OVC060 08/02 A2999 RMK AO2,M
MEV,2025-05-05 05:35,-119.7500,38.9963,1441.42,50.00,39.20,66.27,30.00,4.00,0.00,29.95,M,10.00,M,SCT,OVC,M,M,4300.00,5500.00,M,M,M,M,M,M,M,M,M,50.00,KMEV 050535Z AUTO 03004KT 10SM SCT043 OVC055 10/04 A2995 RMK AO2,M
HTH,2025-05-05 05:35,-118.6315,38.5448,1282.89,50.00,41.00,71.07,340.00,10.00,0.00,29.93,M,10.00,M,OVC,M,M,M,4700.00,M,M,M,M,M,M,M,M,M,M,50.00,KHTH 050535Z AUTO 34010KT 10SM OVC047 10/05 A2993 RMK A01,M
TMT,2025-05-05 05:35,-117.1971,39.4643,1749.34,42.80,40.00,89.75,350.00,6.00,0.00,29.93,M,10.00,M,SCT,SCT,OVC,M,1800.00,2500.00,3300.00,M,M,M,M,M,M,M,M,38.54,KTMT 050535Z AUTO 35006KT 10SM SCT018 SCT025 OVC033 06/05 A2993 RMK AO2 T00600045,M
10U,2025-05-05 05:35,-116.1876,41.9532,1637.00,44.60,33.80,65.61,10.00,9.00,0.00,29.96,M,10.00,14.00,FEW,SCT,OVC,M,5000.00,6500.00,8500.00,M,M,M,M,M,M,M,M,39.18,K10U 050535Z AUTO 01009G14KT 10SM FEW050 SCT065 OVC085 07/01 A2996 RMK AO2,M
P68,2025-05-05 05:53,-116.0056,39.6014,1993.00,44.00,41.00,89.11,340.00,9.00,0.00,29.88,1008.20,M,M,M,M,M,M,M,M,M,M,M,M,M,M,M,M,M,38.44,KP68 050553Z AUTO 34009KT 07/05 A2988 RMK AO1 SLP082 T00670050 10094 20067 51009 $,M
DRA,2025-05-05 05:53,-116.0278,36.6206,1009.00,59.00,39.00,47.35,0.00,0.00,0.00,29.69,1002.60,10.00,M,BKN,M,M,M,7000.00,M,M,M,M,M,M,M,M,M,M,59.00,KDRA 050553Z AUTO 00000KT 10SM BKN070 15/04 A2969 RMK AO2 SLP026 T01500039 10194 20150 51017,M
ELY,2025-05-05 05:53,-114.8453,39.2950,1909.00,43.00,40.00,89.06,20.00,9.00,0.00,29.83,1005.20,10.00,M,SCT,SCT,M,M,5500.00,7000.00,M,M,M,M,M,M,M,M,M,37.19,KELY 050553Z AUTO 02009KT 10SM SCT055 SCT070 06/04 A2983 RMK AO2 SLP052 T00610044 10106 20056 51008 $,M
VGT,2025-05-05 05:53,-115.1933,36.2111,667.00,63.00,47.00,55.85,0.00,0.00,0.00,29.68,1005.50,10.00,M,CLR,M,M,M,M,M,M,M,M,M,M,M,M,M,M,63.00,KVGT 050553Z AUTO 00000KT 10SM CLR 17/08 A2968 RMK AO2 SLP055 T01720083 10200 20172 51016,M
BVU,2025-05-05 05:55,-114.8611,35.9475,671.00,60.80,50.00,67.54,0.00,0.00,0.00,29.68,M,10.00,M,FEW,M,M,M,11000.00,M,M,M,M,M,M,M,M,M,M,60.80,KBVU 050555Z AUTO 00000KT 10SM FEW110 16/10 A2968 RMK AO2,M
RNO,2025-05-05 05:55,-119.7711,39.4839,1341.00,50.00,37.00,60.79,0.00,0.00,0.00,29.96,1012.50,10.00,M,FEW,BKN,M,M,4000.00,8000.00,M,M,M,M,M,M,M,M,M,50.00,KRNO 050555Z 00000KT 10SM FEW040 BKN080 10/03 A2996 RMK AO2 SLP125 T01000028 10133 20100 51015 $,M
LSV,2025-05-05 05:55,-115.0343,36.2362,570.00,63.00,50.50,63.66,40.00,6.00,0.00,29.64,1002.50,10.00,M,BKN,M,M,M,15000.00,M,M,M,M,M,M,M,M,M,M,63.00,KLSV 050555Z 04006KT 10SM BKN150 17/10 A2964 RMK AO2A SLP025 T01720103 10193 20171 51014 $,M
BAM,2025-05-05 05:55,-116.8743,40.5990,1382.36,50.00,41.00,71.07,340.00,5.00,0.00,29.93,M,10.00,M,SCT,OVC,M,M,4900.00,6000.00,M,M,M,M,M,M,M,M,M,50.00,KBAM 050555Z AUTO 34005KT 10SM SCT049 OVC060 10/05 A2993 RMK AO1,M
CXP,2025-05-05 05:55,-119.7326,39.1923,1431.00,51.80,37.40,57.77,50.00,5.00,0.00,29.97,M,10.00,10.00,OVC,M,M,M,6500.00,M,M,M,M,M,M,M,M,M,M,51.80,KCXP 050555Z AUTO 05005G10KT 10SM OVC065 11/03 A2997 RMK AO2,M
RTS,2025-05-05 05:55,-119.8764,39.6682,1539.00,44.60,35.60,70.48,0.00,0.00,0.00,29.99,M,10.00,M,OVC,M,M,M,6000.00,M,M,M,M,M,M,M,M,M,M,44.60,KRTS 050555Z AUTO 00000KT 10SM OVC060 07/02 A2999 RMK AO2,M
MEV,2025-05-05 05:55,-119.7500,38.9963,1441.42,50.00,39.20,66.27,50.00,4.00,0.00,29.95,M,10.00,M,OVC,M,M,M,6000.00,M,M,M,M,M,M,M,M,M,M,50.00,KMEV 050555Z AUTO 05004KT 10SM OVC060 10/04 A2995 RMK AO2,M
HTH,2025-05-05 05:55,-118.6315,38.5448,1282.89,50.00,41.00,71.07,360.00,11.00,0.00,29.93,M,10.00,M,OVC,M,M,M,4600.00,M,M,M,M,M,M,M,M,M,M,50.00,KHTH 050555Z AUTO 36011KT 10SM OVC046 10/05 A2993 RMK A01,M
TMT,2025-05-05 05:55,-117.1971,39.4643,1749.34,42.80,39.70,88.70,360.00,6.00,0.00,29.93,M,10.00,M,BKN,BKN,OVC,M,1800.00,2500.00,3100.00,M,M,M,M,M,M,M,M,38.54,KTMT 050555Z AUTO 36006KT 10SM BKN018 BKN025 OVC031 06/04 A2993 RMK AO2 T00600043 10065 20058,M
10U,2025-05-05 05:55,-116.1876,41.9532,1637.00,44.60,33.80,65.61,20.00,10.00,0.00,29.96,M,10.00,M,BKN,OVC,M,M,6000.00,8500.00,M,M,M,M,M,M,M,M,M,38.77,K10U 050555Z AUTO 02010KT 10SM BKN060 OVC085 07/01 A2996 RMK AO2,M
INS,2025-05-05 05:55,-115.6733,36.5872,955.00,58.50,46.40,64.06,0.00,0.00,0.00,29.70,1002.90,10.00,M,BKN,BKN,M,M,5500.00,17000.00,M,M,M,M,M,M,M,M,M,58.50,KINS 050555Z AUTO 00000KT 10SM BKN055 BKN170 15/08 A2970 RMK AO2 SLP029 T01470080 10187 20143 51016 $,M
EKO,2025-05-05 05:56,-115.7860,40.8242,1367.00,49.00,35.00,58.30,70.00,4.00,0.00,29.88,1009.40,10.00,M,OVC,M,M,M,4500.00,M,M,M,M,M,M,M,M,M,M,47.27,KEKO 050556Z AUTO 07004KT 10SM OVC045 09/02 A2988 RMK AO2 SLP094 T00940017 10117 20094 51009,M
WMC,2025-05-05 05:56,-117.8072,40.9019,1315.00,48.00,40.00,73.67,340.00,5.00,0.00,29.93,1012.70,10.00,M,OVC,M,M,M,7000.00,M,M,M,M,M,M,M,M,M,M,45.40,KWMC 050556Z AUTO 34005KT 10SM OVC070 09/04 A2993 RMK AO2 SLP127 T00890044 10117 20089 51008,M
HND,2025-05-05 05:56,-115.1344,35.9729,742.79,61.00,49.00,64.61,20.00,4.00,0.00,29.70,1006.20,10.00,M,CLR,M,M,M,M,M,M,M,M,M,M,M,M,M,M,61.00,KHND 050556Z AUTO 02004KT 10SM CLR 16/09 A2970 RMK AO2 SLP062 T01610094 10189 20161 51013 $,M
TPH,2025-05-05 05:56,-117.0904,38.0505,1654.00,49.00,39.00,68.25,340.00,14.00,0.00,29.84,1006.90,10.00,M,OVC,M,M,M,5500.00,M,M,M,M,M,M,M,M,M,M,43.08,KTPH 050556Z AUTO 34014KT 10SM OVC055 09/04 A2984 RMK AO2 SLP069 60000 T00940039 10128 20094 51014 $,M
LAS,2025-05-05 05:56,-115.1634,36.0719,663.00,63.00,47.00,55.85,40.00,5.00,0.00,29.69,1004.10,10.00,M,FEW,SCT,OVC,M,6000.00,11000.00,16000.00,M,M,M,M,M,M,M,M,63.00,KLAS 050556Z 04005KT 10SM FEW060 SCT110 OVC160 17/08 A2969 RMK AO2 SLP041 T01720083 10194 20167 51014 $,M
NFL,2025-05-05 05:57,-118.7010,39.4166,1199.00,51.00,43.00,73.97,310.00,5.00,0.00,29.92,1010.50,10.00,M,OVC,M,M,M,6000.00,M,M,M,M,M,M,M,M,M,M,51.00,KNFL 050557Z AUTO 31005KT 10SM OVC060 11/06 A2992 RMK AO2 SLP105 T01060061 10122 20100 51010,M
BVU,2025-05-05 06:15,-114.8611,35.9475,671.00,59.00,50.00,72.01,50.00,3.00,0.00,29.67,M,10.00,M,CLR,M,M,M,M,M,M,M,M,M,M,M,M,M,M,59.00,KBVU 050615Z AUTO 05003KT 10SM CLR 15/10 A2967 RMK AO2,M
BAM,2025-05-05 06:15,-116.8743,40.5990,1382.36,50.00,39.20,66.27,340.00,4.00,0.00,29.93,M,10.00,M,BKN,OVC,M,M,4900.00,5500.00,M,M,M,M,M,M,M,M,M,50.00,KBAM 050615Z AUTO 34004KT 10SM BKN049 OVC055 10/04 A2993 RMK AO1,M
CXP,2025-05-05 06:15,-119.7326,39.1923,1431.00,51.80,37.40,57.77,20.00,6.00,0.00,29.97,M,10.00,M,OVC,M,M,M,6000.00,M,M,M,M,M,M,M,M,M,M,51.80,KCXP 050615Z AUTO 02006KT 10SM OVC060 11/03 A2997 RMK AO2,M
RTS,2025-05-05 06:15,-119.8764,39.6682,1539.00,44.60,35.60,70.48,0.00,0.00,0.00,29.98,M,10.00,M,BKN,SCT,M,M,5500.00,6500.00,M,M,M,M,M,M,M,M,M,44.60,KRTS 050615Z AUTO 00000KT 10SM BKN055 SCT065 07/02 A2998 RMK AO2,M
MEV,2025-05-05 06:15,-119.7500,38.9963,1441.42,50.00,39.20,66.27,40.00,6.00,0.00,29.95,M,10.00,M,OVC,M,M,M,6000.00,M,M,M,M,M,M,M,M,M,M,50.00,KMEV 050615Z AUTO 04006KT 10SM OVC060 10/04 A2995 RMK AO2,M
HTH,2025-05-05 06:15,-118.6315,38.5448,1282.89,50.00,41.00,71.07,350.00,9.00,0.00,29.94,M,10.00,M,OVC,M,M,M,4600.00,M,M,M,M,M,M,M,M,M,M,50.00,KHTH 050615Z AUTO 35009KT 10SM OVC046 10/05 A2994 RMK A01,M
TMT,2025-05-05 06:15,-117.1971,39.4643,1749.34,42.40,39.40,89.03,340.00,7.00,0.00,29.93,M,10.00,M,BKN,OVC,M,M,1800.00,3700.00,M,M,M,M,M,M,M,M,M,37.46,KTMT 050615Z AUTO 34007KT 10SM BKN018 OVC037 06/04 A2993 RMK AO2 T00580041,M
10U,2025-05-05 06:15,-116.1876,41.9532,1637.00,44.60,33.80,65.61,10.00,10.00,0.00,29.96,M,10.00,M,FEW,BKN,OVC,M,6500.00,7500.00,8500.00,M,M,M,M,M,M,M,M,38.77,K10U 050615Z AUTO 01010KT 10SM FEW065 BKN075 OVC085 07/01 A2996 RMK AO2,M
RTS,2025-05-05 06:25,-119.8764,39.6682,1539.00,44.60,35.60,70.48,290.00,3.00,0.00,29.99,M,10.00,M,FEW,M,M,M,6000.00,M,M,M,M,M,M,M,M,M,M,43.09,KRTS 050625Z AUTO 29003KT 10SM FEW060 07/02 A2999 RMK AO2,M
MEV,2025-05-05 06:25,-119.7500,38.9963,1441.42,50.00,39.20,66.27,40.00,5.00,0.00,29.96,M,10.00,M,OVC,M,M,M,5500.00,M,M,M,M,M,M,M,M,M,M,50.00,KMEV 050625Z AUTO 04005KT 10SM OVC055 10/04 A2996 RMK AO2,M
BVU,2025-05-05 06:35,-114.8611,35.9475,671.00,59.00,50.00,72.01,40.00,4.00,0.00,29.67,M,10.00,M,CLR,M,M,M,M,M,M,M,M,M,M,M,M,M,M,59.00,KBVU 050635Z AUTO 04004KT 10SM CLR 15/10 A2967 RMK AO2,M
BAM,2025-05-05 06:35,-116.8743,40.5990,1382.36,48.20,39.20,70.88,0.00,0.00,0.00,29.93,M,10.00,M,OVC,M,M,M,4900.00,M,M,M,M,M,M,M,M,M,M,48.20,KBAM 050635Z AUTO 00000KT 10SM OVC049 09/04 A2993 RMK AO1,M
CXP,2025-05-05 06:35,-119.7326,39.1923,1431.00,51.80,33.80,50.08,30.00,7.00,0.00,29.97,M,10.00,M,OVC,M,M,M,6000.00,M,M,M,M,M,M,M,M,M,M,51.80,KCXP 050635Z AUTO 03007KT 10SM OVC060 11/01 A2997 RMK AO2,M
HTH,2025-05-05 06:35,-118.6315,38.5448,1282.89,50.00,41.00,71.07,340.00,8.00,0.00,29.94,M,10.00,M,OVC,M,M,M,4500.00,M,M,M,M,M,M,M,M,M,M,50.00,KHTH 050635Z AUTO 34008KT 10SM OVC045 10/05 A2994 RMK A01,M
TMT,2025-05-05 06:35,-117.1971,39.4643,1749.34,42.40,39.60,89.73,360.00,6.00,0.00,29.94,M,10.00,M,SCT,OVC,M,M,2000.00,3600.00,M,M,M,M,M,M,M,M,M,38.06,KTMT 050635Z AUTO 36006KT 10SM SCT020 OVC036 06/04 A2994 RMK AO2 T00580042,M
10U,2025-05-05 06:35,-116.1876,41.9532,1637.00,42.80,33.80,70.28,20.00,7.00,0.00,29.97,M,10.00,15.00,FEW,BKN,OVC,M,6500.00,7500.00,8500.00,M,M,M,M,M,M,M,M,37.94,K10U 050635Z AUTO 02007G15KT 10SM FEW065 BKN075 OVC085 06/01 A2997 RMK AO2,M
P68,2025-05-05 06:53,-116.0056,39.6014,1993.00,44.00,40.00,85.71,340.00,9.00,0.00,29.88,1007.70,M,M,M,M,M,M,M,M,M,M,M,M,M,M,M,M,M,38.44,KP68 050653Z AUTO 34009KT 07/04 A2988 RMK AO1 SLP077 T00670044 $,M
DRA,2025-05-05 06:53,-116.0278,36.6206,1009.00,58.00,40.00,51.03,250.00,3.00,0.00,29.70,1002.90,10.00,M,FEW,M,M,M,8000.00,M,M,M,M,M,M,M,M,M,M,58.00,KDRA 050653Z AUTO 25003KT 10SM FEW080 14/04 A2970 RMK AO2 SLP029 T01440044,M
ELY,2025-05-05 06:53,-114.8453,39.2950,1909.00,44.00,40.00,85.71,10.00,12.00,0.00,29.84,1004.90,10.00,M,BKN,BKN,M,M,6000.00,7500.00,M,M,M,M,M,M,M,M,M,37.27,KELY 050653Z AUTO 01012KT 10SM BKN060 BKN075 07/04 A2984 RMK AO2 SLP049 T00670044 $,M
VGT,2025-05-05 06:53,-115.1933,36.2111,667.00,63.00,48.00,57.99,0.00,0.00,0.00,29.68,1005.30,10.00,M,CLR,M,M,M,M,M,M,M,M,M,M,M,M,M,M,63.00,KVGT 050653Z AUTO 00000KT 10SM CLR 17/09 A2968 RMK AO2 SLP053 T01720089,M
BVU,2025-05-05 06:55,-114.8611,35.9475,671.00,59.00,48.20,67.33,80.00,5.00,0.00,29.68,M,10.00,M,CLR,M,M,M,M,M,M,M,M,M,M,M,M,M,M,59.00,KBVU 050655Z AUTO 08005KT 10SM CLR 15/09 A2968 RMK AO2,M
RNO,2025-05-05 06:55,-119.7711,39.4839,1341.00,51.00,37.00,58.58,340.00,4.00,0.00,29.96,1012.60,10.00,M,BKN,M,M,M,7000.00,M,M,M,M,M,M,M,M,M,M,51.00,KRNO 050655Z 34004KT 10SM BKN070 11/03 A2996 RMK AO2 SLP126 T01060028 $,M
BAM,2025-05-05 06:55,-116.8743,40.5990,1382.36,48.20,39.20,70.88,310.00,5.00,0.00,29.94,M,10.00,M,OVC,M,M,M,5000.00,M,M,M,M,M,M,M,M,M,M,45.63,KBAM 050655Z AUTO 31005KT 10SM OVC050 09/04 A2994 RMK AO1,M
CXP,2025-05-05 06:55,-119.7326,39.1923,1431.00,51.80,35.60,53.81,360.00,3.00,0.00,29.97,M,10.00,M,OVC,M,M,M,6000.00,M,M,M,M,M,M,M,M,M,M,51.80,KCXP 050655Z AUTO 36003KT 10SM OVC060 11/02 A2997 RMK AO2,M
RTS,2025-05-05 06:55,-119.8764,39.6682,1539.00,39.20,33.80,80.79,320.00,6.00,0.00,30.00,M,10.00,M,SCT,M,M,M,5500.00,M,M,M,M,M,M,M,M,M,M,34.20,KRTS 050655Z AUTO 32006KT 10SM SCT055 04/01 A3000 RMK AO2,M
MEV,2025-05-05 06:55,-119.7500,38.9963,1441.42,50.00,37.40,61.76,50.00,4.00,0.00,29.96,M,10.00,M,OVC,M,M,M,5500.00,M,M,M,M,M,M,M,M,M,M,50.00,KMEV 050655Z AUTO 05004KT 10SM OVC055 10/03 A2996 RMK AO2,M
HTH,2025-05-05 06:55,-118.6315,38.5448,1282.89,50.00,41.00,71.07,340.00,7.00,0.00,29.94,M,10.00,M,OVC,M,M,M,4600.00,M,M,M,M,M,M,M,M,M,M,50.00,KHTH 050655Z AUTO 34007KT 10SM OVC046 10/05 A2994 RMK A01,M
TMT,2025-05-05 06:55,-117.1971,39.4643,1749.34,42.40,39.60,89.73,350.00,8.00,0.00,29.94,M,10.00,M,BKN,OVC,M,M,1800.00,3400.00,M,M,M,M,M,M,M,M,M,36.92,KTMT 050655Z AUTO 35008KT 10SM BKN018 OVC034 06/04 A2994 RMK AO2 T00580042,M
10U,2025-05-05 06:55,-116.1876,41.9532,1637.00,42.80,33.80,70.28,20.00,11.00,0.00,29.97,M,10.00,M,FEW,SCT,OVC,M,6500.00,7500.00,8500.00,M,M,M,M,M,M,M,M,36.11,K10U 050655Z AUTO 02011KT 10SM FEW065 SCT075 OVC085 06/01 A2997 RMK AO2,M
INS,2025-05-05 06:55,-115.6733,36.5872,955.00,56.70,45.50,66.06,0.00,0.00,0.00,29.70,1003.10,10.00,M,CLR,M,M,M,M,M,M,M,M,M,M,M,M,M,M,56.70,KINS 050655Z AUTO 00000KT 10SM CLR 14/08 A2970 RMK AO2 SLP031 T01370075 $,M
LSV,2025-05-05 06:55,-115.0343,36.2362,570.00,62.00,51.00,67.18,80.00,6.00,0.00,29.64,1002.40,10.00,M,BKN,M,M,M,14000.00,M,M,M,M,M,M,M,M,M,M,62.00,KLSV 050655Z 08006KT 10SM BKN140 17/11 A2964 RMK AO2A SLP024 T01670105 $,M
EKO,2025-05-05 06:56,-115.7860,40.8242,1367.00,49.00,36.00,60.66,60.00,5.00,0.00,29.89,1009.40,10.00,M,OVC,M,M,M,4500.00,M,M,M,M,M,M,M,M,M,M,46.58,KEKO 050656Z AUTO 06005KT 10SM OVC045 09/02 A2989 RMK AO2 SLP094 T00940022,M
WMC,2025-05-05 06:56,-117.8072,40.9019,1315.00,46.00,34.00,62.71,360.00,9.00,0.00,29.95,1013.40,10.00,M,FEW,M,M,M,7000.00,M,M,M,M,M,M,M,M,M,M,40.92,KWMC 050656Z AUTO 36009KT 10SM FEW070 08/01 A2995 RMK AO2 SLP134 T00780011,M
HND,2025-05-05 06:56,-115.1344,35.9729,742.79,59.00,50.00,72.01,360.00,3.00,0.00,29.71,1006.30,10.00,M,FEW,SCT,M,M,10000.00,12000.00,M,M,M,M,M,M,M,M,M,59.00,KHND 050656Z AUTO 36003KT 10SM FEW100 SCT120 15/10 A2971 RMK AO2 SLP063 T01500100 402170139 $,M
TPH,2025-05-05 06:56,-117.0904,38.0505,1654.00,48.00,40.00,73.67,310.00,13.00,0.00,29.85,1007.20,10.00,M,OVC,M,M,M,5000.00,M,M,M,M,M,M,M,M,M,M,42.07,KTPH 050656Z AUTO 31013KT 10SM OVC050 09/04 A2985 RMK AO2 SLP072 T00890044 $,M
LAS,2025-05-05 06:56,-115.1634,36.0719,663.00,62.00,48.00,60.07,80.00,7.00,0.00,29.70,1004.20,10.00,M,SCT,OVC,M,M,12000.00,16000.00,M,M,M,M,M,M,M,M,M,62.00,KLAS 050656Z 08007KT 10SM SCT120 OVC160 17/09 A2970 RMK AO2 SLP042 T01670089 $,M
NFL,2025-05-05 06:57,-118.7010,39.4166,1199.00,52.00,42.00,68.59,330.00,6.00,0.00,29.92,1010.60,10.00,M,OVC,M,M,M,6000.00,M,M,M,M,M,M,M,M,M,M,52.00,KNFL 050657Z AUTO 33006KT 10SM OVC060 11/06 A2992 RMK AO2 SLP106 T01110056,M
RTS,2025-05-05 07:05,-119.8764,39.6682,1539.00,41.00,33.80,75.33,320.00,8.00,0.00,30.00,M,10.00,M,BKN,M,M,M,5500.00,M,M,M,M,M,M,M,M,M,M,35.20,KRTS 050705Z AUTO 32008KT 10SM BKN055 05/01 A3000 RMK AO2,M
MEV,2025-05-05 07:05,-119.7500,38.9963,1441.42,50.00,37.40,61.76,40.00,5.00,0.00,29.96,M,10.00,M,OVC,M,M,M,5500.00,M,M,M,M,M,M,M,M,M,M,50.00,KMEV 050705Z AUTO 04005KT 10SM OVC055 10/03 A2996 RMK AO2,M
BVU,2025-05-05 07:15,-114.8611,35.9475,671.00,59.00,48.20,67.33,60.00,4.00,0.00,29.68,M,10.00,M,CLR,M,M,M,M,M,M,M,M,M,M,M,M,M,M,59.00,KBVU 050715Z AUTO 06004KT 10SM CLR 15/09 A2968 RMK AO2,M
BAM,2025-05-05 07:15,-116.8743,40.5990,1382.36,46.40,39.20,75.84,330.00,10.00,0.00,29.93,M,10.00,15.00,OVC,M,M,M,6000.00,M,M,M,M,M,M,M,M,M,M,41.03,KBAM 050715Z AUTO 33010G15KT 10SM OVC060 08/04 A2993 RMK AO1,M
CXP,2025-05-05 07:15,-119.7326,39.1923,1431.00,51.80,33.80,50.08,20.00,9.00,0.00,29.98,M,10.00,M,BKN,OVC,M,M,5000.00,6000.00,M,M,M,M,M,M,M,M,M,51.80,KCXP 050715Z AUTO 02009KT 10SM BKN050 OVC060 11/01 A2998 RMK AO2,M
HTH,2025-05-05 07:15,-118.6315,38.5448,1282.89,50.00,41.00,71.07,340.00,6.00,0.00,29.94,M,10.00,M,OVC,M,M,M,4800.00,M,M,M,M,M,M,M,M,M,M,50.00,KHTH 050715Z AUTO 34006KT 10SM OVC048 10/05 A2994 RMK A01,M
TMT,2025-05-05 07:15,-117.1971,39.4643,1749.34,42.00,39.20,89.71,340.00,9.00,0.00,29.94,M,10.00,M,SCT,SCT,OVC,M,1800.00,3000.00,3800.00,M,M,M,M,M,M,M,M,35.95,KTMT 050715Z AUTO 34009KT 10SM SCT018 SCT030 OVC038 06/04 A2994 RMK AO2 T00560040,M
10U,2025-05-05 07:15,-116.1876,41.9532,1637.00,42.80,32.00,65.38,10.00,11.00,0.00,29.98,M,10.00,16.00,FEW,OVC,M,M,7500.00,8500.00,M,M,M,M,M,M,M,M,M,36.11,K10U 050715Z AUTO 01011G16KT 10SM FEW075 OVC085 06/00 A2998 RMK AO2,M
ELY,2025-05-05 07:30,-114.8453,39.2950,1909.00,44.00,41.00,89.11,20.00,8.00,0.00,29.84,M,10.00,M,SCT,OVC,M,M,900.00,6000.00,M,M,M,M,M,M,M,M,M,38.90,KELY 050730Z AUTO 02008KT 10SM SCT009 OVC060 07/05 A2984 RMK AO2 T00670050 $,M
BVU,2025-05-05 07:35,-114.8611,35.9475,671.00,59.00,48.20,67.33,60.00,3.00,0.00,29.68,M,10.00,M,SCT,M,M,M,12000.00,M,M,M,M,M,M,M,M,M,M,59.00,KBVU 050735Z AUTO 06003KT 10SM SCT120 15/09 A2968 RMK AO2,M
BAM,2025-05-05 07:35,-116.8743,40.5990,1382.36,50.00,37.40,61.76,330.00,13.00,0.00,29.93,M,10.00,16.00,OVC,M,M,M,6000.00,M,M,M,M,M,M,M,M,M,M,50.00,KBAM 050735Z AUTO 33013G16KT 10SM OVC060 10/03 A2993 RMK AO1,M
CXP,2025-05-05 07:35,-119.7326,39.1923,1431.00,51.80,35.60,53.81,10.00,9.00,0.00,29.98,M,10.00,M,BKN,OVC,M,M,5000.00,5500.00,M,M,M,M,M,M,M,M,M,51.80,KCXP 050735Z AUTO 01009KT 10SM BKN050 OVC055 11/02 A2998 RMK AO2,M
RTS,2025-05-05 07:35,-119.8764,39.6682,1539.00,46.40,26.60,45.73,340.00,10.00,0.00,30.00,M,10.00,M,OVC,M,M,M,5000.00,M,M,M,M,M,M,M,M,M,M,41.03,KRTS 050735Z AUTO 34010KT 10SM OVC050 08/M03 A3000 RMK AO2,M
MEV,2025-05-05 07:35,-119.7500,38.9963,1441.42,50.00,39.20,66.27,320.00,3.00,0.00,29.97,M,10.00,M,OVC,M,M,M,5000.00,M,M,M,M,M,M,M,M,M,M,50.00,KMEV 050735Z AUTO 32003KT 10SM OVC050 10/04 A2997 RMK AO2,M
HTH,2025-05-05 07:35,-118.6315,38.5448,1282.89,50.00,41.00,71.07,350.00,8.00,0.00,29.94,M,10.00,M,OVC,M,M,M,4900.00,M,M,M,M,M,M,M,M,M,M,50.00,KHTH 050735Z AUTO 35008KT 10SM OVC049 10/05 A2994 RMK A01,M
TMT,2025-05-05 07:35,-117.1971,39.4643,1749.34,42.00,39.20,89.71,340.00,6.00,0.00,29.94,M,10.00,M,BKN,BKN,OVC,M,2600.00,3100.00,3800.00,M,M,M,M,M,M,M,M,37.57,KTMT 050735Z AUTO 34006KT 10SM BKN026 BKN031 OVC038 06/04 A2994 RMK AO2 T00560040,M
10U,2025-05-05 07:35,-116.1876,41.9532,1637.00,41.00,32.00,70.08,10.00,10.00,0.00,29.98,M,10.00,15.00,SCT,OVC,M,M,7500.00,8500.00,M,M,M,M,M,M,M,M,M,34.25,K10U 050735Z AUTO 01010G15KT 10SM SCT075 OVC085 05/00 A2998 RMK AO2,M
ELY,2025-05-05 07:40,-114.8453,39.2950,1909.00,44.00,41.00,89.11,10.00,9.00,0.00,29.84,M,10.00,M,BKN,OVC,M,M,900.00,6000.00,M,M,M,M,M,M,M,M,M,38.44,KELY 050740Z AUTO 01009KT 10SM BKN009 OVC060 07/05 A2984 RMK AO2 T00670050 $,M
P68,2025-05-05 07:53,-116.0056,39.6014,1993.00,44.00,40.00,85.71,330.00,9.00,0.00,29.88,1007.30,M,M,M,M,M,M,M,M,M,M,M,M,M,M,M,M,M,38.44,KP68 050753Z AUTO 33009KT 07/04 A2988 RMK AO1 SLP073 T00670044 401390039 $,M
DRA,2025-05-05 07:53,-116.0278,36.6206,1009.00,56.00,40.00,54.85,10.00,3.00,0.00,29.70,1002.80,10.00,M,CLR,M,M,M,M,M,M,M,M,M,M,M,M,M,M,56.00,KDRA 050753Z AUTO 01003KT 10SM CLR 13/04 A2970 RMK AO2 SLP028 T01330044 402060133,M
ELY,2025-05-05 07:53,-114.8453,39.2950,1909.00,44.00,41.00,89.11,10.00,7.00,0.00,29.85,1005.90,10.00,M,OVC,M,M,M,900.00,M,M,M,M,M,M,M,M,M,M,39.41,KELY 050753Z AUTO 01007KT 10SM OVC009 07/05 A2985 RMK AO2 SLP059 T00670050 401330039 $,M
VGT,2025-05-05 07:53,-115.1933,36.2111,667.00,61.00,50.00,67.06,120.00,3.00,0.00,29.68,1005.50,10.00,M,FEW,M,M,M,12000.00,M,M,M,M,M,M,M,M,M,M,61.00,KVGT 050753Z AUTO 12003KT 10SM FEW120 16/10 A2968 RMK AO2 SLP055 T01610100 402220144,M
BAM,2025-05-05 07:55,-116.8743,40.5990,1382.36,48.20,37.40,66.05,330.00,11.00,0.00,29.93,M,10.00,19.00,OVC,M,M,M,6000.00,M,M,M,M,M,M,M,M,M,M,42.94,KBAM 050755Z AUTO 33011G19KT 10SM OVC060 09/03 A2993 RMK AO1,M
BVU,2025-05-05 07:55,-114.8611,35.9475,671.00,59.00,48.20,67.33,40.00,3.00,0.00,29.68,M,10.00,M,OVC,M,M,M,11000.00,M,M,M,M,M,M,M,M,M,M,59.00,KBVU 050755Z AUTO 04003KT 10SM OVC110 15/09 A2968 RMK AO2,M
RNO,2025-05-05 07:55,-119.7711,39.4839,1341.00,50.00,35.00,56.16,320.00,9.00,0.00,29.97,1012.90,10.00,M,OVC,M,M,M,6000.00,M,M,M,M,M,M,M,M,M,M,50.00,KRNO 050755Z 32009KT 10SM OVC060 10/02 A2997 RMK AO2 SLP129 T01000017 401330078 $,M
LSV,2025-05-05 07:55,-115.0343,36.2362,570.00,61.70,51.40,68.91,10.00,5.00,0.00,29.64,1002.40,10.00,M,BKN,M,M,M,12000.00,M,M,M,M,M,M,M,M,M,M,61.70,KLSV 050755Z 01005KT 10SM BKN120 17/11 A2964 RMK AO2A SLP024 T01650108 402290155 $,M
CXP,2025-05-05 07:55,-119.7326,39.1923,1431.00,51.80,33.80,50.08,340.00,7.00,0.00,29.98,M,10.00,M,OVC,M,M,M,5000.00,M,M,M,M,M,M,M,M,M,M,51.80,KCXP 050755Z AUTO 34007KT 10SM OVC050 11/01 A2998 RMK AO2,M
RTS,2025-05-05 07:55,-119.8764,39.6682,1539.00,46.40,23.00,39.36,350.00,8.00,0.00,30.00,M,10.00,M,OVC,M,M,M,5000.00,M,M,M,M,M,M,M,M,M,M,41.85,KRTS 050755Z AUTO 35008KT 10SM OVC050 08/M05 A3000 RMK AO2,M
MEV,2025-05-05 07:55,-119.7500,38.9963,1441.42,50.00,39.20,66.27,0.00,0.00,0.00,29.97,M,10.00,M,OVC,M,M,M,5000.00,M,M,M,M,M,M,M,M,M,M,50.00,KMEV 050755Z AUTO 00000KT 10SM OVC050 10/04 A2997 RMK AO2,M
HTH,2025-05-05 07:55,-118.6315,38.5448,1282.89,50.00,41.00,71.07,340.00,8.00,0.00,29.94,M,10.00,M,OVC,M,M,M,4900.00,M,M,M,M,M,M,M,M,M,M,50.00,KHTH 050755Z AUTO 34008KT 10SM OVC049 10/05 A2994 RMK A01,M
TMT,2025-05-05 07:55,-117.1971,39.4643,1749.34,42.30,39.00,87.99,360.00,5.00,0.00,29.94,M,10.00,M,BKN,OVC,M,M,2800.00,3600.00,M,M,M,M,M,M,M,M,M,38.63,KTMT 050755Z AUTO 36005KT 10SM BKN028 OVC036 06/04 A2994 RMK AO2 T00570038 401100051,M
10U,2025-05-05 07:55,-116.1876,41.9532,1637.00,41.00,32.00,70.08,10.00,11.00,0.00,29.98,M,10.00,M,FEW,OVC,M,M,7500.00,8500.00,M,M,M,M,M,M,M,M,M,33.84,K10U 050755Z AUTO 01011KT 10SM FEW075 OVC085 05/M00 A2998 RMK AO2,M
INS,2025-05-05 07:55,-115.6733,36.5872,955.00,56.70,47.30,70.71,0.00,0.00,0.00,29.71,1003.30,10.00,M,BKN,M,M,M,10000.00,M,M,M,M,M,M,M,M,M,M,56.70,KINS 050755Z AUTO 00000KT 10SM BKN100 14/09 A2971 RMK AO2 SLP033 T01370085 401870126 $,M
TPH,2025-05-05 07:56,-117.0904,38.0505,1654.00,49.00,40.00,70.96,330.00,15.00,0.00,29.84,1006.90,10.00,M,OVC,M,M,M,5500.00,M,M,M,M,M,M,M,M,M,M,42.82,KTPH 050756Z AUTO 33015KT 10SM OVC055 09/04 A2984 RMK AO2 SLP069 T00940044 401390056 $,M
LAS,2025-05-05 07:56,-115.1634,36.0719,663.00,61.00,49.00,64.61,80.00,3.00,0.00,29.70,1004.20,10.00,M,FEW,BKN,M,M,11000.00,14000.00,M,M,M,M,M,M,M,M,M,61.00,KLAS 050756Z 08003KT 10SM FEW110 BKN140 16/09 A2970 RMK AO2 SLP042 T01610094 402220144 $,M
EKO,2025-05-05 07:56,-115.7860,40.8242,1367.00,49.00,34.00,56.02,20.00,6.00,0.00,29.89,1009.40,10.00,M,OVC,M,M,M,4600.00,M,M,M,M,M,M,M,M,M,M,46.00,KEKO 050756Z AUTO 02006KT 10SM OVC046 09/01 A2989 RMK AO2 SLP094 T00940011 401500044,M
WMC,2025-05-05 07:56,-117.8072,40.9019,1315.00,46.00,33.00,60.25,350.00,9.00,0.00,29.97,1014.10,10.00,M,BKN,M,M,M,7500.00,M,M,M,M,M,M,M,M,M,M,40.92,KWMC 050756Z AUTO 35009KT 10SM BKN075 08/01 A2997 RMK AO2 SLP141 T00780006 401170056,M
HND,2025-05-05 07:56,-115.1344,35.9729,742.79,59.00,49.00,69.38,0.00,0.00,0.00,29.71,1006.40,10.00,M,CLR,M,M,M,M,M,M,M,M,M,M,M,M,M,M,59.00,KHND 050756Z AUTO 00000KT 10SM CLR 15/09 A2971 RMK AO2 SLP064 T01500094 $,M
NFL,2025-05-05 07:57,-118.7010,39.4166,1199.00,51.00,41.00,68.48,330.00,8.00,0.00,29.94,1011.00,10.00,M,OVC,M,M,M,5500.00,M,M,M,M,M,M,M,M,M,M,51.00,KNFL 050757Z AUTO 33008KT 10SM OVC055 11/05 A2994 RMK AO2 SLP110 T01060050 401220094,M
BVU,2025-05-05 08:15,-114.8611,35.9475,671.00,57.20,50.00,76.82,350.00,3.00,0.00,29.67,M,10.00,M,FEW,SCT,OVC,M,4100.00,7500.00,10000.00,M,M,M,M,M,M,M,M,57.20,KBVU 050815Z AUTO 35003KT 10SM FEW041 SCT075 OVC100 14/10 A2967 RMK AO2,M
CXP,2025-05-05 08:15,-119.7326,39.1923,1431.00,51.80,35.60,53.81,20.00,6.00,0.00,29.98,M,10.00,M,OVC,M,M,M,5000.00,M,M,M,M,M,M,M,M,M,M,51.80,KCXP 050815Z AUTO 02006KT 10SM OVC050 11/02 A2998 RMK AO2,M
RTS,2025-05-05 08:15,-119.8764,39.6682,1539.00,46.40,23.00,39.36,340.00,10.00,0.00,30.01,M,10.00,M,OVC,M,M,M,5000.00,M,M,M,M,M,M,M,M,M,M,41.03,KRTS 050815Z AUTO 34010KT 10SM OVC050 08/M05 A3001 RMK AO2,M
MEV,2025-05-05 08:15,-119.7500,38.9963,1441.42,48.20,41.00,76.01,330.00,3.00,0.00,29.97,M,10.00,M,OVC,M,M,M,5000.00,M,M,M,M,M,M,M,M,M,M,47.21,KMEV 050815Z AUTO 33003KT 10SM OVC050 09/05 A2997 RMK AO2,M
BAM,2025-05-05 08:15,-116.8743,40.5990,1382.36,46.40,37.40,70.68,330.00,13.00,0.00,29.95,M,10.00,M,BKN,OVC,M,M,6000.00,8000.00,M,M,M,M,M,M,M,M,M,40.02,KBAM 050815Z AUTO 33013KT 10SM BKN060 OVC080 08/03 A2995 RMK AO1,M
HTH,2025-05-05 08:15,-118.6315,38.5448,1282.89,50.00,41.00,71.07,320.00,8.00,0.00,29.94,M,10.00,M,OVC,M,M,M,4900.00,M,M,M,M,M,M,M,M,M,M,50.00,KHTH 050815Z AUTO 32008KT 10SM OVC049 10/05 A2994 RMK A01,M
TMT,2025-05-05 08:15,-117.1971,39.4643,1749.34,42.30,38.50,86.29,360.00,5.00,0.00,29.94,M,10.00,M,OVC,M,M,M,3000.00,M,M,M,M,M,M,M,M,M,M,38.63,KTMT 050815Z AUTO 36005KT 10SM OVC030 06/04 A2994 RMK AO2 T00570036,M
10U,2025-05-05 08:15,-116.1876,41.9532,1637.00,39.20,30.20,69.88,10.00,11.00,0.00,29.99,M,10.00,M,OVC,M,M,M,8500.00,M,M,M,M,M,M,M,M,M,M,31.57,K10U 050815Z AUTO 01011KT 10SM OVC085 04/M01 A2999 RMK AO2,M
RTS,2025-05-05 08:25,-119.8764,39.6682,1539.00,44.60,21.20,39.06,350.00,13.00,0.00,30.01,M,10.00,M,OVC,M,M,M,5000.00,M,M,M,M,M,M,M,M,M,M,37.71,KRTS 050825Z AUTO 35013KT 10SM OVC050 07/M06 A3001 RMK AO2,M
MEV,2025-05-05 08:25,-119.7500,38.9963,1441.42,48.20,41.00,76.01,0.00,0.00,0.00,29.97,M,10.00,M,OVC,M,M,M,5000.00,M,M,M,M,M,M,M,M,M,M,48.20,KMEV 050825Z AUTO 00000KT 10SM OVC050 09/05 A2997 RMK AO2,M
BVU,2025-05-05 08:35,-114.8611,35.9475,671.00,59.00,50.00,72.01,0.00,0.00,0.00,29.67,M,10.00,M,FEW,BKN,OVC,M,4300.00,6500.00,7500.00,M,M,M,M,M,M,M,M,59.00,KBVU 050835Z AUTO 00000KT 10SM FEW043 BKN065 OVC075 15/10 A2967 RMK AO2,M
BAM,2025-05-05 08:35,-116.8743,40.5990,1382.36,46.40,35.60,65.83,330.00,17.00,0.00,29.95,M,10.00,M,BKN,OVC,M,M,6000.00,8000.00,M,M,M,M,M,M,M,M,M,38.94,KBAM 050835Z AUTO 33017KT 10SM BKN060 OVC080 08/02 A2995 RMK AO1,M
CXP,2025-05-05 08:35,-119.7326,39.1923,1431.00,51.80,33.80,50.08,40.00,5.00,0.00,29.99,M,10.00,M,BKN,OVC,M,M,5000.00,5500.00,M,M,M,M,M,M,M,M,M,51.80,KCXP 050835Z AUTO 04005KT 10SM BKN050 OVC055 11/01 A2999 RMK AO2,M
HTH,2025-05-05 08:35,-118.6315,38.5448,1282.89,50.00,41.00,71.07,320.00,8.00,0.00,29.93,M,10.00,M,OVC,M,M,M,5000.00,M,M,M,M,M,M,M,M,M,M,50.00,KHTH 050835Z AUTO 32008KT 10SM OVC050 10/05 A2993 RMK A01,M
TMT,2025-05-05 08:35,-117.1971,39.4643,1749.34,42.30,38.30,85.61,360.00,8.00,0.00,29.94,M,10.00,M,BKN,OVC,M,M,3200.00,4100.00,M,M,M,M,M,M,M,M,M,36.80,KTMT 050835Z AUTO 36008KT 10SM BKN032 OVC041 06/04 A2994 RMK AO2 T00570035,M
10U,2025-05-05 08:35,-116.1876,41.9532,1637.00,39.20,30.20,69.88,10.00,6.00,0.00,29.99,M,10.00,M,OVC,M,M,M,8500.00,M,M,M,M,M,M,M,M,M,M,34.20,K10U 050835Z AUTO 01006KT 10SM OVC085 04/M01 A2999 RMK AO2,M
MEV,2025-05-05 08:45,-119.7500,38.9963,1441.42,48.20,41.00,76.01,350.00,3.00,0.00,29.97,M,10.00,M,OVC,M,M,M,5000.00,M,M,M,M,M,M,M,M,M,M,47.21,KMEV 050845Z AUTO 35003KT 10SM OVC050 09/05 A2997 RMK AO2,M
RTS,2025-05-05 08:45,-119.8764,39.6682,1539.00,44.60,21.20,39.06,350.00,15.00,0.00,30.01,M,10.00,M,OVC,M,M,M,5500.00,M,M,M,M,M,M,M,M,M,M,37.11,KRTS 050845Z AUTO 35015KT 10SM OVC055 07/M06 A3001 RMK AO2,M
P68,2025-05-05 08:53,-116.0056,39.6014,1993.00,43.00,40.00,89.06,350.00,8.00,0.00,29.88,1008.20,M,M,M,M,M,M,M,M,M,M,M,M,M,M,M,M,M,37.66,KP68 050853Z AUTO 35008KT 06/04 A2988 RMK AO1 SLP082 T00610044 53002 $,M
DRA,2025-05-05 08:53,-116.0278,36.6206,1009.00,57.00,42.00,57.16,0.00,0.00,0.00,29.70,1002.60,10.00,M,BKN,M,M,M,7500.00,M,M,M,M,M,M,M,M,M,M,57.00,KDRA 050853Z AUTO 00000KT 10SM BKN075 14/06 A2970 RMK AO2 SLP026 T01390056 50002,M
ELY,2025-05-05 08:53,-114.8453,39.2950,1909.00,44.00,41.00,89.11,10.00,9.00,0.00,29.84,1006.40,10.00,M,OVC,M,M,M,800.00,M,M,M,M,M,M,M,M,M,M,38.44,KELY 050853Z AUTO 01009KT 10SM OVC008 07/05 A2984 RMK AO2 SLP064 T00670050 50000 $,M
VGT,2025-05-05 08:53,-115.1933,36.2111,667.00,61.00,48.00,62.23,130.00,4.00,0.00,29.68,1005.40,10.00,M,OVC,M,M,M,11000.00,M,M,M,M,M,M,M,M,M,M,61.00,KVGT 050853Z AUTO 13004KT 10SM OVC110 16/09 A2968 RMK AO2 SLP054 T01610089 58001,M
BAM,2025-05-05 08:55,-116.8743,40.5990,1382.36,46.40,35.60,65.83,320.00,13.00,0.00,29.95,M,10.00,M,OVC,M,M,M,6000.00,M,M,M,M,M,M,M,M,M,M,40.02,KBAM 050855Z AUTO 32013KT 10SM OVC060 08/02 A2995 RMK AO1,M
BVU,2025-05-05 08:55,-114.8611,35.9475,671.00,59.00,48.20,67.33,0.00,0.00,0.00,29.67,M,10.00,M,FEW,BKN,OVC,M,4500.00,6500.00,10000.00,M,M,M,M,M,M,M,M,59.00,KBVU 050855Z AUTO 00000KT 10SM FEW045 BKN065 OVC100 15/09 A2967 RMK AO2,M
RNO,2025-05-05 08:55,-119.7711,39.4839,1341.00,50.00,28.00,42.33,320.00,9.00,0.00,29.98,1013.00,10.00,M,OVC,M,M,M,6000.00,M,M,M,M,M,M,M,M,M,M,50.00,KRNO 050855Z 32009KT 10SM OVC060 10/M02 A2998 RMK AO2 SLP130 T01001022 53007 $,M
CXP,2025-05-05 08:55,-119.7326,39.1923,1431.00,50.00,35.60,57.52,0.00,0.00,0.00,29.99,M,10.00,M,OVC,M,M,M,5000.00,M,M,M,M,M,M,M,M,M,M,50.00,KCXP 050855Z AUTO 00000KT 10SM OVC050 10/02 A2999 RMK AO2,M
HTH,2025-05-05 08:55,-118.6315,38.5448,1282.89,50.00,41.00,71.07,330.00,8.00,0.00,29.94,M,10.00,M,OVC,M,M,M,5500.00,M,M,M,M,M,M,M,M,M,M,50.00,KHTH 050855Z AUTO 33008KT 10SM OVC055 10/05 A2994 RMK A01,M
TMT,2025-05-05 08:55,-117.1971,39.4643,1749.34,42.40,38.30,85.28,20.00,5.00,0.00,29.94,M,10.00,M,OVC,M,M,M,2800.00,M,M,M,M,M,M,M,M,M,M,38.75,KTMT 050855Z AUTO 02005KT 10SM OVC028 06/04 A2994 RMK AO2 T00580035,M
10U,2025-05-05 08:55,-116.1876,41.9532,1637.00,37.40,30.20,74.98,40.00,3.00,0.00,29.99,M,10.00,M,SCT,M,M,M,8500.00,M,M,M,M,M,M,M,M,M,M,34.86,K10U 050855Z AUTO 04003KT 10SM SCT085 03/M01 A2999 RMK AO2,M
INS,2025-05-05 08:55,-115.6733,36.5872,955.00,56.70,46.20,67.83,0.00,0.00,0.00,29.71,1003.30,10.00,M,CLR,M,M,M,M,M,M,M,M,M,M,M,M,M,M,56.70,KINS 050855Z AUTO 00000KT 10SM CLR 14/08 A2971 RMK AO2 SLP033 T01370079 51002 $,M
LSV,2025-05-05 08:55,-115.0343,36.2362,570.00,63.00,48.40,58.87,0.00,0.00,0.00,29.64,1002.40,10.00,M,SCT,BKN,M,M,11000.00,14000.00,M,M,M,M,M,M,M,M,M,63.00,KLSV 050855Z 00000KT 10SM SCT110 BKN140 17/09 A2964 RMK AO2A SLP024 T01720091 50000 $,M
TPH,2025-05-05 08:56,-117.0904,38.0505,1654.00,48.00,40.00,73.67,340.00,15.00,0.00,29.84,1006.90,10.00,20.00,OVC,M,M,M,6000.00,M,M,M,M,M,M,M,M,M,M,41.52,KTPH 050856Z AUTO 34015G20KT 10SM OVC060 09/04 A2984 RMK AO2 SLP069 T00890044 51000 $,M
LAS,2025-05-05 08:56,-115.1634,36.0719,663.00,61.00,49.00,64.61,0.00,0.00,0.00,29.70,1004.50,10.00,M,FEW,BKN,M,M,11000.00,13000.00,M,M,M,M,M,M,M,M,M,61.00,KLAS 050856Z 00000KT 10SM FEW110 BKN130 16/09 A2970 RMK AO2 SLP045 T01610094 53004 $,M
EKO,2025-05-05 08:56,-115.7860,40.8242,1367.00,48.00,34.00,58.16,50.00,4.00,0.00,29.89,1010.40,10.00,M,SCT,SCT,OVC,M,5000.00,6500.00,8500.00,M,M,M,M,M,M,M,M,46.10,KEKO 050856Z AUTO 05004KT 10SM SCT050 SCT065 OVC085 09/01 A2989 RMK AO2 SLP104 T00890011 51003,M
WMC,2025-05-05 08:56,-117.8072,40.9019,1315.00,42.00,31.00,64.75,350.00,9.00,0.00,29.97,1014.40,10.00,M,CLR,M,M,M,M,M,M,M,M,M,M,M,M,M,M,35.95,KWMC 050856Z AUTO 35009KT 10SM CLR 06/M01 A2997 RMK AO2 SLP144 T00561006 51013,M
HND,2025-05-05 08:56,-115.1344,35.9729,742.79,59.00,50.00,72.01,230.00,5.00,0.00,29.70,1006.30,10.00,M,CLR,M,M,M,M,M,M,M,M,M,M,M,M,M,M,59.00,KHND 050856Z AUTO 23005KT 10SM CLR 15/10 A2970 RMK AO2 SLP063 T01500100 58001 $,M
NFL,2025-05-05 08:57,-118.7010,39.4166,1199.00,52.00,39.00,61.06,360.00,8.00,0.00,29.94,1011.10,10.00,M,OVC,M,M,M,6000.00,M,M,M,M,M,M,M,M,M,M,52.00,KNFL 050857Z AUTO 36008KT 10SM OVC060 11/04 A2994 RMK AO2 SLP111 T01110039 51005,M
BVU,2025-05-05 09:15,-114.8611,35.9475,671.00,59.00,48.20,67.33,0.00,0.00,0.00,29.67,M,10.00,M,FEW,SCT,M,M,6500.00,10000.00,M,M,M,M,M,M,M,M,M,59.00,KBVU 050915Z AUTO 00000KT 10SM FEW065 SCT100 15/09 A2967 RMK AO2,M
CXP,2025-05-05 09:15,-119.7326,39.1923,1431.00,51.80,32.00,46.59,30.00,5.00,0.00,29.98,M,10.00,M,OVC,M,M,M,5000.00,M,M,M,M,M,M,M,M,M,M,51.80,KCXP 050915Z AUTO 03005KT 10SM OVC050 11/00 A2998 RMK AO2,M
HTH,2025-05-05 09:15,-118.6315,38.5448,1282.89,51.80,41.00,66.48,340.00,8.00,0.00,29.94,M,10.00,M,OVC,M,M,M,5500.00,M,M,M,M,M,M,M,M,M,M,51.80,KHTH 050915Z AUTO 34008KT 10SM OVC055 11/05 A2994 RMK A01,M
TMT,2025-05-05 09:15,-117.1971,39.4643,1749.34,42.30,38.00,84.61,10.00,6.00,0.00,29.94,M,10.00,M,SCT,OVC,M,M,3000.00,4000.00,M,M,M,M,M,M,M,M,M,37.94,KTMT 050915Z AUTO 01006KT 10SM SCT030 OVC040 06/03 A2994 RMK AO2 T00570034,M
10U,2025-05-05 09:15,-116.1876,41.9532,1637.00,33.80,30.20,86.49,50.00,6.00,0.00,29.99,M,10.00,M,CLR,M,M,M,M,M,M,M,M,M,M,M,M,M,M,27.70,K10U 050915Z AUTO 05006KT 10SM CLR 01/M01 A2999 RMK AO2,M
ELY,2025-05-05 09:17,-114.8453,39.2950,1909.00,44.00,41.00,89.11,20.00,10.00,T,29.83,M,10.00,M,SCT,OVC,M,M,800.00,1400.00,M,M,M,M,M,M,M,M,M,38.02,KELY 050917Z AUTO 02010KT 10SM SCT008 OVC014 07/05 A2983 RMK AO2 RAB06E17 P0000 T00670050 $,M
BAM,2025-05-05 09:20,-116.8743,40.5990,1382.36,44.60,35.60,70.48,320.00,16.00,0.00,29.95,M,10.00,M,OVC,M,M,M,6000.00,M,M,M,M,M,M,M,M,M,M,36.84,KBAM 050920Z AUTO 32016KT 10SM OVC060 07/02 A2995 RMK AO1,M
RTS,2025-05-05 09:25,-119.8764,39.6682,1539.00,44.60,21.20,39.06,350.00,12.00,0.00,30.01,M,10.00,17.00,OVC,M,M,M,6000.00,M,M,M,M,M,M,M,M,M,M,38.04,KRTS 050925Z AUTO 35012G17KT 10SM OVC060 07/M06 A3001 RMK AO2,M
MEV,2025-05-05 09:25,-119.7500,38.9963,1441.42,50.00,37.40,61.76,20.00,4.00,0.00,29.97,M,10.00,M,BKN,OVC,M,M,4900.00,5500.00,M,M,M,M,M,M,M,M,M,50.00,KMEV 050925Z AUTO 02004KT 10SM BKN049 OVC055 10/03 A2997 RMK AO2,M
ELY,2025-05-05 09:31,-114.8453,39.2950,1909.00,43.00,41.00,92.58,20.00,9.00,T,29.84,M,10.00,M,SCT,OVC,M,M,1400.00,7000.00,M,M,M,M,M,M,M,M,M,37.19,KELY 050931Z AUTO 02009KT 10SM SCT014 OVC070 06/05 A2984 RMK AO2 RAB06E17 P0000 T00610050 $,M
BVU,2025-05-05 09:35,-114.8611,35.9475,671.00,59.00,48.20,67.33,80.00,4.00,0.00,29.67,M,10.00,M,CLR,M,M,M,M,M,M,M,M,M,M,M,M,M,M,59.00,KBVU 050935Z AUTO 08004KT 10SM CLR 15/09 A2967 RMK AO2,M
BAM,2025-05-05 09:35,-116.8743,40.5990,1382.36,44.60,33.80,65.61,320.00,14.00,0.00,29.95,M,10.00,19.00,OVC,M,M,M,6000.00,M,M,M,M,M,M,M,M,M,M,37.40,KBAM 050935Z AUTO 32014G19KT 10SM OVC060 07/01 A2995 RMK AO1,M
CXP,2025-05-05 09:35,-119.7326,39.1923,1431.00,51.80,32.00,46.59,M,4.00,0.00,29.99,M,10.00,M,OVC,M,M,M,4900.00,M,M,M,M,M,M,M,M,M,M,51.80,KCXP 050935Z AUTO VRB04KT 10SM OVC049 11/00 A2999 RMK AO2,M
HTH,2025-05-05 09:35,-118.6315,38.5448,1282.89,51.80,41.00,66.48,330.00,9.00,0.00,29.94,M,10.00,M,OVC,M,M,M,5500.00,M,M,M,M,M,M,M,M,M,M,51.80,KHTH 050935Z AUTO 33009KT 10SM OVC055 11/05 A2994 RMK A01,M
TMT,2025-05-05 09:35,-117.1971,39.4643,1749.34,42.00,38.50,87.29,0.00,0.00,0.00,29.94,M,10.00,M,OVC,M,M,M,3800.00,M,M,M,M,M,M,M,M,M,M,42.00,KTMT 050935Z AUTO 00000KT 10SM OVC038 06/04 A2994 RMK AO2 T00550036,M
10U,2025-05-05 09:35,-116.1876,41.9532,1637.00,33.80,30.20,86.49,70.00,3.00,0.00,30.00,M,10.00,M,CLR,M,M,M,M,M,M,M,M,M,M,M,M,M,M,30.75,K10U 050935Z AUTO 07003KT 10SM CLR 01/M01 A3000 RMK AO2,M
P68,2025-05-05 09:53,-116.0056,39.6014,1993.00,42.00,41.00,96.21,340.00,5.00,0.02,29.89,1008.60,M,M,M,M,M,M,M,M,M,M,M,M,M,M,M,M,M,38.27,KP68 050953Z AUTO 34005KT 06/05 A2989 RMK AO1 SLP086 P0002 T00560050 $,M
DRA,2025-05-05 09:53,-116.0278,36.6206,1009.00,58.00,41.00,53.05,10.00,3.00,0.00,29.70,1002.50,10.00,M,FEW,BKN,M,M,5000.00,8000.00,M,M,M,M,M,M,M,M,M,58.00,KDRA 050953Z AUTO 01003KT 10SM FEW050 BKN080 14/05 A2970 RMK AO2 SLP025 T01440050,M
ELY,2025-05-05 09:53,-114.8453,39.2950,1909.00,43.00,41.00,92.58,20.00,14.00,T,29.84,1006.20,10.00,M,FEW,SCT,OVC,M,1400.00,2100.00,6500.00,M,M,M,M,M,M,M,M,35.34,KELY 050953Z AUTO 02014KT 10SM FEW014 SCT021 OVC065 06/05 A2984 RMK AO2 RAB06E17 SLP062 P0000 T00610050 $,M
VGT,2025-05-05 09:53,-115.1933,36.2111,667.00,62.00,47.00,57.85,0.00,0.00,0.00,29.68,1005.50,10.00,M,OVC,M,M,M,11000.00,M,M,M,M,M,M,M,M,M,M,62.00,KVGT 050953Z AUTO 00000KT 10SM OVC110 17/08 A2968 RMK AO2 SLP055 T01670083,M
BVU,2025-05-05 09:55,-114.8611,35.9475,671.00,57.20,48.20,71.83,100.00,3.00,0.00,29.67,M,10.00,M,CLR,M,M,M,M,M,M,M,M,M,M,M,M,M,M,57.20,KBVU 050955Z AUTO 10003KT 10SM CLR 14/09 A2967 RMK AO2,M
RNO,2025-05-05 09:55,-119.7711,39.4839,1341.00,49.00,24.00,37.22,330.00,10.00,0.00,29.99,1013.40,10.00,M,OVC,M,M,M,6000.00,M,M,M,M,M,M,M,M,M,M,44.29,KRNO 050955Z 33010KT 10SM OVC060 09/M04 A2999 RMK AO2 SLP134 T00941044 $,M
BAM,2025-05-05 09:55,-116.8743,40.5990,1382.36,44.60,33.80,65.61,320.00,11.00,0.00,29.96,M,10.00,20.00,OVC,M,M,M,6000.00,M,M,M,M,M,M,M,M,M,M,38.39,KBAM 050955Z AUTO 32011G20KT 10SM OVC060 07/01 A2996 RMK AO1,M
CXP,2025-05-05 09:55,-119.7326,39.1923,1431.00,50.00,33.80,53.54,350.00,9.00,0.00,29.99,M,10.00,M,OVC,M,M,M,5000.00,M,M,M,M,M,M,M,M,M,M,50.00,KCXP 050955Z AUTO 35009KT 10SM OVC050 10/01 A2999 RMK AO2,M
RTS,2025-05-05 09:55,-119.8764,39.6682,1539.00,42.80,21.20,41.84,360.00,13.00,0.00,30.01,M,10.00,M,OVC,M,M,M,6500.00,M,M,M,M,M,M,M,M,M,M,35.40,KRTS 050955Z AUTO 36013KT 10SM OVC065 06/M06 A3001 RMK AO2,M
MEV,2025-05-05 09:55,-119.7500,38.9963,1441.42,48.20,37.40,66.05,40.00,4.00,0.00,29.97,M,10.00,M,OVC,M,M,M,5500.00,M,M,M,M,M,M,M,M,M,M,46.34,KMEV 050955Z AUTO 04004KT 10SM OVC055 09/03 A2997 RMK AO2,M
HTH,2025-05-05 09:55,-118.6315,38.5448,1282.89,51.80,39.20,61.99,340.00,13.00,0.00,29.94,M,10.00,M,OVC,M,M,M,5000.00,M,M,M,M,M,M,M,M,M,M,51.80,KHTH 050955Z AUTO 34013KT 10SM OVC050 11/04 A2994 RMK A01,M
TMT,2025-05-05 09:55,-117.1971,39.4643,1749.34,42.00,39.00,89.01,0.00,0.00,0.00,29.95,M,10.00,M,BKN,BKN,OVC,M,2700.00,3300.00,3900.00,M,M,M,M,M,M,M,M,42.00,KTMT 050955Z AUTO 00000KT 10SM BKN027 BKN033 OVC039 06/04 A2995 RMK AO2 T00560038,M
10U,2025-05-05 09:55,-116.1876,41.9532,1637.00,33.80,28.40,80.36,310.00,4.00,0.00,30.00,M,10.00,M,CLR,M,M,M,M,M,M,M,M,M,M,M,M,M,M,29.52,K10U 050955Z AUTO 31004KT 10SM CLR 01/M02 A3000 RMK AO2,M
INS,2025-05-05 09:55,-115.6733,36.5872,955.00,54.00,46.40,75.39,0.00,0.00,0.00,29.71,1003.30,10.00,M,OVC,M,M,M,10000.00,M,M,M,M,M,M,M,M,M,M,54.00,KINS 050955Z AUTO 00000KT 10SM OVC100 12/08 A2971 RMK AO2 SLP033 T01230080 $,M
LSV,2025-05-05 09:55,-115.0343,36.2362,570.00,61.00,51.40,70.64,80.00,3.00,0.00,29.64,1002.50,10.00,M,BKN,M,M,M,10000.00,M,M,M,M,M,M,M,M,M,M,61.00,KLSV 050955Z 08003KT 10SM BKN100 16/11 A2964 RMK AO2A SLP025 T01610108 $,M
EKO,2025-05-05 09:56,-115.7860,40.8242,1367.00,48.00,31.00,51.54,20.00,6.00,0.00,29.90,1010.70,10.00,M,OVC,M,M,M,5000.00,M,M,M,M,M,M,M,M,M,M,44.80,KEKO 050956Z AUTO 02006KT 10SM OVC050 09/M01 A2990 RMK AO2 SLP107 T00891006,M
WMC,2025-05-05 09:56,-117.8072,40.9019,1315.00,41.00,29.00,62.04,350.00,11.00,0.00,29.99,1014.80,10.00,M,CLR,M,M,M,M,M,M,M,M,M,M,M,M,M,M,33.84,KWMC 050956Z AUTO 35011KT 10SM CLR 05/M02 A2999 RMK AO2 SLP148 T00501017,M
HND,2025-05-05 09:56,-115.1344,35.9729,742.79,58.00,51.00,77.47,170.00,5.00,T,29.70,1006.30,10.00,M,SCT,SCT,M,M,9500.00,12000.00,M,M,M,M,M,M,M,M,M,58.00,KHND 050956Z AUTO 17005KT 10SM SCT095 SCT120 14/11 A2970 RMK AO2 RAB30E42 SLP063 P0000 T01440106 $,M
TPH,2025-05-05 09:56,-117.0904,38.0505,1654.00,49.00,39.00,68.25,340.00,17.00,T,29.85,1007.30,10.00,M,OVC,M,M,M,6500.00,M,M,M,M,M,M,M,M,M,M,42.35,KTPH 050956Z AUTO 34017KT 10SM OVC065 09/04 A2985 RMK AO2 RAB26E38 SLP073 P0000 T00940039 $,M
LAS,2025-05-05 09:56,-115.1634,36.0719,663.00,61.00,49.00,64.61,0.00,0.00,0.00,29.72,1005.20,10.00,M,BKN,M,M,M,12000.00,M,M,M,M,M,M,M,M,M,M,61.00,KLAS 050956Z 00000KT 10SM BKN120 16/09 A2972 RMK AO2 SLP052 T01610094 $,M
NFL,2025-05-05 09:57,-118.7010,39.4166,1199.00,51.00,37.00,58.58,350.00,10.00,0.00,29.94,1011.10,10.00,M,FEW,OVC,M,M,6500.00,8000.00,M,M,M,M,M,M,M,M,M,51.00,KNFL 050957Z AUTO 35010KT 10SM FEW065 OVC080 11/03 A2994 RMK AO2 SLP111 T01060028,M
ELY,2025-05-05 10:12,-114.8453,39.2950,1909.00,43.00,40.00,89.06,10.00,10.00,0.00,29.84,M,10.00,M,FEW,BKN,OVC,M,1000.00,2100.00,6500.00,M,M,M,M,M,M,M,M,36.76,KELY 051012Z AUTO 01010KT 10SM FEW010 BKN021 OVC065 06/04 A2984 RMK AO2 T00610044 $,M
10U,2025-05-05 10:15,-116.1876,41.9532,1637.00,33.80,30.20,86.49,340.00,3.00,0.00,30.00,M,10.00,M,CLR,M,M,M,M,M,M,M,M,M,M,M,M,M,M,30.75,K10U 051015Z AUTO 34003KT 10SM CLR 01/M01 A3000 RMK AO2,M
BVU,2025-05-05 10:15,-114.8611,35.9475,671.00,55.40,48.20,76.66,0.00,0.00,0.00,29.68,M,10.00,M,CLR,M,M,M,M,M,M,M,M,M,M,M,M,M,M,55.40,KBVU 051015Z AUTO 00000KT 10SM CLR 13/09 A2968 RMK AO2,M
BAM,2025-05-05 10:15,-116.8743,40.5990,1382.36,44.60,33.80,65.61,310.00,9.00,0.00,29.97,M,10.00,M,BKN,OVC,M,M,7000.00,9000.00,M,M,M,M,M,M,M,M,M,39.18,KBAM 051015Z AUTO 31009KT 10SM BKN070 OVC090 07/01 A2997 RMK AO1,M
CXP,2025-05-05 10:15,-119.7326,39.1923,1431.00,50.00,32.00,49.81,350.00,11.00,0.00,29.99,M,10.00,M,OVC,M,M,M,5000.00,M,M,M,M,M,M,M,M,M,M,50.00,KCXP 051015Z AUTO 35011KT 10SM OVC050 10/M00 A2999 RMK AO2,M
RTS,2025-05-05 10:15,-119.8764,39.6682,1539.00,42.80,21.20,41.84,0.00,0.00,0.00,30.02,M,10.00,12.00,OVC,M,M,M,6000.00,M,M,M,M,M,M,M,M,M,M,42.80,KRTS 051015Z AUTO 00000G12KT 10SM OVC060 06/M06 A3002 RMK AO2,M
MEV,2025-05-05 10:15,-119.7500,38.9963,1441.42,48.20,39.20,70.88,0.00,0.00,0.00,29.98,M,10.00,M,BKN,OVC,M,M,5500.00,6500.00,M,M,M,M,M,M,M,M,M,48.20,KMEV 051015Z AUTO 00000KT 10SM BKN055 OVC065 09/04 A2998 RMK AO2,M
HTH,2025-05-05 10:15,-118.6315,38.5448,1282.89,51.80,39.20,61.99,340.00,10.00,0.00,29.94,M,10.00,M,OVC,M,M,M,5000.00,M,M,M,M,M,M,M,M,M,M,51.80,KHTH 051015Z AUTO 34010KT 10SM OVC050 11/04 A2994 RMK A01,M
TMT,2025-05-05 10:15,-117.1971,39.4643,1749.34,42.00,38.50,87.29,0.00,0.00,0.00,29.96,M,10.00,M,OVC,M,M,M,2700.00,M,M,M,M,M,M,M,M,M,M,42.00,KTMT 051015Z AUTO 00000KT 10SM OVC027 06/04 A2996 RMK AO2 T00550036,M
ELY,2025-05-05 10:23,-114.8453,39.2950,1909.00,43.00,40.00,89.06,20.00,11.00,0.00,29.85,M,10.00,M,BKN,BKN,OVC,M,900.00,2100.00,7000.00,M,M,M,M,M,M,M,M,36.37,KELY 051023Z AUTO 02011KT 10SM BKN009 BKN021 OVC070 06/04 A2985 RMK AO2 T00610044 $,M
RTS,2025-05-05 10:25,-119.8764,39.6682,1539.00,42.80,21.20,41.84,300.00,5.00,0.00,30.02,M,10.00,M,OVC,M,M,M,6500.00,M,M,M,M,M,M,M,M,M,M,39.22,KRTS 051025Z AUTO 30005KT 10SM OVC065 06/M06 A3002 RMK AO2,M
MEV,2025-05-05 10:25,-119.7500,38.9963,1441.42,48.20,37.40,66.05,340.00,4.00,0.00,29.98,M,10.00,M,OVC,M,M,M,5500.00,M,M,M,M,M,M,M,M,M,M,46.34,KMEV 051025Z AUTO 34004KT 10SM OVC055 09/03 A2998 RMK AO2,M
BVU,2025-05-05 10:35,-114.8611,35.9475,671.00,55.40,50.00,81.99,90.00,3.00,0.00,29.68,M,10.00,M,FEW,FEW,M,M,9500.00,12000.00,M,M,M,M,M,M,M,M,M,55.40,KBVU 051035Z AUTO 09003KT 10SM FEW095 FEW120 13/10 A2968 RMK AO2,M
BAM,2025-05-05 10:35,-116.8743,40.5990,1382.36,44.60,32.00,61.03,310.00,12.00,0.00,29.97,M,10.00,15.00,BKN,M,M,M,9000.00,M,M,M,M,M,M,M,M,M,M,38.04,KBAM 051035Z AUTO 31012G15KT 10SM BKN090 07/00 A2997 RMK AO1,M
CXP,2025-05-05 10:35,-119.7326,39.1923,1431.00,48.20,28.40,46.02,350.00,13.00,0.00,29.99,M,10.00,M,BKN,OVC,M,M,5500.00,6500.00,M,M,M,M,M,M,M,M,M,42.32,KCXP 051035Z AUTO 35013KT 10SM BKN055 OVC065 09/M02 A2999 RMK AO2,M
HTH,2025-05-05 10:35,-118.6315,38.5448,1282.89,50.00,39.20,66.27,340.00,10.00,0.00,29.95,M,10.00,M,BKN,OVC,M,M,5000.00,6000.00,M,M,M,M,M,M,M,M,M,50.00,KHTH 051035Z AUTO 34010KT 10SM BKN050 OVC060 10/04 A2995 RMK A01,M
TMT,2025-05-05 10:35,-117.1971,39.4643,1749.34,42.30,36.70,80.39,20.00,6.00,0.00,29.96,M,10.00,M,OVC,M,M,M,3100.00,M,M,M,M,M,M,M,M,M,M,37.94,KTMT 051035Z AUTO 02006KT 10SM OVC031 06/03 A2996 RMK AO2 T00570026,M
10U,2025-05-05 10:35,-116.1876,41.9532,1637.00,32.00,28.40,86.39,310.00,5.00,0.00,30.01,M,10.00,M,CLR,M,M,M,M,M,M,M,M,M,M,M,M,M,M,26.40,K10U 051035Z AUTO 31005KT 10SM CLR M00/M02 A3001 RMK AO2,M
ELY,2025-05-05 10:48,-114.8453,39.2950,1909.00,42.80,39.20,86.99,30.00,12.00,0.00,29.85,M,10.00,M,SCT,BKN,M,M,900.00,7500.00,M,M,M,M,M,M,M,M,M,35.75,KELY 051048Z AUTO 03012KT 10SM SCT009 BKN075 06/04 A2985 RMK AO2 $,M
P68,2025-05-05 10:53,-116.0056,39.6014,1993.00,42.00,41.00,96.21,10.00,3.00,0.00,29.90,1009.20,M,M,M,M,M,M,M,M,M,M,M,M,M,M,M,M,M,40.12,KP68 051053Z AUTO 01003KT 06/05 A2990 RMK AO1 SLP092 T00560050 $,M
DRA,2025-05-05 10:53,-116.0278,36.6206,1009.00,58.00,41.00,53.05,30.00,3.00,0.00,29.71,1002.70,10.00,M,SCT,M,M,M,12000.00,M,M,M,M,M,M,M,M,M,M,58.00,KDRA 051053Z AUTO 03003KT 10SM SCT120 14/05 A2971 RMK AO2 SLP027 T01440050,M
ELY,2025-05-05 10:53,-114.8453,39.2950,1909.00,42.00,40.00,92.55,20.00,11.00,0.00,29.85,1006.30,10.00,M,FEW,BKN,M,M,800.00,7000.00,M,M,M,M,M,M,M,M,M,35.10,KELY 051053Z AUTO 02011KT 10SM FEW008 BKN070 06/04 A2985 RMK AO2 SLP063 T00560044 $,M
VGT,2025-05-05 10:53,-115.1933,36.2111,667.00,62.00,50.00,64.73,350.00,4.00,T,29.68,1005.70,10.00,M,OVC,M,M,M,9000.00,M,M,M,-RA,M,M,M,M,M,M,62.00,KVGT 051053Z AUTO 35004KT 10SM -RA OVC090 17/10 A2968 RMK AO2 RAB49 SLP057 P0000 T01670100,M
BVU,2025-05-05 10:55,-114.8611,35.9475,671.00,55.40,50.00,81.99,30.00,4.00,0.00,29.68,M,10.00,M,FEW,FEW,M,M,9000.00,12000.00,M,M,M,M,M,M,M,M,M,55.40,KBVU 051055Z AUTO 03004KT 10SM FEW090 FEW120 13/10 A2968 RMK AO2,M
RNO,2025-05-05 10:55,-119.7711,39.4839,1341.00,49.00,23.00,35.69,20.00,9.00,0.00,30.00,1013.60,10.00,14.00,BKN,OVC,M,M,6000.00,7500.00,M,M,M,M,M,M,M,M,M,44.65,KRNO 051055Z 02009G14KT 10SM BKN060 OVC075 09/M05 A3000 RMK AO2 SLP136 T00941050 $,M
BAM,2025-05-05 10:55,-116.8743,40.5990,1382.36,42.80,32.00,65.38,310.00,11.00,0.00,29.98,M,10.00,19.00,OVC,M,M,M,9000.00,M,M,M,M,M,M,M,M,M,M,36.11,KBAM 051055Z AUTO 31011G19KT 10SM OVC090 06/00 A2998 RMK AO1,M
CXP,2025-05-05 10:55,-119.7326,39.1923,1431.00,48.20,24.80,39.66,350.00,14.00,0.00,30.00,M,10.00,M,SCT,OVC,M,M,5500.00,6500.00,M,M,M,M,M,M,M,M,M,42.04,KCXP 051055Z AUTO 35014KT 10SM SCT055 OVC065 09/M04 A3000 RMK AO2,M
RTS,2025-05-05 10:55,-119.8764,39.6682,1539.00,41.00,21.20,44.85,360.00,6.00,0.00,30.02,M,10.00,M,M,M,M,M,M,M,M,M,M,M,M,M,M,M,M,36.37,KRTS 051055Z AUTO 36006KT 10SM 05/M06 A3002 RMK AO2,M
MEV,2025-05-05 10:55,-119.7500,38.9963,1441.42,48.20,35.60,61.52,350.00,9.00,0.00,29.98,M,10.00,M,OVC,M,M,M,5000.00,M,M,M,M,M,M,M,M,M,M,43.66,KMEV 051055Z AUTO 35009KT 10SM OVC050 09/02 A2998 RMK AO2,M
HTH,2025-05-05 10:55,-118.6315,38.5448,1282.89,50.00,39.20,66.27,350.00,11.00,0.00,29.95,M,10.00,M,OVC,M,M,M,6500.00,M,M,M,M,M,M,M,M,M,M,50.00,KHTH 051055Z AUTO 35011KT 10SM OVC065 10/04 A2995 RMK A01,M
TMT,2025-05-05 10:55,-117.1971,39.4643,1749.34,42.00,37.20,82.95,0.00,0.00,0.00,29.96,M,10.00,M,OVC,M,M,M,3300.00,M,M,M,M,M,M,M,M,M,M,42.00,KTMT 051055Z AUTO 00000KT 10SM OVC033 06/03 A2996 RMK AO2 T00550029,M
10U,2025-05-05 10:55,-116.1876,41.9532,1637.00,32.00,30.20,92.97,320.00,5.00,0.00,30.01,M,10.00,M,CLR,M,M,M,M,M,M,M,M,M,M,M,M,M,M,26.40,K10U 051055Z AUTO 32005KT 10SM CLR M00/M01 A3001 RMK AO2,M
INS,2025-05-05 10:55,-115.6733,36.5872,955.00,55.20,45.70,70.28,0.00,0.00,0.00,29.72,1003.60,10.00,M,FEW,OVC,M,M,6500.00,8500.00,M,M,M,M,M,M,M,M,M,55.20,KINS 051055Z AUTO 00000KT 10SM FEW065 OVC085 13/08 A2972 RMK AO2 SLP036 T01290076 $,M
LSV,2025-05-05 10:55,-115.0343,36.2362,570.00,60.80,51.60,71.67,50.00,3.00,0.00,29.65,1002.80,10.00,M,BKN,M,M,M,9500.00,M,M,M,M,M,M,M,M,M,M,60.80,KLSV 051055Z 05003KT 10SM BKN095 16/11 A2965 RMK AO2A SLP028 T01600109 $,M
EKO,2025-05-05 10:56,-115.7860,40.8242,1367.00,46.00,30.00,53.37,M,5.00,0.00,29.91,1010.80,10.00,M,OVC,M,M,M,9000.00,M,M,M,M,M,M,M,M,M,M,43.02,KEKO 051056Z AUTO VRB05KT 10SM OVC090 08/M01 A2991 RMK AO2 SLP108 T00781011,M
WMC,2025-05-05 10:56,-117.8072,40.9019,1315.00,38.00,28.00,66.94,350.00,10.00,0.00,30.00,1015.40,10.00,M,CLR,M,M,M,M,M,M,M,M,M,M,M,M,M,M,30.49,KWMC 051056Z AUTO 35010KT 10SM CLR 03/M02 A3000 RMK AO2 SLP154 T00331022,M
HND,2025-05-05 10:56,-115.1344,35.9729,742.79,57.00,51.00,80.31,170.00,4.00,0.00,29.71,1006.60,10.00,M,OVC,M,M,M,10000.00,M,M,M,M,M,M,M,M,M,M,57.00,KHND 051056Z AUTO 17004KT 10SM OVC100 14/11 A2971 RMK AO2 SLP066 T01390106 $,M
TPH,2025-05-05 10:56,-117.0904,38.0505,1654.00,49.00,38.00,65.63,340.00,19.00,0.00,29.85,1007.20,10.00,M,OVC,M,M,M,6000.00,M,M,M,M,M,M,M,26.00,350.00,2025-05-05 10:27,41.92,KTPH 051056Z AUTO 34019KT 10SM OVC060 09/03 A2985 RMK AO2 PK WND 35026/1027 SLP072 T00940033 $,M
LAS,2025-05-05 10:56,-115.1634,36.0719,663.00,61.00,50.00,67.06,0.00,0.00,0.00,29.72,1005.00,10.00,M,OVC,M,M,M,9500.00,M,M,M,M,M,M,M,M,M,M,61.00,KLAS 051056Z 00000KT 10SM OVC095 16/10 A2972 RMK AO2 SLP050 T01610100 $,M
NFL,2025-05-05 10:57,-118.7010,39.4166,1199.00,50.00,32.00,49.81,360.00,16.00,0.00,29.95,1011.60,6.00,24.00,OVC,M,M,M,8500.00,M,M,M,HZ,M,M,M,26.00,350.00,2025-05-05 10:29,50.00,KNFL 051057Z AUTO 36016G24KT 6SM HZ OVC085 10/00 A2995 RMK AO2 PK WND 35026/1029 SLP116 T01000000,M
BVU,2025-05-05 11:15,-114.8611,35.9475,671.00,55.40,50.00,81.99,60.00,3.00,0.00,29.68,M,10.00,M,SCT,BKN,BKN,M,7000.00,9000.00,12000.00,M,M,M,M,M,M,M,M,55.40,KBVU 051115Z AUTO 06003KT 10SM SCT070 BKN090 BKN120 13/10 A2968 RMK AO2,M
BAM,2025-05-05 11:15,-116.8743,40.5990,1382.36,42.80,32.00,65.38,310.00,13.00,0.00,29.99,M,10.00,19.00,SCT,M,M,M,10000.00,M,M,M,M,M,M,M,M,M,M,35.40,KBAM 051115Z AUTO 31013G19KT 10SM SCT100 06/00 A2999 RMK AO1,M
CXP,2025-05-05 11:15,-119.7326,39.1923,1431.00,48.20,26.60,42.73,350.00,9.00,0.00,30.00,M,10.00,16.00,BKN,OVC,M,M,5500.00,7000.00,M,M,M,M,M,M,M,M,M,43.66,KCXP 051115Z AUTO 35009G16KT 10SM BKN055 OVC070 09/M03 A3000 RMK AO2,M
RTS,2025-05-05 11:15,-119.8764,39.6682,1539.00,37.40,21.20,51.61,300.00,4.00,0.00,30.03,M,10.00,M,M,M,M,M,M,M,M,M,M,M,M,M,M,M,M,33.73,KRTS 051115Z AUTO 30004KT 10SM 03/M06 A3003 RMK AO2,M
MEV,2025-05-05 11:15,-119.7500,38.9963,1441.42,48.20,32.00,53.27,350.00,11.00,0.00,29.98,M,10.00,M,OVC,M,M,M,5000.00,M,M,M,M,M,M,M,M,M,M,42.94,KMEV 051115Z AUTO 35011KT 10SM OVC050 09/M00 A2998 RMK AO2,M
HTH,2025-05-05 11:15,-118.6315,38.5448,1282.89,50.00,39.20,66.27,350.00,9.00,0.00,29.95,M,10.00,14.00,FEW,BKN,OVC,M,6000.00,7000.00,8000.00,M,M,M,M,M,M,M,M,50.00,KHTH 051115Z AUTO 35009G14KT 10SM FEW060 BKN070 OVC080 10/04 A2995 RMK A01,M
TMT,2025-05-05 11:15,-117.1971,39.4643,1749.34,41.00,37.00,85.54,0.00,0.00,0.00,29.96,M,10.00,M,BKN,OVC,M,M,3300.00,4000.00,M,M,M,M,M,M,M,M,M,41.00,KTMT 051115Z AUTO 00000KT 10SM BKN033 OVC040 05/03 A2996 RMK AO2 T00500028,M
10U,2025-05-05 11:15,-116.1876,41.9532,1637.00,32.00,28.40,86.39,320.00,4.00,0.00,30.01,M,10.00,M,CLR,M,M,M,M,M,M,M,M,M,M,M,M,M,M,27.42,K10U 051115Z AUTO 32004KT 10SM CLR 00/M02 A3001 RMK AO2,M
LSV,2025-05-05 11:26,-115.0343,36.2362,570.00,60.80,51.80,72.20,30.00,3.00,0.00,29.64,1002.50,10.00,M,SCT,BKN,M,M,6500.00,8500.00,M,M,-DZ,M,M,M,M,M,M,60.80,KLSV 051126Z 03003KT 10SM -DZ SCT065 BKN085 16/11 A2964 RMK AO2A DZB26 SLP025 $,M
10U,2025-05-05 11:30,-116.1876,41.9532,1637.00,32.00,28.40,86.39,330.00,5.00,0.00,30.01,M,10.00,M,CLR,M,M,M,M,M,M,M,M,M,M,M,M,M,M,26.40,K10U 051130Z AUTO 33005KT 10SM CLR M00/M02 A3001 RMK AO2,M
BVU,2025-05-05 11:35,-114.8611,35.9475,671.00,57.20,50.00,76.82,0.00,0.00,0.00,29.68,M,10.00,M,BKN,OVC,M,M,7000.00,8500.00,M,M,M,M,M,M,M,M,M,57.20,KBVU 051135Z AUTO 00000KT 10SM BKN070 OVC085 14/10 A2968 RMK AO2,M
BAM,2025-05-05 11:35,-116.8743,40.5990,1382.36,42.80,32.00,65.38,310.00,11.00,0.00,29.99,M,10.00,20.00,CLR,M,M,M,M,M,M,M,M,M,M,M,M,M,M,36.11,KBAM 051135Z AUTO 31011G20KT 10SM CLR 06/00 A2999 RMK AO1,M
CXP,2025-05-05 11:35,-119.7326,39.1923,1431.00,48.20,26.60,42.73,M,5.00,0.00,30.00,M,10.00,M,SCT,OVC,M,M,5000.00,7000.00,M,M,M,M,M,M,M,M,M,45.63,KCXP 051135Z AUTO VRB05KT 10SM SCT050 OVC070 09/M03 A3000 RMK AO2,M
RTS,2025-05-05 11:35,-119.8764,39.6682,1539.00,39.20,19.40,44.55,350.00,10.00,0.00,30.03,M,10.00,M,SCT,M,M,M,6500.00,M,M,M,M,M,M,M,M,M,M,32.00,KRTS 051135Z AUTO 35010KT 10SM SCT065 04/M07 A3003 RMK AO2,M
MEV,2025-05-05 11:35,-119.7500,38.9963,1441.42,48.20,28.40,46.02,350.00,10.00,0.00,29.99,M,10.00,15.00,BKN,OVC,M,M,5000.00,6500.00,M,M,M,M,M,M,M,M,M,43.28,KMEV 051135Z AUTO 35010G15KT 10SM BKN050 OVC065 09/M02 A2999 RMK AO2,M
HTH,2025-05-05 11:35,-118.6315,38.5448,1282.89,50.00,39.20,66.27,340.00,11.00,0.00,29.95,M,10.00,M,BKN,OVC,M,M,6500.00,7500.00,M,M,M,M,M,M,M,M,M,50.00,KHTH 051135Z AUTO 34011KT 10SM BKN065 OVC075 10/04 A2995 RMK A01,M
TMT,2025-05-05 11:35,-117.1971,39.4643,1749.34,41.00,37.00,85.54,20.00,4.00,0.00,29.96,M,10.00,M,SCT,OVC,M,M,3500.00,4000.00,M,M,M,M,M,M,M,M,M,37.93,KTMT 051135Z AUTO 02004KT 10SM SCT035 OVC040 05/03 A2996 RMK AO2 T00500028,M
MEV,2025-05-05 11:45,-119.7500,38.9963,1441.42,46.40,28.40,49.24,360.00,8.00,0.00,29.99,M,10.00,M,BKN,OVC,M,M,5500.00,7000.00,M,M,M,M,M,M,M,M,M,41.85,KMEV 051145Z AUTO 36008KT 10SM BKN055 OVC070 08/M02 A2999 RMK AO2,M
RTS,2025-05-05 11:45,-119.8764,39.6682,1539.00,39.20,19.40,44.55,350.00,10.00,0.00,30.04,M,10.00,M,M,M,M,M,M,M,M,M,M,M,M,M,M,M,M,32.00,KRTS 051145Z AUTO 35010KT 10SM 04/M07 A3004 RMK AO2,M
LSV,2025-05-05 11:50,-115.0343,36.2362,570.00,60.80,53.60,77.14,80.00,4.00,0.00,29.64,1002.50,10.00,M,SCT,BKN,M,M,6000.00,8000.00,M,M,M,M,M,M,M,M,M,60.80,KLSV 051150Z 08004KT 10SM SCT060 BKN080 16/12 A2964 RMK AO2A DZE1055DZB26E50 SLP025 $,M
ELY,2025-05-05 11:51,-114.8453,39.2950,1909.00,42.80,39.20,86.99,340.00,11.00,T,29.84,M,10.00,M,FEW,BKN,OVC,M,800.00,2700.00,4600.00,M,M,M,M,M,M,M,M,36.11,KELY 051151Z AUTO 34011KT 10SM FEW008 BKN027 OVC046 06/04 A2984 RMK AO2 RAB14E28 P0000 $,M
P68,2025-05-05 11:53,-116.0056,39.6014,1993.00,42.00,40.00,92.55,10.00,3.00,0.00,29.91,1009.30,M,M,M,M,M,M,M,M,M,M,M,M,M,M,M,M,M,40.12,KP68 051153Z AUTO 01003KT 06/04 A2991 RMK AO1 SLP093 60002 70004 T00560044 10067 20056 51006 $,M
DRA,2025-05-05 11:53,-116.0278,36.6206,1009.00,58.00,41.00,53.05,20.00,6.00,0.00,29.71,1002.70,10.00,M,OVC,M,M,M,7000.00,M,M,M,M,M,M,M,M,M,M,58.00,KDRA 051153Z AUTO 02006KT 10SM OVC070 14/05 A2971 RMK AO2 SLP027 T01440050 10156 20133 50002,M
ELY,2025-05-05 11:53,-114.8453,39.2950,1909.00,42.00,40.00,92.55,350.00,11.00,T,29.84,1005.70,10.00,M,FEW,BKN,OVC,M,800.00,2500.00,4000.00,M,M,M,M,M,M,M,M,35.10,KELY 051153Z AUTO 35011KT 10SM FEW008 BKN025 OVC040 06/04 A2984 RMK AO2 RAB14E28 SLP057 P0000 60000 70018 T00560044 10067 20056 56002 $,M
VGT,2025-05-05 11:53,-115.1933,36.2111,667.00,61.00,51.00,69.60,300.00,5.00,T,29.68,1005.50,10.00,M,FEW,BKN,OVC,M,5500.00,9000.00,11000.00,M,M,M,M,M,M,M,M,61.00,KVGT 051153Z AUTO 30005KT 10SM FEW055 BKN090 OVC110 16/11 A2968 RMK AO2 RAE08B38E46 SLP055 P0000 60000 70005 T01610106 10172 20156 50001,M
LSV,2025-05-05 11:53,-115.0343,36.2362,570.00,60.80,53.60,77.14,80.00,4.00,0.00,29.64,1002.50,10.00,M,SCT,BKN,M,M,6000.00,8000.00,M,M,-DZ,M,M,M,M,M,M,60.80,KLSV 051153Z 08004KT 10SM -DZ SCT060 BKN080 16/12 A2964 RMK AO2A DZE1055DZB26E50DZB53 SLP025 $,M
BAM,2025-05-05 11:55,-116.8743,40.5990,1382.36,41.00,32.00,70.08,320.00,12.00,0.00,29.99,M,10.00,18.00,CLR,M,M,M,M,M,M,M,M,M,M,M,M,M,M,33.46,KBAM 051155Z AUTO 32012G18KT 10SM CLR 05/00 A2999 RMK AO1,M
BVU,2025-05-05 11:55,-114.8611,35.9475,671.00,55.40,50.00,81.99,0.00,0.00,0.00,29.68,M,10.00,M,SCT,OVC,M,M,7000.00,8000.00,M,M,M,M,M,M,M,M,M,55.40,KBVU 051155Z AUTO 00000KT 10SM SCT070 OVC080 13/10 A2968 RMK AO2,M
RNO,2025-05-05 11:55,-119.7711,39.4839,1341.00,47.00,23.00,38.48,350.00,14.00,0.00,30.01,1014.10,10.00,M,BKN,BKN,M,M,6000.00,7500.00,M,M,M,M,M,M,M,M,M,40.50,KRNO 051155Z 35014KT 10SM BKN060 BKN075 08/M05 A3001 RMK AO2 SLP141 70014 T00831050 10106 20083 51009 $,M
LSV,2025-05-05 11:55,-115.0343,36.2362,570.00,60.30,53.80,79.10,80.00,4.00,T,29.64,1002.50,10.00,M,SCT,BKN,M,M,6000.00,8000.00,M,M,-DZ,M,M,M,M,M,M,60.30,KLSV 051155Z 08004KT 10SM -DZ SCT060 BKN080 16/12 A2964 RMK AO2A DZB26E50DZB53 SLP025 P0000 60000 70006 T01570121 10176 20157 50002 $,M
CXP,2025-05-05 11:55,-119.7326,39.1923,1431.00,48.20,28.40,46.02,340.00,9.00,0.00,30.01,M,10.00,M,OVC,M,M,M,7000.00,M,M,M,M,M,M,M,M,M,M,43.66,KCXP 051155Z AUTO 34009KT 10SM OVC070 09/M02 A3001 RMK AO2,M
HTH,2025-05-05 11:55,-118.6315,38.5448,1282.89,50.00,37.40,61.76,350.00,14.00,0.00,29.96,M,10.00,M,BKN,OVC,M,M,4900.00,6500.00,M,M,M,M,M,M,M,M,M,50.00,KHTH 051155Z AUTO 35014KT 10SM BKN049 OVC065 10/03 A2996 RMK A01,M
TMT,2025-05-05 11:55,-117.1971,39.4643,1749.34,41.00,37.00,85.54,360.00,5.00,0.00,29.96,M,10.00,M,OVC,M,M,M,4200.00,M,M,M,M,M,M,M,M,M,M,37.08,KTMT 051155Z AUTO 36005KT 10SM OVC042 05/03 A2996 RMK AO2 T00510028 10059 20050,M
10U,2025-05-05 11:55,-116.1876,41.9532,1637.00,30.20,28.40,92.92,0.00,0.00,0.00,30.02,M,10.00,M,CLR,M,M,M,M,M,M,M,M,M,M,M,M,M,M,30.20,K10U 051155Z AUTO 00000KT 10SM CLR M01/M02 A3002 RMK AO2,M
INS,2025-05-05 11:55,-115.6733,36.5872,955.00,57.70,46.40,65.93,0.00,0.00,0.00,29.71,1003.10,10.00,M,FEW,BKN,OVC,M,7500.00,9500.00,12000.00,M,M,M,M,M,M,M,M,57.70,KINS 051155Z AUTO 00000KT 10SM FEW075 BKN095 OVC120 14/08 A2971 RMK AO2 SLP031 70006 T01430080 10153 20123 50000 $,M
EKO,2025-05-05 11:56,-115.7860,40.8242,1367.00,45.00,30.00,55.43,350.00,11.00,0.00,29.91,1011.10,10.00,M,OVC,M,M,M,9500.00,M,M,M,M,M,M,M,M,M,M,38.89,KEKO 051156Z AUTO 35011KT 10SM OVC095 07/M01 A2991 RMK AO2 SLP111 70021 T00721011 10094 20072 51006,M
WMC,2025-05-05 11:56,-117.8072,40.9019,1315.00,36.00,27.00,69.51,330.00,9.00,0.00,30.01,1015.60,10.00,M,CLR,M,M,M,M,M,M,M,M,M,M,M,M,M,M,28.49,KWMC 051156Z AUTO 33009KT 10SM CLR 02/M03 A3001 RMK AO2 SLP156 70007 T00221028 10094 20022 51010,M
HND,2025-05-05 11:56,-115.1344,35.9729,742.79,57.00,51.00,80.31,200.00,3.00,T,29.71,1006.50,10.00,M,FEW,OVC,M,M,7000.00,9000.00,M,M,M,M,M,M,M,M,M,57.00,KHND 051156Z AUTO 20003KT 10SM FEW070 OVC090 14/11 A2971 RMK AO2 RAB03E16 SLP065 P0000 60000 70014 T01390106 10161 20139 51004 $,M
TPH,2025-05-05 11:56,-117.0904,38.0505,1654.00,49.00,37.00,63.10,330.00,16.00,T,29.85,1007.30,10.00,M,OVC,M,M,M,5500.00,M,M,M,M,M,M,M,26.00,350.00,2025-05-05 11:14,42.58,KTPH 051156Z AUTO 33016KT 10SM OVC055 09/03 A2985 RMK AO2 PK WND 35026/1114 RAB26E46 SLP073 P0000 60000 T00940028 10094 20089 52003 $,M
LAS,2025-05-05 11:56,-115.1634,36.0719,663.00,61.00,50.00,67.06,0.00,0.00,T,29.72,1005.00,10.00,M,FEW,OVC,M,M,8000.00,10000.00,M,M,M,M,M,M,M,M,M,61.00,KLAS 051156Z 00000KT 10SM FEW080 OVC100 16/10 A2972 RMK AO2 RAB1057E06 SLP050 VIRGA DSNT NE AND SW P0000 60000 70018 T01610100 10172 20161 51005 $,M
LSV,2025-05-05 11:56,-115.0343,36.2362,570.00,60.80,53.60,77.14,80.00,4.00,0.00,29.64,1002.50,10.00,M,SCT,BKN,M,M,6000.00,8000.00,M,M,M,M,M,M,M,M,M,60.80,KLSV 051156Z 08004KT 10SM SCT060 BKN080 16/12 A2964 RMK AO2A DZE55 SLP025 $,M
NFL,2025-05-05 11:57,-118.7010,39.4166,1199.00,47.00,30.00,51.39,350.00,14.00,0.00,29.96,1011.60,4.00,27.00,OVC,M,M,M,8000.00,M,M,M,HZ,M,M,M,31.00,360.00,2025-05-05 11:36,40.50,KNFL 051157Z AUTO 35014G27KT 4SM HZ OVC080 08/M01 A2996 RMK AO2 PK WND 36031/1136 SLP116 70009 T00831011 10111 20083 53006,M
RTS,2025-05-05 12:05,-119.8764,39.6682,1539.00,39.20,19.40,44.55,350.00,11.00,0.00,30.04,M,10.00,M,M,M,M,M,M,M,M,M,M,M,M,M,M,M,M,31.57,KRTS 051205Z AUTO 35011KT 10SM 04/M07 A3004 RMK AO2,M
LSV,2025-05-05 12:09,-115.0343,36.2362,570.00,60.80,53.60,77.14,60.00,3.00,0.00,29.65,1002.80,10.00,M,SCT,BKN,M,M,6000.00,8000.00,M,M,-DZ,M,M,M,M,M,M,60.80,KLSV 051209Z 06003KT 10SM -DZ SCT060 BKN080 16/12 A2965 RMK AO2A DZB1155E1155DZB09 SLP028 $,M
ELY,2025-05-05 12:12,-114.8453,39.2950,1909.00,41.00,39.00,92.52,340.00,11.00,0.00,29.84,M,10.00,M,FEW,SCT,OVC,M,800.00,1800.00,6500.00,M,M,M,M,M,M,M,M,33.84,KELY 051212Z AUTO 34011KT 10SM FEW008 SCT018 OVC065 05/04 A2984 RMK AO2 T00500039 $,M
BVU,2025-05-05 12:15,-114.8611,35.9475,671.00,55.40,51.80,87.65,360.00,4.00,0.00,29.68,M,10.00,M,BKN,M,M,M,7500.00,M,M,M,M,M,M,M,M,M,M,55.40,KBVU 051215Z AUTO 36004KT 10SM BKN075 13/11 A2968 RMK AO2,M
BAM,2025-05-05 12:15,-116.8743,40.5990,1382.36,41.00,32.00,70.08,320.00,13.00,0.00,29.99,M,10.00,17.00,SCT,M,M,M,9500.00,M,M,M,M,M,M,M,M,M,M,33.10,KBAM 051215Z AUTO 32013G17KT 10SM SCT095 05/00 A2999 RMK AO1,M
CXP,2025-05-05 12:15,-119.7326,39.1923,1431.00,46.40,26.60,45.73,330.00,10.00,0.00,30.01,M,10.00,M,BKN,OVC,M,M,5500.00,7000.00,M,M,M,M,M,M,M,M,M,41.03,KCXP 051215Z AUTO 33010KT 10SM BKN055 OVC070 08/M03 A3001 RMK AO2,M
MEV,2025-05-05 12:15,-119.7500,38.9963,1441.42,46.40,30.20,53.00,350.00,5.00,0.00,29.99,M,10.00,M,FEW,OVC,M,M,5500.00,7000.00,M,M,M,M,M,M,M,M,M,43.50,KMEV 051215Z AUTO 35005KT 10SM FEW055 OVC070 08/M01 A2999 RMK AO2,M
HTH,2025-05-05 12:15,-118.6315,38.5448,1282.89,50.00,35.60,57.52,350.00,16.00,0.00,29.96,M,10.00,21.00,BKN,OVC,M,M,5000.00,6000.00,M,M,M,M,M,M,M,M,M,50.00,KHTH 051215Z AUTO 35016G21KT 10SM BKN050 OVC060 10/02 A2996 RMK A01,M
TMT,2025-05-05 12:15,-117.1971,39.4643,1749.34,41.00,37.40,86.89,0.00,0.00,0.00,29.97,M,10.00,M,OVC,M,M,M,4200.00,M,M,M,M,M,M,M,M,M,M,41.00,KTMT 051215Z AUTO 00000KT 10SM OVC042 05/03 A2997 RMK AO2 T00500030,M
10U,2025-05-05 12:15,-116.1876,41.9532,1637.00,30.20,28.40,92.92,10.00,3.00,0.00,30.03,M,10.00,M,CLR,M,M,M,M,M,M,M,M,M,M,M,M,M,M,26.63,K10U 051215Z AUTO 01003KT 10SM CLR M01/M02 A3003 RMK AO2,M
LSV,2025-05-05 12:24,-115.0343,36.2362,570.00,60.80,53.60,77.14,0.00,0.00,0.00,29.65,1002.70,10.00,M,SCT,BKN,M,M,6000.00,8000.00,M,M,M,M,M,M,M,M,M,60.80,KLSV 051224Z 00000KT 10SM SCT060 BKN080 16/12 A2965 RMK AO2A DZE1155DZB09E12RAB12E24 SLP027 $,M
RTS,2025-05-05 12:25,-119.8764,39.6682,1539.00,39.20,17.60,41.24,340.00,12.00,0.00,30.04,M,10.00,M,CLR,M,M,M,M,M,M,M,M,M,M,M,M,M,M,31.17,KRTS 051225Z AUTO 34012KT 10SM CLR 04/M08 A3004 RMK AO2,M
MEV,2025-05-05 12:25,-119.7500,38.9963,1441.42,46.40,30.20,53.00,350.00,7.00,0.00,29.99,M,10.00,M,FEW,OVC,M,M,5500.00,7000.00,M,M,M,M,M,M,M,M,M,42.33,KMEV 051225Z AUTO 35007KT 10SM FEW055 OVC070 08/M01 A2999 RMK AO2,M
BVU,2025-05-05 12:35,-114.8611,35.9475,671.00,57.20,50.00,76.82,0.00,0.00,0.00,29.69,M,10.00,M,OVC,M,M,M,7000.00,M,M,M,M,M,M,M,M,M,M,57.20,KBVU 051235Z AUTO 00000KT 10SM OVC070 14/10 A2969 RMK AO2,M
BAM,2025-05-05 12:35,-116.8743,40.5990,1382.36,41.00,32.00,70.08,320.00,13.00,0.00,29.99,M,10.00,M,CLR,M,M,M,M,M,M,M,M,M,M,M,M,M,M,33.10,KBAM 051235Z AUTO 32013KT 10SM CLR 05/00 A2999 RMK AO1,M
CXP,2025-05-05 12:35,-119.7326,39.1923,1431.00,46.40,24.80,42.44,350.00,10.00,0.00,30.02,M,10.00,M,OVC,M,M,M,5500.00,M,M,M,M,M,M,M,M,M,M,41.03,KCXP 051235Z AUTO 35010KT 10SM OVC055 08/M04 A3002 RMK AO2,M
HTH,2025-05-05 12:35,-118.6315,38.5448,1282.89,50.00,33.80,53.54,340.00,16.00,0.00,29.97,M,10.00,26.00,BKN,OVC,M,M,5000.00,5500.00,M,M,M,M,M,M,M,M,M,50.00,KHTH 051235Z AUTO 34016G26KT 10SM BKN050 OVC055 10/01 A2997 RMK A01,M
TMT,2025-05-05 12:35,-117.1971,39.4643,1749.34,40.50,37.00,87.21,320.00,4.00,0.00,29.97,M,10.00,M,SCT,OVC,M,M,2900.00,4400.00,M,M,M,M,M,M,M,M,M,37.35,KTMT 051235Z AUTO 32004KT 10SM SCT029 OVC044 05/03 A2997 RMK AO2 T00470028,M
10U,2025-05-05 12:35,-116.1876,41.9532,1637.00,30.20,26.60,86.28,0.00,0.00,0.00,30.03,M,10.00,M,CLR,M,M,M,M,M,M,M,M,M,M,M,M,M,M,30.20,K10U 051235Z AUTO 00000KT 10SM CLR M01/M03 A3003 RMK AO2,M
P68,2025-05-05 12:53,-116.0056,39.6014,1993.00,41.00,38.00,88.97,320.00,6.00,0.00,29.92,1009.90,M,M,M,M,M,M,M,M,M,M,M,M,M,M,M,M,M,36.37,KP68 051253Z AUTO 32006KT 05/03 A2992 RMK AO1 SLP099 T00500033 $,M
DRA,2025-05-05 12:53,-116.0278,36.6206,1009.00,56.00,41.00,57.02,20.00,4.00,0.00,29.72,1003.30,10.00,M,SCT,M,M,M,12000.00,M,M,M,M,M,M,M,M,M,M,56.00,KDRA 051253Z AUTO 02004KT 10SM SCT120 13/05 A2972 RMK AO2 SLP033 T01330050,M
ELY,2025-05-05 12:53,-114.8453,39.2950,1909.00,42.00,39.00,89.01,10.00,15.00,0.00,29.85,1006.50,10.00,M,FEW,OVC,M,M,2400.00,6000.00,M,M,M,M,M,M,M,M,M,33.74,KELY 051253Z AUTO 01015KT 10SM FEW024 OVC060 06/04 A2985 RMK AO2 SLP065 T00560039 $,M
VGT,2025-05-05 12:53,-115.1933,36.2111,667.00,61.00,51.00,69.60,0.00,0.00,T,29.69,1005.90,10.00,M,FEW,OVC,M,M,7000.00,11000.00,M,M,M,M,M,M,M,M,M,61.00,KVGT 051253Z 00000KT 10SM FEW070 OVC110 16/11 A2969 RMK AO2 RAB16E26 SLP059 P0000 T01610106,M
BVU,2025-05-05 12:55,-114.8611,35.9475,671.00,57.20,48.20,71.83,0.00,0.00,0.00,29.69,M,10.00,M,BKN,OVC,M,M,7000.00,8000.00,M,M,M,M,M,M,M,M,M,57.20,KBVU 051255Z AUTO 00000KT 10SM BKN070 OVC080 14/09 A2969 RMK AO2,M
RNO,2025-05-05 12:55,-119.7711,39.4839,1341.00,44.00,23.00,43.11,340.00,8.00,0.00,30.03,1014.90,10.00,M,SCT,M,M,M,7500.00,M,M,M,M,M,M,M,M,M,M,38.90,KRNO 051255Z 34008KT 10SM SCT075 07/M05 A3003 RMK AO2 SLP149 T00671050 $,M
BAM,2025-05-05 12:55,-116.8743,40.5990,1382.36,39.20,30.20,69.88,330.00,11.00,0.00,30.00,M,10.00,M,CLR,M,M,M,M,M,M,M,M,M,M,M,M,M,M,31.57,KBAM 051255Z AUTO 33011KT 10SM CLR 04/M01 A3000 RMK AO1,M
HTH,2025-05-05 12:55,-118.6315,38.5448,1282.89,50.00,33.80,53.54,340.00,18.00,0.00,29.97,M,10.00,25.00,BKN,OVC,M,M,5000.00,6000.00,M,M,M,M,M,M,M,M,M,50.00,KHTH 051255Z AUTO 34018G25KT 10SM BKN050 OVC060 10/01 A2997 RMK A01,M
TMT,2025-05-05 12:55,-117.1971,39.4643,1749.34,40.50,36.50,85.51,360.00,5.00,0.00,29.98,M,10.00,M,SCT,OVC,M,M,2700.00,4600.00,M,M,M,M,M,M,M,M,M,36.49,KTMT 051255Z AUTO 36005KT 10SM SCT027 OVC046 05/03 A2998 RMK AO2 T00470025,M
10U,2025-05-05 12:55,-116.1876,41.9532,1637.00,28.40,26.60,92.86,0.00,0.00,0.00,30.03,M,10.00,M,CLR,M,M,M,M,M,M,M,M,M,M,M,M,M,M,28.40,K10U 051255Z AUTO 00000KT 10SM CLR M02/M03 A3003 RMK AO2,M
CXP,2025-05-05 12:55,-119.7326,39.1923,1431.00,46.40,24.80,42.44,350.00,11.00,0.00,30.02,M,10.00,M,OVC,M,M,M,5500.00,M,M,M,M,M,M,M,M,M,M,40.66,KCXP 051255Z AUTO 35011KT 10SM OVC055 08/M04 A3002 RMK AO2,M
RTS,2025-05-05 12:55,-119.8764,39.6682,1539.00,37.40,17.60,44.25,360.00,12.00,0.00,30.05,M,10.00,M,CLR,M,M,M,M,M,M,M,M,M,M,M,M,M,M,28.87,KRTS 051255Z AUTO 36012KT 10SM CLR 03/M08 A3005 RMK AO2,M
MEV,2025-05-05 12:55,-119.7500,38.9963,1441.42,46.40,28.40,49.24,340.00,9.00,0.00,30.00,M,10.00,14.00,BKN,OVC,M,M,5000.00,7000.00,M,M,M,M,M,M,M,M,M,41.42,KMEV 051255Z AUTO 34009G14KT 10SM BKN050 OVC070 08/M02 A3000 RMK AO2,M
INS,2025-05-05 12:55,-115.6733,36.5872,955.00,55.40,46.00,70.57,0.00,0.00,0.00,29.72,1003.60,10.00,M,SCT,OVC,M,M,9000.00,11000.00,M,M,M,M,M,M,M,M,M,55.40,KINS 051255Z AUTO 00000KT 10SM SCT090 OVC110 13/08 A2972 RMK AO2 SLP036 T01300077 $,M
LSV,2025-05-05 12:55,-115.0343,36.2362,570.00,60.40,54.00,79.40,0.00,0.00,T,29.66,1003.00,10.00,M,SCT,BKN,M,M,8000.00,10000.00,M,M,M,M,M,M,M,M,M,60.40,KLSV 051255Z 00000KT 10SM SCT080 BKN100 16/12 A2966 RMK AO2A DZB1155E1155DZB09E12RAB12E24 SLP030 P0000 T01580123 $,M
EKO,2025-05-05 12:56,-115.7860,40.8242,1367.00,44.00,28.00,53.07,350.00,10.00,0.00,29.92,1011.60,10.00,M,OVC,M,M,M,10000.00,M,M,M,M,M,M,M,M,M,M,38.02,KEKO 051256Z AUTO 35010KT 10SM OVC100 07/M02 A2992 RMK AO2 SLP116 T00671022,M
WMC,2025-05-05 12:56,-117.8072,40.9019,1315.00,36.00,26.00,66.69,350.00,12.00,0.00,30.04,1016.50,10.00,21.00,CLR,M,M,M,M,M,M,M,M,M,M,M,M,M,M,27.09,KWMC 051256Z AUTO 35012G21KT 10SM CLR 02/M03 A3004 RMK AO2 SLP165 T00221033 $,M
HND,2025-05-05 12:56,-115.1344,35.9729,742.79,57.00,50.00,77.38,170.00,5.00,0.00,29.73,1007.00,10.00,M,OVC,M,M,M,7500.00,M,M,M,M,M,M,M,M,M,M,57.00,KHND 051256Z AUTO 17005KT 10SM OVC075 14/10 A2973 RMK AO2 SLP070 T01390100 $,M
TPH,2025-05-05 12:56,-117.0904,38.0505,1654.00,48.00,37.00,65.51,340.00,17.00,0.00,29.87,1008.00,10.00,22.00,OVC,M,M,M,6000.00,M,M,M,M,M,M,M,M,M,M,41.04,KTPH 051256Z AUTO 34017G22KT 10SM OVC060 09/03 A2987 RMK AO2 SLP080 T00890028 $,M
LAS,2025-05-05 12:56,-115.1634,36.0719,663.00,61.00,51.00,69.60,280.00,3.00,0.00,29.73,1005.20,10.00,M,BKN,BKN,OVC,M,7500.00,10000.00,20000.00,M,M,M,M,M,M,M,M,61.00,KLAS 051256Z 28003KT 10SM BKN075 BKN100 OVC200 16/11 A2973 RMK AO2 SLP052 T01610106 $,M
NFL,2025-05-05 12:57,-118.7010,39.4166,1199.00,46.00,27.00,47.20,10.00,15.00,0.00,29.99,1012.70,3.00,26.00,BKN,M,M,M,8000.00,M,M,M,HZ,M,M,M,26.00,10.00,2025-05-05 12:39,38.93,KNFL 051257Z AUTO 01015G26KT 3SM HZ BKN080 08/M03 A2999 RMK AO2 PK WND 01026/1239 SLP127 T00781028,M
ELY,2025-05-05 13:10,-114.8453,39.2950,1909.00,42.00,39.00,89.01,360.00,13.00,0.00,29.86,M,10.00,M,BKN,OVC,M,M,2400.00,6000.00,M,M,M,M,M,M,M,M,M,34.38,KELY 051310Z AUTO 36013KT 10SM BKN024 OVC060 06/04 A2986 RMK AO2 T00560039 $,M
BVU,2025-05-05 13:15,-114.8611,35.9475,671.00,57.20,50.00,76.82,0.00,0.00,0.00,29.70,M,10.00,M,BKN,OVC,M,M,5500.00,7000.00,M,M,M,M,M,M,M,M,M,57.20,KBVU 051315Z AUTO 00000KT 10SM BKN055 OVC070 14/10 A2970 RMK AO2,M
BAM,2025-05-05 13:15,-116.8743,40.5990,1382.36,39.20,30.20,69.88,320.00,11.00,0.00,30.01,M,10.00,M,CLR,M,M,M,M,M,M,M,M,M,M,M,M,M,M,31.57,KBAM 051315Z AUTO 32011KT 10SM CLR 04/M01 A3001 RMK AO1,M
CXP,2025-05-05 13:15,-119.7326,39.1923,1431.00,46.40,24.80,42.44,340.00,8.00,0.00,30.03,M,10.00,M,OVC,M,M,M,5500.00,M,M,M,M,M,M,M,M,M,M,41.85,KCXP 051315Z AUTO 34008KT 10SM OVC055 08/M04 A3003 RMK AO2,M
RTS,2025-05-05 13:15,-119.8764,39.6682,1539.00,37.40,17.60,44.25,360.00,12.00,0.00,30.06,M,10.00,M,CLR,M,M,M,M,M,M,M,M,M,M,M,M,M,M,28.87,KRTS 051315Z AUTO 36012KT 10SM CLR 03/M08 A3006 RMK AO2,M
MEV,2025-05-05 13:15,-119.7500,38.9963,1441.42,46.40,26.60,45.73,360.00,13.00,0.00,30.01,M,10.00,M,BKN,OVC,M,M,5000.00,6000.00,M,M,M,M,M,M,M,M,M,40.02,KMEV 051315Z AUTO 36013KT 10SM BKN050 OVC060 08/M03 A3001 RMK AO2,M
HTH,2025-05-05 13:15,-118.6315,38.5448,1282.89,48.20,32.00,53.27,350.00,17.00,0.00,29.98,M,10.00,M,OVC,M,M,M,5000.00,M,M,M,M,M,M,M,M,M,M,41.30,KHTH 051315Z AUTO 35017KT 10SM OVC050 09/00 A2998 RMK A01,M
TMT,2025-05-05 13:15,-117.1971,39.4643,1749.34,40.30,36.50,86.17,20.00,3.00,0.00,29.99,M,10.00,M,OVC,M,M,M,4800.00,M,M,M,M,M,M,M,M,M,M,38.18,KTMT 051315Z AUTO 02003KT 10SM OVC048 05/03 A2999 RMK AO2 T00460025,M
10U,2025-05-05 13:15,-116.1876,41.9532,1637.00,30.20,28.40,92.92,0.00,0.00,0.00,30.04,M,10.00,M,CLR,M,M,M,M,M,M,M,M,M,M,M,M,M,M,30.20,K10U 051315Z AUTO 00000KT 10SM CLR M01/M02 A3004 RMK AO2,M
10U,2025-05-05 13:30,-116.1876,41.9532,1637.00,32.00,28.40,86.39,0.00,0.00,0.00,30.05,M,10.00,M,CLR,M,M,M,M,M,M,M,M,M,M,M,M,M,M,32.00,K10U 051330Z AUTO 00000KT 10SM CLR 00/M02 A3005 RMK AO2,M
NFL,2025-05-05 13:32,-118.7010,39.4166,1199.00,45.00,29.00,53.22,350.00,10.00,0.00,30.02,M,10.00,M,SCT,SCT,M,M,15000.00,20000.00,M,M,M,M,M,M,28.00,360.00,2025-05-05 13:05,39.27,KNFL 051332Z 35010KT 10SM SCT150 SCT200 07/M02 A3002 RMK AO2 PK WND 36028/1305 T00721017,M
BVU,2025-05-05 13:35,-114.8611,35.9475,671.00,57.20,50.00,76.82,80.00,3.00,0.00,29.71,M,10.00,M,OVC,M,M,M,5500.00,M,M,M,M,M,M,M,M,M,M,57.20,KBVU 051335Z AUTO 08003KT 10SM OVC055 14/10 A2971 RMK AO2,M
BAM,2025-05-05 13:35,-116.8743,40.5990,1382.36,39.20,30.20,69.88,320.00,8.00,0.00,30.03,M,10.00,M,CLR,M,M,M,M,M,M,M,M,M,M,M,M,M,M,32.98,KBAM 051335Z AUTO 32008KT 10SM CLR 04/M01 A3003 RMK AO1,M
CXP,2025-05-05 13:35,-119.7326,39.1923,1431.00,46.40,24.80,42.44,360.00,8.00,0.00,30.04,M,10.00,M,OVC,M,M,M,5500.00,M,M,M,M,M,M,M,M,M,M,41.85,KCXP 051335Z AUTO 36008KT 10SM OVC055 08/M04 A3004 RMK AO2,M
RTS,2025-05-05 13:35,-119.8764,39.6682,1539.00,37.40,17.60,44.25,350.00,8.00,0.00,30.07,M,10.00,13.00,CLR,M,M,M,M,M,M,M,M,M,M,M,M,M,M,30.76,KRTS 051335Z AUTO 35008G13KT 10SM CLR 03/M08 A3007 RMK AO2,M
MEV,2025-05-05 13:35,-119.7500,38.9963,1441.42,46.40,26.60,45.73,350.00,11.00,0.00,30.02,M,10.00,M,OVC,M,M,M,5000.00,M,M,M,M,M,M,M,M,M,M,40.66,KMEV 051335Z AUTO 35011KT 10SM OVC050 08/M03 A3002 RMK AO2,M
HTH,2025-05-05 13:35,-118.6315,38.5448,1282.89,48.20,32.00,53.27,360.00,16.00,0.00,29.99,M,10.00,24.00,OVC,M,M,M,5000.00,M,M,M,M,M,M,M,M,M,M,41.53,KHTH 051335Z AUTO 36016G24KT 10SM OVC050 09/M00 A2999 RMK A01,M
TMT,2025-05-05 13:35,-117.1971,39.4643,1749.34,40.00,37.20,89.62,0.00,0.00,0.00,29.99,M,10.00,M,SCT,OVC,M,M,2800.00,4800.00,M,M,M,M,M,M,M,M,M,40.00,KTMT 051335Z AUTO 00000KT 10SM SCT028 OVC048 05/03 A2999 RMK AO2 T00450029,M
ELY,2025-05-05 13:37,-114.8453,39.2950,1909.00,42.00,38.00,85.60,10.00,14.00,0.00,29.87,M,10.00,M,OVC,M,M,M,3000.00,M,M,M,M,M,M,M,M,M,M,34.05,KELY 051337Z AUTO 01014KT 10SM OVC030 06/03 A2987 RMK AO2 T00560033 $,M
MEV,2025-05-05 13:45,-119.7500,38.9963,1441.42,44.60,26.60,48.96,350.00,10.00,0.00,30.02,M,10.00,M,OVC,M,M,M,5500.00,M,M,M,M,M,M,M,M,M,M,38.77,KMEV 051345Z AUTO 35010KT 10SM OVC055 07/M03 A3002 RMK AO2,M
RTS,2025-05-05 13:45,-119.8764,39.6682,1539.00,39.20,17.60,41.24,340.00,8.00,0.00,30.07,M,10.00,M,CLR,M,M,M,M,M,M,M,M,M,M,M,M,M,M,32.98,KRTS 051345Z AUTO 34008KT 10SM CLR 04/M08 A3007 RMK AO2,M
HTH,2025-05-05 13:50,-118.6315,38.5448,1282.89,48.20,32.00,53.27,360.00,21.00,0.00,30.00,M,10.00,M,OVC,M,M,M,4800.00,M,M,M,M,M,M,M,M,M,M,40.46,KHTH 051350Z AUTO 36021KT 10SM OVC048 09/M00 A3000 RMK A01,M
P68,2025-05-05 13:53,-116.0056,39.6014,1993.00,41.00,37.00,85.54,340.00,5.00,0.00,29.94,1010.90,M,M,M,M,M,M,M,M,M,M,M,M,M,M,M,M,M,37.08,KP68 051353Z AUTO 34005KT 05/03 A2994 RMK AO1 SLP109 T00500028 $,M
DRA,2025-05-05 13:53,-116.0278,36.6206,1009.00,59.00,44.00,57.44,40.00,8.00,0.00,29.75,1004.10,10.00,M,FEW,OVC,M,M,7000.00,9000.00,M,M,M,M,M,M,M,M,M,59.00,KDRA 051353Z AUTO 04008KT 10SM FEW070 OVC090 15/07 A2975 RMK AO2 SLP041 T01500067,M
ELY,2025-05-05 13:53,-114.8453,39.2950,1909.00,42.00,38.00,85.60,10.00,14.00,0.00,29.87,1007.20,10.00,M,BKN,OVC,M,M,3000.00,6500.00,M,M,M,M,M,M,M,M,M,34.05,KELY 051353Z AUTO 01014KT 10SM BKN030 OVC065 06/03 A2987 RMK AO2 SLP072 T00560033 $,M
VGT,2025-05-05 13:53,-115.1933,36.2111,667.00,61.00,51.00,69.60,0.00,0.00,0.00,29.72,1006.80,10.00,M,OVC,M,M,M,7000.00,M,M,M,M,M,M,M,M,M,M,61.00,KVGT 051353Z 00000KT 10SM OVC070 16/11 A2972 RMK AO2 SLP068 T01610106,M
BVU,2025-05-05 13:55,-114.8611,35.9475,671.00,57.20,51.80,82.12,70.00,5.00,0.00,29.73,M,10.00,M,OVC,M,M,M,5500.00,M,M,M,-RA,M,M,M,M,M,M,57.20,KBVU 051355Z AUTO 07005KT 10SM -RA OVC055 14/11 A2973 RMK AO2,M
RNO,2025-05-05 13:55,-119.7711,39.4839,1341.00,44.00,21.00,39.62,300.00,5.00,0.00,30.06,1015.80,10.00,M,FEW,M,M,M,7500.00,M,M,M,M,M,M,M,M,M,M,40.65,KRNO 051355Z 30005KT 10SM FEW075 07/M06 A3006 RMK AO2 SLP158 T00671061 $,M
BAM,2025-05-05 13:55,-116.8743,40.5990,1382.36,41.00,30.20,65.16,330.00,7.00,0.00,30.03,M,10.00,M,CLR,M,M,M,M,M,M,M,M,M,M,M,M,M,M,35.75,KBAM 051355Z AUTO 33007KT 10SM CLR 05/M01 A3003 RMK AO1,M
CXP,2025-05-05 13:55,-119.7326,39.1923,1431.00,46.40,24.80,42.44,M,4.00,0.00,30.05,M,10.00,M,OVC,M,M,M,5500.00,M,M,M,M,M,M,M,M,M,M,44.24,KCXP 051355Z AUTO VRB04KT 10SM OVC055 08/M04 A3005 RMK AO2,M
TMT,2025-05-05 13:55,-117.1971,39.4643,1749.34,40.30,36.00,84.49,320.00,3.00,0.00,30.00,M,10.00,M,SCT,OVC,M,M,2800.00,5000.00,M,M,M,M,M,M,M,M,M,38.18,KTMT 051355Z AUTO 32003KT 10SM SCT028 OVC050 05/02 A3000 RMK AO2 T00460023,M
10U,2025-05-05 13:55,-116.1876,41.9532,1637.00,35.60,28.40,74.80,0.00,0.00,0.00,30.05,M,10.00,M,CLR,M,M,M,M,M,M,M,M,M,M,M,M,M,M,35.60,K10U 051355Z AUTO 00000KT 10SM CLR 02/M02 A3005 RMK AO2,M
EKO,2025-05-05 13:56,-115.7860,40.8242,1367.00,42.00,27.00,54.99,340.00,12.00,0.00,29.94,1012.50,10.00,20.00,BKN,M,M,M,10000.00,M,M,M,M,M,M,M,M,M,M,34.73,KEKO 051356Z AUTO 34012G20KT 10SM BKN100 06/M03 A2994 RMK AO2 SLP125 T00561028,M
WMC,2025-05-05 13:56,-117.8072,40.9019,1315.00,39.00,26.00,59.27,350.00,10.00,0.00,30.05,1017.00,10.00,M,CLR,M,M,M,M,M,M,M,M,M,M,M,M,M,M,31.75,KWMC 051356Z AUTO 35010KT 10SM CLR 04/M03 A3005 RMK AO2 SLP170 T00391033 $,M
HND,2025-05-05 13:56,-115.1344,35.9729,742.79,58.00,50.00,74.64,0.00,0.00,T,29.75,1007.80,10.00,M,OVC,M,M,M,7000.00,M,M,M,-RA,M,M,M,M,M,M,58.00,KHND 051356Z 00000KT 10SM -RA OVC070 14/10 A2975 RMK AO2 RAB44 SLP078 P0000 T01440100 $,M
TPH,2025-05-05 13:56,-117.0904,38.0505,1654.00,49.00,36.00,60.66,340.00,18.00,0.00,29.88,1008.60,10.00,24.00,OVC,M,M,M,6000.00,M,M,M,M,M,M,M,28.00,340.00,2025-05-05 13:23,42.13,KTPH 051356Z AUTO 34018G24KT 10SM OVC060 09/02 A2988 RMK AO2 PK WND 34028/1323 SLP086 T00940022 $,M
LAS,2025-05-05 13:56,-115.1634,36.0719,663.00,60.00,52.00,74.83,0.00,0.00,T,29.73,1005.50,10.00,M,BKN,OVC,M,M,6500.00,8000.00,M,M,M,M,M,M,M,M,M,60.00,KLAS 051356Z 00000KT 10SM BKN065 OVC080 16/11 A2973 RMK AO2 RAB25E52 SLP055 P0000 T01560111 $,M
NFL,2025-05-05 13:57,-118.7010,39.4166,1199.00,45.00,29.00,53.22,340.00,9.00,0.00,30.03,1013.80,10.00,M,SCT,SCT,M,M,15000.00,20000.00,M,M,M,M,M,M,28.00,360.00,2025-05-05 13:05,39.68,KNFL 051357Z 34009KT 10SM SCT150 SCT200 07/M02 A3003 RMK AO2 PK WND 36028/1305 SLP138 T00721017,M
BVU,2025-05-05 14:15,-114.8611,35.9475,671.00,55.40,51.80,87.65,120.00,5.00,0.00,29.73,M,3.00,M,FEW,SCT,BKN,M,2600.00,3300.00,4300.00,M,-RA,M,M,M,M,M,M,55.40,KBVU 051415Z AUTO 12005KT 3SM -RA FEW026 SCT033 BKN043 13/11 A2973 RMK AO2,M
BAM,2025-05-05 14:15,-116.8743,40.5990,1382.36,41.00,32.00,70.08,320.00,9.00,0.00,30.04,M,10.00,M,BKN,M,M,M,10000.00,M,M,M,M,M,M,M,M,M,M,34.70,KBAM 051415Z AUTO 32009KT 10SM BKN100 05/00 A3004 RMK AO1,M
CXP,2025-05-05 14:15,-119.7326,39.1923,1431.00,46.40,24.80,42.44,0.00,0.00,0.00,30.05,M,10.00,M,SCT,OVC,M,M,5500.00,7000.00,M,M,M,M,M,M,M,M,M,46.40,KCXP 051415Z AUTO 00000KT 10SM SCT055 OVC070 08/M04 A3005 RMK AO2,M
RTS,2025-05-05 14:15,-119.8764,39.6682,1539.00,41.00,19.40,41.54,350.00,8.00,0.00,30.07,M,10.00,M,CLR,M,M,M,M,M,M,M,M,M,M,M,M,M,M,35.20,KRTS 051415Z AUTO 35008KT 10SM CLR 05/M07 A3007 RMK AO2,M
MEV,2025-05-05 14:15,-119.7500,38.9963,1441.42,44.60,26.60,48.96,350.00,10.00,0.00,30.03,M,10.00,M,OVC,M,M,M,5000.00,M,M,M,M,M,M,M,M,M,M,38.77,KMEV 051415Z AUTO 35010KT 10SM OVC050 07/M03 A3003 RMK AO2,M
HTH,2025-05-05 14:15,-118.6315,38.5448,1282.89,48.20,32.00,53.27,340.00,17.00,0.00,30.01,M,10.00,M,BKN,OVC,M,M,4800.00,5500.00,M,M,M,M,M,M,M,M,M,41.30,KHTH 051415Z AUTO 34017KT 10SM BKN048 OVC055 09/M00 A3001 RMK A01,M
TMT,2025-05-05 14:15,-117.1971,39.4643,1749.34,40.00,34.30,79.89,330.00,7.00,0.00,30.01,M,10.00,M,BKN,OVC,M,M,5000.00,6500.00,M,M,M,M,M,M,M,M,M,34.53,KTMT 051415Z AUTO 33007KT 10SM BKN050 OVC065 04/01 A3001 RMK AO2 T00440013,M
10U,2025-05-05 14:15,-116.1876,41.9532,1637.00,35.60,26.60,69.46,0.00,0.00,0.00,30.05,M,10.00,M,CLR,M,M,M,M,M,M,M,M,M,M,M,M,M,M,35.60,K10U 051415Z AUTO 00000KT 10SM CLR 02/M03 A3005 RMK AO2,M
BVU,2025-05-05 14:35,-114.8611,35.9475,671.00,55.40,51.80,87.65,140.00,5.00,0.00,29.73,M,7.00,M,FEW,SCT,OVC,M,3200.00,4400.00,7000.00,M,-RA,M,M,M,M,M,M,55.40,KBVU 051435Z AUTO 14005KT 7SM -RA FEW032 SCT044 OVC070 13/11 A2973 RMK AO2,M
BAM,2025-05-05 14:35,-116.8743,40.5990,1382.36,41.00,32.00,70.08,330.00,9.00,0.00,30.04,M,10.00,M,SCT,M,M,M,10000.00,M,M,M,M,M,M,M,M,M,M,34.70,KBAM 051435Z AUTO 33009KT 10SM SCT100 05/00 A3004 RMK AO1,M
CXP,2025-05-05 14:35,-119.7326,39.1923,1431.00,46.40,24.80,42.44,280.00,6.00,0.00,30.05,M,10.00,M,BKN,BKN,M,M,5500.00,7000.00,M,M,M,M,M,M,M,M,M,42.87,KCXP 051435Z AUTO 28006KT 10SM BKN055 BKN070 08/M04 A3005 RMK AO2,M
RTS,2025-05-05 14:35,-119.8764,39.6682,1539.00,41.00,19.40,41.54,20.00,5.00,0.00,30.07,M,10.00,10.00,CLR,M,M,M,M,M,M,M,M,M,M,M,M,M,M,37.08,KRTS 051435Z AUTO 02005G10KT 10SM CLR 05/M07 A3007 RMK AO2,M
MEV,2025-05-05 14:35,-119.7500,38.9963,1441.42,46.40,26.60,45.73,350.00,12.00,0.00,30.03,M,10.00,M,BKN,OVC,M,M,5000.00,6000.00,M,M,M,M,M,M,M,M,M,40.33,KMEV 051435Z AUTO 35012KT 10SM BKN050 OVC060 08/M03 A3003 RMK AO2,M
HTH,2025-05-05 14:35,-118.6315,38.5448,1282.89,48.20,30.20,49.53,340.00,20.00,0.00,30.02,M,8.00,25.00,OVC,M,M,M,4800.00,M,M,M,M,M,M,M,M,M,M,40.66,KHTH 051435Z AUTO 34020G25KT 8SM OVC048 09/M01 A3002 RMK A01,M
TMT,2025-05-05 14:35,-117.1971,39.4643,1749.34,40.00,34.00,78.94,340.00,7.00,0.00,30.02,M,10.00,M,SCT,SCT,OVC,M,5000.00,6500.00,10000.00,M,M,M,M,M,M,M,M,34.53,KTMT 051435Z AUTO 34007KT 10SM SCT050 SCT065 OVC100 05/01 A3002 RMK AO2 T00450011,M
10U,2025-05-05 14:35,-116.1876,41.9532,1637.00,37.40,28.40,69.67,M,3.00,0.00,30.05,M,10.00,M,CLR,M,M,M,M,M,M,M,M,M,M,M,M,M,M,34.86,K10U 051435Z AUTO VRB03KT 10SM CLR 03/M02 A3005 RMK AO2,M
P68,2025-05-05 14:53,-116.0056,39.6014,1993.00,42.00,36.00,79.11,360.00,7.00,0.00,29.95,1011.00,M,M,M,M,M,M,M,M,M,M,M,M,M,M,M,M,M,36.97,KP68 051453Z AUTO 36007KT 06/02 A2995 RMK AO1 SLP110 T00560022 51012 $,M
DRA,2025-05-05 14:53,-116.0278,36.6206,1009.00,56.00,49.00,77.29,40.00,8.00,T,29.76,1004.70,10.00,M,OVC,M,M,M,6000.00,M,M,M,M,M,M,M,M,M,M,56.00,KDRA 051453Z AUTO 04008KT 10SM OVC060 13/09 A2976 RMK AO2 RAB26E53 SLP047 P0000 60000 T01330094 52015,M
ELY,2025-05-05 14:53,-114.8453,39.2950,1909.00,43.00,38.00,82.37,20.00,7.00,0.00,29.89,1007.70,10.00,M,BKN,OVC,M,M,3300.00,6500.00,M,M,M,M,M,M,M,M,M,38.19,KELY 051453Z AUTO 02007KT 10SM BKN033 OVC065 06/03 A2989 RMK AO2 SLP077 T00610033 53013 $,M
VGT,2025-05-05 14:53,-115.1933,36.2111,667.00,62.00,51.00,67.18,120.00,5.00,T,29.73,1007.20,10.00,M,OVC,M,M,M,7000.00,M,M,M,M,M,M,M,M,M,M,62.00,KVGT 051453Z 12005KT 10SM OVC070 17/11 A2973 RMK AO2 RAB1357E07 SLP072 P0000 60000 T01670106 53016,M
LOL,2025-05-05 14:53,-118.5701,40.0684,1192.43,M,M,M,M,M,0.00,M,M,M,M,M,M,M,M,M,M,M,M,M,M,M,M,M,M,M,M,KLOL 051453Z AUTO RMK AO2 SLPNO 6//// PWINO FZRANO TSNO PNO $,M
BVU,2025-05-05 14:55,-114.8611,35.9475,671.00,55.40,51.80,87.65,0.00,0.00,0.00,29.74,M,10.00,M,FEW,OVC,M,M,4800.00,6000.00,M,M,M,M,M,M,M,M,M,55.40,KBVU 051455Z AUTO 00000KT 10SM FEW048 OVC060 13/11 A2974 RMK AO2,M
RNO,2025-05-05 14:55,-119.7711,39.4839,1341.00,46.00,21.00,36.72,310.00,4.00,0.00,30.06,1015.90,10.00,M,FEW,M,M,M,7500.00,M,M,M,M,M,M,M,M,M,M,43.77,KRNO 051455Z 31004KT 10SM FEW075 08/M06 A3006 RMK AO2 SLP159 T00781061 51014 $,M
BAM,2025-05-05 14:55,-116.8743,40.5990,1382.36,44.60,32.00,61.03,330.00,6.00,0.00,30.04,M,10.00,M,CLR,M,M,M,M,M,M,M,M,M,M,M,M,M,M,40.71,KBAM 051455Z AUTO 33006KT 10SM CLR 07/00 A3004 RMK AO1,M
CXP,2025-05-05 14:55,-119.7326,39.1923,1431.00,46.40,23.00,39.36,340.00,9.00,0.00,30.05,M,10.00,M,BKN,M,M,M,6000.00,M,M,M,M,M,M,M,M,M,M,41.42,KCXP 051455Z AUTO 34009KT 10SM BKN060 08/M05 A3005 RMK AO2,M
RTS,2025-05-05 14:55,-119.8764,39.6682,1539.00,42.80,19.40,38.75,140.00,4.00,0.00,30.07,M,10.00,M,CLR,M,M,M,M,M,M,M,M,M,M,M,M,M,M,40.03,KRTS 051455Z AUTO 14004KT 10SM CLR 06/M07 A3007 RMK AO2,M
MEV,2025-05-05 14:55,-119.7500,38.9963,1441.42,46.40,26.60,45.73,340.00,11.00,0.00,30.03,M,10.00,M,BKN,BKN,M,M,6000.00,7000.00,M,M,M,M,M,M,M,M,M,40.66,KMEV 051455Z AUTO 34011KT 10SM BKN060 BKN070 08/M03 A3003 RMK AO2,M
HTH,2025-05-05 14:55,-118.6315,38.5448,1282.89,46.40,30.20,53.00,340.00,19.00,0.00,30.03,M,8.00,M,OVC,M,M,M,5000.00,M,M,M,M,M,M,M,M,M,M,38.48,KHTH 051455Z AUTO 34019KT 8SM OVC050 08/M01 A3003 RMK A01,M
TMT,2025-05-05 14:55,-117.1971,39.4643,1749.34,41.00,33.30,73.84,350.00,3.00,0.00,30.02,M,10.00,M,SCT,BKN,M,M,6500.00,10000.00,M,M,M,M,M,M,M,M,M,38.98,KTMT 051455Z AUTO 35003KT 10SM SCT065 BKN100 05/01 A3002 RMK AO2 T00510007,M
10U,2025-05-05 14:55,-116.1876,41.9532,1637.00,39.20,28.40,64.93,0.00,0.00,0.00,30.05,M,10.00,M,CLR,M,M,M,M,M,M,M,M,M,M,M,M,M,M,39.20,K10U 051455Z AUTO 00000KT 10SM CLR 04/M02 A3005 RMK AO2,M
EKO,2025-05-05 14:56,-115.7860,40.8242,1367.00,46.00,27.00,47.20,350.00,10.00,0.00,29.95,1012.70,10.00,20.00,CLR,M,M,M,M,M,M,M,M,M,M,M,M,M,M,40.52,KEKO 051456Z AUTO 35010G20KT 10SM CLR 08/M03 A2995 RMK AO2 SLP127 T00781028 53012,M
WMC,2025-05-05 14:56,-117.8072,40.9019,1315.00,43.00,26.00,50.77,340.00,10.00,0.00,30.06,1016.90,10.00,M,CLR,M,M,M,M,M,M,M,M,M,M,M,M,M,M,36.76,KWMC 051456Z AUTO 34010KT 10SM CLR 06/M03 A3006 RMK AO2 SLP169 T00611033 51016 $,M
HND,2025-05-05 14:56,-115.1344,35.9729,742.79,59.00,51.00,74.74,200.00,6.00,0.01,29.76,1008.20,10.00,M,FEW,BKN,OVC,M,1800.00,5000.00,8500.00,M,-RA,M,M,M,M,M,M,59.00,KHND 051456Z 20006KT 10SM -RA FEW018 BKN050 OVC085 15/11 A2976 RMK AO2 SLP082 P0001 60001 T01500106 51015 $,M
TPH,2025-05-05 14:56,-117.0904,38.0505,1654.00,50.00,36.00,58.44,340.00,17.00,0.00,29.89,1009.20,10.00,25.00,BKN,OVC,M,M,7500.00,9000.00,M,M,M,M,M,M,29.00,340.00,2025-05-05 14:22,50.00,KTPH 051456Z AUTO 34017G25KT 10SM BKN075 OVC090 10/02 A2989 RMK AO2 PK WND 34029/1422 SLP092 T01000022 51012 $,M
LAS,2025-05-05 14:56,-115.1634,36.0719,663.00,61.00,51.00,69.60,200.00,3.00,0.00,29.74,1005.90,10.00,M,FEW,BKN,OVC,M,4000.00,5500.00,7500.00,M,M,M,M,M,M,M,M,61.00,KLAS 051456Z 20003KT 10SM FEW040 BKN055 OVC075 16/11 A2974 RMK AO2 SLP059 60000 T01610106 53008 $,M
NFL,2025-05-05 14:57,-118.7010,39.4166,1199.00,48.00,28.00,45.61,340.00,11.00,0.00,30.05,1014.30,8.00,20.00,FEW,FEW,SCT,M,10000.00,15000.00,20000.00,M,M,M,M,M,M,M,M,42.69,KNFL 051457Z 34011G20KT 8SM FEW100 FEW150 SCT200 09/M02 A3005 RMK AO2 SLP143 T00891022 51027,M
RTS,2025-05-05 15:05,-119.8764,39.6682,1539.00,42.80,21.20,41.84,110.00,3.00,0.00,30.07,M,10.00,M,CLR,M,M,M,M,M,M,M,M,M,M,M,M,M,M,41.03,KRTS 051505Z AUTO 11003KT 10SM CLR 06/M06 A3007 RMK AO2,M
MEV,2025-05-05 15:05,-119.7500,38.9963,1441.42,48.20,26.60,42.73,350.00,10.00,0.00,30.03,M,10.00,M,FEW,BKN,M,M,5000.00,6500.00,M,M,M,M,M,M,M,M,M,43.28,KMEV 051505Z AUTO 35010KT 10SM FEW050 BKN065 09/M03 A3003 RMK AO2,M
CXP,2025-05-05 15:10,-119.7326,39.1923,1431.00,48.20,23.00,36.78,0.00,0.00,0.00,30.05,M,10.00,10.00,SCT,M,M,M,6000.00,M,M,M,M,M,M,M,M,M,M,48.20,KCXP 051510Z AUTO 00000G10KT 10SM SCT060 09/M05 A3005 RMK AO2,M
BVU,2025-05-05 15:15,-114.8611,35.9475,671.00,55.40,51.80,87.65,0.00,0.00,0.00,29.75,M,10.00,M,BKN,OVC,M,M,4800.00,6000.00,M,M,-DZ,M,M,M,M,M,M,55.40,KBVU 051515Z AUTO 00000KT 10SM -DZ BKN048 OVC060 13/11 A2975 RMK AO2,M
BAM,2025-05-05 15:15,-116.8743,40.5990,1382.36,44.60,32.00,61.03,330.00,6.00,0.00,30.04,M,10.00,M,CLR,M,M,M,M,M,M,M,M,M,M,M,M,M,M,40.71,KBAM 051515Z AUTO 33006KT 10SM CLR 07/00 A3004 RMK AO1,M
HTH,2025-05-05 15:15,-118.6315,38.5448,1282.89,46.40,30.20,53.00,330.00,18.00,0.00,30.03,M,10.00,25.00,BKN,OVC,M,M,5000.00,6000.00,M,M,M,M,M,M,M,M,M,38.70,KHTH 051515Z AUTO 33018G25KT 10SM BKN050 OVC060 08/M01 A3003 RMK A01,M
TMT,2025-05-05 15:15,-117.1971,39.4643,1749.34,44.00,33.00,65.01,30.00,3.00,0.00,30.02,M,10.00,M,SCT,BKN,BKN,M,2800.00,3500.00,6500.00,M,M,M,M,M,M,M,M,42.41,KTMT 051515Z AUTO 03003KT 10SM SCT028 BKN035 BKN065 07/01 A3002 RMK AO2 T00660006,M
10U,2025-05-05 15:15,-116.1876,41.9532,1637.00,39.20,26.60,60.29,0.00,0.00,0.00,30.05,M,10.00,M,CLR,M,M,M,M,M,M,M,M,M,M,M,M,M,M,39.20,K10U 051515Z AUTO 00000KT 10SM CLR 04/M03 A3005 RMK AO2,M
BAM,2025-05-05 15:35,-116.8743,40.5990,1382.36,46.40,32.00,57.00,340.00,5.00,0.00,30.04,M,10.00,M,CLR,M,M,M,M,M,M,M,M,M,M,M,M,M,M,43.50,KBAM 051535Z AUTO 34005KT 10SM CLR 08/00 A3004 RMK AO1,M
CXP,2025-05-05 15:35,-119.7326,39.1923,1431.00,50.00,23.00,34.39,80.00,12.00,0.00,30.05,M,10.00,M,CLR,M,M,M,M,M,M,M,M,M,M,M,M,M,M,50.00,KCXP 051535Z AUTO 08012KT 10SM CLR 10/M05 A3005 RMK AO2,M
HTH,2025-05-05 15:35,-118.6315,38.5448,1282.89,46.40,28.40,49.24,340.00,17.00,0.00,30.04,M,10.00,25.00,SCT,OVC,M,M,5000.00,6000.00,M,M,M,M,M,M,M,M,M,38.94,KHTH 051535Z AUTO 34017G25KT 10SM SCT050 OVC060 08/M02 A3004 RMK A01,M
TMT,2025-05-05 15:35,-117.1971,39.4643,1749.34,44.00,32.00,62.44,70.00,5.00,0.00,30.01,M,10.00,M,SCT,BKN,BKN,M,2800.00,3500.00,9500.00,M,M,M,M,M,M,M,M,40.65,KTMT 051535Z AUTO 07005KT 10SM SCT028 BKN035 BKN095 07/00 A3001 RMK AO2 T00670001,M
10U,2025-05-05 15:35,-116.1876,41.9532,1637.00,41.00,26.60,56.22,310.00,4.00,0.00,30.05,M,10.00,M,CLR,M,M,M,M,M,M,M,M,M,M,M,M,M,M,37.93,K10U 051535Z AUTO 31004KT 10SM CLR 05/M03 A3005 RMK AO2,M
BVU,2025-05-05 15:35,-114.8611,35.9475,671.00,55.40,51.80,87.65,80.00,4.00,0.00,29.76,M,9.00,M,OVC,M,M,M,4600.00,M,M,M,-DZ,M,M,M,M,M,M,55.40,KBVU 051535Z AUTO 08004KT 9SM -DZ OVC046 13/11 A2976 RMK AO2,M
P68,2025-05-05 15:53,-116.0056,39.6014,1993.00,43.00,34.00,70.30,330.00,11.00,0.00,29.95,1011.10,M,M,M,M,M,M,M,M,M,M,M,M,M,M,M,M,M,36.37,KP68 051553Z AUTO 33011KT 06/01 A2995 RMK AO1 SLP111 T00610011,M
DRA,2025-05-05 15:53,-116.0278,36.6206,1009.00,56.00,50.00,80.23,70.00,5.00,0.04,29.78,1005.70,10.00,M,OVC,M,M,M,6000.00,M,M,M,-RA,M,M,M,M,M,M,56.00,KDRA 051553Z AUTO 07005KT 10SM -RA OVC060 13/10 A2978 RMK AO2 RAB01 SLP057 P0004 T01330100,M
ELY,2025-05-05 15:53,-114.8453,39.2950,1909.00,43.00,38.00,82.37,20.00,14.00,T,29.88,1007.80,10.00,M,FEW,BKN,OVC,M,3200.00,7000.00,8500.00,M,M,M,M,M,M,M,M,35.34,KELY 051553Z AUTO 02014KT 10SM FEW032 BKN070 OVC085 06/03 A2988 RMK AO2 RAB19E29 SLP078 P0000 T00610033,M
VGT,2025-05-05 15:53,-115.1933,36.2111,667.00,62.00,50.00,64.73,110.00,8.00,0.00,29.75,1007.80,10.00,M,BKN,OVC,M,M,7500.00,9500.00,M,M,M,M,M,M,M,M,M,62.00,KVGT 051553Z 11008KT 10SM BKN075 OVC095 17/10 A2975 RMK AO2 SLP078 T01670100,M
LOL,2025-05-05 15:53,-118.5701,40.0684,1192.43,50.00,23.00,34.39,30.00,21.00,0.00,30.04,M,10.00,28.00,CLR,M,M,M,M,M,M,M,M,M,M,M,30.00,30.00,2025-05-05 15:27,50.00,KLOL 051553Z AUTO 03021G28KT 10SM CLR 10/M05 A3004 RMK AO2 PK WND 03030/1527 SLPNO T01001050,M
BVU,2025-05-05 15:55,-114.8611,35.9475,671.00,55.40,53.60,93.65,100.00,5.00,0.00,29.77,M,5.00,M,FEW,OVC,M,M,3300.00,4600.00,M,M,-RA,M,M,M,M,M,M,55.40,KBVU 051555Z AUTO 10005KT 5SM -RA FEW033 OVC046 13/12 A2977 RMK AO2,M
RNO,2025-05-05 15:55,-119.7711,39.4839,1341.00,49.00,21.00,32.80,20.00,3.00,0.00,30.05,1015.50,10.00,M,FEW,M,M,M,7000.00,M,M,M,M,M,M,M,M,M,M,48.12,KRNO 051555Z 02003KT 10SM FEW070 09/M06 A3005 RMK AO2 SLP155 T00941061,M
BAM,2025-05-05 15:55,-116.8743,40.5990,1382.36,46.40,32.00,57.00,350.00,7.00,0.00,30.04,M,10.00,M,CLR,M,M,M,M,M,M,M,M,M,M,M,M,M,M,42.33,KBAM 051555Z AUTO 35007KT 10SM CLR 08/00 A3004 RMK AO1,M
CXP,2025-05-05 15:55,-119.7326,39.1923,1431.00,50.00,23.00,34.39,80.00,10.00,0.00,30.05,M,10.00,M,CLR,M,M,M,M,M,M,M,M,M,M,M,M,M,M,50.00,KCXP 051555Z AUTO 08010KT 10SM CLR 10/M05 A3005 RMK AO2,M
RTS,2025-05-05 15:55,-119.8764,39.6682,1539.00,44.60,19.40,36.18,50.00,9.00,0.00,30.07,M,10.00,M,CLR,M,M,M,M,M,M,M,M,M,M,M,M,M,M,39.18,KRTS 051555Z AUTO 05009KT 10SM CLR 07/M07 A3007 RMK AO2,M
MEV,2025-05-05 15:55,-119.7500,38.9963,1441.42,50.00,26.60,39.95,M,5.00,0.00,30.03,M,10.00,11.00,FEW,M,M,M,7000.00,M,M,M,M,M,M,M,M,M,M,50.00,KMEV 051555Z AUTO VRB05G11KT 10SM FEW070 10/M03 A3003 RMK AO2,M
HTH,2025-05-05 15:55,-118.6315,38.5448,1282.89,46.40,26.60,45.73,350.00,13.00,0.00,30.04,M,10.00,21.00,OVC,M,M,M,5000.00,M,M,M,M,M,M,M,M,M,M,40.02,KHTH 051555Z AUTO 35013G21KT 10SM OVC050 08/M03 A3004 RMK A01,M
TMT,2025-05-05 15:55,-117.1971,39.4643,1749.34,43.30,32.00,64.14,360.00,8.00,0.00,30.01,M,10.00,M,SCT,M,M,M,2800.00,M,M,M,M,M,M,M,M,M,M,38.03,KTMT 051555Z AUTO 36008KT 360V070 10SM SCT028 06/00 A3001 RMK AO2 T00630001,M
10U,2025-05-05 15:55,-116.1876,41.9532,1637.00,42.80,26.60,52.45,350.00,5.00,0.00,30.05,M,10.00,M,CLR,M,M,M,M,M,M,M,M,M,M,M,M,M,M,39.22,K10U 051555Z AUTO 35005KT 10SM CLR 06/M03 A3005 RMK AO2,M
EKO,2025-05-05 15:56,-115.7860,40.8242,1367.00,49.00,28.00,43.93,340.00,9.00,0.00,29.95,1012.30,10.00,M,CLR,M,M,M,M,M,M,M,M,M,M,M,M,M,M,44.65,KEKO 051556Z AUTO 34009KT 10SM CLR 09/M02 A2995 RMK AO2 SLP123 T00941022,M
WMC,2025-05-05 15:56,-117.8072,40.9019,1315.00,47.00,27.00,45.45,350.00,9.00,0.00,30.06,1016.60,10.00,16.00,CLR,M,M,M,M,M,M,M,M,M,M,M,M,M,M,42.17,KWMC 051556Z AUTO 35009G16KT 10SM CLR 08/M03 A3006 RMK AO2 SLP166 T00831028,M
HND,2025-05-05 15:56,-115.1344,35.9729,742.79,60.00,52.00,74.83,210.00,7.00,T,29.77,1008.70,10.00,M,BKN,BKN,OVC,M,5000.00,6500.00,9000.00,M,M,M,M,M,M,M,M,60.00,KHND 051556Z 21007KT 10SM BKN050 BKN065 OVC090 16/11 A2977 RMK AO2 RAE02 SLP087 P0000 T01560111 $,M
TPH,2025-05-05 15:56,-117.0904,38.0505,1654.00,51.00,36.00,56.31,330.00,17.00,0.00,29.90,1009.60,10.00,33.00,OVC,M,M,M,5500.00,M,M,M,M,M,M,M,33.00,340.00,2025-05-05 15:47,51.00,KTPH 051556Z AUTO 33017G33KT 10SM OVC055 11/02 A2990 RMK AO2 PK WND 34033/1547 SLP096 T01060022,M
LAS,2025-05-05 15:56,-115.1634,36.0719,663.00,61.00,51.00,69.60,0.00,0.00,T,29.76,1006.50,10.00,M,FEW,BKN,OVC,M,4000.00,6000.00,7500.00,M,-RA,M,M,M,M,M,M,61.00,KLAS 051556Z 00000KT 10SM -RA FEW040 BKN060 OVC075 16/11 A2976 RMK AO2 RAB52 SLP065 P0000 T01610106,M
NFL,2025-05-05 15:57,-118.7010,39.4166,1199.00,50.00,28.00,42.33,350.00,14.00,0.00,30.04,1014.20,9.00,22.00,FEW,FEW,SCT,M,7000.00,10000.00,20000.00,M,M,M,M,M,M,M,M,50.00,KNFL 051557Z 35014G22KT 9SM FEW070 FEW100 SCT200 10/M02 A3004 RMK AO2 SLP142 T01001022,M
BVU,2025-05-05 16:15,-114.8611,35.9475,671.00,57.20,51.80,82.12,130.00,7.00,0.00,29.77,M,10.00,M,FEW,BKN,BKN,M,3300.00,4900.00,6500.00,M,M,M,M,M,M,M,M,57.20,KBVU 051615Z AUTO 13007KT 10SM FEW033 BKN049 BKN065 14/11 A2977 RMK AO2,M
BAM,2025-05-05 16:15,-116.8743,40.5990,1382.36,46.40,32.00,57.00,310.00,10.00,0.00,30.04,M,10.00,M,CLR,M,M,M,M,M,M,M,M,M,M,M,M,M,M,41.03,KBAM 051615Z AUTO 31010KT 10SM CLR 08/00 A3004 RMK AO1,M
CXP,2025-05-05 16:15,-119.7326,39.1923,1431.00,50.00,23.00,34.39,60.00,7.00,0.00,30.05,M,10.00,15.00,CLR,M,M,M,M,M,M,M,M,M,M,M,M,M,M,50.00,KCXP 051615Z AUTO 06007G15KT 010V100 10SM CLR 10/M05 A3005 RMK AO2,M
RTS,2025-05-05 16:15,-119.8764,39.6682,1539.00,46.40,21.20,36.48,60.00,9.00,0.00,30.07,M,10.00,15.00,CLR,M,M,M,M,M,M,M,M,M,M,M,M,M,M,41.42,KRTS 051615Z AUTO 06009G15KT 10SM CLR 08/M06 A3007 RMK AO2,M
MEV,2025-05-05 16:15,-119.7500,38.9963,1441.42,51.80,26.60,37.38,350.00,12.00,0.00,30.03,M,10.00,M,CLR,M,M,M,M,M,M,M,M,M,M,M,M,M,M,51.80,KMEV 051615Z AUTO 35012KT 10SM CLR 11/M03 A3003 RMK AO2,M
HTH,2025-05-05 16:15,-118.6315,38.5448,1282.89,48.20,28.40,46.02,350.00,18.00,0.00,30.03,M,10.00,M,BKN,BKN,OVC,M,5500.00,6500.00,8000.00,M,M,M,M,M,M,M,M,41.07,KHTH 051615Z AUTO 35018KT 10SM BKN055 BKN065 OVC080 09/M02 A3003 RMK A01,M
TMT,2025-05-05 16:15,-117.1971,39.4643,1749.34,45.30,32.00,59.43,40.00,5.00,0.00,30.01,M,10.00,M,SCT,M,M,M,3200.00,M,M,M,M,M,M,M,M,M,M,42.19,KTMT 051615Z AUTO 04005KT 10SM SCT032 07/00 A3001 RMK AO2 T00740001,M
10U,2025-05-05 16:15,-116.1876,41.9532,1637.00,42.80,26.60,52.45,320.00,10.00,0.00,30.04,M,10.00,M,CLR,M,M,M,M,M,M,M,M,M,M,M,M,M,M,36.51,K10U 051615Z AUTO 32010KT 10SM CLR 06/M03 A3004 RMK AO2,M
RTS,2025-05-05 16:25,-119.8764,39.6682,1539.00,46.40,21.20,36.48,70.00,12.00,0.00,30.07,M,10.00,M,CLR,M,M,M,M,M,M,M,M,M,M,M,M,M,M,40.33,KRTS 051625Z AUTO 07012KT 10SM CLR 08/M06 A3007 RMK AO2,M
MEV,2025-05-05 16:25,-119.7500,38.9963,1441.42,51.80,26.60,37.38,350.00,10.00,0.00,30.02,M,10.00,M,CLR,M,M,M,M,M,M,M,M,M,M,M,M,M,M,51.80,KMEV 051625Z AUTO 35010KT 300V020 10SM CLR 11/M03 A3002 RMK AO2,M
10U,2025-05-05 16:30,-116.1876,41.9532,1637.00,42.80,24.80,48.67,330.00,9.00,0.00,30.04,M,10.00,M,CLR,M,M,M,M,M,M,M,M,M,M,M,M,M,M,36.94,K10U 051630Z AUTO 33009KT 10SM CLR 06/M04 A3004 RMK AO2,M
BVU,2025-05-05 16:35,-114.8611,35.9475,671.00,59.00,51.80,76.98,M,5.00,0.00,29.77,M,10.00,M,SCT,BKN,M,M,4800.00,7000.00,M,M,M,M,M,M,M,M,M,59.00,KBVU 051635Z AUTO VRB05KT 10SM SCT048 BKN070 15/11 A2977 RMK AO2,M
BAM,2025-05-05 16:35,-116.8743,40.5990,1382.36,46.40,32.00,57.00,300.00,6.00,0.00,30.04,M,10.00,M,CLR,M,M,M,M,M,M,M,M,M,M,M,M,M,M,42.87,KBAM 051635Z AUTO 30006KT 10SM CLR 08/00 A3004 RMK AO1,M
CXP,2025-05-05 16:35,-119.7326,39.1923,1431.00,51.80,23.00,32.17,60.00,8.00,0.00,30.05,M,10.00,15.00,CLR,M,M,M,M,M,M,M,M,M,M,M,M,M,M,51.80,KCXP 051635Z AUTO 06008G15KT 040V110 10SM CLR 11/M05 A3005 RMK AO2,M
HTH,2025-05-05 16:35,-118.6315,38.5448,1282.89,50.00,28.40,43.03,350.00,16.00,0.00,30.04,M,10.00,21.00,FEW,BKN,M,M,6000.00,8000.00,M,M,M,M,M,M,M,M,M,50.00,KHTH 051635Z AUTO 35016G21KT 10SM FEW060 BKN080 10/M02 A3004 RMK A01,M
TMT,2025-05-05 16:35,-117.1971,39.4643,1749.34,45.70,31.60,57.60,360.00,4.00,0.00,30.01,M,10.00,M,SCT,M,M,M,3200.00,M,M,M,M,M,M,M,M,M,M,43.42,KTMT 051635Z AUTO 36004KT 10SM SCT032 08/00 A3001 RMK AO2 T00761002,M
P68,2025-05-05 16:53,-116.0056,39.6014,1993.00,46.00,34.00,62.71,360.00,10.00,0.00,29.95,1010.80,M,17.00,M,M,M,M,M,M,M,M,M,M,M,M,M,M,M,40.52,KP68 051653Z AUTO 36010G17KT 08/01 A2995 RMK AO1 SLP108 T00780011,M
DRA,2025-05-05 16:53,-116.0278,36.6206,1009.00,56.00,51.00,83.26,30.00,8.00,0.04,29.79,1005.90,10.00,M,OVC,M,M,M,7000.00,M,M,M,-RA,M,M,M,M,M,M,56.00,KDRA 051653Z AUTO 03008KT 10SM -RA OVC070 13/11 A2979 RMK AO2 SLP059 P0004 T01330106,M
ELY,2025-05-05 16:53,-114.8453,39.2950,1909.00,46.00,38.00,73.47,10.00,16.00,T,29.89,1007.90,10.00,22.00,FEW,SCT,OVC,M,1600.00,3900.00,9000.00,M,M,M,M,M,M,M,M,38.67,KELY 051653Z AUTO 01016G22KT 10SM FEW016 SCT039 OVC090 08/03 A2989 RMK AO2 RAB1559E09 SLP079 P0000 T00780033,M
VGT,2025-05-05 16:53,-115.1933,36.2111,667.00,60.00,51.00,72.12,150.00,8.00,0.00,29.76,1008.30,10.00,M,FEW,SCT,BKN,M,4400.00,7500.00,9000.00,M,M,M,M,M,M,M,M,60.00,KVGT 051653Z 15008KT 10SM FEW044 SCT075 BKN090 16/11 A2976 RMK AO2 SLP083 T01560106,M
LOL,2025-05-05 16:53,-118.5701,40.0684,1192.43,53.00,23.00,30.78,50.00,18.00,0.00,30.03,M,10.00,29.00,CLR,M,M,M,M,M,M,M,M,M,M,M,29.00,50.00,2025-05-05 16:45,53.00,KLOL 051653Z AUTO 05018G29KT 10SM CLR 12/M05 A3003 RMK AO2 PK WND 05029/1645 SLPNO T01171050,M
BVU,2025-05-05 16:55,-114.8611,35.9475,671.00,59.00,51.80,76.98,150.00,10.00,0.00,29.77,M,10.00,M,SCT,SCT,BKN,M,2000.00,4800.00,7000.00,M,-DZ,M,M,M,M,M,M,59.00,KBVU 051655Z AUTO 15010KT 10SM -DZ SCT020 SCT048 BKN070 15/11 A2977 RMK AO2,M
RNO,2025-05-05 16:55,-119.7711,39.4839,1341.00,51.00,22.00,31.77,0.00,0.00,0.00,30.05,1015.40,10.00,M,CLR,M,M,M,M,M,M,M,M,M,M,M,M,M,M,51.00,KRNO 051655Z 00000KT 10SM CLR 11/M06 A3005 RMK AO2 SLP154 T01061056,M
BAM,2025-05-05 16:55,-116.8743,40.5990,1382.36,50.00,32.00,49.81,320.00,6.00,0.00,30.04,M,10.00,M,CLR,M,M,M,M,M,M,M,M,M,M,M,M,M,M,50.00,KBAM 051655Z AUTO 32006KT 10SM CLR 10/00 A3004 RMK AO1,M
CXP,2025-05-05 16:55,-119.7326,39.1923,1431.00,51.80,24.80,34.69,60.00,10.00,0.00,30.05,M,10.00,15.00,CLR,M,M,M,M,M,M,M,M,M,M,M,M,M,M,51.80,KCXP 051655Z AUTO 06010G15KT 10SM CLR 11/M04 A3005 RMK AO2,M
RTS,2025-05-05 16:55,-119.8764,39.6682,1539.00,46.40,19.40,33.79,90.00,12.00,0.00,30.07,M,10.00,M,CLR,M,M,M,M,M,M,M,M,M,M,M,M,M,M,40.33,KRTS 051655Z AUTO 09012KT 10SM CLR 08/M07 A3007 RMK AO2,M
MEV,2025-05-05 16:55,-119.7500,38.9963,1441.42,51.80,24.80,34.69,350.00,11.00,0.00,30.02,M,10.00,16.00,CLR,M,M,M,M,M,M,M,M,M,M,M,M,M,M,51.80,KMEV 051655Z AUTO 35011G16KT 10SM CLR 11/M04 A3002 RMK AO2,M
HTH,2025-05-05 16:55,-118.6315,38.5448,1282.89,50.00,28.40,43.03,350.00,21.00,0.00,30.03,M,10.00,M,FEW,M,M,M,8000.00,M,M,M,M,M,M,M,M,M,M,50.00,KHTH 051655Z AUTO 35021KT 10SM FEW080 10/M02 A3003 RMK A01,M
TMT,2025-05-05 16:55,-117.1971,39.4643,1749.34,45.50,32.40,59.94,360.00,5.00,0.00,30.01,M,10.00,M,SCT,M,M,M,3000.00,M,M,M,M,M,M,M,M,M,M,42.43,KTMT 051655Z AUTO 36005KT 10SM SCT030 08/00 A3001 RMK AO2 T00750002,M
10U,2025-05-05 16:55,-116.1876,41.9532,1637.00,44.60,28.40,52.72,330.00,9.00,0.00,30.04,M,10.00,15.00,CLR,M,M,M,M,M,M,M,M,M,M,M,M,M,M,39.18,K10U 051655Z AUTO 33009G15KT 290V010 10SM CLR 07/M02 A3004 RMK AO2,M
EKO,2025-05-05 16:56,-115.7860,40.8242,1367.00,52.00,28.00,39.30,310.00,10.00,0.00,29.95,1012.00,10.00,17.00,CLR,M,M,M,M,M,M,M,M,M,M,M,M,M,M,52.00,KEKO 051656Z AUTO 31010G17KT 10SM CLR 11/M02 A2995 RMK AO2 SLP120 T01111022,M
WMC,2025-05-05 16:56,-117.8072,40.9019,1315.00,49.00,24.00,37.22,20.00,6.00,0.00,30.05,1016.20,10.00,M,CLR,M,M,M,M,M,M,M,M,M,M,M,M,M,M,46.00,KWMC 051656Z AUTO 02006KT 10SM CLR 09/M04 A3005 RMK AO2 SLP162 T00941044,M
HND,2025-05-05 16:56,-115.1344,35.9729,742.79,59.00,51.00,74.74,100.00,9.00,T,29.79,1009.20,10.00,14.00,FEW,OVC,M,M,2800.00,3700.00,M,M,-RA,M,M,M,M,M,M,59.00,KHND 051656Z 10009G14KT 10SM -RA FEW028 OVC037 15/11 A2979 RMK AO2 RAB52 SLP092 P0000 T01500106 $,M
TPH,2025-05-05 16:56,-117.0904,38.0505,1654.00,53.00,36.00,52.30,330.00,19.00,0.00,29.90,1009.10,10.00,28.00,FEW,FEW,M,M,3600.00,10000.00,M,M,M,M,M,M,30.00,340.00,2025-05-05 16:38,53.00,KTPH 051656Z AUTO 33019G28KT 10SM FEW036 FEW100 12/02 A2990 RMK AO2 PK WND 34030/1638 SLP091 T01170022,M
LAS,2025-05-05 16:56,-115.1634,36.0719,663.00,60.00,54.00,80.53,150.00,7.00,0.01,29.77,1006.90,10.00,M,SCT,BKN,BKN,M,3900.00,6000.00,8000.00,M,-RA,M,M,M,M,M,M,60.00,KLAS 051656Z 15007KT 10SM -RA SCT039 BKN060 BKN080 16/12 A2977 RMK AO2 RAE00B41 SLP069 P0001 T01560122,M
NFL,2025-05-05 16:57,-118.7010,39.4166,1199.00,53.00,28.00,37.88,20.00,9.00,0.00,30.04,1014.00,7.00,19.00,SCT,SCT,M,M,6000.00,12000.00,M,M,M,M,M,M,M,M,M,53.00,KNFL 051657Z 02009G19KT 7SM SCT060 SCT120 12/M02 A3004 RMK AO2 SLP140 BLDU VC ALQDS T01171022,M
HTH,2025-05-05 17:10,-118.6315,38.5448,1282.89,50.00,26.60,39.95,350.00,18.00,0.00,30.03,M,10.00,23.00,FEW,M,M,M,8000.00,M,M,M,M,M,M,M,M,M,M,50.00,KHTH 051710Z AUTO 35018G23KT 10SM FEW080 10/M03 A3003 RMK A01,M
BVU,2025-05-05 17:15,-114.8611,35.9475,671.00,59.00,51.80,76.98,160.00,11.00,0.00,29.78,M,10.00,M,BKN,BKN,BKN,M,2100.00,6500.00,7500.00,M,M,M,M,M,M,M,M,59.00,KBVU 051715Z AUTO 16011KT 10SM BKN021 BKN065 BKN075 15/11 A2978 RMK AO2,M
BAM,2025-05-05 17:15,-116.8743,40.5990,1382.36,50.00,32.00,49.81,310.00,8.00,0.00,30.03,M,10.00,M,CLR,M,M,M,M,M,M,M,M,M,M,M,M,M,M,50.00,KBAM 051715Z AUTO 31008KT 10SM CLR 10/00 A3003 RMK AO1,M
CXP,2025-05-05 17:15,-119.7326,39.1923,1431.00,51.80,23.00,32.17,70.00,11.00,0.00,30.05,M,10.00,M,CLR,M,M,M,M,M,M,M,M,M,M,M,M,M,M,51.80,KCXP 051715Z AUTO 07011KT 10SM CLR 11/M05 A3005 RMK AO2,M
RTS,2025-05-05 17:15,-119.8764,39.6682,1539.00,48.20,17.60,29.23,60.00,14.00,0.00,30.07,M,10.00,M,CLR,M,M,M,M,M,M,M,M,M,M,M,M,M,M,42.04,KRTS 051715Z AUTO 06014KT 10SM CLR 09/M08 A3007 RMK AO2,M
MEV,2025-05-05 17:15,-119.7500,38.9963,1441.42,53.60,28.40,37.67,M,5.00,0.00,30.02,M,10.00,18.00,CLR,M,M,M,M,M,M,M,M,M,M,M,M,M,M,53.60,KMEV 051715Z AUTO VRB05G18KT 10SM CLR 12/M02 A3002 RMK AO2,M
TMT,2025-05-05 17:15,-117.1971,39.4643,1749.34,45.70,32.70,60.21,0.00,0.00,0.00,30.01,M,10.00,M,BKN,M,M,M,3200.00,M,M,M,M,M,M,M,M,M,M,45.70,KTMT 051715Z AUTO 00000KT 10SM BKN032 08/00 A3001 RMK AO2 T00760004,M
10U,2025-05-05 17:15,-116.1876,41.9532,1637.00,44.60,28.40,52.72,340.00,10.00,0.00,30.04,M,10.00,M,CLR,M,M,M,M,M,M,M,M,M,M,M,M,M,M,38.77,K10U 051715Z AUTO 34010KT 10SM CLR 07/M02 A3004 RMK AO2,M
RTS,2025-05-05 17:25,-119.8764,39.6682,1539.00,50.00,17.60,27.33,60.00,15.00,0.00,30.07,M,10.00,M,CLR,M,M,M,M,M,M,M,M,M,M,M,M,M,M,50.00,KRTS 051725Z AUTO 06015KT 10SM CLR 10/M08 A3007 RMK AO2,M
MEV,2025-05-05 17:25,-119.7500,38.9963,1441.42,53.60,26.60,34.98,210.00,4.00,0.00,30.03,M,10.00,M,CLR,M,M,M,M,M,M,M,M,M,M,M,M,M,M,53.60,KMEV 051725Z AUTO 21004KT 10SM CLR 12/M03 A3003 RMK AO2,M
BVU,2025-05-05 17:35,-114.8611,35.9475,671.00,59.00,51.80,76.98,190.00,7.00,0.00,29.78,M,10.00,M,FEW,SCT,BKN,M,2100.00,4700.00,5500.00,M,M,M,M,M,M,M,M,59.00,KBVU 051735Z AUTO 19007KT 10SM FEW021 SCT047 BKN055 15/11 A2978 RMK AO2,M
BAM,2025-05-05 17:35,-116.8743,40.5990,1382.36,50.00,32.00,49.81,320.00,8.00,0.00,30.03,M,10.00,M,CLR,M,M,M,M,M,M,M,M,M,M,M,M,M,M,50.00,KBAM 051735Z AUTO 32008KT 10SM CLR 10/00 A3003 RMK AO1,M
CXP,2025-05-05 17:35,-119.7326,39.1923,1431.00,53.60,23.00,30.11,100.00,13.00,0.00,30.05,M,10.00,M,CLR,M,M,M,M,M,M,M,M,M,M,M,M,M,M,53.60,KCXP 051735Z AUTO 10013KT 10SM CLR 12/M05 A3005 RMK AO2,M
HTH,2025-05-05 17:35,-118.6315,38.5448,1282.89,51.80,26.60,37.38,350.00,15.00,0.00,30.03,M,10.00,23.00,CLR,M,M,M,M,M,M,M,M,M,M,M,M,M,M,51.80,KHTH 051735Z AUTO 35015G23KT 10SM CLR 11/M03 A3003 RMK A01,M
TMT,2025-05-05 17:35,-117.1971,39.4643,1749.34,46.20,33.40,60.76,310.00,6.00,0.00,30.01,M,10.00,M,OVC,M,M,M,3200.00,M,M,M,M,M,M,M,M,M,M,42.63,KTMT 051735Z AUTO 31006KT 10SM OVC032 08/01 A3001 RMK AO2 T00790008,M
10U,2025-05-05 17:35,-116.1876,41.9532,1637.00,44.60,28.40,52.72,330.00,7.00,0.00,30.04,M,10.00,13.00,CLR,M,M,M,M,M,M,M,M,M,M,M,M,M,M,40.14,K10U 051735Z AUTO 33007G13KT 10SM CLR 07/M02 A3004 RMK AO2,M
MEV,2025-05-05 17:45,-119.7500,38.9963,1441.42,53.60,28.40,37.67,M,3.00,0.00,30.03,M,10.00,10.00,CLR,M,M,M,M,M,M,M,M,M,M,M,M,M,M,53.60,KMEV 051745Z AUTO VRB03G10KT 10SM CLR 12/M02 A3003 RMK AO2,M
RTS,2025-05-05 17:45,-119.8764,39.6682,1539.00,50.00,17.60,27.33,50.00,13.00,0.00,30.07,M,10.00,18.00,CLR,M,M,M,M,M,M,M,M,M,M,M,M,M,M,50.00,KRTS 051745Z AUTO 05013G18KT 10SM CLR 10/M08 A3007 RMK AO2,M
P68,2025-05-05 17:53,-116.0056,39.6014,1993.00,49.00,35.00,58.30,20.00,12.00,0.00,29.95,1010.40,M,19.00,M,M,M,M,M,M,M,M,M,M,M,M,M,M,M,43.64,KP68 051753Z AUTO 02012G19KT 09/02 A2995 RMK AO1 SLP104 T00940017 10094 20044 51000,M
DRA,2025-05-05 17:53,-116.0278,36.6206,1009.00,57.00,49.00,74.55,50.00,9.00,0.01,29.79,1006.10,10.00,M,OVC,M,M,M,7000.00,M,M,M,M,M,M,M,M,M,M,57.00,KDRA 051753Z AUTO 05009KT 10SM OVC070 14/09 A2979 RMK AO2 RAE23 SLP061 P0001 60009 T01390094 10150 20128 51011,M
ELY,2025-05-05 17:53,-114.8453,39.2950,1909.00,49.00,39.00,68.25,10.00,13.00,0.00,29.87,1007.20,10.00,M,FEW,BKN,M,M,8500.00,11000.00,M,M,M,M,M,M,M,M,M,43.35,KELY 051753Z AUTO 01013KT 10SM FEW085 BKN110 09/04 A2987 RMK AO2 SLP072 60000 T00940039 10094 20050 58004,M
VGT,2025-05-05 17:53,-115.1933,36.2111,667.00,63.00,50.00,62.49,M,5.00,0.00,29.76,1008.40,10.00,M,BKN,M,M,M,7500.00,M,M,M,M,M,M,M,M,M,M,63.00,KVGT 051753Z VRB05KT 10SM BKN075 17/10 A2976 RMK AO2 SLP084 60000 T01720100 10172 20156 51010,M
LOL,2025-05-05 17:53,-118.5701,40.0684,1192.43,55.00,21.00,26.29,40.00,17.00,0.00,30.03,M,10.00,24.00,CLR,M,M,M,M,M,M,M,M,M,M,M,27.00,40.00,2025-05-05 17:21,55.00,KLOL 051753Z AUTO 04017G24KT 10SM CLR 13/M06 A3003 RMK AO2 PK WND 04027/1721 SLPNO 6//// T01281061,M
BVU,2025-05-05 17:55,-114.8611,35.9475,671.00,59.00,53.60,82.25,170.00,8.00,0.00,29.77,M,10.00,M,SCT,OVC,M,M,5000.00,6000.00,M,M,M,M,M,M,M,M,M,59.00,KBVU 051755Z AUTO 17008KT 10SM SCT050 OVC060 15/12 A2977 RMK AO2 LTG DSNT NE AND SW,M
RNO,2025-05-05 17:55,-119.7711,39.4839,1341.00,52.00,22.00,30.62,M,4.00,0.00,30.05,1015.30,10.00,M,CLR,M,M,M,M,M,M,M,M,M,M,M,M,M,M,52.00,KRNO 051755Z VRB04KT 10SM CLR 11/M06 A3005 RMK AO2 SLP153 T01111056 10122 20061 56004,M
BAM,2025-05-05 17:55,-116.8743,40.5990,1382.36,51.80,32.00,46.59,330.00,7.00,0.00,30.03,M,10.00,M,CLR,M,M,M,M,M,M,M,M,M,M,M,M,M,M,51.80,KBAM 051755Z AUTO 33007KT 10SM CLR 11/00 A3003 RMK AO1,M
CXP,2025-05-05 17:55,-119.7326,39.1923,1431.00,53.60,23.00,30.11,60.00,9.00,0.00,30.05,M,10.00,17.00,CLR,M,M,M,M,M,M,M,M,M,M,M,M,M,M,53.60,KCXP 051755Z AUTO 06009G17KT 10SM CLR 12/M05 A3005 RMK AO2,M
HTH,2025-05-05 17:55,-118.6315,38.5448,1282.89,53.60,26.60,34.98,340.00,15.00,0.00,30.02,M,10.00,21.00,CLR,M,M,M,M,M,M,M,M,M,M,M,M,M,M,53.60,KHTH 051755Z AUTO 34015G21KT 10SM CLR 12/M03 A3002 RMK A01,M
TMT,2025-05-05 17:55,-117.1971,39.4643,1749.34,47.00,33.40,58.95,330.00,11.00,0.00,30.02,M,10.00,14.00,OVC,M,M,M,3400.00,M,M,M,M,M,M,M,M,M,M,41.42,KTMT 051755Z AUTO 33011G14KT 10SM OVC034 08/01 A3002 RMK AO2 T00830008 10087 20043,M
10U,2025-05-05 17:55,-116.1876,41.9532,1637.00,46.40,26.60,45.73,M,4.00,0.00,30.04,M,10.00,M,CLR,M,M,M,M,M,M,M,M,M,M,M,M,M,M,44.24,K10U 051755Z AUTO VRB04KT 10SM CLR 08/M03 A3004 RMK AO2,M
EKO,2025-05-05 17:56,-115.7860,40.8242,1367.00,54.00,30.00,39.63,M,M,0.00,29.94,1011.70,10.00,M,CLR,M,M,M,M,M,M,M,M,M,M,M,M,M,M,54.00,KEKO 051756Z AUTO 10SM CLR 12/M01 A2994 RMK AO2 SLP117 T01221011 10122 20056 58002,M
WMC,2025-05-05 17:56,-117.8072,40.9019,1315.00,53.00,25.00,33.46,340.00,12.00,0.00,30.04,1015.50,10.00,21.00,CLR,M,M,M,M,M,M,M,M,M,M,M,M,M,M,53.00,KWMC 051756Z AUTO 34012G21KT 10SM CLR 12/M04 A3004 RMK AO2 SLP155 T01171039 10117 20011 58007,M
HND,2025-05-05 17:56,-115.1344,35.9729,742.79,63.00,50.00,62.49,170.00,11.00,T,29.79,1009.20,10.00,M,FEW,SCT,M,M,6500.00,8000.00,M,M,M,M,M,M,M,M,M,63.00,KHND 051756Z 17011KT 10SM FEW065 SCT080 17/10 A2979 RMK AO2 RAE18 SLP092 P0000 60001 T01720100 10178 20139 50009 $,M
TPH,2025-05-05 17:56,-117.0904,38.0505,1654.00,57.00,35.00,43.46,300.00,21.00,0.00,29.90,1008.70,10.00,33.00,FEW,M,M,M,4400.00,M,M,M,M,M,M,M,33.00,300.00,2025-05-05 17:54,57.00,KTPH 051756Z AUTO 30021G33KT 10SM FEW044 14/02 A2990 RMK AO2 PK WND 30033/1754 SLP087 T01390017 10139 20089 51001,M
LAS,2025-05-05 17:56,-115.1634,36.0719,663.00,63.00,52.00,67.29,150.00,5.00,T,29.78,1007.00,10.00,M,FEW,SCT,BKN,BKN,2800.00,3400.00,6000.00,20000.00,M,M,M,M,M,M,M,63.00,KLAS 051756Z 15005KT 10SM FEW028 SCT034 BKN060 BKN200 17/11 A2978 RMK AO2 RAE04 SLP070 P0000 60001 T01720111 10183 20156 51010,M
BVU,2025-05-05 18:15,-114.8611,35.9475,671.00,59.00,53.60,82.25,150.00,10.00,0.00,29.77,M,10.00,M,SCT,BKN,OVC,M,1600.00,6000.00,7000.00,M,M,M,M,M,M,M,M,59.00,KBVU 051815Z AUTO 15010KT 10SM SCT016 BKN060 OVC070 15/12 A2977 RMK AO2,M
BAM,2025-05-05 18:15,-116.8743,40.5990,1382.36,53.60,32.00,43.61,310.00,11.00,0.00,30.02,M,10.00,17.00,CLR,M,M,M,M,M,M,M,M,M,M,M,M,M,M,53.60,KBAM 051815Z AUTO 31011G17KT 10SM CLR 12/00 A3002 RMK AO1,M
CXP,2025-05-05 18:15,-119.7326,39.1923,1431.00,53.60,23.00,30.11,90.00,8.00,0.00,30.05,M,10.00,16.00,CLR,M,M,M,M,M,M,M,M,M,M,M,M,M,M,53.60,KCXP 051815Z AUTO 09008G16KT 10SM CLR 12/M05 A3005 RMK AO2,M
HTH,2025-05-05 18:15,-118.6315,38.5448,1282.89,53.60,28.40,37.67,360.00,17.00,0.00,30.02,M,10.00,M,CLR,M,M,M,M,M,M,M,M,M,M,M,M,M,M,53.60,KHTH 051815Z AUTO 36017KT 10SM CLR 12/M02 A3002 RMK A01,M
TMT,2025-05-05 18:15,-117.1971,39.4643,1749.34,47.50,32.50,55.80,320.00,9.00,0.00,30.02,M,10.00,15.00,OVC,M,M,M,3800.00,M,M,M,M,M,M,M,M,M,M,42.79,KTMT 051815Z AUTO 32009G15KT 10SM OVC038 09/00 A3002 RMK AO2 T00860003,M
10U,2025-05-05 18:15,-116.1876,41.9532,1637.00,46.40,28.40,49.24,330.00,8.00,0.00,30.03,M,10.00,18.00,CLR,M,M,M,M,M,M,M,M,M,M,M,M,M,M,41.85,K10U 051815Z AUTO 33008G18KT 290V350 10SM CLR 08/M02 A3003 RMK AO2,M
BVU,2025-05-05 18:35,-114.8611,35.9475,671.00,59.00,53.60,82.25,170.00,7.00,0.00,29.76,M,10.00,12.00,BKN,OVC,M,M,1600.00,7000.00,M,M,M,M,M,M,M,M,M,59.00,KBVU 051835Z AUTO 17007G12KT 10SM BKN016 OVC070 15/12 A2976 RMK AO2,M
BAM,2025-05-05 18:35,-116.8743,40.5990,1382.36,53.60,32.00,43.61,330.00,12.00,0.00,30.01,M,10.00,19.00,CLR,M,M,M,M,M,M,M,M,M,M,M,M,M,M,53.60,KBAM 051835Z AUTO 33012G19KT 300V360 10SM CLR 12/00 A3001 RMK AO1,M
CXP,2025-05-05 18:35,-119.7326,39.1923,1431.00,53.60,23.00,30.11,80.00,10.00,0.00,30.05,M,10.00,17.00,CLR,M,M,M,M,M,M,M,M,M,M,M,M,M,M,53.60,KCXP 051835Z AUTO 08010G17KT 10SM CLR 12/M05 A3005 RMK AO2,M
RTS,2025-05-05 18:35,-119.8764,39.6682,1539.00,51.80,17.60,25.56,70.00,14.00,0.00,30.06,M,10.00,M,CLR,M,M,M,M,M,M,M,M,M,M,M,M,M,M,51.80,KRTS 051835Z AUTO 07014KT 10SM CLR 11/M08 A3006 RMK AO2,M
MEV,2025-05-05 18:35,-119.7500,38.9963,1441.42,55.40,24.80,30.40,M,4.00,0.00,30.02,M,10.00,M,CLR,M,M,M,M,M,M,M,M,M,M,M,M,M,M,55.40,KMEV 051835Z AUTO VRB04KT 10SM CLR 13/M04 A3002 RMK AO2,M
HTH,2025-05-05 18:35,-118.6315,38.5448,1282.89,53.60,28.40,37.67,340.00,18.00,0.00,30.01,M,10.00,24.00,CLR,M,M,M,M,M,M,M,M,M,M,M,M,M,M,53.60,KHTH 051835Z AUTO 34018G24KT 10SM CLR 12/M02 A3001 RMK A01,M
TMT,2025-05-05 18:35,-117.1971,39.4643,1749.34,49.00,32.00,51.70,360.00,8.00,0.00,30.02,M,10.00,M,BKN,M,M,M,4000.00,M,M,M,M,M,M,M,M,M,M,45.05,KTMT 051835Z AUTO 36008KT 10SM BKN040 10/00 A3002 RMK AO2 T00951001,M
10U,2025-05-05 18:35,-116.1876,41.9532,1637.00,46.40,28.40,49.24,320.00,9.00,0.00,30.02,M,10.00,15.00,CLR,M,M,M,M,M,M,M,M,M,M,M,M,M,M,41.42,K10U 051835Z AUTO 32009G15KT 10SM CLR 08/M02 A3002 RMK AO2,M
P68,2025-05-05 18:53,-116.0056,39.6014,1993.00,51.00,35.00,54.12,360.00,13.00,0.00,29.94,1009.90,M,M,M,M,M,M,M,M,M,M,M,M,M,M,M,M,M,51.00,KP68 051853Z AUTO 36013KT 11/02 A2994 RMK AO1 SLP099 T01060017,M
DRA,2025-05-05 18:53,-116.0278,36.6206,1009.00,58.00,49.00,71.91,50.00,9.00,0.00,29.79,1005.90,10.00,M,OVC,M,M,M,5500.00,M,M,M,M,M,M,M,M,M,M,58.00,KDRA 051853Z AUTO 05009KT 10SM OVC055 14/09 A2979 RMK AO2 SLP059 T01440094,M
ELY,2025-05-05 18:53,-114.8453,39.2950,1909.00,54.00,38.00,54.56,10.00,17.00,0.00,29.86,1005.70,10.00,24.00,FEW,FEW,SCT,M,3200.00,4000.00,11000.00,M,M,M,M,M,M,M,M,54.00,KELY 051853Z AUTO 01017G24KT 10SM FEW032 FEW040 SCT110 12/03 A2986 RMK AO2 SLP057 T01220033,M
VGT,2025-05-05 18:53,-115.1933,36.2111,667.00,67.00,48.00,50.44,M,4.00,0.00,29.74,1007.40,10.00,M,FEW,M,M,M,7500.00,M,M,M,M,M,M,M,M,M,M,67.00,KVGT 051853Z VRB04KT 10SM FEW075 19/09 A2974 RMK AO2 SLP074 T01940089,M
LOL,2025-05-05 18:53,-118.5701,40.0684,1192.43,59.00,20.00,21.81,30.00,15.00,0.00,30.01,M,10.00,24.00,CLR,M,M,M,M,M,M,M,M,M,M,M,29.00,60.00,2025-05-05 18:41,59.00,KLOL 051853Z AUTO 03015G24KT 10SM CLR 15/M07 A3001 RMK AO2 PK WND 06029/1841 SLPNO T01501067,M
BAM,2025-05-05 18:55,-116.8743,40.5990,1382.36,53.60,30.20,40.54,340.00,16.00,0.00,30.01,M,10.00,19.00,CLR,M,M,M,M,M,M,M,M,M,M,M,M,M,M,53.60,KBAM 051855Z AUTO 34016G19KT 10SM CLR 12/M01 A3001 RMK AO1,M
CXP,2025-05-05 18:55,-119.7326,39.1923,1431.00,55.40,23.00,28.20,90.00,10.00,0.00,30.04,M,10.00,15.00,CLR,M,M,M,M,M,M,M,M,M,M,M,M,M,M,55.40,KCXP 051855Z AUTO 09010G15KT 070V140 10SM CLR 13/M05 A3004 RMK AO2,M
RTS,2025-05-05 18:55,-119.8764,39.6682,1539.00,53.60,15.80,22.13,50.00,14.00,0.00,30.06,M,10.00,19.00,CLR,M,M,M,M,M,M,M,M,M,M,M,M,M,M,53.60,KRTS 051855Z AUTO 05014G19KT 10SM CLR 12/M09 A3006 RMK AO2,M
MEV,2025-05-05 18:55,-119.7500,38.9963,1441.42,55.40,26.60,32.76,90.00,7.00,0.00,30.02,M,10.00,12.00,CLR,M,M,M,M,M,M,M,M,M,M,M,M,M,M,55.40,KMEV 051855Z AUTO 09007G12KT 10SM CLR 13/M03 A3002 RMK AO2,M
HTH,2025-05-05 18:55,-118.6315,38.5448,1282.89,55.40,28.40,35.28,330.00,13.00,0.00,30.01,M,10.00,22.00,CLR,M,M,M,M,M,M,M,M,M,M,M,M,M,M,55.40,KHTH 051855Z AUTO 33013G22KT 10SM CLR 13/M02 A3001 RMK A01,M
TMT,2025-05-05 18:55,-117.1971,39.4643,1749.34,50.40,32.50,50.07,10.00,8.00,0.00,30.01,M,10.00,16.00,SCT,M,M,M,4400.00,M,M,M,M,M,M,M,M,M,M,50.40,KTMT 051855Z AUTO 01008G16KT 10SM SCT044 10/00 A3001 RMK AO2 T01020003,M
10U,2025-05-05 18:55,-116.1876,41.9532,1637.00,48.20,28.40,46.02,350.00,7.00,0.00,30.01,M,10.00,12.00,CLR,M,M,M,M,M,M,M,M,M,M,M,M,M,M,44.53,K10U 051855Z AUTO 35007G12KT 10SM CLR 09/M02 A3001 RMK AO2,M
BVU,2025-05-05 18:55,-114.8611,35.9475,671.00,60.80,53.60,77.14,170.00,7.00,0.00,29.75,M,10.00,M,SCT,BKN,BKN,M,1700.00,2400.00,6000.00,M,M,M,M,M,M,M,M,60.80,KBVU 051855Z AUTO 17007KT 10SM SCT017 BKN024 BKN060 16/12 A2975 RMK AO2,M
RNO,2025-05-05 18:55,-119.7711,39.4839,1341.00,57.00,22.00,25.51,M,4.00,0.00,30.03,1014.40,10.00,M,CLR,M,M,M,M,M,M,M,M,M,M,M,M,M,M,57.00,KRNO 051855Z VRB04KT 10SM CLR 14/M06 A3003 RMK AO2 SLP144 T01391056,M
HND,2025-05-05 18:56,-115.1344,35.9729,742.79,65.00,48.00,54.07,M,3.00,0.00,29.77,1008.50,10.00,M,SCT,M,M,M,7000.00,M,M,M,M,M,M,M,M,M,M,65.00,KHND 051856Z VRB03KT 10SM SCT070 18/09 A2977 RMK AO2 SLP085 T01830089 $,M
TPH,2025-05-05 18:56,-117.0904,38.0505,1654.00,59.00,35.00,40.45,320.00,21.00,0.00,29.89,1008.10,10.00,30.00,CLR,M,M,M,M,M,M,M,M,M,M,M,30.00,310.00,2025-05-05 18:32,59.00,KTPH 051856Z AUTO 32021G30KT 10SM CLR 15/02 A2989 RMK AO2 PK WND 31030/1832 SLP081 T01500017,M
LAS,2025-05-05 18:56,-115.1634,36.0719,663.00,65.00,49.00,56.13,0.00,0.00,0.00,29.75,1006.10,10.00,M,FEW,SCT,BKN,BKN,2800.00,4000.00,6000.00,20000.00,M,M,M,M,M,M,M,65.00,KLAS 051856Z 00000KT 10SM FEW028 SCT040 BKN060 BKN200 18/09 A2975 RMK AO2 SLP061 T01830094,M
EKO,2025-05-05 18:56,-115.7860,40.8242,1367.00,57.00,32.00,38.54,30.00,8.00,0.00,29.92,1010.50,10.00,17.00,SCT,M,M,M,5000.00,M,M,M,M,M,M,M,M,M,M,57.00,KEKO 051856Z AUTO 03008G17KT 360V060 10SM SCT050 14/00 A2992 RMK AO2 SLP105 T01390000,M
WMC,2025-05-05 18:56,-117.8072,40.9019,1315.00,55.00,23.00,28.61,340.00,14.00,0.00,30.02,1014.90,10.00,26.00,CLR,M,M,M,M,M,M,M,M,M,M,M,26.00,360.00,2025-05-05 18:53,55.00,KWMC 051856Z AUTO 34014G26KT 10SM CLR 13/M05 A3002 RMK AO2 PK WND 36026/1853 SLP149 T01281050,M
NFL,2025-05-05 18:57,-118.7010,39.4166,1199.00,58.00,27.00,30.32,M,6.00,0.00,30.01,1013.30,10.00,M,SCT,SCT,M,M,6000.00,12000.00,M,M,M,M,M,M,M,M,M,58.00,KNFL 051857Z VRB06KT 10SM SCT060 SCT120 14/M03 A3001 RMK AO2 SLP133 T01441028,M
BVU,2025-05-05 19:15,-114.8611,35.9475,671.00,60.80,51.80,72.20,230.00,8.00,0.00,29.75,M,10.00,M,BKN,BKN,OVC,M,2000.00,6000.00,7500.00,M,M,M,M,M,M,M,M,60.80,KBVU 051915Z AUTO 23008KT 10SM BKN020 BKN060 OVC075 16/11 A2975 RMK AO2,M
BAM,2025-05-05 19:15,-116.8743,40.5990,1382.36,55.40,30.20,37.97,340.00,13.00,0.00,30.00,M,10.00,18.00,CLR,M,M,M,M,M,M,M,M,M,M,M,M,M,M,55.40,KBAM 051915Z AUTO 34013G18KT 10SM CLR 13/M01 A3000 RMK AO1,M
CXP,2025-05-05 19:15,-119.7326,39.1923,1431.00,55.40,21.20,26.13,M,4.00,0.00,30.04,M,10.00,16.00,CLR,M,M,M,M,M,M,M,M,M,M,M,M,M,M,55.40,KCXP 051915Z AUTO VRB04G16KT 10SM CLR 13/M06 A3004 RMK AO2,M
RTS,2025-05-05 19:15,-119.8764,39.6682,1539.00,51.80,14.00,21.86,50.00,12.00,0.00,30.05,M,10.00,19.00,CLR,M,M,M,M,M,M,M,M,M,M,M,M,M,M,51.80,KRTS 051915Z AUTO 05012G19KT 10SM CLR 11/M10 A3005 RMK AO2,M
MEV,2025-05-05 19:15,-119.7500,38.9963,1441.42,57.20,26.60,30.69,M,4.00,0.00,30.01,M,10.00,10.00,CLR,M,M,M,M,M,M,M,M,M,M,M,M,M,M,57.20,KMEV 051915Z AUTO VRB04G10KT 10SM CLR 14/M03 A3001 RMK AO2,M
HTH,2025-05-05 19:15,-118.6315,38.5448,1282.89,57.20,28.40,33.05,340.00,11.00,0.00,30.00,M,10.00,18.00,CLR,M,M,M,M,M,M,M,M,M,M,M,M,M,M,57.20,KHTH 051915Z AUTO 34011G18KT 10SM CLR 14/M02 A3000 RMK A01,M
TMT,2025-05-05 19:15,-117.1971,39.4643,1749.34,50.70,33.40,51.34,320.00,6.00,0.00,30.00,M,10.00,15.00,BKN,M,M,M,4400.00,M,M,M,M,M,M,M,M,M,M,50.70,KTMT 051915Z AUTO 32006G15KT 10SM BKN044 10/01 A3000 RMK AO2 T01040008,M
10U,2025-05-05 19:15,-116.1876,41.9532,1637.00,50.00,30.20,46.31,M,6.00,0.00,30.00,M,10.00,14.00,CLR,M,M,M,M,M,M,M,M,M,M,M,M,M,M,50.00,K10U 051915Z AUTO VRB06G14KT 10SM CLR 10/M01 A3000 RMK AO2,M
RTS,2025-05-05 19:25,-119.8764,39.6682,1539.00,53.60,15.80,22.13,70.00,9.00,0.00,30.05,M,10.00,16.00,CLR,M,M,M,M,M,M,M,M,M,M,M,M,M,M,53.60,KRTS 051925Z AUTO 07009G16KT 10SM CLR 12/M09 A3005 RMK AO2,M
MEV,2025-05-05 19:25,-119.7500,38.9963,1441.42,57.20,26.60,30.69,M,5.00,0.00,30.00,M,10.00,11.00,CLR,M,M,M,M,M,M,M,M,M,M,M,M,M,M,57.20,KMEV 051925Z AUTO VRB05G11KT 10SM CLR 14/M03 A3000 RMK AO2,M
BVU,2025-05-05 19:35,-114.8611,35.9475,671.00,62.60,51.80,67.75,M,5.00,0.00,29.74,M,10.00,M,SCT,BKN,BKN,M,2200.00,6500.00,7500.00,M,M,M,M,M,M,M,M,62.60,KBVU 051935Z AUTO VRB05KT 10SM SCT022 BKN065 BKN075 17/11 A2974 RMK AO2,M
BAM,2025-05-05 19:35,-116.8743,40.5990,1382.36,57.20,30.20,35.57,320.00,15.00,0.00,29.99,M,10.00,20.00,CLR,M,M,M,M,M,M,M,M,M,M,M,M,M,M,57.20,KBAM 051935Z AUTO 32015G20KT 10SM CLR 14/M01 A2999 RMK AO1,M
CXP,2025-05-05 19:35,-119.7326,39.1923,1431.00,57.20,23.00,26.42,70.00,7.00,0.00,30.03,M,10.00,17.00,CLR,M,M,M,M,M,M,M,M,M,M,M,M,M,M,57.20,KCXP 051935Z AUTO 07007G17KT 040V110 10SM CLR 14/M05 A3003 RMK AO2,M
HTH,2025-05-05 19:35,-118.6315,38.5448,1282.89,57.20,28.40,33.05,350.00,15.00,0.00,30.00,M,10.00,22.00,CLR,M,M,M,M,M,M,M,M,M,M,M,M,M,M,57.20,KHTH 051935Z AUTO 35015G22KT 10SM CLR 14/M02 A3000 RMK A01,M
TMT,2025-05-05 19:35,-117.1971,39.4643,1749.34,50.50,32.50,49.88,340.00,8.00,0.00,30.00,M,10.00,14.00,SCT,M,M,M,4400.00,M,M,M,M,M,M,M,M,M,M,50.50,KTMT 051935Z AUTO 34008G14KT 10SM SCT044 10/00 A3000 RMK AO2 T01030003,M
10U,2025-05-05 19:35,-116.1876,41.9532,1637.00,50.00,28.40,43.03,270.00,7.00,0.00,29.99,M,10.00,13.00,CLR,M,M,M,M,M,M,M,M,M,M,M,M,M,M,50.00,K10U 051935Z AUTO 27007G13KT 230V300 10SM CLR 10/M02 A2999 RMK AO2,M
MEV,2025-05-05 19:45,-119.7500,38.9963,1441.42,57.20,26.60,30.69,210.00,4.00,0.00,30.00,M,10.00,M,CLR,M,M,M,M,M,M,M,M,M,M,M,M,M,M,57.20,KMEV 051945Z AUTO 21004KT 10SM CLR 14/M03 A3000 RMK AO2,M
RTS,2025-05-05 19:45,-119.8764,39.6682,1539.00,53.60,14.00,20.46,60.00,11.00,0.00,30.05,M,10.00,18.00,CLR,M,M,M,M,M,M,M,M,M,M,M,M,M,M,53.60,KRTS 051945Z AUTO 06011G18KT 020V080 10SM CLR 12/M10 A3005 RMK AO2,M
P68,2025-05-05 19:53,-116.0056,39.6014,1993.00,54.00,35.00,48.46,350.00,13.00,0.00,29.93,1009.20,M,22.00,M,M,M,M,M,M,M,M,M,M,M,M,M,M,M,54.00,KP68 051953Z AUTO 35013G22KT 12/02 A2993 RMK AO1 SLP092 T01220017,M
DRA,2025-05-05 19:53,-116.0278,36.6206,1009.00,64.00,48.00,55.99,130.00,5.00,0.00,29.76,1004.90,10.00,M,SCT,M,M,M,11000.00,M,M,M,M,M,M,M,M,M,M,64.00,KDRA 051953Z AUTO 13005KT 10SM SCT110 18/09 A2976 RMK AO2 SLP049 T01780089,M
ELY,2025-05-05 19:53,-114.8453,39.2950,1909.00,56.00,36.00,46.88,360.00,13.00,0.00,29.84,1004.80,10.00,24.00,BKN,OVC,M,M,4100.00,5000.00,M,M,M,M,M,M,28.00,350.00,2025-05-05 19:16,56.00,KELY 051953Z AUTO 36013G24KT 10SM BKN041 OVC050 13/02 A2984 RMK AO2 PK WND 35028/1916 SLP048 T01330022,M
VGT,2025-05-05 19:53,-115.1933,36.2111,667.00,68.00,49.00,50.59,340.00,7.00,0.00,29.72,1006.80,10.00,M,SCT,OVC,M,M,3900.00,8500.00,M,M,M,M,M,M,M,M,M,68.00,KVGT 051953Z 34007KT 280V010 10SM SCT039 OVC085 20/09 A2972 RMK AO2 SLP068 T02000094,M
LOL,2025-05-05 19:53,-118.5701,40.0684,1192.43,61.00,18.00,18.64,30.00,12.00,0.00,29.99,M,10.00,20.00,CLR,M,M,M,M,M,M,M,M,M,M,M,27.00,50.00,2025-05-05 19:10,61.00,KLOL 051953Z AUTO 03012G20KT 10SM CLR 16/M08 A2999 RMK AO2 PK WND 05027/1910 SLPNO T01611078,M
CXP,2025-05-05 19:55,-119.7326,39.1923,1431.00,57.20,23.00,26.42,80.00,10.00,0.00,30.02,M,10.00,17.00,CLR,M,M,M,M,M,M,M,M,M,M,M,M,M,M,57.20,KCXP 051955Z AUTO 08010G17KT 10SM CLR 14/M05 A3002 RMK AO2,M
HTH,2025-05-05 19:55,-118.6315,38.5448,1282.89,57.20,26.60,30.69,360.00,14.00,0.00,30.00,M,10.00,21.00,CLR,M,M,M,M,M,M,M,M,M,M,M,M,M,M,57.20,KHTH 051955Z AUTO 36014G21KT 330V030 10SM CLR 14/M03 A3000 RMK A01,M
TMT,2025-05-05 19:55,-117.1971,39.4643,1749.34,51.00,32.00,47.99,350.00,6.00,0.00,29.99,M,10.00,M,SCT,M,M,M,4700.00,M,M,M,M,M,M,M,M,M,M,51.00,KTMT 051955Z AUTO 35006KT 10SM SCT047 11/00 A2999 RMK AO2 T01051001,M
10U,2025-05-05 19:55,-116.1876,41.9532,1637.00,51.80,30.20,43.32,360.00,12.00,0.00,29.99,M,10.00,M,CLR,M,M,M,M,M,M,M,M,M,M,M,M,M,M,51.80,K10U 051955Z AUTO 36012KT 10SM CLR 11/M01 A2999 RMK AO2,M
BVU,2025-05-05 19:55,-114.8611,35.9475,671.00,64.40,53.60,67.95,160.00,8.00,0.00,29.74,M,10.00,M,SCT,SCT,BKN,M,2100.00,2900.00,6500.00,M,M,M,M,M,M,M,M,64.40,KBVU 051955Z AUTO 16008KT 10SM SCT021 SCT029 BKN065 18/12 A2974 RMK AO2,M
RNO,2025-05-05 19:55,-119.7711,39.4839,1341.00,57.00,22.00,25.51,M,3.00,0.00,30.02,1013.80,10.00,M,CLR,M,M,M,M,M,M,M,M,M,M,M,M,M,M,57.00,KRNO 051955Z VRB03KT 10SM CLR 14/M06 A3002 RMK AO2 SLP138 T01391056,M
BAM,2025-05-05 19:55,-116.8743,40.5990,1382.36,59.00,30.20,33.35,330.00,13.00,0.00,29.99,M,10.00,21.00,CLR,M,M,M,M,M,M,M,M,M,M,M,M,M,M,59.00,KBAM 051955Z AUTO 33013G21KT 10SM CLR 15/M01 A2999 RMK AO1,M
EKO,2025-05-05 19:56,-115.7860,40.8242,1367.00,57.00,33.00,40.12,280.00,8.00,0.00,29.90,1009.80,10.00,17.00,OVC,M,M,M,5000.00,M,M,M,M,M,M,M,M,M,M,57.00,KEKO 051956Z AUTO 28008G17KT 10SM OVC050 14/01 A2990 RMK AO2 SLP098 T01390006,M
WMC,2025-05-05 19:56,-117.8072,40.9019,1315.00,58.00,23.00,25.67,360.00,18.00,0.00,30.00,1013.90,10.00,25.00,CLR,M,M,M,M,M,M,M,M,M,M,M,26.00,340.00,2025-05-05 19:07,58.00,KWMC 051956Z AUTO 36018G25KT 10SM CLR 14/M05 A3000 RMK AO2 PK WND 34026/1907 SLP139 T01441050,M
HND,2025-05-05 19:56,-115.1344,35.9729,742.79,68.00,48.00,48.73,160.00,4.00,0.00,29.75,1007.70,10.00,M,BKN,OVC,M,M,4300.00,5500.00,M,M,M,M,M,M,M,M,M,68.00,KHND 051956Z 16004KT 10SM BKN043 OVC055 20/09 A2975 RMK AO2 SLP077 T02000089 $,M
TPH,2025-05-05 19:56,-117.0904,38.0505,1654.00,62.00,35.00,36.35,310.00,28.00,0.00,29.86,1006.90,10.00,38.00,CLR,M,M,M,M,M,M,M,M,M,M,M,38.00,310.00,2025-05-05 19:48,62.00,KTPH 051956Z AUTO 31028G38KT 10SM CLR 17/02 A2986 RMK AO2 PK WND 31038/1948 SLP069 T01670017,M
LAS,2025-05-05 19:56,-115.1634,36.0719,663.00,68.00,48.00,48.73,50.00,5.00,0.00,29.73,1005.30,10.00,M,FEW,BKN,BKN,M,3000.00,5000.00,20000.00,M,M,M,M,M,M,M,M,68.00,KLAS 051956Z 05005KT 10SM FEW030 BKN050 BKN200 20/09 A2973 RMK AO2 SLP053 T02000089,M
NFL,2025-05-05 19:57,-118.7010,39.4166,1199.00,60.00,28.00,29.41,360.00,8.00,0.00,29.98,1012.50,10.00,17.00,SCT,SCT,M,M,6000.00,12000.00,M,M,M,M,M,M,M,M,M,60.00,KNFL 051957Z 36008G17KT 320V030 10SM SCT060 SCT120 16/M02 A2998 RMK AO2 SLP125 T01561022,M
BVU,2025-05-05 20:15,-114.8611,35.9475,671.00,62.60,51.80,67.75,140.00,5.00,0.00,29.73,M,10.00,M,FEW,BKN,M,M,2100.00,7000.00,M,M,M,M,M,M,M,M,M,62.60,KBVU 052015Z AUTO 14005KT 10SM FEW021 BKN070 17/11 A2973 RMK AO2,M
BAM,2025-05-05 20:15,-116.8743,40.5990,1382.36,59.00,30.20,33.35,340.00,12.00,0.00,29.98,M,10.00,20.00,CLR,M,M,M,M,M,M,M,M,M,M,M,M,M,M,59.00,KBAM 052015Z AUTO 34012G20KT 10SM CLR 15/M01 A2998 RMK AO1,M
CXP,2025-05-05 20:15,-119.7326,39.1923,1431.00,59.00,21.20,22.95,70.00,9.00,0.00,30.02,M,10.00,15.00,CLR,M,M,M,M,M,M,M,M,M,M,M,M,M,M,59.00,KCXP 052015Z AUTO 07009G15KT 10SM CLR 15/M06 A3002 RMK AO2,M
RTS,2025-05-05 20:15,-119.8764,39.6682,1539.00,55.40,12.20,17.70,50.00,14.00,0.00,30.03,M,10.00,19.00,CLR,M,M,M,M,M,M,M,M,M,M,M,M,M,M,55.40,KRTS 052015Z AUTO 05014G19KT 10SM CLR 13/M11 A3003 RMK AO2,M
MEV,2025-05-05 20:15,-119.7500,38.9963,1441.42,59.00,26.60,28.77,M,6.00,0.00,29.99,M,10.00,11.00,CLR,M,M,M,M,M,M,M,M,M,M,M,M,M,M,59.00,KMEV 052015Z AUTO VRB06G11KT 10SM CLR 15/M03 A2999 RMK AO2,M
HTH,2025-05-05 20:15,-118.6315,38.5448,1282.89,57.20,26.60,30.69,330.00,14.00,0.00,29.99,M,10.00,22.00,CLR,M,M,M,M,M,M,M,M,M,M,M,M,M,M,57.20,KHTH 052015Z AUTO 33014G22KT 10SM CLR 14/M03 A2999 RMK A01,M
TMT,2025-05-05 20:15,-117.1971,39.4643,1749.34,52.70,33.00,46.92,20.00,9.00,0.00,29.99,M,10.00,M,SCT,M,M,M,4900.00,M,M,M,M,M,M,M,M,M,M,52.70,KTMT 052015Z AUTO 02009KT 10SM SCT049 12/01 A2999 RMK AO2 T01150006,M
10U,2025-05-05 20:15,-116.1876,41.9532,1637.00,53.60,30.20,40.54,310.00,11.00,0.00,29.98,M,10.00,M,CLR,M,M,M,M,M,M,M,M,M,M,M,M,M,M,53.60,K10U 052015Z AUTO 31011KT 10SM CLR 12/M01 A2998 RMK AO2,M
BVU,2025-05-05 20:35,-114.8611,35.9475,671.00,62.60,51.80,67.75,170.00,4.00,0.00,29.73,M,10.00,M,BKN,BKN,M,M,7000.00,8000.00,M,M,M,M,M,M,M,M,M,62.60,KBVU 052035Z AUTO 17004KT 10SM BKN070 BKN080 17/11 A2973 RMK AO2,M
BAM,2025-05-05 20:35,-116.8743,40.5990,1382.36,59.00,28.40,30.98,350.00,10.00,0.00,29.97,M,10.00,17.00,CLR,M,M,M,M,M,M,M,M,M,M,M,M,M,M,59.00,KBAM 052035Z AUTO 35010G17KT 10SM CLR 15/M02 A2997 RMK AO1,M
CXP,2025-05-05 20:35,-119.7326,39.1923,1431.00,59.00,21.20,22.95,90.00,8.00,0.00,30.02,M,10.00,16.00,CLR,M,M,M,M,M,M,M,M,M,M,M,M,M,M,59.00,KCXP 052035Z AUTO 09008G16KT 10SM CLR 15/M06 A3002 RMK AO2,M
RTS,2025-05-05 20:35,-119.8764,39.6682,1539.00,55.40,12.20,17.70,80.00,8.00,0.00,30.04,M,10.00,17.00,CLR,M,M,M,M,M,M,M,M,M,M,M,M,M,M,55.40,KRTS 052035Z AUTO 08008G17KT 10SM CLR 13/M11 A3004 RMK AO2,M
MEV,2025-05-05 20:35,-119.7500,38.9963,1441.42,59.00,26.60,28.77,180.00,8.00,0.00,29.99,M,10.00,M,CLR,M,M,M,M,M,M,M,M,M,M,M,M,M,M,59.00,KMEV 052035Z AUTO 18008KT 10SM CLR 15/M03 A2999 RMK AO2,M
HTH,2025-05-05 20:35,-118.6315,38.5448,1282.89,59.00,26.60,28.77,330.00,16.00,0.00,29.98,M,10.00,21.00,CLR,M,M,M,M,M,M,M,M,M,M,M,M,M,M,59.00,KHTH 052035Z AUTO 33016G21KT 10SM CLR 15/M03 A2998 RMK A01,M
TMT,2025-05-05 20:35,-117.1971,39.4643,1749.34,53.00,32.40,45.30,320.00,7.00,0.00,29.99,M,10.00,15.00,SCT,M,M,M,4900.00,M,M,M,M,M,M,M,M,M,M,53.00,KTMT 052035Z AUTO 32007G15KT 10SM SCT049 12/00 A2999 RMK AO2 T01170002,M
10U,2025-05-05 20:35,-116.1876,41.9532,1637.00,53.60,28.40,37.67,300.00,8.00,0.00,29.97,M,10.00,14.00,CLR,M,M,M,M,M,M,M,M,M,M,M,M,M,M,53.60,K10U 052035Z AUTO 30008G14KT 10SM CLR 12/M02 A2997 RMK AO2,M
P68,2025-05-05 20:53,-116.0056,39.6014,1993.00,56.00,33.00,41.60,10.00,13.00,0.00,29.91,1008.30,M,21.00,M,M,M,M,M,M,M,M,M,M,M,M,M,M,M,56.00,KP68 052053Z AUTO 01013G21KT 13/01 A2991 RMK AO1 SLP083 T01330006 58011,M
DRA,2025-05-05 20:53,-116.0278,36.6206,1009.00,69.00,45.00,42.04,60.00,7.00,0.00,29.75,1004.00,10.00,M,FEW,M,M,M,7000.00,M,M,M,M,M,M,M,M,M,M,69.00,KDRA 052053Z AUTO 06007KT 010V090 10SM FEW070 21/07 A2975 RMK AO2 SLP040 T02060072 58014,M
ELY,2025-05-05 20:53,-114.8453,39.2950,1909.00,58.00,36.00,43.62,360.00,19.00,0.00,29.83,1004.30,10.00,27.00,SCT,OVC,M,M,4700.00,5500.00,M,M,M,M,M,M,28.00,340.00,2025-05-05 20:06,58.00,KELY 052053Z AUTO 36019G27KT 10SM SCT047 OVC055 14/02 A2983 RMK AO2 PK WND 34028/2006 SLP043 T01440022 56011,M
VGT,2025-05-05 20:53,-115.1933,36.2111,667.00,66.00,48.00,52.22,140.00,9.00,T,29.71,1006.60,10.00,M,OVC,M,M,M,8000.00,M,M,M,M,M,M,M,M,M,M,66.00,KVGT 052053Z 14009KT 10SM OVC080 19/09 A2971 RMK AO2 LTG DSNT NE RAB14E48 SLP066 P0000 60000 T01890089 56016,M
LOL,2025-05-05 20:53,-118.5701,40.0684,1192.43,64.00,18.00,16.77,30.00,17.00,0.00,29.97,M,8.00,28.00,CLR,M,M,M,M,M,M,M,M,M,M,M,28.00,50.00,2025-05-05 20:50,64.00,KLOL 052053Z AUTO 03017G28KT 8SM CLR 18/M08 A2997 RMK AO2 PK WND 05028/2050 SLPNO T01781078 56018,M
CXP,2025-05-05 20:55,-119.7326,39.1923,1431.00,59.00,21.20,22.95,120.00,8.00,0.00,30.01,M,10.00,15.00,CLR,M,M,M,M,M,M,M,M,M,M,M,M,M,M,59.00,KCXP 052055Z AUTO 12008G15KT 10SM CLR 15/M06 A3001 RMK AO2,M
RTS,2025-05-05 20:55,-119.8764,39.6682,1539.00,57.20,8.60,14.12,70.00,10.00,0.00,30.03,M,10.00,21.00,CLR,M,M,M,M,M,M,M,M,M,M,M,M,M,M,57.20,KRTS 052055Z AUTO 07010G21KT 030V090 10SM CLR 14/M13 A3003 RMK AO2,M
MEV,2025-05-05 20:55,-119.7500,38.9963,1441.42,59.00,26.60,28.77,M,4.00,0.00,29.99,M,10.00,11.00,CLR,M,M,M,M,M,M,M,M,M,M,M,M,M,M,59.00,KMEV 052055Z AUTO VRB04G11KT 10SM CLR 15/M03 A2999 RMK AO2,M
HTH,2025-05-05 20:55,-118.6315,38.5448,1282.89,60.80,26.60,26.98,350.00,18.00,0.00,29.98,M,10.00,24.00,CLR,M,M,M,M,M,M,M,M,M,M,M,M,M,M,60.80,KHTH 052055Z AUTO 35018G24KT 10SM CLR 16/M03 A2998 RMK A01,M
TMT,2025-05-05 20:55,-117.1971,39.4643,1749.34,55.20,33.40,43.52,350.00,9.00,0.00,29.98,M,10.00,15.00,SCT,M,M,M,4900.00,M,M,M,M,M,M,M,M,M,M,55.20,KTMT 052055Z AUTO 35009G15KT 10SM SCT049 13/01 A2998 RMK AO2 T01290008,M
10U,2025-05-05 20:55,-116.1876,41.9532,1637.00,53.60,28.40,37.67,M,4.00,0.00,29.97,M,10.00,15.00,CLR,M,M,M,M,M,M,M,M,M,M,M,M,M,M,53.60,K10U 052055Z AUTO VRB04G15KT 10SM CLR 12/M02 A2997 RMK AO2,M
BVU,2025-05-05 20:55,-114.8611,35.9475,671.00,62.60,50.00,63.38,150.00,7.00,0.00,29.73,M,10.00,M,BKN,BKN,M,M,7000.00,8000.00,M,M,M,M,M,M,M,M,M,62.60,KBVU 052055Z AUTO 15007KT 10SM BKN070 BKN080 17/10 A2973 RMK AO2,M
RNO,2025-05-05 20:55,-119.7711,39.4839,1341.00,60.00,21.00,21.96,10.00,6.00,0.00,30.00,1013.20,10.00,M,CLR,M,M,M,M,M,M,M,M,M,M,M,M,M,M,60.00,KRNO 052055Z 01006KT 10SM CLR 16/M06 A3000 RMK AO2 SLP132 T01561061 58013,M
BAM,2025-05-05 20:55,-116.8743,40.5990,1382.36,60.80,28.40,29.06,320.00,13.00,0.00,29.97,M,10.00,20.00,CLR,M,M,M,M,M,M,M,M,M,M,M,M,M,M,60.80,KBAM 052055Z AUTO 32013G20KT 10SM CLR 16/M02 A2997 RMK AO1,M
EKO,2025-05-05 20:56,-115.7860,40.8242,1367.00,61.00,34.00,36.19,M,5.00,0.00,29.89,1009.20,10.00,17.00,OVC,M,M,M,5500.00,M,M,M,M,M,M,M,M,M,M,61.00,KEKO 052056Z AUTO VRB05G17KT 10SM OVC055 16/01 A2989 RMK AO2 SLP092 T01610011 56016,M
WMC,2025-05-05 20:56,-117.8072,40.9019,1315.00,61.00,22.00,22.11,340.00,13.00,0.00,29.98,1013.30,10.00,20.00,CLR,M,M,M,M,M,M,M,M,M,M,M,27.00,330.00,2025-05-05 20:35,61.00,KWMC 052056Z AUTO 34013G20KT 10SM CLR 16/M06 A2998 RMK AO2 PK WND 33027/2035 SLP133 T01611056 56018,M
HND,2025-05-05 20:56,-115.1344,35.9729,742.79,64.00,53.00,67.41,320.00,8.00,0.06,29.75,1008.00,8.00,M,SCT,BKN,OVC,M,4400.00,5000.00,8000.00,M,+RA,M,M,M,M,M,M,64.00,KHND 052056Z 32008KT 8SM +RA SCT044 BKN050 OVC080 18/12 A2975 RMK AO2 LTG DSNT N AND NE RAB48 SLP080 P0006 60006 T01780117 55011 $,M
TPH,2025-05-05 20:56,-117.0904,38.0505,1654.00,63.00,33.00,32.40,310.00,26.00,0.00,29.85,1006.30,10.00,41.00,CLR,M,M,M,M,M,M,M,M,M,M,M,44.00,310.00,2025-05-05 20:16,63.00,KTPH 052056Z AUTO 31026G41KT 10SM CLR 17/01 A2985 RMK AO2 PK WND 31044/2016 SLP063 T01720006 58014,M
LAS,2025-05-05 20:56,-115.1634,36.0719,663.00,66.00,51.00,58.40,30.00,3.00,0.01,29.73,1005.40,8.00,M,FEW,BKN,OVC,M,4500.00,7000.00,9000.00,M,-RA,M,M,M,M,M,M,66.00,KLAS 052056Z 03003KT 8SM -RA FEW045 BKN070 OVC090 19/11 A2973 RMK AO2 LTG DSNT NE RAB36 SLP054 P0001 60001 T01890106 55014,M
NFL,2025-05-05 20:57,-118.7010,39.4166,1199.00,64.00,22.00,19.89,10.00,14.00,0.00,29.97,1012.00,10.00,20.00,SCT,SCT,M,M,6000.00,20000.00,M,M,M,M,M,M,M,M,M,64.00,KNFL 052057Z 01014G20KT 10SM SCT060 SCT200 18/M06 A2997 RMK AO2 SLP120 T01781056 56019,M
RTS,2025-05-05 21:05,-119.8764,39.6682,1539.00,57.20,12.20,16.58,50.00,11.00,0.00,30.03,M,10.00,16.00,CLR,M,M,M,M,M,M,M,M,M,M,M,M,M,M,57.20,KRTS 052105Z AUTO 05011G16KT 10SM CLR 14/M11 A3003 RMK AO2,M
MEV,2025-05-05 21:05,-119.7500,38.9963,1441.42,59.00,24.80,26.70,80.00,9.00,0.00,29.98,M,10.00,15.00,CLR,M,M,M,M,M,M,M,M,M,M,M,M,M,M,59.00,KMEV 052105Z AUTO 08009G15KT 050V190 10SM CLR 15/M04 A2998 RMK AO2,M
CXP,2025-05-05 21:10,-119.7326,39.1923,1431.00,59.00,23.00,24.76,50.00,7.00,0.00,30.01,M,10.00,15.00,CLR,M,M,M,M,M,M,M,M,M,M,M,M,M,M,59.00,KCXP 052110Z AUTO 05007G15KT 10SM CLR 15/M05 A3001 RMK AO2,M
BVU,2025-05-05 21:15,-114.8611,35.9475,671.00,64.40,51.80,63.60,100.00,9.00,0.00,29.73,M,10.00,M,SCT,BKN,M,M,7000.00,8500.00,M,M,M,M,M,M,M,M,M,64.40,KBVU 052115Z AUTO 10009KT 10SM SCT070 BKN085 18/11 A2973 RMK AO2,M
BAM,2025-05-05 21:15,-116.8743,40.5990,1382.36,60.80,28.40,29.06,340.00,17.00,0.00,29.96,M,10.00,22.00,CLR,M,M,M,M,M,M,M,M,M,M,M,M,M,M,60.80,KBAM 052115Z AUTO 34017G22KT 10SM CLR 16/M02 A2996 RMK AO1,M
HTH,2025-05-05 21:15,-118.6315,38.5448,1282.89,60.80,26.60,26.98,340.00,14.00,0.00,29.97,M,10.00,26.00,CLR,M,M,M,M,M,M,M,M,M,M,M,M,M,M,60.80,KHTH 052115Z AUTO 34014G26KT 10SM CLR 16/M03 A2997 RMK A01,M
TMT,2025-05-05 21:15,-117.1971,39.4643,1749.34,55.00,33.80,44.54,330.00,14.00,0.00,29.98,M,10.00,21.00,CLR,M,M,M,M,M,M,M,M,M,M,M,M,M,M,55.00,KTMT 052115Z AUTO 33014G21KT 10SM CLR 13/01 A2998 RMK AO2 T01280010,M
10U,2025-05-05 21:15,-116.1876,41.9532,1637.00,55.40,28.40,35.28,360.00,11.00,0.00,29.96,M,10.00,16.00,CLR,M,M,M,M,M,M,M,M,M,M,M,M,M,M,55.40,K10U 052115Z AUTO 36011G16KT 10SM CLR 13/M02 A2996 RMK AO2,M
HND,2025-05-05 21:19,-115.1344,35.9729,742.79,60.80,53.60,77.14,230.00,10.00,0.10,29.76,M,9.00,M,BKN,OVC,M,M,3900.00,5000.00,M,M,-TSRA,M,M,M,M,M,M,60.80,KHND 052119Z 23010KT 9SM -TSRA BKN039 OVC050 16/12 A2976 RMK AO2 TSB13 P0010 $,M
10U,2025-05-05 21:20,-116.1876,41.9532,1637.00,57.20,28.40,33.05,330.00,8.00,0.00,29.96,M,10.00,16.00,CLR,M,M,M,M,M,M,M,M,M,M,M,M,M,M,57.20,K10U 052120Z AUTO 33008G16KT 300V360 10SM CLR 14/M02 A2996 RMK AO2,M
VGT,2025-05-05 21:24,-115.1933,36.2111,667.00,65.00,48.00,54.07,130.00,10.00,T,29.71,M,10.00,M,FEW,FEW,OVC,M,800.00,6500.00,9000.00,M,-RA,M,M,M,M,M,M,65.00,KVGT 052124Z 13010KT 10SM -RA FEW008 FEW065 OVC090 18/09 A2971 RMK AO2 LTG DSNT NE AND S RAB18 P0000 T01830089,M
CXP,2025-05-05 21:30,-119.7326,39.1923,1431.00,60.80,21.20,21.53,90.00,8.00,0.00,30.01,M,10.00,20.00,CLR,M,M,M,M,M,M,M,M,M,M,M,M,M,M,60.80,KCXP 052130Z AUTO 09008G20KT 10SM CLR 16/M06 A3001 RMK AO2,M
BVU,2025-05-05 21:35,-114.8611,35.9475,671.00,62.60,51.80,67.75,100.00,9.00,0.00,29.73,M,10.00,M,BKN,BKN,M,M,7000.00,9000.00,M,M,M,M,M,M,M,M,M,62.60,KBVU 052135Z AUTO 10009KT 10SM BKN070 BKN090 17/11 A2973 RMK AO2 LTG DSNT W AND NW,M
BAM,2025-05-05 21:35,-116.8743,40.5990,1382.36,62.60,28.40,27.27,330.00,16.00,0.00,29.96,M,10.00,20.00,CLR,M,M,M,M,M,M,M,M,M,M,M,M,M,M,62.60,KBAM 052135Z AUTO 33016G20KT 10SM CLR 17/M02 A2996 RMK AO1,M
HTH,2025-05-05 21:35,-118.6315,38.5448,1282.89,60.80,26.60,26.98,340.00,12.00,0.00,29.97,M,10.00,21.00,CLR,M,M,M,M,M,M,M,M,M,M,M,M,M,M,60.80,KHTH 052135Z AUTO 34012G21KT 10SM CLR 16/M03 A2997 RMK A01,M
TMT,2025-05-05 21:35,-117.1971,39.4643,1749.34,55.20,33.00,42.82,330.00,8.00,0.00,29.97,M,10.00,15.00,CLR,M,M,M,M,M,M,M,M,M,M,M,M,M,M,55.20,KTMT 052135Z AUTO 33008G15KT 10SM CLR 13/01 A2997 RMK AO2 T01290006,M
LOL,2025-05-05 21:53,-118.5701,40.0684,1192.43,65.00,19.00,16.91,20.00,16.00,0.00,29.96,M,10.00,26.00,CLR,M,M,M,M,M,M,M,M,M,M,M,26.00,20.00,2025-05-05 21:52,65.00,KLOL 052153Z AUTO 02016G26KT 10SM CLR 18/M07 A2996 RMK AO2 PK WND 02026/2152 SLPNO T01831072,M
P68,2025-05-05 21:53,-116.0056,39.6014,1993.00,58.00,32.00,37.18,10.00,18.00,0.00,29.90,1008.10,M,25.00,M,M,M,M,M,M,M,M,M,M,M,M,M,M,M,58.00,KP68 052153Z AUTO 01018G25KT 14/00 A2990 RMK AO1 SLP081 T01440000,M
DRA,2025-05-05 21:53,-116.0278,36.6206,1009.00,71.00,43.00,36.38,40.00,10.00,0.00,29.72,1003.00,10.00,19.00,FEW,BKN,M,M,8000.00,10000.00,M,M,M,M,M,M,M,M,M,71.00,KDRA 052153Z AUTO 04010G19KT 10SM FEW080 BKN100 22/06 A2972 RMK AO2 SLP030 T02170061,M
ELY,2025-05-05 21:53,-114.8453,39.2950,1909.00,60.00,34.00,37.50,350.00,20.00,0.00,29.82,1003.50,10.00,30.00,FEW,M,M,M,5000.00,M,M,M,M,M,M,M,30.00,10.00,2025-05-05 21:50,60.00,KELY 052153Z AUTO 35020G30KT 10SM FEW050 16/01 A2982 RMK AO2 PK WND 01030/2150 SLP035 T01560011,M
VGT,2025-05-05 21:53,-115.1933,36.2111,667.00,64.00,48.00,55.99,120.00,10.00,T,29.72,1007.00,10.00,M,SCT,BKN,OVC,M,5500.00,7500.00,10000.00,M,M,M,M,M,M,M,M,64.00,KVGT 052153Z 12010KT 10SM SCT055 BKN075 OVC100 18/09 A2972 RMK AO2 LTG DSNT SE AND S RAB18E30 SLP070 P0000 T01780089,M
BVU,2025-05-05 21:55,-114.8611,35.9475,671.00,62.60,51.80,67.75,90.00,8.00,0.00,29.73,M,10.00,M,SCT,SCT,OVC,M,4800.00,6000.00,7000.00,M,VCTS,M,M,M,M,M,M,62.60,KBVU 052155Z AUTO 09008KT 10SM VCTS SCT048 SCT060 OVC070 17/11 A2973 RMK AO2 LTG DSNT ALQDS,M
RNO,2025-05-05 21:55,-119.7711,39.4839,1341.00,62.00,18.00,18.00,320.00,6.00,0.00,29.99,1012.60,10.00,M,FEW,M,M,M,25000.00,M,M,M,M,M,M,M,M,M,M,62.00,KRNO 052155Z 32006KT 10SM FEW250 17/M08 A2999 RMK AO2 SLP126 T01671078,M
CXP,2025-05-05 21:55,-119.7326,39.1923,1431.00,62.60,23.00,21.79,70.00,8.00,0.00,30.00,M,10.00,14.00,CLR,M,M,M,M,M,M,M,M,M,M,M,M,M,M,62.60,KCXP 052155Z AUTO 07008G14KT 10SM CLR 17/M05 A3000 RMK AO2,M
RTS,2025-05-05 21:55,-119.8764,39.6682,1539.00,59.00,14.00,16.83,40.00,9.00,0.00,30.02,M,10.00,18.00,CLR,M,M,M,M,M,M,M,M,M,M,M,M,M,M,59.00,KRTS 052155Z AUTO 04009G18KT 010V070 10SM CLR 15/M10 A3002 RMK AO2,M
MEV,2025-05-05 21:55,-119.7500,38.9963,1441.42,62.60,23.00,21.79,340.00,16.00,0.00,29.97,M,10.00,22.00,CLR,M,M,M,M,M,M,M,M,M,M,M,M,M,M,62.60,KMEV 052155Z AUTO 34016G22KT 10SM CLR 17/M05 A2997 RMK AO2,M
HTH,2025-05-05 21:55,-118.6315,38.5448,1282.89,60.80,26.60,26.98,310.00,7.00,0.00,29.97,M,10.00,21.00,CLR,M,M,M,M,M,M,M,M,M,M,M,M,M,M,60.80,KHTH 052155Z AUTO 31007G21KT 290V360 10SM CLR 16/M03 A2997 RMK A01,M
TMT,2025-05-05 21:55,-117.1971,39.4643,1749.34,56.00,30.70,37.91,10.00,9.00,0.00,29.97,M,10.00,M,CLR,M,M,M,M,M,M,M,M,M,M,M,M,M,M,56.00,KTMT 052155Z AUTO 01009KT 10SM CLR 13/M01 A2997 RMK AO2 T01331007,M
BAM,2025-05-05 21:55,-116.8743,40.5990,1382.36,62.60,26.60,25.32,360.00,13.00,0.00,29.95,M,10.00,23.00,CLR,M,M,M,M,M,M,M,M,M,M,M,M,M,M,62.60,KBAM 052155Z AUTO 36013G23KT 10SM CLR 17/M03 A2995 RMK AO1,M
EKO,2025-05-05 21:56,-115.7860,40.8242,1367.00,61.00,32.00,33.40,310.00,14.00,0.00,29.88,1009.00,10.00,28.00,SCT,M,M,M,6000.00,M,M,M,M,M,M,M,28.00,300.00,2025-05-05 21:47,61.00,KEKO 052156Z AUTO 31014G28KT 10SM SCT060 16/00 A2988 RMK AO2 PK WND 30028/2147 SLP090 T01610000,M
WMC,2025-05-05 21:56,-117.8072,40.9019,1315.00,63.00,22.00,20.60,350.00,16.00,0.00,29.96,1012.50,10.00,25.00,CLR,M,M,M,M,M,M,M,M,M,M,M,26.00,340.00,2025-05-05 21:27,63.00,KWMC 052156Z AUTO 35016G25KT 10SM CLR 17/M06 A2996 RMK AO2 PK WND 34026/2127 SLP125 T01721056,M
HND,2025-05-05 21:56,-115.1344,35.9729,742.79,60.00,53.00,77.64,160.00,9.00,0.10,29.75,1008.10,10.00,M,BKN,OVC,M,M,7500.00,9000.00,M,M,VCTS -RA,M,M,M,M,M,M,60.00,KHND 052156Z 16009KT 10SM VCTS -RA BKN075 OVC090 16/12 A2975 RMK AO2 LTG DSNT S TSB13 SLP081 P0010 T01560117 $,M
TPH,2025-05-05 21:56,-117.0904,38.0505,1654.00,62.00,33.00,33.56,310.00,23.00,0.00,29.84,1006.20,10.00,34.00,FEW,BKN,M,M,6500.00,9000.00,M,M,M,M,M,M,40.00,290.00,2025-05-05 20:59,62.00,KTPH 052156Z AUTO 31023G34KT 10SM FEW065 BKN090 17/01 A2984 RMK AO2 PK WND 29040/2059 SLP062 T01670006,M
LAS,2025-05-05 21:56,-115.1634,36.0719,663.00,62.00,53.00,72.32,180.00,8.00,0.01,29.73,1005.50,10.00,M,FEW,SCT,OVC,M,6000.00,7000.00,9000.00,M,-RA,M,M,M,M,M,M,62.00,KLAS 052156Z 18008KT 10SM -RA FEW060 SCT070 OVC090 17/12 A2973 RMK AO2 LTG DSNT S TSE13 SLP055 VIS LWR N-E-S P0001 T01670117,M
NFL,2025-05-05 21:57,-118.7010,39.4166,1199.00,67.00,21.00,17.18,10.00,16.00,0.00,29.95,1011.40,9.00,25.00,SCT,SCT,M,M,6000.00,20000.00,M,M,M,M,M,M,M,M,M,67.00,KNFL 052157Z COR 01016G25KT 9SM SCT060 SCT200 19/M06 A2995 RMK AO2 SLP114 T01941061,M
HND,2025-05-05 22:04,-115.1344,35.9729,742.79,60.80,53.60,77.14,160.00,10.00,T,29.75,M,10.00,M,BKN,OVC,M,M,7500.00,8500.00,M,M,-RA,M,M,M,M,M,M,60.80,KHND 052204Z 16010KT 10SM -RA BKN075 OVC085 16/12 A2975 RMK AO2 TSE2158 P0000 $,M
RTS,2025-05-05 22:05,-119.8764,39.6682,1539.00,59.00,14.00,16.83,70.00,10.00,0.00,30.02,M,10.00,18.00,CLR,M,M,M,M,M,M,M,M,M,M,M,M,M,M,59.00,KRTS 052205Z AUTO 07010G18KT 10SM CLR 15/M10 A3002 RMK AO2,M
CXP,2025-05-05 22:10,-119.7326,39.1923,1431.00,60.80,21.20,21.53,M,5.00,0.00,30.00,M,10.00,15.00,CLR,M,M,M,M,M,M,M,M,M,M,M,M,M,M,60.80,KCXP 052210Z AUTO VRB05G15KT 10SM CLR 16/M06 A3000 RMK AO2,M
BVU,2025-05-05 22:15,-114.8611,35.9475,671.00,60.80,53.60,77.14,70.00,6.00,0.00,29.75,M,3.00,M,BKN,OVC,M,M,4400.00,5000.00,M,M,-RA,M,M,M,M,M,M,60.80,KBVU 052215Z AUTO 07006KT 3SM -RA BKN044 OVC050 16/12 A2975 RMK AO2 LTG DSNT N AND SE,M
BAM,2025-05-05 22:15,-116.8743,40.5990,1382.36,62.60,24.80,23.50,330.00,15.00,0.00,29.95,M,10.00,24.00,CLR,M,M,M,M,M,M,M,M,M,M,M,M,M,M,62.60,KBAM 052215Z AUTO 33015G24KT 10SM CLR 17/M04 A2995 RMK AO1,M
MEV,2025-05-05 22:15,-119.7500,38.9963,1441.42,62.60,21.20,20.20,10.00,17.00,0.00,29.97,M,10.00,23.00,CLR,M,M,M,M,M,M,M,M,M,M,M,M,M,M,62.60,KMEV 052215Z AUTO 01017G23KT 10SM CLR 17/M06 A2997 RMK AO2,M
HTH,2025-05-05 22:15,-118.6315,38.5448,1282.89,60.80,24.80,25.04,340.00,13.00,0.00,29.96,M,10.00,19.00,CLR,M,M,M,M,M,M,M,M,M,M,M,M,M,M,60.80,KHTH 052215Z AUTO 34013G19KT 10SM CLR 16/M04 A2996 RMK A01,M
TMT,2025-05-05 22:15,-117.1971,39.4643,1749.34,56.00,31.00,38.38,350.00,7.00,0.00,29.97,M,10.00,15.00,CLR,M,M,M,M,M,M,M,M,M,M,M,M,M,M,56.00,KTMT 052215Z AUTO 35007G15KT 10SM CLR 13/00 A2997 RMK AO2 T01341005,M
RTS,2025-05-05 22:25,-119.8764,39.6682,1539.00,59.00,10.40,14.35,80.00,10.00,0.00,30.01,M,10.00,18.00,CLR,M,M,M,M,M,M,M,M,M,M,M,M,M,M,59.00,KRTS 052225Z AUTO 08010G18KT 10SM CLR 15/M12 A3001 RMK AO2,M
MEV,2025-05-05 22:25,-119.7500,38.9963,1441.42,62.60,21.20,20.20,10.00,10.00,0.00,29.97,M,10.00,22.00,CLR,M,M,M,M,M,M,M,M,M,M,M,M,M,M,62.60,KMEV 052225Z AUTO 01010G22KT 10SM CLR 17/M06 A2997 RMK AO2,M
BVU,2025-05-05 22:35,-114.8611,35.9475,671.00,59.00,53.60,82.25,90.00,7.00,0.00,29.74,M,2.50,M,SCT,BKN,OVC,M,3400.00,4200.00,7000.00,M,-RA,M,M,M,M,M,M,59.00,KBVU 052235Z AUTO 09007KT 2 1/2SM -RA SCT034 BKN042 OVC070 15/12 A2974 RMK AO2,M
CXP,2025-05-05 22:35,-119.7326,39.1923,1431.00,62.60,21.20,20.20,120.00,8.00,0.00,29.99,M,10.00,13.00,CLR,M,M,M,M,M,M,M,M,M,M,M,M,M,M,62.60,KCXP 052235Z AUTO 12008G13KT 10SM CLR 17/M06 A2999 RMK AO2,M
BAM,2025-05-05 22:35,-116.8743,40.5990,1382.36,62.60,24.80,23.50,360.00,11.00,0.00,29.94,M,10.00,21.00,CLR,M,M,M,M,M,M,M,M,M,M,M,M,M,M,62.60,KBAM 052235Z AUTO 36011G21KT 10SM CLR 17/M04 A2994 RMK AO1,M
HTH,2025-05-05 22:35,-118.6315,38.5448,1282.89,62.60,24.80,23.50,340.00,15.00,0.00,29.95,M,10.00,22.00,CLR,M,M,M,M,M,M,M,M,M,M,M,M,M,M,62.60,KHTH 052235Z AUTO 34015G22KT 10SM CLR 17/M04 A2995 RMK A01,M
TMT,2025-05-05 22:35,-117.1971,39.4643,1749.34,56.50,31.60,38.61,340.00,9.00,0.00,29.97,M,10.00,17.00,CLR,M,M,M,M,M,M,M,M,M,M,M,M,M,M,56.50,KTMT 052235Z AUTO 34009G17KT 10SM CLR 14/00 A2997 RMK AO2 T01361002,M
P68,2025-05-05 22:53,-116.0056,39.6014,1993.00,59.00,31.00,34.45,330.00,14.00,0.00,29.89,1007.40,M,24.00,M,M,M,M,M,M,M,M,M,M,M,M,26.00,350.00,2025-05-05 22:42,59.00,KP68 052253Z AUTO 33014G24KT 15/M01 A2989 RMK AO1 PK WND 35026/2242 SLP074 T01501006,M
DRA,2025-05-05 22:53,-116.0278,36.6206,1009.00,72.00,43.00,35.16,20.00,8.00,0.00,29.70,1002.30,10.00,M,BKN,M,M,M,11000.00,M,M,M,M,M,M,M,M,M,M,72.00,KDRA 052253Z AUTO 02008KT 10SM BKN110 22/06 A2970 RMK AO2 SLP023 T02220061,M
ELY,2025-05-05 22:53,-114.8453,39.2950,1909.00,59.00,34.00,38.87,10.00,15.00,0.00,29.81,1003.50,10.00,26.00,SCT,BKN,M,M,5000.00,7500.00,M,M,M,M,M,M,31.00,360.00,2025-05-05 22:00,59.00,KELY 052253Z AUTO 01015G26KT 10SM SCT050 BKN075 15/01 A2981 RMK AO2 PK WND 36031/2200 SLP035 T01500011,M
VGT,2025-05-05 22:53,-115.1933,36.2111,667.00,59.00,55.00,86.56,90.00,10.00,0.05,29.74,1007.90,4.00,M,FEW,SCT,OVC,M,2000.00,3800.00,5500.00,M,RA BR,M,M,M,M,M,M,59.00,KVGT 052253Z 09010KT 4SM RA BR FEW020 SCT038 OVC055 15/13 A2974 RMK AO2 RAB2159 SLP079 P0005 T01500128,M
LOL,2025-05-05 22:53,-118.5701,40.0684,1192.43,66.00,16.00,14.35,30.00,16.00,0.00,29.94,M,10.00,M,CLR,M,M,M,M,M,M,M,M,M,M,M,28.00,30.00,2025-05-05 22:13,66.00,KLOL 052253Z AUTO 03016KT 10SM CLR 19/M09 A2994 RMK AO2 PK WND 03028/2213 SLPNO T01891089,M
BVU,2025-05-05 22:55,-114.8611,35.9475,671.00,59.00,55.40,87.83,120.00,5.00,0.00,29.74,M,5.00,M,FEW,FEW,BKN,M,3400.00,4100.00,7000.00,M,-RA,M,M,M,M,M,M,59.00,KBVU 052255Z AUTO 12005KT 5SM -RA FEW034 FEW041 BKN070 15/13 A2974 RMK AO2,M
RNO,2025-05-05 22:55,-119.7711,39.4839,1341.00,63.00,15.00,15.26,70.00,7.00,0.00,29.98,1012.10,10.00,M,FEW,M,M,M,25000.00,M,M,M,M,M,M,M,M,M,M,63.00,KRNO 052255Z 07007KT 10SM FEW250 17/M09 A2998 RMK AO2 SLP121 T01721094,M
BAM,2025-05-05 22:55,-116.8743,40.5990,1382.36,64.40,24.80,22.06,340.00,18.00,0.00,29.93,M,10.00,23.00,CLR,M,M,M,M,M,M,M,M,M,M,M,M,M,M,64.40,KBAM 052255Z AUTO 34018G23KT 10SM CLR 18/M04 A2993 RMK AO1,M
RTS,2025-05-05 22:55,-119.8764,39.6682,1539.00,59.00,10.40,14.35,30.00,12.00,0.00,30.00,M,10.00,M,CLR,M,M,M,M,M,M,M,M,M,M,M,M,M,M,59.00,KRTS 052255Z AUTO 03012KT 10SM CLR 15/M12 A3000 RMK AO2,M
MEV,2025-05-05 22:55,-119.7500,38.9963,1441.42,64.40,21.20,18.96,360.00,17.00,0.00,29.96,M,10.00,M,CLR,M,M,M,M,M,M,M,M,M,M,M,M,M,M,64.40,KMEV 052255Z AUTO 36017KT 10SM CLR 18/M06 A2996 RMK AO2,M
HTH,2025-05-05 22:55,-118.6315,38.5448,1282.89,64.40,24.80,22.06,330.00,14.00,0.00,29.95,M,10.00,22.00,CLR,M,M,M,M,M,M,M,M,M,M,M,M,M,M,64.40,KHTH 052255Z AUTO 33014G22KT 10SM CLR 18/M04 A2995 RMK A01,M
TMT,2025-05-05 22:55,-117.1971,39.4643,1749.34,56.70,28.60,33.93,20.00,9.00,0.00,29.96,M,10.00,14.00,CLR,M,M,M,M,M,M,M,M,M,M,M,M,M,M,56.70,KTMT 052255Z AUTO 02009G14KT 10SM CLR 14/M02 A2996 RMK AO2 T01371019,M
CXP,2025-05-05 22:55,-119.7326,39.1923,1431.00,62.60,21.20,20.20,70.00,10.00,0.00,29.98,M,10.00,M,CLR,M,M,M,M,M,M,M,M,M,M,M,M,M,M,62.60,KCXP 052255Z AUTO 07010KT 10SM CLR 17/M06 A2998 RMK AO2,M
EKO,2025-05-05 22:56,-115.7860,40.8242,1367.00,61.00,29.00,29.57,300.00,13.00,0.00,29.87,1008.80,10.00,22.00,CLR,M,M,M,M,M,M,M,M,M,M,M,27.00,300.00,2025-05-05 22:12,61.00,KEKO 052256Z AUTO 30013G22KT 10SM CLR 16/M02 A2987 RMK AO2 PK WND 30027/2212 SLP088 T01611017,M
WMC,2025-05-05 22:56,-117.8072,40.9019,1315.00,64.00,20.00,18.27,340.00,17.00,0.00,29.95,1012.20,10.00,28.00,CLR,M,M,M,M,M,M,M,M,M,M,M,28.00,350.00,2025-05-05 22:12,64.00,KWMC 052256Z AUTO 34017G28KT 10SM CLR 18/M07 A2995 RMK AO2 PK WND 35028/2212 SLP122 T01781067,M
HND,2025-05-05 22:56,-115.1344,35.9729,742.79,59.00,54.00,83.46,M,M,0.04,29.77,1009.00,5.00,M,BKN,OVC,M,M,4100.00,6000.00,M,M,RA,M,M,M,M,M,M,59.00,KHND 052256Z 5SM RA BKN041 OVC060 15/12 A2977 RMK AO2 LTG DSNT SE TSE2158 SLP090 P0004 T01500122 $,M
TPH,2025-05-05 22:56,-117.0904,38.0505,1654.00,65.00,32.00,29.02,310.00,24.00,0.00,29.83,1005.50,10.00,34.00,BKN,M,M,M,7000.00,M,M,M,M,M,M,M,36.00,310.00,2025-05-05 22:42,65.00,KTPH 052256Z AUTO 31024G34KT 10SM BKN070 18/00 A2983 RMK AO2 PK WND 31036/2242 SLP055 T01830000,M
LAS,2025-05-05 22:56,-115.1634,36.0719,663.00,59.00,55.00,86.56,100.00,5.00,0.16,29.76,1006.70,5.00,M,FEW,BKN,OVC,M,2800.00,3800.00,6500.00,M,RA BR,M,M,M,M,M,M,59.00,KLAS 052256Z 10005KT 5SM RA BR FEW028 BKN038 OVC065 15/13 A2976 RMK AO2 LTG DSNT SE SLP067 VIS NE-SE 2 P0016 T01500128,M
NFL,2025-05-05 22:57,-118.7010,39.4166,1199.00,68.00,19.00,15.24,40.00,12.00,0.00,29.93,1010.80,10.00,20.00,FEW,M,M,M,20000.00,M,M,M,M,M,M,M,M,M,M,68.00,KNFL 052257Z 04012G20KT 10SM FEW200 20/M07 A2993 RMK AO2 SLP108 T02001072 $,M
BVU,2025-05-05 23:15,-114.8611,35.9475,671.00,59.00,55.40,87.83,0.00,0.00,0.00,29.75,M,3.00,M,SCT,BKN,BKN,M,3700.00,4300.00,5000.00,M,-RA,M,M,M,M,M,M,59.00,KBVU 052315Z AUTO 00000KT 3SM -RA SCT037 BKN043 BKN050 15/13 A2975 RMK AO2,M
BAM,2025-05-05 23:15,-116.8743,40.5990,1382.36,64.40,23.00,20.46,340.00,18.00,0.00,29.93,M,10.00,23.00,CLR,M,M,M,M,M,M,M,M,M,M,M,M,M,M,64.40,KBAM 052315Z AUTO 34018G23KT 10SM CLR 18/M05 A2993 RMK AO1,M
CXP,2025-05-05 23:15,-119.7326,39.1923,1431.00,62.60,21.20,20.20,M,4.00,0.00,29.98,M,10.00,10.00,CLR,M,M,M,M,M,M,M,M,M,M,M,M,M,M,62.60,KCXP 052315Z AUTO VRB04G10KT 10SM CLR 17/M06 A2998 RMK AO2,M
RTS,2025-05-05 23:15,-119.8764,39.6682,1539.00,60.80,8.60,12.42,70.00,8.00,0.00,30.00,M,10.00,20.00,CLR,M,M,M,M,M,M,M,M,M,M,M,M,M,M,60.80,KRTS 052315Z AUTO 07008G20KT 10SM CLR 16/M13 A3000 RMK AO2,M
MEV,2025-05-05 23:15,-119.7500,38.9963,1441.42,64.40,21.20,18.96,350.00,15.00,0.00,29.96,M,10.00,21.00,CLR,M,M,M,M,M,M,M,M,M,M,M,M,M,M,64.40,KMEV 052315Z AUTO 35015G21KT 10SM CLR 18/M06 A2996 RMK AO2,M
HTH,2025-05-05 23:15,-118.6315,38.5448,1282.89,64.40,24.80,22.06,350.00,19.00,0.00,29.93,M,10.00,26.00,CLR,M,M,M,M,M,M,M,M,M,M,M,M,M,M,64.40,KHTH 052315Z AUTO 35019G26KT 10SM CLR 18/M04 A2993 RMK A01,M
TMT,2025-05-05 23:15,-117.1971,39.4643,1749.34,57.20,30.70,36.30,360.00,12.00,0.00,29.96,M,10.00,17.00,CLR,M,M,M,M,M,M,M,M,M,M,M,M,M,M,57.20,KTMT 052315Z AUTO 36012G17KT 10SM CLR 14/M01 A2996 RMK AO2 T01401007,M
VGT,2025-05-05 23:24,-115.1933,36.2111,667.00,58.00,55.00,89.72,60.00,4.00,0.09,29.76,M,2.50,M,FEW,BKN,OVC,M,2200.00,4100.00,7000.00,M,RA BR,M,M,M,M,M,M,58.00,KVGT 052324Z 06004KT 2 1/2SM RA BR FEW022 BKN041 OVC070 14/13 A2976 RMK AO2 P0009 T01440128,M
RTS,2025-05-05 23:25,-119.8764,39.6682,1539.00,60.80,10.40,13.46,80.00,9.00,0.00,30.00,M,10.00,M,CLR,M,M,M,M,M,M,M,M,M,M,M,M,M,M,60.80,KRTS 052325Z AUTO 08009KT 10SM CLR 16/M12 A3000 RMK AO2,M
MEV,2025-05-05 23:25,-119.7500,38.9963,1441.42,64.40,19.40,17.56,20.00,13.00,0.00,29.95,M,10.00,19.00,CLR,M,M,M,M,M,M,M,M,M,M,M,M,M,M,64.40,KMEV 052325Z AUTO 02013G19KT 10SM CLR 18/M07 A2995 RMK AO2,M
BVU,2025-05-05 23:35,-114.8611,35.9475,671.00,57.20,51.80,82.12,0.00,0.00,0.00,29.76,M,3.00,M,FEW,BKN,OVC,M,3100.00,4000.00,4800.00,M,RA,M,M,M,M,M,M,57.20,KBVU 052335Z AUTO 00000KT 3SM RA FEW031 BKN040 OVC048 14/11 A2976 RMK AO2,M
VGT,2025-05-05 23:35,-115.1933,36.2111,667.00,58.00,54.00,86.51,120.00,3.00,0.10,29.76,M,5.00,M,SCT,BKN,OVC,M,4000.00,7500.00,9500.00,M,-RA BR,M,M,M,M,M,M,58.00,KVGT 052335Z 12003KT 5SM -RA BR SCT040 BKN075 OVC095 14/12 A2976 RMK AO2 P0010 T01440122,M
BAM,2025-05-05 23:35,-116.8743,40.5990,1382.36,64.40,21.20,18.96,340.00,16.00,0.00,29.93,M,10.00,20.00,CLR,M,M,M,M,M,M,M,M,M,M,M,M,M,M,64.40,KBAM 052335Z AUTO 34016G20KT 10SM CLR 18/M06 A2993 RMK AO1,M
CXP,2025-05-05 23:35,-119.7326,39.1923,1431.00,64.40,21.20,18.96,M,4.00,0.00,29.97,M,10.00,M,CLR,M,M,M,M,M,M,M,M,M,M,M,M,M,M,64.40,KCXP 052335Z AUTO VRB04KT 10SM CLR 18/M06 A2997 RMK AO2,M
HTH,2025-05-05 23:35,-118.6315,38.5448,1282.89,64.40,23.00,20.46,360.00,16.00,0.00,29.93,M,10.00,24.00,CLR,M,M,M,M,M,M,M,M,M,M,M,M,M,M,64.40,KHTH 052335Z AUTO 36016G24KT 10SM CLR 18/M05 A2993 RMK A01,M
TMT,2025-05-05 23:35,-117.1971,39.4643,1749.34,57.70,29.30,33.68,360.00,9.00,0.00,29.96,M,10.00,15.00,CLR,M,M,M,M,M,M,M,M,M,M,M,M,M,M,57.70,KTMT 052335Z AUTO 36009G15KT 10SM CLR 14/M01 A2996 RMK AO2 T01431015,M
P68,2025-05-05 23:53,-116.0056,39.6014,1993.00,57.00,27.00,31.43,360.00,20.00,0.00,29.89,1007.70,M,29.00,M,M,M,M,M,M,M,M,M,M,M,M,29.00,360.00,2025-05-05 23:27,57.00,KP68 052353Z AUTO 36020G29KT 14/M03 A2989 RMK AO1 PK WND 36029/2327 SLP077 T01391028 10156 20089 55005,M
DRA,2025-05-05 23:53,-116.0278,36.6206,1009.00,70.00,44.00,39.11,150.00,7.00,0.00,29.71,1002.40,10.00,M,BKN,BKN,OVC,M,6500.00,8000.00,9000.00,M,M,M,M,M,M,M,M,70.00,KDRA 052353Z AUTO 15007KT 10SM BKN065 BKN080 OVC090 21/07 A2971 RMK AO2 SLP024 T02110067 10233 20139 56013,M
ELY,2025-05-05 23:53,-114.8453,39.2950,1909.00,56.00,35.00,45.06,320.00,13.00,0.00,29.82,1004.40,10.00,21.00,BKN,OVC,M,M,6000.00,7500.00,M,M,M,M,M,M,M,M,M,56.00,KELY 052353Z AUTO 32013G21KT 10SM BKN060 OVC075 13/02 A2982 RMK AO2 SLP044 T01330017 10161 20094 55003,M
VGT,2025-05-05 23:53,-115.1933,36.2111,667.00,59.00,54.00,83.46,140.00,3.00,0.10,29.75,1008.20,10.00,M,FEW,BKN,OVC,M,7000.00,10000.00,12000.00,M,M,M,M,M,M,M,M,59.00,KVGT 052353Z 14003KT 10SM FEW070 BKN100 OVC120 15/12 A2975 RMK AO2 RAE50 SLP082 P0010 60015 T01500122 10206 20144 51013,M
LOL,2025-05-05 23:53,-118.5701,40.0684,1192.43,67.00,17.00,14.47,40.00,15.00,0.00,29.93,M,10.00,M,CLR,M,M,M,M,M,M,M,M,M,M,M,28.00,30.00,2025-05-05 23:16,67.00,KLOL 052353Z AUTO 04015KT 10SM CLR 19/M08 A2993 RMK AO2 PK WND 03028/2316 SLPNO T01941083 10200 20133 58013,M
BVU,2025-05-05 23:55,-114.8611,35.9475,671.00,59.00,51.80,76.98,0.00,0.00,0.00,29.76,M,4.00,M,FEW,BKN,OVC,M,3700.00,4400.00,6500.00,M,-RA,M,M,M,M,M,M,59.00,KBVU 052355Z AUTO 00000KT 4SM -RA FEW037 BKN044 OVC065 15/11 A2976 RMK AO2,M
RNO,2025-05-05 23:55,-119.7711,39.4839,1341.00,65.00,12.00,12.47,10.00,12.00,0.00,29.97,1011.80,10.00,18.00,FEW,M,M,M,20000.00,M,M,M,M,M,M,M,M,M,M,65.00,KRNO 052355Z 01012G18KT 10SM FEW200 18/M11 A2997 RMK AO2 SLP118 T01831111 10189 20117 56011,M
BAM,2025-05-05 23:55,-116.8743,40.5990,1382.36,64.40,21.20,18.96,360.00,15.00,0.00,29.92,M,10.00,21.00,CLR,M,M,M,M,M,M,M,M,M,M,M,M,M,M,64.40,KBAM 052355Z AUTO 36015G21KT 10SM CLR 18/M06 A2992 RMK AO1,M
CXP,2025-05-05 23:55,-119.7326,39.1923,1431.00,64.40,19.40,17.56,340.00,12.00,0.00,29.97,M,10.00,M,CLR,M,M,M,M,M,M,M,M,M,M,M,M,M,M,64.40,KCXP 052355Z AUTO 34012KT 10SM CLR 18/M07 A2997 RMK AO2,M
RTS,2025-05-05 23:55,-119.8764,39.6682,1539.00,62.60,12.20,13.68,20.00,8.00,0.00,29.99,M,10.00,15.00,CLR,M,M,M,M,M,M,M,M,M,M,M,M,M,M,62.60,KRTS 052355Z AUTO 02008G15KT 340V060 10SM CLR 17/M11 A2999 RMK AO2,M
MEV,2025-05-05 23:55,-119.7500,38.9963,1441.42,64.40,21.20,18.96,350.00,13.00,0.00,29.95,M,10.00,18.00,CLR,M,M,M,M,M,M,M,M,M,M,M,M,M,M,64.40,KMEV 052355Z AUTO 35013G18KT 10SM CLR 18/M06 A2995 RMK AO2,M
HTH,2025-05-05 23:55,-118.6315,38.5448,1282.89,64.40,23.00,20.46,360.00,20.00,0.00,29.93,M,10.00,26.00,CLR,M,M,M,M,M,M,M,M,M,M,M,M,M,M,64.40,KHTH 052355Z AUTO 36020G26KT 10SM CLR 18/M05 A2993 RMK A01,M
TMT,2025-05-05 23:55,-117.1971,39.4643,1749.34,57.20,29.00,33.88,340.00,12.00,0.00,29.96,M,10.00,18.00,CLR,M,M,M,M,M,M,M,M,M,M,M,M,M,M,57.20,KTMT 052355Z AUTO 34012G18KT 10SM CLR 14/M02 A2996 RMK AO2 T01401016 10146 20083,M
EKO,2025-05-05 23:56,-115.7860,40.8242,1367.00,62.00,27.00,26.29,10.00,8.00,0.00,29.87,1008.60,10.00,16.00,BKN,M,M,M,7000.00,M,M,M,M,M,M,M,M,M,M,62.00,KEKO 052356Z AUTO 01008G16KT 350V050 10SM BKN070 17/M03 A2987 RMK AO2 SLP086 T01671028 10172 20117 58006,M
WMC,2025-05-05 23:56,-117.8072,40.9019,1315.00,64.00,16.00,15.39,350.00,19.00,0.00,29.94,1012.20,10.00,32.00,CLR,M,M,M,M,M,M,M,M,M,M,M,32.00,360.00,2025-05-05 23:54,64.00,KWMC 052356Z AUTO 35019G32KT 10SM CLR 18/M09 A2994 RMK AO2 PK WND 36032/2354 SLP122 T01781089 10178 20117 56013,M
HND,2025-05-05 23:56,-115.1344,35.9729,742.79,57.00,54.00,89.68,M,M,0.19,29.79,1009.50,5.00,M,BKN,OVC,M,M,4500.00,5500.00,M,M,RA BR,M,M,M,M,M,M,57.00,KHND 052356Z 5SM RA BR BKN045 OVC055 14/12 A2979 RMK AO2 SLP095 P0019 60039 T01390122 10200 20139 53011 $,M
TPH,2025-05-05 23:56,-117.0904,38.0505,1654.00,65.00,31.00,27.87,320.00,22.00,0.00,29.83,1005.60,10.00,33.00,FEW,M,M,M,7500.00,M,M,M,M,M,M,M,40.00,300.00,2025-05-05 23:41,65.00,KTPH 052356Z AUTO 32022G33KT 10SM FEW075 18/M01 A2983 RMK AO2 PK WND 30040/2341 SLP056 T01831006 10189 20133 55004,M
LAS,2025-05-05 23:56,-115.1634,36.0719,663.00,58.00,55.00,89.72,0.00,0.00,0.15,29.77,1006.80,10.00,M,FEW,SCT,BKN,OVC,1000.00,2300.00,6500.00,16000.00,-RA,M,M,M,M,M,M,58.00,KLAS 052356Z 00000KT 10SM -RA FEW010 SCT023 BKN065 OVC160 14/13 A2977 RMK AO2 SLP068 VIS LWR E-S-SW P0015 60033 T01440128 10200 20144 53010,M
NFL,2025-05-05 23:57,-118.7010,39.4166,1199.00,68.00,21.00,16.60,350.00,15.00,0.00,29.92,1010.40,8.00,21.00,SCT,M,M,M,20000.00,M,M,M,M,M,M,M,M,M,M,68.00,KNFL 052357Z 35015G21KT 8SM SCT200 20/M06 A2992 RMK AO2 SLP104 T02001061 10206 20133 56016,M
