station,valid,lon,lat,elevation,tmpf,dwpf,relh,drct,sknt,p01i,alti,mslp,vsby,gust,skyc1,skyc2,skyc3,skyc4,skyl1,skyl2,skyl3,skyl4,wxcodes,ice_accretion_1hr,ice_accretion_3hr,ice_accretion_6hr,peak_wind_gust,peak_wind_drct,peak_wind_time,feel,metar,snowdepth
RTS,2025-07-03 00:05,-119.8764,39.6682,1539.00,82.40,26.60,12.98,10.00,8.00,0.00,30.00,M,10.00,14.00,CLR,M,M,M,M,M,M,M,M,M,M,M,M,M,M,79.92,KRTS 030005Z AUTO 01008G14KT 10SM CLR 28/M03 A3000 RMK AO2,M
MEV,2025-07-03 00:05,-119.7500,38.9963,1441.42,82.40,24.80,12.05,260.00,16.00,0.00,29.97,M,10.00,27.00,CLR,M,M,M,M,M,M,M,VCTS,M,M,M,M,M,M,79.79,KMEV 030005Z AUTO 26016G27KT 10SM VCTS CLR 28/M04 A2997 RMK AO2 LTG DSNT S AND SW,M
TMT,2025-07-03 00:10,-117.1971,39.4643,1749.34,78.40,39.00,24.35,90.00,13.00,0.00,30.07,M,10.00,23.00,CLR,M,M,M,M,M,M,M,M,M,M,M,M,M,M,78.40,KTMT 030010Z AUTO 09013G23KT 10SM CLR 26/04 A3007 RMK AO2 T02580038,M
BVU,2025-07-03 00:15,-114.8611,35.9475,671.00,91.40,48.20,22.85,340.00,14.00,0.00,29.81,M,10.00,M,CLR,M,M,M,M,M,M,M,M,M,M,M,M,M,M,88.10,KBVU 030015Z AUTO 34014KT 10SM CLR 33/09 A2981 RMK AO2,M
BAM,2025-07-03 00:15,-116.8743,40.5990,1382.36,87.80,37.40,16.89,150.00,16.00,0.00,29.95,M,10.00,21.00,CLR,M,M,M,M,M,M,M,M,M,M,M,M,M,M,84.17,KBAM 030015Z AUTO 15016G21KT 10SM CLR 31/03 A2995 RMK AO1,M
CXP,2025-07-03 00:15,-119.7326,39.1923,1431.00,84.20,35.60,17.64,280.00,11.00,0.00,29.98,M,10.00,17.00,CLR,M,M,M,M,M,M,M,M,M,M,M,M,M,M,81.34,KCXP 030015Z AUTO 28011G17KT 10SM CLR 29/02 A2998 RMK AO2 LTG DSNT S,M
05U,2025-07-03 00:15,-116.0051,39.6042,1811.23,71.60,41.00,33.02,M,3.00,0.00,30.15,M,10.00,M,CLR,M,M,M,M,M,M,M,M,M,M,M,M,M,M,71.60,K05U 030015Z AUTO VRB03KT 10SM CLR 22/05 A3015 RMK A01,M
HTH,2025-07-03 00:15,-118.6315,38.5448,1282.89,87.80,35.60,15.73,150.00,18.00,0.00,29.91,M,10.00,23.00,SCT,M,M,M,11000.00,M,M,M,M,M,M,M,M,M,M,84.12,KHTH 030015Z AUTO 15018G23KT 10SM SCT110 31/02 A2991 RMK A01,M
10U,2025-07-03 00:15,-116.1876,41.9532,1637.00,87.80,24.80,10.14,200.00,15.00,0.00,29.96,M,10.00,23.00,CLR,M,M,M,M,M,M,M,M,M,M,M,M,M,M,83.56,K10U 030015Z AUTO 20015G23KT 170V230 10SM CLR 31/M04 A2996 RMK AO2,M
TMT,2025-07-03 00:30,-117.1971,39.4643,1749.34,77.70,39.00,24.92,110.00,14.00,0.00,30.06,M,10.00,19.00,CLR,M,M,M,M,M,M,M,M,M,M,M,M,M,M,77.70,KTMT 030030Z AUTO 11014G19KT 10SM CLR 25/04 A3006 RMK AO2 T02540038,M
BVU,2025-07-03 00:35,-114.8611,35.9475,671.00,93.20,48.20,21.61,340.00,13.00,0.00,29.79,M,10.00,M,CLR,M,M,M,M,M,M,M,M,M,M,M,M,M,M,89.82,KBVU 030035Z AUTO 34013KT 10SM CLR 34/09 A2979 RMK AO2,M
BAM,2025-07-03 00:35,-116.8743,40.5990,1382.36,87.80,37.40,16.89,140.00,12.00,0.00,29.95,M,10.00,17.00,CLR,M,M,M,M,M,M,M,M,M,M,M,M,M,M,84.17,KBAM 030035Z AUTO 14012G17KT 10SM CLR 31/03 A2995 RMK AO1,M
CXP,2025-07-03 00:35,-119.7326,39.1923,1431.00,84.20,33.80,16.42,260.00,10.00,0.00,29.98,M,10.00,17.00,FEW,M,M,M,11000.00,M,M,M,M,M,M,M,M,M,M,81.30,KCXP 030035Z AUTO 26010G17KT 10SM FEW110 29/01 A2998 RMK AO2,M
RTS,2025-07-03 00:35,-119.8764,39.6682,1539.00,84.20,26.60,12.25,220.00,11.00,0.00,29.98,M,10.00,17.00,CLR,M,M,M,M,M,M,M,M,M,M,M,M,M,M,81.14,KRTS 030035Z AUTO 22011G17KT 10SM CLR 29/M03 A2998 RMK AO2,M
05U,2025-07-03 00:35,-116.0051,39.6042,1811.23,73.40,41.00,31.08,150.00,6.00,0.00,30.14,M,10.00,11.00,CLR,M,M,M,M,M,M,M,M,M,M,M,M,M,M,73.40,K05U 030035Z AUTO 15006G11KT 10SM CLR 23/05 A3014 RMK A01,M
MEV,2025-07-03 00:35,-119.7500,38.9963,1441.42,78.80,39.20,24.22,170.00,18.00,0.00,29.98,M,10.00,27.00,CLR,M,M,M,M,M,M,M,M,M,M,M,M,M,M,78.80,KMEV 030035Z AUTO 17018G27KT 10SM CLR 26/04 A2998 RMK AO2,M
HTH,2025-07-03 00:35,-118.6315,38.5448,1282.89,80.60,44.60,28.13,190.00,14.00,0.00,29.93,M,8.00,20.00,FEW,OVC,M,M,2500.00,11000.00,M,M,M,M,M,M,M,M,M,79.43,KHTH 030035Z AUTO 19014G20KT 8SM FEW025 OVC110 27/07 A2993 RMK A01,M
10U,2025-07-03 00:35,-116.1876,41.9532,1637.00,86.00,30.20,13.41,190.00,19.00,0.00,29.96,M,10.00,26.00,CLR,M,M,M,M,M,M,M,M,M,M,M,M,M,M,82.64,K10U 030035Z AUTO 19019G26KT 10SM CLR 30/M01 A2996 RMK AO2,M
RTS,2025-07-03 00:50,-119.8764,39.6682,1539.00,84.20,26.60,12.25,M,6.00,0.00,29.98,M,10.00,M,CLR,M,M,M,M,M,M,M,M,M,M,M,M,M,M,81.14,KRTS 030050Z AUTO VRB06KT 10SM CLR 29/M03 A2998 RMK AO2,M
MEV,2025-07-03 00:50,-119.7500,38.9963,1441.42,77.00,39.20,25.70,180.00,20.00,0.00,29.97,M,10.00,27.00,CLR,M,M,M,M,M,M,M,M,M,M,M,M,M,M,77.00,KMEV 030050Z AUTO 18020G27KT 10SM CLR 25/04 A2997 RMK AO2,M
TMT,2025-07-03 00:50,-117.1971,39.4643,1749.34,77.00,39.00,25.50,110.00,16.00,0.00,30.06,M,10.00,20.00,CLR,M,M,M,M,M,M,M,M,M,M,M,M,M,M,77.00,KTMT 030050Z AUTO 11016G20KT 10SM CLR 25/04 A3006 RMK AO2 T02500039,M
P68,2025-07-03 00:53,-116.0056,39.6014,1993.00,72.00,39.00,30.14,150.00,6.00,0.00,30.11,1011.00,M,M,M,M,M,M,M,M,M,M,M,M,M,M,M,M,M,72.00,KP68 030053Z AUTO 15006KT 22/04 A3011 RMK AO1 SLP110 T02220039,M
DRA,2025-07-03 00:53,-116.0278,36.6206,1009.00,83.00,53.00,35.63,20.00,13.00,0.00,29.92,1008.00,10.00,M,CLR,M,M,M,M,M,M,M,M,M,M,M,M,M,M,81.79,KDRA 030053Z AUTO 02013KT 10SM CLR 28/12 A2992 RMK AO2 SLP080 T02830117,M
ELY,2025-07-03 00:53,-114.8453,39.2950,1909.00,74.00,40.00,29.30,230.00,20.00,0.00,30.14,1010.30,M,27.00,BKN,M,M,M,9000.00,M,M,M,M,M,M,M,32.00,220.00,2025-07-03 00:35,74.00,KELY 030053Z AUTO 23020G27KT BKN090 23/04 A3014 RMK AO2 PK WND 22032/0035 SLP103 T02330044 $,M
VGT,2025-07-03 00:53,-115.1933,36.2111,667.00,91.00,52.00,26.65,310.00,20.00,T,29.80,1007.90,10.00,28.00,CLR,M,M,M,M,M,M,M,M,M,M,M,28.00,320.00,2025-07-02 23:55,88.36,KVGT 030053Z 31020G28KT 10SM CLR 33/11 A2980 RMK AO2 PK WND 32028/2355 RAB2356E35 SLP079 P0000 T03280111,M
LOL,2025-07-03 00:53,-118.5701,40.0684,1192.43,93.00,26.00,9.06,300.00,9.00,0.00,29.84,M,10.00,M,CLR,M,M,M,M,M,M,M,M,M,M,M,M,M,M,87.52,KLOL 030053Z AUTO 30009KT 10SM CLR 34/M03 A2984 RMK AO2 SLPNO T03391033,M
BVU,2025-07-03 00:55,-114.8611,35.9475,671.00,93.20,48.20,21.61,340.00,11.00,0.00,29.79,M,10.00,16.00,CLR,M,M,M,M,M,M,M,M,M,M,M,M,M,M,89.82,KBVU 030055Z AUTO 34011G16KT 10SM CLR 34/09 A2979 RMK AO2,M
RNO,2025-07-03 00:55,-119.7711,39.4839,1341.00,87.00,34.00,15.14,260.00,8.00,0.00,29.93,1007.60,10.00,18.00,SCT,SCT,M,M,10000.00,18000.00,M,M,M,M,M,M,27.00,300.00,2025-07-02 23:57,83.45,KRNO 030055Z 26008G18KT 10SM SCT100 SCT180 31/01 A2993 RMK AO2 PK WND 30027/2357 SLP076 CB DSNT NW T03060011,M
BAM,2025-07-03 00:55,-116.8743,40.5990,1382.36,87.80,35.60,15.73,150.00,11.00,0.00,29.94,M,10.00,M,CLR,M,M,M,M,M,M,M,M,M,M,M,M,M,M,84.12,KBAM 030055Z AUTO 15011KT 10SM CLR 31/02 A2994 RMK AO1,M
CXP,2025-07-03 00:55,-119.7326,39.1923,1431.00,84.20,35.60,17.64,270.00,10.00,0.00,29.98,M,10.00,M,CLR,M,M,M,M,M,M,M,M,M,M,M,M,M,M,81.34,KCXP 030055Z AUTO 27010KT 10SM CLR 29/02 A2998 RMK AO2,M
LSV,2025-07-03 00:55,-115.0343,36.2362,570.00,94.30,48.40,21.05,80.00,10.00,0.00,29.76,1004.60,10.00,M,CLR,M,M,M,M,M,M,M,M,M,M,M,M,M,M,90.92,KLSV 030055Z AUTO 08010KT 10SM CLR 35/09 A2976 RMK AO2 SLP046 T03460091 $,M
05U,2025-07-03 00:55,-116.0051,39.6042,1811.23,73.40,39.20,28.98,0.00,0.00,0.00,30.13,M,10.00,11.00,CLR,M,M,M,M,M,M,M,M,M,M,M,M,M,M,73.40,K05U 030055Z AUTO 00000G11KT 10SM CLR 23/04 A3013 RMK A01,M
HTH,2025-07-03 00:55,-118.6315,38.5448,1282.89,78.80,39.20,24.22,200.00,8.00,0.00,29.95,M,7.00,25.00,FEW,SCT,BKN,M,3300.00,5000.00,8500.00,M,M,M,M,M,M,M,M,78.80,KHTH 030055Z AUTO 20008G25KT 7SM FEW033 SCT050 BKN085 26/04 A2995 RMK A01,M
10U,2025-07-03 00:55,-116.1876,41.9532,1637.00,86.00,30.20,13.41,190.00,16.00,0.00,29.95,M,10.00,24.00,CLR,M,M,M,M,M,M,M,M,M,M,M,M,M,M,82.64,K10U 030055Z AUTO 19016G24KT 10SM CLR 30/M01 A2995 RMK AO2,M
EKO,2025-07-03 00:56,-115.7860,40.8242,1367.00,82.00,40.00,22.51,160.00,10.00,0.00,30.01,1009.80,10.00,16.00,CLR,M,M,M,M,M,M,M,M,M,M,M,M,M,M,79.99,KEKO 030056Z AUTO 16010G16KT 10SM CLR 28/04 A3001 RMK AO2 SLP098 T02780044,M
WMC,2025-07-03 00:56,-117.8072,40.9019,1315.00,90.00,28.00,10.80,310.00,6.00,0.00,29.86,1006.30,10.00,M,CLR,M,M,M,M,M,M,M,M,M,M,M,M,M,M,85.44,KWMC 030056Z AUTO 31006KT 10SM CLR 32/M02 A2986 RMK AO2 SLP063 T03221022 TSNO,M
HND,2025-07-03 00:56,-115.1344,35.9729,742.79,90.00,54.00,29.59,30.00,11.00,0.00,29.85,1009.10,10.00,M,CLR,M,M,M,M,M,M,M,M,M,M,M,M,M,M,87.84,KHND 030056Z 03011KT 10SM CLR 32/12 A2985 RMK AO2 SLP091 T03220122 $,M
TPH,2025-07-03 00:56,-117.0904,38.0505,1654.00,75.00,42.00,30.62,110.00,12.00,0.00,30.06,1011.60,10.00,M,CLR,M,M,M,M,M,M,M,M,M,M,M,M,M,M,75.00,KTPH 030056Z AUTO 11012KT 10SM CLR 24/06 A3006 RMK AO2 SLP116 T02390056,M
LAS,2025-07-03 00:56,-115.1634,36.0719,663.00,92.00,51.00,24.90,330.00,15.00,0.00,29.82,1006.60,10.00,23.00,FEW,FEW,SCT,SCT,7000.00,11000.00,16000.00,22000.00,M,M,M,M,M,M,M,89.13,KLAS 030056Z 33015G23KT 10SM FEW070 FEW110 SCT160 SCT220 33/11 A2982 RMK AO2 SLP066 CB DSNT SE AND S T03330106,M
NFL,2025-07-03 00:57,-118.7010,39.4166,1199.00,92.00,34.00,12.94,170.00,8.00,0.00,29.86,1008.60,9.00,M,SCT,BKN,BKN,BKN,8000.00,12000.00,15000.00,20000.00,M,M,M,M,M,M,M,87.65,KNFL 030057Z 17008KT 9SM SCT080 BKN120 BKN150 BKN200 33/01 A2986 RMK AO2 SLP086 CB DSNT ALQDS T03330011,M
TMT,2025-07-03 01:10,-117.1971,39.4643,1749.34,76.00,38.70,26.05,130.00,9.00,0.00,30.05,M,10.00,M,CLR,M,M,M,M,M,M,M,M,M,M,M,M,M,M,76.00,KTMT 030110Z AUTO 13009KT 10SM CLR 25/04 A3005 RMK AO2 T02450037,M
BVU,2025-07-03 01:15,-114.8611,35.9475,671.00,93.20,48.20,21.61,340.00,10.00,0.00,29.79,M,10.00,M,CLR,M,M,M,M,M,M,M,M,M,M,M,M,M,M,89.82,KBVU 030115Z AUTO 34010KT 10SM CLR 34/09 A2979 RMK AO2,M
BAM,2025-07-03 01:15,-116.8743,40.5990,1382.36,86.00,35.60,16.66,150.00,12.00,0.00,29.93,M,10.00,17.00,CLR,M,M,M,M,M,M,M,M,M,M,M,M,M,M,82.69,KBAM 030115Z AUTO 15012G17KT 10SM CLR 30/02 A2993 RMK AO1,M
CXP,2025-07-03 01:15,-119.7326,39.1923,1431.00,82.40,37.40,20.08,160.00,14.00,0.00,29.98,M,10.00,21.00,CLR,M,M,M,M,M,M,M,M,M,M,M,M,M,M,80.14,KCXP 030115Z AUTO 16014G21KT 10SM CLR 28/03 A2998 RMK AO2,M
RTS,2025-07-03 01:15,-119.8764,39.6682,1539.00,86.00,28.40,12.46,260.00,12.00,0.00,29.98,M,10.00,M,CLR,M,M,M,M,M,M,M,M,M,M,M,M,M,M,82.54,KRTS 030115Z AUTO 26012KT 10SM CLR 30/M02 A2998 RMK AO2,M
05U,2025-07-03 01:15,-116.0051,39.6042,1811.23,71.60,37.40,28.69,150.00,11.00,0.00,30.12,M,10.00,M,CLR,M,M,M,M,M,M,M,M,M,M,M,M,M,M,71.60,K05U 030115Z AUTO 15011KT 10SM CLR 22/03 A3012 RMK A01,M
MEV,2025-07-03 01:15,-119.7500,38.9963,1441.42,78.80,37.40,22.57,190.00,19.00,0.00,29.99,M,10.00,30.00,CLR,M,M,M,M,M,M,M,M,M,M,M,M,M,M,78.80,KMEV 030115Z AUTO 19019G30KT 10SM CLR 26/03 A2999 RMK AO2,M
HTH,2025-07-03 01:15,-118.6315,38.5448,1282.89,71.60,50.00,46.47,170.00,21.00,0.00,29.95,M,7.00,29.00,FEW,FEW,SCT,M,400.00,3500.00,4900.00,M,M,M,M,M,M,M,M,71.60,KHTH 030115Z AUTO 17021G29KT 7SM FEW004 FEW035 SCT049 22/10 A2995 RMK A01,M
10U,2025-07-03 01:15,-116.1876,41.9532,1637.00,86.00,32.00,14.42,190.00,14.00,0.00,29.95,M,10.00,24.00,CLR,M,M,M,M,M,M,M,M,M,M,M,M,M,M,82.64,K10U 030115Z AUTO 19014G24KT 10SM CLR 30/M00 A2995 RMK AO2,M
TMT,2025-07-03 01:30,-117.1971,39.4643,1749.34,75.20,38.30,26.34,150.00,8.00,0.00,30.05,M,10.00,16.00,CLR,M,M,M,M,M,M,M,M,M,M,M,M,M,M,75.20,KTMT 030130Z AUTO 15008G16KT 10SM CLR 24/04 A3005 RMK AO2 T02400035,M
BVU,2025-07-03 01:35,-114.8611,35.9475,671.00,93.20,48.20,21.61,340.00,10.00,0.00,29.78,M,10.00,M,CLR,M,M,M,M,M,M,M,M,M,M,M,M,M,M,89.82,KBVU 030135Z AUTO 34010KT 10SM CLR 34/09 A2978 RMK AO2,M
BAM,2025-07-03 01:35,-116.8743,40.5990,1382.36,86.00,35.60,16.66,160.00,8.00,0.00,29.93,M,10.00,M,CLR,M,M,M,M,M,M,M,M,M,M,M,M,M,M,82.69,KBAM 030135Z AUTO 16008KT 10SM CLR 30/02 A2993 RMK AO1,M
CXP,2025-07-03 01:35,-119.7326,39.1923,1431.00,82.40,37.40,20.08,190.00,12.00,0.00,29.99,M,10.00,19.00,CLR,M,M,M,M,M,M,M,M,M,M,M,M,M,M,80.14,KCXP 030135Z AUTO 19012G19KT 10SM CLR 28/03 A2999 RMK AO2,M
RTS,2025-07-03 01:35,-119.8764,39.6682,1539.00,84.20,32.00,15.28,240.00,16.00,0.00,29.97,M,10.00,M,CLR,M,M,M,M,M,M,M,M,M,M,M,M,M,M,81.28,KRTS 030135Z AUTO 24016KT 10SM CLR 29/M00 A2997 RMK AO2,M
05U,2025-07-03 01:35,-116.0051,39.6042,1811.23,71.60,35.60,26.72,150.00,13.00,0.00,30.11,M,10.00,M,CLR,M,M,M,M,M,M,M,M,M,M,M,M,M,M,71.60,K05U 030135Z AUTO 15013KT 10SM CLR 22/02 A3011 RMK A01,M
MEV,2025-07-03 01:35,-119.7500,38.9963,1441.42,77.00,41.00,27.57,180.00,20.00,0.00,29.98,M,10.00,31.00,CLR,M,M,M,M,M,M,M,M,M,M,M,M,M,M,77.00,KMEV 030135Z AUTO 18020G31KT 10SM CLR 25/05 A2998 RMK AO2,M
HTH,2025-07-03 01:35,-118.6315,38.5448,1282.89,75.20,48.20,38.50,200.00,9.00,0.00,29.95,M,10.00,19.00,SCT,M,M,M,11000.00,M,M,M,M,M,M,M,M,M,M,75.20,KHTH 030135Z AUTO 20009G19KT 10SM SCT110 24/09 A2995 RMK A01,M
10U,2025-07-03 01:35,-116.1876,41.9532,1637.00,86.00,32.00,14.42,200.00,16.00,0.00,29.95,M,10.00,23.00,CLR,M,M,M,M,M,M,M,M,M,M,M,M,M,M,82.64,K10U 030135Z AUTO 20016G23KT 10SM CLR 30/M00 A2995 RMK AO2,M
TMT,2025-07-03 01:50,-117.1971,39.4643,1749.34,75.00,37.80,26.00,110.00,8.00,0.00,30.05,M,10.00,M,CLR,M,M,M,M,M,M,M,M,M,M,M,M,M,M,75.00,KTMT 030150Z AUTO 11008KT 10SM CLR 24/03 A3005 RMK AO2 T02380032,M
P68,2025-07-03 01:53,-116.0056,39.6014,1993.00,71.00,40.00,32.42,150.00,11.00,0.00,30.08,1010.30,M,19.00,M,M,M,M,M,M,M,M,M,M,M,M,M,M,M,71.00,KP68 030153Z AUTO 15011G19KT 22/04 A3008 RMK AO1 SLP103 T02170044,M
DRA,2025-07-03 01:53,-116.0278,36.6206,1009.00,82.00,55.00,39.59,70.00,12.00,0.00,29.91,1007.70,10.00,M,CLR,M,M,M,M,M,M,M,M,M,M,M,M,M,M,81.41,KDRA 030153Z AUTO 07012KT 10SM CLR 28/13 A2991 RMK AO2 SLP077 T02780128,M
ELY,2025-07-03 01:53,-114.8453,39.2950,1909.00,71.00,39.00,31.18,230.00,9.00,0.00,30.14,1010.30,M,M,CLR,M,M,M,M,M,M,M,M,M,M,M,M,M,M,71.00,KELY 030153Z AUTO 23009KT CLR 22/04 A3014 RMK AO2 SLP103 T02170039 $,M
VGT,2025-07-03 01:53,-115.1933,36.2111,667.00,88.00,52.00,29.28,320.00,17.00,0.00,29.80,1008.00,10.00,26.00,CLR,M,M,M,M,M,M,M,M,M,M,M,27.00,310.00,2025-07-03 01:32,85.61,KVGT 030153Z 32017G26KT 10SM CLR 31/11 A2980 RMK AO2 PK WND 31027/0132 SLP080 T03110111,M
LOL,2025-07-03 01:53,-118.5701,40.0684,1192.43,89.00,36.00,15.39,150.00,10.00,0.00,29.83,1006.00,2.00,15.00,SCT,M,M,M,2500.00,M,M,M,HZ,M,M,M,M,M,M,85.13,KLOL 030153Z AUTO 15010G15KT 2SM HZ SCT025 32/02 A2983 RMK AO2 SLP060 T03170022,M
BVU,2025-07-03 01:55,-114.8611,35.9475,671.00,91.40,50.00,24.44,10.00,14.00,0.00,29.78,M,10.00,19.00,CLR,M,M,M,M,M,M,M,M,M,M,M,M,M,M,88.38,KBVU 030155Z AUTO 01014G19KT 10SM CLR 33/10 A2978 RMK AO2,M
INS,2025-07-03 01:55,-115.6733,36.5872,955.00,80.20,54.30,40.91,0.00,0.00,T,29.91,1007.80,10.00,M,FEW,M,M,M,20000.00,M,M,M,M,M,M,M,M,M,M,80.14,KINS 030155Z AUTO 00000KT 10SM FEW200 27/12 A2991 RMK AO2 DZB11E22 SLP078 P0000 T02680124 $,M
RNO,2025-07-03 01:55,-119.7711,39.4839,1341.00,88.00,37.00,16.52,280.00,11.00,0.00,29.92,1007.10,10.00,M,SCT,SCT,M,M,12000.00,18000.00,M,M,M,M,M,M,M,M,M,84.32,KRNO 030155Z 28011KT 10SM SCT120 SCT180 31/03 A2992 RMK AO2 SLP071 T03110028,M
BAM,2025-07-03 01:55,-116.8743,40.5990,1382.36,86.00,35.60,16.66,150.00,7.00,0.00,29.93,M,10.00,M,CLR,M,M,M,M,M,M,M,M,M,M,M,M,M,M,82.69,KBAM 030155Z AUTO 15007KT 10SM CLR 30/02 A2993 RMK AO1,M
CXP,2025-07-03 01:55,-119.7326,39.1923,1431.00,80.60,37.40,21.28,190.00,10.00,0.00,29.99,M,10.00,25.00,CLR,M,M,M,M,M,M,M,M,M,M,M,M,M,M,79.02,KCXP 030155Z AUTO 19010G25KT 10SM CLR 27/03 A2999 RMK AO2,M
LSV,2025-07-03 01:55,-115.0343,36.2362,570.00,90.70,50.00,24.98,50.00,13.00,0.00,29.76,1004.70,10.00,M,CLR,M,M,M,M,M,M,M,M,M,M,M,M,M,M,87.72,KLSV 030155Z AUTO 05013KT 10SM CLR 33/10 A2976 RMK AO2 SLP047 T03260100 $,M
RTS,2025-07-03 01:55,-119.8764,39.6682,1539.00,84.20,33.80,16.42,240.00,14.00,0.00,29.98,M,10.00,M,CLR,M,M,M,M,M,M,M,M,M,M,M,M,M,M,81.30,KRTS 030155Z AUTO 24014KT 10SM CLR 29/01 A2998 RMK AO2,M
05U,2025-07-03 01:55,-116.0051,39.6042,1811.23,71.60,41.00,33.02,140.00,11.00,0.00,30.11,M,10.00,M,CLR,M,M,M,M,M,M,M,M,M,M,M,M,M,M,71.60,K05U 030155Z AUTO 14011KT 10SM CLR 22/05 A3011 RMK A01,M
MEV,2025-07-03 01:55,-119.7500,38.9963,1441.42,77.00,41.00,27.57,180.00,17.00,0.00,29.98,M,10.00,25.00,CLR,M,M,M,M,M,M,M,M,M,M,M,M,M,M,77.00,KMEV 030155Z AUTO 18017G25KT 10SM CLR 25/05 A2998 RMK AO2,M
HTH,2025-07-03 01:55,-118.6315,38.5448,1282.89,73.40,50.00,43.73,200.00,16.00,0.03,29.95,M,10.00,23.00,FEW,M,M,M,11000.00,M,M,M,M,M,M,M,M,M,M,73.40,KHTH 030155Z AUTO 20016G23KT 10SM FEW110 23/10 A2995 RMK A01 P0003,M
10U,2025-07-03 01:55,-116.1876,41.9532,1637.00,84.20,33.80,16.42,190.00,13.00,0.00,29.96,M,10.00,21.00,CLR,M,M,M,M,M,M,M,M,M,M,M,M,M,M,81.30,K10U 030155Z AUTO 19013G21KT 10SM CLR 29/01 A2996 RMK AO2,M
EKO,2025-07-03 01:56,-115.7860,40.8242,1367.00,81.00,38.00,21.51,150.00,12.00,0.00,29.99,1009.10,10.00,18.00,CLR,M,M,M,M,M,M,M,M,M,M,M,M,M,M,79.28,KEKO 030156Z AUTO 15012G18KT 10SM CLR 27/03 A2999 RMK AO2 SLP091 T02720033,M
WMC,2025-07-03 01:56,-117.8072,40.9019,1315.00,90.00,28.00,10.80,0.00,0.00,0.00,29.85,1005.60,10.00,M,CLR,M,M,M,M,M,M,M,M,M,M,M,M,M,M,85.44,KWMC 030156Z AUTO 00000KT 10SM CLR 32/M02 A2985 RMK AO2 SLP056 T03221022 TSNO,M
HND,2025-07-03 01:56,-115.1344,35.9729,742.79,89.00,53.00,29.43,10.00,12.00,0.00,29.84,1009.00,10.00,M,CLR,M,M,M,M,M,M,M,M,M,M,M,M,M,M,86.69,KHND 030156Z 01012KT 10SM CLR 32/12 A2984 RMK AO2 SLP090 T03170117 $,M
TPH,2025-07-03 01:56,-117.0904,38.0505,1654.00,75.00,41.00,29.46,120.00,10.00,0.00,30.07,1010.80,10.00,M,CLR,M,M,M,M,M,M,M,M,M,M,M,M,M,M,75.00,KTPH 030156Z AUTO 12010KT 10SM CLR 24/05 A3007 RMK AO2 SLP108 T02390050,M
LAS,2025-07-03 01:56,-115.1634,36.0719,663.00,90.00,52.00,27.49,340.00,14.00,0.00,29.82,1006.90,10.00,22.00,FEW,FEW,SCT,SCT,7000.00,11000.00,16000.00,22000.00,M,M,M,M,M,M,M,87.42,KLAS 030156Z 34014G22KT 10SM FEW070 FEW110 SCT160 SCT220 32/11 A2982 RMK AO2 SLP069 CB DSNT E AND S AND W T03220111,M
NFL,2025-07-03 01:57,-118.7010,39.4166,1199.00,91.00,33.00,12.83,160.00,7.00,0.00,29.86,1008.60,10.00,M,SCT,SCT,BKN,BKN,8000.00,12000.00,15000.00,20000.00,M,M,M,M,M,M,M,86.74,KNFL 030157Z 16007KT 10SM SCT080 SCT120 BKN150 BKN200 33/01 A2986 RMK AO2 SLP086 CB DSNT ALQDS T03280006,M
LOL,2025-07-03 02:01,-118.5701,40.0684,1192.43,90.00,33.00,13.23,130.00,9.00,0.00,29.84,M,2.00,17.00,BKN,M,M,M,2500.00,M,M,M,HZ,M,M,M,M,M,M,85.92,KLOL 030201Z AUTO 13009G17KT 2SM HZ BKN025 32/01 A2984 RMK AO2 T03220006,M
TMT,2025-07-03 02:10,-117.1971,39.4643,1749.34,74.50,37.40,26.03,130.00,8.00,0.00,30.05,M,10.00,M,CLR,M,M,M,M,M,M,M,M,M,M,M,M,M,M,74.50,KTMT 030210Z AUTO 13008KT 10SM CLR 24/03 A3005 RMK AO2 T02360030,M
BVU,2025-07-03 02:15,-114.8611,35.9475,671.00,89.60,50.00,25.85,20.00,14.00,0.00,29.79,M,10.00,21.00,CLR,M,M,M,M,M,M,M,M,M,M,M,M,M,M,86.71,KBVU 030215Z AUTO 02014G21KT 10SM CLR 32/10 A2979 RMK AO2,M
BAM,2025-07-03 02:15,-116.8743,40.5990,1382.36,84.20,35.60,17.64,150.00,8.00,0.00,29.93,M,10.00,M,CLR,M,M,M,M,M,M,M,M,M,M,M,M,M,M,81.34,KBAM 030215Z AUTO 15008KT 10SM CLR 29/02 A2993 RMK AO1,M
CXP,2025-07-03 02:15,-119.7326,39.1923,1431.00,78.80,39.20,24.22,170.00,11.00,0.00,29.99,M,10.00,19.00,CLR,M,M,M,M,M,M,M,M,M,M,M,M,M,M,78.80,KCXP 030215Z AUTO 17011G19KT 10SM CLR 26/04 A2999 RMK AO2,M
RTS,2025-07-03 02:15,-119.8764,39.6682,1539.00,84.20,30.20,14.20,250.00,13.00,0.00,29.98,M,10.00,19.00,CLR,M,M,M,M,M,M,M,M,M,M,M,M,M,M,81.26,KRTS 030215Z AUTO 25013G19KT 10SM CLR 29/M01 A2998 RMK AO2,M
05U,2025-07-03 02:15,-116.0051,39.6042,1811.23,68.00,42.80,40.02,140.00,11.00,0.00,30.10,M,10.00,M,CLR,M,M,M,M,M,M,M,M,M,M,M,M,M,M,68.00,K05U 030215Z AUTO 14011KT 10SM CLR 20/06 A3010 RMK A01,M
MEV,2025-07-03 02:15,-119.7500,38.9963,1441.42,75.20,42.80,31.37,170.00,12.00,0.00,29.98,M,10.00,25.00,CLR,M,M,M,M,M,M,M,M,M,M,M,M,M,M,75.20,KMEV 030215Z AUTO 17012G25KT 10SM CLR 24/06 A2998 RMK AO2,M
HTH,2025-07-03 02:15,-118.6315,38.5448,1282.89,77.00,44.60,31.65,230.00,12.00,0.00,29.95,M,10.00,22.00,SCT,M,M,M,12000.00,M,M,M,M,M,M,M,M,M,M,77.00,KHTH 030215Z AUTO 23012G22KT 10SM SCT120 25/07 A2995 RMK A01,M
10U,2025-07-03 02:15,-116.1876,41.9532,1637.00,82.40,33.80,17.40,170.00,15.00,0.00,29.97,M,10.00,21.00,CLR,M,M,M,M,M,M,M,M,M,M,M,M,M,M,80.04,K10U 030215Z AUTO 17015G21KT 10SM CLR 28/01 A2997 RMK AO2,M
LOL,2025-07-03 02:18,-118.5701,40.0684,1192.43,88.00,34.00,14.67,130.00,11.00,0.00,29.84,M,4.00,23.00,OVC,M,M,M,2700.00,M,M,M,HZ,M,M,M,M,M,M,84.26,KLOL 030218Z AUTO 13011G23KT 4SM HZ OVC027 31/01 A2984 RMK AO2 T03110011,M
RTS,2025-07-03 02:25,-119.8764,39.6682,1539.00,82.40,30.20,15.05,280.00,11.00,0.00,29.99,M,10.00,18.00,CLR,M,M,M,M,M,M,M,M,M,M,M,M,M,M,79.97,KRTS 030225Z AUTO 28011G18KT 10SM CLR 28/M01 A2999 RMK AO2,M
MEV,2025-07-03 02:25,-119.7500,38.9963,1441.42,75.20,42.80,31.37,180.00,13.00,0.00,29.98,M,10.00,M,CLR,M,M,M,M,M,M,M,M,M,M,M,M,M,M,75.20,KMEV 030225Z AUTO 18013KT 10SM CLR 24/06 A2998 RMK AO2,M
TMT,2025-07-03 02:30,-117.1971,39.4643,1749.34,73.00,37.00,26.94,130.00,4.00,0.00,30.05,M,10.00,M,CLR,M,M,M,M,M,M,M,M,M,M,M,M,M,M,73.00,KTMT 030230Z AUTO 13004KT 10SM CLR 23/03 A3005 RMK AO2 T02270027,M
BVU,2025-07-03 02:35,-114.8611,35.9475,671.00,89.60,50.00,25.85,10.00,13.00,0.00,29.79,M,10.00,18.00,CLR,M,M,M,M,M,M,M,M,M,M,M,M,M,M,86.71,KBVU 030235Z AUTO 01013G18KT 10SM CLR 32/10 A2979 RMK AO2,M
CXP,2025-07-03 02:35,-119.7326,39.1923,1431.00,78.80,39.20,24.22,160.00,11.00,0.00,29.99,M,10.00,20.00,CLR,M,M,M,M,M,M,M,M,M,M,M,M,M,M,78.80,KCXP 030235Z AUTO 16011G20KT 10SM CLR 26/04 A2999 RMK AO2,M
05U,2025-07-03 02:35,-116.0051,39.6042,1811.23,68.00,42.80,40.02,150.00,12.00,0.00,30.10,M,10.00,M,CLR,M,M,M,M,M,M,M,M,M,M,M,M,M,M,68.00,K05U 030235Z AUTO 15012KT 10SM CLR 20/06 A3010 RMK A01,M
BAM,2025-07-03 02:35,-116.8743,40.5990,1382.36,82.40,35.60,18.70,140.00,5.00,0.00,29.93,M,10.00,M,CLR,M,M,M,M,M,M,M,M,M,M,M,M,M,M,80.08,KBAM 030235Z AUTO 14005KT 10SM CLR 28/02 A2993 RMK AO1,M
HTH,2025-07-03 02:35,-118.6315,38.5448,1282.89,78.80,41.00,25.98,240.00,20.00,0.00,29.95,M,10.00,M,SCT,M,M,M,12000.00,M,M,M,M,M,M,M,M,M,M,78.80,KHTH 030235Z AUTO 24020KT 10SM SCT120 26/05 A2995 RMK A01,M
10U,2025-07-03 02:35,-116.1876,41.9532,1637.00,80.60,35.60,19.82,160.00,8.00,0.00,29.98,M,10.00,16.00,CLR,M,M,M,M,M,M,M,M,M,M,M,M,M,M,78.95,K10U 030235Z AUTO 16008G16KT 10SM CLR 27/02 A2998 RMK AO2,M
NFL,2025-07-03 02:46,-118.7010,39.4166,1199.00,87.00,38.00,17.74,210.00,16.00,T,29.89,M,9.00,23.00,SCT,SCT,BKN,M,8000.00,14000.00,22000.00,M,-TSRA,M,M,M,M,M,M,83.54,KNFL 030246Z 21016G23KT 9SM -TSRA SCT080CB SCT140 BKN220 31/03 A2989 RMK AO2 RAB46 TSB46 OCNL LGTCCCG OHD TS OHD MOV E P0000 T03060033,M
TMT,2025-07-03 02:50,-117.1971,39.4643,1749.34,70.50,37.00,29.32,140.00,5.00,0.00,30.06,M,10.00,M,CLR,M,M,M,M,M,M,M,M,M,M,M,M,M,M,70.50,KTMT 030250Z AUTO 14005KT 10SM CLR 21/03 A3006 RMK AO2 T02140028,M
LOL,2025-07-03 02:51,-118.5701,40.0684,1192.43,87.80,35.60,15.73,160.00,15.00,0.00,29.85,M,2.00,M,OVC,M,M,M,2300.00,M,M,M,HZ,M,M,M,M,M,M,84.12,KLOL 030251Z AUTO 16015KT 2SM HZ OVC023 31/02 A2985 RMK AO2,M
P68,2025-07-03 02:53,-116.0056,39.6014,1993.00,64.00,44.00,48.14,130.00,8.00,0.00,30.07,1009.80,M,M,M,M,M,M,M,M,M,M,M,M,M,M,M,M,M,64.00,KP68 030253Z AUTO 13008KT 18/07 A3007 RMK AO1 SLP098 T01780067 56015,M
DRA,2025-07-03 02:53,-116.0278,36.6206,1009.00,81.00,55.00,40.89,90.00,10.00,0.00,29.91,1007.80,10.00,M,CLR,M,M,M,M,M,M,M,M,M,M,M,M,M,M,80.74,KDRA 030253Z AUTO 09010KT 10SM CLR 27/13 A2991 RMK AO2 SLP078 T02720128 55009,M
ELY,2025-07-03 02:53,-114.8453,39.2950,1909.00,69.00,38.00,32.10,180.00,4.00,0.00,30.12,1009.70,M,M,CLR,M,M,M,M,M,M,M,M,M,M,M,M,M,M,69.00,KELY 030253Z AUTO 18004KT CLR 21/03 A3012 RMK AO2 SLP097 T02060033 58008 $,M
VGT,2025-07-03 02:53,-115.1933,36.2111,667.00,86.00,52.00,31.19,340.00,13.00,0.00,29.83,1008.90,10.00,20.00,CLR,M,M,M,M,M,M,M,M,M,M,M,26.00,320.00,2025-07-03 02:00,83.92,KVGT 030253Z 34013G20KT 10SM CLR 30/11 A2983 RMK AO2 PK WND 32026/0200 LTG DSNT W SLP089 60000 T03000111 53001,M
LOL,2025-07-03 02:53,-118.5701,40.0684,1192.43,87.00,36.00,16.39,160.00,17.00,0.00,29.85,1006.20,1.75,M,OVC,M,M,M,2300.00,M,M,M,HZ,M,M,M,M,M,M,83.49,KLOL 030253Z AUTO 16017KT 1 3/4SM HZ OVC023 31/02 A2985 RMK AO2 SLP062 T03060022 53005,M
BVU,2025-07-03 02:55,-114.8611,35.9475,671.00,87.80,48.20,25.58,10.00,16.00,0.00,29.80,M,10.00,21.00,CLR,M,M,M,M,M,M,M,M,M,M,M,M,M,M,84.88,KBVU 030255Z AUTO 01016G21KT 10SM CLR 31/09 A2980 RMK AO2,M
INS,2025-07-03 02:55,-115.6733,36.5872,955.00,80.00,53.60,40.14,140.00,9.00,0.00,29.92,1007.90,10.00,M,BKN,M,M,M,18000.00,M,M,M,M,M,M,M,M,M,M,79.94,KINS 030255Z AUTO 14009KT 10SM BKN180 27/12 A2992 RMK AO2 LTG DSNT S SLP079 60000 T02670120 55009 $,M
RNO,2025-07-03 02:55,-119.7711,39.4839,1341.00,84.00,39.00,20.30,190.00,9.00,0.00,29.94,1008.00,10.00,M,SCT,SCT,M,M,12000.00,16000.00,M,M,M,M,M,M,M,M,M,81.29,KRNO 030255Z 19009KT 10SM SCT120 SCT160 29/04 A2994 RMK AO2 SLP080 T02890039 53006,M
BAM,2025-07-03 02:55,-116.8743,40.5990,1382.36,80.60,35.60,19.82,170.00,3.00,0.00,29.94,M,10.00,M,CLR,M,M,M,M,M,M,M,M,M,M,M,M,M,M,78.95,KBAM 030255Z AUTO 17003KT 10SM CLR 27/02 A2994 RMK AO1,M
CXP,2025-07-03 02:55,-119.7326,39.1923,1431.00,78.80,39.20,24.22,170.00,10.00,0.00,29.99,M,10.00,17.00,CLR,M,M,M,M,M,M,M,M,M,M,M,M,M,M,78.80,KCXP 030255Z AUTO 17010G17KT 10SM CLR 26/04 A2999 RMK AO2,M
05U,2025-07-03 02:55,-116.0051,39.6042,1811.23,64.40,44.60,48.57,130.00,7.00,0.00,30.10,M,10.00,M,CLR,M,M,M,M,M,M,M,M,M,M,M,M,M,M,64.40,K05U 030255Z AUTO 13007KT 10SM CLR 18/07 A3010 RMK A01,M
HTH,2025-07-03 02:55,-118.6315,38.5448,1282.89,77.00,41.00,27.57,260.00,18.00,0.00,29.95,M,10.00,M,CLR,M,M,M,M,M,M,M,M,M,M,M,M,M,M,77.00,KHTH 030255Z AUTO 26018KT 10SM CLR 25/05 A2995 RMK A01,M
10U,2025-07-03 02:55,-116.1876,41.9532,1637.00,78.80,37.40,22.57,140.00,8.00,0.00,29.98,M,10.00,M,CLR,M,M,M,M,M,M,M,M,M,M,M,M,M,M,78.80,K10U 030255Z AUTO 14008KT 10SM CLR 26/03 A2998 RMK AO2,M
LSV,2025-07-03 02:55,-115.0343,36.2362,570.00,89.00,47.50,23.99,360.00,10.00,0.00,29.77,1005.20,10.00,M,CLR,M,M,M,M,M,M,M,M,M,M,M,M,M,M,85.84,KLSV 030255Z AUTO 36010KT 10SM CLR 32/09 A2977 RMK AO2 LTG DSNT W SLP052 T03170086 55001 CHINO RWY21L $,M
EKO,2025-07-03 02:56,-115.7860,40.8242,1367.00,77.00,38.00,24.52,170.00,11.00,0.00,29.99,1008.80,10.00,M,CLR,M,M,M,M,M,M,M,M,M,M,M,M,M,M,77.00,KEKO 030256Z AUTO 17011KT 10SM CLR 25/03 A2999 RMK AO2 SLP088 T02500033 56014,M
WMC,2025-07-03 02:56,-117.8072,40.9019,1315.00,83.00,31.00,15.25,160.00,6.00,0.00,29.87,1006.10,10.00,M,CLR,M,M,M,M,M,M,M,M,M,M,M,M,M,M,80.40,KWMC 030256Z AUTO 16006KT 10SM CLR 28/M01 A2987 RMK AO2 SLP061 T02831006 55002 TSNO,M
HND,2025-07-03 02:56,-115.1344,35.9729,742.79,85.00,53.00,33.41,360.00,11.00,0.00,29.87,1010.10,10.00,M,CLR,M,M,M,M,M,M,M,M,M,M,M,M,M,M,83.28,KHND 030256Z 36011KT 10SM CLR 29/12 A2987 RMK AO2 LTG DSNT W AND NW SLP101 T02940117 55000 $,M
TPH,2025-07-03 02:56,-117.0904,38.0505,1654.00,71.00,42.00,35.03,70.00,11.00,0.00,30.09,1010.80,10.00,M,CLR,M,M,M,M,M,M,M,M,M,M,M,M,M,M,71.00,KTPH 030256Z AUTO 07011KT 10SM CLR 22/06 A3009 RMK AO2 SLP108 T02170056 55001,M
LAS,2025-07-03 02:56,-115.1634,36.0719,663.00,87.00,52.00,30.22,350.00,13.00,0.00,29.84,1007.60,10.00,M,FEW,FEW,SCT,SCT,7000.00,12000.00,16000.00,20000.00,M,M,M,M,M,M,M,84.75,KLAS 030256Z 35013KT 10SM FEW070 FEW120 SCT160 SCT200 31/11 A2984 RMK AO2 LTG DSNT W SLP076 CB DSNT NE AND SE-S AND W T03060111 55002,M
NFL,2025-07-03 02:57,-118.7010,39.4166,1199.00,84.00,42.00,22.81,210.00,17.00,T,29.89,1009.60,9.00,26.00,SCT,SCT,BKN,M,8000.00,14000.00,22000.00,M,-TSRA,M,M,M,26.00,220.00,2025-07-03 02:57,81.43,KNFL 030257Z 21017G26KT 9SM -TSRA SCT080CB SCT140 BKN220 29/06 A2989 RMK AO2 PK WND 22026/0257 RAB46 TSB46 SLP096 OCNL LGTCCCG OHD TS OHD MOV E P0000 60000 T02890056 53005,M
RTS,2025-07-03 03:05,-119.8764,39.6682,1539.00,80.60,30.20,15.95,300.00,13.00,0.00,30.00,M,10.00,M,CLR,M,M,M,M,M,M,M,M,M,M,M,M,M,M,78.77,KRTS 030305Z AUTO 30013KT 10SM CLR 27/M01 A3000 RMK AO2,M
MEV,2025-07-03 03:05,-119.7500,38.9963,1441.42,73.40,42.80,33.31,160.00,11.00,0.00,29.99,M,10.00,M,CLR,M,M,M,M,M,M,M,M,M,M,M,M,M,M,73.40,KMEV 030305Z AUTO 16011KT 10SM CLR 23/06 A2999 RMK AO2,M
HTH,2025-07-03 03:10,-118.6315,38.5448,1282.89,78.80,41.00,25.98,250.00,11.00,0.00,29.95,M,10.00,23.00,CLR,M,M,M,M,M,M,M,M,M,M,M,M,M,M,78.80,KHTH 030310Z AUTO 25011G23KT 10SM CLR 26/05 A2995 RMK A01,M
TMT,2025-07-03 03:10,-117.1971,39.4643,1749.34,66.40,37.00,33.75,180.00,4.00,0.00,30.06,M,10.00,M,CLR,M,M,M,M,M,M,M,M,M,M,M,M,M,M,66.40,KTMT 030310Z AUTO 18004KT 10SM CLR 19/03 A3006 RMK AO2 T01910027,M
NFL,2025-07-03 03:13,-118.7010,39.4166,1199.00,85.00,38.00,18.91,210.00,19.00,T,29.89,M,10.00,32.00,SCT,SCT,BKN,M,8000.00,14000.00,22000.00,M,-RA,M,M,M,32.00,210.00,2025-07-03 03:04,81.99,KNFL 030313Z 21019G32KT 10SM -RA SCT080 SCT140 BKN220 29/03 A2989 RMK AO2 PK WND 21032/0304 TSE13 CB OHD MOV E P0000 T02940033,M
LOL,2025-07-03 03:14,-118.5701,40.0684,1192.43,85.00,36.00,17.47,160.00,12.00,0.00,29.86,M,1.50,M,BKN,M,M,M,1300.00,M,M,M,HZ,M,M,M,M,M,M,81.94,KLOL 030314Z AUTO 16012KT 1 1/2SM HZ BKN013 29/02 A2986 RMK AO2 T02940022,M
BVU,2025-07-03 03:15,-114.8611,35.9475,671.00,87.80,50.00,27.36,350.00,13.00,0.00,29.80,M,10.00,M,CLR,M,M,M,M,M,M,M,M,M,M,M,M,M,M,85.12,KBVU 030315Z AUTO 35013KT 10SM CLR 31/10 A2980 RMK AO2,M
BAM,2025-07-03 03:15,-116.8743,40.5990,1382.36,80.60,35.60,19.82,160.00,4.00,0.00,29.95,M,10.00,M,CLR,M,M,M,M,M,M,M,M,M,M,M,M,M,M,78.95,KBAM 030315Z AUTO 16004KT 10SM CLR 27/02 A2995 RMK AO1,M
CXP,2025-07-03 03:15,-119.7326,39.1923,1431.00,77.00,39.20,25.70,170.00,13.00,0.00,29.99,M,10.00,18.00,CLR,M,M,M,M,M,M,M,M,M,M,M,M,M,M,77.00,KCXP 030315Z AUTO 17013G18KT 10SM CLR 25/04 A2999 RMK AO2,M
05U,2025-07-03 03:15,-116.0051,39.6042,1811.23,64.40,44.60,48.57,160.00,8.00,0.00,30.10,M,10.00,13.00,CLR,M,M,M,M,M,M,M,M,M,M,M,M,M,M,64.40,K05U 030315Z AUTO 16008G13KT 10SM CLR 18/07 A3010 RMK A01,M
10U,2025-07-03 03:15,-116.1876,41.9532,1637.00,75.20,37.40,25.43,140.00,6.00,0.00,29.99,M,10.00,M,CLR,M,M,M,M,M,M,M,M,M,M,M,M,M,M,75.20,K10U 030315Z AUTO 14006KT 10SM CLR 24/03 A2999 RMK AO2,M
LOL,2025-07-03 03:19,-118.5701,40.0684,1192.43,85.00,36.00,17.47,170.00,11.00,0.00,29.86,M,2.50,M,SCT,M,M,M,1100.00,M,M,M,HZ,M,M,M,M,M,M,81.94,KLOL 030319Z AUTO 17011KT 2 1/2SM HZ SCT011 29/02 A2986 RMK AO2 T02940022,M
RTS,2025-07-03 03:25,-119.8764,39.6682,1539.00,78.80,35.60,21.02,280.00,9.00,0.00,30.01,M,10.00,16.00,CLR,M,M,M,M,M,M,M,M,M,M,M,M,M,M,78.80,KRTS 030325Z AUTO 28009G16KT 10SM CLR 26/02 A3001 RMK AO2,M
MEV,2025-07-03 03:25,-119.7500,38.9963,1441.42,69.80,41.00,35.11,170.00,11.00,0.00,30.00,M,10.00,M,CLR,M,M,M,M,M,M,M,M,M,M,M,M,M,M,69.80,KMEV 030325Z AUTO 17011KT 10SM CLR 21/05 A3000 RMK AO2,M
LOL,2025-07-03 03:26,-118.5701,40.0684,1192.43,85.00,36.00,17.47,160.00,8.00,0.00,29.87,M,4.00,M,SCT,M,M,M,900.00,M,M,M,HZ,M,M,M,M,M,M,81.94,KLOL 030326Z AUTO 16008KT 4SM HZ SCT009 29/02 A2987 RMK AO2 T02940022,M
TMT,2025-07-03 03:30,-117.1971,39.4643,1749.34,63.50,35.60,35.32,180.00,6.00,0.00,30.06,M,10.00,M,CLR,M,M,M,M,M,M,M,M,M,M,M,M,M,M,63.50,KTMT 030330Z AUTO 18006KT 10SM CLR 18/02 A3006 RMK AO2 T01750020,M
BVU,2025-07-03 03:35,-114.8611,35.9475,671.00,86.00,48.20,27.08,350.00,17.00,0.00,29.79,M,10.00,M,CLR,M,M,M,M,M,M,M,M,M,M,M,M,M,M,83.41,KBVU 030335Z AUTO 35017KT 10SM CLR 30/09 A2979 RMK AO2,M
BAM,2025-07-03 03:35,-116.8743,40.5990,1382.36,77.00,35.60,22.31,120.00,5.00,0.00,29.95,M,10.00,M,CLR,M,M,M,M,M,M,M,M,M,M,M,M,M,M,77.00,KBAM 030335Z AUTO 12005KT 10SM CLR 25/02 A2995 RMK AO1,M
CXP,2025-07-03 03:35,-119.7326,39.1923,1431.00,77.00,39.20,25.70,190.00,6.00,0.00,30.00,M,10.00,16.00,CLR,M,M,M,M,M,M,M,M,M,M,M,M,M,M,77.00,KCXP 030335Z AUTO 19006G16KT 10SM CLR 25/04 A3000 RMK AO2,M
05U,2025-07-03 03:35,-116.0051,39.6042,1811.23,62.60,42.80,48.29,0.00,0.00,0.00,30.11,M,10.00,M,CLR,M,M,M,M,M,M,M,M,M,M,M,M,M,M,62.60,K05U 030335Z AUTO 00000KT 10SM CLR 17/06 A3011 RMK A01,M
HTH,2025-07-03 03:35,-118.6315,38.5448,1282.89,77.00,42.80,29.55,120.00,7.00,0.00,29.97,M,10.00,M,CLR,M,M,M,M,M,M,M,M,M,M,M,M,M,M,77.00,KHTH 030335Z AUTO 12007KT 10SM CLR 25/06 A2997 RMK A01,M
10U,2025-07-03 03:35,-116.1876,41.9532,1637.00,73.40,37.40,27.00,140.00,6.00,0.00,29.98,M,10.00,M,CLR,M,M,M,M,M,M,M,M,M,M,M,M,M,M,73.40,K10U 030335Z AUTO 14006KT 10SM CLR 23/03 A2998 RMK AO2,M
TMT,2025-07-03 03:50,-117.1971,39.4643,1749.34,61.30,34.00,35.81,190.00,5.00,0.00,30.06,M,10.00,M,CLR,M,M,M,M,M,M,M,M,M,M,M,M,M,M,61.30,KTMT 030350Z AUTO 19005KT 10SM CLR 16/01 A3006 RMK AO2 T01630011,M
P68,2025-07-03 03:53,-116.0056,39.6014,1993.00,63.00,42.00,46.17,190.00,10.00,0.00,30.09,1010.20,M,M,M,M,M,M,M,M,M,M,M,M,M,M,M,M,M,63.00,KP68 030353Z AUTO 19010KT 17/06 A3009 RMK AO1 SLP102 T01720056,M
DRA,2025-07-03 03:53,-116.0278,36.6206,1009.00,78.00,55.00,45.11,50.00,5.00,0.00,29.92,1008.20,10.00,M,CLR,M,M,M,M,M,M,M,M,M,M,M,M,M,M,78.00,KDRA 030353Z AUTO 05005KT 10SM CLR 26/13 A2992 RMK AO2 SLP082 T02560128,M
ELY,2025-07-03 03:53,-114.8453,39.2950,1909.00,61.00,39.00,44.10,180.00,9.00,0.00,30.11,1009.90,M,M,CLR,M,M,M,M,M,M,M,M,M,M,M,M,M,M,61.00,KELY 030353Z AUTO 18009KT CLR 16/04 A3011 RMK AO2 SLP099 T01610039 $,M
VGT,2025-07-03 03:53,-115.1933,36.2111,667.00,85.00,50.00,29.91,340.00,9.00,0.00,29.83,1009.00,10.00,M,CLR,M,M,M,M,M,M,M,M,M,M,M,M,M,M,82.84,KVGT 030353Z 34009KT 10SM CLR 29/10 A2983 RMK AO2 LTG DSNT W SLP090 T02940100,M
LOL,2025-07-03 03:53,-118.5701,40.0684,1192.43,85.00,35.00,16.79,200.00,14.00,0.00,29.88,1006.80,9.00,20.00,CLR,M,M,M,M,M,M,M,M,M,M,M,M,M,M,81.92,KLOL 030353Z AUTO 20014G20KT 9SM CLR 29/02 A2988 RMK AO2 SLP068 T02940017,M
BVU,2025-07-03 03:55,-114.8611,35.9475,671.00,86.00,48.20,27.08,360.00,16.00,0.00,29.80,M,10.00,22.00,CLR,M,M,M,M,M,M,M,M,M,M,M,M,M,M,83.41,KBVU 030355Z AUTO 36016G22KT 10SM CLR 30/09 A2980 RMK AO2,M
RNO,2025-07-03 03:55,-119.7711,39.4839,1341.00,81.00,39.00,22.37,290.00,11.00,0.00,29.95,1008.40,10.00,29.00,SCT,SCT,M,M,12000.00,16000.00,M,M,M,M,M,M,29.00,270.00,2025-07-03 03:46,79.33,KRNO 030355Z 29011G29KT 10SM SCT120 SCT160 27/04 A2995 RMK AO2 PK WND 27029/0346 SLP084 T02720039,M
BAM,2025-07-03 03:55,-116.8743,40.5990,1382.36,75.20,35.60,23.68,0.00,0.00,0.00,29.95,M,10.00,M,CLR,M,M,M,M,M,M,M,M,M,M,M,M,M,M,75.20,KBAM 030355Z AUTO 00000KT 10SM CLR 24/02 A2995 RMK AO1,M
CXP,2025-07-03 03:55,-119.7326,39.1923,1431.00,75.20,39.20,27.28,180.00,11.00,0.00,30.01,M,10.00,16.00,CLR,M,M,M,M,M,M,M,M,M,M,M,M,M,M,75.20,KCXP 030355Z AUTO 18011G16KT 10SM CLR 24/04 A3001 RMK AO2,M
RTS,2025-07-03 03:55,-119.8764,39.6682,1539.00,75.20,37.40,25.43,280.00,10.00,0.00,30.02,M,10.00,M,CLR,M,M,M,M,M,M,M,M,M,M,M,M,M,M,75.20,KRTS 030355Z AUTO 28010KT 10SM CLR 24/03 A3002 RMK AO2,M
05U,2025-07-03 03:55,-116.0051,39.6042,1811.23,62.60,42.80,48.29,180.00,8.00,0.00,30.11,M,10.00,M,CLR,M,M,M,M,M,M,M,M,M,M,M,M,M,M,62.60,K05U 030355Z AUTO 18008KT 10SM CLR 17/06 A3011 RMK A01,M
MEV,2025-07-03 03:55,-119.7500,38.9963,1441.42,68.00,42.80,40.02,150.00,6.00,0.00,30.01,M,10.00,M,CLR,M,M,M,M,M,M,M,M,M,M,M,M,M,M,68.00,KMEV 030355Z AUTO 15006KT 10SM CLR 20/06 A3001 RMK AO2,M
HTH,2025-07-03 03:55,-118.6315,38.5448,1282.89,73.40,48.20,40.89,150.00,7.00,0.00,29.97,M,10.00,M,CLR,M,M,M,M,M,M,M,M,M,M,M,M,M,M,73.40,KHTH 030355Z AUTO 15007KT 10SM CLR 23/09 A2997 RMK A01,M
10U,2025-07-03 03:55,-116.1876,41.9532,1637.00,68.00,37.40,32.44,130.00,8.00,0.00,29.99,M,10.00,M,CLR,M,M,M,M,M,M,M,M,M,M,M,M,M,M,68.00,K10U 030355Z AUTO 13008KT 10SM CLR 20/03 A2999 RMK AO2,M
INS,2025-07-03 03:55,-115.6733,36.5872,955.00,79.30,50.00,35.96,170.00,3.00,0.00,29.91,1007.60,10.00,M,BKN,BKN,M,M,13000.00,15000.00,M,M,M,M,M,M,M,M,M,79.30,KINS 030355Z AUTO 17003KT 10SM BKN130 BKN150 26/10 A2991 RMK AO2 LTG DSNT SE-S SLP076 T02630100 $,M
LSV,2025-07-03 03:55,-115.0343,36.2362,570.00,87.00,49.00,27.03,0.00,0.00,0.00,29.78,1005.50,10.00,M,CLR,M,M,M,M,M,M,M,M,M,M,M,M,M,M,84.31,KLSV 030355Z AUTO 00000KT 10SM CLR 31/09 A2978 RMK AO2 LTG DSNT W SLP055 T03050094 $,M
EKO,2025-07-03 03:56,-115.7860,40.8242,1367.00,70.00,39.00,32.26,M,3.00,0.00,30.00,1009.30,10.00,M,CLR,M,M,M,M,M,M,M,M,M,M,M,M,M,M,70.00,KEKO 030356Z AUTO VRB03KT 10SM CLR 21/04 A3000 RMK AO2 SLP093 T02110039,M
WMC,2025-07-03 03:56,-117.8072,40.9019,1315.00,82.00,35.00,18.49,150.00,9.00,0.00,29.88,1005.90,10.00,17.00,CLR,M,M,M,M,M,M,M,M,M,M,M,M,M,M,79.80,KWMC 030356Z AUTO 15009G17KT 10SM CLR 28/02 A2988 RMK AO2 SLP059 T02780017 TSNO,M
HND,2025-07-03 03:56,-115.1344,35.9729,742.79,83.00,54.00,36.96,30.00,4.00,0.00,29.88,1010.60,10.00,M,CLR,M,M,M,M,M,M,M,M,M,M,M,M,M,M,81.95,KHND 030356Z 03004KT 10SM CLR 28/12 A2988 RMK AO2 SLP106 T02830122 $,M
TPH,2025-07-03 03:56,-117.0904,38.0505,1654.00,66.00,41.00,40.01,70.00,6.00,0.00,30.08,1011.00,10.00,M,CLR,M,M,M,M,M,M,M,M,M,M,M,M,M,M,66.00,KTPH 030356Z AUTO 07006KT 10SM CLR 19/05 A3008 RMK AO2 SLP110 T01890050,M
LAS,2025-07-03 03:56,-115.1634,36.0719,663.00,86.00,50.00,28.97,350.00,9.00,0.00,29.84,1007.80,10.00,M,FEW,FEW,SCT,SCT,7000.00,12000.00,16000.00,20000.00,M,M,M,M,M,M,M,83.62,KLAS 030356Z 35009KT 10SM FEW070 FEW120 SCT160 SCT200 30/10 A2984 RMK AO2 LTG DSNT NW SLP078 T03000100,M
NFL,2025-07-03 03:57,-118.7010,39.4166,1199.00,83.00,39.00,20.97,190.00,14.00,T,29.91,1010.20,10.00,M,SCT,SCT,BKN,M,8000.00,14000.00,22000.00,M,M,M,M,M,32.00,210.00,2025-07-03 03:04,80.60,KNFL 030357Z 19014KT 10SM SCT080 SCT140 BKN220 28/04 A2991 RMK AO2 PK WND 21032/0304 RAE21 TSE13 SLP102 CB DSNT N AND S P0000 T02830039,M
TMT,2025-07-03 04:10,-117.1971,39.4643,1749.34,58.00,37.00,45.37,270.00,5.00,0.00,30.07,M,10.00,M,CLR,M,M,M,M,M,M,M,M,M,M,M,M,M,M,58.00,KTMT 030410Z AUTO 27005KT 10SM CLR 14/03 A3007 RMK AO2 T01440027,M
BVU,2025-07-03 04:15,-114.8611,35.9475,671.00,86.00,46.40,25.31,350.00,14.00,0.00,29.81,M,10.00,M,CLR,M,M,M,M,M,M,M,M,M,M,M,M,M,M,83.23,KBVU 030415Z AUTO 35014KT 10SM CLR 30/08 A2981 RMK AO2,M
CXP,2025-07-03 04:15,-119.7326,39.1923,1431.00,73.40,41.00,31.08,190.00,8.00,0.00,30.01,M,10.00,M,CLR,M,M,M,M,M,M,M,M,M,M,M,M,M,M,73.40,KCXP 030415Z AUTO 19008KT 10SM CLR 23/05 A3001 RMK AO2,M
RTS,2025-07-03 04:15,-119.8764,39.6682,1539.00,73.40,37.40,27.00,260.00,9.00,0.00,30.02,M,10.00,M,CLR,M,M,M,M,M,M,M,M,M,M,M,M,M,M,73.40,KRTS 030415Z AUTO 26009KT 10SM CLR 23/03 A3002 RMK AO2,M
05U,2025-07-03 04:15,-116.0051,39.6042,1811.23,60.80,42.80,51.46,0.00,0.00,0.00,30.12,M,10.00,M,CLR,M,M,M,M,M,M,M,M,M,M,M,M,M,M,60.80,K05U 030415Z AUTO 00000KT 10SM CLR 16/06 A3012 RMK A01,M
MEV,2025-07-03 04:15,-119.7500,38.9963,1441.42,66.20,42.80,42.59,160.00,7.00,0.00,30.01,M,10.00,M,FEW,M,M,M,4700.00,M,M,M,M,M,M,M,M,M,M,66.20,KMEV 030415Z AUTO 16007KT 10SM FEW047 19/06 A3001 RMK AO2,M
BAM,2025-07-03 04:15,-116.8743,40.5990,1382.36,73.40,35.60,25.15,0.00,0.00,0.00,29.95,M,10.00,M,CLR,M,M,M,M,M,M,M,M,M,M,M,M,M,M,73.40,KBAM 030415Z AUTO 00000KT 10SM CLR 23/02 A2995 RMK AO1,M
HTH,2025-07-03 04:15,-118.6315,38.5448,1282.89,71.60,48.20,43.45,160.00,5.00,0.00,29.98,M,10.00,M,CLR,M,M,M,M,M,M,M,M,M,M,M,M,M,M,71.60,KHTH 030415Z AUTO 16005KT 10SM CLR 22/09 A2998 RMK A01,M
10U,2025-07-03 04:15,-116.1876,41.9532,1637.00,71.60,37.40,28.69,130.00,8.00,0.00,29.98,M,10.00,M,CLR,M,M,M,M,M,M,M,M,M,M,M,M,M,M,71.60,K10U 030415Z AUTO 13008KT 10SM CLR 22/03 A2998 RMK AO2,M
TMT,2025-07-03 04:30,-117.1971,39.4643,1749.34,57.70,35.80,43.74,220.00,4.00,0.00,30.08,M,10.00,M,CLR,M,M,M,M,M,M,M,M,M,M,M,M,M,M,57.70,KTMT 030430Z AUTO 22004KT 10SM CLR 14/02 A3008 RMK AO2 T01430021,M
BVU,2025-07-03 04:35,-114.8611,35.9475,671.00,86.00,46.40,25.31,360.00,10.00,0.00,29.82,M,10.00,M,CLR,M,M,M,M,M,M,M,M,M,M,M,M,M,M,83.23,KBVU 030435Z AUTO 36010KT 10SM CLR 30/08 A2982 RMK AO2 LTG DSNT SE,M
BAM,2025-07-03 04:35,-116.8743,40.5990,1382.36,75.20,35.60,23.68,0.00,0.00,0.00,29.95,M,10.00,M,CLR,M,M,M,M,M,M,M,M,M,M,M,M,M,M,75.20,KBAM 030435Z AUTO 00000KT 10SM CLR 24/02 A2995 RMK AO1,M
CXP,2025-07-03 04:35,-119.7326,39.1923,1431.00,73.40,42.80,33.31,M,5.00,0.00,30.02,M,10.00,M,CLR,M,M,M,M,M,M,M,M,M,M,M,M,M,M,73.40,KCXP 030435Z AUTO VRB05KT 10SM CLR 23/06 A3002 RMK AO2,M
RTS,2025-07-03 04:35,-119.8764,39.6682,1539.00,73.40,37.40,27.00,270.00,10.00,0.00,30.03,M,10.00,M,CLR,M,M,M,M,M,M,M,M,M,M,M,M,M,M,73.40,KRTS 030435Z AUTO 27010KT 10SM CLR 23/03 A3003 RMK AO2,M
05U,2025-07-03 04:35,-116.0051,39.6042,1811.23,57.20,42.80,58.52,0.00,0.00,0.00,30.12,M,10.00,M,CLR,M,M,M,M,M,M,M,M,M,M,M,M,M,M,57.20,K05U 030435Z AUTO 00000KT 10SM CLR 14/06 A3012 RMK A01,M
MEV,2025-07-03 04:35,-119.7500,38.9963,1441.42,68.00,41.00,37.34,150.00,6.00,0.00,30.02,M,10.00,M,FEW,SCT,M,M,4400.00,5000.00,M,M,M,M,M,M,M,M,M,68.00,KMEV 030435Z AUTO 15006KT 10SM FEW044 SCT050 20/05 A3002 RMK AO2,M
HTH,2025-07-03 04:35,-118.6315,38.5448,1282.89,71.60,44.60,37.92,170.00,7.00,0.00,29.98,M,10.00,12.00,CLR,M,M,M,M,M,M,M,M,M,M,M,M,M,M,71.60,KHTH 030435Z AUTO 17007G12KT 10SM CLR 22/07 A2998 RMK A01,M
10U,2025-07-03 04:35,-116.1876,41.9532,1637.00,68.00,37.40,32.44,130.00,7.00,0.00,29.98,M,10.00,M,CLR,M,M,M,M,M,M,M,M,M,M,M,M,M,M,68.00,K10U 030435Z AUTO 13007KT 10SM CLR 20/03 A2998 RMK AO2,M
TMT,2025-07-03 04:50,-117.1971,39.4643,1749.34,60.30,36.30,40.66,240.00,7.00,0.00,30.07,M,10.00,M,CLR,M,M,M,M,M,M,M,M,M,M,M,M,M,M,60.30,KTMT 030450Z AUTO 24007KT 10SM CLR 16/02 A3007 RMK AO2 T01570024,M
P68,2025-07-03 04:53,-116.0056,39.6014,1993.00,60.00,41.00,49.39,150.00,7.00,0.00,30.09,1010.50,M,M,M,M,M,M,M,M,M,M,M,M,M,M,M,M,M,60.00,KP68 030453Z AUTO 15007KT 16/05 A3009 RMK AO1 SLP105 T01560050,M
DRA,2025-07-03 04:53,-116.0278,36.6206,1009.00,75.00,55.00,49.82,50.00,7.00,0.00,29.92,1008.00,10.00,M,CLR,M,M,M,M,M,M,M,M,M,M,M,M,M,M,75.00,KDRA 030453Z AUTO 05007KT 10SM CLR 24/13 A2992 RMK AO2 SLP080 T02390128,M
ELY,2025-07-03 04:53,-114.8453,39.2950,1909.00,58.00,38.00,47.19,180.00,8.00,0.00,30.12,1010.90,M,M,CLR,M,M,M,M,M,M,M,M,M,M,M,M,M,M,58.00,KELY 030453Z AUTO 18008KT CLR 14/03 A3012 RMK AO2 SLP109 T01440033 $,M
VGT,2025-07-03 04:53,-115.1933,36.2111,667.00,85.00,50.00,29.91,330.00,8.00,0.00,29.83,1009.20,10.00,M,CLR,M,M,M,M,M,M,M,M,M,M,M,M,M,M,82.84,KVGT 030453Z AUTO 33008KT 10SM CLR 29/10 A2983 RMK AO2 LTG DSNT NW SLP092 T02940100,M
LOL,2025-07-03 04:53,-118.5701,40.0684,1192.43,82.00,37.00,20.02,40.00,8.00,0.00,29.89,1007.10,4.00,M,CLR,M,M,M,M,M,M,M,HZ,M,M,M,M,M,M,79.87,KLOL 030453Z AUTO 04008KT 4SM HZ CLR 28/03 A2989 RMK AO2 SLP071 T02780028,M
BVU,2025-07-03 04:55,-114.8611,35.9475,671.00,84.20,46.40,26.81,360.00,10.00,0.00,29.83,M,10.00,M,FEW,M,M,M,11000.00,M,M,M,M,M,M,M,M,M,M,81.87,KBVU 030455Z AUTO 36010KT 10SM FEW110 29/08 A2983 RMK AO2,M
RNO,2025-07-03 04:55,-119.7711,39.4839,1341.00,78.00,43.00,28.81,280.00,10.00,0.00,29.97,1008.80,10.00,17.00,FEW,M,M,M,16000.00,M,M,M,M,M,M,M,28.00,300.00,2025-07-03 04:10,78.00,KRNO 030455Z 28010G17KT 10SM FEW160 26/06 A2997 RMK AO2 PK WND 30028/0410 SLP088 T02560061,M
BAM,2025-07-03 04:55,-116.8743,40.5990,1382.36,73.40,35.60,25.15,240.00,4.00,0.00,29.95,M,10.00,M,CLR,M,M,M,M,M,M,M,M,M,M,M,M,M,M,73.40,KBAM 030455Z AUTO 24004KT 10SM CLR 23/02 A2995 RMK AO1,M
CXP,2025-07-03 04:55,-119.7326,39.1923,1431.00,73.40,42.80,33.31,0.00,0.00,0.00,30.02,M,10.00,M,CLR,M,M,M,M,M,M,M,M,M,M,M,M,M,M,73.40,KCXP 030455Z AUTO 00000KT 10SM CLR 23/06 A3002 RMK AO2,M
RTS,2025-07-03 04:55,-119.8764,39.6682,1539.00,69.80,37.40,30.50,290.00,7.00,0.00,30.04,M,10.00,M,CLR,M,M,M,M,M,M,M,M,M,M,M,M,M,M,69.80,KRTS 030455Z AUTO 29007KT 10SM CLR 21/03 A3004 RMK AO2,M
05U,2025-07-03 04:55,-116.0051,39.6042,1811.23,59.00,41.00,51.18,140.00,7.00,0.00,30.12,M,10.00,M,CLR,M,M,M,M,M,M,M,M,M,M,M,M,M,M,59.00,K05U 030455Z AUTO 14007KT 10SM CLR 15/05 A3012 RMK A01,M
MEV,2025-07-03 04:55,-119.7500,38.9963,1441.42,68.00,41.00,37.34,150.00,8.00,0.00,30.02,M,10.00,M,FEW,SCT,M,M,4400.00,5000.00,M,M,M,M,M,M,M,M,M,68.00,KMEV 030455Z AUTO 15008KT 10SM FEW044 SCT050 20/05 A3002 RMK AO2,M
HTH,2025-07-03 04:55,-118.6315,38.5448,1282.89,69.80,48.20,46.19,150.00,7.00,0.00,29.98,M,10.00,12.00,CLR,M,M,M,M,M,M,M,M,M,M,M,M,M,M,69.80,KHTH 030455Z AUTO 15007G12KT 10SM CLR 21/09 A2998 RMK A01,M
10U,2025-07-03 04:55,-116.1876,41.9532,1637.00,69.80,39.20,32.73,140.00,6.00,0.00,29.98,M,10.00,11.00,CLR,M,M,M,M,M,M,M,M,M,M,M,M,M,M,69.80,K10U 030455Z AUTO 14006G11KT 10SM CLR 21/04 A2998 RMK AO2,M
INS,2025-07-03 04:55,-115.6733,36.5872,955.00,76.60,53.00,43.91,130.00,5.00,0.00,29.91,1007.60,10.00,M,SCT,BKN,M,M,15000.00,17000.00,M,M,VCTS,M,M,M,M,M,M,76.60,KINS 030455Z AUTO 13005KT 10SM VCTS SCT150 BKN170 25/12 A2991 RMK AO2 SLP076 T02480117 $,M
LSV,2025-07-03 04:55,-115.0343,36.2362,570.00,85.60,46.80,26.02,0.00,0.00,0.00,29.78,1005.50,10.00,M,CLR,M,M,M,M,M,M,M,M,M,M,M,M,M,M,82.95,KLSV 030455Z AUTO 00000KT 10SM CLR 30/08 A2978 RMK AO2 LTG DSNT W-NW SLP055 T02980082 $,M
EKO,2025-07-03 04:56,-115.7860,40.8242,1367.00,71.00,40.00,32.42,M,5.00,0.00,30.00,1009.10,10.00,14.00,CLR,M,M,M,M,M,M,M,M,M,M,M,M,M,M,71.00,KEKO 030456Z AUTO VRB05G14KT 10SM CLR 22/04 A3000 RMK AO2 SLP091 T02170044,M
WMC,2025-07-03 04:56,-117.8072,40.9019,1315.00,80.00,35.00,19.74,170.00,9.00,0.00,29.89,1006.30,10.00,M,CLR,M,M,M,M,M,M,M,M,M,M,M,M,M,M,78.63,KWMC 030456Z AUTO 17009KT 10SM CLR 27/02 A2989 RMK AO2 SLP063 T02670017 TSNO,M
HND,2025-07-03 04:56,-115.1344,35.9729,742.79,81.00,54.00,39.43,110.00,4.00,0.00,29.89,1010.90,10.00,M,CLR,M,M,M,M,M,M,M,M,M,M,M,M,M,M,80.60,KHND 030456Z 11004KT 10SM CLR 27/12 A2989 RMK AO2 LTG DSNT NW SLP109 T02720122 $,M
TPH,2025-07-03 04:56,-117.0904,38.0505,1654.00,61.00,39.00,44.10,0.00,0.00,0.00,30.08,1012.60,10.00,M,CLR,M,M,M,M,M,M,M,M,M,M,M,M,M,M,61.00,KTPH 030456Z AUTO 00000KT 10SM CLR 16/04 A3008 RMK AO2 SLP126 T01610039,M
LAS,2025-07-03 04:56,-115.1634,36.0719,663.00,85.00,49.00,28.81,20.00,4.00,0.00,29.85,1008.30,10.00,M,BKN,OVC,M,M,12000.00,16000.00,M,M,M,M,M,M,M,M,M,82.72,KLAS 030456Z 02004KT 10SM BKN120 OVC160 29/09 A2985 RMK AO2 LTG DSNT NW SLP083 T02940094,M
NFL,2025-07-03 04:57,-118.7010,39.4166,1199.00,80.00,43.00,26.98,240.00,7.00,0.00,29.93,1010.80,10.00,M,SCT,SCT,SCT,M,7000.00,12000.00,22000.00,M,M,M,M,M,M,M,M,78.97,KNFL 030457Z 24007KT 10SM SCT070 SCT120 SCT220 27/06 A2993 RMK AO2 SLP108 T02670061,M
TMT,2025-07-03 05:10,-117.1971,39.4643,1749.34,54.70,34.30,45.93,130.00,3.00,0.00,30.08,M,10.00,M,CLR,M,M,M,M,M,M,M,M,M,M,M,M,M,M,54.70,KTMT 030510Z AUTO 13003KT 10SM CLR 13/01 A3008 RMK AO2 T01260013,M
BVU,2025-07-03 05:15,-114.8611,35.9475,671.00,84.20,46.40,26.81,360.00,9.00,0.00,29.83,M,10.00,14.00,SCT,M,M,M,12000.00,M,M,M,M,M,M,M,M,M,M,81.87,KBVU 030515Z AUTO 36009G14KT 10SM SCT120 29/08 A2983 RMK AO2 LTG DSNT E,M
BAM,2025-07-03 05:15,-116.8743,40.5990,1382.36,71.60,33.80,24.87,200.00,4.00,0.00,29.96,M,10.00,M,CLR,M,M,M,M,M,M,M,M,M,M,M,M,M,M,71.60,KBAM 030515Z AUTO 20004KT 10SM CLR 22/01 A2996 RMK AO1,M
CXP,2025-07-03 05:15,-119.7326,39.1923,1431.00,73.40,44.60,35.69,0.00,0.00,0.00,30.03,M,10.00,M,CLR,M,M,M,M,M,M,M,M,M,M,M,M,M,M,73.40,KCXP 030515Z AUTO 00000KT 10SM CLR 23/07 A3003 RMK AO2,M
RTS,2025-07-03 05:15,-119.8764,39.6682,1539.00,69.80,37.40,30.50,290.00,8.00,0.00,30.04,M,10.00,M,CLR,M,M,M,M,M,M,M,M,M,M,M,M,M,M,69.80,KRTS 030515Z AUTO 29008KT 10SM CLR 21/03 A3004 RMK AO2,M
05U,2025-07-03 05:15,-116.0051,39.6042,1811.23,59.00,41.00,51.18,140.00,4.00,0.00,30.12,M,10.00,M,CLR,M,M,M,M,M,M,M,M,M,M,M,M,M,M,59.00,K05U 030515Z AUTO 14004KT 10SM CLR 15/05 A3012 RMK A01,M
MEV,2025-07-03 05:15,-119.7500,38.9963,1441.42,64.40,42.80,45.34,160.00,6.00,0.00,30.03,M,10.00,M,FEW,SCT,SCT,M,3700.00,4700.00,5500.00,M,M,M,M,M,M,M,M,64.40,KMEV 030515Z AUTO 16006KT 10SM FEW037 SCT047 SCT055 18/06 A3003 RMK AO2,M
HTH,2025-07-03 05:15,-118.6315,38.5448,1282.89,69.80,50.00,49.40,160.00,6.00,0.00,29.99,M,10.00,M,CLR,M,M,M,M,M,M,M,M,M,M,M,M,M,M,69.80,KHTH 030515Z AUTO 16006KT 10SM CLR 21/10 A2999 RMK A01,M
10U,2025-07-03 05:15,-116.1876,41.9532,1637.00,69.80,39.20,32.73,150.00,7.00,0.00,29.98,M,10.00,M,CLR,M,M,M,M,M,M,M,M,M,M,M,M,M,M,69.80,K10U 030515Z AUTO 15007KT 10SM CLR 21/04 A2998 RMK AO2,M
TMT,2025-07-03 05:30,-117.1971,39.4643,1749.34,52.00,32.70,47.56,140.00,6.00,0.00,30.08,M,10.00,M,CLR,M,M,M,M,M,M,M,M,M,M,M,M,M,M,52.00,KTMT 030530Z AUTO 14006KT 10SM CLR 11/00 A3008 RMK AO2 T01120004,M
BVU,2025-07-03 05:35,-114.8611,35.9475,671.00,84.20,48.20,28.69,40.00,10.00,0.00,29.84,M,10.00,M,FEW,M,M,M,12000.00,M,M,M,M,M,M,M,M,M,M,82.04,KBVU 030535Z AUTO 04010KT 10SM FEW120 29/09 A2984 RMK AO2 LTG DSNT E,M
BAM,2025-07-03 05:35,-116.8743,40.5990,1382.36,71.60,35.60,26.72,230.00,4.00,0.00,29.95,M,10.00,M,CLR,M,M,M,M,M,M,M,M,M,M,M,M,M,M,71.60,KBAM 030535Z AUTO 23004KT 10SM CLR 22/02 A2995 RMK AO1,M
CXP,2025-07-03 05:35,-119.7326,39.1923,1431.00,73.40,44.60,35.69,M,3.00,0.00,30.03,M,10.00,M,CLR,M,M,M,M,M,M,M,M,M,M,M,M,M,M,73.40,KCXP 030535Z AUTO VRB03KT 10SM CLR 23/07 A3003 RMK AO2,M
RTS,2025-07-03 05:35,-119.8764,39.6682,1539.00,69.80,37.40,30.50,260.00,7.00,0.00,30.04,M,10.00,M,CLR,M,M,M,M,M,M,M,M,M,M,M,M,M,M,69.80,KRTS 030535Z AUTO 26007KT 10SM CLR 21/03 A3004 RMK AO2,M
05U,2025-07-03 05:35,-116.0051,39.6042,1811.23,57.20,39.20,50.91,0.00,0.00,0.00,30.12,M,10.00,M,CLR,M,M,M,M,M,M,M,M,M,M,M,M,M,M,57.20,K05U 030535Z AUTO 00000KT 10SM CLR 14/04 A3012 RMK A01,M
MEV,2025-07-03 05:35,-119.7500,38.9963,1441.42,66.20,42.80,42.59,160.00,6.00,0.00,30.02,M,10.00,M,FEW,FEW,FEW,M,3500.00,4200.00,4800.00,M,M,M,M,M,M,M,M,66.20,KMEV 030535Z AUTO 16006KT 10SM FEW035 FEW042 FEW048 19/06 A3002 RMK AO2,M
HTH,2025-07-03 05:35,-118.6315,38.5448,1282.89,69.80,48.20,46.19,190.00,5.00,0.00,29.98,M,10.00,M,CLR,M,M,M,M,M,M,M,M,M,M,M,M,M,M,69.80,KHTH 030535Z AUTO 19005KT 10SM CLR 21/09 A2998 RMK A01,M
10U,2025-07-03 05:35,-116.1876,41.9532,1637.00,68.00,37.40,32.44,150.00,6.00,0.00,29.98,M,10.00,M,FEW,M,M,M,12000.00,M,M,M,M,M,M,M,M,M,M,68.00,K10U 030535Z AUTO 15006KT 10SM FEW120 20/03 A2998 RMK AO2,M
TMT,2025-07-03 05:50,-117.1971,39.4643,1749.34,54.50,35.00,47.58,240.00,5.00,0.00,30.08,M,10.00,M,CLR,M,M,M,M,M,M,M,M,M,M,M,M,M,M,54.50,KTMT 030550Z AUTO 24005KT 10SM CLR 13/02 A3008 RMK AO2 T01250016,M
P68,2025-07-03 05:53,-116.0056,39.6014,1993.00,55.00,39.00,54.70,200.00,4.00,0.00,30.09,1010.90,M,M,M,M,M,M,M,M,M,M,M,M,M,M,M,M,M,55.00,KP68 030553Z AUTO 20004KT 13/04 A3009 RMK AO1 SLP109 T01280039 10228 20128 50003,M
DRA,2025-07-03 05:53,-116.0278,36.6206,1009.00,75.00,54.00,48.04,30.00,6.00,0.00,29.92,1008.20,10.00,M,FEW,M,M,M,12000.00,M,M,M,M,M,M,M,M,M,M,75.00,KDRA 030553Z AUTO 03006KT 10SM FEW120 24/12 A2992 RMK AO2 SLP082 T02390122 10289 20233 53003,M
ELY,2025-07-03 05:53,-114.8453,39.2950,1909.00,54.00,37.00,52.45,210.00,4.00,0.00,30.13,1011.80,M,M,CLR,M,M,M,M,M,M,M,M,M,M,M,M,M,M,54.00,KELY 030553Z AUTO 21004KT CLR 12/03 A3013 RMK AO2 SLP118 T01220028 10250 20122 53002 $,M
VGT,2025-07-03 05:53,-115.1933,36.2111,667.00,84.00,50.00,30.88,120.00,7.00,0.00,29.87,1010.30,10.00,M,BKN,M,M,M,11000.00,M,M,M,M,M,M,M,M,M,M,82.10,KVGT 030553Z AUTO 12007KT 060V150 10SM BKN110 29/10 A2987 RMK AO2 SLP103 60000 T02890100 10333 20289 53013,M
LOL,2025-07-03 05:53,-118.5701,40.0684,1192.43,78.00,37.00,22.81,230.00,8.00,0.00,29.90,1007.70,9.00,M,CLR,M,M,M,M,M,M,M,M,M,M,M,M,M,M,78.00,KLOL 030553Z AUTO 23008KT 9SM CLR 26/03 A2990 RMK AO2 SLP077 T02560028 10344 20250 51016,M
BVU,2025-07-03 05:55,-114.8611,35.9475,671.00,86.00,50.00,28.97,90.00,11.00,0.00,29.84,M,10.00,M,FEW,M,M,M,12000.00,M,M,M,M,M,M,M,M,M,M,83.62,KBVU 030555Z AUTO 09011KT 10SM FEW120 30/10 A2984 RMK AO2,M
RNO,2025-07-03 05:55,-119.7711,39.4839,1341.00,76.00,43.00,30.78,300.00,14.00,0.00,29.98,1009.10,10.00,M,FEW,M,M,M,12000.00,M,M,M,M,M,M,M,M,M,M,76.00,KRNO 030555Z 30014KT 10SM FEW120 24/06 A2998 RMK AO2 SLP091 T02440061 10322 20244 52012,M
BAM,2025-07-03 05:55,-116.8743,40.5990,1382.36,68.00,33.80,28.12,130.00,4.00,0.00,29.95,M,10.00,M,CLR,M,M,M,M,M,M,M,M,M,M,M,M,M,M,68.00,KBAM 030555Z AUTO 13004KT 10SM CLR 20/01 A2995 RMK AO1,M
CXP,2025-07-03 05:55,-119.7326,39.1923,1431.00,71.60,46.40,40.60,180.00,6.00,0.00,30.03,M,10.00,M,CLR,M,M,M,M,M,M,M,M,M,M,M,M,M,M,71.60,KCXP 030555Z AUTO 18006KT 10SM CLR 22/08 A3003 RMK AO2,M
RTS,2025-07-03 05:55,-119.8764,39.6682,1539.00,69.80,37.40,30.50,300.00,5.00,0.00,30.04,M,10.00,M,CLR,M,M,M,M,M,M,M,M,M,M,M,M,M,M,69.80,KRTS 030555Z AUTO 30005KT 10SM CLR 21/03 A3004 RMK AO2,M
05U,2025-07-03 05:55,-116.0051,39.6042,1811.23,55.40,39.20,54.33,0.00,0.00,0.00,30.11,M,10.00,M,CLR,M,M,M,M,M,M,M,M,M,M,M,M,M,M,55.40,K05U 030555Z AUTO 00000KT 10SM CLR 13/04 A3011 RMK A01,M
MEV,2025-07-03 05:55,-119.7500,38.9963,1441.42,64.40,42.80,45.34,120.00,7.00,0.00,30.03,M,10.00,M,CLR,M,M,M,M,M,M,M,M,M,M,M,M,M,M,64.40,KMEV 030555Z AUTO 12007KT 10SM CLR 18/06 A3003 RMK AO2,M
HTH,2025-07-03 05:55,-118.6315,38.5448,1282.89,69.80,48.20,46.19,0.00,0.00,0.00,29.99,M,10.00,M,CLR,M,M,M,M,M,M,M,M,M,M,M,M,M,M,69.80,KHTH 030555Z AUTO 00000KT 10SM CLR 21/09 A2999 RMK A01,M
10U,2025-07-03 05:55,-116.1876,41.9532,1637.00,68.00,39.20,34.81,130.00,9.00,0.00,29.98,M,10.00,14.00,FEW,M,M,M,12000.00,M,M,M,M,M,M,M,M,M,M,68.00,K10U 030555Z AUTO 13009G14KT 10SM FEW120 20/04 A2998 RMK AO2,M
INS,2025-07-03 05:55,-115.6733,36.5872,955.00,77.00,51.00,40.26,160.00,5.00,0.00,29.91,1007.60,10.00,M,BKN,BKN,M,M,14000.00,17000.00,M,M,M,M,M,M,M,M,M,77.00,KINS 030555Z AUTO 16005KT 10SM BKN140 BKN170 25/11 A2991 RMK AO2 LTG DSNT SW-W SLP076 60000 T02510105 10273 20247 55002 $,M
LSV,2025-07-03 05:55,-115.0343,36.2362,570.00,84.70,47.00,26.99,60.00,5.00,0.00,29.81,1006.60,10.00,M,FEW,M,M,M,12000.00,M,M,M,M,M,M,M,M,M,M,82.29,KLSV 030555Z AUTO 06005KT 10SM FEW120 29/08 A2981 RMK AO2 LTG DSNT NE SLP066 T02930083 10347 20293 52011 $,M
EKO,2025-07-03 05:56,-115.7860,40.8242,1367.00,68.00,41.00,37.34,M,M,0.00,30.01,1009.50,10.00,M,CLR,M,M,M,M,M,M,M,M,M,M,M,M,M,M,68.00,KEKO 030556Z AUTO 10SM CLR 20/05 A3001 RMK AO2 SLP095 T02000050 10278 20200 51006,M
WMC,2025-07-03 05:56,-117.8072,40.9019,1315.00,77.00,36.00,22.66,160.00,12.00,0.00,29.90,1006.40,10.00,M,CLR,M,M,M,M,M,M,M,M,M,M,M,M,M,M,77.00,KWMC 030556Z AUTO 16012KT 10SM CLR 25/02 A2990 RMK AO2 SLP064 T02500022 10350 20244 51008 TSNO,M
HND,2025-07-03 05:56,-115.1344,35.9729,742.79,81.00,53.00,38.01,0.00,0.00,0.00,29.90,1011.30,10.00,M,BKN,M,M,M,11000.00,M,M,M,M,M,M,M,M,M,M,80.47,KHND 030556Z 00000KT 10SM BKN110 27/12 A2990 RMK AO2 SLP113 T02720117 10328 20267 53010 $,M
TPH,2025-07-03 05:56,-117.0904,38.0505,1654.00,59.00,38.00,45.53,310.00,8.00,0.00,30.08,1013.20,10.00,M,CLR,M,M,M,M,M,M,M,M,M,M,M,M,M,M,59.00,KTPH 030556Z AUTO 31008KT 10SM CLR 15/03 A3008 RMK AO2 SLP132 T01500033 10244 20144 56001,M
LAS,2025-07-03 05:56,-115.1634,36.0719,663.00,85.00,50.00,29.91,60.00,5.00,0.00,29.87,1008.80,10.00,M,BKN,BKN,M,M,11000.00,16000.00,M,M,M,M,M,M,M,M,M,82.84,KLAS 030556Z 06005KT 10SM BKN110 BKN160 29/10 A2987 RMK AO2 SLP088 T02940100 10339 20289 53010,M
NFL,2025-07-03 05:57,-118.7010,39.4166,1199.00,79.00,42.00,26.83,230.00,10.00,0.00,29.93,1010.70,10.00,M,SCT,SCT,SCT,M,7000.00,12000.00,22000.00,M,M,M,M,M,M,M,M,79.00,KNFL 030557Z 23010KT 10SM SCT070 SCT120 SCT220 26/06 A2993 RMK AO2 SLP107 60000 T02610056 10344 20256 50012,M
INS,2025-07-03 06:10,-115.6733,36.5872,955.00,78.80,50.00,36.56,300.00,5.00,0.00,29.92,1007.70,10.00,M,BKN,BKN,BKN,M,11000.00,15000.00,17000.00,M,TS,M,M,M,M,M,M,78.80,KINS 030610Z AUTO 30005KT 10SM TS BKN110 BKN150 BKN170 26/10 A2992 RMK AO2 TSB10 SLP077 $,M
TMT,2025-07-03 06:10,-117.1971,39.4643,1749.34,54.00,36.00,50.41,230.00,8.00,0.00,30.09,M,10.00,M,CLR,M,M,M,M,M,M,M,M,M,M,M,M,M,M,54.00,KTMT 030610Z AUTO 23008KT 10SM CLR 12/02 A3009 RMK AO2 T01220023,M
BVU,2025-07-03 06:15,-114.8611,35.9475,671.00,84.20,53.60,35.04,110.00,13.00,0.00,29.86,M,10.00,M,CLR,M,M,M,M,M,M,M,M,M,M,M,M,M,M,82.76,KBVU 030615Z AUTO 11013KT 10SM CLR 29/12 A2986 RMK AO2,M
CXP,2025-07-03 06:15,-119.7326,39.1923,1431.00,71.60,44.60,37.92,170.00,4.00,0.00,30.03,M,10.00,M,CLR,M,M,M,M,M,M,M,M,M,M,M,M,M,M,71.60,KCXP 030615Z AUTO 17004KT 10SM CLR 22/07 A3003 RMK AO2,M
RTS,2025-07-03 06:15,-119.8764,39.6682,1539.00,66.20,37.40,34.52,360.00,4.00,0.00,30.05,M,10.00,M,CLR,M,M,M,M,M,M,M,M,M,M,M,M,M,M,66.20,KRTS 030615Z AUTO 36004KT 10SM CLR 19/03 A3005 RMK AO2,M
05U,2025-07-03 06:15,-116.0051,39.6042,1811.23,57.20,37.40,47.44,160.00,5.00,0.00,30.11,M,10.00,M,CLR,M,M,M,M,M,M,M,M,M,M,M,M,M,M,57.20,K05U 030615Z AUTO 16005KT 10SM CLR 14/03 A3011 RMK A01,M
MEV,2025-07-03 06:15,-119.7500,38.9963,1441.42,62.60,41.00,45.05,110.00,9.00,0.00,30.03,M,10.00,M,CLR,M,M,M,M,M,M,M,M,M,M,M,M,M,M,62.60,KMEV 030615Z AUTO 11009KT 10SM CLR 17/05 A3003 RMK AO2,M
BAM,2025-07-03 06:15,-116.8743,40.5990,1382.36,69.80,35.60,28.41,180.00,3.00,0.00,29.95,M,10.00,M,CLR,M,M,M,M,M,M,M,M,M,M,M,M,M,M,69.80,KBAM 030615Z AUTO 18003KT 10SM CLR 21/02 A2995 RMK AO1,M
HTH,2025-07-03 06:15,-118.6315,38.5448,1282.89,69.80,44.60,40.31,140.00,4.00,0.00,29.99,M,10.00,M,CLR,M,M,M,M,M,M,M,M,M,M,M,M,M,M,69.80,KHTH 030615Z AUTO 14004KT 10SM CLR 21/07 A2999 RMK A01,M
10U,2025-07-03 06:15,-116.1876,41.9532,1637.00,69.80,39.20,32.73,140.00,7.00,0.00,29.99,M,10.00,M,FEW,M,M,M,12000.00,M,M,M,M,M,M,M,M,M,M,69.80,K10U 030615Z AUTO 14007KT 10SM FEW120 21/04 A2999 RMK AO2,M
TMT,2025-07-03 06:30,-117.1971,39.4643,1749.34,57.40,36.00,44.57,180.00,7.00,0.00,30.09,M,10.00,M,CLR,M,M,M,M,M,M,M,M,M,M,M,M,M,M,57.40,KTMT 030630Z AUTO 18007KT 10SM CLR 14/02 A3009 RMK AO2 T01410022,M
BVU,2025-07-03 06:35,-114.8611,35.9475,671.00,82.40,53.60,37.13,120.00,9.00,0.00,29.86,M,10.00,M,CLR,M,M,M,M,M,M,M,M,M,M,M,M,M,M,81.46,KBVU 030635Z AUTO 12009KT 10SM CLR 28/12 A2986 RMK AO2,M
BAM,2025-07-03 06:35,-116.8743,40.5990,1382.36,68.00,33.80,28.12,160.00,3.00,0.00,29.95,M,10.00,M,CLR,M,M,M,M,M,M,M,M,M,M,M,M,M,M,68.00,KBAM 030635Z AUTO 16003KT 10SM CLR 20/01 A2995 RMK AO1,M
CXP,2025-07-03 06:35,-119.7326,39.1923,1431.00,71.60,44.60,37.92,350.00,3.00,0.00,30.04,M,10.00,M,CLR,M,M,M,M,M,M,M,M,M,M,M,M,M,M,71.60,KCXP 030635Z AUTO 35003KT 10SM CLR 22/07 A3004 RMK AO2,M
RTS,2025-07-03 06:35,-119.8764,39.6682,1539.00,68.00,39.20,34.81,300.00,4.00,0.00,30.05,M,10.00,M,CLR,M,M,M,M,M,M,M,M,M,M,M,M,M,M,68.00,KRTS 030635Z AUTO 30004KT 10SM CLR 20/04 A3005 RMK AO2,M
05U,2025-07-03 06:35,-116.0051,39.6042,1811.23,55.40,37.40,50.63,160.00,5.00,0.00,30.11,M,10.00,M,CLR,M,M,M,M,M,M,M,M,M,M,M,M,M,M,55.40,K05U 030635Z AUTO 16005KT 10SM CLR 13/03 A3011 RMK A01,M
MEV,2025-07-03 06:35,-119.7500,38.9963,1441.42,60.80,42.80,51.46,150.00,10.00,0.00,30.03,M,10.00,M,CLR,M,M,M,M,M,M,M,M,M,M,M,M,M,M,60.80,KMEV 030635Z AUTO 15010KT 10SM CLR 16/06 A3003 RMK AO2,M
HTH,2025-07-03 06:35,-118.6315,38.5448,1282.89,68.00,50.00,52.54,190.00,5.00,0.00,29.99,M,10.00,M,CLR,M,M,M,M,M,M,M,M,M,M,M,M,M,M,68.00,KHTH 030635Z AUTO 19005KT 10SM CLR 20/10 A2999 RMK A01,M
10U,2025-07-03 06:35,-116.1876,41.9532,1637.00,69.80,37.40,30.50,210.00,4.00,0.00,29.99,M,10.00,M,CLR,M,M,M,M,M,M,M,M,M,M,M,M,M,M,69.80,K10U 030635Z AUTO 21004KT 10SM CLR 21/03 A2999 RMK AO2,M
TMT,2025-07-03 06:50,-117.1971,39.4643,1749.34,56.00,35.80,46.51,150.00,7.00,0.00,30.09,M,10.00,M,CLR,M,M,M,M,M,M,M,M,M,M,M,M,M,M,56.00,KTMT 030650Z AUTO 15007KT 10SM CLR 13/02 A3009 RMK AO2 T01340021,M
P68,2025-07-03 06:53,-116.0056,39.6014,1993.00,54.00,36.00,50.41,190.00,5.00,0.00,30.08,1010.80,M,M,M,M,M,M,M,M,M,M,M,M,M,M,M,M,M,54.00,KP68 030653Z AUTO 19005KT 12/02 A3008 RMK AO1 SLP108 T01220022,M
DRA,2025-07-03 06:53,-116.0278,36.6206,1009.00,71.00,57.00,61.28,40.00,15.00,0.04,29.94,1009.00,10.00,M,FEW,SCT,SCT,M,4200.00,7000.00,8000.00,M,M,M,M,M,M,M,M,71.00,KDRA 030653Z AUTO 04015KT 10SM FEW042 SCT070 SCT080 22/14 A2994 RMK AO2 WSHFT 0633 RAB11E51 SLP090 P0004 T02170139,M
ELY,2025-07-03 06:53,-114.8453,39.2950,1909.00,52.00,35.00,52.14,140.00,5.00,0.00,30.13,1012.10,M,M,CLR,M,M,M,M,M,M,M,M,M,M,M,M,M,M,52.00,KELY 030653Z AUTO 14005KT CLR 11/02 A3013 RMK AO2 SLP121 T01110017 $,M
VGT,2025-07-03 06:53,-115.1933,36.2111,667.00,83.00,50.00,31.89,0.00,0.00,0.00,29.87,1010.50,10.00,M,CLR,M,M,M,M,M,M,M,M,M,M,M,M,M,M,81.39,KVGT 030653Z AUTO 00000KT 10SM CLR 28/10 A2987 RMK AO2 LTG DSNT N AND NW SLP105 T02830100,M
LOL,2025-07-03 06:53,-118.5701,40.0684,1192.43,73.00,38.00,28.02,230.00,8.00,0.00,29.91,1007.80,10.00,M,CLR,M,M,M,M,M,M,M,M,M,M,M,M,M,M,73.00,KLOL 030653Z AUTO 23008KT 10SM CLR 23/03 A2991 RMK AO2 SLP078 T02280033,M
BVU,2025-07-03 06:55,-114.8611,35.9475,671.00,82.40,53.60,37.13,120.00,8.00,0.00,29.87,M,10.00,M,FEW,M,M,M,12000.00,M,M,M,M,M,M,M,M,M,M,81.46,KBVU 030655Z AUTO 12008KT 10SM FEW120 28/12 A2987 RMK AO2,M
RNO,2025-07-03 06:55,-119.7711,39.4839,1341.00,74.00,41.00,30.46,150.00,4.00,0.00,30.00,1009.50,10.00,M,FEW,M,M,M,12000.00,M,M,M,M,M,M,M,M,M,M,74.00,KRNO 030655Z 15004KT 10SM FEW120 23/05 A3000 RMK AO2 SLP095 T02330050,M
BAM,2025-07-03 06:55,-116.8743,40.5990,1382.36,68.00,33.80,28.12,200.00,4.00,0.00,29.95,M,10.00,M,CLR,M,M,M,M,M,M,M,M,M,M,M,M,M,M,68.00,KBAM 030655Z AUTO 20004KT 10SM CLR 20/01 A2995 RMK AO1,M
CXP,2025-07-03 06:55,-119.7326,39.1923,1431.00,71.60,44.60,37.92,0.00,0.00,0.00,30.04,M,10.00,M,CLR,M,M,M,M,M,M,M,M,M,M,M,M,M,M,71.60,KCXP 030655Z AUTO 00000KT 10SM CLR 22/07 A3004 RMK AO2,M
RTS,2025-07-03 06:55,-119.8764,39.6682,1539.00,64.40,37.40,36.75,290.00,5.00,0.00,30.05,M,10.00,M,CLR,M,M,M,M,M,M,M,M,M,M,M,M,M,M,64.40,KRTS 030655Z AUTO 29005KT 10SM CLR 18/03 A3005 RMK AO2,M
05U,2025-07-03 06:55,-116.0051,39.6042,1811.23,53.60,37.40,54.07,0.00,0.00,0.00,30.11,M,10.00,M,CLR,M,M,M,M,M,M,M,M,M,M,M,M,M,M,53.60,K05U 030655Z AUTO 00000KT 10SM CLR 12/03 A3011 RMK A01,M
MEV,2025-07-03 06:55,-119.7500,38.9963,1441.42,59.00,42.80,54.86,M,3.00,0.00,30.03,M,10.00,M,FEW,M,M,M,4300.00,M,M,M,M,M,M,M,M,M,M,59.00,KMEV 030655Z AUTO VRB03KT 10SM FEW043 15/06 A3003 RMK AO2,M
HTH,2025-07-03 06:55,-118.6315,38.5448,1282.89,66.20,50.00,55.91,170.00,3.00,0.00,29.99,M,10.00,M,CLR,M,M,M,M,M,M,M,M,M,M,M,M,M,M,66.20,KHTH 030655Z AUTO 17003KT 10SM CLR 19/10 A2999 RMK A01,M
10U,2025-07-03 06:55,-116.1876,41.9532,1637.00,68.00,37.40,32.44,170.00,3.00,0.00,29.99,M,10.00,M,CLR,M,M,M,M,M,M,M,M,M,M,M,M,M,M,68.00,K10U 030655Z AUTO 17003KT 10SM CLR 20/03 A2999 RMK AO2,M
INS,2025-07-03 06:55,-115.6733,36.5872,955.00,74.00,55.20,51.89,250.00,11.00,0.00,29.96,1009.30,10.00,M,OVC,M,M,M,10000.00,M,M,M,TS,M,M,M,M,M,M,74.00,KINS 030655Z AUTO 25011KT 10SM TS OVC100 23/13 A2996 RMK AO2 TSE0555TSB10E24TSB25 SLP093 T02330129 $,M
EKO,2025-07-03 06:56,-115.7860,40.8242,1367.00,63.00,40.00,42.73,0.00,0.00,0.00,30.00,1009.80,10.00,M,CLR,M,M,M,M,M,M,M,M,M,M,M,M,M,M,63.00,KEKO 030656Z AUTO 00000KT 10SM CLR 17/04 A3000 RMK AO2 SLP098 T01720044,M
WMC,2025-07-03 06:56,-117.8072,40.9019,1315.00,75.00,34.00,22.37,200.00,9.00,0.00,29.91,1007.00,10.00,M,CLR,M,M,M,M,M,M,M,M,M,M,M,M,M,M,75.00,KWMC 030656Z AUTO 20009KT 10SM CLR 24/01 A2991 RMK AO2 SLP070 T02390011 TSNO,M
HND,2025-07-03 06:56,-115.1344,35.9729,742.79,79.00,53.00,40.57,90.00,3.00,0.00,29.91,1012.00,10.00,M,CLR,M,M,M,M,M,M,M,M,M,M,M,M,M,M,79.00,KHND 030656Z 09003KT 10SM CLR 26/12 A2991 RMK AO2 LTG DSNT SE SLP120 T02610117 403280239 $,M
TPH,2025-07-03 06:56,-117.0904,38.0505,1654.00,59.00,37.00,43.78,340.00,6.00,0.00,30.08,1013.50,10.00,M,CLR,M,M,M,M,M,M,M,M,M,M,M,M,M,M,59.00,KTPH 030656Z AUTO 34006KT 10SM CLR 15/03 A3008 RMK AO2 SLP135 T01500028,M
LAS,2025-07-03 06:56,-115.1634,36.0719,663.00,84.00,50.00,30.88,110.00,3.00,0.00,29.88,1009.30,10.00,M,FEW,M,M,M,11000.00,M,M,M,M,M,M,M,M,M,M,82.10,KLAS 030656Z 11003KT 10SM FEW110 29/10 A2988 RMK AO2 LTG DSNT NW SLP093 CB DSNT NW T02890100,M
DRA,2025-07-03 06:57,-116.0278,36.6206,1009.00,72.00,55.00,55.10,30.00,14.00,0.00,29.94,M,10.00,M,FEW,SCT,M,M,4200.00,7000.00,M,M,M,M,M,M,M,M,M,72.00,KDRA 030657Z AUTO 03014KT 10SM FEW042 SCT070 22/13 A2994 RMK AO2 WSHFT 0640 T02220128,M
NFL,2025-07-03 06:57,-118.7010,39.4166,1199.00,77.00,42.00,28.65,240.00,11.00,0.00,29.93,1010.80,10.00,M,CLR,M,M,M,M,M,M,M,M,M,M,M,M,M,M,77.00,KNFL 030657Z AUTO 24011KT 10SM CLR 25/06 A2993 RMK AO2 SLP108 T02500056,M
TMT,2025-07-03 07:10,-117.1971,39.4643,1749.34,57.20,36.30,45.42,160.00,3.00,0.00,30.09,M,10.00,M,CLR,M,M,M,M,M,M,M,M,M,M,M,M,M,M,57.20,KTMT 030710Z AUTO 16003KT 10SM CLR 14/02 A3009 RMK AO2 T01400024,M
BVU,2025-07-03 07:15,-114.8611,35.9475,671.00,80.60,53.60,39.36,10.00,11.00,0.00,29.84,M,10.00,M,FEW,SCT,BKN,M,7000.00,8000.00,12000.00,M,M,M,M,M,M,M,M,80.30,KBVU 030715Z AUTO 01011KT 10SM FEW070 SCT080 BKN120 27/12 A2984 RMK AO2,M
BAM,2025-07-03 07:15,-116.8743,40.5990,1382.36,71.60,35.60,26.72,200.00,4.00,0.00,29.96,M,10.00,M,CLR,M,M,M,M,M,M,M,M,M,M,M,M,M,M,71.60,KBAM 030715Z AUTO 20004KT 10SM CLR 22/02 A2996 RMK AO1,M
CXP,2025-07-03 07:15,-119.7326,39.1923,1431.00,69.80,44.60,40.31,210.00,5.00,0.00,30.04,M,10.00,M,CLR,M,M,M,M,M,M,M,M,M,M,M,M,M,M,69.80,KCXP 030715Z AUTO 21005KT 10SM CLR 21/07 A3004 RMK AO2,M
RTS,2025-07-03 07:15,-119.8764,39.6682,1539.00,64.40,37.40,36.75,300.00,7.00,0.00,30.05,M,10.00,M,CLR,M,M,M,M,M,M,M,M,M,M,M,M,M,M,64.40,KRTS 030715Z AUTO 30007KT 10SM CLR 18/03 A3005 RMK AO2,M
05U,2025-07-03 07:15,-116.0051,39.6042,1811.23,51.80,37.40,57.76,0.00,0.00,0.00,30.11,M,10.00,M,CLR,M,M,M,M,M,M,M,M,M,M,M,M,M,M,51.80,K05U 030715Z AUTO 00000KT 10SM CLR 11/03 A3011 RMK A01,M
MEV,2025-07-03 07:15,-119.7500,38.9963,1441.42,60.80,42.80,51.46,0.00,0.00,0.00,30.03,M,10.00,M,FEW,M,M,M,4100.00,M,M,M,M,M,M,M,M,M,M,60.80,KMEV 030715Z AUTO 00000KT 10SM FEW041 16/06 A3003 RMK AO2,M
HTH,2025-07-03 07:15,-118.6315,38.5448,1282.89,64.40,50.00,59.52,120.00,8.00,0.00,29.99,M,10.00,M,CLR,M,M,M,M,M,M,M,M,M,M,M,M,M,M,64.40,KHTH 030715Z AUTO 12008KT 10SM CLR 18/10 A2999 RMK A01,M
10U,2025-07-03 07:15,-116.1876,41.9532,1637.00,68.00,37.40,32.44,0.00,0.00,0.00,29.99,M,10.00,M,CLR,M,M,M,M,M,M,M,M,M,M,M,M,M,M,68.00,K10U 030715Z AUTO 00000KT 10SM CLR 20/03 A2999 RMK AO2,M
INS,2025-07-03 07:16,-115.6733,36.5872,955.00,75.20,51.80,44.02,210.00,13.00,0.00,29.97,1009.70,10.00,M,FEW,BKN,BKN,OVC,7000.00,10000.00,12000.00,14000.00,-TSRA,M,M,M,M,M,M,75.20,KINS 030716Z AUTO 21013KT 10SM -TSRA FEW070 BKN100 BKN120 OVC140 24/11 A2997 RMK AO2 RAB16 SLP097 $,M
RTS,2025-07-03 07:25,-119.8764,39.6682,1539.00,62.60,39.20,42.00,340.00,9.00,0.00,30.04,M,10.00,M,CLR,M,M,M,M,M,M,M,M,M,M,M,M,M,M,62.60,KRTS 030725Z AUTO 34009KT 10SM CLR 17/04 A3004 RMK AO2,M
MEV,2025-07-03 07:25,-119.7500,38.9963,1441.42,60.80,42.80,51.46,0.00,0.00,0.00,30.03,M,10.00,M,FEW,M,M,M,4200.00,M,M,M,M,M,M,M,M,M,M,60.80,KMEV 030725Z AUTO 00000KT 10SM FEW042 16/06 A3003 RMK AO2,M
TMT,2025-07-03 07:30,-117.1971,39.4643,1749.34,53.40,35.00,49.53,240.00,4.00,0.00,30.09,M,10.00,M,CLR,M,M,M,M,M,M,M,M,M,M,M,M,M,M,53.40,KTMT 030730Z AUTO 24004KT 10SM CLR 12/02 A3009 RMK AO2 T01190016,M
BVU,2025-07-03 07:35,-114.8611,35.9475,671.00,78.80,55.40,44.58,150.00,8.00,0.00,29.86,M,10.00,13.00,FEW,FEW,SCT,M,700.00,6000.00,7500.00,M,M,M,M,M,M,M,M,78.80,KBVU 030735Z AUTO 15008G13KT 10SM FEW007 FEW060 SCT075 26/13 A2986 RMK AO2 LTG DSNT S,M
BAM,2025-07-03 07:35,-116.8743,40.5990,1382.36,69.80,35.60,28.41,0.00,0.00,0.00,29.95,M,10.00,M,CLR,M,M,M,M,M,M,M,M,M,M,M,M,M,M,69.80,KBAM 030735Z AUTO 00000KT 10SM CLR 21/02 A2995 RMK AO1,M
CXP,2025-07-03 07:35,-119.7326,39.1923,1431.00,69.80,42.80,37.63,0.00,0.00,0.00,30.04,M,10.00,M,CLR,M,M,M,M,M,M,M,M,M,M,M,M,M,M,69.80,KCXP 030735Z AUTO 00000KT 10SM CLR 21/06 A3004 RMK AO2,M
05U,2025-07-03 07:35,-116.0051,39.6042,1811.23,53.60,39.20,58.02,0.00,0.00,0.00,30.11,M,10.00,M,CLR,M,M,M,M,M,M,M,M,M,M,M,M,M,M,53.60,K05U 030735Z AUTO 00000KT 10SM CLR 12/04 A3011 RMK A01,M
HTH,2025-07-03 07:35,-118.6315,38.5448,1282.89,64.40,48.20,55.65,150.00,8.00,0.00,29.99,M,10.00,M,CLR,M,M,M,M,M,M,M,M,M,M,M,M,M,M,64.40,KHTH 030735Z AUTO 15008KT 10SM CLR 18/09 A2999 RMK A01,M
10U,2025-07-03 07:35,-116.1876,41.9532,1637.00,68.00,37.40,32.44,170.00,5.00,0.00,29.99,M,10.00,M,SCT,M,M,M,12000.00,M,M,M,M,M,M,M,M,M,M,68.00,K10U 030735Z AUTO 17005KT 10SM SCT120 20/03 A2999 RMK AO2,M
TMT,2025-07-03 07:50,-117.1971,39.4643,1749.34,52.00,34.50,51.11,260.00,4.00,0.00,30.09,M,10.00,M,CLR,M,M,M,M,M,M,M,M,M,M,M,M,M,M,52.00,KTMT 030750Z AUTO 26004KT 10SM CLR 11/01 A3009 RMK AO2 T01120014,M
P68,2025-07-03 07:53,-116.0056,39.6014,1993.00,53.00,39.00,58.85,190.00,6.00,0.00,30.08,1010.80,M,M,M,M,M,M,M,M,M,M,M,M,M,M,M,M,M,53.00,KP68 030753Z AUTO 19006KT 12/04 A3008 RMK AO1 SLP108 T01170039 402720106,M
DRA,2025-07-03 07:53,-116.0278,36.6206,1009.00,71.00,56.00,59.11,80.00,14.00,T,29.94,1009.70,10.00,M,FEW,BKN,M,M,4900.00,10000.00,M,M,M,M,M,M,M,M,M,71.00,KDRA 030753Z AUTO 08014KT 10SM FEW049 BKN100 22/13 A2994 RMK AO2 WSHFT 0640 RAB29E47 SLP097 P0000 T02170133 403280211,M
ELY,2025-07-03 07:53,-114.8453,39.2950,1909.00,50.00,36.00,58.42,200.00,8.00,0.00,30.12,1012.20,M,M,CLR,M,M,M,M,M,M,M,M,M,M,M,M,M,M,50.00,KELY 030753Z AUTO 20008KT CLR 10/02 A3012 RMK AO2 SLP122 T01000022 402560100 $,M
VGT,2025-07-03 07:53,-115.1933,36.2111,667.00,83.00,51.00,33.09,20.00,7.00,0.00,29.88,1010.90,10.00,M,FEW,M,M,M,11000.00,M,M,M,M,M,M,M,M,M,M,81.51,KVGT 030753Z AUTO 02007KT 10SM FEW110 28/11 A2988 RMK AO2 SLP109 T02830106 403390278,M
LOL,2025-07-03 07:53,-118.5701,40.0684,1192.43,73.00,36.00,25.90,M,3.00,0.00,29.91,1008.00,10.00,M,CLR,M,M,M,M,M,M,M,M,M,M,M,M,M,M,73.00,KLOL 030753Z AUTO VRB03KT 10SM CLR 23/02 A2991 RMK AO2 SLP080 T02280022 403610139,M
BVU,2025-07-03 07:55,-114.8611,35.9475,671.00,78.80,59.00,50.76,170.00,7.00,0.00,29.87,M,10.00,12.00,FEW,SCT,BKN,M,5000.00,6500.00,12000.00,M,M,M,M,M,M,M,M,78.80,KBVU 030755Z AUTO 17007G12KT 10SM FEW050 SCT065 BKN120 26/15 A2987 RMK AO2,M
RNO,2025-07-03 07:55,-119.7711,39.4839,1341.00,73.00,43.00,34.02,270.00,7.00,0.00,30.00,1009.40,10.00,M,CLR,M,M,M,M,M,M,M,M,M,M,M,M,M,M,73.00,KRNO 030755Z 27007KT 10SM CLR 23/06 A3000 RMK AO2 SLP094 T02280061 403390161,M
BAM,2025-07-03 07:55,-116.8743,40.5990,1382.36,66.20,35.60,32.15,120.00,4.00,0.00,29.95,M,10.00,M,CLR,M,M,M,M,M,M,M,M,M,M,M,M,M,M,66.20,KBAM 030755Z AUTO 12004KT 10SM CLR 19/02 A2995 RMK AO1,M
CXP,2025-07-03 07:55,-119.7326,39.1923,1431.00,69.80,41.00,35.11,0.00,0.00,0.00,30.04,M,10.00,M,CLR,M,M,M,M,M,M,M,M,M,M,M,M,M,M,69.80,KCXP 030755Z AUTO 00000KT 10SM CLR 21/05 A3004 RMK AO2,M
05U,2025-07-03 07:55,-116.0051,39.6042,1811.23,53.60,39.20,58.02,190.00,7.00,0.00,30.10,M,10.00,M,CLR,M,M,M,M,M,M,M,M,M,M,M,M,M,M,53.60,K05U 030755Z AUTO 19007KT 10SM CLR 12/04 A3010 RMK A01,M
HTH,2025-07-03 07:55,-118.6315,38.5448,1282.89,66.20,46.40,48.85,150.00,5.00,0.00,29.99,M,10.00,M,CLR,M,M,M,M,M,M,M,M,M,M,M,M,M,M,66.20,KHTH 030755Z AUTO 15005KT 10SM CLR 19/08 A2999 RMK A01,M
10U,2025-07-03 07:55,-116.1876,41.9532,1637.00,64.40,37.40,36.75,130.00,9.00,0.00,29.99,M,10.00,M,SCT,M,M,M,12000.00,M,M,M,M,M,M,M,M,M,M,64.40,K10U 030755Z AUTO 13009KT 10SM SCT120 18/03 A2999 RMK AO2,M
EKO,2025-07-03 07:56,-115.7860,40.8242,1367.00,61.00,39.00,44.10,M,4.00,0.00,30.00,1009.80,10.00,M,CLR,M,M,M,M,M,M,M,M,M,M,M,M,M,M,61.00,KEKO 030756Z AUTO VRB04KT 10SM CLR 16/04 A3000 RMK AO2 SLP098 T01610039 403220161,M
WMC,2025-07-03 07:56,-117.8072,40.9019,1315.00,72.00,34.00,24.74,280.00,5.00,0.00,29.92,1007.10,10.00,M,CLR,M,M,M,M,M,M,M,M,M,M,M,M,M,M,72.00,KWMC 030756Z AUTO 28005KT 10SM CLR 22/01 A2992 RMK AO2 SLP071 T02220011 403560111 TSNO,M
HND,2025-07-03 07:56,-115.1344,35.9729,742.79,80.00,55.00,42.25,0.00,0.00,0.00,29.92,1012.10,10.00,M,SCT,M,M,M,11000.00,M,M,M,M,M,M,M,M,M,M,80.11,KHND 030756Z 00000KT 10SM SCT110 27/13 A2992 RMK AO2 LTG DSNT SE AND S SLP121 T02670128 $,M
TPH,2025-07-03 07:56,-117.0904,38.0505,1654.00,57.00,36.00,45.21,10.00,6.00,0.00,30.08,1013.30,10.00,M,CLR,M,M,M,M,M,M,M,M,M,M,M,M,M,M,57.00,KTPH 030756Z AUTO 01006KT 10SM CLR 14/02 A3008 RMK AO2 SLP133 T01390022 402610139,M
LAS,2025-07-03 07:56,-115.1634,36.0719,663.00,83.00,50.00,31.89,320.00,4.00,0.00,29.88,1009.40,10.00,M,SCT,M,M,M,11000.00,M,M,M,M,M,M,M,M,M,M,81.39,KLAS 030756Z 32004KT 10SM SCT110 28/10 A2988 RMK AO2 LTG DSNT SE AND S SLP094 CB DSNT SE-S AND NW T02830100 403390272,M
NFL,2025-07-03 07:57,-118.7010,39.4166,1199.00,75.00,41.00,29.46,240.00,10.00,0.00,29.93,1010.80,10.00,M,CLR,M,M,M,M,M,M,M,M,M,M,M,M,M,M,75.00,KNFL 030757Z AUTO 24010KT 10SM CLR 24/05 A2993 RMK AO2 SLP108 T02390050 403610133,M
RTS,2025-07-03 08:05,-119.8764,39.6682,1539.00,66.20,37.40,34.52,310.00,6.00,0.00,30.05,M,10.00,M,CLR,M,M,M,M,M,M,M,M,M,M,M,M,M,M,66.20,KRTS 030805Z AUTO 31006KT 10SM CLR 19/03 A3005 RMK AO2,M
MEV,2025-07-03 08:05,-119.7500,38.9963,1441.42,55.40,39.20,54.33,0.00,0.00,0.00,30.03,M,10.00,M,FEW,FEW,FEW,M,3600.00,4200.00,4800.00,M,M,M,M,M,M,M,M,55.40,KMEV 030805Z AUTO 00000KT 10SM FEW036 FEW042 FEW048 13/04 A3003 RMK AO2,M
TMT,2025-07-03 08:10,-117.1971,39.4643,1749.34,52.00,35.20,52.56,210.00,6.00,0.00,30.09,M,10.00,M,CLR,M,M,M,M,M,M,M,M,M,M,M,M,M,M,52.00,KTMT 030810Z AUTO 21006KT 10SM CLR 11/02 A3009 RMK AO2 T01120018,M
BVU,2025-07-03 08:15,-114.8611,35.9475,671.00,78.80,55.40,44.58,50.00,12.00,0.00,29.83,M,10.00,17.00,FEW,SCT,BKN,M,3600.00,4900.00,7000.00,M,M,M,M,M,M,M,M,78.80,KBVU 030815Z AUTO 05012G17KT 10SM FEW036 SCT049 BKN070 26/13 A2983 RMK AO2 LTG DSNT SE AND S,M
CXP,2025-07-03 08:15,-119.7326,39.1923,1431.00,68.00,41.00,37.34,200.00,3.00,0.00,30.04,M,10.00,M,CLR,M,M,M,M,M,M,M,M,M,M,M,M,M,M,68.00,KCXP 030815Z AUTO 20003KT 10SM CLR 20/05 A3004 RMK AO2,M
05U,2025-07-03 08:15,-116.0051,39.6042,1811.23,55.40,37.40,50.63,170.00,6.00,0.00,30.11,M,10.00,M,CLR,M,M,M,M,M,M,M,M,M,M,M,M,M,M,55.40,K05U 030815Z AUTO 17006KT 10SM CLR 13/03 A3011 RMK A01,M
BAM,2025-07-03 08:15,-116.8743,40.5990,1382.36,64.40,33.80,31.86,0.00,0.00,0.00,29.95,M,10.00,M,CLR,M,M,M,M,M,M,M,M,M,M,M,M,M,M,64.40,KBAM 030815Z AUTO 00000KT 10SM CLR 18/01 A2995 RMK AO1,M
HTH,2025-07-03 08:15,-118.6315,38.5448,1282.89,64.40,46.40,52.00,130.00,10.00,0.00,29.99,M,10.00,M,CLR,M,M,M,M,M,M,M,M,M,M,M,M,M,M,64.40,KHTH 030815Z AUTO 13010KT 10SM CLR 18/08 A2999 RMK A01,M
10U,2025-07-03 08:15,-116.1876,41.9532,1637.00,62.60,37.40,39.14,140.00,7.00,0.00,29.99,M,10.00,M,BKN,M,M,M,12000.00,M,M,M,M,M,M,M,M,M,M,62.60,K10U 030815Z AUTO 14007KT 10SM BKN120 17/03 A2999 RMK AO2,M
TMT,2025-07-03 08:30,-117.1971,39.4643,1749.34,50.70,35.60,56.03,230.00,3.00,0.00,30.09,M,10.00,M,CLR,M,M,M,M,M,M,M,M,M,M,M,M,M,M,50.70,KTMT 030830Z AUTO 23003KT 10SM CLR 10/02 A3009 RMK AO2 T01040020,M
BVU,2025-07-03 08:35,-114.8611,35.9475,671.00,80.60,55.40,42.03,M,4.00,0.00,29.89,M,10.00,10.00,FEW,FEW,FEW,M,3700.00,4500.00,7500.00,M,VCTS,M,M,M,M,M,M,80.54,KBVU 030835Z AUTO VRB04G10KT 10SM VCTS FEW037 FEW045 FEW075 27/13 A2989 RMK AO2 LTG DSNT NE-S,M
CXP,2025-07-03 08:35,-119.7326,39.1923,1431.00,68.00,41.00,37.34,0.00,0.00,0.00,30.04,M,10.00,M,CLR,M,M,M,M,M,M,M,M,M,M,M,M,M,M,68.00,KCXP 030835Z AUTO 00000KT 10SM CLR 20/05 A3004 RMK AO2,M
05U,2025-07-03 08:35,-116.0051,39.6042,1811.23,51.80,35.60,53.80,0.00,0.00,0.00,30.11,M,10.00,M,CLR,M,M,M,M,M,M,M,M,M,M,M,M,M,M,51.80,K05U 030835Z AUTO 00000KT 10SM CLR 11/02 A3011 RMK A01,M
BAM,2025-07-03 08:35,-116.8743,40.5990,1382.36,64.40,35.60,34.23,100.00,3.00,0.00,29.95,M,10.00,M,CLR,M,M,M,M,M,M,M,M,M,M,M,M,M,M,64.40,KBAM 030835Z AUTO 10003KT 10SM CLR 18/02 A2995 RMK AO1,M
HTH,2025-07-03 08:35,-118.6315,38.5448,1282.89,64.40,42.80,45.34,130.00,10.00,0.00,29.99,M,10.00,M,CLR,M,M,M,M,M,M,M,M,M,M,M,M,M,M,64.40,KHTH 030835Z AUTO 13010KT 10SM CLR 18/06 A2999 RMK A01,M
10U,2025-07-03 08:35,-116.1876,41.9532,1637.00,62.60,39.20,42.00,150.00,8.00,0.00,29.99,M,10.00,M,BKN,M,M,M,12000.00,M,M,M,M,M,M,M,M,M,M,62.60,K10U 030835Z AUTO 15008KT 10SM BKN120 17/04 A2999 RMK AO2,M
TMT,2025-07-03 08:50,-117.1971,39.4643,1749.34,52.00,35.80,53.83,190.00,7.00,0.00,30.09,M,10.00,M,CLR,M,M,M,M,M,M,M,M,M,M,M,M,M,M,52.00,KTMT 030850Z AUTO 19007KT 10SM CLR 11/02 A3009 RMK AO2 T01120021,M
P68,2025-07-03 08:53,-116.0056,39.6014,1993.00,51.00,35.00,54.10,200.00,5.00,0.00,30.09,1012.20,M,M,M,M,M,M,M,M,M,M,M,M,M,M,M,M,M,51.00,KP68 030853Z AUTO 20005KT 11/02 A3009 RMK AO1 SLP122 T01060017 55000,M
DRA,2025-07-03 08:53,-116.0278,36.6206,1009.00,70.00,55.00,58.97,120.00,9.00,0.00,29.93,1009.50,10.00,22.00,BKN,M,M,M,9500.00,M,M,M,M,M,M,M,M,M,M,70.00,KDRA 030853Z AUTO 12009G22KT 10SM BKN095 21/13 A2993 RMK AO2 SLP095 60004 T02110128 50002,M
ELY,2025-07-03 08:53,-114.8453,39.2950,1909.00,51.00,36.00,56.30,170.00,4.00,0.00,30.12,1011.70,M,M,CLR,M,M,M,M,M,M,M,M,M,M,M,M,M,M,51.00,KELY 030853Z AUTO 17004KT CLR 11/02 A3012 RMK AO2 SLP117 T01060022 55001 $,M
VGT,2025-07-03 08:53,-115.1933,36.2111,667.00,81.00,52.00,36.64,320.00,7.00,0.00,29.89,1011.00,10.00,M,FEW,M,M,M,11000.00,M,M,M,M,M,M,M,M,M,M,80.34,KVGT 030853Z AUTO 32007KT 10SM FEW110 27/11 A2989 RMK AO2 LTG DSNT SE SLP110 T02720111 53006,M
LOL,2025-07-03 08:53,-118.5701,40.0684,1192.43,65.00,37.00,35.43,210.00,7.00,0.00,29.91,1008.00,10.00,M,CLR,M,M,M,M,M,M,M,M,M,M,M,M,M,M,65.00,KLOL 030853Z AUTO 21007KT 10SM CLR 18/03 A2991 RMK AO2 SLP080 T01830028 50002,M
BVU,2025-07-03 08:55,-114.8611,35.9475,671.00,78.80,55.40,44.58,70.00,9.00,0.00,29.86,M,10.00,M,FEW,SCT,BKN,M,4600.00,6500.00,7500.00,M,M,M,M,M,M,M,M,78.80,KBVU 030855Z AUTO 07009KT 10SM FEW046 SCT065 BKN075 26/13 A2986 RMK AO2 LTG DSNT E,M
RNO,2025-07-03 08:55,-119.7711,39.4839,1341.00,71.00,42.00,35.03,260.00,5.00,0.00,30.00,1009.40,10.00,M,CLR,M,M,M,M,M,M,M,M,M,M,M,M,M,M,71.00,KRNO 030855Z 26005KT 10SM CLR 22/06 A3000 RMK AO2 SLP094 T02170056 51005,M
BAM,2025-07-03 08:55,-116.8743,40.5990,1382.36,60.80,37.40,41.71,40.00,5.00,0.00,29.95,M,10.00,M,CLR,M,M,M,M,M,M,M,M,M,M,M,M,M,M,60.80,KBAM 030855Z AUTO 04005KT 10SM CLR 16/03 A2995 RMK AO1,M
CXP,2025-07-03 08:55,-119.7326,39.1923,1431.00,66.20,41.00,39.73,230.00,4.00,0.00,30.04,M,10.00,M,CLR,M,M,M,M,M,M,M,M,M,M,M,M,M,M,66.20,KCXP 030855Z AUTO 23004KT 10SM CLR 19/05 A3004 RMK AO2,M
RTS,2025-07-03 08:55,-119.8764,39.6682,1539.00,62.60,39.20,42.00,330.00,7.00,0.00,30.05,M,10.00,M,CLR,M,M,M,M,M,M,M,M,M,M,M,M,M,M,62.60,KRTS 030855Z AUTO 33007KT 10SM CLR 17/04 A3005 RMK AO2,M
05U,2025-07-03 08:55,-116.0051,39.6042,1811.23,51.80,35.60,53.80,0.00,0.00,0.00,30.11,M,10.00,M,CLR,M,M,M,M,M,M,M,M,M,M,M,M,M,M,51.80,K05U 030855Z AUTO 00000KT 10SM CLR 11/02 A3011 RMK A01,M
MEV,2025-07-03 08:55,-119.7500,38.9963,1441.42,51.80,39.20,61.99,100.00,3.00,0.00,30.03,M,10.00,M,CLR,M,M,M,M,M,M,M,M,M,M,M,M,M,M,51.80,KMEV 030855Z AUTO 10003KT 10SM CLR 11/04 A3003 RMK AO2,M
HTH,2025-07-03 08:55,-118.6315,38.5448,1282.89,64.40,44.60,48.57,140.00,13.00,0.00,29.99,M,10.00,M,CLR,M,M,M,M,M,M,M,M,M,M,M,M,M,M,64.40,KHTH 030855Z AUTO 14013KT 10SM CLR 18/07 A2999 RMK A01,M
10U,2025-07-03 08:55,-116.1876,41.9532,1637.00,62.60,39.20,42.00,140.00,7.00,0.00,29.99,M,10.00,M,FEW,M,M,M,12000.00,M,M,M,M,M,M,M,M,M,M,62.60,K10U 030855Z AUTO 14007KT 10SM FEW120 17/04 A2999 RMK AO2,M
INS,2025-07-03 08:55,-115.6733,36.5872,955.00,70.00,60.00,70.59,110.00,5.00,0.00,29.96,1010.20,10.00,M,SCT,BKN,M,M,11000.00,13000.00,M,M,M,M,M,M,M,M,M,70.00,KINS 030855Z AUTO 11005KT 10SM SCT110 BKN130 21/16 A2996 RMK AO2 LTG DSNT NW-N TSB0755E0759 SLP102 60006 T02120155 50014 $,M
LSV,2025-07-03 08:55,-115.0343,36.2362,570.00,81.30,49.50,33.07,70.00,7.00,0.00,29.83,1007.50,10.00,M,SCT,M,M,M,20000.00,M,M,M,M,M,M,M,M,M,M,80.25,KLSV 030855Z AUTO 07007KT 10SM SCT200 27/10 A2983 RMK AO2 LTG DSNT E-SE SLP075 T02740097 52006 $,M
EKO,2025-07-03 08:56,-115.7860,40.8242,1367.00,61.00,39.00,44.10,M,4.00,0.00,30.01,1010.40,10.00,M,CLR,M,M,M,M,M,M,M,M,M,M,M,M,M,M,61.00,KEKO 030856Z AUTO VRB04KT 10SM CLR 16/04 A3001 RMK AO2 SLP104 T01610039 53000,M
WMC,2025-07-03 08:56,-117.8072,40.9019,1315.00,64.00,34.00,32.56,80.00,3.00,0.00,29.92,1007.50,10.00,M,CLR,M,M,M,M,M,M,M,M,M,M,M,M,M,M,64.00,KWMC 030856Z AUTO 08003KT 10SM CLR 18/01 A2992 RMK AO2 SLP075 T01780011 51008 TSNO,M
HND,2025-07-03 08:56,-115.1344,35.9729,742.79,78.00,54.00,43.49,70.00,4.00,0.00,29.93,1012.30,10.00,M,BKN,M,M,M,12000.00,M,M,M,M,M,M,M,M,M,M,78.00,KHND 030856Z 07004KT 10SM BKN120 26/12 A2993 RMK AO2 LTG DSNT E AND SE SLP123 T02560122 51009 $,M
TPH,2025-07-03 08:56,-117.0904,38.0505,1654.00,54.00,35.00,48.45,340.00,6.00,0.00,30.08,1013.40,10.00,M,CLR,M,M,M,M,M,M,M,M,M,M,M,M,M,M,54.00,KTPH 030856Z AUTO 34006KT 10SM CLR 12/02 A3008 RMK AO2 SLP134 T01220017 50000,M
LAS,2025-07-03 08:56,-115.1634,36.0719,663.00,83.00,52.00,34.34,360.00,6.00,0.00,29.91,1010.00,10.00,M,BKN,M,M,M,11000.00,M,M,M,M,M,M,M,M,M,M,81.65,KLAS 030856Z 36006KT 10SM BKN110 28/11 A2991 RMK AO2 LTG DSNT E SLP100 CB DSNT E-S T02830111 53011,M
NFL,2025-07-03 08:57,-118.7010,39.4166,1199.00,72.00,42.00,33.86,210.00,4.00,0.00,29.93,1011.00,10.00,M,CLR,M,M,M,M,M,M,M,M,M,M,M,M,M,M,72.00,KNFL 030857Z AUTO 21004KT 10SM CLR 22/06 A2993 RMK AO2 SLP110 T02220056 53002,M
TMT,2025-07-03 09:10,-117.1971,39.4643,1749.34,54.00,36.30,51.02,190.00,8.00,0.00,30.08,M,10.00,M,CLR,M,M,M,M,M,M,M,M,M,M,M,M,M,M,54.00,KTMT 030910Z AUTO 19008KT 10SM CLR 12/02 A3008 RMK AO2 T01230024,M
BVU,2025-07-03 09:15,-114.8611,35.9475,671.00,77.00,55.40,47.30,270.00,7.00,0.00,29.85,M,10.00,14.00,FEW,SCT,BKN,M,3300.00,5000.00,7500.00,M,M,M,M,M,M,M,M,77.00,KBVU 030915Z AUTO 27007G14KT 10SM FEW033 SCT050 BKN075 25/13 A2985 RMK AO2 LTG DSNT E AND SE,M
BAM,2025-07-03 09:15,-116.8743,40.5990,1382.36,64.40,37.40,36.75,360.00,4.00,0.00,29.96,M,10.00,M,CLR,M,M,M,M,M,M,M,M,M,M,M,M,M,M,64.40,KBAM 030915Z AUTO 36004KT 10SM CLR 18/03 A2996 RMK AO1,M
CXP,2025-07-03 09:15,-119.7326,39.1923,1431.00,64.40,41.00,42.30,0.00,0.00,0.00,30.04,M,10.00,M,CLR,M,M,M,M,M,M,M,M,M,M,M,M,M,M,64.40,KCXP 030915Z AUTO 00000KT 10SM CLR 18/05 A3004 RMK AO2,M
RTS,2025-07-03 09:15,-119.8764,39.6682,1539.00,62.60,39.20,42.00,20.00,4.00,0.00,30.05,M,10.00,M,CLR,M,M,M,M,M,M,M,M,M,M,M,M,M,M,62.60,KRTS 030915Z AUTO 02004KT 10SM CLR 17/04 A3005 RMK AO2,M
05U,2025-07-03 09:15,-116.0051,39.6042,1811.23,51.80,37.40,57.76,0.00,0.00,0.00,30.11,M,10.00,M,CLR,M,M,M,M,M,M,M,M,M,M,M,M,M,M,51.80,K05U 030915Z AUTO 00000KT 10SM CLR 11/03 A3011 RMK A01,M
MEV,2025-07-03 09:15,-119.7500,38.9963,1441.42,51.80,41.00,66.48,140.00,6.00,0.00,30.02,M,10.00,M,CLR,M,M,M,M,M,M,M,M,M,M,M,M,M,M,51.80,KMEV 030915Z AUTO 14006KT 10SM CLR 11/05 A3002 RMK AO2,M
HTH,2025-07-03 09:15,-118.6315,38.5448,1282.89,64.40,46.40,52.00,140.00,10.00,0.00,29.99,M,10.00,M,CLR,M,M,M,M,M,M,M,M,M,M,M,M,M,M,64.40,KHTH 030915Z AUTO 14010KT 10SM CLR 18/08 A2999 RMK A01,M
10U,2025-07-03 09:15,-116.1876,41.9532,1637.00,62.60,39.20,42.00,140.00,8.00,0.00,29.99,M,10.00,M,FEW,M,M,M,12000.00,M,M,M,M,M,M,M,M,M,M,62.60,K10U 030915Z AUTO 14008KT 10SM FEW120 17/04 A2999 RMK AO2,M
TMT,2025-07-03 09:30,-117.1971,39.4643,1749.34,52.00,35.60,53.40,170.00,7.00,0.00,30.08,M,10.00,M,CLR,M,M,M,M,M,M,M,M,M,M,M,M,M,M,52.00,KTMT 030930Z AUTO 17007KT 10SM CLR 11/02 A3008 RMK AO2 T01110020,M
BVU,2025-07-03 09:35,-114.8611,35.9475,671.00,77.00,57.20,50.49,160.00,10.00,0.00,29.90,M,10.00,M,CLR,M,M,M,M,M,M,M,M,M,M,M,M,M,M,77.00,KBVU 030935Z AUTO 16010KT 10SM CLR 25/14 A2990 RMK AO2,M
BAM,2025-07-03 09:35,-116.8743,40.5990,1382.36,68.00,37.40,32.44,270.00,6.00,0.00,29.96,M,10.00,M,CLR,M,M,M,M,M,M,M,M,M,M,M,M,M,M,68.00,KBAM 030935Z AUTO 27006KT 10SM CLR 20/03 A2996 RMK AO1,M
CXP,2025-07-03 09:35,-119.7326,39.1923,1431.00,62.60,41.00,45.05,0.00,0.00,0.00,30.03,M,10.00,M,CLR,M,M,M,M,M,M,M,M,M,M,M,M,M,M,62.60,KCXP 030935Z AUTO 00000KT 10SM CLR 17/05 A3003 RMK AO2,M
RTS,2025-07-03 09:35,-119.8764,39.6682,1539.00,60.80,39.20,44.76,350.00,8.00,0.00,30.04,M,10.00,M,CLR,M,M,M,M,M,M,M,M,M,M,M,M,M,M,60.80,KRTS 030935Z AUTO 35008KT 10SM CLR 16/04 A3004 RMK AO2,M
05U,2025-07-03 09:35,-116.0051,39.6042,1811.23,53.60,39.20,58.02,0.00,0.00,0.00,30.11,M,10.00,M,CLR,M,M,M,M,M,M,M,M,M,M,M,M,M,M,53.60,K05U 030935Z AUTO 00000KT 10SM CLR 12/04 A3011 RMK A01,M
MEV,2025-07-03 09:35,-119.7500,38.9963,1441.42,51.80,39.20,61.99,120.00,7.00,0.00,30.02,M,10.00,M,CLR,M,M,M,M,M,M,M,M,M,M,M,M,M,M,51.80,KMEV 030935Z AUTO 12007KT 10SM CLR 11/04 A3002 RMK AO2,M
HTH,2025-07-03 09:35,-118.6315,38.5448,1282.89,64.40,46.40,52.00,150.00,8.00,0.00,29.98,M,10.00,M,CLR,M,M,M,M,M,M,M,M,M,M,M,M,M,M,64.40,KHTH 030935Z AUTO 15008KT 10SM CLR 18/08 A2998 RMK A01,M
10U,2025-07-03 09:35,-116.1876,41.9532,1637.00,64.40,39.20,39.44,130.00,8.00,0.00,29.99,M,10.00,M,FEW,M,M,M,12000.00,M,M,M,M,M,M,M,M,M,M,64.40,K10U 030935Z AUTO 13008KT 10SM FEW120 18/04 A2999 RMK AO2,M
RTS,2025-07-03 09:45,-119.8764,39.6682,1539.00,60.80,39.20,44.76,350.00,9.00,0.00,30.04,M,10.00,M,CLR,M,M,M,M,M,M,M,M,M,M,M,M,M,M,60.80,KRTS 030945Z AUTO 35009KT 10SM CLR 16/04 A3004 RMK AO2,M
MEV,2025-07-03 09:45,-119.7500,38.9963,1441.42,51.80,41.00,66.48,120.00,8.00,0.00,30.02,M,10.00,M,CLR,M,M,M,M,M,M,M,M,M,M,M,M,M,M,51.80,KMEV 030945Z AUTO 12008KT 10SM CLR 11/05 A3002 RMK AO2,M
TMT,2025-07-03 09:50,-117.1971,39.4643,1749.34,52.00,36.30,54.90,170.00,5.00,0.00,30.08,M,10.00,M,CLR,M,M,M,M,M,M,M,M,M,M,M,M,M,M,52.00,KTMT 030950Z AUTO 17005KT 10SM CLR 11/02 A3008 RMK AO2 T01120024,M
P68,2025-07-03 09:53,-116.0056,39.6014,1993.00,52.00,38.00,58.71,210.00,3.00,0.00,30.08,1012.60,M,M,M,M,M,M,M,M,M,M,M,M,M,M,M,M,M,52.00,KP68 030953Z AUTO 21003KT 11/03 A3008 RMK AO1 SLP126 T01110033,M
DRA,2025-07-03 09:53,-116.0278,36.6206,1009.00,70.00,55.00,58.97,90.00,11.00,0.00,29.94,1009.60,10.00,M,CLR,M,M,M,M,M,M,M,M,M,M,M,M,M,M,70.00,KDRA 030953Z AUTO 09011KT 10SM CLR 21/13 A2994 RMK AO2 SLP096 T02110128,M
ELY,2025-07-03 09:53,-114.8453,39.2950,1909.00,51.00,34.00,51.99,150.00,3.00,0.00,30.12,1011.30,M,M,CLR,M,M,M,M,M,M,M,M,M,M,M,M,M,M,51.00,KELY 030953Z AUTO 15003KT CLR 11/01 A3012 RMK AO2 SLP113 T01060011 $,M
VGT,2025-07-03 09:53,-115.1933,36.2111,667.00,81.00,52.00,36.64,360.00,6.00,0.00,29.89,1011.10,10.00,M,CLR,M,M,M,M,M,M,M,M,M,M,M,M,M,M,80.34,KVGT 030953Z AUTO 36006KT 10SM CLR 27/11 A2989 RMK AO2 SLP111 T02720111,M
LOL,2025-07-03 09:53,-118.5701,40.0684,1192.43,62.00,37.00,39.35,0.00,0.00,0.00,29.91,1008.60,10.00,M,CLR,M,M,M,M,M,M,M,M,M,M,M,M,M,M,62.00,KLOL 030953Z AUTO 00000KT 10SM CLR 17/03 A2991 RMK AO2 SLP086 T01670028,M
BVU,2025-07-03 09:55,-114.8611,35.9475,671.00,78.80,55.40,44.58,200.00,4.00,0.00,29.91,M,10.00,M,CLR,M,M,M,M,M,M,M,VCTS,M,M,M,M,M,M,78.80,KBVU 030955Z AUTO 20004KT 10SM VCTS CLR 26/13 A2991 RMK AO2 LTG DSNT SE,M
RNO,2025-07-03 09:55,-119.7711,39.4839,1341.00,66.00,44.00,44.90,160.00,3.00,0.00,30.00,1009.50,10.00,M,CLR,M,M,M,M,M,M,M,M,M,M,M,M,M,M,66.00,KRNO 030955Z 16003KT 10SM CLR 19/07 A3000 RMK AO2 SLP095 T01890067,M
BAM,2025-07-03 09:55,-116.8743,40.5990,1382.36,68.00,37.40,32.44,260.00,7.00,0.00,29.96,M,10.00,M,CLR,M,M,M,M,M,M,M,M,M,M,M,M,M,M,68.00,KBAM 030955Z AUTO 26007KT 10SM CLR 20/03 A2996 RMK AO1,M
CXP,2025-07-03 09:55,-119.7326,39.1923,1431.00,62.60,42.80,48.29,0.00,0.00,0.00,30.03,M,10.00,M,CLR,M,M,M,M,M,M,M,M,M,M,M,M,M,M,62.60,KCXP 030955Z AUTO 00000KT 10SM CLR 17/06 A3003 RMK AO2,M
05U,2025-07-03 09:55,-116.0051,39.6042,1811.23,51.80,37.40,57.76,0.00,0.00,0.00,30.11,M,10.00,M,CLR,M,M,M,M,M,M,M,M,M,M,M,M,M,M,51.80,K05U 030955Z AUTO 00000KT 10SM CLR 11/03 A3011 RMK A01,M
HTH,2025-07-03 09:55,-118.6315,38.5448,1282.89,62.60,48.20,59.27,150.00,8.00,0.00,29.98,M,10.00,M,CLR,M,M,M,M,M,M,M,M,M,M,M,M,M,M,62.60,KHTH 030955Z AUTO 15008KT 10SM CLR 17/09 A2998 RMK A01,M
10U,2025-07-03 09:55,-116.1876,41.9532,1637.00,64.40,39.20,39.44,110.00,9.00,0.00,30.00,M,10.00,M,FEW,M,M,M,12000.00,M,M,M,M,M,M,M,M,M,M,64.40,K10U 030955Z AUTO 11009KT 10SM FEW120 18/04 A3000 RMK AO2,M
EKO,2025-07-03 09:56,-115.7860,40.8242,1367.00,60.00,39.00,45.69,0.00,0.00,0.00,30.00,1010.30,10.00,M,CLR,M,M,M,M,M,M,M,M,M,M,M,M,M,M,60.00,KEKO 030956Z AUTO 00000KT 10SM CLR 16/04 A3000 RMK AO2 SLP103 T01560039,M
WMC,2025-07-03 09:56,-117.8072,40.9019,1315.00,59.00,34.00,38.86,130.00,5.00,0.00,29.93,1008.20,10.00,M,CLR,M,M,M,M,M,M,M,M,M,M,M,M,M,M,59.00,KWMC 030956Z AUTO 13005KT 10SM CLR 15/01 A2993 RMK AO2 SLP082 T01500011 TSNO,M
HND,2025-07-03 09:56,-115.1344,35.9729,742.79,76.00,56.00,49.97,150.00,7.00,0.00,29.95,1013.10,10.00,M,SCT,M,M,M,11000.00,M,M,M,M,M,M,M,M,M,M,76.00,KHND 030956Z 15007KT 10SM SCT110 24/13 A2995 RMK AO2 SLP131 T02440133 $,M
TPH,2025-07-03 09:56,-117.0904,38.0505,1654.00,55.00,35.00,46.72,350.00,7.00,0.00,30.09,1013.50,10.00,M,CLR,M,M,M,M,M,M,M,M,M,M,M,M,M,M,55.00,KTPH 030956Z AUTO 35007KT 10SM CLR 13/02 A3009 RMK AO2 SLP135 T01280017,M
LAS,2025-07-03 09:56,-115.1634,36.0719,663.00,81.00,53.00,38.01,330.00,7.00,0.00,29.90,1009.90,10.00,M,BKN,BKN,M,M,11000.00,18000.00,M,M,M,M,M,M,M,M,M,80.47,KLAS 030956Z 33007KT 10SM BKN110 BKN180 27/12 A2990 RMK AO2 SLP099 T02720117,M
NFL,2025-07-03 09:57,-118.7010,39.4166,1199.00,65.00,41.00,41.42,170.00,7.00,0.00,29.94,1011.00,10.00,M,CLR,M,M,M,M,M,M,M,M,M,M,M,M,M,M,65.00,KNFL 030957Z AUTO 17007KT 10SM CLR 18/05 A2994 RMK AO2 SLP110 T01830050,M
TMT,2025-07-03 10:10,-117.1971,39.4643,1749.34,51.00,35.80,55.85,180.00,6.00,0.00,30.08,M,10.00,M,CLR,M,M,M,M,M,M,M,M,M,M,M,M,M,M,51.00,KTMT 031010Z AUTO 18006KT 10SM CLR 11/02 A3008 RMK AO2 T01050021,M
BVU,2025-07-03 10:15,-114.8611,35.9475,671.00,77.00,57.20,50.49,150.00,4.00,0.00,29.92,M,10.00,M,CLR,M,M,M,M,M,M,M,M,M,M,M,M,M,M,77.00,KBVU 031015Z AUTO 15004KT 10SM CLR 25/14 A2992 RMK AO2,M
BAM,2025-07-03 10:15,-116.8743,40.5990,1382.36,69.80,37.40,30.50,250.00,4.00,0.00,29.96,M,10.00,M,CLR,M,M,M,M,M,M,M,M,M,M,M,M,M,M,69.80,KBAM 031015Z AUTO 25004KT 10SM CLR 21/03 A2996 RMK AO1,M
CXP,2025-07-03 10:15,-119.7326,39.1923,1431.00,62.60,42.80,48.29,0.00,0.00,0.00,30.03,M,10.00,M,CLR,M,M,M,M,M,M,M,M,M,M,M,M,M,M,62.60,KCXP 031015Z AUTO 00000KT 10SM CLR 17/06 A3003 RMK AO2,M
RTS,2025-07-03 10:15,-119.8764,39.6682,1539.00,59.00,39.20,47.72,340.00,7.00,0.00,30.04,M,10.00,M,CLR,M,M,M,M,M,M,M,M,M,M,M,M,M,M,59.00,KRTS 031015Z AUTO 34007KT 10SM CLR 15/04 A3004 RMK AO2,M
05U,2025-07-03 10:15,-116.0051,39.6042,1811.23,53.60,39.20,58.02,210.00,7.00,0.00,30.11,M,10.00,M,CLR,M,M,M,M,M,M,M,M,M,M,M,M,M,M,53.60,K05U 031015Z AUTO 21007KT 10SM CLR 12/04 A3011 RMK A01,M
MEV,2025-07-03 10:15,-119.7500,38.9963,1441.42,50.00,41.00,71.06,0.00,0.00,0.00,30.02,M,10.00,M,CLR,M,M,M,M,M,M,M,M,M,M,M,M,M,M,50.00,KMEV 031015Z AUTO 00000KT 10SM CLR 10/05 A3002 RMK AO2,M
HTH,2025-07-03 10:15,-118.6315,38.5448,1282.89,62.60,48.20,59.27,160.00,9.00,0.00,29.98,M,10.00,M,CLR,M,M,M,M,M,M,M,M,M,M,M,M,M,M,62.60,KHTH 031015Z AUTO 16009KT 10SM CLR 17/09 A2998 RMK A01,M
10U,2025-07-03 10:15,-116.1876,41.9532,1637.00,64.40,39.20,39.44,140.00,6.00,0.00,30.00,M,10.00,M,FEW,M,M,M,12000.00,M,M,M,M,M,M,M,M,M,M,64.40,K10U 031015Z AUTO 14006KT 10SM FEW120 18/04 A3000 RMK AO2,M
RTS,2025-07-03 10:25,-119.8764,39.6682,1539.00,59.00,39.20,47.72,330.00,8.00,0.00,30.04,M,10.00,M,CLR,M,M,M,M,M,M,M,M,M,M,M,M,M,M,59.00,KRTS 031025Z AUTO 33008KT 10SM CLR 15/04 A3004 RMK AO2,M
TMT,2025-07-03 10:30,-117.1971,39.4643,1749.34,53.00,37.00,54.40,210.00,6.00,0.00,30.08,M,10.00,M,CLR,M,M,M,M,M,M,M,M,M,M,M,M,M,M,53.00,KTMT 031030Z AUTO 21006KT 10SM CLR 12/03 A3008 RMK AO2 T01170027,M
BVU,2025-07-03 10:35,-114.8611,35.9475,671.00,77.00,57.20,50.49,150.00,6.00,0.00,29.92,M,10.00,M,FEW,M,M,M,12000.00,M,M,M,M,M,M,M,M,M,M,77.00,KBVU 031035Z AUTO 15006KT 10SM FEW120 25/14 A2992 RMK AO2 LTG DSNT SE,M
BAM,2025-07-03 10:35,-116.8743,40.5990,1382.36,66.20,37.40,34.52,100.00,3.00,0.00,29.96,M,10.00,M,CLR,M,M,M,M,M,M,M,M,M,M,M,M,M,M,66.20,KBAM 031035Z AUTO 10003KT 10SM CLR 19/03 A2996 RMK AO1,M
CXP,2025-07-03 10:35,-119.7326,39.1923,1431.00,62.60,42.80,48.29,230.00,3.00,0.00,30.03,M,10.00,M,CLR,M,M,M,M,M,M,M,M,M,M,M,M,M,M,62.60,KCXP 031035Z AUTO 23003KT 10SM CLR 17/06 A3003 RMK AO2,M
05U,2025-07-03 10:35,-116.0051,39.6042,1811.23,50.00,37.40,61.75,200.00,5.00,0.00,30.11,M,10.00,M,CLR,M,M,M,M,M,M,M,M,M,M,M,M,M,M,50.00,K05U 031035Z AUTO 20005KT 10SM CLR 10/03 A3011 RMK A01,M
MEV,2025-07-03 10:35,-119.7500,38.9963,1441.42,51.80,44.60,76.34,0.00,0.00,0.00,30.02,M,10.00,M,CLR,M,M,M,M,M,M,M,M,M,M,M,M,M,M,51.80,KMEV 031035Z AUTO 00000KT 10SM CLR 11/07 A3002 RMK AO2,M
HTH,2025-07-03 10:35,-118.6315,38.5448,1282.89,64.40,44.60,48.57,170.00,7.00,0.00,29.98,M,10.00,M,CLR,M,M,M,M,M,M,M,M,M,M,M,M,M,M,64.40,KHTH 031035Z AUTO 17007KT 10SM CLR 18/07 A2998 RMK A01,M
10U,2025-07-03 10:35,-116.1876,41.9532,1637.00,64.40,37.40,36.75,140.00,8.00,0.00,30.00,M,10.00,M,FEW,M,M,M,12000.00,M,M,M,M,M,M,M,M,M,M,64.40,K10U 031035Z AUTO 14008KT 10SM FEW120 18/03 A3000 RMK AO2,M
TMT,2025-07-03 10:50,-117.1971,39.4643,1749.34,50.00,35.80,57.96,270.00,4.00,0.00,30.08,M,10.00,M,CLR,M,M,M,M,M,M,M,M,M,M,M,M,M,M,50.00,KTMT 031050Z AUTO 27004KT 10SM CLR 10/02 A3008 RMK AO2 T00990021,M
P68,2025-07-03 10:53,-116.0056,39.6014,1993.00,49.00,36.00,60.64,210.00,5.00,0.00,30.08,1012.50,M,M,M,M,M,M,M,M,M,M,M,M,M,M,M,M,M,46.58,KP68 031053Z AUTO 21005KT 09/02 A3008 RMK AO1 SLP125 T00940022,M
DRA,2025-07-03 10:53,-116.0278,36.6206,1009.00,69.00,54.00,58.83,70.00,4.00,0.00,29.94,1009.40,10.00,M,CLR,M,M,M,M,M,M,M,M,M,M,M,M,M,M,69.00,KDRA 031053Z AUTO 07004KT 10SM CLR 21/12 A2994 RMK AO2 SLP094 T02060122,M
ELY,2025-07-03 10:53,-114.8453,39.2950,1909.00,47.00,35.00,62.83,190.00,7.00,0.00,30.11,1011.10,M,M,CLR,M,M,M,M,M,M,M,M,M,M,M,M,M,M,43.06,KELY 031053Z AUTO 19007KT CLR 08/02 A3011 RMK AO2 SLP111 T00830017 $,M
VGT,2025-07-03 10:53,-115.1933,36.2111,667.00,79.00,53.00,40.57,110.00,3.00,0.00,29.92,1012.10,10.00,M,SCT,M,M,M,11000.00,M,M,M,M,M,M,M,M,M,M,79.00,KVGT 031053Z AUTO 11003KT 10SM SCT110 26/12 A2992 RMK AO2 SLP121 T02610117,M
LOL,2025-07-03 10:53,-118.5701,40.0684,1192.43,60.00,40.00,47.51,M,M,0.00,29.92,1008.60,M,M,M,M,M,M,M,M,M,M,M,M,M,M,M,M,M,60.00,KLOL 031053Z AUTO 16/04 A2992 RMK AO2 SLP086 T01560044 PWINO $,M
BVU,2025-07-03 10:55,-114.8611,35.9475,671.00,73.40,59.00,60.72,0.00,0.00,0.00,29.92,M,10.00,M,FEW,M,M,M,12000.00,M,M,M,M,M,M,M,M,M,M,73.40,KBVU 031055Z AUTO 00000KT 10SM FEW120 23/15 A2992 RMK AO2,M
RNO,2025-07-03 10:55,-119.7711,39.4839,1341.00,67.00,39.00,35.75,270.00,4.00,0.00,30.00,1009.60,10.00,M,CLR,M,M,M,M,M,M,M,M,M,M,M,M,M,M,67.00,KRNO 031055Z 27004KT 10SM CLR 19/04 A3000 RMK AO2 SLP096 T01940039,M
BAM,2025-07-03 10:55,-116.8743,40.5990,1382.36,60.80,37.40,41.71,60.00,3.00,0.00,29.96,M,10.00,M,CLR,M,M,M,M,M,M,M,M,M,M,M,M,M,M,60.80,KBAM 031055Z AUTO 06003KT 10SM CLR 16/03 A2996 RMK AO1,M
CXP,2025-07-03 10:55,-119.7326,39.1923,1431.00,62.60,42.80,48.29,220.00,3.00,0.00,30.03,M,10.00,M,CLR,M,M,M,M,M,M,M,M,M,M,M,M,M,M,62.60,KCXP 031055Z AUTO 22003KT 10SM CLR 17/06 A3003 RMK AO2,M
RTS,2025-07-03 10:55,-119.8764,39.6682,1539.00,57.20,39.20,50.91,340.00,7.00,0.00,30.04,M,10.00,M,CLR,M,M,M,M,M,M,M,M,M,M,M,M,M,M,57.20,KRTS 031055Z AUTO 34007KT 10SM CLR 14/04 A3004 RMK AO2,M
05U,2025-07-03 10:55,-116.0051,39.6042,1811.23,48.20,35.60,61.50,0.00,0.00,0.00,30.11,M,10.00,M,CLR,M,M,M,M,M,M,M,M,M,M,M,M,M,M,48.20,K05U 031055Z AUTO 00000KT 10SM CLR 09/02 A3011 RMK A01,M
MEV,2025-07-03 10:55,-119.7500,38.9963,1441.42,50.00,44.60,81.60,140.00,3.00,0.00,30.02,M,10.00,M,CLR,M,M,M,M,M,M,M,M,M,M,M,M,M,M,50.00,KMEV 031055Z AUTO 14003KT 10SM CLR 10/07 A3002 RMK AO2,M
HTH,2025-07-03 10:55,-118.6315,38.5448,1282.89,62.60,44.60,51.73,150.00,9.00,0.00,29.98,M,10.00,M,CLR,M,M,M,M,M,M,M,M,M,M,M,M,M,M,62.60,KHTH 031055Z AUTO 15009KT 10SM CLR 17/07 A2998 RMK A01,M
10U,2025-07-03 10:55,-116.1876,41.9532,1637.00,62.60,37.40,39.14,170.00,7.00,0.00,30.00,M,10.00,M,CLR,M,M,M,M,M,M,M,M,M,M,M,M,M,M,62.60,K10U 031055Z AUTO 17007KT 10SM CLR 17/03 A3000 RMK AO2,M
EKO,2025-07-03 10:56,-115.7860,40.8242,1367.00,58.00,40.00,51.03,80.00,4.00,0.00,30.01,1011.20,10.00,M,CLR,M,M,M,M,M,M,M,M,M,M,M,M,M,M,58.00,KEKO 031056Z AUTO 08004KT 10SM CLR 14/04 A3001 RMK AO2 SLP112 T01440044,M
WMC,2025-07-03 10:56,-117.8072,40.9019,1315.00,57.00,36.00,45.21,160.00,6.00,0.00,29.93,1008.40,10.00,M,CLR,M,M,M,M,M,M,M,M,M,M,M,M,M,M,57.00,KWMC 031056Z AUTO 16006KT 10SM CLR 14/02 A2993 RMK AO2 SLP084 T01390022 TSNO,M
HND,2025-07-03 10:56,-115.1344,35.9729,742.79,75.00,60.00,59.64,160.00,12.00,0.00,29.95,1013.20,10.00,M,CLR,M,M,M,M,M,M,M,M,M,M,M,M,M,M,75.00,KHND 031056Z 16012KT 10SM CLR 24/16 A2995 RMK AO2 SLP132 T02390156 $,M
TPH,2025-07-03 10:56,-117.0904,38.0505,1654.00,51.00,34.00,51.99,340.00,4.00,0.00,30.09,1013.90,10.00,M,CLR,M,M,M,M,M,M,M,M,M,M,M,M,M,M,51.00,KTPH 031056Z AUTO 34004KT 10SM CLR 11/01 A3009 RMK AO2 SLP139 T01060011,M
LAS,2025-07-03 10:56,-115.1634,36.0719,663.00,78.00,58.00,50.27,180.00,8.00,0.00,29.94,1011.10,10.00,M,BKN,BKN,M,M,11000.00,18000.00,M,M,M,M,M,M,M,M,M,78.00,KLAS 031056Z 18008KT 10SM BKN110 BKN180 26/14 A2994 RMK AO2 SLP111 T02560144,M
NFL,2025-07-03 10:57,-118.7010,39.4166,1199.00,64.00,40.00,41.26,180.00,7.00,0.00,29.93,1010.90,10.00,M,CLR,M,M,M,M,M,M,M,M,M,M,M,M,M,M,64.00,KNFL 031057Z AUTO 18007KT 10SM CLR 18/04 A2993 RMK AO2 SLP109 T01780044,M
MEV,2025-07-03 11:10,-119.7500,38.9963,1441.42,48.20,39.20,70.87,120.00,5.00,0.00,30.02,M,10.00,M,CLR,M,M,M,M,M,M,M,M,M,M,M,M,M,M,45.63,KMEV 031110Z AUTO 12005KT 10SM CLR 09/04 A3002 RMK AO2,M
TMT,2025-07-03 11:10,-117.1971,39.4643,1749.34,52.00,38.00,58.71,220.00,4.00,0.00,30.08,M,10.00,M,CLR,M,M,M,M,M,M,M,M,M,M,M,M,M,M,52.00,KTMT 031110Z AUTO 22004KT 10SM CLR 11/03 A3008 RMK AO2 T01120033,M
BVU,2025-07-03 11:15,-114.8611,35.9475,671.00,73.40,60.80,64.74,20.00,4.00,0.00,29.92,M,10.00,M,CLR,M,M,M,M,M,M,M,M,M,M,M,M,M,M,73.40,KBVU 031115Z AUTO 02004KT 10SM CLR 23/16 A2992 RMK AO2,M
BAM,2025-07-03 11:15,-116.8743,40.5990,1382.36,59.00,37.40,44.47,60.00,5.00,0.00,29.96,M,10.00,M,CLR,M,M,M,M,M,M,M,M,M,M,M,M,M,M,59.00,KBAM 031115Z AUTO 06005KT 10SM CLR 15/03 A2996 RMK AO1,M
CXP,2025-07-03 11:15,-119.7326,39.1923,1431.00,60.80,42.80,51.46,0.00,0.00,0.00,30.03,M,10.00,M,CLR,M,M,M,M,M,M,M,M,M,M,M,M,M,M,60.80,KCXP 031115Z AUTO 00000KT 10SM CLR 16/06 A3003 RMK AO2,M
RTS,2025-07-03 11:15,-119.8764,39.6682,1539.00,57.20,37.40,47.44,340.00,8.00,0.00,30.04,M,10.00,M,CLR,M,M,M,M,M,M,M,M,M,M,M,M,M,M,57.20,KRTS 031115Z AUTO 34008KT 10SM CLR 14/03 A3004 RMK AO2,M
05U,2025-07-03 11:15,-116.0051,39.6042,1811.23,48.20,37.40,66.04,0.00,0.00,0.00,30.11,M,10.00,M,CLR,M,M,M,M,M,M,M,M,M,M,M,M,M,M,48.20,K05U 031115Z AUTO 00000KT 10SM CLR 09/03 A3011 RMK A01,M
HTH,2025-07-03 11:15,-118.6315,38.5448,1282.89,62.60,44.60,51.73,160.00,10.00,0.00,29.98,M,10.00,M,CLR,M,M,M,M,M,M,M,M,M,M,M,M,M,M,62.60,KHTH 031115Z AUTO 16010KT 10SM CLR 17/07 A2998 RMK A01,M
10U,2025-07-03 11:15,-116.1876,41.9532,1637.00,60.80,37.40,41.71,140.00,8.00,0.00,30.00,M,10.00,M,CLR,M,M,M,M,M,M,M,M,M,M,M,M,M,M,60.80,K10U 031115Z AUTO 14008KT 10SM CLR 16/03 A3000 RMK AO2,M
RTS,2025-07-03 11:25,-119.8764,39.6682,1539.00,55.40,37.40,50.63,350.00,7.00,0.00,30.04,M,10.00,M,CLR,M,M,M,M,M,M,M,M,M,M,M,M,M,M,55.40,KRTS 031125Z AUTO 35007KT 10SM CLR 13/03 A3004 RMK AO2,M
MEV,2025-07-03 11:25,-119.7500,38.9963,1441.42,48.20,39.20,70.87,120.00,7.00,0.00,30.01,M,10.00,M,CLR,M,M,M,M,M,M,M,M,M,M,M,M,M,M,44.53,KMEV 031125Z AUTO 12007KT 10SM CLR 09/04 A3001 RMK AO2,M
TMT,2025-07-03 11:30,-117.1971,39.4643,1749.34,48.60,36.50,62.79,0.00,0.00,0.00,30.08,M,10.00,M,CLR,M,M,M,M,M,M,M,M,M,M,M,M,M,M,48.60,KTMT 031130Z AUTO 00000KT 10SM CLR 09/03 A3008 RMK AO2 T00920025,M
BVU,2025-07-03 11:35,-114.8611,35.9475,671.00,73.40,60.80,64.74,60.00,4.00,0.00,29.92,M,10.00,M,CLR,M,M,M,M,M,M,M,M,M,M,M,M,M,M,73.40,KBVU 031135Z AUTO 06004KT 10SM CLR 23/16 A2992 RMK AO2,M
BAM,2025-07-03 11:35,-116.8743,40.5990,1382.36,60.80,37.40,41.71,40.00,3.00,0.00,29.97,M,10.00,M,CLR,M,M,M,M,M,M,M,M,M,M,M,M,M,M,60.80,KBAM 031135Z AUTO 04003KT 10SM CLR 16/03 A2997 RMK AO1,M
CXP,2025-07-03 11:35,-119.7326,39.1923,1431.00,60.80,42.80,51.46,0.00,0.00,0.00,30.03,M,10.00,M,CLR,M,M,M,M,M,M,M,M,M,M,M,M,M,M,60.80,KCXP 031135Z AUTO 00000KT 10SM CLR 16/06 A3003 RMK AO2,M
05U,2025-07-03 11:35,-116.0051,39.6042,1811.23,48.20,35.60,61.50,0.00,0.00,0.00,30.11,M,10.00,M,CLR,M,M,M,M,M,M,M,M,M,M,M,M,M,M,48.20,K05U 031135Z AUTO 00000KT 10SM CLR 09/02 A3011 RMK A01,M
HTH,2025-07-03 11:35,-118.6315,38.5448,1282.89,64.40,42.80,45.34,130.00,8.00,0.00,29.99,M,10.00,M,CLR,M,M,M,M,M,M,M,M,M,M,M,M,M,M,64.40,KHTH 031135Z AUTO 13008KT 10SM CLR 18/06 A2999 RMK A01,M
10U,2025-07-03 11:35,-116.1876,41.9532,1637.00,60.80,37.40,41.71,130.00,8.00,0.00,29.99,M,10.00,M,CLR,M,M,M,M,M,M,M,M,M,M,M,M,M,M,60.80,K10U 031135Z AUTO 13008KT 10SM CLR 16/03 A2999 RMK AO2,M
TMT,2025-07-03 11:50,-117.1971,39.4643,1749.34,49.30,36.70,61.65,0.00,0.00,0.00,30.09,M,10.00,M,CLR,M,M,M,M,M,M,M,M,M,M,M,M,M,M,49.30,KTMT 031150Z AUTO 00000KT 10SM CLR 10/03 A3009 RMK AO2 T00960026,M
P68,2025-07-03 11:53,-116.0056,39.6014,1993.00,47.00,37.00,68.01,190.00,4.00,0.00,30.08,1012.50,M,M,M,M,M,M,M,M,M,M,M,M,M,M,M,M,M,44.94,KP68 031153Z AUTO 19004KT 08/03 A3008 RMK AO1 SLP125 T00830028 10144 20083 56001,M
DRA,2025-07-03 11:53,-116.0278,36.6206,1009.00,68.00,54.00,60.89,M,3.00,0.00,29.96,1010.10,10.00,M,CLR,M,M,M,M,M,M,M,M,M,M,M,M,M,M,68.00,KDRA 031153Z AUTO VRB03KT 10SM CLR 20/12 A2996 RMK AO2 SLP101 60004 70017 T02000122 10256 20200 53008,M
ELY,2025-07-03 11:53,-114.8453,39.2950,1909.00,49.00,34.00,56.00,140.00,8.00,0.00,30.13,1011.60,M,M,CLR,M,M,M,M,M,M,M,M,M,M,M,M,M,M,45.05,KELY 031153Z AUTO 14008KT CLR 09/01 A3013 RMK AO2 SLP116 T00940011 10133 20078 53001 $,M
VGT,2025-07-03 11:53,-115.1933,36.2111,667.00,79.00,56.00,45.26,180.00,5.00,0.00,29.93,1012.40,10.00,M,CLR,M,M,M,M,M,M,M,M,M,M,M,M,M,M,79.00,KVGT 031153Z AUTO 18005KT 10SM CLR 26/13 A2993 RMK AO2 SLP124 70001 T02610133 10289 20256 53013,M
LOL,2025-07-03 11:53,-118.5701,40.0684,1192.43,M,M,M,M,M,0.00,29.92,M,M,M,M,M,M,M,M,M,M,M,M,M,M,M,M,M,M,M,KLOL 031153Z AUTO A2992 RMK AO2 SLPNO 53005 PWINO $,M
BVU,2025-07-03 11:55,-114.8611,35.9475,671.00,71.60,60.80,68.79,0.00,0.00,0.00,29.93,M,10.00,M,CLR,M,M,M,M,M,M,M,M,M,M,M,M,M,M,71.60,KBVU 031155Z AUTO 00000KT 10SM CLR 22/16 A2993 RMK AO2,M
INS,2025-07-03 11:55,-115.6733,36.5872,955.00,67.60,58.00,71.35,340.00,3.00,0.00,29.95,1009.90,10.00,M,CLR,M,M,M,M,M,M,M,M,M,M,M,M,M,M,67.60,KINS 031155Z AUTO 34003KT 10SM CLR 20/14 A2995 RMK AO2 LTG DSNT W-NW SLP099 60006 70018 T01980144 10257 20197 55001 $,M
RNO,2025-07-03 11:55,-119.7711,39.4839,1341.00,65.00,42.00,43.05,240.00,4.00,0.00,30.00,1009.90,10.00,M,CLR,M,M,M,M,M,M,M,M,M,M,M,M,M,M,65.00,KRNO 031155Z 24004KT 10SM CLR 18/06 A3000 RMK AO2 SLP099 T01830056 10244 20172 55001,M
BAM,2025-07-03 11:55,-116.8743,40.5990,1382.36,59.00,39.20,47.72,100.00,3.00,0.00,29.97,M,10.00,M,CLR,M,M,M,M,M,M,M,M,M,M,M,M,M,M,59.00,KBAM 031155Z AUTO 10003KT 10SM CLR 15/04 A2997 RMK AO1,M
CXP,2025-07-03 11:55,-119.7326,39.1923,1431.00,59.00,42.80,54.86,0.00,0.00,0.00,30.03,M,10.00,M,CLR,M,M,M,M,M,M,M,M,M,M,M,M,M,M,59.00,KCXP 031155Z AUTO 00000KT 10SM CLR 15/06 A3003 RMK AO2,M
05U,2025-07-03 11:55,-116.0051,39.6042,1811.23,46.40,37.40,70.67,0.00,0.00,0.00,30.11,M,10.00,M,CLR,M,M,M,M,M,M,M,M,M,M,M,M,M,M,46.40,K05U 031155Z AUTO 00000KT 10SM CLR 08/03 A3011 RMK A01,M
HTH,2025-07-03 11:55,-118.6315,38.5448,1282.89,62.60,44.60,51.73,130.00,10.00,0.00,29.99,M,10.00,M,CLR,M,M,M,M,M,M,M,M,M,M,M,M,M,M,62.60,KHTH 031155Z AUTO 13010KT 10SM CLR 17/07 A2999 RMK A01,M
10U,2025-07-03 11:55,-116.1876,41.9532,1637.00,59.00,37.40,44.47,160.00,4.00,0.00,30.00,M,10.00,M,CLR,M,M,M,M,M,M,M,M,M,M,M,M,M,M,59.00,K10U 031155Z AUTO 16004KT 10SM CLR 15/03 A3000 RMK AO2,M
LSV,2025-07-03 11:55,-115.0343,36.2362,570.00,81.00,54.50,40.15,190.00,4.00,0.00,29.88,1009.00,10.00,M,SCT,M,M,M,15000.00,M,M,M,M,M,M,M,M,M,M,80.67,KLSV 031155Z 19004KT 10SM SCT150 27/13 A2988 RMK AO2A SLP090 T02730125 10292 20266 52018 $,M
EKO,2025-07-03 11:56,-115.7860,40.8242,1367.00,54.00,40.00,58.99,160.00,3.00,0.00,30.01,1011.50,10.00,M,CLR,M,M,M,M,M,M,M,M,M,M,M,M,M,M,54.00,KEKO 031156Z AUTO 16003KT 10SM CLR 12/04 A3001 RMK AO2 SLP115 T01220044 10200 20117 53002,M
WMC,2025-07-03 11:56,-117.8072,40.9019,1315.00,57.00,36.00,45.21,170.00,3.00,0.00,29.94,1008.60,10.00,M,CLR,M,M,M,M,M,M,M,M,M,M,M,M,M,M,57.00,KWMC 031156Z AUTO 17003KT 10SM CLR 14/02 A2994 RMK AO2 SLP086 T01390022 10261 20133 52005 TSNO,M
HND,2025-07-03 11:56,-115.1344,35.9729,742.79,75.00,57.00,53.57,140.00,7.00,0.00,29.96,1013.50,10.00,M,CLR,M,M,M,M,M,M,M,M,M,M,M,M,M,M,75.00,KHND 031156Z 14007KT 10SM CLR 24/14 A2996 RMK AO2 SLP135 70006 T02390139 10272 20239 51011 $,M
TPH,2025-07-03 11:56,-117.0904,38.0505,1654.00,51.00,35.00,54.10,360.00,5.00,0.00,30.09,1013.60,10.00,M,CLR,M,M,M,M,M,M,M,M,M,M,M,M,M,M,51.00,KTPH 031156Z AUTO 36005KT 10SM CLR 11/02 A3009 RMK AO2 SLP136 70001 T01060017 10150 20100 51003,M
LAS,2025-07-03 11:56,-115.1634,36.0719,663.00,78.00,58.00,50.27,220.00,4.00,0.00,29.94,1011.10,10.00,M,FEW,FEW,SCT,M,11000.00,18000.00,22000.00,M,M,M,M,M,M,M,M,78.00,KLAS 031156Z 22004KT 10SM FEW110 FEW180 SCT220 26/14 A2994 RMK AO2 SLP111 T02560144 10294 20256 53010,M
NFL,2025-07-03 11:57,-118.7010,39.4166,1199.00,62.00,38.00,40.93,170.00,6.00,0.00,29.94,1011.20,10.00,M,CLR,M,M,M,M,M,M,M,M,M,M,M,M,M,M,62.00,KNFL 031157Z AUTO 17006KT 10SM CLR 17/03 A2994 RMK AO2 SLP112 T01670033 10261 20167 53002,M
TMT,2025-07-03 12:10,-117.1971,39.4643,1749.34,49.50,36.00,59.52,220.00,3.00,0.00,30.08,M,10.00,M,CLR,M,M,M,M,M,M,M,M,M,M,M,M,M,M,48.69,KTMT 031210Z AUTO 22003KT 10SM CLR 10/02 A3008 RMK AO2 T00970023,M
BVU,2025-07-03 12:15,-114.8611,35.9475,671.00,73.40,60.80,64.74,70.00,5.00,0.00,29.94,M,10.00,M,CLR,M,M,M,M,M,M,M,M,M,M,M,M,M,M,73.40,KBVU 031215Z AUTO 07005KT 10SM CLR 23/16 A2994 RMK AO2,M
BAM,2025-07-03 12:15,-116.8743,40.5990,1382.36,59.00,39.20,47.72,60.00,4.00,0.00,29.97,M,10.00,M,CLR,M,M,M,M,M,M,M,M,M,M,M,M,M,M,59.00,KBAM 031215Z AUTO 06004KT 10SM CLR 15/04 A2997 RMK AO1,M
CXP,2025-07-03 12:15,-119.7326,39.1923,1431.00,59.00,42.80,54.86,0.00,0.00,0.00,30.03,M,10.00,M,CLR,M,M,M,M,M,M,M,M,M,M,M,M,M,M,59.00,KCXP 031215Z AUTO 00000KT 10SM CLR 15/06 A3003 RMK AO2,M
05U,2025-07-03 12:15,-116.0051,39.6042,1811.23,48.20,39.20,70.87,0.00,0.00,0.00,30.11,M,10.00,M,CLR,M,M,M,M,M,M,M,M,M,M,M,M,M,M,48.20,K05U 031215Z AUTO 00000KT 10SM CLR 09/04 A3011 RMK A01,M
HTH,2025-07-03 12:15,-118.6315,38.5448,1282.89,62.60,44.60,51.73,160.00,8.00,0.00,29.99,M,10.00,M,CLR,M,M,M,M,M,M,M,M,M,M,M,M,M,M,62.60,KHTH 031215Z AUTO 16008KT 10SM CLR 17/07 A2999 RMK A01,M
10U,2025-07-03 12:15,-116.1876,41.9532,1637.00,59.00,39.20,47.72,60.00,5.00,0.00,30.01,M,10.00,M,CLR,M,M,M,M,M,M,M,M,M,M,M,M,M,M,59.00,K10U 031215Z AUTO 06005KT 10SM CLR 15/04 A3001 RMK AO2,M
HTH,2025-07-03 12:30,-118.6315,38.5448,1282.89,60.80,46.40,59.02,140.00,6.00,0.00,30.00,M,10.00,M,CLR,M,M,M,M,M,M,M,M,M,M,M,M,M,M,60.80,KHTH 031230Z AUTO 14006KT 10SM CLR 16/08 A3000 RMK A01,M
TMT,2025-07-03 12:30,-117.1971,39.4643,1749.34,49.50,36.70,61.19,210.00,4.00,0.00,30.09,M,10.00,M,CLR,M,M,M,M,M,M,M,M,M,M,M,M,M,M,47.86,KTMT 031230Z AUTO 21004KT 10SM CLR 10/03 A3009 RMK AO2 T00970026,M
BVU,2025-07-03 12:35,-114.8611,35.9475,671.00,73.40,60.80,64.74,0.00,0.00,0.00,29.94,M,10.00,M,CLR,M,M,M,M,M,M,M,M,M,M,M,M,M,M,73.40,KBVU 031235Z AUTO 00000KT 10SM CLR 23/16 A2994 RMK AO2,M
BAM,2025-07-03 12:35,-116.8743,40.5990,1382.36,59.00,39.20,47.72,50.00,5.00,0.00,29.97,M,10.00,M,CLR,M,M,M,M,M,M,M,M,M,M,M,M,M,M,59.00,KBAM 031235Z AUTO 05005KT 10SM CLR 15/04 A2997 RMK AO1,M
CXP,2025-07-03 12:35,-119.7326,39.1923,1431.00,57.20,42.80,58.52,0.00,0.00,0.00,30.04,M,10.00,M,CLR,M,M,M,M,M,M,M,M,M,M,M,M,M,M,57.20,KCXP 031235Z AUTO 00000KT 10SM CLR 14/06 A3004 RMK AO2,M
05U,2025-07-03 12:35,-116.0051,39.6042,1811.23,48.20,39.20,70.87,0.00,0.00,0.00,30.12,M,10.00,M,CLR,M,M,M,M,M,M,M,M,M,M,M,M,M,M,48.20,K05U 031235Z AUTO 00000KT 10SM CLR 09/04 A3012 RMK A01,M
10U,2025-07-03 12:35,-116.1876,41.9532,1637.00,59.00,39.20,47.72,130.00,7.00,0.00,30.01,M,10.00,M,CLR,M,M,M,M,M,M,M,M,M,M,M,M,M,M,59.00,K10U 031235Z AUTO 13007KT 10SM CLR 15/04 A3001 RMK AO2,M
TMT,2025-07-03 12:50,-117.1971,39.4643,1749.34,45.30,33.80,63.87,0.00,0.00,0.00,30.09,M,10.00,M,CLR,M,M,M,M,M,M,M,M,M,M,M,M,M,M,45.30,KTMT 031250Z AUTO 00000KT 10SM CLR 07/01 A3009 RMK AO2 T00740010,M
P68,2025-07-03 12:53,-116.0056,39.6014,1993.00,48.00,35.00,60.51,180.00,8.00,0.00,30.10,1012.70,M,M,M,M,M,M,M,M,M,M,M,M,M,M,M,M,M,43.82,KP68 031253Z AUTO 18008KT 09/02 A3010 RMK AO1 SLP127 T00890017,M
DRA,2025-07-03 12:53,-116.0278,36.6206,1009.00,71.00,51.00,49.22,50.00,11.00,0.00,29.97,1010.30,10.00,M,CLR,M,M,M,M,M,M,M,M,M,M,M,M,M,M,71.00,KDRA 031253Z AUTO 05011KT 10SM CLR 22/11 A2997 RMK AO2 SLP103 T02170106,M
ELY,2025-07-03 12:53,-114.8453,39.2950,1909.00,46.00,34.00,62.69,130.00,6.00,0.00,30.15,1012.80,M,M,CLR,M,M,M,M,M,M,M,M,M,M,M,M,M,M,42.39,KELY 031253Z AUTO 13006KT CLR 08/01 A3015 RMK AO2 SLP128 T00780011 $,M
VGT,2025-07-03 12:53,-115.1933,36.2111,667.00,76.00,57.00,51.81,100.00,4.00,0.00,29.94,1013.00,10.00,M,CLR,M,M,M,M,M,M,M,M,M,M,M,M,M,M,76.00,KVGT 031253Z AUTO 10004KT 10SM CLR 24/14 A2994 RMK AO2 SLP130 T02440139,M
LOL,2025-07-03 12:53,-118.5701,40.0684,1192.43,M,M,M,M,M,0.00,29.93,M,M,M,M,M,M,M,M,M,M,M,M,M,M,M,M,M,M,M,KLOL 031253Z AUTO A2993 RMK AO2 SLPNO PWINO $,M
BVU,2025-07-03 12:55,-114.8611,35.9475,671.00,71.60,60.80,68.79,0.00,0.00,0.00,29.93,M,10.00,M,CLR,M,M,M,M,M,M,M,M,M,M,M,M,M,M,71.60,KBVU 031255Z AUTO 00000KT 10SM CLR 22/16 A2993 RMK AO2,M
RNO,2025-07-03 12:55,-119.7711,39.4839,1341.00,63.00,39.00,41.10,220.00,4.00,0.00,30.01,1010.40,10.00,M,FEW,FEW,M,M,12000.00,25000.00,M,M,M,M,M,M,M,M,M,63.00,KRNO 031255Z 22004KT 10SM FEW120 FEW250 17/04 A3001 RMK AO2 SLP104 T01720039 $,M
BAM,2025-07-03 12:55,-116.8743,40.5990,1382.36,60.80,39.20,44.76,60.00,4.00,0.00,29.98,M,10.00,M,CLR,M,M,M,M,M,M,M,M,M,M,M,M,M,M,60.80,KBAM 031255Z AUTO 06004KT 10SM CLR 16/04 A2998 RMK AO1,M
CXP,2025-07-03 12:55,-119.7326,39.1923,1431.00,55.40,41.00,58.27,0.00,0.00,0.00,30.04,M,10.00,M,CLR,M,M,M,M,M,M,M,M,M,M,M,M,M,M,55.40,KCXP 031255Z AUTO 00000KT 10SM CLR 13/05 A3004 RMK AO2,M
RTS,2025-07-03 12:55,-119.8764,39.6682,1539.00,53.60,37.40,54.07,340.00,6.00,0.00,30.04,M,10.00,M,CLR,M,M,M,M,M,M,M,M,M,M,M,M,M,M,53.60,KRTS 031255Z AUTO 34006KT 10SM CLR 12/03 A3004 RMK AO2,M
05U,2025-07-03 12:55,-116.0051,39.6042,1811.23,48.20,35.60,61.50,0.00,0.00,0.00,30.12,M,10.00,M,CLR,M,M,M,M,M,M,M,M,M,M,M,M,M,M,48.20,K05U 031255Z AUTO 00000KT 10SM CLR 09/02 A3012 RMK A01,M
MEV,2025-07-03 12:55,-119.7500,38.9963,1441.42,46.40,39.20,75.84,0.00,0.00,0.00,30.03,M,10.00,M,CLR,M,M,M,M,M,M,M,M,M,M,M,M,M,M,46.40,KMEV 031255Z AUTO 00000KT 10SM CLR 08/04 A3003 RMK AO2,M
HTH,2025-07-03 12:55,-118.6315,38.5448,1282.89,62.60,44.60,51.73,160.00,8.00,0.00,30.00,M,10.00,M,CLR,M,M,M,M,M,M,M,M,M,M,M,M,M,M,62.60,KHTH 031255Z AUTO 16008KT 10SM CLR 17/07 A3000 RMK A01,M
10U,2025-07-03 12:55,-116.1876,41.9532,1637.00,59.00,39.20,47.72,100.00,5.00,0.00,30.01,M,10.00,M,CLR,M,M,M,M,M,M,M,M,M,M,M,M,M,M,59.00,K10U 031255Z AUTO 10005KT 10SM CLR 15/04 A3001 RMK AO2,M
LSV,2025-07-03 12:55,-115.0343,36.2362,570.00,77.40,57.20,49.82,20.00,4.00,0.00,29.90,1009.60,10.00,M,FEW,M,M,M,15000.00,M,M,M,M,M,M,M,M,M,M,77.40,KLSV 031255Z 02004KT 10SM FEW150 25/14 A2990 RMK AO2A SLP096 T02520140 $,M
EKO,2025-07-03 12:56,-115.7860,40.8242,1367.00,54.00,40.00,58.99,0.00,0.00,0.00,30.02,1011.60,10.00,M,CLR,M,M,M,M,M,M,M,M,M,M,M,M,M,M,54.00,KEKO 031256Z AUTO 00000KT 10SM CLR 12/04 A3002 RMK AO2 SLP116 T01220044,M
WMC,2025-07-03 12:56,-117.8072,40.9019,1315.00,53.00,35.00,50.26,180.00,3.00,0.00,29.95,1009.60,10.00,M,CLR,M,M,M,M,M,M,M,M,M,M,M,M,M,M,53.00,KWMC 031256Z AUTO 18003KT 10SM CLR 12/02 A2995 RMK AO2 SLP096 T01170017 TSNO $,M
HND,2025-07-03 12:56,-115.1344,35.9729,742.79,74.00,59.00,59.51,270.00,3.00,0.00,29.98,1014.00,10.00,M,CLR,M,M,M,M,M,M,M,M,M,M,M,M,M,M,74.00,KHND 031256Z 27003KT 10SM CLR 23/15 A2998 RMK AO2 SLP140 T02330150 $,M
TPH,2025-07-03 12:56,-117.0904,38.0505,1654.00,50.00,35.00,56.15,350.00,5.00,0.00,30.11,1013.90,10.00,M,CLR,M,M,M,M,M,M,M,M,M,M,M,M,M,M,50.00,KTPH 031256Z AUTO 35005KT 10SM CLR 10/02 A3011 RMK AO2 SLP139 T01000017,M
LAS,2025-07-03 12:56,-115.1634,36.0719,663.00,77.00,57.00,50.12,0.00,0.00,0.00,29.95,1011.60,10.00,M,FEW,FEW,SCT,M,11000.00,15000.00,20000.00,M,M,M,M,M,M,M,M,77.00,KLAS 031256Z 00000KT 10SM FEW110 FEW150 SCT200 25/14 A2995 RMK AO2 SLP116 CB DSNT SE ACC DSNT N T02500139,M
NFL,2025-07-03 12:57,-118.7010,39.4166,1199.00,63.00,38.00,39.52,150.00,7.00,0.00,29.95,1011.40,10.00,M,CLR,M,M,M,M,M,M,M,M,M,M,M,M,M,M,63.00,KNFL 031257Z AUTO 15007KT 10SM CLR 17/03 A2995 RMK AO2 SLP114 T01720033,M
RTS,2025-07-03 13:05,-119.8764,39.6682,1539.00,55.40,37.40,50.63,330.00,5.00,0.00,30.04,M,10.00,M,CLR,M,M,M,M,M,M,M,M,M,M,M,M,M,M,55.40,KRTS 031305Z AUTO 33005KT 10SM CLR 13/03 A3004 RMK AO2,M
MEV,2025-07-03 13:05,-119.7500,38.9963,1441.42,48.20,37.40,66.04,110.00,4.00,0.00,30.03,M,10.00,M,CLR,M,M,M,M,M,M,M,M,M,M,M,M,M,M,46.34,KMEV 031305Z AUTO 11004KT 10SM CLR 09/03 A3003 RMK AO2,M
TMT,2025-07-03 13:10,-117.1971,39.4643,1749.34,47.70,35.80,63.17,0.00,0.00,0.00,30.09,M,10.00,M,CLR,M,M,M,M,M,M,M,M,M,M,M,M,M,M,47.70,KTMT 031310Z AUTO 00000KT 10SM CLR 09/02 A3009 RMK AO2 T00870021,M
BVU,2025-07-03 13:15,-114.8611,35.9475,671.00,69.80,60.80,73.13,20.00,6.00,0.00,29.93,M,10.00,M,CLR,M,M,M,M,M,M,M,M,M,M,M,M,M,M,69.80,KBVU 031315Z AUTO 02006KT 10SM CLR 21/16 A2993 RMK AO2,M
BAM,2025-07-03 13:15,-116.8743,40.5990,1382.36,60.80,41.00,48.01,50.00,3.00,0.00,29.99,M,10.00,M,CLR,M,M,M,M,M,M,M,M,M,M,M,M,M,M,60.80,KBAM 031315Z AUTO 05003KT 10SM CLR 16/05 A2999 RMK AO1,M
CXP,2025-07-03 13:15,-119.7326,39.1923,1431.00,59.00,42.80,54.86,0.00,0.00,0.00,30.05,M,10.00,M,CLR,M,M,M,M,M,M,M,M,M,M,M,M,M,M,59.00,KCXP 031315Z AUTO 00000KT 10SM CLR 15/06 A3005 RMK AO2,M
05U,2025-07-03 13:15,-116.0051,39.6042,1811.23,50.00,37.40,61.75,0.00,0.00,0.00,30.12,M,10.00,M,CLR,M,M,M,M,M,M,M,M,M,M,M,M,M,M,50.00,K05U 031315Z AUTO 00000KT 10SM CLR 10/03 A3012 RMK A01,M
HTH,2025-07-03 13:15,-118.6315,38.5448,1282.89,62.60,42.80,48.29,130.00,7.00,0.00,30.01,M,10.00,M,CLR,M,M,M,M,M,M,M,M,M,M,M,M,M,M,62.60,KHTH 031315Z AUTO 13007KT 10SM CLR 17/06 A3001 RMK A01,M
10U,2025-07-03 13:15,-116.1876,41.9532,1637.00,59.00,39.20,47.72,120.00,5.00,0.00,30.01,M,10.00,M,CLR,M,M,M,M,M,M,M,M,M,M,M,M,M,M,59.00,K10U 031315Z AUTO 12005KT 10SM CLR 15/04 A3001 RMK AO2,M
TMT,2025-07-03 13:30,-117.1971,39.4643,1749.34,51.00,36.50,57.42,150.00,4.00,0.00,30.10,M,10.00,M,CLR,M,M,M,M,M,M,M,M,M,M,M,M,M,M,51.00,KTMT 031330Z AUTO 15004KT 10SM CLR 11/03 A3010 RMK AO2 T01060025,M
BVU,2025-07-03 13:35,-114.8611,35.9475,671.00,71.60,60.80,68.79,340.00,5.00,0.00,29.93,M,10.00,M,CLR,M,M,M,M,M,M,M,M,M,M,M,M,M,M,71.60,KBVU 031335Z AUTO 34005KT 10SM CLR 22/16 A2993 RMK AO2,M
BAM,2025-07-03 13:35,-116.8743,40.5990,1382.36,62.60,41.00,45.05,40.00,3.00,0.00,29.99,M,10.00,M,CLR,M,M,M,M,M,M,M,M,M,M,M,M,M,M,62.60,KBAM 031335Z AUTO 04003KT 10SM CLR 17/05 A2999 RMK AO1,M
CXP,2025-07-03 13:35,-119.7326,39.1923,1431.00,59.00,42.80,54.86,0.00,0.00,0.00,30.04,M,10.00,M,CLR,M,M,M,M,M,M,M,M,M,M,M,M,M,M,59.00,KCXP 031335Z AUTO 00000KT 10SM CLR 15/06 A3004 RMK AO2,M
05U,2025-07-03 13:35,-116.0051,39.6042,1811.23,53.60,39.20,58.02,0.00,0.00,0.00,30.13,M,10.00,M,CLR,M,M,M,M,M,M,M,M,M,M,M,M,M,M,53.60,K05U 031335Z AUTO 00000KT 10SM CLR 12/04 A3013 RMK A01,M
HTH,2025-07-03 13:35,-118.6315,38.5448,1282.89,62.60,46.40,55.39,170.00,7.00,0.00,30.01,M,10.00,M,CLR,M,M,M,M,M,M,M,M,M,M,M,M,M,M,62.60,KHTH 031335Z AUTO 17007KT 10SM CLR 17/08 A3001 RMK A01,M
10U,2025-07-03 13:35,-116.1876,41.9532,1637.00,60.80,41.00,48.01,140.00,6.00,0.00,30.02,M,10.00,M,CLR,M,M,M,M,M,M,M,M,M,M,M,M,M,M,60.80,K10U 031335Z AUTO 14006KT 10SM CLR 16/05 A3002 RMK AO2,M
NFL,2025-07-03 13:42,-118.7010,39.4166,1199.00,68.00,41.00,37.34,180.00,5.00,0.00,29.96,M,10.00,M,FEW,SCT,M,M,12000.00,22000.00,M,M,M,M,M,M,M,M,M,68.00,KNFL 031342Z 18005KT 10SM FEW120 SCT220 20/05 A2996 RMK AO2 T02000050,M
TMT,2025-07-03 13:50,-117.1971,39.4643,1749.34,58.60,39.00,48.04,180.00,8.00,0.00,30.10,M,10.00,M,CLR,M,M,M,M,M,M,M,M,M,M,M,M,M,M,58.60,KTMT 031350Z AUTO 18008KT 10SM CLR 15/04 A3010 RMK AO2 T01480039,M
P68,2025-07-03 13:53,-116.0056,39.6014,1993.00,57.00,40.00,52.90,200.00,3.00,0.00,30.10,1012.10,M,M,M,M,M,M,M,M,M,M,M,M,M,M,M,M,M,57.00,KP68 031353Z AUTO 20003KT 14/04 A3010 RMK AO1 SLP121 T01390044,M
DRA,2025-07-03 13:53,-116.0278,36.6206,1009.00,70.00,57.00,63.40,110.00,9.00,0.00,29.98,1010.90,10.00,M,CLR,M,M,M,M,M,M,M,M,M,M,M,M,M,M,70.00,KDRA 031353Z AUTO 11009KT 10SM CLR 21/14 A2998 RMK AO2 SLP109 T02110139,M
ELY,2025-07-03 13:53,-114.8453,39.2950,1909.00,54.00,35.00,48.45,170.00,4.00,0.00,30.16,1012.60,M,M,CLR,M,M,M,M,M,M,M,M,M,M,M,M,M,M,54.00,KELY 031353Z AUTO 17004KT CLR 12/02 A3016 RMK AO2 SLP126 T01220017 $,M
VGT,2025-07-03 13:53,-115.1933,36.2111,667.00,78.00,58.00,50.27,90.00,5.00,0.00,29.95,1013.30,10.00,M,CLR,M,M,M,M,M,M,M,M,M,M,M,M,M,M,78.00,KVGT 031353Z 09005KT 10SM CLR 26/14 A2995 RMK AO2 SLP133 T02560144,M
LOL,2025-07-03 13:53,-118.5701,40.0684,1192.43,M,M,M,M,M,0.00,29.94,M,M,M,M,M,M,M,M,M,M,M,M,M,M,M,M,M,M,M,KLOL 031353Z AUTO A2994 RMK AO2 SLPNO PWINO $,M
BVU,2025-07-03 13:55,-114.8611,35.9475,671.00,75.20,62.60,64.96,20.00,4.00,0.00,29.94,M,10.00,M,CLR,M,M,M,M,M,M,M,M,M,M,M,M,M,M,75.20,KBVU 031355Z AUTO 02004KT 10SM CLR 24/17 A2994 RMK AO2,M
RNO,2025-07-03 13:55,-119.7711,39.4839,1341.00,64.00,41.00,42.89,0.00,0.00,0.00,30.02,1010.60,10.00,M,FEW,FEW,M,M,10000.00,25000.00,M,M,M,M,M,M,M,M,M,64.00,KRNO 031355Z 00000KT 10SM FEW100 FEW250 18/05 A3002 RMK AO2 SLP106 T01780050 $,M
BAM,2025-07-03 13:55,-116.8743,40.5990,1382.36,68.00,41.00,37.34,70.00,3.00,0.00,29.99,M,10.00,M,CLR,M,M,M,M,M,M,M,M,M,M,M,M,M,M,68.00,KBAM 031355Z AUTO 07003KT 10SM CLR 20/05 A2999 RMK AO1,M
CXP,2025-07-03 13:55,-119.7326,39.1923,1431.00,62.60,42.80,48.29,0.00,0.00,0.00,30.05,M,10.00,M,CLR,M,M,M,M,M,M,M,M,M,M,M,M,M,M,62.60,KCXP 031355Z AUTO 00000KT 10SM CLR 17/06 A3005 RMK AO2,M
05U,2025-07-03 13:55,-116.0051,39.6042,1811.23,57.20,39.20,50.91,0.00,0.00,0.00,30.13,M,10.00,M,CLR,M,M,M,M,M,M,M,M,M,M,M,M,M,M,57.20,K05U 031355Z AUTO 00000KT 10SM CLR 14/04 A3013 RMK A01,M
HTH,2025-07-03 13:55,-118.6315,38.5448,1282.89,66.20,46.40,48.85,150.00,7.00,0.00,30.01,M,10.00,M,CLR,M,M,M,M,M,M,M,M,M,M,M,M,M,M,66.20,KHTH 031355Z AUTO 15007KT 10SM CLR 19/08 A3001 RMK A01,M
10U,2025-07-03 13:55,-116.1876,41.9532,1637.00,64.40,39.20,39.44,130.00,7.00,0.00,30.02,M,10.00,M,CLR,M,M,M,M,M,M,M,M,M,M,M,M,M,M,64.40,K10U 031355Z AUTO 13007KT 10SM CLR 18/04 A3002 RMK AO2,M
INS,2025-07-03 13:55,-115.6733,36.5872,955.00,68.40,59.40,72.99,260.00,6.00,0.00,29.99,1011.30,10.00,M,CLR,M,M,M,M,M,M,M,M,M,M,M,M,M,M,68.40,KINS 031355Z AUTO 26006KT 10SM CLR 20/15 A2999 RMK AO2 SLP113 T02020152 $,M
LSV,2025-07-03 13:55,-115.0343,36.2362,570.00,77.00,58.00,51.96,50.00,5.00,0.00,29.91,1010.10,10.00,M,CLR,M,M,M,M,M,M,M,M,M,M,M,M,M,M,77.00,KLSV 031355Z AUTO 05005KT 10SM CLR 25/14 A2991 RMK AO2 SLP101 T02500144 $,M
EKO,2025-07-03 13:56,-115.7860,40.8242,1367.00,60.00,40.00,47.51,90.00,3.00,0.00,30.03,1011.40,10.00,M,CLR,M,M,M,M,M,M,M,M,M,M,M,M,M,M,60.00,KEKO 031356Z AUTO 09003KT 10SM CLR 16/04 A3003 RMK AO2 SLP114 T01560044,M
WMC,2025-07-03 13:56,-117.8072,40.9019,1315.00,63.00,37.00,37.99,150.00,3.00,0.00,29.96,1009.30,10.00,M,CLR,M,M,M,M,M,M,M,M,M,M,M,M,M,M,63.00,KWMC 031356Z AUTO 15003KT 10SM CLR 17/03 A2996 RMK AO2 SLP093 T01720028 TSNO $,M
HND,2025-07-03 13:56,-115.1344,35.9729,742.79,77.00,59.00,53.86,90.00,4.00,0.00,29.98,1014.20,10.00,M,CLR,M,M,M,M,M,M,M,M,M,M,M,M,M,M,77.00,KHND 031356Z 09004KT 10SM CLR 25/15 A2998 RMK AO2 SLP142 T02500150 $,M
TPH,2025-07-03 13:56,-117.0904,38.0505,1654.00,55.00,37.00,50.57,10.00,3.00,0.00,30.12,1014.00,10.00,M,CLR,M,M,M,M,M,M,M,M,M,M,M,M,M,M,55.00,KTPH 031356Z AUTO 01003KT 10SM CLR 13/03 A3012 RMK AO2 SLP140 T01280028,M
LAS,2025-07-03 13:56,-115.1634,36.0719,663.00,79.00,58.00,48.65,70.00,6.00,0.00,29.96,1011.80,10.00,M,FEW,FEW,M,M,11000.00,20000.00,M,M,M,M,M,M,M,M,M,79.00,KLAS 031356Z 07006KT 10SM FEW110 FEW200 26/14 A2996 RMK AO2 SLP118 T02610144,M
NFL,2025-07-03 13:57,-118.7010,39.4166,1199.00,70.00,42.00,36.24,210.00,4.00,0.00,29.96,1011.80,10.00,M,FEW,SCT,M,M,12000.00,22000.00,M,M,M,M,M,M,M,M,M,70.00,KNFL 031357Z 21004KT 10SM FEW120 SCT220 21/06 A2996 RMK AO2 SLP118 T02110056,M
TMT,2025-07-03 14:10,-117.1971,39.4643,1749.34,61.50,39.20,43.67,190.00,8.00,0.00,30.10,M,10.00,M,CLR,M,M,M,M,M,M,M,M,M,M,M,M,M,M,61.50,KTMT 031410Z AUTO 19008KT 10SM CLR 16/04 A3010 RMK AO2 T01640040,M
BVU,2025-07-03 14:15,-114.8611,35.9475,671.00,77.00,59.00,53.86,70.00,5.00,0.00,29.94,M,10.00,M,CLR,M,M,M,M,M,M,M,M,M,M,M,M,M,M,77.00,KBVU 031415Z AUTO 07005KT 10SM CLR 25/15 A2994 RMK AO2,M
CXP,2025-07-03 14:15,-119.7326,39.1923,1431.00,64.40,42.80,45.34,220.00,4.00,0.00,30.05,M,10.00,M,CLR,M,M,M,M,M,M,M,M,M,M,M,M,M,M,64.40,KCXP 031415Z AUTO 22004KT 10SM CLR 18/06 A3005 RMK AO2,M
05U,2025-07-03 14:15,-116.0051,39.6042,1811.23,60.80,39.20,44.76,220.00,4.00,0.00,30.13,M,10.00,10.00,CLR,M,M,M,M,M,M,M,M,M,M,M,M,M,M,60.80,K05U 031415Z AUTO 22004G10KT 10SM CLR 16/04 A3013 RMK A01,M
BAM,2025-07-03 14:15,-116.8743,40.5990,1382.36,69.80,41.00,35.11,70.00,4.00,0.00,29.99,M,10.00,M,CLR,M,M,M,M,M,M,M,M,M,M,M,M,M,M,69.80,KBAM 031415Z AUTO 07004KT 10SM CLR 21/05 A2999 RMK AO1,M
HTH,2025-07-03 14:15,-118.6315,38.5448,1282.89,69.80,41.00,35.11,150.00,6.00,0.00,30.01,M,10.00,M,CLR,M,M,M,M,M,M,M,M,M,M,M,M,M,M,69.80,KHTH 031415Z AUTO 15006KT 10SM CLR 21/05 A3001 RMK A01,M
10U,2025-07-03 14:15,-116.1876,41.9532,1637.00,66.20,41.00,39.73,130.00,7.00,0.00,30.02,M,10.00,M,CLR,M,M,M,M,M,M,M,M,M,M,M,M,M,M,66.20,K10U 031415Z AUTO 13007KT 10SM CLR 19/05 A3002 RMK AO2,M
TMT,2025-07-03 14:30,-117.1971,39.4643,1749.34,62.80,39.60,42.37,200.00,6.00,0.00,30.10,M,10.00,M,CLR,M,M,M,M,M,M,M,M,M,M,M,M,M,M,62.80,KTMT 031430Z AUTO 20006KT 10SM CLR 17/04 A3010 RMK AO2 T01710042,M
BVU,2025-07-03 14:35,-114.8611,35.9475,671.00,78.80,57.20,47.58,80.00,5.00,0.00,29.95,M,10.00,M,CLR,M,M,M,M,M,M,M,M,M,M,M,M,M,M,78.80,KBVU 031435Z AUTO 08005KT 10SM CLR 26/14 A2995 RMK AO2,M
BAM,2025-07-03 14:35,-116.8743,40.5990,1382.36,71.60,41.00,33.02,0.00,0.00,0.00,30.00,M,10.00,M,CLR,M,M,M,M,M,M,M,M,M,M,M,M,M,M,71.60,KBAM 031435Z AUTO 00000KT 10SM CLR 22/05 A3000 RMK AO1,M
CXP,2025-07-03 14:35,-119.7326,39.1923,1431.00,64.40,42.80,45.34,0.00,0.00,0.00,30.06,M,10.00,M,CLR,M,M,M,M,M,M,M,M,M,M,M,M,M,M,64.40,KCXP 031435Z AUTO 00000KT 10SM CLR 18/06 A3006 RMK AO2,M
RTS,2025-07-03 14:35,-119.8764,39.6682,1539.00,66.20,39.20,37.04,0.00,0.00,0.00,30.06,M,10.00,M,CLR,M,M,M,M,M,M,M,M,M,M,M,M,M,M,66.20,KRTS 031435Z AUTO 00000KT 10SM CLR 19/04 A3006 RMK AO2,M
05U,2025-07-03 14:35,-116.0051,39.6042,1811.23,64.40,39.20,39.44,230.00,7.00,0.00,30.13,M,10.00,M,CLR,M,M,M,M,M,M,M,M,M,M,M,M,M,M,64.40,K05U 031435Z AUTO 23007KT 10SM CLR 18/04 A3013 RMK A01,M
MEV,2025-07-03 14:35,-119.7500,38.9963,1441.42,60.80,42.80,51.46,0.00,0.00,0.00,30.04,M,10.00,M,CLR,M,M,M,M,M,M,M,M,M,M,M,M,M,M,60.80,KMEV 031435Z AUTO 00000KT 10SM CLR 16/06 A3004 RMK AO2,M
HTH,2025-07-03 14:35,-118.6315,38.5448,1282.89,71.60,42.80,35.40,130.00,8.00,0.00,30.01,M,10.00,M,CLR,M,M,M,M,M,M,M,M,M,M,M,M,M,M,71.60,KHTH 031435Z AUTO 13008KT 10SM CLR 22/06 A3001 RMK A01,M
10U,2025-07-03 14:35,-116.1876,41.9532,1637.00,68.00,41.00,37.34,130.00,9.00,0.00,30.03,M,10.00,M,CLR,M,M,M,M,M,M,M,M,M,M,M,M,M,M,68.00,K10U 031435Z AUTO 13009KT 10SM CLR 20/05 A3003 RMK AO2,M
TMT,2025-07-03 14:50,-117.1971,39.4643,1749.34,65.00,40.50,40.62,220.00,5.00,0.00,30.10,M,10.00,M,CLR,M,M,M,M,M,M,M,M,M,M,M,M,M,M,65.00,KTMT 031450Z AUTO 22005KT 10SM CLR 18/05 A3010 RMK AO2 T01830047,M
P68,2025-07-03 14:53,-116.0056,39.6014,1993.00,65.00,40.00,39.84,220.00,9.00,0.00,30.10,1011.80,M,M,M,M,M,M,M,M,M,M,M,M,M,M,M,M,M,65.00,KP68 031453Z AUTO 22009KT 18/04 A3010 RMK AO1 SLP118 T01830044 51005,M
DRA,2025-07-03 14:53,-116.0278,36.6206,1009.00,76.00,57.00,51.81,100.00,8.00,0.00,29.99,1010.90,10.00,M,CLR,M,M,M,M,M,M,M,M,M,M,M,M,M,M,76.00,KDRA 031453Z AUTO 10008KT 10SM CLR 24/14 A2999 RMK AO2 SLP109 T02440139 51010,M
ELY,2025-07-03 14:53,-114.8453,39.2950,1909.00,59.00,38.00,45.53,170.00,3.00,0.00,30.15,1012.10,M,M,CLR,M,M,M,M,M,M,M,M,M,M,M,M,M,M,59.00,KELY 031453Z AUTO 17003KT CLR 15/03 A3015 RMK AO2 SLP121 T01500033 50008 $,M
VGT,2025-07-03 14:53,-115.1933,36.2111,667.00,81.00,58.00,45.57,90.00,4.00,0.00,29.95,1013.50,10.00,M,CLR,M,M,M,M,M,M,M,M,M,M,M,M,M,M,81.23,KVGT 031453Z 09004KT 10SM CLR 27/14 A2995 RMK AO2 SLP135 T02720144 51009,M
LOL,2025-07-03 14:53,-118.5701,40.0684,1192.43,M,M,M,M,M,0.00,29.95,M,M,M,M,M,M,M,M,M,M,M,M,M,M,M,M,M,M,M,KLOL 031453Z AUTO A2995 RMK AO2 SLPNO 52009 PWINO,M
BVU,2025-07-03 14:55,-114.8611,35.9475,671.00,78.80,55.40,44.58,110.00,4.00,0.00,29.95,M,10.00,M,CLR,M,M,M,M,M,M,M,M,M,M,M,M,M,M,78.80,KBVU 031455Z AUTO 11004KT 10SM CLR 26/13 A2995 RMK AO2,M
INS,2025-07-03 14:55,-115.6733,36.5872,955.00,72.00,59.00,63.65,0.00,0.00,0.00,30.00,1011.40,10.00,M,CLR,M,M,M,M,M,M,M,M,M,M,M,M,M,M,72.00,KINS 031455Z AUTO 00000KT 10SM CLR 22/15 A3000 RMK AO2 SLP114 T02220150 52015 $,M
RNO,2025-07-03 14:55,-119.7711,39.4839,1341.00,69.00,39.00,33.38,0.00,0.00,0.00,30.02,1010.80,10.00,M,SCT,M,M,M,25000.00,M,M,M,M,M,M,M,M,M,M,69.00,KRNO 031455Z 00000KT 10SM SCT250 21/04 A3002 RMK AO2 SLP108 T02060039 51008,M
BAM,2025-07-03 14:55,-116.8743,40.5990,1382.36,73.40,42.80,33.31,0.00,0.00,0.00,30.00,M,10.00,M,CLR,M,M,M,M,M,M,M,M,M,M,M,M,M,M,73.40,KBAM 031455Z AUTO 00000KT 10SM CLR 23/06 A3000 RMK AO1,M
CXP,2025-07-03 14:55,-119.7326,39.1923,1431.00,66.20,42.80,42.59,0.00,0.00,0.00,30.06,M,10.00,M,CLR,M,M,M,M,M,M,M,M,M,M,M,M,M,M,66.20,KCXP 031455Z AUTO 00000KT 10SM CLR 19/06 A3006 RMK AO2,M
RTS,2025-07-03 14:55,-119.8764,39.6682,1539.00,68.00,39.20,34.81,0.00,0.00,0.00,30.06,M,10.00,M,CLR,M,M,M,M,M,M,M,M,M,M,M,M,M,M,68.00,KRTS 031455Z AUTO 00000KT 10SM CLR 20/04 A3006 RMK AO2,M
05U,2025-07-03 14:55,-116.0051,39.6042,1811.23,66.20,39.20,37.04,0.00,0.00,0.00,30.13,M,10.00,M,CLR,M,M,M,M,M,M,M,M,M,M,M,M,M,M,66.20,K05U 031455Z AUTO 00000KT 10SM CLR 19/04 A3013 RMK A01,M
MEV,2025-07-03 14:55,-119.7500,38.9963,1441.42,62.60,42.80,48.29,220.00,4.00,0.00,30.04,M,9.00,M,CLR,M,M,M,M,M,M,M,M,M,M,M,M,M,M,62.60,KMEV 031455Z AUTO 22004KT 9SM CLR 17/06 A3004 RMK AO2,M
HTH,2025-07-03 14:55,-118.6315,38.5448,1282.89,73.40,42.80,33.31,170.00,4.00,0.00,30.01,M,10.00,M,CLR,M,M,M,M,M,M,M,M,M,M,M,M,M,M,73.40,KHTH 031455Z AUTO 17004KT 10SM CLR 23/06 A3001 RMK A01,M
10U,2025-07-03 14:55,-116.1876,41.9532,1637.00,69.80,41.00,35.11,110.00,9.00,0.00,30.02,M,10.00,M,CLR,M,M,M,M,M,M,M,M,M,M,M,M,M,M,69.80,K10U 031455Z AUTO 11009KT 10SM CLR 21/05 A3002 RMK AO2,M
LSV,2025-07-03 14:55,-115.0343,36.2362,570.00,80.80,57.40,44.89,60.00,3.00,0.00,29.91,1010.10,10.00,M,CLR,M,M,M,M,M,M,M,M,M,M,M,M,M,M,80.98,KLSV 031455Z AUTO 06003KT 10SM CLR 27/14 A2991 RMK AO2 SLP101 T02710141 52009 $,M
EKO,2025-07-03 14:56,-115.7860,40.8242,1367.00,65.00,41.00,41.42,90.00,3.00,0.00,30.04,1011.50,10.00,M,CLR,M,M,M,M,M,M,M,M,M,M,M,M,M,M,65.00,KEKO 031456Z AUTO 09003KT 10SM CLR 18/05 A3004 RMK AO2 SLP115 T01830050 51006,M
WMC,2025-07-03 14:56,-117.8072,40.9019,1315.00,72.00,38.00,28.98,0.00,0.00,0.00,29.97,1009.30,10.00,M,CLR,M,M,M,M,M,M,M,M,M,M,M,M,M,M,72.00,KWMC 031456Z AUTO 00000KT 10SM CLR 22/03 A2997 RMK AO2 SLP093 T02220033 51009 TSNO $,M
HND,2025-07-03 14:56,-115.1344,35.9729,742.79,79.00,58.00,48.65,30.00,4.00,0.00,29.99,1014.60,10.00,M,CLR,M,M,M,M,M,M,M,M,M,M,M,M,M,M,79.00,KHND 031456Z 03004KT 10SM CLR 26/14 A2999 RMK AO2 SLP146 T02610144 51009 $,M
TPH,2025-07-03 14:56,-117.0904,38.0505,1654.00,63.00,41.00,44.42,10.00,4.00,0.00,30.13,1013.80,10.00,M,CLR,M,M,M,M,M,M,M,M,M,M,M,M,M,M,63.00,KTPH 031456Z AUTO 01004KT 10SM CLR 17/05 A3013 RMK AO2 SLP138 T01720050 51010,M
LAS,2025-07-03 14:56,-115.1634,36.0719,663.00,81.00,58.00,45.57,90.00,4.00,0.00,29.97,1012.40,10.00,M,FEW,FEW,M,M,11000.00,20000.00,M,M,M,M,M,M,M,M,M,81.23,KLAS 031456Z 09004KT 10SM FEW110 FEW200 27/14 A2997 RMK AO2 SLP124 T02720144 51011,M
NFL,2025-07-03 14:57,-118.7010,39.4166,1199.00,76.00,42.00,29.62,180.00,7.00,0.00,29.97,1012.00,10.00,M,SCT,M,M,M,22000.00,M,M,M,M,M,M,M,M,M,M,76.00,KNFL 031457Z 18007KT 10SM SCT220 24/06 A2997 RMK AO2 SLP120 T02440056 52008,M
TMT,2025-07-03 15:10,-117.1971,39.4643,1749.34,67.50,40.60,37.40,200.00,4.00,0.00,30.10,M,10.00,M,CLR,M,M,M,M,M,M,M,M,M,M,M,M,M,M,67.50,KTMT 031510Z AUTO 20004KT 10SM CLR 20/05 A3010 RMK AO2 T01970048,M
BAM,2025-07-03 15:15,-116.8743,40.5990,1382.36,73.40,41.00,31.08,0.00,0.00,0.00,30.00,M,10.00,M,CLR,M,M,M,M,M,M,M,M,M,M,M,M,M,M,73.40,KBAM 031515Z AUTO 00000KT 10SM CLR 23/05 A3000 RMK AO1,M
CXP,2025-07-03 15:15,-119.7326,39.1923,1431.00,68.00,42.80,40.02,0.00,0.00,0.00,30.05,M,10.00,M,CLR,M,M,M,M,M,M,M,M,M,M,M,M,M,M,68.00,KCXP 031515Z AUTO 00000KT 10SM CLR 20/06 A3005 RMK AO2,M
RTS,2025-07-03 15:15,-119.8764,39.6682,1539.00,69.80,41.00,35.11,120.00,5.00,0.00,30.05,M,10.00,M,CLR,M,M,M,M,M,M,M,M,M,M,M,M,M,M,69.80,KRTS 031515Z AUTO 12005KT 10SM CLR 21/05 A3005 RMK AO2,M
05U,2025-07-03 15:15,-116.0051,39.6042,1811.23,68.00,39.20,34.81,230.00,6.00,0.00,30.13,M,10.00,M,CLR,M,M,M,M,M,M,M,M,M,M,M,M,M,M,68.00,K05U 031515Z AUTO 23006KT 10SM CLR 20/04 A3013 RMK A01,M
MEV,2025-07-03 15:15,-119.7500,38.9963,1441.42,64.40,44.60,48.57,0.00,0.00,0.00,30.04,M,10.00,M,CLR,M,M,M,M,M,M,M,M,M,M,M,M,M,M,64.40,KMEV 031515Z AUTO 00000KT 10SM CLR 18/07 A3004 RMK AO2,M
HTH,2025-07-03 15:15,-118.6315,38.5448,1282.89,73.40,42.80,33.31,0.00,0.00,0.00,30.01,M,10.00,M,M,M,M,M,M,M,M,M,M,M,M,M,M,M,M,73.40,KHTH 031515Z AUTO 00000KT 10SM 23/06 A3001 RMK A01,M
10U,2025-07-03 15:15,-116.1876,41.9532,1637.00,71.60,41.00,33.02,120.00,9.00,0.00,30.03,M,10.00,M,CLR,M,M,M,M,M,M,M,M,M,M,M,M,M,M,71.60,K10U 031515Z AUTO 12009KT 10SM CLR 22/05 A3003 RMK AO2,M
RTS,2025-07-03 15:30,-119.8764,39.6682,1539.00,69.80,39.20,32.73,140.00,4.00,0.00,30.06,M,10.00,M,CLR,M,M,M,M,M,M,M,M,M,M,M,M,M,M,69.80,KRTS 031530Z AUTO 14004KT 10SM CLR 21/04 A3006 RMK AO2,M
05U,2025-07-03 15:30,-116.0051,39.6042,1811.23,68.00,39.20,34.81,0.00,0.00,0.00,30.13,M,10.00,M,CLR,M,M,M,M,M,M,M,M,M,M,M,M,M,M,68.00,K05U 031530Z AUTO 00000KT 10SM CLR 20/04 A3013 RMK A01,M
MEV,2025-07-03 15:30,-119.7500,38.9963,1441.42,66.20,44.60,45.62,0.00,0.00,0.00,30.04,M,10.00,M,CLR,M,M,M,M,M,M,M,M,M,M,M,M,M,M,66.20,KMEV 031530Z AUTO 00000KT 10SM CLR 19/07 A3004 RMK AO2,M
TMT,2025-07-03 15:30,-117.1971,39.4643,1749.34,70.50,41.50,34.95,0.00,0.00,0.00,30.10,M,10.00,M,CLR,M,M,M,M,M,M,M,M,M,M,M,M,M,M,70.50,KTMT 031530Z AUTO 00000KT 10SM CLR 21/05 A3010 RMK AO2 T02140053,M
BAM,2025-07-03 15:35,-116.8743,40.5990,1382.36,77.00,41.00,27.57,0.00,0.00,0.00,30.00,M,10.00,M,CLR,M,M,M,M,M,M,M,M,M,M,M,M,M,M,77.00,KBAM 031535Z AUTO 00000KT 10SM CLR 25/05 A3000 RMK AO1,M
CXP,2025-07-03 15:35,-119.7326,39.1923,1431.00,68.00,42.80,40.02,0.00,0.00,0.00,30.05,M,10.00,M,CLR,M,M,M,M,M,M,M,M,M,M,M,M,M,M,68.00,KCXP 031535Z AUTO 00000KT 10SM CLR 20/06 A3005 RMK AO2,M
HTH,2025-07-03 15:35,-118.6315,38.5448,1282.89,77.00,39.20,25.70,100.00,10.00,0.00,30.01,M,10.00,M,CLR,M,M,M,M,M,M,M,M,M,M,M,M,M,M,77.00,KHTH 031535Z AUTO 10010KT 10SM CLR 25/04 A3001 RMK A01,M
10U,2025-07-03 15:35,-116.1876,41.9532,1637.00,73.40,41.00,31.08,100.00,7.00,0.00,30.03,M,10.00,M,CLR,M,M,M,M,M,M,M,M,M,M,M,M,M,M,73.40,K10U 031535Z AUTO 10007KT 10SM CLR 23/05 A3003 RMK AO2,M
TMT,2025-07-03 15:50,-117.1971,39.4643,1749.34,73.40,40.60,30.60,220.00,7.00,0.00,30.10,M,10.00,M,CLR,M,M,M,M,M,M,M,M,M,M,M,M,M,M,73.40,KTMT 031550Z AUTO 22007KT 10SM CLR 23/05 A3010 RMK AO2 T02300048,M
P68,2025-07-03 15:53,-116.0056,39.6014,1993.00,71.00,39.00,31.18,220.00,3.00,0.00,30.10,1011.30,M,M,M,M,M,M,M,M,M,M,M,M,M,M,M,M,M,71.00,KP68 031553Z AUTO 22003KT 22/04 A3010 RMK AO1 SLP113 T02170039,M
DRA,2025-07-03 15:53,-116.0278,36.6206,1009.00,79.00,56.00,45.26,110.00,8.00,0.00,30.00,1011.20,10.00,19.00,CLR,M,M,M,M,M,M,M,M,M,M,M,M,M,M,79.00,KDRA 031553Z AUTO 11008G19KT 070V150 10SM CLR 26/13 A3000 RMK AO2 SLP112 T02610133,M
ELY,2025-07-03 15:53,-114.8453,39.2950,1909.00,67.00,38.00,34.38,210.00,6.00,0.00,30.16,1012.10,M,M,CLR,M,M,M,M,M,M,M,M,M,M,M,M,M,M,67.00,KELY 031553Z AUTO 21006KT CLR 19/03 A3016 RMK AO2 SLP121 T01940033 $,M
VGT,2025-07-03 15:53,-115.1933,36.2111,667.00,83.00,58.00,42.72,90.00,5.00,0.00,29.96,1013.60,10.00,M,CLR,M,M,M,M,M,M,M,M,M,M,M,M,M,M,82.71,KVGT 031553Z 09005KT 10SM CLR 28/14 A2996 RMK AO2 SLP136 T02830144,M
LOL,2025-07-03 15:53,-118.5701,40.0684,1192.43,M,M,M,M,M,0.00,29.96,M,M,M,M,M,M,M,M,M,M,M,M,M,M,M,M,M,M,M,KLOL 031553Z AUTO A2996 RMK AO2 SLPNO PWINO,M
RNO,2025-07-03 15:55,-119.7711,39.4839,1341.00,72.00,40.00,31.34,0.00,0.00,0.00,30.02,1010.50,10.00,M,FEW,M,M,M,25000.00,M,M,M,M,M,M,M,M,M,M,72.00,KRNO 031555Z 00000KT 10SM FEW250 22/04 A3002 RMK AO2 SLP105 T02220044,M
BAM,2025-07-03 15:55,-116.8743,40.5990,1382.36,78.80,41.00,25.98,0.00,0.00,0.00,30.00,M,10.00,M,CLR,M,M,M,M,M,M,M,M,M,M,M,M,M,M,78.80,KBAM 031555Z AUTO 00000KT 10SM CLR 26/05 A3000 RMK AO1,M
CXP,2025-07-03 15:55,-119.7326,39.1923,1431.00,69.80,41.00,35.11,0.00,0.00,0.00,30.05,M,10.00,M,CLR,M,M,M,M,M,M,M,M,M,M,M,M,M,M,69.80,KCXP 031555Z AUTO 00000KT 10SM CLR 21/05 A3005 RMK AO2,M
RTS,2025-07-03 15:55,-119.8764,39.6682,1539.00,71.60,39.20,30.79,0.00,0.00,0.00,30.06,M,10.00,M,CLR,M,M,M,M,M,M,M,M,M,M,M,M,M,M,71.60,KRTS 031555Z AUTO 00000KT 10SM CLR 22/04 A3006 RMK AO2,M
05U,2025-07-03 15:55,-116.0051,39.6042,1811.23,71.60,39.20,30.79,0.00,0.00,0.00,30.13,M,10.00,M,CLR,M,M,M,M,M,M,M,M,M,M,M,M,M,M,71.60,K05U 031555Z AUTO 00000KT 10SM CLR 22/04 A3013 RMK A01,M
MEV,2025-07-03 15:55,-119.7500,38.9963,1441.42,68.00,48.20,49.12,M,3.00,0.00,30.04,M,10.00,M,CLR,M,M,M,M,M,M,M,M,M,M,M,M,M,M,68.00,KMEV 031555Z AUTO VRB03KT 10SM CLR 20/09 A3004 RMK AO2,M
HTH,2025-07-03 15:55,-118.6315,38.5448,1282.89,77.00,39.20,25.70,90.00,12.00,0.00,30.01,M,10.00,M,CLR,M,M,M,M,M,M,M,M,M,M,M,M,M,M,77.00,KHTH 031555Z AUTO 09012KT 10SM CLR 25/04 A3001 RMK A01,M
10U,2025-07-03 15:55,-116.1876,41.9532,1637.00,75.20,39.20,27.28,M,6.00,0.00,30.03,M,10.00,M,CLR,M,M,M,M,M,M,M,M,M,M,M,M,M,M,75.20,K10U 031555Z AUTO VRB06KT 10SM CLR 24/04 A3003 RMK AO2,M
INS,2025-07-03 15:55,-115.6733,36.5872,955.00,79.70,57.00,45.87,90.00,13.00,0.00,29.99,1010.30,10.00,M,CLR,M,M,M,M,M,M,M,M,M,M,M,M,M,M,79.70,KINS 031555Z AUTO 09013KT 10SM CLR 27/14 A2999 RMK AO2 SLP103 T02650139 $,M
LSV,2025-07-03 15:55,-115.0343,36.2362,570.00,84.00,54.00,35.79,80.00,4.00,0.00,29.92,1010.30,10.00,M,CLR,M,M,M,M,M,M,M,M,M,M,M,M,M,M,82.68,KLSV 031555Z AUTO 08004KT 10SM CLR 29/12 A2992 RMK AO2 SLP103 T02890123 $,M
EKO,2025-07-03 15:56,-115.7860,40.8242,1367.00,71.00,40.00,32.42,0.00,0.00,0.00,30.04,1011.60,10.00,M,CLR,M,M,M,M,M,M,M,M,M,M,M,M,M,M,71.00,KEKO 031556Z AUTO 00000KT 10SM CLR 22/04 A3004 RMK AO2 SLP116 T02170044,M
WMC,2025-07-03 15:56,-117.8072,40.9019,1315.00,78.00,38.00,23.73,0.00,0.00,0.00,29.98,1009.30,10.00,M,CLR,M,M,M,M,M,M,M,M,M,M,M,M,M,M,78.00,KWMC 031556Z AUTO 00000KT 10SM CLR 26/03 A2998 RMK AO2 SLP093 T02560033 TSNO $,M
HND,2025-07-03 15:56,-115.1344,35.9729,742.79,82.00,59.00,45.73,30.00,4.00,0.00,29.99,1014.50,10.00,M,CLR,M,M,M,M,M,M,M,M,M,M,M,M,M,M,82.16,KHND 031556Z 03004KT 10SM CLR 28/15 A2999 RMK AO2 SLP145 T02780150 $,M
TPH,2025-07-03 15:56,-117.0904,38.0505,1654.00,68.00,43.00,40.33,160.00,4.00,0.00,30.13,1013.80,10.00,M,CLR,M,M,M,M,M,M,M,M,M,M,M,M,M,M,68.00,KTPH 031556Z AUTO 16004KT 10SM CLR 20/06 A3013 RMK AO2 SLP138 T02000061,M
LAS,2025-07-03 15:56,-115.1634,36.0719,663.00,83.00,58.00,42.72,70.00,5.00,0.00,29.97,1012.20,10.00,M,FEW,FEW,M,M,11000.00,20000.00,M,M,M,M,M,M,M,M,M,82.71,KLAS 031556Z 07005KT 10SM FEW110 FEW200 28/14 A2997 RMK AO2 SLP122 T02830144,M
NFL,2025-07-03 15:57,-118.7010,39.4166,1199.00,81.00,42.00,25.13,210.00,11.00,0.00,29.98,1012.20,10.00,M,FEW,SCT,M,M,18000.00,22000.00,M,M,M,M,M,M,M,M,M,79.49,KNFL 031557Z 21011KT 10SM FEW180 SCT220 27/06 A2998 RMK AO2 SLP122 T02720056,M
TMT,2025-07-03 16:10,-117.1971,39.4643,1749.34,75.00,40.00,28.34,250.00,5.00,0.00,30.10,M,10.00,M,CLR,M,M,M,M,M,M,M,M,M,M,M,M,M,M,75.00,KTMT 031610Z AUTO 25005KT 10SM CLR 24/05 A3010 RMK AO2 T02380045,M
BVU,2025-07-03 16:15,-114.8611,35.9475,671.00,82.40,55.40,39.65,M,4.00,0.00,29.95,M,10.00,M,CLR,M,M,M,M,M,M,M,M,M,M,M,M,M,M,81.75,KBVU 031615Z AUTO VRB04KT 10SM CLR 28/13 A2995 RMK AO2,M
BAM,2025-07-03 16:15,-116.8743,40.5990,1382.36,80.60,41.00,24.49,190.00,4.00,0.00,30.00,M,10.00,M,CLR,M,M,M,M,M,M,M,M,M,M,M,M,M,M,79.20,KBAM 031615Z AUTO 19004KT 10SM CLR 27/05 A3000 RMK AO1,M
CXP,2025-07-03 16:15,-119.7326,39.1923,1431.00,71.60,41.00,33.02,0.00,0.00,0.00,30.05,M,10.00,M,CLR,M,M,M,M,M,M,M,M,M,M,M,M,M,M,71.60,KCXP 031615Z AUTO 00000KT 10SM CLR 22/05 A3005 RMK AO2,M
RTS,2025-07-03 16:15,-119.8764,39.6682,1539.00,73.40,39.20,28.98,0.00,0.00,0.00,30.06,M,10.00,M,CLR,M,M,M,M,M,M,M,M,M,M,M,M,M,M,73.40,KRTS 031615Z AUTO 00000KT 10SM CLR 23/04 A3006 RMK AO2,M
05U,2025-07-03 16:15,-116.0051,39.6042,1811.23,73.40,37.40,27.00,0.00,0.00,0.00,30.12,M,10.00,M,CLR,M,M,M,M,M,M,M,M,M,M,M,M,M,M,73.40,K05U 031615Z AUTO 00000KT 10SM CLR 23/03 A3012 RMK A01,M
MEV,2025-07-03 16:15,-119.7500,38.9963,1441.42,69.80,42.80,37.63,M,5.00,0.00,30.04,M,10.00,M,CLR,M,M,M,M,M,M,M,M,M,M,M,M,M,M,69.80,KMEV 031615Z AUTO VRB05KT 10SM CLR 21/06 A3004 RMK AO2,M
HTH,2025-07-03 16:15,-118.6315,38.5448,1282.89,78.80,37.40,22.57,100.00,11.00,0.00,30.01,M,10.00,M,CLR,M,M,M,M,M,M,M,M,M,M,M,M,M,M,78.80,KHTH 031615Z AUTO 10011KT 10SM CLR 26/03 A3001 RMK A01,M
10U,2025-07-03 16:15,-116.1876,41.9532,1637.00,77.00,37.40,23.95,M,4.00,0.00,30.03,M,10.00,M,CLR,M,M,M,M,M,M,M,M,M,M,M,M,M,M,77.00,K10U 031615Z AUTO VRB04KT 10SM CLR 25/03 A3003 RMK AO2,M
RTS,2025-07-03 16:25,-119.8764,39.6682,1539.00,75.20,39.20,27.28,M,3.00,0.00,30.05,M,10.00,10.00,CLR,M,M,M,M,M,M,M,M,M,M,M,M,M,M,75.20,KRTS 031625Z AUTO VRB03G10KT 10SM CLR 24/04 A3005 RMK AO2,M
MEV,2025-07-03 16:25,-119.7500,38.9963,1441.42,71.60,42.80,35.40,0.00,0.00,0.00,30.04,M,10.00,M,CLR,M,M,M,M,M,M,M,M,M,M,M,M,M,M,71.60,KMEV 031625Z AUTO 00000KT 10SM CLR 22/06 A3004 RMK AO2,M
TMT,2025-07-03 16:30,-117.1971,39.4643,1749.34,75.60,38.50,26.20,220.00,5.00,0.00,30.09,M,10.00,M,CLR,M,M,M,M,M,M,M,M,M,M,M,M,M,M,75.60,KTMT 031630Z AUTO 22005KT 10SM CLR 24/04 A3009 RMK AO2 T02420036,M
BVU,2025-07-03 16:35,-114.8611,35.9475,671.00,84.20,55.40,37.42,M,4.00,0.00,29.95,M,10.00,M,CLR,M,M,M,M,M,M,M,M,M,M,M,M,M,M,83.10,KBVU 031635Z AUTO VRB04KT 10SM CLR 29/13 A2995 RMK AO2,M
BAM,2025-07-03 16:35,-116.8743,40.5990,1382.36,82.40,41.00,23.10,0.00,0.00,0.00,29.99,M,10.00,M,CLR,M,M,M,M,M,M,M,M,M,M,M,M,M,M,80.29,KBAM 031635Z AUTO 00000KT 10SM CLR 28/05 A2999 RMK AO1,M
CXP,2025-07-03 16:35,-119.7326,39.1923,1431.00,75.20,41.00,29.26,0.00,0.00,0.00,30.04,M,10.00,M,CLR,M,M,M,M,M,M,M,M,M,M,M,M,M,M,75.20,KCXP 031635Z AUTO 00000KT 10SM CLR 24/05 A3004 RMK AO2,M
05U,2025-07-03 16:35,-116.0051,39.6042,1811.23,73.40,37.40,27.00,0.00,0.00,0.00,30.11,M,10.00,M,CLR,M,M,M,M,M,M,M,M,M,M,M,M,M,M,73.40,K05U 031635Z AUTO 00000KT 10SM CLR 23/03 A3011 RMK A01,M
HTH,2025-07-03 16:35,-118.6315,38.5448,1282.89,80.60,37.40,21.28,110.00,10.00,0.00,30.00,M,10.00,M,CLR,M,M,M,M,M,M,M,M,M,M,M,M,M,M,79.02,KHTH 031635Z AUTO 11010KT 10SM CLR 27/03 A3000 RMK A01,M
10U,2025-07-03 16:35,-116.1876,41.9532,1637.00,78.80,37.40,22.57,M,6.00,0.00,30.03,M,10.00,M,CLR,M,M,M,M,M,M,M,M,M,M,M,M,M,M,78.80,K10U 031635Z AUTO VRB06KT 10SM CLR 26/03 A3003 RMK AO2,M
TMT,2025-07-03 16:50,-117.1971,39.4643,1749.34,76.60,38.30,25.14,240.00,6.00,0.00,30.09,M,10.00,M,CLR,M,M,M,M,M,M,M,M,M,M,M,M,M,M,76.60,KTMT 031650Z AUTO 24006KT 10SM CLR 25/04 A3009 RMK AO2 T02480035,M
P68,2025-07-03 16:53,-116.0056,39.6014,1993.00,76.00,37.00,24.37,260.00,7.00,0.00,30.08,1010.60,M,M,M,M,M,M,M,M,M,M,M,M,M,M,M,M,M,76.00,KP68 031653Z AUTO 26007KT 24/03 A3008 RMK AO1 SLP106 T02440028,M
DRA,2025-07-03 16:53,-116.0278,36.6206,1009.00,82.00,55.00,39.59,110.00,7.00,0.00,30.00,1011.00,10.00,M,CLR,M,M,M,M,M,M,M,M,M,M,M,M,M,M,81.41,KDRA 031653Z AUTO 11007KT 10SM CLR 28/13 A3000 RMK AO2 SLP110 T02780128,M
ELY,2025-07-03 16:53,-114.8453,39.2950,1909.00,71.00,38.00,29.98,200.00,4.00,0.00,30.14,1011.20,M,M,CLR,M,M,M,M,M,M,M,M,M,M,M,M,M,M,71.00,KELY 031653Z AUTO 20004KT CLR 22/03 A3014 RMK AO2 SLP112 T02170033 $,M
VGT,2025-07-03 16:53,-115.1933,36.2111,667.00,85.00,57.00,38.64,150.00,7.00,0.00,29.95,1013.10,10.00,16.00,CLR,M,M,M,M,M,M,M,M,M,M,M,M,M,M,84.09,KVGT 031653Z 15007G16KT 10SM CLR 29/14 A2995 RMK AO2 SLP131 T02940139,M
LOL,2025-07-03 16:53,-118.5701,40.0684,1192.43,M,M,M,M,M,0.00,29.95,M,M,M,M,M,M,M,M,M,M,M,M,M,M,M,M,M,M,M,KLOL 031653Z AUTO A2995 RMK AO2 SLPNO PWINO $,M
BVU,2025-07-03 16:55,-114.8611,35.9475,671.00,86.00,55.40,35.33,M,4.00,0.00,29.94,M,10.00,M,CLR,M,M,M,M,M,M,M,M,M,M,M,M,M,M,84.56,KBVU 031655Z AUTO VRB04KT 10SM CLR 30/13 A2994 RMK AO2,M
RNO,2025-07-03 16:55,-119.7711,39.4839,1341.00,77.00,40.00,26.52,0.00,0.00,0.00,30.00,1009.80,10.00,M,FEW,M,M,M,25000.00,M,M,M,M,M,M,M,M,M,M,77.00,KRNO 031655Z 00000KT 10SM FEW250 25/04 A3000 RMK AO2 SLP098 T02500044,M
BAM,2025-07-03 16:55,-116.8743,40.5990,1382.36,86.00,41.00,20.59,220.00,5.00,0.00,29.99,M,10.00,M,CLR,M,M,M,M,M,M,M,M,M,M,M,M,M,M,82.86,KBAM 031655Z AUTO 22005KT 10SM CLR 30/05 A2999 RMK AO1,M
CXP,2025-07-03 16:55,-119.7326,39.1923,1431.00,77.00,41.00,27.57,0.00,0.00,0.00,30.04,M,10.00,M,CLR,M,M,M,M,M,M,M,M,M,M,M,M,M,M,77.00,KCXP 031655Z AUTO 00000KT 10SM CLR 25/05 A3004 RMK AO2,M
RTS,2025-07-03 16:55,-119.8764,39.6682,1539.00,77.00,37.40,23.95,M,3.00,0.00,30.05,M,10.00,M,CLR,M,M,M,M,M,M,M,M,M,M,M,M,M,M,77.00,KRTS 031655Z AUTO VRB03KT 10SM CLR 25/03 A3005 RMK AO2,M
05U,2025-07-03 16:55,-116.0051,39.6042,1811.23,75.20,37.40,25.43,0.00,0.00,0.00,30.11,M,10.00,M,CLR,M,M,M,M,M,M,M,M,M,M,M,M,M,M,75.20,K05U 031655Z AUTO 00000KT 10SM CLR 24/03 A3011 RMK A01,M
MEV,2025-07-03 16:55,-119.7500,38.9963,1441.42,75.20,37.40,25.43,0.00,0.00,0.00,30.02,M,10.00,M,CLR,M,M,M,M,M,M,M,M,M,M,M,M,M,M,75.20,KMEV 031655Z AUTO 00000KT 10SM CLR 24/03 A3002 RMK AO2,M
HTH,2025-07-03 16:55,-118.6315,38.5448,1282.89,82.40,37.40,20.08,90.00,10.00,0.00,29.99,M,10.00,M,CLR,M,M,M,M,M,M,M,M,M,M,M,M,M,M,80.14,KHTH 031655Z AUTO 09010KT 10SM CLR 28/03 A2999 RMK A01,M
10U,2025-07-03 16:55,-116.1876,41.9532,1637.00,78.80,37.40,22.57,0.00,0.00,0.00,30.02,M,10.00,M,CLR,M,M,M,M,M,M,M,M,M,M,M,M,M,M,78.80,K10U 031655Z AUTO 00000KT 10SM CLR 26/03 A3002 RMK AO2,M
INS,2025-07-03 16:55,-115.6733,36.5872,955.00,82.60,55.80,39.97,90.00,13.00,0.00,29.98,1010.20,10.00,20.00,CLR,M,M,M,M,M,M,M,M,M,M,M,M,M,M,81.97,KINS 031655Z AUTO 09013G20KT 10SM CLR 28/13 A2998 RMK AO2 SLP102 T02810132 $,M
LSV,2025-07-03 16:55,-115.0343,36.2362,570.00,86.70,55.00,34.05,M,3.00,0.00,29.90,1009.60,10.00,M,CLR,M,M,M,M,M,M,M,M,M,M,M,M,M,M,85.07,KLSV 031655Z VRB03KT 10SM CLR 30/13 A2990 RMK SLP096 T03040127 10304 20250 58002 $,M
EKO,2025-07-03 16:56,-115.7860,40.8242,1367.00,77.00,41.00,27.57,0.00,0.00,0.00,30.02,1010.50,10.00,M,CLR,M,M,M,M,M,M,M,M,M,M,M,M,M,M,77.00,KEKO 031656Z AUTO 00000KT 10SM CLR 25/05 A3002 RMK AO2 SLP105 T02500050,M
WMC,2025-07-03 16:56,-117.8072,40.9019,1315.00,81.00,39.00,22.37,70.00,4.00,0.00,29.96,1008.70,10.00,M,CLR,M,M,M,M,M,M,M,M,M,M,M,M,M,M,79.33,KWMC 031656Z AUTO 07004KT 10SM CLR 27/04 A2996 RMK AO2 SLP087 T02720039 TSNO $,M
HND,2025-07-03 16:56,-115.1344,35.9729,742.79,86.00,60.00,41.68,M,3.00,0.00,29.98,1014.00,10.00,M,CLR,M,M,M,M,M,M,M,M,M,M,M,M,M,M,85.80,KHND 031656Z VRB03KT 10SM CLR 30/16 A2998 RMK AO2 SLP140 T03000156 $,M
TPH,2025-07-03 16:56,-117.0904,38.0505,1654.00,74.00,43.00,32.90,150.00,9.00,0.00,30.11,1013.00,10.00,M,CLR,M,M,M,M,M,M,M,M,M,M,M,M,M,M,74.00,KTPH 031656Z AUTO 15009KT 10SM CLR 23/06 A3011 RMK AO2 SLP130 T02330061,M
LAS,2025-07-03 16:56,-115.1634,36.0719,663.00,85.00,58.00,40.06,90.00,7.00,0.00,29.96,1011.80,10.00,M,FEW,FEW,M,M,11000.00,20000.00,M,M,M,M,M,M,M,M,M,84.34,KLAS 031656Z 09007KT 10SM FEW110 FEW200 29/14 A2996 RMK AO2 SLP118 T02940144,M
NFL,2025-07-03 16:57,-118.7010,39.4166,1199.00,84.00,40.00,21.11,260.00,8.00,0.00,29.96,1011.70,10.00,M,FEW,SCT,M,M,18000.00,22000.00,M,M,M,M,M,M,M,M,M,81.33,KNFL 031657Z 26008KT 10SM FEW180 SCT220 29/04 A2996 RMK AO2 SLP117 T02890044,M
TMT,2025-07-03 17:10,-117.1971,39.4643,1749.34,78.00,38.30,24.01,260.00,4.00,0.00,30.08,M,10.00,M,CLR,M,M,M,M,M,M,M,M,M,M,M,M,M,M,78.00,KTMT 031710Z AUTO 26004KT 10SM CLR 26/04 A3008 RMK AO2 T02550035,M
BVU,2025-07-03 17:15,-114.8611,35.9475,671.00,87.80,55.40,33.37,130.00,9.00,0.00,29.93,M,10.00,M,CLR,M,M,M,M,M,M,M,M,M,M,M,M,M,M,86.13,KBVU 031715Z AUTO 13009KT 10SM CLR 31/13 A2993 RMK AO2,M
BAM,2025-07-03 17:15,-116.8743,40.5990,1382.36,86.00,41.00,20.59,230.00,6.00,0.00,29.98,M,10.00,M,CLR,M,M,M,M,M,M,M,M,M,M,M,M,M,M,82.86,KBAM 031715Z AUTO 23006KT 10SM CLR 30/05 A2998 RMK AO1,M
CXP,2025-07-03 17:15,-119.7326,39.1923,1431.00,78.80,39.20,24.22,0.00,0.00,0.00,30.03,M,10.00,M,CLR,M,M,M,M,M,M,M,M,M,M,M,M,M,M,78.80,KCXP 031715Z AUTO 00000KT 10SM CLR 26/04 A3003 RMK AO2,M
RTS,2025-07-03 17:15,-119.8764,39.6682,1539.00,77.00,37.40,23.95,M,5.00,0.00,30.04,M,10.00,M,CLR,M,M,M,M,M,M,M,M,M,M,M,M,M,M,77.00,KRTS 031715Z AUTO VRB05KT 10SM CLR 25/03 A3004 RMK AO2,M
05U,2025-07-03 17:15,-116.0051,39.6042,1811.23,77.00,37.40,23.95,240.00,7.00,0.00,30.11,M,10.00,M,CLR,M,M,M,M,M,M,M,M,M,M,M,M,M,M,77.00,K05U 031715Z AUTO 24007KT 10SM CLR 25/03 A3011 RMK A01,M
MEV,2025-07-03 17:15,-119.7500,38.9963,1441.42,77.00,41.00,27.57,290.00,3.00,0.00,30.02,M,8.00,M,CLR,M,M,M,M,M,M,M,M,M,M,M,M,M,M,77.00,KMEV 031715Z AUTO 29003KT 8SM CLR 25/05 A3002 RMK AO2,M
HTH,2025-07-03 17:15,-118.6315,38.5448,1282.89,84.20,37.40,18.94,100.00,11.00,0.00,29.98,M,10.00,M,CLR,M,M,M,M,M,M,M,M,M,M,M,M,M,M,81.38,KHTH 031715Z AUTO 10011KT 10SM CLR 29/03 A2998 RMK A01,M
10U,2025-07-03 17:15,-116.1876,41.9532,1637.00,80.60,37.40,21.28,250.00,6.00,0.00,30.02,M,10.00,M,CLR,M,M,M,M,M,M,M,M,M,M,M,M,M,M,79.02,K10U 031715Z AUTO 25006KT 10SM CLR 27/03 A3002 RMK AO2,M
TMT,2025-07-03 17:30,-117.1971,39.4643,1749.34,78.60,37.80,23.08,270.00,4.00,0.00,30.07,M,10.00,M,CLR,M,M,M,M,M,M,M,M,M,M,M,M,M,M,78.60,KTMT 031730Z AUTO 27004KT 10SM CLR 26/03 A3007 RMK AO2 T02590032,M
BVU,2025-07-03 17:35,-114.8611,35.9475,671.00,87.80,57.20,35.61,140.00,13.00,0.00,29.93,M,10.00,M,CLR,M,M,M,M,M,M,M,M,M,M,M,M,M,M,86.59,KBVU 031735Z AUTO 14013KT 120V200 10SM CLR 31/14 A2993 RMK AO2,M
BAM,2025-07-03 17:35,-116.8743,40.5990,1382.36,87.80,39.20,18.13,270.00,7.00,0.00,29.97,M,10.00,M,CLR,M,M,M,M,M,M,M,M,M,M,M,M,M,M,84.22,KBAM 031735Z AUTO 27007KT 10SM CLR 31/04 A2997 RMK AO1,M
CXP,2025-07-03 17:35,-119.7326,39.1923,1431.00,82.40,35.60,18.70,M,3.00,0.00,30.02,M,10.00,M,CLR,M,M,M,M,M,M,M,M,M,M,M,M,M,M,80.08,KCXP 031735Z AUTO VRB03KT 10SM CLR 28/02 A3002 RMK AO2,M
RTS,2025-07-03 17:35,-119.8764,39.6682,1539.00,77.00,33.80,20.76,60.00,3.00,0.00,30.03,M,10.00,M,CLR,M,M,M,M,M,M,M,M,M,M,M,M,M,M,77.00,KRTS 031735Z AUTO 06003KT 10SM CLR 25/01 A3003 RMK AO2,M
05U,2025-07-03 17:35,-116.0051,39.6042,1811.23,77.00,37.40,23.95,0.00,0.00,0.00,30.10,M,10.00,M,CLR,M,M,M,M,M,M,M,M,M,M,M,M,M,M,77.00,K05U 031735Z AUTO 00000KT 10SM CLR 25/03 A3010 RMK A01,M
MEV,2025-07-03 17:35,-119.7500,38.9963,1441.42,78.80,41.00,25.98,0.00,0.00,0.00,30.01,M,7.00,M,CLR,M,M,M,M,M,M,M,M,M,M,M,M,M,M,78.80,KMEV 031735Z AUTO 00000KT 7SM CLR 26/05 A3001 RMK AO2,M
HTH,2025-07-03 17:35,-118.6315,38.5448,1282.89,86.00,35.60,16.66,110.00,8.00,0.00,29.97,M,10.00,13.00,CLR,M,M,M,M,M,M,M,M,M,M,M,M,M,M,82.69,KHTH 031735Z AUTO 11008G13KT 10SM CLR 30/02 A2997 RMK A01,M
10U,2025-07-03 17:35,-116.1876,41.9532,1637.00,82.40,37.40,20.08,210.00,7.00,0.00,30.02,M,10.00,M,CLR,M,M,M,M,M,M,M,M,M,M,M,M,M,M,80.14,K10U 031735Z AUTO 21007KT 170V230 10SM CLR 28/03 A3002 RMK AO2,M
TMT,2025-07-03 17:50,-117.1971,39.4643,1749.34,79.70,37.60,22.09,250.00,6.00,0.00,30.07,M,10.00,M,CLR,M,M,M,M,M,M,M,M,M,M,M,M,M,M,79.70,KTMT 031750Z AUTO 25006KT 10SM CLR 27/03 A3007 RMK AO2 T02650031,M
P68,2025-07-03 17:53,-116.0056,39.6014,1993.00,78.00,38.00,23.73,210.00,5.00,0.00,30.07,1010.20,M,15.00,M,M,M,M,M,M,M,M,M,M,M,M,M,M,M,78.00,KP68 031753Z AUTO 21005G15KT 26/03 A3007 RMK AO1 SLP102 T02560033 10261 20078 58010,M
DRA,2025-07-03 17:53,-116.0278,36.6206,1009.00,83.00,54.00,36.96,180.00,4.00,0.00,29.99,1010.80,10.00,M,CLR,M,M,M,M,M,M,M,M,M,M,M,M,M,M,81.95,KDRA 031753Z AUTO 18004KT 10SM CLR 28/12 A2999 RMK AO2 SLP108 T02830122 10294 20206 58001,M
ELY,2025-07-03 17:53,-114.8453,39.2950,1909.00,75.00,37.00,25.20,230.00,13.00,0.00,30.13,1010.90,M,20.00,CLR,M,M,M,M,M,M,M,M,M,M,M,M,M,M,75.00,KELY 031753Z AUTO 23013G20KT CLR 24/03 A3013 RMK AO2 SLP109 T02390028 10244 20078 58007 $,M
VGT,2025-07-03 17:53,-115.1933,36.2111,667.00,87.00,58.00,37.59,M,M,0.00,29.94,1012.80,10.00,M,CLR,M,M,M,M,M,M,M,M,M,M,M,M,M,M,86.09,KVGT 031753Z 10SM CLR 31/14 A2994 RMK AO2 SLP128 T03060144 10306 20239 58005,M
LOL,2025-07-03 17:53,-118.5701,40.0684,1192.43,M,M,M,M,M,0.00,29.94,M,M,M,M,M,M,M,M,M,M,M,M,M,M,M,M,M,M,M,KLOL 031753Z AUTO A2994 RMK AO2 SLPNO 58003 PWINO $,M
CXP,2025-07-03 17:55,-119.7326,39.1923,1431.00,82.40,33.80,17.40,M,4.00,0.00,30.02,M,10.00,M,CLR,M,M,M,M,M,M,M,M,M,M,M,M,M,M,80.04,KCXP 031755Z AUTO VRB04KT 10SM CLR 28/01 A3002 RMK AO2,M
BVU,2025-07-03 17:55,-114.8611,35.9475,671.00,89.60,57.20,33.65,170.00,8.00,0.00,29.93,M,10.00,17.00,CLR,M,M,M,M,M,M,M,M,M,M,M,M,M,M,88.30,KBVU 031755Z AUTO 17008G17KT 10SM CLR 32/14 A2993 RMK AO2,M
RNO,2025-07-03 17:55,-119.7711,39.4839,1341.00,81.00,39.00,22.37,310.00,6.00,0.00,29.98,1009.10,10.00,M,FEW,M,M,M,25000.00,M,M,M,M,M,M,M,M,M,M,79.33,KRNO 031755Z 31006KT 10SM FEW250 27/04 A2998 RMK AO2 SLP091 T02720039 10272 20167 58012,M
BAM,2025-07-03 17:55,-116.8743,40.5990,1382.36,87.80,39.20,18.13,240.00,11.00,0.00,29.97,M,10.00,16.00,CLR,M,M,M,M,M,M,M,M,M,M,M,M,M,M,84.22,KBAM 031755Z AUTO 24011G16KT 10SM CLR 31/04 A2997 RMK AO1,M
RTS,2025-07-03 17:55,-119.8764,39.6682,1539.00,80.60,33.80,18.45,M,4.00,0.00,30.03,M,10.00,11.00,CLR,M,M,M,M,M,M,M,M,M,M,M,M,M,M,78.88,KRTS 031755Z AUTO VRB04G11KT 10SM CLR 27/01 A3003 RMK AO2,M
05U,2025-07-03 17:55,-116.0051,39.6042,1811.23,78.80,37.40,22.57,M,5.00,0.00,30.10,M,10.00,11.00,CLR,M,M,M,M,M,M,M,M,M,M,M,M,M,M,78.80,K05U 031755Z AUTO VRB05G11KT 10SM CLR 26/03 A3010 RMK A01,M
MEV,2025-07-03 17:55,-119.7500,38.9963,1441.42,80.60,32.00,17.16,160.00,4.00,0.00,30.01,M,10.00,M,CLR,M,M,M,M,M,M,M,M,M,M,M,M,M,M,78.82,KMEV 031755Z AUTO 16004KT 10SM CLR 27/M00 A3001 RMK AO2,M
HTH,2025-07-03 17:55,-118.6315,38.5448,1282.89,86.00,35.60,16.66,130.00,5.00,0.00,29.97,M,10.00,11.00,CLR,M,M,M,M,M,M,M,M,M,M,M,M,M,M,82.69,KHTH 031755Z AUTO 13005G11KT 10SM CLR 30/02 A2997 RMK A01,M
10U,2025-07-03 17:55,-116.1876,41.9532,1637.00,82.40,37.40,20.08,240.00,7.00,0.00,30.01,M,10.00,13.00,CLR,M,M,M,M,M,M,M,M,M,M,M,M,M,M,80.14,K10U 031755Z AUTO 24007G13KT 10SM CLR 28/03 A3001 RMK AO2,M
INS,2025-07-03 17:55,-115.6733,36.5872,955.00,85.50,53.80,33.86,80.00,6.00,0.00,29.97,1009.40,10.00,M,CLR,M,M,M,M,M,M,M,M,M,M,M,M,M,M,83.82,KINS 031755Z AUTO 08006KT 10SM CLR 30/12 A2997 RMK AO2 SLP094 T02970121 10297 20181 57010 $,M
LSV,2025-07-03 17:55,-115.0343,36.2362,570.00,88.70,55.00,31.96,180.00,6.00,0.00,29.89,1009.20,10.00,M,FEW,M,M,M,19000.00,M,M,M,M,M,M,M,M,M,M,86.85,KLSV 031755Z AUTO 18006KT 10SM FEW190 32/13 A2989 RMK AO2 SLP092 T03150128 10315 20250 58007 $,M
EKO,2025-07-03 17:56,-115.7860,40.8242,1367.00,81.00,39.00,22.37,M,M,0.00,30.00,1009.60,10.00,M,CLR,M,M,M,M,M,M,M,M,M,M,M,M,M,M,79.33,KEKO 031756Z AUTO 10SM CLR 27/04 A3000 RMK AO2 SLP096 T02720039 10272 20122 58011,M
WMC,2025-07-03 17:56,-117.8072,40.9019,1315.00,85.00,38.00,18.91,M,M,0.00,29.95,1008.20,10.00,M,CLR,M,M,M,M,M,M,M,M,M,M,M,M,M,M,81.99,KWMC 031756Z AUTO 10SM CLR 29/03 A2995 RMK AO2 SLP082 T02940033 10300 20111 58007 TSNO $,M
HND,2025-07-03 17:56,-115.1344,35.9729,742.79,88.00,58.00,36.42,130.00,7.00,0.00,29.97,1013.50,10.00,M,CLR,M,M,M,M,M,M,M,M,M,M,M,M,M,M,87.01,KHND 031756Z 13007KT 10SM CLR 31/14 A2997 RMK AO2 SLP135 T03110144 10317 20228 58007 $,M
TPH,2025-07-03 17:56,-117.0904,38.0505,1654.00,79.00,42.00,26.83,190.00,11.00,0.00,30.10,1012.20,10.00,20.00,CLR,M,M,M,M,M,M,M,M,M,M,M,M,M,M,79.00,KTPH 031756Z AUTO 19011G20KT 10SM CLR 26/06 A3010 RMK AO2 SLP122 T02610056 10267 20100 58009,M
LAS,2025-07-03 17:56,-115.1634,36.0719,663.00,88.00,58.00,36.42,M,4.00,0.00,29.95,1011.30,10.00,14.00,FEW,M,M,M,11000.00,M,M,M,M,M,M,M,M,M,M,87.01,KLAS 031756Z VRB04G14KT 10SM FEW110 31/14 A2995 RMK AO2 SLP113 T03110144 10311 20250 58008,M
NFL,2025-07-03 17:57,-118.7010,39.4166,1199.00,87.00,39.00,18.45,210.00,4.00,0.00,29.94,1011.30,10.00,M,FEW,SCT,SCT,M,8000.00,18000.00,22000.00,M,M,M,M,M,M,M,M,83.57,KNFL 031757Z COR 21004KT 10SM FEW080 SCT180 SCT220 31/04 A2994 RMK AO2 SLP113 T03060039 10311 20161 58007,M
LAS,2025-07-03 18:03,-115.1634,36.0719,663.00,89.00,58.00,35.29,80.00,9.00,0.00,29.95,M,10.00,M,FEW,M,M,M,11000.00,M,M,M,M,M,M,M,M,M,M,87.96,KLAS 031803Z 08009KT 10SM FEW110 32/14 A2995 RMK AO2 T03170144,M
TMT,2025-07-03 18:10,-117.1971,39.4643,1749.34,81.30,36.70,20.24,270.00,5.00,0.00,30.06,M,10.00,M,CLR,M,M,M,M,M,M,M,M,M,M,M,M,M,M,79.41,KTMT 031810Z AUTO 27005KT 10SM CLR 27/03 A3006 RMK AO2 T02740026,M
BVU,2025-07-03 18:15,-114.8611,35.9475,671.00,89.60,57.20,33.65,140.00,10.00,0.00,29.92,M,10.00,17.00,CLR,M,M,M,M,M,M,M,M,M,M,M,M,M,M,88.30,KBVU 031815Z AUTO 14010G17KT 10SM CLR 32/14 A2992 RMK AO2,M
BAM,2025-07-03 18:15,-116.8743,40.5990,1382.36,87.80,37.40,16.89,200.00,9.00,0.00,29.96,M,10.00,M,CLR,M,M,M,M,M,M,M,M,M,M,M,M,M,M,84.17,KBAM 031815Z AUTO 20009KT 10SM CLR 31/03 A2996 RMK AO1,M
CXP,2025-07-03 18:15,-119.7326,39.1923,1431.00,84.20,30.20,14.20,M,4.00,0.00,30.01,M,10.00,11.00,CLR,M,M,M,M,M,M,M,M,M,M,M,M,M,M,81.26,KCXP 031815Z AUTO VRB04G11KT 10SM CLR 29/M01 A3001 RMK AO2,M
RTS,2025-07-03 18:15,-119.8764,39.6682,1539.00,80.60,30.20,15.95,230.00,8.00,0.00,30.03,M,10.00,M,CLR,M,M,M,M,M,M,M,M,M,M,M,M,M,M,78.77,KRTS 031815Z AUTO 23008KT 170V320 10SM CLR 27/M01 A3003 RMK AO2,M
05U,2025-07-03 18:15,-116.0051,39.6042,1811.23,78.80,37.40,22.57,M,3.00,0.00,30.09,M,10.00,M,CLR,M,M,M,M,M,M,M,M,M,M,M,M,M,M,78.80,K05U 031815Z AUTO VRB03KT 10SM CLR 26/03 A3009 RMK A01,M
MEV,2025-07-03 18:15,-119.7500,38.9963,1441.42,82.40,32.00,16.19,150.00,4.00,0.00,30.00,M,10.00,M,CLR,M,M,M,M,M,M,M,M,M,M,M,M,M,M,80.00,KMEV 031815Z AUTO 15004KT 10SM CLR 28/00 A3000 RMK AO2,M
HTH,2025-07-03 18:15,-118.6315,38.5448,1282.89,87.80,35.60,15.73,120.00,7.00,0.00,29.96,M,10.00,M,CLR,M,M,M,M,M,M,M,M,M,M,M,M,M,M,84.12,KHTH 031815Z AUTO 12007KT 070V160 10SM CLR 31/02 A2996 RMK A01,M
10U,2025-07-03 18:15,-116.1876,41.9532,1637.00,84.20,37.40,18.94,M,5.00,0.00,30.01,M,10.00,13.00,CLR,M,M,M,M,M,M,M,M,M,M,M,M,M,M,81.38,K10U 031815Z AUTO VRB05G13KT 10SM CLR 29/03 A3001 RMK AO2,M
TMT,2025-07-03 18:30,-117.1971,39.4643,1749.34,82.00,37.00,20.02,250.00,6.00,0.00,30.06,M,10.00,M,CLR,M,M,M,M,M,M,M,M,M,M,M,M,M,M,79.87,KTMT 031830Z AUTO 25006KT 10SM CLR 28/03 A3006 RMK AO2 T02770028,M
BVU,2025-07-03 18:35,-114.8611,35.9475,671.00,89.60,55.40,31.53,140.00,8.00,0.00,29.92,M,10.00,16.00,CLR,M,M,M,M,M,M,M,M,M,M,M,M,M,M,87.80,KBVU 031835Z AUTO 14008G16KT 10SM CLR 32/13 A2992 RMK AO2,M
BAM,2025-07-03 18:35,-116.8743,40.5990,1382.36,89.60,37.40,15.96,190.00,3.00,0.00,29.96,M,10.00,M,CLR,M,M,M,M,M,M,M,M,M,M,M,M,M,M,85.67,KBAM 031835Z AUTO 19003KT 10SM CLR 32/03 A2996 RMK AO1,M
CXP,2025-07-03 18:35,-119.7326,39.1923,1431.00,87.80,28.40,11.77,170.00,5.00,0.00,30.01,M,10.00,12.00,CLR,M,M,M,M,M,M,M,M,M,M,M,M,M,M,83.84,KCXP 031835Z AUTO 17005G12KT 10SM CLR 31/M02 A3001 RMK AO2,M
RTS,2025-07-03 18:35,-119.8764,39.6682,1539.00,82.40,28.40,13.98,M,4.00,0.00,30.03,M,10.00,13.00,CLR,M,M,M,M,M,M,M,M,M,M,M,M,M,M,79.94,KRTS 031835Z AUTO VRB04G13KT 10SM CLR 28/M02 A3003 RMK AO2,M
05U,2025-07-03 18:35,-116.0051,39.6042,1811.23,77.00,37.40,23.95,0.00,0.00,0.00,30.09,M,10.00,M,CLR,M,M,M,M,M,M,M,M,M,M,M,M,M,M,77.00,K05U 031835Z AUTO 00000KT 10SM CLR 25/03 A3009 RMK A01,M
MEV,2025-07-03 18:35,-119.7500,38.9963,1441.42,84.20,33.80,16.42,M,4.00,0.00,30.00,M,9.00,M,CLR,M,M,M,M,M,M,M,M,M,M,M,M,M,M,81.30,KMEV 031835Z AUTO VRB04KT 9SM CLR 29/01 A3000 RMK AO2,M
HTH,2025-07-03 18:35,-118.6315,38.5448,1282.89,87.80,33.80,14.64,M,5.00,0.00,29.95,M,10.00,11.00,CLR,M,M,M,M,M,M,M,M,M,M,M,M,M,M,84.10,KHTH 031835Z AUTO VRB05G11KT 10SM CLR 31/01 A2995 RMK A01,M
10U,2025-07-03 18:35,-116.1876,41.9532,1637.00,84.20,37.40,18.94,0.00,0.00,0.00,30.01,M,10.00,15.00,CLR,M,M,M,M,M,M,M,M,M,M,M,M,M,M,81.38,K10U 031835Z AUTO 00000G15KT 10SM CLR 29/03 A3001 RMK AO2,M
RTS,2025-07-03 18:45,-119.8764,39.6682,1539.00,82.40,26.60,12.98,230.00,7.00,0.00,30.02,M,10.00,14.00,CLR,M,M,M,M,M,M,M,M,M,M,M,M,M,M,79.92,KRTS 031845Z AUTO 23007G14KT 10SM CLR 28/M03 A3002 RMK AO2,M
MEV,2025-07-03 18:45,-119.7500,38.9963,1441.42,84.20,35.60,17.64,M,6.00,0.00,29.99,M,10.00,M,CLR,M,M,M,M,M,M,M,M,M,M,M,M,M,M,81.34,KMEV 031845Z AUTO VRB06KT 10SM CLR 29/02 A2999 RMK AO2,M
TMT,2025-07-03 18:50,-117.1971,39.4643,1749.34,82.00,35.60,18.94,130.00,8.00,0.00,30.05,M,10.00,M,CLR,M,M,M,M,M,M,M,M,M,M,M,M,M,M,79.82,KTMT 031850Z AUTO 13008KT 10SM CLR 28/02 A3005 RMK AO2 T02770020,M
P68,2025-07-03 18:53,-116.0056,39.6014,1993.00,81.00,37.00,20.68,340.00,5.00,0.00,30.06,1009.50,M,M,M,M,M,M,M,M,M,M,M,M,M,M,M,M,M,79.24,KP68 031853Z AUTO 34005KT 27/03 A3006 RMK AO1 SLP095 T02720028,M
DRA,2025-07-03 18:53,-116.0278,36.6206,1009.00,87.00,54.00,32.52,230.00,3.00,0.00,29.98,1010.40,10.00,M,CLR,M,M,M,M,M,M,M,M,M,M,M,M,M,M,85.12,KDRA 031853Z AUTO 23003KT 10SM CLR 31/12 A2998 RMK AO2 SLP104 T03060122,M
ELY,2025-07-03 18:53,-114.8453,39.2950,1909.00,77.00,32.00,19.31,270.00,13.00,0.00,30.12,1010.60,M,20.00,CLR,M,M,M,M,M,M,M,M,M,M,M,30.00,260.00,2025-07-03 18:29,77.00,KELY 031853Z AUTO 27013G20KT CLR 25/00 A3012 RMK AO2 PK WND 26030/1829 SLP106 T02500000 $,M
VGT,2025-07-03 18:53,-115.1933,36.2111,667.00,89.00,57.00,34.04,M,4.00,0.00,29.92,1012.20,10.00,M,CLR,M,M,M,M,M,M,M,M,M,M,M,M,M,M,87.66,KVGT 031853Z VRB04KT 10SM CLR 32/14 A2992 RMK AO2 SLP122 T03170139,M
LOL,2025-07-03 18:53,-118.5701,40.0684,1192.43,M,M,M,M,M,0.00,29.92,M,M,M,M,M,M,M,M,M,M,M,M,M,M,M,M,M,M,M,KLOL 031853Z AUTO A2992 RMK AO2 SLPNO PWINO,M
BVU,2025-07-03 18:55,-114.8611,35.9475,671.00,89.60,57.20,33.65,130.00,9.00,0.00,29.92,M,10.00,M,CLR,M,M,M,M,M,M,M,M,M,M,M,M,M,M,88.30,KBVU 031855Z AUTO 13009KT 10SM CLR 32/14 A2992 RMK AO2,M
INS,2025-07-03 18:55,-115.6733,36.5872,955.00,87.40,52.00,29.84,40.00,7.00,0.00,29.96,1009.30,10.00,M,CLR,M,M,M,M,M,M,M,M,M,M,M,M,M,M,85.09,KINS 031855Z AUTO 04007KT 10SM CLR 31/11 A2996 RMK AO2 SLP093 T03080112 $,M
RNO,2025-07-03 18:55,-119.7711,39.4839,1341.00,85.00,35.00,16.79,230.00,6.00,0.00,29.96,1008.10,10.00,M,FEW,FEW,M,M,8000.00,20000.00,M,M,M,M,M,M,M,M,M,81.92,KRNO 031855Z 23006KT 10SM FEW080 FEW200 29/02 A2996 RMK AO2 SLP081 T02940017,M
BAM,2025-07-03 18:55,-116.8743,40.5990,1382.36,89.60,37.40,15.96,230.00,4.00,0.00,29.95,M,10.00,M,CLR,M,M,M,M,M,M,M,M,M,M,M,M,M,M,85.67,KBAM 031855Z AUTO 23004KT 10SM CLR 32/03 A2995 RMK AO1,M
CXP,2025-07-03 18:55,-119.7326,39.1923,1431.00,87.80,28.40,11.77,200.00,8.00,0.00,30.01,M,10.00,14.00,CLR,M,M,M,M,M,M,M,M,M,M,M,M,M,M,83.84,KCXP 031855Z AUTO 20008G14KT 10SM CLR 31/M02 A3001 RMK AO2,M
05U,2025-07-03 18:55,-116.0051,39.6042,1811.23,80.60,37.40,21.28,350.00,8.00,0.00,30.08,M,10.00,M,BKN,M,M,M,9000.00,M,M,M,M,M,M,M,M,M,M,79.02,K05U 031855Z AUTO 35008KT 10SM BKN090 27/03 A3008 RMK A01,M
HTH,2025-07-03 18:55,-118.6315,38.5448,1282.89,89.60,32.00,12.87,130.00,7.00,0.00,29.95,M,10.00,M,CLR,M,M,M,M,M,M,M,M,M,M,M,M,M,M,85.55,KHTH 031855Z AUTO 13007KT 10SM CLR 32/00 A2995 RMK A01,M
10U,2025-07-03 18:55,-116.1876,41.9532,1637.00,84.20,35.60,17.64,230.00,8.00,0.00,30.01,M,10.00,M,CLR,M,M,M,M,M,M,M,M,M,M,M,M,M,M,81.34,K10U 031855Z AUTO 23008KT 210V280 10SM CLR 29/02 A3001 RMK AO2,M
LSV,2025-07-03 18:55,-115.0343,36.2362,570.00,90.30,53.80,29.10,0.00,0.00,0.00,29.87,1008.60,10.00,M,CLR,M,M,M,M,M,M,M,M,M,M,M,M,M,M,88.08,KLSV 031855Z AUTO 00000KT 10SM CLR 32/12 A2987 RMK AO2 SLP086 T03240121 $,M
EKO,2025-07-03 18:56,-115.7860,40.8242,1367.00,84.00,38.00,19.52,M,4.00,0.00,29.99,1009.30,10.00,M,CLR,M,M,M,M,M,M,M,M,M,M,M,M,M,M,81.26,KEKO 031856Z AUTO VRB04KT 10SM CLR 29/03 A2999 RMK AO2 SLP093 T02890033,M
WMC,2025-07-03 18:56,-117.8072,40.9019,1315.00,87.00,38.00,17.74,M,M,0.00,29.93,1007.70,10.00,M,CLR,M,M,M,M,M,M,M,M,M,M,M,M,M,M,83.54,KWMC 031856Z AUTO 10SM CLR 31/03 A2993 RMK AO2 SLP077 T03060033 TSNO $,M
HND,2025-07-03 18:56,-115.1344,35.9729,742.79,92.00,57.00,31.00,180.00,9.00,0.00,29.96,1013.00,10.00,M,CLR,M,M,M,M,M,M,M,M,M,M,M,M,M,M,90.63,KHND 031856Z 18009KT 120V210 10SM CLR 33/14 A2996 RMK AO2 SLP130 T03330139 $,M
TPH,2025-07-03 18:56,-117.0904,38.0505,1654.00,80.00,39.00,23.11,M,6.00,0.00,30.09,1011.60,10.00,15.00,CLR,M,M,M,M,M,M,M,M,M,M,M,M,M,M,78.79,KTPH 031856Z AUTO VRB06G15KT 10SM CLR 27/04 A3009 RMK AO2 SLP116 T02670039,M
LAS,2025-07-03 18:56,-115.1634,36.0719,663.00,90.00,57.00,32.99,110.00,7.00,0.00,29.93,1010.80,10.00,M,FEW,M,M,M,11000.00,M,M,M,M,M,M,M,M,M,M,88.63,KLAS 031856Z 11007KT 10SM FEW110 32/14 A2993 RMK AO2 SLP108 CB DSNT NW T03220139,M
NFL,2025-07-03 18:57,-118.7010,39.4166,1199.00,90.00,38.00,16.14,180.00,7.00,0.00,29.93,1010.80,10.00,17.00,SCT,SCT,SCT,M,8000.00,18000.00,22000.00,M,M,M,M,M,M,M,M,86.03,KNFL 031857Z 18007G17KT 10SM SCT080 SCT180 SCT220 32/03 A2993 RMK AO2 SLP108 T03220033,M
TMT,2025-07-03 19:10,-117.1971,39.4643,1749.34,82.60,34.30,17.64,0.00,0.00,0.00,30.05,M,10.00,M,CLR,M,M,M,M,M,M,M,M,M,M,M,M,M,M,80.18,KTMT 031910Z AUTO 00000KT 10SM CLR 28/01 A3005 RMK AO2 T02810013,M
BVU,2025-07-03 19:15,-114.8611,35.9475,671.00,91.40,55.40,29.80,160.00,7.00,0.00,29.91,M,10.00,14.00,CLR,M,M,M,M,M,M,M,M,M,M,M,M,M,M,89.55,KBVU 031915Z AUTO 16007G14KT 10SM CLR 33/13 A2991 RMK AO2,M
BAM,2025-07-03 19:15,-116.8743,40.5990,1382.36,91.40,37.40,15.09,190.00,6.00,0.00,29.95,M,10.00,M,CLR,M,M,M,M,M,M,M,M,M,M,M,M,M,M,87.23,KBAM 031915Z AUTO 19006KT 10SM CLR 33/03 A2995 RMK AO1,M
CXP,2025-07-03 19:15,-119.7326,39.1923,1431.00,87.80,30.20,12.66,180.00,7.00,0.00,30.00,M,10.00,13.00,CLR,M,M,M,M,M,M,M,M,M,M,M,M,M,M,84.01,KCXP 031915Z AUTO 18007G13KT 10SM CLR 31/M01 A3000 RMK AO2,M
05U,2025-07-03 19:15,-116.0051,39.6042,1811.23,82.40,35.60,18.70,210.00,7.00,0.00,30.08,M,10.00,M,BKN,M,M,M,9000.00,M,M,M,M,M,M,M,M,M,M,80.08,K05U 031915Z AUTO 21007KT 170V230 10SM BKN090 28/02 A3008 RMK A01,M
HTH,2025-07-03 19:15,-118.6315,38.5448,1282.89,89.60,32.00,12.87,170.00,6.00,0.00,29.94,M,10.00,16.00,CLR,M,M,M,M,M,M,M,M,M,M,M,M,M,M,85.55,KHTH 031915Z AUTO 17006G16KT 10SM CLR 32/00 A2994 RMK A01,M
10U,2025-07-03 19:15,-116.1876,41.9532,1637.00,84.20,35.60,17.64,0.00,0.00,0.00,30.00,M,10.00,M,CLR,M,M,M,M,M,M,M,M,M,M,M,M,M,M,81.34,K10U 031915Z AUTO 00000KT 10SM CLR 29/02 A3000 RMK AO2,M
TMT,2025-07-03 19:30,-117.1971,39.4643,1749.34,83.50,36.00,18.33,290.00,5.00,0.00,30.05,M,10.00,M,SCT,M,M,M,11000.00,M,M,M,M,M,M,M,M,M,M,80.85,KTMT 031930Z AUTO 29005KT 10SM SCT110 29/02 A3005 RMK AO2 T02860023,M
BVU,2025-07-03 19:35,-114.8611,35.9475,671.00,91.40,55.40,29.80,160.00,12.00,0.00,29.91,M,10.00,17.00,CLR,M,M,M,M,M,M,M,M,M,M,M,M,M,M,89.55,KBVU 031935Z AUTO 16012G17KT 10SM CLR 33/13 A2991 RMK AO2,M
BAM,2025-07-03 19:35,-116.8743,40.5990,1382.36,91.40,35.60,14.05,220.00,10.00,0.00,29.95,M,10.00,M,CLR,M,M,M,M,M,M,M,M,M,M,M,M,M,M,87.17,KBAM 031935Z AUTO 22010KT 10SM CLR 33/02 A2995 RMK AO1,M
CXP,2025-07-03 19:35,-119.7326,39.1923,1431.00,87.80,30.20,12.66,M,4.00,0.00,30.00,M,10.00,15.00,CLR,M,M,M,M,M,M,M,M,M,M,M,M,M,M,84.01,KCXP 031935Z AUTO VRB04G15KT 10SM CLR 31/M01 A3000 RMK AO2,M
05U,2025-07-03 19:35,-116.0051,39.6042,1811.23,82.40,35.60,18.70,90.00,7.00,0.00,30.07,M,10.00,M,FEW,M,M,M,9000.00,M,M,M,M,M,M,M,M,M,M,80.08,K05U 031935Z AUTO 09007KT 10SM FEW090 28/02 A3007 RMK A01,M
HTH,2025-07-03 19:35,-118.6315,38.5448,1282.89,91.40,30.20,11.31,130.00,11.00,0.00,29.93,M,10.00,16.00,CLR,M,M,M,M,M,M,M,M,M,M,M,M,M,M,86.71,KHTH 031935Z AUTO 13011G16KT 10SM CLR 33/M01 A2993 RMK A01,M
10U,2025-07-03 19:35,-116.1876,41.9532,1637.00,86.00,33.80,15.50,M,4.00,0.00,29.99,M,10.00,13.00,CLR,M,M,M,M,M,M,M,M,M,M,M,M,M,M,82.66,K10U 031935Z AUTO VRB04G13KT 10SM CLR 30/01 A2999 RMK AO2,M
TMT,2025-07-03 19:50,-117.1971,39.4643,1749.34,83.50,35.80,18.19,190.00,6.00,0.00,30.05,M,10.00,15.00,SCT,M,M,M,11000.00,M,M,M,M,M,M,M,M,M,M,80.84,KTMT 031950Z AUTO 19006G15KT 10SM SCT110 29/02 A3005 RMK AO2 T02860021,M
P68,2025-07-03 19:53,-116.0056,39.6014,1993.00,81.00,33.00,17.64,M,6.00,0.00,30.04,1009.30,M,M,M,M,M,M,M,M,M,M,M,M,M,M,M,M,M,79.10,KP68 031953Z AUTO VRB06KT 27/01 A3004 RMK AO1 SLP093 T02720006,M
DRA,2025-07-03 19:53,-116.0278,36.6206,1009.00,92.00,48.00,22.26,230.00,9.00,0.00,29.95,1009.20,10.00,19.00,CLR,M,M,M,M,M,M,M,M,M,M,M,M,M,M,88.64,KDRA 031953Z AUTO 23009G19KT 10SM CLR 33/09 A2995 RMK AO2 SLP092 T03330089,M
ELY,2025-07-03 19:53,-114.8453,39.2950,1909.00,79.00,33.00,18.83,220.00,10.00,0.00,30.11,1010.20,M,21.00,CLR,M,M,M,M,M,M,M,M,M,M,M,M,M,M,79.00,KELY 031953Z AUTO 22010G21KT CLR 26/01 A3011 RMK AO2 SLP102 T02610006 $,M
VGT,2025-07-03 19:53,-115.1933,36.2111,667.00,92.00,56.00,29.90,M,6.00,0.00,29.90,1011.40,10.00,M,CLR,M,M,M,M,M,M,M,M,M,M,M,M,M,M,90.32,KVGT 031953Z VRB06KT 10SM CLR 33/13 A2990 RMK AO2 SLP114 T03330133,M
LOL,2025-07-03 19:53,-118.5701,40.0684,1192.43,M,M,M,M,M,0.00,29.90,M,M,M,M,M,M,M,M,M,M,M,M,M,M,M,M,M,M,M,KLOL 031953Z AUTO A2990 RMK AO2 SLPNO PWINO $,M
BVU,2025-07-03 19:55,-114.8611,35.9475,671.00,93.20,53.60,26.40,140.00,14.00,0.00,29.90,M,10.00,M,CLR,M,M,M,M,M,M,M,M,M,M,M,M,M,M,90.89,KBVU 031955Z AUTO 14014KT 10SM CLR 34/12 A2990 RMK AO2,M
RNO,2025-07-03 19:55,-119.7711,39.4839,1341.00,88.00,31.00,13.00,270.00,7.00,0.00,29.94,1007.40,10.00,M,FEW,SCT,M,M,9000.00,23000.00,M,M,M,M,M,M,M,M,M,84.24,KRNO 031955Z 27007KT 10SM FEW090 SCT230 31/M01 A2994 RMK AO2 SLP074 T03111006,M
BAM,2025-07-03 19:55,-116.8743,40.5990,1382.36,91.40,35.60,14.05,150.00,17.00,0.00,29.93,M,10.00,21.00,CLR,M,M,M,M,M,M,M,M,M,M,M,M,M,M,87.17,KBAM 031955Z AUTO 15017G21KT 10SM CLR 33/02 A2993 RMK AO1,M
CXP,2025-07-03 19:55,-119.7326,39.1923,1431.00,87.80,28.40,11.77,270.00,10.00,0.00,29.99,M,10.00,18.00,CLR,M,M,M,M,M,M,M,M,M,M,M,M,M,M,83.84,KCXP 031955Z AUTO 27010G18KT 240V310 10SM CLR 31/M02 A2999 RMK AO2,M
05U,2025-07-03 19:55,-116.0051,39.6042,1811.23,82.40,33.80,17.40,200.00,10.00,0.00,30.07,M,10.00,M,SCT,M,M,M,10000.00,M,M,M,M,M,M,M,M,M,M,80.04,K05U 031955Z AUTO 20010KT 10SM SCT100 28/01 A3007 RMK A01,M
HTH,2025-07-03 19:55,-118.6315,38.5448,1282.89,91.40,32.00,12.17,90.00,9.00,0.00,29.92,M,10.00,15.00,CLR,M,M,M,M,M,M,M,M,M,M,M,M,M,M,86.92,KHTH 031955Z AUTO 09009G15KT 10SM CLR 33/M00 A2992 RMK A01,M
10U,2025-07-03 19:55,-116.1876,41.9532,1637.00,84.20,30.20,14.20,150.00,7.00,0.00,29.98,M,10.00,M,CLR,M,M,M,M,M,M,M,M,M,M,M,M,M,M,81.26,K10U 031955Z AUTO 15007KT 10SM CLR 29/M01 A2998 RMK AO2,M
INS,2025-07-03 19:55,-115.6733,36.5872,955.00,90.00,52.50,28.00,70.00,10.00,0.00,29.94,1008.60,10.00,M,CLR,M,M,M,M,M,M,M,M,M,M,M,M,M,M,87.52,KINS 031955Z AUTO 07010KT 10SM CLR 32/11 A2994 RMK AO2 LTG DSNT E SLP086 T03230114 $,M
LSV,2025-07-03 19:55,-115.0343,36.2362,570.00,93.40,54.30,26.91,160.00,6.00,0.00,29.85,1007.90,10.00,M,CLR,M,M,M,M,M,M,M,M,M,M,M,M,M,M,91.27,KLSV 031955Z AUTO 16006KT 10SM CLR 34/12 A2985 RMK AO2 LTG DSNT NW SLP079 T03410124 $,M
EKO,2025-07-03 19:56,-115.7860,40.8242,1367.00,88.00,35.00,15.27,240.00,6.00,0.00,29.96,1008.30,10.00,M,CLR,M,M,M,M,M,M,M,M,M,M,M,M,M,M,84.28,KEKO 031956Z AUTO 24006KT 10SM CLR 31/02 A2996 RMK AO2 SLP083 T03110017,M
WMC,2025-07-03 19:56,-117.8072,40.9019,1315.00,92.00,37.00,14.58,230.00,11.00,0.00,29.91,1006.70,10.00,17.00,FEW,M,M,M,11000.00,M,M,M,M,M,M,M,M,M,M,87.74,KWMC 031956Z AUTO 23011G17KT 190V260 10SM FEW110 33/03 A2991 RMK AO2 SLP067 T03330028 TSNO,M
HND,2025-07-03 19:56,-115.1344,35.9729,742.79,93.00,56.00,28.99,130.00,7.00,0.00,29.93,1012.00,10.00,M,CLR,M,M,M,M,M,M,M,M,M,M,M,M,M,M,91.35,KHND 031956Z 13007KT 10SM CLR 34/13 A2993 RMK AO2 SLP120 T03390133 $,M
TPH,2025-07-03 19:56,-117.0904,38.0505,1654.00,81.00,37.00,20.68,160.00,10.00,0.00,30.07,1011.20,10.00,19.00,BKN,M,M,M,9000.00,M,M,M,M,M,M,M,M,M,M,79.24,KTPH 031956Z AUTO 16010G19KT 10SM BKN090 27/03 A3007 RMK AO2 SLP112 T02720028,M
LAS,2025-07-03 19:56,-115.1634,36.0719,663.00,93.00,52.00,25.04,M,4.00,0.00,29.90,1009.70,10.00,15.00,FEW,SCT,M,M,11000.00,25000.00,M,M,M,M,M,M,M,M,M,90.31,KLAS 031956Z VRB04G15KT 10SM FEW110 SCT250 34/11 A2990 RMK AO2 SLP097 CB DSNT N T03390111,M
NFL,2025-07-03 19:57,-118.7010,39.4166,1199.00,92.00,37.00,14.58,160.00,7.00,0.00,29.90,1009.90,10.00,M,SCT,SCT,SCT,M,8000.00,18000.00,22000.00,M,M,M,M,M,M,M,M,87.74,KNFL 031957Z 16007KT 10SM SCT080 SCT180 SCT220 33/03 A2990 RMK AO2 SLP099 CB DSNT N-NE T03330028,M
TMT,2025-07-03 20:10,-117.1971,39.4643,1749.34,82.40,35.00,18.26,230.00,11.00,0.00,30.04,M,10.00,14.00,SCT,M,M,M,11000.00,M,M,M,M,M,M,M,M,M,M,80.07,KTMT 032010Z AUTO 23011G14KT 10SM SCT110 28/02 A3004 RMK AO2 T02800017,M
LAS,2025-07-03 20:11,-115.1634,36.0719,663.00,96.00,55.00,25.49,80.00,15.00,0.00,29.89,M,10.00,20.00,FEW,SCT,M,M,11000.00,25000.00,M,M,M,M,M,M,M,M,M,94.19,KLAS 032011Z 08015G20KT 10SM FEW110 SCT250 36/13 A2989 RMK AO2 CB DSNT N T03560128,M
BVU,2025-07-03 20:15,-114.8611,35.9475,671.00,93.20,50.00,23.11,150.00,8.00,0.00,29.89,M,10.00,17.00,CLR,M,M,M,M,M,M,M,M,M,M,M,M,M,M,90.11,KBVU 032015Z AUTO 15008G17KT 120V180 10SM CLR 34/10 A2989 RMK AO2,M
INS,2025-07-03 20:15,-115.6733,36.5872,955.00,91.40,48.20,22.85,110.00,11.00,0.00,29.93,1008.30,10.00,18.00,FEW,FEW,M,M,8000.00,11000.00,M,M,M,M,M,M,M,M,M,88.10,KINS 032015Z AUTO 11011G18KT 10SM FEW080 FEW110 33/09 A2993 RMK AO2 WSHFT 13 LTG DSNT E-SE SLP083 $,M
BAM,2025-07-03 20:15,-116.8743,40.5990,1382.36,91.40,35.60,14.05,130.00,7.00,0.00,29.93,M,10.00,15.00,CLR,M,M,M,M,M,M,M,M,M,M,M,M,M,M,87.17,KBAM 032015Z AUTO 13007G15KT 070V160 10SM CLR 33/02 A2993 RMK AO1,M
CXP,2025-07-03 20:15,-119.7326,39.1923,1431.00,86.00,28.40,12.46,260.00,9.00,0.00,29.99,M,10.00,20.00,CLR,M,M,M,M,M,M,M,M,M,M,M,M,M,M,82.54,KCXP 032015Z AUTO 26009G20KT 10SM CLR 30/M02 A2999 RMK AO2,M
RTS,2025-07-03 20:15,-119.8764,39.6682,1539.00,86.00,23.00,9.95,260.00,17.00,0.00,29.99,M,10.00,23.00,CLR,M,M,M,M,M,M,M,M,M,M,M,M,M,M,82.14,KRTS 032015Z AUTO 26017G23KT 10SM CLR 30/M05 A2999 RMK AO2,M
05U,2025-07-03 20:15,-116.0051,39.6042,1811.23,80.60,35.60,19.82,M,6.00,0.00,30.07,M,10.00,M,FEW,FEW,M,M,10000.00,12000.00,M,M,M,M,M,M,M,M,M,78.95,K05U 032015Z AUTO VRB06KT 10SM FEW100 FEW120 27/02 A3007 RMK A01,M
MEV,2025-07-03 20:15,-119.7500,38.9963,1441.42,86.00,32.00,14.42,200.00,7.00,0.00,29.97,M,9.00,M,CLR,M,M,M,M,M,M,M,M,M,M,M,M,M,M,82.64,KMEV 032015Z AUTO 20007KT 160V240 9SM CLR 30/M00 A2997 RMK AO2,M
HTH,2025-07-03 20:15,-118.6315,38.5448,1282.89,91.40,30.20,11.31,130.00,8.00,0.00,29.91,M,10.00,14.00,CLR,M,M,M,M,M,M,M,M,M,M,M,M,M,M,86.71,KHTH 032015Z AUTO 13008G14KT 10SM CLR 33/M01 A2991 RMK A01,M
10U,2025-07-03 20:15,-116.1876,41.9532,1637.00,87.80,33.80,14.64,210.00,9.00,0.00,29.97,M,10.00,M,CLR,M,M,M,M,M,M,M,M,M,M,M,M,M,M,84.10,K10U 032015Z AUTO 21009KT 170V240 10SM CLR 31/01 A2997 RMK AO2,M
LSV,2025-07-03 20:18,-115.0343,36.2362,570.00,95.00,51.80,23.38,M,5.00,0.00,29.83,1007.20,10.00,M,BKN,M,M,M,13000.00,M,M,M,M,M,M,M,M,M,M,92.29,KLSV 032018Z VRB05KT 10SM BKN130 35/11 A2983 RMK LTG DSNT W SLP072 $,M
LAS,2025-07-03 20:27,-115.1634,36.0719,663.00,95.00,56.00,27.25,90.00,8.00,0.00,29.89,M,10.00,M,FEW,SCT,SCT,M,8500.00,11000.00,25000.00,M,M,M,M,M,M,M,M,93.44,KLAS 032027Z 09008KT 10SM FEW085 SCT110 SCT250 35/13 A2989 RMK AO2 CB DSNT N AND W-NW T03500133,M
TMT,2025-07-03 20:30,-117.1971,39.4643,1749.34,86.00,35.40,16.53,220.00,5.00,0.00,30.03,M,10.00,M,CLR,M,M,M,M,M,M,M,M,M,M,M,M,M,M,82.69,KTMT 032030Z AUTO 22005KT 10SM CLR 30/02 A3003 RMK AO2 T02990019,M
BVU,2025-07-03 20:35,-114.8611,35.9475,671.00,93.20,50.00,23.11,140.00,11.00,0.00,29.88,M,10.00,19.00,CLR,M,M,M,M,M,M,M,M,M,M,M,M,M,M,90.11,KBVU 032035Z AUTO 14011G19KT 10SM CLR 34/10 A2988 RMK AO2,M
BAM,2025-07-03 20:35,-116.8743,40.5990,1382.36,95.00,35.60,12.58,140.00,16.00,0.00,29.93,M,10.00,21.00,CLR,M,M,M,M,M,M,M,M,M,M,M,M,M,M,90.27,KBAM 032035Z AUTO 14016G21KT 10SM CLR 35/02 A2993 RMK AO1,M
CXP,2025-07-03 20:35,-119.7326,39.1923,1431.00,86.00,30.20,13.41,250.00,10.00,0.00,29.99,M,10.00,18.00,CLR,M,M,M,M,M,M,M,M,M,M,M,M,M,M,82.64,KCXP 032035Z AUTO 25010G18KT 10SM CLR 30/M01 A2999 RMK AO2,M
RTS,2025-07-03 20:35,-119.8764,39.6682,1539.00,86.00,24.80,10.73,270.00,17.00,0.00,29.99,M,10.00,23.00,CLR,M,M,M,M,M,M,M,M,M,M,M,M,M,M,82.26,KRTS 032035Z AUTO 27017G23KT 10SM CLR 30/M04 A2999 RMK AO2,M
05U,2025-07-03 20:35,-116.0051,39.6042,1811.23,84.20,33.80,16.42,M,5.00,0.00,30.06,M,10.00,M,CLR,M,M,M,M,M,M,M,M,M,M,M,M,M,M,81.30,K05U 032035Z AUTO VRB05KT 10SM CLR 29/01 A3006 RMK A01,M
MEV,2025-07-03 20:35,-119.7500,38.9963,1441.42,87.80,28.40,11.77,260.00,12.00,0.00,29.97,M,6.00,20.00,CLR,M,M,M,M,M,M,M,UP HZ,M,M,M,M,M,M,83.84,KMEV 032035Z AUTO 26012G20KT 6SM UP HZ CLR 31/M02 A2997 RMK AO2,M
HTH,2025-07-03 20:35,-118.6315,38.5448,1282.89,89.60,30.20,11.97,110.00,5.00,0.00,29.90,M,10.00,M,CLR,M,M,M,M,M,M,M,M,M,M,M,M,M,M,85.35,KHTH 032035Z AUTO 11005KT 10SM CLR 32/M01 A2990 RMK A01,M
10U,2025-07-03 20:35,-116.1876,41.9532,1637.00,84.20,33.80,16.42,M,4.00,0.00,29.97,M,10.00,12.00,BKN,M,M,M,11000.00,M,M,M,M,M,M,M,M,M,M,81.30,K10U 032035Z AUTO VRB04G12KT 10SM BKN110 29/01 A2997 RMK AO2,M
INS,2025-07-03 20:39,-115.6733,36.5872,955.00,91.40,44.60,19.94,110.00,13.00,0.00,29.92,1007.90,10.00,19.00,CLR,M,M,M,M,M,M,M,M,M,M,M,M,M,M,87.68,KINS 032039Z AUTO 11013G19KT 10SM CLR 33/07 A2992 RMK AO2 WSHFT 37 LTG DSNT NE AND SE SLP079 $,M
TMT,2025-07-03 20:50,-117.1971,39.4643,1749.34,87.00,37.20,17.19,210.00,9.00,0.00,30.03,M,10.00,18.00,CLR,M,M,M,M,M,M,M,M,M,M,M,M,M,M,83.51,KTMT 032050Z AUTO 21009G18KT 10SM CLR 31/03 A3003 RMK AO2 T03050029,M
P68,2025-07-03 20:53,-116.0056,39.6014,1993.00,83.00,35.00,17.91,250.00,17.00,0.00,30.03,1008.80,M,23.00,M,M,M,M,M,M,M,M,M,M,M,M,M,M,M,80.47,KP68 032053Z AUTO 25017G23KT 28/02 A3003 RMK AO1 SLP088 T02830017 57012,M
DRA,2025-07-03 20:53,-116.0278,36.6206,1009.00,93.00,47.00,20.79,220.00,15.00,0.00,29.93,1008.40,10.00,24.00,CLR,M,M,M,M,M,M,M,M,M,M,M,M,M,M,89.45,KDRA 032053Z AUTO 22015G24KT 10SM CLR 34/08 A2993 RMK AO2 SLP084 T03390083 58018,M
ELY,2025-07-03 20:53,-114.8453,39.2950,1909.00,79.00,28.00,15.36,200.00,7.00,0.00,30.09,1009.70,M,M,CLR,M,M,M,M,M,M,M,M,M,M,M,M,M,M,79.00,KELY 032053Z AUTO 20007KT CLR 26/M02 A3009 RMK AO2 SLP097 T02611022 58010 $,M
VGT,2025-07-03 20:53,-115.1933,36.2111,667.00,94.00,56.00,28.11,M,5.00,0.00,29.88,1010.50,10.00,M,CLR,M,M,M,M,M,M,M,M,M,M,M,M,M,M,92.39,KVGT 032053Z VRB05KT 10SM CLR 34/13 A2988 RMK AO2 SLP105 T03440133 58020,M
LOL,2025-07-03 20:53,-118.5701,40.0684,1192.43,M,M,M,M,M,0.00,29.87,M,M,M,M,M,M,M,M,M,M,M,M,M,M,M,M,M,M,M,KLOL 032053Z AUTO A2987 RMK AO2 SLPNO 58021 PWINO $,M
BVU,2025-07-03 20:55,-114.8611,35.9475,671.00,95.00,46.40,19.11,140.00,7.00,0.00,29.88,M,10.00,18.00,CLR,M,M,M,M,M,M,M,M,M,M,M,M,M,M,91.30,KBVU 032055Z AUTO 14007G18KT 110V170 10SM CLR 35/08 A2988 RMK AO2,M
INS,2025-07-03 20:55,-115.6733,36.5872,955.00,90.00,41.00,18.14,160.00,4.00,0.00,29.92,1007.90,10.00,M,FEW,M,M,M,14000.00,M,M,M,M,M,M,M,M,M,M,86.17,KINS 032055Z AUTO 16004KT 10SM FEW140 32/05 A2992 RMK AO2 SLP079 T03230049 57016 $,M
RNO,2025-07-03 20:55,-119.7711,39.4839,1341.00,88.00,32.00,13.54,180.00,13.00,0.00,29.93,1007.10,10.00,21.00,FEW,BKN,M,M,9000.00,23000.00,M,M,M,M,M,M,M,M,M,84.24,KRNO 032055Z 18013G21KT 10SM FEW090 BKN230 31/00 A2993 RMK AO2 SLP071 CCSL SW THRU NW T03110000 56015,M
BAM,2025-07-03 20:55,-116.8743,40.5990,1382.36,91.40,35.60,14.05,90.00,8.00,0.00,29.92,M,10.00,20.00,CLR,M,M,M,M,M,M,M,M,M,M,M,M,M,M,87.17,KBAM 032055Z AUTO 09008G20KT 10SM CLR 33/02 A2992 RMK AO1,M
CXP,2025-07-03 20:55,-119.7326,39.1923,1431.00,86.00,28.40,12.46,250.00,10.00,0.00,29.98,M,10.00,18.00,CLR,M,M,M,M,M,M,M,M,M,M,M,M,M,M,82.54,KCXP 032055Z AUTO 25010G18KT 10SM CLR 30/M02 A2998 RMK AO2,M
RTS,2025-07-03 20:55,-119.8764,39.6682,1539.00,86.00,26.60,11.57,230.00,18.00,0.00,29.99,M,10.00,26.00,CLR,M,M,M,M,M,M,M,M,M,M,M,M,M,M,82.40,KRTS 032055Z AUTO 23018G26KT 10SM CLR 30/M03 A2999 RMK AO2,M
05U,2025-07-03 20:55,-116.0051,39.6042,1811.23,82.40,35.60,18.70,260.00,18.00,0.00,30.06,M,10.00,M,CLR,M,M,M,M,M,M,M,M,M,M,M,M,M,M,80.08,K05U 032055Z AUTO 26018KT 10SM CLR 28/02 A3006 RMK A01,M
MEV,2025-07-03 20:55,-119.7500,38.9963,1441.42,87.80,28.40,11.77,230.00,9.00,0.00,29.97,M,10.00,18.00,CLR,M,M,M,M,M,M,M,M,M,M,M,M,M,M,83.84,KMEV 032055Z AUTO 23009G18KT 10SM CLR 31/M02 A2997 RMK AO2,M
HTH,2025-07-03 20:55,-118.6315,38.5448,1282.89,91.40,28.40,10.51,0.00,0.00,0.00,29.89,M,10.00,16.00,CLR,M,M,M,M,M,M,M,M,M,M,M,M,M,M,86.53,KHTH 032055Z AUTO 00000G16KT 10SM CLR 33/M02 A2989 RMK A01,M
10U,2025-07-03 20:55,-116.1876,41.9532,1637.00,82.40,37.40,20.08,280.00,8.00,0.00,29.97,M,10.00,M,OVC,M,M,M,11000.00,M,M,M,M,M,M,M,M,M,M,80.14,K10U 032055Z AUTO 28008KT 10SM OVC110 28/03 A2997 RMK AO2,M
LSV,2025-07-03 20:55,-115.0343,36.2362,570.00,95.70,52.00,23.05,160.00,4.00,0.00,29.82,1006.80,10.00,M,FEW,SCT,M,M,13000.00,19000.00,M,M,M,M,M,M,M,M,M,93.05,KLSV 032055Z AUTO 16004KT 10SM FEW130 SCT190 35/11 A2982 RMK AO2 SLP068 T03540111 57022 $,M
EKO,2025-07-03 20:56,-115.7860,40.8242,1367.00,86.00,36.00,16.92,190.00,12.00,0.00,29.95,1007.90,10.00,17.00,CLR,M,M,M,M,M,M,M,M,M,M,M,M,M,M,82.70,KEKO 032056Z AUTO 19012G17KT 10SM CLR 30/02 A2995 RMK AO2 SLP079 T03000022 58016,M
WMC,2025-07-03 20:56,-117.8072,40.9019,1315.00,90.00,37.00,15.52,250.00,17.00,0.00,29.88,1006.50,10.00,22.00,SCT,M,M,M,11000.00,M,M,M,M,M,M,M,M,M,M,86.00,KWMC 032056Z AUTO 25017G22KT 10SM SCT110 32/03 A2988 RMK AO2 SLP065 T03220028 58019 TSNO,M
HND,2025-07-03 20:56,-115.1344,35.9729,742.79,94.00,54.00,26.13,120.00,8.00,0.00,29.90,1011.20,10.00,20.00,SCT,M,M,M,11000.00,M,M,M,M,M,M,M,M,M,M,91.81,KHND 032056Z 12008G20KT 10SM SCT110 34/12 A2990 RMK AO2 SLP112 T03440122 58022 $,M
TPH,2025-07-03 20:56,-117.0904,38.0505,1654.00,83.00,32.00,15.88,230.00,10.00,0.00,30.05,1010.40,10.00,19.00,SCT,M,M,M,10000.00,M,M,M,M,M,M,M,29.00,170.00,2025-07-03 20:28,80.41,KTPH 032056Z AUTO 23010G19KT 10SM SCT100 28/00 A3005 RMK AO2 PK WND 17029/2028 SLP104 T02830000 58015,M
LAS,2025-07-03 20:56,-115.1634,36.0719,663.00,93.00,55.00,27.95,70.00,6.00,0.00,29.88,1009.10,10.00,15.00,FEW,SCT,BKN,M,8500.00,11000.00,25000.00,M,M,M,M,M,M,M,M,91.05,KLAS 032056Z 07006G15KT 10SM FEW085 SCT110 BKN250 34/13 A2988 RMK AO2 SLP091 VIRGA DSNT W CB DSNT N AND W-NW TCU DSNT S T03390128 57020,M
NFL,2025-07-03 20:57,-118.7010,39.4166,1199.00,94.00,37.00,13.71,250.00,12.00,0.00,29.88,1009.20,10.00,19.00,SCT,BKN,BKN,M,8000.00,18000.00,22000.00,M,M,M,M,M,M,M,M,89.53,KNFL 032057Z 25012G19KT 10SM SCT080 BKN180 BKN220 34/03 A2988 RMK AO2 SLP092 CB DSNT N-NE T03440028 58021,M
P68,2025-07-03 21:08,-116.0056,39.6014,1993.00,82.00,34.00,17.77,260.00,16.00,0.00,30.03,M,M,23.00,M,M,M,M,M,M,M,M,M,M,M,M,M,M,M,79.77,KP68 032108Z AUTO 26016G23KT 28/01 A3003 RMK AO1 WSHFT 2051 T02780011,M
TMT,2025-07-03 21:10,-117.1971,39.4643,1749.34,86.00,36.00,16.92,200.00,10.00,0.00,30.02,M,10.00,14.00,CLR,M,M,M,M,M,M,M,M,M,M,M,M,M,M,82.70,KTMT 032110Z AUTO 20010G14KT 180V240 10SM CLR 30/02 A3002 RMK AO2 T03000023,M
BVU,2025-07-03 21:15,-114.8611,35.9475,671.00,93.20,46.40,20.19,140.00,11.00,0.00,29.87,M,10.00,19.00,CLR,M,M,M,M,M,M,M,M,M,M,M,M,M,M,89.56,KBVU 032115Z AUTO 14011G19KT 110V180 10SM CLR 34/08 A2987 RMK AO2,M
CXP,2025-07-03 21:15,-119.7326,39.1923,1431.00,87.80,26.60,10.93,240.00,11.00,0.00,29.98,M,10.00,20.00,CLR,M,M,M,M,M,M,M,M,M,M,M,M,M,M,83.69,KCXP 032115Z AUTO 24011G20KT 10SM CLR 31/M03 A2998 RMK AO2,M
RTS,2025-07-03 21:15,-119.8764,39.6682,1539.00,86.00,30.20,13.41,210.00,12.00,0.00,29.99,M,10.00,25.00,CLR,M,M,M,M,M,M,M,M,M,M,M,M,M,M,82.64,KRTS 032115Z AUTO 21012G25KT 10SM CLR 30/M01 A2999 RMK AO2,M
05U,2025-07-03 21:15,-116.0051,39.6042,1811.23,82.40,32.00,16.19,250.00,11.00,0.00,30.06,M,10.00,20.00,CLR,M,M,M,M,M,M,M,M,M,M,M,M,M,M,80.00,K05U 032115Z AUTO 25011G20KT 10SM CLR 28/M00 A3006 RMK A01,M
MEV,2025-07-03 21:15,-119.7500,38.9963,1441.42,87.80,32.00,13.62,280.00,15.00,0.00,29.96,M,10.00,M,CLR,M,M,M,M,M,M,M,M,M,M,M,M,M,M,84.08,KMEV 032115Z AUTO 28015KT 10SM CLR 31/M00 A2996 RMK AO2,M
BAM,2025-07-03 21:15,-116.8743,40.5990,1382.36,93.20,35.60,13.29,120.00,6.00,0.00,29.91,M,10.00,M,CLR,M,M,M,M,M,M,M,M,M,M,M,M,M,M,88.76,KBAM 032115Z AUTO 12006KT 10SM CLR 34/02 A2991 RMK AO1,M
HTH,2025-07-03 21:15,-118.6315,38.5448,1282.89,95.00,26.60,8.73,70.00,5.00,0.00,29.89,M,10.00,12.00,CLR,M,M,M,M,M,M,M,M,M,M,M,M,M,M,89.09,KHTH 032115Z AUTO 07005G12KT 10SM CLR 35/M03 A2989 RMK A01,M
10U,2025-07-03 21:15,-116.1876,41.9532,1637.00,82.40,37.40,20.08,160.00,11.00,0.00,29.97,M,10.00,M,SCT,M,M,M,11000.00,M,M,M,M,M,M,M,M,M,M,80.14,K10U 032115Z AUTO 16011KT 10SM SCT110 28/03 A2997 RMK AO2,M
TMT,2025-07-03 21:30,-117.1971,39.4643,1749.34,86.50,36.50,16.99,240.00,9.00,0.00,30.02,M,10.00,19.00,CLR,M,M,M,M,M,M,M,M,M,M,M,M,M,M,83.10,KTMT 032130Z AUTO 24009G19KT 10SM CLR 30/03 A3002 RMK AO2 T03030025,M
BVU,2025-07-03 21:35,-114.8611,35.9475,671.00,95.00,42.80,16.66,130.00,13.00,0.00,29.86,M,10.00,M,CLR,M,M,M,M,M,M,M,M,M,M,M,M,M,M,90.87,KBVU 032135Z AUTO 13013KT 10SM CLR 35/06 A2986 RMK AO2,M
BAM,2025-07-03 21:35,-116.8743,40.5990,1382.36,91.40,35.60,14.05,180.00,4.00,0.00,29.90,M,10.00,M,CLR,M,M,M,M,M,M,M,M,M,M,M,M,M,M,87.17,KBAM 032135Z AUTO 18004KT 10SM CLR 33/02 A2990 RMK AO1,M
CXP,2025-07-03 21:35,-119.7326,39.1923,1431.00,87.80,30.20,12.66,240.00,13.00,0.00,29.98,M,10.00,19.00,CLR,M,M,M,M,M,M,M,M,M,M,M,M,M,M,84.01,KCXP 032135Z AUTO 24013G19KT 220V280 10SM CLR 31/M01 A2998 RMK AO2,M
RTS,2025-07-03 21:35,-119.8764,39.6682,1539.00,86.00,23.00,9.95,240.00,18.00,0.00,29.99,M,10.00,M,CLR,M,M,M,M,M,M,M,M,M,M,M,M,M,M,82.14,KRTS 032135Z AUTO 24018KT 10SM CLR 30/M05 A2999 RMK AO2,M
05U,2025-07-03 21:35,-116.0051,39.6042,1811.23,80.60,32.00,17.16,240.00,10.00,0.00,30.05,M,10.00,16.00,CLR,M,M,M,M,M,M,M,M,M,M,M,M,M,M,78.82,K05U 032135Z AUTO 24010G16KT 10SM CLR 27/00 A3005 RMK A01,M
MEV,2025-07-03 21:35,-119.7500,38.9963,1441.42,89.60,30.20,11.97,260.00,15.00,0.00,29.96,M,10.00,25.00,CLR,M,M,M,M,M,M,M,M,M,M,M,M,M,M,85.35,KMEV 032135Z AUTO 26015G25KT 10SM CLR 32/M01 A2996 RMK AO2,M
HTH,2025-07-03 21:35,-118.6315,38.5448,1282.89,93.20,26.60,9.23,80.00,8.00,0.00,29.88,M,10.00,M,CLR,M,M,M,M,M,M,M,M,M,M,M,M,M,M,87.72,KHTH 032135Z AUTO 08008KT 10SM CLR 34/M03 A2988 RMK A01,M
10U,2025-07-03 21:35,-116.1876,41.9532,1637.00,80.60,41.00,24.49,270.00,6.00,0.00,29.98,M,10.00,16.00,FEW,FEW,SCT,M,5500.00,8000.00,10000.00,M,-RA,M,M,M,M,M,M,79.20,K10U 032135Z AUTO 27006G16KT 10SM -RA FEW055 FEW080 SCT100 27/05 A2998 RMK AO2 LTG DSNT SW-NW,M
LAS,2025-07-03 21:43,-115.1634,36.0719,663.00,91.00,57.00,31.98,80.00,9.00,0.02,29.86,M,10.00,17.00,FEW,SCT,BKN,M,8500.00,11000.00,25000.00,M,TS,M,M,M,M,M,M,89.62,KLAS 032143Z 08009G17KT 10SM TS FEW085 SCT110CB BKN250 33/14 A2986 RMK AO2 RAB18E36 TSB42 OCNL LTGICCG SE-SW-NW TS SE-SW-NW MOV NE VCSH SE-SW CB DSNT N P0002 T03280139,M
RNO,2025-07-03 21:47,-119.7711,39.4839,1341.00,89.00,33.00,13.66,220.00,12.00,0.00,29.92,M,10.00,M,FEW,BKN,M,M,11000.00,23000.00,M,M,M,M,M,M,31.00,290.00,2025-07-03 21:33,85.08,KRNO 032147Z 22012KT 10SM FEW110 BKN230 32/01 A2992 RMK AO2 PK WND 29031/2133 WSHFT 2132 CCSL SW THRU NW T03170006,M
TMT,2025-07-03 21:50,-117.1971,39.4643,1749.34,86.00,37.00,17.61,210.00,10.00,0.00,30.01,M,10.00,16.00,CLR,M,M,M,M,M,M,M,M,M,M,M,M,M,M,82.72,KTMT 032150Z AUTO 21010G16KT 10SM CLR 30/03 A3001 RMK AO2 T03000027,M
P68,2025-07-03 21:53,-116.0056,39.6014,1993.00,80.00,38.00,22.22,190.00,24.00,0.00,30.02,1008.80,M,33.00,M,M,M,M,M,M,M,M,M,M,M,M,33.00,200.00,2025-07-03 21:51,78.74,KP68 032153Z AUTO 19024G33KT 27/03 A3002 RMK AO1 PK WND 20033/2151 WSHFT 2051 SLP088 T02670033,M
DRA,2025-07-03 21:53,-116.0278,36.6206,1009.00,94.00,45.00,18.68,220.00,10.00,0.00,29.91,1007.70,10.00,19.00,CLR,M,M,M,M,M,M,M,M,M,M,M,M,M,M,90.16,KDRA 032153Z AUTO 22010G19KT 10SM CLR 34/07 A2991 RMK AO2 SLP077 T03440072,M
ELY,2025-07-03 21:53,-114.8453,39.2950,1909.00,81.00,31.00,16.27,M,5.00,0.00,30.07,1008.70,M,18.00,BKN,M,M,M,10000.00,M,M,M,M,M,M,M,M,M,M,79.05,KELY 032153Z AUTO VRB05G18KT BKN100 27/M01 A3007 RMK AO2 SLP087 T02721006 $,M
VGT,2025-07-03 21:53,-115.1933,36.2111,667.00,94.00,54.00,26.13,360.00,5.00,0.00,29.85,1009.50,10.00,M,FEW,M,M,M,11000.00,M,M,M,M,M,M,M,M,M,M,91.81,KVGT 032153Z 36005KT 10SM FEW110 34/12 A2985 RMK AO2 SLP095 T03440122 $,M
LOL,2025-07-03 21:53,-118.5701,40.0684,1192.43,M,M,M,M,M,0.00,29.85,M,M,M,M,M,M,M,M,M,M,M,M,M,M,M,M,M,M,M,KLOL 032153Z AUTO A2985 RMK AO2 LTG DSNT N SLPNO PWINO $,M
BVU,2025-07-03 21:55,-114.8611,35.9475,671.00,95.00,42.80,16.66,140.00,9.00,0.00,29.85,M,10.00,18.00,CLR,M,M,M,M,M,M,M,M,M,M,M,M,M,M,90.87,KBVU 032155Z AUTO 14009G18KT 10SM CLR 35/06 A2985 RMK AO2,M
INS,2025-07-03 21:55,-115.6733,36.5872,955.00,92.50,42.80,17.99,60.00,8.00,0.00,29.90,1007.00,10.00,M,CLR,M,M,M,M,M,M,M,M,M,M,M,M,M,M,88.53,KINS 032155Z AUTO 06008KT 10SM CLR 34/06 A2990 RMK AO2 SLP070 T03360060 $,M
RNO,2025-07-03 21:55,-119.7711,39.4839,1341.00,89.00,33.00,13.66,230.00,14.00,0.00,29.92,1006.90,10.00,23.00,FEW,BKN,M,M,11000.00,23000.00,M,M,M,M,M,M,31.00,290.00,2025-07-03 21:33,85.08,KRNO 032155Z 23014G23KT 10SM FEW110 BKN230 32/01 A2992 RMK AO2 PK WND 29031/2133 WSHFT 2132 SLP069 CCSL SW THRU NW T03170006,M
BAM,2025-07-03 21:55,-116.8743,40.5990,1382.36,89.60,35.60,14.87,190.00,5.00,0.00,29.90,M,10.00,M,CLR,M,M,M,M,M,M,M,M,M,M,M,M,M,M,85.62,KBAM 032155Z AUTO 19005KT 10SM CLR 32/02 A2990 RMK AO1,M
CXP,2025-07-03 21:55,-119.7326,39.1923,1431.00,86.00,30.20,13.41,240.00,10.00,0.00,29.98,M,10.00,17.00,CLR,M,M,M,M,M,M,M,M,M,M,M,M,M,M,82.64,KCXP 032155Z AUTO 24010G17KT 10SM CLR 30/M01 A2998 RMK AO2,M
RTS,2025-07-03 21:55,-119.8764,39.6682,1539.00,84.20,24.80,11.37,230.00,12.00,0.00,30.00,M,10.00,17.00,CLR,M,M,M,M,M,M,M,M,M,M,M,M,M,M,81.00,KRTS 032155Z AUTO 23012G17KT 10SM CLR 29/M04 A3000 RMK AO2,M
05U,2025-07-03 21:55,-116.0051,39.6042,1811.23,80.60,39.20,22.84,190.00,20.00,0.00,30.06,M,9.00,28.00,CLR,M,M,M,M,M,M,M,M,M,M,M,M,M,M,79.11,K05U 032155Z AUTO 19020G28KT 9SM CLR 27/04 A3006 RMK A01,M
MEV,2025-07-03 21:55,-119.7500,38.9963,1441.42,89.60,28.40,11.12,270.00,16.00,0.00,29.96,M,10.00,24.00,CLR,M,M,M,M,M,M,M,M,M,M,M,M,M,M,85.18,KMEV 032155Z AUTO 27016G24KT 10SM CLR 32/M02 A2996 RMK AO2,M
HTH,2025-07-03 21:55,-118.6315,38.5448,1282.89,89.60,32.00,12.87,310.00,6.00,0.00,29.89,M,10.00,M,CLR,M,M,M,M,M,M,M,M,M,M,M,M,M,M,85.55,KHTH 032155Z AUTO 31006KT 10SM CLR 32/00 A2989 RMK A01,M
10U,2025-07-03 21:55,-116.1876,41.9532,1637.00,75.20,41.00,29.26,310.00,14.00,0.00,29.98,M,10.00,19.00,FEW,FEW,BKN,M,6000.00,8000.00,11000.00,M,VCTS RA,M,M,M,M,M,M,75.20,K10U 032155Z AUTO 31014G19KT 10SM VCTS RA FEW060 FEW080 BKN110 24/05 A2998 RMK AO2 LTG DSNT E,M
LSV,2025-07-03 21:55,-115.0343,36.2362,570.00,96.30,50.00,21.02,200.00,10.00,0.00,29.79,1005.70,10.00,M,SCT,BKN,M,M,9000.00,18000.00,M,M,M,M,M,M,M,M,M,93.22,KLSV 032155Z 20010KT 10SM SCT090 BKN180 36/10 A2979 RMK AO2A LTG DSNT N AND S-SW SLP057 T03570100 $,M
EKO,2025-07-03 21:56,-115.7860,40.8242,1367.00,88.00,35.00,15.27,M,6.00,0.00,29.93,1007.30,10.00,M,CLR,M,M,M,M,M,M,M,M,M,M,M,M,M,M,84.28,KEKO 032156Z AUTO VRB06KT 10SM CLR 31/02 A2993 RMK AO2 SLP073 T03110017,M
WMC,2025-07-03 21:56,-117.8072,40.9019,1315.00,88.00,36.00,15.88,240.00,13.00,0.00,29.88,1006.60,10.00,23.00,FEW,M,M,M,12000.00,M,M,M,M,M,M,M,26.00,240.00,2025-07-03 21:13,84.30,KWMC 032156Z AUTO 24013G23KT 10SM FEW120 31/02 A2988 RMK AO2 PK WND 24026/2113 SLP066 T03110022 TSNO,M
HND,2025-07-03 21:56,-115.1344,35.9729,742.79,92.00,50.00,23.99,160.00,15.00,0.00,29.88,1010.50,10.00,27.00,SCT,M,M,M,11000.00,M,M,M,M,M,M,M,27.00,160.00,2025-07-03 21:47,88.95,KHND 032156Z 16015G27KT 10SM SCT110 33/10 A2988 RMK AO2 PK WND 16027/2147 SLP105 T03330100 $,M
TPH,2025-07-03 21:56,-117.0904,38.0505,1654.00,85.00,37.00,18.18,170.00,13.00,0.00,30.03,1009.60,10.00,M,BKN,M,M,M,10000.00,M,M,M,M,M,M,M,M,M,M,81.96,KTPH 032156Z AUTO 17013KT 10SM BKN100 29/03 A3003 RMK AO2 SLP096 T02940028,M
LAS,2025-07-03 21:56,-115.1634,36.0719,663.00,92.00,55.00,28.83,80.00,7.00,0.02,29.86,1008.20,10.00,M,FEW,SCT,BKN,M,8500.00,11000.00,25000.00,M,TS,M,M,M,M,M,M,90.04,KLAS 032156Z 08007KT 10SM TS FEW085 SCT110CB BKN250 33/13 A2986 RMK AO2 RAB18E36 TSB42 SLP082 OCNL LTGICCG SE-SW-NW TS SE-SW-NW MOV NE VCSH SE-SW CB DSNT N P0002 T03330128,M
NFL,2025-07-03 21:57,-118.7010,39.4166,1199.00,95.00,31.00,10.46,240.00,13.00,0.00,29.85,1008.50,10.00,22.00,SCT,BKN,BKN,BKN,8000.00,14000.00,18000.00,22000.00,M,M,M,M,28.00,240.00,2025-07-03 21:20,89.59,KNFL 032157Z 24013G22KT 10SM SCT080 BKN140 BKN180 BKN220 35/M01 A2985 RMK AO2 PK WND 24028/2120 SLP085 CB DSNT N-NE ACSL DSNT SW-NW T03501006,M
P68,2025-07-03 21:59,-116.0056,39.6014,1993.00,79.00,40.00,24.83,180.00,23.00,0.00,30.03,M,M,33.00,M,M,M,M,M,M,M,M,M,M,M,M,30.00,200.00,2025-07-03 21:54,79.00,KP68 032159Z AUTO 18023G33KT 26/04 A3003 RMK AO1 PK WND 20030/2154 WSHFT 2142 T02610044,M
RTS,2025-07-03 22:05,-119.8764,39.6682,1539.00,86.00,24.80,10.73,220.00,13.00,0.00,29.99,M,10.00,20.00,CLR,M,M,M,M,M,M,M,M,M,M,M,M,M,M,82.26,KRTS 032205Z AUTO 22013G20KT 10SM CLR 30/M04 A2999 RMK AO2,M
MEV,2025-07-03 22:05,-119.7500,38.9963,1441.42,87.80,28.40,11.77,270.00,20.00,0.00,29.96,M,10.00,26.00,CLR,M,M,M,M,M,M,M,M,M,M,M,M,M,M,83.84,KMEV 032205Z AUTO 27020G26KT 10SM CLR 31/M02 A2996 RMK AO2,M
TMT,2025-07-03 22:10,-117.1971,39.4643,1749.34,87.40,37.20,16.97,220.00,17.00,0.00,30.01,M,10.00,22.00,CLR,M,M,M,M,M,M,M,M,M,M,M,M,M,M,83.84,KTMT 032210Z AUTO 22017G22KT 10SM CLR 31/03 A3001 RMK AO2 T03080029,M
BVU,2025-07-03 22:15,-114.8611,35.9475,671.00,95.00,44.60,17.85,140.00,15.00,0.00,29.84,M,10.00,M,CLR,M,M,M,M,M,M,M,M,M,M,M,M,M,M,91.07,KBVU 032215Z AUTO 14015KT 10SM CLR 35/07 A2984 RMK AO2,M
BAM,2025-07-03 22:15,-116.8743,40.5990,1382.36,89.60,41.00,18.37,20.00,6.00,0.00,29.90,M,10.00,16.00,SCT,M,M,M,12000.00,M,M,M,M,M,M,M,M,M,M,85.82,KBAM 032215Z AUTO 02006G16KT 10SM SCT120 32/05 A2990 RMK AO1,M
CXP,2025-07-03 22:15,-119.7326,39.1923,1431.00,87.80,32.00,13.62,240.00,14.00,0.00,29.97,M,10.00,21.00,CLR,M,M,M,M,M,M,M,M,M,M,M,M,M,M,84.08,KCXP 032215Z AUTO 24014G21KT 10SM CLR 31/00 A2997 RMK AO2,M
05U,2025-07-03 22:15,-116.0051,39.6042,1811.23,78.80,41.00,25.98,170.00,19.00,0.00,30.05,M,10.00,30.00,CLR,M,M,M,M,M,M,M,M,M,M,M,M,M,M,78.80,K05U 032215Z AUTO 17019G30KT 10SM CLR 26/05 A3005 RMK A01,M
HTH,2025-07-03 22:15,-118.6315,38.5448,1282.89,89.60,37.40,15.96,330.00,8.00,0.00,29.89,M,9.00,M,FEW,FEW,M,M,4300.00,9000.00,M,M,M,M,M,M,M,M,M,85.67,KHTH 032215Z AUTO 33008KT 9SM FEW043 FEW090 32/03 A2989 RMK A01,M
10U,2025-07-03 22:15,-116.1876,41.9532,1637.00,78.80,41.00,25.98,320.00,12.00,0.00,29.98,M,10.00,21.00,FEW,M,M,M,12000.00,M,M,M,M,M,M,M,M,M,M,78.80,K10U 032215Z AUTO 32012G21KT 10SM FEW120 26/05 A2998 RMK AO2,M
HND,2025-07-03 22:19,-115.1344,35.9729,742.79,78.80,64.40,61.42,270.00,25.00,0.12,29.94,M,4.00,37.00,FEW,BKN,OVC,M,4500.00,10000.00,11000.00,M,+TSRA,M,M,M,37.00,280.00,2025-07-03 22:12,78.80,KHND 032219Z 27025G37KT 4SM +TSRA FEW045 BKN100 OVC110 26/18 A2994 RMK AO2 PK WND 28037/2212 WSHFT 2205 TSB19RAB10 PRESRR P0012 $,M
VGT,2025-07-03 22:25,-115.1933,36.2111,667.00,80.00,63.00,56.23,180.00,20.00,0.11,29.87,M,1.75,35.00,FEW,BKN,OVC,M,4500.00,9000.00,11000.00,M,+RA,M,M,M,35.00,250.00,2025-07-03 22:16,81.42,KVGT 032225Z 18020G35KT 1 3/4SM +RA FEW045 BKN090 OVC110 27/17 A2987 RMK AO2 PK WND 25035/2216 LTG DSNT S RAB10 P0011 T02670172 $,M
RTS,2025-07-03 22:25,-119.8764,39.6682,1539.00,82.40,26.60,12.98,240.00,15.00,0.00,29.99,M,10.00,21.00,CLR,M,M,M,M,M,M,M,M,M,M,M,M,M,M,79.92,KRTS 032225Z AUTO 24015G21KT 10SM CLR 28/M03 A2999 RMK AO2,M
MEV,2025-07-03 22:25,-119.7500,38.9963,1441.42,86.00,32.00,14.42,270.00,20.00,0.00,29.96,M,10.00,M,CLR,M,M,M,M,M,M,M,M,M,M,M,M,M,M,82.64,KMEV 032225Z AUTO 27020KT 10SM CLR 30/00 A2996 RMK AO2,M
TMT,2025-07-03 22:30,-117.1971,39.4643,1749.34,84.40,36.70,18.31,210.00,13.00,0.00,30.00,M,10.00,19.00,CLR,M,M,M,M,M,M,M,M,M,M,M,M,M,M,81.51,KTMT 032230Z AUTO 21013G19KT 10SM CLR 29/03 A3000 RMK AO2 T02910026,M
VGT,2025-07-03 22:32,-115.1933,36.2111,667.00,79.00,63.00,58.10,130.00,26.00,0.13,29.86,M,2.00,43.00,SCT,BKN,OVC,M,4300.00,5500.00,9500.00,M,RA,M,M,M,43.00,170.00,2025-07-03 22:26,79.00,KVGT 032232Z 13026G43KT 2SM RA SCT043 BKN055 OVC095 26/17 A2986 RMK AO2 PK WND 17043/2226 WSHFT 2218 LTG DSNT S RAB10 P0013 T02610172 $,M
BVU,2025-07-03 22:35,-114.8611,35.9475,671.00,93.20,42.80,17.61,220.00,14.00,0.00,29.84,M,10.00,M,CLR,M,M,M,M,M,M,M,M,M,M,M,M,M,M,89.18,KBVU 032235Z AUTO 22014KT 10SM CLR 34/06 A2984 RMK AO2 LTG DSNT W AND NW,M
VGT,2025-07-03 22:35,-115.1933,36.2111,667.00,79.00,61.00,54.14,110.00,20.00,0.13,29.87,M,3.00,43.00,SCT,BKN,OVC,M,3600.00,5000.00,9500.00,M,TSRA,M,M,M,43.00,170.00,2025-07-03 22:26,79.00,KVGT 032235Z 11020G43KT 3SM TSRA SCT036 BKN050 OVC095 26/16 A2987 RMK AO2 PK WND 17043/2226 WSHFT 2218 LTG DSNT SE RAB10 TSB33 P0013 T02610161 $,M
BAM,2025-07-03 22:35,-116.8743,40.5990,1382.36,89.60,37.40,15.96,140.00,13.00,0.00,29.89,M,10.00,20.00,SCT,M,M,M,12000.00,M,M,M,M,M,M,M,M,M,M,85.67,KBAM 032235Z AUTO 14013G20KT 10SM SCT120 32/03 A2989 RMK AO1,M
CXP,2025-07-03 22:35,-119.7326,39.1923,1431.00,84.20,33.80,16.42,240.00,9.00,0.00,29.97,M,10.00,19.00,CLR,M,M,M,M,M,M,M,M,M,M,M,M,M,M,81.30,KCXP 032235Z AUTO 24009G19KT 10SM CLR 29/01 A2997 RMK AO2,M
05U,2025-07-03 22:35,-116.0051,39.6042,1811.23,80.60,37.40,21.28,150.00,14.00,0.00,30.05,M,10.00,20.00,CLR,M,M,M,M,M,M,M,M,M,M,M,M,M,M,79.02,K05U 032235Z AUTO 15014G20KT 10SM CLR 27/03 A3005 RMK A01,M
HTH,2025-07-03 22:35,-118.6315,38.5448,1282.89,89.60,30.20,11.97,50.00,4.00,0.00,29.88,M,10.00,11.00,CLR,M,M,M,M,M,M,M,M,M,M,M,M,M,M,85.35,KHTH 032235Z AUTO 05004G11KT 10SM CLR 32/M01 A2988 RMK A01,M
10U,2025-07-03 22:35,-116.1876,41.9532,1637.00,78.80,41.00,25.98,350.00,13.00,0.00,29.97,M,10.00,19.00,FEW,M,M,M,12000.00,M,M,M,M,M,M,M,M,M,M,78.80,K10U 032235Z AUTO 35013G19KT 10SM FEW120 26/05 A2997 RMK AO2,M
HND,2025-07-03 22:40,-115.1344,35.9729,742.79,75.20,64.40,69.19,330.00,5.00,0.22,29.92,M,10.00,M,FEW,BKN,OVC,M,4700.00,8000.00,10000.00,M,-RA,M,M,M,37.00,280.00,2025-07-03 22:12,75.20,KHND 032240Z 33005KT 10SM -RA FEW047 BKN080 OVC100 24/18 A2992 RMK AO2 PK WND 28037/2212 WSHFT 2205 LTG DSNT N-SE TSB19E34RAB10 P0022 $,M
VGT,2025-07-03 22:45,-115.1933,36.2111,667.00,81.00,65.00,58.37,140.00,20.00,0.14,29.88,M,5.00,M,BKN,BKN,OVC,M,2700.00,5000.00,11000.00,M,-TSRA,M,M,M,43.00,170.00,2025-07-03 22:26,82.83,KVGT 032245Z 14020KT 5SM -TSRA BKN027 BKN050 OVC110 27/18 A2988 RMK AO2 PK WND 17043/2226 WSHFT 2218 LTG DSNT SE RAB10 TSB33 P0014 T02720183 $,M
MEV,2025-07-03 22:45,-119.7500,38.9963,1441.42,84.20,30.20,14.20,280.00,16.00,0.00,29.96,M,10.00,22.00,CLR,M,M,M,M,M,M,M,M,M,M,M,M,M,M,81.26,KMEV 032245Z AUTO 28016G22KT 10SM CLR 29/M01 A2996 RMK AO2,M
RTS,2025-07-03 22:45,-119.8764,39.6682,1539.00,82.40,26.60,12.98,240.00,20.00,0.00,29.99,M,10.00,M,CLR,M,M,M,M,M,M,M,M,M,M,M,M,M,M,79.92,KRTS 032245Z AUTO 24020KT 10SM CLR 28/M03 A2999 RMK AO2,M
LSV,2025-07-03 22:48,-115.0343,36.2362,570.00,89.60,55.40,31.53,210.00,32.00,0.00,29.82,1006.90,9.00,38.00,BKN,M,M,M,10000.00,M,M,M,VCTS,M,M,M,M,M,M,87.80,KLSV 032248Z 21032G38KT 9SM VCTS BKN100 32/13 A2982 RMK AO2A WSHFT 41 SLP069 $,M
VGT,2025-07-03 22:49,-115.1933,36.2111,667.00,82.40,64.40,54.63,150.00,20.00,0.14,29.88,M,5.00,M,SCT,BKN,OVC,M,2900.00,5000.00,11000.00,M,VCTS -RA,M,M,M,43.00,170.00,2025-07-03 22:26,83.99,KVGT 032249Z 15020KT 5SM VCTS -RA SCT029 BKN050 OVC110 28/18 A2988 RMK AO2 PK WND 17043/2226 WSHFT 2218 LTG DSNT SE RAB10 TSB33E49 P0014 $,M
TMT,2025-07-03 22:50,-117.1971,39.4643,1749.34,84.60,36.50,18.05,200.00,14.00,0.00,30.00,M,10.00,19.00,CLR,M,M,M,M,M,M,M,M,M,M,M,M,M,M,81.65,KTMT 032250Z AUTO 20014G19KT 10SM CLR 29/03 A3000 RMK AO2 T02920025,M
P68,2025-07-03 22:53,-116.0056,39.6014,1993.00,81.00,41.00,24.18,130.00,14.00,0.00,30.02,1008.90,M,24.00,M,M,M,M,M,M,M,M,M,M,M,M,35.00,180.00,2025-07-03 22:08,79.43,KP68 032253Z AUTO 13014G24KT 27/05 A3002 RMK AO1 PK WND 18035/2208 WSHFT 2142 SLP089 T02720050,M
DRA,2025-07-03 22:53,-116.0278,36.6206,1009.00,96.00,46.00,18.25,180.00,14.00,0.00,29.88,1006.80,10.00,20.00,CLR,M,M,M,M,M,M,M,M,M,M,M,M,M,M,92.22,KDRA 032253Z AUTO 18014G20KT 10SM CLR 36/08 A2988 RMK AO2 SLP068 T03560078,M
ELY,2025-07-03 22:53,-114.8453,39.2950,1909.00,81.00,30.00,15.62,210.00,8.00,0.00,30.05,1008.50,M,16.00,CLR,M,M,M,M,M,M,M,M,M,M,M,M,M,M,79.02,KELY 032253Z AUTO 21008G16KT CLR 27/M01 A3005 RMK AO2 SLP085 T02721011 $,M
VGT,2025-07-03 22:53,-115.1933,36.2111,667.00,82.00,64.00,54.57,150.00,23.00,0.14,29.88,1011.20,5.00,28.00,SCT,SCT,BKN,M,2900.00,4800.00,11000.00,M,VCTS -RA,M,M,M,43.00,170.00,2025-07-03 22:26,83.48,KVGT 032253Z 15023G28KT 5SM VCTS -RA SCT029 SCT048 BKN110 28/18 A2988 RMK AO2 PK WND 17043/2226 WSHFT 2218 LTG DSNT SE RAB10 TSB33E49 SLP112 P0014 T02780178 $,M
LOL,2025-07-03 22:53,-118.5701,40.0684,1192.43,M,M,M,M,M,0.00,29.83,M,M,M,M,M,M,M,M,M,M,M,M,M,M,M,M,M,M,M,KLOL 032253Z AUTO A2983 RMK AO2 SLPNO PWINO $,M
BVU,2025-07-03 22:55,-114.8611,35.9475,671.00,84.20,46.40,26.81,M,4.00,0.00,29.88,M,2.00,51.00,FEW,SCT,BKN,M,300.00,7000.00,11000.00,M,VCTS RA,M,M,M,M,M,M,81.87,KBVU 032255Z AUTO VRB04G51KT 2SM VCTS RA FEW003 SCT070 BKN110 29/08 A2988 RMK AO2 LTG DSNT ALQDS,M
INS,2025-07-03 22:55,-115.6733,36.5872,955.00,93.40,43.50,17.97,130.00,6.00,0.00,29.88,1006.60,10.00,M,CLR,M,M,M,M,M,M,M,M,M,M,M,M,M,M,89.43,KINS 032255Z AUTO 13006KT 10SM CLR 34/06 A2988 RMK AO2 SLP066 T03410064 $,M
RNO,2025-07-03 22:55,-119.7711,39.4839,1341.00,87.00,38.00,17.74,270.00,15.00,0.00,29.91,1006.90,10.00,20.00,SCT,BKN,M,M,11000.00,20000.00,M,M,M,M,M,M,M,M,M,83.54,KRNO 032255Z 27015G20KT 10SM SCT110 BKN200 31/03 A2991 RMK AO2 SLP069 T03060033,M
BAM,2025-07-03 22:55,-116.8743,40.5990,1382.36,89.60,37.40,15.96,0.00,0.00,0.00,29.89,M,10.00,M,CLR,M,M,M,M,M,M,M,M,M,M,M,M,M,M,85.67,KBAM 032255Z AUTO 00000KT 10SM CLR 32/03 A2989 RMK AO1,M
CXP,2025-07-03 22:55,-119.7326,39.1923,1431.00,84.20,32.00,15.28,220.00,10.00,0.00,29.97,M,10.00,19.00,CLR,M,M,M,M,M,M,M,M,M,M,M,M,M,M,81.28,KCXP 032255Z AUTO 22010G19KT 10SM CLR 29/M00 A2997 RMK AO2,M
05U,2025-07-03 22:55,-116.0051,39.6042,1811.23,82.40,39.20,21.54,130.00,12.00,0.00,30.05,M,10.00,20.00,CLR,M,M,M,M,M,M,M,M,M,M,M,M,M,M,80.21,K05U 032255Z AUTO 13012G20KT 10SM CLR 28/04 A3005 RMK A01,M
HTH,2025-07-03 22:55,-118.6315,38.5448,1282.89,91.40,32.00,12.17,0.00,0.00,0.00,29.87,M,10.00,14.00,CLR,M,M,M,M,M,M,M,M,M,M,M,M,M,M,86.92,KHTH 032255Z AUTO 00000G14KT 10SM CLR 33/00 A2987 RMK A01,M
10U,2025-07-03 22:55,-116.1876,41.9532,1637.00,78.80,44.60,29.83,20.00,11.00,0.00,29.97,M,10.00,M,CLR,M,M,M,M,M,M,M,M,M,M,M,M,M,M,78.80,K10U 032255Z AUTO 02011KT 10SM CLR 26/07 A2997 RMK AO2,M
LSV,2025-07-03 22:55,-115.0343,36.2362,570.00,86.00,55.00,34.82,210.00,33.00,0.00,29.83,1007.40,9.00,38.00,BKN,M,M,M,10000.00,M,M,M,VCTS,M,M,M,38.00,230.00,2025-07-03 22:46,84.47,KLSV 032255Z 21033G38KT 9SM VCTS BKN100 30/13 A2983 RMK AO2A PK WND 23038/46 SLP074 T03000128 $,M
EKO,2025-07-03 22:56,-115.7860,40.8242,1367.00,89.00,34.00,14.21,200.00,12.00,0.00,29.92,1007.00,10.00,21.00,SCT,M,M,M,11000.00,M,M,M,M,M,M,M,26.00,150.00,2025-07-03 22:18,85.09,KEKO 032256Z AUTO 20012G21KT 10SM SCT110 32/01 A2992 RMK AO2 PK WND 15026/2218 SLP070 T03170011,M
WMC,2025-07-03 22:56,-117.8072,40.9019,1315.00,88.00,35.00,15.27,270.00,12.00,0.00,29.86,1006.20,10.00,M,CLR,M,M,M,M,M,M,M,M,M,M,M,M,M,M,84.28,KWMC 032256Z AUTO 27012KT 10SM CLR 31/02 A2986 RMK AO2 SLP062 T03110017 TSNO,M
HND,2025-07-03 22:56,-115.1344,35.9729,742.79,77.00,65.00,66.55,90.00,10.00,0.22,29.92,1012.30,10.00,M,SCT,OVC,M,M,7000.00,10000.00,M,M,M,M,M,M,37.00,280.00,2025-07-03 22:12,77.00,KHND 032256Z 09010KT 10SM SCT070 OVC100 25/18 A2992 RMK AO2 PK WND 28037/2212 WSHFT 2205 LTG DSNT SE TSB19E34RAB10E55 SLP123 P0022 T02500183 $,M
TPH,2025-07-03 22:56,-117.0904,38.0505,1654.00,84.00,34.00,16.66,210.00,8.00,0.00,30.00,1009.10,10.00,M,FEW,M,M,M,10000.00,M,M,M,M,M,M,M,M,M,M,81.16,KTPH 032256Z AUTO 21008KT 10SM FEW100 29/01 A3000 RMK AO2 SLP091 T02890011,M
LAS,2025-07-03 22:56,-115.1634,36.0719,663.00,82.00,62.00,50.87,70.00,13.00,T,29.89,1009.90,10.00,M,FEW,SCT,SCT,BKN,7000.00,10000.00,15000.00,18000.00,TS,M,M,M,M,M,M,82.90,KLAS 032256Z 07013KT 10SM TS FEW070 SCT100CB SCT150 BKN180 28/17 A2989 RMK AO2 LTG DSNT SE RAB2157E54 SLP099 OCNL LTGICCG N-E-S TS N-E-S MOV NE P0000 T02780167,M
NFL,2025-07-03 22:57,-118.7010,39.4166,1199.00,95.00,31.00,10.46,290.00,13.00,0.00,29.83,1007.80,10.00,M,SCT,BKN,BKN,BKN,8000.00,16000.00,18000.00,22000.00,M,M,M,M,M,M,M,89.59,KNFL 032257Z 29013KT 10SM SCT080 BKN160 BKN180 BKN220 35/M01 A2983 RMK AO2 SLP078 CB DSNT N-E-SE ACSL DSNT SW-NW T03501006,M
VGT,2025-07-03 23:01,-115.1933,36.2111,667.00,83.00,65.00,54.71,130.00,20.00,T,29.87,M,10.00,28.00,FEW,SCT,M,M,1700.00,11000.00,M,M,M,M,M,M,M,M,M,84.79,KVGT 032301Z 13020G28KT 10SM FEW017 SCT110 28/18 A2987 RMK AO2 LTG DSNT SE RAE2254 P0000 T02830183 $,M
LSV,2025-07-03 23:01,-115.0343,36.2362,570.00,82.40,60.80,48.13,200.00,23.00,0.00,29.84,1008.00,10.00,37.00,FEW,BKN,M,M,900.00,10000.00,M,M,VCTS,M,M,M,M,M,M,82.91,KLSV 032301Z 20023G37KT 10SM VCTS FEW009 BKN100 28/16 A2984 RMK AO2A SLP080 $,M
TMT,2025-07-03 23:10,-117.1971,39.4643,1749.34,86.00,35.00,16.27,180.00,11.00,0.00,29.99,M,10.00,20.00,CLR,M,M,M,M,M,M,M,M,M,M,M,M,M,M,82.68,KTMT 032310Z AUTO 18011G20KT 10SM CLR 30/02 A2999 RMK AO2 T02990017,M
LAS,2025-07-03 23:12,-115.1634,36.0719,663.00,84.00,58.00,41.36,100.00,9.00,0.00,29.88,M,10.00,M,FEW,FEW,SCT,BKN,7000.00,10000.00,15000.00,18000.00,M,M,M,M,M,M,M,83.51,KLAS 032312Z 10009KT 10SM FEW070 FEW100 SCT150 BKN180 29/14 A2988 RMK AO2 LTG DSNT SE TSE12 TS MOV NE VCSH NE-SE CB DSNT NE-SE T02890144,M
BVU,2025-07-03 23:15,-114.8611,35.9475,671.00,80.60,50.00,34.47,60.00,7.00,0.00,29.90,M,1.75,12.00,SCT,OVC,M,M,400.00,3100.00,M,M,RA,M,M,M,M,M,M,79.89,KBVU 032315Z AUTO 06007G12KT 1 3/4SM RA SCT004 OVC031 27/10 A2990 RMK AO2 LTG DSNT SW AND NW VIS 1V3,M
BAM,2025-07-03 23:15,-116.8743,40.5990,1382.36,91.40,37.40,15.09,350.00,4.00,0.00,29.88,M,10.00,M,CLR,M,M,M,M,M,M,M,M,M,M,M,M,M,M,87.23,KBAM 032315Z AUTO 35004KT 10SM CLR 33/03 A2988 RMK AO1,M
CXP,2025-07-03 23:15,-119.7326,39.1923,1431.00,84.20,32.00,15.28,230.00,8.00,0.00,29.97,M,10.00,15.00,CLR,M,M,M,M,M,M,M,M,M,M,M,M,M,M,81.28,KCXP 032315Z AUTO 23008G15KT 10SM CLR 29/M00 A2997 RMK AO2,M
05U,2025-07-03 23:15,-116.0051,39.6042,1811.23,84.20,35.60,17.64,150.00,19.00,0.00,30.04,M,10.00,M,CLR,M,M,M,M,M,M,M,M,M,M,M,M,M,M,81.34,K05U 032315Z AUTO 15019KT 10SM CLR 29/02 A3004 RMK A01,M
HTH,2025-07-03 23:15,-118.6315,38.5448,1282.89,91.40,32.00,12.17,30.00,5.00,0.00,29.86,M,10.00,M,CLR,M,M,M,M,M,M,M,M,M,M,M,M,M,M,86.92,KHTH 032315Z AUTO 03005KT 10SM CLR 33/M00 A2986 RMK A01,M
10U,2025-07-03 23:15,-116.1876,41.9532,1637.00,80.60,42.80,26.26,10.00,13.00,0.00,29.97,M,10.00,M,CLR,M,M,M,M,M,M,M,M,M,M,M,M,M,M,79.31,K10U 032315Z AUTO 01013KT 10SM CLR 27/06 A2997 RMK AO2,M
HND,2025-07-03 23:16,-115.1344,35.9729,742.79,78.80,64.40,61.42,90.00,8.00,0.00,29.91,M,10.00,M,FEW,OVC,M,M,8000.00,11000.00,M,M,M,M,M,M,M,M,M,78.80,KHND 032316Z 09008KT 10SM FEW080 OVC110 26/18 A2991 RMK AO2 WSHFT 2256 LTG DSNT SE $,M
LSV,2025-07-03 23:20,-115.0343,36.2362,570.00,86.00,57.20,37.70,160.00,20.00,0.00,29.81,1006.70,10.00,27.00,FEW,FEW,SCT,SCT,800.00,2800.00,3600.00,4400.00,M,M,M,M,M,M,M,84.99,KLSV 032320Z 16020G27KT 10SM FEW008 FEW028 SCT036 SCT044 30/14 A2981 RMK AO2A WSHFT 10 LTG DSNT SE-S PRESFR SLP067 $,M
INS,2025-07-03 23:22,-115.6733,36.5872,955.00,95.00,41.00,15.54,130.00,11.00,0.00,29.87,1006.20,10.00,15.00,SCT,M,M,M,11000.00,M,M,M,M,M,M,M,M,M,M,90.71,KINS 032322Z AUTO 13011G15KT 10SM SCT110 35/05 A2987 RMK AO2 WSHFT 16 SLP062 $,M
INS,2025-07-03 23:30,-115.6733,36.5872,955.00,93.20,41.00,16.43,90.00,13.00,0.00,29.87,1006.20,10.00,19.00,FEW,M,M,M,11000.00,M,M,M,M,M,M,M,M,M,M,89.04,KINS 032330Z AUTO 09013G19KT 10SM FEW110 34/05 A2987 RMK AO2 WSHFT 23 SLP062 $,M
TMT,2025-07-03 23:30,-117.1971,39.4643,1749.34,84.60,35.20,17.14,170.00,11.00,0.00,29.99,M,10.00,20.00,SCT,M,M,M,12000.00,M,M,M,M,M,M,M,M,M,M,81.62,KTMT 032330Z AUTO 17011G20KT 10SM SCT120 29/02 A2999 RMK AO2 T02920018,M
BVU,2025-07-03 23:35,-114.8611,35.9475,671.00,78.80,60.80,54.11,80.00,7.00,0.00,29.88,M,8.00,13.00,SCT,BKN,BKN,M,2900.00,3700.00,5000.00,M,-RA,M,M,M,M,M,M,78.80,KBVU 032335Z AUTO 08007G13KT 8SM -RA SCT029 BKN037 BKN050 26/16 A2988 RMK AO2 LTG DSNT S,M
BAM,2025-07-03 23:35,-116.8743,40.5990,1382.36,89.60,37.40,15.96,0.00,0.00,0.00,29.87,M,10.00,M,CLR,M,M,M,M,M,M,M,M,M,M,M,M,M,M,85.67,KBAM 032335Z AUTO 00000KT 10SM CLR 32/03 A2987 RMK AO1,M
CXP,2025-07-03 23:35,-119.7326,39.1923,1431.00,82.40,41.00,23.10,260.00,10.00,0.00,29.97,M,10.00,20.00,CLR,M,M,M,M,M,M,M,M,M,M,M,M,M,M,80.29,KCXP 032335Z AUTO 26010G20KT 10SM CLR 28/05 A2997 RMK AO2,M
05U,2025-07-03 23:35,-116.0051,39.6042,1811.23,84.20,35.60,17.64,150.00,17.00,0.00,30.03,M,10.00,M,CLR,M,M,M,M,M,M,M,M,M,M,M,M,M,M,81.34,K05U 032335Z AUTO 15017KT 10SM CLR 29/02 A3003 RMK A01,M
HTH,2025-07-03 23:35,-118.6315,38.5448,1282.89,91.40,30.20,11.31,320.00,12.00,0.00,29.86,M,10.00,M,CLR,M,M,M,M,M,M,M,M,M,M,M,M,M,M,86.71,KHTH 032335Z AUTO 32012KT 10SM CLR 33/M01 A2986 RMK A01,M
10U,2025-07-03 23:35,-116.1876,41.9532,1637.00,77.00,42.80,29.55,10.00,10.00,0.00,29.97,M,10.00,15.00,CLR,M,M,M,M,M,M,M,M,M,M,M,M,M,M,77.00,K10U 032335Z AUTO 01010G15KT 10SM CLR 25/06 A2997 RMK AO2,M
MEV,2025-07-03 23:45,-119.7500,38.9963,1441.42,82.40,32.00,16.19,260.00,10.00,0.00,29.95,M,10.00,20.00,CLR,M,M,M,M,M,M,M,M,M,M,M,M,M,M,80.00,KMEV 032345Z AUTO 26010G20KT 10SM CLR 28/00 A2995 RMK AO2,M
TMT,2025-07-03 23:50,-117.1971,39.4643,1749.34,82.20,35.40,18.67,170.00,9.00,0.00,29.99,M,10.00,M,SCT,M,M,M,12000.00,M,M,M,M,M,M,M,M,M,M,79.94,KTMT 032350Z AUTO 17009KT 10SM SCT120 28/02 A2999 RMK AO2 T02790019,M
P68,2025-07-03 23:53,-116.0056,39.6014,1993.00,83.00,36.00,18.63,160.00,19.00,0.00,30.00,1008.10,M,27.00,M,M,M,M,M,M,M,M,M,M,M,M,27.00,160.00,2025-07-03 23:50,80.50,KP68 032353Z AUTO 16019G27KT 28/02 A3000 RMK AO1 PK WND 16027/2350 SLP081 T02830022 10289 20250 58009,M
DRA,2025-07-03 23:53,-116.0278,36.6206,1009.00,96.00,45.00,17.57,190.00,11.00,0.00,29.87,1006.40,10.00,23.00,CLR,M,M,M,M,M,M,M,M,M,M,M,M,M,M,92.08,KDRA 032353Z AUTO 19011G23KT 10SM CLR 36/07 A2987 RMK AO2 SLP064 T03560072 10356 20283 56018,M
ELY,2025-07-03 23:53,-114.8453,39.2950,1909.00,83.00,25.00,11.92,220.00,10.00,0.00,30.03,1007.40,M,21.00,SCT,M,M,M,12000.00,M,M,M,M,M,M,M,M,M,M,80.20,KELY 032353Z AUTO 22010G21KT SCT120 28/M04 A3003 RMK AO2 SLP074 T02831039 10289 20244 56018 $,M
VGT,2025-07-03 23:53,-115.1933,36.2111,667.00,87.00,59.00,38.96,160.00,10.00,T,29.85,1009.90,10.00,M,SCT,M,M,M,12000.00,M,M,M,M,M,M,M,M,M,M,86.39,KVGT 032353Z 16010KT 10SM SCT120 31/15 A2985 RMK AO2 RAE2254 SLP099 P0000 60014 T03060150 10344 20261 58009 $,M
LOL,2025-07-03 23:53,-118.5701,40.0684,1192.43,M,M,M,M,M,0.00,29.80,M,M,M,M,M,M,M,M,M,M,M,M,M,M,M,M,M,M,M,KLOL 032353Z AUTO A2980 RMK AO2 SLPNO 58021 PWINO $,M
BVU,2025-07-03 23:55,-114.8611,35.9475,671.00,84.20,57.20,39.93,110.00,6.00,0.00,29.86,M,10.00,M,FEW,FEW,SCT,M,3700.00,5000.00,11000.00,M,M,M,M,M,M,M,M,83.48,KBVU 032355Z AUTO 11006KT 10SM FEW037 FEW050 SCT110 29/14 A2986 RMK AO2,M
RNO,2025-07-03 23:55,-119.7711,39.4839,1341.00,83.00,37.00,19.38,280.00,16.00,0.00,29.92,1007.50,10.00,26.00,FEW,BKN,M,M,11000.00,20000.00,M,M,M,M,M,M,38.00,280.00,2025-07-03 23:37,80.53,KRNO 032355Z 28016G26KT 10SM FEW110 BKN200 28/03 A2992 RMK AO2 PK WND 28038/2337 SLP075 T02830028 10328 20272 55004,M
BAM,2025-07-03 23:55,-116.8743,40.5990,1382.36,89.60,37.40,15.96,190.00,5.00,0.00,29.86,M,10.00,M,CLR,M,M,M,M,M,M,M,M,M,M,M,M,M,M,85.67,KBAM 032355Z AUTO 19005KT 10SM CLR 32/03 A2986 RMK AO1,M
CXP,2025-07-03 23:55,-119.7326,39.1923,1431.00,82.40,41.00,23.10,250.00,10.00,0.00,29.97,M,10.00,16.00,CLR,M,M,M,M,M,M,M,M,M,M,M,M,M,M,80.29,KCXP 032355Z AUTO 25010G16KT 10SM CLR 28/05 A2997 RMK AO2,M
RTS,2025-07-03 23:55,-119.8764,39.6682,1539.00,78.80,23.00,12.56,270.00,8.00,0.00,29.99,M,10.00,18.00,CLR,M,M,M,M,M,M,M,M,M,M,M,M,M,M,78.80,KRTS 032355Z AUTO 27008G18KT 10SM CLR 26/M05 A2999 RMK AO2,M
05U,2025-07-03 23:55,-116.0051,39.6042,1811.23,82.40,35.60,18.70,140.00,15.00,0.00,30.03,M,10.00,21.00,CLR,M,M,M,M,M,M,M,M,M,M,M,M,M,M,80.08,K05U 032355Z AUTO 14015G21KT 10SM CLR 28/02 A3003 RMK A01,M
HTH,2025-07-03 23:55,-118.6315,38.5448,1282.89,91.40,28.40,10.51,10.00,8.00,0.00,29.85,M,10.00,16.00,CLR,M,M,M,M,M,M,M,M,M,M,M,M,M,M,86.53,KHTH 032355Z AUTO 01008G16KT 10SM CLR 33/M02 A2985 RMK A01,M
10U,2025-07-03 23:55,-116.1876,41.9532,1637.00,77.00,42.80,29.55,20.00,8.00,0.00,29.96,M,10.00,M,FEW,M,M,M,12000.00,M,M,M,M,M,M,M,M,M,M,77.00,K10U 032355Z AUTO 02008KT 10SM FEW120 25/06 A2996 RMK AO2,M
INS,2025-07-03 23:55,-115.6733,36.5872,955.00,91.00,49.00,23.84,90.00,24.00,0.00,29.86,1006.10,10.00,28.00,CLR,M,M,M,M,M,M,M,M,M,M,M,31.00,110.00,2025-07-03 23:49,87.84,KINS 032355Z AUTO 09024G28KT 10SM CLR 33/10 A2986 RMK AO2 PK WND 11031/49 SLP061 T03270095 10347 20295 57018 $,M
LSV,2025-07-03 23:55,-115.0343,36.2362,570.00,93.60,45.00,18.92,180.00,12.00,0.00,29.79,1005.80,10.00,M,BKN,M,M,M,11000.00,M,M,M,M,M,M,M,32.00,210.00,2025-07-03 22:55,89.78,KLSV 032355Z 18012KT 10SM BKN110 34/07 A2979 RMK AO2A PK WND 21032/2255 SLP058 T03420073 10363 20281 55011 $,M
EKO,2025-07-03 23:56,-115.7860,40.8242,1367.00,88.00,33.00,14.09,250.00,8.00,0.00,29.90,1006.70,10.00,M,CLR,M,M,M,M,M,M,M,M,M,M,M,M,M,M,84.25,KEKO 032356Z AUTO 25008KT 10SM CLR 31/01 A2990 RMK AO2 LTG DSNT N SLP067 T03110006 10322 20272 58013,M
WMC,2025-07-03 23:56,-117.8072,40.9019,1315.00,91.00,35.00,13.90,260.00,11.00,T,29.84,1005.40,10.00,22.00,CLR,M,M,M,M,M,M,M,M,M,M,M,26.00,230.00,2025-07-03 23:09,86.81,KWMC 032356Z AUTO 26011G22KT 10SM CLR 33/02 A2984 RMK AO2 PK WND 23026/2309 RAB10E21 SLP054 P0000 60000 T03280017 10344 20294 58013 TSNO,M
HND,2025-07-03 23:56,-115.1344,35.9729,742.79,85.00,59.00,41.52,M,6.00,0.00,29.89,1011.10,10.00,M,SCT,M,M,M,12000.00,M,M,M,M,M,M,M,M,M,M,84.61,KHND 032356Z VRB06KT 10SM SCT120 29/15 A2989 RMK AO2 WSHFT 2256 SLP111 60022 T02940150 10356 20239 58004 $,M
TPH,2025-07-03 23:56,-117.0904,38.0505,1654.00,86.00,35.00,16.27,150.00,16.00,0.00,29.98,1008.30,10.00,27.00,SCT,M,M,M,12000.00,M,M,M,M,M,M,M,27.00,170.00,2025-07-03 23:49,82.68,KTPH 032356Z AUTO 15016G27KT 10SM SCT120 30/02 A2998 RMK AO2 PK WND 17027/2349 SLP083 T03000017 10306 20256 57018,M
LAS,2025-07-03 23:56,-115.1634,36.0719,663.00,86.00,58.00,38.80,100.00,8.00,0.00,29.87,1008.80,10.00,M,FEW,SCT,SCT,BKN,7000.00,10000.00,15000.00,20000.00,M,M,M,M,M,M,M,85.20,KLAS 032356Z 10008KT 10SM FEW070 SCT100 SCT150 BKN200 30/14 A2987 RMK AO2 TSE12 SLP088 TS MOV NE 60002 T03000144 10356 20261 56006,M
NFL,2025-07-03 23:57,-118.7010,39.4166,1199.00,94.00,29.00,9.94,310.00,10.00,0.00,29.82,1007.40,10.00,17.00,SCT,SCT,BKN,BKN,8000.00,16000.00,18000.00,22000.00,M,M,M,M,M,M,M,88.58,KNFL 032357Z 31010G17KT 10SM SCT080 SCT160 BKN180 BKN220 34/M02 A2982 RMK AO2 SLP074 CB DSNT N-E-SE ACSL DSNT SW-NW T03441017 10361 20300 56018,M
