station,valid,lon,lat,elevation,tmpf,dwpf,relh,drct,sknt,p01i,alti,mslp,vsby,gust,skyc1,skyc2,skyc3,skyc4,skyl1,skyl2,skyl3,skyl4,wxcodes,ice_accretion_1hr,ice_accretion_3hr,ice_accretion_6hr,peak_wind_gust,peak_wind_drct,peak_wind_time,feel,metar,snowdepth
HTH,2022-07-29 00:15,-118.6315,38.5448,1282.89,100.40,28.40,7.95,330.00,9.00,0.00,29.97,M,10.00,16.00,CLR,M,M,M,M,M,M,M,M,M,M,M,M,M,M,93.77,KHTH 290015Z AUTO 33009G16KT 10SM CLR 38/M02 A2997 RMK A01,M
BVU,2022-07-29 00:15,-114.8611,35.9475,671.00,M,M,M,M,M,0.00,M,M,M,M,M,M,M,M,M,M,M,M,M,M,M,M,M,M,M,M,KBVU 290015Z AUTO RMK AO2 PNO PWINO TSNO,M
CXP,2022-07-29 00:15,-119.7326,39.1923,1431.00,98.60,28.40,8.40,350.00,10.00,0.00,30.05,M,10.00,19.00,CLR,M,M,M,M,M,M,M,M,M,M,M,M,M,M,92.25,KCXP 290015Z AUTO 35010G19KT 320V020 10SM CLR 37/M02 A3005 RMK AO2,M
TMT,2022-07-29 00:15,-117.1971,39.4643,1749.34,M,M,M,340.00,8.00,0.00,30.11,M,10.00,16.00,CLR,M,M,M,M,M,M,M,M,M,M,M,M,M,M,M,KTMT 290015Z AUTO 34008G16KT 10SM CLR A3011 RMK AO2,M
RTS,2022-07-29 00:15,-119.8764,39.6682,1539.00,96.80,21.20,6.57,30.00,9.00,0.00,30.08,M,10.00,17.00,CLR,M,M,M,M,M,M,M,M,M,M,M,M,M,M,90.11,KRTS 290015Z AUTO 03009G17KT 10SM CLR 36/M06 A3008 RMK AO2,M
MEV,2022-07-29 00:15,-119.7500,38.9963,1441.42,96.80,28.40,8.87,320.00,9.00,0.00,30.03,M,10.00,M,CLR,M,M,M,M,M,M,M,M,M,M,M,M,M,M,90.75,KMEV 290015Z AUTO 32009KT 10SM CLR 36/M02 A3003 RMK AO2,M
BAM,2022-07-29 00:15,-116.8743,40.5990,1382.36,98.60,39.20,12.94,330.00,19.00,0.00,29.99,M,10.00,24.00,CLR,M,M,M,M,M,M,M,M,M,M,M,M,M,M,93.89,KBAM 290015Z AUTO 33019G24KT 10SM CLR 37/04 A2999 RMK AO1,M
CXP,2022-07-29 00:30,-119.7326,39.1923,1431.00,98.60,26.60,7.80,320.00,8.00,0.00,30.05,M,10.00,15.00,CLR,M,M,M,M,M,M,M,M,M,M,M,M,M,M,92.07,KCXP 290030Z AUTO 32008G15KT 10SM CLR 37/M03 A3005 RMK AO2,M
BVU,2022-07-29 00:35,-114.8611,35.9475,671.00,M,M,M,M,M,0.00,M,M,M,M,M,M,M,M,M,M,M,M,M,M,M,M,M,M,M,M,KBVU 290035Z AUTO RMK AO2 PNO PWINO TSNO,M
RTS,2022-07-29 00:35,-119.8764,39.6682,1539.00,96.80,21.20,6.57,30.00,11.00,0.00,30.08,M,10.00,18.00,CLR,M,M,M,M,M,M,M,M,M,M,M,M,M,M,90.11,KRTS 290035Z AUTO 03011G18KT 10SM CLR 36/M06 A3008 RMK AO2,M
MEV,2022-07-29 00:35,-119.7500,38.9963,1441.42,98.60,30.20,9.04,340.00,14.00,0.00,30.03,M,10.00,M,CLR,M,M,M,M,M,M,M,M,M,M,M,M,M,M,92.46,KMEV 290035Z AUTO 34014KT 10SM CLR 37/M01 A3003 RMK AO2,M
BAM,2022-07-29 00:35,-116.8743,40.5990,1382.36,98.60,37.40,12.05,310.00,12.00,0.00,29.99,M,10.00,21.00,CLR,M,M,M,M,M,M,M,M,M,M,M,M,M,M,93.54,KBAM 290035Z AUTO 31012G21KT 10SM CLR 37/03 A2999 RMK AO1,M
HTH,2022-07-29 00:35,-118.6315,38.5448,1282.89,100.40,28.40,7.95,320.00,12.00,0.00,29.97,M,10.00,19.00,CLR,M,M,M,M,M,M,M,M,M,M,M,M,M,M,93.77,KHTH 290035Z AUTO 32012G19KT 10SM CLR 38/M02 A2997 RMK A01,M
TMT,2022-07-29 00:35,-117.1971,39.4643,1749.34,M,M,M,310.00,13.00,0.00,30.10,M,10.00,16.00,CLR,M,M,M,M,M,M,M,M,M,M,M,M,M,M,M,KTMT 290035Z AUTO 31013G16KT 10SM CLR A3010 RMK AO2,M
LOL,2022-07-29 00:53,-118.5701,40.0684,1192.43,102.00,24.10,6.34,340.00,8.00,0.00,29.94,1008.40,10.00,M,CLR,M,M,M,M,M,M,M,M,M,M,M,M,M,M,94.68,KLOL 290053Z AUTO 34008KT 10SM CLR 39/M04 A2994 RMK AO2 SLP084 T03891044,M
P68,2022-07-29 00:53,-116.0056,39.6014,1993.00,88.00,34.00,14.64,20.00,6.00,0.00,30.09,1009.80,M,M,M,M,M,M,M,M,M,M,M,M,M,M,M,M,M,84.26,KP68 290053Z AUTO 02006KT 31/01 A3009 RMK AO1 SLP098 T03110011,M
VGT,2022-07-29 00:53,-115.1933,36.2111,667.00,100.00,56.00,23.23,M,M,0.00,29.82,1008.30,10.00,M,CLR,M,M,M,M,M,M,M,M,M,M,M,M,M,M,98.81,KVGT 290053Z 10SM CLR 38/13 A2982 RMK AO2 SLP083 T03780133,M
ELY,2022-07-29 00:53,-114.8453,39.2950,1909.00,85.00,36.00,17.50,190.00,5.00,0.00,30.11,1009.40,10.00,M,CLR,M,M,M,M,M,M,M,M,M,M,M,M,M,M,81.86,KELY 290053Z AUTO 19005KT 10SM CLR 29/02 A3011 RMK AO2 SLP094 T02940022 $,M
DRA,2022-07-29 00:53,-116.0278,36.6206,1009.00,97.00,45.00,16.98,330.00,22.00,0.00,29.89,1006.70,10.00,32.00,FEW,M,M,M,10000.00,M,M,M,M,M,M,M,32.00,320.00,2022-07-29 00:46,93.04,KDRA 290053Z AUTO 33022G32KT 10SM FEW100 36/07 A2989 RMK AO2 PK WND 32032/0046 SLP067 T03610072,M
BAM,2022-07-29 00:55,-116.8743,40.5990,1382.36,98.60,39.20,12.94,320.00,12.00,0.00,29.99,M,10.00,17.00,CLR,M,M,M,M,M,M,M,M,M,M,M,M,M,M,93.89,KBAM 290055Z AUTO 32012G17KT 10SM CLR 37/04 A2999 RMK AO1,M
RNO,2022-07-29 00:55,-119.7711,39.4839,1341.00,98.00,32.00,9.87,40.00,7.00,0.00,30.00,1009.10,10.00,M,FEW,M,M,M,15000.00,M,M,M,M,M,M,M,M,M,M,92.27,KRNO 290055Z 04007KT 10SM FEW150 37/00 A3000 RMK AO2 SLP091 T03670000,M
BVU,2022-07-29 00:55,-114.8611,35.9475,671.00,M,M,M,M,M,0.00,M,M,M,M,M,M,M,M,M,M,M,M,M,M,M,M,M,M,M,M,KBVU 290055Z AUTO RMK AO2 PNO PWINO TSNO,M
CXP,2022-07-29 00:55,-119.7326,39.1923,1431.00,98.60,26.60,7.80,320.00,13.00,0.00,30.04,M,10.00,M,CLR,M,M,M,M,M,M,M,M,M,M,M,M,M,M,92.07,KCXP 290055Z AUTO 32013KT 10SM CLR 37/M03 A3004 RMK AO2,M
RTS,2022-07-29 00:55,-119.8764,39.6682,1539.00,96.80,21.20,6.57,320.00,15.00,0.00,30.08,M,10.00,20.00,CLR,M,M,M,M,M,M,M,M,M,M,M,M,M,M,90.11,KRTS 290055Z AUTO 32015G20KT 10SM CLR 36/M06 A3008 RMK AO2,M
MEV,2022-07-29 00:55,-119.7500,38.9963,1441.42,98.60,28.40,8.40,330.00,13.00,0.00,30.03,M,10.00,18.00,CLR,M,M,M,M,M,M,M,M,M,M,M,M,M,M,92.25,KMEV 290055Z AUTO 33013G18KT 10SM CLR 37/M02 A3003 RMK AO2,M
HTH,2022-07-29 00:55,-118.6315,38.5448,1282.89,100.40,28.40,7.95,360.00,13.00,0.00,29.97,M,10.00,M,CLR,M,M,M,M,M,M,M,M,M,M,M,M,M,M,93.77,KHTH 290055Z AUTO 36013KT 10SM CLR 38/M02 A2997 RMK A01,M
TMT,2022-07-29 00:55,-117.1971,39.4643,1749.34,M,M,M,330.00,9.00,0.00,30.10,M,10.00,M,CLR,M,M,M,M,M,M,M,M,M,M,M,M,M,M,M,KTMT 290055Z AUTO 33009KT 10SM CLR A3010 RMK AO2,M
TPH,2022-07-29 00:56,-117.0904,38.0505,1654.00,95.00,26.10,8.53,330.00,8.00,0.00,30.03,1007.80,10.00,M,CLR,M,M,M,M,M,M,M,M,M,M,M,26.00,330.00,2022-07-29 00:21,89.03,KTPH 290056Z AUTO 33008KT 10SM CLR 35/M03 A3003 RMK AO2 PK WND 33026/0021 SLP078 T03501033,M
WMC,2022-07-29 00:56,-117.8072,40.9019,1315.00,101.00,41.00,12.94,50.00,13.00,0.00,29.98,1009.10,10.00,19.00,CLR,M,M,M,M,M,M,M,M,M,M,M,M,M,M,96.25,KWMC 290056Z AUTO 05013G19KT 10SM CLR 38/05 A2998 RMK AO2 SLP091 T03830050,M
NFL,2022-07-29 00:56,-118.7010,39.4166,1199.00,103.00,23.00,5.90,10.00,9.00,0.00,29.94,1011.00,10.00,M,SCT,M,M,M,10000.00,M,M,M,M,M,M,M,M,M,M,95.33,KNFL 290056Z 01009KT 10SM SCT100 39/M05 A2994 RMK AO2 SLP110 T03941050,M
EKO,2022-07-29 00:56,-115.7860,40.8242,1367.00,86.00,49.00,27.74,270.00,15.00,T,30.01,1010.10,10.00,30.00,FEW,FEW,M,M,4300.00,6000.00,M,M,-RA,M,M,M,30.00,310.00,2022-07-29 00:47,83.48,KEKO 290056Z AUTO 27015G30KT 10SM -RA FEW043 FEW060 30/09 A3001 RMK AO2 PK WND 31030/0047 RAB38 SLP101 P0000 T03000094,M
HND,2022-07-29 00:56,-115.1344,35.9729,742.79,100.00,61.00,27.90,M,5.00,0.00,29.86,1009.40,10.00,19.00,CLR,M,M,M,M,M,M,M,M,M,M,M,M,M,M,101.12,KHND 290056Z VRB05G19KT 10SM CLR 38/16 A2986 RMK AO2 SLP094 T03780161,M
LAS,2022-07-29 00:56,-115.1634,36.0719,663.00,100.00,59.00,25.98,70.00,8.00,0.00,29.82,1006.90,10.00,M,FEW,FEW,SCT,M,12000.00,15000.00,20000.00,M,M,M,M,M,M,M,M,100.11,KLAS 290056Z 07008KT 10SM FEW120 FEW150 SCT200 38/15 A2982 RMK AO2 SLP069 CB DSNT NW-NE AND E-SE T03780150,M
INS,2022-07-29 00:58,-115.6733,36.5872,955.00,97.20,54.30,23.87,100.00,16.00,0.00,29.86,1005.90,10.00,M,OVC,M,M,M,18000.00,M,M,M,M,M,M,M,M,M,M,95.22,KINS 290058Z AUTO 10016KT 10SM OVC180 36/12 A2986 RMK AO2 SLP059 T03620124,M
LSV,2022-07-29 00:58,-115.0343,36.2362,570.00,100.00,57.70,24.87,70.00,4.00,0.00,29.79,1006.10,10.00,M,FEW,SCT,M,M,10000.00,18000.00,M,M,M,M,M,M,M,M,M,99.42,KLSV 290058Z COR 07004KT 10SM FEW100 SCT180 38/14 A2979 RMK AO2A SLP061 T03770143 $ COR 0108,M
EKO,2022-07-29 01:05,-115.7860,40.8242,1367.00,88.00,40.00,18.47,270.00,25.00,T,30.02,M,10.00,40.00,FEW,FEW,SCT,M,4800.00,7000.00,10000.00,M,-RA,M,M,M,40.00,240.00,2022-07-29 00:59,84.41,KEKO 290105Z AUTO 27025G40KT 10SM -RA FEW048 FEW070 SCT100 31/04 A3002 RMK AO2 PK WND 24040/0059 WSHFT 0045 P0000 T03110044,M
WMC,2022-07-29 01:11,-117.8072,40.9019,1315.00,100.00,41.00,13.30,60.00,11.00,0.00,29.98,M,10.00,M,CLR,M,M,M,M,M,M,M,M,M,M,M,M,M,M,95.42,KWMC 290111Z AUTO 06011KT 10SM CLR 38/05 A2998 RMK AO2 WSHFT 0051 T03780050,M
RTS,2022-07-29 01:15,-119.8764,39.6682,1539.00,96.80,21.20,6.57,330.00,13.00,0.00,30.08,M,10.00,18.00,CLR,M,M,M,M,M,M,M,M,M,M,M,M,M,M,90.11,KRTS 290115Z AUTO 33013G18KT 10SM CLR 36/M06 A3008 RMK AO2,M
CXP,2022-07-29 01:15,-119.7326,39.1923,1431.00,96.80,24.80,7.65,340.00,9.00,0.00,30.04,M,10.00,14.00,CLR,M,M,M,M,M,M,M,M,M,M,M,M,M,M,90.40,KCXP 290115Z AUTO 34009G14KT 10SM CLR 36/M04 A3004 RMK AO2,M
BAM,2022-07-29 01:15,-116.8743,40.5990,1382.36,98.60,39.20,12.94,300.00,13.00,0.00,29.99,M,10.00,18.00,CLR,M,M,M,M,M,M,M,M,M,M,M,M,M,M,93.89,KBAM 290115Z AUTO 30013G18KT 10SM CLR 37/04 A2999 RMK AO1,M
BVU,2022-07-29 01:15,-114.8611,35.9475,671.00,M,M,M,M,M,0.00,M,M,M,M,M,M,M,M,M,M,M,M,M,M,M,M,M,M,M,M,KBVU 290115Z AUTO RMK AO2 PNO PWINO TSNO,M
TMT,2022-07-29 01:15,-117.1971,39.4643,1749.34,M,M,M,340.00,11.00,0.00,30.10,M,10.00,17.00,CLR,M,M,M,M,M,M,M,M,M,M,M,M,M,M,M,KTMT 290115Z AUTO 34011G17KT 10SM CLR A3010 RMK AO2,M
MEV,2022-07-29 01:15,-119.7500,38.9963,1441.42,96.80,28.40,8.87,330.00,13.00,0.00,30.03,M,10.00,18.00,CLR,M,M,M,M,M,M,M,M,M,M,M,M,M,M,90.75,KMEV 290115Z AUTO 33013G18KT 10SM CLR 36/M02 A3003 RMK AO2,M
HTH,2022-07-29 01:15,-118.6315,38.5448,1282.89,98.60,28.40,8.40,340.00,15.00,0.00,29.96,M,10.00,M,CLR,M,M,M,M,M,M,M,M,M,M,M,M,M,M,92.25,KHTH 290115Z AUTO 34015KT 10SM CLR 37/M02 A2996 RMK A01,M
HTH,2022-07-29 01:35,-118.6315,38.5448,1282.89,96.80,28.40,8.87,330.00,10.00,0.00,29.96,M,10.00,M,CLR,M,M,M,M,M,M,M,M,M,M,M,M,M,M,90.75,KHTH 290135Z AUTO 33010KT 10SM CLR 36/M02 A2996 RMK A01,M
TMT,2022-07-29 01:35,-117.1971,39.4643,1749.34,M,M,M,320.00,10.00,0.00,30.10,M,10.00,M,CLR,M,M,M,M,M,M,M,M,M,M,M,M,M,M,M,KTMT 290135Z AUTO 32010KT 10SM CLR A3010 RMK AO2,M
MEV,2022-07-29 01:35,-119.7500,38.9963,1441.42,96.80,26.60,8.24,340.00,12.00,0.00,30.03,M,10.00,M,CLR,M,M,M,M,M,M,M,M,M,M,M,M,M,M,90.57,KMEV 290135Z AUTO 34012KT 10SM CLR 36/M03 A3003 RMK AO2,M
RTS,2022-07-29 01:35,-119.8764,39.6682,1539.00,95.00,23.00,7.49,360.00,15.00,0.00,30.08,M,10.00,M,CLR,M,M,M,M,M,M,M,M,M,M,M,M,M,M,88.76,KRTS 290135Z AUTO 36015KT 10SM CLR 35/M05 A3008 RMK AO2,M
CXP,2022-07-29 01:35,-119.7326,39.1923,1431.00,96.80,24.80,7.65,320.00,6.00,0.00,30.04,M,10.00,M,CLR,M,M,M,M,M,M,M,M,M,M,M,M,M,M,90.40,KCXP 290135Z AUTO 32006KT 10SM CLR 36/M04 A3004 RMK AO2,M
BVU,2022-07-29 01:35,-114.8611,35.9475,671.00,M,M,M,M,M,0.00,M,M,M,M,M,M,M,M,M,M,M,M,M,M,M,M,M,M,M,M,KBVU 290135Z AUTO RMK AO2 PNO PWINO TSNO,M
BAM,2022-07-29 01:35,-116.8743,40.5990,1382.36,93.20,42.80,17.55,20.00,26.00,0.00,29.99,M,5.00,37.00,CLR,M,M,M,M,M,M,M,M,M,M,M,M,M,M,89.17,KBAM 290135Z AUTO 02026G37KT 5SM CLR 34/06 A2999 RMK AO1,M
WMC,2022-07-29 01:47,-117.8072,40.9019,1315.00,96.00,41.00,14.97,50.00,17.00,0.00,29.99,M,10.00,29.00,CLR,M,M,M,M,M,M,M,M,M,M,M,29.00,20.00,2022-07-29 01:41,91.73,KWMC 290147Z AUTO 05017G29KT 10SM CLR 36/05 A2999 RMK AO2 PK WND 02029/0141 WSHFT 0127 T03560050,M
VGT,2022-07-29 01:53,-115.1933,36.2111,667.00,99.00,56.00,23.95,100.00,7.00,0.00,29.81,1008.10,10.00,M,CLR,M,M,M,M,M,M,M,M,M,M,M,M,M,M,97.71,KVGT 290153Z 10007KT 10SM CLR 37/13 A2981 RMK AO2 SLP081 T03720133,M
DRA,2022-07-29 01:53,-116.0278,36.6206,1009.00,99.00,38.00,12.15,100.00,6.00,0.00,29.86,1005.50,10.00,M,CLR,M,M,M,M,M,M,M,M,M,M,M,27.00,320.00,2022-07-29 00:55,93.98,KDRA 290153Z AUTO 10006KT 10SM CLR 37/03 A2986 RMK AO2 PK WND 32027/0055 SLP055 T03720033,M
P68,2022-07-29 01:53,-116.0056,39.6014,1993.00,88.00,36.00,15.85,360.00,9.00,0.00,30.08,1009.40,M,M,M,M,M,M,M,M,M,M,M,M,M,M,M,M,M,84.29,KP68 290153Z AUTO 36009KT 31/02 A3008 RMK AO1 SLP094 T03110022,M
ELY,2022-07-29 01:53,-114.8453,39.2950,1909.00,83.00,39.00,21.00,180.00,5.00,0.00,30.11,1009.00,10.00,M,CLR,M,M,M,M,M,M,M,M,M,M,M,M,M,M,80.53,KELY 290153Z AUTO 18005KT 10SM CLR 28/04 A3011 RMK AO2 SLP090 T02830039 $,M
LOL,2022-07-29 01:53,-118.5701,40.0684,1192.43,100.00,23.00,6.43,350.00,13.00,0.00,29.93,1008.60,10.00,M,CLR,M,M,M,M,M,M,M,M,M,M,M,M,M,M,92.91,KLOL 290153Z AUTO 35013KT 10SM CLR 38/M05 A2993 RMK AO2 SLP086 T03781050,M
HTH,2022-07-29 01:55,-118.6315,38.5448,1282.89,96.80,33.80,11.04,330.00,7.00,0.00,29.97,M,10.00,M,CLR,M,M,M,M,M,M,M,M,M,M,M,M,M,M,91.44,KHTH 290155Z AUTO 33007KT 10SM CLR 36/01 A2997 RMK A01,M
BVU,2022-07-29 01:55,-114.8611,35.9475,671.00,M,M,M,M,M,0.00,M,M,M,M,M,M,M,M,M,M,M,M,M,M,M,M,M,M,M,M,KBVU 290155Z AUTO RMK AO2 PNO PWINO TSNO,M
CXP,2022-07-29 01:55,-119.7326,39.1923,1431.00,96.80,26.60,8.24,330.00,10.00,0.00,30.04,M,10.00,M,CLR,M,M,M,M,M,M,M,M,M,M,M,M,M,M,90.57,KCXP 290155Z AUTO 33010KT 10SM CLR 36/M03 A3004 RMK AO2,M
TMT,2022-07-29 01:55,-117.1971,39.4643,1749.34,M,M,M,330.00,9.00,0.00,30.10,M,10.00,M,CLR,M,M,M,M,M,M,M,M,M,M,M,M,M,M,M,KTMT 290155Z AUTO 33009KT 10SM CLR A3010 RMK AO2,M
RNO,2022-07-29 01:55,-119.7711,39.4839,1341.00,100.00,30.00,8.59,350.00,12.00,0.00,29.99,1008.60,10.00,21.00,FEW,M,M,M,15000.00,M,M,M,M,M,M,M,M,M,M,93.61,KRNO 290155Z 35012G21KT 10SM FEW150 38/M01 A2999 RMK AO2 SLP086 T03781011,M
RTS,2022-07-29 01:55,-119.8764,39.6682,1539.00,93.20,21.20,7.34,330.00,11.00,0.00,30.08,M,10.00,17.00,CLR,M,M,M,M,M,M,M,M,M,M,M,M,M,M,87.29,KRTS 290155Z AUTO 33011G17KT 10SM CLR 34/M06 A3008 RMK AO2,M
MEV,2022-07-29 01:55,-119.7500,38.9963,1441.42,96.80,24.80,7.65,340.00,10.00,0.00,30.03,M,10.00,M,CLR,M,M,M,M,M,M,M,M,M,M,M,M,M,M,90.40,KMEV 290155Z AUTO 34010KT 10SM CLR 36/M04 A3003 RMK AO2,M
BAM,2022-07-29 01:55,-116.8743,40.5990,1382.36,93.20,39.20,15.27,40.00,15.00,0.00,30.01,M,10.00,24.00,CLR,M,M,M,M,M,M,M,M,M,M,M,M,M,M,88.92,KBAM 290155Z AUTO 04015G24KT 10SM CLR 34/04 A3001 RMK AO1,M
NFL,2022-07-29 01:56,-118.7010,39.4166,1199.00,101.00,24.10,6.56,20.00,10.00,0.00,29.93,1010.80,10.00,M,SCT,M,M,M,10000.00,M,M,M,M,M,M,M,M,M,M,93.76,KNFL 290156Z 02010KT 10SM SCT100 38/M04 A2993 RMK AO2 SLP108 T03831044,M
TPH,2022-07-29 01:56,-117.0904,38.0505,1654.00,95.00,26.10,8.53,360.00,13.00,0.00,30.04,1007.40,10.00,21.00,CLR,M,M,M,M,M,M,M,M,M,M,M,M,M,M,89.03,KTPH 290156Z AUTO 36013G21KT 10SM CLR 35/M03 A3004 RMK AO2 SLP074 T03501033,M
LAS,2022-07-29 01:56,-115.1634,36.0719,663.00,99.00,57.00,24.92,70.00,8.00,0.00,29.82,1006.80,10.00,M,FEW,FEW,SCT,M,12000.00,15000.00,20000.00,M,M,M,M,M,M,M,M,98.12,KLAS 290156Z 07008KT 10SM FEW120 FEW150 SCT200 37/14 A2982 RMK AO2 SLP068 CB DSNT NW-NE AND E-SE T03720139,M
WMC,2022-07-29 01:56,-117.8072,40.9019,1315.00,95.00,40.00,14.84,60.00,16.00,0.00,29.99,1009.70,10.00,25.00,CLR,M,M,M,M,M,M,M,M,M,M,M,29.00,20.00,2022-07-29 01:41,90.61,KWMC 290156Z AUTO 06016G25KT 10SM CLR 35/04 A2999 RMK AO2 PK WND 02029/0141 WSHFT 0141 SLP097 T03500044,M
HND,2022-07-29 01:56,-115.1344,35.9729,742.79,98.00,60.00,28.62,80.00,7.00,0.00,29.86,1009.40,10.00,M,CLR,M,M,M,M,M,M,M,M,M,M,M,M,M,M,98.47,KHND 290156Z 08007KT 10SM CLR 37/16 A2986 RMK AO2 SLP094 T03670156,M
EKO,2022-07-29 01:56,-115.7860,40.8242,1367.00,90.00,38.00,16.04,120.00,7.00,T,30.03,1010.60,10.00,25.00,FEW,M,M,M,11000.00,M,M,M,M,M,M,M,40.00,240.00,2022-07-29 00:59,86.03,KEKO 290156Z AUTO 12007G25KT 10SM FEW110 32/03 A3003 RMK AO2 PK WND 24040/0059 WSHFT 0045 RAE43 SLP106 P0000 T03220033,M
INS,2022-07-29 01:58,-115.6733,36.5872,955.00,95.00,54.70,25.91,110.00,16.00,0.00,29.86,1005.90,10.00,M,BKN,OVC,M,M,15000.00,18000.00,M,M,M,M,M,M,M,M,M,93.01,KINS 290158Z AUTO 11016KT 10SM BKN150 OVC180 35/13 A2986 RMK AO2 SLP059 T03500126,M
LSV,2022-07-29 01:58,-115.0343,36.2362,570.00,98.40,57.60,25.93,80.00,5.00,0.00,29.79,1006.20,10.00,M,FEW,SCT,M,M,10000.00,18000.00,M,M,M,M,M,M,M,M,M,97.70,KLSV 290158Z 08005KT 10SM FEW100 SCT180 37/14 A2979 RMK AO2A SLP062 T03690142 $,M
WMC,2022-07-29 02:03,-117.8072,40.9019,1315.00,95.00,40.00,14.84,60.00,17.00,0.00,29.99,M,10.00,26.00,CLR,M,M,M,M,M,M,M,M,M,M,M,26.00,70.00,2022-07-29 01:59,90.61,KWMC 290203Z AUTO 06017G26KT 10SM CLR 35/04 A2999 RMK AO2 PK WND 07026/0159 WSHFT 0143 T03500044,M
RNO,2022-07-29 02:03,-119.7711,39.4839,1341.00,100.00,30.90,8.91,350.00,12.00,0.00,30.00,M,10.00,M,FEW,M,M,M,15000.00,M,M,M,M,M,M,M,M,M,M,93.73,KRNO 290203Z COR 35012KT 10SM FEW150 38/M01 A3000 RMK AO2 WSHFT 0143 T03781006,M
TMT,2022-07-29 02:15,-117.1971,39.4643,1749.34,M,M,M,20.00,8.00,0.00,30.10,M,10.00,15.00,CLR,M,M,M,M,M,M,M,M,M,M,M,M,M,M,M,KTMT 290215Z AUTO 02008G15KT 10SM CLR A3010 RMK AO2,M
BVU,2022-07-29 02:15,-114.8611,35.9475,671.00,M,M,M,M,M,0.00,M,M,M,M,M,M,M,M,M,M,M,M,M,M,M,M,M,M,M,M,KBVU 290215Z AUTO RMK AO2 PNO PWINO TSNO,M
CXP,2022-07-29 02:15,-119.7326,39.1923,1431.00,96.80,26.60,8.24,20.00,9.00,0.00,30.04,M,10.00,M,CLR,M,M,M,M,M,M,M,M,M,M,M,M,M,M,90.57,KCXP 290215Z AUTO 02009KT 10SM CLR 36/M03 A3004 RMK AO2,M
RTS,2022-07-29 02:15,-119.8764,39.6682,1539.00,93.20,23.00,7.92,350.00,11.00,0.00,30.08,M,10.00,M,CLR,M,M,M,M,M,M,M,M,M,M,M,M,M,M,87.42,KRTS 290215Z AUTO 35011KT 10SM CLR 34/M05 A3008 RMK AO2,M
MEV,2022-07-29 02:15,-119.7500,38.9963,1441.42,93.20,32.00,11.48,310.00,8.00,0.00,30.03,M,10.00,M,CLR,M,M,M,M,M,M,M,M,M,M,M,M,M,M,88.31,KMEV 290215Z AUTO 31008KT 10SM CLR 34/M00 A3003 RMK AO2,M
BAM,2022-07-29 02:15,-116.8743,40.5990,1382.36,91.40,37.40,15.05,40.00,11.00,0.00,30.02,M,10.00,17.00,CLR,M,M,M,M,M,M,M,M,M,M,M,M,M,M,87.23,KBAM 290215Z AUTO 04011G17KT 10SM CLR 33/03 A3002 RMK AO1,M
HTH,2022-07-29 02:15,-118.6315,38.5448,1282.89,96.80,39.20,13.66,320.00,8.00,0.00,29.96,M,10.00,M,CLR,M,M,M,M,M,M,M,M,M,M,M,M,M,M,92.23,KHTH 290215Z AUTO 32008KT 10SM CLR 36/04 A2996 RMK A01,M
DRA,2022-07-29 02:20,-116.0278,36.6206,1009.00,97.00,48.00,19.02,170.00,8.00,0.00,29.85,M,10.00,M,CLR,M,M,M,M,M,M,M,M,M,M,M,M,M,M,93.52,KDRA 290220Z AUTO 17008KT 10SM CLR 36/09 A2985 RMK AO2 WSHFT 0203 T03610089,M
BAM,2022-07-29 02:35,-116.8743,40.5990,1382.36,91.40,37.40,15.05,350.00,6.00,0.00,30.03,M,10.00,M,CLR,M,M,M,M,M,M,M,M,M,M,M,M,M,M,87.23,KBAM 290235Z AUTO 35006KT 10SM CLR 33/03 A3003 RMK AO1,M
HTH,2022-07-29 02:35,-118.6315,38.5448,1282.89,96.80,32.00,10.27,340.00,10.00,0.00,29.97,M,10.00,M,CLR,M,M,M,M,M,M,M,M,M,M,M,M,M,M,91.19,KHTH 290235Z AUTO 34010KT 10SM CLR 36/00 A2997 RMK A01,M
TMT,2022-07-29 02:35,-117.1971,39.4643,1749.34,M,M,M,40.00,7.00,0.00,30.11,M,10.00,M,CLR,M,M,M,M,M,M,M,M,M,M,M,M,M,M,M,KTMT 290235Z AUTO 04007KT 10SM CLR A3011 RMK AO2,M
BVU,2022-07-29 02:35,-114.8611,35.9475,671.00,M,M,M,M,M,0.00,M,M,M,M,M,M,M,M,M,M,M,M,M,M,M,M,M,M,M,M,KBVU 290235Z AUTO RMK AO2 PNO PWINO TSNO,M
CXP,2022-07-29 02:35,-119.7326,39.1923,1431.00,95.00,24.80,8.08,20.00,8.00,0.00,30.04,M,10.00,M,CLR,M,M,M,M,M,M,M,M,M,M,M,M,M,M,88.91,KCXP 290235Z AUTO 02008KT 10SM CLR 35/M04 A3004 RMK AO2,M
MEV,2022-07-29 02:35,-119.7500,38.9963,1441.42,91.40,37.40,15.05,290.00,5.00,0.00,30.03,M,10.00,M,CLR,M,M,M,M,M,M,M,M,M,M,M,M,M,M,87.23,KMEV 290235Z AUTO 29005KT 10SM CLR 33/03 A3003 RMK AO2,M
RTS,2022-07-29 02:35,-119.8764,39.6682,1539.00,91.40,23.00,8.38,350.00,12.00,0.00,30.08,M,10.00,M,CLR,M,M,M,M,M,M,M,M,M,M,M,M,M,M,86.08,KRTS 290235Z AUTO 35012KT 10SM CLR 33/M05 A3008 RMK AO2,M
DRA,2022-07-29 02:53,-116.0278,36.6206,1009.00,96.00,47.00,18.76,230.00,6.00,0.00,29.85,1005.30,10.00,M,CLR,M,M,M,M,M,M,M,M,M,M,M,M,M,M,92.44,KDRA 290253Z AUTO 23006KT 10SM CLR 36/08 A2985 RMK AO2 WSHFT 0203 SLP053 T03560083 58007,M
P68,2022-07-29 02:53,-116.0056,39.6014,1993.00,84.00,33.00,16.04,330.00,8.00,0.00,30.10,1009.20,M,M,M,M,M,M,M,M,M,M,M,M,M,M,M,M,M,81.14,KP68 290253Z AUTO 33008KT 29/01 A3010 RMK AO1 SLP092 T02890006 53002,M
VGT,2022-07-29 02:53,-115.1933,36.2111,667.00,98.00,56.00,24.61,80.00,9.00,0.00,29.81,1008.10,10.00,M,CLR,M,M,M,M,M,M,M,M,M,M,M,M,M,M,96.72,KVGT 290253Z 08009KT 10SM CLR 37/13 A2981 RMK AO2 SLP081 T03670133 51001,M
ELY,2022-07-29 02:53,-114.8453,39.2950,1909.00,74.00,39.00,28.25,160.00,5.00,0.00,30.13,1009.70,10.00,M,CLR,M,M,M,M,M,M,M,M,M,M,M,M,M,M,73.90,KELY 290253Z AUTO 16005KT 10SM CLR 23/04 A3013 RMK AO2 SLP097 T02330039 53004 $,M
LOL,2022-07-29 02:53,-118.5701,40.0684,1192.43,96.00,27.00,8.56,20.00,7.00,0.00,29.94,1008.30,10.00,M,CLR,M,M,M,M,M,M,M,M,M,M,M,M,M,M,90.03,KLOL 290253Z AUTO 02007KT 10SM CLR 36/M03 A2994 RMK AO2 SLP083 T03561028 55002,M
CXP,2022-07-29 02:55,-119.7326,39.1923,1431.00,93.20,24.80,8.54,360.00,5.00,0.00,30.04,M,10.00,M,CLR,M,M,M,M,M,M,M,M,M,M,M,M,M,M,87.56,KCXP 290255Z AUTO 36005KT 10SM CLR 34/M04 A3004 RMK AO2,M
RTS,2022-07-29 02:55,-119.8764,39.6682,1539.00,89.60,23.00,8.87,340.00,7.00,0.00,30.08,M,10.00,M,CLR,M,M,M,M,M,M,M,M,M,M,M,M,M,M,84.75,KRTS 290255Z AUTO 34007KT 10SM CLR 32/M05 A3008 RMK AO2,M
HTH,2022-07-29 02:55,-118.6315,38.5448,1282.89,95.00,24.80,8.08,10.00,12.00,0.00,29.97,M,10.00,17.00,CLR,M,M,M,M,M,M,M,M,M,M,M,M,M,M,88.91,KHTH 290255Z AUTO 01012G17KT 10SM CLR 35/M04 A2997 RMK A01,M
BAM,2022-07-29 02:55,-116.8743,40.5990,1382.36,89.60,37.40,15.92,340.00,8.00,0.00,30.03,M,10.00,M,CLR,M,M,M,M,M,M,M,M,M,M,M,M,M,M,85.67,KBAM 290255Z AUTO 34008KT 10SM CLR 32/03 A3003 RMK AO1,M
RNO,2022-07-29 02:55,-119.7711,39.4839,1341.00,96.00,30.90,10.04,330.00,10.00,0.00,30.00,1008.80,10.00,M,FEW,M,M,M,14000.00,M,M,M,M,M,M,M,M,M,M,90.46,KRNO 290255Z 33010KT 10SM FEW140 36/M01 A3000 RMK AO2 WSHFT 0143 SLP088 T03561006 55002,M
TMT,2022-07-29 02:55,-117.1971,39.4643,1749.34,M,M,M,10.00,6.00,0.00,30.11,M,10.00,M,CLR,M,M,M,M,M,M,M,M,M,M,M,M,M,M,M,KTMT 290255Z AUTO 01006KT 10SM CLR A3011 RMK AO2,M
MEV,2022-07-29 02:55,-119.7500,38.9963,1441.42,87.80,35.60,15.70,290.00,6.00,0.00,30.04,M,10.00,M,CLR,M,M,M,M,M,M,M,M,M,M,M,M,M,M,84.12,KMEV 290255Z AUTO 29006KT 10SM CLR 31/02 A3004 RMK AO2,M
BVU,2022-07-29 02:55,-114.8611,35.9475,671.00,M,M,M,M,M,0.00,M,M,M,M,M,M,M,M,M,M,M,M,M,M,M,M,M,M,M,M,KBVU 290255Z AUTO RMK AO2 PNO PWINO TSNO,M
HND,2022-07-29 02:56,-115.1344,35.9729,742.79,95.00,65.00,37.27,160.00,15.00,0.00,29.86,1009.70,10.00,20.00,CLR,M,M,M,M,M,M,M,M,M,M,M,M,M,M,97.58,KHND 290256Z 16015G20KT 10SM CLR 35/18 A2986 RMK AO2 SLP097 T03500183 51002,M
NFL,2022-07-29 02:56,-118.7010,39.4166,1199.00,93.00,30.00,10.65,10.00,5.00,0.00,29.93,1010.90,10.00,M,FEW,M,M,M,12000.00,M,M,M,M,M,M,M,M,M,M,87.91,KNFL 290256Z 01005KT 10SM FEW120 34/M01 A2993 RMK AO2 SLP109 T03391011 55002,M
LAS,2022-07-29 02:56,-115.1634,36.0719,663.00,97.00,57.00,26.49,80.00,9.00,0.00,29.82,1006.90,10.00,M,FEW,FEW,BKN,M,12000.00,15000.00,22000.00,M,M,M,M,M,M,M,M,95.92,KLAS 290256Z 08009KT 10SM FEW120 FEW150 BKN220 36/14 A2982 RMK AO2 SLP069 ACC N CB DSNT NW-NE AND E-SE T03610139 50001,M
TPH,2022-07-29 02:56,-117.0904,38.0505,1654.00,92.00,27.00,9.75,10.00,9.00,0.00,30.05,1007.30,10.00,M,CLR,M,M,M,M,M,M,M,M,M,M,M,M,M,M,86.77,KTPH 290256Z AUTO 01009KT 10SM CLR 33/M03 A3005 RMK AO2 SLP073 T03331028 53002,M
WMC,2022-07-29 02:56,-117.8072,40.9019,1315.00,92.00,39.00,15.77,70.00,9.00,0.00,30.00,1009.80,10.00,M,CLR,M,M,M,M,M,M,M,M,M,M,M,26.00,70.00,2022-07-29 01:59,87.74,KWMC 290256Z AUTO 07009KT 10SM CLR 33/04 A3000 RMK AO2 PK WND 07026/0159 WSHFT 0143 SLP098 T03330039 53004,M
EKO,2022-07-29 02:56,-115.7860,40.8242,1367.00,86.00,39.00,19.01,130.00,12.00,0.00,30.05,1010.80,10.00,23.00,CLR,M,M,M,M,M,M,M,M,M,M,M,34.00,140.00,2022-07-29 02:01,82.78,KEKO 290256Z AUTO 13012G23KT 10SM CLR 30/04 A3005 RMK AO2 PK WND 14034/0201 SLP108 60000 T03000039 53015,M
INS,2022-07-29 02:58,-115.6733,36.5872,955.00,92.30,53.40,26.86,100.00,27.00,0.00,29.87,1006.10,10.00,M,FEW,BKN,OVC,M,14000.00,18000.00,20000.00,M,M,M,M,M,30.00,100.00,2022-07-29 02:57,89.91,KINS 290258Z AUTO 10027KT 10SM FEW140 BKN180 OVC200 34/12 A2987 RMK AO2 PK WND 10030/57 LTG DSNT NE SLP061 T03350119 53002,M
LSV,2022-07-29 02:58,-115.0343,36.2362,570.00,96.00,60.30,30.83,70.00,7.00,0.00,29.80,1006.40,10.00,M,SCT,BKN,M,M,10000.00,18000.00,M,M,M,M,M,M,M,M,M,96.08,KLSV 290258Z 07007KT 10SM SCT100 BKN180 36/16 A2980 RMK AO2A SLP064 T03550157 50002 $,M
INS,2022-07-29 03:12,-115.6733,36.5872,955.00,91.40,53.60,27.83,90.00,26.00,0.00,29.91,1007.70,10.00,32.00,BKN,BKN,OVC,M,14000.00,18000.00,20000.00,M,M,M,M,M,M,M,M,89.08,KINS 290312Z AUTO 09026G32KT 10SM BKN140 BKN180 OVC200 33/12 A2991 RMK AO2 LTG DSNT NE PRESRR SLP077,M
BAM,2022-07-29 03:15,-116.8743,40.5990,1382.36,89.60,37.40,15.92,330.00,6.00,0.00,30.03,M,10.00,M,CLR,M,M,M,M,M,M,M,M,M,M,M,M,M,M,85.67,KBAM 290315Z AUTO 33006KT 10SM CLR 32/03 A3003 RMK AO1,M
MEV,2022-07-29 03:15,-119.7500,38.9963,1441.42,84.20,33.80,16.39,290.00,5.00,0.00,30.04,M,10.00,M,CLR,M,M,M,M,M,M,M,M,M,M,M,M,M,M,81.30,KMEV 290315Z AUTO 29005KT 10SM CLR 29/01 A3004 RMK AO2,M
RTS,2022-07-29 03:15,-119.8764,39.6682,1539.00,86.00,24.80,10.72,340.00,5.00,0.00,30.08,M,10.00,M,CLR,M,M,M,M,M,M,M,M,M,M,M,M,M,M,82.26,KRTS 290315Z AUTO 34005KT 10SM CLR 30/M04 A3008 RMK AO2,M
CXP,2022-07-29 03:15,-119.7326,39.1923,1431.00,89.60,32.00,12.84,350.00,5.00,0.00,30.05,M,10.00,M,CLR,M,M,M,M,M,M,M,M,M,M,M,M,M,M,85.54,KCXP 290315Z AUTO 35005KT 10SM CLR 32/00 A3005 RMK AO2,M
BVU,2022-07-29 03:15,-114.8611,35.9475,671.00,M,M,M,M,M,0.00,M,M,M,M,M,M,M,M,M,M,M,M,M,M,M,M,M,M,M,M,KBVU 290315Z AUTO RMK AO2 PNO PWINO TSNO,M
TMT,2022-07-29 03:15,-117.1971,39.4643,1749.34,M,M,M,350.00,7.00,0.00,30.12,M,10.00,M,CLR,M,M,M,M,M,M,M,M,M,M,M,M,M,M,M,KTMT 290315Z AUTO 35007KT 10SM CLR A3012 RMK AO2,M
HTH,2022-07-29 03:15,-118.6315,38.5448,1282.89,91.40,46.40,21.29,310.00,6.00,0.00,29.97,M,10.00,M,CLR,M,M,M,M,M,M,M,M,M,M,M,M,M,M,87.86,KHTH 290315Z AUTO 31006KT 10SM CLR 33/08 A2997 RMK A01,M
BAM,2022-07-29 03:35,-116.8743,40.5990,1382.36,86.00,37.40,17.85,360.00,3.00,0.00,30.04,M,10.00,M,CLR,M,M,M,M,M,M,M,M,M,M,M,M,M,M,82.73,KBAM 290335Z AUTO 36003KT 10SM CLR 30/03 A3004 RMK AO1,M
BVU,2022-07-29 03:35,-114.8611,35.9475,671.00,M,M,M,M,M,0.00,M,M,M,M,M,M,M,M,M,M,M,M,M,M,M,M,M,M,M,M,KBVU 290335Z AUTO RMK AO2 PNO PWINO TSNO,M
CXP,2022-07-29 03:35,-119.7326,39.1923,1431.00,86.00,33.80,15.48,330.00,7.00,0.00,30.05,M,10.00,M,CLR,M,M,M,M,M,M,M,M,M,M,M,M,M,M,82.66,KCXP 290335Z AUTO 33007KT 10SM CLR 30/01 A3005 RMK AO2,M
RTS,2022-07-29 03:35,-119.8764,39.6682,1539.00,82.40,24.80,12.03,360.00,7.00,0.00,30.09,M,10.00,M,CLR,M,M,M,M,M,M,M,M,M,M,M,M,M,M,79.79,KRTS 290335Z AUTO 36007KT 10SM CLR 28/M04 A3009 RMK AO2,M
MEV,2022-07-29 03:35,-119.7500,38.9963,1441.42,82.40,35.60,18.67,300.00,6.00,0.00,30.04,M,10.00,M,CLR,M,M,M,M,M,M,M,M,M,M,M,M,M,M,80.08,KMEV 290335Z AUTO 30006KT 10SM CLR 28/02 A3004 RMK AO2,M
HTH,2022-07-29 03:35,-118.6315,38.5448,1282.89,87.80,48.20,25.52,300.00,5.00,0.00,29.98,M,10.00,M,CLR,M,M,M,M,M,M,M,M,M,M,M,M,M,M,84.87,KHTH 290335Z AUTO 30005KT 10SM CLR 31/09 A2998 RMK A01,M
TMT,2022-07-29 03:35,-117.1971,39.4643,1749.34,M,M,M,340.00,6.00,0.00,30.12,M,10.00,M,CLR,M,M,M,M,M,M,M,M,M,M,M,M,M,M,M,KTMT 290335Z AUTO 34006KT 10SM CLR A3012 RMK AO2,M
P68,2022-07-29 03:53,-116.0056,39.6014,1993.00,76.00,33.00,20.92,330.00,7.00,0.00,30.12,1009.80,M,M,M,M,M,M,M,M,M,M,M,M,M,M,M,M,M,75.90,KP68 290353Z AUTO 33007KT 24/01 A3012 RMK AO1 SLP098 T02440006,M
DRA,2022-07-29 03:53,-116.0278,36.6206,1009.00,90.00,56.00,31.62,100.00,20.00,0.00,29.90,1007.10,10.00,37.00,CLR,M,M,M,M,M,M,M,M,M,M,M,37.00,90.00,2022-07-29 03:46,88.29,KDRA 290353Z AUTO 10020G37KT 10SM CLR 32/13 A2990 RMK AO2 PK WND 09037/0346 SLP071 T03220133,M
LOL,2022-07-29 03:53,-118.5701,40.0684,1192.43,89.00,30.90,12.48,20.00,8.00,0.00,29.95,1008.50,10.00,M,CLR,M,M,M,M,M,M,M,M,M,M,M,M,M,M,85.04,KLOL 290353Z AUTO 02008KT 10SM CLR 32/M01 A2995 RMK AO2 SLP085 T03171006,M
VGT,2022-07-29 03:53,-115.1933,36.2111,667.00,90.00,66.00,45.25,60.00,32.00,T,29.86,1010.00,8.00,42.00,BKN,OVC,M,M,9500.00,12000.00,M,M,-RA,M,M,M,42.00,60.00,2022-07-29 03:52,92.59,KVGT 290353Z AUTO 06032G42KT 8SM -RA BKN095 OVC120 32/19 A2986 RMK AO2 PK WND 06042/0352 LTG DSNT N RAB50 SLP100 P0000 T03220189,M
ELY,2022-07-29 03:53,-114.8453,39.2950,1909.00,73.00,39.00,29.12,170.00,5.00,0.00,30.14,1009.50,10.00,M,CLR,M,M,M,M,M,M,M,M,M,M,M,M,M,M,73.00,KELY 290353Z AUTO 17005KT 10SM CLR 23/04 A3014 RMK AO2 SLP095 T02280039 $,M
LSV,2022-07-29 03:53,-115.0343,36.2362,570.00,95.00,64.40,36.63,60.00,14.00,0.00,29.85,1008.10,10.00,18.00,BKN,M,M,M,10000.00,M,M,M,M,M,M,M,M,M,M,97.26,KLSV 290353Z 06014G18KT 10SM BKN100 35/18 A2985 RMK AO2A WSHFT 46 LTG DSNT NE-E SLP081 $,M
RTS,2022-07-29 03:55,-119.8764,39.6682,1539.00,80.60,24.80,12.76,360.00,8.00,0.00,30.09,M,10.00,M,CLR,M,M,M,M,M,M,M,M,M,M,M,M,M,M,78.94,KRTS 290355Z AUTO 36008KT 10SM CLR 27/M04 A3009 RMK AO2,M
BVU,2022-07-29 03:55,-114.8611,35.9475,671.00,M,M,M,M,M,0.00,M,M,M,M,M,M,M,M,M,M,M,M,M,M,M,M,M,M,M,M,KBVU 290355Z AUTO RMK AO2 PNO PWINO TSNO,M
CXP,2022-07-29 03:55,-119.7326,39.1923,1431.00,84.20,30.20,14.18,330.00,7.00,0.00,30.06,M,10.00,M,CLR,M,M,M,M,M,M,M,M,M,M,M,M,M,M,81.26,KCXP 290355Z AUTO 33007KT 10SM CLR 29/M01 A3006 RMK AO2,M
MEV,2022-07-29 03:55,-119.7500,38.9963,1441.42,73.40,37.40,26.98,0.00,0.00,0.00,30.04,M,10.00,M,CLR,M,M,M,M,M,M,M,M,M,M,M,M,M,M,73.40,KMEV 290355Z AUTO 00000KT 10SM CLR 23/03 A3004 RMK AO2,M
BAM,2022-07-29 03:55,-116.8743,40.5990,1382.36,86.00,37.40,17.85,350.00,5.00,0.00,30.04,M,10.00,M,CLR,M,M,M,M,M,M,M,M,M,M,M,M,M,M,82.73,KBAM 290355Z AUTO 35005KT 10SM CLR 30/03 A3004 RMK AO1,M
HTH,2022-07-29 03:55,-118.6315,38.5448,1282.89,87.80,44.60,22.27,320.00,8.00,0.00,29.98,M,10.00,M,CLR,M,M,M,M,M,M,M,M,M,M,M,M,M,M,84.53,KHTH 290355Z AUTO 32008KT 10SM CLR 31/07 A2998 RMK A01,M
TMT,2022-07-29 03:55,-117.1971,39.4643,1749.34,M,M,M,350.00,6.00,0.00,30.12,M,10.00,M,CLR,M,M,M,M,M,M,M,M,M,M,M,M,M,M,M,KTMT 290355Z AUTO 35006KT 10SM CLR A3012 RMK AO2,M
RNO,2022-07-29 03:55,-119.7711,39.4839,1341.00,92.00,32.00,11.95,310.00,6.00,0.00,30.01,1009.10,10.00,M,FEW,M,M,M,14000.00,M,M,M,M,M,M,M,M,M,M,87.30,KRNO 290355Z 31006KT 10SM FEW140 33/00 A3001 RMK AO2 SLP091 T03330000,M
WMC,2022-07-29 03:56,-117.8072,40.9019,1315.00,85.00,40.00,20.39,40.00,4.00,0.00,30.01,1009.90,10.00,M,CLR,M,M,M,M,M,M,M,M,M,M,M,M,M,M,81.98,KWMC 290356Z AUTO 04004KT 10SM CLR 29/04 A3001 RMK AO2 SLP099 T02940044,M
TPH,2022-07-29 03:56,-117.0904,38.0505,1654.00,89.00,27.00,10.64,360.00,10.00,0.00,30.05,1007.60,10.00,M,CLR,M,M,M,M,M,M,M,M,M,M,M,M,M,M,84.68,KTPH 290356Z AUTO 36010KT 10SM CLR 32/M03 A3005 RMK AO2 SLP076 T03171028,M
HND,2022-07-29 03:56,-115.1344,35.9729,742.79,92.00,66.00,42.64,150.00,10.00,0.00,29.90,1010.90,10.00,M,CLR,M,M,M,M,M,M,M,M,M,M,M,M,M,M,94.72,KHND 290356Z AUTO 15010KT 10SM CLR 33/19 A2990 RMK AO2 LTG DSNT N SLP109 T03330189,M
EKO,2022-07-29 03:56,-115.7860,40.8242,1367.00,83.00,38.00,20.11,170.00,5.00,0.00,30.06,1011.00,10.00,M,CLR,M,M,M,M,M,M,M,M,M,M,M,M,M,M,80.49,KEKO 290356Z AUTO 17005KT 10SM CLR 28/03 A3006 RMK AO2 SLP110 T02830033,M
LAS,2022-07-29 03:56,-115.1634,36.0719,663.00,90.00,70.00,51.93,210.00,4.00,0.01,29.87,1008.50,10.00,M,SCT,BKN,BKN,M,9000.00,12000.00,22000.00,M,RA,M,M,M,M,M,M,95.49,KLAS 290356Z 21004KT 10SM RA SCT090 BKN120 BKN220 32/21 A2987 RMK AO2 LTG DSNT N RAB47 SLP085 LTG DSNT NW-NE P0001 T03220211,M
NFL,2022-07-29 03:56,-118.7010,39.4166,1199.00,84.00,32.00,15.35,360.00,3.00,0.00,29.94,1011.20,10.00,M,FEW,M,M,M,12000.00,M,M,M,M,M,M,M,M,M,M,81.13,KNFL 290356Z 36003KT 10SM FEW120 29/00 A2994 RMK AO2 SLP112 T02890000,M
LSV,2022-07-29 03:58,-115.0343,36.2362,570.00,94.50,64.80,37.72,50.00,17.00,0.00,29.86,1008.40,10.00,M,BKN,M,M,M,10000.00,M,M,M,M,M,M,M,M,M,M,96.93,KLSV 290358Z 05017KT 10SM BKN100 35/18 A2986 RMK AO2A LTG DSNT NE AND W-NW SLP084 T03470182 $,M
INS,2022-07-29 03:58,-115.6733,36.5872,955.00,83.50,50.50,31.91,60.00,4.00,0.00,29.94,1008.90,10.00,M,BKN,OVC,M,M,18000.00,21000.00,M,M,M,M,M,M,40.00,70.00,2022-07-29 03:14,81.79,KINS 290358Z AUTO 06004KT 10SM BKN180 OVC210 29/10 A2994 RMK AO2 PK WND 07040/14 SLP089 T02860103,M
LAS,2022-07-29 04:01,-115.1634,36.0719,663.00,90.00,71.00,53.91,250.00,3.00,0.03,29.87,M,10.00,M,SCT,BKN,BKN,M,9000.00,12000.00,22000.00,M,-TSRA,M,M,M,M,M,M,96.45,KLAS 290401Z 25003KT 10SM -TSRA SCT090 BKN120CB BKN220 32/22 A2987 RMK AO2 LTG DSNT N TSB01 FRQ LTGICCCCG NW-NE TS NW-NE MOV S P0003 T03220217,M
VGT,2022-07-29 04:02,-115.1933,36.2111,667.00,84.00,66.00,54.77,50.00,16.00,T,29.92,M,4.00,40.00,OVC,M,M,M,9500.00,M,M,M,VCTS +RA,M,M,M,37.00,70.00,2022-07-29 03:54,86.20,KVGT 290402Z AUTO 05016G40KT 4SM VCTS +RA OVC095 29/19 A2992 RMK AO2 PK WND 07037/0354 LTG DSNT N PRESRR P0000 T02890189,M
LSV,2022-07-29 04:03,-115.0343,36.2362,570.00,95.00,64.40,36.63,50.00,15.00,0.00,29.87,M,10.00,M,BKN,OVC,M,M,9000.00,13000.00,M,M,TS,M,M,M,M,M,M,97.26,KLSV 290403Z 05015KT 10SM TS BKN090 OVC130 35/18 A2987 RMK AO2A TSB03 SLPNO $,M
LSV,2022-07-29 04:05,-115.0343,36.2362,570.00,95.00,64.40,36.63,10.00,17.00,0.00,29.89,M,10.00,M,BKN,OVC,M,M,9000.00,13000.00,M,M,TS,M,M,M,M,M,M,97.26,KLSV 290405Z 01017KT 10SM TS BKN090 OVC130 35/18 A2989 RMK AO2A WSHFT 0359 TSB03 PRESRR SLPNO $,M
LSV,2022-07-29 04:09,-115.0343,36.2362,570.00,95.00,64.40,36.63,330.00,15.00,0.00,29.88,M,10.00,M,BKN,OVC,M,M,9000.00,13000.00,M,M,TS,M,M,M,M,M,M,97.26,KLSV 290409Z AUTO 33015KT 10SM TS BKN090 OVC130 35/18 A2988 RMK AO2 WSHFT 06 TSB03 SLPNO $,M
VGT,2022-07-29 04:09,-115.1933,36.2111,667.00,83.00,68.00,60.81,360.00,23.00,0.00,29.94,M,6.00,34.00,FEW,FEW,OVC,M,4200.00,7500.00,9500.00,M,TSRA,M,M,M,37.00,70.00,2022-07-29 03:54,85.94,KVGT 290409Z AUTO 36023G34KT 6SM TSRA FEW042 FEW075 OVC095 28/20 A2994 RMK AO2 PK WND 07037/0354 LTG DSNT N TSB03 T02830200 PNO $,M
VGT,2022-07-29 04:13,-115.1933,36.2111,667.00,80.00,67.00,64.14,10.00,17.00,0.00,29.94,M,2.50,34.00,FEW,SCT,OVC,M,3200.00,4200.00,9500.00,M,+TSRA,M,M,M,37.00,70.00,2022-07-29 03:54,82.40,KVGT 290413Z AUTO 01017G34KT 2 1/2SM +TSRA FEW032 SCT042 OVC095 27/19 A2994 RMK AO2 PK WND 07037/0354 WSHFT 0358 TSB03 PRESRR T02670194 PNO $,M
BAM,2022-07-29 04:15,-116.8743,40.5990,1382.36,82.40,37.40,20.04,10.00,5.00,0.00,30.04,M,10.00,M,CLR,M,M,M,M,M,M,M,M,M,M,M,M,M,M,80.14,KBAM 290415Z AUTO 01005KT 10SM CLR 28/03 A3004 RMK AO1,M
RTS,2022-07-29 04:15,-119.8764,39.6682,1539.00,80.60,23.00,11.83,360.00,10.00,0.00,30.09,M,10.00,M,CLR,M,M,M,M,M,M,M,M,M,M,M,M,M,M,78.80,KRTS 290415Z AUTO 36010KT 10SM CLR 27/M05 A3009 RMK AO2,M
CXP,2022-07-29 04:15,-119.7326,39.1923,1431.00,82.40,28.40,13.96,330.00,7.00,0.00,30.06,M,10.00,M,CLR,M,M,M,M,M,M,M,M,M,M,M,M,M,M,79.94,KCXP 290415Z AUTO 33007KT 10SM CLR 28/M02 A3006 RMK AO2,M
BVU,2022-07-29 04:15,-114.8611,35.9475,671.00,M,M,M,M,M,0.00,M,M,M,M,M,M,M,M,M,M,M,M,M,M,M,M,M,M,M,M,KBVU 290415Z AUTO RMK AO2 PNO PWINO TSNO,M
HTH,2022-07-29 04:15,-118.6315,38.5448,1282.89,87.80,35.60,15.70,310.00,6.00,0.00,29.99,M,10.00,M,CLR,M,M,M,M,M,M,M,M,M,M,M,M,M,M,84.12,KHTH 290415Z AUTO 31006KT 10SM CLR 31/02 A2999 RMK A01,M
TMT,2022-07-29 04:15,-117.1971,39.4643,1749.34,M,M,M,360.00,8.00,0.00,30.14,M,10.00,M,CLR,M,M,M,M,M,M,M,M,M,M,M,M,M,M,M,KTMT 290415Z AUTO 36008KT 10SM CLR A3014 RMK AO2,M
MEV,2022-07-29 04:15,-119.7500,38.9963,1441.42,69.80,42.80,37.61,0.00,0.00,0.00,30.05,M,10.00,M,CLR,M,M,M,M,M,M,M,M,M,M,M,M,M,M,69.80,KMEV 290415Z AUTO 00000KT 10SM CLR 21/06 A3005 RMK AO2,M
LSV,2022-07-29 04:18,-115.0343,36.2362,570.00,91.40,64.40,40.96,340.00,4.00,0.00,29.88,M,10.00,21.00,BKN,BKN,M,M,9000.00,13000.00,M,M,M,M,M,M,M,M,M,93.19,KLSV 290418Z AUTO 34004G21KT 10SM BKN090 BKN130 33/18 A2988 RMK AO2 LTG DSNT NE-E AND SW-NW TSB03E18 SLPNO $,M
LSV,2022-07-29 04:21,-115.0343,36.2362,570.00,89.60,64.40,43.34,320.00,3.00,0.00,29.88,M,10.00,21.00,BKN,M,M,M,8500.00,M,M,M,TS,M,M,M,M,M,M,91.23,KLSV 290421Z AUTO 32003G21KT 10SM TS BKN085 32/18 A2988 RMK AO2 TSB03E18TSB21 SLPNO $,M
LAS,2022-07-29 04:24,-115.1634,36.0719,663.00,79.00,70.00,73.97,360.00,35.00,0.08,29.94,M,5.00,46.00,SCT,BKN,BKN,M,9000.00,12000.00,22000.00,M,+TSRA,M,M,M,46.00,10.00,2022-07-29 04:24,79.00,KLAS 290424Z 36035G46KT 5SM +TSRA SCT090 BKN120CB BKN220 26/21 A2994 RMK AO2 PK WND 01046/0424 LTG DSNT NE TSB01 PRESRR FRQ LTGICCCCG NW-NE TS NW-NE MOV S P0008 T02610211,M
HND,2022-07-29 04:31,-115.1344,35.9729,742.79,89.60,64.40,43.34,350.00,18.00,0.00,29.95,M,10.00,30.00,SCT,BKN,M,M,9000.00,11000.00,M,M,VCTS,M,M,M,30.00,360.00,2022-07-29 04:29,91.23,KHND 290431Z AUTO 35018G30KT 10SM VCTS SCT090 BKN110 32/18 A2995 RMK AO2 PK WND 36030/0429 LTG DSNT NW-NE TSB25 PRESRR,M
VGT,2022-07-29 04:31,-115.1933,36.2111,667.00,80.00,67.00,64.14,150.00,18.00,0.00,29.89,M,7.00,28.00,FEW,SCT,BKN,M,3700.00,8000.00,10000.00,M,-TSRA,M,M,M,37.00,70.00,2022-07-29 03:54,82.40,KVGT 290431Z AUTO 15018G28KT 7SM -TSRA FEW037 SCT080 BKN100 27/19 A2989 RMK AO2 PK WND 07037/0354 WSHFT 0358 LTG DSNT NE AND E AND SW TSB03 T02670194 PNO $,M
MEV,2022-07-29 04:35,-119.7500,38.9963,1441.42,68.00,37.40,32.43,120.00,6.00,0.00,30.05,M,10.00,M,CLR,M,M,M,M,M,M,M,M,M,M,M,M,M,M,68.00,KMEV 290435Z AUTO 12006KT 10SM CLR 20/03 A3005 RMK AO2,M
TMT,2022-07-29 04:35,-117.1971,39.4643,1749.34,M,M,M,10.00,10.00,0.00,30.15,M,10.00,M,CLR,M,M,M,M,M,M,M,M,M,M,M,M,M,M,M,KTMT 290435Z AUTO 01010KT 10SM CLR A3015 RMK AO2,M
HTH,2022-07-29 04:35,-118.6315,38.5448,1282.89,87.80,35.60,15.70,350.00,5.00,0.00,29.99,M,10.00,M,CLR,M,M,M,M,M,M,M,M,M,M,M,M,M,M,84.12,KHTH 290435Z AUTO 35005KT 10SM CLR 31/02 A2999 RMK A01,M
BAM,2022-07-29 04:35,-116.8743,40.5990,1382.36,84.20,37.40,18.91,10.00,4.00,0.00,30.04,M,10.00,M,CLR,M,M,M,M,M,M,M,M,M,M,M,M,M,M,81.38,KBAM 290435Z AUTO 01004KT 10SM CLR 29/03 A3004 RMK AO1,M
RTS,2022-07-29 04:35,-119.8764,39.6682,1539.00,78.80,23.00,12.55,350.00,7.00,0.00,30.10,M,10.00,M,CLR,M,M,M,M,M,M,M,M,M,M,M,M,M,M,78.80,KRTS 290435Z AUTO 35007KT 10SM CLR 26/M05 A3010 RMK AO2,M
CXP,2022-07-29 04:35,-119.7326,39.1923,1431.00,82.40,26.60,12.97,330.00,7.00,0.00,30.06,M,10.00,M,CLR,M,M,M,M,M,M,M,M,M,M,M,M,M,M,79.92,KCXP 290435Z AUTO 33007KT 10SM CLR 28/M03 A3006 RMK AO2,M
BVU,2022-07-29 04:35,-114.8611,35.9475,671.00,M,M,M,M,M,0.00,M,M,M,M,M,M,M,M,M,M,M,M,M,M,M,M,M,M,M,M,KBVU 290435Z AUTO RMK AO2 PNO PWINO TSNO,M
LSV,2022-07-29 04:36,-115.0343,36.2362,570.00,89.60,64.40,43.34,280.00,8.00,0.00,29.89,M,10.00,M,SCT,BKN,M,M,9000.00,14000.00,M,M,M,M,M,M,M,M,M,91.23,KLSV 290436Z AUTO 28008KT 10SM SCT090 BKN140 32/18 A2989 RMK AO2 LTG DSNT SW-SE TSB03E18TSB21E36 SLPNO $,M
LSV,2022-07-29 04:40,-115.0343,36.2362,570.00,89.60,64.40,43.34,270.00,9.00,0.00,29.91,M,10.00,M,SCT,BKN,M,M,9000.00,14000.00,M,M,TS,M,M,M,M,M,M,91.23,KLSV 290440Z AUTO 27009KT 10SM TS SCT090 BKN140 32/18 A2991 RMK AO2 TSB03E18TSB21E36TSB40 PRESRR SLPNO $,M
LSV,2022-07-29 04:45,-115.0343,36.2362,570.00,89.60,66.20,46.14,160.00,8.00,0.00,29.91,M,10.00,M,FEW,BKN,M,M,9000.00,15000.00,M,M,-TSRA,M,M,M,M,M,M,92.27,KLSV 290445Z AUTO 16008KT 10SM -TSRA FEW090 BKN150 32/19 A2991 RMK AO2 RAB45 TSB03E18TSB21E36TSB40 SLPNO $,M
HND,2022-07-29 04:48,-115.1344,35.9729,742.79,82.40,62.60,51.21,360.00,20.00,T,29.96,M,10.00,30.00,SCT,BKN,OVC,M,8000.00,10000.00,12000.00,M,TS,M,M,M,40.00,360.00,2022-07-29 04:33,83.41,KHND 290448Z AUTO 36020G30KT 10SM TS SCT080 BKN100 OVC120 28/17 A2996 RMK AO2 PK WND 36040/0433 WSHFT 0428 LTG DSNT ALQDS TSB25RAB35E48 P0000,M
P68,2022-07-29 04:53,-116.0056,39.6014,1993.00,77.00,37.00,23.55,330.00,12.00,0.00,30.14,1010.50,M,M,M,M,M,M,M,M,M,M,M,M,M,M,M,M,M,77.00,KP68 290453Z AUTO 33012KT 25/03 A3014 RMK AO1 SLP105 T02500028,M
DRA,2022-07-29 04:53,-116.0278,36.6206,1009.00,84.00,53.00,34.56,100.00,16.00,0.00,29.93,1008.30,10.00,25.00,CLR,M,M,M,M,M,M,M,M,M,M,M,39.00,110.00,2022-07-29 03:58,82.52,KDRA 290453Z AUTO 10016G25KT 10SM CLR 29/12 A2993 RMK AO2 PK WND 11039/0358 SLP083 T02890117,M
LOL,2022-07-29 04:53,-118.5701,40.0684,1192.43,87.00,36.00,16.31,40.00,9.00,0.00,29.97,1009.40,10.00,M,CLR,M,M,M,M,M,M,M,M,M,M,M,M,M,M,83.56,KLOL 290453Z AUTO 04009KT 10SM CLR 31/02 A2997 RMK AO2 SLP094 T03060022,M
VGT,2022-07-29 04:53,-115.1933,36.2111,667.00,80.00,65.00,59.83,180.00,6.00,0.00,29.93,1012.60,10.00,M,FEW,M,M,M,11000.00,M,M,M,TS,M,M,M,37.00,70.00,2022-07-29 03:54,81.91,KVGT 290453Z AUTO 18006KT 10SM TS FEW110 27/18 A2993 RMK AO2 PK WND 07037/0354 WSHFT 0358 LTG DSNT ALQDS RAE48 TSB03 SLP126 T02670183 $,M
ELY,2022-07-29 04:53,-114.8453,39.2950,1909.00,67.00,40.00,37.14,170.00,7.00,0.00,30.16,1009.90,10.00,M,CLR,M,M,M,M,M,M,M,M,M,M,M,M,M,M,66.90,KELY 290453Z AUTO 17007KT 10SM CLR 19/04 A3016 RMK AO2 SLP099 T01940044 $,M
BAM,2022-07-29 04:55,-116.8743,40.5990,1382.36,77.00,35.60,22.28,130.00,6.00,0.00,30.04,M,10.00,M,CLR,M,M,M,M,M,M,M,M,M,M,M,M,M,M,77.00,KBAM 290455Z AUTO 13006KT 10SM CLR 25/02 A3004 RMK AO1,M
BVU,2022-07-29 04:55,-114.8611,35.9475,671.00,M,M,M,M,M,0.00,M,M,M,M,M,M,M,M,M,M,M,M,M,M,M,M,M,M,M,M,KBVU 290455Z AUTO RMK AO2 PNO PWINO TSNO,M
CXP,2022-07-29 04:55,-119.7326,39.1923,1431.00,82.40,28.40,13.96,330.00,6.00,0.00,30.06,M,10.00,M,CLR,M,M,M,M,M,M,M,M,M,M,M,M,M,M,79.94,KCXP 290455Z AUTO 33006KT 10SM CLR 28/M02 A3006 RMK AO2,M
RTS,2022-07-29 04:55,-119.8764,39.6682,1539.00,75.20,24.80,15.25,300.00,6.00,0.00,30.10,M,10.00,M,CLR,M,M,M,M,M,M,M,M,M,M,M,M,M,M,75.20,KRTS 290455Z AUTO 30006KT 10SM CLR 24/M04 A3010 RMK AO2,M
MEV,2022-07-29 04:55,-119.7500,38.9963,1441.42,68.00,41.00,37.32,110.00,7.00,0.00,30.06,M,10.00,M,CLR,M,M,M,M,M,M,M,M,M,M,M,M,M,M,68.00,KMEV 290455Z AUTO 11007KT 10SM CLR 20/05 A3006 RMK AO2,M
RNO,2022-07-29 04:55,-119.7711,39.4839,1341.00,88.00,33.00,14.12,300.00,4.00,0.00,30.03,1009.90,10.00,M,FEW,M,M,M,15000.00,M,M,M,M,M,M,M,M,M,M,84.25,KRNO 290455Z 30004KT 10SM FEW150 31/01 A3003 RMK AO2 SLP099 T03110006,M
TMT,2022-07-29 04:55,-117.1971,39.4643,1749.34,80.00,37.80,22.09,20.00,14.00,0.00,30.15,M,10.00,18.00,CLR,M,M,M,M,M,M,M,M,M,M,M,M,M,M,79.90,KTMT 290455Z AUTO 02014G18KT 10SM CLR 27/03 A3015 RMK AO2 T02660032,M
HTH,2022-07-29 04:55,-118.6315,38.5448,1282.89,86.00,41.00,20.54,0.00,0.00,0.00,30.00,M,10.00,M,CLR,M,M,M,M,M,M,M,M,M,M,M,M,M,M,82.86,KHTH 290455Z AUTO 00000KT 10SM CLR 30/05 A3000 RMK A01,M
EKO,2022-07-29 04:56,-115.7860,40.8242,1367.00,77.00,41.00,27.53,100.00,6.00,0.00,30.10,1012.40,10.00,M,CLR,M,M,M,M,M,M,M,M,M,M,M,M,M,M,77.00,KEKO 290456Z AUTO 10006KT 10SM CLR 25/05 A3010 RMK AO2 SLP124 T02500050,M
HND,2022-07-29 04:56,-115.1344,35.9729,742.79,85.00,58.00,39.97,20.00,14.00,T,29.97,1013.30,10.00,26.00,BKN,BKN,M,M,8500.00,11000.00,M,M,TS,M,M,M,40.00,360.00,2022-07-29 04:33,84.21,KHND 290456Z AUTO 02014G26KT 10SM TS BKN085 BKN110 29/14 A2997 RMK AO2 PK WND 36040/0433 WSHFT 0428 LTG DSNT ALQDS TSB25RAB35E48 SLP133 P0000 T02940144,M
NFL,2022-07-29 04:56,-118.7010,39.4166,1199.00,81.00,33.00,17.68,320.00,4.00,0.00,29.96,1011.70,10.00,M,FEW,M,M,M,12000.00,M,M,M,M,M,M,M,M,M,M,79.10,KNFL 290456Z 32004KT 10SM FEW120 27/01 A2996 RMK AO2 SLP117 T02720006,M
TPH,2022-07-29 04:56,-117.0904,38.0505,1654.00,86.00,26.10,11.31,30.00,9.00,0.00,30.07,1008.10,10.00,M,CLR,M,M,M,M,M,M,M,M,M,M,M,M,M,M,82.35,KTPH 290456Z AUTO 03009KT 10SM CLR 30/M03 A3007 RMK AO2 SLP081 T03001033,M
LAS,2022-07-29 04:56,-115.1634,36.0719,663.00,83.00,59.00,44.34,M,6.00,0.29,29.92,1010.60,5.00,30.00,BKN,OVC,M,M,5000.00,7000.00,M,M,TSRA,M,M,M,51.00,20.00,2022-07-29 04:35,82.86,KLAS 290456Z VRB06G30KT 5SM TSRA BKN050 OVC070CB 28/15 A2992 RMK AO2 PK WND 02051/0435 LTG DSNT ALQDS TSB01 SLP106 FRQ LTGICCCCG OHD-W-N TS OHD-W-N MOV S TOPS OF MTNS OBSCURED DSNT SW-NW-N P0029 T02830150,M
WMC,2022-07-29 04:56,-117.8072,40.9019,1315.00,82.00,39.00,21.62,0.00,0.00,0.00,30.02,1010.30,10.00,M,CLR,M,M,M,M,M,M,M,M,M,M,M,M,M,M,79.94,KWMC 290456Z AUTO 00000KT 10SM CLR 28/04 A3002 RMK AO2 SLP103 T02780039,M
INS,2022-07-29 04:58,-115.6733,36.5872,955.00,85.00,48.20,27.99,280.00,6.00,0.00,29.93,M,10.00,M,FEW,M,M,M,18000.00,M,M,M,M,M,M,M,M,M,M,82.55,KINS 290458Z AUTO 28006KT 10SM FEW180 29/09 A2993 RMK AO2 LTG DSNT SE SLPNO T02940090,M
LSV,2022-07-29 04:58,-115.0343,36.2362,570.00,86.70,69.60,56.87,110.00,19.00,T,29.93,M,10.00,30.00,BKN,BKN,M,M,9500.00,14000.00,M,M,TS -DZ,M,M,M,M,M,M,91.27,KLSV 290458Z AUTO 11019G30KT 10SM TS -DZ BKN095 BKN140 30/21 A2993 RMK AO2 RAB45E55DZB55 TSB03E18TSB21E36TSB40 PRESRR SLPNO P0000 T03040209 $,M
LSV,2022-07-29 04:59,-115.0343,36.2362,570.00,86.00,69.80,58.55,120.00,24.00,0.00,29.92,M,10.00,30.00,BKN,BKN,M,M,9500.00,14000.00,M,M,-RA,M,M,M,M,M,M,90.58,KLSV 290459Z AUTO 12024G30KT 10SM -RA BKN095 BKN140 30/21 A2992 RMK AO2 LTG DSNT N-NE AND SE AND SW DZE58RAB58 TSE59 SLPNO $,M
LSV,2022-07-29 05:09,-115.0343,36.2362,570.00,78.80,69.80,73.95,140.00,30.00,0.00,29.85,M,10.00,39.00,SCT,BKN,M,M,9500.00,13000.00,M,M,VCTS,M,M,M,M,M,M,78.80,KLSV 290509Z AUTO 14030G39KT 10SM VCTS SCT095 BKN130 26/21 A2985 RMK AO2 DZE0458RAB0458E09 TSE0459 PRESFR SLPNO $,M
VGT,2022-07-29 05:11,-115.1933,36.2111,667.00,79.00,64.00,60.11,130.00,24.00,T,29.92,M,10.00,33.00,FEW,M,M,M,7500.00,M,M,M,VCTS -RA,M,M,M,33.00,130.00,2022-07-29 05:11,79.00,KVGT 290511Z AUTO 13024G33KT 10SM VCTS -RA FEW075 26/18 A2992 RMK AO2 PK WND 13033/0511 LTG DSNT E-SW RAB06 TSE05 P0000 T02610178 $,M
HTH,2022-07-29 05:15,-118.6315,38.5448,1282.89,86.00,42.80,22.02,0.00,0.00,0.00,30.00,M,10.00,M,CLR,M,M,M,M,M,M,M,M,M,M,M,M,M,M,82.95,KHTH 290515Z AUTO 00000KT 10SM CLR 30/06 A3000 RMK A01,M
BAM,2022-07-29 05:15,-116.8743,40.5990,1382.36,77.00,35.60,22.28,180.00,3.00,0.00,30.04,M,10.00,M,CLR,M,M,M,M,M,M,M,M,M,M,M,M,M,M,77.00,KBAM 290515Z AUTO 18003KT 10SM CLR 25/02 A3004 RMK AO1,M
MEV,2022-07-29 05:15,-119.7500,38.9963,1441.42,68.00,35.60,30.20,110.00,7.00,0.00,30.06,M,10.00,M,CLR,M,M,M,M,M,M,M,M,M,M,M,M,M,M,68.00,KMEV 290515Z AUTO 11007KT 10SM CLR 20/02 A3006 RMK AO2,M
RTS,2022-07-29 05:15,-119.8764,39.6682,1539.00,78.80,24.80,13.54,330.00,5.00,0.00,30.11,M,10.00,M,CLR,M,M,M,M,M,M,M,M,M,M,M,M,M,M,78.80,KRTS 290515Z AUTO 33005KT 10SM CLR 26/M04 A3011 RMK AO2,M
BVU,2022-07-29 05:15,-114.8611,35.9475,671.00,M,M,M,M,M,0.00,M,M,M,M,M,M,M,M,M,M,M,M,M,M,M,M,M,M,M,M,KBVU 290515Z AUTO RMK AO2 PNO PWINO TSNO,M
CXP,2022-07-29 05:15,-119.7326,39.1923,1431.00,82.40,28.40,13.96,330.00,5.00,0.00,30.07,M,10.00,M,CLR,M,M,M,M,M,M,M,M,M,M,M,M,M,M,79.94,KCXP 290515Z AUTO 33005KT 10SM CLR 28/M02 A3007 RMK AO2,M
TMT,2022-07-29 05:15,-117.1971,39.4643,1749.34,M,M,M,40.00,9.00,0.00,30.16,M,10.00,M,CLR,M,M,M,M,M,M,M,M,M,M,M,M,M,M,M,KTMT 290515Z AUTO 04009KT 10SM CLR A3016 RMK AO2,M
LSV,2022-07-29 05:15,-115.0343,36.2362,570.00,77.00,69.80,78.48,130.00,25.00,0.00,29.85,M,9.00,39.00,BKN,BKN,M,M,9500.00,13000.00,M,M,TS,M,M,M,M,M,M,77.00,KLSV 290515Z AUTO 13025G39KT 9SM TS BKN095 BKN130 25/21 A2985 RMK AO2 DZE0458RAB0458E09 TSE0459TSB15 SLPNO $,M
VGT,2022-07-29 05:16,-115.1933,36.2111,667.00,78.00,66.00,66.39,150.00,32.00,T,29.90,M,10.00,42.00,FEW,FEW,M,M,8000.00,11000.00,M,M,-RA,M,M,M,42.00,150.00,2022-07-29 05:15,78.10,KVGT 290516Z AUTO 15032G42KT 10SM -RA FEW080 FEW110 26/19 A2990 RMK AO2 PK WND 15042/0515 WSHFT 0459 LTG DSNT E-SW RAB06 TSE05 PRESFR P0000 T02560189 $,M
LSV,2022-07-29 05:33,-115.0343,36.2362,570.00,75.20,69.80,83.32,130.00,21.00,0.00,29.85,M,10.00,34.00,FEW,M,M,M,9500.00,M,M,M,VCTS,M,M,M,M,M,M,75.20,KLSV 290533Z AUTO 13021G34KT 10SM VCTS FEW095 24/21 A2985 RMK AO2 DZE0458RAB0458E09 TSE0459TSB15E33 SLPNO $,M
BVU,2022-07-29 05:35,-114.8611,35.9475,671.00,M,M,M,M,M,0.00,M,M,M,M,M,M,M,M,M,M,M,M,M,M,M,M,M,M,M,M,KBVU 290535Z AUTO RMK AO2 PNO PWINO TSNO,M
MEV,2022-07-29 05:35,-119.7500,38.9963,1441.42,66.20,33.80,29.92,130.00,4.00,0.00,30.07,M,10.00,M,CLR,M,M,M,M,M,M,M,M,M,M,M,M,M,M,66.20,KMEV 290535Z AUTO 13004KT 10SM CLR 19/01 A3007 RMK AO2,M
BAM,2022-07-29 05:35,-116.8743,40.5990,1382.36,78.80,35.60,21.00,0.00,0.00,0.00,30.05,M,10.00,M,CLR,M,M,M,M,M,M,M,M,M,M,M,M,M,M,78.80,KBAM 290535Z AUTO 00000KT 10SM CLR 26/02 A3005 RMK AO1,M
TMT,2022-07-29 05:35,-117.1971,39.4643,1749.34,M,M,M,40.00,7.00,0.00,30.16,M,10.00,M,CLR,M,M,M,M,M,M,M,M,M,M,M,M,M,M,M,KTMT 290535Z AUTO 04007KT 10SM CLR A3016 RMK AO2,M
RTS,2022-07-29 05:35,-119.8764,39.6682,1539.00,77.00,24.80,14.37,330.00,5.00,0.00,30.11,M,10.00,M,CLR,M,M,M,M,M,M,M,M,M,M,M,M,M,M,77.00,KRTS 290535Z AUTO 33005KT 10SM CLR 25/M04 A3011 RMK AO2,M
HTH,2022-07-29 05:35,-118.6315,38.5448,1282.89,84.20,37.40,18.91,0.00,0.00,0.00,30.00,M,10.00,M,CLR,M,M,M,M,M,M,M,M,M,M,M,M,M,M,81.38,KHTH 290535Z AUTO 00000KT 10SM CLR 29/03 A3000 RMK A01,M
CXP,2022-07-29 05:35,-119.7326,39.1923,1431.00,80.60,30.20,15.94,0.00,0.00,0.00,30.07,M,10.00,M,CLR,M,M,M,M,M,M,M,M,M,M,M,M,M,M,78.77,KCXP 290535Z AUTO 00000KT 10SM CLR 27/M01 A3007 RMK AO2,M
VGT,2022-07-29 05:39,-115.1933,36.2111,667.00,75.00,68.00,78.86,M,4.00,T,29.95,M,10.00,22.00,SCT,BKN,M,M,8000.00,11000.00,M,M,-RA,M,M,M,42.00,150.00,2022-07-29 05:15,75.00,KVGT 290539Z AUTO VRB04G22KT 10SM -RA SCT080 BKN110 24/20 A2995 RMK AO2 PK WND 15042/0515 WSHFT 0519 LTG DSNT SE AND S RAB06 TSE05 PRESRR P0000 T02390200 $,M
P68,2022-07-29 05:53,-116.0056,39.6014,1993.00,70.00,38.00,30.88,90.00,4.00,0.00,30.16,1011.30,M,M,M,M,M,M,M,M,M,M,M,M,M,M,M,M,M,70.00,KP68 290553Z AUTO 09004KT 21/03 A3016 RMK AO1 SLP113 T02110033 10333 20206 52017,M
DRA,2022-07-29 05:53,-116.0278,36.6206,1009.00,88.00,53.00,30.41,110.00,13.00,0.00,29.93,1007.80,10.00,22.00,CLR,M,M,M,M,M,M,M,M,M,M,M,26.00,110.00,2022-07-29 05:12,85.80,KDRA 290553Z AUTO 11013G22KT 10SM CLR 31/12 A2993 RMK AO2 PK WND 11026/0512 SLP078 T03110117 10383 20283 51024,M
LOL,2022-07-29 05:53,-118.5701,40.0684,1192.43,79.00,38.00,22.84,20.00,7.00,0.00,29.97,1009.60,10.00,M,CLR,M,M,M,M,M,M,M,M,M,M,M,M,M,M,79.00,KLOL 290553Z AUTO 02007KT 10SM CLR 26/03 A2997 RMK AO2 SLP096 T02610033 10400 20244 51010,M
ELY,2022-07-29 05:53,-114.8453,39.2950,1909.00,67.00,38.00,34.35,210.00,5.00,0.00,30.19,1010.70,10.00,M,CLR,M,M,M,M,M,M,M,M,M,M,M,M,M,M,66.90,KELY 290553Z AUTO 21005KT 10SM CLR 19/03 A3019 RMK AO2 SLP107 T01940033 10306 20189 53017 $,M
VGT,2022-07-29 05:53,-115.1933,36.2111,667.00,76.00,67.00,73.68,10.00,5.00,T,29.96,1013.80,10.00,M,FEW,BKN,BKN,M,7000.00,9500.00,12000.00,M,-RA,M,M,M,42.00,150.00,2022-07-29 05:15,75.90,KVGT 290553Z AUTO 01005KT 10SM -RA FEW070 BKN095 BKN120 24/19 A2996 RMK AO2 PK WND 15042/0515 WSHFT 0519 LTG DSNT SE AND S RAB06 TSE05 SLP138 P0000 6//// T02440194 10378 20239 51047 $,M
CXP,2022-07-29 05:55,-119.7326,39.1923,1431.00,75.20,33.80,22.02,0.00,0.00,0.00,30.07,M,10.00,M,CLR,M,M,M,M,M,M,M,M,M,M,M,M,M,M,75.20,KCXP 290555Z AUTO 00000KT 10SM CLR 24/01 A3007 RMK AO2,M
BVU,2022-07-29 05:55,-114.8611,35.9475,671.00,M,M,M,M,M,0.00,M,M,M,M,M,M,M,M,M,M,M,M,M,M,M,M,M,M,M,M,KBVU 290555Z AUTO RMK AO2 PNO PWINO TSNO,M
MEV,2022-07-29 05:55,-119.7500,38.9963,1441.42,62.60,39.20,42.00,150.00,6.00,0.00,30.07,M,10.00,M,CLR,M,M,M,M,M,M,M,M,M,M,M,M,M,M,62.60,KMEV 290555Z AUTO 15006KT 10SM CLR 17/04 A3007 RMK AO2,M
BAM,2022-07-29 05:55,-116.8743,40.5990,1382.36,78.80,35.60,21.00,0.00,0.00,0.00,30.06,M,10.00,M,CLR,M,M,M,M,M,M,M,M,M,M,M,M,M,M,78.80,KBAM 290555Z AUTO 00000KT 10SM CLR 26/02 A3006 RMK AO1,M
HTH,2022-07-29 05:55,-118.6315,38.5448,1282.89,82.40,33.80,17.38,0.00,0.00,0.00,30.01,M,10.00,M,CLR,M,M,M,M,M,M,M,M,M,M,M,M,M,M,80.03,KHTH 290555Z AUTO 00000KT 10SM CLR 28/01 A3001 RMK A01,M
RNO,2022-07-29 05:55,-119.7711,39.4839,1341.00,86.00,33.00,15.05,270.00,3.00,0.00,30.04,1009.90,10.00,M,FEW,M,M,M,17000.00,M,M,M,M,M,M,M,M,M,M,82.65,KRNO 290555Z 27003KT 10SM FEW170 30/01 A3004 RMK AO2 SLP099 T03000006 10394 20300 53012,M
TMT,2022-07-29 05:55,-117.1971,39.4643,1749.34,M,M,M,0.00,0.00,0.00,30.16,M,10.00,M,CLR,M,M,M,M,M,M,M,M,M,M,M,M,M,M,M,KTMT 290555Z AUTO 00000KT 10SM CLR A3016 RMK AO2,M
RTS,2022-07-29 05:55,-119.8764,39.6682,1539.00,78.80,24.80,13.54,320.00,5.00,0.00,30.11,M,10.00,M,CLR,M,M,M,M,M,M,M,M,M,M,M,M,M,M,78.80,KRTS 290555Z AUTO 32005KT 10SM CLR 26/M04 A3011 RMK AO2,M
TPH,2022-07-29 05:56,-117.0904,38.0505,1654.00,84.00,43.00,23.66,80.00,8.00,0.00,30.09,1008.60,10.00,M,CLR,M,M,M,M,M,M,M,M,M,M,M,M,M,M,81.48,KTPH 290556Z AUTO 08008KT 10SM CLR 29/06 A3009 RMK AO2 SLP086 T02890061 10367 20289 53014,M
EKO,2022-07-29 05:56,-115.7860,40.8242,1367.00,79.00,40.00,24.70,30.00,4.00,0.00,30.10,1011.90,10.00,M,CLR,M,M,M,M,M,M,M,M,M,M,M,M,M,M,79.00,KEKO 290556Z AUTO 03004KT 10SM CLR 26/04 A3010 RMK AO2 SLP119 60000 T02610044 10367 20239 51016 $,M
HND,2022-07-29 05:56,-115.1344,35.9729,742.79,80.00,61.00,52.16,130.00,5.00,T,29.94,1012.40,10.00,M,FEW,BKN,OVC,M,7000.00,9000.00,11000.00,M,VCTS -RA,M,M,M,39.00,70.00,2022-07-29 05:09,81.10,KHND 290556Z AUTO 13005KT 10SM VCTS -RA FEW070 BKN090 OVC110 27/16 A2994 RMK AO2 PK WND 07039/0509 LTG DSNT SE-SW RAB13 SLP124 P0000 60000 T02670161 10383 20222 50025,M
WMC,2022-07-29 05:56,-117.8072,40.9019,1315.00,74.00,39.00,28.25,0.00,0.00,0.00,30.03,1010.90,10.00,M,CLR,M,M,M,M,M,M,M,M,M,M,M,M,M,M,73.90,KWMC 290556Z AUTO 00000KT 10SM CLR 23/04 A3003 RMK AO2 SLP109 T02330039 10389 20222 53010,M
NFL,2022-07-29 05:56,-118.7010,39.4166,1199.00,78.00,30.90,17.80,30.00,6.00,0.00,29.98,1012.20,10.00,M,CLR,M,M,M,M,M,M,M,M,M,M,M,M,M,M,78.10,KNFL 290556Z 03006KT 10SM CLR 26/M01 A2998 RMK AO2 SLP122 T02561006 10400 20239 53013,M
LSV,2022-07-29 05:58,-115.0343,36.2362,570.00,78.30,68.00,70.68,290.00,10.00,0.01,29.92,1010.70,10.00,M,CLR,M,M,M,M,M,M,M,M,M,M,M,39.00,140.00,2022-07-29 05:06,78.30,KLSV 290558Z AUTO 29010KT 10SM CLR 26/20 A2992 RMK AO2 PK WND 14039/06 DZE0458RAB0458E09 TSE0459TSB15E33 PRESRR SLP107 P0001 6//// T02570200 10378 20243 50039 $,M
INS,2022-07-29 05:58,-115.6733,36.5872,955.00,84.00,48.40,29.03,50.00,14.00,0.00,29.94,1008.50,10.00,M,SCT,M,M,M,19000.00,M,M,M,M,M,M,M,M,M,M,81.91,KINS 290558Z AUTO 05014KT 10SM SCT190 29/09 A2994 RMK AO2 SLP085 T02890091 10374 20282 50022,M
HND,2022-07-29 06:03,-115.1344,35.9729,742.79,84.20,57.20,39.86,140.00,8.00,T,29.93,M,10.00,M,FEW,OVC,M,M,6000.00,10000.00,M,M,M,M,M,M,M,M,M,83.47,KHND 290603Z AUTO 14008KT 10SM FEW060 OVC100 29/14 A2993 RMK AO2 LTG DSNT SE AND S TSE0557RAE0559 P0000,M
INS,2022-07-29 06:12,-115.6733,36.5872,955.00,86.00,51.80,30.90,90.00,17.00,0.00,29.94,1008.40,10.00,M,FEW,M,M,M,19000.00,M,M,M,M,M,M,M,M,M,M,83.87,KINS 290612Z AUTO 09017KT 10SM FEW190 30/11 A2994 RMK AO2 WSHFT 08 SLP084,M
CXP,2022-07-29 06:15,-119.7326,39.1923,1431.00,75.20,33.80,22.02,0.00,0.00,0.00,30.08,M,10.00,M,CLR,M,M,M,M,M,M,M,M,M,M,M,M,M,M,75.20,KCXP 290615Z AUTO 00000KT 10SM CLR 24/01 A3008 RMK AO2,M
BAM,2022-07-29 06:15,-116.8743,40.5990,1382.36,82.40,35.60,18.67,0.00,0.00,0.00,30.06,M,10.00,M,CLR,M,M,M,M,M,M,M,M,M,M,M,M,M,M,80.08,KBAM 290615Z AUTO 00000KT 10SM CLR 28/02 A3006 RMK AO1,M
HTH,2022-07-29 06:15,-118.6315,38.5448,1282.89,82.40,33.80,17.38,180.00,5.00,0.00,30.01,M,10.00,M,CLR,M,M,M,M,M,M,M,M,M,M,M,M,M,M,80.03,KHTH 290615Z AUTO 18005KT 10SM CLR 28/01 A3001 RMK A01,M
MEV,2022-07-29 06:15,-119.7500,38.9963,1441.42,68.00,32.00,26.15,130.00,8.00,0.00,30.07,M,10.00,M,CLR,M,M,M,M,M,M,M,M,M,M,M,M,M,M,68.00,KMEV 290615Z AUTO 13008KT 10SM CLR 20/00 A3007 RMK AO2,M
BVU,2022-07-29 06:15,-114.8611,35.9475,671.00,M,M,M,M,M,0.00,M,M,M,M,M,M,M,M,M,M,M,M,M,M,M,M,M,M,M,M,KBVU 290615Z AUTO RMK AO2 PNO PWINO TSNO,M
TMT,2022-07-29 06:15,-117.1971,39.4643,1749.34,M,M,M,0.00,0.00,0.00,30.16,M,10.00,M,CLR,M,M,M,M,M,M,M,M,M,M,M,M,M,M,M,KTMT 290615Z AUTO 00000KT 10SM CLR A3016 RMK AO2,M
RTS,2022-07-29 06:15,-119.8764,39.6682,1539.00,78.80,24.80,13.54,310.00,6.00,0.00,30.12,M,10.00,M,CLR,M,M,M,M,M,M,M,M,M,M,M,M,M,M,78.80,KRTS 290615Z AUTO 31006KT 10SM CLR 26/M04 A3012 RMK AO2,M
LAS,2022-07-29 06:22,-115.1634,36.0719,663.00,76.00,65.00,68.73,270.00,13.00,T,29.93,M,10.00,M,FEW,BKN,BKN,M,7500.00,10000.00,12000.00,M,-RA,M,M,M,M,M,M,75.90,KLAS 290622Z 27013KT 10SM -RA FEW075 BKN100 BKN120 24/18 A2993 RMK AO2 LTG DSNT SE AND S TSE22 TS DSIPTD CB DSNT SE-SW P0000 T02440183 $,M
MEV,2022-07-29 06:35,-119.7500,38.9963,1441.42,66.20,33.80,29.92,120.00,9.00,0.00,30.08,M,10.00,M,CLR,M,M,M,M,M,M,M,M,M,M,M,M,M,M,66.20,KMEV 290635Z AUTO 12009KT 10SM CLR 19/01 A3008 RMK AO2,M
BVU,2022-07-29 06:35,-114.8611,35.9475,671.00,M,M,M,M,M,0.00,M,M,M,M,M,M,M,M,M,M,M,M,M,M,M,M,M,M,M,M,KBVU 290635Z AUTO RMK AO2 PNO PWINO TSNO,M
CXP,2022-07-29 06:35,-119.7326,39.1923,1431.00,73.40,33.80,23.39,100.00,6.00,0.00,30.08,M,10.00,M,CLR,M,M,M,M,M,M,M,M,M,M,M,M,M,M,73.40,KCXP 290635Z AUTO 10006KT 10SM CLR 23/01 A3008 RMK AO2,M
RTS,2022-07-29 06:35,-119.8764,39.6682,1539.00,75.20,24.80,15.25,320.00,7.00,0.00,30.12,M,10.00,M,CLR,M,M,M,M,M,M,M,M,M,M,M,M,M,M,75.20,KRTS 290635Z AUTO 32007KT 10SM CLR 24/M04 A3012 RMK AO2,M
BAM,2022-07-29 06:35,-116.8743,40.5990,1382.36,77.00,35.60,22.28,0.00,0.00,0.00,30.07,M,10.00,M,CLR,M,M,M,M,M,M,M,M,M,M,M,M,M,M,77.00,KBAM 290635Z AUTO 00000KT 10SM CLR 25/02 A3007 RMK AO1,M
HTH,2022-07-29 06:35,-118.6315,38.5448,1282.89,82.40,35.60,18.67,180.00,4.00,0.00,30.01,M,10.00,M,CLR,M,M,M,M,M,M,M,M,M,M,M,M,M,M,80.08,KHTH 290635Z AUTO 18004KT 10SM CLR 28/02 A3001 RMK A01,M
TMT,2022-07-29 06:35,-117.1971,39.4643,1749.34,M,M,M,0.00,0.00,0.00,30.16,M,10.00,M,CLR,M,M,M,M,M,M,M,M,M,M,M,M,M,M,M,KTMT 290635Z AUTO 00000KT 10SM CLR A3016 RMK AO2,M
ELY,2022-07-29 06:53,-114.8453,39.2950,1909.00,71.00,42.00,35.02,170.00,4.00,0.00,30.20,1010.30,10.00,M,FEW,FEW,M,M,9000.00,11000.00,M,M,M,M,M,M,M,M,M,71.10,KELY 290653Z AUTO 17004KT 10SM FEW090 FEW110 22/06 A3020 RMK AO2 SLP103 T02170056 403280111 $,M
P68,2022-07-29 06:53,-116.0056,39.6014,1993.00,64.00,37.00,36.68,200.00,4.00,0.00,30.16,1011.60,M,M,M,M,M,M,M,M,M,M,M,M,M,M,M,M,M,64.00,KP68 290653Z AUTO 20004KT 18/03 A3016 RMK AO1 SLP116 T01780028,M
VGT,2022-07-29 06:53,-115.1933,36.2111,667.00,79.00,66.00,64.45,M,3.00,T,29.93,1012.40,10.00,M,CLR,M,M,M,M,M,M,M,M,M,M,M,M,M,M,79.00,KVGT 290653Z AUTO VRB03KT 10SM CLR 26/19 A2993 RMK AO2 RAE42 SLP124 P0000 T02610189 $,M
LOL,2022-07-29 06:53,-118.5701,40.0684,1192.43,73.00,38.00,27.89,180.00,7.00,0.00,29.99,1010.10,10.00,M,CLR,M,M,M,M,M,M,M,M,M,M,M,M,M,M,73.00,KLOL 290653Z AUTO 18007KT 10SM CLR 23/03 A2999 RMK AO2 SLP101 T02280033,M
DRA,2022-07-29 06:53,-116.0278,36.6206,1009.00,86.00,53.00,32.41,0.00,0.00,0.00,29.94,1008.10,10.00,M,CLR,M,M,M,M,M,M,M,M,M,M,M,M,M,M,84.09,KDRA 290653Z AUTO 00000KT 10SM CLR 30/12 A2994 RMK AO2 SLP081 T03000117,M
BVU,2022-07-29 06:55,-114.8611,35.9475,671.00,M,M,M,M,M,0.00,M,M,M,M,M,M,M,M,M,M,M,M,M,M,M,M,M,M,M,M,KBVU 290655Z AUTO RMK AO2 PNO PWINO TSNO,M
HTH,2022-07-29 06:55,-118.6315,38.5448,1282.89,82.40,33.80,17.38,0.00,0.00,0.00,30.01,M,10.00,M,CLR,M,M,M,M,M,M,M,M,M,M,M,M,M,M,80.03,KHTH 290655Z AUTO 00000KT 10SM CLR 28/01 A3001 RMK A01,M
BAM,2022-07-29 06:55,-116.8743,40.5990,1382.36,75.20,35.60,23.66,0.00,0.00,0.00,30.07,M,10.00,M,CLR,M,M,M,M,M,M,M,M,M,M,M,M,M,M,75.20,KBAM 290655Z AUTO 00000KT 10SM CLR 24/02 A3007 RMK AO1,M
MEV,2022-07-29 06:55,-119.7500,38.9963,1441.42,69.80,26.60,19.72,120.00,6.00,0.00,30.08,M,10.00,M,CLR,M,M,M,M,M,M,M,M,M,M,M,M,M,M,69.80,KMEV 290655Z AUTO 12006KT 10SM CLR 21/M03 A3008 RMK AO2,M
RTS,2022-07-29 06:55,-119.8764,39.6682,1539.00,77.00,24.80,14.37,290.00,5.00,0.00,30.12,M,10.00,M,CLR,M,M,M,M,M,M,M,M,M,M,M,M,M,M,77.00,KRTS 290655Z AUTO 29005KT 10SM CLR 25/M04 A3012 RMK AO2,M
RNO,2022-07-29 06:55,-119.7711,39.4839,1341.00,83.00,37.00,19.41,M,5.00,0.00,30.05,1010.20,10.00,M,FEW,M,M,M,17000.00,M,M,M,M,M,M,M,M,M,M,80.46,KRNO 290655Z VRB05KT 10SM FEW170 28/03 A3005 RMK AO2 SLP102 T02830028,M
TMT,2022-07-29 06:55,-117.1971,39.4643,1749.34,M,M,M,330.00,7.00,0.00,30.16,M,10.00,M,CLR,M,M,M,M,M,M,M,M,M,M,M,M,M,M,M,KTMT 290655Z AUTO 33007KT 10SM CLR A3016 RMK AO2,M
CXP,2022-07-29 06:55,-119.7326,39.1923,1431.00,77.00,32.00,19.30,0.00,0.00,0.00,30.09,M,10.00,M,CLR,M,M,M,M,M,M,M,M,M,M,M,M,M,M,77.00,KCXP 290655Z AUTO 00000KT 10SM CLR 25/M00 A3009 RMK AO2,M
TPH,2022-07-29 06:56,-117.0904,38.0505,1654.00,81.00,44.00,27.20,120.00,9.00,0.00,30.10,1009.00,10.00,M,CLR,M,M,M,M,M,M,M,M,M,M,M,M,M,M,79.62,KTPH 290656Z AUTO 12009KT 10SM CLR 27/07 A3010 RMK AO2 SLP090 T02720067,M
LAS,2022-07-29 06:56,-115.1634,36.0719,663.00,78.00,65.00,63.90,260.00,8.00,T,29.93,1010.90,10.00,M,FEW,SCT,OVC,M,7500.00,9500.00,12000.00,M,M,M,M,M,M,M,M,78.10,KLAS 290656Z 26008KT 10SM FEW075 SCT095 OVC120 26/18 A2993 RMK AO2 RAE45 TSE22 SLP109 OCNL LTGIC DSNT SE-SW CB DSNT SE-SW P0000 T02560183 $,M
HND,2022-07-29 06:56,-115.1344,35.9729,742.79,78.00,61.00,55.71,220.00,6.00,T,29.96,1013.20,10.00,M,FEW,SCT,BKN,M,6500.00,8500.00,11000.00,M,M,M,M,M,M,M,M,78.10,KHND 290656Z AUTO 22006KT 10SM FEW065 SCT085 BKN110 26/16 A2996 RMK AO2 TSE0557RAE0559 SLP132 P0000 T02560161 403830222,M
NFL,2022-07-29 06:56,-118.7010,39.4166,1199.00,75.00,36.00,24.20,20.00,5.00,0.00,29.98,1012.30,10.00,M,CLR,M,M,M,M,M,M,M,M,M,M,M,M,M,M,75.00,KNFL 290656Z 02005KT 10SM CLR 24/02 A2998 RMK AO2 SLP123 T02390022,M
EKO,2022-07-29 06:56,-115.7860,40.8242,1367.00,68.00,41.00,37.32,270.00,4.00,0.00,30.11,1012.80,10.00,M,CLR,M,M,M,M,M,M,M,M,M,M,M,M,M,M,68.00,KEKO 290656Z AUTO 27004KT 10SM CLR 20/05 A3011 RMK AO2 SLP128 T02000050 $,M
WMC,2022-07-29 06:56,-117.8072,40.9019,1315.00,80.00,40.00,23.82,50.00,9.00,0.00,30.04,1010.80,10.00,M,CLR,M,M,M,M,M,M,M,M,M,M,M,M,M,M,78.93,KWMC 290656Z AUTO 05009KT 10SM CLR 27/04 A3004 RMK AO2 SLP108 T02670044,M
INS,2022-07-29 06:58,-115.6733,36.5872,955.00,76.60,62.00,60.87,110.00,22.00,0.00,29.95,1009.00,10.00,28.00,FEW,M,M,M,24000.00,M,M,M,M,M,M,M,31.00,110.00,2022-07-29 06:40,76.60,KINS 290658Z AUTO 11022G28KT 10SM FEW240 25/17 A2995 RMK AO2 PK WND 11031/40 SLP090 T02480167,M
LSV,2022-07-29 06:58,-115.0343,36.2362,570.00,77.40,68.00,72.81,120.00,3.00,0.00,29.91,1010.40,10.00,M,CLR,M,M,M,M,M,M,M,M,M,M,M,M,M,M,77.40,KLSV 290658Z AUTO 12003KT 10SM CLR 25/20 A2991 RMK AO2 SLP104 T02520200 $,M
BAM,2022-07-29 07:15,-116.8743,40.5990,1382.36,73.40,37.40,26.98,360.00,6.00,0.00,30.08,M,10.00,M,CLR,M,M,M,M,M,M,M,M,M,M,M,M,M,M,73.40,KBAM 290715Z AUTO 36006KT 10SM CLR 23/03 A3008 RMK AO1,M
BVU,2022-07-29 07:15,-114.8611,35.9475,671.00,M,M,M,M,M,0.00,M,M,M,M,M,M,M,M,M,M,M,M,M,M,M,M,M,M,M,M,KBVU 290715Z AUTO RMK AO2 PNO PWINO TSNO,M
TMT,2022-07-29 07:15,-117.1971,39.4643,1749.34,M,M,M,0.00,0.00,0.00,30.16,M,10.00,M,CLR,M,M,M,M,M,M,M,M,M,M,M,M,M,M,M,KTMT 290715Z AUTO 00000KT 10SM CLR A3016 RMK AO2,M
CXP,2022-07-29 07:15,-119.7326,39.1923,1431.00,75.20,32.00,20.49,70.00,3.00,0.00,30.09,M,10.00,M,CLR,M,M,M,M,M,M,M,M,M,M,M,M,M,M,75.20,KCXP 290715Z AUTO 07003KT 10SM CLR 24/M00 A3009 RMK AO2,M
HTH,2022-07-29 07:15,-118.6315,38.5448,1282.89,80.60,33.80,18.42,200.00,4.00,0.00,30.02,M,10.00,M,CLR,M,M,M,M,M,M,M,M,M,M,M,M,M,M,78.88,KHTH 290715Z AUTO 20004KT 10SM CLR 27/01 A3002 RMK A01,M
RTS,2022-07-29 07:15,-119.8764,39.6682,1539.00,75.20,24.80,15.25,0.00,0.00,0.00,30.13,M,10.00,M,CLR,M,M,M,M,M,M,M,M,M,M,M,M,M,M,75.20,KRTS 290715Z AUTO 00000KT 10SM CLR 24/M04 A3013 RMK AO2,M
MEV,2022-07-29 07:15,-119.7500,38.9963,1441.42,64.40,28.40,25.60,110.00,8.00,0.00,30.08,M,10.00,M,CLR,M,M,M,M,M,M,M,M,M,M,M,M,M,M,64.40,KMEV 290715Z AUTO 11008KT 10SM CLR 18/M02 A3008 RMK AO2,M
HTH,2022-07-29 07:35,-118.6315,38.5448,1282.89,78.80,28.40,15.71,230.00,7.00,0.00,30.03,M,10.00,M,CLR,M,M,M,M,M,M,M,M,M,M,M,M,M,M,78.80,KHTH 290735Z AUTO 23007KT 10SM CLR 26/M02 A3003 RMK A01,M
BVU,2022-07-29 07:35,-114.8611,35.9475,671.00,M,M,M,M,M,0.00,M,M,M,M,M,M,M,M,M,M,M,M,M,M,M,M,M,M,M,M,KBVU 290735Z AUTO RMK AO2 PNO PWINO TSNO,M
CXP,2022-07-29 07:35,-119.7326,39.1923,1431.00,73.40,32.00,21.76,90.00,3.00,0.00,30.10,M,10.00,M,CLR,M,M,M,M,M,M,M,M,M,M,M,M,M,M,73.40,KCXP 290735Z AUTO 09003KT 10SM CLR 23/00 A3010 RMK AO2,M
RTS,2022-07-29 07:35,-119.8764,39.6682,1539.00,73.40,24.80,16.20,0.00,0.00,0.00,30.13,M,10.00,M,CLR,M,M,M,M,M,M,M,M,M,M,M,M,M,M,73.40,KRTS 290735Z AUTO 00000KT 10SM CLR 23/M04 A3013 RMK AO2,M
MEV,2022-07-29 07:35,-119.7500,38.9963,1441.42,66.20,33.80,29.92,0.00,0.00,0.00,30.09,M,10.00,M,CLR,M,M,M,M,M,M,M,M,M,M,M,M,M,M,66.20,KMEV 290735Z AUTO 00000KT 10SM CLR 19/01 A3009 RMK AO2,M
BAM,2022-07-29 07:35,-116.8743,40.5990,1382.36,73.40,37.40,26.98,340.00,6.00,0.00,30.08,M,10.00,M,CLR,M,M,M,M,M,M,M,M,M,M,M,M,M,M,73.40,KBAM 290735Z AUTO 34006KT 10SM CLR 23/03 A3008 RMK AO1,M
TMT,2022-07-29 07:35,-117.1971,39.4643,1749.34,M,M,M,230.00,5.00,0.00,30.16,M,10.00,M,CLR,M,M,M,M,M,M,M,M,M,M,M,M,M,M,M,KTMT 290735Z AUTO 23005KT 10SM CLR A3016 RMK AO2,M
ELY,2022-07-29 07:53,-114.8453,39.2950,1909.00,68.00,43.00,40.31,220.00,7.00,0.00,30.20,1011.20,10.00,M,FEW,M,M,M,11000.00,M,M,M,M,M,M,M,M,M,M,68.00,KELY 290753Z AUTO 22007KT 10SM FEW110 20/06 A3020 RMK AO2 SLP112 T02000061 $,M
DRA,2022-07-29 07:53,-116.0278,36.6206,1009.00,80.00,60.00,50.52,130.00,14.00,0.00,29.96,1008.80,10.00,M,CLR,M,M,M,M,M,M,M,M,M,M,M,M,M,M,80.94,KDRA 290753Z AUTO 13014KT 10SM CLR 27/16 A2996 RMK AO2 SLP088 T02670156 403830217,M
LOL,2022-07-29 07:53,-118.5701,40.0684,1192.43,68.00,37.00,31.92,190.00,3.00,0.00,30.00,1010.70,10.00,M,CLR,M,M,M,M,M,M,M,M,M,M,M,M,M,M,68.00,KLOL 290753Z AUTO 19003KT 10SM CLR 20/03 A3000 RMK AO2 SLP107 T02000028 404060167,M
VGT,2022-07-29 07:53,-115.1933,36.2111,667.00,79.00,67.00,66.49,0.00,0.00,0.00,29.91,1011.80,10.00,M,CLR,M,M,M,M,M,M,M,M,M,M,M,M,M,M,79.00,KVGT 290753Z AUTO 00000KT 10SM CLR 26/19 A2991 RMK AO2 SLP118 T02610194 403830239 $,M
P68,2022-07-29 07:53,-116.0056,39.6014,1993.00,64.00,36.00,35.26,0.00,0.00,0.00,30.17,1011.80,M,M,M,M,M,M,M,M,M,M,M,M,M,M,M,M,M,64.00,KP68 290753Z AUTO 00000KT 18/02 A3017 RMK AO1 SLP118 T01780022 403500122,M
TMT,2022-07-29 07:55,-117.1971,39.4643,1749.34,60.00,34.00,37.37,200.00,6.00,0.00,30.17,M,10.00,M,CLR,M,M,M,M,M,M,M,M,M,M,M,M,M,M,60.10,KTMT 290755Z AUTO 20006KT 10SM CLR 16/01 A3017 RMK AO2 T01560011,M
RNO,2022-07-29 07:55,-119.7711,39.4839,1341.00,81.00,39.00,22.33,200.00,4.00,0.00,30.06,1010.40,10.00,M,CLR,M,M,M,M,M,M,M,M,M,M,M,M,M,M,79.33,KRNO 290755Z 20004KT 10SM CLR 27/04 A3006 RMK AO2 SLP104 T02720039 403940206,M
CXP,2022-07-29 07:55,-119.7326,39.1923,1431.00,73.40,30.20,20.23,90.00,4.00,0.00,30.10,M,10.00,M,CLR,M,M,M,M,M,M,M,M,M,M,M,M,M,M,73.40,KCXP 290755Z AUTO 09004KT 10SM CLR 23/M01 A3010 RMK AO2,M
RTS,2022-07-29 07:55,-119.8764,39.6682,1539.00,71.60,24.80,17.22,340.00,6.00,0.00,30.13,M,10.00,M,CLR,M,M,M,M,M,M,M,M,M,M,M,M,M,M,71.60,KRTS 290755Z AUTO 34006KT 10SM CLR 22/M04 A3013 RMK AO2,M
MEV,2022-07-29 07:55,-119.7500,38.9963,1441.42,64.40,33.80,31.85,0.00,0.00,0.00,30.09,M,10.00,M,CLR,M,M,M,M,M,M,M,M,M,M,M,M,M,M,64.40,KMEV 290755Z AUTO 00000KT 10SM CLR 18/01 A3009 RMK AO2,M
BAM,2022-07-29 07:55,-116.8743,40.5990,1382.36,75.20,37.40,25.40,350.00,4.00,0.00,30.08,M,10.00,M,CLR,M,M,M,M,M,M,M,M,M,M,M,M,M,M,75.20,KBAM 290755Z AUTO 35004KT 10SM CLR 24/03 A3008 RMK AO1,M
HTH,2022-07-29 07:55,-118.6315,38.5448,1282.89,78.80,30.20,16.90,260.00,9.00,0.00,30.03,M,10.00,M,M,M,M,M,M,M,M,M,M,M,M,M,M,M,M,78.80,KHTH 290755Z AUTO 26009KT 10SM 26/M01 A3003 RMK A01,M
BVU,2022-07-29 07:55,-114.8611,35.9475,671.00,M,M,M,M,M,0.00,M,M,M,M,M,M,M,M,M,M,M,M,M,M,M,M,M,M,M,M,KBVU 290755Z AUTO RMK AO2 PNO PWINO TSNO,M
HND,2022-07-29 07:56,-115.1344,35.9729,742.79,79.00,60.00,52.38,190.00,9.00,T,29.96,1013.00,10.00,M,CLR,M,M,M,M,M,M,M,M,M,M,M,M,M,M,79.00,KHND 290756Z AUTO 19009KT 10SM CLR 26/16 A2996 RMK AO2 RAB01E22 SLP130 P0000 T02610156,M
TPH,2022-07-29 07:56,-117.0904,38.0505,1654.00,78.00,45.00,30.95,100.00,7.00,0.00,30.12,1009.60,10.00,M,CLR,M,M,M,M,M,M,M,M,M,M,M,M,M,M,78.10,KTPH 290756Z AUTO 10007KT 10SM CLR 26/07 A3012 RMK AO2 SLP096 T02560072 403720172,M
WMC,2022-07-29 07:56,-117.8072,40.9019,1315.00,81.00,39.00,22.33,50.00,11.00,0.00,30.05,1010.70,10.00,M,CLR,M,M,M,M,M,M,M,M,M,M,M,M,M,M,79.33,KWMC 290756Z AUTO 05011KT 10SM CLR 27/04 A3005 RMK AO2 SLP107 T02720039 403890167,M
NFL,2022-07-29 07:56,-118.7010,39.4166,1199.00,72.00,39.00,30.12,270.00,7.00,0.00,29.99,1012.70,10.00,M,CLR,M,M,M,M,M,M,M,M,M,M,M,M,M,M,72.00,KNFL 290756Z AUTO 27007KT 10SM CLR 22/04 A2999 RMK AO2 SLP127 T02220039 404060172,M
LAS,2022-07-29 07:56,-115.1634,36.0719,663.00,79.00,60.00,52.38,180.00,3.00,0.00,29.92,1010.40,10.00,M,FEW,SCT,BKN,M,8000.00,12000.00,15000.00,M,M,M,M,M,M,M,M,79.00,KLAS 290756Z 18003KT 10SM FEW080 SCT120 BKN150 26/16 A2992 RMK AO2 SLP104 VIRGA NW-NE T02610156 403780222 $,M
EKO,2022-07-29 07:56,-115.7860,40.8242,1367.00,66.00,43.00,43.20,0.00,0.00,0.00,30.12,1013.00,10.00,M,CLR,M,M,M,M,M,M,M,M,M,M,M,M,M,M,66.00,KEKO 290756Z AUTO 00000KT 10SM CLR 19/06 A3012 RMK AO2 SLP130 T01890061 403720133 $,M
LSV,2022-07-29 07:58,-115.0343,36.2362,570.00,77.50,71.00,80.14,0.00,0.00,0.00,29.90,1010.00,10.00,M,CLR,M,M,M,M,M,M,M,M,M,M,M,M,M,M,77.50,KLSV 290758Z AUTO 00000KT 10SM CLR 25/22 A2990 RMK AO2 SLP100 T02530216 403880243 $,M
INS,2022-07-29 07:58,-115.6733,36.5872,955.00,78.40,58.30,50.09,100.00,15.00,0.00,29.95,1008.90,10.00,M,CLR,M,M,M,M,M,M,M,M,M,M,M,30.00,110.00,2022-07-29 06:59,78.40,KINS 290758Z AUTO 10015KT 10SM CLR 26/15 A2995 RMK AO2 PK WND 11030/0659 SLP089 T02580146 403740226,M
CXP,2022-07-29 08:15,-119.7326,39.1923,1431.00,71.60,32.00,23.13,0.00,0.00,0.00,30.10,M,10.00,M,CLR,M,M,M,M,M,M,M,M,M,M,M,M,M,M,71.60,KCXP 290815Z AUTO 00000KT 10SM CLR 22/M00 A3010 RMK AO2,M
RTS,2022-07-29 08:15,-119.8764,39.6682,1539.00,69.80,24.80,18.30,350.00,6.00,0.00,30.12,M,10.00,M,CLR,M,M,M,M,M,M,M,M,M,M,M,M,M,M,69.80,KRTS 290815Z AUTO 35006KT 10SM CLR 21/M04 A3012 RMK AO2,M
MEV,2022-07-29 08:15,-119.7500,38.9963,1441.42,59.00,33.80,38.56,110.00,6.00,0.00,30.09,M,10.00,M,CLR,M,M,M,M,M,M,M,M,M,M,M,M,M,M,59.00,KMEV 290815Z AUTO 11006KT 10SM CLR 15/01 A3009 RMK AO2,M
BAM,2022-07-29 08:15,-116.8743,40.5990,1382.36,77.00,39.20,25.67,10.00,6.00,0.00,30.08,M,10.00,M,CLR,M,M,M,M,M,M,M,M,M,M,M,M,M,M,77.00,KBAM 290815Z AUTO 01006KT 10SM CLR 25/04 A3008 RMK AO1,M
HTH,2022-07-29 08:15,-118.6315,38.5448,1282.89,78.80,30.20,16.90,280.00,5.00,0.00,30.03,M,10.00,M,M,M,M,M,M,M,M,M,M,M,M,M,M,M,M,78.80,KHTH 290815Z AUTO 28005KT 10SM 26/M01 A3003 RMK A01,M
TMT,2022-07-29 08:15,-117.1971,39.4643,1749.34,M,M,M,190.00,4.00,0.00,30.17,M,10.00,M,CLR,M,M,M,M,M,M,M,M,M,M,M,M,M,M,M,KTMT 290815Z AUTO 19004KT 10SM CLR A3017 RMK AO2,M
BVU,2022-07-29 08:15,-114.8611,35.9475,671.00,M,M,M,M,M,0.00,M,M,M,M,M,M,M,M,M,M,M,M,M,M,M,M,M,M,M,M,KBVU 290815Z AUTO RMK AO2 PNO PWINO TSNO,M
TMT,2022-07-29 08:35,-117.1971,39.4643,1749.34,55.80,32.00,40.25,180.00,3.00,0.00,30.17,M,10.00,M,CLR,M,M,M,M,M,M,M,M,M,M,M,M,M,M,55.80,KTMT 290835Z AUTO 18003KT 10SM CLR 13/00 A3017 RMK AO2 T01320000,M
BAM,2022-07-29 08:35,-116.8743,40.5990,1382.36,73.40,37.40,26.98,0.00,0.00,0.00,30.08,M,10.00,M,CLR,M,M,M,M,M,M,M,M,M,M,M,M,M,M,73.40,KBAM 290835Z AUTO 00000KT 10SM CLR 23/03 A3008 RMK AO1,M
MEV,2022-07-29 08:35,-119.7500,38.9963,1441.42,64.40,32.00,29.63,0.00,0.00,0.00,30.09,M,10.00,M,CLR,M,M,M,M,M,M,M,M,M,M,M,M,M,M,64.40,KMEV 290835Z AUTO 00000KT 10SM CLR 18/M00 A3009 RMK AO2,M
RTS,2022-07-29 08:35,-119.8764,39.6682,1539.00,68.00,26.60,20.98,340.00,5.00,0.00,30.13,M,10.00,M,CLR,M,M,M,M,M,M,M,M,M,M,M,M,M,M,68.00,KRTS 290835Z AUTO 34005KT 10SM CLR 20/M03 A3013 RMK AO2,M
CXP,2022-07-29 08:35,-119.7326,39.1923,1431.00,73.40,30.20,20.23,0.00,0.00,0.00,30.10,M,10.00,M,CLR,M,M,M,M,M,M,M,M,M,M,M,M,M,M,73.40,KCXP 290835Z AUTO 00000KT 10SM CLR 23/M01 A3010 RMK AO2,M
BVU,2022-07-29 08:35,-114.8611,35.9475,671.00,M,M,M,M,M,0.00,M,M,M,M,M,M,M,M,M,M,M,M,M,M,M,M,M,M,M,M,KBVU 290835Z AUTO RMK AO2 PNO PWINO TSNO,M
HTH,2022-07-29 08:35,-118.6315,38.5448,1282.89,77.00,28.40,16.67,0.00,0.00,0.00,30.02,M,10.00,M,M,M,M,M,M,M,M,M,M,M,M,M,M,M,M,77.00,KHTH 290835Z AUTO 00000KT 10SM 25/M02 A3002 RMK A01,M
P68,2022-07-29 08:53,-116.0056,39.6014,1993.00,64.00,38.00,38.00,180.00,3.00,0.00,30.16,1011.60,M,M,M,M,M,M,M,M,M,M,M,M,M,M,M,M,M,64.00,KP68 290853Z AUTO 18003KT 18/03 A3016 RMK AO1 SLP116 T01780033 50001,M
VGT,2022-07-29 08:53,-115.1933,36.2111,667.00,77.00,67.00,71.03,100.00,9.00,0.00,29.92,1012.10,10.00,M,CLR,M,M,M,M,M,M,M,M,M,M,M,M,M,M,77.00,KVGT 290853Z AUTO 10009KT 10SM CLR 25/19 A2992 RMK AO2 SLP121 60000 T02500194 55014 $,M
ELY,2022-07-29 08:53,-114.8453,39.2950,1909.00,67.00,43.00,41.87,150.00,6.00,0.00,30.20,1010.90,10.00,M,CLR,M,M,M,M,M,M,M,M,M,M,M,M,M,M,66.90,KELY 290853Z AUTO 15006KT 10SM CLR 19/06 A3020 RMK AO2 SLP109 T01940061 50004 $,M
DRA,2022-07-29 08:53,-116.0278,36.6206,1009.00,79.00,59.00,50.36,110.00,11.00,0.00,29.96,1008.80,10.00,17.00,CLR,M,M,M,M,M,M,M,M,M,M,M,M,M,M,79.00,KDRA 290853Z AUTO 11011G17KT 10SM CLR 26/15 A2996 RMK AO2 SLP088 T02610150 51009,M
LOL,2022-07-29 08:53,-118.5701,40.0684,1192.43,66.00,35.00,31.73,M,3.00,0.00,29.99,1010.60,10.00,M,CLR,M,M,M,M,M,M,M,M,M,M,M,M,M,M,66.00,KLOL 290853Z AUTO VRB03KT 10SM CLR 19/02 A2999 RMK AO2 SLP106 T01890017 50005,M
HTH,2022-07-29 08:55,-118.6315,38.5448,1282.89,77.00,28.40,16.67,240.00,3.00,0.00,30.02,M,10.00,M,CLR,M,M,M,M,M,M,M,M,M,M,M,M,M,M,77.00,KHTH 290855Z AUTO 24003KT 10SM CLR 25/M02 A3002 RMK A01,M
MEV,2022-07-29 08:55,-119.7500,38.9963,1441.42,60.80,33.80,36.16,0.00,0.00,0.00,30.09,M,10.00,M,CLR,M,M,M,M,M,M,M,M,M,M,M,M,M,M,60.80,KMEV 290855Z AUTO 00000KT 10SM CLR 16/01 A3009 RMK AO2,M
BVU,2022-07-29 08:55,-114.8611,35.9475,671.00,M,M,M,M,M,0.00,M,M,M,M,M,M,M,M,M,M,M,M,M,M,M,M,M,M,M,M,KBVU 290855Z AUTO RMK AO2 PNO PWINO TSNO,M
CXP,2022-07-29 08:55,-119.7326,39.1923,1431.00,66.20,33.80,29.92,180.00,3.00,0.00,30.10,M,10.00,M,CLR,M,M,M,M,M,M,M,M,M,M,M,M,M,M,66.20,KCXP 290855Z AUTO 18003KT 10SM CLR 19/01 A3010 RMK AO2,M
RNO,2022-07-29 08:55,-119.7711,39.4839,1341.00,77.00,39.00,25.47,220.00,3.00,0.00,30.06,1010.50,10.00,M,CLR,M,M,M,M,M,M,M,M,M,M,M,M,M,M,77.00,KRNO 290855Z 22003KT 10SM CLR 25/04 A3006 RMK AO2 SLP105 T02500039 50005,M
RTS,2022-07-29 08:55,-119.8764,39.6682,1539.00,68.00,26.60,20.98,330.00,6.00,0.00,30.12,M,10.00,M,CLR,M,M,M,M,M,M,M,M,M,M,M,M,M,M,68.00,KRTS 290855Z AUTO 33006KT 10SM CLR 20/M03 A3012 RMK AO2,M
TMT,2022-07-29 08:55,-117.1971,39.4643,1749.34,56.30,32.50,40.33,0.00,0.00,0.00,30.16,M,10.00,M,CLR,M,M,M,M,M,M,M,M,M,M,M,M,M,M,56.30,KTMT 290855Z AUTO 00000KT 10SM CLR 14/00 A3016 RMK AO2 T01350003,M
BAM,2022-07-29 08:55,-116.8743,40.5990,1382.36,73.40,37.40,26.98,10.00,6.00,0.00,30.08,M,10.00,M,CLR,M,M,M,M,M,M,M,M,M,M,M,M,M,M,73.40,KBAM 290855Z AUTO 01006KT 10SM CLR 23/03 A3008 RMK AO1,M
HND,2022-07-29 08:56,-115.1344,35.9729,742.79,79.00,61.00,54.08,140.00,5.00,0.00,29.96,1013.10,10.00,M,CLR,M,M,M,M,M,M,M,M,M,M,M,M,M,M,79.00,KHND 290856Z AUTO 14005KT 10SM CLR 26/16 A2996 RMK AO2 SLP131 60000 T02610161 51008,M
WMC,2022-07-29 08:56,-117.8072,40.9019,1315.00,80.00,35.00,19.72,50.00,7.00,0.00,30.05,1010.90,10.00,M,CLR,M,M,M,M,M,M,M,M,M,M,M,M,M,M,78.74,KWMC 290856Z AUTO 05007KT 10SM CLR 27/02 A3005 RMK AO2 SLP109 T02670017 51005,M
NFL,2022-07-29 08:56,-118.7010,39.4166,1199.00,73.00,38.00,27.89,300.00,3.00,0.00,29.99,1012.60,10.00,M,CLR,M,M,M,M,M,M,M,M,M,M,M,M,M,M,73.00,KNFL 290856Z AUTO 30003KT 10SM CLR 23/03 A2999 RMK AO2 SLP126 T02280033 50004,M
EKO,2022-07-29 08:56,-115.7860,40.8242,1367.00,64.00,44.00,48.31,250.00,3.00,0.00,30.12,1013.20,10.00,M,CLR,M,M,M,M,M,M,M,M,M,M,M,M,M,M,64.00,KEKO 290856Z AUTO 25003KT 10SM CLR 18/07 A3012 RMK AO2 SLP132 T01780067 51006 $,M
LAS,2022-07-29 08:56,-115.1634,36.0719,663.00,75.00,66.00,73.59,90.00,12.00,0.00,29.93,1011.00,10.00,M,FEW,BKN,M,M,15000.00,20000.00,M,M,M,M,M,M,M,M,M,75.00,KLAS 290856Z 09012KT 10SM FEW150 BKN200 24/19 A2993 RMK AO2 SLP110 60000 T02390189 53001 $,M
TPH,2022-07-29 08:56,-117.0904,38.0505,1654.00,77.00,46.00,33.34,140.00,9.00,0.00,30.12,1009.40,10.00,M,CLR,M,M,M,M,M,M,M,M,M,M,M,M,M,M,77.00,KTPH 290856Z AUTO 14009KT 10SM CLR 25/08 A3012 RMK AO2 SLP094 T02500078 51008,M
LSV,2022-07-29 08:58,-115.0343,36.2362,570.00,78.00,67.80,70.66,170.00,4.00,0.00,29.92,1010.60,10.00,M,FEW,M,M,M,22000.00,M,M,M,M,M,M,M,M,M,M,78.10,KLSV 290858Z AUTO 17004KT 10SM FEW220 26/20 A2992 RMK AO2 SLP106 T02560199 53000 $,M
INS,2022-07-29 08:58,-115.6733,36.5872,955.00,78.40,58.30,50.09,210.00,7.00,0.00,29.96,1009.20,10.00,M,CLR,M,M,M,M,M,M,M,M,M,M,M,M,M,M,78.40,KINS 290858Z AUTO 21007KT 10SM CLR 26/15 A2996 RMK AO2 SLP092 T02580146 51006,M
BVU,2022-07-29 09:15,-114.8611,35.9475,671.00,M,M,M,M,M,0.00,M,M,M,M,M,M,M,M,M,M,M,M,M,M,M,M,M,M,M,M,KBVU 290915Z AUTO RMK AO2 PNO PWINO TSNO,M
RTS,2022-07-29 09:15,-119.8764,39.6682,1539.00,68.00,26.60,20.98,340.00,5.00,0.00,30.12,M,10.00,M,CLR,M,M,M,M,M,M,M,M,M,M,M,M,M,M,68.00,KRTS 290915Z AUTO 34005KT 10SM CLR 20/M03 A3012 RMK AO2,M
CXP,2022-07-29 09:15,-119.7326,39.1923,1431.00,68.00,33.80,28.11,0.00,0.00,0.00,30.10,M,10.00,M,CLR,M,M,M,M,M,M,M,M,M,M,M,M,M,M,68.00,KCXP 290915Z AUTO 00000KT 10SM CLR 20/01 A3010 RMK AO2,M
TMT,2022-07-29 09:15,-117.1971,39.4643,1749.34,56.80,33.00,40.57,0.00,0.00,0.00,30.17,M,10.00,M,CLR,M,M,M,M,M,M,M,M,M,M,M,M,M,M,56.80,KTMT 290915Z AUTO 00000KT 10SM CLR 14/01 A3017 RMK AO2 T01380006,M
BAM,2022-07-29 09:15,-116.8743,40.5990,1382.36,69.80,37.40,30.49,40.00,4.00,0.00,30.08,M,10.00,M,CLR,M,M,M,M,M,M,M,M,M,M,M,M,M,M,69.80,KBAM 290915Z AUTO 04004KT 10SM CLR 21/03 A3008 RMK AO1,M
HTH,2022-07-29 09:15,-118.6315,38.5448,1282.89,75.20,28.40,17.70,0.00,0.00,0.00,30.02,M,10.00,M,CLR,M,M,M,M,M,M,M,M,M,M,M,M,M,M,75.20,KHTH 290915Z AUTO 00000KT 10SM CLR 24/M02 A3002 RMK A01,M
MEV,2022-07-29 09:15,-119.7500,38.9963,1441.42,60.80,35.60,38.85,100.00,7.00,0.00,30.09,M,10.00,M,CLR,M,M,M,M,M,M,M,M,M,M,M,M,M,M,60.80,KMEV 290915Z AUTO 10007KT 10SM CLR 16/02 A3009 RMK AO2,M
CXP,2022-07-29 09:35,-119.7326,39.1923,1431.00,68.00,33.80,28.11,0.00,0.00,0.00,30.10,M,10.00,M,CLR,M,M,M,M,M,M,M,M,M,M,M,M,M,M,68.00,KCXP 290935Z AUTO 00000KT 10SM CLR 20/01 A3010 RMK AO2,M
HTH,2022-07-29 09:35,-118.6315,38.5448,1282.89,75.20,28.40,17.70,150.00,5.00,0.00,30.02,M,10.00,M,CLR,M,M,M,M,M,M,M,M,M,M,M,M,M,M,75.20,KHTH 290935Z AUTO 15005KT 10SM CLR 24/M02 A3002 RMK A01,M
BVU,2022-07-29 09:35,-114.8611,35.9475,671.00,M,M,M,M,M,0.00,M,M,M,M,M,M,M,M,M,M,M,M,M,M,M,M,M,M,M,M,KBVU 290935Z AUTO RMK AO2 PNO PWINO TSNO,M
TMT,2022-07-29 09:35,-117.1971,39.4643,1749.34,56.00,33.00,41.58,250.00,3.00,0.00,30.17,M,10.00,M,CLR,M,M,M,M,M,M,M,M,M,M,M,M,M,M,55.90,KTMT 290935Z AUTO 25003KT 10SM CLR 13/01 A3017 RMK AO2 T01330005,M
RTS,2022-07-29 09:35,-119.8764,39.6682,1539.00,66.20,26.60,22.33,350.00,7.00,0.00,30.12,M,10.00,M,CLR,M,M,M,M,M,M,M,M,M,M,M,M,M,M,66.20,KRTS 290935Z AUTO 35007KT 10SM CLR 19/M03 A3012 RMK AO2,M
MEV,2022-07-29 09:35,-119.7500,38.9963,1441.42,59.00,33.80,38.56,110.00,6.00,0.00,30.08,M,10.00,M,CLR,M,M,M,M,M,M,M,M,M,M,M,M,M,M,59.00,KMEV 290935Z AUTO 11006KT 10SM CLR 15/01 A3008 RMK AO2,M
BAM,2022-07-29 09:35,-116.8743,40.5990,1382.36,68.00,37.40,32.43,330.00,5.00,0.00,30.08,M,10.00,M,CLR,M,M,M,M,M,M,M,M,M,M,M,M,M,M,68.00,KBAM 290935Z AUTO 33005KT 10SM CLR 20/03 A3008 RMK AO1,M
VGT,2022-07-29 09:53,-115.1933,36.2111,667.00,77.00,65.00,66.27,220.00,4.00,0.00,29.94,1012.80,10.00,M,CLR,M,M,M,M,M,M,M,M,M,M,M,M,M,M,77.00,KVGT 290953Z AUTO 22004KT 10SM CLR 25/18 A2994 RMK AO2 SLP128 T02500183 $,M
LOL,2022-07-29 09:53,-118.5701,40.0684,1192.43,63.00,36.00,36.52,220.00,5.00,0.00,30.00,1010.90,10.00,M,CLR,M,M,M,M,M,M,M,M,M,M,M,M,M,M,63.00,KLOL 290953Z AUTO 22005KT 10SM CLR 17/02 A3000 RMK AO2 SLP109 T01720022,M
ELY,2022-07-29 09:53,-114.8453,39.2950,1909.00,62.00,44.00,51.64,220.00,5.00,0.00,30.21,1011.50,10.00,M,CLR,M,M,M,M,M,M,M,M,M,M,M,M,M,M,62.10,KELY 290953Z AUTO 22005KT 10SM CLR 17/07 A3021 RMK AO2 SLP115 T01670067 $,M
DRA,2022-07-29 09:53,-116.0278,36.6206,1009.00,80.00,59.00,48.58,100.00,5.00,0.00,29.97,1008.80,10.00,M,CLR,M,M,M,M,M,M,M,M,M,M,M,M,M,M,80.76,KDRA 290953Z AUTO 10005KT 10SM CLR 27/15 A2997 RMK AO2 SLP088 T02670150,M
P68,2022-07-29 09:53,-116.0056,39.6014,1993.00,63.00,37.00,37.99,200.00,3.00,0.00,30.17,1011.60,M,M,M,M,M,M,M,M,M,M,M,M,M,M,M,M,M,63.00,KP68 290953Z AUTO 20003KT 17/03 A3017 RMK AO1 SLP116 T01720028,M
RTS,2022-07-29 09:55,-119.8764,39.6682,1539.00,66.20,26.60,22.33,330.00,7.00,0.00,30.12,M,10.00,M,CLR,M,M,M,M,M,M,M,M,M,M,M,M,M,M,66.20,KRTS 290955Z AUTO 33007KT 10SM CLR 19/M03 A3012 RMK AO2,M
MEV,2022-07-29 09:55,-119.7500,38.9963,1441.42,57.20,32.00,38.26,0.00,0.00,0.00,30.09,M,10.00,M,CLR,M,M,M,M,M,M,M,M,M,M,M,M,M,M,57.20,KMEV 290955Z AUTO 00000KT 10SM CLR 14/00 A3009 RMK AO2,M
BAM,2022-07-29 09:55,-116.8743,40.5990,1382.36,68.00,39.20,34.80,340.00,6.00,0.00,30.08,M,10.00,M,CLR,M,M,M,M,M,M,M,M,M,M,M,M,M,M,68.00,KBAM 290955Z AUTO 34006KT 10SM CLR 20/04 A3008 RMK AO1,M
HTH,2022-07-29 09:55,-118.6315,38.5448,1282.89,75.20,28.40,17.70,170.00,7.00,0.00,30.02,M,10.00,M,CLR,M,M,M,M,M,M,M,M,M,M,M,M,M,M,75.20,KHTH 290955Z AUTO 17007KT 10SM CLR 24/M02 A3002 RMK A01,M
RNO,2022-07-29 09:55,-119.7711,39.4839,1341.00,76.00,41.00,28.56,240.00,4.00,0.00,30.06,1010.60,10.00,M,CLR,M,M,M,M,M,M,M,M,M,M,M,M,M,M,75.90,KRNO 290955Z 24004KT 10SM CLR 24/05 A3006 RMK AO2 SLP106 T02440050,M
CXP,2022-07-29 09:55,-119.7326,39.1923,1431.00,66.20,33.80,29.92,0.00,0.00,0.00,30.10,M,10.00,M,CLR,M,M,M,M,M,M,M,M,M,M,M,M,M,M,66.20,KCXP 290955Z AUTO 00000KT 10SM CLR 19/01 A3010 RMK AO2,M
BVU,2022-07-29 09:55,-114.8611,35.9475,671.00,M,M,M,M,M,0.00,M,M,M,M,M,M,M,M,M,M,M,M,M,M,M,M,M,M,M,M,KBVU 290955Z AUTO RMK AO2 PNO PWINO TSNO,M
TMT,2022-07-29 09:55,-117.1971,39.4643,1749.34,M,M,M,260.00,4.00,0.00,30.18,M,10.00,M,CLR,M,M,M,M,M,M,M,M,M,M,M,M,M,M,M,KTMT 290955Z AUTO 26004KT 10SM CLR A3018 RMK AO2,M
EKO,2022-07-29 09:56,-115.7860,40.8242,1367.00,59.00,42.00,53.40,0.00,0.00,0.00,30.12,1013.40,10.00,M,CLR,M,M,M,M,M,M,M,M,M,M,M,M,M,M,59.00,KEKO 290956Z AUTO 00000KT 10SM CLR 15/06 A3012 RMK AO2 SLP134 T01500056 $,M
NFL,2022-07-29 09:56,-118.7010,39.4166,1199.00,69.00,38.00,31.85,210.00,3.00,0.00,30.00,1012.90,10.00,M,CLR,M,M,M,M,M,M,M,M,M,M,M,M,M,M,69.10,KNFL 290956Z AUTO 21003KT 10SM CLR 21/03 A3000 RMK AO2 SLP129 T02060033,M
WMC,2022-07-29 09:56,-117.8072,40.9019,1315.00,77.00,36.00,22.64,30.00,8.00,0.00,30.06,1011.30,10.00,M,CLR,M,M,M,M,M,M,M,M,M,M,M,M,M,M,77.00,KWMC 290956Z AUTO 03008KT 10SM CLR 25/02 A3006 RMK AO2 SLP113 T02500022,M
HND,2022-07-29 09:56,-115.1344,35.9729,742.79,79.00,61.00,54.08,210.00,4.00,0.00,29.97,1013.40,10.00,M,CLR,M,M,M,M,M,M,M,M,M,M,M,M,M,M,79.00,KHND 290956Z AUTO 21004KT 10SM CLR 26/16 A2997 RMK AO2 SLP134 T02610161,M
TPH,2022-07-29 09:56,-117.0904,38.0505,1654.00,72.00,47.00,40.79,130.00,8.00,0.00,30.12,1009.90,10.00,M,CLR,M,M,M,M,M,M,M,M,M,M,M,M,M,M,72.00,KTPH 290956Z AUTO 13008KT 10SM CLR 22/08 A3012 RMK AO2 SLP099 T02220083,M
LAS,2022-07-29 09:56,-115.1634,36.0719,663.00,76.00,65.00,68.73,100.00,3.00,0.00,29.94,1011.10,10.00,M,FEW,BKN,M,M,15000.00,21000.00,M,M,M,M,M,M,M,M,M,75.90,KLAS 290956Z 10003KT 10SM FEW150 BKN210 24/18 A2994 RMK AO2 SLP111 T02440183 $,M
LSV,2022-07-29 09:58,-115.0343,36.2362,570.00,78.40,66.00,65.74,30.00,5.00,0.00,29.92,1010.60,10.00,M,SCT,M,M,M,23000.00,M,M,M,M,M,M,M,M,M,M,78.40,KLSV 290958Z AUTO 03005KT 10SM SCT230 26/19 A2992 RMK AO2 SLP106 T02580189 $,M
INS,2022-07-29 09:58,-115.6733,36.5872,955.00,78.80,56.80,46.84,120.00,4.00,0.00,29.97,1009.40,10.00,M,CLR,M,M,M,M,M,M,M,M,M,M,M,M,M,M,78.80,KINS 290958Z AUTO 12004KT 10SM CLR 26/14 A2997 RMK AO2 SLP094 T02600138,M
BVU,2022-07-29 10:15,-114.8611,35.9475,671.00,M,M,M,M,M,0.00,M,M,M,M,M,M,M,M,M,M,M,M,M,M,M,M,M,M,M,M,KBVU 291015Z AUTO RMK AO2 PNO PWINO TSNO,M
BAM,2022-07-29 10:15,-116.8743,40.5990,1382.36,68.00,39.20,34.80,360.00,4.00,0.00,30.08,M,10.00,M,CLR,M,M,M,M,M,M,M,M,M,M,M,M,M,M,68.00,KBAM 291015Z AUTO 36004KT 10SM CLR 20/04 A3008 RMK AO1,M
HTH,2022-07-29 10:15,-118.6315,38.5448,1282.89,77.00,26.60,15.48,170.00,5.00,0.00,30.02,M,10.00,M,CLR,M,M,M,M,M,M,M,M,M,M,M,M,M,M,77.00,KHTH 291015Z AUTO 17005KT 10SM CLR 25/M03 A3002 RMK A01,M
MEV,2022-07-29 10:15,-119.7500,38.9963,1441.42,59.00,28.40,30.98,M,4.00,0.00,30.09,M,10.00,M,CLR,M,M,M,M,M,M,M,M,M,M,M,M,M,M,59.00,KMEV 291015Z AUTO VRB04KT 10SM CLR 15/M02 A3009 RMK AO2,M
RTS,2022-07-29 10:15,-119.8764,39.6682,1539.00,66.20,26.60,22.33,320.00,4.00,0.00,30.13,M,10.00,M,CLR,M,M,M,M,M,M,M,M,M,M,M,M,M,M,66.20,KRTS 291015Z AUTO 32004KT 10SM CLR 19/M03 A3013 RMK AO2,M
CXP,2022-07-29 10:15,-119.7326,39.1923,1431.00,66.20,32.00,27.83,0.00,0.00,0.00,30.10,M,10.00,M,CLR,M,M,M,M,M,M,M,M,M,M,M,M,M,M,66.20,KCXP 291015Z AUTO 00000KT 10SM CLR 19/00 A3010 RMK AO2,M
TMT,2022-07-29 10:15,-117.1971,39.4643,1749.34,55.00,32.40,42.11,250.00,3.00,0.00,30.18,M,10.00,M,CLR,M,M,M,M,M,M,M,M,M,M,M,M,M,M,55.00,KTMT 291015Z AUTO 25003KT 10SM CLR 13/00 A3018 RMK AO2 T01280002,M
BAM,2022-07-29 10:35,-116.8743,40.5990,1382.36,68.00,39.20,34.80,360.00,8.00,0.00,30.08,M,10.00,M,CLR,M,M,M,M,M,M,M,M,M,M,M,M,M,M,68.00,KBAM 291035Z AUTO 36008KT 10SM CLR 20/04 A3008 RMK AO1,M
HTH,2022-07-29 10:35,-118.6315,38.5448,1282.89,77.00,28.40,16.67,0.00,0.00,0.00,30.02,M,10.00,M,CLR,M,M,M,M,M,M,M,M,M,M,M,M,M,M,77.00,KHTH 291035Z AUTO 00000KT 10SM CLR 25/M02 A3002 RMK A01,M
TMT,2022-07-29 10:35,-117.1971,39.4643,1749.34,51.00,30.90,45.73,180.00,5.00,0.00,30.18,M,10.00,M,CLR,M,M,M,M,M,M,M,M,M,M,M,M,M,M,51.10,KTMT 291035Z AUTO 18005KT 10SM CLR 11/M01 A3018 RMK AO2 T01061006,M
BVU,2022-07-29 10:35,-114.8611,35.9475,671.00,M,M,M,M,M,0.00,M,M,M,M,M,M,M,M,M,M,M,M,M,M,M,M,M,M,M,M,KBVU 291035Z AUTO RMK AO2 PNO PWINO TSNO,M
CXP,2022-07-29 10:35,-119.7326,39.1923,1431.00,66.20,33.80,29.92,0.00,0.00,0.00,30.10,M,10.00,M,CLR,M,M,M,M,M,M,M,M,M,M,M,M,M,M,66.20,KCXP 291035Z AUTO 00000KT 10SM CLR 19/01 A3010 RMK AO2,M
RTS,2022-07-29 10:35,-119.8764,39.6682,1539.00,64.40,26.60,23.77,360.00,5.00,0.00,30.13,M,10.00,M,CLR,M,M,M,M,M,M,M,M,M,M,M,M,M,M,64.40,KRTS 291035Z AUTO 36005KT 10SM CLR 18/M03 A3013 RMK AO2,M
MEV,2022-07-29 10:35,-119.7500,38.9963,1441.42,57.20,35.60,44.19,220.00,5.00,0.00,30.09,M,10.00,M,FEW,FEW,M,M,5000.00,5500.00,M,M,M,M,M,M,M,M,M,57.20,KMEV 291035Z AUTO 22005KT 10SM FEW050 FEW055 14/02 A3009 RMK AO2,M
P68,2022-07-29 10:53,-116.0056,39.6014,1993.00,60.00,36.00,40.46,180.00,5.00,0.00,30.17,1012.00,M,M,M,M,M,M,M,M,M,M,M,M,M,M,M,M,M,60.10,KP68 291053Z AUTO 18005KT 16/02 A3017 RMK AO1 SLP120 T01560022,M
LOL,2022-07-29 10:53,-118.5701,40.0684,1192.43,72.00,38.00,28.85,40.00,5.00,0.00,30.01,1010.80,10.00,M,CLR,M,M,M,M,M,M,M,M,M,M,M,M,M,M,72.00,KLOL 291053Z AUTO 04005KT 10SM CLR 22/03 A3001 RMK AO2 SLP108 T02220033,M
VGT,2022-07-29 10:53,-115.1933,36.2111,667.00,77.00,65.00,66.27,190.00,3.00,0.00,29.94,1012.60,10.00,M,CLR,M,M,M,M,M,M,M,M,M,M,M,M,M,M,77.00,KVGT 291053Z AUTO 19003KT 10SM CLR 25/18 A2994 RMK AO2 SLP126 T02500183 $,M
DRA,2022-07-29 10:53,-116.0278,36.6206,1009.00,79.00,58.00,48.41,90.00,6.00,0.00,29.97,1009.10,10.00,M,CLR,M,M,M,M,M,M,M,M,M,M,M,M,M,M,79.00,KDRA 291053Z AUTO 09006KT 10SM CLR 26/14 A2997 RMK AO2 SLP091 T02610144,M
ELY,2022-07-29 10:53,-114.8453,39.2950,1909.00,58.00,44.00,59.98,160.00,7.00,0.00,30.20,1011.80,10.00,M,CLR,M,M,M,M,M,M,M,M,M,M,M,M,M,M,57.90,KELY 291053Z AUTO 16007KT 10SM CLR 14/07 A3020 RMK AO2 SLP118 T01440067 $,M
BVU,2022-07-29 10:55,-114.8611,35.9475,671.00,M,M,M,M,M,0.00,M,M,M,M,M,M,M,M,M,M,M,M,M,M,M,M,M,M,M,M,KBVU 291055Z AUTO RMK AO2 PNO PWINO TSNO,M
RNO,2022-07-29 10:55,-119.7711,39.4839,1341.00,75.00,42.00,30.71,240.00,5.00,0.00,30.07,1010.80,10.00,M,CLR,M,M,M,M,M,M,M,M,M,M,M,M,M,M,75.00,KRNO 291055Z 24005KT 10SM CLR 24/06 A3007 RMK AO2 SLP108 T02390056,M
TMT,2022-07-29 10:55,-117.1971,39.4643,1749.34,50.50,31.50,47.91,190.00,4.00,0.00,30.18,M,10.00,M,CLR,M,M,M,M,M,M,M,M,M,M,M,M,M,M,50.50,KTMT 291055Z AUTO 19004KT 10SM CLR 10/00 A3018 RMK AO2 T01031003,M
HTH,2022-07-29 10:55,-118.6315,38.5448,1282.89,71.60,28.40,19.98,0.00,0.00,0.00,30.03,M,10.00,M,CLR,M,M,M,M,M,M,M,M,M,M,M,M,M,M,71.60,KHTH 291055Z AUTO 00000KT 10SM CLR 22/M02 A3003 RMK A01,M
BAM,2022-07-29 10:55,-116.8743,40.5990,1382.36,71.60,41.00,33.00,340.00,10.00,0.00,30.09,M,10.00,M,CLR,M,M,M,M,M,M,M,M,M,M,M,M,M,M,71.60,KBAM 291055Z AUTO 34010KT 10SM CLR 22/05 A3009 RMK AO1,M
MEV,2022-07-29 10:55,-119.7500,38.9963,1441.42,55.40,37.40,50.64,0.00,0.00,0.00,30.09,M,10.00,M,FEW,M,M,M,5500.00,M,M,M,M,M,M,M,M,M,M,55.40,KMEV 291055Z AUTO 00000KT 10SM FEW055 13/03 A3009 RMK AO2,M
RTS,2022-07-29 10:55,-119.8764,39.6682,1539.00,66.20,26.60,22.33,0.00,0.00,0.00,30.13,M,10.00,M,CLR,M,M,M,M,M,M,M,M,M,M,M,M,M,M,66.20,KRTS 291055Z AUTO 00000KT 10SM CLR 19/M03 A3013 RMK AO2,M
CXP,2022-07-29 10:55,-119.7326,39.1923,1431.00,62.60,37.40,39.14,0.00,0.00,0.00,30.10,M,10.00,M,CLR,M,M,M,M,M,M,M,M,M,M,M,M,M,M,62.60,KCXP 291055Z AUTO 00000KT 10SM CLR 17/03 A3010 RMK AO2,M
NFL,2022-07-29 10:56,-118.7010,39.4166,1199.00,68.00,38.00,33.07,220.00,4.00,0.00,30.00,1013.00,10.00,M,CLR,M,M,M,M,M,M,M,M,M,M,M,M,M,M,68.00,KNFL 291056Z AUTO 22004KT 10SM CLR 20/03 A3000 RMK AO2 SLP130 T02000033,M
WMC,2022-07-29 10:56,-117.8072,40.9019,1315.00,69.00,36.00,29.55,280.00,7.00,0.00,30.07,1011.90,10.00,M,CLR,M,M,M,M,M,M,M,M,M,M,M,M,M,M,69.10,KWMC 291056Z AUTO 28007KT 10SM CLR 21/02 A3007 RMK AO2 SLP119 T02060022,M
EKO,2022-07-29 10:56,-115.7860,40.8242,1367.00,59.00,41.00,51.18,190.00,3.00,0.00,30.11,1013.30,10.00,M,CLR,M,M,M,M,M,M,M,M,M,M,M,M,M,M,59.00,KEKO 291056Z AUTO 19003KT 10SM CLR 15/05 A3011 RMK AO2 SLP133 T01500050 $,M
HND,2022-07-29 10:56,-115.1344,35.9729,742.79,76.00,63.00,64.31,340.00,6.00,0.00,29.98,1013.80,10.00,M,CLR,M,M,M,M,M,M,M,M,M,M,M,M,M,M,75.90,KHND 291056Z AUTO 34006KT 10SM CLR 24/17 A2998 RMK AO2 SLP138 T02440172,M
TPH,2022-07-29 10:56,-117.0904,38.0505,1654.00,71.00,47.00,42.05,0.00,0.00,0.00,30.12,1010.00,10.00,M,CLR,M,M,M,M,M,M,M,M,M,M,M,M,M,M,71.10,KTPH 291056Z AUTO 00000KT 10SM CLR 22/08 A3012 RMK AO2 SLP100 T02170083,M
LAS,2022-07-29 10:56,-115.1634,36.0719,663.00,76.00,65.00,68.73,320.00,4.00,0.00,29.95,1011.30,10.00,M,SCT,M,M,M,25000.00,M,M,M,M,M,M,M,M,M,M,75.90,KLAS 291056Z 32004KT 10SM SCT250 24/18 A2995 RMK AO2 SLP113 T02440183 $,M
LSV,2022-07-29 10:58,-115.0343,36.2362,570.00,78.80,66.00,64.88,200.00,5.00,0.00,29.92,1010.60,10.00,M,CLR,M,M,M,M,M,M,M,M,M,M,M,M,M,M,78.80,KLSV 291058Z AUTO 20005KT 10SM CLR 26/19 A2992 RMK AO2 SLP106 T02600189 $,M
INS,2022-07-29 10:58,-115.6733,36.5872,955.00,74.00,60.60,62.74,60.00,8.00,0.00,29.98,1009.90,10.00,M,CLR,M,M,M,M,M,M,M,M,M,M,M,M,M,M,74.10,KINS 291058Z AUTO 06008KT 10SM CLR 23/16 A2998 RMK AO2 SLP099 T02340159,M
BVU,2022-07-29 11:15,-114.8611,35.9475,671.00,M,M,M,M,M,0.00,M,M,M,M,M,M,M,M,M,M,M,M,M,M,M,M,M,M,M,M,KBVU 291115Z AUTO RMK AO2 PNO PWINO TSNO,M
MEV,2022-07-29 11:15,-119.7500,38.9963,1441.42,55.40,37.40,50.64,60.00,6.00,0.00,30.10,M,10.00,M,CLR,M,M,M,M,M,M,M,M,M,M,M,M,M,M,55.40,KMEV 291115Z AUTO 06006KT 10SM CLR 13/03 A3010 RMK AO2,M
CXP,2022-07-29 11:15,-119.7326,39.1923,1431.00,64.40,35.60,34.22,0.00,0.00,0.00,30.11,M,10.00,M,CLR,M,M,M,M,M,M,M,M,M,M,M,M,M,M,64.40,KCXP 291115Z AUTO 00000KT 10SM CLR 18/02 A3011 RMK AO2,M
TMT,2022-07-29 11:15,-117.1971,39.4643,1749.34,48.70,30.20,48.61,150.00,4.00,0.00,30.18,M,10.00,M,CLR,M,M,M,M,M,M,M,M,M,M,M,M,M,M,46.92,KTMT 291115Z AUTO 15004KT 10SM CLR 09/M01 A3018 RMK AO2 T00931010,M
HTH,2022-07-29 11:15,-118.6315,38.5448,1282.89,71.60,28.40,19.98,260.00,5.00,0.00,30.03,M,10.00,M,CLR,M,M,M,M,M,M,M,M,M,M,M,M,M,M,71.60,KHTH 291115Z AUTO 26005KT 10SM CLR 22/M02 A3003 RMK A01,M
BAM,2022-07-29 11:15,-116.8743,40.5990,1382.36,71.60,41.00,33.00,330.00,7.00,0.00,30.09,M,10.00,M,CLR,M,M,M,M,M,M,M,M,M,M,M,M,M,M,71.60,KBAM 291115Z AUTO 33007KT 10SM CLR 22/05 A3009 RMK AO1,M
RTS,2022-07-29 11:15,-119.8764,39.6682,1539.00,68.00,28.40,22.59,350.00,4.00,0.00,30.13,M,10.00,M,CLR,M,M,M,M,M,M,M,M,M,M,M,M,M,M,68.00,KRTS 291115Z AUTO 35004KT 10SM CLR 20/M02 A3013 RMK AO2,M
BAM,2022-07-29 11:35,-116.8743,40.5990,1382.36,64.40,37.40,36.74,0.00,0.00,0.00,30.10,M,10.00,M,CLR,M,M,M,M,M,M,M,M,M,M,M,M,M,M,64.40,KBAM 291135Z AUTO 00000KT 10SM CLR 18/03 A3010 RMK AO1,M
BVU,2022-07-29 11:35,-114.8611,35.9475,671.00,M,M,M,M,M,0.00,M,M,M,M,M,M,M,M,M,M,M,M,M,M,M,M,M,M,M,M,KBVU 291135Z AUTO RMK AO2 PNO PWINO TSNO,M
MEV,2022-07-29 11:35,-119.7500,38.9963,1441.42,55.40,37.40,50.64,0.00,0.00,0.00,30.10,M,10.00,M,FEW,FEW,M,M,4900.00,6000.00,M,M,M,M,M,M,M,M,M,55.40,KMEV 291135Z AUTO 00000KT 10SM FEW049 FEW060 13/03 A3010 RMK AO2,M
RTS,2022-07-29 11:35,-119.8764,39.6682,1539.00,68.00,30.20,24.32,360.00,3.00,0.00,30.14,M,10.00,M,CLR,M,M,M,M,M,M,M,M,M,M,M,M,M,M,68.00,KRTS 291135Z AUTO 36003KT 10SM CLR 20/M01 A3014 RMK AO2,M
HTH,2022-07-29 11:35,-118.6315,38.5448,1282.89,71.60,28.40,19.98,0.00,0.00,0.00,30.03,M,10.00,M,CLR,M,M,M,M,M,M,M,M,M,M,M,M,M,M,71.60,KHTH 291135Z AUTO 00000KT 10SM CLR 22/M02 A3003 RMK A01,M
CXP,2022-07-29 11:35,-119.7326,39.1923,1431.00,62.60,37.40,39.14,0.00,0.00,0.00,30.11,M,10.00,M,CLR,M,M,M,M,M,M,M,M,M,M,M,M,M,M,62.60,KCXP 291135Z AUTO 00000KT 10SM CLR 17/03 A3011 RMK AO2,M
VGT,2022-07-29 11:53,-115.1933,36.2111,667.00,77.00,66.00,68.85,320.00,4.00,0.00,29.93,1012.30,10.00,M,CLR,M,M,M,M,M,M,M,M,M,M,M,M,M,M,77.00,KVGT 291153Z AUTO 32004KT 10SM CLR 25/19 A2993 RMK AO2 SLP123 60000 7//// T02500189 10267 20250 50005 $,M
ELY,2022-07-29 11:53,-114.8453,39.2950,1909.00,56.00,44.00,64.47,180.00,10.00,0.00,30.21,1012.20,10.00,M,CLR,M,M,M,M,M,M,M,M,M,M,M,M,M,M,55.90,KELY 291153Z AUTO 18010KT 10SM CLR 13/07 A3021 RMK AO2 SLP122 T01330067 10217 20128 51002 $,M
P68,2022-07-29 11:53,-116.0056,39.6014,1993.00,58.00,36.00,43.78,150.00,3.00,0.00,30.18,1012.60,M,M,M,M,M,M,M,M,M,M,M,M,M,M,M,M,M,57.90,KP68 291153Z AUTO 15003KT 14/02 A3018 RMK AO1 SLP126 T01440022 10211 20144 53004,M
LOL,2022-07-29 11:53,-118.5701,40.0684,1192.43,74.00,37.00,26.12,10.00,4.00,0.00,30.02,1010.90,10.00,M,CLR,M,M,M,M,M,M,M,M,M,M,M,M,M,M,73.90,KLOL 291153Z AUTO 01004KT 10SM CLR 23/03 A3002 RMK AO2 SLP109 T02330028 10278 20167 51007,M
DRA,2022-07-29 11:53,-116.0278,36.6206,1009.00,77.00,59.00,53.80,110.00,13.00,0.00,29.97,1009.00,10.00,23.00,CLR,M,M,M,M,M,M,M,M,M,M,M,M,M,M,77.00,KDRA 291153Z AUTO 11013G23KT 10SM CLR 25/15 A2997 RMK AO2 SLP090 T02500150 10311 20250 50001,M
RNO,2022-07-29 11:55,-119.7711,39.4839,1341.00,71.00,41.00,33.57,80.00,3.00,0.00,30.08,1011.60,10.00,M,FEW,M,M,M,15000.00,M,M,M,M,M,M,M,M,M,M,71.10,KRNO 291155Z COR 08003KT 10SM FEW150 22/05 A3008 RMK AO2 SLP116 T02170050 10306 20217 53007,M
TMT,2022-07-29 11:55,-117.1971,39.4643,1749.34,50.40,31.60,48.29,250.00,3.00,0.00,30.18,M,10.00,M,CLR,M,M,M,M,M,M,M,M,M,M,M,M,M,M,50.40,KTMT 291155Z AUTO 25003KT 10SM CLR 10/00 A3018 RMK AO2 T01021002,M
HTH,2022-07-29 11:55,-118.6315,38.5448,1282.89,73.40,28.40,18.80,0.00,0.00,0.00,30.04,M,10.00,M,CLR,M,M,M,M,M,M,M,M,M,M,M,M,M,M,73.40,KHTH 291155Z AUTO 00000KT 10SM CLR 23/M02 A3004 RMK A01,M
BAM,2022-07-29 11:55,-116.8743,40.5990,1382.36,62.60,37.40,39.14,0.00,0.00,0.00,30.10,M,10.00,M,CLR,M,M,M,M,M,M,M,M,M,M,M,M,M,M,62.60,KBAM 291155Z AUTO 00000KT 10SM CLR 17/03 A3010 RMK AO1,M
MEV,2022-07-29 11:55,-119.7500,38.9963,1441.42,53.60,37.40,54.07,90.00,4.00,0.00,30.10,M,10.00,M,FEW,FEW,M,M,4900.00,5500.00,M,M,M,M,M,M,M,M,M,53.60,KMEV 291155Z AUTO 09004KT 10SM FEW049 FEW055 12/03 A3010 RMK AO2,M
RTS,2022-07-29 11:55,-119.8764,39.6682,1539.00,68.00,30.20,24.32,0.00,0.00,0.00,30.14,M,10.00,M,CLR,M,M,M,M,M,M,M,M,M,M,M,M,M,M,68.00,KRTS 291155Z AUTO 00000KT 10SM CLR 20/M01 A3014 RMK AO2,M
CXP,2022-07-29 11:55,-119.7326,39.1923,1431.00,62.60,35.60,36.45,0.00,0.00,0.00,30.11,M,10.00,M,CLR,M,M,M,M,M,M,M,M,M,M,M,M,M,M,62.60,KCXP 291155Z AUTO 00000KT 10SM CLR 17/02 A3011 RMK AO2,M
BVU,2022-07-29 11:55,-114.8611,35.9475,671.00,M,M,M,M,M,0.00,M,M,M,M,M,M,M,M,M,M,M,M,M,M,M,M,M,M,M,M,KBVU 291155Z AUTO RMK AO2 PNO PWINO TSNO,M
TPH,2022-07-29 11:56,-117.0904,38.0505,1654.00,69.00,47.00,45.02,10.00,5.00,0.00,30.13,1010.30,10.00,M,CLR,M,M,M,M,M,M,M,M,M,M,M,M,M,M,69.10,KTPH 291156Z AUTO 01005KT 10SM CLR 21/08 A3013 RMK AO2 SLP103 T02060083 10289 20194 53003,M
EKO,2022-07-29 11:56,-115.7860,40.8242,1367.00,60.00,39.00,45.53,0.00,0.00,0.00,30.13,1013.70,10.00,M,CLR,M,M,M,M,M,M,M,M,M,M,M,M,M,M,60.10,KEKO 291156Z AUTO 00000KT 10SM CLR 16/04 A3013 RMK AO2 SLP137 T01560039 10267 20139 53003 $,M
WMC,2022-07-29 11:56,-117.8072,40.9019,1315.00,66.00,36.00,32.88,340.00,4.00,0.00,30.08,1012.30,10.00,M,CLR,M,M,M,M,M,M,M,M,M,M,M,M,M,M,66.00,KWMC 291156Z AUTO 34004KT 10SM CLR 19/02 A3008 RMK AO2 SLP123 T01890022 10278 20183 53007,M
LAS,2022-07-29 11:56,-115.1634,36.0719,663.00,75.00,66.00,73.59,80.00,6.00,0.00,29.94,1011.20,10.00,M,SCT,BKN,M,M,20000.00,25000.00,M,M,M,M,M,M,M,M,M,75.00,KLAS 291156Z 08006KT 10SM SCT200 BKN250 24/19 A2994 RMK AO2 SLP112 60000 70032 T02390189 10261 20239 50002 $,M
NFL,2022-07-29 11:56,-118.7010,39.4166,1199.00,65.00,37.00,35.54,0.00,0.00,0.00,30.01,1013.20,10.00,M,CLR,M,M,M,M,M,M,M,M,M,M,M,M,M,M,64.90,KNFL 291156Z AUTO 00000KT 10SM CLR 18/03 A3001 RMK AO2 SLP132 T01830028 10256 20178 51007,M
HND,2022-07-29 11:56,-115.1344,35.9729,742.79,75.00,64.00,68.64,100.00,3.00,0.00,29.98,1013.50,10.00,M,CLR,M,M,M,M,M,M,M,M,M,M,M,M,M,M,75.00,KHND 291156Z AUTO 10003KT 10SM CLR 24/18 A2998 RMK AO2 SLP135 60000 T02390178 10294 20239 50005,M
LSV,2022-07-29 11:58,-115.0343,36.2362,570.00,76.00,65.30,69.70,60.00,7.00,0.00,29.92,1010.60,10.00,M,SCT,M,M,M,23000.00,M,M,M,M,M,M,M,M,M,M,75.90,KLSV 291158Z AUTO 06007KT 10SM SCT230 24/19 A2992 RMK AO2 SLP106 70001 T02440185 10260 20244 55000 $,M
INS,2022-07-29 11:58,-115.6733,36.5872,955.00,72.70,60.30,65.07,110.00,9.00,0.00,29.99,1010.20,10.00,M,CLR,M,M,M,M,M,M,M,M,M,M,M,M,M,M,72.70,KINS 291158Z AUTO 11009KT 10SM CLR 23/16 A2999 RMK AO2 SLP102 T02260157 10299 20226 52008,M
MEV,2022-07-29 12:15,-119.7500,38.9963,1441.42,53.60,35.60,50.36,110.00,4.00,0.00,30.11,M,10.00,M,CLR,M,M,M,M,M,M,M,M,M,M,M,M,M,M,53.60,KMEV 291215Z AUTO 11004KT 10SM CLR 12/02 A3011 RMK AO2,M
TMT,2022-07-29 12:15,-117.1971,39.4643,1749.34,50.50,31.80,48.50,220.00,4.00,0.00,30.19,M,10.00,M,CLR,M,M,M,M,M,M,M,M,M,M,M,M,M,M,50.50,KTMT 291215Z AUTO 22004KT 10SM CLR 10/00 A3019 RMK AO2 T01031001,M
BVU,2022-07-29 12:15,-114.8611,35.9475,671.00,M,M,M,M,M,0.00,M,M,M,M,M,M,M,M,M,M,M,M,M,M,M,M,M,M,M,M,KBVU 291215Z AUTO RMK AO2 PNO PWINO TSNO,M
CXP,2022-07-29 12:15,-119.7326,39.1923,1431.00,62.60,33.80,33.93,0.00,0.00,0.00,30.12,M,10.00,M,CLR,M,M,M,M,M,M,M,M,M,M,M,M,M,M,62.60,KCXP 291215Z AUTO 00000KT 10SM CLR 17/01 A3012 RMK AO2,M
RTS,2022-07-29 12:15,-119.8764,39.6682,1539.00,60.80,28.40,29.06,0.00,0.00,0.00,30.15,M,10.00,M,CLR,M,M,M,M,M,M,M,M,M,M,M,M,M,M,60.80,KRTS 291215Z AUTO 00000KT 10SM CLR 16/M02 A3015 RMK AO2,M
BAM,2022-07-29 12:15,-116.8743,40.5990,1382.36,64.40,39.20,39.43,10.00,5.00,0.00,30.11,M,10.00,M,CLR,M,M,M,M,M,M,M,M,M,M,M,M,M,M,64.40,KBAM 291215Z AUTO 01005KT 10SM CLR 18/04 A3011 RMK AO1,M
HTH,2022-07-29 12:15,-118.6315,38.5448,1282.89,71.60,30.20,21.50,230.00,7.00,0.00,30.05,M,10.00,M,CLR,M,M,M,M,M,M,M,M,M,M,M,M,M,M,71.60,KHTH 291215Z AUTO 23007KT 10SM CLR 22/M01 A3005 RMK A01,M
BVU,2022-07-29 12:35,-114.8611,35.9475,671.00,M,M,M,M,M,0.00,M,M,M,M,M,M,M,M,M,M,M,M,M,M,M,M,M,M,M,M,KBVU 291235Z AUTO RMK AO2 PNO PWINO TSNO,M
CXP,2022-07-29 12:35,-119.7326,39.1923,1431.00,60.80,35.60,38.85,0.00,0.00,0.00,30.13,M,10.00,M,CLR,M,M,M,M,M,M,M,M,M,M,M,M,M,M,60.80,KCXP 291235Z AUTO 00000KT 10SM CLR 16/02 A3013 RMK AO2,M
TMT,2022-07-29 12:35,-117.1971,39.4643,1749.34,46.60,29.80,51.75,0.00,0.00,0.00,30.19,M,10.00,M,CLR,M,M,M,M,M,M,M,M,M,M,M,M,M,M,46.60,KTMT 291235Z AUTO 00000KT 10SM CLR 08/M01 A3019 RMK AO2 T00811012,M
HTH,2022-07-29 12:35,-118.6315,38.5448,1282.89,71.60,32.00,23.13,220.00,7.00,0.00,30.05,M,10.00,M,CLR,M,M,M,M,M,M,M,M,M,M,M,M,M,M,71.60,KHTH 291235Z AUTO 22007KT 10SM CLR 22/M00 A3005 RMK A01,M
BAM,2022-07-29 12:35,-116.8743,40.5990,1382.36,60.80,37.40,41.71,0.00,0.00,0.00,30.11,M,10.00,M,CLR,M,M,M,M,M,M,M,M,M,M,M,M,M,M,60.80,KBAM 291235Z AUTO 00000KT 10SM CLR 16/03 A3011 RMK AO1,M
MEV,2022-07-29 12:35,-119.7500,38.9963,1441.42,55.40,35.60,47.16,0.00,0.00,0.00,30.12,M,10.00,M,CLR,M,M,M,M,M,M,M,M,M,M,M,M,M,M,55.40,KMEV 291235Z AUTO 00000KT 10SM CLR 13/02 A3012 RMK AO2,M
RTS,2022-07-29 12:35,-119.8764,39.6682,1539.00,62.60,30.20,29.35,0.00,0.00,0.00,30.14,M,10.00,M,CLR,M,M,M,M,M,M,M,M,M,M,M,M,M,M,62.60,KRTS 291235Z AUTO 00000KT 10SM CLR 17/M01 A3014 RMK AO2,M
LOL,2022-07-29 12:53,-118.5701,40.0684,1192.43,66.00,37.00,34.21,M,5.00,0.00,30.03,1011.90,10.00,M,CLR,M,M,M,M,M,M,M,M,M,M,M,M,M,M,66.00,KLOL 291253Z AUTO VRB05KT 10SM CLR 19/03 A3003 RMK AO2 SLP119 T01890028,M
DRA,2022-07-29 12:53,-116.0278,36.6206,1009.00,74.00,60.00,62.05,110.00,12.00,0.00,29.99,1010.00,10.00,M,CLR,M,M,M,M,M,M,M,M,M,M,M,M,M,M,73.90,KDRA 291253Z AUTO 11012KT 10SM CLR 23/16 A2999 RMK AO2 SLP100 T02330156,M
P68,2022-07-29 12:53,-116.0056,39.6014,1993.00,56.00,35.00,45.40,180.00,4.00,0.00,30.19,1013.60,M,M,M,M,M,M,M,M,M,M,M,M,M,M,M,M,M,55.90,KP68 291253Z AUTO 18004KT 13/02 A3019 RMK AO1 SLP136 T01330017,M
ELY,2022-07-29 12:53,-114.8453,39.2950,1909.00,56.00,43.00,61.81,180.00,6.00,0.00,30.22,1012.60,10.00,M,CLR,M,M,M,M,M,M,M,M,M,M,M,M,M,M,55.90,KELY 291253Z AUTO 18006KT 10SM CLR 13/06 A3022 RMK AO2 SLP126 T01330061 $,M
VGT,2022-07-29 12:53,-115.1933,36.2111,667.00,77.00,66.00,68.85,50.00,5.00,0.00,29.94,1012.70,10.00,M,CLR,M,M,M,M,M,M,M,M,M,M,M,M,M,M,77.00,KVGT 291253Z 05005KT 10SM CLR 25/19 A2994 RMK AO2 SLP127 T02500189 $,M
BVU,2022-07-29 12:55,-114.8611,35.9475,671.00,M,M,M,M,M,0.00,M,M,M,M,M,M,M,M,M,M,M,M,M,M,M,M,M,M,M,M,KBVU 291255Z AUTO RMK AO2 PNO PWINO TSNO,M
CXP,2022-07-29 12:55,-119.7326,39.1923,1431.00,62.60,37.40,39.14,0.00,0.00,0.00,30.13,M,10.00,M,CLR,M,M,M,M,M,M,M,M,M,M,M,M,M,M,62.60,KCXP 291255Z AUTO 00000KT 10SM CLR 17/03 A3013 RMK AO2,M
RNO,2022-07-29 12:55,-119.7711,39.4839,1341.00,70.00,41.00,34.85,0.00,0.00,0.00,30.10,1012.40,10.00,M,FEW,M,M,M,15000.00,M,M,M,M,M,M,M,M,M,M,70.00,KRNO 291255Z 00000KT 10SM FEW150 21/05 A3010 RMK AO2 SLP124 T02110050,M
RTS,2022-07-29 12:55,-119.8764,39.6682,1539.00,62.60,30.20,29.35,0.00,0.00,0.00,30.15,M,10.00,M,CLR,M,M,M,M,M,M,M,M,M,M,M,M,M,M,62.60,KRTS 291255Z AUTO 00000KT 10SM CLR 17/M01 A3015 RMK AO2,M
MEV,2022-07-29 12:55,-119.7500,38.9963,1441.42,51.80,33.80,50.08,0.00,0.00,0.00,30.12,M,10.00,M,CLR,M,M,M,M,M,M,M,M,M,M,M,M,M,M,51.80,KMEV 291255Z AUTO 00000KT 10SM CLR 11/01 A3012 RMK AO2,M
BAM,2022-07-29 12:55,-116.8743,40.5990,1382.36,59.00,35.60,41.42,150.00,3.00,0.00,30.11,M,10.00,M,CLR,M,M,M,M,M,M,M,M,M,M,M,M,M,M,59.00,KBAM 291255Z AUTO 15003KT 10SM CLR 15/02 A3011 RMK AO1,M
HTH,2022-07-29 12:55,-118.6315,38.5448,1282.89,71.60,32.00,23.13,0.00,0.00,0.00,30.05,M,10.00,M,CLR,M,M,M,M,M,M,M,M,M,M,M,M,M,M,71.60,KHTH 291255Z AUTO 00000KT 10SM CLR 22/00 A3005 RMK A01,M
TMT,2022-07-29 12:55,-117.1971,39.4643,1749.34,46.80,29.50,50.74,240.00,3.00,0.00,30.19,M,10.00,M,CLR,M,M,M,M,M,M,M,M,M,M,M,M,M,M,45.61,KTMT 291255Z AUTO 24003KT 10SM CLR 08/M01 A3019 RMK AO2 T00821014,M
WMC,2022-07-29 12:56,-117.8072,40.9019,1315.00,64.00,35.00,34.02,320.00,3.00,0.00,30.08,1012.80,10.00,M,CLR,M,M,M,M,M,M,M,M,M,M,M,M,M,M,64.00,KWMC 291256Z AUTO 32003KT 10SM CLR 18/02 A3008 RMK AO2 SLP128 T01780017,M
TPH,2022-07-29 12:56,-117.0904,38.0505,1654.00,67.00,36.00,31.87,10.00,9.00,0.00,30.14,1011.40,10.00,M,CLR,M,M,M,M,M,M,M,M,M,M,M,M,M,M,66.90,KTPH 291256Z AUTO 01009KT 10SM CLR 19/02 A3014 RMK AO2 SLP114 T01940022,M
LAS,2022-07-29 12:56,-115.1634,36.0719,663.00,75.00,66.00,73.59,110.00,4.00,0.00,29.96,1011.60,10.00,M,SCT,BKN,M,M,18000.00,22000.00,M,M,M,M,M,M,M,M,M,75.00,KLAS 291256Z 11004KT 10SM SCT180 BKN220 24/19 A2996 RMK AO2 SLP116 T02390189 $,M
EKO,2022-07-29 12:56,-115.7860,40.8242,1367.00,62.00,38.00,40.62,80.00,4.00,0.00,30.14,1014.80,10.00,M,CLR,M,M,M,M,M,M,M,M,M,M,M,M,M,M,62.10,KEKO 291256Z AUTO 08004KT 10SM CLR 17/03 A3014 RMK AO2 SLP148 T01670033 $,M
NFL,2022-07-29 12:56,-118.7010,39.4166,1199.00,65.00,35.00,32.97,0.00,0.00,0.00,30.02,1013.70,10.00,M,CLR,M,M,M,M,M,M,M,M,M,M,M,M,M,M,64.90,KNFL 291256Z AUTO 00000KT 10SM CLR 18/02 A3002 RMK AO2 SLP137 T01830017,M
HND,2022-07-29 12:56,-115.1344,35.9729,742.79,74.00,64.00,71.21,0.00,0.00,0.00,29.99,1014.00,10.00,M,CLR,M,M,M,M,M,M,M,M,M,M,M,M,M,M,73.90,KHND 291256Z AUTO 00000KT 10SM CLR 23/18 A2999 RMK AO2 SLP140 T02330178,M
INS,2022-07-29 12:58,-115.6733,36.5872,955.00,72.00,60.00,65.69,120.00,5.00,0.00,30.00,1010.80,10.00,M,OVC,M,M,M,19000.00,M,M,M,M,M,M,M,M,M,M,72.00,KINS 291258Z AUTO 12005KT 10SM OVC190 22/16 A3000 RMK AO2 SLP108 T02220155,M
LSV,2022-07-29 12:58,-115.0343,36.2362,570.00,75.40,75.40,100.00,70.00,4.00,0.00,29.93,1011.00,10.00,M,FEW,M,M,M,19000.00,M,M,M,M,M,M,M,M,M,M,75.40,KLSV 291258Z AUTO 07004KT 10SM FEW190 24/24 A2993 RMK AO2 SLP110 T02410241 $,M
CXP,2022-07-29 13:10,-119.7326,39.1923,1431.00,60.80,37.40,41.71,0.00,0.00,0.00,30.13,M,10.00,M,CLR,M,M,M,M,M,M,M,M,M,M,M,M,M,M,60.80,KCXP 291310Z AUTO 00000KT 10SM CLR 16/03 A3013 RMK AO2,M
BAM,2022-07-29 13:15,-116.8743,40.5990,1382.36,59.00,35.60,41.42,0.00,0.00,0.00,30.12,M,10.00,M,CLR,M,M,M,M,M,M,M,M,M,M,M,M,M,M,59.00,KBAM 291315Z AUTO 00000KT 10SM CLR 15/02 A3012 RMK AO1,M
MEV,2022-07-29 13:15,-119.7500,38.9963,1441.42,51.80,37.40,57.77,100.00,3.00,0.00,30.12,M,10.00,M,CLR,M,M,M,M,M,M,M,M,M,M,M,M,M,M,51.80,KMEV 291315Z AUTO 10003KT 10SM CLR 11/03 A3012 RMK AO2,M
HTH,2022-07-29 13:15,-118.6315,38.5448,1282.89,69.80,33.80,26.43,200.00,4.00,0.00,30.06,M,10.00,M,CLR,M,M,M,M,M,M,M,M,M,M,M,M,M,M,69.80,KHTH 291315Z AUTO 20004KT 10SM CLR 21/01 A3006 RMK A01,M
TMT,2022-07-29 13:15,-117.1971,39.4643,1749.34,45.70,28.90,51.61,80.00,4.00,0.00,30.21,M,10.00,M,CLR,M,M,M,M,M,M,M,M,M,M,M,M,M,M,43.42,KTMT 291315Z AUTO 08004KT 10SM CLR 08/M02 A3021 RMK AO2 T00761017,M
BVU,2022-07-29 13:15,-114.8611,35.9475,671.00,M,M,M,M,M,0.00,M,M,M,M,M,M,M,M,M,M,M,M,M,M,M,M,M,M,M,M,KBVU 291315Z AUTO RMK AO2 PNO PWINO TSNO,M
RTS,2022-07-29 13:15,-119.8764,39.6682,1539.00,66.20,33.80,29.92,320.00,5.00,0.00,30.16,M,10.00,M,CLR,M,M,M,M,M,M,M,M,M,M,M,M,M,M,66.20,KRTS 291315Z AUTO 32005KT 10SM CLR 19/01 A3016 RMK AO2,M
TMT,2022-07-29 13:35,-117.1971,39.4643,1749.34,49.60,31.10,48.75,0.00,0.00,0.00,30.21,M,10.00,M,CLR,M,M,M,M,M,M,M,M,M,M,M,M,M,M,49.60,KTMT 291335Z AUTO 00000KT 10SM CLR 10/00 A3021 RMK AO2 T00981005,M
BVU,2022-07-29 13:35,-114.8611,35.9475,671.00,M,M,M,M,M,0.00,M,M,M,M,M,M,M,M,M,M,M,M,M,M,M,M,M,M,M,M,KBVU 291335Z AUTO RMK AO2 PNO PWINO TSNO,M
CXP,2022-07-29 13:35,-119.7326,39.1923,1431.00,60.80,39.20,44.76,0.00,0.00,0.00,30.14,M,10.00,M,CLR,M,M,M,M,M,M,M,M,M,M,M,M,M,M,60.80,KCXP 291335Z AUTO 00000KT 10SM CLR 16/04 A3014 RMK AO2,M
RTS,2022-07-29 13:35,-119.8764,39.6682,1539.00,62.60,28.40,27.27,360.00,5.00,0.00,30.16,M,9.00,M,CLR,M,M,M,M,M,M,M,M,M,M,M,M,M,M,62.60,KRTS 291335Z AUTO 36005KT 9SM CLR 17/M02 A3016 RMK AO2,M
MEV,2022-07-29 13:35,-119.7500,38.9963,1441.42,53.60,39.20,58.02,100.00,5.00,0.00,30.13,M,10.00,M,CLR,M,M,M,M,M,M,M,M,M,M,M,M,M,M,53.60,KMEV 291335Z AUTO 10005KT 10SM CLR 12/04 A3013 RMK AO2,M
BAM,2022-07-29 13:35,-116.8743,40.5990,1382.36,59.00,35.60,41.42,150.00,3.00,0.00,30.12,M,10.00,M,CLR,M,M,M,M,M,M,M,M,M,M,M,M,M,M,59.00,KBAM 291335Z AUTO 15003KT 10SM CLR 15/02 A3012 RMK AO1,M
HTH,2022-07-29 13:35,-118.6315,38.5448,1282.89,73.40,32.00,21.76,0.00,0.00,0.00,30.07,M,10.00,M,CLR,M,M,M,M,M,M,M,M,M,M,M,M,M,M,73.40,KHTH 291335Z AUTO 00000KT 10SM CLR 23/00 A3007 RMK A01,M
LOL,2022-07-29 13:53,-118.5701,40.0684,1192.43,69.00,38.00,31.85,290.00,4.00,0.00,30.04,1012.20,10.00,M,CLR,M,M,M,M,M,M,M,M,M,M,M,M,M,M,69.10,KLOL 291353Z AUTO 29004KT 10SM CLR 21/03 A3004 RMK AO2 SLP122 T02060033,M
DRA,2022-07-29 13:53,-116.0278,36.6206,1009.00,75.00,60.00,59.81,110.00,14.00,0.00,30.00,1010.30,10.00,M,CLR,M,M,M,M,M,M,M,M,M,M,M,M,M,M,75.00,KDRA 291353Z AUTO 11014KT 10SM CLR 24/16 A3000 RMK AO2 SLP103 T02390156,M
VGT,2022-07-29 13:53,-115.1933,36.2111,667.00,78.00,67.00,68.49,0.00,0.00,0.00,29.96,1013.40,10.00,M,CLR,M,M,M,M,M,M,M,M,M,M,M,M,M,M,78.10,KVGT 291353Z 00000KT 10SM CLR 26/19 A2996 RMK AO2 SLP134 T02560194 $,M
P68,2022-07-29 13:53,-116.0056,39.6014,1993.00,62.00,38.00,40.62,200.00,3.00,0.00,30.20,1013.40,M,M,M,M,M,M,M,M,M,M,M,M,M,M,M,M,M,62.10,KP68 291353Z AUTO 20003KT 17/03 A3020 RMK AO1 SLP134 T01670033,M
ELY,2022-07-29 13:53,-114.8453,39.2950,1909.00,60.00,44.00,55.44,170.00,7.00,0.00,30.23,1013.00,10.00,M,CLR,M,M,M,M,M,M,M,M,M,M,M,M,M,M,60.10,KELY 291353Z AUTO 17007KT 10SM CLR 16/07 A3023 RMK AO2 SLP130 T01560067 $,M
CXP,2022-07-29 13:55,-119.7326,39.1923,1431.00,64.40,39.20,39.43,310.00,3.00,0.00,30.14,M,10.00,M,CLR,M,M,M,M,M,M,M,M,M,M,M,M,M,M,64.40,KCXP 291355Z AUTO 31003KT 10SM CLR 18/04 A3014 RMK AO2,M
RNO,2022-07-29 13:55,-119.7711,39.4839,1341.00,73.00,44.00,35.46,0.00,0.00,0.00,30.11,1012.50,10.00,M,FEW,M,M,M,15000.00,M,M,M,M,M,M,M,M,M,M,73.00,KRNO 291355Z 00000KT 10SM FEW150 23/07 A3011 RMK AO2 SLP125 T02280067,M
TMT,2022-07-29 13:55,-117.1971,39.4643,1749.34,53.00,32.00,44.74,0.00,0.00,0.00,30.21,M,10.00,M,CLR,M,M,M,M,M,M,M,M,M,M,M,M,M,M,52.90,KTMT 291355Z AUTO 00000KT 10SM CLR 12/00 A3021 RMK AO2 T01160000,M
HTH,2022-07-29 13:55,-118.6315,38.5448,1282.89,73.40,32.00,21.76,0.00,0.00,0.00,30.07,M,10.00,M,CLR,M,M,M,M,M,M,M,M,M,M,M,M,M,M,73.40,KHTH 291355Z AUTO 00000KT 10SM CLR 23/00 A3007 RMK A01,M
BVU,2022-07-29 13:55,-114.8611,35.9475,671.00,M,M,M,M,M,0.00,M,M,M,M,M,M,M,M,M,M,M,M,M,M,M,M,M,M,M,M,KBVU 291355Z AUTO RMK AO2 PNO PWINO TSNO,M
MEV,2022-07-29 13:55,-119.7500,38.9963,1441.42,57.20,37.40,47.44,110.00,4.00,0.00,30.13,M,10.00,M,CLR,M,M,M,M,M,M,M,M,M,M,M,M,M,M,57.20,KMEV 291355Z AUTO 11004KT 10SM CLR 14/03 A3013 RMK AO2,M
RTS,2022-07-29 13:55,-119.8764,39.6682,1539.00,66.20,30.20,25.88,350.00,7.00,0.00,30.16,M,10.00,M,CLR,M,M,M,M,M,M,M,M,M,M,M,M,M,M,66.20,KRTS 291355Z AUTO 35007KT 10SM CLR 19/M01 A3016 RMK AO2,M
BAM,2022-07-29 13:55,-116.8743,40.5990,1382.36,62.60,35.60,36.45,130.00,3.00,0.00,30.12,M,10.00,M,CLR,M,M,M,M,M,M,M,M,M,M,M,M,M,M,62.60,KBAM 291355Z AUTO 13003KT 10SM CLR 17/02 A3012 RMK AO1,M
EKO,2022-07-29 13:56,-115.7860,40.8242,1367.00,65.00,42.00,43.36,0.00,0.00,0.00,30.15,1014.60,10.00,M,CLR,M,M,M,M,M,M,M,M,M,M,M,M,M,M,64.90,KEKO 291356Z AUTO 00000KT 10SM CLR 18/06 A3015 RMK AO2 SLP146 T01830056 $,M
LAS,2022-07-29 13:56,-115.1634,36.0719,663.00,76.00,67.00,73.68,110.00,6.00,0.00,29.97,1012.10,10.00,M,SCT,BKN,M,M,18000.00,22000.00,M,M,M,M,M,M,M,M,M,75.90,KLAS 291356Z 11006KT 10SM SCT180 BKN220 24/19 A2997 RMK AO2 SLP121 T02440194 $,M
HND,2022-07-29 13:56,-115.1344,35.9729,742.79,77.00,65.00,66.27,0.00,0.00,0.00,30.00,1014.50,10.00,M,CLR,M,M,M,M,M,M,M,M,M,M,M,M,M,M,77.00,KHND 291356Z 00000KT 10SM CLR 25/18 A3000 RMK AO2 SLP145 T02500183,M
NFL,2022-07-29 13:56,-118.7010,39.4166,1199.00,71.00,35.00,26.63,190.00,4.00,0.00,30.04,1014.20,10.00,M,CLR,M,M,M,M,M,M,M,M,M,M,M,M,M,M,71.10,KNFL 291356Z AUTO 19004KT 10SM CLR 22/02 A3004 RMK AO2 SLP142 T02170017,M
TPH,2022-07-29 13:56,-117.0904,38.0505,1654.00,69.00,37.00,30.74,360.00,5.00,0.00,30.16,1011.70,10.00,M,CLR,M,M,M,M,M,M,M,M,M,M,M,M,M,M,69.10,KTPH 291356Z AUTO 36005KT 10SM CLR 21/03 A3016 RMK AO2 SLP117 T02060028,M
WMC,2022-07-29 13:56,-117.8072,40.9019,1315.00,71.00,38.00,29.74,360.00,3.00,0.00,30.10,1013.30,10.00,M,CLR,M,M,M,M,M,M,M,M,M,M,M,M,M,M,71.10,KWMC 291356Z AUTO 36003KT 10SM CLR 22/03 A3010 RMK AO2 SLP133 T02170033,M
INS,2022-07-29 13:58,-115.6733,36.5872,955.00,73.60,59.70,61.79,100.00,5.00,0.00,30.01,1011.10,10.00,M,OVC,M,M,M,19000.00,M,M,M,M,M,M,M,M,M,M,73.60,KINS 291358Z AUTO 10005KT 10SM OVC190 23/15 A3001 RMK AO2 SLP111 T02310154,M
LSV,2022-07-29 13:58,-115.0343,36.2362,570.00,77.70,77.70,100.00,40.00,7.00,0.00,29.95,1011.70,10.00,M,FEW,M,M,M,20000.00,M,M,M,M,M,M,M,M,M,M,77.70,KLSV 291358Z AUTO 04007KT 10SM FEW200 25/25 A2995 RMK AO2 SLP117 T02540254 $,M
BVU,2022-07-29 14:15,-114.8611,35.9475,671.00,M,M,M,M,M,0.00,M,M,M,M,M,M,M,M,M,M,M,M,M,M,M,M,M,M,M,M,KBVU 291415Z AUTO RMK AO2 PNO PWINO TSNO,M
HTH,2022-07-29 14:15,-118.6315,38.5448,1282.89,71.60,32.00,23.13,0.00,0.00,0.00,30.08,M,10.00,M,CLR,M,M,M,M,M,M,M,M,M,M,M,M,M,M,71.60,KHTH 291415Z AUTO 00000KT 10SM CLR 22/M00 A3008 RMK A01,M
BAM,2022-07-29 14:15,-116.8743,40.5990,1382.36,69.80,39.20,32.72,0.00,0.00,0.00,30.13,M,10.00,M,CLR,M,M,M,M,M,M,M,M,M,M,M,M,M,M,69.80,KBAM 291415Z AUTO 00000KT 10SM CLR 21/04 A3013 RMK AO1,M
MEV,2022-07-29 14:15,-119.7500,38.9963,1441.42,62.60,35.60,36.45,0.00,0.00,0.00,30.14,M,10.00,M,CLR,M,M,M,M,M,M,M,M,M,M,M,M,M,M,62.60,KMEV 291415Z AUTO 00000KT 10SM CLR 17/02 A3014 RMK AO2,M
RTS,2022-07-29 14:15,-119.8764,39.6682,1539.00,69.80,30.20,22.86,350.00,5.00,0.00,30.17,M,10.00,M,CLR,M,M,M,M,M,M,M,M,M,M,M,M,M,M,69.80,KRTS 291415Z AUTO 35005KT 10SM CLR 21/M01 A3017 RMK AO2,M
CXP,2022-07-29 14:15,-119.7326,39.1923,1431.00,68.00,35.60,30.20,0.00,0.00,0.00,30.15,M,10.00,M,CLR,M,M,M,M,M,M,M,M,M,M,M,M,M,M,68.00,KCXP 291415Z AUTO 00000KT 10SM CLR 20/02 A3015 RMK AO2,M
TMT,2022-07-29 14:15,-117.1971,39.4643,1749.34,55.80,33.00,41.73,0.00,0.00,0.00,30.22,M,10.00,M,CLR,M,M,M,M,M,M,M,M,M,M,M,M,M,M,55.80,KTMT 291415Z AUTO 00000KT 10SM CLR 13/01 A3022 RMK AO2 T01320005,M
TMT,2022-07-29 14:30,-117.1971,39.4643,1749.34,58.30,33.60,39.22,0.00,0.00,0.00,30.22,M,10.00,M,CLR,M,M,M,M,M,M,M,M,M,M,M,M,M,M,58.30,KTMT 291430Z AUTO 00000KT 10SM CLR 15/01 A3022 RMK AO2 T01460009,M
RTS,2022-07-29 14:35,-119.8764,39.6682,1539.00,75.20,33.80,22.02,310.00,4.00,0.00,30.17,M,10.00,M,CLR,M,M,M,M,M,M,M,M,M,M,M,M,M,M,75.20,KRTS 291435Z AUTO 31004KT 10SM CLR 24/01 A3017 RMK AO2,M
CXP,2022-07-29 14:35,-119.7326,39.1923,1431.00,69.80,35.60,28.39,0.00,0.00,0.00,30.15,M,10.00,M,CLR,M,M,M,M,M,M,M,M,M,M,M,M,M,M,69.80,KCXP 291435Z AUTO 00000KT 10SM CLR 21/02 A3015 RMK AO2,M
BVU,2022-07-29 14:35,-114.8611,35.9475,671.00,M,M,M,M,M,0.00,M,M,M,M,M,M,M,M,M,M,M,M,M,M,M,M,M,M,M,M,KBVU 291435Z AUTO RMK AO2 PNO PWINO TSNO,M
MEV,2022-07-29 14:35,-119.7500,38.9963,1441.42,64.40,39.20,39.43,240.00,3.00,0.00,30.15,M,8.00,M,CLR,M,M,M,M,M,M,M,M,M,M,M,M,M,M,64.40,KMEV 291435Z AUTO 24003KT 8SM CLR 18/04 A3015 RMK AO2,M
HTH,2022-07-29 14:35,-118.6315,38.5448,1282.89,75.20,32.00,20.49,0.00,0.00,0.00,30.08,M,10.00,M,CLR,M,M,M,M,M,M,M,M,M,M,M,M,M,M,75.20,KHTH 291435Z AUTO 00000KT 10SM CLR 24/M00 A3008 RMK A01,M
BAM,2022-07-29 14:35,-116.8743,40.5990,1382.36,73.40,41.00,31.05,60.00,4.00,0.00,30.13,M,10.00,M,CLR,M,M,M,M,M,M,M,M,M,M,M,M,M,M,73.40,KBAM 291435Z AUTO 06004KT 10SM CLR 23/05 A3013 RMK AO1,M
NFL,2022-07-29 14:38,-118.7010,39.4166,1199.00,76.00,40.00,27.37,220.00,4.00,0.00,30.05,M,10.00,M,FEW,M,M,M,15000.00,M,M,M,M,M,M,M,M,M,M,75.90,KNFL 291438Z 22004KT 10SM FEW150 24/04 A3005 RMK AO2 T02440044,M
LOL,2022-07-29 14:53,-118.5701,40.0684,1192.43,84.00,38.00,19.41,10.00,7.00,0.00,30.06,1012.10,10.00,M,CLR,M,M,M,M,M,M,M,M,M,M,M,M,M,M,81.25,KLOL 291453Z AUTO 01007KT 10SM CLR 29/03 A3006 RMK AO2 SLP121 T02890033 51012,M
DRA,2022-07-29 14:53,-116.0278,36.6206,1009.00,77.00,60.00,55.95,130.00,5.00,0.00,30.02,1011.00,10.00,M,CLR,M,M,M,M,M,M,M,M,M,M,M,M,M,M,77.00,KDRA 291453Z AUTO 13005KT 10SM CLR 25/16 A3002 RMK AO2 SLP110 T02500156 51016,M
ELY,2022-07-29 14:53,-114.8453,39.2950,1909.00,66.00,46.00,48.43,180.00,6.00,0.00,30.24,1013.60,10.00,M,CLR,M,M,M,M,M,M,M,M,M,M,M,M,M,M,66.00,KELY 291453Z AUTO 18006KT 10SM CLR 19/08 A3024 RMK AO2 SLP136 T01890078 52008 $,M
P68,2022-07-29 14:53,-116.0056,39.6014,1993.00,75.00,38.00,26.08,170.00,3.00,0.00,30.20,1012.60,M,M,M,M,M,M,M,M,M,M,M,M,M,M,M,M,M,75.00,KP68 291453Z AUTO 17003KT 24/03 A3020 RMK AO1 SLP126 T02390033 51007,M
VGT,2022-07-29 14:53,-115.1933,36.2111,667.00,80.00,66.00,62.17,0.00,0.00,0.00,29.98,1014.00,10.00,M,CLR,M,M,M,M,M,M,M,M,M,M,M,M,M,M,82.17,KVGT 291453Z 00000KT 10SM CLR 27/19 A2998 RMK AO2 SLP140 T02670189 53016 $,M
RTS,2022-07-29 14:55,-119.8764,39.6682,1539.00,75.20,35.60,23.66,0.00,0.00,0.00,30.17,M,10.00,M,CLR,M,M,M,M,M,M,M,M,M,M,M,M,M,M,75.20,KRTS 291455Z AUTO 00000KT 10SM CLR 24/02 A3017 RMK AO2,M
TMT,2022-07-29 14:55,-117.1971,39.4643,1749.34,M,M,M,0.00,0.00,0.00,30.22,M,10.00,M,CLR,M,M,M,M,M,M,M,M,M,M,M,M,M,M,M,KTMT 291455Z AUTO 00000KT 10SM CLR A3022 RMK AO2,M
RNO,2022-07-29 14:55,-119.7711,39.4839,1341.00,76.00,41.00,28.56,0.00,0.00,0.00,30.12,1013.00,10.00,M,FEW,M,M,M,11000.00,M,M,M,M,M,M,M,M,M,M,75.90,KRNO 291455Z 00000KT 10SM FEW110 24/05 A3012 RMK AO2 SLP130 T02440050 51011,M
CXP,2022-07-29 14:55,-119.7326,39.1923,1431.00,71.60,37.40,28.68,0.00,0.00,0.00,30.16,M,10.00,M,CLR,M,M,M,M,M,M,M,M,M,M,M,M,M,M,71.60,KCXP 291455Z AUTO 00000KT 10SM CLR 22/03 A3016 RMK AO2,M
BVU,2022-07-29 14:55,-114.8611,35.9475,671.00,M,M,M,M,M,0.00,M,M,M,M,M,M,M,M,M,M,M,M,M,M,M,M,M,M,M,M,KBVU 291455Z AUTO RMK AO2 PNO PWINO TSNO,M
MEV,2022-07-29 14:55,-119.7500,38.9963,1441.42,66.20,41.00,39.72,0.00,0.00,0.00,30.15,M,6.00,M,CLR,M,M,M,M,M,M,M,HZ,M,M,M,M,M,M,66.20,KMEV 291455Z AUTO 00000KT 6SM HZ CLR 19/05 A3015 RMK AO2,M
BAM,2022-07-29 14:55,-116.8743,40.5990,1382.36,75.20,42.80,31.34,20.00,3.00,0.00,30.13,M,10.00,M,CLR,M,M,M,M,M,M,M,M,M,M,M,M,M,M,75.20,KBAM 291455Z AUTO 02003KT 10SM CLR 24/06 A3013 RMK AO1,M
HTH,2022-07-29 14:55,-118.6315,38.5448,1282.89,77.00,35.60,22.28,0.00,0.00,0.00,30.09,M,10.00,M,CLR,M,M,M,M,M,M,M,M,M,M,M,M,M,M,77.00,KHTH 291455Z AUTO 00000KT 10SM CLR 25/02 A3009 RMK A01,M
WMC,2022-07-29 14:56,-117.8072,40.9019,1315.00,78.00,40.00,25.44,0.00,0.00,0.00,30.11,1013.30,10.00,M,CLR,M,M,M,M,M,M,M,M,M,M,M,M,M,M,78.10,KWMC 291456Z AUTO 00000KT 10SM CLR 26/04 A3011 RMK AO2 SLP133 T02560044 52009,M
HND,2022-07-29 14:56,-115.1344,35.9729,742.79,77.00,65.00,66.27,0.00,0.00,0.00,30.02,1015.40,10.00,M,CLR,M,M,M,M,M,M,M,M,M,M,M,M,M,M,77.00,KHND 291456Z 00000KT 10SM CLR 25/18 A3002 RMK AO2 SLP154 T02500183 53015,M
LAS,2022-07-29 14:56,-115.1634,36.0719,663.00,78.00,66.00,66.39,10.00,3.00,0.00,29.99,1012.80,10.00,M,SCT,BKN,M,M,18000.00,22000.00,M,M,M,M,M,M,M,M,M,78.10,KLAS 291456Z 01003KT 10SM SCT180 BKN220 26/19 A2999 RMK AO2 SLP128 T02560189 53016 $,M
TPH,2022-07-29 14:56,-117.0904,38.0505,1654.00,76.00,48.00,37.29,60.00,4.00,0.00,30.17,1011.80,10.00,M,CLR,M,M,M,M,M,M,M,M,M,M,M,M,M,M,75.90,KTPH 291456Z AUTO 06004KT 10SM CLR 24/09 A3017 RMK AO2 SLP118 T02440089 53012,M
NFL,2022-07-29 14:56,-118.7010,39.4166,1199.00,77.00,41.00,27.53,210.00,3.00,0.00,30.06,1014.70,10.00,M,FEW,M,M,M,15000.00,M,M,M,M,M,M,M,M,M,M,77.00,KNFL 291456Z 21003KT 10SM FEW150 25/05 A3006 RMK AO2 SLP147 T02500050 51014,M
EKO,2022-07-29 14:56,-115.7860,40.8242,1367.00,72.00,41.00,32.56,0.00,0.00,0.00,30.16,1014.80,10.00,M,CLR,M,M,M,M,M,M,M,M,M,M,M,M,M,M,72.00,KEKO 291456Z AUTO 00000KT 10SM CLR 22/05 A3016 RMK AO2 SLP148 T02220050 51009 $,M
INS,2022-07-29 14:58,-115.6733,36.5872,955.00,76.00,59.00,55.80,110.00,7.00,0.00,30.03,1011.80,10.00,M,OVC,M,M,M,19000.00,M,M,M,M,M,M,M,M,M,M,75.90,KINS 291458Z AUTO 11007KT 10SM OVC190 24/15 A3003 RMK AO2 SLP118 T02440150 52013,M
LSV,2022-07-29 14:58,-115.0343,36.2362,570.00,79.00,79.00,100.00,30.00,5.00,0.00,29.97,1012.30,10.00,M,FEW,M,M,M,22000.00,M,M,M,M,M,M,M,M,M,M,79.00,KLSV 291458Z AUTO 03005KT 10SM FEW220 26/26 A2997 RMK AO2 SLP123 T02610261 52016 $,M
CXP,2022-07-29 15:10,-119.7326,39.1923,1431.00,73.40,35.60,25.13,0.00,0.00,0.00,30.16,M,10.00,M,CLR,M,M,M,M,M,M,M,M,M,M,M,M,M,M,73.40,KCXP 291510Z AUTO 00000KT 10SM CLR 23/02 A3016 RMK AO2,M
BAM,2022-07-29 15:15,-116.8743,40.5990,1382.36,78.80,42.80,27.81,0.00,0.00,0.00,30.13,M,10.00,M,CLR,M,M,M,M,M,M,M,M,M,M,M,M,M,M,78.80,KBAM 291515Z AUTO 00000KT 10SM CLR 26/06 A3013 RMK AO1,M
TMT,2022-07-29 15:15,-117.1971,39.4643,1749.34,M,M,M,130.00,3.00,0.00,30.22,M,10.00,M,CLR,M,M,M,M,M,M,M,M,M,M,M,M,M,M,M,KTMT 291515Z AUTO 13003KT 10SM CLR A3022 RMK AO2,M
BVU,2022-07-29 15:15,-114.8611,35.9475,671.00,M,M,M,M,M,0.00,M,M,M,M,M,M,M,M,M,M,M,M,M,M,M,M,M,M,M,M,KBVU 291515Z AUTO RMK AO2 PNO PWINO TSNO,M
RTS,2022-07-29 15:15,-119.8764,39.6682,1539.00,77.00,37.40,23.93,0.00,0.00,0.00,30.17,M,10.00,M,CLR,M,M,M,M,M,M,M,M,M,M,M,M,M,M,77.00,KRTS 291515Z AUTO 00000KT 10SM CLR 25/03 A3017 RMK AO2,M
HTH,2022-07-29 15:15,-118.6315,38.5448,1282.89,80.60,35.60,19.79,310.00,4.00,0.00,30.09,M,10.00,M,CLR,M,M,M,M,M,M,M,M,M,M,M,M,M,M,78.94,KHTH 291515Z AUTO 31004KT 10SM CLR 27/02 A3009 RMK A01,M
MEV,2022-07-29 15:15,-119.7500,38.9963,1441.42,69.80,39.20,32.72,0.00,0.00,0.00,30.15,M,9.00,M,CLR,M,M,M,M,M,M,M,M,M,M,M,M,M,M,69.80,KMEV 291515Z AUTO 00000KT 9SM CLR 21/04 A3015 RMK AO2,M
CXP,2022-07-29 15:35,-119.7326,39.1923,1431.00,77.00,35.60,22.28,0.00,0.00,0.00,30.16,M,10.00,M,CLR,M,M,M,M,M,M,M,M,M,M,M,M,M,M,77.00,KCXP 291535Z AUTO 00000KT 10SM CLR 25/02 A3016 RMK AO2,M
HTH,2022-07-29 15:35,-118.6315,38.5448,1282.89,80.60,33.80,18.42,0.00,0.00,0.00,30.10,M,10.00,M,CLR,M,M,M,M,M,M,M,M,M,M,M,M,M,M,78.88,KHTH 291535Z AUTO 00000KT 10SM CLR 27/01 A3010 RMK A01,M
TMT,2022-07-29 15:35,-117.1971,39.4643,1749.34,M,M,M,0.00,0.00,0.00,30.23,M,10.00,M,CLR,M,M,M,M,M,M,M,M,M,M,M,M,M,M,M,KTMT 291535Z AUTO 00000KT 10SM CLR A3023 RMK AO2,M
MEV,2022-07-29 15:35,-119.7500,38.9963,1441.42,73.40,39.20,28.96,0.00,0.00,0.00,30.15,M,10.00,M,CLR,M,M,M,M,M,M,M,M,M,M,M,M,M,M,73.40,KMEV 291535Z AUTO 00000KT 10SM CLR 23/04 A3015 RMK AO2,M
RTS,2022-07-29 15:35,-119.8764,39.6682,1539.00,80.60,39.20,22.81,120.00,4.00,0.00,30.18,M,10.00,M,CLR,M,M,M,M,M,M,M,M,M,M,M,M,M,M,79.10,KRTS 291535Z AUTO 12004KT 10SM CLR 27/04 A3018 RMK AO2,M
BAM,2022-07-29 15:35,-116.8743,40.5990,1382.36,82.40,42.80,24.72,350.00,3.00,0.00,30.14,M,10.00,M,CLR,M,M,M,M,M,M,M,M,M,M,M,M,M,M,80.39,KBAM 291535Z AUTO 35003KT 10SM CLR 28/06 A3014 RMK AO1,M
BVU,2022-07-29 15:35,-114.8611,35.9475,671.00,M,M,M,M,M,0.00,M,M,M,M,M,M,M,M,M,M,M,M,M,M,M,M,M,M,M,M,KBVU 291535Z AUTO RMK AO2 PNO PWINO TSNO,M
MEV,2022-07-29 15:50,-119.7500,38.9963,1441.42,77.00,37.40,23.93,0.00,0.00,0.00,30.15,M,10.00,M,CLR,M,M,M,M,M,M,M,M,M,M,M,M,M,M,77.00,KMEV 291550Z AUTO 00000KT 10SM CLR 25/03 A3015 RMK AO2,M
LOL,2022-07-29 15:53,-118.5701,40.0684,1192.43,89.00,40.00,17.84,10.00,8.00,0.00,30.07,1012.60,10.00,M,CLR,M,M,M,M,M,M,M,M,M,M,M,M,M,M,85.34,KLOL 291553Z AUTO 01008KT 10SM CLR 32/04 A3007 RMK AO2 SLP126 T03170044,M
P68,2022-07-29 15:53,-116.0056,39.6014,1993.00,79.00,39.00,23.85,0.00,0.00,0.00,30.21,1013.10,M,M,M,M,M,M,M,M,M,M,M,M,M,M,M,M,M,79.00,KP68 291553Z AUTO 00000KT 26/04 A3021 RMK AO1 SLP131 T02610039,M
ELY,2022-07-29 15:53,-114.8453,39.2950,1909.00,75.00,44.00,33.16,160.00,6.00,0.00,30.24,1013.00,10.00,M,CLR,M,M,M,M,M,M,M,M,M,M,M,M,M,M,75.00,KELY 291553Z AUTO 16006KT 10SM CLR 24/07 A3024 RMK AO2 SLP130 T02390067,M
VGT,2022-07-29 15:53,-115.1933,36.2111,667.00,81.00,67.00,62.28,0.00,0.00,0.00,30.00,1014.80,10.00,M,CLR,M,M,M,M,M,M,M,M,M,M,M,M,M,M,83.40,KVGT 291553Z 00000KT 10SM CLR 27/19 A3000 RMK AO2 SLP148 T02720194 $,M
DRA,2022-07-29 15:53,-116.0278,36.6206,1009.00,83.00,58.00,42.63,M,3.00,0.00,30.03,1011.40,10.00,M,CLR,M,M,M,M,M,M,M,M,M,M,M,M,M,M,82.60,KDRA 291553Z AUTO VRB03KT 10SM CLR 28/14 A3003 RMK AO2 SLP114 T02830144,M
RTS,2022-07-29 15:55,-119.8764,39.6682,1539.00,80.60,37.40,21.25,130.00,4.00,0.00,30.18,M,10.00,M,CLR,M,M,M,M,M,M,M,M,M,M,M,M,M,M,79.02,KRTS 291555Z AUTO 13004KT 10SM CLR 27/03 A3018 RMK AO2,M
TMT,2022-07-29 15:55,-117.1971,39.4643,1749.34,M,M,M,0.00,0.00,0.00,30.24,M,10.00,M,CLR,M,M,M,M,M,M,M,M,M,M,M,M,M,M,M,KTMT 291555Z AUTO 00000KT 10SM CLR A3024 RMK AO2,M
CXP,2022-07-29 15:55,-119.7326,39.1923,1431.00,77.00,35.60,22.28,0.00,0.00,0.00,30.17,M,10.00,M,CLR,M,M,M,M,M,M,M,M,M,M,M,M,M,M,77.00,KCXP 291555Z AUTO 00000KT 10SM CLR 25/02 A3017 RMK AO2,M
HTH,2022-07-29 15:55,-118.6315,38.5448,1282.89,82.40,33.80,17.38,0.00,0.00,0.00,30.10,M,10.00,M,CLR,M,M,M,M,M,M,M,M,M,M,M,M,M,M,80.03,KHTH 291555Z AUTO 00000KT 10SM CLR 28/01 A3010 RMK A01,M
BAM,2022-07-29 15:55,-116.8743,40.5990,1382.36,82.40,42.80,24.72,0.00,0.00,0.00,30.14,M,10.00,M,CLR,M,M,M,M,M,M,M,M,M,M,M,M,M,M,80.39,KBAM 291555Z AUTO 00000KT 10SM CLR 28/06 A3014 RMK AO1,M
RNO,2022-07-29 15:55,-119.7711,39.4839,1341.00,82.00,42.00,24.38,0.00,0.00,0.00,30.13,1013.20,10.00,M,FEW,M,M,M,9000.00,M,M,M,M,M,M,M,M,M,M,80.09,KRNO 291555Z 00000KT 10SM FEW090 28/06 A3013 RMK AO2 SLP132 T02780056,M
BVU,2022-07-29 15:55,-114.8611,35.9475,671.00,M,M,M,M,M,0.00,M,M,M,M,M,M,M,M,M,M,M,M,M,M,M,M,M,M,M,M,KBVU 291555Z AUTO RMK AO2 PNO PWINO TSNO,M
NFL,2022-07-29 15:56,-118.7010,39.4166,1199.00,84.00,40.00,20.99,350.00,4.00,0.00,30.07,1015.10,10.00,M,FEW,M,M,M,10000.00,M,M,M,M,M,M,M,M,M,M,81.33,KNFL 291556Z 35004KT 10SM FEW100 29/04 A3007 RMK AO2 SLP151 T02890044,M
HND,2022-07-29 15:56,-115.1344,35.9729,742.79,79.00,65.00,62.03,360.00,5.00,0.00,30.04,1015.80,10.00,M,CLR,M,M,M,M,M,M,M,M,M,M,M,M,M,M,79.00,KHND 291556Z 36005KT 10SM CLR 26/18 A3004 RMK AO2 SLP158 T02610183,M
EKO,2022-07-29 15:56,-115.7860,40.8242,1367.00,78.00,42.00,27.70,0.00,0.00,0.00,30.17,1014.70,10.00,M,CLR,M,M,M,M,M,M,M,M,M,M,M,M,M,M,78.10,KEKO 291556Z AUTO 00000KT 10SM CLR 26/06 A3017 RMK AO2 SLP147 T02560056,M
LAS,2022-07-29 15:56,-115.1634,36.0719,663.00,80.00,65.00,59.83,0.00,0.00,0.00,30.01,1013.40,10.00,M,BKN,M,M,M,22000.00,M,M,M,M,M,M,M,M,M,M,81.91,KLAS 291556Z 00000KT 10SM BKN220 27/18 A3001 RMK AO2 SLP134 T02670183,M
WMC,2022-07-29 15:56,-117.8072,40.9019,1315.00,86.00,40.00,19.68,340.00,5.00,0.00,30.12,1013.60,10.00,M,CLR,M,M,M,M,M,M,M,M,M,M,M,M,M,M,82.81,KWMC 291556Z AUTO 34005KT 10SM CLR 30/04 A3012 RMK AO2 SLP136 T03000044,M
TPH,2022-07-29 15:56,-117.0904,38.0505,1654.00,79.00,52.00,39.06,M,3.00,0.00,30.18,1012.20,10.00,M,CLR,M,M,M,M,M,M,M,M,M,M,M,M,M,M,79.00,KTPH 291556Z AUTO VRB03KT 10SM CLR 26/11 A3018 RMK AO2 SLP122 T02610111,M
LSV,2022-07-29 15:58,-115.0343,36.2362,570.00,83.50,79.20,86.93,0.00,0.00,0.00,29.98,1012.60,10.00,M,CLR,M,M,M,M,M,M,M,M,M,M,M,M,M,M,95.28,KLSV 291558Z AUTO 00000KT 10SM CLR 29/26 A2998 RMK AO2 SLP126 T02860262 $,M
INS,2022-07-29 15:58,-115.6733,36.5872,955.00,76.80,61.30,58.78,100.00,7.00,0.00,30.04,1012.50,10.00,M,OVC,M,M,M,20000.00,M,M,M,M,M,M,M,M,M,M,76.80,KINS 291558Z AUTO 10007KT 10SM OVC200 25/16 A3004 RMK AO2 SLP125 T02490163,M
HTH,2022-07-29 16:15,-118.6315,38.5448,1282.89,84.20,35.60,17.61,0.00,0.00,0.00,30.10,M,10.00,M,CLR,M,M,M,M,M,M,M,M,M,M,M,M,M,M,81.34,KHTH 291615Z AUTO 00000KT 10SM CLR 29/02 A3010 RMK A01,M
RTS,2022-07-29 16:15,-119.8764,39.6682,1539.00,84.20,35.60,17.61,0.00,0.00,0.00,30.18,M,10.00,M,CLR,M,M,M,M,M,M,M,M,M,M,M,M,M,M,81.34,KRTS 291615Z AUTO 00000KT 10SM CLR 29/02 A3018 RMK AO2,M
CXP,2022-07-29 16:15,-119.7326,39.1923,1431.00,78.80,37.40,22.54,0.00,0.00,0.00,30.17,M,10.00,M,CLR,M,M,M,M,M,M,M,M,M,M,M,M,M,M,78.80,KCXP 291615Z AUTO 00000KT 10SM CLR 26/03 A3017 RMK AO2,M
BVU,2022-07-29 16:15,-114.8611,35.9475,671.00,M,M,M,M,M,0.00,M,M,M,M,M,M,M,M,M,M,M,M,M,M,M,M,M,M,M,M,KBVU 291615Z AUTO RMK AO2 PNO PWINO TSNO,M
BAM,2022-07-29 16:15,-116.8743,40.5990,1382.36,86.00,44.60,23.59,330.00,4.00,0.00,30.14,M,10.00,M,CLR,M,M,M,M,M,M,M,M,M,M,M,M,M,M,83.07,KBAM 291615Z AUTO 33004KT 10SM CLR 30/07 A3014 RMK AO1,M
MEV,2022-07-29 16:15,-119.7500,38.9963,1441.42,78.80,37.40,22.54,0.00,0.00,0.00,30.15,M,10.00,M,CLR,M,M,M,M,M,M,M,M,M,M,M,M,M,M,78.80,KMEV 291615Z AUTO 00000KT 10SM CLR 26/03 A3015 RMK AO2,M
TMT,2022-07-29 16:15,-117.1971,39.4643,1749.34,M,M,M,0.00,0.00,0.00,30.23,M,10.00,M,CLR,M,M,M,M,M,M,M,M,M,M,M,M,M,M,M,KTMT 291615Z AUTO 00000KT 10SM CLR A3023 RMK AO2,M
HTH,2022-07-29 16:35,-118.6315,38.5448,1282.89,86.00,35.60,16.63,360.00,6.00,0.00,30.10,M,10.00,M,CLR,M,M,M,M,M,M,M,M,M,M,M,M,M,M,82.69,KHTH 291635Z AUTO 36006KT 10SM CLR 30/02 A3010 RMK A01,M
BVU,2022-07-29 16:35,-114.8611,35.9475,671.00,M,M,M,M,M,0.00,M,M,M,M,M,M,M,M,M,M,M,M,M,M,M,M,M,M,M,M,KBVU 291635Z AUTO RMK AO2 PNO PWINO TSNO,M
CXP,2022-07-29 16:35,-119.7326,39.1923,1431.00,82.40,37.40,20.04,M,3.00,0.00,30.16,M,10.00,M,CLR,M,M,M,M,M,M,M,M,M,M,M,M,M,M,80.14,KCXP 291635Z AUTO VRB03KT 10SM CLR 28/03 A3016 RMK AO2,M
RTS,2022-07-29 16:35,-119.8764,39.6682,1539.00,86.00,32.00,14.40,140.00,4.00,0.00,30.18,M,10.00,M,CLR,M,M,M,M,M,M,M,M,M,M,M,M,M,M,82.64,KRTS 291635Z AUTO 14004KT 10SM CLR 30/00 A3018 RMK AO2,M
MEV,2022-07-29 16:35,-119.7500,38.9963,1441.42,80.60,39.20,22.81,M,3.00,0.00,30.15,M,10.00,M,CLR,M,M,M,M,M,M,M,M,M,M,M,M,M,M,79.10,KMEV 291635Z AUTO VRB03KT 10SM CLR 27/04 A3015 RMK AO2,M
BAM,2022-07-29 16:35,-116.8743,40.5990,1382.36,87.80,42.80,20.79,310.00,5.00,0.00,30.14,M,10.00,M,CLR,M,M,M,M,M,M,M,M,M,M,M,M,M,M,84.40,KBAM 291635Z AUTO 31005KT 10SM CLR 31/06 A3014 RMK AO1,M
TMT,2022-07-29 16:35,-117.1971,39.4643,1749.34,M,M,M,0.00,0.00,0.00,30.22,M,10.00,M,CLR,M,M,M,M,M,M,M,M,M,M,M,M,M,M,M,KTMT 291635Z AUTO 00000KT 10SM CLR A3022 RMK AO2,M
LOL,2022-07-29 16:53,-118.5701,40.0684,1192.43,94.00,42.00,16.72,80.00,10.00,0.00,30.06,1012.20,10.00,15.00,CLR,M,M,M,M,M,M,M,M,M,M,M,M,M,M,89.76,KLOL 291653Z AUTO 08010G15KT 10SM CLR 34/06 A3006 RMK AO2 SLP122 T03440056,M
DRA,2022-07-29 16:53,-116.0278,36.6206,1009.00,85.00,58.00,39.97,120.00,12.00,0.00,30.03,1011.50,10.00,M,CLR,M,M,M,M,M,M,M,M,M,M,M,M,M,M,84.21,KDRA 291653Z AUTO 12012KT 10SM CLR 29/14 A3003 RMK AO2 SLP115 T02940144,M
VGT,2022-07-29 16:53,-115.1933,36.2111,667.00,84.00,66.00,54.77,80.00,3.00,0.00,29.99,1015.00,10.00,M,CLR,M,M,M,M,M,M,M,M,M,M,M,M,M,M,86.20,KVGT 291653Z 08003KT 10SM CLR 29/19 A2999 RMK AO2 SLP150 T02890189 $,M
ELY,2022-07-29 16:53,-114.8453,39.2950,1909.00,81.00,41.00,24.14,0.00,0.00,0.00,30.24,1012.80,10.00,M,CLR,M,M,M,M,M,M,M,M,M,M,M,M,M,M,79.43,KELY 291653Z AUTO 00000KT 10SM CLR 27/05 A3024 RMK AO2 SLP128 T02720050,M
P68,2022-07-29 16:53,-116.0056,39.6014,1993.00,83.00,39.00,21.00,M,4.00,0.00,30.21,1012.80,M,M,M,M,M,M,M,M,M,M,M,M,M,M,M,M,M,80.53,KP68 291653Z AUTO VRB04KT 28/04 A3021 RMK AO1 SLP128 T02830039,M
CXP,2022-07-29 16:55,-119.7326,39.1923,1431.00,84.20,35.60,17.61,0.00,0.00,0.00,30.16,M,10.00,M,CLR,M,M,M,M,M,M,M,M,M,M,M,M,M,M,81.34,KCXP 291655Z AUTO 00000KT 10SM CLR 29/02 A3016 RMK AO2,M
RNO,2022-07-29 16:55,-119.7711,39.4839,1341.00,88.00,42.00,20.11,0.00,0.00,0.00,30.12,1012.90,10.00,M,FEW,M,M,M,9000.00,M,M,M,M,M,M,M,M,M,M,84.52,KRNO 291655Z 00000KT 10SM FEW090 31/06 A3012 RMK AO2 SLP129 T03110056,M
RTS,2022-07-29 16:55,-119.8764,39.6682,1539.00,87.80,32.00,13.59,M,6.00,0.00,30.18,M,10.00,M,CLR,M,M,M,M,M,M,M,M,M,M,M,M,M,M,84.08,KRTS 291655Z AUTO VRB06KT 10SM CLR 31/M00 A3018 RMK AO2,M
BVU,2022-07-29 16:55,-114.8611,35.9475,671.00,M,M,M,M,M,0.00,M,M,M,M,M,M,M,M,M,M,M,M,M,M,M,M,M,M,M,M,KBVU 291655Z AUTO RMK AO2 PNO PWINO TSNO,M
BAM,2022-07-29 16:55,-116.8743,40.5990,1382.36,87.80,41.00,19.40,300.00,5.00,0.00,30.14,M,10.00,M,CLR,M,M,M,M,M,M,M,M,M,M,M,M,M,M,84.30,KBAM 291655Z AUTO 30005KT 10SM CLR 31/05 A3014 RMK AO1,M
MEV,2022-07-29 16:55,-119.7500,38.9963,1441.42,82.40,35.60,18.67,0.00,0.00,0.00,30.15,M,10.00,M,CLR,M,M,M,M,M,M,M,M,M,M,M,M,M,M,80.08,KMEV 291655Z AUTO 00000KT 10SM CLR 28/02 A3015 RMK AO2,M
TMT,2022-07-29 16:55,-117.1971,39.4643,1749.34,M,M,M,0.00,0.00,0.00,30.22,M,10.00,M,CLR,M,M,M,M,M,M,M,M,M,M,M,M,M,M,M,KTMT 291655Z AUTO 00000KT 10SM CLR A3022 RMK AO2,M
HTH,2022-07-29 16:55,-118.6315,38.5448,1282.89,87.80,35.60,15.70,320.00,8.00,0.00,30.09,M,10.00,M,CLR,M,M,M,M,M,M,M,M,M,M,M,M,M,M,84.12,KHTH 291655Z AUTO 32008KT 10SM CLR 31/02 A3009 RMK A01,M
EKO,2022-07-29 16:56,-115.7860,40.8242,1367.00,85.00,40.00,20.39,0.00,0.00,0.00,30.16,1014.50,10.00,M,CLR,M,M,M,M,M,M,M,M,M,M,M,M,M,M,81.98,KEKO 291656Z AUTO 00000KT 10SM CLR 29/04 A3016 RMK AO2 SLP145 T02940044,M
NFL,2022-07-29 16:56,-118.7010,39.4166,1199.00,90.00,38.00,16.04,30.00,7.00,0.00,30.07,1015.00,10.00,M,FEW,M,M,M,10000.00,M,M,M,M,M,M,M,M,M,M,86.03,KNFL 291656Z 03007KT 10SM FEW100 32/03 A3007 RMK AO2 SLP150 T03220033,M
WMC,2022-07-29 16:56,-117.8072,40.9019,1315.00,91.00,41.00,17.54,50.00,10.00,0.00,30.12,1013.50,10.00,M,CLR,M,M,M,M,M,M,M,M,M,M,M,M,M,M,87.04,KWMC 291656Z AUTO 05010KT 10SM CLR 33/05 A3012 RMK AO2 SLP135 T03280050,M
HND,2022-07-29 16:56,-115.1344,35.9729,742.79,82.00,65.00,56.24,M,4.00,0.00,30.04,1015.80,10.00,M,CLR,M,M,M,M,M,M,M,M,M,M,M,M,M,M,83.76,KHND 291656Z VRB04KT 10SM CLR 28/18 A3004 RMK AO2 SLP158 T02780183,M
LAS,2022-07-29 16:56,-115.1634,36.0719,663.00,82.00,66.00,58.43,350.00,3.00,0.00,30.00,1013.50,10.00,M,FEW,FEW,BKN,M,12000.00,18000.00,22000.00,M,M,M,M,M,M,M,M,84.15,KLAS 291656Z 35003KT 10SM FEW120 FEW180 BKN220 28/19 A3000 RMK AO2 SLP135 T02780189,M
TPH,2022-07-29 16:56,-117.0904,38.0505,1654.00,82.00,52.00,35.41,M,4.00,0.00,30.18,1012.00,10.00,M,CLR,M,M,M,M,M,M,M,M,M,M,M,M,M,M,80.97,KTPH 291656Z AUTO VRB04KT 10SM CLR 28/11 A3018 RMK AO2 SLP120 T02780111,M
INS,2022-07-29 16:58,-115.6733,36.5872,955.00,80.40,61.20,52.02,0.00,0.00,0.00,30.03,1012.00,10.00,M,BKN,M,M,M,20000.00,M,M,M,M,M,M,M,M,M,M,81.38,KINS 291658Z AUTO 00000KT 10SM BKN200 27/16 A3003 RMK AO2 SLP120 T02690162,M
LSV,2022-07-29 16:58,-115.0343,36.2362,570.00,87.60,70.00,56.02,0.00,0.00,0.00,29.98,1012.70,10.00,M,FEW,M,M,M,19000.00,M,M,M,M,M,M,M,M,M,M,92.63,KLSV 291658Z AUTO 00000KT 10SM FEW190 31/21 A2998 RMK AO2 SLP127 T03090211 $,M
BAM,2022-07-29 17:15,-116.8743,40.5990,1382.36,89.60,41.00,18.33,290.00,4.00,0.00,30.13,M,10.00,M,CLR,M,M,M,M,M,M,M,M,M,M,M,M,M,M,85.82,KBAM 291715Z AUTO 29004KT 10SM CLR 32/05 A3013 RMK AO1,M
CXP,2022-07-29 17:15,-119.7326,39.1923,1431.00,86.00,39.20,19.15,0.00,0.00,0.00,30.15,M,10.00,M,CLR,M,M,M,M,M,M,M,M,M,M,M,M,M,M,82.79,KCXP 291715Z AUTO 00000KT 10SM CLR 30/04 A3015 RMK AO2,M
RTS,2022-07-29 17:15,-119.8764,39.6682,1539.00,89.60,32.00,12.84,140.00,5.00,0.00,30.18,M,10.00,M,CLR,M,M,M,M,M,M,M,M,M,M,M,M,M,M,85.54,KRTS 291715Z AUTO 14005KT 10SM CLR 32/M00 A3018 RMK AO2,M
MEV,2022-07-29 17:15,-119.7500,38.9963,1441.42,86.00,35.60,16.63,0.00,0.00,0.00,30.14,M,9.00,M,CLR,M,M,M,M,M,M,M,M,M,M,M,M,M,M,82.69,KMEV 291715Z AUTO 00000KT 9SM CLR 30/02 A3014 RMK AO2,M
TMT,2022-07-29 17:15,-117.1971,39.4643,1749.34,M,M,M,0.00,0.00,0.00,30.22,M,10.00,M,CLR,M,M,M,M,M,M,M,M,M,M,M,M,M,M,M,KTMT 291715Z AUTO 00000KT 10SM CLR A3022 RMK AO2,M
HTH,2022-07-29 17:15,-118.6315,38.5448,1282.89,89.60,33.80,13.80,330.00,8.00,0.00,30.09,M,10.00,M,CLR,M,M,M,M,M,M,M,M,M,M,M,M,M,M,85.59,KHTH 291715Z AUTO 33008KT 10SM CLR 32/01 A3009 RMK A01,M
BVU,2022-07-29 17:15,-114.8611,35.9475,671.00,M,M,M,M,M,0.00,M,M,M,M,M,M,M,M,M,M,M,M,M,M,M,M,M,M,M,M,KBVU 291715Z AUTO RMK AO2 PNO PWINO TSNO,M
TMT,2022-07-29 17:35,-117.1971,39.4643,1749.34,M,M,M,0.00,0.00,0.00,30.22,M,10.00,M,CLR,M,M,M,M,M,M,M,M,M,M,M,M,M,M,M,KTMT 291735Z AUTO 00000KT 10SM CLR A3022 RMK AO2,M
HTH,2022-07-29 17:35,-118.6315,38.5448,1282.89,91.40,33.80,13.05,330.00,11.00,0.00,30.09,M,10.00,M,CLR,M,M,M,M,M,M,M,M,M,M,M,M,M,M,87.13,KHTH 291735Z AUTO 33011KT 10SM CLR 33/01 A3009 RMK A01,M
MEV,2022-07-29 17:35,-119.7500,38.9963,1441.42,87.80,35.60,15.70,0.00,0.00,0.00,30.14,M,10.00,M,CLR,M,M,M,M,M,M,M,M,M,M,M,M,M,M,84.12,KMEV 291735Z AUTO 00000KT 10SM CLR 31/02 A3014 RMK AO2,M
RTS,2022-07-29 17:35,-119.8764,39.6682,1539.00,89.60,32.00,12.84,100.00,7.00,0.00,30.17,M,10.00,M,CLR,M,M,M,M,M,M,M,M,M,M,M,M,M,M,85.54,KRTS 291735Z AUTO 10007KT 080V140 10SM CLR 32/M00 A3017 RMK AO2,M
CXP,2022-07-29 17:35,-119.7326,39.1923,1431.00,89.60,35.60,14.83,0.00,0.00,0.00,30.15,M,10.00,M,CLR,M,M,M,M,M,M,M,M,M,M,M,M,M,M,85.62,KCXP 291735Z AUTO 00000KT 10SM CLR 32/02 A3015 RMK AO2,M
BVU,2022-07-29 17:35,-114.8611,35.9475,671.00,M,M,M,M,M,0.00,M,M,M,M,M,M,M,M,M,M,M,M,M,M,M,M,M,M,M,M,KBVU 291735Z AUTO RMK AO2 PNO PWINO TSNO,M
BAM,2022-07-29 17:35,-116.8743,40.5990,1382.36,89.60,42.80,19.64,350.00,3.00,0.00,30.13,M,10.00,M,CLR,M,M,M,M,M,M,M,M,M,M,M,M,M,M,85.93,KBAM 291735Z AUTO 35003KT 10SM CLR 32/06 A3013 RMK AO1,M
INS,2022-07-29 17:49,-115.6733,36.5872,955.00,87.80,55.40,33.29,90.00,15.00,0.00,30.01,1010.90,10.00,M,BKN,M,M,M,20000.00,M,M,M,M,M,M,M,M,M,M,86.11,KINS 291749Z AUTO 09015KT 10SM BKN200 31/13 A3001 RMK AO2 WSHFT 38 SLP109,M
HTH,2022-07-29 17:50,-118.6315,38.5448,1282.89,91.40,33.80,13.05,330.00,12.00,0.00,30.08,M,10.00,M,CLR,M,M,M,M,M,M,M,M,M,M,M,M,M,M,87.13,KHTH 291750Z AUTO 33012KT 10SM CLR 33/01 A3008 RMK A01,M
ELY,2022-07-29 17:53,-114.8453,39.2950,1909.00,84.00,41.00,21.90,M,5.00,0.00,30.23,1012.20,10.00,M,FEW,M,M,M,11000.00,M,M,M,M,M,M,M,M,M,M,81.37,KELY 291753Z AUTO VRB05KT 10SM FEW110 29/05 A3023 RMK AO2 SLP122 T02890050 10289 20128 58001,M
DRA,2022-07-29 17:53,-116.0278,36.6206,1009.00,88.00,56.00,33.68,110.00,8.00,0.00,30.02,1010.90,10.00,M,CLR,M,M,M,M,M,M,M,M,M,M,M,M,M,M,86.42,KDRA 291753Z AUTO 11008KT 10SM CLR 31/13 A3002 RMK AO2 SLP109 T03110133 10311 20233 50000,M
P68,2022-07-29 17:53,-116.0056,39.6014,1993.00,87.00,38.00,17.58,20.00,6.00,0.00,30.20,1012.70,M,M,M,M,M,M,M,M,M,M,M,M,M,M,M,M,M,83.61,KP68 291753Z AUTO 02006KT 31/03 A3020 RMK AO1 SLP127 T03060033 10306 20117 58001,M
LOL,2022-07-29 17:53,-118.5701,40.0684,1192.43,99.00,39.00,12.68,40.00,11.00,0.00,30.05,1012.00,10.00,M,CLR,M,M,M,M,M,M,M,M,M,M,M,M,M,M,94.19,KLOL 291753Z AUTO 04011KT 10SM CLR 37/04 A3005 RMK AO2 SLP120 T03720039 10372 20189 58002,M
VGT,2022-07-29 17:53,-115.1933,36.2111,667.00,86.00,63.00,46.25,0.00,0.00,0.00,29.98,1014.80,10.00,M,CLR,M,M,M,M,M,M,M,M,M,M,M,M,M,M,86.88,KVGT 291753Z 00000KT 10SM CLR 30/17 A2998 RMK AO2 SLP148 T03000172 10300 20244 50001 $,M
BAM,2022-07-29 17:55,-116.8743,40.5990,1382.36,91.40,42.80,18.56,340.00,3.00,0.00,30.13,M,10.00,M,CLR,M,M,M,M,M,M,M,M,M,M,M,M,M,M,87.52,KBAM 291755Z AUTO 34003KT 10SM CLR 33/06 A3013 RMK AO1,M
CXP,2022-07-29 17:55,-119.7326,39.1923,1431.00,91.40,33.80,13.05,0.00,0.00,0.00,30.14,M,10.00,M,CLR,M,M,M,M,M,M,M,M,M,M,M,M,M,M,87.13,KCXP 291755Z AUTO 00000KT 10SM CLR 33/01 A3014 RMK AO2,M
RNO,2022-07-29 17:55,-119.7711,39.4839,1341.00,92.00,40.00,16.34,0.00,0.00,0.00,30.11,1012.40,10.00,M,FEW,M,M,M,9000.00,M,M,M,M,M,M,M,M,M,M,87.78,KRNO 291755Z 00000KT 10SM FEW090 33/04 A3011 RMK AO2 SLP124 T03330044 10333 20194 58002,M
BVU,2022-07-29 17:55,-114.8611,35.9475,671.00,M,M,M,M,M,0.00,M,M,M,M,M,M,M,M,M,M,M,M,M,M,M,M,M,M,M,M,KBVU 291755Z AUTO RMK AO2 PNO PWINO TSNO,M
RTS,2022-07-29 17:55,-119.8764,39.6682,1539.00,91.40,32.00,12.14,110.00,9.00,0.00,30.17,M,10.00,M,CLR,M,M,M,M,M,M,M,M,M,M,M,M,M,M,86.91,KRTS 291755Z AUTO 11009KT 10SM CLR 33/00 A3017 RMK AO2,M
MEV,2022-07-29 17:55,-119.7500,38.9963,1441.42,91.40,37.40,15.05,310.00,6.00,0.00,30.13,M,10.00,M,CLR,M,M,M,M,M,M,M,M,M,M,M,M,M,M,87.23,KMEV 291755Z AUTO 31006KT 10SM CLR 33/03 A3013 RMK AO2,M
TMT,2022-07-29 17:55,-117.1971,39.4643,1749.34,M,M,M,40.00,4.00,0.00,30.21,M,10.00,M,CLR,M,M,M,M,M,M,M,M,M,M,M,M,M,M,M,KTMT 291755Z AUTO 04004KT 10SM CLR A3021 RMK AO2,M
LAS,2022-07-29 17:56,-115.1634,36.0719,663.00,86.00,64.00,47.91,0.00,0.00,0.00,29.99,1013.20,10.00,M,FEW,FEW,BKN,M,12000.00,18000.00,22000.00,M,M,M,M,M,M,M,M,87.31,KLAS 291756Z 00000KT 10SM FEW120 FEW180 BKN220 30/18 A2999 RMK AO2 SLP132 T03000178 10300 20239 58001,M
WMC,2022-07-29 17:56,-117.8072,40.9019,1315.00,95.00,42.00,16.16,50.00,10.00,0.00,30.10,1013.20,10.00,M,CLR,M,M,M,M,M,M,M,M,M,M,M,M,M,M,90.79,KWMC 291756Z AUTO 05010KT 10SM CLR 35/06 A3010 RMK AO2 SLP132 T03500056 10350 20167 58001,M
EKO,2022-07-29 17:56,-115.7860,40.8242,1367.00,90.00,41.00,18.10,100.00,5.00,0.00,30.15,1013.50,10.00,M,CLR,M,M,M,M,M,M,M,M,M,M,M,M,M,M,86.16,KEKO 291756Z AUTO 10005KT 10SM CLR 32/05 A3015 RMK AO2 SLP135 T03220050 10322 20144 58005,M
NFL,2022-07-29 17:56,-118.7010,39.4166,1199.00,94.00,37.00,13.71,M,4.00,0.00,30.06,1014.70,10.00,M,FEW,M,M,M,8000.00,M,M,M,M,M,M,M,M,M,M,89.44,KNFL 291756Z VRB04KT 10SM FEW080 34/03 A3006 RMK AO2 SLP147 T03440028 10344 20172 50000,M
TPH,2022-07-29 17:56,-117.0904,38.0505,1654.00,87.00,49.00,26.79,20.00,4.00,0.00,30.17,1011.30,10.00,M,CLR,M,M,M,M,M,M,M,M,M,M,M,M,M,M,84.37,KTPH 291756Z AUTO 02004KT 10SM CLR 31/09 A3017 RMK AO2 SLP113 T03060094 10306 20189 58002,M
HND,2022-07-29 17:56,-115.1344,35.9729,742.79,87.00,64.00,46.26,0.00,0.00,0.00,30.03,1015.50,10.00,M,CLR,M,M,M,M,M,M,M,M,M,M,M,M,M,M,88.42,KHND 291756Z 00000KT 10SM CLR 31/18 A3003 RMK AO2 SLP155 T03060178 10306 20233 50000,M
LSV,2022-07-29 17:58,-115.0343,36.2362,570.00,91.60,68.40,46.76,0.00,0.00,0.00,29.97,1012.50,10.00,M,SCT,BKN,M,M,18000.00,20000.00,M,M,M,M,M,M,M,M,M,96.09,KLSV 291758Z AUTO 00000KT 10SM SCT180 BKN200 33/20 A2997 RMK AO2 SLP125 T03310202 10331 20241 50000 $,M
INS,2022-07-29 17:58,-115.6733,36.5872,955.00,88.50,55.00,31.97,90.00,14.00,0.00,30.01,1010.90,10.00,M,BKN,M,M,M,20000.00,M,M,M,M,M,M,M,M,M,M,86.63,KINS 291758Z AUTO 09014KT 10SM BKN200 31/13 A3001 RMK AO2 SLP109 T03140127 10315 20222 58004,M
CXP,2022-07-29 18:10,-119.7326,39.1923,1431.00,93.20,33.80,12.34,M,5.00,0.00,30.14,M,10.00,M,CLR,M,M,M,M,M,M,M,M,M,M,M,M,M,M,88.55,KCXP 291810Z AUTO VRB05KT 10SM CLR 34/01 A3014 RMK AO2,M
TMT,2022-07-29 18:15,-117.1971,39.4643,1749.34,M,M,M,20.00,6.00,0.00,30.21,M,10.00,M,CLR,M,M,M,M,M,M,M,M,M,M,M,M,M,M,M,KTMT 291815Z AUTO 02006KT 340V050 10SM CLR A3021 RMK AO2,M
RTS,2022-07-29 18:15,-119.8764,39.6682,1539.00,91.40,32.00,12.14,110.00,9.00,0.00,30.17,M,10.00,M,CLR,M,M,M,M,M,M,M,M,M,M,M,M,M,M,86.91,KRTS 291815Z AUTO 11009KT 10SM CLR 33/00 A3017 RMK AO2,M
HTH,2022-07-29 18:15,-118.6315,38.5448,1282.89,93.20,33.80,12.34,320.00,14.00,0.00,30.08,M,10.00,M,CLR,M,M,M,M,M,M,M,M,M,M,M,M,M,M,88.55,KHTH 291815Z AUTO 32014KT 10SM CLR 34/01 A3008 RMK A01,M
BAM,2022-07-29 18:15,-116.8743,40.5990,1382.36,91.40,42.80,18.56,0.00,0.00,0.00,30.13,M,10.00,M,CLR,M,M,M,M,M,M,M,M,M,M,M,M,M,M,87.52,KBAM 291815Z AUTO 00000KT 10SM CLR 33/06 A3013 RMK AO1,M
MEV,2022-07-29 18:15,-119.7500,38.9963,1441.42,93.20,35.60,13.25,M,4.00,0.00,30.13,M,10.00,M,CLR,M,M,M,M,M,M,M,M,M,M,M,M,M,M,88.76,KMEV 291815Z AUTO VRB04KT 10SM CLR 34/02 A3013 RMK AO2,M
BVU,2022-07-29 18:15,-114.8611,35.9475,671.00,M,M,M,M,M,0.00,M,M,M,M,M,M,M,M,M,M,M,M,M,M,M,M,M,M,M,M,KBVU 291815Z AUTO RMK AO2 PNO PWINO TSNO,M
MEV,2022-07-29 18:35,-119.7500,38.9963,1441.42,93.20,33.80,12.34,M,M,0.00,M,M,10.00,M,CLR,M,M,M,M,M,M,M,M,M,M,M,M,M,M,88.55,KMEV 291835Z AUTO 10SM CLR 34/01 RMK AO2,M
CXP,2022-07-29 18:35,-119.7326,39.1923,1431.00,93.20,33.80,12.34,130.00,4.00,0.00,30.13,M,10.00,M,CLR,M,M,M,M,M,M,M,M,M,M,M,M,M,M,88.55,KCXP 291835Z AUTO 13004KT 10SM CLR 34/01 A3013 RMK AO2,M
RTS,2022-07-29 18:35,-119.8764,39.6682,1539.00,91.40,32.00,12.14,160.00,7.00,0.00,30.17,M,10.00,M,CLR,M,M,M,M,M,M,M,M,M,M,M,M,M,M,86.91,KRTS 291835Z AUTO 16007KT 10SM CLR 33/00 A3017 RMK AO2,M
HTH,2022-07-29 18:35,-118.6315,38.5448,1282.89,95.00,33.80,11.67,330.00,12.00,0.00,30.07,M,10.00,M,CLR,M,M,M,M,M,M,M,M,M,M,M,M,M,M,89.97,KHTH 291835Z AUTO 33012KT 10SM CLR 35/01 A3007 RMK A01,M
BVU,2022-07-29 18:35,-114.8611,35.9475,671.00,M,M,M,M,M,0.00,M,M,M,M,M,M,M,M,M,M,M,M,M,M,M,M,M,M,M,M,KBVU 291835Z AUTO RMK AO2 PNO PWINO TSNO,M
TMT,2022-07-29 18:35,-117.1971,39.4643,1749.34,M,M,M,330.00,5.00,0.00,30.20,M,10.00,14.00,CLR,M,M,M,M,M,M,M,M,M,M,M,M,M,M,M,KTMT 291835Z AUTO 33005G14KT 10SM CLR A3020 RMK AO2,M
BAM,2022-07-29 18:35,-116.8743,40.5990,1382.36,93.20,42.80,17.55,310.00,3.00,0.00,30.12,M,10.00,M,CLR,M,M,M,M,M,M,M,M,M,M,M,M,M,M,89.17,KBAM 291835Z AUTO 31003KT 10SM CLR 34/06 A3012 RMK AO1,M
ELY,2022-07-29 18:53,-114.8453,39.2950,1909.00,87.00,38.00,17.58,10.00,7.00,0.00,30.21,1010.70,10.00,M,CLR,M,M,M,M,M,M,M,M,M,M,M,M,M,M,83.61,KELY 291853Z AUTO 01007KT 10SM CLR 31/03 A3021 RMK AO2 SLP107 T03060033,M
VGT,2022-07-29 18:53,-115.1933,36.2111,667.00,89.00,64.00,43.42,140.00,8.00,0.00,29.98,1014.20,10.00,M,CLR,M,M,M,M,M,M,M,M,M,M,M,M,M,M,90.49,KVGT 291853Z 14008KT 10SM CLR 32/18 A2998 RMK AO2 SLP142 T03170178 PNO $,M
LOL,2022-07-29 18:53,-118.5701,40.0684,1192.43,101.00,37.00,11.07,60.00,13.00,0.00,30.04,1011.70,10.00,18.00,CLR,M,M,M,M,M,M,M,M,M,M,M,M,M,M,95.43,KLOL 291853Z AUTO 06013G18KT 10SM CLR 38/03 A3004 RMK AO2 SLP117 T03830028,M
DRA,2022-07-29 18:53,-116.0278,36.6206,1009.00,92.00,56.00,29.80,M,3.00,0.00,30.01,1010.50,10.00,15.00,CLR,M,M,M,M,M,M,M,M,M,M,M,M,M,M,90.17,KDRA 291853Z AUTO VRB03G15KT 10SM CLR 33/13 A3001 RMK AO2 SLP105 T03330133,M
P68,2022-07-29 18:53,-116.0056,39.6014,1993.00,90.00,37.00,15.48,10.00,7.00,0.00,30.19,1012.60,M,19.00,M,M,M,M,M,M,M,M,M,M,M,M,M,M,M,86.00,KP68 291853Z AUTO 01007G19KT 32/03 A3019 RMK AO1 SLP126 T03220028,M
MEV,2022-07-29 18:55,-119.7500,38.9963,1441.42,M,M,M,M,M,0.00,M,M,M,M,M,M,M,M,M,M,M,M,M,M,M,M,M,M,M,M,KMEV 291855Z AUTO RMK AO2,M
RTS,2022-07-29 18:55,-119.8764,39.6682,1539.00,93.20,32.00,11.48,M,5.00,0.00,30.16,M,10.00,M,CLR,M,M,M,M,M,M,M,M,M,M,M,M,M,M,88.31,KRTS 291855Z AUTO VRB05KT 10SM CLR 34/00 A3016 RMK AO2,M
HTH,2022-07-29 18:55,-118.6315,38.5448,1282.89,96.80,32.00,10.27,330.00,15.00,0.00,30.06,M,10.00,M,CLR,M,M,M,M,M,M,M,M,M,M,M,M,M,M,91.19,KHTH 291855Z AUTO 33015KT 10SM CLR 36/00 A3006 RMK A01,M
BAM,2022-07-29 18:55,-116.8743,40.5990,1382.36,95.00,42.80,16.60,0.00,0.00,0.00,30.11,M,10.00,M,CLR,M,M,M,M,M,M,M,M,M,M,M,M,M,M,90.86,KBAM 291855Z AUTO 00000KT 10SM CLR 35/06 A3011 RMK AO1,M
TMT,2022-07-29 18:55,-117.1971,39.4643,1749.34,M,M,M,330.00,8.00,0.00,30.19,M,10.00,17.00,CLR,M,M,M,M,M,M,M,M,M,M,M,M,M,M,M,KTMT 291855Z AUTO 33008G17KT 300V010 10SM CLR A3019 RMK AO2,M
BVU,2022-07-29 18:55,-114.8611,35.9475,671.00,M,M,M,M,M,0.00,M,M,M,M,M,M,M,M,M,M,M,M,M,M,M,M,M,M,M,M,KBVU 291855Z AUTO RMK AO2 PNO PWINO TSNO,M
CXP,2022-07-29 18:55,-119.7326,39.1923,1431.00,95.00,33.80,11.67,280.00,4.00,0.00,30.13,M,10.00,M,CLR,M,M,M,M,M,M,M,M,M,M,M,M,M,M,89.97,KCXP 291855Z AUTO 28004KT 10SM CLR 35/01 A3013 RMK AO2,M
RNO,2022-07-29 18:55,-119.7711,39.4839,1341.00,96.00,39.00,13.85,0.00,0.00,0.00,30.10,1011.70,10.00,M,FEW,M,M,M,9000.00,M,M,M,M,M,M,M,M,M,M,91.57,KRNO 291855Z 00000KT 10SM FEW090 36/04 A3010 RMK AO2 SLP117 T03560039,M
NFL,2022-07-29 18:56,-118.7010,39.4166,1199.00,99.00,36.00,11.27,M,6.00,0.00,30.04,1014.20,10.00,M,SCT,SCT,M,M,8000.00,10000.00,M,M,M,M,M,M,M,M,M,93.63,KNFL 291856Z VRB06KT 10SM SCT080 SCT100 37/02 A3004 RMK SLP142 T03720022,M
TPH,2022-07-29 18:56,-117.0904,38.0505,1654.00,90.00,45.00,21.10,M,3.00,0.00,30.15,1010.60,10.00,M,CLR,M,M,M,M,M,M,M,M,M,M,M,M,M,M,86.45,KTPH 291856Z AUTO VRB03KT 10SM CLR 32/07 A3015 RMK AO2 SLP106 T03220072,M
LAS,2022-07-29 18:56,-115.1634,36.0719,663.00,87.00,65.00,47.73,80.00,4.00,0.00,29.98,1012.80,10.00,M,FEW,FEW,SCT,M,12000.00,18000.00,22000.00,M,M,M,M,M,M,M,M,88.86,KLAS 291856Z 08004KT 10SM FEW120 FEW180 SCT220 31/18 A2998 RMK AO2 SLP128 T03060183,M
HND,2022-07-29 18:56,-115.1344,35.9729,742.79,89.00,65.00,44.80,M,3.00,0.00,30.01,1015.00,10.00,M,CLR,M,M,M,M,M,M,M,M,M,M,M,M,M,M,90.97,KHND 291856Z VRB03KT 10SM CLR 32/18 A3001 RMK AO2 SLP150 T03170183,M
EKO,2022-07-29 18:56,-115.7860,40.8242,1367.00,94.00,40.00,15.35,M,6.00,0.00,30.12,1013.00,10.00,16.00,CLR,M,M,M,M,M,M,M,M,M,M,M,M,M,M,89.60,KEKO 291856Z AUTO VRB06G16KT 10SM CLR 34/04 A3012 RMK AO2 SLP130 T03440044,M
WMC,2022-07-29 18:56,-117.8072,40.9019,1315.00,99.00,40.00,13.13,40.00,12.00,0.00,30.09,1012.20,10.00,20.00,CLR,M,M,M,M,M,M,M,M,M,M,M,M,M,M,94.35,KWMC 291856Z AUTO 04012G20KT 10SM CLR 37/04 A3009 RMK AO2 SLP122 T03720044,M
INS,2022-07-29 18:58,-115.6733,36.5872,955.00,90.70,55.00,29.83,90.00,13.00,0.00,30.00,1010.80,10.00,21.00,CLR,M,M,M,M,M,M,M,M,M,M,M,M,M,M,88.71,KINS 291858Z AUTO 09013G21KT 10SM CLR 33/13 A3000 RMK AO2 SLP108 T03260127,M
LSV,2022-07-29 18:58,-115.0343,36.2362,570.00,91.20,67.50,45.90,80.00,3.00,0.00,29.96,1012.20,10.00,M,SCT,M,M,M,15000.00,M,M,M,M,M,M,M,M,M,M,94.95,KLSV 291858Z COR AUTO 08003KT 10SM SCT150 33/20 A2996 RMK AO2 SLP122 T03290197 $ COR 1901,M
TMT,2022-07-29 19:15,-117.1971,39.4643,1749.34,M,M,M,330.00,13.00,0.00,30.18,M,10.00,18.00,CLR,M,M,M,M,M,M,M,M,M,M,M,M,M,M,M,KTMT 291915Z AUTO 33013G18KT 320V020 10SM CLR A3018 RMK AO2,M
HTH,2022-07-29 19:15,-118.6315,38.5448,1282.89,96.80,32.00,10.27,320.00,15.00,0.00,30.06,M,10.00,M,CLR,M,M,M,M,M,M,M,M,M,M,M,M,M,M,91.19,KHTH 291915Z AUTO 32015KT 10SM CLR 36/00 A3006 RMK A01,M
BAM,2022-07-29 19:15,-116.8743,40.5990,1382.36,95.00,42.80,16.60,50.00,4.00,0.00,30.10,M,10.00,M,CLR,M,M,M,M,M,M,M,M,M,M,M,M,M,M,90.86,KBAM 291915Z AUTO 05004KT 10SM CLR 35/06 A3010 RMK AO1,M
MEV,2022-07-29 19:15,-119.7500,38.9963,1441.42,93.20,35.60,13.25,0.00,0.00,0.00,30.11,M,10.00,10.00,M,M,M,M,M,M,M,M,M,M,M,M,M,M,M,88.76,KMEV 291915Z AUTO 00000G10KT 10SM 34/02 A3011 RMK AO2,M
RTS,2022-07-29 19:15,-119.8764,39.6682,1539.00,93.20,32.00,11.48,150.00,9.00,0.00,30.15,M,10.00,M,CLR,M,M,M,M,M,M,M,M,M,M,M,M,M,M,88.31,KRTS 291915Z AUTO 15009KT 120V200 10SM CLR 34/M00 A3015 RMK AO2,M
CXP,2022-07-29 19:15,-119.7326,39.1923,1431.00,96.80,32.00,10.27,30.00,8.00,0.00,30.12,M,10.00,M,CLR,M,M,M,M,M,M,M,M,M,M,M,M,M,M,91.19,KCXP 291915Z AUTO 03008KT 010V070 10SM CLR 36/00 A3012 RMK AO2,M
BVU,2022-07-29 19:15,-114.8611,35.9475,671.00,M,M,M,M,M,0.00,M,M,M,M,M,M,M,M,M,M,M,M,M,M,M,M,M,M,M,M,KBVU 291915Z AUTO RMK AO2 PNO PWINO TSNO,M
EKO,2022-07-29 19:27,-115.7860,40.8242,1367.00,91.00,40.00,16.80,M,M,0.00,30.12,M,10.00,M,CLR,M,M,M,M,M,M,M,VCTS,M,M,M,M,M,M,86.98,KEKO 291927Z AUTO 10SM VCTS CLR 33/04 A3012 RMK AO2 T03280044,M
RTS,2022-07-29 19:35,-119.8764,39.6682,1539.00,93.20,28.40,9.91,140.00,6.00,0.00,30.15,M,10.00,12.00,CLR,M,M,M,M,M,M,M,M,M,M,M,M,M,M,87.89,KRTS 291935Z AUTO 14006G12KT 10SM CLR 34/M02 A3015 RMK AO2,M
BVU,2022-07-29 19:35,-114.8611,35.9475,671.00,M,M,M,M,M,0.00,M,M,M,M,M,M,M,M,M,M,M,M,M,M,M,M,M,M,M,M,KBVU 291935Z AUTO RMK AO2 PNO PWINO TSNO,M
CXP,2022-07-29 19:35,-119.7326,39.1923,1431.00,96.80,30.20,9.55,50.00,11.00,0.00,30.12,M,10.00,M,CLR,M,M,M,M,M,M,M,M,M,M,M,M,M,M,90.96,KCXP 291935Z AUTO 05011KT 10SM CLR 36/M01 A3012 RMK AO2,M
MEV,2022-07-29 19:35,-119.7500,38.9963,1441.42,93.20,35.60,13.25,310.00,5.00,0.00,30.10,M,10.00,M,CLR,M,M,M,M,M,M,M,M,M,M,M,M,M,M,88.76,KMEV 291935Z AUTO 31005KT 10SM CLR 34/02 A3010 RMK AO2,M
HTH,2022-07-29 19:35,-118.6315,38.5448,1282.89,96.80,32.00,10.27,340.00,14.00,0.00,30.05,M,10.00,20.00,CLR,M,M,M,M,M,M,M,M,M,M,M,M,M,M,91.19,KHTH 291935Z AUTO 34014G20KT 10SM CLR 36/00 A3005 RMK A01,M
TMT,2022-07-29 19:35,-117.1971,39.4643,1749.34,M,M,M,360.00,12.00,0.00,30.18,M,10.00,22.00,SCT,M,M,M,11000.00,M,M,M,M,M,M,M,M,M,M,M,KTMT 291935Z AUTO 36012G22KT 10SM SCT110 A3018 RMK AO2,M
BAM,2022-07-29 19:35,-116.8743,40.5990,1382.36,96.80,42.80,15.71,270.00,6.00,0.00,30.09,M,10.00,M,CLR,M,M,M,M,M,M,M,M,M,M,M,M,M,M,92.57,KBAM 291935Z AUTO 27006KT 10SM CLR 36/06 A3009 RMK AO1,M
ELY,2022-07-29 19:36,-114.8453,39.2950,1909.00,88.00,39.00,17.83,M,M,0.00,30.20,M,10.00,M,CLR,M,M,M,M,M,M,M,VCTS,M,M,M,M,M,M,84.38,KELY 291936Z AUTO 10SM VCTS CLR 31/04 A3020 RMK AO2 T03110039,M
EKO,2022-07-29 19:48,-115.7860,40.8242,1367.00,81.00,52.00,36.58,330.00,27.00,T,30.13,M,5.00,43.00,BKN,M,M,M,11000.00,M,M,M,-RA,M,M,M,43.00,330.00,2022-07-29 19:47,80.34,KEKO 291948Z AUTO 33027G43KT 5SM -RA BKN110 27/11 A3013 RMK AO2 PK WND 33043/1947 RAB47 P0000 T02720111,M
CXP,2022-07-29 19:50,-119.7326,39.1923,1431.00,98.60,30.20,9.04,120.00,8.00,0.00,30.11,M,10.00,16.00,CLR,M,M,M,M,M,M,M,M,M,M,M,M,M,M,92.46,KCXP 291950Z AUTO 12008G16KT 070V140 10SM CLR 37/M01 A3011 RMK AO2,M
ELY,2022-07-29 19:51,-114.8453,39.2950,1909.00,89.60,37.40,15.92,70.00,3.00,0.00,30.19,M,10.00,19.00,CLR,M,M,M,M,M,M,M,M,M,M,M,M,M,M,85.67,KELY 291951Z AUTO 07003G19KT 10SM CLR 32/03 A3019 RMK AO2,M
VGT,2022-07-29 19:53,-115.1933,36.2111,667.00,92.00,64.00,39.76,M,M,0.00,29.95,1013.30,10.00,M,M,M,M,M,M,M,M,M,M,M,M,M,M,M,M,93.51,KVGT 291953Z 10SM 33/18 A2995 RMK AO2 SLP133 T03330178 PNO $,M
P68,2022-07-29 19:53,-116.0056,39.6014,1993.00,90.00,34.00,13.74,M,6.00,0.00,30.16,1011.80,M,M,M,M,M,M,M,M,M,M,M,M,M,M,M,M,M,85.93,KP68 291953Z AUTO VRB06KT 32/01 A3016 RMK AO1 SLP118 T03220011,M
DRA,2022-07-29 19:53,-116.0278,36.6206,1009.00,95.00,55.00,26.19,M,M,0.00,29.99,1009.90,10.00,M,CLR,M,M,M,M,M,M,M,M,M,M,M,M,M,M,93.10,KDRA 291953Z AUTO 10SM CLR 35/13 A2999 RMK AO2 SLP099 T03500128,M
LOL,2022-07-29 19:53,-118.5701,40.0684,1192.43,103.00,30.00,7.88,50.00,18.00,0.00,30.02,1011.10,10.00,24.00,CLR,M,M,M,M,M,M,M,M,M,M,M,M,M,M,96.07,KLOL 291953Z AUTO 05018G24KT 10SM CLR 39/M01 A3002 RMK AO2 SLP111 T03941011,M
ELY,2022-07-29 19:53,-114.8453,39.2950,1909.00,88.00,37.00,16.49,M,M,0.00,30.19,1010.20,10.00,M,CLR,M,M,M,M,M,M,M,M,M,M,M,M,M,M,84.32,KELY 291953Z AUTO 10SM CLR 31/03 A3019 RMK AO2 SLP102 T03110028,M
EKO,2022-07-29 19:54,-115.7860,40.8242,1367.00,78.80,48.20,34.13,260.00,14.97,M,30.12,M,2.50,42.96,FEW,SCT,OVC,M,2201.00,7001.00,11000.00,M,+RA,M,M,M,43.00,330.00,2022-07-29 19:47,78.80,SPECI KEKO 291954Z 26015G43KT 2 1/2SM +RA FEW022 SCT070 OVC110 26/09 A3012 RMK AO2 PK WND 33043/1947 VIS 1 1/4V5 LTG DSNT W RAB47 P0003 FIBI,M
BVU,2022-07-29 19:55,-114.8611,35.9475,671.00,M,M,M,M,M,0.00,M,M,M,M,M,M,M,M,M,M,M,M,M,M,M,M,M,M,M,M,KBVU 291955Z AUTO RMK AO2 PNO PWINO TSNO,M
RNO,2022-07-29 19:55,-119.7711,39.4839,1341.00,99.00,38.00,12.15,20.00,4.00,0.00,30.08,1011.00,10.00,M,SCT,M,M,M,11000.00,M,M,M,M,M,M,M,M,M,M,93.98,KRNO 291955Z 02004KT 10SM SCT110 37/03 A3008 RMK AO2 SLP110 T03720033,M
HTH,2022-07-29 19:55,-118.6315,38.5448,1282.89,98.60,32.00,9.72,340.00,13.00,0.00,30.04,M,10.00,19.00,CLR,M,M,M,M,M,M,M,M,M,M,M,M,M,M,92.69,KHTH 291955Z AUTO 34013G19KT 10SM CLR 37/M00 A3004 RMK A01,M
BAM,2022-07-29 19:55,-116.8743,40.5990,1382.36,98.60,37.40,12.05,40.00,5.00,0.00,30.08,M,10.00,M,CLR,M,M,M,M,M,M,M,M,M,M,M,M,M,M,93.54,KBAM 291955Z AUTO 04005KT 10SM CLR 37/03 A3008 RMK AO1,M
MEV,2022-07-29 19:55,-119.7500,38.9963,1441.42,93.20,33.80,12.34,270.00,7.00,0.00,30.10,M,10.00,M,CLR,M,M,M,M,M,M,M,M,M,M,M,M,M,M,88.55,KMEV 291955Z AUTO 27007KT 10SM CLR 34/01 A3010 RMK AO2,M
TMT,2022-07-29 19:55,-117.1971,39.4643,1749.34,M,M,M,50.00,11.00,0.00,30.18,M,10.00,17.00,SCT,M,M,M,11000.00,M,M,M,M,M,M,M,M,M,M,M,KTMT 291955Z AUTO 05011G17KT 350V070 10SM SCT110 A3018 RMK AO2,M
RTS,2022-07-29 19:55,-119.8764,39.6682,1539.00,93.20,28.40,9.91,M,5.00,0.00,30.14,M,10.00,M,CLR,M,M,M,M,M,M,M,M,M,M,M,M,M,M,87.89,KRTS 291955Z AUTO VRB05KT 10SM CLR 34/M02 A3014 RMK AO2,M
LAS,2022-07-29 19:56,-115.1634,36.0719,663.00,90.00,64.00,42.20,0.00,0.00,0.00,29.96,1011.90,10.00,M,FEW,FEW,SCT,M,12000.00,18000.00,22000.00,M,M,M,M,M,M,M,M,91.44,KLAS 291956Z 00000KT 10SM FEW120 FEW180 SCT220 32/18 A2996 RMK AO2 SLP119 CB DSNT E T03220178,M
EKO,2022-07-29 19:56,-115.7860,40.8242,1367.00,80.00,48.00,32.46,250.00,13.00,0.06,30.13,1014.40,3.00,43.00,FEW,SCT,OVC,M,2200.00,7000.00,11000.00,M,RA,M,M,M,43.00,330.00,2022-07-29 19:47,79.42,KEKO 291956Z AUTO 25013G43KT 3SM RA FEW022 SCT070 OVC110 27/09 A3013 RMK AO2 PK WND 33043/1947 LTG DSNT W RAB47 SLP144 P0006 T02670089,M
HND,2022-07-29 19:56,-115.1344,35.9729,742.79,92.00,65.00,41.03,M,3.00,0.00,29.99,1014.20,10.00,M,CLR,M,M,M,M,M,M,M,M,M,M,M,M,M,M,94.03,KHND 291956Z VRB03KT 10SM CLR 33/18 A2999 RMK AO2 SLP142 T03330183,M
NFL,2022-07-29 19:56,-118.7010,39.4166,1199.00,101.00,33.00,9.48,40.00,11.00,0.00,30.02,1013.70,10.00,15.00,SCT,M,M,M,10000.00,M,M,M,M,M,M,M,M,M,M,94.79,KNFL 291956Z 04011G15KT 10SM SCT100 38/01 A3002 RMK AO2 SLP137 TCU DSNT SW-NW SH DSNT N T03830006,M
WMC,2022-07-29 19:56,-117.8072,40.9019,1315.00,100.00,37.00,11.37,M,6.00,0.00,30.07,1011.40,10.00,15.00,CLR,M,M,M,M,M,M,M,M,M,M,M,M,M,M,94.66,KWMC 291956Z AUTO VRB06G15KT 10SM CLR 38/03 A3007 RMK AO2 SLP114 T03780028,M
TPH,2022-07-29 19:56,-117.0904,38.0505,1654.00,93.00,41.00,16.48,M,M,0.00,30.12,1009.60,10.00,M,CLR,M,M,M,M,M,M,M,M,M,M,M,M,M,M,88.85,KTPH 291956Z AUTO 10SM CLR 34/05 A3012 RMK AO2 LTG DSNT NE AND E SLP096 T03390050,M
LSV,2022-07-29 19:58,-115.0343,36.2362,570.00,95.00,64.60,36.88,110.00,7.00,0.00,29.93,1011.10,10.00,M,FEW,M,M,M,20000.00,M,M,M,M,M,M,M,M,M,M,97.39,KLSV 291958Z AUTO 11007KT 10SM FEW200 35/18 A2993 RMK AO2 SLP111 T03500181 $,M
INS,2022-07-29 19:58,-115.6733,36.5872,955.00,93.00,54.00,26.87,120.00,9.00,0.00,29.98,1009.90,10.00,20.00,CLR,M,M,M,M,M,M,M,M,M,M,M,27.00,110.00,2022-07-29 19:41,90.76,KINS 291958Z AUTO 12009G20KT 10SM CLR 34/12 A2998 RMK AO2 PK WND 11027/41 SLP099 T03390122,M
EKO,2022-07-29 20:07,-115.7860,40.8242,1367.00,81.00,52.00,36.58,280.00,12.00,0.01,30.14,M,10.00,M,FEW,BKN,M,M,2200.00,11000.00,M,M,M,M,M,M,M,M,M,80.34,KEKO 292007Z AUTO 28012KT 10SM FEW022 BKN110 27/11 A3014 RMK AO2 WSHFT 1947 RAE05 P0001 T02720111,M
BAM,2022-07-29 20:15,-116.8743,40.5990,1382.36,98.60,33.80,10.45,20.00,9.00,0.00,30.08,M,10.00,19.00,CLR,M,M,M,M,M,M,M,M,M,M,M,M,M,M,92.94,KBAM 292015Z AUTO 02009G19KT 10SM CLR 37/01 A3008 RMK AO1,M
HTH,2022-07-29 20:15,-118.6315,38.5448,1282.89,98.60,32.00,9.72,320.00,13.00,0.00,30.04,M,10.00,21.00,CLR,M,M,M,M,M,M,M,M,M,M,M,M,M,M,92.69,KHTH 292015Z AUTO 32013G21KT 10SM CLR 37/M00 A3004 RMK A01,M
MEV,2022-07-29 20:15,-119.7500,38.9963,1441.42,95.00,30.20,10.09,20.00,9.00,0.00,30.09,M,10.00,M,CLR,M,M,M,M,M,M,M,M,M,M,M,M,M,M,89.48,KMEV 292015Z AUTO 02009KT 10SM CLR 35/M01 A3009 RMK AO2,M
CXP,2022-07-29 20:15,-119.7326,39.1923,1431.00,98.60,28.40,8.40,110.00,11.00,0.00,30.10,M,10.00,M,CLR,M,M,M,M,M,M,M,M,M,M,M,M,M,M,92.25,KCXP 292015Z AUTO 11011KT 080V140 10SM CLR 37/M02 A3010 RMK AO2,M
TMT,2022-07-29 20:15,-117.1971,39.4643,1749.34,91.40,40.00,16.60,60.00,8.00,0.00,30.18,M,10.00,24.00,SCT,M,M,M,11000.00,M,M,M,M,M,M,M,M,M,M,87.34,KTMT 292015Z AUTO 06008G24KT 10SM SCT110 33/04 A3018 RMK AO2 T03300044,M
BVU,2022-07-29 20:15,-114.8611,35.9475,671.00,M,M,M,M,M,0.00,M,M,M,M,M,M,M,M,M,M,M,M,M,M,M,M,M,M,M,M,KBVU 292015Z AUTO RMK AO2 PNO PWINO TSNO,M
RTS,2022-07-29 20:15,-119.8764,39.6682,1539.00,93.20,28.40,9.91,70.00,9.00,0.00,30.14,M,10.00,16.00,CLR,M,M,M,M,M,M,M,M,M,M,M,M,M,M,87.89,KRTS 292015Z AUTO 07009G16KT 10SM CLR 34/M02 A3014 RMK AO2,M
BAM,2022-07-29 20:35,-116.8743,40.5990,1382.36,100.40,37.40,11.41,70.00,8.00,0.00,30.08,M,10.00,20.00,CLR,M,M,M,M,M,M,M,M,M,M,M,M,M,M,95.08,KBAM 292035Z AUTO 07008G20KT 010V090 10SM CLR 38/03 A3008 RMK AO1,M
TMT,2022-07-29 20:35,-117.1971,39.4643,1749.34,M,M,M,40.00,6.00,0.00,30.16,M,10.00,M,CLR,M,M,M,M,M,M,M,M,M,M,M,M,M,M,M,KTMT 292035Z AUTO 04006KT 10SM CLR A3016 RMK AO2,M
MEV,2022-07-29 20:35,-119.7500,38.9963,1441.42,96.80,30.20,9.55,M,5.00,0.00,30.08,M,10.00,11.00,CLR,M,M,M,M,M,M,M,M,M,M,M,M,M,M,90.96,KMEV 292035Z AUTO VRB05G11KT 10SM CLR 36/M01 A3008 RMK AO2,M
RTS,2022-07-29 20:35,-119.8764,39.6682,1539.00,93.20,30.20,10.67,130.00,8.00,0.00,30.14,M,10.00,M,CLR,M,M,M,M,M,M,M,M,M,M,M,M,M,M,88.09,KRTS 292035Z AUTO 13008KT 10SM CLR 34/M01 A3014 RMK AO2,M
CXP,2022-07-29 20:35,-119.7326,39.1923,1431.00,98.60,32.00,9.72,70.00,8.00,0.00,30.10,M,10.00,M,CLR,M,M,M,M,M,M,M,M,M,M,M,M,M,M,92.69,KCXP 292035Z AUTO 07008KT 10SM CLR 37/M00 A3010 RMK AO2,M
BVU,2022-07-29 20:35,-114.8611,35.9475,671.00,M,M,M,M,M,0.00,M,M,M,M,M,M,M,M,M,M,M,M,M,M,M,M,M,M,M,M,KBVU 292035Z AUTO RMK AO2 PNO PWINO TSNO,M
HTH,2022-07-29 20:35,-118.6315,38.5448,1282.89,98.60,30.20,9.04,320.00,14.00,0.00,30.03,M,10.00,20.00,CLR,M,M,M,M,M,M,M,M,M,M,M,M,M,M,92.46,KHTH 292035Z AUTO 32014G20KT 10SM CLR 37/M01 A3003 RMK A01,M
DRA,2022-07-29 20:53,-116.0278,36.6206,1009.00,96.00,54.00,24.42,M,4.00,0.00,29.96,1008.70,10.00,M,CLR,M,M,M,M,M,M,M,M,M,M,M,M,M,M,93.97,KDRA 292053Z AUTO VRB04KT 10SM CLR 36/12 A2996 RMK AO2 SLP087 T03560122 58020,M
LOL,2022-07-29 20:53,-118.5701,40.0684,1192.43,103.00,32.00,8.54,50.00,7.00,0.00,30.00,1010.50,10.00,M,CLR,M,M,M,M,M,M,M,M,M,M,M,M,M,M,96.34,KLOL 292053Z AUTO 05007KT 330V140 10SM CLR 39/00 A3000 RMK AO2 SLP105 T03940000 58016,M
ELY,2022-07-29 20:53,-114.8453,39.2950,1909.00,88.00,35.00,15.29,M,5.00,0.00,30.17,1009.50,10.00,19.00,CLR,M,M,M,M,M,M,M,M,M,M,M,M,M,M,84.28,KELY 292053Z AUTO VRB05G19KT 10SM CLR 31/02 A3017 RMK AO2 LTG DSNT SE AND S SLP095 T03110017 58012,M
P68,2022-07-29 20:53,-116.0056,39.6014,1993.00,94.00,34.00,12.17,350.00,9.00,0.00,30.14,1010.60,M,18.00,M,M,M,M,M,M,M,M,M,M,M,M,M,M,M,89.13,KP68 292053Z AUTO 35009G18KT 34/01 A3014 RMK AO1 SLP106 T03440011 58017,M
VGT,2022-07-29 20:53,-115.1933,36.2111,667.00,93.00,63.00,37.10,M,3.00,0.00,29.92,1012.00,10.00,M,CLR,M,M,M,M,M,M,M,M,M,M,M,M,M,M,94.18,KVGT 292053Z AUTO VRB03KT 10SM CLR 34/17 A2992 RMK AO2 SLP120 6//// T03390172 $,M
INS,2022-07-29 20:54,-115.6733,36.5872,955.00,95.00,53.60,24.89,80.00,15.00,0.00,29.94,1008.50,10.00,19.00,CLR,M,M,M,M,M,M,M,M,M,M,M,M,M,M,92.71,KINS 292054Z AUTO 08015G19KT 10SM CLR 35/12 A2994 RMK AO2 SLP085,M
BAM,2022-07-29 20:55,-116.8743,40.5990,1382.36,96.80,33.80,11.04,60.00,10.00,0.00,30.07,M,10.00,15.00,CLR,M,M,M,M,M,M,M,M,M,M,M,M,M,M,91.44,KBAM 292055Z AUTO 06010G15KT 10SM CLR 36/01 A3007 RMK AO1,M
RTS,2022-07-29 20:55,-119.8764,39.6682,1539.00,95.00,28.40,9.38,180.00,8.00,0.00,30.13,M,10.00,15.00,CLR,M,M,M,M,M,M,M,M,M,M,M,M,M,M,89.27,KRTS 292055Z AUTO 18008G15KT 10SM CLR 35/M02 A3013 RMK AO2,M
MEV,2022-07-29 20:55,-119.7500,38.9963,1441.42,96.80,30.20,9.55,20.00,5.00,0.00,30.08,M,10.00,11.00,CLR,M,M,M,M,M,M,M,M,M,M,M,M,M,M,90.96,KMEV 292055Z AUTO 02005G11KT 10SM CLR 36/M01 A3008 RMK AO2,M
HTH,2022-07-29 20:55,-118.6315,38.5448,1282.89,100.40,30.20,8.56,320.00,15.00,0.00,30.02,M,10.00,21.00,CLR,M,M,M,M,M,M,M,M,M,M,M,M,M,M,93.98,KHTH 292055Z AUTO 32015G21KT 10SM CLR 38/M01 A3002 RMK A01,M
BVU,2022-07-29 20:55,-114.8611,35.9475,671.00,M,M,M,M,M,0.00,M,M,M,M,M,M,M,M,M,M,M,M,M,M,M,M,M,M,M,M,KBVU 292055Z AUTO RMK AO2 PNO PWINO TSNO,M
CXP,2022-07-29 20:55,-119.7326,39.1923,1431.00,100.40,32.00,9.21,350.00,9.00,0.00,30.10,M,10.00,M,CLR,M,M,M,M,M,M,M,M,M,M,M,M,M,M,94.21,KCXP 292055Z AUTO 35009KT 330V030 10SM CLR 38/M00 A3010 RMK AO2,M
RNO,2022-07-29 20:55,-119.7711,39.4839,1341.00,101.00,37.00,11.07,M,5.00,0.00,30.06,1010.50,10.00,M,SCT,BKN,M,M,11000.00,18000.00,M,M,M,M,M,M,M,M,M,95.43,KRNO 292055Z VRB05KT 10SM SCT110 BKN180 38/03 A3006 RMK AO2 SLP105 TCU DSNT N THRU NE T03830028 57016,M
TMT,2022-07-29 20:55,-117.1971,39.4643,1749.34,M,M,M,60.00,14.00,0.00,30.16,M,10.00,17.00,CLR,M,M,M,M,M,M,M,M,M,M,M,M,M,M,M,KTMT 292055Z AUTO 06014G17KT 10SM CLR A3016 RMK AO2,M
TPH,2022-07-29 20:56,-117.0904,38.0505,1654.00,84.00,44.00,24.68,140.00,18.00,0.05,30.12,1010.70,10.00,33.00,BKN,OVC,M,M,10000.00,11000.00,M,M,VCTS -RA,M,M,M,36.00,350.00,2022-07-29 20:31,81.55,KTPH 292056Z AUTO 14018G33KT 10SM VCTS -RA BKN100 OVC110 29/07 A3012 RMK AO2 PK WND 35036/2031 LTG DSNT E RAB24 SLP107 P0005 60005 T02890067 55014,M
HND,2022-07-29 20:56,-115.1344,35.9729,742.79,94.00,65.00,38.56,10.00,7.00,0.00,29.95,1012.70,10.00,M,CLR,M,M,M,M,M,M,M,M,M,M,M,M,M,M,96.30,KHND 292056Z 01007KT 10SM CLR 34/18 A2995 RMK AO2 SLP127 T03440183 58023,M
LAS,2022-07-29 20:56,-115.1634,36.0719,663.00,92.00,64.00,39.76,M,3.00,0.00,29.92,1010.70,10.00,M,FEW,FEW,SCT,M,12000.00,18000.00,22000.00,M,M,M,M,M,M,M,M,93.51,KLAS 292056Z VRB03KT 10SM FEW120 FEW180 SCT220 33/18 A2992 RMK AO2 SLP107 CB DSNT E AND NW T03330178 58021,M
NFL,2022-07-29 20:56,-118.7010,39.4166,1199.00,104.00,30.00,7.62,M,6.00,0.00,30.00,1012.80,10.00,M,SCT,M,M,M,10000.00,M,M,M,M,M,M,M,M,M,M,97.00,KNFL 292056Z VRB06KT 10SM SCT100 40/M01 A3000 RMK AO2 SLP128 VIRGA DSNT NW-N TCU DSNT W-N T04001011 58018,M
EKO,2022-07-29 20:56,-115.7860,40.8242,1367.00,82.00,51.00,34.25,270.00,13.00,0.01,30.12,1014.10,10.00,M,FEW,M,M,M,9000.00,M,M,M,M,M,M,M,M,M,M,80.85,KEKO 292056Z AUTO 27013KT 10SM FEW090 28/11 A3012 RMK AO2 WSHFT 1947 RAE05 SLP141 P0001 60007 T02780106 56008,M
WMC,2022-07-29 20:56,-117.8072,40.9019,1315.00,101.00,37.00,11.07,30.00,10.00,0.00,30.05,1010.80,10.00,17.00,CLR,M,M,M,M,M,M,M,M,M,M,M,M,M,M,95.43,KWMC 292056Z AUTO 03010G17KT 350V070 10SM CLR 38/03 A3005 RMK AO2 SLP108 T03830028 58016,M
LSV,2022-07-29 20:58,-115.0343,36.2362,570.00,98.00,65.70,34.85,190.00,5.00,0.00,29.89,1009.60,10.00,M,CLR,M,M,M,M,M,M,M,M,M,M,M,M,M,M,101.80,KLSV 292058Z AUTO 19005KT 10SM CLR 37/19 A2989 RMK AO2 SLP096 T03670187 57025 $,M
INS,2022-07-29 20:58,-115.6733,36.5872,955.00,94.80,53.40,24.86,90.00,16.00,0.00,29.94,1008.50,10.00,22.00,CLR,M,M,M,M,M,M,M,M,M,M,M,M,M,M,92.45,KINS 292058Z AUTO 09016G22KT 10SM CLR 35/12 A2994 RMK AO2 SLP085 T03490119 57022,M
TPH,2022-07-29 21:07,-117.0904,38.0505,1654.00,85.00,44.00,23.97,80.00,20.00,T,30.12,M,10.00,30.00,SCT,BKN,M,M,9500.00,12000.00,M,M,M,M,M,M,30.00,80.00,2022-07-29 21:07,82.20,KTPH 292107Z AUTO 08020G30KT 10SM SCT095 BKN120 29/07 A3012 RMK AO2 PK WND 08030/2107 WSHFT 2051 RAE04 P0000 T02940067,M
CXP,2022-07-29 21:10,-119.7326,39.1923,1431.00,98.60,32.00,9.72,330.00,12.00,0.00,30.09,M,10.00,M,CLR,M,M,M,M,M,M,M,M,M,M,M,M,M,M,92.69,KCXP 292110Z AUTO 33012KT 10SM CLR 37/M00 A3009 RMK AO2,M
MEV,2022-07-29 21:15,-119.7500,38.9963,1441.42,98.60,30.20,9.04,0.00,0.00,0.00,30.07,M,10.00,10.00,CLR,M,M,M,M,M,M,M,M,M,M,M,M,M,M,92.46,KMEV 292115Z AUTO 00000G10KT 10SM CLR 37/M01 A3007 RMK AO2,M
RTS,2022-07-29 21:15,-119.8764,39.6682,1539.00,96.80,26.60,8.24,180.00,8.00,0.00,30.12,M,10.00,14.00,CLR,M,M,M,M,M,M,M,M,M,M,M,M,M,M,90.57,KRTS 292115Z AUTO 18008G14KT 10SM CLR 36/M03 A3012 RMK AO2,M
TMT,2022-07-29 21:15,-117.1971,39.4643,1749.34,M,M,M,20.00,10.00,0.00,30.15,M,10.00,15.00,CLR,M,M,M,M,M,M,M,M,M,M,M,M,M,M,M,KTMT 292115Z AUTO 02010G15KT 10SM CLR A3015 RMK AO2,M
BVU,2022-07-29 21:15,-114.8611,35.9475,671.00,M,M,M,M,M,0.00,M,M,M,M,M,M,M,M,M,M,M,M,M,M,M,M,M,M,M,M,KBVU 292115Z AUTO RMK AO2 PNO PWINO TSNO,M
HTH,2022-07-29 21:15,-118.6315,38.5448,1282.89,100.40,30.20,8.56,310.00,14.00,0.00,30.01,M,10.00,M,CLR,M,M,M,M,M,M,M,M,M,M,M,M,M,M,93.98,KHTH 292115Z AUTO 31014KT 10SM CLR 38/M01 A3001 RMK A01,M
BAM,2022-07-29 21:15,-116.8743,40.5990,1382.36,100.40,33.80,9.90,10.00,11.00,0.00,30.06,M,10.00,23.00,CLR,M,M,M,M,M,M,M,M,M,M,M,M,M,M,94.47,KBAM 292115Z AUTO 01011G23KT 320V050 10SM CLR 38/01 A3006 RMK AO1,M
BVU,2022-07-29 21:35,-114.8611,35.9475,671.00,M,M,M,M,M,0.00,M,M,M,M,M,M,M,M,M,M,M,M,M,M,M,M,M,M,M,M,KBVU 292135Z AUTO RMK AO2 PNO PWINO TSNO,M
CXP,2022-07-29 21:35,-119.7326,39.1923,1431.00,96.80,32.00,10.27,M,4.00,0.00,30.08,M,10.00,11.00,CLR,M,M,M,M,M,M,M,M,M,M,M,M,M,M,91.19,KCXP 292135Z AUTO VRB04G11KT 10SM CLR 36/M00 A3008 RMK AO2,M
TMT,2022-07-29 21:35,-117.1971,39.4643,1749.34,M,M,M,20.00,9.00,0.00,30.15,M,10.00,15.00,CLR,M,M,M,M,M,M,M,M,M,M,M,M,M,M,M,KTMT 292135Z AUTO 02009G15KT 10SM CLR A3015 RMK AO2,M
RTS,2022-07-29 21:35,-119.8764,39.6682,1539.00,95.00,26.60,8.71,120.00,9.00,0.00,30.12,M,10.00,M,CLR,M,M,M,M,M,M,M,M,M,M,M,M,M,M,89.08,KRTS 292135Z AUTO 12009KT 10SM CLR 35/M03 A3012 RMK AO2,M
MEV,2022-07-29 21:35,-119.7500,38.9963,1441.42,96.80,30.20,9.55,30.00,13.00,0.00,30.06,M,9.00,22.00,M,M,M,M,M,M,M,M,M,M,M,M,M,M,M,90.96,KMEV 292135Z AUTO 03013G22KT 360V060 9SM 36/M01 A3006 RMK AO2,M
BAM,2022-07-29 21:35,-116.8743,40.5990,1382.36,100.40,33.80,9.90,50.00,8.00,0.00,30.06,M,10.00,16.00,CLR,M,M,M,M,M,M,M,M,M,M,M,M,M,M,94.47,KBAM 292135Z AUTO 05008G16KT 10SM CLR 38/01 A3006 RMK AO1,M
HTH,2022-07-29 21:35,-118.6315,38.5448,1282.89,100.40,28.40,7.95,340.00,16.00,0.00,30.01,M,10.00,M,CLR,M,M,M,M,M,M,M,M,M,M,M,M,M,M,93.77,KHTH 292135Z AUTO 34016KT 10SM CLR 38/M02 A3001 RMK A01,M
VGT,2022-07-29 21:53,-115.1933,36.2111,667.00,95.00,63.00,34.87,130.00,6.00,0.00,29.88,1010.90,10.00,M,CLR,M,M,M,M,M,M,M,M,M,M,M,M,M,M,96.44,KVGT 292153Z 13006KT 10SM CLR 35/17 A2988 RMK AO2 SLP109 T03500172,M
LOL,2022-07-29 21:53,-118.5701,40.0684,1192.43,102.00,28.00,7.46,280.00,4.00,0.00,29.98,1010.30,10.00,M,CLR,M,M,M,M,M,M,M,M,M,M,M,M,M,M,95.07,KLOL 292153Z AUTO 28004KT 10SM CLR 39/M02 A2998 RMK AO2 SLP103 T03891022,M
ELY,2022-07-29 21:53,-114.8453,39.2950,1909.00,74.00,53.00,48.18,260.00,9.00,0.01,30.21,1013.00,7.00,15.00,OVC,M,M,M,10000.00,M,M,M,-RA,M,M,M,29.00,210.00,2022-07-29 21:33,73.90,KELY 292153Z AUTO 26009G15KT 7SM -RA OVC100 23/12 A3021 RMK AO2 PK WND 21029/2133 RAB31 SLP130 P0001 T02330117,M
P68,2022-07-29 21:53,-116.0056,39.6014,1993.00,94.00,30.00,10.36,M,6.00,0.00,30.12,1009.90,M,22.00,M,M,M,M,M,M,M,M,M,M,M,M,M,M,M,88.60,KP68 292153Z AUTO VRB06G22KT 34/M01 A3012 RMK AO1 SLP099 T03441011,M
DRA,2022-07-29 21:53,-116.0278,36.6206,1009.00,98.00,52.00,21.34,260.00,8.00,0.00,29.92,1007.50,10.00,M,CLR,M,M,M,M,M,M,M,M,M,M,M,M,M,M,95.53,KDRA 292153Z AUTO 26008KT 10SM CLR 37/11 A2992 RMK AO2 SLP075 T03670111,M
MEV,2022-07-29 21:55,-119.7500,38.9963,1441.42,95.00,28.40,9.38,70.00,7.00,0.00,30.06,M,10.00,M,CLR,M,M,M,M,M,M,M,M,M,M,M,M,M,M,89.27,KMEV 292155Z AUTO 07007KT 10SM CLR 35/M02 A3006 RMK AO2,M
RNO,2022-07-29 21:55,-119.7711,39.4839,1341.00,101.00,36.00,10.64,M,3.00,0.00,30.04,1009.70,10.00,M,SCT,SCT,M,M,10000.00,17000.00,M,M,M,M,M,M,M,M,M,95.25,KRNO 292155Z VRB03KT 10SM SCT100 SCT170 38/02 A3004 RMK AO2 SLP097 TCU DSNT N THRU E T03830022,M
HTH,2022-07-29 21:55,-118.6315,38.5448,1282.89,100.40,28.40,7.95,300.00,13.00,0.00,30.00,M,10.00,20.00,CLR,M,M,M,M,M,M,M,M,M,M,M,M,M,M,93.77,KHTH 292155Z AUTO 30013G20KT 10SM CLR 38/M02 A3000 RMK A01,M
CXP,2022-07-29 21:55,-119.7326,39.1923,1431.00,96.80,30.20,9.55,0.00,0.00,0.00,30.08,M,10.00,M,CLR,M,M,M,M,M,M,M,M,M,M,M,M,M,M,90.96,KCXP 292155Z AUTO 00000KT 10SM CLR 36/M01 A3008 RMK AO2,M
BVU,2022-07-29 21:55,-114.8611,35.9475,671.00,M,M,M,M,M,0.00,M,M,M,M,M,M,M,M,M,M,M,M,M,M,M,M,M,M,M,M,KBVU 292155Z AUTO RMK AO2 PNO PWINO TSNO,M
RTS,2022-07-29 21:55,-119.8764,39.6682,1539.00,96.80,19.40,6.09,110.00,4.00,0.00,30.11,M,10.00,13.00,CLR,M,M,M,M,M,M,M,M,M,M,M,M,M,M,89.99,KRTS 292155Z AUTO 11004G13KT 10SM CLR 36/M07 A3011 RMK AO2,M
BAM,2022-07-29 21:55,-116.8743,40.5990,1382.36,100.40,35.60,10.63,90.00,8.00,0.00,30.05,M,10.00,M,CLR,M,M,M,M,M,M,M,M,M,M,M,M,M,M,94.76,KBAM 292155Z AUTO 09008KT 030V110 10SM CLR 38/02 A3005 RMK AO1,M
LAS,2022-07-29 21:56,-115.1634,36.0719,663.00,96.00,64.00,34.92,80.00,6.00,0.00,29.89,1009.30,10.00,M,FEW,FEW,SCT,M,12000.00,18000.00,22000.00,M,M,M,M,M,M,M,M,98.29,KLAS 292156Z 08006KT 10SM FEW120 FEW180 SCT220 36/18 A2989 RMK AO2 SLP093 CB DSNT E AND NW-N T03560178,M
TPH,2022-07-29 21:56,-117.0904,38.0505,1654.00,88.00,41.00,19.28,90.00,15.00,T,30.10,1010.10,10.00,M,CLR,M,M,M,M,M,M,M,M,M,M,M,30.00,80.00,2022-07-29 21:07,84.46,KTPH 292156Z AUTO 09015KT 10SM CLR 31/05 A3010 RMK AO2 PK WND 08030/2107 WSHFT 2051 RAE04 SLP101 P0000 T03110050,M
EKO,2022-07-29 21:56,-115.7860,40.8242,1367.00,90.00,41.00,18.10,10.00,3.00,T,30.10,1013.00,10.00,M,CLR,M,M,M,M,M,M,M,M,M,M,M,M,M,M,86.16,KEKO 292156Z AUTO 01003KT 10SM CLR 32/05 A3010 RMK AO2 RAB05E22 SLP130 P0000 T03220050,M
WMC,2022-07-29 21:56,-117.8072,40.9019,1315.00,101.00,32.00,9.07,0.00,0.00,0.00,30.03,1010.20,10.00,M,CLR,M,M,M,M,M,M,M,M,M,M,M,M,M,M,94.63,KWMC 292156Z AUTO 00000KT 10SM CLR 38/00 A3003 RMK AO2 SLP102 T03830000,M
HND,2022-07-29 21:56,-115.1344,35.9729,742.79,96.00,63.00,33.71,M,4.00,0.00,29.92,1011.50,10.00,M,CLR,M,M,M,M,M,M,M,M,M,M,M,M,M,M,97.70,KHND 292156Z VRB04KT 10SM CLR 36/17 A2992 RMK AO2 SLP115 T03560172,M
NFL,2022-07-29 21:56,-118.7010,39.4166,1199.00,105.00,30.00,7.38,360.00,12.00,0.00,29.97,1012.20,10.00,18.00,SCT,SCT,M,M,10000.00,14000.00,M,M,M,M,M,M,M,M,M,97.94,KNFL 292156Z 36012G18KT 10SM SCT100 SCT140 41/M01 A2997 RMK AO2 SLP122 VIRGA DSNT NW TCU DSNT NE T04061011,M
LSV,2022-07-29 21:58,-115.0343,36.2362,570.00,100.00,63.00,29.94,230.00,5.00,0.00,29.86,1008.50,10.00,M,FEW,M,M,M,10000.00,M,M,M,M,M,M,M,M,M,M,102.27,KLSV 292158Z 23005KT 10SM FEW100 38/17 A2986 RMK AO2A SLP085 T03780172 $,M
CXP,2022-07-29 22:15,-119.7326,39.1923,1431.00,98.60,30.20,9.04,40.00,5.00,0.00,30.07,M,10.00,M,CLR,M,M,M,M,M,M,M,M,M,M,M,M,M,M,92.46,KCXP 292215Z AUTO 04005KT 10SM CLR 37/M01 A3007 RMK AO2,M
BVU,2022-07-29 22:15,-114.8611,35.9475,671.00,M,M,M,M,M,0.00,M,M,M,M,M,M,M,M,M,M,M,M,M,M,M,M,M,M,M,M,KBVU 292215Z AUTO RMK AO2 PNO PWINO TSNO,M
RTS,2022-07-29 22:15,-119.8764,39.6682,1539.00,95.00,19.40,6.43,0.00,0.00,0.00,30.10,M,10.00,14.00,CLR,M,M,M,M,M,M,M,M,M,M,M,M,M,M,88.50,KRTS 292215Z AUTO 00000G14KT 10SM CLR 35/M07 A3010 RMK AO2,M
MEV,2022-07-29 22:15,-119.7500,38.9963,1441.42,96.80,28.40,8.87,20.00,8.00,0.00,30.05,M,10.00,M,CLR,M,M,M,M,M,M,M,M,M,M,M,M,M,M,90.75,KMEV 292215Z AUTO 02008KT 10SM CLR 36/M02 A3005 RMK AO2,M
BAM,2022-07-29 22:15,-116.8743,40.5990,1382.36,96.80,33.80,11.04,290.00,4.00,0.00,30.04,M,10.00,25.00,CLR,M,M,M,M,M,M,M,M,M,M,M,M,M,M,91.44,KBAM 292215Z AUTO 29004G25KT 10SM CLR 36/01 A3004 RMK AO1,M
TMT,2022-07-29 22:15,-117.1971,39.4643,1749.34,M,M,M,330.00,9.00,0.00,30.14,M,10.00,19.00,BKN,M,M,M,12000.00,M,M,M,M,M,M,M,M,M,M,M,KTMT 292215Z AUTO 33009G19KT 10SM BKN120 A3014 RMK AO2,M
HTH,2022-07-29 22:15,-118.6315,38.5448,1282.89,100.40,26.60,7.39,330.00,14.00,0.00,29.99,M,10.00,19.00,CLR,M,M,M,M,M,M,M,M,M,M,M,M,M,M,93.57,KHTH 292215Z AUTO 33014G19KT 10SM CLR 38/M03 A2999 RMK A01,M
BVU,2022-07-29 22:35,-114.8611,35.9475,671.00,M,M,M,M,M,0.00,M,M,M,M,M,M,M,M,M,M,M,M,M,M,M,M,M,M,M,M,KBVU 292235Z AUTO RMK AO2 PNO PWINO TSNO,M
TMT,2022-07-29 22:35,-117.1971,39.4643,1749.34,M,M,M,340.00,12.00,0.00,30.13,M,10.00,17.00,SCT,M,M,M,12000.00,M,M,M,M,M,M,M,M,M,M,M,KTMT 292235Z AUTO 34012G17KT 10SM SCT120 A3013 RMK AO2,M
MEV,2022-07-29 22:35,-119.7500,38.9963,1441.42,98.60,30.20,9.04,80.00,7.00,0.00,30.04,M,10.00,13.00,CLR,M,M,M,M,M,M,M,M,M,M,M,M,M,M,92.46,KMEV 292235Z AUTO 08007G13KT 10SM CLR 37/M01 A3004 RMK AO2,M
RTS,2022-07-29 22:35,-119.8764,39.6682,1539.00,96.80,23.00,7.09,40.00,12.00,0.00,30.10,M,10.00,18.00,CLR,M,M,M,M,M,M,M,M,M,M,M,M,M,M,90.25,KRTS 292235Z AUTO 04012G18KT 10SM CLR 36/M05 A3010 RMK AO2,M
NFL,2022-07-29 22:35,-118.7010,39.4166,1199.00,104.00,30.00,7.62,320.00,13.00,0.00,29.96,M,10.00,22.00,SCT,SCT,M,M,10000.00,15000.00,M,M,M,M,M,M,M,M,M,97.00,KNFL 292235Z 32013G22KT 10SM SCT100 SCT150 40/M01 A2996 RMK AO2 WSHFT 2215 TCU DSNT NE T04001011,M
CXP,2022-07-29 22:35,-119.7326,39.1923,1431.00,100.40,30.20,8.56,M,4.00,0.00,30.06,M,10.00,M,CLR,M,M,M,M,M,M,M,M,M,M,M,M,M,M,93.98,KCXP 292235Z AUTO VRB04KT 10SM CLR 38/M01 A3006 RMK AO2,M
HTH,2022-07-29 22:35,-118.6315,38.5448,1282.89,100.40,26.60,7.39,310.00,15.00,0.00,29.98,M,10.00,20.00,CLR,M,M,M,M,M,M,M,M,M,M,M,M,M,M,93.57,KHTH 292235Z AUTO 31015G20KT 10SM CLR 38/M03 A2998 RMK A01,M
BAM,2022-07-29 22:35,-116.8743,40.5990,1382.36,98.60,35.60,11.23,50.00,7.00,0.00,30.04,M,10.00,M,CLR,M,M,M,M,M,M,M,M,M,M,M,M,M,M,93.23,KBAM 292235Z AUTO 05007KT 10SM CLR 37/02 A3004 RMK AO1,M
ELY,2022-07-29 22:53,-114.8453,39.2950,1909.00,74.00,51.00,44.76,150.00,17.00,0.01,30.18,1012.70,10.00,25.00,CLR,M,M,M,M,M,M,M,M,M,M,M,29.00,140.00,2022-07-29 22:26,73.90,KELY 292253Z AUTO 15017G25KT 10SM CLR 23/11 A3018 RMK AO2 PK WND 14029/2226 RAE18 SLP127 P0001 T02330106,M
LOL,2022-07-29 22:53,-118.5701,40.0684,1192.43,105.00,30.90,7.65,40.00,11.00,0.00,29.96,1008.90,10.00,19.00,CLR,M,M,M,M,M,M,M,M,M,M,M,M,M,M,98.06,KLOL 292253Z AUTO 04011G19KT 10SM CLR 41/M01 A2996 RMK AO2 SLP089 T04061006,M
VGT,2022-07-29 22:53,-115.1933,36.2111,667.00,96.00,64.00,34.92,M,3.00,0.00,29.85,1009.80,10.00,M,CLR,M,M,M,M,M,M,M,M,M,M,M,M,M,M,98.29,KVGT 292253Z VRB03KT 10SM CLR 36/18 A2985 RMK AO2 SLP098 T03560178,M
P68,2022-07-29 22:53,-116.0056,39.6014,1993.00,93.00,37.00,14.09,10.00,16.00,0.00,30.12,1010.10,M,27.00,M,M,M,M,M,M,M,M,M,M,M,M,29.00,10.00,2022-07-29 22:33,88.63,KP68 292253Z AUTO 01016G27KT 34/03 A3012 RMK AO1 PK WND 01029/2233 SLP101 T03390028,M
DRA,2022-07-29 22:53,-116.0278,36.6206,1009.00,100.00,51.00,19.49,240.00,8.00,0.00,29.91,1007.00,10.00,M,CLR,M,M,M,M,M,M,M,M,M,M,M,M,M,M,97.28,KDRA 292253Z AUTO 24008KT 10SM CLR 38/11 A2991 RMK AO2 SLP070 T03780106,M
HTH,2022-07-29 22:55,-118.6315,38.5448,1282.89,102.20,26.60,7.00,330.00,13.00,0.00,29.98,M,10.00,M,CLR,M,M,M,M,M,M,M,M,M,M,M,M,M,M,95.09,KHTH 292255Z AUTO 33013KT 10SM CLR 39/M03 A2998 RMK A01,M
CXP,2022-07-29 22:55,-119.7326,39.1923,1431.00,98.60,28.40,8.40,350.00,6.00,0.00,30.05,M,10.00,M,CLR,M,M,M,M,M,M,M,M,M,M,M,M,M,M,92.25,KCXP 292255Z AUTO 35006KT 10SM CLR 37/M02 A3005 RMK AO2,M
BVU,2022-07-29 22:55,-114.8611,35.9475,671.00,M,M,M,M,M,0.00,M,M,M,M,M,M,M,M,M,M,M,M,M,M,M,M,M,M,M,M,KBVU 292255Z AUTO RMK AO2 PNO PWINO TSNO,M
TMT,2022-07-29 22:55,-117.1971,39.4643,1749.34,M,M,M,350.00,10.00,0.00,30.12,M,10.00,15.00,CLR,M,M,M,M,M,M,M,M,M,M,M,M,M,M,M,KTMT 292255Z AUTO 35010G15KT 10SM CLR A3012 RMK AO2,M
BAM,2022-07-29 22:55,-116.8743,40.5990,1382.36,98.60,33.80,10.45,60.00,12.00,0.00,30.03,M,10.00,M,CLR,M,M,M,M,M,M,M,M,M,M,M,M,M,M,92.94,KBAM 292255Z AUTO 06012KT 10SM CLR 37/01 A3003 RMK AO1,M
MEV,2022-07-29 22:55,-119.7500,38.9963,1441.42,96.80,26.60,8.24,0.00,0.00,0.00,30.04,M,10.00,M,CLR,M,M,M,M,M,M,M,M,M,M,M,M,M,M,90.57,KMEV 292255Z AUTO 00000KT 10SM CLR 36/M03 A3004 RMK AO2,M
RTS,2022-07-29 22:55,-119.8764,39.6682,1539.00,96.80,21.20,6.57,M,3.00,0.00,30.09,M,10.00,13.00,CLR,M,M,M,M,M,M,M,M,M,M,M,M,M,M,90.11,KRTS 292255Z AUTO VRB03G13KT 10SM CLR 36/M06 A3009 RMK AO2,M
RNO,2022-07-29 22:55,-119.7711,39.4839,1341.00,102.00,37.00,10.71,60.00,11.00,0.00,30.02,1009.20,10.00,M,SCT,BKN,M,M,15000.00,20000.00,M,M,M,M,M,M,M,M,M,96.38,KRNO 292255Z 06011KT 10SM SCT150 BKN200 39/03 A3002 RMK AO2 SLP092 TCU DSNT N THRU NE T03890028,M
WMC,2022-07-29 22:56,-117.8072,40.9019,1315.00,102.00,30.00,8.09,M,6.00,0.00,30.01,1009.80,10.00,M,CLR,M,M,M,M,M,M,M,M,M,M,M,M,M,M,95.31,KWMC 292256Z AUTO VRB06KT 10SM CLR 39/M01 A3001 RMK AO2 SLP098 T03891011,M
TPH,2022-07-29 22:56,-117.0904,38.0505,1654.00,90.00,40.00,17.34,100.00,11.00,0.00,30.08,1009.30,10.00,M,CLR,M,M,M,M,M,M,M,M,M,M,M,M,M,M,86.11,KTPH 292256Z AUTO 10011KT 10SM CLR 32/04 A3008 RMK AO2 SLP093 T03220044,M
EKO,2022-07-29 22:56,-115.7860,40.8242,1367.00,92.00,40.00,16.34,0.00,0.00,0.01,30.08,1012.10,10.00,M,CLR,M,M,M,M,M,M,M,M,M,M,M,M,M,M,87.78,KEKO 292256Z AUTO 00000KT 10SM CLR 33/04 A3008 RMK AO2 SLP121 P0001 T03330044,M
HND,2022-07-29 22:56,-115.1344,35.9729,742.79,98.00,61.00,29.55,160.00,4.00,0.00,29.90,1011.00,10.00,M,CLR,M,M,M,M,M,M,M,M,M,M,M,M,M,M,98.92,KHND 292256Z 16004KT 10SM CLR 37/16 A2990 RMK AO2 SLP110 T03670161,M
LAS,2022-07-29 22:56,-115.1634,36.0719,663.00,96.00,63.00,33.71,70.00,5.00,0.00,29.87,1008.50,10.00,M,FEW,FEW,SCT,M,12000.00,18000.00,22000.00,M,M,M,M,M,M,M,M,97.70,KLAS 292256Z 07005KT 10SM FEW120 FEW180 SCT220 36/17 A2987 RMK AO2 SLP085 ACC N AND E CB DSNT NW-NE-SE T03560172,M
NFL,2022-07-29 22:56,-118.7010,39.4166,1199.00,105.00,30.00,7.38,350.00,10.00,0.00,29.95,1011.50,10.00,20.00,SCT,SCT,M,M,10000.00,15000.00,M,M,M,M,M,M,M,M,M,97.94,KNFL 292256Z 35010G20KT 10SM SCT100 SCT150 41/M01 A2995 RMK AO2 WSHFT 2215 SLP115 TCU DSNT NE T04061011,M
INS,2022-07-29 22:58,-115.6733,36.5872,955.00,96.40,53.60,23.84,80.00,14.00,0.00,29.91,1007.50,10.00,M,CLR,M,M,M,M,M,M,M,M,M,M,M,M,M,M,94.17,KINS 292258Z AUTO 08014KT 10SM CLR 36/12 A2991 RMK AO2 SLP075 T03580120,M
LSV,2022-07-29 22:58,-115.0343,36.2362,570.00,100.80,61.50,27.72,90.00,6.00,0.00,29.83,1007.50,10.00,M,FEW,M,M,M,12000.00,M,M,M,M,M,M,M,M,M,M,102.33,KLSV 292258Z 09006KT 10SM FEW120 38/16 A2983 RMK AO2A SLP075 T03820164 $,M
INS,2022-07-29 23:11,-115.6733,36.5872,955.00,96.80,53.60,23.55,100.00,11.00,0.00,29.91,1007.50,10.00,16.00,CLR,M,M,M,M,M,M,M,M,M,M,M,M,M,M,94.59,KINS 292311Z AUTO 10011G16KT 10SM CLR 36/12 A2991 RMK AO2 WSHFT 04 SLP075,M
BAM,2022-07-29 23:15,-116.8743,40.5990,1382.36,100.40,33.80,9.90,40.00,9.00,0.00,30.03,M,10.00,M,CLR,M,M,M,M,M,M,M,M,M,M,M,M,M,M,94.47,KBAM 292315Z AUTO 04009KT 10SM CLR 38/01 A3003 RMK AO1,M
MEV,2022-07-29 23:15,-119.7500,38.9963,1441.42,95.00,28.40,9.38,0.00,0.00,0.00,30.03,M,10.00,M,CLR,M,M,M,M,M,M,M,M,M,M,M,M,M,M,89.27,KMEV 292315Z AUTO 00000KT 10SM CLR 35/M02 A3003 RMK AO2,M
RTS,2022-07-29 23:15,-119.8764,39.6682,1539.00,96.80,26.60,8.24,10.00,10.00,0.00,30.09,M,10.00,15.00,CLR,M,M,M,M,M,M,M,M,M,M,M,M,M,M,90.57,KRTS 292315Z AUTO 01010G15KT 10SM CLR 36/M03 A3009 RMK AO2,M
BVU,2022-07-29 23:15,-114.8611,35.9475,671.00,M,M,M,M,M,0.00,M,M,M,M,M,M,M,M,M,M,M,M,M,M,M,M,M,M,M,M,KBVU 292315Z AUTO RMK AO2 PNO PWINO TSNO,M
CXP,2022-07-29 23:15,-119.7326,39.1923,1431.00,98.60,28.40,8.40,60.00,6.00,0.00,30.05,M,10.00,M,CLR,M,M,M,M,M,M,M,M,M,M,M,M,M,M,92.25,KCXP 292315Z AUTO 06006KT 10SM CLR 37/M02 A3005 RMK AO2,M
HTH,2022-07-29 23:15,-118.6315,38.5448,1282.89,100.40,26.60,7.39,310.00,14.00,0.00,29.97,M,10.00,M,CLR,M,M,M,M,M,M,M,M,M,M,M,M,M,M,93.57,KHTH 292315Z AUTO 31014KT 10SM CLR 38/M03 A2997 RMK A01,M
TMT,2022-07-29 23:15,-117.1971,39.4643,1749.34,M,M,M,330.00,11.00,0.00,30.12,M,10.00,M,CLR,M,M,M,M,M,M,M,M,M,M,M,M,M,M,M,KTMT 292315Z AUTO 33011KT 10SM CLR A3012 RMK AO2,M
BAM,2022-07-29 23:35,-116.8743,40.5990,1382.36,98.60,33.80,10.45,270.00,3.00,0.00,30.02,M,10.00,M,CLR,M,M,M,M,M,M,M,M,M,M,M,M,M,M,92.94,KBAM 292335Z AUTO 27003KT 10SM CLR 37/01 A3002 RMK AO1,M
MEV,2022-07-29 23:35,-119.7500,38.9963,1441.42,98.60,30.20,9.04,330.00,15.00,0.00,30.03,M,10.00,M,CLR,M,M,M,M,M,M,M,M,M,M,M,M,M,M,92.46,KMEV 292335Z AUTO 33015KT 10SM CLR 37/M01 A3003 RMK AO2,M
RTS,2022-07-29 23:35,-119.8764,39.6682,1539.00,95.00,26.60,8.71,60.00,9.00,0.00,30.09,M,10.00,14.00,CLR,M,M,M,M,M,M,M,M,M,M,M,M,M,M,89.08,KRTS 292335Z AUTO 06009G14KT 10SM CLR 35/M03 A3009 RMK AO2,M
CXP,2022-07-29 23:35,-119.7326,39.1923,1431.00,98.60,30.20,9.04,20.00,9.00,0.00,30.05,M,10.00,M,CLR,M,M,M,M,M,M,M,M,M,M,M,M,M,M,92.46,KCXP 292335Z AUTO 02009KT 10SM CLR 37/M01 A3005 RMK AO2,M
BVU,2022-07-29 23:35,-114.8611,35.9475,671.00,M,M,M,M,M,0.00,M,M,M,M,M,M,M,M,M,M,M,M,M,M,M,M,M,M,M,M,KBVU 292335Z AUTO RMK AO2 PNO PWINO TSNO,M
TMT,2022-07-29 23:35,-117.1971,39.4643,1749.34,M,M,M,340.00,11.00,0.00,30.12,M,10.00,16.00,CLR,M,M,M,M,M,M,M,M,M,M,M,M,M,M,M,KTMT 292335Z AUTO 34011G16KT 10SM CLR A3012 RMK AO2,M
HTH,2022-07-29 23:35,-118.6315,38.5448,1282.89,102.20,26.60,7.00,320.00,16.00,0.00,29.96,M,10.00,M,CLR,M,M,M,M,M,M,M,M,M,M,M,M,M,M,95.09,KHTH 292335Z AUTO 32016KT 10SM CLR 39/M03 A2996 RMK A01,M
ELY,2022-07-29 23:53,-114.8453,39.2950,1909.00,84.00,42.00,22.85,160.00,6.00,0.00,30.17,1011.20,10.00,M,CLR,M,M,M,M,M,M,M,M,M,M,M,M,M,M,81.43,KELY 292353Z AUTO 16006KT 10SM CLR 29/06 A3017 RMK AO2 SLP112 60002 T02890056 10333 20228 50001,M
DRA,2022-07-29 23:53,-116.0278,36.6206,1009.00,100.00,50.00,18.71,200.00,5.00,0.00,29.90,1006.80,10.00,M,CLR,M,M,M,M,M,M,M,M,M,M,M,M,M,M,97.00,KDRA 292353Z AUTO 20005KT 10SM CLR 38/10 A2990 RMK AO2 SLP068 T03780100 10389 20311 56016,M
VGT,2022-07-29 23:53,-115.1933,36.2111,667.00,98.00,62.00,30.72,150.00,8.00,0.00,29.84,1009.40,10.00,M,CLR,M,M,M,M,M,M,M,M,M,M,M,M,M,M,99.51,KVGT 292353Z 15008KT 10SM CLR 37/17 A2984 RMK AO2 LTG DSNT W SLP094 6//// T03670167 10367 20300 56023,M
LOL,2022-07-29 23:53,-118.5701,40.0684,1192.43,102.00,30.90,8.39,50.00,11.00,0.00,29.94,1008.40,10.00,M,CLR,M,M,M,M,M,M,M,M,M,M,M,M,M,M,95.42,KLOL 292353Z AUTO 05011KT 10SM CLR 39/M01 A2994 RMK AO2 SLP084 T03891006 10406 20367 58016,M
P68,2022-07-29 23:53,-116.0056,39.6014,1993.00,92.00,35.00,13.53,360.00,13.00,0.00,30.12,1010.70,M,22.00,M,M,M,M,M,M,M,M,M,M,M,M,34.00,360.00,2022-07-29 22:57,87.60,KP68 292353Z AUTO 36013G22KT 33/02 A3012 RMK AO1 PK WND 36034/2257 SLP107 T03330017 10350 20306 55005,M
RNO,2022-07-29 23:55,-119.7711,39.4839,1341.00,98.00,36.00,11.58,M,3.00,0.00,30.01,1009.30,10.00,M,SCT,SCT,M,M,17000.00,20000.00,M,M,M,M,M,M,M,M,M,92.87,KRNO 292355Z VRB03KT 10SM SCT170 SCT200 37/02 A3001 RMK AO2 SLP093 TCU DSNT NW THRU NE T03670022 10400 20333 56015,M
RTS,2022-07-29 23:55,-119.8764,39.6682,1539.00,95.00,26.60,8.71,20.00,11.00,0.00,30.08,M,10.00,M,CLR,M,M,M,M,M,M,M,M,M,M,M,M,M,M,89.08,KRTS 292355Z AUTO 02011KT 10SM CLR 35/M03 A3008 RMK AO2,M
MEV,2022-07-29 23:55,-119.7500,38.9963,1441.42,100.40,28.40,7.95,360.00,12.00,0.00,30.02,M,10.00,18.00,CLR,M,M,M,M,M,M,M,M,M,M,M,M,M,M,93.77,KMEV 292355Z AUTO 36012G18KT 10SM CLR 38/M02 A3002 RMK AO2,M
BAM,2022-07-29 23:55,-116.8743,40.5990,1382.36,98.60,32.00,9.72,40.00,3.00,0.00,30.01,M,10.00,M,CLR,M,M,M,M,M,M,M,M,M,M,M,M,M,M,92.69,KBAM 292355Z AUTO 04003KT 10SM CLR 37/00 A3001 RMK AO1,M
HTH,2022-07-29 23:55,-118.6315,38.5448,1282.89,100.40,24.80,6.85,320.00,16.00,0.00,29.96,M,10.00,M,CLR,M,M,M,M,M,M,M,M,M,M,M,M,M,M,93.40,KHTH 292355Z AUTO 32016KT 10SM CLR 38/M04 A2996 RMK A01,M
TMT,2022-07-29 23:55,-117.1971,39.4643,1749.34,M,M,M,360.00,9.00,0.00,30.12,M,10.00,14.00,CLR,M,M,M,M,M,M,M,M,M,M,M,M,M,M,M,KTMT 292355Z AUTO 36009G14KT 10SM CLR A3012 RMK AO2,M
CXP,2022-07-29 23:55,-119.7326,39.1923,1431.00,100.40,30.20,8.56,50.00,8.00,0.00,30.05,M,10.00,16.00,CLR,M,M,M,M,M,M,M,M,M,M,M,M,M,M,93.98,KCXP 292355Z AUTO 05008G16KT 10SM CLR 38/M01 A3005 RMK AO2,M
BVU,2022-07-29 23:55,-114.8611,35.9475,671.00,M,M,M,M,M,0.00,M,M,M,M,M,M,M,M,M,M,M,M,M,M,M,M,M,M,M,M,KBVU 292355Z AUTO RMK AO2 PNO PWINO TSNO,M
WMC,2022-07-29 23:56,-117.8072,40.9019,1315.00,102.00,30.00,8.09,340.00,14.00,0.00,30.00,1009.60,10.00,21.00,CLR,M,M,M,M,M,M,M,M,M,M,M,M,M,M,95.31,KWMC 292356Z AUTO 34014G21KT 10SM CLR 39/M01 A3000 RMK AO2 SLP096 T03891011 10400 20350 56016,M
TPH,2022-07-29 23:56,-117.0904,38.0505,1654.00,93.00,35.00,13.07,0.00,0.00,0.00,30.06,1008.60,10.00,M,CLR,M,M,M,M,M,M,M,M,M,M,M,M,M,M,88.56,KTPH 292356Z AUTO 00000KT 10SM CLR 34/02 A3006 RMK AO2 SLP086 60005 T03390017 10356 20278 56017,M
EKO,2022-07-29 23:56,-115.7860,40.8242,1367.00,94.00,37.00,13.71,120.00,6.00,0.00,30.05,1011.00,10.00,M,CLR,M,M,M,M,M,M,M,M,M,M,M,M,M,M,89.44,KEKO 292356Z AUTO 12006KT 10SM CLR 34/03 A3005 RMK AO2 SLP110 60008 T03440028 10356 20239 58021,M
HND,2022-07-29 23:56,-115.1344,35.9729,742.79,98.00,61.00,29.55,M,4.00,0.00,29.89,1010.60,10.00,M,CLR,M,M,M,M,M,M,M,M,M,M,M,M,M,M,98.92,KHND 292356Z VRB04KT 10SM CLR 37/16 A2989 RMK AO2 SLP106 T03670161 10372 20300 56019,M
LAS,2022-07-29 23:56,-115.1634,36.0719,663.00,96.00,62.00,32.66,0.00,0.00,0.00,29.85,1008.00,10.00,M,FEW,FEW,SCT,M,12000.00,18000.00,22000.00,M,M,M,M,M,M,M,M,97.20,KLAS 292356Z 00000KT 10SM FEW120 FEW180 SCT220 36/17 A2985 RMK AO2 SLP080 ACC N AND E CB DSNT NW-NE-SE AND W T03560167 10372 20300 56023,M
NFL,2022-07-29 23:56,-118.7010,39.4166,1199.00,104.00,28.90,7.29,350.00,10.00,0.00,29.94,1011.10,10.00,16.00,SCT,SCT,M,M,9000.00,15000.00,M,M,M,M,M,M,M,M,M,96.87,KNFL 292356Z 35010G16KT 10SM SCT090 SCT150 40/M02 A2994 RMK AO2 SLP111 T04001017 10406 20344 56017,M
INS,2022-07-29 23:58,-115.6733,36.5872,955.00,96.60,53.80,23.87,90.00,14.00,0.00,29.90,1007.30,10.00,M,CLR,M,M,M,M,M,M,M,M,M,M,M,M,M,M,94.44,KINS 292358Z AUTO 09014KT 10SM CLR 36/12 A2990 RMK AO2 SLP073 T03590121 10362 20314 57015,M
LSV,2022-07-29 23:58,-115.0343,36.2362,570.00,99.50,61.50,28.83,150.00,8.00,0.00,29.82,1007.20,10.00,M,FEW,M,M,M,12000.00,M,M,M,M,M,M,M,M,M,M,100.81,KLSV 292358Z COR 15008KT 10SM FEW120 38/16 A2982 RMK AO2 SLP072 T03750164 10384 20320 57022 $ COR 0010,M
