station,valid,lon,lat,elevation,tmpf,dwpf,relh,drct,sknt,p01i,alti,mslp,vsby,gust,skyc1,skyc2,skyc3,skyc4,skyl1,skyl2,skyl3,skyl4,wxcodes,ice_accretion_1hr,ice_accretion_3hr,ice_accretion_6hr,peak_wind_gust,peak_wind_drct,peak_wind_time,feel,metar,snowdepth
RTS,2022-07-27 00:15,-119.8764,39.6682,1539.00,89.60,30.20,11.94,290.00,9.00,0.00,30.12,M,10.00,15.00,CLR,M,M,M,M,M,M,M,M,M,M,M,M,M,M,85.34,KRTS 270015Z AUTO 29009G15KT 10SM CLR 32/M01 A3012 RMK AO2,M
CXP,2022-07-27 00:15,-119.7326,39.1923,1431.00,91.40,33.80,13.05,0.00,0.00,0.00,30.09,M,10.00,M,CLR,M,M,M,M,M,M,M,M,M,M,M,M,M,M,87.13,KCXP 270015Z AUTO 00000KT 10SM CLR 33/01 A3009 RMK AO2,M
05U,2022-07-27 00:15,-116.0051,39.6042,1811.23,95.00,24.80,8.08,M,5.00,0.00,30.12,M,10.00,M,CLR,M,M,M,M,M,M,M,M,M,M,M,M,M,M,88.91,K05U 270015Z AUTO VRB05KT 10SM CLR 35/M04 A3012 RMK A01,M
BAM,2022-07-27 00:15,-116.8743,40.5990,1382.36,M,M,M,290.00,9.00,0.00,30.01,M,10.00,M,CLR,M,M,M,M,M,M,M,M,M,M,M,M,M,M,M,KBAM 270015Z AUTO 29009KT 10SM CLR A3001 RMK AO1,M
HTH,2022-07-27 00:15,-118.6315,38.5448,1282.89,93.20,41.00,16.37,0.00,0.00,0.00,30.02,M,10.00,M,CLR,M,M,M,M,M,M,M,M,M,M,M,M,M,M,89.03,KHTH 270015Z AUTO 00000KT 10SM CLR 34/05 A3002 RMK A01,M
TMT,2022-07-27 00:15,-117.1971,39.4643,1749.34,M,M,M,300.00,8.00,0.00,30.11,M,10.00,M,CLR,M,M,M,M,M,M,M,M,M,M,M,M,M,M,M,KTMT 270015Z AUTO 30008KT 10SM CLR A3011 RMK AO2,M
BVU,2022-07-27 00:15,-114.8611,35.9475,671.00,M,M,M,M,M,0.00,M,M,M,M,M,M,M,M,M,M,M,M,M,M,M,M,M,M,M,M,KBVU 270015Z AUTO RMK AO2 PNO PWINO TSNO,M
MEV,2022-07-27 00:15,-119.7500,38.9963,1441.42,91.40,35.60,14.02,M,3.00,0.00,30.08,M,10.00,M,CLR,M,M,M,M,M,M,M,M,M,M,M,M,M,M,87.17,KMEV 270015Z AUTO VRB03KT 10SM CLR 33/02 A3008 RMK AO2,M
05U,2022-07-27 00:25,-116.0051,39.6042,1811.23,91.40,26.60,9.74,360.00,9.00,0.00,30.12,M,10.00,M,CLR,M,M,M,M,M,M,M,M,M,M,M,M,M,M,86.36,K05U 270025Z AUTO 36009KT 10SM CLR 33/M03 A3012 RMK A01,M
BVU,2022-07-27 00:35,-114.8611,35.9475,671.00,M,M,M,M,M,0.00,M,M,M,M,M,M,M,M,M,M,M,M,M,M,M,M,M,M,M,M,KBVU 270035Z AUTO RMK AO2 PNO PWINO TSNO,M
CXP,2022-07-27 00:35,-119.7326,39.1923,1431.00,91.40,33.80,13.05,190.00,3.00,0.00,30.09,M,10.00,M,CLR,M,M,M,M,M,M,M,M,M,M,M,M,M,M,87.13,KCXP 270035Z AUTO 19003KT 10SM CLR 33/01 A3009 RMK AO2,M
RTS,2022-07-27 00:35,-119.8764,39.6682,1539.00,87.80,30.20,12.64,300.00,7.00,0.00,30.11,M,10.00,13.00,CLR,M,M,M,M,M,M,M,M,M,M,M,M,M,M,84.01,KRTS 270035Z AUTO 30007G13KT 10SM CLR 31/M01 A3011 RMK AO2,M
TMT,2022-07-27 00:35,-117.1971,39.4643,1749.34,M,M,M,20.00,5.00,0.00,30.11,M,10.00,14.00,CLR,M,M,M,M,M,M,M,M,M,M,M,M,M,M,M,KTMT 270035Z AUTO 02005G14KT 10SM CLR A3011 RMK AO2,M
MEV,2022-07-27 00:35,-119.7500,38.9963,1441.42,91.40,35.60,14.02,180.00,5.00,0.00,30.08,M,10.00,M,CLR,M,M,M,M,M,M,M,M,M,M,M,M,M,M,87.17,KMEV 270035Z AUTO 18005KT 10SM CLR 33/02 A3008 RMK AO2,M
BAM,2022-07-27 00:35,-116.8743,40.5990,1382.36,M,M,M,310.00,7.00,0.00,30.01,M,10.00,M,CLR,M,M,M,M,M,M,M,M,M,M,M,M,M,M,M,KBAM 270035Z AUTO 31007KT 10SM CLR A3001 RMK AO1,M
HTH,2022-07-27 00:35,-118.6315,38.5448,1282.89,93.20,41.00,16.37,M,4.00,0.00,30.02,M,10.00,M,CLR,M,M,M,M,M,M,M,M,M,M,M,M,M,M,89.03,KHTH 270035Z AUTO VRB04KT 10SM CLR 34/05 A3002 RMK A01,M
LOL,2022-07-27 00:53,-118.5701,40.0684,1192.43,98.00,28.90,8.70,80.00,6.00,0.00,29.96,1009.60,10.00,M,CLR,M,M,M,M,M,M,M,M,M,M,M,M,M,M,91.89,KLOL 270053Z AUTO 08006KT 10SM CLR 37/M02 A2996 RMK AO2 SLP096 T03671017,M
DRA,2022-07-27 00:53,-116.0278,36.6206,1009.00,89.00,58.00,34.97,M,3.00,0.00,29.96,1009.50,10.00,M,CLR,M,M,M,M,M,M,M,M,M,M,M,M,M,M,88.01,KDRA 270053Z AUTO VRB03KT 10SM CLR 32/14 A2996 RMK AO2 SLP095 T03170144,M
ELY,2022-07-27 00:53,-114.8453,39.2950,1909.00,84.00,47.00,27.44,200.00,12.00,0.00,30.15,1010.20,10.00,16.00,CLR,M,M,M,M,M,M,M,M,M,M,M,M,M,M,81.77,KELY 270053Z AUTO 20012G16KT 10SM CLR 29/08 A3015 RMK AO2 SLP102 T02890083,M
P68,2022-07-27 00:53,-116.0056,39.6014,1993.00,92.00,25.00,8.97,350.00,11.00,0.00,30.09,1009.50,M,M,M,M,M,M,M,M,M,M,M,M,M,M,M,M,M,86.60,KP68 270053Z AUTO 35011KT 33/M04 A3009 RMK AO1 SLP095 T03331039,M
VGT,2022-07-27 00:53,-115.1933,36.2111,667.00,95.00,61.00,32.50,180.00,8.00,0.00,29.87,1010.50,10.00,M,CLR,M,M,M,M,M,M,M,M,M,M,M,M,M,M,95.40,KVGT 270053Z 18008KT 10SM CLR 35/16 A2987 RMK AO2 SLP105 T03500161,M
MEV,2022-07-27 00:55,-119.7500,38.9963,1441.42,91.40,33.80,13.05,200.00,4.00,0.00,30.07,M,10.00,M,CLR,M,M,M,M,M,M,M,M,M,M,M,M,M,M,87.13,KMEV 270055Z AUTO 20004KT 10SM CLR 33/01 A3007 RMK AO2,M
RNO,2022-07-27 00:55,-119.7711,39.4839,1341.00,94.00,36.00,13.17,250.00,7.00,0.00,30.04,1010.40,10.00,M,SCT,BKN,M,M,11000.00,16000.00,M,M,M,M,M,M,M,M,M,89.40,KRNO 270055Z 25007KT 10SM SCT110 BKN160 34/02 A3004 RMK AO2 SLP104 HZ ALQDS T03440022,M
BVU,2022-07-27 00:55,-114.8611,35.9475,671.00,M,M,M,M,M,0.00,M,M,M,M,M,M,M,M,M,M,M,M,M,M,M,M,M,M,M,M,KBVU 270055Z AUTO RMK AO2 PNO PWINO TSNO,M
CXP,2022-07-27 00:55,-119.7326,39.1923,1431.00,89.60,33.80,13.80,0.00,0.00,0.00,30.09,M,10.00,M,CLR,M,M,M,M,M,M,M,M,M,M,M,M,M,M,85.59,KCXP 270055Z AUTO 00000KT 10SM CLR 32/01 A3009 RMK AO2,M
RTS,2022-07-27 00:55,-119.8764,39.6682,1539.00,87.80,30.20,12.64,300.00,10.00,0.00,30.11,M,10.00,M,CLR,M,M,M,M,M,M,M,M,M,M,M,M,M,M,84.01,KRTS 270055Z AUTO 30010KT 10SM CLR 31/M01 A3011 RMK AO2,M
BAM,2022-07-27 00:55,-116.8743,40.5990,1382.36,M,M,M,300.00,6.00,0.00,30.00,M,10.00,M,CLR,M,M,M,M,M,M,M,M,M,M,M,M,M,M,M,KBAM 270055Z AUTO 30006KT 10SM CLR A3000 RMK AO1,M
HTH,2022-07-27 00:55,-118.6315,38.5448,1282.89,93.20,41.00,16.37,0.00,0.00,0.00,30.02,M,10.00,M,CLR,M,M,M,M,M,M,M,M,M,M,M,M,M,M,89.03,KHTH 270055Z AUTO 00000KT 10SM CLR 34/05 A3002 RMK A01,M
TMT,2022-07-27 00:55,-117.1971,39.4643,1749.34,M,M,M,10.00,9.00,0.00,30.11,M,10.00,18.00,CLR,M,M,M,M,M,M,M,M,M,M,M,M,M,M,M,KTMT 270055Z AUTO 01009G18KT 10SM CLR A3011 RMK AO2,M
EKO,2022-07-27 00:56,-115.7860,40.8242,1367.00,94.00,25.00,8.43,170.00,3.00,0.00,30.01,1009.70,10.00,M,CLR,M,M,M,M,M,M,M,M,M,M,M,M,M,M,88.10,KEKO 270056Z AUTO 17003KT 10SM CLR 34/M04 A3001 RMK AO2 SLP097 T03441039,M
WMC,2022-07-27 00:56,-117.8072,40.9019,1315.00,98.00,23.00,6.82,350.00,6.00,0.00,29.99,1010.20,10.00,M,CLR,M,M,M,M,M,M,M,M,M,M,M,M,M,M,91.33,KWMC 270056Z AUTO 35006KT 10SM CLR 37/M05 A2999 RMK AO2 SLP102 T03671050,M
HND,2022-07-27 00:56,-115.1344,35.9729,742.79,89.00,63.00,41.92,230.00,11.00,0.00,29.93,1012.40,10.00,M,CLR,M,M,M,M,M,M,M,M,M,M,M,M,M,M,89.99,KHND 270056Z 23011KT 10SM CLR 32/17 A2993 RMK AO2 SLP124 T03170172,M
TPH,2022-07-27 00:56,-117.0904,38.0505,1654.00,84.00,46.00,26.52,190.00,3.00,0.00,30.13,1011.90,10.00,M,OVC,M,M,M,11000.00,M,M,M,M,M,M,M,M,M,M,81.69,KTPH 270056Z AUTO 19003KT 10SM OVC110 29/08 A3013 RMK AO2 SLP119 T02890078,M
LAS,2022-07-27 00:56,-115.1634,36.0719,663.00,91.00,63.00,39.49,190.00,9.00,0.00,29.89,1009.40,10.00,17.00,FEW,SCT,BKN,M,8000.00,12000.00,20000.00,M,M,M,M,M,M,M,M,92.00,KLAS 270056Z 19009G17KT 10SM FEW080 SCT120 BKN200 33/17 A2989 RMK AO2 SLP094 CB DSNT N-E-S T03280172,M
NFL,2022-07-27 00:56,-118.7010,39.4166,1199.00,98.00,32.00,9.87,270.00,7.00,0.00,29.97,1012.00,10.00,M,SCT,BKN,BKN,BKN,8000.00,12000.00,16000.00,25000.00,M,M,M,M,M,M,M,92.27,KNFL 270056Z 27007KT 10SM SCT080 BKN120 BKN160 BKN250 37/00 A2997 RMK AO2 SLP120 SH DSNT SE T03670000,M
INS,2022-07-27 00:58,-115.6733,36.5872,955.00,89.40,56.50,32.93,230.00,6.00,0.00,29.95,1009.20,10.00,M,BKN,M,M,M,17000.00,M,M,M,M,M,M,M,M,M,M,87.88,KINS 270058Z AUTO 23006KT 10SM BKN170 32/14 A2995 RMK AO2 SLP092 T03190136 $,M
LSV,2022-07-27 00:58,-115.0343,36.2362,570.00,95.20,62.20,33.70,180.00,12.00,0.00,29.85,1008.30,10.00,M,SCT,BKN,M,M,16000.00,20000.00,M,M,M,M,M,M,M,M,M,96.23,KLSV 270058Z 18012KT 10SM SCT160 BKN200 35/17 A2985 RMK AO2A SLP083 T03510168 $,M
HTH,2022-07-27 01:15,-118.6315,38.5448,1282.89,93.20,41.00,16.37,30.00,5.00,0.00,30.02,M,10.00,M,CLR,M,M,M,M,M,M,M,M,M,M,M,M,M,M,89.03,KHTH 270115Z AUTO 03005KT 10SM CLR 34/05 A3002 RMK A01,M
CXP,2022-07-27 01:15,-119.7326,39.1923,1431.00,89.60,35.60,14.83,0.00,0.00,0.00,30.09,M,10.00,M,CLR,M,M,M,M,M,M,M,M,M,M,M,M,M,M,85.62,KCXP 270115Z AUTO 00000KT 10SM CLR 32/02 A3009 RMK AO2,M
BVU,2022-07-27 01:15,-114.8611,35.9475,671.00,M,M,M,M,M,0.00,M,M,M,M,M,M,M,M,M,M,M,M,M,M,M,M,M,M,M,M,KBVU 270115Z AUTO RMK AO2 PNO PWINO TSNO,M
RTS,2022-07-27 01:15,-119.8764,39.6682,1539.00,87.80,30.20,12.64,290.00,8.00,0.00,30.11,M,10.00,M,CLR,M,M,M,M,M,M,M,M,M,M,M,M,M,M,84.01,KRTS 270115Z AUTO 29008KT 10SM CLR 31/M01 A3011 RMK AO2,M
MEV,2022-07-27 01:15,-119.7500,38.9963,1441.42,89.60,44.60,21.04,180.00,8.00,0.00,30.08,M,10.00,15.00,CLR,M,M,M,M,M,M,M,M,M,M,M,M,M,M,86.07,KMEV 270115Z AUTO 18008G15KT 10SM CLR 32/07 A3008 RMK AO2,M
BAM,2022-07-27 01:15,-116.8743,40.5990,1382.36,M,M,M,310.00,4.00,0.00,30.00,M,10.00,M,CLR,M,M,M,M,M,M,M,M,M,M,M,M,M,M,M,KBAM 270115Z AUTO 31004KT 10SM CLR A3000 RMK AO1,M
TMT,2022-07-27 01:15,-117.1971,39.4643,1749.34,M,M,M,350.00,9.00,0.00,30.11,M,10.00,14.00,CLR,M,M,M,M,M,M,M,M,M,M,M,M,M,M,M,KTMT 270115Z AUTO 35009G14KT 10SM CLR A3011 RMK AO2,M
RTS,2022-07-27 01:35,-119.8764,39.6682,1539.00,87.80,30.20,12.64,300.00,7.00,0.00,30.11,M,10.00,M,CLR,M,M,M,M,M,M,M,M,M,M,M,M,M,M,84.01,KRTS 270135Z AUTO 30007KT 10SM CLR 31/M01 A3011 RMK AO2,M
MEV,2022-07-27 01:35,-119.7500,38.9963,1441.42,86.00,48.20,27.03,170.00,8.00,0.00,30.08,M,10.00,M,CLR,M,M,M,M,M,M,M,M,M,M,M,M,M,M,83.40,KMEV 270135Z AUTO 17008KT 10SM CLR 30/09 A3008 RMK AO2,M
BAM,2022-07-27 01:35,-116.8743,40.5990,1382.36,M,M,M,290.00,3.00,0.00,30.00,M,10.00,M,CLR,M,M,M,M,M,M,M,M,M,M,M,M,M,M,M,KBAM 270135Z AUTO 29003KT 10SM CLR A3000 RMK AO1,M
CXP,2022-07-27 01:35,-119.7326,39.1923,1431.00,89.60,35.60,14.83,0.00,0.00,0.00,30.08,M,10.00,M,FEW,M,M,M,11000.00,M,M,M,M,M,M,M,M,M,M,85.62,KCXP 270135Z AUTO 00000KT 10SM FEW110 32/02 A3008 RMK AO2,M
BVU,2022-07-27 01:35,-114.8611,35.9475,671.00,M,M,M,M,M,0.00,M,M,M,M,M,M,M,M,M,M,M,M,M,M,M,M,M,M,M,M,KBVU 270135Z AUTO RMK AO2 PNO PWINO TSNO,M
TMT,2022-07-27 01:35,-117.1971,39.4643,1749.34,M,M,M,30.00,13.00,0.00,30.11,M,10.00,M,CLR,M,M,M,M,M,M,M,M,M,M,M,M,M,M,M,KTMT 270135Z AUTO 03013KT 10SM CLR A3011 RMK AO2,M
HTH,2022-07-27 01:35,-118.6315,38.5448,1282.89,93.20,41.00,16.37,20.00,6.00,0.00,30.02,M,10.00,M,CLR,M,M,M,M,M,M,M,M,M,M,M,M,M,M,89.03,KHTH 270135Z AUTO 02006KT 10SM CLR 34/05 A3002 RMK A01,M
DRA,2022-07-27 01:53,-116.0278,36.6206,1009.00,89.00,59.00,36.37,170.00,5.00,0.00,29.96,1009.20,10.00,M,CLR,M,M,M,M,M,M,M,M,M,M,M,M,M,M,88.37,KDRA 270153Z AUTO 17005KT 10SM CLR 32/15 A2996 RMK AO2 SLP092 T03170150,M
P68,2022-07-27 01:53,-116.0056,39.6014,1993.00,90.00,17.10,6.81,310.00,11.00,0.00,30.10,1009.60,M,24.00,M,M,M,M,M,M,M,M,M,M,M,M,M,M,M,84.72,KP68 270153Z AUTO 31011G24KT 32/M08 A3010 RMK AO1 SLP096 T03221083,M
ELY,2022-07-27 01:53,-114.8453,39.2950,1909.00,81.00,49.00,32.60,190.00,9.00,0.00,30.15,1010.70,10.00,M,CLR,M,M,M,M,M,M,M,M,M,M,M,M,M,M,80.01,KELY 270153Z AUTO 19009KT 10SM CLR 27/09 A3015 RMK AO2 SLP107 T02720094,M
VGT,2022-07-27 01:53,-115.1933,36.2111,667.00,94.00,61.00,33.62,180.00,8.00,0.00,29.88,1010.70,10.00,M,CLR,M,M,M,M,M,M,M,M,M,M,M,M,M,M,94.18,KVGT 270153Z 18008KT 10SM CLR 34/16 A2988 RMK AO2 SLP107 T03440161,M
LOL,2022-07-27 01:53,-118.5701,40.0684,1192.43,95.00,37.00,13.25,150.00,5.00,0.00,29.95,1009.40,10.00,M,CLR,M,M,M,M,M,M,M,M,M,M,M,M,M,M,90.44,KLOL 270153Z AUTO 15005KT 10SM CLR 35/03 A2995 RMK AO2 SLP094 T03500028,M
MEV,2022-07-27 01:55,-119.7500,38.9963,1441.42,82.40,50.00,32.46,180.00,6.00,0.00,30.08,M,10.00,M,CLR,M,M,M,M,M,M,M,M,M,M,M,M,M,M,80.99,KMEV 270155Z AUTO 18006KT 10SM CLR 28/10 A3008 RMK AO2,M
BAM,2022-07-27 01:55,-116.8743,40.5990,1382.36,M,M,M,290.00,4.00,0.00,30.00,M,10.00,M,CLR,M,M,M,M,M,M,M,M,M,M,M,M,M,M,M,KBAM 270155Z AUTO 29004KT 10SM CLR A3000 RMK AO1,M
HTH,2022-07-27 01:55,-118.6315,38.5448,1282.89,91.40,41.00,17.32,10.00,6.00,0.00,30.02,M,10.00,M,CLR,M,M,M,M,M,M,M,M,M,M,M,M,M,M,87.40,KHTH 270155Z AUTO 01006KT 10SM CLR 33/05 A3002 RMK A01,M
TMT,2022-07-27 01:55,-117.1971,39.4643,1749.34,M,M,M,20.00,12.00,0.00,30.11,M,10.00,M,CLR,M,M,M,M,M,M,M,M,M,M,M,M,M,M,M,KTMT 270155Z AUTO 02012KT 10SM CLR A3011 RMK AO2 LTG DSNT SE,M
RNO,2022-07-27 01:55,-119.7711,39.4839,1341.00,93.00,37.00,14.09,260.00,6.00,0.00,30.04,1010.70,10.00,M,BKN,BKN,M,M,12000.00,15000.00,M,M,M,M,M,M,M,M,M,88.63,KRNO 270155Z 26006KT 10SM BKN120 BKN150 34/03 A3004 RMK AO2 SLP107 HZ ALQDS T03390028,M
BVU,2022-07-27 01:55,-114.8611,35.9475,671.00,M,M,M,M,M,0.00,M,M,M,M,M,M,M,M,M,M,M,M,M,M,M,M,M,M,M,M,KBVU 270155Z AUTO RMK AO2 PNO PWINO TSNO,M
CXP,2022-07-27 01:55,-119.7326,39.1923,1431.00,89.60,37.40,15.92,0.00,0.00,0.00,30.08,M,10.00,M,CLR,M,M,M,M,M,M,M,M,M,M,M,M,M,M,85.67,KCXP 270155Z AUTO 00000KT 10SM CLR 32/03 A3008 RMK AO2,M
RTS,2022-07-27 01:55,-119.8764,39.6682,1539.00,87.80,30.20,12.64,270.00,7.00,0.00,30.11,M,10.00,M,CLR,M,M,M,M,M,M,M,M,M,M,M,M,M,M,84.01,KRTS 270155Z AUTO 27007KT 10SM CLR 31/M01 A3011 RMK AO2,M
TPH,2022-07-27 01:56,-117.0904,38.0505,1654.00,85.00,44.00,23.97,M,3.00,0.00,30.12,1011.30,10.00,M,CLR,M,M,M,M,M,M,M,M,M,M,M,M,M,M,82.20,KTPH 270156Z AUTO VRB03KT 10SM CLR 29/07 A3012 RMK AO2 SLP113 T02940067,M
LSV,2022-07-27 01:56,-115.0343,36.2362,570.00,93.70,63.50,36.95,190.00,11.00,0.00,29.86,1008.70,10.00,M,SCT,BKN,M,M,13000.00,20000.00,M,M,M,M,M,M,M,M,M,95.24,KLSV 270156Z 19011KT 10SM SCT130 BKN200 34/18 A2986 RMK AO2A SLP087 T03430175 $,M
WMC,2022-07-27 01:56,-117.8072,40.9019,1315.00,96.00,24.10,7.59,340.00,5.00,0.00,29.98,1009.80,10.00,M,CLR,M,M,M,M,M,M,M,M,M,M,M,M,M,M,89.76,KWMC 270156Z AUTO 34005KT 10SM CLR 36/M04 A2998 RMK AO2 SLP098 T03561044,M
EKO,2022-07-27 01:56,-115.7860,40.8242,1367.00,93.00,21.00,7.33,300.00,4.00,0.00,30.02,1010.10,10.00,M,CLR,M,M,M,M,M,M,M,M,M,M,M,M,M,M,87.13,KEKO 270156Z AUTO 30004KT 10SM CLR 34/M06 A3002 RMK AO2 SLP101 T03391061,M
HND,2022-07-27 01:56,-115.1344,35.9729,742.79,90.00,62.00,39.47,180.00,9.00,0.00,29.94,1012.50,10.00,M,CLR,M,M,M,M,M,M,M,M,M,M,M,M,M,M,90.51,KHND 270156Z 18009KT 10SM CLR 32/17 A2994 RMK AO2 SLP125 T03220167,M
LAS,2022-07-27 01:56,-115.1634,36.0719,663.00,91.00,62.00,38.26,170.00,10.00,0.00,29.90,1009.70,10.00,17.00,FEW,SCT,BKN,M,8000.00,12000.00,20000.00,M,M,M,M,M,M,M,M,91.56,KLAS 270156Z 17010G17KT 10SM FEW080 SCT120 BKN200 33/17 A2990 RMK AO2 SLP097 CB DSNT N-E-S T03280167,M
INS,2022-07-27 01:56,-115.6733,36.5872,955.00,89.60,55.00,30.88,0.00,0.00,0.00,29.95,1009.20,10.00,M,CLR,M,M,M,M,M,M,M,M,M,M,M,M,M,M,87.65,KINS 270156Z AUTO 00000KT 10SM CLR 32/13 A2995 RMK AO2 SLP092 T03200127 $,M
NFL,2022-07-27 01:56,-118.7010,39.4166,1199.00,94.00,35.00,12.71,250.00,5.00,0.00,29.96,1011.90,10.00,M,SCT,BKN,BKN,BKN,8000.00,12000.00,16000.00,25000.00,M,M,M,M,M,M,M,89.29,KNFL 270156Z 25005KT 10SM SCT080 BKN120 BKN160 BKN250 34/02 A2996 RMK AO2 SLP119 SH DSNT SE T03440017,M
BVU,2022-07-27 02:15,-114.8611,35.9475,671.00,M,M,M,M,M,0.00,M,M,M,M,M,M,M,M,M,M,M,M,M,M,M,M,M,M,M,M,KBVU 270215Z AUTO RMK AO2 PNO PWINO TSNO,M
RTS,2022-07-27 02:15,-119.8764,39.6682,1539.00,86.00,30.20,13.38,270.00,8.00,0.00,30.11,M,10.00,M,CLR,M,M,M,M,M,M,M,M,M,M,M,M,M,M,82.64,KRTS 270215Z AUTO 27008KT 10SM CLR 30/M01 A3011 RMK AO2,M
MEV,2022-07-27 02:15,-119.7500,38.9963,1441.42,82.40,42.80,24.72,210.00,8.00,0.00,30.08,M,10.00,M,CLR,M,M,M,M,M,M,M,M,M,M,M,M,M,M,80.39,KMEV 270215Z AUTO 21008KT 10SM CLR 28/06 A3008 RMK AO2,M
BAM,2022-07-27 02:15,-116.8743,40.5990,1382.36,M,M,M,290.00,3.00,0.00,30.00,M,10.00,M,CLR,M,M,M,M,M,M,M,M,M,M,M,M,M,M,M,KBAM 270215Z AUTO 29003KT 10SM CLR A3000 RMK AO1,M
HTH,2022-07-27 02:15,-118.6315,38.5448,1282.89,91.40,41.00,17.32,350.00,8.00,0.00,30.02,M,10.00,M,CLR,M,M,M,M,M,M,M,M,M,M,M,M,M,M,87.40,KHTH 270215Z AUTO 35008KT 10SM CLR 33/05 A3002 RMK A01,M
TMT,2022-07-27 02:15,-117.1971,39.4643,1749.34,M,M,M,10.00,7.00,0.00,30.12,M,10.00,14.00,CLR,M,M,M,M,M,M,M,M,M,M,M,M,M,M,M,KTMT 270215Z AUTO 01007G14KT 10SM CLR A3012 RMK AO2,M
CXP,2022-07-27 02:15,-119.7326,39.1923,1431.00,87.80,37.40,16.86,0.00,0.00,0.00,30.08,M,10.00,M,CLR,M,M,M,M,M,M,M,M,M,M,M,M,M,M,84.16,KCXP 270215Z AUTO 00000KT 10SM CLR 31/03 A3008 RMK AO2,M
BAM,2022-07-27 02:35,-116.8743,40.5990,1382.36,M,M,M,290.00,3.00,0.00,30.01,M,10.00,M,CLR,M,M,M,M,M,M,M,M,M,M,M,M,M,M,M,KBAM 270235Z AUTO 29003KT 10SM CLR A3001 RMK AO1,M
MEV,2022-07-27 02:35,-119.7500,38.9963,1441.42,78.80,44.60,29.79,180.00,8.00,0.00,30.08,M,10.00,M,CLR,M,M,M,M,M,M,M,M,M,M,M,M,M,M,78.80,KMEV 270235Z AUTO 18008KT 10SM CLR 26/07 A3008 RMK AO2,M
RTS,2022-07-27 02:35,-119.8764,39.6682,1539.00,86.00,30.20,13.38,290.00,4.00,0.00,30.11,M,10.00,M,CLR,M,M,M,M,M,M,M,M,M,M,M,M,M,M,82.64,KRTS 270235Z AUTO 29004KT 10SM CLR 30/M01 A3011 RMK AO2,M
CXP,2022-07-27 02:35,-119.7326,39.1923,1431.00,87.80,39.20,18.09,0.00,0.00,0.00,30.08,M,10.00,M,CLR,M,M,M,M,M,M,M,M,M,M,M,M,M,M,84.22,KCXP 270235Z AUTO 00000KT 10SM CLR 31/04 A3008 RMK AO2,M
TMT,2022-07-27 02:35,-117.1971,39.4643,1749.34,M,M,M,110.00,6.00,0.00,30.13,M,10.00,M,CLR,M,M,M,M,M,M,M,M,M,M,M,M,M,M,M,KTMT 270235Z AUTO 11006KT 10SM CLR A3013 RMK AO2,M
HTH,2022-07-27 02:35,-118.6315,38.5448,1282.89,91.40,39.20,16.15,350.00,9.00,0.00,30.02,M,10.00,M,CLR,M,M,M,M,M,M,M,M,M,M,M,M,M,M,87.30,KHTH 270235Z AUTO 35009KT 10SM CLR 33/04 A3002 RMK A01,M
BVU,2022-07-27 02:35,-114.8611,35.9475,671.00,M,M,M,M,M,0.00,M,M,M,M,M,M,M,M,M,M,M,M,M,M,M,M,M,M,M,M,KBVU 270235Z AUTO RMK AO2 PNO PWINO TSNO,M
DRA,2022-07-27 02:53,-116.0278,36.6206,1009.00,89.00,59.00,36.37,0.00,0.00,0.00,29.96,1009.40,10.00,M,CLR,M,M,M,M,M,M,M,M,M,M,M,M,M,M,88.37,KDRA 270253Z AUTO 00000KT 10SM CLR 32/15 A2996 RMK AO2 SLP094 T03170150 55001,M
LOL,2022-07-27 02:53,-118.5701,40.0684,1192.43,90.00,38.00,16.04,0.00,0.00,0.00,29.96,1009.10,10.00,M,CLR,M,M,M,M,M,M,M,M,M,M,M,M,M,M,86.03,KLOL 270253Z AUTO 00000KT 10SM CLR 32/03 A2996 RMK AO2 SLP091 T03220033 55005,M
P68,2022-07-27 02:53,-116.0056,39.6014,1993.00,80.00,16.00,8.92,320.00,4.00,0.00,30.12,1010.30,M,M,M,M,M,M,M,M,M,M,M,M,M,M,M,M,M,77.87,KP68 270253Z AUTO 32004KT 27/M09 A3012 RMK AO1 SLP103 T02671089,M
VGT,2022-07-27 02:53,-115.1933,36.2111,667.00,93.00,62.00,35.94,190.00,9.00,0.00,29.88,1010.90,10.00,M,CLR,M,M,M,M,M,M,M,M,M,M,M,M,M,M,93.72,KVGT 270253Z 19009KT 10SM CLR 34/17 A2988 RMK AO2 SLP109 T03390167 53003,M
ELY,2022-07-27 02:53,-114.8453,39.2950,1909.00,77.00,45.00,32.10,240.00,5.00,0.00,30.17,1011.40,10.00,M,CLR,M,M,M,M,M,M,M,M,M,M,M,M,M,M,77.00,KELY 270253Z AUTO 24005KT 10SM CLR 25/07 A3017 RMK AO2 SLP114 T02500072 53006,M
BVU,2022-07-27 02:55,-114.8611,35.9475,671.00,M,M,M,M,M,0.00,M,M,M,M,M,M,M,M,M,M,M,M,M,M,M,M,M,M,M,M,KBVU 270255Z AUTO RMK AO2 PNO PWINO TSNO,M
CXP,2022-07-27 02:55,-119.7326,39.1923,1431.00,84.20,42.80,23.33,170.00,4.00,0.00,30.09,M,10.00,M,CLR,M,M,M,M,M,M,M,M,M,M,M,M,M,M,81.61,KCXP 270255Z AUTO 17004KT 10SM CLR 29/06 A3009 RMK AO2,M
RNO,2022-07-27 02:55,-119.7711,39.4839,1341.00,91.00,40.00,16.80,270.00,5.00,0.00,30.04,1010.60,10.00,M,BKN,BKN,M,M,12000.00,16000.00,M,M,M,M,M,M,M,M,M,86.98,KRNO 270255Z 27005KT 10SM BKN120 BKN160 33/04 A3004 RMK AO2 SLP106 FU SE THRU SW HZ ALQDS T03280044 55002,M
RTS,2022-07-27 02:55,-119.8764,39.6682,1539.00,84.20,30.20,14.18,250.00,5.00,0.00,30.11,M,10.00,M,CLR,M,M,M,M,M,M,M,M,M,M,M,M,M,M,81.26,KRTS 270255Z AUTO 25005KT 10SM CLR 29/M01 A3011 RMK AO2,M
MEV,2022-07-27 02:55,-119.7500,38.9963,1441.42,77.00,48.20,36.22,180.00,8.00,0.00,30.08,M,10.00,M,CLR,M,M,M,M,M,M,M,M,M,M,M,M,M,M,77.00,KMEV 270255Z AUTO 18008KT 10SM CLR 25/09 A3008 RMK AO2,M
BAM,2022-07-27 02:55,-116.8743,40.5990,1382.36,M,M,M,290.00,4.00,0.00,30.01,M,10.00,M,CLR,M,M,M,M,M,M,M,M,M,M,M,M,M,M,M,KBAM 270255Z AUTO 29004KT 10SM CLR A3001 RMK AO1,M
HTH,2022-07-27 02:55,-118.6315,38.5448,1282.89,89.60,39.20,17.09,350.00,6.00,0.00,30.03,M,10.00,M,CLR,M,M,M,M,M,M,M,M,M,M,M,M,M,M,85.73,KHTH 270255Z AUTO 35006KT 10SM CLR 32/04 A3003 RMK A01,M
TMT,2022-07-27 02:55,-117.1971,39.4643,1749.34,M,M,M,240.00,8.00,0.00,30.14,M,10.00,M,CLR,M,M,M,M,M,M,M,M,M,M,M,M,M,M,M,KTMT 270255Z AUTO 24008KT 10SM CLR A3014 RMK AO2,M
EKO,2022-07-27 02:56,-115.7860,40.8242,1367.00,88.00,19.90,8.18,320.00,5.00,0.00,30.03,1010.10,10.00,M,CLR,M,M,M,M,M,M,M,M,M,M,M,M,M,M,83.40,KEKO 270256Z AUTO 32005KT 10SM CLR 31/M07 A3003 RMK AO2 SLP101 T03111067 53003,M
WMC,2022-07-27 02:56,-117.8072,40.9019,1315.00,92.00,26.10,9.39,20.00,3.00,0.00,29.99,1009.70,10.00,M,CLR,M,M,M,M,M,M,M,M,M,M,M,M,M,M,86.69,KWMC 270256Z AUTO 02003KT 10SM CLR 33/M03 A2999 RMK AO2 SLP097 T03331033 55001,M
NFL,2022-07-27 02:56,-118.7010,39.4166,1199.00,90.00,37.00,15.48,250.00,6.00,0.00,29.97,1012.00,10.00,M,SCT,BKN,BKN,BKN,8000.00,12000.00,18000.00,25000.00,M,M,M,M,M,M,M,86.00,KNFL 270256Z 25006KT 10SM SCT080 BKN120 BKN180 BKN250 32/03 A2997 RMK AO2 SLP120 SH DSNT SE T03220028 55003,M
HND,2022-07-27 02:56,-115.1344,35.9729,742.79,89.00,63.00,41.92,230.00,10.00,0.00,29.94,1012.40,10.00,M,CLR,M,M,M,M,M,M,M,M,M,M,M,M,M,M,89.99,KHND 270256Z 23010KT 10SM CLR 32/17 A2994 RMK AO2 SLP124 T03170172 53000,M
TPH,2022-07-27 02:56,-117.0904,38.0505,1654.00,84.00,43.00,23.66,180.00,3.00,0.00,30.13,1011.60,10.00,M,CLR,M,M,M,M,M,M,M,M,M,M,M,M,M,M,81.48,KTPH 270256Z AUTO 18003KT 10SM CLR 29/06 A3013 RMK AO2 SLP116 T02890061 55002,M
LAS,2022-07-27 02:56,-115.1634,36.0719,663.00,90.00,61.00,37.97,200.00,9.00,0.00,29.89,1009.50,10.00,M,FEW,SCT,BKN,M,8000.00,12000.00,20000.00,M,M,M,M,M,M,M,M,90.03,KLAS 270256Z 20009KT 10SM FEW080 SCT120 BKN200 32/16 A2989 RMK AO2 SLP095 CB DSNT N-E-S T03220161 53001,M
INS,2022-07-27 02:58,-115.6733,36.5872,955.00,89.00,55.20,31.92,0.00,0.00,0.00,29.96,1009.40,10.00,M,BKN,M,M,M,16000.00,M,M,M,M,M,M,M,M,M,M,87.07,KINS 270258Z AUTO 00000KT 10SM BKN160 32/13 A2996 RMK AO2 SLP094 T03160129 $,M
LSV,2022-07-27 02:58,-115.0343,36.2362,570.00,92.80,62.60,36.81,200.00,8.00,0.00,29.87,1008.90,10.00,M,SCT,BKN,M,M,13000.00,20000.00,M,M,M,M,M,M,M,M,M,93.75,KLSV 270258Z 20008KT 10SM SCT130 BKN200 34/17 A2987 RMK AO2A SLP089 T03380170 $,M
CXP,2022-07-27 03:15,-119.7326,39.1923,1431.00,82.40,42.80,24.72,0.00,0.00,0.00,30.09,M,10.00,M,CLR,M,M,M,M,M,M,M,M,M,M,M,M,M,M,80.39,KCXP 270315Z AUTO 00000KT 10SM CLR 28/06 A3009 RMK AO2,M
BVU,2022-07-27 03:15,-114.8611,35.9475,671.00,M,M,M,M,M,0.00,M,M,M,M,M,M,M,M,M,M,M,M,M,M,M,M,M,M,M,M,KBVU 270315Z AUTO RMK AO2 PNO PWINO TSNO,M
RTS,2022-07-27 03:15,-119.8764,39.6682,1539.00,84.20,30.20,14.18,280.00,6.00,0.00,30.12,M,10.00,M,CLR,M,M,M,M,M,M,M,M,M,M,M,M,M,M,81.26,KRTS 270315Z AUTO 28006KT 10SM CLR 29/M01 A3012 RMK AO2,M
MEV,2022-07-27 03:15,-119.7500,38.9963,1441.42,75.20,50.00,41.14,170.00,7.00,0.00,30.08,M,10.00,M,CLR,M,M,M,M,M,M,M,M,M,M,M,M,M,M,75.20,KMEV 270315Z AUTO 17007KT 10SM CLR 24/10 A3008 RMK AO2,M
BAM,2022-07-27 03:15,-116.8743,40.5990,1382.36,M,M,M,290.00,4.00,0.00,30.01,M,10.00,M,CLR,M,M,M,M,M,M,M,M,M,M,M,M,M,M,M,KBAM 270315Z AUTO 29004KT 10SM CLR A3001 RMK AO1,M
HTH,2022-07-27 03:15,-118.6315,38.5448,1282.89,89.60,41.00,18.33,340.00,4.00,0.00,30.03,M,10.00,M,CLR,M,M,M,M,M,M,M,M,M,M,M,M,M,M,85.82,KHTH 270315Z AUTO 34004KT 10SM CLR 32/05 A3003 RMK A01,M
TMT,2022-07-27 03:15,-117.1971,39.4643,1749.34,M,M,M,220.00,13.00,0.00,30.14,M,10.00,M,CLR,M,M,M,M,M,M,M,M,M,M,M,M,M,M,M,KTMT 270315Z AUTO 22013KT 10SM CLR A3014 RMK AO2,M
MEV,2022-07-27 03:35,-119.7500,38.9963,1441.42,73.40,48.20,40.85,160.00,8.00,0.00,30.09,M,10.00,M,CLR,M,M,M,M,M,M,M,M,M,M,M,M,M,M,73.40,KMEV 270335Z AUTO 16008KT 10SM CLR 23/09 A3009 RMK AO2,M
RTS,2022-07-27 03:35,-119.8764,39.6682,1539.00,80.60,30.20,15.94,310.00,4.00,0.00,30.12,M,10.00,M,BKN,M,M,M,11000.00,M,M,M,M,M,M,M,M,M,M,78.77,KRTS 270335Z AUTO 31004KT 10SM BKN110 27/M01 A3012 RMK AO2,M
CXP,2022-07-27 03:35,-119.7326,39.1923,1431.00,78.80,42.80,27.81,170.00,3.00,0.00,30.10,M,10.00,M,CLR,M,M,M,M,M,M,M,M,M,M,M,M,M,M,78.80,KCXP 270335Z AUTO 17003KT 10SM CLR 26/06 A3010 RMK AO2,M
BVU,2022-07-27 03:35,-114.8611,35.9475,671.00,M,M,M,M,M,0.00,M,M,M,M,M,M,M,M,M,M,M,M,M,M,M,M,M,M,M,M,KBVU 270335Z AUTO RMK AO2 PNO PWINO TSNO,M
HTH,2022-07-27 03:35,-118.6315,38.5448,1282.89,87.80,41.00,19.40,200.00,6.00,0.00,30.04,M,10.00,M,CLR,M,M,M,M,M,M,M,M,M,M,M,M,M,M,84.30,KHTH 270335Z AUTO 20006KT 10SM CLR 31/05 A3004 RMK A01,M
TMT,2022-07-27 03:35,-117.1971,39.4643,1749.34,M,M,M,220.00,8.00,0.00,30.15,M,10.00,M,CLR,M,M,M,M,M,M,M,M,M,M,M,M,M,M,M,KTMT 270335Z AUTO 22008KT 10SM CLR A3015 RMK AO2,M
BAM,2022-07-27 03:35,-116.8743,40.5990,1382.36,M,M,M,290.00,5.00,0.00,30.01,M,10.00,M,CLR,M,M,M,M,M,M,M,M,M,M,M,M,M,M,M,KBAM 270335Z AUTO 29005KT 10SM CLR A3001 RMK AO1,M
VGT,2022-07-27 03:53,-115.1933,36.2111,667.00,92.00,62.00,37.19,180.00,5.00,0.00,29.89,1011.00,10.00,M,CLR,M,M,M,M,M,M,M,M,M,M,M,M,M,M,92.52,KVGT 270353Z AUTO 18005KT 10SM CLR 33/17 A2989 RMK AO2 SLP110 T03330167,M
ELY,2022-07-27 03:53,-114.8453,39.2950,1909.00,70.00,45.00,40.63,150.00,3.00,0.00,30.18,1012.40,10.00,M,CLR,M,M,M,M,M,M,M,M,M,M,M,M,M,M,70.00,KELY 270353Z AUTO 15003KT 10SM CLR 21/07 A3018 RMK AO2 SLP124 T02110072,M
DRA,2022-07-27 03:53,-116.0278,36.6206,1009.00,86.00,59.00,40.14,100.00,5.00,0.00,29.97,1009.60,10.00,M,CLR,M,M,M,M,M,M,M,M,M,M,M,M,M,M,85.47,KDRA 270353Z AUTO 10005KT 10SM CLR 30/15 A2997 RMK AO2 SLP096 T03000150,M
P68,2022-07-27 03:53,-116.0056,39.6014,1993.00,77.00,37.00,23.55,170.00,5.00,0.00,30.14,1011.20,M,M,M,M,M,M,M,M,M,M,M,M,M,M,M,M,M,77.00,KP68 270353Z AUTO 17005KT 25/03 A3014 RMK AO1 SLP112 T02500028,M
LOL,2022-07-27 03:53,-118.5701,40.0684,1192.43,82.00,33.00,17.12,300.00,8.00,0.00,29.97,1009.80,10.00,M,CLR,M,M,M,M,M,M,M,M,M,M,M,M,M,M,79.75,KLOL 270353Z AUTO 30008KT 10SM CLR 28/01 A2997 RMK AO2 SLP098 T02780006,M
TMT,2022-07-27 03:55,-117.1971,39.4643,1749.34,M,M,M,220.00,10.00,0.00,30.16,M,10.00,M,CLR,M,M,M,M,M,M,M,M,M,M,M,M,M,M,M,KTMT 270355Z AUTO 22010KT 10SM CLR A3016 RMK AO2,M
MEV,2022-07-27 03:55,-119.7500,38.9963,1441.42,73.40,50.00,43.69,110.00,5.00,0.00,30.10,M,10.00,M,CLR,M,M,M,M,M,M,M,M,M,M,M,M,M,M,73.40,KMEV 270355Z AUTO 11005KT 10SM CLR 23/10 A3010 RMK AO2,M
CXP,2022-07-27 03:55,-119.7326,39.1923,1431.00,78.80,42.80,27.81,360.00,3.00,0.00,30.11,M,10.00,M,CLR,M,M,M,M,M,M,M,M,M,M,M,M,M,M,78.80,KCXP 270355Z AUTO 36003KT 10SM CLR 26/06 A3011 RMK AO2,M
RNO,2022-07-27 03:55,-119.7711,39.4839,1341.00,88.00,40.00,18.47,270.00,6.00,0.00,30.06,1011.10,10.00,M,BKN,BKN,M,M,11000.00,16000.00,M,M,M,M,M,M,M,M,M,84.41,KRNO 270355Z 27006KT 10SM BKN110 BKN160 31/04 A3006 RMK AO2 SLP111 FU SE THRU SW HZ ALQDS T03110044,M
BAM,2022-07-27 03:55,-116.8743,40.5990,1382.36,M,M,M,80.00,6.00,0.00,30.03,M,10.00,M,CLR,M,M,M,M,M,M,M,M,M,M,M,M,M,M,M,KBAM 270355Z AUTO 08006KT 10SM CLR A3003 RMK AO1,M
HTH,2022-07-27 03:55,-118.6315,38.5448,1282.89,86.00,42.80,22.02,190.00,5.00,0.00,30.04,M,10.00,M,CLR,M,M,M,M,M,M,M,M,M,M,M,M,M,M,82.95,KHTH 270355Z AUTO 19005KT 10SM CLR 30/06 A3004 RMK A01,M
RTS,2022-07-27 03:55,-119.8764,39.6682,1539.00,82.40,30.20,15.03,350.00,8.00,0.00,30.13,M,10.00,M,SCT,M,M,M,11000.00,M,M,M,M,M,M,M,M,M,M,79.97,KRTS 270355Z AUTO 35008KT 10SM SCT110 28/M01 A3013 RMK AO2,M
BVU,2022-07-27 03:55,-114.8611,35.9475,671.00,M,M,M,M,M,0.00,M,M,M,M,M,M,M,M,M,M,M,M,M,M,M,M,M,M,M,M,KBVU 270355Z AUTO RMK AO2 PNO PWINO TSNO,M
HND,2022-07-27 03:56,-115.1344,35.9729,742.79,87.00,63.00,44.66,200.00,8.00,0.00,29.94,1012.60,10.00,M,CLR,M,M,M,M,M,M,M,M,M,M,M,M,M,M,87.96,KHND 270356Z AUTO 20008KT 10SM CLR 31/17 A2994 RMK AO2 SLP126 T03060172,M
LAS,2022-07-27 03:56,-115.1634,36.0719,663.00,89.00,61.00,39.06,190.00,5.00,0.00,29.90,1009.80,10.00,M,FEW,FEW,BKN,M,8000.00,12000.00,18000.00,M,M,M,M,M,M,M,M,89.11,KLAS 270356Z 19005KT 10SM FEW080 FEW120 BKN180 32/16 A2990 RMK AO2 SLP098 T03170161,M
TPH,2022-07-27 03:56,-117.0904,38.0505,1654.00,80.00,43.00,26.85,210.00,3.00,0.00,30.15,1012.70,10.00,M,CLR,M,M,M,M,M,M,M,M,M,M,M,M,M,M,79.04,KTPH 270356Z AUTO 21003KT 10SM CLR 27/06 A3015 RMK AO2 SLP127 T02670061,M
NFL,2022-07-27 03:56,-118.7010,39.4166,1199.00,86.00,36.00,16.89,240.00,6.00,0.00,29.98,1012.50,10.00,M,SCT,BKN,BKN,BKN,8000.00,12000.00,18000.00,25000.00,M,M,M,M,M,M,M,82.70,KNFL 270356Z 24006KT 10SM SCT080 BKN120 BKN180 BKN250 30/02 A2998 RMK AO2 SLP125 T03000022,M
EKO,2022-07-27 03:56,-115.7860,40.8242,1367.00,81.00,19.90,10.24,60.00,4.00,0.00,30.05,1011.10,10.00,M,CLR,M,M,M,M,M,M,M,M,M,M,M,M,M,M,78.56,KEKO 270356Z AUTO 06004KT 10SM CLR 27/M07 A3005 RMK AO2 SLP111 T02721067,M
WMC,2022-07-27 03:56,-117.8072,40.9019,1315.00,81.00,30.00,15.60,0.00,0.00,0.00,30.00,1010.10,10.00,M,CLR,M,M,M,M,M,M,M,M,M,M,M,M,M,M,79.02,KWMC 270356Z AUTO 00000KT 10SM CLR 27/M01 A3000 RMK AO2 SLP101 T02721011,M
LSV,2022-07-27 03:58,-115.0343,36.2362,570.00,90.70,63.70,40.85,190.00,4.00,0.00,29.88,1009.20,10.00,M,SCT,BKN,M,M,13000.00,19000.00,M,M,M,M,M,M,M,M,M,92.04,KLSV 270358Z 19004KT 10SM SCT130 BKN190 33/18 A2988 RMK AO2A SLP092 T03260176 $,M
INS,2022-07-27 03:58,-115.6733,36.5872,955.00,87.30,55.40,33.82,0.00,0.00,0.00,29.97,1009.60,10.00,M,OVC,M,M,M,16000.00,M,M,M,M,M,M,M,M,M,M,85.67,KINS 270358Z AUTO 00000KT 10SM OVC160 31/13 A2997 RMK AO2 SLP096 T03070130 $,M
MEV,2022-07-27 04:15,-119.7500,38.9963,1441.42,73.40,48.20,40.85,120.00,6.00,0.00,30.10,M,10.00,M,CLR,M,M,M,M,M,M,M,M,M,M,M,M,M,M,73.40,KMEV 270415Z AUTO 12006KT 10SM CLR 23/09 A3010 RMK AO2,M
BAM,2022-07-27 04:15,-116.8743,40.5990,1382.36,M,M,M,140.00,5.00,0.00,30.04,M,10.00,M,CLR,M,M,M,M,M,M,M,M,M,M,M,M,M,M,M,KBAM 270415Z AUTO 14005KT 10SM CLR A3004 RMK AO1,M
HTH,2022-07-27 04:15,-118.6315,38.5448,1282.89,84.20,42.80,23.33,210.00,6.00,0.00,30.05,M,10.00,M,CLR,M,M,M,M,M,M,M,M,M,M,M,M,M,M,81.61,KHTH 270415Z AUTO 21006KT 10SM CLR 29/06 A3005 RMK A01,M
BVU,2022-07-27 04:15,-114.8611,35.9475,671.00,M,M,M,M,M,0.00,M,M,M,M,M,M,M,M,M,M,M,M,M,M,M,M,M,M,M,M,KBVU 270415Z AUTO RMK AO2 PNO PWINO TSNO,M
TMT,2022-07-27 04:15,-117.1971,39.4643,1749.34,M,M,M,200.00,11.00,0.00,30.16,M,10.00,M,CLR,M,M,M,M,M,M,M,M,M,M,M,M,M,M,M,KTMT 270415Z AUTO 20011KT 10SM CLR A3016 RMK AO2,M
CXP,2022-07-27 04:15,-119.7326,39.1923,1431.00,78.80,42.80,27.81,0.00,0.00,0.00,30.11,M,10.00,M,CLR,M,M,M,M,M,M,M,M,M,M,M,M,M,M,78.80,KCXP 270415Z AUTO 00000KT 10SM CLR 26/06 A3011 RMK AO2,M
RTS,2022-07-27 04:15,-119.8764,39.6682,1539.00,82.40,30.20,15.03,270.00,6.00,0.00,30.13,M,10.00,M,FEW,FEW,SCT,M,6500.00,8000.00,12000.00,M,M,M,M,M,M,M,M,79.97,KRTS 270415Z AUTO 27006KT 10SM FEW065 FEW080 SCT120 28/M01 A3013 RMK AO2,M
BAM,2022-07-27 04:35,-116.8743,40.5990,1382.36,M,M,M,140.00,5.00,0.00,30.04,M,10.00,M,CLR,M,M,M,M,M,M,M,M,M,M,M,M,M,M,M,KBAM 270435Z AUTO 14005KT 10SM CLR A3004 RMK AO1,M
TMT,2022-07-27 04:35,-117.1971,39.4643,1749.34,M,M,M,190.00,8.00,0.00,30.18,M,10.00,M,CLR,M,M,M,M,M,M,M,M,M,M,M,M,M,M,M,KTMT 270435Z AUTO 19008KT 10SM CLR A3018 RMK AO2,M
HTH,2022-07-27 04:35,-118.6315,38.5448,1282.89,82.40,41.00,23.07,190.00,4.00,0.00,30.06,M,10.00,M,CLR,M,M,M,M,M,M,M,M,M,M,M,M,M,M,80.29,KHTH 270435Z AUTO 19004KT 10SM CLR 28/05 A3006 RMK A01,M
MEV,2022-07-27 04:35,-119.7500,38.9963,1441.42,73.40,48.20,40.85,120.00,5.00,0.00,30.11,M,10.00,M,FEW,FEW,FEW,M,4600.00,5000.00,12000.00,M,M,M,M,M,M,M,M,73.40,KMEV 270435Z AUTO 12005KT 10SM FEW046 FEW050 FEW120 23/09 A3011 RMK AO2,M
RTS,2022-07-27 04:35,-119.8764,39.6682,1539.00,82.40,32.00,16.17,260.00,8.00,0.00,30.14,M,10.00,M,FEW,FEW,FEW,M,6500.00,8000.00,12000.00,M,M,M,M,M,M,M,M,80.00,KRTS 270435Z AUTO 26008KT 10SM FEW065 FEW080 FEW120 28/00 A3014 RMK AO2,M
CXP,2022-07-27 04:35,-119.7326,39.1923,1431.00,80.60,42.80,26.22,0.00,0.00,0.00,30.12,M,10.00,M,CLR,M,M,M,M,M,M,M,M,M,M,M,M,M,M,79.30,KCXP 270435Z AUTO 00000KT 10SM CLR 27/06 A3012 RMK AO2,M
BVU,2022-07-27 04:35,-114.8611,35.9475,671.00,M,M,M,M,M,0.00,M,M,M,M,M,M,M,M,M,M,M,M,M,M,M,M,M,M,M,M,KBVU 270435Z AUTO RMK AO2 PNO PWINO TSNO,M
P68,2022-07-27 04:53,-116.0056,39.6014,1993.00,66.00,36.00,32.88,150.00,5.00,0.00,30.16,1012.30,M,M,M,M,M,M,M,M,M,M,M,M,M,M,M,M,M,66.00,KP68 270453Z AUTO 15005KT 19/02 A3016 RMK AO1 SLP123 T01890022,M
DRA,2022-07-27 04:53,-116.0278,36.6206,1009.00,83.00,62.00,49.51,80.00,3.00,0.00,29.99,1010.40,10.00,M,CLR,M,M,M,M,M,M,M,M,M,M,M,M,M,M,83.70,KDRA 270453Z AUTO 08003KT 10SM CLR 28/17 A2999 RMK AO2 SLP104 T02830167,M
ELY,2022-07-27 04:53,-114.8453,39.2950,1909.00,63.00,47.00,55.64,170.00,4.00,0.00,30.20,1012.90,10.00,M,CLR,M,M,M,M,M,M,M,M,M,M,M,M,M,M,63.00,KELY 270453Z AUTO 17004KT 10SM CLR 17/08 A3020 RMK AO2 SLP129 T01720083,M
LOL,2022-07-27 04:53,-118.5701,40.0684,1192.43,84.00,32.00,15.35,320.00,9.00,0.00,29.99,1010.20,10.00,M,CLR,M,M,M,M,M,M,M,M,M,M,M,M,M,M,81.13,KLOL 270453Z AUTO 32009KT 10SM CLR 29/00 A2999 RMK AO2 SLP102 T02890000,M
VGT,2022-07-27 04:53,-115.1933,36.2111,667.00,91.00,61.00,36.80,140.00,7.00,0.00,29.92,1011.70,10.00,M,CLR,M,M,M,M,M,M,M,M,M,M,M,M,M,M,91.06,KVGT 270453Z AUTO 14007KT 10SM CLR 33/16 A2992 RMK AO2 SLP117 T03280161,M
TMT,2022-07-27 04:55,-117.1971,39.4643,1749.34,M,M,M,210.00,10.00,0.00,30.18,M,10.00,M,CLR,M,M,M,M,M,M,M,M,M,M,M,M,M,M,M,KTMT 270455Z AUTO 21010KT 10SM CLR A3018 RMK AO2,M
RNO,2022-07-27 04:55,-119.7711,39.4839,1341.00,86.00,40.00,19.68,210.00,4.00,0.00,30.08,1011.80,10.00,M,BKN,BKN,M,M,10000.00,15000.00,M,M,M,M,M,M,M,M,M,82.81,KRNO 270455Z 21004KT 10SM BKN100 BKN150 30/04 A3008 RMK AO2 SLP118 FU HZ ALQDS T03000044,M
BVU,2022-07-27 04:55,-114.8611,35.9475,671.00,M,M,M,M,M,0.00,M,M,M,M,M,M,M,M,M,M,M,M,M,M,M,M,M,M,M,M,KBVU 270455Z AUTO RMK AO2 PNO PWINO TSNO,M
HTH,2022-07-27 04:55,-118.6315,38.5448,1282.89,82.40,42.80,24.72,150.00,5.00,0.00,30.06,M,10.00,M,CLR,M,M,M,M,M,M,M,M,M,M,M,M,M,M,80.39,KHTH 270455Z AUTO 15005KT 10SM CLR 28/06 A3006 RMK A01,M
CXP,2022-07-27 04:55,-119.7326,39.1923,1431.00,78.80,42.80,27.81,0.00,0.00,0.00,30.12,M,10.00,M,CLR,M,M,M,M,M,M,M,M,M,M,M,M,M,M,78.80,KCXP 270455Z AUTO 00000KT 10SM CLR 26/06 A3012 RMK AO2,M
BAM,2022-07-27 04:55,-116.8743,40.5990,1382.36,M,M,M,0.00,0.00,0.00,30.05,M,10.00,M,CLR,M,M,M,M,M,M,M,M,M,M,M,M,M,M,M,KBAM 270455Z AUTO 00000KT 10SM CLR A3005 RMK AO1,M
MEV,2022-07-27 04:55,-119.7500,38.9963,1441.42,75.20,46.40,35.94,340.00,3.00,0.00,30.11,M,10.00,M,FEW,FEW,SCT,M,3800.00,4800.00,11000.00,M,M,M,M,M,M,M,M,75.20,KMEV 270455Z AUTO 34003KT 10SM FEW038 FEW048 SCT110 24/08 A3011 RMK AO2,M
RTS,2022-07-27 04:55,-119.8764,39.6682,1539.00,80.60,35.60,19.79,280.00,10.00,0.00,30.14,M,10.00,M,CLR,M,M,M,M,M,M,M,M,M,M,M,M,M,M,78.94,KRTS 270455Z AUTO 28010KT 10SM CLR 27/02 A3014 RMK AO2,M
EKO,2022-07-27 04:56,-115.7860,40.8242,1367.00,73.00,23.00,15.23,0.00,0.00,0.00,30.07,1011.80,10.00,M,CLR,M,M,M,M,M,M,M,M,M,M,M,M,M,M,73.00,KEKO 270456Z AUTO 00000KT 10SM CLR 23/M05 A3007 RMK AO2 SLP118 T02281050,M
WMC,2022-07-27 04:56,-117.8072,40.9019,1315.00,76.00,27.00,16.32,320.00,4.00,0.00,30.02,1010.70,10.00,M,CLR,M,M,M,M,M,M,M,M,M,M,M,M,M,M,75.90,KWMC 270456Z AUTO 32004KT 10SM CLR 24/M03 A3002 RMK AO2 SLP107 T02441028,M
HND,2022-07-27 04:56,-115.1344,35.9729,742.79,87.00,64.00,46.26,180.00,11.00,0.00,29.96,1013.20,10.00,M,CLR,M,M,M,M,M,M,M,M,M,M,M,M,M,M,88.42,KHND 270456Z AUTO 18011KT 10SM CLR 31/18 A2996 RMK AO2 SLP132 T03060178,M
TPH,2022-07-27 04:56,-117.0904,38.0505,1654.00,79.00,43.00,27.84,90.00,5.00,0.00,30.17,1013.20,10.00,M,CLR,M,M,M,M,M,M,M,M,M,M,M,M,M,M,79.00,KTPH 270456Z AUTO 09005KT 10SM CLR 26/06 A3017 RMK AO2 SLP132 T02610061,M
LAS,2022-07-27 04:56,-115.1634,36.0719,663.00,89.00,61.00,39.06,170.00,4.00,0.00,29.93,1010.70,10.00,M,FEW,FEW,OVC,M,8000.00,12000.00,18000.00,M,M,M,M,M,M,M,M,89.11,KLAS 270456Z 17004KT 10SM FEW080 FEW120 OVC180 32/16 A2993 RMK AO2 SLP107 T03170161,M
NFL,2022-07-27 04:56,-118.7010,39.4166,1199.00,83.00,38.00,20.11,250.00,8.00,0.00,30.00,1013.10,10.00,M,SCT,BKN,BKN,M,8000.00,12000.00,25000.00,M,M,M,M,M,M,M,M,80.49,KNFL 270456Z 25008KT 10SM SCT080 BKN120 BKN250 28/03 A3000 RMK AO2 SLP131 T02830033,M
LSV,2022-07-27 04:58,-115.0343,36.2362,570.00,88.70,66.40,47.80,110.00,3.00,0.00,29.90,1009.90,10.00,M,BKN,M,M,M,18000.00,M,M,M,M,M,M,M,M,M,M,91.41,KLSV 270458Z 11003KT 10SM BKN180 32/19 A2990 RMK AO2A SLP099 T03150191 $,M
INS,2022-07-27 04:58,-115.6733,36.5872,955.00,85.60,54.00,33.93,90.00,7.00,0.00,29.99,1010.20,10.00,M,OVC,M,M,M,17000.00,M,M,M,M,M,M,M,M,M,M,83.93,KINS 270458Z AUTO 09007KT 10SM OVC170 30/12 A2999 RMK AO2 SLP102 T02980122 $,M
BVU,2022-07-27 05:15,-114.8611,35.9475,671.00,M,M,M,M,M,0.00,M,M,M,M,M,M,M,M,M,M,M,M,M,M,M,M,M,M,M,M,KBVU 270515Z AUTO RMK AO2 PNO PWINO TSNO,M
RTS,2022-07-27 05:15,-119.8764,39.6682,1539.00,80.60,35.60,19.79,270.00,10.00,0.00,30.14,M,10.00,M,CLR,M,M,M,M,M,M,M,M,M,M,M,M,M,M,78.94,KRTS 270515Z AUTO 27010KT 10SM CLR 27/02 A3014 RMK AO2,M
MEV,2022-07-27 05:15,-119.7500,38.9963,1441.42,73.40,46.40,38.18,0.00,0.00,0.00,30.12,M,10.00,M,FEW,FEW,SCT,M,4100.00,4700.00,11000.00,M,M,M,M,M,M,M,M,73.40,KMEV 270515Z AUTO 00000KT 10SM FEW041 FEW047 SCT110 23/08 A3012 RMK AO2,M
BAM,2022-07-27 05:15,-116.8743,40.5990,1382.36,M,M,M,180.00,4.00,0.00,30.05,M,10.00,M,CLR,M,M,M,M,M,M,M,M,M,M,M,M,M,M,M,KBAM 270515Z AUTO 18004KT 10SM CLR A3005 RMK AO1,M
TMT,2022-07-27 05:15,-117.1971,39.4643,1749.34,M,M,M,210.00,9.00,0.00,30.18,M,10.00,M,CLR,M,M,M,M,M,M,M,M,M,M,M,M,M,M,M,KTMT 270515Z AUTO 21009KT 10SM CLR A3018 RMK AO2,M
HTH,2022-07-27 05:15,-118.6315,38.5448,1282.89,82.40,42.80,24.72,150.00,5.00,0.00,30.06,M,10.00,M,CLR,M,M,M,M,M,M,M,M,M,M,M,M,M,M,80.39,KHTH 270515Z AUTO 15005KT 10SM CLR 28/06 A3006 RMK A01,M
CXP,2022-07-27 05:15,-119.7326,39.1923,1431.00,78.80,42.80,27.81,0.00,0.00,0.00,30.12,M,10.00,M,CLR,M,M,M,M,M,M,M,M,M,M,M,M,M,M,78.80,KCXP 270515Z AUTO 00000KT 10SM CLR 26/06 A3012 RMK AO2,M
HTH,2022-07-27 05:35,-118.6315,38.5448,1282.89,80.60,42.80,26.22,170.00,4.00,0.00,30.07,M,10.00,M,CLR,M,M,M,M,M,M,M,M,M,M,M,M,M,M,79.30,KHTH 270535Z AUTO 17004KT 10SM CLR 27/06 A3007 RMK A01,M
BVU,2022-07-27 05:35,-114.8611,35.9475,671.00,M,M,M,M,M,0.00,M,M,M,M,M,M,M,M,M,M,M,M,M,M,M,M,M,M,M,M,KBVU 270535Z AUTO RMK AO2 PNO PWINO TSNO,M
CXP,2022-07-27 05:35,-119.7326,39.1923,1431.00,78.80,44.60,29.79,0.00,0.00,0.00,30.13,M,10.00,M,CLR,M,M,M,M,M,M,M,M,M,M,M,M,M,M,78.80,KCXP 270535Z AUTO 00000KT 10SM CLR 26/07 A3013 RMK AO2,M
RTS,2022-07-27 05:35,-119.8764,39.6682,1539.00,80.60,37.40,21.25,270.00,9.00,0.00,30.14,M,10.00,M,CLR,M,M,M,M,M,M,M,M,M,M,M,M,M,M,79.02,KRTS 270535Z AUTO 27009KT 10SM CLR 27/03 A3014 RMK AO2,M
MEV,2022-07-27 05:35,-119.7500,38.9963,1441.42,69.80,50.00,49.37,140.00,3.00,0.00,30.12,M,10.00,M,FEW,SCT,M,M,4400.00,5000.00,M,M,M,M,M,M,M,M,M,69.80,KMEV 270535Z AUTO 14003KT 10SM FEW044 SCT050 21/10 A3012 RMK AO2,M
BAM,2022-07-27 05:35,-116.8743,40.5990,1382.36,M,M,M,130.00,5.00,0.00,30.05,M,10.00,M,CLR,M,M,M,M,M,M,M,M,M,M,M,M,M,M,M,KBAM 270535Z AUTO 13005KT 10SM CLR A3005 RMK AO1,M
TMT,2022-07-27 05:35,-117.1971,39.4643,1749.34,M,M,M,200.00,7.00,0.00,30.18,M,10.00,M,CLR,M,M,M,M,M,M,M,M,M,M,M,M,M,M,M,KTMT 270535Z AUTO 20007KT 10SM CLR A3018 RMK AO2,M
VGT,2022-07-27 05:53,-115.1933,36.2111,667.00,91.00,61.00,36.80,170.00,5.00,0.00,29.92,1011.80,10.00,M,CLR,M,M,M,M,M,M,M,M,M,M,M,M,M,M,91.06,KVGT 270553Z AUTO 17005KT 10SM CLR 33/16 A2992 RMK AO2 SLP118 T03280161 10350 20322 51012,M
LOL,2022-07-27 05:53,-118.5701,40.0684,1192.43,84.00,34.00,16.63,120.00,10.00,0.00,29.99,1010.30,10.00,M,CLR,M,M,M,M,M,M,M,M,M,M,M,M,M,M,81.16,KLOL 270553Z AUTO 12010KT 10SM CLR 29/01 A2999 RMK AO2 SLP103 T02890011 10367 20256 51012,M
ELY,2022-07-27 05:53,-114.8453,39.2950,1909.00,64.00,48.00,55.99,180.00,10.00,0.00,30.21,1012.00,10.00,M,CLR,M,M,M,M,M,M,M,M,M,M,M,M,M,M,64.00,KELY 270553Z AUTO 18010KT 10SM CLR 18/09 A3021 RMK AO2 SLP120 T01780089 10294 20172 51012,M
DRA,2022-07-27 05:53,-116.0278,36.6206,1009.00,82.00,63.00,52.62,30.00,4.00,0.00,30.00,1010.60,10.00,M,CLR,M,M,M,M,M,M,M,M,M,M,M,M,M,M,83.17,KDRA 270553Z AUTO 03004KT 10SM CLR 28/17 A3000 RMK AO2 SLP106 T02780172 10328 20278 51011,M
P68,2022-07-27 05:53,-116.0056,39.6014,1993.00,71.00,34.00,25.49,230.00,7.00,0.00,30.16,1011.70,M,M,M,M,M,M,M,M,M,M,M,M,M,M,M,M,M,71.10,KP68 270553Z AUTO 23007KT 22/01 A3016 RMK AO1 SLP117 T02170011 10344 20183 51014,M
HTH,2022-07-27 05:55,-118.6315,38.5448,1282.89,80.60,42.80,26.22,150.00,5.00,0.00,30.06,M,10.00,M,CLR,M,M,M,M,M,M,M,M,M,M,M,M,M,M,79.30,KHTH 270555Z AUTO 15005KT 10SM CLR 27/06 A3006 RMK A01,M
TMT,2022-07-27 05:55,-117.1971,39.4643,1749.34,M,M,M,210.00,9.00,0.00,30.18,M,10.00,M,CLR,M,M,M,M,M,M,M,M,M,M,M,M,M,M,M,KTMT 270555Z AUTO 21009KT 10SM CLR A3018 RMK AO2,M
RTS,2022-07-27 05:55,-119.8764,39.6682,1539.00,78.80,37.40,22.54,320.00,4.00,0.00,30.15,M,10.00,M,CLR,M,M,M,M,M,M,M,M,M,M,M,M,M,M,78.80,KRTS 270555Z AUTO 32004KT 10SM CLR 26/03 A3015 RMK AO2,M
CXP,2022-07-27 05:55,-119.7326,39.1923,1431.00,77.00,44.60,31.62,0.00,0.00,0.00,30.13,M,10.00,M,CLR,M,M,M,M,M,M,M,M,M,M,M,M,M,M,77.00,KCXP 270555Z AUTO 00000KT 10SM CLR 25/07 A3013 RMK AO2,M
RNO,2022-07-27 05:55,-119.7711,39.4839,1341.00,84.00,41.00,21.90,110.00,4.00,0.00,30.09,1012.00,10.00,M,BKN,BKN,M,M,9500.00,16000.00,M,M,M,M,M,M,M,M,M,81.37,KRNO 270555Z 11004KT 10SM BKN095 BKN160 29/05 A3009 RMK AO2 SLP120 FU HZ ALQDS T02890050 10350 20289 51014,M
BVU,2022-07-27 05:55,-114.8611,35.9475,671.00,M,M,M,M,M,0.00,M,M,M,M,M,M,M,M,M,M,M,M,M,M,M,M,M,M,M,M,KBVU 270555Z AUTO RMK AO2 PNO PWINO TSNO,M
MEV,2022-07-27 05:55,-119.7500,38.9963,1441.42,68.00,48.20,49.10,140.00,4.00,0.00,30.12,M,10.00,M,FEW,SCT,SCT,M,4200.00,5000.00,5500.00,M,M,M,M,M,M,M,M,68.00,KMEV 270555Z AUTO 14004KT 10SM FEW042 SCT050 SCT055 20/09 A3012 RMK AO2,M
BAM,2022-07-27 05:55,-116.8743,40.5990,1382.36,M,M,M,180.00,5.00,0.00,30.05,M,10.00,M,CLR,M,M,M,M,M,M,M,M,M,M,M,M,M,M,M,KBAM 270555Z AUTO 18005KT 10SM CLR A3005 RMK AO1,M
EKO,2022-07-27 05:56,-115.7860,40.8242,1367.00,72.00,23.00,15.75,0.00,0.00,0.00,30.09,1012.30,10.00,M,CLR,M,M,M,M,M,M,M,M,M,M,M,M,M,M,72.00,KEKO 270556Z AUTO 00000KT 10SM CLR 22/M05 A3009 RMK AO2 SLP123 T02221050 10367 20222 51019,M
TPH,2022-07-27 05:56,-117.0904,38.0505,1654.00,78.00,44.00,29.91,130.00,5.00,0.00,30.17,1013.20,10.00,M,FEW,M,M,M,12000.00,M,M,M,M,M,M,M,M,M,M,78.10,KTPH 270556Z AUTO 13005KT 10SM FEW120 26/07 A3017 RMK AO2 SLP132 T02560067 10294 20250 51011,M
LAS,2022-07-27 05:56,-115.1634,36.0719,663.00,88.00,62.00,42.05,190.00,4.00,0.00,29.93,1010.50,10.00,M,FEW,FEW,OVC,M,8000.00,12000.00,18000.00,M,M,M,M,M,M,M,M,88.47,KLAS 270556Z 19004KT 10SM FEW080 FEW120 OVC180 31/17 A2993 RMK AO2 SLP105 FRQ LTGIC DSNT N CB DSNT N T03110167 10333 20311 51010,M
NFL,2022-07-27 05:56,-118.7010,39.4166,1199.00,81.00,39.00,22.33,260.00,5.00,0.00,30.02,1013.40,10.00,M,SCT,BKN,BKN,M,8000.00,12000.00,25000.00,M,M,M,M,M,M,M,M,79.33,KNFL 270556Z 26005KT 10SM SCT080 BKN120 BKN250 27/04 A3002 RMK AO2 SLP134 T02720039 10372 20272 51014,M
HND,2022-07-27 05:56,-115.1344,35.9729,742.79,86.00,64.00,47.91,200.00,8.00,0.00,29.97,1013.20,10.00,M,CLR,M,M,M,M,M,M,M,M,M,M,M,M,M,M,87.31,KHND 270556Z AUTO 20008KT 10SM CLR 30/18 A2997 RMK AO2 SLP132 T03000178 10328 20300 51010,M
WMC,2022-07-27 05:56,-117.8072,40.9019,1315.00,72.00,26.10,17.93,0.00,0.00,0.00,30.02,1010.80,10.00,M,CLR,M,M,M,M,M,M,M,M,M,M,M,M,M,M,72.00,KWMC 270556Z AUTO 00000KT 10SM CLR 22/M03 A3002 RMK AO2 SLP108 T02221033 10389 20222 51010,M
INS,2022-07-27 05:58,-115.6733,36.5872,955.00,83.50,55.20,37.92,0.00,0.00,0.00,29.99,1010.40,10.00,M,OVC,M,M,M,17000.00,M,M,M,M,M,M,M,M,M,M,82.51,KINS 270558Z AUTO 00000KT 10SM OVC170 29/13 A2999 RMK AO2 SLP104 T02860129 10323 20286 51010 $,M
LSV,2022-07-27 05:58,-115.0343,36.2362,570.00,87.30,64.60,46.94,50.00,3.00,0.00,29.90,1009.80,10.00,M,OVC,M,M,M,18000.00,M,M,M,M,M,M,M,M,M,M,88.91,KLSV 270558Z AUTO 05003KT 10SM OVC180 31/18 A2990 RMK AO2 SLP098 T03070181 10357 20307 52012 $,M
HTH,2022-07-27 06:15,-118.6315,38.5448,1282.89,78.80,42.80,27.81,0.00,0.00,0.00,30.06,M,10.00,M,CLR,M,M,M,M,M,M,M,M,M,M,M,M,M,M,78.80,KHTH 270615Z AUTO 00000KT 10SM CLR 26/06 A3006 RMK A01,M
TMT,2022-07-27 06:15,-117.1971,39.4643,1749.34,M,M,M,200.00,8.00,0.00,30.18,M,10.00,M,CLR,M,M,M,M,M,M,M,M,M,M,M,M,M,M,M,KTMT 270615Z AUTO 20008KT 10SM CLR A3018 RMK AO2,M
MEV,2022-07-27 06:15,-119.7500,38.9963,1441.42,68.00,50.00,52.51,90.00,4.00,0.00,30.12,M,10.00,M,SCT,SCT,SCT,M,3600.00,4500.00,5000.00,M,M,M,M,M,M,M,M,68.00,KMEV 270615Z AUTO 09004KT 10SM SCT036 SCT045 SCT050 20/10 A3012 RMK AO2,M
BAM,2022-07-27 06:15,-116.8743,40.5990,1382.36,M,M,M,150.00,5.00,0.00,30.06,M,10.00,M,CLR,M,M,M,M,M,M,M,M,M,M,M,M,M,M,M,KBAM 270615Z AUTO 15005KT 10SM CLR A3006 RMK AO1,M
CXP,2022-07-27 06:15,-119.7326,39.1923,1431.00,77.00,42.80,29.51,0.00,0.00,0.00,30.13,M,10.00,M,CLR,M,M,M,M,M,M,M,M,M,M,M,M,M,M,77.00,KCXP 270615Z AUTO 00000KT 10SM CLR 25/06 A3013 RMK AO2,M
RTS,2022-07-27 06:15,-119.8764,39.6682,1539.00,77.00,37.40,23.93,280.00,7.00,0.00,30.16,M,10.00,M,CLR,M,M,M,M,M,M,M,M,M,M,M,M,M,M,77.00,KRTS 270615Z AUTO 28007KT 10SM CLR 25/03 A3016 RMK AO2,M
BVU,2022-07-27 06:15,-114.8611,35.9475,671.00,M,M,M,M,M,0.00,M,M,M,M,M,M,M,M,M,M,M,M,M,M,M,M,M,M,M,M,KBVU 270615Z AUTO RMK AO2 PNO PWINO TSNO,M
CXP,2022-07-27 06:30,-119.7326,39.1923,1431.00,75.20,42.80,31.34,330.00,4.00,0.00,30.13,M,10.00,M,CLR,M,M,M,M,M,M,M,M,M,M,M,M,M,M,75.20,KCXP 270630Z AUTO 33004KT 10SM CLR 24/06 A3013 RMK AO2,M
BVU,2022-07-27 06:35,-114.8611,35.9475,671.00,M,M,M,M,M,0.00,M,M,M,M,M,M,M,M,M,M,M,M,M,M,M,M,M,M,M,M,KBVU 270635Z AUTO RMK AO2 PNO PWINO TSNO,M
RTS,2022-07-27 06:35,-119.8764,39.6682,1539.00,77.00,37.40,23.93,0.00,0.00,0.00,30.17,M,10.00,M,CLR,M,M,M,M,M,M,M,M,M,M,M,M,M,M,77.00,KRTS 270635Z AUTO 00000KT 10SM CLR 25/03 A3017 RMK AO2,M
MEV,2022-07-27 06:35,-119.7500,38.9963,1441.42,68.00,48.20,49.10,130.00,3.00,0.00,30.13,M,10.00,M,FEW,SCT,SCT,M,3500.00,4300.00,5000.00,M,M,M,M,M,M,M,M,68.00,KMEV 270635Z AUTO 13003KT 10SM FEW035 SCT043 SCT050 20/09 A3013 RMK AO2,M
BAM,2022-07-27 06:35,-116.8743,40.5990,1382.36,M,M,M,160.00,5.00,0.00,30.06,M,10.00,M,CLR,M,M,M,M,M,M,M,M,M,M,M,M,M,M,M,KBAM 270635Z AUTO 16005KT 10SM CLR A3006 RMK AO1,M
HTH,2022-07-27 06:35,-118.6315,38.5448,1282.89,78.80,41.00,25.95,140.00,3.00,0.00,30.07,M,10.00,M,CLR,M,M,M,M,M,M,M,M,M,M,M,M,M,M,78.80,KHTH 270635Z AUTO 14003KT 10SM CLR 26/05 A3007 RMK A01,M
TMT,2022-07-27 06:35,-117.1971,39.4643,1749.34,M,M,M,210.00,7.00,0.00,30.19,M,10.00,M,CLR,M,M,M,M,M,M,M,M,M,M,M,M,M,M,M,KTMT 270635Z AUTO 21007KT 10SM CLR A3019 RMK AO2,M
VGT,2022-07-27 06:53,-115.1933,36.2111,667.00,89.00,63.00,41.92,100.00,6.00,0.00,29.93,1012.30,10.00,M,CLR,M,M,M,M,M,M,M,M,M,M,M,M,M,M,89.99,KVGT 270653Z AUTO 10006KT 10SM CLR 32/17 A2993 RMK AO2 SLP123 T03170172,M
LOL,2022-07-27 06:53,-118.5701,40.0684,1192.43,85.00,33.00,15.59,110.00,7.00,0.00,30.01,1010.70,10.00,M,CLR,M,M,M,M,M,M,M,M,M,M,M,M,M,M,81.81,KLOL 270653Z AUTO 11007KT 10SM CLR 29/01 A3001 RMK AO2 SLP107 T02940006,M
DRA,2022-07-27 06:53,-116.0278,36.6206,1009.00,81.00,62.00,52.66,0.00,0.00,0.00,30.01,1010.90,10.00,M,CLR,M,M,M,M,M,M,M,M,M,M,M,M,M,M,82.06,KDRA 270653Z AUTO 00000KT 10SM CLR 27/17 A3001 RMK AO2 SLP109 T02720167,M
ELY,2022-07-27 06:53,-114.8453,39.2950,1909.00,68.00,49.00,50.40,230.00,9.00,0.00,30.23,1011.80,10.00,M,CLR,M,M,M,M,M,M,M,M,M,M,M,M,M,M,68.00,KELY 270653Z AUTO 23009KT 10SM CLR 20/09 A3023 RMK AO2 SLP118 T02000094 403170122,M
P68,2022-07-27 06:53,-116.0056,39.6014,1993.00,68.00,41.00,37.32,140.00,4.00,0.00,30.17,1012.20,M,M,M,M,M,M,M,M,M,M,M,M,M,M,M,M,M,68.00,KP68 270653Z AUTO 14004KT 20/05 A3017 RMK AO1 SLP122 T02000050,M
CXP,2022-07-27 06:55,-119.7326,39.1923,1431.00,73.40,46.40,38.18,0.00,0.00,0.00,30.14,M,10.00,M,CLR,M,M,M,M,M,M,M,M,M,M,M,M,M,M,73.40,KCXP 270655Z AUTO 00000KT 10SM CLR 23/08 A3014 RMK AO2,M
BAM,2022-07-27 06:55,-116.8743,40.5990,1382.36,M,M,M,150.00,4.00,0.00,30.06,M,10.00,M,CLR,M,M,M,M,M,M,M,M,M,M,M,M,M,M,M,KBAM 270655Z AUTO 15004KT 10SM CLR A3006 RMK AO1,M
RNO,2022-07-27 06:55,-119.7711,39.4839,1341.00,82.00,44.00,26.33,100.00,5.00,0.00,30.11,1012.80,10.00,M,BKN,M,M,M,16000.00,M,M,M,M,M,M,M,M,M,M,80.22,KRNO 270655Z 10005KT 10SM BKN160 28/07 A3011 RMK AO2 SLP128 FU HZ ALQDS T02780067,M
MEV,2022-07-27 06:55,-119.7500,38.9963,1441.42,66.20,46.40,48.83,180.00,4.00,0.00,30.13,M,10.00,M,FEW,SCT,SCT,M,4400.00,5000.00,6000.00,M,M,M,M,M,M,M,M,66.20,KMEV 270655Z AUTO 18004KT 10SM FEW044 SCT050 SCT060 19/08 A3013 RMK AO2,M
RTS,2022-07-27 06:55,-119.8764,39.6682,1539.00,75.20,37.40,25.40,0.00,0.00,0.00,30.17,M,10.00,M,CLR,M,M,M,M,M,M,M,M,M,M,M,M,M,M,75.20,KRTS 270655Z AUTO 00000KT 10SM CLR 24/03 A3017 RMK AO2,M
HTH,2022-07-27 06:55,-118.6315,38.5448,1282.89,77.00,41.00,27.53,0.00,0.00,0.00,30.07,M,10.00,M,CLR,M,M,M,M,M,M,M,M,M,M,M,M,M,M,77.00,KHTH 270655Z AUTO 00000KT 10SM CLR 25/05 A3007 RMK A01,M
BVU,2022-07-27 06:55,-114.8611,35.9475,671.00,M,M,M,M,M,0.00,M,M,M,M,M,M,M,M,M,M,M,M,M,M,M,M,M,M,M,M,KBVU 270655Z AUTO RMK AO2 PNO PWINO TSNO,M
TMT,2022-07-27 06:55,-117.1971,39.4643,1749.34,M,M,M,210.00,8.00,0.00,30.19,M,10.00,M,CLR,M,M,M,M,M,M,M,M,M,M,M,M,M,M,M,KTMT 270655Z AUTO 21008KT 10SM CLR A3019 RMK AO2,M
HND,2022-07-27 06:56,-115.1344,35.9729,742.79,86.00,64.00,47.91,190.00,6.00,0.00,29.97,1013.30,10.00,M,CLR,M,M,M,M,M,M,M,M,M,M,M,M,M,M,87.31,KHND 270656Z AUTO 19006KT 10SM CLR 30/18 A2997 RMK AO2 SLP133 T03000178 403390239,M
EKO,2022-07-27 06:56,-115.7860,40.8242,1367.00,69.00,26.10,19.79,0.00,0.00,0.00,30.10,1012.30,10.00,M,CLR,M,M,M,M,M,M,M,M,M,M,M,M,M,M,69.10,KEKO 270656Z AUTO 00000KT 10SM CLR 21/M03 A3010 RMK AO2 SLP123 T02061033,M
WMC,2022-07-27 06:56,-117.8072,40.9019,1315.00,69.00,23.00,17.39,0.00,0.00,0.00,30.03,1010.80,10.00,M,CLR,M,M,M,M,M,M,M,M,M,M,M,M,M,M,69.10,KWMC 270656Z AUTO 00000KT 10SM CLR 21/M05 A3003 RMK AO2 SLP108 T02061050,M
NFL,2022-07-27 06:56,-118.7010,39.4166,1199.00,82.00,41.00,23.37,250.00,7.00,0.00,30.03,1013.80,10.00,M,SCT,BKN,BKN,M,8000.00,12000.00,25000.00,M,M,M,M,M,M,M,M,80.04,KNFL 270656Z 25007KT 10SM SCT080 BKN120 BKN250 28/05 A3003 RMK AO2 SLP138 T02780050,M
TPH,2022-07-27 06:56,-117.0904,38.0505,1654.00,75.00,43.00,31.79,270.00,3.00,0.00,30.17,1013.20,10.00,M,CLR,M,M,M,M,M,M,M,M,M,M,M,M,M,M,75.00,KTPH 270656Z AUTO 27003KT 10SM CLR 24/06 A3017 RMK AO2 SLP132 T02390061,M
LAS,2022-07-27 06:56,-115.1634,36.0719,663.00,88.00,63.00,43.40,150.00,3.00,0.00,29.94,1010.90,10.00,M,FEW,BKN,OVC,M,12000.00,16000.00,20000.00,M,M,M,M,M,M,M,M,88.86,KLAS 270656Z 15003KT 10SM FEW120 BKN160 OVC200 31/17 A2994 RMK AO2 SLP109 T03110172,M
LSV,2022-07-27 06:58,-115.0343,36.2362,570.00,86.40,67.00,52.68,60.00,5.00,0.00,29.91,1010.10,10.00,M,OVC,M,M,M,18000.00,M,M,M,M,M,M,M,M,M,M,89.32,KLSV 270658Z AUTO 06005KT 10SM OVC180 30/20 A2991 RMK AO2 SLP101 T03020195 $,M
INS,2022-07-27 06:58,-115.6733,36.5872,955.00,81.00,56.30,42.80,0.00,0.00,0.00,30.00,1010.80,10.00,M,FEW,M,M,M,18000.00,M,M,M,M,M,M,M,M,M,M,80.93,KINS 270658Z AUTO 00000KT 10SM FEW180 27/14 A3000 RMK AO2 SLP108 T02720135 $,M
CXP,2022-07-27 07:10,-119.7326,39.1923,1431.00,75.20,44.60,33.57,0.00,0.00,0.00,30.14,M,10.00,M,CLR,M,M,M,M,M,M,M,M,M,M,M,M,M,M,75.20,KCXP 270710Z AUTO 00000KT 10SM CLR 24/07 A3014 RMK AO2,M
RTS,2022-07-27 07:15,-119.8764,39.6682,1539.00,73.40,35.60,25.13,0.00,0.00,0.00,30.18,M,10.00,M,CLR,M,M,M,M,M,M,M,M,M,M,M,M,M,M,73.40,KRTS 270715Z AUTO 00000KT 10SM CLR 23/02 A3018 RMK AO2,M
TMT,2022-07-27 07:15,-117.1971,39.4643,1749.34,M,M,M,210.00,8.00,0.00,30.19,M,10.00,M,CLR,M,M,M,M,M,M,M,M,M,M,M,M,M,M,M,KTMT 270715Z AUTO 21008KT 10SM CLR A3019 RMK AO2,M
HTH,2022-07-27 07:15,-118.6315,38.5448,1282.89,77.00,44.60,31.62,M,M,0.00,30.07,M,10.00,M,M,M,M,M,M,M,M,M,M,M,M,M,M,M,M,77.00,KHTH 270715Z AUTO 10SM 25/07 A3007 RMK A01,M
BAM,2022-07-27 07:15,-116.8743,40.5990,1382.36,M,M,M,0.00,0.00,0.00,30.07,M,10.00,M,CLR,M,M,M,M,M,M,M,M,M,M,M,M,M,M,M,KBAM 270715Z AUTO 00000KT 10SM CLR A3007 RMK AO1,M
MEV,2022-07-27 07:15,-119.7500,38.9963,1441.42,64.40,46.40,51.98,100.00,5.00,0.00,30.13,M,10.00,M,FEW,FEW,M,M,5000.00,5500.00,M,M,M,M,M,M,M,M,M,64.40,KMEV 270715Z AUTO 10005KT 10SM FEW050 FEW055 18/08 A3013 RMK AO2,M
BVU,2022-07-27 07:15,-114.8611,35.9475,671.00,M,M,M,M,M,0.00,M,M,M,M,M,M,M,M,M,M,M,M,M,M,M,M,M,M,M,M,KBVU 270715Z AUTO RMK AO2 PNO PWINO TSNO,M
BVU,2022-07-27 07:35,-114.8611,35.9475,671.00,M,M,M,M,M,0.00,M,M,M,M,M,M,M,M,M,M,M,M,M,M,M,M,M,M,M,M,KBVU 270735Z AUTO RMK AO2 PNO PWINO TSNO,M
CXP,2022-07-27 07:35,-119.7326,39.1923,1431.00,73.40,44.60,35.66,0.00,0.00,0.00,30.15,M,10.00,M,CLR,M,M,M,M,M,M,M,M,M,M,M,M,M,M,73.40,KCXP 270735Z AUTO 00000KT 10SM CLR 23/07 A3015 RMK AO2,M
RTS,2022-07-27 07:35,-119.8764,39.6682,1539.00,75.20,35.60,23.66,320.00,4.00,0.00,30.18,M,10.00,M,CLR,M,M,M,M,M,M,M,M,M,M,M,M,M,M,75.20,KRTS 270735Z AUTO 32004KT 10SM CLR 24/02 A3018 RMK AO2,M
MEV,2022-07-27 07:35,-119.7500,38.9963,1441.42,66.20,44.60,45.60,100.00,6.00,0.00,30.14,M,10.00,M,FEW,FEW,M,M,4800.00,5500.00,M,M,M,M,M,M,M,M,M,66.20,KMEV 270735Z AUTO 10006KT 10SM FEW048 FEW055 19/07 A3014 RMK AO2,M
BAM,2022-07-27 07:35,-116.8743,40.5990,1382.36,M,M,M,0.00,0.00,0.00,30.07,M,10.00,M,CLR,M,M,M,M,M,M,M,M,M,M,M,M,M,M,M,KBAM 270735Z AUTO 00000KT 10SM CLR A3007 RMK AO1,M
HTH,2022-07-27 07:35,-118.6315,38.5448,1282.89,77.00,42.80,29.51,210.00,3.00,0.00,30.07,M,10.00,M,M,M,M,M,M,M,M,M,M,M,M,M,M,M,M,77.00,KHTH 270735Z AUTO 21003KT 10SM 25/06 A3007 RMK A01,M
TMT,2022-07-27 07:35,-117.1971,39.4643,1749.34,M,M,M,210.00,7.00,0.00,30.19,M,10.00,M,CLR,M,M,M,M,M,M,M,M,M,M,M,M,M,M,M,KTMT 270735Z AUTO 21007KT 10SM CLR A3019 RMK AO2,M
DRA,2022-07-27 07:53,-116.0278,36.6206,1009.00,80.00,60.00,50.52,80.00,5.00,0.00,30.01,1010.70,10.00,M,CLR,M,M,M,M,M,M,M,M,M,M,M,M,M,M,80.94,KDRA 270753Z AUTO 08005KT 10SM CLR 27/16 A3001 RMK AO2 SLP107 T02670156 403330222,M
P68,2022-07-27 07:53,-116.0056,39.6014,1993.00,69.00,43.00,38.82,170.00,8.00,0.00,30.17,1011.60,M,M,M,M,M,M,M,M,M,M,M,M,M,M,M,M,M,69.10,KP68 270753Z AUTO 17008KT 21/06 A3017 RMK AO1 SLP116 T02060061 403440117,M
ELY,2022-07-27 07:53,-114.8453,39.2950,1909.00,68.00,50.00,52.51,220.00,11.00,0.00,30.23,1011.70,10.00,M,CLR,M,M,M,M,M,M,M,M,M,M,M,M,M,M,68.00,KELY 270753Z AUTO 22011KT 10SM CLR 20/10 A3023 RMK AO2 SLP117 T02000100,M
VGT,2022-07-27 07:53,-115.1933,36.2111,667.00,88.00,64.00,44.95,100.00,5.00,0.00,29.93,1012.10,10.00,M,CLR,M,M,M,M,M,M,M,M,M,M,M,M,M,M,89.34,KVGT 270753Z AUTO 10005KT 10SM CLR 31/18 A2993 RMK AO2 SLP121 T03110178 403560256,M
LOL,2022-07-27 07:53,-118.5701,40.0684,1192.43,76.00,35.00,22.66,40.00,3.00,0.00,30.01,1011.20,10.00,M,CLR,M,M,M,M,M,M,M,M,M,M,M,M,M,M,75.90,KLOL 270753Z AUTO 04003KT 10SM CLR 24/02 A3001 RMK AO2 SLP112 T02440017 403720167,M
TMT,2022-07-27 07:55,-117.1971,39.4643,1749.34,M,M,M,210.00,8.00,0.00,30.19,M,10.00,M,CLR,M,M,M,M,M,M,M,M,M,M,M,M,M,M,M,KTMT 270755Z AUTO 21008KT 10SM CLR A3019 RMK AO2,M
RNO,2022-07-27 07:55,-119.7711,39.4839,1341.00,82.00,48.00,30.51,280.00,6.00,0.00,30.10,1012.00,10.00,M,BKN,M,M,M,15000.00,M,M,M,M,M,M,M,M,M,M,80.53,KRNO 270755Z 28006KT 10SM BKN150 28/09 A3010 RMK AO2 SLP120 HZ ALQDS T02780089 403500211,M
HTH,2022-07-27 07:55,-118.6315,38.5448,1282.89,75.20,42.80,31.34,190.00,4.00,0.00,30.07,M,10.00,M,CLR,M,M,M,M,M,M,M,M,M,M,M,M,M,M,75.20,KHTH 270755Z AUTO 19004KT 10SM CLR 24/06 A3007 RMK A01,M
BAM,2022-07-27 07:55,-116.8743,40.5990,1382.36,M,M,M,140.00,4.00,0.00,30.07,M,10.00,M,CLR,M,M,M,M,M,M,M,M,M,M,M,M,M,M,M,KBAM 270755Z AUTO 14004KT 10SM CLR A3007 RMK AO1,M
MEV,2022-07-27 07:55,-119.7500,38.9963,1441.42,64.40,44.60,48.55,0.00,0.00,0.00,30.14,M,10.00,M,FEW,FEW,M,M,4800.00,5500.00,M,M,M,M,M,M,M,M,M,64.40,KMEV 270755Z AUTO 00000KT 10SM FEW048 FEW055 18/07 A3014 RMK AO2,M
RTS,2022-07-27 07:55,-119.8764,39.6682,1539.00,73.40,37.40,26.98,320.00,7.00,0.00,30.17,M,10.00,M,CLR,M,M,M,M,M,M,M,M,M,M,M,M,M,M,73.40,KRTS 270755Z AUTO 32007KT 10SM CLR 23/03 A3017 RMK AO2,M
BVU,2022-07-27 07:55,-114.8611,35.9475,671.00,M,M,M,M,M,0.00,M,M,M,M,M,M,M,M,M,M,M,M,M,M,M,M,M,M,M,M,KBVU 270755Z AUTO RMK AO2 PNO PWINO TSNO,M
CXP,2022-07-27 07:55,-119.7326,39.1923,1431.00,71.60,44.60,37.89,0.00,0.00,0.00,30.15,M,10.00,M,CLR,M,M,M,M,M,M,M,M,M,M,M,M,M,M,71.60,KCXP 270755Z AUTO 00000KT 10SM CLR 22/07 A3015 RMK AO2,M
NFL,2022-07-27 07:56,-118.7010,39.4166,1199.00,84.00,38.00,19.41,290.00,7.00,0.00,30.03,1013.70,10.00,M,CLR,M,M,M,M,M,M,M,M,M,M,M,M,M,M,81.25,KNFL 270756Z AUTO 29007KT 10SM CLR 29/03 A3003 RMK AO2 SLP137 T02890033 403720222,M
LAS,2022-07-27 07:56,-115.1634,36.0719,663.00,87.00,63.00,44.66,190.00,3.00,0.00,29.93,1010.60,10.00,M,FEW,BKN,OVC,M,15000.00,18000.00,22000.00,M,M,M,M,M,M,M,M,87.96,KLAS 270756Z 19003KT 10SM FEW150 BKN180 OVC220 31/17 A2993 RMK AO2 SLP106 T03060172 403440250,M
TPH,2022-07-27 07:56,-117.0904,38.0505,1654.00,73.00,43.00,34.00,0.00,0.00,0.00,30.18,1013.70,10.00,M,CLR,M,M,M,M,M,M,M,M,M,M,M,M,M,M,73.00,KTPH 270756Z AUTO 00000KT 10SM CLR 23/06 A3018 RMK AO2 SLP137 T02280061 403000200,M
EKO,2022-07-27 07:56,-115.7860,40.8242,1367.00,65.00,27.00,23.75,0.00,0.00,0.00,30.10,1012.50,10.00,M,CLR,M,M,M,M,M,M,M,M,M,M,M,M,M,M,64.90,KEKO 270756Z AUTO 00000KT 10SM CLR 18/M03 A3010 RMK AO2 SLP125 T01831028 403720133,M
HND,2022-07-27 07:56,-115.1344,35.9729,742.79,85.00,64.00,49.62,180.00,5.00,0.00,29.98,1013.50,10.00,M,CLR,M,M,M,M,M,M,M,M,M,M,M,M,M,M,86.23,KHND 270756Z AUTO 18005KT 10SM CLR 29/18 A2998 RMK AO2 SLP135 T02940178,M
LSV,2022-07-27 07:58,-115.0343,36.2362,570.00,85.60,66.60,53.12,70.00,4.00,0.00,29.91,1010.10,10.00,M,OVC,M,M,M,18000.00,M,M,M,M,M,M,M,M,M,M,88.18,KLSV 270758Z AUTO 07004KT 10SM OVC180 30/19 A2991 RMK AO2 SLP101 T02980192 403760245 $,M
INS,2022-07-27 07:58,-115.6733,36.5872,955.00,80.20,56.30,43.93,270.00,6.00,0.00,30.00,1010.80,10.00,M,BKN,M,M,M,15000.00,M,M,M,M,M,M,M,M,M,M,80.41,KINS 270758Z AUTO 27006KT 10SM BKN150 27/14 A3000 RMK AO2 SLP108 T02680135 403250241 $,M
HTH,2022-07-27 08:15,-118.6315,38.5448,1282.89,75.20,42.80,31.34,150.00,6.00,0.00,30.07,M,10.00,M,CLR,M,M,M,M,M,M,M,M,M,M,M,M,M,M,75.20,KHTH 270815Z AUTO 15006KT 10SM CLR 24/06 A3007 RMK A01,M
BVU,2022-07-27 08:15,-114.8611,35.9475,671.00,M,M,M,M,M,0.00,M,M,M,M,M,M,M,M,M,M,M,M,M,M,M,M,M,M,M,M,KBVU 270815Z AUTO RMK AO2 PNO PWINO TSNO,M
RTS,2022-07-27 08:15,-119.8764,39.6682,1539.00,75.20,39.20,27.26,330.00,7.00,0.00,30.16,M,10.00,M,CLR,M,M,M,M,M,M,M,M,M,M,M,M,M,M,75.20,KRTS 270815Z AUTO 33007KT 10SM CLR 24/04 A3016 RMK AO2,M
MEV,2022-07-27 08:15,-119.7500,38.9963,1441.42,64.40,44.60,48.55,140.00,4.00,0.00,30.14,M,10.00,M,FEW,FEW,FEW,M,3900.00,4500.00,5000.00,M,M,M,M,M,M,M,M,64.40,KMEV 270815Z AUTO 14004KT 10SM FEW039 FEW045 FEW050 18/07 A3014 RMK AO2,M
BAM,2022-07-27 08:15,-116.8743,40.5990,1382.36,M,M,M,130.00,7.00,0.00,30.07,M,10.00,M,CLR,M,M,M,M,M,M,M,M,M,M,M,M,M,M,M,KBAM 270815Z AUTO 13007KT 10SM CLR A3007 RMK AO1,M
TMT,2022-07-27 08:15,-117.1971,39.4643,1749.34,M,M,M,190.00,5.00,0.00,30.19,M,10.00,M,CLR,M,M,M,M,M,M,M,M,M,M,M,M,M,M,M,KTMT 270815Z AUTO 19005KT 10SM CLR A3019 RMK AO2,M
CXP,2022-07-27 08:15,-119.7326,39.1923,1431.00,73.40,42.80,33.29,0.00,0.00,0.00,30.15,M,10.00,M,CLR,M,M,M,M,M,M,M,M,M,M,M,M,M,M,73.40,KCXP 270815Z AUTO 00000KT 10SM CLR 23/06 A3015 RMK AO2,M
HTH,2022-07-27 08:35,-118.6315,38.5448,1282.89,75.20,42.80,31.34,160.00,6.00,0.00,30.07,M,10.00,M,CLR,M,M,M,M,M,M,M,M,M,M,M,M,M,M,75.20,KHTH 270835Z AUTO 16006KT 10SM CLR 24/06 A3007 RMK A01,M
CXP,2022-07-27 08:35,-119.7326,39.1923,1431.00,73.40,42.80,33.29,0.00,0.00,0.00,30.14,M,10.00,M,CLR,M,M,M,M,M,M,M,M,M,M,M,M,M,M,73.40,KCXP 270835Z AUTO 00000KT 10SM CLR 23/06 A3014 RMK AO2,M
RTS,2022-07-27 08:35,-119.8764,39.6682,1539.00,73.40,37.40,26.98,340.00,7.00,0.00,30.16,M,10.00,M,CLR,M,M,M,M,M,M,M,M,M,M,M,M,M,M,73.40,KRTS 270835Z AUTO 34007KT 10SM CLR 23/03 A3016 RMK AO2,M
TMT,2022-07-27 08:35,-117.1971,39.4643,1749.34,M,M,M,210.00,4.00,0.00,30.19,M,10.00,M,CLR,M,M,M,M,M,M,M,M,M,M,M,M,M,M,M,KTMT 270835Z AUTO 21004KT 10SM CLR A3019 RMK AO2,M
MEV,2022-07-27 08:35,-119.7500,38.9963,1441.42,66.20,46.40,48.83,0.00,0.00,0.00,30.13,M,10.00,M,FEW,FEW,FEW,M,4300.00,4900.00,5500.00,M,M,M,M,M,M,M,M,66.20,KMEV 270835Z AUTO 00000KT 10SM FEW043 FEW049 FEW055 19/08 A3013 RMK AO2,M
BAM,2022-07-27 08:35,-116.8743,40.5990,1382.36,M,M,M,110.00,3.00,0.00,30.07,M,10.00,M,CLR,M,M,M,M,M,M,M,M,M,M,M,M,M,M,M,KBAM 270835Z AUTO 11003KT 10SM CLR A3007 RMK AO1,M
BVU,2022-07-27 08:35,-114.8611,35.9475,671.00,M,M,M,M,M,0.00,M,M,M,M,M,M,M,M,M,M,M,M,M,M,M,M,M,M,M,M,KBVU 270835Z AUTO RMK AO2 PNO PWINO TSNO,M
DRA,2022-07-27 08:53,-116.0278,36.6206,1009.00,78.00,64.00,61.92,80.00,4.00,0.00,30.00,1010.60,10.00,M,CLR,M,M,M,M,M,M,M,M,M,M,M,M,M,M,78.10,KDRA 270853Z AUTO 08004KT 10SM CLR 26/18 A3000 RMK AO2 SLP106 T02560178 50000,M
LOL,2022-07-27 08:53,-118.5701,40.0684,1192.43,72.00,35.00,25.83,190.00,5.00,0.00,30.01,1011.30,10.00,M,CLR,M,M,M,M,M,M,M,M,M,M,M,M,M,M,72.00,KLOL 270853Z AUTO 19005KT 10SM CLR 22/02 A3001 RMK AO2 SLP113 T02220017 50006,M
ELY,2022-07-27 08:53,-114.8453,39.2950,1909.00,63.00,49.00,59.98,0.00,0.00,0.00,30.23,1012.10,10.00,M,CLR,M,M,M,M,M,M,M,M,M,M,M,M,M,M,63.00,KELY 270853Z AUTO 00000KT 10SM CLR 17/09 A3023 RMK AO2 SLP121 T01720094 50005,M
P68,2022-07-27 08:53,-116.0056,39.6014,1993.00,66.00,40.00,38.32,160.00,11.00,0.00,30.18,1012.10,M,M,M,M,M,M,M,M,M,M,M,M,M,M,M,M,M,66.00,KP68 270853Z AUTO 16011KT 19/04 A3018 RMK AO1 SLP121 T01890044 52004,M
VGT,2022-07-27 08:53,-115.1933,36.2111,667.00,87.00,64.00,46.26,110.00,3.00,0.00,29.93,1011.90,10.00,M,CLR,M,M,M,M,M,M,M,M,M,M,M,M,M,M,88.42,KVGT 270853Z AUTO 11003KT 10SM CLR 31/18 A2993 RMK AO2 SLP119 T03060178 50002,M
BVU,2022-07-27 08:55,-114.8611,35.9475,671.00,M,M,M,M,M,0.00,M,M,M,M,M,M,M,M,M,M,M,M,M,M,M,M,M,M,M,M,KBVU 270855Z AUTO RMK AO2 PNO PWINO TSNO,M
MEV,2022-07-27 08:55,-119.7500,38.9963,1441.42,62.60,44.60,51.72,130.00,6.00,0.00,30.13,M,10.00,M,FEW,FEW,FEW,M,3800.00,4700.00,5500.00,M,M,M,M,M,M,M,M,62.60,KMEV 270855Z AUTO 13006KT 10SM FEW038 FEW047 FEW055 17/07 A3013 RMK AO2,M
RNO,2022-07-27 08:55,-119.7711,39.4839,1341.00,81.00,47.00,30.24,280.00,4.00,0.00,30.10,1012.00,10.00,M,BKN,M,M,M,15000.00,M,M,M,M,M,M,M,M,M,M,79.83,KRNO 270855Z 28004KT 10SM BKN150 27/08 A3010 RMK AO2 SLP120 HZ ALQDS T02720083 51003,M
BAM,2022-07-27 08:55,-116.8743,40.5990,1382.36,M,M,M,90.00,4.00,0.00,30.07,M,10.00,M,CLR,M,M,M,M,M,M,M,M,M,M,M,M,M,M,M,KBAM 270855Z AUTO 09004KT 10SM CLR A3007 RMK AO1,M
RTS,2022-07-27 08:55,-119.8764,39.6682,1539.00,73.40,41.00,31.05,330.00,6.00,0.00,30.16,M,10.00,M,CLR,M,M,M,M,M,M,M,M,M,M,M,M,M,M,73.40,KRTS 270855Z AUTO 33006KT 10SM CLR 23/05 A3016 RMK AO2,M
TMT,2022-07-27 08:55,-117.1971,39.4643,1749.34,M,M,M,210.00,6.00,0.00,30.19,M,10.00,M,CLR,M,M,M,M,M,M,M,M,M,M,M,M,M,M,M,KTMT 270855Z AUTO 21006KT 10SM CLR A3019 RMK AO2,M
HTH,2022-07-27 08:55,-118.6315,38.5448,1282.89,77.00,42.80,29.51,170.00,4.00,0.00,30.07,M,10.00,M,CLR,M,M,M,M,M,M,M,M,M,M,M,M,M,M,77.00,KHTH 270855Z AUTO 17004KT 10SM CLR 25/06 A3007 RMK A01,M
CXP,2022-07-27 08:55,-119.7326,39.1923,1431.00,71.60,42.80,35.37,0.00,0.00,0.00,30.14,M,10.00,M,CLR,M,M,M,M,M,M,M,M,M,M,M,M,M,M,71.60,KCXP 270855Z AUTO 00000KT 10SM CLR 22/06 A3014 RMK AO2,M
LAS,2022-07-27 08:56,-115.1634,36.0719,663.00,86.00,63.00,46.25,140.00,3.00,0.00,29.93,1010.50,10.00,M,FEW,OVC,M,M,15000.00,19000.00,M,M,M,M,M,M,M,M,M,86.88,KLAS 270856Z 14003KT 10SM FEW150 OVC190 30/17 A2993 RMK AO2 SLP105 T03000172 50000,M
HND,2022-07-27 08:56,-115.1344,35.9729,742.79,84.00,64.00,51.08,160.00,10.00,0.00,29.97,1013.20,10.00,M,CLR,M,M,M,M,M,M,M,M,M,M,M,M,M,M,85.36,KHND 270856Z AUTO 16010KT 10SM CLR 29/18 A2997 RMK AO2 SLP132 T02890178 58001,M
NFL,2022-07-27 08:56,-118.7010,39.4166,1199.00,78.00,40.00,25.44,0.00,0.00,0.00,30.02,1013.60,10.00,M,CLR,M,M,M,M,M,M,M,M,M,M,M,M,M,M,78.10,KNFL 270856Z AUTO 00000KT 10SM CLR 26/04 A3002 RMK AO2 SLP136 T02560044 50002,M
EKO,2022-07-27 08:56,-115.7860,40.8242,1367.00,61.00,28.90,29.45,0.00,0.00,0.00,30.11,1013.00,10.00,M,CLR,M,M,M,M,M,M,M,M,M,M,M,M,M,M,61.00,KEKO 270856Z AUTO 00000KT 10SM CLR 16/M02 A3011 RMK AO2 SLP130 T01611017 52006,M
TPH,2022-07-27 08:56,-117.0904,38.0505,1654.00,71.00,43.00,36.25,0.00,0.00,0.00,30.18,1013.50,10.00,M,CLR,M,M,M,M,M,M,M,M,M,M,M,M,M,M,71.10,KTPH 270856Z AUTO 00000KT 10SM CLR 22/06 A3018 RMK AO2 SLP135 T02170061 53001,M
LSV,2022-07-27 08:58,-115.0343,36.2362,570.00,84.20,67.30,56.93,60.00,8.00,0.00,29.90,1009.80,10.00,M,OVC,M,M,M,19000.00,M,M,M,M,M,M,M,M,M,M,87.04,KLSV 270858Z AUTO 06008KT 10SM OVC190 29/20 A2990 RMK AO2 SLP098 T02900196 50001 $,M
INS,2022-07-27 08:58,-115.6733,36.5872,955.00,79.00,57.60,47.89,270.00,5.00,0.00,29.99,1010.40,10.00,M,BKN,OVC,M,M,15000.00,17000.00,M,M,M,M,M,M,M,M,M,79.00,KINS 270858Z AUTO 27005KT 10SM BKN150 OVC170 26/14 A2999 RMK AO2 SLP104 T02610142 58000 $,M
MEV,2022-07-27 09:15,-119.7500,38.9963,1441.42,62.60,44.60,51.72,100.00,4.00,0.00,30.13,M,10.00,M,FEW,M,M,M,4600.00,M,M,M,M,M,M,M,M,M,M,62.60,KMEV 270915Z AUTO 10004KT 10SM FEW046 17/07 A3013 RMK AO2,M
CXP,2022-07-27 09:15,-119.7326,39.1923,1431.00,71.60,44.60,37.89,0.00,0.00,0.00,30.14,M,10.00,M,CLR,M,M,M,M,M,M,M,M,M,M,M,M,M,M,71.60,KCXP 270915Z AUTO 00000KT 10SM CLR 22/07 A3014 RMK AO2,M
BVU,2022-07-27 09:15,-114.8611,35.9475,671.00,M,M,M,M,M,0.00,M,M,M,M,M,M,M,M,M,M,M,M,M,M,M,M,M,M,M,M,KBVU 270915Z AUTO RMK AO2 PNO PWINO TSNO,M
RTS,2022-07-27 09:15,-119.8764,39.6682,1539.00,73.40,41.00,31.05,280.00,4.00,0.00,30.16,M,10.00,M,CLR,M,M,M,M,M,M,M,M,M,M,M,M,M,M,73.40,KRTS 270915Z AUTO 28004KT 10SM CLR 23/05 A3016 RMK AO2,M
HTH,2022-07-27 09:15,-118.6315,38.5448,1282.89,77.00,42.80,29.51,180.00,5.00,0.00,30.07,M,10.00,M,CLR,M,M,M,M,M,M,M,M,M,M,M,M,M,M,77.00,KHTH 270915Z AUTO 18005KT 10SM CLR 25/06 A3007 RMK A01,M
TMT,2022-07-27 09:15,-117.1971,39.4643,1749.34,M,M,M,190.00,8.00,0.00,30.19,M,10.00,M,CLR,M,M,M,M,M,M,M,M,M,M,M,M,M,M,M,KTMT 270915Z AUTO 19008KT 10SM CLR A3019 RMK AO2,M
BAM,2022-07-27 09:20,-116.8743,40.5990,1382.36,M,M,M,160.00,4.00,0.00,30.07,M,10.00,M,CLR,M,M,M,M,M,M,M,M,M,M,M,M,M,M,M,KBAM 270920Z AUTO 16004KT 10SM CLR A3007 RMK AO1,M
TMT,2022-07-27 09:35,-117.1971,39.4643,1749.34,M,M,M,280.00,4.00,0.00,30.19,M,7.00,M,CLR,M,M,M,M,M,M,M,M,M,M,M,M,M,M,M,KTMT 270935Z AUTO 28004KT 7SM CLR A3019 RMK AO2,M
HTH,2022-07-27 09:35,-118.6315,38.5448,1282.89,78.80,41.00,25.95,0.00,0.00,0.00,30.07,M,10.00,M,CLR,M,M,M,M,M,M,M,M,M,M,M,M,M,M,78.80,KHTH 270935Z AUTO 00000KT 10SM CLR 26/05 A3007 RMK A01,M
CXP,2022-07-27 09:35,-119.7326,39.1923,1431.00,71.60,42.80,35.37,0.00,0.00,0.00,30.14,M,10.00,M,CLR,M,M,M,M,M,M,M,M,M,M,M,M,M,M,71.60,KCXP 270935Z AUTO 00000KT 10SM CLR 22/06 A3014 RMK AO2,M
BVU,2022-07-27 09:35,-114.8611,35.9475,671.00,M,M,M,M,M,0.00,M,M,M,M,M,M,M,M,M,M,M,M,M,M,M,M,M,M,M,M,KBVU 270935Z AUTO RMK AO2 PNO PWINO TSNO,M
MEV,2022-07-27 09:35,-119.7500,38.9963,1441.42,64.40,42.80,45.32,120.00,6.00,0.00,30.13,M,10.00,M,FEW,FEW,M,M,4400.00,5000.00,M,M,M,M,M,M,M,M,M,64.40,KMEV 270935Z AUTO 12006KT 10SM FEW044 FEW050 18/06 A3013 RMK AO2,M
BAM,2022-07-27 09:35,-116.8743,40.5990,1382.36,M,M,M,0.00,0.00,0.00,30.07,M,10.00,M,CLR,M,M,M,M,M,M,M,M,M,M,M,M,M,M,M,KBAM 270935Z AUTO 00000KT 10SM CLR A3007 RMK AO1,M
RTS,2022-07-27 09:35,-119.8764,39.6682,1539.00,73.40,41.00,31.05,M,4.00,0.00,30.17,M,10.00,M,CLR,M,M,M,M,M,M,M,M,M,M,M,M,M,M,73.40,KRTS 270935Z AUTO VRB04KT 10SM CLR 23/05 A3017 RMK AO2,M
DRA,2022-07-27 09:53,-116.0278,36.6206,1009.00,78.00,64.00,61.92,30.00,3.00,0.00,29.99,1010.50,10.00,M,CLR,M,M,M,M,M,M,M,M,M,M,M,M,M,M,78.10,KDRA 270953Z AUTO 03003KT 10SM CLR 26/18 A2999 RMK AO2 SLP105 T02560178,M
VGT,2022-07-27 09:53,-115.1933,36.2111,667.00,84.00,65.00,52.71,60.00,5.00,0.00,29.92,1011.90,10.00,M,CLR,M,M,M,M,M,M,M,M,M,M,M,M,M,M,85.72,KVGT 270953Z AUTO 06005KT 10SM CLR 29/18 A2992 RMK AO2 SLP119 T02890183,M
ELY,2022-07-27 09:53,-114.8453,39.2950,1909.00,57.00,47.00,68.90,200.00,4.00,0.00,30.22,1012.70,10.00,M,CLR,M,M,M,M,M,M,M,M,M,M,M,M,M,M,57.00,KELY 270953Z AUTO 20004KT 10SM CLR 14/08 A3022 RMK AO2 SLP127 T01390083,M
P68,2022-07-27 09:53,-116.0056,39.6014,1993.00,62.00,39.00,42.41,190.00,6.00,0.00,30.18,1012.30,M,M,M,M,M,M,M,M,M,M,M,M,M,M,M,M,M,62.10,KP68 270953Z AUTO 19006KT 17/04 A3018 RMK AO1 SLP123 T01670039,M
LOL,2022-07-27 09:53,-118.5701,40.0684,1192.43,70.00,37.00,29.81,0.00,0.00,0.00,30.02,1011.50,10.00,M,CLR,M,M,M,M,M,M,M,M,M,M,M,M,M,M,70.00,KLOL 270953Z AUTO 00000KT 10SM CLR 21/03 A3002 RMK AO2 SLP115 T02110028,M
TMT,2022-07-27 09:55,-117.1971,39.4643,1749.34,M,M,M,220.00,3.00,0.00,30.19,M,10.00,M,CLR,M,M,M,M,M,M,M,M,M,M,M,M,M,M,M,KTMT 270955Z AUTO 22003KT 10SM CLR A3019 RMK AO2,M
MEV,2022-07-27 09:55,-119.7500,38.9963,1441.42,64.40,42.80,45.32,130.00,5.00,0.00,30.13,M,10.00,M,SCT,M,M,M,4900.00,M,M,M,M,M,M,M,M,M,M,64.40,KMEV 270955Z AUTO 13005KT 10SM SCT049 18/06 A3013 RMK AO2,M
BAM,2022-07-27 09:55,-116.8743,40.5990,1382.36,M,M,M,0.00,0.00,0.00,30.08,M,10.00,M,CLR,M,M,M,M,M,M,M,M,M,M,M,M,M,M,M,KBAM 270955Z AUTO 00000KT 10SM CLR A3008 RMK AO1,M
RTS,2022-07-27 09:55,-119.8764,39.6682,1539.00,73.40,41.00,31.05,290.00,5.00,0.00,30.17,M,10.00,M,FEW,M,M,M,11000.00,M,M,M,M,M,M,M,M,M,M,73.40,KRTS 270955Z AUTO 29005KT 10SM FEW110 23/05 A3017 RMK AO2,M
RNO,2022-07-27 09:55,-119.7711,39.4839,1341.00,80.00,45.00,28.99,300.00,6.00,0.00,30.10,1012.30,10.00,M,BKN,M,M,M,16000.00,M,M,M,M,M,M,M,M,M,M,79.18,KRNO 270955Z 30006KT 10SM BKN160 27/07 A3010 RMK AO2 SLP123 HZ ALQDS T02670072,M
BVU,2022-07-27 09:55,-114.8611,35.9475,671.00,M,M,M,M,M,0.00,M,M,M,M,M,M,M,M,M,M,M,M,M,M,M,M,M,M,M,M,KBVU 270955Z AUTO RMK AO2 PNO PWINO TSNO,M
CXP,2022-07-27 09:55,-119.7326,39.1923,1431.00,71.60,44.60,37.89,0.00,0.00,0.00,30.14,M,10.00,M,CLR,M,M,M,M,M,M,M,M,M,M,M,M,M,M,71.60,KCXP 270955Z AUTO 00000KT 10SM CLR 22/07 A3014 RMK AO2,M
HTH,2022-07-27 09:55,-118.6315,38.5448,1282.89,77.00,42.80,29.51,0.00,0.00,0.00,30.07,M,10.00,M,CLR,M,M,M,M,M,M,M,M,M,M,M,M,M,M,77.00,KHTH 270955Z AUTO 00000KT 10SM CLR 25/06 A3007 RMK A01,M
LAS,2022-07-27 09:56,-115.1634,36.0719,663.00,85.00,63.00,47.91,160.00,3.00,0.00,29.93,1010.40,10.00,M,FEW,BKN,M,M,15000.00,19000.00,M,M,M,M,M,M,M,M,M,85.83,KLAS 270956Z 16003KT 10SM FEW150 BKN190 29/17 A2993 RMK AO2 SLP104 T02940172,M
EKO,2022-07-27 09:56,-115.7860,40.8242,1367.00,60.00,26.10,27.10,0.00,0.00,0.00,30.11,1013.20,10.00,M,CLR,M,M,M,M,M,M,M,M,M,M,M,M,M,M,60.10,KEKO 270956Z AUTO 00000KT 10SM CLR 16/M03 A3011 RMK AO2 SLP132 T01561033,M
NFL,2022-07-27 09:56,-118.7010,39.4166,1199.00,75.00,42.00,30.71,200.00,4.00,0.00,30.03,1013.70,10.00,M,CLR,M,M,M,M,M,M,M,M,M,M,M,M,M,M,75.00,KNFL 270956Z AUTO 20004KT 10SM CLR 24/06 A3003 RMK AO2 SLP137 T02390056,M
HND,2022-07-27 09:56,-115.1344,35.9729,742.79,82.00,63.00,52.62,190.00,4.00,0.00,29.96,1013.20,10.00,M,CLR,M,M,M,M,M,M,M,M,M,M,M,M,M,M,83.17,KHND 270956Z AUTO 19004KT 10SM CLR 28/17 A2996 RMK AO2 SLP132 T02780172,M
TPH,2022-07-27 09:56,-117.0904,38.0505,1654.00,67.00,41.00,38.76,340.00,5.00,0.00,30.17,1013.60,10.00,M,CLR,M,M,M,M,M,M,M,M,M,M,M,M,M,M,66.90,KTPH 270956Z AUTO 34005KT 10SM CLR 19/05 A3017 RMK AO2 SLP136 T01940050,M
LSV,2022-07-27 09:58,-115.0343,36.2362,570.00,82.40,67.50,60.75,60.00,9.00,0.00,29.90,1009.80,10.00,M,SCT,M,M,M,19000.00,M,M,M,M,M,M,M,M,M,M,85.16,KLSV 270958Z AUTO 06009KT 10SM SCT190 28/20 A2990 RMK AO2 SLP098 T02800197 $,M
INS,2022-07-27 09:58,-115.6733,36.5872,955.00,79.50,58.00,47.97,0.00,0.00,0.00,29.99,1010.40,10.00,M,OVC,M,M,M,12000.00,M,M,M,M,M,M,M,M,M,M,79.50,KINS 270958Z AUTO 00000KT 10SM OVC120 26/15 A2999 RMK AO2 SLP104 T02640145 $,M
RTS,2022-07-27 10:15,-119.8764,39.6682,1539.00,71.60,41.00,33.00,310.00,5.00,0.00,30.17,M,10.00,M,FEW,M,M,M,11000.00,M,M,M,M,M,M,M,M,M,M,71.60,KRTS 271015Z AUTO 31005KT 10SM FEW110 22/05 A3017 RMK AO2,M
MEV,2022-07-27 10:15,-119.7500,38.9963,1441.42,62.60,46.40,55.37,140.00,3.00,0.00,30.13,M,10.00,M,FEW,SCT,M,M,4300.00,5000.00,M,M,M,M,M,M,M,M,M,62.60,KMEV 271015Z AUTO 14003KT 10SM FEW043 SCT050 17/08 A3013 RMK AO2,M
BAM,2022-07-27 10:15,-116.8743,40.5990,1382.36,M,M,M,230.00,3.00,0.00,30.08,M,10.00,M,CLR,M,M,M,M,M,M,M,M,M,M,M,M,M,M,M,KBAM 271015Z AUTO 23003KT 10SM CLR A3008 RMK AO1,M
HTH,2022-07-27 10:15,-118.6315,38.5448,1282.89,77.00,42.80,29.51,0.00,0.00,0.00,30.07,M,10.00,M,CLR,M,M,M,M,M,M,M,M,M,M,M,M,M,M,77.00,KHTH 271015Z AUTO 00000KT 10SM CLR 25/06 A3007 RMK A01,M
TMT,2022-07-27 10:15,-117.1971,39.4643,1749.34,M,M,M,170.00,3.00,0.00,30.19,M,10.00,M,CLR,M,M,M,M,M,M,M,M,M,M,M,M,M,M,M,KTMT 271015Z AUTO 17003KT 10SM CLR A3019 RMK AO2,M
BVU,2022-07-27 10:15,-114.8611,35.9475,671.00,M,M,M,M,M,0.00,M,M,M,M,M,M,M,M,M,M,M,M,M,M,M,M,M,M,M,M,KBVU 271015Z AUTO RMK AO2 PNO PWINO TSNO,M
CXP,2022-07-27 10:15,-119.7326,39.1923,1431.00,73.40,44.60,35.66,270.00,4.00,0.00,30.15,M,10.00,M,CLR,M,M,M,M,M,M,M,M,M,M,M,M,M,M,73.40,KCXP 271015Z AUTO 27004KT 10SM CLR 23/07 A3015 RMK AO2,M
RTS,2022-07-27 10:35,-119.8764,39.6682,1539.00,75.20,44.60,33.57,240.00,4.00,0.00,30.16,M,10.00,M,FEW,M,M,M,12000.00,M,M,M,M,M,M,M,M,M,M,75.20,KRTS 271035Z AUTO 24004KT 10SM FEW120 24/07 A3016 RMK AO2,M
TMT,2022-07-27 10:35,-117.1971,39.4643,1749.34,57.40,38.30,48.80,0.00,0.00,0.00,30.20,M,10.00,M,CLR,M,M,M,M,M,M,M,M,M,M,M,M,M,M,57.40,KTMT 271035Z AUTO 00000KT 10SM CLR 14/04 A3020 RMK AO2 T01410035,M
MEV,2022-07-27 10:35,-119.7500,38.9963,1441.42,60.80,48.20,63.15,170.00,3.00,0.00,30.13,M,10.00,M,FEW,FEW,M,M,4300.00,5000.00,M,M,M,M,M,M,M,M,M,60.80,KMEV 271035Z AUTO 17003KT 10SM FEW043 FEW050 16/09 A3013 RMK AO2,M
BAM,2022-07-27 10:35,-116.8743,40.5990,1382.36,M,M,M,220.00,5.00,0.00,30.09,M,10.00,M,CLR,M,M,M,M,M,M,M,M,M,M,M,M,M,M,M,KBAM 271035Z AUTO 22005KT 10SM CLR A3009 RMK AO1,M
BVU,2022-07-27 10:35,-114.8611,35.9475,671.00,M,M,M,M,M,0.00,M,M,M,M,M,M,M,M,M,M,M,M,M,M,M,M,M,M,M,M,KBVU 271035Z AUTO RMK AO2 PNO PWINO TSNO,M
HTH,2022-07-27 10:35,-118.6315,38.5448,1282.89,75.20,42.80,31.34,0.00,0.00,0.00,30.07,M,10.00,M,CLR,M,M,M,M,M,M,M,M,M,M,M,M,M,M,75.20,KHTH 271035Z AUTO 00000KT 10SM CLR 24/06 A3007 RMK A01,M
CXP,2022-07-27 10:35,-119.7326,39.1923,1431.00,73.40,46.40,38.18,250.00,3.00,0.00,30.14,M,10.00,M,CLR,M,M,M,M,M,M,M,M,M,M,M,M,M,M,73.40,KCXP 271035Z AUTO 25003KT 10SM CLR 23/08 A3014 RMK AO2,M
P68,2022-07-27 10:53,-116.0056,39.6014,1993.00,59.00,40.00,49.04,170.00,5.00,0.00,30.18,1012.60,M,M,M,M,M,M,M,M,M,M,M,M,M,M,M,M,M,59.00,KP68 271053Z AUTO 17005KT 15/04 A3018 RMK AO1 SLP126 T01500044,M
ELY,2022-07-27 10:53,-114.8453,39.2950,1909.00,54.00,47.00,76.83,160.00,6.00,0.00,30.23,1013.50,10.00,M,CLR,M,M,M,M,M,M,M,M,M,M,M,M,M,M,54.00,KELY 271053Z AUTO 16006KT 10SM CLR 12/08 A3023 RMK AO2 SLP135 T01220083,M
LOL,2022-07-27 10:53,-118.5701,40.0684,1192.43,66.00,35.00,31.73,0.00,0.00,0.00,30.02,1011.70,10.00,M,CLR,M,M,M,M,M,M,M,M,M,M,M,M,M,M,66.00,KLOL 271053Z AUTO 00000KT 10SM CLR 19/02 A3002 RMK AO2 SLP117 T01890017,M
VGT,2022-07-27 10:53,-115.1933,36.2111,667.00,83.00,65.00,54.62,30.00,6.00,0.00,29.92,1012.00,10.00,M,CLR,M,M,M,M,M,M,M,M,M,M,M,M,M,M,84.64,KVGT 271053Z AUTO 03006KT 10SM CLR 28/18 A2992 RMK AO2 SLP120 T02830183,M
DRA,2022-07-27 10:53,-116.0278,36.6206,1009.00,77.00,64.00,64.21,360.00,4.00,0.00,29.99,1010.60,10.00,M,CLR,M,M,M,M,M,M,M,M,M,M,M,M,M,M,77.00,KDRA 271053Z AUTO 36004KT 10SM CLR 25/18 A2999 RMK AO2 SLP106 T02500178,M
CXP,2022-07-27 10:55,-119.7326,39.1923,1431.00,73.40,46.40,38.18,0.00,0.00,0.00,30.14,M,10.00,M,CLR,M,M,M,M,M,M,M,M,M,M,M,M,M,M,73.40,KCXP 271055Z AUTO 00000KT 10SM CLR 23/08 A3014 RMK AO2,M
BVU,2022-07-27 10:55,-114.8611,35.9475,671.00,M,M,M,M,M,0.00,M,M,M,M,M,M,M,M,M,M,M,M,M,M,M,M,M,M,M,M,KBVU 271055Z AUTO RMK AO2 PNO PWINO TSNO,M
RNO,2022-07-27 10:55,-119.7711,39.4839,1341.00,78.00,46.00,32.15,260.00,3.00,0.00,30.10,1012.40,10.00,M,BKN,M,M,M,16000.00,M,M,M,M,M,M,M,M,M,M,78.10,KRNO 271055Z 26003KT 10SM BKN160 26/08 A3010 RMK AO2 SLP124 HZ ALQDS T02560078,M
RTS,2022-07-27 10:55,-119.8764,39.6682,1539.00,69.80,42.80,37.61,320.00,5.00,0.00,30.17,M,10.00,M,FEW,M,M,M,12000.00,M,M,M,M,M,M,M,M,M,M,69.80,KRTS 271055Z AUTO 32005KT 10SM FEW120 21/06 A3017 RMK AO2,M
MEV,2022-07-27 10:55,-119.7500,38.9963,1441.42,62.60,44.60,51.72,0.00,0.00,0.00,30.13,M,10.00,M,FEW,FEW,M,M,4100.00,5000.00,M,M,M,M,M,M,M,M,M,62.60,KMEV 271055Z AUTO 00000KT 10SM FEW041 FEW050 17/07 A3013 RMK AO2,M
BAM,2022-07-27 10:55,-116.8743,40.5990,1382.36,M,M,M,230.00,3.00,0.00,30.09,M,10.00,M,CLR,M,M,M,M,M,M,M,M,M,M,M,M,M,M,M,KBAM 271055Z AUTO 23003KT 10SM CLR A3009 RMK AO1,M
HTH,2022-07-27 10:55,-118.6315,38.5448,1282.89,73.40,41.00,31.05,0.00,0.00,0.00,30.07,M,10.00,M,CLR,M,M,M,M,M,M,M,M,M,M,M,M,M,M,73.40,KHTH 271055Z AUTO 00000KT 10SM CLR 23/05 A3007 RMK A01,M
TMT,2022-07-27 10:55,-117.1971,39.4643,1749.34,53.80,36.50,51.81,130.00,4.00,0.00,30.20,M,10.00,M,CLR,M,M,M,M,M,M,M,M,M,M,M,M,M,M,53.80,KTMT 271055Z AUTO 13004KT 10SM CLR 12/03 A3020 RMK AO2 T01210025,M
HND,2022-07-27 10:56,-115.1344,35.9729,742.79,82.00,65.00,56.24,220.00,9.00,0.00,29.96,1013.20,10.00,M,CLR,M,M,M,M,M,M,M,M,M,M,M,M,M,M,83.76,KHND 271056Z AUTO 22009KT 10SM CLR 28/18 A2996 RMK AO2 SLP132 T02780183,M
LAS,2022-07-27 10:56,-115.1634,36.0719,663.00,84.00,65.00,52.71,130.00,4.00,0.00,29.92,1010.40,10.00,M,FEW,BKN,M,M,15000.00,19000.00,M,M,M,M,M,M,M,M,M,85.72,KLAS 271056Z 13004KT 10SM FEW150 BKN190 29/18 A2992 RMK AO2 SLP104 T02890183,M
TPH,2022-07-27 10:56,-117.0904,38.0505,1654.00,65.00,42.00,43.36,360.00,5.00,0.00,30.17,1013.60,10.00,M,CLR,M,M,M,M,M,M,M,M,M,M,M,M,M,M,64.90,KTPH 271056Z AUTO 36005KT 10SM CLR 18/06 A3017 RMK AO2 SLP136 T01830056,M
NFL,2022-07-27 10:56,-118.7010,39.4166,1199.00,74.00,42.00,31.86,190.00,4.00,0.00,30.03,1013.70,10.00,M,CLR,M,M,M,M,M,M,M,M,M,M,M,M,M,M,73.90,KNFL 271056Z AUTO 19004KT 10SM CLR 23/06 A3003 RMK AO2 SLP137 T02330056,M
EKO,2022-07-27 10:56,-115.7860,40.8242,1367.00,58.00,27.00,30.43,180.00,4.00,0.00,30.12,1013.30,10.00,M,CLR,M,M,M,M,M,M,M,M,M,M,M,M,M,M,57.90,KEKO 271056Z AUTO 18004KT 10SM CLR 14/M03 A3012 RMK AO2 SLP133 T01441028,M
LSV,2022-07-27 10:58,-115.0343,36.2362,570.00,82.00,67.50,61.75,80.00,6.00,0.00,29.90,1009.90,10.00,M,CLR,M,M,M,M,M,M,M,M,M,M,M,M,M,M,84.60,KLSV 271058Z AUTO 08006KT 10SM CLR 28/20 A2990 RMK AO2 SLP099 T02770197 $,M
INS,2022-07-27 10:58,-115.6733,36.5872,955.00,79.00,57.00,46.87,0.00,0.00,0.00,29.99,1010.40,10.00,M,FEW,M,M,M,16000.00,M,M,M,M,M,M,M,M,M,M,79.00,KINS 271058Z AUTO 00000KT 10SM FEW160 26/14 A2999 RMK AO2 SLP104 T02610139 $,M
MEV,2022-07-27 11:15,-119.7500,38.9963,1441.42,60.80,46.40,59.01,0.00,0.00,0.00,30.13,M,10.00,M,FEW,M,M,M,5000.00,M,M,M,M,M,M,M,M,M,M,60.80,KMEV 271115Z AUTO 00000KT 10SM FEW050 16/08 A3013 RMK AO2,M
BAM,2022-07-27 11:15,-116.8743,40.5990,1382.36,M,M,M,150.00,3.00,0.00,30.09,M,10.00,M,CLR,M,M,M,M,M,M,M,M,M,M,M,M,M,M,M,KBAM 271115Z AUTO 15003KT 10SM CLR A3009 RMK AO1,M
HTH,2022-07-27 11:15,-118.6315,38.5448,1282.89,75.20,42.80,31.34,0.00,0.00,0.00,30.07,M,10.00,M,CLR,M,M,M,M,M,M,M,M,M,M,M,M,M,M,75.20,KHTH 271115Z AUTO 00000KT 10SM CLR 24/06 A3007 RMK A01,M
TMT,2022-07-27 11:15,-117.1971,39.4643,1749.34,54.30,35.80,49.48,0.00,0.00,0.00,30.20,M,10.00,M,CLR,M,M,M,M,M,M,M,M,M,M,M,M,M,M,54.30,KTMT 271115Z AUTO 00000KT 10SM CLR 12/02 A3020 RMK AO2 T01240021,M
BVU,2022-07-27 11:15,-114.8611,35.9475,671.00,M,M,M,M,M,0.00,M,M,M,M,M,M,M,M,M,M,M,M,M,M,M,M,M,M,M,M,KBVU 271115Z AUTO RMK AO2 PNO PWINO TSNO,M
CXP,2022-07-27 11:15,-119.7326,39.1923,1431.00,68.00,46.40,45.88,0.00,0.00,0.00,30.14,M,10.00,M,CLR,M,M,M,M,M,M,M,M,M,M,M,M,M,M,68.00,KCXP 271115Z AUTO 00000KT 10SM CLR 20/08 A3014 RMK AO2,M
RTS,2022-07-27 11:15,-119.8764,39.6682,1539.00,71.60,44.60,37.89,330.00,7.00,0.00,30.16,M,10.00,M,CLR,M,M,M,M,M,M,M,M,M,M,M,M,M,M,71.60,KRTS 271115Z AUTO 33007KT 10SM CLR 22/07 A3016 RMK AO2,M
MEV,2022-07-27 11:35,-119.7500,38.9963,1441.42,60.80,46.40,59.01,0.00,0.00,0.00,30.14,M,10.00,M,FEW,FEW,M,M,4500.00,5000.00,M,M,M,M,M,M,M,M,M,60.80,KMEV 271135Z AUTO 00000KT 10SM FEW045 FEW050 16/08 A3014 RMK AO2,M
BAM,2022-07-27 11:35,-116.8743,40.5990,1382.36,M,M,M,0.00,0.00,0.00,30.10,M,10.00,M,CLR,M,M,M,M,M,M,M,M,M,M,M,M,M,M,M,KBAM 271135Z AUTO 00000KT 10SM CLR A3010 RMK AO1,M
HTH,2022-07-27 11:35,-118.6315,38.5448,1282.89,75.20,44.60,33.57,0.00,0.00,0.00,30.07,M,10.00,M,CLR,M,M,M,M,M,M,M,M,M,M,M,M,M,M,75.20,KHTH 271135Z AUTO 00000KT 10SM CLR 24/07 A3007 RMK A01,M
TMT,2022-07-27 11:35,-117.1971,39.4643,1749.34,52.00,36.50,55.35,0.00,0.00,0.00,30.20,M,10.00,M,CLR,M,M,M,M,M,M,M,M,M,M,M,M,M,M,52.00,KTMT 271135Z AUTO 00000KT 10SM CLR 11/03 A3020 RMK AO2 T01110025,M
BVU,2022-07-27 11:35,-114.8611,35.9475,671.00,M,M,M,M,M,0.00,M,M,M,M,M,M,M,M,M,M,M,M,M,M,M,M,M,M,M,M,KBVU 271135Z AUTO RMK AO2 PNO PWINO TSNO,M
CXP,2022-07-27 11:35,-119.7326,39.1923,1431.00,69.80,46.40,43.13,0.00,0.00,0.00,30.15,M,10.00,M,CLR,M,M,M,M,M,M,M,M,M,M,M,M,M,M,69.80,KCXP 271135Z AUTO 00000KT 10SM CLR 21/08 A3015 RMK AO2,M
RTS,2022-07-27 11:35,-119.8764,39.6682,1539.00,71.60,44.60,37.89,310.00,6.00,0.00,30.16,M,10.00,M,CLR,M,M,M,M,M,M,M,M,M,M,M,M,M,M,71.60,KRTS 271135Z AUTO 31006KT 10SM CLR 22/07 A3016 RMK AO2,M
ELY,2022-07-27 11:53,-114.8453,39.2950,1909.00,53.00,47.00,79.40,160.00,5.00,0.00,30.23,1013.60,10.00,M,CLR,M,M,M,M,M,M,M,M,M,M,M,M,M,M,53.10,KELY 271153Z AUTO 16005KT 10SM CLR 12/08 A3023 RMK AO2 SLP136 T01170083 10211 20117 53001,M
P68,2022-07-27 11:53,-116.0056,39.6014,1993.00,58.00,39.00,49.26,190.00,5.00,0.00,30.19,1012.80,M,M,M,M,M,M,M,M,M,M,M,M,M,M,M,M,M,57.90,KP68 271153Z AUTO 19005KT 14/04 A3019 RMK AO1 SLP128 T01440039 10233 20139 53002,M
DRA,2022-07-27 11:53,-116.0278,36.6206,1009.00,77.00,59.00,53.80,0.00,0.00,0.00,29.99,1010.40,10.00,M,CLR,M,M,M,M,M,M,M,M,M,M,M,M,M,M,77.00,KDRA 271153Z AUTO 00000KT 10SM CLR 25/15 A2999 RMK AO2 SLP104 T02500150 10278 20239 55001,M
LOL,2022-07-27 11:53,-118.5701,40.0684,1192.43,67.00,38.00,34.35,50.00,5.00,0.00,30.03,1012.10,10.00,M,CLR,M,M,M,M,M,M,M,M,M,M,M,M,M,M,66.90,KLOL 271153Z AUTO 05005KT 10SM CLR 19/03 A3003 RMK AO2 SLP121 T01940033 10322 20183 53006,M
VGT,2022-07-27 11:53,-115.1933,36.2111,667.00,83.00,65.00,54.62,10.00,5.00,0.00,29.93,1012.10,10.00,M,CLR,M,M,M,M,M,M,M,M,M,M,M,M,M,M,84.64,KVGT 271153Z AUTO 01005KT 10SM CLR 28/18 A2993 RMK AO2 SLP121 7//// T02830183 10328 20283 53000,M
BAM,2022-07-27 11:55,-116.8743,40.5990,1382.36,M,M,M,150.00,5.00,0.00,30.10,M,10.00,M,CLR,M,M,M,M,M,M,M,M,M,M,M,M,M,M,M,KBAM 271155Z AUTO 15005KT 10SM CLR A3010 RMK AO1,M
BVU,2022-07-27 11:55,-114.8611,35.9475,671.00,M,M,M,M,M,0.00,M,M,M,M,M,M,M,M,M,M,M,M,M,M,M,M,M,M,M,M,KBVU 271155Z AUTO RMK AO2 PNO PWINO TSNO,M
CXP,2022-07-27 11:55,-119.7326,39.1923,1431.00,68.00,46.40,45.88,0.00,0.00,0.00,30.15,M,10.00,M,CLR,M,M,M,M,M,M,M,M,M,M,M,M,M,M,68.00,KCXP 271155Z AUTO 00000KT 10SM CLR 20/08 A3015 RMK AO2,M
RTS,2022-07-27 11:55,-119.8764,39.6682,1539.00,71.60,42.80,35.37,300.00,5.00,0.00,30.17,M,10.00,10.00,CLR,M,M,M,M,M,M,M,M,M,M,M,M,M,M,71.60,KRTS 271155Z AUTO 30005G10KT 10SM CLR 22/06 A3017 RMK AO2,M
HTH,2022-07-27 11:55,-118.6315,38.5448,1282.89,75.20,42.80,31.34,0.00,0.00,0.00,30.08,M,10.00,M,CLR,M,M,M,M,M,M,M,M,M,M,M,M,M,M,75.20,KHTH 271155Z AUTO 00000KT 10SM CLR 24/06 A3008 RMK A01,M
MEV,2022-07-27 11:55,-119.7500,38.9963,1441.42,60.80,48.20,63.15,0.00,0.00,0.00,30.14,M,10.00,M,FEW,FEW,M,M,4600.00,12000.00,M,M,M,M,M,M,M,M,M,60.80,KMEV 271155Z AUTO 00000KT 10SM FEW046 FEW120 16/09 A3014 RMK AO2,M
RNO,2022-07-27 11:55,-119.7711,39.4839,1341.00,77.00,47.00,34.50,220.00,6.00,0.00,30.11,1012.60,10.00,M,BKN,M,M,M,16000.00,M,M,M,M,M,M,M,M,M,M,77.00,KRNO 271155Z 22006KT 10SM BKN160 25/08 A3011 RMK AO2 SLP126 HZ ALQDS T02500083 10294 20239 51003,M
TMT,2022-07-27 11:55,-117.1971,39.4643,1749.34,52.30,35.20,51.99,0.00,0.00,0.00,30.20,M,10.00,M,CLR,M,M,M,M,M,M,M,M,M,M,M,M,M,M,52.30,KTMT 271155Z AUTO 00000KT 10SM CLR 11/02 A3020 RMK AO2 T01130018,M
TPH,2022-07-27 11:56,-117.0904,38.0505,1654.00,66.00,45.00,46.62,10.00,5.00,0.00,30.17,1013.50,10.00,M,CLR,M,M,M,M,M,M,M,M,M,M,M,M,M,M,66.00,KTPH 271156Z AUTO 01005KT 10SM CLR 19/07 A3017 RMK AO2 SLP135 T01890072 10256 20183 56001,M
NFL,2022-07-27 11:56,-118.7010,39.4166,1199.00,72.00,42.00,33.97,190.00,4.00,0.00,30.03,1013.90,10.00,M,CLR,M,M,M,M,M,M,M,M,M,M,M,M,M,M,72.00,KNFL 271156Z AUTO 19004KT 10SM CLR 22/06 A3003 RMK AO2 SLP139 T02220056 10294 20222 52002,M
HND,2022-07-27 11:56,-115.1344,35.9729,742.79,81.00,61.00,50.65,210.00,6.00,0.00,29.97,1013.40,10.00,M,CLR,M,M,M,M,M,M,M,M,M,M,M,M,M,M,81.81,KHND 271156Z AUTO 21006KT 10SM CLR 27/16 A2997 RMK AO2 SLP134 T02720161 10300 20272 53001,M
LAS,2022-07-27 11:56,-115.1634,36.0719,663.00,83.00,64.00,52.93,100.00,3.00,0.00,29.93,1010.50,10.00,M,FEW,FEW,SCT,M,15000.00,19000.00,22000.00,M,M,M,M,M,M,M,M,84.32,KLAS 271156Z 10003KT 10SM FEW150 FEW190 SCT220 28/18 A2993 RMK AO2 SLP105 T02830178 10311 20278 55001,M
EKO,2022-07-27 11:56,-115.7860,40.8242,1367.00,59.00,27.00,29.25,0.00,0.00,0.00,30.13,1013.90,10.00,M,CLR,M,M,M,M,M,M,M,M,M,M,M,M,M,M,59.00,KEKO 271156Z AUTO 00000KT 10SM CLR 15/M03 A3013 RMK AO2 SLP139 T01501028 10222 20139 53007,M
INS,2022-07-27 11:58,-115.6733,36.5872,955.00,78.00,60.40,54.89,140.00,4.00,0.00,29.99,1010.40,10.00,M,CLR,M,M,M,M,M,M,M,M,M,M,M,M,M,M,77.90,KINS 271158Z AUTO 14004KT 10SM CLR 26/16 A2999 RMK AO2 SLP104 T02550158 10292 20252 53001 $,M
LSV,2022-07-27 11:58,-115.0343,36.2362,570.00,81.00,67.60,63.80,50.00,6.00,0.00,29.91,1010.30,10.00,M,CLR,M,M,M,M,M,M,M,M,M,M,M,M,M,M,83.63,KLSV 271158Z AUTO 05006KT 10SM CLR 27/20 A2991 RMK AO2 SLP103 T02720198 10307 20272 53001 $,M
RTS,2022-07-27 12:15,-119.8764,39.6682,1539.00,71.60,42.80,35.37,300.00,5.00,0.00,30.17,M,10.00,M,CLR,M,M,M,M,M,M,M,M,M,M,M,M,M,M,71.60,KRTS 271215Z AUTO 30005KT 10SM CLR 22/06 A3017 RMK AO2,M
TMT,2022-07-27 12:15,-117.1971,39.4643,1749.34,47.80,33.30,56.98,190.00,5.00,0.00,30.20,M,10.00,M,CLR,M,M,M,M,M,M,M,M,M,M,M,M,M,M,45.16,KTMT 271215Z AUTO 19005KT 10SM CLR 09/01 A3020 RMK AO2 T00880007,M
HTH,2022-07-27 12:15,-118.6315,38.5448,1282.89,73.40,42.80,33.29,260.00,3.00,0.00,30.08,M,10.00,M,CLR,M,M,M,M,M,M,M,M,M,M,M,M,M,M,73.40,KHTH 271215Z AUTO 26003KT 10SM CLR 23/06 A3008 RMK A01,M
BAM,2022-07-27 12:15,-116.8743,40.5990,1382.36,M,M,M,150.00,4.00,0.00,30.11,M,10.00,M,CLR,M,M,M,M,M,M,M,M,M,M,M,M,M,M,M,KBAM 271215Z AUTO 15004KT 10SM CLR A3011 RMK AO1,M
MEV,2022-07-27 12:15,-119.7500,38.9963,1441.42,62.60,50.00,63.38,0.00,0.00,0.00,30.14,M,10.00,M,CLR,M,M,M,M,M,M,M,M,M,M,M,M,M,M,62.60,KMEV 271215Z AUTO 00000KT 10SM CLR 17/10 A3014 RMK AO2,M
BVU,2022-07-27 12:15,-114.8611,35.9475,671.00,M,M,M,M,M,0.00,M,M,M,M,M,M,M,M,M,M,M,M,M,M,M,M,M,M,M,M,KBVU 271215Z AUTO RMK AO2 PNO PWINO TSNO,M
CXP,2022-07-27 12:15,-119.7326,39.1923,1431.00,68.00,46.40,45.88,0.00,0.00,0.00,30.15,M,10.00,M,CLR,M,M,M,M,M,M,M,M,M,M,M,M,M,M,68.00,KCXP 271215Z AUTO 00000KT 10SM CLR 20/08 A3015 RMK AO2,M
BVU,2022-07-27 12:35,-114.8611,35.9475,671.00,M,M,M,M,M,0.00,M,M,M,M,M,M,M,M,M,M,M,M,M,M,M,M,M,M,M,M,KBVU 271235Z AUTO RMK AO2 PNO PWINO TSNO,M
HTH,2022-07-27 12:35,-118.6315,38.5448,1282.89,71.60,44.60,37.89,0.00,0.00,0.00,30.08,M,10.00,M,CLR,M,M,M,M,M,M,M,M,M,M,M,M,M,M,71.60,KHTH 271235Z AUTO 00000KT 10SM CLR 22/07 A3008 RMK A01,M
TMT,2022-07-27 12:35,-117.1971,39.4643,1749.34,50.40,35.00,55.55,0.00,0.00,0.00,30.21,M,10.00,M,CLR,M,M,M,M,M,M,M,M,M,M,M,M,M,M,50.40,KTMT 271235Z AUTO 00000KT 10SM CLR 10/02 A3021 RMK AO2 T01020017,M
BAM,2022-07-27 12:35,-116.8743,40.5990,1382.36,M,M,M,0.00,0.00,0.00,30.11,M,10.00,M,CLR,M,M,M,M,M,M,M,M,M,M,M,M,M,M,M,KBAM 271235Z AUTO 00000KT 10SM CLR A3011 RMK AO1,M
MEV,2022-07-27 12:35,-119.7500,38.9963,1441.42,60.80,48.20,63.15,M,M,0.00,30.15,M,10.00,M,CLR,M,M,M,M,M,M,M,M,M,M,M,M,M,M,60.80,KMEV 271235Z AUTO 10SM CLR 16/09 A3015 RMK AO2,M
RTS,2022-07-27 12:35,-119.8764,39.6682,1539.00,69.80,42.80,37.61,330.00,6.00,0.00,30.17,M,10.00,M,CLR,M,M,M,M,M,M,M,M,M,M,M,M,M,M,69.80,KRTS 271235Z AUTO 33006KT 10SM CLR 21/06 A3017 RMK AO2,M
CXP,2022-07-27 12:35,-119.7326,39.1923,1431.00,68.00,44.60,42.85,0.00,0.00,0.00,30.15,M,10.00,M,CLR,M,M,M,M,M,M,M,M,M,M,M,M,M,M,68.00,KCXP 271235Z AUTO 00000KT 10SM CLR 20/07 A3015 RMK AO2,M
P68,2022-07-27 12:53,-116.0056,39.6014,1993.00,56.00,41.00,57.23,230.00,4.00,0.00,30.20,1013.80,M,M,M,M,M,M,M,M,M,M,M,M,M,M,M,M,M,55.90,KP68 271253Z AUTO 23004KT 13/05 A3020 RMK AO1 SLP138 T01330050,M
ELY,2022-07-27 12:53,-114.8453,39.2950,1909.00,51.00,46.00,82.62,190.00,5.00,0.00,30.24,1014.30,10.00,M,CLR,M,M,M,M,M,M,M,M,M,M,M,M,M,M,51.10,KELY 271253Z AUTO 19005KT 10SM CLR 11/08 A3024 RMK AO2 SLP143 T01060078,M
DRA,2022-07-27 12:53,-116.0278,36.6206,1009.00,76.00,62.00,62.30,50.00,3.00,0.00,30.01,1011.10,10.00,M,CLR,M,M,M,M,M,M,M,M,M,M,M,M,M,M,75.90,KDRA 271253Z AUTO 05003KT 10SM CLR 24/17 A3001 RMK AO2 SLP111 T02440167,M
VGT,2022-07-27 12:53,-115.1933,36.2111,667.00,82.00,65.00,56.24,30.00,6.00,0.00,29.94,1012.60,10.00,M,CLR,M,M,M,M,M,M,M,M,M,M,M,M,M,M,83.76,KVGT 271253Z AUTO 03006KT 10SM CLR 28/18 A2994 RMK AO2 SLP126 T02780183,M
LOL,2022-07-27 12:53,-118.5701,40.0684,1192.43,70.00,36.00,28.65,40.00,10.00,0.00,30.04,1012.20,10.00,M,CLR,M,M,M,M,M,M,M,M,M,M,M,M,M,M,70.00,KLOL 271253Z AUTO 04010KT 10SM CLR 21/02 A3004 RMK AO2 SLP122 T02110022,M
RNO,2022-07-27 12:55,-119.7711,39.4839,1341.00,75.00,45.00,34.31,0.00,0.00,0.00,30.12,1013.00,10.00,M,BKN,M,M,M,16000.00,M,M,M,M,M,M,M,M,M,M,75.00,KRNO 271255Z 00000KT 10SM BKN160 24/07 A3012 RMK AO2 SLP130 HZ ALQDS T02390072,M
CXP,2022-07-27 12:55,-119.7326,39.1923,1431.00,68.00,44.60,42.85,0.00,0.00,0.00,30.16,M,10.00,M,CLR,M,M,M,M,M,M,M,M,M,M,M,M,M,M,68.00,KCXP 271255Z AUTO 00000KT 10SM CLR 20/07 A3016 RMK AO2,M
RTS,2022-07-27 12:55,-119.8764,39.6682,1539.00,68.00,44.60,42.85,290.00,8.00,0.00,30.17,M,10.00,M,CLR,M,M,M,M,M,M,M,M,M,M,M,M,M,M,68.00,KRTS 271255Z AUTO 29008KT 10SM CLR 20/07 A3017 RMK AO2,M
BVU,2022-07-27 12:55,-114.8611,35.9475,671.00,M,M,M,M,M,0.00,M,M,M,M,M,M,M,M,M,M,M,M,M,M,M,M,M,M,M,M,KBVU 271255Z AUTO RMK AO2 PNO PWINO TSNO,M
BAM,2022-07-27 12:55,-116.8743,40.5990,1382.36,M,M,M,0.00,0.00,0.00,30.12,M,10.00,M,CLR,M,M,M,M,M,M,M,M,M,M,M,M,M,M,M,KBAM 271255Z AUTO 00000KT 10SM CLR A3012 RMK AO1,M
HTH,2022-07-27 12:55,-118.6315,38.5448,1282.89,71.60,46.40,40.57,190.00,3.00,0.00,30.09,M,10.00,M,CLR,M,M,M,M,M,M,M,M,M,M,M,M,M,M,71.60,KHTH 271255Z AUTO 19003KT 10SM CLR 22/08 A3009 RMK A01,M
TMT,2022-07-27 12:55,-117.1971,39.4643,1749.34,49.00,34.30,56.91,0.00,0.00,0.00,30.21,M,10.00,M,CLR,M,M,M,M,M,M,M,M,M,M,M,M,M,M,48.90,KTMT 271255Z AUTO 00000KT 10SM CLR 09/01 A3021 RMK AO2 T00940013,M
MEV,2022-07-27 12:55,-119.7500,38.9963,1441.42,60.80,46.40,59.01,0.00,0.00,0.00,30.15,M,10.00,M,CLR,M,M,M,M,M,M,M,M,M,M,M,M,M,M,60.80,KMEV 271255Z AUTO 00000KT 10SM CLR 16/08 A3015 RMK AO2,M
WMC,2022-07-27 12:56,-117.8072,40.9019,1315.00,54.00,28.00,36.52,0.00,0.00,0.00,30.09,1013.90,10.00,M,CLR,M,M,M,M,M,M,M,M,M,M,M,M,M,M,54.00,KWMC 271256Z AUTO 00000KT 10SM CLR 12/M02 A3009 RMK AO2 SLP139 T01221022,M
EKO,2022-07-27 12:56,-115.7860,40.8242,1367.00,60.00,27.00,28.13,80.00,4.00,0.00,30.15,1014.70,10.00,M,CLR,M,M,M,M,M,M,M,M,M,M,M,M,M,M,60.10,KEKO 271256Z AUTO 08004KT 10SM CLR 16/M03 A3015 RMK AO2 SLP147 T01561028,M
TPH,2022-07-27 12:56,-117.0904,38.0505,1654.00,67.00,43.00,41.87,360.00,7.00,0.00,30.17,1013.50,10.00,M,CLR,M,M,M,M,M,M,M,M,M,M,M,M,M,M,66.90,KTPH 271256Z AUTO 36007KT 10SM CLR 19/06 A3017 RMK AO2 SLP135 T01940061,M
LAS,2022-07-27 12:56,-115.1634,36.0719,663.00,82.00,64.00,54.50,80.00,6.00,0.00,29.95,1011.40,10.00,M,FEW,SCT,M,M,15000.00,20000.00,M,M,M,M,M,M,M,M,M,83.47,KLAS 271256Z 08006KT 10SM FEW150 SCT200 28/18 A2995 RMK AO2 SLP114 T02780178,M
NFL,2022-07-27 12:56,-118.7010,39.4166,1199.00,70.00,43.00,37.64,230.00,3.00,0.00,30.04,1014.20,10.00,M,CLR,M,M,M,M,M,M,M,M,M,M,M,M,M,M,70.00,KNFL 271256Z AUTO 23003KT 10SM CLR 21/06 A3004 RMK AO2 SLP142 T02110061,M
HND,2022-07-27 12:56,-115.1344,35.9729,742.79,81.00,59.00,47.17,210.00,9.00,0.00,29.98,1013.80,10.00,M,CLR,M,M,M,M,M,M,M,M,M,M,M,M,M,M,81.40,KHND 271256Z AUTO 21009KT 10SM CLR 27/15 A2998 RMK AO2 SLP138 T02720150,M
LSV,2022-07-27 12:58,-115.0343,36.2362,570.00,80.20,67.80,65.94,60.00,7.00,0.00,29.92,1010.60,10.00,M,CLR,M,M,M,M,M,M,M,M,M,M,M,M,M,M,82.76,KLSV 271258Z AUTO 06007KT 10SM CLR 27/20 A2992 RMK AO2 SLP106 T02680199 $,M
INS,2022-07-27 12:58,-115.6733,36.5872,955.00,75.70,60.40,59.05,100.00,6.00,0.00,30.01,1011.30,10.00,M,BKN,M,M,M,17000.00,M,M,M,M,M,M,M,M,M,M,75.70,KINS 271258Z AUTO 10006KT 10SM BKN170 24/16 A3001 RMK AO2 SLP113 T02430158 $,M
CXP,2022-07-27 13:10,-119.7326,39.1923,1431.00,68.00,44.60,42.85,0.00,0.00,0.00,30.16,M,10.00,M,CLR,M,M,M,M,M,M,M,M,M,M,M,M,M,M,68.00,KCXP 271310Z AUTO 00000KT 10SM CLR 20/07 A3016 RMK AO2,M
MEV,2022-07-27 13:15,-119.7500,38.9963,1441.42,60.80,46.40,59.01,0.00,0.00,0.00,30.15,M,10.00,M,CLR,M,M,M,M,M,M,M,M,M,M,M,M,M,M,60.80,KMEV 271315Z AUTO 00000KT 10SM CLR 16/08 A3015 RMK AO2,M
BAM,2022-07-27 13:15,-116.8743,40.5990,1382.36,M,M,M,310.00,4.00,0.00,30.13,M,10.00,M,CLR,M,M,M,M,M,M,M,M,M,M,M,M,M,M,M,KBAM 271315Z AUTO 31004KT 10SM CLR A3013 RMK AO1,M
TMT,2022-07-27 13:15,-117.1971,39.4643,1749.34,50.00,34.70,55.50,0.00,0.00,0.00,30.22,M,10.00,M,CLR,M,M,M,M,M,M,M,M,M,M,M,M,M,M,50.00,KTMT 271315Z AUTO 00000KT 10SM CLR 10/02 A3022 RMK AO2 T01000015,M
BVU,2022-07-27 13:15,-114.8611,35.9475,671.00,M,M,M,M,M,0.00,M,M,M,M,M,M,M,M,M,M,M,M,M,M,M,M,M,M,M,M,KBVU 271315Z AUTO RMK AO2 PNO PWINO TSNO,M
HTH,2022-07-27 13:15,-118.6315,38.5448,1282.89,73.40,46.40,38.18,0.00,0.00,0.00,30.10,M,10.00,M,CLR,M,M,M,M,M,M,M,M,M,M,M,M,M,M,73.40,KHTH 271315Z AUTO 00000KT 10SM CLR 23/08 A3010 RMK A01,M
RTS,2022-07-27 13:15,-119.8764,39.6682,1539.00,66.20,42.80,42.57,350.00,3.00,0.00,30.18,M,10.00,M,CLR,M,M,M,M,M,M,M,M,M,M,M,M,M,M,66.20,KRTS 271315Z AUTO 35003KT 10SM CLR 19/06 A3018 RMK AO2,M
MEV,2022-07-27 13:35,-119.7500,38.9963,1441.42,59.00,46.40,62.92,0.00,0.00,0.00,30.16,M,10.00,M,CLR,M,M,M,M,M,M,M,M,M,M,M,M,M,M,59.00,KMEV 271335Z AUTO 00000KT 10SM CLR 15/08 A3016 RMK AO2,M
TMT,2022-07-27 13:35,-117.1971,39.4643,1749.34,54.50,37.60,52.74,0.00,0.00,0.00,30.22,M,10.00,M,CLR,M,M,M,M,M,M,M,M,M,M,M,M,M,M,54.50,KTMT 271335Z AUTO 00000KT 10SM CLR 13/03 A3022 RMK AO2 T01250031,M
CXP,2022-07-27 13:35,-119.7326,39.1923,1431.00,69.80,44.60,40.29,0.00,0.00,0.00,30.17,M,10.00,M,CLR,M,M,M,M,M,M,M,M,M,M,M,M,M,M,69.80,KCXP 271335Z AUTO 00000KT 10SM CLR 21/07 A3017 RMK AO2,M
BVU,2022-07-27 13:35,-114.8611,35.9475,671.00,M,M,M,M,M,0.00,M,M,M,M,M,M,M,M,M,M,M,M,M,M,M,M,M,M,M,M,KBVU 271335Z AUTO RMK AO2 PNO PWINO TSNO,M
HTH,2022-07-27 13:35,-118.6315,38.5448,1282.89,75.20,48.20,38.46,0.00,0.00,0.00,30.10,M,10.00,M,CLR,M,M,M,M,M,M,M,M,M,M,M,M,M,M,75.20,KHTH 271335Z AUTO 00000KT 10SM CLR 24/09 A3010 RMK A01,M
BAM,2022-07-27 13:35,-116.8743,40.5990,1382.36,M,M,M,0.00,0.00,0.00,30.13,M,10.00,M,CLR,M,M,M,M,M,M,M,M,M,M,M,M,M,M,M,KBAM 271335Z AUTO 00000KT 10SM CLR A3013 RMK AO1,M
RTS,2022-07-27 13:35,-119.8764,39.6682,1539.00,68.00,44.60,42.85,320.00,5.00,0.00,30.19,M,10.00,M,CLR,M,M,M,M,M,M,M,M,M,M,M,M,M,M,68.00,KRTS 271335Z AUTO 32005KT 10SM CLR 20/07 A3019 RMK AO2,M
VGT,2022-07-27 13:53,-115.1933,36.2111,667.00,84.00,65.00,52.71,20.00,5.00,0.00,29.95,1013.10,10.00,M,CLR,M,M,M,M,M,M,M,M,M,M,M,M,M,M,85.72,KVGT 271353Z 02005KT 10SM CLR 29/18 A2995 RMK AO2 SLP131 T02890183,M
LOL,2022-07-27 13:53,-118.5701,40.0684,1192.43,71.00,38.00,29.74,170.00,8.00,0.00,30.06,1013.00,10.00,M,CLR,M,M,M,M,M,M,M,M,M,M,M,M,M,M,71.10,KLOL 271353Z AUTO 17008KT 10SM CLR 22/03 A3006 RMK AO2 SLP130 T02170033,M
ELY,2022-07-27 13:53,-114.8453,39.2950,1909.00,60.00,50.00,69.24,190.00,5.00,0.00,30.25,1013.80,10.00,M,CLR,M,M,M,M,M,M,M,M,M,M,M,M,M,M,60.10,KELY 271353Z AUTO 19005KT 10SM CLR 16/10 A3025 RMK AO2 SLP138 T01560100,M
DRA,2022-07-27 13:53,-116.0278,36.6206,1009.00,78.00,64.00,61.92,0.00,0.00,0.00,30.03,1011.60,10.00,M,CLR,M,M,M,M,M,M,M,M,M,M,M,M,M,M,78.10,KDRA 271353Z AUTO 00000KT 10SM CLR 26/18 A3003 RMK AO2 SLP116 T02560178,M
P68,2022-07-27 13:53,-116.0056,39.6014,1993.00,65.00,43.00,44.88,150.00,4.00,0.00,30.22,1013.50,M,M,M,M,M,M,M,M,M,M,M,M,M,M,M,M,M,64.90,KP68 271353Z AUTO 15004KT 18/06 A3022 RMK AO1 SLP135 T01830061,M
RTS,2022-07-27 13:55,-119.8764,39.6682,1539.00,68.00,42.80,40.00,330.00,6.00,0.00,30.19,M,10.00,M,CLR,M,M,M,M,M,M,M,M,M,M,M,M,M,M,68.00,KRTS 271355Z AUTO 33006KT 10SM CLR 20/06 A3019 RMK AO2,M
HTH,2022-07-27 13:55,-118.6315,38.5448,1282.89,75.20,46.40,35.94,260.00,4.00,0.00,30.11,M,10.00,M,CLR,M,M,M,M,M,M,M,M,M,M,M,M,M,M,75.20,KHTH 271355Z AUTO 26004KT 10SM CLR 24/08 A3011 RMK A01,M
TMT,2022-07-27 13:55,-117.1971,39.4643,1749.34,56.80,40.00,53.49,0.00,0.00,0.00,30.22,M,10.00,M,CLR,M,M,M,M,M,M,M,M,M,M,M,M,M,M,56.80,KTMT 271355Z AUTO 00000KT 10SM CLR 14/05 A3022 RMK AO2 T01380045,M
BAM,2022-07-27 13:55,-116.8743,40.5990,1382.36,M,M,M,0.00,0.00,0.00,30.13,M,10.00,M,CLR,M,M,M,M,M,M,M,M,M,M,M,M,M,M,M,KBAM 271355Z AUTO 00000KT 10SM CLR A3013 RMK AO1,M
MEV,2022-07-27 13:55,-119.7500,38.9963,1441.42,62.60,50.00,63.38,140.00,4.00,0.00,30.16,M,5.00,M,CLR,M,M,M,M,M,M,M,HZ,M,M,M,M,M,M,62.60,KMEV 271355Z AUTO 14004KT 5SM HZ CLR 17/10 A3016 RMK AO2,M
CXP,2022-07-27 13:55,-119.7326,39.1923,1431.00,69.80,44.60,40.29,0.00,0.00,0.00,30.17,M,10.00,M,CLR,M,M,M,M,M,M,M,M,M,M,M,M,M,M,69.80,KCXP 271355Z AUTO 00000KT 10SM CLR 21/07 A3017 RMK AO2,M
BVU,2022-07-27 13:55,-114.8611,35.9475,671.00,M,M,M,M,M,0.00,M,M,M,M,M,M,M,M,M,M,M,M,M,M,M,M,M,M,M,M,KBVU 271355Z AUTO RMK AO2 PNO PWINO TSNO,M
RNO,2022-07-27 13:55,-119.7711,39.4839,1341.00,74.00,47.00,38.26,150.00,6.00,0.00,30.14,1013.80,10.00,M,BKN,M,M,M,16000.00,M,M,M,M,M,M,M,M,M,M,73.90,KRNO 271355Z 15006KT 10SM BKN160 23/08 A3014 RMK AO2 SLP138 HZ ALQDS T02330083,M
EKO,2022-07-27 13:56,-115.7860,40.8242,1367.00,66.00,30.90,26.81,20.00,4.00,0.00,30.17,1014.80,10.00,M,CLR,M,M,M,M,M,M,M,M,M,M,M,M,M,M,66.00,KEKO 271356Z AUTO 02004KT 10SM CLR 19/M01 A3017 RMK AO2 SLP148 T01891006,M
NFL,2022-07-27 13:56,-118.7010,39.4166,1199.00,73.00,43.00,34.00,160.00,5.00,0.00,30.06,1014.70,10.00,M,CLR,M,M,M,M,M,M,M,M,M,M,M,M,M,M,73.00,KNFL 271356Z AUTO 16005KT 10SM CLR 23/06 A3006 RMK AO2 SLP147 T02280061,M
WMC,2022-07-27 13:56,-117.8072,40.9019,1315.00,62.00,28.00,27.30,140.00,5.00,0.00,30.12,1014.30,10.00,M,CLR,M,M,M,M,M,M,M,M,M,M,M,M,M,M,62.10,KWMC 271356Z AUTO 14005KT 10SM CLR 17/M02 A3012 RMK AO2 SLP143 T01671022,M
HND,2022-07-27 13:56,-115.1344,35.9729,742.79,82.00,61.00,49.03,220.00,3.00,0.00,30.00,1014.50,10.00,M,CLR,M,M,M,M,M,M,M,M,M,M,M,M,M,M,82.62,KHND 271356Z 22003KT 10SM CLR 28/16 A3000 RMK AO2 SLP145 T02780161,M
TPH,2022-07-27 13:56,-117.0904,38.0505,1654.00,69.00,45.00,41.90,20.00,5.00,0.00,30.19,1013.90,10.00,M,CLR,M,M,M,M,M,M,M,M,M,M,M,M,M,M,69.10,KTPH 271356Z AUTO 02005KT 10SM CLR 21/07 A3019 RMK AO2 SLP139 T02060072,M
LAS,2022-07-27 13:56,-115.1634,36.0719,663.00,83.00,64.00,52.93,100.00,3.00,0.00,29.96,1011.80,10.00,M,FEW,M,M,M,15000.00,M,M,M,M,M,M,M,M,M,M,84.32,KLAS 271356Z 10003KT 10SM FEW150 28/18 A2996 RMK AO2 SLP118 T02830178,M
INS,2022-07-27 13:58,-115.6733,36.5872,955.00,77.70,62.20,58.90,0.00,0.00,0.00,30.02,M,10.00,M,OVC,M,M,M,17000.00,M,M,M,M,M,M,M,M,M,M,77.70,KINS 271358Z AUTO 00000KT 10SM OVC170 25/17 A3002 RMK AO2 SLPNO T02540168 $,M
LSV,2022-07-27 13:58,-115.0343,36.2362,570.00,82.00,69.30,65.69,60.00,7.00,0.00,29.94,M,10.00,M,CLR,M,M,M,M,M,M,M,M,M,M,M,M,M,M,85.36,KLSV 271358Z AUTO 06007KT 10SM CLR 28/21 A2994 RMK AO2 SLPNO T02770207 $,M
BVU,2022-07-27 14:15,-114.8611,35.9475,671.00,M,M,M,M,M,0.00,M,M,M,M,M,M,M,M,M,M,M,M,M,M,M,M,M,M,M,M,KBVU 271415Z AUTO RMK AO2 PNO PWINO TSNO,M
HTH,2022-07-27 14:15,-118.6315,38.5448,1282.89,75.20,48.20,38.46,240.00,5.00,0.00,30.11,M,10.00,M,M,M,M,M,M,M,M,M,M,M,M,M,M,M,M,75.20,KHTH 271415Z AUTO 24005KT 10SM 24/09 A3011 RMK A01,M
TMT,2022-07-27 14:15,-117.1971,39.4643,1749.34,57.70,41.00,53.62,0.00,0.00,0.00,30.23,M,10.00,M,CLR,M,M,M,M,M,M,M,M,M,M,M,M,M,M,57.70,KTMT 271415Z AUTO 00000KT 10SM CLR 14/05 A3023 RMK AO2 T01430050,M
BAM,2022-07-27 14:15,-116.8743,40.5990,1382.36,M,M,M,70.00,3.00,0.00,30.13,M,10.00,M,CLR,M,M,M,M,M,M,M,M,M,M,M,M,M,M,M,KBAM 271415Z AUTO 07003KT 10SM CLR A3013 RMK AO1,M
CXP,2022-07-27 14:15,-119.7326,39.1923,1431.00,71.60,46.40,40.57,0.00,0.00,0.00,30.18,M,10.00,M,CLR,M,M,M,M,M,M,M,M,M,M,M,M,M,M,71.60,KCXP 271415Z AUTO 00000KT 10SM CLR 22/08 A3018 RMK AO2,M
RTS,2022-07-27 14:15,-119.8764,39.6682,1539.00,68.00,41.00,37.32,340.00,5.00,0.00,30.19,M,10.00,M,CLR,M,M,M,M,M,M,M,M,M,M,M,M,M,M,68.00,KRTS 271415Z AUTO 34005KT 10SM CLR 20/05 A3019 RMK AO2,M
MEV,2022-07-27 14:15,-119.7500,38.9963,1441.42,68.00,48.20,49.10,130.00,4.00,0.00,30.16,M,6.00,M,CLR,M,M,M,M,M,M,M,HZ,M,M,M,M,M,M,68.00,KMEV 271415Z AUTO 13004KT 6SM HZ CLR 20/09 A3016 RMK AO2,M
RTS,2022-07-27 14:35,-119.8764,39.6682,1539.00,71.60,44.60,37.89,310.00,5.00,0.00,30.19,M,10.00,M,CLR,M,M,M,M,M,M,M,M,M,M,M,M,M,M,71.60,KRTS 271435Z AUTO 31005KT 10SM CLR 22/07 A3019 RMK AO2,M
BVU,2022-07-27 14:35,-114.8611,35.9475,671.00,M,M,M,M,M,0.00,M,M,M,M,M,M,M,M,M,M,M,M,M,M,M,M,M,M,M,M,KBVU 271435Z AUTO RMK AO2 PNO PWINO TSNO,M
CXP,2022-07-27 14:35,-119.7326,39.1923,1431.00,73.40,46.40,38.18,0.00,0.00,0.00,30.18,M,10.00,M,CLR,M,M,M,M,M,M,M,M,M,M,M,M,M,M,73.40,KCXP 271435Z AUTO 00000KT 10SM CLR 23/08 A3018 RMK AO2,M
MEV,2022-07-27 14:35,-119.7500,38.9963,1441.42,68.00,50.00,52.51,0.00,0.00,0.00,30.17,M,3.00,M,CLR,M,M,M,M,M,M,M,HZ,M,M,M,M,M,M,68.00,KMEV 271435Z AUTO 00000KT 3SM HZ CLR 20/10 A3017 RMK AO2,M
BAM,2022-07-27 14:35,-116.8743,40.5990,1382.36,M,M,M,50.00,3.00,0.00,30.14,M,10.00,M,CLR,M,M,M,M,M,M,M,M,M,M,M,M,M,M,M,KBAM 271435Z AUTO 05003KT 10SM CLR A3014 RMK AO1,M
HTH,2022-07-27 14:35,-118.6315,38.5448,1282.89,75.20,44.60,33.57,280.00,4.00,0.00,30.11,M,10.00,M,CLR,M,M,M,M,M,M,M,M,M,M,M,M,M,M,75.20,KHTH 271435Z AUTO 28004KT 10SM CLR 24/07 A3011 RMK A01,M
TMT,2022-07-27 14:35,-117.1971,39.4643,1749.34,M,M,M,0.00,0.00,0.00,30.24,M,10.00,M,CLR,M,M,M,M,M,M,M,M,M,M,M,M,M,M,M,KTMT 271435Z AUTO 00000KT 10SM CLR A3024 RMK AO2,M
NFL,2022-07-27 14:43,-118.7010,39.4166,1199.00,79.00,45.00,30.05,190.00,4.00,0.00,30.07,M,10.00,M,FEW,BKN,M,M,10000.00,15000.00,M,M,M,M,M,M,M,M,M,79.00,KNFL 271443Z 19004KT 10SM FEW100 BKN150 26/07 A3007 RMK AO2 T02610072,M
DRA,2022-07-27 14:53,-116.0278,36.6206,1009.00,82.00,62.00,50.97,90.00,8.00,0.00,30.03,1011.50,10.00,M,CLR,M,M,M,M,M,M,M,M,M,M,M,M,M,M,82.91,KDRA 271453Z AUTO 09008KT 10SM CLR 28/17 A3003 RMK AO2 SLP115 T02780167 51011,M
ELY,2022-07-27 14:53,-114.8453,39.2950,1909.00,66.00,51.00,58.62,180.00,7.00,0.00,30.25,1013.80,10.00,M,CLR,M,M,M,M,M,M,M,M,M,M,M,M,M,M,66.00,KELY 271453Z AUTO 18007KT 10SM CLR 19/11 A3025 RMK AO2 SLP138 T01890106 51006,M
VGT,2022-07-27 14:53,-115.1933,36.2111,667.00,86.00,64.00,47.91,60.00,4.00,0.00,29.97,1013.50,10.00,M,CLR,M,M,M,M,M,M,M,M,M,M,M,M,M,M,87.31,KVGT 271453Z 06004KT 10SM CLR 30/18 A2997 RMK AO2 SLP135 T03000178 52013,M
P68,2022-07-27 14:53,-116.0056,39.6014,1993.00,72.00,43.00,35.16,0.00,0.00,0.00,30.22,1014.00,M,M,M,M,M,M,M,M,M,M,M,M,M,M,M,M,M,72.00,KP68 271453Z AUTO 00000KT 22/06 A3022 RMK AO1 SLP140 T02220061 51009,M
LOL,2022-07-27 14:53,-118.5701,40.0684,1192.43,82.00,36.00,19.21,330.00,5.00,0.00,30.07,1013.10,10.00,M,CLR,M,M,M,M,M,M,M,M,M,M,M,M,M,M,79.83,KLOL 271453Z AUTO 33005KT 10SM CLR 28/02 A3007 RMK AO2 SLP131 T02780022 53012,M
TMT,2022-07-27 14:55,-117.1971,39.4643,1749.34,M,M,M,0.00,0.00,0.00,30.24,M,10.00,M,CLR,M,M,M,M,M,M,M,M,M,M,M,M,M,M,M,KTMT 271455Z AUTO 00000KT 10SM CLR A3024 RMK AO2,M
RTS,2022-07-27 14:55,-119.8764,39.6682,1539.00,73.40,44.60,35.66,310.00,5.00,0.00,30.20,M,10.00,M,CLR,M,M,M,M,M,M,M,M,M,M,M,M,M,M,73.40,KRTS 271455Z AUTO 31005KT 10SM CLR 23/07 A3020 RMK AO2,M
BAM,2022-07-27 14:55,-116.8743,40.5990,1382.36,M,M,M,30.00,3.00,0.00,30.14,M,10.00,M,CLR,M,M,M,M,M,M,M,M,M,M,M,M,M,M,M,KBAM 271455Z AUTO 03003KT 10SM CLR A3014 RMK AO1,M
CXP,2022-07-27 14:55,-119.7326,39.1923,1431.00,73.40,46.40,38.18,0.00,0.00,0.00,30.18,M,10.00,M,CLR,M,M,M,M,M,M,M,M,M,M,M,M,M,M,73.40,KCXP 271455Z AUTO 00000KT 10SM CLR 23/08 A3018 RMK AO2,M
BVU,2022-07-27 14:55,-114.8611,35.9475,671.00,M,M,M,M,M,0.00,M,M,M,M,M,M,M,M,M,M,M,M,M,M,M,M,M,M,M,M,KBVU 271455Z AUTO RMK AO2 PNO PWINO TSNO,M
MEV,2022-07-27 14:55,-119.7500,38.9963,1441.42,69.80,48.20,46.16,0.00,0.00,0.00,30.17,M,9.00,M,CLR,M,M,M,M,M,M,M,M,M,M,M,M,M,M,69.80,KMEV 271455Z AUTO 00000KT 9SM CLR 21/09 A3017 RMK AO2,M
RNO,2022-07-27 14:55,-119.7711,39.4839,1341.00,75.00,46.00,35.64,180.00,4.00,0.00,30.14,1014.10,10.00,M,BKN,M,M,M,19000.00,M,M,M,M,M,M,M,M,M,M,75.00,KRNO 271455Z 18004KT 10SM BKN190 24/08 A3014 RMK AO2 SLP141 T02390078 51010,M
HTH,2022-07-27 14:55,-118.6315,38.5448,1282.89,75.20,44.60,33.57,0.00,0.00,0.00,30.11,M,10.00,M,CLR,M,M,M,M,M,M,M,M,M,M,M,M,M,M,75.20,KHTH 271455Z AUTO 00000KT 10SM CLR 24/07 A3011 RMK A01,M
NFL,2022-07-27 14:56,-118.7010,39.4166,1199.00,81.00,45.00,28.15,210.00,4.00,0.00,30.07,1015.10,10.00,M,FEW,BKN,M,M,10000.00,15000.00,M,M,M,M,M,M,M,M,M,79.68,KNFL 271456Z 21004KT 10SM FEW100 BKN150 27/07 A3007 RMK AO2 SLP151 T02720072 53013,M
HND,2022-07-27 14:56,-115.1344,35.9729,742.79,85.00,66.00,53.21,0.00,0.00,0.00,30.01,1014.80,10.00,M,CLR,M,M,M,M,M,M,M,M,M,M,M,M,M,M,87.13,KHND 271456Z 00000KT 10SM CLR 29/19 A3001 RMK AO2 SLP148 T02940189 51013,M
TPH,2022-07-27 14:56,-117.0904,38.0505,1654.00,71.00,46.00,40.65,0.00,0.00,0.00,30.20,1014.00,10.00,M,CLR,M,M,M,M,M,M,M,M,M,M,M,M,M,M,71.10,KTPH 271456Z AUTO 00000KT 10SM CLR 22/08 A3020 RMK AO2 SLP140 T02170078 53009,M
LAS,2022-07-27 14:56,-115.1634,36.0719,663.00,85.00,63.00,47.91,0.00,0.00,0.00,29.97,1012.10,10.00,M,FEW,SCT,M,M,12000.00,17000.00,M,M,M,M,M,M,M,M,M,85.83,KLAS 271456Z 00000KT 10SM FEW120 SCT170 29/17 A2997 RMK AO2 SLP121 T02940172 51015,M
EKO,2022-07-27 14:56,-115.7860,40.8242,1367.00,71.00,33.00,24.59,0.00,0.00,0.00,30.18,1015.10,10.00,M,CLR,M,M,M,M,M,M,M,M,M,M,M,M,M,M,71.10,KEKO 271456Z AUTO 00000KT 10SM CLR 22/01 A3018 RMK AO2 SLP151 T02170006 51013,M
WMC,2022-07-27 14:56,-117.8072,40.9019,1315.00,75.00,28.00,17.53,0.00,0.00,0.00,30.12,1013.90,10.00,M,CLR,M,M,M,M,M,M,M,M,M,M,M,M,M,M,75.00,KWMC 271456Z AUTO 00000KT 10SM CLR 24/M02 A3012 RMK AO2 SLP139 T02391022 51012,M
INS,2022-07-27 14:58,-115.6733,36.5872,955.00,79.50,61.30,53.77,0.00,0.00,0.00,30.03,1011.80,10.00,M,OVC,M,M,M,17000.00,M,M,M,M,M,M,M,M,M,M,79.50,KINS 271458Z AUTO 00000KT 10SM OVC170 26/16 A3003 RMK AO2 SLP118 T02640163 51011 $,M
LSV,2022-07-27 14:58,-115.0343,36.2362,570.00,89.00,67.30,48.69,0.00,0.00,0.00,29.94,1011.10,10.00,M,CLR,M,M,M,M,M,M,M,M,M,M,M,M,M,M,92.42,KLSV 271458Z AUTO 00000KT 10SM CLR 32/20 A2994 RMK AO2 SLP111 T03170196 52012 $,M
RTS,2022-07-27 15:15,-119.8764,39.6682,1539.00,75.20,44.60,33.57,290.00,6.00,0.00,30.20,M,10.00,M,CLR,M,M,M,M,M,M,M,M,M,M,M,M,M,M,75.20,KRTS 271515Z AUTO 29006KT 10SM CLR 24/07 A3020 RMK AO2,M
TMT,2022-07-27 15:15,-117.1971,39.4643,1749.34,M,M,M,0.00,0.00,0.00,30.24,M,10.00,M,CLR,M,M,M,M,M,M,M,M,M,M,M,M,M,M,M,KTMT 271515Z AUTO 00000KT 10SM CLR A3024 RMK AO2,M
MEV,2022-07-27 15:15,-119.7500,38.9963,1441.42,71.60,46.40,40.57,M,M,0.00,30.17,M,4.00,M,CLR,M,M,M,M,M,M,M,HZ,M,M,M,M,M,M,71.60,KMEV 271515Z AUTO 4SM HZ CLR 22/08 A3017 RMK AO2,M
BAM,2022-07-27 15:15,-116.8743,40.5990,1382.36,M,M,M,20.00,3.00,0.00,30.14,M,10.00,M,CLR,M,M,M,M,M,M,M,M,M,M,M,M,M,M,M,KBAM 271515Z AUTO 02003KT 10SM CLR A3014 RMK AO1,M
HTH,2022-07-27 15:15,-118.6315,38.5448,1282.89,77.00,46.40,33.85,310.00,4.00,0.00,30.12,M,10.00,M,CLR,M,M,M,M,M,M,M,M,M,M,M,M,M,M,77.00,KHTH 271515Z AUTO 31004KT 10SM CLR 25/08 A3012 RMK A01,M
CXP,2022-07-27 15:15,-119.7326,39.1923,1431.00,75.20,46.40,35.94,0.00,0.00,0.00,30.18,M,10.00,M,CLR,M,M,M,M,M,M,M,M,M,M,M,M,M,M,75.20,KCXP 271515Z AUTO 00000KT 10SM CLR 24/08 A3018 RMK AO2,M
BVU,2022-07-27 15:15,-114.8611,35.9475,671.00,M,M,M,M,M,0.00,M,M,M,M,M,M,M,M,M,M,M,M,M,M,M,M,M,M,M,M,KBVU 271515Z AUTO RMK AO2 PNO PWINO TSNO,M
BAM,2022-07-27 15:35,-116.8743,40.5990,1382.36,M,M,M,20.00,5.00,0.00,30.14,M,10.00,M,CLR,M,M,M,M,M,M,M,M,M,M,M,M,M,M,M,KBAM 271535Z AUTO 02005KT 10SM CLR A3014 RMK AO1,M
TMT,2022-07-27 15:35,-117.1971,39.4643,1749.34,M,M,M,0.00,0.00,0.00,30.24,M,10.00,M,CLR,M,M,M,M,M,M,M,M,M,M,M,M,M,M,M,KTMT 271535Z AUTO 00000KT 10SM CLR A3024 RMK AO2,M
HTH,2022-07-27 15:35,-118.6315,38.5448,1282.89,77.00,44.60,31.62,0.00,0.00,0.00,30.12,M,10.00,M,CLR,M,M,M,M,M,M,M,M,M,M,M,M,M,M,77.00,KHTH 271535Z AUTO 00000KT 10SM CLR 25/07 A3012 RMK A01,M
MEV,2022-07-27 15:35,-119.7500,38.9963,1441.42,77.00,46.40,33.85,M,3.00,0.00,30.17,M,8.00,M,CLR,M,M,M,M,M,M,M,M,M,M,M,M,M,M,77.00,KMEV 271535Z AUTO VRB03KT 8SM CLR 25/08 A3017 RMK AO2,M
RTS,2022-07-27 15:35,-119.8764,39.6682,1539.00,77.00,42.80,29.51,290.00,4.00,0.00,30.20,M,10.00,M,CLR,M,M,M,M,M,M,M,M,M,M,M,M,M,M,77.00,KRTS 271535Z AUTO 29004KT 10SM CLR 25/06 A3020 RMK AO2,M
CXP,2022-07-27 15:35,-119.7326,39.1923,1431.00,77.00,46.40,33.85,M,4.00,0.00,30.18,M,10.00,M,CLR,M,M,M,M,M,M,M,M,M,M,M,M,M,M,77.00,KCXP 271535Z AUTO VRB04KT 10SM CLR 25/08 A3018 RMK AO2,M
BVU,2022-07-27 15:35,-114.8611,35.9475,671.00,M,M,M,M,M,0.00,M,M,M,M,M,M,M,M,M,M,M,M,M,M,M,M,M,M,M,M,KBVU 271535Z AUTO RMK AO2 PNO PWINO TSNO,M
VGT,2022-07-27 15:53,-115.1933,36.2111,667.00,88.00,64.00,44.95,0.00,0.00,0.00,29.98,1013.70,10.00,M,CLR,M,M,M,M,M,M,M,M,M,M,M,M,M,M,89.34,KVGT 271553Z 00000KT 10SM CLR 31/18 A2998 RMK AO2 SLP137 T03110178,M
P68,2022-07-27 15:53,-116.0056,39.6014,1993.00,78.00,43.00,28.68,110.00,5.00,0.00,30.22,1013.60,M,M,M,M,M,M,M,M,M,M,M,M,M,M,M,M,M,78.10,KP68 271553Z AUTO 11005KT 26/06 A3022 RMK AO1 SLP136 T02560061,M
ELY,2022-07-27 15:53,-114.8453,39.2950,1909.00,73.00,52.00,47.69,170.00,6.00,0.00,30.25,1013.70,10.00,M,CLR,M,M,M,M,M,M,M,M,M,M,M,M,M,M,73.00,KELY 271553Z AUTO 17006KT 10SM CLR 23/11 A3025 RMK AO2 SLP137 T02280111,M
DRA,2022-07-27 15:53,-116.0278,36.6206,1009.00,86.00,60.00,41.74,0.00,0.00,0.00,30.03,1011.60,10.00,M,CLR,M,M,M,M,M,M,M,M,M,M,M,M,M,M,85.81,KDRA 271553Z AUTO 00000KT 10SM CLR 30/16 A3003 RMK AO2 SLP116 T03000156,M
LOL,2022-07-27 15:53,-118.5701,40.0684,1192.43,88.00,34.00,14.64,M,4.00,0.00,30.08,1013.50,10.00,M,CLR,M,M,M,M,M,M,M,M,M,M,M,M,M,M,84.26,KLOL 271553Z AUTO VRB04KT 10SM CLR 31/01 A3008 RMK AO2 SLP135 T03110011,M
TMT,2022-07-27 15:55,-117.1971,39.4643,1749.34,M,M,M,0.00,0.00,0.00,30.24,M,10.00,M,CLR,M,M,M,M,M,M,M,M,M,M,M,M,M,M,M,KTMT 271555Z AUTO 00000KT 10SM CLR A3024 RMK AO2,M
BVU,2022-07-27 15:55,-114.8611,35.9475,671.00,M,M,M,M,M,0.00,M,M,M,M,M,M,M,M,M,M,M,M,M,M,M,M,M,M,M,M,KBVU 271555Z AUTO RMK AO2 PNO PWINO TSNO,M
CXP,2022-07-27 15:55,-119.7326,39.1923,1431.00,77.00,46.40,33.85,0.00,0.00,0.00,30.19,M,10.00,M,CLR,M,M,M,M,M,M,M,M,M,M,M,M,M,M,77.00,KCXP 271555Z AUTO 00000KT 10SM CLR 25/08 A3019 RMK AO2,M
RNO,2022-07-27 15:55,-119.7711,39.4839,1341.00,80.00,48.00,32.46,0.00,0.00,0.00,30.15,1014.30,10.00,M,BKN,M,M,M,18000.00,M,M,M,M,M,M,M,M,M,M,79.42,KRNO 271555Z 00000KT 10SM BKN180 27/09 A3015 RMK AO2 SLP143 T02670089,M
BAM,2022-07-27 15:55,-116.8743,40.5990,1382.36,M,M,M,360.00,4.00,0.00,30.15,M,10.00,M,CLR,M,M,M,M,M,M,M,M,M,M,M,M,M,M,M,KBAM 271555Z AUTO 36004KT 10SM CLR A3015 RMK AO1,M
RTS,2022-07-27 15:55,-119.8764,39.6682,1539.00,77.00,44.60,31.62,150.00,7.00,0.00,30.21,M,10.00,M,CLR,M,M,M,M,M,M,M,M,M,M,M,M,M,M,77.00,KRTS 271555Z AUTO 15007KT 10SM CLR 25/07 A3021 RMK AO2,M
MEV,2022-07-27 15:55,-119.7500,38.9963,1441.42,78.80,46.40,31.90,M,3.00,0.00,30.17,M,9.00,M,CLR,M,M,M,M,M,M,M,M,M,M,M,M,M,M,78.80,KMEV 271555Z AUTO VRB03KT 9SM CLR 26/08 A3017 RMK AO2,M
HTH,2022-07-27 15:55,-118.6315,38.5448,1282.89,78.80,44.60,29.79,0.00,0.00,0.00,30.12,M,10.00,M,CLR,M,M,M,M,M,M,M,M,M,M,M,M,M,M,78.80,KHTH 271555Z AUTO 00000KT 10SM CLR 26/07 A3012 RMK A01,M
WMC,2022-07-27 15:56,-117.8072,40.9019,1315.00,81.00,28.00,14.38,0.00,0.00,0.00,30.12,1014.20,10.00,M,CLR,M,M,M,M,M,M,M,M,M,M,M,M,M,M,78.98,KWMC 271556Z AUTO 00000KT 10SM CLR 27/M02 A3012 RMK AO2 SLP142 T02721022,M
HND,2022-07-27 15:56,-115.1344,35.9729,742.79,87.00,64.00,46.26,230.00,3.00,0.00,30.02,1015.00,10.00,M,CLR,M,M,M,M,M,M,M,M,M,M,M,M,M,M,88.42,KHND 271556Z 23003KT 10SM CLR 31/18 A3002 RMK AO2 SLP150 T03060178,M
NFL,2022-07-27 15:56,-118.7010,39.4166,1199.00,87.00,40.00,19.01,310.00,4.00,0.00,30.08,1015.40,7.00,M,FEW,BKN,M,M,12000.00,15000.00,M,M,M,M,M,M,M,M,M,83.68,KNFL 271556Z 31004KT 7SM FEW120 BKN150 31/04 A3008 RMK AO2 SLP154 T03060044,M
EKO,2022-07-27 15:56,-115.7860,40.8242,1367.00,78.00,30.00,17.16,0.00,0.00,0.00,30.18,1015.10,10.00,M,CLR,M,M,M,M,M,M,M,M,M,M,M,M,M,M,78.10,KEKO 271556Z AUTO 00000KT 10SM CLR 26/M01 A3018 RMK AO2 SLP151 T02561011,M
TPH,2022-07-27 15:56,-117.0904,38.0505,1654.00,75.00,48.00,38.43,0.00,0.00,0.00,30.21,1014.30,10.00,M,CLR,M,M,M,M,M,M,M,M,M,M,M,M,M,M,75.00,KTPH 271556Z AUTO 00000KT 10SM CLR 24/09 A3021 RMK AO2 SLP143 T02390089,M
LAS,2022-07-27 15:56,-115.1634,36.0719,663.00,86.00,64.00,47.91,0.00,0.00,0.00,29.99,1012.60,10.00,M,FEW,SCT,BKN,M,12000.00,17000.00,22000.00,M,M,M,M,M,M,M,M,87.31,KLAS 271556Z 00000KT 10SM FEW120 SCT170 BKN220 30/18 A2999 RMK AO2 SLP126 T03000178,M
LSV,2022-07-27 15:58,-115.0343,36.2362,570.00,92.00,66.20,42.93,0.00,0.00,0.00,29.96,1011.80,10.00,M,CLR,M,M,M,M,M,M,M,M,M,M,M,M,M,M,94.85,KLSV 271558Z AUTO 00000KT 10SM CLR 33/19 A2996 RMK AO2 SLP118 T03330190 $,M
INS,2022-07-27 15:58,-115.6733,36.5872,955.00,85.60,59.20,40.95,0.00,0.00,0.00,30.03,1011.60,10.00,M,SCT,M,M,M,18000.00,M,M,M,M,M,M,M,M,M,M,85.17,KINS 271558Z AUTO 00000KT 10SM SCT180 30/15 A3003 RMK AO2 SLP116 T02980151 $,M
TMT,2022-07-27 16:15,-117.1971,39.4643,1749.34,M,M,M,0.00,0.00,0.00,30.24,M,10.00,M,CLR,M,M,M,M,M,M,M,M,M,M,M,M,M,M,M,KTMT 271615Z AUTO 00000KT 10SM CLR A3024 RMK AO2,M
BVU,2022-07-27 16:15,-114.8611,35.9475,671.00,M,M,M,M,M,0.00,M,M,M,M,M,M,M,M,M,M,M,M,M,M,M,M,M,M,M,M,KBVU 271615Z AUTO RMK AO2 PNO PWINO TSNO,M
RTS,2022-07-27 16:15,-119.8764,39.6682,1539.00,80.60,42.80,26.22,M,4.00,0.00,30.21,M,10.00,M,CLR,M,M,M,M,M,M,M,M,M,M,M,M,M,M,79.30,KRTS 271615Z AUTO VRB04KT 10SM CLR 27/06 A3021 RMK AO2,M
MEV,2022-07-27 16:15,-119.7500,38.9963,1441.42,78.80,46.40,31.90,0.00,0.00,0.00,30.17,M,10.00,M,CLR,M,M,M,M,M,M,M,M,M,M,M,M,M,M,78.80,KMEV 271615Z AUTO 00000KT 10SM CLR 26/08 A3017 RMK AO2,M
BAM,2022-07-27 16:15,-116.8743,40.5990,1382.36,M,M,M,330.00,5.00,0.00,30.15,M,10.00,M,CLR,M,M,M,M,M,M,M,M,M,M,M,M,M,M,M,KBAM 271615Z AUTO 33005KT 10SM CLR A3015 RMK AO1,M
HTH,2022-07-27 16:15,-118.6315,38.5448,1282.89,82.40,44.60,26.49,330.00,4.00,0.00,30.12,M,10.00,M,CLR,M,M,M,M,M,M,M,M,M,M,M,M,M,M,80.50,KHTH 271615Z AUTO 33004KT 10SM CLR 28/07 A3012 RMK A01,M
CXP,2022-07-27 16:15,-119.7326,39.1923,1431.00,78.80,46.40,31.90,M,3.00,0.00,30.19,M,10.00,M,CLR,M,M,M,M,M,M,M,M,M,M,M,M,M,M,78.80,KCXP 271615Z AUTO VRB03KT 10SM CLR 26/08 A3019 RMK AO2,M
BAM,2022-07-27 16:35,-116.8743,40.5990,1382.36,M,M,M,0.00,0.00,0.00,30.15,M,10.00,M,CLR,M,M,M,M,M,M,M,M,M,M,M,M,M,M,M,KBAM 271635Z AUTO 00000KT 10SM CLR A3015 RMK AO1,M
HTH,2022-07-27 16:35,-118.6315,38.5448,1282.89,82.40,44.60,26.49,350.00,4.00,0.00,30.12,M,10.00,M,CLR,M,M,M,M,M,M,M,M,M,M,M,M,M,M,80.50,KHTH 271635Z AUTO 35004KT 10SM CLR 28/07 A3012 RMK A01,M
BVU,2022-07-27 16:35,-114.8611,35.9475,671.00,M,M,M,M,M,0.00,M,M,M,M,M,M,M,M,M,M,M,M,M,M,M,M,M,M,M,M,KBVU 271635Z AUTO RMK AO2 PNO PWINO TSNO,M
CXP,2022-07-27 16:35,-119.7326,39.1923,1431.00,80.60,46.40,30.07,M,4.00,0.00,30.18,M,10.00,M,CLR,M,M,M,M,M,M,M,M,M,M,M,M,M,M,79.56,KCXP 271635Z AUTO VRB04KT 10SM CLR 27/08 A3018 RMK AO2,M
RTS,2022-07-27 16:35,-119.8764,39.6682,1539.00,82.40,39.20,21.51,0.00,0.00,0.00,30.21,M,10.00,M,CLR,M,M,M,M,M,M,M,M,M,M,M,M,M,M,80.21,KRTS 271635Z AUTO 00000KT 10SM CLR 28/04 A3021 RMK AO2,M
MEV,2022-07-27 16:35,-119.7500,38.9963,1441.42,80.60,44.60,28.08,0.00,0.00,0.00,30.17,M,9.00,M,CLR,M,M,M,M,M,M,M,M,M,M,M,M,M,M,79.42,KMEV 271635Z AUTO 00000KT 9SM CLR 27/07 A3017 RMK AO2,M
TMT,2022-07-27 16:35,-117.1971,39.4643,1749.34,M,M,M,0.00,0.00,0.00,30.24,M,10.00,M,CLR,M,M,M,M,M,M,M,M,M,M,M,M,M,M,M,KTMT 271635Z AUTO 00000KT 10SM CLR A3024 RMK AO2,M
ELY,2022-07-27 16:53,-114.8453,39.2950,1909.00,80.00,50.00,34.98,190.00,5.00,0.00,30.25,1013.60,10.00,M,CLR,M,M,M,M,M,M,M,M,M,M,M,M,M,M,79.60,KELY 271653Z AUTO 19005KT 10SM CLR 27/10 A3025 RMK AO2 SLP136 T02670100,M
VGT,2022-07-27 16:53,-115.1933,36.2111,667.00,91.00,61.00,36.80,100.00,7.00,0.00,29.97,1013.60,10.00,M,CLR,M,M,M,M,M,M,M,M,M,M,M,M,M,M,91.06,KVGT 271653Z 10007KT 10SM CLR 33/16 A2997 RMK AO2 SLP136 T03280161,M
P68,2022-07-27 16:53,-116.0056,39.6014,1993.00,83.00,38.00,20.11,M,4.00,0.00,30.22,1014.00,M,M,M,M,M,M,M,M,M,M,M,M,M,M,M,M,M,80.49,KP68 271653Z AUTO VRB04KT 28/03 A3022 RMK AO1 SLP140 T02830033,M
DRA,2022-07-27 16:53,-116.0278,36.6206,1009.00,90.00,59.00,35.36,310.00,5.00,0.00,30.03,1011.30,10.00,M,CLR,M,M,M,M,M,M,M,M,M,M,M,M,M,M,89.26,KDRA 271653Z AUTO 31005KT 10SM CLR 32/15 A3003 RMK AO2 SLP113 T03220150,M
LOL,2022-07-27 16:53,-118.5701,40.0684,1192.43,93.00,28.00,9.81,60.00,9.00,0.00,30.08,1013.10,10.00,M,CLR,M,M,M,M,M,M,M,M,M,M,M,M,M,M,87.70,KLOL 271653Z AUTO 06009KT 10SM CLR 34/M02 A3008 RMK AO2 SLP131 T03391022,M
BAM,2022-07-27 16:55,-116.8743,40.5990,1382.36,M,M,M,0.00,0.00,0.00,30.14,M,10.00,M,CLR,M,M,M,M,M,M,M,M,M,M,M,M,M,M,M,KBAM 271655Z AUTO 00000KT 10SM CLR A3014 RMK AO1,M
TMT,2022-07-27 16:55,-117.1971,39.4643,1749.34,M,M,M,0.00,0.00,0.00,30.24,M,10.00,M,CLR,M,M,M,M,M,M,M,M,M,M,M,M,M,M,M,KTMT 271655Z AUTO 00000KT 10SM CLR A3024 RMK AO2,M
HTH,2022-07-27 16:55,-118.6315,38.5448,1282.89,84.20,44.60,24.99,360.00,5.00,0.00,30.12,M,10.00,M,CLR,M,M,M,M,M,M,M,M,M,M,M,M,M,M,81.73,KHTH 271655Z AUTO 36005KT 10SM CLR 29/07 A3012 RMK A01,M
BVU,2022-07-27 16:55,-114.8611,35.9475,671.00,M,M,M,M,M,0.00,M,M,M,M,M,M,M,M,M,M,M,M,M,M,M,M,M,M,M,M,KBVU 271655Z AUTO RMK AO2 PNO PWINO TSNO,M
RNO,2022-07-27 16:55,-119.7711,39.4839,1341.00,85.00,46.00,25.77,M,3.00,0.00,30.15,1013.90,10.00,M,BKN,M,M,M,15000.00,M,M,M,M,M,M,M,M,M,M,82.35,KRNO 271655Z VRB03KT 10SM BKN150 29/08 A3015 RMK AO2 SLP139 T02940078,M
CXP,2022-07-27 16:55,-119.7326,39.1923,1431.00,84.20,46.40,26.76,0.00,0.00,0.00,30.18,M,10.00,M,CLR,M,M,M,M,M,M,M,M,M,M,M,M,M,M,81.87,KCXP 271655Z AUTO 00000KT 10SM CLR 29/08 A3018 RMK AO2,M
RTS,2022-07-27 16:55,-119.8764,39.6682,1539.00,82.40,41.00,23.07,0.00,0.00,0.00,30.21,M,10.00,M,CLR,M,M,M,M,M,M,M,M,M,M,M,M,M,M,80.29,KRTS 271655Z AUTO 00000KT 10SM CLR 28/05 A3021 RMK AO2,M
MEV,2022-07-27 16:55,-119.7500,38.9963,1441.42,82.40,46.40,28.36,0.00,0.00,0.00,30.17,M,10.00,M,CLR,M,M,M,M,M,M,M,M,M,M,M,M,M,M,80.64,KMEV 271655Z AUTO 00000KT 10SM CLR 28/08 A3017 RMK AO2,M
TPH,2022-07-27 16:56,-117.0904,38.0505,1654.00,78.00,51.00,38.92,140.00,3.00,0.00,30.21,1014.10,10.00,M,CLR,M,M,M,M,M,M,M,M,M,M,M,M,M,M,78.10,KTPH 271656Z AUTO 14003KT 10SM CLR 26/11 A3021 RMK AO2 SLP141 T02560106,M
NFL,2022-07-27 16:56,-118.7010,39.4166,1199.00,90.00,36.00,14.88,350.00,8.00,0.00,30.08,1015.40,10.00,M,SCT,BKN,M,M,12000.00,15000.00,M,M,M,M,M,M,M,M,M,85.97,KNFL 271656Z 35008KT 10SM SCT120 BKN150 32/02 A3008 RMK AO2 SLP154 T03220022,M
LAS,2022-07-27 16:56,-115.1634,36.0719,663.00,89.00,63.00,41.92,M,3.00,0.00,29.98,1012.20,10.00,M,FEW,SCT,SCT,M,12000.00,17000.00,22000.00,M,M,M,M,M,M,M,M,89.99,KLAS 271656Z VRB03KT 10SM FEW120 SCT170 SCT220 32/17 A2998 RMK AO2 SLP122 T03170172,M
EKO,2022-07-27 16:56,-115.7860,40.8242,1367.00,85.00,34.00,16.16,0.00,0.00,0.00,30.17,1014.90,10.00,M,CLR,M,M,M,M,M,M,M,M,M,M,M,M,M,M,81.82,KEKO 271656Z AUTO 00000KT 10SM CLR 29/01 A3017 RMK AO2 SLP149 T02940011,M
HND,2022-07-27 16:56,-115.1344,35.9729,742.79,90.00,62.00,39.47,0.00,0.00,0.00,30.01,1014.70,10.00,M,CLR,M,M,M,M,M,M,M,M,M,M,M,M,M,M,90.51,KHND 271656Z 00000KT 10SM CLR 32/17 A3001 RMK AO2 SLP147 T03220167,M
WMC,2022-07-27 16:56,-117.8072,40.9019,1315.00,89.00,33.00,13.64,350.00,3.00,0.00,30.12,1014.10,10.00,M,CLR,M,M,M,M,M,M,M,M,M,M,M,M,M,M,85.16,KWMC 271656Z AUTO 35003KT 10SM CLR 32/01 A3012 RMK AO2 SLP141 T03170006,M
LSV,2022-07-27 16:58,-115.0343,36.2362,570.00,95.70,67.50,39.92,0.00,0.00,0.00,29.95,1011.50,10.00,M,CLR,M,M,M,M,M,M,M,M,M,M,M,M,M,M,100.26,KLSV 271658Z AUTO 00000KT 10SM CLR 35/20 A2995 RMK AO2 SLP115 T03540197 $,M
INS,2022-07-27 16:58,-115.6733,36.5872,955.00,89.40,58.80,35.77,0.00,0.00,0.00,30.02,1011.10,10.00,M,CLR,M,M,M,M,M,M,M,M,M,M,M,M,M,M,88.59,KINS 271658Z AUTO 00000KT 10SM CLR 32/15 A3002 RMK AO2 SLP111 T03190149 $,M
TMT,2022-07-27 17:15,-117.1971,39.4643,1749.34,M,M,M,0.00,0.00,0.00,30.24,M,10.00,M,CLR,M,M,M,M,M,M,M,M,M,M,M,M,M,M,M,KTMT 271715Z AUTO 00000KT 10SM CLR A3024 RMK AO2,M
MEV,2022-07-27 17:15,-119.7500,38.9963,1441.42,84.20,46.40,26.76,M,3.00,0.00,30.16,M,10.00,M,CLR,M,M,M,M,M,M,M,M,M,M,M,M,M,M,81.87,KMEV 271715Z AUTO VRB03KT 10SM CLR 29/08 A3016 RMK AO2,M
HTH,2022-07-27 17:15,-118.6315,38.5448,1282.89,86.00,46.40,25.26,300.00,4.00,0.00,30.12,M,10.00,M,CLR,M,M,M,M,M,M,M,M,M,M,M,M,M,M,83.22,KHTH 271715Z AUTO 30004KT 10SM CLR 30/08 A3012 RMK A01,M
BVU,2022-07-27 17:15,-114.8611,35.9475,671.00,M,M,M,M,M,0.00,M,M,M,M,M,M,M,M,M,M,M,M,M,M,M,M,M,M,M,M,KBVU 271715Z AUTO RMK AO2 PNO PWINO TSNO,M
BAM,2022-07-27 17:15,-116.8743,40.5990,1382.36,M,M,M,0.00,0.00,0.00,30.14,M,10.00,M,CLR,M,M,M,M,M,M,M,M,M,M,M,M,M,M,M,KBAM 271715Z AUTO 00000KT 10SM CLR A3014 RMK AO1,M
CXP,2022-07-27 17:15,-119.7326,39.1923,1431.00,86.00,44.60,23.59,0.00,0.00,0.00,30.18,M,10.00,M,CLR,M,M,M,M,M,M,M,M,M,M,M,M,M,M,83.07,KCXP 271715Z AUTO 00000KT 10SM CLR 30/07 A3018 RMK AO2,M
RTS,2022-07-27 17:15,-119.8764,39.6682,1539.00,84.20,39.20,20.29,0.00,0.00,0.00,30.21,M,10.00,M,CLR,M,M,M,M,M,M,M,M,M,M,M,M,M,M,81.44,KRTS 271715Z AUTO 00000KT 10SM CLR 29/04 A3021 RMK AO2,M
CXP,2022-07-27 17:30,-119.7326,39.1923,1431.00,87.80,42.80,20.79,M,4.00,0.00,30.17,M,10.00,M,CLR,M,M,M,M,M,M,M,M,M,M,M,M,M,M,84.40,KCXP 271730Z AUTO VRB04KT 10SM CLR 31/06 A3017 RMK AO2,M
BAM,2022-07-27 17:35,-116.8743,40.5990,1382.36,M,M,M,360.00,5.00,0.00,30.13,M,10.00,M,CLR,M,M,M,M,M,M,M,M,M,M,M,M,M,M,M,KBAM 271735Z AUTO 36005KT 10SM CLR A3013 RMK AO1,M
TMT,2022-07-27 17:35,-117.1971,39.4643,1749.34,M,M,M,0.00,0.00,0.00,30.24,M,10.00,M,CLR,M,M,M,M,M,M,M,M,M,M,M,M,M,M,M,KTMT 271735Z AUTO 00000KT 10SM CLR A3024 RMK AO2,M
HTH,2022-07-27 17:35,-118.6315,38.5448,1282.89,87.80,44.60,22.27,M,5.00,0.00,30.12,M,10.00,M,CLR,M,M,M,M,M,M,M,M,M,M,M,M,M,M,84.53,KHTH 271735Z AUTO VRB05KT 10SM CLR 31/07 A3012 RMK A01,M
MEV,2022-07-27 17:35,-119.7500,38.9963,1441.42,86.00,44.60,23.59,310.00,4.00,0.00,30.16,M,9.00,M,CLR,M,M,M,M,M,M,M,M,M,M,M,M,M,M,83.07,KMEV 271735Z AUTO 31004KT 9SM CLR 30/07 A3016 RMK AO2,M
RTS,2022-07-27 17:35,-119.8764,39.6682,1539.00,86.00,37.40,17.85,0.00,0.00,0.00,30.21,M,10.00,M,CLR,M,M,M,M,M,M,M,M,M,M,M,M,M,M,82.73,KRTS 271735Z AUTO 00000KT 10SM CLR 30/03 A3021 RMK AO2,M
BVU,2022-07-27 17:35,-114.8611,35.9475,671.00,M,M,M,M,M,0.00,M,M,M,M,M,M,M,M,M,M,M,M,M,M,M,M,M,M,M,M,KBVU 271735Z AUTO RMK AO2 PNO PWINO TSNO,M
ELY,2022-07-27 17:53,-114.8453,39.2950,1909.00,83.00,44.00,25.57,170.00,3.00,0.00,30.24,1013.00,10.00,M,CLR,M,M,M,M,M,M,M,M,M,M,M,M,M,M,80.80,KELY 271753Z AUTO 17003KT 10SM CLR 28/07 A3024 RMK AO2 SLP130 T02830067 10289 20106 58003,M
LOL,2022-07-27 17:53,-118.5701,40.0684,1192.43,95.00,28.90,9.57,M,4.00,0.00,30.08,1012.90,10.00,M,CLR,M,M,M,M,M,M,M,M,M,M,M,M,M,M,89.32,KLOL 271753Z AUTO VRB04KT 10SM CLR 35/M02 A3008 RMK AO2 SLP129 T03501017 10350 20172 50001,M
P68,2022-07-27 17:53,-116.0056,39.6014,1993.00,88.00,30.00,12.46,360.00,8.00,0.00,30.22,1013.10,M,M,M,M,M,M,M,M,M,M,M,M,M,M,M,M,M,84.13,KP68 271753Z AUTO 36008KT 31/M01 A3022 RMK AO1 SLP131 T03111011 10311 20117 56002,M
DRA,2022-07-27 17:53,-116.0278,36.6206,1009.00,93.00,59.00,32.19,M,M,0.00,30.03,1011.10,10.00,M,CLR,M,M,M,M,M,M,M,M,M,M,M,M,M,M,92.35,KDRA 271753Z AUTO 10SM CLR 34/15 A3003 RMK AO2 SLP111 T03390150 10344 20239 58001,M
VGT,2022-07-27 17:53,-115.1933,36.2111,667.00,94.00,61.00,33.62,100.00,8.00,0.00,29.97,1013.40,10.00,M,CLR,M,M,M,M,M,M,M,M,M,M,M,M,M,M,94.18,KVGT 271753Z 10008KT 10SM CLR 34/16 A2997 RMK AO2 SLP134 T03440161 10344 20278 50000,M
RTS,2022-07-27 17:55,-119.8764,39.6682,1539.00,86.00,37.40,17.85,M,4.00,0.00,30.21,M,10.00,M,CLR,M,M,M,M,M,M,M,M,M,M,M,M,M,M,82.73,KRTS 271755Z AUTO VRB04KT 10SM CLR 30/03 A3021 RMK AO2,M
MEV,2022-07-27 17:55,-119.7500,38.9963,1441.42,86.00,44.60,23.59,0.00,0.00,0.00,30.16,M,10.00,M,CLR,M,M,M,M,M,M,M,M,M,M,M,M,M,M,83.07,KMEV 271755Z AUTO 00000KT 10SM CLR 30/07 A3016 RMK AO2,M
CXP,2022-07-27 17:55,-119.7326,39.1923,1431.00,87.80,42.80,20.79,M,3.00,0.00,30.17,M,10.00,M,CLR,M,M,M,M,M,M,M,M,M,M,M,M,M,M,84.40,KCXP 271755Z AUTO VRB03KT 10SM CLR 31/06 A3017 RMK AO2,M
BAM,2022-07-27 17:55,-116.8743,40.5990,1382.36,M,M,M,320.00,5.00,0.00,30.14,M,10.00,M,CLR,M,M,M,M,M,M,M,M,M,M,M,M,M,M,M,KBAM 271755Z AUTO 32005KT 10SM CLR A3014 RMK AO1,M
RNO,2022-07-27 17:55,-119.7711,39.4839,1341.00,89.00,42.00,19.42,M,3.00,0.00,30.14,1013.60,10.00,M,BKN,M,M,M,15000.00,M,M,M,M,M,M,M,M,M,M,85.45,KRNO 271755Z VRB03KT 10SM BKN150 32/06 A3014 RMK AO2 SLP136 T03170056 10322 20228 58000,M
HTH,2022-07-27 17:55,-118.6315,38.5448,1282.89,89.60,41.00,18.33,320.00,6.00,0.00,30.11,M,10.00,M,CLR,M,M,M,M,M,M,M,M,M,M,M,M,M,M,85.82,KHTH 271755Z AUTO 32006KT 10SM CLR 32/05 A3011 RMK A01,M
TMT,2022-07-27 17:55,-117.1971,39.4643,1749.34,M,M,M,40.00,3.00,0.00,30.24,M,10.00,M,CLR,M,M,M,M,M,M,M,M,M,M,M,M,M,M,M,KTMT 271755Z AUTO 04003KT 10SM CLR A3024 RMK AO2,M
BVU,2022-07-27 17:55,-114.8611,35.9475,671.00,M,M,M,M,M,0.00,M,M,M,M,M,M,M,M,M,M,M,M,M,M,M,M,M,M,M,M,KBVU 271755Z AUTO RMK AO2 PNO PWINO TSNO,M
LAS,2022-07-27 17:56,-115.1634,36.0719,663.00,91.00,62.00,38.26,0.00,0.00,0.00,29.98,1012.10,10.00,M,FEW,SCT,SCT,M,12000.00,17000.00,22000.00,M,M,M,M,M,M,M,M,91.56,KLAS 271756Z 00000KT 10SM FEW120 SCT170 SCT220 33/17 A2998 RMK AO2 LTG DSNT NW SLP121 CB DSNT N AND E AND NW T03280167 10339 20272 50001,M
EKO,2022-07-27 17:56,-115.7860,40.8242,1367.00,91.00,34.00,13.32,0.00,0.00,0.00,30.15,1014.00,10.00,M,CLR,M,M,M,M,M,M,M,M,M,M,M,M,M,M,86.79,KEKO 271756Z AUTO 00000KT 10SM CLR 33/01 A3015 RMK AO2 SLP140 T03280011 10328 20133 58007,M
WMC,2022-07-27 17:56,-117.8072,40.9019,1315.00,93.00,37.00,14.09,M,3.00,0.00,30.11,1013.80,10.00,M,CLR,M,M,M,M,M,M,M,M,M,M,M,M,M,M,88.63,KWMC 271756Z AUTO VRB03KT 10SM CLR 34/03 A3011 RMK AO2 SLP138 T03390028 10339 20117 58003,M
TPH,2022-07-27 17:56,-117.0904,38.0505,1654.00,81.00,51.00,35.38,90.00,3.00,0.00,30.21,1013.80,10.00,M,CLR,M,M,M,M,M,M,M,M,M,M,M,M,M,M,80.23,KTPH 271756Z AUTO 09003KT 10SM CLR 27/11 A3021 RMK AO2 SLP138 T02720106 10272 20183 51002,M
NFL,2022-07-27 17:56,-118.7010,39.4166,1199.00,93.00,35.00,13.07,330.00,10.00,0.00,30.07,1015.20,10.00,M,SCT,BKN,M,M,12000.00,15000.00,M,M,M,M,M,M,M,M,M,88.56,KNFL 271756Z 33010KT 10SM SCT120 BKN150 34/02 A3007 RMK AO2 SLP152 T03390017 10350 20189 50001,M
HND,2022-07-27 17:56,-115.1344,35.9729,742.79,94.00,62.00,34.95,60.00,6.00,0.00,30.01,1014.50,10.00,M,CLR,M,M,M,M,M,M,M,M,M,M,M,M,M,M,94.72,KHND 271756Z 06006KT 10SM CLR 34/17 A3001 RMK AO2 SLP145 T03440167 10344 20267 58000,M
LSV,2022-07-27 17:58,-115.0343,36.2362,570.00,96.00,63.00,33.83,0.00,0.00,0.00,29.95,1011.50,10.00,M,FEW,FEW,M,M,14000.00,21000.00,M,M,M,M,M,M,M,M,M,97.76,KLSV 271758Z AUTO 00000KT 10SM FEW140 FEW210 36/17 A2995 RMK AO2 SLP115 T03560173 10366 20267 50003 $,M
INS,2022-07-27 17:58,-115.6733,36.5872,955.00,92.00,57.00,30.81,80.00,5.00,0.00,30.02,1011.10,10.00,M,BKN,BKN,M,M,11000.00,17000.00,M,M,M,M,M,M,M,M,M,90.71,KINS 271758Z AUTO 08005KT 10SM BKN110 BKN170 33/14 A3002 RMK AO2 SLP111 T03340139 10335 20241 58004 $,M
CXP,2022-07-27 18:10,-119.7326,39.1923,1431.00,87.80,39.20,18.09,M,5.00,0.00,30.17,M,10.00,M,CLR,M,M,M,M,M,M,M,M,M,M,M,M,M,M,84.22,KCXP 271810Z AUTO VRB05KT 10SM CLR 31/04 A3017 RMK AO2,M
BAM,2022-07-27 18:15,-116.8743,40.5990,1382.36,M,M,M,320.00,5.00,0.00,30.13,M,10.00,M,CLR,M,M,M,M,M,M,M,M,M,M,M,M,M,M,M,KBAM 271815Z AUTO 32005KT 10SM CLR A3013 RMK AO1,M
HTH,2022-07-27 18:15,-118.6315,38.5448,1282.89,91.40,39.20,16.15,320.00,10.00,0.00,30.11,M,10.00,15.00,CLR,M,M,M,M,M,M,M,M,M,M,M,M,M,M,87.30,KHTH 271815Z AUTO 32010G15KT 10SM CLR 33/04 A3011 RMK A01,M
TMT,2022-07-27 18:15,-117.1971,39.4643,1749.34,M,M,M,20.00,5.00,0.00,30.23,M,10.00,M,CLR,M,M,M,M,M,M,M,M,M,M,M,M,M,M,M,KTMT 271815Z AUTO 02005KT 10SM CLR A3023 RMK AO2,M
BVU,2022-07-27 18:15,-114.8611,35.9475,671.00,M,M,M,M,M,0.00,M,M,M,M,M,M,M,M,M,M,M,M,M,M,M,M,M,M,M,M,KBVU 271815Z AUTO RMK AO2 PNO PWINO TSNO,M
RTS,2022-07-27 18:15,-119.8764,39.6682,1539.00,87.80,37.40,16.86,220.00,5.00,0.00,30.20,M,10.00,M,CLR,M,M,M,M,M,M,M,M,M,M,M,M,M,M,84.16,KRTS 271815Z AUTO 22005KT 10SM CLR 31/03 A3020 RMK AO2,M
MEV,2022-07-27 18:15,-119.7500,38.9963,1441.42,91.40,41.00,17.32,320.00,8.00,0.00,30.15,M,10.00,M,CLR,M,M,M,M,M,M,M,M,M,M,M,M,M,M,87.40,KMEV 271815Z AUTO 32008KT 10SM CLR 33/05 A3015 RMK AO2,M
CXP,2022-07-27 18:30,-119.7326,39.1923,1431.00,89.60,37.40,15.92,320.00,7.00,0.00,30.16,M,10.00,M,CLR,M,M,M,M,M,M,M,M,M,M,M,M,M,M,85.67,KCXP 271830Z AUTO 32007KT 280V340 10SM CLR 32/03 A3016 RMK AO2,M
HTH,2022-07-27 18:35,-118.6315,38.5448,1282.89,93.20,37.40,14.23,340.00,11.00,0.00,30.11,M,10.00,M,CLR,M,M,M,M,M,M,M,M,M,M,M,M,M,M,88.83,KHTH 271835Z AUTO 34011KT 10SM CLR 34/03 A3011 RMK A01,M
BVU,2022-07-27 18:35,-114.8611,35.9475,671.00,M,M,M,M,M,0.00,M,M,M,M,M,M,M,M,M,M,M,M,M,M,M,M,M,M,M,M,KBVU 271835Z AUTO RMK AO2 PNO PWINO TSNO,M
RTS,2022-07-27 18:35,-119.8764,39.6682,1539.00,89.60,35.60,14.83,M,3.00,0.00,30.20,M,10.00,M,CLR,M,M,M,M,M,M,M,M,M,M,M,M,M,M,85.62,KRTS 271835Z AUTO VRB03KT 10SM CLR 32/02 A3020 RMK AO2,M
MEV,2022-07-27 18:35,-119.7500,38.9963,1441.42,91.40,39.20,16.15,320.00,8.00,0.00,30.15,M,10.00,M,CLR,M,M,M,M,M,M,M,M,M,M,M,M,M,M,87.30,KMEV 271835Z AUTO 32008KT 10SM CLR 33/04 A3015 RMK AO2,M
BAM,2022-07-27 18:35,-116.8743,40.5990,1382.36,M,M,M,10.00,3.00,0.00,30.13,M,10.00,M,CLR,M,M,M,M,M,M,M,M,M,M,M,M,M,M,M,KBAM 271835Z AUTO 01003KT 10SM CLR A3013 RMK AO1,M
TMT,2022-07-27 18:35,-117.1971,39.4643,1749.34,M,M,M,0.00,0.00,0.00,30.22,M,10.00,M,CLR,M,M,M,M,M,M,M,M,M,M,M,M,M,M,M,KTMT 271835Z AUTO 00000KT 10SM CLR A3022 RMK AO2,M
DRA,2022-07-27 18:53,-116.0278,36.6206,1009.00,95.00,57.00,28.16,210.00,6.00,0.00,30.01,1010.50,10.00,15.00,CLR,M,M,M,M,M,M,M,M,M,M,M,M,M,M,93.75,KDRA 271853Z AUTO 21006G15KT 10SM CLR 35/14 A3001 RMK AO2 SLP105 T03500139,M
ELY,2022-07-27 18:53,-114.8453,39.2950,1909.00,87.00,45.00,23.12,M,4.00,0.00,30.23,1011.70,10.00,M,CLR,M,M,M,M,M,M,M,M,M,M,M,M,M,M,83.98,KELY 271853Z AUTO VRB04KT 10SM CLR 31/07 A3023 RMK AO2 SLP117 T03060072,M
P68,2022-07-27 18:53,-116.0056,39.6014,1993.00,89.00,30.90,12.48,M,5.00,0.00,30.21,1013.00,M,M,M,M,M,M,M,M,M,M,M,M,M,M,M,M,M,85.04,KP68 271853Z AUTO VRB05KT 32/M01 A3021 RMK AO1 SLP130 T03171006,M
LOL,2022-07-27 18:53,-118.5701,40.0684,1192.43,97.00,27.00,8.32,0.00,0.00,0.00,30.06,1012.20,10.00,M,CLR,M,M,M,M,M,M,M,M,M,M,M,M,M,M,90.77,KLOL 271853Z AUTO 00000KT 10SM CLR 36/M03 A3006 RMK AO2 SLP122 T03611028,M
VGT,2022-07-27 18:53,-115.1933,36.2111,667.00,96.00,61.00,31.41,100.00,8.00,0.00,29.95,1012.60,10.00,M,CLR,M,M,M,M,M,M,M,M,M,M,M,M,M,M,96.64,KVGT 271853Z 10008KT 10SM CLR 36/16 A2995 RMK AO2 LTG DSNT N AND W SLP126 T03560161,M
HTH,2022-07-27 18:55,-118.6315,38.5448,1282.89,93.20,37.40,14.23,310.00,11.00,0.00,30.09,M,10.00,17.00,CLR,M,M,M,M,M,M,M,M,M,M,M,M,M,M,88.83,KHTH 271855Z AUTO 31011G17KT 10SM CLR 34/03 A3009 RMK A01,M
CXP,2022-07-27 18:55,-119.7326,39.1923,1431.00,93.20,37.40,14.23,320.00,11.00,0.00,30.15,M,10.00,M,CLR,M,M,M,M,M,M,M,M,M,M,M,M,M,M,88.83,KCXP 271855Z AUTO 32011KT 10SM CLR 34/03 A3015 RMK AO2,M
TMT,2022-07-27 18:55,-117.1971,39.4643,1749.34,M,M,M,340.00,3.00,0.00,30.22,M,10.00,M,CLR,M,M,M,M,M,M,M,M,M,M,M,M,M,M,M,KTMT 271855Z AUTO 34003KT 10SM CLR A3022 RMK AO2,M
BVU,2022-07-27 18:55,-114.8611,35.9475,671.00,M,M,M,M,M,0.00,M,M,M,M,M,M,M,M,M,M,M,M,M,M,M,M,M,M,M,M,KBVU 271855Z AUTO RMK AO2 PNO PWINO TSNO,M
RNO,2022-07-27 18:55,-119.7711,39.4839,1341.00,94.00,40.00,15.35,230.00,3.00,0.00,30.13,1013.00,10.00,M,FEW,SCT,M,M,10000.00,15000.00,M,M,M,M,M,M,M,M,M,89.60,KRNO 271855Z 23003KT 10SM FEW100 SCT150 34/04 A3013 RMK AO2 SLP130 T03440044,M
RTS,2022-07-27 18:55,-119.8764,39.6682,1539.00,91.40,33.80,13.05,M,5.00,0.00,30.19,M,10.00,M,CLR,M,M,M,M,M,M,M,M,M,M,M,M,M,M,87.13,KRTS 271855Z AUTO VRB05KT 10SM CLR 33/01 A3019 RMK AO2,M
MEV,2022-07-27 18:55,-119.7500,38.9963,1441.42,93.20,37.40,14.23,310.00,8.00,0.00,30.14,M,10.00,M,CLR,M,M,M,M,M,M,M,M,M,M,M,M,M,M,88.83,KMEV 271855Z AUTO 31008KT 10SM CLR 34/03 A3014 RMK AO2,M
BAM,2022-07-27 18:55,-116.8743,40.5990,1382.36,M,M,M,0.00,0.00,0.00,30.13,M,10.00,M,CLR,M,M,M,M,M,M,M,M,M,M,M,M,M,M,M,KBAM 271855Z AUTO 00000KT 10SM CLR A3013 RMK AO1,M
HND,2022-07-27 18:56,-115.1344,35.9729,742.79,94.00,62.00,34.95,M,3.00,0.00,29.99,1013.80,10.00,M,CLR,M,M,M,M,M,M,M,M,M,M,M,M,M,M,94.72,KHND 271856Z VRB03KT 10SM CLR 34/17 A2999 RMK AO2 LTG DSNT S AND NW SLP138 T03440167,M
EKO,2022-07-27 18:56,-115.7860,40.8242,1367.00,94.00,35.00,12.71,M,M,0.00,30.13,1013.30,10.00,M,CLR,M,M,M,M,M,M,M,M,M,M,M,M,M,M,89.29,KEKO 271856Z AUTO 10SM CLR 34/02 A3013 RMK AO2 SLP133 T03440017,M
LAS,2022-07-27 18:56,-115.1634,36.0719,663.00,96.00,61.00,31.41,70.00,8.00,0.00,29.95,1011.20,10.00,M,FEW,SCT,SCT,M,10000.00,17000.00,22000.00,M,M,M,M,M,M,M,M,96.64,KLAS 271856Z 07008KT 10SM FEW100 SCT170 SCT220 36/16 A2995 RMK AO2 LTG DSNT N AND W SLP112 CB DSNT ALQDS T03560161,M
TPH,2022-07-27 18:56,-117.0904,38.0505,1654.00,85.00,48.00,27.79,0.00,0.00,0.00,30.19,1013.30,10.00,M,CLR,M,M,M,M,M,M,M,M,M,M,M,M,M,M,82.53,KTPH 271856Z AUTO 00000KT 10SM CLR 29/09 A3019 RMK AO2 SLP133 T02940089,M
WMC,2022-07-27 18:56,-117.8072,40.9019,1315.00,95.00,35.00,12.29,310.00,4.00,0.00,30.10,1013.30,10.00,M,CLR,M,M,M,M,M,M,M,M,M,M,M,M,M,M,90.17,KWMC 271856Z AUTO 31004KT 10SM CLR 35/02 A3010 RMK AO2 SLP133 T03500017,M
NFL,2022-07-27 18:56,-118.7010,39.4166,1199.00,97.00,30.90,9.76,0.00,0.00,0.00,30.06,1014.80,10.00,M,SCT,SCT,M,M,12000.00,15000.00,M,M,M,M,M,M,M,M,M,91.21,KNFL 271856Z 00000KT 10SM SCT120 SCT150 36/M01 A3006 RMK AO2 SLP148 T03611006,M
INS,2022-07-27 18:58,-115.6733,36.5872,955.00,94.30,57.00,28.78,130.00,5.00,0.00,30.00,1010.40,10.00,M,BKN,M,M,M,12000.00,M,M,M,M,M,M,M,M,M,M,93.00,KINS 271858Z AUTO 13005KT 10SM BKN120 35/14 A3000 RMK AO2 LTG DSNT E SLP104 T03460139 $,M
LSV,2022-07-27 18:58,-115.0343,36.2362,570.00,98.40,61.50,29.81,0.00,0.00,0.00,29.93,1010.70,10.00,M,CLR,M,M,M,M,M,M,M,M,M,M,M,M,M,M,99.53,KLSV 271858Z AUTO 00000KT 10SM CLR 37/16 A2993 RMK AO2 SLP107 T03690164 $,M
BVU,2022-07-27 19:15,-114.8611,35.9475,671.00,M,M,M,M,M,0.00,M,M,M,M,M,M,M,M,M,M,M,M,M,M,M,M,M,M,M,M,KBVU 271915Z AUTO RMK AO2 PNO PWINO TSNO,M
RTS,2022-07-27 19:15,-119.8764,39.6682,1539.00,89.60,35.60,14.83,M,4.00,0.00,30.19,M,10.00,M,CLR,M,M,M,M,M,M,M,M,M,M,M,M,M,M,85.62,KRTS 271915Z AUTO VRB04KT 10SM CLR 32/02 A3019 RMK AO2,M
MEV,2022-07-27 19:15,-119.7500,38.9963,1441.42,93.20,37.40,14.23,290.00,8.00,0.00,30.13,M,10.00,M,CLR,M,M,M,M,M,M,M,M,M,M,M,M,M,M,88.83,KMEV 271915Z AUTO 29008KT 10SM CLR 34/03 A3013 RMK AO2,M
BAM,2022-07-27 19:15,-116.8743,40.5990,1382.36,M,M,M,50.00,4.00,0.00,30.12,M,10.00,M,CLR,M,M,M,M,M,M,M,M,M,M,M,M,M,M,M,KBAM 271915Z AUTO 05004KT 10SM CLR A3012 RMK AO1,M
HTH,2022-07-27 19:15,-118.6315,38.5448,1282.89,95.00,37.40,13.46,310.00,11.00,0.00,30.09,M,10.00,M,CLR,M,M,M,M,M,M,M,M,M,M,M,M,M,M,90.46,KHTH 271915Z AUTO 31011KT 10SM CLR 35/03 A3009 RMK A01,M
CXP,2022-07-27 19:15,-119.7326,39.1923,1431.00,93.20,37.40,14.23,310.00,7.00,0.00,30.15,M,10.00,M,CLR,M,M,M,M,M,M,M,M,M,M,M,M,M,M,88.83,KCXP 271915Z AUTO 31007KT 10SM CLR 34/03 A3015 RMK AO2,M
TMT,2022-07-27 19:15,-117.1971,39.4643,1749.34,M,M,M,0.00,0.00,0.00,30.21,M,10.00,M,CLR,M,M,M,M,M,M,M,M,M,M,M,M,M,M,M,KTMT 271915Z AUTO 00000KT 10SM CLR A3021 RMK AO2,M
MEV,2022-07-27 19:35,-119.7500,38.9963,1441.42,95.00,35.60,12.53,310.00,7.00,0.00,30.13,M,10.00,M,CLR,M,M,M,M,M,M,M,M,M,M,M,M,M,M,90.25,KMEV 271935Z AUTO 31007KT 10SM CLR 35/02 A3013 RMK AO2,M
TMT,2022-07-27 19:35,-117.1971,39.4643,1749.34,M,M,M,340.00,4.00,0.00,30.20,M,10.00,9.00,CLR,M,M,M,M,M,M,M,M,M,M,M,M,M,M,M,KTMT 271935Z AUTO 34004G09KT 10SM CLR A3020 RMK AO2,M
HTH,2022-07-27 19:35,-118.6315,38.5448,1282.89,95.00,33.80,11.67,310.00,11.00,0.00,30.08,M,10.00,M,CLR,M,M,M,M,M,M,M,M,M,M,M,M,M,M,89.97,KHTH 271935Z AUTO 31011KT 10SM CLR 35/01 A3008 RMK A01,M
BAM,2022-07-27 19:35,-116.8743,40.5990,1382.36,M,M,M,260.00,3.00,0.00,30.11,M,10.00,M,CLR,M,M,M,M,M,M,M,M,M,M,M,M,M,M,M,KBAM 271935Z AUTO 26003KT 10SM CLR A3011 RMK AO1,M
BVU,2022-07-27 19:35,-114.8611,35.9475,671.00,M,M,M,M,M,0.00,M,M,M,M,M,M,M,M,M,M,M,M,M,M,M,M,M,M,M,M,KBVU 271935Z AUTO RMK AO2 PNO PWINO TSNO,M
CXP,2022-07-27 19:35,-119.7326,39.1923,1431.00,95.00,35.60,12.53,270.00,7.00,0.00,30.14,M,10.00,M,CLR,M,M,M,M,M,M,M,M,M,M,M,M,M,M,90.25,KCXP 271935Z AUTO 27007KT 10SM CLR 35/02 A3014 RMK AO2,M
RTS,2022-07-27 19:35,-119.8764,39.6682,1539.00,91.40,35.60,14.02,M,6.00,0.00,30.18,M,10.00,M,CLR,M,M,M,M,M,M,M,M,M,M,M,M,M,M,87.17,KRTS 271935Z AUTO VRB06KT 10SM CLR 33/02 A3018 RMK AO2,M
ELY,2022-07-27 19:53,-114.8453,39.2950,1909.00,87.00,43.00,21.42,220.00,8.00,0.00,30.21,1011.00,10.00,M,CLR,M,M,M,M,M,M,M,M,M,M,M,M,M,M,83.84,KELY 271953Z AUTO 22008KT 10SM CLR 31/06 A3021 RMK AO2 SLP110 T03060061 $,M
VGT,2022-07-27 19:53,-115.1933,36.2111,667.00,98.00,62.00,30.72,M,M,0.00,29.92,1011.80,10.00,M,CLR,M,M,M,M,M,M,M,M,M,M,M,M,M,M,99.51,KVGT 271953Z 10SM CLR 37/17 A2992 RMK AO2 LTG DSNT SW AND W SLP118 T03670167,M
P68,2022-07-27 19:53,-116.0056,39.6014,1993.00,92.00,28.90,10.54,350.00,9.00,0.00,30.18,1011.80,M,18.00,M,M,M,M,M,M,M,M,M,M,M,M,M,M,M,86.95,KP68 271953Z AUTO 35009G18KT 33/M02 A3018 RMK AO1 SLP118 T03331017,M
DRA,2022-07-27 19:53,-116.0278,36.6206,1009.00,96.00,57.00,27.23,90.00,7.00,0.00,30.00,1010.10,10.00,M,FEW,M,M,M,12000.00,M,M,M,M,M,M,M,M,M,M,94.94,KDRA 271953Z AUTO 09007KT 070V130 10SM FEW120 36/14 A3000 RMK AO2 SLP101 T03560139,M
LOL,2022-07-27 19:53,-118.5701,40.0684,1192.43,100.00,23.00,6.43,0.00,0.00,0.00,30.04,1011.90,10.00,M,CLR,M,M,M,M,M,M,M,M,M,M,M,M,M,M,92.91,KLOL 271953Z AUTO 00000KT 10SM CLR 38/M05 A3004 RMK AO2 SLP119 T03781050,M
CXP,2022-07-27 19:55,-119.7326,39.1923,1431.00,95.00,35.60,12.53,330.00,8.00,0.00,30.13,M,10.00,14.00,CLR,M,M,M,M,M,M,M,M,M,M,M,M,M,M,90.25,KCXP 271955Z AUTO 33008G14KT 300V360 10SM CLR 35/02 A3013 RMK AO2,M
BAM,2022-07-27 19:55,-116.8743,40.5990,1382.36,M,M,M,340.00,8.00,0.00,30.11,M,10.00,M,CLR,M,M,M,M,M,M,M,M,M,M,M,M,M,M,M,KBAM 271955Z AUTO 34008KT 10SM CLR A3011 RMK AO1,M
RNO,2022-07-27 19:55,-119.7711,39.4839,1341.00,97.00,39.00,13.48,M,4.00,0.00,30.11,1012.00,10.00,M,FEW,SCT,M,M,10000.00,16000.00,M,M,M,M,M,M,M,M,M,92.40,KRNO 271955Z VRB04KT 10SM FEW100 SCT160 36/04 A3011 RMK AO2 SLP120 T03610039,M
TMT,2022-07-27 19:55,-117.1971,39.4643,1749.34,M,M,M,80.00,7.00,0.00,30.19,M,10.00,M,CLR,M,M,M,M,M,M,M,M,M,M,M,M,M,M,M,KTMT 271955Z AUTO 08007KT 050V110 10SM CLR A3019 RMK AO2,M
RTS,2022-07-27 19:55,-119.8764,39.6682,1539.00,93.20,32.00,11.48,280.00,8.00,0.00,30.18,M,10.00,13.00,CLR,M,M,M,M,M,M,M,M,M,M,M,M,M,M,88.31,KRTS 271955Z AUTO 28008G13KT 10SM CLR 34/00 A3018 RMK AO2,M
HTH,2022-07-27 19:55,-118.6315,38.5448,1282.89,96.80,32.00,10.27,320.00,10.00,0.00,30.07,M,10.00,17.00,CLR,M,M,M,M,M,M,M,M,M,M,M,M,M,M,91.19,KHTH 271955Z AUTO 32010G17KT 10SM CLR 36/M00 A3007 RMK A01,M
MEV,2022-07-27 19:55,-119.7500,38.9963,1441.42,95.00,33.80,11.67,M,5.00,0.00,30.12,M,10.00,11.00,CLR,M,M,M,M,M,M,M,M,M,M,M,M,M,M,89.97,KMEV 271955Z AUTO VRB05G11KT 10SM CLR 35/01 A3012 RMK AO2,M
BVU,2022-07-27 19:55,-114.8611,35.9475,671.00,M,M,M,M,M,0.00,M,M,M,M,M,M,M,M,M,M,M,M,M,M,M,M,M,M,M,M,KBVU 271955Z AUTO RMK AO2 PNO PWINO TSNO,M
HND,2022-07-27 19:56,-115.1344,35.9729,742.79,96.00,62.00,32.66,M,3.00,0.00,29.97,1013.00,10.00,M,CLR,M,M,M,M,M,M,M,M,M,M,M,M,M,M,97.20,KHND 271956Z VRB03KT 10SM CLR 36/17 A2997 RMK AO2 LTG DSNT S AND W SLP130 T03560167,M
EKO,2022-07-27 19:56,-115.7860,40.8242,1367.00,96.00,35.00,11.88,M,3.00,0.00,30.11,1012.70,10.00,M,CLR,M,M,M,M,M,M,M,M,M,M,M,M,M,M,91.07,KEKO 271956Z AUTO VRB03KT 10SM CLR 36/02 A3011 RMK AO2 SLP127 T03560017,M
WMC,2022-07-27 19:56,-117.8072,40.9019,1315.00,99.00,28.90,8.47,0.00,0.00,0.00,30.08,1013.00,10.00,M,CLR,M,M,M,M,M,M,M,M,M,M,M,M,M,M,92.64,KWMC 271956Z AUTO 00000KT 10SM CLR 37/M02 A3008 RMK AO2 SLP130 T03721017,M
LAS,2022-07-27 19:56,-115.1634,36.0719,663.00,97.00,60.00,29.60,50.00,3.00,0.00,29.93,1010.40,10.00,M,FEW,SCT,SCT,M,10000.00,17000.00,22000.00,M,M,M,M,M,M,M,M,97.22,KLAS 271956Z 05003KT 10SM FEW100 SCT170 SCT220 36/16 A2993 RMK AO2 LTG DSNT S-NW SLP104 CB DSNT ALQDS T03610156,M
TPH,2022-07-27 19:56,-117.0904,38.0505,1654.00,91.00,42.00,18.30,M,3.00,0.00,30.17,1011.90,10.00,M,FEW,M,M,M,12000.00,M,M,M,M,M,M,M,M,M,M,87.11,KTPH 271956Z AUTO VRB03KT 10SM FEW120 33/06 A3017 RMK AO2 LTG DSNT SE SLP119 T03280056,M
NFL,2022-07-27 19:56,-118.7010,39.4166,1199.00,100.00,28.90,8.22,30.00,6.00,0.00,30.04,1014.20,10.00,M,SCT,SCT,M,M,10000.00,15000.00,M,M,M,M,M,M,M,M,M,93.48,KNFL 271956Z 03006KT 10SM SCT100 SCT150 38/M02 A3004 RMK AO2 SLP142 T03781017,M
INS,2022-07-27 19:58,-115.6733,36.5872,955.00,96.30,56.80,26.87,110.00,13.00,0.00,29.98,1009.70,10.00,20.00,FEW,M,M,M,11000.00,M,M,M,VCTS,M,M,M,M,M,M,95.08,KINS 271958Z AUTO 11013G20KT 10SM VCTS FEW110 36/14 A2998 RMK AO2 SLP097 T03570138,M
LSV,2022-07-27 19:58,-115.0343,36.2362,570.00,102.40,62.00,26.80,80.00,4.00,0.00,29.90,1009.70,10.00,M,CLR,M,M,M,M,M,M,M,M,M,M,M,M,M,M,104.44,KLSV 271958Z AUTO 08004KT 10SM CLR 39/17 A2990 RMK AO2 SLP097 T03910166 $,M
TMT,2022-07-27 20:15,-117.1971,39.4643,1749.34,M,M,M,10.00,6.00,0.00,30.18,M,10.00,17.00,CLR,M,M,M,M,M,M,M,M,M,M,M,M,M,M,M,KTMT 272015Z AUTO 01006G17KT 10SM CLR A3018 RMK AO2,M
CXP,2022-07-27 20:15,-119.7326,39.1923,1431.00,96.80,35.60,11.86,M,6.00,0.00,30.13,M,10.00,14.00,CLR,M,M,M,M,M,M,M,M,M,M,M,M,M,M,91.72,KCXP 272015Z AUTO VRB06G14KT 10SM CLR 36/02 A3013 RMK AO2,M
BVU,2022-07-27 20:15,-114.8611,35.9475,671.00,M,M,M,M,M,0.00,M,M,M,M,M,M,M,M,M,M,M,M,M,M,M,M,M,M,M,M,KBVU 272015Z AUTO RMK AO2 PNO PWINO TSNO,M
RTS,2022-07-27 20:15,-119.8764,39.6682,1539.00,95.00,33.80,11.67,150.00,8.00,0.00,30.17,M,10.00,M,CLR,M,M,M,M,M,M,M,M,M,M,M,M,M,M,89.97,KRTS 272015Z AUTO 15008KT 100V200 10SM CLR 35/01 A3017 RMK AO2,M
MEV,2022-07-27 20:15,-119.7500,38.9963,1441.42,96.80,35.60,11.86,M,4.00,0.00,30.11,M,10.00,11.00,CLR,M,M,M,M,M,M,M,M,M,M,M,M,M,M,91.72,KMEV 272015Z AUTO VRB04G11KT 10SM CLR 36/02 A3011 RMK AO2,M
BAM,2022-07-27 20:15,-116.8743,40.5990,1382.36,M,M,M,300.00,8.00,0.00,30.10,M,10.00,M,CLR,M,M,M,M,M,M,M,M,M,M,M,M,M,M,M,KBAM 272015Z AUTO 30008KT 300V020 10SM CLR A3010 RMK AO1,M
HTH,2022-07-27 20:15,-118.6315,38.5448,1282.89,96.80,32.00,10.27,310.00,9.00,0.00,30.06,M,10.00,15.00,CLR,M,M,M,M,M,M,M,M,M,M,M,M,M,M,91.19,KHTH 272015Z AUTO 31009G15KT 10SM CLR 36/M00 A3006 RMK A01,M
ELY,2022-07-27 20:32,-114.8453,39.2950,1909.00,88.00,40.00,18.47,M,3.00,0.00,30.20,M,10.00,M,CLR,M,M,M,M,M,M,M,VCTS,M,M,M,M,M,M,84.41,KELY 272032Z AUTO VRB03KT 10SM VCTS CLR 31/04 A3020 RMK AO2 T03110044 $,M
TMT,2022-07-27 20:35,-117.1971,39.4643,1749.34,M,M,M,30.00,5.00,0.00,30.18,M,10.00,10.00,CLR,M,M,M,M,M,M,M,M,M,M,M,M,M,M,M,KTMT 272035Z AUTO 03005G10KT 10SM CLR A3018 RMK AO2,M
CXP,2022-07-27 20:35,-119.7326,39.1923,1431.00,96.80,35.60,11.86,270.00,7.00,0.00,30.12,M,10.00,15.00,CLR,M,M,M,M,M,M,M,M,M,M,M,M,M,M,91.72,KCXP 272035Z AUTO 27007G15KT 250V310 10SM CLR 36/02 A3012 RMK AO2,M
RTS,2022-07-27 20:35,-119.8764,39.6682,1539.00,93.20,32.00,11.48,230.00,5.00,0.00,30.16,M,10.00,12.00,CLR,M,M,M,M,M,M,M,M,M,M,M,M,M,M,88.31,KRTS 272035Z AUTO 23005G12KT 10SM CLR 34/00 A3016 RMK AO2,M
MEV,2022-07-27 20:35,-119.7500,38.9963,1441.42,96.80,33.80,11.04,270.00,8.00,0.00,30.10,M,10.00,M,CLR,M,M,M,M,M,M,M,M,M,M,M,M,M,M,91.44,KMEV 272035Z AUTO 27008KT 240V300 10SM CLR 36/01 A3010 RMK AO2,M
BAM,2022-07-27 20:35,-116.8743,40.5990,1382.36,M,M,M,340.00,7.00,0.00,30.09,M,10.00,M,CLR,M,M,M,M,M,M,M,M,M,M,M,M,M,M,M,KBAM 272035Z AUTO 34007KT 10SM CLR A3009 RMK AO1,M
HTH,2022-07-27 20:35,-118.6315,38.5448,1282.89,98.60,32.00,9.72,320.00,13.00,0.00,30.05,M,10.00,M,CLR,M,M,M,M,M,M,M,M,M,M,M,M,M,M,92.69,KHTH 272035Z AUTO 32013KT 10SM CLR 37/00 A3005 RMK A01,M
BVU,2022-07-27 20:35,-114.8611,35.9475,671.00,M,M,M,M,M,0.00,M,M,M,M,M,M,M,M,M,M,M,M,M,M,M,M,M,M,M,M,KBVU 272035Z AUTO RMK AO2 PNO PWINO TSNO,M
INS,2022-07-27 20:40,-115.6733,36.5872,955.00,93.20,55.40,28.10,140.00,12.00,0.00,29.98,1009.90,10.00,M,BKN,M,M,M,12000.00,M,M,M,M,M,M,M,M,M,M,91.35,KINS 272040Z AUTO 14012KT 10SM BKN120 34/13 A2998 RMK AO2 WSHFT 26 SLP099,M
VGT,2022-07-27 20:53,-115.1933,36.2111,667.00,100.00,62.00,29.00,10.00,4.00,0.00,29.90,1011.00,10.00,M,CLR,M,M,M,M,M,M,M,M,M,M,M,M,M,M,101.73,KVGT 272053Z 01004KT 10SM CLR 38/17 A2990 RMK AO2 SLP110 T03780167 56021,M
ELY,2022-07-27 20:53,-114.8453,39.2950,1909.00,87.00,39.00,18.35,0.00,0.00,0.00,30.19,1011.00,10.00,M,FEW,M,M,M,11000.00,M,M,M,M,M,M,M,M,M,M,83.65,KELY 272053Z AUTO 00000KT 10SM FEW110 31/04 A3019 RMK AO2 SLP110 T03060039 58014 $,M
LOL,2022-07-27 20:53,-118.5701,40.0684,1192.43,104.00,27.00,6.74,90.00,12.00,0.00,30.01,1010.90,10.00,M,CLR,M,M,M,M,M,M,M,M,M,M,M,M,M,M,96.64,KLOL 272053Z AUTO 09012KT 10SM CLR 40/M03 A3001 RMK AO2 SLP109 T04001028 58019,M
DRA,2022-07-27 20:53,-116.0278,36.6206,1009.00,89.00,57.00,33.85,110.00,16.00,0.00,30.00,1010.50,10.00,M,CLR,M,M,M,M,M,M,M,M,M,M,M,M,M,M,87.74,KDRA 272053Z AUTO 11016KT 10SM CLR 32/14 A3000 RMK AO2 SLP105 T03170139 56009,M
BAM,2022-07-27 20:55,-116.8743,40.5990,1382.36,M,M,M,330.00,11.00,0.00,30.08,M,10.00,17.00,CLR,M,M,M,M,M,M,M,M,M,M,M,M,M,M,M,KBAM 272055Z AUTO 33011G17KT 290V350 10SM CLR A3008 RMK AO1,M
TMT,2022-07-27 20:55,-117.1971,39.4643,1749.34,M,M,M,10.00,11.00,0.00,30.18,M,10.00,16.00,CLR,M,M,M,M,M,M,M,M,M,M,M,M,M,M,M,KTMT 272055Z AUTO 01011G16KT 10SM CLR A3018 RMK AO2,M
HTH,2022-07-27 20:55,-118.6315,38.5448,1282.89,98.60,32.00,9.72,330.00,12.00,0.00,30.04,M,10.00,M,CLR,M,M,M,M,M,M,M,M,M,M,M,M,M,M,92.69,KHTH 272055Z AUTO 33012KT 10SM CLR 37/M00 A3004 RMK A01,M
MEV,2022-07-27 20:55,-119.7500,38.9963,1441.42,96.80,32.00,10.27,290.00,6.00,0.00,30.09,M,10.00,M,CLR,M,M,M,M,M,M,M,M,M,M,M,M,M,M,91.19,KMEV 272055Z AUTO 29006KT 10SM CLR 36/00 A3009 RMK AO2,M
RTS,2022-07-27 20:55,-119.8764,39.6682,1539.00,93.20,28.40,9.91,M,3.00,0.00,30.16,M,10.00,M,CLR,M,M,M,M,M,M,M,M,M,M,M,M,M,M,87.89,KRTS 272055Z AUTO VRB03KT 10SM CLR 34/M02 A3016 RMK AO2,M
CXP,2022-07-27 20:55,-119.7326,39.1923,1431.00,98.60,33.80,10.45,M,5.00,0.00,30.11,M,10.00,15.00,CLR,M,M,M,M,M,M,M,M,M,M,M,M,M,M,92.94,KCXP 272055Z AUTO VRB05G15KT 10SM CLR 37/01 A3011 RMK AO2,M
RNO,2022-07-27 20:55,-119.7711,39.4839,1341.00,97.00,35.00,11.56,100.00,10.00,0.00,30.09,1011.50,10.00,M,FEW,BKN,M,M,10000.00,18000.00,M,M,M,M,M,M,M,M,M,91.81,KRNO 272055Z 10010KT 10SM FEW100 BKN180 36/02 A3009 RMK AO2 SLP115 HZ ALQDS T03610017 58016,M
BVU,2022-07-27 20:55,-114.8611,35.9475,671.00,M,M,M,M,M,0.00,M,M,M,M,M,M,M,M,M,M,M,M,M,M,M,M,M,M,M,M,KBVU 272055Z AUTO RMK AO2 PNO PWINO TSNO,M
LAS,2022-07-27 20:56,-115.1634,36.0719,663.00,99.00,60.00,27.85,120.00,5.00,0.00,29.91,1009.70,10.00,M,FEW,SCT,BKN,M,10000.00,17000.00,22000.00,M,M,M,M,M,M,M,M,99.50,KLAS 272056Z 12005KT 10SM FEW100 SCT170 BKN220 37/16 A2991 RMK AO2 SLP097 CB DSNT ALQDS T03720156 56021,M
EKO,2022-07-27 20:56,-115.7860,40.8242,1367.00,98.00,36.00,11.58,180.00,7.00,0.00,30.09,1011.80,10.00,M,CLR,M,M,M,M,M,M,M,M,M,M,M,M,M,M,92.87,KEKO 272056Z AUTO 18007KT 10SM CLR 37/02 A3009 RMK AO2 SLP118 T03670022 58020,M
HND,2022-07-27 20:56,-115.1344,35.9729,742.79,99.00,62.00,29.90,210.00,5.00,0.00,29.94,1012.10,10.00,M,CLR,M,M,M,M,M,M,M,M,M,M,M,M,M,M,100.56,KHND 272056Z 21005KT 10SM CLR 37/17 A2994 RMK AO2 LTG DSNT S SLP121 T03720167 58021,M
NFL,2022-07-27 20:56,-118.7010,39.4166,1199.00,102.00,23.00,6.06,330.00,9.00,0.00,30.02,1013.50,10.00,M,SCT,M,M,M,15000.00,M,M,M,M,M,M,M,M,M,M,94.58,KNFL 272056Z 33009KT 10SM SCT150 39/M05 A3002 RMK AO2 SLP135 T03891050 58017,M
TPH,2022-07-27 20:56,-117.0904,38.0505,1654.00,93.00,39.00,15.24,350.00,7.00,0.00,30.14,1011.20,10.00,M,CLR,M,M,M,M,M,M,M,M,M,M,M,M,M,M,88.73,KTPH 272056Z AUTO 35007KT 10SM CLR 34/04 A3014 RMK AO2 SLP112 T03390039 58018,M
WMC,2022-07-27 20:56,-117.8072,40.9019,1315.00,103.00,28.90,7.53,360.00,11.00,0.00,30.06,1012.10,10.00,22.00,CLR,M,M,M,M,M,M,M,M,M,M,M,M,M,M,95.93,KWMC 272056Z AUTO 36011G22KT 10SM CLR 39/M02 A3006 RMK AO2 SLP121 T03941017 58016,M
INS,2022-07-27 20:58,-115.6733,36.5872,955.00,95.20,56.00,26.90,140.00,10.00,0.00,29.97,1009.40,10.00,M,SCT,BKN,M,M,12000.00,14000.00,M,M,M,M,M,M,M,M,M,93.59,KINS 272058Z AUTO 14010KT 10SM SCT120 BKN140 35/13 A2997 RMK AO2 SLP094 T03510133 56013,M
LSV,2022-07-27 20:58,-115.0343,36.2362,570.00,103.50,60.60,24.76,90.00,7.00,0.00,29.88,1008.90,10.00,M,FEW,M,M,M,14000.00,M,M,M,M,M,M,M,M,M,M,104.97,KLSV 272058Z AUTO 09007KT 10SM FEW140 40/16 A2988 RMK AO2 SLP089 T03970159 57023 $,M
CXP,2022-07-27 21:10,-119.7326,39.1923,1431.00,96.80,28.40,8.87,80.00,8.00,0.00,30.11,M,10.00,M,CLR,M,M,M,M,M,M,M,M,M,M,M,M,M,M,90.75,KCXP 272110Z AUTO 08008KT 060V120 10SM CLR 36/M02 A3011 RMK AO2,M
MEV,2022-07-27 21:15,-119.7500,38.9963,1441.42,98.60,32.00,9.72,300.00,8.00,0.00,30.08,M,10.00,17.00,CLR,M,M,M,M,M,M,M,M,M,M,M,M,M,M,92.69,KMEV 272115Z AUTO 30008G17KT 10SM CLR 37/00 A3008 RMK AO2,M
RTS,2022-07-27 21:15,-119.8764,39.6682,1539.00,96.80,24.80,7.65,180.00,6.00,0.00,30.15,M,10.00,11.00,CLR,M,M,M,M,M,M,M,M,M,M,M,M,M,M,90.40,KRTS 272115Z AUTO 18006G11KT 10SM CLR 36/M04 A3015 RMK AO2,M
BVU,2022-07-27 21:15,-114.8611,35.9475,671.00,M,M,M,M,M,0.00,M,M,M,M,M,M,M,M,M,M,M,M,M,M,M,M,M,M,M,M,KBVU 272115Z AUTO RMK AO2 PNO PWINO TSNO,M
TMT,2022-07-27 21:15,-117.1971,39.4643,1749.34,M,M,M,350.00,11.00,0.00,30.16,M,10.00,18.00,CLR,M,M,M,M,M,M,M,M,M,M,M,M,M,M,M,KTMT 272115Z AUTO 35011G18KT 320V020 10SM CLR A3016 RMK AO2,M
HTH,2022-07-27 21:15,-118.6315,38.5448,1282.89,98.60,24.80,7.24,340.00,9.00,0.00,30.04,M,10.00,15.00,CLR,M,M,M,M,M,M,M,M,M,M,M,M,M,M,91.90,KHTH 272115Z AUTO 34009G15KT 10SM CLR 37/M04 A3004 RMK A01,M
BAM,2022-07-27 21:15,-116.8743,40.5990,1382.36,M,M,M,320.00,9.00,0.00,30.08,M,10.00,15.00,CLR,M,M,M,M,M,M,M,M,M,M,M,M,M,M,M,KBAM 272115Z AUTO 32009G15KT 10SM CLR A3008 RMK AO1,M
INS,2022-07-27 21:20,-115.6733,36.5872,955.00,96.80,55.40,25.15,260.00,12.00,0.00,29.97,1009.40,10.00,17.00,CLR,M,M,M,M,M,M,M,M,M,M,M,M,M,M,95.14,KINS 272120Z AUTO 26012G17KT 10SM CLR 36/13 A2997 RMK AO2 WSHFT 18 SLP094,M
ELY,2022-07-27 21:22,-114.8453,39.2950,1909.00,87.00,40.00,19.01,360.00,5.00,0.00,30.19,M,10.00,19.00,FEW,SCT,M,M,9000.00,12000.00,M,M,M,M,M,M,M,M,M,83.68,KELY 272122Z AUTO 36005G19KT 10SM FEW090 SCT120 31/04 A3019 RMK AO2 WSHFT 2102 T03060044,M
MEV,2022-07-27 21:35,-119.7500,38.9963,1441.42,100.40,32.00,9.21,340.00,12.00,0.00,30.07,M,10.00,18.00,CLR,M,M,M,M,M,M,M,M,M,M,M,M,M,M,94.21,KMEV 272135Z AUTO 34012G18KT 10SM CLR 38/00 A3007 RMK AO2,M
BAM,2022-07-27 21:35,-116.8743,40.5990,1382.36,M,M,M,340.00,10.00,0.00,30.07,M,10.00,16.00,CLR,M,M,M,M,M,M,M,M,M,M,M,M,M,M,M,KBAM 272135Z AUTO 34010G16KT 10SM CLR A3007 RMK AO1,M
HTH,2022-07-27 21:35,-118.6315,38.5448,1282.89,98.60,24.80,7.24,310.00,11.00,0.00,30.03,M,10.00,M,CLR,M,M,M,M,M,M,M,M,M,M,M,M,M,M,91.90,KHTH 272135Z AUTO 31011KT 290V350 10SM CLR 37/M04 A3003 RMK A01,M
RTS,2022-07-27 21:35,-119.8764,39.6682,1539.00,96.80,23.00,7.09,M,4.00,0.00,30.15,M,10.00,M,CLR,M,M,M,M,M,M,M,M,M,M,M,M,M,M,90.25,KRTS 272135Z AUTO VRB04KT 10SM CLR 36/M05 A3015 RMK AO2,M
BVU,2022-07-27 21:35,-114.8611,35.9475,671.00,M,M,M,M,M,0.00,M,M,M,M,M,M,M,M,M,M,M,M,M,M,M,M,M,M,M,M,KBVU 272135Z AUTO RMK AO2 PNO PWINO TSNO,M
CXP,2022-07-27 21:35,-119.7326,39.1923,1431.00,98.60,24.80,7.24,M,4.00,0.00,30.10,M,10.00,15.00,CLR,M,M,M,M,M,M,M,M,M,M,M,M,M,M,91.90,KCXP 272135Z AUTO VRB04G15KT 10SM CLR 37/M04 A3010 RMK AO2,M
TMT,2022-07-27 21:35,-117.1971,39.4643,1749.34,M,M,M,330.00,9.00,0.00,30.16,M,10.00,19.00,CLR,M,M,M,M,M,M,M,M,M,M,M,M,M,M,M,KTMT 272135Z AUTO 33009G19KT 10SM CLR A3016 RMK AO2 LTG DSNT S,M
P68,2022-07-27 21:53,-116.0056,39.6014,1993.00,91.00,21.90,8.10,M,4.00,0.00,30.15,1011.30,M,M,M,M,M,M,M,M,M,M,M,M,M,M,M,M,M,85.71,KP68 272153Z AUTO VRB04KT 33/M06 A3015 RMK AO1 SLP113 T03281056,M
LOL,2022-07-27 21:53,-118.5701,40.0684,1192.43,104.00,27.00,6.74,70.00,10.00,0.00,29.99,1010.30,10.00,16.00,CLR,M,M,M,M,M,M,M,M,M,M,M,M,M,M,96.64,KLOL 272153Z AUTO 07010G16KT 10SM CLR 40/M03 A2999 RMK AO2 SLP103 T04001028,M
VGT,2022-07-27 21:53,-115.1933,36.2111,667.00,98.00,60.00,28.62,180.00,4.00,0.00,29.88,1010.50,10.00,M,CLR,M,M,M,M,M,M,M,M,M,M,M,M,M,M,98.47,KVGT 272153Z 18004KT 10SM CLR 37/16 A2988 RMK AO2 LTG DSNT E AND S SLP105 T03670156,M
ELY,2022-07-27 21:53,-114.8453,39.2950,1909.00,89.00,34.00,14.14,0.00,0.00,0.00,30.18,1011.00,10.00,M,CLR,M,M,M,M,M,M,M,M,M,M,M,27.00,40.00,2022-07-27 21:27,85.17,KELY 272153Z AUTO 00000KT 10SM CLR 32/01 A3018 RMK AO2 PK WND 04027/2127 WSHFT 2102 SLP110 T03170011,M
DRA,2022-07-27 21:53,-116.0278,36.6206,1009.00,96.00,57.00,27.23,60.00,4.00,0.00,29.98,1009.60,10.00,M,CLR,M,M,M,M,M,M,M,M,M,M,M,M,M,M,94.94,KDRA 272153Z AUTO 06004KT 10SM CLR 36/14 A2998 RMK AO2 SLP096 T03560139,M
HTH,2022-07-27 21:55,-118.6315,38.5448,1282.89,100.40,24.80,6.85,310.00,11.00,0.00,30.02,M,10.00,M,CLR,M,M,M,M,M,M,M,M,M,M,M,M,M,M,93.40,KHTH 272155Z AUTO 31011KT 10SM CLR 38/M04 A3002 RMK A01,M
BAM,2022-07-27 21:55,-116.8743,40.5990,1382.36,M,M,M,360.00,5.00,0.00,30.07,M,10.00,18.00,CLR,M,M,M,M,M,M,M,M,M,M,M,M,M,M,M,KBAM 272155Z AUTO 36005G18KT 10SM CLR A3007 RMK AO1,M
RTS,2022-07-27 21:55,-119.8764,39.6682,1539.00,95.00,19.40,6.43,M,4.00,0.00,30.14,M,10.00,11.00,CLR,M,M,M,M,M,M,M,M,M,M,M,M,M,M,88.50,KRTS 272155Z AUTO VRB04G11KT 10SM CLR 35/M07 A3014 RMK AO2,M
MEV,2022-07-27 21:55,-119.7500,38.9963,1441.42,98.60,32.00,9.72,360.00,10.00,0.00,30.07,M,10.00,22.00,CLR,M,M,M,M,M,M,M,M,M,M,M,M,M,M,92.69,KMEV 272155Z AUTO 36010G22KT 330V030 10SM CLR 37/M00 A3007 RMK AO2,M
BVU,2022-07-27 21:55,-114.8611,35.9475,671.00,M,M,M,M,M,0.00,M,M,M,M,M,M,M,M,M,M,M,M,M,M,M,M,M,M,M,M,KBVU 272155Z AUTO RMK AO2 PNO PWINO TSNO,M
CXP,2022-07-27 21:55,-119.7326,39.1923,1431.00,98.60,26.60,7.80,M,6.00,0.00,30.09,M,10.00,M,CLR,M,M,M,M,M,M,M,M,M,M,M,M,M,M,92.07,KCXP 272155Z AUTO VRB06KT 10SM CLR 37/M03 A3009 RMK AO2,M
RNO,2022-07-27 21:55,-119.7711,39.4839,1341.00,99.00,35.00,10.87,M,4.00,0.00,30.07,1010.70,10.00,M,SCT,SCT,M,M,10000.00,17000.00,M,M,M,M,M,M,M,M,M,93.48,KRNO 272155Z VRB04KT 10SM SCT100 SCT170 37/02 A3007 RMK AO2 SLP107 HZ ALQDS T03720017,M
TMT,2022-07-27 21:55,-117.1971,39.4643,1749.34,M,M,M,340.00,9.00,0.00,30.16,M,10.00,16.00,CLR,M,M,M,M,M,M,M,M,M,M,M,M,M,M,M,KTMT 272155Z AUTO 34009G16KT 10SM CLR A3016 RMK AO2,M
WMC,2022-07-27 21:56,-117.8072,40.9019,1315.00,103.00,30.90,8.17,350.00,14.00,0.00,30.04,1011.60,10.00,25.00,CLR,M,M,M,M,M,M,M,M,M,M,M,M,M,M,96.19,KWMC 272156Z AUTO 35014G25KT 10SM CLR 39/M01 A3004 RMK AO2 SLP116 T03941006,M
TPH,2022-07-27 21:56,-117.0904,38.0505,1654.00,93.00,39.00,15.24,M,3.00,0.00,30.14,1011.30,10.00,M,CLR,M,M,M,M,M,M,M,M,M,M,M,M,M,M,88.73,KTPH 272156Z AUTO VRB03KT 10SM CLR 34/04 A3014 RMK AO2 SLP113 T03390039,M
HND,2022-07-27 21:56,-115.1344,35.9729,742.79,98.00,63.00,31.71,140.00,9.00,0.00,29.93,1011.60,10.00,M,SCT,M,M,M,8500.00,M,M,M,M,M,M,M,M,M,M,100.03,KHND 272156Z 14009KT 10SM SCT085 37/17 A2993 RMK AO2 LTG DSNT E AND SW SLP116 T03670172,M
EKO,2022-07-27 21:56,-115.7860,40.8242,1367.00,100.00,30.00,8.59,320.00,10.00,0.00,30.07,1011.20,10.00,14.00,CLR,M,M,M,M,M,M,M,M,M,M,M,M,M,M,93.61,KEKO 272156Z AUTO 32010G14KT 280V360 10SM CLR 38/M01 A3007 RMK AO2 SLP112 T03781011,M
NFL,2022-07-27 21:56,-118.7010,39.4166,1199.00,104.00,21.90,5.45,20.00,14.00,0.00,30.00,1012.90,10.00,17.00,SCT,SCT,M,M,11000.00,15000.00,M,M,M,M,M,M,M,M,M,96.15,KNFL 272156Z 02014G17KT 10SM SCT110 SCT150 40/M06 A3000 RMK AO2 SLP129 T04001056,M
LAS,2022-07-27 21:56,-115.1634,36.0719,663.00,99.00,60.00,27.85,60.00,7.00,0.00,29.89,1009.00,10.00,M,FEW,SCT,BKN,M,10000.00,17000.00,22000.00,M,M,M,M,M,M,M,M,99.50,KLAS 272156Z 06007KT 10SM FEW100 SCT170 BKN220 37/16 A2989 RMK AO2 LTG DSNT E AND SW SLP090 CB DSNT ALQDS T03720156,M
LSV,2022-07-27 21:58,-115.0343,36.2362,570.00,106.50,60.80,22.82,20.00,5.00,0.00,29.86,1008.20,10.00,M,CLR,M,M,M,M,M,M,M,M,M,M,M,M,M,M,108.56,KLSV 272158Z AUTO 02005KT 10SM CLR 41/16 A2986 RMK AO2 SLP082 T04140160 $,M
INS,2022-07-27 21:58,-115.6733,36.5872,955.00,93.00,55.00,27.87,260.00,13.00,0.00,29.96,1009.20,10.00,M,FEW,M,M,M,15000.00,M,M,M,M,M,M,M,M,M,M,91.03,KINS 272158Z AUTO 26013KT 10SM FEW150 34/13 A2996 RMK AO2 SLP092 T03390128,M
BAM,2022-07-27 22:15,-116.8743,40.5990,1382.36,M,M,M,330.00,11.00,0.00,30.06,M,10.00,18.00,CLR,M,M,M,M,M,M,M,M,M,M,M,M,M,M,M,KBAM 272215Z AUTO 33011G18KT 310V020 10SM CLR A3006 RMK AO1,M
MEV,2022-07-27 22:15,-119.7500,38.9963,1441.42,98.60,30.20,9.04,330.00,13.00,0.00,30.07,M,10.00,M,CLR,M,M,M,M,M,M,M,M,M,M,M,M,M,M,92.46,KMEV 272215Z AUTO 33013KT 10SM CLR 37/M01 A3007 RMK AO2,M
RTS,2022-07-27 22:15,-119.8764,39.6682,1539.00,95.00,21.20,6.95,M,5.00,0.00,30.13,M,10.00,M,CLR,M,M,M,M,M,M,M,M,M,M,M,M,M,M,88.62,KRTS 272215Z AUTO VRB05KT 10SM CLR 35/M06 A3013 RMK AO2,M
BVU,2022-07-27 22:15,-114.8611,35.9475,671.00,M,M,M,M,M,0.00,M,M,M,M,M,M,M,M,M,M,M,M,M,M,M,M,M,M,M,M,KBVU 272215Z AUTO RMK AO2 PNO PWINO TSNO,M
TMT,2022-07-27 22:15,-117.1971,39.4643,1749.34,M,M,M,310.00,7.00,0.00,30.15,M,10.00,14.00,CLR,M,M,M,M,M,M,M,M,M,M,M,M,M,M,M,KTMT 272215Z AUTO 31007G14KT 10SM CLR A3015 RMK AO2,M
HTH,2022-07-27 22:15,-118.6315,38.5448,1282.89,100.40,24.80,6.85,310.00,10.00,0.00,30.02,M,10.00,M,CLR,M,M,M,M,M,M,M,M,M,M,M,M,M,M,93.40,KHTH 272215Z AUTO 31010KT 10SM CLR 38/M04 A3002 RMK A01,M
CXP,2022-07-27 22:15,-119.7326,39.1923,1431.00,98.60,26.60,7.80,M,7.00,0.00,30.09,M,5.00,20.00,CLR,M,M,M,M,M,M,M,HZ,M,M,M,M,M,M,92.07,KCXP 272215Z AUTO VRB07G20KT 5SM HZ CLR 37/M03 A3009 RMK AO2,M
HTH,2022-07-27 22:35,-118.6315,38.5448,1282.89,100.40,23.00,6.36,300.00,10.00,0.00,30.01,M,10.00,17.00,CLR,M,M,M,M,M,M,M,M,M,M,M,M,M,M,93.25,KHTH 272235Z AUTO 30010G17KT 10SM CLR 38/M05 A3001 RMK A01,M
CXP,2022-07-27 22:35,-119.7326,39.1923,1431.00,100.40,28.40,7.95,320.00,8.00,0.00,30.08,M,10.00,14.00,CLR,M,M,M,M,M,M,M,M,M,M,M,M,M,M,93.77,KCXP 272235Z AUTO 32008G14KT 290V020 10SM CLR 38/M02 A3008 RMK AO2,M
BVU,2022-07-27 22:35,-114.8611,35.9475,671.00,M,M,M,M,M,0.00,M,M,M,M,M,M,M,M,M,M,M,M,M,M,M,M,M,M,M,M,KBVU 272235Z AUTO RMK AO2 PNO PWINO TSNO,M
BAM,2022-07-27 22:35,-116.8743,40.5990,1382.36,M,M,M,350.00,13.00,0.00,30.06,M,10.00,18.00,CLR,M,M,M,M,M,M,M,M,M,M,M,M,M,M,M,KBAM 272235Z AUTO 35013G18KT 10SM CLR A3006 RMK AO1,M
RTS,2022-07-27 22:35,-119.8764,39.6682,1539.00,96.80,21.20,6.57,130.00,8.00,0.00,30.13,M,10.00,M,CLR,M,M,M,M,M,M,M,M,M,M,M,M,M,M,90.11,KRTS 272235Z AUTO 13008KT 10SM CLR 36/M06 A3013 RMK AO2,M
TMT,2022-07-27 22:35,-117.1971,39.4643,1749.34,M,M,M,310.00,6.00,0.00,30.15,M,10.00,M,CLR,M,M,M,M,M,M,M,M,M,M,M,M,M,M,M,KTMT 272235Z AUTO 31006KT 10SM CLR A3015 RMK AO2,M
MEV,2022-07-27 22:35,-119.7500,38.9963,1441.42,100.40,28.40,7.95,310.00,9.00,0.00,30.06,M,10.00,17.00,CLR,M,M,M,M,M,M,M,M,M,M,M,M,M,M,93.77,KMEV 272235Z AUTO 31009G17KT 10SM CLR 38/M02 A3006 RMK AO2,M
HND,2022-07-27 22:42,-115.1344,35.9729,742.79,93.20,64.40,38.73,200.00,21.00,0.00,29.93,M,10.00,M,BKN,M,M,M,8500.00,M,M,M,VCTS,M,M,M,26.00,160.00,2022-07-27 22:01,95.20,KHND 272242Z 20021KT 10SM VCTS BKN085 34/18 A2993 RMK AO2 PK WND 16026/2201 LTG DSNT SW TSB36,M
LAS,2022-07-27 22:52,-115.1634,36.0719,663.00,95.00,62.60,34.39,180.00,14.00,0.00,29.89,M,10.00,26.00,FEW,SCT,BKN,M,10000.00,17000.00,22000.00,M,VCTS,M,M,M,26.00,170.00,2022-07-27 22:52,96.22,KLAS 272252Z 18014G26KT 10SM VCTS FEW100 SCT170 BKN220 35/17 A2989 RMK AO2 PK WND 17026/2252 LTG DSNT S AND NW TSE46 CB DSNT ALQDS,M
ELY,2022-07-27 22:53,-114.8453,39.2950,1909.00,87.00,42.00,20.70,160.00,16.00,0.00,30.17,1011.10,10.00,29.00,CLR,M,M,M,M,M,M,M,M,M,M,M,33.00,190.00,2022-07-27 22:06,83.79,KELY 272253Z AUTO 16016G29KT 10SM CLR 31/06 A3017 RMK AO2 PK WND 19033/2206 SLP111 T03060056,M
LOL,2022-07-27 22:53,-118.5701,40.0684,1192.43,105.00,26.10,6.29,60.00,11.00,0.00,29.98,1009.90,10.00,20.00,CLR,M,M,M,M,M,M,M,M,M,M,M,M,M,M,97.47,KLOL 272253Z AUTO 06011G20KT 10SM CLR 41/M03 A2998 RMK AO2 SLP099 T04061033,M
P68,2022-07-27 22:53,-116.0056,39.6014,1993.00,95.00,26.10,8.53,340.00,11.00,0.00,30.13,1010.60,M,16.00,M,M,M,M,M,M,M,M,M,M,M,M,M,M,M,89.03,KP68 272253Z AUTO 34011G16KT 35/M03 A3013 RMK AO1 SLP106 T03501033,M
DRA,2022-07-27 22:53,-116.0278,36.6206,1009.00,96.00,57.00,27.23,120.00,7.00,0.00,29.96,1008.80,10.00,14.00,SCT,M,M,M,12000.00,M,M,M,M,M,M,M,M,M,M,94.94,KDRA 272253Z AUTO 12007G14KT 10SM SCT120 36/14 A2996 RMK AO2 SLP088 T03560139,M
VGT,2022-07-27 22:53,-115.1933,36.2111,667.00,99.00,60.00,27.85,130.00,7.00,0.00,29.87,1010.20,10.00,M,CLR,M,M,M,M,M,M,M,TS,M,M,M,M,M,M,99.50,KVGT 272253Z 13007KT 10SM TS CLR 37/16 A2987 RMK AO2 LTG DSNT S AND W TSB46 SLP102 T03720156,M
BVU,2022-07-27 22:55,-114.8611,35.9475,671.00,M,M,M,M,M,0.00,M,M,M,M,M,M,M,M,M,M,M,M,M,M,M,M,M,M,M,M,KBVU 272255Z AUTO RMK AO2 PNO PWINO TSNO,M
TMT,2022-07-27 22:55,-117.1971,39.4643,1749.34,M,M,M,20.00,13.00,0.00,30.15,M,10.00,16.00,CLR,M,M,M,M,M,M,M,M,M,M,M,M,M,M,M,KTMT 272255Z AUTO 02013G16KT 10SM CLR A3015 RMK AO2,M
HTH,2022-07-27 22:55,-118.6315,38.5448,1282.89,100.40,21.20,5.89,300.00,10.00,0.00,30.00,M,10.00,M,CLR,M,M,M,M,M,M,M,M,M,M,M,M,M,M,93.11,KHTH 272255Z AUTO 30010KT 10SM CLR 38/M06 A3000 RMK A01,M
BAM,2022-07-27 22:55,-116.8743,40.5990,1382.36,M,M,M,120.00,3.00,0.00,30.04,M,10.00,M,CLR,M,M,M,M,M,M,M,M,M,M,M,M,M,M,M,KBAM 272255Z AUTO 12003KT 10SM CLR A3004 RMK AO1,M
MEV,2022-07-27 22:55,-119.7500,38.9963,1441.42,98.60,26.60,7.80,350.00,7.00,0.00,30.06,M,10.00,15.00,CLR,M,M,M,M,M,M,M,M,M,M,M,M,M,M,92.07,KMEV 272255Z AUTO 35007G15KT 10SM CLR 37/M03 A3006 RMK AO2,M
RTS,2022-07-27 22:55,-119.8764,39.6682,1539.00,96.80,21.20,6.57,150.00,7.00,0.00,30.12,M,10.00,15.00,CLR,M,M,M,M,M,M,M,M,M,M,M,M,M,M,90.11,KRTS 272255Z AUTO 15007G15KT 10SM CLR 36/M06 A3012 RMK AO2,M
RNO,2022-07-27 22:55,-119.7711,39.4839,1341.00,100.00,35.00,10.55,0.00,0.00,0.00,30.05,1010.20,10.00,M,SCT,SCT,M,M,12000.00,16000.00,M,M,M,M,M,M,M,M,M,94.33,KRNO 272255Z 00000KT 10SM SCT120 SCT160 38/02 A3005 RMK AO2 SLP102 HZ ALQDS T03780017,M
CXP,2022-07-27 22:55,-119.7326,39.1923,1431.00,98.60,28.40,8.40,M,6.00,0.00,30.08,M,10.00,M,CLR,M,M,M,M,M,M,M,M,M,M,M,M,M,M,92.25,KCXP 272255Z AUTO VRB06KT 10SM CLR 37/M02 A3008 RMK AO2,M
NFL,2022-07-27 22:56,-118.7010,39.4166,1199.00,105.00,19.90,4.84,330.00,9.00,0.00,29.98,1012.40,10.00,M,FEW,SCT,SCT,M,8000.00,12000.00,25000.00,M,M,M,M,M,M,M,M,96.90,KNFL 272256Z 33009KT 10SM FEW080 SCT120 SCT250 41/M07 A2998 RMK AO2 SLP124 T04061067,M
LAS,2022-07-27 22:56,-115.1634,36.0719,663.00,93.20,62.60,36.35,190.00,17.00,0.00,29.89,1009.20,10.00,26.00,SCT,SCT,BKN,M,10000.00,17000.00,22000.00,M,TS,M,M,M,26.00,170.00,2022-07-27 22:52,94.20,KLAS 272256Z 19017G26KT 10SM TS SCT100CB SCT170 BKN220 34/17 A2989 RMK AO2 PK WND 17026/2252 LTG DSNT S AND NW TSE46B56 SLP092 OCNL LTGICCG E AND SE-SW-W TS E AND SE-SW-W MOV SW VCSH DSNT NE-SE CB DSNT ALQDS T0344017,M
WMC,2022-07-27 22:56,-117.8072,40.9019,1315.00,100.00,26.10,7.32,300.00,6.00,0.00,30.02,1011.30,10.00,20.00,CLR,M,M,M,M,M,M,M,M,M,M,M,M,M,M,93.19,KWMC 272256Z AUTO 30006G20KT 10SM CLR 38/M03 A3002 RMK AO2 SLP113 T03781033,M
TPH,2022-07-27 22:56,-117.0904,38.0505,1654.00,92.00,38.00,15.11,150.00,9.00,0.00,30.12,1011.10,10.00,20.00,CLR,M,M,M,M,M,M,M,M,M,M,M,30.00,70.00,2022-07-27 22:18,87.69,KTPH 272256Z AUTO 15009G20KT 10SM CLR 33/03 A3012 RMK AO2 PK WND 07030/2218 SLP111 T03330033,M
EKO,2022-07-27 22:56,-115.7860,40.8242,1367.00,98.00,32.00,9.87,M,3.00,0.00,30.05,1010.80,10.00,M,CLR,M,M,M,M,M,M,M,M,M,M,M,M,M,M,92.27,KEKO 272256Z AUTO VRB03KT 10SM CLR 37/00 A3005 RMK AO2 SLP108 T03670000,M
HND,2022-07-27 22:56,-115.1344,35.9729,742.79,88.00,64.00,44.95,230.00,18.00,0.00,29.94,1012.40,9.00,27.00,FEW,M,M,M,8500.00,M,M,M,VCTS,M,M,M,27.00,230.00,2022-07-27 22:52,89.34,KHND 272256Z 23018G27KT 9SM VCTS FEW085 31/18 A2994 RMK AO2 PK WND 23027/2252 WSHFT 2230 LTG DSNT SW-N TSB36 SLP124 T03110178,M
INS,2022-07-27 22:58,-115.6733,36.5872,955.00,95.70,54.00,24.81,270.00,8.00,0.00,29.94,1008.40,10.00,M,SCT,M,M,M,14000.00,M,M,M,M,M,M,M,M,M,M,93.58,KINS 272258Z AUTO 27008KT 10SM SCT140 35/12 A2994 RMK AO2 SLP084 T03540123,M
LSV,2022-07-27 22:58,-115.0343,36.2362,570.00,103.50,60.60,24.76,160.00,8.00,0.00,29.84,1007.60,10.00,M,SCT,M,M,M,9500.00,M,M,M,M,M,M,M,M,M,M,104.97,KLSV 272258Z AUTO 16008KT 10SM SCT095 40/16 A2984 RMK AO2 LTG DSNT S SLP076 T03970159 $,M
VGT,2022-07-27 23:07,-115.1933,36.2111,667.00,99.00,60.00,27.85,0.00,0.00,0.00,29.87,M,10.00,M,SCT,M,M,M,12000.00,M,M,M,M,M,M,M,M,M,M,99.50,KVGT 272307Z 00000KT 10SM SCT120 37/16 A2987 RMK AO2 LTG DSNT SE AND S TSE01 T03720156,M
HTH,2022-07-27 23:15,-118.6315,38.5448,1282.89,100.40,23.00,6.36,320.00,12.00,0.00,30.00,M,10.00,M,CLR,M,M,M,M,M,M,M,M,M,M,M,M,M,M,93.25,KHTH 272315Z AUTO 32012KT 10SM CLR 38/M05 A3000 RMK A01,M
TMT,2022-07-27 23:15,-117.1971,39.4643,1749.34,M,M,M,40.00,7.00,0.00,30.14,M,10.00,M,CLR,M,M,M,M,M,M,M,M,M,M,M,M,M,M,M,KTMT 272315Z AUTO 04007KT 10SM CLR A3014 RMK AO2,M
BVU,2022-07-27 23:15,-114.8611,35.9475,671.00,M,M,M,M,M,0.00,M,M,M,M,M,M,M,M,M,M,M,M,M,M,M,M,M,M,M,M,KBVU 272315Z AUTO RMK AO2 PNO PWINO TSNO,M
CXP,2022-07-27 23:15,-119.7326,39.1923,1431.00,100.40,24.80,6.85,60.00,9.00,0.00,30.08,M,10.00,18.00,CLR,M,M,M,M,M,M,M,M,M,M,M,M,M,M,93.40,KCXP 272315Z AUTO 06009G18KT 10SM CLR 38/M04 A3008 RMK AO2,M
RTS,2022-07-27 23:15,-119.8764,39.6682,1539.00,96.80,21.20,6.57,M,4.00,0.00,30.12,M,10.00,12.00,CLR,M,M,M,M,M,M,M,M,M,M,M,M,M,M,90.11,KRTS 272315Z AUTO VRB04G12KT 10SM CLR 36/M06 A3012 RMK AO2,M
MEV,2022-07-27 23:15,-119.7500,38.9963,1441.42,100.40,26.60,7.39,350.00,12.00,0.00,30.05,M,10.00,20.00,CLR,M,M,M,M,M,M,M,M,M,M,M,M,M,M,93.57,KMEV 272315Z AUTO 35012G20KT 10SM CLR 38/M03 A3005 RMK AO2,M
BAM,2022-07-27 23:15,-116.8743,40.5990,1382.36,M,M,M,340.00,7.00,0.00,30.04,M,10.00,20.00,CLR,M,M,M,M,M,M,M,M,M,M,M,M,M,M,M,KBAM 272315Z AUTO 34007G20KT 10SM CLR A3004 RMK AO1,M
HND,2022-07-27 23:23,-115.1344,35.9729,742.79,89.60,62.60,40.69,200.00,14.00,0.00,29.93,M,10.00,M,CLR,M,M,M,M,M,M,M,M,M,M,M,M,M,M,90.32,KHND 272323Z 20014KT 10SM CLR 32/17 A2993 RMK AO2 TSE17,M
MEV,2022-07-27 23:35,-119.7500,38.9963,1441.42,100.40,26.60,7.39,330.00,17.00,0.00,30.04,M,10.00,M,CLR,M,M,M,M,M,M,M,M,M,M,M,M,M,M,93.57,KMEV 272335Z AUTO 33017KT 10SM CLR 38/M03 A3004 RMK AO2,M
BVU,2022-07-27 23:35,-114.8611,35.9475,671.00,M,M,M,M,M,0.00,M,M,M,M,M,M,M,M,M,M,M,M,M,M,M,M,M,M,M,M,KBVU 272335Z AUTO RMK AO2 PNO PWINO TSNO,M
CXP,2022-07-27 23:35,-119.7326,39.1923,1431.00,98.60,24.80,7.24,0.00,0.00,0.00,30.07,M,10.00,10.00,CLR,M,M,M,M,M,M,M,M,M,M,M,M,M,M,91.90,KCXP 272335Z AUTO 00000G10KT 10SM CLR 37/M04 A3007 RMK AO2,M
RTS,2022-07-27 23:35,-119.8764,39.6682,1539.00,96.80,19.40,6.09,M,6.00,0.00,30.12,M,10.00,M,CLR,M,M,M,M,M,M,M,M,M,M,M,M,M,M,89.99,KRTS 272335Z AUTO VRB06KT 10SM CLR 36/M07 A3012 RMK AO2,M
BAM,2022-07-27 23:35,-116.8743,40.5990,1382.36,M,M,M,310.00,11.00,0.00,30.04,M,10.00,17.00,CLR,M,M,M,M,M,M,M,M,M,M,M,M,M,M,M,KBAM 272335Z AUTO 31011G17KT 10SM CLR A3004 RMK AO1,M
HTH,2022-07-27 23:35,-118.6315,38.5448,1282.89,98.60,21.20,6.22,330.00,10.00,0.00,29.99,M,10.00,16.00,CLR,M,M,M,M,M,M,M,M,M,M,M,M,M,M,91.61,KHTH 272335Z AUTO 33010G16KT 10SM CLR 37/M06 A2999 RMK A01,M
TMT,2022-07-27 23:35,-117.1971,39.4643,1749.34,M,M,M,10.00,4.00,0.00,30.14,M,10.00,M,CLR,M,M,M,M,M,M,M,M,M,M,M,M,M,M,M,KTMT 272335Z AUTO 01004KT 10SM CLR A3014 RMK AO2,M
DRA,2022-07-27 23:53,-116.0278,36.6206,1009.00,97.00,56.00,25.45,150.00,9.00,0.00,29.94,1008.30,10.00,M,CLR,M,M,M,M,M,M,M,M,M,M,M,M,M,M,95.53,KDRA 272353Z AUTO 15009KT 10SM CLR 36/13 A2994 RMK AO2 SLP083 T03610133 10367 20311 57016,M
VGT,2022-07-27 23:53,-115.1933,36.2111,667.00,96.00,60.00,30.43,190.00,12.00,0.00,29.87,1010.00,10.00,M,CLR,M,M,M,M,M,M,M,M,M,M,M,26.00,180.00,2022-07-27 23:24,96.21,KVGT 272353Z 19012KT 10SM CLR 36/16 A2987 RMK AO2 PK WND 18026/2324 LTG DSNT SW AND W TSE01 SLP100 T03560156 10378 20339 57004,M
LOL,2022-07-27 23:53,-118.5701,40.0684,1192.43,102.00,25.00,6.59,50.00,8.00,0.00,29.97,1009.50,10.00,M,CLR,M,M,M,M,M,M,M,M,M,M,M,M,M,M,94.76,KLOL 272353Z AUTO 05008KT 10SM CLR 39/M04 A2997 RMK AO2 SLP095 T03891039 10411 20344 56014,M
P68,2022-07-27 23:53,-116.0056,39.6014,1993.00,93.00,25.00,8.67,360.00,9.00,0.00,30.12,1010.40,M,M,M,M,M,M,M,M,M,M,M,M,M,M,M,M,M,87.43,KP68 272353Z AUTO 36009KT 34/M04 A3012 RMK AO1 SLP104 T03391039 10356 20306 56014,M
ELY,2022-07-27 23:53,-114.8453,39.2950,1909.00,83.00,41.00,22.70,180.00,11.00,0.00,30.16,1011.50,10.00,M,CLR,M,M,M,M,M,M,M,M,M,M,M,28.00,190.00,2022-07-27 23:29,80.62,KELY 272353Z AUTO 18011KT 10SM CLR 28/05 A3016 RMK AO2 PK WND 19028/2329 SLP115 T02830050 10333 20283 56008,M
TMT,2022-07-27 23:55,-117.1971,39.4643,1749.34,M,M,M,310.00,3.00,0.00,30.14,M,10.00,15.00,CLR,M,M,M,M,M,M,M,M,M,M,M,M,M,M,M,KTMT 272355Z AUTO 31003G15KT 10SM CLR A3014 RMK AO2,M
CXP,2022-07-27 23:55,-119.7326,39.1923,1431.00,98.60,24.80,7.24,350.00,6.00,0.00,30.07,M,10.00,13.00,CLR,M,M,M,M,M,M,M,M,M,M,M,M,M,M,91.90,KCXP 272355Z AUTO 35006G13KT 10SM CLR 37/M04 A3007 RMK AO2,M
HTH,2022-07-27 23:55,-118.6315,38.5448,1282.89,100.40,23.00,6.36,320.00,9.00,0.00,29.99,M,10.00,M,CLR,M,M,M,M,M,M,M,M,M,M,M,M,M,M,93.25,KHTH 272355Z AUTO 32009KT 10SM CLR 38/M05 A2999 RMK A01,M
RTS,2022-07-27 23:55,-119.8764,39.6682,1539.00,96.80,19.40,6.09,350.00,9.00,0.00,30.11,M,10.00,M,CLR,M,M,M,M,M,M,M,M,M,M,M,M,M,M,89.99,KRTS 272355Z AUTO 35009KT 10SM CLR 36/M07 A3011 RMK AO2,M
RNO,2022-07-27 23:55,-119.7711,39.4839,1341.00,102.00,32.00,8.77,100.00,5.00,0.00,30.03,1009.40,10.00,M,FEW,FEW,M,M,13000.00,18000.00,M,M,M,M,M,M,M,M,M,95.57,KRNO 272355Z 10005KT 10SM FEW130 FEW180 39/00 A3003 RMK AO2 SLP094 HZ ALQDS T03890000 10389 20317 57017,M
MEV,2022-07-27 23:55,-119.7500,38.9963,1441.42,100.40,28.40,7.95,340.00,12.00,0.00,30.04,M,10.00,17.00,CLR,M,M,M,M,M,M,M,M,M,M,M,M,M,M,93.77,KMEV 272355Z AUTO 34012G17KT 320V020 10SM CLR 38/M02 A3004 RMK AO2,M
BVU,2022-07-27 23:55,-114.8611,35.9475,671.00,M,M,M,M,M,0.00,M,M,M,M,M,M,M,M,M,M,M,M,M,M,M,M,M,M,M,M,KBVU 272355Z AUTO RMK AO2 PNO PWINO TSNO,M
BAM,2022-07-27 23:55,-116.8743,40.5990,1382.36,M,M,M,330.00,15.00,0.00,30.04,M,10.00,M,CLR,M,M,M,M,M,M,M,M,M,M,M,M,M,M,M,KBAM 272355Z AUTO 33015KT 10SM CLR A3004 RMK AO1,M
TPH,2022-07-27 23:56,-117.0904,38.0505,1654.00,92.00,43.00,18.42,220.00,18.00,0.00,30.11,1010.80,10.00,30.00,CLR,M,M,M,M,M,M,M,M,M,M,M,30.00,200.00,2022-07-27 23:51,87.99,KTPH 272356Z AUTO 22018G30KT 10SM CLR 33/06 A3011 RMK AO2 PK WND 20030/2351 SLP108 T03330061 10344 20272 58009,M
WMC,2022-07-27 23:56,-117.8072,40.9019,1315.00,103.00,26.10,6.71,340.00,10.00,0.00,30.01,1010.70,10.00,20.00,CLR,M,M,M,M,M,M,M,M,M,M,M,26.00,300.00,2022-07-27 23:45,95.62,KWMC 272356Z AUTO 34010G20KT 300V020 10SM CLR 39/M03 A3001 RMK AO2 PK WND 30026/2345 SLP107 T03941033 10400 20339 56015,M
EKO,2022-07-27 23:56,-115.7860,40.8242,1367.00,97.00,30.90,9.76,320.00,7.00,0.00,30.04,1010.50,10.00,M,CLR,M,M,M,M,M,M,M,M,M,M,M,M,M,M,91.21,KEKO 272356Z AUTO 32007KT 10SM CLR 36/M01 A3004 RMK AO2 SLP105 T03611006 10378 20328 56013,M
NFL,2022-07-27 23:56,-118.7010,39.4166,1199.00,104.00,18.00,4.61,310.00,7.00,0.00,29.97,1011.90,10.00,M,FEW,SCT,BKN,M,8000.00,12000.00,25000.00,M,M,M,M,M,M,M,M,95.86,KNFL 272356Z 31007KT 10SM FEW080 SCT120 BKN250 40/M08 A2997 RMK AO2 SLP119 T04001078 10406 20339 56016,M
HND,2022-07-27 23:56,-115.1344,35.9729,742.79,89.00,66.00,46.55,210.00,8.00,0.00,29.93,1012.10,10.00,M,CLR,M,M,M,M,M,M,M,M,M,M,M,M,M,M,91.60,KHND 272356Z 21008KT 10SM CLR 32/19 A2993 RMK AO2 LTG DSNT W TSE17 SLP121 T03170189 10378 20300 56004,M
LAS,2022-07-27 23:56,-115.1634,36.0719,663.00,92.00,61.00,35.77,180.00,8.00,0.00,29.88,1009.00,10.00,16.00,SCT,SCT,BKN,M,10000.00,17000.00,22000.00,M,TS,M,M,M,26.00,190.00,2022-07-27 22:59,92.01,KLAS 272356Z 18008G16KT 10SM TS SCT100CB SCT170 BKN220 33/16 A2988 RMK AO2 PK WND 19026/2259 LTG DSNT SW-NW SLP090 OCNL LTGICCG OHD-W TS OHD-W MOV SW CB DSNT ALQDS T03330161 10383 20328 58002,M
LSV,2022-07-27 23:58,-115.0343,36.2362,570.00,97.00,64.00,33.85,180.00,13.00,0.00,29.85,1008.20,10.00,M,CLR,M,M,M,M,M,M,M,M,M,M,M,30.00,190.00,2022-07-27 23:11,99.29,KLSV 272358Z AUTO 18013KT 10SM CLR 36/18 A2985 RMK AO2 PK WND 19030/11 SLP082 T03610177 10415 20356 55010 $,M
INS,2022-07-27 23:58,-115.6733,36.5872,955.00,97.30,53.20,22.86,250.00,6.00,0.00,29.93,1008.00,10.00,M,FEW,M,M,M,12000.00,M,M,M,M,M,M,M,M,M,M,95.01,KINS 272358Z AUTO 25006KT 10SM FEW120 36/12 A2993 RMK AO2 SLP080 T03630118 10364 20331 57014,M
