station,valid,lon,lat,elevation,tmpf,dwpf,relh,drct,sknt,p01i,alti,mslp,vsby,gust,skyc1,skyc2,skyc3,skyc4,skyl1,skyl2,skyl3,skyl4,wxcodes,ice_accretion_1hr,ice_accretion_3hr,ice_accretion_6hr,peak_wind_gust,peak_wind_drct,peak_wind_time,feel,metar,snowdepth
NFL,2022-07-19 00:03,-118.7010,39.4166,1199.00,81.00,54.00,39.37,170.00,26.00,0.00,30.07,M,6.00,35.00,BKN,BKN,BKN,M,8000.00,12000.00,25000.00,M,BLDU,M,M,M,33.00,170.00,2022-07-19 00:03,80.59,KNFL 190003Z 17026G35KT 6SM BLDU BKN080CB BKN120 BKN250 27/12 A3007 RMK AO2 PK WND 17033/0003 WSHFT 2343 OCNL LTGIC VC S CB VC S MOV N T02720122,M
ELY,2022-07-19 00:14,-114.8453,39.2950,1909.00,86.00,39.00,19.01,300.00,13.00,T,30.20,M,10.00,21.00,BKN,M,M,M,12000.00,M,M,M,M,M,M,M,M,M,M,82.78,KELY 190014Z AUTO 30013G21KT 10SM BKN120 30/04 A3020 RMK AO2 RAE2358 P0000 T03000039,M
TMT,2022-07-19 00:15,-117.1971,39.4643,1749.34,M,M,M,70.00,6.00,0.00,30.16,M,10.00,M,CLR,M,M,M,M,M,M,M,M,M,M,M,M,M,M,M,KTMT 190015Z AUTO 07006KT 10SM CLR A3016 RMK AO2,M
BVU,2022-07-19 00:15,-114.8611,35.9475,671.00,M,M,M,M,M,0.00,M,M,M,M,M,M,M,M,M,M,M,M,M,M,M,M,M,M,M,M,KBVU 190015Z AUTO RMK AO2 PNO PWINO TSNO,M
CXP,2022-07-19 00:15,-119.7326,39.1923,1431.00,89.60,44.60,21.04,260.00,10.00,0.00,30.13,M,10.00,19.00,CLR,M,M,M,M,M,M,M,M,M,M,M,M,M,M,86.07,KCXP 190015Z AUTO 26010G19KT 10SM CLR 32/07 A3013 RMK AO2,M
RTS,2022-07-19 00:15,-119.8764,39.6682,1539.00,89.60,42.80,19.64,260.00,16.00,0.00,30.15,M,10.00,23.00,CLR,M,M,M,M,M,M,M,M,M,M,M,M,M,M,85.93,KRTS 190015Z AUTO 26016G23KT 10SM CLR 32/06 A3015 RMK AO2,M
05U,2022-07-19 00:15,-116.0051,39.6042,1811.23,84.20,46.40,26.76,10.00,13.00,0.00,30.21,M,10.00,M,CLR,M,M,M,M,M,M,M,M,M,M,M,M,M,M,81.87,K05U 190015Z AUTO 01013KT 10SM CLR 29/08 A3021 RMK A01,M
MEV,2022-07-19 00:15,-119.7500,38.9963,1441.42,91.40,42.80,18.56,260.00,14.00,0.00,30.12,M,10.00,21.00,CLR,M,M,M,M,M,M,M,M,M,M,M,M,M,M,87.52,KMEV 190015Z AUTO 26014G21KT 10SM CLR 33/06 A3012 RMK AO2,M
BAM,2022-07-19 00:15,-116.8743,40.5990,1382.36,M,M,M,360.00,12.00,0.00,30.07,M,10.00,M,SCT,SCT,OVC,M,5000.00,8000.00,12000.00,M,M,M,M,M,M,M,M,M,KBAM 190015Z AUTO 36012KT 10SM SCT050 SCT080 OVC120 A3007 RMK AO1,M
HTH,2022-07-19 00:15,-118.6315,38.5448,1282.89,91.40,42.80,18.56,220.00,14.00,0.00,30.07,M,10.00,M,OVC,M,M,M,11000.00,M,M,M,M,M,M,M,M,M,M,87.52,KHTH 190015Z AUTO 22014KT 10SM OVC110 33/06 A3007 RMK A01,M
TPH,2022-07-19 00:34,-117.0904,38.0505,1654.00,82.00,54.00,38.11,330.00,9.00,0.01,30.14,M,8.00,26.00,BKN,M,M,M,11000.00,M,M,M,-RA,M,M,M,27.00,290.00,2022-07-19 00:15,81.24,KTPH 190034Z AUTO 33009G26KT 8SM -RA BKN110 28/12 A3014 RMK AO2 PK WND 29027/0015 WSHFT 0014 RAB25 P0001 T02780122,M
HTH,2022-07-19 00:35,-118.6315,38.5448,1282.89,91.40,42.80,18.56,240.00,12.00,0.00,30.07,M,10.00,18.00,SCT,M,M,M,11000.00,M,M,M,M,M,M,M,M,M,M,87.52,KHTH 190035Z AUTO 24012G18KT 10SM SCT110 33/06 A3007 RMK A01,M
BVU,2022-07-19 00:35,-114.8611,35.9475,671.00,M,M,M,M,M,0.00,M,M,M,M,M,M,M,M,M,M,M,M,M,M,M,M,M,M,M,M,KBVU 190035Z AUTO RMK AO2 PNO PWINO TSNO,M
CXP,2022-07-19 00:35,-119.7326,39.1923,1431.00,89.60,44.60,21.04,270.00,10.00,0.00,30.14,M,10.00,17.00,CLR,M,M,M,M,M,M,M,M,M,M,M,M,M,M,86.07,KCXP 190035Z AUTO 27010G17KT 10SM CLR 32/07 A3014 RMK AO2,M
RTS,2022-07-19 00:35,-119.8764,39.6682,1539.00,89.60,42.80,19.64,240.00,16.00,0.00,30.15,M,10.00,21.00,CLR,M,M,M,M,M,M,M,M,M,M,M,M,M,M,85.93,KRTS 190035Z AUTO 24016G21KT 10SM CLR 32/06 A3015 RMK AO2,M
05U,2022-07-19 00:35,-116.0051,39.6042,1811.23,84.20,46.40,26.76,340.00,7.00,0.00,30.21,M,10.00,13.00,FEW,M,M,M,11000.00,M,M,M,M,M,M,M,M,M,M,81.87,K05U 190035Z AUTO 34007G13KT 10SM FEW110 29/08 A3021 RMK A01,M
MEV,2022-07-19 00:35,-119.7500,38.9963,1441.42,89.60,42.80,19.64,260.00,15.00,0.00,30.12,M,10.00,21.00,CLR,M,M,M,M,M,M,M,M,M,M,M,M,M,M,85.93,KMEV 190035Z AUTO 26015G21KT 10SM CLR 32/06 A3012 RMK AO2,M
BAM,2022-07-19 00:35,-116.8743,40.5990,1382.36,M,M,M,360.00,10.00,0.00,30.07,M,10.00,17.00,BKN,M,M,M,12000.00,M,M,M,M,M,M,M,M,M,M,M,KBAM 190035Z AUTO 36010G17KT 10SM BKN120 A3007 RMK AO1,M
TMT,2022-07-19 00:35,-117.1971,39.4643,1749.34,M,M,M,310.00,4.00,0.00,30.16,M,10.00,M,CLR,M,M,M,M,M,M,M,M,M,M,M,M,M,M,M,KTMT 190035Z AUTO 31004KT 10SM CLR A3016 RMK AO2,M
DRA,2022-07-19 00:53,-116.0278,36.6206,1009.00,102.00,49.00,16.91,230.00,14.00,0.00,29.95,1008.10,10.00,22.00,CLR,M,M,M,M,M,M,M,M,M,M,M,32.00,240.00,2022-07-19 00:30,98.79,KDRA 190053Z AUTO 23014G22KT 10SM CLR 39/09 A2995 RMK AO2 PK WND 24032/0030 SLP081 T03890094,M
P68,2022-07-19 00:53,-116.0056,39.6014,1993.00,82.00,46.00,28.30,280.00,10.00,0.00,30.20,1014.00,M,M,M,M,M,M,M,M,M,M,M,M,M,M,M,M,M,80.36,KP68 190053Z AUTO 28010KT 28/08 A3020 RMK AO1 SLP140 T02780078,M
LOL,2022-07-19 00:53,-118.5701,40.0684,1192.43,96.00,46.00,18.13,350.00,9.00,0.00,30.01,1011.40,10.00,15.00,CLR,M,M,M,M,M,M,M,M,M,M,M,M,M,M,92.30,KLOL 190053Z AUTO 35009G15KT 10SM CLR 36/08 A3001 RMK AO2 LTG DSNT W SLP114 T03560078,M
VGT,2022-07-19 00:53,-115.1933,36.2111,667.00,105.00,56.00,19.95,160.00,12.00,0.00,29.87,1009.60,10.00,M,CLR,M,M,M,M,M,M,M,M,M,M,M,M,M,M,104.43,KVGT 190053Z 16012KT 10SM CLR 41/13 A2987 RMK AO2 LTG DSNT SE AND S SLP096 T04060133,M
ELY,2022-07-19 00:53,-114.8453,39.2950,1909.00,85.00,40.00,20.39,360.00,8.00,T,30.20,1012.10,10.00,M,BKN,M,M,M,12000.00,M,M,M,M,M,M,M,M,M,M,81.98,KELY 190053Z AUTO 36008KT 10SM BKN120 29/04 A3020 RMK AO2 RAE2358 SLP121 P0000 T02940044,M
RTS,2022-07-19 00:55,-119.8764,39.6682,1539.00,87.80,42.80,20.79,270.00,15.00,0.00,30.15,M,10.00,22.00,CLR,M,M,M,M,M,M,M,M,M,M,M,M,M,M,84.40,KRTS 190055Z AUTO 27015G22KT 10SM CLR 31/06 A3015 RMK AO2,M
CXP,2022-07-19 00:55,-119.7326,39.1923,1431.00,87.80,46.40,23.85,M,6.00,0.00,30.13,M,10.00,17.00,CLR,M,M,M,M,M,M,M,M,M,M,M,M,M,M,84.68,KCXP 190055Z AUTO VRB06G17KT 10SM CLR 31/08 A3013 RMK AO2,M
05U,2022-07-19 00:55,-116.0051,39.6042,1811.23,82.40,46.40,28.36,280.00,10.00,0.00,30.23,M,10.00,M,FEW,M,M,M,11000.00,M,M,M,M,M,M,M,M,M,M,80.64,K05U 190055Z AUTO 28010KT 10SM FEW110 28/08 A3023 RMK A01,M
MEV,2022-07-19 00:55,-119.7500,38.9963,1441.42,89.60,42.80,19.64,250.00,15.00,0.00,30.12,M,10.00,M,CLR,M,M,M,M,M,M,M,M,M,M,M,M,M,M,85.93,KMEV 190055Z AUTO 25015KT 10SM CLR 32/06 A3012 RMK AO2,M
TMT,2022-07-19 00:55,-117.1971,39.4643,1749.34,M,M,M,250.00,4.00,0.00,30.16,M,10.00,M,SCT,M,M,M,12000.00,M,M,M,M,M,M,M,M,M,M,M,KTMT 190055Z AUTO 25004KT 10SM SCT120 A3016 RMK AO2,M
BVU,2022-07-19 00:55,-114.8611,35.9475,671.00,M,M,M,M,M,0.00,M,M,M,M,M,M,M,M,M,M,M,M,M,M,M,M,M,M,M,M,KBVU 190055Z AUTO RMK AO2 PNO PWINO TSNO,M
BAM,2022-07-19 00:55,-116.8743,40.5990,1382.36,M,M,M,340.00,3.00,0.00,30.07,M,10.00,10.00,OVC,M,M,M,12000.00,M,M,M,M,M,M,M,M,M,M,M,KBAM 190055Z AUTO 34003G10KT 10SM OVC120 A3007 RMK AO1,M
HTH,2022-07-19 00:55,-118.6315,38.5448,1282.89,91.40,41.00,17.32,280.00,8.00,0.00,30.07,M,10.00,M,BKN,M,M,M,11000.00,M,M,M,M,M,M,M,M,M,M,87.40,KHTH 190055Z AUTO 28008KT 10SM BKN110 33/05 A3007 RMK A01,M
RNO,2022-07-19 00:55,-119.7711,39.4839,1341.00,92.00,48.00,22.26,270.00,15.00,0.00,30.07,1011.90,10.00,24.00,SCT,M,M,M,10000.00,M,M,M,M,M,M,M,28.00,290.00,2022-07-19 00:41,88.53,KRNO 190055Z 27015G24KT 10SM SCT100 33/09 A3007 RMK AO2 PK WND 29028/0041 SLP119 TCU DSNT E THRU SE T03330089,M
WMC,2022-07-19 00:56,-117.8072,40.9019,1315.00,88.00,50.00,27.12,250.00,16.00,0.00,30.05,1012.30,10.00,27.00,CLR,M,M,M,M,M,M,M,M,M,M,M,27.00,240.00,2022-07-19 00:56,85.28,KWMC 190056Z AUTO 25016G27KT 10SM CLR 31/10 A3005 RMK AO2 PK WND 24027/0056 SLP123 T03110100 TSNO,M
TPH,2022-07-19 00:56,-117.0904,38.0505,1654.00,85.00,46.00,25.77,340.00,13.00,0.01,30.14,1012.10,10.00,M,OVC,M,M,M,11000.00,M,M,M,M,M,M,M,27.00,290.00,2022-07-19 00:15,82.35,KTPH 190056Z AUTO 34013KT 10SM OVC110 29/08 A3014 RMK AO2 PK WND 29027/0015 WSHFT 0014 RAB25E40 SLP121 P0001 T02940078,M
HND,2022-07-19 00:56,-115.1344,35.9729,742.79,90.00,62.00,39.47,110.00,12.00,0.00,29.93,M,10.00,20.00,CLR,M,M,M,M,M,M,M,-TSRA,M,M,M,32.00,130.00,2022-07-19 00:40,90.51,KHND 190056Z 11012G20KT 10SM -TSRA CLR 32/17 A2993 RMK AO2 PK WND 13032/0040 LTG DSNT SW AND W RAB12E24B41 SLPNO T03220167 PNO $,M
LAS,2022-07-19 00:56,-115.1634,36.0719,663.00,96.00,56.00,26.16,150.00,10.00,0.00,29.88,1008.80,10.00,23.00,SCT,BKN,M,M,12000.00,20000.00,M,M,TS,M,M,M,29.00,160.00,2022-07-19 00:46,94.55,KLAS 190056Z 15010G23KT 10SM TS SCT120CB BKN200 36/13 A2988 RMK AO2 PK WND 16029/0046 LTG DSNT SE AND SW SLP088 OCNL LTGICCCCG SE-SW TS SE-SW MOV N CB DSNT NE-SE AND NW T03560133,M
EKO,2022-07-19 00:56,-115.7860,40.8242,1367.00,84.00,47.00,27.44,280.00,20.00,0.00,30.13,1013.30,10.00,33.00,OVC,M,M,M,10000.00,M,M,M,M,M,M,M,33.00,280.00,2022-07-19 00:50,81.77,KEKO 190056Z AUTO 28020G33KT 10SM OVC100 29/08 A3013 RMK AO2 PK WND 28033/0050 SLP133 T02890083,M
NFL,2022-07-19 00:56,-118.7010,39.4166,1199.00,75.00,60.00,59.81,140.00,17.00,T,30.08,1015.30,6.00,M,BKN,OVC,M,M,8000.00,10000.00,M,M,-RA,M,M,M,35.00,180.00,2022-07-19 00:14,75.00,KNFL 190056Z 14017KT 6SM -RA BKN080CB OVC100 24/16 A3008 RMK AO2 PK WND 18035/0014 WSHFT 2343 RAB08 SLP153 CB VC S DSPTD CB DSNT SW-W P0000 T02390156,M
INS,2022-07-19 00:58,-115.6733,36.5872,955.00,98.00,50.00,19.94,360.00,8.00,0.00,29.95,1008.40,10.00,M,SCT,SCT,BKN,M,11000.00,13000.00,20000.00,M,M,M,M,M,M,M,M,94.84,KINS 190058Z AUTO 36008KT 10SM SCT110 SCT130 BKN200 37/10 A2995 RMK AO2 LTG DSNT SW SLP084 T03660100 $,M
LSV,2022-07-19 00:58,-115.0343,36.2362,570.00,104.00,55.00,19.87,180.00,17.00,0.00,29.84,1007.50,10.00,M,SCT,BKN,M,M,12000.00,18000.00,M,M,M,M,M,M,M,M,M,102.81,KLSV 190058Z 18017KT 10SM SCT120 BKN180 40/13 A2984 RMK AO2A LTG DSNT S SLP075 T04000127 $,M
EKO,2022-07-19 01:03,-115.7860,40.8242,1367.00,82.00,49.00,31.56,300.00,19.00,0.00,30.13,M,10.00,30.00,BKN,M,M,M,10000.00,M,M,M,M,M,M,M,30.00,290.00,2022-07-19 01:00,80.61,KEKO 190103Z AUTO 30019G30KT 10SM BKN100 28/09 A3013 RMK AO2 PK WND 29030/0100 WSHFT 0043 T02780094,M
INS,2022-07-19 01:05,-115.6733,36.5872,955.00,96.80,48.20,19.28,320.00,14.00,0.00,29.95,M,10.00,20.00,BKN,BKN,BKN,M,11000.00,13000.00,20000.00,M,-TS,M,M,M,M,M,M,93.36,KINS 190105Z 32014G20KT 10SM -TS BKN110 BKN130 BKN200 36/09 A2995,M
TMT,2022-07-19 01:15,-117.1971,39.4643,1749.34,M,M,M,280.00,15.00,0.00,30.17,M,10.00,18.00,BKN,M,M,M,12000.00,M,M,M,M,M,M,M,M,M,M,M,KTMT 190115Z AUTO 28015G18KT 10SM BKN120 A3017 RMK AO2,M
MEV,2022-07-19 01:15,-119.7500,38.9963,1441.42,87.80,42.80,20.79,250.00,14.00,0.00,30.12,M,10.00,21.00,CLR,M,M,M,M,M,M,M,M,M,M,M,M,M,M,84.40,KMEV 190115Z AUTO 25014G21KT 10SM CLR 31/06 A3012 RMK AO2,M
BAM,2022-07-19 01:15,-116.8743,40.5990,1382.36,M,M,M,100.00,4.00,0.00,30.06,M,10.00,M,OVC,M,M,M,11000.00,M,M,M,M,M,M,M,M,M,M,M,KBAM 190115Z AUTO 10004KT 10SM OVC110 A3006 RMK AO1,M
BVU,2022-07-19 01:15,-114.8611,35.9475,671.00,M,M,M,M,M,0.00,M,M,M,M,M,M,M,M,M,M,M,M,M,M,M,M,M,M,M,M,KBVU 190115Z AUTO RMK AO2 PNO PWINO TSNO,M
CXP,2022-07-19 01:15,-119.7326,39.1923,1431.00,87.80,44.60,22.27,M,6.00,0.00,30.14,M,10.00,17.00,CLR,M,M,M,M,M,M,M,M,M,M,M,M,M,M,84.53,KCXP 190115Z AUTO VRB06G17KT 10SM CLR 31/07 A3014 RMK AO2,M
HTH,2022-07-19 01:15,-118.6315,38.5448,1282.89,87.80,48.20,25.52,360.00,16.00,0.00,30.08,M,10.00,24.00,SCT,M,M,M,11000.00,M,M,M,M,M,M,M,M,M,M,84.87,KHTH 190115Z AUTO 36016G24KT 10SM SCT110 31/09 A3008 RMK A01,M
05U,2022-07-19 01:15,-116.0051,39.6042,1811.23,80.60,44.60,28.08,0.00,0.00,0.00,30.23,M,10.00,12.00,SCT,M,M,M,11000.00,M,M,M,M,M,M,M,M,M,M,79.42,K05U 190115Z AUTO 00000G12KT 10SM SCT110 27/07 A3023 RMK A01,M
RTS,2022-07-19 01:15,-119.8764,39.6682,1539.00,87.80,44.60,22.27,240.00,11.00,0.00,30.16,M,10.00,25.00,FEW,M,M,M,12000.00,M,M,M,M,M,M,M,M,M,M,84.53,KRTS 190115Z AUTO 24011G25KT 10SM FEW120 31/07 A3016 RMK AO2,M
LOL,2022-07-19 01:19,-118.5701,40.0684,1192.43,90.00,50.00,25.46,M,M,0.00,30.05,M,1.75,M,FEW,SCT,M,M,1200.00,11000.00,M,M,HZ,M,M,M,M,M,M,87.06,KLOL 190119Z AUTO 1 3/4SM HZ FEW012 SCT110 32/10 A3005 RMK AO2 LTG DSNT W PRESRR T03220100,M
INS,2022-07-19 01:20,-115.6733,36.5872,955.00,93.20,50.00,23.04,320.00,17.00,0.00,29.95,1008.70,10.00,22.00,FEW,BKN,BKN,BKN,7500.00,10000.00,13000.00,20000.00,-TSRA,M,M,M,M,M,M,90.10,KINS 190120Z 32017G22KT 10SM -TSRA FEW075 BKN100 BKN130 BKN200 34/10 A2995 RMK AO2A TSB05E20 SLP087 $,M
ELY,2022-07-19 01:21,-114.8453,39.2950,1909.00,81.00,45.00,28.15,230.00,15.00,0.00,30.22,M,10.00,24.00,OVC,M,M,M,10000.00,M,M,M,M,M,M,M,M,M,M,79.68,KELY 190121Z AUTO 23015G24KT 10SM OVC100 27/07 A3022 RMK AO2 WSHFT 0101 LTG DSNT E T02720072,M
LOL,2022-07-19 01:26,-118.5701,40.0684,1192.43,85.00,53.00,33.57,180.00,24.00,0.00,30.05,M,0.25,34.00,BKN,BKN,M,M,800.00,11000.00,M,M,HZ,M,M,M,34.00,180.00,2022-07-19 01:26,83.21,KLOL 190126Z AUTO 18024G34KT 1/4SM HZ BKN008 BKN110 29/12 A3005 RMK AO2 PK WND 18034/0126 T02940117,M
WMC,2022-07-19 01:32,-117.8072,40.9019,1315.00,89.00,45.00,21.70,30.00,14.00,T,30.03,M,9.00,31.00,FEW,BKN,M,M,5000.00,11000.00,M,M,-RA,M,M,M,43.00,230.00,2022-07-19 01:06,85.66,KWMC 190132Z AUTO 03014G31KT 9SM -RA FEW050 BKN110 32/07 A3003 RMK AO2 PK WND 23043/0106 WSHFT 0118 RAB24 P0000 T03170072 TSNO,M
BVU,2022-07-19 01:35,-114.8611,35.9475,671.00,M,M,M,M,M,0.00,M,M,M,M,M,M,M,M,M,M,M,M,M,M,M,M,M,M,M,M,KBVU 190135Z AUTO RMK AO2 PNO PWINO TSNO,M
CXP,2022-07-19 01:35,-119.7326,39.1923,1431.00,87.80,44.60,22.27,M,6.00,0.00,30.14,M,10.00,M,CLR,M,M,M,M,M,M,M,M,M,M,M,M,M,M,84.53,KCXP 190135Z AUTO VRB06KT 10SM CLR 31/07 A3014 RMK AO2,M
RTS,2022-07-19 01:35,-119.8764,39.6682,1539.00,86.00,44.60,23.59,230.00,11.00,0.00,30.17,M,10.00,19.00,FEW,M,M,M,12000.00,M,M,M,M,M,M,M,M,M,M,83.07,KRTS 190135Z AUTO 23011G19KT 10SM FEW120 30/07 A3017 RMK AO2,M
05U,2022-07-19 01:35,-116.0051,39.6042,1811.23,80.60,42.80,26.22,0.00,0.00,0.00,30.22,M,10.00,M,BKN,M,M,M,11000.00,M,M,M,M,M,M,M,M,M,M,79.30,K05U 190135Z AUTO 00000KT 10SM BKN110 27/06 A3022 RMK A01,M
MEV,2022-07-19 01:35,-119.7500,38.9963,1441.42,86.00,42.80,22.02,260.00,15.00,0.00,30.12,M,10.00,20.00,CLR,M,M,M,M,M,M,M,M,M,M,M,M,M,M,82.95,KMEV 190135Z AUTO 26015G20KT 10SM CLR 30/06 A3012 RMK AO2,M
BAM,2022-07-19 01:35,-116.8743,40.5990,1382.36,M,M,M,160.00,17.00,0.00,30.06,M,10.00,22.00,OVC,M,M,M,11000.00,M,M,M,M,M,M,M,M,M,M,M,KBAM 190135Z AUTO 16017G22KT 10SM OVC110 A3006 RMK AO1,M
HTH,2022-07-19 01:35,-118.6315,38.5448,1282.89,87.80,46.40,23.85,350.00,10.00,0.00,30.08,M,10.00,17.00,CLR,M,M,M,M,M,M,M,M,M,M,M,M,M,M,84.68,KHTH 190135Z AUTO 35010G17KT 10SM CLR 31/08 A3008 RMK A01,M
TMT,2022-07-19 01:35,-117.1971,39.4643,1749.34,82.80,46.00,27.47,320.00,14.00,0.00,30.18,M,10.00,23.00,BKN,M,M,M,11000.00,M,M,M,M,M,M,M,M,M,M,80.86,KTMT 190135Z AUTO 32014G23KT 10SM BKN110 28/08 A3018 RMK AO2 T02820077,M
INS,2022-07-19 01:35,-115.6733,36.5872,955.00,91.40,51.80,26.05,320.00,12.00,0.00,29.95,1008.70,10.00,M,FEW,FEW,SCT,SCT,5500.00,7500.00,10000.00,12000.00,VCTS,M,M,M,M,M,M,88.69,KINS 190135Z 32012KT 10SM VCTS FEW055 FEW075 SCT100 SCT120 BKN140 BKN190 33/11 A2995 RMK AO2A TSB05E35 SLP087 $,M
LOL,2022-07-19 01:42,-118.5701,40.0684,1192.43,81.00,56.00,42.19,170.00,28.00,0.00,30.06,M,0.50,35.00,VV ,M,M,M,800.00,M,M,M,HZ,M,M,M,35.00,180.00,2022-07-19 01:42,80.87,KLOL 190142Z AUTO 17028G35KT 1/2SM HZ VV008 27/13 A3006 RMK AO2 PK WND 18035/0142 LTG DSNT SW T02720133,M
ELY,2022-07-19 01:43,-114.8453,39.2950,1909.00,78.80,44.60,29.79,160.00,11.00,0.00,30.24,M,10.00,20.00,OVC,M,M,M,10000.00,M,M,M,M,M,M,M,M,M,M,78.80,KELY 190143Z AUTO 16011G20KT 10SM OVC100 26/07 A3024,M
05U,2022-07-19 01:50,-116.0051,39.6042,1811.23,78.80,46.40,31.90,0.00,0.00,0.00,30.21,M,10.00,M,SCT,M,M,M,12000.00,M,M,M,M,M,M,M,M,M,M,78.80,K05U 190150Z AUTO 00000KT 10SM SCT120 26/08 A3021 RMK A01,M
LOL,2022-07-19 01:53,-118.5701,40.0684,1192.43,73.00,62.00,68.66,180.00,23.00,0.02,30.08,1015.10,0.50,34.00,VV ,M,M,M,1300.00,M,M,M,RA,M,M,M,35.00,170.00,2022-07-19 01:44,73.00,KLOL 190153Z AUTO 18023G34KT 1/2SM RA VV013 23/17 A3008 RMK AO2 PK WND 17035/0144 LTG DSNT SW RAB46 PRESRR SLP151 P0002 T02280167,M
DRA,2022-07-19 01:53,-116.0278,36.6206,1009.00,96.00,50.00,21.07,130.00,15.00,0.00,29.96,1008.50,10.00,27.00,FEW,M,M,M,12000.00,M,M,M,M,M,M,M,27.00,80.00,2022-07-19 01:53,93.00,KDRA 190153Z AUTO 13015G27KT 080V180 10SM FEW120 36/10 A2996 RMK AO2 PK WND 08027/0153 SLP085 T03560100,M
VGT,2022-07-19 01:53,-115.1933,36.2111,667.00,101.00,57.00,23.53,180.00,12.00,0.00,29.88,1010.20,10.00,M,CLR,M,M,M,M,M,M,M,M,M,M,M,M,M,M,100.24,KVGT 190153Z 18012KT 10SM CLR 38/14 A2988 RMK AO2 LTG DSNT S AND W SLP102 T03830139,M
P68,2022-07-19 01:53,-116.0056,39.6014,1993.00,79.00,46.00,31.21,120.00,3.00,0.00,30.18,1013.50,M,M,M,M,M,M,M,M,M,M,M,M,M,M,M,M,M,79.00,KP68 190153Z AUTO 12003KT 26/08 A3018 RMK AO1 SLP135 T02610078,M
ELY,2022-07-19 01:53,-114.8453,39.2950,1909.00,78.00,49.00,35.86,130.00,15.00,T,30.24,1013.60,10.00,23.00,OVC,M,M,M,10000.00,M,M,M,M,M,M,M,31.00,210.00,2022-07-19 01:28,78.10,KELY 190153Z AUTO 13015G23KT 10SM OVC100 26/09 A3024 RMK AO2 PK WND 21031/0128 WSHFT 0123 RAB30E41 SLP136 P0000 T02560094,M
HTH,2022-07-19 01:55,-118.6315,38.5448,1282.89,87.80,46.40,23.85,360.00,15.00,0.00,30.08,M,10.00,M,CLR,M,M,M,M,M,M,M,M,M,M,M,M,M,M,84.68,KHTH 190155Z AUTO 36015KT 10SM CLR 31/08 A3008 RMK A01,M
TMT,2022-07-19 01:55,-117.1971,39.4643,1749.34,80.40,47.00,31.08,340.00,15.00,0.00,30.19,M,10.00,20.00,SCT,M,M,M,11000.00,M,M,M,M,M,M,M,M,M,M,79.51,KTMT 190155Z AUTO 34015G20KT 10SM SCT110 27/08 A3019 RMK AO2 T02690084,M
RTS,2022-07-19 01:55,-119.8764,39.6682,1539.00,86.00,42.80,22.02,260.00,11.00,0.00,30.17,M,10.00,18.00,SCT,M,M,M,12000.00,M,M,M,M,M,M,M,M,M,M,82.95,KRTS 190155Z AUTO 26011G18KT 10SM SCT120 30/06 A3017 RMK AO2,M
RNO,2022-07-19 01:55,-119.7711,39.4839,1341.00,89.00,48.00,24.31,290.00,21.00,0.00,30.09,1012.60,10.00,27.00,FEW,FEW,M,M,9500.00,15000.00,M,M,M,M,M,M,29.00,290.00,2022-07-19 01:44,85.97,KRNO 190155Z 29021G27KT 10SM FEW095 FEW150 32/09 A3009 RMK AO2 PK WND 29029/0144 SLP126 ACSL N THRU NE T03170089,M
CXP,2022-07-19 01:55,-119.7326,39.1923,1431.00,86.00,42.80,22.02,240.00,9.00,0.00,30.14,M,10.00,20.00,CLR,M,M,M,M,M,M,M,M,M,M,M,M,M,M,82.95,KCXP 190155Z AUTO 24009G20KT 10SM CLR 30/06 A3014 RMK AO2,M
BVU,2022-07-19 01:55,-114.8611,35.9475,671.00,M,M,M,M,M,0.00,M,M,M,M,M,M,M,M,M,M,M,M,M,M,M,M,M,M,M,M,KBVU 190155Z AUTO RMK AO2 PNO PWINO TSNO,M
BAM,2022-07-19 01:55,-116.8743,40.5990,1382.36,M,M,M,170.00,16.00,0.00,30.08,M,10.00,21.00,OVC,M,M,M,12000.00,M,M,M,M,M,M,M,M,M,M,M,KBAM 190155Z AUTO 17016G21KT 10SM OVC120 A3008 RMK AO1,M
MEV,2022-07-19 01:55,-119.7500,38.9963,1441.42,86.00,42.80,22.02,260.00,14.00,0.00,30.13,M,10.00,M,CLR,M,M,M,M,M,M,M,M,M,M,M,M,M,M,82.95,KMEV 190155Z AUTO 26014KT 10SM CLR 30/06 A3013 RMK AO2,M
LAS,2022-07-19 01:56,-115.1634,36.0719,663.00,95.00,58.00,29.09,170.00,7.00,0.00,29.89,1009.10,10.00,15.00,SCT,SCT,BKN,M,12000.00,16000.00,20000.00,M,TS,M,M,M,M,M,M,94.08,KLAS 190156Z 17007G15KT 10SM TS SCT120CB SCT160 BKN200 35/14 A2989 RMK AO2 LTG DSNT S-NW SLP091 OCNL LTGIC OHD-N TS OHD-N MOV N CB DSNT NE-SE AND NW CBMAM OHD-N T03500144,M
WMC,2022-07-19 01:56,-117.8072,40.9019,1315.00,88.00,46.00,23.34,70.00,8.00,T,30.04,1011.30,9.00,M,SCT,M,M,M,11000.00,M,M,M,M,M,M,M,43.00,230.00,2022-07-19 01:06,84.81,KWMC 190156Z AUTO 07008KT 9SM SCT110 31/08 A3004 RMK AO2 PK WND 23043/0106 WSHFT 0118 RAB24E39 SLP113 P0000 T03110078 TSNO,M
NFL,2022-07-19 01:56,-118.7010,39.4166,1199.00,80.00,55.00,42.05,80.00,9.00,0.01,30.07,1015.10,10.00,M,BKN,OVC,M,M,8000.00,10000.00,M,M,M,M,M,M,M,M,M,80.17,KNFL 190156Z 08009KT 10SM BKN080 OVC100 27/13 A3007 RMK AO2 RAE36 SLP151 CB DSNT SW-W SH VC ALQDS WR// P0001 T02670128,M
HND,2022-07-19 01:56,-115.1344,35.9729,742.79,92.00,58.00,32.03,130.00,13.00,0.00,29.94,M,10.00,24.00,CLR,M,M,M,M,M,M,M,VCTS,M,M,M,M,M,M,90.80,KHND 190156Z 13013G24KT 10SM VCTS CLR 33/14 A2994 RMK AO2 LTG DSNT W AND NW RAE01 SLPNO T03330144 PNO $,M
TPH,2022-07-19 01:56,-117.0904,38.0505,1654.00,82.00,51.00,34.25,320.00,11.00,T,30.16,1012.70,10.00,18.00,FEW,SCT,BKN,M,3300.00,8500.00,11000.00,M,M,M,M,M,M,M,M,80.85,KTPH 190156Z AUTO 32011G18KT 10SM FEW033 SCT085 BKN110 28/11 A3016 RMK AO2 LTG DSNT S RAB0058E08B28E44 SLP127 P0000 T02780106,M
EKO,2022-07-19 01:56,-115.7860,40.8242,1367.00,84.00,44.00,24.68,M,6.00,0.00,30.12,1013.10,10.00,M,CLR,M,M,M,M,M,M,M,M,M,M,M,31.00,290.00,2022-07-19 01:20,81.55,KEKO 190156Z AUTO VRB06KT 10SM CLR 29/07 A3012 RMK AO2 PK WND 29031/0120 WSHFT 0043 SLP131 T02890067,M
LOL,2022-07-19 01:57,-118.5701,40.0684,1192.43,72.00,62.00,71.02,180.00,24.00,0.04,30.09,M,1.00,M,BKN,OVC,M,M,1700.00,7000.00,M,M,+RA,M,M,M,28.00,180.00,2022-07-19 01:57,72.00,KLOL 190157Z AUTO 18024KT 1SM +RA BKN017 OVC070 22/17 A3009 RMK AO2 PK WND 18028/0157 PRESRR P0004 T02220167,M
LSV,2022-07-19 01:58,-115.0343,36.2362,570.00,101.30,54.00,20.85,180.00,11.00,0.00,29.84,1007.60,10.00,M,SCT,BKN,M,M,14000.00,18000.00,M,M,M,M,M,M,M,M,M,99.54,KLSV 190158Z 18011KT 10SM SCT140 BKN180 39/12 A2984 RMK AO2A SLP076 T03850122 $,M
DRA,2022-07-19 01:58,-116.0278,36.6206,1009.00,95.00,51.00,22.70,80.00,13.00,0.00,29.96,M,10.00,27.00,SCT,M,M,M,11000.00,M,M,M,M,M,M,M,M,M,M,92.11,KDRA 190158Z AUTO 08013G27KT 060V120 10SM SCT110 35/11 A2996 RMK AO2 WSHFT 0141 T03500106,M
INS,2022-07-19 01:58,-115.6733,36.5872,955.00,88.70,53.20,29.86,310.00,23.00,0.00,29.97,1009.60,10.00,26.00,FEW,SCT,BKN,M,12000.00,17000.00,20000.00,M,VCTS,M,M,M,29.00,300.00,2022-07-19 01:41,86.44,KINS 190158Z AUTO 31023G26KT 10SM VCTS FEW120 SCT170 BKN200 32/12 A2997 RMK AO2 PK WND 30029/41 TSB05E35 SLP096 T03150118 $,M
INS,2022-07-19 01:59,-115.6733,36.5872,955.00,87.80,53.60,31.17,300.00,23.00,0.00,29.96,1009.20,10.00,M,FEW,SCT,BKN,M,12000.00,17000.00,20000.00,M,TS,M,M,M,M,M,M,85.72,KINS 190159Z AUTO 30023KT 10SM TS FEW120 SCT170 BKN200 31/12 A2996 RMK AO2 TSB59 SLP092 $,M
LOL,2022-07-19 02:05,-118.5701,40.0684,1192.43,72.00,65.00,78.35,180.00,17.00,0.04,30.11,M,3.00,28.00,BKN,BKN,OVC,M,2100.00,7500.00,11000.00,M,-RA,M,M,M,28.00,180.00,2022-07-19 01:57,72.00,KLOL 190205Z AUTO 18017G28KT 3SM -RA BKN021 BKN075 OVC110 22/18 A3011 RMK AO2 PK WND 18028/0157 PRESRR P0004 T02220183,M
ELY,2022-07-19 02:09,-114.8453,39.2950,1909.00,75.00,54.00,47.99,110.00,12.00,0.00,30.24,M,10.00,M,FEW,BKN,M,M,7000.00,10000.00,M,M,M,M,M,M,M,M,M,75.00,KELY 190209Z AUTO 11012KT 10SM FEW070 BKN100 24/12 A3024 RMK AO2 WSHFT 0149 T02390122,M
INS,2022-07-19 02:13,-115.6733,36.5872,955.00,87.80,51.80,29.18,290.00,24.00,0.00,29.97,1009.60,9.00,36.00,BKN,BKN,OVC,M,11000.00,16000.00,20000.00,M,VCTS,M,M,M,M,M,M,85.39,KINS 190213Z AUTO 29024G36KT 9SM VCTS BKN110 BKN160 OVC200 31/11 A2997 RMK AO2 TSB0159E13 SLP096 $,M
TMT,2022-07-19 02:15,-117.1971,39.4643,1749.34,M,M,M,310.00,11.00,0.00,30.21,M,10.00,15.00,SCT,BKN,M,M,7000.00,10000.00,M,M,M,M,M,M,M,M,M,M,KTMT 190215Z AUTO 31011G15KT 10SM SCT070 BKN100 A3021 RMK AO2,M
HTH,2022-07-19 02:15,-118.6315,38.5448,1282.89,87.80,46.40,23.85,340.00,12.00,0.00,30.09,M,10.00,M,CLR,M,M,M,M,M,M,M,M,M,M,M,M,M,M,84.68,KHTH 190215Z AUTO 34012KT 10SM CLR 31/08 A3009 RMK A01,M
BVU,2022-07-19 02:15,-114.8611,35.9475,671.00,M,M,M,M,M,0.00,M,M,M,M,M,M,M,M,M,M,M,M,M,M,M,M,M,M,M,M,KBVU 190215Z AUTO RMK AO2 PNO PWINO TSNO,M
CXP,2022-07-19 02:15,-119.7326,39.1923,1431.00,86.00,44.60,23.59,260.00,8.00,0.00,30.15,M,10.00,M,CLR,M,M,M,M,M,M,M,M,M,M,M,M,M,M,83.07,KCXP 190215Z AUTO 26008KT 230V290 10SM CLR 30/07 A3015 RMK AO2,M
LOL,2022-07-19 02:15,-118.5701,40.0684,1192.43,75.00,65.00,70.83,180.00,23.00,0.04,30.12,M,10.00,M,FEW,SCT,OVC,M,3100.00,7000.00,10000.00,M,-RA,M,M,M,28.00,180.00,2022-07-19 01:57,75.00,KLOL 190215Z AUTO 18023KT 10SM -RA FEW031 SCT070 OVC100 24/18 A3012 RMK AO2 PK WND 18028/0157 P0004 T02390183,M
RTS,2022-07-19 02:15,-119.8764,39.6682,1539.00,84.20,42.80,23.33,250.00,12.00,0.00,30.18,M,10.00,21.00,SCT,M,M,M,12000.00,M,M,M,M,M,M,M,M,M,M,81.61,KRTS 190215Z AUTO 25012G21KT 10SM SCT120 29/06 A3018 RMK AO2,M
05U,2022-07-19 02:15,-116.0051,39.6042,1811.23,80.60,46.40,30.07,110.00,3.00,0.00,30.21,M,10.00,M,SCT,M,M,M,12000.00,M,M,M,M,M,M,M,M,M,M,79.56,K05U 190215Z AUTO 11003KT 10SM SCT120 27/08 A3021 RMK A01,M
MEV,2022-07-19 02:15,-119.7500,38.9963,1441.42,84.20,42.80,23.33,270.00,13.00,0.00,30.14,M,10.00,19.00,CLR,M,M,M,M,M,M,M,M,M,M,M,M,M,M,81.61,KMEV 190215Z AUTO 27013G19KT 10SM CLR 29/06 A3014 RMK AO2,M
BAM,2022-07-19 02:15,-116.8743,40.5990,1382.36,M,M,M,160.00,13.00,0.00,30.08,M,10.00,19.00,SCT,M,M,M,12000.00,M,M,M,M,M,M,M,M,M,M,M,KBAM 190215Z AUTO 16013G19KT 10SM SCT120 A3008 RMK AO1,M
INS,2022-07-19 02:18,-115.6733,36.5872,955.00,87.80,51.80,29.18,290.00,20.00,0.00,29.97,1009.60,10.00,27.00,BKN,BKN,BKN,OVC,12000.00,14000.00,16000.00,20000.00,TS,M,M,M,M,M,M,85.39,KINS 190218Z AUTO 29020G27KT 10SM TS BKN120 BKN140 BKN160 OVC200 31/11 A2997 RMK AO2 TSB0159E13TSB18 SLP096 $,M
INS,2022-07-19 02:25,-115.6733,36.5872,955.00,87.80,50.00,27.29,250.00,18.00,0.00,29.98,1009.90,10.00,25.00,BKN,OVC,M,M,11000.00,14000.00,M,M,TS,M,M,M,M,M,M,85.11,KINS 190225Z AUTO 25018G25KT 10SM TS BKN110 OVC140 31/10 A2998 RMK AO2 WSHFT 10 TSB0159E13TSB18 SLP099 $,M
HND,2022-07-19 02:32,-115.1344,35.9729,742.79,93.20,55.40,28.10,150.00,9.00,0.00,29.94,M,10.00,M,CLR,M,M,M,M,M,M,M,M,M,M,M,M,M,M,91.35,KHND 190232Z 15009KT 10SM CLR 34/13 A2994 RMK AO2 TSE26 PNO $,M
LOL,2022-07-19 02:34,-118.5701,40.0684,1192.43,75.00,66.00,73.59,150.00,12.00,0.04,30.12,M,2.50,M,FEW,OVC,M,M,7000.00,11000.00,M,M,-RA,M,M,M,28.00,180.00,2022-07-19 01:57,75.00,KLOL 190234Z AUTO 15012KT 2 1/2SM -RA FEW070 OVC110 24/19 A3012 RMK AO2 PK WND 18028/0157 P0004 T02390189,M
HTH,2022-07-19 02:35,-118.6315,38.5448,1282.89,86.00,46.40,25.26,350.00,13.00,0.00,30.09,M,10.00,M,CLR,M,M,M,M,M,M,M,M,M,M,M,M,M,M,83.22,KHTH 190235Z AUTO 35013KT 10SM CLR 30/08 A3009 RMK A01,M
BVU,2022-07-19 02:35,-114.8611,35.9475,671.00,M,M,M,M,M,0.00,M,M,M,M,M,M,M,M,M,M,M,M,M,M,M,M,M,M,M,M,KBVU 190235Z AUTO RMK AO2 PNO PWINO TSNO,M
CXP,2022-07-19 02:35,-119.7326,39.1923,1431.00,84.20,42.80,23.33,M,4.00,0.00,30.15,M,10.00,11.00,FEW,M,M,M,1500.00,M,M,M,M,M,M,M,M,M,M,81.61,KCXP 190235Z AUTO VRB04G11KT 10SM FEW015 29/06 A3015 RMK AO2,M
BAM,2022-07-19 02:35,-116.8743,40.5990,1382.36,M,M,M,150.00,11.00,0.00,30.08,M,10.00,M,CLR,M,M,M,M,M,M,M,M,M,M,M,M,M,M,M,KBAM 190235Z AUTO 15011KT 10SM CLR A3008 RMK AO1,M
RTS,2022-07-19 02:35,-119.8764,39.6682,1539.00,84.20,42.80,23.33,240.00,10.00,0.00,30.18,M,10.00,15.00,FEW,BKN,M,M,10000.00,12000.00,M,M,M,M,M,M,M,M,M,81.61,KRTS 190235Z AUTO 24010G15KT 10SM FEW100 BKN120 29/06 A3018 RMK AO2,M
TMT,2022-07-19 02:35,-117.1971,39.4643,1749.34,M,M,M,150.00,6.00,0.00,30.24,M,10.00,M,SCT,SCT,OVC,M,7000.00,8000.00,10000.00,M,-RA,M,M,M,M,M,M,M,KTMT 190235Z AUTO 15006KT 10SM -RA SCT070 SCT080 OVC100 A3024 RMK AO2,M
05U,2022-07-19 02:35,-116.0051,39.6042,1811.23,80.60,44.60,28.08,0.00,0.00,0.00,30.20,M,10.00,M,BKN,M,M,M,12000.00,M,M,M,M,M,M,M,M,M,M,79.42,K05U 190235Z AUTO 00000KT 10SM BKN120 27/07 A3020 RMK A01,M
MEV,2022-07-19 02:35,-119.7500,38.9963,1441.42,82.40,42.80,24.72,270.00,10.00,0.00,30.14,M,10.00,M,CLR,M,M,M,M,M,M,M,M,M,M,M,M,M,M,80.39,KMEV 190235Z AUTO 27010KT 10SM CLR 28/06 A3014 RMK AO2,M
LAS,2022-07-19 02:39,-115.1634,36.0719,663.00,96.00,56.00,26.16,200.00,7.00,0.00,29.89,M,10.00,M,SCT,SCT,BKN,M,12000.00,16000.00,20000.00,M,M,M,M,M,M,M,M,94.55,KLAS 190239Z 20007KT 10SM SCT120CB SCT160 BKN200 36/13 A2989 RMK AO2 LTG DSNT W TSE39 TS DSIPTD CB DSNT ALQDS T03560133,M
LOL,2022-07-19 02:41,-118.5701,40.0684,1192.43,75.00,66.00,73.59,160.00,10.00,0.04,30.12,M,5.00,M,OVC,M,M,M,11000.00,M,M,M,-RA,M,M,M,28.00,180.00,2022-07-19 01:57,75.00,KLOL 190241Z AUTO 16010KT 5SM -RA OVC110 24/19 A3012 RMK AO2 PK WND 18028/0157 P0004 T02390189,M
INS,2022-07-19 02:45,-115.6733,36.5872,955.00,86.00,51.80,30.90,260.00,36.00,0.00,29.99,1010.20,4.00,46.00,OVC,M,M,M,10000.00,M,M,M,TS,M,M,M,M,M,M,83.87,KINS 190245Z AUTO 26036G46KT 4SM TS OVC100 30/11 A2999 RMK AO2 TSB0159E13TSB18 SLP102 $,M
INS,2022-07-19 02:47,-115.6733,36.5872,955.00,86.00,51.80,30.90,280.00,21.00,0.00,30.00,1010.60,2.25,46.00,OVC,M,M,M,10000.00,M,M,M,TS,M,M,M,M,M,M,83.87,KINS 190247Z AUTO 28021G46KT 2 1/4SM TS OVC100 30/11 A3000 RMK AO2 WSHFT 39 VIS 2 1/4V10 TSB0159E13TSB18 SLP106 $,M
INS,2022-07-19 02:49,-115.6733,36.5872,955.00,86.00,50.00,28.90,290.00,15.00,0.00,30.00,1010.60,1.50,46.00,OVC,M,M,M,10000.00,M,M,M,-TSRA,M,M,M,M,M,M,83.62,KINS 190249Z AUTO 29015G46KT 1 1/2SM -TSRA OVC100 30/10 A3000 RMK AO2 VIS 1 1/2V8 RAB49 TSB0159E13TSB18 SLP106 $,M
VGT,2022-07-19 02:53,-115.1933,36.2111,667.00,99.00,56.00,23.95,220.00,12.00,0.00,29.88,1010.40,10.00,M,CLR,M,M,M,M,M,M,M,M,M,M,M,M,M,M,97.71,KVGT 190253Z 22012KT 10SM CLR 37/13 A2988 RMK AO2 LTG DSNT W SLP104 T03720133 53003,M
DRA,2022-07-19 02:53,-116.0278,36.6206,1009.00,92.00,49.00,23.03,100.00,18.00,0.00,30.01,1010.30,10.00,28.00,BKN,M,M,M,10000.00,M,M,M,M,M,M,M,29.00,210.00,2022-07-19 02:10,88.66,KDRA 190253Z AUTO 10018G28KT 10SM BKN100 33/09 A3001 RMK AO2 PK WND 21029/0210 WSHFT 0238 SLP103 T03330094 53016,M
P68,2022-07-19 02:53,-116.0056,39.6014,1993.00,80.00,44.00,28.01,180.00,5.00,0.00,30.18,1012.60,M,M,M,M,M,M,M,M,M,M,M,M,M,M,M,M,M,79.12,KP68 190253Z AUTO 18005KT 27/07 A3018 RMK AO1 SLP126 T02670067 50000,M
ELY,2022-07-19 02:53,-114.8453,39.2950,1909.00,75.00,51.00,43.14,M,M,0.00,30.24,1013.00,10.00,M,BKN,M,M,M,10000.00,M,M,M,M,M,M,M,M,M,M,75.00,KELY 190253Z AUTO 10SM BKN100 24/11 A3024 RMK AO2 WSHFT 0149 SLP130 60000 T02390106 51015,M
LOL,2022-07-19 02:53,-118.5701,40.0684,1192.43,75.00,63.00,66.27,140.00,11.00,0.04,30.13,1015.80,9.00,M,OVC,M,M,M,11000.00,M,M,M,M,M,M,M,28.00,180.00,2022-07-19 01:57,75.00,KLOL 190253Z AUTO 14011KT 9SM OVC110 24/17 A3013 RMK AO2 PK WND 18028/0157 RAE49 SLP158 P0004 60006 T02390172 53032,M
INS,2022-07-19 02:54,-115.6733,36.5872,955.00,87.80,55.40,33.29,290.00,20.00,0.00,30.01,1010.90,5.00,42.00,OVC,M,M,M,10000.00,M,M,M,-TSRA,M,M,M,M,M,M,86.11,KINS 190254Z AUTO 29020G42KT 5SM -TSRA OVC100 31/13 A3001 RMK AO2 RAB49 TSB0159E13TSB18 SLP109 $,M
RTS,2022-07-19 02:55,-119.8764,39.6682,1539.00,82.40,42.80,24.72,260.00,9.00,0.00,30.19,M,10.00,17.00,FEW,M,M,M,12000.00,M,M,M,M,M,M,M,M,M,M,80.39,KRTS 190255Z AUTO 26009G17KT 10SM FEW120 28/06 A3019 RMK AO2,M
BAM,2022-07-19 02:55,-116.8743,40.5990,1382.36,M,M,M,170.00,6.00,0.00,30.09,M,10.00,M,CLR,M,M,M,M,M,M,M,M,M,M,M,M,M,M,M,KBAM 190255Z AUTO 17006KT 10SM CLR A3009 RMK AO1,M
TMT,2022-07-19 02:55,-117.1971,39.4643,1749.34,M,M,M,0.00,0.00,0.00,30.24,M,10.00,M,SCT,BKN,M,M,8500.00,10000.00,M,M,M,M,M,M,M,M,M,M,KTMT 190255Z AUTO 00000KT 10SM SCT085 BKN100 A3024 RMK AO2,M
CXP,2022-07-19 02:55,-119.7326,39.1923,1431.00,84.20,42.80,23.33,280.00,6.00,0.00,30.16,M,10.00,13.00,CLR,M,M,M,M,M,M,M,M,M,M,M,M,M,M,81.61,KCXP 190255Z AUTO 28006G13KT 10SM CLR 29/06 A3016 RMK AO2,M
BVU,2022-07-19 02:55,-114.8611,35.9475,671.00,M,M,M,M,M,0.00,M,M,M,M,M,M,M,M,M,M,M,M,M,M,M,M,M,M,M,M,KBVU 190255Z AUTO RMK AO2 PNO PWINO TSNO,M
MEV,2022-07-19 02:55,-119.7500,38.9963,1441.42,82.40,42.80,24.72,280.00,10.00,0.00,30.15,M,10.00,M,CLR,M,M,M,M,M,M,M,M,M,M,M,M,M,M,80.39,KMEV 190255Z AUTO 28010KT 10SM CLR 28/06 A3015 RMK AO2,M
05U,2022-07-19 02:55,-116.0051,39.6042,1811.23,78.80,44.60,29.79,0.00,0.00,0.00,30.21,M,10.00,M,SCT,M,M,M,12000.00,M,M,M,M,M,M,M,M,M,M,78.80,K05U 190255Z AUTO 00000KT 10SM SCT120 26/07 A3021 RMK A01,M
HTH,2022-07-19 02:55,-118.6315,38.5448,1282.89,86.00,46.40,25.26,330.00,10.00,0.00,30.10,M,10.00,16.00,CLR,M,M,M,M,M,M,M,M,M,M,M,M,M,M,83.22,KHTH 190255Z AUTO 33010G16KT 10SM CLR 30/08 A3010 RMK A01,M
RNO,2022-07-19 02:55,-119.7711,39.4839,1341.00,86.00,46.00,24.88,280.00,22.00,0.00,30.10,1012.90,10.00,27.00,FEW,FEW,M,M,9000.00,13000.00,M,M,M,M,M,M,28.00,280.00,2022-07-19 02:05,83.19,KRNO 190255Z 28022G27KT 10SM FEW090 FEW130 30/08 A3010 RMK AO2 PK WND 28028/0205 SLP129 T03000078 53011,M
NFL,2022-07-19 02:56,-118.7010,39.4166,1199.00,77.00,58.00,51.72,70.00,12.00,0.00,30.08,1015.30,10.00,M,BKN,OVC,M,M,8000.00,10000.00,M,M,M,M,M,M,M,M,M,77.00,KNFL 190256Z 07012KT 10SM BKN080 OVC100 25/14 A3008 RMK AO2 SLP153 SH VC N-NE 60001 T02500144 51003,M
EKO,2022-07-19 02:56,-115.7860,40.8242,1367.00,82.00,45.00,27.24,130.00,8.00,0.00,30.11,1012.60,10.00,M,CLR,M,M,M,M,M,M,M,M,M,M,M,M,M,M,80.28,KEKO 190256Z AUTO 13008KT 10SM CLR 28/07 A3011 RMK AO2 SLP126 T02780072 50009,M
WMC,2022-07-19 02:56,-117.8072,40.9019,1315.00,85.00,46.00,25.77,160.00,5.00,0.00,30.04,1010.90,9.00,M,SCT,M,M,M,6500.00,M,M,M,M,M,M,M,M,M,M,82.35,KWMC 190256Z AUTO 16005KT 9SM SCT065 29/08 A3004 RMK AO2 SLP109 60000 T02940078 58002 TSNO,M
HND,2022-07-19 02:56,-115.1344,35.9729,742.79,91.00,59.00,34.27,170.00,9.00,0.00,29.93,M,10.00,M,CLR,M,M,M,M,M,M,M,M,M,M,M,M,M,M,90.27,KHND 190256Z 17009KT 10SM CLR 33/15 A2993 RMK AO2 TSE26 SLPNO 6//// T03280150 50000 PNO $,M
TPH,2022-07-19 02:56,-117.0904,38.0505,1654.00,79.00,48.00,33.66,300.00,15.00,T,30.18,1013.20,10.00,23.00,BKN,M,M,M,11000.00,M,M,M,VCTS,M,M,M,M,M,M,79.00,KTPH 190256Z AUTO 30015G23KT 10SM VCTS BKN110 26/09 A3018 RMK AO2 LTG DSNT W RAB34E48 SLP132 P0000 60001 T02610089 53012,M
LAS,2022-07-19 02:56,-115.1634,36.0719,663.00,95.00,58.00,29.09,210.00,5.00,0.00,29.89,1009.10,10.00,M,FEW,SCT,BKN,M,12000.00,16000.00,20000.00,M,M,M,M,M,M,M,M,94.08,KLAS 190256Z 21005KT 10SM FEW120 SCT160 BKN200 35/14 A2989 RMK AO2 TSE39 SLP091 TS DSIPTD CB DSNT E AND W-N T03500144 52003,M
DRA,2022-07-19 02:57,-116.0278,36.6206,1009.00,91.00,50.00,24.68,110.00,18.00,0.00,30.01,M,10.00,28.00,SCT,M,M,M,10000.00,M,M,M,M,M,M,M,28.00,90.00,2022-07-19 02:56,87.99,KDRA 190257Z AUTO 11018G28KT 10SM SCT100 33/10 A3001 RMK AO2 PK WND 09028/0256 WSHFT 0240 T03280100,M
INS,2022-07-19 02:58,-115.6733,36.5872,955.00,86.50,57.20,37.03,300.00,17.00,T,30.02,1011.30,8.00,22.00,BKN,OVC,M,M,10000.00,12000.00,M,M,-TSRA,M,M,M,46.00,250.00,2022-07-19 02:42,85.41,KINS 190258Z AUTO 30017G22KT 8SM -TSRA BKN100 OVC120 30/14 A3002 RMK AO2 PK WND 25046/42 RAB49 TSB0159E13TSB18 SLP113 P0000 60000 T03030140 53024 $,M
LSV,2022-07-19 02:58,-115.0343,36.2362,570.00,99.00,56.00,23.88,210.00,8.00,0.00,29.85,1007.90,10.00,M,SCT,SCT,M,M,15000.00,20000.00,M,M,M,M,M,M,M,M,M,97.82,KLSV 190258Z 21008KT 10SM SCT150 SCT200 37/13 A2985 RMK AO2A SLP079 T03730133 53004 $,M
INS,2022-07-19 03:03,-115.6733,36.5872,955.00,84.20,60.80,45.34,300.00,16.00,0.00,30.03,1011.60,10.00,M,BKN,OVC,M,M,9500.00,11000.00,M,M,-TSRA,M,M,M,M,M,M,84.43,KINS 190303Z AUTO 30016KT 10SM -TSRA BKN095 OVC110 29/16 A3003 RMK AO2 SLP116 $,M
TPH,2022-07-19 03:11,-117.0904,38.0505,1654.00,80.00,47.00,31.15,300.00,14.00,0.00,30.18,M,10.00,20.00,BKN,M,M,M,10000.00,M,M,M,M,M,M,M,M,M,M,79.33,KTPH 190311Z AUTO 30014G20KT 10SM BKN100 27/08 A3018 RMK AO2 LTG DSNT SW AND W T02670083,M
MEV,2022-07-19 03:15,-119.7500,38.9963,1441.42,78.80,44.60,29.79,300.00,6.00,0.00,30.15,M,10.00,M,CLR,M,M,M,M,M,M,M,M,M,M,M,M,M,M,78.80,KMEV 190315Z AUTO 30006KT 10SM CLR 26/07 A3015 RMK AO2,M
BAM,2022-07-19 03:15,-116.8743,40.5990,1382.36,M,M,M,190.00,6.00,0.00,30.10,M,10.00,M,SCT,M,M,M,12000.00,M,M,M,M,M,M,M,M,M,M,M,KBAM 190315Z AUTO 19006KT 10SM SCT120 A3010 RMK AO1,M
HTH,2022-07-19 03:15,-118.6315,38.5448,1282.89,84.20,53.60,34.97,310.00,12.00,0.00,30.10,M,10.00,M,CLR,M,M,M,M,M,M,M,M,M,M,M,M,M,M,82.76,KHTH 190315Z AUTO 31012KT 10SM CLR 29/12 A3010 RMK A01,M
TMT,2022-07-19 03:15,-117.1971,39.4643,1749.34,M,M,M,240.00,3.00,0.00,30.24,M,10.00,M,SCT,M,M,M,11000.00,M,M,M,M,M,M,M,M,M,M,M,KTMT 190315Z AUTO 24003KT 10SM SCT110 A3024 RMK AO2 LTG DSNT S,M
BVU,2022-07-19 03:15,-114.8611,35.9475,671.00,M,M,M,M,M,0.00,M,M,M,M,M,M,M,M,M,M,M,M,M,M,M,M,M,M,M,M,KBVU 190315Z AUTO RMK AO2 PNO PWINO TSNO,M
CXP,2022-07-19 03:15,-119.7326,39.1923,1431.00,82.40,42.80,24.72,300.00,7.00,0.00,30.16,M,10.00,M,CLR,M,M,M,M,M,M,M,M,M,M,M,M,M,M,80.39,KCXP 190315Z AUTO 30007KT 10SM CLR 28/06 A3016 RMK AO2,M
RTS,2022-07-19 03:15,-119.8764,39.6682,1539.00,80.60,42.80,26.22,260.00,7.00,0.00,30.20,M,10.00,12.00,FEW,M,M,M,12000.00,M,M,M,M,M,M,M,M,M,M,79.30,KRTS 190315Z AUTO 26007G12KT 10SM FEW120 27/06 A3020 RMK AO2,M
05U,2022-07-19 03:15,-116.0051,39.6042,1811.23,77.00,50.00,38.74,0.00,0.00,0.00,30.22,M,10.00,M,BKN,M,M,M,11000.00,M,M,M,M,M,M,M,M,M,M,77.00,K05U 190315Z AUTO 00000KT 10SM BKN110 25/10 A3022 RMK A01,M
INS,2022-07-19 03:18,-115.6733,36.5872,955.00,82.40,57.20,42.25,270.00,5.00,0.00,30.03,1011.60,10.00,M,OVC,M,M,M,10000.00,M,M,M,-TSRA,M,M,M,M,M,M,82.08,KINS 190318Z AUTO 27005KT 10SM -TSRA OVC100 28/14 A3003 RMK AO2 SLP116 $,M
INS,2022-07-19 03:26,-115.6733,36.5872,955.00,82.40,59.00,45.07,0.00,0.00,0.00,30.03,1011.60,10.00,M,BKN,OVC,M,M,10000.00,11000.00,M,M,VCTS -RA,M,M,M,M,M,M,82.46,KINS 190326Z AUTO 00000KT 10SM VCTS -RA BKN100 OVC110 28/15 A3003 RMK AO2 TSE26 SLP116 $,M
INS,2022-07-19 03:31,-115.6733,36.5872,955.00,82.40,57.20,42.25,50.00,3.00,0.00,30.03,1011.60,10.00,M,BKN,OVC,M,M,9500.00,11000.00,M,M,VCTS -RA,M,M,M,M,M,M,82.08,KINS 190331Z AUTO 05003KT 10SM VCTS -RA BKN095 OVC110 28/14 A3003 RMK AO2 TSE26 SLP116 $,M
RTS,2022-07-19 03:35,-119.8764,39.6682,1539.00,78.80,42.80,27.81,250.00,4.00,0.00,30.21,M,10.00,M,FEW,M,M,M,12000.00,M,M,M,M,M,M,M,M,M,M,78.80,KRTS 190335Z AUTO 25004KT 10SM FEW120 26/06 A3021 RMK AO2,M
TMT,2022-07-19 03:35,-117.1971,39.4643,1749.34,M,M,M,260.00,6.00,0.00,30.25,M,10.00,M,BKN,M,M,M,11000.00,M,M,M,M,M,M,M,M,M,M,M,KTMT 190335Z AUTO 26006KT 10SM BKN110 A3025 RMK AO2,M
HTH,2022-07-19 03:35,-118.6315,38.5448,1282.89,84.20,50.00,30.62,320.00,10.00,0.00,30.11,M,10.00,M,CLR,M,M,M,M,M,M,M,M,M,M,M,M,M,M,82.24,KHTH 190335Z AUTO 32010KT 10SM CLR 29/10 A3011 RMK A01,M
BAM,2022-07-19 03:35,-116.8743,40.5990,1382.36,M,M,M,230.00,9.00,0.00,30.10,M,10.00,M,SCT,M,M,M,11000.00,M,M,M,M,M,M,M,M,M,M,M,KBAM 190335Z AUTO 23009KT 10SM SCT110 A3010 RMK AO1,M
MEV,2022-07-19 03:35,-119.7500,38.9963,1441.42,78.80,42.80,27.81,290.00,5.00,0.00,30.15,M,10.00,M,CLR,M,M,M,M,M,M,M,M,M,M,M,M,M,M,78.80,KMEV 190335Z AUTO 29005KT 10SM CLR 26/06 A3015 RMK AO2,M
05U,2022-07-19 03:35,-116.0051,39.6042,1811.23,77.00,44.60,31.62,200.00,3.00,0.00,30.24,M,10.00,M,OVC,M,M,M,11000.00,M,M,M,M,M,M,M,M,M,M,77.00,K05U 190335Z AUTO 20003KT 10SM OVC110 25/07 A3024 RMK A01,M
CXP,2022-07-19 03:35,-119.7326,39.1923,1431.00,82.40,42.80,24.72,0.00,0.00,0.00,30.17,M,10.00,M,CLR,M,M,M,M,M,M,M,M,M,M,M,M,M,M,80.39,KCXP 190335Z AUTO 00000KT 10SM CLR 28/06 A3017 RMK AO2,M
BVU,2022-07-19 03:35,-114.8611,35.9475,671.00,M,M,M,M,M,0.00,M,M,M,M,M,M,M,M,M,M,M,M,M,M,M,M,M,M,M,M,KBVU 190335Z AUTO RMK AO2 PNO PWINO TSNO,M
INS,2022-07-19 03:46,-115.6733,36.5872,955.00,82.40,59.00,45.07,20.00,9.00,0.00,29.99,1010.20,10.00,M,OVC,M,M,M,9500.00,M,M,M,-RA,M,M,M,M,M,M,82.46,KINS 190346Z AUTO 02009KT 10SM -RA OVC095 28/15 A2999 RMK AO2 TSE26 PRESFR SLP102 $,M
INS,2022-07-19 03:51,-115.6733,36.5872,955.00,82.40,57.20,42.25,320.00,12.00,0.00,29.98,1009.90,10.00,M,OVC,M,M,M,7500.00,M,M,M,-RA,M,M,M,M,M,M,82.08,KINS 190351Z AUTO 32012KT 10SM -RA OVC075 28/14 A2998 RMK AO2 WSHFT 47 TSE26 SLP099 $,M
P68,2022-07-19 03:53,-116.0056,39.6014,1993.00,79.00,45.00,30.05,170.00,7.00,0.00,30.22,1013.60,M,M,M,M,M,M,M,M,M,M,M,M,M,M,M,M,M,79.00,KP68 190353Z AUTO 17007KT 26/07 A3022 RMK AO1 SLP136 T02610072,M
DRA,2022-07-19 03:53,-116.0278,36.6206,1009.00,88.00,52.00,29.21,100.00,14.00,0.00,30.01,1010.30,10.00,25.00,CLR,M,M,M,M,M,M,M,M,M,M,M,32.00,110.00,2022-07-19 03:00,85.60,KDRA 190353Z AUTO 10014G25KT 10SM CLR 31/11 A3001 RMK AO2 PK WND 11032/0300 WSHFT 0240 SLP103 T03110111,M
ELY,2022-07-19 03:53,-114.8453,39.2950,1909.00,72.00,54.00,53.09,0.00,0.00,0.00,30.26,1013.10,10.00,M,FEW,M,M,M,12000.00,M,M,M,M,M,M,M,M,M,M,72.00,KELY 190353Z AUTO 00000KT 10SM FEW120 22/12 A3026 RMK AO2 SLP131 T02220122,M
LOL,2022-07-19 03:53,-118.5701,40.0684,1192.43,72.00,60.00,66.16,130.00,18.00,0.01,30.11,1015.00,10.00,M,OVC,M,M,M,11000.00,M,M,M,-RA,M,M,M,M,M,M,72.00,KLOL 190353Z AUTO 13018KT 10SM -RA OVC110 22/16 A3011 RMK AO2 RAB01 SLP150 P0001 T02220156,M
VGT,2022-07-19 03:53,-115.1933,36.2111,667.00,99.00,53.00,21.62,360.00,6.00,0.00,29.91,1011.30,10.00,M,CLR,M,M,M,M,M,M,M,M,M,M,M,M,M,M,96.79,KVGT 190353Z AUTO 36006KT 10SM CLR 37/12 A2991 RMK AO2 SLP113 T03720117,M
CXP,2022-07-19 03:55,-119.7326,39.1923,1431.00,82.40,42.80,24.72,250.00,6.00,0.00,30.17,M,10.00,M,CLR,M,M,M,M,M,M,M,M,M,M,M,M,M,M,80.39,KCXP 190355Z AUTO 25006KT 10SM CLR 28/06 A3017 RMK AO2,M
BAM,2022-07-19 03:55,-116.8743,40.5990,1382.36,M,M,M,240.00,7.00,0.00,30.10,M,10.00,M,SCT,M,M,M,10000.00,M,M,M,M,M,M,M,M,M,M,M,KBAM 190355Z AUTO 24007KT 10SM SCT100 A3010 RMK AO1,M
HTH,2022-07-19 03:55,-118.6315,38.5448,1282.89,84.20,50.00,30.62,310.00,7.00,0.00,30.11,M,10.00,13.00,CLR,M,M,M,M,M,M,M,M,M,M,M,M,M,M,82.24,KHTH 190355Z AUTO 31007G13KT 10SM CLR 29/10 A3011 RMK A01,M
RNO,2022-07-19 03:55,-119.7711,39.4839,1341.00,84.00,46.00,26.52,280.00,16.00,0.00,30.12,1013.40,10.00,M,FEW,SCT,M,M,8500.00,17000.00,M,M,M,M,M,M,26.00,270.00,2022-07-19 02:56,81.69,KRNO 190355Z 28016KT 10SM FEW085 SCT170 29/08 A3012 RMK AO2 PK WND 27026/0256 SLP134 T02890078,M
BVU,2022-07-19 03:55,-114.8611,35.9475,671.00,M,M,M,M,M,0.00,M,M,M,M,M,M,M,M,M,M,M,M,M,M,M,M,M,M,M,M,KBVU 190355Z AUTO RMK AO2 PNO PWINO TSNO,M
RTS,2022-07-19 03:55,-119.8764,39.6682,1539.00,77.00,42.80,29.51,290.00,5.00,0.00,30.21,M,10.00,M,FEW,M,M,M,12000.00,M,M,M,M,M,M,M,M,M,M,77.00,KRTS 190355Z AUTO 29005KT 10SM FEW120 25/06 A3021 RMK AO2,M
05U,2022-07-19 03:55,-116.0051,39.6042,1811.23,78.80,46.40,31.90,210.00,3.00,0.00,30.25,M,10.00,13.00,FEW,SCT,OVC,M,4800.00,6000.00,11000.00,M,M,M,M,M,M,M,M,78.80,K05U 190355Z AUTO 21003G13KT 10SM FEW048 SCT060 OVC110 26/08 A3025 RMK A01,M
MEV,2022-07-19 03:55,-119.7500,38.9963,1441.42,78.80,41.00,25.95,300.00,7.00,0.00,30.16,M,10.00,M,CLR,M,M,M,M,M,M,M,M,M,M,M,M,M,M,78.80,KMEV 190355Z AUTO 30007KT 10SM CLR 26/05 A3016 RMK AO2,M
TMT,2022-07-19 03:55,-117.1971,39.4643,1749.34,M,M,M,10.00,5.00,0.00,30.26,M,10.00,M,SCT,SCT,BKN,M,7000.00,9000.00,11000.00,M,-RA,M,M,M,M,M,M,M,KTMT 190355Z AUTO 01005KT 10SM -RA SCT070 SCT090 BKN110 A3026 RMK AO2 LTG DSNT S,M
HND,2022-07-19 03:56,-115.1344,35.9729,742.79,93.00,57.00,29.96,190.00,7.00,0.00,29.96,M,10.00,M,CLR,M,M,M,M,M,M,M,M,M,M,M,M,M,M,91.64,KHND 190356Z AUTO 19007KT 10SM CLR 34/14 A2996 RMK AO2 SLPNO T03390139 PNO $,M
EKO,2022-07-19 03:56,-115.7860,40.8242,1367.00,77.00,47.00,34.50,220.00,5.00,0.00,30.15,1014.40,10.00,M,FEW,BKN,BKN,M,5500.00,7000.00,8500.00,M,M,M,M,M,M,M,M,77.00,KEKO 190356Z AUTO 22005KT 10SM FEW055 BKN070 BKN085 25/08 A3015 RMK AO2 SLP144 T02500083,M
TPH,2022-07-19 03:56,-117.0904,38.0505,1654.00,79.00,48.00,33.66,360.00,11.00,0.00,30.18,1012.90,10.00,M,BKN,M,M,M,10000.00,M,M,M,M,M,M,M,M,M,M,79.00,KTPH 190356Z AUTO 36011KT 10SM BKN100 26/09 A3018 RMK AO2 SLP129 T02610089,M
WMC,2022-07-19 03:56,-117.8072,40.9019,1315.00,84.00,50.00,30.82,170.00,8.00,0.00,30.07,1012.10,9.00,M,CLR,M,M,M,M,M,M,M,M,M,M,M,M,M,M,82.09,KWMC 190356Z AUTO 17008KT 9SM CLR 29/10 A3007 RMK AO2 SLP121 T02890100 TSNO,M
NFL,2022-07-19 03:56,-118.7010,39.4166,1199.00,77.00,57.00,50.07,60.00,8.00,0.00,30.10,1015.80,10.00,M,BKN,OVC,M,M,8000.00,10000.00,M,M,M,M,M,M,M,M,M,77.00,KNFL 190356Z 06008KT 10SM BKN080 OVC100 25/14 A3010 RMK AO2 SLP158 SH VC N-NE T02500139,M
LAS,2022-07-19 03:56,-115.1634,36.0719,663.00,95.00,56.00,27.06,240.00,5.00,0.00,29.91,1009.80,10.00,M,FEW,FEW,SCT,M,12000.00,16000.00,20000.00,M,M,M,M,M,M,M,M,93.38,KLAS 190356Z 24005KT 10SM FEW120 FEW160 SCT200 35/13 A2991 RMK AO2 SLP098 T03500133,M
INS,2022-07-19 03:58,-115.6733,36.5872,955.00,82.40,58.30,43.95,230.00,8.00,T,30.01,1010.90,10.00,M,BKN,OVC,M,M,7500.00,17000.00,M,M,-RA,M,M,M,M,M,M,82.31,KINS 190358Z AUTO 23008KT 10SM -RA BKN075 OVC170 28/15 A3001 RMK AO2 LTG DSNT N TSE26 PRESRR SLP109 P0000 T02800146 $,M
LSV,2022-07-19 03:58,-115.0343,36.2362,570.00,99.30,55.00,22.89,260.00,8.00,0.00,29.88,1008.90,10.00,M,FEW,SCT,M,M,15000.00,20000.00,M,M,M,M,M,M,M,M,M,97.68,KLSV 190358Z 26008KT 10SM FEW150 SCT200 37/13 A2988 RMK AO2A SLP089 T03740127 $,M
INS,2022-07-19 04:01,-115.6733,36.5872,955.00,82.40,60.80,48.05,190.00,8.00,0.00,30.02,1011.30,10.00,M,SCT,BKN,M,M,7500.00,17000.00,M,M,M,M,M,M,M,M,M,82.90,KINS 190401Z AUTO 19008KT 10SM SCT075 BKN170 28/16 A3002 RMK AO2 LTG DSNT N RAE01 SLP113 $,M
CXP,2022-07-19 04:10,-119.7326,39.1923,1431.00,80.60,42.80,26.22,310.00,4.00,0.00,30.17,M,10.00,M,CLR,M,M,M,M,M,M,M,M,M,M,M,M,M,M,79.30,KCXP 190410Z AUTO 31004KT 10SM CLR 27/06 A3017 RMK AO2,M
05U,2022-07-19 04:15,-116.0051,39.6042,1811.23,73.40,50.00,43.69,250.00,15.00,0.00,30.26,M,9.00,20.00,SCT,BKN,OVC,M,4100.00,6000.00,11000.00,M,M,M,M,M,M,M,M,73.40,K05U 190415Z AUTO 25015G20KT 9SM SCT041 BKN060 OVC110 23/10 A3026 RMK A01,M
MEV,2022-07-19 04:15,-119.7500,38.9963,1441.42,77.00,41.00,27.53,M,4.00,0.00,30.17,M,10.00,M,CLR,M,M,M,M,M,M,M,M,M,M,M,M,M,M,77.00,KMEV 190415Z AUTO VRB04KT 10SM CLR 25/05 A3017 RMK AO2,M
RTS,2022-07-19 04:15,-119.8764,39.6682,1539.00,77.00,42.80,29.51,270.00,8.00,0.00,30.21,M,10.00,M,FEW,M,M,M,12000.00,M,M,M,M,M,M,M,M,M,M,77.00,KRTS 190415Z AUTO 27008KT 10SM FEW120 25/06 A3021 RMK AO2,M
BVU,2022-07-19 04:15,-114.8611,35.9475,671.00,M,M,M,M,M,0.00,M,M,M,M,M,M,M,M,M,M,M,M,M,M,M,M,M,M,M,M,KBVU 190415Z AUTO RMK AO2 PNO PWINO TSNO,M
TMT,2022-07-19 04:15,-117.1971,39.4643,1749.34,73.00,54.00,51.69,360.00,7.00,0.00,30.27,M,10.00,M,SCT,SCT,OVC,M,5000.00,7000.00,11000.00,M,-DZ,M,M,M,M,M,M,72.90,KTMT 190415Z AUTO 36007KT 10SM -DZ SCT050 SCT070 OVC110 23/12 A3027 RMK AO2 T02270123,M
BAM,2022-07-19 04:15,-116.8743,40.5990,1382.36,M,M,M,240.00,17.00,0.00,30.11,M,10.00,20.00,SCT,SCT,M,M,10000.00,12000.00,M,M,M,M,M,M,M,M,M,M,KBAM 190415Z AUTO 24017G20KT 10SM SCT100 SCT120 A3011 RMK AO1,M
HTH,2022-07-19 04:15,-118.6315,38.5448,1282.89,84.20,50.00,30.62,300.00,7.00,0.00,30.12,M,10.00,M,CLR,M,M,M,M,M,M,M,M,M,M,M,M,M,M,82.24,KHTH 190415Z AUTO 30007KT 10SM CLR 29/10 A3012 RMK A01,M
BVU,2022-07-19 04:35,-114.8611,35.9475,671.00,M,M,M,M,M,0.00,M,M,M,M,M,M,M,M,M,M,M,M,M,M,M,M,M,M,M,M,KBVU 190435Z AUTO RMK AO2 PNO PWINO TSNO,M
05U,2022-07-19 04:35,-116.0051,39.6042,1811.23,73.40,51.80,46.71,250.00,9.00,0.00,30.27,M,10.00,17.00,FEW,SCT,BKN,M,3700.00,5500.00,6500.00,M,M,M,M,M,M,M,M,73.40,K05U 190435Z AUTO 25009G17KT 10SM FEW037 SCT055 BKN065 23/11 A3027 RMK A01,M
MEV,2022-07-19 04:35,-119.7500,38.9963,1441.42,78.80,41.00,25.95,0.00,0.00,0.00,30.17,M,10.00,M,CLR,M,M,M,M,M,M,M,M,M,M,M,M,M,M,78.80,KMEV 190435Z AUTO 00000KT 10SM CLR 26/05 A3017 RMK AO2,M
BAM,2022-07-19 04:35,-116.8743,40.5990,1382.36,M,M,M,240.00,21.00,0.00,30.11,M,10.00,25.00,SCT,M,M,M,12000.00,M,M,M,M,M,M,M,M,M,M,M,KBAM 190435Z AUTO 24021G25KT 10SM SCT120 A3011 RMK AO1,M
HTH,2022-07-19 04:35,-118.6315,38.5448,1282.89,84.20,48.20,28.63,320.00,9.00,0.00,30.13,M,10.00,M,CLR,M,M,M,M,M,M,M,M,M,M,M,M,M,M,82.04,KHTH 190435Z AUTO 32009KT 10SM CLR 29/09 A3013 RMK A01,M
TMT,2022-07-19 04:35,-117.1971,39.4643,1749.34,M,M,M,340.00,4.00,0.00,30.28,M,10.00,M,OVC,M,M,M,10000.00,M,M,M,M,M,M,M,M,M,M,M,KTMT 190435Z AUTO 34004KT 10SM OVC100 A3028 RMK AO2,M
CXP,2022-07-19 04:35,-119.7326,39.1923,1431.00,80.60,42.80,26.22,330.00,4.00,0.00,30.18,M,10.00,M,CLR,M,M,M,M,M,M,M,M,M,M,M,M,M,M,79.30,KCXP 190435Z AUTO 33004KT 10SM CLR 27/06 A3018 RMK AO2,M
RTS,2022-07-19 04:35,-119.8764,39.6682,1539.00,77.00,42.80,29.51,260.00,8.00,0.00,30.22,M,10.00,M,FEW,M,M,M,12000.00,M,M,M,M,M,M,M,M,M,M,77.00,KRTS 190435Z AUTO 26008KT 10SM FEW120 25/06 A3022 RMK AO2,M
ELY,2022-07-19 04:53,-114.8453,39.2950,1909.00,71.00,49.00,45.33,200.00,5.00,0.00,30.28,1013.50,10.00,M,SCT,M,M,M,10000.00,M,M,M,M,M,M,M,M,M,M,71.10,KELY 190453Z AUTO 20005KT 10SM SCT100 22/09 A3028 RMK AO2 SLP135 T02170094,M
LOL,2022-07-19 04:53,-118.5701,40.0684,1192.43,79.00,54.00,42.03,320.00,9.00,T,30.11,1014.50,10.00,15.00,BKN,M,M,M,11000.00,M,M,M,M,M,M,M,M,M,M,79.00,KLOL 190453Z AUTO 32009G15KT 10SM BKN110 26/12 A3011 RMK AO2 RAE09 SLP145 P0000 T02610122,M
P68,2022-07-19 04:53,-116.0056,39.6014,1993.00,76.00,48.00,37.29,290.00,11.00,0.00,30.24,1014.40,M,M,M,M,M,M,M,M,M,M,M,M,M,M,26.00,240.00,2022-07-19 04:19,75.90,KP68 190453Z AUTO 29011KT 24/09 A3024 RMK AO1 PK WND 24026/0419 SLP144 T02440089,M
VGT,2022-07-19 04:53,-115.1933,36.2111,667.00,96.00,55.00,25.32,310.00,9.00,0.00,29.93,1011.80,10.00,M,CLR,M,M,M,M,M,M,M,M,M,M,M,27.00,360.00,2022-07-19 04:04,94.27,KVGT 190453Z AUTO 31009KT 10SM CLR 36/13 A2993 RMK AO2 PK WND 36027/0404 SLP118 T03560128,M
DRA,2022-07-19 04:53,-116.0278,36.6206,1009.00,87.00,54.00,32.34,110.00,9.00,0.00,30.02,1010.60,10.00,M,CLR,M,M,M,M,M,M,M,M,M,M,M,M,M,M,85.19,KDRA 190453Z AUTO 11009KT 10SM CLR 31/12 A3002 RMK AO2 SLP106 T03060122,M
TMT,2022-07-19 04:55,-117.1971,39.4643,1749.34,M,M,M,320.00,4.00,0.00,30.29,M,10.00,M,OVC,M,M,M,11000.00,M,M,M,M,M,M,M,M,M,M,M,KTMT 190455Z AUTO 32004KT 10SM OVC110 A3029 RMK AO2,M
HTH,2022-07-19 04:55,-118.6315,38.5448,1282.89,82.40,48.20,30.35,320.00,9.00,0.00,30.13,M,10.00,M,CLR,M,M,M,M,M,M,M,M,M,M,M,M,M,M,80.80,KHTH 190455Z AUTO 32009KT 10SM CLR 28/09 A3013 RMK A01,M
BAM,2022-07-19 04:55,-116.8743,40.5990,1382.36,M,M,M,240.00,14.00,0.00,30.12,M,4.00,21.00,SCT,SCT,SCT,M,1800.00,3000.00,4200.00,M,M,M,M,M,M,M,M,M,KBAM 190455Z AUTO 24014G21KT 4SM SCT018 SCT030 SCT042 A3012 RMK AO1,M
BVU,2022-07-19 04:55,-114.8611,35.9475,671.00,M,M,M,M,M,0.00,M,M,M,M,M,M,M,M,M,M,M,M,M,M,M,M,M,M,M,M,KBVU 190455Z AUTO RMK AO2 PNO PWINO TSNO,M
CXP,2022-07-19 04:55,-119.7326,39.1923,1431.00,78.80,41.00,25.95,0.00,0.00,0.00,30.19,M,10.00,M,CLR,M,M,M,M,M,M,M,M,M,M,M,M,M,M,78.80,KCXP 190455Z AUTO 00000KT 10SM CLR 26/05 A3019 RMK AO2,M
RNO,2022-07-19 04:55,-119.7711,39.4839,1341.00,82.00,46.00,28.30,290.00,8.00,0.00,30.15,1014.10,10.00,M,SCT,SCT,M,M,8000.00,16000.00,M,M,M,M,M,M,M,M,M,80.36,KRNO 190455Z 29008KT 10SM SCT080 SCT160 28/08 A3015 RMK AO2 SLP141 T02780078,M
RTS,2022-07-19 04:55,-119.8764,39.6682,1539.00,77.00,42.80,29.51,260.00,12.00,0.00,30.22,M,10.00,M,CLR,M,M,M,M,M,M,M,M,M,M,M,M,M,M,77.00,KRTS 190455Z AUTO 26012KT 10SM CLR 25/06 A3022 RMK AO2,M
05U,2022-07-19 04:55,-116.0051,39.6042,1811.23,75.20,46.40,35.94,310.00,9.00,0.00,30.27,M,10.00,17.00,FEW,SCT,BKN,M,4300.00,5500.00,6500.00,M,M,M,M,M,M,M,M,75.20,K05U 190455Z AUTO 31009G17KT 290V350 10SM FEW043 SCT055 BKN065 24/08 A3027 RMK A01,M
MEV,2022-07-19 04:55,-119.7500,38.9963,1441.42,75.20,42.80,31.34,0.00,0.00,0.00,30.18,M,10.00,M,CLR,M,M,M,M,M,M,M,M,M,M,M,M,M,M,75.20,KMEV 190455Z AUTO 00000KT 10SM CLR 24/06 A3018 RMK AO2,M
EKO,2022-07-19 04:56,-115.7860,40.8242,1367.00,79.00,49.00,34.81,330.00,7.00,0.00,30.14,1013.60,10.00,M,CLR,M,M,M,M,M,M,M,M,M,M,M,M,M,M,79.00,KEKO 190456Z AUTO 33007KT 10SM CLR 26/09 A3014 RMK AO2 SLP136 T02610094,M
WMC,2022-07-19 04:56,-117.8072,40.9019,1315.00,82.00,50.00,32.88,150.00,10.00,0.00,30.10,1012.80,9.00,14.00,SCT,M,M,M,5500.00,M,M,M,M,M,M,M,M,M,M,80.73,KWMC 190456Z AUTO 15010G14KT 9SM SCT055 28/10 A3010 RMK AO2 SLP128 T02780100 TSNO,M
NFL,2022-07-19 04:56,-118.7010,39.4166,1199.00,78.00,55.00,44.90,60.00,9.00,0.00,30.12,1016.60,10.00,M,SCT,BKN,BKN,M,8000.00,12000.00,25000.00,M,M,M,M,M,M,M,M,78.10,KNFL 190456Z 06009KT 10SM SCT080 BKN120 BKN250 26/13 A3012 RMK AO2 SLP166 SH VC SE-S T02560128,M
HND,2022-07-19 04:56,-115.1344,35.9729,742.79,89.00,60.00,37.83,120.00,4.00,0.00,29.99,M,10.00,M,CLR,M,M,M,M,M,M,M,M,M,M,M,M,M,M,88.76,KHND 190456Z AUTO 12004KT 10SM CLR 32/16 A2999 RMK AO2 SLPNO T03170156 PNO $,M
TPH,2022-07-19 04:56,-117.0904,38.0505,1654.00,75.00,52.00,44.59,280.00,4.00,0.00,30.22,1014.10,10.00,M,OVC,M,M,M,10000.00,M,M,M,M,M,M,M,M,M,M,75.00,KTPH 190456Z AUTO 28004KT 10SM OVC100 24/11 A3022 RMK AO2 LTG DSNT S SLP141 T02390111,M
LAS,2022-07-19 04:56,-115.1634,36.0719,663.00,93.00,55.00,27.87,350.00,7.00,0.00,29.95,1011.00,10.00,M,FEW,FEW,SCT,M,12000.00,16000.00,20000.00,M,M,M,M,M,M,M,M,91.03,KLAS 190456Z 35007KT 10SM FEW120 FEW160 SCT200 34/13 A2995 RMK AO2 SLP110 T03390128,M
LSV,2022-07-19 04:58,-115.0343,36.2362,570.00,97.00,53.00,22.98,130.00,5.00,0.00,29.89,1009.30,10.00,M,FEW,M,M,M,15000.00,M,M,M,M,M,M,M,M,M,M,94.67,KLSV 190458Z 13005KT 10SM FEW150 36/12 A2989 RMK AO2A SLP093 T03610117 $,M
INS,2022-07-19 04:58,-115.6733,36.5872,955.00,79.50,65.30,61.88,240.00,6.00,T,30.03,1011.60,10.00,M,FEW,M,M,M,22000.00,M,M,M,M,M,M,M,M,M,M,79.50,KINS 190458Z AUTO 24006KT 10SM FEW220 26/19 A3003 RMK AO2 RAE01 SLP116 P0000 T02640185 $,M
BVU,2022-07-19 05:15,-114.8611,35.9475,671.00,M,M,M,M,M,0.00,M,M,M,M,M,M,M,M,M,M,M,M,M,M,M,M,M,M,M,M,KBVU 190515Z AUTO RMK AO2 PNO PWINO TSNO,M
BAM,2022-07-19 05:15,-116.8743,40.5990,1382.36,M,M,M,220.00,15.00,0.00,30.13,M,5.00,20.00,BKN,BKN,M,M,1800.00,12000.00,M,M,M,M,M,M,M,M,M,M,KBAM 190515Z AUTO 22015G20KT 5SM BKN018 BKN120 A3013 RMK AO1,M
CXP,2022-07-19 05:15,-119.7326,39.1923,1431.00,78.80,41.00,25.95,340.00,4.00,0.00,30.19,M,10.00,M,CLR,M,M,M,M,M,M,M,M,M,M,M,M,M,M,78.80,KCXP 190515Z AUTO 34004KT 10SM CLR 26/05 A3019 RMK AO2,M
HTH,2022-07-19 05:15,-118.6315,38.5448,1282.89,82.40,48.20,30.35,310.00,9.00,0.00,30.14,M,10.00,M,CLR,M,M,M,M,M,M,M,M,M,M,M,M,M,M,80.80,KHTH 190515Z AUTO 31009KT 10SM CLR 28/09 A3014 RMK A01,M
RTS,2022-07-19 05:15,-119.8764,39.6682,1539.00,77.00,42.80,29.51,280.00,11.00,0.00,30.22,M,10.00,16.00,FEW,M,M,M,12000.00,M,M,M,M,M,M,M,M,M,M,77.00,KRTS 190515Z AUTO 28011G16KT 10SM FEW120 25/06 A3022 RMK AO2,M
05U,2022-07-19 05:15,-116.0051,39.6042,1811.23,77.00,46.40,33.85,0.00,0.00,0.00,30.27,M,10.00,11.00,FEW,SCT,BKN,M,4300.00,6500.00,7500.00,M,M,M,M,M,M,M,M,77.00,K05U 190515Z AUTO 00000G11KT 10SM FEW043 SCT065 BKN075 25/08 A3027 RMK A01,M
TMT,2022-07-19 05:15,-117.1971,39.4643,1749.34,M,M,M,40.00,4.00,0.00,30.30,M,10.00,M,OVC,M,M,M,11000.00,M,M,M,M,M,M,M,M,M,M,M,KTMT 190515Z AUTO 04004KT 10SM OVC110 A3030 RMK AO2,M
MEV,2022-07-19 05:15,-119.7500,38.9963,1441.42,73.40,44.60,35.66,110.00,5.00,0.00,30.18,M,10.00,M,CLR,M,M,M,M,M,M,M,M,M,M,M,M,M,M,73.40,KMEV 190515Z AUTO 11005KT 10SM CLR 23/07 A3018 RMK AO2,M
WMC,2022-07-19 05:24,-117.8072,40.9019,1315.00,79.00,52.00,39.06,150.00,17.00,0.00,30.10,M,2.00,32.00,OVC,M,M,M,3800.00,M,M,M,HZ,M,M,M,32.00,140.00,2022-07-19 05:18,79.00,KWMC 190524Z AUTO 15017G32KT 2SM HZ OVC038 26/11 A3010 RMK AO2 PK WND 14032/0518 T02610111 TSNO,M
05U,2022-07-19 05:35,-116.0051,39.6042,1811.23,73.40,50.00,43.69,0.00,0.00,0.00,30.28,M,10.00,M,SCT,BKN,OVC,M,5500.00,6500.00,7500.00,M,M,M,M,M,M,M,M,73.40,K05U 190535Z AUTO 00000KT 10SM SCT055 BKN065 OVC075 23/10 A3028 RMK A01,M
TMT,2022-07-19 05:35,-117.1971,39.4643,1749.34,M,M,M,40.00,3.00,0.00,30.30,M,10.00,M,SCT,M,M,M,11000.00,M,M,M,M,M,M,M,M,M,M,M,KTMT 190535Z AUTO 04003KT 10SM SCT110 A3030 RMK AO2,M
BAM,2022-07-19 05:35,-116.8743,40.5990,1382.36,M,M,M,230.00,17.00,0.00,30.14,M,10.00,24.00,SCT,SCT,M,M,1800.00,12000.00,M,M,M,M,M,M,M,M,M,M,KBAM 190535Z AUTO 23017G24KT 10SM SCT018 SCT120 A3014 RMK AO1,M
MEV,2022-07-19 05:35,-119.7500,38.9963,1441.42,71.60,44.60,37.89,120.00,6.00,0.00,30.19,M,10.00,M,FEW,M,M,M,12000.00,M,M,M,M,M,M,M,M,M,M,71.60,KMEV 190535Z AUTO 12006KT 10SM FEW120 22/07 A3019 RMK AO2,M
HTH,2022-07-19 05:35,-118.6315,38.5448,1282.89,82.40,48.20,30.35,320.00,10.00,0.00,30.14,M,10.00,M,FEW,M,M,M,9000.00,M,M,M,M,M,M,M,M,M,M,80.80,KHTH 190535Z AUTO 32010KT 10SM FEW090 28/09 A3014 RMK A01,M
RTS,2022-07-19 05:35,-119.8764,39.6682,1539.00,75.20,41.00,29.23,290.00,14.00,0.00,30.21,M,10.00,M,FEW,FEW,M,M,10000.00,12000.00,M,M,M,M,M,M,M,M,M,75.20,KRTS 190535Z AUTO 29014KT 10SM FEW100 FEW120 24/05 A3021 RMK AO2,M
CXP,2022-07-19 05:35,-119.7326,39.1923,1431.00,78.80,41.00,25.95,360.00,4.00,0.00,30.19,M,10.00,M,CLR,M,M,M,M,M,M,M,M,M,M,M,M,M,M,78.80,KCXP 190535Z AUTO 36004KT 10SM CLR 26/05 A3019 RMK AO2,M
BVU,2022-07-19 05:35,-114.8611,35.9475,671.00,M,M,M,M,M,0.00,M,M,M,M,M,M,M,M,M,M,M,M,M,M,M,M,M,M,M,M,KBVU 190535Z AUTO RMK AO2 PNO PWINO TSNO,M
WMC,2022-07-19 05:44,-117.8072,40.9019,1315.00,79.00,51.00,37.78,150.00,18.00,0.00,30.10,M,3.00,26.00,OVC,M,M,M,3200.00,M,M,M,HZ,M,M,M,32.00,140.00,2022-07-19 05:18,79.00,KWMC 190544Z AUTO 15018G26KT 3SM HZ OVC032 26/11 A3010 RMK AO2 PK WND 14032/0518 T02610106 TSNO,M
ELY,2022-07-19 05:53,-114.8453,39.2950,1909.00,72.00,47.00,40.79,210.00,12.00,0.00,30.27,1012.90,10.00,M,CLR,M,M,M,M,M,M,M,M,M,M,M,M,M,M,72.00,KELY 190553Z AUTO 21012KT 10SM CLR 22/08 A3027 RMK AO2 SLP129 60000 T02220083 10311 20206 50007,M
LOL,2022-07-19 05:53,-118.5701,40.0684,1192.43,72.00,59.00,63.61,310.00,6.00,0.00,30.11,1014.50,10.00,M,CLR,M,M,M,M,M,M,M,M,M,M,M,M,M,M,72.00,KLOL 190553Z AUTO 31006KT 10SM CLR 22/15 A3011 RMK AO2 SLP145 60007 T02220150 10361 20217 56006,M
P68,2022-07-19 05:53,-116.0056,39.6014,1993.00,73.00,51.00,46.13,140.00,5.00,0.00,30.26,1014.90,M,M,M,M,M,M,M,M,M,M,M,M,M,M,M,M,M,73.00,KP68 190553Z AUTO 14005KT 23/11 A3026 RMK AO1 SLP149 T02280106 10294 20228 51022,M
VGT,2022-07-19 05:53,-115.1933,36.2111,667.00,95.00,53.00,24.44,300.00,10.00,0.00,29.93,1011.90,10.00,M,CLR,M,M,M,M,M,M,M,M,M,M,M,M,M,M,92.58,KVGT 190553Z AUTO 30010KT 10SM CLR 35/12 A2993 RMK AO2 SLP119 T03500117 10411 20350 51014,M
DRA,2022-07-19 05:53,-116.0278,36.6206,1009.00,86.00,53.00,32.41,150.00,3.00,0.00,30.04,1011.20,10.00,M,CLR,M,M,M,M,M,M,M,M,M,M,M,M,M,M,84.09,KDRA 190553Z AUTO 15003KT 10SM CLR 30/12 A3004 RMK AO2 SLP112 T03000117 10394 20300 53009,M
05U,2022-07-19 05:55,-116.0051,39.6042,1811.23,73.40,51.80,46.71,140.00,6.00,0.00,30.28,M,10.00,M,FEW,SCT,OVC,M,5500.00,6000.00,10000.00,M,M,M,M,M,M,M,M,73.40,K05U 190555Z AUTO 14006KT 10SM FEW055 SCT060 OVC100 23/11 A3028 RMK A01,M
MEV,2022-07-19 05:55,-119.7500,38.9963,1441.42,69.80,46.40,43.13,100.00,7.00,0.00,30.18,M,10.00,M,SCT,SCT,M,M,5500.00,12000.00,M,M,M,M,M,M,M,M,M,69.80,KMEV 190555Z AUTO 10007KT 10SM SCT055 SCT120 21/08 A3018 RMK AO2,M
HTH,2022-07-19 05:55,-118.6315,38.5448,1282.89,82.40,48.20,30.35,320.00,7.00,0.00,30.14,M,10.00,M,FEW,FEW,FEW,M,4600.00,7500.00,9000.00,M,M,M,M,M,M,M,M,80.80,KHTH 190555Z AUTO 32007KT 10SM FEW046 FEW075 FEW090 28/09 A3014 RMK A01,M
BAM,2022-07-19 05:55,-116.8743,40.5990,1382.36,M,M,M,230.00,16.00,0.00,30.14,M,10.00,22.00,SCT,M,M,M,12000.00,M,M,M,M,M,M,M,M,M,M,M,KBAM 190555Z AUTO 23016G22KT 10SM SCT120 A3014 RMK AO1,M
TMT,2022-07-19 05:55,-117.1971,39.4643,1749.34,M,M,M,0.00,0.00,0.00,30.30,M,10.00,M,SCT,SCT,M,M,10000.00,12000.00,M,M,M,M,M,M,M,M,M,M,KTMT 190555Z AUTO 00000KT 10SM SCT100 SCT120 A3030 RMK AO2,M
BVU,2022-07-19 05:55,-114.8611,35.9475,671.00,M,M,M,M,M,0.00,M,M,M,M,M,M,M,M,M,M,M,M,M,M,M,M,M,M,M,M,KBVU 190555Z AUTO RMK AO2 PNO PWINO TSNO,M
CXP,2022-07-19 05:55,-119.7326,39.1923,1431.00,78.80,41.00,25.95,0.00,0.00,0.00,30.20,M,10.00,M,CLR,M,M,M,M,M,M,M,M,M,M,M,M,M,M,78.80,KCXP 190555Z AUTO 00000KT 10SM CLR 26/05 A3020 RMK AO2,M
RNO,2022-07-19 05:55,-119.7711,39.4839,1341.00,81.00,45.00,28.15,270.00,7.00,0.00,30.15,1014.20,10.00,M,SCT,BKN,M,M,9000.00,17000.00,M,M,M,M,M,M,M,M,M,79.68,KRNO 190555Z 27007KT 10SM SCT090 BKN170 27/07 A3015 RMK AO2 SLP142 T02720072 10344 20272 51015,M
RTS,2022-07-19 05:55,-119.8764,39.6682,1539.00,75.20,41.00,29.23,280.00,10.00,0.00,30.21,M,10.00,16.00,SCT,M,M,M,12000.00,M,M,M,M,M,M,M,M,M,M,75.20,KRTS 190555Z AUTO 28010G16KT 10SM SCT120 24/05 A3021 RMK AO2,M
WMC,2022-07-19 05:56,-117.8072,40.9019,1315.00,80.00,51.00,36.44,160.00,15.00,0.00,30.11,1013.10,5.00,24.00,OVC,M,M,M,3200.00,M,M,M,HZ,M,M,M,32.00,140.00,2022-07-19 05:18,79.72,KWMC 190556Z AUTO 16015G24KT 5SM HZ OVC032 27/11 A3011 RMK AO2 PK WND 14032/0518 SLP131 60000 T02670106 10339 20261 51021 TSNO,M
EKO,2022-07-19 05:56,-115.7860,40.8242,1367.00,72.00,49.00,43.97,210.00,4.00,0.00,30.15,1014.30,10.00,M,CLR,M,M,M,M,M,M,M,M,M,M,M,M,M,M,72.00,KEKO 190556Z AUTO 21004KT 10SM CLR 22/09 A3015 RMK AO2 SLP143 T02220094 10339 20222 51012,M
NFL,2022-07-19 05:56,-118.7010,39.4166,1199.00,77.00,55.00,46.57,80.00,7.00,0.00,30.11,1016.40,10.00,M,SCT,BKN,BKN,M,8000.00,12000.00,25000.00,M,M,M,M,M,M,M,M,77.00,KNFL 190556Z 08007KT 10SM SCT080 BKN120 BKN250 25/13 A3011 RMK AO2 SLP164 60001 T02500128 10289 20239 50011,M
TPH,2022-07-19 05:56,-117.0904,38.0505,1654.00,77.00,50.00,38.74,M,3.00,0.00,30.25,1014.70,10.00,M,BKN,M,M,M,10000.00,M,M,M,M,M,M,M,M,M,M,77.00,KTPH 190556Z AUTO VRB03KT 10SM BKN100 25/10 A3025 RMK AO2 SLP147 60001 T02500100 10328 20239 53019,M
HND,2022-07-19 05:56,-115.1344,35.9729,742.79,85.00,63.00,47.91,M,4.00,0.00,29.99,M,10.00,M,CLR,M,M,M,M,M,M,M,M,M,M,M,M,M,M,85.83,KHND 190556Z AUTO VRB04KT 10SM CLR 29/17 A2999 RMK AO2 SLPNO 6//// T02940172 10367 20289 51018 PNO $,M
LAS,2022-07-19 05:56,-115.1634,36.0719,663.00,92.00,57.00,31.00,200.00,4.00,0.00,29.94,1010.80,10.00,M,FEW,FEW,M,M,16000.00,20000.00,M,M,M,M,M,M,M,M,M,90.50,KLAS 190556Z 20004KT 10SM FEW160 FEW200 33/14 A2994 RMK AO2 SLP108 T03330139 10383 20328 50016,M
INS,2022-07-19 05:58,-115.6733,36.5872,955.00,78.00,65.30,64.79,290.00,3.00,0.00,30.03,1011.80,10.00,M,CLR,M,M,M,M,M,M,M,M,M,M,M,M,M,M,78.10,KINS 190558Z AUTO 29003KT 10SM CLR 26/19 A3003 RMK AO2 SLP118 60000 T02560185 10380 20254 53002 $,M
LSV,2022-07-19 05:58,-115.0343,36.2362,570.00,94.00,53.80,25.94,40.00,6.00,0.00,29.91,1009.90,10.00,M,CLR,M,M,M,M,M,M,M,M,M,M,M,M,M,M,91.63,KLSV 190558Z AUTO 04006KT 10SM CLR 34/12 A2991 RMK AO2 SLP099 T03440121 10410 20344 52017 $,M
BVU,2022-07-19 06:15,-114.8611,35.9475,671.00,M,M,M,M,M,0.00,M,M,M,M,M,M,M,M,M,M,M,M,M,M,M,M,M,M,M,M,KBVU 190615Z AUTO RMK AO2 PNO PWINO TSNO,M
HTH,2022-07-19 06:15,-118.6315,38.5448,1282.89,82.40,48.20,30.35,330.00,6.00,0.00,30.15,M,10.00,M,FEW,FEW,M,M,8500.00,12000.00,M,M,M,M,M,M,M,M,M,80.80,KHTH 190615Z AUTO 33006KT 10SM FEW085 FEW120 28/09 A3015 RMK A01,M
RTS,2022-07-19 06:15,-119.8764,39.6682,1539.00,75.20,41.00,29.23,280.00,13.00,0.00,30.21,M,10.00,18.00,BKN,M,M,M,12000.00,M,M,M,M,M,M,M,M,M,M,75.20,KRTS 190615Z AUTO 28013G18KT 10SM BKN120 24/05 A3021 RMK AO2,M
CXP,2022-07-19 06:15,-119.7326,39.1923,1431.00,78.80,42.80,27.81,0.00,0.00,0.00,30.20,M,10.00,M,SCT,M,M,M,11000.00,M,M,M,M,M,M,M,M,M,M,78.80,KCXP 190615Z AUTO 00000KT 10SM SCT110 26/06 A3020 RMK AO2,M
TMT,2022-07-19 06:15,-117.1971,39.4643,1749.34,M,M,M,50.00,3.00,0.00,30.30,M,10.00,M,BKN,OVC,M,M,10000.00,12000.00,M,M,M,M,M,M,M,M,M,M,KTMT 190615Z AUTO 05003KT 10SM BKN100 OVC120 A3030 RMK AO2,M
BAM,2022-07-19 06:15,-116.8743,40.5990,1382.36,M,M,M,230.00,16.00,0.00,30.13,M,10.00,22.00,CLR,M,M,M,M,M,M,M,M,M,M,M,M,M,M,M,KBAM 190615Z AUTO 23016G22KT 10SM CLR A3013 RMK AO1,M
MEV,2022-07-19 06:15,-119.7500,38.9963,1441.42,68.00,46.40,45.88,80.00,6.00,0.00,30.18,M,10.00,M,SCT,M,M,M,5500.00,M,M,M,M,M,M,M,M,M,M,68.00,KMEV 190615Z AUTO 08006KT 10SM SCT055 20/08 A3018 RMK AO2,M
05U,2022-07-19 06:15,-116.0051,39.6042,1811.23,71.60,51.80,49.64,0.00,0.00,0.00,30.29,M,10.00,M,FEW,SCT,BKN,M,2900.00,4600.00,7000.00,M,M,M,M,M,M,M,M,71.60,K05U 190615Z AUTO 00000KT 10SM FEW029 SCT046 BKN070 22/11 A3029 RMK A01,M
TMT,2022-07-19 06:35,-117.1971,39.4643,1749.34,M,M,M,0.00,0.00,0.00,30.30,M,10.00,M,OVC,M,M,M,10000.00,M,M,M,M,M,M,M,M,M,M,M,KTMT 190635Z AUTO 00000KT 10SM OVC100 A3030 RMK AO2,M
MEV,2022-07-19 06:35,-119.7500,38.9963,1441.42,68.00,44.60,42.85,100.00,4.00,0.00,30.18,M,10.00,M,SCT,M,M,M,5500.00,M,M,M,M,M,M,M,M,M,M,68.00,KMEV 190635Z AUTO 10004KT 10SM SCT055 20/07 A3018 RMK AO2,M
BVU,2022-07-19 06:35,-114.8611,35.9475,671.00,M,M,M,M,M,0.00,M,M,M,M,M,M,M,M,M,M,M,M,M,M,M,M,M,M,M,M,KBVU 190635Z AUTO RMK AO2 PNO PWINO TSNO,M
BAM,2022-07-19 06:35,-116.8743,40.5990,1382.36,M,M,M,220.00,12.00,0.00,30.13,M,10.00,17.00,CLR,M,M,M,M,M,M,M,M,M,M,M,M,M,M,M,KBAM 190635Z AUTO 22012G17KT 10SM CLR A3013 RMK AO1,M
CXP,2022-07-19 06:35,-119.7326,39.1923,1431.00,77.00,42.80,29.51,0.00,0.00,0.00,30.20,M,10.00,M,BKN,M,M,M,11000.00,M,M,M,M,M,M,M,M,M,M,77.00,KCXP 190635Z AUTO 00000KT 10SM BKN110 25/06 A3020 RMK AO2,M
RTS,2022-07-19 06:35,-119.8764,39.6682,1539.00,73.40,41.00,31.05,0.00,0.00,0.00,30.22,M,10.00,16.00,SCT,M,M,M,11000.00,M,M,M,M,M,M,M,M,M,M,73.40,KRTS 190635Z AUTO 00000G16KT 10SM SCT110 23/05 A3022 RMK AO2,M
HTH,2022-07-19 06:35,-118.6315,38.5448,1282.89,82.40,50.00,32.46,320.00,6.00,0.00,30.15,M,10.00,M,BKN,M,M,M,11000.00,M,M,M,M,M,M,M,M,M,M,80.99,KHTH 190635Z AUTO 32006KT 10SM BKN110 28/10 A3015 RMK A01,M
05U,2022-07-19 06:35,-116.0051,39.6042,1811.23,71.60,51.80,49.64,0.00,0.00,0.00,30.29,M,10.00,M,FEW,FEW,SCT,M,2900.00,4500.00,12000.00,M,M,M,M,M,M,M,M,71.60,K05U 190635Z AUTO 00000KT 10SM FEW029 FEW045 SCT120 22/11 A3029 RMK A01,M
VGT,2022-07-19 06:53,-115.1933,36.2111,667.00,95.00,51.00,22.70,10.00,4.00,0.00,29.94,1012.20,10.00,M,CLR,M,M,M,M,M,M,M,M,M,M,M,M,M,M,92.11,KVGT 190653Z AUTO 01004KT 10SM CLR 35/11 A2994 RMK AO2 SLP122 T03500106,M
P68,2022-07-19 06:53,-116.0056,39.6014,1993.00,70.00,52.00,52.80,190.00,5.00,0.00,30.27,1015.20,M,M,M,M,M,M,M,M,M,M,M,M,M,M,M,M,M,70.00,KP68 190653Z AUTO 19005KT 21/11 A3027 RMK AO1 SLP152 T02110111,M
DRA,2022-07-19 06:53,-116.0278,36.6206,1009.00,84.00,50.00,30.82,30.00,6.00,0.00,30.04,1011.50,10.00,M,FEW,M,M,M,12000.00,M,M,M,M,M,M,M,M,M,M,82.09,KDRA 190653Z AUTO 03006KT 10SM FEW120 29/10 A3004 RMK AO2 SLP115 T02890100,M
LOL,2022-07-19 06:53,-118.5701,40.0684,1192.43,69.00,59.00,70.21,210.00,4.00,0.00,30.12,1015.20,10.00,M,CLR,M,M,M,M,M,M,M,M,M,M,M,M,M,M,69.10,KLOL 190653Z AUTO 21004KT 10SM CLR 21/15 A3012 RMK AO2 SLP152 T02060150,M
ELY,2022-07-19 06:53,-114.8453,39.2950,1909.00,67.00,49.00,52.35,170.00,7.00,0.00,30.29,1013.80,10.00,M,OVC,M,M,M,11000.00,M,M,M,M,M,M,M,M,M,M,66.90,KELY 190653Z AUTO 17007KT 10SM OVC110 19/09 A3029 RMK AO2 SLP138 T01940094 403440122,M
BVU,2022-07-19 06:55,-114.8611,35.9475,671.00,M,M,M,M,M,0.00,M,M,M,M,M,M,M,M,M,M,M,M,M,M,M,M,M,M,M,M,KBVU 190655Z AUTO RMK AO2 PNO PWINO TSNO,M
05U,2022-07-19 06:55,-116.0051,39.6042,1811.23,69.80,51.80,52.77,0.00,0.00,0.00,30.30,M,10.00,M,BKN,M,M,M,11000.00,M,M,M,M,M,M,M,M,M,M,69.80,K05U 190655Z AUTO 00000KT 10SM BKN110 21/11 A3030 RMK A01,M
MEV,2022-07-19 06:55,-119.7500,38.9963,1441.42,68.00,42.80,40.00,80.00,8.00,0.00,30.19,M,10.00,M,SCT,M,M,M,6000.00,M,M,M,M,M,M,M,M,M,M,68.00,KMEV 190655Z AUTO 08008KT 10SM SCT060 20/06 A3019 RMK AO2,M
HTH,2022-07-19 06:55,-118.6315,38.5448,1282.89,80.60,57.20,44.80,330.00,10.00,0.00,30.16,M,10.00,M,FEW,SCT,OVC,M,2100.00,7000.00,11000.00,M,M,M,M,M,M,M,M,80.81,KHTH 190655Z AUTO 33010KT 10SM FEW021 SCT070 OVC110 27/14 A3016 RMK A01,M
TMT,2022-07-19 06:55,-117.1971,39.4643,1749.34,M,M,M,190.00,3.00,0.00,30.31,M,10.00,M,OVC,M,M,M,9000.00,M,M,M,RA,M,M,M,M,M,M,M,KTMT 190655Z AUTO 19003KT 10SM RA OVC090 A3031 RMK AO2,M
RNO,2022-07-19 06:55,-119.7711,39.4839,1341.00,80.00,45.00,28.99,0.00,0.00,0.00,30.16,1014.30,10.00,M,SCT,SCT,M,M,10000.00,14000.00,M,M,M,M,M,M,M,M,M,79.18,KRNO 190655Z 00000KT 10SM SCT100 SCT140 27/07 A3016 RMK AO2 SLP143 T02670072,M
CXP,2022-07-19 06:55,-119.7326,39.1923,1431.00,77.00,42.80,29.51,0.00,0.00,0.00,30.20,M,10.00,M,BKN,M,M,M,11000.00,M,M,M,M,M,M,M,M,M,M,77.00,KCXP 190655Z AUTO 00000KT 10SM BKN110 25/06 A3020 RMK AO2,M
RTS,2022-07-19 06:55,-119.8764,39.6682,1539.00,73.40,41.00,31.05,300.00,7.00,0.00,30.22,M,10.00,M,CLR,M,M,M,M,M,M,M,M,M,M,M,M,M,M,73.40,KRTS 190655Z AUTO 30007KT 10SM CLR 23/05 A3022 RMK AO2,M
HND,2022-07-19 06:56,-115.1344,35.9729,742.79,83.00,63.00,51.10,180.00,4.00,0.00,29.99,M,10.00,M,CLR,M,M,M,M,M,M,M,M,M,M,M,M,M,M,83.98,KHND 190656Z AUTO 18004KT 10SM CLR 28/17 A2999 RMK AO2 SLPNO T02830172 PNO $,M
EKO,2022-07-19 06:56,-115.7860,40.8242,1367.00,77.00,48.00,35.95,250.00,13.00,0.00,30.17,1014.40,9.00,M,CLR,M,M,M,M,M,M,M,M,M,M,M,M,M,M,77.00,KEKO 190656Z AUTO 25013KT 9SM CLR 25/09 A3017 RMK AO2 SLP144 T02500089,M
TPH,2022-07-19 06:56,-117.0904,38.0505,1654.00,74.00,53.00,48.18,M,6.00,T,30.23,1013.90,10.00,M,FEW,M,M,M,10000.00,M,M,M,M,M,M,M,M,M,M,73.90,KTPH 190656Z AUTO VRB06KT 10SM FEW100 23/12 A3023 RMK AO2 RAB20E45 SLP139 P0000 T02330117,M
NFL,2022-07-19 06:56,-118.7010,39.4166,1199.00,75.00,56.00,51.43,290.00,6.00,0.00,30.12,1016.60,10.00,M,SCT,BKN,BKN,M,8000.00,12000.00,25000.00,M,M,M,M,M,M,M,M,75.00,KNFL 190656Z 29006KT 10SM SCT080 BKN120 BKN250 24/13 A3012 RMK AO2 SLP166 T02390133,M
LAS,2022-07-19 06:56,-115.1634,36.0719,663.00,90.00,59.00,35.36,120.00,3.00,0.00,29.95,1010.90,10.00,M,FEW,M,M,M,20000.00,M,M,M,M,M,M,M,M,M,M,89.26,KLAS 190656Z 12003KT 10SM FEW200 32/15 A2995 RMK AO2 SLP109 T03220150,M
INS,2022-07-19 06:58,-115.6733,36.5872,955.00,77.40,65.50,66.77,260.00,6.00,0.00,30.04,1012.00,10.00,M,CLR,M,M,M,M,M,M,M,M,M,M,M,M,M,M,77.40,KINS 190658Z AUTO 26006KT 10SM CLR 25/19 A3004 RMK AO2 SLP120 T02520186 $,M
LSV,2022-07-19 06:58,-115.0343,36.2362,570.00,91.80,56.00,29.89,80.00,4.00,0.00,29.91,1009.90,10.00,M,CLR,M,M,M,M,M,M,M,M,M,M,M,M,M,M,90.07,KLSV 190658Z AUTO 08004KT 10SM CLR 33/13 A2991 RMK AO2 SLP099 T03320133 $,M
BAM,2022-07-19 07:00,-116.8743,40.5990,1382.36,M,M,M,230.00,14.00,0.00,30.14,M,10.00,M,BKN,M,M,M,12000.00,M,M,M,M,M,M,M,M,M,M,M,KBAM 190700Z AUTO 23014KT 10SM BKN120 A3014 RMK AO1,M
HTH,2022-07-19 07:15,-118.6315,38.5448,1282.89,78.80,55.40,44.52,340.00,8.00,0.00,30.16,M,10.00,M,FEW,SCT,BKN,M,2700.00,7000.00,8500.00,M,M,M,M,M,M,M,M,78.80,KHTH 190715Z AUTO 34008KT 10SM FEW027 SCT070 BKN085 26/13 A3016 RMK A01,M
BAM,2022-07-19 07:15,-116.8743,40.5990,1382.36,M,M,M,220.00,15.00,0.00,30.13,M,10.00,25.00,BKN,M,M,M,11000.00,M,M,M,M,M,M,M,M,M,M,M,KBAM 190715Z AUTO 22015G25KT 10SM BKN110 A3013 RMK AO1,M
MEV,2022-07-19 07:15,-119.7500,38.9963,1441.42,68.00,42.80,40.00,90.00,8.00,0.00,30.19,M,10.00,M,BKN,BKN,M,M,5500.00,6000.00,M,M,M,M,M,M,M,M,M,68.00,KMEV 190715Z AUTO 09008KT 10SM BKN055 BKN060 20/06 A3019 RMK AO2,M
05U,2022-07-19 07:15,-116.0051,39.6042,1811.23,69.80,51.80,52.77,0.00,0.00,0.00,30.30,M,10.00,M,FEW,SCT,OVC,M,4700.00,7500.00,11000.00,M,M,M,M,M,M,M,M,69.80,K05U 190715Z AUTO 00000KT 10SM FEW047 SCT075 OVC110 21/11 A3030 RMK A01,M
RTS,2022-07-19 07:15,-119.8764,39.6682,1539.00,73.40,41.00,31.05,310.00,8.00,0.00,30.22,M,10.00,M,CLR,M,M,M,M,M,M,M,M,M,M,M,M,M,M,73.40,KRTS 190715Z AUTO 31008KT 260V340 10SM CLR 23/05 A3022 RMK AO2,M
CXP,2022-07-19 07:15,-119.7326,39.1923,1431.00,75.20,42.80,31.34,100.00,4.00,0.00,30.21,M,10.00,M,BKN,M,M,M,11000.00,M,M,M,M,M,M,M,M,M,M,75.20,KCXP 190715Z AUTO 10004KT 10SM BKN110 24/06 A3021 RMK AO2,M
BVU,2022-07-19 07:15,-114.8611,35.9475,671.00,M,M,M,M,M,0.00,M,M,M,M,M,M,M,M,M,M,M,M,M,M,M,M,M,M,M,M,KBVU 190715Z AUTO RMK AO2 PNO PWINO TSNO,M
TMT,2022-07-19 07:15,-117.1971,39.4643,1749.34,M,M,M,230.00,4.00,0.00,30.30,M,10.00,M,OVC,M,M,M,10000.00,M,M,M,M,M,M,M,M,M,M,M,KTMT 190715Z AUTO 23004KT 10SM OVC100 A3030 RMK AO2,M
05U,2022-07-19 07:30,-116.0051,39.6042,1811.23,69.80,51.80,52.77,210.00,6.00,0.00,30.30,M,10.00,M,FEW,FEW,OVC,M,5500.00,6500.00,10000.00,M,M,M,M,M,M,M,M,69.80,K05U 190730Z AUTO 21006KT 10SM FEW055 FEW065 OVC100 21/11 A3030 RMK A01,M
CXP,2022-07-19 07:35,-119.7326,39.1923,1431.00,75.20,48.20,38.46,90.00,4.00,0.00,30.21,M,10.00,M,BKN,M,M,M,11000.00,M,M,M,M,M,M,M,M,M,M,75.20,KCXP 190735Z AUTO 09004KT 10SM BKN110 24/09 A3021 RMK AO2,M
RTS,2022-07-19 07:35,-119.8764,39.6682,1539.00,71.60,41.00,33.00,310.00,10.00,0.00,30.22,M,10.00,M,CLR,M,M,M,M,M,M,M,M,M,M,M,M,M,M,71.60,KRTS 190735Z AUTO 31010KT 10SM CLR 22/05 A3022 RMK AO2,M
BVU,2022-07-19 07:35,-114.8611,35.9475,671.00,M,M,M,M,M,0.00,M,M,M,M,M,M,M,M,M,M,M,M,M,M,M,M,M,M,M,M,KBVU 190735Z AUTO RMK AO2 PNO PWINO TSNO,M
MEV,2022-07-19 07:35,-119.7500,38.9963,1441.42,64.40,44.60,48.55,90.00,6.00,0.00,30.20,M,10.00,M,OVC,M,M,M,5500.00,M,M,M,M,M,M,M,M,M,M,64.40,KMEV 190735Z AUTO 09006KT 10SM OVC055 18/07 A3020 RMK AO2,M
BAM,2022-07-19 07:35,-116.8743,40.5990,1382.36,M,M,M,230.00,21.00,0.00,30.14,M,10.00,26.00,SCT,SCT,OVC,M,7000.00,8000.00,11000.00,M,M,M,M,M,M,M,M,M,KBAM 190735Z AUTO 23021G26KT 10SM SCT070 SCT080 OVC110 A3014 RMK AO1,M
HTH,2022-07-19 07:35,-118.6315,38.5448,1282.89,78.80,55.40,44.52,330.00,6.00,0.00,30.16,M,10.00,M,FEW,FEW,BKN,M,5000.00,7000.00,12000.00,M,M,M,M,M,M,M,M,78.80,KHTH 190735Z AUTO 33006KT 10SM FEW050 FEW070 BKN120 26/13 A3016 RMK A01,M
TMT,2022-07-19 07:35,-117.1971,39.4643,1749.34,66.40,55.20,67.19,130.00,5.00,0.00,30.30,M,7.00,M,SCT,BKN,OVC,M,3800.00,6500.00,10000.00,M,-RA,M,M,M,M,M,M,66.40,KTMT 190735Z AUTO 13005KT 7SM -RA SCT038 BKN065 OVC100 19/13 A3030 RMK AO2 T01910129,M
EKO,2022-07-19 07:53,-115.7860,40.8242,1367.00,78.80,48.20,34.13,260.00,14.00,0.00,30.19,M,10.00,M,CLR,M,M,M,M,M,M,M,M,M,M,M,M,M,M,78.80,KEKO 190753Z AUTO 26014KT 10SM CLR 26/09 A3019 RMK AO2 WSHFT 0733,M
ELY,2022-07-19 07:53,-114.8453,39.2950,1909.00,70.00,46.00,42.20,0.00,0.00,0.00,30.30,1013.60,10.00,M,FEW,M,M,M,12000.00,M,M,M,M,M,M,M,M,M,M,70.00,KELY 190753Z AUTO 00000KT 10SM FEW120 21/08 A3030 RMK AO2 SLP136 T02110078,M
P68,2022-07-19 07:53,-116.0056,39.6014,1993.00,70.00,51.00,51.07,260.00,10.00,0.00,30.27,1015.40,M,M,M,M,M,M,M,M,M,M,M,M,M,M,M,M,M,70.00,KP68 190753Z AUTO 26010KT 21/11 A3027 RMK AO1 SLP154 T02110106 403220156,M
DRA,2022-07-19 07:53,-116.0278,36.6206,1009.00,82.00,50.00,32.88,0.00,0.00,0.00,30.05,1011.90,10.00,M,CLR,M,M,M,M,M,M,M,M,M,M,M,M,M,M,80.73,KDRA 190753Z AUTO 00000KT 10SM CLR 28/10 A3005 RMK AO2 SLP119 T02780100 403940250,M
LOL,2022-07-19 07:53,-118.5701,40.0684,1192.43,69.00,60.00,73.03,0.00,0.00,0.00,30.12,1015.10,10.00,M,CLR,M,M,M,M,M,M,M,M,M,M,M,M,M,M,69.10,KLOL 190753Z AUTO 00000KT 10SM CLR 21/16 A3012 RMK AO2 SLP151 T02060156 403720183,M
VGT,2022-07-19 07:53,-115.1933,36.2111,667.00,92.00,52.00,25.84,340.00,5.00,0.00,29.94,1012.10,10.00,M,CLR,M,M,M,M,M,M,M,M,M,M,M,M,M,M,89.21,KVGT 190753Z AUTO 34005KT 10SM CLR 33/11 A2994 RMK AO2 SLP121 T03330111 404110317,M
MEV,2022-07-19 07:55,-119.7500,38.9963,1441.42,62.60,46.40,55.37,0.00,0.00,0.00,30.20,M,10.00,M,OVC,M,M,M,5000.00,M,M,M,M,M,M,M,M,M,M,62.60,KMEV 190755Z AUTO 00000KT 10SM OVC050 17/08 A3020 RMK AO2,M
BVU,2022-07-19 07:55,-114.8611,35.9475,671.00,M,M,M,M,M,0.00,M,M,M,M,M,M,M,M,M,M,M,M,M,M,M,M,M,M,M,M,KBVU 190755Z AUTO RMK AO2 PNO PWINO TSNO,M
CXP,2022-07-19 07:55,-119.7326,39.1923,1431.00,73.40,50.00,43.69,0.00,0.00,0.00,30.21,M,10.00,M,BKN,BKN,M,M,6000.00,11000.00,M,M,M,M,M,M,M,M,M,73.40,KCXP 190755Z AUTO 00000KT 10SM BKN060 BKN110 23/10 A3021 RMK AO2,M
RNO,2022-07-19 07:55,-119.7711,39.4839,1341.00,78.00,46.00,32.15,30.00,4.00,0.00,30.17,1014.60,10.00,M,SCT,BKN,M,M,10000.00,14000.00,M,M,M,M,M,M,M,M,M,78.10,KRNO 190755Z 03004KT 10SM SCT100 BKN140 26/08 A3017 RMK AO2 SLP146 T02560078 403670206,M
RTS,2022-07-19 07:55,-119.8764,39.6682,1539.00,73.40,41.00,31.05,310.00,8.00,0.00,30.23,M,10.00,M,CLR,M,M,M,M,M,M,M,M,M,M,M,M,M,M,73.40,KRTS 190755Z AUTO 31008KT 10SM CLR 23/05 A3023 RMK AO2,M
05U,2022-07-19 07:55,-116.0051,39.6042,1811.23,69.80,51.80,52.77,270.00,6.00,0.00,30.30,M,10.00,11.00,OVC,M,M,M,10000.00,M,M,M,M,M,M,M,M,M,M,69.80,K05U 190755Z AUTO 27006G11KT 10SM OVC100 21/11 A3030 RMK A01,M
BAM,2022-07-19 07:55,-116.8743,40.5990,1382.36,M,M,M,200.00,12.00,0.00,30.15,M,10.00,M,SCT,OVC,M,M,9000.00,11000.00,M,M,M,M,M,M,M,M,M,M,KBAM 190755Z AUTO 20012KT 10SM SCT090 OVC110 A3015 RMK AO1,M
HTH,2022-07-19 07:55,-118.6315,38.5448,1282.89,78.80,53.60,41.69,360.00,6.00,0.00,30.16,M,10.00,M,BKN,M,M,M,11000.00,M,M,M,M,M,M,M,M,M,M,78.80,KHTH 190755Z AUTO 36006KT 10SM BKN110 26/12 A3016 RMK A01,M
TMT,2022-07-19 07:55,-117.1971,39.4643,1749.34,M,M,M,0.00,0.00,0.01,30.30,M,10.00,M,SCT,SCT,BKN,M,4000.00,5000.00,12000.00,M,M,M,M,M,M,M,M,M,KTMT 190755Z AUTO 00000KT 10SM SCT040 SCT050 BKN120 A3030 RMK AO2 P0001,M
WMC,2022-07-19 07:56,-117.8072,40.9019,1315.00,71.00,49.00,45.33,M,5.00,0.00,30.13,1014.50,10.00,M,CLR,M,M,M,M,M,M,M,M,M,M,M,M,M,M,71.10,KWMC 190756Z AUTO VRB05KT 10SM CLR 22/09 A3013 RMK AO2 SLP145 T02170094 403610183 TSNO,M
LAS,2022-07-19 07:56,-115.1634,36.0719,663.00,87.00,62.00,43.27,200.00,6.00,0.00,29.94,1010.80,10.00,M,CLR,M,M,M,M,M,M,M,M,M,M,M,M,M,M,87.58,KLAS 190756Z 20006KT 10SM CLR 31/17 A2994 RMK AO2 SLP108 T03060167 404000306,M
EKO,2022-07-19 07:56,-115.7860,40.8242,1367.00,78.00,48.00,34.67,250.00,13.00,0.00,30.19,1014.70,10.00,M,CLR,M,M,M,M,M,M,M,M,M,M,M,M,M,M,78.10,KEKO 190756Z AUTO 25013KT 10SM CLR 26/09 A3019 RMK AO2 WSHFT 0733 SLP147 T02560089 403670211,M
HND,2022-07-19 07:56,-115.1344,35.9729,742.79,82.00,64.00,54.50,170.00,8.00,0.00,29.99,M,10.00,M,CLR,M,M,M,M,M,M,M,M,M,M,M,M,M,M,83.47,KHND 190756Z AUTO 17008KT 10SM CLR 28/18 A2999 RMK AO2 SLPNO T02780178 PNO $,M
NFL,2022-07-19 07:56,-118.7010,39.4166,1199.00,73.00,57.00,57.23,220.00,4.00,0.00,30.13,1016.80,10.00,M,BKN,M,M,M,12000.00,M,M,M,M,M,M,M,M,M,M,73.00,KNFL 190756Z AUTO 22004KT 10SM BKN120 23/14 A3013 RMK AO2 SLP168 T02280139 403830206,M
TPH,2022-07-19 07:56,-117.0904,38.0505,1654.00,73.00,52.00,47.69,90.00,6.00,0.00,30.25,1014.80,10.00,M,FEW,M,M,M,10000.00,M,M,M,M,M,M,M,M,M,M,73.00,KTPH 190756Z AUTO 09006KT 10SM FEW100 23/11 A3025 RMK AO2 SLP148 T02280111 403500200,M
LSV,2022-07-19 07:58,-115.0343,36.2362,570.00,90.00,56.00,31.85,80.00,6.00,0.00,29.91,1009.80,10.00,M,CLR,M,M,M,M,M,M,M,M,M,M,M,M,M,M,88.35,KLSV 190758Z AUTO 08006KT 10SM CLR 32/13 A2991 RMK AO2 SLP098 T03220134 404360310 $,M
INS,2022-07-19 07:58,-115.6733,36.5872,955.00,76.00,65.30,69.70,260.00,6.00,0.00,30.05,1012.30,10.00,M,SCT,M,M,M,11000.00,M,M,M,M,M,M,M,M,M,M,75.90,KINS 190758Z AUTO 26006KT 10SM SCT110 24/19 A3005 RMK AO2 SLP123 T02440185 403850244 $,M
TMT,2022-07-19 08:15,-117.1971,39.4643,1749.34,M,M,M,0.00,0.00,0.00,30.29,M,10.00,M,SCT,SCT,BKN,M,7000.00,8000.00,12000.00,M,M,M,M,M,M,M,M,M,KTMT 190815Z AUTO 00000KT 10SM SCT070 SCT080 BKN120 A3029 RMK AO2,M
BAM,2022-07-19 08:15,-116.8743,40.5990,1382.36,M,M,M,210.00,9.00,0.00,30.15,M,10.00,M,OVC,M,M,M,12000.00,M,M,M,M,M,M,M,M,M,M,M,KBAM 190815Z AUTO 21009KT 10SM OVC120 A3015 RMK AO1,M
BVU,2022-07-19 08:15,-114.8611,35.9475,671.00,M,M,M,M,M,0.00,M,M,M,M,M,M,M,M,M,M,M,M,M,M,M,M,M,M,M,M,KBVU 190815Z AUTO RMK AO2 PNO PWINO TSNO,M
MEV,2022-07-19 08:15,-119.7500,38.9963,1441.42,64.40,42.80,45.32,100.00,4.00,0.00,30.20,M,10.00,M,FEW,BKN,BKN,M,4300.00,5000.00,5500.00,M,M,M,M,M,M,M,M,64.40,KMEV 190815Z AUTO 10004KT 10SM FEW043 BKN050 BKN055 18/06 A3020 RMK AO2,M
RTS,2022-07-19 08:15,-119.8764,39.6682,1539.00,71.60,41.00,33.00,310.00,5.00,0.00,30.23,M,10.00,M,CLR,M,M,M,M,M,M,M,M,M,M,M,M,M,M,71.60,KRTS 190815Z AUTO 31005KT 10SM CLR 22/05 A3023 RMK AO2,M
CXP,2022-07-19 08:15,-119.7326,39.1923,1431.00,73.40,50.00,43.69,0.00,0.00,0.00,30.21,M,10.00,M,SCT,M,M,M,6000.00,M,M,M,M,M,M,M,M,M,M,73.40,KCXP 190815Z AUTO 00000KT 10SM SCT060 23/10 A3021 RMK AO2,M
05U,2022-07-19 08:15,-116.0051,39.6042,1811.23,69.80,51.80,52.77,0.00,0.00,0.00,30.30,M,10.00,M,OVC,M,M,M,10000.00,M,M,M,M,M,M,M,M,M,M,69.80,K05U 190815Z AUTO 00000KT 10SM OVC100 21/11 A3030 RMK A01,M
HTH,2022-07-19 08:15,-118.6315,38.5448,1282.89,78.80,53.60,41.69,340.00,7.00,0.00,30.16,M,10.00,M,FEW,M,M,M,12000.00,M,M,M,M,M,M,M,M,M,M,78.80,KHTH 190815Z AUTO 34007KT 10SM FEW120 26/12 A3016 RMK A01,M
05U,2022-07-19 08:35,-116.0051,39.6042,1811.23,69.80,51.80,52.77,0.00,0.00,0.00,30.30,M,10.00,M,OVC,M,M,M,11000.00,M,M,M,M,M,M,M,M,M,M,69.80,K05U 190835Z AUTO 00000KT 10SM OVC110 21/11 A3030 RMK A01,M
RTS,2022-07-19 08:35,-119.8764,39.6682,1539.00,68.00,41.00,37.32,320.00,8.00,0.00,30.22,M,10.00,M,CLR,M,M,M,M,M,M,M,M,M,M,M,M,M,M,68.00,KRTS 190835Z AUTO 32008KT 10SM CLR 20/05 A3022 RMK AO2,M
MEV,2022-07-19 08:35,-119.7500,38.9963,1441.42,62.60,42.80,48.28,0.00,0.00,0.00,30.20,M,10.00,M,FEW,SCT,OVC,M,4300.00,5500.00,11000.00,M,M,M,M,M,M,M,M,62.60,KMEV 190835Z AUTO 00000KT 10SM FEW043 SCT055 OVC110 17/06 A3020 RMK AO2,M
BAM,2022-07-19 08:35,-116.8743,40.5990,1382.36,M,M,M,240.00,5.00,0.00,30.15,M,10.00,M,OVC,M,M,M,12000.00,M,M,M,M,M,M,M,M,M,M,M,KBAM 190835Z AUTO 24005KT 10SM OVC120 A3015 RMK AO1,M
CXP,2022-07-19 08:35,-119.7326,39.1923,1431.00,69.80,48.20,46.16,70.00,3.00,0.00,30.21,M,10.00,M,CLR,M,M,M,M,M,M,M,M,M,M,M,M,M,M,69.80,KCXP 190835Z AUTO 07003KT 10SM CLR 21/09 A3021 RMK AO2,M
HTH,2022-07-19 08:35,-118.6315,38.5448,1282.89,77.00,53.60,44.25,320.00,6.00,0.00,30.16,M,10.00,M,M,M,M,M,M,M,M,M,M,M,M,M,M,M,M,77.00,KHTH 190835Z AUTO 32006KT 10SM 25/12 A3016 RMK A01,M
BVU,2022-07-19 08:35,-114.8611,35.9475,671.00,M,M,M,M,M,0.00,M,M,M,M,M,M,M,M,M,M,M,M,M,M,M,M,M,M,M,M,KBVU 190835Z AUTO RMK AO2 PNO PWINO TSNO,M
TMT,2022-07-19 08:35,-117.1971,39.4643,1749.34,M,M,M,0.00,0.00,0.00,30.29,M,10.00,M,SCT,SCT,M,M,10000.00,12000.00,M,M,M,M,M,M,M,M,M,M,KTMT 190835Z AUTO 00000KT 10SM SCT100 SCT120 A3029 RMK AO2,M
VGT,2022-07-19 08:53,-115.1933,36.2111,667.00,92.00,55.00,28.84,320.00,9.00,0.00,29.94,1012.10,10.00,M,CLR,M,M,M,M,M,M,M,M,M,M,M,M,M,M,89.92,KVGT 190853Z AUTO 32009KT 10SM CLR 33/13 A2994 RMK AO2 SLP121 T03330128 51003,M
ELY,2022-07-19 08:53,-114.8453,39.2950,1909.00,70.00,50.00,49.03,210.00,5.00,T,30.31,1014.00,10.00,M,FEW,BKN,BKN,M,7000.00,8500.00,11000.00,M,M,M,M,M,M,M,M,70.00,KELY 190853Z AUTO 21005KT 10SM FEW070 BKN085 BKN110 21/10 A3031 RMK AO2 RAB23E39 SLP140 P0000 60000 T02110100 51012,M
DRA,2022-07-19 08:53,-116.0278,36.6206,1009.00,84.00,52.00,33.19,60.00,6.00,0.00,30.05,1011.50,10.00,M,CLR,M,M,M,M,M,M,M,M,M,M,M,M,M,M,82.36,KDRA 190853Z AUTO 06006KT 10SM CLR 29/11 A3005 RMK AO2 SLP115 T02890111 50004,M
LOL,2022-07-19 08:53,-118.5701,40.0684,1192.43,67.00,59.00,75.74,90.00,6.00,0.00,30.13,1015.60,10.00,M,CLR,M,M,M,M,M,M,M,M,M,M,M,M,M,M,66.90,KLOL 190853Z AUTO 09006KT 10SM CLR 19/15 A3013 RMK AO2 SLP156 T01940150 51006,M
P68,2022-07-19 08:53,-116.0056,39.6014,1993.00,68.00,52.00,56.55,200.00,8.00,0.00,30.27,1016.00,M,M,M,M,M,M,M,M,M,M,M,M,M,M,M,M,M,68.00,KP68 190853Z AUTO 20008KT 20/11 A3027 RMK AO1 SLP160 T02000111 50005,M
BAM,2022-07-19 08:55,-116.8743,40.5990,1382.36,M,M,M,230.00,4.00,0.00,30.15,M,10.00,M,OVC,M,M,M,12000.00,M,M,M,M,M,M,M,M,M,M,M,KBAM 190855Z AUTO 23004KT 10SM OVC120 A3015 RMK AO1,M
MEV,2022-07-19 08:55,-119.7500,38.9963,1441.42,64.40,44.60,48.55,110.00,5.00,0.00,30.20,M,10.00,M,OVC,M,M,M,11000.00,M,M,M,M,M,M,M,M,M,M,64.40,KMEV 190855Z AUTO 11005KT 10SM OVC110 18/07 A3020 RMK AO2,M
05U,2022-07-19 08:55,-116.0051,39.6042,1811.23,68.00,51.80,56.13,200.00,4.00,0.00,30.30,M,10.00,M,FEW,OVC,M,M,7000.00,11000.00,M,M,M,M,M,M,M,M,M,68.00,K05U 190855Z AUTO 20004KT 10SM FEW070 OVC110 20/11 A3030 RMK A01,M
RTS,2022-07-19 08:55,-119.8764,39.6682,1539.00,68.00,41.00,37.32,320.00,5.00,0.00,30.23,M,10.00,M,CLR,M,M,M,M,M,M,M,M,M,M,M,M,M,M,68.00,KRTS 190855Z AUTO 32005KT 10SM CLR 20/05 A3023 RMK AO2,M
CXP,2022-07-19 08:55,-119.7326,39.1923,1431.00,69.80,46.40,43.13,0.00,0.00,0.00,30.21,M,10.00,M,FEW,M,M,M,5000.00,M,M,M,M,M,M,M,M,M,M,69.80,KCXP 190855Z AUTO 00000KT 10SM FEW050 21/08 A3021 RMK AO2,M
RNO,2022-07-19 08:55,-119.7711,39.4839,1341.00,77.00,46.00,33.34,50.00,4.00,0.00,30.17,1014.60,10.00,M,SCT,M,M,M,14000.00,M,M,M,M,M,M,M,M,M,M,77.00,KRNO 190855Z 05004KT 10SM SCT140 25/08 A3017 RMK AO2 SLP146 T02500078 51005,M
BVU,2022-07-19 08:55,-114.8611,35.9475,671.00,M,M,M,M,M,0.00,M,M,M,M,M,M,M,M,M,M,M,M,M,M,M,M,M,M,M,M,KBVU 190855Z AUTO RMK AO2 PNO PWINO TSNO,M
TMT,2022-07-19 08:55,-117.1971,39.4643,1749.34,M,M,M,0.00,0.00,0.00,30.29,M,10.00,M,CLR,M,M,M,M,M,M,M,M,M,M,M,M,M,M,M,KTMT 190855Z AUTO 00000KT 10SM CLR A3029 RMK AO2 60001,M
HTH,2022-07-19 08:55,-118.6315,38.5448,1282.89,77.00,53.60,44.25,0.00,0.00,0.00,30.16,M,10.00,M,M,M,M,M,M,M,M,M,M,M,M,M,M,M,M,77.00,KHTH 190855Z AUTO 00000KT 10SM 25/12 A3016 RMK A01,M
LAS,2022-07-19 08:56,-115.1634,36.0719,663.00,87.00,59.00,38.75,320.00,4.00,0.00,29.95,1010.90,10.00,M,CLR,M,M,M,M,M,M,M,M,M,M,M,M,M,M,86.47,KLAS 190856Z 32004KT 10SM CLR 31/15 A2995 RMK AO2 SLP109 T03060150 53002,M
EKO,2022-07-19 08:56,-115.7860,40.8242,1367.00,75.00,48.00,38.43,300.00,3.00,0.00,30.19,1014.80,10.00,M,FEW,M,M,M,11000.00,M,M,M,M,M,M,M,M,M,M,75.00,KEKO 190856Z AUTO 30003KT 10SM FEW110 24/09 A3019 RMK AO2 SLP148 T02390089 51005,M
WMC,2022-07-19 08:56,-117.8072,40.9019,1315.00,73.00,48.00,41.10,140.00,8.00,0.00,30.13,1015.30,10.00,M,CLR,M,M,M,M,M,M,M,M,M,M,M,M,M,M,73.00,KWMC 190856Z AUTO 14008KT 10SM CLR 23/09 A3013 RMK AO2 SLP153 T02280089 51008 TSNO,M
HND,2022-07-19 08:56,-115.1344,35.9729,742.79,82.00,63.00,52.62,200.00,7.00,0.00,29.99,1013.50,10.00,M,CLR,M,M,M,M,M,M,M,M,M,M,M,M,M,M,83.17,KHND 190856Z AUTO 20007KT 10SM CLR 28/17 A2999 RMK AO2 SLP135 6//// T02780172 56001 PNO $,M
NFL,2022-07-19 08:56,-118.7010,39.4166,1199.00,70.00,59.00,68.09,200.00,3.00,0.00,30.13,1016.80,10.00,M,CLR,M,M,M,M,M,M,M,M,M,M,M,M,M,M,70.00,KNFL 190856Z AUTO 20003KT 10SM CLR 21/15 A3013 RMK AO2 SLP168 T02110150 50005,M
TPH,2022-07-19 08:56,-117.0904,38.0505,1654.00,68.00,52.00,56.55,310.00,4.00,0.00,30.24,1014.90,10.00,M,CLR,M,M,M,M,M,M,M,M,M,M,M,M,M,M,68.00,KTPH 190856Z AUTO 31004KT 10SM CLR 20/11 A3024 RMK AO2 SLP149 60000 T02000111 56000,M
LSV,2022-07-19 08:58,-115.0343,36.2362,570.00,88.20,55.40,32.87,0.00,0.00,0.00,29.91,1009.80,10.00,M,CLR,M,M,M,M,M,M,M,M,M,M,M,M,M,M,86.48,KLSV 190858Z AUTO 00000KT 10SM CLR 31/13 A2991 RMK AO2 SLP098 T03120130 53002 $,M
INS,2022-07-19 08:58,-115.6733,36.5872,955.00,75.00,64.60,70.09,290.00,3.00,0.00,30.05,1012.20,10.00,M,CLR,M,M,M,M,M,M,M,M,M,M,M,M,M,M,75.00,KINS 190858Z AUTO 29003KT 10SM CLR 24/18 A3005 RMK AO2 SLP122 T02390181 51006 $,M
05U,2022-07-19 09:15,-116.0051,39.6042,1811.23,68.00,51.80,56.13,190.00,5.00,0.00,30.30,M,10.00,M,SCT,M,M,M,11000.00,M,M,M,M,M,M,M,M,M,M,68.00,K05U 190915Z AUTO 19005KT 10SM SCT110 20/11 A3030 RMK A01,M
TMT,2022-07-19 09:15,-117.1971,39.4643,1749.34,M,M,M,270.00,4.00,0.00,30.28,M,10.00,M,SCT,M,M,M,10000.00,M,M,M,M,M,M,M,M,M,M,M,KTMT 190915Z AUTO 27004KT 10SM SCT100 A3028 RMK AO2,M
RTS,2022-07-19 09:15,-119.8764,39.6682,1539.00,68.00,41.00,37.32,330.00,4.00,0.00,30.23,M,10.00,M,CLR,M,M,M,M,M,M,M,M,M,M,M,M,M,M,68.00,KRTS 190915Z AUTO 33004KT 10SM CLR 20/05 A3023 RMK AO2,M
BAM,2022-07-19 09:15,-116.8743,40.5990,1382.36,M,M,M,110.00,3.00,0.00,30.15,M,10.00,M,OVC,M,M,M,11000.00,M,M,M,M,M,M,M,M,M,M,M,KBAM 190915Z AUTO 11003KT 10SM OVC110 A3015 RMK AO1,M
CXP,2022-07-19 09:15,-119.7326,39.1923,1431.00,69.80,44.60,40.29,330.00,4.00,0.00,30.21,M,10.00,M,SCT,M,M,M,11000.00,M,M,M,M,M,M,M,M,M,M,69.80,KCXP 190915Z AUTO 33004KT 10SM SCT110 21/07 A3021 RMK AO2,M
BVU,2022-07-19 09:15,-114.8611,35.9475,671.00,M,M,M,M,M,0.00,M,M,M,M,M,M,M,M,M,M,M,M,M,M,M,M,M,M,M,M,KBVU 190915Z AUTO RMK AO2 PNO PWINO TSNO,M
HTH,2022-07-19 09:15,-118.6315,38.5448,1282.89,77.00,55.40,47.25,0.00,0.00,0.00,30.16,M,10.00,M,CLR,M,M,M,M,M,M,M,M,M,M,M,M,M,M,77.00,KHTH 190915Z AUTO 00000KT 10SM CLR 25/13 A3016 RMK A01,M
MEV,2022-07-19 09:15,-119.7500,38.9963,1441.42,60.80,44.60,55.12,100.00,4.00,0.00,30.20,M,10.00,M,OVC,M,M,M,11000.00,M,M,M,M,M,M,M,M,M,M,60.80,KMEV 190915Z AUTO 10004KT 10SM OVC110 16/07 A3020 RMK AO2,M
05U,2022-07-19 09:35,-116.0051,39.6042,1811.23,69.80,50.00,49.37,0.00,0.00,0.00,30.30,M,10.00,M,CLR,M,M,M,M,M,M,M,M,M,M,M,M,M,M,69.80,K05U 190935Z AUTO 00000KT 10SM CLR 21/10 A3030 RMK A01,M
RTS,2022-07-19 09:35,-119.8764,39.6682,1539.00,68.00,41.00,37.32,350.00,3.00,0.00,30.23,M,10.00,M,CLR,M,M,M,M,M,M,M,M,M,M,M,M,M,M,68.00,KRTS 190935Z AUTO 35003KT 10SM CLR 20/05 A3023 RMK AO2,M
BVU,2022-07-19 09:35,-114.8611,35.9475,671.00,M,M,M,M,M,0.00,M,M,M,M,M,M,M,M,M,M,M,M,M,M,M,M,M,M,M,M,KBVU 190935Z AUTO RMK AO2 PNO PWINO TSNO,M
MEV,2022-07-19 09:35,-119.7500,38.9963,1441.42,60.80,42.80,51.45,120.00,4.00,0.00,30.20,M,10.00,M,FEW,BKN,M,M,6000.00,11000.00,M,M,M,M,M,M,M,M,M,60.80,KMEV 190935Z AUTO 12004KT 10SM FEW060 BKN110 16/06 A3020 RMK AO2,M
BAM,2022-07-19 09:35,-116.8743,40.5990,1382.36,M,M,M,240.00,4.00,0.00,30.16,M,10.00,M,OVC,M,M,M,12000.00,M,M,M,M,M,M,M,M,M,M,M,KBAM 190935Z AUTO 24004KT 10SM OVC120 A3016 RMK AO1,M
HTH,2022-07-19 09:35,-118.6315,38.5448,1282.89,77.00,53.60,44.25,230.00,4.00,0.00,30.15,M,10.00,M,CLR,M,M,M,M,M,M,M,M,M,M,M,M,M,M,77.00,KHTH 190935Z AUTO 23004KT 10SM CLR 25/12 A3015 RMK A01,M
CXP,2022-07-19 09:35,-119.7326,39.1923,1431.00,68.00,44.60,42.85,0.00,0.00,0.00,30.21,M,10.00,M,SCT,M,M,M,11000.00,M,M,M,M,M,M,M,M,M,M,68.00,KCXP 190935Z AUTO 00000KT 10SM SCT110 20/07 A3021 RMK AO2,M
TMT,2022-07-19 09:35,-117.1971,39.4643,1749.34,M,M,M,210.00,3.00,0.00,30.28,M,10.00,M,SCT,M,M,M,10000.00,M,M,M,M,M,M,M,M,M,M,M,KTMT 190935Z AUTO 21003KT 10SM SCT100 A3028 RMK AO2,M
DRA,2022-07-19 09:53,-116.0278,36.6206,1009.00,82.00,54.00,38.11,40.00,10.00,0.00,30.05,1011.50,10.00,M,CLR,M,M,M,M,M,M,M,M,M,M,M,M,M,M,81.24,KDRA 190953Z AUTO 04010KT 10SM CLR 28/12 A3005 RMK AO2 SLP115 T02780122,M
LOL,2022-07-19 09:53,-118.5701,40.0684,1192.43,68.00,59.00,72.92,50.00,3.00,0.00,30.13,1015.40,10.00,M,FEW,M,M,M,12000.00,M,M,M,M,M,M,M,M,M,M,68.00,KLOL 190953Z AUTO 05003KT 10SM FEW120 20/15 A3013 RMK AO2 SLP154 T02000150,M
P68,2022-07-19 09:53,-116.0056,39.6014,1993.00,68.00,51.00,54.70,210.00,3.00,0.00,30.27,1015.70,M,M,M,M,M,M,M,M,M,M,M,M,M,M,M,M,M,68.00,KP68 190953Z AUTO 21003KT 20/11 A3027 RMK AO1 SLP157 T02000106,M
ELY,2022-07-19 09:53,-114.8453,39.2950,1909.00,68.00,50.00,52.51,0.00,0.00,0.00,30.31,1013.90,10.00,M,FEW,M,M,M,11000.00,M,M,M,M,M,M,M,M,M,M,68.00,KELY 190953Z AUTO 00000KT 10SM FEW110 20/10 A3031 RMK AO2 SLP139 T02000100,M
VGT,2022-07-19 09:53,-115.1933,36.2111,667.00,92.00,54.00,27.80,310.00,13.00,0.00,29.94,1012.10,10.00,M,CLR,M,M,M,M,M,M,M,M,M,M,M,M,M,M,89.66,KVGT 190953Z AUTO 31013KT 10SM CLR 33/12 A2994 RMK AO2 SLP121 T03330122,M
CXP,2022-07-19 09:55,-119.7326,39.1923,1431.00,68.00,44.60,42.85,0.00,0.00,0.00,30.21,M,10.00,M,FEW,M,M,M,10000.00,M,M,M,M,M,M,M,M,M,M,68.00,KCXP 190955Z AUTO 00000KT 10SM FEW100 20/07 A3021 RMK AO2,M
BVU,2022-07-19 09:55,-114.8611,35.9475,671.00,M,M,M,M,M,0.00,M,M,M,M,M,M,M,M,M,M,M,M,M,M,M,M,M,M,M,M,KBVU 190955Z AUTO RMK AO2 PNO PWINO TSNO,M
RNO,2022-07-19 09:55,-119.7711,39.4839,1341.00,76.00,46.00,34.58,320.00,3.00,0.00,30.17,1014.70,10.00,M,SCT,M,M,M,14000.00,M,M,M,M,M,M,M,M,M,M,75.90,KRNO 190955Z 32003KT 10SM SCT140 24/08 A3017 RMK AO2 SLP147 T02440078,M
RTS,2022-07-19 09:55,-119.8764,39.6682,1539.00,66.20,39.20,37.03,350.00,4.00,0.00,30.23,M,10.00,M,CLR,M,M,M,M,M,M,M,M,M,M,M,M,M,M,66.20,KRTS 190955Z AUTO 35004KT 10SM CLR 19/04 A3023 RMK AO2,M
05U,2022-07-19 09:55,-116.0051,39.6042,1811.23,68.00,51.80,56.13,0.00,0.00,0.00,30.30,M,10.00,M,CLR,M,M,M,M,M,M,M,M,M,M,M,M,M,M,68.00,K05U 190955Z AUTO 00000KT 10SM CLR 20/11 A3030 RMK A01,M
MEV,2022-07-19 09:55,-119.7500,38.9963,1441.42,62.60,44.60,51.72,110.00,4.00,0.00,30.20,M,10.00,M,OVC,M,M,M,11000.00,M,M,M,M,M,M,M,M,M,M,62.60,KMEV 190955Z AUTO 11004KT 10SM OVC110 17/07 A3020 RMK AO2,M
BAM,2022-07-19 09:55,-116.8743,40.5990,1382.36,M,M,M,260.00,11.00,0.00,30.17,M,10.00,M,SCT,M,M,M,12000.00,M,M,M,M,M,M,M,M,M,M,M,KBAM 190955Z AUTO 26011KT 10SM SCT120 A3017 RMK AO1,M
HTH,2022-07-19 09:55,-118.6315,38.5448,1282.89,75.20,50.00,41.14,220.00,5.00,0.00,30.15,M,10.00,M,CLR,M,M,M,M,M,M,M,M,M,M,M,M,M,M,75.20,KHTH 190955Z AUTO 22005KT 10SM CLR 24/10 A3015 RMK A01,M
TMT,2022-07-19 09:55,-117.1971,39.4643,1749.34,M,M,M,210.00,4.00,0.00,30.28,M,10.00,M,SCT,M,M,M,12000.00,M,M,M,M,M,M,M,M,M,M,M,KTMT 190955Z AUTO 21004KT 10SM SCT120 A3028 RMK AO2,M
TPH,2022-07-19 09:56,-117.0904,38.0505,1654.00,65.00,53.00,65.56,330.00,5.00,0.00,30.24,1015.60,10.00,M,CLR,M,M,M,M,M,M,M,M,M,M,M,M,M,M,64.90,KTPH 190956Z AUTO 33005KT 10SM CLR 18/12 A3024 RMK AO2 SLP156 T01830117,M
LAS,2022-07-19 09:56,-115.1634,36.0719,663.00,88.00,59.00,37.66,160.00,4.00,0.00,29.95,1011.30,10.00,M,CLR,M,M,M,M,M,M,M,M,M,M,M,M,M,M,87.31,KLAS 190956Z 16004KT 10SM CLR 31/15 A2995 RMK AO2 SLP113 T03110150,M
WMC,2022-07-19 09:56,-117.8072,40.9019,1315.00,74.00,48.00,39.87,170.00,6.00,0.00,30.14,1015.10,10.00,M,CLR,M,M,M,M,M,M,M,M,M,M,M,M,M,M,73.90,KWMC 190956Z AUTO 17006KT 10SM CLR 23/09 A3014 RMK AO2 SLP151 T02330089 TSNO,M
EKO,2022-07-19 09:56,-115.7860,40.8242,1367.00,70.00,48.00,45.50,150.00,4.00,0.00,30.20,1015.50,10.00,M,SCT,M,M,M,11000.00,M,M,M,M,M,M,M,M,M,M,70.00,KEKO 190956Z AUTO 15004KT 10SM SCT110 21/09 A3020 RMK AO2 SLP155 T02110089,M
HND,2022-07-19 09:56,-115.1344,35.9729,742.79,84.00,60.00,44.51,150.00,6.00,0.00,29.99,1014.20,10.00,M,CLR,M,M,M,M,M,M,M,M,M,M,M,M,M,M,84.05,KHND 190956Z AUTO 15006KT 10SM CLR 29/16 A2999 RMK AO2 SLP142 T02890156 PNO $,M
INS,2022-07-19 09:58,-115.6733,36.5872,955.00,74.80,63.50,67.90,0.00,0.00,0.00,30.05,1012.20,10.00,M,CLR,M,M,M,M,M,M,M,M,M,M,M,M,M,M,74.80,KINS 190958Z AUTO 00000KT 10SM CLR 24/18 A3005 RMK AO2 SLP122 T02380175 $,M
LSV,2022-07-19 09:58,-115.0343,36.2362,570.00,88.00,56.00,33.93,0.00,0.00,0.00,29.92,1010.10,10.00,M,CLR,M,M,M,M,M,M,M,M,M,M,M,M,M,M,86.47,KLSV 190958Z AUTO 00000KT 10SM CLR 31/13 A2992 RMK AO2 SLP101 T03110134 $,M
05U,2022-07-19 10:15,-116.0051,39.6042,1811.23,66.20,51.80,59.74,0.00,0.00,0.00,30.30,M,10.00,M,CLR,M,M,M,M,M,M,M,M,M,M,M,M,M,M,66.20,K05U 191015Z AUTO 00000KT 10SM CLR 19/11 A3030 RMK A01,M
BAM,2022-07-19 10:15,-116.8743,40.5990,1382.36,M,M,M,240.00,11.00,0.00,30.17,M,10.00,15.00,BKN,M,M,M,11000.00,M,M,M,M,M,M,M,M,M,M,M,KBAM 191015Z AUTO 24011G15KT 10SM BKN110 A3017 RMK AO1,M
HTH,2022-07-19 10:15,-118.6315,38.5448,1282.89,75.20,51.80,43.97,230.00,5.00,0.00,30.15,M,10.00,M,FEW,M,M,M,11000.00,M,M,M,M,M,M,M,M,M,M,75.20,KHTH 191015Z AUTO 23005KT 10SM FEW110 24/11 A3015 RMK A01,M
TMT,2022-07-19 10:15,-117.1971,39.4643,1749.34,M,M,M,210.00,3.00,0.00,30.28,M,10.00,M,BKN,M,M,M,11000.00,M,M,M,M,M,M,M,M,M,M,M,KTMT 191015Z AUTO 21003KT 10SM BKN110 A3028 RMK AO2,M
MEV,2022-07-19 10:15,-119.7500,38.9963,1441.42,62.60,44.60,51.72,0.00,0.00,0.00,30.20,M,10.00,M,SCT,M,M,M,11000.00,M,M,M,M,M,M,M,M,M,M,62.60,KMEV 191015Z AUTO 00000KT 10SM SCT110 17/07 A3020 RMK AO2,M
BVU,2022-07-19 10:15,-114.8611,35.9475,671.00,M,M,M,M,M,0.00,M,M,M,M,M,M,M,M,M,M,M,M,M,M,M,M,M,M,M,M,KBVU 191015Z AUTO RMK AO2 PNO PWINO TSNO,M
CXP,2022-07-19 10:15,-119.7326,39.1923,1431.00,68.00,46.40,45.88,0.00,0.00,0.00,30.21,M,10.00,M,SCT,M,M,M,10000.00,M,M,M,M,M,M,M,M,M,M,68.00,KCXP 191015Z AUTO 00000KT 10SM SCT100 20/08 A3021 RMK AO2,M
RTS,2022-07-19 10:15,-119.8764,39.6682,1539.00,66.20,39.20,37.03,0.00,0.00,0.00,30.23,M,10.00,M,CLR,M,M,M,M,M,M,M,M,M,M,M,M,M,M,66.20,KRTS 191015Z AUTO 00000KT 10SM CLR 19/04 A3023 RMK AO2,M
CXP,2022-07-19 10:30,-119.7326,39.1923,1431.00,66.20,46.40,48.83,0.00,0.00,0.00,30.21,M,10.00,M,FEW,M,M,M,10000.00,M,M,M,M,M,M,M,M,M,M,66.20,KCXP 191030Z AUTO 00000KT 10SM FEW100 19/08 A3021 RMK AO2,M
RTS,2022-07-19 10:35,-119.8764,39.6682,1539.00,62.60,39.20,42.00,350.00,6.00,0.00,30.23,M,10.00,M,CLR,M,M,M,M,M,M,M,M,M,M,M,M,M,M,62.60,KRTS 191035Z AUTO 35006KT 10SM CLR 17/04 A3023 RMK AO2,M
MEV,2022-07-19 10:35,-119.7500,38.9963,1441.42,60.80,42.80,51.45,0.00,0.00,0.00,30.20,M,10.00,M,BKN,M,M,M,10000.00,M,M,M,M,M,M,M,M,M,M,60.80,KMEV 191035Z AUTO 00000KT 10SM BKN100 16/06 A3020 RMK AO2,M
BAM,2022-07-19 10:35,-116.8743,40.5990,1382.36,M,M,M,250.00,9.00,0.00,30.17,M,10.00,M,OVC,M,M,M,11000.00,M,M,M,M,M,M,M,M,M,M,M,KBAM 191035Z AUTO 25009KT 10SM OVC110 A3017 RMK AO1,M
TMT,2022-07-19 10:35,-117.1971,39.4643,1749.34,M,M,M,170.00,3.00,0.00,30.28,M,10.00,M,BKN,M,M,M,12000.00,M,M,M,M,M,M,M,M,M,M,M,KTMT 191035Z AUTO 17003KT 10SM BKN120 A3028 RMK AO2,M
HTH,2022-07-19 10:35,-118.6315,38.5448,1282.89,73.40,50.00,43.69,190.00,4.00,0.00,30.15,M,10.00,M,CLR,M,M,M,M,M,M,M,M,M,M,M,M,M,M,73.40,KHTH 191035Z AUTO 19004KT 10SM CLR 23/10 A3015 RMK A01,M
BVU,2022-07-19 10:35,-114.8611,35.9475,671.00,M,M,M,M,M,0.00,M,M,M,M,M,M,M,M,M,M,M,M,M,M,M,M,M,M,M,M,KBVU 191035Z AUTO RMK AO2 PNO PWINO TSNO,M
05U,2022-07-19 10:35,-116.0051,39.6042,1811.23,66.20,51.80,59.74,0.00,0.00,0.00,30.30,M,10.00,M,FEW,M,M,M,12000.00,M,M,M,M,M,M,M,M,M,M,66.20,K05U 191035Z AUTO 00000KT 10SM FEW120 19/11 A3030 RMK A01,M
ELY,2022-07-19 10:53,-114.8453,39.2950,1909.00,66.00,52.00,60.60,50.00,4.00,0.00,30.29,1013.80,10.00,M,CLR,M,M,M,M,M,M,M,M,M,M,M,M,M,M,66.00,KELY 191053Z AUTO 05004KT 10SM CLR 19/11 A3029 RMK AO2 SLP138 T01890111,M
LOL,2022-07-19 10:53,-118.5701,40.0684,1192.43,67.00,58.00,72.81,50.00,4.00,0.00,30.13,1015.70,10.00,M,FEW,M,M,M,11000.00,M,M,M,M,M,M,M,M,M,M,66.90,KLOL 191053Z AUTO 05004KT 10SM FEW110 19/14 A3013 RMK AO2 SLP157 T01940144,M
DRA,2022-07-19 10:53,-116.0278,36.6206,1009.00,80.00,53.00,39.23,30.00,5.00,0.00,30.05,1011.60,10.00,M,CLR,M,M,M,M,M,M,M,M,M,M,M,M,M,M,79.94,KDRA 191053Z AUTO 03005KT 10SM CLR 27/12 A3005 RMK AO2 SLP116 T02670117,M
P68,2022-07-19 10:53,-116.0056,39.6014,1993.00,64.00,51.00,62.85,200.00,5.00,0.00,30.28,1015.70,M,M,M,M,M,M,M,M,M,M,M,M,M,M,M,M,M,64.00,KP68 191053Z AUTO 20005KT 18/11 A3028 RMK AO1 SLP157 T01780106,M
VGT,2022-07-19 10:53,-115.1933,36.2111,667.00,90.00,54.00,29.51,330.00,6.00,0.00,29.95,1012.60,10.00,M,CLR,M,M,M,M,M,M,M,M,M,M,M,M,M,M,87.82,KVGT 191053Z AUTO 33006KT 10SM CLR 32/12 A2995 RMK AO2 SLP126 T03220122,M
BVU,2022-07-19 10:55,-114.8611,35.9475,671.00,M,M,M,M,M,0.00,M,M,M,M,M,M,M,M,M,M,M,M,M,M,M,M,M,M,M,M,KBVU 191055Z AUTO RMK AO2 PNO PWINO TSNO,M
CXP,2022-07-19 10:55,-119.7326,39.1923,1431.00,64.40,46.40,51.98,0.00,0.00,0.00,30.21,M,10.00,M,CLR,M,M,M,M,M,M,M,M,M,M,M,M,M,M,64.40,KCXP 191055Z AUTO 00000KT 10SM CLR 18/08 A3021 RMK AO2,M
RNO,2022-07-19 10:55,-119.7711,39.4839,1341.00,73.00,46.00,38.11,300.00,3.00,0.00,30.17,1015.10,10.00,M,SCT,M,M,M,14000.00,M,M,M,M,M,M,M,M,M,M,73.00,KRNO 191055Z 30003KT 10SM SCT140 23/08 A3017 RMK AO2 SLP151 T02280078,M
RTS,2022-07-19 10:55,-119.8764,39.6682,1539.00,62.60,39.20,42.00,350.00,4.00,0.00,30.23,M,10.00,M,FEW,M,M,M,11000.00,M,M,M,M,M,M,M,M,M,M,62.60,KRTS 191055Z AUTO 35004KT 10SM FEW110 17/04 A3023 RMK AO2,M
05U,2022-07-19 10:55,-116.0051,39.6042,1811.23,64.40,51.80,63.60,0.00,0.00,0.00,30.30,M,10.00,M,CLR,M,M,M,M,M,M,M,M,M,M,M,M,M,M,64.40,K05U 191055Z AUTO 00000KT 10SM CLR 18/11 A3030 RMK A01,M
MEV,2022-07-19 10:55,-119.7500,38.9963,1441.42,60.80,44.60,55.12,0.00,0.00,0.00,30.20,M,10.00,M,OVC,M,M,M,10000.00,M,M,M,M,M,M,M,M,M,M,60.80,KMEV 191055Z AUTO 00000KT 10SM OVC100 16/07 A3020 RMK AO2,M
BAM,2022-07-19 10:55,-116.8743,40.5990,1382.36,M,M,M,220.00,6.00,0.00,30.17,M,10.00,M,OVC,M,M,M,11000.00,M,M,M,M,M,M,M,M,M,M,M,KBAM 191055Z AUTO 22006KT 10SM OVC110 A3017 RMK AO1,M
HTH,2022-07-19 10:55,-118.6315,38.5448,1282.89,73.40,50.00,43.69,160.00,5.00,0.00,30.15,M,10.00,M,CLR,M,M,M,M,M,M,M,M,M,M,M,M,M,M,73.40,KHTH 191055Z AUTO 16005KT 10SM CLR 23/10 A3015 RMK A01,M
TMT,2022-07-19 10:55,-117.1971,39.4643,1749.34,M,M,M,0.00,0.00,0.00,30.28,M,10.00,M,SCT,M,M,M,12000.00,M,M,M,M,M,M,M,M,M,M,M,KTMT 191055Z AUTO 00000KT 10SM SCT120 A3028 RMK AO2,M
LAS,2022-07-19 10:56,-115.1634,36.0719,663.00,85.00,60.00,43.24,170.00,4.00,0.00,29.96,1011.50,10.00,M,CLR,M,M,M,M,M,M,M,M,M,M,M,M,M,M,84.83,KLAS 191056Z 17004KT 10SM CLR 29/16 A2996 RMK AO2 SLP115 T02940156,M
NFL,2022-07-19 10:56,-118.7010,39.4166,1199.00,66.00,56.00,69.88,0.00,0.00,0.00,30.13,1016.80,10.00,M,SCT,M,M,M,11000.00,M,M,M,M,M,M,M,M,M,M,66.00,KNFL 191056Z AUTO 00000KT 10SM SCT110 19/13 A3013 RMK AO2 SLP168 T01890133,M
WMC,2022-07-19 10:56,-117.8072,40.9019,1315.00,70.00,48.00,45.50,180.00,7.00,0.00,30.14,1015.20,10.00,M,CLR,M,M,M,M,M,M,M,M,M,M,M,M,M,M,70.00,KWMC 191056Z AUTO 18007KT 10SM CLR 21/09 A3014 RMK AO2 SLP152 T02110089 TSNO,M
HND,2022-07-19 10:56,-115.1344,35.9729,742.79,80.00,62.00,54.23,150.00,6.00,0.00,30.00,1014.30,10.00,M,CLR,M,M,M,M,M,M,M,M,M,M,M,M,M,M,81.31,KHND 191056Z AUTO 15006KT 10SM CLR 27/17 A3000 RMK AO2 SLP143 T02670167 PNO $,M
TPH,2022-07-19 10:56,-117.0904,38.0505,1654.00,65.00,53.00,65.56,350.00,6.00,0.00,30.25,1015.60,10.00,M,CLR,M,M,M,M,M,M,M,M,M,M,M,M,M,M,64.90,KTPH 191056Z AUTO 35006KT 10SM CLR 18/12 A3025 RMK AO2 SLP156 T01830117,M
EKO,2022-07-19 10:56,-115.7860,40.8242,1367.00,74.00,48.00,39.87,230.00,5.00,0.00,30.20,1015.30,10.00,M,BKN,M,M,M,11000.00,M,M,M,M,M,M,M,M,M,M,73.90,KEKO 191056Z AUTO 23005KT 10SM BKN110 23/09 A3020 RMK AO2 SLP153 T02330089,M
INS,2022-07-19 10:58,-115.6733,36.5872,955.00,73.00,63.50,72.13,240.00,7.00,0.00,30.05,1012.20,10.00,M,CLR,M,M,M,M,M,M,M,M,M,M,M,M,M,M,73.00,KINS 191058Z AUTO 24007KT 10SM CLR 23/18 A3005 RMK AO2 SLP122 T02280175 $,M
LSV,2022-07-19 10:58,-115.0343,36.2362,570.00,85.60,55.60,35.97,140.00,7.00,0.00,29.92,1010.30,10.00,M,CLR,M,M,M,M,M,M,M,M,M,M,M,M,M,M,84.25,KLSV 191058Z AUTO 14007KT 10SM CLR 30/13 A2992 RMK AO2 SLP103 T02980131 $,M
TMT,2022-07-19 11:15,-117.1971,39.4643,1749.34,60.60,56.00,84.48,0.00,0.00,0.00,30.28,M,10.00,M,CLR,M,M,M,M,M,M,M,M,M,M,M,M,M,M,60.60,KTMT 191115Z AUTO 00000KT 10SM CLR 16/13 A3028 RMK AO2 T01590133,M
BVU,2022-07-19 11:15,-114.8611,35.9475,671.00,M,M,M,M,M,0.00,M,M,M,M,M,M,M,M,M,M,M,M,M,M,M,M,M,M,M,M,KBVU 191115Z AUTO RMK AO2 PNO PWINO TSNO,M
CXP,2022-07-19 11:15,-119.7326,39.1923,1431.00,64.40,46.40,51.98,0.00,0.00,0.00,30.22,M,10.00,M,CLR,M,M,M,M,M,M,M,M,M,M,M,M,M,M,64.40,KCXP 191115Z AUTO 00000KT 10SM CLR 18/08 A3022 RMK AO2,M
RTS,2022-07-19 11:15,-119.8764,39.6682,1539.00,64.40,39.20,39.43,330.00,3.00,0.00,30.23,M,10.00,M,BKN,M,M,M,12000.00,M,M,M,M,M,M,M,M,M,M,64.40,KRTS 191115Z AUTO 33003KT 10SM BKN120 18/04 A3023 RMK AO2,M
05U,2022-07-19 11:15,-116.0051,39.6042,1811.23,64.40,51.80,63.60,0.00,0.00,0.00,30.30,M,10.00,M,CLR,M,M,M,M,M,M,M,M,M,M,M,M,M,M,64.40,K05U 191115Z AUTO 00000KT 10SM CLR 18/11 A3030 RMK A01,M
BAM,2022-07-19 11:15,-116.8743,40.5990,1382.36,M,M,M,200.00,11.00,0.00,30.17,M,10.00,M,OVC,M,M,M,11000.00,M,M,M,M,M,M,M,M,M,M,M,KBAM 191115Z AUTO 20011KT 10SM OVC110 A3017 RMK AO1,M
MEV,2022-07-19 11:15,-119.7500,38.9963,1441.42,62.60,44.60,51.72,0.00,0.00,0.00,30.20,M,10.00,M,OVC,M,M,M,9500.00,M,M,M,M,M,M,M,M,M,M,62.60,KMEV 191115Z AUTO 00000KT 10SM OVC095 17/07 A3020 RMK AO2,M
HTH,2022-07-19 11:15,-118.6315,38.5448,1282.89,73.40,46.40,38.18,160.00,5.00,0.00,30.16,M,10.00,M,CLR,M,M,M,M,M,M,M,M,M,M,M,M,M,M,73.40,KHTH 191115Z AUTO 16005KT 10SM CLR 23/08 A3016 RMK A01,M
MEV,2022-07-19 11:35,-119.7500,38.9963,1441.42,60.80,44.60,55.12,0.00,0.00,0.00,30.21,M,10.00,M,BKN,BKN,M,M,9500.00,12000.00,M,M,M,M,M,M,M,M,M,60.80,KMEV 191135Z AUTO 00000KT 10SM BKN095 BKN120 16/07 A3021 RMK AO2,M
HTH,2022-07-19 11:35,-118.6315,38.5448,1282.89,71.60,46.40,40.57,0.00,0.00,0.00,30.16,M,10.00,M,CLR,M,M,M,M,M,M,M,M,M,M,M,M,M,M,71.60,KHTH 191135Z AUTO 00000KT 10SM CLR 22/08 A3016 RMK A01,M
05U,2022-07-19 11:35,-116.0051,39.6042,1811.23,62.60,51.80,67.75,0.00,0.00,0.00,30.30,M,10.00,M,CLR,M,M,M,M,M,M,M,M,M,M,M,M,M,M,62.60,K05U 191135Z AUTO 00000KT 10SM CLR 17/11 A3030 RMK A01,M
RTS,2022-07-19 11:35,-119.8764,39.6682,1539.00,62.60,39.20,42.00,340.00,4.00,0.00,30.23,M,10.00,M,BKN,BKN,M,M,10000.00,12000.00,M,M,M,M,M,M,M,M,M,62.60,KRTS 191135Z AUTO 34004KT 10SM BKN100 BKN120 17/04 A3023 RMK AO2,M
BVU,2022-07-19 11:35,-114.8611,35.9475,671.00,M,M,M,M,M,0.00,M,M,M,M,M,M,M,M,M,M,M,M,M,M,M,M,M,M,M,M,KBVU 191135Z AUTO RMK AO2 PNO PWINO TSNO,M
CXP,2022-07-19 11:35,-119.7326,39.1923,1431.00,64.40,46.40,51.98,0.00,0.00,0.00,30.22,M,10.00,M,CLR,M,M,M,M,M,M,M,M,M,M,M,M,M,M,64.40,KCXP 191135Z AUTO 00000KT 10SM CLR 18/08 A3022 RMK AO2,M
BAM,2022-07-19 11:35,-116.8743,40.5990,1382.36,M,M,M,170.00,6.00,0.00,30.17,M,10.00,M,OVC,M,M,M,11000.00,M,M,M,M,M,M,M,M,M,M,M,KBAM 191135Z AUTO 17006KT 10SM OVC110 A3017 RMK AO1,M
ELY,2022-07-19 11:53,-114.8453,39.2950,1909.00,65.00,51.00,60.90,M,3.00,0.00,30.30,1014.10,10.00,M,FEW,M,M,M,10000.00,M,M,M,M,M,M,M,M,M,M,64.90,KELY 191153Z AUTO VRB03KT 10SM FEW100 18/11 A3030 RMK AO2 SLP141 60000 T01830106 10228 20183 55005,M
LOL,2022-07-19 11:53,-118.5701,40.0684,1192.43,64.00,57.00,77.97,0.00,0.00,0.00,30.14,1016.00,10.00,M,SCT,M,M,M,11000.00,M,M,M,M,M,M,M,M,M,M,64.00,KLOL 191153Z AUTO 00000KT 10SM SCT110 18/14 A3014 RMK AO2 SLP160 70007 T01780139 10239 20178 53003,M
P68,2022-07-19 11:53,-116.0056,39.6014,1993.00,63.00,52.00,67.29,180.00,5.00,0.00,30.27,1016.10,M,M,M,M,M,M,M,M,M,M,M,M,M,M,M,M,M,63.00,KP68 191153Z AUTO 18005KT 17/11 A3027 RMK AO1 SLP161 70003 T01720111 10228 20167 58000,M
DRA,2022-07-19 11:53,-116.0278,36.6206,1009.00,77.00,52.00,41.72,110.00,3.00,0.00,30.06,1012.00,10.00,M,CLR,M,M,M,M,M,M,M,M,M,M,M,M,M,M,77.00,KDRA 191153Z AUTO 11003KT 10SM CLR 25/11 A3006 RMK AO2 SLP120 T02500111 10300 20250 53002,M
VGT,2022-07-19 11:53,-115.1933,36.2111,667.00,89.00,53.00,29.37,310.00,4.00,0.00,29.96,1012.80,10.00,M,CLR,M,M,M,M,M,M,M,M,M,M,M,M,M,M,86.79,KVGT 191153Z AUTO 31004KT 10SM CLR 32/12 A2996 RMK AO2 SLP128 T03170117 10356 20317 53006,M
BAM,2022-07-19 11:55,-116.8743,40.5990,1382.36,M,M,M,200.00,3.00,0.00,30.17,M,10.00,M,SCT,M,M,M,11000.00,M,M,M,M,M,M,M,M,M,M,M,KBAM 191155Z AUTO 20003KT 10SM SCT110 A3017 RMK AO1,M
TMT,2022-07-19 11:55,-117.1971,39.4643,1749.34,57.20,54.50,90.67,0.00,0.00,0.00,30.28,M,10.00,M,BKN,BKN,M,M,9500.00,12000.00,M,M,M,M,M,M,M,M,M,57.20,KTMT 191155Z AUTO 00000KT 10SM BKN095 BKN120 14/13 A3028 RMK AO2 60001 70001 T01400125,M
HTH,2022-07-19 11:55,-118.6315,38.5448,1282.89,71.60,48.20,43.42,230.00,3.00,0.00,30.16,M,10.00,M,CLR,M,M,M,M,M,M,M,M,M,M,M,M,M,M,71.60,KHTH 191155Z AUTO 23003KT 10SM CLR 22/09 A3016 RMK A01,M
MEV,2022-07-19 11:55,-119.7500,38.9963,1441.42,59.00,46.40,62.92,0.00,0.00,0.00,30.21,M,10.00,M,FEW,SCT,SCT,M,4100.00,9500.00,12000.00,M,M,M,M,M,M,M,M,59.00,KMEV 191155Z AUTO 00000KT 10SM FEW041 SCT095 SCT120 15/08 A3021 RMK AO2,M
05U,2022-07-19 11:55,-116.0051,39.6042,1811.23,62.60,51.80,67.75,0.00,0.00,0.00,30.30,M,10.00,M,CLR,M,M,M,M,M,M,M,M,M,M,M,M,M,M,62.60,K05U 191155Z AUTO 00000KT 10SM CLR 17/11 A3030 RMK A01,M
RTS,2022-07-19 11:55,-119.8764,39.6682,1539.00,62.60,39.20,42.00,350.00,4.00,0.00,30.23,M,10.00,M,BKN,BKN,M,M,10000.00,12000.00,M,M,M,M,M,M,M,M,M,62.60,KRTS 191155Z AUTO 35004KT 10SM BKN100 BKN120 17/04 A3023 RMK AO2,M
RNO,2022-07-19 11:55,-119.7711,39.4839,1341.00,72.00,46.00,39.42,0.00,0.00,0.00,30.18,1015.30,10.00,M,BKN,M,M,M,14000.00,M,M,M,M,M,M,M,M,M,M,72.00,KRNO 191155Z 00000KT 10SM BKN140 22/08 A3018 RMK AO2 SLP153 T02220078 10272 20222 53002,M
CXP,2022-07-19 11:55,-119.7326,39.1923,1431.00,64.40,46.40,51.98,0.00,0.00,0.00,30.22,M,10.00,M,CLR,M,M,M,M,M,M,M,M,M,M,M,M,M,M,64.40,KCXP 191155Z AUTO 00000KT 10SM CLR 18/08 A3022 RMK AO2,M
BVU,2022-07-19 11:55,-114.8611,35.9475,671.00,M,M,M,M,M,0.00,M,M,M,M,M,M,M,M,M,M,M,M,M,M,M,M,M,M,M,M,KBVU 191155Z AUTO RMK AO2 PNO PWINO TSNO,M
WMC,2022-07-19 11:56,-117.8072,40.9019,1315.00,66.00,50.00,56.27,0.00,0.00,0.00,30.15,1015.60,10.00,M,CLR,M,M,M,M,M,M,M,M,M,M,M,M,M,M,66.00,KWMC 191156Z AUTO 00000KT 10SM CLR 19/10 A3015 RMK AO2 SLP156 70002 T01890100 10267 20189 53005 TSNO,M
HND,2022-07-19 11:56,-115.1344,35.9729,742.79,80.00,62.00,54.23,170.00,7.00,0.00,30.00,1014.50,10.00,M,CLR,M,M,M,M,M,M,M,M,M,M,M,M,M,M,81.31,KHND 191156Z AUTO 17007KT 10SM CLR 27/17 A3000 RMK AO2 SLP145 6//// 7//// T02670167 10311 20267 51006 PNO $,M
LAS,2022-07-19 11:56,-115.1634,36.0719,663.00,86.00,57.00,37.35,170.00,4.00,0.00,29.97,1011.60,10.00,M,CLR,M,M,M,M,M,M,M,M,M,M,M,M,M,M,84.92,KLAS 191156Z 17004KT 10SM CLR 30/14 A2997 RMK AO2 SLP116 70017 T03000139 10333 20294 51006,M
TPH,2022-07-19 11:56,-117.0904,38.0505,1654.00,63.00,53.00,70.07,360.00,6.00,0.00,30.24,1015.70,10.00,M,CLR,M,M,M,M,M,M,M,M,M,M,M,M,M,M,63.00,KTPH 191156Z AUTO 36006KT 10SM CLR 17/12 A3024 RMK AO2 SLP157 60000 70003 T01720117 10250 20172 56000,M
EKO,2022-07-19 11:56,-115.7860,40.8242,1367.00,74.00,48.00,39.87,0.00,0.00,0.00,30.20,1015.50,10.00,M,FEW,FEW,SCT,M,5500.00,7500.00,10000.00,M,M,M,M,M,M,M,M,73.90,KEKO 191156Z AUTO 00000KT 10SM FEW055 FEW075 SCT100 23/09 A3020 RMK AO2 SLP155 T02330089 10256 20211 51003,M
NFL,2022-07-19 11:56,-118.7010,39.4166,1199.00,64.00,55.00,72.52,150.00,3.00,0.00,30.14,1017.10,10.00,M,FEW,M,M,M,10000.00,M,M,M,M,M,M,M,M,M,M,64.00,KNFL 191156Z AUTO 15003KT 10SM FEW100 18/13 A3014 RMK AO2 SLP171 70001 T01780128 10256 20178 53003,M
INS,2022-07-19 11:58,-115.6733,36.5872,955.00,72.30,63.00,72.82,330.00,3.00,0.00,30.05,1012.30,10.00,M,CLR,M,M,M,M,M,M,M,M,M,M,M,M,M,M,72.30,KINS 191158Z AUTO 33003KT 10SM CLR 22/17 A3005 RMK AO2 SLP123 T02240173 10263 20224 52002 $,M
LSV,2022-07-19 11:58,-115.0343,36.2362,570.00,83.80,55.40,37.83,0.00,0.00,0.00,29.94,1011.00,10.00,M,CLR,M,M,M,M,M,M,M,M,M,M,M,M,M,M,82.78,KLSV 191158Z AUTO 00000KT 10SM CLR 29/13 A2994 RMK AO2 SLP110 T02880130 10344 20288 52007 $,M
RTS,2022-07-19 12:15,-119.8764,39.6682,1539.00,62.60,41.00,45.04,350.00,4.00,0.00,30.23,M,10.00,M,OVC,M,M,M,10000.00,M,M,M,M,M,M,M,M,M,M,62.60,KRTS 191215Z AUTO 35004KT 10SM OVC100 17/05 A3023 RMK AO2,M
TMT,2022-07-19 12:15,-117.1971,39.4643,1749.34,58.30,55.40,90.06,210.00,3.00,0.00,30.28,M,10.00,M,BKN,BKN,M,M,9500.00,12000.00,M,M,M,M,M,M,M,M,M,58.30,KTMT 191215Z AUTO 21003KT 10SM BKN095 BKN120 15/13 A3028 RMK AO2 T01460130,M
BAM,2022-07-19 12:15,-116.8743,40.5990,1382.36,M,M,M,160.00,5.00,0.00,30.18,M,10.00,M,CLR,M,M,M,M,M,M,M,M,M,M,M,M,M,M,M,KBAM 191215Z AUTO 16005KT 10SM CLR A3018 RMK AO1,M
MEV,2022-07-19 12:15,-119.7500,38.9963,1441.42,57.20,44.60,62.69,0.00,0.00,0.00,30.21,M,10.00,M,CLR,M,M,M,M,M,M,M,M,M,M,M,M,M,M,57.20,KMEV 191215Z AUTO 00000KT 10SM CLR 14/07 A3021 RMK AO2,M
05U,2022-07-19 12:15,-116.0051,39.6042,1811.23,62.60,51.80,67.75,0.00,0.00,0.00,30.30,M,10.00,M,FEW,M,M,M,12000.00,M,M,M,M,M,M,M,M,M,M,62.60,K05U 191215Z AUTO 00000KT 10SM FEW120 17/11 A3030 RMK A01,M
HTH,2022-07-19 12:15,-118.6315,38.5448,1282.89,69.80,50.00,49.37,0.00,0.00,0.00,30.16,M,10.00,M,CLR,M,M,M,M,M,M,M,M,M,M,M,M,M,M,69.80,KHTH 191215Z AUTO 00000KT 10SM CLR 21/10 A3016 RMK A01,M
CXP,2022-07-19 12:15,-119.7326,39.1923,1431.00,62.60,44.60,51.72,0.00,0.00,0.00,30.22,M,10.00,M,CLR,M,M,M,M,M,M,M,M,M,M,M,M,M,M,62.60,KCXP 191215Z AUTO 00000KT 10SM CLR 17/07 A3022 RMK AO2,M
BVU,2022-07-19 12:15,-114.8611,35.9475,671.00,M,M,M,M,M,0.00,M,M,M,M,M,M,M,M,M,M,M,M,M,M,M,M,M,M,M,M,KBVU 191215Z AUTO RMK AO2 PNO PWINO TSNO,M
TMT,2022-07-19 12:35,-117.1971,39.4643,1749.34,58.50,55.40,89.42,0.00,0.00,0.00,30.28,M,10.00,M,SCT,BKN,M,M,9500.00,12000.00,M,M,M,M,M,M,M,M,M,58.50,KTMT 191235Z AUTO 00000KT 10SM SCT095 BKN120 15/13 A3028 RMK AO2 T01470130,M
CXP,2022-07-19 12:35,-119.7326,39.1923,1431.00,62.60,44.60,51.72,0.00,0.00,0.00,30.22,M,10.00,M,CLR,M,M,M,M,M,M,M,M,M,M,M,M,M,M,62.60,KCXP 191235Z AUTO 00000KT 10SM CLR 17/07 A3022 RMK AO2,M
05U,2022-07-19 12:35,-116.0051,39.6042,1811.23,62.60,51.80,67.75,0.00,0.00,0.00,30.30,M,10.00,M,CLR,M,M,M,M,M,M,M,M,M,M,M,M,M,M,62.60,K05U 191235Z AUTO 00000KT 10SM CLR 17/11 A3030 RMK A01,M
RTS,2022-07-19 12:35,-119.8764,39.6682,1539.00,64.40,41.00,42.28,350.00,3.00,0.00,30.23,M,10.00,M,OVC,M,M,M,10000.00,M,M,M,M,M,M,M,M,M,M,64.40,KRTS 191235Z AUTO 35003KT 10SM OVC100 18/05 A3023 RMK AO2,M
BVU,2022-07-19 12:35,-114.8611,35.9475,671.00,M,M,M,M,M,0.00,M,M,M,M,M,M,M,M,M,M,M,M,M,M,M,M,M,M,M,M,KBVU 191235Z AUTO RMK AO2 PNO PWINO TSNO,M
HTH,2022-07-19 12:35,-118.6315,38.5448,1282.89,69.80,48.20,46.16,0.00,0.00,0.00,30.17,M,10.00,M,CLR,M,M,M,M,M,M,M,M,M,M,M,M,M,M,69.80,KHTH 191235Z AUTO 00000KT 10SM CLR 21/09 A3017 RMK A01,M
BAM,2022-07-19 12:35,-116.8743,40.5990,1382.36,M,M,M,190.00,6.00,0.00,30.17,M,10.00,M,CLR,M,M,M,M,M,M,M,M,M,M,M,M,M,M,M,KBAM 191235Z AUTO 19006KT 10SM CLR A3017 RMK AO1,M
MEV,2022-07-19 12:35,-119.7500,38.9963,1441.42,57.20,42.80,58.52,0.00,0.00,0.00,30.21,M,10.00,M,CLR,M,M,M,M,M,M,M,M,M,M,M,M,M,M,57.20,KMEV 191235Z AUTO 00000KT 10SM CLR 14/06 A3021 RMK AO2,M
ELY,2022-07-19 12:53,-114.8453,39.2950,1909.00,63.00,51.00,65.09,210.00,3.00,0.00,30.31,1015.20,10.00,M,CLR,M,M,M,M,M,M,M,M,M,M,M,M,M,M,63.00,KELY 191253Z AUTO 21003KT 10SM CLR 17/11 A3031 RMK AO2 SLP152 T01720106,M
P68,2022-07-19 12:53,-116.0056,39.6014,1993.00,63.00,51.00,65.09,180.00,5.00,0.00,30.27,1016.30,M,M,M,M,M,M,M,M,M,M,M,M,M,M,M,M,M,63.00,KP68 191253Z AUTO 18005KT 17/11 A3027 RMK AO1 SLP163 T01720106,M
VGT,2022-07-19 12:53,-115.1933,36.2111,667.00,89.00,54.00,30.36,310.00,8.00,0.00,29.97,1013.20,10.00,M,CLR,M,M,M,M,M,M,M,M,M,M,M,M,M,M,86.98,KVGT 191253Z 31008KT 10SM CLR 32/12 A2997 RMK AO2 SLP132 T03170122,M
LOL,2022-07-19 12:53,-118.5701,40.0684,1192.43,62.00,56.00,80.11,0.00,0.00,0.00,30.14,1016.40,10.00,M,BKN,M,M,M,12000.00,M,M,M,M,M,M,M,M,M,M,62.10,KLOL 191253Z AUTO 00000KT 10SM BKN120 17/13 A3014 RMK AO2 SLP164 T01670133,M
DRA,2022-07-19 12:53,-116.0278,36.6206,1009.00,76.00,52.00,43.28,0.00,0.00,0.00,30.06,1012.30,10.00,M,CLR,M,M,M,M,M,M,M,M,M,M,M,M,M,M,75.90,KDRA 191253Z AUTO 00000KT 10SM CLR 24/11 A3006 RMK AO2 SLP123 T02440111,M
MEV,2022-07-19 12:55,-119.7500,38.9963,1441.42,57.20,44.60,62.69,0.00,0.00,0.00,30.21,M,10.00,M,BKN,M,M,M,11000.00,M,M,M,M,M,M,M,M,M,M,57.20,KMEV 191255Z AUTO 00000KT 10SM BKN110 14/07 A3021 RMK AO2,M
RTS,2022-07-19 12:55,-119.8764,39.6682,1539.00,64.40,41.00,42.28,0.00,0.00,0.00,30.24,M,10.00,M,BKN,M,M,M,11000.00,M,M,M,M,M,M,M,M,M,M,64.40,KRTS 191255Z AUTO 00000KT 10SM BKN110 18/05 A3024 RMK AO2,M
CXP,2022-07-19 12:55,-119.7326,39.1923,1431.00,62.60,44.60,51.72,0.00,0.00,0.00,30.23,M,10.00,M,CLR,M,M,M,M,M,M,M,M,M,M,M,M,M,M,62.60,KCXP 191255Z AUTO 00000KT 10SM CLR 17/07 A3023 RMK AO2,M
BVU,2022-07-19 12:55,-114.8611,35.9475,671.00,M,M,M,M,M,0.00,M,M,M,M,M,M,M,M,M,M,M,M,M,M,M,M,M,M,M,M,KBVU 191255Z AUTO RMK AO2 PNO PWINO TSNO,M
05U,2022-07-19 12:55,-116.0051,39.6042,1811.23,62.60,51.80,67.75,0.00,0.00,0.00,30.30,M,10.00,M,BKN,M,M,M,12000.00,M,M,M,M,M,M,M,M,M,M,62.60,K05U 191255Z AUTO 00000KT 10SM BKN120 17/11 A3030 RMK A01,M
BAM,2022-07-19 12:55,-116.8743,40.5990,1382.36,M,M,M,0.00,0.00,0.00,30.19,M,10.00,M,SCT,M,M,M,11000.00,M,M,M,M,M,M,M,M,M,M,M,KBAM 191255Z AUTO 00000KT 10SM SCT110 A3019 RMK AO1,M
HTH,2022-07-19 12:55,-118.6315,38.5448,1282.89,69.80,50.00,49.37,0.00,0.00,0.00,30.17,M,10.00,M,SCT,M,M,M,10000.00,M,M,M,M,M,M,M,M,M,M,69.80,KHTH 191255Z AUTO 00000KT 10SM SCT100 21/10 A3017 RMK A01,M
TMT,2022-07-19 12:55,-117.1971,39.4643,1749.34,57.40,53.80,87.75,0.00,0.00,0.00,30.29,M,10.00,M,SCT,BKN,M,M,9500.00,12000.00,M,M,M,M,M,M,M,M,M,57.40,KTMT 191255Z AUTO 00000KT 10SM SCT095 BKN120 14/12 A3029 RMK AO2 T01410121,M
RNO,2022-07-19 12:55,-119.7711,39.4839,1341.00,72.00,47.00,40.79,0.00,0.00,0.00,30.18,1015.70,10.00,M,BKN,M,M,M,14000.00,M,M,M,M,M,M,M,M,M,M,72.00,KRNO 191255Z 00000KT 10SM BKN140 22/08 A3018 RMK AO2 SLP157 T02220083,M
WMC,2022-07-19 12:56,-117.8072,40.9019,1315.00,67.00,49.00,52.35,130.00,3.00,0.00,30.16,1015.80,10.00,M,FEW,M,M,M,11000.00,M,M,M,M,M,M,M,M,M,M,66.90,KWMC 191256Z AUTO 13003KT 10SM FEW110 19/09 A3016 RMK AO2 SLP158 T01940094 TSNO,M
EKO,2022-07-19 12:56,-115.7860,40.8242,1367.00,69.00,50.00,50.56,180.00,3.00,0.00,30.21,1016.80,10.00,M,FEW,M,M,M,11000.00,M,M,M,M,M,M,M,M,M,M,69.10,KEKO 191256Z AUTO 18003KT 10SM FEW110 21/10 A3021 RMK AO2 SLP168 T02060100,M
TPH,2022-07-19 12:56,-117.0904,38.0505,1654.00,65.00,52.00,62.96,10.00,7.00,0.00,30.25,1016.20,10.00,M,CLR,M,M,M,M,M,M,M,M,M,M,M,M,M,M,64.90,KTPH 191256Z AUTO 01007KT 10SM CLR 18/11 A3025 RMK AO2 SLP162 T01830111,M
HND,2022-07-19 12:56,-115.1344,35.9729,742.79,79.00,62.00,56.23,180.00,5.00,0.00,30.02,1015.20,10.00,M,CLR,M,M,M,M,M,M,M,M,M,M,M,M,M,M,79.00,KHND 191256Z 18005KT 10SM CLR 26/17 A3002 RMK AO2 SLP152 T02610167 PNO $,M
NFL,2022-07-19 12:56,-118.7010,39.4166,1199.00,66.00,56.00,69.88,160.00,4.00,0.00,30.14,1017.20,10.00,M,BKN,M,M,M,10000.00,M,M,M,M,M,M,M,M,M,M,66.00,KNFL 191256Z AUTO 16004KT 10SM BKN100 19/13 A3014 RMK AO2 SLP172 T01890133,M
LAS,2022-07-19 12:56,-115.1634,36.0719,663.00,85.00,58.00,39.97,160.00,3.00,0.00,29.98,1012.20,10.00,M,FEW,M,M,M,25000.00,M,M,M,M,M,M,M,M,M,M,84.21,KLAS 191256Z 16003KT 10SM FEW250 29/14 A2998 RMK AO2 SLP122 T02940144,M
LSV,2022-07-19 12:58,-115.0343,36.2362,570.00,83.00,54.70,37.97,0.00,0.00,0.00,29.95,1011.40,10.00,M,CLR,M,M,M,M,M,M,M,M,M,M,M,M,M,M,81.98,KLSV 191258Z AUTO 00000KT 10SM CLR 28/13 A2995 RMK AO2 SLP114 T02830126 $,M
INS,2022-07-19 12:58,-115.6733,36.5872,955.00,71.00,62.20,73.48,0.00,0.00,0.00,30.06,1012.80,10.00,M,CLR,M,M,M,M,M,M,M,M,M,M,M,M,M,M,71.10,KINS 191258Z AUTO 00000KT 10SM CLR 22/17 A3006 RMK AO2 SLP128 T02170168 $,M
05U,2022-07-19 13:10,-116.0051,39.6042,1811.23,62.60,51.80,67.75,0.00,0.00,0.00,30.30,M,10.00,M,BKN,M,M,M,12000.00,M,M,M,M,M,M,M,M,M,M,62.60,K05U 191310Z AUTO 00000KT 10SM BKN120 17/11 A3030 RMK A01,M
CXP,2022-07-19 13:15,-119.7326,39.1923,1431.00,62.60,46.40,55.37,0.00,0.00,0.00,30.23,M,10.00,M,FEW,M,M,M,11000.00,M,M,M,M,M,M,M,M,M,M,62.60,KCXP 191315Z AUTO 00000KT 10SM FEW110 17/08 A3023 RMK AO2,M
TMT,2022-07-19 13:15,-117.1971,39.4643,1749.34,58.30,54.70,87.79,160.00,3.00,0.00,30.29,M,10.00,M,SCT,SCT,BKN,M,5000.00,7000.00,12000.00,M,-RA,M,M,M,M,M,M,58.30,KTMT 191315Z AUTO 16003KT 10SM -RA SCT050 SCT070 BKN120 15/13 A3029 RMK AO2 T01460126,M
HTH,2022-07-19 13:15,-118.6315,38.5448,1282.89,71.60,51.80,49.64,230.00,4.00,0.00,30.18,M,10.00,M,SCT,M,M,M,10000.00,M,M,M,M,M,M,M,M,M,M,71.60,KHTH 191315Z AUTO 23004KT 10SM SCT100 22/11 A3018 RMK A01,M
BAM,2022-07-19 13:15,-116.8743,40.5990,1382.36,M,M,M,200.00,6.00,0.00,30.19,M,10.00,M,CLR,M,M,M,M,M,M,M,M,M,M,M,M,M,M,M,KBAM 191315Z AUTO 20006KT 10SM CLR A3019 RMK AO1,M
MEV,2022-07-19 13:15,-119.7500,38.9963,1441.42,60.80,44.60,55.12,250.00,3.00,0.00,30.21,M,10.00,M,SCT,BKN,M,M,9500.00,11000.00,M,M,M,M,M,M,M,M,M,60.80,KMEV 191315Z AUTO 25003KT 10SM SCT095 BKN110 16/07 A3021 RMK AO2,M
RTS,2022-07-19 13:15,-119.8764,39.6682,1539.00,66.20,41.00,39.72,0.00,0.00,0.00,30.24,M,10.00,M,SCT,M,M,M,12000.00,M,M,M,M,M,M,M,M,M,M,66.20,KRTS 191315Z AUTO 00000KT 10SM SCT120 19/05 A3024 RMK AO2,M
BVU,2022-07-19 13:15,-114.8611,35.9475,671.00,M,M,M,M,M,0.00,M,M,M,M,M,M,M,M,M,M,M,M,M,M,M,M,M,M,M,M,KBVU 191315Z AUTO RMK AO2 PNO PWINO TSNO,M
TMT,2022-07-19 13:35,-117.1971,39.4643,1749.34,59.00,55.60,88.47,130.00,3.00,0.00,30.29,M,10.00,M,SCT,BKN,OVC,M,5000.00,7000.00,9500.00,M,-DZ,M,M,M,M,M,M,59.00,KTMT 191335Z AUTO 13003KT 10SM -DZ SCT050 BKN070 OVC095 15/13 A3029 RMK AO2 T01500131,M
HTH,2022-07-19 13:35,-118.6315,38.5448,1282.89,71.60,51.80,49.64,240.00,6.00,0.00,30.18,M,10.00,M,CLR,M,M,M,M,M,M,M,M,M,M,M,M,M,M,71.60,KHTH 191335Z AUTO 24006KT 10SM CLR 22/11 A3018 RMK A01,M
BAM,2022-07-19 13:35,-116.8743,40.5990,1382.36,M,M,M,190.00,4.00,0.00,30.19,M,10.00,M,CLR,M,M,M,M,M,M,M,M,M,M,M,M,M,M,M,KBAM 191335Z AUTO 19004KT 10SM CLR A3019 RMK AO1,M
MEV,2022-07-19 13:35,-119.7500,38.9963,1441.42,64.40,44.60,48.55,0.00,0.00,0.00,30.21,M,10.00,M,BKN,M,M,M,10000.00,M,M,M,M,M,M,M,M,M,M,64.40,KMEV 191335Z AUTO 00000KT 10SM BKN100 18/07 A3021 RMK AO2,M
05U,2022-07-19 13:35,-116.0051,39.6042,1811.23,62.60,51.80,67.75,0.00,0.00,0.00,30.30,M,10.00,M,CLR,M,M,M,M,M,M,M,M,M,M,M,M,M,M,62.60,K05U 191335Z AUTO 00000KT 10SM CLR 17/11 A3030 RMK A01,M
RTS,2022-07-19 13:35,-119.8764,39.6682,1539.00,66.20,41.00,39.72,110.00,3.00,0.00,30.24,M,10.00,M,FEW,M,M,M,12000.00,M,M,M,M,M,M,M,M,M,M,66.20,KRTS 191335Z AUTO 11003KT 10SM FEW120 19/05 A3024 RMK AO2,M
CXP,2022-07-19 13:35,-119.7326,39.1923,1431.00,64.40,46.40,51.98,0.00,0.00,0.00,30.23,M,10.00,M,BKN,BKN,M,M,9500.00,11000.00,M,M,M,M,M,M,M,M,M,64.40,KCXP 191335Z AUTO 00000KT 10SM BKN095 BKN110 18/08 A3023 RMK AO2,M
BVU,2022-07-19 13:35,-114.8611,35.9475,671.00,M,M,M,M,M,0.00,M,M,M,M,M,M,M,M,M,M,M,M,M,M,M,M,M,M,M,M,KBVU 191335Z AUTO RMK AO2 PNO PWINO TSNO,M
P68,2022-07-19 13:53,-116.0056,39.6014,1993.00,65.00,52.00,62.96,150.00,3.00,0.00,30.28,1016.70,M,M,M,M,M,M,M,M,M,M,M,M,M,M,M,M,M,64.90,KP68 191353Z AUTO 15003KT 18/11 A3028 RMK AO1 SLP167 T01830111,M
DRA,2022-07-19 13:53,-116.0278,36.6206,1009.00,78.00,52.00,40.23,0.00,0.00,0.00,30.08,1012.90,10.00,M,CLR,M,M,M,M,M,M,M,M,M,M,M,M,M,M,78.10,KDRA 191353Z AUTO 00000KT 10SM CLR 26/11 A3008 RMK AO2 SLP129 T02560111,M
LOL,2022-07-19 13:53,-118.5701,40.0684,1192.43,66.00,59.00,78.14,0.00,0.00,0.00,30.15,1017.50,10.00,M,SCT,M,M,M,12000.00,M,M,M,M,M,M,M,M,M,M,66.00,KLOL 191353Z AUTO 00000KT 10SM SCT120 19/15 A3015 RMK AO2 SLP175 T01890150,M
VGT,2022-07-19 13:53,-115.1933,36.2111,667.00,91.00,55.00,29.66,330.00,4.00,0.00,29.98,1013.70,10.00,M,CLR,M,M,M,M,M,M,M,M,M,M,M,M,M,M,89.03,KVGT 191353Z 33004KT 10SM CLR 33/13 A2998 RMK AO2 SLP137 T03280128,M
ELY,2022-07-19 13:53,-114.8453,39.2950,1909.00,66.00,50.00,56.27,180.00,6.00,0.00,30.31,1015.60,10.00,M,CLR,M,M,M,M,M,M,M,M,M,M,M,M,M,M,66.00,KELY 191353Z AUTO 18006KT 10SM CLR 19/10 A3031 RMK AO2 SLP156 T01890100,M
TMT,2022-07-19 13:55,-117.1971,39.4643,1749.34,60.40,56.30,86.32,0.00,0.00,0.00,30.30,M,10.00,M,SCT,SCT,BKN,M,5000.00,7000.00,12000.00,M,M,M,M,M,M,M,M,60.40,KTMT 191355Z AUTO 00000KT 10SM SCT050 SCT070 BKN120 16/14 A3030 RMK AO2 T01580135,M
RTS,2022-07-19 13:55,-119.8764,39.6682,1539.00,68.00,42.80,40.00,0.00,0.00,0.00,30.24,M,10.00,M,FEW,M,M,M,12000.00,M,M,M,M,M,M,M,M,M,M,68.00,KRTS 191355Z AUTO 00000KT 10SM FEW120 20/06 A3024 RMK AO2,M
CXP,2022-07-19 13:55,-119.7326,39.1923,1431.00,66.20,46.40,48.83,0.00,0.00,0.00,30.23,M,10.00,M,BKN,OVC,M,M,9500.00,12000.00,M,M,M,M,M,M,M,M,M,66.20,KCXP 191355Z AUTO 00000KT 10SM BKN095 OVC120 19/08 A3023 RMK AO2,M
BAM,2022-07-19 13:55,-116.8743,40.5990,1382.36,M,M,M,120.00,6.00,0.00,30.19,M,10.00,M,CLR,M,M,M,M,M,M,M,M,M,M,M,M,M,M,M,KBAM 191355Z AUTO 12006KT 10SM CLR A3019 RMK AO1,M
HTH,2022-07-19 13:55,-118.6315,38.5448,1282.89,71.60,50.00,46.43,300.00,4.00,0.00,30.19,M,10.00,M,CLR,M,M,M,M,M,M,M,M,M,M,M,M,M,M,71.60,KHTH 191355Z AUTO 30004KT 10SM CLR 22/10 A3019 RMK A01,M
05U,2022-07-19 13:55,-116.0051,39.6042,1811.23,66.20,51.80,59.74,0.00,0.00,0.00,30.31,M,10.00,M,FEW,M,M,M,11000.00,M,M,M,M,M,M,M,M,M,M,66.20,K05U 191355Z AUTO 00000KT 10SM FEW110 19/11 A3031 RMK A01,M
MEV,2022-07-19 13:55,-119.7500,38.9963,1441.42,66.20,44.60,45.60,0.00,0.00,0.00,30.22,M,10.00,M,FEW,M,M,M,11000.00,M,M,M,M,M,M,M,M,M,M,66.20,KMEV 191355Z AUTO 00000KT 10SM FEW110 19/07 A3022 RMK AO2,M
BVU,2022-07-19 13:55,-114.8611,35.9475,671.00,M,M,M,M,M,0.00,M,M,M,M,M,M,M,M,M,M,M,M,M,M,M,M,M,M,M,M,KBVU 191355Z AUTO RMK AO2 PNO PWINO TSNO,M
RNO,2022-07-19 13:55,-119.7711,39.4839,1341.00,73.00,48.00,41.10,0.00,0.00,0.00,30.19,1016.10,10.00,M,FEW,BKN,M,M,10000.00,14000.00,M,M,M,M,M,M,M,M,M,73.00,KRNO 191355Z 00000KT 10SM FEW100 BKN140 23/09 A3019 RMK AO2 SLP161 T02280089,M
WMC,2022-07-19 13:56,-117.8072,40.9019,1315.00,69.00,51.00,52.67,0.00,0.00,0.00,30.17,1016.10,10.00,M,SCT,M,M,M,12000.00,M,M,M,M,M,M,M,M,M,M,69.10,KWMC 191356Z AUTO 00000KT 10SM SCT120 21/11 A3017 RMK AO2 SLP161 T02060106 TSNO,M
HND,2022-07-19 13:56,-115.1344,35.9729,742.79,85.00,60.00,43.24,190.00,6.00,0.00,30.03,1015.10,10.00,M,CLR,M,M,M,M,M,M,M,M,M,M,M,M,M,M,84.83,KHND 191356Z 19006KT 10SM CLR 29/16 A3003 RMK AO2 SLP151 T02940156 PNO $,M
EKO,2022-07-19 13:56,-115.7860,40.8242,1367.00,71.00,50.00,47.23,0.00,0.00,0.00,30.22,1017.00,10.00,M,SCT,M,M,M,10000.00,M,M,M,M,M,M,M,M,M,M,71.10,KEKO 191356Z AUTO 00000KT 10SM SCT100 22/10 A3022 RMK AO2 SLP170 T02170100,M
TPH,2022-07-19 13:56,-117.0904,38.0505,1654.00,68.00,52.00,56.55,10.00,10.00,0.00,30.26,1016.50,10.00,M,CLR,M,M,M,M,M,M,M,M,M,M,M,M,M,M,68.00,KTPH 191356Z AUTO 01010KT 10SM CLR 20/11 A3026 RMK AO2 SLP165 T02000111,M
LAS,2022-07-19 13:56,-115.1634,36.0719,663.00,86.00,56.00,35.90,0.00,0.00,0.00,29.99,1012.60,10.00,M,FEW,M,M,M,25000.00,M,M,M,M,M,M,M,M,M,M,84.66,KLAS 191356Z 00000KT 10SM FEW250 30/13 A2999 RMK AO2 SLP126 T03000133,M
NFL,2022-07-19 13:56,-118.7010,39.4166,1199.00,70.00,57.00,63.37,150.00,4.00,0.00,30.15,1017.40,10.00,M,SCT,M,M,M,10000.00,M,M,M,M,M,M,M,M,M,M,70.00,KNFL 191356Z AUTO 15004KT 10SM SCT100 21/14 A3015 RMK AO2 SLP174 T02110139,M
INS,2022-07-19 13:58,-115.6733,36.5872,955.00,75.70,61.30,60.97,310.00,3.00,0.00,30.08,1013.70,10.00,M,CLR,M,M,M,M,M,M,M,M,M,M,M,M,M,M,75.70,KINS 191358Z AUTO 31003KT 10SM CLR 24/16 A3008 RMK AO2 SLP137 T02430163 $,M
LSV,2022-07-19 13:58,-115.0343,36.2362,570.00,87.00,56.70,35.91,0.00,0.00,0.00,29.96,1011.70,10.00,M,CLR,M,M,M,M,M,M,M,M,M,M,M,M,M,M,85.63,KLSV 191358Z AUTO 00000KT 10SM CLR 31/14 A2996 RMK AO2 SLP117 T03050137 $,M
CXP,2022-07-19 14:15,-119.7326,39.1923,1431.00,71.60,44.60,37.89,0.00,0.00,0.00,30.23,M,10.00,M,BKN,M,M,M,11000.00,M,M,M,M,M,M,M,M,M,M,71.60,KCXP 191415Z AUTO 00000KT 10SM BKN110 22/07 A3023 RMK AO2,M
BAM,2022-07-19 14:15,-116.8743,40.5990,1382.36,M,M,M,140.00,5.00,0.00,30.19,M,10.00,M,CLR,M,M,M,M,M,M,M,M,M,M,M,M,M,M,M,KBAM 191415Z AUTO 14005KT 10SM CLR A3019 RMK AO1,M
TMT,2022-07-19 14:15,-117.1971,39.4643,1749.34,61.00,57.60,88.56,0.00,0.00,0.00,30.30,M,10.00,M,SCT,M,M,M,12000.00,M,M,M,M,M,M,M,M,M,M,61.00,KTMT 191415Z AUTO 00000KT 10SM SCT120 16/14 A3030 RMK AO2 T01610142,M
MEV,2022-07-19 14:15,-119.7500,38.9963,1441.42,69.80,44.60,40.29,0.00,0.00,0.00,30.22,M,10.00,M,FEW,M,M,M,11000.00,M,M,M,M,M,M,M,M,M,M,69.80,KMEV 191415Z AUTO 00000KT 10SM FEW110 21/07 A3022 RMK AO2,M
05U,2022-07-19 14:15,-116.0051,39.6042,1811.23,66.20,51.80,59.74,0.00,0.00,0.00,30.31,M,10.00,M,BKN,M,M,M,11000.00,M,M,M,M,M,M,M,M,M,M,66.20,K05U 191415Z AUTO 00000KT 10SM BKN110 19/11 A3031 RMK A01,M
RTS,2022-07-19 14:15,-119.8764,39.6682,1539.00,68.00,42.80,40.00,0.00,0.00,0.00,30.25,M,10.00,M,CLR,M,M,M,M,M,M,M,M,M,M,M,M,M,M,68.00,KRTS 191415Z AUTO 00000KT 10SM CLR 20/06 A3025 RMK AO2,M
HTH,2022-07-19 14:15,-118.6315,38.5448,1282.89,71.60,48.20,43.42,0.00,0.00,0.00,30.19,M,10.00,M,CLR,M,M,M,M,M,M,M,M,M,M,M,M,M,M,71.60,KHTH 191415Z AUTO 00000KT 10SM CLR 22/09 A3019 RMK A01,M
BVU,2022-07-19 14:15,-114.8611,35.9475,671.00,M,M,M,M,M,0.00,M,M,M,M,M,M,M,M,M,M,M,M,M,M,M,M,M,M,M,M,KBVU 191415Z AUTO RMK AO2 PNO PWINO TSNO,M
HTH,2022-07-19 14:35,-118.6315,38.5448,1282.89,73.40,50.00,43.69,280.00,4.00,0.00,30.19,M,10.00,M,CLR,M,M,M,M,M,M,M,M,M,M,M,M,M,M,73.40,KHTH 191435Z AUTO 28004KT 10SM CLR 23/10 A3019 RMK A01,M
BAM,2022-07-19 14:35,-116.8743,40.5990,1382.36,M,M,M,220.00,3.00,0.00,30.20,M,10.00,M,CLR,M,M,M,M,M,M,M,M,M,M,M,M,M,M,M,KBAM 191435Z AUTO 22003KT 10SM CLR A3020 RMK AO1,M
BVU,2022-07-19 14:35,-114.8611,35.9475,671.00,M,M,M,M,M,0.00,M,M,M,M,M,M,M,M,M,M,M,M,M,M,M,M,M,M,M,M,KBVU 191435Z AUTO RMK AO2 PNO PWINO TSNO,M
MEV,2022-07-19 14:35,-119.7500,38.9963,1441.42,69.80,46.40,43.13,0.00,0.00,0.00,30.22,M,10.00,M,CLR,M,M,M,M,M,M,M,M,M,M,M,M,M,M,69.80,KMEV 191435Z AUTO 00000KT 10SM CLR 21/08 A3022 RMK AO2,M
CXP,2022-07-19 14:35,-119.7326,39.1923,1431.00,73.40,44.60,35.66,0.00,0.00,0.00,30.23,M,10.00,M,SCT,M,M,M,10000.00,M,M,M,M,M,M,M,M,M,M,73.40,KCXP 191435Z AUTO 00000KT 10SM SCT100 23/07 A3023 RMK AO2,M
TMT,2022-07-19 14:35,-117.1971,39.4643,1749.34,62.00,58.50,88.60,0.00,0.00,0.00,30.30,M,10.00,M,SCT,M,M,M,12000.00,M,M,M,M,M,M,M,M,M,M,61.90,KTMT 191435Z AUTO 00000KT 10SM SCT120 17/15 A3030 RMK AO2 T01660147,M
RTS,2022-07-19 14:35,-119.8764,39.6682,1539.00,71.60,42.80,35.37,0.00,0.00,0.00,30.25,M,10.00,M,CLR,M,M,M,M,M,M,M,M,M,M,M,M,M,M,71.60,KRTS 191435Z AUTO 00000KT 10SM CLR 22/06 A3025 RMK AO2,M
05U,2022-07-19 14:35,-116.0051,39.6042,1811.23,68.00,53.60,59.97,210.00,3.00,0.00,30.31,M,10.00,M,BKN,M,M,M,10000.00,M,M,M,M,M,M,M,M,M,M,68.00,K05U 191435Z AUTO 21003KT 10SM BKN100 20/12 A3031 RMK A01,M
NFL,2022-07-19 14:46,-118.7010,39.4166,1199.00,76.00,56.00,49.91,140.00,6.00,0.00,30.16,M,10.00,M,SCT,SCT,M,M,8000.00,11000.00,M,M,M,M,M,M,M,M,M,75.90,KNFL 191446Z 14006KT 10SM SCT080 SCT110 24/13 A3016 RMK AO2 T02440133,M
ELY,2022-07-19 14:53,-114.8453,39.2950,1909.00,71.00,51.00,49.20,170.00,6.00,0.00,30.31,1015.50,10.00,M,CLR,M,M,M,M,M,M,M,M,M,M,M,M,M,M,71.10,KELY 191453Z AUTO 17006KT 10SM CLR 22/11 A3031 RMK AO2 SLP155 T02170106 51004,M
P68,2022-07-19 14:53,-116.0056,39.6014,1993.00,69.00,54.00,58.60,230.00,3.00,0.00,30.29,1016.40,M,M,M,M,M,M,M,M,M,M,M,M,M,M,M,M,M,69.10,KP68 191453Z AUTO 23003KT 21/12 A3029 RMK AO1 SLP164 T02060122 53004,M
DRA,2022-07-19 14:53,-116.0278,36.6206,1009.00,85.00,52.00,32.24,0.00,0.00,0.00,30.08,1013.00,10.00,M,CLR,M,M,M,M,M,M,M,M,M,M,M,M,M,M,83.03,KDRA 191453Z AUTO 00000KT 10SM CLR 29/11 A3008 RMK AO2 SLP130 T02940111 53008,M
LOL,2022-07-19 14:53,-118.5701,40.0684,1192.43,71.00,61.00,70.42,150.00,4.00,0.00,30.15,1017.40,10.00,M,CLR,M,M,M,M,M,M,M,M,M,M,M,M,M,M,71.10,KLOL 191453Z AUTO 15004KT 10SM CLR 22/16 A3015 RMK AO2 SLP174 T02170161 53005,M
VGT,2022-07-19 14:53,-115.1933,36.2111,667.00,93.00,55.00,27.87,360.00,6.00,0.00,29.99,1013.90,10.00,M,CLR,M,M,M,M,M,M,M,M,M,M,M,M,M,M,91.03,KVGT 191453Z 36006KT 10SM CLR 34/13 A2999 RMK AO2 SLP139 T03390128 51010,M
RNO,2022-07-19 14:55,-119.7711,39.4839,1341.00,75.00,49.00,39.75,0.00,0.00,0.00,30.19,1016.20,10.00,M,SCT,SCT,M,M,10000.00,14000.00,M,M,M,M,M,M,M,M,M,75.00,KRNO 191455Z 00000KT 10SM SCT100 SCT140 24/09 A3019 RMK AO2 SLP162 T02390094 51005,M
BVU,2022-07-19 14:55,-114.8611,35.9475,671.00,M,M,M,M,M,0.00,M,M,M,M,M,M,M,M,M,M,M,M,M,M,M,M,M,M,M,M,KBVU 191455Z AUTO RMK AO2 PNO PWINO TSNO,M
CXP,2022-07-19 14:55,-119.7326,39.1923,1431.00,73.40,44.60,35.66,0.00,0.00,0.00,30.23,M,10.00,M,FEW,M,M,M,10000.00,M,M,M,M,M,M,M,M,M,M,73.40,KCXP 191455Z AUTO 00000KT 10SM FEW100 23/07 A3023 RMK AO2,M
RTS,2022-07-19 14:55,-119.8764,39.6682,1539.00,71.60,44.60,37.89,0.00,0.00,0.00,30.24,M,10.00,M,FEW,M,M,M,10000.00,M,M,M,M,M,M,M,M,M,M,71.60,KRTS 191455Z AUTO 00000KT 10SM FEW100 22/07 A3024 RMK AO2,M
05U,2022-07-19 14:55,-116.0051,39.6042,1811.23,69.80,53.60,56.38,0.00,0.00,0.00,30.31,M,10.00,M,FEW,SCT,M,M,10000.00,12000.00,M,M,M,M,M,M,M,M,M,69.80,K05U 191455Z AUTO 00000KT 10SM FEW100 SCT120 21/12 A3031 RMK A01,M
MEV,2022-07-19 14:55,-119.7500,38.9963,1441.42,71.60,46.40,40.57,0.00,0.00,0.00,30.22,M,10.00,M,CLR,M,M,M,M,M,M,M,M,M,M,M,M,M,M,71.60,KMEV 191455Z AUTO 00000KT 10SM CLR 22/08 A3022 RMK AO2,M
BAM,2022-07-19 14:55,-116.8743,40.5990,1382.36,M,M,M,0.00,0.00,0.00,30.20,M,10.00,M,CLR,M,M,M,M,M,M,M,M,M,M,M,M,M,M,M,KBAM 191455Z AUTO 00000KT 10SM CLR A3020 RMK AO1,M
HTH,2022-07-19 14:55,-118.6315,38.5448,1282.89,75.20,50.00,41.14,M,4.00,0.00,30.19,M,10.00,M,CLR,M,M,M,M,M,M,M,M,M,M,M,M,M,M,75.20,KHTH 191455Z AUTO VRB04KT 10SM CLR 24/10 A3019 RMK A01,M
TMT,2022-07-19 14:55,-117.1971,39.4643,1749.34,62.20,57.40,84.27,0.00,0.00,0.00,30.31,M,10.00,M,CLR,M,M,M,M,M,M,M,M,M,M,M,M,M,M,62.20,KTMT 191455Z AUTO 00000KT 10SM CLR 17/14 A3031 RMK AO2 T01680141,M
NFL,2022-07-19 14:56,-118.7010,39.4166,1199.00,76.00,56.00,49.91,140.00,7.00,0.00,30.16,1017.70,10.00,M,SCT,SCT,M,M,8000.00,11000.00,M,M,M,M,M,M,M,M,M,75.90,KNFL 191456Z 14007KT 10SM SCT080 SCT110 24/13 A3016 RMK AO2 SLP177 T02440133 53006,M
HND,2022-07-19 14:56,-115.1344,35.9729,742.79,90.00,58.00,33.99,180.00,4.00,0.00,30.04,1015.50,10.00,M,CLR,M,M,M,M,M,M,M,M,M,M,M,M,M,M,88.89,KHND 191456Z 18004KT 10SM CLR 32/14 A3004 RMK AO2 SLP155 6//// T03220144 51011 PNO $,M
WMC,2022-07-19 14:56,-117.8072,40.9019,1315.00,73.00,51.00,46.13,0.00,0.00,0.00,30.18,1016.40,10.00,M,BKN,M,M,M,12000.00,M,M,M,M,M,M,M,M,M,M,73.00,KWMC 191456Z AUTO 00000KT 10SM BKN120 23/11 A3018 RMK AO2 SLP164 T02280106 53007 TSNO,M
TPH,2022-07-19 14:56,-117.0904,38.0505,1654.00,75.00,51.00,43.14,30.00,7.00,0.00,30.27,1016.60,10.00,M,CLR,M,M,M,M,M,M,M,M,M,M,M,M,M,M,75.00,KTPH 191456Z AUTO 03007KT 10SM CLR 24/11 A3027 RMK AO2 SLP166 T02390106 53007,M
LAS,2022-07-19 14:56,-115.1634,36.0719,663.00,89.00,57.00,33.85,0.00,0.00,0.00,30.00,1012.80,10.00,M,FEW,M,M,M,25000.00,M,M,M,M,M,M,M,M,M,M,87.74,KLAS 191456Z 00000KT 10SM FEW250 32/14 A3000 RMK AO2 SLP128 T03170139 51011,M
EKO,2022-07-19 14:56,-115.7860,40.8242,1367.00,76.00,50.00,40.19,270.00,3.00,0.00,30.23,1017.10,10.00,M,SCT,M,M,M,12000.00,M,M,M,M,M,M,M,M,M,M,75.90,KEKO 191456Z AUTO 27003KT 10SM SCT120 24/10 A3023 RMK AO2 SLP171 T02440100 51007,M
INS,2022-07-19 14:58,-115.6733,36.5872,955.00,81.00,59.00,47.01,0.00,0.00,0.00,30.08,1013.50,10.00,M,CLR,M,M,M,M,M,M,M,M,M,M,M,M,M,M,81.48,KINS 191458Z AUTO 00000KT 10SM CLR 27/15 A3008 RMK AO2 SLP135 T02730150 52009 $,M
LSV,2022-07-19 14:58,-115.0343,36.2362,570.00,96.00,59.40,29.86,0.00,0.00,0.00,29.97,1011.80,10.00,M,CLR,M,M,M,M,M,M,M,M,M,M,M,M,M,M,95.67,KLSV 191458Z AUTO 00000KT 10SM CLR 36/15 A2997 RMK AO2 SLP118 T03550152 52010 $,M
RTS,2022-07-19 15:15,-119.8764,39.6682,1539.00,73.40,44.60,35.66,0.00,0.00,0.00,30.25,M,10.00,M,BKN,M,M,M,10000.00,M,M,M,M,M,M,M,M,M,M,73.40,KRTS 191515Z AUTO 00000KT 10SM BKN100 23/07 A3025 RMK AO2,M
05U,2022-07-19 15:15,-116.0051,39.6042,1811.23,71.60,51.80,49.64,230.00,5.00,0.00,30.32,M,10.00,M,FEW,M,M,M,10000.00,M,M,M,M,M,M,M,M,M,M,71.60,K05U 191515Z AUTO 23005KT 10SM FEW100 22/11 A3032 RMK A01,M
MEV,2022-07-19 15:15,-119.7500,38.9963,1441.42,73.40,46.40,38.18,0.00,0.00,0.00,30.22,M,10.00,M,CLR,M,M,M,M,M,M,M,M,M,M,M,M,M,M,73.40,KMEV 191515Z AUTO 00000KT 10SM CLR 23/08 A3022 RMK AO2,M
BAM,2022-07-19 15:15,-116.8743,40.5990,1382.36,M,M,M,0.00,0.00,0.00,30.20,M,10.00,M,CLR,M,M,M,M,M,M,M,M,M,M,M,M,M,M,M,KBAM 191515Z AUTO 00000KT 10SM CLR A3020 RMK AO1,M
HTH,2022-07-19 15:15,-118.6315,38.5448,1282.89,75.20,48.20,38.46,0.00,0.00,0.00,30.19,M,10.00,M,CLR,M,M,M,M,M,M,M,M,M,M,M,M,M,M,75.20,KHTH 191515Z AUTO 00000KT 10SM CLR 24/09 A3019 RMK A01,M
TMT,2022-07-19 15:15,-117.1971,39.4643,1749.34,M,M,M,0.00,0.00,0.00,30.31,M,10.00,M,CLR,M,M,M,M,M,M,M,M,M,M,M,M,M,M,M,KTMT 191515Z AUTO 00000KT 10SM CLR A3031 RMK AO2,M
CXP,2022-07-19 15:15,-119.7326,39.1923,1431.00,75.20,44.60,33.57,0.00,0.00,0.00,30.23,M,10.00,M,CLR,M,M,M,M,M,M,M,M,M,M,M,M,M,M,75.20,KCXP 191515Z AUTO 00000KT 10SM CLR 24/07 A3023 RMK AO2,M
BVU,2022-07-19 15:15,-114.8611,35.9475,671.00,M,M,M,M,M,0.00,M,M,M,M,M,M,M,M,M,M,M,M,M,M,M,M,M,M,M,M,KBVU 191515Z AUTO RMK AO2 PNO PWINO TSNO,M
BAM,2022-07-19 15:35,-116.8743,40.5990,1382.36,M,M,M,70.00,4.00,0.00,30.20,M,10.00,M,CLR,M,M,M,M,M,M,M,M,M,M,M,M,M,M,M,KBAM 191535Z AUTO 07004KT 10SM CLR A3020 RMK AO1,M
BVU,2022-07-19 15:35,-114.8611,35.9475,671.00,M,M,M,M,M,0.00,M,M,M,M,M,M,M,M,M,M,M,M,M,M,M,M,M,M,M,M,KBVU 191535Z AUTO RMK AO2 PNO PWINO TSNO,M
CXP,2022-07-19 15:35,-119.7326,39.1923,1431.00,77.00,44.60,31.62,0.00,0.00,0.00,30.23,M,10.00,M,CLR,M,M,M,M,M,M,M,M,M,M,M,M,M,M,77.00,KCXP 191535Z AUTO 00000KT 10SM CLR 25/07 A3023 RMK AO2,M
RTS,2022-07-19 15:35,-119.8764,39.6682,1539.00,75.20,44.60,33.57,0.00,0.00,0.00,30.25,M,10.00,M,FEW,M,M,M,10000.00,M,M,M,M,M,M,M,M,M,M,75.20,KRTS 191535Z AUTO 00000KT 10SM FEW100 24/07 A3025 RMK AO2,M
05U,2022-07-19 15:35,-116.0051,39.6042,1811.23,75.20,51.80,43.97,0.00,0.00,0.00,30.32,M,10.00,M,FEW,FEW,M,M,10000.00,12000.00,M,M,M,M,M,M,M,M,M,75.20,K05U 191535Z AUTO 00000KT 10SM FEW100 FEW120 24/11 A3032 RMK A01,M
MEV,2022-07-19 15:35,-119.7500,38.9963,1441.42,77.00,46.40,33.85,0.00,0.00,0.00,30.22,M,10.00,M,BKN,M,M,M,11000.00,M,M,M,M,M,M,M,M,M,M,77.00,KMEV 191535Z AUTO 00000KT 10SM BKN110 25/08 A3022 RMK AO2,M
HTH,2022-07-19 15:35,-118.6315,38.5448,1282.89,77.00,50.00,38.74,M,3.00,0.00,30.19,M,10.00,M,CLR,M,M,M,M,M,M,M,M,M,M,M,M,M,M,77.00,KHTH 191535Z AUTO VRB03KT 10SM CLR 25/10 A3019 RMK A01,M
TMT,2022-07-19 15:35,-117.1971,39.4643,1749.34,M,M,M,250.00,3.00,0.00,30.31,M,10.00,M,CLR,M,M,M,M,M,M,M,M,M,M,M,M,M,M,M,KTMT 191535Z AUTO 25003KT 10SM CLR A3031 RMK AO2,M
ELY,2022-07-19 15:53,-114.8453,39.2950,1909.00,77.00,49.00,37.19,0.00,0.00,0.00,30.31,1015.10,10.00,M,CLR,M,M,M,M,M,M,M,M,M,M,M,M,M,M,77.00,KELY 191553Z AUTO 00000KT 10SM CLR 25/09 A3031 RMK AO2 SLP151 T02500094,M
P68,2022-07-19 15:53,-116.0056,39.6014,1993.00,75.00,52.00,44.59,60.00,4.00,0.00,30.29,1016.20,M,M,M,M,M,M,M,M,M,M,M,M,M,M,M,M,M,75.00,KP68 191553Z AUTO 06004KT 24/11 A3029 RMK AO1 SLP162 T02390111,M
LOL,2022-07-19 15:53,-118.5701,40.0684,1192.43,78.00,58.00,49.87,0.00,0.00,0.00,30.16,1017.40,10.00,M,CLR,M,M,M,M,M,M,M,M,M,M,M,M,M,M,78.10,KLOL 191553Z AUTO 00000KT 10SM CLR 26/14 A3016 RMK AO2 SLP174 T02560144,M
DRA,2022-07-19 15:53,-116.0278,36.6206,1009.00,89.00,51.00,27.29,0.00,0.00,0.00,30.09,1013.20,10.00,M,CLR,M,M,M,M,M,M,M,M,M,M,M,M,M,M,86.42,KDRA 191553Z AUTO 00000KT 10SM CLR 32/11 A3009 RMK AO2 SLP132 T03170106,M
VGT,2022-07-19 15:53,-115.1933,36.2111,667.00,96.00,55.00,25.32,350.00,5.00,0.00,30.00,1014.10,10.00,M,CLR,M,M,M,M,M,M,M,M,M,M,M,M,M,M,94.27,KVGT 191553Z 35005KT 10SM CLR 36/13 A3000 RMK AO2 SLP141 T03560128,M
BAM,2022-07-19 15:55,-116.8743,40.5990,1382.36,M,M,M,0.00,0.00,0.00,30.21,M,10.00,M,CLR,M,M,M,M,M,M,M,M,M,M,M,M,M,M,M,KBAM 191555Z AUTO 00000KT 10SM CLR A3021 RMK AO1,M
TMT,2022-07-19 15:55,-117.1971,39.4643,1749.34,69.00,59.00,70.21,0.00,0.00,0.00,30.31,M,10.00,M,CLR,M,M,M,M,M,M,M,M,M,M,M,M,M,M,69.10,KTMT 191555Z AUTO 00000KT 10SM CLR 21/15 A3031 RMK AO2 T02060150,M
MEV,2022-07-19 15:55,-119.7500,38.9963,1441.42,78.80,46.40,31.90,100.00,4.00,0.00,30.21,M,10.00,M,SCT,M,M,M,11000.00,M,M,M,M,M,M,M,M,M,M,78.80,KMEV 191555Z AUTO 10004KT 10SM SCT110 26/08 A3021 RMK AO2,M
CXP,2022-07-19 15:55,-119.7326,39.1923,1431.00,77.00,44.60,31.62,0.00,0.00,0.00,30.23,M,10.00,M,CLR,M,M,M,M,M,M,M,M,M,M,M,M,M,M,77.00,KCXP 191555Z AUTO 00000KT 10SM CLR 25/07 A3023 RMK AO2,M
HTH,2022-07-19 15:55,-118.6315,38.5448,1282.89,78.80,50.00,36.51,0.00,0.00,0.00,30.19,M,10.00,M,CLR,M,M,M,M,M,M,M,M,M,M,M,M,M,M,78.80,KHTH 191555Z AUTO 00000KT 10SM CLR 26/10 A3019 RMK A01,M
BVU,2022-07-19 15:55,-114.8611,35.9475,671.00,M,M,M,M,M,0.00,M,M,M,M,M,M,M,M,M,M,M,M,M,M,M,M,M,M,M,M,KBVU 191555Z AUTO RMK AO2 PNO PWINO TSNO,M
RNO,2022-07-19 15:55,-119.7711,39.4839,1341.00,78.00,48.00,34.67,0.00,0.00,0.00,30.20,1016.20,10.00,M,BKN,BKN,M,M,11000.00,15000.00,M,M,M,M,M,M,M,M,M,78.10,KRNO 191555Z 00000KT 10SM BKN110 BKN150 26/09 A3020 RMK AO2 SLP162 T02560089 $,M
RTS,2022-07-19 15:55,-119.8764,39.6682,1539.00,77.00,44.60,31.62,0.00,0.00,0.00,30.25,M,10.00,M,CLR,M,M,M,M,M,M,M,M,M,M,M,M,M,M,77.00,KRTS 191555Z AUTO 00000KT 10SM CLR 25/07 A3025 RMK AO2,M
05U,2022-07-19 15:55,-116.0051,39.6042,1811.23,77.00,51.80,41.42,0.00,0.00,0.00,30.32,M,10.00,M,CLR,M,M,M,M,M,M,M,M,M,M,M,M,M,M,77.00,K05U 191555Z AUTO 00000KT 10SM CLR 25/11 A3032 RMK A01,M
NFL,2022-07-19 15:56,-118.7010,39.4166,1199.00,80.00,56.00,43.44,M,3.00,0.00,30.16,1017.70,10.00,M,FEW,FEW,SCT,M,8000.00,12000.00,18000.00,M,M,M,M,M,M,M,M,80.29,KNFL 191556Z VRB03KT 10SM FEW080 FEW120 SCT180 27/13 A3016 RMK AO2 SLP177 T02670133,M
TPH,2022-07-19 15:56,-117.0904,38.0505,1654.00,79.00,49.00,34.81,M,M,0.00,30.27,1016.10,10.00,M,CLR,M,M,M,M,M,M,M,M,M,M,M,M,M,M,79.00,KTPH 191556Z AUTO 10SM CLR 26/09 A3027 RMK AO2 SLP161 T02610094,M
LAS,2022-07-19 15:56,-115.1634,36.0719,663.00,93.00,56.00,28.79,0.00,0.00,0.00,30.01,1013.10,10.00,M,FEW,FEW,M,M,13000.00,25000.00,M,M,M,M,M,M,M,M,M,91.29,KLAS 191556Z 00000KT 10SM FEW130 FEW250 34/13 A3001 RMK AO2 SLP131 T03390133,M
EKO,2022-07-19 15:56,-115.7860,40.8242,1367.00,80.00,50.00,34.98,M,4.00,0.00,30.23,1017.10,10.00,M,SCT,M,M,M,11000.00,M,M,M,M,M,M,M,M,M,M,79.60,KEKO 191556Z AUTO VRB04KT 10SM SCT110 27/10 A3023 RMK AO2 SLP171 T02670100,M
WMC,2022-07-19 15:56,-117.8072,40.9019,1315.00,79.00,52.00,39.06,0.00,0.00,0.00,30.18,1016.20,10.00,M,CLR,M,M,M,M,M,M,M,M,M,M,M,M,M,M,79.00,KWMC 191556Z AUTO 00000KT 10SM CLR 26/11 A3018 RMK AO2 SLP162 T02610111,M
HND,2022-07-19 15:56,-115.1344,35.9729,742.79,94.00,56.00,28.00,M,4.00,0.00,30.04,1015.40,10.00,M,CLR,M,M,M,M,M,M,M,M,M,M,M,M,M,M,92.22,KHND 191556Z VRB04KT 10SM CLR 34/13 A3004 RMK AO2 SLP154 T03440133 PNO $,M
LSV,2022-07-19 15:58,-115.0343,36.2362,570.00,98.60,56.70,24.95,0.00,0.00,0.00,29.97,1011.80,10.00,M,CLR,M,M,M,M,M,M,M,M,M,M,M,M,M,M,97.56,KLSV 191558Z AUTO 00000KT 10SM CLR 37/14 A2997 RMK AO2 SLP118 T03700137 $,M
INS,2022-07-19 15:58,-115.6733,36.5872,955.00,84.40,58.00,40.91,0.00,0.00,0.00,30.08,1013.70,10.00,M,CLR,M,M,M,M,M,M,M,M,M,M,M,M,M,M,83.85,KINS 191558Z AUTO 00000KT 10SM CLR 29/15 A3008 RMK AO2 SLP137 T02910145 $,M
TMT,2022-07-19 16:15,-117.1971,39.4643,1749.34,M,M,M,0.00,0.00,0.00,30.31,M,10.00,M,CLR,M,M,M,M,M,M,M,M,M,M,M,M,M,M,M,KTMT 191615Z AUTO 00000KT 10SM CLR A3031 RMK AO2,M
RTS,2022-07-19 16:15,-119.8764,39.6682,1539.00,78.80,42.80,27.81,140.00,3.00,0.00,30.25,M,10.00,M,CLR,M,M,M,M,M,M,M,M,M,M,M,M,M,M,78.80,KRTS 191615Z AUTO 14003KT 10SM CLR 26/06 A3025 RMK AO2,M
BVU,2022-07-19 16:15,-114.8611,35.9475,671.00,M,M,M,M,M,0.00,M,M,M,M,M,M,M,M,M,M,M,M,M,M,M,M,M,M,M,M,KBVU 191615Z AUTO RMK AO2 PNO PWINO TSNO,M
CXP,2022-07-19 16:15,-119.7326,39.1923,1431.00,78.80,44.60,29.79,0.00,0.00,0.00,30.22,M,10.00,M,FEW,M,M,M,9000.00,M,M,M,M,M,M,M,M,M,M,78.80,KCXP 191615Z AUTO 00000KT 10SM FEW090 26/07 A3022 RMK AO2,M
05U,2022-07-19 16:15,-116.0051,39.6042,1811.23,78.80,50.00,36.51,0.00,0.00,0.00,30.32,M,10.00,M,CLR,M,M,M,M,M,M,M,M,M,M,M,M,M,M,78.80,K05U 191615Z AUTO 00000KT 10SM CLR 26/10 A3032 RMK A01,M
BAM,2022-07-19 16:15,-116.8743,40.5990,1382.36,M,M,M,0.00,0.00,0.00,30.20,M,10.00,M,CLR,M,M,M,M,M,M,M,M,M,M,M,M,M,M,M,KBAM 191615Z AUTO 00000KT 10SM CLR A3020 RMK AO1,M
MEV,2022-07-19 16:15,-119.7500,38.9963,1441.42,80.60,46.40,30.07,150.00,4.00,0.00,30.21,M,10.00,M,FEW,M,M,M,10000.00,M,M,M,M,M,M,M,M,M,M,79.56,KMEV 191615Z AUTO 15004KT 10SM FEW100 27/08 A3021 RMK AO2,M
HTH,2022-07-19 16:15,-118.6315,38.5448,1282.89,80.60,50.00,34.41,340.00,4.00,0.00,30.19,M,10.00,M,CLR,M,M,M,M,M,M,M,M,M,M,M,M,M,M,79.88,KHTH 191615Z AUTO 34004KT 10SM CLR 27/10 A3019 RMK A01,M
TMT,2022-07-19 16:35,-117.1971,39.4643,1749.34,M,M,M,0.00,0.00,0.00,30.30,M,10.00,M,CLR,M,M,M,M,M,M,M,M,M,M,M,M,M,M,M,KTMT 191635Z AUTO 00000KT 10SM CLR A3030 RMK AO2,M
BVU,2022-07-19 16:35,-114.8611,35.9475,671.00,M,M,M,M,M,0.00,M,M,M,M,M,M,M,M,M,M,M,M,M,M,M,M,M,M,M,M,KBVU 191635Z AUTO RMK AO2 PNO PWINO TSNO,M
CXP,2022-07-19 16:35,-119.7326,39.1923,1431.00,82.40,46.40,28.36,0.00,0.00,0.00,30.22,M,10.00,M,CLR,M,M,M,M,M,M,M,M,M,M,M,M,M,M,80.64,KCXP 191635Z AUTO 00000KT 10SM CLR 28/08 A3022 RMK AO2,M
RTS,2022-07-19 16:35,-119.8764,39.6682,1539.00,80.60,42.80,26.22,150.00,6.00,0.00,30.24,M,10.00,M,FEW,M,M,M,11000.00,M,M,M,M,M,M,M,M,M,M,79.30,KRTS 191635Z AUTO 15006KT 10SM FEW110 27/06 A3024 RMK AO2,M
05U,2022-07-19 16:35,-116.0051,39.6042,1811.23,80.60,48.20,32.18,0.00,0.00,0.00,30.31,M,10.00,M,CLR,M,M,M,M,M,M,M,M,M,M,M,M,M,M,79.71,K05U 191635Z AUTO 00000KT 10SM CLR 27/09 A3031 RMK A01,M
MEV,2022-07-19 16:35,-119.7500,38.9963,1441.42,80.60,48.20,32.18,130.00,4.00,0.00,30.21,M,10.00,M,SCT,M,M,M,10000.00,M,M,M,M,M,M,M,M,M,M,79.71,KMEV 191635Z AUTO 13004KT 10SM SCT100 27/09 A3021 RMK AO2,M
BAM,2022-07-19 16:35,-116.8743,40.5990,1382.36,M,M,M,0.00,0.00,0.00,30.20,M,10.00,M,CLR,M,M,M,M,M,M,M,M,M,M,M,M,M,M,M,KBAM 191635Z AUTO 00000KT 10SM CLR A3020 RMK AO1,M
HTH,2022-07-19 16:35,-118.6315,38.5448,1282.89,82.40,50.00,32.46,10.00,5.00,0.00,30.18,M,10.00,M,CLR,M,M,M,M,M,M,M,M,M,M,M,M,M,M,80.99,KHTH 191635Z AUTO 01005KT 10SM CLR 28/10 A3018 RMK A01,M
LOL,2022-07-19 16:53,-118.5701,40.0684,1192.43,83.00,54.00,37.01,150.00,4.00,0.00,30.15,1016.20,10.00,M,CLR,M,M,M,M,M,M,M,M,M,M,M,M,M,M,81.87,KLOL 191653Z AUTO 15004KT 10SM CLR 28/12 A3015 RMK AO2 SLP162 T02830122,M
VGT,2022-07-19 16:53,-115.1933,36.2111,667.00,98.00,54.00,22.97,120.00,3.00,0.00,29.99,1013.90,10.00,M,CLR,M,M,M,M,M,M,M,M,M,M,M,M,M,M,96.10,KVGT 191653Z 12003KT 10SM CLR 37/12 A2999 RMK AO2 SLP139 T03670122,M
DRA,2022-07-19 16:53,-116.0278,36.6206,1009.00,92.00,51.00,24.99,0.00,0.00,0.00,30.08,1012.90,10.00,M,CLR,M,M,M,M,M,M,M,M,M,M,M,M,M,M,89.04,KDRA 191653Z AUTO 00000KT 10SM CLR 33/11 A3008 RMK AO2 SLP129 T03330106,M
ELY,2022-07-19 16:53,-114.8453,39.2950,1909.00,80.00,46.00,30.11,0.00,0.00,0.00,30.30,1014.50,10.00,M,CLR,M,M,M,M,M,M,M,M,M,M,M,M,M,M,79.26,KELY 191653Z AUTO 00000KT 10SM CLR 27/08 A3030 RMK AO2 SLP145 T02670078,M
P68,2022-07-19 16:53,-116.0056,39.6014,1993.00,78.00,48.00,34.67,80.00,5.00,0.00,30.28,1015.80,M,M,M,M,M,M,M,M,M,M,M,M,M,M,M,M,M,78.10,KP68 191653Z AUTO 08005KT 26/09 A3028 RMK AO1 SLP158 T02560089,M
05U,2022-07-19 16:55,-116.0051,39.6042,1811.23,80.60,48.20,32.18,80.00,5.00,0.00,30.31,M,10.00,M,CLR,M,M,M,M,M,M,M,M,M,M,M,M,M,M,79.71,K05U 191655Z AUTO 08005KT 10SM CLR 27/09 A3031 RMK A01,M
RNO,2022-07-19 16:55,-119.7711,39.4839,1341.00,85.00,47.00,26.66,0.00,0.00,0.00,30.19,1015.50,10.00,M,SCT,SCT,M,M,11000.00,15000.00,M,M,M,M,M,M,M,M,M,82.42,KRNO 191655Z 00000KT 10SM SCT110 SCT150 29/08 A3019 RMK AO2 SLP155 T02940083 $,M
TMT,2022-07-19 16:55,-117.1971,39.4643,1749.34,M,M,M,340.00,4.00,0.00,30.30,M,10.00,M,CLR,M,M,M,M,M,M,M,M,M,M,M,M,M,M,M,KTMT 191655Z AUTO 34004KT 10SM CLR A3030 RMK AO2,M
HTH,2022-07-19 16:55,-118.6315,38.5448,1282.89,82.40,48.20,30.35,60.00,3.00,0.00,30.18,M,10.00,M,CLR,M,M,M,M,M,M,M,M,M,M,M,M,M,M,80.80,KHTH 191655Z AUTO 06003KT 10SM CLR 28/09 A3018 RMK A01,M
BAM,2022-07-19 16:55,-116.8743,40.5990,1382.36,M,M,M,350.00,4.00,0.00,30.19,M,10.00,M,CLR,M,M,M,M,M,M,M,M,M,M,M,M,M,M,M,KBAM 191655Z AUTO 35004KT 10SM CLR A3019 RMK AO1,M
MEV,2022-07-19 16:55,-119.7500,38.9963,1441.42,80.60,48.20,32.18,M,3.00,0.00,30.20,M,10.00,M,BKN,M,M,M,10000.00,M,M,M,M,M,M,M,M,M,M,79.71,KMEV 191655Z AUTO VRB03KT 10SM BKN100 27/09 A3020 RMK AO2,M
RTS,2022-07-19 16:55,-119.8764,39.6682,1539.00,80.60,44.60,28.08,M,5.00,0.00,30.24,M,10.00,M,FEW,M,M,M,11000.00,M,M,M,M,M,M,M,M,M,M,79.42,KRTS 191655Z AUTO VRB05KT 10SM FEW110 27/07 A3024 RMK AO2,M
CXP,2022-07-19 16:55,-119.7326,39.1923,1431.00,84.20,46.40,26.76,M,4.00,0.00,30.22,M,10.00,M,CLR,M,M,M,M,M,M,M,M,M,M,M,M,M,M,81.87,KCXP 191655Z AUTO VRB04KT 10SM CLR 29/08 A3022 RMK AO2,M
BVU,2022-07-19 16:55,-114.8611,35.9475,671.00,M,M,M,M,M,0.00,M,M,M,M,M,M,M,M,M,M,M,M,M,M,M,M,M,M,M,M,KBVU 191655Z AUTO RMK AO2 PNO PWINO TSNO,M
TPH,2022-07-19 16:56,-117.0904,38.0505,1654.00,84.00,48.00,28.60,0.00,0.00,0.00,30.26,1015.70,10.00,M,CLR,M,M,M,M,M,M,M,M,M,M,M,M,M,M,81.87,KTPH 191656Z AUTO 00000KT 10SM CLR 29/09 A3026 RMK AO2 SLP157 T02890089,M
NFL,2022-07-19 16:56,-118.7010,39.4166,1199.00,84.00,54.00,35.72,220.00,4.00,0.00,30.15,1017.50,10.00,M,FEW,SCT,SCT,M,8000.00,11000.00,15000.00,M,M,M,M,M,M,M,M,82.67,KNFL 191656Z 22004KT 10SM FEW080 SCT110 SCT150 29/12 A3015 RMK AO2 SLP175 T02890122,M
LAS,2022-07-19 16:56,-115.1634,36.0719,663.00,95.00,55.00,26.19,0.00,0.00,0.00,30.00,1012.80,10.00,M,FEW,FEW,M,M,13000.00,25000.00,M,M,M,M,M,M,M,M,M,93.10,KLAS 191656Z 00000KT 10SM FEW130 FEW250 35/13 A3000 RMK AO2 SLP128 T03500128 PNO $,M
WMC,2022-07-19 16:56,-117.8072,40.9019,1315.00,87.00,50.00,27.91,M,4.00,0.00,30.17,1015.60,10.00,M,CLR,M,M,M,M,M,M,M,M,M,M,M,M,M,M,84.51,KWMC 191656Z AUTO VRB04KT 10SM CLR 31/10 A3017 RMK AO2 SLP156 T03060100,M
EKO,2022-07-19 16:56,-115.7860,40.8242,1367.00,85.00,49.00,28.74,220.00,8.00,0.00,30.22,1016.20,10.00,M,FEW,M,M,M,12000.00,M,M,M,M,M,M,M,M,M,M,82.63,KEKO 191656Z AUTO 22008KT 10SM FEW120 29/09 A3022 RMK AO2 SLP162 T02940094,M
HND,2022-07-19 16:56,-115.1344,35.9729,742.79,97.00,56.00,25.45,60.00,5.00,0.00,30.04,1015.30,10.00,M,CLR,M,M,M,M,M,M,M,M,M,M,M,M,M,M,95.53,KHND 191656Z 06005KT 10SM CLR 36/13 A3004 RMK AO2 SLP153 T03610133 PNO $,M
LSV,2022-07-19 16:58,-115.0343,36.2362,570.00,103.00,55.60,20.94,170.00,3.00,0.00,29.97,1011.70,10.00,M,CLR,M,M,M,M,M,M,M,M,M,M,M,M,M,M,102.11,KLSV 191658Z AUTO 17003KT 10SM CLR 40/13 A2997 RMK AO2 SLP117 T03950131 $,M
INS,2022-07-19 16:58,-115.6733,36.5872,955.00,89.80,54.00,29.80,0.00,0.00,0.00,30.08,1013.50,10.00,M,CLR,M,M,M,M,M,M,M,M,M,M,M,M,M,M,87.65,KINS 191658Z AUTO 00000KT 10SM CLR 32/12 A3008 RMK AO2 SLP135 T03210123 $,M
05U,2022-07-19 17:15,-116.0051,39.6042,1811.23,84.20,50.00,30.62,0.00,0.00,0.00,30.31,M,10.00,M,FEW,M,M,M,11000.00,M,M,M,M,M,M,M,M,M,M,82.24,K05U 191715Z AUTO 00000KT 10SM FEW110 29/10 A3031 RMK A01,M
BVU,2022-07-19 17:15,-114.8611,35.9475,671.00,M,M,M,M,M,0.00,M,M,M,M,M,M,M,M,M,M,M,M,M,M,M,M,M,M,M,M,KBVU 191715Z AUTO RMK AO2 PNO PWINO TSNO,M
CXP,2022-07-19 17:15,-119.7326,39.1923,1431.00,86.00,46.40,25.26,M,3.00,0.00,30.21,M,10.00,M,FEW,M,M,M,11000.00,M,M,M,M,M,M,M,M,M,M,83.22,KCXP 191715Z AUTO VRB03KT 10SM FEW110 30/08 A3021 RMK AO2,M
RTS,2022-07-19 17:15,-119.8764,39.6682,1539.00,82.40,44.60,26.49,150.00,5.00,0.00,30.24,M,10.00,M,FEW,M,M,M,11000.00,M,M,M,M,M,M,M,M,M,M,80.50,KRTS 191715Z AUTO 15005KT 10SM FEW110 28/07 A3024 RMK AO2,M
MEV,2022-07-19 17:15,-119.7500,38.9963,1441.42,84.20,48.20,28.63,M,3.00,0.00,30.20,M,10.00,M,SCT,M,M,M,10000.00,M,M,M,M,M,M,M,M,M,M,82.04,KMEV 191715Z AUTO VRB03KT 10SM SCT100 29/09 A3020 RMK AO2,M
BAM,2022-07-19 17:15,-116.8743,40.5990,1382.36,M,M,M,360.00,3.00,0.00,30.19,M,10.00,M,CLR,M,M,M,M,M,M,M,M,M,M,M,M,M,M,M,KBAM 191715Z AUTO 36003KT 10SM CLR A3019 RMK AO1,M
HTH,2022-07-19 17:15,-118.6315,38.5448,1282.89,84.20,50.00,30.62,330.00,6.00,0.00,30.17,M,10.00,M,CLR,M,M,M,M,M,M,M,M,M,M,M,M,M,M,82.24,KHTH 191715Z AUTO 33006KT 10SM CLR 29/10 A3017 RMK A01,M
TMT,2022-07-19 17:15,-117.1971,39.4643,1749.34,M,M,M,0.00,0.00,0.00,30.30,M,10.00,M,CLR,M,M,M,M,M,M,M,M,M,M,M,M,M,M,M,KTMT 191715Z AUTO 00000KT 10SM CLR A3030 RMK AO2,M
TMT,2022-07-19 17:30,-117.1971,39.4643,1749.34,M,M,M,0.00,0.00,0.00,30.30,M,10.00,M,CLR,M,M,M,M,M,M,M,M,M,M,M,M,M,M,M,KTMT 191730Z AUTO 00000KT 10SM CLR A3030 RMK AO2,M
BAM,2022-07-19 17:35,-116.8743,40.5990,1382.36,M,M,M,50.00,3.00,0.00,30.19,M,10.00,M,CLR,M,M,M,M,M,M,M,M,M,M,M,M,M,M,M,KBAM 191735Z AUTO 05003KT 10SM CLR A3019 RMK AO1,M
BVU,2022-07-19 17:35,-114.8611,35.9475,671.00,M,M,M,M,M,0.00,M,M,M,M,M,M,M,M,M,M,M,M,M,M,M,M,M,M,M,M,KBVU 191735Z AUTO RMK AO2 PNO PWINO TSNO,M
CXP,2022-07-19 17:35,-119.7326,39.1923,1431.00,86.00,46.40,25.26,270.00,6.00,0.00,30.21,M,10.00,M,BKN,M,M,M,11000.00,M,M,M,M,M,M,M,M,M,M,83.22,KCXP 191735Z AUTO 27006KT 10SM BKN110 30/08 A3021 RMK AO2,M
RTS,2022-07-19 17:35,-119.8764,39.6682,1539.00,82.40,44.60,26.49,220.00,4.00,0.00,30.24,M,10.00,M,CLR,M,M,M,M,M,M,M,M,M,M,M,M,M,M,80.50,KRTS 191735Z AUTO 22004KT 10SM CLR 28/07 A3024 RMK AO2,M
05U,2022-07-19 17:35,-116.0051,39.6042,1811.23,84.20,48.20,28.63,0.00,0.00,0.00,30.31,M,10.00,M,CLR,M,M,M,M,M,M,M,M,M,M,M,M,M,M,82.04,K05U 191735Z AUTO 00000KT 10SM CLR 29/09 A3031 RMK A01,M
MEV,2022-07-19 17:35,-119.7500,38.9963,1441.42,86.00,46.40,25.26,80.00,4.00,0.00,30.20,M,10.00,M,CLR,M,M,M,M,M,M,M,M,M,M,M,M,M,M,83.22,KMEV 191735Z AUTO 08004KT 10SM CLR 30/08 A3020 RMK AO2,M
HTH,2022-07-19 17:35,-118.6315,38.5448,1282.89,84.20,48.20,28.63,320.00,6.00,0.00,30.18,M,10.00,M,CLR,M,M,M,M,M,M,M,M,M,M,M,M,M,M,82.04,KHTH 191735Z AUTO 32006KT 10SM CLR 29/09 A3018 RMK A01,M
DRA,2022-07-19 17:53,-116.0278,36.6206,1009.00,95.00,50.00,21.79,0.00,0.00,0.00,30.08,1012.60,10.00,M,CLR,M,M,M,M,M,M,M,M,M,M,M,M,M,M,91.89,KDRA 191753Z AUTO 00000KT 10SM CLR 35/10 A3008 RMK AO2 SLP126 T03500100 10356 20244 58002,M
ELY,2022-07-19 17:53,-114.8453,39.2950,1909.00,83.00,46.00,27.48,160.00,7.00,0.00,30.29,1013.80,10.00,M,FEW,M,M,M,8500.00,M,M,M,M,M,M,M,M,M,M,80.94,KELY 191753Z AUTO 16007KT 10SM FEW085 28/08 A3029 RMK AO2 SLP138 T02830078 10289 20167 58006,M
LOL,2022-07-19 17:53,-118.5701,40.0684,1192.43,87.00,52.00,30.05,0.00,0.00,0.00,30.14,1016.20,10.00,M,CLR,M,M,M,M,M,M,M,M,M,M,M,M,M,M,84.82,KLOL 191753Z AUTO 00000KT 10SM CLR 31/11 A3014 RMK AO2 SLP162 T03060111 10311 20167 58003,M
VGT,2022-07-19 17:53,-115.1933,36.2111,667.00,99.00,54.00,22.35,0.00,0.00,0.00,29.99,1013.90,10.00,M,CLR,M,M,M,M,M,M,M,M,M,M,M,M,M,M,97.06,KVGT 191753Z 00000KT 10SM CLR 37/12 A2999 RMK AO2 SLP139 T03720122 10378 20306 50000,M
P68,2022-07-19 17:53,-116.0056,39.6014,1993.00,83.00,48.00,29.64,M,4.00,0.00,30.28,1015.70,M,M,M,M,M,M,M,M,M,M,M,M,M,M,M,M,M,81.11,KP68 191753Z AUTO VRB04KT 28/09 A3028 RMK AO1 SLP157 T02830089 10283 20161 58002,M
BVU,2022-07-19 17:55,-114.8611,35.9475,671.00,M,M,M,M,M,0.00,M,M,M,M,M,M,M,M,M,M,M,M,M,M,M,M,M,M,M,M,KBVU 191755Z AUTO RMK AO2 PNO PWINO TSNO,M
CXP,2022-07-19 17:55,-119.7326,39.1923,1431.00,87.80,46.40,23.85,M,6.00,0.00,30.21,M,10.00,M,FEW,M,M,M,11000.00,M,M,M,M,M,M,M,M,M,M,84.68,KCXP 191755Z AUTO VRB06KT 10SM FEW110 31/08 A3021 RMK AO2,M
RNO,2022-07-19 17:55,-119.7711,39.4839,1341.00,87.00,48.00,25.90,M,4.00,0.00,30.18,1015.20,10.00,M,SCT,SCT,M,M,11000.00,14000.00,M,M,M,M,M,M,M,M,M,84.27,KRNO 191755Z VRB04KT 10SM SCT110 SCT140 31/09 A3018 RMK AO2 SLP152 T03060089 10311 20211 58005 $,M
RTS,2022-07-19 17:55,-119.8764,39.6682,1539.00,82.40,46.40,28.36,0.00,0.00,0.00,30.24,M,10.00,12.00,CLR,M,M,M,M,M,M,M,M,M,M,M,M,M,M,80.64,KRTS 191755Z AUTO 00000G12KT 10SM CLR 28/08 A3024 RMK AO2,M
05U,2022-07-19 17:55,-116.0051,39.6042,1811.23,84.20,48.20,28.63,M,4.00,0.00,30.31,M,10.00,10.00,CLR,M,M,M,M,M,M,M,M,M,M,M,M,M,M,82.04,K05U 191755Z AUTO VRB04G10KT 10SM CLR 29/09 A3031 RMK A01,M
MEV,2022-07-19 17:55,-119.7500,38.9963,1441.42,87.80,48.20,25.52,170.00,4.00,0.00,30.20,M,10.00,M,CLR,M,M,M,M,M,M,M,M,M,M,M,M,M,M,84.87,KMEV 191755Z AUTO 17004KT 10SM CLR 31/09 A3020 RMK AO2,M
BAM,2022-07-19 17:55,-116.8743,40.5990,1382.36,M,M,M,250.00,3.00,0.00,30.19,M,10.00,M,CLR,M,M,M,M,M,M,M,M,M,M,M,M,M,M,M,KBAM 191755Z AUTO 25003KT 10SM CLR A3019 RMK AO1,M
HTH,2022-07-19 17:55,-118.6315,38.5448,1282.89,86.00,48.20,27.03,320.00,5.00,0.00,30.17,M,10.00,M,CLR,M,M,M,M,M,M,M,M,M,M,M,M,M,M,83.40,KHTH 191755Z AUTO 32005KT 10SM CLR 30/09 A3017 RMK A01,M
TMT,2022-07-19 17:55,-117.1971,39.4643,1749.34,M,M,M,20.00,4.00,0.00,30.30,M,10.00,M,CLR,M,M,M,M,M,M,M,M,M,M,M,M,M,M,M,KTMT 191755Z AUTO 02004KT 10SM CLR A3030 RMK AO2,M
EKO,2022-07-19 17:56,-115.7860,40.8242,1367.00,87.00,47.00,24.85,270.00,8.00,0.00,30.22,1016.60,10.00,16.00,FEW,M,M,M,11000.00,M,M,M,M,M,M,M,M,M,M,84.15,KEKO 191756Z AUTO 27008G16KT 10SM FEW110 31/08 A3022 RMK AO2 SLP166 T03060083 10306 20206 55002,M
TPH,2022-07-19 17:56,-117.0904,38.0505,1654.00,84.00,47.00,27.44,260.00,3.00,0.00,30.26,1015.40,10.00,M,CLR,M,M,M,M,M,M,M,M,M,M,M,M,M,M,81.77,KTPH 191756Z AUTO 26003KT 10SM CLR 29/08 A3026 RMK AO2 SLP154 T02890083 10300 20167 58003,M
LAS,2022-07-19 17:56,-115.1634,36.0719,663.00,98.00,55.00,23.82,M,3.00,0.00,30.00,1012.80,10.00,M,FEW,M,M,M,13000.00,M,M,M,M,M,M,M,M,M,M,96.41,KLAS 191756Z VRB03KT 10SM FEW130 37/13 A3000 RMK AO2 SLP128 T03670128 10372 20289 51001 PNO $,M
NFL,2022-07-19 17:56,-118.7010,39.4166,1199.00,89.00,50.00,26.19,260.00,5.00,0.00,30.15,1017.40,10.00,M,FEW,SCT,SCT,M,8000.00,11000.00,15000.00,M,M,M,M,M,M,M,M,86.25,KNFL 191756Z 26005KT 10SM FEW080 SCT110 SCT150 32/10 A3015 RMK AO2 SLP174 T03170100 10322 20178 58003,M
WMC,2022-07-19 17:56,-117.8072,40.9019,1315.00,89.00,48.00,24.31,M,3.00,0.00,30.17,1015.40,10.00,M,CLR,M,M,M,M,M,M,M,M,M,M,M,M,M,M,85.97,KWMC 191756Z AUTO VRB03KT 10SM CLR 32/09 A3017 RMK AO2 SLP154 T03170089 10322 20172 58003,M
HND,2022-07-19 17:56,-115.1344,35.9729,742.79,99.00,57.00,24.92,290.00,3.00,0.00,30.04,1015.30,10.00,M,CLR,M,M,M,M,M,M,M,M,M,M,M,M,M,M,98.12,KHND 191756Z 29003KT 10SM CLR 37/14 A3004 RMK AO2 SLP153 6//// T03720139 10378 20261 58001 PNO $,M
LSV,2022-07-19 17:58,-115.0343,36.2362,570.00,107.00,54.50,17.87,0.00,0.00,0.00,29.96,1011.40,10.00,M,CLR,M,M,M,M,M,M,M,M,M,M,M,M,M,M,105.98,KLSV 191758Z AUTO 00000KT 10SM CLR 42/13 A2996 RMK AO2 SLP114 T04170125 10418 20283 58002 $,M
INS,2022-07-19 17:58,-115.6733,36.5872,955.00,92.70,51.60,24.83,0.00,0.00,0.00,30.07,1013.00,10.00,M,CLR,M,M,M,M,M,M,M,M,M,M,M,M,M,M,89.91,KINS 191758Z AUTO 00000KT 10SM CLR 34/11 A3007 RMK AO2 SLP130 T03370109 10337 20216 58004 $,M
CXP,2022-07-19 18:15,-119.7326,39.1923,1431.00,87.80,46.40,23.85,M,4.00,0.00,30.21,M,10.00,M,CLR,M,M,M,M,M,M,M,M,M,M,M,M,M,M,84.68,KCXP 191815Z AUTO VRB04KT 10SM CLR 31/08 A3021 RMK AO2,M
TMT,2022-07-19 18:15,-117.1971,39.4643,1749.34,M,M,M,310.00,8.00,0.00,30.30,M,10.00,M,CLR,M,M,M,M,M,M,M,M,M,M,M,M,M,M,M,KTMT 191815Z AUTO 31008KT 10SM CLR A3030 RMK AO2,M
BAM,2022-07-19 18:15,-116.8743,40.5990,1382.36,M,M,M,110.00,4.00,0.00,30.19,M,10.00,M,CLR,M,M,M,M,M,M,M,M,M,M,M,M,M,M,M,KBAM 191815Z AUTO 11004KT 10SM CLR A3019 RMK AO1,M
BVU,2022-07-19 18:15,-114.8611,35.9475,671.00,M,M,M,M,M,0.00,M,M,M,M,M,M,M,M,M,M,M,M,M,M,M,M,M,M,M,M,KBVU 191815Z AUTO RMK AO2 PNO PWINO TSNO,M
RTS,2022-07-19 18:15,-119.8764,39.6682,1539.00,84.20,46.40,26.76,250.00,6.00,0.00,30.23,M,10.00,13.00,CLR,M,M,M,M,M,M,M,M,M,M,M,M,M,M,81.87,KRTS 191815Z AUTO 25006G13KT 10SM CLR 29/08 A3023 RMK AO2,M
05U,2022-07-19 18:15,-116.0051,39.6042,1811.23,86.00,46.40,25.26,M,5.00,0.00,30.31,M,10.00,10.00,CLR,M,M,M,M,M,M,M,M,M,M,M,M,M,M,83.22,K05U 191815Z AUTO VRB05G10KT 10SM CLR 30/08 A3031 RMK A01,M
MEV,2022-07-19 18:15,-119.7500,38.9963,1441.42,87.80,48.20,25.52,M,4.00,0.00,30.20,M,10.00,M,CLR,M,M,M,M,M,M,M,M,M,M,M,M,M,M,84.87,KMEV 191815Z AUTO VRB04KT 10SM CLR 31/09 A3020 RMK AO2,M
HTH,2022-07-19 18:15,-118.6315,38.5448,1282.89,87.80,48.20,25.52,M,3.00,0.00,30.16,M,10.00,M,CLR,M,M,M,M,M,M,M,M,M,M,M,M,M,M,84.87,KHTH 191815Z AUTO VRB03KT 10SM CLR 31/09 A3016 RMK A01,M
MEV,2022-07-19 18:35,-119.7500,38.9963,1441.42,87.80,48.20,25.52,M,3.00,0.00,30.19,M,10.00,11.00,CLR,M,M,M,M,M,M,M,M,M,M,M,M,M,M,84.87,KMEV 191835Z AUTO VRB03G11KT 10SM CLR 31/09 A3019 RMK AO2,M
BVU,2022-07-19 18:35,-114.8611,35.9475,671.00,M,M,M,M,M,0.00,M,M,M,M,M,M,M,M,M,M,M,M,M,M,M,M,M,M,M,M,KBVU 191835Z AUTO RMK AO2 PNO PWINO TSNO,M
CXP,2022-07-19 18:35,-119.7326,39.1923,1431.00,89.60,46.40,22.53,M,5.00,0.00,30.21,M,10.00,M,CLR,M,M,M,M,M,M,M,M,M,M,M,M,M,M,86.24,KCXP 191835Z AUTO VRB05KT 10SM CLR 32/08 A3021 RMK AO2,M
RTS,2022-07-19 18:35,-119.8764,39.6682,1539.00,84.20,46.40,26.76,M,5.00,0.00,30.23,M,10.00,14.00,BKN,M,M,M,8000.00,M,M,M,M,M,M,M,M,M,M,81.87,KRTS 191835Z AUTO VRB05G14KT 10SM BKN080 29/08 A3023 RMK AO2,M
TMT,2022-07-19 18:35,-117.1971,39.4643,1749.34,M,M,M,290.00,4.00,0.00,30.28,M,10.00,M,CLR,M,M,M,M,M,M,M,M,M,M,M,M,M,M,M,KTMT 191835Z AUTO 29004KT 10SM CLR A3028 RMK AO2,M
HTH,2022-07-19 18:35,-118.6315,38.5448,1282.89,87.80,46.40,23.85,M,4.00,0.00,30.16,M,10.00,M,CLR,M,M,M,M,M,M,M,M,M,M,M,M,M,M,84.68,KHTH 191835Z AUTO VRB04KT 10SM CLR 31/08 A3016 RMK A01,M
BAM,2022-07-19 18:35,-116.8743,40.5990,1382.36,M,M,M,190.00,3.00,0.00,30.19,M,10.00,M,CLR,M,M,M,M,M,M,M,M,M,M,M,M,M,M,M,KBAM 191835Z AUTO 19003KT 10SM CLR A3019 RMK AO1,M
05U,2022-07-19 18:35,-116.0051,39.6042,1811.23,86.00,44.60,23.59,40.00,8.00,0.00,30.30,M,10.00,M,CLR,M,M,M,M,M,M,M,M,M,M,M,M,M,M,83.07,K05U 191835Z AUTO 04008KT 10SM CLR 30/07 A3030 RMK A01,M
05U,2022-07-19 18:50,-116.0051,39.6042,1811.23,87.80,44.60,22.27,0.00,0.00,0.00,30.29,M,10.00,10.00,CLR,M,M,M,M,M,M,M,M,M,M,M,M,M,M,84.53,K05U 191850Z AUTO 00000G10KT 10SM CLR 31/07 A3029 RMK A01,M
LOL,2022-07-19 18:53,-118.5701,40.0684,1192.43,91.00,51.00,25.70,M,M,0.00,30.13,1015.60,10.00,M,CLR,M,M,M,M,M,M,M,M,M,M,M,M,M,M,88.18,KLOL 191853Z AUTO 10SM CLR 33/11 A3013 RMK AO2 SLP156 T03280106,M
VGT,2022-07-19 18:53,-115.1933,36.2111,667.00,102.00,54.00,20.42,140.00,7.00,0.00,29.98,1013.30,10.00,M,CLR,M,M,M,M,M,M,M,M,M,M,M,M,M,M,100.30,KVGT 191853Z 14007KT 10SM CLR 39/12 A2998 RMK AO2 SLP133 T03890122,M
DRA,2022-07-19 18:53,-116.0278,36.6206,1009.00,99.00,48.00,17.90,170.00,6.00,0.00,30.07,1012.10,10.00,M,CLR,M,M,M,M,M,M,M,M,M,M,M,M,M,M,95.54,KDRA 191853Z AUTO 17006KT 10SM CLR 37/09 A3007 RMK AO2 SLP121 T03720089,M
ELY,2022-07-19 18:53,-114.8453,39.2950,1909.00,88.00,45.00,22.47,170.00,9.00,0.00,30.27,1013.30,10.00,M,CLR,M,M,M,M,M,M,M,M,M,M,M,M,M,M,84.72,KELY 191853Z AUTO 17009KT 10SM CLR 31/07 A3027 RMK AO2 SLP133 T03110072,M
P68,2022-07-19 18:53,-116.0056,39.6014,1993.00,85.00,45.00,24.81,20.00,8.00,0.00,30.26,1015.00,M,M,M,M,M,M,M,M,M,M,M,M,M,M,M,M,M,82.27,KP68 191853Z AUTO 02008KT 29/07 A3026 RMK AO1 SLP150 T02940072,M
BAM,2022-07-19 18:55,-116.8743,40.5990,1382.36,M,M,M,0.00,0.00,0.00,30.19,M,10.00,M,CLR,M,M,M,M,M,M,M,M,M,M,M,M,M,M,M,KBAM 191855Z AUTO 00000KT 10SM CLR A3019 RMK AO1,M
BVU,2022-07-19 18:55,-114.8611,35.9475,671.00,M,M,M,M,M,0.00,M,M,M,M,M,M,M,M,M,M,M,M,M,M,M,M,M,M,M,M,KBVU 191855Z AUTO RMK AO2 PNO PWINO TSNO,M
CXP,2022-07-19 18:55,-119.7326,39.1923,1431.00,89.60,46.40,22.53,0.00,0.00,0.00,30.20,M,10.00,M,CLR,M,M,M,M,M,M,M,M,M,M,M,M,M,M,86.24,KCXP 191855Z AUTO 00000KT 10SM CLR 32/08 A3020 RMK AO2,M
RTS,2022-07-19 18:55,-119.8764,39.6682,1539.00,84.20,46.40,26.76,210.00,13.00,0.00,30.23,M,10.00,22.00,BKN,BKN,M,M,8000.00,10000.00,M,M,M,M,M,M,M,M,M,81.87,KRTS 191855Z AUTO 21013G22KT 200V260 10SM BKN080 BKN100 29/08 A3023 RMK AO2,M
MEV,2022-07-19 18:55,-119.7500,38.9963,1441.42,89.60,48.20,24.11,300.00,8.00,0.00,30.19,M,10.00,M,CLR,M,M,M,M,M,M,M,M,M,M,M,M,M,M,86.44,KMEV 191855Z AUTO 30008KT 10SM CLR 32/09 A3019 RMK AO2,M
HTH,2022-07-19 18:55,-118.6315,38.5448,1282.89,89.60,46.40,22.53,M,6.00,0.00,30.15,M,10.00,M,CLR,M,M,M,M,M,M,M,M,M,M,M,M,M,M,86.24,KHTH 191855Z AUTO VRB06KT 10SM CLR 32/08 A3015 RMK A01,M
TMT,2022-07-19 18:55,-117.1971,39.4643,1749.34,M,M,M,230.00,4.00,0.00,30.28,M,10.00,M,CLR,M,M,M,M,M,M,M,M,M,M,M,M,M,M,M,KTMT 191855Z AUTO 23004KT 10SM CLR A3028 RMK AO2 LTG DSNT S,M
RNO,2022-07-19 18:55,-119.7711,39.4839,1341.00,91.00,49.00,23.68,M,5.00,0.00,30.16,1014.50,10.00,M,CLR,M,M,M,M,M,M,M,M,M,M,M,M,M,M,87.82,KRNO 191855Z VRB05KT 10SM CLR 33/09 A3016 RMK AO2 SLP145 T03280094 $,M
TPH,2022-07-19 18:56,-117.0904,38.0505,1654.00,87.00,45.00,23.12,M,5.00,0.00,30.24,1014.90,10.00,M,CLR,M,M,M,M,M,M,M,M,M,M,M,M,M,M,83.98,KTPH 191856Z AUTO VRB05KT 10SM CLR 31/07 A3024 RMK AO2 SLP149 T03060072,M
HND,2022-07-19 18:56,-115.1344,35.9729,742.79,102.00,57.00,22.77,M,4.00,0.00,30.03,1014.80,10.00,M,CLR,M,M,M,M,M,M,M,M,M,M,M,M,M,M,101.47,KHND 191856Z VRB04KT 10SM CLR 39/14 A3003 RMK AO2 SLP148 T03890139 PNO $,M
EKO,2022-07-19 18:56,-115.7860,40.8242,1367.00,87.00,48.00,25.90,220.00,10.00,0.00,30.21,1015.90,10.00,M,CLR,M,M,M,M,M,M,M,M,M,M,M,M,M,M,84.27,KEKO 191856Z AUTO 22010KT 10SM CLR 31/09 A3021 RMK AO2 SLP159 T03060089,M
LAS,2022-07-19 18:56,-115.1634,36.0719,663.00,101.00,56.00,22.61,100.00,5.00,0.00,29.99,1012.30,10.00,M,FEW,FEW,M,M,13000.00,25000.00,M,M,M,M,M,M,M,M,M,99.80,KLAS 191856Z 10005KT 10SM FEW130 FEW250 38/13 A2999 RMK AO2 SLP123 T03830133,M
NFL,2022-07-19 18:56,-118.7010,39.4166,1199.00,92.00,47.00,21.36,20.00,7.00,0.00,30.13,1016.90,10.00,M,SCT,SCT,M,M,8000.00,11000.00,M,M,M,M,M,M,M,M,M,88.39,KNFL 191856Z 02007KT 10SM SCT080 SCT110 33/08 A3013 RMK AO2 SLP169 T03330083,M
WMC,2022-07-19 18:56,-117.8072,40.9019,1315.00,92.00,47.00,21.36,290.00,9.00,0.00,30.15,1014.90,10.00,M,CLR,M,M,M,M,M,M,M,M,M,M,M,M,M,M,88.39,KWMC 191856Z AUTO 29009KT 10SM CLR 33/08 A3015 RMK AO2 SLP149 T03330083,M
INS,2022-07-19 18:58,-115.6733,36.5872,955.00,96.00,49.80,20.91,0.00,0.00,0.00,30.06,1012.50,10.00,M,CLR,M,M,M,M,M,M,M,M,M,M,M,M,M,M,92.96,KINS 191858Z AUTO 00000KT 10SM CLR 36/10 A3006 RMK AO2 SLP125 T03560099 $,M
LSV,2022-07-19 18:58,-115.0343,36.2362,570.00,108.30,54.00,16.94,190.00,6.00,0.00,29.95,1011.00,10.00,M,CLR,M,M,M,M,M,M,M,M,M,M,M,M,M,M,107.03,KLSV 191858Z AUTO 19006KT 10SM CLR 42/12 A2995 RMK AO2 SLP110 T04240122 $,M
TMT,2022-07-19 19:15,-117.1971,39.4643,1749.34,M,M,M,330.00,5.00,0.00,30.27,M,10.00,M,CLR,M,M,M,M,M,M,M,M,M,M,M,M,M,M,M,KTMT 191915Z AUTO 33005KT 10SM CLR A3027 RMK AO2 LTG DSNT SE,M
CXP,2022-07-19 19:15,-119.7326,39.1923,1431.00,89.60,46.40,22.53,300.00,10.00,0.00,30.19,M,10.00,M,CLR,M,M,M,M,M,M,M,M,M,M,M,M,M,M,86.24,KCXP 191915Z AUTO 30010KT 10SM CLR 32/08 A3019 RMK AO2,M
RTS,2022-07-19 19:15,-119.8764,39.6682,1539.00,86.00,46.40,25.26,220.00,11.00,0.00,30.23,M,10.00,M,SCT,BKN,M,M,8000.00,10000.00,M,M,M,M,M,M,M,M,M,83.22,KRTS 191915Z AUTO 22011KT 10SM SCT080 BKN100 30/08 A3023 RMK AO2,M
05U,2022-07-19 19:15,-116.0051,39.6042,1811.23,87.80,44.60,22.27,0.00,0.00,0.00,30.29,M,10.00,M,CLR,M,M,M,M,M,M,M,M,M,M,M,M,M,M,84.53,K05U 191915Z AUTO 00000KT 10SM CLR 31/07 A3029 RMK A01,M
BVU,2022-07-19 19:15,-114.8611,35.9475,671.00,M,M,M,M,M,0.00,M,M,M,M,M,M,M,M,M,M,M,M,M,M,M,M,M,M,M,M,KBVU 191915Z AUTO RMK AO2 PNO PWINO TSNO,M
BAM,2022-07-19 19:15,-116.8743,40.5990,1382.36,M,M,M,200.00,5.00,0.00,30.19,M,10.00,M,CLR,M,M,M,M,M,M,M,M,M,M,M,M,M,M,M,KBAM 191915Z AUTO 20005KT 10SM CLR A3019 RMK AO1,M
MEV,2022-07-19 19:15,-119.7500,38.9963,1441.42,89.60,48.20,24.11,340.00,8.00,0.00,30.19,M,10.00,13.00,CLR,M,M,M,M,M,M,M,M,M,M,M,M,M,M,86.44,KMEV 191915Z AUTO 34008G13KT 10SM CLR 32/09 A3019 RMK AO2,M
HTH,2022-07-19 19:15,-118.6315,38.5448,1282.89,89.60,46.40,22.53,320.00,6.00,0.00,30.14,M,10.00,M,CLR,M,M,M,M,M,M,M,M,M,M,M,M,M,M,86.24,KHTH 191915Z AUTO 32006KT 10SM CLR 32/08 A3014 RMK A01,M
RTS,2022-07-19 19:35,-119.8764,39.6682,1539.00,86.00,46.40,25.26,250.00,15.00,0.00,30.22,M,10.00,M,FEW,SCT,M,M,8000.00,10000.00,M,M,M,M,M,M,M,M,M,83.22,KRTS 191935Z AUTO 25015KT 10SM FEW080 SCT100 30/08 A3022 RMK AO2,M
BVU,2022-07-19 19:35,-114.8611,35.9475,671.00,M,M,M,M,M,0.00,M,M,M,M,M,M,M,M,M,M,M,M,M,M,M,M,M,M,M,M,KBVU 191935Z AUTO RMK AO2 PNO PWINO TSNO,M
CXP,2022-07-19 19:35,-119.7326,39.1923,1431.00,89.60,46.40,22.53,M,5.00,0.00,30.19,M,10.00,M,CLR,M,M,M,M,M,M,M,M,M,M,M,M,M,M,86.24,KCXP 191935Z AUTO VRB05KT 10SM CLR 32/08 A3019 RMK AO2,M
05U,2022-07-19 19:35,-116.0051,39.6042,1811.23,86.00,46.40,25.26,0.00,0.00,0.00,30.28,M,10.00,M,CLR,M,M,M,M,M,M,M,M,M,M,M,M,M,M,83.22,K05U 191935Z AUTO 00000KT 10SM CLR 30/08 A3028 RMK A01,M
MEV,2022-07-19 19:35,-119.7500,38.9963,1441.42,89.60,46.40,22.53,310.00,9.00,0.00,30.18,M,10.00,M,CLR,M,M,M,M,M,M,M,M,M,M,M,M,M,M,86.24,KMEV 191935Z AUTO 31009KT 10SM CLR 32/08 A3018 RMK AO2,M
BAM,2022-07-19 19:35,-116.8743,40.5990,1382.36,M,M,M,190.00,5.00,0.00,30.18,M,10.00,M,CLR,M,M,M,M,M,M,M,M,M,M,M,M,M,M,M,KBAM 191935Z AUTO 19005KT 10SM CLR A3018 RMK AO1,M
HTH,2022-07-19 19:35,-118.6315,38.5448,1282.89,89.60,46.40,22.53,M,4.00,0.00,30.13,M,10.00,M,CLR,M,M,M,M,M,M,M,M,M,M,M,M,M,M,86.24,KHTH 191935Z AUTO VRB04KT 10SM CLR 32/08 A3013 RMK A01,M
TMT,2022-07-19 19:35,-117.1971,39.4643,1749.34,M,M,M,200.00,5.00,0.00,30.25,M,10.00,M,CLR,M,M,M,M,M,M,M,M,M,M,M,M,M,M,M,KTMT 191935Z AUTO 20005KT 10SM CLR A3025 RMK AO2 LTG DSNT SE,M
ELY,2022-07-19 19:53,-114.8453,39.2950,1909.00,87.00,41.00,19.83,M,4.00,0.00,30.25,1012.30,10.00,17.00,FEW,SCT,M,M,10000.00,12000.00,M,M,VCTS,M,M,M,M,M,M,83.73,KELY 191953Z AUTO VRB04G17KT 10SM VCTS FEW100 SCT120 31/05 A3025 RMK AO2 LTG DSNT SE SLP123 T03060050,M
DRA,2022-07-19 19:53,-116.0278,36.6206,1009.00,102.00,48.00,16.35,230.00,13.00,0.00,30.05,1011.50,10.00,19.00,CLR,M,M,M,M,M,M,M,M,M,M,M,M,M,M,98.58,KDRA 191953Z AUTO 23013G19KT 10SM CLR 39/09 A3005 RMK AO2 SLP115 T03890089,M
LOL,2022-07-19 19:53,-118.5701,40.0684,1192.43,93.00,48.00,21.51,190.00,7.00,0.00,30.11,1014.80,10.00,M,CLR,M,M,M,M,M,M,M,M,M,M,M,M,M,M,89.58,KLOL 191953Z AUTO 19007KT 10SM CLR 34/09 A3011 RMK AO2 SLP148 T03390089,M
P68,2022-07-19 19:53,-116.0056,39.6014,1993.00,84.00,46.00,26.52,170.00,6.00,0.00,30.24,1014.50,M,M,M,M,M,M,M,M,M,M,M,M,M,M,M,M,M,81.69,KP68 191953Z AUTO 17006KT 29/08 A3024 RMK AO1 SLP145 T02890078,M
VGT,2022-07-19 19:53,-115.1933,36.2111,667.00,105.00,54.00,18.61,210.00,8.00,0.00,29.95,1012.40,10.00,15.00,CLR,M,M,M,M,M,M,M,M,M,M,M,M,M,M,103.64,KVGT 191953Z 21008G15KT 10SM CLR 41/12 A2995 RMK AO2 SLP124 T04060122,M
RNO,2022-07-19 19:55,-119.7711,39.4839,1341.00,90.00,49.00,24.44,M,4.00,0.00,30.15,1014.20,10.00,M,BKN,M,M,M,11000.00,M,M,M,M,M,M,M,M,M,M,86.90,KRNO 191955Z VRB04KT 10SM BKN110TCU 32/09 A3015 RMK AO2 SLP142 CB DSNT N MOV NE TCU ALQDS T03220094 $,M
CXP,2022-07-19 19:55,-119.7326,39.1923,1431.00,89.60,46.40,22.53,M,5.00,0.00,30.18,M,10.00,12.00,CLR,M,M,M,M,M,M,M,M,M,M,M,M,M,M,86.24,KCXP 191955Z AUTO VRB05G12KT 10SM CLR 32/08 A3018 RMK AO2,M
RTS,2022-07-19 19:55,-119.8764,39.6682,1539.00,84.20,46.40,26.76,M,5.00,0.00,30.21,M,10.00,13.00,FEW,FEW,M,M,8500.00,12000.00,M,M,M,M,M,M,M,M,M,81.87,KRTS 191955Z AUTO VRB05G13KT 10SM FEW085 FEW120 29/08 A3021 RMK AO2,M
05U,2022-07-19 19:55,-116.0051,39.6042,1811.23,86.00,46.40,25.26,0.00,0.00,0.00,30.27,M,10.00,M,CLR,M,M,M,M,M,M,M,M,M,M,M,M,M,M,83.22,K05U 191955Z AUTO 00000KT 10SM CLR 30/08 A3027 RMK A01,M
MEV,2022-07-19 19:55,-119.7500,38.9963,1441.42,89.60,48.20,24.11,290.00,9.00,0.00,30.17,M,10.00,M,FEW,M,M,M,12000.00,M,M,M,M,M,M,M,M,M,M,86.44,KMEV 191955Z AUTO 29009KT 230V360 10SM FEW120 32/09 A3017 RMK AO2,M
BAM,2022-07-19 19:55,-116.8743,40.5990,1382.36,M,M,M,220.00,3.00,0.00,30.17,M,10.00,M,SCT,M,M,M,11000.00,M,M,M,M,M,M,M,M,M,M,M,KBAM 191955Z AUTO 22003KT 10SM SCT110 A3017 RMK AO1,M
HTH,2022-07-19 19:55,-118.6315,38.5448,1282.89,91.40,46.40,21.29,M,4.00,0.00,30.13,M,10.00,M,CLR,M,M,M,M,M,M,M,M,M,M,M,M,M,M,87.86,KHTH 191955Z AUTO VRB04KT 10SM CLR 33/08 A3013 RMK A01,M
TMT,2022-07-19 19:55,-117.1971,39.4643,1749.34,M,M,M,190.00,3.00,0.00,30.25,M,10.00,M,CLR,M,M,M,M,M,M,M,TS,M,M,M,M,M,M,M,KTMT 191955Z AUTO 19003KT 10SM TS CLR A3025 RMK AO2 LTG DSNT S,M
BVU,2022-07-19 19:55,-114.8611,35.9475,671.00,M,M,M,M,M,0.00,M,M,M,M,M,M,M,M,M,M,M,M,M,M,M,M,M,M,M,M,KBVU 191955Z AUTO RMK AO2 PNO PWINO TSNO,M
NFL,2022-07-19 19:56,-118.7010,39.4166,1199.00,94.00,46.00,19.40,M,5.00,0.00,30.11,1016.20,10.00,M,SCT,SCT,M,M,8000.00,12000.00,M,M,M,M,M,M,M,M,M,90.17,KNFL 191956Z VRB05KT 10SM SCT080 SCT120 34/08 A3011 RMK AO2 SLP162 T03440078,M
TPH,2022-07-19 19:56,-117.0904,38.0505,1654.00,90.00,44.00,20.39,M,M,0.00,30.22,1013.90,10.00,M,CLR,M,M,M,M,M,M,M,M,M,M,M,M,M,M,86.38,KTPH 191956Z AUTO 10SM CLR 32/07 A3022 RMK AO2 SLP139 T03220067,M
EKO,2022-07-19 19:56,-115.7860,40.8242,1367.00,89.00,46.00,22.54,M,3.00,0.00,30.19,1014.90,10.00,M,CLR,M,M,M,M,M,M,M,M,M,M,M,M,M,M,85.76,KEKO 191956Z AUTO VRB03KT 10SM CLR 32/08 A3019 RMK AO2 SLP149 T03170078,M
HND,2022-07-19 19:56,-115.1344,35.9729,742.79,102.00,57.00,22.77,M,3.00,0.00,30.00,1014.00,10.00,M,CLR,M,M,M,M,M,M,M,M,M,M,M,M,M,M,101.47,KHND 191956Z VRB03KT 10SM CLR 39/14 A3000 RMK AO2 SLP140 T03890139 PNO $,M
LAS,2022-07-19 19:56,-115.1634,36.0719,663.00,102.00,55.00,21.17,0.00,0.00,0.00,29.96,1011.30,10.00,M,FEW,FEW,M,M,13000.00,25000.00,M,M,M,M,M,M,M,M,M,100.66,KLAS 191956Z 00000KT 10SM FEW130 FEW250 39/13 A2996 RMK AO2 SLP113 T03890128,M
WMC,2022-07-19 19:56,-117.8072,40.9019,1315.00,94.00,46.00,19.40,260.00,7.00,0.00,30.13,1014.40,10.00,M,CLR,M,M,M,M,M,M,M,M,M,M,M,M,M,M,90.17,KWMC 191956Z AUTO 26007KT 10SM CLR 34/08 A3013 RMK AO2 SLP144 T03440078,M
INS,2022-07-19 19:58,-115.6733,36.5872,955.00,98.00,48.60,18.92,0.00,0.00,0.00,30.03,1011.50,10.00,M,CLR,M,M,M,M,M,M,M,M,M,M,M,M,M,M,94.54,KINS 191958Z AUTO 00000KT 10SM CLR 37/09 A3003 RMK AO2 SLP115 T03660092 $,M
LSV,2022-07-19 19:58,-115.0343,36.2362,570.00,108.70,54.00,16.81,180.00,8.00,0.00,29.92,1010.00,10.00,M,CLR,M,M,M,M,M,M,M,M,M,M,M,M,M,M,107.49,KLSV 191958Z AUTO 18008KT 10SM CLR 43/12 A2992 RMK AO2 SLP100 T04260123 $,M
ELY,2022-07-19 20:08,-114.8453,39.2950,1909.00,86.00,41.00,20.54,250.00,11.00,0.00,30.24,M,10.00,17.00,SCT,M,M,M,10000.00,M,M,M,M,M,M,M,M,M,M,82.86,KELY 192008Z AUTO 25011G17KT 10SM SCT100 30/05 A3024 RMK AO2 T03000050,M
RTS,2022-07-19 20:15,-119.8764,39.6682,1539.00,84.20,44.60,24.99,0.00,0.00,0.00,30.21,M,10.00,13.00,FEW,M,M,M,8500.00,M,M,M,M,M,M,M,M,M,M,81.73,KRTS 192015Z AUTO 00000G13KT 10SM FEW085 29/07 A3021 RMK AO2,M
BVU,2022-07-19 20:15,-114.8611,35.9475,671.00,M,M,M,M,M,0.00,M,M,M,M,M,M,M,M,M,M,M,M,M,M,M,M,M,M,M,M,KBVU 192015Z AUTO RMK AO2 PNO PWINO TSNO,M
CXP,2022-07-19 20:15,-119.7326,39.1923,1431.00,89.60,44.60,21.04,290.00,5.00,0.00,30.18,M,10.00,14.00,CLR,M,M,M,M,M,M,M,M,M,M,M,M,M,M,86.07,KCXP 192015Z AUTO 29005G14KT 10SM CLR 32/07 A3018 RMK AO2,M
05U,2022-07-19 20:15,-116.0051,39.6042,1811.23,89.60,44.60,21.04,0.00,0.00,0.00,30.26,M,10.00,10.00,CLR,M,M,M,M,M,M,M,M,M,M,M,M,M,M,86.07,K05U 192015Z AUTO 00000G10KT 10SM CLR 32/07 A3026 RMK A01,M
MEV,2022-07-19 20:15,-119.7500,38.9963,1441.42,91.40,46.40,21.29,290.00,10.00,0.00,30.17,M,10.00,15.00,CLR,M,M,M,M,M,M,M,M,M,M,M,M,M,M,87.86,KMEV 192015Z AUTO 29010G15KT 10SM CLR 33/08 A3017 RMK AO2,M
BAM,2022-07-19 20:15,-116.8743,40.5990,1382.36,M,M,M,0.00,0.00,0.00,30.17,M,10.00,M,SCT,M,M,M,11000.00,M,M,M,M,M,M,M,M,M,M,M,KBAM 192015Z AUTO 00000KT 10SM SCT110 A3017 RMK AO1,M
HTH,2022-07-19 20:15,-118.6315,38.5448,1282.89,93.20,46.40,20.13,110.00,7.00,0.00,30.12,M,10.00,15.00,CLR,M,M,M,M,M,M,M,M,M,M,M,M,M,M,89.55,KHTH 192015Z AUTO 11007G15KT 10SM CLR 34/08 A3012 RMK A01,M
TMT,2022-07-19 20:15,-117.1971,39.4643,1749.34,M,M,M,110.00,8.00,0.00,30.24,M,10.00,14.00,CLR,M,M,M,M,M,M,M,M,M,M,M,M,M,M,M,KTMT 192015Z AUTO 11008G14KT 10SM CLR A3024 RMK AO2 LTG DSNT SE AND W,M
RTS,2022-07-19 20:35,-119.8764,39.6682,1539.00,87.80,46.40,23.85,290.00,12.00,0.00,30.20,M,10.00,M,BKN,M,M,M,8500.00,M,M,M,M,M,M,M,M,M,M,84.68,KRTS 192035Z AUTO 29012KT 10SM BKN085 31/08 A3020 RMK AO2,M
MEV,2022-07-19 20:35,-119.7500,38.9963,1441.42,91.40,46.40,21.29,300.00,10.00,0.00,30.16,M,10.00,16.00,CLR,M,M,M,M,M,M,M,M,M,M,M,M,M,M,87.86,KMEV 192035Z AUTO 30010G16KT 10SM CLR 33/08 A3016 RMK AO2,M
05U,2022-07-19 20:35,-116.0051,39.6042,1811.23,86.00,44.60,23.59,0.00,0.00,0.00,30.25,M,10.00,M,CLR,M,M,M,M,M,M,M,M,M,M,M,M,M,M,83.07,K05U 192035Z AUTO 00000KT 10SM CLR 30/07 A3025 RMK A01,M
BAM,2022-07-19 20:35,-116.8743,40.5990,1382.36,M,M,M,0.00,0.00,0.00,30.16,M,10.00,M,CLR,M,M,M,M,M,M,M,M,M,M,M,M,M,M,M,KBAM 192035Z AUTO 00000KT 10SM CLR A3016 RMK AO1,M
HTH,2022-07-19 20:35,-118.6315,38.5448,1282.89,86.00,53.60,33.01,280.00,26.00,0.00,30.12,M,9.00,39.00,SCT,M,M,M,9500.00,M,M,M,M,M,M,M,M,M,M,84.18,KHTH 192035Z AUTO 28026G39KT 9SM SCT095 30/12 A3012 RMK A01,M
TMT,2022-07-19 20:35,-117.1971,39.4643,1749.34,M,M,M,180.00,6.00,0.00,30.25,M,10.00,M,CLR,M,M,M,M,M,M,M,TS,M,M,M,M,M,M,M,KTMT 192035Z AUTO 18006KT 10SM TS CLR A3025 RMK AO2 LTG DSNT SW THRU NE,M
CXP,2022-07-19 20:35,-119.7326,39.1923,1431.00,91.40,44.60,19.89,290.00,13.00,0.00,30.17,M,9.00,19.00,CLR,M,M,M,M,M,M,M,M,M,M,M,M,M,M,87.68,KCXP 192035Z AUTO 29013G19KT 250V310 9SM CLR 33/07 A3017 RMK AO2,M
BVU,2022-07-19 20:35,-114.8611,35.9475,671.00,M,M,M,M,M,0.00,M,M,M,M,M,M,M,M,M,M,M,M,M,M,M,M,M,M,M,M,KBVU 192035Z AUTO RMK AO2 PNO PWINO TSNO,M
P68,2022-07-19 20:53,-116.0056,39.6014,1993.00,81.00,45.00,28.15,170.00,25.00,0.00,30.23,1014.50,M,33.00,M,M,M,M,M,M,M,M,M,M,M,M,33.00,170.00,2022-07-19 20:53,79.68,KP68 192053Z AUTO 17025G33KT 27/07 A3023 RMK AO1 PK WND 17033/2053 SLP145 T02720072 56013,M
DRA,2022-07-19 20:53,-116.0278,36.6206,1009.00,102.00,46.00,15.16,200.00,10.00,0.00,30.02,1010.50,10.00,20.00,CLR,M,M,M,M,M,M,M,M,M,M,M,M,M,M,98.15,KDRA 192053Z AUTO 20010G20KT 180V250 10SM CLR 39/08 A3002 RMK AO2 SLP105 T03890078 58017,M
ELY,2022-07-19 20:53,-114.8453,39.2950,1909.00,88.00,41.00,19.28,250.00,12.00,0.00,30.24,1012.00,10.00,21.00,FEW,M,M,M,12000.00,M,M,M,M,M,M,M,M,M,M,84.46,KELY 192053Z AUTO 25012G21KT 10SM FEW120 31/05 A3024 RMK AO2 SLP120 T03110050 56013,M
VGT,2022-07-19 20:53,-115.1933,36.2111,667.00,106.00,54.00,18.13,170.00,3.00,0.00,29.92,1011.30,10.00,16.00,CLR,M,M,M,M,M,M,M,M,M,M,M,M,M,M,104.60,KVGT 192053Z 17003G16KT 10SM CLR 41/12 A2992 RMK AO2 SLP113 T04110122 58023,M
LOL,2022-07-19 20:53,-118.5701,40.0684,1192.43,96.00,48.00,19.55,200.00,13.00,0.00,30.08,1013.70,10.00,17.00,SCT,M,M,M,10000.00,M,M,M,M,M,M,M,M,M,M,92.62,KLOL 192053Z AUTO 20013G17KT 10SM SCT100 36/09 A3008 RMK AO2 LTG DSNT N SLP137 T03560089 58020,M
RNO,2022-07-19 20:55,-119.7711,39.4839,1341.00,93.00,50.00,23.18,0.00,0.00,0.00,30.13,1013.50,10.00,M,BKN,BKN,M,M,12000.00,23000.00,M,M,M,M,M,M,M,M,M,89.90,KRNO 192055Z 00000KT 10SM BKN120CB BKN230 34/10 A3013 RMK AO2 LTG DSNT N SLP135 CB N MOV NE CB DSNT SE T03390100 58014 $,M
TMT,2022-07-19 20:55,-117.1971,39.4643,1749.34,70.00,56.00,61.34,320.00,15.00,0.01,30.25,M,7.00,30.00,SCT,SCT,BKN,M,2400.00,4100.00,6000.00,M,VCTSRA,M,M,M,M,M,M,70.00,KTMT 192055Z AUTO 32015G30KT 7SM VCTSRA SCT024 SCT041 BKN060 21/13 A3025 RMK AO2 LTG DSNT ALQS P0001 60001 T02110134,M
BVU,2022-07-19 20:55,-114.8611,35.9475,671.00,M,M,M,M,M,0.00,M,M,M,M,M,M,M,M,M,M,M,M,M,M,M,M,M,M,M,M,KBVU 192055Z AUTO RMK AO2 PNO PWINO TSNO,M
CXP,2022-07-19 20:55,-119.7326,39.1923,1431.00,91.40,46.40,21.29,270.00,12.00,0.00,30.18,M,10.00,20.00,CLR,M,M,M,M,M,M,M,M,M,M,M,M,M,M,87.86,KCXP 192055Z AUTO 27012G20KT 10SM CLR 33/08 A3018 RMK AO2,M
RTS,2022-07-19 20:55,-119.8764,39.6682,1539.00,87.80,44.60,22.27,280.00,11.00,0.00,30.20,M,10.00,17.00,BKN,M,M,M,8500.00,M,M,M,M,M,M,M,M,M,M,84.53,KRTS 192055Z AUTO 28011G17KT 10SM BKN085 31/07 A3020 RMK AO2,M
05U,2022-07-19 20:55,-116.0051,39.6042,1811.23,84.20,44.60,24.99,160.00,22.00,0.00,30.26,M,8.00,28.00,BKN,M,M,M,9000.00,M,M,M,M,M,M,M,M,M,M,81.73,K05U 192055Z AUTO 16022G28KT 8SM BKN090 29/07 A3026 RMK A01,M
MEV,2022-07-19 20:55,-119.7500,38.9963,1441.42,91.40,46.40,21.29,280.00,10.00,0.00,30.16,M,10.00,18.00,CLR,M,M,M,M,M,M,M,M,M,M,M,M,M,M,87.86,KMEV 192055Z AUTO 28010G18KT 10SM CLR 33/08 A3016 RMK AO2,M
BAM,2022-07-19 20:55,-116.8743,40.5990,1382.36,M,M,M,130.00,7.00,0.00,30.15,M,10.00,M,CLR,M,M,M,M,M,M,M,M,M,M,M,M,M,M,M,KBAM 192055Z AUTO 13007KT 10SM CLR A3015 RMK AO1,M
HTH,2022-07-19 20:55,-118.6315,38.5448,1282.89,77.00,57.20,50.43,180.00,14.00,0.09,30.14,M,1.75,28.00,SCT,BKN,OVC,M,300.00,3100.00,9500.00,M,HZ,M,M,M,M,M,M,77.00,KHTH 192055Z AUTO 18014G28KT 1 3/4SM HZ SCT003 BKN031 OVC095 25/14 A3014 RMK A01 P0009,M
EKO,2022-07-19 20:56,-115.7860,40.8242,1367.00,88.00,46.00,23.34,270.00,13.00,0.00,30.18,1014.80,10.00,17.00,FEW,M,M,M,10000.00,M,M,M,M,M,M,M,M,M,M,84.81,KEKO 192056Z AUTO 27013G17KT 10SM FEW100 31/08 A3018 RMK AO2 LTG DSNT W SLP148 T03110078 56013,M
LAS,2022-07-19 20:56,-115.1634,36.0719,663.00,106.00,51.00,16.29,210.00,7.00,0.00,29.93,1010.20,10.00,M,FEW,M,M,M,13000.00,M,M,M,M,M,M,M,M,M,M,103.54,KLAS 192056Z 21007KT 10SM FEW130 41/11 A2993 RMK AO2 SLP102 CB DSNT S T04110106 58023,M
HND,2022-07-19 20:56,-115.1344,35.9729,742.79,104.00,55.00,19.95,350.00,3.00,0.00,29.97,1012.90,10.00,M,FEW,M,M,M,11000.00,M,M,M,M,M,M,M,M,M,M,102.85,KHND 192056Z 35003KT 10SM FEW110 40/13 A2997 RMK AO2 SLP129 6//// T04000128 58022 PNO $,M
NFL,2022-07-19 20:56,-118.7010,39.4166,1199.00,96.00,46.00,18.13,M,3.00,0.00,30.08,1015.50,10.00,M,SCT,SCT,M,M,8000.00,12000.00,M,M,M,M,M,M,M,M,M,92.30,KNFL 192056Z VRB03KT 10SM SCT080 SCT120 36/08 A3008 RMK AO2 SLP155 CB DSNT SE-SW T03560078 58019,M
TPH,2022-07-19 20:56,-117.0904,38.0505,1654.00,92.00,43.00,18.42,260.00,7.00,0.00,30.20,1013.60,10.00,16.00,FEW,M,M,M,11000.00,M,M,M,M,M,M,M,M,M,M,87.99,KTPH 192056Z AUTO 26007G16KT 10SM FEW110 33/06 A3020 RMK AO2 SLP136 T03330061 58016,M
WMC,2022-07-19 20:56,-117.8072,40.9019,1315.00,94.00,46.00,19.40,M,3.00,0.00,30.11,1013.40,10.00,M,FEW,M,M,M,11000.00,M,M,M,M,M,M,M,M,M,M,90.17,KWMC 192056Z AUTO VRB03KT 10SM FEW110 34/08 A3011 RMK AO2 SLP134 T03440078 58018 $,M
LSV,2022-07-19 20:58,-115.0343,36.2362,570.00,110.30,52.20,14.96,210.00,5.00,0.00,29.89,1009.00,10.00,M,CLR,M,M,M,M,M,M,M,M,M,M,M,M,M,M,108.32,KLSV 192058Z AUTO 21005KT 10SM CLR 44/11 A2989 RMK AO2 SLP090 T04350112 57023 $,M
INS,2022-07-19 20:58,-115.6733,36.5872,955.00,100.20,47.50,16.94,200.00,5.00,0.00,30.01,1010.80,10.00,M,CLR,M,M,M,M,M,M,M,M,M,M,M,M,M,M,96.65,KINS 192058Z AUTO 20005KT 10SM CLR 38/09 A3001 RMK AO2 SLP108 T03790086 57020 $,M
RTS,2022-07-19 21:15,-119.8764,39.6682,1539.00,87.80,44.60,22.27,260.00,8.00,0.00,30.20,M,10.00,13.00,BKN,M,M,M,8500.00,M,M,M,M,M,M,M,M,M,M,84.53,KRTS 192115Z AUTO 26008G13KT 230V290 10SM BKN085 31/07 A3020 RMK AO2,M
BVU,2022-07-19 21:15,-114.8611,35.9475,671.00,M,M,M,M,M,0.00,M,M,M,M,M,M,M,M,M,M,M,M,M,M,M,M,M,M,M,M,KBVU 192115Z AUTO RMK AO2 PNO PWINO TSNO,M
TMT,2022-07-19 21:15,-117.1971,39.4643,1749.34,M,M,M,360.00,7.00,0.00,30.25,M,10.00,10.00,SCT,SCT,SCT,M,4100.00,5000.00,5500.00,M,M,M,M,M,M,M,M,M,KTMT 192115Z AUTO 36007G10KT 10SM SCT041 SCT050 SCT055 A3025 RMK AO2,M
HTH,2022-07-19 21:15,-118.6315,38.5448,1282.89,82.40,57.20,42.25,220.00,5.00,0.00,30.13,M,10.00,M,FEW,FEW,FEW,M,2700.00,3400.00,4400.00,M,M,M,M,M,M,M,M,82.08,KHTH 192115Z AUTO 22005KT 10SM FEW027 FEW034 FEW044 28/14 A3013 RMK A01,M
MEV,2022-07-19 21:15,-119.7500,38.9963,1441.42,93.20,46.40,20.13,280.00,10.00,0.00,30.16,M,10.00,21.00,CLR,M,M,M,M,M,M,M,M,M,M,M,M,M,M,89.55,KMEV 192115Z AUTO 28010G21KT 10SM CLR 34/08 A3016 RMK AO2,M
CXP,2022-07-19 21:15,-119.7326,39.1923,1431.00,91.40,44.60,19.89,270.00,15.00,0.00,30.18,M,10.00,23.00,CLR,M,M,M,M,M,M,M,M,M,M,M,M,M,M,87.68,KCXP 192115Z AUTO 27015G23KT 10SM CLR 33/07 A3018 RMK AO2,M
BAM,2022-07-19 21:15,-116.8743,40.5990,1382.36,M,M,M,70.00,3.00,0.00,30.15,M,10.00,M,CLR,M,M,M,M,M,M,M,M,M,M,M,M,M,M,M,KBAM 192115Z AUTO 07003KT 10SM CLR A3015 RMK AO1,M
05U,2022-07-19 21:15,-116.0051,39.6042,1811.23,78.80,48.20,34.13,150.00,12.00,0.00,30.27,M,10.00,19.00,FEW,M,M,M,9000.00,M,M,M,M,M,M,M,M,M,M,78.80,K05U 192115Z AUTO 15012G19KT 10SM FEW090 26/09 A3027 RMK A01,M
TMT,2022-07-19 21:35,-117.1971,39.4643,1749.34,M,M,M,360.00,6.00,0.00,30.24,M,10.00,M,CLR,M,M,M,M,M,M,M,M,M,M,M,M,M,M,M,KTMT 192135Z AUTO 36006KT 10SM CLR A3024 RMK AO2 LTG DSNT S AND SW,M
HTH,2022-07-19 21:35,-118.6315,38.5448,1282.89,84.20,57.20,39.86,170.00,7.00,0.00,30.14,M,10.00,M,CLR,M,M,M,M,M,M,M,M,M,M,M,M,M,M,83.47,KHTH 192135Z AUTO 17007KT 10SM CLR 29/14 A3014 RMK A01,M
BAM,2022-07-19 21:35,-116.8743,40.5990,1382.36,M,M,M,110.00,5.00,0.00,30.13,M,10.00,M,CLR,M,M,M,M,M,M,M,M,M,M,M,M,M,M,M,KBAM 192135Z AUTO 11005KT 10SM CLR A3013 RMK AO1,M
MEV,2022-07-19 21:35,-119.7500,38.9963,1441.42,93.20,46.40,20.13,270.00,16.00,0.00,30.15,M,10.00,M,CLR,M,M,M,M,M,M,M,M,M,M,M,M,M,M,89.55,KMEV 192135Z AUTO 27016KT 10SM CLR 34/08 A3015 RMK AO2,M
05U,2022-07-19 21:35,-116.0051,39.6042,1811.23,80.60,50.00,34.41,130.00,12.00,0.00,30.26,M,10.00,M,CLR,M,M,M,M,M,M,M,M,M,M,M,M,M,M,79.88,K05U 192135Z AUTO 13012KT 10SM CLR 27/10 A3026 RMK A01,M
RTS,2022-07-19 21:35,-119.8764,39.6682,1539.00,86.00,44.60,23.59,290.00,8.00,0.00,30.19,M,10.00,17.00,BKN,BKN,M,M,8500.00,11000.00,M,M,M,M,M,M,M,M,M,83.07,KRTS 192135Z AUTO 29008G17KT 10SM BKN085 BKN110 30/07 A3019 RMK AO2,M
CXP,2022-07-19 21:35,-119.7326,39.1923,1431.00,91.40,44.60,19.89,260.00,12.00,0.00,30.17,M,10.00,20.00,CLR,M,M,M,M,M,M,M,M,M,M,M,M,M,M,87.68,KCXP 192135Z AUTO 26012G20KT 10SM CLR 33/07 A3017 RMK AO2,M
BVU,2022-07-19 21:35,-114.8611,35.9475,671.00,M,M,M,M,M,0.00,M,M,M,M,M,M,M,M,M,M,M,M,M,M,M,M,M,M,M,M,KBVU 192135Z AUTO RMK AO2 PNO PWINO TSNO,M
DRA,2022-07-19 21:53,-116.0278,36.6206,1009.00,104.00,45.00,13.75,230.00,11.00,0.00,30.00,1009.90,10.00,21.00,CLR,M,M,M,M,M,M,M,M,M,M,M,M,M,M,99.90,KDRA 192153Z AUTO 23011G21KT 10SM CLR 40/07 A3000 RMK AO2 SLP099 T04000072,M
VGT,2022-07-19 21:53,-115.1933,36.2111,667.00,108.00,51.00,15.36,M,M,0.00,29.89,1010.30,10.00,M,CLR,M,M,M,M,M,M,M,M,M,M,M,M,M,M,105.58,KVGT 192153Z 10SM CLR 42/11 A2989 RMK AO2 SLP103 T04220106,M
LOL,2022-07-19 21:53,-118.5701,40.0684,1192.43,96.00,47.00,18.76,170.00,10.00,0.00,30.06,1013.00,10.00,M,FEW,M,M,M,10000.00,M,M,M,M,M,M,M,M,M,M,92.44,KLOL 192153Z AUTO 17010KT 10SM FEW100 36/08 A3006 RMK AO2 SLP130 T03560083,M
P68,2022-07-19 21:53,-116.0056,39.6014,1993.00,78.00,49.00,35.86,160.00,17.00,0.00,30.25,1015.40,M,26.00,M,M,M,M,M,M,M,M,M,M,M,M,30.00,150.00,2022-07-19 20:57,78.10,KP68 192153Z AUTO 16017G26KT 26/09 A3025 RMK AO1 PK WND 15030/2057 SLP154 T02560094,M
ELY,2022-07-19 21:53,-114.8453,39.2950,1909.00,90.00,41.00,18.10,270.00,16.00,0.00,30.22,1011.20,10.00,26.00,CLR,M,M,M,M,M,M,M,M,M,M,M,27.00,220.00,2022-07-19 21:11,86.16,KELY 192153Z AUTO 27016G26KT 10SM CLR 32/05 A3022 RMK AO2 PK WND 22027/2111 LTG DSNT N AND NE SLP112 T03220050,M
BAM,2022-07-19 21:55,-116.8743,40.5990,1382.36,M,M,M,160.00,5.00,0.00,30.13,M,10.00,M,CLR,M,M,M,M,M,M,M,M,M,M,M,M,M,M,M,KBAM 192155Z AUTO 16005KT 10SM CLR A3013 RMK AO1,M
CXP,2022-07-19 21:55,-119.7326,39.1923,1431.00,91.40,44.60,19.89,270.00,10.00,0.00,30.16,M,10.00,18.00,CLR,M,M,M,M,M,M,M,M,M,M,M,M,M,M,87.68,KCXP 192155Z AUTO 27010G18KT 10SM CLR 33/07 A3016 RMK AO2,M
RNO,2022-07-19 21:55,-119.7711,39.4839,1341.00,96.00,45.00,17.46,290.00,16.00,0.00,30.11,1012.60,10.00,M,BKN,BKN,M,M,12000.00,23000.00,M,M,M,M,M,M,M,M,M,92.17,KRNO 192155Z 29016KT 10SM BKN120CB BKN230 36/07 A3011 RMK AO2 LTG DSNT NE AND E SLP126 CB S MOV NE CB DSNT NE AND E MOV NE T03560072 $,M
RTS,2022-07-19 21:55,-119.8764,39.6682,1539.00,89.60,42.80,19.64,270.00,8.00,0.00,30.19,M,10.00,18.00,SCT,SCT,M,M,9000.00,11000.00,M,M,M,M,M,M,M,M,M,85.93,KRTS 192155Z AUTO 27008G18KT 250V320 10SM SCT090 SCT110 32/06 A3019 RMK AO2,M
05U,2022-07-19 21:55,-116.0051,39.6042,1811.23,80.60,48.20,32.18,170.00,15.00,0.00,30.28,M,10.00,22.00,CLR,M,M,M,M,M,M,M,M,M,M,M,M,M,M,79.71,K05U 192155Z AUTO 17015G22KT 10SM CLR 27/09 A3028 RMK A01,M
MEV,2022-07-19 21:55,-119.7500,38.9963,1441.42,93.20,46.40,20.13,310.00,14.00,0.00,30.15,M,10.00,20.00,CLR,M,M,M,M,M,M,M,M,M,M,M,M,M,M,89.55,KMEV 192155Z AUTO 31014G20KT 10SM CLR 34/08 A3015 RMK AO2,M
HTH,2022-07-19 21:55,-118.6315,38.5448,1282.89,86.00,55.40,35.25,120.00,6.00,0.03,30.14,M,10.00,M,CLR,M,M,M,M,M,M,M,M,M,M,M,M,M,M,84.54,KHTH 192155Z AUTO 12006KT 10SM CLR 30/13 A3014 RMK A01 P0003,M
TMT,2022-07-19 21:55,-117.1971,39.4643,1749.34,M,M,M,0.00,0.00,0.00,30.24,M,10.00,M,CLR,M,M,M,M,M,M,M,M,M,M,M,M,M,M,M,KTMT 192155Z AUTO 00000KT 10SM CLR A3024 RMK AO2,M
BVU,2022-07-19 21:55,-114.8611,35.9475,671.00,M,M,M,M,M,0.00,M,M,M,M,M,M,M,M,M,M,M,M,M,M,M,M,M,M,M,M,KBVU 192155Z AUTO RMK AO2 PNO PWINO TSNO,M
HND,2022-07-19 21:56,-115.1344,35.9729,742.79,106.00,56.00,19.42,180.00,8.00,0.00,29.94,1011.80,10.00,M,FEW,M,M,M,11000.00,M,M,M,M,M,M,M,M,M,M,105.41,KHND 192156Z 18008KT 10SM FEW110 41/13 A2994 RMK AO2 SLP118 T04110133 PNO $,M
WMC,2022-07-19 21:56,-117.8072,40.9019,1315.00,94.00,45.00,18.68,260.00,7.00,0.00,30.09,1012.90,10.00,15.00,BKN,M,M,M,11000.00,M,M,M,M,M,M,M,M,M,M,90.05,KWMC 192156Z AUTO 26007G15KT 10SM BKN110 34/07 A3009 RMK AO2 SLP129 T03440072 $,M
NFL,2022-07-19 21:56,-118.7010,39.4166,1199.00,95.00,45.00,18.06,M,5.00,0.00,30.06,1014.90,10.00,M,SCT,SCT,M,M,8000.00,12000.00,M,M,M,M,M,M,M,M,M,91.10,KNFL 192156Z VRB05KT 10SM SCT080 SCT120 35/07 A3006 RMK AO2 SLP149 CB DSNT SE-SW T03500072,M
EKO,2022-07-19 21:56,-115.7860,40.8242,1367.00,90.00,44.00,20.39,290.00,11.00,0.00,30.17,1014.70,10.00,22.00,CLR,M,M,M,M,M,M,M,M,M,M,M,M,M,M,86.38,KEKO 192156Z AUTO 29011G22KT 10SM CLR 32/07 A3017 RMK AO2 SLP147 T03220067,M
LAS,2022-07-19 21:56,-115.1634,36.0719,663.00,106.00,51.00,16.29,0.00,0.00,0.00,29.90,1009.20,10.00,M,FEW,M,M,M,13000.00,M,M,M,M,M,M,M,M,M,M,103.54,KLAS 192156Z 00000KT 10SM FEW130CB 41/11 A2990 RMK AO2 SLP092 CB E-S AND DSNT N AND E-SE MOV N T04110106,M
TPH,2022-07-19 21:56,-117.0904,38.0505,1654.00,85.00,49.00,28.74,M,6.00,0.01,30.19,1014.30,9.00,21.00,FEW,BKN,BKN,M,3900.00,9000.00,11000.00,M,-RA,M,M,M,M,M,M,82.63,KTPH 192156Z AUTO VRB06G21KT 9SM -RA FEW039 BKN090 BKN110 29/09 A3019 RMK AO2 RAB43 SLP143 P0001 T02940094,M
INS,2022-07-19 21:58,-115.6733,36.5872,955.00,102.20,45.70,14.90,330.00,5.00,0.00,29.98,1009.70,10.00,M,FEW,M,M,M,11000.00,M,M,M,M,M,M,M,M,M,M,98.28,KINS 192158Z AUTO 33005KT 10SM FEW110 39/08 A2998 RMK AO2 SLP097 T03900076 $,M
LSV,2022-07-19 21:58,-115.0343,36.2362,570.00,111.40,51.00,13.92,180.00,4.00,0.00,29.86,1008.00,10.00,M,SCT,M,M,M,12000.00,M,M,M,M,M,M,M,M,M,M,108.95,KLSV 192158Z COR 18004KT 10SM SCT120 44/11 A2986 RMK AO2A SLP080 T04410106 $ COR 2201,M
LSV,2022-07-19 21:59,-115.0343,36.2362,570.00,111.20,51.80,14.36,170.00,5.00,0.00,29.86,1008.00,10.00,M,SCT,M,M,M,12000.00,M,M,M,M,M,M,M,M,M,M,109.04,KLSV 192159Z 17005KT 10SM SCT120 44/11 A2986 RMK SLP080 $,M
P68,2022-07-19 22:05,-116.0056,39.6014,1993.00,75.00,49.00,39.75,300.00,21.00,0.00,30.28,M,M,32.00,M,M,M,M,M,M,M,M,M,M,M,M,32.00,310.00,2022-07-19 22:03,75.00,KP68 192205Z AUTO 30021G32KT 24/09 A3028 RMK AO1 PK WND 31032/2203 WSHFT 2148 T02390094,M
P68,2022-07-19 22:09,-116.0056,39.6014,1993.00,72.00,50.00,45.81,300.00,18.00,0.00,30.28,M,M,33.00,M,M,M,M,M,M,M,M,M,M,M,M,33.00,300.00,2022-07-19 22:06,72.00,KP68 192209Z AUTO 30018G33KT 22/10 A3028 RMK AO1 PK WND 30033/2206 WSHFT 2152 T02220100,M
TMT,2022-07-19 22:15,-117.1971,39.4643,1749.34,M,M,M,0.00,0.00,0.00,30.23,M,10.00,M,CLR,M,M,M,M,M,M,M,M,M,M,M,M,M,M,M,KTMT 192215Z AUTO 00000KT 10SM CLR A3023 RMK AO2 LTG DSNT E,M
HTH,2022-07-19 22:15,-118.6315,38.5448,1282.89,86.00,53.60,33.01,0.00,0.00,0.00,30.14,M,10.00,M,SCT,M,M,M,10000.00,M,M,M,M,M,M,M,M,M,M,84.18,KHTH 192215Z AUTO 00000KT 10SM SCT100 30/12 A3014 RMK A01,M
BAM,2022-07-19 22:15,-116.8743,40.5990,1382.36,M,M,M,360.00,6.00,0.00,30.12,M,10.00,M,CLR,M,M,M,M,M,M,M,M,M,M,M,M,M,M,M,KBAM 192215Z AUTO 36006KT 10SM CLR A3012 RMK AO1,M
MEV,2022-07-19 22:15,-119.7500,38.9963,1441.42,93.20,46.40,20.13,300.00,14.00,0.00,30.14,M,10.00,20.00,CLR,M,M,M,M,M,M,M,M,M,M,M,M,M,M,89.55,KMEV 192215Z AUTO 30014G20KT 10SM CLR 34/08 A3014 RMK AO2,M
05U,2022-07-19 22:15,-116.0051,39.6042,1811.23,69.80,53.60,56.38,290.00,14.00,0.00,30.30,M,6.00,28.00,FEW,BKN,BKN,M,7500.00,9000.00,11000.00,M,HZ,M,M,M,M,M,M,69.80,K05U 192215Z AUTO 29014G28KT 6SM HZ FEW075 BKN090 BKN110 21/12 A3030 RMK A01,M
RTS,2022-07-19 22:15,-119.8764,39.6682,1539.00,89.60,42.80,19.64,270.00,8.00,0.00,30.19,M,10.00,18.00,FEW,M,M,M,10000.00,M,M,M,M,M,M,M,M,M,M,85.93,KRTS 192215Z AUTO 27008G18KT 230V320 10SM FEW100 32/06 A3019 RMK AO2,M
CXP,2022-07-19 22:15,-119.7326,39.1923,1431.00,93.20,41.00,16.37,240.00,8.00,0.00,30.16,M,10.00,16.00,CLR,M,M,M,M,M,M,M,M,M,M,M,M,M,M,89.03,KCXP 192215Z AUTO 24008G16KT 200V280 10SM CLR 34/05 A3016 RMK AO2,M
BVU,2022-07-19 22:15,-114.8611,35.9475,671.00,M,M,M,M,M,0.00,M,M,M,M,M,M,M,M,M,M,M,M,M,M,M,M,M,M,M,M,KBVU 192215Z AUTO RMK AO2 PNO PWINO TSNO,M
WMC,2022-07-19 22:17,-117.8072,40.9019,1315.00,93.00,46.00,19.95,0.00,0.00,0.00,30.09,M,10.00,M,FEW,BKN,M,M,7000.00,11000.00,M,M,TS,M,M,M,M,M,M,89.31,KWMC 192217Z AUTO 00000KT 10SM TS FEW070 BKN110 34/08 A3009 RMK AO2 TSB11 T03390078 $,M
WMC,2022-07-19 22:32,-117.8072,40.9019,1315.00,87.00,50.00,27.91,230.00,20.00,T,30.09,M,9.00,32.00,FEW,BKN,M,M,6500.00,11000.00,M,M,-RA,M,M,M,32.00,240.00,2022-07-19 22:28,84.51,KWMC 192232Z AUTO 23020G32KT 9SM -RA FEW065 BKN110 31/10 A3009 RMK AO2 PK WND 24032/2228 RAB18 TSB11E26 P0000 T03060100 $,M
HTH,2022-07-19 22:35,-118.6315,38.5448,1282.89,86.00,53.60,33.01,0.00,0.00,0.00,30.14,M,10.00,M,FEW,M,M,M,10000.00,M,M,M,M,M,M,M,M,M,M,84.18,KHTH 192235Z AUTO 00000KT 10SM FEW100 30/12 A3014 RMK A01,M
P68,2022-07-19 22:35,-116.0056,39.6014,1993.00,64.00,56.00,74.93,360.00,10.00,0.02,30.28,M,M,M,M,M,M,M,M,M,M,M,M,M,M,M,33.00,300.00,2022-07-19 22:06,64.00,KP68 192235Z AUTO 36010KT 18/13 A3028 RMK AO1 PK WND 30033/2206 WSHFT 2218 P0002 T01780133,M
BVU,2022-07-19 22:35,-114.8611,35.9475,671.00,M,M,M,M,M,0.00,M,M,M,M,M,M,M,M,M,M,M,M,M,M,M,M,M,M,M,M,KBVU 192235Z AUTO RMK AO2 PNO PWINO TSNO,M
CXP,2022-07-19 22:35,-119.7326,39.1923,1431.00,91.40,41.00,17.32,290.00,11.00,0.00,30.16,M,10.00,21.00,CLR,M,M,M,M,M,M,M,M,M,M,M,M,M,M,87.40,KCXP 192235Z AUTO 29011G21KT 10SM CLR 33/05 A3016 RMK AO2,M
RTS,2022-07-19 22:35,-119.8764,39.6682,1539.00,89.60,41.00,18.33,260.00,10.00,0.00,30.18,M,10.00,20.00,CLR,M,M,M,M,M,M,M,M,M,M,M,M,M,M,85.82,KRTS 192235Z AUTO 26010G20KT 10SM CLR 32/05 A3018 RMK AO2,M
05U,2022-07-19 22:35,-116.0051,39.6042,1811.23,64.40,57.20,77.45,10.00,8.00,0.00,30.30,M,2.50,15.00,FEW,FEW,BKN,M,400.00,3200.00,8500.00,M,HZ,M,M,M,M,M,M,64.40,K05U 192235Z AUTO 01008G15KT 2 1/2SM HZ FEW004 FEW032 BKN085 18/14 A3030 RMK A01,M
MEV,2022-07-19 22:35,-119.7500,38.9963,1441.42,93.20,44.60,18.80,290.00,16.00,0.00,30.14,M,10.00,M,CLR,M,M,M,M,M,M,M,M,M,M,M,M,M,M,89.34,KMEV 192235Z AUTO 29016KT 10SM CLR 34/07 A3014 RMK AO2,M
BAM,2022-07-19 22:35,-116.8743,40.5990,1382.36,M,M,M,240.00,3.00,0.00,30.11,M,10.00,M,CLR,M,M,M,M,M,M,M,M,M,M,M,M,M,M,M,KBAM 192235Z AUTO 24003KT 10SM CLR A3011 RMK AO1,M
TMT,2022-07-19 22:35,-117.1971,39.4643,1749.34,M,M,M,360.00,6.00,0.00,30.22,M,10.00,M,CLR,M,M,M,M,M,M,M,VCTS,M,M,M,M,M,M,M,KTMT 192235Z AUTO 36006KT 10SM VCTS CLR A3022 RMK AO2 LTG DSNT E SE AND W,M
LOL,2022-07-19 22:53,-118.5701,40.0684,1192.43,98.00,47.00,17.65,280.00,6.00,0.00,30.04,1012.20,10.00,M,FEW,M,M,M,10000.00,M,M,M,M,M,M,M,M,M,M,94.43,KLOL 192253Z AUTO 28006KT 10SM FEW100 37/08 A3004 RMK AO2 LTG DSNT SW SLP122 T03670083,M
P68,2022-07-19 22:53,-116.0056,39.6014,1993.00,67.00,58.00,72.81,80.00,5.00,0.02,30.27,1017.50,M,M,M,M,M,M,M,M,M,M,M,M,M,M,33.00,300.00,2022-07-19 22:06,66.90,KP68 192253Z AUTO 08005KT 19/14 A3027 RMK AO1 PK WND 30033/2206 WSHFT 2218 SLP175 P0002 T01940144,M
DRA,2022-07-19 22:53,-116.0278,36.6206,1009.00,102.00,44.00,14.10,M,6.00,0.00,29.99,1009.40,10.00,M,CLR,M,M,M,M,M,M,M,M,M,M,M,M,M,M,97.79,KDRA 192253Z AUTO VRB06KT 10SM CLR 39/07 A2999 RMK AO2 SLP094 T03890067,M
VGT,2022-07-19 22:53,-115.1933,36.2111,667.00,109.00,49.00,13.75,220.00,7.00,0.00,29.87,1009.60,10.00,19.00,CLR,M,M,M,M,M,M,M,M,M,M,M,M,M,M,105.81,KVGT 192253Z 22007G19KT 10SM CLR 43/09 A2987 RMK AO2 SLP096 T04280094,M
ELY,2022-07-19 22:53,-114.8453,39.2950,1909.00,81.00,45.00,28.15,280.00,15.00,T,30.23,1012.50,10.00,26.00,CLR,M,M,M,M,M,M,M,M,M,M,M,36.00,290.00,2022-07-19 22:32,79.68,KELY 192253Z AUTO 28015G26KT 10SM CLR 27/07 A3023 RMK AO2 PK WND 29036/2232 LTG DSNT NE AND E RAB39E51 SLP125 P0000 T02720072,M
05U,2022-07-19 22:55,-116.0051,39.6042,1811.23,68.00,59.00,72.92,70.00,8.00,0.01,30.29,M,10.00,M,FEW,FEW,M,M,3000.00,12000.00,M,M,M,M,M,M,M,M,M,68.00,K05U 192255Z AUTO 07008KT 10SM FEW030 FEW120 20/15 A3029 RMK A01 P0001,M
TMT,2022-07-19 22:55,-117.1971,39.4643,1749.34,M,M,M,0.00,0.00,0.00,30.21,M,10.00,M,CLR,M,M,M,M,M,M,M,M,M,M,M,M,M,M,M,KTMT 192255Z AUTO 00000KT 10SM CLR A3021 RMK AO2 LTG DSNT SE AND W,M
BVU,2022-07-19 22:55,-114.8611,35.9475,671.00,M,M,M,M,M,0.00,M,M,M,M,M,M,M,M,M,M,M,M,M,M,M,M,M,M,M,M,KBVU 192255Z AUTO RMK AO2 PNO PWINO TSNO,M
CXP,2022-07-19 22:55,-119.7326,39.1923,1431.00,93.20,39.20,15.27,280.00,11.00,0.00,30.16,M,10.00,M,CLR,M,M,M,M,M,M,M,M,M,M,M,M,M,M,88.92,KCXP 192255Z AUTO 28011KT 10SM CLR 34/04 A3016 RMK AO2,M
RNO,2022-07-19 22:55,-119.7711,39.4839,1341.00,95.00,44.00,17.45,270.00,14.00,0.00,30.11,1012.70,10.00,26.00,FEW,SCT,M,M,12000.00,25000.00,M,M,M,M,M,M,26.00,300.00,2022-07-19 22:48,91.00,KRNO 192255Z 27014G26KT 10SM FEW120 SCT250 35/07 A3011 RMK AO2 PK WND 30026/2248 LTG DSNT NE SLP127 CB DSNT NE THRU SE T03500067 $,M
BAM,2022-07-19 22:55,-116.8743,40.5990,1382.36,M,M,M,260.00,3.00,0.00,30.11,M,10.00,M,CLR,M,M,M,M,M,M,M,M,M,M,M,M,M,M,M,KBAM 192255Z AUTO 26003KT 10SM CLR A3011 RMK AO1,M
HTH,2022-07-19 22:55,-118.6315,38.5448,1282.89,82.40,51.80,34.69,240.00,4.00,0.00,30.13,M,10.00,15.00,FEW,M,M,M,12000.00,M,M,M,M,M,M,M,M,M,M,81.20,KHTH 192255Z AUTO 24004G15KT 10SM FEW120 28/11 A3013 RMK A01,M
RTS,2022-07-19 22:55,-119.8764,39.6682,1539.00,89.60,39.20,17.09,290.00,13.00,0.00,30.18,M,10.00,20.00,CLR,M,M,M,M,M,M,M,M,M,M,M,M,M,M,85.73,KRTS 192255Z AUTO 29013G20KT 10SM CLR 32/04 A3018 RMK AO2,M
MEV,2022-07-19 22:55,-119.7500,38.9963,1441.42,93.20,44.60,18.80,300.00,16.00,0.00,30.14,M,10.00,22.00,CLR,M,M,M,M,M,M,M,M,M,M,M,M,M,M,89.34,KMEV 192255Z AUTO 30016G22KT 10SM CLR 34/07 A3014 RMK AO2,M
TPH,2022-07-19 22:56,-117.0904,38.0505,1654.00,93.00,40.00,15.79,0.00,0.00,T,30.16,1012.40,10.00,M,CLR,M,M,M,M,M,M,M,M,M,M,M,M,M,M,88.78,KTPH 192256Z AUTO 00000KT 10SM CLR 34/04 A3016 RMK AO2 RAE05 SLP124 P0000 T03390044,M
WMC,2022-07-19 22:56,-117.8072,40.9019,1315.00,92.00,49.00,23.03,0.00,0.00,0.01,30.08,1013.00,10.00,M,FEW,FEW,FEW,M,6500.00,9500.00,11000.00,M,M,M,M,M,32.00,240.00,2022-07-19 22:28,88.66,KWMC 192256Z AUTO 00000KT 10SM FEW065 FEW095 FEW110 33/09 A3008 RMK AO2 PK WND 24032/2228 RAB18E50 TSB11E26 SLP130 P0001 T03330094,M
NFL,2022-07-19 22:56,-118.7010,39.4166,1199.00,94.00,46.00,19.40,270.00,5.00,0.00,30.05,1014.60,10.00,M,SCT,BKN,BKN,M,8000.00,12000.00,25000.00,M,M,M,M,M,M,M,M,90.17,KNFL 192256Z 27005KT 10SM SCT080 BKN120 BKN250 34/08 A3005 RMK AO2 SLP146 CB DSNT SE-SW AND NW T03440078,M
HND,2022-07-19 22:56,-115.1344,35.9729,742.79,105.00,56.00,19.95,120.00,6.00,0.00,29.93,1011.40,10.00,M,CLR,M,M,M,M,M,M,M,M,M,M,M,M,M,M,104.43,KHND 192256Z 12006KT 10SM CLR 41/13 A2993 RMK AO2 SLP114 T04060133 PNO $,M
EKO,2022-07-19 22:56,-115.7860,40.8242,1367.00,90.00,44.00,20.39,310.00,13.00,0.00,30.15,1014.00,10.00,21.00,FEW,M,M,M,12000.00,M,M,M,M,M,M,M,26.00,330.00,2022-07-19 22:28,86.38,KEKO 192256Z AUTO 31013G21KT 10SM FEW120 32/07 A3015 RMK AO2 PK WND 33026/2228 SLP140 T03220067,M
LAS,2022-07-19 22:56,-115.1634,36.0719,663.00,109.00,55.00,17.22,170.00,9.00,0.00,29.88,1008.40,10.00,M,FEW,M,M,M,13000.00,M,M,M,M,M,M,M,M,M,M,108.21,KLAS 192256Z 17009KT 140V200 10SM FEW130CB 43/13 A2988 RMK AO2 SLP084 CB E-S AND DSNT N AND E-SE MOV N T04280128,M
LSV,2022-07-19 22:58,-115.0343,36.2362,570.00,112.30,49.80,12.92,150.00,9.00,0.00,29.83,1007.00,10.00,16.00,SCT,M,M,M,12000.00,M,M,M,M,M,M,M,M,M,M,109.30,KLSV 192258Z 15009G16KT 10SM SCT120 45/10 A2983 RMK AO2A SLP070 T04460099 $,M
INS,2022-07-19 22:58,-115.6733,36.5872,955.00,103.30,46.60,14.92,290.00,8.00,0.00,29.96,1009.10,10.00,M,FEW,SCT,M,M,11000.00,13000.00,M,M,M,M,M,M,M,M,M,99.56,KINS 192258Z AUTO 29008KT 10SM FEW110 SCT130 40/08 A2996 RMK AO2 SLP091 T03960081 $,M
LSV,2022-07-19 23:05,-115.0343,36.2362,570.00,111.20,50.00,13.44,200.00,12.00,0.00,29.83,1007.00,10.00,16.00,SCT,M,M,M,12000.00,M,M,M,M,M,M,M,M,M,M,108.33,KLSV 192305Z 20012G16KT 10SM SCT120 44/10 A2983 RMK AO2A WSHFT 02 SLP070 $,M
CXP,2022-07-19 23:15,-119.7326,39.1923,1431.00,93.20,41.00,16.37,280.00,15.00,0.00,30.16,M,10.00,M,CLR,M,M,M,M,M,M,M,M,M,M,M,M,M,M,89.03,KCXP 192315Z AUTO 28015KT 10SM CLR 34/05 A3016 RMK AO2,M
BVU,2022-07-19 23:15,-114.8611,35.9475,671.00,M,M,M,M,M,0.00,M,M,M,M,M,M,M,M,M,M,M,M,M,M,M,M,M,M,M,M,KBVU 192315Z AUTO RMK AO2 PNO PWINO TSNO,M
TMT,2022-07-19 23:15,-117.1971,39.4643,1749.34,M,M,M,260.00,3.00,0.00,30.21,M,10.00,M,CLR,M,M,M,M,M,M,M,M,M,M,M,M,M,M,M,KTMT 192315Z AUTO 26003KT 10SM CLR A3021 RMK AO2 LTG DSNT SW AND W,M
HTH,2022-07-19 23:15,-118.6315,38.5448,1282.89,86.00,51.80,30.90,250.00,10.00,0.00,30.13,M,10.00,M,FEW,M,M,M,12000.00,M,M,M,M,M,M,M,M,M,M,83.87,KHTH 192315Z AUTO 25010KT 10SM FEW120 30/11 A3013 RMK A01,M
BAM,2022-07-19 23:15,-116.8743,40.5990,1382.36,M,M,M,340.00,9.00,0.00,30.11,M,10.00,M,CLR,M,M,M,M,M,M,M,M,M,M,M,M,M,M,M,KBAM 192315Z AUTO 34009KT 320V020 10SM CLR A3011 RMK AO1,M
05U,2022-07-19 23:15,-116.0051,39.6042,1811.23,73.40,55.40,53.29,0.00,0.00,0.00,30.29,M,10.00,M,CLR,M,M,M,M,M,M,M,M,M,M,M,M,M,M,73.40,K05U 192315Z AUTO 00000KT 10SM CLR 23/13 A3029 RMK A01,M
MEV,2022-07-19 23:15,-119.7500,38.9963,1441.42,91.40,44.60,19.89,290.00,16.00,0.00,30.14,M,10.00,22.00,CLR,M,M,M,M,M,M,M,M,M,M,M,M,M,M,87.68,KMEV 192315Z AUTO 29016G22KT 10SM CLR 33/07 A3014 RMK AO2,M
RTS,2022-07-19 23:15,-119.8764,39.6682,1539.00,91.40,39.20,16.15,290.00,15.00,0.00,30.18,M,10.00,24.00,CLR,M,M,M,M,M,M,M,M,M,M,M,M,M,M,87.30,KRTS 192315Z AUTO 29015G24KT 10SM CLR 33/04 A3018 RMK AO2,M
NFL,2022-07-19 23:27,-118.7010,39.4166,1199.00,80.00,59.00,48.58,130.00,16.00,0.06,30.06,M,5.00,28.00,BKN,OVC,M,M,8000.00,10000.00,M,M,-TSRA BLDU,M,M,M,28.00,200.00,2022-07-19 23:18,80.76,KNFL 192327Z 13016G28KT 5SM -TSRA BLDU BKN080CB OVC100 27/15 A3006 RMK AO2 PK WND 20028/2318 WSHFT 2313 RAB12 TSB23 OCNL LTGIC OHD TS OHD MOV E CB DSNT SE-S P0006 T02670150,M
NFL,2022-07-19 23:34,-118.7010,39.4166,1199.00,80.00,59.00,48.58,100.00,8.00,0.07,30.06,M,9.00,M,BKN,OVC,M,M,8000.00,10000.00,M,M,-TSRA BLDU,M,M,M,28.00,200.00,2022-07-19 23:18,80.76,KNFL 192334Z 10008KT 9SM -TSRA BLDU BKN080CB OVC100 27/15 A3006 RMK AO2 PK WND 20028/2318 WSHFT 2313 RAB12 TSB23 OCNL LTGIC OHD TS OHD MOV E CB DSNT SE-S WR// POOR BRAKING ACTION RPTD 31L P0007 T02670150,M
BVU,2022-07-19 23:35,-114.8611,35.9475,671.00,M,M,M,M,M,0.00,M,M,M,M,M,M,M,M,M,M,M,M,M,M,M,M,M,M,M,M,KBVU 192335Z AUTO RMK AO2 PNO PWINO TSNO,M
TMT,2022-07-19 23:35,-117.1971,39.4643,1749.34,M,M,M,260.00,7.00,0.00,30.22,M,10.00,M,SCT,M,M,M,12000.00,M,M,M,M,M,M,M,M,M,M,M,KTMT 192335Z AUTO 26007KT 10SM SCT120 A3022 RMK AO2 LTG DSNT E AND W,M
HTH,2022-07-19 23:35,-118.6315,38.5448,1282.89,84.20,50.00,30.62,280.00,17.00,0.00,30.13,M,10.00,M,SCT,M,M,M,12000.00,M,M,M,M,M,M,M,M,M,M,82.24,KHTH 192335Z AUTO 28017KT 10SM SCT120 29/10 A3013 RMK A01,M
BAM,2022-07-19 23:35,-116.8743,40.5990,1382.36,M,M,M,320.00,8.00,0.00,30.10,M,10.00,M,CLR,M,M,M,M,M,M,M,M,M,M,M,M,M,M,M,KBAM 192335Z AUTO 32008KT 10SM CLR A3010 RMK AO1,M
MEV,2022-07-19 23:35,-119.7500,38.9963,1441.42,91.40,42.80,18.56,290.00,16.00,0.00,30.14,M,10.00,M,CLR,M,M,M,M,M,M,M,M,M,M,M,M,M,M,87.52,KMEV 192335Z AUTO 29016KT 10SM CLR 33/06 A3014 RMK AO2,M
RTS,2022-07-19 23:35,-119.8764,39.6682,1539.00,89.60,35.60,14.83,260.00,16.00,0.00,30.18,M,10.00,M,CLR,M,M,M,M,M,M,M,M,M,M,M,M,M,M,85.62,KRTS 192335Z AUTO 26016KT 10SM CLR 32/02 A3018 RMK AO2,M
05U,2022-07-19 23:35,-116.0051,39.6042,1811.23,77.00,53.60,44.25,0.00,0.00,0.00,30.28,M,10.00,M,CLR,M,M,M,M,M,M,M,M,M,M,M,M,M,M,77.00,K05U 192335Z AUTO 00000KT 10SM CLR 25/12 A3028 RMK A01,M
CXP,2022-07-19 23:35,-119.7326,39.1923,1431.00,91.40,41.00,17.32,290.00,15.00,0.00,30.15,M,10.00,22.00,CLR,M,M,M,M,M,M,M,M,M,M,M,M,M,M,87.40,KCXP 192335Z AUTO 29015G22KT 10SM CLR 33/05 A3015 RMK AO2,M
NFL,2022-07-19 23:49,-118.7010,39.4166,1199.00,82.00,62.00,50.97,M,M,0.09,30.08,M,10.00,M,BKN,OVC,M,M,8000.00,10000.00,M,M,BLDU,M,M,M,28.00,200.00,2022-07-19 23:18,82.91,KNFL 192349Z 10SM BLDU BKN080CB OVC100 28/17 A3008 RMK AO2 PK WND 20028/2318 WSHFT 2313 RAB12E49 TSB23 OCNL LTGIC OHD TS OHD MOV E CB DSNT SE-S WR// 13L POOR BRAKING ACTION RPTD 31L P0009 T02780167,M
LOL,2022-07-19 23:50,-118.5701,40.0684,1192.43,93.20,46.40,20.13,230.00,9.00,0.00,30.03,M,10.00,M,CLR,M,M,M,M,M,M,M,TS,M,M,M,M,M,M,89.55,KLOL 192350Z AUTO 23009KT 10SM TS CLR 34/08 A3003 RMK AO2 LTG DSNT SW TSB44,M
DRA,2022-07-19 23:53,-116.0278,36.6206,1009.00,103.00,42.00,12.72,240.00,11.00,0.00,29.97,1008.90,10.00,17.00,CLR,M,M,M,M,M,M,M,M,M,M,M,M,M,M,98.27,KDRA 192353Z AUTO 24011G17KT 10SM CLR 39/06 A2997 RMK AO2 SLP089 T03940056 10406 20350 56017,M
ELY,2022-07-19 23:53,-114.8453,39.2950,1909.00,87.00,42.00,20.70,290.00,7.00,0.00,30.24,1012.30,10.00,19.00,BKN,M,M,M,10000.00,M,M,M,M,M,M,M,M,M,M,83.79,KELY 192353Z AUTO 29007G19KT 10SM BKN100 31/06 A3024 RMK AO2 SLP123 60000 T03060056 10333 20250 55002,M
LOL,2022-07-19 23:53,-118.5701,40.0684,1192.43,94.00,46.00,19.40,250.00,15.00,0.00,30.03,1012.50,10.00,25.00,CLR,M,M,M,M,M,M,M,TS,M,M,M,M,M,M,90.17,KLOL 192353Z AUTO 25015G25KT 10SM TS CLR 34/08 A3003 RMK AO2 LTG DSNT SW-NW TSB44 SLP125 T03440078 10367 20306 55007,M
VGT,2022-07-19 23:53,-115.1933,36.2111,667.00,110.00,49.00,13.39,180.00,13.00,0.00,29.84,1008.70,10.00,20.00,CLR,M,M,M,M,M,M,M,M,M,M,M,M,M,M,106.68,KVGT 192353Z 18013G20KT 10SM CLR 43/09 A2984 RMK AO2 SLP087 T04330094 10439 20372 56024,M
P68,2022-07-19 23:53,-116.0056,39.6014,1993.00,77.00,52.00,41.72,M,4.00,0.00,30.24,1015.60,M,M,M,M,M,M,M,M,M,M,M,M,M,M,M,M,M,77.00,KP68 192353Z AUTO VRB04KT 25/11 A3024 RMK AO1 SLP156 60002 T02500111 10306 20178 50002,M
TMT,2022-07-19 23:55,-117.1971,39.4643,1749.34,76.80,50.70,40.03,240.00,25.00,0.00,30.24,M,10.00,36.00,OVC,M,M,M,11000.00,M,M,M,M,M,M,M,M,M,M,76.80,KTMT 192355Z AUTO 24025G36KT 10SM OVC110 25/10 A3024 RMK AO2 LTG DSNT W 60001 T02490104,M
CXP,2022-07-19 23:55,-119.7326,39.1923,1431.00,91.40,42.80,18.56,250.00,9.00,0.00,30.15,M,10.00,16.00,CLR,M,M,M,M,M,M,M,M,M,M,M,M,M,M,87.52,KCXP 192355Z AUTO 25009G16KT 210V270 10SM CLR 33/06 A3015 RMK AO2,M
BVU,2022-07-19 23:55,-114.8611,35.9475,671.00,M,M,M,M,M,0.00,M,M,M,M,M,M,M,M,M,M,M,M,M,M,M,M,M,M,M,M,KBVU 192355Z AUTO RMK AO2 PNO PWINO TSNO,M
RTS,2022-07-19 23:55,-119.8764,39.6682,1539.00,89.60,35.60,14.83,280.00,18.00,0.00,30.18,M,10.00,M,SCT,M,M,M,12000.00,M,M,M,M,M,M,M,M,M,M,85.62,KRTS 192355Z AUTO 28018KT 10SM SCT120 32/02 A3018 RMK AO2,M
05U,2022-07-19 23:55,-116.0051,39.6042,1811.23,78.80,51.80,39.02,0.00,0.00,0.00,30.27,M,10.00,M,CLR,M,M,M,M,M,M,M,M,M,M,M,M,M,M,78.80,K05U 192355Z AUTO 00000KT 10SM CLR 26/11 A3027 RMK A01,M
MEV,2022-07-19 23:55,-119.7500,38.9963,1441.42,91.40,42.80,18.56,280.00,14.00,0.00,30.14,M,10.00,20.00,CLR,M,M,M,M,M,M,M,M,M,M,M,M,M,M,87.52,KMEV 192355Z AUTO 28014G20KT 10SM CLR 33/06 A3014 RMK AO2,M
BAM,2022-07-19 23:55,-116.8743,40.5990,1382.36,M,M,M,320.00,4.00,0.00,30.10,M,10.00,M,CLR,M,M,M,M,M,M,M,M,M,M,M,M,M,M,M,KBAM 192355Z AUTO 32004KT 10SM CLR A3010 RMK AO1,M
HTH,2022-07-19 23:55,-118.6315,38.5448,1282.89,86.00,48.20,27.03,M,3.00,0.00,30.12,M,10.00,13.00,FEW,SCT,BKN,M,5000.00,7500.00,12000.00,M,M,M,M,M,M,M,M,83.40,KHTH 192355Z AUTO VRB03G13KT 10SM FEW050 SCT075 BKN120 30/09 A3012 RMK A01,M
RNO,2022-07-19 23:55,-119.7711,39.4839,1341.00,95.00,44.00,17.45,270.00,14.00,0.00,30.10,1012.50,10.00,20.00,FEW,FEW,M,M,13000.00,25000.00,M,M,M,M,M,M,M,M,M,91.00,KRNO 192355Z 27014G20KT 10SM FEW130 FEW250 35/07 A3010 RMK AO2 SLP125 CB DSNT E THRU SE T03500067 10361 20300 56009 $,M
HND,2022-07-19 23:56,-115.1344,35.9729,742.79,105.00,56.00,19.95,140.00,12.00,0.00,29.91,1010.80,10.00,M,CLR,M,M,M,M,M,M,M,M,M,M,M,M,M,M,104.43,KHND 192356Z 14012KT 10SM CLR 41/13 A2991 RMK AO2 SLP108 6//// T04060133 10422 20372 56020 PNO $,M
NFL,2022-07-19 23:56,-118.7010,39.4166,1199.00,83.00,63.00,51.10,180.00,12.00,0.09,30.08,1015.50,4.00,M,BKN,OVC,M,M,8000.00,10000.00,M,M,TSRA,M,M,M,28.00,200.00,2022-07-19 23:18,83.98,KNFL 192356Z 18012KT 4SM TSRA BKN080CB OVC100 28/17 A3008 RMK AO2 PK WND 20028/2318 WSHFT 2313 RAB12E49B51 TSB23B51 SLP155 OCNL LTGIC OHD TS OHD MOV E CB DSNT SE-S WR// P0009 60009 T02830172 10367 20256 5500,M
LAS,2022-07-19 23:56,-115.1634,36.0719,663.00,106.00,54.00,18.13,160.00,7.00,0.00,29.86,1007.90,10.00,M,FEW,SCT,M,M,13000.00,20000.00,M,M,M,M,M,M,M,M,M,104.60,KLAS 192356Z 16007KT 10SM FEW130CB SCT200 41/12 A2986 RMK AO2 SLP079 CB E-S AND DSNT N AND E-SE MOV N T04110122 10428 20361 56021,M
WMC,2022-07-19 23:56,-117.8072,40.9019,1315.00,96.00,46.00,18.13,0.00,0.00,0.00,30.07,1012.40,10.00,M,CLR,M,M,M,M,M,M,M,M,M,M,M,M,M,M,92.30,KWMC 192356Z AUTO 00000KT 10SM CLR 36/08 A3007 RMK AO2 SLP124 60001 T03560078 10361 20272 58011,M
TPH,2022-07-19 23:56,-117.0904,38.0505,1654.00,93.00,41.00,16.48,140.00,9.00,0.00,30.15,1012.10,10.00,M,BKN,M,M,M,11000.00,M,M,M,M,M,M,M,M,M,M,88.85,KTPH 192356Z AUTO 14009KT 10SM BKN110 34/05 A3015 RMK AO2 SLP121 60001 T03390050 10350 20289 58016,M
EKO,2022-07-19 23:56,-115.7860,40.8242,1367.00,91.00,42.00,18.30,M,5.00,0.00,30.14,1013.60,10.00,M,CLR,M,M,M,M,M,M,M,M,M,M,M,M,M,M,87.11,KEKO 192356Z AUTO VRB05KT 10SM CLR 33/06 A3014 RMK AO2 LTG DSNT S SLP136 T03280056 10333 20294 56010,M
LSV,2022-07-19 23:58,-115.0343,36.2362,570.00,110.70,50.50,13.89,220.00,8.00,0.00,29.81,1006.40,10.00,M,FEW,SCT,M,M,12000.00,15000.00,M,M,M,M,M,M,M,M,M,108.04,KLSV 192358Z 22008KT 10SM FEW120 SCT150 44/10 A2981 RMK AO2A SLP064 T04370103 10448 20417 57025 $,M
INS,2022-07-19 23:58,-115.6733,36.5872,955.00,102.40,46.00,14.92,120.00,6.00,0.00,29.94,1008.40,10.00,M,CLR,M,M,M,M,M,M,M,M,M,M,M,M,M,M,98.52,KINS 192358Z AUTO 12006KT 10SM CLR 39/08 A2994 RMK AO2 SLP084 T03910077 10396 20338 57020 $,M
