station,valid,lon,lat,elevation,tmpf,dwpf,relh,drct,sknt,p01i,alti,mslp,vsby,gust,skyc1,skyc2,skyc3,skyc4,skyl1,skyl2,skyl3,skyl4,wxcodes,ice_accretion_1hr,ice_accretion_3hr,ice_accretion_6hr,peak_wind_gust,peak_wind_drct,peak_wind_time,feel,metar,snowdepth
10U,2025-03-13 00:00,-116.1876,41.9532,1637.00,51.80,32.00,46.59,180.00,13.00,0.00,29.61,M,10.00,22.00,SCT,OVC,M,M,6000.00,7500.00,M,M,M,M,M,M,M,M,M,51.80,K10U 130000Z AUTO 18013G22KT 10SM SCT060 OVC075 11/M00 A2961 RMK AO2,M
RTS,2025-03-13 00:05,-119.8764,39.6682,1539.00,48.20,23.00,36.78,200.00,26.00,0.00,29.52,M,10.00,35.00,CLR,M,M,M,M,M,M,M,M,M,M,M,M,M,M,39.58,KRTS 130005Z AUTO 20026G35KT 10SM CLR 09/M05 A2952 RMK AO2,M
MEV,2025-03-13 00:05,-119.7500,38.9963,1441.42,46.40,30.20,53.00,200.00,20.00,0.00,29.58,M,10.00,25.00,CLR,M,M,M,M,M,M,M,M,M,M,M,M,M,M,38.26,KMEV 130005Z AUTO 20020G25KT 10SM CLR 08/M01 A2958 RMK AO2,M
TMT,2025-03-13 00:10,-117.1971,39.4643,1749.34,50.50,27.70,41.04,170.00,22.00,0.00,29.65,M,10.00,28.00,CLR,M,M,M,M,M,M,M,M,M,M,M,M,M,M,50.50,KTMT 130010Z AUTO 17022G28KT 10SM CLR 10/M02 A2965 RMK AO2 T01031024,M
BVU,2025-03-13 00:15,-114.8611,35.9475,671.00,62.60,39.20,42.00,190.00,21.00,0.00,29.89,M,10.00,27.00,BKN,OVC,M,M,7000.00,8500.00,M,M,M,M,M,M,M,M,M,62.60,KBVU 130015Z AUTO 19021G27KT 10SM BKN070 OVC085 17/04 A2989 RMK AO2,M
BAM,2025-03-13 00:15,-116.8743,40.5990,1382.36,59.00,30.20,33.35,200.00,17.00,0.00,29.58,M,10.00,22.00,BKN,M,M,M,9500.00,M,M,M,M,M,M,M,M,M,M,59.00,KBAM 130015Z AUTO 20017G22KT 10SM BKN095 15/M01 A2958 RMK AO1,M
CXP,2025-03-13 00:15,-119.7326,39.1923,1431.00,48.20,28.40,46.02,190.00,17.00,0.00,29.59,M,10.00,24.00,BKN,M,M,M,7000.00,M,M,M,M,M,M,M,M,M,M,41.30,KCXP 130015Z AUTO 19017G24KT 10SM BKN070 09/M02 A2959 RMK AO2,M
HTH,2025-03-13 00:15,-118.6315,38.5448,1282.89,59.00,21.20,22.95,210.00,33.00,0.00,29.57,M,10.00,42.00,CLR,M,M,M,M,M,M,M,M,M,M,M,M,M,M,59.00,KHTH 130015Z AUTO 21033G42KT 10SM CLR 15/M06 A2957 RMK A01,M
10U,2025-03-13 00:20,-116.1876,41.9532,1637.00,51.80,32.00,46.59,180.00,18.00,0.00,29.59,M,10.00,M,SCT,BKN,M,M,6500.00,8000.00,M,M,M,M,M,M,M,M,M,51.80,K10U 130020Z AUTO 18018KT 10SM SCT065 BKN080 11/M00 A2959 RMK AO2,M
TMT,2025-03-13 00:30,-117.1971,39.4643,1749.34,48.40,28.20,45.30,180.00,18.00,0.00,29.64,M,10.00,27.00,CLR,M,M,M,M,M,M,M,M,M,M,M,M,M,M,41.34,KTMT 130030Z AUTO 18018G27KT 10SM CLR 09/M02 A2964 RMK AO2 T00911021,M
BVU,2025-03-13 00:35,-114.8611,35.9475,671.00,64.40,39.20,39.43,180.00,21.00,0.00,29.89,M,10.00,27.00,BKN,OVC,M,M,8000.00,8500.00,M,M,M,M,M,M,M,M,M,64.40,KBVU 130035Z AUTO 18021G27KT 10SM BKN080 OVC085 18/04 A2989 RMK AO2,M
BAM,2025-03-13 00:35,-116.8743,40.5990,1382.36,59.00,28.40,30.98,200.00,15.00,0.00,29.57,M,10.00,20.00,SCT,M,M,M,9500.00,M,M,M,M,M,M,M,M,M,M,59.00,KBAM 130035Z AUTO 20015G20KT 10SM SCT095 15/M02 A2957 RMK AO1,M
CXP,2025-03-13 00:35,-119.7326,39.1923,1431.00,46.40,28.40,49.24,190.00,16.00,0.00,29.58,M,10.00,25.00,FEW,BKN,OVC,M,4900.00,6000.00,7000.00,M,M,M,M,M,M,M,M,39.19,KCXP 130035Z AUTO 19016G25KT 10SM FEW049 BKN060 OVC070 08/M02 A2958 RMK AO2,M
RTS,2025-03-13 00:35,-119.8764,39.6682,1539.00,46.40,24.80,42.44,190.00,32.00,0.00,29.52,M,10.00,48.00,FEW,SCT,M,M,3200.00,4100.00,M,M,M,M,M,M,M,M,M,36.21,KRTS 130035Z AUTO 19032G48KT 10SM FEW032 SCT041 08/M04 A2952 RMK AO2,M
MEV,2025-03-13 00:35,-119.7500,38.9963,1441.42,42.80,32.00,65.38,200.00,13.00,0.00,29.57,M,10.00,21.00,FEW,SCT,BKN,M,2400.00,2900.00,3300.00,M,M,M,M,M,M,M,M,35.40,KMEV 130035Z AUTO 20013G21KT 10SM FEW024 SCT029 BKN033 06/00 A2957 RMK AO2,M
HTH,2025-03-13 00:35,-118.6315,38.5448,1282.89,57.20,21.20,24.49,210.00,30.00,0.00,29.56,M,10.00,38.00,CLR,M,M,M,M,M,M,M,M,M,M,M,M,M,M,57.20,KHTH 130035Z AUTO 21030G38KT 10SM CLR 14/M06 A2956 RMK A01,M
10U,2025-03-13 00:40,-116.1876,41.9532,1637.00,50.00,30.20,46.31,170.00,18.00,0.00,29.58,M,10.00,26.00,SCT,BKN,M,M,7000.00,8000.00,M,M,M,M,M,M,M,M,M,50.00,K10U 130040Z AUTO 17018G26KT 10SM SCT070 BKN080 10/M01 A2958 RMK AO2,M
MEV,2025-03-13 00:45,-119.7500,38.9963,1441.42,42.80,32.00,65.38,200.00,14.00,0.00,29.57,M,10.00,20.00,SCT,OVC,M,M,2600.00,3400.00,M,M,-RA,M,M,M,M,M,M,35.08,KMEV 130045Z AUTO 20014G20KT 10SM -RA SCT026 OVC034 06/00 A2957 RMK AO2,M
RTS,2025-03-13 00:45,-119.8764,39.6682,1539.00,44.60,26.60,48.96,190.00,25.00,0.00,29.53,M,10.00,34.00,SCT,BKN,M,M,3000.00,3800.00,M,M,M,M,M,M,M,M,M,34.87,KRTS 130045Z AUTO 19025G34KT 10SM SCT030 BKN038 07/M03 A2953 RMK AO2,M
TMT,2025-03-13 00:50,-117.1971,39.4643,1749.34,48.00,27.70,45.05,180.00,19.00,0.00,29.64,M,10.00,27.00,CLR,M,M,M,M,M,M,M,M,M,M,M,M,M,M,40.60,KTMT 130050Z AUTO 18019G27KT 10SM CLR 09/M02 A2964 RMK AO2 T00881024,M
P68,2025-03-13 00:53,-116.0056,39.6014,1993.00,48.00,28.00,45.61,180.00,15.00,0.00,29.72,1004.00,M,27.00,M,M,M,M,M,M,M,M,M,M,M,M,30.00,180.00,2025-03-13 00:16,41.52,KP68 130053Z AUTO 18015G27KT 09/M02 A2972 RMK AO1 PK WND 18030/0016 SLP040 T00891022,M
DRA,2025-03-13 00:53,-116.0278,36.6206,1009.00,60.00,34.00,37.50,180.00,20.00,0.00,29.82,1008.10,10.00,28.00,BKN,M,M,M,8500.00,M,M,M,M,M,M,M,33.00,180.00,2025-03-13 00:04,60.00,KDRA 130053Z AUTO 18020G28KT 10SM BKN085 16/01 A2982 RMK AO2 PK WND 18033/0004 SLP081 T01560011,M
ELY,2025-03-13 00:53,-114.8453,39.2950,1909.00,M,M,M,160.00,20.00,0.00,29.78,M,10.00,36.00,OVC,M,M,M,4800.00,M,M,M,M,M,M,M,36.00,160.00,2025-03-13 00:41,M,KELY 130053Z AUTO 16020G36KT 10SM OVC048 A2978 RMK AO2 PK WND 16036/0041 SLPNO $,M
VGT,2025-03-13 00:53,-115.1933,36.2111,667.00,65.00,38.00,36.84,180.00,19.00,0.00,29.85,1012.00,10.00,27.00,OVC,M,M,M,9000.00,M,M,M,M,M,M,M,32.00,180.00,2025-03-13 00:39,65.00,KVGT 130053Z 18019G27KT 10SM OVC090 18/03 A2985 RMK AO2 PK WND 18032/0039 SLP120 T01830033,M
LOL,2025-03-13 00:53,-118.5701,40.0684,1192.43,58.00,21.00,23.59,210.00,20.00,0.00,29.48,998.10,7.00,31.00,SCT,BKN,M,M,2200.00,11000.00,M,M,M,M,M,M,39.00,220.00,2025-03-13 00:11,58.00,KLOL 130053Z AUTO 21020G31KT 7SM SCT022 BKN110 14/M06 A2948 RMK AO2 PK WND 22039/0011 SLP981 T01441061,M
BVU,2025-03-13 00:55,-114.8611,35.9475,671.00,62.60,39.20,42.00,180.00,20.00,0.00,29.88,M,10.00,M,BKN,M,M,M,8000.00,M,M,M,M,M,M,M,M,M,M,62.60,KBVU 130055Z AUTO 18020KT 10SM BKN080 17/04 A2988 RMK AO2,M
RNO,2025-03-13 00:55,-119.7711,39.4839,1341.00,48.00,29.00,47.52,190.00,21.00,0.00,29.53,997.90,10.00,40.00,BKN,OVC,M,M,4800.00,6500.00,M,M,M,M,M,M,45.00,180.00,2025-03-13 00:05,40.19,KRNO 130055Z 19021G40KT 10SM BKN048 OVC065 09/M02 A2953 RMK AO2 PK WND 18045/0005 SLP979 SH VC SW THRU NW T00891017,M
BAM,2025-03-13 00:55,-116.8743,40.5990,1382.36,59.00,28.40,30.98,200.00,19.00,0.00,29.56,M,10.00,22.00,CLR,M,M,M,M,M,M,M,M,M,M,M,M,M,M,59.00,KBAM 130055Z AUTO 20019G22KT 10SM CLR 15/M02 A2956 RMK AO1,M
CXP,2025-03-13 00:55,-119.7326,39.1923,1431.00,46.40,30.20,53.00,200.00,14.00,0.00,29.59,M,10.00,23.00,FEW,SCT,BKN,M,2700.00,3700.00,4800.00,M,M,M,M,M,M,M,M,39.72,KCXP 130055Z AUTO 20014G23KT 10SM FEW027 SCT037 BKN048 08/M01 A2959 RMK AO2,M
HTH,2025-03-13 00:55,-118.6315,38.5448,1282.89,57.20,21.20,24.49,210.00,30.00,0.00,29.57,M,10.00,43.00,CLR,M,M,M,M,M,M,M,M,M,M,M,M,M,M,57.20,KHTH 130055Z AUTO 21030G43KT 10SM CLR 14/M06 A2957 RMK A01,M
INS,2025-03-13 00:55,-115.6733,36.5872,955.00,63.00,30.40,29.17,220.00,17.00,0.00,29.82,1008.10,10.00,28.00,FEW,M,M,M,6500.00,M,M,M,M,M,M,M,28.00,230.00,2025-03-13 00:46,63.00,KINS 130055Z AUTO 22017G28KT 10SM FEW065 17/M01 A2982 RMK AO2 PK WND 23028/46 SLP081 T01731009 $,M
LSV,2025-03-13 00:55,-115.0343,36.2362,570.00,66.00,37.40,34.75,170.00,17.00,0.00,29.83,1009.40,10.00,M,BKN,M,M,M,9500.00,M,M,M,M,M,M,M,28.00,210.00,2025-03-13 00:18,66.00,KLSV 130055Z 17017KT 10SM BKN095 19/03 A2983 RMK AO2A PK WND 21028/18 SLP094 T01880030 FZRANO $,M
EKO,2025-03-13 00:56,-115.7860,40.8242,1367.00,51.00,30.00,44.26,170.00,23.00,0.00,29.63,1002.10,10.00,40.00,OVC,M,M,M,9000.00,M,M,M,M,M,M,M,40.00,170.00,2025-03-13 00:52,51.00,KEKO 130056Z AUTO 17023G40KT 10SM OVC090 11/M01 A2963 RMK AO2 PK WND 17040/0052 SLP021 T01061011,M
HND,2025-03-13 00:56,-115.1344,35.9729,742.79,63.00,37.00,37.99,190.00,15.00,0.00,29.90,1013.70,10.00,25.00,BKN,M,M,M,8000.00,M,M,M,M,M,M,M,26.00,200.00,2025-03-13 00:06,63.00,KHND 130056Z 19015G25KT 10SM BKN080 17/03 A2990 RMK AO2 PK WND 20026/0006 SLP137 T01720028 $,M
TPH,2025-03-13 00:56,-117.0904,38.0505,1654.00,50.00,30.00,45.93,M,M,0.00,29.76,1006.60,10.00,M,FEW,OVC,M,M,4500.00,6000.00,M,M,M,M,M,M,M,M,M,50.00,KTPH 130056Z AUTO 10SM FEW045 OVC060 10/M01 A2976 RMK AO2 SLP066 T01001011 $,M
LAS,2025-03-13 00:56,-115.1634,36.0719,663.00,65.00,36.00,34.05,200.00,14.00,0.00,29.88,1010.80,10.00,26.00,FEW,BKN,BKN,M,6500.00,9000.00,25000.00,M,M,M,M,M,27.00,200.00,2025-03-13 00:44,65.00,KLAS 130056Z 20014G26KT 10SM FEW065 BKN090 BKN250 18/02 A2988 RMK AO2 PK WND 20027/0044 SLP108 T01830022,M
WMC,2025-03-13 00:56,-117.8072,40.9019,1315.00,M,M,M,M,M,0.00,M,M,M,M,M,M,M,M,M,M,M,M,M,M,M,M,M,M,M,M,KWMC 130056Z AUTO RMK AO2 SLPNO PWINO FZRANO TSNO $,M
NFL,2025-03-13 00:57,-118.7010,39.4166,1199.00,60.00,22.00,22.91,190.00,17.00,0.00,29.50,998.00,10.00,28.00,SCT,BKN,BKN,OVC,6000.00,10000.00,15000.00,25000.00,M,M,M,M,32.00,190.00,2025-03-13 00:16,60.00,KNFL 130057Z 19017G28KT 10SM SCT060 BKN100 BKN150 OVC250 16/M06 A2950 RMK AO2 PK WND 19032/0016 SLP980 ACSL DSNT NW-N T01561056,M
10U,2025-03-13 01:00,-116.1876,41.9532,1637.00,50.00,30.20,46.31,160.00,15.00,0.00,29.57,M,10.00,22.00,FEW,FEW,SCT,M,7000.00,8000.00,9000.00,M,M,M,M,M,M,M,M,50.00,K10U 130100Z AUTO 16015G22KT 10SM FEW070 FEW080 SCT090 10/M01 A2957 RMK AO2,M
TMT,2025-03-13 01:10,-117.1971,39.4643,1749.34,46.60,27.50,47.10,170.00,21.00,0.00,29.63,M,10.00,29.00,CLR,M,M,M,M,M,M,M,M,M,M,M,M,M,M,38.33,KTMT 130110Z AUTO 17021G29KT 10SM CLR 08/M02 A2963 RMK AO2 T00811025,M
BVU,2025-03-13 01:15,-114.8611,35.9475,671.00,62.60,39.20,42.00,180.00,19.00,0.00,29.88,M,10.00,29.00,BKN,M,M,M,8000.00,M,M,M,M,M,M,M,M,M,M,62.60,KBVU 130115Z AUTO 18019G29KT 10SM BKN080 17/04 A2988 RMK AO2,M
BAM,2025-03-13 01:15,-116.8743,40.5990,1382.36,55.40,30.20,37.97,190.00,18.00,0.00,29.56,M,10.00,25.00,SCT,SCT,M,M,7500.00,8500.00,M,M,M,M,M,M,M,M,M,55.40,KBAM 130115Z AUTO 19018G25KT 10SM SCT075 SCT085 13/M01 A2956 RMK AO1,M
CXP,2025-03-13 01:15,-119.7326,39.1923,1431.00,44.60,33.80,65.61,190.00,16.00,0.00,29.59,M,8.00,26.00,SCT,BKN,BKN,M,2700.00,3400.00,4000.00,M,-RA,M,M,M,M,M,M,36.84,KCXP 130115Z AUTO 19016G26KT 8SM -RA SCT027 BKN034 BKN040 07/01 A2959 RMK AO2,M
HTH,2025-03-13 01:15,-118.6315,38.5448,1282.89,55.40,21.20,26.13,210.00,31.00,0.00,29.57,M,10.00,39.00,CLR,M,M,M,M,M,M,M,M,M,M,M,M,M,M,55.40,KHTH 130115Z AUTO 21031G39KT 10SM CLR 13/M06 A2957 RMK A01,M
10U,2025-03-13 01:20,-116.1876,41.9532,1637.00,48.20,30.20,49.53,160.00,14.00,0.00,29.57,M,10.00,20.00,CLR,M,M,M,M,M,M,M,M,M,M,M,M,M,M,42.04,K10U 130120Z AUTO 16014G20KT 10SM CLR 09/M01 A2957 RMK AO2,M
TMT,2025-03-13 01:30,-117.1971,39.4643,1749.34,46.60,27.00,46.14,190.00,21.00,0.00,29.64,M,10.00,29.00,CLR,M,M,M,M,M,M,M,M,M,M,M,M,M,M,38.33,KTMT 130130Z AUTO 19021G29KT 10SM CLR 08/M03 A2964 RMK AO2 T00811028,M
BVU,2025-03-13 01:35,-114.8611,35.9475,671.00,62.60,39.20,42.00,180.00,21.00,0.00,29.87,M,10.00,M,BKN,M,M,M,8500.00,M,M,M,M,M,M,M,M,M,M,62.60,KBVU 130135Z AUTO 18021KT 10SM BKN085 17/04 A2987 RMK AO2,M
BAM,2025-03-13 01:35,-116.8743,40.5990,1382.36,55.40,30.20,37.97,180.00,16.00,0.00,29.57,M,10.00,26.00,SCT,OVC,M,M,7500.00,8500.00,M,M,M,M,M,M,M,M,M,55.40,KBAM 130135Z AUTO 18016G26KT 10SM SCT075 OVC085 13/M01 A2957 RMK AO1,M
CXP,2025-03-13 01:35,-119.7326,39.1923,1431.00,41.00,35.60,80.93,180.00,15.00,0.00,29.59,M,6.00,26.00,FEW,FEW,M,M,2500.00,3500.00,M,M,-RA HZ,M,M,M,M,M,M,32.45,KCXP 130135Z AUTO 18015G26KT 6SM -RA HZ FEW025 FEW035 05/02 A2959 RMK AO2,M
HTH,2025-03-13 01:35,-118.6315,38.5448,1282.89,53.60,23.00,30.11,220.00,26.00,0.00,29.56,M,10.00,31.00,CLR,M,M,M,M,M,M,M,M,M,M,M,M,M,M,53.60,KHTH 130135Z AUTO 22026G31KT 10SM CLR 12/M05 A2956 RMK A01,M
10U,2025-03-13 01:40,-116.1876,41.9532,1637.00,48.20,30.20,49.53,170.00,14.00,0.00,29.57,M,10.00,24.00,FEW,M,M,M,5500.00,M,M,M,M,M,M,M,M,M,M,42.04,K10U 130140Z AUTO 17014G24KT 10SM FEW055 09/M01 A2957 RMK AO2,M
TMT,2025-03-13 01:50,-117.1971,39.4643,1749.34,45.50,28.00,50.12,170.00,18.00,0.00,29.64,M,10.00,M,SCT,SCT,M,M,5500.00,9000.00,M,M,M,M,M,M,M,M,M,37.52,KTMT 130150Z AUTO 17018KT 10SM SCT055 SCT090 08/M02 A2964 RMK AO2 T00751023,M
P68,2025-03-13 01:53,-116.0056,39.6014,1993.00,46.00,28.00,49.18,180.00,17.00,0.00,29.70,1003.40,M,29.00,M,M,M,M,M,M,M,M,M,M,M,M,31.00,160.00,2025-03-13 01:25,38.42,KP68 130153Z AUTO 18017G29KT 08/M02 A2970 RMK AO1 PK WND 16031/0125 SLP034 T00781022,M
DRA,2025-03-13 01:53,-116.0278,36.6206,1009.00,57.00,37.00,47.04,170.00,16.00,0.00,29.81,1007.60,10.00,28.00,BKN,M,M,M,9000.00,M,M,M,M,M,M,M,30.00,190.00,2025-03-13 01:42,57.00,KDRA 130153Z AUTO 17016G28KT 10SM BKN090 14/03 A2981 RMK AO2 PK WND 19030/0142 SLP076 T01390028,M
ELY,2025-03-13 01:53,-114.8453,39.2950,1909.00,M,M,M,150.00,24.00,0.00,29.77,M,10.00,35.00,BKN,OVC,M,M,4600.00,6000.00,M,M,M,M,M,M,35.00,160.00,2025-03-13 01:48,M,KELY 130153Z AUTO 15024G35KT 10SM BKN046 OVC060 A2977 RMK AO2 PK WND 16035/0148 SLPNO $,M
VGT,2025-03-13 01:53,-115.1933,36.2111,667.00,63.00,38.00,39.51,190.00,15.00,0.00,29.85,1012.10,10.00,24.00,BKN,M,M,M,9500.00,M,M,M,M,M,M,M,27.00,190.00,2025-03-13 01:02,63.00,KVGT 130153Z 19015G24KT 10SM BKN095 17/03 A2985 RMK AO2 PK WND 19027/0102 SLP121 T01720033,M
LOL,2025-03-13 01:53,-118.5701,40.0684,1192.43,55.00,23.00,28.61,220.00,18.00,0.00,29.49,998.30,10.00,26.00,SCT,M,M,M,12000.00,M,M,M,M,M,M,M,33.00,220.00,2025-03-13 00:57,55.00,KLOL 130153Z AUTO 22018G26KT 10SM SCT120 13/M05 A2949 RMK AO2 PK WND 22033/0057 SLP983 T01281050,M
BVU,2025-03-13 01:55,-114.8611,35.9475,671.00,60.80,39.20,44.76,170.00,19.00,0.00,29.86,M,10.00,26.00,FEW,M,M,M,8500.00,M,M,M,M,M,M,M,M,M,M,60.80,KBVU 130155Z AUTO 17019G26KT 10SM FEW085 16/04 A2986 RMK AO2,M
RNO,2025-03-13 01:55,-119.7711,39.4839,1341.00,43.00,35.00,73.16,190.00,24.00,T,29.55,998.90,10.00,36.00,BKN,OVC,M,M,4500.00,6000.00,M,M,-RA,M,M,M,49.00,170.00,2025-03-13 01:11,32.90,KRNO 130155Z 19024G36KT 10SM -RA BKN045 OVC060 06/02 A2955 RMK AO2 PK WND 17049/0111 RAB01 SLP989 P0000 T00610017,M
BAM,2025-03-13 01:55,-116.8743,40.5990,1382.36,55.40,30.20,37.97,180.00,20.00,0.00,29.57,M,10.00,28.00,SCT,BKN,OVC,M,7000.00,7500.00,9500.00,M,M,M,M,M,M,M,M,55.40,KBAM 130155Z AUTO 18020G28KT 10SM SCT070 BKN075 OVC095 13/M01 A2957 RMK AO1,M
CXP,2025-03-13 01:55,-119.7326,39.1923,1431.00,41.00,35.60,80.93,190.00,12.00,0.01,29.60,M,5.00,19.00,SCT,M,M,M,2700.00,M,M,M,-RA HZ,M,M,M,M,M,M,33.46,KCXP 130155Z AUTO 19012G19KT 5SM -RA HZ SCT027 05/02 A2960 RMK AO2 P0001,M
RTS,2025-03-13 01:55,-119.8764,39.6682,1539.00,39.20,33.80,80.79,190.00,16.00,0.00,29.57,M,5.00,25.00,FEW,SCT,OVC,M,1100.00,1600.00,2400.00,M,-RA,M,M,M,M,M,M,29.80,KRTS 130155Z AUTO 19016G25KT 5SM -RA FEW011 SCT016 OVC024 04/01 A2957 RMK AO2,M
MEV,2025-03-13 01:55,-119.7500,38.9963,1441.42,39.20,35.60,86.79,180.00,13.00,0.03,29.59,M,3.00,18.00,BKN,BKN,OVC,M,1500.00,2000.00,2500.00,M,-RA BR,M,M,M,M,M,M,30.79,KMEV 130155Z AUTO 18013G18KT 3SM -RA BR BKN015 BKN020 OVC025 04/02 A2959 RMK AO2 P0003,M
HTH,2025-03-13 01:55,-118.6315,38.5448,1282.89,53.60,23.00,30.11,210.00,14.00,0.00,29.55,M,10.00,23.00,CLR,M,M,M,M,M,M,M,M,M,M,M,M,M,M,53.60,KHTH 130155Z AUTO 21014G23KT 10SM CLR 12/M05 A2955 RMK A01,M
INS,2025-03-13 01:55,-115.6733,36.5872,955.00,60.30,32.00,34.24,340.00,3.00,0.00,29.82,1008.30,10.00,M,BKN,OVC,M,M,9000.00,17000.00,M,M,M,M,M,M,29.00,220.00,2025-03-13 01:24,60.30,KINS 130155Z AUTO 34003KT 10SM BKN090 OVC170 16/M00 A2982 RMK AO2 PK WND 22029/24 SLP083 T01571001 $,M
LSV,2025-03-13 01:55,-115.0343,36.2362,570.00,64.20,36.70,35.99,170.00,17.00,0.00,29.82,1009.10,10.00,23.00,BKN,M,M,M,9000.00,M,M,M,M,M,M,M,28.00,170.00,2025-03-13 01:25,64.20,KLSV 130155Z 17017G23KT 10SM BKN090 18/03 A2982 RMK AO2A PK WND 17028/25 SLP091 T01790026 FZRANO $,M
EKO,2025-03-13 01:56,-115.7860,40.8242,1367.00,49.00,30.00,47.68,180.00,17.00,0.00,29.61,1001.30,10.00,30.00,CLR,M,M,M,M,M,M,M,M,M,M,M,38.00,160.00,2025-03-13 01:00,42.35,KEKO 130156Z AUTO 18017G30KT 10SM CLR 09/M01 A2961 RMK AO2 PK WND 16038/0100 SLP013 T00941011,M
WMC,2025-03-13 01:56,-117.8072,40.9019,1315.00,M,M,M,M,M,0.00,M,M,M,M,M,M,M,M,M,M,M,M,M,M,M,M,M,M,M,M,KWMC 130156Z AUTO RMK AO2 SLPNO PWINO FZRANO TSNO $,M
HND,2025-03-13 01:56,-115.1344,35.9729,742.79,60.00,39.00,45.69,170.00,17.00,0.00,29.88,1013.30,10.00,25.00,FEW,M,M,M,8500.00,M,M,M,M,M,M,M,M,M,M,60.00,KHND 130156Z 17017G25KT 10SM FEW085 16/04 A2988 RMK AO2 SLP133 T01560039 $,M
TPH,2025-03-13 01:56,-117.0904,38.0505,1654.00,47.00,30.00,51.39,M,M,0.00,29.75,1006.00,10.00,M,BKN,BKN,M,M,4400.00,6000.00,M,M,M,M,M,M,M,M,M,M,KTPH 130156Z AUTO 10SM BKN044 BKN060 08/M01 A2975 RMK AO2 SLP060 T00831011 $,M
LAS,2025-03-13 01:56,-115.1634,36.0719,663.00,63.00,36.00,36.52,190.00,13.00,0.00,29.87,1010.90,10.00,22.00,FEW,BKN,BKN,M,6500.00,8500.00,25000.00,M,M,M,M,M,26.00,200.00,2025-03-13 01:01,63.00,KLAS 130156Z 19013G22KT 140V210 10SM FEW065 BKN085 BKN250 17/02 A2987 RMK AO2 PK WND 20026/0101 SLP109 T01720022,M
NFL,2025-03-13 01:57,-118.7010,39.4166,1199.00,56.00,23.00,27.59,170.00,20.00,0.00,29.50,997.90,10.00,38.00,SCT,BKN,BKN,OVC,5000.00,7000.00,15000.00,25000.00,M,M,M,M,32.00,170.00,2025-03-13 01:36,56.00,KNFL 130157Z 17020G38KT 10SM SCT050 BKN070 BKN150 OVC250 13/M05 A2950 RMK AO2 PK WND 17032/0136 SLP979 ACSL DSNT NW-N T01331050,M
10U,2025-03-13 02:00,-116.1876,41.9532,1637.00,46.40,30.20,53.00,170.00,17.00,0.00,29.56,M,10.00,25.00,SCT,M,M,M,7500.00,M,M,M,M,M,M,M,M,M,M,38.94,K10U 130200Z AUTO 17017G25KT 10SM SCT075 08/M01 A2956 RMK AO2,M
RTS,2025-03-13 02:05,-119.8764,39.6682,1539.00,37.40,33.80,86.69,220.00,13.00,0.00,29.58,M,3.00,M,SCT,BKN,OVC,M,1000.00,1600.00,2300.00,M,+UP,M,M,M,M,M,M,28.49,KRTS 130205Z AUTO 22013KT 3SM +UP SCT010 BKN016 OVC023 03/01 A2958 RMK AO2,M
MEV,2025-03-13 02:05,-119.7500,38.9963,1441.42,39.20,35.60,86.79,160.00,14.00,0.00,29.59,M,3.00,20.00,BKN,OVC,M,M,1500.00,2000.00,M,M,UP BR,M,M,M,M,M,M,30.44,KMEV 130205Z AUTO 16014G20KT 3SM UP BR BKN015 OVC020 04/02 A2959 RMK AO2,M
RNO,2025-03-13 02:06,-119.7711,39.4839,1341.00,42.00,36.00,79.11,190.00,25.00,T,29.56,M,3.00,35.00,BKN,OVC,M,M,4500.00,6000.00,M,M,-RA,M,M,M,35.00,190.00,2025-03-13 01:57,31.35,KRNO 130206Z 19025G35KT 3SM -RA BKN045 OVC060 06/02 A2956 RMK AO2 PK WND 19035/0157 P0000 T00560022,M
HTH,2025-03-13 02:10,-118.6315,38.5448,1282.89,55.40,19.40,24.21,190.00,22.00,0.00,29.55,M,10.00,32.00,CLR,M,M,M,M,M,M,M,M,M,M,M,M,M,M,55.40,KHTH 130210Z AUTO 19022G32KT 10SM CLR 13/M07 A2955 RMK A01,M
TMT,2025-03-13 02:10,-117.1971,39.4643,1749.34,44.80,27.50,50.42,170.00,17.00,0.00,29.62,M,10.00,M,SCT,M,M,M,9000.00,M,M,M,M,M,M,M,M,M,M,36.84,KTMT 130210Z AUTO 17017KT 10SM SCT090 07/M02 A2962 RMK AO2 T00711025,M
BVU,2025-03-13 02:15,-114.8611,35.9475,671.00,60.80,39.20,44.76,170.00,15.00,0.00,29.87,M,10.00,23.00,BKN,M,M,M,8500.00,M,M,M,M,M,M,M,M,M,M,60.80,KBVU 130215Z AUTO 17015G23KT 10SM BKN085 16/04 A2987 RMK AO2,M
BAM,2025-03-13 02:15,-116.8743,40.5990,1382.36,53.60,30.20,40.54,170.00,15.00,0.00,29.56,M,10.00,20.00,SCT,BKN,OVC,M,6000.00,7000.00,9500.00,M,M,M,M,M,M,M,M,53.60,KBAM 130215Z AUTO 17015G20KT 10SM SCT060 BKN070 OVC095 12/M01 A2956 RMK AO1,M
CXP,2025-03-13 02:15,-119.7326,39.1923,1431.00,39.20,35.60,86.79,190.00,11.00,0.00,29.61,M,4.00,24.00,BKN,BKN,M,M,1500.00,2800.00,M,M,-RA HZ,M,M,M,M,M,M,31.57,KCXP 130215Z AUTO 19011G24KT 4SM -RA HZ BKN015 BKN028 04/02 A2961 RMK AO2,M
10U,2025-03-13 02:20,-116.1876,41.9532,1637.00,46.40,30.20,53.00,180.00,13.00,0.00,29.56,M,10.00,19.00,BKN,BKN,BKN,M,7000.00,7500.00,9000.00,M,M,M,M,M,M,M,M,40.02,K10U 130220Z AUTO 18013G19KT 10SM BKN070 BKN075 BKN090 08/M01 A2956 RMK AO2,M
RNO,2025-03-13 02:27,-119.7711,39.4839,1341.00,40.00,36.00,85.48,260.00,18.00,0.03,29.58,M,3.00,26.00,OVC,M,M,M,2600.00,M,M,M,RA BR,M,M,M,35.00,190.00,2025-03-13 01:57,30.28,KRNO 130227Z 26018G26KT 3SM RA BR OVC026 04/02 A2958 RMK AO2 PK WND 19035/0157 P0003 T00440022 $,M
TMT,2025-03-13 02:30,-117.1971,39.4643,1749.34,44.40,27.50,51.20,170.00,14.00,0.00,29.62,M,10.00,18.00,CLR,M,M,M,M,M,M,M,M,M,M,M,M,M,M,37.15,KTMT 130230Z AUTO 17014G18KT 10SM CLR 07/M02 A2962 RMK AO2 T00691025,M
RNO,2025-03-13 02:34,-119.7711,39.4839,1341.00,37.00,33.00,85.29,280.00,12.00,0.05,29.59,M,3.00,25.00,OVC,M,M,M,2600.00,M,M,M,RA BR,M,M,M,35.00,190.00,2025-03-13 01:57,28.37,KRNO 130234Z 28012G25KT 3SM RA BR OVC026 03/01 A2959 RMK AO2 PK WND 19035/0157 WSHFT 0214 P0005 T00280006 $,M
BVU,2025-03-13 02:35,-114.8611,35.9475,671.00,60.80,39.20,44.76,200.00,11.00,0.00,29.87,M,10.00,M,OVC,M,M,M,8500.00,M,M,M,M,M,M,M,M,M,M,60.80,KBVU 130235Z AUTO 20011KT 10SM OVC085 16/04 A2987 RMK AO2,M
BAM,2025-03-13 02:35,-116.8743,40.5990,1382.36,53.60,30.20,40.54,170.00,15.00,0.00,29.56,M,10.00,22.00,SCT,SCT,BKN,M,7000.00,8000.00,9000.00,M,M,M,M,M,M,M,M,53.60,KBAM 130235Z AUTO 17015G22KT 10SM SCT070 SCT080 BKN090 12/M01 A2956 RMK AO1,M
CXP,2025-03-13 02:35,-119.7326,39.1923,1431.00,37.40,33.80,86.69,240.00,11.00,0.00,29.63,M,2.00,24.00,FEW,SCT,OVC,M,400.00,800.00,1400.00,M,RA BR,M,M,M,M,M,M,29.29,KCXP 130235Z AUTO 24011G24KT 2SM RA BR FEW004 SCT008 OVC014 03/01 A2963 RMK AO2 VIS 1 1/4V4,M
RTS,2025-03-13 02:35,-119.8764,39.6682,1539.00,33.80,30.20,86.49,230.00,18.00,0.00,29.59,M,1.50,24.00,BKN,BKN,OVC,M,300.00,600.00,1000.00,M,-SN,M,M,M,M,M,M,22.12,KRTS 130235Z AUTO 23018G24KT 1 1/2SM -SN BKN003 BKN006 OVC010 01/M01 A2959 RMK AO2,M
MEV,2025-03-13 02:35,-119.7500,38.9963,1441.42,39.20,35.60,86.79,180.00,13.00,0.00,29.60,M,8.00,19.00,BKN,OVC,M,M,1500.00,2000.00,M,M,-RA,M,M,M,M,M,M,30.79,KMEV 130235Z AUTO 18013G19KT 8SM -RA BKN015 OVC020 04/02 A2960 RMK AO2,M
HTH,2025-03-13 02:35,-118.6315,38.5448,1282.89,53.60,23.00,30.11,200.00,14.00,0.00,29.55,M,10.00,25.00,CLR,M,M,M,M,M,M,M,M,M,M,M,M,M,M,53.60,KHTH 130235Z AUTO 20014G25KT 10SM CLR 12/M05 A2955 RMK A01,M
10U,2025-03-13 02:40,-116.1876,41.9532,1637.00,46.40,30.20,53.00,180.00,16.00,0.00,29.55,M,10.00,23.00,OVC,M,M,M,7000.00,M,M,M,M,M,M,M,M,M,M,39.19,K10U 130240Z AUTO 18016G23KT 10SM OVC070 08/M01 A2955 RMK AO2,M
TMT,2025-03-13 02:50,-117.1971,39.4643,1749.34,44.00,28.00,53.07,170.00,12.00,0.00,29.61,M,10.00,19.00,SCT,SCT,M,M,6000.00,8000.00,M,M,M,M,M,M,M,M,M,37.27,KTMT 130250Z AUTO 17012G19KT 10SM SCT060 SCT080 07/M02 A2961 RMK AO2 T00661022,M
P68,2025-03-13 02:53,-116.0056,39.6014,1993.00,45.00,29.00,53.22,180.00,20.00,0.00,29.69,1002.90,M,28.00,M,M,M,M,M,M,M,M,M,M,M,M,33.00,170.00,2025-03-13 02:29,36.41,KP68 130253Z AUTO 18020G28KT 07/M02 A2969 RMK AO1 PK WND 17033/0229 SLP029 T00721017 58012,M
DRA,2025-03-13 02:53,-116.0278,36.6206,1009.00,57.00,39.00,50.88,180.00,19.00,0.00,29.82,1007.90,10.00,28.00,OVC,M,M,M,9000.00,M,M,M,M,M,M,M,35.00,150.00,2025-03-13 02:20,57.00,KDRA 130253Z AUTO 18019G28KT 10SM OVC090 14/04 A2982 RMK AO2 PK WND 15035/0220 SLP079 T01390039 55007,M
ELY,2025-03-13 02:53,-114.8453,39.2950,1909.00,M,M,M,160.00,20.00,0.00,29.78,M,10.00,33.00,BKN,OVC,M,M,4600.00,6000.00,M,M,M,M,M,M,35.00,150.00,2025-03-13 02:28,M,KELY 130253Z AUTO 16020G33KT 10SM BKN046 OVC060 A2978 RMK AO2 PK WND 15035/0228 SLPNO 55003 $,M
VGT,2025-03-13 02:53,-115.1933,36.2111,667.00,62.00,38.00,40.93,180.00,14.00,0.00,29.85,1012.10,10.00,21.00,SCT,BKN,M,M,8500.00,10000.00,M,M,M,M,M,M,M,M,M,62.00,KVGT 130253Z 18014G21KT 10SM SCT085 BKN100 17/03 A2985 RMK AO2 SLP121 T01670033 56001,M
LOL,2025-03-13 02:53,-118.5701,40.0684,1192.43,52.00,24.00,33.30,210.00,14.00,0.00,29.49,998.40,7.00,M,BKN,M,M,M,12000.00,M,M,M,M,M,M,M,M,M,M,52.00,KLOL 130253Z AUTO 21014KT 7SM BKN120 11/M04 A2949 RMK AO2 SLP984 T01111044 55004,M
BVU,2025-03-13 02:55,-114.8611,35.9475,671.00,60.80,39.20,44.76,200.00,13.00,0.00,29.88,M,10.00,M,BKN,M,M,M,8500.00,M,M,M,M,M,M,M,M,M,M,60.80,KBVU 130255Z AUTO 20013KT 10SM BKN085 16/04 A2988 RMK AO2,M
RNO,2025-03-13 02:55,-119.7711,39.4839,1341.00,38.00,33.00,82.00,0.00,0.00,0.08,29.59,1000.80,10.00,M,OVC,M,M,M,3200.00,M,M,M,M,M,M,M,35.00,190.00,2025-03-13 01:57,38.00,KRNO 130255Z 00000KT 10SM OVC032 03/01 A2959 RMK AO2 PK WND 19035/0157 WSHFT 0214 RAEMM SLP008 P0008 60008 T00330006 53026 $,M
BAM,2025-03-13 02:55,-116.8743,40.5990,1382.36,53.60,30.20,40.54,170.00,17.00,0.00,29.55,M,10.00,22.00,BKN,M,M,M,9000.00,M,M,M,M,M,M,M,M,M,M,53.60,KBAM 130255Z AUTO 17017G22KT 10SM BKN090 12/M01 A2955 RMK AO1,M
CXP,2025-03-13 02:55,-119.7326,39.1923,1431.00,33.80,32.00,93.03,M,5.00,0.09,29.63,M,3.00,19.00,BKN,BKN,OVC,M,400.00,800.00,3200.00,M,-SN BR,M,M,M,M,M,M,28.53,KCXP 130255Z AUTO VRB05G19KT 3SM -SN BR BKN004 BKN008 OVC032 01/00 A2963 RMK AO2 P0009,M
RTS,2025-03-13 02:55,-119.8764,39.6682,1539.00,33.80,30.20,86.49,230.00,15.00,0.03,29.59,M,5.00,22.00,FEW,BKN,OVC,M,300.00,2100.00,3300.00,M,-SN,M,M,M,M,M,M,23.11,KRTS 130255Z AUTO 23015G22KT 5SM -SN FEW003 BKN021 OVC033 01/M01 A2959 RMK AO2 P0003,M
MEV,2025-03-13 02:55,-119.7500,38.9963,1441.42,33.80,32.00,93.03,240.00,9.00,0.07,29.62,M,1.50,17.00,BKN,BKN,OVC,M,400.00,900.00,1400.00,M,-SN BR,M,M,M,M,M,M,25.75,KMEV 130255Z AUTO 24009G17KT 1 1/2SM -SN BR BKN004 BKN009 OVC014 01/M00 A2962 RMK AO2 P0007 VIS 1V2,M
HTH,2025-03-13 02:55,-118.6315,38.5448,1282.89,53.60,23.00,30.11,190.00,16.00,0.00,29.54,M,10.00,27.00,CLR,M,M,M,M,M,M,M,M,M,M,M,M,M,M,53.60,KHTH 130255Z AUTO 19016G27KT 10SM CLR 12/M05 A2954 RMK A01,M
INS,2025-03-13 02:55,-115.6733,36.5872,955.00,58.50,33.60,38.94,60.00,16.00,0.00,29.80,1007.60,10.00,M,OVC,M,M,M,8500.00,M,M,M,M,M,M,M,M,M,M,58.50,KINS 130255Z AUTO 06016KT 10SM OVC085 15/01 A2980 RMK AO2 SLP076 T01470009 57009 $,M
LSV,2025-03-13 02:55,-115.0343,36.2362,570.00,63.00,40.00,42.72,180.00,18.00,0.00,29.82,1009.10,10.00,24.00,BKN,BKN,M,M,9000.00,20000.00,M,M,M,M,M,M,26.00,210.00,2025-03-13 02:52,63.00,KLSV 130255Z 18018G24KT 10SM BKN090 BKN200 17/05 A2982 RMK AO2A PK WND 21026/52 SLP091 T01720045 55004 FZRANO $,M
EKO,2025-03-13 02:56,-115.7860,40.8242,1367.00,48.00,31.00,51.54,170.00,25.00,0.00,29.61,1001.70,10.00,37.00,SCT,M,M,M,10000.00,M,M,M,M,M,M,M,37.00,170.00,2025-03-13 02:55,39.48,KEKO 130256Z AUTO 17025G37KT 10SM SCT100 09/M01 A2961 RMK AO2 PK WND 17037/0255 SLP017 T00891006 56010,M
WMC,2025-03-13 02:56,-117.8072,40.9019,1315.00,M,M,M,M,M,0.00,M,M,M,M,M,M,M,M,M,M,M,M,M,M,M,M,M,M,M,M,KWMC 130256Z AUTO RMK AO2 SLPNO PWINO FZRANO TSNO $,M
HND,2025-03-13 02:56,-115.1344,35.9729,742.79,59.00,39.00,47.35,170.00,13.00,0.00,29.89,1013.50,10.00,M,FEW,M,M,M,8500.00,M,M,M,M,M,M,M,M,M,M,59.00,KHND 130256Z 17013KT 10SM FEW085 15/04 A2989 RMK AO2 SLP135 T01500039 53000 $,M
TPH,2025-03-13 02:56,-117.0904,38.0505,1654.00,44.00,33.00,65.01,M,M,0.00,29.72,1005.40,10.00,M,CLR,M,M,M,M,M,M,M,M,M,M,M,29.00,140.00,2025-03-13 02:43,M,KTPH 130256Z AUTO 10SM CLR 07/01 A2972 RMK AO2 PK WND 14029/0243 SLP054 T00670006 56019 $,M
LAS,2025-03-13 02:56,-115.1634,36.0719,663.00,61.00,38.00,42.40,170.00,7.00,0.00,29.87,1010.80,10.00,M,FEW,BKN,BKN,M,6500.00,8500.00,25000.00,M,M,M,M,M,M,M,M,61.00,KLAS 130256Z 17007KT 10SM FEW065 BKN085 BKN250 16/03 A2987 RMK AO2 SLP108 T01610033 55001,M
NFL,2025-03-13 02:57,-118.7010,39.4166,1199.00,54.00,25.00,32.26,200.00,18.00,0.00,29.50,998.00,10.00,27.00,SCT,BKN,OVC,M,5000.00,7000.00,10000.00,M,M,M,M,M,31.00,180.00,2025-03-13 02:00,54.00,KNFL 130257Z 20018G27KT 10SM SCT050 BKN070 OVC100 12/M04 A2950 RMK AO2 PK WND 18031/0200 SLP980 T01221039 55007,M
10U,2025-03-13 03:00,-116.1876,41.9532,1637.00,46.40,30.20,53.00,180.00,23.00,0.00,29.54,M,10.00,32.00,FEW,SCT,BKN,M,4600.00,6500.00,7500.00,M,M,M,M,M,M,M,M,37.67,K10U 130300Z AUTO 18023G32KT 10SM FEW046 SCT065 BKN075 08/M01 A2954 RMK AO2,M
LOL,2025-03-13 03:02,-118.5701,40.0684,1192.43,53.00,23.00,30.78,210.00,17.00,0.00,29.49,M,1.75,24.00,FEW,BKN,M,M,800.00,11000.00,M,M,HZ,M,M,M,M,M,M,53.00,KLOL 130302Z AUTO 21017G24KT 1 3/4SM HZ FEW008 BKN110 12/M05 A2949 RMK AO2 T01171050,M
LOL,2025-03-13 03:08,-118.5701,40.0684,1192.43,53.00,23.00,30.78,210.00,20.00,0.00,29.49,M,0.75,28.00,BKN,BKN,M,M,600.00,11000.00,M,M,HZ,M,M,M,28.00,210.00,2025-03-13 03:08,53.00,KLOL 130308Z AUTO 21020G28KT 3/4SM HZ BKN006 BKN110 12/M05 A2949 RMK AO2 PK WND 21028/0308 T01171050,M
TMT,2025-03-13 03:10,-117.1971,39.4643,1749.34,44.00,27.50,51.99,180.00,16.00,0.00,29.60,M,10.00,20.00,CLR,M,M,M,M,M,M,M,M,M,M,M,M,M,M,36.06,KTMT 130310Z AUTO 18016G20KT 10SM CLR 07/M02 A2960 RMK AO2 T00671025,M
BVU,2025-03-13 03:15,-114.8611,35.9475,671.00,60.80,39.20,44.76,210.00,9.00,0.00,29.88,M,10.00,15.00,OVC,M,M,M,8000.00,M,M,M,M,M,M,M,M,M,M,60.80,KBVU 130315Z AUTO 21009G15KT 10SM OVC080 16/04 A2988 RMK AO2,M
BAM,2025-03-13 03:15,-116.8743,40.5990,1382.36,53.60,30.20,40.54,170.00,18.00,0.00,29.55,M,10.00,22.00,BKN,M,M,M,9000.00,M,M,M,M,M,M,M,M,M,M,53.60,KBAM 130315Z AUTO 17018G22KT 10SM BKN090 12/M01 A2955 RMK AO1,M
CXP,2025-03-13 03:15,-119.7326,39.1923,1431.00,35.60,33.80,93.08,190.00,6.00,0.00,29.63,M,9.00,13.00,FEW,FEW,OVC,M,400.00,1000.00,3100.00,M,-SN,M,M,M,M,M,M,29.87,KCXP 130315Z AUTO 19006G13KT 9SM -SN FEW004 FEW010 OVC031 02/01 A2963 RMK AO2,M
RTS,2025-03-13 03:15,-119.8764,39.6682,1539.00,33.80,30.20,86.49,230.00,6.00,0.00,29.60,M,7.00,15.00,FEW,BKN,BKN,M,2400.00,3400.00,4300.00,M,M,M,M,M,M,M,M,27.70,KRTS 130315Z AUTO 23006G15KT 7SM FEW024 BKN034 BKN043 01/M01 A2960 RMK AO2,M
MEV,2025-03-13 03:15,-119.7500,38.9963,1441.42,33.80,32.00,93.03,240.00,13.00,0.00,29.62,M,10.00,M,SCT,BKN,OVC,M,600.00,2700.00,3800.00,M,M,M,M,M,M,M,M,23.87,KMEV 130315Z AUTO 24013KT 10SM SCT006 BKN027 OVC038 01/M00 A2962 RMK AO2,M
HTH,2025-03-13 03:15,-118.6315,38.5448,1282.89,55.40,24.80,30.40,180.00,28.00,0.00,29.53,M,10.00,M,CLR,M,M,M,M,M,M,M,M,M,M,M,M,M,M,55.40,KHTH 130315Z AUTO 18028KT 10SM CLR 13/M04 A2953 RMK A01,M
LOL,2025-03-13 03:19,-118.5701,40.0684,1192.43,53.00,23.00,30.78,220.00,18.00,0.00,29.49,M,1.50,26.00,BKN,OVC,M,M,700.00,11000.00,M,M,HZ,M,M,M,28.00,210.00,2025-03-13 03:08,53.00,KLOL 130319Z AUTO 22018G26KT 1 1/2SM HZ BKN007 OVC110 12/M05 A2949 RMK AO2 PK WND 21028/0308 T01171050,M
10U,2025-03-13 03:20,-116.1876,41.9532,1637.00,46.40,30.20,53.00,180.00,23.00,0.00,29.53,M,10.00,30.00,CLR,M,M,M,M,M,M,M,M,M,M,M,M,M,M,37.67,K10U 130320Z AUTO 18023G30KT 10SM CLR 08/M01 A2953 RMK AO2,M
LOL,2025-03-13 03:30,-118.5701,40.0684,1192.43,53.00,24.00,32.10,220.00,20.00,0.00,29.50,M,0.75,29.00,VV ,M,M,M,500.00,M,M,M,HZ,M,M,M,29.00,220.00,2025-03-13 03:25,53.00,KLOL 130330Z AUTO 22020G29KT 3/4SM HZ VV005 12/M04 A2950 RMK AO2 PK WND 22029/0325 T01171044,M
TMT,2025-03-13 03:30,-117.1971,39.4643,1749.34,44.00,28.40,53.94,170.00,17.00,0.00,29.60,M,10.00,26.00,SCT,M,M,M,6000.00,M,M,M,M,M,M,M,M,M,M,35.80,KTMT 130330Z AUTO 17017G26KT 10SM SCT060 07/M02 A2960 RMK AO2 T00671020,M
BVU,2025-03-13 03:35,-114.8611,35.9475,671.00,60.80,39.20,44.76,210.00,10.00,0.00,29.87,M,10.00,15.00,BKN,M,M,M,8000.00,M,M,M,M,M,M,M,M,M,M,60.80,KBVU 130335Z AUTO 21010G15KT 10SM BKN080 16/04 A2987 RMK AO2,M
LOL,2025-03-13 03:35,-118.5701,40.0684,1192.43,53.00,24.00,32.10,210.00,18.00,0.00,29.51,M,2.00,28.00,BKN,OVC,M,M,500.00,11000.00,M,M,HZ,M,M,M,29.00,220.00,2025-03-13 03:25,53.00,KLOL 130335Z AUTO 21018G28KT 2SM HZ BKN005 OVC110 12/M04 A2951 RMK AO2 PK WND 22029/0325 T01171044,M
BAM,2025-03-13 03:35,-116.8743,40.5990,1382.36,51.80,32.00,46.59,160.00,18.00,0.00,29.55,M,10.00,22.00,SCT,M,M,M,9000.00,M,M,M,M,M,M,M,M,M,M,51.80,KBAM 130335Z AUTO 16018G22KT 10SM SCT090 11/00 A2955 RMK AO1,M
CXP,2025-03-13 03:35,-119.7326,39.1923,1431.00,35.60,32.00,86.59,190.00,10.00,0.00,29.64,M,10.00,16.00,FEW,SCT,BKN,M,2100.00,3200.00,5000.00,M,UP,M,M,M,M,M,M,27.48,KCXP 130335Z AUTO 19010G16KT 10SM UP FEW021 SCT032 BKN050 02/00 A2964 RMK AO2,M
RTS,2025-03-13 03:35,-119.8764,39.6682,1539.00,33.80,30.20,86.49,230.00,8.00,0.00,29.62,M,5.00,17.00,SCT,BKN,BKN,M,2400.00,2900.00,3500.00,M,-RA,M,M,M,M,M,M,26.33,KRTS 130335Z AUTO 23008G17KT 5SM -RA SCT024 BKN029 BKN035 01/M01 A2962 RMK AO2,M
MEV,2025-03-13 03:35,-119.7500,38.9963,1441.42,35.60,32.00,86.59,230.00,9.00,0.00,29.64,M,5.00,16.00,SCT,BKN,OVC,M,500.00,1400.00,3100.00,M,-SN BR,M,M,M,M,M,M,27.99,KMEV 130335Z AUTO 23009G16KT 5SM -SN BR SCT005 BKN014 OVC031 02/M00 A2964 RMK AO2,M
HTH,2025-03-13 03:35,-118.6315,38.5448,1282.89,53.60,26.60,34.98,190.00,23.00,0.00,29.54,M,10.00,30.00,CLR,M,M,M,M,M,M,M,M,M,M,M,M,M,M,53.60,KHTH 130335Z AUTO 19023G30KT 10SM CLR 12/M03 A2954 RMK A01,M
10U,2025-03-13 03:40,-116.1876,41.9532,1637.00,46.40,28.40,49.24,180.00,24.00,0.00,29.53,M,10.00,32.00,CLR,M,M,M,M,M,M,M,M,M,M,M,M,M,M,37.49,K10U 130340Z AUTO 18024G32KT 10SM CLR 08/M02 A2953 RMK AO2,M
LOL,2025-03-13 03:41,-118.5701,40.0684,1192.43,52.00,25.00,34.72,230.00,15.00,0.00,29.51,M,10.00,28.00,SCT,OVC,M,M,500.00,11000.00,M,M,M,M,M,M,29.00,220.00,2025-03-13 03:25,52.00,KLOL 130341Z AUTO 23015G28KT 10SM SCT005 OVC110 11/M04 A2951 RMK AO2 PK WND 22029/0325 T01111039,M
TMT,2025-03-13 03:50,-117.1971,39.4643,1749.34,44.00,29.00,55.29,170.00,17.00,0.00,29.60,M,10.00,28.00,BKN,BKN,M,M,7000.00,8000.00,M,M,M,M,M,M,M,M,M,35.80,KTMT 130350Z AUTO 17017G28KT 10SM BKN070 BKN080 07/M02 A2960 RMK AO2 T00671017,M
P68,2025-03-13 03:53,-116.0056,39.6014,1993.00,44.00,29.00,55.29,180.00,28.00,0.00,29.67,1001.60,M,39.00,M,M,M,M,M,M,M,M,M,M,M,M,40.00,180.00,2025-03-13 03:43,33.53,KP68 130353Z AUTO 18028G39KT 07/M02 A2967 RMK AO1 PK WND 18040/0343 SLP016 T00671017,M
DRA,2025-03-13 03:53,-116.0278,36.6206,1009.00,54.00,42.00,63.74,190.00,20.00,0.00,29.81,1007.60,10.00,32.00,BKN,BKN,M,M,4300.00,6000.00,M,M,M,M,M,M,33.00,170.00,2025-03-13 03:27,54.00,KDRA 130353Z AUTO 19020G32KT 10SM BKN043 BKN060 12/06 A2981 RMK AO2 PK WND 17033/0327 SLP076 T01220056,M
ELY,2025-03-13 03:53,-114.8453,39.2950,1909.00,M,M,M,150.00,23.00,T,29.76,M,10.00,34.00,BKN,OVC,M,M,4100.00,5000.00,M,M,-RA,M,M,M,35.00,160.00,2025-03-13 03:17,M,KELY 130353Z AUTO 15023G34KT 10SM -RA BKN041 OVC050 A2976 RMK AO2 PK WND 16035/0317 RAB0254 SLPNO P0000 $,M
VGT,2025-03-13 03:53,-115.1933,36.2111,667.00,61.00,40.00,45.85,150.00,15.00,0.00,29.85,1011.90,10.00,M,OVC,M,M,M,9000.00,M,M,M,M,M,M,M,M,M,M,61.00,KVGT 130353Z AUTO 15015KT 10SM OVC090 16/04 A2985 RMK AO2 SLP119 T01610044,M
LOL,2025-03-13 03:53,-118.5701,40.0684,1192.43,51.00,26.00,37.55,240.00,19.00,0.00,29.52,999.20,10.00,27.00,FEW,BKN,M,M,500.00,11000.00,M,M,M,M,M,M,29.00,220.00,2025-03-13 03:25,51.00,KLOL 130353Z AUTO 24019G27KT 10SM FEW005 BKN110 11/M03 A2952 RMK AO2 PK WND 22029/0325 SLP992 T01061033,M
BVU,2025-03-13 03:55,-114.8611,35.9475,671.00,59.00,39.20,47.72,220.00,11.00,0.00,29.87,M,10.00,M,FEW,M,M,M,8000.00,M,M,M,M,M,M,M,M,M,M,59.00,KBVU 130355Z AUTO 22011KT 10SM FEW080 15/04 A2987 RMK AO2,M
RNO,2025-03-13 03:55,-119.7711,39.4839,1341.00,37.00,33.00,85.29,140.00,7.00,T,29.61,1001.20,10.00,M,BKN,OVC,M,M,4400.00,7000.00,M,M,M,M,M,M,M,M,M,30.87,KRNO 130355Z 14007KT 10SM BKN044 OVC070 03/01 A2961 RMK AO2 SLP012 P0000 T00280006 $,M
BAM,2025-03-13 03:55,-116.8743,40.5990,1382.36,51.80,32.00,46.59,160.00,16.00,0.00,29.55,M,10.00,24.00,SCT,M,M,M,8000.00,M,M,M,M,M,M,M,M,M,M,51.80,KBAM 130355Z AUTO 16016G24KT 10SM SCT080 11/00 A2955 RMK AO1,M
CXP,2025-03-13 03:55,-119.7326,39.1923,1431.00,35.60,32.00,86.59,170.00,10.00,0.00,29.64,M,8.00,M,BKN,BKN,OVC,M,3000.00,5000.00,6000.00,M,UP,M,M,M,M,M,M,27.48,KCXP 130355Z AUTO 17010KT 8SM UP BKN030 BKN050 OVC060 02/M00 A2964 RMK AO2,M
RTS,2025-03-13 03:55,-119.8764,39.6682,1539.00,33.80,28.40,80.36,290.00,6.00,0.00,29.62,M,7.00,15.00,FEW,SCT,BKN,M,2100.00,2500.00,3000.00,M,-SN,M,M,M,M,M,M,27.70,KRTS 130355Z AUTO 29006G15KT 7SM -SN FEW021 SCT025 BKN030 01/M02 A2962 RMK AO2,M
MEV,2025-03-13 03:55,-119.7500,38.9963,1441.42,33.80,32.00,93.03,160.00,5.00,0.02,29.64,M,1.25,M,OVC,M,M,M,400.00,M,M,M,-SN BR,M,M,M,M,M,M,28.53,KMEV 130355Z AUTO 16005KT 1 1/4SM -SN BR OVC004 01/M00 A2964 RMK AO2 P0002 VIS 3/4V2,M
HTH,2025-03-13 03:55,-118.6315,38.5448,1282.89,53.60,26.60,34.98,180.00,22.00,0.00,29.56,M,10.00,31.00,FEW,FEW,SCT,M,4400.00,5500.00,9500.00,M,M,M,M,M,M,M,M,53.60,KHTH 130355Z AUTO 18022G31KT 10SM FEW044 FEW055 SCT095 12/M03 A2956 RMK A01,M
INS,2025-03-13 03:55,-115.6733,36.5872,955.00,58.00,33.80,39.96,20.00,6.00,0.00,29.80,1007.40,10.00,M,BKN,M,M,M,8000.00,M,M,M,M,M,M,M,M,M,M,58.00,KINS 130355Z AUTO 02006KT 10SM BKN080 14/01 A2980 RMK AO2 SLP074 T01440010 $,M
LSV,2025-03-13 03:55,-115.0343,36.2362,570.00,62.20,40.00,43.94,180.00,19.00,0.00,29.81,1008.70,10.00,M,BKN,M,M,M,10000.00,M,M,M,M,M,M,M,M,M,M,62.20,KLSV 130355Z COR 18019KT 10SM BKN100 17/05 A2981 RMK AO2A SLP087 T01680045 FZRANO $ COR 0405,M
EKO,2025-03-13 03:56,-115.7860,40.8242,1367.00,48.00,31.00,51.54,170.00,22.00,0.00,29.60,1000.50,10.00,40.00,CLR,M,M,M,M,M,M,M,M,M,M,M,40.00,170.00,2025-03-13 03:50,40.00,KEKO 130356Z AUTO 17022G40KT 10SM CLR 09/M01 A2960 RMK AO2 PK WND 17040/0350 SLP005 T00891006,M
WMC,2025-03-13 03:56,-117.8072,40.9019,1315.00,M,M,M,M,M,0.00,M,M,M,M,M,M,M,M,M,M,M,M,M,M,M,M,M,M,M,M,KWMC 130356Z AUTO RMK AO2 SLPNO PWINO FZRANO TSNO $,M
HND,2025-03-13 03:56,-115.1344,35.9729,742.79,58.00,39.00,49.08,170.00,9.00,0.00,29.88,1012.80,10.00,M,CLR,M,M,M,M,M,M,M,M,M,M,M,M,M,M,58.00,KHND 130356Z AUTO 17009KT 10SM CLR 14/04 A2988 RMK AO2 SLP128 T01440039 $,M
TPH,2025-03-13 03:56,-117.0904,38.0505,1654.00,44.00,33.00,65.01,M,M,0.00,29.69,1004.20,10.00,M,CLR,M,M,M,M,M,M,M,M,M,M,M,M,M,M,M,KTPH 130356Z AUTO 10SM CLR 07/01 A2969 RMK AO2 SLP042 T00670006 $,M
LAS,2025-03-13 03:56,-115.1634,36.0719,663.00,60.00,38.00,43.94,180.00,6.00,0.00,29.86,1010.40,10.00,M,FEW,BKN,BKN,M,6500.00,8500.00,20000.00,M,M,M,M,M,M,M,M,60.00,KLAS 130356Z 18006KT 10SM FEW065 BKN085 BKN200 16/03 A2986 RMK AO2 SLP104 T01560033,M
NFL,2025-03-13 03:57,-118.7010,39.4166,1199.00,49.00,30.00,47.68,250.00,19.00,0.00,29.54,999.00,10.00,M,SCT,BKN,OVC,M,5000.00,7000.00,10000.00,M,M,M,M,M,28.00,210.00,2025-03-13 03:12,41.92,KNFL 130357Z 25019KT 10SM SCT050 BKN070 OVC100 09/M01 A2954 RMK AO2 PK WND 21028/0312 SLP990 T00941011,M
10U,2025-03-13 04:00,-116.1876,41.9532,1637.00,46.40,28.40,49.24,180.00,25.00,0.00,29.53,M,10.00,35.00,CLR,M,M,M,M,M,M,M,M,M,M,M,M,M,M,37.31,K10U 130400Z AUTO 18025G35KT 10SM CLR 08/M02 A2953 RMK AO2,M
TMT,2025-03-13 04:10,-117.1971,39.4643,1749.34,44.00,28.80,54.83,190.00,16.00,0.00,29.59,M,10.00,M,OVC,M,M,M,7500.00,M,M,M,M,M,M,M,M,M,M,36.06,KTMT 130410Z AUTO 19016KT 10SM OVC075 07/M02 A2959 RMK AO2 T00671018,M
BVU,2025-03-13 04:15,-114.8611,35.9475,671.00,59.00,39.20,47.72,230.00,13.00,0.00,29.87,M,10.00,M,BKN,M,M,M,8500.00,M,M,M,M,M,M,M,M,M,M,59.00,KBVU 130415Z AUTO 23013KT 10SM BKN085 15/04 A2987 RMK AO2,M
BAM,2025-03-13 04:15,-116.8743,40.5990,1382.36,51.80,32.00,46.59,160.00,17.00,0.00,29.55,M,10.00,25.00,SCT,M,M,M,8000.00,M,M,M,M,M,M,M,M,M,M,51.80,KBAM 130415Z AUTO 16017G25KT 10SM SCT080 11/00 A2955 RMK AO1,M
CXP,2025-03-13 04:15,-119.7326,39.1923,1431.00,35.60,32.00,86.59,160.00,11.00,0.00,29.65,M,3.00,M,SCT,SCT,BKN,M,400.00,1400.00,2900.00,M,-SN BR,M,M,M,M,M,M,27.02,KCXP 130415Z AUTO 16011KT 3SM -SN BR SCT004 SCT014 BKN029 02/M00 A2965 RMK AO2,M
RTS,2025-03-13 04:15,-119.8764,39.6682,1539.00,32.00,30.20,92.97,310.00,7.00,0.00,29.61,M,4.00,M,FEW,BKN,OVC,M,1200.00,1800.00,2700.00,M,-SN,M,M,M,M,M,M,24.78,KRTS 130415Z AUTO 31007KT 4SM -SN FEW012 BKN018 OVC027 00/M01 A2961 RMK AO2,M
MEV,2025-03-13 04:15,-119.7500,38.9963,1441.42,32.00,32.00,100.00,170.00,11.00,0.00,29.64,M,1.25,M,OVC,M,M,M,300.00,M,M,M,-SN BR,M,M,M,M,M,M,22.47,KMEV 130415Z AUTO 17011KT 1 1/4SM -SN BR OVC003 00/M00 A2964 RMK AO2,M
HTH,2025-03-13 04:15,-118.6315,38.5448,1282.89,50.00,30.20,46.31,210.00,23.00,0.00,29.56,M,10.00,30.00,OVC,M,M,M,10000.00,M,M,M,M,M,M,M,M,M,M,50.00,KHTH 130415Z AUTO 21023G30KT 10SM OVC100 10/M01 A2956 RMK A01,M
10U,2025-03-13 04:20,-116.1876,41.9532,1637.00,46.40,28.40,49.24,180.00,23.00,0.00,29.53,M,10.00,33.00,CLR,M,M,M,M,M,M,M,M,M,M,M,M,M,M,37.67,K10U 130420Z AUTO 18023G33KT 10SM CLR 08/M02 A2953 RMK AO2,M
TMT,2025-03-13 04:30,-117.1971,39.4643,1749.34,44.00,28.60,54.39,190.00,8.00,0.00,29.59,M,10.00,21.00,BKN,OVC,M,M,6500.00,7500.00,M,M,M,M,M,M,M,M,M,38.90,KTMT 130430Z AUTO 19008G21KT 10SM BKN065 OVC075 07/M02 A2959 RMK AO2 T00671019,M
BVU,2025-03-13 04:35,-114.8611,35.9475,671.00,59.00,39.20,47.72,250.00,11.00,0.00,29.87,M,10.00,M,BKN,M,M,M,8500.00,M,M,M,M,M,M,M,M,M,M,59.00,KBVU 130435Z AUTO 25011KT 10SM BKN085 15/04 A2987 RMK AO2,M
BAM,2025-03-13 04:35,-116.8743,40.5990,1382.36,51.80,32.00,46.59,170.00,15.00,0.00,29.56,M,10.00,20.00,CLR,M,M,M,M,M,M,M,M,M,M,M,M,M,M,51.80,KBAM 130435Z AUTO 17015G20KT 10SM CLR 11/00 A2956 RMK AO1,M
CXP,2025-03-13 04:35,-119.7326,39.1923,1431.00,33.80,32.00,93.03,180.00,10.00,0.00,29.65,M,6.00,M,FEW,FEW,BKN,M,400.00,2200.00,2900.00,M,-SN BR,M,M,M,M,M,M,25.23,KCXP 130435Z AUTO 18010KT 6SM -SN BR FEW004 FEW022 BKN029 01/00 A2965 RMK AO2,M
RTS,2025-03-13 04:35,-119.8764,39.6682,1539.00,32.00,32.00,100.00,300.00,7.00,0.00,29.63,M,3.00,M,FEW,BKN,OVC,M,1400.00,2100.00,2700.00,M,-SN,M,M,M,M,M,M,24.78,KRTS 130435Z AUTO 30007KT 3SM -SN FEW014 BKN021 OVC027 00/M00 A2963 RMK AO2,M
MEV,2025-03-13 04:35,-119.7500,38.9963,1441.42,32.00,32.00,100.00,160.00,10.00,0.00,29.64,M,1.25,15.00,OVC,M,M,M,300.00,M,M,M,-SN BR,M,M,M,M,M,M,22.97,KMEV 130435Z AUTO 16010G15KT 1 1/4SM -SN BR OVC003 00/M00 A2964 RMK AO2,M
HTH,2025-03-13 04:35,-118.6315,38.5448,1282.89,48.20,30.20,49.53,220.00,19.00,0.00,29.56,M,10.00,26.00,BKN,BKN,M,M,10000.00,12000.00,M,M,M,M,M,M,M,M,M,40.86,KHTH 130435Z AUTO 22019G26KT 10SM BKN100 BKN120 09/M01 A2956 RMK A01,M
10U,2025-03-13 04:40,-116.1876,41.9532,1637.00,46.40,28.40,49.24,180.00,21.00,0.00,29.52,M,10.00,31.00,CLR,M,M,M,M,M,M,M,M,M,M,M,M,M,M,38.06,K10U 130440Z AUTO 18021G31KT 10SM CLR 08/M02 A2952 RMK AO2,M
TMT,2025-03-13 04:50,-117.1971,39.4643,1749.34,42.80,28.80,57.41,170.00,6.00,0.00,29.59,M,10.00,M,BKN,BKN,M,M,6500.00,7000.00,M,M,M,M,M,M,M,M,M,38.54,KTMT 130450Z AUTO 17006KT 10SM BKN065 BKN070 06/M02 A2959 RMK AO2 T00601018,M
P68,2025-03-13 04:53,-116.0056,39.6014,1993.00,44.00,30.00,57.59,180.00,22.00,0.00,29.67,1001.10,M,38.00,M,M,M,M,M,M,M,M,M,M,M,M,42.00,190.00,2025-03-13 04:27,34.65,KP68 130453Z AUTO 18022G38KT 07/M01 A2967 RMK AO1 PK WND 19042/0427 SLP011 T00671011,M
DRA,2025-03-13 04:53,-116.0278,36.6206,1009.00,54.00,38.00,54.56,200.00,18.00,0.00,29.81,1007.30,10.00,31.00,CLR,M,M,M,M,M,M,M,M,M,M,M,32.00,190.00,2025-03-13 03:54,54.00,KDRA 130453Z AUTO 20018G31KT 10SM CLR 12/03 A2981 RMK AO2 PK WND 19032/0354 SLP073 T01220033,M
ELY,2025-03-13 04:53,-114.8453,39.2950,1909.00,M,M,M,150.00,19.00,T,29.75,M,10.00,31.00,FEW,BKN,OVC,M,4800.00,7000.00,8500.00,M,M,M,M,M,38.00,150.00,2025-03-13 03:55,M,KELY 130453Z AUTO 15019G31KT 10SM FEW048 BKN070 OVC085 A2975 RMK AO2 PK WND 15038/0355 RAE0354 SLPNO P0000 $,M
VGT,2025-03-13 04:53,-115.1933,36.2111,667.00,61.00,41.00,47.66,180.00,13.00,0.00,29.85,1011.70,10.00,24.00,BKN,OVC,M,M,7000.00,9000.00,M,M,M,M,M,M,27.00,170.00,2025-03-13 04:40,61.00,KVGT 130453Z AUTO 18013G24KT 10SM BKN070 OVC090 16/05 A2985 RMK AO2 PK WND 17027/0440 SLP117 T01610050,M
LOL,2025-03-13 04:53,-118.5701,40.0684,1192.43,44.00,29.00,55.29,260.00,21.00,0.00,29.54,999.90,10.00,29.00,SCT,OVC,M,M,6000.00,7000.00,M,M,M,M,M,M,38.00,240.00,2025-03-13 04:12,34.86,KLOL 130453Z AUTO 26021G29KT 10SM SCT060 OVC070 07/M02 A2954 RMK AO2 PK WND 24038/0412 SLP999 T00671017,M
BVU,2025-03-13 04:55,-114.8611,35.9475,671.00,59.00,39.20,47.72,240.00,11.00,0.00,29.87,M,10.00,M,FEW,BKN,M,M,8000.00,9000.00,M,M,M,M,M,M,M,M,M,59.00,KBVU 130455Z AUTO 24011KT 10SM FEW080 BKN090 15/04 A2987 RMK AO2,M
RNO,2025-03-13 04:55,-119.7711,39.4839,1341.00,37.00,31.00,78.69,230.00,3.00,0.00,29.63,1001.80,10.00,M,SCT,OVC,M,M,3500.00,6000.00,M,M,M,M,M,M,M,M,M,34.40,KRNO 130455Z 23003KT 10SM SCT035 OVC060 03/M01 A2963 RMK AO2 SLP018 T00281006 $,M
BAM,2025-03-13 04:55,-116.8743,40.5990,1382.36,51.80,32.00,46.59,160.00,15.00,0.00,29.55,M,10.00,20.00,BKN,M,M,M,9500.00,M,M,M,M,M,M,M,M,M,M,51.80,KBAM 130455Z AUTO 16015G20KT 10SM BKN095 11/00 A2955 RMK AO1,M
CXP,2025-03-13 04:55,-119.7326,39.1923,1431.00,33.80,32.00,93.03,170.00,9.00,0.00,29.66,M,3.00,M,FEW,BKN,M,M,400.00,2900.00,M,M,-SN BR,M,M,M,M,M,M,25.75,KCXP 130455Z AUTO 17009KT 3SM -SN BR FEW004 BKN029 01/00 A2966 RMK AO2,M
RTS,2025-03-13 04:55,-119.8764,39.6682,1539.00,32.00,32.00,100.00,300.00,7.00,0.00,29.63,M,4.00,M,FEW,BKN,OVC,M,900.00,2200.00,4300.00,M,-SN,M,M,M,M,M,M,24.78,KRTS 130455Z AUTO 30007KT 4SM -SN FEW009 BKN022 OVC043 00/M00 A2963 RMK AO2,M
MEV,2025-03-13 04:55,-119.7500,38.9963,1441.42,32.00,32.00,100.00,160.00,8.00,0.02,29.65,M,1.00,16.00,OVC,M,M,M,300.00,M,M,M,-SN BR,M,M,M,M,M,M,24.11,KMEV 130455Z AUTO 16008G16KT 1SM -SN BR OVC003 00/M00 A2965 RMK AO2 P0002,M
HTH,2025-03-13 04:55,-118.6315,38.5448,1282.89,46.40,33.80,61.28,210.00,26.00,0.00,29.57,M,10.00,M,FEW,BKN,BKN,M,7500.00,9000.00,11000.00,M,M,M,M,M,M,M,M,37.14,KHTH 130455Z AUTO 21026KT 10SM FEW075 BKN090 BKN110 08/01 A2957 RMK A01,M
INS,2025-03-13 04:55,-115.6733,36.5872,955.00,56.30,37.00,48.24,110.00,7.00,0.00,29.81,1007.30,10.00,M,SCT,OVC,M,M,5500.00,14000.00,M,M,M,M,M,M,M,M,M,56.30,KINS 130455Z AUTO 11007KT 10SM SCT055 OVC140 14/03 A2981 RMK AO2 SLP073 T01350027 $,M
LSV,2025-03-13 04:55,-115.0343,36.2362,570.00,62.00,38.50,41.74,190.00,14.00,0.00,29.81,1008.50,10.00,M,OVC,M,M,M,10000.00,M,M,M,M,M,M,M,M,M,M,62.00,KLSV 130455Z 19014KT 10SM OVC100 17/04 A2981 RMK AO2A SLP085 T01660036 FZRANO $,M
EKO,2025-03-13 04:56,-115.7860,40.8242,1367.00,47.00,30.00,51.39,180.00,15.00,0.00,29.60,1000.90,10.00,30.00,BKN,M,M,M,10000.00,M,M,M,M,M,M,M,36.00,180.00,2025-03-13 04:40,40.23,KEKO 130456Z AUTO 18015G30KT 10SM BKN100 08/M01 A2960 RMK AO2 PK WND 18036/0440 SLP009 T00831011,M
WMC,2025-03-13 04:56,-117.8072,40.9019,1315.00,M,M,M,M,M,0.00,M,M,M,M,M,M,M,M,M,M,M,M,M,M,M,M,M,M,M,M,KWMC 130456Z AUTO RMK AO2 SLPNO PWINO FZRANO TSNO $,M
HND,2025-03-13 04:56,-115.1344,35.9729,742.79,58.00,39.00,49.08,200.00,13.00,0.00,29.87,1012.40,10.00,M,FEW,M,M,M,8000.00,M,M,M,M,M,M,M,M,M,M,58.00,KHND 130456Z AUTO 20013KT 10SM FEW080 14/04 A2987 RMK AO2 SLP124 T01440039 $,M
LAS,2025-03-13 04:56,-115.1634,36.0719,663.00,60.00,40.00,47.51,190.00,9.00,0.00,29.86,1010.20,10.00,19.00,FEW,SCT,M,M,8000.00,9500.00,M,M,M,M,M,M,M,M,M,60.00,KLAS 130456Z 19009G19KT 10SM FEW080 SCT095 16/04 A2986 RMK AO2 SLP102 T01560044,M
NFL,2025-03-13 04:57,-118.7010,39.4166,1199.00,44.00,32.00,62.44,270.00,17.00,0.00,29.56,999.70,10.00,22.00,SCT,BKN,OVC,M,5000.00,7000.00,10000.00,M,M,M,M,M,36.00,260.00,2025-03-13 04:34,35.80,KNFL 130457Z 27017G22KT 10SM SCT050 BKN070 OVC100 07/00 A2956 RMK AO2 PK WND 26036/0434 SLP997 T00670000,M
10U,2025-03-13 05:00,-116.1876,41.9532,1637.00,46.40,28.40,49.24,180.00,24.00,0.00,29.52,M,10.00,32.00,CLR,M,M,M,M,M,M,M,M,M,M,M,M,M,M,37.49,K10U 130500Z AUTO 18024G32KT 10SM CLR 08/M02 A2952 RMK AO2,M
INS,2025-03-13 05:01,-115.6733,36.5872,955.00,55.40,37.40,50.64,90.00,12.00,0.00,29.80,1007.20,10.00,16.00,BKN,OVC,M,M,5500.00,15000.00,M,M,M,M,M,M,M,M,M,55.40,KINS 130501Z AUTO 09012G16KT 10SM BKN055 OVC150 13/03 A2980 RMK AO2 WSHFT 0456 SLP072 $,M
RTS,2025-03-13 05:05,-119.8764,39.6682,1539.00,32.00,32.00,100.00,260.00,11.00,0.00,29.64,M,5.00,M,FEW,BKN,BKN,M,1400.00,2000.00,2400.00,M,-SN,M,M,M,M,M,M,22.47,KRTS 130505Z AUTO 26011KT 220V290 5SM -SN FEW014 BKN020 BKN024 00/M00 A2964 RMK AO2,M
TMT,2025-03-13 05:10,-117.1971,39.4643,1749.34,43.00,29.00,57.44,200.00,5.00,0.00,29.59,M,10.00,M,BKN,OVC,M,M,6000.00,7000.00,M,M,M,M,M,M,M,M,M,39.46,KTMT 130510Z AUTO 20005KT 10SM BKN060 OVC070 06/M02 A2959 RMK AO2 T00611017,M
BVU,2025-03-13 05:15,-114.8611,35.9475,671.00,59.00,39.20,47.72,220.00,13.00,0.00,29.87,M,10.00,18.00,FEW,SCT,M,M,8000.00,9000.00,M,M,M,M,M,M,M,M,M,59.00,KBVU 130515Z AUTO 22013G18KT 10SM FEW080 SCT090 15/04 A2987 RMK AO2,M
BAM,2025-03-13 05:15,-116.8743,40.5990,1382.36,51.80,32.00,46.59,160.00,19.00,0.00,29.55,M,10.00,22.00,OVC,M,M,M,9500.00,M,M,M,M,M,M,M,M,M,M,51.80,KBAM 130515Z AUTO 16019G22KT 10SM OVC095 11/00 A2955 RMK AO1,M
CXP,2025-03-13 05:15,-119.7326,39.1923,1431.00,33.80,32.00,93.03,180.00,9.00,0.00,29.67,M,2.00,M,SCT,SCT,BKN,M,400.00,900.00,1200.00,M,-SN BR,M,M,M,M,M,M,25.75,KCXP 130515Z AUTO 18009KT 2SM -SN BR SCT004 SCT009 BKN012 01/00 A2967 RMK AO2 VIS 1 1/2V2 1/2,M
MEV,2025-03-13 05:15,-119.7500,38.9963,1441.42,32.00,32.00,100.00,150.00,11.00,0.00,29.66,M,1.25,M,OVC,M,M,M,300.00,M,M,M,-SN BR,M,M,M,M,M,M,22.47,KMEV 130515Z AUTO 15011KT 1 1/4SM -SN BR OVC003 00/M00 A2966 RMK AO2,M
HTH,2025-03-13 05:15,-118.6315,38.5448,1282.89,46.40,32.00,57.00,200.00,28.00,0.00,29.58,M,10.00,36.00,FEW,BKN,OVC,M,2400.00,3700.00,9000.00,M,M,M,M,M,M,M,M,36.81,KHTH 130515Z AUTO 20028G36KT 10SM FEW024 BKN037 OVC090 08/00 A2958 RMK A01,M
10U,2025-03-13 05:20,-116.1876,41.9532,1637.00,46.40,28.40,49.24,180.00,21.00,0.00,29.52,M,10.00,31.00,CLR,M,M,M,M,M,M,M,M,M,M,M,M,M,M,38.06,K10U 130520Z AUTO 18021G31KT 10SM CLR 08/M02 A2952 RMK AO2,M
TMT,2025-03-13 05:30,-117.1971,39.4643,1749.34,44.00,29.00,55.29,230.00,9.00,0.00,29.59,M,10.00,16.00,BKN,OVC,M,M,5500.00,6500.00,M,M,M,M,M,M,M,M,M,38.44,KTMT 130530Z AUTO 23009G16KT 10SM BKN055 OVC065 07/M02 A2959 RMK AO2 T00661016,M
BVU,2025-03-13 05:35,-114.8611,35.9475,671.00,59.00,39.20,47.72,220.00,15.00,0.00,29.85,M,10.00,21.00,CLR,M,M,M,M,M,M,M,M,M,M,M,M,M,M,59.00,KBVU 130535Z AUTO 22015G21KT 10SM CLR 15/04 A2985 RMK AO2,M
BAM,2025-03-13 05:35,-116.8743,40.5990,1382.36,51.80,32.00,46.59,160.00,17.00,0.00,29.55,M,10.00,22.00,SCT,OVC,M,M,7000.00,9500.00,M,M,M,M,M,M,M,M,M,51.80,KBAM 130535Z AUTO 16017G22KT 10SM SCT070 OVC095 11/00 A2955 RMK AO1,M
CXP,2025-03-13 05:35,-119.7326,39.1923,1431.00,33.80,32.00,93.03,150.00,7.00,0.00,29.67,M,1.00,12.00,BKN,OVC,M,M,300.00,900.00,M,M,-SN BR,M,M,M,M,M,M,26.97,KCXP 130535Z AUTO 15007G12KT 1SM -SN BR BKN003 OVC009 01/M00 A2967 RMK AO2,M
RTS,2025-03-13 05:35,-119.8764,39.6682,1539.00,32.00,28.40,86.39,260.00,14.00,0.00,29.65,M,2.00,21.00,SCT,SCT,BKN,M,300.00,1100.00,2000.00,M,-SN,M,M,M,M,M,M,21.16,KRTS 130535Z AUTO 26014G21KT 2SM -SN SCT003 SCT011 BKN020 M00/M02 A2965 RMK AO2,M
MEV,2025-03-13 05:35,-119.7500,38.9963,1441.42,32.00,32.00,100.00,150.00,10.00,0.00,29.66,M,1.75,M,OVC,M,M,M,300.00,M,M,M,-SN BR,M,M,M,M,M,M,22.97,KMEV 130535Z AUTO 15010KT 1 3/4SM -SN BR OVC003 00/M00 A2966 RMK AO2,M
HTH,2025-03-13 05:35,-118.6315,38.5448,1282.89,44.60,33.80,65.61,210.00,28.00,0.00,29.59,M,7.00,36.00,BKN,BKN,OVC,M,3200.00,4200.00,8500.00,M,M,M,M,M,M,M,M,34.35,KHTH 130535Z AUTO 21028G36KT 7SM BKN032 BKN042 OVC085 07/01 A2959 RMK A01,M
10U,2025-03-13 05:40,-116.1876,41.9532,1637.00,46.40,28.40,49.24,180.00,24.00,0.00,29.51,M,10.00,33.00,CLR,M,M,M,M,M,M,M,M,M,M,M,M,M,M,37.49,K10U 130540Z AUTO 18024G33KT 10SM CLR 08/M02 A2951 RMK AO2,M
RNO,2025-03-13 05:43,-119.7711,39.4839,1341.00,35.00,31.00,85.17,210.00,5.00,T,29.66,M,4.00,M,FEW,OVC,M,M,1600.00,2800.00,M,M,-SN BR,M,M,M,M,M,M,29.96,KRNO 130543Z 21005KT 4SM -SN BR FEW016 OVC028 02/M01 A2966 RMK AO2 RAB0458E32UPB0459E02SNB32 P0000 T00171006 $,M
TMT,2025-03-13 05:50,-117.1971,39.4643,1749.34,43.70,29.00,55.92,200.00,16.00,0.00,29.59,M,10.00,21.00,OVC,M,M,M,5500.00,M,M,M,M,M,M,M,M,M,M,35.67,KTMT 130550Z AUTO 20016G21KT 10SM OVC055 07/M02 A2959 RMK AO2 T00651017,M
P68,2025-03-13 05:53,-116.0056,39.6014,1993.00,42.00,31.00,64.75,170.00,24.00,0.00,29.63,999.90,M,35.00,M,M,M,M,M,M,M,M,M,M,M,M,40.00,180.00,2025-03-13 05:24,31.55,KP68 130553Z AUTO 17024G35KT 06/M01 A2963 RMK AO1 PK WND 18040/0524 SLP999 T00561006 10100 20056 58017,M
DRA,2025-03-13 05:53,-116.0278,36.6206,1009.00,53.00,37.00,54.41,210.00,16.00,0.00,29.80,1006.70,10.00,29.00,CLR,M,M,M,M,M,M,M,M,M,M,M,32.00,220.00,2025-03-13 05:39,53.00,KDRA 130553Z AUTO 21016G29KT 10SM CLR 12/03 A2980 RMK AO2 PK WND 22032/0539 SLP067 T01170028 10161 20117 58006,M
ELY,2025-03-13 05:53,-114.8453,39.2950,1909.00,M,M,M,140.00,27.00,0.00,29.73,M,10.00,39.00,OVC,M,M,M,4100.00,M,M,M,M,M,M,M,39.00,130.00,2025-03-13 05:46,M,KELY 130553Z AUTO 14027G39KT 10SM OVC041 A2973 RMK AO2 PK WND 13039/0546 SLPNO 60000 57014 $,M
VGT,2025-03-13 05:53,-115.1933,36.2111,667.00,60.00,41.00,49.39,160.00,15.00,0.00,29.84,1011.30,10.00,21.00,OVC,M,M,M,9000.00,M,M,M,M,M,M,M,26.00,180.00,2025-03-13 05:06,60.00,KVGT 130553Z AUTO 16015G21KT 10SM OVC090 16/05 A2984 RMK AO2 PK WND 18026/0506 SLP113 T01560050 10194 20156 56004,M
LOL,2025-03-13 05:53,-118.5701,40.0684,1192.43,42.00,27.00,54.99,260.00,17.00,0.00,29.58,1001.00,10.00,32.00,BKN,OVC,M,M,4300.00,6500.00,M,M,M,M,M,M,34.00,270.00,2025-03-13 05:43,33.18,KLOL 130553Z AUTO 26017G32KT 10SM BKN043 OVC065 06/M03 A2958 RMK AO2 PK WND 27034/0543 SLP010 T00561028 10161 20050 53028,M
BVU,2025-03-13 05:55,-114.8611,35.9475,671.00,59.00,39.20,47.72,190.00,10.00,0.00,29.85,M,10.00,18.00,CLR,M,M,M,M,M,M,M,M,M,M,M,M,M,M,59.00,KBVU 130555Z AUTO 19010G18KT 10SM CLR 15/04 A2985 RMK AO2,M
RNO,2025-03-13 05:55,-119.7711,39.4839,1341.00,33.00,32.00,96.06,270.00,4.00,0.01,29.65,1002.90,1.00,M,OVC,M,M,M,2800.00,M,M,M,-SN BR,T,M,T,M,M,M,28.59,KRNO 130555Z 27004KT 1SM R17R/P6000FT -SN BR OVC028 01/00 A2965 RMK AO2 RAB0458E32UPB0459E02SNB32 SLP029 P0001 60009 I1000 I6000 T00060000 10111 20006 53018 $,M
BAM,2025-03-13 05:55,-116.8743,40.5990,1382.36,51.80,32.00,46.59,160.00,14.00,0.00,29.55,M,10.00,M,SCT,OVC,M,M,7500.00,9500.00,M,M,M,M,M,M,M,M,M,51.80,KBAM 130555Z AUTO 16014KT 10SM SCT075 OVC095 11/00 A2955 RMK AO1,M
CXP,2025-03-13 05:55,-119.7326,39.1923,1431.00,33.80,32.00,93.03,170.00,8.00,0.01,29.67,M,2.50,14.00,SCT,SCT,BKN,M,300.00,700.00,2800.00,M,-SN BR,M,M,M,M,M,M,26.33,KCXP 130555Z AUTO 17008G14KT 2 1/2SM -SN BR SCT003 SCT007 BKN028 01/00 A2967 RMK AO2 P0001,M
RTS,2025-03-13 05:55,-119.8764,39.6682,1539.00,30.20,28.40,92.92,290.00,9.00,0.00,29.66,M,2.00,M,SCT,SCT,BKN,M,300.00,1100.00,2200.00,M,-SN,M,M,M,M,M,M,21.28,KRTS 130555Z AUTO 29009KT 2SM -SN SCT003 SCT011 BKN022 M01/M02 A2966 RMK AO2,M
MEV,2025-03-13 05:55,-119.7500,38.9963,1441.42,32.00,32.00,100.00,150.00,11.00,0.00,29.66,M,4.00,M,FEW,SCT,OVC,M,300.00,600.00,2500.00,M,-SN BR,M,M,M,M,M,M,22.47,KMEV 130555Z AUTO 15011KT 4SM -SN BR FEW003 SCT006 OVC025 00/M00 A2966 RMK AO2,M
HTH,2025-03-13 05:55,-118.6315,38.5448,1282.89,44.60,35.60,70.48,200.00,20.00,0.00,29.61,M,5.00,M,BKN,BKN,OVC,M,3000.00,3900.00,4500.00,M,HZ,M,M,M,M,M,M,35.87,KHTH 130555Z AUTO 20020KT 5SM HZ BKN030 BKN039 OVC045 07/02 A2961 RMK A01,M
INS,2025-03-13 05:55,-115.6733,36.5872,955.00,54.50,36.70,50.90,120.00,5.00,0.00,29.79,1006.60,10.00,M,FEW,M,M,M,5500.00,M,M,M,M,M,M,M,M,M,M,54.50,KINS 130555Z AUTO 12005KT 10SM FEW055 13/03 A2979 RMK AO2 SLP066 T01250026 10184 20123 55005 $,M
LSV,2025-03-13 05:55,-115.0343,36.2362,570.00,61.50,39.00,43.32,190.00,13.00,0.00,29.81,1008.40,10.00,M,FEW,SCT,M,M,10000.00,17000.00,M,M,M,M,M,M,M,M,M,61.50,KLSV 130555Z 19013KT 10SM FEW100 SCT170 16/04 A2981 RMK AO2A SLP084 T01640038 10190 20163 55003 FZRANO $,M
EKO,2025-03-13 05:56,-115.7860,40.8242,1367.00,47.00,30.00,51.39,170.00,21.00,0.00,29.59,999.90,10.00,34.00,OVC,M,M,M,10000.00,M,M,M,M,M,M,M,34.00,180.00,2025-03-13 05:50,38.86,KEKO 130556Z AUTO 17021G34KT 10SM OVC100 08/M01 A2959 RMK AO2 PK WND 18034/0550 SLP999 T00831011 10122 20083 58007,M
WMC,2025-03-13 05:56,-117.8072,40.9019,1315.00,M,M,M,M,M,0.00,M,M,M,M,M,M,M,M,M,M,M,M,M,M,M,M,M,M,M,M,KWMC 130556Z AUTO RMK AO2 SLPNO PWINO FZRANO TSNO $,M
HND,2025-03-13 05:56,-115.1344,35.9729,742.79,57.00,40.00,52.90,170.00,16.00,0.00,29.86,1011.80,10.00,21.00,CLR,M,M,M,M,M,M,M,M,M,M,M,M,M,M,57.00,KHND 130556Z AUTO 17016G21KT 10SM CLR 14/04 A2986 RMK AO2 SLP118 T01390044 10183 20133 58011 $,M
TPH,2025-03-13 05:56,-117.0904,38.0505,1654.00,43.00,29.00,57.44,M,M,0.00,29.66,1002.30,6.00,M,FEW,M,M,M,900.00,M,M,M,HZ,M,M,M,M,M,M,M,KTPH 130556Z AUTO 6SM HZ FEW009 06/M02 A2966 RMK AO2 SLP023 T00611017 10100 20061 $,M
LAS,2025-03-13 05:56,-115.1634,36.0719,663.00,60.00,40.00,47.51,190.00,11.00,0.00,29.85,1010.00,10.00,M,FEW,BKN,M,M,8000.00,10000.00,M,M,M,M,M,M,M,M,M,60.00,KLAS 130556Z 19011KT 10SM FEW080 BKN100 16/04 A2985 RMK AO2 SLP100 T01560044 10189 20156 56006,M
RNO,2025-03-13 05:57,-119.7711,39.4839,1341.00,33.00,32.00,96.06,270.00,6.00,0.01,29.65,M,0.25,M,OVC,M,M,M,3100.00,M,M,M,BR,M,M,M,M,M,M,26.73,KRNO 130557Z 27006KT 1/4SM R17R/5500VP6000FT BR OVC031 01/00 A2965 RMK AO2 SFC VIS 1 1/4 SNEMM P0001 T00060000 $,M
NFL,2025-03-13 05:57,-118.7010,39.4166,1199.00,41.00,32.00,70.08,250.00,17.00,T,29.61,1001.00,10.00,22.00,SCT,BKN,OVC,M,5000.00,7000.00,10000.00,M,M,M,M,M,33.00,250.00,2025-03-13 05:45,31.87,KNFL 130557Z 25017G22KT 10SM SCT050 BKN070 OVC100 05/00 A2961 RMK AO2 PK WND 25033/0545 RAB32E42 SLP010 P0000 60000 T00500000 10172 20050 53031,M
10U,2025-03-13 06:00,-116.1876,41.9532,1637.00,46.40,28.40,49.24,180.00,24.00,0.00,29.51,M,10.00,36.00,CLR,M,M,M,M,M,M,M,M,M,M,M,M,M,M,37.49,K10U 130600Z AUTO 18024G36KT 10SM CLR 08/M02 A2951 RMK AO2,M
RNO,2025-03-13 06:03,-119.7711,39.4839,1341.00,33.00,31.00,92.25,240.00,5.00,0.02,29.65,M,0.25,M,VV ,M,M,M,1000.00,M,M,M,-SN BR,M,M,M,M,M,M,27.58,KRNO 130603Z 24005KT 1/4SM R17R/5500VP6000FT -SN BR VV010 01/M01 A2965 RMK AO2 SFC VIS 1 SNEMMB0559 P0002 T00061006 $,M
RTS,2025-03-13 06:05,-119.8764,39.6682,1539.00,30.20,28.40,92.92,300.00,9.00,0.00,29.66,M,4.00,M,FEW,BKN,BKN,M,300.00,2200.00,3100.00,M,-SN,M,M,M,M,M,M,21.28,KRTS 130605Z AUTO 30009KT 4SM -SN FEW003 BKN022 BKN031 M01/M02 A2966 RMK AO2,M
MEV,2025-03-13 06:05,-119.7500,38.9963,1441.42,32.00,32.00,100.00,150.00,10.00,0.00,29.66,M,1.75,M,SCT,BKN,OVC,M,300.00,800.00,2400.00,M,-SN BR,M,M,M,M,M,M,22.97,KMEV 130605Z AUTO 15010KT 1 3/4SM -SN BR SCT003 BKN008 OVC024 00/M00 A2966 RMK AO2,M
RNO,2025-03-13 06:10,-119.7711,39.4839,1341.00,33.00,31.00,92.25,290.00,8.00,0.04,29.65,M,0.25,M,VV ,M,M,M,900.00,M,M,M,-SN BR,M,M,M,M,M,M,25.34,KRNO 130610Z 29008KT 1/4SM R17R/4500VP6000FT -SN BR VV009 01/M01 A2965 RMK AO2 SFC VIS 1 SNEMMB0559 P0004 T00061006 $,M
TMT,2025-03-13 06:10,-117.1971,39.4643,1749.34,43.70,29.00,55.92,200.00,15.00,0.00,29.59,M,10.00,22.00,BKN,OVC,M,M,5500.00,6500.00,M,M,M,M,M,M,M,M,M,35.95,KTMT 130610Z AUTO 20015G22KT 10SM BKN055 OVC065 07/M02 A2959 RMK AO2 T00651017,M
BVU,2025-03-13 06:15,-114.8611,35.9475,671.00,59.00,39.20,47.72,190.00,16.00,0.00,29.84,M,10.00,22.00,BKN,M,M,M,9000.00,M,M,M,M,M,M,M,M,M,M,59.00,KBVU 130615Z AUTO 19016G22KT 10SM BKN090 15/04 A2984 RMK AO2,M
BAM,2025-03-13 06:15,-116.8743,40.5990,1382.36,51.80,32.00,46.59,160.00,10.00,0.00,29.54,M,10.00,M,SCT,OVC,M,M,6000.00,8500.00,M,M,M,M,M,M,M,M,M,51.80,KBAM 130615Z AUTO 16010KT 10SM SCT060 OVC085 11/00 A2954 RMK AO1,M
CXP,2025-03-13 06:15,-119.7326,39.1923,1431.00,33.80,32.00,93.03,190.00,11.00,0.00,29.67,M,1.00,M,BKN,BKN,BKN,M,300.00,900.00,2700.00,M,-SN BR,M,M,M,M,M,M,24.74,KCXP 130615Z AUTO 19011KT 1SM -SN BR BKN003 BKN009 BKN027 01/M00 A2967 RMK AO2,M
HTH,2025-03-13 06:15,-118.6315,38.5448,1282.89,44.60,35.60,70.48,170.00,16.00,0.00,29.61,M,8.00,22.00,SCT,BKN,OVC,M,3000.00,3800.00,5500.00,M,M,M,M,M,M,M,M,36.84,KHTH 130615Z AUTO 17016G22KT 8SM SCT030 BKN038 OVC055 07/02 A2961 RMK A01,M
10U,2025-03-13 06:20,-116.1876,41.9532,1637.00,46.40,28.40,49.24,180.00,21.00,0.00,29.51,M,10.00,36.00,CLR,M,M,M,M,M,M,M,M,M,M,M,M,M,M,38.06,K10U 130620Z AUTO 18021G36KT 10SM CLR 08/M02 A2951 RMK AO2,M
RNO,2025-03-13 06:24,-119.7711,39.4839,1341.00,33.00,30.00,88.58,280.00,9.00,0.04,29.65,M,2.00,22.00,OVC,M,M,M,1100.00,M,M,M,-SN BR,M,M,M,M,M,M,24.76,KRNO 130624Z 28009G22KT 2SM -SN BR OVC011 01/M01 A2965 RMK AO2 SNEMMB0559 P0004 T00061011 $,M
CXP,2025-03-13 06:30,-119.7326,39.1923,1431.00,33.80,32.00,93.03,200.00,4.00,0.00,29.68,M,1.00,10.00,BKN,BKN,BKN,M,300.00,700.00,1200.00,M,-SN BR,M,M,M,M,M,M,29.52,KCXP 130630Z AUTO 20004G10KT 1SM -SN BR BKN003 BKN007 BKN012 01/M00 A2968 RMK AO2,M
TMT,2025-03-13 06:30,-117.1971,39.4643,1749.34,43.70,29.00,55.92,190.00,20.00,0.00,29.59,M,10.00,26.00,SCT,BKN,BKN,M,5500.00,6500.00,10000.00,M,M,M,M,M,M,M,M,34.68,KTMT 130630Z AUTO 19020G26KT 10SM SCT055 BKN065 BKN100 07/M02 A2959 RMK AO2 T00651017,M
BVU,2025-03-13 06:35,-114.8611,35.9475,671.00,59.00,39.20,47.72,190.00,14.00,0.00,29.85,M,10.00,M,OVC,M,M,M,8500.00,M,M,M,M,M,M,M,M,M,M,59.00,KBVU 130635Z AUTO 19014KT 10SM OVC085 15/04 A2985 RMK AO2,M
BAM,2025-03-13 06:35,-116.8743,40.5990,1382.36,51.80,32.00,46.59,180.00,14.00,0.00,29.54,M,10.00,17.00,SCT,SCT,BKN,M,6000.00,7500.00,9000.00,M,M,M,M,M,M,M,M,51.80,KBAM 130635Z AUTO 18014G17KT 10SM SCT060 SCT075 BKN090 11/00 A2954 RMK AO1,M
RTS,2025-03-13 06:35,-119.8764,39.6682,1539.00,30.20,28.40,92.92,290.00,9.00,0.00,29.66,M,8.00,M,OVC,M,M,M,2200.00,M,M,M,-SN,M,M,M,M,M,M,21.28,KRTS 130635Z AUTO 29009KT 8SM -SN OVC022 M01/M02 A2966 RMK AO2,M
MEV,2025-03-13 06:35,-119.7500,38.9963,1441.42,32.00,32.00,100.00,160.00,12.00,0.00,29.67,M,1.50,M,BKN,BKN,OVC,M,300.00,700.00,2100.00,M,-SN BR,M,M,M,M,M,M,22.00,KMEV 130635Z AUTO 16012KT 1 1/2SM -SN BR BKN003 BKN007 OVC021 00/M00 A2967 RMK AO2,M
HTH,2025-03-13 06:35,-118.6315,38.5448,1282.89,44.60,33.80,65.61,210.00,19.00,0.00,29.62,M,7.00,32.00,BKN,BKN,OVC,M,3200.00,4100.00,5500.00,M,M,M,M,M,M,M,M,36.10,KHTH 130635Z AUTO 21019G32KT 7SM BKN032 BKN041 OVC055 07/01 A2962 RMK A01,M
RNO,2025-03-13 06:36,-119.7711,39.4839,1341.00,33.00,30.00,88.58,280.00,9.00,0.05,29.66,M,0.75,18.00,VV ,M,M,M,1300.00,M,M,M,-SN BR,M,M,M,M,M,M,24.76,KRNO 130636Z 28009G18KT 3/4SM R17R/P6000FT -SN BR VV013 01/M01 A2966 RMK AO2 SNEMMB0559 P0005 T00061011 $,M
10U,2025-03-13 06:40,-116.1876,41.9532,1637.00,44.60,28.40,52.72,170.00,22.00,0.00,29.50,M,10.00,30.00,CLR,M,M,M,M,M,M,M,M,M,M,M,M,M,M,35.45,K10U 130640Z AUTO 17022G30KT 10SM CLR 07/M02 A2950 RMK AO2,M
RNO,2025-03-13 06:43,-119.7711,39.4839,1341.00,33.00,30.00,88.58,280.00,11.00,0.05,29.66,M,2.50,M,OVC,M,M,M,2000.00,M,M,M,-SN BR,M,M,M,M,M,M,23.73,KRNO 130643Z 28011KT 2 1/2SM -SN BR OVC020 01/M01 A2966 RMK AO2 SNEMMB0559 P0005 T00061011 $,M
TMT,2025-03-13 06:50,-117.1971,39.4643,1749.34,43.00,29.00,57.44,190.00,16.00,0.00,29.59,M,10.00,23.00,SCT,BKN,BKN,M,5000.00,6500.00,7500.00,M,M,M,M,M,M,M,M,34.76,KTMT 130650Z AUTO 19016G23KT 10SM SCT050 BKN065 BKN075 06/M02 A2959 RMK AO2 T00621017,M
P68,2025-03-13 06:53,-116.0056,39.6014,1993.00,43.00,31.00,62.31,180.00,24.00,0.00,29.62,999.30,M,39.00,M,M,M,M,M,M,M,M,M,M,M,M,42.00,180.00,2025-03-13 06:17,32.90,KP68 130653Z AUTO 18024G39KT 06/M01 A2962 RMK AO1 PK WND 18042/0617 SLP993 T00611006,M
DRA,2025-03-13 06:53,-116.0278,36.6206,1009.00,53.00,35.00,50.27,200.00,12.00,0.00,29.78,1005.70,10.00,24.00,CLR,M,M,M,M,M,M,M,M,M,M,M,27.00,200.00,2025-03-13 06:29,53.00,KDRA 130653Z AUTO 20012G24KT 10SM CLR 12/02 A2978 RMK AO2 PK WND 20027/0629 SLP057 T01170017,M
ELY,2025-03-13 06:53,-114.8453,39.2950,1909.00,M,M,M,160.00,24.00,0.00,29.70,M,10.00,40.00,BKN,OVC,M,M,4400.00,5500.00,M,M,M,M,M,M,41.00,140.00,2025-03-13 06:11,M,KELY 130653Z AUTO 16024G40KT 10SM BKN044 OVC055 A2970 RMK AO2 PK WND 14041/0611 SLPNO $,M
VGT,2025-03-13 06:53,-115.1933,36.2111,667.00,59.00,41.00,51.18,170.00,10.00,0.00,29.82,1010.70,10.00,M,SCT,M,M,M,8000.00,M,M,M,M,M,M,M,M,M,M,59.00,KVGT 130653Z AUTO 17010KT 10SM SCT080 15/05 A2982 RMK AO2 SLP107 T01500050,M
LOL,2025-03-13 06:53,-118.5701,40.0684,1192.43,38.00,30.00,72.64,250.00,11.00,T,29.61,1002.00,10.00,M,OVC,M,M,M,3100.00,M,M,M,-RA,M,M,M,33.00,270.00,2025-03-13 06:08,30.05,KLOL 130653Z AUTO 25011KT 10SM -RA OVC031 03/M01 A2961 RMK AO2 PK WND 27033/0608 RAB0557 SLP020 P0000 T00331011,M
BVU,2025-03-13 06:55,-114.8611,35.9475,671.00,59.00,39.20,47.72,180.00,13.00,0.00,29.84,M,10.00,M,OVC,M,M,M,8500.00,M,M,M,M,M,M,M,M,M,M,59.00,KBVU 130655Z AUTO 18013KT 10SM OVC085 15/04 A2984 RMK AO2,M
RNO,2025-03-13 06:55,-119.7711,39.4839,1341.00,33.00,30.00,88.58,260.00,6.00,0.05,29.66,1002.80,10.00,M,OVC,M,M,M,2000.00,M,M,M,-RA,M,M,M,M,M,M,26.73,KRNO 130655Z 26006KT 10SM -RA OVC020 01/M01 A2966 RMK AO2 RAB51SNEMMB0559E51 SLP028 P0005 T00061011 $,M
BAM,2025-03-13 06:55,-116.8743,40.5990,1382.36,50.00,32.00,49.81,180.00,10.00,0.00,29.53,M,10.00,M,SCT,SCT,SCT,M,6500.00,10000.00,12000.00,M,M,M,M,M,M,M,M,50.00,KBAM 130655Z AUTO 18010KT 10SM SCT065 SCT100 SCT120 10/00 A2953 RMK AO1,M
CXP,2025-03-13 06:55,-119.7326,39.1923,1431.00,33.80,32.00,93.03,200.00,7.00,0.01,29.68,M,1.00,M,SCT,BKN,OVC,M,300.00,800.00,1300.00,M,-SN BR,M,M,M,M,M,M,26.97,KCXP 130655Z AUTO 20007KT 1SM -SN BR SCT003 BKN008 OVC013 01/M00 A2968 RMK AO2 P0001,M
RTS,2025-03-13 06:55,-119.8764,39.6682,1539.00,30.20,26.60,86.28,280.00,11.00,0.00,29.66,M,7.00,M,SCT,BKN,BKN,M,2200.00,2700.00,3200.00,M,-UP,M,M,M,M,M,M,20.19,KRTS 130655Z AUTO 28011KT 7SM -UP SCT022 BKN027 BKN032 M01/M03 A2966 RMK AO2,M
MEV,2025-03-13 06:55,-119.7500,38.9963,1441.42,32.00,30.20,92.97,180.00,10.00,0.00,29.67,M,1.25,17.00,OVC,M,M,M,300.00,M,M,M,-SN BR,M,M,M,M,M,M,22.97,KMEV 130655Z AUTO 18010G17KT 1 1/4SM -SN BR OVC003 M00/M01 A2967 RMK AO2,M
HTH,2025-03-13 06:55,-118.6315,38.5448,1282.89,41.00,32.00,70.08,220.00,13.00,0.00,29.64,M,10.00,22.00,FEW,BKN,OVC,M,2400.00,2900.00,4500.00,M,M,M,M,M,M,M,M,33.10,KHTH 130655Z AUTO 22013G22KT 10SM FEW024 BKN029 OVC045 05/00 A2964 RMK A01,M
INS,2025-03-13 06:55,-115.6733,36.5872,955.00,55.00,36.70,49.98,140.00,12.00,0.00,29.74,1004.50,10.00,22.00,BKN,M,M,M,13000.00,M,M,M,M,M,M,M,31.00,110.00,2025-03-13 06:38,55.00,KINS 130655Z AUTO 14012G22KT 10SM BKN130 13/03 A2974 RMK AO2 PK WND 11031/38 SLP045 T01280026 $,M
LSV,2025-03-13 06:55,-115.0343,36.2362,570.00,60.60,39.70,45.96,190.00,11.00,0.00,29.80,1008.00,10.00,M,BKN,M,M,M,7500.00,M,M,M,M,M,M,M,M,M,M,60.60,KLSV 130655Z 19011KT 10SM BKN075 16/04 A2980 RMK AO2A SLP080 T01590043 FZRANO $,M
EKO,2025-03-13 06:56,-115.7860,40.8242,1367.00,47.00,31.00,53.52,170.00,22.00,0.00,29.57,999.30,10.00,33.00,OVC,M,M,M,10000.00,M,M,M,M,M,M,M,35.00,180.00,2025-03-13 06:11,38.66,KEKO 130656Z AUTO 17022G33KT 10SM OVC100 08/M01 A2957 RMK AO2 PK WND 18035/0611 SLP993 T00831006,M
WMC,2025-03-13 06:56,-117.8072,40.9019,1315.00,M,M,M,M,M,0.00,M,M,M,M,M,M,M,M,M,M,M,M,M,M,M,M,M,M,M,M,KWMC 130656Z AUTO RMK AO2 SLPNO PWINO FZRANO TSNO $,M
HND,2025-03-13 06:56,-115.1344,35.9729,742.79,57.00,39.00,50.88,180.00,14.00,0.00,29.85,1011.50,10.00,M,CLR,M,M,M,M,M,M,M,M,M,M,M,M,M,M,57.00,KHND 130656Z AUTO 18014KT 10SM CLR 14/04 A2985 RMK AO2 SLP115 T01390039 401890050 $,M
TPH,2025-03-13 06:56,-117.0904,38.0505,1654.00,41.00,28.00,59.55,M,M,0.00,29.67,1003.00,10.00,M,CLR,M,M,M,M,M,M,M,M,M,M,M,M,M,M,M,KTPH 130656Z AUTO 10SM CLR 05/M02 A2967 RMK AO2 SLP030 T00501022 $,M
LAS,2025-03-13 06:56,-115.1634,36.0719,663.00,59.00,40.00,49.23,190.00,10.00,0.00,29.84,1009.40,10.00,16.00,FEW,BKN,M,M,10000.00,15000.00,M,M,M,M,M,M,M,M,M,59.00,KLAS 130656Z 19010G16KT 10SM FEW100 BKN150 15/04 A2984 RMK AO2 SLP094 T01500044,M
NFL,2025-03-13 06:57,-118.7010,39.4166,1199.00,40.00,32.00,72.85,220.00,7.00,T,29.63,1001.70,10.00,M,OVC,M,M,M,6000.00,M,M,M,M,M,M,M,29.00,250.00,2025-03-13 06:05,34.53,KNFL 130657Z AUTO 22007KT 10SM OVC060 04/00 A2963 RMK AO2 PK WND 25029/0605 RAB27E43 SLP017 P0000 T00440000,M
RNO,2025-03-13 07:00,-119.7711,39.4839,1341.00,33.00,30.00,88.58,260.00,5.00,T,29.66,M,10.00,M,OVC,M,M,M,2000.00,M,M,M,-SN,M,M,M,M,M,M,27.58,KRNO 130700Z 26005KT 10SM -SN OVC020 01/M01 A2966 RMK AO2 RAE0657SNB0659 P0000 T00061011 $,M
LOL,2025-03-13 07:00,-118.5701,40.0684,1192.43,38.00,31.00,75.65,230.00,6.00,T,29.63,M,10.00,M,FEW,OVC,M,M,2400.00,2900.00,M,M,-RA,M,M,M,M,M,M,32.76,KLOL 130700Z AUTO 23006KT 10SM -RA FEW024 OVC029 03/M01 A2963 RMK AO2 P0000 T00331006,M
10U,2025-03-13 07:00,-116.1876,41.9532,1637.00,44.60,28.40,52.72,180.00,24.00,0.00,29.50,M,10.00,33.00,FEW,SCT,M,M,6000.00,7000.00,M,M,M,M,M,M,M,M,M,35.06,K10U 130700Z AUTO 18024G33KT 10SM FEW060 SCT070 07/M02 A2950 RMK AO2,M
RTS,2025-03-13 07:05,-119.8764,39.6682,1539.00,30.20,24.80,80.07,250.00,11.00,0.00,29.67,M,10.00,16.00,SCT,BKN,OVC,M,2100.00,2600.00,4400.00,M,-UP,M,M,M,M,M,M,20.19,KRTS 130705Z AUTO 25011G16KT 10SM -UP SCT021 BKN026 OVC044 M01/M04 A2967 RMK AO2,M
MEV,2025-03-13 07:05,-119.7500,38.9963,1441.42,32.00,30.20,92.97,180.00,8.00,0.00,29.68,M,2.00,13.00,BKN,BKN,OVC,M,300.00,800.00,1400.00,M,-SN BR,M,M,M,M,M,M,24.11,KMEV 130705Z AUTO 18008G13KT 2SM -SN BR BKN003 BKN008 OVC014 M00/M01 A2968 RMK AO2,M
INS,2025-03-13 07:10,-115.6733,36.5872,955.00,53.60,37.40,54.07,120.00,19.00,0.00,29.75,1005.00,10.00,25.00,OVC,M,M,M,13000.00,M,M,M,M,M,M,M,M,M,M,53.60,KINS 130710Z AUTO 12019G25KT 10SM OVC130 12/03 A2975 RMK AO2 WSHFT 07 SLP050 $,M
TMT,2025-03-13 07:10,-117.1971,39.4643,1749.34,43.00,28.40,56.05,190.00,15.00,0.00,29.59,M,10.00,M,BKN,OVC,M,M,6500.00,8000.00,M,M,M,M,M,M,M,M,M,35.04,KTMT 130710Z AUTO 19015KT 10SM BKN065 OVC080 06/M02 A2959 RMK AO2 T00611020,M
BVU,2025-03-13 07:15,-114.8611,35.9475,671.00,59.00,39.20,47.72,190.00,14.00,0.00,29.84,M,10.00,M,BKN,M,M,M,8500.00,M,M,M,M,M,M,M,M,M,M,59.00,KBVU 130715Z AUTO 19014KT 10SM BKN085 15/04 A2984 RMK AO2,M
RNO,2025-03-13 07:15,-119.7711,39.4839,1341.00,33.00,29.00,85.04,250.00,9.00,T,29.65,M,2.00,M,OVC,M,M,M,2000.00,M,M,M,-SN BR,M,M,M,M,M,M,24.76,KRNO 130715Z 25009KT 2SM -SN BR OVC020 01/M02 A2965 RMK AO2 RAE0657SNB0659 P0000 T00061017 $,M
BAM,2025-03-13 07:15,-116.8743,40.5990,1382.36,46.40,32.00,57.00,220.00,6.00,0.00,29.54,M,10.00,M,SCT,M,M,M,7000.00,M,M,M,M,M,M,M,M,M,M,42.87,KBAM 130715Z AUTO 22006KT 10SM SCT070 08/00 A2954 RMK AO1,M
CXP,2025-03-13 07:15,-119.7326,39.1923,1431.00,32.00,32.00,100.00,210.00,4.00,0.00,29.69,M,1.00,M,BKN,OVC,M,M,400.00,900.00,M,M,-SN BR,M,M,M,M,M,M,27.42,KCXP 130715Z AUTO 21004KT 1SM -SN BR BKN004 OVC009 00/M00 A2969 RMK AO2,M
HTH,2025-03-13 07:15,-118.6315,38.5448,1282.89,41.00,30.20,65.16,130.00,7.00,0.00,29.63,M,10.00,16.00,SCT,BKN,OVC,M,2700.00,4000.00,7000.00,M,M,M,M,M,M,M,M,35.75,KHTH 130715Z AUTO 13007G16KT 110V190 10SM SCT027 BKN040 OVC070 05/M01 A2963 RMK A01,M
INS,2025-03-13 07:16,-115.6733,36.5872,955.00,55.40,37.40,50.64,150.00,12.00,0.00,29.75,1004.90,10.00,25.00,OVC,M,M,M,13000.00,M,M,M,M,M,M,M,M,M,M,55.40,KINS 130716Z AUTO 15012G25KT 10SM OVC130 13/03 A2975 RMK AO2 WSHFT 14 SLP049 $,M
INS,2025-03-13 07:19,-115.6733,36.5872,955.00,53.60,37.40,54.07,110.00,18.00,0.00,29.75,1004.90,10.00,26.00,OVC,M,M,M,13000.00,M,M,M,M,M,M,M,M,M,M,53.60,KINS 130719Z AUTO 11018G26KT 10SM OVC130 12/03 A2975 RMK AO2 WSHFT 16 SLP049 $,M
10U,2025-03-13 07:20,-116.1876,41.9532,1637.00,44.60,30.20,56.74,180.00,21.00,0.00,29.51,M,10.00,30.00,FEW,BKN,BKN,M,6000.00,7000.00,9500.00,M,M,M,M,M,M,M,M,35.66,K10U 130720Z AUTO 18021G30KT 10SM FEW060 BKN070 BKN095 07/M01 A2951 RMK AO2,M
TMT,2025-03-13 07:30,-117.1971,39.4643,1749.34,42.00,28.20,57.77,210.00,10.00,0.00,29.59,M,10.00,M,BKN,OVC,M,M,4900.00,5500.00,M,M,M,M,M,M,M,M,M,35.51,KTMT 130730Z AUTO 21010KT 10SM BKN049 OVC055 06/M02 A2959 RMK AO2 T00561021,M
RNO,2025-03-13 07:31,-119.7711,39.4839,1341.00,33.00,28.00,81.63,260.00,7.00,0.01,29.66,M,10.00,M,OVC,M,M,M,2000.00,M,M,M,-RA,M,M,M,M,M,M,26.00,KRNO 130731Z 26007KT 10SM -RA OVC020 01/M02 A2966 RMK AO2 RAE0657B25SNB0659E25 P0001 T00061022 $,M
BVU,2025-03-13 07:35,-114.8611,35.9475,671.00,57.20,39.20,50.91,190.00,13.00,0.00,29.83,M,10.00,M,CLR,M,M,M,M,M,M,M,M,M,M,M,M,M,M,57.20,KBVU 130735Z AUTO 19013KT 10SM CLR 14/04 A2983 RMK AO2,M
BAM,2025-03-13 07:35,-116.8743,40.5990,1382.36,46.40,33.80,61.28,250.00,12.00,0.00,29.54,M,10.00,17.00,SCT,OVC,M,M,7000.00,8000.00,M,M,M,M,M,M,M,M,M,40.33,KBAM 130735Z AUTO 25012G17KT 10SM SCT070 OVC080 08/01 A2954 RMK AO1,M
CXP,2025-03-13 07:35,-119.7326,39.1923,1431.00,32.00,32.00,100.00,M,5.00,0.00,29.69,M,0.50,12.00,OVC,M,M,M,300.00,M,M,M,-SN BR,M,M,M,M,M,M,26.40,KCXP 130735Z AUTO VRB05G12KT 1/2SM -SN BR OVC003 00/M00 A2969 RMK AO2,M
RTS,2025-03-13 07:35,-119.8764,39.6682,1539.00,30.20,24.80,80.07,270.00,9.00,0.00,29.66,M,10.00,16.00,FEW,SCT,BKN,M,2400.00,3500.00,6000.00,M,-UP,M,M,M,M,M,M,21.28,KRTS 130735Z AUTO 27009G16KT 10SM -UP FEW024 SCT035 BKN060 M01/M04 A2966 RMK AO2,M
MEV,2025-03-13 07:35,-119.7500,38.9963,1441.42,32.00,30.20,92.97,180.00,6.00,0.00,29.68,M,1.25,M,OVC,M,M,M,300.00,M,M,M,-SN BR,M,M,M,M,M,M,25.53,KMEV 130735Z AUTO 18006KT 1 1/4SM -SN BR OVC003 M00/M01 A2968 RMK AO2,M
HTH,2025-03-13 07:35,-118.6315,38.5448,1282.89,41.00,32.00,70.08,150.00,7.00,0.00,29.62,M,10.00,M,FEW,SCT,BKN,M,4700.00,5500.00,7500.00,M,M,M,M,M,M,M,M,35.75,KHTH 130735Z AUTO 15007KT 10SM FEW047 SCT055 BKN075 05/M00 A2962 RMK A01,M
10U,2025-03-13 07:40,-116.1876,41.9532,1637.00,44.60,30.20,56.74,180.00,23.00,0.00,29.50,M,10.00,30.00,BKN,BKN,BKN,M,7000.00,8000.00,10000.00,M,M,M,M,M,M,M,M,35.25,K10U 130740Z AUTO 18023G30KT 10SM BKN070 BKN080 BKN100 07/M01 A2950 RMK AO2,M
TMT,2025-03-13 07:50,-117.1971,39.4643,1749.34,40.50,29.00,63.26,240.00,10.00,0.00,29.58,M,10.00,15.00,OVC,M,M,M,4900.00,M,M,M,M,M,M,M,M,M,M,33.63,KTMT 130750Z AUTO 24010G15KT 10SM OVC049 05/M02 A2958 RMK AO2 T00471017,M
P68,2025-03-13 07:53,-116.0056,39.6014,1993.00,42.00,32.00,67.42,180.00,27.00,0.00,29.61,999.20,M,44.00,M,M,M,M,M,M,M,M,M,M,M,M,44.00,180.00,2025-03-13 07:48,30.97,KP68 130753Z AUTO 18027G44KT 06/00 A2961 RMK AO1 PK WND 18044/0748 SLP992 T00560000 401001011,M
DRA,2025-03-13 07:53,-116.0278,36.6206,1009.00,52.00,38.00,58.71,210.00,22.00,0.00,29.76,1004.90,10.00,33.00,CLR,M,M,M,M,M,M,M,M,M,M,M,33.00,220.00,2025-03-13 07:46,52.00,KDRA 130753Z AUTO 21022G33KT 10SM CLR 11/03 A2976 RMK AO2 PK WND 22033/0746 SLP049 T01110033 401780033,M
ELY,2025-03-13 07:53,-114.8453,39.2950,1909.00,M,M,M,150.00,27.00,0.00,29.69,M,10.00,39.00,OVC,M,M,M,4500.00,M,M,M,M,M,M,M,47.00,140.00,2025-03-13 07:30,M,KELY 130753Z AUTO 15027G39KT 10SM OVC045 A2969 RMK AO2 PK WND 14047/0730 SLPNO $,M
VGT,2025-03-13 07:53,-115.1933,36.2111,667.00,57.00,42.00,57.16,160.00,9.00,0.00,29.80,1009.90,10.00,M,CLR,M,M,M,M,M,M,M,M,M,M,M,M,M,M,57.00,KVGT 130753Z AUTO 16009KT 10SM CLR 14/06 A2980 RMK AO2 SLP099 T01390056 402000067,M
LOL,2025-03-13 07:53,-118.5701,40.0684,1192.43,38.00,28.00,66.94,190.00,8.00,T,29.63,1002.60,10.00,M,OVC,M,M,M,2900.00,M,M,M,M,M,M,M,M,M,M,31.50,KLOL 130753Z AUTO 19008KT 10SM OVC029 03/M02 A2963 RMK AO2 RAE50 SLP026 P0000 T00331022 401671022,M
BVU,2025-03-13 07:55,-114.8611,35.9475,671.00,55.40,39.20,54.34,220.00,6.00,0.00,29.82,M,10.00,12.00,CLR,M,M,M,M,M,M,M,M,M,M,M,M,M,M,55.40,KBVU 130755Z AUTO 22006G12KT 10SM CLR 13/04 A2982 RMK AO2,M
RNO,2025-03-13 07:55,-119.7711,39.4839,1341.00,33.00,28.00,81.63,270.00,7.00,0.01,29.66,1002.80,10.00,M,BKN,OVC,M,M,2000.00,4800.00,M,M,M,M,M,M,M,M,M,26.00,KRNO 130755Z 27007KT 10SM BKN020 OVC048 01/M02 A2966 RMK AO2 RAE0657B25E39SNB0659E25 SLP028 P0001 T00061022 401440006 $,M
BAM,2025-03-13 07:55,-116.8743,40.5990,1382.36,44.60,35.60,70.48,290.00,4.00,0.00,29.55,M,10.00,M,BKN,OVC,M,M,7000.00,8000.00,M,M,M,M,M,M,M,M,M,42.13,KBAM 130755Z AUTO 29004KT 10SM BKN070 OVC080 07/02 A2955 RMK AO1,M
CXP,2025-03-13 07:55,-119.7326,39.1923,1431.00,32.00,30.20,92.97,210.00,7.00,0.03,29.68,M,0.50,M,OVC,M,M,M,300.00,M,M,M,-SN BR,M,M,M,M,M,M,24.78,KCXP 130755Z AUTO 21007KT 1/2SM -SN BR OVC003 M00/M01 A2968 RMK AO2 P0003,M
RTS,2025-03-13 07:55,-119.8764,39.6682,1539.00,30.20,24.80,80.07,240.00,8.00,0.00,29.66,M,10.00,13.00,BKN,BKN,OVC,M,6500.00,7500.00,8500.00,M,M,M,M,M,M,M,M,21.90,KRTS 130755Z AUTO 24008G13KT 220V280 10SM BKN065 BKN075 OVC085 M01/M04 A2966 RMK AO2,M
MEV,2025-03-13 07:55,-119.7500,38.9963,1441.42,32.00,30.20,92.97,180.00,5.00,0.01,29.68,M,1.50,M,OVC,M,M,M,300.00,M,M,M,-SN BR,M,M,M,M,M,M,26.40,KMEV 130755Z AUTO 18005KT 1 1/2SM -SN BR OVC003 M00/M01 A2968 RMK AO2 P0001,M
HTH,2025-03-13 07:55,-118.6315,38.5448,1282.89,42.80,30.20,60.79,140.00,12.00,0.00,29.62,M,10.00,21.00,FEW,BKN,OVC,M,4900.00,7500.00,9000.00,M,M,M,M,M,M,M,M,35.75,KHTH 130755Z AUTO 14012G21KT 10SM FEW049 BKN075 OVC090 06/M01 A2962 RMK A01,M
INS,2025-03-13 07:55,-115.6733,36.5872,955.00,54.70,35.40,48.00,210.00,4.00,0.00,29.74,1004.30,10.00,M,FEW,M,M,M,9000.00,M,M,M,M,M,M,M,38.00,100.00,2025-03-13 07:13,54.70,KINS 130755Z AUTO 21004KT 10SM FEW090 13/02 A2974 RMK AO2 PK WND 10038/13 SLP043 T01260019 401890019 $,M
LSV,2025-03-13 07:55,-115.0343,36.2362,570.00,60.30,39.40,45.92,180.00,13.00,0.00,29.77,1006.90,10.00,19.00,FEW,BKN,M,M,8000.00,15000.00,M,M,M,M,M,M,M,M,M,60.30,KLSV 130755Z 18013G19KT 10SM FEW080 BKN150 16/04 A2977 RMK AO2A SLP069 T01570041 402000078 FZRANO $,M
EKO,2025-03-13 07:56,-115.7860,40.8242,1367.00,46.00,31.00,55.58,180.00,21.00,0.00,29.55,998.30,10.00,34.00,OVC,M,M,M,10000.00,M,M,M,M,M,M,M,34.00,160.00,2025-03-13 07:28,37.53,KEKO 130756Z AUTO 18021G34KT 10SM OVC100 08/M01 A2955 RMK AO2 PK WND 16034/0728 SLP983 T00781006 401281006,M
WMC,2025-03-13 07:56,-117.8072,40.9019,1315.00,M,M,M,M,M,0.00,M,M,M,M,M,M,M,M,M,M,M,M,M,M,M,M,M,M,M,M,KWMC 130756Z AUTO RMK AO2 SLPNO PWINO FZRANO TSNO $,M
HND,2025-03-13 07:56,-115.1344,35.9729,742.79,55.00,39.00,54.70,180.00,13.00,0.00,29.82,1010.50,10.00,M,CLR,M,M,M,M,M,M,M,M,M,M,M,M,M,M,55.00,KHND 130756Z AUTO 18013KT 10SM CLR 13/04 A2982 RMK AO2 SLP105 T01280039 $,M
TPH,2025-03-13 07:56,-117.0904,38.0505,1654.00,41.00,28.00,59.55,M,M,0.00,29.66,1002.40,10.00,M,CLR,M,M,M,M,M,M,M,M,M,M,M,M,M,M,M,KTPH 130756Z AUTO 10SM CLR 05/M02 A2966 RMK AO2 SLP024 T00501022 401171050 $,M
LAS,2025-03-13 07:56,-115.1634,36.0719,663.00,58.00,39.00,49.08,190.00,12.00,0.00,29.81,1008.20,10.00,20.00,FEW,BKN,M,M,10000.00,14000.00,M,M,M,M,M,M,M,M,M,58.00,KLAS 130756Z 19012G20KT 10SM FEW100 BKN140 14/04 A2981 RMK AO2 SLP082 T01440039 402000078,M
NFL,2025-03-13 07:57,-118.7010,39.4166,1199.00,41.00,28.00,59.55,240.00,11.00,0.00,29.63,1001.90,10.00,18.00,BKN,OVC,M,M,5500.00,7000.00,M,M,M,M,M,M,M,M,M,33.84,KNFL 130757Z AUTO 24011G18KT 10SM BKN055 OVC070 05/M02 A2963 RMK AO2 SLP019 T00501022 401940022,M
10U,2025-03-13 08:00,-116.1876,41.9532,1637.00,41.00,32.00,70.08,230.00,10.00,0.00,29.53,M,10.00,28.00,SCT,BKN,OVC,M,3600.00,6000.00,10000.00,M,M,M,M,M,M,M,M,34.25,K10U 130800Z AUTO 23010G28KT 10SM SCT036 BKN060 OVC100 05/00 A2953 RMK AO2,M
TMT,2025-03-13 08:10,-117.1971,39.4643,1749.34,40.30,28.80,63.23,240.00,9.00,0.00,29.58,M,10.00,M,BKN,OVC,M,M,4900.00,5500.00,M,M,M,M,M,M,M,M,M,33.83,KTMT 130810Z AUTO 24009KT 10SM BKN049 OVC055 05/M02 A2958 RMK AO2 T00461018,M
BVU,2025-03-13 08:15,-114.8611,35.9475,671.00,55.40,39.20,54.34,220.00,6.00,0.00,29.81,M,10.00,M,FEW,M,M,M,7000.00,M,M,M,M,M,M,M,M,M,M,55.40,KBVU 130815Z AUTO 22006KT 10SM FEW070 13/04 A2981 RMK AO2,M
BAM,2025-03-13 08:15,-116.8743,40.5990,1382.36,42.80,35.60,75.50,310.00,5.00,0.00,29.56,M,10.00,M,SCT,BKN,OVC,M,2600.00,7000.00,8000.00,M,M,M,M,M,M,M,M,39.22,KBAM 130815Z AUTO 31005KT 10SM SCT026 BKN070 OVC080 06/02 A2956 RMK AO1,M
CXP,2025-03-13 08:15,-119.7326,39.1923,1431.00,32.00,30.20,92.97,190.00,8.00,0.00,29.67,M,1.00,M,OVC,M,M,M,300.00,M,M,M,-SN BR,M,M,M,M,M,M,24.11,KCXP 130815Z AUTO 19008KT 1SM -SN BR OVC003 M00/M01 A2967 RMK AO2,M
RTS,2025-03-13 08:15,-119.8764,39.6682,1539.00,30.20,21.20,68.83,240.00,11.00,0.00,29.64,M,10.00,18.00,FEW,BKN,OVC,M,4900.00,7000.00,8500.00,M,M,M,M,M,M,M,M,20.19,KRTS 130815Z AUTO 24011G18KT 10SM FEW049 BKN070 OVC085 M01/M06 A2964 RMK AO2,M
MEV,2025-03-13 08:15,-119.7500,38.9963,1441.42,32.00,30.20,92.97,150.00,5.00,0.00,29.66,M,1.00,M,OVC,M,M,M,300.00,M,M,M,-SN BR,M,M,M,M,M,M,26.40,KMEV 130815Z AUTO 15005KT 1SM -SN BR OVC003 M00/M01 A2966 RMK AO2,M
HTH,2025-03-13 08:15,-118.6315,38.5448,1282.89,42.80,30.20,60.79,150.00,16.00,0.00,29.61,M,10.00,22.00,FEW,SCT,OVC,M,4900.00,7500.00,9000.00,M,M,M,M,M,M,M,M,34.50,KHTH 130815Z AUTO 15016G22KT 10SM FEW049 SCT075 OVC090 06/M01 A2961 RMK A01,M
LOL,2025-03-13 08:16,-118.5701,40.0684,1192.43,38.00,27.00,64.24,190.00,9.00,T,29.64,M,9.00,18.00,OVC,M,M,M,3500.00,M,M,M,M,M,M,M,M,M,M,30.97,KLOL 130816Z AUTO 19009G18KT 9SM OVC035 03/M03 A2964 RMK AO2 SNB07E16 P0000 T00331028,M
10U,2025-03-13 08:20,-116.1876,41.9532,1637.00,37.40,33.80,86.69,240.00,14.00,0.00,29.54,M,10.00,19.00,FEW,BKN,OVC,M,3700.00,4600.00,6000.00,M,M,M,M,M,M,M,M,28.12,K10U 130820Z AUTO 24014G19KT 10SM FEW037 BKN046 OVC060 03/01 A2954 RMK AO2,M
TMT,2025-03-13 08:30,-117.1971,39.4643,1749.34,40.00,28.00,61.91,210.00,11.00,0.00,29.58,M,10.00,M,SCT,SCT,BKN,M,4800.00,5000.00,9000.00,M,M,M,M,M,M,M,M,32.58,KTMT 130830Z AUTO 21011KT 10SM SCT048 SCT050 BKN090 05/M02 A2958 RMK AO2 T00451022,M
BVU,2025-03-13 08:35,-114.8611,35.9475,671.00,57.20,41.00,54.60,200.00,13.00,0.00,29.79,M,10.00,19.00,FEW,M,M,M,7000.00,M,M,M,M,M,M,M,M,M,M,57.20,KBVU 130835Z AUTO 20013G19KT 10SM FEW070 14/05 A2979 RMK AO2,M
BAM,2025-03-13 08:35,-116.8743,40.5990,1382.36,41.00,35.60,80.93,240.00,3.00,0.00,29.60,M,10.00,M,BKN,OVC,M,M,2400.00,3100.00,M,M,M,M,M,M,M,M,M,38.98,KBAM 130835Z AUTO 24003KT 10SM BKN024 OVC031 05/02 A2960 RMK AO1,M
CXP,2025-03-13 08:35,-119.7326,39.1923,1431.00,32.00,30.20,92.97,0.00,0.00,0.00,29.67,M,6.00,M,SCT,BKN,BKN,M,700.00,3100.00,4500.00,M,UP BR,M,M,M,M,M,M,32.00,KCXP 130835Z AUTO 00000KT 6SM UP BR SCT007 BKN031 BKN045 M00/M01 A2967 RMK AO2,M
RTS,2025-03-13 08:35,-119.8764,39.6682,1539.00,30.20,23.00,74.26,40.00,3.00,0.00,29.64,M,10.00,M,FEW,SCT,BKN,M,4900.00,7000.00,12000.00,M,M,M,M,M,M,M,M,26.63,KRTS 130835Z AUTO 04003KT 10SM FEW049 SCT070 BKN120 M01/M05 A2964 RMK AO2,M
MEV,2025-03-13 08:35,-119.7500,38.9963,1441.42,30.20,30.20,100.00,160.00,7.00,0.00,29.66,M,6.00,M,SCT,BKN,OVC,M,300.00,2900.00,3500.00,M,UP BR,M,M,M,M,M,M,22.59,KMEV 130835Z AUTO 16007KT 6SM UP BR SCT003 BKN029 OVC035 M01/M01 A2966 RMK AO2,M
HTH,2025-03-13 08:35,-118.6315,38.5448,1282.89,42.80,28.40,56.48,160.00,14.00,0.00,29.61,M,10.00,22.00,SCT,OVC,M,M,7500.00,9500.00,M,M,M,M,M,M,M,M,M,35.08,KHTH 130835Z AUTO 16014G22KT 10SM SCT075 OVC095 06/M02 A2961 RMK A01,M
10U,2025-03-13 08:40,-116.1876,41.9532,1637.00,35.60,33.80,93.08,230.00,16.00,0.00,29.55,M,10.00,M,SCT,BKN,OVC,M,900.00,4600.00,5500.00,M,M,M,M,M,M,M,M,25.11,K10U 130840Z AUTO 23016KT 10SM SCT009 BKN046 OVC055 02/01 A2955 RMK AO2,M
CXP,2025-03-13 08:50,-119.7326,39.1923,1431.00,30.20,28.40,92.92,200.00,9.00,0.00,29.67,M,10.00,15.00,FEW,SCT,OVC,M,1100.00,3800.00,8000.00,M,M,M,M,M,M,M,M,21.28,KCXP 130850Z AUTO 20009G15KT 10SM FEW011 SCT038 OVC080 M01/M02 A2967 RMK AO2,M
TMT,2025-03-13 08:50,-117.1971,39.4643,1749.34,39.70,27.50,61.36,230.00,11.00,0.00,29.58,M,10.00,17.00,BKN,M,M,M,9000.00,M,M,M,M,M,M,M,M,M,M,32.20,KTMT 130850Z AUTO 23011G17KT 10SM BKN090 04/M02 A2958 RMK AO2 T00431025,M
DRA,2025-03-13 08:53,-116.0278,36.6206,1009.00,51.00,36.00,56.31,210.00,19.00,0.00,29.73,1003.90,10.00,33.00,CLR,M,M,M,M,M,M,M,M,M,M,M,39.00,210.00,2025-03-13 08:24,51.00,KDRA 130853Z AUTO 21019G33KT 10SM CLR 11/02 A2973 RMK AO2 PK WND 21039/0824 SLP039 T01060022 58022,M
VGT,2025-03-13 08:53,-115.1933,36.2111,667.00,57.00,41.00,54.99,M,4.00,0.00,29.78,1009.10,10.00,M,SCT,M,M,M,6000.00,M,M,M,M,M,M,M,M,M,M,57.00,KVGT 130853Z AUTO VRB04KT 10SM SCT060 14/05 A2978 RMK AO2 SLP091 T01390050 57019,M
LOL,2025-03-13 08:53,-118.5701,40.0684,1192.43,36.00,31.00,81.86,0.00,0.00,T,29.64,1002.90,10.00,M,BKN,BKN,OVC,M,4100.00,4800.00,6500.00,M,M,M,M,M,M,M,M,36.00,KLOL 130853Z AUTO 00000KT 10SM BKN041 BKN048 OVC065 02/M01 A2964 RMK AO2 SNB07E16 SLP029 P0000 60000 T00221006 51018,M
P68,2025-03-13 08:53,-116.0056,39.6014,1993.00,42.00,29.00,59.69,170.00,25.00,0.00,29.60,999.20,M,39.00,M,M,M,M,M,M,M,M,M,M,M,M,40.00,180.00,2025-03-13 08:14,31.35,KP68 130853Z AUTO 17025G39KT 06/M02 A2960 RMK AO1 PK WND 18040/0814 SLP992 T00561017 56007,M
ELY,2025-03-13 08:53,-114.8453,39.2950,1909.00,M,M,M,150.00,26.00,0.00,29.66,M,10.00,37.00,OVC,M,M,M,4900.00,M,M,M,M,M,M,M,42.00,140.00,2025-03-13 08:04,M,KELY 130853Z AUTO 15026G37KT 10SM OVC049 A2966 RMK AO2 PK WND 14042/0804 SLPNO 57020 $,M
BVU,2025-03-13 08:55,-114.8611,35.9475,671.00,57.20,41.00,54.60,180.00,13.00,0.00,29.78,M,10.00,18.00,CLR,M,M,M,M,M,M,M,M,M,M,M,M,M,M,57.20,KBVU 130855Z AUTO 18013G18KT 10SM CLR 14/05 A2978 RMK AO2,M
INS,2025-03-13 08:55,-115.6733,36.5872,955.00,55.20,33.60,43.87,360.00,4.00,0.00,29.72,1003.60,10.00,M,BKN,M,M,M,9000.00,M,M,M,M,M,M,M,M,M,M,55.20,KINS 130855Z AUTO 36004KT 10SM BKN090 13/01 A2972 RMK AO2 SLP036 T01290009 57021 $,M
RNO,2025-03-13 08:55,-119.7711,39.4839,1341.00,33.00,27.00,78.34,250.00,3.00,T,29.65,1002.30,10.00,M,BKN,OVC,M,M,1900.00,7000.00,M,M,M,M,M,M,M,M,M,29.83,KRNO 130855Z 25003KT 10SM BKN019 OVC070 01/M03 A2965 RMK AO2 RAB05E25 SLP023 P0000 60006 T00061028 58002 $,M
BAM,2025-03-13 08:55,-116.8743,40.5990,1382.36,39.20,35.60,86.79,250.00,5.00,0.00,29.61,M,10.00,M,SCT,OVC,M,M,2200.00,3700.00,M,M,M,M,M,M,M,M,M,34.95,KBAM 130855Z AUTO 25005KT 10SM SCT022 OVC037 04/02 A2961 RMK AO1,M
RTS,2025-03-13 08:55,-119.8764,39.6682,1539.00,30.20,23.00,74.26,30.00,5.00,0.01,29.64,M,10.00,M,CLR,M,M,M,M,M,M,M,M,M,M,M,M,M,M,24.26,KRTS 130855Z AUTO 03005KT 10SM CLR M01/M05 A2964 RMK AO2 P0001,M
MEV,2025-03-13 08:55,-119.7500,38.9963,1441.42,30.20,30.20,100.00,160.00,5.00,0.00,29.65,M,10.00,M,FEW,OVC,M,M,2600.00,3500.00,M,M,UP,M,M,M,M,M,M,24.26,KMEV 130855Z AUTO 16005KT 10SM UP FEW026 OVC035 M01/M01 A2965 RMK AO2,M
HTH,2025-03-13 08:55,-118.6315,38.5448,1282.89,42.80,28.40,56.48,170.00,12.00,0.00,29.59,M,10.00,19.00,FEW,OVC,M,M,7500.00,11000.00,M,M,M,M,M,M,M,M,M,35.75,KHTH 130855Z AUTO 17012G19KT 10SM FEW075 OVC110 06/M02 A2959 RMK A01,M
LSV,2025-03-13 08:55,-115.0343,36.2362,570.00,58.50,39.40,48.97,200.00,6.00,0.00,29.75,1006.30,10.00,M,FEW,BKN,M,M,10000.00,14000.00,M,M,M,M,M,M,M,M,M,58.50,KLSV 130855Z 20006KT 10SM FEW100 BKN140 15/04 A2975 RMK AO2A SLP063 T01470041 57019 FZRANO $,M
EKO,2025-03-13 08:56,-115.7860,40.8242,1367.00,46.00,31.00,55.58,170.00,23.00,0.00,29.53,997.90,10.00,33.00,OVC,M,M,M,10000.00,M,M,M,M,M,M,M,34.00,170.00,2025-03-13 08:03,37.13,KEKO 130856Z AUTO 17023G33KT 10SM OVC100 08/M01 A2953 RMK AO2 PK WND 17034/0803 SLP979 T00781006 56016,M
HND,2025-03-13 08:56,-115.1344,35.9729,742.79,54.00,40.00,58.99,180.00,8.00,0.00,29.80,1009.90,10.00,M,CLR,M,M,M,M,M,M,M,M,M,M,M,M,M,M,54.00,KHND 130856Z AUTO 18008KT 10SM CLR 12/04 A2980 RMK AO2 SLP099 T01220044 58018 $,M
TPH,2025-03-13 08:56,-117.0904,38.0505,1654.00,40.00,28.00,61.91,M,M,0.00,29.63,1001.30,10.00,M,CLR,M,M,M,M,M,M,M,M,M,M,M,M,M,M,M,KTPH 130856Z AUTO 10SM CLR 04/M02 A2963 RMK AO2 SLP013 T00441022 58008 $,M
LAS,2025-03-13 08:56,-115.1634,36.0719,663.00,57.00,39.00,50.88,200.00,7.00,0.00,29.79,1007.60,10.00,M,FEW,BKN,M,M,10000.00,14000.00,M,M,M,M,M,M,M,M,M,57.00,KLAS 130856Z 20007KT 10SM FEW100 BKN140 14/04 A2979 RMK AO2 SLP076 T01390039 58020,M
WMC,2025-03-13 08:56,-117.8072,40.9019,1315.00,M,M,M,M,M,0.00,M,M,M,M,M,M,M,M,M,M,M,M,M,M,M,M,M,M,M,M,KWMC 130856Z AUTO RMK AO2 SLPNO PWINO FZRANO TSNO $,M
NFL,2025-03-13 08:57,-118.7010,39.4166,1199.00,41.00,27.00,57.15,M,3.00,0.00,29.64,1002.10,10.00,M,BKN,OVC,M,M,5500.00,9500.00,M,M,M,M,M,M,M,M,M,38.98,KNFL 130857Z AUTO VRB03KT 10SM BKN055 OVC095 05/M03 A2964 RMK AO2 SLP021 60000 T00501028 51010,M
10U,2025-03-13 09:00,-116.1876,41.9532,1637.00,33.80,32.00,93.03,220.00,8.00,0.00,29.56,M,3.00,14.00,BKN,OVC,M,M,400.00,900.00,M,M,-SN,M,M,M,M,M,M,26.33,K10U 130900Z AUTO 22008G14KT 3SM -SN BKN004 OVC009 01/M00 A2956 RMK AO2,M
TMT,2025-03-13 09:10,-117.1971,39.4643,1749.34,40.00,26.60,58.44,220.00,10.00,0.00,29.57,M,10.00,22.00,BKN,M,M,M,9000.00,M,M,M,M,M,M,M,M,M,M,33.00,KTMT 130910Z AUTO 22010G22KT 10SM BKN090 04/M03 A2957 RMK AO2 T00441030,M
BVU,2025-03-13 09:15,-114.8611,35.9475,671.00,57.20,41.00,54.60,190.00,11.00,0.00,29.78,M,10.00,19.00,CLR,M,M,M,M,M,M,M,M,M,M,M,M,M,M,57.20,KBVU 130915Z AUTO 19011G19KT 10SM CLR 14/05 A2978 RMK AO2,M
BAM,2025-03-13 09:15,-116.8743,40.5990,1382.36,37.40,33.80,86.69,260.00,6.00,0.00,29.63,M,10.00,M,OVC,M,M,M,3700.00,M,M,M,M,M,M,M,M,M,M,32.03,KBAM 130915Z AUTO 26006KT 10SM OVC037 03/01 A2963 RMK AO1,M
CXP,2025-03-13 09:15,-119.7326,39.1923,1431.00,30.20,28.40,92.92,210.00,5.00,0.00,29.66,M,10.00,M,FEW,BKN,OVC,M,7000.00,8000.00,9000.00,M,M,M,M,M,M,M,M,24.26,KCXP 130915Z AUTO 21005KT 10SM FEW070 BKN080 OVC090 M01/M02 A2966 RMK AO2,M
RTS,2025-03-13 09:15,-119.8764,39.6682,1539.00,28.40,23.00,79.92,360.00,5.00,0.00,29.64,M,10.00,M,FEW,M,M,M,9500.00,M,M,M,M,M,M,M,M,M,M,22.12,KRTS 130915Z AUTO 36005KT 10SM FEW095 M02/M05 A2964 RMK AO2,M
MEV,2025-03-13 09:15,-119.7500,38.9963,1441.42,30.20,28.40,92.92,160.00,4.00,0.00,29.66,M,10.00,M,SCT,BKN,OVC,M,3000.00,3700.00,7500.00,M,M,M,M,M,M,M,M,25.32,KMEV 130915Z AUTO 16004KT 10SM SCT030 BKN037 OVC075 M01/M02 A2966 RMK AO2,M
HTH,2025-03-13 09:15,-118.6315,38.5448,1282.89,42.80,26.60,52.45,180.00,10.00,0.00,29.60,M,10.00,15.00,BKN,M,M,M,12000.00,M,M,M,M,M,M,M,M,M,M,36.51,KHTH 130915Z AUTO 18010G15KT 10SM BKN120 06/M03 A2960 RMK A01,M
10U,2025-03-13 09:20,-116.1876,41.9532,1637.00,32.00,32.00,100.00,190.00,17.00,0.00,29.56,M,1.75,22.00,OVC,M,M,M,400.00,M,M,M,-SN,M,M,M,M,M,M,20.08,K10U 130920Z AUTO 19017G22KT 1 3/4SM -SN OVC004 00/M00 A2956 RMK AO2,M
RTS,2025-03-13 09:25,-119.8764,39.6682,1539.00,30.20,23.00,74.26,230.00,8.00,0.00,29.64,M,10.00,M,BKN,M,M,M,9000.00,M,M,M,M,M,M,M,M,M,M,21.90,KRTS 130925Z AUTO 23008KT 10SM BKN090 M01/M05 A2964 RMK AO2,M
MEV,2025-03-13 09:25,-119.7500,38.9963,1441.42,30.20,28.40,92.92,170.00,4.00,0.00,29.66,M,10.00,M,FEW,SCT,BKN,M,3000.00,3700.00,5000.00,M,M,M,M,M,M,M,M,25.32,KMEV 130925Z AUTO 17004KT 10SM FEW030 SCT037 BKN050 M01/M02 A2966 RMK AO2,M
RNO,2025-03-13 09:28,-119.7711,39.4839,1341.00,33.00,28.00,81.63,310.00,5.00,0.00,29.64,M,10.00,M,SCT,BKN,OVC,M,2300.00,5000.00,10000.00,M,M,M,M,M,M,M,M,27.58,KRNO 130928Z 31005KT 10SM SCT023 BKN050 OVC100 01/M02 A2964 RMK AO2 T00061022 $,M
TMT,2025-03-13 09:30,-117.1971,39.4643,1749.34,38.30,26.60,62.45,230.00,8.00,0.00,29.59,M,10.00,M,SCT,BKN,M,M,7500.00,9000.00,M,M,M,M,M,M,M,M,M,31.87,KTMT 130930Z AUTO 23008KT 10SM SCT075 BKN090 04/M03 A2959 RMK AO2 T00351030,M
BVU,2025-03-13 09:35,-114.8611,35.9475,671.00,57.20,41.00,54.60,190.00,11.00,0.00,29.76,M,10.00,25.00,SCT,BKN,M,M,5500.00,6500.00,M,M,M,M,M,M,M,M,M,57.20,KBVU 130935Z AUTO 19011G25KT 10SM SCT055 BKN065 14/05 A2976 RMK AO2,M
BAM,2025-03-13 09:35,-116.8743,40.5990,1382.36,37.40,33.80,86.69,250.00,8.00,0.00,29.63,M,10.00,M,OVC,M,M,M,3700.00,M,M,M,M,M,M,M,M,M,M,30.76,KBAM 130935Z AUTO 25008KT 10SM OVC037 03/01 A2963 RMK AO1,M
CXP,2025-03-13 09:35,-119.7326,39.1923,1431.00,32.00,30.20,92.97,210.00,4.00,0.00,29.67,M,10.00,M,SCT,BKN,OVC,M,800.00,7500.00,9000.00,M,M,M,M,M,M,M,M,27.42,KCXP 130935Z AUTO 21004KT 10SM SCT008 BKN075 OVC090 M00/M01 A2967 RMK AO2,M
HTH,2025-03-13 09:35,-118.6315,38.5448,1282.89,42.80,28.40,56.48,230.00,11.00,0.00,29.61,M,10.00,17.00,SCT,BKN,BKN,M,6000.00,7500.00,10000.00,M,M,M,M,M,M,M,M,36.11,KHTH 130935Z AUTO 23011G17KT 10SM SCT060 BKN075 BKN100 06/M02 A2961 RMK A01,M
10U,2025-03-13 09:40,-116.1876,41.9532,1637.00,32.00,32.00,100.00,200.00,15.00,0.00,29.58,M,2.00,25.00,BKN,OVC,M,M,300.00,900.00,M,M,-SN,M,M,M,M,M,M,20.78,K10U 130940Z AUTO 20015G25KT 2SM -SN BKN003 OVC009 00/M00 A2958 RMK AO2,M
TMT,2025-03-13 09:50,-117.1971,39.4643,1749.34,39.00,28.00,64.37,260.00,15.00,0.00,29.58,M,10.00,22.00,BKN,OVC,M,M,5000.00,7500.00,M,M,M,M,M,M,M,M,M,29.85,KTMT 130950Z AUTO 26015G22KT 10SM BKN050 OVC075 04/M02 A2958 RMK AO2 T00381023,M
DRA,2025-03-13 09:53,-116.0278,36.6206,1009.00,51.00,36.00,56.31,210.00,21.00,0.00,29.69,1002.70,10.00,35.00,CLR,M,M,M,M,M,M,M,M,M,M,M,37.00,220.00,2025-03-13 09:27,51.00,KDRA 130953Z AUTO 21021G35KT 10SM CLR 11/02 A2969 RMK AO2 PK WND 22037/0927 SLP027 T01060022,M
ELY,2025-03-13 09:53,-114.8453,39.2950,1909.00,M,M,M,140.00,20.00,0.00,29.65,M,10.00,35.00,FEW,BKN,OVC,M,3800.00,4800.00,5500.00,M,M,M,M,M,40.00,160.00,2025-03-13 09:09,M,KELY 130953Z AUTO 14020G35KT 10SM FEW038 BKN048 OVC055 A2965 RMK AO2 PK WND 16040/0909 SLPNO $,M
VGT,2025-03-13 09:53,-115.1933,36.2111,667.00,57.00,40.00,52.90,170.00,8.00,0.00,29.74,1007.80,10.00,19.00,CLR,M,M,M,M,M,M,M,M,M,M,M,M,M,M,57.00,KVGT 130953Z AUTO 17008G19KT 10SM CLR 14/04 A2974 RMK AO2 SLP078 T01390044,M
LOL,2025-03-13 09:53,-118.5701,40.0684,1192.43,37.00,24.00,58.99,250.00,4.00,0.00,29.63,1002.40,10.00,M,FEW,OVC,M,M,9000.00,11000.00,M,M,M,M,M,M,M,M,M,33.26,KLOL 130953Z AUTO 25004KT 10SM FEW090 OVC110 03/M04 A2963 RMK AO2 SLP024 T00281044,M
BVU,2025-03-13 09:55,-114.8611,35.9475,671.00,57.20,41.00,54.60,190.00,12.00,0.00,29.76,M,10.00,M,FEW,BKN,BKN,M,4400.00,5500.00,12000.00,M,M,M,M,M,M,M,M,57.20,KBVU 130955Z AUTO 19012KT 10SM FEW044 BKN055 BKN120 14/05 A2976 RMK AO2,M
CXP,2025-03-13 09:55,-119.7326,39.1923,1431.00,32.00,30.20,92.97,220.00,4.00,0.00,29.67,M,10.00,M,FEW,SCT,OVC,M,800.00,6500.00,8000.00,M,M,M,M,M,M,M,M,27.42,KCXP 130955Z AUTO 22004KT 10SM FEW008 SCT065 OVC080 M00/M01 A2967 RMK AO2,M
RNO,2025-03-13 09:55,-119.7711,39.4839,1341.00,33.00,27.00,78.34,210.00,6.00,0.00,29.64,1002.10,10.00,M,SCT,BKN,OVC,M,2300.00,5000.00,10000.00,M,M,M,M,M,M,M,M,26.73,KRNO 130955Z 21006KT 10SM SCT023 BKN050 OVC100 01/M03 A2964 RMK AO2 SLP021 T00061028 $,M
RTS,2025-03-13 09:55,-119.8764,39.6682,1539.00,30.20,21.20,68.83,M,4.00,0.00,29.64,M,10.00,M,SCT,BKN,OVC,M,5500.00,7000.00,9000.00,M,M,M,M,M,M,M,M,25.32,KRTS 130955Z AUTO VRB04KT 10SM SCT055 BKN070 OVC090 M01/M06 A2964 RMK AO2,M
MEV,2025-03-13 09:55,-119.7500,38.9963,1441.42,30.20,28.40,92.92,160.00,5.00,0.00,29.66,M,10.00,M,FEW,SCT,BKN,M,2700.00,3400.00,4200.00,M,M,M,M,M,M,M,M,24.26,KMEV 130955Z AUTO 16005KT 10SM FEW027 SCT034 BKN042 M01/M02 A2966 RMK AO2,M
BAM,2025-03-13 09:55,-116.8743,40.5990,1382.36,37.40,33.80,86.69,260.00,5.00,0.00,29.63,M,10.00,M,BKN,BKN,OVC,M,2000.00,2800.00,3700.00,M,M,M,M,M,M,M,M,32.81,KBAM 130955Z AUTO 26005KT 10SM BKN020 BKN028 OVC037 03/01 A2963 RMK AO1,M
HTH,2025-03-13 09:55,-118.6315,38.5448,1282.89,42.80,28.40,56.48,220.00,7.00,0.00,29.63,M,10.00,M,BKN,OVC,M,M,5500.00,6500.00,M,M,M,M,M,M,M,M,M,37.94,KHTH 130955Z AUTO 22007KT 10SM BKN055 OVC065 06/M02 A2963 RMK A01,M
INS,2025-03-13 09:55,-115.6733,36.5872,955.00,54.00,34.00,46.57,20.00,3.00,0.00,29.69,1002.60,10.00,M,BKN,M,M,M,8500.00,M,M,M,M,M,M,M,M,M,M,54.00,KINS 130955Z AUTO 02003KT 10SM BKN085 12/01 A2969 RMK AO2 SLP026 T01220012 $,M
LSV,2025-03-13 09:55,-115.0343,36.2362,570.00,58.00,40.50,52.03,180.00,8.00,0.00,29.72,1005.20,10.00,M,FEW,BKN,M,M,10000.00,14000.00,M,M,M,M,M,M,M,M,M,58.00,KLSV 130955Z COR 18008KT 10SM FEW100 BKN140 14/05 A2972 RMK AO2A SLP052 T01440047 FZRANO $ COR 0958,M
EKO,2025-03-13 09:56,-115.7860,40.8242,1367.00,46.00,32.00,57.87,180.00,22.00,0.00,29.52,997.40,10.00,37.00,OVC,M,M,M,9000.00,M,M,M,M,M,M,M,44.00,150.00,2025-03-13 09:13,37.33,KEKO 130956Z AUTO 18022G37KT 10SM OVC090 08/00 A2952 RMK AO2 PK WND 15044/0913 SLP974 T00780000,M
HND,2025-03-13 09:56,-115.1344,35.9729,742.79,53.00,38.00,56.59,150.00,3.00,0.00,29.77,1008.80,10.00,M,FEW,M,M,M,7000.00,M,M,M,M,M,M,M,M,M,M,53.00,KHND 130956Z AUTO 15003KT 10SM FEW070 12/03 A2977 RMK AO2 SLP088 T01170033 $,M
TPH,2025-03-13 09:56,-117.0904,38.0505,1654.00,38.00,28.00,66.94,M,M,0.00,29.62,1001.00,10.00,M,FEW,M,M,M,1600.00,M,M,M,M,M,M,M,30.00,180.00,2025-03-13 09:49,M,KTPH 130956Z AUTO 10SM FEW016 03/M02 A2962 RMK AO2 PK WND 18030/0949 SLP010 T00331022 $,M
LAS,2025-03-13 09:56,-115.1634,36.0719,663.00,57.00,39.00,50.88,180.00,6.00,0.00,29.76,1006.50,10.00,M,FEW,SCT,BKN,M,10000.00,14000.00,24000.00,M,M,M,M,M,M,M,M,57.00,KLAS 130956Z 18006KT 10SM FEW100 SCT140 BKN240 14/04 A2976 RMK AO2 SLP065 T01390039,M
NFL,2025-03-13 09:57,-118.7010,39.4166,1199.00,38.00,28.00,66.94,360.00,4.00,0.00,29.63,1001.90,10.00,M,SCT,M,M,M,12000.00,M,M,M,M,M,M,M,M,M,M,34.43,KNFL 130957Z AUTO 36004KT 10SM SCT120 03/M02 A2963 RMK AO2 SLP019 T00331022,M
10U,2025-03-13 10:00,-116.1876,41.9532,1637.00,32.00,30.20,92.97,210.00,14.00,0.00,29.58,M,1.50,23.00,OVC,M,M,M,300.00,M,M,M,-SN,M,M,M,M,M,M,21.16,K10U 131000Z AUTO 21014G23KT 1 1/2SM -SN OVC003 M00/M01 A2958 RMK AO2,M
TMT,2025-03-13 10:10,-117.1971,39.4643,1749.34,36.00,30.00,78.60,270.00,11.00,0.00,29.59,M,10.00,M,OVC,M,M,M,5000.00,M,M,M,M,M,M,M,M,M,M,27.52,KTMT 131010Z AUTO 27011KT 10SM OVC050 02/M01 A2959 RMK AO2 T00221012,M
BVU,2025-03-13 10:15,-114.8611,35.9475,671.00,57.20,41.00,54.60,180.00,12.00,0.00,29.75,M,10.00,21.00,SCT,SCT,BKN,M,4300.00,4800.00,12000.00,M,M,M,M,M,M,M,M,57.20,KBVU 131015Z AUTO 18012G21KT 10SM SCT043 SCT048 BKN120 14/05 A2975 RMK AO2,M
BAM,2025-03-13 10:15,-116.8743,40.5990,1382.36,35.60,33.80,93.08,340.00,4.00,0.00,29.64,M,10.00,M,BKN,OVC,M,M,900.00,2000.00,M,M,M,M,M,M,M,M,M,31.62,KBAM 131015Z AUTO 34004KT 10SM BKN009 OVC020 02/01 A2964 RMK AO1,M
CXP,2025-03-13 10:15,-119.7326,39.1923,1431.00,32.00,30.20,92.97,M,4.00,0.00,29.66,M,10.00,M,SCT,SCT,OVC,M,6000.00,6500.00,8000.00,M,M,M,M,M,M,M,M,27.42,KCXP 131015Z AUTO VRB04KT 10SM SCT060 SCT065 OVC080 M00/M01 A2966 RMK AO2,M
RTS,2025-03-13 10:15,-119.8764,39.6682,1539.00,30.20,21.20,68.83,280.00,7.00,0.00,29.65,M,10.00,M,BKN,OVC,M,M,4300.00,5000.00,M,M,M,M,M,M,M,M,M,22.59,KRTS 131015Z AUTO 28007KT 230V310 10SM BKN043 OVC050 M01/M06 A2965 RMK AO2,M
MEV,2025-03-13 10:15,-119.7500,38.9963,1441.42,30.20,28.40,92.92,150.00,7.00,0.00,29.65,M,10.00,M,FEW,SCT,BKN,M,2700.00,3600.00,4200.00,M,M,M,M,M,M,M,M,22.59,KMEV 131015Z AUTO 15007KT 10SM FEW027 SCT036 BKN042 M01/M02 A2965 RMK AO2,M
HTH,2025-03-13 10:15,-118.6315,38.5448,1282.89,41.00,30.20,65.16,170.00,7.00,0.00,29.63,M,10.00,M,OVC,M,M,M,5000.00,M,M,M,M,M,M,M,M,M,M,35.75,KHTH 131015Z AUTO 17007KT 10SM OVC050 05/M01 A2963 RMK A01,M
10U,2025-03-13 10:20,-116.1876,41.9532,1637.00,30.20,30.20,100.00,210.00,13.00,0.00,29.60,M,2.00,22.00,OVC,M,M,M,300.00,M,M,M,-SN,M,M,M,M,M,M,19.26,K10U 131020Z AUTO 21013G22KT 2SM -SN OVC003 M01/M01 A2960 RMK AO2,M
TMT,2025-03-13 10:30,-117.1971,39.4643,1749.34,34.50,28.80,79.44,290.00,12.00,0.00,29.60,M,10.00,20.00,BKN,OVC,M,M,4800.00,5000.00,M,M,M,M,M,M,M,M,M,25.18,KTMT 131030Z AUTO 29012G20KT 10SM BKN048 OVC050 01/M02 A2960 RMK AO2 T00141018,M
BVU,2025-03-13 10:35,-114.8611,35.9475,671.00,57.20,41.00,54.60,190.00,9.00,0.00,29.75,M,10.00,18.00,FEW,FEW,FEW,M,4300.00,6000.00,12000.00,M,M,M,M,M,M,M,M,57.20,KBVU 131035Z AUTO 19009G18KT 10SM FEW043 FEW060 FEW120 14/05 A2975 RMK AO2,M
BAM,2025-03-13 10:35,-116.8743,40.5990,1382.36,35.60,33.80,93.08,230.00,3.00,0.00,29.64,M,4.00,M,OVC,M,M,M,900.00,M,M,M,M,M,M,M,M,M,M,32.80,KBAM 131035Z AUTO 23003KT 4SM OVC009 02/01 A2964 RMK AO1,M
CXP,2025-03-13 10:35,-119.7326,39.1923,1431.00,32.00,30.20,92.97,310.00,5.00,0.00,29.66,M,10.00,M,FEW,FEW,OVC,M,700.00,6000.00,7000.00,M,M,M,M,M,M,M,M,26.40,KCXP 131035Z AUTO 31005KT 10SM FEW007 FEW060 OVC070 M00/M01 A2966 RMK AO2,M
RTS,2025-03-13 10:35,-119.8764,39.6682,1539.00,28.40,23.00,79.92,310.00,6.00,0.00,29.64,M,10.00,M,SCT,OVC,M,M,3000.00,4100.00,M,M,M,M,M,M,M,M,M,21.19,KRTS 131035Z AUTO 31006KT 10SM SCT030 OVC041 M02/M05 A2964 RMK AO2,M
MEV,2025-03-13 10:35,-119.7500,38.9963,1441.42,30.20,28.40,92.92,160.00,7.00,0.00,29.65,M,10.00,M,SCT,BKN,OVC,M,2900.00,3700.00,5000.00,M,M,M,M,M,M,M,M,22.59,KMEV 131035Z AUTO 16007KT 10SM SCT029 BKN037 OVC050 M01/M02 A2965 RMK AO2,M
HTH,2025-03-13 10:35,-118.6315,38.5448,1282.89,41.00,26.60,56.22,240.00,7.00,0.00,29.62,M,10.00,M,FEW,BKN,OVC,M,4800.00,6000.00,7500.00,M,M,M,M,M,M,M,M,35.75,KHTH 131035Z AUTO 24007KT 10SM FEW048 BKN060 OVC075 05/M03 A2962 RMK A01,M
EKO,2025-03-13 10:37,-115.7860,40.8242,1367.00,43.00,31.00,62.31,260.00,17.00,0.00,29.55,M,10.00,27.00,SCT,BKN,OVC,M,3900.00,5500.00,8000.00,M,M,M,M,M,35.00,180.00,2025-03-13 09:57,34.49,KEKO 131037Z AUTO 26017G27KT 10SM SCT039 BKN055 OVC080 06/M01 A2955 RMK AO2 PK WND 18035/0957 WSHFT 1017 T00611006,M
10U,2025-03-13 10:40,-116.1876,41.9532,1637.00,30.20,30.20,100.00,220.00,14.00,0.00,29.60,M,1.00,M,OVC,M,M,M,300.00,M,M,M,-SN,M,M,M,M,M,M,18.84,K10U 131040Z AUTO 22014KT 1SM -SN OVC003 M01/M01 A2960 RMK AO2,M
TMT,2025-03-13 10:50,-117.1971,39.4643,1749.34,33.40,28.00,80.33,300.00,6.00,0.00,29.61,M,10.00,M,SCT,BKN,OVC,M,3300.00,4800.00,5500.00,M,-SN,M,M,M,M,M,M,27.22,KTMT 131050Z AUTO 30006KT 10SM -SN SCT033 BKN048 OVC055 01/M02 A2961 RMK AO2 T00081022,M
DRA,2025-03-13 10:53,-116.0278,36.6206,1009.00,50.00,36.00,58.44,210.00,20.00,0.00,29.68,1002.20,10.00,37.00,CLR,M,M,M,M,M,M,M,M,M,M,M,39.00,210.00,2025-03-13 10:25,50.00,KDRA 131053Z AUTO 21020G37KT 10SM CLR 10/02 A2968 RMK AO2 PK WND 21039/1025 SLP022 T01000022,M
ELY,2025-03-13 10:53,-114.8453,39.2950,1909.00,M,M,M,140.00,22.00,0.00,29.62,M,10.00,33.00,SCT,OVC,M,M,4400.00,5500.00,M,M,M,M,M,M,35.00,140.00,2025-03-13 10:29,M,KELY 131053Z AUTO 14022G33KT 10SM SCT044 OVC055 A2962 RMK AO2 PK WND 14035/1029 SLPNO $,M
VGT,2025-03-13 10:53,-115.1933,36.2111,667.00,56.00,39.00,52.75,150.00,9.00,0.00,29.73,1007.20,10.00,M,SCT,M,M,M,12000.00,M,M,M,M,M,M,M,M,M,M,56.00,KVGT 131053Z AUTO 15009KT 10SM SCT120 13/04 A2973 RMK AO2 SLP072 T01330039,M
LOL,2025-03-13 10:53,-118.5701,40.0684,1192.43,34.00,31.00,88.63,120.00,6.00,0.00,29.64,1002.70,10.00,M,BKN,M,M,M,11000.00,M,M,M,M,M,M,M,M,M,M,27.94,KLOL 131053Z AUTO 12006KT 10SM BKN110 01/M01 A2964 RMK AO2 SLP027 T00111006,M
P68,2025-03-13 10:53,-116.0056,39.6014,1993.00,40.00,27.00,59.41,190.00,17.00,0.00,29.59,998.30,M,25.00,M,M,M,M,M,M,M,M,M,M,M,M,37.00,190.00,2025-03-13 10:12,30.56,KP68 131053Z AUTO 19017G25KT 04/M03 A2959 RMK AO1 PK WND 19037/1012 SLP983 T00441028,M
BVU,2025-03-13 10:55,-114.8611,35.9475,671.00,55.40,41.00,58.27,180.00,16.00,0.00,29.74,M,10.00,M,FEW,SCT,BKN,M,4400.00,5000.00,6000.00,M,M,M,M,M,M,M,M,55.40,KBVU 131055Z AUTO 18016KT 10SM FEW044 SCT050 BKN060 13/05 A2974 RMK AO2,M
RNO,2025-03-13 10:55,-119.7711,39.4839,1341.00,32.00,27.00,81.55,250.00,6.00,0.00,29.63,1002.00,10.00,M,FEW,BKN,OVC,M,2200.00,5000.00,14000.00,M,M,M,M,M,M,M,M,25.53,KRNO 131055Z 25006KT 10SM FEW022 BKN050 OVC140 00/M03 A2963 RMK AO2 SLP020 T00001028 $,M
BAM,2025-03-13 10:55,-116.8743,40.5990,1382.36,33.80,33.80,100.00,0.00,0.00,0.00,29.63,M,4.00,M,BKN,OVC,M,M,600.00,1400.00,M,M,M,M,M,M,M,M,M,33.80,KBAM 131055Z AUTO 00000KT 4SM BKN006 OVC014 01/01 A2963 RMK AO1,M
CXP,2025-03-13 10:55,-119.7326,39.1923,1431.00,32.00,28.40,86.39,300.00,4.00,0.00,29.65,M,10.00,M,FEW,BKN,OVC,M,800.00,5500.00,7000.00,M,M,M,M,M,M,M,M,27.42,KCXP 131055Z AUTO 30004KT 10SM FEW008 BKN055 OVC070 M00/M02 A2965 RMK AO2,M
RTS,2025-03-13 10:55,-119.8764,39.6682,1539.00,28.40,24.80,86.18,310.00,9.00,0.00,29.63,M,8.00,M,FEW,SCT,BKN,M,2700.00,3300.00,4000.00,M,-UP,M,M,M,M,M,M,19.04,KRTS 131055Z AUTO 31009KT 8SM -UP FEW027 SCT033 BKN040 M02/M04 A2963 RMK AO2,M
MEV,2025-03-13 10:55,-119.7500,38.9963,1441.42,30.20,28.40,92.92,150.00,6.00,0.00,29.64,M,10.00,M,FEW,BKN,OVC,M,2500.00,3000.00,3800.00,M,M,M,M,M,M,M,M,23.36,KMEV 131055Z AUTO 15006KT 10SM FEW025 BKN030 OVC038 M01/M02 A2964 RMK AO2,M
HTH,2025-03-13 10:55,-118.6315,38.5448,1282.89,41.00,24.80,52.17,260.00,5.00,0.00,29.61,M,10.00,M,SCT,BKN,OVC,M,6000.00,6500.00,9000.00,M,M,M,M,M,M,M,M,37.08,KHTH 131055Z AUTO 26005KT 10SM SCT060 BKN065 OVC090 05/M04 A2961 RMK A01,M
INS,2025-03-13 10:55,-115.6733,36.5872,955.00,55.20,30.70,39.03,20.00,4.00,0.00,29.68,1002.20,10.00,M,SCT,OVC,M,M,9000.00,15000.00,M,M,M,M,M,M,M,M,M,55.20,KINS 131055Z AUTO 02004KT 10SM SCT090 OVC150 13/M01 A2968 RMK AO2 SLP022 T01291007 $,M
LSV,2025-03-13 10:55,-115.0343,36.2362,570.00,58.00,41.00,53.05,180.00,15.00,0.00,29.70,1004.50,10.00,M,SCT,BKN,M,M,14000.00,22000.00,M,M,M,M,M,M,M,M,M,58.00,KLSV 131055Z 18015KT 10SM SCT140 BKN220 15/05 A2970 RMK AO2A SLP045 T01450050 FZRANO $,M
EKO,2025-03-13 10:56,-115.7860,40.8242,1367.00,39.00,32.00,75.75,270.00,12.00,0.00,29.56,999.30,10.00,M,SCT,OVC,M,M,3900.00,5500.00,M,M,M,M,M,M,35.00,180.00,2025-03-13 09:57,30.91,KEKO 131056Z AUTO 27012KT 10SM SCT039 OVC055 04/00 A2956 RMK AO2 PK WND 18035/0957 WSHFT 1017 SLP993 T00390000,M
HND,2025-03-13 10:56,-115.1344,35.9729,742.79,54.00,40.00,58.99,170.00,10.00,0.00,29.75,1008.10,10.00,M,BKN,M,M,M,6500.00,M,M,M,M,M,M,M,M,M,M,54.00,KHND 131056Z AUTO 17010KT 10SM BKN065 12/04 A2975 RMK AO2 SLP081 T01220044 $,M
TPH,2025-03-13 10:56,-117.0904,38.0505,1654.00,38.00,28.00,66.94,200.00,22.00,0.00,29.61,1000.40,10.00,32.00,FEW,SCT,BKN,M,2800.00,5000.00,11000.00,M,M,M,M,M,32.00,190.00,2025-03-13 10:47,26.61,KTPH 131056Z AUTO 20022G32KT 10SM FEW028 SCT050 BKN110 03/M02 A2961 RMK AO2 PK WND 19032/1047 SLP004 T00331022 $,M
LAS,2025-03-13 10:56,-115.1634,36.0719,663.00,57.00,37.00,47.04,180.00,12.00,0.00,29.74,1005.70,10.00,20.00,FEW,FEW,BKN,M,10000.00,14000.00,20000.00,M,M,M,M,M,31.00,210.00,2025-03-13 10:30,57.00,KLAS 131056Z 18012G20KT 10SM FEW100 FEW140 BKN200 14/03 A2974 RMK AO2 PK WND 21031/1030 SLP057 T01390028,M
WMC,2025-03-13 10:56,-117.8072,40.9019,1315.00,M,M,M,M,M,0.00,M,M,M,M,M,M,M,M,M,M,M,M,M,M,M,M,M,M,M,M,KWMC 131056Z AUTO RMK AO2 SLPNO PWINO FZRANO TSNO $,M
NFL,2025-03-13 10:57,-118.7010,39.4166,1199.00,38.00,27.00,64.24,10.00,5.00,0.00,29.62,1001.60,10.00,M,BKN,M,M,M,12000.00,M,M,M,M,M,M,M,M,M,M,33.52,KNFL 131057Z AUTO 01005KT 10SM BKN120 03/M03 A2962 RMK AO2 SLP016 T00331028,M
10U,2025-03-13 11:00,-116.1876,41.9532,1637.00,30.20,28.40,92.92,210.00,14.00,0.00,29.61,M,1.00,M,OVC,M,M,M,300.00,M,M,M,-SN,M,M,M,M,M,M,18.84,K10U 131100Z AUTO 21014KT 1SM -SN OVC003 M01/M02 A2961 RMK AO2,M
RTS,2025-03-13 11:05,-119.8764,39.6682,1539.00,28.40,24.80,86.18,300.00,9.00,0.00,29.64,M,8.00,M,FEW,SCT,BKN,M,2600.00,3300.00,3900.00,M,-UP,M,M,M,M,M,M,19.04,KRTS 131105Z AUTO 30009KT 8SM -UP FEW026 SCT033 BKN039 M02/M04 A2964 RMK AO2,M
MEV,2025-03-13 11:05,-119.7500,38.9963,1441.42,30.20,26.60,86.28,180.00,3.00,0.00,29.64,M,10.00,M,FEW,BKN,OVC,M,2100.00,2600.00,3200.00,M,M,M,M,M,M,M,M,26.63,KMEV 131105Z AUTO 18003KT 10SM FEW021 BKN026 OVC032 M01/M03 A2964 RMK AO2,M
TMT,2025-03-13 11:10,-117.1971,39.4643,1749.34,32.00,28.80,87.81,0.00,0.00,0.00,29.62,M,1.75,M,SCT,BKN,OVC,M,1000.00,1500.00,3100.00,M,-SN,M,M,M,M,M,M,32.00,KTMT 131110Z AUTO 00000KT 1 3/4SM -SN SCT010 BKN015 OVC031 00/M02 A2962 RMK AO2 T10011018,M
BVU,2025-03-13 11:15,-114.8611,35.9475,671.00,55.40,39.20,54.34,170.00,12.00,0.00,29.74,M,10.00,18.00,SCT,OVC,M,M,4700.00,6500.00,M,M,M,M,M,M,M,M,M,55.40,KBVU 131115Z AUTO 17012G18KT 10SM SCT047 OVC065 13/04 A2974 RMK AO2,M
BAM,2025-03-13 11:15,-116.8743,40.5990,1382.36,33.80,33.80,100.00,0.00,0.00,0.00,29.64,M,3.00,M,OVC,M,M,M,800.00,M,M,M,M,M,M,M,M,M,M,33.80,KBAM 131115Z AUTO 00000KT 3SM OVC008 01/01 A2964 RMK AO1,M
CXP,2025-03-13 11:15,-119.7326,39.1923,1431.00,32.00,28.40,86.39,310.00,4.00,0.00,29.65,M,10.00,M,SCT,OVC,M,M,4500.00,5500.00,M,M,M,M,M,M,M,M,M,27.42,KCXP 131115Z AUTO 31004KT 10SM SCT045 OVC055 M00/M02 A2965 RMK AO2,M
HTH,2025-03-13 11:15,-118.6315,38.5448,1282.89,41.00,24.80,52.17,40.00,9.00,0.00,29.60,M,10.00,M,FEW,FEW,BKN,M,5500.00,7500.00,8500.00,M,M,M,M,M,M,M,M,34.70,KHTH 131115Z AUTO 04009KT 10SM FEW055 FEW075 BKN085 05/M04 A2960 RMK A01,M
10U,2025-03-13 11:20,-116.1876,41.9532,1637.00,30.20,28.40,92.92,210.00,15.00,0.00,29.61,M,1.00,20.00,OVC,M,M,M,300.00,M,M,M,-SN,M,M,M,M,M,M,18.45,K10U 131120Z AUTO 21015G20KT 1SM -SN OVC003 M01/M02 A2961 RMK AO2,M
TMT,2025-03-13 11:30,-117.1971,39.4643,1749.34,30.20,29.00,95.23,0.00,0.00,0.00,29.62,M,0.75,M,OVC,M,M,M,600.00,M,M,M,SN,M,M,M,M,M,M,30.20,KTMT 131130Z AUTO 00000KT 3/4SM SN OVC006 M01/M02 A2962 RMK AO2 T10101016,M
EKO,2025-03-13 11:34,-115.7860,40.8242,1367.00,36.00,32.00,85.23,250.00,8.00,0.01,29.58,M,6.00,M,BKN,BKN,OVC,M,2400.00,2900.00,4000.00,M,-SN BR,M,M,M,M,M,M,29.04,KEKO 131134Z AUTO 25008KT 6SM -SN BR BKN024 BKN029 OVC040 02/00 A2958 RMK AO2 RAB05E13SNB13 P0001 T00220000,M
BVU,2025-03-13 11:35,-114.8611,35.9475,671.00,57.20,37.40,47.44,170.00,14.00,0.00,29.73,M,10.00,23.00,BKN,OVC,M,M,4600.00,5500.00,M,M,M,M,M,M,M,M,M,57.20,KBVU 131135Z AUTO 17014G23KT 10SM BKN046 OVC055 14/03 A2973 RMK AO2,M
BAM,2025-03-13 11:35,-116.8743,40.5990,1382.36,33.80,33.80,100.00,0.00,0.00,0.00,29.65,M,5.00,M,SCT,BKN,OVC,M,500.00,800.00,1500.00,M,M,M,M,M,M,M,M,33.80,KBAM 131135Z AUTO 00000KT 5SM SCT005 BKN008 OVC015 01/01 A2965 RMK AO1,M
CXP,2025-03-13 11:35,-119.7326,39.1923,1431.00,32.00,28.40,86.39,0.00,0.00,0.00,29.65,M,10.00,M,FEW,BKN,BKN,M,4000.00,4800.00,5500.00,M,M,M,M,M,M,M,M,32.00,KCXP 131135Z AUTO 00000KT 10SM FEW040 BKN048 BKN055 M00/M02 A2965 RMK AO2,M
RTS,2025-03-13 11:35,-119.8764,39.6682,1539.00,28.40,24.80,86.18,300.00,7.00,0.00,29.63,M,9.00,M,FEW,SCT,BKN,M,300.00,2900.00,3800.00,M,-UP,M,M,M,M,M,M,20.39,KRTS 131135Z AUTO 30007KT 9SM -UP FEW003 SCT029 BKN038 M02/M04 A2963 RMK AO2,M
MEV,2025-03-13 11:35,-119.7500,38.9963,1441.42,28.40,26.60,92.86,160.00,3.00,0.00,29.64,M,10.00,M,FEW,BKN,M,M,3000.00,11000.00,M,M,M,M,M,M,M,M,M,24.57,KMEV 131135Z AUTO 16003KT 10SM FEW030 BKN110 M02/M03 A2964 RMK AO2,M
HTH,2025-03-13 11:35,-118.6315,38.5448,1282.89,41.00,26.60,56.22,70.00,8.00,0.00,29.60,M,10.00,13.00,FEW,FEW,M,M,8500.00,12000.00,M,M,M,M,M,M,M,M,M,35.20,KHTH 131135Z AUTO 07008G13KT 10SM FEW085 FEW120 05/M03 A2960 RMK A01,M
10U,2025-03-13 11:40,-116.1876,41.9532,1637.00,28.40,28.40,100.00,200.00,13.00,0.00,29.60,M,1.50,19.00,OVC,M,M,M,300.00,M,M,M,-SN,M,M,M,M,M,M,16.96,K10U 131140Z AUTO 20013G19KT 1 1/2SM -SN OVC003 M02/M02 A2960 RMK AO2,M
TPH,2025-03-13 11:47,-117.0904,38.0505,1654.00,37.00,30.00,75.56,180.00,16.00,0.00,29.61,M,10.00,25.00,BKN,M,M,M,1800.00,M,M,M,M,M,M,M,35.00,200.00,2025-03-13 11:03,26.94,KTPH 131147Z AUTO 18016G25KT 10SM BKN018 03/M01 A2961 RMK AO2 PK WND 20035/1103 T00281011 $,M
TMT,2025-03-13 11:50,-117.1971,39.4643,1749.34,30.00,29.00,96.00,0.00,0.00,0.00,29.62,M,0.50,M,OVC,M,M,M,600.00,M,M,M,+SN,M,M,M,M,M,M,30.00,KTMT 131150Z AUTO 00000KT 1/2SM +SN OVC006 M01/M02 A2962 RMK AO2 T10121016,M
P68,2025-03-13 11:53,-116.0056,39.6014,1993.00,40.00,29.00,64.50,190.00,19.00,0.00,29.56,997.30,M,26.00,M,M,M,M,M,M,M,M,M,M,M,M,32.00,180.00,2025-03-13 11:10,30.02,KP68 131153Z AUTO 19019G26KT 04/M02 A2956 RMK AO1 PK WND 18032/1110 SLP973 T00441017 10061 20044 58012,M
DRA,2025-03-13 11:53,-116.0278,36.6206,1009.00,51.00,34.00,52.00,200.00,21.00,0.00,29.64,1001.20,10.00,29.00,BKN,M,M,M,11000.00,M,M,M,M,M,M,M,40.00,200.00,2025-03-13 11:17,51.00,KDRA 131153Z AUTO 20021G29KT 10SM BKN110 11/01 A2964 RMK AO2 PK WND 20040/1117 SLP012 T01060011 10117 20100 56027,M
ELY,2025-03-13 11:53,-114.8453,39.2950,1909.00,M,M,M,150.00,26.00,0.00,29.60,M,10.00,37.00,OVC,M,M,M,4600.00,M,M,M,M,M,M,M,37.00,140.00,2025-03-13 11:51,M,KELY 131153Z AUTO 15026G37KT 10SM OVC046 A2960 RMK AO2 PK WND 14037/1151 SLPNO 58017 $,M
VGT,2025-03-13 11:53,-115.1933,36.2111,667.00,56.00,40.00,54.85,130.00,9.00,0.00,29.70,1006.40,10.00,M,BKN,BKN,M,M,6500.00,7500.00,M,M,M,M,M,M,M,M,M,56.00,KVGT 131153Z AUTO 13009KT 10SM BKN065 BKN075 13/04 A2970 RMK AO2 SLP064 T01330044 10156 20128 56025,M
LOL,2025-03-13 11:53,-118.5701,40.0684,1192.43,34.00,31.00,88.63,90.00,4.00,0.00,29.62,1002.00,10.00,M,BKN,M,M,M,11000.00,M,M,M,M,M,M,M,M,M,M,29.76,KLOL 131153Z AUTO 09004KT 10SM BKN110 01/M01 A2962 RMK AO2 SLP020 60000 T00111006 10056 20011 58008,M
BVU,2025-03-13 11:55,-114.8611,35.9475,671.00,57.20,37.40,47.44,160.00,19.00,0.00,29.71,M,10.00,M,BKN,BKN,OVC,M,4500.00,5000.00,6000.00,M,M,M,M,M,M,M,M,57.20,KBVU 131155Z AUTO 16019KT 10SM BKN045 BKN050 OVC060 14/03 A2971 RMK AO2,M
RNO,2025-03-13 11:55,-119.7711,39.4839,1341.00,32.00,26.00,78.25,0.00,0.00,0.00,29.64,1002.30,10.00,M,BKN,OVC,M,M,5000.00,15000.00,M,M,M,M,M,M,M,M,M,32.00,KRNO 131155Z 00000KT 10SM BKN050 OVC150 00/M03 A2964 RMK AO2 SLP023 60006 70015 T00001033 10006 20000 55003 $,M
BAM,2025-03-13 11:55,-116.8743,40.5990,1382.36,33.80,33.80,100.00,200.00,4.00,0.00,29.64,M,2.50,M,SCT,BKN,OVC,M,500.00,1200.00,1700.00,M,M,M,M,M,M,M,M,29.52,KBAM 131155Z AUTO 20004KT 2 1/2SM SCT005 BKN012 OVC017 01/01 A2964 RMK AO1,M
CXP,2025-03-13 11:55,-119.7326,39.1923,1431.00,30.20,26.60,86.28,0.00,0.00,0.00,29.65,M,10.00,M,FEW,SCT,BKN,M,2000.00,3900.00,5500.00,M,M,M,M,M,M,M,M,30.20,KCXP 131155Z AUTO 00000KT 10SM FEW020 SCT039 BKN055 M01/M03 A2965 RMK AO2,M
RTS,2025-03-13 11:55,-119.8764,39.6682,1539.00,28.40,24.80,86.18,360.00,5.00,0.00,29.63,M,10.00,M,FEW,SCT,OVC,M,2700.00,3200.00,4000.00,M,M,M,M,M,M,M,M,22.12,KRTS 131155Z AUTO 36005KT 10SM FEW027 SCT032 OVC040 M02/M04 A2963 RMK AO2,M
MEV,2025-03-13 11:55,-119.7500,38.9963,1441.42,30.20,26.60,86.28,0.00,0.00,0.00,29.63,M,10.00,M,BKN,M,M,M,11000.00,M,M,M,M,M,M,M,M,M,M,30.20,KMEV 131155Z AUTO 00000KT 10SM BKN110 M01/M03 A2963 RMK AO2,M
HTH,2025-03-13 11:55,-118.6315,38.5448,1282.89,41.00,24.80,52.17,40.00,13.00,0.00,29.60,M,10.00,M,BKN,BKN,M,M,10000.00,12000.00,M,M,M,M,M,M,M,M,M,33.10,KHTH 131155Z AUTO 04013KT 10SM BKN100 BKN120 05/M04 A2960 RMK A01,M
INS,2025-03-13 11:55,-115.6733,36.5872,955.00,54.00,31.00,41.27,220.00,6.00,0.00,29.65,1001.20,10.00,M,FEW,BKN,M,M,8000.00,12000.00,M,M,M,M,M,M,M,M,M,54.00,KINS 131155Z AUTO 22006KT 10SM FEW080 BKN120 12/M01 A2965 RMK AO2 SLP012 T01231006 10131 20116 57021 $,M
LSV,2025-03-13 11:55,-115.0343,36.2362,570.00,58.00,39.00,49.08,180.00,16.00,0.00,29.68,1003.90,10.00,M,FEW,BKN,M,M,14000.00,20000.00,M,M,M,M,M,M,M,M,M,58.00,KLSV 131155Z 18016KT 10SM FEW140 BKN200 15/04 A2968 RMK AO2A SLP039 T01450039 10163 20141 57024 FZRANO $,M
EKO,2025-03-13 11:56,-115.7860,40.8242,1367.00,35.00,31.00,85.17,250.00,10.00,0.01,29.59,1000.70,2.50,18.00,OVC,M,M,M,2200.00,M,M,M,-SN BR,M,M,M,M,M,M,26.73,KEKO 131156Z AUTO 25010G18KT 2 1/2SM -SN BR OVC022 02/M01 A2959 RMK AO2 RAB05E13SNB13 SLP007 P0001 60001 70001 T00171006 10083 20017 53016,M
HND,2025-03-13 11:56,-115.1344,35.9729,742.79,53.00,38.00,56.59,200.00,14.00,0.00,29.72,1007.10,10.00,M,FEW,M,M,M,6500.00,M,M,M,M,M,M,M,M,M,M,53.00,KHND 131156Z AUTO 20014KT 10SM FEW065 12/03 A2972 RMK AO2 SLP071 T01170033 10139 20111 56024 $,M
TPH,2025-03-13 11:56,-117.0904,38.0505,1654.00,36.00,31.00,81.86,M,M,0.00,29.61,1000.80,10.00,M,BKN,OVC,M,M,1600.00,2100.00,M,M,M,M,M,M,35.00,200.00,2025-03-13 11:03,M,KTPH 131156Z AUTO 10SM BKN016 OVC021 02/M01 A2961 RMK AO2 PK WND 20035/1103 SLP008 T00221006 10061 20022 56007 $,M
LAS,2025-03-13 11:56,-115.1634,36.0719,663.00,57.00,38.00,48.93,170.00,9.00,0.00,29.71,1004.70,10.00,17.00,FEW,SCT,BKN,M,6000.00,12000.00,17000.00,M,M,M,M,M,M,M,M,57.00,KLAS 131156Z 17009G17KT 10SM FEW060 SCT120 BKN170 14/03 A2971 RMK AO2 SLP047 T01390033 10156 20133 56026 $,M
WMC,2025-03-13 11:56,-117.8072,40.9019,1315.00,M,M,M,M,M,0.00,M,M,M,M,M,M,M,M,M,M,M,M,M,M,M,M,M,M,M,M,KWMC 131156Z AUTO RMK AO2 SLPNO PWINO FZRANO TSNO $,M
NFL,2025-03-13 11:57,-118.7010,39.4166,1199.00,38.00,25.00,59.13,240.00,5.00,0.00,29.62,1001.40,10.00,M,BKN,M,M,M,12000.00,M,M,M,M,M,M,M,M,M,M,33.52,KNFL 131157Z AUTO 24005KT 10SM BKN120 03/M04 A2962 RMK AO2 SLP014 60000 T00331039 10050 20033 57007,M
10U,2025-03-13 12:00,-116.1876,41.9532,1637.00,28.40,28.40,100.00,200.00,17.00,0.00,29.59,M,8.00,M,SCT,BKN,BKN,M,300.00,2100.00,2600.00,M,UP,M,M,M,M,M,M,15.36,K10U 131200Z AUTO 20017KT 8SM UP SCT003 BKN021 BKN026 M02/M02 A2959 RMK AO2,M
EKO,2025-03-13 12:04,-115.7860,40.8242,1367.00,35.00,30.00,81.78,210.00,8.00,0.01,29.59,M,4.00,18.00,BKN,OVC,M,M,2200.00,2700.00,M,M,-SN,M,M,M,M,M,M,27.81,KEKO 131204Z AUTO 21008G18KT 180V240 4SM -SN BKN022 OVC027 02/M01 A2959 RMK AO2 P0001 T00171011,M
TMT,2025-03-13 12:10,-117.1971,39.4643,1749.34,29.30,29.00,98.78,340.00,5.00,0.00,29.62,M,0.50,M,OVC,M,M,M,600.00,M,M,M,+SN,M,M,M,M,M,M,23.19,KTMT 131210Z AUTO 34005KT 1/2SM +SN OVC006 M01/M02 A2962 RMK AO2 T10151017,M
BVU,2025-03-13 12:15,-114.8611,35.9475,671.00,55.40,37.40,50.64,170.00,20.00,0.00,29.71,M,10.00,25.00,BKN,OVC,M,M,4800.00,5500.00,M,M,M,M,M,M,M,M,M,55.40,KBVU 131215Z AUTO 17020G25KT 10SM BKN048 OVC055 13/03 A2971 RMK AO2,M
BAM,2025-03-13 12:15,-116.8743,40.5990,1382.36,33.80,33.80,100.00,210.00,5.00,0.00,29.63,M,4.00,M,BKN,OVC,M,M,1200.00,2000.00,M,M,M,M,M,M,M,M,M,28.53,KBAM 131215Z AUTO 21005KT 4SM BKN012 OVC020 01/01 A2963 RMK AO1,M
CXP,2025-03-13 12:15,-119.7326,39.1923,1431.00,30.20,26.60,86.28,0.00,0.00,0.00,29.65,M,10.00,M,SCT,BKN,OVC,M,1900.00,4500.00,11000.00,M,M,M,M,M,M,M,M,30.20,KCXP 131215Z AUTO 00000KT 10SM SCT019 BKN045 OVC110 M01/M03 A2965 RMK AO2,M
RTS,2025-03-13 12:15,-119.8764,39.6682,1539.00,28.40,24.80,86.18,30.00,6.00,0.00,29.63,M,10.00,M,FEW,SCT,BKN,M,2000.00,3200.00,4600.00,M,M,M,M,M,M,M,M,21.19,KRTS 131215Z AUTO 03006KT 10SM FEW020 SCT032 BKN046 M02/M04 A2963 RMK AO2,M
MEV,2025-03-13 12:15,-119.7500,38.9963,1441.42,30.20,26.60,86.28,0.00,0.00,0.00,29.64,M,10.00,M,FEW,BKN,BKN,M,5500.00,7000.00,10000.00,M,M,M,M,M,M,M,M,30.20,KMEV 131215Z AUTO 00000KT 10SM FEW055 BKN070 BKN100 M01/M03 A2964 RMK AO2,M
HTH,2025-03-13 12:15,-118.6315,38.5448,1282.89,41.00,28.40,60.54,70.00,6.00,0.00,29.60,M,10.00,M,BKN,OVC,M,M,7000.00,9500.00,M,M,M,M,M,M,M,M,M,36.37,KHTH 131215Z AUTO 07006KT 10SM BKN070 OVC095 05/M02 A2960 RMK A01,M
TPH,2025-03-13 12:16,-117.0904,38.0505,1654.00,35.00,32.00,88.68,180.00,17.00,0.00,29.61,M,10.00,M,FEW,BKN,OVC,M,900.00,1500.00,2300.00,M,M,M,M,M,26.00,180.00,2025-03-13 12:03,24.01,KTPH 131216Z AUTO 18017KT 10SM FEW009 BKN015 OVC023 02/00 A2961 RMK AO2 PK WND 18026/1203 T00170000 $,M
10U,2025-03-13 12:20,-116.1876,41.9532,1637.00,30.20,28.40,92.92,200.00,12.00,0.00,29.61,M,3.00,20.00,FEW,FEW,SCT,M,300.00,1000.00,2100.00,M,-SN,M,M,M,M,M,M,19.71,K10U 131220Z AUTO 20012G20KT 3SM -SN FEW003 FEW010 SCT021 M01/M02 A2961 RMK AO2,M
EKO,2025-03-13 12:23,-115.7860,40.8242,1367.00,34.00,32.00,92.29,220.00,7.00,0.01,29.58,M,7.00,M,FEW,BKN,OVC,M,2400.00,3200.00,4500.00,M,-SN,M,M,M,M,M,M,27.22,KEKO 131223Z AUTO 22007KT 7SM -SN FEW024 BKN032 OVC045 01/00 A2958 RMK AO2 P0001 T00110000,M
MEV,2025-03-13 12:25,-119.7500,38.9963,1441.42,30.20,26.60,86.28,0.00,0.00,0.00,29.63,M,10.00,M,SCT,BKN,OVC,M,5500.00,7500.00,11000.00,M,M,M,M,M,M,M,M,30.20,KMEV 131225Z AUTO 00000KT 10SM SCT055 BKN075 OVC110 M01/M03 A2963 RMK AO2,M
TMT,2025-03-13 12:30,-117.1971,39.4643,1749.34,29.00,28.00,95.99,360.00,3.00,0.00,29.62,M,0.75,M,OVC,M,M,M,600.00,M,M,M,SN,M,M,M,M,M,M,25.26,KTMT 131230Z AUTO 36003KT 3/4SM SN OVC006 M02/M02 A2962 RMK AO2 T10171022,M
BVU,2025-03-13 12:35,-114.8611,35.9475,671.00,55.40,39.20,54.34,180.00,16.00,0.00,29.71,M,10.00,26.00,BKN,OVC,M,M,4900.00,5500.00,M,M,M,M,M,M,M,M,M,55.40,KBVU 131235Z AUTO 18016G26KT 10SM BKN049 OVC055 13/04 A2971 RMK AO2,M
BAM,2025-03-13 12:35,-116.8743,40.5990,1382.36,33.80,33.80,100.00,210.00,5.00,0.00,29.63,M,4.00,M,SCT,BKN,OVC,M,1400.00,2100.00,2800.00,M,M,M,M,M,M,M,M,28.53,KBAM 131235Z AUTO 21005KT 4SM SCT014 BKN021 OVC028 01/01 A2963 RMK AO1,M
CXP,2025-03-13 12:35,-119.7326,39.1923,1431.00,30.20,26.60,86.28,0.00,0.00,0.00,29.65,M,10.00,M,SCT,BKN,OVC,M,2200.00,3400.00,7500.00,M,M,M,M,M,M,M,M,30.20,KCXP 131235Z AUTO 00000KT 10SM SCT022 BKN034 OVC075 M01/M03 A2965 RMK AO2,M
RTS,2025-03-13 12:35,-119.8764,39.6682,1539.00,28.40,24.80,86.18,0.00,0.00,0.00,29.64,M,10.00,M,SCT,BKN,OVC,M,2100.00,2500.00,7500.00,M,M,M,M,M,M,M,M,28.40,KRTS 131235Z AUTO 00000KT 10SM SCT021 BKN025 OVC075 M02/M04 A2964 RMK AO2,M
HTH,2025-03-13 12:35,-118.6315,38.5448,1282.89,41.00,26.60,56.22,80.00,8.00,0.00,29.59,M,10.00,M,OVC,M,M,M,7000.00,M,M,M,M,M,M,M,M,M,M,35.20,KHTH 131235Z AUTO 08008KT 10SM OVC070 05/M03 A2959 RMK A01,M
TPH,2025-03-13 12:37,-117.0904,38.0505,1654.00,34.00,32.00,92.29,180.00,16.00,T,29.61,M,10.00,24.00,BKN,OVC,M,M,800.00,2000.00,M,M,-SN,M,M,M,26.00,180.00,2025-03-13 12:03,23.03,KTPH 131237Z AUTO 18016G24KT 10SM -SN BKN008 OVC020 01/00 A2961 RMK AO2 PK WND 18026/1203 SNB37 P0000 T00110000 $,M
10U,2025-03-13 12:40,-116.1876,41.9532,1637.00,28.40,26.60,92.86,190.00,11.00,0.00,29.61,M,8.00,18.00,FEW,SCT,BKN,M,1800.00,2400.00,3200.00,M,UP,M,M,M,M,M,M,17.92,K10U 131240Z AUTO 19011G18KT 8SM UP FEW018 SCT024 BKN032 M02/M03 A2961 RMK AO2,M
TPH,2025-03-13 12:46,-117.0904,38.0505,1654.00,34.00,32.00,92.29,180.00,13.00,T,29.60,M,9.00,M,BKN,BKN,OVC,M,600.00,1800.00,2200.00,M,-SN,M,M,M,26.00,180.00,2025-03-13 12:03,24.13,KTPH 131246Z AUTO 18013KT 9SM -SN BKN006 BKN018 OVC022 01/00 A2960 RMK AO2 PK WND 18026/1203 SNB37 P0000 T00110000 $,M
TMT,2025-03-13 12:50,-117.1971,39.4643,1749.34,28.40,28.00,98.37,350.00,3.00,0.00,29.62,M,0.75,M,OVC,M,M,M,600.00,M,M,M,+SN,M,M,M,M,M,M,24.57,KTMT 131250Z AUTO 35003KT 3/4SM +SN OVC006 M02/M02 A2962 RMK AO2 T10201023,M
DRA,2025-03-13 12:53,-116.0278,36.6206,1009.00,49.00,35.00,58.30,230.00,12.00,0.00,29.63,1000.90,10.00,21.00,FEW,SCT,BKN,M,7500.00,9000.00,11000.00,M,M,M,M,M,30.00,180.00,2025-03-13 11:55,43.64,KDRA 131253Z AUTO 23012G21KT 10SM FEW075 SCT090 BKN110 09/02 A2963 RMK AO2 PK WND 18030/1155 SLP009 T00940017,M
ELY,2025-03-13 12:53,-114.8453,39.2950,1909.00,M,M,M,150.00,23.00,T,29.59,M,10.00,37.00,BKN,OVC,M,M,4300.00,5000.00,M,M,-RA,M,M,M,38.00,160.00,2025-03-13 12:15,M,KELY 131253Z AUTO 15023G37KT 10SM -RA BKN043 OVC050 A2959 RMK AO2 PK WND 16038/1215 RAB11 SLPNO P0000 $,M
VGT,2025-03-13 12:53,-115.1933,36.2111,667.00,55.00,39.00,54.70,130.00,14.00,0.00,29.68,1005.90,10.00,M,OVC,M,M,M,5500.00,M,M,M,M,M,M,M,M,M,M,55.00,KVGT 131253Z AUTO 13014KT 10SM OVC055 13/04 A2968 RMK AO2 SLP059 T01280039,M
LOL,2025-03-13 12:53,-118.5701,40.0684,1192.43,34.00,30.00,85.11,0.00,0.00,0.00,29.62,1002.40,10.00,M,OVC,M,M,M,10000.00,M,M,M,M,M,M,M,M,M,M,34.00,KLOL 131253Z AUTO 00000KT 10SM OVC100 01/M01 A2962 RMK AO2 SLP024 T00111011,M
P68,2025-03-13 12:53,-116.0056,39.6014,1993.00,38.00,28.00,66.94,190.00,17.00,0.00,29.56,997.60,M,24.00,M,M,M,M,M,M,M,M,M,M,M,M,M,M,M,27.94,KP68 131253Z AUTO 19017G24KT 03/M02 A2956 RMK AO1 SLP976 T00331022,M
BVU,2025-03-13 12:55,-114.8611,35.9475,671.00,55.40,39.20,54.34,180.00,11.00,0.00,29.72,M,10.00,19.00,BKN,OVC,M,M,4300.00,5000.00,M,M,M,M,M,M,M,M,M,55.40,KBVU 131255Z AUTO 18011G19KT 10SM BKN043 OVC050 13/04 A2972 RMK AO2,M
RNO,2025-03-13 12:55,-119.7711,39.4839,1341.00,33.00,26.00,75.17,30.00,5.00,0.00,29.64,1002.90,10.00,M,FEW,BKN,OVC,M,2200.00,5000.00,15000.00,M,M,M,M,M,M,M,M,27.58,KRNO 131255Z 03005KT 10SM FEW022 BKN050 OVC150 01/M03 A2964 RMK AO2 SLP029 T00061033 $,M
LSV,2025-03-13 12:55,-115.0343,36.2362,570.00,57.60,37.40,46.76,180.00,21.00,0.00,29.66,1003.30,10.00,M,FEW,SCT,BKN,M,8500.00,13000.00,20000.00,M,M,M,M,M,29.00,190.00,2025-03-13 12:49,57.60,KLSV 131255Z 18021KT 10SM FEW085 SCT130 BKN200 14/03 A2966 RMK AO2A PK WND 19029/49 SLP033 T01420030 FZRANO $,M
BAM,2025-03-13 12:55,-116.8743,40.5990,1382.36,33.80,33.80,100.00,200.00,3.00,0.00,29.63,M,7.00,M,SCT,BKN,OVC,M,2300.00,3000.00,3600.00,M,M,M,M,M,M,M,M,30.75,KBAM 131255Z AUTO 20003KT 7SM SCT023 BKN030 OVC036 01/01 A2963 RMK AO1,M
CXP,2025-03-13 12:55,-119.7326,39.1923,1431.00,30.20,26.60,86.28,190.00,4.00,0.00,29.64,M,10.00,M,FEW,SCT,BKN,M,2700.00,5500.00,7500.00,M,M,M,M,M,M,M,M,25.32,KCXP 131255Z AUTO 19004KT 10SM FEW027 SCT055 BKN075 M01/M03 A2964 RMK AO2,M
RTS,2025-03-13 12:55,-119.8764,39.6682,1539.00,28.40,24.80,86.18,M,4.00,0.00,29.64,M,5.00,M,SCT,BKN,OVC,M,2200.00,3800.00,4500.00,M,-SN,M,M,M,M,M,M,23.22,KRTS 131255Z AUTO VRB04KT 5SM -SN SCT022 BKN038 OVC045 M02/M04 A2964 RMK AO2,M
MEV,2025-03-13 12:55,-119.7500,38.9963,1441.42,30.20,24.80,80.07,0.00,0.00,0.00,29.63,M,10.00,M,SCT,BKN,OVC,M,8000.00,10000.00,12000.00,M,M,M,M,M,M,M,M,30.20,KMEV 131255Z AUTO 00000KT 10SM SCT080 BKN100 OVC120 M01/M04 A2963 RMK AO2,M
HTH,2025-03-13 12:55,-118.6315,38.5448,1282.89,41.00,26.60,56.22,170.00,7.00,0.00,29.58,M,10.00,M,FEW,OVC,M,M,5500.00,7000.00,M,M,M,M,M,M,M,M,M,35.75,KHTH 131255Z AUTO 17007KT 10SM FEW055 OVC070 05/M03 A2958 RMK A01,M
INS,2025-03-13 12:55,-115.6733,36.5872,955.00,53.60,32.00,43.61,170.00,7.00,0.00,29.62,1000.20,10.00,16.00,BKN,M,M,M,8000.00,M,M,M,M,M,M,M,29.00,110.00,2025-03-13 12:41,53.60,KINS 131255Z AUTO 17007G16KT 10SM BKN080 12/00 A2962 RMK AO2 PK WND 11029/41 SLP002 T01200001 $,M
EKO,2025-03-13 12:56,-115.7860,40.8242,1367.00,34.00,31.00,88.63,260.00,8.00,0.01,29.60,1001.20,4.00,M,OVC,M,M,M,3100.00,M,M,M,-SN BR,M,M,M,M,M,M,26.58,KEKO 131256Z AUTO 26008KT 4SM -SN BR OVC031 01/M01 A2960 RMK AO2 SLP012 P0001 T00111006,M
HND,2025-03-13 12:56,-115.1344,35.9729,742.79,52.00,37.00,56.45,160.00,13.00,0.00,29.72,1007.10,10.00,19.00,SCT,M,M,M,4800.00,M,M,M,M,M,M,M,M,M,M,52.00,KHND 131256Z AUTO 16013G19KT 10SM SCT048 11/03 A2972 RMK AO2 SLP071 T01110028 $,M
TPH,2025-03-13 12:56,-117.0904,38.0505,1654.00,34.00,32.00,92.29,180.00,13.00,T,29.60,1000.80,7.00,M,BKN,OVC,M,M,600.00,1700.00,M,M,-SN,M,M,M,26.00,180.00,2025-03-13 12:03,24.13,KTPH 131256Z AUTO 18013KT 7SM -SN BKN006 OVC017 01/00 A2960 RMK AO2 PK WND 18026/1203 SNB37 SLP008 P0000 T00110000 $,M
LAS,2025-03-13 12:56,-115.1634,36.0719,663.00,55.00,37.00,50.58,170.00,11.00,0.00,29.70,1004.70,10.00,20.00,FEW,BKN,BKN,M,6000.00,12000.00,25000.00,M,M,M,M,M,M,M,M,55.00,KLAS 131256Z 17011G20KT 10SM FEW060 BKN120 BKN250 13/03 A2970 RMK AO2 SLP047 T01280028 $,M
WMC,2025-03-13 12:56,-117.8072,40.9019,1315.00,M,M,M,M,M,0.00,M,M,M,M,M,M,M,M,M,M,M,M,M,M,M,M,M,M,M,M,KWMC 131256Z AUTO RMK AO2 SLPNO PWINO FZRANO TSNO $,M
LSV,2025-03-13 12:56,-115.0343,36.2362,570.00,57.40,37.40,47.10,170.00,20.00,0.00,29.66,1003.30,10.00,M,FEW,SCT,BKN,M,8000.00,13000.00,20000.00,M,M,M,M,M,M,M,M,57.40,KLSV 131256Z COR 17020KT 10SM FEW080 SCT130 BKN200 14/03 A2966 RMK SLP033 T01410030 FZRANO $ COR 1257,M
NFL,2025-03-13 12:57,-118.7010,39.4166,1199.00,37.00,25.00,61.50,20.00,6.00,0.00,29.62,1001.40,10.00,M,SCT,M,M,M,12000.00,M,M,M,M,M,M,M,M,M,M,31.55,KNFL 131257Z AUTO 02006KT 10SM SCT120 03/M04 A2962 RMK AO2 SLP014 T00281039,M
10U,2025-03-13 13:00,-116.1876,41.9532,1637.00,30.20,26.60,86.28,180.00,11.00,0.00,29.60,M,10.00,M,FEW,BKN,OVC,M,2400.00,3300.00,4000.00,M,M,M,M,M,M,M,M,20.19,K10U 131300Z AUTO 18011KT 10SM FEW024 BKN033 OVC040 M01/M03 A2960 RMK AO2,M
EKO,2025-03-13 13:01,-115.7860,40.8242,1367.00,34.00,31.00,88.63,260.00,8.00,T,29.60,M,2.50,M,OVC,M,M,M,2900.00,M,M,M,-SN BR,M,M,M,M,M,M,26.58,KEKO 131301Z AUTO 26008KT 2 1/2SM -SN BR OVC029 01/M01 A2960 RMK AO2 P0000 T00111006,M
TMT,2025-03-13 13:10,-117.1971,39.4643,1749.34,28.00,27.00,95.97,310.00,6.00,0.00,29.62,M,0.75,M,OVC,M,M,M,600.00,M,M,M,SN,M,M,M,M,M,M,20.71,KTMT 131310Z AUTO 31006KT 3/4SM SN OVC006 M02/M03 A2962 RMK AO2 T10221027,M
BVU,2025-03-13 13:15,-114.8611,35.9475,671.00,55.40,39.20,54.34,180.00,14.00,0.00,29.72,M,10.00,20.00,BKN,BKN,OVC,M,4300.00,5000.00,6000.00,M,M,M,M,M,M,M,M,55.40,KBVU 131315Z AUTO 18014G20KT 10SM BKN043 BKN050 OVC060 13/04 A2972 RMK AO2,M
BAM,2025-03-13 13:15,-116.8743,40.5990,1382.36,33.80,33.80,100.00,0.00,0.00,0.00,29.63,M,10.00,M,BKN,OVC,M,M,3400.00,4000.00,M,M,M,M,M,M,M,M,M,33.80,KBAM 131315Z AUTO 00000KT 10SM BKN034 OVC040 01/01 A2963 RMK AO1,M
CXP,2025-03-13 13:15,-119.7326,39.1923,1431.00,30.20,26.60,86.28,0.00,0.00,0.00,29.65,M,10.00,M,FEW,OVC,M,M,8000.00,11000.00,M,M,M,M,M,M,M,M,M,30.20,KCXP 131315Z AUTO 00000KT 10SM FEW080 OVC110 M01/M03 A2965 RMK AO2,M
RTS,2025-03-13 13:15,-119.8764,39.6682,1539.00,28.40,24.80,86.18,340.00,5.00,0.00,29.64,M,10.00,M,SCT,BKN,OVC,M,3700.00,4700.00,5500.00,M,M,M,M,M,M,M,M,22.12,KRTS 131315Z AUTO 34005KT 10SM SCT037 BKN047 OVC055 M02/M04 A2964 RMK AO2,M
MEV,2025-03-13 13:15,-119.7500,38.9963,1441.42,30.20,24.80,80.07,0.00,0.00,0.00,29.63,M,10.00,M,SCT,BKN,OVC,M,4000.00,5000.00,10000.00,M,M,M,M,M,M,M,M,30.20,KMEV 131315Z AUTO 00000KT 10SM SCT040 BKN050 OVC100 M01/M04 A2963 RMK AO2,M
HTH,2025-03-13 13:15,-118.6315,38.5448,1282.89,41.00,19.40,41.54,180.00,12.00,0.00,29.58,M,10.00,M,SCT,OVC,M,M,7000.00,7500.00,M,M,M,M,M,M,M,M,M,33.46,KHTH 131315Z AUTO 18012KT 10SM SCT070 OVC075 05/M07 A2958 RMK A01,M
RNO,2025-03-13 13:19,-119.7711,39.4839,1341.00,32.00,28.00,84.98,360.00,7.00,T,29.64,M,9.00,M,FEW,BKN,OVC,M,2100.00,5000.00,15000.00,M,-SN,M,M,M,M,M,M,24.78,KRNO 131319Z 36007KT 9SM -SN FEW021 BKN050 OVC150 00/M02 A2964 RMK AO2 SNB16 P0000 T00001022 $,M
10U,2025-03-13 13:20,-116.1876,41.9532,1637.00,30.20,24.80,80.07,190.00,16.00,0.00,29.59,M,10.00,M,SCT,BKN,OVC,M,3300.00,4400.00,6500.00,M,M,M,M,M,M,M,M,18.07,K10U 131320Z AUTO 19016KT 10SM SCT033 BKN044 OVC065 M01/M04 A2959 RMK AO2,M
TMT,2025-03-13 13:30,-117.1971,39.4643,1749.34,27.50,26.60,96.36,330.00,6.00,0.00,29.63,M,1.00,M,OVC,M,M,M,600.00,M,M,M,-SN,M,M,M,M,M,M,20.11,KTMT 131330Z AUTO 33006KT 1SM -SN OVC006 M02/M03 A2963 RMK AO2 T10251030,M
BVU,2025-03-13 13:35,-114.8611,35.9475,671.00,55.40,39.20,54.34,170.00,14.00,0.00,29.73,M,10.00,21.00,BKN,OVC,M,M,4400.00,5000.00,M,M,M,M,M,M,M,M,M,55.40,KBVU 131335Z AUTO 17014G21KT 10SM BKN044 OVC050 13/04 A2973 RMK AO2,M
CXP,2025-03-13 13:35,-119.7326,39.1923,1431.00,30.20,26.60,86.28,320.00,8.00,0.00,29.64,M,10.00,M,SCT,BKN,OVC,M,3800.00,5000.00,11000.00,M,M,M,M,M,M,M,M,21.90,KCXP 131335Z AUTO 32008KT 10SM SCT038 BKN050 OVC110 M01/M03 A2964 RMK AO2,M
RTS,2025-03-13 13:35,-119.8764,39.6682,1539.00,28.40,23.00,79.92,340.00,4.00,0.00,29.64,M,10.00,M,BKN,OVC,M,M,3400.00,3900.00,M,M,M,M,M,M,M,M,M,23.22,KRTS 131335Z AUTO 34004KT 10SM BKN034 OVC039 M02/M05 A2964 RMK AO2,M
MEV,2025-03-13 13:35,-119.7500,38.9963,1441.42,28.40,26.60,92.86,50.00,4.00,0.00,29.63,M,10.00,M,FEW,SCT,BKN,M,3900.00,5500.00,12000.00,M,M,M,M,M,M,M,M,23.22,KMEV 131335Z AUTO 05004KT 10SM FEW039 SCT055 BKN120 M02/M03 A2963 RMK AO2,M
BAM,2025-03-13 13:35,-116.8743,40.5990,1382.36,33.80,33.80,100.00,320.00,3.00,0.00,29.63,M,10.00,M,BKN,OVC,M,M,3000.00,3600.00,M,M,M,M,M,M,M,M,M,30.75,KBAM 131335Z AUTO 32003KT 10SM BKN030 OVC036 01/01 A2963 RMK AO1,M
HTH,2025-03-13 13:35,-118.6315,38.5448,1282.89,41.00,17.60,38.45,180.00,16.00,0.00,29.58,M,10.00,M,FEW,OVC,M,M,6500.00,7500.00,M,M,M,M,M,M,M,M,M,32.15,KHTH 131335Z AUTO 18016KT 10SM FEW065 OVC075 05/M08 A2958 RMK A01,M
ELY,2025-03-13 13:38,-114.8453,39.2950,1909.00,M,M,M,160.00,23.00,T,29.59,M,10.00,31.00,OVC,M,M,M,2700.00,M,M,M,-RA,M,M,M,35.00,160.00,2025-03-13 13:17,M,KELY 131338Z AUTO 16023G31KT 10SM -RA OVC027 A2959 RMK AO2 PK WND 16035/1317 P0000 $,M
10U,2025-03-13 13:40,-116.1876,41.9532,1637.00,30.20,24.80,80.07,200.00,11.00,0.00,29.59,M,10.00,21.00,FEW,OVC,M,M,4800.00,7000.00,M,M,M,M,M,M,M,M,M,20.19,K10U 131340Z AUTO 20011G21KT 10SM FEW048 OVC070 M01/M04 A2959 RMK AO2,M
NFL,2025-03-13 13:41,-118.7010,39.4166,1199.00,38.00,24.00,56.71,290.00,5.00,0.00,29.62,M,10.00,M,SCT,BKN,M,M,5000.00,11000.00,M,M,M,M,M,M,M,M,M,33.52,KNFL 131341Z 29005KT 10SM SCT050 BKN110 03/M04 A2962 RMK AO2 T00331044,M
TPH,2025-03-13 13:46,-117.0904,38.0505,1654.00,33.00,32.00,96.06,170.00,12.00,T,29.58,M,5.00,M,OVC,M,M,M,400.00,M,M,M,-SN BR,M,M,M,M,M,M,23.27,KTPH 131346Z AUTO 17012KT 5SM -SN BR OVC004 01/00 A2958 RMK AO2 P0000 T00060000 $,M
TMT,2025-03-13 13:50,-117.1971,39.4643,1749.34,27.30,26.20,95.56,340.00,5.00,0.00,29.63,M,1.75,M,OVC,M,M,M,800.00,M,M,M,-SN,M,M,M,M,M,M,20.81,KTMT 131350Z AUTO 34005KT 1 3/4SM -SN OVC008 M03/M03 A2963 RMK AO2 T10261032,M
P68,2025-03-13 13:53,-116.0056,39.6014,1993.00,38.00,28.00,66.94,210.00,6.00,0.00,29.55,997.60,M,M,M,M,M,M,M,M,M,M,M,M,M,M,27.00,200.00,2025-03-13 12:58,32.76,KP68 131353Z AUTO 21006KT 03/M02 A2955 RMK AO1 PK WND 20027/1258 SLP976 T00331022,M
DRA,2025-03-13 13:53,-116.0278,36.6206,1009.00,49.00,36.00,60.66,220.00,16.00,0.00,29.64,1001.30,10.00,25.00,OVC,M,M,M,7500.00,M,M,M,M,M,M,M,M,M,M,42.58,KDRA 131353Z AUTO 22016G25KT 10SM OVC075 09/02 A2964 RMK AO2 SLP013 T00940022,M
ELY,2025-03-13 13:53,-114.8453,39.2950,1909.00,M,M,M,150.00,20.00,T,29.59,M,10.00,27.00,OVC,M,M,M,2300.00,M,M,M,-RA,M,M,M,35.00,160.00,2025-03-13 13:17,M,KELY 131353Z AUTO 15020G27KT 10SM -RA OVC023 A2959 RMK AO2 PK WND 16035/1317 SLPNO P0000 $,M
VGT,2025-03-13 13:53,-115.1933,36.2111,667.00,55.00,38.00,52.60,150.00,16.00,0.00,29.67,1005.50,10.00,M,OVC,M,M,M,11000.00,M,M,M,M,M,M,M,M,M,M,55.00,KVGT 131353Z 15016KT 10SM OVC110 13/03 A2967 RMK AO2 SLP055 T01280033,M
LOL,2025-03-13 13:53,-118.5701,40.0684,1192.43,33.00,29.00,85.04,0.00,0.00,0.00,29.62,1002.60,10.00,M,CLR,M,M,M,M,M,M,M,M,M,M,M,M,M,M,33.00,KLOL 131353Z AUTO 00000KT 10SM CLR 01/M02 A2962 RMK AO2 SLP026 T00061017,M
BVU,2025-03-13 13:55,-114.8611,35.9475,671.00,55.40,37.40,50.64,170.00,19.00,0.00,29.71,M,10.00,M,OVC,M,M,M,4700.00,M,M,M,M,M,M,M,M,M,M,55.40,KBVU 131355Z AUTO 17019KT 10SM OVC047 13/03 A2971 RMK AO2,M
RNO,2025-03-13 13:55,-119.7711,39.4839,1341.00,32.00,27.00,81.55,0.00,0.00,T,29.63,1003.00,9.00,M,FEW,BKN,OVC,M,2100.00,5000.00,15000.00,M,M,M,M,M,M,M,M,32.00,KRNO 131355Z 00000KT 9SM FEW021 BKN050 OVC150 00/M03 A2963 RMK AO2 SNB16E53 SLP030 P0000 T00001028 $,M
BAM,2025-03-13 13:55,-116.8743,40.5990,1382.36,33.80,33.80,100.00,290.00,4.00,0.00,29.63,M,10.00,M,SCT,BKN,OVC,M,1500.00,3700.00,5500.00,M,M,M,M,M,M,M,M,29.52,KBAM 131355Z AUTO 29004KT 10SM SCT015 BKN037 OVC055 01/01 A2963 RMK AO1,M
CXP,2025-03-13 13:55,-119.7326,39.1923,1431.00,30.20,26.60,86.28,0.00,0.00,0.00,29.65,M,10.00,M,FEW,BKN,OVC,M,3500.00,4100.00,5000.00,M,M,M,M,M,M,M,M,30.20,KCXP 131355Z AUTO 00000KT 10SM FEW035 BKN041 OVC050 M01/M03 A2965 RMK AO2,M
RTS,2025-03-13 13:55,-119.8764,39.6682,1539.00,28.40,23.00,79.92,330.00,3.00,0.00,29.64,M,10.00,M,BKN,BKN,M,M,3600.00,11000.00,M,M,M,M,M,M,M,M,M,24.57,KRTS 131355Z AUTO 33003KT 10SM BKN036 BKN110 M02/M05 A2964 RMK AO2,M
MEV,2025-03-13 13:55,-119.7500,38.9963,1441.42,26.60,24.80,92.80,90.00,4.00,0.00,29.63,M,10.00,M,FEW,SCT,M,M,6000.00,12000.00,M,M,M,M,M,M,M,M,M,21.11,KMEV 131355Z AUTO 09004KT 10SM FEW060 SCT120 M03/M04 A2963 RMK AO2,M
HTH,2025-03-13 13:55,-118.6315,38.5448,1282.89,41.00,19.40,41.54,160.00,11.00,0.00,29.59,M,10.00,18.00,SCT,BKN,OVC,M,8000.00,10000.00,12000.00,M,M,M,M,M,M,M,M,33.84,KHTH 131355Z AUTO 16011G18KT 10SM SCT080 BKN100 OVC120 05/M07 A2959 RMK A01,M
INS,2025-03-13 13:55,-115.6733,36.5872,955.00,54.00,30.20,39.96,170.00,3.00,0.00,29.60,999.70,10.00,M,OVC,M,M,M,8000.00,M,M,M,M,M,M,M,26.00,110.00,2025-03-13 13:23,54.00,KINS 131355Z AUTO 17003KT 10SM OVC080 12/M01 A2960 RMK AO2 PK WND 11026/23 SLP997 T01221010 $,M
LSV,2025-03-13 13:55,-115.0343,36.2362,570.00,57.00,38.00,48.93,170.00,16.00,0.00,29.65,1002.90,10.00,24.00,BKN,M,M,M,12000.00,M,M,M,M,M,M,M,28.00,190.00,2025-03-13 13:03,57.00,KLSV 131355Z 17016G24KT 10SM BKN120 14/03 A2965 RMK AO2A PK WND 19028/03 SLP029 T01380033 FZRANO $,M
EKO,2025-03-13 13:56,-115.7860,40.8242,1367.00,33.00,31.00,92.25,280.00,4.00,0.01,29.60,1001.60,3.00,15.00,OVC,M,M,M,2900.00,M,M,M,-SN BR,M,M,M,M,M,M,28.59,KEKO 131356Z AUTO 28004G15KT 3SM -SN BR OVC029 01/M01 A2960 RMK AO2 SLP016 P0001 T00061006,M
HND,2025-03-13 13:56,-115.1344,35.9729,742.79,52.00,37.00,56.45,160.00,19.00,0.00,29.70,1006.50,10.00,22.00,BKN,M,M,M,11000.00,M,M,M,M,M,M,M,M,M,M,52.00,KHND 131356Z 16019G22KT 10SM BKN110 11/03 A2970 RMK AO2 SLP065 T01110028 $,M
TPH,2025-03-13 13:56,-117.0904,38.0505,1654.00,33.00,32.00,96.06,160.00,10.00,T,29.58,1000.40,7.00,M,OVC,M,M,M,400.00,M,M,M,-SN,M,M,M,M,M,M,24.22,KTPH 131356Z AUTO 16010KT 7SM -SN OVC004 01/00 A2958 RMK AO2 SLP004 P0000 T00060000 $,M
LAS,2025-03-13 13:56,-115.1634,36.0719,663.00,55.00,37.00,50.58,170.00,11.00,0.00,29.69,1004.20,10.00,24.00,SCT,BKN,M,M,6000.00,12000.00,M,M,M,M,M,M,26.00,160.00,2025-03-13 13:23,55.00,KLAS 131356Z 17011G24KT 10SM SCT060 BKN120 13/03 A2969 RMK AO2 PK WND 16026/1323 SLP042 T01280028 $,M
WMC,2025-03-13 13:56,-117.8072,40.9019,1315.00,M,M,M,M,M,0.00,M,M,M,M,M,M,M,M,M,M,M,M,M,M,M,M,M,M,M,M,KWMC 131356Z AUTO RMK AO2 SLPNO PWINO FZRANO TSNO $,M
NFL,2025-03-13 13:57,-118.7010,39.4166,1199.00,37.00,23.00,56.57,270.00,5.00,0.00,29.62,1001.50,10.00,M,SCT,BKN,M,M,5000.00,11000.00,M,M,M,M,M,M,M,M,M,32.33,KNFL 131357Z 27005KT 10SM SCT050 BKN110 03/M05 A2962 RMK AO2 SLP015 T00281050,M
10U,2025-03-13 14:00,-116.1876,41.9532,1637.00,30.20,24.80,80.07,210.00,6.00,0.00,29.59,M,10.00,15.00,BKN,OVC,M,M,7000.00,8500.00,M,M,M,M,M,M,M,M,M,23.36,K10U 131400Z AUTO 21006G15KT 10SM BKN070 OVC085 M01/M04 A2959 RMK AO2,M
EKO,2025-03-13 14:06,-115.7860,40.8242,1367.00,33.00,30.00,88.58,220.00,3.00,T,29.60,M,6.00,M,OVC,M,M,M,3300.00,M,M,M,-SN BR,M,M,M,M,M,M,29.83,KEKO 131406Z AUTO 22003KT 6SM -SN BR OVC033 01/M01 A2960 RMK AO2 P0000 T00061011,M
TMT,2025-03-13 14:10,-117.1971,39.4643,1749.34,27.00,26.40,97.55,350.00,6.00,0.00,29.63,M,1.25,M,OVC,M,M,M,1000.00,M,M,M,-SN,M,M,M,M,M,M,19.51,KTMT 131410Z AUTO 35006KT 1 1/4SM -SN OVC010 M03/M03 A2963 RMK AO2 T10271031,M
CXP,2025-03-13 14:10,-119.7326,39.1923,1431.00,30.20,24.80,80.07,0.00,0.00,0.00,29.65,M,10.00,M,FEW,SCT,OVC,M,4200.00,4800.00,5500.00,M,M,M,M,M,M,M,M,30.20,KCXP 131410Z AUTO 00000KT 10SM FEW042 SCT048 OVC055 M01/M04 A2965 RMK AO2,M
BVU,2025-03-13 14:15,-114.8611,35.9475,671.00,55.40,37.40,50.64,150.00,15.00,0.00,29.71,M,10.00,22.00,BKN,BKN,OVC,M,4900.00,6000.00,9500.00,M,M,M,M,M,M,M,M,55.40,KBVU 131415Z AUTO 15015G22KT 10SM BKN049 BKN060 OVC095 13/03 A2971 RMK AO2,M
BAM,2025-03-13 14:15,-116.8743,40.5990,1382.36,33.80,32.00,93.03,240.00,7.00,0.00,29.63,M,10.00,M,BKN,OVC,M,M,6000.00,7000.00,M,M,M,M,M,M,M,M,M,26.97,KBAM 131415Z AUTO 24007KT 10SM BKN060 OVC070 01/00 A2963 RMK AO1,M
RTS,2025-03-13 14:15,-119.8764,39.6682,1539.00,26.60,23.00,86.07,0.00,0.00,0.00,29.63,M,10.00,M,FEW,FEW,FEW,M,2300.00,3600.00,11000.00,M,M,M,M,M,M,M,M,26.60,KRTS 131415Z AUTO 00000KT 10SM FEW023 FEW036 FEW110 M03/M05 A2963 RMK AO2,M
MEV,2025-03-13 14:15,-119.7500,38.9963,1441.42,28.40,24.80,86.18,M,5.00,0.00,29.63,M,10.00,13.00,FEW,FEW,M,M,4900.00,12000.00,M,M,M,M,M,M,M,M,M,22.12,KMEV 131415Z AUTO VRB05G13KT 10SM FEW049 FEW120 M02/M04 A2963 RMK AO2,M
HTH,2025-03-13 14:15,-118.6315,38.5448,1282.89,41.00,19.40,41.54,250.00,6.00,0.00,29.59,M,10.00,M,FEW,SCT,M,M,9000.00,11000.00,M,M,M,M,M,M,M,M,M,36.37,KHTH 131415Z AUTO 25006KT 10SM FEW090 SCT110 05/M07 A2959 RMK A01,M
10U,2025-03-13 14:20,-116.1876,41.9532,1637.00,30.20,24.80,80.07,200.00,8.00,0.00,29.60,M,10.00,M,BKN,OVC,M,M,7500.00,8500.00,M,M,M,M,M,M,M,M,M,21.90,K10U 131420Z AUTO 20008KT 10SM BKN075 OVC085 M01/M04 A2960 RMK AO2,M
EKO,2025-03-13 14:22,-115.7860,40.8242,1367.00,33.00,31.00,92.25,220.00,3.00,T,29.60,M,2.50,M,OVC,M,M,M,2900.00,M,M,M,-SN BR,M,M,M,M,M,M,29.83,KEKO 131422Z AUTO 22003KT 2 1/2SM -SN BR OVC029 01/M01 A2960 RMK AO2 P0000 T00061006,M
TMT,2025-03-13 14:30,-117.1971,39.4643,1749.34,27.00,25.70,94.76,340.00,6.00,0.00,29.63,M,1.00,M,OVC,M,M,M,1000.00,M,M,M,-SN,M,M,M,M,M,M,19.51,KTMT 131430Z AUTO 34006KT 1SM -SN OVC010 M03/M03 A2963 RMK AO2 T10281035,M
EKO,2025-03-13 14:32,-115.7860,40.8242,1367.00,32.00,31.00,96.04,190.00,3.00,T,29.61,M,1.25,M,OVC,M,M,M,2300.00,M,M,M,-SN BR,M,M,M,M,M,M,28.69,KEKO 131432Z AUTO 19003KT 1 1/4SM -SN BR OVC023 00/M01 A2961 RMK AO2 P0000 T00001006,M
BVU,2025-03-13 14:35,-114.8611,35.9475,671.00,53.60,37.40,54.07,180.00,12.00,0.00,29.71,M,10.00,19.00,FEW,OVC,M,M,4900.00,10000.00,M,M,M,M,M,M,M,M,M,53.60,KBVU 131435Z AUTO 18012G19KT 10SM FEW049 OVC100 12/03 A2971 RMK AO2,M
CXP,2025-03-13 14:35,-119.7326,39.1923,1431.00,30.20,24.80,80.07,330.00,4.00,0.00,29.65,M,10.00,M,FEW,SCT,BKN,M,2700.00,3300.00,5500.00,M,M,M,M,M,M,M,M,25.32,KCXP 131435Z AUTO 33004KT 10SM FEW027 SCT033 BKN055 M01/M04 A2965 RMK AO2,M
RTS,2025-03-13 14:35,-119.8764,39.6682,1539.00,26.60,21.20,79.77,10.00,7.00,0.00,29.64,M,10.00,M,SCT,SCT,M,M,2100.00,3300.00,M,M,M,M,M,M,M,M,M,18.20,KRTS 131435Z AUTO 01007KT 10SM SCT021 SCT033 M03/M06 A2964 RMK AO2,M
MEV,2025-03-13 14:35,-119.7500,38.9963,1441.42,30.20,23.00,74.26,40.00,4.00,0.00,29.64,M,10.00,M,BKN,BKN,M,M,6500.00,8000.00,M,M,M,M,M,M,M,M,M,25.32,KMEV 131435Z AUTO 04004KT 10SM BKN065 BKN080 M01/M05 A2964 RMK AO2,M
BAM,2025-03-13 14:35,-116.8743,40.5990,1382.36,33.80,32.00,93.03,210.00,5.00,0.00,29.63,M,10.00,M,SCT,OVC,M,M,4800.00,6000.00,M,M,M,M,M,M,M,M,M,28.53,KBAM 131435Z AUTO 21005KT 10SM SCT048 OVC060 01/00 A2963 RMK AO1,M
HTH,2025-03-13 14:35,-118.6315,38.5448,1282.89,39.20,28.40,64.93,0.00,0.00,0.00,29.60,M,10.00,M,CLR,M,M,M,M,M,M,M,M,M,M,M,M,M,M,39.20,KHTH 131435Z AUTO 00000KT 10SM CLR 04/M02 A2960 RMK A01,M
TPH,2025-03-13 14:37,-117.0904,38.0505,1654.00,34.00,32.00,92.29,170.00,11.00,T,29.58,M,9.00,M,BKN,OVC,M,M,600.00,1200.00,M,M,M,M,M,M,M,M,M,24.99,KTPH 131437Z AUTO 17011KT 9SM BKN006 OVC012 01/00 A2958 RMK AO2 SNE03 P0000 T00110000 $,M
10U,2025-03-13 14:40,-116.1876,41.9532,1637.00,30.20,24.80,80.07,200.00,6.00,0.00,29.60,M,10.00,18.00,BKN,OVC,M,M,7000.00,8000.00,M,M,M,M,M,M,M,M,M,23.36,K10U 131440Z AUTO 20006G18KT 10SM BKN070 OVC080 M01/M04 A2960 RMK AO2,M
ELY,2025-03-13 14:42,-114.8453,39.2950,1909.00,M,M,M,150.00,16.00,0.01,29.57,M,10.00,23.00,BKN,OVC,M,M,3700.00,5000.00,M,M,M,M,M,M,28.00,160.00,2025-03-13 14:05,M,KELY 131442Z AUTO 15016G23KT 10SM BKN037 OVC050 A2957 RMK AO2 PK WND 16028/1405 RAE42 P0001 $,M
INS,2025-03-13 14:44,-115.6733,36.5872,955.00,53.60,32.00,43.61,270.00,3.00,0.00,29.63,1000.70,10.00,M,SCT,BKN,OVC,M,4500.00,5000.00,7000.00,M,-DZ,M,M,M,M,M,M,53.60,KINS 131444Z AUTO 27003KT 10SM -DZ SCT045 BKN050 OVC070 12/00 A2963 RMK AO2 DZB44 SLP007 $,M
EKO,2025-03-13 14:45,-115.7860,40.8242,1367.00,32.00,31.00,96.04,0.00,0.00,T,29.61,M,0.75,M,VV ,M,M,M,1600.00,M,M,M,-SN BR,M,M,M,M,M,M,32.00,KEKO 131445Z AUTO 00000KT 3/4SM -SN BR VV016 00/M01 A2961 RMK AO2 P0000 T00001006,M
TMT,2025-03-13 14:50,-117.1971,39.4643,1749.34,26.60,25.70,96.34,0.00,0.00,0.00,29.63,M,0.50,M,OVC,M,M,M,1000.00,M,M,M,SN,M,M,M,M,M,M,26.60,KTMT 131450Z AUTO 00000KT 1/2SM SN OVC010 M03/M03 A2963 RMK AO2 T10301035,M
P68,2025-03-13 14:53,-116.0056,39.6014,1993.00,36.00,31.00,81.86,280.00,4.00,0.00,29.55,997.90,M,M,M,M,M,M,M,M,M,M,M,M,M,M,M,M,M,32.09,KP68 131453Z AUTO 28004KT 02/M01 A2955 RMK AO1 SLP979 T00221006 55003,M
DRA,2025-03-13 14:53,-116.0278,36.6206,1009.00,45.00,40.00,82.51,210.00,18.00,T,29.66,1002.30,10.00,27.00,FEW,BKN,OVC,M,2600.00,4900.00,6000.00,M,-RA,M,M,M,36.00,210.00,2025-03-13 14:18,36.86,KDRA 131453Z AUTO 21018G27KT 10SM -RA FEW026 BKN049 OVC060 07/04 A2966 RMK AO2 PK WND 21036/1418 RAB16 SLP023 P0000 60000 T00720044 53005,M
ELY,2025-03-13 14:53,-114.8453,39.2950,1909.00,M,M,M,150.00,19.00,0.01,29.57,M,10.00,25.00,BKN,OVC,M,M,4600.00,5500.00,M,M,M,M,M,M,28.00,160.00,2025-03-13 14:05,M,KELY 131453Z AUTO 15019G25KT 10SM BKN046 OVC055 A2957 RMK AO2 PK WND 16028/1405 RAE42 SLPNO P0001 60001 58008 $,M
VGT,2025-03-13 14:53,-115.1933,36.2111,667.00,55.00,37.00,50.58,140.00,14.00,0.00,29.67,1005.60,10.00,M,OVC,M,M,M,10000.00,M,M,M,M,M,M,M,M,M,M,55.00,KVGT 131453Z 14014KT 10SM OVC100 13/03 A2967 RMK AO2 SLP056 T01280028 55010,M
LOL,2025-03-13 14:53,-118.5701,40.0684,1192.43,32.00,28.00,84.98,190.00,4.00,0.00,29.63,1003.40,10.00,M,OVC,M,M,M,12000.00,M,M,M,M,M,M,M,M,M,M,27.42,KLOL 131453Z AUTO 19004KT 10SM OVC120 00/M02 A2963 RMK AO2 SLP034 T00001022 53005,M
BVU,2025-03-13 14:55,-114.8611,35.9475,671.00,53.60,37.40,54.07,190.00,11.00,0.00,29.71,M,10.00,18.00,OVC,M,M,M,9500.00,M,M,M,M,M,M,M,M,M,M,53.60,KBVU 131455Z AUTO 19011G18KT 10SM OVC095 12/03 A2971 RMK AO2,M
RNO,2025-03-13 14:55,-119.7711,39.4839,1341.00,33.00,24.00,69.16,220.00,4.00,0.00,29.63,1003.40,10.00,M,SCT,SCT,M,M,2500.00,7000.00,M,M,M,M,M,M,M,M,M,28.59,KRNO 131455Z 22004KT 10SM SCT025 SCT070 01/M04 A2963 RMK AO2 SLP034 60000 T00061044 58001,M
BAM,2025-03-13 14:55,-116.8743,40.5990,1382.36,33.80,32.00,93.03,240.00,6.00,0.00,29.63,M,10.00,M,BKN,OVC,M,M,6000.00,7000.00,M,M,M,M,M,M,M,M,M,27.70,KBAM 131455Z AUTO 24006KT 10SM BKN060 OVC070 01/00 A2963 RMK AO1,M
CXP,2025-03-13 14:55,-119.7326,39.1923,1431.00,30.20,24.80,80.07,0.00,0.00,0.00,29.65,M,10.00,M,BKN,BKN,M,M,3500.00,4000.00,M,M,M,M,M,M,M,M,M,30.20,KCXP 131455Z AUTO 00000KT 10SM BKN035 BKN040 M01/M04 A2965 RMK AO2,M
RTS,2025-03-13 14:55,-119.8764,39.6682,1539.00,28.40,21.20,74.08,M,4.00,0.00,29.64,M,10.00,M,FEW,SCT,SCT,M,1700.00,2200.00,3100.00,M,M,M,M,M,M,M,M,23.22,KRTS 131455Z AUTO VRB04KT 10SM FEW017 SCT022 SCT031 M02/M06 A2964 RMK AO2,M
MEV,2025-03-13 14:55,-119.7500,38.9963,1441.42,28.40,24.80,86.18,60.00,4.00,0.00,29.64,M,10.00,M,BKN,OVC,M,M,5500.00,6500.00,M,M,M,M,M,M,M,M,M,23.22,KMEV 131455Z AUTO 06004KT 10SM BKN055 OVC065 M02/M04 A2964 RMK AO2,M
HTH,2025-03-13 14:55,-118.6315,38.5448,1282.89,39.20,28.40,64.93,30.00,9.00,0.00,29.60,M,10.00,M,CLR,M,M,M,M,M,M,M,M,M,M,M,M,M,M,32.47,KHTH 131455Z AUTO 03009KT 10SM CLR 04/M02 A2960 RMK A01,M
INS,2025-03-13 14:55,-115.6733,36.5872,955.00,53.00,33.80,47.92,20.00,7.00,T,29.63,1000.90,10.00,M,FEW,BKN,OVC,M,3300.00,4800.00,7000.00,M,-DZ,M,M,M,M,M,M,53.00,KINS 131455Z AUTO 02007KT 10SM -DZ FEW033 BKN048 OVC070 12/01 A2963 RMK AO2 DZE1355DZB44 SLP009 P0000 60000 T01170010 55006 $,M
LSV,2025-03-13 14:55,-115.0343,36.2362,570.00,57.00,34.70,42.94,160.00,20.00,0.00,29.64,1002.60,10.00,26.00,SCT,BKN,M,M,5000.00,11000.00,M,M,M,M,M,M,28.00,190.00,2025-03-13 14:38,57.00,KLSV 131455Z 16020G26KT 10SM SCT050 BKN110 14/02 A2964 RMK AO2A PK WND 19028/38 SLP026 T01390015 57011 FZRANO $,M
EKO,2025-03-13 14:56,-115.7860,40.8242,1367.00,32.00,31.00,96.04,0.00,0.00,0.01,29.62,1002.40,0.50,M,VV ,M,M,M,1300.00,M,M,M,SN FG,M,M,M,M,M,M,32.00,KEKO 131456Z AUTO 00000KT 1/2SM SN FG VV013 00/M01 A2962 RMK AO2 SLP024 P0001 60003 T00001006 53009,M
HND,2025-03-13 14:56,-115.1344,35.9729,742.79,52.00,36.00,54.26,160.00,22.00,0.00,29.70,1006.50,10.00,29.00,BKN,M,M,M,10000.00,M,M,M,M,M,M,M,30.00,160.00,2025-03-13 14:36,52.00,KHND 131456Z 16022G29KT 10SM BKN100 11/02 A2970 RMK AO2 PK WND 16030/1436 SLP065 T01110022 56008 $,M
TPH,2025-03-13 14:56,-117.0904,38.0505,1654.00,34.00,32.00,92.29,160.00,12.00,T,29.57,1000.40,6.00,M,BKN,OVC,M,M,600.00,1000.00,M,M,-SN BR,M,M,M,M,M,M,24.55,KTPH 131456Z AUTO 16012KT 6SM -SN BR BKN006 OVC010 01/00 A2957 RMK AO2 SNE03B47 SLP004 P0000 60000 T00110000 58010 $,M
LAS,2025-03-13 14:56,-115.1634,36.0719,663.00,54.00,36.00,50.42,170.00,15.00,0.00,29.68,1004.00,10.00,28.00,FEW,SCT,BKN,M,4000.00,6000.00,10000.00,M,M,M,M,M,28.00,170.00,2025-03-13 14:52,54.00,KLAS 131456Z 17015G28KT 10SM FEW040 SCT060 BKN100 12/02 A2968 RMK AO2 PK WND 17028/1452 SLP040 VIRGA DSNT W BLDU DSNT E T01220022 58009,M
WMC,2025-03-13 14:56,-117.8072,40.9019,1315.00,M,M,M,M,M,0.00,M,M,M,M,M,M,M,M,M,M,M,M,M,M,M,M,M,M,M,M,KWMC 131456Z AUTO RMK AO2 SLPNO PWINO FZRANO TSNO $,M
NFL,2025-03-13 14:57,-118.7010,39.4166,1199.00,35.00,25.00,66.57,290.00,4.00,0.00,29.62,1001.60,10.00,M,SCT,BKN,BKN,M,5000.00,10000.00,15000.00,M,M,M,M,M,M,M,M,30.92,KNFL 131457Z 29004KT 10SM SCT050 BKN100 BKN150 02/M04 A2962 RMK AO2 SLP016 T00171039 51002,M
10U,2025-03-13 15:00,-116.1876,41.9532,1637.00,30.20,24.80,80.07,200.00,9.00,0.00,29.61,M,10.00,17.00,OVC,M,M,M,7000.00,M,M,M,M,M,M,M,M,M,M,21.28,K10U 131500Z AUTO 20009G17KT 190V250 10SM OVC070 M01/M04 A2961 RMK AO2,M
EKO,2025-03-13 15:04,-115.7860,40.8242,1367.00,32.00,32.00,100.00,M,5.00,T,29.62,M,1.00,M,FEW,OVC,M,M,600.00,1300.00,M,M,-SN BR,M,M,M,M,M,M,26.40,KEKO 131504Z AUTO VRB05KT 1SM -SN BR FEW006 OVC013 00/00 A2962 RMK AO2 P0000 T00000000,M
TMT,2025-03-13 15:10,-117.1971,39.4643,1749.34,27.00,26.00,95.95,0.00,0.00,0.00,29.63,M,1.50,M,BKN,OVC,M,M,1000.00,1900.00,M,M,-SN,M,M,M,M,M,M,27.00,KTMT 131510Z AUTO 00000KT 1 1/2SM -SN BKN010 OVC019 M03/M03 A2963 RMK AO2 T10281033,M
EKO,2025-03-13 15:11,-115.7860,40.8242,1367.00,32.00,30.00,92.22,260.00,8.00,0.01,29.61,M,2.00,M,FEW,OVC,M,M,800.00,1700.00,M,M,-SN BR,M,M,M,M,M,M,24.11,KEKO 131511Z AUTO 26008KT 2SM -SN BR FEW008 OVC017 00/M01 A2961 RMK AO2 P0001 T00001011,M
BVU,2025-03-13 15:15,-114.8611,35.9475,671.00,53.60,35.60,50.36,170.00,16.00,0.00,29.70,M,10.00,26.00,BKN,OVC,M,M,7500.00,8500.00,M,M,M,M,M,M,M,M,M,53.60,KBVU 131515Z AUTO 17016G26KT 10SM BKN075 OVC085 12/02 A2970 RMK AO2,M
BAM,2025-03-13 15:15,-116.8743,40.5990,1382.36,33.80,32.00,93.03,240.00,6.00,0.00,29.63,M,10.00,M,OVC,M,M,M,7000.00,M,M,M,M,M,M,M,M,M,M,27.70,KBAM 131515Z AUTO 24006KT 10SM OVC070 01/00 A2963 RMK AO1,M
CXP,2025-03-13 15:15,-119.7326,39.1923,1431.00,30.20,26.60,86.28,290.00,4.00,0.00,29.65,M,10.00,M,FEW,FEW,M,M,3500.00,4100.00,M,M,M,M,M,M,M,M,M,25.32,KCXP 131515Z AUTO 29004KT 10SM FEW035 FEW041 M01/M03 A2965 RMK AO2,M
RTS,2025-03-13 15:15,-119.8764,39.6682,1539.00,28.40,23.00,79.92,280.00,4.00,0.00,29.63,M,10.00,M,FEW,FEW,M,M,1700.00,3200.00,M,M,M,M,M,M,M,M,M,23.22,KRTS 131515Z AUTO 28004KT 10SM FEW017 FEW032 M02/M05 A2963 RMK AO2,M
MEV,2025-03-13 15:15,-119.7500,38.9963,1441.42,30.20,24.80,80.07,330.00,4.00,0.00,29.64,M,10.00,M,SCT,BKN,M,M,5500.00,7000.00,M,M,M,M,M,M,M,M,M,25.32,KMEV 131515Z AUTO 33004KT 10SM SCT055 BKN070 M01/M04 A2964 RMK AO2,M
HTH,2025-03-13 15:15,-118.6315,38.5448,1282.89,39.20,30.20,69.88,40.00,4.00,0.00,29.61,M,10.00,M,SCT,SCT,M,M,5000.00,6500.00,M,M,M,M,M,M,M,M,M,35.83,KHTH 131515Z AUTO 04004KT 10SM SCT050 SCT065 04/M01 A2961 RMK A01,M
DRA,2025-03-13 15:18,-116.0278,36.6206,1009.00,44.00,39.00,82.44,220.00,15.00,T,29.65,M,10.00,30.00,BKN,OVC,M,M,2500.00,3900.00,M,M,-RA,M,M,M,30.00,210.00,2025-03-13 15:12,36.34,KDRA 131518Z AUTO 22015G30KT 10SM -RA BKN025 OVC039 07/04 A2965 RMK AO2 PK WND 21030/1512 P0000 T00670039,M
10U,2025-03-13 15:20,-116.1876,41.9532,1637.00,30.20,26.60,86.28,200.00,7.00,0.00,29.60,M,10.00,13.00,BKN,OVC,M,M,6000.00,7000.00,M,M,M,M,M,M,M,M,M,22.59,K10U 131520Z AUTO 20007G13KT 180V240 10SM BKN060 OVC070 M01/M03 A2960 RMK AO2,M
DRA,2025-03-13 15:22,-116.0278,36.6206,1009.00,44.00,39.00,82.44,220.00,15.00,T,29.65,M,10.00,M,FEW,SCT,OVC,M,2300.00,2800.00,3700.00,M,-RA,M,M,M,30.00,210.00,2025-03-13 15:12,36.34,KDRA 131522Z AUTO 22015KT 10SM -RA FEW023 SCT028 OVC037 07/04 A2965 RMK AO2 PK WND 21030/1512 P0000 T00670039,M
P68,2025-03-13 15:25,-116.0056,39.6014,1993.00,30.00,27.00,88.44,10.00,16.00,0.00,29.56,M,M,27.00,M,M,M,M,M,M,M,M,M,M,M,M,27.00,10.00,2025-03-13 15:21,17.81,KP68 131525Z AUTO 01016G27KT M01/M03 A2956 RMK AO1 PK WND 01027/1521 WSHFT 1508 T10111028,M
INS,2025-03-13 15:30,-115.6733,36.5872,955.00,50.00,35.60,57.52,240.00,11.00,0.00,29.64,1001.50,10.00,15.00,SCT,BKN,BKN,M,400.00,2900.00,4800.00,M,RA,M,M,M,M,M,M,50.00,KINS 131530Z AUTO 24011G15KT 10SM RA SCT004 BKN029 BKN048 10/02 A2964 RMK AO2 DZE1455RAB1455 BKN029 V SCT SLP015 $,M
TMT,2025-03-13 15:30,-117.1971,39.4643,1749.34,27.00,26.00,95.95,0.00,0.00,0.00,29.63,M,0.50,M,OVC,M,M,M,1000.00,M,M,M,SN,M,M,M,M,M,M,27.00,KTMT 131530Z AUTO 00000KT 1/2SM SN OVC010 M03/M03 A2963 RMK AO2 T10281033,M
TPH,2025-03-13 15:32,-117.0904,38.0505,1654.00,33.00,32.00,96.06,190.00,7.00,T,29.58,M,2.00,M,OVC,M,M,M,500.00,M,M,M,-SN BR,M,M,M,M,M,M,26.00,KTPH 131532Z AUTO 19007KT 2SM -SN BR OVC005 01/00 A2958 RMK AO2 P0000 T00060000 $,M
BVU,2025-03-13 15:35,-114.8611,35.9475,671.00,55.40,35.60,47.16,170.00,16.00,0.00,29.69,M,10.00,21.00,BKN,OVC,M,M,6500.00,7500.00,M,M,M,M,M,M,M,M,M,55.40,KBVU 131535Z AUTO 17016G21KT 10SM BKN065 OVC075 13/02 A2969 RMK AO2,M
INS,2025-03-13 15:35,-115.6733,36.5872,955.00,50.00,37.40,61.76,230.00,8.00,0.00,29.63,1001.10,10.00,M,SCT,SCT,OVC,M,400.00,3000.00,5000.00,M,-RA,M,M,M,M,M,M,50.00,KINS 131535Z AUTO 23008KT 10SM -RA SCT004 SCT030 OVC050 10/03 A2963 RMK AO2 SLP011 $,M
BAM,2025-03-13 15:35,-116.8743,40.5990,1382.36,33.80,32.00,93.03,240.00,4.00,0.00,29.63,M,10.00,M,OVC,M,M,M,7000.00,M,M,M,M,M,M,M,M,M,M,29.52,KBAM 131535Z AUTO 24004KT 10SM OVC070 01/00 A2963 RMK AO1,M
CXP,2025-03-13 15:35,-119.7326,39.1923,1431.00,32.00,26.60,80.22,0.00,0.00,0.00,29.65,M,10.00,M,CLR,M,M,M,M,M,M,M,M,M,M,M,M,M,M,32.00,KCXP 131535Z AUTO 00000KT 10SM CLR 00/M03 A2965 RMK AO2,M
RTS,2025-03-13 15:35,-119.8764,39.6682,1539.00,28.40,23.00,79.92,280.00,7.00,0.00,29.63,M,10.00,13.00,CLR,M,M,M,M,M,M,M,M,M,M,M,M,M,M,20.39,KRTS 131535Z AUTO 28007G13KT 10SM CLR M02/M05 A2963 RMK AO2,M
MEV,2025-03-13 15:35,-119.7500,38.9963,1441.42,30.20,24.80,80.07,0.00,0.00,0.00,29.65,M,10.00,M,CLR,M,M,M,M,M,M,M,M,M,M,M,M,M,M,30.20,KMEV 131535Z AUTO 00000KT 10SM CLR M01/M04 A2965 RMK AO2,M
HTH,2025-03-13 15:35,-118.6315,38.5448,1282.89,39.20,30.20,69.88,70.00,9.00,0.00,29.61,M,10.00,M,SCT,BKN,SCT,M,5000.00,6000.00,7000.00,M,M,M,M,M,M,M,M,32.47,KHTH 131535Z AUTO 07009KT 10SM SCT050 BKN060 SCT070 04/M01 A2961 RMK A01,M
10U,2025-03-13 15:40,-116.1876,41.9532,1637.00,30.20,26.60,86.28,190.00,7.00,0.00,29.60,M,10.00,M,BKN,BKN,M,M,6000.00,7000.00,M,M,M,M,M,M,M,M,M,22.59,K10U 131540Z AUTO 19007KT 10SM BKN060 BKN070 M01/M03 A2960 RMK AO2,M
EKO,2025-03-13 15:41,-115.7860,40.8242,1367.00,32.00,30.00,92.22,190.00,3.00,0.01,29.62,M,1.75,M,OVC,M,M,M,2700.00,M,M,M,-SN BR,M,M,M,M,M,M,28.69,KEKO 131541Z AUTO 19003KT 1 3/4SM -SN BR OVC027 00/M01 A2962 RMK AO2 P0001 T00001011,M
INS,2025-03-13 15:44,-115.6733,36.5872,955.00,50.00,37.40,61.76,270.00,9.00,0.00,29.62,1000.80,10.00,M,FEW,BKN,BKN,M,400.00,4600.00,8000.00,M,M,M,M,M,M,M,M,50.00,KINS 131544Z AUTO 27009KT 10SM FEW004 BKN046 BKN080 10/03 A2962 RMK AO2 RAE41DZB41E44 SLP008 $,M
ELY,2025-03-13 15:46,-114.8453,39.2950,1909.00,M,M,M,160.00,19.00,T,29.57,M,4.00,31.00,BKN,OVC,M,M,2300.00,3900.00,M,M,-SN,M,M,M,32.00,160.00,2025-03-13 15:26,M,KELY 131546Z AUTO 16019G31KT 4SM -SN BKN023 OVC039 A2957 RMK AO2 PK WND 16032/1526 RAB23E43SNB43 P0000 $,M
TMT,2025-03-13 15:50,-117.1971,39.4643,1749.34,27.30,26.40,96.35,0.00,0.00,0.00,29.63,M,0.50,M,OVC,M,M,M,1000.00,M,M,M,SN,M,M,M,M,M,M,27.30,KTMT 131550Z AUTO 00000KT 1/2SM SN OVC010 M03/M03 A2963 RMK AO2 T10261031,M
P68,2025-03-13 15:53,-116.0056,39.6014,1993.00,29.00,27.00,92.12,360.00,10.00,0.04,29.57,999.40,M,19.00,M,M,M,M,M,M,M,M,M,M,M,M,27.00,10.00,2025-03-13 15:21,19.21,KP68 131553Z AUTO 36010G19KT M02/M03 A2957 RMK AO1 PK WND 01027/1521 WSHFT 1508 SLP994 P0004 T10171028,M
DRA,2025-03-13 15:53,-116.0278,36.6206,1009.00,43.00,38.00,82.37,200.00,22.00,T,29.67,1002.80,7.00,32.00,FEW,OVC,M,M,1900.00,2900.00,M,M,-RA,M,M,M,32.00,200.00,2025-03-13 15:50,33.31,KDRA 131553Z AUTO 20022G32KT 7SM -RA FEW019 OVC029 06/03 A2967 RMK AO2 PK WND 20032/1550 SLP028 P0000 T00610033,M
ELY,2025-03-13 15:53,-114.8453,39.2950,1909.00,M,M,M,160.00,19.00,T,29.56,M,4.00,28.00,BKN,OVC,M,M,2500.00,3700.00,M,M,-SN,M,M,M,32.00,160.00,2025-03-13 15:26,M,KELY 131553Z AUTO 16019G28KT 4SM -SN BKN025 OVC037 A2956 RMK AO2 PK WND 16032/1526 RAB23E43SNB43 SLPNO P0000 $,M
VGT,2025-03-13 15:53,-115.1933,36.2111,667.00,56.00,35.00,45.06,200.00,12.00,0.00,29.67,1005.60,10.00,24.00,OVC,M,M,M,5500.00,M,M,M,M,M,M,M,M,M,M,56.00,KVGT 131553Z 20012G24KT 10SM OVC055 13/02 A2967 RMK AO2 SLP056 T01330017,M
LOL,2025-03-13 15:53,-118.5701,40.0684,1192.43,35.00,27.00,72.32,190.00,4.00,0.00,29.63,1003.00,10.00,M,OVC,M,M,M,11000.00,M,M,M,M,M,M,M,M,M,M,30.92,KLOL 131553Z AUTO 19004KT 10SM OVC110 02/M03 A2963 RMK AO2 SLP030 T00171028,M
EKO,2025-03-13 15:54,-115.7860,40.8242,1367.00,32.00,30.20,92.97,190.00,5.00,0.01,29.61,M,3.00,M,BKN,OVC,M,M,2900.00,3700.00,M,M,-SN BR,M,M,M,M,M,M,26.40,KEKO 131554Z AUTO 19005KT 3SM -SN BR BKN029 OVC037 00/M01 A2961 RMK AO2 P0001,M
BVU,2025-03-13 15:55,-114.8611,35.9475,671.00,55.40,35.60,47.16,190.00,25.00,0.00,29.69,M,10.00,33.00,BKN,BKN,OVC,M,6000.00,7500.00,8500.00,M,M,M,M,M,M,M,M,55.40,KBVU 131555Z AUTO 19025G33KT 10SM BKN060 BKN075 OVC085 13/02 A2969 RMK AO2,M
EKO,2025-03-13 15:55,-115.7860,40.8242,1367.00,32.00,30.00,92.22,190.00,5.00,0.01,29.61,1002.30,3.00,M,BKN,OVC,M,M,3100.00,3900.00,M,M,-SN BR,M,M,M,M,M,M,26.40,KEKO 131555Z AUTO 19005KT 3SM -SN BR BKN031 OVC039 00/M01 A2961 RMK AO2 SLP023 P0001 T00001011,M
RNO,2025-03-13 15:55,-119.7711,39.4839,1341.00,34.00,27.00,75.26,200.00,4.00,0.00,29.63,1003.30,10.00,M,SCT,SCT,M,M,6000.00,20000.00,M,M,M,M,M,M,M,M,M,29.76,KRNO 131555Z 20004KT 10SM SCT060 SCT200 01/M03 A2963 RMK AO2 SLP033 T00111028,M
BAM,2025-03-13 15:55,-116.8743,40.5990,1382.36,33.80,32.00,93.03,70.00,3.00,0.00,29.63,M,10.00,M,OVC,M,M,M,7000.00,M,M,M,M,M,M,M,M,M,M,30.75,KBAM 131555Z AUTO 07003KT 10SM OVC070 01/00 A2963 RMK AO1,M
CXP,2025-03-13 15:55,-119.7326,39.1923,1431.00,32.00,26.60,80.22,190.00,6.00,0.00,29.66,M,10.00,M,CLR,M,M,M,M,M,M,M,M,M,M,M,M,M,M,25.53,KCXP 131555Z AUTO 19006KT 10SM CLR 00/M03 A2966 RMK AO2,M
RTS,2025-03-13 15:55,-119.8764,39.6682,1539.00,30.20,21.20,68.83,280.00,6.00,0.00,29.64,M,10.00,M,CLR,M,M,M,M,M,M,M,M,M,M,M,M,M,M,23.36,KRTS 131555Z AUTO 28006KT 10SM CLR M01/M06 A2964 RMK AO2,M
MEV,2025-03-13 15:55,-119.7500,38.9963,1441.42,32.00,28.40,86.39,0.00,0.00,0.00,29.65,M,10.00,M,FEW,M,M,M,4000.00,M,M,M,M,M,M,M,M,M,M,32.00,KMEV 131555Z AUTO 00000KT 10SM FEW040 M00/M02 A2965 RMK AO2,M
HTH,2025-03-13 15:55,-118.6315,38.5448,1282.89,39.20,30.20,69.88,80.00,6.00,0.00,29.62,M,10.00,12.00,FEW,SCT,M,M,6000.00,7000.00,M,M,M,M,M,M,M,M,M,34.20,KHTH 131555Z AUTO 08006G12KT 10SM FEW060 SCT070 04/M01 A2962 RMK A01,M
INS,2025-03-13 15:55,-115.6733,36.5872,955.00,49.00,36.70,62.36,230.00,9.00,0.02,29.63,1001.10,10.00,M,FEW,FEW,SCT,BKN,400.00,2100.00,7500.00,10000.00,M,M,M,M,M,M,M,44.65,KINS 131555Z AUTO 23009KT 10SM FEW004 FEW021 SCT075 BKN100 OVC120 10/03 A2963 RMK AO2 RAB1455E41DZB41E44 SLP011 P0002 T00950026 $,M
LSV,2025-03-13 15:55,-115.0343,36.2362,570.00,56.70,35.00,43.93,180.00,21.00,0.00,29.65,1003.10,10.00,M,OVC,M,M,M,6500.00,M,M,M,-SHRA,M,M,M,31.00,190.00,2025-03-13 15:10,56.70,KLSV 131555Z COR 18021KT 10SM -SHRA OVC065 14/02 A2965 RMK AO2A PK WND 19031/10 SLP031 T01370017 FZRANO $ COR 1600,M
HND,2025-03-13 15:56,-115.1344,35.9729,742.79,53.00,35.00,50.27,180.00,18.00,0.00,29.70,1006.70,10.00,25.00,BKN,OVC,M,M,4900.00,6000.00,M,M,M,M,M,M,32.00,160.00,2025-03-13 14:58,53.00,KHND 131556Z 18018G25KT 10SM BKN049 OVC060 12/02 A2970 RMK AO2 PK WND 16032/1458 SLP067 T01170017 $,M
LAS,2025-03-13 15:56,-115.1634,36.0719,663.00,56.00,34.00,43.30,210.00,9.00,T,29.69,1004.50,10.00,24.00,SCT,BKN,OVC,M,5500.00,7000.00,10000.00,M,-RA,M,M,M,30.00,160.00,2025-03-13 15:05,56.00,KLAS 131556Z 21009G24KT 10SM -RA SCT055 BKN070 OVC100 13/01 A2969 RMK AO2 PK WND 16030/1505 RAB55 SLP045 P0000 T01330011,M
WMC,2025-03-13 15:56,-117.8072,40.9019,1315.00,M,M,M,M,M,0.00,M,M,M,M,M,M,M,M,M,M,M,M,M,M,M,M,M,M,M,M,KWMC 131556Z AUTO RMK AO2 SLPNO PWINO FZRANO TSNO $,M
NFL,2025-03-13 15:57,-118.7010,39.4166,1199.00,38.00,24.00,56.71,260.00,4.00,0.00,29.63,1001.80,10.00,M,SCT,SCT,BKN,M,5000.00,10000.00,18000.00,M,M,M,M,M,M,M,M,34.43,KNFL 131557Z 26004KT 10SM SCT050 SCT100 BKN180 03/M04 A2963 RMK AO2 SLP018 T00331044,M
EKO,2025-03-13 15:59,-115.7860,40.8242,1367.00,32.00,31.00,96.04,200.00,5.00,T,29.61,M,4.00,M,FEW,BKN,OVC,M,900.00,2900.00,3600.00,M,-SN BR,M,M,M,M,M,M,26.40,KEKO 131559Z AUTO 20005KT 4SM -SN BR FEW009 BKN029 OVC036 00/M01 A2961 RMK AO2 P0000 T00001006,M
10U,2025-03-13 16:00,-116.1876,41.9532,1637.00,32.00,26.60,80.22,210.00,6.00,0.00,29.60,M,10.00,M,FEW,M,M,M,6000.00,M,M,M,M,M,M,M,M,M,M,25.53,K10U 131600Z AUTO 21006KT 10SM FEW060 M00/M03 A2960 RMK AO2,M
EKO,2025-03-13 16:04,-115.7860,40.8242,1367.00,32.00,31.00,96.04,190.00,6.00,T,29.61,M,2.50,M,FEW,SCT,OVC,M,900.00,1800.00,3100.00,M,-SN BR,M,M,M,M,M,M,25.53,KEKO 131604Z AUTO 19006KT 2 1/2SM -SN BR FEW009 SCT018 OVC031 00/M01 A2961 RMK AO2 P0000 T00001006,M
RTS,2025-03-13 16:05,-119.8764,39.6682,1539.00,30.20,21.20,68.83,290.00,8.00,0.00,29.64,M,10.00,M,CLR,M,M,M,M,M,M,M,M,M,M,M,M,M,M,21.90,KRTS 131605Z AUTO 29008KT 10SM CLR M01/M06 A2964 RMK AO2,M
MEV,2025-03-13 16:05,-119.7500,38.9963,1441.42,32.00,26.60,80.22,0.00,0.00,0.00,29.65,M,10.00,M,FEW,M,M,M,4100.00,M,M,M,M,M,M,M,M,M,M,32.00,KMEV 131605Z AUTO 00000KT 10SM FEW041 M00/M03 A2965 RMK AO2,M
TMT,2025-03-13 16:10,-117.1971,39.4643,1749.34,27.30,26.40,96.35,0.00,0.00,0.00,29.63,M,1.00,M,OVC,M,M,M,1300.00,M,M,M,-SN,M,M,M,M,M,M,27.30,KTMT 131610Z AUTO 00000KT 1SM -SN OVC013 M03/M03 A2963 RMK AO2 T10261031,M
EKO,2025-03-13 16:11,-115.7860,40.8242,1367.00,32.00,31.00,96.04,180.00,5.00,T,29.61,M,2.00,M,FEW,BKN,OVC,M,900.00,2700.00,3700.00,M,-SN BR,M,M,M,M,M,M,26.40,KEKO 131611Z AUTO 18005KT 2SM -SN BR FEW009 BKN027 OVC037 00/M01 A2961 RMK AO2 P0000 T00001006,M
ELY,2025-03-13 16:11,-114.8453,39.2950,1909.00,M,M,M,160.00,18.00,0.01,29.56,M,1.75,31.00,BKN,OVC,M,M,1900.00,3400.00,M,M,-SN,M,M,M,31.00,160.00,2025-03-13 16:05,M,KELY 131611Z AUTO 16018G31KT 1 3/4SM -SN BKN019 OVC034 A2956 RMK AO2 PK WND 16031/1605 P0001 $,M
BVU,2025-03-13 16:15,-114.8611,35.9475,671.00,53.60,37.40,54.07,200.00,20.00,0.00,29.70,M,10.00,26.00,SCT,OVC,M,M,5500.00,6500.00,M,M,M,M,M,M,M,M,M,53.60,KBVU 131615Z AUTO 20020G26KT 10SM SCT055 OVC065 12/03 A2970 RMK AO2,M
BAM,2025-03-13 16:15,-116.8743,40.5990,1382.36,33.80,32.00,93.03,80.00,3.00,0.00,29.63,M,10.00,M,OVC,M,M,M,6500.00,M,M,M,M,M,M,M,M,M,M,30.75,KBAM 131615Z AUTO 08003KT 10SM OVC065 01/00 A2963 RMK AO1,M
CXP,2025-03-13 16:15,-119.7326,39.1923,1431.00,33.80,26.60,74.63,190.00,7.00,0.00,29.65,M,10.00,12.00,CLR,M,M,M,M,M,M,M,M,M,M,M,M,M,M,26.97,KCXP 131615Z AUTO 19007G12KT 10SM CLR 01/M03 A2965 RMK AO2,M
HTH,2025-03-13 16:15,-118.6315,38.5448,1282.89,41.00,28.40,60.54,50.00,5.00,0.00,29.62,M,10.00,M,SCT,M,M,M,6000.00,M,M,M,M,M,M,M,M,M,M,37.08,KHTH 131615Z AUTO 05005KT 10SM SCT060 05/M02 A2962 RMK A01,M
INS,2025-03-13 16:19,-115.6733,36.5872,955.00,50.00,35.60,57.52,250.00,26.00,0.00,29.64,1001.50,10.00,M,SCT,BKN,BKN,OVC,4700.00,6000.00,7000.00,10000.00,-DZ,M,M,M,M,M,M,50.00,KINS 131619Z AUTO 25026KT 10SM -DZ SCT047 BKN060 BKN070 OVC100 10/02 A2964 RMK AO2 DZB19 SLP015 $,M
ELY,2025-03-13 16:20,-114.8453,39.2950,1909.00,M,M,M,160.00,17.00,0.02,29.56,M,3.00,30.00,FEW,BKN,OVC,M,1400.00,2400.00,4400.00,M,-SN,M,M,M,31.00,160.00,2025-03-13 16:05,M,KELY 131620Z AUTO 16017G30KT 3SM -SN FEW014 BKN024 OVC044 A2956 RMK AO2 PK WND 16031/1605 P0002 $,M
10U,2025-03-13 16:20,-116.1876,41.9532,1637.00,32.00,26.60,80.22,210.00,5.00,0.00,29.60,M,10.00,M,CLR,M,M,M,M,M,M,M,M,M,M,M,M,M,M,26.40,K10U 131620Z AUTO 21005KT 10SM CLR 00/M03 A2960 RMK AO2,M
DRA,2025-03-13 16:25,-116.0278,36.6206,1009.00,42.00,37.00,82.30,150.00,20.00,0.08,29.63,M,10.00,31.00,FEW,BKN,OVC,M,2000.00,3000.00,8000.00,M,-RA,M,M,M,36.00,190.00,2025-03-13 15:54,32.42,KDRA 131625Z AUTO 15020G31KT 10SM -RA FEW020 BKN030 OVC080 06/03 A2963 RMK AO2 PK WND 19036/1554 PRESFR P0008 T00560028,M
EKO,2025-03-13 16:27,-115.7860,40.8242,1367.00,32.00,31.00,96.04,190.00,5.00,T,29.61,M,4.00,M,FEW,BKN,OVC,M,800.00,2700.00,3500.00,M,-SN BR,M,M,M,M,M,M,26.40,KEKO 131627Z AUTO 19005KT 4SM -SN BR FEW008 BKN027 OVC035 00/M01 A2961 RMK AO2 P0000 T00001006,M
TMT,2025-03-13 16:30,-117.1971,39.4643,1749.34,27.50,26.40,95.56,170.00,3.00,0.00,29.63,M,1.25,M,OVC,M,M,M,1700.00,M,M,M,-SN,M,M,M,M,M,M,23.54,KTMT 131630Z AUTO 17003KT 1 1/4SM -SN OVC017 M02/M03 A2963 RMK AO2 T10251031,M
ELY,2025-03-13 16:33,-114.8453,39.2950,1909.00,M,M,M,160.00,22.00,0.02,29.55,M,10.00,30.00,SCT,OVC,M,M,3200.00,5000.00,M,M,UP,M,M,M,31.00,160.00,2025-03-13 16:05,M,KELY 131633Z AUTO 16022G30KT 10SM UP SCT032 OVC050 A2955 RMK AO2 PK WND 16031/1605 UPB24RAB28E29SNE24 P0002 $,M
BVU,2025-03-13 16:35,-114.8611,35.9475,671.00,53.60,39.20,58.02,200.00,17.00,0.00,29.71,M,10.00,26.00,BKN,OVC,M,M,4400.00,5000.00,M,M,M,M,M,M,M,M,M,53.60,KBVU 131635Z AUTO 20017G26KT 10SM BKN044 OVC050 12/04 A2971 RMK AO2,M
BAM,2025-03-13 16:35,-116.8743,40.5990,1382.36,35.60,32.00,86.59,0.00,0.00,0.00,29.64,M,10.00,M,SCT,OVC,M,M,5000.00,5500.00,M,M,M,M,M,M,M,M,M,35.60,KBAM 131635Z AUTO 00000KT 10SM SCT050 OVC055 02/00 A2964 RMK AO1,M
CXP,2025-03-13 16:35,-119.7326,39.1923,1431.00,35.60,26.60,69.46,180.00,8.00,0.00,29.66,M,10.00,M,CLR,M,M,M,M,M,M,M,M,M,M,M,M,M,M,28.55,KCXP 131635Z AUTO 18008KT 10SM CLR 02/M03 A2966 RMK AO2,M
RTS,2025-03-13 16:35,-119.8764,39.6682,1539.00,32.00,23.00,69.04,320.00,10.00,0.00,29.64,M,10.00,M,CLR,M,M,M,M,M,M,M,M,M,M,M,M,M,M,22.97,KRTS 131635Z AUTO 32010KT 10SM CLR 00/M05 A2964 RMK AO2,M
MEV,2025-03-13 16:35,-119.7500,38.9963,1441.42,32.00,28.40,86.39,160.00,3.00,0.00,29.65,M,10.00,M,CLR,M,M,M,M,M,M,M,M,M,M,M,M,M,M,28.69,KMEV 131635Z AUTO 16003KT 10SM CLR 00/M02 A2965 RMK AO2,M
HTH,2025-03-13 16:35,-118.6315,38.5448,1282.89,41.00,21.20,44.85,340.00,7.00,0.00,29.63,M,10.00,M,FEW,M,M,M,6000.00,M,M,M,M,M,M,M,M,M,M,35.75,KHTH 131635Z AUTO 34007KT 10SM FEW060 05/M06 A2963 RMK A01,M
EKO,2025-03-13 16:39,-115.7860,40.8242,1367.00,32.00,31.00,96.04,220.00,6.00,T,29.62,M,2.00,M,FEW,BKN,OVC,M,800.00,2900.00,3500.00,M,-SN BR,M,M,M,M,M,M,25.53,KEKO 131639Z AUTO 22006KT 2SM -SN BR FEW008 BKN029 OVC035 00/M01 A2962 RMK AO2 P0000 T00001006,M
10U,2025-03-13 16:40,-116.1876,41.9532,1637.00,32.00,26.60,80.22,200.00,6.00,0.00,29.60,M,10.00,M,FEW,M,M,M,7000.00,M,M,M,M,M,M,M,M,M,M,25.53,K10U 131640Z AUTO 20006KT 10SM FEW070 00/M03 A2960 RMK AO2,M
LSV,2025-03-13 16:44,-115.0343,36.2362,570.00,53.60,41.00,62.23,210.00,19.00,0.00,29.67,1003.90,10.00,M,OVC,M,M,M,4400.00,M,M,M,M,M,M,M,M,M,M,53.60,KLSV 131644Z 21019KT 10SM OVC044 12/05 A2967 RMK AO2A SHRAE1555RAB12E44 SLP039 FZRANO $,M
TMT,2025-03-13 16:50,-117.1971,39.4643,1749.34,27.50,26.40,95.56,210.00,3.00,0.00,29.64,M,0.75,M,OVC,M,M,M,1200.00,M,M,M,SN,M,M,M,M,M,M,23.54,KTMT 131650Z AUTO 21003KT 3/4SM SN OVC012 M02/M03 A2964 RMK AO2 T10251031,M
P68,2025-03-13 16:53,-116.0056,39.6014,1993.00,28.00,28.00,100.00,360.00,8.00,0.14,29.58,1000.10,M,M,M,M,M,M,M,M,M,M,M,M,M,M,M,M,M,19.19,KP68 131653Z AUTO 36008KT M02/M02 A2958 RMK AO1 SLP001 P0014 T10221022,M
DRA,2025-03-13 16:53,-116.0278,36.6206,1009.00,47.00,33.00,58.01,180.00,16.00,0.08,29.61,1000.70,10.00,26.00,OVC,M,M,M,9500.00,M,M,M,M,M,M,M,36.00,190.00,2025-03-13 15:54,39.97,KDRA 131653Z AUTO 18016G26KT 10SM OVC095 08/01 A2961 RMK AO2 PK WND 19036/1554 WSHFT 1633 RAE28 SLP007 P0008 T00830006,M
ELY,2025-03-13 16:53,-114.8453,39.2950,1909.00,M,M,M,160.00,16.00,0.02,29.55,M,10.00,25.00,OVC,M,M,M,4800.00,M,M,M,M,M,M,M,31.00,160.00,2025-03-13 16:05,M,KELY 131653Z AUTO 16016G25KT 10SM OVC048 A2955 RMK AO2 PK WND 16031/1605 UPB24E46RAB28E29B46E50SNE24 SLPNO P0002 $,M
VGT,2025-03-13 16:53,-115.1933,36.2111,667.00,51.00,40.00,65.87,210.00,16.00,T,29.70,1006.70,10.00,23.00,BKN,OVC,M,M,5000.00,8000.00,M,M,-RA,M,M,M,31.00,200.00,2025-03-13 16:01,51.00,KVGT 131653Z 21016G23KT 10SM -RA BKN050 OVC080 11/04 A2970 RMK AO2 PK WND 20031/1601 RAB1559E22B44 SLP067 P0000 T01060044,M
LOL,2025-03-13 16:53,-118.5701,40.0684,1192.43,38.00,23.00,54.39,220.00,6.00,0.00,29.64,1003.80,10.00,M,CLR,M,M,M,M,M,M,M,M,M,M,M,M,M,M,32.76,KLOL 131653Z AUTO 22006KT 10SM CLR 03/M05 A2964 RMK AO2 SLP038 T00331050,M
INS,2025-03-13 16:54,-115.6733,36.5872,955.00,46.40,35.60,65.83,210.00,9.00,0.00,29.69,1003.40,10.00,M,FEW,BKN,OVC,M,400.00,2000.00,4600.00,M,-RA,M,M,M,M,M,M,41.42,KINS 131654Z AUTO 21009KT 10SM -RA FEW004 BKN020 OVC046 08/02 A2969 RMK AO2 DZE1555DZB19E26RAB26 BKN V SCT PRESRR SLP034 $,M
EKO,2025-03-13 16:54,-115.7860,40.8242,1367.00,32.00,30.20,92.97,220.00,6.00,T,29.61,M,3.00,M,FEW,BKN,OVC,M,1000.00,2500.00,3500.00,M,-SN BR,M,M,M,M,M,M,25.53,KEKO 131654Z AUTO 22006KT 3SM -SN BR FEW010 BKN025 OVC035 00/M01 A2961 RMK AO2 P0000,M
BVU,2025-03-13 16:55,-114.8611,35.9475,671.00,51.80,41.00,66.48,200.00,16.00,0.00,29.71,M,9.00,22.00,SCT,OVC,M,M,4200.00,4800.00,M,M,M,M,M,M,M,M,M,51.80,KBVU 131655Z AUTO 20016G22KT 9SM SCT042 OVC048 11/05 A2971 RMK AO2,M
RNO,2025-03-13 16:55,-119.7711,39.4839,1341.00,37.00,26.00,64.11,60.00,8.00,0.00,29.64,1003.50,10.00,M,SCT,SCT,M,M,4500.00,20000.00,M,M,M,M,M,M,M,M,M,30.27,KRNO 131655Z 06008KT 10SM SCT045 SCT200 03/M03 A2964 RMK AO2 SLP035 T00281033,M
BAM,2025-03-13 16:55,-116.8743,40.5990,1382.36,35.60,32.00,86.59,230.00,5.00,0.00,29.64,M,10.00,M,OVC,M,M,M,5500.00,M,M,M,M,M,M,M,M,M,M,30.67,KBAM 131655Z AUTO 23005KT 10SM OVC055 02/00 A2964 RMK AO1,M
CXP,2025-03-13 16:55,-119.7326,39.1923,1431.00,37.40,26.60,64.70,220.00,5.00,0.00,29.66,M,10.00,M,FEW,M,M,M,4700.00,M,M,M,M,M,M,M,M,M,M,32.81,KCXP 131655Z AUTO 22005KT 10SM FEW047 03/M03 A2966 RMK AO2,M
RTS,2025-03-13 16:55,-119.8764,39.6682,1539.00,33.80,23.00,64.23,280.00,11.00,0.00,29.65,M,10.00,M,CLR,M,M,M,M,M,M,M,M,M,M,M,M,M,M,24.74,KRTS 131655Z AUTO 28011KT 10SM CLR 01/M05 A2965 RMK AO2,M
MEV,2025-03-13 16:55,-119.7500,38.9963,1441.42,33.80,28.40,80.36,M,3.00,0.00,29.65,M,10.00,M,CLR,M,M,M,M,M,M,M,M,M,M,M,M,M,M,30.75,KMEV 131655Z AUTO VRB03KT 10SM CLR 01/M02 A2965 RMK AO2,M
HTH,2025-03-13 16:55,-118.6315,38.5448,1282.89,42.80,21.20,41.84,330.00,9.00,0.00,29.62,M,10.00,14.00,SCT,M,M,M,7500.00,M,M,M,M,M,M,M,M,M,M,36.94,KHTH 131655Z AUTO 33009G14KT 10SM SCT075 06/M06 A2962 RMK A01,M
INS,2025-03-13 16:55,-115.6733,36.5872,955.00,45.50,36.30,70.02,210.00,8.00,0.01,29.68,1003.00,10.00,M,FEW,BKN,OVC,M,400.00,2000.00,4600.00,M,-RA,M,M,M,41.00,230.00,2025-03-13 16:29,40.74,KINS 131655Z AUTO 21008KT 10SM -RA FEW004 BKN020 OVC046 08/02 A2968 RMK AO2 PK WND 23041/29 DZE1555DZB19E26RAB26 BKN V SCT SLP030 P0001 T00750024 $,M
LSV,2025-03-13 16:55,-115.0343,36.2362,570.00,53.40,40.00,60.30,220.00,25.00,T,29.67,1003.90,10.00,32.00,OVC,M,M,M,4400.00,M,M,M,M,M,M,M,33.00,220.00,2025-03-13 16:46,53.40,KLSV 131655Z 22025G32KT 10SM OVC044 12/04 A2967 RMK AO2A PK WND 22033/46 RAB12E44 SLP039 P0000 T01190044 FZRANO $,M
EKO,2025-03-13 16:56,-115.7860,40.8242,1367.00,32.00,31.00,96.04,220.00,6.00,T,29.62,1002.40,2.50,M,FEW,BKN,OVC,M,1000.00,2500.00,3500.00,M,-SN BR,M,M,M,M,M,M,25.53,KEKO 131656Z AUTO 22006KT 2 1/2SM -SN BR FEW010 BKN025 OVC035 00/M01 A2962 RMK AO2 SLP024 P0000 T00001006,M
HND,2025-03-13 16:56,-115.1344,35.9729,742.79,48.00,40.00,73.67,220.00,21.00,T,29.73,1008.10,10.00,28.00,SCT,OVC,M,M,2600.00,4700.00,M,M,-RA,M,M,M,30.00,200.00,2025-03-13 16:07,40.19,KHND 131656Z 22021G28KT 10SM -RA SCT026 OVC047 09/04 A2973 RMK AO2 PK WND 20030/1607 RAB06 SLP081 P0000 T00890044 $,M
LAS,2025-03-13 16:56,-115.1634,36.0719,663.00,50.00,41.00,71.07,230.00,12.00,T,29.72,1005.70,10.00,20.00,BKN,BKN,OVC,M,3100.00,3900.00,5000.00,M,-RA,M,M,M,35.00,190.00,2025-03-13 16:20,50.00,KLAS 131656Z 23012G20KT 10SM -RA BKN031 BKN039 OVC050 10/05 A2972 RMK AO2 PK WND 19035/1620 RAE13B40 SLP057 P0000 T01000050,M
WMC,2025-03-13 16:56,-117.8072,40.9019,1315.00,M,M,M,M,M,0.00,M,M,M,M,M,M,M,M,M,M,M,M,M,M,M,M,M,M,M,M,KWMC 131656Z AUTO RMK AO2 SLPNO PWINO FZRANO TSNO $,M
NFL,2025-03-13 16:57,-118.7010,39.4166,1199.00,39.00,23.00,52.30,290.00,10.00,0.00,29.64,1002.20,10.00,M,SCT,SCT,BKN,M,6000.00,10000.00,18000.00,M,M,M,M,M,M,M,M,31.75,KNFL 131657Z 29010KT 10SM SCT060 SCT100 BKN180 04/M05 A2964 RMK AO2 SLP022 T00391050,M
10U,2025-03-13 17:00,-116.1876,41.9532,1637.00,33.80,26.60,74.63,220.00,8.00,0.00,29.60,M,10.00,M,SCT,SCT,M,M,6500.00,7500.00,M,M,M,M,M,M,M,M,M,26.33,K10U 131700Z AUTO 22008KT 10SM SCT065 SCT075 01/M03 A2960 RMK AO2,M
INS,2025-03-13 17:05,-115.6733,36.5872,955.00,46.40,37.40,70.68,160.00,13.00,0.00,29.66,1002.50,10.00,M,FEW,SCT,BKN,OVC,400.00,2000.00,4400.00,6000.00,-RA,M,M,M,M,M,M,40.02,KINS 131705Z AUTO 16013KT 10SM -RA FEW004 SCT020 BKN044 OVC060 08/03 A2966 RMK AO2 PRESFR SLP025 $,M
RTS,2025-03-13 17:05,-119.8764,39.6682,1539.00,33.80,23.00,64.23,260.00,12.00,0.00,29.65,M,10.00,M,CLR,M,M,M,M,M,M,M,M,M,M,M,M,M,M,24.29,KRTS 131705Z AUTO 26012KT 10SM CLR 01/M05 A2965 RMK AO2,M
MEV,2025-03-13 17:05,-119.7500,38.9963,1441.42,33.80,26.60,74.63,160.00,4.00,0.00,29.65,M,10.00,M,CLR,M,M,M,M,M,M,M,M,M,M,M,M,M,M,29.52,KMEV 131705Z AUTO 16004KT 10SM CLR 01/M03 A2965 RMK AO2,M
INS,2025-03-13 17:06,-115.6733,36.5872,955.00,46.40,37.40,70.68,170.00,11.00,0.00,29.66,1002.50,10.00,M,FEW,SCT,BKN,OVC,400.00,2000.00,4400.00,5500.00,M,M,M,M,M,M,M,40.66,KINS 131706Z AUTO 17011KT 10SM FEW004 SCT020 BKN044 OVC055 08/03 A2966 RMK AO2 RAE06 SLP025 $,M
TMT,2025-03-13 17:10,-117.1971,39.4643,1749.34,28.00,27.00,95.97,180.00,5.00,0.00,29.64,M,0.75,M,OVC,M,M,M,1000.00,M,M,M,-SN,M,M,M,M,M,M,21.64,KTMT 131710Z AUTO 18005KT 3/4SM -SN OVC010 M02/M03 A2964 RMK AO2 T10221028,M
EKO,2025-03-13 17:13,-115.7860,40.8242,1367.00,32.00,30.00,92.22,230.00,6.00,0.01,29.61,M,1.75,M,BKN,OVC,M,M,2200.00,2800.00,M,M,-SN BR,M,M,M,M,M,M,25.53,KEKO 131713Z AUTO 23006KT 1 3/4SM -SN BR BKN022 OVC028 00/M01 A2961 RMK AO2 P0001 T00001011,M
BVU,2025-03-13 17:15,-114.8611,35.9475,671.00,51.80,41.00,66.48,190.00,23.00,0.00,29.72,M,10.00,29.00,BKN,BKN,M,M,4400.00,5000.00,M,M,M,M,M,M,M,M,M,51.80,KBVU 131715Z AUTO 19023G29KT 10SM BKN044 BKN050 11/05 A2972 RMK AO2,M
BAM,2025-03-13 17:15,-116.8743,40.5990,1382.36,35.60,32.00,86.59,0.00,0.00,0.00,29.64,M,10.00,M,SCT,OVC,M,M,4500.00,5000.00,M,M,M,M,M,M,M,M,M,35.60,KBAM 131715Z AUTO 00000KT 10SM SCT045 OVC050 02/00 A2964 RMK AO1,M
CXP,2025-03-13 17:15,-119.7326,39.1923,1431.00,37.40,28.40,69.67,190.00,10.00,0.00,29.66,M,10.00,M,FEW,FEW,M,M,3900.00,4700.00,M,M,M,M,M,M,M,M,M,29.74,KCXP 131715Z AUTO 19010KT 10SM FEW039 FEW047 03/M02 A2966 RMK AO2,M
HTH,2025-03-13 17:15,-118.6315,38.5448,1282.89,42.80,21.20,41.84,310.00,7.00,0.00,29.62,M,10.00,13.00,FEW,M,M,M,8000.00,M,M,M,M,M,M,M,M,M,M,37.94,KHTH 131715Z AUTO 31007G13KT 10SM FEW080 06/M06 A2962 RMK A01,M
10U,2025-03-13 17:20,-116.1876,41.9532,1637.00,33.80,26.60,74.63,220.00,8.00,0.00,29.60,M,10.00,M,SCT,SCT,M,M,6000.00,7000.00,M,M,M,M,M,M,M,M,M,26.33,K10U 131720Z AUTO 22008KT 10SM SCT060 SCT070 01/M03 A2960 RMK AO2,M
TMT,2025-03-13 17:30,-117.1971,39.4643,1749.34,28.20,26.40,92.85,190.00,9.00,0.00,29.63,M,1.50,M,SCT,BKN,OVC,M,600.00,1000.00,1900.00,M,-SN,M,M,M,M,M,M,18.79,KTMT 131730Z AUTO 19009KT 1 1/2SM -SN SCT006 BKN010 OVC019 M02/M03 A2963 RMK AO2 T10211031,M
BVU,2025-03-13 17:35,-114.8611,35.9475,671.00,50.00,41.00,71.07,210.00,18.00,0.00,29.72,M,6.00,29.00,FEW,OVC,M,M,2900.00,4100.00,M,M,HZ,M,M,M,M,M,M,50.00,KBVU 131735Z AUTO 21018G29KT 6SM HZ FEW029 OVC041 10/05 A2972 RMK AO2,M
INS,2025-03-13 17:35,-115.6733,36.5872,955.00,48.20,35.60,61.52,170.00,15.00,0.00,29.62,1001.00,10.00,22.00,FEW,FEW,SCT,OVC,4500.00,5500.00,7000.00,9000.00,M,M,M,M,M,M,M,41.78,KINS 131735Z AUTO 17015G22KT 10SM FEW045 FEW055 SCT070 OVC090 09/02 A2962 RMK AO2 WSHFT 25 RAB1655E06 PRESFR SLP010 $,M
BAM,2025-03-13 17:35,-116.8743,40.5990,1382.36,35.60,32.00,86.59,60.00,5.00,0.00,29.64,M,10.00,M,SCT,OVC,M,M,4300.00,5000.00,M,M,M,M,M,M,M,M,M,30.67,KBAM 131735Z AUTO 06005KT 10SM SCT043 OVC050 02/00 A2964 RMK AO1,M
CXP,2025-03-13 17:35,-119.7326,39.1923,1431.00,37.40,28.40,69.67,200.00,5.00,0.00,29.67,M,10.00,15.00,FEW,FEW,M,M,4200.00,4900.00,M,M,M,M,M,M,M,M,M,32.81,KCXP 131735Z AUTO 20005G15KT 10SM FEW042 FEW049 03/M02 A2967 RMK AO2,M
RTS,2025-03-13 17:35,-119.8764,39.6682,1539.00,35.60,23.00,59.79,270.00,9.00,0.00,29.65,M,10.00,M,SCT,OVC,M,M,3100.00,3700.00,M,M,M,M,M,M,M,M,M,27.99,KRTS 131735Z AUTO 27009KT 10SM SCT031 OVC037 02/M05 A2965 RMK AO2,M
MEV,2025-03-13 17:35,-119.7500,38.9963,1441.42,33.80,26.60,74.63,0.00,0.00,0.00,29.65,M,10.00,M,CLR,M,M,M,M,M,M,M,M,M,M,M,M,M,M,33.80,KMEV 131735Z AUTO 00000KT 10SM CLR 01/M03 A2965 RMK AO2,M
HTH,2025-03-13 17:35,-118.6315,38.5448,1282.89,42.80,19.40,38.75,320.00,9.00,0.00,29.62,M,10.00,14.00,CLR,M,M,M,M,M,M,M,M,M,M,M,M,M,M,36.94,KHTH 131735Z AUTO 32009G14KT 10SM CLR 06/M07 A2962 RMK A01,M
EKO,2025-03-13 17:39,-115.7860,40.8242,1367.00,32.00,30.00,92.22,190.00,5.00,0.01,29.60,M,3.00,M,FEW,BKN,OVC,M,1000.00,2600.00,3500.00,M,-SN BR,M,M,M,M,M,M,26.40,KEKO 131739Z AUTO 19005KT 3SM -SN BR FEW010 BKN026 OVC035 00/M01 A2960 RMK AO2 P0001 T00001011,M
10U,2025-03-13 17:40,-116.1876,41.9532,1637.00,33.80,24.80,69.25,210.00,9.00,0.00,29.60,M,10.00,M,FEW,FEW,SCT,M,4400.00,4900.00,6000.00,M,M,M,M,M,M,M,M,25.75,K10U 131740Z AUTO 21009KT 10SM FEW044 FEW049 SCT060 01/M04 A2960 RMK AO2,M
EKO,2025-03-13 17:46,-115.7860,40.8242,1367.00,32.00,30.00,92.22,190.00,4.00,0.01,29.60,M,8.00,M,FEW,BKN,OVC,M,900.00,3200.00,4400.00,M,-SN,M,M,M,M,M,M,27.42,KEKO 131746Z AUTO 19004KT 8SM -SN FEW009 BKN032 OVC044 00/M01 A2960 RMK AO2 P0001 T00001011,M
ELY,2025-03-13 17:50,-114.8453,39.2950,1909.00,M,M,M,170.00,17.00,T,29.52,M,2.50,31.00,BKN,BKN,OVC,M,1900.00,2900.00,5000.00,M,-SN,M,M,M,35.00,170.00,2025-03-13 17:16,M,KELY 131750Z AUTO 17017G31KT 2 1/2SM -SN BKN019 BKN029 OVC050 A2952 RMK AO2 PK WND 17035/1716 UPB08E24RAB13E45SNB45 P0000 $,M
HTH,2025-03-13 17:50,-118.6315,38.5448,1282.89,44.60,17.60,33.49,320.00,9.00,0.00,29.62,M,10.00,15.00,CLR,M,M,M,M,M,M,M,M,M,M,M,M,M,M,39.18,KHTH 131750Z AUTO 32009G15KT 10SM CLR 07/M08 A2962 RMK A01,M
TMT,2025-03-13 17:50,-117.1971,39.4643,1749.34,28.40,25.50,88.72,200.00,8.00,0.00,29.63,M,3.00,M,SCT,BKN,OVC,M,600.00,2600.00,3300.00,M,-SN,M,M,M,M,M,M,19.68,KTMT 131750Z AUTO 20008KT 3SM -SN SCT006 BKN026 OVC033 M02/M04 A2963 RMK AO2 T10201036,M
P68,2025-03-13 17:53,-116.0056,39.6014,1993.00,28.00,28.00,100.00,330.00,9.00,0.12,29.58,1000.20,M,16.00,M,M,M,M,M,M,M,M,M,M,M,M,M,M,M,18.54,KP68 131753Z AUTO 33009G16KT M02/M02 A2958 RMK AO1 SLP002 P0012 60030 T10221022 10039 21022 50007,M
DRA,2025-03-13 17:53,-116.0278,36.6206,1009.00,48.00,34.00,58.16,190.00,27.00,0.00,29.61,1000.70,10.00,41.00,BKN,M,M,M,11000.00,M,M,M,M,M,M,M,41.00,180.00,2025-03-13 17:50,39.15,KDRA 131753Z AUTO 19027G41KT 10SM BKN110 09/01 A2961 RMK AO2 PK WND 18041/1750 SLP007 60008 T00890011 10106 20050 58014,M
ELY,2025-03-13 17:53,-114.8453,39.2950,1909.00,M,M,M,180.00,17.00,T,29.52,M,1.75,31.00,BKN,OVC,M,M,1700.00,3800.00,M,M,-SN,M,M,M,35.00,170.00,2025-03-13 17:16,M,KELY 131753Z AUTO 18017G31KT 1 3/4SM -SN BKN017 OVC038 A2952 RMK AO2 PK WND 17035/1716 UPB08E24RAB13E45SNB45 SLPNO P0000 60003 56011 $,M
VGT,2025-03-13 17:53,-115.1933,36.2111,667.00,50.00,36.00,58.44,200.00,15.00,T,29.71,1007.10,10.00,23.00,BKN,OVC,M,M,7000.00,9000.00,M,M,M,M,M,M,M,M,M,50.00,KVGT 131753Z 20015G23KT 10SM BKN070 OVC090 10/02 A2971 RMK AO2 RAE17 SLP071 P0000 60000 T01000022 10133 20100 53011,M
LOL,2025-03-13 17:53,-118.5701,40.0684,1192.43,39.00,21.00,48.06,270.00,4.00,0.00,29.64,1003.90,10.00,M,CLR,M,M,M,M,M,M,M,M,M,M,M,M,M,M,35.59,KLOL 131753Z AUTO 27004KT 10SM CLR 04/M06 A2964 RMK AO2 SLP039 T00391061 10044 20000 53003,M
BVU,2025-03-13 17:55,-114.8611,35.9475,671.00,48.20,41.00,76.01,240.00,16.00,0.00,29.73,M,4.00,M,FEW,BKN,OVC,M,2800.00,3400.00,4000.00,M,-RA,M,M,M,M,M,M,41.53,KBVU 131755Z AUTO 24016KT 4SM -RA FEW028 BKN034 OVC040 09/05 A2973 RMK AO2,M
RNO,2025-03-13 17:55,-119.7711,39.4839,1341.00,40.00,18.00,40.67,0.00,0.00,0.00,29.63,1003.30,10.00,M,SCT,SCT,M,M,4500.00,20000.00,M,M,M,M,M,M,M,M,M,40.00,KRNO 131755Z 00000KT 10SM SCT045 SCT200 04/M08 A2963 RMK AO2 SLP033 60000 T00441078 10044 21006 50000,M
BAM,2025-03-13 17:55,-116.8743,40.5990,1382.36,35.60,32.00,86.59,50.00,6.00,0.00,29.64,M,10.00,M,SCT,BKN,OVC,M,1700.00,2600.00,6000.00,M,M,M,M,M,M,M,M,29.87,KBAM 131755Z AUTO 05006KT 10SM SCT017 BKN026 OVC060 02/00 A2964 RMK AO1,M
CXP,2025-03-13 17:55,-119.7326,39.1923,1431.00,39.20,28.40,64.93,200.00,8.00,0.00,29.67,M,10.00,13.00,FEW,SCT,BKN,M,2000.00,2900.00,4400.00,M,M,M,M,M,M,M,M,32.98,KCXP 131755Z AUTO 20008G13KT 10SM FEW020 SCT029 BKN044 04/M02 A2967 RMK AO2,M
RTS,2025-03-13 17:55,-119.8764,39.6682,1539.00,35.60,23.00,59.79,300.00,9.00,0.00,29.65,M,10.00,M,BKN,OVC,M,M,3000.00,3500.00,M,M,M,M,M,M,M,M,M,27.99,KRTS 131755Z AUTO 30009KT 10SM BKN030 OVC035 02/M05 A2965 RMK AO2,M
MEV,2025-03-13 17:55,-119.7500,38.9963,1441.42,33.80,26.60,74.63,0.00,0.00,0.00,29.66,M,10.00,M,CLR,M,M,M,M,M,M,M,M,M,M,M,M,M,M,33.80,KMEV 131755Z AUTO 00000KT 10SM CLR 01/M03 A2966 RMK AO2,M
INS,2025-03-13 17:55,-115.6733,36.5872,955.00,51.00,25.70,37.09,210.00,14.00,T,29.64,1001.50,10.00,23.00,SCT,OVC,M,M,9000.00,11000.00,M,M,M,M,M,M,M,M,M,51.00,KINS 131755Z AUTO 21014G23KT 10SM SCT090 OVC110 11/M03 A2964 RMK AO2 RAB1655E06 SLP015 P0000 60003 T01061035 10123 20074 50004 $,M
LSV,2025-03-13 17:55,-115.0343,36.2362,570.00,51.00,39.00,63.36,210.00,21.00,T,29.68,1004.20,10.00,M,OVC,M,M,M,4000.00,M,M,M,DZ,M,M,M,33.00,240.00,2025-03-13 17:34,51.00,KLSV 131755Z 21021KT 10SM DZ OVC040 11/04 A2968 RMK PK WND 24033/34 RAB49E57 SLP042 P0000 60000 T01060038 10145 20106 52014 FZRANO $,M
EKO,2025-03-13 17:56,-115.7860,40.8242,1367.00,33.00,31.00,92.25,M,4.00,0.01,29.60,1001.80,9.00,M,FEW,BKN,OVC,M,900.00,4300.00,5000.00,M,M,M,M,M,M,M,M,28.59,KEKO 131756Z AUTO VRB04KT 9SM FEW009 BKN043 OVC050 01/M01 A2960 RMK AO2 SNE52 SLP018 P0001 60005 T00061006 10017 21006 58004,M
HND,2025-03-13 17:56,-115.1344,35.9729,742.79,45.00,38.00,76.31,210.00,16.00,0.02,29.74,1008.60,10.00,23.00,OVC,M,M,M,3800.00,M,M,M,-RA,M,M,M,M,M,M,37.36,KHND 131756Z 21016G23KT 10SM -RA OVC038 07/03 A2974 RMK AO2 SLP086 P0002 60002 T00720033 10117 20072 53014 $,M
LAS,2025-03-13 17:56,-115.1634,36.0719,663.00,49.00,35.00,58.30,220.00,16.00,T,29.72,1005.80,10.00,30.00,FEW,BKN,OVC,M,3000.00,5000.00,6000.00,M,M,M,M,M,32.00,220.00,2025-03-13 17:10,42.58,KLAS 131756Z 22016G30KT 10SM FEW030 BKN050 OVC060 09/02 A2972 RMK AO2 PK WND 22032/1710 RAE30 SLP058 P0000 60000 T00940017 10139 20089 51015,M
WMC,2025-03-13 17:56,-117.8072,40.9019,1315.00,M,M,M,M,M,0.00,M,M,M,M,M,M,M,M,M,M,M,M,M,M,M,M,M,M,M,M,KWMC 131756Z AUTO RMK AO2 SLPNO PWINO FZRANO TSNO $,M
NFL,2025-03-13 17:57,-118.7010,39.4166,1199.00,44.00,21.00,39.62,M,5.00,0.00,29.63,1001.90,10.00,M,SCT,SCT,BKN,M,4500.00,10000.00,18000.00,M,M,M,M,M,M,M,M,40.65,KNFL 131757Z VRB05KT 10SM SCT045 SCT100 BKN180 07/M06 A2963 RMK AO2 SLP019 T00671061 10067 20017 50003,M
10U,2025-03-13 18:00,-116.1876,41.9532,1637.00,33.80,24.80,69.25,220.00,9.00,0.00,29.61,M,10.00,M,FEW,FEW,M,M,4900.00,5500.00,M,M,M,M,M,M,M,M,M,25.75,K10U 131800Z AUTO 22009KT 10SM FEW049 FEW055 01/M04 A2961 RMK AO2,M
ELY,2025-03-13 18:01,-114.8453,39.2950,1909.00,M,M,M,200.00,13.00,0.01,29.52,M,3.00,23.00,BKN,OVC,M,M,1700.00,3800.00,M,M,-SN,M,M,M,M,M,M,M,KELY 131801Z AUTO 20013G23KT 3SM -SN BKN017 OVC038 A2952 RMK AO2 P0001 $,M
CXP,2025-03-13 18:10,-119.7326,39.1923,1431.00,39.20,28.40,64.93,190.00,7.00,0.00,29.66,M,10.00,15.00,SCT,SCT,BKN,M,3000.00,4100.00,4700.00,M,M,M,M,M,M,M,M,33.56,KCXP 131810Z AUTO 19007G15KT 150V210 10SM SCT030 SCT041 BKN047 04/M02 A2966 RMK AO2,M
TMT,2025-03-13 18:10,-117.1971,39.4643,1749.34,28.40,25.70,89.46,210.00,9.00,0.00,29.62,M,2.50,M,SCT,BKN,OVC,M,1600.00,2600.00,3500.00,M,-SN,M,M,M,M,M,M,19.04,KTMT 131810Z AUTO 21009KT 2 1/2SM -SN SCT016 BKN026 OVC035 M02/M03 A2962 RMK AO2 T10201035,M
INS,2025-03-13 18:13,-115.6733,36.5872,955.00,50.00,24.80,37.08,170.00,11.00,0.00,29.63,1001.30,10.00,25.00,OVC,M,M,M,11000.00,M,M,M,M,M,M,M,M,M,M,50.00,KINS 131813Z AUTO 17011G25KT 10SM OVC110 10/M04 A2963 RMK AO2 WSHFT 09 SLP013 $,M
BVU,2025-03-13 18:15,-114.8611,35.9475,671.00,48.20,39.20,70.88,240.00,15.00,0.00,29.73,M,8.00,21.00,FEW,BKN,BKN,M,2300.00,3400.00,4200.00,M,-RA,M,M,M,M,M,M,41.78,KBVU 131815Z AUTO 24015G21KT 8SM -RA FEW023 BKN034 BKN042 09/04 A2973 RMK AO2,M
BAM,2025-03-13 18:15,-116.8743,40.5990,1382.36,35.60,32.00,86.59,70.00,3.00,0.00,29.65,M,10.00,M,OVC,M,M,M,1700.00,M,M,M,M,M,M,M,M,M,M,32.80,KBAM 131815Z AUTO 07003KT 10SM OVC017 02/00 A2965 RMK AO1,M
RTS,2025-03-13 18:15,-119.8764,39.6682,1539.00,33.80,23.00,64.23,310.00,8.00,0.00,29.65,M,10.00,17.00,BKN,OVC,M,M,2800.00,3600.00,M,M,M,M,M,M,M,M,M,26.33,KRTS 131815Z AUTO 31008G17KT 10SM BKN028 OVC036 01/M05 A2965 RMK AO2,M
MEV,2025-03-13 18:15,-119.7500,38.9963,1441.42,35.60,26.60,69.46,260.00,6.00,0.00,29.65,M,10.00,M,CLR,M,M,M,M,M,M,M,M,M,M,M,M,M,M,29.87,KMEV 131815Z AUTO 26006KT 10SM CLR 02/M03 A2965 RMK AO2,M
HTH,2025-03-13 18:15,-118.6315,38.5448,1282.89,44.60,15.80,30.98,330.00,12.00,0.00,29.62,M,10.00,17.00,FEW,M,M,M,7000.00,M,M,M,M,M,M,M,M,M,M,38.04,KHTH 131815Z AUTO 33012G17KT 10SM FEW070 07/M09 A2962 RMK A01,M
ELY,2025-03-13 18:16,-114.8453,39.2950,1909.00,M,M,M,180.00,17.00,0.01,29.51,M,1.75,29.00,BKN,BKN,OVC,M,1300.00,1800.00,3100.00,M,-SN,M,M,M,29.00,190.00,2025-03-13 18:16,M,KELY 131816Z AUTO 18017G29KT 1 3/4SM -SN BKN013 BKN018 OVC031 A2951 RMK AO2 PK WND 19029/1816 UPB08E10RAB10E13SNE08B13 P0001 $,M
10U,2025-03-13 18:20,-116.1876,41.9532,1637.00,33.80,26.60,74.63,230.00,11.00,0.00,29.60,M,10.00,M,FEW,M,M,M,4700.00,M,M,M,M,M,M,M,M,M,M,24.74,K10U 131820Z AUTO 23011KT 10SM FEW047 01/M03 A2960 RMK AO2,M
ELY,2025-03-13 18:21,-114.8453,39.2950,1909.00,M,M,M,180.00,16.00,0.02,29.51,M,0.75,29.00,BKN,OVC,M,M,1100.00,1800.00,M,M,-SN,M,M,M,29.00,190.00,2025-03-13 18:16,M,KELY 131821Z AUTO 18016G29KT 3/4SM -SN BKN011 OVC018 A2951 RMK AO2 PK WND 19029/1816 UPB08E10RAB10E13SNE08B13 P0002 $,M
ELY,2025-03-13 18:28,-114.8453,39.2950,1909.00,M,M,M,180.00,18.00,0.02,29.51,M,1.50,M,BKN,BKN,OVC,M,1300.00,1800.00,2800.00,M,-SN,M,M,M,29.00,190.00,2025-03-13 18:16,M,KELY 131828Z AUTO 18018KT 1 1/2SM -SN BKN013 BKN018 OVC028 A2951 RMK AO2 PK WND 19029/1816 UPB08E10RAB10E13SNE08B13 P0002 $,M
TMT,2025-03-13 18:30,-117.1971,39.4643,1749.34,28.40,25.50,88.72,210.00,8.00,0.00,29.62,M,2.50,M,BKN,OVC,M,M,2400.00,3000.00,M,M,-SN,M,M,M,M,M,M,19.68,KTMT 131830Z AUTO 21008KT 2 1/2SM -SN BKN024 OVC030 M02/M04 A2962 RMK AO2 T10201036,M
ELY,2025-03-13 18:32,-114.8453,39.2950,1909.00,M,M,M,170.00,17.00,0.03,29.50,M,3.00,25.00,BKN,BKN,OVC,M,1300.00,1800.00,2900.00,M,-SN,M,M,M,29.00,190.00,2025-03-13 18:16,M,KELY 131832Z AUTO 17017G25KT 3SM -SN BKN013 BKN018 OVC029 A2950 RMK AO2 PK WND 19029/1816 UPB08E10RAB10E13SNE08B13 P0003 $,M
BVU,2025-03-13 18:35,-114.8611,35.9475,671.00,48.20,37.40,66.05,230.00,14.00,0.00,29.71,M,10.00,20.00,FEW,FEW,M,M,3300.00,4200.00,M,M,M,M,M,M,M,M,M,42.04,KBVU 131835Z AUTO 23014G20KT 10SM FEW033 FEW042 09/03 A2971 RMK AO2,M
BAM,2025-03-13 18:35,-116.8743,40.5990,1382.36,35.60,32.00,86.59,0.00,0.00,0.00,29.64,M,5.00,M,BKN,BKN,OVC,M,1700.00,2200.00,4800.00,M,M,M,M,M,M,M,M,35.60,KBAM 131835Z AUTO 00000KT 5SM BKN017 BKN022 OVC048 02/00 A2964 RMK AO1,M
CXP,2025-03-13 18:35,-119.7326,39.1923,1431.00,39.20,28.40,64.93,200.00,9.00,0.00,29.66,M,10.00,15.00,FEW,M,M,M,3300.00,M,M,M,M,M,M,M,M,M,M,32.47,KCXP 131835Z AUTO 20009G15KT 10SM FEW033 04/M02 A2966 RMK AO2,M
RTS,2025-03-13 18:35,-119.8764,39.6682,1539.00,33.80,23.00,64.23,300.00,6.00,0.00,29.65,M,10.00,M,FEW,BKN,OVC,M,2600.00,3400.00,4200.00,M,M,M,M,M,M,M,M,27.70,KRTS 131835Z AUTO 30006KT 10SM FEW026 BKN034 OVC042 01/M05 A2965 RMK AO2,M
MEV,2025-03-13 18:35,-119.7500,38.9963,1441.42,35.60,24.80,64.46,250.00,7.00,0.00,29.65,M,10.00,12.00,CLR,M,M,M,M,M,M,M,M,M,M,M,M,M,M,29.17,KMEV 131835Z AUTO 25007G12KT 230V290 10SM CLR 02/M04 A2965 RMK AO2,M
HTH,2025-03-13 18:35,-118.6315,38.5448,1282.89,44.60,15.80,30.98,330.00,12.00,0.00,29.61,M,10.00,19.00,SCT,SCT,M,M,7000.00,8000.00,M,M,M,M,M,M,M,M,M,38.04,KHTH 131835Z AUTO 33012G19KT 10SM SCT070 SCT080 07/M09 A2961 RMK A01,M
10U,2025-03-13 18:40,-116.1876,41.9532,1637.00,33.80,24.80,69.25,230.00,10.00,0.00,29.59,M,10.00,M,CLR,M,M,M,M,M,M,M,M,M,M,M,M,M,M,25.23,K10U 131840Z AUTO 23010KT 10SM CLR 01/M04 A2959 RMK AO2,M
ELY,2025-03-13 18:41,-114.8453,39.2950,1909.00,M,M,M,180.00,13.00,0.03,29.50,M,2.50,24.00,BKN,M,M,M,1300.00,M,M,M,-SN,M,M,M,29.00,190.00,2025-03-13 18:16,M,KELY 131841Z AUTO 18013G24KT 2 1/2SM -SN BKN013 A2950 RMK AO2 PK WND 19029/1816 UPB08E10RAB10E13SNE08B13 P0003 $,M
ELY,2025-03-13 18:44,-114.8453,39.2950,1909.00,M,M,M,180.00,13.00,0.03,29.50,M,3.00,24.00,FEW,BKN,OVC,M,700.00,1300.00,2000.00,M,-SN,M,M,M,29.00,190.00,2025-03-13 18:16,M,KELY 131844Z AUTO 18013G24KT 3SM -SN FEW007 BKN013 OVC020 A2950 RMK AO2 PK WND 19029/1816 UPB08E10RAB10E13SNE08B13 P0003 $,M
TMT,2025-03-13 18:50,-117.1971,39.4643,1749.34,28.40,26.20,91.34,200.00,6.00,0.00,29.62,M,0.75,M,OVC,M,M,M,1500.00,M,M,M,-SN,M,M,M,M,M,M,21.19,KTMT 131850Z AUTO 20006KT 3/4SM -SN OVC015 M02/M03 A2962 RMK AO2 T10201032,M
P68,2025-03-13 18:53,-116.0056,39.6014,1993.00,28.00,27.00,95.97,340.00,6.00,0.16,29.58,999.90,M,M,M,M,M,M,M,M,M,M,M,M,M,M,M,M,M,20.71,KP68 131853Z AUTO 34006KT M02/M03 A2958 RMK AO1 SLP999 P0016 T10221028,M
DRA,2025-03-13 18:53,-116.0278,36.6206,1009.00,49.00,34.00,56.02,190.00,29.00,0.00,29.58,999.40,10.00,50.00,CLR,M,M,M,M,M,M,M,M,M,M,M,50.00,180.00,2025-03-13 18:49,40.22,KDRA 131853Z AUTO 19029G50KT 10SM CLR 09/01 A2958 RMK AO2 PK WND 18050/1849 SLP994 T00940011,M
ELY,2025-03-13 18:53,-114.8453,39.2950,1909.00,M,M,M,170.00,18.00,0.04,29.50,M,3.00,26.00,FEW,OVC,M,M,700.00,1500.00,M,M,-SN,M,M,M,29.00,190.00,2025-03-13 18:16,M,KELY 131853Z AUTO 17018G26KT 3SM -SN FEW007 OVC015 A2950 RMK AO2 PK WND 19029/1816 UPB08E10RAB10E13SNE08B13 SLPNO P0004 $,M
VGT,2025-03-13 18:53,-115.1933,36.2111,667.00,51.00,35.00,54.12,210.00,15.00,0.00,29.65,1005.10,10.00,20.00,BKN,OVC,M,M,8000.00,10000.00,M,M,M,M,M,M,M,M,M,51.00,KVGT 131853Z 21015G20KT 10SM BKN080 OVC100 11/02 A2965 RMK AO2 SLP051 T01060017,M
LOL,2025-03-13 18:53,-118.5701,40.0684,1192.43,41.00,21.00,44.47,0.00,0.00,0.00,29.64,1003.80,10.00,M,OVC,M,M,M,6000.00,M,M,M,M,M,M,M,M,M,M,41.00,KLOL 131853Z AUTO 00000KT 10SM OVC060 05/M06 A2964 RMK AO2 SLP038 T00501061,M
BVU,2025-03-13 18:55,-114.8611,35.9475,671.00,48.20,37.40,66.05,220.00,15.00,0.00,29.70,M,10.00,M,FEW,FEW,M,M,3200.00,4100.00,M,M,M,M,M,M,M,M,M,41.78,KBVU 131855Z AUTO 22015KT 10SM FEW032 FEW041 09/03 A2970 RMK AO2,M
ELY,2025-03-13 18:55,-114.8453,39.2950,1909.00,M,M,M,170.00,15.00,T,29.51,M,1.50,26.00,FEW,OVC,M,M,700.00,1500.00,M,M,-SN,M,M,M,M,M,M,M,KELY 131855Z AUTO 17015G26KT 1 1/2SM -SN FEW007 OVC015 A2951 RMK AO2 P0000 $,M
RNO,2025-03-13 18:55,-119.7711,39.4839,1341.00,41.00,18.00,39.12,340.00,5.00,0.00,29.63,1003.00,10.00,M,SCT,SCT,M,M,5500.00,20000.00,M,M,M,M,M,M,M,M,M,37.08,KRNO 131855Z 34005KT 10SM SCT055 SCT200 05/M08 A2963 RMK AO2 SLP030 T00501078,M
BAM,2025-03-13 18:55,-116.8743,40.5990,1382.36,35.60,32.00,86.59,0.00,0.00,0.00,29.64,M,10.00,M,SCT,BKN,OVC,M,2100.00,4800.00,6000.00,M,M,M,M,M,M,M,M,35.60,KBAM 131855Z AUTO 00000KT 10SM SCT021 BKN048 OVC060 02/00 A2964 RMK AO1,M
CXP,2025-03-13 18:55,-119.7326,39.1923,1431.00,39.20,21.20,48.10,240.00,8.00,0.00,29.66,M,10.00,13.00,FEW,M,M,M,3700.00,M,M,M,M,M,M,M,M,M,M,32.98,KCXP 131855Z AUTO 24008G13KT 10SM FEW037 04/M06 A2966 RMK AO2,M
RTS,2025-03-13 18:55,-119.8764,39.6682,1539.00,35.60,24.80,64.46,290.00,8.00,0.00,29.65,M,10.00,13.00,SCT,SCT,SCT,M,3300.00,4200.00,4800.00,M,M,M,M,M,M,M,M,28.55,KRTS 131855Z AUTO 29008G13KT 250V310 10SM SCT033 SCT042 SCT048 02/M04 A2965 RMK AO2,M
MEV,2025-03-13 18:55,-119.7500,38.9963,1441.42,37.40,23.00,55.68,270.00,7.00,0.00,29.65,M,10.00,M,CLR,M,M,M,M,M,M,M,M,M,M,M,M,M,M,31.36,KMEV 131855Z AUTO 27007KT 10SM CLR 03/M05 A2965 RMK AO2,M
HTH,2025-03-13 18:55,-118.6315,38.5448,1282.89,46.40,14.00,26.75,350.00,13.00,0.00,29.60,M,10.00,18.00,SCT,M,M,M,7000.00,M,M,M,M,M,M,M,M,M,M,40.02,KHTH 131855Z AUTO 35013G18KT 10SM SCT070 08/M10 A2960 RMK A01,M
INS,2025-03-13 18:55,-115.6733,36.5872,955.00,51.60,22.00,31.07,340.00,3.00,0.00,29.60,1000.10,10.00,M,OVC,M,M,M,12000.00,M,M,M,M,M,M,M,M,M,M,51.60,KINS 131855Z AUTO 34003KT 10SM OVC120 11/M06 A2960 RMK AO2 SLP001 T01091056 $,M
LSV,2025-03-13 18:55,-115.0343,36.2362,570.00,51.30,34.00,51.43,200.00,16.00,0.00,29.63,1002.50,10.00,M,BKN,M,M,M,7000.00,M,M,M,M,M,M,M,26.00,210.00,2025-03-13 18:02,51.30,KLSV 131855Z 20016KT 10SM BKN070 11/01 A2963 RMK PK WND 21026/02 DZE1755RAB1755E1757 SLP025 T01070012 FZRANO $,M
EKO,2025-03-13 18:56,-115.7860,40.8242,1367.00,33.00,30.00,88.58,190.00,6.00,T,29.59,1001.60,6.00,M,BKN,OVC,M,M,3700.00,4700.00,M,M,-SN BR,M,M,M,M,M,M,26.73,KEKO 131856Z AUTO 19006KT 6SM -SN BR BKN037 OVC047 01/M01 A2959 RMK AO2 SNB37 SLP016 P0000 T00061011,M
HND,2025-03-13 18:56,-115.1344,35.9729,742.79,46.00,38.00,73.47,190.00,18.00,T,29.69,1006.80,10.00,M,FEW,SCT,BKN,M,4900.00,5500.00,11000.00,M,M,M,M,M,M,M,M,38.18,KHND 131856Z 19018KT 10SM FEW049 SCT055 BKN110 08/03 A2969 RMK AO2 RAE32 SLP068 P0000 T00780033 $,M
LAS,2025-03-13 18:56,-115.1634,36.0719,663.00,49.00,34.00,56.02,200.00,10.00,0.00,29.68,1004.10,10.00,22.00,SCT,BKN,BKN,M,6000.00,7500.00,11000.00,M,M,M,M,M,28.00,220.00,2025-03-13 18:05,44.29,KLAS 131856Z 20010G22KT 10SM SCT060 BKN075 BKN110 09/01 A2968 RMK AO2 PK WND 22028/1805 SLP041 T00940011,M
WMC,2025-03-13 18:56,-117.8072,40.9019,1315.00,M,M,M,M,M,0.00,M,M,M,M,M,M,M,M,M,M,M,M,M,M,M,M,M,M,M,M,KWMC 131856Z AUTO RMK AO2 SLPNO PWINO FZRANO TSNO $,M
NFL,2025-03-13 18:57,-118.7010,39.4166,1199.00,43.00,22.00,42.95,70.00,7.00,0.00,29.63,1001.70,10.00,M,SCT,BKN,BKN,M,5500.00,10000.00,18000.00,M,M,M,M,M,M,M,M,38.19,KNFL 131857Z 07007KT 10SM SCT055 BKN100 BKN180 06/M06 A2963 RMK AO2 SLP017 T00611056,M
ELY,2025-03-13 18:59,-114.8453,39.2950,1909.00,M,M,M,180.00,14.00,T,29.51,M,1.00,23.00,FEW,OVC,M,M,700.00,1300.00,M,M,-SN,M,M,M,M,M,M,M,KELY 131859Z AUTO 18014G23KT 1SM -SN FEW007 OVC013 A2951 RMK AO2 P0000 $,M
10U,2025-03-13 19:00,-116.1876,41.9532,1637.00,33.80,26.60,74.63,230.00,9.00,0.00,29.59,M,10.00,M,FEW,M,M,M,1900.00,M,M,M,M,M,M,M,M,M,M,25.75,K10U 131900Z AUTO 23009KT 10SM FEW019 01/M03 A2959 RMK AO2,M
TMT,2025-03-13 19:10,-117.1971,39.4643,1749.34,28.40,25.70,89.46,210.00,6.00,0.00,29.63,M,2.00,M,BKN,OVC,M,M,1500.00,2200.00,M,M,-SN,M,M,M,M,M,M,21.19,KTMT 131910Z AUTO 21006KT 2SM -SN BKN015 OVC022 M02/M03 A2963 RMK AO2 T10201035,M
BVU,2025-03-13 19:15,-114.8611,35.9475,671.00,48.20,35.60,61.52,210.00,13.00,0.00,29.69,M,10.00,M,FEW,BKN,M,M,4100.00,5500.00,M,M,M,M,M,M,M,M,M,42.32,KBVU 131915Z AUTO 21013KT 10SM FEW041 BKN055 09/02 A2969 RMK AO2,M
BAM,2025-03-13 19:15,-116.8743,40.5990,1382.36,33.80,32.00,93.03,350.00,8.00,0.00,29.64,M,3.00,M,BKN,BKN,OVC,M,900.00,1600.00,6000.00,M,M,M,M,M,M,M,M,26.33,KBAM 131915Z AUTO 35008KT 3SM BKN009 BKN016 OVC060 01/00 A2964 RMK AO1,M
CXP,2025-03-13 19:15,-119.7326,39.1923,1431.00,41.00,23.00,48.39,250.00,7.00,0.00,29.66,M,10.00,13.00,FEW,SCT,SCT,M,3100.00,3800.00,4600.00,M,M,M,M,M,M,M,M,35.75,KCXP 131915Z AUTO 25007G13KT 10SM FEW031 SCT038 SCT046 05/M05 A2966 RMK AO2,M
RTS,2025-03-13 19:15,-119.8764,39.6682,1539.00,35.60,23.00,59.79,330.00,8.00,0.00,29.65,M,10.00,M,SCT,SCT,BKN,M,2500.00,3000.00,4000.00,M,M,M,M,M,M,M,M,28.55,KRTS 131915Z AUTO 33008KT 10SM SCT025 SCT030 BKN040 02/M05 A2965 RMK AO2,M
MEV,2025-03-13 19:15,-119.7500,38.9963,1441.42,37.40,24.80,60.04,260.00,6.00,0.00,29.65,M,10.00,M,CLR,M,M,M,M,M,M,M,M,M,M,M,M,M,M,32.03,KMEV 131915Z AUTO 26006KT 10SM CLR 03/M04 A2965 RMK AO2,M
HTH,2025-03-13 19:15,-118.6315,38.5448,1282.89,46.40,14.00,26.75,350.00,14.00,0.00,29.60,M,10.00,23.00,SCT,M,M,M,7500.00,M,M,M,M,M,M,M,M,M,M,39.72,KHTH 131915Z AUTO 35014G23KT 310V010 10SM SCT075 08/M10 A2960 RMK A01,M
ELY,2025-03-13 19:16,-114.8453,39.2950,1909.00,M,M,M,200.00,10.00,0.02,29.51,M,0.50,22.00,VV ,M,M,M,1000.00,M,M,M,SN,M,M,M,M,M,M,M,KELY 131916Z AUTO 20010G22KT 1/2SM SN VV010 A2951 RMK AO2 P0002 TSNO $,M
INS,2025-03-13 19:16,-115.6733,36.5872,955.00,51.80,23.00,32.17,210.00,18.00,0.00,29.60,1000.10,10.00,27.00,FEW,OVC,M,M,7000.00,13000.00,M,M,M,M,M,M,M,M,M,51.80,KINS 131916Z AUTO 21018G27KT 10SM FEW070 OVC130 11/M05 A2960 RMK AO2 WSHFT 01 SLP001 $,M
10U,2025-03-13 19:20,-116.1876,41.9532,1637.00,33.80,24.80,69.25,250.00,8.00,0.00,29.59,M,10.00,M,FEW,M,M,M,1900.00,M,M,M,M,M,M,M,M,M,M,26.33,K10U 131920Z AUTO 25008KT 10SM FEW019 01/M04 A2959 RMK AO2,M
INS,2025-03-13 19:26,-115.6733,36.5872,955.00,51.80,23.00,32.17,170.00,13.00,0.00,29.61,1000.40,10.00,27.00,FEW,OVC,M,M,7500.00,13000.00,M,M,M,M,M,M,M,M,M,51.80,KINS 131926Z AUTO 17013G27KT 10SM FEW075 OVC130 11/M05 A2961 RMK AO2 WSHFT 17 SLP004 $,M
ELY,2025-03-13 19:26,-114.8453,39.2950,1909.00,M,M,M,200.00,16.00,0.03,29.52,M,0.50,27.00,FEW,OVC,M,M,500.00,1000.00,M,M,SN,M,M,M,27.00,190.00,2025-03-13 19:26,M,KELY 131926Z AUTO 20016G27KT 1/2SM SN FEW005 OVC010 A2952 RMK AO2 PK WND 19027/1926 P0003 $,M
TMT,2025-03-13 19:30,-117.1971,39.4643,1749.34,29.00,25.50,86.57,230.00,5.00,0.00,29.64,M,1.75,M,SCT,OVC,M,M,700.00,1300.00,M,M,-SN,M,M,M,M,M,M,22.83,KTMT 131930Z AUTO 23005KT 1 3/4SM -SN SCT007 OVC013 M02/M04 A2964 RMK AO2 VIS 1V2 1/2 T10161036,M
ELY,2025-03-13 19:31,-114.8453,39.2950,1909.00,M,M,M,220.00,17.00,0.04,29.51,M,0.25,39.00,VV ,M,M,M,700.00,M,M,M,+SN,M,M,M,39.00,190.00,2025-03-13 19:27,M,KELY 131931Z AUTO 22017G39KT 1/4SM +SN VV007 A2951 RMK AO2 PK WND 19039/1927 P0004 $,M
BVU,2025-03-13 19:35,-114.8611,35.9475,671.00,50.00,33.80,53.54,210.00,10.00,0.00,29.67,M,10.00,M,FEW,SCT,BKN,M,4900.00,5500.00,6500.00,M,M,M,M,M,M,M,M,50.00,KBVU 131935Z AUTO 21010KT 10SM FEW049 SCT055 BKN065 10/01 A2967 RMK AO2,M
BAM,2025-03-13 19:35,-116.8743,40.5990,1382.36,32.00,32.00,100.00,0.00,0.00,0.00,29.63,M,1.00,M,BKN,OVC,M,M,500.00,900.00,M,M,M,M,M,M,M,M,M,32.00,KBAM 131935Z AUTO 00000KT 1SM BKN005 OVC009 00/00 A2963 RMK AO1,M
CXP,2025-03-13 19:35,-119.7326,39.1923,1431.00,39.20,24.80,55.95,M,6.00,0.00,29.66,M,10.00,14.00,FEW,SCT,SCT,M,3800.00,4500.00,11000.00,M,M,M,M,M,M,M,M,34.20,KCXP 131935Z AUTO VRB06G14KT 10SM FEW038 SCT045 SCT110 04/M04 A2966 RMK AO2,M
RTS,2025-03-13 19:35,-119.8764,39.6682,1539.00,35.60,21.20,55.41,300.00,10.00,0.00,29.65,M,10.00,M,FEW,SCT,BKN,M,2500.00,3100.00,4400.00,M,M,M,M,M,M,M,M,27.48,KRTS 131935Z AUTO 30010KT 10SM FEW025 SCT031 BKN044 02/M06 A2965 RMK AO2,M
MEV,2025-03-13 19:35,-119.7500,38.9963,1441.42,39.20,23.00,51.89,230.00,9.00,0.00,29.65,M,10.00,M,CLR,M,M,M,M,M,M,M,M,M,M,M,M,M,M,32.47,KMEV 131935Z AUTO 23009KT 10SM CLR 04/M05 A2965 RMK AO2,M
HTH,2025-03-13 19:35,-118.6315,38.5448,1282.89,46.40,14.00,26.75,350.00,17.00,0.00,29.60,M,10.00,22.00,BKN,BKN,M,M,7000.00,8500.00,M,M,M,M,M,M,M,M,M,38.94,KHTH 131935Z AUTO 35017G22KT 10SM BKN070 BKN085 08/M10 A2960 RMK A01,M
10U,2025-03-13 19:40,-116.1876,41.9532,1637.00,33.80,26.60,74.63,240.00,9.00,0.00,29.58,M,10.00,M,CLR,M,M,M,M,M,M,M,M,M,M,M,M,M,M,25.75,K10U 131940Z AUTO 24009KT 10SM CLR 01/M03 A2958 RMK AO2,M
ELY,2025-03-13 19:41,-114.8453,39.2950,1909.00,M,M,M,170.00,14.00,0.05,29.50,M,0.50,24.00,FEW,OVC,M,M,500.00,1100.00,M,M,SN,M,M,M,39.00,190.00,2025-03-13 19:27,M,KELY 131941Z AUTO 17014G24KT 1/2SM SN FEW005 OVC011 A2950 RMK AO2 PK WND 19039/1927 P0005 $,M
ELY,2025-03-13 19:48,-114.8453,39.2950,1909.00,M,M,M,160.00,12.00,0.06,29.50,M,1.00,21.00,FEW,BKN,OVC,M,500.00,1500.00,3200.00,M,-SN,M,M,M,39.00,190.00,2025-03-13 19:27,M,KELY 131948Z AUTO 16012G21KT 1SM -SN FEW005 BKN015 OVC032 A2950 RMK AO2 PK WND 19039/1927 P0006 $,M
TMT,2025-03-13 19:50,-117.1971,39.4643,1749.34,28.60,26.00,89.84,230.00,4.00,0.00,29.64,M,0.75,M,BKN,OVC,M,M,700.00,1300.00,M,M,-SN,M,M,M,M,M,M,23.45,KTMT 131950Z AUTO 23004KT 3/4SM -SN BKN007 OVC013 M02/M03 A2964 RMK AO2 T10191034,M
P68,2025-03-13 19:53,-116.0056,39.6014,1993.00,29.00,28.00,95.99,360.00,9.00,0.10,29.57,999.50,M,M,M,M,M,M,M,M,M,M,M,M,M,M,M,M,M,19.78,KP68 131953Z AUTO 36009KT M02/M02 A2957 RMK AO1 SLP995 P0010 T10171022,M
DRA,2025-03-13 19:53,-116.0278,36.6206,1009.00,50.00,32.00,49.81,210.00,25.00,0.00,29.60,1000.30,10.00,41.00,FEW,SCT,M,M,3900.00,5000.00,M,M,M,M,M,M,48.00,200.00,2025-03-13 18:57,50.00,KDRA 131953Z AUTO 21025G41KT 10SM FEW039 SCT050 10/00 A2960 RMK AO2 PK WND 20048/1857 SLP003 T01000000,M
ELY,2025-03-13 19:53,-114.8453,39.2950,1909.00,M,M,M,160.00,19.00,0.06,29.50,M,2.50,26.00,BKN,BKN,OVC,M,1700.00,2700.00,3300.00,M,-SN,M,M,M,39.00,190.00,2025-03-13 19:27,M,KELY 131953Z AUTO 16019G26KT 2 1/2SM -SN BKN017 BKN027 OVC033 A2950 RMK AO2 PK WND 19039/1927 SLPNO P0006 $,M
VGT,2025-03-13 19:53,-115.1933,36.2111,667.00,55.00,28.00,35.21,220.00,15.00,0.00,29.63,1004.30,10.00,27.00,CLR,M,M,M,M,M,M,M,M,M,M,M,30.00,210.00,2025-03-13 19:38,55.00,KVGT 131953Z 22015G27KT 10SM CLR 13/M02 A2963 RMK AO2 PK WND 21030/1938 SLP043 T01281022,M
LOL,2025-03-13 19:53,-118.5701,40.0684,1192.43,40.00,23.00,50.30,240.00,11.00,0.00,29.63,1003.90,10.00,M,BKN,OVC,M,M,4000.00,4900.00,M,M,M,M,M,M,M,M,M,32.58,KLOL 131953Z AUTO 24011KT 10SM BKN040 OVC049 04/M05 A2963 RMK AO2 SLP039 T00441050,M
BVU,2025-03-13 19:55,-114.8611,35.9475,671.00,50.00,32.00,49.81,200.00,11.00,0.00,29.66,M,10.00,M,FEW,SCT,SCT,M,6000.00,8000.00,10000.00,M,M,M,M,M,M,M,M,50.00,KBVU 131955Z AUTO 20011KT 10SM FEW060 SCT080 SCT100 10/M00 A2966 RMK AO2,M
RNO,2025-03-13 19:55,-119.7711,39.4839,1341.00,42.00,11.00,27.71,270.00,11.00,0.00,29.63,1002.90,10.00,22.00,BKN,BKN,M,M,5500.00,20000.00,M,M,M,M,M,M,M,M,M,35.10,KRNO 131955Z 27011G22KT 10SM BKN055 BKN200 06/M12 A2963 RMK AO2 SLP029 SH VC T00561117,M
LSV,2025-03-13 19:55,-115.0343,36.2362,570.00,53.00,33.80,47.92,200.00,16.00,0.00,29.61,1001.80,10.00,M,SCT,BKN,M,M,6000.00,8000.00,M,M,M,M,M,M,M,M,M,53.00,KLSV 131955Z 20016KT 10SM SCT060 BKN080 12/01 A2961 RMK AO2A SLP018 T01160010 FZRANO $,M
BAM,2025-03-13 19:55,-116.8743,40.5990,1382.36,33.80,32.00,93.03,0.00,0.00,0.00,29.63,M,10.00,M,SCT,OVC,M,M,500.00,6000.00,M,M,M,M,M,M,M,M,M,33.80,KBAM 131955Z AUTO 00000KT 10SM SCT005 OVC060 01/00 A2963 RMK AO1,M
CXP,2025-03-13 19:55,-119.7326,39.1923,1431.00,41.00,23.00,48.39,0.00,0.00,0.00,29.66,M,10.00,11.00,CLR,M,M,M,M,M,M,M,M,M,M,M,M,M,M,41.00,KCXP 131955Z AUTO 00000G11KT 10SM CLR 05/M05 A2966 RMK AO2,M
RTS,2025-03-13 19:55,-119.8764,39.6682,1539.00,35.60,19.40,51.33,310.00,7.00,0.00,29.64,M,10.00,14.00,BKN,OVC,M,M,4800.00,5500.00,M,M,M,M,M,M,M,M,M,29.17,KRTS 131955Z AUTO 31007G14KT 10SM BKN048 OVC055 02/M07 A2964 RMK AO2,M
MEV,2025-03-13 19:55,-119.7500,38.9963,1441.42,41.00,24.80,52.17,250.00,10.00,0.00,29.65,M,10.00,17.00,CLR,M,M,M,M,M,M,M,M,M,M,M,M,M,M,34.25,KMEV 131955Z AUTO 25010G17KT 10SM CLR 05/M04 A2965 RMK AO2,M
HTH,2025-03-13 19:55,-118.6315,38.5448,1282.89,44.60,14.00,28.64,340.00,17.00,0.00,29.60,M,10.00,23.00,FEW,BKN,BKN,M,4800.00,7000.00,8500.00,M,M,M,M,M,M,M,M,36.58,KHTH 131955Z AUTO 34017G23KT 10SM FEW048 BKN070 BKN085 07/M10 A2960 RMK A01,M
INS,2025-03-13 19:55,-115.6733,36.5872,955.00,53.00,18.00,24.88,190.00,26.00,0.00,29.57,999.00,10.00,34.00,SCT,M,M,M,13000.00,M,M,M,M,M,M,M,34.00,220.00,2025-03-13 19:51,53.00,KINS 131955Z AUTO 19026G34KT 10SM SCT130 12/M08 A2957 RMK AO2 PK WND 22034/51 PRESFR SLP990 T01171077 $,M
EKO,2025-03-13 19:56,-115.7860,40.8242,1367.00,33.00,29.00,85.04,270.00,7.00,T,29.58,1001.20,2.50,M,FEW,BKN,OVC,M,2200.00,3600.00,4600.00,M,-SN BR,M,M,M,M,M,M,26.00,KEKO 131956Z AUTO 27007KT 2 1/2SM -SN BR FEW022 BKN036 OVC046 01/M02 A2958 RMK AO2 SNE23B45 SLP012 P0000 T00061017,M
HND,2025-03-13 19:56,-115.1344,35.9729,742.79,52.00,36.00,54.26,230.00,23.00,0.00,29.66,1005.50,10.00,29.00,CLR,M,M,M,M,M,M,M,M,M,M,M,29.00,220.00,2025-03-13 19:55,52.00,KHND 131956Z 23023G29KT 10SM CLR 11/02 A2966 RMK AO2 PK WND 22029/1955 SLP055 T01110022 $,M
LAS,2025-03-13 19:56,-115.1634,36.0719,663.00,54.00,31.00,41.27,210.00,19.00,0.00,29.65,1003.10,10.00,34.00,FEW,SCT,BKN,M,3500.00,6500.00,12000.00,M,M,M,M,M,34.00,220.00,2025-03-13 19:53,54.00,KLAS 131956Z 21019G34KT 10SM FEW035 SCT065 BKN120 12/M01 A2965 RMK AO2 PK WND 22034/1953 SLP031 VIRGA DSNT SW-W T01221006,M
WMC,2025-03-13 19:56,-117.8072,40.9019,1315.00,M,M,M,M,M,0.00,M,M,M,M,M,M,M,M,M,M,M,M,M,M,M,M,M,M,M,M,KWMC 131956Z AUTO RMK AO2 SLPNO PWINO FZRANO TSNO $,M
NFL,2025-03-13 19:57,-118.7010,39.4166,1199.00,44.00,21.00,39.62,M,5.00,0.00,29.62,1001.40,10.00,M,FEW,BKN,BKN,M,3000.00,5000.00,10000.00,M,M,M,M,M,M,M,M,40.65,KNFL 131957Z VRB05KT 10SM FEW030 BKN050 BKN100 07/M06 A2962 RMK AO2 SLP014 SH DSNT N-NE T00671061,M
10U,2025-03-13 20:00,-116.1876,41.9532,1637.00,35.60,24.80,64.46,240.00,10.00,0.00,29.57,M,10.00,M,CLR,M,M,M,M,M,M,M,M,M,M,M,M,M,M,27.48,K10U 132000Z AUTO 24010KT 10SM CLR 02/M04 A2957 RMK AO2,M
EKO,2025-03-13 20:01,-115.7860,40.8242,1367.00,33.00,31.00,92.25,260.00,12.00,T,29.58,M,0.75,16.00,FEW,BKN,OVC,M,1200.00,3300.00,4600.00,M,-SN BR,M,M,M,M,M,M,23.27,KEKO 132001Z AUTO 26012G16KT 3/4SM -SN BR FEW012 BKN033 OVC046 01/M01 A2958 RMK AO2 P0000 T00061006,M
ELY,2025-03-13 20:01,-114.8453,39.2950,1909.00,M,M,M,160.00,20.00,T,29.50,M,6.00,28.00,BKN,OVC,M,M,2100.00,3400.00,M,M,-SN,M,M,M,28.00,150.00,2025-03-13 19:54,M,KELY 132001Z AUTO 16020G28KT 6SM -SN BKN021 OVC034 A2950 RMK AO2 PK WND 15028/1954 P0000 $,M
EKO,2025-03-13 20:08,-115.7860,40.8242,1367.00,31.00,29.00,92.19,260.00,9.00,T,29.58,M,0.50,M,FEW,BKN,OVC,M,1000.00,1800.00,3700.00,M,-SN FZFG,M,M,M,M,M,M,22.27,KEKO 132008Z AUTO 26009KT 1/2SM -SN FZFG FEW010 BKN018 OVC037 M01/M02 A2958 RMK AO2 P0000 T10061017,M
TMT,2025-03-13 20:10,-117.1971,39.4643,1749.34,28.80,25.70,88.01,240.00,3.00,0.00,29.62,M,3.00,M,BKN,OVC,M,M,2500.00,3000.00,M,M,-SN,M,M,M,M,M,M,25.03,KTMT 132010Z AUTO 24003KT 3SM -SN BKN025 OVC030 M02/M03 A2962 RMK AO2 T10181035,M
BVU,2025-03-13 20:15,-114.8611,35.9475,671.00,51.80,32.00,46.59,220.00,17.00,0.00,29.67,M,10.00,M,FEW,M,M,M,11000.00,M,M,M,M,M,M,M,M,M,M,51.80,KBVU 132015Z AUTO 22017KT 10SM FEW110 11/00 A2967 RMK AO2,M
BAM,2025-03-13 20:15,-116.8743,40.5990,1382.36,35.60,32.00,86.59,180.00,5.00,0.00,29.63,M,10.00,M,BKN,OVC,M,M,7000.00,9000.00,M,M,M,M,M,M,M,M,M,30.67,KBAM 132015Z AUTO 18005KT 10SM BKN070 OVC090 02/00 A2963 RMK AO1,M
CXP,2025-03-13 20:15,-119.7326,39.1923,1431.00,41.00,21.20,44.85,230.00,6.00,0.00,29.66,M,10.00,15.00,CLR,M,M,M,M,M,M,M,M,M,M,M,M,M,M,36.37,KCXP 132015Z AUTO 23006G15KT 10SM CLR 05/M06 A2966 RMK AO2,M
RTS,2025-03-13 20:15,-119.8764,39.6682,1539.00,35.60,21.20,55.41,290.00,14.00,0.00,29.64,M,10.00,M,BKN,OVC,M,M,4000.00,4700.00,M,M,M,M,M,M,M,M,M,25.80,KRTS 132015Z AUTO 29014KT 10SM BKN040 OVC047 02/M06 A2964 RMK AO2,M
MEV,2025-03-13 20:15,-119.7500,38.9963,1441.42,41.00,24.80,52.17,240.00,11.00,0.00,29.65,M,10.00,M,CLR,M,M,M,M,M,M,M,M,M,M,M,M,M,M,33.84,KMEV 132015Z AUTO 24011KT 10SM CLR 05/M04 A2965 RMK AO2,M
HTH,2025-03-13 20:15,-118.6315,38.5448,1282.89,44.60,14.00,28.64,330.00,16.00,0.00,29.60,M,10.00,22.00,FEW,FEW,FEW,M,4800.00,6000.00,7000.00,M,M,M,M,M,M,M,M,36.84,KHTH 132015Z AUTO 33016G22KT 10SM FEW048 FEW060 FEW070 07/M10 A2960 RMK A01,M
EKO,2025-03-13 20:16,-115.7860,40.8242,1367.00,31.00,30.00,96.02,230.00,6.00,0.01,29.58,M,0.50,M,FEW,BKN,OVC,M,400.00,1400.00,2100.00,M,SN FZFG,M,M,M,M,M,M,24.33,KEKO 132016Z AUTO 23006KT 1/2SM SN FZFG FEW004 BKN014 OVC021 M01/M01 A2958 RMK AO2 P0001 T10061011,M
10U,2025-03-13 20:20,-116.1876,41.9532,1637.00,33.80,26.60,74.63,240.00,11.00,0.00,29.57,M,10.00,M,CLR,M,M,M,M,M,M,M,M,M,M,M,M,M,M,24.74,K10U 132020Z AUTO 24011KT 10SM CLR 01/M03 A2957 RMK AO2,M
EKO,2025-03-13 20:22,-115.7860,40.8242,1367.00,31.00,31.00,100.00,250.00,7.00,0.01,29.58,M,1.00,M,FEW,BKN,OVC,M,400.00,1400.00,2300.00,M,-SN BR,M,M,M,M,M,M,23.56,KEKO 132022Z AUTO 25007KT 1SM -SN BR FEW004 BKN014 OVC023 M01/M01 A2958 RMK AO2 P0001 T10061006,M
ELY,2025-03-13 20:28,-114.8453,39.2950,1909.00,M,M,M,160.00,20.00,T,29.49,M,9.00,30.00,FEW,BKN,OVC,M,2200.00,4200.00,5000.00,M,M,M,M,M,30.00,160.00,2025-03-13 20:20,M,KELY 132028Z AUTO 16020G30KT 9SM FEW022 BKN042 OVC050 A2949 RMK AO2 PK WND 16030/2020 UPB23E25SNE23 P0000 $,M
TMT,2025-03-13 20:30,-117.1971,39.4643,1749.34,29.30,26.00,87.31,210.00,4.00,0.00,29.62,M,7.00,M,SCT,SCT,BKN,M,1600.00,2300.00,3100.00,M,-SN,M,M,M,M,M,M,24.27,KTMT 132030Z AUTO 21004KT 7SM -SN SCT016 SCT023 BKN031 M01/M03 A2962 RMK AO2 T10151033,M
EKO,2025-03-13 20:31,-115.7860,40.8242,1367.00,32.00,30.00,92.22,250.00,6.00,0.01,29.58,M,2.00,M,FEW,BKN,OVC,M,400.00,1800.00,3400.00,M,-SN BR,M,M,M,M,M,M,25.53,KEKO 132031Z AUTO 25006KT 2SM -SN BR FEW004 BKN018 OVC034 00/M01 A2958 RMK AO2 P0001 T00001011,M
BVU,2025-03-13 20:35,-114.8611,35.9475,671.00,53.60,32.00,43.61,230.00,15.00,0.00,29.65,M,10.00,25.00,CLR,M,M,M,M,M,M,M,M,M,M,M,M,M,M,53.60,KBVU 132035Z AUTO 23015G25KT 10SM CLR 12/00 A2965 RMK AO2,M
BAM,2025-03-13 20:35,-116.8743,40.5990,1382.36,35.60,32.00,86.59,190.00,4.00,0.00,29.63,M,10.00,M,SCT,BKN,OVC,M,4800.00,5500.00,9000.00,M,M,M,M,M,M,M,M,31.62,KBAM 132035Z AUTO 19004KT 10SM SCT048 BKN055 OVC090 02/00 A2963 RMK AO1,M
CXP,2025-03-13 20:35,-119.7326,39.1923,1431.00,41.00,17.60,38.45,240.00,10.00,0.00,29.65,M,10.00,21.00,CLR,M,M,M,M,M,M,M,M,M,M,M,M,M,M,34.25,KCXP 132035Z AUTO 24010G21KT 210V280 10SM CLR 05/M08 A2965 RMK AO2,M
RTS,2025-03-13 20:35,-119.8764,39.6682,1539.00,37.40,23.00,55.68,260.00,11.00,0.00,29.64,M,9.00,18.00,SCT,BKN,BKN,M,3900.00,4400.00,5000.00,M,-SN,M,M,M,M,M,M,29.29,KRTS 132035Z AUTO 26011G18KT 9SM -SN SCT039 BKN044 BKN050 03/M05 A2964 RMK AO2,M
MEV,2025-03-13 20:35,-119.7500,38.9963,1441.42,41.00,24.80,52.17,250.00,9.00,0.00,29.65,M,5.00,16.00,CLR,M,M,M,M,M,M,M,-RA HZ,M,M,M,M,M,M,34.70,KMEV 132035Z AUTO 25009G16KT 5SM -RA HZ CLR 05/M04 A2965 RMK AO2,M
HTH,2025-03-13 20:35,-118.6315,38.5448,1282.89,46.40,12.20,24.71,300.00,17.00,0.00,29.60,M,10.00,28.00,SCT,M,M,M,6500.00,M,M,M,M,M,M,M,M,M,M,38.94,KHTH 132035Z AUTO 30017G28KT 10SM SCT065 08/M11 A2960 RMK A01,M
10U,2025-03-13 20:40,-116.1876,41.9532,1637.00,33.80,26.60,74.63,230.00,10.00,0.00,29.57,M,10.00,M,CLR,M,M,M,M,M,M,M,M,M,M,M,M,M,M,25.23,K10U 132040Z AUTO 23010KT 10SM CLR 01/M03 A2957 RMK AO2,M
EKO,2025-03-13 20:44,-115.7860,40.8242,1367.00,31.00,29.00,92.19,360.00,4.00,0.01,29.58,M,0.75,M,SCT,BKN,OVC,M,900.00,1800.00,2400.00,M,-SN BR,M,M,M,M,M,M,26.25,KEKO 132044Z AUTO 36004KT 3/4SM -SN BR SCT009 BKN018 OVC024 M01/M02 A2958 RMK AO2 P0001 T10061017,M
TMT,2025-03-13 20:50,-117.1971,39.4643,1749.34,30.00,26.00,84.85,160.00,3.00,0.00,29.62,M,10.00,M,SCT,SCT,SCT,M,1600.00,2300.00,6000.00,M,M,M,M,M,M,M,M,26.40,KTMT 132050Z AUTO 16003KT 10SM SCT016 SCT023 SCT060 M01/M03 A2962 RMK AO2 T10121033,M
P68,2025-03-13 20:53,-116.0056,39.6014,1993.00,29.00,27.00,92.12,350.00,8.00,0.05,29.56,999.30,M,M,M,M,M,M,M,M,M,M,M,M,M,M,M,M,M,20.42,KP68 132053Z AUTO 35008KT M02/M03 A2956 RMK AO1 SLP993 P0005 60031 T10171028 58004,M
DRA,2025-03-13 20:53,-116.0278,36.6206,1009.00,51.00,30.00,44.26,200.00,22.00,0.00,29.57,999.30,10.00,38.00,BKN,M,M,M,5000.00,M,M,M,M,M,M,M,45.00,200.00,2025-03-13 20:06,51.00,KDRA 132053Z AUTO 20022G38KT 10SM BKN050 11/M01 A2957 RMK AO2 PK WND 20045/2006 SLP993 T01061011 56013,M
ELY,2025-03-13 20:53,-114.8453,39.2950,1909.00,M,M,M,200.00,10.00,T,29.47,M,10.00,23.00,BKN,OVC,M,M,4100.00,8000.00,M,M,M,M,M,M,35.00,150.00,2025-03-13 20:30,M,KELY 132053Z AUTO 20010G23KT 10SM BKN041 OVC080 A2947 RMK AO2 PK WND 15035/2030 UPB23E25SNE23 SLPNO P0000 60010 58014 $,M
VGT,2025-03-13 20:53,-115.1933,36.2111,667.00,56.00,24.00,28.77,230.00,15.00,0.00,29.60,1003.20,10.00,26.00,SCT,M,M,M,6500.00,M,M,M,M,M,M,M,33.00,220.00,2025-03-13 19:57,56.00,KVGT 132053Z 23015G26KT 10SM SCT065 13/M04 A2960 RMK AO2 PK WND 22033/1957 SLP032 T01331044 56035,M
LOL,2025-03-13 20:53,-118.5701,40.0684,1192.43,42.00,20.00,41.00,220.00,7.00,0.00,29.61,1003.10,10.00,M,SCT,BKN,OVC,M,4900.00,6000.00,7500.00,M,M,M,M,M,M,M,M,36.97,KLOL 132053Z AUTO 22007KT 10SM SCT049 BKN060 OVC075 06/M07 A2961 RMK AO2 SLP031 T00561067 58009,M
EKO,2025-03-13 20:54,-115.7860,40.8242,1367.00,30.20,26.60,86.28,190.00,3.00,0.02,29.57,M,3.00,M,FEW,BKN,OVC,M,1200.00,3000.00,3700.00,M,-SN,M,M,M,M,M,M,26.63,KEKO 132054Z AUTO 19003KT 3SM -SN FEW012 BKN030 OVC037 M01/M03 A2957 RMK AO2 P0002,M
BVU,2025-03-13 20:55,-114.8611,35.9475,671.00,55.40,32.00,40.84,240.00,14.00,0.00,29.64,M,10.00,21.00,SCT,SCT,SCT,M,6000.00,7000.00,8000.00,M,M,M,M,M,M,M,M,55.40,KBVU 132055Z AUTO 24014G21KT 10SM SCT060 SCT070 SCT080 13/M00 A2964 RMK AO2,M
RNO,2025-03-13 20:55,-119.7711,39.4839,1341.00,46.00,12.00,24.86,290.00,18.00,0.00,29.61,1001.90,10.00,27.00,SCT,SCT,M,M,5500.00,20000.00,M,M,M,M,M,M,27.00,290.00,2025-03-13 20:50,38.18,KRNO 132055Z 29018G27KT 10SM SCT055 SCT200 08/M11 A2961 RMK AO2 PK WND 29027/2050 SLP019 SH VC T00781111 58007,M
BAM,2025-03-13 20:55,-116.8743,40.5990,1382.36,35.60,32.00,86.59,0.00,0.00,0.00,29.63,M,10.00,M,SCT,BKN,OVC,M,1400.00,4800.00,5500.00,M,M,M,M,M,M,M,M,35.60,KBAM 132055Z AUTO 00000KT 10SM SCT014 BKN048 OVC055 02/00 A2963 RMK AO1,M
CXP,2025-03-13 20:55,-119.7326,39.1923,1431.00,41.00,21.20,44.85,250.00,14.00,0.00,29.66,M,10.00,23.00,FEW,FEW,M,M,10000.00,12000.00,M,M,M,M,M,M,M,M,M,32.76,KCXP 132055Z AUTO 25014G23KT 10SM FEW100 FEW120 05/M06 A2966 RMK AO2,M
RTS,2025-03-13 20:55,-119.8764,39.6682,1539.00,39.20,21.20,48.10,300.00,15.00,0.00,29.63,M,10.00,20.00,FEW,SCT,M,M,4100.00,4900.00,M,M,M,M,M,M,M,M,M,30.11,KRTS 132055Z AUTO 30015G20KT 10SM FEW041 SCT049 04/M06 A2963 RMK AO2,M
MEV,2025-03-13 20:55,-119.7500,38.9963,1441.42,33.80,28.40,80.36,310.00,12.00,0.00,29.66,M,1.50,23.00,FEW,SCT,SCT,M,400.00,2900.00,4400.00,M,-SN HZ,M,M,M,M,M,M,24.29,KMEV 132055Z AUTO 31012G23KT 1 1/2SM -SN HZ FEW004 SCT029 SCT044 01/M02 A2966 RMK AO2,M
HTH,2025-03-13 20:55,-118.6315,38.5448,1282.89,46.40,12.20,24.71,330.00,14.00,0.00,29.59,M,10.00,21.00,FEW,FEW,M,M,6500.00,9000.00,M,M,M,M,M,M,M,M,M,39.72,KHTH 132055Z AUTO 33014G21KT 10SM FEW065 FEW090 08/M11 A2959 RMK A01,M
INS,2025-03-13 20:55,-115.6733,36.5872,955.00,52.50,21.20,29.06,210.00,25.00,0.00,29.55,998.30,10.00,31.00,CLR,M,M,M,M,M,M,M,M,M,M,M,37.00,210.00,2025-03-13 20:07,52.50,KINS 132055Z AUTO 21025G31KT 10SM CLR 11/M06 A2955 RMK AO2 PK WND 21037/07 SLP983 T01141060 57027 $,M
LSV,2025-03-13 20:55,-115.0343,36.2362,570.00,58.50,26.20,28.81,240.00,21.00,0.00,29.58,1000.70,10.00,25.00,SCT,BKN,M,M,6000.00,12000.00,M,M,M,M,M,M,27.00,240.00,2025-03-13 20:43,58.50,KLSV 132055Z 24021G25KT 10SM SCT060 BKN120 15/M03 A2958 RMK AO2A PK WND 24027/43 SLP007 60000 T01471032 57035 FZRANO $,M
EKO,2025-03-13 20:56,-115.7860,40.8242,1367.00,31.00,27.00,84.92,190.00,4.00,0.02,29.57,1001.00,8.00,M,FEW,BKN,OVC,M,1200.00,3300.00,4900.00,M,-SN,M,M,M,M,M,M,26.25,KEKO 132056Z AUTO 19004KT 8SM -SN FEW012 BKN033 OVC049 M01/M03 A2957 RMK AO2 SLP010 P0002 60002 T10061028 58008,M
HND,2025-03-13 20:56,-115.1344,35.9729,742.79,54.00,32.00,42.98,230.00,19.00,0.00,29.65,1004.90,10.00,27.00,FEW,M,M,M,6000.00,M,M,M,M,M,M,M,34.00,230.00,2025-03-13 20:30,54.00,KHND 132056Z 23019G27KT 10SM FEW060 12/00 A2965 RMK AO2 PK WND 23034/2030 SLP049 60000 T01220000 56030 $,M
LAS,2025-03-13 20:56,-115.1634,36.0719,663.00,56.00,28.00,33.96,220.00,16.00,0.00,29.63,1002.40,10.00,27.00,SCT,SCT,M,M,5000.00,10000.00,M,M,M,M,M,M,30.00,240.00,2025-03-13 20:40,56.00,KLAS 132056Z 22016G27KT 10SM SCT050 SCT100 13/M02 A2963 RMK AO2 PK WND 24030/2040 SLP024 VIRGA DSNT SW-W T01331022 56030,M
WMC,2025-03-13 20:56,-117.8072,40.9019,1315.00,M,M,M,M,M,0.00,M,M,M,M,M,M,M,M,M,M,M,M,M,M,M,M,M,M,M,M,KWMC 132056Z AUTO RMK AO2 SLPNO PWINO FZRANO TSNO $,M
NFL,2025-03-13 20:57,-118.7010,39.4166,1199.00,46.00,15.00,28.37,300.00,10.00,0.00,29.60,1000.80,10.00,M,FEW,BKN,BKN,M,3000.00,5000.00,10000.00,M,M,M,M,M,M,M,M,40.52,KNFL 132057Z 30010KT 10SM FEW030 BKN050 BKN100 08/M09 A2960 RMK AO2 SLP008 SH DSNT N-NE T00781094 58010,M
10U,2025-03-13 21:00,-116.1876,41.9532,1637.00,33.80,24.80,69.25,250.00,9.00,0.00,29.56,M,10.00,M,CLR,M,M,M,M,M,M,M,M,M,M,M,M,M,M,25.75,K10U 132100Z AUTO 25009KT 10SM CLR 01/M04 A2956 RMK AO2,M
TMT,2025-03-13 21:10,-117.1971,39.4643,1749.34,30.40,26.20,84.18,160.00,3.00,0.00,29.61,M,10.00,M,SCT,SCT,M,M,1000.00,3900.00,M,M,M,M,M,M,M,M,M,26.86,KTMT 132110Z AUTO 16003KT 10SM SCT010 SCT039 M01/M03 A2961 RMK AO2 T10091032,M
BVU,2025-03-13 21:15,-114.8611,35.9475,671.00,55.40,26.60,32.76,250.00,16.00,0.00,29.62,M,10.00,25.00,SCT,SCT,BKN,M,6000.00,7000.00,12000.00,M,M,M,M,M,M,M,M,55.40,KBVU 132115Z AUTO 25016G25KT 10SM SCT060 SCT070 BKN120 13/M03 A2962 RMK AO2,M
BAM,2025-03-13 21:15,-116.8743,40.5990,1382.36,37.40,32.00,80.65,0.00,0.00,0.00,29.61,M,10.00,M,SCT,BKN,OVC,M,1500.00,2000.00,4500.00,M,M,M,M,M,M,M,M,37.40,KBAM 132115Z AUTO 00000KT 10SM SCT015 BKN020 OVC045 03/00 A2961 RMK AO1,M
CXP,2025-03-13 21:15,-119.7326,39.1923,1431.00,39.20,23.00,51.89,270.00,12.00,0.00,29.66,M,10.00,22.00,BKN,BKN,M,M,9000.00,11000.00,M,M,M,M,M,M,M,M,M,31.17,KCXP 132115Z AUTO 27012G22KT 10SM BKN090 BKN110 04/M05 A2966 RMK AO2,M
RTS,2025-03-13 21:15,-119.8764,39.6682,1539.00,39.20,21.20,48.10,280.00,18.00,0.00,29.63,M,10.00,M,CLR,M,M,M,M,M,M,M,M,M,M,M,M,M,M,29.23,KRTS 132115Z AUTO 28018KT 10SM CLR 04/M06 A2963 RMK AO2,M
MEV,2025-03-13 21:15,-119.7500,38.9963,1441.42,39.20,26.60,60.29,270.00,11.00,0.00,29.64,M,10.00,M,CLR,M,M,M,M,M,M,M,M,M,M,M,M,M,M,31.57,KMEV 132115Z AUTO 27011KT 250V310 10SM CLR 04/M03 A2964 RMK AO2,M
HTH,2025-03-13 21:15,-118.6315,38.5448,1282.89,46.40,10.40,22.81,340.00,18.00,0.00,29.59,M,10.00,25.00,SCT,M,M,M,9000.00,M,M,M,M,M,M,M,M,M,M,38.70,KHTH 132115Z AUTO 34018G25KT 10SM SCT090 08/M12 A2959 RMK A01,M
10U,2025-03-13 21:20,-116.1876,41.9532,1637.00,35.60,24.80,64.46,260.00,10.00,0.00,29.56,M,10.00,M,FEW,M,M,M,2300.00,M,M,M,M,M,M,M,M,M,M,27.48,K10U 132120Z AUTO 26010KT 10SM FEW023 02/M04 A2956 RMK AO2,M
TMT,2025-03-13 21:30,-117.1971,39.4643,1749.34,30.70,25.70,81.45,210.00,4.00,0.00,29.61,M,10.00,M,SCT,SCT,SCT,M,1000.00,3100.00,3800.00,M,M,M,M,M,M,M,M,25.90,KTMT 132130Z AUTO 21004KT 10SM SCT010 SCT031 SCT038 M01/M03 A2961 RMK AO2 T10071035,M
ELY,2025-03-13 21:34,-114.8453,39.2950,1909.00,M,M,M,310.00,19.00,T,29.48,M,1.75,27.00,FEW,BKN,OVC,M,900.00,2300.00,4500.00,M,-SN,M,M,M,27.00,300.00,2025-03-13 21:33,M,KELY 132134Z AUTO 31019G27KT 1 3/4SM -SN FEW009 BKN023 OVC045 A2948 RMK AO2 PK WND 30027/2133 WSHFT 2120 SNB19 P0000 $,M
BVU,2025-03-13 21:35,-114.8611,35.9475,671.00,55.40,26.60,32.76,240.00,21.00,0.00,29.62,M,10.00,29.00,SCT,BKN,BKN,M,6000.00,7500.00,12000.00,M,M,M,M,M,M,M,M,55.40,KBVU 132135Z AUTO 24021G29KT 10SM SCT060 BKN075 BKN120 13/M03 A2962 RMK AO2,M
BAM,2025-03-13 21:35,-116.8743,40.5990,1382.36,37.40,30.20,74.98,0.00,0.00,0.00,29.61,M,10.00,M,BKN,OVC,M,M,2000.00,2500.00,M,M,M,M,M,M,M,M,M,37.40,KBAM 132135Z AUTO 00000KT 10SM BKN020 OVC025 03/M01 A2961 RMK AO1,M
CXP,2025-03-13 21:35,-119.7326,39.1923,1431.00,41.00,19.40,41.54,280.00,10.00,0.00,29.66,M,10.00,M,FEW,SCT,BKN,M,5000.00,8500.00,11000.00,M,M,M,M,M,M,M,M,34.25,KCXP 132135Z AUTO 28010KT 10SM FEW050 SCT085 BKN110 05/M07 A2966 RMK AO2,M
RTS,2025-03-13 21:35,-119.8764,39.6682,1539.00,39.20,19.40,44.55,290.00,14.00,0.00,29.63,M,10.00,20.00,FEW,SCT,M,M,4900.00,5500.00,M,M,M,M,M,M,M,M,M,30.44,KRTS 132135Z AUTO 29014G20KT 10SM FEW049 SCT055 04/M07 A2963 RMK AO2,M
MEV,2025-03-13 21:35,-119.7500,38.9963,1441.42,39.20,21.20,48.10,240.00,8.00,0.00,29.65,M,10.00,16.00,FEW,M,M,M,5500.00,M,M,M,M,M,M,M,M,M,M,32.98,KMEV 132135Z AUTO 24008G16KT 10SM FEW055 04/M06 A2965 RMK AO2,M
HTH,2025-03-13 21:35,-118.6315,38.5448,1282.89,44.60,12.20,26.45,340.00,15.00,0.00,29.60,M,10.00,22.00,FEW,FEW,SCT,M,7000.00,8000.00,9500.00,M,M,M,M,M,M,M,M,37.11,KHTH 132135Z AUTO 34015G22KT 10SM FEW070 FEW080 SCT095 07/M11 A2960 RMK A01,M
10U,2025-03-13 21:40,-116.1876,41.9532,1637.00,35.60,24.80,64.46,240.00,10.00,0.00,29.56,M,10.00,M,CLR,M,M,M,M,M,M,M,M,M,M,M,M,M,M,27.48,K10U 132140Z AUTO 24010KT 10SM CLR 02/M04 A2956 RMK AO2,M
ELY,2025-03-13 21:41,-114.8453,39.2950,1909.00,M,M,M,300.00,15.00,T,29.49,M,1.00,27.00,SCT,BKN,OVC,M,2300.00,3100.00,4500.00,M,-SN,M,M,M,27.00,300.00,2025-03-13 21:33,M,KELY 132141Z AUTO 30015G27KT 1SM -SN SCT023 BKN031 OVC045 A2949 RMK AO2 PK WND 30027/2133 WSHFT 2120 SNB19 P0000 $,M
ELY,2025-03-13 21:48,-114.8453,39.2950,1909.00,M,M,M,300.00,13.00,0.01,29.49,M,0.75,22.00,FEW,BKN,OVC,M,2200.00,3100.00,4600.00,M,-SN,M,M,M,27.00,300.00,2025-03-13 21:33,M,KELY 132148Z AUTO 30013G22KT 3/4SM -SN FEW022 BKN031 OVC046 A2949 RMK AO2 PK WND 30027/2133 WSHFT 2120 SNB19 P0001 $,M
TMT,2025-03-13 21:50,-117.1971,39.4643,1749.34,31.50,26.60,81.85,210.00,4.00,0.00,29.61,M,10.00,M,SCT,SCT,SCT,M,1200.00,3100.00,3800.00,M,M,M,M,M,M,M,M,26.84,KTMT 132150Z AUTO 21004KT 10SM SCT012 SCT031 SCT038 00/M03 A2961 RMK AO2 T10031030,M
P68,2025-03-13 21:53,-116.0056,39.6014,1993.00,30.00,28.00,92.15,340.00,6.00,0.02,29.56,999.20,M,M,M,M,M,M,M,M,M,M,M,M,M,M,M,M,M,23.12,KP68 132153Z AUTO 34006KT M01/M02 A2956 RMK AO1 SLP992 P0002 T10111022,M
DRA,2025-03-13 21:53,-116.0278,36.6206,1009.00,52.00,29.00,40.95,190.00,18.00,0.00,29.56,998.50,10.00,29.00,SCT,BKN,OVC,M,5000.00,6000.00,8000.00,M,M,M,M,M,34.00,220.00,2025-03-13 21:33,52.00,KDRA 132153Z AUTO 19018G29KT 10SM SCT050 BKN060 OVC080 11/M02 A2956 RMK AO2 PK WND 22034/2133 SLP985 T01111017,M
ELY,2025-03-13 21:53,-114.8453,39.2950,1909.00,M,M,M,310.00,12.00,0.02,29.49,M,0.75,20.00,FEW,BKN,OVC,M,1900.00,2800.00,5000.00,M,-SN,M,M,M,27.00,300.00,2025-03-13 21:33,M,KELY 132153Z AUTO 31012G20KT 3/4SM -SN FEW019 BKN028 OVC050 A2949 RMK AO2 PK WND 30027/2133 WSHFT 2120 SNB19 SLPNO P0002 $,M
VGT,2025-03-13 21:53,-115.1933,36.2111,667.00,57.00,25.00,28.93,230.00,18.00,0.00,29.57,1002.40,10.00,33.00,CLR,M,M,M,M,M,M,M,M,M,M,M,35.00,260.00,2025-03-13 21:30,57.00,KVGT 132153Z 23018G33KT 10SM CLR 14/M04 A2957 RMK AO2 PK WND 26035/2130 SLP024 T01391039,M
LOL,2025-03-13 21:53,-118.5701,40.0684,1192.43,43.00,20.00,39.46,190.00,4.00,T,29.60,1002.40,10.00,M,FEW,BKN,OVC,M,5000.00,8000.00,10000.00,M,M,M,M,M,M,M,M,40.27,KLOL 132153Z AUTO 19004KT 10SM FEW050 BKN080 OVC100 06/M07 A2960 RMK AO2 RAB37E48 SLP024 P0000 T00611067,M
BVU,2025-03-13 21:55,-114.8611,35.9475,671.00,55.40,28.40,35.28,250.00,20.00,0.00,29.61,M,10.00,25.00,SCT,BKN,M,M,6000.00,7500.00,M,M,M,M,M,M,M,M,M,55.40,KBVU 132155Z AUTO 25020G25KT 10SM SCT060 BKN075 13/M02 A2961 RMK AO2,M
RNO,2025-03-13 21:55,-119.7711,39.4839,1341.00,42.00,16.00,34.52,240.00,13.00,0.00,29.62,1002.70,10.00,22.00,SCT,SCT,M,M,5500.00,11000.00,M,M,M,M,M,M,M,M,M,34.38,KRNO 132155Z 24013G22KT 10SM SCT055 SCT110 06/M09 A2962 RMK AO2 SLP027 SH VC T00561089,M
BAM,2025-03-13 21:55,-116.8743,40.5990,1382.36,37.40,32.00,80.65,220.00,6.00,0.00,29.61,M,10.00,M,SCT,BKN,OVC,M,1900.00,2600.00,10000.00,M,M,M,M,M,M,M,M,32.03,KBAM 132155Z AUTO 22006KT 10SM SCT019 BKN026 OVC100 03/00 A2961 RMK AO1,M
CXP,2025-03-13 21:55,-119.7326,39.1923,1431.00,39.20,21.20,48.10,220.00,7.00,0.00,29.67,M,10.00,13.00,FEW,SCT,BKN,M,3500.00,4800.00,5500.00,M,M,M,M,M,M,M,M,33.56,KCXP 132155Z AUTO 22007G13KT 10SM FEW035 SCT048 BKN055 04/M06 A2967 RMK AO2,M
RTS,2025-03-13 21:55,-119.8764,39.6682,1539.00,41.00,17.60,38.45,280.00,20.00,0.00,29.63,M,10.00,M,SCT,BKN,M,M,5000.00,6000.00,M,M,M,M,M,M,M,M,M,31.09,KRTS 132155Z AUTO 28020KT 10SM SCT050 BKN060 05/M08 A2963 RMK AO2,M
MEV,2025-03-13 21:55,-119.7500,38.9963,1441.42,39.20,24.80,55.95,260.00,12.00,0.00,29.65,M,9.00,18.00,FEW,SCT,BKN,M,4700.00,5500.00,7500.00,M,-RA,M,M,M,M,M,M,31.17,KMEV 132155Z AUTO 26012G18KT 9SM -RA FEW047 SCT055 BKN075 04/M04 A2965 RMK AO2,M
HTH,2025-03-13 21:55,-118.6315,38.5448,1282.89,44.60,12.20,26.45,330.00,17.00,0.00,29.60,M,10.00,24.00,FEW,SCT,M,M,7000.00,8000.00,M,M,M,M,M,M,M,M,M,36.58,KHTH 132155Z AUTO 33017G24KT 10SM FEW070 SCT080 07/M11 A2960 RMK A01,M
INS,2025-03-13 21:55,-115.6733,36.5872,955.00,54.50,20.30,25.99,230.00,27.00,0.00,29.53,997.50,10.00,38.00,CLR,M,M,M,M,M,M,M,M,M,M,M,38.00,230.00,2025-03-13 21:44,54.50,KINS 132155Z AUTO 23027G38KT 10SM CLR 13/M06 A2953 RMK AO2 PK WND 23038/44 SLP975 T01251065 $,M
LSV,2025-03-13 21:55,-115.0343,36.2362,570.00,59.40,22.50,23.90,220.00,28.00,0.00,29.53,998.90,10.00,33.00,CLR,M,M,M,M,M,M,M,M,M,M,M,33.00,230.00,2025-03-13 21:48,59.40,KLSV 132155Z AUTO 22028G33KT 10SM CLR 15/M05 A2953 RMK AO2 PK WND 23033/48 SLP989 T01521053 FZRANO $,M
EKO,2025-03-13 21:56,-115.7860,40.8242,1367.00,35.00,30.00,81.78,M,5.00,T,29.57,1000.60,10.00,M,SCT,BKN,OVC,M,2100.00,7000.00,8000.00,M,M,M,M,M,M,M,M,29.96,KEKO 132156Z AUTO VRB05KT 10SM SCT021 BKN070 OVC080 02/M01 A2957 RMK AO2 SNE2057 SLP006 P0000 T00171011,M
WMC,2025-03-13 21:56,-117.8072,40.9019,1315.00,M,M,M,M,M,0.00,M,M,M,M,M,M,M,M,M,M,M,M,M,M,M,M,M,M,M,M,KWMC 132156Z AUTO RMK AO2 SLPNO PWINO FZRANO TSNO $,M
HND,2025-03-13 21:56,-115.1344,35.9729,742.79,53.00,28.00,37.88,230.00,24.00,0.00,29.62,1004.20,10.00,38.00,BKN,M,M,M,9000.00,M,M,M,M,M,M,M,38.00,230.00,2025-03-13 21:53,53.00,KHND 132156Z 23024G38KT 10SM BKN090 12/M02 A2962 RMK AO2 PK WND 23038/2153 SLP042 T01171022 $,M
LAS,2025-03-13 21:56,-115.1634,36.0719,663.00,55.00,28.00,35.21,210.00,10.00,0.00,29.60,1001.60,10.00,25.00,SCT,SCT,SCT,M,5000.00,10000.00,22000.00,M,M,M,M,M,31.00,190.00,2025-03-13 21:21,55.00,KLAS 132156Z 21010G25KT 10SM SCT050 SCT100 SCT220 13/M02 A2960 RMK AO2 PK WND 19031/2121 SLP016 T01281022,M
NFL,2025-03-13 21:57,-118.7010,39.4166,1199.00,46.00,20.00,35.19,280.00,15.00,0.00,29.60,1001.00,10.00,20.00,FEW,SCT,BKN,BKN,3000.00,5000.00,10000.00,25000.00,M,M,M,M,M,M,M,38.93,KNFL 132157Z 28015G20KT 10SM FEW030 SCT050 BKN100 BKN250 08/M07 A2960 RMK AO2 SLP010 SH VC ALQDS T00781067,M
10U,2025-03-13 22:00,-116.1876,41.9532,1637.00,35.60,23.00,59.79,250.00,9.00,0.00,29.56,M,10.00,14.00,FEW,FEW,M,M,2700.00,3200.00,M,M,M,M,M,M,M,M,M,27.99,K10U 132200Z AUTO 25009G14KT 10SM FEW027 FEW032 02/M05 A2956 RMK AO2,M
ELY,2025-03-13 22:01,-114.8453,39.2950,1909.00,M,M,M,310.00,13.00,T,29.49,M,1.00,20.00,FEW,BKN,OVC,M,1500.00,2600.00,4800.00,M,-SN,M,M,M,M,M,M,M,KELY 132201Z AUTO 31013G20KT 1SM -SN FEW015 BKN026 OVC048 A2949 RMK AO2 P0000 $,M
LSV,2025-03-13 22:08,-115.0343,36.2362,570.00,59.00,21.20,22.95,220.00,29.00,0.00,29.51,998.30,10.00,35.00,SCT,M,M,M,10000.00,M,M,M,M,M,M,M,M,M,M,59.00,KLSV 132208Z 22029G35KT 10SM SCT100 15/M06 A2951 RMK A02A PRESFR SLP983 FZRANO $,M
TMT,2025-03-13 22:10,-117.1971,39.4643,1749.34,32.00,25.30,76.01,0.00,0.00,0.00,29.61,M,10.00,M,SCT,BKN,M,M,3300.00,3900.00,M,M,M,M,M,M,M,M,M,32.00,KTMT 132210Z AUTO 00000KT 10SM SCT033 BKN039 00/M04 A2961 RMK AO2 T10011037,M
ELY,2025-03-13 22:14,-114.8453,39.2950,1909.00,M,M,M,10.00,10.00,0.01,29.47,M,1.00,19.00,SCT,BKN,OVC,M,800.00,1900.00,4800.00,M,-SN,M,M,M,M,M,M,M,KELY 132214Z AUTO 01010G19KT 1SM -SN SCT008 BKN019 OVC048 A2947 RMK AO2 P0001 $,M
BVU,2025-03-13 22:15,-114.8611,35.9475,671.00,55.40,26.60,32.76,250.00,16.00,0.00,29.61,M,10.00,24.00,FEW,FEW,FEW,M,6500.00,8000.00,9000.00,M,M,M,M,M,M,M,M,55.40,KBVU 132215Z AUTO 25016G24KT 10SM FEW065 FEW080 FEW090 13/M03 A2961 RMK AO2,M
BAM,2025-03-13 22:15,-116.8743,40.5990,1382.36,37.40,32.00,80.65,220.00,10.00,0.00,29.61,M,10.00,M,SCT,SCT,BKN,M,2300.00,2900.00,3700.00,M,M,M,M,M,M,M,M,29.74,KBAM 132215Z AUTO 22010KT 10SM SCT023 SCT029 BKN037 03/00 A2961 RMK AO1,M
CXP,2025-03-13 22:15,-119.7326,39.1923,1431.00,39.20,19.40,44.55,M,5.00,0.00,29.66,M,10.00,12.00,SCT,BKN,OVC,M,4200.00,4900.00,11000.00,M,M,M,M,M,M,M,M,34.95,KCXP 132215Z AUTO VRB05G12KT 10SM SCT042 BKN049 OVC110 04/M07 A2966 RMK AO2,M
RTS,2025-03-13 22:15,-119.8764,39.6682,1539.00,37.40,19.40,47.80,280.00,24.00,0.00,29.64,M,10.00,M,SCT,BKN,BKN,M,4000.00,4600.00,5000.00,M,-RA,M,M,M,M,M,M,25.34,KRTS 132215Z AUTO 28024KT 10SM -RA SCT040 BKN046 BKN050 03/M07 A2964 RMK AO2,M
MEV,2025-03-13 22:15,-119.7500,38.9963,1441.42,39.20,21.20,48.10,250.00,19.00,0.00,29.65,M,10.00,25.00,FEW,FEW,M,M,7500.00,11000.00,M,M,M,M,M,M,M,M,M,28.96,KMEV 132215Z AUTO 25019G25KT 10SM FEW075 FEW110 04/M06 A2965 RMK AO2,M
HTH,2025-03-13 22:15,-118.6315,38.5448,1282.89,46.40,10.40,22.81,320.00,10.00,0.00,29.60,M,10.00,23.00,FEW,FEW,M,M,8500.00,10000.00,M,M,M,M,M,M,M,M,M,41.03,KHTH 132215Z AUTO 32010G23KT 10SM FEW085 FEW100 08/M12 A2960 RMK A01,M
10U,2025-03-13 22:20,-116.1876,41.9532,1637.00,35.60,23.00,59.79,240.00,7.00,0.00,29.55,M,10.00,M,CLR,M,M,M,M,M,M,M,M,M,M,M,M,M,M,29.17,K10U 132220Z AUTO 24007KT 10SM CLR 02/M05 A2955 RMK AO2,M
ELY,2025-03-13 22:24,-114.8453,39.2950,1909.00,M,M,M,10.00,9.00,0.01,29.48,M,1.00,16.00,FEW,OVC,M,M,700.00,1400.00,M,M,-SN,M,M,M,M,M,M,M,KELY 132224Z AUTO 01009G16KT 1SM -SN FEW007 OVC014 A2948 RMK AO2 P0001 $,M
TMT,2025-03-13 22:30,-117.1971,39.4643,1749.34,31.30,25.00,77.22,0.00,0.00,0.00,29.61,M,7.00,M,SCT,OVC,M,M,2100.00,3100.00,M,M,M,M,M,M,M,M,M,31.30,KTMT 132230Z AUTO 00000KT 7SM SCT021 OVC031 00/M04 A2961 RMK AO2 T10041038,M
BVU,2025-03-13 22:35,-114.8611,35.9475,671.00,53.60,26.60,34.98,230.00,27.00,0.00,29.60,M,10.00,M,BKN,BKN,BKN,M,6000.00,7500.00,9000.00,M,M,M,M,M,M,M,M,53.60,KBVU 132235Z AUTO 23027KT 10SM BKN060 BKN075 BKN090 12/M03 A2960 RMK AO2,M
BAM,2025-03-13 22:35,-116.8743,40.5990,1382.36,37.40,33.80,86.69,220.00,11.00,0.00,29.61,M,10.00,M,SCT,M,M,M,12000.00,M,M,M,M,M,M,M,M,M,M,29.29,KBAM 132235Z AUTO 22011KT 10SM SCT120 03/01 A2961 RMK AO1,M
CXP,2025-03-13 22:35,-119.7326,39.1923,1431.00,37.40,21.20,51.61,290.00,12.00,0.00,29.67,M,10.00,18.00,OVC,M,M,M,4200.00,M,M,M,M,M,M,M,M,M,M,28.87,KCXP 132235Z AUTO 29012G18KT 260V320 10SM OVC042 03/M06 A2967 RMK AO2,M
RTS,2025-03-13 22:35,-119.8764,39.6682,1539.00,35.60,21.20,55.41,290.00,17.00,0.00,29.64,M,10.00,24.00,SCT,SCT,M,M,4200.00,6000.00,M,M,M,M,M,M,M,M,M,24.79,KRTS 132235Z AUTO 29017G24KT 10SM SCT042 SCT060 02/M06 A2964 RMK AO2,M
MEV,2025-03-13 22:35,-119.7500,38.9963,1441.42,39.20,24.80,55.95,240.00,16.00,0.00,29.66,M,10.00,22.00,FEW,BKN,BKN,M,5000.00,7000.00,8500.00,M,M,M,M,M,M,M,M,29.80,KMEV 132235Z AUTO 24016G22KT 10SM FEW050 BKN070 BKN085 04/M04 A2966 RMK AO2,M
HTH,2025-03-13 22:35,-118.6315,38.5448,1282.89,46.40,8.60,21.04,320.00,10.00,0.00,29.60,M,10.00,20.00,FEW,M,M,M,9000.00,M,M,M,M,M,M,M,M,M,M,41.03,KHTH 132235Z AUTO 32010G20KT 10SM FEW090 08/M13 A2960 RMK A01,M
ELY,2025-03-13 22:40,-114.8453,39.2950,1909.00,M,M,M,360.00,5.00,0.02,29.49,M,0.50,M,VV ,M,M,M,1100.00,M,M,M,SN,M,M,M,M,M,M,M,KELY 132240Z AUTO 36005KT 1/2SM SN VV011 A2949 RMK AO2 P0002 $,M
10U,2025-03-13 22:40,-116.1876,41.9532,1637.00,35.60,23.00,59.79,230.00,10.00,0.00,29.56,M,10.00,M,SCT,M,M,M,3400.00,M,M,M,M,M,M,M,M,M,M,27.48,K10U 132240Z AUTO 23010KT 10SM SCT034 02/M05 A2956 RMK AO2,M
TMT,2025-03-13 22:50,-117.1971,39.4643,1749.34,30.20,24.60,79.41,0.00,0.00,0.00,29.61,M,1.75,M,BKN,OVC,M,M,1800.00,2400.00,M,M,UP,M,M,M,M,M,M,30.20,KTMT 132250Z AUTO 00000KT 1 3/4SM UP BKN018 OVC024 M01/M04 A2961 RMK AO2 T10101041,M
P68,2025-03-13 22:53,-116.0056,39.6014,1993.00,30.00,27.00,88.44,10.00,7.00,0.01,29.56,999.40,M,M,M,M,M,M,M,M,M,M,M,M,M,M,M,M,M,22.34,KP68 132253Z AUTO 01007KT M01/M03 A2956 RMK AO1 SLP994 P0001 T10111028,M
DRA,2025-03-13 22:53,-116.0278,36.6206,1009.00,52.00,25.00,34.72,200.00,21.00,0.00,29.54,998.30,10.00,29.00,FEW,BKN,M,M,6000.00,8000.00,M,M,M,M,M,M,32.00,190.00,2025-03-13 22:08,52.00,KDRA 132253Z AUTO 20021G29KT 10SM FEW060 BKN080 11/M04 A2954 RMK AO2 PK WND 19032/2208 SLP983 T01111039,M
ELY,2025-03-13 22:53,-114.8453,39.2950,1909.00,M,M,M,M,4.00,0.03,29.49,M,0.50,M,BKN,OVC,M,M,1100.00,1500.00,M,M,SN,M,M,M,M,M,M,M,KELY 132253Z AUTO VRB04KT 1/2SM SN BKN011 OVC015 A2949 RMK AO2 SLPNO P0003 $,M
VGT,2025-03-13 22:53,-115.1933,36.2111,667.00,57.00,24.00,27.75,220.00,25.00,0.00,29.54,1001.30,10.00,32.00,FEW,M,M,M,5500.00,M,M,M,M,M,M,M,37.00,210.00,2025-03-13 22:21,57.00,KVGT 132253Z 22025G32KT 10SM FEW055 14/M04 A2954 RMK AO2 PK WND 21037/2221 SLP013 T01391044,M
LOL,2025-03-13 22:53,-118.5701,40.0684,1192.43,43.00,19.00,37.81,160.00,4.00,T,29.59,1002.50,10.00,M,OVC,M,M,M,8000.00,M,M,M,M,M,M,M,M,M,M,40.27,KLOL 132253Z AUTO 16004KT 10SM OVC080 06/M07 A2959 RMK AO2 RAB25E43 SLP025 P0000 T00611072,M
BVU,2025-03-13 22:55,-114.8611,35.9475,671.00,53.60,24.80,32.46,210.00,17.00,0.00,29.59,M,10.00,23.00,FEW,SCT,SCT,M,6000.00,7000.00,8500.00,M,M,M,M,M,M,M,M,53.60,KBVU 132255Z AUTO 21017G23KT 10SM FEW060 SCT070 SCT085 12/M04 A2959 RMK AO2,M
RNO,2025-03-13 22:55,-119.7711,39.4839,1341.00,43.00,18.00,36.22,260.00,13.00,0.00,29.63,1003.00,10.00,30.00,SCT,SCT,M,M,6500.00,12000.00,M,M,M,M,M,M,34.00,270.00,2025-03-13 22:19,35.66,KRNO 132255Z 26013G30KT 10SM SCT065 SCT120 06/M08 A2963 RMK AO2 PK WND 27034/2219 SLP030 MTN TOPS OBSCD DSNT SW THRU NW T00611078,M
BAM,2025-03-13 22:55,-116.8743,40.5990,1382.36,37.40,32.00,80.65,210.00,9.00,0.00,29.61,M,10.00,M,SCT,M,M,M,12000.00,M,M,M,M,M,M,M,M,M,M,30.23,KBAM 132255Z AUTO 21009KT 10SM SCT120 03/00 A2961 RMK AO1,M
CXP,2025-03-13 22:55,-119.7326,39.1923,1431.00,39.20,21.20,48.10,0.00,0.00,0.00,29.67,M,10.00,M,SCT,BKN,OVC,M,4300.00,5000.00,9000.00,M,M,M,M,M,M,M,M,39.20,KCXP 132255Z AUTO 00000KT 10SM SCT043 BKN050 OVC090 04/M06 A2967 RMK AO2,M
RTS,2025-03-13 22:55,-119.8764,39.6682,1539.00,37.40,21.20,51.61,300.00,19.00,0.00,29.64,M,10.00,26.00,FEW,FEW,SCT,M,3300.00,3900.00,4800.00,M,M,M,M,M,M,M,M,26.58,KRTS 132255Z AUTO 30019G26KT 10SM FEW033 FEW039 SCT048 03/M06 A2964 RMK AO2,M
MEV,2025-03-13 22:55,-119.7500,38.9963,1441.42,39.20,23.00,51.89,250.00,12.00,0.00,29.67,M,10.00,23.00,SCT,OVC,M,M,7500.00,9000.00,M,M,M,M,M,M,M,M,M,31.17,KMEV 132255Z AUTO 25012G23KT 10SM SCT075 OVC090 04/M05 A2967 RMK AO2,M
HTH,2025-03-13 22:55,-118.6315,38.5448,1282.89,46.40,8.60,21.04,330.00,17.00,0.00,29.60,M,10.00,M,FEW,M,M,M,9000.00,M,M,M,M,M,M,M,M,M,M,38.94,KHTH 132255Z AUTO 33017KT 10SM FEW090 08/M13 A2960 RMK A01,M
INS,2025-03-13 22:55,-115.6733,36.5872,955.00,53.80,19.80,26.10,240.00,21.00,0.00,29.55,998.30,10.00,25.00,CLR,M,M,M,M,M,M,M,M,M,M,M,34.00,230.00,2025-03-13 22:17,53.80,KINS 132255Z AUTO 24021G25KT 10SM CLR 12/M07 A2955 RMK AO2 PK WND 23034/17 SLP983 T01211068 $,M
LSV,2025-03-13 22:55,-115.0343,36.2362,570.00,59.00,21.20,22.95,220.00,27.00,0.00,29.49,997.60,10.00,35.00,SCT,M,M,M,18000.00,M,M,M,M,M,M,M,38.00,230.00,2025-03-13 22:13,59.00,KLSV 132255Z 22027G35KT 10SM SCT180 15/M06 A2949 RMK AO2A PK WND 23038/13 SLP976 T01501060 FZRANO $,M
EKO,2025-03-13 22:56,-115.7860,40.8242,1367.00,35.00,27.00,72.32,230.00,5.00,0.00,29.56,1001.10,10.00,M,FEW,OVC,M,M,3100.00,9500.00,M,M,M,M,M,M,M,M,M,29.96,KEKO 132256Z AUTO 23005KT 10SM FEW031 OVC095 02/M03 A2956 RMK AO2 SLP011 T00171028,M
HND,2025-03-13 22:56,-115.1344,35.9729,742.79,53.00,29.00,39.47,230.00,21.00,0.00,29.59,1003.00,10.00,27.00,CLR,M,M,M,M,M,M,M,M,M,M,M,34.00,240.00,2025-03-13 21:57,53.00,KHND 132256Z 23021G27KT 10SM CLR 12/M02 A2959 RMK AO2 PK WND 24034/2157 SLP030 T01171017 $,M
TPH,2025-03-13 22:56,-117.0904,38.0505,1654.00,35.00,24.00,63.85,320.00,12.00,0.00,29.58,1001.00,10.00,M,SCT,OVC,M,M,4900.00,6000.00,M,M,M,M,M,M,M,M,M,25.82,KTPH 132256Z AUTO 32012KT 10SM SCT049 OVC060 02/M04 A2958 RMK AO2 SLP010 T00171044,M
LAS,2025-03-13 22:56,-115.1634,36.0719,663.00,55.00,28.00,35.21,220.00,14.00,0.00,29.58,1000.90,10.00,26.00,FEW,FEW,SCT,M,5000.00,10000.00,22000.00,M,M,M,M,M,32.00,220.00,2025-03-13 22:12,55.00,KLAS 132256Z 22014G26KT 10SM FEW050 FEW100 SCT220 13/M02 A2958 RMK AO2 PK WND 22032/2212 SLP009 VIRGA DSNT NW-NE T01281022,M
WMC,2025-03-13 22:56,-117.8072,40.9019,1315.00,M,M,M,M,M,0.00,M,M,M,M,M,M,M,M,M,M,M,M,M,M,M,M,M,M,M,M,KWMC 132256Z AUTO RMK AO2 SLPNO PWINO FZRANO TSNO $,M
NFL,2025-03-13 22:57,-118.7010,39.4166,1199.00,42.00,24.00,48.55,30.00,7.00,0.00,29.62,1001.50,10.00,M,SCT,BKN,BKN,M,5000.00,10000.00,25000.00,M,M,M,M,M,M,M,M,36.97,KNFL 132257Z 03007KT 10SM SCT050 BKN100 BKN250 06/M04 A2962 RMK AO2 SLP015 SH VC ALQDS T00561044,M
10U,2025-03-13 23:00,-116.1876,41.9532,1637.00,35.60,21.20,55.41,250.00,8.00,0.00,29.55,M,10.00,M,FEW,M,M,M,3500.00,M,M,M,M,M,M,M,M,M,M,28.55,K10U 132300Z AUTO 25008KT 10SM FEW035 02/M06 A2955 RMK AO2,M
ELY,2025-03-13 23:02,-114.8453,39.2950,1909.00,M,M,M,350.00,10.00,T,29.49,M,1.00,18.00,FEW,OVC,M,M,800.00,1300.00,M,M,-SN,M,M,M,M,M,M,M,KELY 132302Z AUTO 35010G18KT 1SM -SN FEW008 OVC013 A2949 RMK AO2 P0000 $,M
TMT,2025-03-13 23:10,-117.1971,39.4643,1749.34,29.70,27.00,89.52,220.00,5.00,0.00,29.62,M,3.00,M,SCT,BKN,OVC,M,1000.00,2400.00,4300.00,M,-SN,M,M,M,M,M,M,23.66,KTMT 132310Z AUTO 22005KT 3SM -SN SCT010 BKN024 OVC043 M01/M03 A2962 RMK AO2 T10131028,M
ELY,2025-03-13 23:13,-114.8453,39.2950,1909.00,M,M,M,M,5.00,T,29.49,M,1.00,M,FEW,BKN,OVC,M,800.00,1500.00,2100.00,M,-SN,M,M,M,M,M,M,M,KELY 132313Z AUTO VRB05KT 1SM -SN FEW008 BKN015 OVC021 A2949 RMK AO2 P0000 $,M
BVU,2025-03-13 23:15,-114.8611,35.9475,671.00,55.40,26.60,32.76,210.00,17.00,0.00,29.58,M,10.00,23.00,FEW,M,M,M,11000.00,M,M,M,M,M,M,M,M,M,M,55.40,KBVU 132315Z AUTO 21017G23KT 10SM FEW110 13/M03 A2958 RMK AO2,M
BAM,2025-03-13 23:15,-116.8743,40.5990,1382.36,37.40,32.00,80.65,220.00,10.00,0.00,29.61,M,10.00,M,SCT,M,M,M,12000.00,M,M,M,M,M,M,M,M,M,M,29.74,KBAM 132315Z AUTO 22010KT 10SM SCT120 03/00 A2961 RMK AO1,M
CXP,2025-03-13 23:15,-119.7326,39.1923,1431.00,41.00,19.40,41.54,260.00,9.00,0.00,29.68,M,10.00,M,BKN,BKN,OVC,M,4600.00,5500.00,9500.00,M,M,M,M,M,M,M,M,34.70,KCXP 132315Z AUTO 26009KT 230V290 10SM BKN046 BKN055 OVC095 05/M07 A2968 RMK AO2,M
RTS,2025-03-13 23:15,-119.8764,39.6682,1539.00,37.40,21.20,51.61,290.00,16.00,0.00,29.65,M,9.00,23.00,FEW,FEW,SCT,M,2900.00,3800.00,4500.00,M,-DZ,M,M,M,M,M,M,27.46,KRTS 132315Z AUTO 29016G23KT 9SM -DZ FEW029 FEW038 SCT045 03/M06 A2965 RMK AO2,M
MEV,2025-03-13 23:15,-119.7500,38.9963,1441.42,37.40,21.20,51.61,230.00,12.00,0.00,29.67,M,10.00,M,SCT,BKN,OVC,M,4600.00,9000.00,11000.00,M,M,M,M,M,M,M,M,28.87,KMEV 132315Z AUTO 23012KT 10SM SCT046 BKN090 OVC110 03/M06 A2967 RMK AO2,M
HTH,2025-03-13 23:15,-118.6315,38.5448,1282.89,44.60,8.60,22.53,340.00,13.00,0.00,29.60,M,10.00,22.00,FEW,SCT,M,M,7000.00,8500.00,M,M,M,M,M,M,M,M,M,37.71,KHTH 132315Z AUTO 34013G22KT 10SM FEW070 SCT085 07/M13 A2960 RMK A01,M
10U,2025-03-13 23:20,-116.1876,41.9532,1637.00,35.60,23.00,59.79,240.00,9.00,0.00,29.55,M,10.00,M,CLR,M,M,M,M,M,M,M,M,M,M,M,M,M,M,27.99,K10U 132320Z AUTO 24009KT 10SM CLR 02/M05 A2955 RMK AO2,M
ELY,2025-03-13 23:25,-114.8453,39.2950,1909.00,M,M,M,20.00,6.00,T,29.50,M,0.75,15.00,FEW,BKN,OVC,M,1000.00,1400.00,2600.00,M,-SN,M,M,M,M,M,M,M,KELY 132325Z AUTO 02006G15KT 3/4SM -SN FEW010 BKN014 OVC026 A2950 RMK AO2 P0000 $,M
TMT,2025-03-13 23:30,-117.1971,39.4643,1749.34,30.00,25.00,81.40,0.00,0.00,0.00,29.62,M,10.00,M,SCT,SCT,SCT,M,2300.00,3800.00,5000.00,M,M,M,M,M,M,M,M,30.00,KTMT 132330Z AUTO 00000KT 10SM SCT023 SCT038 SCT050 M01/M04 A2962 RMK AO2 T10111039,M
BVU,2025-03-13 23:35,-114.8611,35.9475,671.00,55.40,24.80,30.40,230.00,22.00,0.00,29.58,M,10.00,M,FEW,M,M,M,7000.00,M,M,M,M,M,M,M,M,M,M,55.40,KBVU 132335Z AUTO 23022KT 10SM FEW070 13/M04 A2958 RMK AO2,M
BAM,2025-03-13 23:35,-116.8743,40.5990,1382.36,37.40,32.00,80.65,210.00,8.00,0.00,29.60,M,10.00,M,CLR,M,M,M,M,M,M,M,M,M,M,M,M,M,M,30.76,KBAM 132335Z AUTO 21008KT 10SM CLR 03/00 A2960 RMK AO1,M
CXP,2025-03-13 23:35,-119.7326,39.1923,1431.00,39.20,17.60,41.24,M,5.00,0.00,29.68,M,10.00,12.00,FEW,SCT,BKN,M,4700.00,7000.00,7500.00,M,M,M,M,M,M,M,M,34.95,KCXP 132335Z AUTO VRB05G12KT 10SM FEW047 SCT070 BKN075 04/M08 A2968 RMK AO2,M
RTS,2025-03-13 23:35,-119.8764,39.6682,1539.00,33.80,21.20,59.53,280.00,15.00,0.00,29.66,M,10.00,24.00,FEW,SCT,BKN,M,2800.00,3500.00,4300.00,M,M,M,M,M,M,M,M,23.11,KRTS 132335Z AUTO 28015G24KT 10SM FEW028 SCT035 BKN043 01/M06 A2966 RMK AO2,M
MEV,2025-03-13 23:35,-119.7500,38.9963,1441.42,37.40,23.00,55.68,M,4.00,0.00,29.67,M,10.00,15.00,SCT,SCT,BKN,M,4600.00,7000.00,8500.00,M,M,M,M,M,M,M,M,33.73,KMEV 132335Z AUTO VRB04G15KT 10SM SCT046 SCT070 BKN085 03/M05 A2967 RMK AO2,M
HTH,2025-03-13 23:35,-118.6315,38.5448,1282.89,44.60,8.60,22.53,330.00,23.00,0.00,29.60,M,10.00,28.00,FEW,FEW,M,M,7000.00,9000.00,M,M,M,M,M,M,M,M,M,35.25,KHTH 132335Z AUTO 33023G28KT 10SM FEW070 FEW090 07/M13 A2960 RMK A01,M
10U,2025-03-13 23:40,-116.1876,41.9532,1637.00,35.60,21.20,55.41,210.00,9.00,0.00,29.55,M,10.00,M,CLR,M,M,M,M,M,M,M,M,M,M,M,M,M,M,27.99,K10U 132340Z AUTO 21009KT 10SM CLR 02/M06 A2955 RMK AO2,M
LSV,2025-03-13 23:47,-115.0343,36.2362,570.00,59.00,21.20,22.95,260.00,15.00,0.00,29.53,998.90,10.00,21.00,CLR,M,M,M,M,M,M,M,M,M,M,M,M,M,M,59.00,KLSV 132347Z AUTO 26015G21KT 10SM CLR 15/M06 A2953 RMK AO2 WSHFT 34 SLP989 FZRANO $,M
TMT,2025-03-13 23:50,-117.1971,39.4643,1749.34,31.00,24.60,76.87,0.00,0.00,0.00,29.62,M,10.00,M,CLR,M,M,M,M,M,M,M,M,M,M,M,M,M,M,31.00,KTMT 132350Z AUTO 00000KT 10SM CLR M01/M04 A2962 RMK AO2 T10061041,M
INS,2025-03-13 23:52,-115.6733,36.5872,955.00,51.80,19.40,27.62,270.00,17.00,0.00,29.57,999.00,10.00,24.00,FEW,M,M,M,8000.00,M,M,M,M,M,M,M,M,M,M,51.80,KINS 132352Z AUTO 27017G24KT 10SM FEW080 11/M07 A2957 RMK AO2 WSHFT 38 LTG DSNT W SLP990 $,M
P68,2025-03-13 23:53,-116.0056,39.6014,1993.00,28.00,26.00,92.08,10.00,7.00,0.00,29.57,1000.10,M,M,M,M,M,M,M,M,M,M,M,M,M,M,M,M,M,19.90,KP68 132353Z AUTO 01007KT M02/M03 A2957 RMK AO1 SLP001 60034 T10221033 11011 21022 53001,M
DRA,2025-03-13 23:53,-116.0278,36.6206,1009.00,42.00,32.00,67.42,10.00,21.00,0.00,29.61,1001.10,10.00,34.00,FEW,OVC,M,M,3900.00,6000.00,M,M,M,M,M,M,34.00,280.00,2025-03-13 23:46,32.19,KDRA 132353Z AUTO 01021G34KT 10SM FEW039 OVC060 06/00 A2961 RMK AO2 PK WND 28034/2346 WSHFT 2338 PRESRR SLP011 T00560000 10117 20056 53017,M
ELY,2025-03-13 23:53,-114.8453,39.2950,1909.00,M,M,M,340.00,12.00,0.02,29.50,M,0.50,20.00,VV ,M,M,M,1000.00,M,M,M,SN,M,M,M,M,M,M,M,KELY 132353Z AUTO 34012G20KT 1/2SM SN VV010 A2950 RMK AO2 SLPNO P0002 60017 53003 $,M
VGT,2025-03-13 23:53,-115.1933,36.2111,667.00,56.00,24.00,28.77,250.00,25.00,0.00,29.53,1001.00,10.00,38.00,CLR,M,M,M,M,M,M,M,M,M,M,M,42.00,230.00,2025-03-13 23:32,56.00,KVGT 132353Z 25025G38KT 10SM CLR 13/M04 A2953 RMK AO2 PK WND 23042/2332 SLP010 T01331044 10144 20094 56021,M
LOL,2025-03-13 23:53,-118.5701,40.0684,1192.43,46.00,12.00,24.86,290.00,12.00,0.00,29.60,1002.40,10.00,23.00,BKN,OVC,M,M,7500.00,9500.00,M,M,M,M,M,M,M,M,M,39.82,KLOL 132353Z AUTO 29012G23KT 10SM BKN075 OVC095 08/M11 A2960 RMK AO2 SLP024 60000 T00781111 10083 20039 55005,M
BVU,2025-03-13 23:55,-114.8611,35.9475,671.00,53.60,21.20,27.91,270.00,21.00,0.00,29.59,M,10.00,31.00,CLR,M,M,M,M,M,M,M,M,M,M,M,M,M,M,53.60,KBVU 132355Z AUTO 27021G31KT 10SM CLR 12/M06 A2959 RMK AO2,M
INS,2025-03-13 23:55,-115.6733,36.5872,955.00,52.00,20.00,28.13,310.00,21.00,0.00,29.58,999.40,10.00,25.00,SCT,M,M,M,8000.00,M,M,M,M,M,M,M,28.00,200.00,2025-03-13 23:29,52.00,KINS 132355Z AUTO 31021G25KT 10SM SCT080 11/M07 A2958 RMK AO2 PK WND 20028/29 LTG DSNT W SLP994 T01111067 10128 20102 53008 $,M
RNO,2025-03-13 23:55,-119.7711,39.4839,1341.00,42.00,16.00,34.52,250.00,12.00,0.00,29.65,1003.60,10.00,32.00,SCT,SCT,M,M,5500.00,8500.00,M,M,M,M,M,M,32.00,290.00,2025-03-13 23:49,34.73,KRNO 132355Z 25012G32KT 10SM SCT055 SCT085 06/M09 A2965 RMK AO2 PK WND 29032/2349 SLP036 60000 T00561089 10078 20044 51011,M
BAM,2025-03-13 23:55,-116.8743,40.5990,1382.36,39.20,32.00,75.16,230.00,11.00,0.00,29.60,M,10.00,15.00,CLR,M,M,M,M,M,M,M,M,M,M,M,M,M,M,31.57,KBAM 132355Z AUTO 23011G15KT 10SM CLR 04/00 A2960 RMK AO1,M
CXP,2025-03-13 23:55,-119.7326,39.1923,1431.00,41.00,21.20,44.85,0.00,0.00,0.00,29.68,M,10.00,13.00,BKN,BKN,OVC,M,4600.00,5500.00,12000.00,M,M,M,M,M,M,M,M,41.00,KCXP 132355Z AUTO 00000G13KT 10SM BKN046 BKN055 OVC120 05/M06 A2968 RMK AO2,M
RTS,2025-03-13 23:55,-119.8764,39.6682,1539.00,35.60,21.20,55.41,290.00,20.00,0.00,29.66,M,10.00,M,FEW,FEW,SCT,M,3500.00,4100.00,4700.00,M,M,M,M,M,M,M,M,23.92,KRTS 132355Z AUTO 29020KT 10SM FEW035 FEW041 SCT047 02/M06 A2966 RMK AO2,M
MEV,2025-03-13 23:55,-119.7500,38.9963,1441.42,37.40,23.00,55.68,200.00,12.00,0.00,29.67,M,10.00,M,SCT,BKN,BKN,M,3900.00,5000.00,7000.00,M,M,M,M,M,M,M,M,28.87,KMEV 132355Z AUTO 20012KT 10SM SCT039 BKN050 BKN070 03/M05 A2967 RMK AO2,M
HTH,2025-03-13 23:55,-118.6315,38.5448,1282.89,44.60,8.60,22.53,320.00,18.00,0.00,29.61,M,10.00,M,CLR,M,M,M,M,M,M,M,M,M,M,M,M,M,M,36.34,KHTH 132355Z AUTO 32018KT 10SM CLR 07/M13 A2961 RMK A01,M
LSV,2025-03-13 23:55,-115.0343,36.2362,570.00,58.50,19.80,22.02,250.00,19.00,0.00,29.53,998.90,10.00,30.00,SCT,M,M,M,10000.00,M,M,M,M,M,M,M,34.00,260.00,2025-03-13 22:56,58.50,KLSV 132355Z 25019G30KT 10SM SCT100 15/M07 A2953 RMK AO2A PK WND 26034/2256 SLP989 60000 T01471068 10156 20102 55016 FZRANO $,M
EKO,2025-03-13 23:56,-115.7860,40.8242,1367.00,36.00,28.00,72.43,250.00,12.00,0.00,29.55,1000.90,10.00,15.00,FEW,SCT,M,M,2700.00,12000.00,M,M,M,M,M,M,M,M,M,27.09,KEKO 132356Z AUTO 25012G15KT 10SM FEW027 SCT120 02/M02 A2955 RMK AO2 SLP009 60002 T00221022 10028 21011 58006,M
HND,2025-03-13 23:56,-115.1344,35.9729,742.79,54.00,25.00,32.26,230.00,14.00,0.00,29.60,1003.40,10.00,24.00,CLR,M,M,M,M,M,M,M,M,M,M,M,32.00,230.00,2025-03-13 23:23,54.00,KHND 132356Z 23014G24KT 10SM CLR 12/M04 A2960 RMK AO2 PK WND 23032/2323 SLP034 60000 T01221039 10128 20067 55014 $,M
TPH,2025-03-13 23:56,-117.0904,38.0505,1654.00,33.00,24.00,69.16,300.00,10.00,0.00,29.60,1002.20,10.00,M,FEW,OVC,M,M,5000.00,8000.00,M,M,M,M,M,M,M,M,M,24.22,KTPH 132356Z AUTO 30010KT 10SM FEW050 OVC080 01/M04 A2960 RMK AO2 SLP022 60005 T00061044 10022 21017 53009,M
LAS,2025-03-13 23:56,-115.1634,36.0719,663.00,55.00,23.00,28.61,240.00,22.00,0.00,29.56,1000.00,10.00,36.00,FEW,FEW,SCT,M,5000.00,10000.00,22000.00,M,M,M,M,M,36.00,270.00,2025-03-13 23:55,55.00,KLAS 132356Z 24022G36KT 10SM FEW050 FEW100 SCT220 13/M05 A2956 RMK AO2 PK WND 27036/2355 SLP000 VIRGA NW-NE T01281050 10139 20089 57022,M
WMC,2025-03-13 23:56,-117.8072,40.9019,1315.00,M,M,M,M,M,0.00,M,M,M,M,M,M,M,M,M,M,M,M,M,M,M,M,M,M,M,M,KWMC 132356Z AUTO RMK AO2 SLPNO PWINO FZRANO TSNO $,M
INS,2025-03-13 23:56,-115.6733,36.5872,955.00,51.80,19.40,27.62,310.00,23.00,0.00,29.58,999.40,10.00,25.00,SCT,M,M,M,8000.00,M,M,M,M,M,M,M,M,M,M,51.80,KINS 132356Z AUTO 31023G25KT 10SM SCT080 11/M07 A2958 RMK AO2 WSHFT 52 LTG DSNT W SLP994 $,M
DRA,2025-03-13 23:57,-116.0278,36.6206,1009.00,42.00,33.00,70.19,360.00,19.00,T,29.62,M,9.00,31.00,FEW,BKN,OVC,M,3700.00,5000.00,6000.00,M,-RA,M,M,M,27.00,360.00,2025-03-13 23:55,32.66,KDRA 132357Z AUTO 36019G31KT 9SM -RA FEW037 BKN050 OVC060 06/01 A2962 RMK AO2 PK WND 36027/2355 WSHFT 2340 RAB56 PRESRR P0000 T00560006,M
NFL,2025-03-13 23:57,-118.7010,39.4166,1199.00,42.00,24.00,48.55,30.00,10.00,0.00,29.62,1001.50,8.00,M,FEW,SCT,BKN,OVC,3000.00,5000.00,10000.00,25000.00,M,M,M,M,M,M,M,35.51,KNFL 132357Z 03010KT 8SM FEW030 SCT050 BKN100 OVC250 06/M04 A2962 RMK AO2 SLP015 SH VC ALQDS T00561044 10083 20056 51007,M
