station,valid,lon,lat,elevation,tmpf,dwpf,relh,drct,sknt,p01i,alti,mslp,vsby,gust,skyc1,skyc2,skyc3,skyc4,skyl1,skyl2,skyl3,skyl4,wxcodes,ice_accretion_1hr,ice_accretion_3hr,ice_accretion_6hr,peak_wind_gust,peak_wind_drct,peak_wind_time,feel,metar,snowdepth
CXP,2022-10-02 00:15,-119.7326,39.1923,1431.00,73.40,32.00,21.76,60.00,13.00,0.00,29.97,M,10.00,M,CLR,M,M,M,M,M,M,M,M,M,M,M,M,M,M,73.40,KCXP 020015Z AUTO 06013KT 10SM CLR 23/00 A2997 RMK AO2,M
RTS,2022-10-02 00:15,-119.8764,39.6682,1539.00,69.80,32.00,24.59,50.00,5.00,0.00,29.99,M,10.00,11.00,CLR,M,M,M,M,M,M,M,M,M,M,M,M,M,M,69.80,KRTS 020015Z AUTO 05005G11KT 10SM CLR 21/M00 A2999 RMK AO2,M
05U,2022-10-02 00:15,-116.0051,39.6042,1811.23,69.80,23.00,16.98,30.00,5.00,0.00,30.03,M,10.00,M,CLR,M,M,M,M,M,M,M,M,M,M,M,M,M,M,69.80,K05U 020015Z AUTO 03005KT 10SM CLR 21/M05 A3003 RMK A01,M
MEV,2022-10-02 00:15,-119.7500,38.9963,1441.42,75.20,33.80,22.02,320.00,10.00,0.00,29.95,M,8.00,M,CLR,M,M,M,M,M,M,M,M,M,M,M,M,M,M,75.20,KMEV 020015Z AUTO 32010KT 8SM CLR 24/01 A2995 RMK AO2,M
BAM,2022-10-02 00:15,-116.8743,40.5990,1382.36,69.80,32.00,24.59,350.00,3.00,0.00,30.00,M,10.00,M,CLR,M,M,M,M,M,M,M,M,M,M,M,M,M,M,69.80,KBAM 020015Z AUTO 35003KT 10SM CLR 21/00 A3000 RMK AO1,M
HTH,2022-10-02 00:15,-118.6315,38.5448,1282.89,75.20,30.20,19.05,320.00,13.00,0.00,29.94,M,10.00,M,CLR,M,M,M,M,M,M,M,M,M,M,M,M,M,M,75.20,KHTH 020015Z AUTO 32013KT 10SM CLR 24/M01 A2994 RMK A01,M
TMT,2022-10-02 00:15,-117.1971,39.4643,1749.34,M,M,M,30.00,7.00,0.00,30.02,M,10.00,M,CLR,M,M,M,M,M,M,M,M,M,M,M,M,M,M,M,KTMT 020015Z AUTO 03007KT 10SM CLR A3002 RMK AO2,M
BVU,2022-10-02 00:15,-114.8611,35.9475,671.00,91.40,48.20,22.78,150.00,17.00,0.00,29.76,M,10.00,23.00,SCT,M,M,M,11000.00,M,M,M,M,M,M,M,M,M,M,88.09,KBVU 020015Z AUTO 15017G23KT 10SM SCT110 33/09 A2976 RMK AO2,M
BVU,2022-10-02 00:35,-114.8611,35.9475,671.00,91.40,48.20,22.78,160.00,18.00,0.00,29.76,M,10.00,M,CLR,M,M,M,M,M,M,M,M,M,M,M,M,M,M,88.09,KBVU 020035Z AUTO 16018KT 10SM CLR 33/09 A2976 RMK AO2,M
CXP,2022-10-02 00:35,-119.7326,39.1923,1431.00,73.40,32.00,21.76,70.00,11.00,0.00,29.97,M,10.00,M,CLR,M,M,M,M,M,M,M,M,M,M,M,M,M,M,73.40,KCXP 020035Z AUTO 07011KT 10SM CLR 23/00 A2997 RMK AO2,M
RTS,2022-10-02 00:35,-119.8764,39.6682,1539.00,69.80,32.00,24.59,60.00,9.00,0.00,30.00,M,10.00,M,CLR,M,M,M,M,M,M,M,M,M,M,M,M,M,M,69.80,KRTS 020035Z AUTO 06009KT 10SM CLR 21/M00 A3000 RMK AO2,M
05U,2022-10-02 00:35,-116.0051,39.6042,1811.23,68.00,23.00,18.06,10.00,8.00,0.00,30.04,M,10.00,M,CLR,M,M,M,M,M,M,M,M,M,M,M,M,M,M,68.00,K05U 020035Z AUTO 01008KT 10SM CLR 20/M05 A3004 RMK A01,M
MEV,2022-10-02 00:35,-119.7500,38.9963,1441.42,75.20,33.80,22.02,340.00,8.00,0.00,29.95,M,10.00,M,CLR,M,M,M,M,M,M,M,M,M,M,M,M,M,M,75.20,KMEV 020035Z AUTO 34008KT 10SM CLR 24/01 A2995 RMK AO2,M
BAM,2022-10-02 00:35,-116.8743,40.5990,1382.36,69.80,32.00,24.59,320.00,4.00,0.00,30.00,M,10.00,M,CLR,M,M,M,M,M,M,M,M,M,M,M,M,M,M,69.80,KBAM 020035Z AUTO 32004KT 10SM CLR 21/00 A3000 RMK AO1,M
HTH,2022-10-02 00:35,-118.6315,38.5448,1282.89,73.40,30.20,20.23,330.00,14.00,0.00,29.94,M,10.00,M,CLR,M,M,M,M,M,M,M,M,M,M,M,M,M,M,73.40,KHTH 020035Z AUTO 33014KT 10SM CLR 23/M01 A2994 RMK A01,M
P68,2022-10-02 00:53,-116.0056,39.6014,1993.00,65.00,28.00,24.75,360.00,9.00,0.00,30.02,1012.10,M,M,M,M,M,M,M,M,M,M,M,M,M,M,M,M,M,64.90,KP68 020053Z AUTO 36009KT 18/M02 A3002 RMK AO1 SLP121 T01831022,M
DRA,2022-10-02 00:53,-116.0278,36.6206,1009.00,85.00,28.90,13.15,210.00,11.00,0.00,29.84,1006.10,10.00,M,CLR,M,M,M,M,M,M,M,M,M,M,M,M,M,M,81.78,KDRA 020053Z AUTO 21011KT 10SM CLR 29/M02 A2984 RMK AO2 SLP061 T02941017,M
LOL,2022-10-02 00:53,-118.5701,40.0684,1192.43,73.00,33.00,23.06,80.00,6.00,0.00,29.95,1012.00,10.00,M,CLR,M,M,M,M,M,M,M,M,M,M,M,M,M,M,73.00,KLOL 020053Z AUTO 08006KT 10SM CLR 23/01 A2995 RMK AO2 SLP120 T02280006,M
VGT,2022-10-02 00:53,-115.1933,36.2111,667.00,93.00,35.00,13.07,260.00,11.00,0.00,29.76,1006.80,10.00,M,CLR,M,M,M,M,M,M,M,M,M,M,M,M,M,M,88.56,KVGT 020053Z 26011KT 10SM CLR 34/02 A2976 RMK AO2 SLP068 T03390017,M
ELY,2022-10-02 00:53,-114.8453,39.2950,1909.00,66.00,26.10,22.02,160.00,6.00,0.00,30.02,1011.50,10.00,M,CLR,M,M,M,M,M,M,M,M,M,M,M,M,M,M,66.00,KELY 020053Z AUTO 16006KT 10SM CLR 19/M03 A3002 RMK AO2 SLP115 T01891033,M
HTH,2022-10-02 00:55,-118.6315,38.5448,1282.89,73.40,33.80,23.39,330.00,13.00,0.00,29.94,M,10.00,M,CLR,M,M,M,M,M,M,M,M,M,M,M,M,M,M,73.40,KHTH 020055Z AUTO 33013KT 10SM CLR 23/01 A2994 RMK A01,M
TMT,2022-10-02 00:55,-117.1971,39.4643,1749.34,M,M,M,340.00,11.00,0.00,30.03,M,10.00,M,CLR,M,M,M,M,M,M,M,M,M,M,M,M,M,M,M,KTMT 020055Z AUTO 34011KT 10SM CLR A3003 RMK AO2,M
RNO,2022-10-02 00:55,-119.7711,39.4839,1341.00,74.00,36.00,25.11,100.00,7.00,0.00,29.95,1010.20,10.00,M,FEW,FEW,M,M,8000.00,10000.00,M,M,M,M,M,M,M,M,M,73.90,KRNO 020055Z 10007KT 10SM FEW080 FEW100 23/02 A2995 RMK AO2 SLP102 T02330022 $,M
RTS,2022-10-02 00:55,-119.8764,39.6682,1539.00,69.80,32.00,24.59,60.00,6.00,0.00,30.00,M,10.00,M,CLR,M,M,M,M,M,M,M,M,M,M,M,M,M,M,69.80,KRTS 020055Z AUTO 06006KT 10SM CLR 21/M00 A3000 RMK AO2,M
CXP,2022-10-02 00:55,-119.7326,39.1923,1431.00,71.60,32.00,23.13,60.00,12.00,0.00,29.98,M,10.00,19.00,CLR,M,M,M,M,M,M,M,M,M,M,M,M,M,M,71.60,KCXP 020055Z AUTO 06012G19KT 10SM CLR 22/00 A2998 RMK AO2,M
BVU,2022-10-02 00:55,-114.8611,35.9475,671.00,89.60,50.00,25.79,150.00,17.00,0.00,29.77,M,10.00,M,CLR,M,M,M,M,M,M,M,M,M,M,M,M,M,M,86.70,KBVU 020055Z AUTO 15017KT 10SM CLR 32/10 A2977 RMK AO2,M
05U,2022-10-02 00:55,-116.0051,39.6042,1811.23,66.20,28.40,24.04,360.00,8.00,0.00,30.04,M,10.00,M,CLR,M,M,M,M,M,M,M,M,M,M,M,M,M,M,66.20,K05U 020055Z AUTO 36008KT 10SM CLR 19/M02 A3004 RMK A01,M
MEV,2022-10-02 00:55,-119.7500,38.9963,1441.42,73.40,33.80,23.39,340.00,9.00,0.00,29.95,M,10.00,M,CLR,M,M,M,M,M,M,M,M,M,M,M,M,M,M,73.40,KMEV 020055Z AUTO 34009KT 10SM CLR 23/01 A2995 RMK AO2,M
BAM,2022-10-02 00:55,-116.8743,40.5990,1382.36,69.80,32.00,24.59,360.00,5.00,0.00,30.00,M,10.00,M,CLR,M,M,M,M,M,M,M,M,M,M,M,M,M,M,69.80,KBAM 020055Z AUTO 36005KT 10SM CLR 21/00 A3000 RMK AO1,M
HND,2022-10-02 00:56,-115.1344,35.9729,742.79,91.00,38.00,15.54,240.00,10.00,0.00,29.81,1008.00,10.00,M,CLR,M,M,M,M,M,M,M,M,M,M,M,M,M,M,86.90,KHND 020056Z 24010KT 10SM CLR 33/03 A2981 RMK AO2 SLP080 T03280033,M
NFL,2022-10-02 00:56,-118.7010,39.4166,1199.00,73.00,32.00,22.06,20.00,7.00,0.00,29.94,1011.20,10.00,M,CLR,M,M,M,M,M,M,M,M,M,M,M,M,M,M,73.00,KNFL 020056Z AUTO 02007KT 10SM CLR 23/00 A2994 RMK AO2 SLP112 T02280000,M
TPH,2022-10-02 00:56,-117.0904,38.0505,1654.00,74.00,26.10,16.81,150.00,3.00,0.00,29.99,1010.10,10.00,M,CLR,M,M,M,M,M,M,M,M,M,M,M,M,M,M,73.90,KTPH 020056Z AUTO 15003KT 10SM CLR 23/M03 A2999 RMK AO2 SLP101 T02331033,M
LAS,2022-10-02 00:56,-115.1634,36.0719,663.00,91.00,37.00,15.00,230.00,10.00,0.00,29.77,1005.50,10.00,M,FEW,M,M,M,15000.00,M,M,M,M,M,M,M,M,M,M,86.86,KLAS 020056Z 23010KT 10SM FEW150 33/03 A2977 RMK AO2 SLP055 T03280028,M
INS,2022-10-02 00:56,-115.6733,36.5872,955.00,86.00,31.30,13.99,310.00,5.00,0.00,29.82,1005.60,10.00,M,CLR,M,M,M,M,M,M,M,M,M,M,M,M,M,M,82.64,KINS 020056Z AUTO 31005KT 10SM CLR 30/M00 A2982 RMK AO2 SLP056 T03001004 $,M
EKO,2022-10-02 00:56,-115.7860,40.8242,1367.00,64.00,28.90,26.50,220.00,5.00,0.00,30.00,1014.30,10.00,M,CLR,M,M,M,M,M,M,M,M,M,M,M,M,M,M,64.00,KEKO 020056Z AUTO 22005KT 10SM CLR 18/M02 A3000 RMK AO2 SLP143 T01781017,M
LSV,2022-10-02 00:56,-115.0343,36.2362,570.00,92.00,36.00,13.93,220.00,3.00,0.00,29.72,1004.20,10.00,M,CLR,M,M,M,M,M,M,M,M,M,M,M,M,M,M,87.80,KLSV 020056Z AUTO 22003KT 10SM CLR 33/02 A2972 RMK AO2 SLP042 T03340022 $,M
WMC,2022-10-02 00:56,-117.8072,40.9019,1315.00,70.00,28.90,21.53,20.00,5.00,0.00,29.99,1012.60,10.00,M,CLR,M,M,M,M,M,M,M,M,M,M,M,M,M,M,70.00,KWMC 020056Z AUTO 02005KT 10SM CLR 21/M02 A2999 RMK AO2 SLP126 T02111017,M
BAM,2022-10-02 01:15,-116.8743,40.5990,1382.36,68.00,32.00,26.15,330.00,6.00,0.00,30.00,M,10.00,M,CLR,M,M,M,M,M,M,M,M,M,M,M,M,M,M,68.00,KBAM 020115Z AUTO 33006KT 10SM CLR 20/00 A3000 RMK AO1,M
BVU,2022-10-02 01:15,-114.8611,35.9475,671.00,87.80,50.00,27.29,150.00,16.00,0.00,29.77,M,10.00,M,CLR,M,M,M,M,M,M,M,M,M,M,M,M,M,M,85.11,KBVU 020115Z AUTO 15016KT 10SM CLR 31/10 A2977 RMK AO2,M
CXP,2022-10-02 01:15,-119.7326,39.1923,1431.00,69.80,32.00,24.59,70.00,14.00,0.00,29.98,M,10.00,M,CLR,M,M,M,M,M,M,M,M,M,M,M,M,M,M,69.80,KCXP 020115Z AUTO 07014KT 10SM CLR 21/00 A2998 RMK AO2,M
RTS,2022-10-02 01:15,-119.8764,39.6682,1539.00,68.00,32.00,26.15,40.00,10.00,0.00,30.00,M,10.00,M,CLR,M,M,M,M,M,M,M,M,M,M,M,M,M,M,68.00,KRTS 020115Z AUTO 04010KT 10SM CLR 20/M00 A3000 RMK AO2,M
05U,2022-10-02 01:15,-116.0051,39.6042,1811.23,62.60,28.40,27.27,360.00,6.00,0.00,30.05,M,10.00,M,CLR,M,M,M,M,M,M,M,M,M,M,M,M,M,M,62.60,K05U 020115Z AUTO 36006KT 10SM CLR 17/M02 A3005 RMK A01,M
MEV,2022-10-02 01:15,-119.7500,38.9963,1441.42,71.60,33.80,24.86,320.00,7.00,0.00,29.96,M,9.00,M,CLR,M,M,M,M,M,M,M,M,M,M,M,M,M,M,71.60,KMEV 020115Z AUTO 32007KT 9SM CLR 22/01 A2996 RMK AO2,M
HTH,2022-10-02 01:15,-118.6315,38.5448,1282.89,71.60,32.00,23.13,320.00,11.00,0.00,29.95,M,10.00,M,CLR,M,M,M,M,M,M,M,M,M,M,M,M,M,M,71.60,KHTH 020115Z AUTO 32011KT 10SM CLR 22/00 A2995 RMK A01,M
TMT,2022-10-02 01:15,-117.1971,39.4643,1749.34,M,M,M,350.00,8.00,0.00,30.03,M,10.00,M,CLR,M,M,M,M,M,M,M,M,M,M,M,M,M,M,M,KTMT 020115Z AUTO 35008KT 10SM CLR A3003 RMK AO2,M
TMT,2022-10-02 01:35,-117.1971,39.4643,1749.34,M,M,M,350.00,6.00,0.00,30.04,M,10.00,M,CLR,M,M,M,M,M,M,M,M,M,M,M,M,M,M,M,KTMT 020135Z AUTO 35006KT 10SM CLR A3004 RMK AO2,M
HTH,2022-10-02 01:35,-118.6315,38.5448,1282.89,69.80,33.80,26.43,320.00,10.00,0.00,29.95,M,10.00,M,CLR,M,M,M,M,M,M,M,M,M,M,M,M,M,M,69.80,KHTH 020135Z AUTO 32010KT 10SM CLR 21/01 A2995 RMK A01,M
05U,2022-10-02 01:35,-116.0051,39.6042,1811.23,59.00,30.20,33.35,350.00,6.00,0.00,30.05,M,8.00,M,CLR,M,M,M,M,M,M,M,M,M,M,M,M,M,M,59.00,K05U 020135Z AUTO 35006KT 8SM CLR 15/M01 A3005 RMK A01,M
BAM,2022-10-02 01:35,-116.8743,40.5990,1382.36,66.20,32.00,27.83,330.00,7.00,0.00,30.00,M,10.00,M,CLR,M,M,M,M,M,M,M,M,M,M,M,M,M,M,66.20,KBAM 020135Z AUTO 33007KT 10SM CLR 19/00 A3000 RMK AO1,M
MEV,2022-10-02 01:35,-119.7500,38.9963,1441.42,68.00,33.80,28.11,330.00,9.00,0.00,29.96,M,10.00,M,CLR,M,M,M,M,M,M,M,M,M,M,M,M,M,M,68.00,KMEV 020135Z AUTO 33009KT 10SM CLR 20/01 A2996 RMK AO2,M
RTS,2022-10-02 01:35,-119.8764,39.6682,1539.00,66.20,32.00,27.83,60.00,4.00,0.00,30.01,M,10.00,M,CLR,M,M,M,M,M,M,M,M,M,M,M,M,M,M,66.20,KRTS 020135Z AUTO 06004KT 10SM CLR 19/M00 A3001 RMK AO2,M
CXP,2022-10-02 01:35,-119.7326,39.1923,1431.00,69.80,32.00,24.59,60.00,12.00,0.00,29.99,M,10.00,M,CLR,M,M,M,M,M,M,M,M,M,M,M,M,M,M,69.80,KCXP 020135Z AUTO 06012KT 10SM CLR 21/M00 A2999 RMK AO2,M
BVU,2022-10-02 01:35,-114.8611,35.9475,671.00,87.80,51.80,29.18,150.00,14.00,0.00,29.78,M,10.00,M,CLR,M,M,M,M,M,M,M,M,M,M,M,M,M,M,85.39,KBVU 020135Z AUTO 15014KT 10SM CLR 31/11 A2978 RMK AO2,M
ELY,2022-10-02 01:53,-114.8453,39.2950,1909.00,55.00,27.00,33.79,180.00,7.00,0.00,30.05,1014.10,10.00,M,CLR,M,M,M,M,M,M,M,M,M,M,M,M,M,M,55.00,KELY 020153Z AUTO 18007KT 10SM CLR 13/M03 A3005 RMK AO2 SLP141 T01281028,M
P68,2022-10-02 01:53,-116.0056,39.6014,1993.00,56.00,30.90,38.36,330.00,6.00,0.00,30.03,1013.60,M,M,M,M,M,M,M,M,M,M,M,M,M,M,M,M,M,55.90,KP68 020153Z AUTO 33006KT 13/M01 A3003 RMK AO1 SLP136 T01331006,M
DRA,2022-10-02 01:53,-116.0278,36.6206,1009.00,81.00,28.90,14.92,220.00,9.00,0.00,29.86,1006.80,10.00,M,CLR,M,M,M,M,M,M,M,M,M,M,M,M,M,M,78.99,KDRA 020153Z AUTO 22009KT 10SM CLR 27/M02 A2986 RMK AO2 SLP068 T02721017,M
LOL,2022-10-02 01:53,-118.5701,40.0684,1192.43,67.00,34.00,29.44,40.00,5.00,0.00,29.95,1012.70,10.00,M,CLR,M,M,M,M,M,M,M,M,M,M,M,M,M,M,66.90,KLOL 020153Z AUTO 04005KT 10SM CLR 19/01 A2995 RMK AO2 SLP127 T01940011,M
VGT,2022-10-02 01:53,-115.1933,36.2111,667.00,91.00,37.00,15.00,250.00,6.00,0.00,29.77,1007.40,10.00,M,CLR,M,M,M,M,M,M,M,M,M,M,M,M,M,M,86.86,KVGT 020153Z 25006KT 10SM CLR 33/03 A2977 RMK AO2 SLP074 T03280028,M
BVU,2022-10-02 01:55,-114.8611,35.9475,671.00,86.00,51.80,30.90,160.00,14.00,0.00,29.78,M,10.00,M,CLR,M,M,M,M,M,M,M,M,M,M,M,M,M,M,83.87,KBVU 020155Z AUTO 16014KT 10SM CLR 30/11 A2978 RMK AO2,M
MEV,2022-10-02 01:55,-119.7500,38.9963,1441.42,66.20,33.80,29.92,330.00,7.00,0.00,29.97,M,10.00,M,CLR,M,M,M,M,M,M,M,M,M,M,M,M,M,M,66.20,KMEV 020155Z AUTO 33007KT 10SM CLR 19/01 A2997 RMK AO2,M
CXP,2022-10-02 01:55,-119.7326,39.1923,1431.00,68.00,32.00,26.15,50.00,10.00,0.00,30.00,M,10.00,M,CLR,M,M,M,M,M,M,M,M,M,M,M,M,M,M,68.00,KCXP 020155Z AUTO 05010KT 10SM CLR 20/M00 A3000 RMK AO2,M
BAM,2022-10-02 01:55,-116.8743,40.5990,1382.36,64.40,32.00,29.63,330.00,5.00,0.00,30.01,M,10.00,M,CLR,M,M,M,M,M,M,M,M,M,M,M,M,M,M,64.40,KBAM 020155Z AUTO 33005KT 10SM CLR 18/00 A3001 RMK AO1,M
HTH,2022-10-02 01:55,-118.6315,38.5448,1282.89,69.80,33.80,26.43,330.00,11.00,0.00,29.96,M,10.00,M,CLR,M,M,M,M,M,M,M,M,M,M,M,M,M,M,69.80,KHTH 020155Z AUTO 33011KT 10SM CLR 21/01 A2996 RMK A01,M
TMT,2022-10-02 01:55,-117.1971,39.4643,1749.34,57.70,29.30,33.68,360.00,5.00,0.00,30.05,M,10.00,M,CLR,M,M,M,M,M,M,M,M,M,M,M,M,M,M,57.70,KTMT 020155Z AUTO 36005KT 10SM CLR 14/M01 A3005 RMK AO2 T01431015,M
RTS,2022-10-02 01:55,-119.8764,39.6682,1539.00,64.40,30.20,27.55,50.00,6.00,0.00,30.01,M,10.00,M,CLR,M,M,M,M,M,M,M,M,M,M,M,M,M,M,64.40,KRTS 020155Z AUTO 05006KT 10SM CLR 18/M01 A3001 RMK AO2,M
RNO,2022-10-02 01:55,-119.7711,39.4839,1341.00,71.00,35.00,26.63,90.00,7.00,0.00,29.96,1011.00,10.00,M,FEW,FEW,M,M,8000.00,10000.00,M,M,M,M,M,M,M,M,M,71.10,KRNO 020155Z 09007KT 10SM FEW080 FEW100 22/02 A2996 RMK AO2 SLP110 T02170017 $,M
05U,2022-10-02 01:55,-116.0051,39.6042,1811.23,55.40,30.20,37.97,320.00,6.00,0.00,30.06,M,10.00,M,CLR,M,M,M,M,M,M,M,M,M,M,M,M,M,M,55.40,K05U 020155Z AUTO 32006KT 10SM CLR 13/M01 A3006 RMK A01,M
NFL,2022-10-02 01:56,-118.7010,39.4166,1199.00,65.00,33.00,30.44,30.00,4.00,0.00,29.95,1011.50,10.00,M,CLR,M,M,M,M,M,M,M,M,M,M,M,M,M,M,64.90,KNFL 020156Z AUTO 03004KT 10SM CLR 18/01 A2995 RMK AO2 SLP115 T01830006,M
LSV,2022-10-02 01:56,-115.0343,36.2362,570.00,90.00,37.80,15.97,240.00,6.00,0.00,29.73,1004.50,10.00,M,CLR,M,M,M,M,M,M,M,M,M,M,M,M,M,M,86.02,KLSV 020156Z AUTO 24006KT 10SM CLR 32/03 A2973 RMK AO2 SLP045 T03220032 $,M
INS,2022-10-02 01:56,-115.6733,36.5872,955.00,83.30,27.30,12.96,260.00,8.00,0.00,29.84,1006.60,10.00,M,CLR,M,M,M,M,M,M,M,M,M,M,M,M,M,M,80.57,KINS 020156Z AUTO 26008KT 10SM CLR 29/M03 A2984 RMK AO2 SLP066 T02851026 $,M
WMC,2022-10-02 01:56,-117.8072,40.9019,1315.00,63.00,28.90,27.44,10.00,4.00,0.00,30.00,1013.50,10.00,M,CLR,M,M,M,M,M,M,M,M,M,M,M,M,M,M,63.00,KWMC 020156Z AUTO 01004KT 10SM CLR 17/M02 A3000 RMK AO2 SLP135 T01721017,M
HND,2022-10-02 01:56,-115.1344,35.9729,742.79,88.00,41.00,19.28,230.00,9.00,0.00,29.82,1008.90,10.00,M,CLR,M,M,M,M,M,M,M,M,M,M,M,M,M,M,84.46,KHND 020156Z 23009KT 10SM CLR 31/05 A2982 RMK AO2 SLP089 T03110050,M
TPH,2022-10-02 01:56,-117.0904,38.0505,1654.00,67.00,27.00,22.15,340.00,5.00,0.00,30.00,1011.20,10.00,M,CLR,M,M,M,M,M,M,M,M,M,M,M,M,M,M,66.90,KTPH 020156Z AUTO 34005KT 10SM CLR 19/M03 A3000 RMK AO2 SLP112 T01941028,M
EKO,2022-10-02 01:56,-115.7860,40.8242,1367.00,60.00,30.00,31.80,0.00,0.00,0.00,30.01,1014.50,10.00,M,CLR,M,M,M,M,M,M,M,M,M,M,M,M,M,M,60.10,KEKO 020156Z AUTO 00000KT 10SM CLR 16/M01 A3001 RMK AO2 SLP145 T01561011,M
LAS,2022-10-02 01:56,-115.1634,36.0719,663.00,89.00,40.00,17.84,240.00,8.00,0.00,29.79,1006.20,10.00,M,FEW,M,M,M,15000.00,M,M,M,M,M,M,M,M,M,M,85.34,KLAS 020156Z 24008KT 10SM FEW150 32/04 A2979 RMK AO2 SLP062 T03170044,M
HTH,2022-10-02 02:15,-118.6315,38.5448,1282.89,69.80,35.60,28.39,320.00,12.00,0.00,29.97,M,10.00,M,CLR,M,M,M,M,M,M,M,M,M,M,M,M,M,M,69.80,KHTH 020215Z AUTO 32012KT 10SM CLR 21/02 A2997 RMK A01,M
BAM,2022-10-02 02:15,-116.8743,40.5990,1382.36,62.60,32.00,31.56,340.00,6.00,0.00,30.01,M,10.00,M,CLR,M,M,M,M,M,M,M,M,M,M,M,M,M,M,62.60,KBAM 020215Z AUTO 34006KT 10SM CLR 17/00 A3001 RMK AO1,M
MEV,2022-10-02 02:15,-119.7500,38.9963,1441.42,64.40,33.80,31.85,320.00,8.00,0.00,29.98,M,8.00,M,CLR,M,M,M,M,M,M,M,M,M,M,M,M,M,M,64.40,KMEV 020215Z AUTO 32008KT 8SM CLR 18/01 A2998 RMK AO2,M
05U,2022-10-02 02:15,-116.0051,39.6042,1811.23,53.60,28.40,37.67,320.00,6.00,0.00,30.06,M,10.00,M,CLR,M,M,M,M,M,M,M,M,M,M,M,M,M,M,53.60,K05U 020215Z AUTO 32006KT 10SM CLR 12/M02 A3006 RMK A01,M
RTS,2022-10-02 02:15,-119.8764,39.6682,1539.00,62.60,30.20,29.35,0.00,0.00,0.00,30.02,M,10.00,M,CLR,M,M,M,M,M,M,M,M,M,M,M,M,M,M,62.60,KRTS 020215Z AUTO 00000KT 10SM CLR 17/M01 A3002 RMK AO2,M
CXP,2022-10-02 02:15,-119.7326,39.1923,1431.00,68.00,32.00,26.15,50.00,10.00,0.00,30.00,M,10.00,M,CLR,M,M,M,M,M,M,M,M,M,M,M,M,M,M,68.00,KCXP 020215Z AUTO 05010KT 10SM CLR 20/M00 A3000 RMK AO2,M
TMT,2022-10-02 02:15,-117.1971,39.4643,1749.34,56.70,28.00,33.11,10.00,5.00,0.00,30.05,M,10.00,M,CLR,M,M,M,M,M,M,M,M,M,M,M,M,M,M,56.70,KTMT 020215Z AUTO 01005KT 10SM CLR 14/M02 A3005 RMK AO2 T01371022,M
BVU,2022-10-02 02:15,-114.8611,35.9475,671.00,86.00,51.80,30.90,160.00,10.00,0.00,29.79,M,10.00,M,CLR,M,M,M,M,M,M,M,M,M,M,M,M,M,M,83.87,KBVU 020215Z AUTO 16010KT 10SM CLR 30/11 A2979 RMK AO2,M
TMT,2022-10-02 02:35,-117.1971,39.4643,1749.34,51.00,26.10,37.57,0.00,0.00,0.00,30.06,M,10.00,M,CLR,M,M,M,M,M,M,M,M,M,M,M,M,M,M,51.10,KTMT 020235Z AUTO 00000KT 10SM CLR 11/M03 A3006 RMK AO2 T01061033,M
BVU,2022-10-02 02:35,-114.8611,35.9475,671.00,84.20,51.80,32.73,170.00,9.00,0.00,29.80,M,10.00,M,CLR,M,M,M,M,M,M,M,M,M,M,M,M,M,M,82.48,KBVU 020235Z AUTO 17009KT 10SM CLR 29/11 A2980 RMK AO2,M
CXP,2022-10-02 02:35,-119.7326,39.1923,1431.00,68.00,32.00,26.15,50.00,9.00,0.00,30.01,M,10.00,15.00,CLR,M,M,M,M,M,M,M,M,M,M,M,M,M,M,68.00,KCXP 020235Z AUTO 05009G15KT 10SM CLR 20/M00 A3001 RMK AO2,M
RTS,2022-10-02 02:35,-119.8764,39.6682,1539.00,60.80,33.80,36.16,260.00,5.00,0.00,30.03,M,10.00,M,CLR,M,M,M,M,M,M,M,M,M,M,M,M,M,M,60.80,KRTS 020235Z AUTO 26005KT 10SM CLR 16/01 A3003 RMK AO2,M
05U,2022-10-02 02:35,-116.0051,39.6042,1811.23,53.60,30.20,40.54,100.00,3.00,0.00,30.07,M,10.00,M,CLR,M,M,M,M,M,M,M,M,M,M,M,M,M,M,53.60,K05U 020235Z AUTO 10003KT 10SM CLR 12/M01 A3007 RMK A01,M
MEV,2022-10-02 02:35,-119.7500,38.9963,1441.42,62.60,33.80,33.93,320.00,9.00,0.00,29.99,M,9.00,M,CLR,M,M,M,M,M,M,M,M,M,M,M,M,M,M,62.60,KMEV 020235Z AUTO 32009KT 9SM CLR 17/01 A2999 RMK AO2,M
BAM,2022-10-02 02:35,-116.8743,40.5990,1382.36,60.80,32.00,33.64,340.00,6.00,0.00,30.02,M,10.00,M,CLR,M,M,M,M,M,M,M,M,M,M,M,M,M,M,60.80,KBAM 020235Z AUTO 34006KT 10SM CLR 16/00 A3002 RMK AO1,M
HTH,2022-10-02 02:35,-118.6315,38.5448,1282.89,68.00,35.60,30.20,320.00,12.00,0.00,29.97,M,10.00,17.00,CLR,M,M,M,M,M,M,M,M,M,M,M,M,M,M,68.00,KHTH 020235Z AUTO 32012G17KT 10SM CLR 20/02 A2997 RMK A01,M
P68,2022-10-02 02:53,-116.0056,39.6014,1993.00,52.00,30.00,42.65,110.00,3.00,0.00,30.05,1013.80,M,M,M,M,M,M,M,M,M,M,M,M,M,M,M,M,M,52.00,KP68 020253Z AUTO 11003KT 11/M01 A3005 RMK AO1 SLP138 T01111011 53014,M
VGT,2022-10-02 02:53,-115.1933,36.2111,667.00,89.00,39.00,17.22,230.00,7.00,0.00,29.79,1007.80,10.00,M,CLR,M,M,M,M,M,M,M,M,M,M,M,M,M,M,85.30,KVGT 020253Z 23007KT 10SM CLR 32/04 A2979 RMK AO2 SLP078 T03170039 53010,M
ELY,2022-10-02 02:53,-114.8453,39.2950,1909.00,56.00,32.00,40.10,40.00,9.00,0.00,30.06,1013.10,10.00,M,OVC,M,M,M,11000.00,M,M,M,M,M,M,M,M,M,M,55.90,KELY 020253Z AUTO 04009KT 10SM OVC110 13/00 A3006 RMK AO2 SLP131 T01330000 53012,M
DRA,2022-10-02 02:53,-116.0278,36.6206,1009.00,77.00,28.90,17.01,180.00,3.00,0.00,29.87,1007.20,10.00,M,CLR,M,M,M,M,M,M,M,M,M,M,M,M,M,M,77.00,KDRA 020253Z AUTO 18003KT 10SM CLR 25/M02 A2987 RMK AO2 SLP072 T02501017 53009,M
LOL,2022-10-02 02:53,-118.5701,40.0684,1192.43,65.00,32.00,29.12,30.00,9.00,0.00,29.97,1013.20,10.00,M,CLR,M,M,M,M,M,M,M,M,M,M,M,M,M,M,64.90,KLOL 020253Z AUTO 03009KT 10SM CLR 18/00 A2997 RMK AO2 SLP132 T01830000 53005,M
TMT,2022-10-02 02:55,-117.1971,39.4643,1749.34,49.60,26.80,40.89,0.00,0.00,0.00,30.06,M,10.00,M,CLR,M,M,M,M,M,M,M,M,M,M,M,M,M,M,49.60,KTMT 020255Z AUTO 00000KT 10SM CLR 10/M03 A3006 RMK AO2 T00981029,M
RTS,2022-10-02 02:55,-119.8764,39.6682,1539.00,60.80,33.80,36.16,0.00,0.00,0.00,30.03,M,10.00,M,FEW,M,M,M,7500.00,M,M,M,M,M,M,M,M,M,M,60.80,KRTS 020255Z AUTO 00000KT 10SM FEW075 16/01 A3003 RMK AO2,M
BAM,2022-10-02 02:55,-116.8743,40.5990,1382.36,59.00,30.20,33.35,330.00,5.00,0.00,30.01,M,10.00,M,CLR,M,M,M,M,M,M,M,M,M,M,M,M,M,M,59.00,KBAM 020255Z AUTO 33005KT 10SM CLR 15/M01 A3001 RMK AO1,M
HTH,2022-10-02 02:55,-118.6315,38.5448,1282.89,68.00,35.60,30.20,320.00,10.00,0.00,29.98,M,10.00,M,CLR,M,M,M,M,M,M,M,M,M,M,M,M,M,M,68.00,KHTH 020255Z AUTO 32010KT 10SM CLR 20/02 A2998 RMK A01,M
MEV,2022-10-02 02:55,-119.7500,38.9963,1441.42,60.80,33.80,36.16,330.00,6.00,0.00,29.99,M,10.00,M,FEW,SCT,M,M,5000.00,6000.00,M,M,M,M,M,M,M,M,M,60.80,KMEV 020255Z AUTO 33006KT 10SM FEW050 SCT060 16/01 A2999 RMK AO2,M
05U,2022-10-02 02:55,-116.0051,39.6042,1811.23,51.80,28.40,40.25,0.00,0.00,0.00,30.07,M,10.00,M,CLR,M,M,M,M,M,M,M,M,M,M,M,M,M,M,51.80,K05U 020255Z AUTO 00000KT 10SM CLR 11/M02 A3007 RMK A01,M
BVU,2022-10-02 02:55,-114.8611,35.9475,671.00,84.20,51.80,32.73,180.00,6.00,0.00,29.81,M,10.00,M,CLR,M,M,M,M,M,M,M,M,M,M,M,M,M,M,82.48,KBVU 020255Z AUTO 18006KT 10SM CLR 29/11 A2981 RMK AO2,M
CXP,2022-10-02 02:55,-119.7326,39.1923,1431.00,68.00,32.00,26.15,60.00,9.00,0.00,30.01,M,10.00,M,CLR,M,M,M,M,M,M,M,M,M,M,M,M,M,M,68.00,KCXP 020255Z AUTO 06009KT 10SM CLR 20/M00 A3001 RMK AO2,M
RNO,2022-10-02 02:55,-119.7711,39.4839,1341.00,69.00,35.00,28.51,0.00,0.00,0.00,29.99,1011.90,10.00,M,FEW,M,M,M,10000.00,M,M,M,M,M,M,M,M,M,M,69.10,KRNO 020255Z 00000KT 10SM FEW100 21/02 A2999 RMK AO2 SLP119 T02060017 53013 $,M
LAS,2022-10-02 02:56,-115.1634,36.0719,663.00,87.00,40.00,19.01,230.00,8.00,0.00,29.80,1006.70,10.00,M,CLR,M,M,M,M,M,M,M,M,M,M,M,M,M,M,83.68,KLAS 020256Z 23008KT 10SM CLR 31/04 A2980 RMK AO2 SLP067 T03060044 53011,M
LSV,2022-10-02 02:56,-115.0343,36.2362,570.00,83.70,39.60,20.95,190.00,3.00,0.00,29.75,1005.20,10.00,M,CLR,M,M,M,M,M,M,M,M,M,M,M,M,M,M,81.10,KLSV 020256Z AUTO 19003KT 10SM CLR 29/04 A2975 RMK AO2 SLP052 T02870042 53010 $,M
HND,2022-10-02 02:56,-115.1344,35.9729,742.79,85.00,42.00,22.20,220.00,8.00,0.00,29.84,1009.40,10.00,M,CLR,M,M,M,M,M,M,M,M,M,M,M,M,M,M,82.08,KHND 020256Z 22008KT 10SM CLR 29/06 A2984 RMK AO2 SLP094 T02940056 53014,M
WMC,2022-10-02 02:56,-117.8072,40.9019,1315.00,53.00,26.10,34.90,0.00,0.00,0.00,30.00,1014.80,10.00,M,CLR,M,M,M,M,M,M,M,M,M,M,M,M,M,M,53.10,KWMC 020256Z AUTO 00000KT 10SM CLR 12/M03 A3000 RMK AO2 SLP148 T01171033 53005,M
EKO,2022-10-02 02:56,-115.7860,40.8242,1367.00,55.00,27.00,33.79,0.00,0.00,0.00,30.02,1014.70,10.00,M,CLR,M,M,M,M,M,M,M,M,M,M,M,M,M,M,55.00,KEKO 020256Z AUTO 00000KT 10SM CLR 13/M03 A3002 RMK AO2 SLP147 T01281028 53005,M
INS,2022-10-02 02:56,-115.6733,36.5872,955.00,77.20,31.60,18.86,270.00,10.00,0.00,29.85,1006.90,10.00,M,CLR,M,M,M,M,M,M,M,M,M,M,M,M,M,M,77.20,KINS 020256Z AUTO 27010KT 10SM CLR 25/M00 A2985 RMK AO2 SLP069 T02511002 53008 $,M
TPH,2022-10-02 02:56,-117.0904,38.0505,1654.00,63.00,25.00,23.36,350.00,3.00,0.00,30.01,1011.40,10.00,M,CLR,M,M,M,M,M,M,M,M,M,M,M,M,M,M,63.00,KTPH 020256Z AUTO 35003KT 10SM CLR 17/M04 A3001 RMK AO2 SLP114 T01721039 53008,M
NFL,2022-10-02 02:56,-118.7010,39.4166,1199.00,61.00,33.00,34.91,0.00,0.00,0.00,29.96,1011.70,10.00,M,CLR,M,M,M,M,M,M,M,M,M,M,M,M,M,M,61.00,KNFL 020256Z AUTO 00000KT 10SM CLR 16/01 A2996 RMK AO2 SLP117 T01610006 53006,M
RTS,2022-10-02 03:15,-119.8764,39.6682,1539.00,59.00,33.80,38.56,0.00,0.00,0.00,30.04,M,10.00,M,BKN,M,M,M,7500.00,M,M,M,M,M,M,M,M,M,M,59.00,KRTS 020315Z AUTO 00000KT 10SM BKN075 15/01 A3004 RMK AO2,M
BVU,2022-10-02 03:15,-114.8611,35.9475,671.00,84.20,53.60,34.97,160.00,8.00,0.00,29.81,M,10.00,M,CLR,M,M,M,M,M,M,M,M,M,M,M,M,M,M,82.76,KBVU 020315Z AUTO 16008KT 10SM CLR 29/12 A2981 RMK AO2,M
CXP,2022-10-02 03:15,-119.7326,39.1923,1431.00,68.00,32.00,26.15,30.00,8.00,0.00,30.02,M,10.00,14.00,CLR,M,M,M,M,M,M,M,M,M,M,M,M,M,M,68.00,KCXP 020315Z AUTO 03008G14KT 10SM CLR 20/M00 A3002 RMK AO2,M
05U,2022-10-02 03:15,-116.0051,39.6042,1811.23,50.00,28.40,43.03,70.00,4.00,0.00,30.07,M,10.00,M,CLR,M,M,M,M,M,M,M,M,M,M,M,M,M,M,50.00,K05U 020315Z AUTO 07004KT 10SM CLR 10/M02 A3007 RMK A01,M
MEV,2022-10-02 03:15,-119.7500,38.9963,1441.42,59.00,33.80,38.56,340.00,4.00,0.00,30.00,M,10.00,M,FEW,SCT,M,M,4700.00,5500.00,M,M,M,M,M,M,M,M,M,59.00,KMEV 020315Z AUTO 34004KT 10SM FEW047 SCT055 15/01 A3000 RMK AO2,M
BAM,2022-10-02 03:15,-116.8743,40.5990,1382.36,59.00,30.20,33.35,320.00,7.00,0.00,30.02,M,10.00,M,CLR,M,M,M,M,M,M,M,M,M,M,M,M,M,M,59.00,KBAM 020315Z AUTO 32007KT 10SM CLR 15/M01 A3002 RMK AO1,M
HTH,2022-10-02 03:15,-118.6315,38.5448,1282.89,68.00,35.60,30.20,320.00,10.00,0.00,29.98,M,10.00,16.00,CLR,M,M,M,M,M,M,M,M,M,M,M,M,M,M,68.00,KHTH 020315Z AUTO 32010G16KT 10SM CLR 20/02 A2998 RMK A01,M
TMT,2022-10-02 03:15,-117.1971,39.4643,1749.34,M,M,M,0.00,0.00,0.00,30.06,M,10.00,M,CLR,M,M,M,M,M,M,M,M,M,M,M,M,M,M,M,KTMT 020315Z AUTO 00000KT 10SM CLR A3006 RMK AO2,M
BAM,2022-10-02 03:35,-116.8743,40.5990,1382.36,59.00,28.40,30.98,310.00,6.00,0.00,30.02,M,10.00,M,CLR,M,M,M,M,M,M,M,M,M,M,M,M,M,M,59.00,KBAM 020335Z AUTO 31006KT 10SM CLR 15/M02 A3002 RMK AO1,M
HTH,2022-10-02 03:35,-118.6315,38.5448,1282.89,66.20,33.80,29.92,320.00,9.00,0.00,29.99,M,10.00,M,CLR,M,M,M,M,M,M,M,M,M,M,M,M,M,M,66.20,KHTH 020335Z AUTO 32009KT 10SM CLR 19/01 A2999 RMK A01,M
RTS,2022-10-02 03:35,-119.8764,39.6682,1539.00,60.80,32.00,33.64,0.00,0.00,0.00,30.04,M,10.00,M,SCT,M,M,M,7500.00,M,M,M,M,M,M,M,M,M,M,60.80,KRTS 020335Z AUTO 00000KT 10SM SCT075 16/00 A3004 RMK AO2,M
TMT,2022-10-02 03:35,-117.1971,39.4643,1749.34,47.00,25.90,43.59,280.00,3.00,0.00,30.07,M,10.00,M,CLR,M,M,M,M,M,M,M,M,M,M,M,M,M,M,45.72,KTMT 020335Z AUTO 28003KT 10SM CLR 08/M03 A3007 RMK AO2 T00831034,M
05U,2022-10-02 03:35,-116.0051,39.6042,1811.23,48.20,26.60,42.73,0.00,0.00,0.00,30.08,M,10.00,M,CLR,M,M,M,M,M,M,M,M,M,M,M,M,M,M,48.20,K05U 020335Z AUTO 00000KT 10SM CLR 09/M03 A3008 RMK A01,M
MEV,2022-10-02 03:35,-119.7500,38.9963,1441.42,59.00,33.80,38.56,330.00,6.00,0.00,30.00,M,9.00,M,FEW,SCT,M,M,4600.00,5500.00,M,M,M,M,M,M,M,M,M,59.00,KMEV 020335Z AUTO 33006KT 9SM FEW046 SCT055 15/01 A3000 RMK AO2,M
BVU,2022-10-02 03:35,-114.8611,35.9475,671.00,82.40,53.60,37.07,160.00,6.00,0.00,29.82,M,10.00,M,CLR,M,M,M,M,M,M,M,M,M,M,M,M,M,M,81.46,KBVU 020335Z AUTO 16006KT 10SM CLR 28/12 A2982 RMK AO2,M
CXP,2022-10-02 03:35,-119.7326,39.1923,1431.00,66.20,32.00,27.83,40.00,11.00,0.00,30.02,M,10.00,M,CLR,M,M,M,M,M,M,M,M,M,M,M,M,M,M,66.20,KCXP 020335Z AUTO 04011KT 10SM CLR 19/M00 A3002 RMK AO2,M
RTS,2022-10-02 03:39,-119.8764,39.6682,1539.00,57.20,30.20,35.57,0.00,0.00,0.00,30.05,M,10.00,M,CLR,M,M,M,M,M,M,M,M,M,M,M,M,M,M,57.20,KRTS 020339Z AUTO 00000KT 10SM CLR 14/M01 A3005 RMK AO2,M
ELY,2022-10-02 03:53,-114.8453,39.2950,1909.00,52.00,33.00,48.34,20.00,6.00,0.00,30.08,1013.20,10.00,M,CLR,M,M,M,M,M,M,M,M,M,M,M,M,M,M,52.00,KELY 020353Z AUTO 02006KT 10SM CLR 11/01 A3008 RMK AO2 SLP132 T01110006,M
DRA,2022-10-02 03:53,-116.0278,36.6206,1009.00,75.00,30.90,19.73,20.00,3.00,0.00,29.89,1007.80,10.00,M,CLR,M,M,M,M,M,M,M,M,M,M,M,M,M,M,75.00,KDRA 020353Z AUTO 02003KT 10SM CLR 24/M01 A2989 RMK AO2 SLP078 T02391006,M
P68,2022-10-02 03:53,-116.0056,39.6014,1993.00,46.00,27.00,47.20,100.00,3.00,0.00,30.06,1013.80,M,M,M,M,M,M,M,M,M,M,M,M,M,M,M,M,M,44.69,KP68 020353Z AUTO 10003KT 08/M03 A3006 RMK AO1 SLP138 T00781028,M
LOL,2022-10-02 03:53,-118.5701,40.0684,1192.43,61.00,M,M,40.00,10.00,0.00,29.98,1013.20,10.00,M,CLR,M,M,M,M,M,M,M,M,M,M,M,M,M,M,M,KLOL 020353Z AUTO 04010KT 10SM CLR 16/ A2998 RMK AO2 SLP132 T0161 $,M
VGT,2022-10-02 03:53,-115.1933,36.2111,667.00,87.00,38.00,17.58,220.00,6.00,0.00,29.81,1008.50,10.00,M,CLR,M,M,M,M,M,M,M,M,M,M,M,M,M,M,83.61,KVGT 020353Z AUTO 22006KT 10SM CLR 31/03 A2981 RMK AO2 SLP085 T03060033,M
CXP,2022-10-02 03:55,-119.7326,39.1923,1431.00,66.20,32.00,27.83,40.00,8.00,0.00,30.03,M,10.00,M,CLR,M,M,M,M,M,M,M,M,M,M,M,M,M,M,66.20,KCXP 020355Z AUTO 04008KT 10SM CLR 19/M00 A3003 RMK AO2,M
TMT,2022-10-02 03:55,-117.1971,39.4643,1749.34,44.40,23.70,43.73,260.00,5.00,0.00,30.08,M,10.00,M,CLR,M,M,M,M,M,M,M,M,M,M,M,M,M,M,41.12,KTMT 020355Z AUTO 26005KT 10SM CLR 07/M05 A3008 RMK AO2 T00691046,M
HTH,2022-10-02 03:55,-118.6315,38.5448,1282.89,66.20,33.80,29.92,320.00,8.00,0.00,30.00,M,10.00,M,CLR,M,M,M,M,M,M,M,M,M,M,M,M,M,M,66.20,KHTH 020355Z AUTO 32008KT 10SM CLR 19/01 A3000 RMK A01,M
BAM,2022-10-02 03:55,-116.8743,40.5990,1382.36,53.60,28.40,37.67,110.00,3.00,0.00,30.03,M,10.00,M,CLR,M,M,M,M,M,M,M,M,M,M,M,M,M,M,53.60,KBAM 020355Z AUTO 11003KT 10SM CLR 12/M02 A3003 RMK AO1,M
05U,2022-10-02 03:55,-116.0051,39.6042,1811.23,46.40,26.60,45.73,100.00,3.00,0.00,30.08,M,10.00,M,CLR,M,M,M,M,M,M,M,M,M,M,M,M,M,M,45.15,K05U 020355Z AUTO 10003KT 10SM CLR 08/M03 A3008 RMK A01,M
RNO,2022-10-02 03:55,-119.7711,39.4839,1341.00,65.00,35.00,32.97,360.00,5.00,0.00,30.00,1012.40,10.00,M,FEW,M,M,M,10000.00,M,M,M,M,M,M,M,M,M,M,64.90,KRNO 020355Z 36005KT 10SM FEW100 18/02 A3000 RMK AO2 SLP124 T01830017 $,M
MEV,2022-10-02 03:55,-119.7500,38.9963,1441.42,57.20,32.00,38.26,360.00,4.00,0.00,30.02,M,10.00,M,FEW,SCT,M,M,4800.00,5500.00,M,M,M,M,M,M,M,M,M,57.20,KMEV 020355Z AUTO 36004KT 10SM FEW048 SCT055 14/M00 A3002 RMK AO2,M
BVU,2022-10-02 03:55,-114.8611,35.9475,671.00,82.40,53.60,37.07,M,3.00,0.00,29.83,M,10.00,M,CLR,M,M,M,M,M,M,M,M,M,M,M,M,M,M,81.46,KBVU 020355Z AUTO VRB03KT 10SM CLR 28/12 A2983 RMK AO2,M
LSV,2022-10-02 03:56,-115.0343,36.2362,570.00,83.00,40.30,21.95,190.00,5.00,0.00,29.77,1005.90,10.00,M,CLR,M,M,M,M,M,M,M,M,M,M,M,M,M,M,80.72,KLSV 020356Z AUTO 19005KT 10SM CLR 28/05 A2977 RMK AO2 SLP059 T02840046 $,M
INS,2022-10-02 03:56,-115.6733,36.5872,955.00,78.00,30.90,17.92,230.00,6.00,0.00,29.87,1007.30,10.00,M,CLR,M,M,M,M,M,M,M,M,M,M,M,M,M,M,77.90,KINS 020356Z AUTO 23006KT 10SM CLR 26/M01 A2987 RMK AO2 SLP073 T02551006 $,M
EKO,2022-10-02 03:56,-115.7860,40.8242,1367.00,50.00,27.00,40.62,0.00,0.00,0.00,30.03,1015.10,10.00,M,CLR,M,M,M,M,M,M,M,M,M,M,M,M,M,M,50.00,KEKO 020356Z AUTO 00000KT 10SM CLR 10/M03 A3003 RMK AO2 SLP151 T01001028,M
WMC,2022-10-02 03:56,-117.8072,40.9019,1315.00,47.00,25.00,41.99,290.00,5.00,0.00,30.01,1014.70,10.00,M,CLR,M,M,M,M,M,M,M,M,M,M,M,M,M,M,44.09,KWMC 020356Z AUTO 29005KT 10SM CLR 08/M04 A3001 RMK AO2 SLP147 T00831039,M
NFL,2022-10-02 03:56,-118.7010,39.4166,1199.00,61.00,34.00,36.19,0.00,0.00,0.00,29.98,1012.20,10.00,M,CLR,M,M,M,M,M,M,M,M,M,M,M,M,M,M,61.00,KNFL 020356Z AUTO 00000KT 10SM CLR 16/01 A2998 RMK AO2 SLP122 T01610011,M
HND,2022-10-02 03:56,-115.1344,35.9729,742.79,81.00,43.00,26.08,180.00,5.00,0.00,29.86,1010.20,10.00,M,CLR,M,M,M,M,M,M,M,M,M,M,M,M,M,M,79.54,KHND 020356Z AUTO 18005KT 10SM CLR 27/06 A2986 RMK AO2 SLP102 T02720061,M
TPH,2022-10-02 03:56,-117.0904,38.0505,1654.00,59.00,25.00,26.92,360.00,6.00,0.00,30.02,1011.60,10.00,M,CLR,M,M,M,M,M,M,M,M,M,M,M,M,M,M,59.00,KTPH 020356Z AUTO 36006KT 10SM CLR 15/M04 A3002 RMK AO2 SLP116 T01501039,M
LAS,2022-10-02 03:56,-115.1634,36.0719,663.00,85.00,39.00,19.69,230.00,4.00,0.00,29.83,1007.50,10.00,M,CLR,M,M,M,M,M,M,M,M,M,M,M,M,M,M,81.95,KLAS 020356Z 23004KT 10SM CLR 29/04 A2983 RMK AO2 SLP075 T02940039 $,M
RTS,2022-10-02 03:59,-119.8764,39.6682,1539.00,53.60,28.40,37.67,350.00,4.00,0.00,30.06,M,10.00,M,CLR,M,M,M,M,M,M,M,M,M,M,M,M,M,M,53.60,KRTS 020359Z AUTO 35004KT 10SM CLR 12/M02 A3006 RMK AO2,M
HTH,2022-10-02 04:15,-118.6315,38.5448,1282.89,66.20,33.80,29.92,320.00,9.00,0.00,30.01,M,10.00,M,CLR,M,M,M,M,M,M,M,M,M,M,M,M,M,M,66.20,KHTH 020415Z AUTO 32009KT 10SM CLR 19/01 A3001 RMK A01,M
TMT,2022-10-02 04:15,-117.1971,39.4643,1749.34,M,M,M,260.00,4.00,0.00,30.09,M,10.00,M,CLR,M,M,M,M,M,M,M,M,M,M,M,M,M,M,M,KTMT 020415Z AUTO 26004KT 10SM CLR A3009 RMK AO2,M
BVU,2022-10-02 04:15,-114.8611,35.9475,671.00,84.20,51.80,32.73,200.00,8.00,0.00,29.83,M,10.00,13.00,CLR,M,M,M,M,M,M,M,M,M,M,M,M,M,M,82.48,KBVU 020415Z AUTO 20008G13KT 160V220 10SM CLR 29/11 A2983 RMK AO2,M
CXP,2022-10-02 04:15,-119.7326,39.1923,1431.00,66.20,32.00,27.83,40.00,7.00,0.00,30.04,M,10.00,M,CLR,M,M,M,M,M,M,M,M,M,M,M,M,M,M,66.20,KCXP 020415Z AUTO 04007KT 10SM CLR 19/M00 A3004 RMK AO2,M
05U,2022-10-02 04:15,-116.0051,39.6042,1811.23,44.60,24.80,45.44,0.00,0.00,0.00,30.09,M,10.00,M,CLR,M,M,M,M,M,M,M,M,M,M,M,M,M,M,44.60,K05U 020415Z AUTO 00000KT 10SM CLR 07/M04 A3009 RMK A01,M
MEV,2022-10-02 04:15,-119.7500,38.9963,1441.42,51.80,30.20,43.32,30.00,3.00,0.00,30.02,M,10.00,M,FEW,SCT,M,M,4800.00,5500.00,M,M,M,M,M,M,M,M,M,51.80,KMEV 020415Z AUTO 03003KT 10SM FEW048 SCT055 11/M01 A3002 RMK AO2,M
BAM,2022-10-02 04:15,-116.8743,40.5990,1382.36,51.80,26.60,37.38,0.00,0.00,0.00,30.03,M,10.00,M,CLR,M,M,M,M,M,M,M,M,M,M,M,M,M,M,51.80,KBAM 020415Z AUTO 00000KT 10SM CLR 11/M03 A3003 RMK AO1,M
RTS,2022-10-02 04:19,-119.8764,39.6682,1539.00,48.20,28.40,46.02,350.00,6.00,0.00,30.06,M,10.00,M,CLR,M,M,M,M,M,M,M,M,M,M,M,M,M,M,45.04,KRTS 020419Z AUTO 35006KT 10SM CLR 09/M02 A3006 RMK AO2,M
HTH,2022-10-02 04:35,-118.6315,38.5448,1282.89,64.40,37.40,36.74,320.00,8.00,0.00,30.01,M,10.00,M,CLR,M,M,M,M,M,M,M,M,M,M,M,M,M,M,64.40,KHTH 020435Z AUTO 32008KT 10SM CLR 18/03 A3001 RMK A01,M
BVU,2022-10-02 04:35,-114.8611,35.9475,671.00,82.40,48.20,30.35,220.00,6.00,0.00,29.84,M,10.00,M,CLR,M,M,M,M,M,M,M,M,M,M,M,M,M,M,80.80,KBVU 020435Z AUTO 22006KT 10SM CLR 28/09 A2984 RMK AO2,M
TMT,2022-10-02 04:35,-117.1971,39.4643,1749.34,38.80,22.30,51.18,210.00,6.00,0.00,30.09,M,10.00,M,CLR,M,M,M,M,M,M,M,M,M,M,M,M,M,M,33.72,KTMT 020435Z AUTO 21006KT 10SM CLR 04/M05 A3009 RMK AO2 T00381054,M
CXP,2022-10-02 04:35,-119.7326,39.1923,1431.00,60.80,32.00,33.64,0.00,0.00,0.00,30.05,M,10.00,M,CLR,M,M,M,M,M,M,M,M,M,M,M,M,M,M,60.80,KCXP 020435Z AUTO 00000KT 10SM CLR 16/00 A3005 RMK AO2,M
05U,2022-10-02 04:35,-116.0051,39.6042,1811.23,41.00,24.80,52.17,250.00,4.00,0.00,30.09,M,10.00,M,CLR,M,M,M,M,M,M,M,M,M,M,M,M,M,M,37.93,K05U 020435Z AUTO 25004KT 10SM CLR 05/M04 A3009 RMK A01,M
MEV,2022-10-02 04:35,-119.7500,38.9963,1441.42,51.80,30.20,43.32,30.00,4.00,0.00,30.03,M,10.00,M,FEW,SCT,M,M,4600.00,5000.00,M,M,M,M,M,M,M,M,M,51.80,KMEV 020435Z AUTO 03004KT 10SM FEW046 SCT050 11/M01 A3003 RMK AO2,M
BAM,2022-10-02 04:35,-116.8743,40.5990,1382.36,46.40,24.80,42.44,170.00,4.00,0.00,30.04,M,10.00,M,CLR,M,M,M,M,M,M,M,M,M,M,M,M,M,M,44.24,KBAM 020435Z AUTO 17004KT 10SM CLR 08/M04 A3004 RMK AO1,M
RTS,2022-10-02 04:39,-119.8764,39.6682,1539.00,50.00,28.40,43.03,350.00,4.00,0.00,30.06,M,10.00,M,CLR,M,M,M,M,M,M,M,M,M,M,M,M,M,M,50.00,KRTS 020439Z AUTO 35004KT 10SM CLR 10/M02 A3006 RMK AO2,M
VGT,2022-10-02 04:53,-115.1933,36.2111,667.00,85.00,38.00,18.86,210.00,6.00,0.00,29.82,1009.00,10.00,M,CLR,M,M,M,M,M,M,M,M,M,M,M,M,M,M,81.91,KVGT 020453Z AUTO 21006KT 10SM CLR 29/03 A2982 RMK AO2 SLP090 T02940033,M
LOL,2022-10-02 04:53,-118.5701,40.0684,1192.43,60.00,M,M,M,3.00,0.00,30.00,1013.40,10.00,M,CLR,M,M,M,M,M,M,M,M,M,M,M,M,M,M,M,KLOL 020453Z AUTO VRB03KT 10SM CLR 16/ A3000 RMK AO2 SLP134 T0156 $,M
ELY,2022-10-02 04:53,-114.8453,39.2950,1909.00,51.00,34.00,51.81,30.00,8.00,0.00,30.09,1013.10,10.00,M,CLR,M,M,M,M,M,M,M,M,M,M,M,M,M,M,51.10,KELY 020453Z AUTO 03008KT 10SM CLR 11/01 A3009 RMK AO2 SLP131 T01060011,M
DRA,2022-10-02 04:53,-116.0278,36.6206,1009.00,73.00,30.90,21.10,70.00,3.00,0.00,29.90,1008.10,10.00,M,CLR,M,M,M,M,M,M,M,M,M,M,M,M,M,M,73.00,KDRA 020453Z AUTO 07003KT 10SM CLR 23/M01 A2990 RMK AO2 SLP081 T02281006,M
P68,2022-10-02 04:53,-116.0056,39.6014,1993.00,43.00,26.10,50.98,190.00,5.00,0.00,30.07,1014.10,M,M,M,M,M,M,M,M,M,M,M,M,M,M,M,M,M,39.46,KP68 020453Z AUTO 19005KT 06/M03 A3007 RMK AO1 SLP141 T00611033,M
BVU,2022-10-02 04:55,-114.8611,35.9475,671.00,80.60,46.40,30.07,230.00,6.00,0.00,29.85,M,10.00,M,CLR,M,M,M,M,M,M,M,M,M,M,M,M,M,M,79.56,KBVU 020455Z AUTO 23006KT 10SM CLR 27/08 A2985 RMK AO2,M
RNO,2022-10-02 04:55,-119.7711,39.4839,1341.00,63.00,37.00,37.99,190.00,3.00,0.00,30.02,1012.70,10.00,M,CLR,M,M,M,M,M,M,M,M,M,M,M,M,M,M,63.00,KRNO 020455Z 19003KT 10SM CLR 17/03 A3002 RMK AO2 SLP127 T01720028 $,M
CXP,2022-10-02 04:55,-119.7326,39.1923,1431.00,60.80,32.00,33.64,190.00,7.00,0.00,30.05,M,10.00,M,CLR,M,M,M,M,M,M,M,M,M,M,M,M,M,M,60.80,KCXP 020455Z AUTO 19007KT 10SM CLR 16/00 A3005 RMK AO2,M
05U,2022-10-02 04:55,-116.0051,39.6042,1811.23,42.80,24.80,48.67,190.00,5.00,0.00,30.10,M,10.00,M,CLR,M,M,M,M,M,M,M,M,M,M,M,M,M,M,39.22,K05U 020455Z AUTO 19005KT 10SM CLR 06/M04 A3010 RMK A01,M
MEV,2022-10-02 04:55,-119.7500,38.9963,1441.42,51.80,30.20,43.32,M,4.00,0.00,30.03,M,10.00,M,SCT,SCT,M,M,5000.00,5500.00,M,M,M,M,M,M,M,M,M,51.80,KMEV 020455Z AUTO VRB04KT 10SM SCT050 SCT055 11/M01 A3003 RMK AO2,M
BAM,2022-10-02 04:55,-116.8743,40.5990,1382.36,44.60,24.80,45.44,180.00,3.00,0.00,30.04,M,10.00,M,CLR,M,M,M,M,M,M,M,M,M,M,M,M,M,M,43.09,KBAM 020455Z AUTO 18003KT 10SM CLR 07/M04 A3004 RMK AO1,M
HTH,2022-10-02 04:55,-118.6315,38.5448,1282.89,62.60,35.60,36.45,260.00,6.00,0.00,30.01,M,10.00,M,CLR,M,M,M,M,M,M,M,M,M,M,M,M,M,M,62.60,KHTH 020455Z AUTO 26006KT 10SM CLR 17/02 A3001 RMK A01,M
TMT,2022-10-02 04:55,-117.1971,39.4643,1749.34,39.40,22.50,50.42,180.00,4.00,0.00,30.09,M,10.00,M,CLR,M,M,M,M,M,M,M,M,M,M,M,M,M,M,36.06,KTMT 020455Z AUTO 18004KT 10SM CLR 04/M05 A3009 RMK AO2 T00411053,M
WMC,2022-10-02 04:56,-117.8072,40.9019,1315.00,48.00,26.10,42.17,0.00,0.00,0.00,30.02,1014.30,10.00,M,CLR,M,M,M,M,M,M,M,M,M,M,M,M,M,M,48.00,KWMC 020456Z AUTO 00000KT 10SM CLR 09/M03 A3002 RMK AO2 SLP143 T00891033,M
INS,2022-10-02 04:56,-115.6733,36.5872,955.00,72.70,31.60,21.93,30.00,4.00,0.00,29.89,1007.80,10.00,M,CLR,M,M,M,M,M,M,M,M,M,M,M,M,M,M,72.70,KINS 020456Z AUTO 03004KT 10SM CLR 23/M00 A2989 RMK AO2 SLP078 T02261002 $,M
EKO,2022-10-02 04:56,-115.7860,40.8242,1367.00,49.00,27.00,42.32,0.00,0.00,0.00,30.04,1014.80,10.00,M,CLR,M,M,M,M,M,M,M,M,M,M,M,M,M,M,48.90,KEKO 020456Z AUTO 00000KT 10SM CLR 09/M03 A3004 RMK AO2 SLP148 T00941028,M
NFL,2022-10-02 04:56,-118.7010,39.4166,1199.00,56.00,37.00,48.95,240.00,5.00,0.00,29.99,1012.80,10.00,M,CLR,M,M,M,M,M,M,M,M,M,M,M,M,M,M,55.90,KNFL 020456Z AUTO 24005KT 10SM CLR 13/03 A2999 RMK AO2 SLP128 T01330028,M
HND,2022-10-02 04:56,-115.1344,35.9729,742.79,78.00,45.00,30.95,170.00,5.00,0.00,29.88,1010.80,10.00,M,CLR,M,M,M,M,M,M,M,M,M,M,M,M,M,M,78.10,KHND 020456Z AUTO 17005KT 10SM CLR 26/07 A2988 RMK AO2 SLP108 T02560072,M
TPH,2022-10-02 04:56,-117.0904,38.0505,1654.00,59.00,25.00,26.92,50.00,5.00,0.00,30.04,1011.80,10.00,M,CLR,M,M,M,M,M,M,M,M,M,M,M,M,M,M,59.00,KTPH 020456Z AUTO 05005KT 10SM CLR 15/M04 A3004 RMK AO2 SLP118 T01501039,M
LSV,2022-10-02 04:56,-115.0343,36.2362,570.00,81.50,40.00,22.94,170.00,6.00,0.00,29.79,1006.30,10.00,M,CLR,M,M,M,M,M,M,M,M,M,M,M,M,M,M,79.68,KLSV 020456Z AUTO 17006KT 10SM CLR 28/05 A2979 RMK AO2 SLP063 T02750045 $,M
LAS,2022-10-02 04:56,-115.1634,36.0719,663.00,83.00,39.00,21.00,170.00,6.00,0.00,29.84,1007.90,10.00,M,CLR,M,M,M,M,M,M,M,M,M,M,M,M,M,M,80.53,KLAS 020456Z 17006KT 10SM CLR 28/04 A2984 RMK AO2 SLP079 T02830039 $,M
RTS,2022-10-02 04:59,-119.8764,39.6682,1539.00,50.00,28.40,43.03,0.00,0.00,0.00,30.07,M,10.00,M,CLR,M,M,M,M,M,M,M,M,M,M,M,M,M,M,50.00,KRTS 020459Z AUTO 00000KT 10SM CLR 10/M02 A3007 RMK AO2,M
TMT,2022-10-02 05:15,-117.1971,39.4643,1749.34,39.00,21.90,49.93,0.00,0.00,0.00,30.10,M,10.00,M,CLR,M,M,M,M,M,M,M,M,M,M,M,M,M,M,39.00,KTMT 020515Z AUTO 00000KT 10SM CLR 04/M06 A3010 RMK AO2 T00391056,M
CXP,2022-10-02 05:15,-119.7326,39.1923,1431.00,59.00,32.00,35.87,0.00,0.00,0.00,30.05,M,10.00,M,CLR,M,M,M,M,M,M,M,M,M,M,M,M,M,M,59.00,KCXP 020515Z AUTO 00000KT 10SM CLR 15/00 A3005 RMK AO2,M
05U,2022-10-02 05:15,-116.0051,39.6042,1811.23,42.80,26.60,52.45,150.00,5.00,0.00,30.10,M,10.00,M,CLR,M,M,M,M,M,M,M,M,M,M,M,M,M,M,39.22,K05U 020515Z AUTO 15005KT 10SM CLR 06/M03 A3010 RMK A01,M
BVU,2022-10-02 05:15,-114.8611,35.9475,671.00,82.40,50.00,32.46,180.00,8.00,0.00,29.85,M,10.00,M,CLR,M,M,M,M,M,M,M,M,M,M,M,M,M,M,80.99,KBVU 020515Z AUTO 18008KT 10SM CLR 28/10 A2985 RMK AO2,M
MEV,2022-10-02 05:15,-119.7500,38.9963,1441.42,50.00,32.00,49.81,40.00,4.00,0.00,30.04,M,10.00,M,SCT,SCT,M,M,4900.00,5500.00,M,M,M,M,M,M,M,M,M,50.00,KMEV 020515Z AUTO 04004KT 10SM SCT049 SCT055 10/M00 A3004 RMK AO2,M
BAM,2022-10-02 05:15,-116.8743,40.5990,1382.36,44.60,26.60,48.96,140.00,7.00,0.00,30.04,M,10.00,M,CLR,M,M,M,M,M,M,M,M,M,M,M,M,M,M,40.14,KBAM 020515Z AUTO 14007KT 10SM CLR 07/M03 A3004 RMK AO1,M
HTH,2022-10-02 05:15,-118.6315,38.5448,1282.89,62.60,32.00,31.56,240.00,4.00,0.00,30.01,M,10.00,M,CLR,M,M,M,M,M,M,M,M,M,M,M,M,M,M,62.60,KHTH 020515Z AUTO 24004KT 10SM CLR 17/00 A3001 RMK A01,M
RTS,2022-10-02 05:19,-119.8764,39.6682,1539.00,46.40,28.40,49.24,350.00,6.00,0.00,30.07,M,10.00,M,CLR,M,M,M,M,M,M,M,M,M,M,M,M,M,M,42.87,KRTS 020519Z AUTO 35006KT 10SM CLR 08/M02 A3007 RMK AO2,M
05U,2022-10-02 05:35,-116.0051,39.6042,1811.23,41.00,24.80,52.17,0.00,0.00,0.00,30.10,M,10.00,M,CLR,M,M,M,M,M,M,M,M,M,M,M,M,M,M,41.00,K05U 020535Z AUTO 00000KT 10SM CLR 05/M04 A3010 RMK A01,M
BVU,2022-10-02 05:35,-114.8611,35.9475,671.00,80.60,51.80,36.79,180.00,6.00,0.00,29.86,M,10.00,M,CLR,M,M,M,M,M,M,M,M,M,M,M,M,M,M,80.08,KBVU 020535Z AUTO 18006KT 10SM CLR 27/11 A2986 RMK AO2,M
CXP,2022-10-02 05:35,-119.7326,39.1923,1431.00,57.20,33.80,41.13,240.00,3.00,0.00,30.06,M,10.00,M,CLR,M,M,M,M,M,M,M,M,M,M,M,M,M,M,57.20,KCXP 020535Z AUTO 24003KT 10SM CLR 14/01 A3006 RMK AO2,M
MEV,2022-10-02 05:35,-119.7500,38.9963,1441.42,48.20,30.20,49.53,50.00,3.00,0.00,30.04,M,10.00,M,SCT,SCT,M,M,4700.00,5000.00,M,M,M,M,M,M,M,M,M,47.21,KMEV 020535Z AUTO 05003KT 10SM SCT047 SCT050 09/M01 A3004 RMK AO2,M
BAM,2022-10-02 05:35,-116.8743,40.5990,1382.36,44.60,26.60,48.96,140.00,5.00,0.00,30.04,M,10.00,M,CLR,M,M,M,M,M,M,M,M,M,M,M,M,M,M,41.36,KBAM 020535Z AUTO 14005KT 10SM CLR 07/M03 A3004 RMK AO1,M
HTH,2022-10-02 05:35,-118.6315,38.5448,1282.89,62.60,32.00,31.56,250.00,4.00,0.00,30.02,M,10.00,M,CLR,M,M,M,M,M,M,M,M,M,M,M,M,M,M,62.60,KHTH 020535Z AUTO 25004KT 10SM CLR 17/M00 A3002 RMK A01,M
TMT,2022-10-02 05:35,-117.1971,39.4643,1749.34,38.70,25.20,58.01,250.00,6.00,0.00,30.10,M,10.00,M,CLR,M,M,M,M,M,M,M,M,M,M,M,M,M,M,33.60,KTMT 020535Z AUTO 25006KT 10SM CLR 04/M04 A3010 RMK AO2 T00371038,M
RTS,2022-10-02 05:39,-119.8764,39.6682,1539.00,46.40,28.40,49.24,340.00,5.00,0.00,30.07,M,10.00,M,CLR,M,M,M,M,M,M,M,M,M,M,M,M,M,M,43.50,KRTS 020539Z AUTO 34005KT 10SM CLR 08/M02 A3007 RMK AO2,M
ELY,2022-10-02 05:53,-114.8453,39.2950,1909.00,48.00,34.00,58.16,40.00,8.00,0.00,30.10,1013.20,10.00,M,CLR,M,M,M,M,M,M,M,M,M,M,M,M,M,M,43.82,KELY 020553Z AUTO 04008KT 10SM CLR 09/01 A3010 RMK AO2 SLP132 T00890011 10211 20089 51013,M
DRA,2022-10-02 05:53,-116.0278,36.6206,1009.00,70.00,30.90,23.36,80.00,5.00,0.00,29.91,1008.20,10.00,M,CLR,M,M,M,M,M,M,M,M,M,M,M,M,M,M,70.00,KDRA 020553Z AUTO 08005KT 10SM CLR 21/M01 A2991 RMK AO2 SLP082 T02111006 10306 20211 51011,M
VGT,2022-10-02 05:53,-115.1933,36.2111,667.00,83.00,38.00,20.11,200.00,8.00,0.00,29.84,1009.40,10.00,M,CLR,M,M,M,M,M,M,M,M,M,M,M,M,M,M,80.49,KVGT 020553Z AUTO 20008KT 10SM CLR 28/03 A2984 RMK AO2 SLP094 T02830033 10344 20278 51016,M
P68,2022-10-02 05:53,-116.0056,39.6014,1993.00,41.00,27.00,57.15,180.00,4.00,0.00,30.08,1014.20,M,M,M,M,M,M,M,M,M,M,M,M,M,M,M,M,M,37.93,KP68 020553Z AUTO 18004KT 05/M03 A3008 RMK AO1 SLP142 T00501028 10206 20044 53007,M
LOL,2022-10-02 05:53,-118.5701,40.0684,1192.43,50.00,M,M,90.00,3.00,0.00,30.00,1014.00,10.00,M,CLR,M,M,M,M,M,M,M,M,M,M,M,M,M,M,M,KLOL 020553Z AUTO 09003KT 10SM CLR 10/ A3000 RMK AO2 SLP140 T0100 10239 20100 51012 $,M
RNO,2022-10-02 05:55,-119.7711,39.4839,1341.00,60.00,37.00,42.09,250.00,3.00,0.00,30.03,1012.90,10.00,M,CLR,M,M,M,M,M,M,M,M,M,M,M,M,M,M,60.10,KRNO 020555Z 25003KT 10SM CLR 16/03 A3003 RMK AO2 SLP129 T01560028 10250 20156 51014 $,M
BVU,2022-10-02 05:55,-114.8611,35.9475,671.00,80.60,51.80,36.79,140.00,4.00,0.00,29.86,M,10.00,M,CLR,M,M,M,M,M,M,M,M,M,M,M,M,M,M,80.08,KBVU 020555Z AUTO 14004KT 10SM CLR 27/11 A2986 RMK AO2,M
CXP,2022-10-02 05:55,-119.7326,39.1923,1431.00,55.40,33.80,43.90,0.00,0.00,0.00,30.06,M,10.00,M,CLR,M,M,M,M,M,M,M,M,M,M,M,M,M,M,55.40,KCXP 020555Z AUTO 00000KT 10SM CLR 13/01 A3006 RMK AO2,M
TMT,2022-10-02 05:55,-117.1971,39.4643,1749.34,38.70,23.90,54.95,240.00,6.00,0.00,30.10,M,10.00,M,CLR,M,M,M,M,M,M,M,M,M,M,M,M,M,M,33.60,KTMT 020555Z AUTO 24006KT 10SM CLR 04/M04 A3010 RMK AO2 T00371045,M
HTH,2022-10-02 05:55,-118.6315,38.5448,1282.89,62.60,32.00,31.56,250.00,4.00,0.00,30.02,M,10.00,M,CLR,M,M,M,M,M,M,M,M,M,M,M,M,M,M,62.60,KHTH 020555Z AUTO 25004KT 10SM CLR 17/M00 A3002 RMK A01,M
BAM,2022-10-02 05:55,-116.8743,40.5990,1382.36,44.60,26.60,48.96,140.00,5.00,0.00,30.04,M,10.00,M,CLR,M,M,M,M,M,M,M,M,M,M,M,M,M,M,41.36,KBAM 020555Z AUTO 14005KT 10SM CLR 07/M03 A3004 RMK AO1,M
MEV,2022-10-02 05:55,-119.7500,38.9963,1441.42,48.20,30.20,49.53,90.00,5.00,0.00,30.05,M,10.00,M,SCT,SCT,M,M,4800.00,5500.00,M,M,M,M,M,M,M,M,M,45.63,KMEV 020555Z AUTO 09005KT 10SM SCT048 SCT055 09/M01 A3005 RMK AO2,M
05U,2022-10-02 05:55,-116.0051,39.6042,1811.23,41.00,26.60,56.22,190.00,4.00,0.00,30.11,M,10.00,M,CLR,M,M,M,M,M,M,M,M,M,M,M,M,M,M,37.93,K05U 020555Z AUTO 19004KT 10SM CLR 05/M03 A3011 RMK A01,M
LAS,2022-10-02 05:56,-115.1634,36.0719,663.00,83.00,46.00,27.48,200.00,9.00,0.00,29.85,1008.30,10.00,M,CLR,M,M,M,M,M,M,M,M,M,M,M,M,M,M,80.94,KLAS 020556Z 20009KT 10SM CLR 28/08 A2985 RMK AO2 SLP083 T02830078 10339 20278 51016 $,M
EKO,2022-10-02 05:56,-115.7860,40.8242,1367.00,49.00,28.90,45.75,30.00,4.00,0.00,30.05,1014.90,10.00,M,CLR,M,M,M,M,M,M,M,M,M,M,M,M,M,M,47.16,KEKO 020556Z AUTO 03004KT 10SM CLR 09/M02 A3005 RMK AO2 SLP149 T00941017 10211 20072 51008,M
WMC,2022-10-02 05:56,-117.8072,40.9019,1315.00,40.00,21.90,48.21,140.00,6.00,0.00,30.03,1014.90,10.00,M,CLR,M,M,M,M,M,M,M,M,M,M,M,M,M,M,35.04,KWMC 020556Z AUTO 14006KT 10SM CLR 04/M06 A3003 RMK AO2 SLP149 T00441056 10222 20044 53007,M
TPH,2022-10-02 05:56,-117.0904,38.0505,1654.00,57.00,25.00,28.93,340.00,8.00,0.00,30.05,1012.10,10.00,M,CLR,M,M,M,M,M,M,M,M,M,M,M,M,M,M,57.00,KTPH 020556Z AUTO 34008KT 10SM CLR 14/M04 A3005 RMK AO2 SLP121 T01391039 10244 20139 51012,M
INS,2022-10-02 05:56,-115.6733,36.5872,955.00,75.20,32.50,20.90,0.00,0.00,0.00,29.90,1008.00,10.00,M,CLR,M,M,M,M,M,M,M,M,M,M,M,M,M,M,75.20,KINS 020556Z AUTO 00000KT 10SM CLR 24/00 A2990 RMK AO2 SLP080 T02400003 10316 20220 52016 $,M
HND,2022-10-02 05:56,-115.1344,35.9729,742.79,77.00,47.00,34.50,160.00,8.00,0.00,29.89,1011.20,10.00,M,CLR,M,M,M,M,M,M,M,M,M,M,M,M,M,M,77.00,KHND 020556Z AUTO 16008KT 10SM CLR 25/08 A2989 RMK AO2 SLP112 T02500083 10339 20250 51017,M
NFL,2022-10-02 05:56,-118.7010,39.4166,1199.00,55.00,35.00,46.91,310.00,6.00,0.00,30.00,1013.00,10.00,M,CLR,M,M,M,M,M,M,M,M,M,M,M,M,M,M,55.00,KNFL 020556Z AUTO 31006KT 10SM CLR 13/02 A3000 RMK AO2 SLP130 T01280017 10239 20128 51013,M
LSV,2022-10-02 05:56,-115.0343,36.2362,570.00,79.70,43.70,27.95,210.00,6.00,0.00,29.80,1006.70,10.00,M,CLR,M,M,M,M,M,M,M,M,M,M,M,M,M,M,79.70,KLSV 020556Z AUTO 21006KT 10SM CLR 27/07 A2980 RMK AO2 SLP067 T02650065 10345 20265 52017 $,M
RTS,2022-10-02 05:59,-119.8764,39.6682,1539.00,48.20,30.20,49.53,360.00,5.00,0.00,30.07,M,10.00,M,CLR,M,M,M,M,M,M,M,M,M,M,M,M,M,M,45.63,KRTS 020559Z AUTO 36005KT 10SM CLR 09/M01 A3007 RMK AO2,M
MEV,2022-10-02 06:15,-119.7500,38.9963,1441.42,44.60,30.20,56.74,130.00,3.00,0.00,30.05,M,10.00,M,FEW,SCT,M,M,4900.00,5500.00,M,M,M,M,M,M,M,M,M,43.09,KMEV 020615Z AUTO 13003KT 10SM FEW049 SCT055 07/M01 A3005 RMK AO2,M
CXP,2022-10-02 06:15,-119.7326,39.1923,1431.00,55.40,32.00,40.84,0.00,0.00,0.00,30.06,M,10.00,M,CLR,M,M,M,M,M,M,M,M,M,M,M,M,M,M,55.40,KCXP 020615Z AUTO 00000KT 10SM CLR 13/00 A3006 RMK AO2,M
BVU,2022-10-02 06:15,-114.8611,35.9475,671.00,80.60,53.60,39.30,160.00,6.00,0.00,29.87,M,10.00,M,CLR,M,M,M,M,M,M,M,M,M,M,M,M,M,M,80.29,KBVU 020615Z AUTO 16006KT 10SM CLR 27/12 A2987 RMK AO2,M
BAM,2022-10-02 06:15,-116.8743,40.5990,1382.36,46.40,26.60,45.73,0.00,0.00,0.00,30.04,M,10.00,M,CLR,M,M,M,M,M,M,M,M,M,M,M,M,M,M,46.40,KBAM 020615Z AUTO 00000KT 10SM CLR 08/M03 A3004 RMK AO1,M
TMT,2022-10-02 06:15,-117.1971,39.4643,1749.34,37.60,23.70,56.89,0.00,0.00,0.00,30.10,M,10.00,M,CLR,M,M,M,M,M,M,M,M,M,M,M,M,M,M,37.60,KTMT 020615Z AUTO 00000KT 10SM CLR 03/M05 A3010 RMK AO2 T00311046,M
HTH,2022-10-02 06:15,-118.6315,38.5448,1282.89,60.80,32.00,33.64,230.00,5.00,0.00,30.02,M,10.00,M,CLR,M,M,M,M,M,M,M,M,M,M,M,M,M,M,60.80,KHTH 020615Z AUTO 23005KT 10SM CLR 16/M00 A3002 RMK A01,M
05U,2022-10-02 06:15,-116.0051,39.6042,1811.23,41.00,24.80,52.17,200.00,4.00,0.00,30.11,M,10.00,M,CLR,M,M,M,M,M,M,M,M,M,M,M,M,M,M,37.93,K05U 020615Z AUTO 20004KT 10SM CLR 05/M04 A3011 RMK A01,M
RTS,2022-10-02 06:19,-119.8764,39.6682,1539.00,48.20,30.20,49.53,0.00,0.00,0.00,30.07,M,10.00,M,CLR,M,M,M,M,M,M,M,M,M,M,M,M,M,M,48.20,KRTS 020619Z AUTO 00000KT 10SM CLR 09/M01 A3007 RMK AO2,M
CXP,2022-10-02 06:35,-119.7326,39.1923,1431.00,53.60,32.00,43.61,0.00,0.00,0.00,30.07,M,10.00,M,CLR,M,M,M,M,M,M,M,M,M,M,M,M,M,M,53.60,KCXP 020635Z AUTO 00000KT 10SM CLR 12/M00 A3007 RMK AO2,M
HTH,2022-10-02 06:35,-118.6315,38.5448,1282.89,60.80,33.80,36.16,250.00,5.00,0.00,30.03,M,10.00,M,CLR,M,M,M,M,M,M,M,M,M,M,M,M,M,M,60.80,KHTH 020635Z AUTO 25005KT 10SM CLR 16/01 A3003 RMK A01,M
MEV,2022-10-02 06:35,-119.7500,38.9963,1441.42,44.60,30.20,56.74,150.00,3.00,0.00,30.05,M,10.00,M,FEW,FEW,M,M,4800.00,5500.00,M,M,M,M,M,M,M,M,M,43.09,KMEV 020635Z AUTO 15003KT 10SM FEW048 FEW055 07/M01 A3005 RMK AO2,M
TMT,2022-10-02 06:35,-117.1971,39.4643,1749.34,37.00,23.40,57.53,0.00,0.00,0.00,30.11,M,10.00,M,CLR,M,M,M,M,M,M,M,M,M,M,M,M,M,M,37.00,KTMT 020635Z AUTO 00000KT 10SM CLR 03/M05 A3011 RMK AO2 T00281048,M
05U,2022-10-02 06:35,-116.0051,39.6042,1811.23,39.20,24.80,55.95,180.00,4.00,0.00,30.11,M,10.00,M,CLR,M,M,M,M,M,M,M,M,M,M,M,M,M,M,35.83,K05U 020635Z AUTO 18004KT 10SM CLR 04/M04 A3011 RMK A01,M
BAM,2022-10-02 06:35,-116.8743,40.5990,1382.36,44.60,26.60,48.96,0.00,0.00,0.00,30.05,M,10.00,M,CLR,M,M,M,M,M,M,M,M,M,M,M,M,M,M,44.60,KBAM 020635Z AUTO 00000KT 10SM CLR 07/M03 A3005 RMK AO1,M
BVU,2022-10-02 06:35,-114.8611,35.9475,671.00,80.60,53.60,39.30,0.00,0.00,0.00,29.87,M,10.00,M,CLR,M,M,M,M,M,M,M,M,M,M,M,M,M,M,80.29,KBVU 020635Z AUTO 00000KT 10SM CLR 27/12 A2987 RMK AO2,M
RTS,2022-10-02 06:39,-119.8764,39.6682,1539.00,46.40,28.40,49.24,0.00,0.00,0.00,30.07,M,10.00,M,CLR,M,M,M,M,M,M,M,M,M,M,M,M,M,M,46.40,KRTS 020639Z AUTO 00000KT 10SM CLR 08/M02 A3007 RMK AO2,M
LOL,2022-10-02 06:53,-118.5701,40.0684,1192.43,51.00,M,M,310.00,5.00,0.00,30.01,1014.10,10.00,M,CLR,M,M,M,M,M,M,M,M,M,M,M,M,M,M,M,KLOL 020653Z AUTO 31005KT 10SM CLR 11/ A3001 RMK AO2 SLP141 T0106 $,M
ELY,2022-10-02 06:53,-114.8453,39.2950,1909.00,45.00,32.00,60.11,30.00,4.00,0.00,30.11,1013.20,10.00,M,CLR,M,M,M,M,M,M,M,M,M,M,M,M,M,M,42.60,KELY 020653Z AUTO 03004KT 10SM CLR 07/00 A3011 RMK AO2 SLP132 T00720000 402171006,M
VGT,2022-10-02 06:53,-115.1933,36.2111,667.00,83.00,41.00,22.70,210.00,6.00,0.00,29.84,1009.50,10.00,M,CLR,M,M,M,M,M,M,M,M,M,M,M,M,M,M,80.62,KVGT 020653Z AUTO 21006KT 10SM CLR 28/05 A2984 RMK AO2 SLP095 T02830050,M
P68,2022-10-02 06:53,-116.0056,39.6014,1993.00,42.00,26.10,52.78,190.00,4.00,0.00,30.08,1014.00,M,M,M,M,M,M,M,M,M,M,M,M,M,M,M,M,M,39.21,KP68 020653Z AUTO 19004KT 06/M03 A3008 RMK AO1 SLP140 T00561033,M
DRA,2022-10-02 06:53,-116.0278,36.6206,1009.00,70.00,28.90,21.53,70.00,5.00,0.00,29.91,1008.20,10.00,M,CLR,M,M,M,M,M,M,M,M,M,M,M,M,M,M,70.00,KDRA 020653Z AUTO 07005KT 10SM CLR 21/M02 A2991 RMK AO2 SLP082 T02111017,M
HTH,2022-10-02 06:55,-118.6315,38.5448,1282.89,60.80,35.60,38.85,240.00,6.00,0.00,30.02,M,10.00,M,CLR,M,M,M,M,M,M,M,M,M,M,M,M,M,M,60.80,KHTH 020655Z AUTO 24006KT 10SM CLR 16/02 A3002 RMK A01,M
TMT,2022-10-02 06:55,-117.1971,39.4643,1749.34,38.00,23.40,55.52,220.00,4.00,0.00,30.11,M,10.00,M,CLR,M,M,M,M,M,M,M,M,M,M,M,M,M,M,34.31,KTMT 020655Z AUTO 22004KT 10SM CLR 03/M05 A3011 RMK AO2 T00331048,M
05U,2022-10-02 06:55,-116.0051,39.6042,1811.23,41.00,24.80,52.17,200.00,5.00,0.00,30.11,M,10.00,M,CLR,M,M,M,M,M,M,M,M,M,M,M,M,M,M,37.08,K05U 020655Z AUTO 20005KT 10SM CLR 05/M04 A3011 RMK A01,M
CXP,2022-10-02 06:55,-119.7326,39.1923,1431.00,53.60,32.00,43.61,0.00,0.00,0.00,30.07,M,10.00,M,CLR,M,M,M,M,M,M,M,M,M,M,M,M,M,M,53.60,KCXP 020655Z AUTO 00000KT 10SM CLR 12/M00 A3007 RMK AO2,M
BVU,2022-10-02 06:55,-114.8611,35.9475,671.00,77.00,55.40,47.25,0.00,0.00,0.00,29.87,M,10.00,M,CLR,M,M,M,M,M,M,M,M,M,M,M,M,M,M,77.00,KBVU 020655Z AUTO 00000KT 10SM CLR 25/13 A2987 RMK AO2,M
RNO,2022-10-02 06:55,-119.7711,39.4839,1341.00,58.00,37.00,45.54,280.00,3.00,0.00,30.04,1013.00,10.00,M,CLR,M,M,M,M,M,M,M,M,M,M,M,M,M,M,57.90,KRNO 020655Z 28003KT 10SM CLR 14/03 A3004 RMK AO2 SLP130 T01440028 $,M
MEV,2022-10-02 06:55,-119.7500,38.9963,1441.42,42.80,28.40,56.48,130.00,6.00,0.00,30.05,M,10.00,M,FEW,FEW,M,M,5000.00,5500.00,M,M,M,M,M,M,M,M,M,38.54,KMEV 020655Z AUTO 13006KT 10SM FEW050 FEW055 06/M02 A3005 RMK AO2,M
BAM,2022-10-02 06:55,-116.8743,40.5990,1382.36,46.40,26.60,45.73,0.00,0.00,0.00,30.05,M,10.00,M,CLR,M,M,M,M,M,M,M,M,M,M,M,M,M,M,46.40,KBAM 020655Z AUTO 00000KT 10SM CLR 08/M03 A3005 RMK AO1,M
HND,2022-10-02 06:56,-115.1344,35.9729,742.79,78.00,54.00,43.30,210.00,8.00,0.00,29.90,1011.20,10.00,M,CLR,M,M,M,M,M,M,M,M,M,M,M,M,M,M,78.10,KHND 020656Z AUTO 21008KT 10SM CLR 26/12 A2990 RMK AO2 SLP112 T02560122 403440200,M
EKO,2022-10-02 06:56,-115.7860,40.8242,1367.00,41.00,27.00,57.15,240.00,4.00,0.00,30.05,1015.60,10.00,M,CLR,M,M,M,M,M,M,M,M,M,M,M,M,M,M,37.93,KEKO 020656Z AUTO 24004KT 10SM CLR 05/M03 A3005 RMK AO2 SLP156 T00501028,M
WMC,2022-10-02 06:56,-117.8072,40.9019,1315.00,45.00,26.10,47.23,100.00,3.00,0.00,30.04,1014.90,10.00,M,CLR,M,M,M,M,M,M,M,M,M,M,M,M,M,M,43.55,KWMC 020656Z AUTO 10003KT 10SM CLR 07/M03 A3004 RMK AO2 SLP149 T00721033,M
TPH,2022-10-02 06:56,-117.0904,38.0505,1654.00,55.00,25.00,31.11,20.00,7.00,0.00,30.05,1012.30,10.00,M,CLR,M,M,M,M,M,M,M,M,M,M,M,M,M,M,55.00,KTPH 020656Z AUTO 02007KT 10SM CLR 13/M04 A3005 RMK AO2 SLP123 T01281039,M
INS,2022-10-02 06:56,-115.6733,36.5872,955.00,67.30,34.70,29.85,270.00,3.00,0.00,29.90,1008.10,10.00,M,CLR,M,M,M,M,M,M,M,M,M,M,M,M,M,M,67.30,KINS 020656Z AUTO 27003KT 10SM CLR 20/02 A2990 RMK AO2 SLP081 T01960015 $,M
LAS,2022-10-02 06:56,-115.1634,36.0719,663.00,81.00,51.00,35.38,200.00,8.00,0.00,29.85,1008.40,10.00,M,CLR,M,M,M,M,M,M,M,M,M,M,M,M,M,M,80.23,KLAS 020656Z 20008KT 10SM CLR 27/11 A2985 RMK AO2 SLP084 T02720106 $,M
LSV,2022-10-02 06:56,-115.0343,36.2362,570.00,79.30,47.00,31.98,200.00,8.00,0.00,29.81,1007.00,10.00,M,CLR,M,M,M,M,M,M,M,M,M,M,M,M,M,M,79.30,KLSV 020656Z AUTO 20008KT 10SM CLR 26/08 A2981 RMK AO2 SLP070 T02630083 $,M
NFL,2022-10-02 06:56,-118.7010,39.4166,1199.00,53.00,33.00,46.42,0.00,0.00,0.00,30.00,1013.10,10.00,M,CLR,M,M,M,M,M,M,M,M,M,M,M,M,M,M,53.10,KNFL 020656Z AUTO 00000KT 10SM CLR 12/01 A3000 RMK AO2 SLP131 T01170006,M
RTS,2022-10-02 06:59,-119.8764,39.6682,1539.00,42.80,28.40,56.48,0.00,0.00,0.00,30.07,M,10.00,M,CLR,M,M,M,M,M,M,M,M,M,M,M,M,M,M,42.80,KRTS 020659Z AUTO 00000KT 10SM CLR 06/M02 A3007 RMK AO2,M
BVU,2022-10-02 07:15,-114.8611,35.9475,671.00,75.20,53.60,46.98,300.00,4.00,0.00,29.87,M,10.00,M,CLR,M,M,M,M,M,M,M,M,M,M,M,M,M,M,75.20,KBVU 020715Z AUTO 30004KT 10SM CLR 24/12 A2987 RMK AO2,M
BAM,2022-10-02 07:15,-116.8743,40.5990,1382.36,44.60,26.60,48.96,0.00,0.00,0.00,30.05,M,10.00,M,CLR,M,M,M,M,M,M,M,M,M,M,M,M,M,M,44.60,KBAM 020715Z AUTO 00000KT 10SM CLR 07/M03 A3005 RMK AO1,M
MEV,2022-10-02 07:15,-119.7500,38.9963,1441.42,44.60,30.20,56.74,0.00,0.00,0.00,30.06,M,9.00,M,SCT,SCT,M,M,5000.00,5500.00,M,M,M,M,M,M,M,M,M,44.60,KMEV 020715Z AUTO 00000KT 9SM SCT050 SCT055 07/M01 A3006 RMK AO2,M
05U,2022-10-02 07:15,-116.0051,39.6042,1811.23,41.00,24.80,52.17,200.00,4.00,0.00,30.11,M,10.00,M,CLR,M,M,M,M,M,M,M,M,M,M,M,M,M,M,37.93,K05U 020715Z AUTO 20004KT 10SM CLR 05/M04 A3011 RMK A01,M
HTH,2022-10-02 07:15,-118.6315,38.5448,1282.89,59.00,33.80,38.56,230.00,5.00,0.00,30.02,M,10.00,M,CLR,M,M,M,M,M,M,M,M,M,M,M,M,M,M,59.00,KHTH 020715Z AUTO 23005KT 10SM CLR 15/01 A3002 RMK A01,M
CXP,2022-10-02 07:15,-119.7326,39.1923,1431.00,50.00,32.00,49.81,0.00,0.00,0.00,30.07,M,10.00,M,CLR,M,M,M,M,M,M,M,M,M,M,M,M,M,M,50.00,KCXP 020715Z AUTO 00000KT 10SM CLR 10/M00 A3007 RMK AO2,M
TMT,2022-10-02 07:15,-117.1971,39.4643,1749.34,31.60,18.90,58.96,0.00,0.00,0.00,30.11,M,10.00,M,CLR,M,M,M,M,M,M,M,M,M,M,M,M,M,M,31.60,KTMT 020715Z AUTO 00000KT 10SM CLR 00/M07 A3011 RMK AO2 T10021073,M
RTS,2022-10-02 07:19,-119.8764,39.6682,1539.00,42.80,28.40,56.48,310.00,4.00,0.00,30.07,M,10.00,M,CLR,M,M,M,M,M,M,M,M,M,M,M,M,M,M,40.03,KRTS 020719Z AUTO 31004KT 10SM CLR 06/M02 A3007 RMK AO2,M
05U,2022-10-02 07:35,-116.0051,39.6042,1811.23,41.00,24.80,52.17,180.00,5.00,0.00,30.11,M,10.00,M,CLR,M,M,M,M,M,M,M,M,M,M,M,M,M,M,37.08,K05U 020735Z AUTO 18005KT 10SM CLR 05/M04 A3011 RMK A01,M
CXP,2022-10-02 07:35,-119.7326,39.1923,1431.00,51.80,32.00,46.59,0.00,0.00,0.00,30.07,M,10.00,M,CLR,M,M,M,M,M,M,M,M,M,M,M,M,M,M,51.80,KCXP 020735Z AUTO 00000KT 10SM CLR 11/M00 A3007 RMK AO2,M
BVU,2022-10-02 07:35,-114.8611,35.9475,671.00,75.20,55.40,50.17,310.00,4.00,0.00,29.86,M,10.00,M,CLR,M,M,M,M,M,M,M,M,M,M,M,M,M,M,75.20,KBVU 020735Z AUTO 31004KT 10SM CLR 24/13 A2986 RMK AO2,M
BAM,2022-10-02 07:35,-116.8743,40.5990,1382.36,42.80,26.60,52.45,0.00,0.00,0.00,30.05,M,10.00,M,CLR,M,M,M,M,M,M,M,M,M,M,M,M,M,M,42.80,KBAM 020735Z AUTO 00000KT 10SM CLR 06/M03 A3005 RMK AO1,M
MEV,2022-10-02 07:35,-119.7500,38.9963,1441.42,44.60,28.40,52.72,0.00,0.00,0.00,30.05,M,10.00,M,SCT,SCT,M,M,5000.00,5500.00,M,M,M,M,M,M,M,M,M,44.60,KMEV 020735Z AUTO 00000KT 10SM SCT050 SCT055 07/M02 A3005 RMK AO2,M
TMT,2022-10-02 07:35,-117.1971,39.4643,1749.34,32.50,19.60,58.59,0.00,0.00,0.00,30.11,M,10.00,M,CLR,M,M,M,M,M,M,M,M,M,M,M,M,M,M,32.50,KTMT 020735Z AUTO 00000KT 10SM CLR 00/M07 A3011 RMK AO2 T00031069,M
HTH,2022-10-02 07:35,-118.6315,38.5448,1282.89,57.20,33.80,41.13,240.00,5.00,0.00,30.03,M,10.00,M,CLR,M,M,M,M,M,M,M,M,M,M,M,M,M,M,57.20,KHTH 020735Z AUTO 24005KT 10SM CLR 14/01 A3003 RMK A01,M
RTS,2022-10-02 07:39,-119.8764,39.6682,1539.00,46.40,30.20,53.00,0.00,0.00,0.00,30.07,M,10.00,M,CLR,M,M,M,M,M,M,M,M,M,M,M,M,M,M,46.40,KRTS 020739Z AUTO 00000KT 10SM CLR 08/M01 A3007 RMK AO2,M
ELY,2022-10-02 07:53,-114.8453,39.2950,1909.00,37.00,28.90,72.24,170.00,7.00,0.00,30.12,1014.30,10.00,M,CLR,M,M,M,M,M,M,M,M,M,M,M,M,M,M,30.87,KELY 020753Z AUTO 17007KT 10SM CLR 03/M02 A3012 RMK AO2 SLP143 T00281017,M
P68,2022-10-02 07:53,-116.0056,39.6014,1993.00,42.00,26.10,52.78,160.00,5.00,0.00,30.08,1013.80,M,M,M,M,M,M,M,M,M,M,M,M,M,M,M,M,M,38.39,KP68 020753Z AUTO 16005KT 06/M03 A3008 RMK AO1 SLP138 T00561033 402111006,M
LOL,2022-10-02 07:53,-118.5701,40.0684,1192.43,45.00,M,M,120.00,5.00,0.00,30.02,1014.50,10.00,M,CLR,M,M,M,M,M,M,M,M,M,M,M,M,M,M,M,KLOL 020753Z AUTO 12005KT 10SM CLR 07/ A3002 RMK AO2 SLP145 T0072 402390039 $,M
VGT,2022-10-02 07:53,-115.1933,36.2111,667.00,83.00,45.00,26.46,210.00,5.00,0.00,29.85,1009.70,10.00,M,CLR,M,M,M,M,M,M,M,M,M,M,M,M,M,M,80.86,KVGT 020753Z AUTO 21005KT 10SM CLR 28/07 A2985 RMK AO2 SLP097 T02830072 403500206,M
DRA,2022-10-02 07:53,-116.0278,36.6206,1009.00,68.00,28.90,23.06,50.00,3.00,0.00,29.91,1008.10,10.00,M,CLR,M,M,M,M,M,M,M,M,M,M,M,M,M,M,68.00,KDRA 020753Z AUTO 05003KT 10SM CLR 20/M02 A2991 RMK AO2 SLP081 T02001017 403170150,M
BAM,2022-10-02 07:55,-116.8743,40.5990,1382.36,42.80,26.60,52.45,0.00,0.00,0.00,30.05,M,10.00,M,CLR,M,M,M,M,M,M,M,M,M,M,M,M,M,M,42.80,KBAM 020755Z AUTO 00000KT 10SM CLR 06/M03 A3005 RMK AO1,M
05U,2022-10-02 07:55,-116.0051,39.6042,1811.23,41.00,24.80,52.17,160.00,3.00,0.00,30.11,M,10.00,M,CLR,M,M,M,M,M,M,M,M,M,M,M,M,M,M,38.98,K05U 020755Z AUTO 16003KT 10SM CLR 05/M04 A3011 RMK A01,M
RNO,2022-10-02 07:55,-119.7711,39.4839,1341.00,56.00,36.00,47.05,290.00,4.00,0.00,30.03,1012.90,10.00,M,CLR,M,M,M,M,M,M,M,M,M,M,M,M,M,M,55.90,KRNO 020755Z 29004KT 10SM CLR 13/02 A3003 RMK AO2 SLP129 T01330022 402560072 $,M
CXP,2022-10-02 07:55,-119.7326,39.1923,1431.00,48.20,32.00,53.27,0.00,0.00,0.00,30.07,M,10.00,M,CLR,M,M,M,M,M,M,M,M,M,M,M,M,M,M,48.20,KCXP 020755Z AUTO 00000KT 10SM CLR 09/00 A3007 RMK AO2,M
TMT,2022-10-02 07:55,-117.1971,39.4643,1749.34,33.00,19.90,58.40,0.00,0.00,0.00,30.11,M,10.00,M,CLR,M,M,M,M,M,M,M,M,M,M,M,M,M,M,32.90,KTMT 020755Z AUTO 00000KT 10SM CLR 01/M07 A3011 RMK AO2 T00051067,M
BVU,2022-10-02 07:55,-114.8611,35.9475,671.00,75.20,55.40,50.17,330.00,4.00,0.00,29.86,M,10.00,M,CLR,M,M,M,M,M,M,M,M,M,M,M,M,M,M,75.20,KBVU 020755Z AUTO 33004KT 10SM CLR 24/13 A2986 RMK AO2,M
HTH,2022-10-02 07:55,-118.6315,38.5448,1282.89,57.20,33.80,41.13,250.00,4.00,0.00,30.03,M,10.00,M,CLR,M,M,M,M,M,M,M,M,M,M,M,M,M,M,57.20,KHTH 020755Z AUTO 25004KT 10SM CLR 14/01 A3003 RMK A01,M
MEV,2022-10-02 07:55,-119.7500,38.9963,1441.42,42.80,28.40,56.48,0.00,0.00,0.00,30.06,M,10.00,M,FEW,M,M,M,5000.00,M,M,M,M,M,M,M,M,M,M,42.80,KMEV 020755Z AUTO 00000KT 10SM FEW050 06/M02 A3006 RMK AO2,M
INS,2022-10-02 07:56,-115.6733,36.5872,955.00,66.20,34.70,31.01,0.00,0.00,0.00,29.91,1008.50,10.00,M,CLR,M,M,M,M,M,M,M,M,M,M,M,M,M,M,66.20,KINS 020756Z AUTO 00000KT 10SM CLR 19/02 A2991 RMK AO2 SLP085 T01900015 403160128 $,M
EKO,2022-10-02 07:56,-115.7860,40.8242,1367.00,40.00,27.00,59.65,0.00,0.00,0.00,30.06,1015.60,10.00,M,CLR,M,M,M,M,M,M,M,M,M,M,M,M,M,M,39.90,KEKO 020756Z AUTO 00000KT 10SM CLR 04/M03 A3006 RMK AO2 SLP156 T00441028 402110011,M
WMC,2022-10-02 07:56,-117.8072,40.9019,1315.00,41.00,25.00,52.61,170.00,3.00,0.00,30.04,1015.10,10.00,M,CLR,M,M,M,M,M,M,M,M,M,M,M,M,M,M,38.98,KWMC 020756Z AUTO 17003KT 10SM CLR 05/M04 A3004 RMK AO2 SLP151 T00501039 402280044,M
HND,2022-10-02 07:56,-115.1344,35.9729,742.79,76.00,55.00,48.30,220.00,6.00,0.00,29.90,1011.10,10.00,M,CLR,M,M,M,M,M,M,M,M,M,M,M,M,M,M,75.90,KHND 020756Z AUTO 22006KT 10SM CLR 24/13 A2990 RMK AO2 SLP111 T02440128,M
TPH,2022-10-02 07:56,-117.0904,38.0505,1654.00,51.00,24.10,34.57,340.00,6.00,0.00,30.06,1012.60,10.00,M,CLR,M,M,M,M,M,M,M,M,M,M,M,M,M,M,51.10,KTPH 020756Z AUTO 34006KT 10SM CLR 11/M04 A3006 RMK AO2 SLP126 T01061044 402440089,M
LAS,2022-10-02 07:56,-115.1634,36.0719,663.00,80.00,54.00,40.54,180.00,6.00,0.00,29.86,1008.40,10.00,M,CLR,M,M,M,M,M,M,M,M,M,M,M,M,M,M,80.04,KLAS 020756Z 18006KT 10SM CLR 27/12 A2986 RMK AO2 SLP084 T02670122 403440211 $,M
NFL,2022-10-02 07:56,-118.7010,39.4166,1199.00,49.00,33.00,54.24,0.00,0.00,0.00,30.01,1013.10,10.00,M,CLR,M,M,M,M,M,M,M,M,M,M,M,M,M,M,48.90,KNFL 020756Z AUTO 00000KT 10SM CLR 09/01 A3001 RMK AO2 SLP131 T00940006 402390044,M
LSV,2022-10-02 07:56,-115.0343,36.2362,570.00,78.30,47.50,33.80,260.00,3.00,0.00,29.81,1006.90,10.00,M,CLR,M,M,M,M,M,M,M,M,M,M,M,M,M,M,78.30,KLSV 020756Z AUTO 26003KT 10SM CLR 26/09 A2981 RMK AO2 SLP069 T02570086 403560192 $,M
RTS,2022-10-02 07:59,-119.8764,39.6682,1539.00,46.40,28.40,49.24,340.00,3.00,0.00,30.07,M,10.00,M,CLR,M,M,M,M,M,M,M,M,M,M,M,M,M,M,45.15,KRTS 020759Z AUTO 34003KT 10SM CLR 08/M02 A3007 RMK AO2,M
TMT,2022-10-02 08:15,-117.1971,39.4643,1749.34,33.00,20.50,59.91,310.00,4.00,0.00,30.11,M,10.00,M,CLR,M,M,M,M,M,M,M,M,M,M,M,M,M,M,28.47,KTMT 020815Z AUTO 31004KT 10SM CLR 01/M06 A3011 RMK AO2 T00051064,M
CXP,2022-10-02 08:15,-119.7326,39.1923,1431.00,50.00,32.00,49.81,0.00,0.00,0.00,30.07,M,10.00,M,CLR,M,M,M,M,M,M,M,M,M,M,M,M,M,M,50.00,KCXP 020815Z AUTO 00000KT 10SM CLR 10/M00 A3007 RMK AO2,M
BVU,2022-10-02 08:15,-114.8611,35.9475,671.00,75.20,57.20,53.55,330.00,5.00,0.00,29.87,M,10.00,M,CLR,M,M,M,M,M,M,M,M,M,M,M,M,M,M,75.20,KBVU 020815Z AUTO 33005KT 10SM CLR 24/14 A2987 RMK AO2,M
HTH,2022-10-02 08:15,-118.6315,38.5448,1282.89,57.20,33.80,41.13,240.00,5.00,0.00,30.03,M,10.00,M,CLR,M,M,M,M,M,M,M,M,M,M,M,M,M,M,57.20,KHTH 020815Z AUTO 24005KT 10SM CLR 14/01 A3003 RMK A01,M
BAM,2022-10-02 08:15,-116.8743,40.5990,1382.36,41.00,23.00,48.39,230.00,3.00,0.00,30.06,M,10.00,M,CLR,M,M,M,M,M,M,M,M,M,M,M,M,M,M,38.98,KBAM 020815Z AUTO 23003KT 10SM CLR 05/M05 A3006 RMK AO1,M
MEV,2022-10-02 08:15,-119.7500,38.9963,1441.42,42.80,30.20,60.79,0.00,0.00,0.00,30.05,M,10.00,M,FEW,M,M,M,5000.00,M,M,M,M,M,M,M,M,M,M,42.80,KMEV 020815Z AUTO 00000KT 10SM FEW050 06/M01 A3005 RMK AO2,M
05U,2022-10-02 08:15,-116.0051,39.6042,1811.23,39.20,24.80,55.95,0.00,0.00,0.00,30.12,M,10.00,M,CLR,M,M,M,M,M,M,M,M,M,M,M,M,M,M,39.20,K05U 020815Z AUTO 00000KT 10SM CLR 04/M04 A3012 RMK A01,M
RTS,2022-10-02 08:19,-119.8764,39.6682,1539.00,46.40,30.20,53.00,0.00,0.00,0.00,30.07,M,10.00,M,CLR,M,M,M,M,M,M,M,M,M,M,M,M,M,M,46.40,KRTS 020819Z AUTO 00000KT 10SM CLR 08/M01 A3007 RMK AO2,M
CXP,2022-10-02 08:35,-119.7326,39.1923,1431.00,48.20,32.00,53.27,0.00,0.00,0.00,30.07,M,10.00,M,CLR,M,M,M,M,M,M,M,M,M,M,M,M,M,M,48.20,KCXP 020835Z AUTO 00000KT 10SM CLR 09/00 A3007 RMK AO2,M
TMT,2022-10-02 08:35,-117.1971,39.4643,1749.34,29.50,18.00,61.78,110.00,3.00,0.00,30.11,M,10.00,M,CLR,M,M,M,M,M,M,M,M,M,M,M,M,M,M,25.83,KTMT 020835Z AUTO 11003KT 10SM CLR M01/M08 A3011 RMK AO2 T10141078,M
HTH,2022-10-02 08:35,-118.6315,38.5448,1282.89,53.60,33.80,46.88,210.00,4.00,0.00,30.03,M,10.00,M,CLR,M,M,M,M,M,M,M,M,M,M,M,M,M,M,53.60,KHTH 020835Z AUTO 21004KT 10SM CLR 12/01 A3003 RMK A01,M
BAM,2022-10-02 08:35,-116.8743,40.5990,1382.36,37.40,19.40,47.80,0.00,0.00,0.00,30.06,M,10.00,M,CLR,M,M,M,M,M,M,M,M,M,M,M,M,M,M,37.40,KBAM 020835Z AUTO 00000KT 10SM CLR 03/M07 A3006 RMK AO1,M
BVU,2022-10-02 08:35,-114.8611,35.9475,671.00,75.20,57.20,53.55,340.00,4.00,0.00,29.87,M,10.00,M,CLR,M,M,M,M,M,M,M,M,M,M,M,M,M,M,75.20,KBVU 020835Z AUTO 34004KT 10SM CLR 24/14 A2987 RMK AO2,M
MEV,2022-10-02 08:35,-119.7500,38.9963,1441.42,41.00,26.60,56.22,110.00,3.00,0.00,30.06,M,10.00,M,SCT,M,M,M,5000.00,M,M,M,M,M,M,M,M,M,M,38.98,KMEV 020835Z AUTO 11003KT 10SM SCT050 05/M03 A3006 RMK AO2,M
05U,2022-10-02 08:35,-116.0051,39.6042,1811.23,41.00,24.80,52.17,160.00,4.00,0.00,30.12,M,10.00,M,CLR,M,M,M,M,M,M,M,M,M,M,M,M,M,M,37.93,K05U 020835Z AUTO 16004KT 10SM CLR 05/M04 A3012 RMK A01,M
RTS,2022-10-02 08:39,-119.8764,39.6682,1539.00,44.60,28.40,52.72,340.00,3.00,0.00,30.07,M,10.00,M,CLR,M,M,M,M,M,M,M,M,M,M,M,M,M,M,43.09,KRTS 020839Z AUTO 34003KT 10SM CLR 07/M02 A3007 RMK AO2,M
VGT,2022-10-02 08:53,-115.1933,36.2111,667.00,77.00,41.00,27.53,310.00,3.00,0.00,29.85,1010.00,10.00,M,CLR,M,M,M,M,M,M,M,M,M,M,M,M,M,M,77.00,KVGT 020853Z AUTO 31003KT 10SM CLR 25/05 A2985 RMK AO2 SLP100 T02500050 53006,M
ELY,2022-10-02 08:53,-114.8453,39.2950,1909.00,38.00,30.00,72.93,170.00,7.00,0.00,30.12,1013.90,10.00,M,BKN,M,M,M,10000.00,M,M,M,M,M,M,M,M,M,M,31.97,KELY 020853Z AUTO 17007KT 10SM BKN100 03/M01 A3012 RMK AO2 SLP139 T00331011 51005,M
DRA,2022-10-02 08:53,-116.0278,36.6206,1009.00,69.00,32.00,25.18,40.00,5.00,0.00,29.92,1008.40,10.00,M,CLR,M,M,M,M,M,M,M,M,M,M,M,M,M,M,69.10,KDRA 020853Z AUTO 04005KT 10SM CLR 21/00 A2992 RMK AO2 SLP084 T02060000 53003,M
P68,2022-10-02 08:53,-116.0056,39.6014,1993.00,39.00,26.10,59.52,170.00,7.00,0.00,30.10,1014.00,M,M,M,M,M,M,M,M,M,M,M,M,M,M,M,M,M,33.31,KP68 020853Z AUTO 17007KT 04/M03 A3010 RMK AO1 SLP140 T00391033 53005,M
LOL,2022-10-02 08:53,-118.5701,40.0684,1192.43,42.00,M,M,180.00,8.00,0.00,30.02,1014.60,10.00,M,CLR,M,M,M,M,M,M,M,M,M,M,M,M,M,M,M,KLOL 020853Z AUTO 18008KT 10SM CLR 06/ A3002 RMK AO2 SLP146 T0056 50004 $,M
BAM,2022-10-02 08:55,-116.8743,40.5990,1382.36,39.20,21.20,48.10,220.00,4.00,0.00,30.06,M,10.00,M,CLR,M,M,M,M,M,M,M,M,M,M,M,M,M,M,35.83,KBAM 020855Z AUTO 22004KT 10SM CLR 04/M06 A3006 RMK AO1,M
05U,2022-10-02 08:55,-116.0051,39.6042,1811.23,39.20,24.80,55.95,170.00,6.00,0.00,30.12,M,10.00,M,CLR,M,M,M,M,M,M,M,M,M,M,M,M,M,M,34.20,K05U 020855Z AUTO 17006KT 10SM CLR 04/M04 A3012 RMK A01,M
RNO,2022-10-02 08:55,-119.7711,39.4839,1341.00,55.00,36.00,48.62,0.00,0.00,0.00,30.04,1013.00,10.00,M,CLR,M,M,M,M,M,M,M,M,M,M,M,M,M,M,55.00,KRNO 020855Z 00000KT 10SM CLR 13/02 A3004 RMK AO2 SLP130 T01280022 53003 $,M
CXP,2022-10-02 08:55,-119.7326,39.1923,1431.00,48.20,30.20,49.53,0.00,0.00,0.00,30.07,M,10.00,M,CLR,M,M,M,M,M,M,M,M,M,M,M,M,M,M,48.20,KCXP 020855Z AUTO 00000KT 10SM CLR 09/M01 A3007 RMK AO2,M
BVU,2022-10-02 08:55,-114.8611,35.9475,671.00,73.40,57.20,56.88,330.00,5.00,0.00,29.87,M,10.00,M,CLR,M,M,M,M,M,M,M,M,M,M,M,M,M,M,73.40,KBVU 020855Z AUTO 33005KT 10SM CLR 23/14 A2987 RMK AO2,M
TMT,2022-10-02 08:55,-117.1971,39.4643,1749.34,30.20,18.70,61.87,0.00,0.00,0.00,30.12,M,10.00,M,CLR,M,M,M,M,M,M,M,M,M,M,M,M,M,M,30.20,KTMT 020855Z AUTO 00000KT 10SM CLR M01/M07 A3012 RMK AO2 T10101074,M
HTH,2022-10-02 08:55,-118.6315,38.5448,1282.89,53.60,32.00,43.61,230.00,4.00,0.00,30.03,M,10.00,M,CLR,M,M,M,M,M,M,M,M,M,M,M,M,M,M,53.60,KHTH 020855Z AUTO 23004KT 10SM CLR 12/00 A3003 RMK A01,M
MEV,2022-10-02 08:55,-119.7500,38.9963,1441.42,41.00,28.40,60.54,0.00,0.00,0.00,30.06,M,8.00,M,FEW,BKN,M,M,4200.00,5000.00,M,M,M,M,M,M,M,M,M,41.00,KMEV 020855Z AUTO 00000KT 8SM FEW042 BKN050 05/M02 A3006 RMK AO2,M
HND,2022-10-02 08:56,-115.1344,35.9729,742.79,78.00,57.00,48.28,200.00,7.00,0.00,29.90,1011.10,10.00,M,CLR,M,M,M,M,M,M,M,M,M,M,M,M,M,M,78.10,KHND 020856Z AUTO 20007KT 10SM CLR 26/14 A2990 RMK AO2 SLP111 T02560139 53003,M
TPH,2022-10-02 08:56,-117.0904,38.0505,1654.00,50.00,24.10,36.01,350.00,8.00,0.00,30.07,1012.40,10.00,M,CLR,M,M,M,M,M,M,M,M,M,M,M,M,M,M,50.00,KTPH 020856Z AUTO 35008KT 10SM CLR 10/M04 A3007 RMK AO2 SLP124 T01001044 51005,M
LSV,2022-10-02 08:56,-115.0343,36.2362,570.00,76.30,49.50,38.92,0.00,0.00,0.00,29.82,1007.30,10.00,M,CLR,M,M,M,M,M,M,M,M,M,M,M,M,M,M,76.30,KLSV 020856Z AUTO 00000KT 10SM CLR 25/10 A2982 RMK AO2 SLP073 T02460097 53006 $,M
LAS,2022-10-02 08:56,-115.1634,36.0719,663.00,80.00,56.00,43.44,210.00,5.00,0.00,29.86,1008.40,10.00,M,CLR,M,M,M,M,M,M,M,M,M,M,M,M,M,M,80.29,KLAS 020856Z 21005KT 10SM CLR 27/13 A2986 RMK AO2 SLP084 T02670133 53003 $,M
INS,2022-10-02 08:56,-115.6733,36.5872,955.00,65.30,34.70,32.00,230.00,3.00,0.00,29.92,1008.80,10.00,M,CLR,M,M,M,M,M,M,M,M,M,M,M,M,M,M,65.30,KINS 020856Z AUTO 23003KT 10SM CLR 19/02 A2992 RMK AO2 SLP088 T01850015 53005 $,M
EKO,2022-10-02 08:56,-115.7860,40.8242,1367.00,38.00,26.10,62.14,250.00,3.00,0.00,30.07,1016.00,10.00,M,CLR,M,M,M,M,M,M,M,M,M,M,M,M,M,M,35.43,KEKO 020856Z AUTO 25003KT 10SM CLR 03/M03 A3007 RMK AO2 SLP160 T00331033 53007,M
NFL,2022-10-02 08:56,-118.7010,39.4166,1199.00,48.00,35.00,60.76,0.00,0.00,0.00,30.01,1013.40,10.00,M,CLR,M,M,M,M,M,M,M,M,M,M,M,M,M,M,48.00,KNFL 020856Z AUTO 00000KT 10SM CLR 09/02 A3001 RMK AO2 SLP134 T00890017 53004,M
WMC,2022-10-02 08:56,-117.8072,40.9019,1315.00,39.00,24.10,54.77,0.00,0.00,0.00,30.04,1015.00,10.00,M,CLR,M,M,M,M,M,M,M,M,M,M,M,M,M,M,39.00,KWMC 020856Z AUTO 00000KT 10SM CLR 04/M04 A3004 RMK AO2 SLP150 T00391044 51004,M
RTS,2022-10-02 08:59,-119.8764,39.6682,1539.00,44.60,28.40,52.72,340.00,4.00,0.00,30.08,M,10.00,M,CLR,M,M,M,M,M,M,M,M,M,M,M,M,M,M,42.13,KRTS 020859Z AUTO 34004KT 10SM CLR 07/M02 A3008 RMK AO2,M
05U,2022-10-02 09:15,-116.0051,39.6042,1811.23,41.00,26.60,56.22,180.00,5.00,0.00,30.12,M,10.00,M,CLR,M,M,M,M,M,M,M,M,M,M,M,M,M,M,37.08,K05U 020915Z AUTO 18005KT 10SM CLR 05/M03 A3012 RMK A01,M
CXP,2022-10-02 09:15,-119.7326,39.1923,1431.00,46.40,30.20,53.00,320.00,4.00,0.00,30.07,M,10.00,M,CLR,M,M,M,M,M,M,M,M,M,M,M,M,M,M,44.24,KCXP 020915Z AUTO 32004KT 10SM CLR 08/M01 A3007 RMK AO2,M
TMT,2022-10-02 09:15,-117.1971,39.4643,1749.34,31.60,19.60,60.76,0.00,0.00,0.00,30.12,M,10.00,M,CLR,M,M,M,M,M,M,M,M,M,M,M,M,M,M,31.60,KTMT 020915Z AUTO 00000KT 10SM CLR 00/M07 A3012 RMK AO2 T10021069,M
BVU,2022-10-02 09:15,-114.8611,35.9475,671.00,75.20,57.20,53.55,0.00,0.00,0.00,29.87,M,10.00,M,CLR,M,M,M,M,M,M,M,M,M,M,M,M,M,M,75.20,KBVU 020915Z AUTO 00000KT 10SM CLR 24/14 A2987 RMK AO2,M
HTH,2022-10-02 09:15,-118.6315,38.5448,1282.89,53.60,32.00,43.61,230.00,4.00,0.00,30.04,M,10.00,M,CLR,M,M,M,M,M,M,M,M,M,M,M,M,M,M,53.60,KHTH 020915Z AUTO 23004KT 10SM CLR 12/M00 A3004 RMK A01,M
MEV,2022-10-02 09:15,-119.7500,38.9963,1441.42,44.60,33.80,65.61,0.00,0.00,0.00,30.06,M,10.00,M,FEW,SCT,M,M,4200.00,5000.00,M,M,M,M,M,M,M,M,M,44.60,KMEV 020915Z AUTO 00000KT 10SM FEW042 SCT050 07/01 A3006 RMK AO2,M
BAM,2022-10-02 09:15,-116.8743,40.5990,1382.36,37.40,21.20,51.61,0.00,0.00,0.00,30.06,M,10.00,M,CLR,M,M,M,M,M,M,M,M,M,M,M,M,M,M,37.40,KBAM 020915Z AUTO 00000KT 10SM CLR 03/M06 A3006 RMK AO1,M
RTS,2022-10-02 09:19,-119.8764,39.6682,1539.00,46.40,30.20,53.00,330.00,4.00,0.00,30.07,M,10.00,M,CLR,M,M,M,M,M,M,M,M,M,M,M,M,M,M,44.24,KRTS 020919Z AUTO 33004KT 10SM CLR 08/M01 A3007 RMK AO2,M
05U,2022-10-02 09:35,-116.0051,39.6042,1811.23,39.20,24.80,55.95,180.00,5.00,0.00,30.12,M,10.00,M,CLR,M,M,M,M,M,M,M,M,M,M,M,M,M,M,34.95,K05U 020935Z AUTO 18005KT 10SM CLR 04/M04 A3012 RMK A01,M
BAM,2022-10-02 09:35,-116.8743,40.5990,1382.36,37.40,21.20,51.61,0.00,0.00,0.00,30.07,M,10.00,M,CLR,M,M,M,M,M,M,M,M,M,M,M,M,M,M,37.40,KBAM 020935Z AUTO 00000KT 10SM CLR 03/M06 A3007 RMK AO1,M
HTH,2022-10-02 09:35,-118.6315,38.5448,1282.89,53.60,32.00,43.61,230.00,3.00,0.00,30.04,M,10.00,M,CLR,M,M,M,M,M,M,M,M,M,M,M,M,M,M,53.60,KHTH 020935Z AUTO 23003KT 10SM CLR 12/00 A3004 RMK A01,M
TMT,2022-10-02 09:35,-117.1971,39.4643,1749.34,28.90,18.00,63.31,0.00,0.00,0.00,30.12,M,10.00,M,CLR,M,M,M,M,M,M,M,M,M,M,M,M,M,M,28.90,KTMT 020935Z AUTO 00000KT 10SM CLR M02/M08 A3012 RMK AO2 T10171078,M
BVU,2022-10-02 09:35,-114.8611,35.9475,671.00,73.40,57.20,56.88,310.00,4.00,0.00,29.87,M,10.00,M,CLR,M,M,M,M,M,M,M,M,M,M,M,M,M,M,73.40,KBVU 020935Z AUTO 31004KT 10SM CLR 23/14 A2987 RMK AO2,M
MEV,2022-10-02 09:35,-119.7500,38.9963,1441.42,41.00,32.00,70.08,90.00,3.00,0.00,30.06,M,10.00,M,SCT,M,M,M,4800.00,M,M,M,M,M,M,M,M,M,M,38.98,KMEV 020935Z AUTO 09003KT 10SM SCT048 05/M00 A3006 RMK AO2,M
CXP,2022-10-02 09:35,-119.7326,39.1923,1431.00,46.40,30.20,53.00,0.00,0.00,0.00,30.08,M,10.00,M,CLR,M,M,M,M,M,M,M,M,M,M,M,M,M,M,46.40,KCXP 020935Z AUTO 00000KT 10SM CLR 08/M01 A3008 RMK AO2,M
RTS,2022-10-02 09:39,-119.8764,39.6682,1539.00,44.60,30.20,56.74,350.00,4.00,0.00,30.07,M,10.00,M,CLR,M,M,M,M,M,M,M,M,M,M,M,M,M,M,42.13,KRTS 020939Z AUTO 35004KT 10SM CLR 07/M01 A3007 RMK AO2,M
DRA,2022-10-02 09:53,-116.0278,36.6206,1009.00,65.00,36.00,34.17,60.00,3.00,0.00,29.92,1008.60,10.00,M,CLR,M,M,M,M,M,M,M,M,M,M,M,M,M,M,64.90,KDRA 020953Z AUTO 06003KT 10SM CLR 18/02 A2992 RMK AO2 SLP086 T01830022,M
ELY,2022-10-02 09:53,-114.8453,39.2950,1909.00,37.00,28.90,72.24,160.00,5.00,0.00,30.13,1013.80,10.00,M,CLR,M,M,M,M,M,M,M,M,M,M,M,M,M,M,32.33,KELY 020953Z AUTO 16005KT 10SM CLR 03/M02 A3013 RMK AO2 SLP138 T00281017,M
P68,2022-10-02 09:53,-116.0056,39.6014,1993.00,39.00,26.10,59.52,170.00,5.00,0.00,30.10,1014.20,M,M,M,M,M,M,M,M,M,M,M,M,M,M,M,M,M,34.71,KP68 020953Z AUTO 17005KT 04/M03 A3010 RMK AO1 SLP142 T00391033,M
LOL,2022-10-02 09:53,-118.5701,40.0684,1192.43,46.00,M,M,10.00,6.00,0.00,30.02,1014.20,10.00,M,CLR,M,M,M,M,M,M,M,M,M,M,M,M,M,M,M,KLOL 020953Z AUTO 01006KT 10SM CLR 08/ A3002 RMK AO2 SLP142 T0078 $,M
VGT,2022-10-02 09:53,-115.1933,36.2111,667.00,74.00,41.00,30.54,0.00,0.00,0.00,29.86,1010.10,10.00,M,CLR,M,M,M,M,M,M,M,M,M,M,M,M,M,M,73.90,KVGT 020953Z AUTO 00000KT 10SM CLR 23/05 A2986 RMK AO2 SLP101 T02330050,M
TMT,2022-10-02 09:55,-117.1971,39.4643,1749.34,30.20,19.40,63.75,0.00,0.00,0.00,30.12,M,10.00,M,CLR,M,M,M,M,M,M,M,M,M,M,M,M,M,M,30.20,KTMT 020955Z AUTO 00000KT 10SM CLR M01/M07 A3012 RMK AO2 T10101070,M
HTH,2022-10-02 09:55,-118.6315,38.5448,1282.89,53.60,32.00,43.61,230.00,4.00,0.00,30.04,M,10.00,M,CLR,M,M,M,M,M,M,M,M,M,M,M,M,M,M,53.60,KHTH 020955Z AUTO 23004KT 10SM CLR 12/00 A3004 RMK A01,M
BAM,2022-10-02 09:55,-116.8743,40.5990,1382.36,37.40,23.00,55.68,0.00,0.00,0.00,30.07,M,10.00,M,CLR,M,M,M,M,M,M,M,M,M,M,M,M,M,M,37.40,KBAM 020955Z AUTO 00000KT 10SM CLR 03/M05 A3007 RMK AO1,M
MEV,2022-10-02 09:55,-119.7500,38.9963,1441.42,39.20,30.20,69.88,0.00,0.00,0.00,30.06,M,10.00,M,BKN,M,M,M,4700.00,M,M,M,M,M,M,M,M,M,M,39.20,KMEV 020955Z AUTO 00000KT 10SM BKN047 04/M01 A3006 RMK AO2,M
05U,2022-10-02 09:55,-116.0051,39.6042,1811.23,39.20,26.60,60.29,160.00,6.00,0.00,30.12,M,10.00,M,CLR,M,M,M,M,M,M,M,M,M,M,M,M,M,M,34.20,K05U 020955Z AUTO 16006KT 10SM CLR 04/M03 A3012 RMK A01,M
RNO,2022-10-02 09:55,-119.7711,39.4839,1341.00,51.00,37.00,58.36,170.00,3.00,0.00,30.04,1013.30,10.00,M,CLR,M,M,M,M,M,M,M,M,M,M,M,M,M,M,51.10,KRNO 020955Z 17003KT 10SM CLR 11/03 A3004 RMK AO2 SLP133 T01060028 $,M
BVU,2022-10-02 09:55,-114.8611,35.9475,671.00,73.40,59.00,60.67,0.00,0.00,0.00,29.87,M,10.00,M,CLR,M,M,M,M,M,M,M,M,M,M,M,M,M,M,73.40,KBVU 020955Z AUTO 00000KT 10SM CLR 23/15 A2987 RMK AO2 LTG DSNT NE AND E,M
CXP,2022-10-02 09:55,-119.7326,39.1923,1431.00,46.40,32.00,57.00,0.00,0.00,0.00,30.08,M,10.00,M,CLR,M,M,M,M,M,M,M,M,M,M,M,M,M,M,46.40,KCXP 020955Z AUTO 00000KT 10SM CLR 08/00 A3008 RMK AO2,M
NFL,2022-10-02 09:56,-118.7010,39.4166,1199.00,47.00,34.00,60.61,0.00,0.00,0.00,30.01,1013.30,10.00,M,CLR,M,M,M,M,M,M,M,M,M,M,M,M,M,M,46.90,KNFL 020956Z AUTO 00000KT 10SM CLR 08/01 A3001 RMK AO2 SLP133 T00830011,M
INS,2022-10-02 09:56,-115.6733,36.5872,955.00,63.00,36.30,36.95,330.00,3.00,0.00,29.92,1008.80,10.00,M,CLR,M,M,M,M,M,M,M,M,M,M,M,M,M,M,63.00,KINS 020956Z AUTO 33003KT 10SM CLR 17/02 A2992 RMK AO2 SLP088 T01720024 $,M
EKO,2022-10-02 09:56,-115.7860,40.8242,1367.00,40.00,27.00,59.65,0.00,0.00,0.00,30.08,1015.80,10.00,M,CLR,M,M,M,M,M,M,M,M,M,M,M,M,M,M,39.90,KEKO 020956Z AUTO 00000KT 10SM CLR 04/M03 A3008 RMK AO2 SLP158 T00441028,M
WMC,2022-10-02 09:56,-117.8072,40.9019,1315.00,36.00,23.00,58.85,150.00,7.00,0.00,30.05,1015.50,10.00,M,CLR,M,M,M,M,M,M,M,M,M,M,M,M,M,M,29.65,KWMC 020956Z AUTO 15007KT 10SM CLR 02/M05 A3005 RMK AO2 SLP155 T00221050,M
TPH,2022-10-02 09:56,-117.0904,38.0505,1654.00,50.00,24.10,36.01,10.00,9.00,0.00,30.07,1012.50,10.00,M,CLR,M,M,M,M,M,M,M,M,M,M,M,M,M,M,50.00,KTPH 020956Z AUTO 01009KT 10SM CLR 10/M04 A3007 RMK AO2 SLP125 T01001044,M
LSV,2022-10-02 09:56,-115.0343,36.2362,570.00,73.60,51.00,44.88,40.00,4.00,0.00,29.82,1007.40,10.00,M,CLR,M,M,M,M,M,M,M,M,M,M,M,M,M,M,73.60,KLSV 020956Z AUTO 04004KT 10SM CLR 23/11 A2982 RMK AO2 SLP074 T02310105 $,M
LAS,2022-10-02 09:56,-115.1634,36.0719,663.00,79.00,57.00,46.87,200.00,6.00,0.00,29.86,1008.30,10.00,M,CLR,M,M,M,M,M,M,M,M,M,M,M,M,M,M,79.00,KLAS 020956Z 20006KT 10SM CLR 26/14 A2986 RMK AO2 SLP083 T02610139 $,M
HND,2022-10-02 09:56,-115.1344,35.9729,742.79,77.00,57.00,50.07,150.00,6.00,0.00,29.90,1011.20,10.00,M,CLR,M,M,M,M,M,M,M,M,M,M,M,M,M,M,77.00,KHND 020956Z AUTO 15006KT 10SM CLR 25/14 A2990 RMK AO2 SLP112 T02500139,M
RTS,2022-10-02 09:59,-119.8764,39.6682,1539.00,42.80,28.40,56.48,0.00,0.00,0.00,30.07,M,10.00,M,CLR,M,M,M,M,M,M,M,M,M,M,M,M,M,M,42.80,KRTS 020959Z AUTO 00000KT 10SM CLR 06/M02 A3007 RMK AO2,M
BAM,2022-10-02 10:15,-116.8743,40.5990,1382.36,37.40,21.20,51.61,0.00,0.00,0.00,30.07,M,10.00,M,CLR,M,M,M,M,M,M,M,M,M,M,M,M,M,M,37.40,KBAM 021015Z AUTO 00000KT 10SM CLR 03/M06 A3007 RMK AO1,M
MEV,2022-10-02 10:15,-119.7500,38.9963,1441.42,39.20,28.40,64.93,0.00,0.00,0.00,30.06,M,10.00,M,SCT,M,M,M,4700.00,M,M,M,M,M,M,M,M,M,M,39.20,KMEV 021015Z AUTO 00000KT 10SM SCT047 04/M02 A3006 RMK AO2,M
05U,2022-10-02 10:15,-116.0051,39.6042,1811.23,39.20,24.80,55.95,180.00,6.00,0.00,30.12,M,10.00,M,CLR,M,M,M,M,M,M,M,M,M,M,M,M,M,M,34.20,K05U 021015Z AUTO 18006KT 10SM CLR 04/M04 A3012 RMK A01,M
HTH,2022-10-02 10:15,-118.6315,38.5448,1282.89,53.60,32.00,43.61,240.00,4.00,0.00,30.04,M,10.00,M,CLR,M,M,M,M,M,M,M,M,M,M,M,M,M,M,53.60,KHTH 021015Z AUTO 24004KT 10SM CLR 12/00 A3004 RMK A01,M
TMT,2022-10-02 10:15,-117.1971,39.4643,1749.34,30.00,19.40,64.27,340.00,3.00,0.00,30.11,M,10.00,M,CLR,M,M,M,M,M,M,M,M,M,M,M,M,M,M,26.40,KTMT 021015Z AUTO 34003KT 10SM CLR M01/M07 A3011 RMK AO2 T10111070,M
CXP,2022-10-02 10:15,-119.7326,39.1923,1431.00,46.40,32.00,57.00,0.00,0.00,0.00,30.08,M,10.00,M,CLR,M,M,M,M,M,M,M,M,M,M,M,M,M,M,46.40,KCXP 021015Z AUTO 00000KT 10SM CLR 08/00 A3008 RMK AO2,M
BVU,2022-10-02 10:15,-114.8611,35.9475,671.00,73.40,59.00,60.67,0.00,0.00,0.00,29.87,M,10.00,M,CLR,M,M,M,M,M,M,M,M,M,M,M,M,M,M,73.40,KBVU 021015Z AUTO 00000KT 10SM CLR 23/15 A2987 RMK AO2,M
RTS,2022-10-02 10:19,-119.8764,39.6682,1539.00,42.80,30.20,60.79,340.00,4.00,0.00,30.08,M,10.00,M,CLR,M,M,M,M,M,M,M,M,M,M,M,M,M,M,40.03,KRTS 021019Z AUTO 34004KT 10SM CLR 06/M01 A3008 RMK AO2,M
BVU,2022-10-02 10:35,-114.8611,35.9475,671.00,73.40,57.20,56.88,0.00,0.00,0.00,29.87,M,10.00,M,CLR,M,M,M,M,M,M,M,M,M,M,M,M,M,M,73.40,KBVU 021035Z AUTO 00000KT 10SM CLR 23/14 A2987 RMK AO2,M
CXP,2022-10-02 10:35,-119.7326,39.1923,1431.00,44.60,32.00,61.03,0.00,0.00,0.00,30.08,M,10.00,M,CLR,M,M,M,M,M,M,M,M,M,M,M,M,M,M,44.60,KCXP 021035Z AUTO 00000KT 10SM CLR 07/M00 A3008 RMK AO2,M
05U,2022-10-02 10:35,-116.0051,39.6042,1811.23,37.40,24.80,60.04,190.00,5.00,0.00,30.12,M,10.00,M,CLR,M,M,M,M,M,M,M,M,M,M,M,M,M,M,32.81,K05U 021035Z AUTO 19005KT 10SM CLR 03/M04 A3012 RMK A01,M
MEV,2022-10-02 10:35,-119.7500,38.9963,1441.42,37.40,26.60,64.70,0.00,0.00,0.00,30.06,M,10.00,M,FEW,M,M,M,4700.00,M,M,M,M,M,M,M,M,M,M,37.40,KMEV 021035Z AUTO 00000KT 10SM FEW047 03/M03 A3006 RMK AO2,M
BAM,2022-10-02 10:35,-116.8743,40.5990,1382.36,39.20,23.00,51.89,0.00,0.00,0.00,30.07,M,10.00,M,CLR,M,M,M,M,M,M,M,M,M,M,M,M,M,M,39.20,KBAM 021035Z AUTO 00000KT 10SM CLR 04/M05 A3007 RMK AO1,M
HTH,2022-10-02 10:35,-118.6315,38.5448,1282.89,55.40,33.80,43.90,270.00,4.00,0.00,30.04,M,10.00,M,CLR,M,M,M,M,M,M,M,M,M,M,M,M,M,M,55.40,KHTH 021035Z AUTO 27004KT 10SM CLR 13/01 A3004 RMK A01,M
TMT,2022-10-02 10:35,-117.1971,39.4643,1749.34,31.50,21.20,65.30,0.00,0.00,0.00,30.11,M,10.00,M,CLR,M,M,M,M,M,M,M,M,M,M,M,M,M,M,31.50,KTMT 021035Z AUTO 00000KT 10SM CLR 00/M06 A3011 RMK AO2 T10031060,M
RTS,2022-10-02 10:39,-119.8764,39.6682,1539.00,42.80,30.20,60.79,350.00,3.00,0.00,30.08,M,10.00,M,CLR,M,M,M,M,M,M,M,M,M,M,M,M,M,M,41.03,KRTS 021039Z AUTO 35003KT 10SM CLR 06/M01 A3008 RMK AO2,M
P68,2022-10-02 10:53,-116.0056,39.6014,1993.00,38.00,26.10,62.14,200.00,6.00,0.00,30.10,1014.20,M,M,M,M,M,M,M,M,M,M,M,M,M,M,M,M,M,32.64,KP68 021053Z AUTO 20006KT 03/M03 A3010 RMK AO1 SLP142 T00331033,M
DRA,2022-10-02 10:53,-116.0278,36.6206,1009.00,64.00,36.00,35.26,80.00,4.00,0.00,29.93,1009.00,10.00,M,CLR,M,M,M,M,M,M,M,M,M,M,M,M,M,M,64.00,KDRA 021053Z AUTO 08004KT 10SM CLR 18/02 A2993 RMK AO2 SLP090 T01780022,M
ELY,2022-10-02 10:53,-114.8453,39.2950,1909.00,34.00,27.00,75.26,200.00,4.00,0.00,30.13,1014.50,10.00,M,CLR,M,M,M,M,M,M,M,M,M,M,M,M,M,M,29.76,KELY 021053Z AUTO 20004KT 10SM CLR 01/M03 A3013 RMK AO2 SLP145 T00111028,M
VGT,2022-10-02 10:53,-115.1933,36.2111,667.00,74.00,40.00,29.26,320.00,3.00,0.00,29.86,1010.20,10.00,M,CLR,M,M,M,M,M,M,M,M,M,M,M,M,M,M,73.90,KVGT 021053Z AUTO 32003KT 10SM CLR 23/04 A2986 RMK AO2 SLP102 T02330044,M
LOL,2022-10-02 10:53,-118.5701,40.0684,1192.43,39.00,M,M,190.00,7.00,0.00,30.03,1015.00,10.00,M,CLR,M,M,M,M,M,M,M,M,M,M,M,M,M,M,M,KLOL 021053Z AUTO 19007KT 10SM CLR 04/ A3003 RMK AO2 SLP150 T0039 $,M
RNO,2022-10-02 10:55,-119.7711,39.4839,1341.00,50.00,38.00,62.98,0.00,0.00,0.00,30.05,1013.40,10.00,M,CLR,M,M,M,M,M,M,M,M,M,M,M,M,M,M,50.00,KRNO 021055Z 00000KT 10SM CLR 10/03 A3005 RMK AO2 SLP134 T01000033 $,M
HTH,2022-10-02 10:55,-118.6315,38.5448,1282.89,53.60,33.80,46.88,0.00,0.00,0.00,30.04,M,10.00,M,CLR,M,M,M,M,M,M,M,M,M,M,M,M,M,M,53.60,KHTH 021055Z AUTO 00000KT 10SM CLR 12/01 A3004 RMK A01,M
BAM,2022-10-02 10:55,-116.8743,40.5990,1382.36,42.80,26.60,52.45,160.00,3.00,0.00,30.07,M,10.00,M,CLR,M,M,M,M,M,M,M,M,M,M,M,M,M,M,41.03,KBAM 021055Z AUTO 16003KT 10SM CLR 06/M03 A3007 RMK AO1,M
MEV,2022-10-02 10:55,-119.7500,38.9963,1441.42,37.40,26.60,64.70,0.00,0.00,0.00,30.07,M,10.00,M,FEW,M,M,M,4900.00,M,M,M,M,M,M,M,M,M,M,37.40,KMEV 021055Z AUTO 00000KT 10SM FEW049 03/M03 A3007 RMK AO2,M
05U,2022-10-02 10:55,-116.0051,39.6042,1811.23,37.40,26.60,64.70,200.00,6.00,0.00,30.12,M,10.00,M,CLR,M,M,M,M,M,M,M,M,M,M,M,M,M,M,32.03,K05U 021055Z AUTO 20006KT 10SM CLR 03/M03 A3012 RMK A01,M
TMT,2022-10-02 10:55,-117.1971,39.4643,1749.34,30.40,19.60,63.78,0.00,0.00,0.00,30.12,M,10.00,M,CLR,M,M,M,M,M,M,M,M,M,M,M,M,M,M,30.40,KTMT 021055Z AUTO 00000KT 10SM CLR M01/M07 A3012 RMK AO2 T10091069,M
CXP,2022-10-02 10:55,-119.7326,39.1923,1431.00,42.80,32.00,65.38,0.00,0.00,0.00,30.08,M,10.00,M,CLR,M,M,M,M,M,M,M,M,M,M,M,M,M,M,42.80,KCXP 021055Z AUTO 00000KT 10SM CLR 06/M00 A3008 RMK AO2,M
BVU,2022-10-02 10:55,-114.8611,35.9475,671.00,73.40,59.00,60.67,0.00,0.00,0.00,29.87,M,10.00,M,CLR,M,M,M,M,M,M,M,M,M,M,M,M,M,M,73.40,KBVU 021055Z AUTO 00000KT 10SM CLR 23/15 A2987 RMK AO2,M
HND,2022-10-02 10:56,-115.1344,35.9729,742.79,77.00,58.00,51.72,190.00,8.00,0.00,29.90,1011.20,10.00,M,CLR,M,M,M,M,M,M,M,M,M,M,M,M,M,M,77.00,KHND 021056Z AUTO 19008KT 10SM CLR 25/14 A2990 RMK AO2 SLP112 T02500144,M
LSV,2022-10-02 10:56,-115.0343,36.2362,570.00,74.50,54.70,50.07,30.00,6.00,0.00,29.83,1007.60,10.00,M,CLR,M,M,M,M,M,M,M,M,M,M,M,M,M,M,74.50,KLSV 021056Z AUTO 03006KT 10SM CLR 24/13 A2983 RMK AO2 SLP076 T02360126 $,M
LAS,2022-10-02 10:56,-115.1634,36.0719,663.00,78.00,56.00,46.40,190.00,4.00,0.00,29.87,1008.60,10.00,M,CLR,M,M,M,M,M,M,M,M,M,M,M,M,M,M,78.10,KLAS 021056Z 19004KT 10SM CLR 26/13 A2987 RMK AO2 SLP086 T02560133 $,M
TPH,2022-10-02 10:56,-117.0904,38.0505,1654.00,48.00,24.10,38.80,360.00,8.00,0.00,30.07,1012.90,10.00,M,CLR,M,M,M,M,M,M,M,M,M,M,M,M,M,M,43.82,KTPH 021056Z AUTO 36008KT 10SM CLR 09/M04 A3007 RMK AO2 SLP129 T00891044,M
WMC,2022-10-02 10:56,-117.8072,40.9019,1315.00,35.00,23.00,60.99,160.00,7.00,0.00,30.05,1015.50,10.00,M,CLR,M,M,M,M,M,M,M,M,M,M,M,M,M,M,28.56,KWMC 021056Z AUTO 16007KT 10SM CLR 02/M05 A3005 RMK AO2 SLP155 T00171050,M
EKO,2022-10-02 10:56,-115.7860,40.8242,1367.00,40.00,28.00,62.15,80.00,3.00,0.00,30.08,1016.10,10.00,M,CLR,M,M,M,M,M,M,M,M,M,M,M,M,M,M,37.72,KEKO 021056Z AUTO 08003KT 10SM CLR 04/M02 A3008 RMK AO2 SLP161 T00441022,M
NFL,2022-10-02 10:56,-118.7010,39.4166,1199.00,45.00,33.00,62.83,170.00,4.00,0.00,30.02,1013.50,10.00,M,CLR,M,M,M,M,M,M,M,M,M,M,M,M,M,M,42.60,KNFL 021056Z AUTO 17004KT 10SM CLR 07/01 A3002 RMK AO2 SLP135 T00720006,M
INS,2022-10-02 10:56,-115.6733,36.5872,955.00,60.60,35.00,38.05,0.00,0.00,0.00,29.92,1009.00,10.00,M,CLR,M,M,M,M,M,M,M,M,M,M,M,M,M,M,60.60,KINS 021056Z AUTO 00000KT 10SM CLR 16/02 A2992 RMK AO2 SLP090 T01590016 $,M
RTS,2022-10-02 10:59,-119.8764,39.6682,1539.00,42.80,30.20,60.79,340.00,3.00,0.00,30.08,M,10.00,M,CLR,M,M,M,M,M,M,M,M,M,M,M,M,M,M,41.03,KRTS 021059Z AUTO 34003KT 10SM CLR 06/M01 A3008 RMK AO2,M
TMT,2022-10-02 11:15,-117.1971,39.4643,1749.34,27.00,17.20,66.13,0.00,0.00,0.00,30.12,M,10.00,M,CLR,M,M,M,M,M,M,M,M,M,M,M,M,M,M,27.00,KTMT 021115Z AUTO 00000KT 10SM CLR M03/M08 A3012 RMK AO2 T10281082,M
BVU,2022-10-02 11:15,-114.8611,35.9475,671.00,75.20,59.00,57.12,90.00,3.00,0.00,29.88,M,10.00,M,CLR,M,M,M,M,M,M,M,M,M,M,M,M,M,M,75.20,KBVU 021115Z AUTO 09003KT 10SM CLR 24/15 A2988 RMK AO2,M
CXP,2022-10-02 11:15,-119.7326,39.1923,1431.00,42.80,32.00,65.38,0.00,0.00,0.00,30.08,M,10.00,M,CLR,M,M,M,M,M,M,M,M,M,M,M,M,M,M,42.80,KCXP 021115Z AUTO 00000KT 10SM CLR 06/M00 A3008 RMK AO2,M
05U,2022-10-02 11:15,-116.0051,39.6042,1811.23,37.40,26.60,64.70,180.00,6.00,0.00,30.12,M,10.00,M,CLR,M,M,M,M,M,M,M,M,M,M,M,M,M,M,32.03,K05U 021115Z AUTO 18006KT 10SM CLR 03/M03 A3012 RMK A01,M
MEV,2022-10-02 11:15,-119.7500,38.9963,1441.42,35.60,24.80,64.46,0.00,0.00,0.00,30.07,M,10.00,M,SCT,M,M,M,4700.00,M,M,M,M,M,M,M,M,M,M,35.60,KMEV 021115Z AUTO 00000KT 10SM SCT047 02/M04 A3007 RMK AO2,M
BAM,2022-10-02 11:15,-116.8743,40.5990,1382.36,35.60,21.20,55.41,140.00,4.00,0.00,30.08,M,10.00,M,CLR,M,M,M,M,M,M,M,M,M,M,M,M,M,M,31.62,KBAM 021115Z AUTO 14004KT 10SM CLR 02/M06 A3008 RMK AO1,M
HTH,2022-10-02 11:15,-118.6315,38.5448,1282.89,53.60,33.80,46.88,0.00,0.00,0.00,30.04,M,10.00,M,CLR,M,M,M,M,M,M,M,M,M,M,M,M,M,M,53.60,KHTH 021115Z AUTO 00000KT 10SM CLR 12/01 A3004 RMK A01,M
RTS,2022-10-02 11:19,-119.8764,39.6682,1539.00,42.80,30.20,60.79,0.00,0.00,0.00,30.08,M,10.00,M,CLR,M,M,M,M,M,M,M,M,M,M,M,M,M,M,42.80,KRTS 021119Z AUTO 00000KT 10SM CLR 06/M01 A3008 RMK AO2,M
BVU,2022-10-02 11:35,-114.8611,35.9475,671.00,73.40,59.00,60.67,0.00,0.00,0.00,29.88,M,10.00,M,CLR,M,M,M,M,M,M,M,M,M,M,M,M,M,M,73.40,KBVU 021135Z AUTO 00000KT 10SM CLR 23/15 A2988 RMK AO2,M
HTH,2022-10-02 11:35,-118.6315,38.5448,1282.89,51.80,32.00,46.59,230.00,4.00,0.00,30.04,M,10.00,M,CLR,M,M,M,M,M,M,M,M,M,M,M,M,M,M,51.80,KHTH 021135Z AUTO 23004KT 10SM CLR 11/M00 A3004 RMK A01,M
TMT,2022-10-02 11:35,-117.1971,39.4643,1749.34,26.20,16.90,67.47,120.00,5.00,0.00,30.12,M,10.00,M,CLR,M,M,M,M,M,M,M,M,M,M,M,M,M,M,19.51,KTMT 021135Z AUTO 12005KT 10SM CLR M03/M08 A3012 RMK AO2 T10321084,M
BAM,2022-10-02 11:35,-116.8743,40.5990,1382.36,35.60,21.20,55.41,0.00,0.00,0.00,30.08,M,10.00,M,CLR,M,M,M,M,M,M,M,M,M,M,M,M,M,M,35.60,KBAM 021135Z AUTO 00000KT 10SM CLR 02/M06 A3008 RMK AO1,M
05U,2022-10-02 11:35,-116.0051,39.6042,1811.23,39.20,26.60,60.29,180.00,6.00,0.00,30.13,M,10.00,M,CLR,M,M,M,M,M,M,M,M,M,M,M,M,M,M,34.20,K05U 021135Z AUTO 18006KT 10SM CLR 04/M03 A3013 RMK A01,M
CXP,2022-10-02 11:35,-119.7326,39.1923,1431.00,42.80,32.00,65.38,0.00,0.00,0.00,30.08,M,10.00,M,CLR,M,M,M,M,M,M,M,M,M,M,M,M,M,M,42.80,KCXP 021135Z AUTO 00000KT 10SM CLR 06/M00 A3008 RMK AO2,M
MEV,2022-10-02 11:35,-119.7500,38.9963,1441.42,32.00,24.80,74.44,140.00,4.00,0.00,30.07,M,10.00,M,FEW,SCT,M,M,3700.00,4600.00,M,M,M,M,M,M,M,M,M,27.42,KMEV 021135Z AUTO 14004KT 10SM FEW037 SCT046 00/M04 A3007 RMK AO2,M
RTS,2022-10-02 11:39,-119.8764,39.6682,1539.00,42.80,28.40,56.48,320.00,3.00,0.00,30.09,M,10.00,M,CLR,M,M,M,M,M,M,M,M,M,M,M,M,M,M,41.03,KRTS 021139Z AUTO 32003KT 10SM CLR 06/M02 A3009 RMK AO2,M
VGT,2022-10-02 11:53,-115.1933,36.2111,667.00,73.00,41.00,31.47,290.00,6.00,0.00,29.87,1010.70,10.00,M,CLR,M,M,M,M,M,M,M,M,M,M,M,M,M,M,73.00,KVGT 021153Z AUTO 29006KT 10SM CLR 23/05 A2987 RMK AO2 SLP107 T02280050 10283 20228 53006,M
LOL,2022-10-02 11:53,-118.5701,40.0684,1192.43,43.00,M,M,0.00,0.00,0.00,30.04,1015.00,10.00,M,CLR,M,M,M,M,M,M,M,M,M,M,M,M,M,M,M,KLOL 021153Z AUTO 00000KT 10SM CLR 06/ A3004 RMK AO2 SLP150 T0061 10111 20039 53006 $,M
P68,2022-10-02 11:53,-116.0056,39.6014,1993.00,39.00,26.10,59.52,190.00,7.00,0.00,30.11,1014.50,M,M,M,M,M,M,M,M,M,M,M,M,M,M,M,M,M,33.31,KP68 021153Z AUTO 19007KT 04/M03 A3011 RMK AO1 SLP145 T00391033 10061 20028 53004,M
ELY,2022-10-02 11:53,-114.8453,39.2950,1909.00,34.00,28.00,78.43,170.00,5.00,0.00,30.14,1014.80,10.00,M,CLR,M,M,M,M,M,M,M,M,M,M,M,M,M,M,28.77,KELY 021153Z AUTO 17005KT 10SM CLR 01/M02 A3014 RMK AO2 SLP148 T00111022 10089 20006 53005,M
CXP,2022-10-02 11:55,-119.7326,39.1923,1431.00,42.80,32.00,65.38,0.00,0.00,0.00,30.08,M,10.00,M,CLR,M,M,M,M,M,M,M,M,M,M,M,M,M,M,42.80,KCXP 021155Z AUTO 00000KT 10SM CLR 06/00 A3008 RMK AO2,M
HTH,2022-10-02 11:55,-118.6315,38.5448,1282.89,50.00,32.00,49.81,240.00,3.00,0.00,30.05,M,10.00,M,CLR,M,M,M,M,M,M,M,M,M,M,M,M,M,M,50.00,KHTH 021155Z AUTO 24003KT 10SM CLR 10/M00 A3005 RMK A01,M
BAM,2022-10-02 11:55,-116.8743,40.5990,1382.36,35.60,21.20,55.41,0.00,0.00,0.00,30.08,M,10.00,M,CLR,M,M,M,M,M,M,M,M,M,M,M,M,M,M,35.60,KBAM 021155Z AUTO 00000KT 10SM CLR 02/M06 A3008 RMK AO1,M
MEV,2022-10-02 11:55,-119.7500,38.9963,1441.42,35.60,24.80,64.46,0.00,0.00,0.00,30.07,M,10.00,M,FEW,SCT,M,M,4000.00,4800.00,M,M,M,M,M,M,M,M,M,35.60,KMEV 021155Z AUTO 00000KT 10SM FEW040 SCT048 02/M04 A3007 RMK AO2,M
05U,2022-10-02 11:55,-116.0051,39.6042,1811.23,39.20,26.60,60.29,200.00,8.00,0.00,30.13,M,10.00,M,CLR,M,M,M,M,M,M,M,M,M,M,M,M,M,M,32.98,K05U 021155Z AUTO 20008KT 10SM CLR 04/M03 A3013 RMK A01,M
RNO,2022-10-02 11:55,-119.7711,39.4839,1341.00,50.00,37.00,60.79,0.00,0.00,0.00,30.05,1013.60,10.00,M,CLR,M,M,M,M,M,M,M,M,M,M,M,M,M,M,50.00,KRNO 021155Z 00000KT 10SM CLR 10/03 A3005 RMK AO2 SLP136 T01000028 10161 20100 53004 $,M
BVU,2022-10-02 11:55,-114.8611,35.9475,671.00,71.60,59.00,64.48,0.00,0.00,0.00,29.89,M,10.00,M,CLR,M,M,M,M,M,M,M,M,M,M,M,M,M,M,71.60,KBVU 021155Z AUTO 00000KT 10SM CLR 22/15 A2989 RMK AO2,M
TMT,2022-10-02 11:55,-117.1971,39.4643,1749.34,28.20,19.20,68.59,130.00,4.00,0.00,30.13,M,10.00,M,CLR,M,M,M,M,M,M,M,M,M,M,M,M,M,M,22.98,KTMT 021155Z AUTO 13004KT 10SM CLR M02/M07 A3013 RMK AO2 T10211071 10036 21033,M
HND,2022-10-02 11:56,-115.1344,35.9729,742.79,74.00,57.00,55.53,200.00,8.00,0.00,29.91,1011.60,10.00,M,CLR,M,M,M,M,M,M,M,M,M,M,M,M,M,M,73.90,KHND 021156Z AUTO 20008KT 10SM CLR 23/14 A2991 RMK AO2 SLP116 T02330139 10261 20233 53004,M
WMC,2022-10-02 11:56,-117.8072,40.9019,1315.00,35.00,23.00,60.99,0.00,0.00,0.00,30.06,1015.80,10.00,M,CLR,M,M,M,M,M,M,M,M,M,M,M,M,M,M,35.10,KWMC 021156Z AUTO 00000KT 10SM CLR 02/M05 A3006 RMK AO2 SLP158 T00171050 10083 20011 53006,M
LSV,2022-10-02 11:56,-115.0343,36.2362,570.00,74.50,56.70,53.83,20.00,5.00,0.00,29.84,1008.10,10.00,M,CLR,M,M,M,M,M,M,M,M,M,M,M,M,M,M,74.50,KLSV 021156Z AUTO 02005KT 10SM CLR 24/14 A2984 RMK AO2 SLP081 T02360137 10264 20229 53005 $,M
EKO,2022-10-02 11:56,-115.7860,40.8242,1367.00,38.00,28.00,67.20,120.00,3.00,0.00,30.09,1016.60,10.00,M,CLR,M,M,M,M,M,M,M,M,M,M,M,M,M,M,35.43,KEKO 021156Z AUTO 12003KT 10SM CLR 03/M02 A3009 RMK AO2 SLP166 T00331022 10100 20028 53007,M
LAS,2022-10-02 11:56,-115.1634,36.0719,663.00,76.00,56.00,49.91,0.00,0.00,0.00,29.88,1009.10,10.00,M,CLR,M,M,M,M,M,M,M,M,M,M,M,M,M,M,75.90,KLAS 021156Z 00000KT 10SM CLR 24/13 A2988 RMK AO2 SLP091 T02440133 10283 20244 53006 $,M
TPH,2022-10-02 11:56,-117.0904,38.0505,1654.00,48.00,25.00,40.29,10.00,7.00,0.00,30.08,1013.10,10.00,M,CLR,M,M,M,M,M,M,M,M,M,M,M,M,M,M,44.28,KTPH 021156Z AUTO 01007KT 10SM CLR 09/M04 A3008 RMK AO2 SLP131 T00891039 10144 20089 53004,M
NFL,2022-10-02 11:56,-118.7010,39.4166,1199.00,48.00,30.00,49.49,0.00,0.00,0.00,30.03,1013.80,10.00,M,CLR,M,M,M,M,M,M,M,M,M,M,M,M,M,M,48.00,KNFL 021156Z AUTO 00000KT 10SM CLR 09/M01 A3003 RMK AO2 SLP138 T00891011 10128 20072 53005,M
RTS,2022-10-02 11:59,-119.8764,39.6682,1539.00,42.80,30.20,60.79,310.00,3.00,0.00,30.09,M,10.00,M,CLR,M,M,M,M,M,M,M,M,M,M,M,M,M,M,41.03,KRTS 021159Z AUTO 31003KT 10SM CLR 06/M01 A3009 RMK AO2,M
BVU,2022-10-02 12:15,-114.8611,35.9475,671.00,71.60,59.00,64.48,40.00,3.00,0.00,29.89,M,10.00,M,CLR,M,M,M,M,M,M,M,M,M,M,M,M,M,M,71.60,KBVU 021215Z AUTO 04003KT 10SM CLR 22/15 A2989 RMK AO2,M
TMT,2022-10-02 12:15,-117.1971,39.4643,1749.34,28.20,18.70,67.14,0.00,0.00,0.00,30.14,M,10.00,M,CLR,M,M,M,M,M,M,M,M,M,M,M,M,M,M,28.20,KTMT 021215Z AUTO 00000KT 10SM CLR M02/M07 A3014 RMK AO2 T10211074,M
HTH,2022-10-02 12:15,-118.6315,38.5448,1282.89,50.00,32.00,49.81,220.00,3.00,0.00,30.05,M,10.00,M,CLR,M,M,M,M,M,M,M,M,M,M,M,M,M,M,50.00,KHTH 021215Z AUTO 22003KT 10SM CLR 10/M00 A3005 RMK A01,M
BAM,2022-10-02 12:15,-116.8743,40.5990,1382.36,35.60,21.20,55.41,0.00,0.00,0.00,30.09,M,10.00,M,CLR,M,M,M,M,M,M,M,M,M,M,M,M,M,M,35.60,KBAM 021215Z AUTO 00000KT 10SM CLR 02/M06 A3009 RMK AO1,M
MEV,2022-10-02 12:15,-119.7500,38.9963,1441.42,33.80,24.80,69.25,100.00,4.00,0.00,30.08,M,10.00,M,FEW,SCT,M,M,4100.00,4900.00,M,M,M,M,M,M,M,M,M,29.52,KMEV 021215Z AUTO 10004KT 10SM FEW041 SCT049 01/M04 A3008 RMK AO2,M
05U,2022-10-02 12:15,-116.0051,39.6042,1811.23,37.40,24.80,60.04,190.00,5.00,0.00,30.14,M,10.00,M,CLR,M,M,M,M,M,M,M,M,M,M,M,M,M,M,32.81,K05U 021215Z AUTO 19005KT 10SM CLR 03/M04 A3014 RMK A01,M
CXP,2022-10-02 12:15,-119.7326,39.1923,1431.00,42.80,32.00,65.38,0.00,0.00,0.00,30.09,M,10.00,M,CLR,M,M,M,M,M,M,M,M,M,M,M,M,M,M,42.80,KCXP 021215Z AUTO 00000KT 10SM CLR 06/M00 A3009 RMK AO2,M
RTS,2022-10-02 12:19,-119.8764,39.6682,1539.00,42.80,28.40,56.48,0.00,0.00,0.00,30.09,M,10.00,M,CLR,M,M,M,M,M,M,M,M,M,M,M,M,M,M,42.80,KRTS 021219Z AUTO 00000KT 10SM CLR 06/M02 A3009 RMK AO2,M
BVU,2022-10-02 12:35,-114.8611,35.9475,671.00,71.60,59.00,64.48,0.00,0.00,0.00,29.89,M,10.00,M,CLR,M,M,M,M,M,M,M,M,M,M,M,M,M,M,71.60,KBVU 021235Z AUTO 00000KT 10SM CLR 22/15 A2989 RMK AO2,M
05U,2022-10-02 12:35,-116.0051,39.6042,1811.23,37.40,24.80,60.04,200.00,7.00,0.00,30.14,M,10.00,M,CLR,M,M,M,M,M,M,M,M,M,M,M,M,M,M,31.36,K05U 021235Z AUTO 20007KT 10SM CLR 03/M04 A3014 RMK A01,M
CXP,2022-10-02 12:35,-119.7326,39.1923,1431.00,42.80,32.00,65.38,0.00,0.00,0.00,30.10,M,10.00,M,CLR,M,M,M,M,M,M,M,M,M,M,M,M,M,M,42.80,KCXP 021235Z AUTO 00000KT 10SM CLR 06/M00 A3010 RMK AO2,M
MEV,2022-10-02 12:35,-119.7500,38.9963,1441.42,32.00,26.60,80.22,110.00,6.00,0.00,30.08,M,10.00,M,FEW,FEW,M,M,4000.00,5000.00,M,M,M,M,M,M,M,M,M,25.53,KMEV 021235Z AUTO 11006KT 10SM FEW040 FEW050 00/M03 A3008 RMK AO2,M
HTH,2022-10-02 12:35,-118.6315,38.5448,1282.89,50.00,32.00,49.81,220.00,4.00,0.00,30.06,M,10.00,M,CLR,M,M,M,M,M,M,M,M,M,M,M,M,M,M,50.00,KHTH 021235Z AUTO 22004KT 10SM CLR 10/M00 A3006 RMK A01,M
TMT,2022-10-02 12:35,-117.1971,39.4643,1749.34,27.50,18.90,69.69,310.00,3.00,0.00,30.14,M,10.00,M,CLR,M,M,M,M,M,M,M,M,M,M,M,M,M,M,23.54,KTMT 021235Z AUTO 31003KT 10SM CLR M02/M07 A3014 RMK AO2 T10251073,M
BAM,2022-10-02 12:35,-116.8743,40.5990,1382.36,35.60,21.20,55.41,0.00,0.00,0.00,30.09,M,10.00,M,CLR,M,M,M,M,M,M,M,M,M,M,M,M,M,M,35.60,KBAM 021235Z AUTO 00000KT 10SM CLR 02/M06 A3009 RMK AO1,M
RTS,2022-10-02 12:39,-119.8764,39.6682,1539.00,41.00,28.40,60.54,350.00,3.00,0.00,30.10,M,10.00,M,CLR,M,M,M,M,M,M,M,M,M,M,M,M,M,M,38.98,KRTS 021239Z AUTO 35003KT 10SM CLR 05/M02 A3010 RMK AO2,M
DRA,2022-10-02 12:53,-116.0278,36.6206,1009.00,61.00,39.00,44.10,120.00,3.00,0.00,29.95,1009.90,10.00,M,CLR,M,M,M,M,M,M,M,M,M,M,M,M,M,M,61.00,KDRA 021253Z AUTO 12003KT 10SM CLR 16/04 A2995 RMK AO2 SLP099 T01610039,M
LOL,2022-10-02 12:53,-118.5701,40.0684,1192.43,37.00,M,M,120.00,4.00,0.00,30.05,1016.10,10.00,M,CLR,M,M,M,M,M,M,M,M,M,M,M,M,M,M,M,KLOL 021253Z AUTO 12004KT 10SM CLR 03/ A3005 RMK AO2 SLP161 T0028 $,M
VGT,2022-10-02 12:53,-115.1933,36.2111,667.00,72.00,46.00,39.42,330.00,5.00,0.00,29.89,1011.30,10.00,M,CLR,M,M,M,M,M,M,M,M,M,M,M,M,M,M,72.00,KVGT 021253Z 33005KT 10SM CLR 22/08 A2989 RMK AO2 SLP113 T02220078,M
ELY,2022-10-02 12:53,-114.8453,39.2950,1909.00,33.00,28.00,81.30,180.00,7.00,0.00,30.15,1015.70,10.00,M,CLR,M,M,M,M,M,M,M,M,M,M,M,M,M,M,26.12,KELY 021253Z AUTO 18007KT 10SM CLR 01/M02 A3015 RMK AO2 SLP157 T00061022,M
P68,2022-10-02 12:53,-116.0056,39.6014,1993.00,37.00,25.00,61.50,210.00,5.00,0.00,30.12,1015.40,M,M,M,M,M,M,M,M,M,M,M,M,M,M,M,M,M,32.33,KP68 021253Z AUTO 21005KT 03/M04 A3012 RMK AO1 SLP154 T00281039,M
HTH,2022-10-02 12:55,-118.6315,38.5448,1282.89,51.80,32.00,46.59,220.00,4.00,0.00,30.06,M,10.00,M,CLR,M,M,M,M,M,M,M,M,M,M,M,M,M,M,51.80,KHTH 021255Z AUTO 22004KT 10SM CLR 11/00 A3006 RMK A01,M
MEV,2022-10-02 12:55,-119.7500,38.9963,1441.42,32.00,24.80,74.44,110.00,5.00,0.00,30.09,M,10.00,M,FEW,FEW,M,M,4100.00,4800.00,M,M,M,M,M,M,M,M,M,26.40,KMEV 021255Z AUTO 11005KT 10SM FEW041 FEW048 00/M04 A3009 RMK AO2,M
05U,2022-10-02 12:55,-116.0051,39.6042,1811.23,35.60,24.80,64.46,210.00,5.00,0.00,30.15,M,10.00,M,CLR,M,M,M,M,M,M,M,M,M,M,M,M,M,M,30.67,K05U 021255Z AUTO 21005KT 10SM CLR 02/M04 A3015 RMK A01,M
BVU,2022-10-02 12:55,-114.8611,35.9475,671.00,71.60,59.00,64.48,0.00,0.00,0.00,29.90,M,10.00,M,CLR,M,M,M,M,M,M,M,M,M,M,M,M,M,M,71.60,KBVU 021255Z AUTO 00000KT 10SM CLR 22/15 A2990 RMK AO2,M
RNO,2022-10-02 12:55,-119.7711,39.4839,1341.00,48.00,37.00,65.51,0.00,0.00,0.00,30.07,1014.40,10.00,M,CLR,M,M,M,M,M,M,M,M,M,M,M,M,M,M,48.00,KRNO 021255Z 00000KT 10SM CLR 09/03 A3007 RMK AO2 SLP144 T00890028 $,M
CXP,2022-10-02 12:55,-119.7326,39.1923,1431.00,41.00,30.20,65.16,0.00,0.00,0.00,30.10,M,10.00,M,CLR,M,M,M,M,M,M,M,M,M,M,M,M,M,M,41.00,KCXP 021255Z AUTO 00000KT 10SM CLR 05/M01 A3010 RMK AO2,M
TMT,2022-10-02 12:55,-117.1971,39.4643,1749.34,29.70,19.20,64.51,0.00,0.00,0.00,30.15,M,10.00,M,CLR,M,M,M,M,M,M,M,M,M,M,M,M,M,M,29.70,KTMT 021255Z AUTO 00000KT 10SM CLR M01/M07 A3015 RMK AO2 T10131071,M
BAM,2022-10-02 12:55,-116.8743,40.5990,1382.36,35.60,21.20,55.41,0.00,0.00,0.00,30.10,M,10.00,M,CLR,M,M,M,M,M,M,M,M,M,M,M,M,M,M,35.60,KBAM 021255Z AUTO 00000KT 10SM CLR 02/M06 A3010 RMK AO1,M
HND,2022-10-02 12:56,-115.1344,35.9729,742.79,73.00,57.00,57.23,180.00,7.00,0.00,29.93,1012.40,10.00,M,CLR,M,M,M,M,M,M,M,M,M,M,M,M,M,M,73.00,KHND 021256Z AUTO 18007KT 10SM CLR 23/14 A2993 RMK AO2 SLP124 T02280139,M
EKO,2022-10-02 12:56,-115.7860,40.8242,1367.00,34.00,26.10,72.52,0.00,0.00,0.00,30.11,1018.00,10.00,M,CLR,M,M,M,M,M,M,M,M,M,M,M,M,M,M,34.00,KEKO 021256Z AUTO 00000KT 10SM CLR 01/M03 A3011 RMK AO2 SLP180 T00111033,M
WMC,2022-10-02 12:56,-117.8072,40.9019,1315.00,36.00,24.10,61.62,0.00,0.00,0.00,30.07,1016.40,10.00,M,CLR,M,M,M,M,M,M,M,M,M,M,M,M,M,M,36.00,KWMC 021256Z AUTO 00000KT 10SM CLR 02/M04 A3007 RMK AO2 SLP164 T00221044,M
NFL,2022-10-02 12:56,-118.7010,39.4166,1199.00,47.00,30.90,53.50,200.00,3.00,0.00,30.04,1014.30,10.00,M,CLR,M,M,M,M,M,M,M,M,M,M,M,M,M,M,45.72,KNFL 021256Z AUTO 20003KT 10SM CLR 08/M01 A3004 RMK AO2 SLP143 T00831006,M
TPH,2022-10-02 12:56,-117.0904,38.0505,1654.00,46.00,25.00,43.44,360.00,6.00,0.00,30.09,1014.00,10.00,M,CLR,M,M,M,M,M,M,M,M,M,M,M,M,M,M,42.39,KTPH 021256Z AUTO 36006KT 10SM CLR 08/M04 A3009 RMK AO2 SLP140 T00781039,M
LAS,2022-10-02 12:56,-115.1634,36.0719,663.00,75.00,56.00,51.43,0.00,0.00,0.00,29.90,1010.00,10.00,M,CLR,M,M,M,M,M,M,M,M,M,M,M,M,M,M,75.00,KLAS 021256Z 00000KT 10SM CLR 24/13 A2990 RMK AO2 SLP100 T02390133 $,M
LSV,2022-10-02 12:56,-115.0343,36.2362,570.00,72.50,56.80,57.79,50.00,5.00,0.00,29.86,1008.80,10.00,M,CLR,M,M,M,M,M,M,M,M,M,M,M,M,M,M,72.50,KLSV 021256Z AUTO 05005KT 10SM CLR 23/14 A2986 RMK AO2 SLP088 T02250138 $,M
INS,2022-10-02 12:56,-115.6733,36.5872,955.00,58.50,38.80,47.83,0.00,0.00,0.00,29.95,1010.20,10.00,M,CLR,M,M,M,M,M,M,M,M,M,M,M,M,M,M,58.50,KINS 021256Z AUTO 00000KT 10SM CLR 15/04 A2995 RMK AO2 SLP102 T01470038 $,M
RTS,2022-10-02 12:59,-119.8764,39.6682,1539.00,39.20,28.40,64.93,0.00,0.00,0.00,30.11,M,10.00,M,CLR,M,M,M,M,M,M,M,M,M,M,M,M,M,M,39.20,KRTS 021259Z AUTO 00000KT 10SM CLR 04/M02 A3011 RMK AO2,M
MEV,2022-10-02 13:15,-119.7500,38.9963,1441.42,32.00,24.80,74.44,0.00,0.00,0.00,30.09,M,10.00,M,FEW,FEW,M,M,4200.00,4800.00,M,M,M,M,M,M,M,M,M,32.00,KMEV 021315Z AUTO 00000KT 10SM FEW042 FEW048 00/M04 A3009 RMK AO2,M
05U,2022-10-02 13:15,-116.0051,39.6042,1811.23,37.40,24.80,60.04,220.00,5.00,0.00,30.15,M,10.00,M,CLR,M,M,M,M,M,M,M,M,M,M,M,M,M,M,32.81,K05U 021315Z AUTO 22005KT 10SM CLR 03/M04 A3015 RMK A01,M
TMT,2022-10-02 13:15,-117.1971,39.4643,1749.34,27.70,18.70,68.53,0.00,0.00,0.00,30.15,M,10.00,M,CLR,M,M,M,M,M,M,M,M,M,M,M,M,M,M,27.70,KTMT 021315Z AUTO 00000KT 10SM CLR M02/M07 A3015 RMK AO2 T10241074,M
CXP,2022-10-02 13:15,-119.7326,39.1923,1431.00,41.00,32.00,70.08,0.00,0.00,0.00,30.10,M,10.00,M,CLR,M,M,M,M,M,M,M,M,M,M,M,M,M,M,41.00,KCXP 021315Z AUTO 00000KT 10SM CLR 05/M00 A3010 RMK AO2,M
BVU,2022-10-02 13:15,-114.8611,35.9475,671.00,73.40,59.00,60.67,0.00,0.00,0.00,29.91,M,10.00,M,CLR,M,M,M,M,M,M,M,M,M,M,M,M,M,M,73.40,KBVU 021315Z AUTO 00000KT 10SM CLR 23/15 A2991 RMK AO2,M
HTH,2022-10-02 13:15,-118.6315,38.5448,1282.89,50.00,32.00,49.81,240.00,3.00,0.00,30.07,M,10.00,M,CLR,M,M,M,M,M,M,M,M,M,M,M,M,M,M,50.00,KHTH 021315Z AUTO 24003KT 10SM CLR 10/00 A3007 RMK A01,M
BAM,2022-10-02 13:15,-116.8743,40.5990,1382.36,33.80,21.20,59.53,0.00,0.00,0.00,30.11,M,10.00,M,CLR,M,M,M,M,M,M,M,M,M,M,M,M,M,M,33.80,KBAM 021315Z AUTO 00000KT 10SM CLR 01/M06 A3011 RMK AO1,M
RTS,2022-10-02 13:19,-119.8764,39.6682,1539.00,39.20,28.40,64.93,0.00,0.00,0.00,30.11,M,10.00,M,CLR,M,M,M,M,M,M,M,M,M,M,M,M,M,M,39.20,KRTS 021319Z AUTO 00000KT 10SM CLR 04/M02 A3011 RMK AO2,M
BAM,2022-10-02 13:35,-116.8743,40.5990,1382.36,35.60,23.00,59.79,0.00,0.00,0.00,30.11,M,10.00,M,CLR,M,M,M,M,M,M,M,M,M,M,M,M,M,M,35.60,KBAM 021335Z AUTO 00000KT 10SM CLR 02/M05 A3011 RMK AO1,M
HTH,2022-10-02 13:35,-118.6315,38.5448,1282.89,51.80,33.80,50.08,230.00,4.00,0.00,30.08,M,10.00,M,CLR,M,M,M,M,M,M,M,M,M,M,M,M,M,M,51.80,KHTH 021335Z AUTO 23004KT 10SM CLR 11/01 A3008 RMK A01,M
TMT,2022-10-02 13:35,-117.1971,39.4643,1749.34,24.60,16.00,69.35,0.00,0.00,0.00,30.15,M,10.00,M,CLR,M,M,M,M,M,M,M,M,M,M,M,M,M,M,24.60,KTMT 021335Z AUTO 00000KT 10SM CLR M04/M09 A3015 RMK AO2 T10411089,M
BVU,2022-10-02 13:35,-114.8611,35.9475,671.00,71.60,59.00,64.48,340.00,3.00,0.00,29.91,M,10.00,M,CLR,M,M,M,M,M,M,M,M,M,M,M,M,M,M,71.60,KBVU 021335Z AUTO 34003KT 10SM CLR 22/15 A2991 RMK AO2,M
CXP,2022-10-02 13:35,-119.7326,39.1923,1431.00,39.20,32.00,75.16,0.00,0.00,0.00,30.11,M,10.00,M,CLR,M,M,M,M,M,M,M,M,M,M,M,M,M,M,39.20,KCXP 021335Z AUTO 00000KT 10SM CLR 04/M00 A3011 RMK AO2,M
05U,2022-10-02 13:35,-116.0051,39.6042,1811.23,33.80,23.00,64.23,0.00,0.00,0.00,30.16,M,10.00,M,CLR,M,M,M,M,M,M,M,M,M,M,M,M,M,M,33.80,K05U 021335Z AUTO 00000KT 10SM CLR 01/M05 A3016 RMK A01,M
MEV,2022-10-02 13:35,-119.7500,38.9963,1441.42,35.60,28.40,74.80,0.00,0.00,0.00,30.10,M,10.00,M,CLR,M,M,M,M,M,M,M,M,M,M,M,M,M,M,35.60,KMEV 021335Z AUTO 00000KT 10SM CLR 02/M02 A3010 RMK AO2,M
RTS,2022-10-02 13:39,-119.8764,39.6682,1539.00,42.80,30.20,60.79,0.00,0.00,0.00,30.11,M,10.00,M,CLR,M,M,M,M,M,M,M,M,M,M,M,M,M,M,42.80,KRTS 021339Z AUTO 00000KT 10SM CLR 06/M01 A3011 RMK AO2,M
VGT,2022-10-02 13:53,-115.1933,36.2111,667.00,71.00,47.00,42.05,320.00,3.00,0.00,29.91,1012.20,10.00,M,CLR,M,M,M,M,M,M,M,M,M,M,M,M,M,M,71.10,KVGT 021353Z 32003KT 10SM CLR 22/08 A2991 RMK AO2 SLP122 T02170083,M
DRA,2022-10-02 13:53,-116.0278,36.6206,1009.00,61.00,38.00,42.24,0.00,0.00,0.00,29.97,1010.90,10.00,M,CLR,M,M,M,M,M,M,M,M,M,M,M,M,M,M,61.00,KDRA 021353Z AUTO 00000KT 10SM CLR 16/03 A2997 RMK AO2 SLP109 T01610033,M
ELY,2022-10-02 13:53,-114.8453,39.2950,1909.00,33.00,28.00,81.30,170.00,10.00,0.00,30.16,1018.00,10.00,M,CLR,M,M,M,M,M,M,M,M,M,M,M,M,M,M,24.35,KELY 021353Z AUTO 17010KT 10SM CLR 01/M02 A3016 RMK AO2 SLP180 T00061022,M
P68,2022-10-02 13:53,-116.0056,39.6014,1993.00,33.00,23.00,66.06,0.00,0.00,0.00,30.14,1017.50,M,M,M,M,M,M,M,M,M,M,M,M,M,M,M,M,M,33.10,KP68 021353Z AUTO 00000KT 01/M05 A3014 RMK AO1 SLP175 T00061050,M
LOL,2022-10-02 13:53,-118.5701,40.0684,1192.43,40.00,M,M,70.00,4.00,0.00,30.06,1016.70,10.00,M,CLR,M,M,M,M,M,M,M,M,M,M,M,M,M,M,M,KLOL 021353Z AUTO 07004KT 10SM CLR 04/ A3006 RMK AO2 SLP167 T0044 $,M
05U,2022-10-02 13:55,-116.0051,39.6042,1811.23,33.80,23.00,64.23,0.00,0.00,0.00,30.17,M,10.00,M,CLR,M,M,M,M,M,M,M,M,M,M,M,M,M,M,33.80,K05U 021355Z AUTO 00000KT 10SM CLR 01/M05 A3017 RMK A01,M
TMT,2022-10-02 13:55,-117.1971,39.4643,1749.34,27.50,18.50,68.51,0.00,0.00,0.00,30.16,M,10.00,M,CLR,M,M,M,M,M,M,M,M,M,M,M,M,M,M,27.50,KTMT 021355Z AUTO 00000KT 10SM CLR M02/M07 A3016 RMK AO2 T10251075,M
HTH,2022-10-02 13:55,-118.6315,38.5448,1282.89,50.00,32.00,49.81,240.00,4.00,0.00,30.08,M,10.00,M,CLR,M,M,M,M,M,M,M,M,M,M,M,M,M,M,50.00,KHTH 021355Z AUTO 24004KT 10SM CLR 10/00 A3008 RMK A01,M
BAM,2022-10-02 13:55,-116.8743,40.5990,1382.36,35.60,21.20,55.41,220.00,3.00,0.00,30.11,M,10.00,M,CLR,M,M,M,M,M,M,M,M,M,M,M,M,M,M,32.80,KBAM 021355Z AUTO 22003KT 10SM CLR 02/M06 A3011 RMK AO1,M
MEV,2022-10-02 13:55,-119.7500,38.9963,1441.42,33.80,26.60,74.63,0.00,0.00,0.00,30.10,M,10.00,M,CLR,M,M,M,M,M,M,M,M,M,M,M,M,M,M,33.80,KMEV 021355Z AUTO 00000KT 10SM CLR 01/M03 A3010 RMK AO2,M
RNO,2022-10-02 13:55,-119.7711,39.4839,1341.00,47.00,36.00,65.63,0.00,0.00,0.00,30.09,1015.40,10.00,M,CLR,M,M,M,M,M,M,M,M,M,M,M,M,M,M,46.90,KRNO 021355Z 00000KT 10SM CLR 08/02 A3009 RMK AO2 SLP154 T00830022 $,M
CXP,2022-10-02 13:55,-119.7326,39.1923,1431.00,41.00,32.00,70.08,0.00,0.00,0.00,30.12,M,10.00,M,CLR,M,M,M,M,M,M,M,M,M,M,M,M,M,M,41.00,KCXP 021355Z AUTO 00000KT 10SM CLR 05/M00 A3012 RMK AO2,M
BVU,2022-10-02 13:55,-114.8611,35.9475,671.00,71.60,59.00,64.48,360.00,4.00,0.00,29.92,M,10.00,M,CLR,M,M,M,M,M,M,M,M,M,M,M,M,M,M,71.60,KBVU 021355Z AUTO 36004KT 10SM CLR 22/15 A2992 RMK AO2,M
EKO,2022-10-02 13:56,-115.7860,40.8242,1367.00,34.00,26.10,72.52,0.00,0.00,0.00,30.12,1018.90,10.00,M,CLR,M,M,M,M,M,M,M,M,M,M,M,M,M,M,34.00,KEKO 021356Z AUTO 00000KT 10SM CLR 01/M03 A3012 RMK AO2 SLP189 T00111033,M
NFL,2022-10-02 13:56,-118.7010,39.4166,1199.00,43.00,30.90,62.06,0.00,0.00,0.00,30.06,1014.80,10.00,M,CLR,M,M,M,M,M,M,M,M,M,M,M,M,M,M,43.00,KNFL 021356Z AUTO 00000KT 10SM CLR 06/M01 A3006 RMK AO2 SLP148 T00611006,M
HND,2022-10-02 13:56,-115.1344,35.9729,742.79,73.00,57.00,57.23,200.00,7.00,0.00,29.95,1013.20,10.00,M,CLR,M,M,M,M,M,M,M,M,M,M,M,M,M,M,73.00,KHND 021356Z 20007KT 10SM CLR 23/14 A2995 RMK AO2 SLP132 T02280139,M
TPH,2022-10-02 13:56,-117.0904,38.0505,1654.00,46.00,26.10,45.47,20.00,6.00,0.00,30.11,1015.40,10.00,M,CLR,M,M,M,M,M,M,M,M,M,M,M,M,M,M,42.39,KTPH 021356Z AUTO 02006KT 10SM CLR 08/M03 A3011 RMK AO2 SLP154 T00781033,M
LAS,2022-10-02 13:56,-115.1634,36.0719,663.00,75.00,49.00,39.75,270.00,4.00,0.00,29.92,1010.70,10.00,M,CLR,M,M,M,M,M,M,M,M,M,M,M,M,M,M,75.00,KLAS 021356Z 27004KT 10SM CLR 24/09 A2992 RMK AO2 SLP107 T02390094 $,M
INS,2022-10-02 13:56,-115.6733,36.5872,955.00,59.00,37.80,45.18,0.00,0.00,0.00,29.97,1010.90,10.00,M,CLR,M,M,M,M,M,M,M,M,M,M,M,M,M,M,59.00,KINS 021356Z AUTO 00000KT 10SM CLR 15/03 A2997 RMK AO2 SLP109 T01500032 $,M
LSV,2022-10-02 13:56,-115.0343,36.2362,570.00,72.30,58.00,60.97,20.00,4.00,0.00,29.88,1009.60,10.00,M,CLR,M,M,M,M,M,M,M,M,M,M,M,M,M,M,72.30,KLSV 021356Z AUTO 02004KT 10SM CLR 22/15 A2988 RMK AO2 SLP096 T02240145 $,M
WMC,2022-10-02 13:56,-117.8072,40.9019,1315.00,33.00,21.90,63.06,0.00,0.00,0.00,30.09,1017.70,10.00,M,CLR,M,M,M,M,M,M,M,M,M,M,M,M,M,M,33.10,KWMC 021356Z AUTO 00000KT 10SM CLR 01/M06 A3009 RMK AO2 SLP177 T00061056,M
RTS,2022-10-02 13:59,-119.8764,39.6682,1539.00,42.80,32.00,65.38,0.00,0.00,0.00,30.12,M,10.00,M,CLR,M,M,M,M,M,M,M,M,M,M,M,M,M,M,42.80,KRTS 021359Z AUTO 00000KT 10SM CLR 06/M00 A3012 RMK AO2,M
TMT,2022-10-02 14:15,-117.1971,39.4643,1749.34,27.90,18.10,66.24,0.00,0.00,0.00,30.17,M,10.00,M,CLR,M,M,M,M,M,M,M,M,M,M,M,M,M,M,27.90,KTMT 021415Z AUTO 00000KT 10SM CLR M02/M08 A3017 RMK AO2 T10231077,M
BAM,2022-10-02 14:15,-116.8743,40.5990,1382.36,35.60,23.00,59.79,220.00,6.00,0.00,30.11,M,10.00,M,CLR,M,M,M,M,M,M,M,M,M,M,M,M,M,M,29.87,KBAM 021415Z AUTO 22006KT 10SM CLR 02/M05 A3011 RMK AO1,M
HTH,2022-10-02 14:15,-118.6315,38.5448,1282.89,50.00,32.00,49.81,0.00,0.00,0.00,30.09,M,10.00,M,CLR,M,M,M,M,M,M,M,M,M,M,M,M,M,M,50.00,KHTH 021415Z AUTO 00000KT 10SM CLR 10/00 A3009 RMK A01,M
05U,2022-10-02 14:15,-116.0051,39.6042,1811.23,32.00,23.00,69.04,250.00,3.00,0.00,30.18,M,10.00,M,CLR,M,M,M,M,M,M,M,M,M,M,M,M,M,M,28.69,K05U 021415Z AUTO 25003KT 10SM CLR 00/M05 A3018 RMK A01,M
MEV,2022-10-02 14:15,-119.7500,38.9963,1441.42,33.80,28.40,80.36,30.00,3.00,0.00,30.11,M,10.00,M,CLR,M,M,M,M,M,M,M,M,M,M,M,M,M,M,30.75,KMEV 021415Z AUTO 03003KT 10SM CLR 01/M02 A3011 RMK AO2,M
BVU,2022-10-02 14:15,-114.8611,35.9475,671.00,73.40,59.00,60.67,0.00,0.00,0.00,29.93,M,10.00,M,CLR,M,M,M,M,M,M,M,M,M,M,M,M,M,M,73.40,KBVU 021415Z AUTO 00000KT 10SM CLR 23/15 A2993 RMK AO2,M
CXP,2022-10-02 14:15,-119.7326,39.1923,1431.00,41.00,30.20,65.16,0.00,0.00,0.00,30.12,M,10.00,M,CLR,M,M,M,M,M,M,M,M,M,M,M,M,M,M,41.00,KCXP 021415Z AUTO 00000KT 10SM CLR 05/M01 A3012 RMK AO2,M
RTS,2022-10-02 14:19,-119.8764,39.6682,1539.00,42.80,30.20,60.79,0.00,0.00,0.00,30.13,M,10.00,M,CLR,M,M,M,M,M,M,M,M,M,M,M,M,M,M,42.80,KRTS 021419Z AUTO 00000KT 10SM CLR 06/M01 A3013 RMK AO2,M
BVU,2022-10-02 14:35,-114.8611,35.9475,671.00,75.20,60.80,60.90,0.00,0.00,0.00,29.94,M,10.00,M,CLR,M,M,M,M,M,M,M,M,M,M,M,M,M,M,75.20,KBVU 021435Z AUTO 00000KT 10SM CLR 24/16 A2994 RMK AO2,M
CXP,2022-10-02 14:35,-119.7326,39.1923,1431.00,41.00,32.00,70.08,0.00,0.00,0.00,30.13,M,10.00,M,CLR,M,M,M,M,M,M,M,M,M,M,M,M,M,M,41.00,KCXP 021435Z AUTO 00000KT 10SM CLR 05/M00 A3013 RMK AO2,M
05U,2022-10-02 14:35,-116.0051,39.6042,1811.23,39.20,24.80,55.95,0.00,0.00,0.00,30.18,M,10.00,M,CLR,M,M,M,M,M,M,M,M,M,M,M,M,M,M,39.20,K05U 021435Z AUTO 00000KT 10SM CLR 04/M04 A3018 RMK A01,M
MEV,2022-10-02 14:35,-119.7500,38.9963,1441.42,35.60,28.40,74.80,0.00,0.00,0.00,30.11,M,10.00,M,CLR,M,M,M,M,M,M,M,M,M,M,M,M,M,M,35.60,KMEV 021435Z AUTO 00000KT 10SM CLR 02/M02 A3011 RMK AO2,M
BAM,2022-10-02 14:35,-116.8743,40.5990,1382.36,35.60,21.20,55.41,0.00,0.00,0.00,30.12,M,10.00,M,CLR,M,M,M,M,M,M,M,M,M,M,M,M,M,M,35.60,KBAM 021435Z AUTO 00000KT 10SM CLR 02/M06 A3012 RMK AO1,M
HTH,2022-10-02 14:35,-118.6315,38.5448,1282.89,51.80,33.80,50.08,0.00,0.00,0.00,30.10,M,10.00,M,CLR,M,M,M,M,M,M,M,M,M,M,M,M,M,M,51.80,KHTH 021435Z AUTO 00000KT 10SM CLR 11/01 A3010 RMK A01,M
TMT,2022-10-02 14:35,-117.1971,39.4643,1749.34,32.40,21.40,63.51,0.00,0.00,0.00,30.18,M,10.00,M,CLR,M,M,M,M,M,M,M,M,M,M,M,M,M,M,32.40,KTMT 021435Z AUTO 00000KT 10SM CLR 00/M06 A3018 RMK AO2 T00021059,M
RTS,2022-10-02 14:39,-119.8764,39.6682,1539.00,46.40,33.80,61.28,0.00,0.00,0.00,30.14,M,10.00,M,CLR,M,M,M,M,M,M,M,M,M,M,M,M,M,M,46.40,KRTS 021439Z AUTO 00000KT 10SM CLR 08/01 A3014 RMK AO2,M
VGT,2022-10-02 14:53,-115.1933,36.2111,667.00,75.00,49.00,39.75,340.00,5.00,0.00,29.93,1012.90,10.00,M,CLR,M,M,M,M,M,M,M,M,M,M,M,M,M,M,75.00,KVGT 021453Z 34005KT 10SM CLR 24/09 A2993 RMK AO2 SLP129 T02390094 53019,M
P68,2022-10-02 14:53,-116.0056,39.6014,1993.00,42.00,26.10,52.78,180.00,4.00,0.00,30.16,1017.80,M,M,M,M,M,M,M,M,M,M,M,M,M,M,M,M,M,39.21,KP68 021453Z AUTO 18004KT 06/M03 A3016 RMK AO1 SLP178 T00561033 53014,M
LOL,2022-10-02 14:53,-118.5701,40.0684,1192.43,44.00,M,M,0.00,0.00,0.00,30.08,1017.30,10.00,M,CLR,M,M,M,M,M,M,M,M,M,M,M,M,M,M,M,KLOL 021453Z AUTO 00000KT 10SM CLR 07/ A3008 RMK AO2 SLP173 T0067 53014 $,M
DRA,2022-10-02 14:53,-116.0278,36.6206,1009.00,67.00,37.00,33.16,0.00,0.00,0.00,29.99,1011.60,10.00,M,CLR,M,M,M,M,M,M,M,M,M,M,M,M,M,M,66.90,KDRA 021453Z AUTO 00000KT 10SM CLR 19/03 A2999 RMK AO2 SLP116 T01940028 53019,M
ELY,2022-10-02 14:53,-114.8453,39.2950,1909.00,40.00,30.00,67.45,190.00,7.00,0.00,30.18,1017.30,10.00,M,FEW,M,M,M,9500.00,M,M,M,M,M,M,M,M,M,M,34.41,KELY 021453Z AUTO 19007KT 10SM FEW095 04/M01 A3018 RMK AO2 SLP173 T00441011 53011,M
05U,2022-10-02 14:55,-116.0051,39.6042,1811.23,42.80,26.60,52.45,190.00,3.00,0.00,30.19,M,10.00,M,CLR,M,M,M,M,M,M,M,M,M,M,M,M,M,M,41.03,K05U 021455Z AUTO 19003KT 10SM CLR 06/M03 A3019 RMK A01,M
BAM,2022-10-02 14:55,-116.8743,40.5990,1382.36,37.40,21.20,51.61,0.00,0.00,0.00,30.13,M,10.00,M,CLR,M,M,M,M,M,M,M,M,M,M,M,M,M,M,37.40,KBAM 021455Z AUTO 00000KT 10SM CLR 03/M06 A3013 RMK AO1,M
MEV,2022-10-02 14:55,-119.7500,38.9963,1441.42,41.00,30.20,65.16,0.00,0.00,0.00,30.12,M,10.00,M,CLR,M,M,M,M,M,M,M,M,M,M,M,M,M,M,41.00,KMEV 021455Z AUTO 00000KT 10SM CLR 05/M01 A3012 RMK AO2,M
HTH,2022-10-02 14:55,-118.6315,38.5448,1282.89,53.60,33.80,46.88,0.00,0.00,0.00,30.10,M,10.00,M,CLR,M,M,M,M,M,M,M,M,M,M,M,M,M,M,53.60,KHTH 021455Z AUTO 00000KT 10SM CLR 12/01 A3010 RMK A01,M
TMT,2022-10-02 14:55,-117.1971,39.4643,1749.34,36.00,22.60,57.86,0.00,0.00,0.00,30.18,M,10.00,M,CLR,M,M,M,M,M,M,M,M,M,M,M,M,M,M,36.00,KTMT 021455Z AUTO 00000KT 10SM CLR 02/M05 A3018 RMK AO2 T00221052,M
CXP,2022-10-02 14:55,-119.7326,39.1923,1431.00,44.60,33.80,65.61,0.00,0.00,0.00,30.14,M,10.00,M,CLR,M,M,M,M,M,M,M,M,M,M,M,M,M,M,44.60,KCXP 021455Z AUTO 00000KT 10SM CLR 07/01 A3014 RMK AO2,M
RNO,2022-10-02 14:55,-119.7711,39.4839,1341.00,50.00,37.00,60.79,0.00,0.00,0.00,30.10,1015.90,10.00,M,CLR,M,M,M,M,M,M,M,M,M,M,M,M,M,M,50.00,KRNO 021455Z 00000KT 10SM CLR 10/03 A3010 RMK AO2 SLP159 T01000028 53015 $,M
BVU,2022-10-02 14:55,-114.8611,35.9475,671.00,77.00,59.00,53.80,0.00,0.00,0.00,29.95,M,10.00,M,CLR,M,M,M,M,M,M,M,M,M,M,M,M,M,M,77.00,KBVU 021455Z AUTO 00000KT 10SM CLR 25/15 A2995 RMK AO2,M
WMC,2022-10-02 14:56,-117.8072,40.9019,1315.00,40.00,26.10,57.47,0.00,0.00,0.00,30.11,1018.40,10.00,M,CLR,M,M,M,M,M,M,M,M,M,M,M,M,M,M,39.90,KWMC 021456Z AUTO 00000KT 10SM CLR 04/M03 A3011 RMK AO2 SLP184 T00441033 53013,M
INS,2022-10-02 14:56,-115.6733,36.5872,955.00,64.00,37.00,36.81,0.00,0.00,0.00,30.00,1011.90,10.00,M,CLR,M,M,M,M,M,M,M,M,M,M,M,M,M,M,63.90,KINS 021456Z AUTO 00000KT 10SM CLR 18/03 A3000 RMK AO2 SLP119 T01770028 52019 $,M
LSV,2022-10-02 14:56,-115.0343,36.2362,570.00,76.50,60.60,57.91,0.00,0.00,0.00,29.90,1010.30,10.00,M,CLR,M,M,M,M,M,M,M,M,M,M,M,M,M,M,76.50,KLSV 021456Z AUTO 00000KT 10SM CLR 25/16 A2990 RMK AO2 SLP103 T02470159 52021 $,M
HND,2022-10-02 14:56,-115.1344,35.9729,742.79,77.00,58.00,51.72,200.00,5.00,0.00,29.97,1013.90,10.00,M,CLR,M,M,M,M,M,M,M,M,M,M,M,M,M,M,77.00,KHND 021456Z 20005KT 10SM CLR 25/14 A2997 RMK AO2 SLP139 T02500144 53020,M
LAS,2022-10-02 14:56,-115.1634,36.0719,663.00,78.00,50.00,37.36,0.00,0.00,0.00,29.94,1011.50,10.00,M,FEW,M,M,M,15000.00,M,M,M,M,M,M,M,M,M,M,78.10,KLAS 021456Z 00000KT 10SM FEW150 26/10 A2994 RMK AO2 SLP115 T02560100 53020 $,M
TPH,2022-10-02 14:56,-117.0904,38.0505,1654.00,51.00,27.00,38.99,10.00,7.00,0.00,30.13,1016.00,10.00,M,CLR,M,M,M,M,M,M,M,M,M,M,M,M,M,M,51.10,KTPH 021456Z AUTO 01007KT 10SM CLR 11/M03 A3013 RMK AO2 SLP160 T01061028 53016,M
NFL,2022-10-02 14:56,-118.7010,39.4166,1199.00,49.00,30.90,49.63,170.00,4.00,0.00,30.08,1015.40,10.00,M,CLR,M,M,M,M,M,M,M,M,M,M,M,M,M,M,47.16,KNFL 021456Z AUTO 17004KT 10SM CLR 09/M01 A3008 RMK AO2 SLP154 T00941006 53015,M
EKO,2022-10-02 14:56,-115.7860,40.8242,1367.00,39.00,28.00,64.37,90.00,3.00,0.00,30.14,1019.60,10.00,M,CLR,M,M,M,M,M,M,M,M,M,M,M,M,M,M,36.69,KEKO 021456Z AUTO 09003KT 10SM CLR 04/M02 A3014 RMK AO2 SLP196 T00391022 53014,M
RTS,2022-10-02 14:59,-119.8764,39.6682,1539.00,48.20,33.80,57.26,0.00,0.00,0.00,30.14,M,10.00,M,CLR,M,M,M,M,M,M,M,M,M,M,M,M,M,M,48.20,KRTS 021459Z AUTO 00000KT 10SM CLR 09/01 A3014 RMK AO2,M
MEV,2022-10-02 15:15,-119.7500,38.9963,1441.42,44.60,32.00,61.03,0.00,0.00,0.00,30.13,M,10.00,M,CLR,M,M,M,M,M,M,M,M,M,M,M,M,M,M,44.60,KMEV 021515Z AUTO 00000KT 10SM CLR 07/M00 A3013 RMK AO2,M
05U,2022-10-02 15:15,-116.0051,39.6042,1811.23,48.20,26.60,42.73,0.00,0.00,0.00,30.19,M,10.00,M,CLR,M,M,M,M,M,M,M,M,M,M,M,M,M,M,48.20,K05U 021515Z AUTO 00000KT 10SM CLR 09/M03 A3019 RMK A01,M
CXP,2022-10-02 15:15,-119.7326,39.1923,1431.00,48.20,33.80,57.26,0.00,0.00,0.00,30.14,M,10.00,M,CLR,M,M,M,M,M,M,M,M,M,M,M,M,M,M,48.20,KCXP 021515Z AUTO 00000KT 10SM CLR 09/01 A3014 RMK AO2,M
BVU,2022-10-02 15:15,-114.8611,35.9475,671.00,78.80,59.00,50.69,0.00,0.00,0.00,29.95,M,10.00,M,CLR,M,M,M,M,M,M,M,M,M,M,M,M,M,M,78.80,KBVU 021515Z AUTO 00000KT 10SM CLR 26/15 A2995 RMK AO2,M
BAM,2022-10-02 15:15,-116.8743,40.5990,1382.36,42.80,24.80,48.67,0.00,0.00,0.00,30.14,M,10.00,M,CLR,M,M,M,M,M,M,M,M,M,M,M,M,M,M,42.80,KBAM 021515Z AUTO 00000KT 10SM CLR 06/M04 A3014 RMK AO1,M
TMT,2022-10-02 15:15,-117.1971,39.4643,1749.34,40.50,25.00,53.64,0.00,0.00,0.00,30.18,M,10.00,M,CLR,M,M,M,M,M,M,M,M,M,M,M,M,M,M,40.50,KTMT 021515Z AUTO 00000KT 10SM CLR 05/M04 A3018 RMK AO2 T00471039,M
HTH,2022-10-02 15:15,-118.6315,38.5448,1282.89,55.40,33.80,43.90,0.00,0.00,0.00,30.11,M,10.00,M,CLR,M,M,M,M,M,M,M,M,M,M,M,M,M,M,55.40,KHTH 021515Z AUTO 00000KT 10SM CLR 13/01 A3011 RMK A01,M
RTS,2022-10-02 15:19,-119.8764,39.6682,1539.00,53.60,33.80,46.88,0.00,0.00,0.00,30.14,M,10.00,M,CLR,M,M,M,M,M,M,M,M,M,M,M,M,M,M,53.60,KRTS 021519Z AUTO 00000KT 10SM CLR 12/01 A3014 RMK AO2,M
HTH,2022-10-02 15:35,-118.6315,38.5448,1282.89,57.20,33.80,41.13,310.00,3.00,0.00,30.11,M,10.00,M,CLR,M,M,M,M,M,M,M,M,M,M,M,M,M,M,57.20,KHTH 021535Z AUTO 31003KT 10SM CLR 14/01 A3011 RMK A01,M
TMT,2022-10-02 15:35,-117.1971,39.4643,1749.34,43.30,26.10,50.40,0.00,0.00,0.00,30.18,M,10.00,M,CLR,M,M,M,M,M,M,M,M,M,M,M,M,M,M,43.30,KTMT 021535Z AUTO 00000KT 10SM CLR 06/M03 A3018 RMK AO2 T00631033,M
BAM,2022-10-02 15:35,-116.8743,40.5990,1382.36,46.40,26.60,45.73,0.00,0.00,0.00,30.14,M,10.00,M,CLR,M,M,M,M,M,M,M,M,M,M,M,M,M,M,46.40,KBAM 021535Z AUTO 00000KT 10SM CLR 08/M03 A3014 RMK AO1,M
CXP,2022-10-02 15:35,-119.7326,39.1923,1431.00,50.00,33.80,53.54,0.00,0.00,0.00,30.15,M,10.00,M,CLR,M,M,M,M,M,M,M,M,M,M,M,M,M,M,50.00,KCXP 021535Z AUTO 00000KT 10SM CLR 10/01 A3015 RMK AO2,M
BVU,2022-10-02 15:35,-114.8611,35.9475,671.00,78.80,59.00,50.69,0.00,0.00,0.00,29.96,M,10.00,M,CLR,M,M,M,M,M,M,M,M,M,M,M,M,M,M,78.80,KBVU 021535Z AUTO 00000KT 10SM CLR 26/15 A2996 RMK AO2,M
05U,2022-10-02 15:35,-116.0051,39.6042,1811.23,51.80,28.40,40.25,0.00,0.00,0.00,30.18,M,10.00,M,CLR,M,M,M,M,M,M,M,M,M,M,M,M,M,M,51.80,K05U 021535Z AUTO 00000KT 10SM CLR 11/M02 A3018 RMK A01,M
MEV,2022-10-02 15:35,-119.7500,38.9963,1441.42,48.20,33.80,57.26,0.00,0.00,0.00,30.13,M,10.00,M,CLR,M,M,M,M,M,M,M,M,M,M,M,M,M,M,48.20,KMEV 021535Z AUTO 00000KT 10SM CLR 09/01 A3013 RMK AO2,M
RTS,2022-10-02 15:39,-119.8764,39.6682,1539.00,55.40,32.00,40.84,0.00,0.00,0.00,30.14,M,10.00,M,CLR,M,M,M,M,M,M,M,M,M,M,M,M,M,M,55.40,KRTS 021539Z AUTO 00000KT 10SM CLR 13/00 A3014 RMK AO2,M
DRA,2022-10-02 15:53,-116.0278,36.6206,1009.00,73.00,39.00,29.12,280.00,3.00,0.00,30.01,1012.00,10.00,M,CLR,M,M,M,M,M,M,M,M,M,M,M,M,M,M,73.00,KDRA 021553Z AUTO 28003KT 10SM CLR 23/04 A3001 RMK AO2 SLP120 T02280039,M
VGT,2022-10-02 15:53,-115.1933,36.2111,667.00,80.00,54.00,40.54,100.00,5.00,0.00,29.95,1013.40,10.00,M,CLR,M,M,M,M,M,M,M,M,M,M,M,M,M,M,80.04,KVGT 021553Z 10005KT 10SM CLR 27/12 A2995 RMK AO2 SLP134 T02670122,M
LOL,2022-10-02 15:53,-118.5701,40.0684,1192.43,52.00,M,M,0.00,0.00,0.00,30.10,1017.50,10.00,M,CLR,M,M,M,M,M,M,M,M,M,M,M,M,M,M,M,KLOL 021553Z AUTO 00000KT 10SM CLR 11/ A3010 RMK AO2 SLP175 T0111 $,M
ELY,2022-10-02 15:53,-114.8453,39.2950,1909.00,50.00,33.00,52.06,190.00,4.00,0.00,30.19,1016.70,10.00,M,CLR,M,M,M,M,M,M,M,M,M,M,M,M,M,M,50.00,KELY 021553Z AUTO 19004KT 10SM CLR 10/01 A3019 RMK AO2 SLP167 T01000006,M
P68,2022-10-02 15:53,-116.0056,39.6014,1993.00,53.00,28.00,37.74,0.00,0.00,0.00,30.16,1017.30,M,M,M,M,M,M,M,M,M,M,M,M,M,M,M,M,M,53.10,KP68 021553Z AUTO 00000KT 12/M02 A3016 RMK AO1 SLP173 T01171022,M
RNO,2022-10-02 15:55,-119.7711,39.4839,1341.00,55.00,39.00,54.70,0.00,0.00,0.00,30.12,1016.40,10.00,M,CLR,M,M,M,M,M,M,M,M,M,M,M,M,M,M,55.00,KRNO 021555Z 00000KT 10SM CLR 13/04 A3012 RMK AO2 SLP164 T01280039 $,M
BVU,2022-10-02 15:55,-114.8611,35.9475,671.00,80.60,59.00,47.79,0.00,0.00,0.00,29.97,M,10.00,M,CLR,M,M,M,M,M,M,M,M,M,M,M,M,M,M,81.11,KBVU 021555Z AUTO 00000KT 10SM CLR 27/15 A2997 RMK AO2,M
CXP,2022-10-02 15:55,-119.7326,39.1923,1431.00,51.80,33.80,50.08,0.00,0.00,0.00,30.15,M,10.00,M,CLR,M,M,M,M,M,M,M,M,M,M,M,M,M,M,51.80,KCXP 021555Z AUTO 00000KT 10SM CLR 11/01 A3015 RMK AO2,M
05U,2022-10-02 15:55,-116.0051,39.6042,1811.23,55.40,28.40,35.28,0.00,0.00,0.00,30.19,M,10.00,M,CLR,M,M,M,M,M,M,M,M,M,M,M,M,M,M,55.40,K05U 021555Z AUTO 00000KT 10SM CLR 13/M02 A3019 RMK A01,M
MEV,2022-10-02 15:55,-119.7500,38.9963,1441.42,50.00,33.80,53.54,0.00,0.00,0.00,30.13,M,10.00,M,CLR,M,M,M,M,M,M,M,M,M,M,M,M,M,M,50.00,KMEV 021555Z AUTO 00000KT 10SM CLR 10/01 A3013 RMK AO2,M
BAM,2022-10-02 15:55,-116.8743,40.5990,1382.36,50.00,28.40,43.03,0.00,0.00,0.00,30.14,M,10.00,M,CLR,M,M,M,M,M,M,M,M,M,M,M,M,M,M,50.00,KBAM 021555Z AUTO 00000KT 10SM CLR 10/M02 A3014 RMK AO1,M
HTH,2022-10-02 15:55,-118.6315,38.5448,1282.89,57.20,33.80,41.13,320.00,4.00,0.00,30.12,M,10.00,M,CLR,M,M,M,M,M,M,M,M,M,M,M,M,M,M,57.20,KHTH 021555Z AUTO 32004KT 10SM CLR 14/01 A3012 RMK A01,M
TMT,2022-10-02 15:55,-117.1971,39.4643,1749.34,46.40,26.80,46.11,0.00,0.00,0.00,30.18,M,10.00,M,CLR,M,M,M,M,M,M,M,M,M,M,M,M,M,M,46.40,KTMT 021555Z AUTO 00000KT 10SM CLR 08/M03 A3018 RMK AO2 LTG DSNT E T00801029,M
LAS,2022-10-02 15:56,-115.1634,36.0719,663.00,80.00,54.00,40.54,310.00,3.00,0.00,29.96,1012.00,10.00,M,FEW,FEW,M,M,10000.00,15000.00,M,M,M,M,M,M,M,M,M,80.04,KLAS 021556Z 31003KT 10SM FEW100 FEW150 27/12 A2996 RMK AO2 SLP120 T02670122 $,M
LSV,2022-10-02 15:56,-115.0343,36.2362,570.00,84.40,60.60,44.73,0.00,0.00,0.00,29.92,1010.80,10.00,M,CLR,M,M,M,M,M,M,M,M,M,M,M,M,M,M,84.55,KLSV 021556Z AUTO 00000KT 10SM CLR 29/16 A2992 RMK AO2 SLP108 T02910159 $,M
HND,2022-10-02 15:56,-115.1344,35.9729,742.79,81.00,57.00,43.90,210.00,6.00,0.00,29.99,1014.50,10.00,M,CLR,M,M,M,M,M,M,M,M,M,M,M,M,M,M,81.05,KHND 021556Z 21006KT 10SM CLR 27/14 A2999 RMK AO2 SLP145 T02720139,M
INS,2022-10-02 15:56,-115.6733,36.5872,955.00,70.20,36.30,28.80,0.00,0.00,0.00,30.01,1012.10,10.00,M,CLR,M,M,M,M,M,M,M,M,M,M,M,M,M,M,70.20,KINS 021556Z AUTO 00000KT 10SM CLR 21/02 A3001 RMK AO2 SLP121 T02120024 $,M
EKO,2022-10-02 15:56,-115.7860,40.8242,1367.00,48.00,30.00,49.49,0.00,0.00,0.00,30.15,1019.50,10.00,M,CLR,M,M,M,M,M,M,M,M,M,M,M,M,M,M,48.00,KEKO 021556Z AUTO 00000KT 10SM CLR 09/M01 A3015 RMK AO2 SLP195 T00891011,M
NFL,2022-10-02 15:56,-118.7010,39.4166,1199.00,55.00,35.00,46.91,200.00,3.00,0.00,30.10,1015.90,10.00,M,CLR,M,M,M,M,M,M,M,M,M,M,M,M,M,M,55.00,KNFL 021556Z AUTO 20003KT 10SM CLR 13/02 A3010 RMK AO2 SLP159 T01280017,M
TPH,2022-10-02 15:56,-117.0904,38.0505,1654.00,57.00,27.00,31.43,100.00,3.00,0.00,30.15,1016.50,10.00,M,CLR,M,M,M,M,M,M,M,M,M,M,M,M,M,M,57.00,KTPH 021556Z AUTO 10003KT 10SM CLR 14/M03 A3015 RMK AO2 SLP165 T01391028,M
WMC,2022-10-02 15:56,-117.8072,40.9019,1315.00,52.00,30.90,44.24,0.00,0.00,0.00,30.12,1018.40,10.00,M,CLR,M,M,M,M,M,M,M,M,M,M,M,M,M,M,52.00,KWMC 021556Z AUTO 00000KT 10SM CLR 11/M01 A3012 RMK AO2 SLP184 T01111006,M
RTS,2022-10-02 15:59,-119.8764,39.6682,1539.00,57.20,33.80,41.13,0.00,0.00,0.00,30.15,M,10.00,M,CLR,M,M,M,M,M,M,M,M,M,M,M,M,M,M,57.20,KRTS 021559Z AUTO 00000KT 10SM CLR 14/01 A3015 RMK AO2,M
BVU,2022-10-02 16:15,-114.8611,35.9475,671.00,80.60,59.00,47.79,0.00,0.00,0.00,29.97,M,10.00,M,CLR,M,M,M,M,M,M,M,M,M,M,M,M,M,M,81.11,KBVU 021615Z AUTO 00000KT 10SM CLR 27/15 A2997 RMK AO2,M
05U,2022-10-02 16:15,-116.0051,39.6042,1811.23,57.20,28.40,33.05,0.00,0.00,0.00,30.19,M,10.00,M,CLR,M,M,M,M,M,M,M,M,M,M,M,M,M,M,57.20,K05U 021615Z AUTO 00000KT 10SM CLR 14/M02 A3019 RMK A01,M
CXP,2022-10-02 16:15,-119.7326,39.1923,1431.00,55.40,33.80,43.90,0.00,0.00,0.00,30.15,M,10.00,M,CLR,M,M,M,M,M,M,M,M,M,M,M,M,M,M,55.40,KCXP 021615Z AUTO 00000KT 10SM CLR 13/01 A3015 RMK AO2,M
TMT,2022-10-02 16:15,-117.1971,39.4643,1749.34,49.30,28.20,43.80,350.00,3.00,0.00,30.18,M,10.00,M,CLR,M,M,M,M,M,M,M,M,M,M,M,M,M,M,48.47,KTMT 021615Z AUTO 35003KT 10SM CLR 10/M02 A3018 RMK AO2 T00961021,M
HTH,2022-10-02 16:15,-118.6315,38.5448,1282.89,59.00,33.80,38.56,330.00,3.00,0.00,30.12,M,10.00,M,CLR,M,M,M,M,M,M,M,M,M,M,M,M,M,M,59.00,KHTH 021615Z AUTO 33003KT 10SM CLR 15/01 A3012 RMK A01,M
BAM,2022-10-02 16:15,-116.8743,40.5990,1382.36,51.80,28.40,40.25,0.00,0.00,0.00,30.15,M,10.00,M,CLR,M,M,M,M,M,M,M,M,M,M,M,M,M,M,51.80,KBAM 021615Z AUTO 00000KT 10SM CLR 11/M02 A3015 RMK AO1,M
MEV,2022-10-02 16:15,-119.7500,38.9963,1441.42,53.60,33.80,46.88,0.00,0.00,0.00,30.13,M,10.00,M,CLR,M,M,M,M,M,M,M,M,M,M,M,M,M,M,53.60,KMEV 021615Z AUTO 00000KT 10SM CLR 12/01 A3013 RMK AO2,M
RTS,2022-10-02 16:19,-119.8764,39.6682,1539.00,59.00,33.80,38.56,0.00,0.00,0.00,30.15,M,10.00,M,CLR,M,M,M,M,M,M,M,M,M,M,M,M,M,M,59.00,KRTS 021619Z AUTO 00000KT 10SM CLR 15/01 A3015 RMK AO2,M
NFL,2022-10-02 16:35,-118.7010,39.4166,1199.00,60.00,34.00,37.37,0.00,0.00,0.00,30.10,M,10.00,M,FEW,M,M,M,20000.00,M,M,M,M,M,M,M,M,M,M,60.10,KNFL 021635Z 00000KT 10SM FEW200 16/01 A3010 RMK AO2 T01560011,M
TMT,2022-10-02 16:35,-117.1971,39.4643,1749.34,51.00,28.90,42.16,0.00,0.00,0.00,30.18,M,10.00,M,CLR,M,M,M,M,M,M,M,M,M,M,M,M,M,M,51.10,KTMT 021635Z AUTO 00000KT 10SM CLR 11/M02 A3018 RMK AO2 T01061017,M
HTH,2022-10-02 16:35,-118.6315,38.5448,1282.89,60.80,35.60,38.85,330.00,3.00,0.00,30.12,M,10.00,M,CLR,M,M,M,M,M,M,M,M,M,M,M,M,M,M,60.80,KHTH 021635Z AUTO 33003KT 10SM CLR 16/02 A3012 RMK A01,M
BAM,2022-10-02 16:35,-116.8743,40.5990,1382.36,53.60,30.20,40.54,0.00,0.00,0.00,30.15,M,10.00,M,CLR,M,M,M,M,M,M,M,M,M,M,M,M,M,M,53.60,KBAM 021635Z AUTO 00000KT 10SM CLR 12/M01 A3015 RMK AO1,M
MEV,2022-10-02 16:35,-119.7500,38.9963,1441.42,57.20,33.80,41.13,0.00,0.00,0.00,30.13,M,10.00,M,CLR,M,M,M,M,M,M,M,M,M,M,M,M,M,M,57.20,KMEV 021635Z AUTO 00000KT 10SM CLR 14/01 A3013 RMK AO2,M
05U,2022-10-02 16:35,-116.0051,39.6042,1811.23,60.80,28.40,29.06,0.00,0.00,0.00,30.20,M,10.00,M,CLR,M,M,M,M,M,M,M,M,M,M,M,M,M,M,60.80,K05U 021635Z AUTO 00000KT 10SM CLR 16/M02 A3020 RMK A01,M
CXP,2022-10-02 16:35,-119.7326,39.1923,1431.00,57.20,33.80,41.13,0.00,0.00,0.00,30.15,M,10.00,M,CLR,M,M,M,M,M,M,M,M,M,M,M,M,M,M,57.20,KCXP 021635Z AUTO 00000KT 10SM CLR 14/01 A3015 RMK AO2,M
BVU,2022-10-02 16:35,-114.8611,35.9475,671.00,82.40,59.00,45.07,150.00,5.00,0.00,29.97,M,10.00,M,CLR,M,M,M,M,M,M,M,M,M,M,M,M,M,M,82.46,KBVU 021635Z AUTO 15005KT 10SM CLR 28/15 A2997 RMK AO2,M
RTS,2022-10-02 16:39,-119.8764,39.6682,1539.00,62.60,33.80,33.93,M,3.00,0.00,30.15,M,10.00,M,CLR,M,M,M,M,M,M,M,M,M,M,M,M,M,M,62.60,KRTS 021639Z AUTO VRB03KT 10SM CLR 17/01 A3015 RMK AO2,M
ELY,2022-10-02 16:53,-114.8453,39.2950,1909.00,58.00,33.00,39.00,0.00,0.00,0.00,30.19,1015.50,10.00,M,CLR,M,M,M,M,M,M,M,M,M,M,M,M,M,M,57.90,KELY 021653Z AUTO 00000KT 10SM CLR 14/01 A3019 RMK AO2 SLP155 T01440006,M
DRA,2022-10-02 16:53,-116.0278,36.6206,1009.00,79.00,40.00,24.70,280.00,3.00,0.00,30.02,1012.20,10.00,M,CLR,M,M,M,M,M,M,M,M,M,M,M,M,M,M,79.00,KDRA 021653Z AUTO 28003KT 10SM CLR 26/04 A3002 RMK AO2 SLP122 T02610044,M
LOL,2022-10-02 16:53,-118.5701,40.0684,1192.43,61.00,M,M,330.00,4.00,0.00,30.10,1017.10,10.00,M,CLR,M,M,M,M,M,M,M,M,M,M,M,M,M,M,M,KLOL 021653Z AUTO 33004KT 10SM CLR 16/ A3010 RMK AO2 SLP171 T0161 $,M
P68,2022-10-02 16:53,-116.0056,39.6014,1993.00,60.00,28.90,30.41,30.00,3.00,0.00,30.17,1017.10,M,M,M,M,M,M,M,M,M,M,M,M,M,M,M,M,M,60.10,KP68 021653Z AUTO 03003KT 16/M02 A3017 RMK AO1 SLP171 T01561017,M
VGT,2022-10-02 16:53,-115.1933,36.2111,667.00,83.00,55.00,38.38,120.00,5.00,0.00,29.96,1013.70,10.00,M,CLR,M,M,M,M,M,M,M,M,M,M,M,M,M,M,82.03,KVGT 021653Z 12005KT 10SM CLR 28/13 A2996 RMK AO2 SLP137 T02830128,M
MEV,2022-10-02 16:55,-119.7500,38.9963,1441.42,59.00,33.80,38.56,250.00,3.00,0.00,30.13,M,10.00,M,CLR,M,M,M,M,M,M,M,M,M,M,M,M,M,M,59.00,KMEV 021655Z AUTO 25003KT 10SM CLR 15/01 A3013 RMK AO2,M
CXP,2022-10-02 16:55,-119.7326,39.1923,1431.00,59.00,33.80,38.56,0.00,0.00,0.00,30.15,M,10.00,M,CLR,M,M,M,M,M,M,M,M,M,M,M,M,M,M,59.00,KCXP 021655Z AUTO 00000KT 10SM CLR 15/01 A3015 RMK AO2,M
BVU,2022-10-02 16:55,-114.8611,35.9475,671.00,84.20,59.00,42.52,150.00,7.00,0.00,29.97,M,10.00,M,CLR,M,M,M,M,M,M,M,M,M,M,M,M,M,M,83.92,KBVU 021655Z AUTO 15007KT 10SM CLR 29/15 A2997 RMK AO2,M
RNO,2022-10-02 16:55,-119.7711,39.4839,1341.00,60.00,38.00,43.61,0.00,0.00,0.00,30.12,1016.30,10.00,M,CLR,M,M,M,M,M,M,M,M,M,M,M,M,M,M,60.10,KRNO 021655Z 00000KT 10SM CLR 16/03 A3012 RMK AO2 SLP163 T01560033 $,M
BAM,2022-10-02 16:55,-116.8743,40.5990,1382.36,55.40,30.20,37.97,0.00,0.00,0.00,30.15,M,10.00,M,CLR,M,M,M,M,M,M,M,M,M,M,M,M,M,M,55.40,KBAM 021655Z AUTO 00000KT 10SM CLR 13/M01 A3015 RMK AO1,M
05U,2022-10-02 16:55,-116.0051,39.6042,1811.23,60.80,28.40,29.06,50.00,3.00,0.00,30.20,M,10.00,M,CLR,M,M,M,M,M,M,M,M,M,M,M,M,M,M,60.80,K05U 021655Z AUTO 05003KT 10SM CLR 16/M02 A3020 RMK A01,M
TMT,2022-10-02 16:55,-117.1971,39.4643,1749.34,M,M,M,0.00,0.00,0.00,30.18,M,10.00,M,CLR,M,M,M,M,M,M,M,M,M,M,M,M,M,M,M,KTMT 021655Z AUTO 00000KT 10SM CLR A3018 RMK AO2,M
HTH,2022-10-02 16:55,-118.6315,38.5448,1282.89,62.60,37.40,39.14,320.00,3.00,0.00,30.12,M,10.00,M,CLR,M,M,M,M,M,M,M,M,M,M,M,M,M,M,62.60,KHTH 021655Z AUTO 32003KT 10SM CLR 17/03 A3012 RMK A01,M
TPH,2022-10-02 16:56,-117.0904,38.0505,1654.00,62.00,27.00,26.20,0.00,0.00,0.00,30.16,1016.00,10.00,M,CLR,M,M,M,M,M,M,M,M,M,M,M,M,M,M,62.10,KTPH 021656Z AUTO 00000KT 10SM CLR 17/M03 A3016 RMK AO2 SLP160 T01671028,M
LSV,2022-10-02 16:56,-115.0343,36.2362,570.00,88.70,59.00,36.84,0.00,0.00,0.00,29.93,1011.00,10.00,M,CLR,M,M,M,M,M,M,M,M,M,M,M,M,M,M,87.98,KLSV 021656Z AUTO 00000KT 10SM CLR 32/15 A2993 RMK AO2 SLP110 T03150150 $,M
INS,2022-10-02 16:56,-115.6733,36.5872,955.00,73.60,35.60,24.96,0.00,0.00,0.00,30.02,1012.50,10.00,M,CLR,M,M,M,M,M,M,M,M,M,M,M,M,M,M,73.60,KINS 021656Z AUTO 00000KT 10SM CLR 23/02 A3002 RMK AO2 SLP125 T02310020 $,M
WMC,2022-10-02 16:56,-117.8072,40.9019,1315.00,62.00,34.00,34.81,50.00,6.00,0.00,30.12,1017.70,10.00,M,CLR,M,M,M,M,M,M,M,M,M,M,M,M,M,M,62.10,KWMC 021656Z AUTO 05006KT 10SM CLR 17/01 A3012 RMK AO2 SLP177 T01670011,M
LAS,2022-10-02 16:56,-115.1634,36.0719,663.00,85.00,56.00,37.18,120.00,6.00,0.00,29.97,1012.20,10.00,M,FEW,FEW,SCT,M,10000.00,15000.00,25000.00,M,M,M,M,M,M,M,M,83.74,KLAS 021656Z 12006KT 10SM FEW100 FEW150 SCT250 29/13 A2997 RMK AO2 SLP122 T02940133 $,M
EKO,2022-10-02 16:56,-115.7860,40.8242,1367.00,54.00,30.90,41.11,0.00,0.00,0.00,30.15,1019.00,10.00,M,CLR,M,M,M,M,M,M,M,M,M,M,M,M,M,M,54.00,KEKO 021656Z AUTO 00000KT 10SM CLR 12/M01 A3015 RMK AO2 SLP190 T01221006,M
HND,2022-10-02 16:56,-115.1344,35.9729,742.79,85.00,56.00,37.18,240.00,8.00,0.00,30.00,1014.70,10.00,M,CLR,M,M,M,M,M,M,M,M,M,M,M,M,M,M,83.74,KHND 021656Z 24008KT 10SM CLR 29/13 A3000 RMK AO2 SLP147 T02940133,M
NFL,2022-10-02 16:56,-118.7010,39.4166,1199.00,63.00,32.00,31.12,0.00,0.00,0.00,30.10,1016.00,10.00,M,FEW,M,M,M,20000.00,M,M,M,M,M,M,M,M,M,M,63.00,KNFL 021656Z 00000KT 10SM FEW200 17/00 A3010 RMK AO2 SLP160 T01720000,M
RTS,2022-10-02 16:59,-119.8764,39.6682,1539.00,64.40,33.80,31.85,M,4.00,0.00,30.15,M,10.00,M,CLR,M,M,M,M,M,M,M,M,M,M,M,M,M,M,64.40,KRTS 021659Z AUTO VRB04KT 10SM CLR 18/01 A3015 RMK AO2,M
CXP,2022-10-02 17:15,-119.7326,39.1923,1431.00,60.80,33.80,36.16,0.00,0.00,0.00,30.15,M,10.00,M,CLR,M,M,M,M,M,M,M,M,M,M,M,M,M,M,60.80,KCXP 021715Z AUTO 00000KT 10SM CLR 16/01 A3015 RMK AO2,M
BVU,2022-10-02 17:15,-114.8611,35.9475,671.00,84.20,59.00,42.52,M,6.00,0.00,29.96,M,10.00,M,CLR,M,M,M,M,M,M,M,M,M,M,M,M,M,M,83.92,KBVU 021715Z AUTO VRB06KT 10SM CLR 29/15 A2996 RMK AO2 LTG DSNT NE,M
05U,2022-10-02 17:15,-116.0051,39.6042,1811.23,62.60,30.20,29.35,0.00,0.00,0.00,30.20,M,10.00,M,CLR,M,M,M,M,M,M,M,M,M,M,M,M,M,M,62.60,K05U 021715Z AUTO 00000KT 10SM CLR 17/M01 A3020 RMK A01,M
MEV,2022-10-02 17:15,-119.7500,38.9963,1441.42,60.80,33.80,36.16,0.00,0.00,0.00,30.13,M,10.00,M,CLR,M,M,M,M,M,M,M,M,M,M,M,M,M,M,60.80,KMEV 021715Z AUTO 00000KT 10SM CLR 16/01 A3013 RMK AO2,M
BAM,2022-10-02 17:15,-116.8743,40.5990,1382.36,59.00,32.00,35.87,0.00,0.00,0.00,30.15,M,10.00,M,CLR,M,M,M,M,M,M,M,M,M,M,M,M,M,M,59.00,KBAM 021715Z AUTO 00000KT 10SM CLR 15/00 A3015 RMK AO1,M
HTH,2022-10-02 17:15,-118.6315,38.5448,1282.89,62.60,37.40,39.14,340.00,3.00,0.00,30.12,M,10.00,M,M,M,M,M,M,M,M,M,M,M,M,M,M,M,M,62.60,KHTH 021715Z AUTO 34003KT 10SM 17/03 A3012 RMK A01,M
TMT,2022-10-02 17:15,-117.1971,39.4643,1749.34,M,M,M,0.00,0.00,0.00,30.18,M,10.00,M,CLR,M,M,M,M,M,M,M,M,M,M,M,M,M,M,M,KTMT 021715Z AUTO 00000KT 10SM CLR A3018 RMK AO2,M
RTS,2022-10-02 17:19,-119.8764,39.6682,1539.00,64.40,33.80,31.85,100.00,3.00,0.00,30.14,M,10.00,M,CLR,M,M,M,M,M,M,M,M,M,M,M,M,M,M,64.40,KRTS 021719Z AUTO 10003KT 10SM CLR 18/01 A3014 RMK AO2,M
BVU,2022-10-02 17:35,-114.8611,35.9475,671.00,86.00,59.00,40.14,150.00,13.00,0.00,29.96,M,10.00,M,CLR,M,M,M,M,M,M,M,M,M,M,M,M,M,M,85.47,KBVU 021735Z AUTO 15013KT 10SM CLR 30/15 A2996 RMK AO2,M
05U,2022-10-02 17:35,-116.0051,39.6042,1811.23,64.40,28.40,25.60,0.00,0.00,0.00,30.20,M,10.00,M,CLR,M,M,M,M,M,M,M,M,M,M,M,M,M,M,64.40,K05U 021735Z AUTO 00000KT 10SM CLR 18/M02 A3020 RMK A01,M
CXP,2022-10-02 17:35,-119.7326,39.1923,1431.00,62.60,33.80,33.93,0.00,0.00,0.00,30.14,M,10.00,M,CLR,M,M,M,M,M,M,M,M,M,M,M,M,M,M,62.60,KCXP 021735Z AUTO 00000KT 10SM CLR 17/01 A3014 RMK AO2,M
HTH,2022-10-02 17:35,-118.6315,38.5448,1282.89,64.40,35.60,34.22,0.00,0.00,0.00,30.12,M,10.00,M,CLR,M,M,M,M,M,M,M,M,M,M,M,M,M,M,64.40,KHTH 021735Z AUTO 00000KT 10SM CLR 18/02 A3012 RMK A01,M
TMT,2022-10-02 17:35,-117.1971,39.4643,1749.34,61.00,30.70,31.69,0.00,0.00,0.00,30.18,M,10.00,M,CLR,M,M,M,M,M,M,M,M,M,M,M,M,M,M,61.00,KTMT 021735Z AUTO 00000KT 10SM CLR 16/M01 A3018 RMK AO2 T01611007,M
MEV,2022-10-02 17:35,-119.7500,38.9963,1441.42,62.60,33.80,33.93,0.00,0.00,0.00,30.13,M,10.00,M,CLR,M,M,M,M,M,M,M,M,M,M,M,M,M,M,62.60,KMEV 021735Z AUTO 00000KT 10SM CLR 17/01 A3013 RMK AO2,M
BAM,2022-10-02 17:35,-116.8743,40.5990,1382.36,62.60,32.00,31.56,30.00,3.00,0.00,30.15,M,10.00,M,CLR,M,M,M,M,M,M,M,M,M,M,M,M,M,M,62.60,KBAM 021735Z AUTO 03003KT 10SM CLR 17/00 A3015 RMK AO1,M
RTS,2022-10-02 17:39,-119.8764,39.6682,1539.00,66.20,33.80,29.92,80.00,4.00,0.00,30.15,M,10.00,M,CLR,M,M,M,M,M,M,M,M,M,M,M,M,M,M,66.20,KRTS 021739Z AUTO 08004KT 10SM CLR 19/01 A3015 RMK AO2,M
ELY,2022-10-02 17:53,-114.8453,39.2950,1909.00,65.00,33.00,30.44,0.00,0.00,0.00,30.18,1014.60,10.00,M,CLR,M,M,M,M,M,M,M,M,M,M,M,M,M,M,64.90,KELY 021753Z AUTO 00000KT 10SM CLR 18/01 A3018 RMK AO2 SLP146 T01830006 10183 20000 58001,M
VGT,2022-10-02 17:53,-115.1933,36.2111,667.00,86.00,56.00,35.90,120.00,5.00,0.00,29.96,1013.50,10.00,M,CLR,M,M,M,M,M,M,M,M,M,M,M,M,M,M,84.66,KVGT 021753Z 12005KT 10SM CLR 30/13 A2996 RMK AO2 SLP135 T03000133 10306 20217 50007,M
P68,2022-10-02 17:53,-116.0056,39.6014,1993.00,64.00,30.90,28.74,M,3.00,0.00,30.17,1016.80,M,M,M,M,M,M,M,M,M,M,M,M,M,M,M,M,M,64.00,KP68 021753Z AUTO VRB03KT 18/M01 A3017 RMK AO1 SLP168 T01781006 10178 20006 50002,M
DRA,2022-10-02 17:53,-116.0278,36.6206,1009.00,84.00,46.00,26.52,200.00,12.00,0.00,30.02,1012.00,10.00,21.00,CLR,M,M,M,M,M,M,M,M,M,M,M,M,M,M,81.69,KDRA 021753Z AUTO 20012G21KT 10SM CLR 29/08 A3002 RMK AO2 SLP120 T02890078 10289 20156 50008,M
LOL,2022-10-02 17:53,-118.5701,40.0684,1192.43,68.00,M,M,M,3.00,0.00,30.10,1017.30,10.00,M,CLR,M,M,M,M,M,M,M,M,M,M,M,M,M,M,M,KLOL 021753Z AUTO VRB03KT 10SM CLR 20/ A3010 RMK AO2 SLP173 T0200 10200 20017 50005 $,M
MEV,2022-10-02 17:55,-119.7500,38.9963,1441.42,64.40,33.80,31.85,0.00,0.00,0.00,30.12,M,10.00,M,CLR,M,M,M,M,M,M,M,M,M,M,M,M,M,M,64.40,KMEV 021755Z AUTO 00000KT 10SM CLR 18/01 A3012 RMK AO2,M
05U,2022-10-02 17:55,-116.0051,39.6042,1811.23,64.40,30.20,27.55,0.00,0.00,0.00,30.19,M,10.00,M,CLR,M,M,M,M,M,M,M,M,M,M,M,M,M,M,64.40,K05U 021755Z AUTO 00000KT 10SM CLR 18/M01 A3019 RMK A01,M
CXP,2022-10-02 17:55,-119.7326,39.1923,1431.00,64.40,33.80,31.85,0.00,0.00,0.00,30.14,M,10.00,M,CLR,M,M,M,M,M,M,M,M,M,M,M,M,M,M,64.40,KCXP 021755Z AUTO 00000KT 10SM CLR 18/01 A3014 RMK AO2,M
BAM,2022-10-02 17:55,-116.8743,40.5990,1382.36,64.40,32.00,29.63,60.00,3.00,0.00,30.15,M,10.00,M,CLR,M,M,M,M,M,M,M,M,M,M,M,M,M,M,64.40,KBAM 021755Z AUTO 06003KT 10SM CLR 18/00 A3015 RMK AO1,M
BVU,2022-10-02 17:55,-114.8611,35.9475,671.00,86.00,57.20,37.62,150.00,9.00,0.00,29.96,M,10.00,M,FEW,M,M,M,6500.00,M,M,M,M,M,M,M,M,M,M,84.97,KBVU 021755Z AUTO 15009KT 10SM FEW065 30/14 A2996 RMK AO2,M
TMT,2022-10-02 17:55,-117.1971,39.4643,1749.34,M,M,M,0.00,0.00,0.00,30.18,M,10.00,M,CLR,M,M,M,M,M,M,M,M,M,M,M,M,M,M,M,KTMT 021755Z AUTO 00000KT 10SM CLR A3018 RMK AO2,M
HTH,2022-10-02 17:55,-118.6315,38.5448,1282.89,66.20,35.60,32.14,M,5.00,0.00,30.12,M,10.00,M,CLR,M,M,M,M,M,M,M,M,M,M,M,M,M,M,66.20,KHTH 021755Z AUTO VRB05KT 10SM CLR 19/02 A3012 RMK A01,M
RNO,2022-10-02 17:55,-119.7711,39.4839,1341.00,65.00,38.00,36.82,0.00,0.00,0.00,30.11,1015.80,10.00,M,CLR,M,M,M,M,M,M,M,M,M,M,M,M,M,M,64.90,KRNO 021755Z 00000KT 10SM CLR 18/03 A3011 RMK AO2 SLP158 T01830033 10183 20078 50003 $,M
HND,2022-10-02 17:56,-115.1344,35.9729,742.79,87.00,55.00,33.55,240.00,11.00,0.00,29.99,1014.50,10.00,M,CLR,M,M,M,M,M,M,M,M,M,M,M,M,M,M,85.40,KHND 021756Z 24011KT 10SM CLR 31/13 A2999 RMK AO2 SLP145 T03060128 10306 20222 50005,M
EKO,2022-10-02 17:56,-115.7860,40.8242,1367.00,60.00,34.00,37.37,0.00,0.00,0.00,30.15,1018.40,10.00,M,CLR,M,M,M,M,M,M,M,M,M,M,M,M,M,M,60.10,KEKO 021756Z AUTO 00000KT 10SM CLR 16/01 A3015 RMK AO2 SLP184 T01560011 10156 20006 50002,M
LAS,2022-10-02 17:56,-115.1634,36.0719,663.00,88.00,52.00,29.21,200.00,6.00,0.00,29.97,1012.00,10.00,M,FEW,FEW,M,M,10000.00,25000.00,M,M,M,M,M,M,M,M,M,85.60,KLAS 021756Z 20006KT 10SM FEW100 FEW250 31/11 A2997 RMK AO2 SLP120 CB DSNT NE TCU DSNT E T03110111 10311 20233 50007 $,M
TPH,2022-10-02 17:56,-117.0904,38.0505,1654.00,67.00,27.00,22.15,M,3.00,0.00,30.15,1015.80,10.00,M,CLR,M,M,M,M,M,M,M,M,M,M,M,M,M,M,66.90,KTPH 021756Z AUTO VRB03KT 10SM CLR 19/M03 A3015 RMK AO2 SLP158 T01941028 10194 20078 50006,M
NFL,2022-10-02 17:56,-118.7010,39.4166,1199.00,66.00,30.90,26.81,280.00,3.00,0.00,30.10,1015.90,10.00,M,FEW,M,M,M,20000.00,M,M,M,M,M,M,M,M,M,M,66.00,KNFL 021756Z 28003KT 10SM FEW200 19/M01 A3010 RMK AO2 SLP159 T01891006 10200 20050 50005,M
WMC,2022-10-02 17:56,-117.8072,40.9019,1315.00,66.00,33.00,29.29,80.00,3.00,0.00,30.12,1018.00,10.00,M,CLR,M,M,M,M,M,M,M,M,M,M,M,M,M,M,66.00,KWMC 021756Z AUTO 08003KT 10SM CLR 19/01 A3012 RMK AO2 SLP180 T01890006 10189 20000 51004,M
LSV,2022-10-02 17:56,-115.0343,36.2362,570.00,92.80,61.20,35.03,0.00,0.00,0.00,29.93,1011.00,10.00,M,CLR,M,M,M,M,M,M,M,M,M,M,M,M,M,M,93.07,KLSV 021756Z AUTO 00000KT 10SM CLR 34/16 A2993 RMK AO2 SLP110 T03380162 10338 20222 50008 $,M
INS,2022-10-02 17:56,-115.6733,36.5872,955.00,78.00,45.00,30.95,0.00,0.00,0.00,30.02,1012.10,10.00,M,CLR,M,M,M,M,M,M,M,M,M,M,M,M,M,M,78.10,KINS 021756Z AUTO 00000KT 10SM CLR 26/07 A3002 RMK AO2 SLP121 T02560072 10259 20145 50007 $,M
RTS,2022-10-02 17:59,-119.8764,39.6682,1539.00,68.00,32.00,26.15,0.00,0.00,0.00,30.14,M,10.00,M,CLR,M,M,M,M,M,M,M,M,M,M,M,M,M,M,68.00,KRTS 021759Z AUTO 00000KT 10SM CLR 20/00 A3014 RMK AO2,M
CXP,2022-10-02 18:15,-119.7326,39.1923,1431.00,66.20,33.80,29.92,0.00,0.00,0.00,30.14,M,10.00,M,CLR,M,M,M,M,M,M,M,M,M,M,M,M,M,M,66.20,KCXP 021815Z AUTO 00000KT 10SM CLR 19/01 A3014 RMK AO2,M
MEV,2022-10-02 18:15,-119.7500,38.9963,1441.42,66.20,33.80,29.92,0.00,0.00,0.00,30.12,M,10.00,M,CLR,M,M,M,M,M,M,M,M,M,M,M,M,M,M,66.20,KMEV 021815Z AUTO 00000KT 10SM CLR 19/01 A3012 RMK AO2,M
BAM,2022-10-02 18:15,-116.8743,40.5990,1382.36,66.20,32.00,27.83,0.00,0.00,0.00,30.14,M,10.00,M,CLR,M,M,M,M,M,M,M,M,M,M,M,M,M,M,66.20,KBAM 021815Z AUTO 00000KT 10SM CLR 19/00 A3014 RMK AO1,M
BVU,2022-10-02 18:15,-114.8611,35.9475,671.00,87.80,57.20,35.53,150.00,11.00,0.00,29.95,M,10.00,M,SCT,SCT,M,M,6000.00,7000.00,M,M,M,M,M,M,M,M,M,86.58,KBVU 021815Z AUTO 15011KT 120V180 10SM SCT060 SCT070 31/14 A2995 RMK AO2,M
05U,2022-10-02 18:15,-116.0051,39.6042,1811.23,66.20,30.20,25.88,M,5.00,0.00,30.19,M,10.00,M,CLR,M,M,M,M,M,M,M,M,M,M,M,M,M,M,66.20,K05U 021815Z AUTO VRB05KT 10SM CLR 19/M01 A3019 RMK A01,M
HTH,2022-10-02 18:15,-118.6315,38.5448,1282.89,66.20,35.60,32.14,330.00,6.00,0.00,30.11,M,10.00,M,CLR,M,M,M,M,M,M,M,M,M,M,M,M,M,M,66.20,KHTH 021815Z AUTO 33006KT 10SM CLR 19/02 A3011 RMK A01,M
TMT,2022-10-02 18:15,-117.1971,39.4643,1749.34,M,M,M,30.00,3.00,0.00,30.17,M,10.00,M,CLR,M,M,M,M,M,M,M,M,M,M,M,M,M,M,M,KTMT 021815Z AUTO 03003KT 10SM CLR A3017 RMK AO2,M
RTS,2022-10-02 18:19,-119.8764,39.6682,1539.00,69.80,33.80,26.43,M,4.00,0.00,30.14,M,10.00,M,CLR,M,M,M,M,M,M,M,M,M,M,M,M,M,M,69.80,KRTS 021819Z AUTO VRB04KT 10SM CLR 21/01 A3014 RMK AO2,M
INS,2022-10-02 18:31,-115.6733,36.5872,955.00,80.60,44.60,28.08,0.00,0.00,0.00,30.01,1011.90,3.00,M,CLR,M,M,M,M,M,M,M,HZ,M,M,M,M,M,M,79.42,KINS 021831Z AUTO 00000KT 3SM HZ CLR 27/07 A3001 RMK AO2 SLP119 $,M
HTH,2022-10-02 18:35,-118.6315,38.5448,1282.89,68.00,35.60,30.20,320.00,4.00,0.00,30.11,M,10.00,M,CLR,M,M,M,M,M,M,M,M,M,M,M,M,M,M,68.00,KHTH 021835Z AUTO 32004KT 10SM CLR 20/02 A3011 RMK A01,M
BAM,2022-10-02 18:35,-116.8743,40.5990,1382.36,68.00,32.00,26.15,0.00,0.00,0.00,30.13,M,10.00,M,CLR,M,M,M,M,M,M,M,M,M,M,M,M,M,M,68.00,KBAM 021835Z AUTO 00000KT 10SM CLR 20/00 A3013 RMK AO1,M
BVU,2022-10-02 18:35,-114.8611,35.9475,671.00,89.60,57.20,33.56,150.00,13.00,0.00,29.94,M,10.00,M,BKN,BKN,M,M,7000.00,8000.00,M,M,M,M,M,M,M,M,M,88.28,KBVU 021835Z AUTO 15013KT 10SM BKN070 BKN080 32/14 A2994 RMK AO2,M
CXP,2022-10-02 18:35,-119.7326,39.1923,1431.00,68.00,33.80,28.11,0.00,0.00,0.00,30.13,M,10.00,M,CLR,M,M,M,M,M,M,M,M,M,M,M,M,M,M,68.00,KCXP 021835Z AUTO 00000KT 10SM CLR 20/01 A3013 RMK AO2,M
05U,2022-10-02 18:35,-116.0051,39.6042,1811.23,66.20,28.40,24.04,0.00,0.00,0.00,30.18,M,10.00,M,CLR,M,M,M,M,M,M,M,M,M,M,M,M,M,M,66.20,K05U 021835Z AUTO 00000KT 10SM CLR 19/M02 A3018 RMK A01,M
TMT,2022-10-02 18:35,-117.1971,39.4643,1749.34,M,M,M,0.00,0.00,0.00,30.16,M,10.00,M,CLR,M,M,M,M,M,M,M,M,M,M,M,M,M,M,M,KTMT 021835Z AUTO 00000KT 10SM CLR A3016 RMK AO2,M
MEV,2022-10-02 18:35,-119.7500,38.9963,1441.42,68.00,33.80,28.11,0.00,0.00,0.00,30.11,M,10.00,M,CLR,M,M,M,M,M,M,M,M,M,M,M,M,M,M,68.00,KMEV 021835Z AUTO 00000KT 10SM CLR 20/01 A3011 RMK AO2,M
INS,2022-10-02 18:36,-115.6733,36.5872,955.00,80.60,44.60,28.08,0.00,0.00,0.00,30.01,1011.90,5.00,M,CLR,M,M,M,M,M,M,M,HZ,M,M,M,M,M,M,79.42,KINS 021836Z AUTO 00000KT 5SM HZ CLR 27/07 A3001 RMK AO2 SLP119 $,M
RTS,2022-10-02 18:39,-119.8764,39.6682,1539.00,69.80,32.00,24.59,M,5.00,0.00,30.14,M,10.00,M,CLR,M,M,M,M,M,M,M,M,M,M,M,M,M,M,69.80,KRTS 021839Z AUTO VRB05KT 10SM CLR 21/00 A3014 RMK AO2,M
INS,2022-10-02 18:46,-115.6733,36.5872,955.00,80.60,42.80,26.22,0.00,0.00,0.00,30.01,1012.10,5.00,M,CLR,M,M,M,M,M,M,M,HZ,M,M,M,M,M,M,79.30,KINS 021846Z AUTO 00000KT 5SM HZ CLR 27/06 A3001 RMK AO2 SLP121 $,M
P68,2022-10-02 18:53,-116.0056,39.6014,1993.00,67.00,28.90,23.95,50.00,4.00,0.00,30.15,1015.70,M,M,M,M,M,M,M,M,M,M,M,M,M,M,M,M,M,66.90,KP68 021853Z AUTO 05004KT 19/M02 A3015 RMK AO1 SLP157 T01941017,M
LOL,2022-10-02 18:53,-118.5701,40.0684,1192.43,72.00,M,M,80.00,3.00,0.00,30.09,1016.60,10.00,M,CLR,M,M,M,M,M,M,M,M,M,M,M,M,M,M,M,KLOL 021853Z AUTO 08003KT 10SM CLR 22/ A3009 RMK AO2 SLP166 T0222 $,M
ELY,2022-10-02 18:53,-114.8453,39.2950,1909.00,69.00,30.00,23.22,0.00,0.00,0.00,30.15,1013.80,10.00,M,CLR,M,M,M,M,M,M,M,M,M,M,M,M,M,M,69.10,KELY 021853Z AUTO 00000KT 10SM CLR 21/M01 A3015 RMK AO2 SLP138 T02061011,M
VGT,2022-10-02 18:53,-115.1933,36.2111,667.00,88.00,55.00,32.60,120.00,5.00,0.00,29.94,1012.90,10.00,M,CLR,M,M,M,M,M,M,M,M,M,M,M,M,M,M,86.20,KVGT 021853Z 12005KT 10SM CLR 31/13 A2994 RMK AO2 SLP129 T03110128,M
DRA,2022-10-02 18:53,-116.0278,36.6206,1009.00,85.00,44.00,23.97,210.00,13.00,0.00,30.01,1011.60,10.00,20.00,CLR,M,M,M,M,M,M,M,M,M,M,M,26.00,230.00,2022-10-02 18:08,82.20,KDRA 021853Z AUTO 21013G20KT 10SM CLR 29/07 A3001 RMK AO2 PK WND 23026/1808 SLP116 T02940067,M
MEV,2022-10-02 18:55,-119.7500,38.9963,1441.42,69.80,33.80,26.43,0.00,0.00,0.00,30.11,M,10.00,M,CLR,M,M,M,M,M,M,M,M,M,M,M,M,M,M,69.80,KMEV 021855Z AUTO 00000KT 10SM CLR 21/01 A3011 RMK AO2,M
TMT,2022-10-02 18:55,-117.1971,39.4643,1749.34,M,M,M,0.00,0.00,0.00,30.16,M,10.00,M,CLR,M,M,M,M,M,M,M,M,M,M,M,M,M,M,M,KTMT 021855Z AUTO 00000KT 10SM CLR A3016 RMK AO2,M
HTH,2022-10-02 18:55,-118.6315,38.5448,1282.89,69.80,33.80,26.43,M,6.00,0.00,30.10,M,10.00,M,CLR,M,M,M,M,M,M,M,M,M,M,M,M,M,M,69.80,KHTH 021855Z AUTO VRB06KT 10SM CLR 21/01 A3010 RMK A01,M
CXP,2022-10-02 18:55,-119.7326,39.1923,1431.00,69.80,33.80,26.43,0.00,0.00,0.00,30.12,M,10.00,M,CLR,M,M,M,M,M,M,M,M,M,M,M,M,M,M,69.80,KCXP 021855Z AUTO 00000KT 10SM CLR 21/01 A3012 RMK AO2,M
RNO,2022-10-02 18:55,-119.7711,39.4839,1341.00,72.00,37.00,27.85,M,3.00,0.00,30.10,1015.10,10.00,M,CLR,M,M,M,M,M,M,M,M,M,M,M,M,M,M,72.00,KRNO 021855Z VRB03KT 10SM CLR 22/03 A3010 RMK AO2 SLP151 T02220028 $,M
05U,2022-10-02 18:55,-116.0051,39.6042,1811.23,68.00,28.40,22.59,50.00,5.00,0.00,30.18,M,10.00,M,CLR,M,M,M,M,M,M,M,M,M,M,M,M,M,M,68.00,K05U 021855Z AUTO 05005KT 10SM CLR 20/M02 A3018 RMK A01,M
BAM,2022-10-02 18:55,-116.8743,40.5990,1382.36,69.80,32.00,24.59,160.00,3.00,0.00,30.13,M,10.00,M,CLR,M,M,M,M,M,M,M,M,M,M,M,M,M,M,69.80,KBAM 021855Z AUTO 16003KT 10SM CLR 21/00 A3013 RMK AO1,M
BVU,2022-10-02 18:55,-114.8611,35.9475,671.00,87.80,55.40,33.29,160.00,11.00,0.00,29.94,M,10.00,18.00,SCT,BKN,M,M,7000.00,8500.00,M,M,M,M,M,M,M,M,M,86.11,KBVU 021855Z AUTO 16011G18KT 090V180 10SM SCT070 BKN085 31/13 A2994 RMK AO2,M
HND,2022-10-02 18:56,-115.1344,35.9729,742.79,90.00,50.00,25.46,210.00,10.00,0.00,29.98,1013.80,10.00,21.00,CLR,M,M,M,M,M,M,M,M,M,M,M,M,M,M,87.06,KHND 021856Z 21010G21KT 10SM CLR 32/10 A2998 RMK AO2 SLP138 T03220100,M
NFL,2022-10-02 18:56,-118.7010,39.4166,1199.00,70.00,32.00,24.42,0.00,0.00,0.00,30.09,1015.60,10.00,M,CLR,M,M,M,M,M,M,M,M,M,M,M,M,M,M,70.00,KNFL 021856Z 00000KT 10SM CLR 21/00 A3009 RMK AO2 SLP156 T02110000,M
TPH,2022-10-02 18:56,-117.0904,38.0505,1654.00,71.00,27.00,19.18,M,6.00,0.00,30.14,1015.10,10.00,M,CLR,M,M,M,M,M,M,M,M,M,M,M,M,M,M,71.10,KTPH 021856Z AUTO VRB06KT 10SM CLR 22/M03 A3014 RMK AO2 SLP151 T02171028,M
LAS,2022-10-02 18:56,-115.1634,36.0719,663.00,89.00,49.00,25.14,190.00,11.00,0.00,29.95,1011.50,10.00,18.00,FEW,FEW,M,M,10000.00,25000.00,M,M,M,M,M,M,M,M,M,86.09,KLAS 021856Z 19011G18KT 10SM FEW100 FEW250 32/09 A2995 RMK AO2 SLP115 CB DSNT N AND NE TCU DSNT E T03170094 $,M
WMC,2022-10-02 18:56,-117.8072,40.9019,1315.00,72.00,32.00,22.82,30.00,4.00,0.00,30.11,1016.80,10.00,M,CLR,M,M,M,M,M,M,M,M,M,M,M,M,M,M,72.00,KWMC 021856Z AUTO 03004KT 10SM CLR 22/00 A3011 RMK AO2 SLP168 T02220000,M
LSV,2022-10-02 18:56,-115.0343,36.2362,570.00,94.50,58.00,29.76,0.00,0.00,0.00,29.91,1010.30,10.00,M,CLR,M,M,M,M,M,M,M,M,M,M,M,M,M,M,93.61,KLSV 021856Z AUTO 00000KT 10SM CLR 35/15 A2991 RMK AO2 SLP103 T03470145 $,M
EKO,2022-10-02 18:56,-115.7860,40.8242,1367.00,66.00,34.00,30.37,M,3.00,0.00,30.14,1017.90,10.00,M,CLR,M,M,M,M,M,M,M,M,M,M,M,M,M,M,66.00,KEKO 021856Z AUTO VRB03KT 10SM CLR 19/01 A3014 RMK AO2 SLP179 T01890011,M
INS,2022-10-02 18:56,-115.6733,36.5872,955.00,83.00,44.40,25.86,290.00,3.00,0.00,30.00,1011.60,9.00,M,CLR,M,M,M,M,M,M,M,M,M,M,M,M,M,M,80.82,KINS 021856Z AUTO 29003KT 9SM CLR 28/07 A3000 RMK AO2 SLP116 T02830069 $,M
RTS,2022-10-02 18:59,-119.8764,39.6682,1539.00,69.80,32.00,24.59,0.00,0.00,0.00,30.13,M,10.00,M,CLR,M,M,M,M,M,M,M,M,M,M,M,M,M,M,69.80,KRTS 021859Z AUTO 00000KT 10SM CLR 21/M00 A3013 RMK AO2,M
BAM,2022-10-02 19:15,-116.8743,40.5990,1382.36,69.80,32.00,24.59,210.00,3.00,0.00,30.13,M,10.00,M,CLR,M,M,M,M,M,M,M,M,M,M,M,M,M,M,69.80,KBAM 021915Z AUTO 21003KT 10SM CLR 21/00 A3013 RMK AO1,M
BVU,2022-10-02 19:15,-114.8611,35.9475,671.00,87.80,57.20,35.53,140.00,7.00,0.00,29.93,M,10.00,16.00,BKN,OVC,M,M,7000.00,9000.00,M,M,M,M,M,M,M,M,M,86.58,KBVU 021915Z AUTO 14007G16KT 10SM BKN070 OVC090 31/14 A2993 RMK AO2,M
HTH,2022-10-02 19:15,-118.6315,38.5448,1282.89,71.60,32.00,23.13,M,5.00,0.00,30.09,M,10.00,M,CLR,M,M,M,M,M,M,M,M,M,M,M,M,M,M,71.60,KHTH 021915Z AUTO VRB05KT 10SM CLR 22/00 A3009 RMK A01,M
MEV,2022-10-02 19:15,-119.7500,38.9963,1441.42,71.60,33.80,24.86,0.00,0.00,0.00,30.10,M,10.00,M,CLR,M,M,M,M,M,M,M,M,M,M,M,M,M,M,71.60,KMEV 021915Z AUTO 00000KT 10SM CLR 22/01 A3010 RMK AO2,M
05U,2022-10-02 19:15,-116.0051,39.6042,1811.23,69.80,28.40,21.24,50.00,4.00,0.00,30.17,M,10.00,M,CLR,M,M,M,M,M,M,M,M,M,M,M,M,M,M,69.80,K05U 021915Z AUTO 05004KT 10SM CLR 21/M02 A3017 RMK A01,M
CXP,2022-10-02 19:15,-119.7326,39.1923,1431.00,71.60,32.00,23.13,0.00,0.00,0.00,30.12,M,10.00,M,CLR,M,M,M,M,M,M,M,M,M,M,M,M,M,M,71.60,KCXP 021915Z AUTO 00000KT 10SM CLR 22/00 A3012 RMK AO2,M
TMT,2022-10-02 19:15,-117.1971,39.4643,1749.34,M,M,M,250.00,5.00,0.00,30.16,M,10.00,M,CLR,M,M,M,M,M,M,M,M,M,M,M,M,M,M,M,KTMT 021915Z AUTO 25005KT 10SM CLR A3016 RMK AO2,M
RTS,2022-10-02 19:19,-119.8764,39.6682,1539.00,71.60,32.00,23.13,140.00,8.00,0.00,30.13,M,10.00,M,CLR,M,M,M,M,M,M,M,M,M,M,M,M,M,M,71.60,KRTS 021919Z AUTO 14008KT 10SM CLR 22/M00 A3013 RMK AO2,M
TMT,2022-10-02 19:35,-117.1971,39.4643,1749.34,M,M,M,0.00,0.00,0.00,30.16,M,10.00,M,CLR,M,M,M,M,M,M,M,M,M,M,M,M,M,M,M,KTMT 021935Z AUTO 00000KT 10SM CLR A3016 RMK AO2,M
HTH,2022-10-02 19:35,-118.6315,38.5448,1282.89,71.60,32.00,23.13,340.00,5.00,0.00,30.09,M,10.00,M,CLR,M,M,M,M,M,M,M,M,M,M,M,M,M,M,71.60,KHTH 021935Z AUTO 34005KT 10SM CLR 22/00 A3009 RMK A01,M
BAM,2022-10-02 19:35,-116.8743,40.5990,1382.36,71.60,32.00,23.13,40.00,3.00,0.00,30.13,M,10.00,M,CLR,M,M,M,M,M,M,M,M,M,M,M,M,M,M,71.60,KBAM 021935Z AUTO 04003KT 10SM CLR 22/00 A3013 RMK AO1,M
MEV,2022-10-02 19:35,-119.7500,38.9963,1441.42,73.40,32.00,21.76,230.00,4.00,0.00,30.09,M,10.00,M,CLR,M,M,M,M,M,M,M,M,M,M,M,M,M,M,73.40,KMEV 021935Z AUTO 23004KT 10SM CLR 23/00 A3009 RMK AO2,M
05U,2022-10-02 19:35,-116.0051,39.6042,1811.23,69.80,28.40,21.24,0.00,0.00,0.00,30.17,M,10.00,M,CLR,M,M,M,M,M,M,M,M,M,M,M,M,M,M,69.80,K05U 021935Z AUTO 00000KT 10SM CLR 21/M02 A3017 RMK A01,M
CXP,2022-10-02 19:35,-119.7326,39.1923,1431.00,73.40,30.20,20.23,80.00,5.00,0.00,30.11,M,10.00,11.00,CLR,M,M,M,M,M,M,M,M,M,M,M,M,M,M,73.40,KCXP 021935Z AUTO 08005G11KT 10SM CLR 23/M01 A3011 RMK AO2,M
BVU,2022-10-02 19:35,-114.8611,35.9475,671.00,89.60,53.60,29.45,300.00,6.00,0.00,29.93,M,10.00,M,BKN,BKN,BKN,M,7500.00,8500.00,10000.00,M,M,M,M,M,M,M,M,87.36,KBVU 021935Z AUTO 30006KT 10SM BKN075 BKN085 BKN100 32/12 A2993 RMK AO2,M
RTS,2022-10-02 19:39,-119.8764,39.6682,1539.00,71.60,32.00,23.13,140.00,5.00,0.00,30.12,M,10.00,M,CLR,M,M,M,M,M,M,M,M,M,M,M,M,M,M,71.60,KRTS 021939Z AUTO 14005KT 10SM CLR 22/M00 A3012 RMK AO2,M
ELY,2022-10-02 19:53,-114.8453,39.2950,1909.00,71.00,30.00,21.69,M,6.00,0.00,30.15,1014.40,10.00,16.00,CLR,M,M,M,M,M,M,M,M,M,M,M,M,M,M,71.10,KELY 021953Z AUTO VRB06G16KT 10SM CLR 22/M01 A3015 RMK AO2 SLP144 T02171011,M
LOL,2022-10-02 19:53,-118.5701,40.0684,1192.43,75.00,M,M,190.00,5.00,0.00,30.08,1016.40,10.00,M,CLR,M,M,M,M,M,M,M,M,M,M,M,M,M,M,M,KLOL 021953Z AUTO 19005KT 10SM CLR 24/ A3008 RMK AO2 SLP164 T0239 $,M
VGT,2022-10-02 19:53,-115.1933,36.2111,667.00,92.00,51.00,24.99,100.00,8.00,0.00,29.91,1011.60,10.00,M,CLR,M,M,M,M,M,M,M,M,M,M,M,M,M,M,89.04,KVGT 021953Z 10008KT 070V140 10SM CLR 33/11 A2991 RMK AO2 SLP116 T03330106,M
P68,2022-10-02 19:53,-116.0056,39.6014,1993.00,70.00,28.90,21.53,40.00,6.00,0.00,30.14,1015.10,M,M,M,M,M,M,M,M,M,M,M,M,M,M,M,M,M,70.00,KP68 021953Z AUTO 04006KT 21/M02 A3014 RMK AO1 SLP151 T02111017,M
DRA,2022-10-02 19:53,-116.0278,36.6206,1009.00,87.00,43.00,21.42,230.00,14.00,0.00,30.00,1011.10,10.00,22.00,CLR,M,M,M,M,M,M,M,M,M,M,M,27.00,220.00,2022-10-02 19:36,83.84,KDRA 021953Z AUTO 23014G22KT 10SM CLR 31/06 A3000 RMK AO2 PK WND 22027/1936 SLP111 T03060061,M
BVU,2022-10-02 19:55,-114.8611,35.9475,671.00,91.40,51.80,26.05,M,3.00,0.00,29.92,M,10.00,11.00,FEW,SCT,SCT,M,8000.00,9500.00,12000.00,M,M,M,M,M,M,M,M,88.69,KBVU 021955Z AUTO VRB03G11KT 10SM FEW080 SCT095 SCT120 33/11 A2992 RMK AO2,M
CXP,2022-10-02 19:55,-119.7326,39.1923,1431.00,73.40,30.20,20.23,0.00,0.00,0.00,30.11,M,10.00,M,CLR,M,M,M,M,M,M,M,M,M,M,M,M,M,M,73.40,KCXP 021955Z AUTO 00000KT 10SM CLR 23/M01 A3011 RMK AO2,M
05U,2022-10-02 19:55,-116.0051,39.6042,1811.23,71.60,28.40,19.98,80.00,7.00,0.00,30.16,M,10.00,M,CLR,M,M,M,M,M,M,M,M,M,M,M,M,M,M,71.60,K05U 021955Z AUTO 08007KT 10SM CLR 22/M02 A3016 RMK A01,M
MEV,2022-10-02 19:55,-119.7500,38.9963,1441.42,75.20,28.40,17.70,30.00,4.00,0.00,30.09,M,10.00,M,CLR,M,M,M,M,M,M,M,M,M,M,M,M,M,M,75.20,KMEV 021955Z AUTO 03004KT 10SM CLR 24/M02 A3009 RMK AO2,M
BAM,2022-10-02 19:55,-116.8743,40.5990,1382.36,71.60,32.00,23.13,190.00,4.00,0.00,30.13,M,10.00,M,CLR,M,M,M,M,M,M,M,M,M,M,M,M,M,M,71.60,KBAM 021955Z AUTO 19004KT 10SM CLR 22/00 A3013 RMK AO1,M
HTH,2022-10-02 19:55,-118.6315,38.5448,1282.89,73.40,32.00,21.76,350.00,4.00,0.00,30.08,M,10.00,M,CLR,M,M,M,M,M,M,M,M,M,M,M,M,M,M,73.40,KHTH 021955Z AUTO 35004KT 10SM CLR 23/M00 A3008 RMK A01,M
TMT,2022-10-02 19:55,-117.1971,39.4643,1749.34,M,M,M,210.00,4.00,0.00,30.15,M,10.00,M,CLR,M,M,M,M,M,M,M,M,M,M,M,M,M,M,M,KTMT 021955Z AUTO 21004KT 10SM CLR A3015 RMK AO2,M
RNO,2022-10-02 19:55,-119.7711,39.4839,1341.00,76.00,33.00,20.92,70.00,5.00,0.00,30.09,1014.40,10.00,M,CLR,M,M,M,M,M,M,M,M,M,M,M,M,M,M,75.90,KRNO 021955Z 07005KT 10SM CLR 24/01 A3009 RMK AO2 SLP144 T02440006 $,M
WMC,2022-10-02 19:56,-117.8072,40.9019,1315.00,75.00,33.00,21.56,M,3.00,0.00,30.09,1016.40,10.00,M,CLR,M,M,M,M,M,M,M,M,M,M,M,M,M,M,75.00,KWMC 021956Z AUTO VRB03KT 10SM CLR 24/01 A3009 RMK AO2 SLP164 T02390006,M
LSV,2022-10-02 19:56,-115.0343,36.2362,570.00,94.00,53.00,24.94,170.00,8.00,0.00,29.88,1009.30,10.00,M,CLR,M,M,M,M,M,M,M,M,M,M,M,M,M,M,91.61,KLSV 021956Z AUTO 17008KT 10SM CLR 35/12 A2988 RMK AO2 SLP093 T03450116 $,M
NFL,2022-10-02 19:56,-118.7010,39.4166,1199.00,76.00,32.00,20.01,M,4.00,0.00,30.08,1015.30,10.00,M,CLR,M,M,M,M,M,M,M,M,M,M,M,M,M,M,75.90,KNFL 021956Z VRB04KT 10SM CLR 24/00 A3008 RMK AO2 SLP153 T02440000,M
HND,2022-10-02 19:56,-115.1344,35.9729,742.79,91.00,52.00,26.57,260.00,10.00,0.00,29.96,1013.20,10.00,15.00,CLR,M,M,M,M,M,M,M,M,M,M,M,M,M,M,88.35,KHND 021956Z 26010G15KT 10SM CLR 33/11 A2996 RMK AO2 SLP132 T03280111,M
TPH,2022-10-02 19:56,-117.0904,38.0505,1654.00,75.00,28.00,17.53,190.00,6.00,0.00,30.13,1014.60,10.00,M,CLR,M,M,M,M,M,M,M,M,M,M,M,M,M,M,75.00,KTPH 021956Z AUTO 19006KT 10SM CLR 24/M02 A3013 RMK AO2 SLP146 T02391022,M
LAS,2022-10-02 19:56,-115.1634,36.0719,663.00,91.00,46.00,21.24,M,4.00,0.00,29.92,1010.60,10.00,17.00,FEW,FEW,M,M,10000.00,25000.00,M,M,M,M,M,M,M,M,M,87.45,KLAS 021956Z VRB04G17KT 10SM FEW100 FEW250 33/08 A2992 RMK AO2 SLP106 CB DSNT N AND NE TCU DSNT E-SE T03280078 $,M
EKO,2022-10-02 19:56,-115.7860,40.8242,1367.00,70.00,32.00,24.42,190.00,10.00,0.00,30.12,1017.30,10.00,M,CLR,M,M,M,M,M,M,M,M,M,M,M,M,M,M,70.00,KEKO 021956Z AUTO 19010KT 10SM CLR 21/00 A3012 RMK AO2 SLP173 T02110000,M
INS,2022-10-02 19:56,-115.6733,36.5872,955.00,85.00,43.20,23.01,280.00,4.00,0.00,29.98,1010.90,10.00,M,CLR,M,M,M,M,M,M,M,M,M,M,M,M,M,M,82.29,KINS 021956Z AUTO 28004KT 10SM CLR 30/06 A2998 RMK AO2 SLP109 T02950062 $,M
RTS,2022-10-02 19:59,-119.8764,39.6682,1539.00,73.40,32.00,21.76,200.00,5.00,0.00,30.12,M,10.00,M,CLR,M,M,M,M,M,M,M,M,M,M,M,M,M,M,73.40,KRTS 021959Z AUTO 20005KT 10SM CLR 23/M00 A3012 RMK AO2,M
LAS,2022-10-02 20:00,-115.1634,36.0719,663.00,91.00,47.00,21.97,220.00,5.00,0.00,29.92,M,10.00,M,FEW,FEW,M,M,10000.00,25000.00,M,M,M,M,M,M,M,M,M,87.55,KLAS 022000Z 22005KT 10SM FEW100 FEW250 33/08 A2992 RMK AO2 CB DSNT N AND NE TCU DSNT E-SE T03280083 $,M
05U,2022-10-02 20:15,-116.0051,39.6042,1811.23,73.40,28.40,18.80,300.00,8.00,0.00,30.16,M,10.00,15.00,CLR,M,M,M,M,M,M,M,M,M,M,M,M,M,M,73.40,K05U 022015Z AUTO 30008G15KT 250V320 10SM CLR 23/M02 A3016 RMK A01,M
MEV,2022-10-02 20:15,-119.7500,38.9963,1441.42,75.20,26.60,16.43,0.00,0.00,0.00,30.09,M,10.00,M,CLR,M,M,M,M,M,M,M,M,M,M,M,M,M,M,75.20,KMEV 022015Z AUTO 00000KT 10SM CLR 24/M03 A3009 RMK AO2,M
BAM,2022-10-02 20:15,-116.8743,40.5990,1382.36,71.60,32.00,23.13,50.00,3.00,0.00,30.12,M,10.00,M,CLR,M,M,M,M,M,M,M,M,M,M,M,M,M,M,71.60,KBAM 022015Z AUTO 05003KT 10SM CLR 22/00 A3012 RMK AO1,M
CXP,2022-10-02 20:15,-119.7326,39.1923,1431.00,77.00,30.20,17.94,80.00,7.00,0.00,30.10,M,9.00,M,CLR,M,M,M,M,M,M,M,M,M,M,M,M,M,M,77.00,KCXP 022015Z AUTO 08007KT 050V110 9SM CLR 25/M01 A3010 RMK AO2,M
HTH,2022-10-02 20:15,-118.6315,38.5448,1282.89,73.40,30.20,20.23,310.00,8.00,0.00,30.08,M,10.00,M,CLR,M,M,M,M,M,M,M,M,M,M,M,M,M,M,73.40,KHTH 022015Z AUTO 31008KT 10SM CLR 23/M01 A3008 RMK A01,M
TMT,2022-10-02 20:15,-117.1971,39.4643,1749.34,M,M,M,240.00,5.00,0.00,30.15,M,10.00,M,CLR,M,M,M,M,M,M,M,M,M,M,M,M,M,M,M,KTMT 022015Z AUTO 24005KT 10SM CLR A3015 RMK AO2,M
BVU,2022-10-02 20:15,-114.8611,35.9475,671.00,89.60,51.80,27.56,250.00,4.00,0.00,29.91,M,10.00,M,BKN,M,M,M,8000.00,M,M,M,M,M,M,M,M,M,M,87.00,KBVU 022015Z AUTO 25004KT 10SM BKN080 32/11 A2991 RMK AO2,M
RTS,2022-10-02 20:19,-119.8764,39.6682,1539.00,73.40,30.20,20.23,M,4.00,0.00,30.11,M,10.00,10.00,CLR,M,M,M,M,M,M,M,M,M,M,M,M,M,M,73.40,KRTS 022019Z AUTO VRB04G10KT 10SM CLR 23/M01 A3011 RMK AO2,M
TMT,2022-10-02 20:35,-117.1971,39.4643,1749.34,M,M,M,200.00,8.00,0.00,30.14,M,10.00,14.00,CLR,M,M,M,M,M,M,M,M,M,M,M,M,M,M,M,KTMT 022035Z AUTO 20008G14KT 10SM CLR A3014 RMK AO2 LTG DSNT E,M
BVU,2022-10-02 20:35,-114.8611,35.9475,671.00,89.60,55.40,31.45,270.00,7.00,0.00,29.90,M,10.00,16.00,BKN,OVC,M,M,8000.00,9000.00,M,M,M,M,M,M,M,M,M,87.78,KBVU 022035Z AUTO 27007G16KT 10SM BKN080 OVC090 32/13 A2990 RMK AO2 LTG DSNT NE AND E,M
CXP,2022-10-02 20:35,-119.7326,39.1923,1431.00,77.00,30.20,17.94,M,5.00,0.00,30.09,M,10.00,M,CLR,M,M,M,M,M,M,M,M,M,M,M,M,M,M,77.00,KCXP 022035Z AUTO VRB05KT 10SM CLR 25/M01 A3009 RMK AO2,M
05U,2022-10-02 20:35,-116.0051,39.6042,1811.23,75.20,26.60,16.43,260.00,9.00,0.00,30.15,M,10.00,15.00,CLR,M,M,M,M,M,M,M,M,M,M,M,M,M,M,75.20,K05U 022035Z AUTO 26009G15KT 10SM CLR 24/M03 A3015 RMK A01,M
MEV,2022-10-02 20:35,-119.7500,38.9963,1441.42,75.20,28.40,17.70,340.00,4.00,0.00,30.08,M,10.00,M,CLR,M,M,M,M,M,M,M,M,M,M,M,M,M,M,75.20,KMEV 022035Z AUTO 34004KT 10SM CLR 24/M02 A3008 RMK AO2,M
BAM,2022-10-02 20:35,-116.8743,40.5990,1382.36,71.60,32.00,23.13,310.00,5.00,0.00,30.12,M,10.00,M,CLR,M,M,M,M,M,M,M,M,M,M,M,M,M,M,71.60,KBAM 022035Z AUTO 31005KT 10SM CLR 22/00 A3012 RMK AO1,M
HTH,2022-10-02 20:35,-118.6315,38.5448,1282.89,75.20,30.20,19.05,310.00,6.00,0.00,30.07,M,10.00,M,CLR,M,M,M,M,M,M,M,M,M,M,M,M,M,M,75.20,KHTH 022035Z AUTO 31006KT 10SM CLR 24/M01 A3007 RMK A01,M
RTS,2022-10-02 20:39,-119.8764,39.6682,1539.00,73.40,30.20,20.23,0.00,0.00,0.00,30.11,M,10.00,M,CLR,M,M,M,M,M,M,M,M,M,M,M,M,M,M,73.40,KRTS 022039Z AUTO 00000KT 10SM CLR 23/M01 A3011 RMK AO2,M
LOL,2022-10-02 20:53,-118.5701,40.0684,1192.43,76.00,M,M,M,4.00,0.00,30.06,1015.90,10.00,M,CLR,M,M,M,M,M,M,M,M,M,M,M,M,M,M,M,KLOL 022053Z AUTO VRB04KT 10SM CLR 24/ A3006 RMK AO2 SLP159 T0244 58012 $,M
DRA,2022-10-02 20:53,-116.0278,36.6206,1009.00,87.00,43.00,21.42,230.00,11.00,0.00,29.97,1010.30,10.00,19.00,CLR,M,M,M,M,M,M,M,M,M,M,M,M,M,M,83.84,KDRA 022053Z AUTO 23011G19KT 10SM CLR 31/06 A2997 RMK AO2 SLP103 T03060061 58014,M
P68,2022-10-02 20:53,-116.0056,39.6014,1993.00,74.00,27.00,17.45,260.00,12.00,0.00,30.12,1014.20,M,19.00,M,M,M,M,M,M,M,M,M,M,M,M,M,M,M,73.90,KP68 022053Z AUTO 26012G19KT 23/M03 A3012 RMK AO1 SLP142 T02331028 57014,M
ELY,2022-10-02 20:53,-114.8453,39.2950,1909.00,72.00,30.00,21.04,220.00,9.00,0.00,30.12,1013.30,10.00,20.00,CLR,M,M,M,M,M,M,M,M,M,M,M,M,M,M,72.00,KELY 022053Z AUTO 22009G20KT 10SM CLR 22/M01 A3012 RMK AO2 SLP133 T02221011 58015,M
VGT,2022-10-02 20:53,-115.1933,36.2111,667.00,93.00,46.00,19.95,M,4.00,0.00,29.89,1011.00,10.00,M,CLR,M,M,M,M,M,M,M,M,M,M,M,M,M,M,89.31,KVGT 022053Z VRB04KT 10SM CLR 34/08 A2989 RMK AO2 LTG DSNT SE SLP110 T03390078 58023,M
RNO,2022-10-02 20:55,-119.7711,39.4839,1341.00,77.00,33.00,20.17,60.00,5.00,0.00,30.07,1013.70,10.00,M,CLR,M,M,M,M,M,M,M,M,M,M,M,M,M,M,77.00,KRNO 022055Z 06005KT 10SM CLR 25/01 A3007 RMK AO2 SLP137 T02500006 58015 $,M
MEV,2022-10-02 20:55,-119.7500,38.9963,1441.42,77.00,30.20,17.94,270.00,5.00,0.00,30.07,M,10.00,M,CLR,M,M,M,M,M,M,M,M,M,M,M,M,M,M,77.00,KMEV 022055Z AUTO 27005KT 10SM CLR 25/M01 A3007 RMK AO2,M
05U,2022-10-02 20:55,-116.0051,39.6042,1811.23,75.20,26.60,16.43,280.00,8.00,0.00,30.15,M,10.00,15.00,CLR,M,M,M,M,M,M,M,M,M,M,M,M,M,M,75.20,K05U 022055Z AUTO 28008G15KT 10SM CLR 24/M03 A3015 RMK A01,M
BAM,2022-10-02 20:55,-116.8743,40.5990,1382.36,73.40,32.00,21.76,30.00,3.00,0.00,30.11,M,10.00,M,CLR,M,M,M,M,M,M,M,M,M,M,M,M,M,M,73.40,KBAM 022055Z AUTO 03003KT 10SM CLR 23/00 A3011 RMK AO1,M
HTH,2022-10-02 20:55,-118.6315,38.5448,1282.89,75.20,30.20,19.05,330.00,5.00,0.00,30.06,M,10.00,10.00,CLR,M,M,M,M,M,M,M,M,M,M,M,M,M,M,75.20,KHTH 022055Z AUTO 33005G10KT 10SM CLR 24/M01 A3006 RMK A01,M
TMT,2022-10-02 20:55,-117.1971,39.4643,1749.34,73.00,31.50,21.62,190.00,6.00,0.00,30.14,M,10.00,M,CLR,M,M,M,M,M,M,M,M,M,M,M,M,M,M,73.00,KTMT 022055Z AUTO 19006KT 10SM CLR 23/00 A3014 RMK AO2 T02281003,M
CXP,2022-10-02 20:55,-119.7326,39.1923,1431.00,77.00,30.20,17.94,90.00,6.00,0.00,30.09,M,10.00,M,CLR,M,M,M,M,M,M,M,M,M,M,M,M,M,M,77.00,KCXP 022055Z AUTO 09006KT 10SM CLR 25/M01 A3009 RMK AO2,M
BVU,2022-10-02 20:55,-114.8611,35.9475,671.00,87.80,53.60,31.17,0.00,0.00,0.00,29.89,M,10.00,10.00,BKN,BKN,M,M,8500.00,10000.00,M,M,TS,M,M,M,M,M,M,85.72,KBVU 022055Z AUTO 00000G10KT 10SM TS BKN085 BKN100 31/12 A2989 RMK AO2 LTG DSNT NE AND E,M
TPH,2022-10-02 20:56,-117.0904,38.0505,1654.00,76.00,27.00,16.32,M,5.00,0.00,30.11,1014.00,10.00,M,CLR,M,M,M,M,M,M,M,M,M,M,M,M,M,M,75.90,KTPH 022056Z AUTO VRB05KT 10SM CLR 24/M03 A3011 RMK AO2 SLP140 T02441028 58013,M
EKO,2022-10-02 20:56,-115.7860,40.8242,1367.00,71.00,30.00,21.69,M,M,0.00,30.11,1016.80,10.00,M,CLR,M,M,M,M,M,M,M,M,M,M,M,M,M,M,71.10,KEKO 022056Z AUTO 10SM CLR 22/M01 A3011 RMK AO2 SLP168 T02171011 56013,M
NFL,2022-10-02 20:56,-118.7010,39.4166,1199.00,77.00,32.00,19.30,0.00,0.00,0.00,30.06,1014.60,10.00,M,CLR,M,M,M,M,M,M,M,M,M,M,M,M,M,M,77.00,KNFL 022056Z 00000KT 10SM CLR 25/00 A3006 RMK AO2 SLP146 T02500000 58013,M
HND,2022-10-02 20:56,-115.1344,35.9729,742.79,92.00,51.00,24.99,260.00,9.00,0.00,29.93,1012.10,10.00,M,CLR,M,M,M,M,M,M,M,M,M,M,M,M,M,M,89.04,KHND 022056Z COR 26009KT 10SM CLR 33/11 A2993 RMK AO2 LTG DSNT E SLP121 T03330106 58019,M
INS,2022-10-02 20:56,-115.6733,36.5872,955.00,86.40,41.70,20.84,30.00,4.00,0.00,29.96,1010.20,10.00,M,CLR,M,M,M,M,M,M,M,M,M,M,M,M,M,M,83.21,KINS 022056Z AUTO 03004KT 10SM CLR 30/05 A2996 RMK AO2 SLP102 T03020054 57019 $,M
LSV,2022-10-02 20:56,-115.0343,36.2362,570.00,96.00,47.00,18.90,230.00,7.00,0.00,29.85,1008.30,10.00,M,CLR,M,M,M,M,M,M,M,M,M,M,M,M,M,M,92.47,KLSV 022056Z AUTO 23007KT 10SM CLR 36/08 A2985 RMK AO2 SLP083 T03560084 57025 $,M
LAS,2022-10-02 20:56,-115.1634,36.0719,663.00,91.00,49.00,23.68,200.00,9.00,0.00,29.90,1009.90,10.00,15.00,FEW,FEW,M,M,10000.00,25000.00,M,M,M,M,M,M,M,M,M,87.82,KLAS 022056Z 20009G15KT 10SM FEW100 FEW250 33/09 A2990 RMK AO2 LTG DSNT E SLP099 TCU DSNT NE-E CB DSNT E-SE SH DSNT SE T03280094 58020 $,M
WMC,2022-10-02 20:56,-117.8072,40.9019,1315.00,77.00,33.00,20.17,M,M,0.00,30.09,1016.10,10.00,M,CLR,M,M,M,M,M,M,M,M,M,M,M,M,M,M,77.00,KWMC 022056Z AUTO 10SM CLR 25/01 A3009 RMK AO2 SLP161 T02500006 56010,M
RTS,2022-10-02 20:59,-119.8764,39.6682,1539.00,75.20,30.20,19.05,310.00,5.00,0.00,30.10,M,10.00,M,CLR,M,M,M,M,M,M,M,M,M,M,M,M,M,M,75.20,KRTS 022059Z AUTO 31005KT 10SM CLR 24/M01 A3010 RMK AO2,M
BAM,2022-10-02 21:15,-116.8743,40.5990,1382.36,73.40,32.00,21.76,140.00,3.00,0.00,30.10,M,10.00,M,CLR,M,M,M,M,M,M,M,M,M,M,M,M,M,M,73.40,KBAM 022115Z AUTO 14003KT 10SM CLR 23/00 A3010 RMK AO1,M
HTH,2022-10-02 21:15,-118.6315,38.5448,1282.89,77.00,30.20,17.94,290.00,7.00,0.00,30.05,M,10.00,M,CLR,M,M,M,M,M,M,M,M,M,M,M,M,M,M,77.00,KHTH 022115Z AUTO 29007KT 10SM CLR 25/M01 A3005 RMK A01,M
TMT,2022-10-02 21:15,-117.1971,39.4643,1749.34,M,M,M,0.00,0.00,0.00,30.13,M,10.00,M,SCT,M,M,M,9000.00,M,M,M,M,M,M,M,M,M,M,M,KTMT 022115Z AUTO 00000KT 10SM SCT090 A3013 RMK AO2,M
MEV,2022-10-02 21:15,-119.7500,38.9963,1441.42,78.80,30.20,16.90,0.00,0.00,0.00,30.06,M,8.00,M,CLR,M,M,M,M,M,M,M,M,M,M,M,M,M,M,78.80,KMEV 022115Z AUTO 00000KT 8SM CLR 26/M01 A3006 RMK AO2,M
CXP,2022-10-02 21:15,-119.7326,39.1923,1431.00,77.00,28.40,16.67,M,4.00,0.00,30.08,M,10.00,M,CLR,M,M,M,M,M,M,M,M,M,M,M,M,M,M,77.00,KCXP 022115Z AUTO VRB04KT 10SM CLR 25/M02 A3008 RMK AO2,M
BVU,2022-10-02 21:15,-114.8611,35.9475,671.00,86.00,57.20,37.62,100.00,17.00,0.00,29.90,M,10.00,M,BKN,BKN,M,M,8500.00,10000.00,M,M,M,M,M,M,M,M,M,84.97,KBVU 022115Z AUTO 10017KT 10SM BKN085 BKN100 30/14 A2990 RMK AO2 LTG DSNT E AND SE,M
05U,2022-10-02 21:15,-116.0051,39.6042,1811.23,75.20,24.80,15.25,280.00,7.00,0.00,30.14,M,10.00,15.00,CLR,M,M,M,M,M,M,M,M,M,M,M,M,M,M,75.20,K05U 022115Z AUTO 28007G15KT 10SM CLR 24/M04 A3014 RMK A01,M
RTS,2022-10-02 21:19,-119.8764,39.6682,1539.00,75.20,30.20,19.05,220.00,7.00,0.00,30.10,M,10.00,12.00,CLR,M,M,M,M,M,M,M,M,M,M,M,M,M,M,75.20,KRTS 022119Z AUTO 22007G12KT 10SM CLR 24/M01 A3010 RMK AO2,M
BAM,2022-10-02 21:35,-116.8743,40.5990,1382.36,73.40,32.00,21.76,330.00,4.00,0.00,30.09,M,10.00,M,CLR,M,M,M,M,M,M,M,M,M,M,M,M,M,M,73.40,KBAM 022135Z AUTO 33004KT 10SM CLR 23/00 A3009 RMK AO1,M
HTH,2022-10-02 21:35,-118.6315,38.5448,1282.89,77.00,30.20,17.94,330.00,7.00,0.00,30.04,M,10.00,M,CLR,M,M,M,M,M,M,M,M,M,M,M,M,M,M,77.00,KHTH 022135Z AUTO 33007KT 10SM CLR 25/M01 A3004 RMK A01,M
TMT,2022-10-02 21:35,-117.1971,39.4643,1749.34,M,M,M,170.00,5.00,0.00,30.13,M,10.00,M,CLR,M,M,M,M,M,M,M,M,M,M,M,M,M,M,M,KTMT 022135Z AUTO 17005KT 10SM CLR A3013 RMK AO2,M
MEV,2022-10-02 21:35,-119.7500,38.9963,1441.42,77.00,30.20,17.94,340.00,4.00,0.00,30.06,M,9.00,10.00,CLR,M,M,M,M,M,M,M,M,M,M,M,M,M,M,77.00,KMEV 022135Z AUTO 34004G10KT 9SM CLR 25/M01 A3006 RMK AO2,M
BVU,2022-10-02 21:35,-114.8611,35.9475,671.00,84.20,55.40,37.35,70.00,10.00,0.00,29.89,M,10.00,M,SCT,BKN,M,M,9000.00,11000.00,M,M,M,M,M,M,M,M,M,83.09,KBVU 022135Z AUTO 07010KT 10SM SCT090 BKN110 29/13 A2989 RMK AO2 LTG DSNT E AND SE,M
CXP,2022-10-02 21:35,-119.7326,39.1923,1431.00,78.80,28.40,15.71,M,3.00,0.00,30.07,M,10.00,M,CLR,M,M,M,M,M,M,M,M,M,M,M,M,M,M,78.80,KCXP 022135Z AUTO VRB03KT 10SM CLR 26/M02 A3007 RMK AO2,M
05U,2022-10-02 21:35,-116.0051,39.6042,1811.23,75.20,24.80,15.25,310.00,7.00,0.00,30.13,M,10.00,16.00,CLR,M,M,M,M,M,M,M,M,M,M,M,M,M,M,75.20,K05U 022135Z AUTO 31007G16KT 10SM CLR 24/M04 A3013 RMK A01,M
RTS,2022-10-02 21:39,-119.8764,39.6682,1539.00,75.20,28.40,17.70,340.00,4.00,0.00,30.09,M,10.00,M,CLR,M,M,M,M,M,M,M,M,M,M,M,M,M,M,75.20,KRTS 022139Z AUTO 34004KT 10SM CLR 24/M02 A3009 RMK AO2,M
LOL,2022-10-02 21:53,-118.5701,40.0684,1192.43,79.00,M,M,360.00,5.00,0.00,30.04,1014.90,10.00,M,CLR,M,M,M,M,M,M,M,M,M,M,M,M,M,M,M,KLOL 022153Z AUTO 36005KT 10SM CLR 26/ A3004 RMK AO2 SLP149 T0261 $,M
ELY,2022-10-02 21:53,-114.8453,39.2950,1909.00,72.00,27.00,18.61,230.00,6.00,0.00,30.11,1012.90,10.00,17.00,BKN,M,M,M,10000.00,M,M,M,M,M,M,M,M,M,M,72.00,KELY 022153Z AUTO 23006G17KT 10SM BKN100 22/M03 A3011 RMK AO2 SLP129 T02221028,M
VGT,2022-10-02 21:53,-115.1933,36.2111,667.00,94.00,46.00,19.40,180.00,10.00,0.00,29.87,1010.40,10.00,M,CLR,M,M,M,M,M,M,M,M,M,M,M,M,M,M,90.17,KVGT 022153Z 18010KT 10SM CLR 34/08 A2987 RMK AO2 LTG DSNT SE SLP104 T03440078,M
DRA,2022-10-02 21:53,-116.0278,36.6206,1009.00,88.00,42.00,20.11,210.00,9.00,0.00,29.95,1009.70,10.00,21.00,CLR,M,M,M,M,M,M,M,M,M,M,M,M,M,M,84.52,KDRA 022153Z AUTO 21009G21KT 170V270 10SM CLR 31/06 A2995 RMK AO2 SLP097 T03110056,M
P68,2022-10-02 21:53,-116.0056,39.6014,1993.00,74.00,24.10,15.47,270.00,12.00,0.00,30.10,1013.70,M,19.00,M,M,M,M,M,M,M,M,M,M,M,M,M,M,M,73.90,KP68 022153Z AUTO 27012G19KT 23/M04 A3010 RMK AO1 SLP137 T02331044,M
BAM,2022-10-02 21:55,-116.8743,40.5990,1382.36,73.40,32.00,21.76,0.00,0.00,0.00,30.09,M,10.00,M,CLR,M,M,M,M,M,M,M,M,M,M,M,M,M,M,73.40,KBAM 022155Z AUTO 00000KT 10SM CLR 23/00 A3009 RMK AO1,M
HTH,2022-10-02 21:55,-118.6315,38.5448,1282.89,77.00,30.20,17.94,310.00,8.00,0.00,30.04,M,10.00,M,CLR,M,M,M,M,M,M,M,M,M,M,M,M,M,M,77.00,KHTH 022155Z AUTO 31008KT 10SM CLR 25/M01 A3004 RMK A01,M
TMT,2022-10-02 21:55,-117.1971,39.4643,1749.34,M,M,M,340.00,7.00,0.00,30.12,M,10.00,M,CLR,M,M,M,M,M,M,M,M,M,M,M,M,M,M,M,KTMT 022155Z AUTO 34007KT 10SM CLR A3012 RMK AO2 LTG DSNT SE,M
CXP,2022-10-02 21:55,-119.7326,39.1923,1431.00,80.60,30.20,15.94,M,6.00,0.00,30.07,M,10.00,12.00,CLR,M,M,M,M,M,M,M,M,M,M,M,M,M,M,78.77,KCXP 022155Z AUTO VRB06G12KT 10SM CLR 27/M01 A3007 RMK AO2,M
RNO,2022-10-02 21:55,-119.7711,39.4839,1341.00,79.00,34.00,19.57,0.00,0.00,0.00,30.05,1013.30,10.00,M,FEW,M,M,M,7000.00,M,M,M,M,M,M,M,M,M,M,79.00,KRNO 022155Z 00000KT 10SM FEW070 26/01 A3005 RMK AO2 SLP133 T02610011 $,M
MEV,2022-10-02 21:55,-119.7500,38.9963,1441.42,78.80,30.20,16.90,320.00,10.00,0.00,30.06,M,6.00,M,CLR,M,M,M,M,M,M,M,HZ,M,M,M,M,M,M,78.80,KMEV 022155Z AUTO 32010KT 6SM HZ CLR 26/M01 A3006 RMK AO2,M
BVU,2022-10-02 21:55,-114.8611,35.9475,671.00,87.80,57.20,35.53,100.00,8.00,0.00,29.89,M,10.00,16.00,FEW,FEW,M,M,9500.00,12000.00,M,M,M,M,M,M,M,M,M,86.58,KBVU 022155Z AUTO 10008G16KT 10SM FEW095 FEW120 31/14 A2989 RMK AO2 LTG DSNT NE AND SE,M
05U,2022-10-02 21:55,-116.0051,39.6042,1811.23,77.00,23.00,13.32,260.00,12.00,0.00,30.13,M,10.00,M,CLR,M,M,M,M,M,M,M,M,M,M,M,M,M,M,77.00,K05U 022155Z AUTO 26012KT 10SM CLR 25/M05 A3013 RMK A01,M
HND,2022-10-02 21:56,-115.1344,35.9729,742.79,93.00,49.00,22.25,260.00,8.00,0.00,29.92,1011.70,10.00,M,CLR,M,M,M,M,M,M,M,M,M,M,M,M,M,M,89.72,KHND 022156Z 26008KT 10SM CLR 34/09 A2992 RMK AO2 LTG DSNT E SLP117 T03390094,M
LSV,2022-10-02 21:56,-115.0343,36.2362,570.00,95.50,46.60,18.89,210.00,11.00,0.00,29.83,1007.70,10.00,15.00,CLR,M,M,M,M,M,M,M,M,M,M,M,M,M,M,91.80,KLSV 022156Z AUTO 21011G15KT 10SM CLR 35/08 A2983 RMK AO2 SLP077 T03530081 $,M
TPH,2022-10-02 21:56,-117.0904,38.0505,1654.00,77.00,27.00,15.74,0.00,0.00,0.00,30.09,1013.00,10.00,M,CLR,M,M,M,M,M,M,M,M,M,M,M,M,M,M,77.00,KTPH 022156Z AUTO 00000KT 10SM CLR 25/M03 A3009 RMK AO2 SLP130 T02501028,M
EKO,2022-10-02 21:56,-115.7860,40.8242,1367.00,72.00,28.90,20.12,290.00,7.00,0.00,30.09,1016.10,10.00,M,CLR,M,M,M,M,M,M,M,M,M,M,M,M,M,M,72.00,KEKO 022156Z AUTO 29007KT 10SM CLR 22/M02 A3009 RMK AO2 SLP161 T02221017,M
WMC,2022-10-02 21:56,-117.8072,40.9019,1315.00,77.00,33.00,20.17,M,3.00,0.00,30.07,1015.80,10.00,M,CLR,M,M,M,M,M,M,M,M,M,M,M,M,M,M,77.00,KWMC 022156Z AUTO VRB03KT 10SM CLR 25/01 A3007 RMK AO2 SLP158 T02500006,M
NFL,2022-10-02 21:56,-118.7010,39.4166,1199.00,79.00,33.00,18.88,M,4.00,0.00,30.04,1014.10,10.00,M,CLR,M,M,M,M,M,M,M,M,M,M,M,M,M,M,79.00,KNFL 022156Z VRB04KT 10SM CLR 26/01 A3004 RMK AO2 SLP141 T02610006,M
LAS,2022-10-02 21:56,-115.1634,36.0719,663.00,93.00,47.00,20.64,210.00,12.00,0.00,29.88,1009.10,10.00,17.00,FEW,FEW,M,M,10000.00,25000.00,M,M,M,M,M,M,M,M,M,89.43,KLAS 022156Z 21012G17KT 10SM FEW100 FEW250 34/08 A2988 RMK AO2 LTG DSNT SE SLP091 TCU DSNT NE-E CB DSNT E-SE SH DSNT SE T03390083 $,M
INS,2022-10-02 21:56,-115.6733,36.5872,955.00,88.20,42.00,19.98,330.00,5.00,0.00,29.93,1009.20,10.00,M,CLR,M,M,M,M,M,M,M,M,M,M,M,M,M,M,84.69,KINS 022156Z AUTO 33005KT 10SM CLR 31/06 A2993 RMK AO2 SLP092 T03120056 $,M
RTS,2022-10-02 21:59,-119.8764,39.6682,1539.00,75.20,28.40,17.70,340.00,9.00,0.00,30.09,M,10.00,M,CLR,M,M,M,M,M,M,M,M,M,M,M,M,M,M,75.20,KRTS 022159Z AUTO 34009KT 10SM CLR 24/M02 A3009 RMK AO2,M
CXP,2022-10-02 22:15,-119.7326,39.1923,1431.00,78.80,32.00,18.18,200.00,7.00,0.00,30.06,M,10.00,M,CLR,M,M,M,M,M,M,M,M,M,M,M,M,M,M,78.80,KCXP 022215Z AUTO 20007KT 170V250 10SM CLR 26/M00 A3006 RMK AO2,M
TMT,2022-10-02 22:15,-117.1971,39.4643,1749.34,M,M,M,0.00,0.00,0.00,30.12,M,10.00,M,CLR,M,M,M,M,M,M,M,M,M,M,M,M,M,M,M,KTMT 022215Z AUTO 00000KT 10SM CLR A3012 RMK AO2,M
BVU,2022-10-02 22:15,-114.8611,35.9475,671.00,86.00,57.20,37.62,130.00,10.00,0.00,29.89,M,10.00,M,FEW,M,M,M,10000.00,M,M,M,M,M,M,M,M,M,M,84.97,KBVU 022215Z AUTO 13010KT 10SM FEW100 30/14 A2989 RMK AO2,M
BAM,2022-10-02 22:15,-116.8743,40.5990,1382.36,75.20,32.00,20.49,0.00,0.00,0.00,30.09,M,10.00,M,CLR,M,M,M,M,M,M,M,M,M,M,M,M,M,M,75.20,KBAM 022215Z AUTO 00000KT 10SM CLR 24/00 A3009 RMK AO1,M
MEV,2022-10-02 22:15,-119.7500,38.9963,1441.42,78.80,32.00,18.18,M,3.00,0.00,30.05,M,9.00,M,CLR,M,M,M,M,M,M,M,M,M,M,M,M,M,M,78.80,KMEV 022215Z AUTO VRB03KT 9SM CLR 26/M00 A3005 RMK AO2,M
05U,2022-10-02 22:15,-116.0051,39.6042,1811.23,75.20,23.00,14.15,M,3.00,0.00,30.13,M,10.00,M,CLR,M,M,M,M,M,M,M,M,M,M,M,M,M,M,75.20,K05U 022215Z AUTO VRB03KT 10SM CLR 24/M05 A3013 RMK A01,M
HTH,2022-10-02 22:15,-118.6315,38.5448,1282.89,78.80,30.20,16.90,320.00,9.00,0.00,30.04,M,10.00,M,CLR,M,M,M,M,M,M,M,M,M,M,M,M,M,M,78.80,KHTH 022215Z AUTO 32009KT 10SM CLR 26/M01 A3004 RMK A01,M
RTS,2022-10-02 22:19,-119.8764,39.6682,1539.00,77.00,28.40,16.67,300.00,9.00,0.00,30.09,M,10.00,M,CLR,M,M,M,M,M,M,M,M,M,M,M,M,M,M,77.00,KRTS 022219Z AUTO 30009KT 10SM CLR 25/M02 A3009 RMK AO2,M
HTH,2022-10-02 22:35,-118.6315,38.5448,1282.89,78.80,28.40,15.71,320.00,10.00,0.00,30.03,M,10.00,M,CLR,M,M,M,M,M,M,M,M,M,M,M,M,M,M,78.80,KHTH 022235Z AUTO 32010KT 10SM CLR 26/M02 A3003 RMK A01,M
CXP,2022-10-02 22:35,-119.7326,39.1923,1431.00,80.60,32.00,17.14,310.00,6.00,0.00,30.07,M,10.00,M,CLR,M,M,M,M,M,M,M,M,M,M,M,M,M,M,78.82,KCXP 022235Z AUTO 31006KT 10SM CLR 27/00 A3007 RMK AO2,M
05U,2022-10-02 22:35,-116.0051,39.6042,1811.23,77.00,23.00,13.32,270.00,10.00,0.00,30.12,M,10.00,19.00,CLR,M,M,M,M,M,M,M,M,M,M,M,M,M,M,77.00,K05U 022235Z AUTO 27010G19KT 220V350 10SM CLR 25/M05 A3012 RMK A01,M
MEV,2022-10-02 22:35,-119.7500,38.9963,1441.42,80.60,30.20,15.94,M,4.00,0.00,30.05,M,10.00,M,CLR,M,M,M,M,M,M,M,M,M,M,M,M,M,M,78.77,KMEV 022235Z AUTO VRB04KT 10SM CLR 27/M01 A3005 RMK AO2,M
BAM,2022-10-02 22:35,-116.8743,40.5990,1382.36,75.20,32.00,20.49,340.00,3.00,0.00,30.09,M,10.00,M,CLR,M,M,M,M,M,M,M,M,M,M,M,M,M,M,75.20,KBAM 022235Z AUTO 34003KT 10SM CLR 24/00 A3009 RMK AO1,M
TMT,2022-10-02 22:35,-117.1971,39.4643,1749.34,M,M,M,350.00,4.00,0.00,30.12,M,10.00,M,CLR,M,M,M,M,M,M,M,M,M,M,M,M,M,M,M,KTMT 022235Z AUTO 35004KT 10SM CLR A3012 RMK AO2,M
BVU,2022-10-02 22:35,-114.8611,35.9475,671.00,87.80,57.20,35.53,60.00,6.00,0.00,29.88,M,10.00,14.00,CLR,M,M,M,M,M,M,M,M,M,M,M,M,M,M,86.58,KBVU 022235Z AUTO 06006G14KT 10SM CLR 31/14 A2988 RMK AO2,M
RTS,2022-10-02 22:39,-119.8764,39.6682,1539.00,77.00,28.40,16.67,320.00,8.00,0.00,30.09,M,10.00,M,CLR,M,M,M,M,M,M,M,M,M,M,M,M,M,M,77.00,KRTS 022239Z AUTO 32008KT 280V340 10SM CLR 25/M02 A3009 RMK AO2,M
CXP,2022-10-02 22:50,-119.7326,39.1923,1431.00,80.60,32.00,17.14,260.00,8.00,0.00,30.07,M,10.00,15.00,CLR,M,M,M,M,M,M,M,M,M,M,M,M,M,M,78.82,KCXP 022250Z AUTO 26008G15KT 10SM CLR 27/M00 A3007 RMK AO2,M
P68,2022-10-02 22:53,-116.0056,39.6014,1993.00,75.00,24.10,14.91,310.00,11.00,0.00,30.10,1013.40,M,19.00,M,M,M,M,M,M,M,M,M,M,M,M,M,M,M,75.00,KP68 022253Z AUTO 31011G19KT 240V330 24/M04 A3010 RMK AO1 SLP134 T02391044,M
ELY,2022-10-02 22:53,-114.8453,39.2950,1909.00,74.00,24.10,15.47,310.00,7.00,0.00,30.11,1013.20,10.00,M,BKN,M,M,M,11000.00,M,M,M,M,M,M,M,M,M,M,73.90,KELY 022253Z AUTO 31007KT 10SM BKN110 23/M04 A3011 RMK AO2 SLP132 T02331044,M
VGT,2022-10-02 22:53,-115.1933,36.2111,667.00,94.00,45.00,18.68,M,4.00,0.00,29.85,1010.00,10.00,M,CLR,M,M,M,M,M,M,M,M,M,M,M,M,M,M,90.05,KVGT 022253Z VRB04KT 10SM CLR 34/07 A2985 RMK AO2 SLP100 T03440072,M
DRA,2022-10-02 22:53,-116.0278,36.6206,1009.00,88.00,38.00,17.08,230.00,13.00,0.00,29.95,1009.60,10.00,21.00,CLR,M,M,M,M,M,M,M,M,M,M,M,29.00,240.00,2022-10-02 22:35,84.34,KDRA 022253Z AUTO 23013G21KT 10SM CLR 31/03 A2995 RMK AO2 PK WND 24029/2235 SLP096 T03110033,M
LOL,2022-10-02 22:53,-118.5701,40.0684,1192.43,78.00,M,M,200.00,6.00,0.00,30.04,1015.10,10.00,M,CLR,M,M,M,M,M,M,M,M,M,M,M,M,M,M,M,KLOL 022253Z AUTO 20006KT 10SM CLR 26/ A3004 RMK AO2 SLP151 T0256 $,M
TMT,2022-10-02 22:55,-117.1971,39.4643,1749.34,M,M,M,330.00,8.00,0.00,30.12,M,10.00,M,CLR,M,M,M,M,M,M,M,M,M,M,M,M,M,M,M,KTMT 022255Z AUTO 33008KT 10SM CLR A3012 RMK AO2,M
BVU,2022-10-02 22:55,-114.8611,35.9475,671.00,89.60,55.40,31.45,130.00,10.00,0.00,29.87,M,10.00,M,CLR,M,M,M,M,M,M,M,M,M,M,M,M,M,M,87.78,KBVU 022255Z AUTO 13010KT 10SM CLR 32/13 A2987 RMK AO2,M
05U,2022-10-02 22:55,-116.0051,39.6042,1811.23,77.00,23.00,13.32,350.00,7.00,0.00,30.12,M,10.00,13.00,CLR,M,M,M,M,M,M,M,M,M,M,M,M,M,M,77.00,K05U 022255Z AUTO 35007G13KT 320V030 10SM CLR 25/M05 A3012 RMK A01,M
MEV,2022-10-02 22:55,-119.7500,38.9963,1441.42,78.80,32.00,18.18,320.00,8.00,0.00,30.05,M,5.00,13.00,CLR,M,M,M,M,M,M,M,HZ,M,M,M,M,M,M,78.80,KMEV 022255Z AUTO 32008G13KT 5SM HZ CLR 26/00 A3005 RMK AO2,M
BAM,2022-10-02 22:55,-116.8743,40.5990,1382.36,77.00,32.00,19.30,350.00,4.00,0.00,30.08,M,10.00,M,CLR,M,M,M,M,M,M,M,M,M,M,M,M,M,M,77.00,KBAM 022255Z AUTO 35004KT 10SM CLR 25/00 A3008 RMK AO1,M
HTH,2022-10-02 22:55,-118.6315,38.5448,1282.89,78.80,28.40,15.71,310.00,10.00,0.00,30.03,M,10.00,M,CLR,M,M,M,M,M,M,M,M,M,M,M,M,M,M,78.80,KHTH 022255Z AUTO 31010KT 10SM CLR 26/M02 A3003 RMK A01,M
RNO,2022-10-02 22:55,-119.7711,39.4839,1341.00,80.00,35.00,19.72,0.00,0.00,0.00,30.04,1013.10,10.00,M,FEW,M,M,M,9000.00,M,M,M,M,M,M,M,M,M,M,78.74,KRNO 022255Z 00000KT 10SM FEW090 27/02 A3004 RMK AO2 SLP131 T02670017 $,M
INS,2022-10-02 22:56,-115.6733,36.5872,955.00,87.40,44.00,21.96,0.00,0.00,0.00,29.92,1009.00,10.00,M,CLR,M,M,M,M,M,M,M,M,M,M,M,M,M,M,84.14,KINS 022256Z AUTO 00000KT 10SM CLR 31/07 A2992 RMK AO2 SLP090 T03080066 $,M
TPH,2022-10-02 22:56,-117.0904,38.0505,1654.00,79.00,23.00,12.47,290.00,10.00,0.00,30.09,1012.90,10.00,15.00,CLR,M,M,M,M,M,M,M,M,M,M,M,M,M,M,79.00,KTPH 022256Z AUTO 29010G15KT 10SM CLR 26/M05 A3009 RMK AO2 SLP129 T02611050,M
LSV,2022-10-02 22:56,-115.0343,36.2362,570.00,92.30,53.40,26.86,110.00,16.00,0.00,29.81,1007.00,10.00,20.00,CLR,M,M,M,M,M,M,M,M,M,M,M,M,M,M,89.91,KLSV 022256Z AUTO 11016G20KT 10SM CLR 34/12 A2981 RMK AO2 SLP070 T03350119 $,M
EKO,2022-10-02 22:56,-115.7860,40.8242,1367.00,74.00,30.00,19.73,M,4.00,0.00,30.09,1015.90,10.00,M,CLR,M,M,M,M,M,M,M,M,M,M,M,M,M,M,73.90,KEKO 022256Z AUTO VRB04KT 10SM CLR 23/M01 A3009 RMK AO2 SLP159 T02331011,M
HND,2022-10-02 22:56,-115.1344,35.9729,742.79,92.00,48.00,22.26,220.00,7.00,0.00,29.91,1011.20,10.00,M,CLR,M,M,M,M,M,M,M,M,M,M,M,M,M,M,88.53,KHND 022256Z 22007KT 10SM CLR 33/09 A2991 RMK AO2 SLP112 T03330089,M
LAS,2022-10-02 22:56,-115.1634,36.0719,663.00,93.00,47.00,20.64,220.00,8.00,0.00,29.87,1008.70,10.00,16.00,FEW,FEW,M,M,10000.00,25000.00,M,M,M,M,M,M,M,M,M,89.43,KLAS 022256Z 22008G16KT 180V250 10SM FEW100 FEW250 34/08 A2987 RMK AO2 SLP087 TCU DSNT E CB DSNT SE AND S T03390083 $,M
WMC,2022-10-02 22:56,-117.8072,40.9019,1315.00,77.00,30.90,18.46,260.00,7.00,0.00,30.07,1015.80,10.00,M,CLR,M,M,M,M,M,M,M,M,M,M,M,M,M,M,77.00,KWMC 022256Z AUTO 26007KT 10SM CLR 25/M01 A3007 RMK AO2 SLP158 T02501006,M
NFL,2022-10-02 22:56,-118.7010,39.4166,1199.00,78.00,30.00,17.16,290.00,5.00,0.00,30.04,1014.00,10.00,M,CLR,M,M,M,M,M,M,M,M,M,M,M,M,M,M,78.10,KNFL 022256Z 29005KT 10SM CLR 26/M01 A3004 RMK AO2 SLP140 T02561011,M
RTS,2022-10-02 22:59,-119.8764,39.6682,1539.00,77.00,28.40,16.67,350.00,6.00,0.00,30.09,M,10.00,13.00,CLR,M,M,M,M,M,M,M,M,M,M,M,M,M,M,77.00,KRTS 022259Z AUTO 35006G13KT 10SM CLR 25/M02 A3009 RMK AO2,M
CXP,2022-10-02 23:10,-119.7326,39.1923,1431.00,78.80,32.00,18.18,270.00,9.00,0.00,30.07,M,10.00,M,CLR,M,M,M,M,M,M,M,M,M,M,M,M,M,M,78.80,KCXP 022310Z AUTO 27009KT 10SM CLR 26/M00 A3007 RMK AO2,M
HTH,2022-10-02 23:15,-118.6315,38.5448,1282.89,78.80,26.60,14.59,320.00,11.00,0.00,30.03,M,10.00,M,CLR,M,M,M,M,M,M,M,M,M,M,M,M,M,M,78.80,KHTH 022315Z AUTO 32011KT 290V350 10SM CLR 26/M03 A3003 RMK A01,M
BVU,2022-10-02 23:15,-114.8611,35.9475,671.00,89.60,53.60,29.45,120.00,8.00,0.00,29.87,M,10.00,M,CLR,M,M,M,M,M,M,M,M,M,M,M,M,M,M,87.36,KBVU 022315Z AUTO 12008KT 10SM CLR 32/12 A2987 RMK AO2,M
05U,2022-10-02 23:15,-116.0051,39.6042,1811.23,75.20,23.00,14.15,340.00,9.00,0.00,30.12,M,10.00,M,CLR,M,M,M,M,M,M,M,M,M,M,M,M,M,M,75.20,K05U 022315Z AUTO 34009KT 10SM CLR 24/M05 A3012 RMK A01,M
MEV,2022-10-02 23:15,-119.7500,38.9963,1441.42,78.80,32.00,18.18,310.00,8.00,0.00,30.05,M,7.00,14.00,CLR,M,M,M,M,M,M,M,M,M,M,M,M,M,M,78.80,KMEV 022315Z AUTO 31008G14KT 7SM CLR 26/00 A3005 RMK AO2,M
BAM,2022-10-02 23:15,-116.8743,40.5990,1382.36,75.20,32.00,20.49,360.00,3.00,0.00,30.08,M,10.00,M,CLR,M,M,M,M,M,M,M,M,M,M,M,M,M,M,75.20,KBAM 022315Z AUTO 36003KT 10SM CLR 24/00 A3008 RMK AO1,M
TMT,2022-10-02 23:15,-117.1971,39.4643,1749.34,M,M,M,350.00,6.00,0.00,30.12,M,10.00,M,CLR,M,M,M,M,M,M,M,M,M,M,M,M,M,M,M,KTMT 022315Z AUTO 35006KT 10SM CLR A3012 RMK AO2,M
RTS,2022-10-02 23:19,-119.8764,39.6682,1539.00,75.20,28.40,17.70,M,6.00,0.00,30.09,M,10.00,M,CLR,M,M,M,M,M,M,M,M,M,M,M,M,M,M,75.20,KRTS 022319Z AUTO VRB06KT 10SM CLR 24/M02 A3009 RMK AO2,M
CXP,2022-10-02 23:30,-119.7326,39.1923,1431.00,78.80,32.00,18.18,240.00,7.00,0.00,30.06,M,10.00,12.00,CLR,M,M,M,M,M,M,M,M,M,M,M,M,M,M,78.80,KCXP 022330Z AUTO 24007G12KT 10SM CLR 26/M00 A3006 RMK AO2,M
TMT,2022-10-02 23:35,-117.1971,39.4643,1749.34,M,M,M,350.00,9.00,0.00,30.12,M,10.00,M,CLR,M,M,M,M,M,M,M,M,M,M,M,M,M,M,M,KTMT 022335Z AUTO 35009KT 10SM CLR A3012 RMK AO2,M
HTH,2022-10-02 23:35,-118.6315,38.5448,1282.89,78.80,26.60,14.59,330.00,11.00,0.00,30.02,M,10.00,M,CLR,M,M,M,M,M,M,M,M,M,M,M,M,M,M,78.80,KHTH 022335Z AUTO 33011KT 10SM CLR 26/M03 A3002 RMK A01,M
BAM,2022-10-02 23:35,-116.8743,40.5990,1382.36,77.00,32.00,19.30,340.00,3.00,0.00,30.08,M,10.00,M,CLR,M,M,M,M,M,M,M,M,M,M,M,M,M,M,77.00,KBAM 022335Z AUTO 34003KT 10SM CLR 25/00 A3008 RMK AO1,M
MEV,2022-10-02 23:35,-119.7500,38.9963,1441.42,78.80,32.00,18.18,M,6.00,0.00,30.05,M,4.00,14.00,CLR,M,M,M,M,M,M,M,HZ,M,M,M,M,M,M,78.80,KMEV 022335Z AUTO VRB06G14KT 4SM HZ CLR 26/M00 A3005 RMK AO2,M
05U,2022-10-02 23:35,-116.0051,39.6042,1811.23,75.20,23.00,14.15,330.00,7.00,0.00,30.12,M,10.00,12.00,CLR,M,M,M,M,M,M,M,M,M,M,M,M,M,M,75.20,K05U 022335Z AUTO 33007G12KT 310V010 10SM CLR 24/M05 A3012 RMK A01,M
BVU,2022-10-02 23:35,-114.8611,35.9475,671.00,89.60,53.60,29.45,120.00,10.00,0.00,29.87,M,10.00,M,CLR,M,M,M,M,M,M,M,M,M,M,M,M,M,M,87.36,KBVU 022335Z AUTO 12010KT 10SM CLR 32/12 A2987 RMK AO2,M
RTS,2022-10-02 23:39,-119.8764,39.6682,1539.00,73.40,26.60,17.46,60.00,10.00,0.00,30.10,M,10.00,15.00,CLR,M,M,M,M,M,M,M,M,M,M,M,M,M,M,73.40,KRTS 022339Z AUTO 06010G15KT 10SM CLR 23/M03 A3010 RMK AO2,M
CXP,2022-10-02 23:50,-119.7326,39.1923,1431.00,78.80,32.00,18.18,M,6.00,0.00,30.07,M,10.00,13.00,CLR,M,M,M,M,M,M,M,M,M,M,M,M,M,M,78.80,KCXP 022350Z AUTO VRB06G13KT 10SM CLR 26/M00 A3007 RMK AO2,M
VGT,2022-10-02 23:53,-115.1933,36.2111,667.00,94.00,44.00,18.05,190.00,8.00,0.00,29.85,1009.70,10.00,M,CLR,M,M,M,M,M,M,M,M,M,M,M,M,M,M,89.95,KVGT 022353Z 19008KT 10SM CLR 34/07 A2985 RMK AO2 SLP097 T03440067 10350 20300 56013,M
LOL,2022-10-02 23:53,-118.5701,40.0684,1192.43,78.00,M,M,M,3.00,0.00,30.03,1014.60,10.00,M,CLR,M,M,M,M,M,M,M,M,M,M,M,M,M,M,M,KLOL 022353Z AUTO VRB03KT 10SM CLR 26/ A3003 RMK AO2 SLP146 T0256 10272 20194 56009 $,M
ELY,2022-10-02 23:53,-114.8453,39.2950,1909.00,72.00,24.10,16.50,260.00,7.00,0.00,30.11,1013.50,10.00,M,CLR,M,M,M,M,M,M,M,M,M,M,M,M,M,M,72.00,KELY 022353Z AUTO 26007KT 10SM CLR 22/M04 A3011 RMK AO2 SLP135 T02221044 10239 20178 55003,M
DRA,2022-10-02 23:53,-116.0278,36.6206,1009.00,87.00,36.00,16.31,230.00,10.00,0.00,29.94,1009.40,10.00,M,CLR,M,M,M,M,M,M,M,M,M,M,M,M,M,M,83.56,KDRA 022353Z AUTO 23010KT 10SM CLR 31/02 A2994 RMK AO2 SLP094 T03060022 10317 20289 56010,M
P68,2022-10-02 23:53,-116.0056,39.6014,1993.00,74.00,24.10,15.47,320.00,9.00,0.00,30.10,1013.50,M,M,M,M,M,M,M,M,M,M,M,M,M,M,M,M,M,73.90,KP68 022353Z AUTO 32009KT 23/M04 A3010 RMK AO1 SLP135 T02331044 10239 20178 55005,M
05U,2022-10-02 23:55,-116.0051,39.6042,1811.23,75.20,23.00,14.15,310.00,7.00,0.00,30.13,M,10.00,14.00,CLR,M,M,M,M,M,M,M,M,M,M,M,M,M,M,75.20,K05U 022355Z AUTO 31007G14KT 10SM CLR 24/M05 A3013 RMK A01,M
BAM,2022-10-02 23:55,-116.8743,40.5990,1382.36,75.20,32.00,20.49,350.00,6.00,0.00,30.08,M,10.00,M,CLR,M,M,M,M,M,M,M,M,M,M,M,M,M,M,75.20,KBAM 022355Z AUTO 35006KT 10SM CLR 24/00 A3008 RMK AO1,M
MEV,2022-10-02 23:55,-119.7500,38.9963,1441.42,78.80,32.00,18.18,300.00,7.00,0.00,30.05,M,4.00,M,CLR,M,M,M,M,M,M,M,HZ,M,M,M,M,M,M,78.80,KMEV 022355Z AUTO 30007KT 4SM HZ CLR 26/00 A3005 RMK AO2,M
HTH,2022-10-02 23:55,-118.6315,38.5448,1282.89,78.80,28.40,15.71,310.00,9.00,0.00,30.03,M,10.00,14.00,CLR,M,M,M,M,M,M,M,M,M,M,M,M,M,M,78.80,KHTH 022355Z AUTO 31009G14KT 10SM CLR 26/M02 A3003 RMK A01,M
BVU,2022-10-02 23:55,-114.8611,35.9475,671.00,91.40,51.80,26.05,110.00,8.00,0.00,29.87,M,10.00,M,CLR,M,M,M,M,M,M,M,M,M,M,M,M,M,M,88.69,KBVU 022355Z AUTO 11008KT 10SM CLR 33/11 A2987 RMK AO2,M
TMT,2022-10-02 23:55,-117.1971,39.4643,1749.34,72.00,30.70,21.65,10.00,10.00,0.00,30.12,M,10.00,M,CLR,M,M,M,M,M,M,M,M,M,M,M,M,M,M,72.00,KTMT 022355Z AUTO 01010KT 10SM CLR 22/M01 A3012 RMK AO2 T02221007,M
RNO,2022-10-02 23:55,-119.7711,39.4839,1341.00,80.00,36.00,20.44,70.00,5.00,0.00,30.04,1013.00,10.00,M,FEW,M,M,M,9000.00,M,M,M,M,M,M,M,M,M,M,78.77,KRNO 022355Z 07005KT 10SM FEW090 27/02 A3004 RMK AO2 SLP130 T02670022 10272 20189 56007 $,M
LSV,2022-10-02 23:56,-115.0343,36.2362,570.00,92.50,51.40,24.80,140.00,9.00,0.00,29.81,1007.00,10.00,M,CLR,M,M,M,M,M,M,M,M,M,M,M,M,M,M,89.68,KLSV 022356Z AUTO 14009KT 10SM CLR 34/11 A2981 RMK AO2 SLP070 T03360108 10361 20334 56012 $,M
EKO,2022-10-02 23:56,-115.7860,40.8242,1367.00,72.00,27.00,18.61,210.00,5.00,0.00,30.09,1016.20,10.00,M,CLR,M,M,M,M,M,M,M,M,M,M,M,M,M,M,72.00,KEKO 022356Z AUTO 21005KT 10SM CLR 22/M03 A3009 RMK AO2 SLP162 T02221028 10233 20156 56005,M
HND,2022-10-02 23:56,-115.1344,35.9729,742.79,92.00,47.00,21.36,270.00,7.00,0.00,29.90,1011.30,10.00,M,CLR,M,M,M,M,M,M,M,M,M,M,M,M,M,M,88.39,KHND 022356Z 27007KT 10SM CLR 33/08 A2990 RMK AO2 SLP113 T03330083 10344 20300 56009,M
WMC,2022-10-02 23:56,-117.8072,40.9019,1315.00,77.00,30.90,18.46,310.00,8.00,0.00,30.07,1015.80,10.00,M,CLR,M,M,M,M,M,M,M,M,M,M,M,M,M,M,77.00,KWMC 022356Z AUTO 31008KT 10SM CLR 25/M01 A3007 RMK AO2 SLP158 T02501006 10256 20189 56005,M
NFL,2022-10-02 23:56,-118.7010,39.4166,1199.00,79.00,28.90,15.93,10.00,7.00,0.00,30.03,1013.90,10.00,M,CLR,M,M,M,M,M,M,M,M,M,M,M,M,M,M,79.00,KNFL 022356Z 01007KT 10SM CLR 26/M02 A3003 RMK AO2 SLP139 T02611017 10267 20189 56008,M
LAS,2022-10-02 23:56,-115.1634,36.0719,663.00,92.00,45.00,19.88,240.00,9.00,0.00,29.87,1008.70,10.00,M,FEW,FEW,M,M,10000.00,25000.00,M,M,M,M,M,M,M,M,M,88.17,KLAS 022356Z 24009KT 10SM FEW100 FEW250 33/07 A2987 RMK AO2 SLP087 CB DSNT SE T03330072 10339 20306 56012 $,M
TPH,2022-10-02 23:56,-117.0904,38.0505,1654.00,77.00,25.00,14.49,240.00,4.00,0.00,30.08,1012.90,10.00,M,CLR,M,M,M,M,M,M,M,M,M,M,M,M,M,M,77.00,KTPH 022356Z AUTO 24004KT 10SM CLR 25/M04 A3008 RMK AO2 SLP129 T02501039 10267 20194 56009,M
INS,2022-10-02 23:56,-115.6733,36.5872,955.00,87.00,44.80,22.95,130.00,4.00,0.00,29.91,1008.70,10.00,M,CLR,M,M,M,M,M,M,M,M,M,M,M,M,M,M,83.96,KINS 022356Z AUTO 13004KT 10SM CLR 31/07 A2991 RMK AO2 SLP087 T03060071 10315 20256 57012 $,M
RTS,2022-10-02 23:59,-119.8764,39.6682,1539.00,73.40,26.60,17.46,50.00,11.00,0.00,30.10,M,10.00,M,CLR,M,M,M,M,M,M,M,M,M,M,M,M,M,M,73.40,KRTS 022359Z AUTO 05011KT 10SM CLR 23/M03 A3010 RMK AO2,M
