station,valid,lon,lat,elevation,tmpf,dwpf,relh,drct,sknt,p01i,alti,mslp,vsby,gust,skyc1,skyc2,skyc3,skyc4,skyl1,skyl2,skyl3,skyl4,wxcodes,ice_accretion_1hr,ice_accretion_3hr,ice_accretion_6hr,peak_wind_gust,peak_wind_drct,peak_wind_time,feel,metar,snowdepth
RNO,2024-03-31 00:05,-119.7711,39.4839,1341.00,36.00,32.00,85.23,280.00,13.00,0.01,29.63,M,1.75,19.00,SCT,OVC,M,M,700.00,1200.00,M,M,-SNRA BR,M,M,M,M,M,M,26.69,KRNO 310005Z 28013G19KT 1 3/4SM -SNRA BR SCT007 OVC012 02/00 A2963 RMK AO2 TWR VIS 2 P0001 T00220000 $,M
LSV,2024-03-31 00:05,-115.0343,36.2362,570.00,51.80,41.00,66.48,270.00,10.00,0.00,29.67,1003.90,10.00,19.00,SCT,M,M,M,4800.00,M,M,M,M,M,M,M,M,M,M,51.80,KLSV 310005Z AUTO 27010G19KT 10SM SCT048 11/05 A2967 RMK AO2 RAE05 SLP039 $,M
05U,2024-03-31 00:10,-116.0051,39.6042,1811.23,41.00,33.80,75.33,320.00,9.00,0.00,29.63,M,10.00,M,CLR,M,M,M,M,M,M,M,M,M,M,M,M,M,M,34.70,K05U 310010Z AUTO 32009KT 10SM CLR 05/01 A2963 RMK A01,M
LSV,2024-03-31 00:13,-115.0343,36.2362,570.00,53.60,39.20,58.02,260.00,14.00,0.00,29.67,1003.90,10.00,M,BKN,M,M,M,4500.00,M,M,M,-RA,M,M,M,M,M,M,53.60,KLSV 310013Z AUTO 26014KT 10SM -RA BKN045 12/04 A2967 RMK AO2 RAE05RAB13 SLP039 $,M
BVU,2024-03-31 00:15,-114.8611,35.9475,671.00,46.40,41.00,81.34,220.00,9.00,0.00,29.73,M,7.00,16.00,FEW,OVC,M,M,3100.00,3900.00,M,M,-RA,M,M,M,M,M,M,41.42,KBVU 310015Z AUTO 22009G16KT 7SM -RA FEW031 OVC039 08/05 A2973 RMK AO2,M
CXP,2024-03-31 00:15,-119.7326,39.1923,1431.00,37.40,32.00,80.65,190.00,8.00,0.00,29.64,M,9.00,M,FEW,SCT,OVC,M,1300.00,1800.00,2700.00,M,-RA,M,M,M,M,M,M,30.76,KCXP 310015Z AUTO 19008KT 160V220 9SM -RA FEW013 SCT018 OVC027 03/00 A2964 RMK AO2,M
MEV,2024-03-31 00:15,-119.7500,38.9963,1441.42,32.00,32.00,100.00,150.00,6.00,0.00,29.64,M,0.25,M,OVC,M,M,M,300.00,M,M,M,SN FG,M,M,M,M,M,M,25.53,KMEV 310015Z AUTO 15006KT 1/4SM SN FG OVC003 00/00 A2964 RMK AO2,M
HTH,2024-03-31 00:15,-118.6315,38.5448,1282.89,41.00,35.60,80.93,110.00,3.00,0.00,29.60,M,10.00,M,SCT,M,M,M,4300.00,M,M,M,M,M,M,M,M,M,M,38.98,KHTH 310015Z AUTO 11003KT 10SM SCT043 05/02 A2960 RMK A01,M
10U,2024-03-31 00:15,-116.1876,41.9532,1637.00,44.60,35.60,70.48,40.00,13.00,0.00,29.65,M,10.00,21.00,BKN,BKN,M,M,4600.00,5500.00,M,M,M,M,M,M,M,M,M,37.71,K10U 310015Z AUTO 04013G21KT 10SM BKN046 BKN055 07/02 A2965 RMK AO2,M
BAM,2024-03-31 00:15,-116.8743,40.5990,1382.36,50.00,37.40,61.76,100.00,12.00,0.00,29.61,M,10.00,M,SCT,BKN,OVC,M,4200.00,4800.00,8000.00,M,M,M,M,M,M,M,M,50.00,KBAM 310015Z AUTO 10012KT 10SM SCT042 BKN048 OVC080 10/03 A2961 RMK AO1,M
TMT,2024-03-31 00:15,-117.1971,39.4643,1749.34,38.70,33.60,81.73,200.00,4.00,0.00,29.60,M,10.00,M,SCT,BKN,BKN,M,1700.00,2800.00,8000.00,M,M,M,M,M,M,M,M,35.24,KTMT 310015Z AUTO 20004KT 10SM SCT017 BKN028 BKN080 04/01 A2960 RMK AO2 T00370009,M
ELY,2024-03-31 00:22,-114.8453,39.2950,1909.00,35.00,32.00,88.68,170.00,10.00,0.01,29.66,M,10.00,M,FEW,OVC,M,M,3000.00,3800.00,M,M,UP,M,M,M,M,M,M,26.73,KELY 310022Z AUTO 17010KT 10SM UP FEW030 OVC038 02/00 A2966 RMK AO2 UPB12SNE12 P0001 T00170000,M
LSV,2024-03-31 00:23,-115.0343,36.2362,570.00,53.60,41.00,62.23,270.00,14.00,0.00,29.69,1004.60,10.00,M,SCT,M,M,M,4500.00,M,M,M,-RA,M,M,M,M,M,M,53.60,KLSV 310023Z AUTO 27014KT 10SM -RA SCT045 12/05 A2969 RMK AO2 RAE05RAB13 PRESRR SLP046 $,M
LSV,2024-03-31 00:24,-115.0343,36.2362,570.00,53.60,41.00,62.23,260.00,13.00,0.00,29.69,1004.60,10.00,M,SCT,M,M,M,4500.00,M,M,M,M,M,M,M,M,M,M,53.60,KLSV 310024Z AUTO 26013KT 10SM SCT045 12/05 A2969 RMK AO2 RAE05RAB13E24 SLP046 $,M
INS,2024-03-31 00:27,-115.6733,36.5872,955.00,44.60,37.40,75.68,20.00,3.00,0.00,29.70,1003.90,10.00,M,FEW,FEW,SCT,BKN,700.00,1800.00,2900.00,7000.00,-RA,M,M,M,M,M,M,43.09,KINS 310027Z AUTO 02003KT 10SM -RA FEW007 FEW018 SCT029 BKN070 OVC100 07/03 A2970 RMK AO2 RAB27 SLP039 $,M
TPH,2024-03-31 00:29,-117.0904,38.0505,1654.00,39.00,32.00,75.75,190.00,17.00,T,29.61,M,10.00,23.00,FEW,BKN,OVC,M,2100.00,3100.00,4200.00,M,-RA,M,M,M,M,M,M,29.25,KTPH 310029Z AUTO 19017G23KT 10SM -RA FEW021 BKN031 OVC042 04/00 A2961 RMK AO2 RAB24 P0000 T00390000,M
05U,2024-03-31 00:30,-116.0051,39.6042,1811.23,41.00,33.80,75.33,330.00,12.00,0.00,29.63,M,10.00,M,FEW,M,M,M,1800.00,M,M,M,M,M,M,M,M,M,M,33.46,K05U 310030Z AUTO 33012KT 10SM FEW018 05/01 A2963 RMK A01,M
LSV,2024-03-31 00:34,-115.0343,36.2362,570.00,53.60,39.20,58.02,270.00,13.00,0.00,29.69,1004.60,10.00,M,FEW,M,M,M,4400.00,M,M,M,-RA,M,M,M,M,M,M,53.60,KLSV 310034Z AUTO 27013KT 10SM -RA FEW044 12/04 A2969 RMK AO2 RAE05RAB13E24RAB34 SLP046 $,M
BVU,2024-03-31 00:35,-114.8611,35.9475,671.00,46.40,41.00,81.34,230.00,12.00,0.00,29.74,M,5.00,23.00,FEW,OVC,M,M,2500.00,3700.00,M,M,-RA,M,M,M,M,M,M,40.33,KBVU 310035Z AUTO 23012G23KT 5SM -RA FEW025 OVC037 08/05 A2974 RMK AO2,M
CXP,2024-03-31 00:35,-119.7326,39.1923,1431.00,33.80,32.00,93.03,180.00,4.00,0.00,29.64,M,1.50,M,BKN,BKN,OVC,M,500.00,1200.00,2800.00,M,UP BR,M,M,M,M,M,M,29.52,KCXP 310035Z AUTO 18004KT 1 1/2SM UP BR BKN005 BKN012 OVC028 01/00 A2964 RMK AO2,M
MEV,2024-03-31 00:35,-119.7500,38.9963,1441.42,32.00,32.00,100.00,140.00,6.00,0.00,29.64,M,0.25,M,OVC,M,M,M,300.00,M,M,M,SN FG,M,M,M,M,M,M,25.53,KMEV 310035Z AUTO 14006KT 1/4SM SN FG OVC003 00/00 A2964 RMK AO2,M
HTH,2024-03-31 00:35,-118.6315,38.5448,1282.89,39.20,35.60,86.79,130.00,7.00,0.00,29.60,M,10.00,M,CLR,M,M,M,M,M,M,M,M,M,M,M,M,M,M,33.56,KHTH 310035Z AUTO 13007KT 10SM CLR 04/02 A2960 RMK A01,M
TMT,2024-03-31 00:35,-117.1971,39.4643,1749.34,38.70,33.00,79.79,0.00,0.00,0.00,29.59,M,10.00,M,SCT,SCT,M,M,1700.00,8000.00,M,M,M,M,M,M,M,M,M,38.70,KTMT 310035Z AUTO 00000KT 10SM SCT017 SCT080 04/01 A2959 RMK AO2 T00370006,M
10U,2024-03-31 00:35,-116.1876,41.9532,1637.00,44.60,33.80,65.61,30.00,12.00,0.00,29.65,M,10.00,18.00,BKN,BKN,M,M,4900.00,5500.00,M,M,M,M,M,M,M,M,M,38.04,K10U 310035Z AUTO 03012G18KT 10SM BKN049 BKN055 07/01 A2965 RMK AO2,M
BAM,2024-03-31 00:35,-116.8743,40.5990,1382.36,50.00,39.20,66.27,60.00,10.00,0.00,29.60,M,10.00,M,SCT,BKN,M,M,3300.00,4800.00,M,M,M,M,M,M,M,M,M,50.00,KBAM 310035Z AUTO 06010KT 10SM SCT033 BKN048 10/04 A2960 RMK AO1,M
LSV,2024-03-31 00:39,-115.0343,36.2362,570.00,53.60,39.20,58.02,280.00,13.00,0.00,29.69,1004.60,10.00,M,CLR,M,M,M,M,M,M,M,M,M,M,M,M,M,M,53.60,KLSV 310039Z AUTO 28013KT 10SM CLR 12/04 A2969 RMK AO2 RAE05RAB13E24RAB34E39 SLP046 $,M
TPH,2024-03-31 00:39,-117.0904,38.0505,1654.00,38.00,32.00,78.77,150.00,17.00,T,29.61,M,10.00,34.00,FEW,BKN,OVC,M,2100.00,2500.00,4500.00,M,-RA,M,M,M,34.00,180.00,2024-03-31 00:30,27.94,KTPH 310039Z AUTO 15017G34KT 10SM -RA FEW021 BKN025 OVC045 03/00 A2961 RMK AO2 PK WND 18034/0030 RAB24 P0000 T00330000,M
RNO,2024-03-31 00:42,-119.7711,39.4839,1341.00,36.00,33.00,88.73,280.00,13.00,0.07,29.63,M,2.50,M,SCT,BKN,OVC,M,700.00,1500.00,2000.00,M,-RA BR,M,M,M,M,M,M,26.69,KRNO 310042Z 28013KT 2 1/2SM -RA BR SCT007 BKN015 OVC020 02/01 A2963 RMK AO2 SNE41 P0007 T00220006 $,M
LSV,2024-03-31 00:42,-115.0343,36.2362,570.00,51.80,39.20,61.99,290.00,10.00,0.00,29.69,1004.70,9.00,M,CLR,M,M,M,M,M,M,M,-RA,M,M,M,M,M,M,51.80,KLSV 310042Z AUTO 29010KT 9SM -RA CLR 11/04 A2969 RMK AO2 RAE05RAB13E24RAB34E39RAB42 SLP047 $,M
INS,2024-03-31 00:43,-115.6733,36.5872,955.00,44.60,37.40,75.68,70.00,13.00,0.00,29.70,1003.90,10.00,M,FEW,FEW,FEW,OVC,1600.00,2900.00,6000.00,7500.00,M,M,M,M,M,M,M,37.71,KINS 310043Z AUTO 07013KT 10SM FEW016 FEW029 FEW060 OVC075 07/03 A2970 RMK AO2 RAB27E43 SLP039 $,M
LSV,2024-03-31 00:48,-115.0343,36.2362,570.00,51.80,41.00,66.48,270.00,10.00,0.00,29.69,1004.70,9.00,M,CLR,M,M,M,M,M,M,M,M,M,M,M,M,M,M,51.80,KLSV 310048Z AUTO 27010KT 9SM CLR 11/05 A2969 RMK AO2 RAE05RAB13E24RAB34E39RAB42E48 SLP047 $,M
05U,2024-03-31 00:50,-116.0051,39.6042,1811.23,39.20,32.00,75.16,310.00,12.00,0.00,29.64,M,10.00,19.00,SCT,SCT,M,M,2800.00,3300.00,M,M,M,M,M,M,M,M,M,31.17,K05U 310050Z AUTO 31012G19KT 10SM SCT028 SCT033 04/00 A2964 RMK A01,M
P68,2024-03-31 00:53,-116.0056,39.6014,1993.00,39.00,32.00,75.75,150.00,16.00,0.00,29.61,1000.60,M,22.00,M,M,M,M,M,M,M,M,M,M,M,M,26.00,170.00,2024-03-31 00:33,29.54,KP68 310053Z AUTO 15016G22KT 04/00 A2961 RMK AO1 PK WND 17026/0033 SLP006 T00390000,M
DRA,2024-03-31 00:53,-116.0278,36.6206,1009.00,43.00,37.00,79.19,330.00,6.00,T,29.68,1003.60,10.00,M,BKN,OVC,M,M,8000.00,9500.00,M,M,M,M,M,M,M,M,M,38.78,KDRA 310053Z AUTO 33006KT 10SM BKN080 OVC095 06/03 A2968 RMK AO2 RAE04 SLP036 P0000 T00610028,M
ELY,2024-03-31 00:53,-114.8453,39.2950,1909.00,35.00,32.00,88.68,190.00,10.00,0.01,29.66,1003.10,10.00,M,BKN,OVC,M,M,4000.00,5000.00,M,M,-RA,M,M,M,M,M,M,26.73,KELY 310053Z AUTO 19010KT 10SM -RA BKN040 OVC050 02/00 A2966 RMK AO2 UPB12E47RAB43SNE12 SLP031 P0001 T00170000,M
VGT,2024-03-31 00:53,-115.1933,36.2111,667.00,50.00,41.00,71.07,330.00,6.00,0.02,29.72,1007.50,4.00,M,OVC,M,M,M,4100.00,M,M,M,-RA,M,M,M,M,M,M,50.00,KVGT 310053Z 33006KT 4SM -RA OVC041 10/05 A2972 RMK AO2 RAE2355B23 SLP075 P0002 T01000050,M
LOL,2024-03-31 00:53,-118.5701,40.0684,1192.43,45.00,40.00,82.51,0.00,0.00,0.00,29.58,1001.80,10.00,M,SCT,SCT,M,M,4400.00,6000.00,M,M,M,M,M,M,M,M,M,45.00,KLOL 310053Z AUTO 00000KT 10SM SCT044 SCT060 07/04 A2958 RMK AO2 SLP018 T00720044,M
BVU,2024-03-31 00:55,-114.8611,35.9475,671.00,46.40,41.00,81.34,250.00,9.00,0.00,29.74,M,4.00,16.00,FEW,OVC,M,M,2500.00,3500.00,M,M,-RA,M,M,M,M,M,M,41.42,KBVU 310055Z AUTO 25009G16KT 4SM -RA FEW025 OVC035 08/05 A2974 RMK AO2,M
CXP,2024-03-31 00:55,-119.7326,39.1923,1431.00,33.80,32.00,93.03,0.00,0.00,0.01,29.65,M,2.00,M,BKN,BKN,M,M,400.00,800.00,M,M,-SN BR,M,M,M,M,M,M,33.80,KCXP 310055Z AUTO 00000KT 2SM -SN BR BKN004 BKN008 01/00 A2965 RMK AO2 P0001,M
INS,2024-03-31 00:55,-115.6733,36.5872,955.00,45.00,37.20,73.95,60.00,9.00,0.01,29.70,1003.90,10.00,M,FEW,FEW,SCT,OVC,600.00,1700.00,7000.00,8500.00,M,M,M,M,M,M,M,39.68,KINS 310055Z AUTO 06009KT 10SM FEW006 FEW017 SCT070 OVC085 07/03 A2970 RMK AO2 RAB27E43 SLP039 P0001 T00720029 $,M
RNO,2024-03-31 00:55,-119.7711,39.4839,1341.00,36.00,33.00,88.73,290.00,12.00,0.08,29.62,1002.90,2.50,M,SCT,BKN,OVC,M,900.00,1600.00,2300.00,M,-RA BR,M,M,M,M,M,M,27.09,KRNO 310055Z 29012KT 2 1/2SM -RA BR SCT009 BKN016 OVC023 02/01 A2962 RMK AO2 SFC VIS 4 SNE41 SLP029 P0008 T00220006 $,M
LSV,2024-03-31 00:55,-115.0343,36.2362,570.00,51.80,41.00,66.48,270.00,9.00,0.01,29.70,1005.00,10.00,M,CLR,M,M,M,M,M,M,M,M,M,M,M,M,M,M,51.80,KLSV 310055Z AUTO 27009KT 10SM CLR 11/05 A2970 RMK AO2 RAE05RAB13E24RAB34E39RAB42E48 SLP050 P0001 T01100049 $,M
MEV,2024-03-31 00:55,-119.7500,38.9963,1441.42,32.00,32.00,100.00,130.00,8.00,0.08,29.64,M,0.75,M,OVC,M,M,M,300.00,M,M,M,-SN BR,M,M,M,M,M,M,24.11,KMEV 310055Z AUTO 13008KT 3/4SM -SN BR OVC003 00/00 A2964 RMK AO2 P0008,M
HTH,2024-03-31 00:55,-118.6315,38.5448,1282.89,39.20,35.60,86.79,0.00,0.00,0.00,29.61,M,10.00,M,FEW,M,M,M,6000.00,M,M,M,M,M,M,M,M,M,M,39.20,KHTH 310055Z AUTO 00000KT 10SM FEW060 04/02 A2961 RMK A01,M
10U,2024-03-31 00:55,-116.1876,41.9532,1637.00,42.80,33.80,70.28,30.00,9.00,0.00,29.66,M,10.00,16.00,FEW,SCT,BKN,M,2200.00,2700.00,4000.00,M,M,M,M,M,M,M,M,36.94,K10U 310055Z AUTO 03009G16KT 10SM FEW022 SCT027 BKN040 06/01 A2966 RMK AO2,M
BAM,2024-03-31 00:55,-116.8743,40.5990,1382.36,46.40,37.40,70.68,80.00,8.00,0.00,29.60,M,10.00,M,BKN,BKN,BKN,M,6000.00,7000.00,12000.00,M,M,M,M,M,M,M,M,41.85,KBAM 310055Z AUTO 08008KT 10SM BKN060 BKN070 BKN120 08/03 A2960 RMK AO1,M
TMT,2024-03-31 00:55,-117.1971,39.4643,1749.34,38.70,33.00,79.79,80.00,4.00,0.00,29.58,M,10.00,M,SCT,SCT,SCT,M,1500.00,2200.00,7000.00,M,M,M,M,M,M,M,M,35.24,KTMT 310055Z AUTO 08004KT 10SM SCT015 SCT022 SCT070 04/01 A2958 RMK AO2 T00370006,M
EKO,2024-03-31 00:56,-115.7860,40.8242,1367.00,45.00,36.00,70.53,250.00,7.00,T,29.62,1002.30,10.00,M,FEW,BKN,OVC,M,3500.00,4700.00,6000.00,M,M,M,M,M,M,M,M,40.63,KEKO 310056Z AUTO 25007KT 10SM FEW035 BKN047 OVC060 07/02 A2962 RMK AO2 RAB39E55 SLP023 P0000 T00720022,M
WMC,2024-03-31 00:56,-117.8072,40.9019,1315.00,50.00,35.00,56.16,70.00,6.00,T,29.57,1000.40,10.00,M,OVC,M,M,M,7500.00,M,M,M,M,M,M,M,M,M,M,50.00,KWMC 310056Z AUTO 07006KT 10SM OVC075 10/02 A2957 RMK AO2 RAB10E28 SLP004 P0000 T01000017,M
NFL,2024-03-31 00:56,-118.7010,39.4166,1199.00,47.00,38.00,70.74,30.00,6.00,0.00,29.58,1000.30,10.00,M,SCT,BKN,OVC,M,2900.00,3400.00,7000.00,M,M,M,M,M,M,M,M,43.60,KNFL 310056Z AUTO 03006KT 10SM SCT029 BKN034 OVC070 08/03 A2958 RMK AO2 SLP003 T00830033,M
HND,2024-03-31 00:56,-115.1344,35.9729,742.79,46.00,37.00,70.64,220.00,10.00,0.02,29.75,1008.70,10.00,M,SCT,OVC,M,M,3200.00,6000.00,M,M,M,M,M,M,M,M,M,40.52,KHND 310056Z 22010KT 10SM SCT032 OVC060 08/03 A2975 RMK AO2 RAE55 SLP087 P0002 T00780028,M
TPH,2024-03-31 00:56,-117.0904,38.0505,1654.00,39.00,33.00,78.86,160.00,17.00,T,29.61,1001.60,9.00,25.00,FEW,BKN,OVC,M,1700.00,4400.00,5000.00,M,-SN,M,M,M,34.00,180.00,2024-03-31 00:30,29.25,KTPH 310056Z AUTO 16017G25KT 9SM -SN FEW017 BKN044 OVC050 04/01 A2961 RMK AO2 PK WND 18034/0030 RAB24E56SNB56 SLP016 P0000 T00390006,M
LAS,2024-03-31 00:56,-115.1634,36.0719,663.00,49.00,38.00,65.63,200.00,9.00,0.01,29.73,1006.00,10.00,M,FEW,BKN,OVC,M,3000.00,4200.00,6500.00,M,-RA,M,M,M,M,M,M,44.65,KLAS 310056Z 20009KT 10SM -RA FEW030 BKN042 OVC065 09/03 A2973 RMK AO2 RAB22 SLP060 P0001 T00940033,M
RNO,2024-03-31 00:59,-119.7711,39.4839,1341.00,37.00,33.00,85.29,280.00,13.00,0.01,29.62,M,3.00,M,SCT,BKN,OVC,M,900.00,1600.00,2300.00,M,-RA BR,M,M,M,M,M,M,27.97,KRNO 310059Z 28013KT 3SM -RA BR SCT009 BKN016 OVC023 03/01 A2962 RMK AO2 SFC VIS 4 P0001 T00280006 $,M
LSV,2024-03-31 01:00,-115.0343,36.2362,570.00,51.80,41.00,66.48,270.00,12.00,0.00,29.70,1005.00,10.00,M,CLR,M,M,M,M,M,M,M,-RA,M,M,M,M,M,M,51.80,KLSV 310100Z AUTO 27012KT 10SM -RA CLR 11/05 A2970 RMK AO2 RAB00 SLP050 $,M
LSV,2024-03-31 01:10,-115.0343,36.2362,570.00,51.80,41.00,66.48,270.00,9.00,0.00,29.69,1004.70,10.00,M,CLR,M,M,M,M,M,M,M,M,M,M,M,M,M,M,51.80,KLSV 310110Z AUTO 27009KT 10SM CLR 11/05 A2969 RMK AO2 RAB00E10 SLP047 $,M
05U,2024-03-31 01:10,-116.0051,39.6042,1811.23,39.20,32.00,75.16,330.00,13.00,0.00,29.65,M,10.00,M,FEW,BKN,BKN,M,2700.00,3300.00,3900.00,M,M,M,M,M,M,M,M,30.79,K05U 310110Z AUTO 33013KT 10SM FEW027 BKN033 BKN039 04/00 A2965 RMK A01,M
BVU,2024-03-31 01:15,-114.8611,35.9475,671.00,46.40,41.00,81.34,210.00,7.00,0.00,29.73,M,5.00,M,FEW,OVC,M,M,2600.00,3300.00,M,M,-RA,M,M,M,M,M,M,42.33,KBVU 310115Z AUTO 21007KT 5SM -RA FEW026 OVC033 08/05 A2973 RMK AO2,M
CXP,2024-03-31 01:15,-119.7326,39.1923,1431.00,33.80,32.00,93.03,0.00,0.00,0.00,29.66,M,3.00,M,BKN,BKN,M,M,600.00,1100.00,M,M,-SN BR,M,M,M,M,M,M,33.80,KCXP 310115Z AUTO 00000KT 3SM -SN BR BKN006 BKN011 01/00 A2966 RMK AO2,M
MEV,2024-03-31 01:15,-119.7500,38.9963,1441.42,32.00,32.00,100.00,120.00,7.00,0.00,29.64,M,10.00,M,FEW,SCT,M,M,300.00,6500.00,M,M,M,M,M,M,M,M,M,24.78,KMEV 310115Z AUTO 12007KT 10SM FEW003 SCT065 00/00 A2964 RMK AO2,M
HTH,2024-03-31 01:15,-118.6315,38.5448,1282.89,39.20,35.60,86.79,0.00,0.00,0.00,29.62,M,10.00,M,CLR,M,M,M,M,M,M,M,M,M,M,M,M,M,M,39.20,KHTH 310115Z AUTO 00000KT 10SM CLR 04/02 A2962 RMK A01,M
10U,2024-03-31 01:15,-116.1876,41.9532,1637.00,42.80,35.60,75.50,20.00,10.00,0.00,29.65,M,10.00,M,BKN,BKN,OVC,M,2300.00,2900.00,4000.00,M,M,M,M,M,M,M,M,36.51,K10U 310115Z AUTO 02010KT 10SM BKN023 BKN029 OVC040 06/02 A2965 RMK AO2,M
BAM,2024-03-31 01:15,-116.8743,40.5990,1382.36,46.40,37.40,70.68,130.00,8.00,0.00,29.61,M,10.00,M,SCT,BKN,OVC,M,3400.00,4400.00,11000.00,M,M,M,M,M,M,M,M,41.85,KBAM 310115Z AUTO 13008KT 10SM SCT034 BKN044 OVC110 08/03 A2961 RMK AO1,M
TMT,2024-03-31 01:15,-117.1971,39.4643,1749.34,38.50,34.00,83.70,10.00,5.00,0.00,29.58,M,10.00,M,CLR,M,M,M,M,M,M,M,M,M,M,M,M,M,M,34.11,KTMT 310115Z AUTO 01005KT 10SM CLR 04/01 A2958 RMK AO2 T00360012,M
RNO,2024-03-31 01:21,-119.7711,39.4839,1341.00,37.00,33.00,85.29,280.00,13.00,0.01,29.63,M,5.00,M,SCT,BKN,OVC,M,1000.00,2300.00,3500.00,M,-RA BR,M,M,M,M,M,M,27.97,KRNO 310121Z 28013KT 5SM -RA BR SCT010 BKN023 OVC035 03/01 A2963 RMK AO2 P0001 T00280006 $,M
INS,2024-03-31 01:25,-115.6733,36.5872,955.00,44.60,37.40,75.68,90.00,10.00,0.00,29.69,1003.60,10.00,M,FEW,BKN,OVC,M,4000.00,5500.00,7000.00,M,-DZ,M,M,M,M,M,M,38.77,KINS 310125Z AUTO 09010KT 10SM -DZ FEW040 BKN055 OVC070 07/03 A2969 RMK AO2 DZB25 SLP036 $,M
LOL,2024-03-31 01:29,-118.5701,40.0684,1192.43,45.00,40.00,82.51,40.00,3.00,0.00,29.59,M,10.00,M,BKN,BKN,OVC,M,2800.00,3900.00,4800.00,M,M,M,M,M,M,M,M,43.55,KLOL 310129Z AUTO 04003KT 10SM BKN028 BKN039 OVC048 07/04 A2959 RMK AO2 T00720044,M
05U,2024-03-31 01:30,-116.0051,39.6042,1811.23,39.20,32.00,75.16,300.00,10.00,0.00,29.65,M,10.00,M,SCT,BKN,OVC,M,3400.00,4300.00,5500.00,M,M,M,M,M,M,M,M,32.00,K05U 310130Z AUTO 30010KT 10SM SCT034 BKN043 OVC055 04/00 A2965 RMK A01,M
BVU,2024-03-31 01:35,-114.8611,35.9475,671.00,46.40,41.00,81.34,190.00,7.00,0.00,29.74,M,9.00,M,BKN,OVC,M,M,3300.00,4500.00,M,M,-DZ,M,M,M,M,M,M,42.33,KBVU 310135Z AUTO 19007KT 9SM -DZ BKN033 OVC045 08/05 A2974 RMK AO2,M
CXP,2024-03-31 01:35,-119.7326,39.1923,1431.00,33.80,32.00,93.03,300.00,3.00,0.00,29.66,M,0.75,M,OVC,M,M,M,400.00,M,M,M,-SN BR,M,M,M,M,M,M,30.75,KCXP 310135Z AUTO 30003KT 3/4SM -SN BR OVC004 01/00 A2966 RMK AO2,M
MEV,2024-03-31 01:35,-119.7500,38.9963,1441.42,33.80,32.00,93.03,70.00,4.00,0.00,29.65,M,10.00,M,FEW,BKN,M,M,3100.00,6000.00,M,M,M,M,M,M,M,M,M,29.52,KMEV 310135Z AUTO 07004KT 10SM FEW031 BKN060 01/00 A2965 RMK AO2,M
HTH,2024-03-31 01:35,-118.6315,38.5448,1282.89,39.20,35.60,86.79,20.00,4.00,0.00,29.62,M,10.00,M,FEW,M,M,M,8500.00,M,M,M,M,M,M,M,M,M,M,35.83,KHTH 310135Z AUTO 02004KT 10SM FEW085 04/02 A2962 RMK A01,M
10U,2024-03-31 01:35,-116.1876,41.9532,1637.00,42.80,33.80,70.28,20.00,11.00,0.00,29.65,M,10.00,16.00,FEW,OVC,M,M,2200.00,4100.00,M,M,M,M,M,M,M,M,M,36.11,K10U 310135Z AUTO 02011G16KT 10SM FEW022 OVC041 06/01 A2965 RMK AO2,M
BAM,2024-03-31 01:35,-116.8743,40.5990,1382.36,46.40,37.40,70.68,130.00,8.00,0.00,29.61,M,10.00,M,SCT,BKN,OVC,M,3400.00,4400.00,5500.00,M,M,M,M,M,M,M,M,41.85,KBAM 310135Z AUTO 13008KT 10SM SCT034 BKN044 OVC055 08/03 A2961 RMK AO1,M
TMT,2024-03-31 01:35,-117.1971,39.4643,1749.34,38.30,34.30,85.37,10.00,10.00,0.00,29.55,M,10.00,M,BKN,M,M,M,12000.00,M,M,M,M,M,M,M,M,M,M,30.87,KTMT 310135Z AUTO 01010KT 10SM BKN120 04/01 A2955 RMK AO2 T00350013,M
INS,2024-03-31 01:47,-115.6733,36.5872,955.00,44.60,37.40,75.68,100.00,4.00,0.00,29.68,1003.20,10.00,M,FEW,SCT,SCT,OVC,3700.00,4500.00,5000.00,7500.00,M,M,M,M,M,M,M,42.13,KINS 310147Z AUTO 10004KT 10SM FEW037 SCT045 SCT050 OVC075 07/03 A2968 RMK AO2 DZB25E27RAB27E47 SLP032 $,M
05U,2024-03-31 01:50,-116.0051,39.6042,1811.23,37.40,32.00,80.65,310.00,11.00,0.00,29.65,M,10.00,M,FEW,BKN,OVC,M,3400.00,4500.00,5500.00,M,M,M,M,M,M,M,M,29.29,K05U 310150Z AUTO 31011KT 10SM FEW034 BKN045 OVC055 03/00 A2965 RMK A01,M
CXP,2024-03-31 01:50,-119.7326,39.1923,1431.00,33.80,32.00,93.03,0.00,0.00,0.00,29.66,M,0.75,M,OVC,M,M,M,300.00,M,M,M,-SN BR,M,M,M,M,M,M,33.80,KCXP 310150Z AUTO 00000KT 3/4SM -SN BR OVC003 01/00 A2966 RMK AO2,M
P68,2024-03-31 01:53,-116.0056,39.6014,1993.00,37.00,32.00,81.93,150.00,9.00,0.00,29.62,1001.10,M,M,M,M,M,M,M,M,M,M,M,M,M,M,M,M,M,29.73,KP68 310153Z AUTO 15009KT 03/00 A2962 RMK AO1 SLP011 T00280000,M
DRA,2024-03-31 01:53,-116.0278,36.6206,1009.00,42.00,36.00,79.11,220.00,13.00,0.00,29.69,1003.80,10.00,20.00,FEW,BKN,M,M,3700.00,11000.00,M,M,M,M,M,M,M,M,M,34.38,KDRA 310153Z AUTO 22013G20KT 10SM FEW037 BKN110 06/02 A2969 RMK AO2 SLP038 T00560022,M
ELY,2024-03-31 01:53,-114.8453,39.2950,1909.00,35.00,32.00,88.68,210.00,7.00,T,29.65,1003.00,10.00,M,OVC,M,M,M,4500.00,M,M,M,M,M,M,M,M,M,M,28.44,KELY 310153Z AUTO 21007KT 10SM OVC045 02/00 A2965 RMK AO2 RAE03 SLP030 P0000 T00170000,M
VGT,2024-03-31 01:53,-115.1933,36.2111,667.00,50.00,41.00,71.07,0.00,0.00,0.01,29.72,1007.80,10.00,M,BKN,OVC,M,M,4800.00,7000.00,M,M,-RA,M,M,M,M,M,M,50.00,KVGT 310153Z 00000KT 10SM -RA BKN048 OVC070 10/05 A2972 RMK AO2 RAE29B47 SLP078 P0001 T01000050,M
LOL,2024-03-31 01:53,-118.5701,40.0684,1192.43,44.00,40.00,85.71,0.00,0.00,T,29.58,1001.80,10.00,M,BKN,OVC,M,M,2900.00,3400.00,M,M,-RA,M,M,M,M,M,M,44.00,KLOL 310153Z AUTO 00000KT 10SM -RA BKN029 OVC034 07/04 A2958 RMK AO2 RAB51 SLP018 P0000 T00670044,M
LSV,2024-03-31 01:55,-115.0343,36.2362,570.00,50.50,43.00,75.35,200.00,8.00,T,29.71,1005.40,10.00,M,CLR,M,M,M,M,M,M,M,M,M,M,M,M,M,M,50.50,KLSV 310155Z AUTO 20008KT 10SM CLR 10/06 A2971 RMK AO2 RAB00E10 SLP054 P0000 T01030061 $,M
BVU,2024-03-31 01:55,-114.8611,35.9475,671.00,44.60,41.00,87.09,180.00,4.00,0.00,29.74,M,4.00,M,FEW,BKN,OVC,M,2200.00,2800.00,4400.00,M,RA,M,M,M,M,M,M,42.13,KBVU 310155Z AUTO 18004KT 4SM RA FEW022 BKN028 OVC044 07/05 A2974 RMK AO2,M
INS,2024-03-31 01:55,-115.6733,36.5872,955.00,46.00,37.80,72.89,110.00,10.00,T,29.69,1003.60,10.00,M,FEW,FEW,OVC,M,3500.00,4300.00,8000.00,M,M,M,M,M,M,M,M,40.52,KINS 310155Z AUTO 11010KT 10SM FEW035 FEW043 OVC080 08/03 A2969 RMK AO2 DZB25E27RAB27E47 SLP036 P0000 T00770032 $,M
MEV,2024-03-31 01:55,-119.7500,38.9963,1441.42,33.80,32.00,93.03,30.00,3.00,0.00,29.66,M,1.00,M,BKN,BKN,OVC,M,300.00,2900.00,3700.00,M,-SN BR,M,M,M,M,M,M,30.75,KMEV 310155Z AUTO 03003KT 1SM -SN BR BKN003 BKN029 OVC037 01/00 A2966 RMK AO2,M
HTH,2024-03-31 01:55,-118.6315,38.5448,1282.89,39.20,33.80,80.79,70.00,6.00,0.00,29.63,M,10.00,M,FEW,M,M,M,9500.00,M,M,M,M,M,M,M,M,M,M,34.20,KHTH 310155Z AUTO 07006KT 10SM FEW095 04/01 A2963 RMK A01,M
10U,2024-03-31 01:55,-116.1876,41.9532,1637.00,42.80,33.80,70.28,20.00,9.00,0.00,29.65,M,10.00,M,OVC,M,M,M,4100.00,M,M,M,M,M,M,M,M,M,M,36.94,K10U 310155Z AUTO 02009KT 10SM OVC041 06/01 A2965 RMK AO2,M
RNO,2024-03-31 01:55,-119.7711,39.4839,1341.00,37.00,33.00,85.29,270.00,11.00,0.01,29.63,1003.30,6.00,M,SCT,BKN,OVC,M,1000.00,2500.00,3500.00,M,-RA BR,M,M,M,M,M,M,28.79,KRNO 310155Z COR 27011KT 6SM -RA BR SCT010 BKN025 OVC035 03/01 A2963 RMK AO2 RAB45 SLP033 P0001 T00280006 $,M
BAM,2024-03-31 01:55,-116.8743,40.5990,1382.36,44.60,37.40,75.68,140.00,5.00,0.00,29.61,M,10.00,M,SCT,BKN,OVC,M,3200.00,4700.00,7500.00,M,M,M,M,M,M,M,M,41.36,KBAM 310155Z AUTO 14005KT 10SM SCT032 BKN047 OVC075 07/03 A2961 RMK AO1,M
TMT,2024-03-31 01:55,-117.1971,39.4643,1749.34,38.30,34.00,84.36,340.00,4.00,0.00,29.57,M,10.00,M,OVC,M,M,M,11000.00,M,M,M,M,M,M,M,M,M,M,34.78,KTMT 310155Z AUTO 34004KT 10SM OVC110 04/01 A2957 RMK AO2 T00350011,M
EKO,2024-03-31 01:56,-115.7860,40.8242,1367.00,45.00,33.00,62.58,210.00,4.00,0.00,29.60,1001.70,10.00,M,FEW,SCT,BKN,M,6500.00,9500.00,12000.00,M,M,M,M,M,M,M,M,42.60,KEKO 310156Z AUTO 21004KT 10SM FEW065 SCT095 BKN120 07/01 A2960 RMK AO2 SLP017 T00720006,M
WMC,2024-03-31 01:56,-117.8072,40.9019,1315.00,44.00,37.00,76.22,180.00,8.00,T,29.59,1001.60,7.00,M,BKN,BKN,OVC,M,2800.00,3600.00,5000.00,M,-RA,M,M,M,33.00,70.00,2024-03-31 01:35,38.90,KWMC 310156Z AUTO 18008KT 7SM -RA BKN028 BKN036 OVC050 07/03 A2959 RMK AO2 PK WND 07033/0135 RAB49 SLP016 P0000 T00670028,M
NFL,2024-03-31 01:56,-118.7010,39.4166,1199.00,45.00,39.00,79.36,10.00,6.00,0.00,29.59,1000.50,10.00,M,BKN,OVC,M,M,7500.00,9000.00,M,M,M,M,M,M,M,M,M,41.19,KNFL 310156Z AUTO 01006KT 10SM BKN075 OVC090 07/04 A2959 RMK AO2 SLP005 T00720039,M
HND,2024-03-31 01:56,-115.1344,35.9729,742.79,44.00,39.00,82.44,190.00,14.00,0.01,29.73,1008.10,10.00,M,BKN,OVC,M,M,3800.00,6000.00,M,M,-RA,M,M,M,M,M,M,36.63,KHND 310156Z 19014KT 10SM -RA BKN038 OVC060 07/04 A2973 RMK AO2 RAB42 PRESFR SLP081 P0001 T00670039,M
TPH,2024-03-31 01:56,-117.0904,38.0505,1654.00,37.00,32.00,81.93,180.00,12.00,T,29.63,1002.70,10.00,M,FEW,OVC,M,M,3300.00,4400.00,M,M,M,M,M,M,26.00,160.00,2024-03-31 01:04,28.37,KTPH 310156Z AUTO 18012KT 10SM FEW033 OVC044 03/00 A2963 RMK AO2 PK WND 16026/0104 SNE0057 SLP027 P0000 T00280000,M
LAS,2024-03-31 01:56,-115.1634,36.0719,663.00,47.00,40.00,76.49,200.00,5.00,T,29.71,1005.60,8.00,M,FEW,OVC,M,M,3200.00,4200.00,M,M,-RA,M,M,M,M,M,M,44.21,KLAS 310156Z 20005KT 8SM -RA FEW032 OVC042 08/04 A2971 RMK AO2 RAE00B49 SLP056 P0000 T00830044,M
LSV,2024-03-31 02:00,-115.0343,36.2362,570.00,50.00,42.80,76.18,220.00,5.00,0.00,29.70,1005.00,10.00,M,CLR,M,M,M,M,M,M,M,-RA,M,M,M,M,M,M,50.00,KLSV 310200Z AUTO 22005KT 10SM -RA CLR 10/06 A2970 RMK AO2 RAB00 SLP050 $,M
LOL,2024-03-31 02:02,-118.5701,40.0684,1192.43,44.00,40.00,85.71,0.00,0.00,T,29.59,M,10.00,M,SCT,OVC,M,M,2900.00,3400.00,M,M,-RA,M,M,M,M,M,M,44.00,KLOL 310202Z AUTO 00000KT 10SM -RA SCT029 OVC034 07/04 A2959 RMK AO2 P0000 T00670044,M
LSV,2024-03-31 02:06,-115.0343,36.2362,570.00,50.00,42.80,76.18,230.00,5.00,0.00,29.69,1004.70,10.00,M,CLR,M,M,M,M,M,M,M,M,M,M,M,M,M,M,50.00,KLSV 310206Z AUTO 23005KT 10SM CLR 10/06 A2969 RMK AO2 RAB00E06 SLP047 $,M
CXP,2024-03-31 02:10,-119.7326,39.1923,1431.00,32.00,32.00,100.00,M,3.00,0.00,29.67,M,0.25,M,OVC,M,M,M,200.00,M,M,M,SN FG,M,M,M,M,M,M,28.69,KCXP 310210Z AUTO VRB03KT 1/4SM SN FG OVC002 00/M00 A2967 RMK AO2,M
05U,2024-03-31 02:10,-116.0051,39.6042,1811.23,37.40,32.00,80.65,290.00,4.00,0.00,29.62,M,10.00,M,BKN,BKN,OVC,M,4000.00,4800.00,8500.00,M,M,M,M,M,M,M,M,33.73,K05U 310210Z AUTO 29004KT 10SM BKN040 BKN048 OVC085 03/00 A2962 RMK A01,M
BVU,2024-03-31 02:15,-114.8611,35.9475,671.00,44.60,41.00,87.09,160.00,4.00,0.00,29.73,M,8.00,M,FEW,BKN,OVC,M,2200.00,2800.00,3300.00,M,-RA,M,M,M,M,M,M,42.13,KBVU 310215Z AUTO 16004KT 8SM -RA FEW022 BKN028 OVC033 07/05 A2973 RMK AO2,M
RTS,2024-03-31 02:15,-119.8764,39.6682,1539.00,33.80,32.00,93.03,270.00,10.00,0.00,29.64,M,10.00,M,BKN,OVC,M,M,1500.00,2200.00,M,M,M,M,M,M,M,M,M,25.23,KRTS 310215Z AUTO 27010KT 10SM BKN015 OVC022 01/00 A2964 RMK AO2,M
MEV,2024-03-31 02:15,-119.7500,38.9963,1441.42,32.00,32.00,100.00,120.00,8.00,0.00,29.65,M,1.25,M,OVC,M,M,M,300.00,M,M,M,-SN BR,M,M,M,M,M,M,24.11,KMEV 310215Z AUTO 12008KT 1 1/4SM -SN BR OVC003 00/00 A2965 RMK AO2,M
HTH,2024-03-31 02:15,-118.6315,38.5448,1282.89,37.40,33.80,86.69,90.00,5.00,0.00,29.64,M,10.00,M,FEW,SCT,BKN,M,2500.00,2900.00,10000.00,M,M,M,M,M,M,M,M,32.81,KHTH 310215Z AUTO 09005KT 10SM FEW025 SCT029 BKN100 03/01 A2964 RMK A01,M
10U,2024-03-31 02:15,-116.1876,41.9532,1637.00,41.00,33.80,75.33,40.00,10.00,0.00,29.65,M,10.00,M,BKN,OVC,M,M,3700.00,4200.00,M,M,M,M,M,M,M,M,M,34.25,K10U 310215Z AUTO 04010KT 10SM BKN037 OVC042 05/01 A2965 RMK AO2,M
BAM,2024-03-31 02:15,-116.8743,40.5990,1382.36,44.60,37.40,75.68,130.00,7.00,0.00,29.61,M,10.00,M,BKN,BKN,OVC,M,4700.00,6000.00,7500.00,M,M,M,M,M,M,M,M,40.14,KBAM 310215Z AUTO 13007KT 10SM BKN047 BKN060 OVC075 07/03 A2961 RMK AO1,M
TMT,2024-03-31 02:15,-117.1971,39.4643,1749.34,38.00,33.80,84.67,220.00,9.00,0.00,29.59,M,10.00,M,OVC,M,M,M,11000.00,M,M,M,M,M,M,M,M,M,M,30.97,KTMT 310215Z AUTO 22009KT 10SM OVC110 03/01 A2959 RMK AO2 T00330010,M
LSV,2024-03-31 02:16,-115.0343,36.2362,570.00,50.00,42.80,76.18,190.00,6.00,0.00,29.68,1004.30,10.00,M,CLR,M,M,M,M,M,M,M,-RA,M,M,M,M,M,M,50.00,KLSV 310216Z AUTO 19006KT 10SM -RA CLR 10/06 A2968 RMK AO2 RAB00E06RAB16 SLP043 $,M
LOL,2024-03-31 02:18,-118.5701,40.0684,1192.43,44.00,40.00,85.71,0.00,0.00,T,29.59,M,10.00,M,BKN,OVC,M,M,2800.00,3500.00,M,M,-RA,M,M,M,M,M,M,44.00,KLOL 310218Z AUTO 00000KT 10SM -RA BKN028 OVC035 07/04 A2959 RMK AO2 P0000 T00670044,M
LSV,2024-03-31 02:28,-115.0343,36.2362,570.00,48.20,41.00,76.01,150.00,10.00,0.00,29.67,1004.10,9.00,M,CLR,M,M,M,M,M,M,M,M,M,M,M,M,M,M,43.28,KLSV 310228Z AUTO 15010KT 9SM CLR 09/05 A2967 RMK AO2 RAB00E06RAB16E28 SLP041 $,M
05U,2024-03-31 02:30,-116.0051,39.6042,1811.23,35.60,32.00,86.59,320.00,8.00,0.00,29.63,M,10.00,M,FEW,SCT,M,M,4000.00,8000.00,M,M,M,M,M,M,M,M,M,28.55,K05U 310230Z AUTO 32008KT 10SM FEW040 SCT080 02/00 A2963 RMK A01,M
NFL,2024-03-31 02:34,-118.7010,39.4166,1199.00,37.00,33.00,85.29,230.00,12.00,0.03,29.62,M,5.00,M,SCT,BKN,OVC,M,1500.00,2300.00,4800.00,M,+RA BR,M,M,M,M,M,M,28.37,KNFL 310234Z AUTO 23012KT 5SM +RA BR SCT015 BKN023 OVC048 03/01 A2962 RMK AO2 RAB30 P0003 T00280006,M
BVU,2024-03-31 02:35,-114.8611,35.9475,671.00,44.60,41.00,87.09,110.00,8.00,0.00,29.71,M,8.00,M,BKN,BKN,OVC,M,3100.00,3700.00,4700.00,M,-RA,M,M,M,M,M,M,39.63,KBVU 310235Z AUTO 11008KT 8SM -RA BKN031 BKN037 OVC047 07/05 A2971 RMK AO2,M
CXP,2024-03-31 02:35,-119.7326,39.1923,1431.00,32.00,32.00,100.00,190.00,4.00,0.00,29.66,M,0.25,M,OVC,M,M,M,200.00,M,M,M,SN FG,M,M,M,M,M,M,27.42,KCXP 310235Z AUTO 19004KT 1/4SM SN FG OVC002 00/M00 A2966 RMK AO2,M
RTS,2024-03-31 02:35,-119.8764,39.6682,1539.00,33.80,32.00,93.03,280.00,11.00,0.00,29.63,M,10.00,M,FEW,SCT,OVC,M,1600.00,2300.00,3600.00,M,M,M,M,M,M,M,M,24.74,KRTS 310235Z AUTO 28011KT 10SM FEW016 SCT023 OVC036 01/00 A2963 RMK AO2,M
MEV,2024-03-31 02:35,-119.7500,38.9963,1441.42,32.00,32.00,100.00,0.00,0.00,0.00,29.65,M,10.00,M,FEW,SCT,BKN,M,300.00,900.00,3200.00,M,M,M,M,M,M,M,M,32.00,KMEV 310235Z AUTO 00000KT 10SM FEW003 SCT009 BKN032 00/00 A2965 RMK AO2,M
HTH,2024-03-31 02:35,-118.6315,38.5448,1282.89,39.20,35.60,86.79,10.00,4.00,0.00,29.64,M,10.00,M,FEW,BKN,OVC,M,1800.00,2500.00,3500.00,M,M,M,M,M,M,M,M,35.83,KHTH 310235Z AUTO 01004KT 10SM FEW018 BKN025 OVC035 04/02 A2964 RMK A01,M
10U,2024-03-31 02:35,-116.1876,41.9532,1637.00,41.00,33.80,75.33,40.00,6.00,0.00,29.65,M,10.00,M,SCT,SCT,OVC,M,2100.00,2700.00,3600.00,M,M,M,M,M,M,M,M,36.37,K10U 310235Z AUTO 04006KT 10SM SCT021 SCT027 OVC036 05/01 A2965 RMK AO2,M
BAM,2024-03-31 02:35,-116.8743,40.5990,1382.36,44.60,37.40,75.68,100.00,6.00,0.00,29.61,M,10.00,M,BKN,OVC,M,M,4300.00,4900.00,M,M,M,M,M,M,M,M,M,40.71,KBAM 310235Z AUTO 10006KT 10SM BKN043 OVC049 07/03 A2961 RMK AO1,M
LSV,2024-03-31 02:40,-115.0343,36.2362,570.00,48.20,41.00,76.01,140.00,9.00,0.00,29.67,1004.10,10.00,M,CLR,M,M,M,M,M,M,M,-RA,M,M,M,M,M,M,43.66,KLSV 310240Z AUTO 14009KT 10SM -RA CLR 09/05 A2967 RMK AO2 RAB00E06RAB16E28RAB40 SLP041 $,M
LSV,2024-03-31 02:41,-115.0343,36.2362,570.00,48.20,41.00,76.01,140.00,9.00,0.00,29.67,1004.10,10.00,M,FEW,M,M,M,8000.00,M,M,M,M,M,M,M,M,M,M,43.66,KLSV 310241Z AUTO 14009KT 10SM FEW080 09/05 A2967 RMK AO2 RAB00E06RAB16E28RAB40E40 SLP041 $,M
RNO,2024-03-31 02:43,-119.7711,39.4839,1341.00,36.00,33.00,88.73,200.00,7.00,0.02,29.64,M,6.00,M,SCT,BKN,OVC,M,800.00,1600.00,2200.00,M,-RA BR,M,M,M,M,M,M,29.65,KRNO 310243Z 20007KT 6SM -RA BR SCT008 BKN016 OVC022 02/01 A2964 RMK AO2 P0002 T00220006 $,M
LSV,2024-03-31 02:45,-115.0343,36.2362,570.00,48.20,41.00,76.01,140.00,5.00,0.00,29.67,1004.10,10.00,M,FEW,M,M,M,8000.00,M,M,M,-RA,M,M,M,M,M,M,45.63,KLSV 310245Z AUTO 14005KT 10SM -RA FEW080 09/05 A2967 RMK AO2 RAB00E06RAB16E28RAB40E40RAB45 SLP041 $,M
05U,2024-03-31 02:50,-116.0051,39.6042,1811.23,35.60,32.00,86.59,300.00,11.00,0.00,29.63,M,10.00,M,BKN,M,M,M,12000.00,M,M,M,M,M,M,M,M,M,M,27.02,K05U 310250Z AUTO 30011KT 10SM BKN120 02/M00 A2963 RMK A01,M
P68,2024-03-31 02:53,-116.0056,39.6014,1993.00,36.00,30.00,78.60,140.00,10.00,0.00,29.61,1000.60,M,M,M,M,M,M,M,M,M,M,M,M,M,M,M,M,M,27.98,KP68 310253Z AUTO 14010KT 02/M01 A2961 RMK AO1 SLP006 T00221011 58002,M
DRA,2024-03-31 02:53,-116.0278,36.6206,1009.00,41.00,36.00,82.22,230.00,8.00,0.00,29.66,1002.80,10.00,M,CLR,M,M,M,M,M,M,M,M,M,M,M,M,M,M,35.20,KDRA 310253Z AUTO 23008KT 10SM CLR 05/02 A2966 RMK AO2 SLP028 60000 T00500022 58001,M
ELY,2024-03-31 02:53,-114.8453,39.2950,1909.00,34.00,31.00,88.63,210.00,6.00,0.00,29.63,1002.20,10.00,M,FEW,BKN,M,M,3000.00,4800.00,M,M,M,M,M,M,M,M,M,27.94,KELY 310253Z AUTO 21006KT 10SM FEW030 BKN048 01/M01 A2963 RMK AO2 PRESFR SLP022 60001 T00111006 58011,M
VGT,2024-03-31 02:53,-115.1933,36.2111,667.00,47.00,41.00,79.52,130.00,12.00,0.01,29.69,1006.70,10.00,M,FEW,SCT,OVC,M,5000.00,7000.00,9000.00,M,M,M,M,M,M,M,M,41.09,KVGT 310253Z 13012KT 10SM FEW050 SCT070 OVC090 08/05 A2969 RMK AO2 RAE28 SLP067 P0001 60004 T00830050 50000,M
LOL,2024-03-31 02:53,-118.5701,40.0684,1192.43,43.00,39.00,85.66,320.00,4.00,0.01,29.58,1001.90,10.00,M,SCT,BKN,OVC,M,2000.00,4600.00,5500.00,M,-RA,M,M,M,M,M,M,40.27,KLOL 310253Z AUTO 32004KT 10SM -RA SCT020 BKN046 OVC055 06/04 A2958 RMK AO2 SLP019 P0001 60001 T00610039 51006,M
BVU,2024-03-31 02:55,-114.8611,35.9475,671.00,44.60,41.00,87.09,130.00,7.00,0.00,29.72,M,9.00,M,SCT,BKN,OVC,M,2900.00,3800.00,4600.00,M,-RA,M,M,M,M,M,M,40.14,KBVU 310255Z AUTO 13007KT 9SM -RA SCT029 BKN038 OVC046 07/05 A2972 RMK AO2,M
CXP,2024-03-31 02:55,-119.7326,39.1923,1431.00,32.00,32.00,100.00,0.00,0.00,0.13,29.66,M,1.00,M,OVC,M,M,M,200.00,M,M,M,-SN BR,M,M,M,M,M,M,32.00,KCXP 310255Z AUTO 00000KT 1SM -SN BR OVC002 00/00 A2966 RMK AO2 P0013,M
INS,2024-03-31 02:55,-115.6733,36.5872,955.00,44.20,37.20,76.24,0.00,0.00,0.00,29.64,1001.80,10.00,M,OVC,M,M,M,10000.00,M,M,M,M,M,M,M,M,M,M,44.20,KINS 310255Z AUTO 00000KT 10SM OVC100 07/03 A2964 RMK AO2 SLP018 60001 T00680029 58019 $,M
RNO,2024-03-31 02:55,-119.7711,39.4839,1341.00,36.00,33.00,88.73,190.00,8.00,0.03,29.64,1003.50,4.00,M,SCT,OVC,M,M,800.00,1500.00,M,M,-SNRA BR,M,M,M,M,M,M,29.04,KRNO 310255Z 19008KT 4SM -SNRA BR SCT008 OVC015 02/01 A2964 RMK AO2 SNB48 SLP035 P0003 60012 T00220006 53002 $,M
LSV,2024-03-31 02:55,-115.0343,36.2362,570.00,48.20,42.60,80.85,130.00,5.00,0.04,29.68,1004.40,10.00,M,FEW,M,M,M,8500.00,M,M,M,-RA,M,M,M,M,M,M,45.63,KLSV 310255Z AUTO 13005KT 10SM -RA FEW085 09/06 A2968 RMK AO2 RAB00E06RAB16E28RAB40E40RAB45 SLP044 P0004 60005 T00900059 50005 $,M
RTS,2024-03-31 02:55,-119.8764,39.6682,1539.00,33.80,32.00,93.03,280.00,9.00,0.00,29.64,M,10.00,15.00,SCT,OVC,M,M,2200.00,3000.00,M,M,M,M,M,M,M,M,M,25.75,KRTS 310255Z AUTO 28009G15KT 10SM SCT022 OVC030 01/00 A2964 RMK AO2,M
MEV,2024-03-31 02:55,-119.7500,38.9963,1441.42,32.00,32.00,100.00,270.00,3.00,0.01,29.65,M,10.00,M,FEW,BKN,OVC,M,400.00,800.00,4300.00,M,M,M,M,M,M,M,M,28.69,KMEV 310255Z AUTO 27003KT 10SM FEW004 BKN008 OVC043 00/00 A2965 RMK AO2 P0001,M
HTH,2024-03-31 02:55,-118.6315,38.5448,1282.89,39.20,33.80,80.79,0.00,0.00,0.00,29.64,M,10.00,M,SCT,BKN,OVC,M,2400.00,3200.00,5000.00,M,M,M,M,M,M,M,M,39.20,KHTH 310255Z AUTO 00000KT 10SM SCT024 BKN032 OVC050 04/01 A2964 RMK A01,M
10U,2024-03-31 02:55,-116.1876,41.9532,1637.00,41.00,33.80,75.33,20.00,10.00,0.00,29.65,M,10.00,M,BKN,BKN,OVC,M,2000.00,2700.00,3900.00,M,M,M,M,M,M,M,M,34.25,K10U 310255Z AUTO 02010KT 10SM BKN020 BKN027 OVC039 05/01 A2965 RMK AO2,M
BAM,2024-03-31 02:55,-116.8743,40.5990,1382.36,44.60,39.20,81.20,60.00,5.00,0.00,29.60,M,10.00,M,BKN,OVC,M,M,4300.00,4900.00,M,M,M,M,M,M,M,M,M,41.36,KBAM 310255Z AUTO 06005KT 10SM BKN043 OVC049 07/04 A2960 RMK AO1,M
TMT,2024-03-31 02:55,-117.1971,39.4643,1749.34,37.40,34.00,87.39,210.00,8.00,0.00,29.61,M,10.00,M,SCT,BKN,OVC,M,3200.00,6000.00,8500.00,M,M,M,M,M,M,M,M,30.76,KTMT 310255Z AUTO 21008KT 10SM SCT032 BKN060 OVC085 03/01 A2961 RMK AO2 T00300011,M
EKO,2024-03-31 02:56,-115.7860,40.8242,1367.00,42.00,36.00,79.11,220.00,6.00,0.00,29.62,1002.40,10.00,M,BKN,BKN,OVC,M,5500.00,7000.00,9000.00,M,M,M,M,M,M,M,M,37.57,KEKO 310256Z AUTO 22006KT 10SM BKN055 BKN070 OVC090 06/02 A2962 RMK AO2 SLP024 60000 T00560022 53003,M
WMC,2024-03-31 02:56,-117.8072,40.9019,1315.00,42.00,39.00,89.01,180.00,4.00,0.02,29.60,1001.80,10.00,M,SCT,BKN,OVC,M,2000.00,2900.00,5500.00,M,-RA,M,M,M,M,M,M,39.10,KWMC 310256Z AUTO 18004KT 10SM -RA SCT020 BKN029 OVC055 06/04 A2960 RMK AO2 SLP018 P0002 60002 T00560039 53004,M
NFL,2024-03-31 02:56,-118.7010,39.4166,1199.00,35.00,33.00,92.32,220.00,11.00,0.08,29.63,1001.70,4.00,M,FEW,OVC,M,M,1600.00,2300.00,M,M,RA BR,M,M,M,M,M,M,26.26,KNFL 310256Z AUTO 22011KT 4SM RA BR FEW016 OVC023 02/01 A2963 RMK AO2 RAB30 SLP017 P0008 60008 T00170006 53014,M
HND,2024-03-31 02:56,-115.1344,35.9729,742.79,44.00,37.00,76.22,140.00,7.00,T,29.70,1007.30,10.00,M,OVC,M,M,M,7000.00,M,M,M,-RA,M,M,M,M,M,M,39.41,KHND 310256Z 14007KT 10SM -RA OVC070 07/03 A2970 RMK AO2 RAE21B40 SLP073 P0000 60003 T00670028 58013,M
TPH,2024-03-31 02:56,-117.0904,38.0505,1654.00,35.00,32.00,88.68,160.00,17.00,0.00,29.64,1003.40,10.00,22.00,FEW,BKN,BKN,M,1200.00,1700.00,2400.00,M,M,M,M,M,M,M,M,24.01,KTPH 310256Z AUTO 16017G22KT 10SM FEW012 BKN017 BKN024 02/00 A2964 RMK AO2 SLP034 60000 T00170000 53003,M
LAS,2024-03-31 02:56,-115.1634,36.0719,663.00,45.00,39.00,79.36,140.00,5.00,0.02,29.69,1005.00,10.00,M,FEW,BKN,OVC,M,4200.00,6500.00,9000.00,M,M,M,M,M,M,M,M,41.83,KLAS 310256Z 14005KT 10SM FEW042 BKN065 OVC090 07/04 A2969 RMK AO2 RAE22 SLP050 P0002 60003 T00720039 58006,M
LSV,2024-03-31 02:59,-115.0343,36.2362,570.00,48.20,42.80,81.47,140.00,9.00,0.00,29.68,1004.40,10.00,M,FEW,M,M,M,8500.00,M,M,M,M,M,M,M,M,M,M,43.66,KLSV 310259Z AUTO 14009KT 10SM FEW085 09/06 A2968 RMK AO2 RAE59 SLP044 $,M
LSV,2024-03-31 03:01,-115.0343,36.2362,570.00,48.20,42.80,81.47,150.00,9.00,0.00,29.68,1004.40,10.00,M,FEW,M,M,M,8500.00,M,M,M,-RA,M,M,M,M,M,M,43.66,KLSV 310301Z AUTO 15009KT 10SM -RA FEW085 09/06 A2968 RMK AO2 RAE0259RAB01 SLP044 $,M
WMC,2024-03-31 03:06,-117.8072,40.9019,1315.00,43.00,39.00,85.66,0.00,0.00,T,29.59,M,10.00,M,FEW,SCT,OVC,M,1800.00,2500.00,5500.00,M,M,M,M,M,M,M,M,43.00,KWMC 310306Z AUTO 00000KT 10SM FEW018 SCT025 OVC055 06/04 A2959 RMK AO2 RAE00 P0000 T00610039,M
RNO,2024-03-31 03:09,-119.7711,39.4839,1341.00,35.00,33.00,92.32,200.00,6.00,0.01,29.64,M,8.00,M,SCT,BKN,OVC,M,1000.00,1500.00,2500.00,M,-RA,M,M,M,M,M,M,29.14,KRNO 310309Z 20006KT 8SM -RA SCT010 BKN015 OVC025 02/01 A2964 RMK AO2 SNE08 P0001 T00170006 $,M
TPH,2024-03-31 03:09,-117.0904,38.0505,1654.00,33.00,32.00,96.06,160.00,10.00,0.00,29.64,M,10.00,M,FEW,BKN,OVC,M,500.00,1200.00,1700.00,M,M,M,M,M,M,M,M,24.22,KTPH 310309Z AUTO 16010KT 10SM FEW005 BKN012 OVC017 01/00 A2964 RMK AO2 T00060000,M
LSV,2024-03-31 03:10,-115.0343,36.2362,570.00,48.20,41.00,76.01,140.00,10.00,0.00,29.68,1004.40,10.00,M,FEW,M,M,M,8500.00,M,M,M,M,M,M,M,M,M,M,43.28,KLSV 310310Z AUTO 14010KT 10SM FEW085 09/05 A2968 RMK AO2 RAE0259RAB01E10 SLP044 $,M
05U,2024-03-31 03:10,-116.0051,39.6042,1811.23,37.40,32.00,80.65,300.00,6.00,0.00,29.64,M,10.00,M,OVC,M,M,M,11000.00,M,M,M,M,M,M,M,M,M,M,32.03,K05U 310310Z AUTO 30006KT 10SM OVC110 03/M00 A2964 RMK A01,M
BVU,2024-03-31 03:15,-114.8611,35.9475,671.00,44.60,41.00,87.09,110.00,10.00,0.00,29.71,M,10.00,M,FEW,SCT,OVC,M,1700.00,4300.00,5500.00,M,M,M,M,M,M,M,M,38.77,KBVU 310315Z AUTO 11010KT 10SM FEW017 SCT043 OVC055 07/05 A2971 RMK AO2,M
CXP,2024-03-31 03:15,-119.7326,39.1923,1431.00,32.00,32.00,100.00,0.00,0.00,0.00,29.66,M,5.00,M,BKN,OVC,M,M,200.00,5000.00,M,M,-SN BR,M,M,M,M,M,M,32.00,KCXP 310315Z AUTO 00000KT 5SM -SN BR BKN002 OVC050 00/00 A2966 RMK AO2,M
RTS,2024-03-31 03:15,-119.8764,39.6682,1539.00,33.80,32.00,93.03,270.00,10.00,0.00,29.64,M,10.00,16.00,BKN,OVC,M,M,2400.00,3000.00,M,M,M,M,M,M,M,M,M,25.23,KRTS 310315Z AUTO 27010G16KT 10SM BKN024 OVC030 01/M00 A2964 RMK AO2,M
MEV,2024-03-31 03:15,-119.7500,38.9963,1441.42,32.00,32.00,100.00,0.00,0.00,0.00,29.66,M,3.00,M,BKN,OVC,M,M,400.00,900.00,M,M,-SN BR,M,M,M,M,M,M,32.00,KMEV 310315Z AUTO 00000KT 3SM -SN BR BKN004 OVC009 00/00 A2966 RMK AO2,M
HTH,2024-03-31 03:15,-118.6315,38.5448,1282.89,37.40,33.80,86.69,0.00,0.00,0.00,29.64,M,10.00,M,FEW,SCT,BKN,M,2900.00,4700.00,5500.00,M,M,M,M,M,M,M,M,37.40,KHTH 310315Z AUTO 00000KT 10SM FEW029 SCT047 BKN055 03/01 A2964 RMK A01,M
10U,2024-03-31 03:15,-116.1876,41.9532,1637.00,41.00,33.80,75.33,30.00,10.00,0.00,29.65,M,10.00,M,BKN,BKN,OVC,M,2000.00,2900.00,4100.00,M,M,M,M,M,M,M,M,34.25,K10U 310315Z AUTO 03010KT 10SM BKN020 BKN029 OVC041 05/01 A2965 RMK AO2,M
BAM,2024-03-31 03:15,-116.8743,40.5990,1382.36,42.80,39.20,86.99,70.00,6.00,0.00,29.60,M,10.00,M,SCT,BKN,BKN,M,3600.00,4700.00,6500.00,M,M,M,M,M,M,M,M,38.54,KBAM 310315Z AUTO 07006KT 10SM SCT036 BKN047 BKN065 06/04 A2960 RMK AO1,M
TMT,2024-03-31 03:15,-117.1971,39.4643,1749.34,34.50,32.40,91.93,250.00,12.00,0.00,29.62,M,5.00,16.00,SCT,BKN,OVC,M,1300.00,2000.00,4200.00,M,-SN,M,M,M,M,M,M,25.18,KTMT 310315Z AUTO 25012G16KT 5SM -SN SCT013 BKN020 OVC042 01/00 A2962 RMK AO2 T00140002,M
TPH,2024-03-31 03:17,-117.0904,38.0505,1654.00,33.00,32.00,96.06,160.00,10.00,0.00,29.64,M,10.00,M,FEW,OVC,M,M,500.00,1500.00,M,M,M,M,M,M,M,M,M,24.22,KTPH 310317Z AUTO 16010KT 10SM FEW005 OVC015 01/00 A2964 RMK AO2 T00060000,M
LOL,2024-03-31 03:18,-118.5701,40.0684,1192.43,42.00,39.00,89.01,310.00,5.00,T,29.58,M,10.00,M,BKN,OVC,M,M,2800.00,4300.00,M,M,-RA,M,M,M,M,M,M,38.27,KLOL 310318Z AUTO 31005KT 10SM -RA BKN028 OVC043 06/04 A2958 RMK AO2 P0000 T00560039,M
TPH,2024-03-31 03:26,-117.0904,38.0505,1654.00,33.00,32.00,96.06,160.00,8.00,0.00,29.64,M,10.00,M,FEW,SCT,OVC,M,500.00,1000.00,1300.00,M,M,M,M,M,M,M,M,25.34,KTPH 310326Z AUTO 16008KT 10SM FEW005 SCT010 OVC013 01/00 A2964 RMK AO2 T00060000,M
05U,2024-03-31 03:30,-116.0051,39.6042,1811.23,37.40,30.20,74.98,280.00,10.00,0.00,29.63,M,10.00,17.00,BKN,OVC,M,M,7500.00,10000.00,M,M,M,M,M,M,M,M,M,29.74,K05U 310330Z AUTO 28010G17KT 10SM BKN075 OVC100 03/M01 A2963 RMK A01,M
HTH,2024-03-31 03:30,-118.6315,38.5448,1282.89,37.40,33.80,86.69,220.00,6.00,0.00,29.64,M,10.00,M,BKN,BKN,BKN,M,2900.00,4400.00,5500.00,M,M,M,M,M,M,M,M,32.03,KHTH 310330Z AUTO 22006KT 10SM BKN029 BKN044 BKN055 03/01 A2964 RMK A01,M
BVU,2024-03-31 03:35,-114.8611,35.9475,671.00,44.60,42.80,93.35,100.00,13.00,0.00,29.70,M,10.00,M,SCT,OVC,M,M,5000.00,6500.00,M,M,M,M,M,M,M,M,M,37.71,KBVU 310335Z AUTO 10013KT 10SM SCT050 OVC065 07/06 A2970 RMK AO2,M
CXP,2024-03-31 03:35,-119.7326,39.1923,1431.00,32.00,32.00,100.00,0.00,0.00,0.00,29.66,M,9.00,M,BKN,BKN,OVC,M,400.00,1500.00,5000.00,M,M,M,M,M,M,M,M,32.00,KCXP 310335Z AUTO 00000KT 9SM BKN004 BKN015 OVC050 00/00 A2966 RMK AO2,M
RTS,2024-03-31 03:35,-119.8764,39.6682,1539.00,33.80,32.00,93.03,290.00,8.00,0.00,29.64,M,10.00,M,BKN,OVC,M,M,2400.00,2900.00,M,M,-RA,M,M,M,M,M,M,26.33,KRTS 310335Z AUTO 29008KT 10SM -RA BKN024 OVC029 01/M00 A2964 RMK AO2,M
MEV,2024-03-31 03:35,-119.7500,38.9963,1441.42,32.00,32.00,100.00,170.00,4.00,0.00,29.65,M,4.00,M,BKN,OVC,M,M,300.00,1000.00,M,M,-SN BR,M,M,M,M,M,M,27.42,KMEV 310335Z AUTO 17004KT 4SM -SN BR BKN003 OVC010 00/00 A2965 RMK AO2,M
10U,2024-03-31 03:35,-116.1876,41.9532,1637.00,41.00,33.80,75.33,10.00,9.00,0.00,29.65,M,10.00,18.00,SCT,BKN,OVC,M,2100.00,3300.00,4500.00,M,M,M,M,M,M,M,M,34.70,K10U 310335Z AUTO 01009G18KT 10SM SCT021 BKN033 OVC045 05/01 A2965 RMK AO2,M
BAM,2024-03-31 03:35,-116.8743,40.5990,1382.36,44.60,37.40,75.68,70.00,9.00,0.00,29.60,M,10.00,M,SCT,M,M,M,5500.00,M,M,M,M,M,M,M,M,M,M,39.18,KBAM 310335Z AUTO 07009KT 10SM SCT055 07/03 A2960 RMK AO1,M
TMT,2024-03-31 03:35,-117.1971,39.4643,1749.34,32.70,32.00,97.22,260.00,7.00,0.00,29.62,M,7.00,M,SCT,OVC,M,M,1300.00,2200.00,M,M,-SN,M,M,M,M,M,M,25.63,KTMT 310335Z AUTO 26007KT 7SM -SN SCT013 OVC022 00/00 A2962 RMK AO2 T00040000,M
05U,2024-03-31 03:50,-116.0051,39.6042,1811.23,37.40,30.20,74.98,310.00,12.00,0.00,29.61,M,10.00,M,BKN,OVC,M,M,7000.00,7500.00,M,M,M,M,M,M,M,M,M,28.87,K05U 310350Z AUTO 31012KT 10SM BKN070 OVC075 03/M01 A2961 RMK A01,M
P68,2024-03-31 03:53,-116.0056,39.6014,1993.00,36.00,30.00,78.60,140.00,11.00,0.00,29.59,1000.10,M,M,M,M,M,M,M,M,M,M,M,M,M,M,M,M,M,27.52,KP68 310353Z AUTO 14011KT 02/M01 A2959 RMK AO1 SLP001 T00221011,M
DRA,2024-03-31 03:53,-116.0278,36.6206,1009.00,41.00,36.00,82.22,280.00,7.00,0.00,29.66,1003.00,10.00,M,CLR,M,M,M,M,M,M,M,M,M,M,M,M,M,M,35.75,KDRA 310353Z AUTO 28007KT 10SM CLR 05/02 A2966 RMK AO2 PRESFR SLP030 T00500022,M
ELY,2024-03-31 03:53,-114.8453,39.2950,1909.00,34.00,31.00,88.63,0.00,0.00,0.00,29.64,1001.70,10.00,M,FEW,SCT,M,M,5000.00,7000.00,M,M,M,M,M,M,M,M,M,34.00,KELY 310353Z AUTO 00000KT 10SM FEW050 SCT070 01/M01 A2964 RMK AO2 SLP017 T00111006,M
VGT,2024-03-31 03:53,-115.1933,36.2111,667.00,47.00,40.00,76.49,150.00,11.00,T,29.69,1006.60,10.00,M,SCT,M,M,M,11000.00,M,M,M,M,M,M,M,M,M,M,41.42,KVGT 310353Z AUTO 15011KT 10SM SCT110 08/04 A2969 RMK AO2 RAB0259E26 SLP066 P0000 T00830044,M
LOL,2024-03-31 03:53,-118.5701,40.0684,1192.43,42.00,40.00,92.55,340.00,4.00,0.03,29.59,1002.10,6.00,M,SCT,OVC,M,M,2100.00,2800.00,M,M,RA BR,M,M,M,M,M,M,39.10,KLOL 310353Z AUTO 34004KT 6SM RA BR SCT021 OVC028 06/04 A2959 RMK AO2 SLP021 P0003 T00560044,M
BVU,2024-03-31 03:55,-114.8611,35.9475,671.00,44.60,42.80,93.35,120.00,11.00,0.00,29.73,M,10.00,17.00,FEW,SCT,BKN,M,500.00,2100.00,4000.00,M,M,M,M,M,M,M,M,38.39,KBVU 310355Z AUTO 12011G17KT 10SM FEW005 SCT021 BKN040 07/06 A2973 RMK AO2,M
CXP,2024-03-31 03:55,-119.7326,39.1923,1431.00,32.00,32.00,100.00,330.00,3.00,0.01,29.66,M,10.00,M,SCT,BKN,OVC,M,400.00,5000.00,5500.00,M,M,M,M,M,M,M,M,28.69,KCXP 310355Z AUTO 33003KT 10SM SCT004 BKN050 OVC055 00/00 A2966 RMK AO2 P0001,M
INS,2024-03-31 03:55,-115.6733,36.5872,955.00,44.00,37.00,76.22,310.00,5.00,0.00,29.65,1002.20,10.00,M,FEW,FEW,SCT,M,4400.00,13000.00,15000.00,M,M,M,M,M,M,M,M,40.65,KINS 310355Z AUTO 31005KT 10SM FEW044 FEW130 SCT150 07/03 A2965 RMK AO2 SLP022 T00660027 $,M
RNO,2024-03-31 03:55,-119.7711,39.4839,1341.00,36.00,34.00,92.35,0.00,0.00,0.01,29.64,1003.50,10.00,M,FEW,BKN,OVC,M,1000.00,1600.00,3000.00,M,M,M,M,M,M,M,M,36.00,KRNO 310355Z 00000KT 10SM FEW010 BKN016 OVC030 02/01 A2964 RMK AO2 RAE21SNE08 SLP035 P0001 T00220011 $,M
LSV,2024-03-31 03:55,-115.0343,36.2362,570.00,47.50,41.00,78.04,130.00,17.00,T,29.65,1003.40,10.00,20.00,FEW,M,M,M,10000.00,M,M,M,M,M,M,M,M,M,M,40.38,KLSV 310355Z AUTO 13017G20KT 10SM FEW100 09/05 A2965 RMK AO2 RAE0259RAB01E10 SLP034 P0000 T00860050 $,M
RTS,2024-03-31 03:55,-119.8764,39.6682,1539.00,33.80,32.00,93.03,310.00,8.00,0.00,29.64,M,5.00,M,BKN,BKN,M,M,2200.00,2700.00,M,M,-SN,M,M,M,M,M,M,26.33,KRTS 310355Z AUTO 31008KT 5SM -SN BKN022 BKN027 01/M00 A2964 RMK AO2,M
MEV,2024-03-31 03:55,-119.7500,38.9963,1441.42,32.00,32.00,100.00,200.00,4.00,0.00,29.66,M,10.00,M,FEW,SCT,BKN,M,300.00,4000.00,5000.00,M,M,M,M,M,M,M,M,27.42,KMEV 310355Z AUTO 20004KT 10SM FEW003 SCT040 BKN050 00/00 A2966 RMK AO2,M
HTH,2024-03-31 03:55,-118.6315,38.5448,1282.89,37.40,35.60,93.14,0.00,0.00,0.00,29.65,M,10.00,M,BKN,OVC,M,M,2800.00,3600.00,M,M,M,M,M,M,M,M,M,37.40,KHTH 310355Z AUTO 00000KT 10SM BKN028 OVC036 03/02 A2965 RMK A01,M
10U,2024-03-31 03:55,-116.1876,41.9532,1637.00,39.20,33.80,80.79,360.00,9.00,0.00,29.66,M,10.00,M,FEW,FEW,OVC,M,2000.00,3500.00,4800.00,M,M,M,M,M,M,M,M,32.47,K10U 310355Z AUTO 36009KT 10SM FEW020 FEW035 OVC048 04/01 A2966 RMK AO2,M
BAM,2024-03-31 03:55,-116.8743,40.5990,1382.36,42.80,37.40,81.07,110.00,8.00,0.00,29.61,M,10.00,M,BKN,M,M,M,5500.00,M,M,M,M,M,M,M,M,M,M,37.42,KBAM 310355Z AUTO 11008KT 10SM BKN055 06/03 A2961 RMK AO1,M
TMT,2024-03-31 03:55,-117.1971,39.4643,1749.34,33.00,32.00,96.06,160.00,4.00,0.00,29.63,M,10.00,M,SCT,OVC,M,M,2500.00,3300.00,M,M,M,M,M,M,M,M,M,28.59,KTMT 310355Z AUTO 16004KT 10SM SCT025 OVC033 01/00 A2963 RMK AO2 T00060001,M
EKO,2024-03-31 03:56,-115.7860,40.8242,1367.00,41.00,35.00,79.02,0.00,0.00,0.00,29.60,1001.90,10.00,M,OVC,M,M,M,5500.00,M,M,M,M,M,M,M,M,M,M,41.00,KEKO 310356Z AUTO 00000KT 10SM OVC055 05/02 A2960 RMK AO2 SLP019 T00500017,M
WMC,2024-03-31 03:56,-117.8072,40.9019,1315.00,44.00,39.00,82.44,20.00,11.00,T,29.58,1000.90,10.00,M,OVC,M,M,M,6000.00,M,M,M,M,M,M,M,M,M,M,37.63,KWMC 310356Z AUTO 02011KT 10SM OVC060 07/04 A2958 RMK AO2 RAE00 SLP009 P0000 T00670039,M
NFL,2024-03-31 03:56,-118.7010,39.4166,1199.00,37.00,34.00,88.78,220.00,11.00,0.06,29.63,1001.80,7.00,M,OVC,M,M,M,2000.00,M,M,M,-RA,M,M,M,M,M,M,28.79,KNFL 310356Z AUTO 22011KT 7SM -RA OVC020 03/01 A2963 RMK AO2 UPB33E41 SLP018 P0006 T00280011,M
HND,2024-03-31 03:56,-115.1344,35.9729,742.79,46.00,38.00,73.47,220.00,6.00,T,29.73,1007.90,10.00,M,SCT,OVC,M,M,10000.00,12000.00,M,M,M,M,M,M,M,M,M,42.39,KHND 310356Z AUTO 22006KT 10SM SCT100 OVC120 08/03 A2973 RMK AO2 RAE04 SLP079 P0000 T00780033,M
TPH,2024-03-31 03:56,-117.0904,38.0505,1654.00,33.00,31.00,92.25,170.00,9.00,0.00,29.65,1004.20,10.00,M,SCT,OVC,M,M,800.00,1600.00,M,M,M,M,M,M,M,M,M,24.76,KTPH 310356Z AUTO 17009KT 10SM SCT008 OVC016 01/M01 A2965 RMK AO2 SLP042 T00061006,M
LAS,2024-03-31 03:56,-115.1634,36.0719,663.00,46.00,40.00,79.44,0.00,0.00,0.00,29.71,1005.70,10.00,M,FEW,SCT,OVC,M,6000.00,9000.00,11000.00,M,M,M,M,M,M,M,M,46.00,KLAS 310356Z 00000KT 10SM FEW060 SCT090 OVC110 08/04 A2971 RMK AO2 PRESRR SLP057 T00780044,M
05U,2024-03-31 04:10,-116.0051,39.6042,1811.23,35.60,30.20,80.51,310.00,9.00,0.00,29.62,M,10.00,M,FEW,SCT,SCT,M,7500.00,8500.00,11000.00,M,M,M,M,M,M,M,M,27.99,K05U 310410Z AUTO 31009KT 10SM FEW075 SCT085 SCT110 02/M01 A2962 RMK A01,M
BVU,2024-03-31 04:15,-114.8611,35.9475,671.00,44.60,42.80,93.35,100.00,6.00,0.00,29.71,M,10.00,M,BKN,BKN,OVC,M,700.00,2000.00,6000.00,M,M,M,M,M,M,M,M,40.71,KBVU 310415Z AUTO 10006KT 10SM BKN007 BKN020 OVC060 07/06 A2971 RMK AO2,M
CXP,2024-03-31 04:15,-119.7326,39.1923,1431.00,32.00,32.00,100.00,0.00,0.00,0.00,29.66,M,10.00,M,BKN,BKN,OVC,M,600.00,1000.00,5000.00,M,M,M,M,M,M,M,M,32.00,KCXP 310415Z AUTO 00000KT 10SM BKN006 BKN010 OVC050 00/00 A2966 RMK AO2,M
RTS,2024-03-31 04:15,-119.8764,39.6682,1539.00,33.80,32.00,93.03,290.00,9.00,0.00,29.65,M,1.75,M,BKN,BKN,OVC,M,200.00,800.00,2100.00,M,-SN,M,M,M,M,M,M,25.75,KRTS 310415Z AUTO 29009KT 1 3/4SM -SN BKN002 BKN008 OVC021 01/M00 A2965 RMK AO2,M
MEV,2024-03-31 04:15,-119.7500,38.9963,1441.42,32.00,32.00,100.00,190.00,6.00,0.00,29.65,M,10.00,M,OVC,M,M,M,6000.00,M,M,M,M,M,M,M,M,M,M,25.53,KMEV 310415Z AUTO 19006KT 10SM OVC060 00/00 A2965 RMK AO2,M
HTH,2024-03-31 04:15,-118.6315,38.5448,1282.89,37.40,35.60,93.14,200.00,4.00,0.00,29.66,M,10.00,M,OVC,M,M,M,2800.00,M,M,M,M,M,M,M,M,M,M,33.73,KHTH 310415Z AUTO 20004KT 10SM OVC028 03/02 A2966 RMK A01,M
10U,2024-03-31 04:15,-116.1876,41.9532,1637.00,41.00,33.80,75.33,40.00,8.00,0.00,29.66,M,10.00,M,SCT,BKN,OVC,M,2700.00,4400.00,4900.00,M,M,M,M,M,M,M,M,35.20,K10U 310415Z AUTO 04008KT 10SM SCT027 BKN044 OVC049 05/01 A2966 RMK AO2,M
BAM,2024-03-31 04:15,-116.8743,40.5990,1382.36,42.80,37.40,81.07,0.00,0.00,0.00,29.61,M,10.00,M,BKN,M,M,M,5500.00,M,M,M,M,M,M,M,M,M,M,42.80,KBAM 310415Z AUTO 00000KT 10SM BKN055 06/03 A2961 RMK AO1,M
TMT,2024-03-31 04:15,-117.1971,39.4643,1749.34,33.00,32.40,97.62,180.00,7.00,0.00,29.64,M,7.00,M,SCT,BKN,OVC,M,1400.00,2100.00,3500.00,M,-SN,M,M,M,M,M,M,26.00,KTMT 310415Z AUTO 18007KT 7SM -SN SCT014 BKN021 OVC035 01/00 A2964 RMK AO2 T00060002,M
TPH,2024-03-31 04:28,-117.0904,38.0505,1654.00,33.00,31.00,92.25,150.00,6.00,0.00,29.66,M,10.00,M,BKN,OVC,M,M,800.00,1400.00,M,M,M,M,M,M,M,M,M,26.73,KTPH 310428Z AUTO 15006KT 10SM BKN008 OVC014 01/M01 A2966 RMK AO2 T00061006,M
05U,2024-03-31 04:30,-116.0051,39.6042,1811.23,35.60,30.20,80.51,310.00,7.00,0.00,29.63,M,10.00,M,SCT,BKN,M,M,10000.00,12000.00,M,M,M,M,M,M,M,M,M,29.17,K05U 310430Z AUTO 31007KT 10SM SCT100 BKN120 02/M01 A2963 RMK A01,M
BVU,2024-03-31 04:35,-114.8611,35.9475,671.00,44.60,42.80,93.35,140.00,7.00,0.00,29.73,M,10.00,17.00,BKN,BKN,OVC,M,800.00,2100.00,3600.00,M,M,M,M,M,M,M,M,40.14,KBVU 310435Z AUTO 14007G17KT 110V170 10SM BKN008 BKN021 OVC036 07/06 A2973 RMK AO2,M
CXP,2024-03-31 04:35,-119.7326,39.1923,1431.00,33.80,32.00,93.03,M,3.00,0.00,29.66,M,10.00,M,OVC,M,M,M,500.00,M,M,M,M,M,M,M,M,M,M,30.75,KCXP 310435Z AUTO VRB03KT 10SM OVC005 01/00 A2966 RMK AO2,M
RTS,2024-03-31 04:35,-119.8764,39.6682,1539.00,32.00,32.00,100.00,280.00,6.00,0.00,29.65,M,2.00,M,OVC,M,M,M,200.00,M,M,M,-SN,M,M,M,M,M,M,25.53,KRTS 310435Z AUTO 28006KT 2SM -SN OVC002 00/00 A2965 RMK AO2,M
MEV,2024-03-31 04:35,-119.7500,38.9963,1441.42,32.00,32.00,100.00,190.00,6.00,0.00,29.65,M,10.00,M,OVC,M,M,M,6000.00,M,M,M,M,M,M,M,M,M,M,25.53,KMEV 310435Z AUTO 19006KT 10SM OVC060 00/00 A2965 RMK AO2,M
HTH,2024-03-31 04:35,-118.6315,38.5448,1282.89,37.40,35.60,93.14,0.00,0.00,0.00,29.66,M,10.00,M,SCT,M,M,M,2700.00,M,M,M,M,M,M,M,M,M,M,37.40,KHTH 310435Z AUTO 00000KT 10SM SCT027 03/02 A2966 RMK A01,M
10U,2024-03-31 04:35,-116.1876,41.9532,1637.00,41.00,33.80,75.33,30.00,8.00,0.00,29.65,M,10.00,M,SCT,BKN,OVC,M,2500.00,3600.00,4200.00,M,M,M,M,M,M,M,M,35.20,K10U 310435Z AUTO 03008KT 10SM SCT025 BKN036 OVC042 05/01 A2965 RMK AO2,M
BAM,2024-03-31 04:35,-116.8743,40.5990,1382.36,42.80,37.40,81.07,0.00,0.00,0.00,29.60,M,10.00,M,SCT,SCT,M,M,5500.00,8000.00,M,M,M,M,M,M,M,M,M,42.80,KBAM 310435Z AUTO 00000KT 10SM SCT055 SCT080 06/03 A2960 RMK AO1,M
TMT,2024-03-31 04:35,-117.1971,39.4643,1749.34,32.00,32.00,100.00,220.00,8.00,0.00,29.64,M,1.25,M,BKN,OVC,M,M,700.00,1600.00,M,M,SN,M,M,M,M,M,M,24.11,KTMT 310435Z AUTO 22008KT 1 1/4SM SN BKN007 OVC016 00/00 A2964 RMK AO2 T00001001,M
LSV,2024-03-31 04:45,-115.0343,36.2362,570.00,46.40,41.00,81.34,120.00,4.00,0.00,29.70,1005.10,10.00,M,BKN,M,M,M,4800.00,M,M,M,M,M,M,M,M,M,M,44.24,KLSV 310445Z AUTO 12004KT 10SM BKN048 08/05 A2970 RMK AO2 PRESRR SLP051 $,M
LOL,2024-03-31 04:48,-118.5701,40.0684,1192.43,37.40,35.60,93.14,170.00,17.00,0.11,29.60,M,5.00,21.00,FEW,SCT,OVC,M,500.00,1100.00,1500.00,M,+RA BR,M,M,M,M,M,M,27.15,KLOL 310448Z AUTO 17017G21KT 5SM +RA BR FEW005 SCT011 OVC015 03/02 A2960 RMK AO2 P0011,M
05U,2024-03-31 04:50,-116.0051,39.6042,1811.23,35.60,30.20,80.51,320.00,3.00,0.00,29.63,M,10.00,M,FEW,FEW,OVC,M,4000.00,8000.00,10000.00,M,M,M,M,M,M,M,M,32.80,K05U 310450Z AUTO 32003KT 10SM FEW040 FEW080 OVC100 02/M01 A2963 RMK A01,M
P68,2024-03-31 04:53,-116.0056,39.6014,1993.00,35.00,29.00,78.51,130.00,5.00,0.00,29.60,1000.30,M,M,M,M,M,M,M,M,M,M,M,M,M,M,M,M,M,29.96,KP68 310453Z AUTO 13005KT 02/M02 A2960 RMK AO1 SLP003 T00171017,M
DRA,2024-03-31 04:53,-116.0278,36.6206,1009.00,40.00,35.00,82.15,280.00,5.00,0.00,29.69,1004.40,10.00,M,CLR,M,M,M,M,M,M,M,M,M,M,M,M,M,M,35.90,KDRA 310453Z AUTO 28005KT 10SM CLR 04/02 A2969 RMK AO2 SLP044 T00440017,M
ELY,2024-03-31 04:53,-114.8453,39.2950,1909.00,33.00,30.00,88.58,160.00,6.00,0.00,29.65,1002.70,10.00,M,FEW,OVC,M,M,2000.00,6000.00,M,M,M,M,M,M,M,M,M,26.73,KELY 310453Z AUTO 16006KT 10SM FEW020 OVC060 01/M01 A2965 RMK AO2 SLP027 T00061011,M
VGT,2024-03-31 04:53,-115.1933,36.2111,667.00,47.00,41.00,79.52,130.00,10.00,0.00,29.73,1008.20,10.00,M,BKN,M,M,M,4100.00,M,M,M,M,M,M,M,M,M,M,41.78,KVGT 310453Z AUTO 13010KT 10SM BKN041 08/05 A2973 RMK AO2 PRESRR SLP082 T00830050,M
LOL,2024-03-31 04:53,-118.5701,40.0684,1192.43,36.00,35.00,96.11,180.00,15.00,0.14,29.61,1003.20,3.00,M,FEW,BKN,OVC,M,500.00,1500.00,2100.00,M,+RA BR,M,M,M,M,M,M,25.97,KLOL 310453Z AUTO 18015KT 3SM +RA BR FEW005 BKN015 OVC021 02/02 A2961 RMK AO2 SLP032 P0014 T00220017,M
BVU,2024-03-31 04:55,-114.8611,35.9475,671.00,44.60,42.80,93.35,320.00,3.00,0.00,29.71,M,10.00,M,SCT,OVC,M,M,1000.00,1300.00,M,M,M,M,M,M,M,M,M,43.09,KBVU 310455Z AUTO 32003KT 10SM SCT010 OVC013 07/06 A2971 RMK AO2,M
CXP,2024-03-31 04:55,-119.7326,39.1923,1431.00,33.80,32.00,93.03,0.00,0.00,0.00,29.67,M,10.00,M,OVC,M,M,M,400.00,M,M,M,M,M,M,M,M,M,M,33.80,KCXP 310455Z AUTO 00000KT 10SM OVC004 01/00 A2967 RMK AO2,M
INS,2024-03-31 04:55,-115.6733,36.5872,955.00,44.00,37.00,76.22,0.00,0.00,0.00,29.68,1003.70,10.00,M,OVC,M,M,M,3000.00,M,M,M,M,M,M,M,M,M,M,44.00,KINS 310455Z AUTO 00000KT 10SM OVC030 07/03 A2968 RMK AO2 SLP037 T00670028 $,M
RNO,2024-03-31 04:55,-119.7711,39.4839,1341.00,37.00,33.00,85.29,0.00,0.00,T,29.65,1003.70,10.00,M,FEW,BKN,OVC,M,1000.00,2500.00,3500.00,M,-RA,M,M,M,M,M,M,37.00,KRNO 310455Z 00000KT 10SM -RA FEW010 BKN025 OVC035 03/01 A2965 RMK AO2 RAB0356E07B42 SLP037 P0000 T00280006 $,M
LSV,2024-03-31 04:55,-115.0343,36.2362,570.00,47.50,40.60,76.84,160.00,11.00,0.00,29.70,1005.10,10.00,16.00,BKN,M,M,M,4600.00,M,M,M,M,M,M,M,M,M,M,42.05,KLSV 310455Z AUTO 16011G16KT 10SM BKN046 09/05 A2970 RMK AO2 SLP051 T00860048 $,M
RTS,2024-03-31 04:55,-119.8764,39.6682,1539.00,32.00,32.00,100.00,270.00,9.00,0.01,29.65,M,4.00,M,SCT,M,M,M,300.00,M,M,M,-SN,M,M,M,M,M,M,23.51,KRTS 310455Z AUTO 27009KT 4SM -SN SCT003 00/00 A2965 RMK AO2 P0001,M
MEV,2024-03-31 04:55,-119.7500,38.9963,1441.42,32.00,32.00,100.00,160.00,3.00,0.00,29.66,M,10.00,M,OVC,M,M,M,6000.00,M,M,M,M,M,M,M,M,M,M,28.69,KMEV 310455Z AUTO 16003KT 10SM OVC060 00/00 A2966 RMK AO2,M
HTH,2024-03-31 04:55,-118.6315,38.5448,1282.89,37.40,33.80,86.69,0.00,0.00,0.00,29.66,M,10.00,M,CLR,M,M,M,M,M,M,M,M,M,M,M,M,M,M,37.40,KHTH 310455Z AUTO 00000KT 10SM CLR 03/01 A2966 RMK A01,M
TMT,2024-03-31 04:55,-117.1971,39.4643,1749.34,32.00,32.00,100.00,230.00,8.00,0.00,29.64,M,1.25,M,OVC,M,M,M,500.00,M,M,M,SN,M,M,M,M,M,M,24.11,KTMT 310455Z AUTO 23008KT 1 1/4SM SN OVC005 00/00 A2964 RMK AO2 T00001001,M
10U,2024-03-31 04:55,-116.1876,41.9532,1637.00,41.00,33.80,75.33,M,M,0.00,29.65,M,10.00,M,SCT,BKN,OVC,M,2300.00,3600.00,4100.00,M,M,M,M,M,M,M,M,M,K10U 310455Z AUTO 10/08333310G16KT 10SM SCT023 BKN036 OVC041 05/01 A2965 RMK AO2,M
BAM,2024-03-31 04:55,-116.8743,40.5990,1382.36,42.80,37.40,81.07,70.00,8.00,0.00,29.60,M,10.00,M,SCT,M,M,M,6500.00,M,M,M,M,M,M,M,M,M,M,37.42,KBAM 310455Z AUTO 07008KT 10SM SCT065 06/03 A2960 RMK AO1,M
EKO,2024-03-31 04:56,-115.7860,40.8242,1367.00,39.00,34.00,82.08,210.00,4.00,0.00,29.61,1001.80,10.00,M,CLR,M,M,M,M,M,M,M,M,M,M,M,M,M,M,35.59,KEKO 310456Z AUTO 21004KT 10SM CLR 04/01 A2961 RMK AO2 SLP018 T00390011,M
WMC,2024-03-31 04:56,-117.8072,40.9019,1315.00,44.00,39.00,82.44,50.00,7.00,0.00,29.60,1001.20,10.00,M,SCT,SCT,OVC,M,4200.00,4900.00,5500.00,M,M,M,M,M,M,M,M,39.41,KWMC 310456Z AUTO 05007KT 10SM SCT042 SCT049 OVC055 07/04 A2960 RMK AO2 SLP012 T00670039,M
NFL,2024-03-31 04:56,-118.7010,39.4166,1199.00,37.00,34.00,88.78,240.00,9.00,T,29.63,1001.80,8.00,M,OVC,M,M,M,3200.00,M,M,M,UP,M,M,M,M,M,M,29.73,KNFL 310456Z AUTO 24009KT 8SM UP OVC032 03/01 A2963 RMK AO2 RAE33UPB0358E10B33 SLP018 P0000 T00280011,M
HND,2024-03-31 04:56,-115.1344,35.9729,742.79,45.00,38.00,76.31,190.00,10.00,0.00,29.71,1007.30,10.00,M,BKN,M,M,M,11000.00,M,M,M,M,M,M,M,M,M,M,39.27,KHND 310456Z AUTO 19010KT 10SM BKN110 07/03 A2971 RMK AO2 PRESFR SLP073 T00720033,M
TPH,2024-03-31 04:56,-117.0904,38.0505,1654.00,33.00,31.00,92.25,150.00,9.00,0.00,29.65,1004.40,10.00,M,BKN,OVC,M,M,1000.00,1300.00,M,M,M,M,M,M,M,M,M,24.76,KTPH 310456Z AUTO 15009KT 10SM BKN010 OVC013 01/M01 A2965 RMK AO2 CIG 006V011 SLP044 T00061006,M
LAS,2024-03-31 04:56,-115.1634,36.0719,663.00,46.00,38.00,73.47,150.00,6.00,0.00,29.71,1005.50,10.00,M,SCT,BKN,M,M,4700.00,11000.00,M,M,M,M,M,M,M,M,M,42.39,KLAS 310456Z 15006KT 10SM SCT047 BKN110 08/03 A2971 RMK AO2 SLP055 T00780033,M
INS,2024-03-31 05:10,-115.6733,36.5872,955.00,44.60,35.60,70.48,0.00,0.00,0.00,29.70,1004.10,10.00,M,OVC,M,M,M,2800.00,M,M,M,M,M,M,M,M,M,M,44.60,KINS 310510Z AUTO 00000KT 10SM OVC028 07/02 A2970 RMK AO2 PRESRR SLP041 $,M
05U,2024-03-31 05:10,-116.0051,39.6042,1811.23,35.60,30.20,80.51,360.00,3.00,0.00,29.62,M,10.00,M,SCT,SCT,BKN,M,3600.00,8000.00,11000.00,M,M,M,M,M,M,M,M,32.80,K05U 310510Z AUTO 36003KT 10SM SCT036 SCT080 BKN110 02/M01 A2962 RMK A01,M
BVU,2024-03-31 05:15,-114.8611,35.9475,671.00,44.60,42.80,93.35,140.00,9.00,0.00,29.73,M,10.00,M,SCT,SCT,OVC,M,1200.00,2000.00,3000.00,M,M,M,M,M,M,M,M,39.18,KBVU 310515Z AUTO 14009KT 10SM SCT012 SCT020 OVC030 07/06 A2973 RMK AO2,M
CXP,2024-03-31 05:15,-119.7326,39.1923,1431.00,33.80,32.00,93.03,0.00,0.00,0.00,29.67,M,10.00,M,OVC,M,M,M,500.00,M,M,M,M,M,M,M,M,M,M,33.80,KCXP 310515Z AUTO 00000KT 10SM OVC005 01/00 A2967 RMK AO2,M
RTS,2024-03-31 05:15,-119.8764,39.6682,1539.00,32.00,32.00,100.00,280.00,7.00,0.00,29.65,M,8.00,M,BKN,M,M,M,2100.00,M,M,M,-SN,M,M,M,M,M,M,24.78,KRTS 310515Z AUTO 28007KT 8SM -SN BKN021 00/00 A2965 RMK AO2,M
MEV,2024-03-31 05:15,-119.7500,38.9963,1441.42,32.00,32.00,100.00,120.00,3.00,0.00,29.66,M,8.00,M,OVC,M,M,M,6000.00,M,M,M,M,M,M,M,M,M,M,28.69,KMEV 310515Z AUTO 12003KT 8SM OVC060 M00/M00 A2966 RMK AO2,M
HTH,2024-03-31 05:15,-118.6315,38.5448,1282.89,37.40,33.80,86.69,180.00,5.00,0.00,29.66,M,10.00,M,SCT,M,M,M,3000.00,M,M,M,M,M,M,M,M,M,M,32.81,KHTH 310515Z AUTO 18005KT 10SM SCT030 03/01 A2966 RMK A01,M
10U,2024-03-31 05:15,-116.1876,41.9532,1637.00,39.20,33.80,80.79,30.00,10.00,0.00,29.65,M,10.00,M,SCT,BKN,OVC,M,2100.00,2700.00,3400.00,M,M,M,M,M,M,M,M,32.00,K10U 310515Z AUTO 03010KT 10SM SCT021 BKN027 OVC034 04/01 A2965 RMK AO2,M
BAM,2024-03-31 05:15,-116.8743,40.5990,1382.36,42.80,37.40,81.07,90.00,6.00,0.00,29.61,M,10.00,M,SCT,SCT,M,M,7000.00,8000.00,M,M,M,M,M,M,M,M,M,38.54,KBAM 310515Z AUTO 09006KT 10SM SCT070 SCT080 06/03 A2961 RMK AO1,M
TMT,2024-03-31 05:15,-117.1971,39.4643,1749.34,32.00,31.00,96.04,0.00,0.00,0.00,29.62,M,5.00,M,SCT,BKN,OVC,M,300.00,800.00,6000.00,M,-SN,M,M,M,M,M,M,32.00,KTMT 310515Z AUTO 00000KT 5SM -SN SCT003 BKN008 OVC060 00/00 A2962 RMK AO2 T10011005,M
ELY,2024-03-31 05:23,-114.8453,39.2950,1909.00,33.00,31.00,92.25,170.00,6.00,T,29.63,M,3.00,M,FEW,BKN,OVC,M,1600.00,2700.00,3300.00,M,-SN BR,M,M,M,M,M,M,26.73,KELY 310523Z AUTO 17006KT 3SM -SN BR FEW016 BKN027 OVC033 01/M01 A2963 RMK AO2 SNB14 P0000 T00061006,M
INS,2024-03-31 05:24,-115.6733,36.5872,955.00,44.60,35.60,70.48,260.00,3.00,0.00,29.71,1004.70,10.00,M,OVC,M,M,M,2400.00,M,M,M,-RA,M,M,M,M,M,M,43.09,KINS 310524Z AUTO 26003KT 10SM -RA OVC024 07/02 A2971 RMK AO2 RAB24 OVC V BKN SLP047 $,M
05U,2024-03-31 05:30,-116.0051,39.6042,1811.23,35.60,30.20,80.51,360.00,8.00,0.00,29.62,M,9.00,M,SCT,BKN,BKN,M,3400.00,4400.00,5000.00,M,M,M,M,M,M,M,M,28.55,K05U 310530Z AUTO 36008KT 9SM SCT034 BKN044 BKN050 02/M01 A2962 RMK A01,M
BVU,2024-03-31 05:35,-114.8611,35.9475,671.00,44.60,41.00,87.09,160.00,8.00,0.00,29.75,M,10.00,14.00,FEW,OVC,M,M,1300.00,2800.00,M,M,M,M,M,M,M,M,M,39.63,KBVU 310535Z AUTO 16008G14KT 10SM FEW013 OVC028 07/05 A2975 RMK AO2,M
CXP,2024-03-31 05:35,-119.7326,39.1923,1431.00,33.80,33.80,100.00,0.00,0.00,0.00,29.66,M,10.00,M,OVC,M,M,M,600.00,M,M,M,M,M,M,M,M,M,M,33.80,KCXP 310535Z AUTO 00000KT 10SM OVC006 01/01 A2966 RMK AO2,M
RTS,2024-03-31 05:35,-119.8764,39.6682,1539.00,32.00,32.00,100.00,280.00,7.00,0.00,29.65,M,8.00,M,BKN,OVC,M,M,2200.00,2700.00,M,M,-SN,M,M,M,M,M,M,24.78,KRTS 310535Z AUTO 28007KT 8SM -SN BKN022 OVC027 00/00 A2965 RMK AO2,M
MEV,2024-03-31 05:35,-119.7500,38.9963,1441.42,32.00,32.00,100.00,0.00,0.00,0.00,29.65,M,6.00,M,FEW,FEW,OVC,M,200.00,600.00,6000.00,M,BR,M,M,M,M,M,M,32.00,KMEV 310535Z AUTO 00000KT 6SM BR FEW002 FEW006 OVC060 M00/M00 A2965 RMK AO2,M
HTH,2024-03-31 05:35,-118.6315,38.5448,1282.89,35.60,33.80,93.08,180.00,6.00,0.00,29.65,M,10.00,M,FEW,M,M,M,2900.00,M,M,M,M,M,M,M,M,M,M,29.87,KHTH 310535Z AUTO 18006KT 10SM FEW029 02/01 A2965 RMK A01,M
10U,2024-03-31 05:35,-116.1876,41.9532,1637.00,39.20,33.80,80.79,40.00,12.00,0.00,29.65,M,10.00,M,SCT,BKN,OVC,M,1200.00,2100.00,3600.00,M,-RA,M,M,M,M,M,M,31.17,K10U 310535Z AUTO 04012KT 10SM -RA SCT012 BKN021 OVC036 04/01 A2965 RMK AO2,M
BAM,2024-03-31 05:35,-116.8743,40.5990,1382.36,42.80,37.40,81.07,80.00,6.00,0.00,29.61,M,10.00,M,SCT,BKN,BKN,M,4700.00,7000.00,8000.00,M,M,M,M,M,M,M,M,38.54,KBAM 310535Z AUTO 08006KT 10SM SCT047 BKN070 BKN080 06/03 A2961 RMK AO1,M
TMT,2024-03-31 05:35,-117.1971,39.4643,1749.34,28.40,28.00,98.37,170.00,3.00,0.00,29.63,M,10.00,M,SCT,SCT,SCT,M,2200.00,2800.00,3700.00,M,M,M,M,M,M,M,M,24.57,KTMT 310535Z AUTO 17003KT 10SM SCT022 SCT028 SCT037 M02/M02 A2963 RMK AO2 T10201023,M
NFL,2024-03-31 05:39,-118.7010,39.4166,1199.00,37.00,34.00,88.78,210.00,8.00,T,29.63,M,10.00,M,SCT,OVC,M,M,1500.00,2600.00,M,M,UP,M,M,M,M,M,M,30.27,KNFL 310539Z AUTO 21008KT 10SM UP SCT015 OVC026 03/01 A2963 RMK AO2 UPE07B27 P0000 T00280011,M
ELY,2024-03-31 05:39,-114.8453,39.2950,1909.00,33.00,30.00,88.58,190.00,6.00,T,29.64,M,8.00,M,BKN,M,M,M,3100.00,M,M,M,-SN,M,M,M,M,M,M,26.73,KELY 310539Z AUTO 19006KT 8SM -SN BKN031 01/M01 A2964 RMK AO2 SNB14 P0000 T00061011,M
INS,2024-03-31 05:44,-115.6733,36.5872,955.00,44.60,37.40,75.68,250.00,5.00,0.00,29.70,1004.10,10.00,M,BKN,BKN,BKN,M,2100.00,2600.00,5500.00,M,M,M,M,M,M,M,M,41.36,KINS 310544Z AUTO 25005KT 10SM BKN021 BKN026 BKN055 07/03 A2970 RMK AO2 RAB24E44 SLP041 $,M
INS,2024-03-31 05:49,-115.6733,36.5872,955.00,44.60,37.40,75.68,240.00,5.00,0.00,29.69,1003.80,10.00,M,SCT,BKN,M,M,2100.00,5500.00,M,M,M,M,M,M,M,M,M,41.36,KINS 310549Z AUTO 24005KT 10SM SCT021 BKN055 07/03 A2969 RMK AO2 RAB24E44 SLP038 $,M
05U,2024-03-31 05:50,-116.0051,39.6042,1811.23,35.60,30.20,80.51,320.00,9.00,0.00,29.63,M,10.00,M,BKN,OVC,M,M,3800.00,4500.00,M,M,M,M,M,M,M,M,M,27.99,K05U 310550Z AUTO 32009KT 10SM BKN038 OVC045 02/M01 A2963 RMK A01,M
P68,2024-03-31 05:53,-116.0056,39.6014,1993.00,36.00,29.00,75.46,160.00,10.00,0.00,29.60,1000.00,M,M,M,M,M,M,M,M,M,M,M,M,M,M,M,M,M,27.98,KP68 310553Z AUTO 16010KT 02/M02 A2960 RMK AO1 SLP000 T00221017 10050 20011 55001,M
DRA,2024-03-31 05:53,-116.0278,36.6206,1009.00,39.00,36.00,88.87,0.00,0.00,0.00,29.70,1004.50,10.00,M,FEW,M,M,M,4100.00,M,M,M,M,M,M,M,M,M,M,39.00,KDRA 310553Z AUTO 00000KT 10SM FEW041 04/02 A2970 RMK AO2 SLP045 60000 T00390022 10072 20039 53012,M
ELY,2024-03-31 05:53,-114.8453,39.2950,1909.00,33.00,30.00,88.58,170.00,8.00,T,29.64,1002.70,10.00,M,FEW,BKN,M,M,3300.00,10000.00,M,M,M,M,M,M,M,M,M,25.34,KELY 310553Z AUTO 17008KT 10SM FEW033 BKN100 01/M01 A2964 RMK AO2 SNB14E42 SLP027 P0000 60001 T00061011 10017 20006 50002,M
VGT,2024-03-31 05:53,-115.1933,36.2111,667.00,47.00,42.00,82.65,140.00,12.00,0.00,29.73,1008.00,10.00,M,FEW,OVC,M,M,2600.00,3300.00,M,M,M,M,M,M,M,M,M,41.09,KVGT 310553Z AUTO 14012KT 10SM FEW026 OVC033 08/06 A2973 RMK AO2 SLP080 60004 T00830056 10106 20078 52012,M
LOL,2024-03-31 05:53,-118.5701,40.0684,1192.43,34.00,34.00,100.00,200.00,8.00,0.06,29.63,1004.10,8.00,M,OVC,M,M,M,2000.00,M,M,M,-RA,M,M,M,M,M,M,26.58,KLOL 310553Z AUTO 20008KT 8SM -RA OVC020 01/01 A2963 RMK AO2 SLP041 P0006 60024 T00110011 10072 20011 53011,M
BVU,2024-03-31 05:55,-114.8611,35.9475,671.00,44.60,41.00,87.09,130.00,6.00,0.00,29.73,M,10.00,M,OVC,M,M,M,3000.00,M,M,M,M,M,M,M,M,M,M,40.71,KBVU 310555Z AUTO 13006KT 10SM OVC030 07/05 A2973 RMK AO2,M
CXP,2024-03-31 05:55,-119.7326,39.1923,1431.00,33.80,32.00,93.03,0.00,0.00,0.00,29.66,M,10.00,M,OVC,M,M,M,600.00,M,M,M,M,M,M,M,M,M,M,33.80,KCXP 310555Z AUTO 00000KT 10SM OVC006 01/00 A2966 RMK AO2,M
INS,2024-03-31 05:55,-115.6733,36.5872,955.00,44.00,37.20,76.82,260.00,6.00,T,29.69,1003.80,10.00,M,SCT,BKN,M,M,2100.00,5500.00,M,M,M,M,M,M,M,M,M,39.98,KINS 310555Z AUTO 26006KT 10SM SCT021 BKN055 07/03 A2969 RMK AO2 RAB24E44 SLP038 P0000 60001 T00660029 10078 20060 52014 $,M
RNO,2024-03-31 05:55,-119.7711,39.4839,1341.00,37.00,34.00,88.78,80.00,4.00,T,29.65,1003.40,10.00,M,FEW,BKN,OVC,M,1000.00,2800.00,4000.00,M,-RA,M,M,M,M,M,M,33.26,KRNO 310555Z 08004KT 10SM -RA FEW010 BKN028 OVC040 03/01 A2965 RMK AO2 SLP034 P0000 60013 T00280011 10033 20017 50004 $,M
LSV,2024-03-31 05:55,-115.0343,36.2362,570.00,48.00,40.00,73.67,150.00,6.00,0.00,29.71,1005.60,10.00,M,SCT,BKN,OVC,M,2400.00,3600.00,4300.00,M,M,M,M,M,M,M,M,44.80,KLSV 310555Z AUTO 15006KT 10SM SCT024 BKN036 OVC043 09/04 A2971 RMK AO2 SLP056 60005 T00880044 10117 20083 53012 $,M
RTS,2024-03-31 05:55,-119.8764,39.6682,1539.00,33.80,32.00,93.03,290.00,6.00,0.01,29.66,M,8.00,M,BKN,OVC,M,M,2500.00,3200.00,M,M,-SN,M,M,M,M,M,M,27.70,KRTS 310555Z AUTO 29006KT 8SM -SN BKN025 OVC032 01/00 A2966 RMK AO2 P0001,M
MEV,2024-03-31 05:55,-119.7500,38.9963,1441.42,32.00,32.00,100.00,130.00,6.00,0.00,29.65,M,9.00,M,FEW,SCT,OVC,M,300.00,5500.00,6500.00,M,M,M,M,M,M,M,M,25.53,KMEV 310555Z AUTO 13006KT 9SM FEW003 SCT055 OVC065 M00/M00 A2965 RMK AO2,M
HTH,2024-03-31 05:55,-118.6315,38.5448,1282.89,35.60,32.00,86.59,0.00,0.00,0.00,29.65,M,10.00,M,CLR,M,M,M,M,M,M,M,M,M,M,M,M,M,M,35.60,KHTH 310555Z AUTO 00000KT 10SM CLR 02/00 A2965 RMK A01,M
10U,2024-03-31 05:55,-116.1876,41.9532,1637.00,39.20,33.80,80.79,40.00,10.00,0.00,29.64,M,10.00,M,SCT,SCT,OVC,M,1200.00,1900.00,4000.00,M,M,M,M,M,M,M,M,32.00,K10U 310555Z AUTO 04010KT 10SM SCT012 SCT019 OVC040 04/01 A2964 RMK AO2,M
BAM,2024-03-31 05:55,-116.8743,40.5990,1382.36,42.80,37.40,81.07,70.00,7.00,0.00,29.60,M,10.00,M,BKN,BKN,OVC,M,4700.00,5000.00,8000.00,M,M,M,M,M,M,M,M,37.94,KBAM 310555Z AUTO 07007KT 10SM BKN047 BKN050 OVC080 06/03 A2960 RMK AO1,M
TMT,2024-03-31 05:55,-117.1971,39.4643,1749.34,26.60,26.20,98.36,0.00,0.00,0.00,29.63,M,10.00,M,SCT,BKN,M,M,1300.00,11000.00,M,M,M,M,M,M,M,M,M,26.60,KTMT 310555Z AUTO 00000KT 10SM SCT013 BKN110 M03/M03 A2963 RMK AO2 T10301032 10040 21030,M
EKO,2024-03-31 05:56,-115.7860,40.8242,1367.00,40.00,35.00,82.15,220.00,3.00,0.00,29.60,1001.30,10.00,M,OVC,M,M,M,3900.00,M,M,M,M,M,M,M,M,M,M,37.83,KEKO 310556Z AUTO 22003KT 10SM OVC039 04/02 A2960 RMK AO2 SLP013 60000 T00440017 10083 20033 56005,M
WMC,2024-03-31 05:56,-117.8072,40.9019,1315.00,44.00,39.00,82.44,20.00,12.00,T,29.59,1000.60,10.00,M,FEW,BKN,OVC,M,3500.00,4900.00,9000.00,M,-RA,M,M,M,M,M,M,37.27,KWMC 310556Z AUTO 02012KT 10SM -RA FEW035 BKN049 OVC090 07/04 A2959 RMK AO2 RAB27 SLP006 P0000 60002 T00670039 10106 20056 56002,M
NFL,2024-03-31 05:56,-118.7010,39.4166,1199.00,37.00,34.00,88.78,220.00,7.00,T,29.63,1001.80,10.00,M,OVC,M,M,M,1600.00,M,M,M,M,M,M,M,M,M,M,30.87,KNFL 310556Z AUTO 22007KT 10SM OVC016 03/01 A2963 RMK AO2 UPE07B27E46 SLP018 P0000 60014 T00280011 10089 20017 56000,M
HND,2024-03-31 05:56,-115.1344,35.9729,742.79,45.00,39.00,79.36,190.00,8.00,0.00,29.74,1008.50,10.00,M,FEW,M,M,M,12000.00,M,M,M,M,M,M,M,M,M,M,40.13,KHND 310556Z AUTO 19008KT 10SM FEW120 07/04 A2974 RMK AO2 SLP085 60003 T00720039 10094 20067 53012,M
TPH,2024-03-31 05:56,-117.0904,38.0505,1654.00,33.00,31.00,92.25,140.00,8.00,0.00,29.67,1004.50,10.00,M,OVC,M,M,M,1100.00,M,M,M,M,M,M,M,M,M,M,25.34,KTPH 310556Z AUTO 14008KT 10SM OVC011 01/M01 A2967 RMK AO2 SLP045 60000 T00061006 10039 20006 53009,M
LAS,2024-03-31 05:56,-115.1634,36.0719,663.00,45.00,40.00,82.51,160.00,3.00,0.00,29.73,1006.20,10.00,M,SCT,M,M,M,3600.00,M,M,M,M,M,M,M,M,M,M,43.55,KLAS 310556Z 16003KT 10SM SCT036 07/04 A2973 RMK AO2 SLP062 60003 T00720044 10094 20072 52011,M
NFL,2024-03-31 06:03,-118.7010,39.4166,1199.00,37.00,34.00,88.78,230.00,8.00,0.00,29.63,M,10.00,M,OVC,M,M,M,1400.00,M,M,M,M,M,M,M,M,M,M,30.27,KNFL 310603Z AUTO 23008KT 10SM OVC014 03/01 A2963 RMK AO2 T00280011,M
05U,2024-03-31 06:10,-116.0051,39.6042,1811.23,35.60,30.20,80.51,310.00,7.00,0.00,29.63,M,10.00,M,OVC,M,M,M,3300.00,M,M,M,M,M,M,M,M,M,M,29.17,K05U 310610Z AUTO 31007KT 10SM OVC033 02/M01 A2963 RMK A01,M
BVU,2024-03-31 06:15,-114.8611,35.9475,671.00,44.60,41.00,87.09,130.00,6.00,0.00,29.72,M,10.00,M,OVC,M,M,M,3100.00,M,M,M,M,M,M,M,M,M,M,40.71,KBVU 310615Z AUTO 13006KT 10SM OVC031 07/05 A2972 RMK AO2,M
CXP,2024-03-31 06:15,-119.7326,39.1923,1431.00,33.80,32.00,93.03,0.00,0.00,0.00,29.67,M,10.00,M,FEW,OVC,M,M,600.00,6500.00,M,M,M,M,M,M,M,M,M,33.80,KCXP 310615Z AUTO 00000KT 10SM FEW006 OVC065 01/00 A2967 RMK AO2,M
RTS,2024-03-31 06:15,-119.8764,39.6682,1539.00,32.00,32.00,100.00,280.00,8.00,0.00,29.65,M,2.50,M,SCT,BKN,BKN,M,300.00,2000.00,2600.00,M,-SN,M,M,M,M,M,M,24.11,KRTS 310615Z AUTO 28008KT 2 1/2SM -SN SCT003 BKN020 BKN026 00/00 A2965 RMK AO2,M
MEV,2024-03-31 06:15,-119.7500,38.9963,1441.42,32.00,32.00,100.00,100.00,5.00,0.00,29.65,M,10.00,M,OVC,M,M,M,5500.00,M,M,M,M,M,M,M,M,M,M,26.40,KMEV 310615Z AUTO 10005KT 10SM OVC055 00/M00 A2965 RMK AO2,M
HTH,2024-03-31 06:15,-118.6315,38.5448,1282.89,33.80,33.80,100.00,100.00,5.00,0.00,29.65,M,10.00,M,CLR,M,M,M,M,M,M,M,M,M,M,M,M,M,M,28.53,KHTH 310615Z AUTO 10005KT 10SM CLR 01/01 A2965 RMK A01,M
10U,2024-03-31 06:15,-116.1876,41.9532,1637.00,39.20,33.80,80.79,40.00,11.00,0.00,29.64,M,10.00,M,FEW,SCT,OVC,M,1900.00,2500.00,4000.00,M,M,M,M,M,M,M,M,31.57,K10U 310615Z AUTO 04011KT 10SM FEW019 SCT025 OVC040 04/01 A2964 RMK AO2,M
TMT,2024-03-31 06:15,-117.1971,39.4643,1749.34,27.00,26.40,97.55,110.00,5.00,0.00,29.63,M,10.00,M,SCT,SCT,OVC,M,1500.00,4900.00,11000.00,M,M,M,M,M,M,M,M,20.46,KTMT 310615Z AUTO 11005KT 10SM SCT015 SCT049 OVC110 M03/M03 A2963 RMK AO2 T10271031,M
05U,2024-03-31 06:30,-116.0051,39.6042,1811.23,35.60,30.20,80.51,320.00,6.00,0.00,29.62,M,10.00,M,OVC,M,M,M,3000.00,M,M,M,M,M,M,M,M,M,M,29.87,K05U 310630Z AUTO 32006KT 10SM OVC030 02/M01 A2962 RMK A01,M
BVU,2024-03-31 06:35,-114.8611,35.9475,671.00,44.60,41.00,87.09,100.00,5.00,0.00,29.72,M,10.00,M,OVC,M,M,M,2800.00,M,M,M,M,M,M,M,M,M,M,41.36,KBVU 310635Z AUTO 10005KT 10SM OVC028 07/05 A2972 RMK AO2,M
CXP,2024-03-31 06:35,-119.7326,39.1923,1431.00,33.80,32.00,93.03,0.00,0.00,0.00,29.66,M,10.00,M,SCT,BKN,OVC,M,4200.00,5000.00,6500.00,M,M,M,M,M,M,M,M,33.80,KCXP 310635Z AUTO 00000KT 10SM SCT042 BKN050 OVC065 01/M00 A2966 RMK AO2,M
RTS,2024-03-31 06:35,-119.8764,39.6682,1539.00,32.00,32.00,100.00,280.00,6.00,0.00,29.66,M,1.50,M,OVC,M,M,M,200.00,M,M,M,-SN,M,M,M,M,M,M,25.53,KRTS 310635Z AUTO 28006KT 1 1/2SM -SN OVC002 00/00 A2966 RMK AO2,M
MEV,2024-03-31 06:35,-119.7500,38.9963,1441.42,32.00,32.00,100.00,120.00,9.00,0.00,29.66,M,10.00,M,BKN,BKN,OVC,M,6000.00,7500.00,12000.00,M,M,M,M,M,M,M,M,23.51,KMEV 310635Z AUTO 12009KT 10SM BKN060 BKN075 OVC120 00/M00 A2966 RMK AO2,M
HTH,2024-03-31 06:35,-118.6315,38.5448,1282.89,33.80,33.80,100.00,90.00,4.00,0.00,29.65,M,10.00,M,CLR,M,M,M,M,M,M,M,M,M,M,M,M,M,M,29.52,KHTH 310635Z AUTO 09004KT 10SM CLR 01/01 A2965 RMK A01,M
TMT,2024-03-31 06:35,-117.1971,39.4643,1749.34,25.50,24.80,97.13,0.00,0.00,0.00,29.63,M,10.00,M,SCT,SCT,BKN,M,800.00,1500.00,10000.00,M,M,M,M,M,M,M,M,25.50,KTMT 310635Z AUTO 00000KT 10SM SCT008 SCT015 BKN100 M04/M04 A2963 RMK AO2 T10361040,M
10U,2024-03-31 06:35,-116.1876,41.9532,1637.00,37.40,33.80,86.69,30.00,12.00,0.00,29.64,M,7.00,M,SCT,BKN,OVC,M,600.00,1000.00,3900.00,M,-RA,M,M,M,M,M,M,28.87,K10U 310635Z AUTO 03012KT 7SM -RA SCT006 BKN010 OVC039 03/01 A2964 RMK AO2,M
BAM,2024-03-31 06:35,-116.8743,40.5990,1382.36,42.80,37.40,81.07,70.00,3.00,0.00,29.60,M,10.00,M,BKN,OVC,M,M,4700.00,5000.00,M,M,M,M,M,M,M,M,M,41.03,KBAM 310635Z AUTO 07003KT 10SM BKN047 OVC050 06/03 A2960 RMK AO1,M
TPH,2024-03-31 06:40,-117.0904,38.0505,1654.00,33.00,30.00,88.58,150.00,9.00,0.00,29.66,M,10.00,M,OVC,M,M,M,900.00,M,M,M,M,M,M,M,M,M,M,24.76,KTPH 310640Z AUTO 15009KT 10SM OVC009 01/M01 A2966 RMK AO2 CIG 009V013 T00061011,M
LSV,2024-03-31 06:45,-115.0343,36.2362,570.00,48.20,39.20,70.88,150.00,3.00,0.00,29.70,1005.10,10.00,M,SCT,SCT,M,M,4700.00,5500.00,M,M,M,M,M,M,M,M,M,47.21,KLSV 310645Z AUTO 15003KT 10SM SCT047 SCT055 09/04 A2970 RMK AO2 SLP051 $,M
RNO,2024-03-31 06:46,-119.7711,39.4839,1341.00,36.00,33.00,88.73,70.00,5.00,0.02,29.67,M,6.00,M,FEW,BKN,OVC,M,1000.00,2800.00,4000.00,M,-SN BR,M,M,M,M,M,M,31.15,KRNO 310646Z 07005KT 6SM -SN BR FEW010 BKN028 OVC040 02/01 A2967 RMK AO2 RAE41SNB41 P0002 T00220006 $,M
05U,2024-03-31 06:50,-116.0051,39.6042,1811.23,35.60,32.00,86.59,0.00,0.00,0.00,29.63,M,9.00,M,BKN,OVC,M,M,3200.00,3800.00,M,M,M,M,M,M,M,M,M,35.60,K05U 310650Z AUTO 00000KT 9SM BKN032 OVC038 02/M00 A2963 RMK A01,M
P68,2024-03-31 06:53,-116.0056,39.6014,1993.00,35.00,31.00,85.17,160.00,6.00,0.00,29.61,1000.10,M,M,M,M,M,M,M,M,M,M,M,M,M,M,M,M,M,29.14,KP68 310653Z AUTO 16006KT 02/M01 A2961 RMK AO1 SLP001 T00171006,M
DRA,2024-03-31 06:53,-116.0278,36.6206,1009.00,39.00,36.00,88.87,0.00,0.00,0.00,29.71,1004.90,10.00,M,BKN,BKN,M,M,5000.00,5500.00,M,M,M,M,M,M,M,M,M,39.00,KDRA 310653Z AUTO 00000KT 10SM BKN050 BKN055 04/02 A2971 RMK AO2 SLP049 T00390022,M
ELY,2024-03-31 06:53,-114.8453,39.2950,1909.00,32.00,29.00,88.53,210.00,16.00,0.00,29.60,1000.70,10.00,21.00,FEW,M,M,M,10000.00,M,M,M,M,M,M,M,M,M,M,20.42,KELY 310653Z AUTO 21016G21KT 10SM FEW100 00/M02 A2960 RMK AO2 SLP007 T00001017,M
VGT,2024-03-31 06:53,-115.1933,36.2111,667.00,46.00,41.00,82.58,100.00,3.00,0.00,29.72,1007.70,10.00,M,BKN,M,M,M,3500.00,M,M,M,M,M,M,M,M,M,M,44.69,KVGT 310653Z AUTO 10003KT 10SM BKN035 08/05 A2972 RMK AO2 SLP077 T00780050,M
LOL,2024-03-31 06:53,-118.5701,40.0684,1192.43,34.00,34.00,100.00,210.00,5.00,0.06,29.63,1004.00,7.00,M,OVC,M,M,M,1900.00,M,M,M,-RA,M,M,M,M,M,M,28.77,KLOL 310653Z AUTO 21005KT 7SM -RA OVC019 01/01 A2963 RMK AO2 SLP040 P0006 T00110011,M
BVU,2024-03-31 06:55,-114.8611,35.9475,671.00,44.60,41.00,87.09,130.00,5.00,0.00,29.74,M,10.00,M,OVC,M,M,M,2800.00,M,M,M,M,M,M,M,M,M,M,41.36,KBVU 310655Z AUTO 13005KT 10SM OVC028 07/05 A2974 RMK AO2,M
CXP,2024-03-31 06:55,-119.7326,39.1923,1431.00,33.80,32.00,93.03,320.00,3.00,0.00,29.67,M,10.00,M,OVC,M,M,M,4200.00,M,M,M,M,M,M,M,M,M,M,30.75,KCXP 310655Z AUTO 32003KT 10SM OVC042 01/M00 A2967 RMK AO2,M
INS,2024-03-31 06:55,-115.6733,36.5872,955.00,41.00,37.40,86.89,280.00,6.00,0.00,29.71,1004.70,10.00,M,FEW,M,M,M,3800.00,M,M,M,M,M,M,M,M,M,M,36.37,KINS 310655Z AUTO 28006KT 10SM FEW038 05/03 A2971 RMK AO2 SLP047 T00500030 $,M
RNO,2024-03-31 06:55,-119.7711,39.4839,1341.00,35.00,32.00,88.68,70.00,5.00,0.02,29.67,1004.20,2.50,M,OVC,M,M,M,2000.00,M,M,M,-SN BR,M,M,M,M,M,M,29.96,KRNO 310655Z 07005KT 2 1/2SM -SN BR OVC020 02/00 A2967 RMK AO2 RAE41SNB41 SLP042 P0002 T00170000 $,M
LSV,2024-03-31 06:55,-115.0343,36.2362,570.00,47.50,40.00,75.07,110.00,4.00,0.00,29.69,1004.80,10.00,M,SCT,M,M,M,4700.00,M,M,M,M,M,M,M,M,M,M,45.52,KLSV 310655Z AUTO 11004KT 10SM SCT047 09/04 A2969 RMK AO2 SLP048 T00860044 $,M
RTS,2024-03-31 06:55,-119.8764,39.6682,1539.00,32.00,32.00,100.00,270.00,5.00,0.01,29.66,M,0.75,M,OVC,M,M,M,200.00,M,M,M,-SN,M,M,M,M,M,M,26.40,KRTS 310655Z AUTO 27005KT 3/4SM -SN OVC002 00/00 A2966 RMK AO2 P0001,M
MEV,2024-03-31 06:55,-119.7500,38.9963,1441.42,32.00,30.20,92.97,120.00,6.00,0.00,29.66,M,10.00,M,FEW,BKN,OVC,M,6000.00,7500.00,12000.00,M,M,M,M,M,M,M,M,25.53,KMEV 310655Z AUTO 12006KT 10SM FEW060 BKN075 OVC120 00/M01 A2966 RMK AO2,M
HTH,2024-03-31 06:55,-118.6315,38.5448,1282.89,35.60,33.80,93.08,0.00,0.00,0.00,29.65,M,10.00,M,FEW,FEW,M,M,8000.00,10000.00,M,M,M,M,M,M,M,M,M,35.60,KHTH 310655Z AUTO 00000KT 10SM FEW080 FEW100 02/01 A2965 RMK A01,M
10U,2024-03-31 06:55,-116.1876,41.9532,1637.00,37.40,33.80,86.69,30.00,10.00,0.00,29.64,M,7.00,M,OVC,M,M,M,700.00,M,M,M,-RA,M,M,M,M,M,M,29.74,K10U 310655Z AUTO 03010KT 7SM -RA OVC007 03/01 A2964 RMK AO2,M
BAM,2024-03-31 06:55,-116.8743,40.5990,1382.36,42.80,37.40,81.07,210.00,8.00,0.00,29.61,M,10.00,M,BKN,BKN,OVC,M,3300.00,4400.00,5000.00,M,M,M,M,M,M,M,M,37.42,KBAM 310655Z AUTO 21008KT 10SM BKN033 BKN044 OVC050 06/03 A2961 RMK AO1,M
TMT,2024-03-31 06:55,-117.1971,39.4643,1749.34,25.30,24.80,97.94,0.00,0.00,0.00,29.64,M,10.00,M,SCT,SCT,M,M,1000.00,5000.00,M,M,M,M,M,M,M,M,M,25.30,KTMT 310655Z AUTO 00000KT 10SM SCT010 SCT050 M04/M04 A2964 RMK AO2 T10371040,M
EKO,2024-03-31 06:56,-115.7860,40.8242,1367.00,41.00,35.00,79.02,30.00,3.00,0.00,29.59,1000.90,10.00,M,SCT,OVC,M,M,4300.00,5000.00,M,M,M,M,M,M,M,M,M,38.98,KEKO 310656Z AUTO 03003KT 10SM SCT043 OVC050 05/02 A2959 RMK AO2 SLP009 T00500017,M
WMC,2024-03-31 06:56,-117.8072,40.9019,1315.00,43.00,39.00,85.66,40.00,11.00,T,29.59,1000.50,10.00,M,FEW,BKN,OVC,M,3800.00,6500.00,8000.00,M,-RA,M,M,M,M,M,M,36.37,KWMC 310656Z AUTO 04011KT 10SM -RA FEW038 BKN065 OVC080 06/04 A2959 RMK AO2 RAE22B48 SLP005 P0000 T00610039,M
NFL,2024-03-31 06:56,-118.7010,39.4166,1199.00,36.00,34.00,92.35,130.00,7.00,T,29.65,1002.30,8.00,M,OVC,M,M,M,1300.00,M,M,M,UP,M,M,M,M,M,M,29.65,KNFL 310656Z AUTO 13007KT 8SM UP OVC013 02/01 A2965 RMK AO2 UPB45 SLP023 P0000 T00220011,M
HND,2024-03-31 06:56,-115.1344,35.9729,742.79,44.00,39.00,82.44,180.00,10.00,0.00,29.73,1008.10,10.00,M,FEW,M,M,M,11000.00,M,M,M,M,M,M,M,M,M,M,38.02,KHND 310656Z AUTO 18010KT 10SM FEW110 07/04 A2973 RMK AO2 SLP081 T00670039 401610061,M
TPH,2024-03-31 06:56,-117.0904,38.0505,1654.00,33.00,30.00,88.58,140.00,7.00,0.00,29.66,1004.40,10.00,M,OVC,M,M,M,1000.00,M,M,M,M,M,M,M,M,M,M,26.00,KTPH 310656Z AUTO 14007KT 10SM OVC010 01/M01 A2966 RMK AO2 CIG 009V015 SLP044 T00061011,M
LAS,2024-03-31 06:56,-115.1634,36.0719,663.00,44.00,40.00,85.71,0.00,0.00,0.00,29.72,1005.90,10.00,M,FEW,M,M,M,4000.00,M,M,M,M,M,M,M,M,M,M,44.00,KLAS 310656Z 00000KT 10SM FEW040 07/04 A2972 RMK AO2 SLP059 T00670044,M
05U,2024-03-31 07:10,-116.0051,39.6042,1811.23,35.60,32.00,86.59,10.00,8.00,0.00,29.63,M,7.00,M,FEW,FEW,OVC,M,300.00,600.00,3700.00,M,M,M,M,M,M,M,M,28.55,K05U 310710Z AUTO 01008KT 7SM FEW003 FEW006 OVC037 02/M00 A2963 RMK A01,M
BVU,2024-03-31 07:15,-114.8611,35.9475,671.00,44.60,41.00,87.09,110.00,9.00,0.00,29.74,M,10.00,M,OVC,M,M,M,2800.00,M,M,M,M,M,M,M,M,M,M,39.18,KBVU 310715Z AUTO 11009KT 10SM OVC028 07/05 A2974 RMK AO2,M
CXP,2024-03-31 07:15,-119.7326,39.1923,1431.00,33.80,32.00,93.03,0.00,0.00,0.00,29.68,M,10.00,M,OVC,M,M,M,3900.00,M,M,M,M,M,M,M,M,M,M,33.80,KCXP 310715Z AUTO 00000KT 10SM OVC039 01/M00 A2968 RMK AO2,M
LSV,2024-03-31 07:15,-115.0343,36.2362,570.00,46.40,41.00,81.34,70.00,4.00,0.00,29.70,1005.10,10.00,M,FEW,BKN,M,M,2700.00,4400.00,M,M,M,M,M,M,M,M,M,44.24,KLSV 310715Z AUTO 07004KT 10SM FEW027 BKN044 08/05 A2970 RMK AO2 SLP051 $,M
RTS,2024-03-31 07:15,-119.8764,39.6682,1539.00,32.00,32.00,100.00,280.00,5.00,0.00,29.67,M,1.00,M,OVC,M,M,M,200.00,M,M,M,-SN,M,M,M,M,M,M,26.40,KRTS 310715Z AUTO 28005KT 1SM -SN OVC002 00/00 A2967 RMK AO2,M
MEV,2024-03-31 07:15,-119.7500,38.9963,1441.42,32.00,30.20,92.97,130.00,3.00,0.00,29.66,M,10.00,M,SCT,OVC,M,M,6000.00,7000.00,M,M,M,M,M,M,M,M,M,28.69,KMEV 310715Z AUTO 13003KT 10SM SCT060 OVC070 00/M01 A2966 RMK AO2,M
HTH,2024-03-31 07:15,-118.6315,38.5448,1282.89,35.60,33.80,93.08,160.00,5.00,0.00,29.66,M,10.00,M,BKN,BKN,BKN,M,7500.00,8500.00,10000.00,M,M,M,M,M,M,M,M,30.67,KHTH 310715Z AUTO 16005KT 10SM BKN075 BKN085 BKN100 02/01 A2966 RMK A01,M
10U,2024-03-31 07:15,-116.1876,41.9532,1637.00,37.40,33.80,86.69,20.00,9.00,0.00,29.64,M,8.00,15.00,BKN,BKN,OVC,M,700.00,1600.00,2700.00,M,-RA,M,M,M,M,M,M,30.23,K10U 310715Z AUTO 02009G15KT 350V050 8SM -RA BKN007 BKN016 OVC027 03/01 A2964 RMK AO2,M
BAM,2024-03-31 07:15,-116.8743,40.5990,1382.36,41.00,37.40,86.89,230.00,10.00,0.00,29.61,M,7.00,M,SCT,BKN,OVC,M,2700.00,3300.00,4600.00,M,M,M,M,M,M,M,M,34.25,KBAM 310715Z AUTO 23010KT 7SM SCT027 BKN033 OVC046 05/03 A2961 RMK AO1,M
TMT,2024-03-31 07:15,-117.1971,39.4643,1749.34,24.80,24.30,97.94,220.00,7.00,0.00,29.64,M,10.00,M,CLR,M,M,M,M,M,M,M,M,M,M,M,M,M,M,16.00,KTMT 310715Z AUTO 22007KT 10SM CLR M04/M04 A2964 RMK AO2 T10401043,M
INS,2024-03-31 07:20,-115.6733,36.5872,955.00,41.00,37.40,86.89,270.00,5.00,0.00,29.72,1005.30,10.00,M,FEW,BKN,M,M,1500.00,2600.00,M,M,M,M,M,M,M,M,M,37.08,KINS 310720Z AUTO 27005KT 10SM FEW015 BKN026 05/03 A2972 RMK AO2 BKN V SCT SLP053 $,M
LOL,2024-03-31 07:29,-118.5701,40.0684,1192.43,34.00,34.00,100.00,180.00,4.00,0.02,29.63,M,10.00,M,BKN,OVC,M,M,1000.00,2700.00,M,M,-RA,M,M,M,M,M,M,29.76,KLOL 310729Z AUTO 18004KT 10SM -RA BKN010 OVC027 01/01 A2963 RMK AO2 P0002 T00110011,M
05U,2024-03-31 07:30,-116.0051,39.6042,1811.23,33.80,32.00,93.03,20.00,3.00,0.00,29.64,M,4.00,M,SCT,BKN,OVC,M,300.00,3100.00,3600.00,M,BR,M,M,M,M,M,M,30.75,K05U 310730Z AUTO 02003KT 4SM BR SCT003 BKN031 OVC036 01/M00 A2964 RMK A01,M
RNO,2024-03-31 07:34,-119.7711,39.4839,1341.00,33.00,32.00,96.06,0.00,0.00,0.05,29.67,M,1.50,M,OVC,M,M,M,1300.00,M,M,M,-SN BR,M,M,M,M,M,M,33.00,KRNO 310734Z 00000KT 1 1/2SM -SN BR OVC013 01/00 A2967 RMK AO2 SFC VIS 2 P0005 T00060000 $,M
BVU,2024-03-31 07:35,-114.8611,35.9475,671.00,44.60,41.00,87.09,130.00,6.00,0.00,29.74,M,10.00,M,OVC,M,M,M,2700.00,M,M,M,M,M,M,M,M,M,M,40.71,KBVU 310735Z AUTO 13006KT 10SM OVC027 07/05 A2974 RMK AO2,M
CXP,2024-03-31 07:35,-119.7326,39.1923,1431.00,33.80,32.00,93.03,0.00,0.00,0.00,29.68,M,10.00,M,OVC,M,M,M,3700.00,M,M,M,M,M,M,M,M,M,M,33.80,KCXP 310735Z AUTO 00000KT 10SM OVC037 01/M00 A2968 RMK AO2,M
RTS,2024-03-31 07:35,-119.8764,39.6682,1539.00,32.00,32.00,100.00,310.00,3.00,0.00,29.66,M,1.75,M,OVC,M,M,M,200.00,M,M,M,-SN,M,M,M,M,M,M,28.69,KRTS 310735Z AUTO 31003KT 1 3/4SM -SN OVC002 00/00 A2966 RMK AO2,M
MEV,2024-03-31 07:35,-119.7500,38.9963,1441.42,32.00,30.20,92.97,0.00,0.00,0.00,29.67,M,10.00,M,BKN,BKN,OVC,M,5000.00,6500.00,7000.00,M,M,M,M,M,M,M,M,32.00,KMEV 310735Z AUTO 00000KT 10SM BKN050 BKN065 OVC070 00/M01 A2967 RMK AO2,M
HTH,2024-03-31 07:35,-118.6315,38.5448,1282.89,35.60,33.80,93.08,260.00,4.00,0.00,29.67,M,10.00,M,OVC,M,M,M,8000.00,M,M,M,M,M,M,M,M,M,M,31.62,KHTH 310735Z AUTO 26004KT 10SM OVC080 02/01 A2967 RMK A01,M
10U,2024-03-31 07:35,-116.1876,41.9532,1637.00,37.40,33.80,86.69,40.00,8.00,0.00,29.64,M,10.00,M,FEW,FEW,OVC,M,700.00,1400.00,3100.00,M,M,M,M,M,M,M,M,30.76,K10U 310735Z AUTO 04008KT 10SM FEW007 FEW014 OVC031 03/01 A2964 RMK AO2,M
BAM,2024-03-31 07:35,-116.8743,40.5990,1382.36,39.20,35.60,86.79,240.00,10.00,0.00,29.61,M,10.00,M,SCT,BKN,OVC,M,2500.00,3800.00,4600.00,M,M,M,M,M,M,M,M,32.00,KBAM 310735Z AUTO 24010KT 10SM SCT025 BKN038 OVC046 04/02 A2961 RMK AO1,M
TMT,2024-03-31 07:35,-117.1971,39.4643,1749.34,23.50,22.30,95.08,160.00,5.00,0.00,29.64,M,10.00,M,CLR,M,M,M,M,M,M,M,M,M,M,M,M,M,M,16.30,KTMT 310735Z AUTO 16005KT 10SM CLR M05/M05 A2964 RMK AO2 T10471054,M
LOL,2024-03-31 07:38,-118.5701,40.0684,1192.43,34.00,33.00,96.08,170.00,5.00,0.02,29.64,M,10.00,M,BKN,OVC,M,M,900.00,2700.00,M,M,-RA,M,M,M,M,M,M,28.77,KLOL 310738Z AUTO 17005KT 10SM -RA BKN009 OVC027 01/01 A2964 RMK AO2 P0002 T00110006,M
NFL,2024-03-31 07:43,-118.7010,39.4166,1199.00,36.00,34.00,92.35,200.00,7.00,T,29.65,M,8.00,M,FEW,OVC,M,M,900.00,1500.00,M,M,UP,M,M,M,M,M,M,29.65,KNFL 310743Z AUTO 20007KT 8SM UP FEW009 OVC015 02/01 A2965 RMK AO2 UPE01B22RAB34E42SNB01E22 P0000 T00220011,M
INS,2024-03-31 07:45,-115.6733,36.5872,955.00,41.00,37.40,86.89,0.00,0.00,0.00,29.72,1005.30,10.00,M,FEW,BKN,M,M,1300.00,3100.00,M,M,M,M,M,M,M,M,M,41.00,KINS 310745Z AUTO 00000KT 10SM FEW013 BKN031 05/03 A2972 RMK AO2 SLP053 $,M
05U,2024-03-31 07:50,-116.0051,39.6042,1811.23,33.80,32.00,93.03,0.00,0.00,0.00,29.64,M,8.00,M,FEW,BKN,OVC,M,2500.00,3200.00,4400.00,M,M,M,M,M,M,M,M,33.80,K05U 310750Z AUTO 00000KT 8SM FEW025 BKN032 OVC044 01/00 A2964 RMK A01,M
P68,2024-03-31 07:53,-116.0056,39.6014,1993.00,33.00,31.00,92.25,140.00,4.00,0.01,29.61,1001.20,M,M,M,M,M,M,M,M,M,M,M,M,M,M,M,M,M,28.59,KP68 310753Z AUTO 14004KT 01/M01 A2961 RMK AO1 SLP012 P0001 T00061006 400610006,M
DRA,2024-03-31 07:53,-116.0278,36.6206,1009.00,40.00,37.00,88.92,0.00,0.00,0.00,29.71,1005.10,10.00,M,OVC,M,M,M,5000.00,M,M,M,M,M,M,M,M,M,M,40.00,KDRA 310753Z AUTO 00000KT 10SM OVC050 04/03 A2971 RMK AO2 SLP051 T00440028 401170033,M
ELY,2024-03-31 07:53,-114.8453,39.2950,1909.00,32.00,28.00,84.98,160.00,5.00,0.00,29.62,1001.70,10.00,M,FEW,BKN,OVC,M,2100.00,3600.00,7500.00,M,M,M,M,M,M,M,M,26.40,KELY 310753Z AUTO 16005KT 10SM FEW021 BKN036 OVC075 00/M02 A2962 RMK AO2 SLP017 T00001022 400500000,M
VGT,2024-03-31 07:53,-115.1933,36.2111,667.00,45.00,41.00,85.77,90.00,4.00,0.00,29.73,1008.40,10.00,M,FEW,M,M,M,2200.00,M,M,M,M,M,M,M,M,M,M,42.60,KVGT 310753Z AUTO 09004KT 10SM FEW022 07/05 A2973 RMK AO2 SLP084 T00720050 401670072,M
LOL,2024-03-31 07:53,-118.5701,40.0684,1192.43,33.00,33.00,100.00,160.00,4.00,0.02,29.63,1004.10,10.00,M,FEW,OVC,M,M,500.00,800.00,M,M,-SN,M,M,M,M,M,M,28.59,KLOL 310753Z AUTO 16004KT 10SM -SN FEW005 OVC008 01/01 A2963 RMK AO2 RAE46SNB46 SLP041 P0002 T00060006 400720006,M
BVU,2024-03-31 07:55,-114.8611,35.9475,671.00,44.60,41.00,87.09,140.00,8.00,0.00,29.75,M,10.00,M,OVC,M,M,M,2800.00,M,M,M,M,M,M,M,M,M,M,39.63,KBVU 310755Z AUTO 14008KT 10SM OVC028 07/05 A2975 RMK AO2,M
CXP,2024-03-31 07:55,-119.7326,39.1923,1431.00,33.80,32.00,93.03,0.00,0.00,0.00,29.68,M,10.00,M,OVC,M,M,M,3600.00,M,M,M,M,M,M,M,M,M,M,33.80,KCXP 310755Z AUTO 00000KT 10SM OVC036 01/00 A2968 RMK AO2,M
INS,2024-03-31 07:55,-115.6733,36.5872,955.00,41.50,38.00,87.26,360.00,3.00,0.00,29.72,1005.30,10.00,M,FEW,SCT,M,M,1200.00,3100.00,M,M,M,M,M,M,M,M,M,39.55,KINS 310755Z AUTO 36003KT 10SM FEW012 SCT031 05/03 A2972 RMK AO2 SLP053 T00530033 401430050 $,M
RNO,2024-03-31 07:55,-119.7711,39.4839,1341.00,33.00,31.00,92.25,180.00,3.00,0.08,29.67,1004.60,1.50,M,OVC,M,M,M,1000.00,M,M,M,-SN BR,M,M,M,M,M,M,29.83,KRNO 310755Z 18003KT 1 1/2SM -SN BR OVC010 01/M01 A2967 RMK AO2 SLP046 P0008 T00061006 400720006 $,M
RTS,2024-03-31 07:55,-119.8764,39.6682,1539.00,32.00,32.00,100.00,300.00,4.00,0.01,29.66,M,1.25,M,OVC,M,M,M,200.00,M,M,M,-SN,M,M,M,M,M,M,27.42,KRTS 310755Z AUTO 30004KT 1 1/4SM -SN OVC002 00/00 A2966 RMK AO2 P0001,M
MEV,2024-03-31 07:55,-119.7500,38.9963,1441.42,32.00,32.00,100.00,0.00,0.00,0.00,29.67,M,10.00,M,BKN,OVC,M,M,4100.00,4900.00,M,M,M,M,M,M,M,M,M,32.00,KMEV 310755Z AUTO 00000KT 10SM BKN041 OVC049 00/M00 A2967 RMK AO2,M
HTH,2024-03-31 07:55,-118.6315,38.5448,1282.89,35.60,33.80,93.08,0.00,0.00,0.00,29.67,M,10.00,M,FEW,OVC,M,M,6500.00,7500.00,M,M,M,M,M,M,M,M,M,35.60,KHTH 310755Z AUTO 00000KT 10SM FEW065 OVC075 02/01 A2967 RMK A01,M
10U,2024-03-31 07:55,-116.1876,41.9532,1637.00,37.40,32.00,80.65,40.00,11.00,0.00,29.64,M,10.00,M,OVC,M,M,M,3400.00,M,M,M,M,M,M,M,M,M,M,29.29,K10U 310755Z AUTO 04011KT 10SM OVC034 03/00 A2964 RMK AO2,M
BAM,2024-03-31 07:55,-116.8743,40.5990,1382.36,39.20,35.60,86.79,260.00,9.00,0.00,29.63,M,7.00,M,BKN,OVC,M,M,2300.00,2900.00,M,M,M,M,M,M,M,M,M,32.47,KBAM 310755Z AUTO 26009KT 7SM BKN023 OVC029 04/02 A2963 RMK AO1,M
TMT,2024-03-31 07:55,-117.1971,39.4643,1749.34,19.60,18.30,94.58,0.00,0.00,0.00,29.65,M,10.00,M,SCT,M,M,M,2800.00,M,M,M,M,M,M,M,M,M,M,19.60,KTMT 310755Z AUTO 00000KT 10SM SCT028 M07/M08 A2965 RMK AO2 T10691076 400521070,M
LSV,2024-03-31 07:55,-115.0343,36.2362,570.00,47.00,41.50,81.07,110.00,4.00,0.00,29.72,1005.80,10.00,M,FEW,BKN,M,M,2500.00,3600.00,M,M,M,M,M,M,M,M,M,44.94,KLSV 310755Z AUTO 11004KT 10SM FEW025 BKN036 08/05 A2972 RMK AO2 SLP058 T00840053 401700083 $,M
EKO,2024-03-31 07:56,-115.7860,40.8242,1367.00,41.00,34.00,75.94,60.00,3.00,0.00,29.58,1000.70,10.00,M,OVC,M,M,M,3800.00,M,M,M,M,M,M,M,M,M,M,38.98,KEKO 310756Z AUTO 06003KT 10SM OVC038 05/01 A2958 RMK AO2 SLP007 T00500011 400940006,M
WMC,2024-03-31 07:56,-117.8072,40.9019,1315.00,41.00,37.00,85.54,100.00,15.00,T,29.61,1001.20,10.00,25.00,FEW,SCT,OVC,M,1400.00,2800.00,4200.00,M,-RA,M,M,M,M,M,M,32.45,KWMC 310756Z AUTO 10015G25KT 10SM -RA FEW014 SCT028 OVC042 05/03 A2961 RMK AO2 RAE08B55 SLP012 P0000 T00500028 401221006,M
NFL,2024-03-31 07:56,-118.7010,39.4166,1199.00,36.00,34.00,92.35,220.00,9.00,T,29.64,1002.20,7.00,M,FEW,OVC,M,M,900.00,1600.00,M,M,UP,M,M,M,M,M,M,28.49,KNFL 310756Z AUTO 22009KT 7SM UP FEW009 OVC016 02/01 A2964 RMK AO2 UPE01B22RAB34E42SNB01E22 SLP022 P0000 T00220011 400890006,M
HND,2024-03-31 07:56,-115.1344,35.9729,742.79,43.00,38.00,82.37,170.00,10.00,0.00,29.75,1008.90,10.00,M,CLR,M,M,M,M,M,M,M,M,M,M,M,M,M,M,36.76,KHND 310756Z AUTO 17010KT 10SM CLR 06/03 A2975 RMK AO2 SLP089 T00610033,M
TPH,2024-03-31 07:56,-117.0904,38.0505,1654.00,33.00,29.00,85.04,130.00,4.00,0.00,29.68,1005.10,10.00,M,OVC,M,M,M,1100.00,M,M,M,M,M,M,M,M,M,M,28.59,KTPH 310756Z AUTO 13004KT 10SM OVC011 01/M02 A2968 RMK AO2 SLP051 T00061017 400560006,M
LAS,2024-03-31 07:56,-115.1634,36.0719,663.00,44.00,39.00,82.44,160.00,5.00,0.00,29.74,1006.40,10.00,M,FEW,FEW,M,M,4500.00,10000.00,M,M,M,M,M,M,M,M,M,40.65,KLAS 310756Z 16005KT 10SM FEW045 FEW100 07/04 A2974 RMK AO2 SLP064 T00670039 401560067,M
WMC,2024-03-31 08:01,-117.8072,40.9019,1315.00,40.00,35.00,82.15,M,6.00,T,29.61,M,10.00,25.00,SCT,BKN,OVC,M,1100.00,2700.00,4200.00,M,-RA,M,M,M,M,M,M,35.17,KWMC 310801Z AUTO VRB06G25KT 10SM -RA SCT011 BKN027 OVC042 04/02 A2961 RMK AO2 WSHFT 0743 P0000 T00440017,M
LOL,2024-03-31 08:04,-118.5701,40.0684,1192.43,33.00,33.00,100.00,150.00,6.00,T,29.64,M,10.00,M,FEW,BKN,OVC,M,500.00,1000.00,7000.00,M,M,M,M,M,M,M,M,26.73,KLOL 310804Z AUTO 15006KT 10SM FEW005 BKN010 OVC070 01/01 A2964 RMK AO2 RAB0755E02SNE0755 P0000 T00060006,M
RNO,2024-03-31 08:06,-119.7711,39.4839,1341.00,33.00,31.00,92.25,180.00,3.00,0.01,29.67,M,1.00,M,VV ,M,M,M,1100.00,M,M,M,-SN BR,M,M,M,M,M,M,29.83,KRNO 310806Z 18003KT 1SM R17R/P6000FT -SN BR VV011 01/M01 A2967 RMK AO2 P0001 T00061006 $,M
ELY,2024-03-31 08:08,-114.8453,39.2950,1909.00,32.00,29.00,88.53,190.00,5.00,0.00,29.62,M,10.00,M,BKN,BKN,OVC,M,2100.00,3500.00,6500.00,M,M,M,M,M,M,M,M,26.40,KELY 310808Z AUTO 19005KT 10SM BKN021 BKN035 OVC065 00/M02 A2962 RMK AO2 T00001017,M
05U,2024-03-31 08:10,-116.0051,39.6042,1811.23,33.80,32.00,93.03,50.00,5.00,0.00,29.64,M,5.00,M,FEW,SCT,BKN,M,500.00,1900.00,2400.00,M,BR,M,M,M,M,M,M,28.53,K05U 310810Z AUTO 05005KT 5SM BR FEW005 SCT019 BKN024 01/M00 A2964 RMK A01,M
BVU,2024-03-31 08:15,-114.8611,35.9475,671.00,46.40,41.00,81.34,160.00,7.00,0.00,29.74,M,10.00,M,BKN,M,M,M,3000.00,M,M,M,M,M,M,M,M,M,M,42.33,KBVU 310815Z AUTO 16007KT 10SM BKN030 08/05 A2974 RMK AO2,M
CXP,2024-03-31 08:15,-119.7326,39.1923,1431.00,33.80,32.00,93.03,0.00,0.00,0.00,29.68,M,10.00,M,OVC,M,M,M,3600.00,M,M,M,M,M,M,M,M,M,M,33.80,KCXP 310815Z AUTO 00000KT 10SM OVC036 01/M00 A2968 RMK AO2,M
ELY,2024-03-31 08:15,-114.8453,39.2950,1909.00,32.00,28.00,84.98,200.00,6.00,0.00,29.63,M,10.00,M,SCT,BKN,OVC,M,2000.00,4500.00,7000.00,M,M,M,M,M,M,M,M,25.53,KELY 310815Z AUTO 20006KT 10SM SCT020 BKN045 OVC070 00/M02 A2963 RMK AO2 T00001022,M
NFL,2024-03-31 08:15,-118.7010,39.4166,1199.00,35.00,33.00,92.32,220.00,9.00,T,29.65,M,7.00,M,FEW,OVC,M,M,900.00,1400.00,M,M,UP,M,M,M,M,M,M,27.24,KNFL 310815Z AUTO 22009KT 7SM UP FEW009 OVC014 02/01 A2965 RMK AO2 P0000 T00170006,M
RTS,2024-03-31 08:15,-119.8764,39.6682,1539.00,32.00,32.00,100.00,290.00,3.00,0.00,29.66,M,1.25,M,OVC,M,M,M,200.00,M,M,M,-SN,M,M,M,M,M,M,28.69,KRTS 310815Z AUTO 29003KT 1 1/4SM -SN OVC002 00/00 A2966 RMK AO2,M
MEV,2024-03-31 08:15,-119.7500,38.9963,1441.42,33.80,30.20,86.49,60.00,4.00,0.00,29.67,M,10.00,M,BKN,OVC,M,M,3800.00,4600.00,M,M,M,M,M,M,M,M,M,29.52,KMEV 310815Z AUTO 06004KT 10SM BKN038 OVC046 01/M01 A2967 RMK AO2,M
HTH,2024-03-31 08:15,-118.6315,38.5448,1282.89,35.60,33.80,93.08,0.00,0.00,0.00,29.67,M,10.00,M,SCT,OVC,M,M,6500.00,7500.00,M,M,M,M,M,M,M,M,M,35.60,KHTH 310815Z AUTO 00000KT 10SM SCT065 OVC075 02/01 A2967 RMK A01,M
10U,2024-03-31 08:15,-116.1876,41.9532,1637.00,37.40,30.20,74.98,30.00,11.00,0.00,29.63,M,10.00,16.00,BKN,BKN,OVC,M,3800.00,4500.00,6500.00,M,M,M,M,M,M,M,M,29.29,K10U 310815Z AUTO 03011G16KT 10SM BKN038 BKN045 OVC065 03/M01 A2963 RMK AO2,M
BAM,2024-03-31 08:15,-116.8743,40.5990,1382.36,39.20,35.60,86.79,260.00,10.00,0.00,29.62,M,10.00,M,BKN,OVC,M,M,2100.00,3000.00,M,M,M,M,M,M,M,M,M,32.00,KBAM 310815Z AUTO 26010KT 10SM BKN021 OVC030 04/02 A2962 RMK AO1,M
TMT,2024-03-31 08:15,-117.1971,39.4643,1749.34,23.00,22.00,95.88,130.00,3.00,0.00,29.65,M,10.00,M,SCT,OVC,M,M,3000.00,3900.00,M,M,M,M,M,M,M,M,M,18.40,KTMT 310815Z AUTO 13003KT 10SM SCT030 OVC039 M05/M06 A2965 RMK AO2 T10491056,M
VGT,2024-03-31 08:24,-115.1933,36.2111,667.00,45.00,40.00,82.51,90.00,3.00,0.00,29.74,M,10.00,M,BKN,M,M,M,2000.00,M,M,M,M,M,M,M,M,M,M,43.55,KVGT 310824Z AUTO 09003KT 10SM BKN020 07/04 A2974 RMK AO2 T00720044,M
RNO,2024-03-31 08:29,-119.7711,39.4839,1341.00,33.00,31.00,92.25,0.00,0.00,0.04,29.67,M,1.00,M,FEW,SCT,OVC,M,800.00,1300.00,1700.00,M,-SN BR,M,M,M,M,M,M,33.00,KRNO 310829Z 00000KT 1SM R17R/P6000FT -SN BR FEW008 SCT013 OVC017 01/M01 A2967 RMK AO2 P0004 T00061006 $,M
05U,2024-03-31 08:30,-116.0051,39.6042,1811.23,33.80,32.00,93.03,40.00,3.00,0.00,29.64,M,1.00,M,OVC,M,M,M,300.00,M,M,M,BR,M,M,M,M,M,M,30.75,K05U 310830Z AUTO 04003KT 1SM BR OVC003 01/M00 A2964 RMK A01,M
RNO,2024-03-31 08:33,-119.7711,39.4839,1341.00,33.00,31.00,92.25,0.00,0.00,0.05,29.66,M,1.75,M,FEW,BKN,OVC,M,600.00,1300.00,1700.00,M,-SN BR,M,M,M,M,M,M,33.00,KRNO 310833Z 00000KT 1 3/4SM -SN BR FEW006 BKN013 OVC017 01/M01 A2966 RMK AO2 P0005 T00061006 $,M
BVU,2024-03-31 08:35,-114.8611,35.9475,671.00,44.60,41.00,87.09,0.00,0.00,0.00,29.73,M,10.00,M,FEW,M,M,M,2900.00,M,M,M,M,M,M,M,M,M,M,44.60,KBVU 310835Z AUTO 00000KT 10SM FEW029 07/05 A2973 RMK AO2,M
CXP,2024-03-31 08:35,-119.7326,39.1923,1431.00,33.80,32.00,93.03,0.00,0.00,0.00,29.68,M,10.00,M,BKN,BKN,OVC,M,3900.00,5500.00,7500.00,M,M,M,M,M,M,M,M,33.80,KCXP 310835Z AUTO 00000KT 10SM BKN039 BKN055 OVC075 01/M00 A2968 RMK AO2,M
10U,2024-03-31 08:35,-116.1876,41.9532,1637.00,37.40,32.00,80.65,30.00,11.00,0.00,29.63,M,10.00,M,BKN,OVC,M,M,3900.00,4600.00,M,M,M,M,M,M,M,M,M,29.29,K10U 310835Z AUTO 03011KT 10SM BKN039 OVC046 03/M00 A2963 RMK AO2,M
RTS,2024-03-31 08:35,-119.8764,39.6682,1539.00,32.00,32.00,100.00,270.00,8.00,0.00,29.66,M,2.00,M,BKN,M,M,M,200.00,M,M,M,-SN,M,M,M,M,M,M,24.11,KRTS 310835Z AUTO 27008KT 2SM -SN BKN002 00/00 A2966 RMK AO2,M
MEV,2024-03-31 08:35,-119.7500,38.9963,1441.42,33.80,28.40,80.36,120.00,4.00,0.00,29.67,M,10.00,M,BKN,OVC,M,M,3800.00,4600.00,M,M,M,M,M,M,M,M,M,29.52,KMEV 310835Z AUTO 12004KT 10SM BKN038 OVC046 01/M02 A2967 RMK AO2,M
HTH,2024-03-31 08:35,-118.6315,38.5448,1282.89,35.60,33.80,93.08,0.00,0.00,0.00,29.67,M,10.00,M,FEW,OVC,M,M,6000.00,7500.00,M,M,M,M,M,M,M,M,M,35.60,KHTH 310835Z AUTO 00000KT 10SM FEW060 OVC075 02/01 A2967 RMK A01,M
BAM,2024-03-31 08:35,-116.8743,40.5990,1382.36,37.40,35.60,93.14,250.00,11.00,0.00,29.61,M,10.00,M,OVC,M,M,M,2400.00,M,M,M,M,M,M,M,M,M,M,29.29,KBAM 310835Z AUTO 25011KT 10SM OVC024 03/02 A2961 RMK AO1,M
TMT,2024-03-31 08:35,-117.1971,39.4643,1749.34,25.50,24.00,93.94,0.00,0.00,0.00,29.64,M,10.00,M,OVC,M,M,M,4100.00,M,M,M,M,M,M,M,M,M,M,25.50,KTMT 310835Z AUTO 00000KT 10SM OVC041 M04/M04 A2964 RMK AO2 T10361045,M
LSV,2024-03-31 08:45,-115.0343,36.2362,570.00,46.40,41.00,81.34,120.00,4.00,0.00,29.72,1005.90,10.00,M,FEW,BKN,M,M,2100.00,2800.00,M,M,M,M,M,M,M,M,M,44.24,KLSV 310845Z AUTO 12004KT 10SM FEW021 BKN028 08/05 A2972 RMK AO2 SLP059 $,M
LOL,2024-03-31 08:49,-118.5701,40.0684,1192.43,33.80,33.80,100.00,150.00,7.00,T,29.64,M,5.00,M,OVC,M,M,M,900.00,M,M,M,-SN BR,M,M,M,M,M,M,26.97,KLOL 310849Z AUTO 15007KT 5SM -SN BR OVC009 01/01 A2964 RMK AO2 RAB0755E02UPB37E39SNE0755B39 P0000,M
05U,2024-03-31 08:50,-116.0051,39.6042,1811.23,32.00,30.20,92.97,0.00,0.00,0.00,29.64,M,9.00,M,FEW,BKN,OVC,M,300.00,3700.00,6000.00,M,M,M,M,M,M,M,M,32.00,K05U 310850Z AUTO 00000KT 9SM FEW003 BKN037 OVC060 M00/M01 A2964 RMK A01,M
VGT,2024-03-31 08:53,-115.1933,36.2111,667.00,45.00,41.00,85.77,70.00,4.00,0.00,29.73,1008.50,10.00,M,OVC,M,M,M,2300.00,M,M,M,M,M,M,M,M,M,M,42.60,KVGT 310853Z AUTO 07004KT 10SM OVC023 07/05 A2973 RMK AO2 SLP085 T00720050 53002,M
LOL,2024-03-31 08:53,-118.5701,40.0684,1192.43,33.00,33.00,100.00,160.00,7.00,T,29.64,1004.40,5.00,M,OVC,M,M,M,900.00,M,M,M,-SN BR,M,M,M,M,M,M,26.00,KLOL 310853Z AUTO 16007KT 5SM -SN BR OVC009 01/01 A2964 RMK AO2 RAB0755E02UPB37E39SNE0755B39 SLP044 P0000 60008 T00060006 51003,M
P68,2024-03-31 08:53,-116.0056,39.6014,1993.00,30.00,29.00,96.00,260.00,4.00,0.01,29.62,1001.00,M,M,M,M,M,M,M,M,M,M,M,M,M,M,M,M,M,25.08,KP68 310853Z AUTO 26004KT M01/M02 A2962 RMK AO1 SLP010 P0001 60002 T10111017 51004,M
DRA,2024-03-31 08:53,-116.0278,36.6206,1009.00,39.00,37.00,92.45,0.00,0.00,0.00,29.72,1005.40,10.00,M,OVC,M,M,M,5500.00,M,M,M,M,M,M,M,M,M,M,39.00,KDRA 310853Z AUTO 00000KT 10SM OVC055 04/03 A2972 RMK AO2 SLP054 T00390028 51006,M
ELY,2024-03-31 08:53,-114.8453,39.2950,1909.00,33.00,28.00,81.63,180.00,8.00,T,29.61,1000.90,5.00,M,OVC,M,M,M,4100.00,M,M,M,-SN,M,M,M,M,M,M,25.34,KELY 310853Z AUTO 18008KT 5SM -SN OVC041 01/M02 A2961 RMK AO2 SNB30 SLP009 P0000 60000 T00061022 56007,M
RNO,2024-03-31 08:55,-119.7711,39.4839,1341.00,33.00,31.00,92.25,80.00,3.00,0.05,29.66,1003.90,2.00,M,SCT,BKN,OVC,M,1300.00,2800.00,4100.00,M,-SN BR,M,M,M,M,M,M,29.83,KRNO 310855Z 08003KT 2SM -SN BR SCT013 BKN028 OVC041 01/M01 A2966 RMK AO2 SLP039 P0005 60015 T00061006 58001 $,M
BVU,2024-03-31 08:55,-114.8611,35.9475,671.00,44.60,39.20,81.20,0.00,0.00,0.00,29.73,M,10.00,M,CLR,M,M,M,M,M,M,M,M,M,M,M,M,M,M,44.60,KBVU 310855Z AUTO 00000KT 10SM CLR 07/04 A2973 RMK AO2,M
CXP,2024-03-31 08:55,-119.7326,39.1923,1431.00,33.80,32.00,93.03,0.00,0.00,0.00,29.67,M,10.00,M,FEW,OVC,M,M,4100.00,5500.00,M,M,M,M,M,M,M,M,M,33.80,KCXP 310855Z AUTO 00000KT 10SM FEW041 OVC055 01/M00 A2967 RMK AO2,M
INS,2024-03-31 08:55,-115.6733,36.5872,955.00,41.40,38.00,87.60,0.00,0.00,0.00,29.73,1005.60,10.00,M,OVC,M,M,M,5500.00,M,M,M,M,M,M,M,M,M,M,41.40,KINS 310855Z AUTO 00000KT 10SM OVC055 05/03 A2973 RMK AO2 SLP056 T00520034 52012 $,M
RTS,2024-03-31 08:55,-119.8764,39.6682,1539.00,32.00,32.00,100.00,270.00,13.00,0.01,29.66,M,1.50,M,OVC,M,M,M,200.00,M,M,M,-SN,M,M,M,M,M,M,21.57,KRTS 310855Z AUTO 27013KT 1 1/2SM -SN OVC002 00/00 A2966 RMK AO2 P0001,M
MEV,2024-03-31 08:55,-119.7500,38.9963,1441.42,33.80,28.40,80.36,130.00,6.00,0.00,29.67,M,10.00,M,FEW,SCT,OVC,M,3700.00,4800.00,5500.00,M,M,M,M,M,M,M,M,27.70,KMEV 310855Z AUTO 13006KT 10SM FEW037 SCT048 OVC055 01/M02 A2967 RMK AO2,M
HTH,2024-03-31 08:55,-118.6315,38.5448,1282.89,35.60,35.60,100.00,140.00,3.00,0.00,29.67,M,10.00,M,SCT,OVC,M,M,6000.00,7000.00,M,M,M,M,M,M,M,M,M,32.80,KHTH 310855Z AUTO 14003KT 10SM SCT060 OVC070 02/02 A2967 RMK A01,M
10U,2024-03-31 08:55,-116.1876,41.9532,1637.00,37.40,30.20,74.98,20.00,6.00,0.00,29.62,M,10.00,12.00,OVC,M,M,M,4000.00,M,M,M,M,M,M,M,M,M,M,32.03,K10U 310855Z AUTO 02006G12KT 10SM OVC040 03/M01 A2962 RMK AO2,M
BAM,2024-03-31 08:55,-116.8743,40.5990,1382.36,37.40,35.60,93.14,240.00,13.00,0.00,29.61,M,10.00,19.00,SCT,BKN,OVC,M,3000.00,3700.00,7000.00,M,M,M,M,M,M,M,M,28.49,KBAM 310855Z AUTO 24013G19KT 10SM SCT030 BKN037 OVC070 03/02 A2961 RMK AO1,M
TMT,2024-03-31 08:55,-117.1971,39.4643,1749.34,24.00,22.60,94.29,0.00,0.00,0.00,29.64,M,10.00,M,OVC,M,M,M,4300.00,M,M,M,M,M,M,M,M,M,M,24.00,KTMT 310855Z AUTO 00000KT 10SM OVC043 M04/M05 A2964 RMK AO2 T10451052,M
LSV,2024-03-31 08:55,-115.0343,36.2362,570.00,46.40,40.30,79.16,0.00,0.00,0.00,29.71,1005.60,10.00,M,SCT,M,M,M,2800.00,M,M,M,M,M,M,M,M,M,M,46.40,KLSV 310855Z AUTO 00000KT 10SM SCT028 08/05 A2971 RMK AO2 SLP056 T00800046 55001 $,M
WMC,2024-03-31 08:56,-117.8072,40.9019,1315.00,37.00,34.00,88.78,160.00,12.00,0.03,29.62,1002.00,9.00,18.00,OVC,M,M,M,1600.00,M,M,M,-RA,M,M,M,M,M,M,28.37,KWMC 310856Z AUTO 16012G18KT 9SM -RA OVC016 03/01 A2962 RMK AO2 WSHFT 0743 SLP020 P0003 60003 T00280011 53009,M
NFL,2024-03-31 08:56,-118.7010,39.4166,1199.00,34.00,33.00,96.08,190.00,7.00,T,29.66,1002.60,5.00,M,OVC,M,M,M,1000.00,M,M,M,-SN BR,M,M,M,M,M,M,27.22,KNFL 310856Z AUTO 19007KT 5SM -SN BR OVC010 01/01 A2966 RMK AO2 UPE37SNB46 SLP026 P0000 60000 T00110006 51008,M
EKO,2024-03-31 08:56,-115.7860,40.8242,1367.00,40.00,35.00,82.15,150.00,3.00,0.00,29.58,1000.30,10.00,M,OVC,M,M,M,3300.00,M,M,M,M,M,M,M,M,M,M,37.83,KEKO 310856Z AUTO 15003KT 10SM OVC033 04/02 A2958 RMK AO2 SLP003 T00440017 56007,M
HND,2024-03-31 08:56,-115.1344,35.9729,742.79,41.00,37.00,85.54,170.00,5.00,0.00,29.75,1009.20,10.00,M,CLR,M,M,M,M,M,M,M,M,M,M,M,M,M,M,37.08,KHND 310856Z AUTO 17005KT 10SM CLR 05/03 A2975 RMK AO2 SLP092 T00500028 53003,M
TPH,2024-03-31 08:56,-117.0904,38.0505,1654.00,33.00,29.00,85.04,150.00,6.00,0.00,29.68,1004.70,10.00,M,OVC,M,M,M,1600.00,M,M,M,M,M,M,M,M,M,M,26.73,KTPH 310856Z AUTO 15006KT 10SM OVC016 01/M02 A2968 RMK AO2 SLP047 T00061017 52004,M
LAS,2024-03-31 08:56,-115.1634,36.0719,663.00,43.00,38.00,82.37,240.00,5.00,0.00,29.73,1006.40,10.00,M,FEW,FEW,M,M,4500.00,10000.00,M,M,M,M,M,M,M,M,M,39.46,KLAS 310856Z 24005KT 10SM FEW045 FEW100 06/03 A2973 RMK AO2 SLP064 T00610033 53001,M
RNO,2024-03-31 09:02,-119.7711,39.4839,1341.00,33.00,32.00,96.06,0.00,0.00,T,29.67,M,2.00,M,SCT,BKN,OVC,M,1300.00,3800.00,5000.00,M,-SN BR,M,M,M,M,M,M,33.00,KRNO 310902Z 00000KT 2SM -SN BR SCT013 BKN038 OVC050 01/00 A2967 RMK AO2 P0000 T00060000 $,M
05U,2024-03-31 09:10,-116.0051,39.6042,1811.23,30.20,30.20,100.00,340.00,3.00,0.00,29.64,M,10.00,M,SCT,BKN,BKN,M,1600.00,5000.00,6000.00,M,M,M,M,M,M,M,M,26.63,K05U 310910Z AUTO 34003KT 10SM SCT016 BKN050 BKN060 M01/M01 A2964 RMK A01,M
RTS,2024-03-31 09:15,-119.8764,39.6682,1539.00,32.00,32.00,100.00,300.00,9.00,0.00,29.66,M,2.50,M,BKN,BKN,BKN,M,200.00,1300.00,2300.00,M,-SN,M,M,M,M,M,M,23.51,KRTS 310915Z AUTO 30009KT 2 1/2SM -SN BKN002 BKN013 BKN023 00/00 A2966 RMK AO2,M
MEV,2024-03-31 09:15,-119.7500,38.9963,1441.42,33.80,28.40,80.36,110.00,4.00,0.00,29.66,M,10.00,M,BKN,OVC,M,M,5000.00,6000.00,M,M,M,M,M,M,M,M,M,29.52,KMEV 310915Z AUTO 11004KT 10SM BKN050 OVC060 01/M02 A2966 RMK AO2,M
HTH,2024-03-31 09:15,-118.6315,38.5448,1282.89,35.60,33.80,93.08,0.00,0.00,0.00,29.67,M,10.00,M,OVC,M,M,M,6500.00,M,M,M,M,M,M,M,M,M,M,35.60,KHTH 310915Z AUTO 00000KT 10SM OVC065 02/01 A2967 RMK A01,M
10U,2024-03-31 09:15,-116.1876,41.9532,1637.00,37.40,30.20,74.98,20.00,7.00,0.00,29.61,M,10.00,M,OVC,M,M,M,4000.00,M,M,M,M,M,M,M,M,M,M,31.36,K10U 310915Z AUTO 02007KT 10SM OVC040 03/M01 A2961 RMK AO2,M
BVU,2024-03-31 09:15,-114.8611,35.9475,671.00,42.80,39.20,86.99,0.00,0.00,0.00,29.73,M,10.00,M,CLR,M,M,M,M,M,M,M,M,M,M,M,M,M,M,42.80,KBVU 310915Z AUTO 00000KT 10SM CLR 06/04 A2973 RMK AO2,M
CXP,2024-03-31 09:15,-119.7326,39.1923,1431.00,35.60,30.20,80.51,0.00,0.00,0.00,29.67,M,10.00,M,BKN,OVC,M,M,5000.00,5500.00,M,M,M,M,M,M,M,M,M,35.60,KCXP 310915Z AUTO 00000KT 10SM BKN050 OVC055 02/M01 A2967 RMK AO2,M
BAM,2024-03-31 09:15,-116.8743,40.5990,1382.36,37.40,35.60,93.14,250.00,12.00,0.00,29.61,M,10.00,M,SCT,BKN,OVC,M,3400.00,4600.00,7000.00,M,M,M,M,M,M,M,M,28.87,KBAM 310915Z AUTO 25012KT 10SM SCT034 BKN046 OVC070 03/02 A2961 RMK AO1,M
TMT,2024-03-31 09:15,-117.1971,39.4643,1749.34,27.50,25.50,92.06,0.00,0.00,0.00,29.64,M,10.00,M,OVC,M,M,M,4300.00,M,M,M,M,M,M,M,M,M,M,27.50,KTMT 310915Z AUTO 00000KT 10SM OVC043 M02/M04 A2964 RMK AO2 T10251036,M
ELY,2024-03-31 09:23,-114.8453,39.2950,1909.00,32.00,28.00,84.98,230.00,6.00,T,29.60,M,9.00,M,BKN,BKN,OVC,M,2200.00,2900.00,4200.00,M,M,M,M,M,M,M,M,25.53,KELY 310923Z AUTO 23006KT 9SM BKN022 BKN029 OVC042 00/M02 A2960 RMK AO2 SNE20 P0000 T00001022,M
RNO,2024-03-31 09:23,-119.7711,39.4839,1341.00,33.00,31.00,92.25,0.00,0.00,T,29.66,M,1.00,M,FEW,SCT,OVC,M,700.00,1400.00,4200.00,M,-SN,M,M,M,M,M,M,33.00,KRNO 310923Z 00000KT 1SM R17R/P6000FT -SN FEW007 SCT014 OVC042 01/M01 A2966 RMK AO2 TWR VIS 2 UPB08E16SNE08B16 P0000 T00061006 $,M
RNO,2024-03-31 09:26,-119.7711,39.4839,1341.00,33.00,32.00,96.06,0.00,0.00,0.01,29.66,M,2.00,M,FEW,BKN,OVC,M,700.00,1800.00,3900.00,M,-SN BR,M,M,M,M,M,M,33.00,KRNO 310926Z 00000KT 2SM -SN BR FEW007 BKN018 OVC039 01/00 A2966 RMK AO2 UPB08E16SNE08B16 P0001 T00060000 $,M
VGT,2024-03-31 09:27,-115.1933,36.2111,667.00,46.00,41.00,82.58,320.00,4.00,0.00,29.73,M,10.00,M,SCT,M,M,M,2500.00,M,M,M,M,M,M,M,M,M,M,43.77,KVGT 310927Z AUTO 32004KT 10SM SCT025 08/05 A2973 RMK AO2 T00780050,M
05U,2024-03-31 09:30,-116.0051,39.6042,1811.23,30.20,28.40,92.92,30.00,3.00,0.00,29.64,M,8.00,M,FEW,BKN,BKN,M,1100.00,1600.00,6000.00,M,M,M,M,M,M,M,M,26.63,K05U 310930Z AUTO 03003KT 8SM FEW011 BKN016 BKN060 M01/M02 A2964 RMK A01,M
HTH,2024-03-31 09:30,-118.6315,38.5448,1282.89,35.60,33.80,93.08,60.00,4.00,0.00,29.67,M,10.00,M,OVC,M,M,M,7000.00,M,M,M,M,M,M,M,M,M,M,31.62,KHTH 310930Z AUTO 06004KT 10SM OVC070 02/01 A2967 RMK A01,M
LOL,2024-03-31 09:33,-118.5701,40.0684,1192.43,34.00,34.00,100.00,150.00,5.00,0.01,29.64,M,7.00,M,OVC,M,M,M,1200.00,M,M,M,-RA,M,M,M,M,M,M,28.77,KLOL 310933Z AUTO 15005KT 7SM -RA OVC012 01/01 A2964 RMK AO2 RAB08SNE08 P0001 T00110011,M
EKO,2024-03-31 09:34,-115.7860,40.8242,1367.00,38.00,35.00,88.83,190.00,5.00,0.01,29.58,M,10.00,M,SCT,OVC,M,M,1800.00,2900.00,M,M,-RA,M,M,M,M,M,M,33.52,KEKO 310934Z AUTO 19005KT 10SM -RA SCT018 OVC029 03/02 A2958 RMK AO2 RAB01 P0001 T00330017,M
TPH,2024-03-31 09:34,-117.0904,38.0505,1654.00,33.00,30.00,88.58,170.00,7.00,0.00,29.68,M,10.00,M,OVC,M,M,M,1400.00,M,M,M,M,M,M,M,M,M,M,26.00,KTPH 310934Z AUTO 17007KT 10SM OVC014 01/M01 A2968 RMK AO2 T00061011,M
MEV,2024-03-31 09:35,-119.7500,38.9963,1441.42,32.00,30.20,92.97,90.00,4.00,0.00,29.66,M,10.00,M,FEW,BKN,OVC,M,4600.00,6000.00,7000.00,M,M,M,M,M,M,M,M,27.42,KMEV 310935Z AUTO 09004KT 10SM FEW046 BKN060 OVC070 00/M01 A2966 RMK AO2,M
10U,2024-03-31 09:35,-116.1876,41.9532,1637.00,37.40,30.20,74.98,20.00,5.00,0.00,29.61,M,10.00,M,OVC,M,M,M,4100.00,M,M,M,M,M,M,M,M,M,M,32.81,K10U 310935Z AUTO 02005KT 10SM OVC041 03/M01 A2961 RMK AO2,M
BVU,2024-03-31 09:35,-114.8611,35.9475,671.00,42.80,41.00,93.30,0.00,0.00,0.00,29.73,M,10.00,M,CLR,M,M,M,M,M,M,M,M,M,M,M,M,M,M,42.80,KBVU 310935Z AUTO 00000KT 10SM CLR 06/05 A2973 RMK AO2,M
CXP,2024-03-31 09:35,-119.7326,39.1923,1431.00,33.80,30.20,86.49,0.00,0.00,0.00,29.67,M,10.00,M,BKN,OVC,M,M,5500.00,6500.00,M,M,M,M,M,M,M,M,M,33.80,KCXP 310935Z AUTO 00000KT 10SM BKN055 OVC065 01/M01 A2967 RMK AO2,M
RTS,2024-03-31 09:35,-119.8764,39.6682,1539.00,32.00,32.00,100.00,280.00,12.00,0.00,29.66,M,1.50,M,OVC,M,M,M,300.00,M,M,M,-SN,M,M,M,M,M,M,22.00,KRTS 310935Z AUTO 28012KT 1 1/2SM -SN OVC003 00/00 A2966 RMK AO2,M
BAM,2024-03-31 09:35,-116.8743,40.5990,1382.36,37.40,35.60,93.14,240.00,12.00,0.00,29.61,M,10.00,M,OVC,M,M,M,3600.00,M,M,M,M,M,M,M,M,M,M,28.87,KBAM 310935Z AUTO 24012KT 10SM OVC036 03/02 A2961 RMK AO1,M
TMT,2024-03-31 09:35,-117.1971,39.4643,1749.34,27.30,26.00,94.77,0.00,0.00,0.00,29.64,M,10.00,M,OVC,M,M,M,4100.00,M,M,M,M,M,M,M,M,M,M,27.30,KTMT 310935Z AUTO 00000KT 10SM OVC041 M03/M03 A2964 RMK AO2 T10261034,M
LOL,2024-03-31 09:46,-118.5701,40.0684,1192.43,34.00,33.00,96.08,160.00,5.00,0.01,29.64,M,7.00,M,FEW,OVC,M,M,700.00,1400.00,M,M,-SN,M,M,M,M,M,M,28.77,KLOL 310946Z AUTO 16005KT 7SM -SN FEW007 OVC014 01/01 A2964 RMK AO2 RAB08E38SNE08B38 P0001 T00110006,M
05U,2024-03-31 09:50,-116.0051,39.6042,1811.23,28.40,26.60,92.86,360.00,4.00,0.00,29.63,M,10.00,M,SCT,M,M,M,6000.00,M,M,M,M,M,M,M,M,M,M,23.22,K05U 310950Z AUTO 36004KT 10SM SCT060 M02/M03 A2963 RMK A01,M
P68,2024-03-31 09:53,-116.0056,39.6014,1993.00,28.00,27.00,95.97,200.00,5.00,0.00,29.60,1001.10,M,M,M,M,M,M,M,M,M,M,M,M,M,M,M,M,M,21.64,KP68 310953Z AUTO 20005KT M02/M03 A2960 RMK AO1 SLP011 T10221028,M
DRA,2024-03-31 09:53,-116.0278,36.6206,1009.00,40.00,37.00,88.92,0.00,0.00,0.00,29.71,1005.30,10.00,M,OVC,M,M,M,6000.00,M,M,M,M,M,M,M,M,M,M,40.00,KDRA 310953Z AUTO 00000KT 10SM OVC060 04/03 A2971 RMK AO2 SLP053 T00440028,M
ELY,2024-03-31 09:53,-114.8453,39.2950,1909.00,32.00,28.00,84.98,240.00,7.00,T,29.59,1000.20,10.00,M,OVC,M,M,M,2200.00,M,M,M,M,M,M,M,M,M,M,24.78,KELY 310953Z AUTO 24007KT 10SM OVC022 00/M02 A2959 RMK AO2 SNE20 SLP002 P0000 T00001022,M
VGT,2024-03-31 09:53,-115.1933,36.2111,667.00,45.00,41.00,85.77,0.00,0.00,0.00,29.72,1008.10,10.00,M,CLR,M,M,M,M,M,M,M,M,M,M,M,M,M,M,45.00,KVGT 310953Z AUTO 00000KT 10SM CLR 07/05 A2972 RMK AO2 SLP081 T00720050,M
LOL,2024-03-31 09:53,-118.5701,40.0684,1192.43,34.00,34.00,100.00,170.00,4.00,0.01,29.64,1004.10,10.00,M,OVC,M,M,M,1400.00,M,M,M,-RA,M,M,M,M,M,M,29.76,KLOL 310953Z AUTO 17004KT 10SM -RA OVC014 01/01 A2964 RMK AO2 RAB08E38B47SNE08B38E47 SLP041 P0001 T00110011,M
EKO,2024-03-31 09:54,-115.7860,40.8242,1367.00,37.40,35.60,93.14,200.00,5.05,M,29.58,M,5.00,M,OVC,M,M,M,1400.00,M,M,M,-RA BR,M,M,M,M,M,M,32.76,SPECI KEKO 310954Z 20005KT 5SM -RA BR OVC014 03/02 A2958 RMK AO2 RAB01 P0002 FIBI,M
BVU,2024-03-31 09:55,-114.8611,35.9475,671.00,42.80,39.20,86.99,110.00,4.00,0.00,29.73,M,10.00,M,CLR,M,M,M,M,M,M,M,M,M,M,M,M,M,M,40.03,KBVU 310955Z AUTO 11004KT 10SM CLR 06/04 A2973 RMK AO2,M
CXP,2024-03-31 09:55,-119.7326,39.1923,1431.00,35.60,30.20,80.51,0.00,0.00,0.00,29.68,M,10.00,M,SCT,BKN,OVC,M,3900.00,4600.00,6000.00,M,M,M,M,M,M,M,M,35.60,KCXP 310955Z AUTO 00000KT 10SM SCT039 BKN046 OVC060 02/M01 A2968 RMK AO2,M
INS,2024-03-31 09:55,-115.6733,36.5872,955.00,42.30,38.30,85.61,290.00,3.00,0.00,29.72,1005.30,10.00,M,OVC,M,M,M,5500.00,M,M,M,M,M,M,M,M,M,M,40.46,KINS 310955Z AUTO 29003KT 10SM OVC055 06/04 A2972 RMK AO2 SLP053 T00570035 $,M
RNO,2024-03-31 09:55,-119.7711,39.4839,1341.00,34.00,32.00,92.29,120.00,4.00,0.01,29.67,1003.90,3.00,M,FEW,BKN,OVC,M,300.00,2600.00,3500.00,M,-SN BR,M,M,M,M,M,M,29.76,KRNO 310955Z COR 12004KT 3SM -SN BR FEW003 BKN026 OVC035 01/00 A2967 RMK AO2 SNE08B16 SLP039 P0001 T00110000 $,M
LSV,2024-03-31 09:55,-115.0343,36.2362,570.00,45.30,41.40,86.12,70.00,4.00,0.00,29.71,1005.70,10.00,M,CLR,M,M,M,M,M,M,M,M,M,M,M,M,M,M,42.95,KLSV 310955Z AUTO 07004KT 10SM CLR 07/05 A2971 RMK AO2 SLP057 T00740052 $,M
RTS,2024-03-31 09:55,-119.8764,39.6682,1539.00,32.00,32.00,100.00,270.00,11.00,0.02,29.67,M,3.00,M,SCT,BKN,OVC,M,300.00,1700.00,2500.00,M,-SN,M,M,M,M,M,M,22.47,KRTS 310955Z AUTO 27011KT 3SM -SN SCT003 BKN017 OVC025 00/00 A2967 RMK AO2 P0002,M
MEV,2024-03-31 09:55,-119.7500,38.9963,1441.42,33.80,28.40,80.36,90.00,6.00,0.00,29.67,M,10.00,M,OVC,M,M,M,6000.00,M,M,M,M,M,M,M,M,M,M,27.70,KMEV 310955Z AUTO 09006KT 10SM OVC060 01/M02 A2967 RMK AO2,M
HTH,2024-03-31 09:55,-118.6315,38.5448,1282.89,35.60,35.60,100.00,0.00,0.00,0.00,29.67,M,10.00,M,BKN,OVC,M,M,6000.00,7000.00,M,M,M,M,M,M,M,M,M,35.60,KHTH 310955Z AUTO 00000KT 10SM BKN060 OVC070 02/02 A2967 RMK A01,M
10U,2024-03-31 09:55,-116.1876,41.9532,1637.00,37.40,30.20,74.98,360.00,6.00,0.00,29.60,M,10.00,M,OVC,M,M,M,4000.00,M,M,M,M,M,M,M,M,M,M,32.03,K10U 310955Z AUTO 36006KT 10SM OVC040 03/M01 A2960 RMK AO2,M
BAM,2024-03-31 09:55,-116.8743,40.5990,1382.36,37.40,35.60,93.14,230.00,11.00,0.00,29.61,M,10.00,M,OVC,M,M,M,3600.00,M,M,M,M,M,M,M,M,M,M,29.29,KBAM 310955Z AUTO 23011KT 10SM OVC036 03/02 A2961 RMK AO1,M
TMT,2024-03-31 09:55,-117.1971,39.4643,1749.34,27.00,26.00,95.95,0.00,0.00,0.00,29.64,M,10.00,M,SCT,SCT,OVC,M,3100.00,3700.00,4300.00,M,M,M,M,M,M,M,M,27.00,KTMT 310955Z AUTO 00000KT 10SM SCT031 SCT037 OVC043 M03/M03 A2964 RMK AO2 T10271034,M
EKO,2024-03-31 09:56,-115.7860,40.8242,1367.00,37.00,35.00,92.39,210.00,6.00,0.02,29.58,1000.60,5.00,M,OVC,M,M,M,1400.00,M,M,M,-RA BR,M,M,M,M,M,M,31.55,KEKO 310956Z AUTO 21006KT 5SM -RA BR OVC014 03/02 A2958 RMK AO2 RAB01 SLP006 P0002 T00280017,M
WMC,2024-03-31 09:56,-117.8072,40.9019,1315.00,35.00,33.00,92.32,190.00,8.00,0.02,29.62,1002.00,5.00,M,OVC,M,M,M,1700.00,M,M,M,-RA BR,M,M,M,M,M,M,27.81,KWMC 310956Z AUTO 19008KT 5SM -RA BR OVC017 02/01 A2962 RMK AO2 SLP020 P0002 T00170006,M
NFL,2024-03-31 09:56,-118.7010,39.4166,1199.00,36.00,33.00,88.73,190.00,7.00,0.02,29.64,1002.20,6.00,M,FEW,OVC,M,M,1100.00,1600.00,M,M,UP BR,M,M,M,M,M,M,29.65,KNFL 310956Z AUTO 19007KT 6SM UP BR FEW011 OVC016 02/01 A2964 RMK AO2 UPB09SNE07B39E51 SLP022 P0002 T00220006,M
HND,2024-03-31 09:56,-115.1344,35.9729,742.79,42.00,36.00,79.11,M,4.00,0.00,29.75,1009.30,10.00,M,CLR,M,M,M,M,M,M,M,M,M,M,M,M,M,M,39.10,KHND 310956Z AUTO VRB04KT 10SM CLR 06/02 A2975 RMK AO2 SLP093 T00560022,M
TPH,2024-03-31 09:56,-117.0904,38.0505,1654.00,32.00,29.00,88.53,180.00,7.00,0.00,29.67,1004.80,10.00,M,BKN,OVC,M,M,1200.00,1800.00,M,M,M,M,M,M,M,M,M,24.78,KTPH 310956Z AUTO 18007KT 10SM BKN012 OVC018 00/M02 A2967 RMK AO2 SLP048 T00001017,M
LAS,2024-03-31 09:56,-115.1634,36.0719,663.00,42.00,40.00,92.55,280.00,4.00,0.00,29.73,1006.80,10.00,M,FEW,FEW,M,M,4500.00,10000.00,M,M,M,M,M,M,M,M,M,39.10,KLAS 310956Z 28004KT 10SM FEW045 FEW100 06/04 A2973 RMK AO2 SLP068 T00560044,M
NFL,2024-03-31 10:08,-118.7010,39.4166,1199.00,34.00,33.00,96.08,140.00,7.00,0.01,29.65,M,6.00,M,SCT,OVC,M,M,700.00,1700.00,M,M,-SN BR,M,M,M,M,M,M,27.22,KNFL 311008Z AUTO 14007KT 6SM -SN BR SCT007 OVC017 01/01 A2965 RMK AO2 UPE07SNB07 P0001 T00110006,M
TPH,2024-03-31 10:08,-117.0904,38.0505,1654.00,32.00,29.00,88.53,180.00,7.00,0.00,29.68,M,10.00,M,OVC,M,M,M,1500.00,M,M,M,M,M,M,M,M,M,M,24.78,KTPH 311008Z AUTO 18007KT 10SM OVC015 00/M02 A2968 RMK AO2 T00001017,M
CXP,2024-03-31 10:10,-119.7326,39.1923,1431.00,33.80,30.20,86.49,0.00,0.00,0.00,29.68,M,10.00,M,BKN,OVC,M,M,3500.00,4100.00,M,M,M,M,M,M,M,M,M,33.80,KCXP 311010Z AUTO 00000KT 10SM BKN035 OVC041 01/M01 A2968 RMK AO2,M
05U,2024-03-31 10:10,-116.0051,39.6042,1811.23,28.40,26.60,92.86,10.00,5.00,0.00,29.63,M,9.00,M,BKN,M,M,M,6000.00,M,M,M,M,M,M,M,M,M,M,22.12,K05U 311010Z AUTO 01005KT 9SM BKN060 M02/M03 A2963 RMK A01,M
RNO,2024-03-31 10:13,-119.7711,39.4839,1341.00,34.00,31.00,88.63,140.00,3.00,T,29.67,M,3.00,M,FEW,OVC,M,M,1500.00,3500.00,M,M,-SN BR,M,M,M,M,M,M,30.97,KRNO 311013Z 14003KT 3SM -SN BR FEW015 OVC035 01/M01 A2967 RMK AO2 P0000 T00111006 $,M
LOL,2024-03-31 10:13,-118.5701,40.0684,1192.43,34.00,34.00,100.00,180.00,4.00,T,29.64,M,10.00,M,FEW,OVC,M,M,600.00,1300.00,M,M,M,M,M,M,M,M,M,29.76,KLOL 311013Z AUTO 18004KT 10SM FEW006 OVC013 01/01 A2964 RMK AO2 RAE10 P0000 T00110011,M
BVU,2024-03-31 10:15,-114.8611,35.9475,671.00,42.80,41.00,93.30,70.00,4.00,0.00,29.73,M,10.00,M,CLR,M,M,M,M,M,M,M,M,M,M,M,M,M,M,40.03,KBVU 311015Z AUTO 07004KT 10SM CLR 06/05 A2973 RMK AO2,M
RTS,2024-03-31 10:15,-119.8764,39.6682,1539.00,32.00,32.00,100.00,280.00,13.00,0.00,29.67,M,1.50,M,BKN,OVC,M,M,200.00,600.00,M,M,-SN,M,M,M,M,M,M,21.57,KRTS 311015Z AUTO 28013KT 1 1/2SM -SN BKN002 OVC006 00/M00 A2967 RMK AO2,M
MEV,2024-03-31 10:15,-119.7500,38.9963,1441.42,33.80,30.20,86.49,80.00,6.00,0.00,29.67,M,10.00,M,FEW,BKN,OVC,M,4200.00,4900.00,6000.00,M,M,M,M,M,M,M,M,27.70,KMEV 311015Z AUTO 08006KT 10SM FEW042 BKN049 OVC060 01/M01 A2967 RMK AO2,M
HTH,2024-03-31 10:15,-118.6315,38.5448,1282.89,35.60,35.60,100.00,0.00,0.00,0.00,29.67,M,10.00,M,SCT,OVC,M,M,6000.00,7000.00,M,M,M,M,M,M,M,M,M,35.60,KHTH 311015Z AUTO 00000KT 10SM SCT060 OVC070 02/02 A2967 RMK A01,M
10U,2024-03-31 10:15,-116.1876,41.9532,1637.00,37.40,30.20,74.98,350.00,7.00,0.00,29.59,M,10.00,M,FEW,OVC,M,M,3500.00,4200.00,M,M,M,M,M,M,M,M,M,31.36,K10U 311015Z AUTO 35007KT 10SM FEW035 OVC042 03/M01 A2959 RMK AO2,M
BAM,2024-03-31 10:15,-116.8743,40.5990,1382.36,37.40,35.60,93.14,240.00,13.00,0.00,29.61,M,10.00,M,OVC,M,M,M,3800.00,M,M,M,M,M,M,M,M,M,M,28.49,KBAM 311015Z AUTO 24013KT 10SM OVC038 03/02 A2961 RMK AO1,M
TMT,2024-03-31 10:15,-117.1971,39.4643,1749.34,28.00,26.60,94.40,0.00,0.00,0.00,29.63,M,10.00,M,BKN,OVC,M,M,3500.00,4300.00,M,M,M,M,M,M,M,M,M,28.00,KTMT 311015Z AUTO 00000KT 10SM BKN035 OVC043 M02/M03 A2963 RMK AO2 T10231030,M
NFL,2024-03-31 10:17,-118.7010,39.4166,1199.00,33.00,32.00,96.06,140.00,6.00,0.02,29.65,M,2.50,M,SCT,OVC,M,M,900.00,1300.00,M,M,-SN BR,M,M,M,M,M,M,26.73,KNFL 311017Z AUTO 14006KT 2 1/2SM -SN BR SCT009 OVC013 01/00 A2965 RMK AO2 UPE07SNB07 P0002 T00060000,M
TPH,2024-03-31 10:20,-117.0904,38.0505,1654.00,32.00,29.00,88.53,190.00,5.00,0.00,29.68,M,10.00,M,BKN,OVC,M,M,1200.00,1800.00,M,M,M,M,M,M,M,M,M,26.40,KTPH 311020Z AUTO 19005KT 10SM BKN012 OVC018 00/M02 A2968 RMK AO2 T00001017,M
ELY,2024-03-31 10:24,-114.8453,39.2950,1909.00,31.00,27.00,84.92,150.00,3.00,0.00,29.59,M,10.00,M,SCT,SCT,OVC,M,2200.00,4500.00,7000.00,M,M,M,M,M,M,M,M,27.55,KELY 311024Z AUTO 15003KT 10SM SCT022 SCT045 OVC070 M01/M03 A2959 RMK AO2 T10061028,M
05U,2024-03-31 10:30,-116.0051,39.6042,1811.23,26.60,26.60,100.00,340.00,3.00,0.00,29.63,M,10.00,M,FEW,OVC,M,M,3100.00,6000.00,M,M,M,M,M,M,M,M,M,22.52,K05U 311030Z AUTO 34003KT 10SM FEW031 OVC060 M03/M03 A2963 RMK A01,M
EKO,2024-03-31 10:31,-115.7860,40.8242,1367.00,33.00,32.00,96.06,220.00,6.00,0.07,29.57,M,2.00,M,FEW,OVC,M,M,400.00,1200.00,M,M,-SN BR,M,M,M,M,M,M,26.73,KEKO 311031Z AUTO 22006KT 2SM -SN BR FEW004 OVC012 01/00 A2957 RMK AO2 RAE20SNB20 P0007 T00060000,M
ELY,2024-03-31 10:32,-114.8453,39.2950,1909.00,31.00,27.00,84.92,180.00,3.00,0.00,29.59,M,10.00,M,BKN,OVC,M,M,2000.00,7000.00,M,M,M,M,M,M,M,M,M,27.55,KELY 311032Z AUTO 18003KT 10SM BKN020 OVC070 M01/M03 A2959 RMK AO2 T10061028,M
RNO,2024-03-31 10:32,-119.7711,39.4839,1341.00,34.00,32.00,92.29,M,3.00,0.01,29.67,M,3.00,M,BKN,OVC,M,M,2500.00,3300.00,M,M,-SN,M,M,M,M,M,M,30.97,KRNO 311032Z VRB03KT 3SM -SN BKN025 OVC033 01/00 A2967 RMK AO2 P0001 T00110000 $,M
BVU,2024-03-31 10:35,-114.8611,35.9475,671.00,42.80,41.00,93.30,110.00,4.00,0.00,29.73,M,10.00,M,SCT,M,M,M,2300.00,M,M,M,M,M,M,M,M,M,M,40.03,KBVU 311035Z AUTO 11004KT 10SM SCT023 06/05 A2973 RMK AO2,M
CXP,2024-03-31 10:35,-119.7326,39.1923,1431.00,35.60,30.20,80.51,90.00,3.00,0.00,29.68,M,4.00,M,BKN,BKN,OVC,M,2900.00,3500.00,5500.00,M,-RA BR,M,M,M,M,M,M,32.80,KCXP 311035Z AUTO 09003KT 4SM -RA BR BKN029 BKN035 OVC055 02/M01 A2968 RMK AO2,M
WMC,2024-03-31 10:35,-117.8072,40.9019,1315.00,35.00,32.00,88.68,0.00,0.00,0.04,29.62,M,5.00,M,BKN,OVC,M,M,1200.00,1800.00,M,M,-RA BR,M,M,M,M,M,M,35.00,KWMC 311035Z AUTO 00000KT 5SM -RA BR BKN012 OVC018 02/00 A2962 RMK AO2 P0004 T00170000,M
RTS,2024-03-31 10:35,-119.8764,39.6682,1539.00,32.00,32.00,100.00,280.00,9.00,0.00,29.67,M,1.25,M,OVC,M,M,M,200.00,M,M,M,-SN,M,M,M,M,M,M,23.51,KRTS 311035Z AUTO 28009KT 1 1/4SM -SN OVC002 00/00 A2967 RMK AO2,M
MEV,2024-03-31 10:35,-119.7500,38.9963,1441.42,33.80,28.40,80.36,30.00,5.00,0.00,29.67,M,10.00,M,BKN,BKN,OVC,M,3200.00,4100.00,5000.00,M,M,M,M,M,M,M,M,28.53,KMEV 311035Z AUTO 03005KT 10SM BKN032 BKN041 OVC050 01/M02 A2967 RMK AO2,M
HTH,2024-03-31 10:35,-118.6315,38.5448,1282.89,35.60,35.60,100.00,0.00,0.00,0.00,29.67,M,10.00,M,OVC,M,M,M,7000.00,M,M,M,M,M,M,M,M,M,M,35.60,KHTH 311035Z AUTO 00000KT 10SM OVC070 02/02 A2967 RMK A01,M
10U,2024-03-31 10:35,-116.1876,41.9532,1637.00,37.40,30.20,74.98,350.00,8.00,0.00,29.59,M,10.00,M,FEW,BKN,OVC,M,900.00,3800.00,4300.00,M,M,M,M,M,M,M,M,30.76,K10U 311035Z AUTO 35008KT 10SM FEW009 BKN038 OVC043 03/M01 A2959 RMK AO2,M
BAM,2024-03-31 10:35,-116.8743,40.5990,1382.36,37.40,35.60,93.14,240.00,12.00,0.00,29.60,M,10.00,M,SCT,BKN,OVC,M,4000.00,4800.00,5500.00,M,M,M,M,M,M,M,M,28.87,KBAM 311035Z AUTO 24012KT 10SM SCT040 BKN048 OVC055 03/02 A2960 RMK AO1,M
TMT,2024-03-31 10:35,-117.1971,39.4643,1749.34,28.60,27.30,94.80,260.00,3.00,0.00,29.64,M,10.00,M,BKN,OVC,M,M,3200.00,4200.00,M,M,M,M,M,M,M,M,M,24.80,KTMT 311035Z AUTO 26003KT 10SM BKN032 OVC042 M02/M03 A2964 RMK AO2 T10191026,M
EKO,2024-03-31 10:38,-115.7860,40.8242,1367.00,33.00,31.00,92.25,220.00,5.00,0.09,29.57,M,1.00,M,SCT,OVC,M,M,400.00,1000.00,M,M,-SN BR,M,M,M,M,M,M,27.58,KEKO 311038Z AUTO 22005KT 1SM -SN BR SCT004 OVC010 01/M01 A2957 RMK AO2 RAE20SNB20 P0009 T00061006,M
NFL,2024-03-31 10:39,-118.7010,39.4166,1199.00,34.00,32.00,92.29,160.00,7.00,0.02,29.65,M,4.00,M,OVC,M,M,M,1300.00,M,M,M,-SN BR,M,M,M,M,M,M,27.22,KNFL 311039Z AUTO 16007KT 4SM -SN BR OVC013 01/00 A2965 RMK AO2 UPE07SNB07 P0002 T00110000,M
05U,2024-03-31 10:50,-116.0051,39.6042,1811.23,24.80,24.80,100.00,0.00,0.00,0.00,29.63,M,10.00,M,FEW,SCT,OVC,M,3100.00,3800.00,6000.00,M,M,M,M,M,M,M,M,24.80,K05U 311050Z AUTO 00000KT 10SM FEW031 SCT038 OVC060 M04/M04 A2963 RMK A01,M
P68,2024-03-31 10:53,-116.0056,39.6014,1993.00,25.00,24.00,95.91,210.00,4.00,0.00,29.60,1001.60,M,M,M,M,M,M,M,M,M,M,M,M,M,M,M,M,M,19.25,KP68 311053Z AUTO 21004KT M04/M04 A2960 RMK AO1 SLP016 T10391044,M
DRA,2024-03-31 10:53,-116.0278,36.6206,1009.00,41.00,38.00,88.97,0.00,0.00,0.00,29.71,1005.10,10.00,M,BKN,OVC,M,M,3700.00,6000.00,M,M,M,M,M,M,M,M,M,41.00,KDRA 311053Z AUTO 00000KT 10SM BKN037 OVC060 05/03 A2971 RMK AO2 SLP051 T00500033,M
ELY,2024-03-31 10:53,-114.8453,39.2950,1909.00,31.00,27.00,84.92,170.00,6.00,0.00,29.59,1000.50,10.00,M,OVC,M,M,M,2000.00,M,M,M,M,M,M,M,M,M,M,24.33,KELY 311053Z AUTO 17006KT 10SM OVC020 M01/M03 A2959 RMK AO2 SLP005 T10061028,M
VGT,2024-03-31 10:53,-115.1933,36.2111,667.00,44.00,41.00,89.11,0.00,0.00,0.00,29.72,1008.10,10.00,M,CLR,M,M,M,M,M,M,M,M,M,M,M,M,M,M,44.00,KVGT 311053Z AUTO 00000KT 10SM CLR 07/05 A2972 RMK AO2 SLP081 T00670050,M
RNO,2024-03-31 10:53,-119.7711,39.4839,1341.00,33.80,30.20,86.49,190.00,3.00,0.02,29.67,M,2.00,M,FEW,OVC,M,M,1000.00,1700.00,M,M,-SN,M,M,M,M,M,M,30.75,KRNO 311053Z 19003KT 2SM -SN FEW010 OVC017 01/M01 A2967 RMK AO2 P0002 $,M
LOL,2024-03-31 10:53,-118.5701,40.0684,1192.43,34.00,34.00,100.00,170.00,3.00,T,29.64,1004.00,10.00,M,OVC,M,M,M,1300.00,M,M,M,M,M,M,M,M,M,M,30.97,KLOL 311053Z AUTO 17003KT 10SM OVC013 01/01 A2964 RMK AO2 RAE10 SLP040 P0000 T00110011,M
BVU,2024-03-31 10:55,-114.8611,35.9475,671.00,42.80,41.00,93.30,160.00,6.00,0.00,29.73,M,10.00,M,FEW,M,M,M,2300.00,M,M,M,M,M,M,M,M,M,M,38.54,KBVU 311055Z AUTO 16006KT 10SM FEW023 06/05 A2973 RMK AO2,M
CXP,2024-03-31 10:55,-119.7326,39.1923,1431.00,33.80,32.00,93.03,M,5.00,0.00,29.68,M,3.00,M,FEW,SCT,OVC,M,700.00,2700.00,5500.00,M,-RA BR,M,M,M,M,M,M,28.53,KCXP 311055Z AUTO VRB05KT 3SM -RA BR FEW007 SCT027 OVC055 01/M00 A2968 RMK AO2,M
INS,2024-03-31 10:55,-115.6733,36.5872,955.00,41.00,38.00,88.97,330.00,4.00,0.00,29.71,1005.20,10.00,M,OVC,M,M,M,6000.00,M,M,M,M,M,M,M,M,M,M,37.93,KINS 311055Z AUTO 33004KT 10SM OVC060 05/03 A2971 RMK AO2 SLP052 T00490034 $,M
RNO,2024-03-31 10:55,-119.7711,39.4839,1341.00,34.00,31.00,88.63,200.00,3.00,0.03,29.67,1004.30,2.00,M,FEW,OVC,M,M,1000.00,1700.00,M,M,-SN,M,M,M,M,M,M,30.97,KRNO 311055Z 20003KT 2SM -SN FEW010 OVC017 01/M01 A2967 RMK AO2 SLP043 P0003 T00111006 $,M
RTS,2024-03-31 10:55,-119.8764,39.6682,1539.00,32.00,32.00,100.00,270.00,12.00,0.00,29.67,M,1.75,M,OVC,M,M,M,300.00,M,M,M,-SN,M,M,M,M,M,M,22.00,KRTS 311055Z AUTO 27012KT 1 3/4SM -SN OVC003 00/00 A2967 RMK AO2,M
MEV,2024-03-31 10:55,-119.7500,38.9963,1441.42,35.60,26.60,69.46,70.00,3.00,0.00,29.67,M,10.00,M,BKN,OVC,M,M,3200.00,3800.00,M,M,M,M,M,M,M,M,M,32.80,KMEV 311055Z AUTO 07003KT 10SM BKN032 OVC038 02/M03 A2967 RMK AO2,M
HTH,2024-03-31 10:55,-118.6315,38.5448,1282.89,35.60,35.60,100.00,0.00,0.00,0.00,29.66,M,10.00,M,OVC,M,M,M,7000.00,M,M,M,M,M,M,M,M,M,M,35.60,KHTH 311055Z AUTO 00000KT 10SM OVC070 02/02 A2966 RMK A01,M
10U,2024-03-31 10:55,-116.1876,41.9532,1637.00,37.40,30.20,74.98,360.00,8.00,0.00,29.59,M,10.00,M,BKN,OVC,M,M,3500.00,4100.00,M,M,M,M,M,M,M,M,M,30.76,K10U 311055Z AUTO 36008KT 10SM BKN035 OVC041 03/M01 A2959 RMK AO2,M
BAM,2024-03-31 10:55,-116.8743,40.5990,1382.36,37.40,35.60,93.14,240.00,10.00,0.00,29.60,M,10.00,M,SCT,BKN,OVC,M,3900.00,4600.00,6000.00,M,M,M,M,M,M,M,M,29.74,KBAM 311055Z AUTO 24010KT 10SM SCT039 BKN046 OVC060 03/02 A2960 RMK AO1,M
TMT,2024-03-31 10:55,-117.1971,39.4643,1749.34,30.40,29.30,95.62,240.00,3.00,0.00,29.63,M,10.00,M,SCT,OVC,M,M,2200.00,2900.00,M,M,M,M,M,M,M,M,M,26.86,KTMT 311055Z AUTO 24003KT 10SM SCT022 OVC029 M01/M01 A2963 RMK AO2 T10091015,M
LSV,2024-03-31 10:55,-115.0343,36.2362,570.00,43.50,40.30,88.39,330.00,5.00,0.00,29.70,1005.50,10.00,M,CLR,M,M,M,M,M,M,M,M,M,M,M,M,M,M,40.05,KLSV 311055Z AUTO 33005KT 10SM CLR 06/05 A2970 RMK AO2 SLP055 T00640046 $,M
EKO,2024-03-31 10:56,-115.7860,40.8242,1367.00,33.00,32.00,96.06,210.00,3.00,0.13,29.57,1000.50,1.00,M,VV ,M,M,M,700.00,M,M,M,-SN BR,M,M,M,M,M,M,29.83,KEKO 311056Z AUTO 21003KT 1SM -SN BR VV007 01/00 A2957 RMK AO2 RAE20SNB20 SLP005 P0013 T00060000,M
WMC,2024-03-31 10:56,-117.8072,40.9019,1315.00,34.00,31.00,88.63,0.00,0.00,0.06,29.62,1002.30,2.00,M,OVC,M,M,M,1000.00,M,M,M,-SN BR,M,M,M,M,M,M,34.00,KWMC 311056Z AUTO 00000KT 2SM -SN BR OVC010 01/M01 A2962 RMK AO2 RAE48SNB48 SLP023 P0006 T00111006,M
HND,2024-03-31 10:56,-115.1344,35.9729,742.79,40.00,36.00,85.48,190.00,4.00,0.00,29.74,1009.20,10.00,M,CLR,M,M,M,M,M,M,M,M,M,M,M,M,M,M,36.76,KHND 311056Z AUTO 19004KT 10SM CLR 04/02 A2974 RMK AO2 SLP092 T00440022,M
NFL,2024-03-31 10:56,-118.7010,39.4166,1199.00,35.00,33.00,92.32,150.00,7.00,0.02,29.64,1002.10,7.00,M,OVC,M,M,M,1200.00,M,M,M,UP,M,M,M,M,M,M,28.44,KNFL 311056Z AUTO 15007KT 7SM UP OVC012 02/01 A2964 RMK AO2 UPE07B48SNB07E48 SLP021 P0002 T00170006,M
TPH,2024-03-31 10:56,-117.0904,38.0505,1654.00,32.00,29.00,88.53,170.00,6.00,0.00,29.66,1004.20,10.00,M,BKN,BKN,OVC,M,1000.00,2100.00,4400.00,M,M,M,M,M,M,M,M,25.53,KTPH 311056Z AUTO 17006KT 10SM BKN010 BKN021 OVC044 00/M02 A2966 RMK AO2 SLP042 T00001017,M
LAS,2024-03-31 10:56,-115.1634,36.0719,663.00,41.00,40.00,96.19,180.00,3.00,0.00,29.73,1006.50,10.00,M,FEW,FEW,M,M,4500.00,10000.00,M,M,M,M,M,M,M,M,M,38.98,KLAS 311056Z 18003KT 10SM FEW045 FEW100 05/04 A2973 RMK AO2 SLP065 T00500044,M
TPH,2024-03-31 11:02,-117.0904,38.0505,1654.00,32.00,29.00,88.53,170.00,6.00,0.00,29.67,M,10.00,M,SCT,SCT,OVC,M,1000.00,2200.00,4200.00,M,M,M,M,M,M,M,M,25.53,KTPH 311102Z AUTO 17006KT 10SM SCT010 SCT022 OVC042 00/M02 A2967 RMK AO2 T00001017,M
RNO,2024-03-31 11:08,-119.7711,39.4839,1341.00,34.00,31.00,88.63,170.00,4.00,T,29.67,M,2.00,M,BKN,OVC,M,M,900.00,1500.00,M,M,-SN,M,M,M,M,M,M,29.76,KRNO 311108Z 17004KT 2SM -SN BKN009 OVC015 01/M01 A2967 RMK AO2 P0000 T00111006 $,M
ELY,2024-03-31 11:10,-114.8453,39.2950,1909.00,31.00,26.00,81.48,160.00,5.00,0.00,29.59,M,10.00,M,SCT,SCT,BKN,M,2000.00,3000.00,4300.00,M,M,M,M,M,M,M,M,25.21,KELY 311110Z AUTO 16005KT 10SM SCT020 SCT030 BKN043 M01/M03 A2959 RMK AO2 T10061033,M
05U,2024-03-31 11:10,-116.0051,39.6042,1811.23,26.60,24.80,92.80,10.00,4.00,0.00,29.62,M,10.00,M,BKN,BKN,OVC,M,3400.00,4100.00,6000.00,M,M,M,M,M,M,M,M,21.11,K05U 311110Z AUTO 01004KT 10SM BKN034 BKN041 OVC060 M03/M04 A2962 RMK A01,M
LOL,2024-03-31 11:14,-118.5701,40.0684,1192.43,34.00,34.00,100.00,180.00,3.00,0.00,29.64,M,8.00,M,FEW,OVC,M,M,700.00,1300.00,M,M,M,M,M,M,M,M,M,30.97,KLOL 311114Z AUTO 18003KT 8SM FEW007 OVC013 01/01 A2964 RMK AO2 T00110011,M
BVU,2024-03-31 11:15,-114.8611,35.9475,671.00,42.80,41.00,93.30,0.00,0.00,0.00,29.73,M,10.00,M,FEW,M,M,M,6000.00,M,M,M,M,M,M,M,M,M,M,42.80,KBVU 311115Z AUTO 00000KT 10SM FEW060 06/05 A2973 RMK AO2,M
CXP,2024-03-31 11:15,-119.7326,39.1923,1431.00,33.80,30.20,86.49,0.00,0.00,0.00,29.69,M,2.00,M,SCT,SCT,BKN,M,400.00,900.00,2700.00,M,-SN BR,M,M,M,M,M,M,33.80,KCXP 311115Z AUTO 00000KT 2SM -SN BR SCT004 SCT009 BKN027 01/M01 A2969 RMK AO2 VIS 1 1/4V3,M
WMC,2024-03-31 11:15,-117.8072,40.9019,1315.00,33.00,31.00,92.25,0.00,0.00,0.02,29.62,M,1.75,M,OVC,M,M,M,1100.00,M,M,M,-SN BR,M,M,M,M,M,M,33.00,KWMC 311115Z AUTO 00000KT 1 3/4SM -SN BR OVC011 01/M01 A2962 RMK AO2 P0002 T00061006,M
NFL,2024-03-31 11:15,-118.7010,39.4166,1199.00,36.00,34.00,92.35,200.00,6.00,T,29.64,M,9.00,M,SCT,OVC,M,M,1300.00,2000.00,M,M,M,M,M,M,M,M,M,30.35,KNFL 311115Z AUTO 20006KT 9SM SCT013 OVC020 02/01 A2964 RMK AO2 UPE12 P0000 T00220011,M
RTS,2024-03-31 11:15,-119.8764,39.6682,1539.00,33.80,32.00,93.03,260.00,9.00,0.00,29.67,M,7.00,M,SCT,OVC,M,M,300.00,2500.00,M,M,-SN,M,M,M,M,M,M,25.75,KRTS 311115Z AUTO 26009KT 7SM -SN SCT003 OVC025 01/00 A2967 RMK AO2,M
MEV,2024-03-31 11:15,-119.7500,38.9963,1441.42,33.80,28.40,80.36,60.00,6.00,0.00,29.67,M,10.00,M,FEW,SCT,OVC,M,3000.00,3700.00,4600.00,M,M,M,M,M,M,M,M,27.70,KMEV 311115Z AUTO 06006KT 10SM FEW030 SCT037 OVC046 01/M02 A2967 RMK AO2,M
HTH,2024-03-31 11:15,-118.6315,38.5448,1282.89,35.60,35.60,100.00,0.00,0.00,0.00,29.67,M,10.00,M,OVC,M,M,M,7000.00,M,M,M,M,M,M,M,M,M,M,35.60,KHTH 311115Z AUTO 00000KT 10SM OVC070 02/02 A2967 RMK A01,M
10U,2024-03-31 11:15,-116.1876,41.9532,1637.00,37.40,30.20,74.98,360.00,11.00,0.00,29.59,M,10.00,M,BKN,OVC,M,M,3700.00,4200.00,M,M,M,M,M,M,M,M,M,29.29,K10U 311115Z AUTO 36011KT 10SM BKN037 OVC042 03/M01 A2959 RMK AO2,M
BAM,2024-03-31 11:15,-116.8743,40.5990,1382.36,37.40,35.60,93.14,250.00,9.00,0.00,29.60,M,10.00,M,BKN,OVC,M,M,3500.00,4200.00,M,M,M,M,M,M,M,M,M,30.23,KBAM 311115Z AUTO 25009KT 10SM BKN035 OVC042 03/02 A2960 RMK AO1,M
TMT,2024-03-31 11:15,-117.1971,39.4643,1749.34,30.00,28.60,94.45,190.00,5.00,0.00,29.62,M,10.00,M,SCT,BKN,OVC,M,2200.00,3800.00,5000.00,M,M,M,M,M,M,M,M,24.02,KTMT 311115Z AUTO 19005KT 10SM SCT022 BKN038 OVC050 M01/M02 A2962 RMK AO2 T10111019,M
WMC,2024-03-31 11:25,-117.8072,40.9019,1315.00,33.00,30.00,88.58,0.00,0.00,0.03,29.63,M,1.25,M,OVC,M,M,M,900.00,M,M,M,-SN BR,M,M,M,M,M,M,33.00,KWMC 311125Z AUTO 00000KT 1 1/4SM -SN BR OVC009 01/M01 A2963 RMK AO2 P0003 T00061011,M
LOL,2024-03-31 11:30,-118.5701,40.0684,1192.43,34.00,34.00,100.00,0.00,0.00,T,29.64,M,5.00,M,BKN,OVC,M,M,500.00,1400.00,M,M,-RA BR,M,M,M,M,M,M,34.00,KLOL 311130Z AUTO 00000KT 5SM -RA BR BKN005 OVC014 01/01 A2964 RMK AO2 UPB17E20RAB20 P0000 T00110011,M
05U,2024-03-31 11:30,-116.0051,39.6042,1811.23,26.60,24.80,92.80,350.00,3.00,0.00,29.62,M,10.00,M,SCT,BKN,OVC,M,2500.00,3200.00,4000.00,M,M,M,M,M,M,M,M,22.52,K05U 311130Z AUTO 35003KT 10SM SCT025 BKN032 OVC040 M03/M04 A2962 RMK A01,M
BVU,2024-03-31 11:35,-114.8611,35.9475,671.00,42.80,39.20,86.99,0.00,0.00,0.00,29.73,M,10.00,M,CLR,M,M,M,M,M,M,M,M,M,M,M,M,M,M,42.80,KBVU 311135Z AUTO 00000KT 10SM CLR 06/04 A2973 RMK AO2,M
CXP,2024-03-31 11:35,-119.7326,39.1923,1431.00,33.80,30.20,86.49,0.00,0.00,0.00,29.69,M,1.75,M,OVC,M,M,M,300.00,M,M,M,-SN BR,M,M,M,M,M,M,33.80,KCXP 311135Z AUTO 00000KT 1 3/4SM -SN BR OVC003 01/M01 A2969 RMK AO2,M
RTS,2024-03-31 11:35,-119.8764,39.6682,1539.00,33.80,32.00,93.03,280.00,7.00,0.00,29.67,M,10.00,M,OVC,M,M,M,2500.00,M,M,M,-RA,M,M,M,M,M,M,26.97,KRTS 311135Z AUTO 28007KT 10SM -RA OVC025 01/00 A2967 RMK AO2,M
MEV,2024-03-31 11:35,-119.7500,38.9963,1441.42,33.80,30.20,86.49,M,4.00,0.00,29.68,M,8.00,11.00,FEW,BKN,OVC,M,1500.00,2900.00,4700.00,M,-SN,M,M,M,M,M,M,29.52,KMEV 311135Z AUTO VRB04G11KT 8SM -SN FEW015 BKN029 OVC047 01/M01 A2968 RMK AO2,M
HTH,2024-03-31 11:35,-118.6315,38.5448,1282.89,35.60,33.80,93.08,140.00,3.00,0.00,29.67,M,10.00,M,OVC,M,M,M,7500.00,M,M,M,M,M,M,M,M,M,M,32.80,KHTH 311135Z AUTO 14003KT 10SM OVC075 02/01 A2967 RMK A01,M
10U,2024-03-31 11:35,-116.1876,41.9532,1637.00,35.60,30.20,80.51,10.00,14.00,0.00,29.59,M,10.00,M,BKN,OVC,M,M,3400.00,4200.00,M,M,M,M,M,M,M,M,M,25.80,K10U 311135Z AUTO 01014KT 10SM BKN034 OVC042 02/M01 A2959 RMK AO2,M
BAM,2024-03-31 11:35,-116.8743,40.5990,1382.36,37.40,35.60,93.14,230.00,12.00,0.00,29.60,M,10.00,16.00,SCT,OVC,M,M,2300.00,3300.00,M,M,M,M,M,M,M,M,M,28.87,KBAM 311135Z AUTO 23012G16KT 10SM SCT023 OVC033 03/02 A2960 RMK AO1,M
TMT,2024-03-31 11:35,-117.1971,39.4643,1749.34,30.60,28.60,92.17,220.00,6.00,0.00,29.62,M,10.00,M,OVC,M,M,M,4800.00,M,M,M,M,M,M,M,M,M,M,23.84,KTMT 311135Z AUTO 22006KT 10SM OVC048 M01/M02 A2962 RMK AO2 T10081019,M
RNO,2024-03-31 11:44,-119.7711,39.4839,1341.00,34.00,32.00,92.29,180.00,3.00,0.01,29.67,M,2.00,M,SCT,OVC,M,M,800.00,2500.00,M,M,-SN,M,M,M,M,M,M,30.97,KRNO 311144Z 18003KT 2SM -SN SCT008 OVC025 01/00 A2967 RMK AO2 P0001 T00110000 $,M
WMC,2024-03-31 11:49,-117.8072,40.9019,1315.00,33.00,30.00,88.58,0.00,0.00,0.06,29.63,M,1.75,M,FEW,OVC,M,M,500.00,900.00,M,M,-SN BR,M,M,M,M,M,M,33.00,KWMC 311149Z AUTO 00000KT 1 3/4SM -SN BR FEW005 OVC009 01/M01 A2963 RMK AO2 P0006 T00061011,M
05U,2024-03-31 11:50,-116.0051,39.6042,1811.23,26.60,24.80,92.80,0.00,0.00,0.00,29.62,M,10.00,M,SCT,OVC,M,M,3400.00,4300.00,M,M,M,M,M,M,M,M,M,26.60,K05U 311150Z AUTO 00000KT 10SM SCT034 OVC043 M03/M04 A2962 RMK A01,M
P68,2024-03-31 11:53,-116.0056,39.6014,1993.00,26.00,24.00,92.01,160.00,3.00,0.00,29.59,1001.20,M,M,M,M,M,M,M,M,M,M,M,M,M,M,M,M,M,21.83,KP68 311153Z AUTO 16003KT M03/M04 A2959 RMK AO1 SLP012 60002 70002 T10331044 10022 21039 56006,M
DRA,2024-03-31 11:53,-116.0278,36.6206,1009.00,40.00,35.00,82.15,0.00,0.00,T,29.71,1005.20,10.00,M,SCT,SCT,M,M,3500.00,5500.00,M,M,M,M,M,M,M,M,M,40.00,KDRA 311153Z AUTO 00000KT 10SM SCT035 SCT055 04/02 A2971 RMK AO2 RAB1055E04 SLP052 P0000 60000 70076 T00440017 10050 20033 55002,M
ELY,2024-03-31 11:53,-114.8453,39.2950,1909.00,30.00,26.00,84.85,200.00,7.00,0.00,29.59,1001.20,10.00,M,BKN,BKN,M,M,4500.00,5500.00,M,M,M,M,M,M,M,M,M,22.34,KELY 311153Z AUTO 20007KT 10SM BKN045 BKN055 M01/M03 A2959 RMK AO2 SLP012 60000 70006 T10111033 10006 21011 55006,M
VGT,2024-03-31 11:53,-115.1933,36.2111,667.00,44.00,40.00,85.71,0.00,0.00,0.00,29.73,1008.70,10.00,M,FEW,M,M,M,6000.00,M,M,M,M,M,M,M,M,M,M,44.00,KVGT 311153Z AUTO 00000KT 10SM FEW060 07/04 A2973 RMK AO2 SLP087 70020 T00670044 10083 20061 55000,M
LOL,2024-03-31 11:53,-118.5701,40.0684,1192.43,34.00,34.00,100.00,0.00,0.00,T,29.64,1004.00,10.00,M,OVC,M,M,M,500.00,M,M,M,-RA,M,M,M,M,M,M,34.00,KLOL 311153Z AUTO 00000KT 10SM -RA OVC005 01/01 A2964 RMK AO2 UPB17E20RAB20 SLP040 P0000 60009 70054 T00110011 10011 20006 53000,M
EKO,2024-03-31 11:54,-115.7860,40.8242,1367.00,33.80,30.20,86.49,220.00,4.08,M,29.56,M,1.25,M,OVC,M,M,M,1000.00,M,M,M,-SN BR,M,M,M,M,M,M,29.43,SPECI KEKO 311154Z 22004KT 1 1/4SM -SN BR OVC010 01/M01 A2956 RMK AO2 P0011 FIBI,M
BVU,2024-03-31 11:55,-114.8611,35.9475,671.00,41.00,39.20,93.24,0.00,0.00,0.00,29.74,M,10.00,M,CLR,M,M,M,M,M,M,M,M,M,M,M,M,M,M,41.00,KBVU 311155Z AUTO 00000KT 10SM CLR 05/04 A2974 RMK AO2,M
CXP,2024-03-31 11:55,-119.7326,39.1923,1431.00,33.80,32.00,93.03,0.00,0.00,0.01,29.70,M,2.50,M,SCT,BKN,M,M,300.00,3000.00,M,M,-SN BR,M,M,M,M,M,M,33.80,KCXP 311155Z AUTO 00000KT 2 1/2SM -SN BR SCT003 BKN030 01/M00 A2970 RMK AO2 P0001 VIS 1 3/4V4,M
INS,2024-03-31 11:55,-115.6733,36.5872,955.00,41.40,38.30,88.64,0.00,0.00,0.00,29.72,1005.50,10.00,M,OVC,M,M,M,5500.00,M,M,M,M,M,M,M,M,M,M,41.40,KINS 311155Z AUTO 00000KT 10SM OVC055 05/04 A2972 RMK AO2 SLP055 70022 T00520035 10065 20045 55003 $,M
MEV,2024-03-31 11:55,-119.7500,38.9963,1441.42,33.80,32.00,93.03,110.00,10.00,0.00,29.69,M,2.00,M,SCT,BKN,OVC,M,400.00,1300.00,3500.00,M,-SN BR,M,M,M,M,M,M,25.23,KMEV 311155Z AUTO 11010KT 2SM -SN BR SCT004 BKN013 OVC035 01/M00 A2969 RMK AO2 VIS 1 3/4V3,M
HTH,2024-03-31 11:55,-118.6315,38.5448,1282.89,35.60,35.60,100.00,180.00,4.00,0.00,29.67,M,10.00,M,OVC,M,M,M,7500.00,M,M,M,M,M,M,M,M,M,M,31.62,KHTH 311155Z AUTO 18004KT 10SM OVC075 02/02 A2967 RMK A01,M
10U,2024-03-31 11:55,-116.1876,41.9532,1637.00,35.60,30.20,80.51,10.00,10.00,0.00,29.59,M,5.00,16.00,FEW,BKN,OVC,M,1600.00,3400.00,5500.00,M,UP,M,M,M,M,M,M,27.48,K10U 311155Z AUTO 01010G16KT 5SM UP FEW016 BKN034 OVC055 02/M01 A2959 RMK AO2,M
RNO,2024-03-31 11:55,-119.7711,39.4839,1341.00,34.00,31.00,88.63,170.00,5.00,0.02,29.67,1004.90,2.00,M,FEW,OVC,M,M,800.00,2400.00,M,M,-SN,M,M,M,M,M,M,28.77,KRNO 311155Z 17005KT 2SM -SN FEW008 OVC024 01/M01 A2967 RMK AO2 SLP049 P0002 60021 70044 T00111006 10028 20006 53002 $,M
RTS,2024-03-31 11:55,-119.8764,39.6682,1539.00,33.80,32.00,93.03,260.00,7.00,0.02,29.67,M,6.00,12.00,BKN,OVC,M,M,2500.00,3000.00,M,M,-SN,M,M,M,M,M,M,26.97,KRTS 311155Z AUTO 26007G12KT 6SM -SN BKN025 OVC030 01/00 A2967 RMK AO2 P0002,M
BAM,2024-03-31 11:55,-116.8743,40.5990,1382.36,37.40,35.60,93.14,230.00,12.00,0.00,29.60,M,10.00,M,SCT,BKN,OVC,M,1100.00,2100.00,2800.00,M,M,M,M,M,M,M,M,28.87,KBAM 311155Z AUTO 23012KT 10SM SCT011 BKN021 OVC028 03/02 A2960 RMK AO1,M
TMT,2024-03-31 11:55,-117.1971,39.4643,1749.34,30.20,28.20,92.16,210.00,8.00,0.00,29.62,M,10.00,M,OVC,M,M,M,5000.00,M,M,M,M,M,M,M,M,M,M,21.90,KTMT 311155Z AUTO 21008KT 10SM OVC050 M01/M02 A2962 RMK AO2 T10101021 11006 21070,M
LSV,2024-03-31 11:55,-115.0343,36.2362,570.00,44.40,40.30,85.41,300.00,4.00,0.00,29.72,1006.20,10.00,M,CLR,M,M,M,M,M,M,M,M,M,M,M,M,M,M,41.90,KLSV 311155Z AUTO 30004KT 10SM CLR 07/05 A2972 RMK AO2 SLP062 70010 T00690046 10090 20062 53002 $,M
EKO,2024-03-31 11:56,-115.7860,40.8242,1367.00,33.00,31.00,92.25,220.00,5.00,0.11,29.56,1000.50,1.25,M,OVC,M,M,M,1000.00,M,M,M,-SN BR,M,M,M,M,M,M,27.58,KEKO 311156Z AUTO 22005KT 1 1/4SM -SN BR OVC010 01/M01 A2956 RMK AO2 SLP005 P0011 60026 70026 T00061006 10050 20006 58004,M
WMC,2024-03-31 11:56,-117.8072,40.9019,1315.00,33.00,30.00,88.58,0.00,0.00,0.07,29.63,1002.70,1.25,M,OVC,M,M,M,900.00,M,M,M,-SN BR,M,M,M,M,M,M,33.00,KWMC 311156Z AUTO 00000KT 1 1/4SM -SN BR OVC009 01/M01 A2963 RMK AO2 SLP027 P0007 60018 70020 T00061011 10061 20006 53002,M
NFL,2024-03-31 11:56,-118.7010,39.4166,1199.00,37.00,34.00,88.78,180.00,7.00,T,29.64,1002.20,8.00,M,OVC,M,M,M,1700.00,M,M,M,UP,M,M,M,M,M,M,30.87,KNFL 311156Z AUTO 18007KT 8SM UP OVC017 03/01 A2964 RMK AO2 UPE12B29 SLP022 P0000 60004 70027 T00280011 10028 20006 55004,M
HND,2024-03-31 11:56,-115.1344,35.9729,742.79,39.00,35.00,85.42,170.00,6.00,0.00,29.75,1009.50,10.00,M,CLR,M,M,M,M,M,M,M,M,M,M,M,M,M,M,33.96,KHND 311156Z AUTO 17006KT 10SM CLR 04/02 A2975 RMK AO2 SLP095 70008 T00390017 10072 20039 55000,M
TPH,2024-03-31 11:56,-117.0904,38.0505,1654.00,32.00,29.00,88.53,170.00,3.00,0.00,29.67,1004.50,10.00,M,SCT,OVC,M,M,1200.00,4000.00,M,M,M,M,M,M,M,M,M,28.69,KTPH 311156Z AUTO 17003KT 10SM SCT012 OVC040 00/M02 A2967 RMK AO2 SLP045 70019 T00001017 10006 20000 55002,M
LAS,2024-03-31 11:56,-115.1634,36.0719,663.00,41.00,39.00,92.52,240.00,4.00,0.00,29.74,1007.10,10.00,M,FEW,FEW,M,M,4500.00,10000.00,M,M,M,M,M,M,M,M,M,37.93,KLAS 311156Z 24004KT 10SM FEW045 FEW100 05/04 A2974 RMK AO2 SLP071 70003 T00500039 10072 20050 53003,M
TPH,2024-03-31 12:06,-117.0904,38.0505,1654.00,32.00,29.00,88.53,190.00,4.00,0.00,29.67,M,10.00,M,BKN,OVC,M,M,1000.00,4000.00,M,M,M,M,M,M,M,M,M,27.42,KTPH 311206Z AUTO 19004KT 10SM BKN010 OVC040 00/M02 A2967 RMK AO2 T00001017,M
EKO,2024-03-31 12:08,-115.7860,40.8242,1367.00,33.00,31.00,92.25,220.00,5.00,0.01,29.56,M,2.00,M,FEW,OVC,M,M,200.00,1200.00,M,M,-SN BR,M,M,M,M,M,M,27.58,KEKO 311208Z AUTO 22005KT 2SM -SN BR FEW002 OVC012 01/M01 A2956 RMK AO2 P0001 T00061006,M
05U,2024-03-31 12:10,-116.0051,39.6042,1811.23,26.60,24.80,92.80,0.00,0.00,0.00,29.62,M,10.00,M,FEW,BKN,OVC,M,3600.00,4700.00,5500.00,M,M,M,M,M,M,M,M,26.60,K05U 311210Z AUTO 00000KT 10SM FEW036 BKN047 OVC055 M03/M04 A2962 RMK A01,M
WMC,2024-03-31 12:11,-117.8072,40.9019,1315.00,33.00,30.00,88.58,0.00,0.00,0.02,29.63,M,1.75,M,OVC,M,M,M,900.00,M,M,M,-SN BR,M,M,M,M,M,M,33.00,KWMC 311211Z AUTO 00000KT 1 3/4SM -SN BR OVC009 01/M01 A2963 RMK AO2 P0002 T00061011,M
BVU,2024-03-31 12:15,-114.8611,35.9475,671.00,41.00,39.20,93.24,40.00,4.00,0.00,29.74,M,10.00,M,CLR,M,M,M,M,M,M,M,M,M,M,M,M,M,M,37.93,KBVU 311215Z AUTO 04004KT 10SM CLR 05/04 A2974 RMK AO2,M
CXP,2024-03-31 12:15,-119.7326,39.1923,1431.00,33.80,32.00,93.03,0.00,0.00,0.00,29.70,M,2.00,M,SCT,SCT,SCT,M,300.00,800.00,2700.00,M,-SN BR,M,M,M,M,M,M,33.80,KCXP 311215Z AUTO 00000KT 2SM -SN BR SCT003 SCT008 SCT027 01/M00 A2970 RMK AO2 VIS 1 3/4V3,M
BAM,2024-03-31 12:15,-116.8743,40.5990,1382.36,35.60,35.60,100.00,230.00,13.00,0.00,29.60,M,10.00,M,SCT,SCT,OVC,M,1100.00,2200.00,2900.00,M,M,M,M,M,M,M,M,26.18,KBAM 311215Z AUTO 23013KT 10SM SCT011 SCT022 OVC029 02/02 A2960 RMK AO1,M
TMT,2024-03-31 12:15,-117.1971,39.4643,1749.34,30.20,28.00,91.40,210.00,8.00,0.00,29.62,M,10.00,M,OVC,M,M,M,5000.00,M,M,M,M,M,M,M,M,M,M,21.90,KTMT 311215Z AUTO 21008KT 10SM OVC050 M01/M02 A2962 RMK AO2 T10101022,M
RTS,2024-03-31 12:15,-119.8764,39.6682,1539.00,33.80,32.00,93.03,290.00,6.00,0.00,29.68,M,10.00,M,FEW,BKN,OVC,M,2600.00,3200.00,6500.00,M,-SN,M,M,M,M,M,M,27.70,KRTS 311215Z AUTO 29006KT 10SM -SN FEW026 BKN032 OVC065 01/00 A2968 RMK AO2,M
MEV,2024-03-31 12:15,-119.7500,38.9963,1441.42,32.00,32.00,100.00,90.00,7.00,0.00,29.70,M,6.00,M,SCT,SCT,OVC,M,300.00,2500.00,3500.00,M,-SN BR,M,M,M,M,M,M,24.78,KMEV 311215Z AUTO 09007KT 6SM -SN BR SCT003 SCT025 OVC035 00/M00 A2970 RMK AO2,M
HTH,2024-03-31 12:15,-118.6315,38.5448,1282.89,35.60,33.80,93.08,150.00,5.00,0.00,29.67,M,10.00,M,OVC,M,M,M,7500.00,M,M,M,M,M,M,M,M,M,M,30.67,KHTH 311215Z AUTO 15005KT 10SM OVC075 02/01 A2967 RMK A01,M
10U,2024-03-31 12:15,-116.1876,41.9532,1637.00,33.80,32.00,93.03,20.00,11.00,0.00,29.58,M,9.00,19.00,FEW,SCT,OVC,M,1700.00,2400.00,3200.00,M,-SN,M,M,M,M,M,M,24.74,K10U 311215Z AUTO 02011G19KT 9SM -SN FEW017 SCT024 OVC032 01/M00 A2958 RMK AO2,M
NFL,2024-03-31 12:18,-118.7010,39.4166,1199.00,37.00,34.00,88.78,190.00,7.00,T,29.65,M,6.00,M,OVC,M,M,M,1300.00,M,M,M,UP BR,M,M,M,M,M,M,30.87,KNFL 311218Z AUTO 19007KT 6SM UP BR OVC013 03/01 A2965 RMK AO2 P0000 T00280011,M
EKO,2024-03-31 12:18,-115.7860,40.8242,1367.00,33.00,32.00,96.06,220.00,5.00,0.01,29.56,M,1.75,M,FEW,OVC,M,M,300.00,1300.00,M,M,-SN BR,M,M,M,M,M,M,27.58,KEKO 311218Z AUTO 22005KT 1 3/4SM -SN BR FEW003 OVC013 01/00 A2956 RMK AO2 P0001 T00060000,M
TPH,2024-03-31 12:19,-117.0904,38.0505,1654.00,32.00,29.00,88.53,200.00,5.00,0.00,29.67,M,10.00,M,SCT,OVC,M,M,1000.00,4000.00,M,M,M,M,M,M,M,M,M,26.40,KTPH 311219Z AUTO 20005KT 10SM SCT010 OVC040 00/M02 A2967 RMK AO2 T00001017,M
WMC,2024-03-31 12:21,-117.8072,40.9019,1315.00,33.00,30.00,88.58,0.00,0.00,0.02,29.63,M,1.75,M,OVC,M,M,M,1000.00,M,M,M,-SN BR,M,M,M,M,M,M,33.00,KWMC 311221Z AUTO 00000KT 1 3/4SM -SN BR OVC010 01/M01 A2963 RMK AO2 P0002 T00061011,M
EKO,2024-03-31 12:29,-115.7860,40.8242,1367.00,33.00,31.00,92.25,210.00,6.00,0.02,29.56,M,0.75,M,VV ,M,M,M,900.00,M,M,M,-SN BR,M,M,M,M,M,M,26.73,KEKO 311229Z AUTO 21006KT 3/4SM -SN BR VV009 01/M01 A2956 RMK AO2 P0002 T00061006,M
05U,2024-03-31 12:30,-116.0051,39.6042,1811.23,24.80,24.80,100.00,320.00,4.00,0.00,29.62,M,10.00,M,FEW,BKN,M,M,4400.00,5000.00,M,M,M,M,M,M,M,M,M,19.01,K05U 311230Z AUTO 32004KT 10SM FEW044 BKN050 M04/M04 A2962 RMK A01,M
HTH,2024-03-31 12:30,-118.6315,38.5448,1282.89,33.80,33.80,100.00,100.00,3.00,0.00,29.67,M,10.00,M,OVC,M,M,M,7500.00,M,M,M,M,M,M,M,M,M,M,30.75,KHTH 311230Z AUTO 10003KT 10SM OVC075 01/01 A2967 RMK A01,M
LOL,2024-03-31 12:31,-118.5701,40.0684,1192.43,34.00,33.00,96.08,M,5.00,0.01,29.65,M,6.00,M,OVC,M,M,M,400.00,M,M,M,-RA BR,M,M,M,M,M,M,28.77,KLOL 311231Z AUTO VRB05KT 6SM -RA BR OVC004 01/01 A2965 RMK AO2 P0001 T00110006,M
BVU,2024-03-31 12:35,-114.8611,35.9475,671.00,41.00,39.20,93.24,0.00,0.00,0.00,29.74,M,10.00,M,CLR,M,M,M,M,M,M,M,M,M,M,M,M,M,M,41.00,KBVU 311235Z AUTO 00000KT 10SM CLR 05/04 A2974 RMK AO2,M
CXP,2024-03-31 12:35,-119.7326,39.1923,1431.00,33.80,32.00,93.03,0.00,0.00,0.00,29.71,M,1.00,M,OVC,M,M,M,300.00,M,M,M,-SN BR,M,M,M,M,M,M,33.80,KCXP 311235Z AUTO 00000KT 1SM -SN BR OVC003 01/M00 A2971 RMK AO2,M
RTS,2024-03-31 12:35,-119.8764,39.6682,1539.00,33.80,32.00,93.03,290.00,11.00,0.00,29.67,M,10.00,M,FEW,BKN,OVC,M,3300.00,5500.00,7000.00,M,M,M,M,M,M,M,M,24.74,KRTS 311235Z AUTO 29011KT 10SM FEW033 BKN055 OVC070 01/00 A2967 RMK AO2,M
MEV,2024-03-31 12:35,-119.7500,38.9963,1441.42,32.00,32.00,100.00,110.00,9.00,0.00,29.70,M,9.00,15.00,SCT,OVC,M,M,2700.00,3400.00,M,M,-SN,M,M,M,M,M,M,23.51,KMEV 311235Z AUTO 11009G15KT 9SM -SN SCT027 OVC034 00/M00 A2970 RMK AO2,M
10U,2024-03-31 12:35,-116.1876,41.9532,1637.00,33.80,30.20,86.49,30.00,14.00,0.00,29.58,M,8.00,M,FEW,SCT,BKN,M,1900.00,3100.00,3700.00,M,UP,M,M,M,M,M,M,23.48,K10U 311235Z AUTO 03014KT 8SM UP FEW019 SCT031 BKN037 01/M01 A2958 RMK AO2,M
BAM,2024-03-31 12:35,-116.8743,40.5990,1382.36,35.60,33.80,93.08,230.00,12.00,0.00,29.61,M,10.00,M,SCT,BKN,OVC,M,1300.00,1800.00,2800.00,M,M,M,M,M,M,M,M,26.58,KBAM 311235Z AUTO 23012KT 10SM SCT013 BKN018 OVC028 02/01 A2961 RMK AO1,M
TMT,2024-03-31 12:35,-117.1971,39.4643,1749.34,30.00,27.70,91.02,210.00,7.00,0.00,29.62,M,10.00,M,BKN,M,M,M,5000.00,M,M,M,M,M,M,M,M,M,M,22.34,KTMT 311235Z AUTO 21007KT 10SM BKN050 M01/M02 A2962 RMK AO2 T10111024,M
RNO,2024-03-31 12:36,-119.7711,39.4839,1341.00,34.00,32.00,92.29,130.00,6.00,T,29.68,M,3.00,M,SCT,BKN,OVC,M,2500.00,3100.00,4000.00,M,-SN,M,M,M,M,M,M,27.94,KRNO 311236Z 13006KT 3SM -SN SCT025 BKN031 OVC040 01/00 A2968 RMK AO2 P0000 T00110000 $,M
EKO,2024-03-31 12:47,-115.7860,40.8242,1367.00,33.00,31.00,92.25,210.00,6.00,0.07,29.56,M,1.25,M,OVC,M,M,M,800.00,M,M,M,-SN BR,M,M,M,M,M,M,26.73,KEKO 311247Z AUTO 21006KT 1 1/4SM -SN BR OVC008 01/M01 A2956 RMK AO2 P0007 T00061006,M
05U,2024-03-31 12:50,-116.0051,39.6042,1811.23,24.80,23.00,92.74,340.00,4.00,0.00,29.62,M,10.00,M,FEW,M,M,M,4400.00,M,M,M,M,M,M,M,M,M,M,19.01,K05U 311250Z AUTO 34004KT 10SM FEW044 M04/M05 A2962 RMK A01,M
P68,2024-03-31 12:53,-116.0056,39.6014,1993.00,24.00,23.00,95.89,180.00,5.00,0.00,29.59,1001.50,M,M,M,M,M,M,M,M,M,M,M,M,M,M,M,M,M,16.89,KP68 311253Z AUTO 18005KT M04/M05 A2959 RMK AO1 SLP015 T10441050,M
DRA,2024-03-31 12:53,-116.0278,36.6206,1009.00,40.00,35.00,82.15,320.00,4.00,0.00,29.72,1005.20,10.00,M,BKN,OVC,M,M,3600.00,4300.00,M,M,M,M,M,M,M,M,M,36.76,KDRA 311253Z AUTO 32004KT 10SM BKN036 OVC043 04/02 A2972 RMK AO2 SLP052 T00440017,M
ELY,2024-03-31 12:53,-114.8453,39.2950,1909.00,30.00,23.00,74.87,170.00,8.00,0.00,29.60,1001.30,10.00,M,OVC,M,M,M,5500.00,M,M,M,M,M,M,M,M,M,M,21.65,KELY 311253Z AUTO 17008KT 10SM OVC055 M01/M05 A2960 RMK AO2 SLP013 T10111050,M
VGT,2024-03-31 12:53,-115.1933,36.2111,667.00,43.00,40.00,89.06,350.00,4.00,0.00,29.74,1008.90,10.00,M,CLR,M,M,M,M,M,M,M,M,M,M,M,M,M,M,40.27,KVGT 311253Z 35004KT 10SM CLR 06/04 A2974 RMK AO2 SLP089 T00610044,M
LOL,2024-03-31 12:53,-118.5701,40.0684,1192.43,34.00,34.00,100.00,120.00,3.00,0.01,29.65,1004.20,9.00,M,OVC,M,M,M,600.00,M,M,M,-RA,M,M,M,M,M,M,30.97,KLOL 311253Z AUTO 12003KT 9SM -RA OVC006 01/01 A2965 RMK AO2 SLP042 P0001 T00110011,M
BVU,2024-03-31 12:55,-114.8611,35.9475,671.00,41.00,39.20,93.24,0.00,0.00,0.00,29.74,M,10.00,M,CLR,M,M,M,M,M,M,M,M,M,M,M,M,M,M,41.00,KBVU 311255Z AUTO 00000KT 10SM CLR 05/04 A2974 RMK AO2,M
CXP,2024-03-31 12:55,-119.7326,39.1923,1431.00,32.00,32.00,100.00,0.00,0.00,0.01,29.71,M,1.50,M,BKN,BKN,OVC,M,300.00,900.00,1400.00,M,-SN BR,M,M,M,M,M,M,32.00,KCXP 311255Z AUTO 00000KT 1 1/2SM -SN BR BKN003 BKN009 OVC014 00/M00 A2971 RMK AO2 P0001 VIS 1V1 3/4,M
INS,2024-03-31 12:55,-115.6733,36.5872,955.00,41.00,38.30,90.02,0.00,0.00,0.00,29.73,1005.90,10.00,M,OVC,M,M,M,5500.00,M,M,M,M,M,M,M,M,M,M,41.00,KINS 311255Z AUTO 00000KT 10SM OVC055 05/04 A2973 RMK AO2 SLP059 T00500035 $,M
RNO,2024-03-31 12:55,-119.7711,39.4839,1341.00,34.00,32.00,92.29,130.00,4.00,T,29.68,1005.30,6.00,M,FEW,BKN,OVC,M,300.00,3600.00,6000.00,M,-SN,M,M,M,M,M,M,29.76,KRNO 311255Z 13004KT 6SM -SN FEW003 BKN036 OVC060 01/00 A2968 RMK AO2 RAB48E53 SLP053 P0000 T00110000 $,M
RTS,2024-03-31 12:55,-119.8764,39.6682,1539.00,33.80,32.00,93.03,270.00,10.00,0.03,29.68,M,10.00,M,FEW,SCT,BKN,M,3800.00,5500.00,6500.00,M,M,M,M,M,M,M,M,25.23,KRTS 311255Z AUTO 27010KT 10SM FEW038 SCT055 BKN065 01/00 A2968 RMK AO2 P0003,M
MEV,2024-03-31 12:55,-119.7500,38.9963,1441.42,32.00,32.00,100.00,120.00,6.00,0.00,29.71,M,1.00,M,BKN,OVC,M,M,300.00,900.00,M,M,-SN BR,M,M,M,M,M,M,25.53,KMEV 311255Z AUTO 12006KT 1SM -SN BR BKN003 OVC009 00/M00 A2971 RMK AO2,M
HTH,2024-03-31 12:55,-118.6315,38.5448,1282.89,33.80,33.80,100.00,290.00,6.00,0.00,29.68,M,10.00,M,FEW,OVC,M,M,6500.00,7500.00,M,M,M,M,M,M,M,M,M,27.70,KHTH 311255Z AUTO 29006KT 10SM FEW065 OVC075 01/01 A2968 RMK A01,M
10U,2024-03-31 12:55,-116.1876,41.9532,1637.00,33.80,30.20,86.49,30.00,11.00,0.00,29.59,M,10.00,21.00,FEW,OVC,M,M,4400.00,5500.00,M,M,UP,M,M,M,M,M,M,24.74,K10U 311255Z AUTO 03011G21KT 10SM UP FEW044 OVC055 01/M01 A2959 RMK AO2,M
BAM,2024-03-31 12:55,-116.8743,40.5990,1382.36,35.60,33.80,93.08,220.00,11.00,0.00,29.61,M,7.00,15.00,OVC,M,M,M,1600.00,M,M,M,M,M,M,M,M,M,M,27.02,KBAM 311255Z AUTO 22011G15KT 7SM OVC016 02/01 A2961 RMK AO1,M
TMT,2024-03-31 12:55,-117.1971,39.4643,1749.34,30.00,27.70,91.02,220.00,7.00,0.00,29.63,M,10.00,M,BKN,M,M,M,4800.00,M,M,M,M,M,M,M,M,M,M,22.34,KTMT 311255Z AUTO 22007KT 10SM BKN048 M01/M02 A2963 RMK AO2 T10111024,M
LSV,2024-03-31 12:55,-115.0343,36.2362,570.00,42.80,39.60,88.36,0.00,0.00,0.00,29.72,1006.20,10.00,M,CLR,M,M,M,M,M,M,M,M,M,M,M,M,M,M,42.80,KLSV 311255Z AUTO 00000KT 10SM CLR 06/04 A2972 RMK AO2 SLP062 T00600042 $,M
EKO,2024-03-31 12:56,-115.7860,40.8242,1367.00,33.00,31.00,92.25,210.00,6.00,0.07,29.56,1000.70,1.50,M,OVC,M,M,M,800.00,M,M,M,-SN BR,M,M,M,M,M,M,26.73,KEKO 311256Z AUTO 21006KT 1 1/2SM -SN BR OVC008 01/M01 A2956 RMK AO2 SLP007 P0007 T00061006,M
WMC,2024-03-31 12:56,-117.8072,40.9019,1315.00,33.00,30.00,88.58,0.00,0.00,0.06,29.63,1002.70,1.25,M,OVC,M,M,M,1000.00,M,M,M,-SN BR,M,M,M,M,M,M,33.00,KWMC 311256Z AUTO 00000KT 1 1/4SM -SN BR OVC010 01/M01 A2963 RMK AO2 SLP027 P0006 T00061011,M
NFL,2024-03-31 12:56,-118.7010,39.4166,1199.00,36.00,33.00,88.73,220.00,9.00,T,29.66,1002.60,6.00,M,OVC,M,M,M,1200.00,M,M,M,UP BR,M,M,M,M,M,M,28.49,KNFL 311256Z AUTO 22009KT 6SM UP BR OVC012 02/01 A2966 RMK AO2 SLP026 P0000 T00220006,M
HND,2024-03-31 12:56,-115.1344,35.9729,742.79,40.00,36.00,85.48,230.00,5.00,0.00,29.75,1009.80,10.00,M,CLR,M,M,M,M,M,M,M,M,M,M,M,M,M,M,35.90,KHND 311256Z AUTO 23005KT 10SM CLR 04/02 A2975 RMK AO2 SLP098 T00440022,M
TPH,2024-03-31 12:56,-117.0904,38.0505,1654.00,32.00,29.00,88.53,190.00,7.00,0.00,29.67,1004.40,10.00,M,SCT,BKN,OVC,M,4100.00,5000.00,7000.00,M,M,M,M,M,M,M,M,24.78,KTPH 311256Z AUTO 19007KT 10SM SCT041 BKN050 OVC070 00/M02 A2967 RMK AO2 SLP044 T00001017,M
LAS,2024-03-31 12:56,-115.1634,36.0719,663.00,41.00,39.00,92.52,230.00,3.00,0.00,29.74,1007.20,10.00,M,FEW,FEW,M,M,4500.00,10000.00,M,M,M,M,M,M,M,M,M,38.98,KLAS 311256Z 23003KT 10SM FEW045 FEW100 05/04 A2974 RMK AO2 SLP072 T00500039,M
WMC,2024-03-31 13:05,-117.8072,40.9019,1315.00,33.00,30.00,88.58,0.00,0.00,0.02,29.63,M,1.00,M,VV ,M,M,M,900.00,M,M,M,-SN BR,M,M,M,M,M,M,33.00,KWMC 311305Z AUTO 00000KT 1SM -SN BR VV009 01/M01 A2963 RMK AO2 P0002 T00061011,M
RNO,2024-03-31 13:05,-119.7711,39.4839,1341.00,34.00,32.00,92.29,140.00,6.00,T,29.68,M,9.00,M,FEW,BKN,OVC,M,300.00,4000.00,6000.00,M,-RA,M,M,M,M,M,M,27.94,KRNO 311305Z 14006KT 9SM -RA FEW003 BKN040 OVC060 01/00 A2968 RMK AO2 RAB05SNE05 P0000 T00110000 $,M
EKO,2024-03-31 13:08,-115.7860,40.8242,1367.00,33.00,31.00,92.25,230.00,5.00,0.01,29.57,M,1.75,M,OVC,M,M,M,1000.00,M,M,M,-SN BR,M,M,M,M,M,M,27.58,KEKO 311308Z AUTO 23005KT 1 3/4SM -SN BR OVC010 01/M01 A2957 RMK AO2 P0001 T00061006,M
LOL,2024-03-31 13:08,-118.5701,40.0684,1192.43,34.00,34.00,100.00,110.00,4.00,T,29.65,M,7.00,M,OVC,M,M,M,400.00,M,M,M,M,M,M,M,M,M,M,29.76,KLOL 311308Z AUTO 11004KT 7SM OVC004 01/01 A2965 RMK AO2 RAE1259 P0000 T00110011,M
05U,2024-03-31 13:10,-116.0051,39.6042,1811.23,23.00,21.20,92.69,350.00,3.00,0.00,29.62,M,10.00,M,CLR,M,M,M,M,M,M,M,M,M,M,M,M,M,M,18.40,K05U 311310Z AUTO 35003KT 10SM CLR M05/M06 A2962 RMK A01,M
BVU,2024-03-31 13:15,-114.8611,35.9475,671.00,39.20,37.40,93.19,0.00,0.00,0.00,29.74,M,10.00,M,CLR,M,M,M,M,M,M,M,M,M,M,M,M,M,M,39.20,KBVU 311315Z AUTO 00000KT 10SM CLR 04/03 A2974 RMK AO2,M
CXP,2024-03-31 13:15,-119.7326,39.1923,1431.00,33.80,32.00,93.03,0.00,0.00,0.00,29.72,M,1.25,M,OVC,M,M,M,300.00,M,M,M,-SN BR,M,M,M,M,M,M,33.80,KCXP 311315Z AUTO 00000KT 1 1/4SM -SN BR OVC003 01/00 A2972 RMK AO2 VIS 3/4V1 3/4,M
LOL,2024-03-31 13:15,-118.5701,40.0684,1192.43,34.00,34.00,100.00,80.00,6.00,T,29.65,M,8.00,M,OVC,M,M,M,600.00,M,M,M,-RA,M,M,M,M,M,M,27.94,KLOL 311315Z AUTO 08006KT 8SM -RA OVC006 01/01 A2965 RMK AO2 RAE1259B15 P0000 T00110011,M
RTS,2024-03-31 13:15,-119.8764,39.6682,1539.00,33.80,32.00,93.03,260.00,6.00,0.00,29.69,M,10.00,M,SCT,BKN,OVC,M,3300.00,6000.00,7500.00,M,M,M,M,M,M,M,M,27.70,KRTS 311315Z AUTO 26006KT 10SM SCT033 BKN060 OVC075 01/M00 A2969 RMK AO2,M
MEV,2024-03-31 13:15,-119.7500,38.9963,1441.42,32.00,32.00,100.00,110.00,8.00,0.00,29.71,M,1.50,M,OVC,M,M,M,300.00,M,M,M,-SN BR,M,M,M,M,M,M,24.11,KMEV 311315Z AUTO 11008KT 1 1/2SM -SN BR OVC003 00/M00 A2971 RMK AO2,M
HTH,2024-03-31 13:15,-118.6315,38.5448,1282.89,35.60,33.80,93.08,100.00,6.00,0.00,29.68,M,10.00,M,FEW,OVC,M,M,6000.00,7500.00,M,M,M,M,M,M,M,M,M,29.87,KHTH 311315Z AUTO 10006KT 10SM FEW060 OVC075 02/01 A2968 RMK A01,M
10U,2024-03-31 13:15,-116.1876,41.9532,1637.00,33.80,30.20,86.49,30.00,11.00,0.00,29.58,M,10.00,19.00,FEW,BKN,OVC,M,4900.00,6000.00,7000.00,M,M,M,M,M,M,M,M,24.74,K10U 311315Z AUTO 03011G19KT 10SM FEW049 BKN060 OVC070 01/M01 A2958 RMK AO2,M
BAM,2024-03-31 13:15,-116.8743,40.5990,1382.36,35.60,33.80,93.08,230.00,9.00,0.00,29.61,M,5.00,M,SCT,BKN,OVC,M,1400.00,2000.00,2500.00,M,M,M,M,M,M,M,M,27.99,KBAM 311315Z AUTO 23009KT 5SM SCT014 BKN020 OVC025 02/01 A2961 RMK AO1,M
TMT,2024-03-31 13:15,-117.1971,39.4643,1749.34,30.60,28.40,91.42,220.00,8.00,0.00,29.64,M,10.00,M,SCT,OVC,M,M,2300.00,4400.00,M,M,M,M,M,M,M,M,M,22.39,KTMT 311315Z AUTO 22008KT 10SM SCT023 OVC044 M01/M02 A2964 RMK AO2 T10081020,M
WMC,2024-03-31 13:17,-117.8072,40.9019,1315.00,33.00,30.00,88.58,340.00,3.00,0.04,29.64,M,0.75,M,VV ,M,M,M,800.00,M,M,M,-SN BR,M,M,M,M,M,M,29.83,KWMC 311317Z AUTO 34003KT 3/4SM -SN BR VV008 01/M01 A2964 RMK AO2 P0004 T00061011,M
WMC,2024-03-31 13:23,-117.8072,40.9019,1315.00,33.00,30.00,88.58,310.00,3.00,0.05,29.63,M,1.00,M,VV ,M,M,M,1000.00,M,M,M,-SN BR,M,M,M,M,M,M,29.83,KWMC 311323Z AUTO 31003KT 1SM -SN BR VV010 01/M01 A2963 RMK AO2 P0005 T00061011,M
EKO,2024-03-31 13:26,-115.7860,40.8242,1367.00,33.00,31.00,92.25,220.00,6.00,0.03,29.57,M,1.25,M,OVC,M,M,M,800.00,M,M,M,-SN BR,M,M,M,M,M,M,26.73,KEKO 311326Z AUTO 22006KT 1 1/4SM -SN BR OVC008 01/M01 A2957 RMK AO2 P0003 T00061006,M
05U,2024-03-31 13:30,-116.0051,39.6042,1811.23,23.00,21.20,92.69,10.00,5.00,0.00,29.63,M,10.00,M,FEW,M,M,M,3700.00,M,M,M,M,M,M,M,M,M,M,15.71,K05U 311330Z AUTO 01005KT 10SM FEW037 M05/M06 A2963 RMK A01,M
BAM,2024-03-31 13:35,-116.8743,40.5990,1382.36,35.60,33.80,93.08,220.00,8.00,0.00,29.61,M,7.00,M,OVC,M,M,M,1600.00,M,M,M,M,M,M,M,M,M,M,28.55,KBAM 311335Z AUTO 22008KT 7SM OVC016 02/01 A2961 RMK AO1,M
TMT,2024-03-31 13:35,-117.1971,39.4643,1749.34,30.70,28.20,90.31,220.00,7.00,0.00,29.64,M,10.00,M,SCT,OVC,M,M,3600.00,4200.00,M,M,M,M,M,M,M,M,M,23.19,KTMT 311335Z AUTO 22007KT 10SM SCT036 OVC042 M01/M02 A2964 RMK AO2 T10071021,M
BVU,2024-03-31 13:35,-114.8611,35.9475,671.00,39.20,37.40,93.19,0.00,0.00,0.00,29.75,M,10.00,M,CLR,M,M,M,M,M,M,M,M,M,M,M,M,M,M,39.20,KBVU 311335Z AUTO 00000KT 10SM CLR 04/03 A2975 RMK AO2,M
CXP,2024-03-31 13:35,-119.7326,39.1923,1431.00,32.00,32.00,100.00,0.00,0.00,0.00,29.71,M,1.50,M,OVC,M,M,M,300.00,M,M,M,-SN BR,M,M,M,M,M,M,32.00,KCXP 311335Z AUTO 00000KT 1 1/2SM -SN BR OVC003 00/M00 A2971 RMK AO2,M
RTS,2024-03-31 13:35,-119.8764,39.6682,1539.00,33.80,32.00,93.03,260.00,7.00,0.00,29.70,M,10.00,M,OVC,M,M,M,3400.00,M,M,M,M,M,M,M,M,M,M,26.97,KRTS 311335Z AUTO 26007KT 10SM OVC034 01/M00 A2970 RMK AO2,M
MEV,2024-03-31 13:35,-119.7500,38.9963,1441.42,32.00,32.00,100.00,120.00,6.00,0.00,29.71,M,8.00,M,FEW,SCT,BKN,M,300.00,2100.00,2700.00,M,UP,M,M,M,M,M,M,25.53,KMEV 311335Z AUTO 12006KT 8SM UP FEW003 SCT021 BKN027 00/M00 A2971 RMK AO2,M
HTH,2024-03-31 13:35,-118.6315,38.5448,1282.89,35.60,33.80,93.08,100.00,4.00,0.00,29.69,M,10.00,M,OVC,M,M,M,7500.00,M,M,M,M,M,M,M,M,M,M,31.62,KHTH 311335Z AUTO 10004KT 10SM OVC075 02/01 A2969 RMK A01,M
10U,2024-03-31 13:35,-116.1876,41.9532,1637.00,33.80,28.40,80.36,30.00,5.00,0.00,29.59,M,10.00,12.00,OVC,M,M,M,7000.00,M,M,M,M,M,M,M,M,M,M,28.53,K10U 311335Z AUTO 03005G12KT 10SM OVC070 01/M02 A2959 RMK AO2,M
WMC,2024-03-31 13:38,-117.8072,40.9019,1315.00,33.00,30.00,88.58,0.00,0.00,0.08,29.64,M,1.75,M,FEW,OVC,M,M,400.00,1200.00,M,M,-SN BR,M,M,M,M,M,M,33.00,KWMC 311338Z AUTO 00000KT 1 3/4SM -SN BR FEW004 OVC012 01/M01 A2964 RMK AO2 P0008 T00061011,M
NFL,2024-03-31 13:40,-118.7010,39.4166,1199.00,34.00,32.00,92.29,230.00,8.00,T,29.66,M,4.00,M,SCT,OVC,M,M,900.00,1200.00,M,M,-SN BR,M,M,M,M,M,M,26.58,KNFL 311340Z AUTO 23008KT 4SM -SN BR SCT009 OVC012 01/00 A2966 RMK AO2 UPE03SNB03 P0000 T00110000,M
LOL,2024-03-31 13:41,-118.5701,40.0684,1192.43,33.00,33.00,100.00,30.00,3.00,0.02,29.66,M,2.00,M,BKN,OVC,M,M,500.00,1200.00,M,M,-SN BR,M,M,M,M,M,M,29.83,KLOL 311341Z AUTO 03003KT 2SM -SN BR BKN005 OVC012 01/01 A2966 RMK AO2 RAE1259B15E18SNB18 P0002 T00060006,M
WMC,2024-03-31 13:46,-117.8072,40.9019,1315.00,33.00,30.00,88.58,0.00,0.00,0.09,29.64,M,2.50,M,SCT,OVC,M,M,400.00,1400.00,M,M,-SN BR,M,M,M,M,M,M,33.00,KWMC 311346Z AUTO 00000KT 2 1/2SM -SN BR SCT004 OVC014 01/M01 A2964 RMK AO2 P0009 T00061011,M
05U,2024-03-31 13:50,-116.0051,39.6042,1811.23,26.60,24.80,92.80,10.00,3.00,0.00,29.63,M,10.00,M,FEW,BKN,M,M,2800.00,3600.00,M,M,M,M,M,M,M,M,M,22.52,K05U 311350Z AUTO 01003KT 10SM FEW028 BKN036 M03/M04 A2963 RMK A01,M
WMC,2024-03-31 13:53,-117.8072,40.9019,1315.00,33.80,30.20,86.49,0.00,0.00,0.09,29.64,M,2.50,M,BKN,OVC,M,M,600.00,1600.00,M,M,-SN BR,M,M,M,M,M,M,33.80,KWMC 311353Z AUTO 00000KT 2 1/2SM -SN BR BKN006 OVC016 01/M01 A2964 RMK AO2 P0009,M
LOL,2024-03-31 13:53,-118.5701,40.0684,1192.43,32.00,32.00,100.00,0.00,0.00,0.02,29.66,1005.20,5.00,M,BKN,OVC,M,M,500.00,1200.00,M,M,-SN BR,M,M,M,M,M,M,32.00,KLOL 311353Z AUTO 00000KT 5SM -SN BR BKN005 OVC012 00/00 A2966 RMK AO2 RAE1259B15E18SNB18 SLP052 P0002 T00000000,M
P68,2024-03-31 13:53,-116.0056,39.6014,1993.00,26.00,24.00,92.01,220.00,3.00,0.00,29.60,1001.80,M,M,M,M,M,M,M,M,M,M,M,M,M,M,M,M,M,21.83,KP68 311353Z AUTO 22003KT M03/M04 A2960 RMK AO1 SLP018 T10331044,M
DRA,2024-03-31 13:53,-116.0278,36.6206,1009.00,39.00,36.00,88.87,300.00,3.00,0.00,29.73,1005.80,10.00,M,BKN,M,M,M,4200.00,M,M,M,M,M,M,M,M,M,M,36.69,KDRA 311353Z AUTO 30003KT 10SM BKN042 04/02 A2973 RMK AO2 SLP058 T00390022,M
ELY,2024-03-31 13:53,-114.8453,39.2950,1909.00,29.00,23.00,77.98,M,6.00,0.00,29.62,1002.50,10.00,17.00,BKN,OVC,M,M,4400.00,5500.00,M,M,M,M,M,M,M,M,M,21.92,KELY 311353Z AUTO VRB06G17KT 10SM BKN044 OVC055 M02/M05 A2962 RMK AO2 SLP025 T10171050,M
VGT,2024-03-31 13:53,-115.1933,36.2111,667.00,43.00,40.00,89.06,340.00,4.00,0.00,29.75,1009.20,10.00,M,CLR,M,M,M,M,M,M,M,M,M,M,M,M,M,M,40.27,KVGT 311353Z 34004KT 10SM CLR 06/04 A2975 RMK AO2 SLP092 T00610044,M
RNO,2024-03-31 13:55,-119.7711,39.4839,1341.00,35.00,32.00,88.68,0.00,0.00,T,29.70,1005.80,10.00,M,BKN,M,M,M,4000.00,M,M,M,M,M,M,M,M,M,M,35.00,KRNO 311355Z 00000KT 10SM BKN040 02/00 A2970 RMK AO2 RAB05E28SNE05 SLP058 P0000 T00170000 $,M
LSV,2024-03-31 13:55,-115.0343,36.2362,570.00,41.40,39.00,91.10,40.00,4.00,0.00,29.73,1006.70,10.00,M,CLR,M,M,M,M,M,M,M,M,M,M,M,M,M,M,38.40,KLSV 311355Z AUTO 04004KT 10SM CLR 05/04 A2973 RMK AO2 SLP067 T00520039 $,M
RTS,2024-03-31 13:55,-119.8764,39.6682,1539.00,33.80,30.20,86.49,270.00,4.00,0.02,29.71,M,10.00,M,BKN,OVC,M,M,3600.00,4200.00,M,M,M,M,M,M,M,M,M,29.52,KRTS 311355Z AUTO 27004KT 10SM BKN036 OVC042 01/M01 A2971 RMK AO2 P0002,M
MEV,2024-03-31 13:55,-119.7500,38.9963,1441.42,32.00,32.00,100.00,120.00,8.00,0.00,29.72,M,1.25,M,BKN,BKN,OVC,M,500.00,2100.00,2800.00,M,-SN BR,M,M,M,M,M,M,24.11,KMEV 311355Z AUTO 12008KT 1 1/4SM -SN BR BKN005 BKN021 OVC028 00/M00 A2972 RMK AO2,M
HTH,2024-03-31 13:55,-118.6315,38.5448,1282.89,35.60,33.80,93.08,230.00,5.00,0.00,29.69,M,10.00,M,OVC,M,M,M,7000.00,M,M,M,M,M,M,M,M,M,M,30.67,KHTH 311355Z AUTO 23005KT 10SM OVC070 02/01 A2969 RMK A01,M
10U,2024-03-31 13:55,-116.1876,41.9532,1637.00,33.80,28.40,80.36,340.00,5.00,0.00,29.59,M,10.00,M,OVC,M,M,M,7000.00,M,M,M,M,M,M,M,M,M,M,28.53,K10U 311355Z AUTO 34005KT 10SM OVC070 01/M02 A2959 RMK AO2,M
BVU,2024-03-31 13:55,-114.8611,35.9475,671.00,41.00,39.20,93.24,320.00,5.00,0.00,29.75,M,10.00,M,CLR,M,M,M,M,M,M,M,M,M,M,M,M,M,M,37.08,KBVU 311355Z AUTO 32005KT 10SM CLR 05/04 A2975 RMK AO2,M
CXP,2024-03-31 13:55,-119.7326,39.1923,1431.00,33.80,32.00,93.03,0.00,0.00,0.02,29.72,M,2.50,M,SCT,BKN,OVC,M,400.00,1800.00,4400.00,M,-SN BR,M,M,M,M,M,M,33.80,KCXP 311355Z AUTO 00000KT 2 1/2SM -SN BR SCT004 BKN018 OVC044 01/00 A2972 RMK AO2 P0002 VIS 1 1/4V5,M
INS,2024-03-31 13:55,-115.6733,36.5872,955.00,40.30,37.00,87.89,0.00,0.00,0.00,29.74,1006.20,10.00,M,CLR,M,M,M,M,M,M,M,M,M,M,M,M,M,M,40.30,KINS 311355Z AUTO 00000KT 10SM CLR 05/03 A2974 RMK AO2 SLP062 T00460028 $,M
BAM,2024-03-31 13:55,-116.8743,40.5990,1382.36,33.80,33.80,100.00,240.00,7.00,0.00,29.62,M,1.75,M,BKN,OVC,M,M,500.00,1200.00,M,M,M,M,M,M,M,M,M,26.97,KBAM 311355Z AUTO 24007KT 1 3/4SM BKN005 OVC012 01/01 A2962 RMK AO1,M
TMT,2024-03-31 13:55,-117.1971,39.4643,1749.34,30.60,28.40,91.42,220.00,6.00,0.00,29.64,M,10.00,M,SCT,BKN,OVC,M,3000.00,4000.00,4700.00,M,M,M,M,M,M,M,M,23.84,KTMT 311355Z AUTO 22006KT 10SM SCT030 BKN040 OVC047 M01/M02 A2964 RMK AO2 T10081020,M
WMC,2024-03-31 13:56,-117.8072,40.9019,1315.00,33.00,30.00,88.58,0.00,0.00,0.09,29.64,1003.50,4.00,M,BKN,OVC,M,M,600.00,1600.00,M,M,-SN BR,M,M,M,M,M,M,33.00,KWMC 311356Z AUTO 00000KT 4SM -SN BR BKN006 OVC016 01/M01 A2964 RMK AO2 SLP035 P0009 T00061011,M
NFL,2024-03-31 13:56,-118.7010,39.4166,1199.00,34.00,32.00,92.29,230.00,6.00,0.01,29.67,1002.90,4.00,M,OVC,M,M,M,1100.00,M,M,M,-SN BR,M,M,M,M,M,M,27.94,KNFL 311356Z AUTO 23006KT 4SM -SN BR OVC011 01/00 A2967 RMK AO2 UPE03SNB03 SLP029 P0001 T00110000,M
HND,2024-03-31 13:56,-115.1344,35.9729,742.79,41.00,35.00,79.02,220.00,6.00,0.00,29.76,1010.20,10.00,M,FEW,M,M,M,6000.00,M,M,M,M,M,M,M,M,M,M,36.37,KHND 311356Z 22006KT 10SM FEW060 05/02 A2976 RMK AO2 SLP102 T00500017,M
TPH,2024-03-31 13:56,-117.0904,38.0505,1654.00,32.00,29.00,88.53,180.00,5.00,T,29.68,1005.00,10.00,M,BKN,OVC,M,M,5000.00,8500.00,M,M,M,M,M,M,M,M,M,26.40,KTPH 311356Z AUTO 18005KT 10SM BKN050 OVC085 00/M02 A2968 RMK AO2 SNB21E31 SLP050 P0000 T00001017,M
LAS,2024-03-31 13:56,-115.1634,36.0719,663.00,41.00,39.00,92.52,280.00,4.00,0.00,29.75,1007.50,10.00,M,FEW,FEW,M,M,6000.00,10000.00,M,M,M,M,M,M,M,M,M,37.93,KLAS 311356Z 28004KT 10SM FEW060 FEW100 05/04 A2975 RMK AO2 SLP075 T00500039,M
EKO,2024-03-31 13:56,-115.7860,40.8242,1367.00,33.00,32.00,96.06,220.00,9.00,0.06,29.57,1001.00,1.00,M,VV ,M,M,M,700.00,M,M,M,-SN BR,M,M,M,M,M,M,24.76,KEKO 311356Z AUTO 22009KT 1SM -SN BR VV007 01/00 A2957 RMK AO2 SLP010 P0006 T00060000,M
LOL,2024-03-31 14:00,-118.5701,40.0684,1192.43,32.00,32.00,100.00,0.00,0.00,0.01,29.67,M,2.50,M,SCT,OVC,M,M,500.00,1400.00,M,M,-SN BR,M,M,M,M,M,M,32.00,KLOL 311400Z AUTO 00000KT 2 1/2SM -SN BR SCT005 OVC014 00/00 A2967 RMK AO2 P0001 T00000000,M
EKO,2024-03-31 14:04,-115.7860,40.8242,1367.00,33.00,32.00,96.06,220.00,8.00,0.01,29.57,M,0.50,M,VV ,M,M,M,700.00,M,M,M,SN FG,M,M,M,M,M,M,25.34,KEKO 311404Z AUTO 22008KT 1/2SM SN FG VV007 01/00 A2957 RMK AO2 P0001 T00060000,M
LOL,2024-03-31 14:10,-118.5701,40.0684,1192.43,32.00,32.00,100.00,0.00,0.00,0.01,29.67,M,3.00,M,FEW,OVC,M,M,500.00,2000.00,M,M,-SN BR,M,M,M,M,M,M,32.00,KLOL 311410Z AUTO 00000KT 3SM -SN BR FEW005 OVC020 00/00 A2967 RMK AO2 P0001 T00000000,M
05U,2024-03-31 14:10,-116.0051,39.6042,1811.23,28.40,26.60,92.86,330.00,5.00,0.00,29.64,M,10.00,M,SCT,OVC,M,M,2900.00,3700.00,M,M,M,M,M,M,M,M,M,22.12,K05U 311410Z AUTO 33005KT 10SM SCT029 OVC037 M02/M03 A2964 RMK A01,M
BVU,2024-03-31 14:15,-114.8611,35.9475,671.00,42.80,39.20,86.99,290.00,3.00,0.00,29.76,M,10.00,M,CLR,M,M,M,M,M,M,M,M,M,M,M,M,M,M,41.03,KBVU 311415Z AUTO 29003KT 10SM CLR 06/04 A2976 RMK AO2,M
CXP,2024-03-31 14:15,-119.7326,39.1923,1431.00,33.80,32.00,93.03,320.00,4.00,0.00,29.74,M,5.00,M,FEW,SCT,OVC,M,1100.00,1900.00,4400.00,M,-SN BR,M,M,M,M,M,M,29.52,KCXP 311415Z AUTO 32004KT 5SM -SN BR FEW011 SCT019 OVC044 01/00 A2974 RMK AO2,M
RTS,2024-03-31 14:15,-119.8764,39.6682,1539.00,33.80,30.20,86.49,310.00,7.00,0.00,29.71,M,10.00,M,FEW,SCT,BKN,M,3200.00,4100.00,5000.00,M,M,M,M,M,M,M,M,26.97,KRTS 311415Z AUTO 31007KT 10SM FEW032 SCT041 BKN050 01/M01 A2971 RMK AO2,M
MEV,2024-03-31 14:15,-119.7500,38.9963,1441.42,32.00,32.00,100.00,130.00,7.00,0.00,29.73,M,2.50,M,BKN,BKN,OVC,M,400.00,2100.00,3800.00,M,-SN BR,M,M,M,M,M,M,24.78,KMEV 311415Z AUTO 13007KT 2 1/2SM -SN BR BKN004 BKN021 OVC038 00/M00 A2973 RMK AO2 VIS 1 1/4V5,M
HTH,2024-03-31 14:15,-118.6315,38.5448,1282.89,35.60,33.80,93.08,300.00,4.00,0.00,29.69,M,10.00,M,FEW,FEW,OVC,M,4200.00,5000.00,7000.00,M,M,M,M,M,M,M,M,31.62,KHTH 311415Z AUTO 30004KT 10SM FEW042 FEW050 OVC070 02/01 A2969 RMK A01,M
10U,2024-03-31 14:15,-116.1876,41.9532,1637.00,33.80,28.40,80.36,0.00,0.00,0.00,29.59,M,10.00,M,OVC,M,M,M,7000.00,M,M,M,M,M,M,M,M,M,M,33.80,K10U 311415Z AUTO 00000KT 10SM OVC070 01/M02 A2959 RMK AO2,M
BAM,2024-03-31 14:15,-116.8743,40.5990,1382.36,33.80,33.80,100.00,250.00,5.00,0.00,29.63,M,0.75,M,OVC,M,M,M,1000.00,M,M,M,M,M,M,M,M,M,M,28.53,KBAM 311415Z AUTO 25005KT 3/4SM OVC010 01/01 A2963 RMK AO1,M
TMT,2024-03-31 14:15,-117.1971,39.4643,1749.34,30.70,28.40,91.05,220.00,8.00,0.00,29.64,M,10.00,M,OVC,M,M,M,4600.00,M,M,M,M,M,M,M,M,M,M,22.51,KTMT 311415Z AUTO 22008KT 10SM OVC046 M01/M02 A2964 RMK AO2 T10071020,M
05U,2024-03-31 14:30,-116.0051,39.6042,1811.23,28.40,26.60,92.86,340.00,4.00,0.00,29.64,M,10.00,M,OVC,M,M,M,3800.00,M,M,M,M,M,M,M,M,M,M,23.22,K05U 311430Z AUTO 34004KT 10SM OVC038 M02/M03 A2964 RMK A01,M
BAM,2024-03-31 14:35,-116.8743,40.5990,1382.36,33.80,33.80,100.00,260.00,5.00,0.00,29.63,M,0.75,M,OVC,M,M,M,1000.00,M,M,M,M,M,M,M,M,M,M,28.53,KBAM 311435Z AUTO 26005KT 3/4SM OVC010 01/01 A2963 RMK AO1,M
BVU,2024-03-31 14:35,-114.8611,35.9475,671.00,44.60,41.00,87.09,0.00,0.00,0.00,29.76,M,10.00,M,CLR,M,M,M,M,M,M,M,M,M,M,M,M,M,M,44.60,KBVU 311435Z AUTO 00000KT 10SM CLR 07/05 A2976 RMK AO2,M
CXP,2024-03-31 14:35,-119.7326,39.1923,1431.00,33.80,32.00,93.03,0.00,0.00,0.00,29.74,M,9.00,M,FEW,OVC,M,M,1300.00,4400.00,M,M,-SN,M,M,M,M,M,M,33.80,KCXP 311435Z AUTO 00000KT 9SM -SN FEW013 OVC044 01/00 A2974 RMK AO2,M
RTS,2024-03-31 14:35,-119.8764,39.6682,1539.00,32.00,30.20,92.97,310.00,7.00,0.00,29.72,M,10.00,M,CLR,M,M,M,M,M,M,M,M,M,M,M,M,M,M,24.78,KRTS 311435Z AUTO 31007KT 10SM CLR 00/M01 A2972 RMK AO2,M
MEV,2024-03-31 14:35,-119.7500,38.9963,1441.42,32.00,32.00,100.00,130.00,6.00,0.00,29.73,M,8.00,M,FEW,BKN,OVC,M,2900.00,3900.00,5500.00,M,-SN,M,M,M,M,M,M,25.53,KMEV 311435Z AUTO 13006KT 8SM -SN FEW029 BKN039 OVC055 00/M00 A2973 RMK AO2,M
HTH,2024-03-31 14:35,-118.6315,38.5448,1282.89,35.60,33.80,93.08,280.00,4.00,0.00,29.69,M,10.00,M,FEW,BKN,M,M,5500.00,7000.00,M,M,M,M,M,M,M,M,M,31.62,KHTH 311435Z AUTO 28004KT 10SM FEW055 BKN070 02/01 A2969 RMK A01,M
TMT,2024-03-31 14:35,-117.1971,39.4643,1749.34,31.00,28.60,90.69,220.00,6.00,0.00,29.64,M,10.00,M,BKN,OVC,M,M,3800.00,4600.00,M,M,M,M,M,M,M,M,M,24.33,KTMT 311435Z AUTO 22006KT 10SM BKN038 OVC046 00/M02 A2964 RMK AO2 T10051019,M
10U,2024-03-31 14:35,-116.1876,41.9532,1637.00,33.80,30.20,86.49,0.00,0.00,0.00,29.59,M,10.00,M,BKN,OVC,M,M,7000.00,8500.00,M,M,M,M,M,M,M,M,M,33.80,K10U 311435Z AUTO 00000KT 10SM BKN070 OVC085 01/M01 A2959 RMK AO2,M
NFL,2024-03-31 14:42,-118.7010,39.4166,1199.00,36.00,33.00,88.73,280.00,12.00,T,29.68,M,8.00,M,OVC,M,M,M,900.00,M,M,M,UP,M,M,M,M,M,M,27.09,KNFL 311442Z AUTO 28012KT 8SM UP OVC009 02/01 A2968 RMK AO2 UPB08SNE08 P0000 T00220006,M
WMC,2024-03-31 14:47,-117.8072,40.9019,1315.00,34.00,31.00,88.63,330.00,3.00,0.01,29.65,M,10.00,M,SCT,OVC,M,M,900.00,7500.00,M,M,M,M,M,M,M,M,M,30.97,KWMC 311447Z AUTO 33003KT 10SM SCT009 OVC075 01/M01 A2965 RMK AO2 SNE04 P0001 T00111006,M
05U,2024-03-31 14:50,-116.0051,39.6042,1811.23,28.40,26.60,92.86,350.00,3.00,0.00,29.64,M,10.00,M,BKN,OVC,M,M,3500.00,4100.00,M,M,M,M,M,M,M,M,M,24.57,K05U 311450Z AUTO 35003KT 10SM BKN035 OVC041 M02/M03 A2964 RMK A01,M
P68,2024-03-31 14:53,-116.0056,39.6014,1993.00,28.00,26.00,92.08,180.00,4.00,0.00,29.61,1002.20,M,M,M,M,M,M,M,M,M,M,M,M,M,M,M,M,M,22.75,KP68 311453Z AUTO 18004KT M02/M03 A2961 RMK AO1 SLP022 T10221033 53006,M
DRA,2024-03-31 14:53,-116.0278,36.6206,1009.00,42.00,36.00,79.11,0.00,0.00,0.00,29.74,1005.90,10.00,M,BKN,M,M,M,4500.00,M,M,M,M,M,M,M,M,M,M,42.00,KDRA 311453Z AUTO 00000KT 10SM BKN045 06/02 A2974 RMK AO2 SLP059 T00560022 53008,M
ELY,2024-03-31 14:53,-114.8453,39.2950,1909.00,30.00,24.00,78.07,200.00,10.00,0.00,29.62,1002.40,10.00,M,FEW,M,M,M,3400.00,M,M,M,M,M,M,M,M,M,M,20.46,KELY 311453Z AUTO 20010KT 10SM FEW034 M01/M04 A2962 RMK AO2 SLP024 T10111044 50008,M
VGT,2024-03-31 14:53,-115.1933,36.2111,667.00,46.00,41.00,82.58,0.00,0.00,0.00,29.76,1009.70,10.00,M,SCT,M,M,M,6000.00,M,M,M,M,M,M,M,M,M,M,46.00,KVGT 311453Z 00000KT 10SM SCT060 08/05 A2976 RMK AO2 SLP097 T00780050 53008,M
LOL,2024-03-31 14:53,-118.5701,40.0684,1192.43,34.00,33.00,96.08,0.00,0.00,0.01,29.67,1005.20,10.00,M,BKN,OVC,M,M,1800.00,5000.00,M,M,M,M,M,M,M,M,M,34.00,KLOL 311453Z AUTO 00000KT 10SM BKN018 OVC050 01/01 A2967 RMK AO2 SNE35 SLP052 P0001 60004 T00110006 51007,M
BVU,2024-03-31 14:55,-114.8611,35.9475,671.00,44.60,39.20,81.20,0.00,0.00,0.00,29.77,M,10.00,M,CLR,M,M,M,M,M,M,M,M,M,M,M,M,M,M,44.60,KBVU 311455Z AUTO 00000KT 10SM CLR 07/04 A2977 RMK AO2,M
CXP,2024-03-31 14:55,-119.7326,39.1923,1431.00,33.80,32.00,93.03,0.00,0.00,0.00,29.75,M,6.00,M,SCT,OVC,M,M,1300.00,4300.00,M,M,-SN BR,M,M,M,M,M,M,33.80,KCXP 311455Z AUTO 00000KT 6SM -SN BR SCT013 OVC043 01/00 A2975 RMK AO2,M
INS,2024-03-31 14:55,-115.6733,36.5872,955.00,41.00,38.00,88.97,0.00,0.00,0.00,29.74,1006.20,10.00,M,SCT,M,M,M,5500.00,M,M,M,M,M,M,M,M,M,M,41.00,KINS 311455Z AUTO 00000KT 10SM SCT055 05/03 A2974 RMK AO2 SLP062 T00500033 52008 $,M
RNO,2024-03-31 14:55,-119.7711,39.4839,1341.00,37.00,33.00,85.29,0.00,0.00,0.00,29.72,1006.40,10.00,M,BKN,M,M,M,5000.00,M,M,M,M,M,M,M,M,M,M,37.00,KRNO 311455Z 00000KT 10SM BKN050 03/01 A2972 RMK AO2 SLP064 60000 T00280006 53015 $,M
RTS,2024-03-31 14:55,-119.8764,39.6682,1539.00,33.80,30.20,86.49,10.00,6.00,0.00,29.72,M,10.00,M,SCT,M,M,M,7000.00,M,M,M,M,M,M,M,M,M,M,27.70,KRTS 311455Z AUTO 01006KT 10SM SCT070 01/M01 A2972 RMK AO2,M
MEV,2024-03-31 14:55,-119.7500,38.9963,1441.42,32.00,32.00,100.00,130.00,4.00,0.01,29.74,M,9.00,M,OVC,M,M,M,5000.00,M,M,M,UP,M,M,M,M,M,M,27.42,KMEV 311455Z AUTO 13004KT 9SM UP OVC050 00/M00 A2974 RMK AO2 P0001,M
HTH,2024-03-31 14:55,-118.6315,38.5448,1282.89,37.40,33.80,86.69,0.00,0.00,0.00,29.70,M,10.00,M,SCT,M,M,M,7000.00,M,M,M,M,M,M,M,M,M,M,37.40,KHTH 311455Z AUTO 00000KT 10SM SCT070 03/01 A2970 RMK A01,M
10U,2024-03-31 14:55,-116.1876,41.9532,1637.00,33.80,30.20,86.49,0.00,0.00,0.00,29.59,M,10.00,M,SCT,OVC,M,M,6000.00,8000.00,M,M,M,M,M,M,M,M,M,33.80,K10U 311455Z AUTO 00000KT 10SM SCT060 OVC080 01/M01 A2959 RMK AO2,M
BAM,2024-03-31 14:55,-116.8743,40.5990,1382.36,33.80,33.80,100.00,250.00,4.00,0.00,29.63,M,1.25,M,SCT,OVC,M,M,400.00,1000.00,M,M,M,M,M,M,M,M,M,29.52,KBAM 311455Z AUTO 25004KT 1 1/4SM SCT004 OVC010 01/01 A2963 RMK AO1,M
TMT,2024-03-31 14:55,-117.1971,39.4643,1749.34,31.30,29.00,91.07,230.00,7.00,0.00,29.65,M,10.00,M,OVC,M,M,M,3800.00,M,M,M,M,M,M,M,M,M,M,23.93,KTMT 311455Z AUTO 23007KT 10SM OVC038 00/M02 A2965 RMK AO2 T10041016,M
LSV,2024-03-31 14:55,-115.0343,36.2362,570.00,46.00,41.50,84.19,0.00,0.00,0.00,29.74,1006.90,10.00,M,CLR,M,M,M,M,M,M,M,M,M,M,M,M,M,M,46.00,KLSV 311455Z AUTO 00000KT 10SM CLR 08/05 A2974 RMK AO2 SLP069 T00780053 52009 $,M
EKO,2024-03-31 14:56,-115.7860,40.8242,1367.00,33.00,32.00,96.06,230.00,8.00,0.07,29.57,1001.30,0.75,M,VV ,M,M,M,900.00,M,M,M,-SN BR,M,M,M,M,M,M,25.34,KEKO 311456Z AUTO 23008KT 3/4SM -SN BR VV009 01/00 A2957 RMK AO2 SLP013 P0007 60020 T00060000 53003,M
WMC,2024-03-31 14:56,-117.8072,40.9019,1315.00,34.00,32.00,92.29,340.00,3.00,0.01,29.65,1003.80,10.00,M,FEW,OVC,M,M,400.00,7500.00,M,M,M,M,M,M,M,M,M,30.97,KWMC 311456Z AUTO 34003KT 10SM FEW004 OVC075 01/00 A2965 RMK AO2 SNE04 SLP038 P0001 60016 T00110000 51005,M
NFL,2024-03-31 14:56,-118.7010,39.4166,1199.00,35.00,33.00,92.32,280.00,11.00,T,29.68,1003.40,4.00,M,BKN,OVC,M,M,800.00,1200.00,M,M,-SN BR,M,M,M,M,M,M,26.26,KNFL 311456Z AUTO 28011KT 4SM -SN BR BKN008 OVC012 02/01 A2968 RMK AO2 UPB08E48SNE08B48 SLP034 P0000 60001 T00170006 53013,M
HND,2024-03-31 14:56,-115.1344,35.9729,742.79,45.00,37.00,73.37,250.00,3.00,0.00,29.78,1010.40,10.00,M,CLR,M,M,M,M,M,M,M,M,M,M,M,M,M,M,43.55,KHND 311456Z 25003KT 10SM CLR 07/03 A2978 RMK AO2 SLP104 T00720028 53008,M
TPH,2024-03-31 14:56,-117.0904,38.0505,1654.00,33.00,30.00,88.58,180.00,5.00,0.00,29.69,1005.50,10.00,M,SCT,OVC,M,M,5500.00,7000.00,M,M,M,M,M,M,M,M,M,27.58,KTPH 311456Z AUTO 18005KT 10SM SCT055 OVC070 01/M01 A2969 RMK AO2 SLP055 60000 T00061011 53005,M
LAS,2024-03-31 14:56,-115.1634,36.0719,663.00,44.00,40.00,85.71,100.00,3.00,0.00,29.76,1007.90,10.00,M,FEW,FEW,M,M,6000.00,12000.00,M,M,M,M,M,M,M,M,M,42.41,KLAS 311456Z 10003KT 10SM FEW060 FEW120 07/04 A2976 RMK AO2 SLP079 T00670044 53007 $,M
EKO,2024-03-31 15:01,-115.7860,40.8242,1367.00,33.00,32.00,96.06,230.00,7.00,0.01,29.57,M,1.00,M,VV ,M,M,M,1000.00,M,M,M,-SN BR,M,M,M,M,M,M,26.00,KEKO 311501Z AUTO 23007KT 1SM -SN BR VV010 01/00 A2957 RMK AO2 P0001 T00060000,M
LOL,2024-03-31 15:05,-118.5701,40.0684,1192.43,34.00,33.00,96.08,0.00,0.00,0.00,29.68,M,10.00,M,SCT,BKN,OVC,M,1800.00,5000.00,12000.00,M,M,M,M,M,M,M,M,34.00,KLOL 311505Z AUTO 00000KT 10SM SCT018 BKN050 OVC120 01/01 A2968 RMK AO2 T00110006,M
EKO,2024-03-31 15:08,-115.7860,40.8242,1367.00,33.00,32.00,96.06,230.00,7.00,0.02,29.57,M,0.75,M,VV ,M,M,M,1000.00,M,M,M,-SN BR,M,M,M,M,M,M,26.00,KEKO 311508Z AUTO 23007KT 3/4SM -SN BR VV010 01/00 A2957 RMK AO2 P0002 T00060000,M
NFL,2024-03-31 15:10,-118.7010,39.4166,1199.00,34.00,32.00,92.29,280.00,10.00,T,29.69,M,2.50,M,SCT,OVC,M,M,700.00,1400.00,M,M,-SN BR,M,M,M,M,M,M,25.48,KNFL 311510Z AUTO 28010KT 2 1/2SM -SN BR SCT007 OVC014 01/00 A2969 RMK AO2 P0000 T00110000,M
05U,2024-03-31 15:10,-116.0051,39.6042,1811.23,30.20,26.60,86.28,0.00,0.00,0.00,29.64,M,10.00,M,BKN,OVC,M,M,3600.00,4200.00,M,M,M,M,M,M,M,M,M,30.20,K05U 311510Z AUTO 00000KT 10SM BKN036 OVC042 M01/M03 A2964 RMK A01,M
BVU,2024-03-31 15:15,-114.8611,35.9475,671.00,44.60,39.20,81.20,0.00,0.00,0.00,29.78,M,10.00,M,CLR,M,M,M,M,M,M,M,M,M,M,M,M,M,M,44.60,KBVU 311515Z AUTO 00000KT 10SM CLR 07/04 A2978 RMK AO2,M
CXP,2024-03-31 15:15,-119.7326,39.1923,1431.00,33.80,32.00,93.03,0.00,0.00,0.00,29.75,M,9.00,M,FEW,FEW,OVC,M,800.00,1100.00,4400.00,M,UP,M,M,M,M,M,M,33.80,KCXP 311515Z AUTO 00000KT 9SM UP FEW008 FEW011 OVC044 01/00 A2975 RMK AO2,M
RTS,2024-03-31 15:15,-119.8764,39.6682,1539.00,35.60,30.20,80.51,320.00,6.00,0.00,29.73,M,10.00,M,OVC,M,M,M,7000.00,M,M,M,M,M,M,M,M,M,M,29.87,KRTS 311515Z AUTO 32006KT 10SM OVC070 02/M01 A2973 RMK AO2,M
MEV,2024-03-31 15:15,-119.7500,38.9963,1441.42,32.00,32.00,100.00,0.00,0.00,0.00,29.75,M,8.00,M,FEW,BKN,OVC,M,1000.00,4600.00,5000.00,M,UP,M,M,M,M,M,M,32.00,KMEV 311515Z AUTO 00000KT 8SM UP FEW010 BKN046 OVC050 00/M00 A2975 RMK AO2,M
HTH,2024-03-31 15:15,-118.6315,38.5448,1282.89,37.40,33.80,86.69,0.00,0.00,0.00,29.71,M,10.00,M,SCT,M,M,M,7000.00,M,M,M,M,M,M,M,M,M,M,37.40,KHTH 311515Z AUTO 00000KT 10SM SCT070 03/01 A2971 RMK A01,M
10U,2024-03-31 15:15,-116.1876,41.9532,1637.00,33.80,28.40,80.36,0.00,0.00,0.00,29.59,M,10.00,M,OVC,M,M,M,6000.00,M,M,M,M,M,M,M,M,M,M,33.80,K10U 311515Z AUTO 00000KT 10SM OVC060 01/M02 A2959 RMK AO2,M
BAM,2024-03-31 15:15,-116.8743,40.5990,1382.36,33.80,33.80,100.00,260.00,4.00,0.00,29.64,M,0.75,M,SCT,OVC,M,M,300.00,1000.00,M,M,M,M,M,M,M,M,M,29.52,KBAM 311515Z AUTO 26004KT 3/4SM SCT003 OVC010 01/01 A2964 RMK AO1,M
TMT,2024-03-31 15:15,-117.1971,39.4643,1749.34,32.00,29.30,89.63,220.00,8.00,0.00,29.65,M,10.00,M,OVC,M,M,M,3600.00,M,M,M,-SN,M,M,M,M,M,M,24.11,KTMT 311515Z AUTO 22008KT 10SM -SN OVC036 00/M01 A2965 RMK AO2 T00001015,M
NFL,2024-03-31 15:20,-118.7010,39.4166,1199.00,34.00,32.00,92.29,270.00,7.00,T,29.69,M,1.75,M,SCT,OVC,M,M,900.00,1200.00,M,M,-SN BR,M,M,M,M,M,M,27.22,KNFL 311520Z AUTO 27007KT 1 3/4SM -SN BR SCT009 OVC012 01/00 A2969 RMK AO2 P0000 T00110000,M
EKO,2024-03-31 15:25,-115.7860,40.8242,1367.00,33.00,32.00,96.06,240.00,8.00,0.03,29.57,M,1.25,M,FEW,OVC,M,M,1000.00,1400.00,M,M,-SN BR,M,M,M,M,M,M,25.34,KEKO 311525Z AUTO 24008KT 1 1/4SM -SN BR FEW010 OVC014 01/00 A2957 RMK AO2 P0003 T00060000,M
NFL,2024-03-31 15:25,-118.7010,39.4166,1199.00,34.00,33.00,96.08,270.00,7.00,T,29.69,M,3.00,M,OVC,M,M,M,1200.00,M,M,M,-SN BR,M,M,M,M,M,M,27.22,KNFL 311525Z AUTO 27007KT 3SM -SN BR OVC012 01/01 A2969 RMK AO2 P0000 T00110006,M
LOL,2024-03-31 15:26,-118.5701,40.0684,1192.43,34.00,34.00,100.00,0.00,0.00,0.00,29.68,M,10.00,M,SCT,SCT,BKN,M,600.00,1700.00,7500.00,M,M,M,M,M,M,M,M,34.00,KLOL 311526Z AUTO 00000KT 10SM SCT006 SCT017 BKN075 01/01 A2968 RMK AO2 T00110011,M
LOL,2024-03-31 15:28,-118.5701,40.0684,1192.43,34.00,34.00,100.00,0.00,0.00,0.00,29.68,M,10.00,M,BKN,BKN,OVC,M,600.00,1700.00,12000.00,M,M,M,M,M,M,M,M,34.00,KLOL 311528Z AUTO 00000KT 10SM BKN006 BKN017 OVC120 01/01 A2968 RMK AO2 T00110011,M
05U,2024-03-31 15:30,-116.0051,39.6042,1811.23,30.20,26.60,86.28,0.00,0.00,0.00,29.64,M,10.00,M,BKN,OVC,M,M,3000.00,3600.00,M,M,M,M,M,M,M,M,M,30.20,K05U 311530Z AUTO 00000KT 10SM BKN030 OVC036 M01/M03 A2964 RMK A01,M
BAM,2024-03-31 15:35,-116.8743,40.5990,1382.36,33.80,33.80,100.00,260.00,4.00,0.00,29.64,M,1.25,M,SCT,OVC,M,M,300.00,1000.00,M,M,M,M,M,M,M,M,M,29.52,KBAM 311535Z AUTO 26004KT 1 1/4SM SCT003 OVC010 01/01 A2964 RMK AO1,M
TMT,2024-03-31 15:35,-117.1971,39.4643,1749.34,32.00,30.20,92.97,210.00,10.00,0.00,29.65,M,3.00,M,SCT,BKN,OVC,M,2200.00,3100.00,4000.00,M,-SN,M,M,M,M,M,M,22.97,KTMT 311535Z AUTO 21010KT 3SM -SN SCT022 BKN031 OVC040 00/M01 A2965 RMK AO2 T00001010,M
BVU,2024-03-31 15:35,-114.8611,35.9475,671.00,46.40,39.20,75.84,0.00,0.00,0.00,29.78,M,10.00,M,SCT,M,M,M,6500.00,M,M,M,M,M,M,M,M,M,M,46.40,KBVU 311535Z AUTO 00000KT 10SM SCT065 08/04 A2978 RMK AO2,M
CXP,2024-03-31 15:35,-119.7326,39.1923,1431.00,33.80,32.00,93.03,240.00,5.00,0.00,29.76,M,10.00,M,FEW,OVC,M,M,800.00,4500.00,M,M,M,M,M,M,M,M,M,28.53,KCXP 311535Z AUTO 24005KT 10SM FEW008 OVC045 01/M00 A2976 RMK AO2,M
RTS,2024-03-31 15:35,-119.8764,39.6682,1539.00,35.60,30.20,80.51,350.00,7.00,0.00,29.72,M,10.00,M,SCT,M,M,M,6500.00,M,M,M,M,M,M,M,M,M,M,29.17,KRTS 311535Z AUTO 35007KT 10SM SCT065 02/M01 A2972 RMK AO2,M
MEV,2024-03-31 15:35,-119.7500,38.9963,1441.42,32.00,32.00,100.00,0.00,0.00,0.00,29.75,M,6.00,M,FEW,BKN,OVC,M,1000.00,4400.00,5000.00,M,-RA BR,M,M,M,M,M,M,32.00,KMEV 311535Z AUTO 00000KT 6SM -RA BR FEW010 BKN044 OVC050 00/M00 A2975 RMK AO2,M
HTH,2024-03-31 15:35,-118.6315,38.5448,1282.89,37.40,33.80,86.69,0.00,0.00,0.00,29.71,M,10.00,M,FEW,FEW,FEW,M,4300.00,4900.00,6500.00,M,M,M,M,M,M,M,M,37.40,KHTH 311535Z AUTO 00000KT 10SM FEW043 FEW049 FEW065 03/01 A2971 RMK A01,M
10U,2024-03-31 15:35,-116.1876,41.9532,1637.00,35.60,30.20,80.51,280.00,3.00,0.00,29.59,M,10.00,M,OVC,M,M,M,6000.00,M,M,M,M,M,M,M,M,M,M,32.80,K10U 311535Z AUTO 28003KT 10SM OVC060 02/M01 A2959 RMK AO2,M
LOL,2024-03-31 15:37,-118.5701,40.0684,1192.43,34.00,34.00,100.00,0.00,0.00,0.00,29.68,M,10.00,M,BKN,BKN,OVC,M,400.00,7500.00,12000.00,M,M,M,M,M,M,M,M,34.00,KLOL 311537Z AUTO 00000KT 10SM BKN004 BKN075 OVC120 01/01 A2968 RMK AO2 T00110011,M
EKO,2024-03-31 15:43,-115.7860,40.8242,1367.00,33.00,32.00,96.06,240.00,7.00,0.04,29.57,M,0.75,M,VV ,M,M,M,1200.00,M,M,M,-SN BR,M,M,M,M,M,M,26.00,KEKO 311543Z AUTO 24007KT 3/4SM -SN BR VV012 01/00 A2957 RMK AO2 P0004 T00060000,M
NFL,2024-03-31 15:46,-118.7010,39.4166,1199.00,37.00,35.00,92.39,240.00,6.00,T,29.69,M,6.00,M,OVC,M,M,M,1500.00,M,M,M,UP BR,M,M,M,M,M,M,31.55,KNFL 311546Z AUTO 24006KT 6SM UP BR OVC015 03/02 A2969 RMK AO2 UPB34SNE34 P0000 T00280017,M
05U,2024-03-31 15:50,-116.0051,39.6042,1811.23,30.20,26.60,86.28,0.00,0.00,0.00,29.64,M,5.00,M,BKN,M,M,M,3000.00,M,M,M,BR,M,M,M,M,M,M,30.20,K05U 311550Z AUTO 00000KT 5SM BR BKN030 M01/M03 A2964 RMK A01,M
P68,2024-03-31 15:53,-116.0056,39.6014,1993.00,30.00,26.00,84.85,280.00,3.00,0.00,29.61,1001.60,M,M,M,M,M,M,M,M,M,M,M,M,M,M,M,M,M,26.40,KP68 311553Z AUTO 28003KT M01/M03 A2961 RMK AO1 SLP016 T10111033,M
DRA,2024-03-31 15:53,-116.0278,36.6206,1009.00,45.00,38.00,76.31,230.00,8.00,0.00,29.74,1006.10,10.00,M,BKN,M,M,M,4100.00,M,M,M,M,M,M,M,M,M,M,40.13,KDRA 311553Z AUTO 23008KT 10SM BKN041 07/03 A2974 RMK AO2 SLP061 T00720033,M
ELY,2024-03-31 15:53,-114.8453,39.2950,1909.00,32.00,25.00,75.07,160.00,9.00,0.00,29.62,1002.10,10.00,M,BKN,OVC,M,M,2700.00,5000.00,M,M,M,M,M,M,M,M,M,23.51,KELY 311553Z AUTO 16009KT 10SM BKN027 OVC050 00/M04 A2962 RMK AO2 SLP021 T00001039,M
VGT,2024-03-31 15:53,-115.1933,36.2111,667.00,48.00,41.00,76.58,0.00,0.00,0.00,29.77,1010.00,10.00,M,FEW,SCT,M,M,1300.00,6000.00,M,M,M,M,M,M,M,M,M,48.00,KVGT 311553Z 00000KT 10SM FEW013 SCT060 09/05 A2977 RMK AO2 SLP100 T00890050,M
LOL,2024-03-31 15:53,-118.5701,40.0684,1192.43,34.00,34.00,100.00,0.00,0.00,0.00,29.68,1005.70,10.00,M,OVC,M,M,M,400.00,M,M,M,M,M,M,M,M,M,M,34.00,KLOL 311553Z AUTO 00000KT 10SM OVC004 01/01 A2968 RMK AO2 SLP057 T00110011,M
EKO,2024-03-31 15:54,-115.7860,40.8242,1367.00,33.80,32.00,93.03,230.00,6.03,M,29.58,M,0.50,M,VV ,M,M,M,898.00,M,M,M,SN FG,M,M,M,M,M,M,27.68,SPECI KEKO 311554Z 23006KT 1/2SM SN FG VV009 01/00 A2958 RMK AO2 P0005 FIBI,M
BVU,2024-03-31 15:55,-114.8611,35.9475,671.00,46.40,41.00,81.34,0.00,0.00,0.00,29.78,M,10.00,M,OVC,M,M,M,6500.00,M,M,M,M,M,M,M,M,M,M,46.40,KBVU 311555Z AUTO 00000KT 10SM OVC065 08/05 A2978 RMK AO2,M
CXP,2024-03-31 15:55,-119.7326,39.1923,1431.00,35.60,32.00,86.59,0.00,0.00,0.00,29.76,M,10.00,M,FEW,BKN,OVC,M,1100.00,4500.00,5000.00,M,M,M,M,M,M,M,M,35.60,KCXP 311555Z AUTO 00000KT 10SM FEW011 BKN045 OVC050 02/00 A2976 RMK AO2,M
RNO,2024-03-31 15:55,-119.7711,39.4839,1341.00,40.00,34.00,78.94,120.00,3.00,0.00,29.73,1006.30,10.00,M,FEW,FEW,SCT,M,3500.00,5000.00,9000.00,M,M,M,M,M,M,M,M,37.83,KRNO 311555Z 12003KT 10SM FEW035 FEW050 SCT090 04/01 A2973 RMK AO2 SLP063 MTN TOPS OBSCD DSNT SW AND NW T00440011 $,M
LSV,2024-03-31 15:55,-115.0343,36.2362,570.00,48.70,39.70,70.93,0.00,0.00,0.00,29.75,1007.20,10.00,M,OVC,M,M,M,6500.00,M,M,M,M,M,M,M,M,M,M,48.70,KLSV 311555Z AUTO 00000KT 10SM OVC065 09/04 A2975 RMK AO2 SLP072 T00930043 $,M
RTS,2024-03-31 15:55,-119.8764,39.6682,1539.00,35.60,28.40,74.80,0.00,0.00,0.03,29.73,M,10.00,M,SCT,M,M,M,7000.00,M,M,M,M,M,M,M,M,M,M,35.60,KRTS 311555Z AUTO 00000KT 10SM SCT070 02/M02 A2973 RMK AO2 P0003,M
MEV,2024-03-31 15:55,-119.7500,38.9963,1441.42,32.00,32.00,100.00,0.00,0.00,0.00,29.75,M,10.00,M,FEW,BKN,OVC,M,4300.00,5000.00,6000.00,M,M,M,M,M,M,M,M,32.00,KMEV 311555Z AUTO 00000KT 10SM FEW043 BKN050 OVC060 00/M00 A2975 RMK AO2,M
HTH,2024-03-31 15:55,-118.6315,38.5448,1282.89,39.20,33.80,80.79,0.00,0.00,0.00,29.72,M,10.00,M,SCT,SCT,BKN,M,1500.00,2000.00,2600.00,M,M,M,M,M,M,M,M,39.20,KHTH 311555Z AUTO 00000KT 10SM SCT015 SCT020 BKN026 04/01 A2972 RMK A01,M
10U,2024-03-31 15:55,-116.1876,41.9532,1637.00,37.40,30.20,74.98,290.00,5.00,0.00,29.59,M,10.00,M,FEW,SCT,OVC,M,5500.00,6500.00,11000.00,M,M,M,M,M,M,M,M,32.81,K10U 311555Z AUTO 29005KT 10SM FEW055 SCT065 OVC110 03/M01 A2959 RMK AO2,M
BAM,2024-03-31 15:55,-116.8743,40.5990,1382.36,33.80,33.80,100.00,240.00,11.00,0.00,29.64,M,4.00,M,SCT,OVC,M,M,500.00,1200.00,M,M,M,M,M,M,M,M,M,24.74,KBAM 311555Z AUTO 24011KT 4SM SCT005 OVC012 01/01 A2964 RMK AO1,M
TMT,2024-03-31 15:55,-117.1971,39.4643,1749.34,32.00,30.20,92.97,210.00,9.00,0.00,29.65,M,2.00,M,BKN,OVC,M,M,2000.00,2800.00,M,M,-SN,M,M,M,M,M,M,23.51,KTMT 311555Z AUTO 21009KT 2SM -SN BKN020 OVC028 00/M01 A2965 RMK AO2 T00001010,M
INS,2024-03-31 15:55,-115.6733,36.5872,955.00,43.70,38.30,81.14,100.00,7.00,0.00,29.75,1006.30,10.00,M,CLR,M,M,M,M,M,M,M,M,M,M,M,M,M,M,39.04,KINS 311555Z AUTO 10007KT 10SM CLR 07/04 A2975 RMK AO2 SLP063 T00650035 $,M
EKO,2024-03-31 15:56,-115.7860,40.8242,1367.00,33.00,32.00,96.06,240.00,6.00,0.05,29.58,1001.70,0.50,M,VV ,M,M,M,900.00,M,M,M,SN FG,M,M,M,M,M,M,26.73,KEKO 311556Z AUTO 24006KT 1/2SM SN FG VV009 01/00 A2958 RMK AO2 SLP017 P0005 T00060000,M
WMC,2024-03-31 15:56,-117.8072,40.9019,1315.00,35.00,33.00,92.32,0.00,0.00,0.00,29.65,1003.70,10.00,M,BKN,OVC,M,M,400.00,7000.00,M,M,M,M,M,M,M,M,M,35.00,KWMC 311556Z AUTO 00000KT 10SM BKN004 OVC070 02/01 A2965 RMK AO2 SLP037 T00170006,M
NFL,2024-03-31 15:56,-118.7010,39.4166,1199.00,37.00,35.00,92.39,230.00,5.00,T,29.69,1003.60,8.00,M,BKN,OVC,M,M,1500.00,2500.00,M,M,UP,M,M,M,M,M,M,32.33,KNFL 311556Z AUTO 23005KT 8SM UP BKN015 OVC025 03/02 A2969 RMK AO2 UPB34SNE34 SLP036 P0000 T00280017,M
HND,2024-03-31 15:56,-115.1344,35.9729,742.79,49.00,37.00,63.10,0.00,0.00,0.00,29.79,1010.40,10.00,M,CLR,M,M,M,M,M,M,M,M,M,M,M,M,M,M,49.00,KHND 311556Z 00000KT 10SM CLR 09/03 A2979 RMK AO2 SLP104 T00940028,M
TPH,2024-03-31 15:56,-117.0904,38.0505,1654.00,35.00,30.00,81.78,210.00,9.00,0.00,29.69,1005.70,10.00,M,FEW,SCT,OVC,M,1000.00,5500.00,8500.00,M,M,M,M,M,M,M,M,27.24,KTPH 311556Z AUTO 21009KT 10SM FEW010 SCT055 OVC085 02/M01 A2969 RMK AO2 SLP057 T00171011,M
LAS,2024-03-31 15:56,-115.1634,36.0719,663.00,46.00,40.00,79.44,90.00,3.00,0.00,29.77,1008.10,10.00,M,FEW,SCT,BKN,M,6000.00,12000.00,16000.00,M,M,M,M,M,M,M,M,44.69,KLAS 311556Z 09003KT 10SM FEW060 SCT120 BKN160 08/04 A2977 RMK AO2 SLP081 T00780044 $,M
LOL,2024-03-31 16:05,-118.5701,40.0684,1192.43,34.00,34.00,100.00,0.00,0.00,0.00,29.68,M,10.00,M,OVC,M,M,M,500.00,M,M,M,M,M,M,M,M,M,M,34.00,KLOL 311605Z AUTO 00000KT 10SM OVC005 01/01 A2968 RMK AO2 T00110011,M
05U,2024-03-31 16:10,-116.0051,39.6042,1811.23,32.00,26.60,80.22,0.00,0.00,0.00,29.64,M,2.50,M,FEW,M,M,M,3100.00,M,M,M,HZ,M,M,M,M,M,M,32.00,K05U 311610Z AUTO 00000KT 2 1/2SM HZ FEW031 M00/M03 A2964 RMK A01,M
NFL,2024-03-31 16:12,-118.7010,39.4166,1199.00,38.00,36.00,92.42,220.00,5.00,T,29.69,M,10.00,M,FEW,OVC,M,M,1700.00,3000.00,M,M,M,M,M,M,M,M,M,33.52,KNFL 311612Z AUTO 22005KT 10SM FEW017 OVC030 03/02 A2969 RMK AO2 UPE02 P0000 T00330022,M
BVU,2024-03-31 16:15,-114.8611,35.9475,671.00,48.20,41.00,76.01,160.00,3.00,0.00,29.78,M,10.00,M,SCT,M,M,M,6500.00,M,M,M,M,M,M,M,M,M,M,47.21,KBVU 311615Z AUTO 16003KT 10SM SCT065 09/05 A2978 RMK AO2,M
CXP,2024-03-31 16:15,-119.7326,39.1923,1431.00,35.60,33.80,93.08,200.00,8.00,0.00,29.75,M,10.00,M,BKN,OVC,M,M,4700.00,7000.00,M,M,M,M,M,M,M,M,M,28.55,KCXP 311615Z AUTO 20008KT 10SM BKN047 OVC070 02/01 A2975 RMK AO2,M
RTS,2024-03-31 16:15,-119.8764,39.6682,1539.00,37.40,28.40,69.67,0.00,0.00,0.00,29.73,M,10.00,M,FEW,M,M,M,7000.00,M,M,M,M,M,M,M,M,M,M,37.40,KRTS 311615Z AUTO 00000KT 10SM FEW070 03/M02 A2973 RMK AO2,M
MEV,2024-03-31 16:15,-119.7500,38.9963,1441.42,33.80,32.00,93.03,140.00,3.00,0.00,29.75,M,10.00,M,FEW,OVC,M,M,5000.00,6000.00,M,M,M,M,M,M,M,M,M,30.75,KMEV 311615Z AUTO 14003KT 10SM FEW050 OVC060 01/M00 A2975 RMK AO2,M
HTH,2024-03-31 16:15,-118.6315,38.5448,1282.89,39.20,33.80,80.79,M,5.00,0.00,29.73,M,10.00,M,BKN,BKN,BKN,M,1600.00,2100.00,2700.00,M,M,M,M,M,M,M,M,34.95,KHTH 311615Z AUTO VRB05KT 10SM BKN016 BKN021 BKN027 04/01 A2973 RMK A01,M
10U,2024-03-31 16:15,-116.1876,41.9532,1637.00,37.40,26.60,64.70,330.00,9.00,0.00,29.60,M,10.00,M,OVC,M,M,M,11000.00,M,M,M,M,M,M,M,M,M,M,30.23,K10U 311615Z AUTO 33009KT 10SM OVC110 03/M03 A2960 RMK AO2,M
BAM,2024-03-31 16:15,-116.8743,40.5990,1382.36,35.60,33.80,93.08,250.00,5.00,0.00,29.64,M,5.00,M,OVC,M,M,M,1400.00,M,M,M,M,M,M,M,M,M,M,30.67,KBAM 311615Z AUTO 25005KT 5SM OVC014 02/01 A2964 RMK AO1,M
TMT,2024-03-31 16:15,-117.1971,39.4643,1749.34,32.00,30.40,93.73,200.00,8.00,0.00,29.65,M,1.50,M,SCT,OVC,M,M,1200.00,1900.00,M,M,-SN,M,M,M,M,M,M,24.11,KTMT 311615Z AUTO 20008KT 1 1/2SM -SN SCT012 OVC019 00/M01 A2965 RMK AO2 T00001009,M
05U,2024-03-31 16:30,-116.0051,39.6042,1811.23,32.00,26.60,80.22,0.00,0.00,0.00,29.64,M,5.00,M,CLR,M,M,M,M,M,M,M,HZ,M,M,M,M,M,M,32.00,K05U 311630Z AUTO 00000KT 5SM HZ CLR 00/M03 A2964 RMK A01,M
TPH,2024-03-31 16:34,-117.0904,38.0505,1654.00,38.00,30.00,72.64,250.00,5.00,0.00,29.70,M,10.00,M,FEW,BKN,OVC,M,1400.00,2100.00,9000.00,M,M,M,M,M,M,M,M,33.52,KTPH 311634Z AUTO 25005KT 10SM FEW014 BKN021 OVC090 03/M01 A2970 RMK AO2 T00331011,M
BVU,2024-03-31 16:35,-114.8611,35.9475,671.00,50.00,41.00,71.07,160.00,4.00,0.00,29.79,M,10.00,M,CLR,M,M,M,M,M,M,M,M,M,M,M,M,M,M,50.00,KBVU 311635Z AUTO 16004KT 10SM CLR 10/05 A2979 RMK AO2,M
CXP,2024-03-31 16:35,-119.7326,39.1923,1431.00,35.60,32.00,86.59,210.00,6.00,0.00,29.75,M,10.00,M,SCT,BKN,BKN,M,4800.00,5500.00,7000.00,M,M,M,M,M,M,M,M,29.87,KCXP 311635Z AUTO 21006KT 10SM SCT048 BKN055 BKN070 02/00 A2975 RMK AO2,M
RTS,2024-03-31 16:35,-119.8764,39.6682,1539.00,37.40,28.40,69.67,0.00,0.00,0.00,29.74,M,10.00,M,FEW,M,M,M,2100.00,M,M,M,M,M,M,M,M,M,M,37.40,KRTS 311635Z AUTO 00000KT 10SM FEW021 03/M02 A2974 RMK AO2,M
MEV,2024-03-31 16:35,-119.7500,38.9963,1441.42,33.80,32.00,93.03,0.00,0.00,0.00,29.74,M,10.00,M,OVC,M,M,M,6000.00,M,M,M,M,M,M,M,M,M,M,33.80,KMEV 311635Z AUTO 00000KT 10SM OVC060 01/00 A2974 RMK AO2,M
HTH,2024-03-31 16:35,-118.6315,38.5448,1282.89,39.20,33.80,80.79,100.00,6.00,0.00,29.73,M,9.00,M,SCT,SCT,SCT,M,1600.00,2200.00,2600.00,M,M,M,M,M,M,M,M,34.20,KHTH 311635Z AUTO 10006KT 9SM SCT016 SCT022 SCT026 04/01 A2973 RMK A01,M
10U,2024-03-31 16:35,-116.1876,41.9532,1637.00,37.40,24.80,60.04,340.00,7.00,0.00,29.60,M,10.00,12.00,BKN,M,M,M,11000.00,M,M,M,M,M,M,M,M,M,M,31.36,K10U 311635Z AUTO 34007G12KT 10SM BKN110 03/M04 A2960 RMK AO2,M
BAM,2024-03-31 16:35,-116.8743,40.5990,1382.36,35.60,33.80,93.08,230.00,8.00,0.00,29.65,M,10.00,M,OVC,M,M,M,1200.00,M,M,M,M,M,M,M,M,M,M,28.55,KBAM 311635Z AUTO 23008KT 10SM OVC012 02/01 A2965 RMK AO1,M
TMT,2024-03-31 16:35,-117.1971,39.4643,1749.34,32.00,31.00,96.04,210.00,7.00,0.00,29.66,M,1.25,M,BKN,OVC,M,M,1400.00,1900.00,M,M,-SN,M,M,M,M,M,M,24.78,KTMT 311635Z AUTO 21007KT 1 1/4SM -SN BKN014 OVC019 00/M01 A2966 RMK AO2 T00001006,M
05U,2024-03-31 16:50,-116.0051,39.6042,1811.23,32.00,28.40,86.39,0.00,0.00,0.00,29.64,M,2.50,M,CLR,M,M,M,M,M,M,M,HZ,M,M,M,M,M,M,32.00,K05U 311650Z AUTO 00000KT 2 1/2SM HZ CLR 00/M02 A2964 RMK A01,M
P68,2024-03-31 16:53,-116.0056,39.6014,1993.00,31.00,27.00,84.92,0.00,0.00,0.00,29.62,1002.10,M,M,M,M,M,M,M,M,M,M,M,M,M,M,M,M,M,31.00,KP68 311653Z AUTO 00000KT M01/M03 A2962 RMK AO1 SLP021 T10061028,M
DRA,2024-03-31 16:53,-116.0278,36.6206,1009.00,49.00,36.00,60.66,200.00,14.00,0.00,29.74,1005.90,10.00,21.00,CLR,M,M,M,M,M,M,M,M,M,M,M,M,M,M,43.08,KDRA 311653Z AUTO 20014G21KT 10SM CLR 09/02 A2974 RMK AO2 SLP059 T00940022,M
ELY,2024-03-31 16:53,-114.8453,39.2950,1909.00,33.00,25.00,72.11,150.00,7.00,0.00,29.62,1002.30,10.00,M,SCT,OVC,M,M,2500.00,3400.00,M,M,M,M,M,M,M,M,M,26.00,KELY 311653Z AUTO 15007KT 10SM SCT025 OVC034 01/M04 A2962 RMK AO2 SLP023 T00061039,M
VGT,2024-03-31 16:53,-115.1933,36.2111,667.00,50.00,41.00,71.07,0.00,0.00,0.00,29.78,1010.20,10.00,M,CLR,M,M,M,M,M,M,M,M,M,M,M,M,M,M,50.00,KVGT 311653Z 00000KT 10SM CLR 10/05 A2978 RMK AO2 SLP102 T01000050,M
LOL,2024-03-31 16:53,-118.5701,40.0684,1192.43,37.00,36.00,96.13,0.00,0.00,0.00,29.69,1006.10,10.00,M,OVC,M,M,M,600.00,M,M,M,M,M,M,M,M,M,M,37.00,KLOL 311653Z AUTO 00000KT 10SM OVC006 03/02 A2969 RMK AO2 SLP061 T00280022,M
BAM,2024-03-31 16:55,-116.8743,40.5990,1382.36,35.60,33.80,93.08,250.00,5.00,0.00,29.65,M,10.00,M,OVC,M,M,M,1200.00,M,M,M,M,M,M,M,M,M,M,30.67,KBAM 311655Z AUTO 25005KT 10SM OVC012 02/01 A2965 RMK AO1,M
TMT,2024-03-31 16:55,-117.1971,39.4643,1749.34,32.00,31.00,96.04,210.00,9.00,0.00,29.66,M,2.50,M,BKN,OVC,M,M,1200.00,1900.00,M,M,-SN,M,M,M,M,M,M,23.51,KTMT 311655Z AUTO 21009KT 2 1/2SM -SN BKN012 OVC019 00/00 A2966 RMK AO2 VIS 1 1/2V5 T00001005,M
BVU,2024-03-31 16:55,-114.8611,35.9475,671.00,51.80,37.40,57.77,200.00,5.00,0.00,29.79,M,10.00,M,FEW,M,M,M,6500.00,M,M,M,M,M,M,M,M,M,M,51.80,KBVU 311655Z AUTO 20005KT 10SM FEW065 11/03 A2979 RMK AO2,M
CXP,2024-03-31 16:55,-119.7326,39.1923,1431.00,37.40,33.80,86.69,190.00,4.00,0.00,29.76,M,10.00,M,SCT,SCT,SCT,M,1000.00,4900.00,6000.00,M,M,M,M,M,M,M,M,33.73,KCXP 311655Z AUTO 19004KT 10SM SCT010 SCT049 SCT060 03/01 A2976 RMK AO2,M
INS,2024-03-31 16:55,-115.6733,36.5872,955.00,48.00,37.60,67.07,100.00,3.00,0.00,29.76,1006.40,10.00,M,CLR,M,M,M,M,M,M,M,M,M,M,M,M,M,M,46.98,KINS 311655Z AUTO 10003KT 10SM CLR 09/03 A2976 RMK AO2 SLP064 T00890031 $,M
RNO,2024-03-31 16:55,-119.7711,39.4839,1341.00,43.00,33.00,67.54,0.00,0.00,0.00,29.74,1006.30,10.00,M,FEW,SCT,BKN,M,3300.00,7000.00,15000.00,M,M,M,M,M,M,M,M,43.00,KRNO 311655Z 00000KT 10SM FEW033 SCT070 BKN150 06/01 A2974 RMK AO2 SLP063 MTN TOPS OBSCD DSNT W T00610006 $,M
RTS,2024-03-31 16:55,-119.8764,39.6682,1539.00,37.40,30.20,74.98,M,4.00,0.07,29.75,M,10.00,M,CLR,M,M,M,M,M,M,M,M,M,M,M,M,M,M,33.73,KRTS 311655Z AUTO VRB04KT 10SM CLR 03/M01 A2975 RMK AO2 P0007,M
MEV,2024-03-31 16:55,-119.7500,38.9963,1441.42,35.60,32.00,86.59,0.00,0.00,0.00,29.75,M,10.00,M,SCT,M,M,M,6500.00,M,M,M,M,M,M,M,M,M,M,35.60,KMEV 311655Z AUTO 00000KT 10SM SCT065 02/00 A2975 RMK AO2,M
HTH,2024-03-31 16:55,-118.6315,38.5448,1282.89,39.20,33.80,80.79,80.00,4.00,0.00,29.74,M,10.00,M,SCT,SCT,BKN,M,1700.00,2200.00,3100.00,M,M,M,M,M,M,M,M,35.83,KHTH 311655Z AUTO 08004KT 10SM SCT017 SCT022 BKN031 04/01 A2974 RMK A01,M
10U,2024-03-31 16:55,-116.1876,41.9532,1637.00,39.20,26.60,60.29,340.00,9.00,0.00,29.60,M,10.00,15.00,FEW,M,M,M,11000.00,M,M,M,M,M,M,M,M,M,M,32.47,K10U 311655Z AUTO 34009G15KT 310V020 10SM FEW110 04/M03 A2960 RMK AO2,M
LSV,2024-03-31 16:55,-115.0343,36.2362,570.00,51.40,39.70,64.15,130.00,3.00,0.00,29.76,1007.40,10.00,M,CLR,M,M,M,M,M,M,M,M,M,M,M,M,M,M,51.40,KLSV 311655Z AUTO 13003KT 10SM CLR 11/04 A2976 RMK AO2 SLP074 T01080043 $,M
EKO,2024-03-31 16:56,-115.7860,40.8242,1367.00,33.00,32.00,96.06,220.00,6.00,0.09,29.59,1002.30,0.75,M,FEW,OVC,M,M,300.00,700.00,M,M,-SN BR,M,M,M,M,M,M,26.73,KEKO 311656Z AUTO 22006KT 3/4SM -SN BR FEW003 OVC007 01/00 A2959 RMK AO2 SLP023 P0009 T00060000,M
WMC,2024-03-31 16:56,-117.8072,40.9019,1315.00,36.00,34.00,92.35,220.00,3.00,0.00,29.67,1004.20,10.00,M,OVC,M,M,M,400.00,M,M,M,M,M,M,M,M,M,M,33.26,KWMC 311656Z AUTO 22003KT 10SM OVC004 02/01 A2967 RMK AO2 CIG 003V008 SLP042 T00220011,M
NFL,2024-03-31 16:56,-118.7010,39.4166,1199.00,42.00,37.00,82.30,310.00,7.00,T,29.69,1003.70,10.00,M,FEW,BKN,BKN,M,1500.00,3500.00,5500.00,M,M,M,M,M,M,M,M,36.97,KNFL 311656Z AUTO 31007KT 10SM FEW015 BKN035 BKN055 06/03 A2969 RMK AO2 UPE02 SLP037 P0000 T00560028,M
HND,2024-03-31 16:56,-115.1344,35.9729,742.79,52.00,35.00,52.15,220.00,7.00,0.00,29.80,1010.60,10.00,M,BKN,M,M,M,6500.00,M,M,M,M,M,M,M,M,M,M,52.00,KHND 311656Z 22007KT 10SM BKN065 11/02 A2980 RMK AO2 SLP106 T01110017,M
TPH,2024-03-31 16:56,-117.0904,38.0505,1654.00,38.00,29.00,69.74,210.00,8.00,0.00,29.70,1005.40,10.00,M,SCT,BKN,OVC,M,2400.00,2800.00,6000.00,M,M,M,M,M,M,M,M,31.50,KTPH 311656Z AUTO 21008KT 10SM SCT024 BKN028 OVC060 03/M02 A2970 RMK AO2 SLP054 T00331017,M
LAS,2024-03-31 16:56,-115.1634,36.0719,663.00,50.00,40.00,68.37,0.00,0.00,0.00,29.78,1008.30,10.00,M,FEW,BKN,M,M,7000.00,14000.00,M,M,M,M,M,M,M,M,M,50.00,KLAS 311656Z 00000KT 10SM FEW070 BKN140 10/04 A2978 RMK AO2 SLP083 T01000044 $,M
EKO,2024-03-31 17:08,-115.7860,40.8242,1367.00,33.00,32.00,96.06,220.00,7.00,0.01,29.59,M,1.00,M,VV ,M,M,M,1000.00,M,M,M,-SN BR,M,M,M,M,M,M,26.00,KEKO 311708Z AUTO 22007KT 1SM -SN BR VV010 01/00 A2959 RMK AO2 P0001 T00060000,M
WMC,2024-03-31 17:08,-117.8072,40.9019,1315.00,37.00,35.00,92.39,210.00,3.00,0.00,29.67,M,10.00,M,BKN,BKN,M,M,500.00,6000.00,M,M,M,M,M,M,M,M,M,34.40,KWMC 311708Z AUTO 21003KT 10SM BKN005 BKN060 03/02 A2967 RMK AO2 CIG 003V008 T00280017,M
05U,2024-03-31 17:10,-116.0051,39.6042,1811.23,32.00,28.40,86.39,0.00,0.00,0.00,29.65,M,3.00,M,FEW,M,M,M,2800.00,M,M,M,HZ,M,M,M,M,M,M,32.00,K05U 311710Z AUTO 00000KT 3SM HZ FEW028 00/M02 A2965 RMK A01,M
NFL,2024-03-31 17:12,-118.7010,39.4166,1199.00,44.00,37.00,76.22,290.00,8.00,0.00,29.69,M,10.00,M,BKN,BKN,OVC,M,1800.00,3700.00,8000.00,M,M,M,M,M,M,M,M,38.90,KNFL 311712Z AUTO 29008KT 10SM BKN018 BKN037 OVC080 07/03 A2969 RMK AO2 T00670028,M
BVU,2024-03-31 17:15,-114.8611,35.9475,671.00,51.80,41.00,66.48,180.00,4.00,0.00,29.80,M,10.00,M,SCT,SCT,M,M,2500.00,3700.00,M,M,M,M,M,M,M,M,M,51.80,KBVU 311715Z AUTO 18004KT 10SM SCT025 SCT037 11/05 A2980 RMK AO2,M
CXP,2024-03-31 17:15,-119.7326,39.1923,1431.00,39.20,33.80,80.79,200.00,4.00,0.00,29.76,M,10.00,M,SCT,SCT,M,M,1100.00,4800.00,M,M,M,M,M,M,M,M,M,35.83,KCXP 311715Z AUTO 20004KT 10SM SCT011 SCT048 04/01 A2976 RMK AO2,M
RTS,2024-03-31 17:15,-119.8764,39.6682,1539.00,37.40,30.20,74.98,310.00,9.00,0.00,29.75,M,10.00,M,CLR,M,M,M,M,M,M,M,M,M,M,M,M,M,M,30.23,KRTS 311715Z AUTO 31009KT 10SM CLR 03/M01 A2975 RMK AO2,M
MEV,2024-03-31 17:15,-119.7500,38.9963,1441.42,37.40,33.80,86.69,0.00,0.00,0.00,29.75,M,10.00,M,SCT,SCT,M,M,5500.00,6500.00,M,M,M,M,M,M,M,M,M,37.40,KMEV 311715Z AUTO 00000KT 10SM SCT055 SCT065 03/01 A2975 RMK AO2,M
HTH,2024-03-31 17:15,-118.6315,38.5448,1282.89,39.20,33.80,80.79,120.00,4.00,0.00,29.74,M,10.00,M,SCT,BKN,OVC,M,1600.00,2500.00,3100.00,M,M,M,M,M,M,M,M,35.83,KHTH 311715Z AUTO 12004KT 10SM SCT016 BKN025 OVC031 04/01 A2974 RMK A01,M
10U,2024-03-31 17:15,-116.1876,41.9532,1637.00,39.20,26.60,60.29,350.00,7.00,0.00,29.60,M,10.00,M,FEW,M,M,M,3600.00,M,M,M,M,M,M,M,M,M,M,33.56,K10U 311715Z AUTO 35007KT 10SM FEW036 04/M03 A2960 RMK AO2,M
BAM,2024-03-31 17:15,-116.8743,40.5990,1382.36,35.60,35.60,100.00,280.00,3.00,0.00,29.65,M,10.00,M,OVC,M,M,M,1000.00,M,M,M,M,M,M,M,M,M,M,32.80,KBAM 311715Z AUTO 28003KT 10SM OVC010 02/02 A2965 RMK AO1,M
TMT,2024-03-31 17:15,-117.1971,39.4643,1749.34,32.00,31.30,97.21,200.00,7.00,0.00,29.67,M,0.75,M,OVC,M,M,M,1000.00,M,M,M,-SN,M,M,M,M,M,M,24.78,KTMT 311715Z AUTO 20007KT 3/4SM -SN OVC010 00/00 A2967 RMK AO2 T00001004,M
NFL,2024-03-31 17:19,-118.7010,39.4166,1199.00,44.00,37.00,76.22,300.00,6.00,0.00,29.70,M,10.00,M,SCT,BKN,OVC,M,1800.00,5500.00,8000.00,M,M,M,M,M,M,M,M,39.98,KNFL 311719Z AUTO 30006KT 10SM SCT018 BKN055 OVC080 07/03 A2970 RMK AO2 T00670028,M
ELY,2024-03-31 17:19,-114.8453,39.2950,1909.00,34.00,25.00,69.28,230.00,11.00,0.00,29.63,M,10.00,M,BKN,BKN,OVC,M,2700.00,3500.00,4300.00,M,M,M,M,M,M,M,M,24.99,KELY 311719Z AUTO 23011KT 10SM BKN027 BKN035 OVC043 01/M04 A2963 RMK AO2 T00111039,M
WMC,2024-03-31 17:25,-117.8072,40.9019,1315.00,37.00,35.00,92.39,160.00,3.00,0.00,29.67,M,10.00,M,SCT,BKN,M,M,500.00,6000.00,M,M,M,M,M,M,M,M,M,34.40,KWMC 311725Z AUTO 16003KT 10SM SCT005 BKN060 03/02 A2967 RMK AO2 T00280017,M
NFL,2024-03-31 17:29,-118.7010,39.4166,1199.00,45.00,37.00,73.37,280.00,11.00,0.00,29.70,M,10.00,M,FEW,BKN,OVC,M,1900.00,2500.00,8500.00,M,M,M,M,M,M,M,M,38.89,KNFL 311729Z AUTO 28011KT 10SM FEW019 BKN025 OVC085 07/03 A2970 RMK AO2 T00720028,M
ELY,2024-03-31 17:29,-114.8453,39.2950,1909.00,35.00,25.00,66.57,220.00,11.00,0.00,29.63,M,10.00,19.00,SCT,BKN,OVC,M,2900.00,3500.00,4500.00,M,M,M,M,M,M,M,M,26.26,KELY 311729Z AUTO 22011G19KT 10SM SCT029 BKN035 OVC045 02/M04 A2963 RMK AO2 T00171039,M
05U,2024-03-31 17:30,-116.0051,39.6042,1811.23,32.00,28.40,86.39,0.00,0.00,0.00,29.65,M,1.75,M,CLR,M,M,M,M,M,M,M,HZ,M,M,M,M,M,M,32.00,K05U 311730Z AUTO 00000KT 1 3/4SM HZ CLR 00/M02 A2965 RMK A01,M
MEV,2024-03-31 17:35,-119.7500,38.9963,1441.42,37.40,32.00,80.65,0.00,0.00,0.00,29.76,M,10.00,M,OVC,M,M,M,5000.00,M,M,M,M,M,M,M,M,M,M,37.40,KMEV 311735Z AUTO 00000KT 10SM OVC050 03/00 A2976 RMK AO2,M
HTH,2024-03-31 17:35,-118.6315,38.5448,1282.89,41.00,33.80,75.33,M,3.00,0.00,29.74,M,10.00,M,BKN,BKN,M,M,1500.00,2600.00,M,M,M,M,M,M,M,M,M,38.98,KHTH 311735Z AUTO VRB03KT 10SM BKN015 BKN026 05/01 A2974 RMK A01,M
TMT,2024-03-31 17:35,-117.1971,39.4643,1749.34,32.00,31.60,98.40,210.00,9.00,0.00,29.67,M,2.50,M,BKN,OVC,M,M,1200.00,1700.00,M,M,-SN,M,M,M,M,M,M,23.51,KTMT 311735Z AUTO 21009KT 2 1/2SM -SN BKN012 OVC017 00/00 A2967 RMK AO2 VIS 1 3/4V4 T00011002,M
10U,2024-03-31 17:35,-116.1876,41.9532,1637.00,41.00,26.60,56.22,330.00,8.00,0.00,29.60,M,10.00,M,FEW,M,M,M,3600.00,M,M,M,M,M,M,M,M,M,M,35.20,K10U 311735Z AUTO 33008KT 10SM FEW036 05/M03 A2960 RMK AO2,M
BAM,2024-03-31 17:35,-116.8743,40.5990,1382.36,37.40,35.60,93.14,240.00,4.00,0.00,29.67,M,10.00,M,BKN,BKN,BKN,M,1000.00,1400.00,2700.00,M,M,M,M,M,M,M,M,33.73,KBAM 311735Z AUTO 24004KT 10SM BKN010 BKN014 BKN027 03/02 A2967 RMK AO1,M
BVU,2024-03-31 17:35,-114.8611,35.9475,671.00,53.60,41.00,62.23,160.00,9.00,0.00,29.79,M,10.00,M,SCT,BKN,OVC,M,2700.00,3600.00,7500.00,M,M,M,M,M,M,M,M,53.60,KBVU 311735Z AUTO 16009KT 10SM SCT027 BKN036 OVC075 12/05 A2979 RMK AO2,M
CXP,2024-03-31 17:35,-119.7326,39.1923,1431.00,41.00,35.60,80.93,230.00,3.00,0.00,29.77,M,10.00,M,FEW,FEW,M,M,1200.00,4700.00,M,M,M,M,M,M,M,M,M,38.98,KCXP 311735Z AUTO 23003KT 10SM FEW012 FEW047 05/02 A2977 RMK AO2,M
RTS,2024-03-31 17:35,-119.8764,39.6682,1539.00,37.40,30.20,74.98,310.00,8.00,0.00,29.75,M,10.00,M,CLR,M,M,M,M,M,M,M,M,M,M,M,M,M,M,30.76,KRTS 311735Z AUTO 31008KT 10SM CLR 03/M01 A2975 RMK AO2,M
NFL,2024-03-31 17:39,-118.7010,39.4166,1199.00,45.00,36.00,70.53,310.00,9.00,0.00,29.70,M,10.00,M,FEW,BKN,OVC,M,2500.00,3600.00,8000.00,M,M,M,M,M,M,M,M,39.68,KNFL 311739Z AUTO 31009KT 10SM FEW025 BKN036 OVC080 07/02 A2970 RMK AO2 T00720022,M
TPH,2024-03-31 17:42,-117.0904,38.0505,1654.00,40.00,30.00,67.18,220.00,8.00,0.00,29.70,M,10.00,M,FEW,SCT,OVC,M,2400.00,3600.00,6500.00,M,M,M,M,M,M,M,M,33.97,KTPH 311742Z AUTO 22008KT 10SM FEW024 SCT036 OVC065 04/M01 A2970 RMK AO2 T00441011,M
EKO,2024-03-31 17:43,-115.7860,40.8242,1367.00,34.00,32.00,92.29,30.00,3.00,0.03,29.61,M,0.75,M,FEW,OVC,M,M,400.00,1300.00,M,M,-SN BR,M,M,M,M,M,M,30.97,KEKO 311743Z AUTO 03003KT 3/4SM -SN BR FEW004 OVC013 01/00 A2961 RMK AO2 P0003 T00110000,M
WMC,2024-03-31 17:48,-117.8072,40.9019,1315.00,38.00,34.00,85.35,150.00,3.00,0.00,29.68,M,10.00,M,SCT,SCT,BKN,M,800.00,1300.00,2100.00,M,M,M,M,M,M,M,M,35.55,KWMC 311748Z AUTO 15003KT 10SM SCT008 SCT013 BKN021 03/01 A2968 RMK AO2 T00330011,M
05U,2024-03-31 17:50,-116.0051,39.6042,1811.23,32.00,28.40,86.39,0.00,0.00,0.00,29.65,M,1.00,M,CLR,M,M,M,M,M,M,M,BR,M,M,M,M,M,M,32.00,K05U 311750Z AUTO 00000KT 1SM BR CLR 00/M02 A2965 RMK A01,M
P68,2024-03-31 17:53,-116.0056,39.6014,1993.00,32.00,28.00,84.98,0.00,0.00,0.01,29.63,1002.10,M,M,M,M,M,M,M,M,M,M,M,M,M,M,M,M,M,32.00,KP68 311753Z AUTO 00000KT 00/M02 A2963 RMK AO1 SLP021 P0001 60001 T00001022 10000 21050 53003,M
DRA,2024-03-31 17:53,-116.0278,36.6206,1009.00,49.00,35.00,58.30,220.00,15.00,0.00,29.76,1006.50,10.00,23.00,BKN,M,M,M,3700.00,M,M,M,M,M,M,M,26.00,240.00,2024-03-31 17:00,42.82,KDRA 311753Z AUTO 22015G23KT 10SM BKN037 09/02 A2976 RMK AO2 PK WND 24026/1700 SLP065 T00940017 10106 20039 53007,M
ELY,2024-03-31 17:53,-114.8453,39.2950,1909.00,37.00,25.00,61.50,210.00,9.00,0.00,29.63,1001.80,10.00,M,FEW,SCT,M,M,4500.00,6500.00,M,M,M,M,M,M,M,M,M,29.73,KELY 311753Z AUTO 21009KT 10SM FEW045 SCT065 03/M04 A2963 RMK AO2 SLP018 T00281039 10028 21017 53002,M
VGT,2024-03-31 17:53,-115.1933,36.2111,667.00,53.00,40.00,61.19,M,4.00,0.00,29.78,1010.20,10.00,M,BKN,M,M,M,3200.00,M,M,M,M,M,M,M,M,M,M,53.00,KVGT 311753Z VRB04KT 10SM BKN032 12/04 A2978 RMK AO2 SLP102 T01170044 10117 20061 51007,M
LOL,2024-03-31 17:53,-118.5701,40.0684,1192.43,40.00,37.00,88.92,0.00,0.00,0.00,29.70,1006.50,10.00,M,BKN,M,M,M,1000.00,M,M,M,M,M,M,M,M,M,M,40.00,KLOL 311753Z AUTO 00000KT 10SM BKN010 04/03 A2970 RMK AO2 CIG 007V013 SLP065 60004 T00440028 10044 20000 53008,M
EKO,2024-03-31 17:54,-115.7860,40.8242,1367.00,33.80,32.00,93.03,180.00,3.00,0.05,29.61,M,0.50,M,FEW,OVC,M,M,400.00,900.00,M,M,SN FG,M,M,M,M,M,M,30.75,KEKO 311754Z AUTO 18003KT 1/2SM SN FG FEW004 OVC009 01/00 A2961 RMK AO2 P0005,M
BVU,2024-03-31 17:55,-114.8611,35.9475,671.00,53.60,41.00,62.23,170.00,9.00,0.00,29.79,M,10.00,M,BKN,BKN,OVC,M,3300.00,4200.00,7500.00,M,M,M,M,M,M,M,M,53.60,KBVU 311755Z AUTO 17009KT 10SM BKN033 BKN042 OVC075 12/05 A2979 RMK AO2,M
CXP,2024-03-31 17:55,-119.7326,39.1923,1431.00,41.00,35.60,80.93,M,4.00,0.00,29.76,M,10.00,M,SCT,SCT,M,M,1400.00,4700.00,M,M,M,M,M,M,M,M,M,37.93,KCXP 311755Z AUTO VRB04KT 10SM SCT014 SCT047 05/02 A2976 RMK AO2,M
INS,2024-03-31 17:55,-115.6733,36.5872,955.00,49.00,37.00,63.10,110.00,5.00,0.00,29.76,1006.40,10.00,M,FEW,M,M,M,4600.00,M,M,M,M,M,M,M,M,M,M,46.58,KINS 311755Z AUTO 11005KT 10SM FEW046 10/03 A2976 RMK AO2 SLP064 T00950028 10095 20034 50004 $,M
RNO,2024-03-31 17:55,-119.7711,39.4839,1341.00,45.00,32.00,60.11,M,6.00,0.00,29.73,1006.00,10.00,M,FEW,FEW,SCT,M,3300.00,6500.00,15000.00,M,M,M,M,M,M,M,M,41.19,KRNO 311755Z VRB06KT 10SM FEW033 FEW065 SCT150 07/00 A2973 RMK AO2 SLP060 MTN TOPS OBSCD DSNT SW 60000 T00720000 10083 20006 50003 $,M
RTS,2024-03-31 17:55,-119.8764,39.6682,1539.00,39.20,30.20,69.88,290.00,7.00,0.03,29.75,M,10.00,M,CLR,M,M,M,M,M,M,M,M,M,M,M,M,M,M,33.56,KRTS 311755Z AUTO 29007KT 10SM CLR 04/M01 A2975 RMK AO2 P0003,M
MEV,2024-03-31 17:55,-119.7500,38.9963,1441.42,37.40,32.00,80.65,0.00,0.00,0.00,29.75,M,10.00,M,BKN,OVC,M,M,5000.00,5500.00,M,M,M,M,M,M,M,M,M,37.40,KMEV 311755Z AUTO 00000KT 10SM BKN050 OVC055 03/00 A2975 RMK AO2,M
HTH,2024-03-31 17:55,-118.6315,38.5448,1282.89,41.00,33.80,75.33,150.00,4.00,0.00,29.74,M,10.00,M,FEW,SCT,M,M,1600.00,5500.00,M,M,M,M,M,M,M,M,M,37.93,KHTH 311755Z AUTO 15004KT 10SM FEW016 SCT055 05/01 A2974 RMK A01,M
10U,2024-03-31 17:55,-116.1876,41.9532,1637.00,41.00,24.80,52.17,330.00,11.00,0.00,29.60,M,10.00,M,BKN,BKN,M,M,3800.00,4800.00,M,M,M,M,M,M,M,M,M,33.84,K10U 311755Z AUTO 33011KT 10SM BKN038 BKN048 05/M04 A2960 RMK AO2,M
BAM,2024-03-31 17:55,-116.8743,40.5990,1382.36,37.40,35.60,93.14,230.00,5.00,0.00,29.67,M,10.00,M,BKN,BKN,OVC,M,1200.00,3000.00,4300.00,M,M,M,M,M,M,M,M,32.81,KBAM 311755Z AUTO 23005KT 10SM BKN012 BKN030 OVC043 03/02 A2967 RMK AO1,M
TMT,2024-03-31 17:55,-117.1971,39.4643,1749.34,32.40,32.00,98.40,200.00,10.00,0.00,29.67,M,2.50,M,SCT,BKN,OVC,M,900.00,1500.00,2300.00,M,-SN,M,M,M,M,M,M,23.47,KTMT 311755Z AUTO 20010KT 2 1/2SM -SN SCT009 BKN015 OVC023 00/00 A2967 RMK AO2 T00021001 10002 21011,M
LSV,2024-03-31 17:55,-115.0343,36.2362,570.00,53.00,39.00,58.85,80.00,3.00,0.00,29.77,1007.80,10.00,M,SCT,M,M,M,3200.00,M,M,M,M,M,M,M,M,M,M,53.00,KLSV 311755Z AUTO 08003KT 10SM SCT032 12/04 A2977 RMK AO2 SLP078 T01160039 10116 20052 52007 $,M
EKO,2024-03-31 17:56,-115.7860,40.8242,1367.00,33.00,32.00,96.06,170.00,4.00,0.05,29.61,1002.80,0.50,M,FEW,OVC,M,M,400.00,900.00,M,M,SN FG,M,M,M,M,M,M,28.59,KEKO 311756Z AUTO 17004KT 1/2SM SN FG FEW004 OVC009 01/00 A2961 RMK AO2 SLP028 P0005 60039 T00060000 10011 20006 51008,M
WMC,2024-03-31 17:56,-117.8072,40.9019,1315.00,39.00,35.00,85.42,120.00,3.00,0.00,29.68,1004.50,10.00,M,FEW,SCT,BKN,M,800.00,1500.00,2000.00,M,M,M,M,M,M,M,M,36.69,KWMC 311756Z AUTO 12003KT 10SM FEW008 SCT015 BKN020 04/02 A2968 RMK AO2 SLP045 60016 T00390017 10039 20006 53010,M
NFL,2024-03-31 17:56,-118.7010,39.4166,1199.00,46.00,34.00,62.71,280.00,13.00,0.00,29.70,1003.80,10.00,M,FEW,BKN,M,M,3100.00,4000.00,M,M,M,M,M,M,M,M,M,39.50,KNFL 311756Z AUTO 28013KT 10SM FEW031 BKN040 08/01 A2970 RMK AO2 SLP038 60001 T00780011 10078 20011 51004,M
HND,2024-03-31 17:56,-115.1344,35.9729,742.79,54.00,35.00,48.46,200.00,13.00,0.00,29.80,1010.70,10.00,M,OVC,M,M,M,7000.00,M,M,M,M,M,M,M,M,M,M,54.00,KHND 311756Z 20013KT 10SM OVC070 12/02 A2980 RMK AO2 SLP107 T01220017 10122 20039 51007,M
TPH,2024-03-31 17:56,-117.0904,38.0505,1654.00,40.00,29.00,64.50,210.00,9.00,0.00,29.70,1005.20,10.00,15.00,SCT,BKN,OVC,M,2800.00,3600.00,6000.00,M,M,M,M,M,M,M,M,33.46,KTPH 311756Z AUTO 21009G15KT 10SM SCT028 BKN036 OVC060 04/M02 A2970 RMK AO2 SLP052 60000 T00441017 10050 21006 51003,M
LAS,2024-03-31 17:56,-115.1634,36.0719,663.00,53.00,36.00,52.30,180.00,5.00,0.00,29.78,1008.10,10.00,M,SCT,BKN,M,M,7000.00,13000.00,M,M,M,M,M,M,M,M,M,53.00,KLAS 311756Z 18005KT 10SM SCT070 BKN130 12/02 A2978 RMK AO2 SLP081 T01170022 10117 20050 50005 $,M
LOL,2024-03-31 18:03,-118.5701,40.0684,1192.43,42.00,37.00,82.30,0.00,0.00,0.00,29.70,M,10.00,M,SCT,M,M,M,1000.00,M,M,M,M,M,M,M,M,M,M,42.00,KLOL 311803Z AUTO 00000KT 10SM SCT010 06/03 A2970 RMK AO2 T00560028,M
LSV,2024-03-31 18:05,-115.0343,36.2362,570.00,53.60,39.20,58.02,0.00,0.00,0.00,29.77,1007.80,10.00,M,SCT,M,M,M,3100.00,M,M,M,M,M,M,M,M,M,M,53.60,KLSV 311805Z AUTO 00000KT 10SM SCT031 12/04 A2977 RMK AO2 SLP078 $,M
EKO,2024-03-31 18:06,-115.7860,40.8242,1367.00,34.00,32.00,92.29,190.00,3.00,0.01,29.61,M,1.50,M,SCT,BKN,OVC,M,400.00,1100.00,2500.00,M,-SN BR,M,M,M,M,M,M,30.97,KEKO 311806Z AUTO 19003KT 1 1/2SM -SN BR SCT004 BKN011 OVC025 01/00 A2961 RMK AO2 P0001 T00110000,M
05U,2024-03-31 18:10,-116.0051,39.6042,1811.23,33.80,30.20,86.49,0.00,0.00,0.00,29.65,M,1.25,M,CLR,M,M,M,M,M,M,M,BR,M,M,M,M,M,M,33.80,K05U 311810Z AUTO 00000KT 1 1/4SM BR CLR 01/M01 A2965 RMK A01,M
BVU,2024-03-31 18:15,-114.8611,35.9475,671.00,55.40,41.00,58.27,160.00,8.00,0.00,29.79,M,10.00,14.00,SCT,SCT,OVC,M,3500.00,4900.00,7500.00,M,M,M,M,M,M,M,M,55.40,KBVU 311815Z AUTO 16008G14KT 140V200 10SM SCT035 SCT049 OVC075 13/05 A2979 RMK AO2,M
CXP,2024-03-31 18:15,-119.7326,39.1923,1431.00,42.80,35.60,75.50,M,5.00,0.00,29.76,M,10.00,M,BKN,M,M,M,1600.00,M,M,M,M,M,M,M,M,M,M,39.22,KCXP 311815Z AUTO VRB05KT 10SM BKN016 06/02 A2976 RMK AO2,M
RTS,2024-03-31 18:15,-119.8764,39.6682,1539.00,39.20,32.00,75.16,330.00,9.00,0.00,29.74,M,10.00,M,CLR,M,M,M,M,M,M,M,M,M,M,M,M,M,M,32.47,KRTS 311815Z AUTO 33009KT 10SM CLR 04/M00 A2974 RMK AO2,M
MEV,2024-03-31 18:15,-119.7500,38.9963,1441.42,39.20,32.00,75.16,0.00,0.00,0.00,29.75,M,10.00,M,SCT,OVC,M,M,4900.00,6000.00,M,M,M,M,M,M,M,M,M,39.20,KMEV 311815Z AUTO 00000KT 10SM SCT049 OVC060 04/00 A2975 RMK AO2,M
HTH,2024-03-31 18:15,-118.6315,38.5448,1282.89,41.00,33.80,75.33,140.00,4.00,0.00,29.74,M,10.00,M,BKN,M,M,M,5500.00,M,M,M,M,M,M,M,M,M,M,37.93,KHTH 311815Z AUTO 14004KT 10SM BKN055 05/01 A2974 RMK A01,M
10U,2024-03-31 18:15,-116.1876,41.9532,1637.00,41.00,23.00,48.39,340.00,10.00,0.00,29.60,M,10.00,16.00,BKN,BKN,M,M,4300.00,5000.00,M,M,M,M,M,M,M,M,M,34.25,K10U 311815Z AUTO 34010G16KT 10SM BKN043 BKN050 05/M05 A2960 RMK AO2,M
BAM,2024-03-31 18:15,-116.8743,40.5990,1382.36,39.20,35.60,86.79,260.00,3.00,0.00,29.67,M,10.00,M,SCT,BKN,OVC,M,1200.00,3200.00,4600.00,M,M,M,M,M,M,M,M,36.92,KBAM 311815Z AUTO 26003KT 10SM SCT012 BKN032 OVC046 04/02 A2967 RMK AO1,M
TMT,2024-03-31 18:15,-117.1971,39.4643,1749.34,33.30,32.00,94.91,190.00,9.00,0.00,29.67,M,3.00,M,SCT,OVC,M,M,900.00,1500.00,M,M,-SN,M,M,M,M,M,M,25.13,KTMT 311815Z AUTO 19009KT 3SM -SN SCT009 OVC015 01/00 A2967 RMK AO2 T00070000,M
EKO,2024-03-31 18:16,-115.7860,40.8242,1367.00,34.00,32.00,92.29,190.00,3.00,0.01,29.61,M,2.00,M,FEW,OVC,M,M,300.00,1500.00,M,M,-SN BR,M,M,M,M,M,M,30.97,KEKO 311816Z AUTO 19003KT 2SM -SN BR FEW003 OVC015 01/00 A2961 RMK AO2 P0001 T00110000,M
EKO,2024-03-31 18:23,-115.7860,40.8242,1367.00,34.00,32.00,92.29,230.00,3.00,0.01,29.62,M,1.50,M,FEW,OVC,M,M,300.00,1500.00,M,M,-SN BR,M,M,M,M,M,M,30.97,KEKO 311823Z AUTO 23003KT 1 1/2SM -SN BR FEW003 OVC015 01/00 A2962 RMK AO2 P0001 T00110000,M
05U,2024-03-31 18:30,-116.0051,39.6042,1811.23,33.80,30.20,86.49,0.00,0.00,0.00,29.65,M,0.75,M,VV ,M,M,M,500.00,M,M,M,BR,M,M,M,M,M,M,33.80,K05U 311830Z AUTO 00000KT 3/4SM BR VV005 01/M01 A2965 RMK A01,M
HTH,2024-03-31 18:30,-118.6315,38.5448,1282.89,41.00,33.80,75.33,130.00,4.00,0.00,29.74,M,10.00,M,FEW,BKN,M,M,1700.00,6000.00,M,M,M,M,M,M,M,M,M,37.93,KHTH 311830Z AUTO 13004KT 10SM FEW017 BKN060 05/01 A2974 RMK A01,M
BVU,2024-03-31 18:35,-114.8611,35.9475,671.00,55.40,39.20,54.34,160.00,9.00,0.00,29.78,M,10.00,18.00,BKN,BKN,OVC,M,3600.00,4400.00,7500.00,M,M,M,M,M,M,M,M,55.40,KBVU 311835Z AUTO 16009G18KT 10SM BKN036 BKN044 OVC075 13/04 A2978 RMK AO2,M
CXP,2024-03-31 18:35,-119.7326,39.1923,1431.00,41.00,32.00,70.08,M,4.00,0.00,29.75,M,10.00,M,FEW,SCT,SCT,M,1700.00,5500.00,12000.00,M,M,M,M,M,M,M,M,37.93,KCXP 311835Z AUTO VRB04KT 10SM FEW017 SCT055 SCT120 05/00 A2975 RMK AO2,M
EKO,2024-03-31 18:35,-115.7860,40.8242,1367.00,33.00,32.00,96.06,230.00,3.00,0.02,29.62,M,0.75,M,VV ,M,M,M,1300.00,M,M,M,-SN BR,M,M,M,M,M,M,29.83,KEKO 311835Z AUTO 23003KT 3/4SM -SN BR VV013 01/00 A2962 RMK AO2 P0002 T00060000,M
RTS,2024-03-31 18:35,-119.8764,39.6682,1539.00,39.20,30.20,69.88,310.00,10.00,0.00,29.74,M,10.00,M,BKN,M,M,M,9500.00,M,M,M,M,M,M,M,M,M,M,32.00,KRTS 311835Z AUTO 31010KT 10SM BKN095 04/M01 A2974 RMK AO2,M
MEV,2024-03-31 18:35,-119.7500,38.9963,1441.42,39.20,32.00,75.16,0.00,0.00,0.00,29.74,M,10.00,M,BKN,OVC,M,M,5000.00,6000.00,M,M,M,M,M,M,M,M,M,39.20,KMEV 311835Z AUTO 00000KT 10SM BKN050 OVC060 04/00 A2974 RMK AO2,M
10U,2024-03-31 18:35,-116.1876,41.9532,1637.00,42.80,23.00,45.14,20.00,12.00,0.00,29.61,M,10.00,20.00,SCT,SCT,M,M,4700.00,6000.00,M,M,M,M,M,M,M,M,M,35.75,K10U 311835Z AUTO 02012G20KT 10SM SCT047 SCT060 06/M05 A2961 RMK AO2,M
BAM,2024-03-31 18:35,-116.8743,40.5990,1382.36,41.00,35.60,80.93,0.00,0.00,0.00,29.67,M,10.00,M,SCT,SCT,SCT,M,3200.00,4100.00,6000.00,M,M,M,M,M,M,M,M,41.00,KBAM 311835Z AUTO 00000KT 10SM SCT032 SCT041 SCT060 05/02 A2967 RMK AO1,M
TMT,2024-03-31 18:35,-117.1971,39.4643,1749.34,33.40,32.00,94.53,210.00,8.00,0.00,29.67,M,2.50,M,SCT,OVC,M,M,900.00,1600.00,M,M,-SN,M,M,M,M,M,M,25.84,KTMT 311835Z AUTO 21008KT 2 1/2SM -SN SCT009 OVC016 01/00 A2967 RMK AO2 T00080001,M
05U,2024-03-31 18:50,-116.0051,39.6042,1811.23,33.80,32.00,93.03,0.00,0.00,0.00,29.65,M,0.75,M,BKN,BKN,M,M,700.00,1300.00,M,M,BR,M,M,M,M,M,M,33.80,K05U 311850Z AUTO 00000KT 3/4SM BR BKN007 BKN013 01/M00 A2965 RMK A01,M
P68,2024-03-31 18:53,-116.0056,39.6014,1993.00,33.00,31.00,92.25,230.00,5.00,0.02,29.63,1002.20,M,M,M,M,M,M,M,M,M,M,M,M,M,M,M,M,M,27.58,KP68 311853Z AUTO 23005KT 01/M01 A2963 RMK AO1 SLP022 P0002 T00061006,M
DRA,2024-03-31 18:53,-116.0278,36.6206,1009.00,49.00,35.00,58.30,230.00,13.00,0.00,29.76,1006.40,10.00,M,OVC,M,M,M,4100.00,M,M,M,M,M,M,M,M,M,M,43.35,KDRA 311853Z AUTO 23013KT 10SM OVC041 09/02 A2976 RMK AO2 SLP064 T00940017,M
ELY,2024-03-31 18:53,-114.8453,39.2950,1909.00,37.00,25.00,61.50,170.00,10.00,0.00,29.62,1001.50,10.00,18.00,BKN,OVC,M,M,3000.00,6500.00,M,M,M,M,M,M,M,M,M,29.24,KELY 311853Z AUTO 17010G18KT 10SM BKN030 OVC065 03/M04 A2962 RMK AO2 SLP015 T00281039,M
VGT,2024-03-31 18:53,-115.1933,36.2111,667.00,56.00,40.00,54.85,60.00,8.00,0.00,29.76,1009.30,10.00,M,FEW,SCT,M,M,4200.00,5000.00,M,M,M,M,M,M,M,M,M,56.00,KVGT 311853Z 06008KT 10SM FEW042 SCT050 13/04 A2976 RMK AO2 SLP093 T01330044,M
LOL,2024-03-31 18:53,-118.5701,40.0684,1192.43,44.00,36.00,73.27,0.00,0.00,0.00,29.70,1006.20,10.00,M,CLR,M,M,M,M,M,M,M,M,M,M,M,M,M,M,44.00,KLOL 311853Z AUTO 00000KT 10SM CLR 07/02 A2970 RMK AO2 SLP062 T00670022,M
EKO,2024-03-31 18:54,-115.7860,40.8242,1367.00,33.80,32.00,93.03,220.00,2.92,M,29.63,M,0.50,M,FEW,OVC,M,M,498.00,1000.00,M,M,SN FG,M,M,M,M,M,M,30.86,SPECI KEKO 311854Z 22003KT 1/2SM SN FG FEW005 OVC010 01/00 A2963 RMK AO2 P0003 FIBI,M
BVU,2024-03-31 18:55,-114.8611,35.9475,671.00,53.60,39.20,58.02,190.00,7.00,0.00,29.78,M,10.00,17.00,FEW,SCT,OVC,M,3600.00,4300.00,5000.00,M,M,M,M,M,M,M,M,53.60,KBVU 311855Z AUTO 19007G17KT 10SM FEW036 SCT043 OVC050 12/04 A2978 RMK AO2,M
CXP,2024-03-31 18:55,-119.7326,39.1923,1431.00,42.80,33.80,70.28,M,3.00,0.00,29.75,M,10.00,M,BKN,BKN,BKN,M,6000.00,7000.00,12000.00,M,M,M,M,M,M,M,M,41.03,KCXP 311855Z AUTO VRB03KT 10SM BKN060 BKN070 BKN120 06/01 A2975 RMK AO2,M
INS,2024-03-31 18:55,-115.6733,36.5872,955.00,52.00,34.30,50.72,70.00,4.00,0.00,29.76,1006.40,10.00,M,FEW,SCT,M,M,4900.00,6500.00,M,M,M,M,M,M,M,M,M,52.00,KINS 311855Z AUTO 07004KT 10SM FEW049 SCT065 11/01 A2976 RMK AO2 SLP064 T01110013 $,M
RNO,2024-03-31 18:55,-119.7711,39.4839,1341.00,46.00,31.00,55.58,0.00,0.00,0.00,29.72,1005.50,10.00,M,FEW,SCT,BKN,M,3300.00,5500.00,14000.00,M,M,M,M,M,M,M,M,46.00,KRNO 311855Z 00000KT 10SM FEW033 SCT055 BKN140 08/M01 A2972 RMK AO2 SLP055 MTN TOPS OBSCD DSNT SW T00781006 $,M
LSV,2024-03-31 18:55,-115.0343,36.2362,570.00,54.70,39.70,56.83,100.00,3.00,0.00,29.75,1007.00,10.00,M,SCT,BKN,M,M,3400.00,4600.00,M,M,M,M,M,M,M,M,M,54.70,KLSV 311855Z AUTO 10003KT 10SM SCT034 BKN046 13/04 A2975 RMK AO2 SLP070 T01260043 $,M
BAM,2024-03-31 18:55,-116.8743,40.5990,1382.36,42.80,37.40,81.07,260.00,5.00,0.00,29.67,M,10.00,M,SCT,SCT,BKN,M,1500.00,3200.00,6500.00,M,M,M,M,M,M,M,M,39.22,KBAM 311855Z AUTO 26005KT 10SM SCT015 SCT032 BKN065 06/03 A2967 RMK AO1,M
RTS,2024-03-31 18:55,-119.8764,39.6682,1539.00,41.00,30.20,65.16,290.00,11.00,0.00,29.74,M,10.00,M,SCT,M,M,M,9500.00,M,M,M,M,M,M,M,M,M,M,33.84,KRTS 311855Z AUTO 29011KT 10SM SCT095 05/M01 A2974 RMK AO2,M
MEV,2024-03-31 18:55,-119.7500,38.9963,1441.42,41.00,32.00,70.08,140.00,4.00,0.00,29.75,M,10.00,M,BKN,OVC,M,M,5000.00,6000.00,M,M,M,M,M,M,M,M,M,37.93,KMEV 311855Z AUTO 14004KT 10SM BKN050 OVC060 05/00 A2975 RMK AO2,M
HTH,2024-03-31 18:55,-118.6315,38.5448,1282.89,41.00,32.00,70.08,M,3.00,0.00,29.73,M,10.00,M,SCT,M,M,M,8000.00,M,M,M,M,M,M,M,M,M,M,38.98,KHTH 311855Z AUTO VRB03KT 10SM SCT080 05/00 A2973 RMK A01,M
TMT,2024-03-31 18:55,-117.1971,39.4643,1749.34,33.00,32.00,96.06,230.00,8.00,0.00,29.68,M,1.25,M,BKN,OVC,M,M,900.00,1600.00,M,M,-SN,M,M,M,M,M,M,25.34,KTMT 311855Z AUTO 23008KT 1 1/4SM -SN BKN009 OVC016 01/00 A2968 RMK AO2 T00060000,M
10U,2024-03-31 18:55,-116.1876,41.9532,1637.00,42.80,21.20,41.84,340.00,12.00,0.00,29.61,M,10.00,21.00,SCT,BKN,M,M,4900.00,5500.00,M,M,M,M,M,M,M,M,M,35.75,K10U 311855Z AUTO 34012G21KT 10SM SCT049 BKN055 06/M06 A2961 RMK AO2,M
EKO,2024-03-31 18:56,-115.7860,40.8242,1367.00,33.00,32.00,96.06,220.00,3.00,0.03,29.63,1003.50,0.75,M,SCT,OVC,M,M,500.00,1000.00,M,M,-SN BR,M,M,M,M,M,M,29.83,KEKO 311856Z AUTO 22003KT 3/4SM -SN BR SCT005 OVC010 01/00 A2963 RMK AO2 SLP035 P0003 T00060000,M
WMC,2024-03-31 18:56,-117.8072,40.9019,1315.00,41.00,34.00,75.94,M,3.00,0.00,29.69,1004.80,10.00,M,SCT,BKN,OVC,M,1800.00,2300.00,4600.00,M,M,M,M,M,M,M,M,38.98,KWMC 311856Z AUTO VRB03KT 10SM SCT018 BKN023 OVC046 05/01 A2969 RMK AO2 SLP048 T00500011,M
NFL,2024-03-31 18:56,-118.7010,39.4166,1199.00,46.00,34.00,62.71,340.00,8.00,0.00,29.70,1003.80,10.00,M,BKN,BKN,OVC,M,3500.00,4700.00,6000.00,M,M,M,M,M,29.00,320.00,2024-03-31 18:42,41.36,KNFL 311856Z AUTO 34008KT 10SM BKN035 BKN047 OVC060 08/01 A2970 RMK AO2 PK WND 32029/1842 SLP038 T00780011,M
HND,2024-03-31 18:56,-115.1344,35.9729,742.79,57.00,33.00,40.12,220.00,13.00,0.00,29.79,1010.00,10.00,M,CLR,M,M,M,M,M,M,M,M,M,M,M,M,M,M,57.00,KHND 311856Z 22013KT 10SM CLR 14/01 A2979 RMK AO2 SLP100 T01390006,M
TPH,2024-03-31 18:56,-117.0904,38.0505,1654.00,39.00,30.00,69.85,250.00,8.00,0.00,29.70,1005.50,10.00,M,BKN,BKN,OVC,M,3600.00,4600.00,5000.00,M,M,M,M,M,M,M,M,32.74,KTPH 311856Z AUTO 25008KT 10SM BKN036 BKN046 OVC050 04/M01 A2970 RMK AO2 SLP055 T00391011,M
LAS,2024-03-31 18:56,-115.1634,36.0719,663.00,57.00,35.00,43.46,270.00,5.00,0.00,29.76,1007.50,10.00,M,SCT,SCT,M,M,5000.00,12000.00,M,M,M,M,M,M,M,M,M,57.00,KLAS 311856Z 27005KT 10SM SCT050 SCT120 14/02 A2976 RMK AO2 SLP075 T01390017 $,M
LSV,2024-03-31 19:05,-115.0343,36.2362,570.00,55.40,39.20,54.34,10.00,3.00,0.00,29.74,1006.60,10.00,M,SCT,SCT,BKN,M,3600.00,4600.00,16000.00,M,M,M,M,M,M,M,M,55.40,KLSV 311905Z AUTO 01003KT 10SM SCT036 SCT046 BKN160 13/04 A2974 RMK AO2 SLP066 $,M
EKO,2024-03-31 19:09,-115.7860,40.8242,1367.00,33.00,32.00,96.06,210.00,4.00,0.01,29.63,M,0.75,M,FEW,OVC,M,M,400.00,900.00,M,M,-SN BR,M,M,M,M,M,M,28.59,KEKO 311909Z AUTO 21004KT 3/4SM -SN BR FEW004 OVC009 01/00 A2963 RMK AO2 P0001 T00060000,M
05U,2024-03-31 19:10,-116.0051,39.6042,1811.23,35.60,32.00,86.59,40.00,8.00,0.00,29.65,M,1.25,M,M,M,M,M,M,M,M,M,BR,M,M,M,M,M,M,28.55,K05U 311910Z AUTO 04008KT 1 1/4SM BR 02/00 A2965 RMK A01,M
BVU,2024-03-31 19:15,-114.8611,35.9475,671.00,57.20,39.20,50.91,160.00,13.00,0.00,29.77,M,10.00,M,FEW,OVC,M,M,4000.00,4900.00,M,M,M,M,M,M,M,M,M,57.20,KBVU 311915Z AUTO 16013KT 10SM FEW040 OVC049 14/04 A2977 RMK AO2,M
CXP,2024-03-31 19:15,-119.7326,39.1923,1431.00,44.60,33.80,65.61,0.00,0.00,0.00,29.74,M,10.00,M,SCT,SCT,M,M,6000.00,7000.00,M,M,M,M,M,M,M,M,M,44.60,KCXP 311915Z AUTO 00000KT 10SM SCT060 SCT070 07/01 A2974 RMK AO2,M
RTS,2024-03-31 19:15,-119.8764,39.6682,1539.00,41.00,30.20,65.16,290.00,9.00,0.00,29.73,M,10.00,M,CLR,M,M,M,M,M,M,M,M,M,M,M,M,M,M,34.70,KRTS 311915Z AUTO 29009KT 10SM CLR 05/M01 A2973 RMK AO2,M
MEV,2024-03-31 19:15,-119.7500,38.9963,1441.42,41.00,33.80,75.33,M,4.00,0.00,29.74,M,10.00,M,OVC,M,M,M,6000.00,M,M,M,M,M,M,M,M,M,M,37.93,KMEV 311915Z AUTO VRB04KT 10SM OVC060 05/01 A2974 RMK AO2,M
HTH,2024-03-31 19:15,-118.6315,38.5448,1282.89,42.80,33.80,70.28,M,4.00,0.00,29.73,M,10.00,M,BKN,OVC,M,M,8000.00,9000.00,M,M,M,M,M,M,M,M,M,40.03,KHTH 311915Z AUTO VRB04KT 10SM BKN080 OVC090 06/01 A2973 RMK A01,M
10U,2024-03-31 19:15,-116.1876,41.9532,1637.00,42.80,19.40,38.75,310.00,11.00,0.00,29.62,M,10.00,20.00,FEW,SCT,M,M,5000.00,6000.00,M,M,M,M,M,M,M,M,M,36.11,K10U 311915Z AUTO 31011G20KT 10SM FEW050 SCT060 06/M07 A2962 RMK AO2,M
BAM,2024-03-31 19:15,-116.8743,40.5990,1382.36,41.00,35.60,80.93,250.00,3.00,0.00,29.67,M,7.00,M,SCT,BKN,OVC,M,1500.00,3100.00,6500.00,M,M,M,M,M,M,M,M,38.98,KBAM 311915Z AUTO 25003KT 7SM SCT015 BKN031 OVC065 05/02 A2967 RMK AO1,M
TMT,2024-03-31 19:15,-117.1971,39.4643,1749.34,32.00,32.00,100.00,270.00,5.00,0.00,29.68,M,0.50,M,OVC,M,M,M,500.00,M,M,M,SN,M,M,M,M,M,M,26.40,KTMT 311915Z AUTO 27005KT 1/2SM SN OVC005 00/00 A2968 RMK AO2 T00001001,M
EKO,2024-03-31 19:17,-115.7860,40.8242,1367.00,34.00,33.00,96.08,200.00,3.00,0.02,29.63,M,0.75,M,SCT,OVC,M,M,400.00,1100.00,M,M,-SN BR,M,M,M,M,M,M,30.97,KEKO 311917Z AUTO 20003KT 3/4SM -SN BR SCT004 OVC011 01/01 A2963 RMK AO2 P0002 T00110006,M
WMC,2024-03-31 19:17,-117.8072,40.9019,1315.00,43.00,36.00,76.12,120.00,5.00,0.00,29.69,M,10.00,M,FEW,BKN,OVC,M,2000.00,5000.00,6500.00,M,M,M,M,M,M,M,M,39.46,KWMC 311917Z AUTO 12005KT 10SM FEW020 BKN050 OVC065 06/02 A2969 RMK AO2 T00610022,M
EKO,2024-03-31 19:25,-115.7860,40.8242,1367.00,34.00,33.00,96.08,0.00,0.00,0.02,29.63,M,0.75,M,BKN,OVC,M,M,400.00,1100.00,M,M,-SN BR,M,M,M,M,M,M,34.00,KEKO 311925Z AUTO 00000KT 3/4SM -SN BR BKN004 OVC011 01/01 A2963 RMK AO2 P0002 T00110006,M
CXP,2024-03-31 19:30,-119.7326,39.1923,1431.00,46.40,35.60,65.83,180.00,6.00,0.00,29.73,M,10.00,M,FEW,M,M,M,5500.00,M,M,M,M,M,M,M,M,M,M,42.87,KCXP 311930Z AUTO 18006KT 10SM FEW055 08/02 A2973 RMK AO2,M
05U,2024-03-31 19:30,-116.0051,39.6042,1811.23,35.60,33.80,93.08,70.00,8.00,0.00,29.66,M,1.50,M,M,M,M,M,M,M,M,M,BR,M,M,M,M,M,M,28.55,K05U 311930Z AUTO 07008KT 1 1/2SM BR 02/01 A2966 RMK A01,M
BAM,2024-03-31 19:35,-116.8743,40.5990,1382.36,39.20,35.60,86.79,220.00,4.00,0.00,29.68,M,7.00,M,SCT,BKN,OVC,M,2000.00,3100.00,6500.00,M,M,M,M,M,M,M,M,35.83,KBAM 311935Z AUTO 22004KT 7SM SCT020 BKN031 OVC065 04/02 A2968 RMK AO1,M
TMT,2024-03-31 19:35,-117.1971,39.4643,1749.34,32.00,32.00,100.00,260.00,3.00,0.00,29.68,M,0.50,M,OVC,M,M,M,500.00,M,M,M,-SN,M,M,M,M,M,M,28.69,KTMT 311935Z AUTO 26003KT 1/2SM -SN OVC005 00/00 A2968 RMK AO2 T00000000,M
BVU,2024-03-31 19:35,-114.8611,35.9475,671.00,55.40,39.20,54.34,160.00,14.00,0.00,29.77,M,10.00,M,FEW,SCT,BKN,M,4300.00,5000.00,6500.00,M,M,M,M,M,M,M,M,55.40,KBVU 311935Z AUTO 16014KT 10SM FEW043 SCT050 BKN065 13/04 A2977 RMK AO2,M
RTS,2024-03-31 19:35,-119.8764,39.6682,1539.00,41.00,30.20,65.16,300.00,14.00,0.00,29.74,M,10.00,20.00,SCT,M,M,M,9000.00,M,M,M,M,M,M,M,M,M,M,32.76,KRTS 311935Z AUTO 30014G20KT 10SM SCT090 05/M01 A2974 RMK AO2,M
MEV,2024-03-31 19:35,-119.7500,38.9963,1441.42,42.80,33.80,70.28,M,5.00,0.00,29.72,M,10.00,M,SCT,SCT,M,M,6000.00,10000.00,M,M,M,M,M,M,M,M,M,39.22,KMEV 311935Z AUTO VRB05KT 10SM SCT060 SCT100 06/01 A2972 RMK AO2,M
HTH,2024-03-31 19:35,-118.6315,38.5448,1282.89,44.60,33.80,65.61,150.00,4.00,0.00,29.72,M,10.00,M,BKN,M,M,M,9000.00,M,M,M,M,M,M,M,M,M,M,42.13,KHTH 311935Z AUTO 15004KT 10SM BKN090 07/01 A2972 RMK A01,M
10U,2024-03-31 19:35,-116.1876,41.9532,1637.00,44.60,19.40,36.18,330.00,10.00,0.00,29.62,M,10.00,19.00,FEW,M,M,M,6000.00,M,M,M,M,M,M,M,M,M,M,38.77,K10U 311935Z AUTO 33010G19KT 10SM FEW060 07/M07 A2962 RMK AO2,M
05U,2024-03-31 19:50,-116.0051,39.6042,1811.23,35.60,33.80,93.08,60.00,12.00,0.00,29.66,M,1.75,M,M,M,M,M,M,M,M,M,BR,M,M,M,M,M,M,26.58,K05U 311950Z AUTO 06012KT 1 3/4SM BR 02/01 A2966 RMK A01,M
P68,2024-03-31 19:53,-116.0056,39.6014,1993.00,35.00,32.00,88.68,270.00,11.00,0.01,29.64,1002.50,M,18.00,M,M,M,M,M,M,M,M,M,M,M,M,M,M,M,26.26,KP68 311953Z AUTO 27011G18KT 02/00 A2964 RMK AO1 SLP025 P0001 T00170000,M
DRA,2024-03-31 19:53,-116.0278,36.6206,1009.00,50.00,36.00,58.44,200.00,11.00,0.00,29.74,1005.70,10.00,21.00,SCT,BKN,OVC,M,4000.00,4700.00,5500.00,M,M,M,M,M,M,M,M,50.00,KDRA 311953Z AUTO 20011G21KT 10SM SCT040 BKN047 OVC055 10/02 A2974 RMK AO2 SLP057 T01000022,M
ELY,2024-03-31 19:53,-114.8453,39.2950,1909.00,37.00,25.00,61.50,180.00,9.00,0.00,29.62,1001.60,10.00,20.00,BKN,OVC,M,M,3400.00,4700.00,M,M,M,M,M,M,M,M,M,29.73,KELY 311953Z AUTO 18009G20KT 10SM BKN034 OVC047 03/M04 A2962 RMK AO2 SLP016 T00281039,M
VGT,2024-03-31 19:53,-115.1933,36.2111,667.00,60.00,33.00,36.03,200.00,12.00,0.00,29.74,1008.40,10.00,21.00,SCT,BKN,M,M,6500.00,7500.00,M,M,M,M,M,M,M,M,M,60.00,KVGT 311953Z 20012G21KT 10SM SCT065 BKN075 16/01 A2974 RMK AO2 SLP084 T01560006,M
LOL,2024-03-31 19:53,-118.5701,40.0684,1192.43,45.00,35.00,67.78,M,3.00,0.00,29.71,1006.40,10.00,M,FEW,SCT,BKN,M,3700.00,4400.00,12000.00,M,M,M,M,M,M,M,M,43.55,KLOL 311953Z AUTO VRB03KT 10SM FEW037 SCT044 BKN120 07/02 A2971 RMK AO2 SLP064 T00720017,M
BVU,2024-03-31 19:55,-114.8611,35.9475,671.00,55.40,39.20,54.34,150.00,13.00,0.00,29.76,M,10.00,M,SCT,BKN,OVC,M,5500.00,6500.00,7500.00,M,M,M,M,M,M,M,M,55.40,KBVU 311955Z AUTO 15013KT 10SM SCT055 BKN065 OVC075 13/04 A2976 RMK AO2,M
CXP,2024-03-31 19:55,-119.7326,39.1923,1431.00,46.40,32.00,57.00,M,4.00,0.00,29.73,M,10.00,M,CLR,M,M,M,M,M,M,M,M,M,M,M,M,M,M,44.24,KCXP 311955Z AUTO VRB04KT 10SM CLR 08/00 A2973 RMK AO2,M
INS,2024-03-31 19:55,-115.6733,36.5872,955.00,52.30,32.70,47.05,80.00,6.00,0.00,29.74,1005.70,10.00,M,BKN,M,M,M,6500.00,M,M,M,M,M,M,M,M,M,M,52.30,KINS 311955Z AUTO 08006KT 10SM BKN065 11/00 A2974 RMK AO2 SLP057 T01130004 $,M
RNO,2024-03-31 19:55,-119.7711,39.4839,1341.00,48.00,30.00,49.49,340.00,18.00,0.00,29.71,1005.30,10.00,26.00,SCT,BKN,M,M,5000.00,13000.00,M,M,M,M,M,M,26.00,10.00,2024-03-31 19:49,40.81,KRNO 311955Z 34018G26KT 10SM SCT050 BKN130 09/M01 A2971 RMK AO2 PK WND 01026/1949 SLP053 T00891011 $,M
LSV,2024-03-31 19:55,-115.0343,36.2362,570.00,60.30,37.00,41.79,150.00,5.00,0.00,29.72,1005.80,10.00,M,FEW,FEW,M,M,6000.00,20000.00,M,M,M,M,M,M,M,M,M,60.30,KLSV 311955Z AUTO 15005KT 10SM FEW060 FEW200 16/03 A2972 RMK AO2 SLP058 T01570028 $,M
RTS,2024-03-31 19:55,-119.8764,39.6682,1539.00,41.00,30.20,65.16,320.00,12.00,0.00,29.75,M,10.00,M,OVC,M,M,M,9000.00,M,M,M,M,M,M,M,M,M,M,33.46,KRTS 311955Z AUTO 32012KT 10SM OVC090 05/M01 A2975 RMK AO2,M
MEV,2024-03-31 19:55,-119.7500,38.9963,1441.42,44.60,35.60,70.48,M,6.00,0.00,29.71,M,10.00,M,FEW,M,M,M,10000.00,M,M,M,M,M,M,M,M,M,M,40.71,KMEV 311955Z AUTO VRB06KT 10SM FEW100 07/02 A2971 RMK AO2,M
HTH,2024-03-31 19:55,-118.6315,38.5448,1282.89,46.40,32.00,57.00,0.00,0.00,0.00,29.72,M,10.00,M,SCT,SCT,M,M,2900.00,9500.00,M,M,M,M,M,M,M,M,M,46.40,KHTH 311955Z AUTO 00000KT 10SM SCT029 SCT095 08/00 A2972 RMK A01,M
10U,2024-03-31 19:55,-116.1876,41.9532,1637.00,42.80,17.60,35.87,350.00,12.00,0.00,29.62,M,10.00,20.00,SCT,M,M,M,5500.00,M,M,M,M,M,M,M,M,M,M,35.75,K10U 311955Z AUTO 35012G20KT 310V010 10SM SCT055 06/M08 A2962 RMK AO2,M
BAM,2024-03-31 19:55,-116.8743,40.5990,1382.36,41.00,35.60,80.93,0.00,0.00,0.00,29.69,M,7.00,M,SCT,BKN,OVC,M,2600.00,4800.00,8500.00,M,M,M,M,M,M,M,M,41.00,KBAM 311955Z AUTO 00000KT 7SM SCT026 BKN048 OVC085 05/02 A2969 RMK AO1,M
TMT,2024-03-31 19:55,-117.1971,39.4643,1749.34,33.00,32.00,96.06,0.00,0.00,0.00,29.68,M,5.00,M,SCT,SCT,OVC,M,500.00,1500.00,2400.00,M,-SN,M,M,M,M,M,M,33.00,KTMT 311955Z AUTO 00000KT 5SM -SN SCT005 SCT015 OVC024 01/00 A2968 RMK AO2 T00060000,M
EKO,2024-03-31 19:56,-115.7860,40.8242,1367.00,33.00,32.00,96.06,130.00,3.00,0.06,29.64,1004.00,0.50,M,OVC,M,M,M,400.00,M,M,M,SN FG,M,M,M,M,M,M,29.83,KEKO 311956Z AUTO 13003KT 1/2SM SN FG OVC004 01/00 A2964 RMK AO2 SLP040 P0006 T00060000,M
WMC,2024-03-31 19:56,-117.8072,40.9019,1315.00,49.00,29.00,45.77,330.00,9.00,0.00,29.69,1004.20,10.00,M,SCT,M,M,M,12000.00,M,M,M,M,M,M,M,M,M,M,44.65,KWMC 311956Z AUTO 33009KT 10SM SCT120 09/M02 A2969 RMK AO2 SLP042 T00941017,M
NFL,2024-03-31 19:56,-118.7010,39.4166,1199.00,47.00,34.00,60.38,330.00,7.00,0.00,29.70,1003.80,10.00,M,SCT,BKN,OVC,M,4300.00,6000.00,8500.00,M,M,M,M,M,M,M,M,43.06,KNFL 311956Z AUTO 33007KT 10SM SCT043 BKN060 OVC085 08/01 A2970 RMK AO2 SLP038 T00830011,M
HND,2024-03-31 19:56,-115.1344,35.9729,742.79,58.00,33.00,38.70,220.00,19.00,0.00,29.77,1009.60,10.00,M,BKN,M,M,M,7500.00,M,M,M,M,M,M,M,M,M,M,58.00,KHND 311956Z 22019KT 10SM BKN075 14/01 A2977 RMK AO2 SLP096 T01440006,M
TPH,2024-03-31 19:56,-117.0904,38.0505,1654.00,40.00,31.00,69.97,280.00,13.00,0.00,29.70,1005.10,10.00,M,FEW,BKN,OVC,M,2800.00,3600.00,4300.00,M,M,M,M,M,M,M,M,31.82,KTPH 311956Z AUTO 28013KT 10SM FEW028 BKN036 OVC043 04/M01 A2970 RMK AO2 SLP051 T00441006,M
LAS,2024-03-31 19:56,-115.1634,36.0719,663.00,58.00,33.00,38.70,220.00,11.00,0.00,29.74,1006.70,10.00,18.00,FEW,BKN,M,M,3500.00,6000.00,M,M,M,M,M,M,M,M,M,58.00,KLAS 311956Z 22011G18KT 10SM FEW035 BKN060 14/01 A2974 RMK AO2 SLP067 T01440006 $,M
05U,2024-03-31 20:10,-116.0051,39.6042,1811.23,35.60,33.80,93.08,70.00,10.00,0.00,29.67,M,1.50,M,M,M,M,M,M,M,M,M,BR,M,M,M,M,M,M,27.48,K05U 312010Z AUTO 07010KT 1 1/2SM BR 02/01 A2967 RMK A01,M
BVU,2024-03-31 20:15,-114.8611,35.9475,671.00,55.40,39.20,54.34,140.00,14.00,0.00,29.76,M,10.00,M,BKN,OVC,M,M,4600.00,6000.00,M,M,M,M,M,M,M,M,M,55.40,KBVU 312015Z AUTO 14014KT 10SM BKN046 OVC060 13/04 A2976 RMK AO2,M
CXP,2024-03-31 20:15,-119.7326,39.1923,1431.00,46.40,30.20,53.00,0.00,0.00,0.00,29.73,M,10.00,M,FEW,BKN,BKN,M,3700.00,5500.00,6500.00,M,M,M,M,M,M,M,M,46.40,KCXP 312015Z AUTO 00000KT 10SM FEW037 BKN055 BKN065 08/M01 A2973 RMK AO2,M
EKO,2024-03-31 20:15,-115.7860,40.8242,1367.00,33.00,31.00,92.25,80.00,4.00,0.04,29.65,M,0.25,M,VV ,M,M,M,500.00,M,M,M,SN FG,M,M,M,M,M,M,28.59,KEKO 312015Z AUTO 08004KT 1/4SM SN FG VV005 01/M01 A2965 RMK AO2 P0004 T00061006,M
RTS,2024-03-31 20:15,-119.8764,39.6682,1539.00,42.80,30.20,60.79,310.00,13.00,0.00,29.75,M,10.00,M,OVC,M,M,M,9500.00,M,M,M,M,M,M,M,M,M,M,35.40,KRTS 312015Z AUTO 31013KT 10SM OVC095 06/M01 A2975 RMK AO2,M
MEV,2024-03-31 20:15,-119.7500,38.9963,1441.42,46.40,35.60,65.83,0.00,0.00,0.00,29.72,M,10.00,M,CLR,M,M,M,M,M,M,M,M,M,M,M,M,M,M,46.40,KMEV 312015Z AUTO 00000KT 10SM CLR 08/02 A2972 RMK AO2,M
HTH,2024-03-31 20:15,-118.6315,38.5448,1282.89,48.20,33.80,57.26,40.00,7.00,0.00,29.72,M,10.00,M,SCT,M,M,M,2900.00,M,M,M,M,M,M,M,M,M,M,44.53,KHTH 312015Z AUTO 04007KT 10SM SCT029 09/01 A2972 RMK A01,M
10U,2024-03-31 20:15,-116.1876,41.9532,1637.00,44.60,17.60,33.49,360.00,13.00,0.00,29.63,M,10.00,19.00,BKN,M,M,M,6000.00,M,M,M,M,M,M,M,M,M,M,37.71,K10U 312015Z AUTO 36013G19KT 10SM BKN060 07/M08 A2963 RMK AO2,M
BAM,2024-03-31 20:15,-116.8743,40.5990,1382.36,42.80,35.60,75.50,300.00,4.00,0.00,29.68,M,10.00,M,SCT,BKN,OVC,M,2000.00,3600.00,5000.00,M,M,M,M,M,M,M,M,40.03,KBAM 312015Z AUTO 30004KT 10SM SCT020 BKN036 OVC050 06/02 A2968 RMK AO1,M
TMT,2024-03-31 20:15,-117.1971,39.4643,1749.34,33.80,32.00,93.03,0.00,0.00,0.00,29.69,M,4.00,M,SCT,BKN,OVC,M,900.00,1600.00,2700.00,M,UP,M,M,M,M,M,M,33.80,KTMT 312015Z AUTO 00000KT 4SM UP SCT009 BKN016 OVC027 01/00 A2969 RMK AO2 T00100000,M
05U,2024-03-31 20:30,-116.0051,39.6042,1811.23,35.60,33.80,93.08,80.00,10.00,0.00,29.68,M,1.75,M,M,M,M,M,M,M,M,M,BR,M,M,M,M,M,M,27.48,K05U 312030Z AUTO 08010KT 1 3/4SM BR 02/01 A2968 RMK A01,M
EKO,2024-03-31 20:32,-115.7860,40.8242,1367.00,34.00,33.00,96.08,120.00,3.00,0.08,29.65,M,0.75,M,FEW,BKN,OVC,M,400.00,800.00,4700.00,M,-SN BR,M,M,M,M,M,M,30.97,KEKO 312032Z AUTO 12003KT 3/4SM -SN BR FEW004 BKN008 OVC047 01/01 A2965 RMK AO2 P0008 T00110006,M
BVU,2024-03-31 20:35,-114.8611,35.9475,671.00,57.20,39.20,50.91,160.00,15.00,0.00,29.75,M,10.00,M,SCT,SCT,OVC,M,4500.00,6000.00,8500.00,M,M,M,M,M,M,M,M,57.20,KBVU 312035Z AUTO 16015KT 10SM SCT045 SCT060 OVC085 14/04 A2975 RMK AO2,M
CXP,2024-03-31 20:35,-119.7326,39.1923,1431.00,44.60,32.00,61.03,0.00,0.00,0.00,29.73,M,10.00,M,FEW,SCT,OVC,M,3600.00,4300.00,5500.00,M,M,M,M,M,M,M,M,44.60,KCXP 312035Z AUTO 00000KT 10SM FEW036 SCT043 OVC055 07/00 A2973 RMK AO2,M
RTS,2024-03-31 20:35,-119.8764,39.6682,1539.00,41.00,30.20,65.16,300.00,11.00,0.00,29.75,M,10.00,M,FEW,OVC,M,M,3000.00,9500.00,M,M,M,M,M,M,M,M,M,33.84,KRTS 312035Z AUTO 30011KT 10SM FEW030 OVC095 05/M01 A2975 RMK AO2,M
MEV,2024-03-31 20:35,-119.7500,38.9963,1441.42,44.60,33.80,65.61,0.00,0.00,0.00,29.72,M,10.00,M,FEW,SCT,BKN,M,3300.00,4200.00,5500.00,M,M,M,M,M,M,M,M,44.60,KMEV 312035Z AUTO 00000KT 10SM FEW033 SCT042 BKN055 07/01 A2972 RMK AO2,M
HTH,2024-03-31 20:35,-118.6315,38.5448,1282.89,48.20,33.80,57.26,340.00,5.00,0.00,29.71,M,10.00,M,BKN,M,M,M,7000.00,M,M,M,M,M,M,M,M,M,M,45.63,KHTH 312035Z AUTO 34005KT 10SM BKN070 09/01 A2971 RMK A01,M
10U,2024-03-31 20:35,-116.1876,41.9532,1637.00,46.40,19.40,33.79,340.00,13.00,0.00,29.63,M,10.00,21.00,SCT,M,M,M,6000.00,M,M,M,M,M,M,M,M,M,M,40.02,K10U 312035Z AUTO 34013G21KT 310V010 10SM SCT060 08/M07 A2963 RMK AO2,M
BAM,2024-03-31 20:35,-116.8743,40.5990,1382.36,37.40,33.80,86.69,310.00,15.00,0.00,29.71,M,2.50,22.00,BKN,BKN,OVC,M,1100.00,1800.00,4800.00,M,M,M,M,M,M,M,M,27.78,KBAM 312035Z AUTO 31015G22KT 2 1/2SM BKN011 BKN018 OVC048 03/01 A2971 RMK AO1 VIS 3/4V5,M
TMT,2024-03-31 20:35,-117.1971,39.4643,1749.34,34.00,32.70,94.92,0.00,0.00,0.00,29.70,M,5.00,M,BKN,BKN,OVC,M,900.00,1500.00,2700.00,M,UP,M,M,M,M,M,M,34.00,KTMT 312035Z AUTO 00000KT 5SM UP BKN009 BKN015 OVC027 01/00 A2970 RMK AO2 T00120004,M
EKO,2024-03-31 20:37,-115.7860,40.8242,1367.00,34.00,32.00,92.29,120.00,4.00,0.08,29.65,M,2.50,M,FEW,BKN,OVC,M,400.00,1200.00,4700.00,M,-SN BR,M,M,M,M,M,M,29.76,KEKO 312037Z AUTO 12004KT 2 1/2SM -SN BR FEW004 BKN012 OVC047 01/00 A2965 RMK AO2 P0008 T00110000,M
EKO,2024-03-31 20:43,-115.7860,40.8242,1367.00,34.00,33.00,96.08,140.00,5.00,0.08,29.65,M,7.00,M,FEW,BKN,OVC,M,400.00,900.00,8000.00,M,-SN,M,M,M,M,M,M,28.77,KEKO 312043Z AUTO 14005KT 7SM -SN FEW004 BKN009 OVC080 01/01 A2965 RMK AO2 P0008 T00110006,M
NFL,2024-03-31 20:44,-118.7010,39.4166,1199.00,48.00,30.00,49.49,350.00,16.00,0.00,29.70,M,10.00,M,FEW,BKN,BKN,M,4000.00,5000.00,10000.00,M,M,M,M,M,M,M,M,41.27,KNFL 312044Z 35016KT 10SM FEW040 BKN050 BKN100 09/M01 A2970 RMK AO2 SH VC SE-S T00891011,M
05U,2024-03-31 20:50,-116.0051,39.6042,1811.23,35.60,32.00,86.59,110.00,8.00,0.00,29.68,M,0.50,M,M,M,M,M,M,M,M,M,BR,M,M,M,M,M,M,28.55,K05U 312050Z AUTO 11008KT 1/2SM BR 02/00 A2968 RMK A01,M
EKO,2024-03-31 20:53,-115.7860,40.8242,1367.00,35.60,32.00,86.59,130.00,5.00,0.08,29.65,M,10.00,M,FEW,BKN,BKN,M,500.00,1400.00,9000.00,M,M,M,M,M,M,M,M,30.67,KEKO 312053Z AUTO 13005KT 10SM FEW005 BKN014 BKN090 02/00 A2965 RMK AO2 SNE44 P0008,M
P68,2024-03-31 20:53,-116.0056,39.6014,1993.00,34.00,32.00,92.29,310.00,9.00,0.02,29.66,1003.70,M,M,M,M,M,M,M,M,M,M,M,M,M,M,M,M,M,26.00,KP68 312053Z AUTO 31009KT 01/00 A2966 RMK AO1 SLP037 P0002 60005 T00110000,M
DRA,2024-03-31 20:53,-116.0278,36.6206,1009.00,51.00,36.00,56.31,210.00,14.00,0.00,29.73,1005.20,10.00,22.00,BKN,OVC,M,M,4000.00,6000.00,M,M,M,M,M,M,M,M,M,51.00,KDRA 312053Z AUTO 21014G22KT 10SM BKN040 OVC060 11/02 A2973 RMK AO2 SLP052 T01060022 58010,M
ELY,2024-03-31 20:53,-114.8453,39.2950,1909.00,37.00,26.00,64.11,150.00,11.00,0.00,29.62,1001.50,10.00,M,SCT,OVC,M,M,3500.00,7000.00,M,M,M,M,M,M,M,M,M,28.79,KELY 312053Z AUTO 15011KT 10SM SCT035 OVC070 03/M03 A2962 RMK AO2 SLP015 T00281033 56002,M
VGT,2024-03-31 20:53,-115.1933,36.2111,667.00,60.00,33.00,36.03,180.00,12.00,0.00,29.72,1007.70,10.00,19.00,SCT,BKN,M,M,6500.00,8000.00,M,M,M,M,M,M,M,M,M,60.00,KVGT 312053Z 18012G19KT 10SM SCT065 BKN080 16/01 A2972 RMK AO2 SLP077 T01560006 56020,M
LOL,2024-03-31 20:53,-118.5701,40.0684,1192.43,47.00,35.00,62.84,100.00,5.00,0.00,29.71,1006.30,10.00,M,FEW,SCT,BKN,M,3000.00,4300.00,8500.00,M,M,M,M,M,M,M,M,44.21,KLOL 312053Z AUTO 10005KT 10SM FEW030 SCT043 BKN085 08/02 A2971 RMK AO2 SLP063 T00830017 53002,M
EKO,2024-03-31 20:54,-115.7860,40.8242,1367.00,35.60,32.00,86.59,130.00,4.08,M,29.65,M,10.00,M,FEW,BKN,BKN,M,498.00,1601.00,8999.00,M,M,M,M,M,M,M,M,31.54,SPECI KEKO 312054Z 13004KT 10SM FEW005 BKN016 BKN090 02/00 A2965 RMK AO2 SNE44 P0008 FIBI,M
BVU,2024-03-31 20:55,-114.8611,35.9475,671.00,55.40,41.00,58.27,140.00,17.00,0.00,29.75,M,9.00,M,FEW,SCT,BKN,M,4600.00,6000.00,7000.00,M,M,M,M,M,M,M,M,55.40,KBVU 312055Z AUTO 14017KT 9SM FEW046 SCT060 BKN070 13/05 A2975 RMK AO2,M
CXP,2024-03-31 20:55,-119.7326,39.1923,1431.00,46.40,32.00,57.00,M,4.00,0.00,29.73,M,10.00,M,SCT,BKN,OVC,M,4700.00,5500.00,7500.00,M,M,M,M,M,M,M,M,44.24,KCXP 312055Z AUTO VRB04KT 10SM SCT047 BKN055 OVC075 08/00 A2973 RMK AO2,M
INS,2024-03-31 20:55,-115.6733,36.5872,955.00,53.80,30.60,40.91,0.00,0.00,0.00,29.72,1004.80,10.00,M,SCT,OVC,M,M,6000.00,7500.00,M,M,M,M,M,M,M,M,M,53.80,KINS 312055Z AUTO 00000KT 10SM SCT060 OVC075 12/M01 A2972 RMK AO2 SLP048 T01211008 57012 $,M
RNO,2024-03-31 20:55,-119.7711,39.4839,1341.00,50.00,27.00,40.62,330.00,16.00,0.00,29.73,1005.70,10.00,25.00,FEW,SCT,BKN,M,4500.00,7000.00,11000.00,M,M,M,M,M,M,M,M,50.00,KRNO 312055Z 33016G25KT 10SM FEW045 SCT070 BKN110 10/M03 A2973 RMK AO2 SLP057 SH DSNT SE T01001028 55001 $,M
LSV,2024-03-31 20:55,-115.0343,36.2362,570.00,60.60,32.00,33.88,210.00,8.00,0.00,29.70,1005.10,10.00,M,SCT,BKN,M,M,6000.00,7500.00,M,M,M,M,M,M,M,M,M,60.60,KLSV 312055Z AUTO 21008KT 10SM SCT060 BKN075 16/00 A2970 RMK AO2 SLP051 T01590000 57023 $,M
RTS,2024-03-31 20:55,-119.8764,39.6682,1539.00,42.80,30.20,60.79,300.00,12.00,0.00,29.75,M,10.00,M,SCT,M,M,M,9500.00,M,M,M,M,M,M,M,M,M,M,35.75,KRTS 312055Z AUTO 30012KT 10SM SCT095 06/M01 A2975 RMK AO2,M
MEV,2024-03-31 20:55,-119.7500,38.9963,1441.42,46.40,30.20,53.00,310.00,9.00,0.00,29.72,M,10.00,M,FEW,SCT,BKN,M,3700.00,4200.00,4900.00,M,M,M,M,M,M,M,M,41.42,KMEV 312055Z AUTO 31009KT 290V360 10SM FEW037 SCT042 BKN049 08/M01 A2972 RMK AO2,M
HTH,2024-03-31 20:55,-118.6315,38.5448,1282.89,48.20,30.20,49.53,350.00,7.00,0.00,29.71,M,10.00,12.00,OVC,M,M,M,7000.00,M,M,M,M,M,M,M,M,M,M,44.53,KHTH 312055Z AUTO 35007G12KT 10SM OVC070 09/M01 A2971 RMK A01,M
10U,2024-03-31 20:55,-116.1876,41.9532,1637.00,44.60,17.60,33.49,10.00,13.00,0.00,29.64,M,10.00,M,SCT,BKN,M,M,6000.00,7000.00,M,M,M,M,M,M,M,M,M,37.71,K10U 312055Z AUTO 01013KT 10SM SCT060 BKN070 07/M08 A2964 RMK AO2,M
BAM,2024-03-31 20:55,-116.8743,40.5990,1382.36,35.60,33.80,93.08,250.00,6.00,0.00,29.69,M,5.00,M,SCT,BKN,OVC,M,1400.00,2100.00,4100.00,M,M,M,M,M,M,M,M,29.87,KBAM 312055Z AUTO 25006KT 5SM SCT014 BKN021 OVC041 02/01 A2969 RMK AO1,M
TMT,2024-03-31 20:55,-117.1971,39.4643,1749.34,35.00,30.40,83.12,0.00,0.00,0.00,29.70,M,10.00,M,SCT,BKN,OVC,M,900.00,1700.00,3200.00,M,M,M,M,M,M,M,M,35.00,KTMT 312055Z AUTO 00000KT 10SM SCT009 BKN017 OVC032 02/M01 A2970 RMK AO2 T00171009,M
EKO,2024-03-31 20:56,-115.7860,40.8242,1367.00,35.00,32.00,88.68,140.00,4.00,0.08,29.65,1004.20,10.00,M,FEW,BKN,OVC,M,500.00,1600.00,9000.00,M,M,M,M,M,M,M,M,30.92,KEKO 312056Z AUTO 14004KT 10SM FEW005 BKN016 OVC090 02/00 A2965 RMK AO2 SNE44 SLP042 P0008 60017 T00170000 51008,M
WMC,2024-03-31 20:56,-117.8072,40.9019,1315.00,50.00,23.00,34.39,360.00,12.00,0.00,29.70,1004.80,10.00,17.00,SCT,OVC,M,M,7500.00,10000.00,M,M,M,M,M,M,M,M,M,50.00,KWMC 312056Z AUTO 36012G17KT 10SM SCT075 OVC100 10/M05 A2970 RMK AO2 SLP048 T01001050 53006,M
NFL,2024-03-31 20:56,-118.7010,39.4166,1199.00,49.00,29.00,45.77,330.00,16.00,0.00,29.70,1004.00,10.00,23.00,FEW,BKN,BKN,M,4000.00,5000.00,10000.00,M,M,M,M,M,M,M,M,42.58,KNFL 312056Z 33016G23KT 10SM FEW040 BKN050 BKN100 09/M02 A2970 RMK AO2 SLP040 SH VC SE-S T00941017 53001,M
HND,2024-03-31 20:56,-115.1344,35.9729,742.79,59.00,33.00,37.34,200.00,15.00,0.00,29.76,1009.10,10.00,20.00,BKN,M,M,M,10000.00,M,M,M,M,M,M,M,M,M,M,59.00,KHND 312056Z 20015G20KT 10SM BKN100 15/01 A2976 RMK AO2 SLP091 T01500006 57014,M
TPH,2024-03-31 20:56,-117.0904,38.0505,1654.00,40.00,32.00,72.85,250.00,8.00,0.00,29.69,1004.80,10.00,M,FEW,BKN,OVC,M,1800.00,4100.00,4800.00,M,M,M,M,M,M,M,M,33.97,KTPH 312056Z AUTO 25008KT 10SM FEW018 BKN041 OVC048 04/00 A2969 RMK AO2 SLP048 T00440000 58003,M
LAS,2024-03-31 20:56,-115.1634,36.0719,663.00,60.00,32.00,34.61,220.00,10.00,0.00,29.73,1006.10,10.00,M,BKN,M,M,M,6000.00,M,M,M,M,M,M,M,M,M,M,60.00,KLAS 312056Z 22010KT 10SM BKN060 16/00 A2973 RMK AO2 SLP061 T01560000 57017 $,M
05U,2024-03-31 21:10,-116.0051,39.6042,1811.23,35.60,32.00,86.59,190.00,9.00,0.00,29.69,M,1.00,M,M,M,M,M,M,M,M,M,BR,M,M,M,M,M,M,27.99,K05U 312110Z AUTO 19009KT 1SM BR 02/00 A2969 RMK A01,M
TPH,2024-03-31 21:14,-117.0904,38.0505,1654.00,38.00,34.00,85.35,250.00,10.00,T,29.69,M,5.00,M,FEW,BKN,OVC,M,1800.00,2700.00,4000.00,M,-SN BR,M,M,M,M,M,M,30.49,KTPH 312114Z AUTO 25010KT 5SM -SN BR FEW018 BKN027 OVC040 03/01 A2969 RMK AO2 RAB2059E10SNB10 P0000 T00330011,M
BVU,2024-03-31 21:15,-114.8611,35.9475,671.00,55.40,41.00,58.27,150.00,13.00,0.00,29.74,M,10.00,M,FEW,SCT,BKN,M,4800.00,5500.00,7000.00,M,M,M,M,M,M,M,M,55.40,KBVU 312115Z AUTO 15013KT 10SM FEW048 SCT055 BKN070 13/05 A2974 RMK AO2,M
CXP,2024-03-31 21:15,-119.7326,39.1923,1431.00,42.80,33.80,70.28,40.00,8.00,0.00,29.74,M,3.00,15.00,BKN,BKN,BKN,M,3700.00,4700.00,5500.00,M,-RA HZ,M,M,M,M,M,M,37.42,KCXP 312115Z AUTO 04008G15KT 3SM -RA HZ BKN037 BKN047 BKN055 06/01 A2974 RMK AO2,M
RTS,2024-03-31 21:15,-119.8764,39.6682,1539.00,42.80,28.40,56.48,310.00,12.00,0.00,29.75,M,10.00,M,BKN,M,M,M,9500.00,M,M,M,M,M,M,M,M,M,M,35.75,KRTS 312115Z AUTO 31012KT 10SM BKN095 06/M02 A2975 RMK AO2,M
MEV,2024-03-31 21:15,-119.7500,38.9963,1441.42,48.20,28.40,46.02,260.00,11.00,0.00,29.71,M,10.00,M,FEW,BKN,BKN,M,4300.00,5500.00,7000.00,M,M,M,M,M,M,M,M,42.94,KMEV 312115Z AUTO 26011KT 10SM FEW043 BKN055 BKN070 09/M02 A2971 RMK AO2,M
HTH,2024-03-31 21:15,-118.6315,38.5448,1282.89,48.20,30.20,49.53,330.00,8.00,0.00,29.71,M,10.00,M,SCT,BKN,M,M,7000.00,8500.00,M,M,M,M,M,M,M,M,M,44.07,KHTH 312115Z AUTO 33008KT 10SM SCT070 BKN085 09/M01 A2971 RMK A01,M
10U,2024-03-31 21:15,-116.1876,41.9532,1637.00,44.60,17.60,33.49,360.00,12.00,0.00,29.64,M,10.00,17.00,SCT,BKN,M,M,6000.00,7000.00,M,M,M,M,M,M,M,M,M,38.04,K10U 312115Z AUTO 36012G17KT 10SM SCT060 BKN070 07/M08 A2964 RMK AO2,M
BAM,2024-03-31 21:15,-116.8743,40.5990,1382.36,41.00,33.80,75.33,310.00,5.00,0.00,29.69,M,10.00,M,SCT,SCT,OVC,M,1800.00,2900.00,9000.00,M,M,M,M,M,M,M,M,37.08,KBAM 312115Z AUTO 31005KT 10SM SCT018 SCT029 OVC090 05/01 A2969 RMK AO1,M
TMT,2024-03-31 21:15,-117.1971,39.4643,1749.34,34.50,32.50,92.30,340.00,11.00,0.00,29.70,M,7.00,M,SCT,BKN,OVC,M,1300.00,1800.00,2600.00,M,-RA,M,M,M,M,M,M,25.63,KTMT 312115Z AUTO 34011KT 7SM -RA SCT013 BKN018 OVC026 01/00 A2970 RMK AO2 T00140003,M
EKO,2024-03-31 21:19,-115.7860,40.8242,1367.00,37.00,34.00,88.78,180.00,6.00,0.00,29.65,M,10.00,M,FEW,SCT,BKN,M,1400.00,2500.00,11000.00,M,M,M,M,M,M,M,M,31.55,KEKO 312119Z AUTO 18006KT 10SM FEW014 SCT025 BKN110 03/01 A2965 RMK AO2 T00280011,M
05U,2024-03-31 21:30,-116.0051,39.6042,1811.23,33.80,32.00,93.03,180.00,9.00,0.00,29.69,M,1.00,M,M,M,M,M,M,M,M,M,BR,M,M,M,M,M,M,25.75,K05U 312130Z AUTO 18009KT 1SM BR 01/M00 A2969 RMK A01,M
BVU,2024-03-31 21:35,-114.8611,35.9475,671.00,57.20,39.20,50.91,150.00,17.00,0.00,29.73,M,10.00,M,FEW,SCT,BKN,M,4600.00,5500.00,8000.00,M,M,M,M,M,M,M,M,57.20,KBVU 312135Z AUTO 15017KT 10SM FEW046 SCT055 BKN080 14/04 A2973 RMK AO2,M
CXP,2024-03-31 21:35,-119.7326,39.1923,1431.00,44.60,32.00,61.03,40.00,11.00,0.00,29.73,M,10.00,M,FEW,FEW,FEW,M,3700.00,7000.00,9000.00,M,M,M,M,M,M,M,M,38.39,KCXP 312135Z AUTO 04011KT 10SM FEW037 FEW070 FEW090 07/M00 A2973 RMK AO2,M
RTS,2024-03-31 21:35,-119.8764,39.6682,1539.00,44.60,28.40,52.72,290.00,14.00,0.00,29.75,M,10.00,M,SCT,SCT,M,M,9500.00,12000.00,M,M,M,M,M,M,M,M,M,37.40,KRTS 312135Z AUTO 29014KT 10SM SCT095 SCT120 07/M02 A2975 RMK AO2,M
MEV,2024-03-31 21:35,-119.7500,38.9963,1441.42,48.20,28.40,46.02,280.00,13.00,0.00,29.71,M,10.00,M,FEW,SCT,BKN,M,5500.00,6500.00,8500.00,M,M,M,M,M,M,M,M,42.32,KMEV 312135Z AUTO 28013KT 10SM FEW055 SCT065 BKN085 09/M02 A2971 RMK AO2,M
HTH,2024-03-31 21:35,-118.6315,38.5448,1282.89,48.20,28.40,46.02,330.00,9.00,0.00,29.70,M,10.00,M,FEW,M,M,M,8500.00,M,M,M,M,M,M,M,M,M,M,43.66,KHTH 312135Z AUTO 33009KT 10SM FEW085 09/M02 A2970 RMK A01,M
TMT,2024-03-31 21:35,-117.1971,39.4643,1749.34,34.00,31.50,90.44,0.00,0.00,0.00,29.70,M,5.00,M,SCT,BKN,OVC,M,1200.00,1800.00,2700.00,M,-SN,M,M,M,M,M,M,34.00,KTMT 312135Z AUTO 00000KT 5SM -SN SCT012 BKN018 OVC027 01/00 A2970 RMK AO2 T00111003,M
10U,2024-03-31 21:35,-116.1876,41.9532,1637.00,46.40,19.40,33.79,350.00,12.00,0.00,29.65,M,10.00,M,BKN,M,M,M,6000.00,M,M,M,M,M,M,M,M,M,M,40.33,K10U 312135Z AUTO 35012KT 10SM BKN060 08/M07 A2965 RMK AO2,M
BAM,2024-03-31 21:35,-116.8743,40.5990,1382.36,41.00,33.80,75.33,0.00,0.00,0.00,29.70,M,10.00,M,OVC,M,M,M,9000.00,M,M,M,M,M,M,M,M,M,M,41.00,KBAM 312135Z AUTO 00000KT 10SM OVC090 05/01 A2970 RMK AO1,M
EKO,2024-03-31 21:36,-115.7860,40.8242,1367.00,38.00,33.00,82.00,210.00,6.00,0.00,29.65,M,10.00,M,FEW,BKN,BKN,M,1100.00,1800.00,11000.00,M,M,M,M,M,M,M,M,32.76,KEKO 312136Z AUTO 21006KT 10SM FEW011 BKN018 BKN110 03/01 A2965 RMK AO2 T00330006,M
ELY,2024-03-31 21:42,-114.8453,39.2950,1909.00,35.00,29.00,78.51,160.00,14.00,T,29.62,M,2.50,M,FEW,BKN,OVC,M,2300.00,3000.00,4900.00,M,-SN,M,M,M,M,M,M,25.03,KELY 312142Z AUTO 16014KT 2 1/2SM -SN FEW023 BKN030 OVC049 02/M02 A2962 RMK AO2 SNB31 P0000 T00171017,M
ELY,2024-03-31 21:49,-114.8453,39.2950,1909.00,35.60,30.20,80.51,170.00,12.00,T,29.63,M,7.00,M,FEW,BKN,OVC,M,2300.00,2900.00,9000.00,M,-SN,M,M,M,M,M,M,26.58,KELY 312149Z AUTO 17012KT 7SM -SN FEW023 BKN029 OVC090 02/M01 A2963 RMK AO2 SNB31 P0000,M
05U,2024-03-31 21:50,-116.0051,39.6042,1811.23,33.80,32.00,93.03,180.00,9.00,0.00,29.69,M,1.50,M,M,M,M,M,M,M,M,M,BR,M,M,M,M,M,M,25.75,K05U 312150Z AUTO 18009KT 1 1/2SM BR 01/M00 A2969 RMK A01,M
ELY,2024-03-31 21:50,-114.8453,39.2950,1909.00,36.00,30.00,78.60,170.00,12.00,T,29.63,1002.00,7.00,M,FEW,BKN,OVC,M,1600.00,2700.00,9000.00,M,-SN,M,M,M,M,M,M,27.09,KELY 312150Z AUTO 17012KT 7SM -SN FEW016 BKN027 OVC090 02/M01 A2963 RMK AO2 SNB31 SLP020 P0000 T00221011,M
HTH,2024-03-31 21:50,-118.6315,38.5448,1282.89,48.20,30.20,49.53,320.00,10.00,0.00,29.70,M,10.00,M,FEW,M,M,M,8000.00,M,M,M,M,M,M,M,M,M,M,43.28,KHTH 312150Z AUTO 32010KT 10SM FEW080 09/M01 A2970 RMK A01,M
TPH,2024-03-31 21:51,-117.0904,38.0505,1654.00,37.40,33.80,86.69,230.00,10.00,T,29.69,M,10.00,M,BKN,OVC,M,M,1400.00,2100.00,M,M,-RA,M,M,M,M,M,M,29.74,KTPH 312151Z AUTO 23010KT 10SM -RA BKN014 OVC021 03/01 A2969 RMK AO2 RAB2059E10B19SNB10E19 P0000,M
P68,2024-03-31 21:53,-116.0056,39.6014,1993.00,32.00,31.00,96.04,10.00,11.00,0.02,29.67,1004.60,M,M,M,M,M,M,M,M,M,M,M,M,M,M,M,M,M,22.47,KP68 312153Z AUTO 01011KT 00/M01 A2967 RMK AO1 SLP046 P0002 T00001006,M
DRA,2024-03-31 21:53,-116.0278,36.6206,1009.00,52.00,34.00,50.12,220.00,11.00,0.00,29.70,1004.30,10.00,M,FEW,BKN,OVC,M,4500.00,5500.00,6500.00,M,M,M,M,M,M,M,M,52.00,KDRA 312153Z AUTO 22011KT 10SM FEW045 BKN055 OVC065 11/01 A2970 RMK AO2 SLP043 T01110011,M
VGT,2024-03-31 21:53,-115.1933,36.2111,667.00,61.00,32.00,33.40,200.00,10.00,0.00,29.69,1006.80,10.00,16.00,FEW,M,M,M,7000.00,M,M,M,M,M,M,M,M,M,M,61.00,KVGT 312153Z 20010G16KT 10SM FEW070 16/00 A2969 RMK AO2 SLP068 T01610000,M
LOL,2024-03-31 21:53,-118.5701,40.0684,1192.43,48.00,30.00,49.49,20.00,5.00,0.00,29.70,1006.00,10.00,M,SCT,BKN,OVC,M,4900.00,6000.00,11000.00,M,M,M,M,M,M,M,M,45.40,KLOL 312153Z AUTO 02005KT 10SM SCT049 BKN060 OVC110 09/M01 A2970 RMK AO2 SLP060 T00891011,M
BAM,2024-03-31 21:55,-116.8743,40.5990,1382.36,41.00,35.60,80.93,170.00,5.00,0.00,29.70,M,10.00,M,OVC,M,M,M,10000.00,M,M,M,M,M,M,M,M,M,M,37.08,KBAM 312155Z AUTO 17005KT 10SM OVC100 05/02 A2970 RMK AO1,M
TMT,2024-03-31 21:55,-117.1971,39.4643,1749.34,36.00,33.00,88.73,70.00,7.00,0.00,29.70,M,10.00,M,SCT,BKN,OVC,M,1200.00,2700.00,3700.00,M,M,M,M,M,M,M,M,29.65,KTMT 312155Z AUTO 07007KT 10SM SCT012 BKN027 OVC037 02/01 A2970 RMK AO2 T00220006,M
BVU,2024-03-31 21:55,-114.8611,35.9475,671.00,55.40,39.20,54.34,170.00,17.00,0.00,29.73,M,10.00,M,BKN,BKN,BKN,M,4500.00,5500.00,8000.00,M,M,M,M,M,M,M,M,55.40,KBVU 312155Z AUTO 17017KT 10SM BKN045 BKN055 BKN080 13/04 A2973 RMK AO2,M
CXP,2024-03-31 21:55,-119.7326,39.1923,1431.00,46.40,28.40,49.24,20.00,13.00,0.00,29.73,M,10.00,M,FEW,SCT,BKN,M,5500.00,7500.00,9000.00,M,M,M,M,M,M,M,M,40.02,KCXP 312155Z AUTO 02013KT 10SM FEW055 SCT075 BKN090 08/M02 A2973 RMK AO2,M
INS,2024-03-31 21:55,-115.6733,36.5872,955.00,54.70,32.50,42.74,90.00,8.00,0.00,29.70,1004.10,10.00,M,FEW,BKN,M,M,4800.00,8500.00,M,M,M,M,M,M,M,M,M,54.70,KINS 312155Z AUTO 09008KT 10SM FEW048 BKN085 13/00 A2970 RMK AO2 SLP041 T01260003 $,M
RNO,2024-03-31 21:55,-119.7711,39.4839,1341.00,49.00,25.00,38.81,310.00,14.00,0.00,29.74,1006.00,10.00,M,FEW,SCT,BKN,M,4500.00,7000.00,11000.00,M,M,M,M,M,M,M,M,43.08,KRNO 312155Z 31014KT 10SM FEW045 SCT070 BKN110 09/M04 A2974 RMK AO2 SLP060 SH VC NE T00941039 $,M
RTS,2024-03-31 21:55,-119.8764,39.6682,1539.00,44.60,23.00,42.14,340.00,14.00,0.00,29.75,M,10.00,20.00,FEW,SCT,SCT,M,6500.00,7500.00,12000.00,M,M,M,M,M,M,M,M,37.40,KRTS 312155Z AUTO 34014G20KT 10SM FEW065 SCT075 SCT120 07/M05 A2975 RMK AO2,M
MEV,2024-03-31 21:55,-119.7500,38.9963,1441.42,46.40,30.20,53.00,310.00,17.00,0.00,29.73,M,10.00,M,SCT,SCT,BKN,M,5500.00,8000.00,9000.00,M,M,M,M,M,M,M,M,38.94,KMEV 312155Z AUTO 31017KT 10SM SCT055 SCT080 BKN090 08/M01 A2973 RMK AO2,M
10U,2024-03-31 21:55,-116.1876,41.9532,1637.00,44.60,17.60,33.49,320.00,12.00,0.00,29.65,M,10.00,19.00,BKN,BKN,M,M,6000.00,7000.00,M,M,M,M,M,M,M,M,M,38.04,K10U 312155Z AUTO 32012G19KT 10SM BKN060 BKN070 07/M08 A2965 RMK AO2,M
LSV,2024-03-31 21:55,-115.0343,36.2362,570.00,62.40,30.60,30.04,220.00,16.00,0.00,29.67,1004.10,10.00,20.00,SCT,SCT,M,M,7000.00,8500.00,M,M,M,M,M,M,M,M,M,62.40,KLSV 312155Z AUTO 22016G20KT 10SM SCT070 SCT085 17/M01 A2967 RMK AO2 SLP041 T01691008 $,M
EKO,2024-03-31 21:56,-115.7860,40.8242,1367.00,39.00,34.00,82.08,200.00,6.00,0.00,29.65,1004.00,10.00,M,BKN,M,M,M,1800.00,M,M,M,M,M,M,M,M,M,M,33.96,KEKO 312156Z AUTO 20006KT 10SM BKN018 04/01 A2965 RMK AO2 SLP040 T00390011,M
WMC,2024-03-31 21:56,-117.8072,40.9019,1315.00,48.00,26.00,42.00,330.00,13.00,0.00,29.70,1005.20,10.00,21.00,FEW,OVC,M,M,7500.00,9000.00,M,M,M,M,M,M,M,M,M,42.07,KWMC 312156Z AUTO 33013G21KT 10SM FEW075 OVC090 09/M03 A2970 RMK AO2 SLP052 T00891033,M
NFL,2024-03-31 21:56,-118.7010,39.4166,1199.00,51.00,30.00,44.26,340.00,12.00,0.00,29.70,1003.90,10.00,23.00,FEW,BKN,BKN,M,4000.00,5000.00,10000.00,M,M,M,M,M,M,M,M,51.00,KNFL 312156Z 34012G23KT 10SM FEW040 BKN050 BKN100 11/M01 A2970 RMK AO2 SLP039 SH DSNT NE-S T01061011,M
HND,2024-03-31 21:56,-115.1344,35.9729,742.79,58.00,34.00,40.28,210.00,10.00,0.00,29.73,1008.00,10.00,19.00,OVC,M,M,M,9000.00,M,M,M,M,M,M,M,M,M,M,58.00,KHND 312156Z 21010G19KT 160V250 10SM OVC090 14/01 A2973 RMK AO2 SLP080 T01440011,M
TPH,2024-03-31 21:56,-117.0904,38.0505,1654.00,38.00,35.00,88.83,260.00,11.00,0.01,29.69,1005.30,10.00,M,BKN,OVC,M,M,1400.00,2300.00,M,M,-RA,M,M,M,M,M,M,30.05,KTPH 312156Z AUTO 26011KT 10SM -RA BKN014 OVC023 03/02 A2969 RMK AO2 RAB2059E10B19SNB10E19 SLP053 P0001 T00330017,M
LAS,2024-03-31 21:56,-115.1634,36.0719,663.00,60.00,30.00,31.92,200.00,9.00,0.00,29.70,1005.30,10.00,16.00,BKN,BKN,BKN,M,7500.00,15000.00,25000.00,M,M,M,M,M,M,M,M,60.00,KLAS 312156Z 20009G16KT 10SM BKN075 BKN150 BKN250 16/M01 A2970 RMK AO2 SLP053 T01561011 $,M
LSV,2024-03-31 22:06,-115.0343,36.2362,570.00,62.60,33.80,33.93,180.00,17.00,0.00,29.66,1003.80,10.00,M,BKN,M,M,M,6500.00,M,M,M,M,M,M,M,M,M,M,62.60,KLSV 312206Z AUTO 18017KT 10SM BKN065 17/01 A2966 RMK AO2 WSHFT 2155 SLP038 $,M
EKO,2024-03-31 22:07,-115.7860,40.8242,1367.00,39.00,34.00,82.08,220.00,6.00,0.00,29.65,M,10.00,M,SCT,M,M,M,2000.00,M,M,M,M,M,M,M,M,M,M,33.96,KEKO 312207Z AUTO 22006KT 10SM SCT020 04/01 A2965 RMK AO2 T00390011,M
05U,2024-03-31 22:10,-116.0051,39.6042,1811.23,32.00,30.20,92.97,140.00,7.00,0.00,29.70,M,3.00,M,M,M,M,M,M,M,M,M,BR,M,M,M,M,M,M,24.78,K05U 312210Z AUTO 14007KT 3SM BR 00/M01 A2970 RMK A01,M
BVU,2024-03-31 22:15,-114.8611,35.9475,671.00,57.20,39.20,50.91,160.00,15.00,0.00,29.73,M,10.00,M,BKN,BKN,BKN,M,4700.00,5500.00,9000.00,M,M,M,M,M,M,M,M,57.20,KBVU 312215Z AUTO 16015KT 10SM BKN047 BKN055 BKN090 14/04 A2973 RMK AO2,M
CXP,2024-03-31 22:15,-119.7326,39.1923,1431.00,46.40,26.60,45.73,350.00,12.00,0.00,29.74,M,9.00,26.00,FEW,FEW,SCT,M,1700.00,3600.00,7500.00,M,-RA,M,M,M,M,M,M,40.33,KCXP 312215Z AUTO 35012G26KT 9SM -RA FEW017 FEW036 SCT075 08/M03 A2974 RMK AO2,M
EKO,2024-03-31 22:15,-115.7860,40.8242,1367.00,39.00,34.00,82.08,210.00,5.00,0.00,29.66,M,10.00,M,BKN,M,M,M,2000.00,M,M,M,M,M,M,M,M,M,M,34.71,KEKO 312215Z AUTO 21005KT 10SM BKN020 04/01 A2966 RMK AO2 T00390011,M
ELY,2024-03-31 22:15,-114.8453,39.2950,1909.00,37.00,29.00,72.54,150.00,13.00,T,29.61,M,10.00,19.00,FEW,SCT,OVC,M,2600.00,3300.00,7000.00,M,M,M,M,M,M,M,M,27.97,KELY 312215Z AUTO 15013G19KT 10SM FEW026 SCT033 OVC070 03/M02 A2961 RMK AO2 SNE2151 P0000 T00281017,M
RTS,2024-03-31 22:15,-119.8764,39.6682,1539.00,44.60,28.40,52.72,350.00,19.00,0.00,29.75,M,10.00,25.00,SCT,SCT,BKN,M,5000.00,6500.00,8000.00,M,M,M,M,M,M,M,M,36.10,KRTS 312215Z AUTO 35019G25KT 10SM SCT050 SCT065 BKN080 07/M02 A2975 RMK AO2,M
MEV,2024-03-31 22:15,-119.7500,38.9963,1441.42,39.20,35.60,86.79,320.00,15.00,0.00,29.75,M,4.00,22.00,FEW,SCT,BKN,M,900.00,2500.00,3100.00,M,-RA BR,M,M,M,M,M,M,30.11,KMEV 312215Z AUTO 32015G22KT 4SM -RA BR FEW009 SCT025 BKN031 04/02 A2975 RMK AO2,M
HTH,2024-03-31 22:15,-118.6315,38.5448,1282.89,51.80,28.40,40.25,340.00,11.00,0.00,29.70,M,10.00,16.00,FEW,M,M,M,10000.00,M,M,M,M,M,M,M,M,M,M,51.80,KHTH 312215Z AUTO 34011G16KT 10SM FEW100 11/M02 A2970 RMK A01,M
TMT,2024-03-31 22:15,-117.1971,39.4643,1749.34,32.00,31.00,96.04,40.00,10.00,0.00,29.70,M,1.00,M,BKN,OVC,M,M,700.00,1200.00,M,M,-SN,M,M,M,M,M,M,22.97,KTMT 312215Z AUTO 04010KT 1SM -SN BKN007 OVC012 00/00 A2970 RMK AO2 T00001005,M
10U,2024-03-31 22:15,-116.1876,41.9532,1637.00,44.60,19.40,36.18,340.00,13.00,0.00,29.66,M,10.00,M,BKN,BKN,M,M,6000.00,7000.00,M,M,M,M,M,M,M,M,M,37.71,K10U 312215Z AUTO 34013KT 10SM BKN060 BKN070 07/M07 A2966 RMK AO2,M
BAM,2024-03-31 22:15,-116.8743,40.5990,1382.36,42.80,33.80,70.28,130.00,5.00,0.00,29.70,M,10.00,M,SCT,SCT,OVC,M,6500.00,8000.00,11000.00,M,M,M,M,M,M,M,M,39.22,KBAM 312215Z AUTO 13005KT 10SM SCT065 SCT080 OVC110 06/01 A2970 RMK AO1,M
EKO,2024-03-31 22:23,-115.7860,40.8242,1367.00,39.00,33.00,78.86,200.00,5.00,0.00,29.66,M,10.00,M,FEW,M,M,M,2000.00,M,M,M,M,M,M,M,M,M,M,34.71,KEKO 312223Z AUTO 20005KT 10SM FEW020 04/01 A2966 RMK AO2 T00390006,M
TPH,2024-03-31 22:23,-117.0904,38.0505,1654.00,37.00,33.00,85.29,290.00,12.00,T,29.70,M,6.00,M,SCT,BKN,OVC,M,1300.00,1900.00,2900.00,M,-SN BR,M,M,M,M,M,M,28.37,KTPH 312223Z AUTO 29012KT 6SM -SN BR SCT013 BKN019 OVC029 03/01 A2970 RMK AO2 RAE21SNB21 P0000 T00280006,M
TPH,2024-03-31 22:28,-117.0904,38.0505,1654.00,35.00,33.00,92.32,290.00,10.00,0.01,29.69,M,2.00,M,FEW,OVC,M,M,600.00,1400.00,M,M,-SN BR,M,M,M,M,M,M,26.73,KTPH 312228Z AUTO 29010KT 2SM -SN BR FEW006 OVC014 02/01 A2969 RMK AO2 RAE21SNB21 P0001 T00170006,M
05U,2024-03-31 22:30,-116.0051,39.6042,1811.23,37.40,32.00,80.65,190.00,10.00,0.00,29.70,M,10.00,15.00,M,M,M,M,M,M,M,M,M,M,M,M,M,M,M,29.74,K05U 312230Z AUTO 19010G15KT 10SM 03/00 A2970 RMK A01,M
BVU,2024-03-31 22:35,-114.8611,35.9475,671.00,55.40,37.40,50.64,150.00,15.00,0.00,29.72,M,10.00,21.00,SCT,BKN,OVC,M,4700.00,7500.00,8500.00,M,M,M,M,M,M,M,M,55.40,KBVU 312235Z AUTO 15015G21KT 10SM SCT047 BKN075 OVC085 13/03 A2972 RMK AO2,M
CXP,2024-03-31 22:35,-119.7326,39.1923,1431.00,46.40,24.80,42.44,350.00,13.00,0.00,29.74,M,10.00,20.00,FEW,FEW,SCT,M,1700.00,3600.00,8500.00,M,M,M,M,M,M,M,M,40.02,KCXP 312235Z AUTO 35013G20KT 10SM FEW017 FEW036 SCT085 08/M04 A2974 RMK AO2,M
RTS,2024-03-31 22:35,-119.8764,39.6682,1539.00,42.80,24.80,48.67,10.00,9.00,0.00,29.75,M,10.00,M,FEW,BKN,BKN,M,5000.00,7000.00,8000.00,M,M,M,M,M,M,M,M,36.94,KRTS 312235Z AUTO 01009KT 10SM FEW050 BKN070 BKN080 06/M04 A2975 RMK AO2,M
TPH,2024-03-31 22:35,-117.0904,38.0505,1654.00,34.00,33.00,96.08,270.00,8.00,0.02,29.69,M,1.25,M,FEW,OVC,M,M,600.00,1400.00,M,M,-SN BR,M,M,M,M,M,M,26.58,KTPH 312235Z AUTO 27008KT 1 1/4SM -SN BR FEW006 OVC014 01/01 A2969 RMK AO2 RAE21SNB21 P0002 T00110006,M
MEV,2024-03-31 22:35,-119.7500,38.9963,1441.42,37.40,33.80,86.69,M,5.00,0.00,29.75,M,2.50,11.00,BKN,BKN,BKN,M,800.00,2000.00,2700.00,M,UP HZ,M,M,M,M,M,M,32.81,KMEV 312235Z AUTO VRB05G11KT 2 1/2SM UP HZ BKN008 BKN020 BKN027 03/01 A2975 RMK AO2 VIS 1 1/2V5,M
HTH,2024-03-31 22:35,-118.6315,38.5448,1282.89,50.00,30.20,46.31,350.00,16.00,0.00,29.70,M,10.00,22.00,SCT,BKN,BKN,M,6000.00,7000.00,10000.00,M,M,M,M,M,M,M,M,50.00,KHTH 312235Z AUTO 35016G22KT 10SM SCT060 BKN070 BKN100 10/M01 A2970 RMK A01,M
TMT,2024-03-31 22:35,-117.1971,39.4643,1749.34,33.80,32.00,93.03,80.00,6.00,0.00,29.70,M,10.00,M,SCT,BKN,OVC,M,900.00,2900.00,5000.00,M,-SN,M,M,M,M,M,M,27.70,KTMT 312235Z AUTO 08006KT 10SM -SN SCT009 BKN029 OVC050 01/00 A2970 RMK AO2 T00100000,M
10U,2024-03-31 22:35,-116.1876,41.9532,1637.00,42.80,17.60,35.87,360.00,9.00,0.00,29.66,M,10.00,M,SCT,SCT,M,M,6000.00,7000.00,M,M,M,M,M,M,M,M,M,36.94,K10U 312235Z AUTO 36009KT 10SM SCT060 SCT070 06/M08 A2966 RMK AO2,M
BAM,2024-03-31 22:35,-116.8743,40.5990,1382.36,42.80,33.80,70.28,0.00,0.00,0.00,29.70,M,10.00,M,SCT,BKN,OVC,M,5500.00,8500.00,11000.00,M,M,M,M,M,M,M,M,42.80,KBAM 312235Z AUTO 00000KT 10SM SCT055 BKN085 OVC110 06/01 A2970 RMK AO1,M
TPH,2024-03-31 22:41,-117.0904,38.0505,1654.00,35.00,33.00,92.32,290.00,9.00,0.02,29.69,M,3.00,M,BKN,BKN,OVC,M,1600.00,3000.00,4000.00,M,-SN BR,M,M,M,M,M,M,27.24,KTPH 312241Z AUTO 29009KT 3SM -SN BR BKN016 BKN030 OVC040 02/01 A2969 RMK AO2 RAE21SNB21 P0002 T00170006,M
LOL,2024-03-31 22:43,-118.5701,40.0684,1192.43,45.00,31.00,57.73,330.00,8.00,0.00,29.72,M,10.00,19.00,SCT,OVC,M,M,6500.00,9000.00,M,M,M,M,M,M,26.00,30.00,2024-03-31 22:12,40.13,KLOL 312243Z AUTO 33008G19KT 10SM SCT065 OVC090 07/M01 A2972 RMK AO2 PK WND 03026/2212 WSHFT 2223 T00721006,M
05U,2024-03-31 22:50,-116.0051,39.6042,1811.23,37.40,32.00,80.65,200.00,5.00,0.00,29.70,M,10.00,M,M,M,M,M,M,M,M,M,M,M,M,M,M,M,M,32.81,K05U 312250Z AUTO 20005KT 10SM 03/00 A2970 RMK A01,M
ELY,2024-03-31 22:51,-114.8453,39.2950,1909.00,33.80,28.40,80.36,280.00,12.00,T,29.65,M,1.25,25.00,SCT,BKN,OVC,M,1700.00,2900.00,8500.00,M,-SN,M,M,M,M,M,M,24.29,KELY 312251Z AUTO 28012G25KT 1 1/4SM -SN SCT017 BKN029 OVC085 01/M02 A2965 RMK AO2 SNE2151B48 P0000,M
TPH,2024-03-31 22:51,-117.0904,38.0505,1654.00,35.60,33.80,93.08,300.00,10.00,0.02,29.69,M,9.00,M,FEW,BKN,OVC,M,800.00,2000.00,3800.00,M,UP,M,M,M,M,M,M,27.48,KTPH 312251Z AUTO 30010KT 9SM UP FEW008 BKN020 OVC038 02/01 A2969 RMK AO2 RAE21UPB49SNB21E49 P0002,M
P68,2024-03-31 22:53,-116.0056,39.6014,1993.00,36.00,32.00,85.23,M,6.00,0.01,29.67,1004.50,M,M,M,M,M,M,M,M,M,M,M,M,M,M,M,M,M,30.35,KP68 312253Z AUTO VRB06KT 02/00 A2967 RMK AO1 SLP045 P0001 T00220000,M
DRA,2024-03-31 22:53,-116.0278,36.6206,1009.00,52.00,34.00,50.12,240.00,11.00,0.00,29.69,1003.70,10.00,M,OVC,M,M,M,4600.00,M,M,M,M,M,M,M,M,M,M,52.00,KDRA 312253Z AUTO 24011KT 10SM OVC046 11/01 A2969 RMK AO2 SLP037 T01110011,M
ELY,2024-03-31 22:53,-114.8453,39.2950,1909.00,32.00,28.00,84.98,260.00,16.00,T,29.65,1003.50,0.75,25.00,SCT,BKN,OVC,M,1400.00,2900.00,8000.00,M,-SN BR,M,M,M,M,M,M,20.42,KELY 312253Z AUTO 26016G25KT 3/4SM -SN BR SCT014 BKN029 OVC080 00/M02 A2965 RMK AO2 SNE2151B48 SLP035 P0000 T00001022,M
VGT,2024-03-31 22:53,-115.1933,36.2111,667.00,62.00,30.00,29.73,230.00,13.00,0.00,29.67,1006.10,10.00,17.00,FEW,BKN,M,M,7000.00,9000.00,M,M,M,M,M,M,M,M,M,62.00,KVGT 312253Z 23013G17KT 10SM FEW070 BKN090 17/M01 A2967 RMK AO2 SLP061 T01671011,M
LOL,2024-03-31 22:53,-118.5701,40.0684,1192.43,47.00,33.00,58.01,10.00,11.00,0.00,29.72,1006.50,10.00,18.00,FEW,SCT,M,M,7000.00,9000.00,M,M,M,M,M,M,26.00,30.00,2024-03-31 22:12,41.42,KLOL 312253Z AUTO 01011G18KT 10SM FEW070 SCT090 08/01 A2972 RMK AO2 PK WND 03026/2212 WSHFT 2223 SLP065 T00830006,M
BVU,2024-03-31 22:55,-114.8611,35.9475,671.00,55.40,39.20,54.34,150.00,17.00,0.00,29.72,M,10.00,22.00,FEW,SCT,BKN,M,4600.00,5500.00,8000.00,M,M,M,M,M,M,M,M,55.40,KBVU 312255Z AUTO 15017G22KT 10SM FEW046 SCT055 BKN080 13/04 A2972 RMK AO2 LTG DSNT N AND S,M
CXP,2024-03-31 22:55,-119.7326,39.1923,1431.00,46.40,23.00,39.36,30.00,19.00,0.00,29.74,M,10.00,M,SCT,BKN,M,M,9500.00,11000.00,M,M,M,M,M,M,M,M,M,38.48,KCXP 312255Z AUTO 03019KT 10SM SCT095 BKN110 08/M05 A2974 RMK AO2,M
INS,2024-03-31 22:55,-115.6733,36.5872,955.00,55.80,30.60,38.03,90.00,3.00,0.00,29.67,1003.10,10.00,M,BKN,OVC,M,M,6000.00,8500.00,M,M,M,M,M,M,M,M,M,55.80,KINS 312255Z AUTO 09003KT 10SM BKN060 OVC085 13/M01 A2967 RMK AO2 SLP031 T01321008 $,M
RNO,2024-03-31 22:55,-119.7711,39.4839,1341.00,48.00,23.00,37.06,340.00,12.00,0.00,29.73,1005.90,10.00,22.00,FEW,BKN,BKN,M,4500.00,6000.00,11000.00,M,M,M,M,M,M,M,M,42.37,KRNO 312255Z 34012G22KT 10SM FEW045 BKN060CB BKN110 09/M05 A2973 RMK AO2 SLP059 CB W MOV S CB DSNT ALQDS SH VC SW AND W AND DSNT ALQDS T00891050 $,M
RTS,2024-03-31 22:55,-119.8764,39.6682,1539.00,44.60,28.40,52.72,290.00,10.00,0.00,29.75,M,10.00,M,FEW,FEW,SCT,M,6500.00,9000.00,11000.00,M,M,M,M,M,M,M,M,38.77,KRTS 312255Z AUTO 29010KT 10SM FEW065 FEW090 SCT110 07/M02 A2975 RMK AO2,M
MEV,2024-03-31 22:55,-119.7500,38.9963,1441.42,37.40,33.80,86.69,40.00,9.00,0.03,29.75,M,3.00,M,SCT,SCT,BKN,M,700.00,1100.00,2600.00,M,-RA HZ,M,M,M,M,M,M,30.23,KMEV 312255Z AUTO 04009KT 3SM -RA HZ SCT007 SCT011 BKN026 03/01 A2975 RMK AO2 P0003,M
HTH,2024-03-31 22:55,-118.6315,38.5448,1282.89,44.60,33.80,65.61,360.00,20.00,0.01,29.73,M,4.00,33.00,FEW,SCT,BKN,M,2400.00,6000.00,7000.00,M,HZ,M,M,M,M,M,M,35.87,KHTH 312255Z AUTO 36020G33KT 4SM HZ FEW024 SCT060 BKN070 07/01 A2973 RMK A01 P0001,M
TMT,2024-03-31 22:55,-117.1971,39.4643,1749.34,35.60,32.50,88.35,110.00,5.00,0.00,29.70,M,7.00,M,SCT,BKN,OVC,M,2700.00,3500.00,4400.00,M,UP,M,M,M,M,M,M,30.67,KTMT 312255Z AUTO 11005KT 7SM UP SCT027 BKN035 OVC044 02/00 A2970 RMK AO2 T00200003,M
10U,2024-03-31 22:55,-116.1876,41.9532,1637.00,46.40,17.60,31.28,320.00,12.00,0.00,29.66,M,10.00,17.00,BKN,BKN,M,M,6500.00,7000.00,M,M,M,M,M,M,M,M,M,40.33,K10U 312255Z AUTO 32012G17KT 10SM BKN065 BKN070 08/M08 A2966 RMK AO2,M
BAM,2024-03-31 22:55,-116.8743,40.5990,1382.36,44.60,32.00,61.03,0.00,0.00,0.00,29.70,M,10.00,M,SCT,SCT,OVC,M,5000.00,5500.00,9500.00,M,M,M,M,M,M,M,M,44.60,KBAM 312255Z AUTO 00000KT 10SM SCT050 SCT055 OVC095 07/00 A2970 RMK AO1,M
LSV,2024-03-31 22:55,-115.0343,36.2362,570.00,60.80,37.60,42.04,140.00,16.00,0.00,29.65,1003.50,10.00,M,FEW,M,M,M,8500.00,M,M,M,M,M,M,M,M,M,M,60.80,KLSV 312255Z AUTO 14016KT 10SM FEW085 16/03 A2965 RMK AO2 SLP035 T01600031 $,M
EKO,2024-03-31 22:56,-115.7860,40.8242,1367.00,40.00,33.00,75.84,200.00,8.00,0.00,29.66,1004.60,10.00,M,CLR,M,M,M,M,M,M,M,M,M,M,M,M,M,M,33.97,KEKO 312256Z AUTO 20008KT 10SM CLR 04/01 A2966 RMK AO2 SLP046 T00440006,M
WMC,2024-03-31 22:56,-117.8072,40.9019,1315.00,43.00,30.00,59.83,300.00,10.00,0.00,29.72,1006.40,10.00,23.00,SCT,OVC,M,M,6500.00,8000.00,M,M,M,M,M,M,28.00,330.00,2024-03-31 22:39,36.76,KWMC 312256Z AUTO 30010G23KT 10SM SCT065 OVC080 06/M01 A2972 RMK AO2 PK WND 33028/2239 WSHFT 2240 SLP064 T00611011,M
HND,2024-03-31 22:56,-115.1344,35.9729,742.79,60.00,35.00,39.03,200.00,12.00,0.00,29.72,1007.70,10.00,16.00,BKN,BKN,M,M,8000.00,10000.00,M,M,M,M,M,M,M,M,M,60.00,KHND 312256Z 20012G16KT 10SM BKN080 BKN100 16/02 A2972 RMK AO2 SLP077 T01560017,M
TPH,2024-03-31 22:56,-117.0904,38.0505,1654.00,36.00,34.00,92.35,290.00,9.00,0.02,29.69,1005.50,10.00,M,FEW,BKN,OVC,M,800.00,2400.00,3800.00,M,UP,M,M,M,M,M,M,28.49,KTPH 312256Z AUTO 29009KT 10SM UP FEW008 BKN024 OVC038 02/01 A2969 RMK AO2 RAE21UPB49SNB21E49 SLP055 P0002 T00220011,M
LAS,2024-03-31 22:56,-115.1634,36.0719,663.00,60.00,34.00,37.50,170.00,9.00,0.00,29.68,1004.60,10.00,16.00,SCT,SCT,BKN,M,7500.00,15000.00,25000.00,M,M,M,M,M,M,M,M,60.00,KLAS 312256Z 17009G16KT 10SM SCT075 SCT150 BKN250 16/01 A2968 RMK AO2 SLP046 T01560011 $,M
NFL,2024-03-31 22:56,-118.7010,39.4166,1199.00,51.00,34.00,52.00,40.00,11.00,0.00,29.70,1004.00,10.00,26.00,SCT,BKN,BKN,M,4000.00,6000.00,10000.00,M,M,M,M,M,26.00,330.00,2024-03-31 22:52,51.00,KNFL 312256Z COR 04011G26KT 10SM SCT040 BKN060 BKN100 11/01 A2970 RMK AO2 PK WND 33026/2252 SLP040 SH DSNT NE-SE T01060011,M
ELY,2024-03-31 23:03,-114.8453,39.2950,1909.00,31.00,27.00,84.92,270.00,15.00,0.02,29.66,M,0.25,22.00,BKN,BKN,OVC,M,1400.00,2700.00,3200.00,M,+SN FZFG,M,M,M,M,M,M,19.48,KELY 312303Z AUTO 27015G22KT 1/4SM +SN FZFG BKN014 BKN027 OVC032 M01/M03 A2966 RMK AO2 P0002 T10061028,M
WMC,2024-03-31 23:03,-117.8072,40.9019,1315.00,44.00,31.00,59.97,310.00,7.00,0.00,29.73,M,10.00,M,BKN,OVC,M,M,6500.00,8000.00,M,M,M,M,M,M,M,M,M,39.41,KWMC 312303Z AUTO 31007KT 280V340 10SM BKN065 OVC080 07/M01 A2973 RMK AO2 WSHFT 2243 T00671006,M
TPH,2024-03-31 23:09,-117.0904,38.0505,1654.00,36.00,34.00,92.35,260.00,6.00,T,29.69,M,10.00,M,BKN,OVC,M,M,3700.00,4800.00,M,M,-RA,M,M,M,M,M,M,30.35,KTPH 312309Z AUTO 26006KT 10SM -RA BKN037 OVC048 02/01 A2969 RMK AO2 UPE01RAB01 P0000 T00220011,M
05U,2024-03-31 23:10,-116.0051,39.6042,1811.23,37.40,32.00,80.65,200.00,8.00,0.00,29.70,M,10.00,M,M,M,M,M,M,M,M,M,M,M,M,M,M,M,M,30.76,K05U 312310Z AUTO 20008KT 10SM 03/M00 A2970 RMK A01,M
ELY,2024-03-31 23:13,-114.8453,39.2950,1909.00,30.00,28.00,92.15,270.00,8.00,0.03,29.66,M,0.25,M,BKN,OVC,M,M,900.00,1500.00,M,M,SN FZFG,M,M,M,M,M,M,21.65,KELY 312313Z AUTO 27008KT 1/4SM SN FZFG BKN009 OVC015 M01/M02 A2966 RMK AO2 P0003 T10111022,M
BVU,2024-03-31 23:15,-114.8611,35.9475,671.00,55.40,39.20,54.34,160.00,16.00,0.00,29.71,M,10.00,M,BKN,M,M,M,9000.00,M,M,M,M,M,M,M,M,M,M,55.40,KBVU 312315Z AUTO 16016KT 10SM BKN090 13/04 A2971 RMK AO2,M
CXP,2024-03-31 23:15,-119.7326,39.1923,1431.00,46.40,24.80,42.44,360.00,14.00,0.00,29.74,M,10.00,M,FEW,OVC,M,M,8000.00,9500.00,M,M,M,M,M,M,M,M,M,39.72,KCXP 312315Z AUTO 36014KT 10SM FEW080 OVC095 08/M04 A2974 RMK AO2,M
RTS,2024-03-31 23:15,-119.8764,39.6682,1539.00,37.40,30.20,74.98,360.00,16.00,0.00,29.78,M,2.00,25.00,FEW,FEW,SCT,M,4000.00,5000.00,9000.00,M,-SN,M,M,M,M,M,M,27.46,KRTS 312315Z AUTO 36016G25KT 2SM -SN FEW040 FEW050 SCT090 03/M01 A2978 RMK AO2,M
MEV,2024-03-31 23:15,-119.7500,38.9963,1441.42,39.20,32.00,75.16,280.00,7.00,0.00,29.74,M,7.00,M,FEW,SCT,BKN,M,500.00,1200.00,3800.00,M,M,M,M,M,M,M,M,33.56,KMEV 312315Z AUTO 28007KT 7SM FEW005 SCT012 BKN038 04/M00 A2974 RMK AO2,M
HTH,2024-03-31 23:15,-118.6315,38.5448,1282.89,41.00,33.80,75.33,280.00,7.00,0.00,29.73,M,5.00,19.00,FEW,FEW,SCT,M,2600.00,3900.00,4600.00,M,HZ,M,M,M,M,M,M,35.75,KHTH 312315Z AUTO 28007G19KT 5SM HZ FEW026 FEW039 SCT046 05/01 A2973 RMK A01,M
TMT,2024-03-31 23:15,-117.1971,39.4643,1749.34,35.00,31.60,87.26,50.00,11.00,0.00,29.71,M,10.00,16.00,SCT,BKN,OVC,M,1400.00,3100.00,4600.00,M,M,M,M,M,M,M,M,26.26,KTMT 312315Z AUTO 05011G16KT 10SM SCT014 BKN031 OVC046 02/00 A2971 RMK AO2 T00171002,M
10U,2024-03-31 23:15,-116.1876,41.9532,1637.00,44.60,17.60,33.49,360.00,11.00,0.00,29.67,M,10.00,M,BKN,BKN,M,M,6000.00,7000.00,M,M,M,M,M,M,M,M,M,38.39,K10U 312315Z AUTO 36011KT 10SM BKN060 BKN070 07/M08 A2967 RMK AO2,M
BAM,2024-03-31 23:15,-116.8743,40.5990,1382.36,44.60,30.20,56.74,320.00,4.00,0.00,29.70,M,10.00,M,SCT,BKN,OVC,M,4400.00,5000.00,9500.00,M,M,M,M,M,M,M,M,42.13,KBAM 312315Z AUTO 32004KT 10SM SCT044 BKN050 OVC095 07/M01 A2970 RMK AO1,M
ELY,2024-03-31 23:17,-114.8453,39.2950,1909.00,30.00,28.00,92.15,270.00,6.00,0.04,29.66,M,0.50,15.00,VV ,M,M,M,1300.00,M,M,M,-SN FZFG,M,M,M,M,M,M,23.12,KELY 312317Z AUTO 27006G15KT 1/2SM -SN FZFG VV013 M01/M02 A2966 RMK AO2 P0004 T10111022,M
ELY,2024-03-31 23:21,-114.8453,39.2950,1909.00,30.00,28.00,92.15,270.00,5.00,0.04,29.66,M,1.00,M,BKN,OVC,M,M,1700.00,4800.00,M,M,-SN BR,M,M,M,M,M,M,24.02,KELY 312321Z AUTO 27005KT 1SM -SN BR BKN017 OVC048 M01/M02 A2966 RMK AO2 P0004 T10111022,M
ELY,2024-03-31 23:24,-114.8453,39.2950,1909.00,30.00,28.00,92.15,270.00,4.00,0.04,29.66,M,2.50,M,BKN,OVC,M,M,1900.00,4800.00,M,M,-SN BR,M,M,M,M,M,M,25.08,KELY 312324Z AUTO 27004KT 2 1/2SM -SN BR BKN019 OVC048 M01/M02 A2966 RMK AO2 P0004 T10111022,M
TPH,2024-03-31 23:29,-117.0904,38.0505,1654.00,36.00,33.00,88.73,290.00,9.00,T,29.69,M,10.00,M,FEW,BKN,OVC,M,1000.00,2800.00,4800.00,M,M,M,M,M,M,M,M,28.49,KTPH 312329Z AUTO 29009KT 10SM FEW010 BKN028 OVC048 02/01 A2969 RMK AO2 UPE01RAB01E10 P0000 T00220006,M
CXP,2024-03-31 23:30,-119.7326,39.1923,1431.00,48.20,23.00,36.78,360.00,14.00,0.00,29.75,M,10.00,M,FEW,BKN,M,M,8000.00,9000.00,M,M,M,M,M,M,M,M,M,42.04,KCXP 312330Z AUTO 36014KT 10SM FEW080 BKN090 09/M05 A2975 RMK AO2,M
05U,2024-03-31 23:30,-116.0051,39.6042,1811.23,39.20,30.20,69.88,180.00,8.00,0.00,29.70,M,10.00,15.00,M,M,M,M,M,M,M,M,M,M,M,M,M,M,M,32.98,K05U 312330Z AUTO 18008G15KT 10SM 04/M01 A2970 RMK A01,M
ELY,2024-03-31 23:31,-114.8453,39.2950,1909.00,31.00,28.00,88.48,270.00,3.00,0.04,29.67,M,7.00,M,BKN,OVC,M,M,2300.00,4800.00,M,M,M,M,M,M,M,M,M,27.55,KELY 312331Z AUTO 27003KT 7SM BKN023 OVC048 M01/M02 A2967 RMK AO2 SNE29 P0004 T10061022,M
BAM,2024-03-31 23:35,-116.8743,40.5990,1382.36,46.40,32.00,57.00,350.00,12.00,0.00,29.71,M,10.00,22.00,BKN,BKN,OVC,M,4800.00,6000.00,7500.00,M,M,M,M,M,M,M,M,40.33,KBAM 312335Z AUTO 35012G22KT 10SM BKN048 BKN060 OVC075 08/00 A2971 RMK AO1,M
BVU,2024-03-31 23:35,-114.8611,35.9475,671.00,55.40,37.40,50.64,130.00,14.00,0.00,29.72,M,10.00,M,FEW,M,M,M,9500.00,M,M,M,M,M,M,M,M,M,M,55.40,KBVU 312335Z AUTO 13014KT 10SM FEW095 13/03 A2972 RMK AO2,M
RTS,2024-03-31 23:35,-119.8764,39.6682,1539.00,37.40,32.00,80.65,360.00,10.00,0.00,29.77,M,9.00,M,FEW,FEW,M,M,1600.00,2600.00,M,M,-RA,M,M,M,M,M,M,29.74,KRTS 312335Z AUTO 36010KT 9SM -RA FEW016 FEW026 03/M00 A2977 RMK AO2,M
MEV,2024-03-31 23:35,-119.7500,38.9963,1441.42,39.20,33.80,80.79,220.00,4.00,0.00,29.75,M,10.00,M,FEW,BKN,OVC,M,3600.00,5500.00,6000.00,M,M,M,M,M,M,M,M,35.83,KMEV 312335Z AUTO 22004KT 10SM FEW036 BKN055 OVC060 04/01 A2975 RMK AO2,M
HTH,2024-03-31 23:35,-118.6315,38.5448,1282.89,44.60,33.80,65.61,310.00,10.00,0.00,29.74,M,10.00,M,FEW,BKN,M,M,4300.00,5000.00,M,M,M,M,M,M,M,M,M,38.77,KHTH 312335Z AUTO 31010KT 10SM FEW043 BKN050 07/01 A2974 RMK A01,M
TMT,2024-03-31 23:35,-117.1971,39.4643,1749.34,35.00,31.30,86.21,30.00,15.00,0.00,29.72,M,10.00,19.00,SCT,BKN,OVC,M,1600.00,3900.00,6000.00,M,-RA,M,M,M,M,M,M,24.67,KTMT 312335Z AUTO 03015G19KT 10SM -RA SCT016 BKN039 OVC060 02/00 A2972 RMK AO2 T00171004,M
10U,2024-03-31 23:35,-116.1876,41.9532,1637.00,44.60,17.60,33.49,350.00,12.00,0.00,29.67,M,10.00,M,BKN,M,M,M,6000.00,M,M,M,M,M,M,M,M,M,M,38.04,K10U 312335Z AUTO 35012KT 10SM BKN060 07/M08 A2967 RMK AO2,M
ELY,2024-03-31 23:39,-114.8453,39.2950,1909.00,31.00,27.00,84.92,M,3.00,0.04,29.67,M,1.75,M,BKN,BKN,OVC,M,2900.00,3500.00,4800.00,M,-SN BR,M,M,M,M,M,M,27.55,KELY 312339Z AUTO VRB03KT 1 3/4SM -SN BR BKN029 BKN035 OVC048 M01/M03 A2967 RMK AO2 SNE29B34 P0004 T10061028,M
ELY,2024-03-31 23:42,-114.8453,39.2950,1909.00,31.00,28.00,88.48,0.00,0.00,0.04,29.67,M,1.25,M,FEW,BKN,OVC,M,3000.00,3600.00,4800.00,M,-SN BR,M,M,M,M,M,M,31.00,KELY 312342Z AUTO 00000KT 1 1/4SM -SN BR FEW030 BKN036 OVC048 M01/M02 A2967 RMK AO2 SNE29B34 P0004 T10061022,M
RNO,2024-03-31 23:42,-119.7711,39.4839,1341.00,44.00,31.00,59.97,340.00,17.00,T,29.76,M,10.00,30.00,FEW,BKN,BKN,M,4500.00,6500.00,11000.00,M,-SNRA,M,M,M,34.00,350.00,2024-03-31 23:29,35.80,KRNO 312342Z 34017G30KT 10SM -SNRA FEW045 BKN065CB BKN110 07/M01 A2976 RMK AO2 PK WND 35034/2329 RAB32SNB41 PRESRR CB ALQDS MOV S P0000 T00671006 $,M
ELY,2024-03-31 23:47,-114.8453,39.2950,1909.00,30.20,28.40,92.92,140.00,3.00,0.04,29.67,M,2.00,M,FEW,BKN,OVC,M,3100.00,3800.00,4700.00,M,-SN BR,M,M,M,M,M,M,26.63,KELY 312347Z AUTO 14003KT 2SM -SN BR FEW031 BKN038 OVC047 M01/M02 A2967 RMK AO2 SNE29B34 P0004,M
05U,2024-03-31 23:50,-116.0051,39.6042,1811.23,41.00,26.60,56.22,140.00,11.00,0.00,29.71,M,10.00,M,M,M,M,M,M,M,M,M,M,M,M,M,M,M,M,33.84,K05U 312350Z AUTO 14011KT 10SM 05/M03 A2971 RMK A01,M
P68,2024-03-31 23:53,-116.0056,39.6014,1993.00,41.00,27.00,57.15,350.00,13.00,0.00,29.68,1004.00,M,20.00,M,M,M,M,M,M,M,M,M,M,M,M,M,M,M,33.10,KP68 312353Z AUTO 35013G20KT 05/M03 A2968 RMK AO1 SLP040 60008 T00501028 10050 21006 51007,M
DRA,2024-03-31 23:53,-116.0278,36.6206,1009.00,49.00,38.00,65.63,320.00,8.00,0.00,29.69,1003.90,10.00,M,BKN,OVC,M,M,5000.00,6500.00,M,M,M,M,M,M,M,M,M,45.05,KDRA 312353Z AUTO 32008KT 10SM BKN050 OVC065 09/03 A2969 RMK AO2 SLP039 T00940033 10128 20089 56012,M
ELY,2024-03-31 23:53,-114.8453,39.2950,1909.00,31.00,28.00,88.48,140.00,6.00,0.04,29.67,1004.50,8.00,M,BKN,OVC,M,M,3400.00,4500.00,M,M,M,M,M,M,M,M,M,24.33,KELY 312353Z AUTO 14006KT 8SM BKN034 OVC045 M01/M02 A2967 RMK AO2 SNE29B34E52 SLP045 P0004 60004 T10061022 10033 21011 53014,M
VGT,2024-03-31 23:53,-115.1933,36.2111,667.00,63.00,31.00,29.89,230.00,10.00,0.00,29.67,1005.90,10.00,14.00,FEW,BKN,M,M,7000.00,9000.00,M,M,M,M,M,M,M,M,M,63.00,KVGT 312353Z 23010G14KT 10SM FEW070 BKN090 17/M01 A2967 RMK AO2 SLP059 T01721006 10178 20117 56016,M
LOL,2024-03-31 23:53,-118.5701,40.0684,1192.43,47.00,31.00,53.52,360.00,10.00,0.00,29.74,1007.20,10.00,M,FEW,OVC,M,M,6500.00,9000.00,M,M,M,M,M,M,M,M,M,41.78,KLOL 312353Z AUTO 36010KT 10SM FEW065 OVC090 08/M01 A2974 RMK AO2 SLP072 T00831006 10094 20044 53009,M
BVU,2024-03-31 23:55,-114.8611,35.9475,671.00,55.40,39.20,54.34,130.00,16.00,0.00,29.72,M,10.00,M,BKN,BKN,BKN,M,6500.00,7500.00,10000.00,M,M,M,M,M,M,M,M,55.40,KBVU 312355Z AUTO 13016KT 10SM BKN065 BKN075 BKN100 13/04 A2972 RMK AO2,M
CXP,2024-03-31 23:55,-119.7326,39.1923,1431.00,46.40,23.00,39.36,10.00,16.00,0.00,29.75,M,10.00,M,FEW,SCT,BKN,M,7500.00,9000.00,11000.00,M,M,M,M,M,M,M,M,39.19,KCXP 312355Z AUTO 01016KT 10SM FEW075 SCT090 BKN110 08/M05 A2975 RMK AO2,M
INS,2024-03-31 23:55,-115.6733,36.5872,955.00,57.70,25.70,29.04,260.00,7.00,0.00,29.67,1002.90,10.00,M,FEW,M,M,M,9000.00,M,M,M,M,M,M,M,M,M,M,57.70,KINS 312355Z AUTO 26007KT 10SM FEW090 14/M03 A2967 RMK AO2 SLP029 T01431035 10153 20096 56016 $,M
RNO,2024-03-31 23:55,-119.7711,39.4839,1341.00,42.00,30.00,62.18,30.00,9.00,T,29.77,1007.80,10.00,M,FEW,BKN,BKN,M,3500.00,5500.00,10000.00,M,M,M,M,M,34.00,350.00,2024-03-31 23:29,35.95,KRNO 312355Z 03009KT 10SM FEW035 BKN055CB BKN100 06/M01 A2977 RMK AO2 PK WND 35034/2329 RAB32E54SNB41E54 SLP078 CB ALQDS MOV S SH VC ALQDS P0000 60000 T00561011 10100 20056 53012 $,M
LSV,2024-03-31 23:55,-115.0343,36.2362,570.00,60.60,36.00,39.75,140.00,18.00,0.00,29.65,1003.50,10.00,M,SCT,SCT,M,M,7000.00,9000.00,M,M,M,M,M,M,M,M,M,60.60,KLSV 312355Z AUTO 14018KT 10SM SCT070 SCT090 16/02 A2965 RMK AO2 SLP035 T01590023 10173 20116 56016 $,M
BAM,2024-03-31 23:55,-116.8743,40.5990,1382.36,48.20,32.00,53.27,330.00,15.00,0.00,29.71,M,10.00,22.00,OVC,M,M,M,4800.00,M,M,M,M,M,M,M,M,M,M,41.78,KBAM 312355Z AUTO 33015G22KT 10SM OVC048 09/00 A2971 RMK AO1,M
RTS,2024-03-31 23:55,-119.8764,39.6682,1539.00,39.20,32.00,75.16,330.00,5.00,0.00,29.77,M,10.00,M,FEW,FEW,M,M,7500.00,9500.00,M,M,M,M,M,M,M,M,M,34.95,KRTS 312355Z AUTO 33005KT 10SM FEW075 FEW095 04/M00 A2977 RMK AO2,M
MEV,2024-03-31 23:55,-119.7500,38.9963,1441.42,39.20,33.80,80.79,170.00,4.00,0.01,29.75,M,10.00,M,BKN,BKN,M,M,6000.00,9000.00,M,M,M,M,M,M,M,M,M,35.83,KMEV 312355Z AUTO 17004KT 10SM BKN060 BKN090 04/01 A2975 RMK AO2 P0001,M
HTH,2024-03-31 23:55,-118.6315,38.5448,1282.89,44.60,33.80,65.61,280.00,6.00,0.02,29.74,M,10.00,12.00,FEW,SCT,M,M,5000.00,9500.00,M,M,M,M,M,M,M,M,M,40.71,KHTH 312355Z AUTO 28006G12KT 10SM FEW050 SCT095 07/01 A2974 RMK A01 P0002,M
TMT,2024-03-31 23:55,-117.1971,39.4643,1749.34,35.00,31.00,85.17,20.00,11.00,0.00,29.72,M,10.00,M,SCT,BKN,OVC,M,3700.00,4300.00,5500.00,M,M,M,M,M,M,M,M,26.26,KTMT 312355Z AUTO 02011KT 10SM SCT037 BKN043 OVC055 02/M01 A2972 RMK AO2 T00161006 10024 20000,M
10U,2024-03-31 23:55,-116.1876,41.9532,1637.00,44.60,19.40,36.18,360.00,13.00,0.00,29.68,M,10.00,M,BKN,M,M,M,6000.00,M,M,M,M,M,M,M,M,M,M,37.71,K10U 312355Z AUTO 36013KT 10SM BKN060 07/M07 A2968 RMK AO2,M
EKO,2024-03-31 23:56,-115.7860,40.8242,1367.00,40.00,33.00,75.84,200.00,8.00,0.00,29.67,1004.90,10.00,M,CLR,M,M,M,M,M,M,M,M,M,M,M,M,M,M,33.97,KEKO 312356Z AUTO 20008KT 10SM CLR 04/01 A2967 RMK AO2 SLP049 60017 T00440006 10050 20006 53004,M
WMC,2024-03-31 23:56,-117.8072,40.9019,1315.00,46.00,29.00,51.24,350.00,9.00,0.00,29.73,1006.50,10.00,M,FEW,BKN,OVC,M,5500.00,8000.00,12000.00,M,M,M,M,M,M,M,M,40.92,KWMC 312356Z AUTO 35009KT 10SM FEW055 BKN080 OVC120 08/M02 A2973 RMK AO2 WSHFT 2243 SLP065 T00781017 10100 20039 53009,M
NFL,2024-03-31 23:56,-118.7010,39.4166,1199.00,48.00,33.00,55.87,10.00,9.00,0.00,29.73,1004.80,10.00,M,FEW,BKN,BKN,M,3000.00,5500.00,10000.00,M,M,M,M,M,M,M,M,43.41,KNFL 312356Z 01009KT 330V040 10SM FEW030 BKN055 BKN100 09/01 A2973 RMK AO2 SLP048 SH DSNT ALQDS T00890006 10117 20072 53008,M
HND,2024-03-31 23:56,-115.1344,35.9729,742.79,59.00,35.00,40.45,190.00,12.00,0.00,29.71,1007.70,10.00,M,SCT,M,M,M,7000.00,M,M,M,M,M,M,M,M,M,M,59.00,KHND 312356Z 19012KT 10SM SCT070 15/02 A2971 RMK AO2 SLP077 T01500017 10156 20122 56014,M
TPH,2024-03-31 23:56,-117.0904,38.0505,1654.00,36.00,34.00,92.35,290.00,7.00,T,29.69,1005.70,10.00,M,FEW,BKN,OVC,M,2000.00,3600.00,4900.00,M,-RA,M,M,M,M,M,M,29.65,KTPH 312356Z AUTO 29007KT 10SM -RA FEW020 BKN036 OVC049 02/01 A2969 RMK AO2 UPE01B32E53RAB01E10B53 SLP057 P0000 60003 T00220011 10050 20011 53001,M
LAS,2024-03-31 23:56,-115.1634,36.0719,663.00,59.00,33.00,37.34,180.00,8.00,0.00,29.68,1004.60,10.00,17.00,FEW,SCT,BKN,M,7500.00,15000.00,25000.00,M,M,M,M,M,M,M,M,59.00,KLAS 312356Z 18008G17KT 10SM FEW075 SCT150 BKN250 15/01 A2968 RMK AO2 SLP046 CB DSNT E-SE T01500006 10161 20111 56015 $,M
