station,valid,lon,lat,elevation,tmpf,dwpf,relh,drct,sknt,p01i,alti,mslp,vsby,gust,skyc1,skyc2,skyc3,skyc4,skyl1,skyl2,skyl3,skyl4,wxcodes,ice_accretion_1hr,ice_accretion_3hr,ice_accretion_6hr,peak_wind_gust,peak_wind_drct,peak_wind_time,feel,metar,snowdepth
05U,2024-02-21 00:10,-116.0051,39.6042,1811.23,42.80,33.80,70.28,300.00,10.00,0.00,30.00,M,10.00,15.00,M,M,M,M,M,M,M,M,M,M,M,M,M,M,M,36.51,K05U 210010Z AUTO 30010G15KT 10SM 06/01 A3000 RMK A01,M
BVU,2024-02-21 00:15,-114.8611,35.9475,671.00,51.80,48.20,87.47,170.00,4.00,0.00,30.12,M,9.00,M,FEW,SCT,BKN,M,3200.00,3700.00,4400.00,M,-DZ,M,M,M,M,M,M,51.80,KBVU 210015Z AUTO 17004KT 9SM -DZ FEW032 SCT037 BKN044 11/09 A3012 RMK AO2,M
CXP,2024-02-21 00:15,-119.7326,39.1923,1431.00,50.00,21.20,31.87,M,5.00,0.00,29.97,M,10.00,M,FEW,BKN,BKN,M,6000.00,7000.00,9500.00,M,M,M,M,M,M,M,M,50.00,KCXP 210015Z AUTO VRB05KT 10SM FEW060 BKN070 BKN095 10/M06 A2997 RMK AO2,M
RTS,2024-02-21 00:15,-119.8764,39.6682,1539.00,42.80,28.40,56.48,250.00,18.00,0.00,29.99,M,10.00,24.00,OVC,M,M,M,8000.00,M,M,M,M,M,M,M,M,M,M,33.97,KRTS 210015Z AUTO 25018G24KT 10SM OVC080 06/M02 A2999 RMK AO2,M
MEV,2024-02-21 00:15,-119.7500,38.9963,1441.42,46.40,28.40,49.24,180.00,12.00,0.00,29.95,M,10.00,19.00,FEW,FEW,M,M,8000.00,9500.00,M,M,M,M,M,M,M,M,M,40.33,KMEV 210015Z AUTO 18012G19KT 10SM FEW080 FEW095 08/M02 A2995 RMK AO2,M
BAM,2024-02-21 00:15,-116.8743,40.5990,1382.36,53.60,26.60,34.98,0.00,0.00,0.00,29.96,M,10.00,M,SCT,M,M,M,10000.00,M,M,M,M,M,M,M,M,M,M,53.60,KBAM 210015Z AUTO 00000KT 10SM SCT100 12/M03 A2996 RMK AO1,M
HTH,2024-02-21 00:15,-118.6315,38.5448,1282.89,55.40,17.60,22.41,190.00,19.00,0.00,29.93,M,10.00,25.00,CLR,M,M,M,M,M,M,M,M,M,M,M,M,M,M,55.40,KHTH 210015Z AUTO 19019G25KT 10SM CLR 13/M08 A2993 RMK A01,M
10U,2024-02-21 00:15,-116.1876,41.9532,1637.00,42.80,30.20,60.79,120.00,10.00,0.00,29.99,M,10.00,M,FEW,BKN,OVC,M,5500.00,7000.00,8000.00,M,M,M,M,M,M,M,M,36.51,K10U 210015Z AUTO 12010KT 10SM FEW055 BKN070 OVC080 06/M01 A2999 RMK AO2,M
TMT,2024-02-21 00:15,-117.1971,39.4643,1749.34,45.50,31.50,57.80,320.00,5.00,0.00,29.95,M,10.00,M,SCT,M,M,M,11000.00,M,M,M,M,M,M,M,M,M,M,42.43,KTMT 210015Z AUTO 32005KT 10SM SCT110 08/00 A2995 RMK AO2 T00751003,M
INS,2024-02-21 00:16,-115.6733,36.5872,955.00,51.80,46.40,81.74,260.00,6.00,0.00,30.08,1016.80,10.00,20.00,FEW,SCT,BKN,OVC,1300.00,4100.00,5000.00,6500.00,-RA,M,M,M,M,M,M,51.80,KINS 210016Z AUTO 26006G20KT 10SM -RA FEW013 SCT041 BKN050 OVC065 11/08 A3008 RMK AO2 RAB16 SLP168,M
INS,2024-02-21 00:28,-115.6733,36.5872,955.00,53.60,44.60,71.45,30.00,3.00,0.00,30.07,1016.50,10.00,15.00,SCT,BKN,OVC,M,4400.00,5000.00,6500.00,M,M,M,M,M,M,M,M,53.60,KINS 210028Z AUTO 03003G15KT 10SM SCT044 BKN050 OVC065 12/07 A3007 RMK AO2 RAB16E28 SLP165,M
05U,2024-02-21 00:30,-116.0051,39.6042,1811.23,42.80,33.80,70.28,310.00,8.00,0.00,30.01,M,10.00,M,M,M,M,M,M,M,M,M,M,M,M,M,M,M,M,37.42,K05U 210030Z AUTO 31008KT 10SM 06/01 A3001 RMK A01,M
BVU,2024-02-21 00:35,-114.8611,35.9475,671.00,51.80,50.00,93.55,0.00,0.00,0.00,30.11,M,6.00,M,FEW,SCT,BKN,M,4000.00,4600.00,6000.00,M,-DZ,M,M,M,M,M,M,51.80,KBVU 210035Z AUTO 00000KT 6SM -DZ FEW040 SCT046 BKN060 11/10 A3011 RMK AO2,M
CXP,2024-02-21 00:35,-119.7326,39.1923,1431.00,48.20,23.00,36.78,M,4.00,0.00,29.97,M,10.00,M,FEW,BKN,OVC,M,5500.00,7000.00,7500.00,M,M,M,M,M,M,M,M,46.34,KCXP 210035Z AUTO VRB04KT 10SM FEW055 BKN070 OVC075 09/M05 A2997 RMK AO2,M
RTS,2024-02-21 00:35,-119.8764,39.6682,1539.00,42.80,26.60,52.45,230.00,20.00,0.00,29.98,M,10.00,25.00,FEW,BKN,BKN,M,6000.00,7500.00,8500.00,M,M,M,M,M,M,M,M,33.48,KRTS 210035Z AUTO 23020G25KT 10SM FEW060 BKN075 BKN085 06/M03 A2998 RMK AO2,M
MEV,2024-02-21 00:35,-119.7500,38.9963,1441.42,46.40,26.60,45.73,190.00,13.00,0.00,29.95,M,10.00,M,SCT,M,M,M,9000.00,M,M,M,M,M,M,M,M,M,M,40.02,KMEV 210035Z AUTO 19013KT 10SM SCT090 08/M03 A2995 RMK AO2,M
BAM,2024-02-21 00:35,-116.8743,40.5990,1382.36,53.60,26.60,34.98,0.00,0.00,0.00,29.96,M,10.00,M,BKN,M,M,M,10000.00,M,M,M,M,M,M,M,M,M,M,53.60,KBAM 210035Z AUTO 00000KT 10SM BKN100 12/M03 A2996 RMK AO1,M
HTH,2024-02-21 00:35,-118.6315,38.5448,1282.89,55.40,17.60,22.41,180.00,13.00,0.00,29.93,M,10.00,22.00,CLR,M,M,M,M,M,M,M,M,M,M,M,M,M,M,55.40,KHTH 210035Z AUTO 18013G22KT 10SM CLR 13/M08 A2993 RMK A01,M
10U,2024-02-21 00:35,-116.1876,41.9532,1637.00,42.80,32.00,65.38,120.00,13.00,0.00,29.99,M,10.00,M,FEW,BKN,OVC,M,5000.00,7000.00,8000.00,M,M,M,M,M,M,M,M,35.40,K10U 210035Z AUTO 12013KT 10SM FEW050 BKN070 OVC080 06/M00 A2999 RMK AO2,M
TMT,2024-02-21 00:35,-117.1971,39.4643,1749.34,45.30,30.40,55.70,300.00,6.00,0.00,29.95,M,10.00,M,SCT,M,M,M,11000.00,M,M,M,M,M,M,M,M,M,M,41.55,KTMT 210035Z AUTO 30006KT 10SM SCT110 07/M01 A2995 RMK AO2 T00741009,M
05U,2024-02-21 00:50,-116.0051,39.6042,1811.23,42.80,33.80,70.28,310.00,13.00,0.00,30.00,M,10.00,M,M,M,M,M,M,M,M,M,M,M,M,M,M,M,M,35.40,K05U 210050Z AUTO 31013KT 10SM 06/01 A3000 RMK A01,M
P68,2024-02-21 00:53,-116.0056,39.6014,1993.00,43.00,34.00,70.30,150.00,14.00,0.00,29.98,1013.80,M,19.00,M,M,M,M,M,M,M,M,M,M,M,M,M,M,M,35.34,KP68 210053Z AUTO 15014G19KT 06/01 A2998 RMK AO1 SLP138 T00610011,M
DRA,2024-02-21 00:53,-116.0278,36.6206,1009.00,55.00,34.00,44.90,190.00,7.00,0.00,30.03,1014.60,10.00,M,FEW,SCT,OVC,M,7000.00,8000.00,9500.00,M,M,M,M,M,27.00,190.00,2024-02-21 00:04,55.00,KDRA 210053Z AUTO 19007KT 10SM FEW070 SCT080 OVC095 13/01 A3003 RMK AO2 PK WND 19027/0004 SLP146 T01280011,M
ELY,2024-02-21 00:53,-114.8453,39.2950,1909.00,39.00,34.00,82.08,210.00,11.00,T,30.02,1014.90,10.00,M,FEW,BKN,OVC,M,3300.00,4200.00,4900.00,M,M,M,M,M,M,M,M,31.31,KELY 210053Z AUTO 21011KT 10SM FEW033 BKN042 OVC049 04/01 A3002 RMK AO2 RAB40E50 SLP149 P0000 T00390011,M
VGT,2024-02-21 00:53,-115.1933,36.2111,667.00,54.00,50.00,86.29,90.00,8.00,0.02,30.10,1020.50,10.00,M,FEW,OVC,M,M,2200.00,3800.00,M,M,-RA,M,M,M,M,M,M,54.00,KVGT 210053Z 09008KT 10SM -RA FEW022 OVC038 12/10 A3010 RMK AO2 SLP205 P0002 T01220100,M
LOL,2024-02-21 00:53,-118.5701,40.0684,1192.43,51.00,23.00,33.13,0.00,0.00,0.00,29.93,1014.00,10.00,M,CLR,M,M,M,M,M,M,M,M,M,M,M,M,M,M,51.00,KLOL 210053Z AUTO 00000KT 10SM CLR 11/M05 A2993 RMK AO2 SLP140 T01061050,M
BVU,2024-02-21 00:55,-114.8611,35.9475,671.00,51.80,48.20,87.47,0.00,0.00,0.00,30.11,M,10.00,M,FEW,BKN,OVC,M,4100.00,6000.00,7000.00,M,M,M,M,M,M,M,M,51.80,KBVU 210055Z AUTO 00000KT 10SM FEW041 BKN060 OVC070 11/09 A3011 RMK AO2,M
CXP,2024-02-21 00:55,-119.7326,39.1923,1431.00,48.20,23.00,36.78,230.00,8.00,0.00,29.97,M,10.00,M,BKN,OVC,M,M,7000.00,8000.00,M,M,M,M,M,M,M,M,M,44.07,KCXP 210055Z AUTO 23008KT 10SM BKN070 OVC080 09/M05 A2997 RMK AO2,M
RNO,2024-02-21 00:55,-119.7711,39.4839,1341.00,46.00,26.00,45.29,260.00,10.00,0.00,29.96,1013.60,10.00,17.00,BKN,BKN,M,M,7000.00,13000.00,M,M,M,M,M,M,M,M,M,40.52,KRNO 210055Z 26010G17KT 10SM BKN070 BKN130 08/M03 A2996 RMK AO2 SLP136 VIRGA T00781033,M
RTS,2024-02-21 00:55,-119.8764,39.6682,1539.00,41.00,24.80,52.17,220.00,20.00,0.00,29.98,M,10.00,36.00,FEW,BKN,BKN,M,4400.00,6500.00,7500.00,M,M,M,M,M,M,M,M,31.09,KRTS 210055Z AUTO 22020G36KT 10SM FEW044 BKN065 BKN075 05/M04 A2998 RMK AO2,M
MEV,2024-02-21 00:55,-119.7500,38.9963,1441.42,44.60,28.40,52.72,160.00,12.00,0.00,29.95,M,10.00,M,SCT,BKN,M,M,9000.00,11000.00,M,M,M,M,M,M,M,M,M,38.04,KMEV 210055Z AUTO 16012KT 10SM SCT090 BKN110 07/M02 A2995 RMK AO2,M
BAM,2024-02-21 00:55,-116.8743,40.5990,1382.36,53.60,24.80,32.46,0.00,0.00,0.00,29.96,M,10.00,M,OVC,M,M,M,9000.00,M,M,M,M,M,M,M,M,M,M,53.60,KBAM 210055Z AUTO 00000KT 10SM OVC090 12/M04 A2996 RMK AO1,M
HTH,2024-02-21 00:55,-118.6315,38.5448,1282.89,53.60,17.60,23.93,180.00,16.00,0.00,29.93,M,10.00,23.00,CLR,M,M,M,M,M,M,M,M,M,M,M,M,M,M,53.60,KHTH 210055Z AUTO 18016G23KT 10SM CLR 12/M08 A2993 RMK A01,M
TMT,2024-02-21 00:55,-117.1971,39.4643,1749.34,44.00,30.00,57.59,360.00,3.00,0.00,29.96,M,10.00,M,SCT,BKN,M,M,7000.00,9000.00,M,M,M,M,M,M,M,M,M,42.41,KTMT 210055Z AUTO 36003KT 10SM SCT070 BKN090 07/M01 A2996 RMK AO2 T00671011,M
10U,2024-02-21 00:55,-116.1876,41.9532,1637.00,41.00,32.00,70.08,120.00,10.00,0.00,29.99,M,10.00,M,FEW,BKN,BKN,M,4900.00,6500.00,7500.00,M,M,M,M,M,M,M,M,34.25,K10U 210055Z AUTO 12010KT 10SM FEW049 BKN065 BKN075 05/M00 A2999 RMK AO2,M
INS,2024-02-21 00:55,-115.6733,36.5872,955.00,51.40,46.00,81.71,100.00,15.00,T,30.07,1016.50,10.00,20.00,FEW,SCT,OVC,M,2900.00,4800.00,6500.00,M,M,M,M,M,M,M,M,51.40,KINS 210055Z AUTO 10015G20KT 10SM FEW029 SCT048 OVC065 11/08 A3007 RMK AO2 RAB16E28 SLP165 P0000 T01080078,M
EKO,2024-02-21 00:56,-115.7860,40.8242,1367.00,47.00,32.00,55.73,60.00,4.00,0.00,29.96,1014.40,10.00,M,CLR,M,M,M,M,M,M,M,M,M,M,M,M,M,M,44.94,KEKO 210056Z AUTO 06004KT 10SM CLR 08/00 A2996 RMK AO2 SLP144 T00830000,M
WMC,2024-02-21 00:56,-117.8072,40.9019,1315.00,50.00,22.00,32.97,210.00,4.00,0.00,29.94,1013.80,10.00,M,CLR,M,M,M,M,M,M,M,M,M,M,M,M,M,M,50.00,KWMC 210056Z AUTO 21004KT 10SM CLR 10/M06 A2994 RMK AO2 SLP138 T01001056,M
NFL,2024-02-21 00:56,-118.7010,39.4166,1199.00,52.00,31.00,44.42,40.00,9.00,0.00,29.92,1010.40,10.00,M,SCT,BKN,BKN,M,5000.00,12000.00,25000.00,M,M,M,M,M,M,M,M,52.00,KNFL 210056Z 04009KT 10SM SCT050 BKN120 BKN250 11/M01 A2992 RMK AO2 SLP104 SH DSNT E-SE T01111006,M
HND,2024-02-21 00:56,-115.1344,35.9729,742.79,51.00,46.00,82.93,190.00,12.00,0.01,30.12,1021.30,10.00,M,OVC,M,M,M,7000.00,M,M,M,-RA,M,M,M,M,M,M,51.00,KHND 210056Z 19012KT 10SM -RA OVC070 11/08 A3012 RMK AO2 SLP213 P0001 T01060078,M
TPH,2024-02-21 00:56,-117.0904,38.0505,1654.00,45.00,37.00,73.37,190.00,20.00,0.00,29.98,1014.00,10.00,28.00,FEW,M,M,M,3200.00,M,M,M,M,M,M,M,28.00,170.00,2024-02-21 00:47,36.41,KTPH 210056Z AUTO 19020G28KT 10SM FEW032 07/03 A2998 RMK AO2 PK WND 17028/0047 SLP140 T00720028,M
LAS,2024-02-21 00:56,-115.1634,36.0719,663.00,52.00,48.00,86.17,130.00,3.00,0.02,30.10,1018.80,10.00,M,FEW,SCT,BKN,OVC,1500.00,3800.00,7000.00,16000.00,-RA,M,M,M,M,M,M,52.00,KLAS 210056Z 13003KT 10SM -RA FEW015 SCT038 BKN070 OVC160 11/09 A3010 RMK AO2 SLP188 P0002 T01110089,M
LSV,2024-02-21 01:10,-115.0343,36.2362,570.00,55.40,50.00,81.99,100.00,5.00,0.00,30.08,1017.90,10.00,M,SCT,BKN,M,M,2000.00,6000.00,M,M,M,M,M,M,M,M,M,55.40,KLSV 210110Z 10005KT 10SM SCT020 BKN060 13/10 A3008 RMK RAB0011E0017RAB0036E0042RAB0058E04 SLP179 $,M
05U,2024-02-21 01:10,-116.0051,39.6042,1811.23,41.00,33.80,75.33,330.00,16.00,0.00,30.01,M,9.00,M,M,M,M,M,M,M,M,M,M,M,M,M,M,M,M,32.15,K05U 210110Z AUTO 33016KT 9SM 05/01 A3001 RMK A01,M
BVU,2024-02-21 01:15,-114.8611,35.9475,671.00,51.80,48.20,87.47,0.00,0.00,0.00,30.11,M,10.00,M,FEW,OVC,M,M,4900.00,6500.00,M,M,M,M,M,M,M,M,M,51.80,KBVU 210115Z AUTO 00000KT 10SM FEW049 OVC065 11/09 A3011 RMK AO2,M
CXP,2024-02-21 01:15,-119.7326,39.1923,1431.00,46.40,23.00,39.36,260.00,4.00,0.00,29.97,M,10.00,10.00,FEW,BKN,OVC,M,4700.00,5500.00,6500.00,M,M,M,M,M,M,M,M,44.24,KCXP 210115Z AUTO 26004G10KT 10SM FEW047 BKN055 OVC065 08/M05 A2997 RMK AO2,M
RTS,2024-02-21 01:15,-119.8764,39.6682,1539.00,41.00,26.60,56.22,260.00,8.00,0.00,29.99,M,10.00,16.00,SCT,BKN,OVC,M,4900.00,6000.00,7000.00,M,M,M,M,M,M,M,M,35.20,KRTS 210115Z AUTO 26008G16KT 10SM SCT049 BKN060 OVC070 05/M03 A2999 RMK AO2,M
MEV,2024-02-21 01:15,-119.7500,38.9963,1441.42,44.60,28.40,52.72,0.00,0.00,0.00,29.96,M,10.00,13.00,BKN,BKN,M,M,10000.00,11000.00,M,M,M,M,M,M,M,M,M,44.60,KMEV 210115Z AUTO 00000G13KT 10SM BKN100 BKN110 07/M02 A2996 RMK AO2,M
BAM,2024-02-21 01:15,-116.8743,40.5990,1382.36,51.80,30.20,43.32,320.00,3.00,0.00,29.95,M,10.00,M,OVC,M,M,M,9000.00,M,M,M,M,M,M,M,M,M,M,51.80,KBAM 210115Z AUTO 32003KT 10SM OVC090 11/M01 A2995 RMK AO1,M
HTH,2024-02-21 01:15,-118.6315,38.5448,1282.89,53.60,15.80,22.13,190.00,15.00,0.00,29.93,M,10.00,M,CLR,M,M,M,M,M,M,M,M,M,M,M,M,M,M,53.60,KHTH 210115Z AUTO 19015KT 10SM CLR 12/M09 A2993 RMK A01,M
10U,2024-02-21 01:15,-116.1876,41.9532,1637.00,41.00,32.00,70.08,120.00,11.00,0.00,29.99,M,10.00,16.00,FEW,FEW,BKN,M,4800.00,5500.00,7000.00,M,M,M,M,M,M,M,M,33.84,K10U 210115Z AUTO 12011G16KT 10SM FEW048 FEW055 BKN070 05/M00 A2999 RMK AO2,M
TMT,2024-02-21 01:15,-117.1971,39.4643,1749.34,41.00,32.40,71.22,120.00,8.00,0.00,29.96,M,10.00,M,BKN,BKN,OVC,M,7000.00,8000.00,9000.00,M,-RA,M,M,M,M,M,M,35.20,KTMT 210115Z AUTO 12008KT 10SM -RA BKN070 BKN080 OVC090 05/00 A2996 RMK AO2 T00510002,M
INS,2024-02-21 01:19,-115.6733,36.5872,955.00,51.80,46.40,81.74,120.00,8.00,0.00,30.07,1016.50,10.00,M,FEW,BKN,OVC,M,5000.00,7000.00,8000.00,M,-RA,M,M,M,M,M,M,51.80,KINS 210119Z AUTO 12008KT 10SM -RA FEW050 BKN070 OVC080 11/08 A3007 RMK AO2 RAB19 SLP165,M
VGT,2024-02-21 01:23,-115.1933,36.2111,667.00,54.00,51.00,89.55,100.00,6.00,0.01,30.10,M,10.00,M,FEW,OVC,M,M,800.00,5500.00,M,M,-RA,M,M,M,M,M,M,54.00,KVGT 210123Z 10006KT 10SM -RA FEW008 OVC055 12/11 A3010 RMK AO2 P0001 T01220106,M
BVU,2024-02-21 01:35,-114.8611,35.9475,671.00,51.80,48.20,87.47,0.00,0.00,0.00,30.11,M,10.00,M,OVC,M,M,M,6500.00,M,M,M,M,M,M,M,M,M,M,51.80,KBVU 210135Z AUTO 00000KT 10SM OVC065 11/09 A3011 RMK AO2,M
CXP,2024-02-21 01:35,-119.7326,39.1923,1431.00,44.60,28.40,52.72,M,4.00,0.00,29.97,M,10.00,10.00,FEW,BKN,OVC,M,4900.00,6000.00,7000.00,M,M,M,M,M,M,M,M,42.13,KCXP 210135Z AUTO VRB04G10KT 10SM FEW049 BKN060 OVC070 07/M02 A2997 RMK AO2,M
RTS,2024-02-21 01:35,-119.8764,39.6682,1539.00,41.00,24.80,52.17,240.00,9.00,0.00,29.99,M,10.00,M,FEW,SCT,OVC,M,4900.00,6000.00,7000.00,M,M,M,M,M,M,M,M,34.70,KRTS 210135Z AUTO 24009KT 10SM FEW049 SCT060 OVC070 05/M04 A2999 RMK AO2,M
05U,2024-02-21 01:35,-116.0051,39.6042,1811.23,39.20,35.60,86.79,280.00,8.00,0.00,30.01,M,8.00,16.00,M,M,M,M,M,M,M,M,M,M,M,M,M,M,M,32.98,K05U 210135Z AUTO 28008G16KT 8SM 04/02 A3001 RMK A01,M
MEV,2024-02-21 01:35,-119.7500,38.9963,1441.42,44.60,28.40,52.72,320.00,9.00,0.00,29.96,M,10.00,M,SCT,OVC,M,M,7500.00,9000.00,M,M,M,M,M,M,M,M,M,39.18,KMEV 210135Z AUTO 32009KT 10SM SCT075 OVC090 07/M02 A2996 RMK AO2,M
BAM,2024-02-21 01:35,-116.8743,40.5990,1382.36,51.80,32.00,46.59,350.00,3.00,0.00,29.95,M,10.00,M,SCT,OVC,M,M,9000.00,12000.00,M,M,M,M,M,M,M,M,M,51.80,KBAM 210135Z AUTO 35003KT 10SM SCT090 OVC120 11/00 A2995 RMK AO1,M
HTH,2024-02-21 01:35,-118.6315,38.5448,1282.89,51.80,17.60,25.56,190.00,13.00,0.00,29.93,M,10.00,19.00,CLR,M,M,M,M,M,M,M,M,M,M,M,M,M,M,51.80,KHTH 210135Z AUTO 19013G19KT 10SM CLR 11/M08 A2993 RMK A01,M
10U,2024-02-21 01:35,-116.1876,41.9532,1637.00,39.20,32.00,75.16,120.00,10.00,0.00,29.99,M,10.00,15.00,BKN,BKN,M,M,6500.00,7500.00,M,M,M,M,M,M,M,M,M,32.00,K10U 210135Z AUTO 12010G15KT 10SM BKN065 BKN075 04/M00 A2999 RMK AO2,M
TMT,2024-02-21 01:35,-117.1971,39.4643,1749.34,40.50,33.00,74.38,0.00,0.00,0.00,29.96,M,10.00,M,BKN,OVC,M,M,6000.00,10000.00,M,M,M,M,M,M,M,M,M,40.50,KTMT 210135Z AUTO 00000KT 10SM BKN060 OVC100 05/01 A2996 RMK AO2 T00470006,M
INS,2024-02-21 01:42,-115.6733,36.5872,955.00,51.80,44.60,76.34,110.00,7.00,0.00,30.06,1016.10,10.00,M,FEW,BKN,BKN,OVC,3600.00,4800.00,6000.00,10000.00,M,M,M,M,M,M,M,51.80,KINS 210142Z AUTO 11007KT 10SM FEW036 BKN048 BKN060 OVC100 11/07 A3006 RMK AO2 RAB19E42 SLP161,M
P68,2024-02-21 01:53,-116.0056,39.6014,1993.00,38.00,35.00,88.83,120.00,6.00,0.00,29.99,1014.90,M,M,M,M,M,M,M,M,M,M,M,M,M,M,26.00,180.00,2024-02-21 01:11,32.76,KP68 210153Z AUTO 12006KT 03/02 A2999 RMK AO1 PK WND 18026/0111 SLP149 T00330017,M
DRA,2024-02-21 01:53,-116.0278,36.6206,1009.00,53.00,37.00,54.41,190.00,10.00,0.00,30.04,1015.20,10.00,16.00,BKN,BKN,OVC,M,6000.00,7000.00,9500.00,M,M,M,M,M,M,M,M,53.00,KDRA 210153Z AUTO 19010G16KT 10SM BKN060 BKN070 OVC095 12/03 A3004 RMK AO2 SLP152 T01170028,M
ELY,2024-02-21 01:53,-114.8453,39.2950,1909.00,38.00,33.00,82.00,200.00,9.00,T,30.03,1015.10,10.00,16.00,SCT,OVC,M,M,2000.00,4800.00,M,M,M,M,M,M,M,M,M,30.97,KELY 210153Z AUTO 20009G16KT 10SM SCT020 OVC048 03/01 A3003 RMK AO2 RAB38E49 SLP151 P0000 T00330006,M
VGT,2024-02-21 01:53,-115.1933,36.2111,667.00,53.00,50.00,89.51,110.00,6.00,0.03,30.10,1020.50,10.00,M,OVC,M,M,M,5500.00,M,M,M,-RA,M,M,M,M,M,M,53.00,KVGT 210153Z 11006KT 10SM -RA OVC055 12/10 A3010 RMK AO2 SLP205 P0003 T01170100,M
LOL,2024-02-21 01:53,-118.5701,40.0684,1192.43,47.00,30.00,51.39,50.00,6.00,0.00,29.92,1014.10,10.00,M,OVC,M,M,M,11000.00,M,M,M,M,M,M,M,M,M,M,43.60,KLOL 210153Z AUTO 05006KT 10SM OVC110 08/M01 A2992 RMK AO2 SLP141 T00831011,M
BVU,2024-02-21 01:55,-114.8611,35.9475,671.00,51.80,50.00,93.55,0.00,0.00,0.00,30.11,M,9.00,M,FEW,SCT,OVC,M,3300.00,5500.00,6500.00,M,-RA,M,M,M,M,M,M,51.80,KBVU 210155Z AUTO 00000KT 9SM -RA FEW033 SCT055 OVC065 11/10 A3011 RMK AO2,M
CXP,2024-02-21 01:55,-119.7326,39.1923,1431.00,44.60,26.60,48.96,350.00,6.00,0.00,29.97,M,10.00,M,BKN,OVC,M,M,6000.00,7000.00,M,M,M,M,M,M,M,M,M,40.71,KCXP 210155Z AUTO 35006KT 10SM BKN060 OVC070 07/M03 A2997 RMK AO2,M
RNO,2024-02-21 01:55,-119.7711,39.4839,1341.00,45.00,27.00,49.02,280.00,10.00,0.00,29.97,1014.30,10.00,20.00,BKN,BKN,M,M,6000.00,12000.00,M,M,M,M,M,M,M,M,M,39.27,KRNO 210155Z 28010G20KT 10SM BKN060 BKN120 07/M03 A2997 RMK AO2 SLP143 VIRGA T00721028,M
LSV,2024-02-21 01:55,-115.0343,36.2362,570.00,53.60,51.80,93.60,60.00,6.00,0.00,30.07,M,10.00,M,BKN,OVC,M,M,2000.00,5000.00,M,M,-RA,M,M,M,M,M,M,53.60,KLSV 210155Z 06006KT 10SM -RA BKN020 OVC050 12/11 A3007 RMK AO2A WND DATA ESTMD RAB0058E04RAB13E25RAB48 SLPNO P//// $,M
RTS,2024-02-21 01:55,-119.8764,39.6682,1539.00,41.00,26.60,56.22,270.00,9.00,0.00,30.00,M,10.00,M,FEW,OVC,M,M,5000.00,6000.00,M,M,M,M,M,M,M,M,M,34.70,KRTS 210155Z AUTO 27009KT 10SM FEW050 OVC060 05/M03 A3000 RMK AO2,M
05U,2024-02-21 01:55,-116.0051,39.6042,1811.23,39.20,35.60,86.79,280.00,5.00,0.00,30.01,M,10.00,M,M,M,M,M,M,M,M,M,M,M,M,M,M,M,M,34.95,K05U 210155Z AUTO 28005KT 10SM 04/02 A3001 RMK A01,M
MEV,2024-02-21 01:55,-119.7500,38.9963,1441.42,44.60,26.60,48.96,190.00,4.00,0.00,29.95,M,10.00,M,SCT,OVC,M,M,8000.00,9000.00,M,M,M,M,M,M,M,M,M,42.13,KMEV 210155Z AUTO 19004KT 10SM SCT080 OVC090 07/M03 A2995 RMK AO2,M
BAM,2024-02-21 01:55,-116.8743,40.5990,1382.36,50.00,32.00,49.81,20.00,7.00,0.00,29.95,M,10.00,M,SCT,OVC,M,M,8000.00,12000.00,M,M,M,M,M,M,M,M,M,50.00,KBAM 210155Z AUTO 02007KT 10SM SCT080 OVC120 10/00 A2995 RMK AO1,M
HTH,2024-02-21 01:55,-118.6315,38.5448,1282.89,51.80,19.40,27.62,180.00,7.00,0.00,29.93,M,10.00,M,CLR,M,M,M,M,M,M,M,M,M,M,M,M,M,M,51.80,KHTH 210155Z AUTO 18007KT 10SM CLR 11/M07 A2993 RMK A01,M
TMT,2024-02-21 01:55,-117.1971,39.4643,1749.34,40.00,33.80,78.31,360.00,5.00,0.00,29.96,M,10.00,M,OVC,M,M,M,6000.00,M,M,M,M,M,M,M,M,M,M,35.90,KTMT 210155Z AUTO 36005KT 10SM OVC060 05/01 A2996 RMK AO2 T00450010,M
10U,2024-02-21 01:55,-116.1876,41.9532,1637.00,39.20,32.00,75.16,130.00,12.00,0.00,29.99,M,10.00,M,FEW,SCT,BKN,M,4200.00,6000.00,6500.00,M,M,M,M,M,M,M,M,31.17,K10U 210155Z AUTO 13012KT 10SM FEW042 SCT060 BKN065 04/M00 A2999 RMK AO2,M
INS,2024-02-21 01:55,-115.6733,36.5872,955.00,51.00,44.60,78.63,120.00,8.00,0.01,30.06,1016.30,10.00,M,FEW,SCT,SCT,BKN,2800.00,4800.00,6000.00,7000.00,M,M,M,M,M,M,M,51.00,KINS 210155Z AUTO 12008KT 10SM FEW028 SCT048 SCT060 BKN070 OVC100 11/07 A3006 RMK AO2 RAB19E42 SLP163 P0001 T01050070,M
EKO,2024-02-21 01:56,-115.7860,40.8242,1367.00,44.00,33.00,65.01,90.00,4.00,0.00,29.97,1015.00,10.00,M,OVC,M,M,M,6500.00,M,M,M,M,M,M,M,M,M,M,41.43,KEKO 210156Z AUTO 09004KT 10SM OVC065 07/01 A2997 RMK AO2 SLP150 T00670006,M
WMC,2024-02-21 01:56,-117.8072,40.9019,1315.00,44.00,27.00,50.93,260.00,5.00,0.00,29.95,1014.80,10.00,M,SCT,M,M,M,9500.00,M,M,M,M,M,M,M,M,M,M,40.65,KWMC 210156Z AUTO 26005KT 10SM SCT095 07/M03 A2995 RMK AO2 SLP148 T00671028,M
NFL,2024-02-21 01:56,-118.7010,39.4166,1199.00,50.00,31.00,47.83,30.00,8.00,0.00,29.92,1010.60,10.00,M,SCT,BKN,OVC,M,5000.00,10000.00,25000.00,M,M,M,M,M,M,M,M,50.00,KNFL 210156Z 03008KT 10SM SCT050 BKN100 OVC250 10/M01 A2992 RMK AO2 SLP106 SH DSNT NE-E T01001006,M
HND,2024-02-21 01:56,-115.1344,35.9729,742.79,50.00,46.00,86.06,180.00,7.00,0.01,30.12,1021.50,10.00,M,BKN,OVC,M,M,6000.00,7500.00,M,M,RA,M,M,M,M,M,M,50.00,KHND 210156Z 18007KT 10SM RA BKN060 OVC075 10/08 A3012 RMK AO2 SLP215 P0001 T01000078,M
TPH,2024-02-21 01:56,-117.0904,38.0505,1654.00,42.00,36.00,79.11,190.00,14.00,0.00,29.97,1014.50,10.00,M,CLR,M,M,M,M,M,M,M,M,M,M,M,M,M,M,34.05,KTPH 210156Z AUTO 19014KT 10SM CLR 06/02 A2997 RMK AO2 SLP145 T00560022,M
LAS,2024-02-21 01:56,-115.1634,36.0719,663.00,51.00,47.00,86.12,100.00,4.00,0.01,30.10,1018.80,10.00,M,FEW,SCT,BKN,OVC,1000.00,2000.00,7000.00,16000.00,-RA,M,M,M,M,M,M,51.00,KLAS 210156Z 10004KT 10SM -RA FEW010 SCT020 BKN070 OVC160 11/08 A3010 RMK AO2 SLP188 P0001 T01060083,M
BVU,2024-02-21 02:15,-114.8611,35.9475,671.00,51.80,48.20,87.47,0.00,0.00,0.00,30.11,M,8.00,M,FEW,SCT,OVC,M,3100.00,4300.00,5500.00,M,-RA,M,M,M,M,M,M,51.80,KBVU 210215Z AUTO 00000KT 8SM -RA FEW031 SCT043 OVC055 11/09 A3011 RMK AO2,M
CXP,2024-02-21 02:15,-119.7326,39.1923,1431.00,44.60,24.80,45.44,M,5.00,0.00,29.98,M,10.00,M,FEW,SCT,BKN,M,4200.00,4800.00,5500.00,M,M,M,M,M,M,M,M,41.36,KCXP 210215Z AUTO VRB05KT 10SM FEW042 SCT048 BKN055 07/M04 A2998 RMK AO2,M
RTS,2024-02-21 02:15,-119.8764,39.6682,1539.00,37.40,28.40,69.67,270.00,9.00,0.00,30.00,M,10.00,M,FEW,SCT,BKN,M,2600.00,3600.00,4400.00,M,M,M,M,M,M,M,M,30.23,KRTS 210215Z AUTO 27009KT 10SM FEW026 SCT036 BKN044 03/M02 A3000 RMK AO2,M
05U,2024-02-21 02:15,-116.0051,39.6042,1811.23,37.40,35.60,93.14,350.00,3.00,0.00,30.01,M,10.00,M,M,M,M,M,M,M,M,M,M,M,M,M,M,M,M,34.86,K05U 210215Z AUTO 35003KT 10SM 03/02 A3001 RMK A01,M
MEV,2024-02-21 02:15,-119.7500,38.9963,1441.42,42.80,28.40,56.48,170.00,7.00,0.00,29.97,M,10.00,M,SCT,OVC,M,M,7500.00,9500.00,M,M,M,M,M,M,M,M,M,37.94,KMEV 210215Z AUTO 17007KT 10SM SCT075 OVC095 06/M02 A2997 RMK AO2,M
BAM,2024-02-21 02:15,-116.8743,40.5990,1382.36,48.20,35.60,61.52,20.00,7.00,0.00,29.96,M,10.00,M,OVC,M,M,M,8000.00,M,M,M,M,M,M,M,M,M,M,44.53,KBAM 210215Z AUTO 02007KT 10SM OVC080 09/02 A2996 RMK AO1,M
HTH,2024-02-21 02:15,-118.6315,38.5448,1282.89,51.80,19.40,27.62,170.00,10.00,0.00,29.94,M,10.00,17.00,SCT,SCT,M,M,9500.00,12000.00,M,M,M,M,M,M,M,M,M,51.80,KHTH 210215Z AUTO 17010G17KT 10SM SCT095 SCT120 11/M07 A2994 RMK A01,M
10U,2024-02-21 02:15,-116.1876,41.9532,1637.00,39.20,32.00,75.16,130.00,10.00,0.00,29.99,M,10.00,16.00,FEW,SCT,BKN,M,4700.00,6000.00,7500.00,M,M,M,M,M,M,M,M,32.00,K10U 210215Z AUTO 13010G16KT 10SM FEW047 SCT060 BKN075 04/M00 A2999 RMK AO2,M
TMT,2024-02-21 02:15,-117.1971,39.4643,1749.34,42.00,31.60,66.35,350.00,8.00,0.00,29.96,M,10.00,M,OVC,M,M,M,6500.00,M,M,M,M,M,M,M,M,M,M,36.43,KTMT 210215Z AUTO 35008KT 10SM OVC065 06/00 A2996 RMK AO2 T00551002,M
INS,2024-02-21 02:16,-115.6733,36.5872,955.00,50.00,46.40,87.37,100.00,13.00,0.00,30.06,1016.30,10.00,M,BKN,OVC,M,M,7000.00,9000.00,M,M,-RA,M,M,M,M,M,M,50.00,KINS 210216Z AUTO 10013KT 10SM -RA BKN070 OVC090 10/08 A3006 RMK AO2 RAB16 SLP163,M
05U,2024-02-21 02:30,-116.0051,39.6042,1811.23,37.40,35.60,93.14,320.00,5.00,0.00,30.01,M,10.00,M,M,M,M,M,M,M,M,M,M,M,M,M,M,M,M,32.81,K05U 210230Z AUTO 32005KT 10SM 03/02 A3001 RMK A01,M
BVU,2024-02-21 02:35,-114.8611,35.9475,671.00,51.80,48.20,87.47,140.00,3.00,0.00,30.11,M,10.00,M,FEW,SCT,OVC,M,3000.00,4200.00,5500.00,M,-RA,M,M,M,M,M,M,51.80,KBVU 210235Z AUTO 14003KT 10SM -RA FEW030 SCT042 OVC055 11/09 A3011 RMK AO2,M
CXP,2024-02-21 02:35,-119.7326,39.1923,1431.00,44.60,24.80,45.44,190.00,4.00,0.00,29.99,M,10.00,M,SCT,OVC,M,M,4400.00,5500.00,M,M,M,M,M,M,M,M,M,42.13,KCXP 210235Z AUTO 19004KT 10SM SCT044 OVC055 07/M04 A2999 RMK AO2,M
RTS,2024-02-21 02:35,-119.8764,39.6682,1539.00,39.20,28.40,64.93,270.00,8.00,0.00,29.99,M,10.00,15.00,SCT,BKN,OVC,M,2700.00,3400.00,5000.00,M,M,M,M,M,M,M,M,32.98,KRTS 210235Z AUTO 27008G15KT 10SM SCT027 BKN034 OVC050 04/M02 A2999 RMK AO2,M
MEV,2024-02-21 02:35,-119.7500,38.9963,1441.42,42.80,30.20,60.79,190.00,7.00,0.00,29.98,M,10.00,M,SCT,BKN,OVC,M,5500.00,6500.00,7500.00,M,M,M,M,M,M,M,M,37.94,KMEV 210235Z AUTO 19007KT 10SM SCT055 BKN065 OVC075 06/M01 A2998 RMK AO2,M
BAM,2024-02-21 02:35,-116.8743,40.5990,1382.36,46.40,37.40,70.68,40.00,8.00,0.00,29.96,M,10.00,M,OVC,M,M,M,8000.00,M,M,M,M,M,M,M,M,M,M,41.85,KBAM 210235Z AUTO 04008KT 10SM OVC080 08/03 A2996 RMK AO1,M
HTH,2024-02-21 02:35,-118.6315,38.5448,1282.89,51.80,21.20,29.82,180.00,10.00,0.00,29.93,M,10.00,M,BKN,BKN,M,M,10000.00,12000.00,M,M,M,M,M,M,M,M,M,51.80,KHTH 210235Z AUTO 18010KT 10SM BKN100 BKN120 11/M06 A2993 RMK A01,M
10U,2024-02-21 02:35,-116.1876,41.9532,1637.00,37.40,30.20,74.98,130.00,8.00,0.00,30.00,M,10.00,15.00,FEW,SCT,BKN,M,3500.00,4800.00,6000.00,M,M,M,M,M,M,M,M,30.76,K10U 210235Z AUTO 13008G15KT 10SM FEW035 SCT048 BKN060 03/M01 A3000 RMK AO2,M
TMT,2024-02-21 02:35,-117.1971,39.4643,1749.34,40.00,32.00,72.85,270.00,7.00,0.01,29.99,M,10.00,19.00,SCT,BKN,OVC,M,1500.00,4600.00,7500.00,M,-RA,M,M,M,M,M,M,34.53,KTMT 210235Z AUTO 27007G19KT 10SM -RA SCT015 BKN046 OVC075 04/00 A2999 RMK AO2 P0001 T00440001,M
INS,2024-02-21 02:35,-115.6733,36.5872,955.00,50.00,46.40,87.37,90.00,13.00,0.00,30.05,1016.00,10.00,M,FEW,OVC,M,M,6000.00,7500.00,M,M,M,M,M,M,M,M,M,50.00,KINS 210235Z AUTO 09013KT 10SM FEW060 OVC075 10/08 A3005 RMK AO2 RAB16E35 SLP160,M
05U,2024-02-21 02:50,-116.0051,39.6042,1811.23,37.40,33.80,86.69,0.00,0.00,0.00,30.00,M,10.00,M,M,M,M,M,M,M,M,M,M,M,M,M,M,M,M,37.40,K05U 210250Z AUTO 00000KT 10SM 03/01 A3000 RMK A01,M
P68,2024-02-21 02:53,-116.0056,39.6014,1993.00,37.00,34.00,88.78,170.00,4.00,0.00,29.97,1014.30,M,M,M,M,M,M,M,M,M,M,M,M,M,M,M,M,M,33.26,KP68 210253Z AUTO 17004KT 03/01 A2997 RMK AO1 SLP143 T00280011 58002,M
DRA,2024-02-21 02:53,-116.0278,36.6206,1009.00,53.00,37.00,54.41,180.00,8.00,0.00,30.03,1015.00,10.00,M,BKN,OVC,M,M,7500.00,9000.00,M,M,M,M,M,M,M,M,M,53.00,KDRA 210253Z AUTO 18008KT 10SM BKN075 OVC090 12/03 A3003 RMK AO2 SLP150 T01170028 56006,M
ELY,2024-02-21 02:53,-114.8453,39.2950,1909.00,39.00,33.00,78.86,160.00,15.00,0.00,30.01,1014.50,10.00,22.00,OVC,M,M,M,4300.00,M,M,M,M,M,M,M,M,M,M,29.85,KELY 210253Z AUTO 16015G22KT 10SM OVC043 04/01 A3001 RMK AO2 SLP145 60000 T00390006 58007,M
VGT,2024-02-21 02:53,-115.1933,36.2111,667.00,53.00,50.00,89.51,110.00,6.00,0.01,30.10,1020.70,10.00,M,OVC,M,M,M,4800.00,M,M,M,-RA,M,M,M,M,M,M,53.00,KVGT 210253Z 11006KT 10SM -RA OVC048 12/10 A3010 RMK AO2 SLP207 P0001 60006 T01170100 55002,M
LOL,2024-02-21 02:53,-118.5701,40.0684,1192.43,46.00,31.00,55.58,50.00,6.00,0.00,29.93,1014.60,10.00,M,OVC,M,M,M,9500.00,M,M,M,M,M,M,M,M,M,M,42.39,KLOL 210253Z AUTO 05006KT 10SM OVC095 08/M01 A2993 RMK AO2 SLP146 T00781006 55002,M
BVU,2024-02-21 02:55,-114.8611,35.9475,671.00,51.80,48.20,87.47,130.00,3.00,0.00,30.11,M,8.00,M,FEW,SCT,BKN,M,3200.00,4300.00,6000.00,M,-RA,M,M,M,M,M,M,51.80,KBVU 210255Z AUTO 13003KT 8SM -RA FEW032 SCT043 BKN060 11/09 A3011 RMK AO2,M
CXP,2024-02-21 02:55,-119.7326,39.1923,1431.00,44.60,23.00,42.14,210.00,13.00,0.00,30.00,M,10.00,20.00,FEW,BKN,OVC,M,3700.00,4900.00,5500.00,M,M,M,M,M,M,M,M,37.71,KCXP 210255Z AUTO 21013G20KT 160V230 10SM FEW037 BKN049 OVC055 07/M05 A3000 RMK AO2,M
RNO,2024-02-21 02:55,-119.7711,39.4839,1341.00,43.00,30.00,59.83,270.00,9.00,0.00,29.98,1014.80,10.00,M,BKN,OVC,M,M,7000.00,13000.00,M,M,M,M,M,M,M,M,M,37.19,KRNO 210255Z 27009KT 10SM BKN070 OVC130 06/M01 A2998 RMK AO2 SLP148 T00611011 51009,M
RTS,2024-02-21 02:55,-119.8764,39.6682,1539.00,39.20,28.40,64.93,350.00,8.00,0.00,29.99,M,10.00,M,FEW,SCT,BKN,M,2700.00,3300.00,3900.00,M,M,M,M,M,M,M,M,32.98,KRTS 210255Z AUTO 35008KT 10SM FEW027 SCT033 BKN039 04/M02 A2999 RMK AO2,M
MEV,2024-02-21 02:55,-119.7500,38.9963,1441.42,42.80,28.40,56.48,210.00,5.00,0.00,29.98,M,10.00,M,BKN,OVC,M,M,4400.00,5500.00,M,M,M,M,M,M,M,M,M,39.22,KMEV 210255Z AUTO 21005KT 10SM BKN044 OVC055 06/M02 A2998 RMK AO2,M
BAM,2024-02-21 02:55,-116.8743,40.5990,1382.36,46.40,35.60,65.83,50.00,9.00,0.00,29.96,M,10.00,M,OVC,M,M,M,8500.00,M,M,M,M,M,M,M,M,M,M,41.42,KBAM 210255Z AUTO 05009KT 10SM OVC085 08/02 A2996 RMK AO1,M
HTH,2024-02-21 02:55,-118.6315,38.5448,1282.89,50.00,23.00,34.39,200.00,12.00,0.00,29.94,M,10.00,M,SCT,BKN,OVC,M,7500.00,10000.00,12000.00,M,M,M,M,M,M,M,M,50.00,KHTH 210255Z AUTO 20012KT 10SM SCT075 BKN100 OVC120 10/M05 A2994 RMK A01,M
TMT,2024-02-21 02:55,-117.1971,39.4643,1749.34,38.30,33.00,81.05,260.00,11.00,0.01,29.99,M,10.00,M,BKN,OVC,M,M,3200.00,4300.00,M,M,-RA,M,M,M,M,M,M,30.43,KTMT 210255Z AUTO 26011KT 10SM -RA BKN032 OVC043 04/01 A2999 RMK AO2 P0001 60001 T00350005,M
10U,2024-02-21 02:55,-116.1876,41.9532,1637.00,37.40,30.20,74.98,120.00,11.00,0.00,29.99,M,10.00,M,FEW,FEW,M,M,3300.00,4100.00,M,M,M,M,M,M,M,M,M,29.29,K10U 210255Z AUTO 12011KT 10SM FEW033 FEW041 03/M01 A2999 RMK AO2,M
EKO,2024-02-21 02:56,-115.7860,40.8242,1367.00,44.00,31.00,59.97,30.00,8.00,0.00,29.97,1014.90,10.00,M,BKN,M,M,M,7500.00,M,M,M,M,M,M,M,M,M,M,38.90,KEKO 210256Z AUTO 03008KT 10SM BKN075 07/M01 A2997 RMK AO2 SLP149 T00671006 56001,M
WMC,2024-02-21 02:56,-117.8072,40.9019,1315.00,44.00,25.00,46.88,60.00,4.00,0.00,29.95,1014.90,10.00,M,CLR,M,M,M,M,M,M,M,M,M,M,M,M,M,M,41.43,KWMC 210256Z AUTO 06004KT 10SM CLR 07/M04 A2995 RMK AO2 SLP149 T00671039 53001,M
NFL,2024-02-21 02:56,-118.7010,39.4166,1199.00,48.00,32.00,53.67,20.00,6.00,0.00,29.93,1010.80,10.00,M,SCT,BKN,OVC,M,5000.00,10000.00,25000.00,M,M,M,M,M,M,M,M,44.80,KNFL 210256Z 02006KT 10SM SCT050 BKN100 OVC250 09/00 A2993 RMK AO2 SLP108 SH DSNT NE T00890000 53005,M
HND,2024-02-21 02:56,-115.1344,35.9729,742.79,50.00,46.00,86.06,180.00,10.00,0.03,30.13,1021.60,10.00,M,OVC,M,M,M,7000.00,M,M,M,-RA,M,M,M,M,M,M,50.00,KHND 210256Z 18010KT 10SM -RA OVC070 10/08 A3013 RMK AO2 SLP216 P0003 60005 T01000078 53002,M
TPH,2024-02-21 02:56,-117.0904,38.0505,1654.00,40.00,37.00,88.92,190.00,11.00,0.00,29.98,1015.00,10.00,M,CLR,M,M,M,M,M,M,M,M,M,M,M,M,M,M,32.58,KTPH 210256Z AUTO 19011KT 10SM CLR 04/03 A2998 RMK AO2 SLP150 T00440028 55003,M
LAS,2024-02-21 02:56,-115.1634,36.0719,663.00,50.00,48.00,92.80,100.00,3.00,0.02,30.11,1019.10,10.00,M,FEW,SCT,BKN,OVC,1000.00,2000.00,7000.00,16000.00,-RA,M,M,M,M,M,M,50.00,KLAS 210256Z 10003KT 10SM -RA FEW010 SCT020 BKN070 OVC160 10/09 A3011 RMK AO2 SLP191 P0002 60005 T01000089 53001,M
05U,2024-02-21 03:10,-116.0051,39.6042,1811.23,35.60,33.80,93.08,0.00,0.00,0.00,29.99,M,10.00,M,M,M,M,M,M,M,M,M,M,M,M,M,M,M,M,35.60,K05U 210310Z AUTO 00000KT 10SM 02/01 A2999 RMK A01,M
BVU,2024-02-21 03:15,-114.8611,35.9475,671.00,50.00,48.20,93.50,0.00,0.00,0.00,30.11,M,10.00,M,FEW,SCT,BKN,M,3200.00,4400.00,5500.00,M,M,M,M,M,M,M,M,50.00,KBVU 210315Z AUTO 00000KT 10SM FEW032 SCT044 BKN055 10/09 A3011 RMK AO2,M
CXP,2024-02-21 03:15,-119.7326,39.1923,1431.00,42.80,28.40,56.48,170.00,5.00,0.00,30.01,M,9.00,15.00,BKN,BKN,OVC,M,3200.00,3900.00,4800.00,M,-RA,M,M,M,M,M,M,39.22,KCXP 210315Z AUTO 17005G15KT 9SM -RA BKN032 BKN039 OVC048 06/M02 A3001 RMK AO2,M
RTS,2024-02-21 03:15,-119.8764,39.6682,1539.00,39.20,28.40,64.93,0.00,0.00,0.00,29.99,M,10.00,M,FEW,BKN,OVC,M,3900.00,4500.00,6000.00,M,M,M,M,M,M,M,M,39.20,KRTS 210315Z AUTO 00000KT 10SM FEW039 BKN045 OVC060 04/M02 A2999 RMK AO2,M
MEV,2024-02-21 03:15,-119.7500,38.9963,1441.42,42.80,28.40,56.48,210.00,6.00,0.00,29.99,M,10.00,M,FEW,SCT,OVC,M,3200.00,3800.00,4600.00,M,M,M,M,M,M,M,M,38.54,KMEV 210315Z AUTO 21006KT 10SM FEW032 SCT038 OVC046 06/M02 A2999 RMK AO2,M
BAM,2024-02-21 03:15,-116.8743,40.5990,1382.36,48.20,35.60,61.52,30.00,8.00,0.00,29.96,M,10.00,M,BKN,BKN,OVC,M,6500.00,7500.00,8500.00,M,M,M,M,M,M,M,M,44.07,KBAM 210315Z AUTO 03008KT 10SM BKN065 BKN075 OVC085 09/02 A2996 RMK AO1,M
HTH,2024-02-21 03:15,-118.6315,38.5448,1282.89,51.80,19.40,27.62,200.00,15.00,0.00,29.95,M,10.00,23.00,FEW,BKN,OVC,M,6000.00,7500.00,9500.00,M,M,M,M,M,M,M,M,51.80,KHTH 210315Z AUTO 20015G23KT 10SM FEW060 BKN075 OVC095 11/M07 A2995 RMK A01,M
10U,2024-02-21 03:15,-116.1876,41.9532,1637.00,37.40,30.20,74.98,120.00,13.00,0.00,29.99,M,10.00,M,CLR,M,M,M,M,M,M,M,M,M,M,M,M,M,M,28.49,K10U 210315Z AUTO 12013KT 10SM CLR 03/M01 A2999 RMK AO2,M
TMT,2024-02-21 03:15,-117.1971,39.4643,1749.34,38.50,33.00,80.41,230.00,11.00,0.00,29.99,M,10.00,14.00,BKN,BKN,OVC,M,3400.00,4300.00,5000.00,M,M,M,M,M,M,M,M,30.68,KTMT 210315Z AUTO 23011G14KT 10SM BKN034 BKN043 OVC050 04/01 A2999 RMK AO2 T00360005,M
VGT,2024-02-21 03:18,-115.1933,36.2111,667.00,53.00,49.00,86.23,120.00,8.00,0.02,30.11,M,6.00,M,FEW,BKN,OVC,M,800.00,1400.00,4700.00,M,-RA BR,M,M,M,M,M,M,53.00,KVGT 210318Z 12008KT 6SM -RA BR FEW008 BKN014 OVC047 12/09 A3011 RMK AO2 P0002 T01170094,M
LSV,2024-02-21 03:26,-115.0343,36.2362,570.00,50.00,51.80,M,70.00,3.00,0.00,30.09,M,7.00,M,SCT,OVC,M,M,2000.00,5000.00,M,M,M,M,M,M,M,M,M,M,KLSV 210326Z 07003KT 7SM SCT020 OVC050 10/11 A3009 RMK RAB0223E0224RAB0231E0234RAB0239E09RAB14E22 SLPNO WND DATA ESTMD ALSTG ESTMD P//// $,M
VGT,2024-02-21 03:27,-115.1933,36.2111,667.00,52.00,50.00,92.86,120.00,8.00,0.03,30.10,M,5.00,M,FEW,BKN,OVC,M,800.00,2000.00,5500.00,M,-RA BR,M,M,M,M,M,M,52.00,KVGT 210327Z 12008KT 5SM -RA BR FEW008 BKN020 OVC055 11/10 A3010 RMK AO2 P0003 T01110100,M
05U,2024-02-21 03:30,-116.0051,39.6042,1811.23,35.60,33.80,93.08,340.00,4.00,0.00,29.99,M,10.00,M,M,M,M,M,M,M,M,M,M,M,M,M,M,M,M,31.62,K05U 210330Z AUTO 34004KT 10SM 02/01 A2999 RMK A01,M
BVU,2024-02-21 03:35,-114.8611,35.9475,671.00,50.00,48.20,93.50,120.00,3.00,0.00,30.10,M,10.00,M,FEW,BKN,OVC,M,3200.00,4600.00,6000.00,M,M,M,M,M,M,M,M,50.00,KBVU 210335Z AUTO 12003KT 10SM FEW032 BKN046 OVC060 10/09 A3010 RMK AO2,M
CXP,2024-02-21 03:35,-119.7326,39.1923,1431.00,42.80,28.40,56.48,250.00,4.00,0.00,30.01,M,10.00,M,OVC,M,M,M,3400.00,M,M,M,-RA,M,M,M,M,M,M,40.03,KCXP 210335Z AUTO 25004KT 10SM -RA OVC034 06/M02 A3001 RMK AO2,M
RTS,2024-02-21 03:35,-119.8764,39.6682,1539.00,39.20,28.40,64.93,280.00,5.00,0.00,30.00,M,10.00,M,FEW,BKN,OVC,M,2700.00,3300.00,4100.00,M,M,M,M,M,M,M,M,34.95,KRTS 210335Z AUTO 28005KT 10SM FEW027 BKN033 OVC041 04/M02 A3000 RMK AO2,M
MEV,2024-02-21 03:35,-119.7500,38.9963,1441.42,41.00,30.20,65.16,200.00,9.00,0.00,29.99,M,10.00,M,SCT,BKN,OVC,M,3500.00,4000.00,4700.00,M,M,M,M,M,M,M,M,34.70,KMEV 210335Z AUTO 20009KT 10SM SCT035 BKN040 OVC047 05/M01 A2999 RMK AO2,M
BAM,2024-02-21 03:35,-116.8743,40.5990,1382.36,46.40,37.40,70.68,10.00,5.00,0.00,29.97,M,10.00,M,SCT,OVC,M,M,4100.00,6000.00,M,M,M,M,M,M,M,M,M,43.50,KBAM 210335Z AUTO 01005KT 10SM SCT041 OVC060 08/03 A2997 RMK AO1,M
HTH,2024-02-21 03:35,-118.6315,38.5448,1282.89,50.00,24.80,37.08,180.00,19.00,0.00,29.96,M,10.00,M,FEW,SCT,BKN,M,5500.00,7000.00,7500.00,M,M,M,M,M,M,M,M,50.00,KHTH 210335Z AUTO 18019KT 10SM FEW055 SCT070 BKN075 10/M04 A2996 RMK A01,M
10U,2024-02-21 03:35,-116.1876,41.9532,1637.00,37.40,30.20,74.98,120.00,11.00,0.00,29.99,M,10.00,M,CLR,M,M,M,M,M,M,M,M,M,M,M,M,M,M,29.29,K10U 210335Z AUTO 12011KT 10SM CLR 03/M01 A2999 RMK AO2,M
TMT,2024-02-21 03:35,-117.1971,39.4643,1749.34,38.00,33.00,82.00,120.00,12.00,0.00,29.99,M,10.00,15.00,BKN,BKN,OVC,M,3600.00,6500.00,8000.00,M,M,M,M,M,M,M,M,29.64,KTMT 210335Z AUTO 12012G15KT 10SM BKN036 BKN065 OVC080 03/01 A2999 RMK AO2 T00330005,M
VGT,2024-02-21 03:37,-115.1933,36.2111,667.00,52.00,50.00,92.86,120.00,7.00,0.03,30.10,M,7.00,M,SCT,BKN,OVC,M,1000.00,4600.00,7000.00,M,-RA,M,M,M,M,M,M,52.00,KVGT 210337Z 12007KT 7SM -RA SCT010 BKN046 OVC070 11/10 A3010 RMK AO2 P0003 T01110100,M
VGT,2024-02-21 03:40,-115.1933,36.2111,667.00,52.00,50.00,92.86,110.00,5.00,0.03,30.10,M,8.00,M,FEW,BKN,OVC,M,800.00,2900.00,7000.00,M,-RA,M,M,M,M,M,M,52.00,KVGT 210340Z 11005KT 8SM -RA FEW008 BKN029 OVC070 11/10 A3010 RMK AO2 P0003 T01110100,M
TPH,2024-02-21 03:48,-117.0904,38.0505,1654.00,40.00,37.00,88.92,110.00,6.00,0.00,30.00,M,10.00,M,SCT,BKN,M,M,1000.00,1700.00,M,M,M,M,M,M,M,M,M,35.17,KTPH 210348Z AUTO 11006KT 10SM SCT010 BKN017 04/03 A3000 RMK AO2 T00440028,M
VGT,2024-02-21 03:50,-115.1933,36.2111,667.00,51.80,50.00,93.55,110.00,5.00,0.03,30.10,M,10.00,M,FEW,SCT,OVC,M,1000.00,6000.00,7500.00,M,-RA,M,M,M,M,M,M,51.80,KVGT 210350Z 11005KT 10SM -RA FEW010 SCT060 OVC075 11/10 A3010 RMK AO2 P0003,M
05U,2024-02-21 03:50,-116.0051,39.6042,1811.23,35.60,33.80,93.08,310.00,8.00,0.00,29.99,M,10.00,M,M,M,M,M,M,M,M,M,M,M,M,M,M,M,M,28.55,K05U 210350Z AUTO 31008KT 10SM 02/01 A2999 RMK A01,M
P68,2024-02-21 03:53,-116.0056,39.6014,1993.00,36.00,33.00,88.73,160.00,9.00,0.00,29.97,1013.60,M,M,M,M,M,M,M,M,M,M,M,M,M,M,M,M,M,28.49,KP68 210353Z AUTO 16009KT 02/01 A2997 RMK AO1 SLP136 T00220006,M
DRA,2024-02-21 03:53,-116.0278,36.6206,1009.00,52.00,37.00,56.45,190.00,14.00,0.00,30.05,1015.50,10.00,28.00,FEW,BKN,BKN,M,3500.00,6500.00,11000.00,M,M,M,M,M,28.00,190.00,2024-02-21 03:44,52.00,KDRA 210353Z AUTO 19014G28KT 10SM FEW035 BKN065 BKN110 11/03 A3005 RMK AO2 PK WND 19028/0344 SLP155 T01110028,M
ELY,2024-02-21 03:53,-114.8453,39.2950,1909.00,35.00,33.00,92.32,190.00,9.00,T,30.01,1014.60,7.00,M,SCT,OVC,M,M,2700.00,3300.00,M,M,-RA,M,M,M,M,M,M,27.24,KELY 210353Z AUTO 19009KT 7SM -RA SCT027 OVC033 02/01 A3001 RMK AO2 RAB29 SLP146 P0000 T00170006,M
VGT,2024-02-21 03:53,-115.1933,36.2111,667.00,52.00,50.00,92.86,90.00,5.00,0.03,30.10,1020.60,10.00,M,FEW,SCT,OVC,M,1000.00,6000.00,7500.00,M,-RA,M,M,M,M,M,M,52.00,KVGT 210353Z 09005KT 10SM -RA FEW010 SCT060 OVC075 11/10 A3010 RMK AO2 SLP206 P0003 T01110100,M
LOL,2024-02-21 03:53,-118.5701,40.0684,1192.43,46.00,30.00,53.37,290.00,10.00,0.00,29.94,1014.60,10.00,M,SCT,SCT,M,M,8000.00,10000.00,M,M,M,M,M,M,M,M,M,40.52,KLOL 210353Z AUTO 29010KT 10SM SCT080 SCT100 08/M01 A2994 RMK AO2 SLP146 T00781011,M
BVU,2024-02-21 03:55,-114.8611,35.9475,671.00,50.00,46.40,87.37,0.00,0.00,0.00,30.10,M,10.00,M,FEW,SCT,OVC,M,4100.00,4700.00,6000.00,M,M,M,M,M,M,M,M,50.00,KBVU 210355Z AUTO 00000KT 10SM FEW041 SCT047 OVC060 10/08 A3010 RMK AO2,M
CXP,2024-02-21 03:55,-119.7326,39.1923,1431.00,41.00,30.20,65.16,0.00,0.00,0.00,30.02,M,10.00,M,SCT,OVC,M,M,2800.00,3400.00,M,M,-RA,M,M,M,M,M,M,41.00,KCXP 210355Z AUTO 00000KT 10SM -RA SCT028 OVC034 05/M01 A3002 RMK AO2,M
RNO,2024-02-21 03:55,-119.7711,39.4839,1341.00,43.00,30.00,59.83,50.00,3.00,0.00,30.00,1015.40,10.00,M,OVC,M,M,M,8000.00,M,M,M,M,M,M,M,M,M,M,41.26,KRNO 210355Z 05003KT 10SM OVC080 06/M01 A3000 RMK AO2 SLP154 T00611011,M
RTS,2024-02-21 03:55,-119.8764,39.6682,1539.00,39.20,28.40,64.93,M,3.00,0.00,30.01,M,10.00,M,BKN,BKN,OVC,M,2200.00,2700.00,4000.00,M,-DZ,M,M,M,M,M,M,36.92,KRTS 210355Z AUTO VRB03KT 10SM -DZ BKN022 BKN027 OVC040 04/M02 A3001 RMK AO2,M
MEV,2024-02-21 03:55,-119.7500,38.9963,1441.42,39.20,32.00,75.16,240.00,8.00,0.00,29.99,M,10.00,M,FEW,BKN,OVC,M,3500.00,4400.00,5000.00,M,M,M,M,M,M,M,M,32.98,KMEV 210355Z AUTO 24008KT 10SM FEW035 BKN044 OVC050 04/00 A2999 RMK AO2,M
BAM,2024-02-21 03:55,-116.8743,40.5990,1382.36,46.40,30.20,53.00,350.00,7.00,0.00,29.98,M,10.00,M,SCT,SCT,OVC,M,3900.00,4600.00,6000.00,M,M,M,M,M,M,M,M,42.33,KBAM 210355Z AUTO 35007KT 310V010 10SM SCT039 SCT046 OVC060 08/M01 A2998 RMK AO1,M
HTH,2024-02-21 03:55,-118.6315,38.5448,1282.89,50.00,21.20,31.87,170.00,16.00,0.00,29.95,M,10.00,22.00,SCT,BKN,OVC,M,7000.00,8000.00,11000.00,M,M,M,M,M,M,M,M,50.00,KHTH 210355Z AUTO 17016G22KT 10SM SCT070 BKN080 OVC110 10/M06 A2995 RMK A01,M
10U,2024-02-21 03:55,-116.1876,41.9532,1637.00,35.60,30.20,80.51,120.00,9.00,0.00,29.98,M,10.00,M,FEW,M,M,M,9500.00,M,M,M,M,M,M,M,M,M,M,27.99,K10U 210355Z AUTO 12009KT 10SM FEW095 02/M01 A2998 RMK AO2,M
LSV,2024-02-21 03:55,-115.0343,36.2362,570.00,50.00,53.60,M,30.00,4.00,0.00,30.10,M,7.00,M,SCT,OVC,M,M,3000.00,5000.00,M,M,M,M,M,M,M,M,M,M,KLSV 210355Z 03004KT 7SM SCT030 OVC050 10/12 A3010 RMK AO2A RAB0252E09RAB14E22RAB32E43 SLPNO P//// WND DATA ESTMD ALSTG ESTMD $,M
TMT,2024-02-21 03:55,-117.1971,39.4643,1749.34,35.80,33.80,92.35,140.00,7.00,0.00,29.99,M,10.00,M,SCT,BKN,OVC,M,1600.00,2500.00,6500.00,M,-RA,M,M,M,M,M,M,29.41,KTMT 210355Z AUTO 14007KT 10SM -RA SCT016 BKN025 OVC065 02/01 A2999 RMK AO2 T00210010,M
INS,2024-02-21 03:55,-115.6733,36.5872,955.00,49.60,45.00,84.10,120.00,8.00,0.00,30.06,1016.30,10.00,M,FEW,OVC,M,M,3300.00,5500.00,M,M,M,M,M,M,M,M,M,45.79,KINS 210355Z AUTO 12008KT 10SM FEW033 OVC055 10/07 A3006 RMK AO2 SLP163 T00980072,M
EKO,2024-02-21 03:56,-115.7860,40.8242,1367.00,42.00,31.00,64.75,90.00,5.00,0.00,29.96,1014.60,10.00,M,FEW,M,M,M,5500.00,M,M,M,M,M,M,M,M,M,M,38.27,KEKO 210356Z AUTO 09005KT 10SM FEW055 06/M01 A2996 RMK AO2 SLP146 T00561006,M
WMC,2024-02-21 03:56,-117.8072,40.9019,1315.00,42.00,25.00,50.61,0.00,0.00,0.00,29.94,1014.00,10.00,M,CLR,M,M,M,M,M,M,M,M,M,M,M,M,M,M,42.00,KWMC 210356Z AUTO 00000KT 10SM CLR 06/M04 A2994 RMK AO2 SLP140 T00561039,M
NFL,2024-02-21 03:56,-118.7010,39.4166,1199.00,49.00,28.00,43.93,300.00,9.00,0.00,29.96,1011.70,10.00,M,BKN,OVC,M,M,5000.00,10000.00,M,M,M,M,M,M,M,M,M,44.65,KNFL 210356Z 30009KT 10SM BKN050 OVC100 09/M02 A2996 RMK AO2 SLP117 SH DSNT S-SW T00941022,M
HND,2024-02-21 03:56,-115.1344,35.9729,742.79,50.00,46.00,86.06,0.00,0.00,T,30.11,1021.20,10.00,M,OVC,M,M,M,6500.00,M,M,M,-RA,M,M,M,M,M,M,50.00,KHND 210356Z 00000KT 10SM -RA OVC065 10/08 A3011 RMK AO2 RAE37B54 SLP212 P0000 T01000078,M
TPH,2024-02-21 03:56,-117.0904,38.0505,1654.00,41.00,37.00,85.54,110.00,6.00,0.00,29.99,1014.90,10.00,M,BKN,BKN,M,M,1000.00,1700.00,M,M,M,M,M,M,M,M,M,36.37,KTPH 210356Z AUTO 11006KT 10SM BKN010 BKN017 05/03 A2999 RMK AO2 SLP149 T00500028,M
LAS,2024-02-21 03:56,-115.1634,36.0719,663.00,50.00,47.00,89.37,80.00,4.00,0.01,30.10,1018.70,10.00,M,FEW,FEW,BKN,OVC,1000.00,2000.00,7000.00,16000.00,M,M,M,M,M,M,M,50.00,KLAS 210356Z 08004KT 10SM FEW010 FEW020 BKN070 OVC160 10/08 A3010 RMK AO2 RAE32 SLP187 P0001 T01000083,M
INS,2024-02-21 04:01,-115.6733,36.5872,955.00,50.00,44.60,81.61,90.00,10.00,0.00,30.06,1016.30,10.00,M,FEW,OVC,M,M,3700.00,5500.00,M,M,-RA,M,M,M,M,M,M,50.00,KINS 210401Z AUTO 09010KT 10SM -RA FEW037 OVC055 10/07 A3006 RMK AO2 RAB01 SLP163,M
ELY,2024-02-21 04:02,-114.8453,39.2950,1909.00,35.00,33.00,92.32,190.00,8.00,0.01,30.01,M,6.00,M,BKN,OVC,M,M,2500.00,3200.00,M,M,-RA BR,M,M,M,M,M,M,27.81,KELY 210402Z AUTO 19008KT 6SM -RA BR BKN025 OVC032 02/01 A3001 RMK AO2 P0001 T00170006,M
TPH,2024-02-21 04:05,-117.0904,38.0505,1654.00,41.00,38.00,88.97,120.00,10.00,0.00,29.99,M,10.00,M,BKN,OVC,M,M,900.00,1700.00,M,M,M,M,M,M,M,M,M,34.25,KTPH 210405Z AUTO 12010KT 10SM BKN009 OVC017 05/03 A2999 RMK AO2 T00500033,M
INS,2024-02-21 04:13,-115.6733,36.5872,955.00,50.00,42.80,76.18,70.00,8.00,0.00,30.05,1016.00,10.00,M,FEW,BKN,OVC,M,4000.00,6000.00,7000.00,M,M,M,M,M,M,M,M,50.00,KINS 210413Z AUTO 07008KT 10SM FEW040 BKN060 OVC070 10/06 A3005 RMK AO2 RAB01E13 SLP160,M
BVU,2024-02-21 04:15,-114.8611,35.9475,671.00,50.00,48.20,93.50,0.00,0.00,0.00,30.10,M,10.00,M,FEW,OVC,M,M,4300.00,5500.00,M,M,M,M,M,M,M,M,M,50.00,KBVU 210415Z AUTO 00000KT 10SM FEW043 OVC055 10/09 A3010 RMK AO2,M
CXP,2024-02-21 04:15,-119.7326,39.1923,1431.00,41.00,32.00,70.08,0.00,0.00,0.00,30.02,M,10.00,M,SCT,BKN,OVC,M,2800.00,3500.00,4200.00,M,M,M,M,M,M,M,M,41.00,KCXP 210415Z AUTO 00000KT 10SM SCT028 BKN035 OVC042 05/M00 A3002 RMK AO2,M
RTS,2024-02-21 04:15,-119.8764,39.6682,1539.00,39.20,30.20,69.88,0.00,0.00,0.00,30.01,M,10.00,M,BKN,BKN,M,M,2500.00,3300.00,M,M,-DZ,M,M,M,M,M,M,39.20,KRTS 210415Z AUTO 00000KT 10SM -DZ BKN025 BKN033 04/M01 A3001 RMK AO2,M
05U,2024-02-21 04:15,-116.0051,39.6042,1811.23,37.40,35.60,93.14,M,6.00,0.00,30.01,M,7.00,M,M,M,M,M,M,M,M,M,M,M,M,M,M,M,M,32.03,K05U 210415Z AUTO VRB06KT 7SM 03/02 A3001 RMK A01,M
MEV,2024-02-21 04:15,-119.7500,38.9963,1441.42,39.20,33.80,80.79,0.00,0.00,0.00,30.00,M,10.00,M,FEW,SCT,OVC,M,3400.00,4500.00,5000.00,M,M,M,M,M,M,M,M,39.20,KMEV 210415Z AUTO 00000KT 10SM FEW034 SCT045 OVC050 04/01 A3000 RMK AO2,M
BAM,2024-02-21 04:15,-116.8743,40.5990,1382.36,46.40,32.00,57.00,10.00,9.00,0.00,29.98,M,10.00,M,SCT,OVC,M,M,4200.00,6000.00,M,M,M,M,M,M,M,M,M,41.42,KBAM 210415Z AUTO 01009KT 10SM SCT042 OVC060 08/00 A2998 RMK AO1,M
HTH,2024-02-21 04:15,-118.6315,38.5448,1282.89,50.00,23.00,34.39,200.00,14.00,0.00,29.96,M,10.00,M,FEW,SCT,M,M,7500.00,11000.00,M,M,M,M,M,M,M,M,M,50.00,KHTH 210415Z AUTO 20014KT 10SM FEW075 SCT110 10/M05 A2996 RMK A01,M
10U,2024-02-21 04:15,-116.1876,41.9532,1637.00,35.60,30.20,80.51,120.00,8.00,0.00,29.98,M,10.00,M,FEW,M,M,M,9000.00,M,M,M,M,M,M,M,M,M,M,28.55,K10U 210415Z AUTO 12008KT 10SM FEW090 02/M01 A2998 RMK AO2,M
TMT,2024-02-21 04:15,-117.1971,39.4643,1749.34,36.00,33.40,90.16,0.00,0.00,0.00,29.99,M,10.00,M,SCT,BKN,OVC,M,1700.00,2500.00,10000.00,M,M,M,M,M,M,M,M,36.00,KTMT 210415Z AUTO 00000KT 10SM SCT017 BKN025 OVC100 02/01 A2999 RMK AO2 T00220008,M
BVU,2024-02-21 04:35,-114.8611,35.9475,671.00,50.00,48.20,93.50,0.00,0.00,0.00,30.10,M,10.00,M,FEW,OVC,M,M,4300.00,5000.00,M,M,M,M,M,M,M,M,M,50.00,KBVU 210435Z AUTO 00000KT 10SM FEW043 OVC050 10/09 A3010 RMK AO2,M
CXP,2024-02-21 04:35,-119.7326,39.1923,1431.00,39.20,32.00,75.16,0.00,0.00,0.00,30.02,M,10.00,M,BKN,BKN,BKN,M,2900.00,3600.00,4200.00,M,-RA,M,M,M,M,M,M,39.20,KCXP 210435Z AUTO 00000KT 10SM -RA BKN029 BKN036 BKN042 04/00 A3002 RMK AO2,M
RTS,2024-02-21 04:35,-119.8764,39.6682,1539.00,39.20,30.20,69.88,250.00,4.00,0.00,30.01,M,10.00,M,SCT,BKN,BKN,M,2500.00,3100.00,3900.00,M,M,M,M,M,M,M,M,35.83,KRTS 210435Z AUTO 25004KT 10SM SCT025 BKN031 BKN039 04/M01 A3001 RMK AO2,M
05U,2024-02-21 04:35,-116.0051,39.6042,1811.23,35.60,33.80,93.08,290.00,4.00,0.00,29.99,M,10.00,M,M,M,M,M,M,M,M,M,M,M,M,M,M,M,M,31.62,K05U 210435Z AUTO 29004KT 10SM 02/01 A2999 RMK A01,M
MEV,2024-02-21 04:35,-119.7500,38.9963,1441.42,39.20,33.80,80.79,210.00,5.00,0.00,30.00,M,10.00,M,FEW,BKN,OVC,M,3500.00,4200.00,5000.00,M,M,M,M,M,M,M,M,34.95,KMEV 210435Z AUTO 21005KT 10SM FEW035 BKN042 OVC050 04/01 A3000 RMK AO2,M
BAM,2024-02-21 04:35,-116.8743,40.5990,1382.36,44.60,33.80,65.61,50.00,6.00,0.00,29.98,M,10.00,M,BKN,BKN,M,M,5000.00,7000.00,M,M,M,M,M,M,M,M,M,40.71,KBAM 210435Z AUTO 05006KT 10SM BKN050 BKN070 07/01 A2998 RMK AO1,M
HTH,2024-02-21 04:35,-118.6315,38.5448,1282.89,48.20,23.00,36.78,160.00,12.00,0.00,29.97,M,10.00,M,SCT,BKN,M,M,9500.00,12000.00,M,M,M,M,M,M,M,M,M,42.62,KHTH 210435Z AUTO 16012KT 10SM SCT095 BKN120 09/M05 A2997 RMK A01,M
10U,2024-02-21 04:35,-116.1876,41.9532,1637.00,35.60,30.20,80.51,130.00,9.00,0.00,29.97,M,10.00,M,CLR,M,M,M,M,M,M,M,M,M,M,M,M,M,M,27.99,K10U 210435Z AUTO 13009KT 10SM CLR 02/M01 A2997 RMK AO2,M
TMT,2024-02-21 04:35,-117.1971,39.4643,1749.34,36.00,33.40,90.16,0.00,0.00,0.00,29.99,M,10.00,M,SCT,BKN,OVC,M,2800.00,5500.00,7500.00,M,-RA,M,M,M,M,M,M,36.00,KTMT 210435Z AUTO 00000KT 10SM -RA SCT028 BKN055 OVC075 02/01 A2999 RMK AO2 T00220008,M
P68,2024-02-21 04:53,-116.0056,39.6014,1993.00,37.00,33.00,85.29,220.00,5.00,0.00,29.97,1013.10,M,M,M,M,M,M,M,M,M,M,M,M,M,M,M,M,M,32.33,KP68 210453Z AUTO 22005KT 03/01 A2997 RMK AO1 SLP131 T00280006,M
DRA,2024-02-21 04:53,-116.0278,36.6206,1009.00,51.00,38.00,60.92,180.00,12.00,0.00,30.05,1015.50,10.00,18.00,BKN,OVC,M,M,4800.00,6500.00,M,M,M,M,M,M,M,M,M,51.00,KDRA 210453Z AUTO 18012G18KT 10SM BKN048 OVC065 11/03 A3005 RMK AO2 SLP155 T01060033,M
ELY,2024-02-21 04:53,-114.8453,39.2950,1909.00,35.00,33.00,92.32,190.00,12.00,0.03,30.01,1014.40,10.00,M,FEW,SCT,OVC,M,1500.00,2000.00,2700.00,M,-RA,M,M,M,M,M,M,25.82,KELY 210453Z AUTO 19012KT 10SM -RA FEW015 SCT020 OVC027 02/01 A3001 RMK AO2 SLP144 P0003 T00170006,M
VGT,2024-02-21 04:53,-115.1933,36.2111,667.00,52.00,50.00,92.86,70.00,5.00,0.02,30.09,1020.50,10.00,M,OVC,M,M,M,6000.00,M,M,M,M,M,M,M,M,M,M,52.00,KVGT 210453Z AUTO 07005KT 10SM OVC060 11/10 A3009 RMK AO2 RAE50 SLP205 P0002 T01110100,M
LOL,2024-02-21 04:53,-118.5701,40.0684,1192.43,45.00,31.00,57.73,M,4.00,0.00,29.96,1014.90,10.00,M,BKN,OVC,M,M,8500.00,11000.00,M,M,M,M,M,M,M,M,M,42.60,KLOL 210453Z AUTO VRB04KT 10SM BKN085 OVC110 07/M01 A2996 RMK AO2 SLP149 T00721006,M
LSV,2024-02-21 04:54,-115.0343,36.2362,570.00,48.20,53.60,M,30.00,7.00,0.00,30.08,M,10.00,M,SCT,BKN,M,M,2000.00,4000.00,M,M,-RA,M,M,M,M,M,M,M,KLSV 210454Z 03007KT 10SM -RA SCT020 BKN040 09/12 A3008 RMK AO2A RAB53E54RAB56 SLPNO WND DATA ESTMD $,M
BVU,2024-02-21 04:55,-114.8611,35.9475,671.00,50.00,48.20,93.50,0.00,0.00,0.00,30.10,M,9.00,M,FEW,OVC,M,M,4100.00,5000.00,M,M,M,M,M,M,M,M,M,50.00,KBVU 210455Z AUTO 00000KT 9SM FEW041 OVC050 10/09 A3010 RMK AO2,M
CXP,2024-02-21 04:55,-119.7326,39.1923,1431.00,37.40,33.80,86.69,M,4.00,0.01,30.03,M,8.00,M,FEW,FEW,M,M,1300.00,2800.00,M,M,-RA,M,M,M,M,M,M,33.73,KCXP 210455Z AUTO VRB04KT 8SM -RA FEW013 FEW028 03/01 A3003 RMK AO2 P0001,M
RNO,2024-02-21 04:55,-119.7711,39.4839,1341.00,41.00,33.00,72.96,160.00,11.00,T,30.01,1015.50,10.00,M,OVC,M,M,M,5500.00,M,M,M,-RA,M,M,M,M,M,M,33.84,KRNO 210455Z 16011KT 10SM -RA OVC055 05/01 A3001 RMK AO2 RAB47 SLP155 P0000 T00500006,M
RTS,2024-02-21 04:55,-119.8764,39.6682,1539.00,39.20,30.20,69.88,0.00,0.00,0.00,30.01,M,10.00,M,FEW,BKN,OVC,M,2100.00,2600.00,3900.00,M,M,M,M,M,M,M,M,39.20,KRTS 210455Z AUTO 00000KT 10SM FEW021 BKN026 OVC039 04/M01 A3001 RMK AO2,M
05U,2024-02-21 04:55,-116.0051,39.6042,1811.23,37.40,33.80,86.69,360.00,6.00,0.00,30.00,M,10.00,M,M,M,M,M,M,M,M,M,M,M,M,M,M,M,M,32.03,K05U 210455Z AUTO 36006KT 10SM 03/01 A3000 RMK A01,M
MEV,2024-02-21 04:55,-119.7500,38.9963,1441.42,39.20,33.80,80.79,260.00,3.00,0.00,30.01,M,9.00,M,FEW,SCT,BKN,M,1300.00,2500.00,3100.00,M,-RA,M,M,M,M,M,M,36.92,KMEV 210455Z AUTO 26003KT 9SM -RA FEW013 SCT025 BKN031 04/01 A3001 RMK AO2,M
BAM,2024-02-21 04:55,-116.8743,40.5990,1382.36,42.80,33.80,70.28,50.00,3.00,0.00,29.98,M,10.00,M,OVC,M,M,M,4800.00,M,M,M,M,M,M,M,M,M,M,41.03,KBAM 210455Z AUTO 05003KT 10SM OVC048 06/01 A2998 RMK AO1,M
HTH,2024-02-21 04:55,-118.6315,38.5448,1282.89,48.20,24.80,39.66,M,5.00,0.00,29.98,M,10.00,M,OVC,M,M,M,9000.00,M,M,M,M,M,M,M,M,M,M,45.63,KHTH 210455Z AUTO VRB05KT 10SM OVC090 09/M04 A2998 RMK A01,M
TMT,2024-02-21 04:55,-117.1971,39.4643,1749.34,35.60,33.00,90.15,240.00,7.00,0.00,30.00,M,10.00,15.00,SCT,BKN,OVC,M,1300.00,2800.00,4800.00,M,-RA,M,M,M,M,M,M,29.17,KTMT 210455Z AUTO 24007G15KT 10SM -RA SCT013 BKN028 OVC048 02/01 A3000 RMK AO2 T00200006,M
10U,2024-02-21 04:55,-116.1876,41.9532,1637.00,35.60,30.20,80.51,120.00,9.00,0.00,29.97,M,10.00,M,SCT,M,M,M,9000.00,M,M,M,M,M,M,M,M,M,M,27.99,K10U 210455Z AUTO 12009KT 10SM SCT090 02/M01 A2997 RMK AO2,M
EKO,2024-02-21 04:56,-115.7860,40.8242,1367.00,40.00,32.00,72.85,110.00,6.00,T,29.97,1015.00,10.00,M,OVC,M,M,M,4200.00,M,M,M,M,M,M,M,M,M,M,35.17,KEKO 210456Z AUTO 11006KT 10SM OVC042 04/00 A2997 RMK AO2 RAB40E51 SLP150 P0000 T00440000,M
WMC,2024-02-21 04:56,-117.8072,40.9019,1315.00,36.00,26.00,66.69,170.00,5.00,0.00,29.95,1013.90,10.00,M,SCT,BKN,M,M,10000.00,12000.00,M,M,M,M,M,M,M,M,M,31.15,KWMC 210456Z AUTO 17005KT 10SM SCT100 BKN120 02/M03 A2995 RMK AO2 SLP139 T00221033,M
NFL,2024-02-21 04:56,-118.7010,39.4166,1199.00,47.00,29.00,49.34,300.00,14.00,0.00,29.96,1011.70,10.00,M,BKN,OVC,M,M,5000.00,10000.00,M,M,M,M,M,M,M,M,M,40.50,KNFL 210456Z 30014KT 10SM BKN050 OVC100 08/M02 A2996 RMK AO2 SLP117 SH DSNT S-SW T00831017,M
HND,2024-02-21 04:56,-115.1344,35.9729,742.79,49.00,46.00,89.33,190.00,6.00,0.01,30.11,1021.20,10.00,M,OVC,M,M,M,6000.00,M,M,M,-RA,M,M,M,M,M,M,46.00,KHND 210456Z AUTO 19006KT 10SM -RA OVC060 09/08 A3011 RMK AO2 SLP212 P0001 T00940078,M
TPH,2024-02-21 04:56,-117.0904,38.0505,1654.00,40.00,38.00,92.49,140.00,6.00,0.00,30.00,1015.10,10.00,M,OVC,M,M,M,1000.00,M,M,M,M,M,M,M,M,M,M,35.17,KTPH 210456Z AUTO 14006KT 10SM OVC010 04/03 A3000 RMK AO2 CIG 007V014 SLP151 T00440033,M
LAS,2024-02-21 04:56,-115.1634,36.0719,663.00,50.00,49.00,96.34,100.00,4.00,0.01,30.10,1018.70,10.00,M,FEW,FEW,BKN,OVC,1500.00,2000.00,7000.00,16000.00,M,M,M,M,M,M,M,50.00,KLAS 210456Z 10004KT 10SM FEW015 FEW020 BKN070 OVC160 10/09 A3010 RMK AO2 RAB27E56 SLP187 P0001 T01000094,M
LAS,2024-02-21 05:03,-115.1634,36.0719,663.00,50.00,49.00,96.34,110.00,4.00,0.00,30.10,M,10.00,M,FEW,OVC,M,M,600.00,6000.00,M,M,M,M,M,M,M,M,M,50.00,KLAS 210503Z 11004KT 10SM FEW006 OVC060 10/09 A3010 RMK AO2 T01000094,M
CXP,2024-02-21 05:10,-119.7326,39.1923,1431.00,37.40,33.80,86.69,80.00,6.00,0.00,30.03,M,6.00,M,SCT,SCT,SCT,M,1000.00,1500.00,2800.00,M,-RA BR,M,M,M,M,M,M,32.03,KCXP 210510Z AUTO 08006KT 6SM -RA BR SCT010 SCT015 SCT028 03/01 A3003 RMK AO2,M
BVU,2024-02-21 05:15,-114.8611,35.9475,671.00,50.00,48.20,93.50,0.00,0.00,0.00,30.10,M,6.00,M,FEW,SCT,OVC,M,2900.00,4300.00,5000.00,M,-RA,M,M,M,M,M,M,50.00,KBVU 210515Z AUTO 00000KT 6SM -RA FEW029 SCT043 OVC050 10/09 A3010 RMK AO2,M
RTS,2024-02-21 05:15,-119.8764,39.6682,1539.00,37.40,30.20,74.98,0.00,0.00,0.00,30.02,M,10.00,M,OVC,M,M,M,2400.00,M,M,M,M,M,M,M,M,M,M,37.40,KRTS 210515Z AUTO 00000KT 10SM OVC024 03/M01 A3002 RMK AO2,M
TPH,2024-02-21 05:15,-117.0904,38.0505,1654.00,41.00,38.00,88.97,120.00,8.00,0.00,30.00,M,10.00,M,BKN,OVC,M,M,800.00,1300.00,M,M,M,M,M,M,M,M,M,35.20,KTPH 210515Z AUTO 12008KT 10SM BKN008 OVC013 05/03 A3000 RMK AO2 T00500033,M
05U,2024-02-21 05:15,-116.0051,39.6042,1811.23,37.40,33.80,86.69,340.00,6.00,0.00,29.99,M,10.00,12.00,M,M,M,M,M,M,M,M,M,M,M,M,M,M,M,32.03,K05U 210515Z AUTO 34006G12KT 10SM 03/01 A2999 RMK A01,M
MEV,2024-02-21 05:15,-119.7500,38.9963,1441.42,39.20,33.80,80.79,0.00,0.00,0.00,30.01,M,10.00,M,FEW,SCT,BKN,M,1300.00,2100.00,2600.00,M,-RA,M,M,M,M,M,M,39.20,KMEV 210515Z AUTO 00000KT 10SM -RA FEW013 SCT021 BKN026 04/01 A3001 RMK AO2,M
BAM,2024-02-21 05:15,-116.8743,40.5990,1382.36,42.80,33.80,70.28,70.00,7.00,0.00,29.99,M,10.00,M,OVC,M,M,M,4600.00,M,M,M,M,M,M,M,M,M,M,37.94,KBAM 210515Z AUTO 07007KT 10SM OVC046 06/01 A2999 RMK AO1,M
HTH,2024-02-21 05:15,-118.6315,38.5448,1282.89,48.20,24.80,39.66,190.00,3.00,0.00,29.97,M,10.00,M,BKN,OVC,M,M,7500.00,9000.00,M,M,M,M,M,M,M,M,M,47.21,KHTH 210515Z AUTO 19003KT 10SM BKN075 OVC090 09/M04 A2997 RMK A01,M
10U,2024-02-21 05:15,-116.1876,41.9532,1637.00,35.60,30.20,80.51,360.00,3.00,0.00,29.97,M,10.00,13.00,BKN,OVC,M,M,8000.00,9500.00,M,M,M,M,M,M,M,M,M,32.80,K10U 210515Z AUTO 36003G13KT 10SM BKN080 OVC095 02/M01 A2997 RMK AO2,M
TMT,2024-02-21 05:15,-117.1971,39.4643,1749.34,34.50,33.00,94.18,160.00,7.00,0.01,30.00,M,10.00,M,SCT,BKN,OVC,M,1300.00,2200.00,3700.00,M,-RA,M,M,M,M,M,M,27.83,KTMT 210515Z AUTO 16007KT 10SM -RA SCT013 BKN022 OVC037 01/01 A3000 RMK AO2 P0001 T00140006,M
EKO,2024-02-21 05:20,-115.7860,40.8242,1367.00,39.00,34.00,82.08,M,5.00,0.02,29.98,M,6.00,M,BKN,OVC,M,M,2000.00,2800.00,M,M,-RA,M,M,M,M,M,M,34.71,KEKO 210520Z AUTO VRB05KT 6SM -RA BKN020 OVC028 04/01 A2998 RMK AO2 RAB01 P0002 T00390011,M
HTH,2024-02-21 05:30,-118.6315,38.5448,1282.89,48.20,24.80,39.66,240.00,9.00,0.00,29.98,M,10.00,14.00,OVC,M,M,M,8000.00,M,M,M,M,M,M,M,M,M,M,43.66,KHTH 210530Z AUTO 24009G14KT 10SM OVC080 09/M04 A2998 RMK A01,M
BVU,2024-02-21 05:35,-114.8611,35.9475,671.00,50.00,48.20,93.50,0.00,0.00,0.00,30.09,M,9.00,M,FEW,FEW,OVC,M,3100.00,4200.00,6000.00,M,-DZ,M,M,M,M,M,M,50.00,KBVU 210535Z AUTO 00000KT 9SM -DZ FEW031 FEW042 OVC060 10/09 A3009 RMK AO2,M
CXP,2024-02-21 05:35,-119.7326,39.1923,1431.00,37.40,33.80,86.69,70.00,3.00,0.00,30.02,M,10.00,M,BKN,BKN,OVC,M,1200.00,3400.00,8500.00,M,UP,M,M,M,M,M,M,34.86,KCXP 210535Z AUTO 07003KT 10SM UP BKN012 BKN034 OVC085 03/01 A3002 RMK AO2,M
RTS,2024-02-21 05:35,-119.8764,39.6682,1539.00,37.40,32.00,80.65,170.00,5.00,0.00,30.02,M,9.00,M,BKN,OVC,M,M,2200.00,2700.00,M,M,-DZ,M,M,M,M,M,M,32.81,KRTS 210535Z AUTO 17005KT 9SM -DZ BKN022 OVC027 03/M00 A3002 RMK AO2,M
05U,2024-02-21 05:35,-116.0051,39.6042,1811.23,35.60,32.00,86.59,M,4.00,0.00,29.99,M,10.00,M,M,M,M,M,M,M,M,M,M,M,M,M,M,M,M,31.62,K05U 210535Z AUTO VRB04KT 10SM 02/00 A2999 RMK A01,M
MEV,2024-02-21 05:35,-119.7500,38.9963,1441.42,37.40,33.80,86.69,0.00,0.00,0.00,30.00,M,10.00,M,FEW,BKN,OVC,M,1500.00,2300.00,7000.00,M,M,M,M,M,M,M,M,37.40,KMEV 210535Z AUTO 00000KT 10SM FEW015 BKN023 OVC070 03/01 A3000 RMK AO2,M
BAM,2024-02-21 05:35,-116.8743,40.5990,1382.36,42.80,35.60,75.50,70.00,5.00,0.00,29.98,M,10.00,M,OVC,M,M,M,4400.00,M,M,M,M,M,M,M,M,M,M,39.22,KBAM 210535Z AUTO 07005KT 10SM OVC044 06/02 A2998 RMK AO1,M
10U,2024-02-21 05:35,-116.1876,41.9532,1637.00,35.60,28.40,74.80,90.00,4.00,0.00,29.97,M,10.00,M,OVC,M,M,M,8500.00,M,M,M,M,M,M,M,M,M,M,31.62,K10U 210535Z AUTO 09004KT 10SM OVC085 02/M02 A2997 RMK AO2,M
TMT,2024-02-21 05:35,-117.1971,39.4643,1749.34,34.70,33.30,94.56,170.00,5.00,0.01,30.00,M,10.00,M,SCT,BKN,OVC,M,1900.00,6500.00,8500.00,M,M,M,M,M,M,M,M,29.60,KTMT 210535Z AUTO 17005KT 10SM SCT019 BKN065 OVC085 02/01 A3000 RMK AO2 P0001 T00150007,M
LAS,2024-02-21 05:47,-115.1634,36.0719,663.00,50.00,50.00,100.00,90.00,6.00,T,30.08,M,10.00,M,BKN,BKN,OVC,M,300.00,6000.00,11000.00,M,M,M,M,M,M,M,M,50.00,KLAS 210547Z 09006KT 10SM BKN003 BKN060 OVC110 10/10 A3008 RMK AO2 RAB14E29 VIS LWR SW-NW MTNS OBSCURED DSNT S-W-N P0000 T01000100,M
05U,2024-02-21 05:50,-116.0051,39.6042,1811.23,33.80,32.00,93.03,M,4.00,0.00,30.00,M,10.00,M,M,M,M,M,M,M,M,M,M,M,M,M,M,M,M,29.52,K05U 210550Z AUTO VRB04KT 10SM 01/M00 A3000 RMK A01,M
P68,2024-02-21 05:53,-116.0056,39.6014,1993.00,34.00,32.00,92.29,290.00,4.00,0.00,29.97,1013.10,M,M,M,M,M,M,M,M,M,M,M,M,M,M,M,M,M,29.76,KP68 210553Z AUTO 29004KT 01/00 A2997 RMK AO1 SLP131 T00110000 10061 20011 53000,M
DRA,2024-02-21 05:53,-116.0278,36.6206,1009.00,49.00,41.00,73.77,250.00,5.00,0.00,30.03,1015.10,10.00,M,OVC,M,M,M,4700.00,M,M,M,M,M,M,M,M,M,M,46.58,KDRA 210553Z AUTO 25005KT 10SM OVC047 09/05 A3003 RMK AO2 SLP151 T00940050 10128 20094 50001,M
ELY,2024-02-21 05:53,-114.8453,39.2950,1909.00,36.00,33.00,88.73,170.00,12.00,0.01,29.99,1012.90,10.00,M,FEW,BKN,OVC,M,2000.00,2800.00,3300.00,M,-RA,M,M,M,M,M,M,27.09,KELY 210553Z AUTO 17012KT 10SM -RA FEW020 BKN028 OVC033 02/01 A2999 RMK AO2 SLP129 P0001 60004 T00220006 10044 20011 58005,M
VGT,2024-02-21 05:53,-115.1933,36.2111,667.00,51.00,50.00,96.36,110.00,7.00,0.02,30.06,1019.50,10.00,M,FEW,BKN,BKN,M,4700.00,6000.00,11000.00,M,M,M,M,M,M,M,M,51.00,KVGT 210553Z AUTO 11007KT 10SM FEW047 BKN060 BKN110 11/10 A3006 RMK AO2 RAB0456E45 SLP195 P0002 60013 T01060100 10128 20106 58011,M
LOL,2024-02-21 05:53,-118.5701,40.0684,1192.43,44.00,31.00,59.97,0.00,0.00,0.00,29.97,1014.60,10.00,M,OVC,M,M,M,9000.00,M,M,M,M,M,M,M,M,M,M,44.00,KLOL 210553Z AUTO 00000KT 10SM OVC090 07/M01 A2997 RMK AO2 SLP146 T00671006 10111 20067 51012,M
BVU,2024-02-21 05:55,-114.8611,35.9475,671.00,50.00,48.20,93.50,0.00,0.00,0.00,30.08,M,10.00,M,BKN,BKN,OVC,M,6000.00,6500.00,9000.00,M,M,M,M,M,M,M,M,50.00,KBVU 210555Z AUTO 00000KT 10SM BKN060 BKN065 OVC090 10/09 A3008 RMK AO2,M
CXP,2024-02-21 05:55,-119.7326,39.1923,1431.00,35.60,33.80,93.08,0.00,0.00,0.01,30.02,M,10.00,M,FEW,BKN,BKN,M,1400.00,4300.00,5000.00,M,M,M,M,M,M,M,M,35.60,KCXP 210555Z AUTO 00000KT 10SM FEW014 BKN043 BKN050 02/01 A3002 RMK AO2 P0001,M
RNO,2024-02-21 05:55,-119.7711,39.4839,1341.00,39.00,34.00,82.08,0.00,0.00,0.03,30.02,1015.40,10.00,M,SCT,OVC,M,M,2500.00,4000.00,M,M,-RA,M,M,M,M,M,M,39.00,KRNO 210555Z 00000KT 10SM -RA SCT025 OVC040 04/01 A3002 RMK AO2 SLP154 P0003 60003 T00390011 10111 20039 51011,M
LSV,2024-02-21 05:55,-115.0343,36.2362,570.00,48.20,53.60,M,60.00,8.00,0.00,30.05,M,10.00,M,FEW,OVC,M,M,1600.00,4000.00,M,M,-RA,M,M,M,M,M,M,M,KLSV 210555Z 06008KT 10SM -RA FEW016 OVC040 09/12 A3005 RMK AO2A RAE0454RAB0456E08RAB36E52 SLPNO 6//// 10129 20125WND DATA ESTMD $,M
RTS,2024-02-21 05:55,-119.8764,39.6682,1539.00,35.60,32.00,86.59,170.00,4.00,0.01,30.02,M,3.00,M,SCT,BKN,BKN,M,500.00,1600.00,2200.00,M,-SN,M,M,M,M,M,M,31.62,KRTS 210555Z AUTO 17004KT 3SM -SN SCT005 BKN016 BKN022 02/M00 A3002 RMK AO2 P0001,M
MEV,2024-02-21 05:55,-119.7500,38.9963,1441.42,35.60,33.80,93.08,130.00,3.00,0.00,30.01,M,10.00,M,FEW,SCT,BKN,M,1700.00,3400.00,5500.00,M,M,M,M,M,M,M,M,32.80,KMEV 210555Z AUTO 13003KT 10SM FEW017 SCT034 BKN055 02/01 A3001 RMK AO2,M
BAM,2024-02-21 05:55,-116.8743,40.5990,1382.36,41.00,33.80,75.33,40.00,3.00,0.00,29.99,M,10.00,M,SCT,M,M,M,4400.00,M,M,M,M,M,M,M,M,M,M,38.98,KBAM 210555Z AUTO 04003KT 10SM SCT044 05/01 A2999 RMK AO1,M
HTH,2024-02-21 05:55,-118.6315,38.5448,1282.89,48.20,24.80,39.66,280.00,3.00,0.00,29.97,M,10.00,M,OVC,M,M,M,7000.00,M,M,M,M,M,M,M,M,M,M,47.21,KHTH 210555Z AUTO 28003KT 10SM OVC070 09/M04 A2997 RMK A01,M
TMT,2024-02-21 05:55,-117.1971,39.4643,1749.34,34.30,32.70,93.79,230.00,3.00,0.01,29.99,M,10.00,M,SCT,SCT,BKN,M,5500.00,6500.00,8500.00,M,M,M,M,M,M,M,M,31.32,KTMT 210555Z AUTO 23003KT 10SM SCT055 SCT065 BKN085 01/00 A2999 RMK AO2 P0001 60002 T00130004 10075 20013,M
10U,2024-02-21 05:55,-116.1876,41.9532,1637.00,33.80,28.40,80.36,80.00,5.00,0.00,29.97,M,10.00,M,OVC,M,M,M,9000.00,M,M,M,M,M,M,M,M,M,M,28.53,K10U 210555Z AUTO 08005KT 10SM OVC090 01/M02 A2997 RMK AO2,M
INS,2024-02-21 05:55,-115.6733,36.5872,955.00,48.60,43.00,80.88,110.00,5.00,0.00,30.04,1015.50,10.00,M,SCT,OVC,M,M,5500.00,14000.00,M,M,M,M,M,M,M,M,M,46.11,KINS 210555Z AUTO 11005KT 10SM SCT055 OVC140 09/06 A3004 RMK AO2 SLP155 60001 T00920061 10122 20089 58003,M
EKO,2024-02-21 05:56,-115.7860,40.8242,1367.00,37.00,33.00,85.29,70.00,3.00,0.11,29.97,1015.20,6.00,M,OVC,M,M,M,1500.00,M,M,M,RA BR,M,M,M,M,M,M,34.40,KEKO 210556Z AUTO 07003KT 6SM RA BR OVC015 03/01 A2997 RMK AO2 RAB01 SLP152 P0011 60011 T00280006 10106 20028 53003,M
WMC,2024-02-21 05:56,-117.8072,40.9019,1315.00,37.00,28.00,69.63,250.00,4.00,0.00,29.96,1014.20,10.00,M,FEW,SCT,M,M,9500.00,12000.00,M,M,M,M,M,M,M,M,M,33.26,KWMC 210556Z AUTO 25004KT 10SM FEW095 SCT120 03/M02 A2996 RMK AO2 SLP142 T00281022 10122 20022 53004,M
NFL,2024-02-21 05:56,-118.7010,39.4166,1199.00,45.00,31.00,57.73,290.00,8.00,0.00,29.98,1012.30,10.00,M,BKN,OVC,M,M,5000.00,10000.00,M,M,M,M,M,M,M,M,M,40.13,KNFL 210556Z 29008KT 10SM BKN050 OVC100 07/M01 A2998 RMK AO2 SLP123 SH DSNT SW-W T00721006 10128 20072 51015,M
HND,2024-02-21 05:56,-115.1344,35.9729,742.79,49.00,47.00,92.77,0.00,0.00,T,30.10,1020.60,10.00,M,OVC,M,M,M,5000.00,M,M,M,M,M,M,M,M,M,M,49.00,KHND 210556Z AUTO 00000KT 10SM OVC050 09/08 A3010 RMK AO2 RAE14 SLP206 P0000 60006 T00940083 10111 20094 58010,M
TPH,2024-02-21 05:56,-117.0904,38.0505,1654.00,40.00,37.00,88.92,M,5.00,0.00,30.00,1015.00,10.00,M,OVC,M,M,M,1100.00,M,M,M,M,M,M,M,M,M,M,35.90,KTPH 210556Z AUTO VRB05KT 10SM OVC011 04/03 A3000 RMK AO2 SLP150 T00440028 10094 20039 51006,M
LAS,2024-02-21 05:56,-115.1634,36.0719,663.00,49.00,49.00,100.00,100.00,6.00,T,30.08,1018.00,10.00,M,BKN,BKN,OVC,M,300.00,700.00,11000.00,M,M,M,M,M,M,M,M,46.00,KLAS 210556Z 10006KT 10SM BKN003 BKN007 OVC110 09/09 A3008 RMK AO2 RAB14E29 SLP180 VIS LWR SW-NW MTNS OBSCURED DSNT S-W-N P0000 60007 T00940094 10117 20094 58011,M
LSV,2024-02-21 05:59,-115.0343,36.2362,570.00,50.00,51.80,M,60.00,6.00,0.00,30.04,M,10.00,M,FEW,BKN,M,M,1600.00,4000.00,M,M,-RA,M,M,M,M,M,M,M,KLSV 210559Z COR 06006KT 10SM -RA FEW016 BKN040 10/11 A3004 RMK AO2 RAE55 SLPNO ALSTG ESTMD $ COR 0620,M
LAS,2024-02-21 06:03,-115.1634,36.0719,663.00,49.00,49.00,100.00,100.00,5.00,0.00,30.07,M,10.00,M,SCT,BKN,OVC,M,300.00,700.00,5500.00,M,M,M,M,M,M,M,M,46.58,KLAS 210603Z 10005KT 10SM SCT003 BKN007 OVC055 09/09 A3007 RMK AO2 VIS LWR SW-NW MTNS OBSCURED DSNT S-W-N T00940094,M
VGT,2024-02-21 06:04,-115.1933,36.2111,667.00,51.00,50.00,96.36,100.00,4.00,0.00,30.07,M,10.00,M,FEW,BKN,BKN,M,500.00,6000.00,12000.00,M,M,M,M,M,M,M,M,51.00,KVGT 210604Z AUTO 10004KT 10SM FEW005 BKN060 BKN120 11/10 A3007 RMK AO2 T01060100,M
05U,2024-02-21 06:10,-116.0051,39.6042,1811.23,35.60,33.80,93.08,50.00,5.00,0.00,30.00,M,10.00,M,M,M,M,M,M,M,M,M,M,M,M,M,M,M,M,30.67,K05U 210610Z AUTO 05005KT 10SM 02/01 A3000 RMK A01,M
BVU,2024-02-21 06:15,-114.8611,35.9475,671.00,50.00,48.20,93.50,0.00,0.00,0.00,30.07,M,10.00,M,FEW,BKN,OVC,M,6000.00,8500.00,11000.00,M,M,M,M,M,M,M,M,50.00,KBVU 210615Z AUTO 00000KT 10SM FEW060 BKN085 OVC110 10/09 A3007 RMK AO2,M
CXP,2024-02-21 06:15,-119.7326,39.1923,1431.00,35.60,33.80,93.08,0.00,0.00,0.00,30.02,M,10.00,M,FEW,SCT,BKN,M,3400.00,4300.00,5000.00,M,M,M,M,M,M,M,M,35.60,KCXP 210615Z AUTO 00000KT 10SM FEW034 SCT043 BKN050 02/01 A3002 RMK AO2,M
RTS,2024-02-21 06:15,-119.8764,39.6682,1539.00,33.80,32.00,93.03,M,3.00,0.00,30.02,M,3.00,M,BKN,BKN,M,M,600.00,1300.00,M,M,-SN,M,M,M,M,M,M,30.75,KRTS 210615Z AUTO VRB03KT 3SM -SN BKN006 BKN013 01/00 A3002 RMK AO2,M
MEV,2024-02-21 06:15,-119.7500,38.9963,1441.42,35.60,33.80,93.08,150.00,5.00,0.00,30.01,M,10.00,M,FEW,FEW,OVC,M,3400.00,4700.00,5500.00,M,M,M,M,M,M,M,M,30.67,KMEV 210615Z AUTO 15005KT 10SM FEW034 FEW047 OVC055 02/01 A3001 RMK AO2,M
BAM,2024-02-21 06:15,-116.8743,40.5990,1382.36,41.00,33.80,75.33,0.00,0.00,0.00,29.99,M,10.00,M,BKN,M,M,M,5500.00,M,M,M,M,M,M,M,M,M,M,41.00,KBAM 210615Z AUTO 00000KT 10SM BKN055 05/01 A2999 RMK AO1,M
HTH,2024-02-21 06:15,-118.6315,38.5448,1282.89,48.20,26.60,42.73,210.00,5.00,0.00,29.98,M,10.00,M,OVC,M,M,M,7000.00,M,M,M,M,M,M,M,M,M,M,45.63,KHTH 210615Z AUTO 21005KT 10SM OVC070 09/M03 A2998 RMK A01,M
10U,2024-02-21 06:15,-116.1876,41.9532,1637.00,33.80,28.40,80.36,100.00,8.00,0.00,29.96,M,10.00,M,FEW,OVC,M,M,7500.00,9000.00,M,M,M,M,M,M,M,M,M,26.33,K10U 210615Z AUTO 10008KT 10SM FEW075 OVC090 01/M02 A2996 RMK AO2,M
TMT,2024-02-21 06:15,-117.1971,39.4643,1749.34,33.30,32.00,94.91,190.00,6.00,0.00,29.98,M,10.00,M,CLR,M,M,M,M,M,M,M,M,M,M,M,M,M,M,27.10,KTMT 210615Z AUTO 19006KT 10SM CLR 01/00 A2998 RMK AO2 T00070000,M
HND,2024-02-21 06:16,-115.1344,35.9729,742.79,48.20,46.40,93.45,0.00,0.00,0.00,30.09,M,10.00,M,FEW,OVC,M,M,500.00,4800.00,M,M,M,M,M,M,M,M,M,48.20,KHND 210616Z AUTO 00000KT 10SM FEW005 OVC048 09/08 A3009 RMK AO2,M
ELY,2024-02-21 06:17,-114.8453,39.2950,1909.00,35.00,33.00,92.32,200.00,10.00,T,29.99,M,10.00,17.00,BKN,OVC,M,M,3000.00,3500.00,M,M,M,M,M,M,M,M,M,26.73,KELY 210617Z AUTO 20010G17KT 10SM BKN030 OVC035 02/01 A2999 RMK AO2 RAE02 P0000 T00170006,M
TPH,2024-02-21 06:18,-117.0904,38.0505,1654.00,39.00,37.00,92.45,190.00,8.00,0.00,30.00,M,10.00,M,SCT,BKN,BKN,M,1100.00,4600.00,7000.00,M,M,M,M,M,M,M,M,32.74,KTPH 210618Z AUTO 19008KT 10SM SCT011 BKN046 BKN070 04/03 A3000 RMK AO2 T00390028,M
VGT,2024-02-21 06:23,-115.1933,36.2111,667.00,51.00,50.00,96.36,120.00,3.00,0.00,30.07,M,10.00,M,SCT,BKN,OVC,M,400.00,1200.00,12000.00,M,M,M,M,M,M,M,M,51.00,KVGT 210623Z AUTO 12003KT 10SM SCT004 BKN012 OVC120 11/10 A3007 RMK AO2 T01060100,M
LAS,2024-02-21 06:23,-115.1634,36.0719,663.00,49.00,49.00,100.00,0.00,0.00,0.00,30.07,M,10.00,M,BKN,OVC,M,M,300.00,700.00,M,M,M,M,M,M,M,M,M,49.00,KLAS 210623Z 00000KT 10SM BKN003 OVC007 09/09 A3007 RMK AO2 VIS LWR SW-NW MTNS OBSCURED DSNT S-W-N T00940094,M
EKO,2024-02-21 06:27,-115.7860,40.8242,1367.00,37.00,34.00,88.78,20.00,4.00,0.03,29.97,M,10.00,M,BKN,BKN,OVC,M,1300.00,1900.00,2700.00,M,-RA,M,M,M,M,M,M,33.26,KEKO 210627Z AUTO 02004KT 10SM -RA BKN013 BKN019 OVC027 03/01 A2997 RMK AO2 P0003 T00280011,M
EKO,2024-02-21 06:34,-115.7860,40.8242,1367.00,37.00,34.00,88.78,10.00,4.00,0.04,29.97,M,10.00,M,SCT,OVC,M,M,1300.00,2500.00,M,M,-RA,M,M,M,M,M,M,33.26,KEKO 210634Z AUTO 01004KT 10SM -RA SCT013 OVC025 03/01 A2997 RMK AO2 P0004 T00280011,M
BVU,2024-02-21 06:35,-114.8611,35.9475,671.00,50.00,48.20,93.50,0.00,0.00,0.00,30.06,M,10.00,M,FEW,FEW,OVC,M,4400.00,7500.00,9000.00,M,M,M,M,M,M,M,M,50.00,KBVU 210635Z AUTO 00000KT 10SM FEW044 FEW075 OVC090 10/09 A3006 RMK AO2,M
CXP,2024-02-21 06:35,-119.7326,39.1923,1431.00,35.60,33.80,93.08,0.00,0.00,0.00,30.02,M,10.00,M,SCT,BKN,OVC,M,4200.00,4900.00,6000.00,M,M,M,M,M,M,M,M,35.60,KCXP 210635Z AUTO 00000KT 10SM SCT042 BKN049 OVC060 02/01 A3002 RMK AO2,M
RTS,2024-02-21 06:35,-119.8764,39.6682,1539.00,33.80,32.00,93.03,0.00,0.00,0.00,30.01,M,10.00,M,SCT,SCT,BKN,M,500.00,2500.00,4600.00,M,M,M,M,M,M,M,M,33.80,KRTS 210635Z AUTO 00000KT 10SM SCT005 SCT025 BKN046 01/00 A3001 RMK AO2,M
05U,2024-02-21 06:35,-116.0051,39.6042,1811.23,35.60,33.80,93.08,0.00,0.00,0.00,29.99,M,10.00,M,M,M,M,M,M,M,M,M,M,M,M,M,M,M,M,35.60,K05U 210635Z AUTO 00000KT 10SM 02/01 A2999 RMK A01,M
MEV,2024-02-21 06:35,-119.7500,38.9963,1441.42,35.60,35.60,100.00,360.00,3.00,0.00,30.00,M,10.00,M,OVC,M,M,M,5500.00,M,M,M,M,M,M,M,M,M,M,32.80,KMEV 210635Z AUTO 36003KT 10SM OVC055 02/02 A3000 RMK AO2,M
BAM,2024-02-21 06:35,-116.8743,40.5990,1382.36,41.00,35.60,80.93,90.00,5.00,0.00,29.98,M,10.00,M,BKN,OVC,M,M,4800.00,5500.00,M,M,M,M,M,M,M,M,M,37.08,KBAM 210635Z AUTO 09005KT 10SM BKN048 OVC055 05/02 A2998 RMK AO1,M
HTH,2024-02-21 06:35,-118.6315,38.5448,1282.89,46.40,26.60,45.73,240.00,6.00,0.00,29.98,M,10.00,M,BKN,OVC,M,M,7000.00,7500.00,M,M,M,M,M,M,M,M,M,42.87,KHTH 210635Z AUTO 24006KT 10SM BKN070 OVC075 08/M03 A2998 RMK A01,M
10U,2024-02-21 06:35,-116.1876,41.9532,1637.00,33.80,28.40,80.36,110.00,6.00,0.00,29.96,M,10.00,M,BKN,OVC,M,M,7000.00,9000.00,M,M,M,M,M,M,M,M,M,27.70,K10U 210635Z AUTO 11006KT 10SM BKN070 OVC090 01/M02 A2996 RMK AO2,M
TMT,2024-02-21 06:35,-117.1971,39.4643,1749.34,33.00,32.00,96.06,210.00,5.00,0.00,29.98,M,10.00,M,SCT,M,M,M,9000.00,M,M,M,M,M,M,M,M,M,M,27.58,KTMT 210635Z AUTO 21005KT 10SM SCT090 01/00 A2998 RMK AO2 T00061001,M
VGT,2024-02-21 06:39,-115.1933,36.2111,667.00,51.00,49.00,92.83,100.00,4.00,0.00,30.06,M,10.00,M,FEW,SCT,OVC,M,400.00,1200.00,6000.00,M,M,M,M,M,M,M,M,51.00,KVGT 210639Z AUTO 10004KT 10SM FEW004 SCT012 OVC060 11/09 A3006 RMK AO2 T01060094,M
EKO,2024-02-21 06:41,-115.7860,40.8242,1367.00,37.00,34.00,88.78,360.00,3.00,0.04,29.96,M,10.00,M,BKN,BKN,OVC,M,1100.00,1900.00,2500.00,M,-RA,M,M,M,M,M,M,34.40,KEKO 210641Z AUTO 36003KT 10SM -RA BKN011 BKN019 OVC025 03/01 A2996 RMK AO2 P0004 T00280011,M
LAS,2024-02-21 06:45,-115.1634,36.0719,663.00,49.00,49.00,100.00,100.00,4.00,0.00,30.07,M,10.00,M,SCT,BKN,OVC,M,300.00,900.00,4900.00,M,M,M,M,M,M,M,M,47.27,KLAS 210645Z 10004KT 10SM SCT003 BKN009 OVC049 09/09 A3007 RMK AO2 VIS LWR SW-NW MTNS OBSCURED DSNT S-W-N T00940094,M
ELY,2024-02-21 06:48,-114.8453,39.2950,1909.00,35.60,32.00,86.59,160.00,12.00,T,29.97,M,10.00,20.00,BKN,OVC,M,M,2100.00,2800.00,M,M,M,M,M,M,M,M,M,26.58,KELY 210648Z AUTO 16012G20KT 10SM BKN021 OVC028 02/00 A2997 RMK AO2 RAE02 P0000,M
EKO,2024-02-21 06:52,-115.7860,40.8242,1367.00,35.60,33.80,93.08,360.00,4.00,0.04,29.96,M,10.00,M,BKN,BKN,OVC,M,900.00,2100.00,2800.00,M,UP,M,M,M,M,M,M,31.62,KEKO 210652Z AUTO 36004KT 10SM UP BKN009 BKN021 OVC028 02/01 A2996 RMK AO2 RAE50UPB50 P0004,M
P68,2024-02-21 06:53,-116.0056,39.6014,1993.00,35.00,32.00,88.68,80.00,4.00,0.00,29.96,1012.40,M,M,M,M,M,M,M,M,M,M,M,M,M,M,M,M,M,30.92,KP68 210653Z AUTO 08004KT 02/00 A2996 RMK AO1 SLP124 T00170000,M
DRA,2024-02-21 06:53,-116.0278,36.6206,1009.00,47.00,41.00,79.52,20.00,5.00,0.00,30.03,1014.80,10.00,M,SCT,M,M,M,4400.00,M,M,M,M,M,M,M,M,M,M,44.21,KDRA 210653Z AUTO 02005KT 10SM SCT044 08/05 A3003 RMK AO2 SLP148 T00830050,M
ELY,2024-02-21 06:53,-114.8453,39.2950,1909.00,35.00,32.00,88.68,160.00,14.00,T,29.97,1012.30,10.00,22.00,BKN,OVC,M,M,2300.00,3000.00,M,M,M,M,M,M,M,M,M,25.03,KELY 210653Z AUTO 16014G22KT 10SM BKN023 OVC030 02/00 A2997 RMK AO2 RAE02 SLP123 P0000 T00170000,M
VGT,2024-02-21 06:53,-115.1933,36.2111,667.00,51.00,49.00,92.83,100.00,3.00,0.00,30.06,1019.40,10.00,M,FEW,BKN,OVC,M,700.00,6000.00,11000.00,M,M,M,M,M,M,M,M,51.00,KVGT 210653Z AUTO 10003KT 10SM FEW007 BKN060 OVC110 11/09 A3006 RMK AO2 SLP194 T01060094,M
LOL,2024-02-21 06:53,-118.5701,40.0684,1192.43,43.00,31.00,62.31,0.00,0.00,0.00,29.97,1014.60,10.00,M,BKN,OVC,M,M,7500.00,9000.00,M,M,M,M,M,M,M,M,M,43.00,KLOL 210653Z AUTO 00000KT 10SM BKN075 OVC090 06/M01 A2997 RMK AO2 SLP146 T00611006,M
EKO,2024-02-21 06:54,-115.7860,40.8242,1367.00,35.60,33.80,93.08,360.00,4.08,M,29.96,M,10.00,M,SCT,BKN,OVC,M,898.00,2099.00,2798.00,M,UP 41,M,M,M,M,M,M,31.54,SPECI KEKO 210654Z 36004KT 10SM UP SCT009 BKN021 OVC028 02/01 A2996 RMK AO2 RAE50UPB50 P0004 FIBI,M
BVU,2024-02-21 06:55,-114.8611,35.9475,671.00,50.00,48.20,93.50,0.00,0.00,0.00,30.07,M,10.00,M,FEW,SCT,BKN,M,3900.00,5000.00,7500.00,M,M,M,M,M,M,M,M,50.00,KBVU 210655Z AUTO 00000KT 10SM FEW039 SCT050 BKN075 10/09 A3007 RMK AO2,M
CXP,2024-02-21 06:55,-119.7326,39.1923,1431.00,35.60,35.60,100.00,0.00,0.00,0.00,30.02,M,9.00,M,BKN,OVC,M,M,4500.00,5500.00,M,M,M,M,M,M,M,M,M,35.60,KCXP 210655Z AUTO 00000KT 9SM BKN045 OVC055 02/02 A3002 RMK AO2,M
RNO,2024-02-21 06:55,-119.7711,39.4839,1341.00,38.00,34.00,85.35,0.00,0.00,0.01,30.00,1014.90,10.00,M,SCT,SCT,BKN,M,3000.00,8500.00,16000.00,M,M,M,M,M,M,M,M,38.00,KRNO 210655Z 00000KT 10SM SCT030 SCT085 BKN160 03/01 A3000 RMK AO2 RAE22 SLP149 P0001 T00330011,M
RTS,2024-02-21 06:55,-119.8764,39.6682,1539.00,33.80,33.80,100.00,0.00,0.00,0.01,30.01,M,10.00,M,OVC,M,M,M,500.00,M,M,M,M,M,M,M,M,M,M,33.80,KRTS 210655Z AUTO 00000KT 10SM OVC005 01/01 A3001 RMK AO2 P0001,M
05U,2024-02-21 06:55,-116.0051,39.6042,1811.23,35.60,33.80,93.08,260.00,5.00,0.00,29.99,M,10.00,M,M,M,M,M,M,M,M,M,M,M,M,M,M,M,M,30.67,K05U 210655Z AUTO 26005KT 10SM 02/01 A2999 RMK A01,M
MEV,2024-02-21 06:55,-119.7500,38.9963,1441.42,35.60,33.80,93.08,0.00,0.00,0.00,30.00,M,10.00,M,FEW,FEW,BKN,M,3100.00,3900.00,5500.00,M,M,M,M,M,M,M,M,35.60,KMEV 210655Z AUTO 00000KT 10SM FEW031 FEW039 BKN055 02/01 A3000 RMK AO2,M
BAM,2024-02-21 06:55,-116.8743,40.5990,1382.36,41.00,35.60,80.93,70.00,8.00,0.00,29.97,M,10.00,M,BKN,BKN,OVC,M,4800.00,6000.00,11000.00,M,M,M,M,M,M,M,M,35.20,KBAM 210655Z AUTO 07008KT 10SM BKN048 BKN060 OVC110 05/02 A2997 RMK AO1,M
HTH,2024-02-21 06:55,-118.6315,38.5448,1282.89,46.40,28.40,49.24,260.00,12.00,0.00,29.99,M,10.00,M,SCT,OVC,M,M,5500.00,7000.00,M,M,M,M,M,M,M,M,M,40.33,KHTH 210655Z AUTO 26012KT 10SM SCT055 OVC070 08/M02 A2999 RMK A01,M
TMT,2024-02-21 06:55,-117.1971,39.4643,1749.34,33.80,32.00,93.03,210.00,8.00,0.00,29.99,M,10.00,M,SCT,BKN,M,M,7000.00,9000.00,M,M,M,M,M,M,M,M,M,26.33,KTMT 210655Z AUTO 21008KT 10SM SCT070 BKN090 01/00 A2999 RMK AO2 T00100000,M
10U,2024-02-21 06:55,-116.1876,41.9532,1637.00,33.80,28.40,80.36,90.00,5.00,0.00,29.95,M,10.00,10.00,OVC,M,M,M,7000.00,M,M,M,M,M,M,M,M,M,M,28.53,K10U 210655Z AUTO 09005G10KT 10SM OVC070 01/M02 A2995 RMK AO2,M
INS,2024-02-21 06:55,-115.6733,36.5872,955.00,47.30,42.80,84.28,100.00,13.00,0.00,30.02,1014.80,10.00,M,FEW,BKN,M,M,5500.00,14000.00,M,M,M,M,M,M,M,M,M,41.17,KINS 210655Z AUTO 10013KT 10SM FEW055 BKN140 09/06 A3002 RMK AO2 SLP148 T00850060,M
EKO,2024-02-21 06:56,-115.7860,40.8242,1367.00,36.00,33.00,88.73,350.00,4.00,0.04,29.96,1014.70,10.00,M,SCT,BKN,OVC,M,900.00,1900.00,2800.00,M,UP,M,M,M,M,M,M,32.09,KEKO 210656Z AUTO 35004KT 10SM UP SCT009 BKN019 OVC028 02/01 A2996 RMK AO2 RAE50UPB50 SLP147 P0004 T00220006,M
WMC,2024-02-21 06:56,-117.8072,40.9019,1315.00,40.00,30.00,67.18,260.00,4.00,0.00,29.96,1013.60,10.00,M,BKN,OVC,M,M,7500.00,8500.00,M,M,M,M,M,M,M,M,M,36.76,KWMC 210656Z AUTO 26004KT 10SM BKN075 OVC085 04/M01 A2996 RMK AO2 SLP136 T00441011,M
NFL,2024-02-21 06:56,-118.7010,39.4166,1199.00,44.00,32.00,62.44,10.00,5.00,0.00,29.98,1012.50,10.00,M,BKN,OVC,M,M,5000.00,10000.00,M,M,M,M,M,M,M,M,M,40.65,KNFL 210656Z 01005KT 10SM BKN050 OVC100 07/00 A2998 RMK AO2 SLP125 T00670000,M
HND,2024-02-21 06:56,-115.1344,35.9729,742.79,49.00,46.00,89.33,0.00,0.00,0.00,30.08,1020.30,10.00,M,FEW,BKN,OVC,M,700.00,4600.00,10000.00,M,M,M,M,M,M,M,M,49.00,KHND 210656Z AUTO 00000KT 10SM FEW007 BKN046 OVC100 09/08 A3008 RMK AO2 SLP203 T00940078 401560094,M
TPH,2024-02-21 06:56,-117.0904,38.0505,1654.00,39.00,36.00,88.87,180.00,11.00,0.00,29.99,1014.20,10.00,M,FEW,BKN,BKN,M,1800.00,3900.00,5000.00,M,M,M,M,M,M,M,M,31.31,KTPH 210656Z AUTO 18011KT 10SM FEW018 BKN039 BKN050 04/02 A2999 RMK AO2 SLP142 T00390022,M
LAS,2024-02-21 06:56,-115.1634,36.0719,663.00,49.00,49.00,100.00,0.00,0.00,0.00,30.07,1017.70,10.00,M,SCT,SCT,OVC,M,400.00,900.00,4900.00,M,M,M,M,M,M,M,M,49.00,KLAS 210656Z 00000KT 10SM SCT004 SCT009 OVC049 09/09 A3007 RMK AO2 SLP177 VIS LWR SW-NW MTNS OBSCURED DSNT S-W-N T00940094,M
BVU,2024-02-21 07:15,-114.8611,35.9475,671.00,50.00,48.20,93.50,0.00,0.00,0.00,30.06,M,10.00,M,FEW,SCT,OVC,M,1500.00,6500.00,7500.00,M,M,M,M,M,M,M,M,50.00,KBVU 210715Z AUTO 00000KT 10SM FEW015 SCT065 OVC075 10/09 A3006 RMK AO2,M
CXP,2024-02-21 07:15,-119.7326,39.1923,1431.00,35.60,35.60,100.00,0.00,0.00,0.00,30.02,M,10.00,M,BKN,OVC,M,M,3600.00,4300.00,M,M,M,M,M,M,M,M,M,35.60,KCXP 210715Z AUTO 00000KT 10SM BKN036 OVC043 02/02 A3002 RMK AO2,M
RTS,2024-02-21 07:15,-119.8764,39.6682,1539.00,33.80,33.80,100.00,0.00,0.00,0.00,30.01,M,10.00,M,OVC,M,M,M,400.00,M,M,M,M,M,M,M,M,M,M,33.80,KRTS 210715Z AUTO 00000KT 10SM OVC004 01/01 A3001 RMK AO2,M
05U,2024-02-21 07:15,-116.0051,39.6042,1811.23,35.60,33.80,93.08,70.00,8.00,0.00,30.00,M,2.00,14.00,M,M,M,M,M,M,M,M,BR,M,M,M,M,M,M,28.55,K05U 210715Z AUTO 07008G14KT 2SM BR 02/01 A3000 RMK A01,M
MEV,2024-02-21 07:15,-119.7500,38.9963,1441.42,35.60,33.80,93.08,0.00,0.00,0.00,30.00,M,10.00,M,BKN,M,M,M,5500.00,M,M,M,M,M,M,M,M,M,M,35.60,KMEV 210715Z AUTO 00000KT 10SM BKN055 02/01 A3000 RMK AO2,M
BAM,2024-02-21 07:15,-116.8743,40.5990,1382.36,42.80,35.60,75.50,90.00,6.00,0.00,29.97,M,10.00,M,BKN,BKN,OVC,M,4600.00,6000.00,12000.00,M,M,M,M,M,M,M,M,38.54,KBAM 210715Z AUTO 09006KT 10SM BKN046 BKN060 OVC120 06/02 A2997 RMK AO1,M
HTH,2024-02-21 07:15,-118.6315,38.5448,1282.89,46.40,30.20,53.00,240.00,8.00,0.00,29.99,M,10.00,14.00,FEW,SCT,OVC,M,3100.00,4600.00,5500.00,M,M,M,M,M,M,M,M,41.85,KHTH 210715Z AUTO 24008G14KT 10SM FEW031 SCT046 OVC055 08/M01 A2999 RMK A01,M
10U,2024-02-21 07:15,-116.1876,41.9532,1637.00,33.80,28.40,80.36,0.00,0.00,0.00,29.95,M,10.00,M,OVC,M,M,M,7500.00,M,M,M,M,M,M,M,M,M,M,33.80,K10U 210715Z AUTO 00000KT 10SM OVC075 01/M02 A2995 RMK AO2,M
TMT,2024-02-21 07:15,-117.1971,39.4643,1749.34,34.00,32.00,92.29,220.00,8.00,0.00,29.98,M,10.00,M,BKN,OVC,M,M,7500.00,9000.00,M,M,M,M,M,M,M,M,M,26.58,KTMT 210715Z AUTO 22008KT 10SM BKN075 OVC090 01/00 A2998 RMK AO2 T00120000,M
EKO,2024-02-21 07:18,-115.7860,40.8242,1367.00,36.00,33.00,88.73,50.00,3.00,T,29.95,M,10.00,M,BKN,OVC,M,M,3000.00,3900.00,M,M,M,M,M,M,M,M,M,33.26,KEKO 210718Z AUTO 05003KT 10SM BKN030 OVC039 02/01 A2995 RMK AO2 UPE04 P0000 T00220006,M
ELY,2024-02-21 07:18,-114.8453,39.2950,1909.00,35.00,32.00,88.68,170.00,17.00,0.00,29.96,M,10.00,25.00,SCT,BKN,BKN,M,2700.00,3200.00,5000.00,M,M,M,M,M,M,M,M,24.01,KELY 210718Z AUTO 17017G25KT 10SM SCT027 BKN032 BKN050 02/00 A2996 RMK AO2 T00170000,M
VGT,2024-02-21 07:20,-115.1933,36.2111,667.00,51.00,49.00,92.83,100.00,3.00,0.00,30.05,M,10.00,M,BKN,OVC,M,M,1000.00,5500.00,M,M,M,M,M,M,M,M,M,51.00,KVGT 210720Z AUTO 10003KT 10SM BKN010 OVC055 11/09 A3005 RMK AO2 CIG 004V013 T01060094,M
VGT,2024-02-21 07:33,-115.1933,36.2111,667.00,51.00,50.00,96.36,0.00,0.00,0.00,30.06,M,10.00,M,BKN,OVC,M,M,900.00,5500.00,M,M,M,M,M,M,M,M,M,51.00,KVGT 210733Z AUTO 00000KT 10SM BKN009 OVC055 11/10 A3006 RMK AO2 CIG 007V013 T01060100,M
BVU,2024-02-21 07:35,-114.8611,35.9475,671.00,50.00,48.20,93.50,0.00,0.00,0.00,30.06,M,10.00,M,FEW,BKN,OVC,M,6500.00,7500.00,9000.00,M,M,M,M,M,M,M,M,50.00,KBVU 210735Z AUTO 00000KT 10SM FEW065 BKN075 OVC090 10/09 A3006 RMK AO2,M
CXP,2024-02-21 07:35,-119.7326,39.1923,1431.00,35.60,35.60,100.00,0.00,0.00,0.00,30.01,M,10.00,M,BKN,BKN,OVC,M,3000.00,3500.00,4100.00,M,M,M,M,M,M,M,M,35.60,KCXP 210735Z AUTO 00000KT 10SM BKN030 BKN035 OVC041 02/02 A3001 RMK AO2,M
RTS,2024-02-21 07:35,-119.8764,39.6682,1539.00,33.80,33.80,100.00,320.00,3.00,0.00,30.00,M,10.00,M,OVC,M,M,M,400.00,M,M,M,M,M,M,M,M,M,M,30.75,KRTS 210735Z AUTO 32003KT 10SM OVC004 01/01 A3000 RMK AO2,M
05U,2024-02-21 07:35,-116.0051,39.6042,1811.23,33.80,32.00,93.03,60.00,5.00,0.00,29.99,M,1.50,M,M,M,M,M,M,M,M,M,BR,M,M,M,M,M,M,28.53,K05U 210735Z AUTO 06005KT 1 1/2SM BR 01/00 A2999 RMK A01,M
MEV,2024-02-21 07:35,-119.7500,38.9963,1441.42,35.60,33.80,93.08,0.00,0.00,0.00,30.00,M,10.00,M,BKN,OVC,M,M,5000.00,6000.00,M,M,M,M,M,M,M,M,M,35.60,KMEV 210735Z AUTO 00000KT 10SM BKN050 OVC060 02/01 A3000 RMK AO2,M
BAM,2024-02-21 07:35,-116.8743,40.5990,1382.36,42.80,35.60,75.50,70.00,5.00,0.00,29.97,M,10.00,M,SCT,OVC,M,M,4300.00,4900.00,M,M,M,M,M,M,M,M,M,39.22,KBAM 210735Z AUTO 07005KT 10SM SCT043 OVC049 06/02 A2997 RMK AO1,M
HTH,2024-02-21 07:35,-118.6315,38.5448,1282.89,42.80,33.80,70.28,10.00,9.00,0.00,30.00,M,10.00,M,FEW,SCT,BKN,M,2600.00,3200.00,5000.00,M,M,M,M,M,M,M,M,36.94,KHTH 210735Z AUTO 01009KT 10SM FEW026 SCT032 BKN050 06/01 A3000 RMK A01,M
TMT,2024-02-21 07:35,-117.1971,39.4643,1749.34,35.40,31.60,85.89,220.00,8.00,0.00,29.97,M,10.00,M,BKN,OVC,M,M,5000.00,6500.00,M,M,M,M,M,M,M,M,M,28.30,KTMT 210735Z AUTO 22008KT 10SM BKN050 OVC065 02/00 A2997 RMK AO2 T00191002,M
10U,2024-02-21 07:35,-116.1876,41.9532,1637.00,33.80,28.40,80.36,0.00,0.00,0.00,29.95,M,10.00,M,OVC,M,M,M,7500.00,M,M,M,M,M,M,M,M,M,M,33.80,K10U 210735Z AUTO 00000KT 10SM OVC075 01/M02 A2995 RMK AO2,M
EKO,2024-02-21 07:39,-115.7860,40.8242,1367.00,36.00,33.00,88.73,0.00,0.00,T,29.95,M,10.00,M,SCT,BKN,OVC,M,1800.00,2500.00,3300.00,M,M,M,M,M,M,M,M,36.00,KEKO 210739Z AUTO 00000KT 10SM SCT018 BKN025 OVC033 02/01 A2995 RMK AO2 UPE04 P0000 T00220006,M
VGT,2024-02-21 07:41,-115.1933,36.2111,667.00,51.00,49.00,92.83,90.00,4.00,0.00,30.05,M,10.00,M,FEW,BKN,OVC,M,900.00,6000.00,11000.00,M,M,M,M,M,M,M,M,51.00,KVGT 210741Z AUTO 09004KT 10SM FEW009 BKN060 OVC110 11/09 A3005 RMK AO2 T01060094,M
P68,2024-02-21 07:53,-116.0056,39.6014,1993.00,33.00,32.00,96.06,150.00,3.00,0.07,29.96,1012.30,M,M,M,M,M,M,M,M,M,M,M,M,M,M,M,M,M,29.83,KP68 210753Z AUTO 15003KT 01/00 A2996 RMK AO1 SLP123 P0007 T00060000 400941017,M
DRA,2024-02-21 07:53,-116.0278,36.6206,1009.00,47.00,41.00,79.52,340.00,4.00,0.00,30.01,1014.30,10.00,M,SCT,BKN,M,M,4100.00,4900.00,M,M,M,M,M,M,M,M,M,44.94,KDRA 210753Z AUTO 34004KT 10SM SCT041 BKN049 08/05 A3001 RMK AO2 SLP143 T00830050 401500083,M
ELY,2024-02-21 07:53,-114.8453,39.2950,1909.00,36.00,31.00,81.86,150.00,15.00,0.00,29.96,1011.70,10.00,27.00,OVC,M,M,M,3000.00,M,M,M,M,M,M,M,32.00,180.00,2024-02-21 07:38,25.97,KELY 210753Z AUTO 15015G27KT 10SM OVC030 02/M01 A2996 RMK AO2 PK WND 18032/0738 SLP117 T00221006 400830011,M
VGT,2024-02-21 07:53,-115.1933,36.2111,667.00,51.00,50.00,96.36,0.00,0.00,0.00,30.05,1019.00,10.00,M,SCT,BKN,OVC,M,800.00,6000.00,11000.00,M,M,M,M,M,M,M,M,51.00,KVGT 210753Z AUTO 00000KT 10SM SCT008 BKN060 OVC110 11/10 A3005 RMK AO2 SLP190 T01060100 401720106,M
LOL,2024-02-21 07:53,-118.5701,40.0684,1192.43,41.00,32.00,70.08,M,3.00,0.00,29.97,1014.70,10.00,M,OVC,M,M,M,8000.00,M,M,M,M,M,M,M,M,M,M,38.98,KLOL 210753Z AUTO VRB03KT 10SM OVC080 05/00 A2997 RMK AO2 SLP147 T00500000 401221044,M
BVU,2024-02-21 07:55,-114.8611,35.9475,671.00,50.00,48.20,93.50,0.00,0.00,0.00,30.05,M,10.00,M,FEW,OVC,M,M,7500.00,9000.00,M,M,M,M,M,M,M,M,M,50.00,KBVU 210755Z AUTO 00000KT 10SM FEW075 OVC090 10/09 A3005 RMK AO2,M
CXP,2024-02-21 07:55,-119.7326,39.1923,1431.00,35.60,33.80,93.08,0.00,0.00,0.00,30.01,M,10.00,M,FEW,SCT,BKN,M,3000.00,3400.00,5500.00,M,M,M,M,M,M,M,M,35.60,KCXP 210755Z AUTO 00000KT 10SM FEW030 SCT034 BKN055 02/01 A3001 RMK AO2,M
RNO,2024-02-21 07:55,-119.7711,39.4839,1341.00,38.00,34.00,85.35,300.00,3.00,0.00,30.00,1014.70,10.00,M,SCT,SCT,BKN,M,1200.00,3000.00,5500.00,M,M,M,M,M,M,M,M,35.55,KRNO 210755Z 30003KT 10SM SCT012 SCT030 BKN055 03/01 A3000 RMK AO2 SLP147 T00330011 401330011,M
RTS,2024-02-21 07:55,-119.8764,39.6682,1539.00,33.80,33.80,100.00,0.00,0.00,0.00,30.01,M,10.00,M,OVC,M,M,M,400.00,M,M,M,M,M,M,M,M,M,M,33.80,KRTS 210755Z AUTO 00000KT 10SM OVC004 01/01 A3001 RMK AO2,M
05U,2024-02-21 07:55,-116.0051,39.6042,1811.23,33.80,32.00,93.03,0.00,0.00,0.01,29.99,M,9.00,M,M,M,M,M,M,M,M,M,M,M,M,M,M,M,M,33.80,K05U 210755Z AUTO 00000KT 9SM 01/00 A2999 RMK A01 P0001,M
MEV,2024-02-21 07:55,-119.7500,38.9963,1441.42,33.80,32.00,93.03,0.00,0.00,0.00,30.00,M,10.00,M,SCT,M,M,M,5500.00,M,M,M,M,M,M,M,M,M,M,33.80,KMEV 210755Z AUTO 00000KT 10SM SCT055 01/00 A3000 RMK AO2,M
BAM,2024-02-21 07:55,-116.8743,40.5990,1382.36,41.00,35.60,80.93,40.00,7.00,0.00,29.97,M,10.00,M,SCT,OVC,M,M,4000.00,4900.00,M,M,M,M,M,M,M,M,M,35.75,KBAM 210755Z AUTO 04007KT 10SM SCT040 OVC049 05/02 A2997 RMK AO1,M
HTH,2024-02-21 07:55,-118.6315,38.5448,1282.89,44.60,32.00,61.03,20.00,8.00,0.00,30.00,M,10.00,M,FEW,BKN,OVC,M,3200.00,5500.00,7500.00,M,M,M,M,M,M,M,M,39.63,KHTH 210755Z AUTO 02008KT 10SM FEW032 BKN055 OVC075 07/00 A3000 RMK A01,M
TMT,2024-02-21 07:55,-117.1971,39.4643,1749.34,34.30,32.00,91.19,210.00,8.00,0.00,29.98,M,10.00,M,OVC,M,M,M,5000.00,M,M,M,M,M,M,M,M,M,M,26.95,KTMT 210755Z AUTO 21008KT 10SM OVC050 01/00 A2998 RMK AO2 T00130000 400991049,M
10U,2024-02-21 07:55,-116.1876,41.9532,1637.00,35.60,28.40,74.80,110.00,4.00,0.00,29.95,M,10.00,M,OVC,M,M,M,7500.00,M,M,M,M,M,M,M,M,M,M,31.62,K10U 210755Z AUTO 11004KT 10SM OVC075 02/M02 A2995 RMK AO2,M
INS,2024-02-21 07:55,-115.6733,36.5872,955.00,46.00,41.70,84.84,120.00,4.00,0.00,30.02,1015.00,10.00,M,CLR,M,M,M,M,M,M,M,M,M,M,M,M,M,M,43.77,KINS 210755Z AUTO 12004KT 10SM CLR 08/05 A3002 RMK AO2 SLP150 T00780054 401460077,M
LSV,2024-02-21 07:55,-115.0343,36.2362,570.00,51.80,49.00,90.13,50.00,4.00,0.00,30.02,1016.00,10.00,M,BKN,BKN,M,M,6000.00,10000.00,M,M,M,M,M,M,M,M,M,51.80,KLSV 210755Z AUTO 05004KT 10SM BKN060 BKN100 11/09 A3002 RMK AO2 SLP160 T01100094 401730109 $,M
EKO,2024-02-21 07:56,-115.7860,40.8242,1367.00,36.00,34.00,92.35,0.00,0.00,0.01,29.95,1014.20,10.00,M,BKN,OVC,M,M,1500.00,2500.00,M,M,M,M,M,M,M,M,M,36.00,KEKO 210756Z AUTO 00000KT 10SM BKN015 OVC025 02/01 A2995 RMK AO2 UPE04 SLP142 P0001 T00220011 401110000,M
WMC,2024-02-21 07:56,-117.8072,40.9019,1315.00,41.00,29.00,62.04,280.00,6.00,0.00,29.96,1013.30,10.00,M,OVC,M,M,M,9000.00,M,M,M,M,M,M,M,M,M,M,36.37,KWMC 210756Z AUTO 28006KT 10SM OVC090 05/M02 A2996 RMK AO2 SLP133 T00501017 401281033,M
NFL,2024-02-21 07:56,-118.7010,39.4166,1199.00,43.00,33.00,67.54,0.00,0.00,0.00,29.99,1012.50,10.00,M,BKN,OVC,M,M,6500.00,8000.00,M,M,M,M,M,M,M,M,M,43.00,KNFL 210756Z AUTO 00000KT 10SM BKN065 OVC080 06/01 A2999 RMK AO2 SLP125 T00610006 401501028,M
HND,2024-02-21 07:56,-115.1344,35.9729,742.79,48.00,46.00,92.74,170.00,3.00,0.00,30.07,1019.70,10.00,M,OVC,M,M,M,10000.00,M,M,M,M,M,M,M,M,M,M,46.98,KHND 210756Z AUTO 17003KT 10SM OVC100 09/08 A3007 RMK AO2 SLP197 T00890078,M
TPH,2024-02-21 07:56,-117.0904,38.0505,1654.00,38.00,36.00,92.42,130.00,5.00,0.00,29.99,1014.20,10.00,M,BKN,BKN,OVC,M,1400.00,3700.00,4400.00,M,M,M,M,M,M,M,M,33.52,KTPH 210756Z AUTO 13005KT 10SM BKN014 BKN037 OVC044 03/02 A2999 RMK AO2 SLP142 T00330022 401000006,M
LAS,2024-02-21 07:56,-115.1634,36.0719,663.00,49.00,49.00,100.00,0.00,0.00,0.00,30.05,1017.20,10.00,M,SCT,SCT,OVC,M,300.00,5500.00,10000.00,M,M,M,M,M,M,M,M,49.00,KLAS 210756Z 00000KT 10SM SCT003 SCT055 OVC100 09/09 A3005 RMK AO2 SLP172 VIS LWR SW-NW SCT003 V FEW TOPS OF BUILDINGS OBSCURED W-NW MTNS OBSCURED DSNT S-W-N T00940094 401560094,M
EKO,2024-02-21 08:06,-115.7860,40.8242,1367.00,36.00,34.00,92.35,0.00,0.00,T,29.95,M,9.00,M,OVC,M,M,M,1300.00,M,M,M,UP,M,M,M,M,M,M,36.00,KEKO 210806Z AUTO 00000KT 9SM UP OVC013 02/01 A2995 RMK AO2 UPB00 P0000 T00220011,M
ELY,2024-02-21 08:10,-114.8453,39.2950,1909.00,36.00,31.00,81.86,140.00,17.00,0.00,29.96,M,10.00,27.00,BKN,BKN,OVC,M,2900.00,3600.00,5500.00,M,M,M,M,M,27.00,160.00,2024-02-21 08:02,25.32,KELY 210810Z AUTO 14017G27KT 10SM BKN029 BKN036 OVC055 02/M01 A2996 RMK AO2 PK WND 16027/0802 T00221006,M
VGT,2024-02-21 08:13,-115.1933,36.2111,667.00,51.00,49.00,92.83,0.00,0.00,0.00,30.04,M,10.00,M,BKN,OVC,M,M,600.00,11000.00,M,M,M,M,M,M,M,M,M,51.00,KVGT 210813Z AUTO 00000KT 10SM BKN006 OVC110 11/09 A3004 RMK AO2 CIG 005V008 T01060094,M
BVU,2024-02-21 08:15,-114.8611,35.9475,671.00,50.00,48.20,93.50,0.00,0.00,0.00,30.04,M,10.00,M,FEW,OVC,M,M,8000.00,9500.00,M,M,M,M,M,M,M,M,M,50.00,KBVU 210815Z AUTO 00000KT 10SM FEW080 OVC095 10/09 A3004 RMK AO2,M
CXP,2024-02-21 08:15,-119.7326,39.1923,1431.00,33.80,33.80,100.00,0.00,0.00,0.00,30.00,M,10.00,M,FEW,M,M,M,5500.00,M,M,M,M,M,M,M,M,M,M,33.80,KCXP 210815Z AUTO 00000KT 10SM FEW055 01/01 A3000 RMK AO2,M
RTS,2024-02-21 08:15,-119.8764,39.6682,1539.00,33.80,33.80,100.00,340.00,4.00,0.00,30.00,M,10.00,M,OVC,M,M,M,400.00,M,M,M,M,M,M,M,M,M,M,29.52,KRTS 210815Z AUTO 34004KT 10SM OVC004 01/01 A3000 RMK AO2,M
05U,2024-02-21 08:15,-116.0051,39.6042,1811.23,33.80,32.00,93.03,0.00,0.00,0.00,29.98,M,10.00,M,M,M,M,M,M,M,M,M,M,M,M,M,M,M,M,33.80,K05U 210815Z AUTO 00000KT 10SM 01/00 A2998 RMK A01,M
MEV,2024-02-21 08:15,-119.7500,38.9963,1441.42,32.00,32.00,100.00,50.00,3.00,0.00,29.99,M,10.00,M,CLR,M,M,M,M,M,M,M,M,M,M,M,M,M,M,28.69,KMEV 210815Z AUTO 05003KT 10SM CLR 00/M00 A2999 RMK AO2,M
BAM,2024-02-21 08:15,-116.8743,40.5990,1382.36,41.00,35.60,80.93,80.00,10.00,0.00,29.96,M,10.00,M,SCT,OVC,M,M,4000.00,4700.00,M,M,M,M,M,M,M,M,M,34.25,KBAM 210815Z AUTO 08010KT 10SM SCT040 OVC047 05/02 A2996 RMK AO1,M
HTH,2024-02-21 08:15,-118.6315,38.5448,1282.89,44.60,32.00,61.03,320.00,5.00,0.00,30.00,M,10.00,M,SCT,BKN,OVC,M,3800.00,5500.00,7000.00,M,M,M,M,M,M,M,M,41.36,KHTH 210815Z AUTO 32005KT 10SM SCT038 BKN055 OVC070 07/00 A3000 RMK A01,M
10U,2024-02-21 08:15,-116.1876,41.9532,1637.00,33.80,28.40,80.36,210.00,6.00,0.00,29.95,M,10.00,M,SCT,OVC,M,M,7500.00,9000.00,M,M,M,M,M,M,M,M,M,27.70,K10U 210815Z AUTO 21006KT 10SM SCT075 OVC090 01/M02 A2995 RMK AO2,M
TMT,2024-02-21 08:15,-117.1971,39.4643,1749.34,34.70,32.00,89.75,210.00,5.00,0.00,29.98,M,10.00,M,OVC,M,M,M,5000.00,M,M,M,M,M,M,M,M,M,M,29.60,KTMT 210815Z AUTO 21005KT 10SM OVC050 02/00 A2998 RMK AO2 T00150000,M
ELY,2024-02-21 08:22,-114.8453,39.2950,1909.00,36.00,31.00,81.86,140.00,19.00,0.00,29.95,M,10.00,26.00,SCT,BKN,BKN,M,2700.00,3400.00,5500.00,M,M,M,M,M,27.00,160.00,2024-02-21 08:02,24.73,KELY 210822Z AUTO 14019G26KT 10SM SCT027 BKN034 BKN055 02/M01 A2995 RMK AO2 PK WND 16027/0802 T00221006,M
TPH,2024-02-21 08:24,-117.0904,38.0505,1654.00,38.00,36.00,92.42,190.00,8.00,0.00,29.98,M,10.00,M,SCT,OVC,M,M,1300.00,3600.00,M,M,M,M,M,M,M,M,M,31.50,KTPH 210824Z AUTO 19008KT 10SM SCT013 OVC036 03/02 A2998 RMK AO2 T00330022,M
VGT,2024-02-21 08:33,-115.1933,36.2111,667.00,51.00,49.00,92.83,0.00,0.00,0.00,30.03,M,9.00,M,OVC,M,M,M,500.00,M,M,M,M,M,M,M,M,M,M,51.00,KVGT 210833Z AUTO 00000KT 9SM OVC005 11/09 A3003 RMK AO2 T01060094,M
BVU,2024-02-21 08:35,-114.8611,35.9475,671.00,48.20,48.20,100.00,0.00,0.00,0.00,30.04,M,10.00,M,OVC,M,M,M,10000.00,M,M,M,M,M,M,M,M,M,M,48.20,KBVU 210835Z AUTO 00000KT 10SM OVC100 09/09 A3004 RMK AO2,M
CXP,2024-02-21 08:35,-119.7326,39.1923,1431.00,33.80,33.80,100.00,0.00,0.00,0.00,30.00,M,10.00,M,SCT,M,M,M,4400.00,M,M,M,M,M,M,M,M,M,M,33.80,KCXP 210835Z AUTO 00000KT 10SM SCT044 01/01 A3000 RMK AO2,M
RTS,2024-02-21 08:35,-119.8764,39.6682,1539.00,33.80,33.80,100.00,0.00,0.00,0.00,30.00,M,10.00,M,OVC,M,M,M,400.00,M,M,M,M,M,M,M,M,M,M,33.80,KRTS 210835Z AUTO 00000KT 10SM OVC004 01/01 A3000 RMK AO2,M
05U,2024-02-21 08:35,-116.0051,39.6042,1811.23,33.80,32.00,93.03,0.00,0.00,0.00,29.99,M,10.00,M,M,M,M,M,M,M,M,M,M,M,M,M,M,M,M,33.80,K05U 210835Z AUTO 00000KT 10SM 01/00 A2999 RMK A01,M
MEV,2024-02-21 08:35,-119.7500,38.9963,1441.42,32.00,32.00,100.00,0.00,0.00,0.00,29.99,M,10.00,M,CLR,M,M,M,M,M,M,M,M,M,M,M,M,M,M,32.00,KMEV 210835Z AUTO 00000KT 10SM CLR 00/00 A2999 RMK AO2,M
BAM,2024-02-21 08:35,-116.8743,40.5990,1382.36,41.00,35.60,80.93,100.00,6.00,0.00,29.97,M,10.00,M,OVC,M,M,M,4700.00,M,M,M,M,M,M,M,M,M,M,36.37,KBAM 210835Z AUTO 10006KT 10SM OVC047 05/02 A2997 RMK AO1,M
HTH,2024-02-21 08:35,-118.6315,38.5448,1282.89,42.80,33.80,70.28,M,5.00,0.00,30.01,M,10.00,M,SCT,BKN,OVC,M,2800.00,4000.00,5000.00,M,M,M,M,M,M,M,M,39.22,KHTH 210835Z AUTO VRB05KT 10SM SCT028 BKN040 OVC050 06/01 A3001 RMK A01,M
10U,2024-02-21 08:35,-116.1876,41.9532,1637.00,32.00,28.40,86.39,180.00,4.00,0.00,29.95,M,10.00,M,BKN,OVC,M,M,7500.00,9000.00,M,M,M,M,M,M,M,M,M,27.42,K10U 210835Z AUTO 18004KT 10SM BKN075 OVC090 M00/M02 A2995 RMK AO2,M
TMT,2024-02-21 08:35,-117.1971,39.4643,1749.34,34.00,32.00,92.29,210.00,5.00,0.00,29.97,M,10.00,M,SCT,OVC,M,M,5000.00,9000.00,M,M,M,M,M,M,M,M,M,28.77,KTMT 210835Z AUTO 21005KT 10SM SCT050 OVC090 01/00 A2997 RMK AO2 T00120000,M
TPH,2024-02-21 08:44,-117.0904,38.0505,1654.00,38.00,36.00,92.42,60.00,6.00,0.00,29.98,M,10.00,M,SCT,SCT,OVC,M,500.00,1500.00,3500.00,M,M,M,M,M,M,M,M,32.76,KTPH 210844Z AUTO 06006KT 10SM SCT005 SCT015 OVC035 03/02 A2998 RMK AO2 T00330022,M
TPH,2024-02-21 08:47,-117.0904,38.0505,1654.00,38.00,36.00,92.42,60.00,6.00,0.00,29.98,M,10.00,M,BKN,BKN,OVC,M,500.00,1500.00,3500.00,M,M,M,M,M,M,M,M,32.76,KTPH 210847Z AUTO 06006KT 10SM BKN005 BKN015 OVC035 03/02 A2998 RMK AO2 T00330022,M
05U,2024-02-21 08:50,-116.0051,39.6042,1811.23,33.80,32.00,93.03,360.00,6.00,0.00,29.99,M,4.00,M,M,M,M,M,M,M,M,M,BR,M,M,M,M,M,M,27.70,K05U 210850Z AUTO 36006KT 4SM BR 01/00 A2999 RMK A01,M
P68,2024-02-21 08:53,-116.0056,39.6014,1993.00,33.00,32.00,96.06,190.00,8.00,0.00,29.97,1012.50,M,M,M,M,M,M,M,M,M,M,M,M,M,M,M,M,M,25.34,KP68 210853Z AUTO 19008KT 01/00 A2997 RMK AO1 SLP125 60007 T00060000 55001,M
DRA,2024-02-21 08:53,-116.0278,36.6206,1009.00,44.00,41.00,89.11,110.00,5.00,0.00,30.00,1014.00,10.00,M,CLR,M,M,M,M,M,M,M,M,M,M,M,M,M,M,40.65,KDRA 210853Z AUTO 11005KT 10SM CLR 07/05 A3000 RMK AO2 SLP140 T00670050 58011,M
ELY,2024-02-21 08:53,-114.8453,39.2950,1909.00,36.00,30.00,78.60,140.00,17.00,0.00,29.95,1011.40,10.00,26.00,OVC,M,M,M,3500.00,M,M,M,M,M,M,M,31.00,140.00,2024-02-21 08:34,25.32,KELY 210853Z AUTO 14017G26KT 10SM OVC035 02/M01 A2995 RMK AO2 PK WND 14031/0834 SLP114 60000 T00221011 58006,M
VGT,2024-02-21 08:53,-115.1933,36.2111,667.00,51.00,49.00,92.83,0.00,0.00,0.00,30.02,1018.10,8.00,M,OVC,M,M,M,400.00,M,M,M,M,M,M,M,M,M,M,51.00,KVGT 210853Z AUTO 00000KT 8SM OVC004 11/09 A3002 RMK AO2 SLP181 T01060094 58012,M
LOL,2024-02-21 08:53,-118.5701,40.0684,1192.43,41.00,34.00,75.94,80.00,6.00,0.00,29.98,1014.60,10.00,M,OVC,M,M,M,6000.00,M,M,M,M,M,M,M,M,M,M,36.37,KLOL 210853Z AUTO 08006KT 10SM OVC060 05/01 A2998 RMK AO2 SLP146 T00500011 51003,M
EKO,2024-02-21 08:54,-115.7860,40.8242,1367.00,35.60,33.80,93.08,0.00,0.00,0.02,29.94,M,10.00,M,FEW,BKN,OVC,M,600.00,1300.00,1800.00,M,-RA,M,M,M,M,M,M,35.60,KEKO 210854Z AUTO 00000KT 10SM -RA FEW006 BKN013 OVC018 02/01 A2994 RMK AO2 UPB00E07RAB07 P0002,M
BVU,2024-02-21 08:55,-114.8611,35.9475,671.00,48.20,48.20,100.00,0.00,0.00,0.00,30.03,M,10.00,M,OVC,M,M,M,9000.00,M,M,M,M,M,M,M,M,M,M,48.20,KBVU 210855Z AUTO 00000KT 10SM OVC090 09/09 A3003 RMK AO2,M
CXP,2024-02-21 08:55,-119.7326,39.1923,1431.00,33.80,33.80,100.00,0.00,0.00,0.00,30.00,M,10.00,M,FEW,M,M,M,4500.00,M,M,M,M,M,M,M,M,M,M,33.80,KCXP 210855Z AUTO 00000KT 10SM FEW045 01/01 A3000 RMK AO2,M
RNO,2024-02-21 08:55,-119.7711,39.4839,1341.00,38.00,34.00,85.35,350.00,3.00,0.00,29.99,1014.30,10.00,M,SCT,BKN,BKN,M,1000.00,3000.00,5500.00,M,M,M,M,M,M,M,M,35.55,KRNO 210855Z 35003KT 10SM SCT010 BKN030 BKN055 03/01 A2999 RMK AO2 SLP143 60001 T00330011 56007,M
LSV,2024-02-21 08:55,-115.0343,36.2362,570.00,51.00,49.00,92.83,100.00,3.00,0.00,30.00,1015.40,10.00,M,FEW,M,M,M,12000.00,M,M,M,M,M,M,M,M,M,M,51.00,KLSV 210855Z AUTO 10003KT 10SM FEW120 11/09 A3000 RMK AO2 SLP154 T01060094 $,M
RTS,2024-02-21 08:55,-119.8764,39.6682,1539.00,33.80,33.80,100.00,0.00,0.00,0.00,29.99,M,8.00,M,OVC,M,M,M,300.00,M,M,M,M,M,M,M,M,M,M,33.80,KRTS 210855Z AUTO 00000KT 8SM OVC003 01/01 A2999 RMK AO2,M
MEV,2024-02-21 08:55,-119.7500,38.9963,1441.42,32.00,30.20,92.97,0.00,0.00,0.00,29.99,M,10.00,M,CLR,M,M,M,M,M,M,M,M,M,M,M,M,M,M,32.00,KMEV 210855Z AUTO 00000KT 10SM CLR M00/M01 A2999 RMK AO2,M
BAM,2024-02-21 08:55,-116.8743,40.5990,1382.36,41.00,35.60,80.93,80.00,8.00,0.00,29.96,M,10.00,M,BKN,OVC,M,M,4900.00,6500.00,M,M,M,M,M,M,M,M,M,35.20,KBAM 210855Z AUTO 08008KT 10SM BKN049 OVC065 05/02 A2996 RMK AO1,M
HTH,2024-02-21 08:55,-118.6315,38.5448,1282.89,42.80,33.80,70.28,340.00,3.00,0.00,30.00,M,10.00,M,FEW,SCT,BKN,M,2600.00,4900.00,6500.00,M,M,M,M,M,M,M,M,41.03,KHTH 210855Z AUTO 34003KT 10SM FEW026 SCT049 BKN065 06/01 A3000 RMK A01,M
TMT,2024-02-21 08:55,-117.1971,39.4643,1749.34,33.80,32.00,93.03,220.00,3.00,0.00,29.97,M,10.00,M,OVC,M,M,M,9000.00,M,M,M,M,M,M,M,M,M,M,30.75,KTMT 210855Z AUTO 22003KT 10SM OVC090 01/00 A2997 RMK AO2 T00100000,M
10U,2024-02-21 08:55,-116.1876,41.9532,1637.00,32.00,28.40,86.39,90.00,4.00,0.00,29.94,M,10.00,M,SCT,OVC,M,M,6000.00,7500.00,M,M,M,M,M,M,M,M,M,27.42,K10U 210855Z AUTO 09004KT 10SM SCT060 OVC075 M00/M02 A2994 RMK AO2,M
INS,2024-02-21 08:55,-115.6733,36.5872,955.00,45.50,42.40,88.83,150.00,6.00,0.00,30.00,1014.30,10.00,M,FEW,M,M,M,4100.00,M,M,M,M,M,M,M,M,M,M,41.79,KINS 210855Z AUTO 15006KT 10SM FEW041 08/06 A3000 RMK AO2 SLP143 T00750058 57011,M
EKO,2024-02-21 08:56,-115.7860,40.8242,1367.00,36.00,34.00,92.35,0.00,0.00,0.02,29.94,1013.30,10.00,M,FEW,OVC,M,M,600.00,1500.00,M,M,-RA,M,M,M,M,M,M,36.00,KEKO 210856Z AUTO 00000KT 10SM -RA FEW006 OVC015 02/01 A2994 RMK AO2 UPB00E07RAB07 SLP133 P0002 60007 T00220011 56005,M
WMC,2024-02-21 08:56,-117.8072,40.9019,1315.00,41.00,30.00,64.63,260.00,11.00,0.00,29.95,1013.00,10.00,17.00,BKN,OVC,M,M,7000.00,9000.00,M,M,M,M,M,M,M,M,M,33.84,KWMC 210856Z AUTO 26011G17KT 10SM BKN070 OVC090 05/M01 A2995 RMK AO2 SLP130 T00501011 58002,M
NFL,2024-02-21 08:56,-118.7010,39.4166,1199.00,42.00,33.00,70.19,0.00,0.00,0.00,29.98,1012.40,10.00,M,BKN,OVC,M,M,6500.00,11000.00,M,M,M,M,M,M,M,M,M,42.00,KNFL 210856Z AUTO 00000KT 10SM BKN065 OVC110 06/01 A2998 RMK AO2 SLP124 T00560006 50001,M
HND,2024-02-21 08:56,-115.1344,35.9729,742.79,48.00,46.00,92.74,160.00,3.00,0.00,30.04,1018.90,10.00,M,OVC,M,M,M,11000.00,M,M,M,M,M,M,M,M,M,M,46.98,KHND 210856Z AUTO 16003KT 10SM OVC110 09/08 A3004 RMK AO2 SLP189 T00890078 58017,M
TPH,2024-02-21 08:56,-117.0904,38.0505,1654.00,38.00,36.00,92.42,100.00,6.00,0.00,29.98,1013.90,10.00,M,BKN,BKN,OVC,M,500.00,1400.00,3500.00,M,M,M,M,M,M,M,M,32.76,KTPH 210856Z AUTO 10006KT 10SM BKN005 BKN014 OVC035 03/02 A2998 RMK AO2 SLP139 T00330022 56006,M
LAS,2024-02-21 08:56,-115.1634,36.0719,663.00,49.00,49.00,100.00,0.00,0.00,0.00,30.03,1016.30,10.00,M,FEW,FEW,OVC,M,0.00,300.00,11000.00,M,M,M,M,M,M,M,M,49.00,KLAS 210856Z 00000KT 10SM FEW000 FEW003 OVC110 09/09 A3003 RMK AO2 SLP163 FG FEW000 MTNS OBSCURED DSNT S-W-N T00940094 58016,M
BVU,2024-02-21 09:15,-114.8611,35.9475,671.00,50.00,48.20,93.50,0.00,0.00,0.00,30.01,M,10.00,M,OVC,M,M,M,9500.00,M,M,M,M,M,M,M,M,M,M,50.00,KBVU 210915Z AUTO 00000KT 10SM OVC095 10/09 A3001 RMK AO2,M
CXP,2024-02-21 09:15,-119.7326,39.1923,1431.00,33.80,32.00,93.03,0.00,0.00,0.00,30.00,M,9.00,M,CLR,M,M,M,M,M,M,M,M,M,M,M,M,M,M,33.80,KCXP 210915Z AUTO 00000KT 9SM CLR 01/00 A3000 RMK AO2,M
RTS,2024-02-21 09:15,-119.8764,39.6682,1539.00,33.80,33.80,100.00,0.00,0.00,0.00,29.99,M,7.00,M,OVC,M,M,M,300.00,M,M,M,M,M,M,M,M,M,M,33.80,KRTS 210915Z AUTO 00000KT 7SM OVC003 01/01 A2999 RMK AO2,M
05U,2024-02-21 09:15,-116.0051,39.6042,1811.23,33.80,32.00,93.03,10.00,6.00,0.00,29.99,M,2.00,M,M,M,M,M,M,M,M,M,BR,M,M,M,M,M,M,27.70,K05U 210915Z AUTO 01006KT 2SM BR 01/00 A2999 RMK A01,M
MEV,2024-02-21 09:15,-119.7500,38.9963,1441.42,30.20,30.20,100.00,110.00,5.00,0.00,29.98,M,10.00,M,CLR,M,M,M,M,M,M,M,M,M,M,M,M,M,M,24.26,KMEV 210915Z AUTO 11005KT 10SM CLR M01/M01 A2998 RMK AO2,M
BAM,2024-02-21 09:15,-116.8743,40.5990,1382.36,41.00,35.60,80.93,80.00,4.00,0.00,29.96,M,10.00,M,SCT,BKN,OVC,M,6000.00,8500.00,11000.00,M,M,M,M,M,M,M,M,37.93,KBAM 210915Z AUTO 08004KT 10SM SCT060 BKN085 OVC110 05/02 A2996 RMK AO1,M
HTH,2024-02-21 09:15,-118.6315,38.5448,1282.89,41.00,33.80,75.33,300.00,4.00,0.00,30.00,M,10.00,M,FEW,SCT,BKN,M,3600.00,5500.00,7000.00,M,M,M,M,M,M,M,M,37.93,KHTH 210915Z AUTO 30004KT 10SM FEW036 SCT055 BKN070 05/01 A3000 RMK A01,M
10U,2024-02-21 09:15,-116.1876,41.9532,1637.00,32.00,28.40,86.39,0.00,0.00,0.00,29.94,M,10.00,M,FEW,OVC,M,M,5000.00,7000.00,M,M,M,M,M,M,M,M,M,32.00,K10U 210915Z AUTO 00000KT 10SM FEW050 OVC070 M00/M02 A2994 RMK AO2,M
TMT,2024-02-21 09:15,-117.1971,39.4643,1749.34,33.00,32.00,96.06,240.00,5.00,0.00,29.98,M,10.00,M,SCT,OVC,M,M,7000.00,9000.00,M,M,M,M,M,M,M,M,M,27.58,KTMT 210915Z AUTO 24005KT 10SM SCT070 OVC090 01/00 A2998 RMK AO2 T00060000,M
EKO,2024-02-21 09:17,-115.7860,40.8242,1367.00,35.00,33.00,92.32,0.00,0.00,0.01,29.94,M,6.00,M,BKN,BKN,OVC,M,400.00,1000.00,1500.00,M,-SN BR,M,M,M,M,M,M,35.00,KEKO 210917Z AUTO 00000KT 6SM -SN BR BKN004 BKN010 OVC015 02/01 A2994 RMK AO2 RAE13SNB13 P0001 T00170006,M
TPH,2024-02-21 09:21,-117.0904,38.0505,1654.00,38.00,36.00,92.42,190.00,5.00,0.00,29.98,M,10.00,M,FEW,BKN,OVC,M,600.00,1800.00,4300.00,M,M,M,M,M,M,M,M,33.52,KTPH 210921Z AUTO 19005KT 10SM FEW006 BKN018 OVC043 03/02 A2998 RMK AO2 T00330022,M
VGT,2024-02-21 09:23,-115.1933,36.2111,667.00,50.00,48.00,92.80,130.00,5.00,0.00,30.01,M,9.00,M,SCT,M,M,M,500.00,M,M,M,M,M,M,M,M,M,M,50.00,KVGT 210923Z AUTO 13005KT 9SM SCT005 10/09 A3001 RMK AO2 T01000089,M
BVU,2024-02-21 09:35,-114.8611,35.9475,671.00,50.00,48.20,93.50,0.00,0.00,0.00,30.02,M,10.00,M,OVC,M,M,M,10000.00,M,M,M,M,M,M,M,M,M,M,50.00,KBVU 210935Z AUTO 00000KT 10SM OVC100 10/09 A3002 RMK AO2,M
CXP,2024-02-21 09:35,-119.7326,39.1923,1431.00,32.00,32.00,100.00,0.00,0.00,0.00,30.00,M,4.00,M,FEW,FEW,FEW,M,300.00,4800.00,6000.00,M,BR,M,M,M,M,M,M,32.00,KCXP 210935Z AUTO 00000KT 4SM BR FEW003 FEW048 FEW060 00/00 A3000 RMK AO2,M
RTS,2024-02-21 09:35,-119.8764,39.6682,1539.00,32.00,33.80,M,0.00,0.00,0.00,30.00,M,7.00,M,OVC,M,M,M,300.00,M,M,M,-DZ,M,M,M,M,M,M,M,KRTS 210935Z AUTO 00000KT 7SM -DZ OVC003 00/01 A3000 RMK AO2,M
05U,2024-02-21 09:35,-116.0051,39.6042,1811.23,33.80,32.00,93.03,330.00,5.00,0.00,29.98,M,4.00,M,M,M,M,M,M,M,M,M,BR,M,M,M,M,M,M,28.53,K05U 210935Z AUTO 33005KT 4SM BR 01/00 A2998 RMK A01,M
MEV,2024-02-21 09:35,-119.7500,38.9963,1441.42,30.20,30.20,100.00,100.00,6.00,0.00,29.98,M,10.00,M,CLR,M,M,M,M,M,M,M,M,M,M,M,M,M,M,23.36,KMEV 210935Z AUTO 10006KT 10SM CLR M01/M01 A2998 RMK AO2,M
BAM,2024-02-21 09:35,-116.8743,40.5990,1382.36,41.00,35.60,80.93,0.00,0.00,0.00,29.97,M,10.00,M,SCT,BKN,OVC,M,2600.00,6000.00,8500.00,M,M,M,M,M,M,M,M,41.00,KBAM 210935Z AUTO 00000KT 10SM SCT026 BKN060 OVC085 05/02 A2997 RMK AO1,M
HTH,2024-02-21 09:35,-118.6315,38.5448,1282.89,41.00,33.80,75.33,250.00,3.00,0.00,30.00,M,10.00,M,FEW,SCT,BKN,M,3600.00,8000.00,10000.00,M,M,M,M,M,M,M,M,38.98,KHTH 210935Z AUTO 25003KT 10SM FEW036 SCT080 BKN100 05/01 A3000 RMK A01,M
10U,2024-02-21 09:35,-116.1876,41.9532,1637.00,32.00,28.40,86.39,240.00,3.00,0.00,29.94,M,10.00,M,BKN,OVC,M,M,6000.00,7000.00,M,M,M,M,M,M,M,M,M,28.69,K10U 210935Z AUTO 24003KT 10SM BKN060 OVC070 M00/M02 A2994 RMK AO2,M
TMT,2024-02-21 09:35,-117.1971,39.4643,1749.34,33.40,32.00,94.53,230.00,7.00,0.00,29.98,M,10.00,M,BKN,OVC,M,M,7000.00,8500.00,M,M,M,M,M,M,M,M,M,26.49,KTMT 210935Z AUTO 23007KT 10SM BKN070 OVC085 01/00 A2998 RMK AO2 T00080000,M
LAS,2024-02-21 09:45,-115.1634,36.0719,663.00,48.00,48.00,100.00,60.00,3.00,0.00,30.01,M,6.00,M,SCT,SCT,OVC,M,0.00,4700.00,12000.00,M,BR,M,M,M,M,M,M,46.98,KLAS 210945Z 06003KT 6SM BR SCT000 SCT047 OVC120 09/09 A3001 RMK AO2 VIS SW-NW 2 FG SCT00 MTNS OBSCURED DSNT S-W-N T00890089,M
EKO,2024-02-21 09:46,-115.7860,40.8242,1367.00,34.00,32.00,92.29,0.00,0.00,0.03,29.94,M,5.00,M,SCT,OVC,M,M,400.00,1200.00,M,M,-SN BR,M,M,M,M,M,M,34.00,KEKO 210946Z AUTO 00000KT 5SM -SN BR SCT004 OVC012 01/00 A2994 RMK AO2 RAE13B25E33SNB13 P0003 T00110000,M
TPH,2024-02-21 09:46,-117.0904,38.0505,1654.00,38.00,37.00,96.14,0.00,0.00,0.00,29.99,M,10.00,M,BKN,BKN,OVC,M,600.00,1300.00,1800.00,M,M,M,M,M,M,M,M,38.00,KTPH 210946Z AUTO 00000KT 10SM BKN006 BKN013 OVC018 03/03 A2999 RMK AO2 CIG 005V010 T00330028,M
P68,2024-02-21 09:53,-116.0056,39.6014,1993.00,33.00,32.00,96.06,150.00,5.00,0.03,29.95,1011.90,M,M,M,M,M,M,M,M,M,M,M,M,M,M,M,M,M,27.58,KP68 210953Z AUTO 15005KT 01/00 A2995 RMK AO1 SLP119 P0003 T00060000,M
DRA,2024-02-21 09:53,-116.0278,36.6206,1009.00,44.00,41.00,89.11,110.00,5.00,0.00,29.99,1013.70,10.00,M,CLR,M,M,M,M,M,M,M,M,M,M,M,M,M,M,40.65,KDRA 210953Z AUTO 11005KT 10SM CLR 07/05 A2999 RMK AO2 SLP137 T00670050,M
ELY,2024-02-21 09:53,-114.8453,39.2950,1909.00,37.00,28.00,69.63,180.00,8.00,0.00,29.94,1011.10,10.00,M,OVC,M,M,M,4200.00,M,M,M,M,M,M,M,29.00,160.00,2024-02-21 09:12,30.27,KELY 210953Z AUTO 18008KT 10SM OVC042 03/M02 A2994 RMK AO2 PK WND 16029/0912 SLP111 T00281022,M
VGT,2024-02-21 09:53,-115.1933,36.2111,667.00,49.00,48.00,96.32,0.00,0.00,0.00,30.00,1017.40,2.50,M,CLR,M,M,M,M,M,M,M,BR,M,M,M,M,M,M,49.00,KVGT 210953Z AUTO 00000KT 2 1/2SM BR CLR 09/09 A3000 RMK AO2 SLP174 T00940089,M
LOL,2024-02-21 09:53,-118.5701,40.0684,1192.43,40.00,34.00,78.94,100.00,4.00,T,29.97,1014.50,10.00,M,BKN,BKN,OVC,M,5000.00,6000.00,8000.00,M,M,M,M,M,M,M,M,36.76,KLOL 210953Z AUTO 10004KT 10SM BKN050 BKN060 OVC080 04/01 A2997 RMK AO2 RAB17E39 SLP145 P0000 T00440011,M
LAS,2024-02-21 09:54,-115.1634,36.0719,663.00,48.20,48.20,100.00,70.00,3.00,0.00,30.01,M,1.25,M,SCT,SCT,OVC,M,0.00,4700.00,12000.00,M,BR,M,M,M,M,M,M,47.21,KLAS 210954Z 07003KT 1 1/4SM BR SCT000 SCT047 OVC120 09/09 A3001 RMK AO2 VIS SW-NW 2 BR SCT000 MTNS OBSCURED DSNT S-W-N $,M
EKO,2024-02-21 09:54,-115.7860,40.8242,1367.00,33.80,32.00,93.03,0.00,0.00,M,29.94,M,4.00,M,FEW,BKN,OVC,M,298.00,800.00,1400.00,M,-SN BR,M,M,M,M,M,M,33.80,SPECI KEKO 210954Z 00000KT 4SM -SN BR FEW003 BKN008 OVC014 01/00 A2994 RMK AO2 RAE13B25E33SNB13 P0003 FIBI,M
BVU,2024-02-21 09:55,-114.8611,35.9475,671.00,50.00,48.20,93.50,0.00,0.00,0.00,30.01,M,10.00,M,OVC,M,M,M,10000.00,M,M,M,M,M,M,M,M,M,M,50.00,KBVU 210955Z AUTO 00000KT 10SM OVC100 10/09 A3001 RMK AO2,M
CXP,2024-02-21 09:55,-119.7326,39.1923,1431.00,32.00,32.00,100.00,0.00,0.00,0.00,30.00,M,1.75,M,SCT,SCT,SCT,M,300.00,4900.00,6000.00,M,BR,M,M,M,M,M,M,32.00,KCXP 210955Z AUTO 00000KT 1 3/4SM BR SCT003 SCT049 SCT060 M00/M00 A3000 RMK AO2 VIS 3/4V4,M
RNO,2024-02-21 09:55,-119.7711,39.4839,1341.00,37.00,35.00,92.39,0.00,0.00,0.00,29.99,1014.10,10.00,M,SCT,BKN,BKN,M,1000.00,3000.00,5500.00,M,M,M,M,M,M,M,M,37.00,KRNO 210955Z 00000KT 10SM SCT010 BKN030 BKN055 03/02 A2999 RMK AO2 SLP141 T00280017,M
RTS,2024-02-21 09:55,-119.8764,39.6682,1539.00,32.00,32.00,100.00,0.00,0.00,0.00,29.99,M,5.00,M,OVC,M,M,M,300.00,M,M,M,-DZ,M,M,M,M,M,M,32.00,KRTS 210955Z AUTO 00000KT 5SM -DZ OVC003 00/00 A2999 RMK AO2,M
05U,2024-02-21 09:55,-116.0051,39.6042,1811.23,33.80,32.00,93.03,310.00,5.00,0.03,29.98,M,10.00,M,M,M,M,M,M,M,M,M,M,M,M,M,M,M,M,28.53,K05U 210955Z AUTO 31005KT 10SM 01/00 A2998 RMK A01 P0003,M
MEV,2024-02-21 09:55,-119.7500,38.9963,1441.42,30.20,30.20,100.00,90.00,6.00,0.00,29.98,M,10.00,M,CLR,M,M,M,M,M,M,M,M,M,M,M,M,M,M,23.36,KMEV 210955Z AUTO 09006KT 10SM CLR M01/M01 A2998 RMK AO2,M
BAM,2024-02-21 09:55,-116.8743,40.5990,1382.36,41.00,35.60,80.93,0.00,0.00,0.00,29.97,M,10.00,M,SCT,SCT,BKN,M,2600.00,5000.00,6000.00,M,M,M,M,M,M,M,M,41.00,KBAM 210955Z AUTO 00000KT 10SM SCT026 SCT050 BKN060 05/02 A2997 RMK AO1,M
HTH,2024-02-21 09:55,-118.6315,38.5448,1282.89,39.20,33.80,80.79,230.00,7.00,0.00,30.00,M,10.00,M,FEW,FEW,BKN,M,7000.00,10000.00,12000.00,M,M,M,M,M,M,M,M,33.56,KHTH 210955Z AUTO 23007KT 10SM FEW070 FEW100 BKN120 04/01 A3000 RMK A01,M
TMT,2024-02-21 09:55,-117.1971,39.4643,1749.34,33.00,32.00,96.06,270.00,5.00,0.00,29.98,M,10.00,M,BKN,M,M,M,7000.00,M,M,M,M,M,M,M,M,M,M,27.58,KTMT 210955Z AUTO 27005KT 10SM BKN070 01/00 A2998 RMK AO2 T00050000,M
10U,2024-02-21 09:55,-116.1876,41.9532,1637.00,32.00,28.40,86.39,0.00,0.00,0.00,29.93,M,10.00,M,SCT,OVC,M,M,6000.00,7500.00,M,M,M,M,M,M,M,M,M,32.00,K10U 210955Z AUTO 00000KT 10SM SCT060 OVC075 00/M02 A2993 RMK AO2,M
INS,2024-02-21 09:55,-115.6733,36.5872,955.00,44.60,41.50,88.79,210.00,4.00,0.00,29.99,1013.90,10.00,M,FEW,M,M,M,800.00,M,M,M,M,M,M,M,M,M,M,42.13,KINS 210955Z AUTO 21004KT 10SM FEW008 07/05 A2999 RMK AO2 SLP139 T00700053,M
LSV,2024-02-21 09:55,-115.0343,36.2362,570.00,50.00,47.30,90.39,30.00,6.00,0.00,29.98,1014.70,10.00,M,SCT,M,M,M,14000.00,M,M,M,M,M,M,M,M,M,M,50.00,KLSV 210955Z AUTO 03006KT 10SM SCT140 10/09 A2998 RMK AO2 SLP147 T00990085 $,M
EKO,2024-02-21 09:56,-115.7860,40.8242,1367.00,34.00,32.00,92.29,0.00,0.00,0.03,29.94,1013.30,4.00,M,SCT,BKN,OVC,M,300.00,800.00,1400.00,M,-SN BR,M,M,M,M,M,M,34.00,KEKO 210956Z AUTO 00000KT 4SM -SN BR SCT003 BKN008 OVC014 01/00 A2994 RMK AO2 RAE13B25E33SNB13 SLP133 P0003 T00110000,M
WMC,2024-02-21 09:56,-117.8072,40.9019,1315.00,38.00,30.00,72.64,260.00,3.00,0.00,29.96,1013.20,10.00,M,BKN,M,M,M,10000.00,M,M,M,M,M,M,M,M,M,M,35.55,KWMC 210956Z AUTO 26003KT 10SM BKN100 03/M01 A2996 RMK AO2 SLP132 T00331011,M
NFL,2024-02-21 09:56,-118.7010,39.4166,1199.00,38.00,32.00,78.77,0.00,0.00,0.00,29.98,1012.30,10.00,M,CLR,M,M,M,M,M,M,M,M,M,M,M,M,M,M,38.00,KNFL 210956Z AUTO 00000KT 10SM CLR 03/00 A2998 RMK AO2 SLP123 T00330000,M
HND,2024-02-21 09:56,-115.1344,35.9729,742.79,47.00,46.00,96.29,180.00,7.00,0.00,30.02,1018.30,10.00,M,FEW,M,M,M,12000.00,M,M,M,M,M,M,M,M,M,M,43.06,KHND 210956Z AUTO 18007KT 10SM FEW120 08/08 A3002 RMK AO2 SLP183 T00830078,M
TPH,2024-02-21 09:56,-117.0904,38.0505,1654.00,38.00,36.00,92.42,0.00,0.00,0.00,29.98,1013.70,10.00,M,BKN,OVC,M,M,700.00,1300.00,M,M,M,M,M,M,M,M,M,38.00,KTPH 210956Z AUTO 00000KT 10SM BKN007 OVC013 03/02 A2998 RMK AO2 CIG 005V010 SLP137 T00330022,M
LAS,2024-02-21 09:56,-115.1634,36.0719,663.00,48.00,48.00,100.00,70.00,3.00,0.00,30.00,1015.70,3.00,M,SCT,SCT,OVC,M,200.00,4700.00,12000.00,M,BR,M,M,M,M,M,M,46.98,KLAS 210956Z 07003KT 3SM BR SCT002 SCT047 OVC120 09/09 A3000 RMK AO2 SLP157 VIS SW-NW 1 1/2 BR SCT002 MTNS OBSCURED DSNT S-W-N T00890089 $,M
VGT,2024-02-21 10:03,-115.1933,36.2111,667.00,49.00,48.00,96.32,0.00,0.00,0.00,30.00,M,3.00,M,FEW,M,M,M,100.00,M,M,M,BR,M,M,M,M,M,M,49.00,KVGT 211003Z AUTO 00000KT 3SM BR FEW001 09/09 A3000 RMK AO2 T00940089,M
LAS,2024-02-21 10:03,-115.1634,36.0719,663.00,48.00,48.00,100.00,60.00,3.00,0.00,30.01,M,0.25,M,BKN,OVC,M,M,200.00,4000.00,M,M,FG,M,M,M,M,M,M,46.98,KLAS 211003Z 06003KT 1/4SM FG BKN002 OVC040 09/09 A3001 RMK AO2 TWR VIS 1 1/2 VIS SW-NW 1 1/2 T00890089 $,M
EKO,2024-02-21 10:05,-115.7860,40.8242,1367.00,33.00,32.00,96.06,0.00,0.00,0.01,29.94,M,3.00,M,SCT,OVC,M,M,300.00,1200.00,M,M,-SN BR,M,M,M,M,M,M,33.00,KEKO 211005Z AUTO 00000KT 3SM -SN BR SCT003 OVC012 01/00 A2994 RMK AO2 P0001 T00060000,M
TPH,2024-02-21 10:12,-117.0904,38.0505,1654.00,38.00,36.00,92.42,120.00,3.00,0.00,29.98,M,10.00,M,OVC,M,M,M,600.00,M,M,M,M,M,M,M,M,M,M,35.55,KTPH 211012Z AUTO 12003KT 10SM OVC006 03/02 A2998 RMK AO2 T00330022,M
BVU,2024-02-21 10:15,-114.8611,35.9475,671.00,48.20,48.20,100.00,0.00,0.00,0.00,30.00,M,10.00,M,OVC,M,M,M,10000.00,M,M,M,M,M,M,M,M,M,M,48.20,KBVU 211015Z AUTO 00000KT 10SM OVC100 09/09 A3000 RMK AO2,M
CXP,2024-02-21 10:15,-119.7326,39.1923,1431.00,32.00,32.00,100.00,0.00,0.00,0.00,30.00,M,1.00,M,SCT,BKN,M,M,200.00,5000.00,M,M,BR,M,M,M,M,M,M,32.00,KCXP 211015Z AUTO 00000KT 1SM BR SCT002 BKN050 M00/M00 A3000 RMK AO2,M
RTS,2024-02-21 10:15,-119.8764,39.6682,1539.00,33.80,33.80,100.00,0.00,0.00,0.00,29.99,M,5.00,M,OVC,M,M,M,200.00,M,M,M,BR,M,M,M,M,M,M,33.80,KRTS 211015Z AUTO 00000KT 5SM BR OVC002 01/01 A2999 RMK AO2,M
05U,2024-02-21 10:15,-116.0051,39.6042,1811.23,33.80,32.00,93.03,260.00,3.00,0.00,29.97,M,10.00,M,M,M,M,M,M,M,M,M,M,M,M,M,M,M,M,30.75,K05U 211015Z AUTO 26003KT 10SM 01/00 A2997 RMK A01,M
MEV,2024-02-21 10:15,-119.7500,38.9963,1441.42,30.20,30.20,100.00,0.00,0.00,0.00,29.99,M,10.00,M,SCT,SCT,M,M,4000.00,4600.00,M,M,M,M,M,M,M,M,M,30.20,KMEV 211015Z AUTO 00000KT 10SM SCT040 SCT046 M01/M01 A2999 RMK AO2,M
BAM,2024-02-21 10:15,-116.8743,40.5990,1382.36,39.20,35.60,86.79,120.00,3.00,0.00,29.96,M,10.00,M,SCT,SCT,SCT,M,3900.00,5000.00,6000.00,M,M,M,M,M,M,M,M,36.92,KBAM 211015Z AUTO 12003KT 10SM SCT039 SCT050 SCT060 04/02 A2996 RMK AO1,M
HTH,2024-02-21 10:15,-118.6315,38.5448,1282.89,41.00,33.80,75.33,200.00,4.00,0.00,29.99,M,10.00,M,FEW,FEW,SCT,M,7000.00,9500.00,12000.00,M,M,M,M,M,M,M,M,37.93,KHTH 211015Z AUTO 20004KT 10SM FEW070 FEW095 SCT120 05/01 A2999 RMK A01,M
10U,2024-02-21 10:15,-116.1876,41.9532,1637.00,32.00,28.40,86.39,0.00,0.00,0.00,29.93,M,10.00,M,OVC,M,M,M,7500.00,M,M,M,M,M,M,M,M,M,M,32.00,K10U 211015Z AUTO 00000KT 10SM OVC075 M00/M02 A2993 RMK AO2,M
TMT,2024-02-21 10:15,-117.1971,39.4643,1749.34,33.30,32.00,94.91,260.00,9.00,0.00,29.98,M,10.00,M,OVC,M,M,M,7000.00,M,M,M,M,M,M,M,M,M,M,25.13,KTMT 211015Z AUTO 26009KT 10SM OVC070 01/00 A2998 RMK AO2 T00070000,M
INS,2024-02-21 10:20,-115.6733,36.5872,955.00,44.60,41.00,87.09,250.00,3.00,0.00,29.99,1013.90,8.00,M,SCT,BKN,M,M,600.00,1000.00,M,M,M,M,M,M,M,M,M,43.09,KINS 211020Z AUTO 25003KT 8SM SCT006 BKN010 07/05 A2999 RMK AO2 BKN V SCT SLP139,M
LAS,2024-02-21 10:20,-115.1634,36.0719,663.00,47.00,47.00,100.00,110.00,4.00,0.00,30.00,M,2.50,M,SCT,SCT,OVC,M,0.00,300.00,4000.00,M,BR,M,M,M,M,M,M,44.94,KLAS 211020Z 11004KT 2 1/2SM BR SCT000 SCT003 OVC040 08/08 A3000 RMK AO2 BR SCT000 VIS SW-NW 1 1/2 T00830083 $,M
INS,2024-02-21 10:25,-115.6733,36.5872,955.00,44.60,41.00,87.09,250.00,3.00,0.00,29.99,1013.90,8.00,M,BKN,BKN,M,M,500.00,1000.00,M,M,M,M,M,M,M,M,M,43.09,KINS 211025Z AUTO 25003KT 8SM BKN005 BKN010 07/05 A2999 RMK AO2 SLP139,M
TPH,2024-02-21 10:26,-117.0904,38.0505,1654.00,38.00,36.00,92.42,160.00,3.00,0.00,29.98,M,10.00,M,BKN,OVC,M,M,800.00,1100.00,M,M,M,M,M,M,M,M,M,35.55,KTPH 211026Z AUTO 16003KT 10SM BKN008 OVC011 03/02 A2998 RMK AO2 CIG 005V010 T00330022,M
EKO,2024-02-21 10:27,-115.7860,40.8242,1367.00,33.00,32.00,96.06,0.00,0.00,0.02,29.93,M,2.00,M,FEW,OVC,M,M,300.00,1200.00,M,M,-SN BR,M,M,M,M,M,M,33.00,KEKO 211027Z AUTO 00000KT 2SM -SN BR FEW003 OVC012 01/00 A2993 RMK AO2 P0002 T00060000,M
BVU,2024-02-21 10:35,-114.8611,35.9475,671.00,48.20,46.40,93.45,310.00,3.00,0.00,30.00,M,10.00,M,FEW,OVC,M,M,7000.00,10000.00,M,M,M,M,M,M,M,M,M,47.21,KBVU 211035Z AUTO 31003KT 10SM FEW070 OVC100 09/08 A3000 RMK AO2,M
CXP,2024-02-21 10:35,-119.7326,39.1923,1431.00,32.00,32.00,100.00,0.00,0.00,0.00,30.00,M,1.75,M,BKN,BKN,M,M,200.00,5000.00,M,M,BR,M,M,M,M,M,M,32.00,KCXP 211035Z AUTO 00000KT 1 3/4SM BR BKN002 BKN050 M00/M00 A3000 RMK AO2,M
RTS,2024-02-21 10:35,-119.8764,39.6682,1539.00,32.00,32.00,100.00,360.00,5.00,0.00,29.99,M,0.50,M,OVC,M,M,M,200.00,M,M,M,BR,M,M,M,M,M,M,26.40,KRTS 211035Z AUTO 36005KT 1/2SM BR OVC002 00/00 A2999 RMK AO2,M
05U,2024-02-21 10:35,-116.0051,39.6042,1811.23,32.00,32.00,100.00,0.00,0.00,0.00,29.97,M,10.00,M,M,M,M,M,M,M,M,M,M,M,M,M,M,M,M,32.00,K05U 211035Z AUTO 00000KT 10SM 00/00 A2997 RMK A01,M
MEV,2024-02-21 10:35,-119.7500,38.9963,1441.42,30.20,28.40,92.92,40.00,4.00,0.00,29.98,M,10.00,M,SCT,BKN,M,M,4400.00,5000.00,M,M,M,M,M,M,M,M,M,25.32,KMEV 211035Z AUTO 04004KT 10SM SCT044 BKN050 M01/M02 A2998 RMK AO2,M
BAM,2024-02-21 10:35,-116.8743,40.5990,1382.36,37.40,33.80,86.69,70.00,3.00,0.00,29.97,M,10.00,M,SCT,M,M,M,6000.00,M,M,M,M,M,M,M,M,M,M,34.86,KBAM 211035Z AUTO 07003KT 10SM SCT060 03/01 A2997 RMK AO1,M
HTH,2024-02-21 10:35,-118.6315,38.5448,1282.89,39.20,33.80,80.79,190.00,6.00,0.00,29.99,M,10.00,M,FEW,FEW,M,M,7500.00,12000.00,M,M,M,M,M,M,M,M,M,34.20,KHTH 211035Z AUTO 19006KT 10SM FEW075 FEW120 04/01 A2999 RMK A01,M
10U,2024-02-21 10:35,-116.1876,41.9532,1637.00,32.00,28.40,86.39,130.00,3.00,0.00,29.93,M,10.00,M,OVC,M,M,M,7500.00,M,M,M,M,M,M,M,M,M,M,28.69,K10U 211035Z AUTO 13003KT 10SM OVC075 00/M02 A2993 RMK AO2,M
TMT,2024-02-21 10:35,-117.1971,39.4643,1749.34,34.00,32.00,92.29,260.00,8.00,0.00,29.98,M,10.00,M,SCT,OVC,M,M,7000.00,8000.00,M,M,M,M,M,M,M,M,M,26.58,KTMT 211035Z AUTO 26008KT 10SM SCT070 OVC080 01/00 A2998 RMK AO2 T00110000,M
EKO,2024-02-21 10:36,-115.7860,40.8242,1367.00,33.00,32.00,96.06,0.00,0.00,0.03,29.93,M,3.00,M,FEW,BKN,OVC,M,300.00,1600.00,2300.00,M,-SN BR,M,M,M,M,M,M,33.00,KEKO 211036Z AUTO 00000KT 3SM -SN BR FEW003 BKN016 OVC023 01/00 A2993 RMK AO2 P0003 T00060000,M
VGT,2024-02-21 10:42,-115.1933,36.2111,667.00,49.00,47.00,92.77,90.00,4.00,0.00,29.99,M,4.00,M,BKN,M,M,M,500.00,M,M,M,BR,M,M,M,M,M,M,47.27,KVGT 211042Z AUTO 09004KT 4SM BR BKN005 09/08 A2999 RMK AO2 T00940083,M
LAS,2024-02-21 10:42,-115.1634,36.0719,663.00,47.00,47.00,100.00,0.00,0.00,0.00,30.00,M,2.50,M,FEW,OVC,M,M,0.00,300.00,M,M,BR,M,M,M,M,M,M,47.00,KLAS 211042Z 00000KT 2 1/2SM BR FEW000 OVC003 08/08 A3000 RMK AO2 BR FEW000 VIS SE-SW 1 1/2 T00830083 $,M
ELY,2024-02-21 10:44,-114.8453,39.2950,1909.00,35.00,30.00,81.78,210.00,13.00,T,29.96,M,5.00,19.00,BKN,OVC,M,M,1500.00,4000.00,M,M,-SN,M,M,M,M,M,M,25.41,KELY 211044Z AUTO 21013G19KT 5SM -SN BKN015 OVC040 02/M01 A2996 RMK AO2 UPB38E40SNB37E38B40 P0000 T00171011,M
ELY,2024-02-21 10:48,-114.8453,39.2950,1909.00,33.80,30.20,86.49,200.00,12.00,T,29.96,M,2.50,M,BKN,OVC,M,M,1300.00,4000.00,M,M,-SN BR,M,M,M,M,M,M,24.29,KELY 211048Z AUTO 20012KT 2 1/2SM -SN BR BKN013 OVC040 01/M01 A2996 RMK AO2 UPB38E40SNB37E38B40 P0000,M
P68,2024-02-21 10:53,-116.0056,39.6014,1993.00,33.00,32.00,96.06,0.00,0.00,0.00,29.95,1012.20,M,M,M,M,M,M,M,M,M,M,M,M,M,M,M,M,M,33.00,KP68 211053Z AUTO 00000KT 01/00 A2995 RMK AO1 SLP122 T00060000,M
DRA,2024-02-21 10:53,-116.0278,36.6206,1009.00,43.00,41.00,92.58,80.00,6.00,0.00,29.97,1013.20,10.00,M,BKN,M,M,M,4900.00,M,M,M,M,M,M,M,M,M,M,38.78,KDRA 211053Z AUTO 08006KT 10SM BKN049 06/05 A2997 RMK AO2 SLP132 T00610050,M
ELY,2024-02-21 10:53,-114.8453,39.2950,1909.00,33.00,30.00,88.58,190.00,10.00,0.01,29.96,1013.10,2.00,M,BKN,OVC,M,M,1300.00,3800.00,M,M,-SN BR,M,M,M,M,M,M,24.22,KELY 211053Z AUTO 19010KT 2SM -SN BR BKN013 OVC038 01/M01 A2996 RMK AO2 UPB38E40SNB37E38B40 SLP131 P0001 T00061011,M
VGT,2024-02-21 10:53,-115.1933,36.2111,667.00,49.00,47.00,92.77,150.00,3.00,0.00,29.99,1017.00,7.00,M,SCT,BKN,M,M,500.00,12000.00,M,M,M,M,M,M,M,M,M,48.12,KVGT 211053Z AUTO 15003KT 7SM SCT005 BKN120 09/08 A2999 RMK AO2 SLP170 T00940083,M
LOL,2024-02-21 10:53,-118.5701,40.0684,1192.43,39.00,35.00,85.42,0.00,0.00,T,29.98,1014.60,10.00,M,OVC,M,M,M,4700.00,M,M,M,M,M,M,M,M,M,M,39.00,KLOL 211053Z AUTO 00000KT 10SM OVC047 04/02 A2998 RMK AO2 RAB04E16 SLP146 P0000 T00390017,M
EKO,2024-02-21 10:54,-115.7860,40.8242,1367.00,33.80,30.20,86.49,0.00,0.00,M,29.93,M,4.00,M,FEW,BKN,OVC,M,200.00,698.00,1801.00,M,-SN BR,M,M,M,M,M,M,33.80,SPECI KEKO 211054Z 00000KT 4SM -SN BR FEW002 BKN007 OVC018 01/M01 A2993 RMK AO2 P0003 FIBI,M
BVU,2024-02-21 10:55,-114.8611,35.9475,671.00,48.20,46.40,93.45,0.00,0.00,0.00,29.99,M,10.00,M,SCT,BKN,OVC,M,6000.00,7000.00,11000.00,M,M,M,M,M,M,M,M,48.20,KBVU 211055Z AUTO 00000KT 10SM SCT060 BKN070 OVC110 09/08 A2999 RMK AO2,M
CXP,2024-02-21 10:55,-119.7326,39.1923,1431.00,32.00,32.00,100.00,0.00,0.00,0.00,30.00,M,0.25,M,OVC,M,M,M,100.00,M,M,M,FZFG,M,M,M,M,M,M,32.00,KCXP 211055Z AUTO 00000KT 1/4SM FZFG OVC001 M00/M00 A3000 RMK AO2,M
RNO,2024-02-21 10:55,-119.7711,39.4839,1341.00,37.00,34.00,88.78,0.00,0.00,0.00,29.99,1014.00,10.00,M,BKN,BKN,M,M,1000.00,6000.00,M,M,M,M,M,M,M,M,M,37.00,KRNO 211055Z 00000KT 10SM BKN010 BKN060 03/01 A2999 RMK AO2 SLP140 T00280011,M
LSV,2024-02-21 10:55,-115.0343,36.2362,570.00,49.00,46.60,91.38,0.00,0.00,0.00,29.97,1014.40,10.00,M,CLR,M,M,M,M,M,M,M,M,M,M,M,M,M,M,49.00,KLSV 211055Z AUTO 00000KT 10SM CLR 10/08 A2997 RMK AO2 SLP144 T00950081 $,M
RTS,2024-02-21 10:55,-119.8764,39.6682,1539.00,32.00,32.00,100.00,40.00,3.00,0.00,29.99,M,2.50,M,OVC,M,M,M,200.00,M,M,M,BR,M,M,M,M,M,M,28.69,KRTS 211055Z AUTO 04003KT 2 1/2SM BR OVC002 00/00 A2999 RMK AO2,M
05U,2024-02-21 10:55,-116.0051,39.6042,1811.23,33.80,32.00,93.03,0.00,0.00,0.00,29.97,M,5.00,M,M,M,M,M,M,M,M,M,BR,M,M,M,M,M,M,33.80,K05U 211055Z AUTO 00000KT 5SM BR 01/00 A2997 RMK A01,M
MEV,2024-02-21 10:55,-119.7500,38.9963,1441.42,32.00,30.20,92.97,110.00,3.00,0.00,29.98,M,10.00,M,FEW,FEW,SCT,M,4400.00,4900.00,6000.00,M,M,M,M,M,M,M,M,28.69,KMEV 211055Z AUTO 11003KT 10SM FEW044 FEW049 SCT060 00/M01 A2998 RMK AO2,M
BAM,2024-02-21 10:55,-116.8743,40.5990,1382.36,41.00,33.80,75.33,0.00,0.00,0.00,29.96,M,10.00,M,BKN,M,M,M,6000.00,M,M,M,M,M,M,M,M,M,M,41.00,KBAM 211055Z AUTO 00000KT 10SM BKN060 05/01 A2996 RMK AO1,M
HTH,2024-02-21 10:55,-118.6315,38.5448,1282.89,39.20,33.80,80.79,200.00,6.00,0.00,29.99,M,10.00,M,CLR,M,M,M,M,M,M,M,M,M,M,M,M,M,M,34.20,KHTH 211055Z AUTO 20006KT 10SM CLR 04/01 A2999 RMK A01,M
TMT,2024-02-21 10:55,-117.1971,39.4643,1749.34,33.60,32.00,93.78,240.00,4.00,0.00,29.99,M,10.00,M,BKN,OVC,M,M,6500.00,8500.00,M,M,M,M,M,M,M,M,M,29.29,KTMT 211055Z AUTO 24004KT 10SM BKN065 OVC085 01/00 A2999 RMK AO2 T00090000,M
10U,2024-02-21 10:55,-116.1876,41.9532,1637.00,32.00,28.40,86.39,M,3.00,0.00,29.93,M,10.00,M,OVC,M,M,M,7500.00,M,M,M,M,M,M,M,M,M,M,28.69,K10U 211055Z AUTO VRB03KT 10SM OVC075 00/M02 A2993 RMK AO2,M
EKO,2024-02-21 10:56,-115.7860,40.8242,1367.00,33.00,31.00,92.25,0.00,0.00,0.03,29.93,1013.00,3.00,M,FEW,BKN,OVC,M,200.00,700.00,1800.00,M,-SN BR,M,M,M,M,M,M,33.00,KEKO 211056Z AUTO 00000KT 3SM -SN BR FEW002 BKN007 OVC018 01/M01 A2993 RMK AO2 SLP130 P0003 T00061006,M
WMC,2024-02-21 10:56,-117.8072,40.9019,1315.00,39.00,30.00,69.85,20.00,3.00,0.00,29.95,1013.00,10.00,M,BKN,OVC,M,M,7500.00,10000.00,M,M,M,M,M,M,M,M,M,36.69,KWMC 211056Z AUTO 02003KT 10SM BKN075 OVC100 04/M01 A2995 RMK AO2 SLP130 T00391011,M
NFL,2024-02-21 10:56,-118.7010,39.4166,1199.00,38.00,32.00,78.77,80.00,3.00,0.00,29.98,1012.20,10.00,M,CLR,M,M,M,M,M,M,M,M,M,M,M,M,M,M,35.55,KNFL 211056Z AUTO 08003KT 10SM CLR 03/00 A2998 RMK AO2 SLP122 T00330000,M
HND,2024-02-21 10:56,-115.1344,35.9729,742.79,46.00,44.00,92.68,170.00,3.00,0.00,30.01,1017.80,10.00,M,CLR,M,M,M,M,M,M,M,M,M,M,M,M,M,M,44.69,KHND 211056Z AUTO 17003KT 10SM CLR 08/07 A3001 RMK AO2 SLP178 T00780067,M
TPH,2024-02-21 10:56,-117.0904,38.0505,1654.00,38.00,36.00,92.42,170.00,5.00,0.00,29.97,1013.30,10.00,M,BKN,OVC,M,M,1100.00,4100.00,M,M,M,M,M,M,M,M,M,33.52,KTPH 211056Z AUTO 17005KT 10SM BKN011 OVC041 03/02 A2997 RMK AO2 SLP133 T00330022,M
LAS,2024-02-21 10:56,-115.1634,36.0719,663.00,47.00,47.00,100.00,110.00,4.00,0.00,29.99,1015.30,2.50,M,FEW,BKN,OVC,M,0.00,300.00,18000.00,M,BR,M,M,M,M,M,M,44.94,KLAS 211056Z 11004KT 2 1/2SM BR FEW000 BKN003 OVC180 08/08 A2999 RMK AO2 SLP153 VIS 2V3 BR FEW000 T00830083 $,M
INS,2024-02-21 11:00,-115.6733,36.5872,955.00,44.60,41.00,87.09,0.00,0.00,0.00,29.98,1013.80,2.75,M,OVC,M,M,M,500.00,M,M,M,BR,M,M,M,M,M,M,44.60,KINS 211100Z AUTO 00000KT 2 3/4SM BR OVC005 07/05 A2998 RMK AO2 VIS 2 3/4V5 OVC V BKN SLP138,M
ELY,2024-02-21 11:03,-114.8453,39.2950,1909.00,33.00,31.00,92.25,160.00,8.00,0.01,29.95,M,4.00,18.00,BKN,OVC,M,M,1300.00,3900.00,M,M,-SN BR,M,M,M,M,M,M,25.34,KELY 211103Z AUTO 16008G18KT 4SM -SN BR BKN013 OVC039 01/M01 A2995 RMK AO2 P0001 T00061006,M
EKO,2024-02-21 11:04,-115.7860,40.8242,1367.00,33.00,31.00,92.25,0.00,0.00,0.01,29.93,M,3.00,M,FEW,SCT,OVC,M,200.00,700.00,1500.00,M,-SN BR,M,M,M,M,M,M,33.00,KEKO 211104Z AUTO 00000KT 3SM -SN BR FEW002 SCT007 OVC015 01/M01 A2993 RMK AO2 P0001 T00061006,M
INS,2024-02-21 11:05,-115.6733,36.5872,955.00,42.80,41.00,93.30,30.00,3.00,0.00,29.98,1013.80,1.88,M,OVC,M,M,M,500.00,M,M,M,BR,M,M,M,M,M,M,41.03,KINS 211105Z AUTO 03003KT 1 7/8SM BR OVC005 06/05 A2998 RMK AO2 VIS 1 7/8V4 OVC V BKN SLP138,M
LAS,2024-02-21 11:14,-115.1634,36.0719,663.00,47.00,47.00,100.00,0.00,0.00,0.00,29.98,M,4.00,M,FEW,BKN,OVC,M,0.00,300.00,12000.00,M,BR,M,M,M,M,M,M,47.00,KLAS 211114Z 00000KT 4SM BR FEW000 BKN003 OVC120 08/08 A2998 RMK AO2 VIS NW 2 1/2 BR FEW000 T00830083 $,M
RTS,2024-02-21 11:15,-119.8764,39.6682,1539.00,32.00,32.00,100.00,170.00,5.00,0.00,29.99,M,3.00,M,SCT,OVC,M,M,200.00,4200.00,M,M,BR,M,M,M,M,M,M,26.40,KRTS 211115Z AUTO 17005KT 3SM BR SCT002 OVC042 00/00 A2999 RMK AO2,M
BVU,2024-02-21 11:15,-114.8611,35.9475,671.00,48.20,46.40,93.45,0.00,0.00,0.00,29.99,M,10.00,M,BKN,OVC,M,M,6000.00,9500.00,M,M,M,M,M,M,M,M,M,48.20,KBVU 211115Z AUTO 00000KT 10SM BKN060 OVC095 09/08 A2999 RMK AO2,M
CXP,2024-02-21 11:15,-119.7326,39.1923,1431.00,30.20,30.20,100.00,0.00,0.00,0.00,29.99,M,0.25,M,BKN,OVC,M,M,100.00,7500.00,M,M,FZFG,M,M,M,M,M,M,30.20,KCXP 211115Z AUTO 00000KT 1/4SM FZFG BKN001 OVC075 M01/M01 A2999 RMK AO2,M
05U,2024-02-21 11:15,-116.0051,39.6042,1811.23,33.80,32.00,93.03,M,4.00,0.00,29.97,M,10.00,M,M,M,M,M,M,M,M,M,M,M,M,M,M,M,M,29.52,K05U 211115Z AUTO VRB04KT 10SM 01/00 A2997 RMK A01,M
MEV,2024-02-21 11:15,-119.7500,38.9963,1441.42,30.20,30.20,100.00,0.00,0.00,0.00,29.98,M,10.00,M,SCT,M,M,M,6000.00,M,M,M,M,M,M,M,M,M,M,30.20,KMEV 211115Z AUTO 00000KT 10SM SCT060 M01/M01 A2998 RMK AO2,M
BAM,2024-02-21 11:15,-116.8743,40.5990,1382.36,41.00,35.60,80.93,230.00,4.00,0.00,29.97,M,10.00,M,OVC,M,M,M,6000.00,M,M,M,M,M,M,M,M,M,M,37.93,KBAM 211115Z AUTO 23004KT 10SM OVC060 05/02 A2997 RMK AO1,M
HTH,2024-02-21 11:15,-118.6315,38.5448,1282.89,39.20,33.80,80.79,190.00,6.00,0.00,29.99,M,10.00,M,FEW,M,M,M,8000.00,M,M,M,M,M,M,M,M,M,M,34.20,KHTH 211115Z AUTO 19006KT 10SM FEW080 04/01 A2999 RMK A01,M
10U,2024-02-21 11:15,-116.1876,41.9532,1637.00,32.00,28.40,86.39,320.00,4.00,0.00,29.93,M,10.00,M,SCT,OVC,M,M,5500.00,7500.00,M,M,M,M,M,M,M,M,M,27.42,K10U 211115Z AUTO 32004KT 10SM SCT055 OVC075 M00/M02 A2993 RMK AO2,M
INS,2024-02-21 11:15,-115.6733,36.5872,955.00,44.60,42.80,93.35,50.00,7.00,0.00,29.98,1013.60,3.00,M,BKN,OVC,M,M,500.00,900.00,M,M,BR,M,M,M,M,M,M,40.14,KINS 211115Z AUTO 05007KT 3SM BR BKN005 OVC009 07/06 A2998 RMK AO2 BKN V OVC SLP136,M
TMT,2024-02-21 11:15,-117.1971,39.4643,1749.34,33.80,31.60,91.54,250.00,9.00,0.00,29.98,M,10.00,M,SCT,BKN,OVC,M,3500.00,4200.00,6500.00,M,-SN,M,M,M,M,M,M,25.75,KTMT 211115Z AUTO 25009KT 10SM -SN SCT035 BKN042 OVC065 01/00 A2998 RMK AO2 T00101002,M
EKO,2024-02-21 11:18,-115.7860,40.8242,1367.00,33.00,32.00,96.06,0.00,0.00,0.01,29.92,M,4.00,M,SCT,SCT,OVC,M,200.00,900.00,1300.00,M,-SN BR,M,M,M,M,M,M,33.00,KEKO 211118Z AUTO 00000KT 4SM -SN BR SCT002 SCT009 OVC013 01/00 A2992 RMK AO2 P0001 T00060000,M
ELY,2024-02-21 11:19,-114.8453,39.2950,1909.00,33.00,31.00,92.25,160.00,10.00,0.01,29.95,M,4.00,M,BKN,BKN,OVC,M,1500.00,2100.00,2900.00,M,-SN BR,M,M,M,M,M,M,24.22,KELY 211119Z AUTO 16010KT 4SM -SN BR BKN015 BKN021 OVC029 01/M01 A2995 RMK AO2 P0001 T00061006,M
INS,2024-02-21 11:20,-115.6733,36.5872,955.00,44.60,41.00,87.09,70.00,3.00,0.00,29.98,1013.60,5.00,M,OVC,M,M,M,700.00,M,M,M,BR,M,M,M,M,M,M,43.09,KINS 211120Z AUTO 07003KT 5SM BR OVC007 07/05 A2998 RMK AO2 SLP136,M
VGT,2024-02-21 11:20,-115.1933,36.2111,667.00,49.00,48.00,96.32,0.00,0.00,0.00,29.98,M,1.75,M,SCT,M,M,M,200.00,M,M,M,BR,M,M,M,M,M,M,49.00,KVGT 211120Z AUTO 00000KT 1 3/4SM BR SCT002 09/09 A2998 RMK AO2 T00940089,M
TPH,2024-02-21 11:21,-117.0904,38.0505,1654.00,38.00,36.00,92.42,180.00,5.00,0.00,29.97,M,10.00,M,FEW,OVC,M,M,1100.00,4400.00,M,M,M,M,M,M,M,M,M,33.52,KTPH 211121Z AUTO 18005KT 10SM FEW011 OVC044 03/02 A2997 RMK AO2 T00330022,M
VGT,2024-02-21 11:23,-115.1933,36.2111,667.00,49.00,48.00,96.32,0.00,0.00,0.00,29.98,M,0.75,M,VV ,M,M,M,200.00,M,M,M,BR,M,M,M,M,M,M,49.00,KVGT 211123Z AUTO 00000KT 3/4SM BR VV002 09/09 A2998 RMK AO2 T00940089,M
ELY,2024-02-21 11:26,-114.8453,39.2950,1909.00,33.00,31.00,92.25,150.00,8.00,0.02,29.95,M,2.50,M,BKN,BKN,OVC,M,1300.00,2200.00,2900.00,M,-SN BR,M,M,M,M,M,M,25.34,KELY 211126Z AUTO 15008KT 2 1/2SM -SN BR BKN013 BKN022 OVC029 01/M01 A2995 RMK AO2 P0002 T00061006,M
VGT,2024-02-21 11:34,-115.1933,36.2111,667.00,49.00,48.00,96.32,0.00,0.00,0.00,29.98,M,0.25,M,VV ,M,M,M,200.00,M,M,M,FG,M,M,M,M,M,M,49.00,KVGT 211134Z AUTO 00000KT 1/4SM FG VV002 09/09 A2998 RMK AO2 T00940089,M
BVU,2024-02-21 11:35,-114.8611,35.9475,671.00,48.20,48.20,100.00,0.00,0.00,0.00,29.98,M,10.00,M,BKN,OVC,M,M,6000.00,9500.00,M,M,M,M,M,M,M,M,M,48.20,KBVU 211135Z AUTO 00000KT 10SM BKN060 OVC095 09/09 A2998 RMK AO2,M
CXP,2024-02-21 11:35,-119.7326,39.1923,1431.00,30.20,30.20,100.00,0.00,0.00,0.00,30.00,M,0.75,M,BKN,OVC,M,M,200.00,7500.00,M,M,BR,M,M,M,M,M,M,30.20,KCXP 211135Z AUTO 00000KT 3/4SM BR BKN002 OVC075 M01/M01 A3000 RMK AO2,M
RTS,2024-02-21 11:35,-119.8764,39.6682,1539.00,32.00,32.00,100.00,0.00,0.00,0.00,29.99,M,0.50,M,OVC,M,M,M,200.00,M,M,M,FZFG,M,M,M,M,M,M,32.00,KRTS 211135Z AUTO 00000KT 1/2SM FZFG OVC002 M00/M00 A2999 RMK AO2,M
05U,2024-02-21 11:35,-116.0051,39.6042,1811.23,33.80,32.00,93.03,0.00,0.00,0.00,29.97,M,5.00,M,M,M,M,M,M,M,M,M,BR,M,M,M,M,M,M,33.80,K05U 211135Z AUTO 00000KT 5SM BR 01/00 A2997 RMK A01,M
MEV,2024-02-21 11:35,-119.7500,38.9963,1441.42,28.40,26.60,92.86,180.00,7.00,0.00,29.98,M,10.00,M,BKN,OVC,M,M,6000.00,6500.00,M,M,M,M,M,M,M,M,M,20.39,KMEV 211135Z AUTO 18007KT 10SM BKN060 OVC065 M02/M03 A2998 RMK AO2,M
BAM,2024-02-21 11:35,-116.8743,40.5990,1382.36,39.20,35.60,86.79,300.00,4.00,0.00,29.96,M,10.00,M,OVC,M,M,M,6000.00,M,M,M,M,M,M,M,M,M,M,35.83,KBAM 211135Z AUTO 30004KT 10SM OVC060 04/02 A2996 RMK AO1,M
HTH,2024-02-21 11:35,-118.6315,38.5448,1282.89,39.20,33.80,80.79,150.00,6.00,0.00,29.98,M,10.00,M,FEW,FEW,M,M,7000.00,8000.00,M,M,M,M,M,M,M,M,M,34.20,KHTH 211135Z AUTO 15006KT 10SM FEW070 FEW080 04/01 A2998 RMK A01,M
10U,2024-02-21 11:35,-116.1876,41.9532,1637.00,30.20,28.40,92.92,0.00,0.00,0.00,29.94,M,10.00,M,SCT,BKN,OVC,M,5000.00,6000.00,7000.00,M,M,M,M,M,M,M,M,30.20,K10U 211135Z AUTO 00000KT 10SM SCT050 BKN060 OVC070 M01/M02 A2994 RMK AO2,M
TMT,2024-02-21 11:35,-117.1971,39.4643,1749.34,33.30,32.00,94.91,230.00,6.00,0.00,29.98,M,10.00,M,SCT,BKN,OVC,M,2300.00,3500.00,4200.00,M,-SN,M,M,M,M,M,M,27.10,KTMT 211135Z AUTO 23006KT 10SM -SN SCT023 BKN035 OVC042 01/00 A2998 RMK AO2 T00070000,M
ELY,2024-02-21 11:40,-114.8453,39.2950,1909.00,32.00,31.00,96.04,160.00,8.00,0.03,29.96,M,3.00,M,BKN,BKN,OVC,M,1300.00,2300.00,3900.00,M,-SN BR,M,M,M,M,M,M,24.11,KELY 211140Z AUTO 16008KT 3SM -SN BR BKN013 BKN023 OVC039 00/M01 A2996 RMK AO2 P0003 T00001006,M
LAS,2024-02-21 11:43,-115.1634,36.0719,663.00,47.00,47.00,100.00,0.00,0.00,0.00,29.99,M,8.00,M,FEW,SCT,OVC,M,0.00,300.00,16000.00,M,VCFG,M,M,M,M,M,M,47.00,KLAS 211143Z 00000KT 8SM VCFG FEW000 SCT003 OVC160 08/08 A2999 RMK AO2 BR FEW000 T00830083 $,M
EKO,2024-02-21 11:45,-115.7860,40.8242,1367.00,33.00,31.00,92.25,230.00,3.00,0.01,29.92,M,6.00,M,BKN,OVC,M,M,300.00,1200.00,M,M,-SN BR,M,M,M,M,M,M,29.83,KEKO 211145Z AUTO 23003KT 6SM -SN BR BKN003 OVC012 01/M01 A2992 RMK AO2 P0001 T00061006,M
HND,2024-02-21 11:46,-115.1344,35.9729,742.79,44.60,44.60,100.00,30.00,5.00,0.00,30.00,M,1.00,M,VV ,M,M,M,100.00,M,M,M,BR,M,M,M,M,M,M,41.36,KHND 211146Z AUTO 03005KT 1SM BR VV001 07/07 A3000 RMK AO2,M
HND,2024-02-21 11:48,-115.1344,35.9729,742.79,44.60,42.80,93.35,20.00,4.00,0.00,30.00,M,0.50,M,VV ,M,M,M,100.00,M,M,M,FG,M,M,M,M,M,M,42.13,KHND 211148Z AUTO 02004KT 1/2SM FG VV001 07/06 A3000 RMK AO2,M
ELY,2024-02-21 11:48,-114.8453,39.2950,1909.00,32.00,30.20,92.97,170.00,7.00,0.03,29.95,M,5.00,M,SCT,BKN,OVC,M,1300.00,2100.00,4100.00,M,-SN BR,M,M,M,M,M,M,24.78,KELY 211148Z AUTO 17007KT 5SM -SN BR SCT013 BKN021 OVC041 00/M01 A2995 RMK AO2 P0003,M
INS,2024-02-21 11:50,-115.6733,36.5872,955.00,44.60,42.80,93.35,0.00,0.00,0.00,29.98,1013.60,8.00,M,OVC,M,M,M,600.00,M,M,M,M,M,M,M,M,M,M,44.60,KINS 211150Z AUTO 00000KT 8SM OVC006 07/06 A2998 RMK AO2 SLP136,M
P68,2024-02-21 11:53,-116.0056,39.6014,1993.00,33.00,31.00,92.25,120.00,4.00,0.00,29.95,1012.40,M,M,M,M,M,M,M,M,M,M,M,M,M,M,M,M,M,28.59,KP68 211153Z AUTO 12004KT 01/M01 A2995 RMK AO1 SLP124 60010 70010 T00061006 10028 20006 56006,M
DRA,2024-02-21 11:53,-116.0278,36.6206,1009.00,42.00,40.00,92.55,0.00,0.00,0.00,29.97,1013.60,10.00,M,BKN,M,M,M,4400.00,M,M,M,M,M,M,M,M,M,M,42.00,KDRA 211153Z AUTO 00000KT 10SM BKN044 06/04 A2997 RMK AO2 SLP136 T00560044 10094 20050 55007,M
ELY,2024-02-21 11:53,-114.8453,39.2950,1909.00,32.00,31.00,96.04,160.00,7.00,0.03,29.95,1012.90,7.00,M,FEW,BKN,OVC,M,1300.00,2900.00,4100.00,M,UP,M,M,M,M,M,M,24.78,KELY 211153Z AUTO 16007KT 7SM UP FEW013 BKN029 OVC041 00/M01 A2995 RMK AO2 UPB53SNE53 SLP129 P0003 60004 70011 T00001006 10033 20000 50003,M
VGT,2024-02-21 11:53,-115.1933,36.2111,667.00,49.00,48.00,96.32,0.00,0.00,0.00,29.99,1017.00,0.50,M,VV ,M,M,M,200.00,M,M,M,FG,M,M,M,M,M,M,49.00,KVGT 211153Z AUTO 00000KT 1/2SM FG VV002 09/09 A2999 RMK AO2 SLP170 70021 T00940089 10106 20094 56012,M
LOL,2024-02-21 11:53,-118.5701,40.0684,1192.43,37.00,34.00,88.78,0.00,0.00,0.00,29.98,1014.90,10.00,M,OVC,M,M,M,5500.00,M,M,M,M,M,M,M,M,M,M,37.00,KLOL 211153Z AUTO 00000KT 10SM OVC055 03/01 A2998 RMK AO2 SLP149 60000 T00280011 10072 20028 56000,M
BVU,2024-02-21 11:55,-114.8611,35.9475,671.00,48.20,46.40,93.45,0.00,0.00,0.00,29.98,M,10.00,M,OVC,M,M,M,6000.00,M,M,M,M,M,M,M,M,M,M,48.20,KBVU 211155Z AUTO 00000KT 10SM OVC060 09/08 A2998 RMK AO2,M
CXP,2024-02-21 11:55,-119.7326,39.1923,1431.00,32.00,32.00,100.00,0.00,0.00,0.00,30.00,M,5.00,M,FEW,SCT,BKN,M,200.00,4800.00,6000.00,M,BR,M,M,M,M,M,M,32.00,KCXP 211155Z AUTO 00000KT 5SM BR FEW002 SCT048 BKN060 M00/M00 A3000 RMK AO2,M
RNO,2024-02-21 11:55,-119.7711,39.4839,1341.00,37.00,34.00,88.78,0.00,0.00,0.00,29.99,1014.40,10.00,M,BKN,BKN,M,M,1000.00,6000.00,M,M,M,M,M,M,M,M,M,37.00,KRNO 211155Z 00000KT 10SM BKN010 BKN060 03/01 A2999 RMK AO2 SLP144 60001 70004 T00280011 10039 20028 55000,M
RTS,2024-02-21 11:55,-119.8764,39.6682,1539.00,32.00,32.00,100.00,0.00,0.00,0.00,29.99,M,0.25,M,OVC,M,M,M,200.00,M,M,M,FZFG,M,M,M,M,M,M,32.00,KRTS 211155Z AUTO 00000KT 1/4SM FZFG OVC002 M00/M00 A2999 RMK AO2,M
05U,2024-02-21 11:55,-116.0051,39.6042,1811.23,33.80,32.00,93.03,0.00,0.00,0.01,29.97,M,9.00,M,M,M,M,M,M,M,M,M,M,M,M,M,M,M,M,33.80,K05U 211155Z AUTO 00000KT 9SM 01/00 A2997 RMK A01 P0001,M
MEV,2024-02-21 11:55,-119.7500,38.9963,1441.42,28.40,28.40,100.00,50.00,5.00,0.00,30.00,M,10.00,M,OVC,M,M,M,5500.00,M,M,M,M,M,M,M,M,M,M,22.12,KMEV 211155Z AUTO 05005KT 10SM OVC055 M02/M02 A3000 RMK AO2,M
BAM,2024-02-21 11:55,-116.8743,40.5990,1382.36,39.20,35.60,86.79,0.00,0.00,0.00,29.96,M,10.00,M,OVC,M,M,M,6000.00,M,M,M,M,M,M,M,M,M,M,39.20,KBAM 211155Z AUTO 00000KT 10SM OVC060 04/02 A2996 RMK AO1,M
HTH,2024-02-21 11:55,-118.6315,38.5448,1282.89,37.40,32.00,80.65,30.00,5.00,0.00,29.99,M,10.00,M,CLR,M,M,M,M,M,M,M,M,M,M,M,M,M,M,32.81,KHTH 211155Z AUTO 03005KT 10SM CLR 03/00 A2999 RMK A01,M
TMT,2024-02-21 11:55,-117.1971,39.4643,1749.34,33.30,32.00,94.91,230.00,4.00,0.00,29.98,M,7.00,M,SCT,BKN,OVC,M,1500.00,2300.00,2900.00,M,-SN,M,M,M,M,M,M,28.94,KTMT 211155Z AUTO 23004KT 7SM -SN SCT015 BKN023 OVC029 01/00 A2998 RMK AO2 70002 T00071001 10019 20002,M
10U,2024-02-21 11:55,-116.1876,41.9532,1637.00,30.20,28.40,92.92,0.00,0.00,0.00,29.94,M,10.00,M,FEW,BKN,OVC,M,4300.00,5500.00,6500.00,M,M,M,M,M,M,M,M,30.20,K10U 211155Z AUTO 00000KT 10SM FEW043 BKN055 OVC065 M01/M02 A2994 RMK AO2,M
INS,2024-02-21 11:55,-115.6733,36.5872,955.00,45.00,42.30,90.19,0.00,0.00,0.00,29.99,1013.90,10.00,M,OVC,M,M,M,600.00,M,M,M,M,M,M,M,M,M,M,45.00,KINS 211155Z AUTO 00000KT 10SM OVC006 07/06 A2999 RMK AO2 SLP139 70001 T00720057 10093 20063 55006,M
LSV,2024-02-21 11:55,-115.0343,36.2362,570.00,48.20,46.00,92.05,90.00,5.00,0.00,29.97,1014.50,10.00,M,FEW,SCT,M,M,13000.00,16000.00,M,M,M,M,M,M,M,M,M,45.63,KLSV 211155Z AUTO 09005KT 10SM FEW130 SCT160 09/08 A2997 RMK AO2 SLP145 7//// T00900078 10113 20089 56011 $,M
EKO,2024-02-21 11:56,-115.7860,40.8242,1367.00,33.00,31.00,92.25,250.00,4.00,0.01,29.93,1013.00,3.00,M,BKN,OVC,M,M,300.00,900.00,M,M,-SN BR,M,M,M,M,M,M,28.59,KEKO 211156Z AUTO 25004KT 3SM -SN BR BKN003 OVC009 01/M01 A2993 RMK AO2 SLP130 P0001 60014 70025 T00061006 10033 20006 56005,M
WMC,2024-02-21 11:56,-117.8072,40.9019,1315.00,38.00,31.00,75.65,320.00,4.00,0.00,29.96,1013.30,10.00,M,OVC,M,M,M,9500.00,M,M,M,M,M,M,M,M,M,M,34.43,KWMC 211156Z AUTO 32004KT 10SM OVC095 03/M01 A2996 RMK AO2 SLP133 T00331006 10050 20028 53001,M
NFL,2024-02-21 11:56,-118.7010,39.4166,1199.00,35.00,31.00,85.17,0.00,0.00,0.00,29.98,1012.40,10.00,M,CLR,M,M,M,M,M,M,M,M,M,M,M,M,M,M,35.00,KNFL 211156Z AUTO 00000KT 10SM CLR 02/M01 A2998 RMK AO2 SLP124 T00171006 10072 20017 55000,M
HND,2024-02-21 11:56,-115.1344,35.9729,742.79,45.00,44.00,96.26,M,3.00,0.00,30.00,1017.70,0.50,M,FEW,SCT,BKN,M,100.00,6000.00,12000.00,M,FG,M,M,M,M,M,M,43.55,KHND 211156Z AUTO VRB03KT 1/2SM FG FEW001 SCT060 BKN120 07/07 A3000 RMK AO2 SLP177 70015 T00720067 10100 20072 56012,M
TPH,2024-02-21 11:56,-117.0904,38.0505,1654.00,37.00,35.00,92.39,280.00,4.00,0.00,29.97,1013.60,10.00,M,SCT,BKN,OVC,M,2900.00,4100.00,5000.00,M,M,M,M,M,M,M,M,33.26,KTPH 211156Z AUTO 28004KT 10SM SCT029 BKN041 OVC050 03/02 A2997 RMK AO2 SLP136 70013 T00280017 10044 20028 55003,M
LAS,2024-02-21 11:56,-115.1634,36.0719,663.00,47.00,47.00,100.00,0.00,0.00,0.00,29.98,1015.10,8.00,M,FEW,FEW,OVC,M,0.00,300.00,16000.00,M,VCFG,M,M,M,M,M,M,47.00,KLAS 211156Z 00000KT 8SM VCFG FEW000 FEW003 OVC160 08/08 A2998 RMK AO2 SLP151 BR FEW000 70014 T00830083 10094 20083 56013 $,M
HND,2024-02-21 11:58,-115.1344,35.9729,742.79,44.60,44.60,100.00,250.00,3.00,0.00,30.00,M,1.00,M,FEW,SCT,BKN,M,100.00,6000.00,12000.00,M,BR,M,M,M,M,M,M,43.09,KHND 211158Z AUTO 25003KT 1SM BR FEW001 SCT060 BKN120 07/07 A3000 RMK AO2,M
ELY,2024-02-21 12:00,-114.8453,39.2950,1909.00,32.00,31.00,96.04,190.00,4.00,T,29.95,M,10.00,M,FEW,BKN,OVC,M,1800.00,4100.00,12000.00,M,M,M,M,M,M,M,M,27.42,KELY 211200Z AUTO 19004KT 10SM FEW018 BKN041 OVC120 00/M01 A2995 RMK AO2 UPE1157 P0000 T00001006,M
HND,2024-02-21 12:00,-115.1344,35.9729,742.79,44.60,44.60,100.00,M,3.00,0.00,30.00,M,2.00,M,FEW,BKN,BKN,M,100.00,5500.00,12000.00,M,BR,M,M,M,M,M,M,43.09,KHND 211200Z AUTO VRB03KT 2SM BR FEW001 BKN055 BKN120 07/07 A3000 RMK AO2,M
VGT,2024-02-21 12:02,-115.1933,36.2111,667.00,49.00,48.00,96.32,0.00,0.00,0.00,29.98,M,0.25,M,VV ,M,M,M,200.00,M,M,M,FG,M,M,M,M,M,M,49.00,KVGT 211202Z AUTO 00000KT 1/4SM FG VV002 09/09 A2998 RMK AO2 T00940089,M
TPH,2024-02-21 12:03,-117.0904,38.0505,1654.00,37.00,36.00,96.13,290.00,4.00,0.00,29.98,M,10.00,M,BKN,BKN,OVC,M,2900.00,4100.00,5000.00,M,M,M,M,M,M,M,M,33.26,KTPH 211203Z AUTO 29004KT 10SM BKN029 BKN041 OVC050 03/02 A2998 RMK AO2 T00280022,M
EKO,2024-02-21 12:06,-115.7860,40.8242,1367.00,33.00,32.00,96.06,230.00,3.00,0.01,29.93,M,3.00,M,BKN,OVC,M,M,500.00,900.00,M,M,-SN BR,M,M,M,M,M,M,29.83,KEKO 211206Z AUTO 23003KT 3SM -SN BR BKN005 OVC009 01/00 A2993 RMK AO2 P0001 T00060000,M
HND,2024-02-21 12:07,-115.1344,35.9729,742.79,44.60,44.60,100.00,M,3.00,0.00,30.00,M,10.00,M,FEW,SCT,BKN,M,100.00,5500.00,11000.00,M,M,M,M,M,M,M,M,43.09,KHND 211207Z AUTO VRB03KT 10SM FEW001 SCT055 BKN110 07/07 A3000 RMK AO2,M
ELY,2024-02-21 12:09,-114.8453,39.2950,1909.00,33.00,31.00,92.25,0.00,0.00,T,29.96,M,10.00,M,FEW,BKN,OVC,M,900.00,4300.00,12000.00,M,M,M,M,M,M,M,M,33.00,KELY 211209Z AUTO 00000KT 10SM FEW009 BKN043 OVC120 01/M01 A2996 RMK AO2 UPE1157 P0000 T00061006,M
VGT,2024-02-21 12:09,-115.1933,36.2111,667.00,49.00,48.00,96.32,20.00,3.00,0.00,29.98,M,0.50,M,VV ,M,M,M,200.00,M,M,M,FG,M,M,M,M,M,M,48.12,KVGT 211209Z AUTO 02003KT 1/2SM FG VV002 09/09 A2998 RMK AO2 T00940089,M
HND,2024-02-21 12:12,-115.1344,35.9729,742.79,44.60,44.60,100.00,70.00,4.00,0.00,30.00,M,1.75,M,FEW,SCT,BKN,M,100.00,5500.00,11000.00,M,BR,M,M,M,M,M,M,42.13,KHND 211212Z AUTO 07004KT 1 3/4SM BR FEW001 SCT055 BKN110 07/07 A3000 RMK AO2,M
BVU,2024-02-21 12:15,-114.8611,35.9475,671.00,48.20,46.40,93.45,0.00,0.00,0.00,29.98,M,10.00,M,SCT,SCT,OVC,M,6500.00,8000.00,10000.00,M,M,M,M,M,M,M,M,48.20,KBVU 211215Z AUTO 00000KT 10SM SCT065 SCT080 OVC100 09/08 A2998 RMK AO2,M
CXP,2024-02-21 12:15,-119.7326,39.1923,1431.00,32.00,32.00,100.00,0.00,0.00,0.00,30.01,M,6.00,M,FEW,BKN,OVC,M,4600.00,5500.00,9500.00,M,BR,M,M,M,M,M,M,32.00,KCXP 211215Z AUTO 00000KT 6SM BR FEW046 BKN055 OVC095 M00/M00 A3001 RMK AO2,M
HND,2024-02-21 12:15,-115.1344,35.9729,742.79,44.60,44.60,100.00,100.00,3.00,0.00,30.00,M,0.75,M,FEW,SCT,BKN,M,100.00,5500.00,11000.00,M,BR,M,M,M,M,M,M,43.09,KHND 211215Z AUTO 10003KT 3/4SM BR FEW001 SCT055 BKN110 07/07 A3000 RMK AO2,M
RTS,2024-02-21 12:15,-119.8764,39.6682,1539.00,32.00,32.00,100.00,290.00,3.00,0.00,30.00,M,0.25,M,OVC,M,M,M,200.00,M,M,M,FZFG,M,M,M,M,M,M,28.69,KRTS 211215Z AUTO 29003KT 1/4SM FZFG OVC002 M00/M00 A3000 RMK AO2,M
05U,2024-02-21 12:15,-116.0051,39.6042,1811.23,33.80,32.00,93.03,0.00,0.00,0.00,29.98,M,10.00,M,M,M,M,M,M,M,M,M,M,M,M,M,M,M,M,33.80,K05U 211215Z AUTO 00000KT 10SM 01/00 A2998 RMK A01,M
MEV,2024-02-21 12:15,-119.7500,38.9963,1441.42,30.20,28.40,92.92,120.00,4.00,0.00,29.99,M,10.00,M,OVC,M,M,M,5500.00,M,M,M,M,M,M,M,M,M,M,25.32,KMEV 211215Z AUTO 12004KT 10SM OVC055 M01/M02 A2999 RMK AO2,M
BAM,2024-02-21 12:15,-116.8743,40.5990,1382.36,39.20,35.60,86.79,0.00,0.00,0.00,29.96,M,10.00,M,OVC,M,M,M,6000.00,M,M,M,M,M,M,M,M,M,M,39.20,KBAM 211215Z AUTO 00000KT 10SM OVC060 04/02 A2996 RMK AO1,M
HTH,2024-02-21 12:15,-118.6315,38.5448,1282.89,37.40,33.80,86.69,60.00,3.00,0.00,30.00,M,10.00,M,CLR,M,M,M,M,M,M,M,M,M,M,M,M,M,M,34.86,KHTH 211215Z AUTO 06003KT 10SM CLR 03/01 A3000 RMK A01,M
10U,2024-02-21 12:15,-116.1876,41.9532,1637.00,30.20,28.40,92.92,0.00,0.00,0.00,29.94,M,10.00,M,SCT,BKN,OVC,M,3500.00,4200.00,5500.00,M,M,M,M,M,M,M,M,30.20,K10U 211215Z AUTO 00000KT 10SM SCT035 BKN042 OVC055 M01/M02 A2994 RMK AO2,M
TMT,2024-02-21 12:15,-117.1971,39.4643,1749.34,32.00,32.00,100.00,160.00,5.00,0.00,29.98,M,10.00,M,SCT,BKN,OVC,M,1000.00,2700.00,10000.00,M,-SN,M,M,M,M,M,M,26.40,KTMT 211215Z AUTO 16005KT 10SM -SN SCT010 BKN027 OVC100 00/00 A2998 RMK AO2 T00011001,M
ELY,2024-02-21 12:20,-114.8453,39.2950,1909.00,33.00,32.00,96.06,0.00,0.00,T,29.96,M,8.00,M,BKN,BKN,OVC,M,2500.00,4300.00,12000.00,M,-SN,M,M,M,M,M,M,33.00,KELY 211220Z AUTO 00000KT 8SM -SN BKN025 BKN043 OVC120 01/00 A2996 RMK AO2 UPE1157SNB20 P0000 T00060000,M
EKO,2024-02-21 12:24,-115.7860,40.8242,1367.00,33.00,32.00,96.06,220.00,7.00,0.01,29.93,M,6.00,M,OVC,M,M,M,400.00,M,M,M,-SN BR,M,M,M,M,M,M,26.00,KEKO 211224Z AUTO 22007KT 6SM -SN BR OVC004 01/00 A2993 RMK AO2 P0001 T00060000,M
HND,2024-02-21 12:25,-115.1344,35.9729,742.79,44.60,44.60,100.00,80.00,5.00,0.00,29.99,M,1.25,M,FEW,BKN,M,M,100.00,12000.00,M,M,BR,M,M,M,M,M,M,41.36,KHND 211225Z AUTO 08005KT 1 1/4SM BR FEW001 BKN120 07/07 A2999 RMK AO2 VIS 3/4V5,M
ELY,2024-02-21 12:26,-114.8453,39.2950,1909.00,33.00,31.00,92.25,0.00,0.00,T,29.96,M,2.50,M,FEW,BKN,OVC,M,600.00,2300.00,4600.00,M,-SN BR,M,M,M,M,M,M,33.00,KELY 211226Z AUTO 00000KT 2 1/2SM -SN BR FEW006 BKN023 OVC046 01/M01 A2996 RMK AO2 UPE1157SNB20 P0000 T00061006,M
VGT,2024-02-21 12:31,-115.1933,36.2111,667.00,49.00,48.00,96.32,70.00,3.00,0.00,29.98,M,1.50,M,OVC,M,M,M,200.00,M,M,M,BR,M,M,M,M,M,M,48.12,KVGT 211231Z AUTO 07003KT 1 1/2SM BR OVC002 09/09 A2998 RMK AO2 T00940089,M
HND,2024-02-21 12:32,-115.1344,35.9729,742.79,46.40,44.60,93.40,60.00,5.00,0.00,29.99,M,3.00,M,FEW,SCT,M,M,100.00,11000.00,M,M,BR,M,M,M,M,M,M,43.50,KHND 211232Z AUTO 06005KT 3SM BR FEW001 SCT110 08/07 A2999 RMK AO2,M
BVU,2024-02-21 12:35,-114.8611,35.9475,671.00,48.20,46.40,93.45,10.00,4.00,0.00,29.98,M,10.00,M,BKN,BKN,OVC,M,6500.00,8000.00,11000.00,M,M,M,M,M,M,M,M,46.34,KBVU 211235Z AUTO 01004KT 10SM BKN065 BKN080 OVC110 09/08 A2998 RMK AO2,M
CXP,2024-02-21 12:35,-119.7326,39.1923,1431.00,30.20,30.20,100.00,0.00,0.00,0.00,30.01,M,9.00,M,FEW,SCT,OVC,M,4700.00,6000.00,9500.00,M,M,M,M,M,M,M,M,30.20,KCXP 211235Z AUTO 00000KT 9SM FEW047 SCT060 OVC095 M01/M01 A3001 RMK AO2,M
RTS,2024-02-21 12:35,-119.8764,39.6682,1539.00,32.00,32.00,100.00,0.00,0.00,0.00,30.00,M,0.25,M,OVC,M,M,M,200.00,M,M,M,FZFG,M,M,M,M,M,M,32.00,KRTS 211235Z AUTO 00000KT M1/4SM FZFG OVC002 M00/M00 A3000 RMK AO2,M
05U,2024-02-21 12:35,-116.0051,39.6042,1811.23,33.80,32.00,93.03,0.00,0.00,0.00,29.98,M,10.00,M,M,M,M,M,M,M,M,M,M,M,M,M,M,M,M,33.80,K05U 211235Z AUTO 00000KT 10SM 01/00 A2998 RMK A01,M
MEV,2024-02-21 12:35,-119.7500,38.9963,1441.42,30.20,30.20,100.00,70.00,3.00,0.00,30.00,M,10.00,M,FEW,OVC,M,M,4900.00,5500.00,M,M,M,M,M,M,M,M,M,26.63,KMEV 211235Z AUTO 07003KT 10SM FEW049 OVC055 M01/M01 A3000 RMK AO2,M
BAM,2024-02-21 12:35,-116.8743,40.5990,1382.36,37.40,33.80,86.69,0.00,0.00,0.00,29.97,M,10.00,M,OVC,M,M,M,6000.00,M,M,M,M,M,M,M,M,M,M,37.40,KBAM 211235Z AUTO 00000KT 10SM OVC060 03/01 A2997 RMK AO1,M
HTH,2024-02-21 12:35,-118.6315,38.5448,1282.89,37.40,32.00,80.65,140.00,4.00,0.00,30.00,M,10.00,M,CLR,M,M,M,M,M,M,M,M,M,M,M,M,M,M,33.73,KHTH 211235Z AUTO 14004KT 10SM CLR 03/00 A3000 RMK A01,M
10U,2024-02-21 12:35,-116.1876,41.9532,1637.00,30.20,28.40,92.92,0.00,0.00,0.00,29.95,M,10.00,M,BKN,OVC,M,M,3300.00,4100.00,M,M,M,M,M,M,M,M,M,30.20,K10U 211235Z AUTO 00000KT 10SM BKN033 OVC041 M01/M02 A2995 RMK AO2,M
TMT,2024-02-21 12:35,-117.1971,39.4643,1749.34,32.00,32.00,100.00,180.00,4.00,0.00,29.99,M,10.00,M,BKN,OVC,M,M,7000.00,10000.00,M,M,M,M,M,M,M,M,M,27.42,KTMT 211235Z AUTO 18004KT 10SM BKN070 OVC100 00/00 A2999 RMK AO2 T00011001,M
EKO,2024-02-21 12:42,-115.7860,40.8242,1367.00,33.00,32.00,96.06,210.00,7.00,0.01,29.94,M,5.00,M,SCT,BKN,OVC,M,500.00,1300.00,3100.00,M,-SN BR,M,M,M,M,M,M,26.00,KEKO 211242Z AUTO 21007KT 5SM -SN BR SCT005 BKN013 OVC031 01/00 A2994 RMK AO2 P0001 T00060000,M
ELY,2024-02-21 12:50,-114.8453,39.2950,1909.00,32.00,30.20,92.97,90.00,3.00,0.02,29.96,M,1.50,M,FEW,OVC,M,M,700.00,1700.00,M,M,-SN BR,M,M,M,M,M,M,28.69,KELY 211250Z AUTO 09003KT 1 1/2SM -SN BR FEW007 OVC017 00/M01 A2996 RMK AO2 UPE1157SNB20 P0002,M
P68,2024-02-21 12:53,-116.0056,39.6014,1993.00,32.00,31.00,96.04,0.00,0.00,0.00,29.96,1012.80,M,M,M,M,M,M,M,M,M,M,M,M,M,M,M,M,M,32.00,KP68 211253Z AUTO 00000KT 00/M01 A2996 RMK AO1 SLP128 T00001006,M
DRA,2024-02-21 12:53,-116.0278,36.6206,1009.00,44.00,41.00,89.11,M,3.00,0.00,29.99,1013.80,10.00,M,FEW,OVC,M,M,1500.00,4700.00,M,M,M,M,M,M,M,M,M,42.41,KDRA 211253Z AUTO VRB03KT 10SM FEW015 OVC047 07/05 A2999 RMK AO2 SLP138 T00670050,M
ELY,2024-02-21 12:53,-114.8453,39.2950,1909.00,32.00,30.00,92.22,110.00,3.00,0.02,29.96,1013.30,1.75,M,BKN,OVC,M,M,2000.00,3600.00,M,M,-SN BR,M,M,M,M,M,M,28.69,KELY 211253Z AUTO 11003KT 1 3/4SM -SN BR BKN020 OVC036 00/M01 A2996 RMK AO2 UPE1157SNB20 SLP133 P0002 T00001011,M
VGT,2024-02-21 12:53,-115.1933,36.2111,667.00,49.00,48.00,96.32,360.00,3.00,0.00,29.97,1016.50,1.00,M,OVC,M,M,M,100.00,M,M,M,BR,M,M,M,M,M,M,48.12,KVGT 211253Z AUTO 36003KT 1SM BR OVC001 09/09 A2997 RMK AO2 SLP165 T00940089,M
LOL,2024-02-21 12:53,-118.5701,40.0684,1192.43,34.00,32.00,92.29,190.00,3.00,0.00,29.99,1015.80,10.00,M,OVC,M,M,M,7000.00,M,M,M,M,M,M,M,M,M,M,30.97,KLOL 211253Z AUTO 19003KT 10SM OVC070 01/00 A2999 RMK AO2 SLP158 T00110000,M
EKO,2024-02-21 12:54,-115.7860,40.8242,1367.00,33.80,32.00,93.03,220.00,7.00,M,29.94,M,8.00,M,SCT,BKN,OVC,M,1299.00,3500.00,4199.00,M,-SN,M,M,M,M,M,M,26.97,SPECI KEKO 211254Z 22007KT 8SM -SN SCT013 BKN035 OVC042 01/00 A2994 RMK AO2 P0002 FIBI,M
BVU,2024-02-21 12:55,-114.8611,35.9475,671.00,48.20,46.40,93.45,0.00,0.00,0.00,29.98,M,10.00,M,FEW,FEW,OVC,M,6500.00,8000.00,10000.00,M,M,M,M,M,M,M,M,48.20,KBVU 211255Z AUTO 00000KT 10SM FEW065 FEW080 OVC100 09/08 A2998 RMK AO2,M
CXP,2024-02-21 12:55,-119.7326,39.1923,1431.00,32.00,32.00,100.00,0.00,0.00,0.00,30.01,M,10.00,M,SCT,OVC,M,M,6000.00,9000.00,M,M,M,M,M,M,M,M,M,32.00,KCXP 211255Z AUTO 00000KT 10SM SCT060 OVC090 M00/M00 A3001 RMK AO2,M
RNO,2024-02-21 12:55,-119.7711,39.4839,1341.00,37.00,34.00,88.78,0.00,0.00,0.00,30.01,1015.50,10.00,M,BKN,BKN,M,M,1000.00,6000.00,M,M,M,M,M,M,M,M,M,37.00,KRNO 211255Z 00000KT 10SM BKN010 BKN060 03/01 A3001 RMK AO2 SLP155 T00280011,M
LSV,2024-02-21 12:55,-115.0343,36.2362,570.00,49.50,46.40,89.02,80.00,5.00,0.00,29.96,1014.20,10.00,M,CLR,M,M,M,M,M,M,M,M,M,M,M,M,M,M,47.18,KLSV 211255Z AUTO 08005KT 10SM CLR 10/08 A2996 RMK AO2 SLP142 T00970080 $,M
RTS,2024-02-21 12:55,-119.8764,39.6682,1539.00,32.00,32.00,100.00,0.00,0.00,0.00,30.01,M,0.25,M,OVC,M,M,M,200.00,M,M,M,FZFG,M,M,M,M,M,M,32.00,KRTS 211255Z AUTO 00000KT 1/4SM FZFG OVC002 M00/M00 A3001 RMK AO2,M
05U,2024-02-21 12:55,-116.0051,39.6042,1811.23,32.00,32.00,100.00,0.00,0.00,0.00,29.99,M,10.00,M,M,M,M,M,M,M,M,M,M,M,M,M,M,M,M,32.00,K05U 211255Z AUTO 00000KT 10SM 00/M00 A2999 RMK A01,M
MEV,2024-02-21 12:55,-119.7500,38.9963,1441.42,30.20,28.40,92.92,0.00,0.00,0.00,30.00,M,10.00,M,FEW,BKN,OVC,M,4700.00,5500.00,6500.00,M,M,M,M,M,M,M,M,30.20,KMEV 211255Z AUTO 00000KT 10SM FEW047 BKN055 OVC065 M01/M02 A3000 RMK AO2,M
BAM,2024-02-21 12:55,-116.8743,40.5990,1382.36,35.60,33.80,93.08,20.00,3.00,0.00,29.97,M,10.00,M,SCT,M,M,M,6000.00,M,M,M,M,M,M,M,M,M,M,32.80,KBAM 211255Z AUTO 02003KT 10SM SCT060 02/01 A2997 RMK AO1,M
HTH,2024-02-21 12:55,-118.6315,38.5448,1282.89,35.60,32.00,86.59,0.00,0.00,0.00,30.00,M,10.00,M,CLR,M,M,M,M,M,M,M,M,M,M,M,M,M,M,35.60,KHTH 211255Z AUTO 00000KT 10SM CLR 02/00 A3000 RMK A01,M
TMT,2024-02-21 12:55,-117.1971,39.4643,1749.34,32.00,32.00,100.00,210.00,5.00,0.00,30.00,M,10.00,M,BKN,BKN,OVC,M,8000.00,10000.00,12000.00,M,M,M,M,M,M,M,M,26.40,KTMT 211255Z AUTO 21005KT 10SM BKN080 BKN100 OVC120 00/00 A3000 RMK AO2 T00010000,M
10U,2024-02-21 12:55,-116.1876,41.9532,1637.00,32.00,28.40,86.39,0.00,0.00,0.00,29.95,M,10.00,M,FEW,SCT,BKN,M,1700.00,2200.00,2900.00,M,M,M,M,M,M,M,M,32.00,K10U 211255Z AUTO 00000KT 10SM FEW017 SCT022 BKN029 M00/M02 A2995 RMK AO2,M
EKO,2024-02-21 12:56,-115.7860,40.8242,1367.00,34.00,32.00,92.29,220.00,7.00,0.02,29.94,1013.70,8.00,M,SCT,BKN,OVC,M,1300.00,3500.00,4200.00,M,-SN,M,M,M,M,M,M,27.22,KEKO 211256Z AUTO 22007KT 8SM -SN SCT013 BKN035 OVC042 01/00 A2994 RMK AO2 SLP137 P0002 T00110000,M
WMC,2024-02-21 12:56,-117.8072,40.9019,1315.00,38.00,33.00,82.00,250.00,12.00,T,29.98,1014.40,8.00,M,SCT,BKN,OVC,M,2400.00,3100.00,4700.00,M,-RA,M,M,M,M,M,M,29.64,KWMC 211256Z AUTO 25012KT 8SM -RA SCT024 BKN031 OVC047 03/01 A2998 RMK AO2 RAB43 SLP144 P0000 T00330006,M
NFL,2024-02-21 12:56,-118.7010,39.4166,1199.00,32.00,29.00,88.53,0.00,0.00,0.00,30.00,1012.80,10.00,M,CLR,M,M,M,M,M,M,M,M,M,M,M,M,M,M,32.00,KNFL 211256Z AUTO 00000KT 10SM CLR 00/M02 A3000 RMK AO2 SLP128 T00001017,M
HND,2024-02-21 12:56,-115.1344,35.9729,742.79,46.00,46.00,100.00,120.00,4.00,0.00,30.00,1017.70,6.00,M,FEW,BKN,M,M,5500.00,12000.00,M,M,BR,M,M,M,M,M,M,43.77,KHND 211256Z AUTO 12004KT 6SM BR FEW055 BKN120 08/08 A3000 RMK AO2 SLP177 T00780078,M
TPH,2024-02-21 12:56,-117.0904,38.0505,1654.00,37.00,34.00,88.78,10.00,6.00,0.00,29.99,1014.50,10.00,M,OVC,M,M,M,1700.00,M,M,M,M,M,M,M,M,M,M,31.55,KTPH 211256Z AUTO 01006KT 10SM OVC017 03/01 A2999 RMK AO2 SLP145 T00280011,M
LAS,2024-02-21 12:56,-115.1634,36.0719,663.00,47.00,47.00,100.00,110.00,5.00,0.00,29.98,1014.90,6.00,M,FEW,SCT,OVC,M,0.00,300.00,11000.00,M,BR,M,M,M,M,M,M,44.21,KLAS 211256Z 11005KT 6SM BR FEW000 SCT003 OVC110 08/08 A2998 RMK AO2 SLP149 BR FEW000 MTNS OBSCURED DSNT SE-SW-NW T00830083 $,M
ELY,2024-02-21 12:57,-114.8453,39.2950,1909.00,32.00,31.00,96.04,100.00,3.00,T,29.96,M,3.00,M,OVC,M,M,M,2200.00,M,M,M,-SN BR,M,M,M,M,M,M,28.69,KELY 211257Z AUTO 10003KT 3SM -SN BR OVC022 00/M01 A2996 RMK AO2 P0000 T00001006,M
WMC,2024-02-21 13:04,-117.8072,40.9019,1315.00,37.00,33.00,85.29,260.00,9.00,0.01,29.98,M,9.00,18.00,BKN,BKN,OVC,M,2300.00,2900.00,3400.00,M,-RA,M,M,M,M,M,M,29.73,KWMC 211304Z AUTO 26009G18KT 9SM -RA BKN023 BKN029 OVC034 03/01 A2998 RMK AO2 P0001 T00280006,M
ELY,2024-02-21 13:06,-114.8453,39.2950,1909.00,32.00,31.00,96.04,110.00,3.00,T,29.96,M,1.75,M,OVC,M,M,M,1800.00,M,M,M,-SN BR,M,M,M,M,M,M,28.69,KELY 211306Z AUTO 11003KT 1 3/4SM -SN BR OVC018 00/M01 A2996 RMK AO2 P0000 T00001006,M
ELY,2024-02-21 13:11,-114.8453,39.2950,1909.00,32.00,31.00,96.04,0.00,0.00,T,29.96,M,0.75,M,VV ,M,M,M,1500.00,M,M,M,-SN BR,M,M,M,M,M,M,32.00,KELY 211311Z AUTO 00000KT 3/4SM -SN BR VV015 00/M01 A2996 RMK AO2 P0000 T00001006,M
VGT,2024-02-21 13:13,-115.1933,36.2111,667.00,49.00,48.00,96.32,260.00,5.00,0.00,29.99,M,2.00,M,BKN,OVC,M,M,100.00,1500.00,M,M,BR,M,M,M,M,M,M,46.58,KVGT 211313Z AUTO 26005KT 2SM BR BKN001 OVC015 09/09 A2999 RMK AO2 T00940089,M
BVU,2024-02-21 13:15,-114.8611,35.9475,671.00,48.20,46.40,93.45,0.00,0.00,0.00,29.99,M,10.00,M,FEW,SCT,BKN,M,4300.00,7000.00,7500.00,M,M,M,M,M,M,M,M,48.20,KBVU 211315Z AUTO 00000KT 10SM FEW043 SCT070 BKN075 09/08 A2999 RMK AO2,M
CXP,2024-02-21 13:15,-119.7326,39.1923,1431.00,30.20,32.00,M,0.00,0.00,0.00,30.02,M,10.00,M,BKN,BKN,BKN,M,6000.00,8500.00,10000.00,M,M,M,M,M,M,M,M,M,KCXP 211315Z AUTO 00000KT 10SM BKN060 BKN085 BKN100 M01/M00 A3002 RMK AO2,M
RTS,2024-02-21 13:15,-119.8764,39.6682,1539.00,30.20,32.00,M,0.00,0.00,0.00,30.02,M,0.25,M,OVC,M,M,M,200.00,M,M,M,FZFG,M,M,M,M,M,M,M,KRTS 211315Z AUTO 00000KT 1/4SM FZFG OVC002 M01/M00 A3002 RMK AO2,M
05U,2024-02-21 13:15,-116.0051,39.6042,1811.23,32.00,30.20,92.97,0.00,0.00,0.00,29.99,M,10.00,M,M,M,M,M,M,M,M,M,M,M,M,M,M,M,M,32.00,K05U 211315Z AUTO 00000KT 10SM M00/M01 A2999 RMK A01,M
MEV,2024-02-21 13:15,-119.7500,38.9963,1441.42,32.00,28.40,86.39,130.00,3.00,0.00,30.01,M,10.00,M,OVC,M,M,M,5500.00,M,M,M,M,M,M,M,M,M,M,28.69,KMEV 211315Z AUTO 13003KT 10SM OVC055 M00/M02 A3001 RMK AO2,M
BAM,2024-02-21 13:15,-116.8743,40.5990,1382.36,35.60,33.80,93.08,50.00,3.00,0.00,29.97,M,10.00,M,CLR,M,M,M,M,M,M,M,M,M,M,M,M,M,M,32.80,KBAM 211315Z AUTO 05003KT 10SM CLR 02/01 A2997 RMK AO1,M
HTH,2024-02-21 13:15,-118.6315,38.5448,1282.89,35.60,30.20,80.51,210.00,5.00,0.00,30.01,M,10.00,M,CLR,M,M,M,M,M,M,M,M,M,M,M,M,M,M,30.67,KHTH 211315Z AUTO 21005KT 10SM CLR 02/M01 A3001 RMK A01,M
10U,2024-02-21 13:15,-116.1876,41.9532,1637.00,33.80,30.20,86.49,0.00,0.00,0.00,29.96,M,10.00,M,FEW,OVC,M,M,2200.00,3100.00,M,M,M,M,M,M,M,M,M,33.80,K10U 211315Z AUTO 00000KT 10SM FEW022 OVC031 01/M01 A2996 RMK AO2,M
INS,2024-02-21 13:15,-115.6733,36.5872,955.00,44.60,42.80,93.35,0.00,0.00,0.00,30.00,1014.50,8.00,M,SCT,OVC,M,M,600.00,1500.00,M,M,M,M,M,M,M,M,M,44.60,KINS 211315Z AUTO 00000KT 8SM SCT006 OVC015 07/06 A3000 RMK AO2 SLP145,M
TMT,2024-02-21 13:15,-117.1971,39.4643,1749.34,32.50,31.60,96.44,230.00,7.00,0.00,30.01,M,10.00,M,SCT,OVC,M,M,9000.00,11000.00,M,M,M,M,M,M,M,M,M,25.39,KTMT 211315Z AUTO 23007KT 10SM SCT090 OVC110 00/00 A3001 RMK AO2 T00031002,M
VGT,2024-02-21 13:17,-115.1933,36.2111,667.00,49.00,48.00,96.32,250.00,5.00,0.00,29.99,M,3.00,M,SCT,OVC,M,M,100.00,1500.00,M,M,BR,M,M,M,M,M,M,46.58,KVGT 211317Z AUTO 25005KT 3SM BR SCT001 OVC015 09/09 A2999 RMK AO2 T00940089,M
ELY,2024-02-21 13:19,-114.8453,39.2950,1909.00,32.00,30.00,92.22,100.00,4.00,0.03,29.96,M,0.75,M,BKN,OVC,M,M,1400.00,2200.00,M,M,-SN BR,M,M,M,M,M,M,27.42,KELY 211319Z AUTO 10004KT 3/4SM -SN BR BKN014 OVC022 00/M01 A2996 RMK AO2 P0003 T00001011,M
ELY,2024-02-21 13:23,-114.8453,39.2950,1909.00,32.00,30.00,92.22,90.00,4.00,0.03,29.96,M,1.25,M,FEW,BKN,OVC,M,900.00,1500.00,2300.00,M,-SN BR,M,M,M,M,M,M,27.42,KELY 211323Z AUTO 09004KT 1 1/4SM -SN BR FEW009 BKN015 OVC023 00/M01 A2996 RMK AO2 P0003 T00001011,M
HND,2024-02-21 13:23,-115.1344,35.9729,742.79,46.40,44.60,93.40,280.00,3.00,0.00,30.01,M,5.00,M,SCT,OVC,M,M,200.00,5500.00,M,M,BR,M,M,M,M,M,M,45.15,KHND 211323Z AUTO 28003KT 5SM BR SCT002 OVC055 08/07 A3001 RMK AO2,M
ELY,2024-02-21 13:25,-114.8453,39.2950,1909.00,32.00,30.00,92.22,100.00,4.00,0.03,29.96,M,1.75,M,FEW,BKN,OVC,M,900.00,1300.00,2300.00,M,-SN BR,M,M,M,M,M,M,27.42,KELY 211325Z AUTO 10004KT 1 3/4SM -SN BR FEW009 BKN013 OVC023 00/M01 A2996 RMK AO2 P0003 T00001011,M
ELY,2024-02-21 13:28,-114.8453,39.2950,1909.00,32.00,30.00,92.22,90.00,3.00,0.03,29.96,M,3.00,M,BKN,OVC,M,M,1100.00,2100.00,M,M,-SN BR,M,M,M,M,M,M,28.69,KELY 211328Z AUTO 09003KT 3SM -SN BR BKN011 OVC021 00/M01 A2996 RMK AO2 P0003 T00001011,M
BVU,2024-02-21 13:35,-114.8611,35.9475,671.00,48.20,46.40,93.45,0.00,0.00,0.00,29.98,M,10.00,M,FEW,SCT,BKN,M,1900.00,4700.00,6500.00,M,M,M,M,M,M,M,M,48.20,KBVU 211335Z AUTO 00000KT 10SM FEW019 SCT047 BKN065 09/08 A2998 RMK AO2,M
CXP,2024-02-21 13:35,-119.7326,39.1923,1431.00,30.20,30.20,100.00,0.00,0.00,0.00,30.03,M,10.00,M,BKN,OVC,M,M,5500.00,6500.00,M,M,M,M,M,M,M,M,M,30.20,KCXP 211335Z AUTO 00000KT 10SM BKN055 OVC065 M01/M01 A3003 RMK AO2,M
RTS,2024-02-21 13:35,-119.8764,39.6682,1539.00,30.20,30.20,100.00,360.00,3.00,0.00,30.02,M,7.00,M,FEW,SCT,BKN,M,400.00,1900.00,4200.00,M,-SN,M,M,M,M,M,M,26.63,KRTS 211335Z AUTO 36003KT 7SM -SN FEW004 SCT019 BKN042 M01/M01 A3002 RMK AO2,M
05U,2024-02-21 13:35,-116.0051,39.6042,1811.23,32.00,30.20,92.97,40.00,3.00,0.00,29.99,M,10.00,M,M,M,M,M,M,M,M,M,M,M,M,M,M,M,M,28.69,K05U 211335Z AUTO 04003KT 10SM M00/M01 A2999 RMK A01,M
MEV,2024-02-21 13:35,-119.7500,38.9963,1441.42,30.20,28.40,92.92,0.00,0.00,0.00,30.01,M,10.00,M,BKN,OVC,M,M,5500.00,6500.00,M,M,M,M,M,M,M,M,M,30.20,KMEV 211335Z AUTO 00000KT 10SM BKN055 OVC065 M01/M02 A3001 RMK AO2,M
BAM,2024-02-21 13:35,-116.8743,40.5990,1382.36,35.60,33.80,93.08,40.00,5.00,0.00,29.99,M,10.00,M,CLR,M,M,M,M,M,M,M,M,M,M,M,M,M,M,30.67,KBAM 211335Z AUTO 04005KT 10SM CLR 02/01 A2999 RMK AO1,M
HTH,2024-02-21 13:35,-118.6315,38.5448,1282.89,33.80,32.00,93.03,350.00,4.00,0.00,30.02,M,10.00,M,CLR,M,M,M,M,M,M,M,M,M,M,M,M,M,M,29.52,KHTH 211335Z AUTO 35004KT 10SM CLR 01/M00 A3002 RMK A01,M
10U,2024-02-21 13:35,-116.1876,41.9532,1637.00,33.80,30.20,86.49,160.00,4.00,0.00,29.96,M,10.00,M,SCT,BKN,OVC,M,3100.00,3700.00,4500.00,M,M,M,M,M,M,M,M,29.52,K10U 211335Z AUTO 16004KT 10SM SCT031 BKN037 OVC045 01/M01 A2996 RMK AO2,M
TMT,2024-02-21 13:35,-117.1971,39.4643,1749.34,32.00,31.00,96.04,240.00,5.00,0.00,30.01,M,10.00,M,SCT,OVC,M,M,4400.00,10000.00,M,M,M,M,M,M,M,M,M,26.40,KTMT 211335Z AUTO 24005KT 10SM SCT044 OVC100 00/00 A3001 RMK AO2 T00011005,M
TPH,2024-02-21 13:40,-117.0904,38.0505,1654.00,35.00,34.00,96.09,320.00,3.00,T,30.00,M,10.00,M,SCT,BKN,OVC,M,1600.00,3400.00,4700.00,M,M,M,M,M,M,M,M,32.12,KTPH 211340Z AUTO 32003KT 10SM SCT016 BKN034 OVC047 02/01 A3000 RMK AO2 RAB11E30 P0000 T00170011,M
ELY,2024-02-21 13:42,-114.8453,39.2950,1909.00,32.00,32.00,100.00,0.00,0.00,0.03,29.97,M,4.00,M,SCT,OVC,M,M,900.00,1300.00,M,M,-SN BR,M,M,M,M,M,M,32.00,KELY 211342Z AUTO 00000KT 4SM -SN BR SCT009 OVC013 00/00 A2997 RMK AO2 P0003 T00000000,M
ELY,2024-02-21 13:49,-114.8453,39.2950,1909.00,32.00,30.20,92.97,0.00,0.00,0.03,29.97,M,3.00,M,BKN,OVC,M,M,900.00,1500.00,M,M,-SN BR,M,M,M,M,M,M,32.00,KELY 211349Z AUTO 00000KT 3SM -SN BR BKN009 OVC015 00/M01 A2997 RMK AO2 P0003,M
HND,2024-02-21 13:49,-115.1344,35.9729,742.79,46.40,44.60,93.40,320.00,5.00,0.00,30.02,M,1.25,M,SCT,BKN,M,M,200.00,6000.00,M,M,BR,M,M,M,M,M,M,43.50,KHND 211349Z AUTO 32005KT 1 1/4SM BR SCT002 BKN060 08/07 A3002 RMK AO2,M
HND,2024-02-21 13:51,-115.1344,35.9729,742.79,44.60,44.60,100.00,320.00,4.00,0.00,30.02,M,0.75,M,BKN,BKN,M,M,200.00,6000.00,M,M,BR,M,M,M,M,M,M,42.13,KHND 211351Z AUTO 32004KT 3/4SM BR BKN002 BKN060 07/07 A3002 RMK AO2,M
P68,2024-02-21 13:53,-116.0056,39.6014,1993.00,33.00,31.00,92.25,220.00,5.00,0.00,29.97,1013.60,M,M,M,M,M,M,M,M,M,M,M,M,M,M,M,M,M,27.58,KP68 211353Z AUTO 22005KT 01/M01 A2997 RMK AO1 SLP136 T00061006,M
DRA,2024-02-21 13:53,-116.0278,36.6206,1009.00,44.00,41.00,89.11,60.00,5.00,0.00,30.00,1014.10,10.00,M,FEW,SCT,OVC,M,1700.00,2600.00,4700.00,M,M,M,M,M,M,M,M,40.65,KDRA 211353Z AUTO 06005KT 10SM FEW017 SCT026 OVC047 07/05 A3000 RMK AO2 SLP141 T00670050,M
ELY,2024-02-21 13:53,-114.8453,39.2950,1909.00,32.00,31.00,96.04,0.00,0.00,0.03,29.97,1013.80,4.00,M,BKN,OVC,M,M,900.00,1500.00,M,M,-SN BR,M,M,M,M,M,M,32.00,KELY 211353Z AUTO 00000KT 4SM -SN BR BKN009 OVC015 00/M01 A2997 RMK AO2 SLP138 P0003 T00001006,M
VGT,2024-02-21 13:53,-115.1933,36.2111,667.00,49.00,48.00,96.32,270.00,4.00,0.00,30.00,1017.50,5.00,M,BKN,OVC,M,M,1900.00,2600.00,M,M,BR,M,M,M,M,M,M,47.27,KVGT 211353Z 27004KT 5SM BR BKN019 OVC026 09/09 A3000 RMK AO2 SLP175 T00940089,M
LOL,2024-02-21 13:53,-118.5701,40.0684,1192.43,33.00,31.00,92.25,50.00,3.00,0.00,30.00,1016.60,10.00,M,OVC,M,M,M,7500.00,M,M,M,M,M,M,M,M,M,M,29.83,KLOL 211353Z AUTO 05003KT 10SM OVC075 01/M01 A3000 RMK AO2 SLP166 T00061006,M
BVU,2024-02-21 13:55,-114.8611,35.9475,671.00,48.20,46.40,93.45,0.00,0.00,0.00,29.99,M,10.00,M,SCT,BKN,OVC,M,4500.00,6500.00,7500.00,M,M,M,M,M,M,M,M,48.20,KBVU 211355Z AUTO 00000KT 10SM SCT045 BKN065 OVC075 09/08 A2999 RMK AO2,M
CXP,2024-02-21 13:55,-119.7326,39.1923,1431.00,32.00,32.00,100.00,0.00,0.00,0.00,30.03,M,10.00,M,FEW,OVC,M,M,4800.00,6000.00,M,M,M,M,M,M,M,M,M,32.00,KCXP 211355Z AUTO 00000KT 10SM FEW048 OVC060 M00/M00 A3003 RMK AO2,M
RNO,2024-02-21 13:55,-119.7711,39.4839,1341.00,37.00,33.00,85.29,0.00,0.00,T,30.03,1016.20,10.00,M,BKN,BKN,M,M,1000.00,6000.00,M,M,-RA,M,M,M,M,M,M,37.00,KRNO 211355Z 00000KT 10SM -RA BKN010 BKN060 03/01 A3003 RMK AO2 RAB52 SLP162 P0000 T00280006,M
LSV,2024-02-21 13:55,-115.0343,36.2362,570.00,50.00,46.80,88.70,300.00,3.00,0.00,29.98,M,10.00,M,SCT,M,M,M,2300.00,M,M,M,M,M,M,M,M,M,M,50.00,KLSV 211355Z AUTO 30003KT 10SM SCT023 10/08 A2998 RMK AO2 SLPNO T00990082 $,M
RTS,2024-02-21 13:55,-119.8764,39.6682,1539.00,30.20,30.20,100.00,0.00,0.00,0.00,30.03,M,10.00,M,FEW,BKN,OVC,M,1800.00,4800.00,7500.00,M,M,M,M,M,M,M,M,30.20,KRTS 211355Z AUTO 00000KT 10SM FEW018 BKN048 OVC075 M01/M01 A3003 RMK AO2,M
05U,2024-02-21 13:55,-116.0051,39.6042,1811.23,32.00,32.00,100.00,20.00,5.00,0.00,30.00,M,10.00,M,M,M,M,M,M,M,M,M,M,M,M,M,M,M,M,26.40,K05U 211355Z AUTO 02005KT 10SM 00/M00 A3000 RMK A01,M
MEV,2024-02-21 13:55,-119.7500,38.9963,1441.42,30.20,28.40,92.92,60.00,5.00,0.00,30.01,M,10.00,M,BKN,OVC,M,M,5500.00,6500.00,M,M,M,M,M,M,M,M,M,24.26,KMEV 211355Z AUTO 06005KT 10SM BKN055 OVC065 M01/M02 A3001 RMK AO2,M
BAM,2024-02-21 13:55,-116.8743,40.5990,1382.36,35.60,33.80,93.08,60.00,4.00,0.00,29.99,M,10.00,M,SCT,SCT,M,M,1100.00,5000.00,M,M,M,M,M,M,M,M,M,31.62,KBAM 211355Z AUTO 06004KT 10SM SCT011 SCT050 02/01 A2999 RMK AO1,M
HTH,2024-02-21 13:55,-118.6315,38.5448,1282.89,33.80,30.20,86.49,0.00,0.00,0.00,30.03,M,10.00,M,CLR,M,M,M,M,M,M,M,M,M,M,M,M,M,M,33.80,KHTH 211355Z AUTO 00000KT 10SM CLR 01/M01 A3003 RMK A01,M
INS,2024-02-21 13:55,-115.6733,36.5872,955.00,45.50,42.40,88.83,0.00,0.00,0.00,30.00,1014.50,9.00,M,OVC,M,M,M,1500.00,M,M,M,M,M,M,M,M,M,M,45.50,KINS 211355Z AUTO 00000KT 9SM OVC015 08/06 A3000 RMK AO2 SLP145 T00750058,M
TMT,2024-02-21 13:55,-117.1971,39.4643,1749.34,32.00,30.60,94.50,230.00,6.00,0.00,30.01,M,10.00,M,SCT,SCT,SCT,M,4100.00,4700.00,10000.00,M,M,M,M,M,M,M,M,25.53,KTMT 211355Z AUTO 23006KT 10SM SCT041 SCT047 SCT100 00/M01 A3001 RMK AO2 T00011008,M
10U,2024-02-21 13:55,-116.1876,41.9532,1637.00,33.80,30.20,86.49,180.00,6.00,0.00,29.95,M,10.00,M,FEW,BKN,OVC,M,3800.00,4600.00,5500.00,M,M,M,M,M,M,M,M,27.70,K10U 211355Z AUTO 18006KT 10SM FEW038 BKN046 OVC055 01/M01 A2995 RMK AO2,M
EKO,2024-02-21 13:56,-115.7860,40.8242,1367.00,34.00,32.00,92.29,210.00,8.00,T,29.96,1014.60,10.00,M,FEW,OVC,M,M,2400.00,4700.00,M,M,M,M,M,M,M,M,M,26.58,KEKO 211356Z AUTO 21008KT 10SM FEW024 OVC047 01/00 A2996 RMK AO2 SNE00 SLP146 P0000 T00110000,M
WMC,2024-02-21 13:56,-117.8072,40.9019,1315.00,37.00,33.00,85.29,M,3.00,0.03,29.99,1015.40,10.00,M,SCT,OVC,M,M,2200.00,3100.00,M,M,M,M,M,M,M,M,M,34.40,KWMC 211356Z AUTO VRB03KT 10SM SCT022 OVC031 03/01 A2999 RMK AO2 RAE55UPB40E54 SLP154 P0003 T00280006,M
NFL,2024-02-21 13:56,-118.7010,39.4166,1199.00,33.00,30.00,88.58,220.00,5.00,0.00,30.01,1013.20,10.00,M,SCT,BKN,M,M,8000.00,10000.00,M,M,M,M,M,M,M,M,M,27.58,KNFL 211356Z AUTO 22005KT 10SM SCT080 BKN100 01/M01 A3001 RMK AO2 SLP132 T00061011,M
HND,2024-02-21 13:56,-115.1344,35.9729,742.79,46.00,45.00,96.28,310.00,3.00,0.00,30.02,1018.30,0.25,M,BKN,BKN,M,M,200.00,6000.00,M,M,FG,M,M,M,M,M,M,44.69,KHND 211356Z AUTO 31003KT 1/4SM FG BKN002 BKN060 08/07 A3002 RMK AO2 SLP183 T00780072,M
TPH,2024-02-21 13:56,-117.0904,38.0505,1654.00,36.00,34.00,92.35,360.00,5.00,T,30.00,1015.40,10.00,M,FEW,BKN,OVC,M,1500.00,4900.00,10000.00,M,M,M,M,M,M,M,M,31.15,KTPH 211356Z AUTO 36005KT 10SM FEW015 BKN049 OVC100 02/01 A3000 RMK AO2 RAB11E30 SLP154 P0000 T00220011,M
LAS,2024-02-21 13:56,-115.1634,36.0719,663.00,48.00,48.00,100.00,0.00,0.00,0.00,30.00,1015.50,8.00,M,FEW,SCT,OVC,M,400.00,800.00,12000.00,M,M,M,M,M,M,M,M,48.00,KLAS 211356Z COR 00000KT 8SM FEW004 SCT008 OVC120 09/09 A3000 RMK AO2 SLP155 T00890089 $,M
DRA,2024-02-21 13:57,-116.0278,36.6206,1009.00,44.00,41.00,89.11,M,5.00,0.00,29.99,M,10.00,M,FEW,BKN,OVC,M,1700.00,2600.00,4500.00,M,M,M,M,M,M,M,M,40.65,KDRA 211357Z AUTO VRB05KT 10SM FEW017 BKN026 OVC045 07/05 A2999 RMK AO2 T00670050,M
DRA,2024-02-21 14:02,-116.0278,36.6206,1009.00,44.00,41.00,89.11,90.00,6.00,0.00,29.99,M,10.00,M,FEW,SCT,BKN,M,1700.00,2600.00,4500.00,M,M,M,M,M,M,M,M,39.98,KDRA 211402Z AUTO 09006KT 10SM FEW017 SCT026 BKN045 07/05 A2999 RMK AO2 T00670050,M
ELY,2024-02-21 14:03,-114.8453,39.2950,1909.00,32.00,31.00,96.04,0.00,0.00,T,29.97,M,2.50,M,SCT,OVC,M,M,700.00,1300.00,M,M,-SN BR,M,M,M,M,M,M,32.00,KELY 211403Z AUTO 00000KT 2 1/2SM -SN BR SCT007 OVC013 00/M01 A2997 RMK AO2 P0000 T00001006,M
LSV,2024-02-21 14:05,-115.0343,36.2362,570.00,50.00,46.40,87.37,310.00,3.00,0.00,29.98,M,10.00,M,SCT,M,M,M,2400.00,M,M,M,M,M,M,M,M,M,M,50.00,KLSV 211405Z AUTO 31003KT 10SM SCT024 10/08 A2998 RMK AO2 SLPNO $,M
WMC,2024-02-21 14:06,-117.8072,40.9019,1315.00,37.00,33.00,85.29,M,3.00,0.00,30.00,M,10.00,M,BKN,OVC,M,M,2300.00,3100.00,M,M,M,M,M,M,M,M,M,34.40,KWMC 211406Z AUTO VRB03KT 10SM BKN023 OVC031 03/01 A3000 RMK AO2 T00280006,M
ELY,2024-02-21 14:08,-114.8453,39.2950,1909.00,32.00,31.00,96.04,0.00,0.00,0.01,29.97,M,1.25,M,FEW,OVC,M,M,800.00,1100.00,M,M,-SN BR,M,M,M,M,M,M,32.00,KELY 211408Z AUTO 00000KT 1 1/4SM -SN BR FEW008 OVC011 00/M01 A2997 RMK AO2 P0001 T00001006,M
HND,2024-02-21 14:10,-115.1344,35.9729,742.79,46.40,44.60,93.40,270.00,3.00,0.00,30.02,M,0.50,M,OVC,M,M,M,200.00,M,M,M,FG,M,M,M,M,M,M,45.15,KHND 211410Z 27003KT 1/2SM FG OVC002 08/07 A3002 RMK AO2,M
BVU,2024-02-21 14:15,-114.8611,35.9475,671.00,48.20,46.40,93.45,0.00,0.00,0.00,30.00,M,10.00,M,FEW,BKN,OVC,M,4500.00,5500.00,12000.00,M,M,M,M,M,M,M,M,48.20,KBVU 211415Z AUTO 00000KT 10SM FEW045 BKN055 OVC120 09/08 A3000 RMK AO2,M
CXP,2024-02-21 14:15,-119.7326,39.1923,1431.00,32.00,32.00,100.00,320.00,4.00,0.00,30.03,M,10.00,M,BKN,OVC,M,M,4600.00,6000.00,M,M,M,M,M,M,M,M,M,27.42,KCXP 211415Z AUTO 32004KT 10SM BKN046 OVC060 00/00 A3003 RMK AO2,M
DRA,2024-02-21 14:15,-116.0278,36.6206,1009.00,44.00,42.00,92.61,70.00,4.00,0.00,30.00,M,10.00,M,BKN,OVC,M,M,2600.00,4600.00,M,M,M,M,M,M,M,M,M,41.43,KDRA 211415Z AUTO 07004KT 10SM BKN026 OVC046 07/06 A3000 RMK AO2 T00670056,M
RTS,2024-02-21 14:15,-119.8764,39.6682,1539.00,32.00,32.00,100.00,0.00,0.00,0.00,30.03,M,10.00,M,FEW,BKN,OVC,M,2700.00,4400.00,5000.00,M,M,M,M,M,M,M,M,32.00,KRTS 211415Z AUTO 00000KT 10SM FEW027 BKN044 OVC050 M00/M00 A3003 RMK AO2,M
05U,2024-02-21 14:15,-116.0051,39.6042,1811.23,32.00,32.00,100.00,0.00,0.00,0.00,30.00,M,10.00,M,M,M,M,M,M,M,M,M,M,M,M,M,M,M,M,32.00,K05U 211415Z AUTO 00000KT 10SM 00/M00 A3000 RMK A01,M
MEV,2024-02-21 14:15,-119.7500,38.9963,1441.42,32.00,28.40,86.39,250.00,5.00,0.00,30.02,M,10.00,M,OVC,M,M,M,5500.00,M,M,M,M,M,M,M,M,M,M,26.40,KMEV 211415Z AUTO 25005KT 10SM OVC055 M00/M02 A3002 RMK AO2,M
BAM,2024-02-21 14:15,-116.8743,40.5990,1382.36,35.60,33.80,93.08,0.00,0.00,0.00,29.99,M,10.00,M,SCT,SCT,OVC,M,1100.00,2900.00,5000.00,M,M,M,M,M,M,M,M,35.60,KBAM 211415Z AUTO 00000KT 10SM SCT011 SCT029 OVC050 02/01 A2999 RMK AO1,M
HTH,2024-02-21 14:15,-118.6315,38.5448,1282.89,35.60,32.00,86.59,0.00,0.00,0.00,30.04,M,10.00,M,FEW,M,M,M,6000.00,M,M,M,M,M,M,M,M,M,M,35.60,KHTH 211415Z AUTO 00000KT 10SM FEW060 02/00 A3004 RMK A01,M
10U,2024-02-21 14:15,-116.1876,41.9532,1637.00,33.80,30.20,86.49,170.00,6.00,0.00,29.95,M,10.00,M,BKN,OVC,M,M,6000.00,6500.00,M,M,M,M,M,M,M,M,M,27.70,K10U 211415Z AUTO 17006KT 10SM BKN060 OVC065 01/M01 A2995 RMK AO2,M
TMT,2024-02-21 14:15,-117.1971,39.4643,1749.34,32.00,30.70,94.88,230.00,3.00,0.00,30.01,M,10.00,M,CLR,M,M,M,M,M,M,M,M,M,M,M,M,M,M,28.69,KTMT 211415Z AUTO 23003KT 10SM CLR 00/M01 A3001 RMK AO2 T00001007,M
ELY,2024-02-21 14:16,-114.8453,39.2950,1909.00,32.00,30.00,92.22,0.00,0.00,0.02,29.97,M,1.50,M,OVC,M,M,M,900.00,M,M,M,-SN BR,M,M,M,M,M,M,32.00,KELY 211416Z AUTO 00000KT 1 1/2SM -SN BR OVC009 00/M01 A2997 RMK AO2 P0002 T00001011,M
ELY,2024-02-21 14:20,-114.8453,39.2950,1909.00,32.00,30.00,92.22,0.00,0.00,0.02,29.97,M,2.50,M,SCT,OVC,M,M,700.00,1100.00,M,M,-SN BR,M,M,M,M,M,M,32.00,KELY 211420Z AUTO 00000KT 2 1/2SM -SN BR SCT007 OVC011 00/M01 A2997 RMK AO2 P0002 T00001011,M
HND,2024-02-21 14:24,-115.1344,35.9729,742.79,46.40,46.40,100.00,0.00,0.00,0.00,30.03,M,0.25,M,OVC,M,M,M,200.00,M,M,M,FG,M,M,M,M,M,M,46.40,KHND 211424Z 00000KT 1/4SM FG OVC002 08/08 A3003 RMK AO2,M
ELY,2024-02-21 14:27,-114.8453,39.2950,1909.00,32.00,30.00,92.22,0.00,0.00,0.02,29.97,M,7.00,M,OVC,M,M,M,700.00,M,M,M,-SN,M,M,M,M,M,M,32.00,KELY 211427Z AUTO 00000KT 7SM -SN OVC007 00/M01 A2997 RMK AO2 P0002 T00001011,M
05U,2024-02-21 14:30,-116.0051,39.6042,1811.23,32.00,30.20,92.97,330.00,5.00,0.00,30.00,M,10.00,M,M,M,M,M,M,M,M,M,M,M,M,M,M,M,M,26.40,K05U 211430Z AUTO 33005KT 10SM M00/M01 A3000 RMK A01,M
VGT,2024-02-21 14:32,-115.1933,36.2111,667.00,50.00,48.00,92.80,0.00,0.00,0.00,30.00,M,6.00,M,FEW,M,M,M,2700.00,M,M,M,BR,M,M,M,M,M,M,50.00,KVGT 211432Z 00000KT 6SM BR FEW027 10/09 A3000 RMK AO2 T01000089,M
BVU,2024-02-21 14:35,-114.8611,35.9475,671.00,48.20,48.20,100.00,110.00,4.00,0.00,30.01,M,10.00,M,BKN,OVC,M,M,5500.00,6000.00,M,M,M,M,M,M,M,M,M,46.34,KBVU 211435Z AUTO 11004KT 10SM BKN055 OVC060 09/09 A3001 RMK AO2,M
CXP,2024-02-21 14:35,-119.7326,39.1923,1431.00,32.00,32.00,100.00,0.00,0.00,0.00,30.04,M,10.00,M,FEW,BKN,OVC,M,2900.00,3700.00,4500.00,M,M,M,M,M,M,M,M,32.00,KCXP 211435Z AUTO 00000KT 10SM FEW029 BKN037 OVC045 00/00 A3004 RMK AO2,M
LSV,2024-02-21 14:35,-115.0343,36.2362,570.00,50.00,46.40,87.37,0.00,0.00,0.00,29.99,M,9.00,M,BKN,M,M,M,2900.00,M,M,M,M,M,M,M,M,M,M,50.00,KLSV 211435Z AUTO 00000KT 9SM BKN029 10/08 A2999 RMK AO2 SLPNO $,M
RTS,2024-02-21 14:35,-119.8764,39.6682,1539.00,32.00,32.00,100.00,0.00,0.00,0.00,30.03,M,9.00,M,FEW,SCT,BKN,M,2100.00,3000.00,4200.00,M,M,M,M,M,M,M,M,32.00,KRTS 211435Z AUTO 00000KT 9SM FEW021 SCT030 BKN042 M00/00 A3003 RMK AO2,M
MEV,2024-02-21 14:35,-119.7500,38.9963,1441.42,30.20,28.40,92.92,0.00,0.00,0.00,30.02,M,10.00,M,OVC,M,M,M,5500.00,M,M,M,M,M,M,M,M,M,M,30.20,KMEV 211435Z AUTO 00000KT 10SM OVC055 M01/M02 A3002 RMK AO2,M
BAM,2024-02-21 14:35,-116.8743,40.5990,1382.36,37.40,33.80,86.69,40.00,4.00,0.00,29.99,M,10.00,M,SCT,BKN,OVC,M,3100.00,4100.00,4800.00,M,M,M,M,M,M,M,M,33.73,KBAM 211435Z AUTO 04004KT 10SM SCT031 BKN041 OVC048 03/01 A2999 RMK AO1,M
HTH,2024-02-21 14:35,-118.6315,38.5448,1282.89,35.60,32.00,86.59,190.00,3.00,0.00,30.04,M,10.00,M,CLR,M,M,M,M,M,M,M,M,M,M,M,M,M,M,32.80,KHTH 211435Z AUTO 19003KT 10SM CLR 02/M00 A3004 RMK A01,M
10U,2024-02-21 14:35,-116.1876,41.9532,1637.00,33.80,30.20,86.49,200.00,3.00,0.00,29.96,M,10.00,M,OVC,M,M,M,6500.00,M,M,M,M,M,M,M,M,M,M,30.75,K10U 211435Z AUTO 20003KT 10SM OVC065 01/M01 A2996 RMK AO2,M
TMT,2024-02-21 14:35,-117.1971,39.4643,1749.34,31.00,30.20,96.81,210.00,4.00,0.00,30.02,M,10.00,M,SCT,M,M,M,12000.00,M,M,M,M,M,M,M,M,M,M,26.25,KTMT 211435Z AUTO 21004KT 10SM SCT120 00/M01 A3002 RMK AO2 T10051010,M
ELY,2024-02-21 14:37,-114.8453,39.2950,1909.00,32.00,31.00,96.04,120.00,3.00,0.02,29.97,M,4.00,M,SCT,BKN,OVC,M,700.00,1600.00,2500.00,M,-SN BR,M,M,M,M,M,M,28.69,KELY 211437Z AUTO 12003KT 4SM -SN BR SCT007 BKN016 OVC025 00/M01 A2997 RMK AO2 P0002 T00001006,M
NFL,2024-02-21 14:37,-118.7010,39.4166,1199.00,31.00,29.00,92.19,0.00,0.00,0.00,30.02,M,10.00,M,SCT,BKN,BKN,M,5000.00,8000.00,14000.00,M,M,M,M,M,M,M,M,31.00,KNFL 211437Z 00000KT 10SM SCT050 BKN080 BKN140 M01/M02 A3002 RMK AO2 T10061017,M
MEV,2024-02-21 14:40,-119.7500,38.9963,1441.42,30.20,28.40,92.92,0.00,0.00,0.00,30.02,M,10.00,M,FEW,OVC,M,M,4500.00,5500.00,M,M,M,M,M,M,M,M,M,30.20,KMEV 211440Z AUTO 00000KT 10SM FEW045 OVC055 M01/M02 A3002 RMK AO2,M
WMC,2024-02-21 14:44,-117.8072,40.9019,1315.00,37.00,33.00,85.29,60.00,3.00,0.01,30.00,M,10.00,M,FEW,OVC,M,M,2100.00,3200.00,M,M,M,M,M,M,M,M,M,34.40,KWMC 211444Z AUTO 06003KT 10SM FEW021 OVC032 03/01 A3000 RMK AO2 UPB09E11RAB11E40 P0001 T00280006,M
RTS,2024-02-21 14:50,-119.8764,39.6682,1539.00,32.00,32.00,100.00,0.00,0.00,0.00,30.04,M,9.00,M,SCT,BKN,OVC,M,3000.00,4200.00,4900.00,M,-UP,M,M,M,M,M,M,32.00,KRTS 211450Z AUTO 00000KT 9SM -UP SCT030 BKN042 OVC049 M00/M00 A3004 RMK AO2,M
P68,2024-02-21 14:53,-116.0056,39.6014,1993.00,32.00,31.00,96.04,200.00,5.00,0.00,29.98,1014.50,M,M,M,M,M,M,M,M,M,M,M,M,M,M,M,M,M,26.40,KP68 211453Z AUTO 20005KT 00/M01 A2998 RMK AO1 SLP145 T00001006 53010,M
DRA,2024-02-21 14:53,-116.0278,36.6206,1009.00,44.00,41.00,89.11,300.00,3.00,0.00,30.01,1014.50,10.00,M,OVC,M,M,M,2400.00,M,M,M,M,M,M,M,M,M,M,42.41,KDRA 211453Z AUTO 30003KT 10SM OVC024 07/05 A3001 RMK AO2 SLP145 T00670050 51010,M
ELY,2024-02-21 14:53,-114.8453,39.2950,1909.00,32.00,31.00,96.04,0.00,0.00,0.02,29.97,1013.60,6.00,M,FEW,BKN,OVC,M,700.00,2700.00,5500.00,M,BR,M,M,M,M,M,M,32.00,KELY 211453Z AUTO 00000KT 6SM BR FEW007 BKN027 OVC055 00/M01 A2997 RMK AO2 SNE53 SLP136 P0002 60007 T00001006 51002,M
VGT,2024-02-21 14:53,-115.1933,36.2111,667.00,50.00,48.00,92.80,0.00,0.00,0.00,30.01,1017.60,4.00,M,FEW,M,M,M,2600.00,M,M,M,BR,M,M,M,M,M,M,50.00,KVGT 211453Z 00000KT 4SM BR FEW026 10/09 A3001 RMK AO2 SLP176 T01000089 53006,M
LOL,2024-02-21 14:53,-118.5701,40.0684,1192.43,33.00,31.00,92.25,80.00,5.00,0.00,30.02,1017.10,10.00,M,SCT,M,M,M,7000.00,M,M,M,M,M,M,M,M,M,M,27.58,KLOL 211453Z AUTO 08005KT 10SM SCT070 01/M01 A3002 RMK AO2 SLP171 T00061006 51013,M
BVU,2024-02-21 14:55,-114.8611,35.9475,671.00,48.20,48.20,100.00,120.00,5.00,0.00,30.01,M,10.00,M,BKN,OVC,M,M,5500.00,6500.00,M,M,M,M,M,M,M,M,M,45.63,KBVU 211455Z AUTO 12005KT 10SM BKN055 OVC065 09/09 A3001 RMK AO2,M
CXP,2024-02-21 14:55,-119.7326,39.1923,1431.00,33.80,33.80,100.00,M,4.00,0.00,30.04,M,10.00,M,FEW,BKN,OVC,M,2800.00,3700.00,6000.00,M,M,M,M,M,M,M,M,29.52,KCXP 211455Z AUTO VRB04KT 10SM FEW028 BKN037 OVC060 01/01 A3004 RMK AO2,M
RNO,2024-02-21 14:55,-119.7711,39.4839,1341.00,37.00,34.00,88.78,0.00,0.00,T,30.04,1016.90,10.00,M,FEW,BKN,BKN,M,600.00,1000.00,6000.00,M,M,M,M,M,M,M,M,37.00,KRNO 211455Z 00000KT 10SM FEW006 BKN010 BKN060 03/01 A3004 RMK AO2 RAE12 SLP169 P0000 60000 T00280011 51014,M
LSV,2024-02-21 14:55,-115.0343,36.2362,570.00,49.00,46.80,92.07,150.00,3.00,0.00,29.99,M,7.00,M,OVC,M,M,M,3000.00,M,M,M,M,M,M,M,M,M,M,48.12,KLSV 211455Z AUTO 15003KT 7SM OVC030 09/08 A2999 RMK AO2 SLPNO T00940082 53008 $,M
05U,2024-02-21 14:55,-116.0051,39.6042,1811.23,32.00,32.00,100.00,10.00,4.00,0.00,30.01,M,10.00,M,M,M,M,M,M,M,M,M,M,M,M,M,M,M,M,27.42,K05U 211455Z AUTO 01004KT 10SM 00/M00 A3001 RMK A01,M
BAM,2024-02-21 14:55,-116.8743,40.5990,1382.36,35.60,33.80,93.08,50.00,4.00,0.00,30.00,M,10.00,M,BKN,OVC,M,M,3300.00,4000.00,M,M,M,M,M,M,M,M,M,31.62,KBAM 211455Z AUTO 05004KT 10SM BKN033 OVC040 02/01 A3000 RMK AO1,M
HTH,2024-02-21 14:55,-118.6315,38.5448,1282.89,33.80,30.20,86.49,210.00,4.00,0.00,30.05,M,10.00,M,CLR,M,M,M,M,M,M,M,M,M,M,M,M,M,M,29.52,KHTH 211455Z AUTO 21004KT 10SM CLR 01/M01 A3005 RMK A01,M
TMT,2024-02-21 14:55,-117.1971,39.4643,1749.34,31.00,30.20,96.81,210.00,4.00,0.00,30.02,M,10.00,M,SCT,M,M,M,12000.00,M,M,M,M,M,M,M,M,M,M,26.25,KTMT 211455Z AUTO 21004KT 10SM SCT120 00/M01 A3002 RMK AO2 T10051010,M
10U,2024-02-21 14:55,-116.1876,41.9532,1637.00,33.80,30.20,86.49,110.00,4.00,0.00,29.97,M,10.00,M,OVC,M,M,M,6500.00,M,M,M,M,M,M,M,M,M,M,29.52,K10U 211455Z AUTO 11004KT 10SM OVC065 01/M01 A2997 RMK AO2,M
INS,2024-02-21 14:55,-115.6733,36.5872,955.00,45.70,42.60,88.84,0.00,0.00,0.00,30.01,1014.80,10.00,M,BKN,BKN,OVC,M,1500.00,2100.00,2600.00,M,M,M,M,M,M,M,M,45.70,KINS 211455Z AUTO 00000KT 10SM BKN015 BKN021 OVC026 08/06 A3001 RMK AO2 SLP148 T00760059 52006,M
EKO,2024-02-21 14:56,-115.7860,40.8242,1367.00,34.00,33.00,96.08,240.00,3.00,0.01,29.98,1015.50,10.00,M,BKN,OVC,M,M,3600.00,4800.00,M,M,M,M,M,M,M,M,M,30.97,KEKO 211456Z AUTO 24003KT 10SM BKN036 OVC048 01/01 A2998 RMK AO2 SNB09E46 SLP155 P0001 60003 T00110006 53017,M
WMC,2024-02-21 14:56,-117.8072,40.9019,1315.00,38.00,33.00,82.00,330.00,5.00,0.01,30.00,1015.90,10.00,M,FEW,OVC,M,M,2100.00,3200.00,M,M,M,M,M,M,M,M,M,33.52,KWMC 211456Z AUTO 33005KT 10SM FEW021 OVC032 03/01 A3000 RMK AO2 UPB09E11RAB11E40 SLP159 P0001 60004 T00330006 51015,M
NFL,2024-02-21 14:56,-118.7010,39.4166,1199.00,31.00,29.00,92.19,200.00,3.00,0.00,30.03,1013.80,10.00,M,SCT,BKN,BKN,M,5000.00,8000.00,14000.00,M,M,M,M,M,M,M,M,27.55,KNFL 211456Z 20003KT 10SM SCT050 BKN080 BKN140 M01/M02 A3003 RMK AO2 SLP138 T10061017 53014,M
HND,2024-02-21 14:56,-115.1344,35.9729,742.79,46.00,46.00,100.00,180.00,6.00,0.00,30.04,1019.00,0.25,M,OVC,M,M,M,200.00,M,M,M,FG,M,M,M,M,M,M,42.39,KHND 211456Z 18006KT 1/4SM FG OVC002 08/08 A3004 RMK AO2 SLP190 T00780078 53011,M
TPH,2024-02-21 14:56,-117.0904,38.0505,1654.00,34.00,32.00,92.29,0.00,0.00,0.00,30.01,1016.10,10.00,M,FEW,BKN,M,M,3000.00,8500.00,M,M,M,M,M,M,M,M,M,34.00,KTPH 211456Z AUTO 00000KT 10SM FEW030 BKN085 01/00 A3001 RMK AO2 SLP161 60000 T00110000 51009,M
LAS,2024-02-21 14:56,-115.1634,36.0719,663.00,48.00,47.00,96.31,190.00,3.00,0.00,30.02,1016.40,7.00,M,FEW,SCT,BKN,M,400.00,2200.00,6000.00,M,M,M,M,M,M,M,M,46.98,KLAS 211456Z 19003KT 7SM FEW004 SCT022 BKN060 09/08 A3002 RMK AO2 SLP164 T00890083 53012 $,M
CXP,2024-02-21 15:10,-119.7326,39.1923,1431.00,32.00,32.00,100.00,0.00,0.00,0.00,30.05,M,10.00,M,FEW,SCT,BKN,M,3800.00,4500.00,5000.00,M,M,M,M,M,M,M,M,32.00,KCXP 211510Z AUTO 00000KT 10SM FEW038 SCT045 BKN050 00/M00 A3005 RMK AO2,M
HND,2024-02-21 15:12,-115.1344,35.9729,742.79,46.40,44.60,93.40,180.00,7.00,0.00,30.03,M,0.50,M,OVC,M,M,M,200.00,M,M,M,FG,M,M,M,M,M,M,42.33,KHND 211512Z 18007KT 1/2SM FG OVC002 08/07 A3003 RMK AO2 VIS 1/4V1 1/2,M
BVU,2024-02-21 15:15,-114.8611,35.9475,671.00,48.20,48.20,100.00,0.00,0.00,0.00,30.01,M,10.00,M,BKN,M,M,M,6000.00,M,M,M,M,M,M,M,M,M,M,48.20,KBVU 211515Z AUTO 00000KT 10SM BKN060 09/09 A3001 RMK AO2,M
ELY,2024-02-21 15:15,-114.8453,39.2950,1909.00,32.00,31.00,96.04,0.00,0.00,T,29.98,M,2.50,M,FEW,BKN,OVC,M,400.00,2700.00,6000.00,M,-SN BR,M,M,M,M,M,M,32.00,KELY 211515Z AUTO 00000KT 2 1/2SM -SN BR FEW004 BKN027 OVC060 00/M01 A2998 RMK AO2 SNB1458 P0000 T00001006,M
RTS,2024-02-21 15:15,-119.8764,39.6682,1539.00,32.00,32.00,100.00,0.00,0.00,0.00,30.04,M,10.00,M,SCT,BKN,OVC,M,3000.00,4000.00,5000.00,M,M,M,M,M,M,M,M,32.00,KRTS 211515Z AUTO 00000KT 10SM SCT030 BKN040 OVC050 00/00 A3004 RMK AO2,M
05U,2024-02-21 15:15,-116.0051,39.6042,1811.23,32.00,30.20,92.97,10.00,4.00,0.00,30.02,M,10.00,M,M,M,M,M,M,M,M,M,M,M,M,M,M,M,M,27.42,K05U 211515Z AUTO 01004KT 10SM M00/M01 A3002 RMK A01,M
MEV,2024-02-21 15:15,-119.7500,38.9963,1441.42,32.00,30.20,92.97,10.00,3.00,0.00,30.04,M,10.00,M,BKN,OVC,M,M,5500.00,7000.00,M,M,M,M,M,M,M,M,M,28.69,KMEV 211515Z AUTO 01003KT 10SM BKN055 OVC070 00/M01 A3004 RMK AO2,M
BAM,2024-02-21 15:15,-116.8743,40.5990,1382.36,37.40,33.80,86.69,0.00,0.00,0.00,30.01,M,10.00,M,OVC,M,M,M,3300.00,M,M,M,M,M,M,M,M,M,M,37.40,KBAM 211515Z AUTO 00000KT 10SM OVC033 03/01 A3001 RMK AO1,M
HTH,2024-02-21 15:15,-118.6315,38.5448,1282.89,35.60,32.00,86.59,190.00,3.00,0.00,30.06,M,10.00,M,CLR,M,M,M,M,M,M,M,M,M,M,M,M,M,M,32.80,KHTH 211515Z AUTO 19003KT 10SM CLR 02/00 A3006 RMK A01,M
10U,2024-02-21 15:15,-116.1876,41.9532,1637.00,33.80,30.20,86.49,120.00,3.00,0.00,29.98,M,10.00,M,BKN,OVC,M,M,6500.00,7500.00,M,M,M,M,M,M,M,M,M,30.75,K10U 211515Z AUTO 12003KT 10SM BKN065 OVC075 01/M01 A2998 RMK AO2,M
TMT,2024-02-21 15:15,-117.1971,39.4643,1749.34,31.00,30.00,96.02,220.00,6.00,0.00,30.03,M,10.00,M,CLR,M,M,M,M,M,M,M,M,M,M,M,M,M,M,24.33,KTMT 211515Z AUTO 22006KT 10SM CLR 00/M01 A3003 RMK AO2 T10051012,M
HND,2024-02-21 15:19,-115.1344,35.9729,742.79,46.40,44.60,93.40,200.00,6.00,0.00,30.03,M,1.25,M,BKN,M,M,M,200.00,M,M,M,BR,M,M,M,M,M,M,42.87,KHND 211519Z 20006KT 1 1/4SM BR BKN002 08/07 A3003 RMK AO2,M
LAS,2024-02-21 15:20,-115.1634,36.0719,663.00,48.00,47.00,96.31,200.00,3.00,0.00,30.02,M,7.00,M,FEW,BKN,BKN,M,1000.00,2200.00,6000.00,M,M,M,M,M,M,M,M,46.98,KLAS 211520Z 20003KT 7SM FEW010 BKN022 BKN060 09/08 A3002 RMK AO2 T00890083 $,M
RNO,2024-02-21 15:22,-119.7711,39.4839,1341.00,37.00,33.00,85.29,80.00,4.00,0.00,30.05,M,9.00,M,BKN,BKN,M,M,600.00,6000.00,M,M,M,M,M,M,M,M,M,33.26,KRNO 211522Z 08004KT 9SM BKN006 BKN060 03/01 A3005 RMK AO2 T00280006,M
HND,2024-02-21 15:23,-115.1344,35.9729,742.79,46.40,44.60,93.40,210.00,6.00,0.00,30.04,M,3.00,M,BKN,M,M,M,200.00,M,M,M,BR,M,M,M,M,M,M,42.87,KHND 211523Z 21006KT 3SM BR BKN002 08/07 A3004 RMK AO2,M
ELY,2024-02-21 15:24,-114.8453,39.2950,1909.00,32.00,32.00,100.00,0.00,0.00,T,29.98,M,3.00,M,SCT,BKN,OVC,M,400.00,1400.00,4400.00,M,-SN BR,M,M,M,M,M,M,32.00,KELY 211524Z AUTO 00000KT 3SM -SN BR SCT004 BKN014 OVC044 00/00 A2998 RMK AO2 SNB1458 P0000 T00000000,M
VGT,2024-02-21 15:28,-115.1933,36.2111,667.00,50.00,48.00,92.80,0.00,0.00,0.00,30.02,M,4.00,M,BKN,M,M,M,2600.00,M,M,M,BR,M,M,M,M,M,M,50.00,KVGT 211528Z 00000KT 4SM BR BKN026 10/09 A3002 RMK AO2 T01000089,M
ELY,2024-02-21 15:34,-114.8453,39.2950,1909.00,32.00,32.00,100.00,0.00,0.00,T,29.99,M,6.00,M,BKN,BKN,OVC,M,500.00,1500.00,6000.00,M,BR,M,M,M,M,M,M,32.00,KELY 211534Z AUTO 00000KT 6SM BR BKN005 BKN015 OVC060 00/00 A2999 RMK AO2 SNB1458E28 P0000 T00000000,M
BVU,2024-02-21 15:35,-114.8611,35.9475,671.00,48.20,48.20,100.00,350.00,5.00,0.00,30.01,M,10.00,M,FEW,M,M,M,6500.00,M,M,M,M,M,M,M,M,M,M,45.63,KBVU 211535Z AUTO 35005KT 10SM FEW065 09/09 A3001 RMK AO2,M
CXP,2024-02-21 15:35,-119.7326,39.1923,1431.00,33.80,32.00,93.03,0.00,0.00,0.00,30.06,M,10.00,M,FEW,OVC,M,M,3900.00,4500.00,M,M,M,M,M,M,M,M,M,33.80,KCXP 211535Z AUTO 00000KT 10SM FEW039 OVC045 01/00 A3006 RMK AO2,M
RTS,2024-02-21 15:35,-119.8764,39.6682,1539.00,32.00,32.00,100.00,60.00,4.00,0.00,30.05,M,9.00,M,FEW,BKN,OVC,M,3300.00,4300.00,4800.00,M,M,M,M,M,M,M,M,27.42,KRTS 211535Z AUTO 06004KT 9SM FEW033 BKN043 OVC048 00/00 A3005 RMK AO2,M
05U,2024-02-21 15:35,-116.0051,39.6042,1811.23,32.00,30.20,92.97,0.00,0.00,0.00,30.03,M,10.00,M,M,M,M,M,M,M,M,M,M,M,M,M,M,M,M,32.00,K05U 211535Z AUTO 00000KT 10SM 00/M01 A3003 RMK A01,M
MEV,2024-02-21 15:35,-119.7500,38.9963,1441.42,32.00,30.20,92.97,M,4.00,0.00,30.05,M,10.00,M,BKN,OVC,M,M,5500.00,6500.00,M,M,M,M,M,M,M,M,M,27.42,KMEV 211535Z AUTO VRB04KT 10SM BKN055 OVC065 00/M01 A3005 RMK AO2,M
BAM,2024-02-21 15:35,-116.8743,40.5990,1382.36,37.40,35.60,93.14,0.00,0.00,0.00,30.02,M,10.00,M,BKN,OVC,M,M,2400.00,3100.00,M,M,M,M,M,M,M,M,M,37.40,KBAM 211535Z AUTO 00000KT 10SM BKN024 OVC031 03/02 A3002 RMK AO1,M
HTH,2024-02-21 15:35,-118.6315,38.5448,1282.89,37.40,33.80,86.69,0.00,0.00,0.00,30.06,M,10.00,M,CLR,M,M,M,M,M,M,M,M,M,M,M,M,M,M,37.40,KHTH 211535Z AUTO 00000KT 10SM CLR 03/01 A3006 RMK A01,M
10U,2024-02-21 15:35,-116.1876,41.9532,1637.00,33.80,30.20,86.49,0.00,0.00,0.00,29.99,M,10.00,M,BKN,OVC,M,M,6000.00,7000.00,M,M,M,M,M,M,M,M,M,33.80,K10U 211535Z AUTO 00000KT 10SM BKN060 OVC070 01/M01 A2999 RMK AO2,M
INS,2024-02-21 15:35,-115.6733,36.5872,955.00,44.60,42.80,93.35,0.00,0.00,0.00,30.03,1015.50,9.00,M,BKN,M,M,M,2700.00,M,M,M,M,M,M,M,M,M,M,44.60,KINS 211535Z AUTO 00000KT 9SM BKN027 07/06 A3003 RMK AO2 SLP155,M
TMT,2024-02-21 15:35,-117.1971,39.4643,1749.34,31.30,29.70,93.71,210.00,6.00,0.00,30.04,M,10.00,M,SCT,M,M,M,4100.00,M,M,M,M,M,M,M,M,M,M,24.69,KTMT 211535Z AUTO 21006KT 10SM SCT041 00/M01 A3004 RMK AO2 T10041013,M
HND,2024-02-21 15:40,-115.1344,35.9729,742.79,46.40,46.40,100.00,200.00,4.00,0.00,30.04,M,2.50,M,BKN,M,M,M,200.00,M,M,M,BR,M,M,M,M,M,M,44.24,KHND 211540Z 20004KT 2 1/2SM BR BKN002 08/08 A3004 RMK AO2,M
ELY,2024-02-21 15:45,-114.8453,39.2950,1909.00,32.00,32.00,100.00,170.00,3.00,T,29.99,M,9.00,M,SCT,BKN,OVC,M,400.00,1800.00,6000.00,M,M,M,M,M,M,M,M,28.69,KELY 211545Z AUTO 17003KT 9SM SCT004 BKN018 OVC060 00/00 A2999 RMK AO2 SNB1458E28 P0000 T00000000,M
VGT,2024-02-21 15:45,-115.1933,36.2111,667.00,50.00,48.00,92.80,0.00,0.00,0.00,30.02,M,4.00,M,BKN,OVC,M,M,1400.00,2600.00,M,M,BR,M,M,M,M,M,M,50.00,KVGT 211545Z 00000KT 4SM BR BKN014 OVC026 10/09 A3002 RMK AO2 T01000089,M
LAS,2024-02-21 15:51,-115.1634,36.0719,663.00,48.20,46.40,93.45,230.00,3.00,0.00,30.03,M,7.00,M,FEW,SCT,BKN,BKN,1000.00,2200.00,6000.00,20000.00,M,M,M,M,M,M,M,47.21,KLAS 211551Z 23003KT 7SM FEW010 SCT022 BKN060 BKN200 09/08 A3003 RMK AO2 $,M
P68,2024-02-21 15:53,-116.0056,39.6014,1993.00,32.00,31.00,96.04,220.00,4.00,0.00,30.01,1015.60,M,M,M,M,M,M,M,M,M,M,M,M,M,M,M,M,M,27.42,KP68 211553Z AUTO 22004KT 00/M01 A3001 RMK AO1 SLP156 T00001006,M
DRA,2024-02-21 15:53,-116.0278,36.6206,1009.00,45.00,42.00,89.15,0.00,0.00,0.00,30.04,1015.50,10.00,M,OVC,M,M,M,2400.00,M,M,M,M,M,M,M,M,M,M,45.00,KDRA 211553Z AUTO 00000KT 10SM OVC024 07/06 A3004 RMK AO2 SLP155 T00720056,M
ELY,2024-02-21 15:53,-114.8453,39.2950,1909.00,33.00,31.00,92.25,0.00,0.00,T,29.99,1014.90,10.00,M,FEW,OVC,M,M,400.00,6000.00,M,M,M,M,M,M,M,M,M,33.00,KELY 211553Z AUTO 00000KT 10SM FEW004 OVC060 01/M01 A2999 RMK AO2 SNB1458E28 SLP149 P0000 T00061006,M
VGT,2024-02-21 15:53,-115.1933,36.2111,667.00,51.00,48.00,89.42,270.00,3.00,0.00,30.03,1018.50,5.00,M,SCT,OVC,M,M,1400.00,2600.00,M,M,BR,M,M,M,M,M,M,51.00,KVGT 211553Z 27003KT 5SM BR SCT014 OVC026 11/09 A3003 RMK AO2 SLP185 T01060089,M
LOL,2024-02-21 15:53,-118.5701,40.0684,1192.43,34.00,33.00,96.08,290.00,3.00,0.00,30.05,1018.20,10.00,M,OVC,M,M,M,6500.00,M,M,M,M,M,M,M,M,M,M,30.97,KLOL 211553Z AUTO 29003KT 10SM OVC065 01/01 A3005 RMK AO2 SLP182 T00110006,M
BVU,2024-02-21 15:55,-114.8611,35.9475,671.00,50.00,48.20,93.50,70.00,3.00,0.00,30.02,M,10.00,M,CLR,M,M,M,M,M,M,M,M,M,M,M,M,M,M,50.00,KBVU 211555Z AUTO 07003KT 10SM CLR 10/09 A3002 RMK AO2,M
CXP,2024-02-21 15:55,-119.7326,39.1923,1431.00,33.80,33.80,100.00,0.00,0.00,0.00,30.07,M,10.00,M,FEW,BKN,OVC,M,3100.00,3800.00,4400.00,M,M,M,M,M,M,M,M,33.80,KCXP 211555Z AUTO 00000KT 10SM FEW031 BKN038 OVC044 01/01 A3007 RMK AO2,M
RNO,2024-02-21 15:55,-119.7711,39.4839,1341.00,37.00,34.00,88.78,0.00,0.00,0.00,30.06,1017.70,9.00,M,BKN,BKN,M,M,800.00,6000.00,M,M,M,M,M,M,M,M,M,37.00,KRNO 211555Z 00000KT 9SM BKN008 BKN060 03/01 A3006 RMK AO2 SLP177 T00280011,M
LSV,2024-02-21 15:55,-115.0343,36.2362,570.00,50.00,47.70,91.76,0.00,0.00,0.00,30.01,M,6.00,M,FEW,SCT,M,M,3000.00,3700.00,M,M,BR,M,M,M,M,M,M,50.00,KLSV 211555Z AUTO 00000KT 6SM BR FEW030 SCT037 10/09 A3001 RMK AO2 SLPNO T01010087 $,M
RTS,2024-02-21 15:55,-119.8764,39.6682,1539.00,32.00,32.00,100.00,0.00,0.00,0.00,30.06,M,3.00,M,FEW,SCT,BKN,M,3800.00,4400.00,5000.00,M,BR,M,M,M,M,M,M,32.00,KRTS 211555Z AUTO 00000KT 3SM BR FEW038 SCT044 BKN050 00/00 A3006 RMK AO2,M
05U,2024-02-21 15:55,-116.0051,39.6042,1811.23,32.00,32.00,100.00,20.00,4.00,0.00,30.03,M,10.00,M,M,M,M,M,M,M,M,M,M,M,M,M,M,M,M,27.42,K05U 211555Z AUTO 02004KT 10SM 00/M00 A3003 RMK A01,M
MEV,2024-02-21 15:55,-119.7500,38.9963,1441.42,33.80,32.00,93.03,310.00,4.00,0.00,30.05,M,10.00,M,BKN,OVC,M,M,5000.00,6000.00,M,M,M,M,M,M,M,M,M,29.52,KMEV 211555Z AUTO 31004KT 10SM BKN050 OVC060 01/M00 A3005 RMK AO2,M
BAM,2024-02-21 15:55,-116.8743,40.5990,1382.36,37.40,35.60,93.14,0.00,0.00,0.00,30.03,M,10.00,M,SCT,SCT,OVC,M,2600.00,3800.00,6000.00,M,M,M,M,M,M,M,M,37.40,KBAM 211555Z AUTO 00000KT 10SM SCT026 SCT038 OVC060 03/02 A3003 RMK AO1,M
HTH,2024-02-21 15:55,-118.6315,38.5448,1282.89,41.00,35.60,80.93,120.00,3.00,0.00,30.07,M,10.00,M,CLR,M,M,M,M,M,M,M,M,M,M,M,M,M,M,38.98,KHTH 211555Z AUTO 12003KT 10SM CLR 05/02 A3007 RMK A01,M
TMT,2024-02-21 15:55,-117.1971,39.4643,1749.34,32.00,30.00,92.22,220.00,7.00,0.00,30.05,M,10.00,M,SCT,SCT,M,M,4100.00,8000.00,M,M,M,M,M,M,M,M,M,24.78,KTMT 211555Z AUTO 22007KT 10SM SCT041 SCT080 00/M01 A3005 RMK AO2 T10011012,M
10U,2024-02-21 15:55,-116.1876,41.9532,1637.00,33.80,30.20,86.49,0.00,0.00,0.00,30.00,M,2.00,M,FEW,FEW,SCT,M,400.00,2000.00,6000.00,M,-SN,M,M,M,M,M,M,33.80,K10U 211555Z AUTO 00000KT 2SM -SN FEW004 FEW020 SCT060 01/M01 A3000 RMK AO2,M
INS,2024-02-21 15:55,-115.6733,36.5872,955.00,45.70,43.00,90.22,220.00,3.00,0.00,30.05,1016.20,9.00,M,BKN,M,M,M,2900.00,M,M,M,M,M,M,M,M,M,M,44.35,KINS 211555Z AUTO 22003KT 9SM BKN029 08/06 A3005 RMK AO2 PRESRR SLP162 T00760061,M
HND,2024-02-21 15:56,-115.1344,35.9729,742.79,46.00,46.00,100.00,180.00,4.00,0.00,30.05,1019.40,3.00,M,BKN,M,M,M,200.00,M,M,M,BR,M,M,M,M,M,M,43.77,KHND 211556Z 18004KT 3SM BR BKN002 08/08 A3005 RMK AO2 SLP194 T00780078,M
EKO,2024-02-21 15:56,-115.7860,40.8242,1367.00,35.00,34.00,96.09,200.00,3.00,T,30.00,1016.30,10.00,M,BKN,BKN,OVC,M,3300.00,4500.00,5500.00,M,UP,M,M,M,M,M,M,32.12,KEKO 211556Z AUTO 20003KT 10SM UP BKN033 BKN045 OVC055 02/01 A3000 RMK AO2 UPB53 SLP163 P0000 T00170011,M
WMC,2024-02-21 15:56,-117.8072,40.9019,1315.00,39.00,34.00,82.08,270.00,3.00,0.00,30.02,1016.50,10.00,M,BKN,OVC,M,M,3700.00,4700.00,M,M,M,M,M,M,M,M,M,36.69,KWMC 211556Z AUTO 27003KT 10SM BKN037 OVC047 04/01 A3002 RMK AO2 SLP165 T00390011,M
NFL,2024-02-21 15:56,-118.7010,39.4166,1199.00,38.00,33.00,82.00,0.00,0.00,0.00,30.05,1014.50,10.00,M,FEW,BKN,BKN,M,5000.00,8000.00,14000.00,M,M,M,M,M,M,M,M,38.00,KNFL 211556Z 00000KT 10SM FEW050 BKN080 BKN140 03/01 A3005 RMK AO2 SLP145 T00330006,M
TPH,2024-02-21 15:56,-117.0904,38.0505,1654.00,35.00,33.00,92.32,0.00,0.00,0.00,30.03,1016.70,10.00,M,SCT,M,M,M,10000.00,M,M,M,M,M,M,M,M,M,M,35.00,KTPH 211556Z AUTO 00000KT 10SM SCT100 02/01 A3003 RMK AO2 SLP167 T00170006,M
LAS,2024-02-21 15:56,-115.1634,36.0719,663.00,48.00,47.00,96.31,220.00,3.00,0.00,30.03,1016.70,7.00,M,FEW,SCT,BKN,BKN,1000.00,2200.00,6000.00,20000.00,M,M,M,M,M,M,M,46.98,KLAS 211556Z 22003KT 7SM FEW010 SCT022 BKN060 BKN200 09/08 A3003 RMK AO2 SLP167 T00890083 $,M
INS,2024-02-21 16:10,-115.6733,36.5872,955.00,46.40,42.80,87.19,230.00,3.00,0.00,30.05,1016.20,10.00,M,SCT,M,M,M,3000.00,M,M,M,M,M,M,M,M,M,M,45.15,KINS 211610Z AUTO 23003KT 10SM SCT030 08/06 A3005 RMK AO2 SLP162,M
HND,2024-02-21 16:11,-115.1344,35.9729,742.79,48.20,46.40,93.45,190.00,4.00,0.00,30.06,M,4.00,M,SCT,M,M,M,200.00,M,M,M,BR,M,M,M,M,M,M,46.34,KHND 211611Z 19004KT 4SM BR SCT002 09/08 A3006 RMK AO2,M
ELY,2024-02-21 16:13,-114.8453,39.2950,1909.00,33.00,30.00,88.58,320.00,7.00,0.00,30.01,M,9.00,M,BKN,BKN,M,M,1400.00,6000.00,M,M,M,M,M,M,M,M,M,26.00,KELY 211613Z AUTO 32007KT 9SM BKN014 BKN060 01/M01 A3001 RMK AO2 CIG 009V024 T00061011,M
BVU,2024-02-21 16:15,-114.8611,35.9475,671.00,51.80,48.20,87.47,10.00,6.00,0.00,30.03,M,10.00,M,CLR,M,M,M,M,M,M,M,M,M,M,M,M,M,M,51.80,KBVU 211615Z AUTO 01006KT 10SM CLR 11/09 A3003 RMK AO2,M
CXP,2024-02-21 16:15,-119.7326,39.1923,1431.00,35.60,32.00,86.59,0.00,0.00,0.00,30.08,M,10.00,M,FEW,SCT,OVC,M,1900.00,3100.00,4000.00,M,M,M,M,M,M,M,M,35.60,KCXP 211615Z AUTO 00000KT 10SM FEW019 SCT031 OVC040 02/00 A3008 RMK AO2,M
RTS,2024-02-21 16:15,-119.8764,39.6682,1539.00,33.80,33.80,100.00,0.00,0.00,0.00,30.07,M,6.00,M,SCT,SCT,BKN,M,3900.00,4400.00,5000.00,M,BR,M,M,M,M,M,M,33.80,KRTS 211615Z AUTO 00000KT 6SM BR SCT039 SCT044 BKN050 01/01 A3007 RMK AO2,M
05U,2024-02-21 16:15,-116.0051,39.6042,1811.23,33.80,32.00,93.03,0.00,0.00,0.00,30.04,M,10.00,M,M,M,M,M,M,M,M,M,M,M,M,M,M,M,M,33.80,K05U 211615Z AUTO 00000KT 10SM 01/M00 A3004 RMK A01,M
MEV,2024-02-21 16:15,-119.7500,38.9963,1441.42,33.80,32.00,93.03,90.00,4.00,0.00,30.06,M,10.00,M,OVC,M,M,M,5000.00,M,M,M,M,M,M,M,M,M,M,29.52,KMEV 211615Z AUTO 09004KT 10SM OVC050 01/M00 A3006 RMK AO2,M
BAM,2024-02-21 16:15,-116.8743,40.5990,1382.36,37.40,35.60,93.14,0.00,0.00,0.00,30.04,M,10.00,M,SCT,BKN,OVC,M,2200.00,2900.00,6000.00,M,M,M,M,M,M,M,M,37.40,KBAM 211615Z AUTO 00000KT 10SM SCT022 BKN029 OVC060 03/02 A3004 RMK AO1,M
HTH,2024-02-21 16:15,-118.6315,38.5448,1282.89,41.00,35.60,80.93,0.00,0.00,0.00,30.08,M,10.00,M,CLR,M,M,M,M,M,M,M,M,M,M,M,M,M,M,41.00,KHTH 211615Z AUTO 00000KT 10SM CLR 05/02 A3008 RMK A01,M
10U,2024-02-21 16:15,-116.1876,41.9532,1637.00,33.80,30.20,86.49,0.00,0.00,0.00,30.00,M,1.25,M,SCT,M,M,M,400.00,M,M,M,-SN,M,M,M,M,M,M,33.80,K10U 211615Z AUTO 00000KT 1 1/4SM -SN SCT004 01/M01 A3000 RMK AO2,M
TMT,2024-02-21 16:15,-117.1971,39.4643,1749.34,34.70,31.00,86.19,220.00,7.00,0.00,30.05,M,10.00,M,CLR,M,M,M,M,M,M,M,M,M,M,M,M,M,M,28.07,KTMT 211615Z AUTO 22007KT 10SM CLR 02/M01 A3005 RMK AO2 T00151006,M
ELY,2024-02-21 16:18,-114.8453,39.2950,1909.00,32.00,30.00,92.22,310.00,9.00,T,30.01,M,2.00,M,SCT,BKN,BKN,M,1000.00,1900.00,6000.00,M,-SN BR,M,M,M,M,M,M,23.51,KELY 211618Z AUTO 31009KT 2SM -SN BR SCT010 BKN019 BKN060 00/M01 A3001 RMK AO2 SNB17 P0000 T00001011,M
ELY,2024-02-21 16:21,-114.8453,39.2950,1909.00,32.00,30.00,92.22,310.00,8.00,T,30.01,M,0.75,M,BKN,BKN,M,M,1000.00,1900.00,M,M,-SN BR,M,M,M,M,M,M,24.11,KELY 211621Z AUTO 31008KT 3/4SM -SN BR BKN010 BKN019 00/M01 A3001 RMK AO2 SNB17 P0000 T00001011,M
ELY,2024-02-21 16:24,-114.8453,39.2950,1909.00,32.00,30.00,92.22,310.00,9.00,0.01,30.02,M,0.25,M,BKN,BKN,M,M,800.00,1900.00,M,M,SN FG,M,M,M,M,M,M,23.51,KELY 211624Z AUTO 31009KT 1/4SM SN FG BKN008 BKN019 00/M01 A3002 RMK AO2 SNB17 P0001 T00001011,M
RNO,2024-02-21 16:24,-119.7711,39.4839,1341.00,38.00,33.00,82.00,0.00,0.00,0.00,30.08,M,10.00,M,SCT,BKN,M,M,800.00,5000.00,M,M,M,M,M,M,M,M,M,38.00,KRNO 211624Z 00000KT 10SM SCT008 BKN050 03/01 A3008 RMK AO2 T00330006,M
DRA,2024-02-21 16:34,-116.0278,36.6206,1009.00,47.00,42.00,82.65,90.00,5.00,0.00,30.03,M,10.00,M,SCT,M,M,M,2200.00,M,M,M,M,M,M,M,M,M,M,44.21,KDRA 211634Z AUTO 09005KT 10SM SCT022 08/06 A3003 RMK AO2 T00830056,M
BVU,2024-02-21 16:35,-114.8611,35.9475,671.00,51.80,48.20,87.47,30.00,4.00,0.00,30.04,M,10.00,M,SCT,M,M,M,1700.00,M,M,M,M,M,M,M,M,M,M,51.80,KBVU 211635Z AUTO 03004KT 10SM SCT017 11/09 A3004 RMK AO2,M
CXP,2024-02-21 16:35,-119.7326,39.1923,1431.00,35.60,32.00,86.59,0.00,0.00,0.00,30.08,M,10.00,M,BKN,OVC,M,M,4100.00,5500.00,M,M,M,M,M,M,M,M,M,35.60,KCXP 211635Z AUTO 00000KT 10SM BKN041 OVC055 02/M00 A3008 RMK AO2,M
LSV,2024-02-21 16:35,-115.0343,36.2362,570.00,51.80,48.20,87.47,0.00,0.00,0.00,30.02,M,8.00,M,BKN,M,M,M,3000.00,M,M,M,M,M,M,M,M,M,M,51.80,KLSV 211635Z AUTO 00000KT 8SM BKN030 11/09 A3002 RMK AO2 SLPNO $,M
RTS,2024-02-21 16:35,-119.8764,39.6682,1539.00,33.80,33.80,100.00,0.00,0.00,0.00,30.08,M,10.00,M,OVC,M,M,M,3700.00,M,M,M,M,M,M,M,M,M,M,33.80,KRTS 211635Z AUTO 00000KT 10SM OVC037 01/01 A3008 RMK AO2,M
05U,2024-02-21 16:35,-116.0051,39.6042,1811.23,33.80,32.00,93.03,M,5.00,0.00,30.05,M,10.00,M,M,M,M,M,M,M,M,M,M,M,M,M,M,M,M,28.53,K05U 211635Z AUTO VRB05KT 10SM 01/M00 A3005 RMK A01,M
MEV,2024-02-21 16:35,-119.7500,38.9963,1441.42,35.60,32.00,86.59,330.00,5.00,0.00,30.07,M,10.00,M,BKN,OVC,M,M,5000.00,5500.00,M,M,M,M,M,M,M,M,M,30.67,KMEV 211635Z AUTO 33005KT 10SM BKN050 OVC055 02/00 A3007 RMK AO2,M
BAM,2024-02-21 16:35,-116.8743,40.5990,1382.36,37.40,35.60,93.14,0.00,0.00,0.00,30.04,M,10.00,M,BKN,BKN,OVC,M,1400.00,2000.00,2800.00,M,M,M,M,M,M,M,M,37.40,KBAM 211635Z AUTO 00000KT 10SM BKN014 BKN020 OVC028 03/02 A3004 RMK AO1,M
HTH,2024-02-21 16:35,-118.6315,38.5448,1282.89,41.00,35.60,80.93,100.00,3.00,0.00,30.08,M,10.00,M,CLR,M,M,M,M,M,M,M,M,M,M,M,M,M,M,38.98,KHTH 211635Z AUTO 10003KT 10SM CLR 05/02 A3008 RMK A01,M
10U,2024-02-21 16:35,-116.1876,41.9532,1637.00,33.80,32.00,93.03,0.00,0.00,0.00,30.01,M,1.00,M,BKN,M,M,M,300.00,M,M,M,-SN,M,M,M,M,M,M,33.80,K10U 211635Z AUTO 00000KT 1SM -SN BKN003 01/M00 A3001 RMK AO2,M
TMT,2024-02-21 16:35,-117.1971,39.4643,1749.34,35.60,31.00,83.16,210.00,7.00,0.00,30.06,M,10.00,M,SCT,SCT,M,M,4000.00,5000.00,M,M,M,M,M,M,M,M,M,29.17,KTMT 211635Z AUTO 21007KT 10SM SCT040 SCT050 02/M01 A3006 RMK AO2 T00201006,M
ELY,2024-02-21 16:45,-114.8453,39.2950,1909.00,31.00,30.00,96.02,320.00,9.00,0.08,30.03,M,0.25,M,VV ,M,M,M,400.00,M,M,M,+SN FZFG,M,M,M,M,M,M,22.27,KELY 211645Z AUTO 32009KT 1/4SM +SN FZFG VV004 M01/M01 A3003 RMK AO2 SNB17 P0008 T10061011,M
P68,2024-02-21 16:53,-116.0056,39.6014,1993.00,35.00,31.00,85.17,M,4.00,0.00,30.02,1015.50,M,M,M,M,M,M,M,M,M,M,M,M,M,M,M,M,M,30.92,KP68 211653Z AUTO VRB04KT 02/M01 A3002 RMK AO1 SLP155 T00171006,M
DRA,2024-02-21 16:53,-116.0278,36.6206,1009.00,49.00,42.00,76.67,130.00,6.00,0.00,30.04,1015.40,10.00,M,CLR,M,M,M,M,M,M,M,M,M,M,M,M,M,M,46.00,KDRA 211653Z AUTO 13006KT 10SM CLR 09/06 A3004 RMK AO2 SLP154 T00940056,M
ELY,2024-02-21 16:53,-114.8453,39.2950,1909.00,31.00,31.00,100.00,350.00,6.00,0.11,30.03,1016.70,0.25,M,VV ,M,M,M,300.00,M,M,M,+SN FZFG,M,M,M,M,M,M,24.33,KELY 211653Z AUTO 35006KT 1/4SM +SN FZFG VV003 M01/M01 A3003 RMK AO2 SNB17 SLP167 P0011 T10061006,M
VGT,2024-02-21 16:53,-115.1933,36.2111,667.00,52.00,48.00,86.17,290.00,4.00,0.00,30.04,1018.90,10.00,M,FEW,OVC,M,M,1100.00,2800.00,M,M,M,M,M,M,M,M,M,52.00,KVGT 211653Z 29004KT 10SM FEW011 OVC028 11/09 A3004 RMK AO2 SLP189 T01110089,M
LOL,2024-02-21 16:53,-118.5701,40.0684,1192.43,40.00,36.00,85.48,0.00,0.00,T,30.06,1018.20,10.00,M,BKN,OVC,M,M,6000.00,8000.00,M,M,M,M,M,M,M,M,M,40.00,KLOL 211653Z AUTO 00000KT 10SM BKN060 OVC080 04/02 A3006 RMK AO2 RAB08E52 SLP182 P0000 T00440022,M
BVU,2024-02-21 16:55,-114.8611,35.9475,671.00,53.60,46.40,76.50,80.00,3.00,0.00,30.04,M,10.00,M,BKN,BKN,M,M,1700.00,2200.00,M,M,M,M,M,M,M,M,M,53.60,KBVU 211655Z AUTO 08003KT 10SM BKN017 BKN022 12/08 A3004 RMK AO2 LTG DSNT SE AND S,M
CXP,2024-02-21 16:55,-119.7326,39.1923,1431.00,37.40,32.00,80.65,0.00,0.00,0.00,30.08,M,10.00,M,FEW,OVC,M,M,4300.00,5500.00,M,M,M,M,M,M,M,M,M,37.40,KCXP 211655Z AUTO 00000KT 10SM FEW043 OVC055 03/00 A3008 RMK AO2,M
RNO,2024-02-21 16:55,-119.7711,39.4839,1341.00,40.00,33.00,75.84,0.00,0.00,0.00,30.08,1018.10,10.00,M,SCT,BKN,M,M,800.00,5500.00,M,M,M,M,M,M,M,M,M,40.00,KRNO 211655Z 00000KT 10SM SCT008 BKN055 04/01 A3008 RMK AO2 SLP181 T00440006,M
RTS,2024-02-21 16:55,-119.8764,39.6682,1539.00,35.60,32.00,86.59,0.00,0.00,0.00,30.08,M,10.00,M,OVC,M,M,M,3900.00,M,M,M,M,M,M,M,M,M,M,35.60,KRTS 211655Z AUTO 00000KT 10SM OVC039 02/00 A3008 RMK AO2,M
05U,2024-02-21 16:55,-116.0051,39.6042,1811.23,35.60,32.00,86.59,M,5.00,0.00,30.05,M,10.00,M,M,M,M,M,M,M,M,M,M,M,M,M,M,M,M,30.67,K05U 211655Z AUTO VRB05KT 10SM 02/M00 A3005 RMK A01,M
MEV,2024-02-21 16:55,-119.7500,38.9963,1441.42,37.40,30.20,74.98,30.00,3.00,0.00,30.07,M,10.00,M,OVC,M,M,M,5500.00,M,M,M,M,M,M,M,M,M,M,34.86,KMEV 211655Z AUTO 03003KT 10SM OVC055 03/M01 A3007 RMK AO2,M
BAM,2024-02-21 16:55,-116.8743,40.5990,1382.36,39.20,35.60,86.79,0.00,0.00,0.00,30.05,M,10.00,M,BKN,BKN,OVC,M,1800.00,2700.00,4200.00,M,M,M,M,M,M,M,M,39.20,KBAM 211655Z AUTO 00000KT 10SM BKN018 BKN027 OVC042 04/02 A3005 RMK AO1,M
HTH,2024-02-21 16:55,-118.6315,38.5448,1282.89,42.80,33.80,70.28,0.00,0.00,0.00,30.08,M,10.00,M,CLR,M,M,M,M,M,M,M,M,M,M,M,M,M,M,42.80,KHTH 211655Z AUTO 00000KT 10SM CLR 06/01 A3008 RMK A01,M
INS,2024-02-21 16:55,-115.6733,36.5872,955.00,48.60,41.00,74.88,0.00,0.00,0.00,30.04,1015.90,10.00,M,CLR,M,M,M,M,M,M,M,M,M,M,M,M,M,M,48.60,KINS 211655Z AUTO 00000KT 10SM CLR 09/05 A3004 RMK AO2 SLP159 T00920050,M
TMT,2024-02-21 16:55,-117.1971,39.4643,1749.34,37.00,31.50,80.29,210.00,7.00,0.00,30.06,M,10.00,M,SCT,BKN,BKN,M,3800.00,5000.00,7500.00,M,M,M,M,M,M,M,M,30.87,KTMT 211655Z AUTO 21007KT 10SM SCT038 BKN050 BKN075 03/00 A3006 RMK AO2 T00281003,M
10U,2024-02-21 16:55,-116.1876,41.9532,1637.00,33.80,32.00,93.03,0.00,0.00,0.00,30.02,M,3.00,M,FEW,BKN,BKN,M,900.00,2000.00,2900.00,M,-SN,M,M,M,M,M,M,33.80,K10U 211655Z AUTO 00000KT 3SM -SN FEW009 BKN020 BKN029 01/00 A3002 RMK AO2,M
LSV,2024-02-21 16:55,-115.0343,36.2362,570.00,52.00,47.70,85.21,0.00,0.00,0.00,30.02,M,9.00,M,SCT,M,M,M,3100.00,M,M,M,M,M,M,M,M,M,M,52.00,KLSV 211655Z AUTO 00000KT 9SM SCT031 11/09 A3002 RMK AO2 SLPNO T01110087 $,M
EKO,2024-02-21 16:56,-115.7860,40.8242,1367.00,37.00,33.00,85.29,0.00,0.00,T,30.02,1016.70,10.00,M,SCT,BKN,OVC,M,4500.00,6000.00,8500.00,M,M,M,M,M,M,M,M,37.00,KEKO 211656Z AUTO 00000KT 10SM SCT045 BKN060 OVC085 03/01 A3002 RMK AO2 UPE31RAB20E29SNB05E06 SLP167 P0000 T00280006,M
WMC,2024-02-21 16:56,-117.8072,40.9019,1315.00,40.00,35.00,82.15,0.00,0.00,0.00,30.04,1017.70,10.00,M,BKN,OVC,M,M,3900.00,7500.00,M,M,M,M,M,M,M,M,M,40.00,KWMC 211656Z AUTO 00000KT 10SM BKN039 OVC075 04/02 A3004 RMK AO2 SLP177 T00440017,M
NFL,2024-02-21 16:56,-118.7010,39.4166,1199.00,42.00,34.00,73.06,0.00,0.00,0.00,30.07,1015.10,10.00,M,FEW,BKN,BKN,M,5000.00,7500.00,14000.00,M,M,M,M,M,M,M,M,42.00,KNFL 211656Z 00000KT 10SM FEW050 BKN075 BKN140 06/01 A3007 RMK AO2 SLP151 T00560011,M
HND,2024-02-21 16:56,-115.1344,35.9729,742.79,52.00,46.00,79.92,30.00,3.00,0.00,30.06,1019.50,10.00,M,CLR,M,M,M,M,M,M,M,M,M,M,M,M,M,M,52.00,KHND 211656Z 03003KT 10SM CLR 11/08 A3006 RMK AO2 SLP195 T01110078,M
TPH,2024-02-21 16:56,-117.0904,38.0505,1654.00,40.00,34.00,78.94,50.00,3.00,0.00,30.05,1016.90,10.00,M,CLR,M,M,M,M,M,M,M,M,M,M,M,M,M,M,37.83,KTPH 211656Z AUTO 05003KT 10SM CLR 04/01 A3005 RMK AO2 SLP169 T00440011,M
LAS,2024-02-21 16:56,-115.1634,36.0719,663.00,51.00,47.00,86.12,0.00,0.00,0.00,30.05,1017.30,10.00,M,SCT,BKN,BKN,M,1600.00,6000.00,20000.00,M,M,M,M,M,M,M,M,51.00,KLAS 211656Z 00000KT 10SM SCT016 BKN060 BKN200 11/08 A3005 RMK AO2 SLP173 T01060083,M
ELY,2024-02-21 17:04,-114.8453,39.2950,1909.00,31.00,30.00,96.02,60.00,6.00,0.04,30.03,M,0.50,M,VV ,M,M,M,700.00,M,M,M,SN FZFG,M,M,M,M,M,M,24.33,KELY 211704Z AUTO 06006KT 1/2SM SN FZFG VV007 M01/M01 A3003 RMK AO2 P0004 T10061011,M
EKO,2024-02-21 17:09,-115.7860,40.8242,1367.00,38.00,34.00,85.35,0.00,0.00,0.00,30.02,M,10.00,M,SCT,BKN,OVC,M,800.00,4400.00,8500.00,M,M,M,M,M,M,M,M,38.00,KEKO 211709Z AUTO 00000KT 10SM SCT008 BKN044 OVC085 03/01 A3002 RMK AO2 T00330011,M
ELY,2024-02-21 17:09,-114.8453,39.2950,1909.00,31.00,30.00,96.02,50.00,4.00,0.05,30.03,M,1.00,M,BKN,BKN,M,M,1100.00,3700.00,M,M,-SN BR,M,M,M,M,M,M,26.25,KELY 211709Z AUTO 05004KT 1SM -SN BR BKN011 BKN037 M01/M01 A3003 RMK AO2 P0005 T10061011,M
VGT,2024-02-21 17:11,-115.1933,36.2111,667.00,54.00,47.00,77.12,350.00,3.00,0.00,30.05,M,10.00,M,SCT,M,M,M,2800.00,M,M,M,M,M,M,M,M,M,M,54.00,KVGT 211711Z 35003KT 10SM SCT028 12/08 A3005 RMK AO2 T01220083,M
ELY,2024-02-21 17:13,-114.8453,39.2950,1909.00,31.00,30.00,96.02,90.00,4.00,0.05,30.03,M,2.50,M,BKN,BKN,OVC,M,1500.00,3000.00,4700.00,M,-SN BR,M,M,M,M,M,M,26.25,KELY 211713Z AUTO 09004KT 2 1/2SM -SN BR BKN015 BKN030 OVC047 M01/M01 A3003 RMK AO2 P0005 T10061011,M
BVU,2024-02-21 17:15,-114.8611,35.9475,671.00,53.60,46.40,76.50,M,3.00,0.00,30.04,M,10.00,M,SCT,SCT,M,M,1700.00,2200.00,M,M,M,M,M,M,M,M,M,53.60,KBVU 211715Z AUTO VRB03KT 10SM SCT017 SCT022 12/08 A3004 RMK AO2,M
CXP,2024-02-21 17:15,-119.7326,39.1923,1431.00,37.40,32.00,80.65,0.00,0.00,0.00,30.09,M,10.00,M,BKN,M,M,M,5500.00,M,M,M,M,M,M,M,M,M,M,37.40,KCXP 211715Z AUTO 00000KT 10SM BKN055 03/00 A3009 RMK AO2,M
RTS,2024-02-21 17:15,-119.8764,39.6682,1539.00,37.40,33.80,86.69,0.00,0.00,0.00,30.08,M,10.00,M,BKN,BKN,OVC,M,3700.00,4400.00,6000.00,M,M,M,M,M,M,M,M,37.40,KRTS 211715Z AUTO 00000KT 10SM BKN037 BKN044 OVC060 03/01 A3008 RMK AO2,M
05U,2024-02-21 17:15,-116.0051,39.6042,1811.23,35.60,32.00,86.59,0.00,0.00,0.00,30.06,M,10.00,M,M,M,M,M,M,M,M,M,M,M,M,M,M,M,M,35.60,K05U 211715Z AUTO 00000KT 10SM 02/00 A3006 RMK A01,M
MEV,2024-02-21 17:15,-119.7500,38.9963,1441.42,39.20,28.40,64.93,0.00,0.00,0.00,30.07,M,10.00,M,OVC,M,M,M,5500.00,M,M,M,M,M,M,M,M,M,M,39.20,KMEV 211715Z AUTO 00000KT 10SM OVC055 04/M02 A3007 RMK AO2,M
BAM,2024-02-21 17:15,-116.8743,40.5990,1382.36,41.00,35.60,80.93,0.00,0.00,0.00,30.05,M,10.00,M,SCT,SCT,BKN,M,2000.00,2700.00,8500.00,M,M,M,M,M,M,M,M,41.00,KBAM 211715Z AUTO 00000KT 10SM SCT020 SCT027 BKN085 05/02 A3005 RMK AO1,M
HTH,2024-02-21 17:15,-118.6315,38.5448,1282.89,44.60,32.00,61.03,0.00,0.00,0.00,30.08,M,10.00,M,CLR,M,M,M,M,M,M,M,M,M,M,M,M,M,M,44.60,KHTH 211715Z AUTO 00000KT 10SM CLR 07/M00 A3008 RMK A01,M
10U,2024-02-21 17:15,-116.1876,41.9532,1637.00,33.80,32.00,93.03,0.00,0.00,0.00,30.02,M,4.00,M,OVC,M,M,M,1800.00,M,M,M,-SN,M,M,M,M,M,M,33.80,K10U 211715Z AUTO 00000KT 4SM -SN OVC018 01/00 A3002 RMK AO2,M
TMT,2024-02-21 17:15,-117.1971,39.4643,1749.34,38.70,31.50,75.11,210.00,7.00,0.00,30.07,M,10.00,M,BKN,BKN,M,M,5000.00,7500.00,M,M,M,M,M,M,M,M,M,32.95,KTMT 211715Z AUTO 21007KT 10SM BKN050 BKN075 04/00 A3007 RMK AO2 T00371003,M
EKO,2024-02-21 17:20,-115.7860,40.8242,1367.00,38.00,34.00,85.35,0.00,0.00,0.00,30.02,M,10.00,M,BKN,BKN,OVC,M,800.00,4300.00,5000.00,M,M,M,M,M,M,M,M,38.00,KEKO 211720Z AUTO 00000KT 10SM BKN008 BKN043 OVC050 03/01 A3002 RMK AO2 T00330011,M
ELY,2024-02-21 17:20,-114.8453,39.2950,1909.00,31.00,31.00,100.00,140.00,3.00,0.05,30.03,M,5.00,M,BKN,BKN,OVC,M,2100.00,2700.00,4700.00,M,-SN BR,M,M,M,M,M,M,27.55,KELY 211720Z AUTO 14003KT 5SM -SN BR BKN021 BKN027 OVC047 M01/M01 A3003 RMK AO2 P0005 T10061006,M
LSV,2024-02-21 17:25,-115.0343,36.2362,570.00,53.60,48.20,81.87,0.00,0.00,0.00,30.03,M,10.00,M,BKN,M,M,M,2900.00,M,M,M,M,M,M,M,M,M,M,53.60,KLSV 211725Z AUTO 00000KT 10SM BKN029 12/09 A3003 RMK AO2 BKN V SCT SLPNO $,M
EKO,2024-02-21 17:31,-115.7860,40.8242,1367.00,38.00,34.00,85.35,0.00,0.00,0.00,30.02,M,10.00,M,SCT,BKN,OVC,M,800.00,1200.00,3800.00,M,M,M,M,M,M,M,M,38.00,KEKO 211731Z AUTO 00000KT 10SM SCT008 BKN012 OVC038 03/01 A3002 RMK AO2 T00330011,M
BVU,2024-02-21 17:35,-114.8611,35.9475,671.00,53.60,46.40,76.50,0.00,0.00,0.00,30.05,M,10.00,M,FEW,M,M,M,1900.00,M,M,M,M,M,M,M,M,M,M,53.60,KBVU 211735Z AUTO 00000KT 10SM FEW019 12/08 A3005 RMK AO2,M
CXP,2024-02-21 17:35,-119.7326,39.1923,1431.00,39.20,32.00,75.16,0.00,0.00,0.00,30.09,M,10.00,M,FEW,FEW,M,M,5000.00,6000.00,M,M,M,M,M,M,M,M,M,39.20,KCXP 211735Z AUTO 00000KT 10SM FEW050 FEW060 04/00 A3009 RMK AO2,M
RTS,2024-02-21 17:35,-119.8764,39.6682,1539.00,37.40,33.80,86.69,330.00,3.00,0.00,30.09,M,10.00,M,SCT,OVC,M,M,1100.00,3300.00,M,M,M,M,M,M,M,M,M,34.86,KRTS 211735Z AUTO 33003KT 10SM SCT011 OVC033 03/01 A3009 RMK AO2,M
05U,2024-02-21 17:35,-116.0051,39.6042,1811.23,35.60,33.80,93.08,60.00,4.00,0.00,30.06,M,10.00,M,M,M,M,M,M,M,M,M,M,M,M,M,M,M,M,31.62,K05U 211735Z AUTO 06004KT 10SM 02/01 A3006 RMK A01,M
MEV,2024-02-21 17:35,-119.7500,38.9963,1441.42,41.00,30.20,65.16,350.00,4.00,0.00,30.08,M,10.00,M,BKN,BKN,M,M,5000.00,6000.00,M,M,M,M,M,M,M,M,M,37.93,KMEV 211735Z AUTO 35004KT 10SM BKN050 BKN060 05/M01 A3008 RMK AO2,M
BAM,2024-02-21 17:35,-116.8743,40.5990,1382.36,42.80,35.60,75.50,180.00,3.00,0.00,30.05,M,10.00,M,SCT,SCT,SCT,M,1300.00,2100.00,9000.00,M,M,M,M,M,M,M,M,41.03,KBAM 211735Z AUTO 18003KT 10SM SCT013 SCT021 SCT090 06/02 A3005 RMK AO1,M
HTH,2024-02-21 17:35,-118.6315,38.5448,1282.89,44.60,33.80,65.61,320.00,5.00,0.00,30.08,M,10.00,M,CLR,M,M,M,M,M,M,M,M,M,M,M,M,M,M,41.36,KHTH 211735Z AUTO 32005KT 10SM CLR 07/01 A3008 RMK A01,M
10U,2024-02-21 17:35,-116.1876,41.9532,1637.00,33.80,33.80,100.00,0.00,0.00,0.00,30.02,M,7.00,M,BKN,OVC,M,M,1600.00,2500.00,M,M,-SN,M,M,M,M,M,M,33.80,K10U 211735Z AUTO 00000KT 7SM -SN BKN016 OVC025 01/01 A3002 RMK AO2,M
TMT,2024-02-21 17:35,-117.1971,39.4643,1749.34,38.00,29.30,70.60,270.00,3.00,0.00,30.07,M,10.00,M,SCT,BKN,OVC,M,3200.00,5000.00,5500.00,M,M,M,M,M,M,M,M,35.55,KTMT 211735Z AUTO 27003KT 10SM SCT032 BKN050 OVC055 03/M01 A3007 RMK AO2 T00331015,M
DRA,2024-02-21 17:36,-116.0278,36.6206,1009.00,51.00,42.00,71.18,0.00,0.00,0.00,30.05,M,10.00,M,BKN,M,M,M,2100.00,M,M,M,M,M,M,M,M,M,M,51.00,KDRA 211736Z AUTO 00000KT 10SM BKN021 11/06 A3005 RMK AO2 T01060056,M
LSV,2024-02-21 17:45,-115.0343,36.2362,570.00,55.40,48.20,76.66,270.00,4.00,0.00,30.03,M,10.00,M,FEW,SCT,M,M,1400.00,3000.00,M,M,M,M,M,M,M,M,M,55.40,KLSV 211745Z AUTO 27004KT 10SM FEW014 SCT030 13/09 A3003 RMK AO2 SLPNO $,M
P68,2024-02-21 17:53,-116.0056,39.6014,1993.00,35.00,33.00,92.32,270.00,5.00,0.00,30.05,1016.70,M,M,M,M,M,M,M,M,M,M,M,M,M,M,M,M,M,29.96,KP68 211753Z AUTO 27005KT 02/01 A3005 RMK AO1 SLP167 T00170006 10022 21011 52017,M
DRA,2024-02-21 17:53,-116.0278,36.6206,1009.00,52.00,42.00,68.59,270.00,6.00,0.00,30.06,1016.20,10.00,M,BKN,M,M,M,2100.00,M,M,M,M,M,M,M,M,M,M,52.00,KDRA 211753Z AUTO 27006KT 10SM BKN021 11/06 A3006 RMK AO2 SLP162 T01110056 10111 20056 51017,M
ELY,2024-02-21 17:53,-114.8453,39.2950,1909.00,32.00,30.00,92.22,220.00,6.00,0.05,30.04,1016.50,10.00,M,BKN,BKN,OVC,M,2300.00,4900.00,7500.00,M,M,M,M,M,M,M,M,25.53,KELY 211753Z AUTO 22006KT 10SM BKN023 BKN049 OVC075 00/M01 A3004 RMK AO2 SNE45 SLP165 P0005 60023 T00001011 10006 21006 53013,M
VGT,2024-02-21 17:53,-115.1933,36.2111,667.00,56.00,46.00,69.05,0.00,0.00,0.00,30.05,1019.00,10.00,M,FEW,SCT,M,M,2200.00,3100.00,M,M,M,M,M,M,M,M,M,56.00,KVGT 211753Z 00000KT 10SM FEW022 SCT031 13/08 A3005 RMK AO2 SLP190 T01330078 10133 20094 51014,M
LOL,2024-02-21 17:53,-118.5701,40.0684,1192.43,44.00,34.00,67.66,0.00,0.00,0.00,30.08,1018.60,10.00,M,FEW,M,M,M,7000.00,M,M,M,M,M,M,M,M,M,M,44.00,KLOL 211753Z AUTO 00000KT 10SM FEW070 07/01 A3008 RMK AO2 SLP186 60000 T00670011 10067 20000 51018,M
BVU,2024-02-21 17:55,-114.8611,35.9475,671.00,55.40,46.40,71.64,0.00,0.00,0.00,30.05,M,10.00,M,BKN,M,M,M,2000.00,M,M,M,M,M,M,M,M,M,M,55.40,KBVU 211755Z AUTO 00000KT 10SM BKN020 13/08 A3005 RMK AO2,M
CXP,2024-02-21 17:55,-119.7326,39.1923,1431.00,41.00,32.00,70.08,190.00,4.00,0.00,30.09,M,10.00,M,FEW,M,M,M,4900.00,M,M,M,M,M,M,M,M,M,M,37.93,KCXP 211755Z AUTO 19004KT 10SM FEW049 05/00 A3009 RMK AO2,M
RNO,2024-02-21 17:55,-119.7711,39.4839,1341.00,41.00,34.00,75.94,0.00,0.00,0.00,30.09,1018.70,10.00,M,FEW,BKN,M,M,1500.00,5500.00,M,M,M,M,M,M,M,M,M,41.00,KRNO 211755Z 00000KT 10SM FEW015 BKN055 05/01 A3009 RMK AO2 SLP187 60000 T00500011 10056 20022 51015,M
LSV,2024-02-21 17:55,-115.0343,36.2362,570.00,55.00,46.80,73.80,250.00,3.00,0.00,30.03,M,10.00,M,FEW,M,M,M,1400.00,M,M,M,M,M,M,M,M,M,M,55.00,KLSV 211755Z AUTO 25003KT 10SM FEW014 13/08 A3003 RMK AO2 SLPNO T01270082 10136 20090 52013 $,M
RTS,2024-02-21 17:55,-119.8764,39.6682,1539.00,37.40,33.80,86.69,M,4.00,0.00,30.09,M,10.00,M,FEW,SCT,BKN,M,1600.00,3200.00,4600.00,M,M,M,M,M,M,M,M,33.73,KRTS 211755Z AUTO VRB04KT 10SM FEW016 SCT032 BKN046 03/01 A3009 RMK AO2,M
05U,2024-02-21 17:55,-116.0051,39.6042,1811.23,35.60,33.80,93.08,80.00,5.00,0.00,30.07,M,10.00,M,M,M,M,M,M,M,M,M,M,M,M,M,M,M,M,30.67,K05U 211755Z AUTO 08005KT 10SM 02/01 A3007 RMK A01,M
MEV,2024-02-21 17:55,-119.7500,38.9963,1441.42,42.80,30.20,60.79,0.00,0.00,0.00,30.08,M,10.00,M,BKN,M,M,M,5000.00,M,M,M,M,M,M,M,M,M,M,42.80,KMEV 211755Z AUTO 00000KT 10SM BKN050 06/M01 A3008 RMK AO2,M
BAM,2024-02-21 17:55,-116.8743,40.5990,1382.36,44.60,35.60,70.48,240.00,9.00,0.00,30.05,M,10.00,M,SCT,SCT,SCT,M,1500.00,2000.00,5000.00,M,M,M,M,M,M,M,M,39.18,KBAM 211755Z AUTO 24009KT 10SM SCT015 SCT020 SCT050 07/02 A3005 RMK AO1,M
HTH,2024-02-21 17:55,-118.6315,38.5448,1282.89,44.60,33.80,65.61,360.00,4.00,0.00,30.09,M,10.00,M,CLR,M,M,M,M,M,M,M,M,M,M,M,M,M,M,42.13,KHTH 211755Z AUTO 36004KT 10SM CLR 07/01 A3009 RMK A01,M
TMT,2024-02-21 17:55,-117.1971,39.4643,1749.34,38.00,28.20,67.49,310.00,3.00,0.00,30.08,M,10.00,M,SCT,SCT,BKN,M,3100.00,4600.00,5500.00,M,M,M,M,M,M,M,M,35.55,KTMT 211755Z AUTO 31003KT 10SM SCT031 SCT046 BKN055 03/M02 A3008 RMK AO2 T00341021 10038 21007,M
10U,2024-02-21 17:55,-116.1876,41.9532,1637.00,33.80,32.00,93.03,0.00,0.00,0.00,30.03,M,6.00,M,SCT,SCT,BKN,M,1400.00,2000.00,2500.00,M,-SN,M,M,M,M,M,M,33.80,K10U 211755Z AUTO 00000KT 6SM -SN SCT014 SCT020 BKN025 01/00 A3003 RMK AO2,M
INS,2024-02-21 17:55,-115.6733,36.5872,955.00,50.40,41.40,71.11,0.00,0.00,0.00,30.06,1016.30,10.00,M,BKN,M,M,M,3000.00,M,M,M,M,M,M,M,M,M,M,50.40,KINS 211755Z AUTO 00000KT 10SM BKN030 10/05 A3006 RMK AO2 SLP163 T01020052 10108 20070 50016,M
EKO,2024-02-21 17:56,-115.7860,40.8242,1367.00,38.00,34.00,85.35,0.00,0.00,0.00,30.02,1017.10,10.00,M,BKN,OVC,M,M,1400.00,3800.00,M,M,M,M,M,M,M,M,M,38.00,KEKO 211756Z AUTO 00000KT 10SM BKN014 OVC038 03/01 A3002 RMK AO2 SLP171 60003 T00330011 10039 20006 51012,M
WMC,2024-02-21 17:56,-117.8072,40.9019,1315.00,44.00,35.00,70.42,280.00,7.00,0.00,30.06,1017.80,10.00,M,SCT,BKN,OVC,M,3000.00,3500.00,4400.00,M,M,M,M,M,M,M,M,39.41,KWMC 211756Z AUTO 28007KT 10SM SCT030 BKN035 OVC044 07/02 A3006 RMK AO2 SLP178 60004 T00670017 10067 20028 52016,M
NFL,2024-02-21 17:56,-118.7010,39.4166,1199.00,46.00,32.00,57.87,0.00,0.00,0.00,30.08,1015.30,10.00,M,SCT,BKN,BKN,M,5000.00,7500.00,12000.00,M,M,M,M,M,M,M,M,46.00,KNFL 211756Z 00000KT 10SM SCT050 BKN075 BKN120 08/00 A3008 RMK AO2 SLP153 T00780000 10078 21006 51015,M
HND,2024-02-21 17:56,-115.1344,35.9729,742.79,56.00,45.00,66.48,M,3.00,0.00,30.09,1020.30,10.00,M,SCT,M,M,M,1800.00,M,M,M,M,M,M,M,M,M,M,56.00,KHND 211756Z VRB03KT 10SM SCT018 13/07 A3009 RMK AO2 SLP203 T01330072 10133 20072 53016,M
TPH,2024-02-21 17:56,-117.0904,38.0505,1654.00,43.00,32.00,64.88,320.00,8.00,0.00,30.06,1016.70,10.00,M,CLR,M,M,M,M,M,M,M,M,M,M,M,M,M,M,37.66,KTPH 211756Z AUTO 32008KT 10SM CLR 06/00 A3006 RMK AO2 SLP167 60000 T00610000 10067 20011 51014,M
LAS,2024-02-21 17:56,-115.1634,36.0719,663.00,53.00,48.00,83.06,0.00,0.00,0.00,30.07,1018.00,10.00,M,FEW,SCT,M,M,1400.00,2200.00,M,M,M,M,M,M,M,M,M,53.00,KLAS 211756Z 00000KT 10SM FEW014 SCT022 12/09 A3007 RMK AO2 SLP180 T01170089 10117 20083 53012,M
BVU,2024-02-21 18:15,-114.8611,35.9475,671.00,55.40,46.40,71.64,110.00,4.00,0.00,30.07,M,10.00,M,SCT,SCT,M,M,2100.00,2500.00,M,M,M,M,M,M,M,M,M,55.40,KBVU 211815Z AUTO 11004KT 10SM SCT021 SCT025 13/08 A3007 RMK AO2,M
CXP,2024-02-21 18:15,-119.7326,39.1923,1431.00,44.60,33.80,65.61,200.00,5.00,0.00,30.10,M,10.00,10.00,FEW,M,M,M,4800.00,M,M,M,M,M,M,M,M,M,M,41.36,KCXP 211815Z AUTO 20005G10KT 10SM FEW048 07/01 A3010 RMK AO2,M
ELY,2024-02-21 18:15,-114.8453,39.2950,1909.00,32.00,30.00,92.22,210.00,7.00,0.00,30.04,M,10.00,M,SCT,OVC,M,M,2300.00,6000.00,M,M,M,M,M,M,M,M,M,24.78,KELY 211815Z AUTO 21007KT 10SM SCT023 OVC060 00/M01 A3004 RMK AO2 T00001011,M
RTS,2024-02-21 18:15,-119.8764,39.6682,1539.00,39.20,33.80,80.79,M,5.00,0.00,30.09,M,10.00,M,BKN,BKN,M,M,3600.00,4700.00,M,M,M,M,M,M,M,M,M,34.95,KRTS 211815Z AUTO VRB05KT 10SM BKN036 BKN047 04/01 A3009 RMK AO2,M
05U,2024-02-21 18:15,-116.0051,39.6042,1811.23,M,M,M,70.00,4.00,0.00,30.07,M,10.00,M,M,M,M,M,M,M,M,M,M,M,M,M,M,M,M,M,K05U 211815Z AUTO 07004KT 10SM A3007 RMK A01,M
MEV,2024-02-21 18:15,-119.7500,38.9963,1441.42,42.80,30.20,60.79,0.00,0.00,0.00,30.08,M,10.00,M,FEW,M,M,M,5500.00,M,M,M,M,M,M,M,M,M,M,42.80,KMEV 211815Z AUTO 00000KT 10SM FEW055 06/M01 A3008 RMK AO2,M
BAM,2024-02-21 18:15,-116.8743,40.5990,1382.36,44.60,33.80,65.61,250.00,10.00,0.00,30.06,M,10.00,M,SCT,M,M,M,6500.00,M,M,M,M,M,M,M,M,M,M,38.77,KBAM 211815Z AUTO 25010KT 10SM SCT065 07/01 A3006 RMK AO1,M
HTH,2024-02-21 18:15,-118.6315,38.5448,1282.89,46.40,32.00,57.00,0.00,0.00,0.00,30.09,M,10.00,M,CLR,M,M,M,M,M,M,M,M,M,M,M,M,M,M,46.40,KHTH 211815Z AUTO 00000KT 10SM CLR 08/00 A3009 RMK A01,M
10U,2024-02-21 18:15,-116.1876,41.9532,1637.00,35.60,33.80,93.08,0.00,0.00,0.00,30.03,M,5.00,M,BKN,BKN,BKN,M,600.00,1300.00,2300.00,M,UP,M,M,M,M,M,M,35.60,K10U 211815Z AUTO 00000KT 5SM UP BKN006 BKN013 BKN023 02/01 A3003 RMK AO2,M
TMT,2024-02-21 18:15,-117.1971,39.4643,1749.34,39.00,27.50,63.06,260.00,5.00,0.00,30.08,M,10.00,M,BKN,BKN,BKN,M,3200.00,4300.00,8000.00,M,M,M,M,M,M,M,M,34.71,KTMT 211815Z AUTO 26005KT 10SM BKN032 BKN043 BKN080 04/M02 A3008 RMK AO2 T00391025,M
EKO,2024-02-21 18:17,-115.7860,40.8242,1367.00,34.00,31.00,88.63,260.00,12.00,T,30.04,M,1.75,23.00,OVC,M,M,M,1200.00,M,M,M,-SN BR,M,M,M,M,M,M,24.55,KEKO 211817Z AUTO 26012G23KT 1 3/4SM -SN BR OVC012 01/M01 A3004 RMK AO2 RAB13E16SNB16 P0000 T00111006,M
BVU,2024-02-21 18:35,-114.8611,35.9475,671.00,55.40,46.40,71.64,50.00,3.00,0.00,30.07,M,10.00,M,BKN,M,M,M,5000.00,M,M,M,M,M,M,M,M,M,M,55.40,KBVU 211835Z AUTO 05003KT 10SM BKN050 13/08 A3007 RMK AO2,M
CXP,2024-02-21 18:35,-119.7326,39.1923,1431.00,46.40,32.00,57.00,210.00,8.00,0.00,30.10,M,10.00,13.00,CLR,M,M,M,M,M,M,M,M,M,M,M,M,M,M,41.85,KCXP 211835Z AUTO 21008G13KT 160V220 10SM CLR 08/M00 A3010 RMK AO2,M
RTS,2024-02-21 18:35,-119.8764,39.6682,1539.00,39.20,33.80,80.79,330.00,7.00,0.00,30.10,M,10.00,M,FEW,BKN,M,M,2900.00,3600.00,M,M,M,M,M,M,M,M,M,33.56,KRTS 211835Z AUTO 33007KT 300V360 10SM FEW029 BKN036 04/01 A3010 RMK AO2,M
05U,2024-02-21 18:35,-116.0051,39.6042,1811.23,39.20,32.00,75.16,0.00,0.00,0.00,30.07,M,10.00,M,M,M,M,M,M,M,M,M,M,M,M,M,M,M,M,39.20,K05U 211835Z AUTO 00000KT 10SM 04/00 A3007 RMK A01,M
MEV,2024-02-21 18:35,-119.7500,38.9963,1441.42,44.60,26.60,48.96,0.00,0.00,0.00,30.09,M,10.00,M,CLR,M,M,M,M,M,M,M,M,M,M,M,M,M,M,44.60,KMEV 211835Z AUTO 00000KT 10SM CLR 07/M03 A3009 RMK AO2,M
BAM,2024-02-21 18:35,-116.8743,40.5990,1382.36,44.60,33.80,65.61,250.00,8.00,0.00,30.06,M,10.00,M,SCT,BKN,M,M,5500.00,7000.00,M,M,M,M,M,M,M,M,M,39.63,KBAM 211835Z AUTO 25008KT 10SM SCT055 BKN070 07/01 A3006 RMK AO1,M
HTH,2024-02-21 18:35,-118.6315,38.5448,1282.89,46.40,32.00,57.00,350.00,4.00,0.00,30.09,M,10.00,M,CLR,M,M,M,M,M,M,M,M,M,M,M,M,M,M,44.24,KHTH 211835Z AUTO 35004KT 10SM CLR 08/00 A3009 RMK A01,M
10U,2024-02-21 18:35,-116.1876,41.9532,1637.00,35.60,33.80,93.08,0.00,0.00,0.00,30.03,M,9.00,M,BKN,BKN,OVC,M,700.00,1100.00,1900.00,M,UP,M,M,M,M,M,M,35.60,K10U 211835Z AUTO 00000KT 9SM UP BKN007 BKN011 OVC019 02/01 A3003 RMK AO2,M
TMT,2024-02-21 18:35,-117.1971,39.4643,1749.34,39.20,27.70,63.09,260.00,4.00,0.00,30.09,M,10.00,M,SCT,BKN,OVC,M,2800.00,3800.00,7000.00,M,M,M,M,M,M,M,M,35.83,KTMT 211835Z AUTO 26004KT 10SM SCT028 BKN038 OVC070 04/M02 A3009 RMK AO2 T00401024,M
EKO,2024-02-21 18:43,-115.7860,40.8242,1367.00,34.00,33.00,96.08,200.00,5.00,0.03,30.04,M,2.50,M,FEW,OVC,M,M,1000.00,1600.00,M,M,-SN BR,M,M,M,M,M,M,28.77,KEKO 211843Z AUTO 20005KT 2 1/2SM -SN BR FEW010 OVC016 01/01 A3004 RMK AO2 RAB13E16SNB16 P0003 T00110006,M
EKO,2024-02-21 18:51,-115.7860,40.8242,1367.00,35.60,33.80,93.08,200.00,5.00,0.03,30.04,M,8.00,M,FEW,BKN,OVC,M,900.00,2700.00,6000.00,M,-SN,M,M,M,M,M,M,30.67,KEKO 211851Z AUTO 20005KT 8SM -SN FEW009 BKN027 OVC060 02/01 A3004 RMK AO2 RAB13E16SNB16 P0003,M
P68,2024-02-21 18:53,-116.0056,39.6014,1993.00,39.00,32.00,75.75,270.00,11.00,0.00,30.04,1016.10,M,M,M,M,M,M,M,M,M,M,M,M,M,M,M,M,M,31.31,KP68 211853Z AUTO 27011KT 04/00 A3004 RMK AO1 SLP161 T00390000,M
DRA,2024-02-21 18:53,-116.0278,36.6206,1009.00,53.00,40.00,61.19,240.00,11.00,0.00,30.07,1016.70,10.00,M,BKN,BKN,OVC,M,2700.00,3900.00,6000.00,M,M,M,M,M,M,M,M,53.00,KDRA 211853Z AUTO 24011KT 10SM BKN027 BKN039 OVC060 12/04 A3007 RMK AO2 SLP167 T01170044,M
ELY,2024-02-21 18:53,-114.8453,39.2950,1909.00,35.00,32.00,88.68,0.00,0.00,0.00,30.04,1016.30,10.00,M,BKN,OVC,M,M,8000.00,9000.00,M,M,M,M,M,M,M,M,M,35.00,KELY 211853Z AUTO 00000KT 10SM BKN080 OVC090 02/00 A3004 RMK AO2 SLP163 T00170000,M
VGT,2024-02-21 18:53,-115.1933,36.2111,667.00,58.00,43.00,57.30,330.00,3.00,0.00,30.06,1019.30,10.00,M,CLR,M,M,M,M,M,M,M,M,M,M,M,M,M,M,58.00,KVGT 211853Z 33003KT 10SM CLR 14/06 A3006 RMK AO2 SLP193 T01440061,M
LOL,2024-02-21 18:53,-118.5701,40.0684,1192.43,47.00,33.00,58.01,0.00,0.00,0.00,30.08,1018.60,10.00,M,SCT,BKN,M,M,3400.00,7000.00,M,M,M,M,M,M,M,M,M,47.00,KLOL 211853Z AUTO 00000KT 10SM SCT034 BKN070 08/01 A3008 RMK AO2 SLP186 T00830006,M
EKO,2024-02-21 18:54,-115.7860,40.8242,1367.00,35.60,33.80,93.08,200.00,4.08,M,30.04,M,9.00,M,FEW,BKN,OVC,M,898.00,3100.00,6000.00,M,M,M,M,M,M,M,M,31.54,SPECI KEKO 211854Z 20004KT 9SM FEW009 BKN031 OVC060 02/01 A3004 RMK AO2 RAB13E16SNB16E54 P0003 FIBI,M
BVU,2024-02-21 18:55,-114.8611,35.9475,671.00,57.20,46.40,67.12,M,3.00,0.00,30.07,M,10.00,M,FEW,BKN,OVC,M,2600.00,4400.00,5000.00,M,M,M,M,M,M,M,M,57.20,KBVU 211855Z AUTO VRB03KT 10SM FEW026 BKN044 OVC050 14/08 A3007 RMK AO2,M
CXP,2024-02-21 18:55,-119.7326,39.1923,1431.00,48.20,30.20,49.53,200.00,9.00,0.00,30.10,M,10.00,M,FEW,SCT,BKN,M,2200.00,4200.00,5500.00,M,M,M,M,M,M,M,M,43.66,KCXP 211855Z AUTO 20009KT 10SM FEW022 SCT042 BKN055 09/M01 A3010 RMK AO2,M
RNO,2024-02-21 18:55,-119.7711,39.4839,1341.00,46.00,32.00,57.87,40.00,3.00,0.00,30.10,1018.50,10.00,M,SCT,M,M,M,5500.00,M,M,M,M,M,M,M,M,M,M,44.69,KRNO 211855Z 04003KT 10SM SCT055 08/00 A3010 RMK AO2 SLP185 T00780000,M
LSV,2024-02-21 18:55,-115.0343,36.2362,570.00,57.20,46.00,66.12,150.00,3.00,0.00,30.05,1017.00,10.00,M,CLR,M,M,M,M,M,M,M,M,M,M,M,M,M,M,57.20,KLSV 211855Z AUTO 15003KT 10SM CLR 14/08 A3005 RMK AO2 SLP170 T01400077 $,M
RTS,2024-02-21 18:55,-119.8764,39.6682,1539.00,39.20,30.20,69.88,310.00,8.00,0.00,30.10,M,9.00,M,FEW,FEW,BKN,M,2100.00,2800.00,3400.00,M,-DZ,M,M,M,M,M,M,32.98,KRTS 211855Z AUTO 31008KT 9SM -DZ FEW021 FEW028 BKN034 04/M01 A3010 RMK AO2,M
05U,2024-02-21 18:55,-116.0051,39.6042,1811.23,39.20,32.00,75.16,80.00,11.00,0.00,30.07,M,9.00,M,M,M,M,M,M,M,M,M,M,M,M,M,M,M,M,31.57,K05U 211855Z AUTO 08011KT 9SM 04/M00 A3007 RMK A01,M
MEV,2024-02-21 18:55,-119.7500,38.9963,1441.42,44.60,26.60,48.96,300.00,4.00,0.00,30.09,M,10.00,M,FEW,M,M,M,6000.00,M,M,M,M,M,M,M,M,M,M,42.13,KMEV 211855Z AUTO 30004KT 10SM FEW060 07/M03 A3009 RMK AO2,M
BAM,2024-02-21 18:55,-116.8743,40.5990,1382.36,42.80,32.00,65.38,330.00,4.00,0.00,30.06,M,10.00,M,SCT,BKN,OVC,M,3000.00,3800.00,6500.00,M,M,M,M,M,M,M,M,40.03,KBAM 211855Z AUTO 33004KT 10SM SCT030 BKN038 OVC065 06/00 A3006 RMK AO1,M
HTH,2024-02-21 18:55,-118.6315,38.5448,1282.89,48.20,32.00,53.27,360.00,5.00,0.00,30.09,M,10.00,M,CLR,M,M,M,M,M,M,M,M,M,M,M,M,M,M,45.63,KHTH 211855Z AUTO 36005KT 10SM CLR 09/M00 A3009 RMK A01,M
TMT,2024-02-21 18:55,-117.1971,39.4643,1749.34,37.80,29.30,71.16,40.00,3.00,0.04,30.08,M,5.00,M,SCT,BKN,OVC,M,1600.00,3400.00,4200.00,M,UP,M,M,M,M,M,M,35.32,KTMT 211855Z AUTO 04003KT 5SM UP SCT016 BKN034 OVC042 03/M01 A3008 RMK AO2 P0004 T00321015,M
10U,2024-02-21 18:55,-116.1876,41.9532,1637.00,37.40,33.80,86.69,M,4.00,0.00,30.03,M,10.00,M,FEW,SCT,BKN,M,700.00,1200.00,1800.00,M,UP,M,M,M,M,M,M,33.73,K10U 211855Z AUTO VRB04KT 10SM UP FEW007 SCT012 BKN018 03/01 A3003 RMK AO2,M
INS,2024-02-21 18:55,-115.6733,36.5872,955.00,52.50,37.80,57.19,0.00,0.00,0.00,30.07,1016.70,10.00,M,CLR,M,M,M,M,M,M,M,M,M,M,M,M,M,M,52.50,KINS 211855Z AUTO 00000KT 10SM CLR 11/03 A3007 RMK AO2 SLP167 T01140032,M
EKO,2024-02-21 18:56,-115.7860,40.8242,1367.00,35.00,34.00,96.09,200.00,5.00,0.03,30.04,1018.20,9.00,M,FEW,BKN,OVC,M,900.00,3300.00,6000.00,M,M,M,M,M,M,M,M,29.96,KEKO 211856Z AUTO 20005KT 9SM FEW009 BKN033 OVC060 02/01 A3004 RMK AO2 RAB13E16SNB16E54 SLP182 P0003 T00170011,M
WMC,2024-02-21 18:56,-117.8072,40.9019,1315.00,45.00,33.00,62.58,290.00,8.00,0.00,30.06,1017.60,10.00,M,SCT,BKN,OVC,M,2600.00,3800.00,4500.00,M,M,M,M,M,M,M,M,40.13,KWMC 211856Z AUTO 29008KT 10SM SCT026 BKN038 OVC045 07/01 A3006 RMK AO2 SLP176 T00720006,M
NFL,2024-02-21 18:56,-118.7010,39.4166,1199.00,49.00,31.00,49.65,M,3.00,0.00,30.08,1015.50,10.00,M,SCT,SCT,BKN,M,5000.00,7000.00,10000.00,M,M,M,M,M,M,M,M,48.12,KNFL 211856Z VRB03KT 10SM SCT050 SCT070 BKN100 09/M01 A3008 RMK AO2 SLP155 T00941006,M
HND,2024-02-21 18:56,-115.1344,35.9729,742.79,56.00,46.00,69.05,30.00,4.00,0.00,30.09,1020.20,10.00,M,FEW,SCT,M,M,3400.00,5000.00,M,M,M,M,M,M,M,M,M,56.00,KHND 211856Z 03004KT 10SM FEW034 SCT050 13/08 A3009 RMK AO2 SLP202 T01330078,M
TPH,2024-02-21 18:56,-117.0904,38.0505,1654.00,46.00,30.00,53.37,340.00,9.00,0.00,30.07,1016.80,10.00,M,CLR,M,M,M,M,M,M,M,M,M,M,M,M,M,M,40.92,KTPH 211856Z AUTO 34009KT 10SM CLR 08/M01 A3007 RMK AO2 SLP168 T00781011,M
LAS,2024-02-21 18:56,-115.1634,36.0719,663.00,55.00,46.00,71.60,0.00,0.00,0.00,30.07,1018.00,10.00,M,SCT,SCT,M,M,2400.00,10000.00,M,M,M,M,M,M,M,M,M,55.00,KLAS 211856Z 00000KT 10SM SCT024 SCT100 13/08 A3007 RMK AO2 SLP180 T01280078,M
DRA,2024-02-21 19:02,-116.0278,36.6206,1009.00,53.00,40.00,61.19,260.00,6.00,0.00,30.07,M,10.00,M,SCT,BKN,OVC,M,2700.00,4100.00,5000.00,M,M,M,M,M,M,M,M,53.00,KDRA 211902Z AUTO 26006KT 10SM SCT027 BKN041 OVC050 12/04 A3007 RMK AO2 T01170044,M
BVU,2024-02-21 19:15,-114.8611,35.9475,671.00,55.40,46.40,71.64,60.00,5.00,0.00,30.06,M,10.00,M,FEW,BKN,BKN,M,2500.00,3100.00,4300.00,M,M,M,M,M,M,M,M,55.40,KBVU 211915Z AUTO 06005KT 10SM FEW025 BKN031 BKN043 13/08 A3006 RMK AO2,M
CXP,2024-02-21 19:15,-119.7326,39.1923,1431.00,48.20,28.40,46.02,200.00,7.00,0.00,30.10,M,10.00,13.00,SCT,BKN,BKN,M,4300.00,5000.00,5500.00,M,M,M,M,M,M,M,M,44.53,KCXP 211915Z AUTO 20007G13KT 10SM SCT043 BKN050 BKN055 09/M02 A3010 RMK AO2,M
RTS,2024-02-21 19:15,-119.8764,39.6682,1539.00,41.00,30.20,65.16,310.00,5.00,0.00,30.10,M,10.00,M,SCT,SCT,BKN,M,3300.00,4000.00,4800.00,M,M,M,M,M,M,M,M,37.08,KRTS 211915Z AUTO 31005KT 10SM SCT033 SCT040 BKN048 05/M01 A3010 RMK AO2,M
05U,2024-02-21 19:15,-116.0051,39.6042,1811.23,M,M,M,M,6.00,0.00,30.10,M,0.50,17.00,M,M,M,M,M,M,M,M,FZFG,M,M,M,M,M,M,M,K05U 211915Z AUTO VRB06G17KT 030V090 1/2SM FZFG A3010 RMK A01,M
MEV,2024-02-21 19:15,-119.7500,38.9963,1441.42,46.40,24.80,42.44,M,3.00,0.00,30.09,M,10.00,M,FEW,M,M,M,6000.00,M,M,M,M,M,M,M,M,M,M,45.15,KMEV 211915Z AUTO VRB03KT 10SM FEW060 08/M04 A3009 RMK AO2,M
BAM,2024-02-21 19:15,-116.8743,40.5990,1382.36,44.60,33.80,65.61,260.00,3.00,0.00,30.06,M,10.00,M,SCT,BKN,OVC,M,3000.00,5000.00,7000.00,M,M,M,M,M,M,M,M,43.09,KBAM 211915Z AUTO 26003KT 10SM SCT030 BKN050 OVC070 07/01 A3006 RMK AO1,M
HTH,2024-02-21 19:15,-118.6315,38.5448,1282.89,48.20,30.20,49.53,M,4.00,0.00,30.09,M,10.00,M,CLR,M,M,M,M,M,M,M,M,M,M,M,M,M,M,46.34,KHTH 211915Z AUTO VRB04KT 10SM CLR 09/M01 A3009 RMK A01,M
10U,2024-02-21 19:15,-116.1876,41.9532,1637.00,37.40,33.80,86.69,M,5.00,0.00,30.03,M,10.00,M,FEW,SCT,BKN,M,1000.00,1900.00,2800.00,M,M,M,M,M,M,M,M,32.81,K10U 211915Z AUTO VRB05KT 10SM FEW010 SCT019 BKN028 03/01 A3003 RMK AO2,M
TMT,2024-02-21 19:15,-117.1971,39.4643,1749.34,40.50,29.00,63.26,340.00,3.00,0.00,30.08,M,10.00,M,SCT,BKN,BKN,M,3500.00,4300.00,5000.00,M,M,M,M,M,M,M,M,38.41,KTMT 211915Z AUTO 34003KT 10SM SCT035 BKN043 BKN050 05/M02 A3008 RMK AO2 T00471016,M
EKO,2024-02-21 19:25,-115.7860,40.8242,1367.00,37.00,34.00,88.78,220.00,6.00,0.00,30.04,M,10.00,M,BKN,BKN,M,M,1400.00,7000.00,M,M,M,M,M,M,M,M,M,31.55,KEKO 211925Z AUTO 22006KT 10SM BKN014 BKN070 03/01 A3004 RMK AO2 T00280011,M
WMC,2024-02-21 19:30,-117.8072,40.9019,1315.00,40.00,33.00,75.84,M,4.00,0.01,30.07,M,2.50,24.00,SCT,BKN,OVC,M,2100.00,2800.00,4300.00,M,+RA,M,M,M,M,M,M,36.76,KWMC 211930Z AUTO VRB04G24KT 2 1/2SM +RA SCT021 BKN028 OVC043 04/01 A3007 RMK AO2 RAB14 P0001 T00440006,M
BVU,2024-02-21 19:35,-114.8611,35.9475,671.00,55.40,48.20,76.66,30.00,6.00,0.00,30.06,M,10.00,M,FEW,SCT,BKN,M,3100.00,4400.00,5000.00,M,M,M,M,M,M,M,M,55.40,KBVU 211935Z AUTO 03006KT 10SM FEW031 SCT044 BKN050 13/09 A3006 RMK AO2,M
CXP,2024-02-21 19:35,-119.7326,39.1923,1431.00,48.20,26.60,42.73,230.00,10.00,0.00,30.10,M,10.00,15.00,FEW,SCT,M,M,4700.00,6000.00,M,M,M,M,M,M,M,M,M,43.28,KCXP 211935Z AUTO 23010G15KT 190V260 10SM FEW047 SCT060 09/M03 A3010 RMK AO2,M
WMC,2024-02-21 19:35,-117.8072,40.9019,1315.00,39.00,32.00,75.75,320.00,6.00,0.04,30.07,M,1.25,M,BKN,BKN,OVC,M,1900.00,2800.00,3800.00,M,+RA,M,M,M,M,M,M,33.96,KWMC 211935Z AUTO 32006KT 1 1/4SM +RA BKN019 BKN028 OVC038 04/00 A3007 RMK AO2 RAB14 P0004 T00390000,M
RTS,2024-02-21 19:35,-119.8764,39.6682,1539.00,42.80,28.40,56.48,M,5.00,0.00,30.10,M,10.00,M,FEW,FEW,M,M,4200.00,5000.00,M,M,M,M,M,M,M,M,M,39.22,KRTS 211935Z AUTO VRB05KT 10SM FEW042 FEW050 06/M02 A3010 RMK AO2,M
05U,2024-02-21 19:35,-116.0051,39.6042,1811.23,35.60,32.00,86.59,30.00,5.00,0.00,30.09,M,10.00,M,M,M,M,M,M,M,M,M,M,M,M,M,M,M,M,30.67,K05U 211935Z AUTO 03005KT 10SM 02/00 A3009 RMK A01,M
MEV,2024-02-21 19:35,-119.7500,38.9963,1441.42,48.20,24.80,39.66,220.00,7.00,0.00,30.09,M,10.00,12.00,FEW,M,M,M,5000.00,M,M,M,M,M,M,M,M,M,M,44.53,KMEV 211935Z AUTO 22007G12KT 10SM FEW050 09/M04 A3009 RMK AO2,M
BAM,2024-02-21 19:35,-116.8743,40.5990,1382.36,44.60,33.80,65.61,220.00,3.00,0.00,30.06,M,10.00,M,SCT,BKN,BKN,M,5000.00,7000.00,8000.00,M,M,M,M,M,M,M,M,43.09,KBAM 211935Z AUTO 22003KT 10SM SCT050 BKN070 BKN080 07/01 A3006 RMK AO1,M
HTH,2024-02-21 19:35,-118.6315,38.5448,1282.89,50.00,30.20,46.31,310.00,5.00,0.00,30.09,M,10.00,M,CLR,M,M,M,M,M,M,M,M,M,M,M,M,M,M,50.00,KHTH 211935Z AUTO 31005KT 10SM CLR 10/M01 A3009 RMK A01,M
10U,2024-02-21 19:35,-116.1876,41.9532,1637.00,37.40,32.00,80.65,280.00,6.00,0.00,30.04,M,10.00,M,SCT,BKN,OVC,M,1900.00,2700.00,7000.00,M,-RA,M,M,M,M,M,M,32.03,K10U 211935Z AUTO 28006KT 10SM -RA SCT019 BKN027 OVC070 03/00 A3004 RMK AO2,M
TMT,2024-02-21 19:35,-117.1971,39.4643,1749.34,41.00,30.60,66.22,330.00,4.00,0.00,30.08,M,10.00,M,BKN,BKN,OVC,M,3500.00,4200.00,5000.00,M,M,M,M,M,M,M,M,37.93,KTMT 211935Z AUTO 33004KT 10SM BKN035 BKN042 OVC050 05/M01 A3008 RMK AO2 T00501008,M
EKO,2024-02-21 19:42,-115.7860,40.8242,1367.00,38.00,34.00,85.35,250.00,6.00,0.00,30.04,M,10.00,M,FEW,BKN,OVC,M,1100.00,1600.00,2500.00,M,M,M,M,M,M,M,M,32.76,KEKO 211942Z AUTO 25006KT 10SM FEW011 BKN016 OVC025 03/01 A3004 RMK AO2 T00330011,M
WMC,2024-02-21 19:45,-117.8072,40.9019,1315.00,37.00,32.00,81.93,60.00,5.00,0.16,30.06,M,2.00,M,SCT,OVC,M,M,1700.00,3000.00,M,M,-RA,M,M,M,M,M,M,32.33,KWMC 211945Z AUTO 06005KT 2SM -RA SCT017 OVC030 03/00 A3006 RMK AO2 RAB14 P0016 T00280000,M
P68,2024-02-21 19:53,-116.0056,39.6014,1993.00,39.00,32.00,75.75,240.00,7.00,0.01,30.05,1016.50,M,M,M,M,M,M,M,M,M,M,M,M,M,M,M,M,M,33.31,KP68 211953Z AUTO 24007KT 04/00 A3005 RMK AO1 SLP165 P0001 T00390000,M
DRA,2024-02-21 19:53,-116.0278,36.6206,1009.00,55.00,41.00,59.13,230.00,10.00,0.00,30.06,1016.10,10.00,M,FEW,M,M,M,2700.00,M,M,M,M,M,M,M,M,M,M,55.00,KDRA 211953Z AUTO 23010KT 10SM FEW027 13/05 A3006 RMK AO2 SLP161 T01280050,M
ELY,2024-02-21 19:53,-114.8453,39.2950,1909.00,40.00,31.00,69.97,50.00,3.00,0.00,30.04,1015.50,10.00,M,FEW,SCT,M,M,2100.00,2900.00,M,M,M,M,M,M,M,M,M,37.83,KELY 211953Z AUTO 05003KT 10SM FEW021 SCT029 04/M01 A3004 RMK AO2 SLP155 T00441006,M
VGT,2024-02-21 19:53,-115.1933,36.2111,667.00,59.00,43.00,55.28,200.00,5.00,0.00,30.05,1018.80,10.00,M,BKN,M,M,M,6000.00,M,M,M,M,M,M,M,M,M,M,59.00,KVGT 211953Z 20005KT 10SM BKN060 15/06 A3005 RMK AO2 SLP188 T01500061,M
WMC,2024-02-21 19:53,-117.8072,40.9019,1315.00,41.00,33.80,75.33,40.00,4.00,0.17,30.06,M,10.00,M,SCT,BKN,OVC,M,1500.00,3000.00,3900.00,M,-RA,M,M,M,M,M,M,37.93,KWMC 211953Z AUTO 04004KT 10SM -RA SCT015 BKN030 OVC039 05/01 A3006 RMK AO2 RAB14 P0017,M
LOL,2024-02-21 19:53,-118.5701,40.0684,1192.43,47.00,33.00,58.01,230.00,16.00,0.00,30.08,1018.60,10.00,M,FEW,OVC,M,M,4800.00,6500.00,M,M,M,M,M,M,M,M,M,39.97,KLOL 211953Z AUTO 23016KT 10SM FEW048 OVC065 08/01 A3008 RMK AO2 SLP186 T00830006,M
BVU,2024-02-21 19:55,-114.8611,35.9475,671.00,57.20,48.20,71.83,50.00,5.00,0.00,30.06,M,10.00,M,BKN,OVC,M,M,4700.00,6000.00,M,M,M,M,M,M,M,M,M,57.20,KBVU 211955Z AUTO 05005KT 10SM BKN047 OVC060 14/09 A3006 RMK AO2,M
CXP,2024-02-21 19:55,-119.7326,39.1923,1431.00,48.20,24.80,39.66,230.00,9.00,0.00,30.10,M,10.00,14.00,SCT,BKN,M,M,5000.00,6000.00,M,M,M,M,M,M,M,M,M,43.66,KCXP 211955Z AUTO 23009G14KT 10SM SCT050 BKN060 09/M04 A3010 RMK AO2,M
RNO,2024-02-21 19:55,-119.7711,39.4839,1341.00,49.00,29.00,45.77,0.00,0.00,0.00,30.09,1017.90,10.00,M,SCT,M,M,M,4500.00,M,M,M,M,M,M,M,M,M,M,49.00,KRNO 211955Z 00000KT 10SM SCT045 09/M02 A3009 RMK AO2 SLP179 T00941017,M
LSV,2024-02-21 19:55,-115.0343,36.2362,570.00,59.00,44.40,58.32,190.00,4.00,0.00,30.03,1016.30,10.00,M,CLR,M,M,M,M,M,M,M,M,M,M,M,M,M,M,59.00,KLSV 211955Z AUTO 19004KT 10SM CLR 15/07 A3003 RMK AO2 SLP163 T01510069 $,M
RTS,2024-02-21 19:55,-119.8764,39.6682,1539.00,42.80,26.60,52.45,240.00,4.00,0.00,30.10,M,10.00,10.00,SCT,SCT,M,M,4600.00,5500.00,M,M,M,M,M,M,M,M,M,40.03,KRTS 211955Z AUTO 24004G10KT 10SM SCT046 SCT055 06/M03 A3010 RMK AO2,M
05U,2024-02-21 19:55,-116.0051,39.6042,1811.23,39.20,32.00,75.16,40.00,6.00,0.01,30.08,M,10.00,M,M,M,M,M,M,M,M,M,M,M,M,M,M,M,M,34.20,K05U 211955Z AUTO 04006KT 10SM 04/00 A3008 RMK A01 P0001,M
MEV,2024-02-21 19:55,-119.7500,38.9963,1441.42,48.20,24.80,39.66,290.00,6.00,0.00,30.09,M,10.00,12.00,FEW,FEW,M,M,5000.00,6000.00,M,M,M,M,M,M,M,M,M,45.04,KMEV 211955Z AUTO 29006G12KT 10SM FEW050 FEW060 09/M04 A3009 RMK AO2,M
BAM,2024-02-21 19:55,-116.8743,40.5990,1382.36,44.60,32.00,61.03,250.00,10.00,0.00,30.06,M,10.00,M,SCT,BKN,OVC,M,5000.00,7000.00,8000.00,M,M,M,M,M,M,M,M,38.77,KBAM 211955Z AUTO 25010KT 10SM SCT050 BKN070 OVC080 07/00 A3006 RMK AO1,M
HTH,2024-02-21 19:55,-118.6315,38.5448,1282.89,50.00,30.20,46.31,320.00,5.00,0.00,30.09,M,10.00,M,CLR,M,M,M,M,M,M,M,M,M,M,M,M,M,M,50.00,KHTH 211955Z AUTO 32005KT 10SM CLR 10/M01 A3009 RMK A01,M
TMT,2024-02-21 19:55,-117.1971,39.4643,1749.34,41.40,26.20,54.45,260.00,5.00,0.00,30.08,M,10.00,M,SCT,BKN,OVC,M,4200.00,5000.00,7000.00,M,M,M,M,M,M,M,M,37.56,KTMT 211955Z AUTO 26005KT 10SM SCT042 BKN050 OVC070 05/M03 A3008 RMK AO2 T00521032,M
10U,2024-02-21 19:55,-116.1876,41.9532,1637.00,37.40,32.00,80.65,260.00,7.00,0.00,30.04,M,10.00,M,FEW,SCT,BKN,M,1300.00,1900.00,2600.00,M,UP,M,M,M,M,M,M,31.36,K10U 211955Z AUTO 26007KT 10SM UP FEW013 SCT019 BKN026 03/00 A3004 RMK AO2,M
INS,2024-02-21 19:55,-115.6733,36.5872,955.00,55.60,38.30,52.08,200.00,3.00,0.00,30.06,1016.30,10.00,M,FEW,M,M,M,3400.00,M,M,M,M,M,M,M,M,M,M,55.60,KINS 211955Z AUTO 20003KT 10SM FEW034 13/04 A3006 RMK AO2 SLP163 T01310035,M
EKO,2024-02-21 19:56,-115.7860,40.8242,1367.00,39.00,34.00,82.08,250.00,4.00,0.00,30.04,1017.70,10.00,M,SCT,BKN,OVC,M,1500.00,2000.00,2600.00,M,M,M,M,M,M,M,M,35.59,KEKO 211956Z AUTO 25004KT 10SM SCT015 BKN020 OVC026 04/01 A3004 RMK AO2 SLP177 T00390011,M
WMC,2024-02-21 19:56,-117.8072,40.9019,1315.00,42.00,35.00,76.03,M,5.00,0.17,30.07,1018.00,10.00,M,SCT,BKN,OVC,M,1500.00,3000.00,3900.00,M,-RA,M,M,M,M,M,M,38.27,KWMC 211956Z AUTO VRB05KT 10SM -RA SCT015 BKN030 OVC039 06/02 A3007 RMK AO2 RAB14 SLP180 P0017 T00560017,M
NFL,2024-02-21 19:56,-118.7010,39.4166,1199.00,51.00,28.00,40.78,320.00,5.00,0.00,30.08,1015.30,10.00,M,SCT,BKN,BKN,M,4500.00,6500.00,12000.00,M,M,M,M,M,M,M,M,51.00,KNFL 211956Z 32005KT 10SM SCT045 BKN065 BKN120 11/M02 A3008 RMK AO2 SLP153 T01061022,M
HND,2024-02-21 19:56,-115.1344,35.9729,742.79,57.00,46.00,66.59,0.00,0.00,0.00,30.07,1019.80,10.00,M,CLR,M,M,M,M,M,M,M,M,M,M,M,M,M,M,57.00,KHND 211956Z 00000KT 10SM CLR 14/08 A3007 RMK AO2 SLP198 T01390078,M
TPH,2024-02-21 19:56,-117.0904,38.0505,1654.00,47.00,28.00,47.36,300.00,11.00,0.00,30.07,1016.80,10.00,M,CLR,M,M,M,M,M,M,M,M,M,M,M,M,M,M,41.42,KTPH 211956Z AUTO 30011KT 10SM CLR 08/M02 A3007 RMK AO2 SLP168 T00831022,M
LAS,2024-02-21 19:56,-115.1634,36.0719,663.00,59.00,46.00,61.98,40.00,5.00,0.00,30.06,1017.30,10.00,M,SCT,SCT,M,M,3100.00,10000.00,M,M,M,M,M,M,M,M,M,59.00,KLAS 211956Z 04005KT 10SM SCT031 SCT100 15/08 A3006 RMK AO2 SLP173 T01500078,M
ELY,2024-02-21 20:01,-114.8453,39.2950,1909.00,38.00,30.00,72.64,60.00,4.00,0.00,30.04,M,10.00,M,FEW,BKN,M,M,2100.00,2900.00,M,M,M,M,M,M,M,M,M,34.43,KELY 212001Z AUTO 06004KT 10SM FEW021 BKN029 03/M01 A3004 RMK AO2 T00331011,M
05U,2024-02-21 20:10,-116.0051,39.6042,1811.23,41.00,30.20,65.16,0.00,0.00,0.00,30.07,M,10.00,M,M,M,M,M,M,M,M,M,M,M,M,M,M,M,M,41.00,K05U 212010Z AUTO 00000KT 10SM 05/M01 A3007 RMK A01,M
ELY,2024-02-21 20:14,-114.8453,39.2950,1909.00,37.00,30.00,75.56,0.00,0.00,0.00,30.04,M,10.00,M,FEW,FEW,BKN,M,2000.00,2600.00,4900.00,M,M,M,M,M,M,M,M,37.00,KELY 212014Z AUTO 00000KT 10SM FEW020 FEW026 BKN049 03/M01 A3004 RMK AO2 T00281011,M
BVU,2024-02-21 20:15,-114.8611,35.9475,671.00,57.20,48.20,71.83,0.00,0.00,0.00,30.05,M,10.00,M,SCT,SCT,M,M,4600.00,6000.00,M,M,M,M,M,M,M,M,M,57.20,KBVU 212015Z AUTO 00000KT 10SM SCT046 SCT060 14/09 A3005 RMK AO2,M
CXP,2024-02-21 20:15,-119.7326,39.1923,1431.00,50.00,24.80,37.08,M,6.00,0.00,30.11,M,10.00,16.00,BKN,M,M,M,5000.00,M,M,M,M,M,M,M,M,M,M,50.00,KCXP 212015Z AUTO VRB06G16KT 10SM BKN050 10/M04 A3011 RMK AO2,M
RTS,2024-02-21 20:15,-119.8764,39.6682,1539.00,44.60,28.40,52.72,320.00,6.00,0.00,30.10,M,10.00,M,FEW,SCT,SCT,M,3700.00,4600.00,5500.00,M,M,M,M,M,M,M,M,40.71,KRTS 212015Z AUTO 32006KT 10SM FEW037 SCT046 SCT055 07/M02 A3010 RMK AO2,M
MEV,2024-02-21 20:15,-119.7500,38.9963,1441.42,48.20,24.80,39.66,280.00,10.00,0.00,30.09,M,10.00,M,SCT,M,M,M,5500.00,M,M,M,M,M,M,M,M,M,M,43.28,KMEV 212015Z AUTO 28010KT 10SM SCT055 09/M04 A3009 RMK AO2,M
BAM,2024-02-21 20:15,-116.8743,40.5990,1382.36,44.60,33.80,65.61,240.00,9.00,0.00,30.07,M,10.00,M,SCT,BKN,OVC,M,4600.00,6000.00,7500.00,M,M,M,M,M,M,M,M,39.18,KBAM 212015Z AUTO 24009KT 10SM SCT046 BKN060 OVC075 07/01 A3007 RMK AO1,M
HTH,2024-02-21 20:15,-118.6315,38.5448,1282.89,50.00,26.60,39.95,330.00,6.00,0.00,30.08,M,10.00,M,CLR,M,M,M,M,M,M,M,M,M,M,M,M,M,M,50.00,KHTH 212015Z AUTO 33006KT 10SM CLR 10/M03 A3008 RMK A01,M
10U,2024-02-21 20:15,-116.1876,41.9532,1637.00,37.40,32.00,80.65,M,6.00,0.00,30.04,M,10.00,11.00,SCT,SCT,BKN,M,1600.00,2800.00,4100.00,M,-DZ,M,M,M,M,M,M,32.03,K10U 212015Z AUTO VRB06G11KT 10SM -DZ SCT016 SCT028 BKN041 03/00 A3004 RMK AO2,M
TMT,2024-02-21 20:15,-117.1971,39.4643,1749.34,40.00,28.00,61.91,190.00,6.00,0.00,30.08,M,10.00,M,SCT,SCT,M,M,4400.00,5500.00,M,M,M,M,M,M,M,M,M,35.17,KTMT 212015Z AUTO 19006KT 10SM SCT044 SCT055 05/M02 A3008 RMK AO2 T00451022,M
BVU,2024-02-21 20:35,-114.8611,35.9475,671.00,57.20,46.40,67.12,0.00,0.00,0.00,30.05,M,10.00,M,FEW,M,M,M,2500.00,M,M,M,M,M,M,M,M,M,M,57.20,KBVU 212035Z AUTO 00000KT 10SM FEW025 14/08 A3005 RMK AO2,M
CXP,2024-02-21 20:35,-119.7326,39.1923,1431.00,48.20,23.00,36.78,270.00,8.00,0.00,30.10,M,10.00,M,FEW,M,M,M,5500.00,M,M,M,M,M,M,M,M,M,M,44.07,KCXP 212035Z AUTO 27008KT 10SM FEW055 09/M05 A3010 RMK AO2,M
RTS,2024-02-21 20:35,-119.8764,39.6682,1539.00,44.60,26.60,48.96,280.00,7.00,0.00,30.10,M,10.00,M,BKN,BKN,M,M,4200.00,4900.00,M,M,M,M,M,M,M,M,M,40.14,KRTS 212035Z AUTO 28007KT 240V300 10SM BKN042 BKN049 07/M03 A3010 RMK AO2,M
05U,2024-02-21 20:35,-116.0051,39.6042,1811.23,39.20,30.20,69.88,0.00,0.00,0.00,30.07,M,9.00,M,M,M,M,M,M,M,M,M,M,M,M,M,M,M,M,39.20,K05U 212035Z AUTO 00000KT 9SM 04/M01 A3007 RMK A01,M
MEV,2024-02-21 20:35,-119.7500,38.9963,1441.42,50.00,24.80,37.08,230.00,11.00,0.00,30.09,M,10.00,17.00,FEW,FEW,M,M,5500.00,7000.00,M,M,M,M,M,M,M,M,M,50.00,KMEV 212035Z AUTO 23011G17KT 10SM FEW055 FEW070 10/M04 A3009 RMK AO2,M
BAM,2024-02-21 20:35,-116.8743,40.5990,1382.36,44.60,33.80,65.61,230.00,9.00,0.00,30.07,M,10.00,M,BKN,BKN,OVC,M,4600.00,5000.00,7000.00,M,M,M,M,M,M,M,M,39.18,KBAM 212035Z AUTO 23009KT 10SM BKN046 BKN050 OVC070 07/01 A3007 RMK AO1,M
HTH,2024-02-21 20:35,-118.6315,38.5448,1282.89,51.80,26.60,37.38,M,4.00,0.00,30.08,M,10.00,11.00,CLR,M,M,M,M,M,M,M,M,M,M,M,M,M,M,51.80,KHTH 212035Z AUTO VRB04G11KT 10SM CLR 11/M03 A3008 RMK A01,M
10U,2024-02-21 20:35,-116.1876,41.9532,1637.00,37.40,32.00,80.65,270.00,7.00,0.00,30.04,M,10.00,M,SCT,BKN,OVC,M,1700.00,3000.00,4300.00,M,M,M,M,M,M,M,M,31.36,K10U 212035Z AUTO 27007KT 10SM SCT017 BKN030 OVC043 03/00 A3004 RMK AO2,M
TMT,2024-02-21 20:35,-117.1971,39.4643,1749.34,42.60,27.00,53.73,240.00,5.00,0.00,30.07,M,10.00,M,CLR,M,M,M,M,M,M,M,M,M,M,M,M,M,M,38.98,KTMT 212035Z AUTO 24005KT 10SM CLR 06/M03 A3007 RMK AO2 T00591028,M
EKO,2024-02-21 20:39,-115.7860,40.8242,1367.00,41.00,33.00,72.96,320.00,5.00,0.00,30.04,M,10.00,M,SCT,BKN,OVC,M,2200.00,3100.00,3800.00,M,M,M,M,M,M,M,M,37.08,KEKO 212039Z AUTO 32005KT 10SM SCT022 BKN031 OVC038 05/01 A3004 RMK AO2 T00500006,M
P68,2024-02-21 20:53,-116.0056,39.6014,1993.00,39.00,30.00,69.85,240.00,5.00,0.01,30.05,1016.40,M,M,M,M,M,M,M,M,M,M,M,M,M,M,M,M,M,34.71,KP68 212053Z AUTO 24005KT 04/M01 A3005 RMK AO1 SLP164 P0001 60002 T00391011 50000,M
DRA,2024-02-21 20:53,-116.0278,36.6206,1009.00,58.00,39.00,49.08,230.00,11.00,0.00,30.05,1015.80,10.00,M,FEW,M,M,M,3400.00,M,M,M,M,M,M,M,M,M,M,58.00,KDRA 212053Z AUTO 23011KT 10SM FEW034 14/04 A3005 RMK AO2 SLP158 T01440039 58004,M
ELY,2024-02-21 20:53,-114.8453,39.2950,1909.00,39.00,31.00,72.75,0.00,0.00,0.00,30.04,1015.60,10.00,M,BKN,M,M,M,6000.00,M,M,M,M,M,M,M,M,M,M,39.00,KELY 212053Z AUTO 00000KT 10SM BKN060 04/M01 A3004 RMK AO2 SLP156 T00391006 53002,M
VGT,2024-02-21 20:53,-115.1933,36.2111,667.00,61.00,42.00,49.54,M,4.00,0.00,30.04,1018.60,10.00,M,FEW,M,M,M,6500.00,M,M,M,M,M,M,M,M,M,M,61.00,KVGT 212053Z VRB04KT 10SM FEW065 16/06 A3004 RMK AO2 SLP186 T01610056 58003,M
LOL,2024-02-21 20:53,-118.5701,40.0684,1192.43,49.00,32.00,51.70,230.00,10.00,0.00,30.07,1018.30,10.00,M,BKN,M,M,M,7000.00,M,M,M,M,M,M,M,M,M,M,44.29,KLOL 212053Z AUTO 23010KT 10SM BKN070 09/00 A3007 RMK AO2 SLP183 T00940000 58002,M
EKO,2024-02-21 20:54,-115.7860,40.8242,1367.00,42.80,33.80,70.28,340.00,6.03,M,30.04,M,10.00,M,FEW,BKN,BKN,M,2201.00,2900.00,3799.00,M,M,M,M,M,M,M,M,38.52,SPECI KEKO 212054Z 34006KT 10SM FEW022 BKN029 BKN038 06/01 A3004 RMK AO2 FIBI,M
BVU,2024-02-21 20:55,-114.8611,35.9475,671.00,59.00,44.60,58.77,0.00,0.00,0.00,30.04,M,10.00,M,FEW,M,M,M,6000.00,M,M,M,M,M,M,M,M,M,M,59.00,KBVU 212055Z AUTO 00000KT 10SM FEW060 15/07 A3004 RMK AO2,M
CXP,2024-02-21 20:55,-119.7326,39.1923,1431.00,50.00,23.00,34.39,M,6.00,0.00,30.11,M,10.00,13.00,CLR,M,M,M,M,M,M,M,M,M,M,M,M,M,M,50.00,KCXP 212055Z AUTO VRB06G13KT 10SM CLR 10/M05 A3011 RMK AO2,M
RNO,2024-02-21 20:55,-119.7711,39.4839,1341.00,49.00,26.00,40.45,M,4.00,0.00,30.08,1017.70,10.00,M,SCT,M,M,M,6000.00,M,M,M,M,M,M,M,M,M,M,47.27,KRNO 212055Z VRB04KT 10SM SCT060 09/M03 A3008 RMK AO2 SLP177 T00941033 58002,M
LSV,2024-02-21 20:55,-115.0343,36.2362,570.00,60.80,42.60,51.06,230.00,4.00,0.00,30.02,1016.00,10.00,M,BKN,M,M,M,7000.00,M,M,M,M,M,M,M,M,M,M,60.80,KLSV 212055Z AUTO 23004KT 10SM BKN070 16/06 A3002 RMK AO2 SLP160 T01600059 58003 $,M
RTS,2024-02-21 20:55,-119.8764,39.6682,1539.00,46.40,24.80,42.44,270.00,9.00,0.00,30.10,M,10.00,M,BKN,BKN,M,M,4500.00,5500.00,M,M,M,M,M,M,M,M,M,41.42,KRTS 212055Z AUTO 27009KT 10SM BKN045 BKN055 08/M04 A3010 RMK AO2,M
05U,2024-02-21 20:55,-116.0051,39.6042,1811.23,39.20,30.20,69.88,80.00,4.00,0.00,30.07,M,10.00,M,M,M,M,M,M,M,M,M,M,M,M,M,M,M,M,35.83,K05U 212055Z AUTO 08004KT 10SM 04/M01 A3007 RMK A01,M
MEV,2024-02-21 20:55,-119.7500,38.9963,1441.42,50.00,24.80,37.08,260.00,14.00,0.00,30.09,M,10.00,M,CLR,M,M,M,M,M,M,M,M,M,M,M,M,M,M,50.00,KMEV 212055Z AUTO 26014KT 10SM CLR 10/M04 A3009 RMK AO2,M
BAM,2024-02-21 20:55,-116.8743,40.5990,1382.36,44.60,33.80,65.61,240.00,7.00,0.00,30.07,M,10.00,M,SCT,SCT,BKN,M,4400.00,5000.00,6500.00,M,M,M,M,M,M,M,M,40.14,KBAM 212055Z AUTO 24007KT 10SM SCT044 SCT050 BKN065 07/01 A3007 RMK AO1,M
HTH,2024-02-21 20:55,-118.6315,38.5448,1282.89,51.80,24.80,34.69,40.00,5.00,0.00,30.08,M,10.00,M,CLR,M,M,M,M,M,M,M,M,M,M,M,M,M,M,51.80,KHTH 212055Z AUTO 04005KT 10SM CLR 11/M04 A3008 RMK A01,M
10U,2024-02-21 20:55,-116.1876,41.9532,1637.00,39.20,32.00,75.16,290.00,6.00,0.00,30.04,M,10.00,M,BKN,BKN,OVC,M,1800.00,3000.00,3800.00,M,M,M,M,M,M,M,M,34.20,K10U 212055Z AUTO 29006KT 10SM BKN018 BKN030 OVC038 04/00 A3004 RMK AO2,M
TMT,2024-02-21 20:55,-117.1971,39.4643,1749.34,42.00,26.00,52.76,290.00,8.00,0.00,30.08,M,10.00,M,SCT,BKN,M,M,5000.00,7000.00,M,M,M,M,M,M,M,M,M,36.43,KTMT 212055Z AUTO 29008KT 10SM SCT050 BKN070 06/M03 A3008 RMK AO2 60004 T00551034,M
INS,2024-02-21 20:55,-115.6733,36.5872,955.00,58.50,35.00,41.18,200.00,4.00,0.00,30.04,1015.50,10.00,M,SCT,BKN,M,M,4500.00,7000.00,M,M,M,M,M,M,M,M,M,58.50,KINS 212055Z AUTO 20004KT 10SM SCT045 BKN070 15/02 A3004 RMK AO2 SLP155 T01470016 58006,M
EKO,2024-02-21 20:56,-115.7860,40.8242,1367.00,42.00,33.00,70.19,340.00,4.00,0.00,30.04,1017.60,10.00,M,FEW,BKN,BKN,M,2500.00,3100.00,3800.00,M,M,M,M,M,M,M,M,39.10,KEKO 212056Z AUTO 34004KT 10SM FEW025 BKN031 BKN038 06/01 A3004 RMK AO2 SLP176 60003 T00560006 55000,M
WMC,2024-02-21 20:56,-117.8072,40.9019,1315.00,46.00,34.00,62.71,280.00,4.00,T,30.06,1017.50,10.00,M,FEW,FEW,M,M,7000.00,8500.00,M,M,M,M,M,M,M,M,M,43.77,KWMC 212056Z AUTO 28004KT 10SM FEW070 FEW085 08/01 A3006 RMK AO2 RAE18 SLP175 P0000 60017 T00780011 50000,M
NFL,2024-02-21 20:56,-118.7010,39.4166,1199.00,51.00,27.00,39.14,320.00,7.00,0.00,30.07,1015.10,10.00,M,SCT,BKN,BKN,M,5000.00,6500.00,12000.00,M,M,M,M,M,M,M,M,51.00,KNFL 212056Z 32007KT 10SM SCT050 BKN065 BKN120 11/M03 A3007 RMK AO2 SLP151 T01061028 58002,M
HND,2024-02-21 20:56,-115.1344,35.9729,742.79,60.00,44.00,55.42,0.00,0.00,0.00,30.07,1019.50,10.00,M,FEW,M,M,M,5500.00,M,M,M,M,M,M,M,M,M,M,60.00,KHND 212056Z 00000KT 10SM FEW055 16/07 A3007 RMK AO2 SLP195 T01560067 58006,M
TPH,2024-02-21 20:56,-117.0904,38.0505,1654.00,49.00,29.00,45.77,320.00,10.00,0.00,30.07,1016.70,10.00,16.00,BKN,OVC,M,M,4800.00,7000.00,M,M,M,M,M,M,M,M,M,44.29,KTPH 212056Z AUTO 32010G16KT 10SM BKN048 OVC070 09/M02 A3007 RMK AO2 SLP167 T00941017 51004,M
LAS,2024-02-21 20:56,-115.1634,36.0719,663.00,58.00,44.00,59.54,0.00,0.00,0.00,30.05,1017.00,10.00,M,FEW,SCT,BKN,M,3900.00,6000.00,25000.00,M,M,M,M,M,M,M,M,58.00,KLAS 212056Z 00000KT 10SM FEW039 SCT060 BKN250 14/07 A3005 RMK AO2 SLP170 T01440067 58007,M
EKO,2024-02-21 21:07,-115.7860,40.8242,1367.00,42.00,32.00,67.42,300.00,6.00,0.00,30.04,M,10.00,M,BKN,OVC,M,M,2800.00,3600.00,M,M,M,M,M,M,M,M,M,37.57,KEKO 212107Z AUTO 30006KT 10SM BKN028 OVC036 06/00 A3004 RMK AO2 T00560000,M
BVU,2024-02-21 21:15,-114.8611,35.9475,671.00,59.00,44.60,58.77,150.00,4.00,0.00,30.04,M,10.00,M,CLR,M,M,M,M,M,M,M,M,M,M,M,M,M,M,59.00,KBVU 212115Z AUTO 15004KT 10SM CLR 15/07 A3004 RMK AO2,M
CXP,2024-02-21 21:15,-119.7326,39.1923,1431.00,50.00,24.80,37.08,220.00,10.00,0.00,30.11,M,10.00,18.00,FEW,M,M,M,6000.00,M,M,M,M,M,M,M,M,M,M,50.00,KCXP 212115Z AUTO 22010G18KT 10SM FEW060 10/M04 A3011 RMK AO2,M
RTS,2024-02-21 21:15,-119.8764,39.6682,1539.00,44.60,23.00,42.14,280.00,12.00,0.00,30.10,M,10.00,M,OVC,M,M,M,5000.00,M,M,M,M,M,M,M,M,M,M,38.04,KRTS 212115Z AUTO 28012KT 10SM OVC050 07/M05 A3010 RMK AO2,M
05U,2024-02-21 21:15,-116.0051,39.6042,1811.23,39.20,32.00,75.16,80.00,13.00,0.00,30.08,M,8.00,M,M,M,M,M,M,M,M,M,M,M,M,M,M,M,M,30.79,K05U 212115Z AUTO 08013KT 8SM 04/M00 A3008 RMK A01,M
MEV,2024-02-21 21:15,-119.7500,38.9963,1441.42,50.00,23.00,34.39,260.00,14.00,0.00,30.09,M,10.00,M,CLR,M,M,M,M,M,M,M,M,M,M,M,M,M,M,50.00,KMEV 212115Z AUTO 26014KT 10SM CLR 10/M05 A3009 RMK AO2,M
BAM,2024-02-21 21:15,-116.8743,40.5990,1382.36,44.60,33.80,65.61,190.00,11.00,0.00,30.07,M,10.00,14.00,OVC,M,M,M,6500.00,M,M,M,M,M,M,M,M,M,M,38.39,KBAM 212115Z AUTO 19011G14KT 10SM OVC065 07/01 A3007 RMK AO1,M
HTH,2024-02-21 21:15,-118.6315,38.5448,1282.89,51.80,24.80,34.69,310.00,6.00,0.00,30.08,M,10.00,M,CLR,M,M,M,M,M,M,M,M,M,M,M,M,M,M,51.80,KHTH 212115Z AUTO 31006KT 10SM CLR 11/M04 A3008 RMK A01,M
10U,2024-02-21 21:15,-116.1876,41.9532,1637.00,37.40,32.00,80.65,280.00,9.00,0.00,30.04,M,9.00,M,BKN,OVC,M,M,1700.00,2100.00,M,M,-RA,M,M,M,M,M,M,30.23,K10U 212115Z AUTO 28009KT 9SM -RA BKN017 OVC021 03/00 A3004 RMK AO2,M
TMT,2024-02-21 21:15,-117.1971,39.4643,1749.34,41.00,27.50,58.34,320.00,6.00,0.00,30.08,M,10.00,M,SCT,BKN,OVC,M,3800.00,5000.00,7000.00,M,M,M,M,M,M,M,M,36.37,KTMT 212115Z AUTO 32006KT 10SM SCT038 BKN050 OVC070 05/M02 A3008 RMK AO2 T00511025,M
LOL,2024-02-21 21:18,-118.5701,40.0684,1192.43,50.00,31.00,47.83,290.00,13.00,0.00,30.07,M,10.00,M,BKN,BKN,M,M,7000.00,8500.00,M,M,M,M,M,M,M,M,M,50.00,KLOL 212118Z AUTO 29013KT 10SM BKN070 BKN085 10/M01 A3007 RMK AO2 WSHFT 2058 T01001006,M
EKO,2024-02-21 21:20,-115.7860,40.8242,1367.00,41.00,32.00,70.08,290.00,5.00,0.00,30.04,M,10.00,M,SCT,BKN,BKN,M,3000.00,3700.00,6000.00,M,M,M,M,M,M,M,M,37.08,KEKO 212120Z AUTO 29005KT 10SM SCT030 BKN037 BKN060 05/00 A3004 RMK AO2 T00500000,M
BVU,2024-02-21 21:35,-114.8611,35.9475,671.00,60.80,44.60,55.12,190.00,5.00,0.00,30.04,M,10.00,M,FEW,SCT,SCT,M,3900.00,4700.00,6000.00,M,M,M,M,M,M,M,M,60.80,KBVU 212135Z AUTO 19005KT 10SM FEW039 SCT047 SCT060 16/07 A3004 RMK AO2,M
CXP,2024-02-21 21:35,-119.7326,39.1923,1431.00,48.20,21.20,34.09,250.00,9.00,0.00,30.12,M,10.00,16.00,FEW,M,M,M,5500.00,M,M,M,M,M,M,M,M,M,M,43.66,KCXP 212135Z AUTO 25009G16KT 10SM FEW055 09/M06 A3012 RMK AO2,M
RTS,2024-02-21 21:35,-119.8764,39.6682,1539.00,44.60,23.00,42.14,280.00,10.00,0.00,30.10,M,10.00,16.00,SCT,SCT,M,M,5000.00,6000.00,M,M,M,M,M,M,M,M,M,38.77,KRTS 212135Z AUTO 28010G16KT 10SM SCT050 SCT060 07/M05 A3010 RMK AO2,M
05U,2024-02-21 21:35,-116.0051,39.6042,1811.23,39.20,32.00,75.16,100.00,3.00,0.00,30.08,M,10.00,M,M,M,M,M,M,M,M,M,M,M,M,M,M,M,M,36.92,K05U 212135Z AUTO 10003KT 10SM 04/M00 A3008 RMK A01,M
MEV,2024-02-21 21:35,-119.7500,38.9963,1441.42,50.00,23.00,34.39,280.00,14.00,0.00,30.10,M,10.00,M,CLR,M,M,M,M,M,M,M,M,M,M,M,M,M,M,50.00,KMEV 212135Z AUTO 28014KT 10SM CLR 10/M05 A3010 RMK AO2,M
BAM,2024-02-21 21:35,-116.8743,40.5990,1382.36,44.60,35.60,70.48,220.00,15.00,0.00,30.06,M,10.00,18.00,SCT,SCT,SCT,M,6500.00,9500.00,12000.00,M,M,M,M,M,M,M,M,37.11,KBAM 212135Z AUTO 22015G18KT 10SM SCT065 SCT095 SCT120 07/02 A3006 RMK AO1,M
HTH,2024-02-21 21:35,-118.6315,38.5448,1282.89,51.80,23.00,32.17,330.00,7.00,0.00,30.08,M,10.00,12.00,BKN,M,M,M,8500.00,M,M,M,M,M,M,M,M,M,M,51.80,KHTH 212135Z AUTO 33007G12KT 300V360 10SM BKN085 11/M05 A3008 RMK A01,M
10U,2024-02-21 21:35,-116.1876,41.9532,1637.00,37.40,32.00,80.65,300.00,9.00,0.00,30.05,M,10.00,M,FEW,SCT,BKN,M,1600.00,2100.00,3200.00,M,M,M,M,M,M,M,M,30.23,K10U 212135Z AUTO 30009KT 10SM FEW016 SCT021 BKN032 03/M00 A3005 RMK AO2,M
TMT,2024-02-21 21:35,-117.1971,39.4643,1749.34,41.70,27.30,56.32,300.00,6.00,0.00,30.08,M,10.00,M,SCT,OVC,M,M,3900.00,6000.00,M,M,M,M,M,M,M,M,M,37.21,KTMT 212135Z AUTO 30006KT 10SM SCT039 OVC060 05/M03 A3008 RMK AO2 T00541026,M
P68,2024-02-21 21:53,-116.0056,39.6014,1993.00,40.00,28.00,61.91,M,M,0.00,30.05,1016.40,M,M,M,M,M,M,M,M,M,M,M,M,M,M,M,M,M,M,KP68 212153Z AUTO 04/M02 A3005 RMK AO1 SLP164 T00441022,M
DRA,2024-02-21 21:53,-116.0278,36.6206,1009.00,58.00,38.00,47.20,210.00,11.00,0.00,30.04,1015.60,10.00,18.00,CLR,M,M,M,M,M,M,M,M,M,M,M,M,M,M,58.00,KDRA 212153Z AUTO 21011G18KT 10SM CLR 14/03 A3004 RMK AO2 SLP156 T01440033,M
ELY,2024-02-21 21:53,-114.8453,39.2950,1909.00,39.00,27.00,61.78,310.00,4.00,0.00,30.05,1015.70,10.00,M,SCT,BKN,BKN,M,3400.00,4600.00,8000.00,M,M,M,M,M,M,M,M,35.59,KELY 212153Z AUTO 31004KT 10SM SCT034 BKN046 BKN080 04/M03 A3005 RMK AO2 SLP157 T00391028,M
VGT,2024-02-21 21:53,-115.1933,36.2111,667.00,63.00,41.00,44.41,M,M,0.00,30.03,1018.20,10.00,M,BKN,M,M,M,8000.00,M,M,M,M,M,M,M,M,M,M,63.00,KVGT 212153Z 10SM BKN080 17/05 A3003 RMK AO2 SLP182 T01720050,M
LOL,2024-02-21 21:53,-118.5701,40.0684,1192.43,48.00,30.00,49.49,300.00,10.00,0.00,30.08,1018.60,10.00,M,CLR,M,M,M,M,M,M,M,M,M,M,M,M,M,M,43.03,KLOL 212153Z AUTO 30010KT 10SM CLR 09/M01 A3008 RMK AO2 WSHFT 2058 SLP186 T00891011,M
BVU,2024-02-21 21:55,-114.8611,35.9475,671.00,60.80,44.60,55.12,190.00,6.00,0.00,30.03,M,10.00,M,FEW,FEW,FEW,M,3900.00,4700.00,6000.00,M,M,M,M,M,M,M,M,60.80,KBVU 212155Z AUTO 19006KT 10SM FEW039 FEW047 FEW060 16/07 A3003 RMK AO2,M
CXP,2024-02-21 21:55,-119.7326,39.1923,1431.00,48.20,21.20,34.09,250.00,11.00,0.00,30.12,M,10.00,16.00,CLR,M,M,M,M,M,M,M,M,M,M,M,M,M,M,42.94,KCXP 212155Z AUTO 25011G16KT 10SM CLR 09/M06 A3012 RMK AO2,M
RNO,2024-02-21 21:55,-119.7711,39.4839,1341.00,52.00,21.00,29.35,270.00,15.00,0.00,30.08,1017.50,10.00,22.00,SCT,M,M,M,6500.00,M,M,M,M,M,M,M,M,M,M,52.00,KRNO 212155Z 27015G22KT 10SM SCT065 11/M06 A3008 RMK AO2 SLP175 T01111061,M
LSV,2024-02-21 21:55,-115.0343,36.2362,570.00,62.20,42.80,48.96,180.00,3.00,0.00,30.01,1015.60,10.00,M,CLR,M,M,M,M,M,M,M,M,M,M,M,M,M,M,62.20,KLSV 212155Z AUTO 18003KT 10SM CLR 17/06 A3001 RMK AO2 SLP156 T01680060 $,M
RTS,2024-02-21 21:55,-119.8764,39.6682,1539.00,42.80,19.40,38.75,270.00,10.00,0.00,30.11,M,10.00,16.00,SCT,BKN,M,M,5000.00,5500.00,M,M,M,M,M,M,M,M,M,36.51,KRTS 212155Z AUTO 27010G16KT 10SM SCT050 BKN055 06/M07 A3011 RMK AO2,M
05U,2024-02-21 21:55,-116.0051,39.6042,1811.23,41.00,28.40,60.54,0.00,0.00,0.00,30.08,M,10.00,M,M,M,M,M,M,M,M,M,M,M,M,M,M,M,M,41.00,K05U 212155Z AUTO 00000KT 10SM 05/M02 A3008 RMK A01,M
MEV,2024-02-21 21:55,-119.7500,38.9963,1441.42,48.20,24.80,39.66,270.00,16.00,0.00,30.10,M,10.00,M,CLR,M,M,M,M,M,M,M,M,M,M,M,M,M,M,41.53,KMEV 212155Z AUTO 27016KT 10SM CLR 09/M04 A3010 RMK AO2,M
BAM,2024-02-21 21:55,-116.8743,40.5990,1382.36,42.80,35.60,75.50,230.00,11.00,0.00,30.08,M,10.00,18.00,SCT,SCT,BKN,M,1400.00,3100.00,6000.00,M,M,M,M,M,M,M,M,36.11,KBAM 212155Z AUTO 23011G18KT 10SM SCT014 SCT031 BKN060 06/02 A3008 RMK AO1,M
HTH,2024-02-21 21:55,-118.6315,38.5448,1282.89,51.80,21.20,29.82,330.00,6.00,0.00,30.08,M,10.00,11.00,BKN,M,M,M,8500.00,M,M,M,M,M,M,M,M,M,M,51.80,KHTH 212155Z AUTO 33006G11KT 10SM BKN085 11/M06 A3008 RMK A01,M
TMT,2024-02-21 21:55,-117.1971,39.4643,1749.34,42.80,27.30,53.99,290.00,11.00,0.00,30.08,M,10.00,M,BKN,BKN,OVC,M,4800.00,6000.00,7000.00,M,M,M,M,M,M,M,M,36.11,KTMT 212155Z AUTO 29011KT 10SM BKN048 BKN060 OVC070 06/M03 A3008 RMK AO2 T00601026,M
INS,2024-02-21 21:55,-115.6733,36.5872,955.00,59.00,33.60,38.25,340.00,3.00,0.00,30.03,1015.10,M,M,SCT,M,M,M,5000.00,M,M,M,M,M,M,M,M,M,M,59.00,KINS 212155Z COR 34003KT SCT050 15/01 A3003 RMK AO2 SLP151 T01510009 RVRNO $ COR 2223,M
10U,2024-02-21 21:55,-116.1876,41.9532,1637.00,39.20,32.00,75.16,270.00,7.00,0.00,30.05,M,10.00,M,SCT,BKN,OVC,M,1700.00,2800.00,4800.00,M,M,M,M,M,M,M,M,33.56,K10U 212155Z AUTO 27007KT 10SM SCT017 BKN028 OVC048 04/00 A3005 RMK AO2,M
EKO,2024-02-21 21:56,-115.7860,40.8242,1367.00,41.00,31.00,67.30,240.00,3.00,0.00,30.05,1018.00,10.00,M,SCT,SCT,BKN,M,2700.00,7000.00,8000.00,M,M,M,M,M,M,M,M,38.98,KEKO 212156Z AUTO 24003KT 10SM SCT027 SCT070 BKN080 05/M01 A3005 RMK AO2 SLP180 T00501006,M
WMC,2024-02-21 21:56,-117.8072,40.9019,1315.00,50.00,30.00,45.93,260.00,15.00,0.00,30.06,1017.50,10.00,22.00,SCT,BKN,M,M,4800.00,6000.00,M,M,M,M,M,M,M,M,M,50.00,KWMC 212156Z AUTO 26015G22KT 10SM SCT048 BKN060 10/M01 A3006 RMK AO2 SLP175 T01001011,M
NFL,2024-02-21 21:56,-118.7010,39.4166,1199.00,53.00,27.00,36.36,M,M,0.00,30.07,1015.20,10.00,M,SCT,BKN,BKN,M,5000.00,6500.00,8000.00,M,M,M,M,M,M,M,M,53.00,KNFL 212156Z 10SM SCT050 BKN065 BKN080 12/M03 A3007 RMK AO2 SLP152 SH DSNT NE-SE T01171028,M
HND,2024-02-21 21:56,-115.1344,35.9729,742.79,61.00,43.00,51.48,0.00,0.00,0.00,30.06,1019.10,10.00,M,FEW,SCT,M,M,2700.00,9000.00,M,M,M,M,M,M,M,M,M,61.00,KHND 212156Z 00000KT 10SM FEW027 SCT090 16/06 A3006 RMK AO2 SLP191 T01610061,M
TPH,2024-02-21 21:56,-117.0904,38.0505,1654.00,48.00,27.00,43.77,310.00,6.00,T,30.07,1016.80,10.00,M,BKN,M,M,M,6500.00,M,M,M,M,M,M,M,M,M,M,44.80,KTPH 212156Z AUTO 31006KT 10SM BKN065 09/M03 A3007 RMK AO2 RAB29E43 SLP168 P0000 T00891028,M
LAS,2024-02-21 21:56,-115.1634,36.0719,663.00,62.00,45.00,53.63,10.00,6.00,0.00,30.04,1016.60,10.00,M,FEW,SCT,BKN,M,4000.00,9000.00,25000.00,M,M,M,M,M,M,M,M,62.00,KLAS 212156Z 01006KT 10SM FEW040 SCT090 BKN250 17/07 A3004 RMK AO2 SLP166 T01670072,M
EKO,2024-02-21 22:05,-115.7860,40.8242,1367.00,41.00,32.00,70.08,270.00,12.00,0.00,30.05,M,10.00,M,BKN,BKN,BKN,M,2700.00,3700.00,10000.00,M,M,M,M,M,M,M,M,33.46,KEKO 212205Z AUTO 27012KT 10SM BKN027 BKN037 BKN100 05/00 A3005 RMK AO2 T00500000,M
EKO,2024-02-21 22:12,-115.7860,40.8242,1367.00,39.00,32.00,75.75,280.00,15.00,T,30.06,M,10.00,M,SCT,BKN,BKN,M,2700.00,3500.00,4700.00,M,-RA,M,M,M,M,M,M,29.85,KEKO 212212Z AUTO 28015KT 10SM -RA SCT027 BKN035 BKN047 04/00 A3006 RMK AO2 RAB12 P0000 T00390000,M
BVU,2024-02-21 22:15,-114.8611,35.9475,671.00,60.80,42.80,51.45,170.00,4.00,0.00,30.04,M,10.00,10.00,FEW,FEW,M,M,5500.00,6500.00,M,M,M,M,M,M,M,M,M,60.80,KBVU 212215Z AUTO 17004G10KT 10SM FEW055 FEW065 16/06 A3004 RMK AO2,M
CXP,2024-02-21 22:15,-119.7326,39.1923,1431.00,48.20,23.00,36.78,280.00,11.00,0.00,30.12,M,10.00,16.00,FEW,M,M,M,7000.00,M,M,M,M,M,M,M,M,M,M,42.94,KCXP 212215Z AUTO 28011G16KT 10SM FEW070 09/M05 A3012 RMK AO2,M
RTS,2024-02-21 22:15,-119.8764,39.6682,1539.00,42.80,21.20,41.84,270.00,12.00,0.00,30.11,M,10.00,M,FEW,SCT,M,M,5000.00,5500.00,M,M,M,M,M,M,M,M,M,35.75,KRTS 212215Z AUTO 27012KT 10SM FEW050 SCT055 06/M06 A3011 RMK AO2,M
05U,2024-02-21 22:15,-116.0051,39.6042,1811.23,42.80,26.60,52.45,40.00,8.00,0.00,30.08,M,10.00,M,M,M,M,M,M,M,M,M,M,M,M,M,M,M,M,37.42,K05U 212215Z AUTO 04008KT 10SM 06/M03 A3008 RMK A01,M
MEV,2024-02-21 22:15,-119.7500,38.9963,1441.42,48.20,26.60,42.73,260.00,16.00,0.00,30.10,M,10.00,22.00,CLR,M,M,M,M,M,M,M,M,M,M,M,M,M,M,41.53,KMEV 212215Z AUTO 26016G22KT 10SM CLR 09/M03 A3010 RMK AO2,M
BAM,2024-02-21 22:15,-116.8743,40.5990,1382.36,42.80,33.80,70.28,270.00,6.00,0.00,30.09,M,10.00,M,SCT,BKN,OVC,M,1200.00,5000.00,7000.00,M,M,M,M,M,M,M,M,38.54,KBAM 212215Z AUTO 27006KT 10SM SCT012 BKN050 OVC070 06/01 A3009 RMK AO1,M
HTH,2024-02-21 22:15,-118.6315,38.5448,1282.89,51.80,21.20,29.82,0.00,0.00,0.00,30.08,M,10.00,M,BKN,M,M,M,8500.00,M,M,M,M,M,M,M,M,M,M,51.80,KHTH 212215Z AUTO 00000KT 10SM BKN085 11/M06 A3008 RMK A01,M
10U,2024-02-21 22:15,-116.1876,41.9532,1637.00,39.20,32.00,75.16,270.00,11.00,0.00,30.06,M,10.00,16.00,BKN,BKN,OVC,M,1700.00,2600.00,4800.00,M,M,M,M,M,M,M,M,31.57,K10U 212215Z AUTO 27011G16KT 10SM BKN017 BKN026 OVC048 04/00 A3006 RMK AO2,M
TMT,2024-02-21 22:15,-117.1971,39.4643,1749.34,42.00,26.80,54.54,300.00,6.00,0.00,30.08,M,10.00,M,SCT,BKN,BKN,M,3500.00,4600.00,5500.00,M,M,M,M,M,M,M,M,37.57,KTMT 212215Z AUTO 30006KT 10SM SCT035 BKN046 BKN055 06/M03 A3008 RMK AO2 T00561029,M
EKO,2024-02-21 22:21,-115.7860,40.8242,1367.00,38.00,32.00,78.77,240.00,10.00,T,30.06,M,10.00,M,BKN,BKN,OVC,M,2800.00,3500.00,5000.00,M,-RA,M,M,M,M,M,M,30.49,KEKO 212221Z AUTO 24010KT 10SM -RA BKN028 BKN035 OVC050 03/00 A3006 RMK AO2 RAB12 P0000 T00330000,M
EKO,2024-02-21 22:32,-115.7860,40.8242,1367.00,37.00,32.00,81.93,200.00,6.00,T,30.06,M,10.00,M,SCT,BKN,OVC,M,3100.00,8000.00,11000.00,M,UP,M,M,M,M,M,M,31.55,KEKO 212232Z AUTO 20006KT 10SM UP SCT031 BKN080 OVC110 03/00 A3006 RMK AO2 RAB12E31UPB31 P0000 T00280000,M
BVU,2024-02-21 22:35,-114.8611,35.9475,671.00,62.60,42.80,48.28,0.00,0.00,0.00,30.04,M,10.00,M,SCT,BKN,SCT,M,5000.00,5500.00,6500.00,M,M,M,M,M,M,M,M,62.60,KBVU 212235Z AUTO 00000KT 10SM SCT050 BKN055 SCT065 17/06 A3004 RMK AO2,M
CXP,2024-02-21 22:35,-119.7326,39.1923,1431.00,48.20,24.80,39.66,270.00,12.00,0.00,30.13,M,10.00,19.00,FEW,FEW,M,M,7000.00,8000.00,M,M,M,M,M,M,M,M,M,42.62,KCXP 212235Z AUTO 27012G19KT 10SM FEW070 FEW080 09/M04 A3013 RMK AO2,M
RTS,2024-02-21 22:35,-119.8764,39.6682,1539.00,44.60,23.00,42.14,280.00,9.00,0.00,30.12,M,10.00,16.00,BKN,M,M,M,5500.00,M,M,M,M,M,M,M,M,M,M,39.18,KRTS 212235Z AUTO 28009G16KT 10SM BKN055 07/M05 A3012 RMK AO2,M
05U,2024-02-21 22:35,-116.0051,39.6042,1811.23,44.60,26.60,48.96,100.00,5.00,0.00,30.09,M,10.00,12.00,M,M,M,M,M,M,M,M,M,M,M,M,M,M,M,41.36,K05U 212235Z AUTO 10005G12KT 10SM 07/M03 A3009 RMK A01,M
MEV,2024-02-21 22:35,-119.7500,38.9963,1441.42,48.20,24.80,39.66,280.00,14.00,0.00,30.10,M,10.00,M,CLR,M,M,M,M,M,M,M,M,M,M,M,M,M,M,42.04,KMEV 212235Z AUTO 28014KT 10SM CLR 09/M04 A3010 RMK AO2,M
BAM,2024-02-21 22:35,-116.8743,40.5990,1382.36,42.80,35.60,75.50,220.00,5.00,0.00,30.09,M,10.00,M,SCT,BKN,OVC,M,3400.00,4700.00,5500.00,M,M,M,M,M,M,M,M,39.22,KBAM 212235Z AUTO 22005KT 10SM SCT034 BKN047 OVC055 06/02 A3009 RMK AO1,M
HTH,2024-02-21 22:35,-118.6315,38.5448,1282.89,53.60,21.20,27.91,10.00,7.00,0.00,30.08,M,10.00,M,BKN,M,M,M,9000.00,M,M,M,M,M,M,M,M,M,M,53.60,KHTH 212235Z AUTO 01007KT 330V030 10SM BKN090 12/M06 A3008 RMK A01,M
10U,2024-02-21 22:35,-116.1876,41.9532,1637.00,39.20,32.00,75.16,300.00,7.00,0.00,30.06,M,10.00,M,SCT,BKN,OVC,M,1800.00,2700.00,7000.00,M,M,M,M,M,M,M,M,33.56,K10U 212235Z AUTO 30007KT 10SM SCT018 BKN027 OVC070 04/00 A3006 RMK AO2,M
TMT,2024-02-21 22:35,-117.1971,39.4643,1749.34,41.50,27.00,56.06,260.00,9.00,0.00,30.09,M,10.00,14.00,SCT,OVC,M,M,4700.00,5500.00,M,M,M,M,M,M,M,M,M,35.33,KTMT 212235Z AUTO 26009G14KT 10SM SCT047 OVC055 05/M03 A3009 RMK AO2 T00531027,M
RTS,2024-02-21 22:50,-119.8764,39.6682,1539.00,44.60,23.00,42.14,290.00,12.00,0.00,30.12,M,10.00,M,FEW,SCT,M,M,5000.00,6000.00,M,M,M,M,M,M,M,M,M,38.04,KRTS 212250Z AUTO 29012KT 10SM FEW050 SCT060 07/M05 A3012 RMK AO2,M
MEV,2024-02-21 22:50,-119.7500,38.9963,1441.42,48.20,23.00,36.78,260.00,15.00,0.00,30.10,M,10.00,M,CLR,M,M,M,M,M,M,M,M,M,M,M,M,M,M,41.78,KMEV 212250Z AUTO 26015KT 10SM CLR 09/M05 A3010 RMK AO2,M
P68,2024-02-21 22:53,-116.0056,39.6014,1993.00,39.00,30.00,69.85,300.00,10.00,0.00,30.07,1017.40,M,M,M,M,M,M,M,M,M,M,M,M,M,M,M,M,M,31.75,KP68 212253Z AUTO 30010KT 04/M01 A3007 RMK AO1 SLP174 T00391011,M
DRA,2024-02-21 22:53,-116.0278,36.6206,1009.00,58.00,37.00,45.38,230.00,10.00,0.00,30.05,1015.90,10.00,M,CLR,M,M,M,M,M,M,M,M,M,M,M,M,M,M,58.00,KDRA 212253Z AUTO 23010KT 10SM CLR 14/03 A3005 RMK AO2 SLP159 T01440028,M
ELY,2024-02-21 22:53,-114.8453,39.2950,1909.00,40.00,30.00,67.18,60.00,5.00,T,30.07,1016.70,10.00,M,FEW,M,M,M,3200.00,M,M,M,M,M,M,M,M,M,M,35.90,KELY 212253Z AUTO 06005KT 10SM FEW032 04/M01 A3007 RMK AO2 SNB25E36 SLP167 P0000 T00441011,M
VGT,2024-02-21 22:53,-115.1933,36.2111,667.00,62.00,41.00,46.00,290.00,5.00,0.00,30.03,1018.30,10.00,M,OVC,M,M,M,8000.00,M,M,M,M,M,M,M,M,M,M,62.00,KVGT 212253Z 29005KT 10SM OVC080 17/05 A3003 RMK AO2 SLP183 T01670050,M
LOL,2024-02-21 22:53,-118.5701,40.0684,1192.43,52.00,26.00,36.19,270.00,14.00,0.00,30.08,1018.30,10.00,M,BKN,M,M,M,6500.00,M,M,M,M,M,M,M,M,M,M,52.00,KLOL 212253Z AUTO 27014KT 10SM BKN065 11/M03 A3008 RMK AO2 SLP183 T01111033,M
BVU,2024-02-21 22:55,-114.8611,35.9475,671.00,62.60,44.60,51.72,160.00,7.00,0.00,30.04,M,10.00,M,FEW,SCT,SCT,M,4400.00,5000.00,9000.00,M,M,M,M,M,M,M,M,62.60,KBVU 212255Z AUTO 16007KT 10SM FEW044 SCT050 SCT090 17/07 A3004 RMK AO2,M
CXP,2024-02-21 22:55,-119.7326,39.1923,1431.00,44.60,23.00,42.14,270.00,13.00,0.00,30.13,M,10.00,19.00,CLR,M,M,M,M,M,M,M,M,M,M,M,M,M,M,37.71,KCXP 212255Z AUTO 27013G19KT 10SM CLR 07/M05 A3013 RMK AO2,M
RNO,2024-02-21 22:55,-119.7711,39.4839,1341.00,50.00,27.00,40.62,280.00,19.00,0.00,30.10,1018.30,10.00,26.00,SCT,M,M,M,6500.00,M,M,M,M,M,M,M,27.00,300.00,2024-02-21 22:03,50.00,KRNO 212255Z 28019G26KT 10SM SCT065 10/M03 A3010 RMK AO2 PK WND 30027/2203 SLP183 T01001028,M
LSV,2024-02-21 22:55,-115.0343,36.2362,570.00,63.00,41.40,45.10,200.00,5.00,0.00,30.01,1015.60,10.00,M,FEW,M,M,M,10000.00,M,M,M,M,M,M,M,M,M,M,63.00,KLSV 212255Z AUTO 20005KT 10SM FEW100 17/05 A3001 RMK AO2 SLP156 T01720052 $,M
05U,2024-02-21 22:55,-116.0051,39.6042,1811.23,39.20,30.20,69.88,100.00,6.00,0.00,30.10,M,10.00,15.00,M,M,M,M,M,M,M,M,M,M,M,M,M,M,M,34.20,K05U 212255Z AUTO 10006G15KT 10SM 04/M01 A3010 RMK A01,M
BAM,2024-02-21 22:55,-116.8743,40.5990,1382.36,42.80,33.80,70.28,180.00,4.00,0.00,30.10,M,10.00,M,SCT,SCT,BKN,M,4300.00,5500.00,7000.00,M,M,M,M,M,M,M,M,40.03,KBAM 212255Z AUTO 18004KT 10SM SCT043 SCT055 BKN070 06/01 A3010 RMK AO1,M
HTH,2024-02-21 22:55,-118.6315,38.5448,1282.89,53.60,21.20,27.91,M,5.00,0.00,30.09,M,10.00,M,FEW,M,M,M,9500.00,M,M,M,M,M,M,M,M,M,M,53.60,KHTH 212255Z AUTO VRB05KT 10SM FEW095 12/M06 A3009 RMK A01,M
INS,2024-02-21 22:55,-115.6733,36.5872,955.00,61.00,32.40,33.94,10.00,4.00,0.00,30.03,1015.10,10.00,M,OVC,M,M,M,6000.00,M,M,M,M,M,M,M,M,M,M,61.00,KINS 212255Z AUTO 01004KT 10SM OVC060 16/00 A3003 RMK AO2 SLP151 T01610002,M
TMT,2024-02-21 22:55,-117.1971,39.4643,1749.34,41.50,26.80,55.60,230.00,5.00,0.00,30.10,M,10.00,M,SCT,SCT,OVC,M,4100.00,4900.00,5500.00,M,M,M,M,M,M,M,M,37.68,KTMT 212255Z AUTO 23005KT 10SM SCT041 SCT049 OVC055 05/M03 A3010 RMK AO2 T00531029,M
10U,2024-02-21 22:55,-116.1876,41.9532,1637.00,41.00,32.00,70.08,270.00,9.00,0.00,30.07,M,10.00,M,FEW,SCT,BKN,M,2100.00,3200.00,4500.00,M,M,M,M,M,M,M,M,34.70,K10U 212255Z AUTO 27009KT 10SM FEW021 SCT032 BKN045 05/00 A3007 RMK AO2,M
EKO,2024-02-21 22:56,-115.7860,40.8242,1367.00,37.00,32.00,81.93,160.00,4.00,T,30.07,1019.30,10.00,M,FEW,FEW,M,M,4900.00,11000.00,M,M,M,M,M,M,M,M,M,33.26,KEKO 212256Z AUTO 16004KT 10SM FEW049 FEW110 03/00 A3007 RMK AO2 RAB12E31UPB31E35 SLP193 P0000 T00280000,M
WMC,2024-02-21 22:56,-117.8072,40.9019,1315.00,50.00,28.00,42.33,280.00,11.00,0.00,30.08,1017.70,10.00,M,FEW,OVC,M,M,5000.00,8000.00,M,M,M,M,M,M,M,M,M,50.00,KWMC 212256Z AUTO 28011KT 10SM FEW050 OVC080 10/M02 A3008 RMK AO2 SLP177 T01001022,M
NFL,2024-02-21 22:56,-118.7010,39.4166,1199.00,54.00,26.00,33.63,M,5.00,0.00,30.08,1015.20,10.00,M,SCT,BKN,BKN,BKN,5000.00,8000.00,10000.00,25000.00,M,M,M,M,M,M,M,54.00,KNFL 212256Z VRB05KT 10SM SCT050 BKN080 BKN100 BKN250 12/M03 A3008 RMK AO2 SLP152 SH VC N-NE T01221033,M
HND,2024-02-21 22:56,-115.1344,35.9729,742.79,61.00,42.00,49.54,0.00,0.00,0.00,30.06,1019.20,10.00,M,SCT,SCT,M,M,5000.00,7000.00,M,M,M,M,M,M,M,M,M,61.00,KHND 212256Z 00000KT 10SM SCT050 SCT070 16/06 A3006 RMK AO2 SLP192 T01610056,M
TPH,2024-02-21 22:56,-117.0904,38.0505,1654.00,48.00,25.00,40.29,320.00,9.00,0.00,30.08,1017.10,10.00,M,FEW,OVC,M,M,6000.00,8000.00,M,M,M,M,M,M,M,M,M,43.41,KTPH 212256Z AUTO 32009KT 10SM FEW060 OVC080 09/M04 A3008 RMK AO2 SLP171 T00891039,M
LAS,2024-02-21 22:56,-115.1634,36.0719,663.00,61.00,43.00,51.48,340.00,3.00,0.00,30.04,1016.70,10.00,M,FEW,SCT,BKN,M,4000.00,9000.00,25000.00,M,M,M,M,M,M,M,M,61.00,KLAS 212256Z 34003KT 10SM FEW040 SCT090 BKN250 16/06 A3004 RMK AO2 SLP167 T01610061,M
MEV,2024-02-21 23:05,-119.7500,38.9963,1441.42,48.20,23.00,36.78,270.00,13.00,0.00,30.10,M,10.00,21.00,CLR,M,M,M,M,M,M,M,M,M,M,M,M,M,M,42.32,KMEV 212305Z AUTO 27013G21KT 10SM CLR 09/M05 A3010 RMK AO2,M
CXP,2024-02-21 23:10,-119.7326,39.1923,1431.00,46.40,23.00,39.36,270.00,11.00,0.00,30.13,M,10.00,17.00,CLR,M,M,M,M,M,M,M,M,M,M,M,M,M,M,40.66,KCXP 212310Z AUTO 27011G17KT 10SM CLR 08/M05 A3013 RMK AO2,M
BVU,2024-02-21 23:15,-114.8611,35.9475,671.00,60.80,44.60,55.12,140.00,3.00,0.00,30.04,M,10.00,M,FEW,SCT,SCT,M,4500.00,5500.00,6500.00,M,M,M,M,M,M,M,M,60.80,KBVU 212315Z AUTO 14003KT 10SM FEW045 SCT055 SCT065 16/07 A3004 RMK AO2,M
05U,2024-02-21 23:15,-116.0051,39.6042,1811.23,39.20,32.00,75.16,30.00,4.00,0.00,30.11,M,10.00,14.00,M,M,M,M,M,M,M,M,M,M,M,M,M,M,M,35.83,K05U 212315Z AUTO 03004G14KT 10SM 04/M00 A3011 RMK A01,M
BAM,2024-02-21 23:15,-116.8743,40.5990,1382.36,44.60,33.80,65.61,200.00,4.00,0.00,30.10,M,10.00,M,SCT,SCT,M,M,6000.00,7000.00,M,M,M,M,M,M,M,M,M,42.13,KBAM 212315Z AUTO 20004KT 10SM SCT060 SCT070 07/01 A3010 RMK AO1,M
HTH,2024-02-21 23:15,-118.6315,38.5448,1282.89,53.60,21.20,27.91,290.00,4.00,0.00,30.09,M,10.00,M,CLR,M,M,M,M,M,M,M,M,M,M,M,M,M,M,53.60,KHTH 212315Z AUTO 29004KT 10SM CLR 12/M06 A3009 RMK A01,M
10U,2024-02-21 23:15,-116.1876,41.9532,1637.00,37.40,32.00,80.65,290.00,9.00,0.00,30.08,M,10.00,M,FEW,BKN,OVC,M,2100.00,2600.00,5000.00,M,M,M,M,M,M,M,M,30.23,K10U 212315Z AUTO 29009KT 10SM FEW021 BKN026 OVC050 03/00 A3008 RMK AO2,M
TMT,2024-02-21 23:15,-117.1971,39.4643,1749.34,42.00,26.40,53.64,290.00,7.00,0.00,30.10,M,10.00,M,SCT,SCT,OVC,M,3600.00,4800.00,6000.00,M,M,M,M,M,M,M,M,36.97,KTMT 212315Z AUTO 29007KT 10SM SCT036 SCT048 OVC060 06/M03 A3010 RMK AO2 T00551031,M
BVU,2024-02-21 23:35,-114.8611,35.9475,671.00,62.60,44.60,51.72,140.00,4.00,0.00,30.05,M,10.00,M,SCT,BKN,BKN,M,4900.00,5500.00,6500.00,M,M,M,M,M,M,M,M,62.60,KBVU 212335Z AUTO 14004KT 10SM SCT049 BKN055 BKN065 17/07 A3005 RMK AO2,M
CXP,2024-02-21 23:35,-119.7326,39.1923,1431.00,46.40,23.00,39.36,260.00,8.00,0.00,30.13,M,10.00,14.00,CLR,M,M,M,M,M,M,M,M,M,M,M,M,M,M,41.85,KCXP 212335Z AUTO 26008G14KT 230V290 10SM CLR 08/M05 A3013 RMK AO2,M
RTS,2024-02-21 23:35,-119.8764,39.6682,1539.00,44.60,21.20,39.06,280.00,13.00,0.00,30.13,M,10.00,M,FEW,M,M,M,6000.00,M,M,M,M,M,M,M,M,M,M,37.71,KRTS 212335Z AUTO 28013KT 10SM FEW060 07/M06 A3013 RMK AO2,M
05U,2024-02-21 23:35,-116.0051,39.6042,1811.23,42.80,28.40,56.48,30.00,6.00,0.00,30.11,M,10.00,M,M,M,M,M,M,M,M,M,M,M,M,M,M,M,M,38.54,K05U 212335Z AUTO 03006KT 10SM 06/M02 A3011 RMK A01,M
MEV,2024-02-21 23:35,-119.7500,38.9963,1441.42,46.40,24.80,42.44,260.00,16.00,0.00,30.11,M,10.00,M,FEW,M,M,M,7000.00,M,M,M,M,M,M,M,M,M,M,39.19,KMEV 212335Z AUTO 26016KT 10SM FEW070 08/M04 A3011 RMK AO2,M
BAM,2024-02-21 23:35,-116.8743,40.5990,1382.36,44.60,33.80,65.61,0.00,0.00,0.00,30.11,M,10.00,M,BKN,BKN,M,M,6000.00,6500.00,M,M,M,M,M,M,M,M,M,44.60,KBAM 212335Z AUTO 00000KT 10SM BKN060 BKN065 07/01 A3011 RMK AO1,M
HTH,2024-02-21 23:35,-118.6315,38.5448,1282.89,51.80,21.20,29.82,0.00,0.00,0.00,30.09,M,10.00,M,CLR,M,M,M,M,M,M,M,M,M,M,M,M,M,M,51.80,KHTH 212335Z AUTO 00000KT 10SM CLR 11/M06 A3009 RMK A01,M
10U,2024-02-21 23:35,-116.1876,41.9532,1637.00,35.60,33.80,93.08,270.00,6.00,0.00,30.08,M,7.00,M,FEW,SCT,BKN,M,400.00,2100.00,3200.00,M,-SN,M,M,M,M,M,M,29.87,K10U 212335Z AUTO 27006KT 7SM -SN FEW004 SCT021 BKN032 02/01 A3008 RMK AO2,M
TMT,2024-02-21 23:35,-117.1971,39.4643,1749.34,40.60,28.40,61.49,270.00,16.00,0.00,30.11,M,M,M,M,M,M,M,M,M,M,M,M,M,M,M,M,M,M,31.63,KTMT 212335Z AUTO 27016KT 05/M02 A3011 RMK AO2 T00481020 PWINO,M
P68,2024-02-21 23:53,-116.0056,39.6014,1993.00,38.00,31.00,75.65,200.00,11.00,0.00,30.09,1017.80,M,M,M,M,M,M,M,M,M,M,M,M,M,M,M,M,M,30.05,KP68 212353Z AUTO 20011KT 03/M01 A3009 RMK AO1 SLP178 60002 T00331006 10072 20000 53012,M
DRA,2024-02-21 23:53,-116.0278,36.6206,1009.00,57.00,35.00,43.46,230.00,12.00,0.00,30.07,1016.50,10.00,M,CLR,M,M,M,M,M,M,M,M,M,M,M,M,M,M,57.00,KDRA 212353Z AUTO 23012KT 10SM CLR 14/02 A3007 RMK AO2 SLP165 T01390017 10150 20106 53006,M
ELY,2024-02-21 23:53,-114.8453,39.2950,1909.00,38.00,26.00,61.64,0.00,0.00,0.00,30.08,1017.80,10.00,M,CLR,M,M,M,M,M,M,M,M,M,M,M,M,M,M,38.00,KELY 212353Z AUTO 00000KT 10SM CLR 03/M03 A3008 RMK AO2 SLP178 60000 T00331033 10061 20000 53011,M
VGT,2024-02-21 23:53,-115.1933,36.2111,667.00,63.00,42.00,46.16,260.00,3.00,0.00,30.04,1018.70,10.00,M,FEW,M,M,M,7500.00,M,M,M,M,M,M,M,M,M,M,63.00,KVGT 212353Z 26003KT 10SM FEW075 17/06 A3004 RMK AO2 SLP187 T01720056 10178 20133 53001,M
LOL,2024-02-21 23:53,-118.5701,40.0684,1192.43,51.00,28.00,40.78,310.00,7.00,0.00,30.09,1019.00,10.00,M,SCT,M,M,M,6500.00,M,M,M,M,M,M,M,M,M,M,51.00,KLOL 212353Z AUTO 31007KT 10SM SCT065 11/M02 A3009 RMK AO2 SLP190 T01061022 10111 20067 53005,M
BVU,2024-02-21 23:55,-114.8611,35.9475,671.00,60.80,44.60,55.12,80.00,7.00,0.00,30.05,M,10.00,M,FEW,BKN,OVC,M,4700.00,6000.00,8000.00,M,M,M,M,M,M,M,M,60.80,KBVU 212355Z AUTO 08007KT 10SM FEW047 BKN060 OVC080 16/07 A3005 RMK AO2,M
CXP,2024-02-21 23:55,-119.7326,39.1923,1431.00,46.40,23.00,39.36,M,5.00,0.00,30.13,M,10.00,10.00,CLR,M,M,M,M,M,M,M,M,M,M,M,M,M,M,43.50,KCXP 212355Z AUTO VRB05G10KT 10SM CLR 08/M05 A3013 RMK AO2,M
RNO,2024-02-21 23:55,-119.7711,39.4839,1341.00,49.00,25.00,38.81,290.00,15.00,0.00,30.10,1018.60,10.00,24.00,SCT,M,M,M,6500.00,M,M,M,M,M,M,M,26.00,290.00,2024-02-21 23:24,42.82,KRNO 212355Z 29015G24KT 10SM SCT065 09/M04 A3010 RMK AO2 PK WND 29026/2324 SLP186 T00941039 10117 20050 53006,M
RTS,2024-02-21 23:55,-119.8764,39.6682,1539.00,44.60,21.20,39.06,260.00,11.00,0.00,30.13,M,10.00,M,CLR,M,M,M,M,M,M,M,M,M,M,M,M,M,M,38.39,KRTS 212355Z AUTO 26011KT 10SM CLR 07/M06 A3013 RMK AO2,M
05U,2024-02-21 23:55,-116.0051,39.6042,1811.23,39.20,32.00,75.16,360.00,10.00,0.00,30.11,M,10.00,M,M,M,M,M,M,M,M,M,M,M,M,M,M,M,M,32.00,K05U 212355Z AUTO 36010KT 10SM 04/M00 A3011 RMK A01,M
MEV,2024-02-21 23:55,-119.7500,38.9963,1441.42,48.20,24.80,39.66,290.00,11.00,0.00,30.11,M,10.00,17.00,FEW,M,M,M,7500.00,M,M,M,M,M,M,M,M,M,M,42.94,KMEV 212355Z AUTO 29011G17KT 10SM FEW075 09/M04 A3011 RMK AO2,M
BAM,2024-02-21 23:55,-116.8743,40.5990,1382.36,44.60,33.80,65.61,0.00,0.00,0.00,30.11,M,10.00,M,SCT,BKN,OVC,M,3100.00,5500.00,8000.00,M,M,M,M,M,M,M,M,44.60,KBAM 212355Z AUTO 00000KT 10SM SCT031 BKN055 OVC080 07/01 A3011 RMK AO1,M
HTH,2024-02-21 23:55,-118.6315,38.5448,1282.89,51.80,21.20,29.82,320.00,4.00,0.00,30.10,M,10.00,M,FEW,M,M,M,10000.00,M,M,M,M,M,M,M,M,M,M,51.80,KHTH 212355Z AUTO 32004KT 10SM FEW100 11/M06 A3010 RMK A01,M
10U,2024-02-21 23:55,-116.1876,41.9532,1637.00,39.20,33.80,80.79,340.00,7.00,0.00,30.09,M,10.00,M,SCT,BKN,OVC,M,1400.00,1800.00,4200.00,M,M,M,M,M,M,M,M,33.56,K10U 212355Z AUTO 34007KT 10SM SCT014 BKN018 OVC042 04/01 A3009 RMK AO2,M
LSV,2024-02-21 23:55,-115.0343,36.2362,570.00,63.50,38.70,39.90,0.00,0.00,0.00,30.02,1015.90,10.00,M,CLR,M,M,M,M,M,M,M,M,M,M,M,M,M,M,63.50,KLSV 212355Z AUTO 00000KT 10SM CLR 18/04 A3002 RMK AO2 SLP159 T01750037 10178 20128 55001 $,M
EKO,2024-02-21 23:56,-115.7860,40.8242,1367.00,38.00,33.00,82.00,220.00,10.00,0.00,30.10,1020.10,10.00,16.00,FEW,BKN,M,M,1100.00,4600.00,M,M,M,M,M,M,M,M,M,30.49,KEKO 212356Z AUTO 22010G16KT 10SM FEW011 BKN046 03/01 A3010 RMK AO2 SLP201 60003 T00330006 10061 20006 53016,M
WMC,2024-02-21 23:56,-117.8072,40.9019,1315.00,50.00,28.00,42.33,320.00,8.00,0.00,30.09,1018.40,10.00,M,BKN,M,M,M,8500.00,M,M,M,M,M,M,M,M,M,M,50.00,KWMC 212356Z AUTO 32008KT 10SM BKN085 10/M02 A3009 RMK AO2 SLP184 60017 T01001022 10106 20028 53008,M
NFL,2024-02-21 23:56,-118.7010,39.4166,1199.00,54.00,23.00,29.67,330.00,6.00,0.00,30.08,1015.40,10.00,M,SCT,BKN,BKN,BKN,5000.00,8000.00,10000.00,25000.00,M,M,M,M,M,M,M,54.00,KNFL 212356Z 33006KT 10SM SCT050 BKN080 BKN100 BKN250 12/M05 A3008 RMK AO2 SLP154 SH VC ALQDS T01221050 10133 20078 53003,M
HND,2024-02-21 23:56,-115.1344,35.9729,742.79,62.00,40.00,44.25,210.00,15.00,0.00,30.07,1019.60,10.00,M,FEW,SCT,M,M,5500.00,7000.00,M,M,M,M,M,M,M,M,M,62.00,KHND 212356Z 21015KT 10SM FEW055 SCT070 17/04 A3007 RMK AO2 SLP196 T01670044 10172 20122 53000,M
TPH,2024-02-21 23:56,-117.0904,38.0505,1654.00,49.00,22.00,34.22,310.00,9.00,0.00,30.09,1017.50,10.00,M,OVC,M,M,M,8000.00,M,M,M,M,M,M,M,M,M,M,44.65,KTPH 212356Z AUTO 31009KT 10SM OVC080 09/M06 A3009 RMK AO2 SLP175 60000 T00941056 10100 20067 53005,M
LAS,2024-02-21 23:56,-115.1634,36.0719,663.00,61.00,41.00,47.66,310.00,3.00,0.00,30.05,1017.00,10.00,M,FEW,SCT,BKN,M,4000.00,9000.00,25000.00,M,M,M,M,M,M,M,M,61.00,KLAS 212356Z 31003KT 10SM FEW040 SCT090 BKN250 16/05 A3005 RMK AO2 SLP170 T01610050 10172 20117 53001,M
INS,2024-02-21 23:56,-115.6733,36.5872,955.00,M,M,M,M,M,0.00,M,M,M,M,M,M,M,M,M,M,M,M,M,M,M,M,M,M,M,M,KINS 212356Z AUTO M M M M M M RMK AO2 SLPNO 10164 20104 RVRNO VISNO RWY08 $,M
