station,valid,lon,lat,elevation,tmpf,dwpf,relh,drct,sknt,p01i,alti,mslp,vsby,gust,skyc1,skyc2,skyc3,skyc4,skyl1,skyl2,skyl3,skyl4,wxcodes,ice_accretion_1hr,ice_accretion_3hr,ice_accretion_6hr,peak_wind_gust,peak_wind_drct,peak_wind_time,feel,metar,snowdepth
CXP,2021-07-30 00:10,-119.7326,39.1923,1431.00,82.40,44.60,26.49,190.00,13.00,0.00,30.18,M,10.00,25.00,FEW,SCT,OVC,M,7000.00,8000.00,11000.00,M,M,M,M,M,M,M,M,80.50,KCXP 300010Z AUTO 19013G25KT 140V210 10SM FEW070 SCT080 OVC110 28/07 A3018 RMK AO2,M
05U,2021-07-30 00:15,-116.0051,39.6042,1811.23,80.60,46.40,30.07,0.00,0.00,0.00,30.23,M,10.00,M,CLR,M,M,M,M,M,M,M,M,M,M,M,M,M,M,79.56,K05U 300015Z AUTO 00000KT 10SM CLR 27/08 A3023 RMK A01,M
BAM,2021-07-30 00:15,-116.8743,40.5990,1382.36,96.80,35.60,11.86,70.00,6.00,0.00,30.05,M,10.00,M,CLR,M,M,M,M,M,M,M,M,M,M,M,M,M,M,91.72,KBAM 300015Z AUTO 07006KT 10SM CLR 36/02 A3005 RMK AO1,M
MEV,2021-07-30 00:15,-119.7500,38.9963,1441.42,73.40,50.00,43.69,180.00,22.00,0.00,30.20,M,10.00,32.00,BKN,M,M,M,11000.00,M,M,M,M,M,M,M,M,M,M,73.40,KMEV 300015Z AUTO 18022G32KT 10SM BKN110 23/10 A3020 RMK AO2,M
BVU,2021-07-30 00:15,-114.8611,35.9475,671.00,104.00,46.40,14.50,0.00,0.00,0.00,29.80,M,10.00,M,CLR,M,M,M,M,M,M,M,M,M,M,M,M,M,M,100.21,KBVU 300015Z AUTO 00000KT 10SM CLR 40/08 A2980 RMK AO2 LTG DSNT NE-SE,M
RTS,2021-07-30 00:15,-119.8764,39.6682,1539.00,84.20,39.20,20.29,210.00,16.00,0.00,30.16,M,10.00,22.00,FEW,BKN,M,M,10000.00,12000.00,M,M,M,M,M,M,M,M,M,81.44,KRTS 300015Z AUTO 21016G22KT 10SM FEW100 BKN120 29/04 A3016 RMK AO2,M
TMT,2021-07-30 00:15,-117.1971,39.4643,1749.34,85.30,42.80,22.52,40.00,6.00,0.00,30.16,M,10.00,M,SCT,M,M,M,12000.00,M,M,M,M,M,M,M,M,M,M,82.42,KTMT 300015Z AUTO 04006KT 10SM SCT120 30/06 A3016 RMK AO2 LTG DSNT NE T02960060,M
HTH,2021-07-30 00:15,-118.6315,38.5448,1282.89,91.40,41.00,17.32,260.00,20.00,0.00,30.04,M,10.00,25.00,CLR,M,M,M,M,M,M,M,M,M,M,M,M,M,M,87.40,KHTH 300015Z AUTO 26020G25KT 10SM CLR 33/05 A3004 RMK A01,M
CXP,2021-07-30 00:30,-119.7326,39.1923,1431.00,78.80,46.40,31.90,190.00,12.00,0.00,30.20,M,10.00,27.00,SCT,OVC,M,M,7000.00,8000.00,M,M,M,M,M,M,M,M,M,78.80,KCXP 300030Z AUTO 19012G27KT 160V220 10SM SCT070 OVC080 26/08 A3020 RMK AO2 LTG DSNT W AND NW,M
05U,2021-07-30 00:35,-116.0051,39.6042,1811.23,80.60,48.20,32.18,320.00,4.00,0.00,30.23,M,10.00,M,SCT,M,M,M,12000.00,M,M,M,M,M,M,M,M,M,M,79.71,K05U 300035Z AUTO 32004KT 10SM SCT120 27/09 A3023 RMK A01,M
HTH,2021-07-30 00:35,-118.6315,38.5448,1282.89,91.40,39.20,16.15,250.00,18.00,0.00,30.03,M,10.00,M,CLR,M,M,M,M,M,M,M,M,M,M,M,M,M,M,87.30,KHTH 300035Z AUTO 25018KT 10SM CLR 33/04 A3003 RMK A01,M
TMT,2021-07-30 00:35,-117.1971,39.4643,1749.34,85.60,42.60,22.13,100.00,4.00,0.00,30.16,M,10.00,M,SCT,M,M,M,11000.00,M,M,M,M,M,M,M,M,M,M,82.64,KTMT 300035Z AUTO 10004KT 10SM SCT110 30/06 A3016 RMK AO2 T02980059,M
MEV,2021-07-30 00:35,-119.7500,38.9963,1441.42,71.60,51.80,49.64,190.00,22.00,0.00,30.20,M,10.00,30.00,FEW,M,M,M,11000.00,M,M,M,M,M,M,M,M,M,M,71.60,KMEV 300035Z AUTO 19022G30KT 10SM FEW110 22/11 A3020 RMK AO2,M
BVU,2021-07-30 00:35,-114.8611,35.9475,671.00,104.00,46.40,14.50,90.00,12.00,0.00,29.80,M,10.00,17.00,CLR,M,M,M,M,M,M,M,M,M,M,M,M,M,M,100.21,KBVU 300035Z AUTO 09012G17KT 10SM CLR 40/08 A2980 RMK AO2 LTG DSNT E-SW,M
RTS,2021-07-30 00:35,-119.8764,39.6682,1539.00,84.20,37.40,18.91,260.00,16.00,0.00,30.18,M,10.00,23.00,FEW,SCT,M,M,9000.00,12000.00,M,M,M,M,M,M,M,M,M,81.38,KRTS 300035Z AUTO 26016G23KT 10SM FEW090 SCT120 29/03 A3018 RMK AO2,M
BAM,2021-07-30 00:35,-116.8743,40.5990,1382.36,96.80,35.60,11.86,80.00,11.00,0.00,30.06,M,10.00,M,CLR,M,M,M,M,M,M,M,M,M,M,M,M,M,M,91.72,KBAM 300035Z AUTO 08011KT 10SM CLR 36/02 A3006 RMK AO1,M
CXP,2021-07-30 00:50,-119.7326,39.1923,1431.00,75.20,48.20,38.46,190.00,13.00,0.00,30.22,M,10.00,21.00,FEW,SCT,SCT,M,7000.00,8000.00,12000.00,M,M,M,M,M,M,M,M,75.20,KCXP 300050Z AUTO 19013G21KT 160V220 10SM FEW070 SCT080 SCT120 24/09 A3022 RMK AO2,M
LOL,2021-07-30 00:53,-118.5701,40.0684,1192.43,98.00,36.00,11.58,50.00,9.00,0.00,29.98,1010.60,10.00,M,CLR,M,M,M,M,M,M,M,M,M,M,M,M,M,M,92.87,KLOL 300053Z AUTO 05009KT 10SM CLR 37/02 A2998 RMK AO2 SLP106 T03670022,M
DRA,2021-07-30 00:53,-116.0278,36.6206,1009.00,97.00,48.00,19.02,180.00,23.00,0.00,29.91,M,10.00,31.00,BKN,M,M,M,12000.00,M,M,M,M,M,M,M,31.00,180.00,2021-07-30 00:52,93.52,KDRA 300053Z AUTO 18023G31KT 10SM BKN120 36/09 A2991 RMK AO2 PK WND 18031/0052 SLPNO T03610089,M
P68,2021-07-30 00:53,-116.0056,39.6014,1993.00,79.00,51.00,37.78,340.00,6.00,0.00,30.20,1015.10,M,M,M,M,M,M,M,M,M,M,M,M,M,M,M,M,M,79.00,KP68 300053Z AUTO 34006KT 26/11 A3020 RMK AO1 SLP151 T02610106,M
ELY,2021-07-30 00:53,-114.8453,39.2950,1909.00,77.00,49.00,37.19,160.00,15.00,0.00,30.22,1014.10,10.00,M,SCT,BKN,M,M,9000.00,11000.00,M,M,M,M,M,M,M,M,M,77.00,KELY 300053Z AUTO 16015KT 10SM SCT090 BKN110 25/09 A3022 RMK AO2 LTG DSNT N AND NE SLP141 T02500094,M
VGT,2021-07-30 00:53,-115.1933,36.2111,667.00,107.00,50.00,15.14,70.00,5.00,0.00,29.78,1006.60,10.00,M,CLR,M,M,M,M,M,M,M,M,M,M,M,M,M,M,104.29,KVGT 300053Z 07005KT 10SM CLR 42/10 A2978 RMK AO2 LTG DSNT SE AND S SLP066 T04170100 PNO,M
MEV,2021-07-30 00:55,-119.7500,38.9963,1441.42,69.80,50.00,49.37,180.00,24.00,0.00,30.20,M,9.00,32.00,FEW,M,M,M,10000.00,M,M,M,M,M,M,M,M,M,M,69.80,KMEV 300055Z AUTO 18024G32KT 9SM FEW100 21/10 A3020 RMK AO2,M
05U,2021-07-30 00:55,-116.0051,39.6042,1811.23,78.80,50.00,36.51,0.00,0.00,0.00,30.23,M,10.00,M,FEW,M,M,M,12000.00,M,M,M,M,M,M,M,M,M,M,78.80,K05U 300055Z AUTO 00000KT 10SM FEW120 26/10 A3023 RMK A01,M
BVU,2021-07-30 00:55,-114.8611,35.9475,671.00,104.00,46.40,14.50,100.00,14.00,0.00,29.81,M,10.00,M,CLR,M,M,M,M,M,M,M,M,M,M,M,M,M,M,100.21,KBVU 300055Z AUTO 10014KT 10SM CLR 40/08 A2981 RMK AO2 LTG DSNT E AND SW,M
RTS,2021-07-30 00:55,-119.8764,39.6682,1539.00,82.40,39.20,21.51,280.00,15.00,0.00,30.17,M,10.00,20.00,CLR,M,M,M,M,M,M,M,-DZ,M,M,M,M,M,M,80.21,KRTS 300055Z AUTO 28015G20KT 10SM -DZ CLR 28/04 A3017 RMK AO2,M
TMT,2021-07-30 00:55,-117.1971,39.4643,1749.34,85.30,44.60,24.12,100.00,7.00,0.00,30.16,M,10.00,M,SCT,M,M,M,12000.00,M,M,M,M,M,M,M,M,M,M,82.54,KTMT 300055Z AUTO 10007KT 10SM SCT120 30/07 A3016 RMK AO2 T02960070,M
BAM,2021-07-30 00:55,-116.8743,40.5990,1382.36,91.40,44.60,19.89,120.00,20.00,0.00,30.06,M,10.00,25.00,SCT,M,M,M,12000.00,M,M,M,M,M,M,M,M,M,M,87.68,KBAM 300055Z AUTO 12020G25KT 10SM SCT120 33/07 A3006 RMK AO1,M
HTH,2021-07-30 00:55,-118.6315,38.5448,1282.89,91.40,39.20,16.15,260.00,18.00,0.00,30.03,M,10.00,M,CLR,M,M,M,M,M,M,M,M,M,M,M,M,M,M,87.30,KHTH 300055Z AUTO 26018KT 10SM CLR 33/04 A3003 RMK A01,M
RNO,2021-07-30 00:55,-119.7711,39.4839,1341.00,83.00,46.00,27.48,200.00,21.00,0.00,30.11,1014.10,10.00,33.00,FEW,BKN,OVC,M,9000.00,10000.00,15000.00,M,M,M,M,M,35.00,200.00,2021-07-30 00:42,80.94,KRNO 300055Z 20021G33KT 10SM FEW090 BKN100 OVC150 28/08 A3011 RMK AO2 PK WND 20035/0042 WSHFT 2345 SLP141 VIRGA CB DSNT S THRU W AND NW FU AND HZ ALQDS T02830078,M
WMC,2021-07-30 00:56,-117.8072,40.9019,1315.00,96.00,35.00,11.88,40.00,5.00,0.00,30.03,1011.60,10.00,M,FEW,M,M,M,11000.00,M,M,M,M,M,M,M,M,M,M,91.07,KWMC 300056Z AUTO 04005KT 10SM FEW110 36/02 A3003 RMK AO2 SLP116 T03560017,M
TPH,2021-07-30 00:56,-117.0904,38.0505,1654.00,86.00,46.00,24.88,230.00,9.00,0.00,30.14,1012.00,10.00,M,BKN,M,M,M,9500.00,M,M,M,M,M,M,M,M,M,M,83.19,KTPH 300056Z AUTO 23009KT 10SM BKN095 30/08 A3014 RMK AO2 SLP120 T03000078,M
HND,2021-07-30 00:56,-115.1344,35.9729,742.79,103.00,52.00,18.47,M,3.00,0.00,29.84,1008.40,10.00,M,CLR,M,M,M,M,M,M,M,VCTS,M,M,M,M,M,M,100.60,KHND 300056Z VRB03KT 10SM VCTS CLR 39/11 A2984 RMK AO2 LTG DSNT E-S TSB56 SLP084 T03940111,M
EKO,2021-07-30 00:56,-115.7860,40.8242,1367.00,83.00,46.00,27.48,320.00,4.00,0.00,30.13,1014.70,10.00,M,BKN,OVC,M,M,9500.00,11000.00,M,M,M,M,M,M,M,M,M,80.94,KEKO 300056Z AUTO 32004KT 10SM BKN095 OVC110 28/08 A3013 RMK AO2 SLP147 T02830078 $,M
NFL,2021-07-30 00:56,-118.7010,39.4166,1199.00,90.00,45.00,21.10,240.00,24.00,0.00,30.00,1013.10,4.00,30.00,BKN,BKN,BKN,M,8000.00,12000.00,25000.00,M,BLDU,M,M,M,33.00,230.00,2021-07-30 00:40,86.45,KNFL 300056Z 24024G30KT 4SM BLDU BKN080 BKN120 BKN250 32/07 A3000 RMK AO2 PK WND 23033/0040 SLP131 CB DSNT SW-W VIS LWR SW T03220072,M
LAS,2021-07-30 00:56,-115.1634,36.0719,663.00,105.00,47.00,14.30,M,5.00,0.00,29.80,1005.60,10.00,M,SCT,SCT,SCT,M,12000.00,16000.00,22000.00,M,M,M,M,M,M,M,M,101.41,KLAS 300056Z VRB05KT 10SM SCT120CB SCT160 SCT220 41/08 A2980 RMK AO2 LTG DSNT SE AND S SLP056 CB E-S AND DSNT ALQDS T04060083,M
INS,2021-07-30 00:58,-115.6733,36.5872,955.00,94.50,48.40,20.85,220.00,20.00,0.00,29.90,1007.10,10.00,M,FEW,M,M,M,20000.00,M,M,M,M,M,M,M,M,M,M,91.10,KINS 300058Z AUTO 22020KT 10SM FEW200 35/09 A2990 RMK AO2 LTG DSNT SW SLP071 T03470091 $,M
LSV,2021-07-30 00:58,-115.0343,36.2362,570.00,105.40,48.20,14.88,70.00,3.00,0.00,29.76,1004.80,10.00,M,M,M,M,M,M,M,M,M,M,M,M,M,M,M,M,102.05,KLSV 300058Z AUTO 07003KT 10SM M 41/09 A2976 RMK AO2 SLP048 T04080090 $,M
CXP,2021-07-30 01:10,-119.7326,39.1923,1431.00,73.40,48.20,40.85,200.00,10.00,0.00,30.23,M,10.00,17.00,CLR,M,M,M,M,M,M,M,M,M,M,M,M,M,M,73.40,KCXP 300110Z AUTO 20010G17KT 160V260 10SM CLR 23/09 A3023 RMK AO2,M
05U,2021-07-30 01:15,-116.0051,39.6042,1811.23,78.80,51.80,39.02,100.00,10.00,0.00,30.23,M,10.00,M,CLR,M,M,M,M,M,M,M,M,M,M,M,M,M,M,78.80,K05U 300115Z AUTO 10010KT 10SM CLR 26/11 A3023 RMK A01,M
MEV,2021-07-30 01:15,-119.7500,38.9963,1441.42,68.00,50.00,52.51,170.00,24.00,0.00,30.21,M,10.00,31.00,SCT,SCT,BKN,M,7000.00,8000.00,10000.00,M,M,M,M,M,M,M,M,68.00,KMEV 300115Z AUTO 17024G31KT 10SM SCT070 SCT080 BKN100 20/10 A3021 RMK AO2,M
HTH,2021-07-30 01:15,-118.6315,38.5448,1282.89,89.60,39.20,17.09,260.00,12.00,0.00,30.03,M,10.00,M,CLR,M,M,M,M,M,M,M,M,M,M,M,M,M,M,85.73,KHTH 300115Z AUTO 26012KT 10SM CLR 32/04 A3003 RMK A01,M
BAM,2021-07-30 01:15,-116.8743,40.5990,1382.36,89.60,44.60,21.04,130.00,14.00,0.00,30.07,M,10.00,M,CLR,M,M,M,M,M,M,M,M,M,M,M,M,M,M,86.07,KBAM 300115Z AUTO 13014KT 10SM CLR 32/07 A3007 RMK AO1,M
BVU,2021-07-30 01:15,-114.8611,35.9475,671.00,93.20,60.80,34.11,170.00,20.00,0.00,29.85,M,9.00,27.00,FEW,FEW,SCT,M,3100.00,4300.00,6000.00,M,VCTS,M,M,M,M,M,M,93.32,KBVU 300115Z AUTO 17020G27KT 9SM VCTS FEW031 FEW043 SCT060 34/16 A2985 RMK AO2 LTG DSNT ALQDS,M
RTS,2021-07-30 01:15,-119.8764,39.6682,1539.00,82.40,39.20,21.51,290.00,7.00,0.00,30.17,M,10.00,13.00,SCT,M,M,M,12000.00,M,M,M,M,M,M,M,M,M,M,80.21,KRTS 300115Z AUTO 29007G13KT 10SM SCT120 28/04 A3017 RMK AO2,M
TMT,2021-07-30 01:15,-117.1971,39.4643,1749.34,84.60,44.40,24.48,80.00,7.00,0.00,30.16,M,10.00,M,SCT,M,M,M,12000.00,M,M,M,M,M,M,M,M,M,M,82.00,KTMT 300115Z AUTO 08007KT 050V130 10SM SCT120 29/07 A3016 RMK AO2 T02920069,M
LAS,2021-07-30 01:24,-115.1634,36.0719,663.00,104.00,47.00,14.78,M,4.00,0.00,29.80,M,10.00,M,SCT,SCT,BKN,M,12000.00,16000.00,22000.00,M,TS,M,M,M,M,M,M,100.33,KLAS 300124Z VRB04KT 10SM TS SCT120CB SCT160 BKN220 40/08 A2980 RMK AO2 LTG DSNT E-SW TSB24 OCNL LTGICCG E-S TS E-S MOV NW CB DSNT ALQDS T04000083,M
INS,2021-07-30 01:26,-115.6733,36.5872,955.00,93.20,48.20,21.54,280.00,10.00,0.00,29.92,1007.80,10.00,M,SCT,M,M,M,12000.00,M,M,M,M,M,M,M,M,M,M,89.80,KINS 300126Z AUTO 28010KT 10SM SCT120 34/09 A2992 RMK AO2 WSHFT 16 LTG DSNT N-NE SLP078 $,M
CXP,2021-07-30 01:30,-119.7326,39.1923,1431.00,71.60,50.00,46.43,200.00,9.00,0.00,30.22,M,10.00,18.00,CLR,M,M,M,M,M,M,M,M,M,M,M,M,M,M,71.60,KCXP 300130Z AUTO 20009G18KT 10SM CLR 22/10 A3022 RMK AO2,M
INS,2021-07-30 01:32,-115.6733,36.5872,955.00,93.20,50.00,23.04,350.00,16.00,0.00,29.93,1008.20,10.00,21.00,BKN,M,M,M,11000.00,M,M,M,M,M,M,M,M,M,M,90.10,KINS 300132Z AUTO 35016G21KT 10SM BKN110 34/10 A2993 RMK AO2 WSHFT 28 LTG DSNT N-NE SLP082 $,M
MEV,2021-07-30 01:35,-119.7500,38.9963,1441.42,69.80,50.00,49.37,170.00,12.00,0.00,30.20,M,10.00,M,SCT,SCT,M,M,6500.00,8000.00,M,M,M,M,M,M,M,M,M,69.80,KMEV 300135Z AUTO 17012KT 10SM SCT065 SCT080 21/10 A3020 RMK AO2,M
BVU,2021-07-30 01:35,-114.8611,35.9475,671.00,87.80,59.00,37.90,140.00,17.00,0.00,29.85,M,10.00,M,FEW,FEW,SCT,M,3600.00,4600.00,6000.00,M,M,M,M,M,M,M,M,87.12,KBVU 300135Z AUTO 14017KT 10SM FEW036 FEW046 SCT060 31/15 A2985 RMK AO2 LTG DSNT SW-NW,M
RTS,2021-07-30 01:35,-119.8764,39.6682,1539.00,80.60,39.20,22.81,290.00,14.00,0.00,30.17,M,10.00,20.00,SCT,M,M,M,12000.00,M,M,M,M,M,M,M,M,M,M,79.10,KRTS 300135Z AUTO 29014G20KT 10SM SCT120 27/04 A3017 RMK AO2,M
TMT,2021-07-30 01:35,-117.1971,39.4643,1749.34,84.20,45.00,25.37,110.00,5.00,0.00,30.16,M,10.00,M,BKN,M,M,M,12000.00,M,M,M,M,M,M,M,M,M,M,81.76,KTMT 300135Z AUTO 11005KT 10SM BKN120 29/07 A3016 RMK AO2 LTG DSNT E T02900072,M
BAM,2021-07-30 01:35,-116.8743,40.5990,1382.36,91.40,41.00,17.32,130.00,12.00,0.00,30.07,M,10.00,M,CLR,M,M,M,M,M,M,M,M,M,M,M,M,M,M,87.40,KBAM 300135Z AUTO 13012KT 10SM CLR 33/05 A3007 RMK AO1,M
HTH,2021-07-30 01:35,-118.6315,38.5448,1282.89,91.40,37.40,15.05,270.00,9.00,0.00,30.03,M,10.00,M,CLR,M,M,M,M,M,M,M,M,M,M,M,M,M,M,87.23,KHTH 300135Z AUTO 27009KT 10SM CLR 33/03 A3003 RMK A01,M
05U,2021-07-30 01:35,-116.0051,39.6042,1811.23,77.00,50.00,38.74,130.00,8.00,0.00,30.24,M,10.00,M,CLR,M,M,M,M,M,M,M,M,M,M,M,M,M,M,77.00,K05U 300135Z AUTO 13008KT 10SM CLR 25/10 A3024 RMK A01,M
DRA,2021-07-30 01:36,-116.0278,36.6206,1009.00,91.00,50.00,24.68,260.00,15.00,0.00,29.91,M,10.00,M,FEW,SCT,BKN,M,7000.00,9000.00,11000.00,M,M,M,M,M,39.00,180.00,2021-07-30 00:56,87.99,KDRA 300136Z AUTO 26015KT 10SM FEW070 SCT090 BKN110 33/10 A2991 RMK AO2 PK WND 18039/0056 WSHFT 0119 T03280100,M
LAS,2021-07-30 01:37,-115.1634,36.0719,663.00,100.00,52.00,20.15,180.00,18.00,0.00,29.82,M,10.00,27.00,SCT,SCT,BKN,M,12000.00,16000.00,22000.00,M,TS,M,M,M,27.00,170.00,2021-07-30 01:37,97.53,KLAS 300137Z 18018G27KT 10SM TS SCT120CB SCT160 BKN220 38/11 A2982 RMK AO2 PK WND 17027/0137 LTG DSNT SE-SW TSB24 OCNL LTGICCG E-S TS E-S MOV NW CB DSNT ALQDS T03780111,M
INS,2021-07-30 01:38,-115.6733,36.5872,955.00,91.40,53.60,27.83,40.00,16.00,0.00,29.93,1008.40,10.00,21.00,BKN,M,M,M,11000.00,M,M,M,M,M,M,M,M,M,M,89.08,KINS 300138Z AUTO 04016G21KT 10SM BKN110 33/12 A2993 RMK AO2 WSHFT 32 LTG DSNT N-E SLP084 $,M
DRA,2021-07-30 01:48,-116.0278,36.6206,1009.00,91.00,50.00,24.68,280.00,12.00,0.00,29.92,M,10.00,21.00,FEW,SCT,SCT,M,5500.00,9000.00,11000.00,M,M,M,M,M,39.00,180.00,2021-07-30 00:56,87.99,KDRA 300148Z AUTO 28012G21KT 10SM FEW055 SCT090 SCT110 33/10 A2992 RMK AO2 PK WND 18039/0056 WSHFT 0131 T03280100,M
LSV,2021-07-30 01:49,-115.0343,36.2362,570.00,104.00,55.40,20.24,30.00,25.00,0.00,29.80,1006.10,10.00,28.00,FEW,M,M,M,13000.00,M,M,M,M,M,M,M,M,M,M,103.01,KLSV 300149Z 03025G28KT 10SM FEW130 40/13 A2980 RMK AO2A WSHFT 39 LTG DSNT S SLP061 $,M
CXP,2021-07-30 01:50,-119.7326,39.1923,1431.00,71.60,48.20,43.42,180.00,9.00,0.00,30.20,M,10.00,18.00,CLR,M,M,M,M,M,M,M,M,M,M,M,M,M,M,71.60,KCXP 300150Z AUTO 18009G18KT 10SM CLR 22/09 A3020 RMK AO2,M
LSV,2021-07-30 01:52,-115.0343,36.2362,570.00,102.20,57.20,22.79,40.00,30.00,0.00,29.82,1006.90,4.00,37.00,SCT,M,M,M,13000.00,M,M,M,BLDU,M,M,M,M,M,M,101.78,KLSV 300152Z 04030G37KT 4SM BLDU SCT130 39/14 A2982 RMK LTG DSNT S PRESRR SLP069 $,M
DRA,2021-07-30 01:53,-116.0278,36.6206,1009.00,92.00,48.00,22.26,280.00,11.00,0.00,29.92,M,10.00,21.00,FEW,SCT,M,M,9000.00,12000.00,M,M,M,M,M,M,39.00,180.00,2021-07-30 00:56,88.53,KDRA 300153Z AUTO 28011G21KT 10SM FEW090 SCT120 33/09 A2992 RMK AO2 PK WND 18039/0056 WSHFT 0131 SLPNO T03330089,M
VGT,2021-07-30 01:53,-115.1933,36.2111,667.00,106.00,47.00,13.93,120.00,7.00,0.00,29.81,1007.50,10.00,M,CLR,M,M,M,M,M,M,M,M,M,M,M,M,M,M,102.30,KVGT 300153Z 12007KT 10SM CLR 41/08 A2981 RMK AO2 LTG DSNT N AND NE AND S SLP075 T04110083 PNO,M
ELY,2021-07-30 01:53,-114.8453,39.2950,1909.00,73.00,50.00,44.29,160.00,10.00,0.00,30.26,1015.70,10.00,18.00,OVC,M,M,M,8500.00,M,M,M,M,M,M,M,M,M,M,73.00,KELY 300153Z AUTO 16010G18KT 10SM OVC085 23/10 A3026 RMK AO2 LTG DSNT NE AND NW SLP157 T02280100,M
P68,2021-07-30 01:53,-116.0056,39.6014,1993.00,75.00,51.00,43.14,100.00,7.00,0.00,30.21,1015.30,M,M,M,M,M,M,M,M,M,M,M,M,M,M,M,M,M,75.00,KP68 300153Z AUTO 10007KT 24/11 A3021 RMK AO1 SLP153 T02390106,M
LOL,2021-07-30 01:53,-118.5701,40.0684,1192.43,97.00,36.00,11.98,360.00,6.00,0.00,29.98,1010.70,10.00,M,CLR,M,M,M,M,M,M,M,M,M,M,M,M,M,M,91.96,KLOL 300153Z AUTO 36006KT 10SM CLR 36/02 A2998 RMK AO2 SLP107 T03610022,M
HTH,2021-07-30 01:55,-118.6315,38.5448,1282.89,89.60,41.00,18.33,260.00,14.00,0.00,30.03,M,10.00,M,CLR,M,M,M,M,M,M,M,M,M,M,M,M,M,M,85.82,KHTH 300155Z AUTO 26014KT 10SM CLR 32/05 A3003 RMK A01,M
BVU,2021-07-30 01:55,-114.8611,35.9475,671.00,91.40,57.20,31.72,220.00,10.00,0.00,29.86,M,10.00,M,FEW,FEW,FEW,M,5500.00,6500.00,7500.00,M,M,M,M,M,M,M,M,90.06,KBVU 300155Z AUTO 22010KT 10SM FEW055 FEW065 FEW075 33/14 A2986 RMK AO2 LTG DSNT SW AND W,M
BAM,2021-07-30 01:55,-116.8743,40.5990,1382.36,91.40,41.00,17.32,130.00,15.00,0.00,30.07,M,10.00,M,CLR,M,M,M,M,M,M,M,M,M,M,M,M,M,M,87.40,KBAM 300155Z AUTO 13015KT 10SM CLR 33/05 A3007 RMK AO1,M
TMT,2021-07-30 01:55,-117.1971,39.4643,1749.34,83.50,45.00,25.95,130.00,4.00,0.00,30.16,M,10.00,M,SCT,M,M,M,12000.00,M,M,M,M,M,M,M,M,M,M,81.26,KTMT 300155Z AUTO 13004KT 10SM SCT120 29/07 A3016 RMK AO2 T02860072,M
05U,2021-07-30 01:55,-116.0051,39.6042,1811.23,75.20,50.00,41.14,0.00,0.00,0.00,30.24,M,10.00,10.00,CLR,M,M,M,M,M,M,M,M,M,M,M,M,M,M,75.20,K05U 300155Z AUTO 00000G10KT 10SM CLR 24/10 A3024 RMK A01,M
MEV,2021-07-30 01:55,-119.7500,38.9963,1441.42,69.80,48.20,46.16,220.00,11.00,0.00,30.18,M,10.00,M,FEW,FEW,BKN,M,6000.00,7500.00,10000.00,M,M,M,M,M,M,M,M,69.80,KMEV 300155Z AUTO 22011KT 10SM FEW060 FEW075 BKN100 21/09 A3018 RMK AO2,M
RTS,2021-07-30 01:55,-119.8764,39.6682,1539.00,80.60,41.00,24.46,250.00,11.00,0.00,30.17,M,10.00,M,CLR,M,M,M,M,M,M,M,M,M,M,M,M,M,M,79.20,KRTS 300155Z AUTO 25011KT 10SM CLR 27/05 A3017 RMK AO2,M
RNO,2021-07-30 01:55,-119.7711,39.4839,1341.00,80.00,49.00,33.58,170.00,17.00,0.00,30.13,1014.80,10.00,25.00,FEW,BKN,BKN,BKN,10000.00,11000.00,15000.00,20000.00,M,M,M,M,28.00,200.00,2021-07-30 00:59,79.50,KRNO 300155Z 17017G25KT 10SM FEW100 BKN110 BKN150 BKN200 27/09 A3013 RMK AO2 PK WND 20028/0059 WSHFT 0138 SLP148 VIRGA CB DSNT SW AND W FU AND HZ ALQDS T02670094,M
HND,2021-07-30 01:56,-115.1344,35.9729,742.79,85.00,61.00,44.65,150.00,18.00,0.01,29.89,1010.80,10.00,32.00,FEW,SCT,BKN,M,6000.00,7000.00,11000.00,M,-TSRA,M,M,M,36.00,190.00,2021-07-30 01:20,85.12,KHND 300156Z 15018G32KT 10SM -TSRA FEW060 SCT070 BKN110 29/16 A2989 RMK AO2 PK WND 19036/0120 LTG DSNT SE AND S RAB27 SLP108 P0001 T02940161,M
WMC,2021-07-30 01:56,-117.8072,40.9019,1315.00,96.00,34.00,11.37,20.00,9.00,0.00,30.03,1011.10,10.00,M,CLR,M,M,M,M,M,M,M,M,M,M,M,M,M,M,90.89,KWMC 300156Z AUTO 02009KT 10SM CLR 36/01 A3003 RMK AO2 SLP111 T03560011,M
EKO,2021-07-30 01:56,-115.7860,40.8242,1367.00,83.00,46.00,27.48,0.00,0.00,0.00,30.12,1014.20,10.00,M,SCT,BKN,M,M,10000.00,12000.00,M,M,M,M,M,M,M,M,M,80.94,KEKO 300156Z AUTO 00000KT 10SM SCT100 BKN120 28/08 A3012 RMK AO2 SLP142 T02830078 $,M
LAS,2021-07-30 01:56,-115.1634,36.0719,663.00,95.00,56.00,27.06,160.00,13.00,0.00,29.83,1007.00,10.00,26.00,SCT,SCT,BKN,M,12000.00,16000.00,22000.00,M,TS,M,M,M,31.00,180.00,2021-07-30 01:38,93.38,KLAS 300156Z 16013G26KT 10SM TS SCT120CB SCT160 BKN220 35/13 A2983 RMK AO2 PK WND 18031/0138 LTG DSNT S TSB24 SLP070 OCNL LTGICCG E-S TS E-S MOV NW CB DSNT ALQDS T03500133,M
NFL,2021-07-30 01:56,-118.7010,39.4166,1199.00,88.00,43.00,20.82,270.00,17.00,0.00,30.01,1013.30,10.00,28.00,BKN,BKN,BKN,M,8000.00,12000.00,25000.00,M,M,M,M,M,31.00,230.00,2021-07-30 00:58,84.58,KNFL 300156Z 27017G28KT 10SM BKN080 BKN120 BKN250 31/06 A3001 RMK AO2 PK WND 23031/0058 SLP133 CB DSNT SW-W VIS LWR SW T03110061,M
TPH,2021-07-30 01:56,-117.0904,38.0505,1654.00,85.00,45.00,24.81,300.00,3.00,0.00,30.13,1011.90,10.00,M,SCT,M,M,M,11000.00,M,M,M,M,M,M,M,M,M,M,82.27,KTPH 300156Z AUTO 30003KT 10SM SCT110 29/07 A3013 RMK AO2 LTG DSNT E SLP119 T02940072,M
INS,2021-07-30 01:58,-115.6733,36.5872,955.00,89.40,54.70,30.85,50.00,15.00,0.00,29.94,1008.70,10.00,M,SCT,M,M,M,11000.00,M,M,M,M,M,M,M,29.00,40.00,2021-07-30 01:34,87.42,KINS 300158Z AUTO 05015KT 10SM SCT110 32/13 A2994 RMK AO2 PK WND 04029/34 LTG DSNT E SLP087 T03190126 $,M
LSV,2021-07-30 01:58,-115.0343,36.2362,570.00,101.00,57.60,23.90,40.00,27.00,0.00,29.83,1007.20,4.00,37.00,SCT,M,M,M,13000.00,M,M,M,M,M,M,M,37.00,40.00,2021-07-30 01:52,100.72,KLSV 300158Z 04027G37KT 4SM SCT130 38/14 A2983 RMK AO2A PK WND 04037/52 SLP072 T03840142 $,M
LSV,2021-07-30 01:59,-115.0343,36.2362,570.00,100.40,57.20,24.06,50.00,35.00,0.00,29.84,1007.60,1.00,43.00,SCT,M,M,M,13000.00,M,M,M,M,M,M,M,M,M,M,99.77,KLSV 300159Z 05035G43KT 1SM SCT130 38/14 A2984 RMK LTG DSNT NE SLP076 $,M
LSV,2021-07-30 02:00,-115.0343,36.2362,570.00,100.40,57.20,24.06,50.00,35.00,0.00,29.84,1007.60,0.50,43.00,SCT,M,M,M,13000.00,M,M,M,BLDU,M,M,M,M,M,M,99.77,KLSV 300200Z COR 05035G43KT 1/2SM BLDU SCT130 38/14 A2984 RMK LTG DSNT NE SLP076 $ COR 0201,M
LSV,2021-07-30 02:01,-115.0343,36.2362,570.00,100.40,57.20,24.06,50.00,35.00,0.00,29.84,1007.50,2.00,43.00,SCT,M,M,M,13000.00,M,M,M,BLDU,M,M,M,M,M,M,99.77,KLSV 300201Z 05035G43KT 2SM BLDU SCT130 38/14 A2984 RMK AO2A LTG DSNT NE SLP075 $,M
HND,2021-07-30 02:05,-115.1344,35.9729,742.79,82.40,62.60,51.21,150.00,25.00,T,29.88,M,10.00,33.00,FEW,SCT,BKN,M,5500.00,7000.00,11000.00,M,VCTS,M,M,M,33.00,150.00,2021-07-30 02:05,83.41,KHND 300205Z 15025G33KT 10SM VCTS FEW055 SCT070 BKN110 28/17 A2988 RMK AO2 PK WND 15033/0205 TSE04B05RAE03 P0000,M
CXP,2021-07-30 02:10,-119.7326,39.1923,1431.00,71.60,48.20,43.42,0.00,0.00,0.00,30.19,M,10.00,M,SCT,BKN,BKN,M,6500.00,7500.00,11000.00,M,M,M,M,M,M,M,M,71.60,KCXP 300210Z AUTO 00000KT 10SM SCT065 BKN075 BKN110 22/09 A3019 RMK AO2,M
LSV,2021-07-30 02:11,-115.0343,36.2362,570.00,95.00,59.00,30.26,50.00,28.00,0.00,29.86,1008.20,4.00,40.00,FEW,SCT,M,M,10000.00,13000.00,M,M,TS BLDU,M,M,M,M,M,M,94.51,KLSV 300211Z 05028G40KT 4SM TS BLDU FEW100 SCT130 35/15 A2986 RMK LTG DSNT NE AND SE AND SW TSB08 PRESRR SLP082 53023 $,M
TMT,2021-07-30 02:15,-117.1971,39.4643,1749.34,82.00,47.00,29.59,130.00,6.00,0.00,30.16,M,10.00,M,BKN,M,M,M,12000.00,M,M,M,M,M,M,M,M,M,M,80.38,KTMT 300215Z AUTO 13006KT 10SM BKN120 28/08 A3016 RMK AO2 T02770084,M
BAM,2021-07-30 02:15,-116.8743,40.5990,1382.36,89.60,39.20,17.09,130.00,11.00,0.00,30.07,M,10.00,18.00,CLR,M,M,M,M,M,M,M,M,M,M,M,M,M,M,85.73,KBAM 300215Z AUTO 13011G18KT 10SM CLR 32/04 A3007 RMK AO1,M
RTS,2021-07-30 02:15,-119.8764,39.6682,1539.00,80.60,41.00,24.46,250.00,8.00,0.00,30.17,M,10.00,M,CLR,M,M,M,M,M,M,M,M,M,M,M,M,M,M,79.20,KRTS 300215Z AUTO 25008KT 10SM CLR 27/05 A3017 RMK AO2,M
BVU,2021-07-30 02:15,-114.8611,35.9475,671.00,89.60,57.20,33.56,210.00,13.00,0.00,29.88,M,8.00,25.00,FEW,FEW,SCT,M,5000.00,8000.00,10000.00,M,M,M,M,M,M,M,M,88.28,KBVU 300215Z AUTO 21013G25KT 8SM FEW050 FEW080 SCT100 32/14 A2988 RMK AO2 LTG DSNT N AND E,M
HTH,2021-07-30 02:15,-118.6315,38.5448,1282.89,87.80,42.80,20.79,M,6.00,0.00,30.05,M,10.00,M,CLR,M,M,M,M,M,M,M,M,M,M,M,M,M,M,84.40,KHTH 300215Z AUTO VRB06KT 10SM CLR 31/06 A3005 RMK A01,M
MEV,2021-07-30 02:15,-119.7500,38.9963,1441.42,68.00,53.60,59.97,80.00,11.00,0.00,30.18,M,9.00,M,FEW,SCT,BKN,M,3000.00,5500.00,8000.00,M,-RA,M,M,M,M,M,M,68.00,KMEV 300215Z AUTO 08011KT 9SM -RA FEW030 SCT055 BKN080 20/12 A3018 RMK AO2,M
05U,2021-07-30 02:15,-116.0051,39.6042,1811.23,77.00,46.40,33.85,140.00,9.00,0.00,30.24,M,10.00,M,CLR,M,M,M,M,M,M,M,M,M,M,M,M,M,M,77.00,K05U 300215Z AUTO 14009KT 10SM CLR 25/08 A3024 RMK A01,M
DRA,2021-07-30 02:16,-116.0278,36.6206,1009.00,91.00,52.00,26.57,30.00,12.00,0.00,29.95,M,10.00,22.00,CLR,M,M,M,M,M,M,M,M,M,M,M,M,M,M,88.35,KDRA 300216Z AUTO 03012G22KT 10SM CLR 33/11 A2995 RMK AO2 WSHFT 0159 T03280111,M
LSV,2021-07-30 02:17,-115.0343,36.2362,570.00,93.20,60.80,34.11,50.00,32.00,0.00,29.86,1008.30,6.00,40.00,SCT,BKN,M,M,10000.00,13000.00,M,M,-TSRA BLDU,M,M,M,M,M,M,93.32,KLSV 300217Z 05032G40KT 6SM -TSRA BLDU SCT100 BKN130 34/16 A2986 RMK LTG DSNT NE AND SE-SW RAB16 TSB11 SLP083 53025 $,M
DRA,2021-07-30 02:23,-116.0278,36.6206,1009.00,92.00,52.00,25.84,60.00,14.00,0.00,29.95,M,10.00,21.00,FEW,M,M,M,12000.00,M,M,M,M,M,M,M,M,M,M,89.21,KDRA 300223Z AUTO 06014G21KT 10SM FEW120 33/11 A2995 RMK AO2 WSHFT 0206 T03330111,M
HND,2021-07-30 02:26,-115.1344,35.9729,742.79,86.00,60.80,42.80,180.00,19.00,T,29.89,M,10.00,32.00,FEW,BKN,M,M,5500.00,11000.00,M,M,-TSRA,M,M,M,33.00,150.00,2021-07-30 02:05,86.05,KHND 300226Z 18019G32KT 10SM -TSRA FEW055 BKN110 30/16 A2989 RMK AO2 PK WND 15033/0205 LTG DSNT S AND SW TSE04B05E20B26 P0000,M
VGT,2021-07-30 02:27,-115.1933,36.2111,667.00,83.00,67.00,58.55,90.00,22.00,0.00,29.91,M,10.00,40.00,FEW,SCT,BKN,M,4800.00,7500.00,12000.00,M,+RA,M,M,M,44.00,130.00,2021-07-30 02:10,85.45,KVGT 300227Z COR 09022G40KT 10SM +RA FEW048 SCT075 BKN120 28/19 A2991 RMK AO2 PK WND 13044/0210 TWR VIS 10 LTG DSNT N AND S RAB22 PRESRR T02830194 PNO,M
VGT,2021-07-30 02:30,-115.1933,36.2111,667.00,84.00,67.00,56.51,100.00,17.00,0.00,29.91,M,10.00,40.00,SCT,SCT,BKN,M,4500.00,7500.00,9500.00,M,+RA,M,M,M,44.00,130.00,2021-07-30 02:10,86.62,KVGT 300230Z 10017G40KT 10SM +RA SCT045 SCT075 BKN095 29/19 A2991 RMK AO2 PK WND 13044/0210 LTG DSNT N AND S RAB22 T02890194 PNO,M
CXP,2021-07-30 02:30,-119.7326,39.1923,1431.00,73.40,48.20,40.85,0.00,0.00,0.00,30.19,M,10.00,M,FEW,BKN,BKN,M,5000.00,6500.00,7500.00,M,M,M,M,M,M,M,M,73.40,KCXP 300230Z AUTO 00000KT 10SM FEW050 BKN065 BKN075 23/09 A3019 RMK AO2,M
LAS,2021-07-30 02:32,-115.1634,36.0719,663.00,92.00,58.00,32.03,30.00,28.00,0.00,29.89,M,10.00,41.00,BKN,BKN,BKN,M,12000.00,15000.00,22000.00,M,TS,M,M,M,41.00,30.00,2021-07-30 02:30,90.80,KLAS 300232Z 03028G41KT 10SM TS BKN120CB BKN150 BKN220 33/14 A2989 RMK AO2 PK WND 03041/0230 WSHFT 0217 LTG DSNT SE-SW OCNL LTGICCG ALQDS TS ALQDS MOV NW T03330144,M
BVU,2021-07-30 02:35,-114.8611,35.9475,671.00,87.80,59.00,37.90,M,4.00,0.00,29.89,M,10.00,12.00,FEW,FEW,M,M,9000.00,12000.00,M,M,M,M,M,M,M,M,M,87.12,KBVU 300235Z AUTO VRB04G12KT 10SM FEW090 FEW120 31/15 A2989 RMK AO2 LTG DSNT W AND NW,M
MEV,2021-07-30 02:35,-119.7500,38.9963,1441.42,66.20,53.60,63.82,140.00,6.00,0.00,30.18,M,10.00,12.00,CLR,M,M,M,M,M,M,M,M,M,M,M,M,M,M,66.20,KMEV 300235Z AUTO 14006G12KT 10SM CLR 19/12 A3018 RMK AO2,M
05U,2021-07-30 02:35,-116.0051,39.6042,1811.23,75.20,46.40,35.94,130.00,8.00,0.00,30.24,M,10.00,15.00,CLR,M,M,M,M,M,M,M,M,M,M,M,M,M,M,75.20,K05U 300235Z AUTO 13008G15KT 10SM CLR 24/08 A3024 RMK A01,M
INS,2021-07-30 02:35,-115.6733,36.5872,955.00,86.00,53.60,33.01,50.00,13.00,0.00,29.98,1009.90,10.00,M,CLR,M,M,M,M,M,M,M,M,M,M,M,M,M,M,84.18,KINS 300235Z AUTO 05013KT 10SM CLR 30/12 A2998 RMK AO2 LTG DSNT N-NE PRESRR SLP099 53022 $,M
RTS,2021-07-30 02:35,-119.8764,39.6682,1539.00,78.80,42.80,27.81,260.00,9.00,0.00,30.18,M,10.00,17.00,CLR,M,M,M,M,M,M,M,M,M,M,M,M,M,M,78.80,KRTS 300235Z AUTO 26009G17KT 10SM CLR 26/06 A3018 RMK AO2,M
HTH,2021-07-30 02:35,-118.6315,38.5448,1282.89,87.80,41.00,19.40,360.00,5.00,0.00,30.06,M,10.00,M,CLR,M,M,M,M,M,M,M,M,M,M,M,M,M,M,84.30,KHTH 300235Z AUTO 36005KT 10SM CLR 31/05 A3006 RMK A01,M
BAM,2021-07-30 02:35,-116.8743,40.5990,1382.36,89.60,41.00,18.33,110.00,13.00,0.00,30.07,M,10.00,M,CLR,M,M,M,M,M,M,M,M,M,M,M,M,M,M,85.82,KBAM 300235Z AUTO 11013KT 10SM CLR 32/05 A3007 RMK AO1,M
TMT,2021-07-30 02:35,-117.1971,39.4643,1749.34,81.00,46.00,29.23,130.00,3.00,0.00,30.16,M,10.00,M,BKN,M,M,M,12000.00,M,M,M,M,M,M,M,M,M,M,79.76,KTMT 300235Z AUTO 13003KT 10SM BKN120 27/08 A3016 RMK AO2 T02720078,M
LSV,2021-07-30 02:39,-115.0343,36.2362,570.00,86.00,66.20,51.72,40.00,24.00,0.00,29.89,1009.50,10.00,35.00,BKN,M,M,M,11000.00,M,M,M,-TSRA,M,M,M,M,M,M,88.39,KLSV 300239Z 04024G35KT 10SM -TSRA BKN110 30/19 A2989 RMK RESRR SLP095 53037 $,M
LAS,2021-07-30 02:41,-115.1634,36.0719,663.00,86.00,67.00,52.99,40.00,31.00,T,29.91,M,8.00,41.00,BKN,BKN,BKN,M,12000.00,15000.00,22000.00,M,-TSRA,M,M,M,41.00,40.00,2021-07-30 02:36,88.77,KLAS 300241Z 04031G41KT 8SM -TSRA BKN120CB BKN150 BKN220 30/19 A2991 RMK AO2 PK WND 04041/0236 WSHFT 0221 LTG DSNT S-NW RAB35 OCNL LTGICCG ALQDS TS ALQDS MOV NW P0000 T03000194,M
HND,2021-07-30 02:47,-115.1344,35.9729,742.79,87.80,57.20,35.53,200.00,9.00,T,29.92,M,10.00,17.00,BKN,M,M,M,12000.00,M,M,M,M,M,M,M,33.00,150.00,2021-07-30 02:05,86.58,KHND 300247Z 20009G17KT 170V240 10SM BKN120 31/14 A2992 RMK AO2 PK WND 15033/0205 LTG DSNT N AND S TSE04B05E20B26E41RAE40 PRESRR P0000,M
CXP,2021-07-30 02:50,-119.7326,39.1923,1431.00,71.60,48.20,43.42,310.00,4.00,0.00,30.17,M,10.00,M,FEW,FEW,M,M,5000.00,7000.00,M,M,M,M,M,M,M,M,M,71.60,KCXP 300250Z AUTO 31004KT 10SM FEW050 FEW070 22/09 A3017 RMK AO2,M
INS,2021-07-30 02:52,-115.6733,36.5872,955.00,86.00,55.40,35.25,20.00,13.00,0.00,29.98,1009.90,10.00,22.00,CLR,M,M,M,M,M,M,M,M,M,M,M,M,M,M,84.54,KINS 300252Z AUTO 02013G22KT 10SM CLR 30/13 A2998 RMK AO2 WSHFT 41 LTG DSNT NE AND NW SLP099 $,M
P68,2021-07-30 02:53,-116.0056,39.6014,1993.00,74.00,50.00,42.97,150.00,10.00,0.00,30.21,1014.50,M,M,M,M,M,M,M,M,M,M,M,M,M,M,M,M,M,73.90,KP68 300253Z AUTO 15010KT 23/10 A3021 RMK AO1 SLP145 T02330100 51005,M
VGT,2021-07-30 02:53,-115.1933,36.2111,667.00,84.00,67.00,56.51,70.00,14.00,0.00,29.92,1011.80,6.00,28.00,BKN,BKN,OVC,M,4600.00,8000.00,9500.00,M,TSRA,M,M,M,44.00,130.00,2021-07-30 02:10,86.62,KVGT 300253Z 07014G28KT 6SM TSRA BKN046 BKN080 OVC095 29/19 A2992 RMK AO2 PK WND 13044/0210 LTG DSNT N AND NW RAB22 TSB47 SLP118 6//// T02890194 53040 PNO,M
LOL,2021-07-30 02:53,-118.5701,40.0684,1192.43,93.00,40.00,15.79,110.00,11.00,0.00,29.99,1010.60,10.00,17.00,CLR,M,M,M,M,M,M,M,M,M,M,M,M,M,M,88.78,KLOL 300253Z AUTO 11011G17KT 10SM CLR 34/04 A2999 RMK AO2 SLP106 T03390044 53003,M
DRA,2021-07-30 02:53,-116.0278,36.6206,1009.00,89.00,56.00,32.53,110.00,12.00,0.00,29.98,M,10.00,M,FEW,BKN,BKN,M,5000.00,9500.00,11000.00,M,M,M,M,M,M,M,M,87.44,KDRA 300253Z AUTO 11012KT 10SM FEW050 BKN095 BKN110 32/13 A2998 RMK AO2 WSHFT 0206 SLPNO T03170133 53019,M
ELY,2021-07-30 02:53,-114.8453,39.2950,1909.00,65.00,56.00,72.61,40.00,16.00,0.00,30.31,1017.60,10.00,24.00,FEW,BKN,BKN,M,7000.00,8000.00,12000.00,M,M,M,M,M,M,M,M,64.90,KELY 300253Z AUTO 04016G24KT 10SM FEW070 BKN080 BKN120 18/13 A3031 RMK AO2 SLP176 T01830133 53025,M
RTS,2021-07-30 02:55,-119.8764,39.6682,1539.00,78.80,42.80,27.81,250.00,12.00,0.00,30.18,M,10.00,M,CLR,M,M,M,M,M,M,M,M,M,M,M,M,M,M,78.80,KRTS 300255Z AUTO 25012KT 10SM CLR 26/06 A3018 RMK AO2,M
05U,2021-07-30 02:55,-116.0051,39.6042,1811.23,75.20,48.20,38.46,150.00,5.00,0.00,30.24,M,10.00,11.00,CLR,M,M,M,M,M,M,M,M,M,M,M,M,M,M,75.20,K05U 300255Z AUTO 15005G11KT 10SM CLR 24/09 A3024 RMK A01,M
MEV,2021-07-30 02:55,-119.7500,38.9963,1441.42,68.00,51.80,56.13,120.00,6.00,0.00,30.17,M,10.00,12.00,FEW,M,M,M,11000.00,M,M,M,M,M,M,M,M,M,M,68.00,KMEV 300255Z AUTO 12006G12KT 10SM FEW110 20/11 A3017 RMK AO2,M
TMT,2021-07-30 02:55,-117.1971,39.4643,1749.34,77.70,47.70,34.74,140.00,3.00,0.00,30.16,M,10.00,M,SCT,M,M,M,12000.00,M,M,M,M,M,M,M,M,M,M,77.70,KTMT 300255Z AUTO 14003KT 10SM SCT120 25/09 A3016 RMK AO2 T02540087,M
RNO,2021-07-30 02:55,-119.7711,39.4839,1341.00,78.00,48.00,34.67,240.00,5.00,0.00,30.12,1014.60,10.00,M,FEW,BKN,BKN,OVC,10000.00,11000.00,15000.00,20000.00,M,M,M,M,26.00,170.00,2021-07-30 02:11,78.10,KRNO 300255Z 24005KT 10SM FEW100 BKN110 BKN150 OVC200 26/09 A3012 RMK AO2 PK WND 17026/0211 WSHFT 0142 SLP146 VIRGA CB DSNT S AND SW HZ VC ALQDS T02560089 50009,M
HTH,2021-07-30 02:55,-118.6315,38.5448,1282.89,86.00,42.80,22.02,170.00,7.00,0.00,30.08,M,10.00,M,CLR,M,M,M,M,M,M,M,M,M,M,M,M,M,M,82.95,KHTH 300255Z AUTO 17007KT 140V200 10SM CLR 30/06 A3008 RMK A01,M
BAM,2021-07-30 02:55,-116.8743,40.5990,1382.36,87.80,41.00,19.40,100.00,9.00,0.00,30.08,M,10.00,M,CLR,M,M,M,M,M,M,M,M,M,M,M,M,M,M,84.30,KBAM 300255Z AUTO 10009KT 10SM CLR 31/05 A3008 RMK AO1,M
BVU,2021-07-30 02:55,-114.8611,35.9475,671.00,89.60,57.20,33.56,220.00,7.00,0.00,29.91,M,10.00,15.00,CLR,M,M,M,M,M,M,M,M,M,M,M,M,M,M,88.28,KBVU 300255Z AUTO 22007G15KT 10SM CLR 32/14 A2991 RMK AO2,M
HND,2021-07-30 02:56,-115.1344,35.9729,742.79,87.00,62.00,43.27,30.00,22.00,T,29.97,1013.00,8.00,26.00,BKN,M,M,M,12000.00,M,M,M,TS,M,M,M,33.00,150.00,2021-07-30 02:05,87.58,KHND 300256Z 03022G26KT 8SM TS BKN120 31/17 A2997 RMK AO2 PK WND 15033/0205 LTG DSNT N AND S AND SW TSE04B05E20B26E41B54RAE40 PRESRR SLP130 P0000 60001 T03060167 53037,M
WMC,2021-07-30 02:56,-117.8072,40.9019,1315.00,91.00,34.00,13.32,20.00,3.00,0.00,30.03,1011.10,10.00,M,CLR,M,M,M,M,M,M,M,M,M,M,M,M,M,M,86.79,KWMC 300256Z AUTO 02003KT 10SM CLR 33/01 A3003 RMK AO2 SLP111 T03280011 55002,M
NFL,2021-07-30 02:56,-118.7010,39.4166,1199.00,82.00,46.00,28.30,250.00,18.00,0.00,30.03,1013.90,9.00,25.00,BKN,BKN,BKN,M,8000.00,12000.00,25000.00,M,M,M,M,M,32.00,270.00,2021-07-30 02:33,80.36,KNFL 300256Z 25018G25KT 9SM BKN080 BKN120 BKN250 28/08 A3003 RMK AO2 PK WND 27032/0233 SLP139 CB DSNT SE-S T02780078 53012,M
TPH,2021-07-30 02:56,-117.0904,38.0505,1654.00,85.00,45.00,24.81,130.00,12.00,0.00,30.15,1011.90,10.00,16.00,BKN,M,M,M,11000.00,M,M,M,M,M,M,M,M,M,M,82.27,KTPH 300256Z AUTO 13012G16KT 10SM BKN110 29/07 A3015 RMK AO2 SLP119 T02940072 53003,M
LAS,2021-07-30 02:56,-115.1634,36.0719,663.00,83.00,66.00,56.75,60.00,20.00,0.00,29.93,1010.80,6.00,40.00,BKN,BKN,BKN,M,12000.00,15000.00,22000.00,M,-TSRA,M,M,M,41.00,40.00,2021-07-30 02:36,85.07,KLAS 300256Z 06020G40KT 6SM -TSRA BKN120CB BKN150 BKN220 28/19 A2993 RMK AO2 PK WND 04041/0236 WSHFT 0221 RAB35 SLP108 OCNL LTGICCG ALQDS TS ALQDS MOV NW 60000 T02830189 53040 PNO $,M
EKO,2021-07-30 02:56,-115.7860,40.8242,1367.00,83.00,45.00,26.46,320.00,5.00,0.00,30.12,1013.60,10.00,M,CLR,M,M,M,M,M,M,M,M,M,M,M,M,M,M,80.86,KEKO 300256Z AUTO 32005KT 10SM CLR 28/07 A3012 RMK AO2 SLP136 T02830072 56005 $,M
LSV,2021-07-30 02:58,-115.0343,36.2362,570.00,87.40,64.00,45.82,30.00,21.00,0.07,29.89,1009.40,10.00,28.00,FEW,M,M,M,12000.00,M,M,M,TS,M,M,M,43.00,50.00,2021-07-30 01:59,88.72,KLSV 300258Z 03021G28KT 10SM TS FEW120 31/18 A2989 RMK PK WND 05043/0159 RAB16E58 TSB08 SLP094 P0007 6//// T03080178 53038 $,M
INS,2021-07-30 02:58,-115.6733,36.5872,955.00,85.60,55.00,35.06,30.00,13.00,0.00,29.99,1010.20,10.00,21.00,CLR,M,M,M,M,M,M,M,M,M,M,M,M,M,M,84.11,KINS 300258Z AUTO 03013G21KT 10SM CLR 30/13 A2999 RMK AO2 LTG DSNT NE AND NW SLP102 T02980127 53025 $,M
VGT,2021-07-30 03:03,-115.1933,36.2111,667.00,86.00,66.00,51.37,360.00,9.00,0.00,29.93,M,7.00,M,SCT,BKN,M,M,4800.00,11000.00,M,M,RA,M,M,M,M,M,M,88.28,KVGT 300303Z 36009KT 7SM RA SCT048 BKN110 30/19 A2993 RMK AO2 LTG DSNT ALQDS TSE02 T03000189 PNO,M
LAS,2021-07-30 03:04,-115.1634,36.0719,663.00,84.00,66.00,54.77,70.00,18.00,0.02,29.94,M,10.00,32.00,BKN,BKN,BKN,M,12000.00,15000.00,22000.00,M,-TSRA,M,M,M,32.00,50.00,2021-07-30 02:57,86.20,KLAS 300304Z 07018G32KT 10SM -TSRA BKN120CB BKN150 BKN220 29/19 A2994 RMK AO2 PK WND 05032/0257 LTG DSNT N AND NW OCNL LTGICCG ALQDS TS ALQDS MOV NW P0002 T02890189 $,M
LOL,2021-07-30 03:10,-118.5701,40.0684,1192.43,92.00,39.00,15.77,110.00,17.00,0.00,30.00,M,8.00,M,FEW,FEW,M,M,6000.00,8000.00,M,M,M,M,M,M,M,M,M,87.74,KLOL 300310Z AUTO 11017KT 8SM FEW060 FEW080 33/04 A3000 RMK AO2 WSHFT 0250 T03330039,M
CXP,2021-07-30 03:10,-119.7326,39.1923,1431.00,71.60,50.00,46.43,200.00,4.00,0.00,30.16,M,10.00,M,CLR,M,M,M,M,M,M,M,M,M,M,M,M,M,M,71.60,KCXP 300310Z AUTO 20004KT 10SM CLR 22/10 A3016 RMK AO2,M
HND,2021-07-30 03:11,-115.1344,35.9729,742.79,82.40,60.80,48.05,90.00,12.00,0.11,29.97,M,8.00,32.00,FEW,BKN,OVC,M,4700.00,9000.00,12000.00,M,TSRA,M,M,M,32.00,10.00,2021-07-30 03:04,82.90,KHND 300311Z AUTO 09012G32KT 8SM TSRA FEW047 BKN090 OVC120 28/16 A2997 RMK AO2 PK WND 01032/0304 WSHFT 0251 LTG DSNT ALQDS RAB0257 P0011,M
05U,2021-07-30 03:15,-116.0051,39.6042,1811.23,73.40,46.40,38.18,150.00,8.00,0.00,30.23,M,10.00,M,CLR,M,M,M,M,M,M,M,M,M,M,M,M,M,M,73.40,K05U 300315Z AUTO 15008KT 10SM CLR 23/08 A3023 RMK A01,M
TPH,2021-07-30 03:15,-117.0904,38.0505,1654.00,80.00,49.00,33.58,120.00,13.00,T,30.15,M,10.00,M,OVC,M,M,M,11000.00,M,M,M,-RA,M,M,M,M,M,M,79.50,KTPH 300315Z AUTO 12013KT 10SM -RA OVC110 27/09 A3015 RMK AO2 WSHFT 0255 RAB03 P0000 T02670094,M
RTS,2021-07-30 03:15,-119.8764,39.6682,1539.00,78.80,42.80,27.81,260.00,9.00,0.00,30.17,M,10.00,16.00,SCT,M,M,M,11000.00,M,M,M,M,M,M,M,M,M,M,78.80,KRTS 300315Z AUTO 26009G16KT 10SM SCT110 26/06 A3017 RMK AO2,M
BVU,2021-07-30 03:15,-114.8611,35.9475,671.00,89.60,55.40,31.45,300.00,3.00,0.00,29.92,M,10.00,M,SCT,M,M,M,12000.00,M,M,M,M,M,M,M,M,M,M,87.78,KBVU 300315Z AUTO 30003KT 10SM SCT120 32/13 A2992 RMK AO2 LTG DSNT S-W,M
BAM,2021-07-30 03:15,-116.8743,40.5990,1382.36,86.00,39.20,19.15,90.00,9.00,0.00,30.08,M,10.00,M,CLR,M,M,M,M,M,M,M,M,M,M,M,M,M,M,82.79,KBAM 300315Z AUTO 09009KT 10SM CLR 30/04 A3008 RMK AO1,M
TMT,2021-07-30 03:15,-117.1971,39.4643,1749.34,76.60,45.00,32.53,100.00,8.00,0.00,30.18,M,10.00,M,SCT,M,M,M,10000.00,M,M,M,M,M,M,M,M,M,M,76.60,KTMT 300315Z AUTO 10008KT 10SM SCT100 25/07 A3018 RMK AO2 T02480072,M
MEV,2021-07-30 03:15,-119.7500,38.9963,1441.42,66.20,51.80,59.74,150.00,6.00,0.00,30.17,M,10.00,M,FEW,SCT,BKN,M,4300.00,5000.00,7000.00,M,M,M,M,M,M,M,M,66.20,KMEV 300315Z AUTO 15006KT 10SM FEW043 SCT050 BKN070 19/11 A3017 RMK AO2,M
HTH,2021-07-30 03:15,-118.6315,38.5448,1282.89,86.00,42.80,22.02,170.00,15.00,0.00,30.10,M,10.00,M,CLR,M,M,M,M,M,M,M,M,M,M,M,M,M,M,82.95,KHTH 300315Z AUTO 17015KT 10SM CLR 30/06 A3010 RMK A01,M
LSV,2021-07-30 03:16,-115.0343,36.2362,570.00,89.60,60.80,38.18,30.00,23.00,0.00,29.90,1009.70,10.00,29.00,FEW,BKN,M,M,13000.00,16000.00,M,M,M,M,M,M,M,M,M,89.54,KLSV 300316Z 03023G29KT 10SM FEW130 BKN160 32/16 A2990 RMK LTG DSNT W-NW TSB0208E15 SLP097 $,M
VGT,2021-07-30 03:17,-115.1933,36.2111,667.00,86.00,68.00,55.04,320.00,12.00,0.00,29.94,M,10.00,19.00,FEW,BKN,M,M,5000.00,12000.00,M,M,VCTS -RA,M,M,M,M,M,M,89.41,KVGT 300317Z 32012G19KT 10SM VCTS -RA FEW050 BKN120 30/20 A2994 RMK AO2 LTG DSNT ALQDS TSE02 PRESRR T03000200 PNO,M
LAS,2021-07-30 03:18,-115.1634,36.0719,663.00,84.00,67.00,56.51,50.00,11.00,0.02,29.95,M,10.00,19.00,BKN,BKN,BKN,M,12000.00,15000.00,22000.00,M,TS,M,M,M,32.00,50.00,2021-07-30 02:57,86.62,KLAS 300318Z 05011G19KT 10SM TS BKN120CB BKN150 BKN220 29/19 A2995 RMK AO2 PK WND 05032/0257 LTG DSNT N AND NW RAE12 OCNL LTGICCG ALQDS TS ALQDS MOV NW P0002 T02890194 $,M
LAS,2021-07-30 03:23,-115.1634,36.0719,663.00,85.00,65.00,51.21,30.00,15.00,0.02,29.95,M,10.00,M,BKN,BKN,BKN,M,12000.00,15000.00,22000.00,M,TS,M,M,M,32.00,50.00,2021-07-30 02:57,86.62,KLAS 300323Z 03015KT 10SM TS BKN120CB BKN150 BKN220 29/18 A2995 RMK AO2 PK WND 05032/0257 LTG DSNT N AND NW RAE12 OCNL LTGICCG ALQDS TS ALQDS MOV NW P0002 T02940183 $,M
INS,2021-07-30 03:25,-115.6733,36.5872,955.00,84.20,55.40,37.35,30.00,8.00,0.00,30.03,1011.60,10.00,M,FEW,M,M,M,14000.00,M,M,M,M,M,M,M,M,M,M,83.09,KINS 300325Z AUTO 03008KT 10SM FEW140 29/13 A3003 RMK AO2 LTG DSNT SE PRESRR SLP116 $,M
LAS,2021-07-30 03:29,-115.1634,36.0719,663.00,85.00,65.00,51.21,30.00,13.00,0.02,29.96,M,10.00,M,BKN,BKN,BKN,M,12000.00,15000.00,22000.00,M,TS,M,M,M,32.00,50.00,2021-07-30 02:57,86.62,KLAS 300329Z 03013KT 10SM TS BKN120CB BKN150 BKN220 29/18 A2996 RMK AO2 PK WND 05032/0257 WSHFT 0313 LTG DSNT SW-N RAE12 OCNL LTGICCG ALQDS TS ALQDS MOV NW P0002 T02940183 $,M
HND,2021-07-30 03:29,-115.1344,35.9729,742.79,78.80,66.20,65.33,210.00,4.00,0.13,29.98,M,10.00,M,FEW,BKN,OVC,M,3100.00,7500.00,10000.00,M,-RA,M,M,M,32.00,10.00,2021-07-30 03:04,78.80,KHND 300329Z AUTO 21004KT 10SM -RA FEW031 BKN075 OVC100 26/19 A2998 RMK AO2 PK WND 01032/0304 WSHFT 0251 LTG DSNT SW-N TSE23RAB0257 P0013,M
CXP,2021-07-30 03:30,-119.7326,39.1923,1431.00,71.60,48.20,43.42,M,6.00,0.00,30.16,M,10.00,M,FEW,M,M,M,11000.00,M,M,M,M,M,M,M,M,M,M,71.60,KCXP 300330Z AUTO VRB06KT 10SM FEW110 22/09 A3016 RMK AO2,M
VGT,2021-07-30 03:33,-115.1933,36.2111,667.00,83.00,66.00,56.75,310.00,18.00,0.00,29.96,M,10.00,23.00,FEW,BKN,M,M,10000.00,12000.00,M,M,-RA,M,M,M,M,M,M,85.07,KVGT 300333Z 31018G23KT 10SM -RA FEW100 BKN120 28/19 A2996 RMK AO2 LTG DSNT N AND NW TSE02 T02830189 PNO,M
BVU,2021-07-30 03:35,-114.8611,35.9475,671.00,89.60,60.80,38.18,360.00,12.00,0.00,29.94,M,10.00,M,FEW,SCT,BKN,M,5000.00,8500.00,12000.00,M,M,M,M,M,M,M,M,89.54,KBVU 300335Z AUTO 36012KT 10SM FEW050 SCT085 BKN120 32/16 A2994 RMK AO2 LTG DSNT N AND NE,M
BAM,2021-07-30 03:35,-116.8743,40.5990,1382.36,86.00,41.00,20.54,90.00,10.00,0.00,30.08,M,10.00,M,CLR,M,M,M,M,M,M,M,M,M,M,M,M,M,M,82.86,KBAM 300335Z AUTO 09010KT 10SM CLR 30/05 A3008 RMK AO1,M
HTH,2021-07-30 03:35,-118.6315,38.5448,1282.89,82.40,48.20,30.35,160.00,17.00,0.00,30.11,M,10.00,23.00,CLR,M,M,M,M,M,M,M,M,M,M,M,M,M,M,80.80,KHTH 300335Z AUTO 16017G23KT 10SM CLR 28/09 A3011 RMK A01,M
TMT,2021-07-30 03:35,-117.1971,39.4643,1749.34,78.00,44.60,30.49,110.00,9.00,0.00,30.19,M,10.00,M,BKN,M,M,M,10000.00,M,M,M,M,M,M,M,M,M,M,78.10,KTMT 300335Z AUTO 11009KT 10SM BKN100 26/07 A3019 RMK AO2 T02560070,M
05U,2021-07-30 03:35,-116.0051,39.6042,1811.23,73.40,48.20,40.85,140.00,9.00,0.00,30.24,M,10.00,M,CLR,M,M,M,M,M,M,M,M,M,M,M,M,M,M,73.40,K05U 300335Z AUTO 14009KT 10SM CLR 23/09 A3024 RMK A01,M
MEV,2021-07-30 03:35,-119.7500,38.9963,1441.42,66.20,51.80,59.74,0.00,0.00,0.00,30.16,M,10.00,M,FEW,SCT,BKN,M,4000.00,5000.00,6500.00,M,M,M,M,M,M,M,M,66.20,KMEV 300335Z AUTO 00000KT 10SM FEW040 SCT050 BKN065 19/11 A3016 RMK AO2,M
RTS,2021-07-30 03:35,-119.8764,39.6682,1539.00,78.80,42.80,27.81,260.00,9.00,0.00,30.18,M,10.00,16.00,FEW,SCT,OVC,M,3900.00,6500.00,11000.00,M,M,M,M,M,M,M,M,78.80,KRTS 300335Z AUTO 26009G16KT 10SM FEW039 SCT065 OVC110 26/06 A3018 RMK AO2,M
LAS,2021-07-30 03:41,-115.1634,36.0719,663.00,85.00,66.00,53.21,350.00,9.00,0.02,29.97,M,10.00,M,SCT,BKN,BKN,OVC,5500.00,9000.00,11000.00,17000.00,M,M,M,M,32.00,50.00,2021-07-30 02:57,87.13,KLAS 300341Z 35009KT 10SM SCT055 BKN090 BKN110 OVC170 29/19 A2997 RMK AO2 PK WND 05032/0257 WSHFT 0313 LTG DSNT SW-N RAE12 TSE41 TS MOV NW P0002 T02940189 $,M
CXP,2021-07-30 03:50,-119.7326,39.1923,1431.00,71.60,48.20,43.42,M,4.00,0.00,30.17,M,10.00,M,FEW,M,M,M,12000.00,M,M,M,M,M,M,M,M,M,M,71.60,KCXP 300350Z AUTO VRB04KT 10SM FEW120 22/09 A3017 RMK AO2,M
P68,2021-07-30 03:53,-116.0056,39.6014,1993.00,72.00,50.00,45.81,150.00,14.00,0.00,30.22,1014.40,M,19.00,M,M,M,M,M,M,M,M,M,M,M,M,M,M,M,72.00,KP68 300353Z AUTO 15014G19KT 22/10 A3022 RMK AO1 SLP144 T02220100,M
VGT,2021-07-30 03:53,-115.1933,36.2111,667.00,83.00,67.00,58.55,310.00,16.00,0.00,29.96,1013.30,10.00,M,BKN,M,M,M,11000.00,M,M,M,-RA,M,M,M,M,M,M,85.45,KVGT 300353Z 31016KT 10SM -RA BKN110 28/19 A2996 RMK AO2 LTG DSNT W AND NW TSE02 SLP133 T02830194 PNO,M
LOL,2021-07-30 03:53,-118.5701,40.0684,1192.43,87.00,46.00,24.02,70.00,17.00,0.00,30.03,1011.60,10.00,26.00,FEW,SCT,M,M,8000.00,12000.00,M,M,M,M,M,M,30.00,90.00,2021-07-30 03:21,84.07,KLOL 300353Z AUTO 07017G26KT 10SM FEW080 SCT120 31/08 A3003 RMK AO2 PK WND 09030/0321 WSHFT 0250 SLP116 T03060078,M
ELY,2021-07-30 03:53,-114.8453,39.2950,1909.00,65.00,54.00,67.76,30.00,13.00,0.00,30.32,1017.50,10.00,M,OVC,M,M,M,9500.00,M,M,M,M,M,M,M,M,M,M,64.90,KELY 300353Z AUTO 03013KT 10SM OVC095 18/12 A3032 RMK AO2 SLP175 T01830122,M
DRA,2021-07-30 03:53,-116.0278,36.6206,1009.00,86.00,56.00,35.90,70.00,15.00,T,30.04,M,10.00,19.00,FEW,M,M,M,11000.00,M,M,M,M,M,M,M,31.00,120.00,2021-07-30 02:57,84.66,KDRA 300353Z AUTO 07015G19KT 10SM FEW110 30/13 A3004 RMK AO2 PK WND 12031/0257 RAB00E10 SLPNO P0000 T03000133,M
TMT,2021-07-30 03:55,-117.1971,39.4643,1749.34,77.20,45.70,32.75,220.00,12.00,0.00,30.21,M,10.00,15.00,BKN,BKN,M,M,10000.00,12000.00,M,M,M,M,M,M,M,M,M,77.20,KTMT 300355Z AUTO 22012G15KT 10SM BKN100 BKN120 25/08 A3021 RMK AO2 T02510076,M
BAM,2021-07-30 03:55,-116.8743,40.5990,1382.36,82.40,41.00,23.07,100.00,6.00,0.00,30.09,M,10.00,M,CLR,M,M,M,M,M,M,M,M,M,M,M,M,M,M,80.29,KBAM 300355Z AUTO 10006KT 10SM CLR 28/05 A3009 RMK AO1,M
RNO,2021-07-30 03:55,-119.7711,39.4839,1341.00,81.00,46.00,29.23,M,4.00,0.00,30.11,1013.50,10.00,M,FEW,BKN,OVC,M,10000.00,11000.00,15000.00,M,M,M,M,M,M,M,M,79.76,KRNO 300355Z VRB04KT 10SM FEW100 BKN110 OVC150 27/08 A3011 RMK AO2 SLP135 VIRGA CB DSNT SW THRU W HZ VC ALQDS T02720078,M
05U,2021-07-30 03:55,-116.0051,39.6042,1811.23,71.60,50.00,46.43,150.00,10.00,0.00,30.24,M,10.00,17.00,CLR,M,M,M,M,M,M,M,M,M,M,M,M,M,M,71.60,K05U 300355Z AUTO 15010G17KT 10SM CLR 22/10 A3024 RMK A01,M
MEV,2021-07-30 03:55,-119.7500,38.9963,1441.42,66.20,51.80,59.74,150.00,4.00,0.00,30.16,M,10.00,M,FEW,SCT,BKN,M,3900.00,6500.00,11000.00,M,M,M,M,M,M,M,M,66.20,KMEV 300355Z AUTO 15004KT 10SM FEW039 SCT065 BKN110 19/11 A3016 RMK AO2,M
BVU,2021-07-30 03:55,-114.8611,35.9475,671.00,87.80,60.80,40.41,340.00,9.00,0.00,29.95,M,10.00,15.00,FEW,SCT,BKN,M,3400.00,5000.00,6500.00,M,M,M,M,M,M,M,M,87.75,KBVU 300355Z AUTO 34009G15KT 10SM FEW034 SCT050 BKN065 31/16 A2995 RMK AO2,M
HTH,2021-07-30 03:55,-118.6315,38.5448,1282.89,82.40,44.60,26.49,200.00,13.00,0.00,30.11,M,10.00,M,CLR,M,M,M,M,M,M,M,M,M,M,M,M,M,M,80.50,KHTH 300355Z AUTO 20013KT 10SM CLR 28/07 A3011 RMK A01,M
RTS,2021-07-30 03:55,-119.8764,39.6682,1539.00,78.80,42.80,27.81,330.00,15.00,0.00,30.18,M,10.00,M,FEW,SCT,BKN,M,4400.00,6500.00,7500.00,M,M,M,M,M,M,M,M,78.80,KRTS 300355Z AUTO 33015KT 10SM FEW044 SCT065 BKN075 26/06 A3018 RMK AO2,M
TPH,2021-07-30 03:56,-117.0904,38.0505,1654.00,79.00,51.00,37.78,110.00,4.00,T,30.18,1013.10,10.00,M,FEW,OVC,M,M,5000.00,9000.00,M,M,-RA,M,M,M,M,M,M,79.00,KTPH 300356Z AUTO 11004KT 10SM -RA FEW050 OVC090 26/11 A3018 RMK AO2 WSHFT 0255 RAB03 SLP131 P0000 T02610106,M
HND,2021-07-30 03:56,-115.1344,35.9729,742.79,82.00,67.00,60.28,10.00,4.00,0.13,30.02,1015.00,10.00,M,FEW,SCT,BKN,M,4800.00,6000.00,11000.00,M,-RA,M,M,M,32.00,10.00,2021-07-30 03:04,84.48,KHND 300356Z AUTO 01004KT 10SM -RA FEW048 SCT060 BKN110 28/19 A3002 RMK AO2 PK WND 01032/0304 WSHFT 0251 LTG DSNT SW-N TSE23RAB0257 SLP150 P0013 T02780194,M
INS,2021-07-30 03:56,-115.6733,36.5872,955.00,82.40,57.20,42.25,90.00,19.00,0.00,30.07,1013.00,10.00,M,BKN,BKN,M,M,11000.00,14000.00,M,M,M,M,M,M,M,M,M,82.08,KINS 300356Z AUTO 09019KT 10SM BKN110 BKN140 28/14 A3007 RMK AO2 LTG DSNT E-SE PRESRR SLP130 $,M
WMC,2021-07-30 03:56,-117.8072,40.9019,1315.00,86.00,36.00,16.89,80.00,4.00,0.00,30.05,1011.50,10.00,M,CLR,M,M,M,M,M,M,M,M,M,M,M,M,M,M,82.70,KWMC 300356Z AUTO 08004KT 10SM CLR 30/02 A3005 RMK AO2 SLP115 T03000022,M
LAS,2021-07-30 03:56,-115.1634,36.0719,663.00,83.00,65.00,54.62,320.00,14.00,0.02,29.99,1012.50,10.00,M,SCT,BKN,BKN,OVC,5500.00,9000.00,11000.00,17000.00,-RA,M,M,M,32.00,50.00,2021-07-30 02:57,84.64,KLAS 300356Z 32014KT 10SM -RA SCT055 BKN090 BKN110 OVC170 28/18 A2999 RMK AO2 PK WND 05032/0257 WSHFT 0313 LTG DSNT SW-N RAE12B44 TSE41 SLP125 TS MOV NW P0002 T02830183 $,M
EKO,2021-07-30 03:56,-115.7860,40.8242,1367.00,79.00,47.00,32.29,0.00,0.00,0.00,30.15,1014.40,10.00,M,CLR,M,M,M,M,M,M,M,M,M,M,M,M,M,M,79.00,KEKO 300356Z AUTO 00000KT 10SM CLR 26/08 A3015 RMK AO2 SLP144 T02610083 $,M
NFL,2021-07-30 03:56,-118.7010,39.4166,1199.00,83.00,44.00,25.57,240.00,8.00,0.00,30.04,1014.20,10.00,M,BKN,BKN,BKN,M,8000.00,12000.00,25000.00,M,M,M,M,M,M,M,M,80.80,KNFL 300356Z 24008KT 10SM BKN080 BKN120 BKN250 28/07 A3004 RMK AO2 SLP142 T02830067,M
LSV,2021-07-30 03:58,-115.0343,36.2362,570.00,89.40,59.70,36.94,30.00,17.00,T,29.96,1011.80,10.00,M,FEW,SCT,OVC,M,7000.00,9000.00,11000.00,M,M,M,M,M,30.00,20.00,2021-07-30 03:05,88.91,KLSV 300358Z 03017KT 10SM FEW070 SCT090 OVC110 32/15 A2996 RMK PK WND 02030/05 LTG DSNT NW DZB0258E0259 TSE16 PRESRR SLP118 P0000 T03190154 $,M
INS,2021-07-30 03:59,-115.6733,36.5872,955.00,81.70,57.00,42.91,90.00,18.00,0.00,30.07,1013.00,10.00,M,BKN,BKN,M,M,11000.00,14000.00,M,M,M,M,M,M,28.00,80.00,2021-07-30 03:31,81.53,KINS 300359Z AUTO 09018KT 10SM BKN110 BKN140 28/14 A3007 RMK AO2 PK WND 08028/31 LTG DSNT E-SE SLP130 T02760139 $,M
INS,2021-07-30 04:06,-115.6733,36.5872,955.00,82.40,57.20,42.25,120.00,15.00,0.00,30.07,1013.00,10.00,M,FEW,BKN,M,M,11000.00,14000.00,M,M,M,M,M,M,M,M,M,82.08,KINS 300406Z AUTO 12015KT 10SM FEW110 BKN140 28/14 A3007 RMK AO2 WSHFT 0359 LTG DSNT E SLP130 $,M
CXP,2021-07-30 04:10,-119.7326,39.1923,1431.00,71.60,48.20,43.42,0.00,0.00,0.00,30.16,M,10.00,M,BKN,M,M,M,11000.00,M,M,M,M,M,M,M,M,M,M,71.60,KCXP 300410Z AUTO 00000KT 10SM BKN110 22/09 A3016 RMK AO2,M
TMT,2021-07-30 04:15,-117.1971,39.4643,1749.34,74.80,47.00,37.12,220.00,11.00,0.00,30.22,M,10.00,15.00,BKN,M,M,M,10000.00,M,M,M,M,M,M,M,M,M,M,74.80,KTMT 300415Z AUTO 22011G15KT 10SM BKN100 24/08 A3022 RMK AO2 LTG DSNT SW T02380083,M
MEV,2021-07-30 04:15,-119.7500,38.9963,1441.42,66.20,51.80,59.74,120.00,5.00,0.00,30.16,M,10.00,M,BKN,M,M,M,12000.00,M,M,M,M,M,M,M,M,M,M,66.20,KMEV 300415Z AUTO 12005KT 10SM BKN120 19/11 A3016 RMK AO2,M
BVU,2021-07-30 04:15,-114.8611,35.9475,671.00,87.80,60.80,40.41,330.00,13.00,0.00,29.97,M,10.00,M,FEW,FEW,BKN,M,5000.00,6500.00,12000.00,M,M,M,M,M,M,M,M,87.75,KBVU 300415Z AUTO 33013KT 10SM FEW050 FEW065 BKN120 31/16 A2997 RMK AO2,M
RTS,2021-07-30 04:15,-119.8764,39.6682,1539.00,77.00,44.60,31.62,290.00,17.00,0.00,30.18,M,10.00,22.00,FEW,SCT,SCT,M,5500.00,6500.00,7500.00,M,M,M,M,M,M,M,M,77.00,KRTS 300415Z AUTO 29017G22KT 10SM FEW055 SCT065 SCT075 25/07 A3018 RMK AO2,M
BAM,2021-07-30 04:15,-116.8743,40.5990,1382.36,80.60,41.00,24.46,80.00,4.00,0.00,30.09,M,10.00,M,CLR,M,M,M,M,M,M,M,M,M,M,M,M,M,M,79.20,KBAM 300415Z AUTO 08004KT 10SM CLR 27/05 A3009 RMK AO1,M
HTH,2021-07-30 04:15,-118.6315,38.5448,1282.89,82.40,42.80,24.72,200.00,9.00,0.00,30.11,M,10.00,M,CLR,M,M,M,M,M,M,M,M,M,M,M,M,M,M,80.39,KHTH 300415Z AUTO 20009KT 10SM CLR 28/06 A3011 RMK A01,M
05U,2021-07-30 04:15,-116.0051,39.6042,1811.23,71.60,50.00,46.43,150.00,10.00,0.00,30.24,M,10.00,16.00,CLR,M,M,M,M,M,M,M,M,M,M,M,M,M,M,71.60,K05U 300415Z AUTO 15010G16KT 10SM CLR 22/10 A3024 RMK A01,M
LSV,2021-07-30 04:26,-115.0343,36.2362,570.00,87.80,60.80,40.41,40.00,13.00,0.00,29.97,1012.10,10.00,22.00,FEW,SCT,BKN,M,9000.00,12000.00,14000.00,M,-DZ,M,M,M,M,M,M,87.75,KLSV 300426Z AUTO 04013G22KT 10SM -DZ FEW090 SCT120 BKN140 31/16 A2997 RMK AO2 DZB26 SLP121 $,M
CXP,2021-07-30 04:30,-119.7326,39.1923,1431.00,71.60,50.00,46.43,0.00,0.00,0.00,30.17,M,10.00,M,SCT,M,M,M,11000.00,M,M,M,M,M,M,M,M,M,M,71.60,KCXP 300430Z AUTO 00000KT 10SM SCT110 22/10 A3017 RMK AO2,M
BVU,2021-07-30 04:35,-114.8611,35.9475,671.00,86.00,60.80,42.80,320.00,15.00,0.00,29.99,M,10.00,M,BKN,M,M,M,12000.00,M,M,M,M,M,M,M,M,M,M,86.05,KBVU 300435Z AUTO 32015KT 10SM BKN120 30/16 A2999 RMK AO2,M
HTH,2021-07-30 04:35,-118.6315,38.5448,1282.89,84.20,42.80,23.33,210.00,7.00,0.00,30.11,M,10.00,M,CLR,M,M,M,M,M,M,M,M,M,M,M,M,M,M,81.61,KHTH 300435Z AUTO 21007KT 10SM CLR 29/06 A3011 RMK A01,M
RTS,2021-07-30 04:35,-119.8764,39.6682,1539.00,77.00,42.80,29.51,280.00,10.00,0.00,30.18,M,10.00,18.00,FEW,M,M,M,11000.00,M,M,M,M,M,M,M,M,M,M,77.00,KRTS 300435Z AUTO 28010G18KT 10SM FEW110 25/06 A3018 RMK AO2,M
05U,2021-07-30 04:35,-116.0051,39.6042,1811.23,69.80,50.00,49.37,160.00,11.00,0.00,30.25,M,10.00,19.00,CLR,M,M,M,M,M,M,M,M,M,M,M,M,M,M,69.80,K05U 300435Z AUTO 16011G19KT 10SM CLR 21/10 A3025 RMK A01,M
MEV,2021-07-30 04:35,-119.7500,38.9963,1441.42,66.20,51.80,59.74,140.00,6.00,0.00,30.17,M,10.00,M,BKN,M,M,M,11000.00,M,M,M,M,M,M,M,M,M,M,66.20,KMEV 300435Z AUTO 14006KT 10SM BKN110 19/11 A3017 RMK AO2,M
TMT,2021-07-30 04:35,-117.1971,39.4643,1749.34,73.60,47.80,39.98,210.00,14.00,0.00,30.24,M,10.00,M,BKN,BKN,M,M,10000.00,12000.00,M,M,M,M,M,M,M,M,M,73.60,KTMT 300435Z AUTO 21014KT 10SM BKN100 BKN120 23/09 A3024 RMK AO2 T02310088,M
BAM,2021-07-30 04:35,-116.8743,40.5990,1382.36,80.60,41.00,24.46,90.00,6.00,0.00,30.10,M,10.00,M,CLR,M,M,M,M,M,M,M,M,M,M,M,M,M,M,79.20,KBAM 300435Z AUTO 09006KT 10SM CLR 27/05 A3010 RMK AO1,M
LSV,2021-07-30 04:36,-115.0343,36.2362,570.00,89.60,59.00,35.81,10.00,9.00,0.00,29.97,1012.10,10.00,24.00,BKN,M,M,M,13000.00,M,M,M,M,M,M,M,M,M,M,88.86,KLSV 300436Z AUTO 01009G24KT 10SM BKN130 32/15 A2997 RMK AO2 DZB26E36 SLP121 $,M
LSV,2021-07-30 04:41,-115.0343,36.2362,570.00,89.60,60.80,38.18,10.00,7.00,0.00,29.98,1012.40,10.00,M,BKN,M,M,M,12000.00,M,M,M,-DZ,M,M,M,M,M,M,89.54,KLSV 300441Z AUTO 01007KT 10SM -DZ BKN120 32/16 A2998 RMK AO2 DZB26E36DZB41 SLP124 $,M
LSV,2021-07-30 04:50,-115.0343,36.2362,570.00,87.80,62.60,43.07,20.00,7.00,0.00,29.98,1012.40,10.00,M,SCT,M,M,M,12000.00,M,M,M,M,M,M,M,M,M,M,88.48,KLSV 300450Z AUTO 02007KT 10SM SCT120 31/17 A2998 RMK AO2 DZB26E36DZB41E50 SLP124 $,M
CXP,2021-07-30 04:50,-119.7326,39.1923,1431.00,71.60,50.00,46.43,290.00,4.00,0.00,30.18,M,10.00,M,FEW,BKN,BKN,M,8000.00,10000.00,12000.00,M,M,M,M,M,M,M,M,71.60,KCXP 300450Z AUTO 29004KT 10SM FEW080 BKN100 BKN120 22/10 A3018 RMK AO2,M
LOL,2021-07-30 04:53,-118.5701,40.0684,1192.43,84.00,45.00,25.54,190.00,4.00,0.00,30.06,1012.80,10.00,M,CLR,M,M,M,M,M,M,M,M,M,M,M,M,M,M,81.61,KLOL 300453Z AUTO 19004KT 10SM CLR 29/07 A3006 RMK AO2 SLP128 T02890072,M
VGT,2021-07-30 04:53,-115.1933,36.2111,667.00,84.00,65.00,52.71,320.00,9.00,0.00,30.01,1014.80,10.00,M,FEW,M,M,M,6500.00,M,M,M,M,M,M,M,M,M,M,85.72,KVGT 300453Z AUTO 32009KT 10SM FEW065 29/18 A3001 RMK AO2 LTG DSNT N AND NW RAE0356B26E39 SLP148 T02890183 PNO,M
P68,2021-07-30 04:53,-116.0056,39.6014,1993.00,70.00,51.00,51.07,150.00,14.00,0.00,30.22,1014.40,M,22.00,M,M,M,M,M,M,M,M,M,M,M,M,M,M,M,70.00,KP68 300453Z AUTO 15014G22KT 21/11 A3022 RMK AO1 SLP144 T02110106,M
DRA,2021-07-30 04:53,-116.0278,36.6206,1009.00,83.00,57.00,41.27,100.00,18.00,0.00,30.04,M,10.00,33.00,CLR,M,M,M,M,M,M,M,M,M,M,M,33.00,90.00,2021-07-30 04:31,82.41,KDRA 300453Z AUTO 10018G33KT 10SM CLR 28/14 A3004 RMK AO2 PK WND 09033/0431 SLPNO T02830139,M
ELY,2021-07-30 04:53,-114.8453,39.2950,1909.00,63.00,56.00,77.61,20.00,10.00,0.00,30.30,1016.70,10.00,M,OVC,M,M,M,11000.00,M,M,M,M,M,M,M,M,M,M,63.00,KELY 300453Z AUTO 02010KT 10SM OVC110 17/13 A3030 RMK AO2 SLP167 T01720133,M
BAM,2021-07-30 04:55,-116.8743,40.5990,1382.36,82.40,42.80,24.72,60.00,3.00,0.00,30.12,M,10.00,M,CLR,M,M,M,M,M,M,M,M,M,M,M,M,M,M,80.39,KBAM 300455Z AUTO 06003KT 10SM CLR 28/06 A3012 RMK AO1,M
BVU,2021-07-30 04:55,-114.8611,35.9475,671.00,86.00,60.80,42.80,320.00,12.00,0.00,30.02,M,10.00,19.00,OVC,M,M,M,11000.00,M,M,M,M,M,M,M,M,M,M,86.05,KBVU 300455Z AUTO 32012G19KT 10SM OVC110 30/16 A3002 RMK AO2,M
RTS,2021-07-30 04:55,-119.8764,39.6682,1539.00,77.00,42.80,29.51,280.00,8.00,0.00,30.18,M,10.00,M,SCT,M,M,M,12000.00,M,M,M,M,M,M,M,M,M,M,77.00,KRTS 300455Z AUTO 28008KT 10SM SCT120 25/06 A3018 RMK AO2,M
TMT,2021-07-30 04:55,-117.1971,39.4643,1749.34,72.00,49.00,44.30,210.00,18.00,0.00,30.24,M,10.00,22.00,SCT,M,M,M,11000.00,M,M,M,M,M,M,M,M,M,M,72.00,KTMT 300455Z AUTO 21018G22KT 10SM SCT110 22/10 A3024 RMK AO2 T02220095,M
HTH,2021-07-30 04:55,-118.6315,38.5448,1282.89,84.20,42.80,23.33,120.00,4.00,0.00,30.12,M,10.00,M,FEW,FEW,SCT,M,7500.00,9000.00,11000.00,M,M,M,M,M,M,M,M,81.61,KHTH 300455Z AUTO 12004KT 10SM FEW075 FEW090 SCT110 29/06 A3012 RMK A01,M
05U,2021-07-30 04:55,-116.0051,39.6042,1811.23,69.80,50.00,49.37,150.00,9.00,0.00,30.25,M,10.00,18.00,CLR,M,M,M,M,M,M,M,M,M,M,M,M,M,M,69.80,K05U 300455Z AUTO 15009G18KT 10SM CLR 21/10 A3025 RMK A01,M
MEV,2021-07-30 04:55,-119.7500,38.9963,1441.42,66.20,51.80,59.74,180.00,7.00,0.00,30.17,M,10.00,12.00,SCT,M,M,M,11000.00,M,M,M,M,M,M,M,M,M,M,66.20,KMEV 300455Z AUTO 18007G12KT 10SM SCT110 19/11 A3017 RMK AO2,M
RNO,2021-07-30 04:55,-119.7711,39.4839,1341.00,82.00,44.00,26.33,260.00,7.00,0.00,30.13,1013.70,10.00,M,SCT,OVC,M,M,11000.00,13000.00,M,M,M,M,M,M,M,M,M,80.22,KRNO 300455Z 26007KT 10SM SCT110 OVC130 28/07 A3013 RMK AO2 SLP137 T02780067,M
NFL,2021-07-30 04:56,-118.7010,39.4166,1199.00,83.00,44.00,25.57,160.00,10.00,0.00,30.08,1015.40,10.00,M,SCT,SCT,BKN,M,8000.00,12000.00,25000.00,M,M,M,M,M,M,M,M,80.80,KNFL 300456Z 16010KT 10SM SCT080 SCT120 BKN250 28/07 A3008 RMK AO2 SLP154 T02830067,M
EKO,2021-07-30 04:56,-115.7860,40.8242,1367.00,77.00,47.00,34.50,180.00,5.00,0.00,30.17,1015.00,10.00,M,CLR,M,M,M,M,M,M,M,M,M,M,M,M,M,M,77.00,KEKO 300456Z AUTO 18005KT 10SM CLR 25/08 A3017 RMK AO2 SLP150 T02500083 $,M
TPH,2021-07-30 04:56,-117.0904,38.0505,1654.00,78.00,50.00,37.36,20.00,9.00,T,30.20,1013.60,10.00,M,FEW,FEW,BKN,M,8000.00,9000.00,11000.00,M,M,M,M,M,M,M,M,78.10,KTPH 300456Z AUTO 02009KT 10SM FEW080 FEW090 BKN110 26/10 A3020 RMK AO2 LTG DSNT SW RAE11 SLP136 P0000 T02560100,M
HND,2021-07-30 04:56,-115.1344,35.9729,742.79,82.00,67.00,60.28,250.00,7.00,T,30.06,1016.40,10.00,M,SCT,BKN,OVC,M,6500.00,9000.00,11000.00,M,M,M,M,M,M,M,M,84.48,KHND 300456Z AUTO 25007KT 10SM SCT065 BKN090 OVC110 28/19 A3006 RMK AO2 RAE09 SLP164 P0000 T02780194,M
WMC,2021-07-30 04:56,-117.8072,40.9019,1315.00,82.00,41.00,23.37,190.00,6.00,0.00,30.06,1011.90,10.00,M,CLR,M,M,M,M,M,M,M,M,M,M,M,M,M,M,80.04,KWMC 300456Z AUTO 19006KT 10SM CLR 28/05 A3006 RMK AO2 SLP119 T02780050,M
LAS,2021-07-30 04:56,-115.1634,36.0719,663.00,85.00,62.00,46.42,300.00,9.00,T,30.02,1013.70,10.00,M,FEW,FEW,OVC,M,5500.00,11000.00,14000.00,M,M,M,M,M,M,M,M,85.49,KLAS 300456Z 30009KT 10SM FEW055 FEW110 OVC140 29/17 A3002 RMK AO2 LTG DSNT NW RAE0357 SLP137 VIRGA SW-NW P0000 T02940167 $,M
INS,2021-07-30 04:58,-115.6733,36.5872,955.00,79.50,59.20,49.90,90.00,19.00,0.00,30.09,1013.90,10.00,M,CLR,M,M,M,M,M,M,M,M,M,M,M,M,M,M,79.50,KINS 300458Z AUTO 09019KT 10SM CLR 26/15 A3009 RMK AO2 LTG DSNT E SLP139 T02640151 $,M
LSV,2021-07-30 04:58,-115.0343,36.2362,570.00,87.40,61.50,41.96,40.00,9.00,T,29.98,1012.40,10.00,M,BKN,M,M,M,12000.00,M,M,M,M,M,M,M,33.00,10.00,2021-07-30 04:11,87.63,KLSV 300458Z AUTO 04009KT 10SM BKN120 31/16 A2998 RMK AO2 PK WND 01033/11 DZB26E36DZB41E50 SLP124 P0000 T03080164 $,M
LSV,2021-07-30 04:59,-115.0343,36.2362,570.00,87.80,62.60,43.07,40.00,8.00,0.00,29.99,1012.80,10.00,M,BKN,M,M,M,12000.00,M,M,M,-DZ,M,M,M,M,M,M,88.48,KLSV 300459Z AUTO 04008KT 10SM -DZ BKN120 31/17 A2999 RMK AO2 DZB59 SLP128 $,M
CXP,2021-07-30 05:10,-119.7326,39.1923,1431.00,71.60,51.80,49.64,0.00,0.00,0.00,30.19,M,10.00,M,FEW,SCT,BKN,M,3200.00,5500.00,7500.00,M,-DZ,M,M,M,M,M,M,71.60,KCXP 300510Z AUTO 00000KT 10SM -DZ FEW032 SCT055 BKN075 22/11 A3019 RMK AO2,M
INS,2021-07-30 05:12,-115.6733,36.5872,955.00,78.80,60.80,54.05,100.00,14.00,0.00,30.10,1014.00,10.00,M,FEW,M,M,M,12000.00,M,M,M,-DZ,M,M,M,M,M,M,78.80,KINS 300512Z AUTO 10014KT 10SM -DZ FEW120 26/16 A3010 RMK AO2 DZB12 SLP140 $,M
BAM,2021-07-30 05:15,-116.8743,40.5990,1382.36,78.80,42.80,27.81,70.00,7.00,0.00,30.12,M,10.00,M,CLR,M,M,M,M,M,M,M,M,M,M,M,M,M,M,78.80,KBAM 300515Z AUTO 07007KT 10SM CLR 26/06 A3012 RMK AO1,M
MEV,2021-07-30 05:15,-119.7500,38.9963,1441.42,66.20,53.60,63.82,310.00,4.00,0.00,30.18,M,8.00,M,FEW,M,M,M,12000.00,M,M,M,M,M,M,M,M,M,M,66.20,KMEV 300515Z AUTO 31004KT 8SM FEW120 19/12 A3018 RMK AO2,M
05U,2021-07-30 05:15,-116.0051,39.6042,1811.23,69.80,48.20,46.16,120.00,9.00,0.00,30.26,M,10.00,18.00,CLR,M,M,M,M,M,M,M,M,M,M,M,M,M,M,69.80,K05U 300515Z AUTO 12009G18KT 10SM CLR 21/09 A3026 RMK A01,M
BVU,2021-07-30 05:15,-114.8611,35.9475,671.00,86.00,60.80,42.80,300.00,11.00,0.00,30.03,M,10.00,M,FEW,SCT,OVC,M,6000.00,7500.00,11000.00,M,M,M,M,M,M,M,M,86.05,KBVU 300515Z AUTO 30011KT 10SM FEW060 SCT075 OVC110 30/16 A3003 RMK AO2,M
HTH,2021-07-30 05:15,-118.6315,38.5448,1282.89,82.40,46.40,28.36,150.00,11.00,0.00,30.12,M,10.00,M,BKN,BKN,OVC,M,7000.00,8500.00,11000.00,M,M,M,M,M,M,M,M,80.64,KHTH 300515Z AUTO 15011KT 10SM BKN070 BKN085 OVC110 28/08 A3012 RMK A01,M
TMT,2021-07-30 05:15,-117.1971,39.4643,1749.34,71.60,49.00,44.90,210.00,16.00,0.00,30.24,M,10.00,M,BKN,M,M,M,11000.00,M,M,M,M,M,M,M,M,M,M,71.60,KTMT 300515Z AUTO 21016KT 10SM BKN110 22/10 A3024 RMK AO2 T02200095,M
LSV,2021-07-30 05:15,-115.0343,36.2362,570.00,84.20,66.20,54.80,0.00,0.00,0.00,29.99,1012.90,10.00,M,BKN,M,M,M,12000.00,M,M,M,M,M,M,M,M,M,M,86.50,KLSV 300515Z AUTO 00000KT 10SM BKN120 29/19 A2999 RMK AO2 DZB0459E15 SLP129 $,M
RTS,2021-07-30 05:15,-119.8764,39.6682,1539.00,78.80,39.20,24.19,290.00,10.00,0.00,30.18,M,10.00,16.00,FEW,FEW,BKN,M,7000.00,8000.00,11000.00,M,M,M,M,M,M,M,M,78.80,KRTS 300515Z AUTO 29010G16KT 10SM FEW070 FEW080 BKN110 26/04 A3018 RMK AO2,M
INS,2021-07-30 05:22,-115.6733,36.5872,955.00,77.00,62.60,61.13,100.00,13.00,0.00,30.10,1014.20,10.00,M,FEW,FEW,M,M,700.00,12000.00,M,M,-DZ,M,M,M,M,M,M,77.00,KINS 300522Z AUTO 10013KT 10SM -DZ FEW007 FEW120 25/17 A3010 RMK AO2 DZB12 SLP142 $,M
CXP,2021-07-30 05:30,-119.7326,39.1923,1431.00,69.80,51.80,52.77,M,4.00,0.00,30.18,M,10.00,M,SCT,BKN,OVC,M,4800.00,6000.00,8000.00,M,M,M,M,M,M,M,M,69.80,KCXP 300530Z AUTO VRB04KT 10SM SCT048 BKN060 OVC080 21/11 A3018 RMK AO2,M
RTS,2021-07-30 05:35,-119.8764,39.6682,1539.00,78.80,39.20,24.19,260.00,13.00,0.00,30.17,M,10.00,M,FEW,BKN,M,M,8000.00,11000.00,M,M,M,M,M,M,M,M,M,78.80,KRTS 300535Z AUTO 26013KT 10SM FEW080 BKN110 26/04 A3017 RMK AO2,M
BAM,2021-07-30 05:35,-116.8743,40.5990,1382.36,78.80,42.80,27.81,70.00,7.00,0.00,30.13,M,10.00,M,CLR,M,M,M,M,M,M,M,M,M,M,M,M,M,M,78.80,KBAM 300535Z AUTO 07007KT 10SM CLR 26/06 A3013 RMK AO1,M
MEV,2021-07-30 05:35,-119.7500,38.9963,1441.42,66.20,53.60,63.82,20.00,6.00,0.00,30.18,M,10.00,M,SCT,M,M,M,12000.00,M,M,M,M,M,M,M,M,M,M,66.20,KMEV 300535Z AUTO 02006KT 10SM SCT120 19/12 A3018 RMK AO2,M
05U,2021-07-30 05:35,-116.0051,39.6042,1811.23,69.80,48.20,46.16,170.00,10.00,0.00,30.26,M,10.00,M,CLR,M,M,M,M,M,M,M,M,M,M,M,M,M,M,69.80,K05U 300535Z AUTO 17010KT 10SM CLR 21/09 A3026 RMK A01,M
HTH,2021-07-30 05:35,-118.6315,38.5448,1282.89,80.60,50.00,34.41,170.00,10.00,0.00,30.12,M,10.00,M,FEW,SCT,OVC,M,5000.00,7000.00,8000.00,M,M,M,M,M,M,M,M,79.88,KHTH 300535Z AUTO 17010KT 10SM FEW050 SCT070 OVC080 27/10 A3012 RMK A01,M
BVU,2021-07-30 05:35,-114.8611,35.9475,671.00,86.00,60.80,42.80,300.00,7.00,0.00,30.03,M,10.00,M,FEW,SCT,BKN,M,6000.00,7500.00,11000.00,M,M,M,M,M,M,M,M,86.05,KBVU 300535Z AUTO 30007KT 10SM FEW060 SCT075 BKN110 30/16 A3003 RMK AO2,M
TMT,2021-07-30 05:35,-117.1971,39.4643,1749.34,71.00,49.00,45.67,210.00,12.00,0.00,30.24,M,10.00,M,BKN,M,M,M,12000.00,M,M,M,M,M,M,M,M,M,M,71.10,KTMT 300535Z AUTO 21012KT 10SM BKN120 22/10 A3024 RMK AO2 T02170095,M
INS,2021-07-30 05:42,-115.6733,36.5872,955.00,75.20,66.20,73.61,120.00,10.00,0.00,30.10,1014.20,10.00,M,BKN,M,M,M,2900.00,M,M,M,-RA,M,M,M,M,M,M,75.20,KINS 300542Z AUTO 12010KT 10SM -RA BKN029 24/19 A3010 RMK AO2 DZB12E27RAB27 SLP142 $,M
CXP,2021-07-30 05:50,-119.7326,39.1923,1431.00,69.80,50.00,49.37,M,4.00,0.00,30.19,M,10.00,M,FEW,SCT,BKN,M,4700.00,6000.00,7000.00,M,M,M,M,M,M,M,M,69.80,KCXP 300550Z AUTO VRB04KT 10SM FEW047 SCT060 BKN070 21/10 A3019 RMK AO2,M
VGT,2021-07-30 05:53,-115.1933,36.2111,667.00,84.00,63.00,49.32,330.00,10.00,0.00,30.02,1015.10,10.00,M,FEW,M,M,M,10000.00,M,M,M,M,M,M,M,M,M,M,84.99,KVGT 300553Z AUTO 33010KT 10SM FEW100 29/17 A3002 RMK AO2 SLP151 6//// T02890172 10417 20278 51031 PNO,M
ELY,2021-07-30 05:53,-114.8453,39.2950,1909.00,63.00,55.00,75.11,360.00,10.00,0.00,30.28,1015.90,10.00,M,OVC,M,M,M,9500.00,M,M,M,M,M,M,M,M,M,M,63.00,KELY 300553Z AUTO 36010KT 10SM OVC095 17/13 A3028 RMK AO2 SLP159 T01720128 10278 20172 58007,M
LOL,2021-07-30 05:53,-118.5701,40.0684,1192.43,80.00,45.00,28.99,220.00,6.00,0.00,30.08,1013.30,8.00,M,CLR,M,M,M,M,M,M,M,M,M,M,M,M,M,M,79.18,KLOL 300553Z AUTO 22006KT 8SM CLR 27/07 A3008 RMK AO2 SLP133 T02670072 10372 20267 51026,M
DRA,2021-07-30 05:53,-116.0278,36.6206,1009.00,77.00,62.00,60.06,110.00,21.00,0.00,30.08,M,10.00,29.00,FEW,OVC,M,M,7500.00,10000.00,M,M,M,M,M,M,32.00,120.00,2021-07-30 05:12,77.00,KDRA 300553Z AUTO 11021G29KT 10SM FEW075 OVC100 25/17 A3008 RMK AO2 PK WND 12032/0512 SLPNO 60000 T02500167 10383 20250 51031,M
P68,2021-07-30 05:53,-116.0056,39.6014,1993.00,70.00,50.00,49.03,140.00,8.00,0.00,30.24,1014.70,M,15.00,M,M,M,M,M,M,M,M,M,M,M,M,M,M,M,70.00,KP68 300553Z AUTO 14008G15KT 21/10 A3024 RMK AO1 SLP147 T02110100 10272 20211 53006,M
RTS,2021-07-30 05:55,-119.8764,39.6682,1539.00,78.80,39.20,24.19,310.00,8.00,0.00,30.17,M,10.00,15.00,BKN,M,M,M,11000.00,M,M,M,M,M,M,M,M,M,M,78.80,KRTS 300555Z AUTO 31008G15KT 10SM BKN110 26/04 A3017 RMK AO2,M
HTH,2021-07-30 05:55,-118.6315,38.5448,1282.89,80.60,48.20,32.18,160.00,10.00,0.00,30.12,M,10.00,M,FEW,FEW,BKN,M,6500.00,7500.00,12000.00,M,M,M,M,M,M,M,M,79.71,KHTH 300555Z AUTO 16010KT 10SM FEW065 FEW075 BKN120 27/09 A3012 RMK A01,M
TMT,2021-07-30 05:55,-117.1971,39.4643,1749.34,69.80,49.00,47.74,210.00,12.00,0.00,30.24,M,10.00,M,SCT,M,M,M,12000.00,M,M,M,M,M,M,M,M,M,M,69.80,KTMT 300555Z AUTO 21012KT 10SM SCT120 21/10 A3024 RMK AO2 T02100095 10306 20210,M
RNO,2021-07-30 05:55,-119.7711,39.4839,1341.00,78.00,46.00,32.15,140.00,6.00,0.00,30.11,1013.10,10.00,M,FEW,BKN,OVC,M,9000.00,11000.00,13000.00,M,M,M,M,M,M,M,M,78.10,KRNO 300555Z 14006KT 10SM FEW090 BKN110 OVC130 26/08 A3011 RMK AO2 SLP131 T02560078 10317 20256 58004,M
BAM,2021-07-30 05:55,-116.8743,40.5990,1382.36,77.00,42.80,29.51,60.00,6.00,0.00,30.12,M,10.00,M,CLR,M,M,M,M,M,M,M,M,M,M,M,M,M,M,77.00,KBAM 300555Z AUTO 06006KT 10SM CLR 25/06 A3012 RMK AO1,M
MEV,2021-07-30 05:55,-119.7500,38.9963,1441.42,64.40,53.60,67.95,130.00,5.00,0.00,30.18,M,10.00,M,FEW,FEW,BKN,M,6000.00,7000.00,11000.00,M,M,M,M,M,M,M,M,64.40,KMEV 300555Z AUTO 13005KT 10SM FEW060 FEW070 BKN110 18/12 A3018 RMK AO2,M
BVU,2021-07-30 05:55,-114.8611,35.9475,671.00,86.00,60.80,42.80,310.00,8.00,0.00,30.03,M,10.00,14.00,BKN,M,M,M,11000.00,M,M,M,M,M,M,M,M,M,M,86.05,KBVU 300555Z AUTO 31008G14KT 10SM BKN110 30/16 A3003 RMK AO2,M
05U,2021-07-30 05:55,-116.0051,39.6042,1811.23,69.80,48.20,46.16,140.00,8.00,0.00,30.26,M,10.00,M,CLR,M,M,M,M,M,M,M,M,M,M,M,M,M,M,69.80,K05U 300555Z AUTO 14008KT 10SM CLR 21/09 A3026 RMK A01,M
WMC,2021-07-30 05:56,-117.8072,40.9019,1315.00,81.00,42.00,25.19,180.00,6.00,0.00,30.07,1012.00,10.00,M,CLR,M,M,M,M,M,M,M,M,M,M,M,M,M,M,79.49,KWMC 300556Z AUTO 18006KT 10SM CLR 27/06 A3007 RMK AO2 SLP120 T02720056 10367 20250 51013,M
TPH,2021-07-30 05:56,-117.0904,38.0505,1654.00,75.00,52.00,44.59,340.00,6.00,0.00,30.21,1013.80,10.00,M,BKN,M,M,M,12000.00,M,M,M,M,M,M,M,M,M,M,75.00,KTPH 300556Z AUTO 34006KT 10SM BKN120 24/11 A3021 RMK AO2 SLP138 60000 T02390111 10317 20239 51018,M
EKO,2021-07-30 05:56,-115.7860,40.8242,1367.00,74.00,47.00,38.26,250.00,8.00,0.00,30.17,1014.90,10.00,M,CLR,M,M,M,M,M,M,M,M,M,M,M,M,M,M,73.90,KEKO 300556Z AUTO 25008KT 10SM CLR 23/08 A3017 RMK AO2 SLP149 T02330083 10283 20233 51015 $,M
NFL,2021-07-30 05:56,-118.7010,39.4166,1199.00,80.00,45.00,28.99,160.00,6.00,0.00,30.08,1015.50,10.00,M,SCT,SCT,BKN,M,8000.00,12000.00,25000.00,M,M,M,M,M,M,M,M,79.18,KNFL 300556Z 16006KT 10SM SCT080 SCT120 BKN250 27/07 A3008 RMK AO2 SLP155 T02670072 10367 20267 51016,M
LAS,2021-07-30 05:56,-115.1634,36.0719,663.00,85.00,62.00,46.42,310.00,7.00,0.00,30.04,1014.00,10.00,M,FEW,BKN,OVC,M,5500.00,12000.00,14000.00,M,M,M,M,M,M,M,M,85.49,KLAS 300556Z 31007KT 10SM FEW055 BKN120 OVC140 29/17 A3004 RMK AO2 SLP140 SHRA OBSCURES MTNS DSNT W-NW 60002 T02940167 10411 20283 51033 $,M
HND,2021-07-30 05:56,-115.1344,35.9729,742.79,82.00,67.00,60.28,210.00,4.00,0.00,30.07,1016.70,10.00,M,BKN,M,M,M,12000.00,M,M,M,M,M,M,M,M,M,M,84.48,KHND 300556Z AUTO 21004KT 10SM BKN120 28/19 A3007 RMK AO2 SLP167 60014 T02780194 10406 20261 51034,M
INS,2021-07-30 05:58,-115.6733,36.5872,955.00,73.40,66.00,77.65,120.00,8.00,T,30.10,1014.20,10.00,M,SCT,M,M,M,2700.00,M,M,M,-DZ,M,M,M,M,M,M,73.40,KINS 300558Z AUTO 12008KT 10SM -DZ SCT027 23/19 A3010 RMK AO2 DZB12E27RAB27E56DZB56 SLP142 P0000 60000 T02300189 10368 20230 51035 $,M
LSV,2021-07-30 05:58,-115.0343,36.2362,570.00,84.70,64.60,51.00,240.00,3.00,T,30.01,1013.50,10.00,M,FEW,OVC,M,M,8500.00,12000.00,M,M,M,M,M,M,M,M,M,86.29,KLSV 300558Z AUTO 24003KT 10SM FEW085 OVC120 29/18 A3001 RMK AO2 DZB0459E15 SLP135 P0000 60007 T02930181 10412 20289 52037 $,M
INS,2021-07-30 06:03,-115.6733,36.5872,955.00,73.40,66.20,78.19,100.00,6.00,0.00,30.10,1014.40,10.00,M,SCT,M,M,M,3000.00,M,M,M,M,M,M,M,M,M,M,73.40,KINS 300603Z AUTO 10006KT 10SM SCT030 23/19 A3010 RMK AO2 DZE03DZB03 SLP144 $,M
INS,2021-07-30 06:10,-115.6733,36.5872,955.00,73.40,66.20,78.19,70.00,6.00,0.00,30.10,1014.20,10.00,M,FEW,M,M,M,900.00,M,M,M,M,M,M,M,M,M,M,73.40,KINS 300610Z AUTO 07006KT 10SM FEW009 23/19 A3010 RMK AO2 DZE03DZB03E03 SLP142 $,M
CXP,2021-07-30 06:10,-119.7326,39.1923,1431.00,69.80,50.00,49.37,310.00,3.00,0.00,30.17,M,10.00,M,FEW,SCT,OVC,M,5500.00,7500.00,11000.00,M,M,M,M,M,M,M,M,69.80,KCXP 300610Z AUTO 31003KT 10SM FEW055 SCT075 OVC110 21/10 A3017 RMK AO2,M
05U,2021-07-30 06:15,-116.0051,39.6042,1811.23,69.80,48.20,46.16,120.00,5.00,0.00,30.27,M,10.00,M,CLR,M,M,M,M,M,M,M,M,M,M,M,M,M,M,69.80,K05U 300615Z AUTO 12005KT 10SM CLR 21/09 A3027 RMK A01,M
TMT,2021-07-30 06:15,-117.1971,39.4643,1749.34,69.00,49.00,48.90,210.00,8.00,0.00,30.24,M,10.00,M,CLR,M,M,M,M,M,M,M,M,M,M,M,M,M,M,69.10,KTMT 300615Z AUTO 21008KT 10SM CLR 21/10 A3024 RMK AO2 T02060095,M
MEV,2021-07-30 06:15,-119.7500,38.9963,1441.42,62.60,53.60,72.38,170.00,6.00,0.00,30.17,M,10.00,M,SCT,M,M,M,11000.00,M,M,M,M,M,M,M,M,M,M,62.60,KMEV 300615Z AUTO 17006KT 10SM SCT110 17/12 A3017 RMK AO2,M
HTH,2021-07-30 06:15,-118.6315,38.5448,1282.89,80.60,48.20,32.18,180.00,8.00,0.00,30.13,M,10.00,M,FEW,M,M,M,12000.00,M,M,M,M,M,M,M,M,M,M,79.71,KHTH 300615Z AUTO 18008KT 10SM FEW120 27/09 A3013 RMK A01,M
BAM,2021-07-30 06:15,-116.8743,40.5990,1382.36,77.00,42.80,29.51,70.00,4.00,0.00,30.13,M,10.00,M,CLR,M,M,M,M,M,M,M,M,M,M,M,M,M,M,77.00,KBAM 300615Z AUTO 07004KT 10SM CLR 25/06 A3013 RMK AO1,M
BVU,2021-07-30 06:15,-114.8611,35.9475,671.00,86.00,60.80,42.80,320.00,12.00,0.00,30.03,M,10.00,M,BKN,BKN,M,M,9500.00,11000.00,M,M,M,M,M,M,M,M,M,86.05,KBVU 300615Z AUTO 32012KT 10SM BKN095 BKN110 30/16 A3003 RMK AO2,M
RTS,2021-07-30 06:15,-119.8764,39.6682,1539.00,77.00,41.00,27.53,0.00,0.00,0.00,30.18,M,10.00,M,SCT,OVC,M,M,9500.00,11000.00,M,M,M,M,M,M,M,M,M,77.00,KRTS 300615Z AUTO 00000KT 10SM SCT095 OVC110 25/05 A3018 RMK AO2,M
CXP,2021-07-30 06:30,-119.7326,39.1923,1431.00,69.80,51.80,52.77,0.00,0.00,0.00,30.18,M,10.00,M,BKN,M,M,M,11000.00,M,M,M,M,M,M,M,M,M,M,69.80,KCXP 300630Z AUTO 00000KT 10SM BKN110 21/11 A3018 RMK AO2,M
HTH,2021-07-30 06:35,-118.6315,38.5448,1282.89,80.60,46.40,30.07,180.00,5.00,0.00,30.13,M,10.00,M,CLR,M,M,M,M,M,M,M,M,M,M,M,M,M,M,79.56,KHTH 300635Z AUTO 18005KT 10SM CLR 27/08 A3013 RMK A01,M
MEV,2021-07-30 06:35,-119.7500,38.9963,1441.42,62.60,53.60,72.38,160.00,5.00,0.00,30.19,M,10.00,M,CLR,M,M,M,M,M,M,M,M,M,M,M,M,M,M,62.60,KMEV 300635Z AUTO 16005KT 10SM CLR 17/12 A3019 RMK AO2,M
05U,2021-07-30 06:35,-116.0051,39.6042,1811.23,66.20,48.20,52.25,0.00,0.00,0.00,30.27,M,10.00,M,CLR,M,M,M,M,M,M,M,M,M,M,M,M,M,M,66.20,K05U 300635Z AUTO 00000KT 10SM CLR 19/09 A3027 RMK A01,M
BAM,2021-07-30 06:35,-116.8743,40.5990,1382.36,75.20,42.80,31.34,80.00,4.00,0.00,30.13,M,10.00,M,CLR,M,M,M,M,M,M,M,M,M,M,M,M,M,M,75.20,KBAM 300635Z AUTO 08004KT 10SM CLR 24/06 A3013 RMK AO1,M
TMT,2021-07-30 06:35,-117.1971,39.4643,1749.34,66.70,49.00,53.11,190.00,4.00,0.00,30.25,M,10.00,M,CLR,M,M,M,M,M,M,M,M,M,M,M,M,M,M,66.70,KTMT 300635Z AUTO 19004KT 10SM CLR 19/10 A3025 RMK AO2 T01930095,M
BVU,2021-07-30 06:35,-114.8611,35.9475,671.00,86.00,60.80,42.80,350.00,9.00,0.00,30.04,M,10.00,M,OVC,M,M,M,9000.00,M,M,M,M,M,M,M,M,M,M,86.05,KBVU 300635Z AUTO 35009KT 10SM OVC090 30/16 A3004 RMK AO2,M
RTS,2021-07-30 06:35,-119.8764,39.6682,1539.00,78.80,39.20,24.19,0.00,0.00,0.00,30.19,M,10.00,10.00,OVC,M,M,M,10000.00,M,M,M,M,M,M,M,M,M,M,78.80,KRTS 300635Z AUTO 00000G10KT 10SM OVC100 26/04 A3019 RMK AO2,M
CXP,2021-07-30 06:50,-119.7326,39.1923,1431.00,69.80,50.00,49.37,280.00,5.00,0.00,30.19,M,10.00,M,BKN,M,M,M,12000.00,M,M,M,M,M,M,M,M,M,M,69.80,KCXP 300650Z AUTO 28005KT 10SM BKN120 21/10 A3019 RMK AO2,M
ELY,2021-07-30 06:53,-114.8453,39.2950,1909.00,63.00,56.00,77.61,40.00,7.00,0.00,30.29,1015.80,10.00,M,BKN,M,M,M,11000.00,M,M,M,M,M,M,M,M,M,M,63.00,KELY 300653Z AUTO 04007KT 10SM BKN110 17/13 A3029 RMK AO2 SLP158 T01720133,M
LOL,2021-07-30 06:53,-118.5701,40.0684,1192.43,79.00,46.00,31.21,280.00,7.00,0.00,30.06,1012.50,10.00,M,CLR,M,M,M,M,M,M,M,M,M,M,M,M,M,M,79.00,KLOL 300653Z AUTO 28007KT 10SM CLR 26/08 A3006 RMK AO2 SLP125 T02610078,M
DRA,2021-07-30 06:53,-116.0278,36.6206,1009.00,75.00,61.00,61.75,80.00,16.00,T,30.05,M,10.00,26.00,SCT,BKN,M,M,10000.00,12000.00,M,M,-RA,M,M,M,30.00,90.00,2021-07-30 06:09,75.00,KDRA 300653Z AUTO 08016G26KT 10SM -RA SCT100 BKN120 24/16 A3005 RMK AO2 PK WND 09030/0609 RAB17 SLPNO P0000 T02390161,M
P68,2021-07-30 06:53,-116.0056,39.6014,1993.00,66.00,50.00,56.27,200.00,5.00,0.00,30.25,1015.10,M,M,M,M,M,M,M,M,M,M,M,M,M,M,M,M,M,66.00,KP68 300653Z AUTO 20005KT 19/10 A3025 RMK AO1 SLP151 T01890100,M
VGT,2021-07-30 06:53,-115.1933,36.2111,667.00,84.00,64.00,51.08,70.00,7.00,0.00,30.03,1015.40,10.00,M,SCT,BKN,BKN,M,7000.00,9500.00,12000.00,M,M,M,M,M,M,M,M,85.36,KVGT 300653Z AUTO 07007KT 10SM SCT070 BKN095 BKN120 29/18 A3003 RMK AO2 RAB00E29 SLP154 T02890178 PNO,M
BAM,2021-07-30 06:55,-116.8743,40.5990,1382.36,73.40,42.80,33.29,80.00,6.00,0.00,30.13,M,10.00,M,CLR,M,M,M,M,M,M,M,M,M,M,M,M,M,M,73.40,KBAM 300655Z AUTO 08006KT 10SM CLR 23/06 A3013 RMK AO1,M
HTH,2021-07-30 06:55,-118.6315,38.5448,1282.89,80.60,46.40,30.07,150.00,5.00,0.00,30.13,M,10.00,M,CLR,M,M,M,M,M,M,M,M,M,M,M,M,M,M,79.56,KHTH 300655Z AUTO 15005KT 10SM CLR 27/08 A3013 RMK A01,M
RNO,2021-07-30 06:55,-119.7711,39.4839,1341.00,79.00,47.00,32.29,130.00,4.00,0.00,30.13,1013.50,10.00,M,BKN,OVC,M,M,12000.00,15000.00,M,M,M,M,M,M,M,M,M,79.00,KRNO 300655Z 13004KT 10SM BKN120 OVC150 26/08 A3013 RMK AO2 SLP135 T02610083,M
TMT,2021-07-30 06:55,-117.1971,39.4643,1749.34,64.80,49.00,56.74,190.00,6.00,0.00,30.24,M,10.00,M,CLR,M,M,M,M,M,M,M,M,M,M,M,M,M,M,64.80,KTMT 300655Z AUTO 19006KT 10SM CLR 18/10 A3024 RMK AO2 T01820095,M
RTS,2021-07-30 06:55,-119.8764,39.6682,1539.00,77.00,41.00,27.53,270.00,7.00,0.00,30.18,M,10.00,M,FEW,SCT,OVC,M,5000.00,7000.00,11000.00,M,M,M,M,M,M,M,M,77.00,KRTS 300655Z AUTO 27007KT 10SM FEW050 SCT070 OVC110 25/05 A3018 RMK AO2,M
05U,2021-07-30 06:55,-116.0051,39.6042,1811.23,66.20,48.20,52.25,0.00,0.00,0.00,30.27,M,10.00,M,FEW,M,M,M,11000.00,M,M,M,M,M,M,M,M,M,M,66.20,K05U 300655Z AUTO 00000KT 10SM FEW110 19/09 A3027 RMK A01,M
MEV,2021-07-30 06:55,-119.7500,38.9963,1441.42,62.60,53.60,72.38,130.00,5.00,0.00,30.18,M,10.00,M,CLR,M,M,M,M,M,M,M,M,M,M,M,M,M,M,62.60,KMEV 300655Z AUTO 13005KT 10SM CLR 17/12 A3018 RMK AO2,M
BVU,2021-07-30 06:55,-114.8611,35.9475,671.00,86.00,59.00,40.14,320.00,10.00,0.00,30.03,M,10.00,M,SCT,BKN,OVC,M,7000.00,9500.00,12000.00,M,M,M,M,M,M,M,M,85.47,KBVU 300655Z AUTO 32010KT 10SM SCT070 BKN095 OVC120 30/15 A3003 RMK AO2,M
NFL,2021-07-30 06:56,-118.7010,39.4166,1199.00,79.00,45.00,30.05,M,5.00,0.00,30.09,1015.50,9.00,M,SCT,SCT,BKN,M,8000.00,12000.00,25000.00,M,M,M,M,M,M,M,M,79.00,KNFL 300656Z VRB05KT 9SM SCT080 SCT120 BKN250 26/07 A3009 RMK AO2 SLP155 T02610072,M
HND,2021-07-30 06:56,-115.1344,35.9729,742.79,82.00,63.00,52.62,340.00,5.00,0.00,30.07,1016.70,10.00,M,BKN,BKN,M,M,8500.00,11000.00,M,M,M,M,M,M,M,M,M,83.17,KHND 300656Z AUTO 34005KT 10SM BKN085 BKN110 28/17 A3007 RMK AO2 SLP167 T02780172 404110261,M
EKO,2021-07-30 06:56,-115.7860,40.8242,1367.00,75.00,49.00,39.75,220.00,6.00,0.00,30.18,1015.10,10.00,M,CLR,M,M,M,M,M,M,M,M,M,M,M,M,M,M,75.00,KEKO 300656Z AUTO 22006KT 10SM CLR 24/09 A3018 RMK AO2 SLP151 T02390094 $,M
TPH,2021-07-30 06:56,-117.0904,38.0505,1654.00,74.00,50.00,42.97,300.00,5.00,0.00,30.22,1014.10,10.00,M,BKN,BKN,M,M,10000.00,12000.00,M,M,M,M,M,M,M,M,M,73.90,KTPH 300656Z AUTO 30005KT 10SM BKN100 BKN120 23/10 A3022 RMK AO2 SLP141 T02330100,M
LAS,2021-07-30 06:56,-115.1634,36.0719,663.00,82.00,63.00,52.62,20.00,9.00,0.02,30.04,1014.20,9.00,M,OVC,M,M,M,9000.00,M,M,M,M,M,M,M,M,M,M,83.17,KLAS 300656Z 02009KT 9SM OVC090 28/17 A3004 RMK AO2 RAB08E25B46E52 SLP142 VIS LWR W-N VCSH W-N P0002 T02780172 $,M
WMC,2021-07-30 06:56,-117.8072,40.9019,1315.00,82.00,43.00,25.24,20.00,6.00,0.00,30.09,1012.30,10.00,M,CLR,M,M,M,M,M,M,M,M,M,M,M,M,M,M,80.15,KWMC 300656Z AUTO 02006KT 10SM CLR 28/06 A3009 RMK AO2 SLP123 T02780061,M
LSV,2021-07-30 06:58,-115.0343,36.2362,570.00,82.00,64.00,54.67,110.00,6.00,0.00,30.01,1013.50,10.00,M,OVC,M,M,M,10000.00,M,M,M,M,M,M,M,M,M,M,83.38,KLSV 300658Z AUTO 11006KT 10SM OVC100 28/18 A3001 RMK AO2 SLP135 T02770178 $,M
INS,2021-07-30 06:58,-115.6733,36.5872,955.00,74.80,63.50,67.90,340.00,8.00,T,30.09,1013.70,10.00,M,SCT,M,M,M,12000.00,M,M,M,M,M,M,M,M,M,M,74.80,KINS 300658Z AUTO 34008KT 10SM SCT120 24/18 A3009 RMK AO2 DZE03DZB03E03 SLP137 P0000 T02380175 $,M
CXP,2021-07-30 07:10,-119.7326,39.1923,1431.00,68.00,51.80,56.13,M,5.00,0.00,30.19,M,10.00,M,BKN,M,M,M,12000.00,M,M,M,M,M,M,M,M,M,M,68.00,KCXP 300710Z AUTO VRB05KT 10SM BKN120 20/11 A3019 RMK AO2,M
BVU,2021-07-30 07:15,-114.8611,35.9475,671.00,84.20,59.00,42.52,330.00,7.00,0.00,30.03,M,10.00,M,FEW,SCT,M,M,7000.00,11000.00,M,M,M,M,M,M,M,M,M,83.92,KBVU 300715Z AUTO 33007KT 10SM FEW070 SCT110 29/15 A3003 RMK AO2,M
HTH,2021-07-30 07:15,-118.6315,38.5448,1282.89,80.60,48.20,32.18,160.00,12.00,0.00,30.13,M,10.00,M,CLR,M,M,M,M,M,M,M,M,M,M,M,M,M,M,79.71,KHTH 300715Z AUTO 16012KT 10SM CLR 27/09 A3013 RMK A01,M
BAM,2021-07-30 07:15,-116.8743,40.5990,1382.36,73.40,42.80,33.29,90.00,3.00,0.00,30.13,M,10.00,M,CLR,M,M,M,M,M,M,M,M,M,M,M,M,M,M,73.40,KBAM 300715Z AUTO 09003KT 10SM CLR 23/06 A3013 RMK AO1,M
TMT,2021-07-30 07:15,-117.1971,39.4643,1749.34,65.30,49.80,57.23,210.00,5.00,0.00,30.24,M,10.00,M,CLR,M,M,M,M,M,M,M,M,M,M,M,M,M,M,65.30,KTMT 300715Z AUTO 21005KT 10SM CLR 19/10 A3024 RMK AO2 T01850099,M
MEV,2021-07-30 07:15,-119.7500,38.9963,1441.42,62.60,53.60,72.38,160.00,4.00,0.00,30.18,M,10.00,M,SCT,M,M,M,12000.00,M,M,M,M,M,M,M,M,M,M,62.60,KMEV 300715Z AUTO 16004KT 10SM SCT120 17/12 A3018 RMK AO2,M
RTS,2021-07-30 07:15,-119.8764,39.6682,1539.00,75.20,41.00,29.23,100.00,6.00,0.00,30.18,M,10.00,M,FEW,FEW,BKN,M,6000.00,7000.00,12000.00,M,M,M,M,M,M,M,M,75.20,KRTS 300715Z AUTO 10006KT 10SM FEW060 FEW070 BKN120 24/05 A3018 RMK AO2,M
05U,2021-07-30 07:15,-116.0051,39.6042,1811.23,66.20,48.20,52.25,0.00,0.00,0.00,30.27,M,10.00,M,SCT,SCT,M,M,10000.00,12000.00,M,M,M,M,M,M,M,M,M,66.20,K05U 300715Z AUTO 00000KT 10SM SCT100 SCT120 19/09 A3027 RMK A01,M
CXP,2021-07-30 07:30,-119.7326,39.1923,1431.00,68.00,50.00,52.51,340.00,4.00,0.00,30.18,M,10.00,M,FEW,M,M,M,12000.00,M,M,M,M,M,M,M,M,M,M,68.00,KCXP 300730Z AUTO 34004KT 10SM FEW120 20/10 A3018 RMK AO2,M
05U,2021-07-30 07:35,-116.0051,39.6042,1811.23,66.20,48.20,52.25,150.00,7.00,0.00,30.27,M,10.00,M,BKN,M,M,M,11000.00,M,M,M,M,M,M,M,M,M,M,66.20,K05U 300735Z AUTO 15007KT 10SM BKN110 19/09 A3027 RMK A01,M
MEV,2021-07-30 07:35,-119.7500,38.9963,1441.42,62.60,53.60,72.38,260.00,3.00,0.00,30.17,M,10.00,M,SCT,M,M,M,12000.00,M,M,M,M,M,M,M,M,M,M,62.60,KMEV 300735Z AUTO 26003KT 10SM SCT120 17/12 A3017 RMK AO2,M
BAM,2021-07-30 07:35,-116.8743,40.5990,1382.36,75.20,42.80,31.34,110.00,3.00,0.00,30.13,M,10.00,M,CLR,M,M,M,M,M,M,M,M,M,M,M,M,M,M,75.20,KBAM 300735Z AUTO 11003KT 10SM CLR 24/06 A3013 RMK AO1,M
TMT,2021-07-30 07:35,-117.1971,39.4643,1749.34,64.20,49.50,58.81,0.00,0.00,0.00,30.24,M,10.00,M,CLR,M,M,M,M,M,M,M,M,M,M,M,M,M,M,64.20,KTMT 300735Z AUTO 00000KT 10SM CLR 18/10 A3024 RMK AO2 T01790097,M
HTH,2021-07-30 07:35,-118.6315,38.5448,1282.89,80.60,48.20,32.18,160.00,9.00,0.00,30.12,M,10.00,M,CLR,M,M,M,M,M,M,M,M,M,M,M,M,M,M,79.71,KHTH 300735Z AUTO 16009KT 10SM CLR 27/09 A3012 RMK A01,M
RTS,2021-07-30 07:35,-119.8764,39.6682,1539.00,75.20,42.80,31.34,130.00,5.00,0.00,30.17,M,10.00,M,FEW,M,M,M,12000.00,M,M,M,M,M,M,M,M,M,M,75.20,KRTS 300735Z AUTO 13005KT 10SM FEW120 24/06 A3017 RMK AO2,M
BVU,2021-07-30 07:35,-114.8611,35.9475,671.00,84.20,57.20,39.86,350.00,6.00,0.00,30.01,M,10.00,M,CLR,M,M,M,M,M,M,M,M,M,M,M,M,M,M,83.47,KBVU 300735Z AUTO 35006KT 10SM CLR 29/14 A3001 RMK AO2,M
CXP,2021-07-30 07:50,-119.7326,39.1923,1431.00,69.80,50.00,49.37,310.00,4.00,0.00,30.18,M,10.00,M,CLR,M,M,M,M,M,M,M,M,M,M,M,M,M,M,69.80,KCXP 300750Z AUTO 31004KT 10SM CLR 21/10 A3018 RMK AO2,M
ELY,2021-07-30 07:53,-114.8453,39.2950,1909.00,61.00,55.00,80.61,310.00,5.00,0.00,30.28,1015.20,10.00,M,CLR,M,M,M,M,M,M,M,M,M,M,M,M,M,M,61.00,KELY 300753Z AUTO 31005KT 10SM CLR 16/13 A3028 RMK AO2 SLP152 T01610128 402940117,M
VGT,2021-07-30 07:53,-115.1933,36.2111,667.00,84.00,64.00,51.08,230.00,5.00,0.00,30.00,1014.30,10.00,M,CLR,M,M,M,M,M,M,M,M,M,M,M,M,M,M,85.36,KVGT 300753Z AUTO 23005KT 10SM CLR 29/18 A3000 RMK AO2 SLP143 T02890178 404220278 PNO,M
P68,2021-07-30 07:53,-116.0056,39.6014,1993.00,68.00,50.00,52.51,160.00,7.00,0.00,30.24,1014.50,M,M,M,M,M,M,M,M,M,M,M,M,M,M,M,M,M,68.00,KP68 300753Z AUTO 16007KT 20/10 A3024 RMK AO1 SLP145 T02000100 403060117,M
LOL,2021-07-30 07:53,-118.5701,40.0684,1192.43,78.00,46.00,32.15,170.00,4.00,0.00,30.07,1012.70,10.00,M,SCT,M,M,M,12000.00,M,M,M,M,M,M,M,M,M,M,78.10,KLOL 300753Z AUTO 17004KT 10SM SCT120 26/08 A3007 RMK AO2 SLP127 T02560078 403890133,M
DRA,2021-07-30 07:53,-116.0278,36.6206,1009.00,76.00,60.00,58.04,110.00,12.00,T,30.04,M,10.00,M,SCT,M,M,M,11000.00,M,M,M,M,M,M,M,M,M,M,75.90,KDRA 300753Z AUTO 11012KT 10SM SCT110 24/16 A3004 RMK AO2 RAE10 SLPNO P0000 T02440156 403890233,M
INS,2021-07-30 07:54,-115.6733,36.5872,955.00,75.20,62.60,64.91,130.00,7.00,0.00,30.05,1012.30,10.00,M,FEW,BKN,M,M,12000.00,16000.00,M,M,M,M,M,M,M,M,M,75.20,KINS 300754Z AUTO 13007KT 10SM FEW120 BKN160 24/17 A3005 RMK AO2 SLP123 $,M
MEV,2021-07-30 07:55,-119.7500,38.9963,1441.42,62.60,51.80,67.75,280.00,4.00,0.00,30.17,M,10.00,M,BKN,M,M,M,12000.00,M,M,M,M,M,M,M,M,M,M,62.60,KMEV 300755Z AUTO 28004KT 10SM BKN120 17/11 A3017 RMK AO2,M
RTS,2021-07-30 07:55,-119.8764,39.6682,1539.00,75.20,41.00,29.23,60.00,6.00,0.00,30.18,M,10.00,M,SCT,M,M,M,12000.00,M,M,M,M,M,M,M,M,M,M,75.20,KRTS 300755Z AUTO 06006KT 10SM SCT120 24/05 A3018 RMK AO2,M
05U,2021-07-30 07:55,-116.0051,39.6042,1811.23,68.00,48.20,49.10,0.00,0.00,0.00,30.26,M,10.00,M,OVC,M,M,M,10000.00,M,M,M,M,M,M,M,M,M,M,68.00,K05U 300755Z AUTO 00000KT 10SM OVC100 20/09 A3026 RMK A01,M
BAM,2021-07-30 07:55,-116.8743,40.5990,1382.36,73.40,42.80,33.29,0.00,0.00,0.00,30.13,M,10.00,M,CLR,M,M,M,M,M,M,M,M,M,M,M,M,M,M,73.40,KBAM 300755Z AUTO 00000KT 10SM CLR 23/06 A3013 RMK AO1,M
HTH,2021-07-30 07:55,-118.6315,38.5448,1282.89,78.80,46.40,31.90,160.00,9.00,0.00,30.12,M,10.00,M,CLR,M,M,M,M,M,M,M,M,M,M,M,M,M,M,78.80,KHTH 300755Z AUTO 16009KT 10SM CLR 26/08 A3012 RMK A01,M
TMT,2021-07-30 07:55,-117.1971,39.4643,1749.34,64.20,49.60,59.03,240.00,3.00,0.00,30.24,M,10.00,M,CLR,M,M,M,M,M,M,M,M,M,M,M,M,M,M,64.20,KTMT 300755Z AUTO 24003KT 10SM CLR 18/10 A3024 RMK AO2 T01790098 403180072,M
RNO,2021-07-30 07:55,-119.7711,39.4839,1341.00,76.00,47.00,35.78,170.00,10.00,0.00,30.12,1013.20,10.00,M,SCT,BKN,M,M,12000.00,15000.00,M,M,M,M,M,M,M,M,M,75.90,KRNO 300755Z 17010KT 10SM SCT120 BKN150 24/08 A3012 RMK AO2 SLP132 T02440083 403610172,M
BVU,2021-07-30 07:55,-114.8611,35.9475,671.00,84.20,57.20,39.86,40.00,4.00,0.00,30.00,M,10.00,M,CLR,M,M,M,M,M,M,M,M,M,M,M,M,M,M,83.47,KBVU 300755Z AUTO 04004KT 10SM CLR 29/14 A3000 RMK AO2,M
WMC,2021-07-30 07:56,-117.8072,40.9019,1315.00,75.00,41.00,29.43,110.00,5.00,0.00,30.09,1012.60,10.00,M,CLR,M,M,M,M,M,M,M,M,M,M,M,M,M,M,75.00,KWMC 300756Z AUTO 11005KT 10SM CLR 24/05 A3009 RMK AO2 SLP126 T02390050 403720128,M
NFL,2021-07-30 07:56,-118.7010,39.4166,1199.00,78.00,43.00,28.68,160.00,8.00,0.00,30.07,1015.20,10.00,M,CLR,M,M,M,M,M,M,M,M,M,M,M,M,M,M,78.10,KNFL 300756Z AUTO 16008KT 10SM CLR 26/06 A3007 RMK AO2 SLP152 T02560061 403780172,M
EKO,2021-07-30 07:56,-115.7860,40.8242,1367.00,74.00,49.00,41.24,240.00,5.00,0.00,30.18,1015.00,10.00,M,CLR,M,M,M,M,M,M,M,M,M,M,M,M,M,M,73.90,KEKO 300756Z AUTO 24005KT 10SM CLR 23/09 A3018 RMK AO2 SLP150 T02330094 403500139 $,M
LAS,2021-07-30 07:56,-115.1634,36.0719,663.00,83.00,65.00,54.62,240.00,3.00,0.01,30.01,1013.10,10.00,M,FEW,BKN,M,M,9000.00,15000.00,M,M,M,M,M,M,M,M,M,84.64,KLAS 300756Z 24003KT 10SM FEW090 BKN150 28/18 A3001 RMK AO2 SLP131 P0001 T02830183 404110278 $,M
TPH,2021-07-30 07:56,-117.0904,38.0505,1654.00,72.00,53.00,51.37,280.00,9.00,0.00,30.22,1014.20,10.00,M,CLR,M,M,M,M,M,M,M,M,M,M,M,M,M,M,72.00,KTPH 300756Z AUTO 28009KT 10SM CLR 22/12 A3022 RMK AO2 SLP142 T02220117 403280183,M
HND,2021-07-30 07:56,-115.1344,35.9729,742.79,81.00,64.00,56.30,280.00,7.00,0.00,30.05,1015.80,10.00,M,CLR,M,M,M,M,M,M,M,M,M,M,M,M,M,M,82.54,KHND 300756Z AUTO 28007KT 10SM CLR 27/18 A3005 RMK AO2 SLP158 T02720178,M
LSV,2021-07-30 07:58,-115.0343,36.2362,570.00,82.60,63.70,52.89,0.00,0.00,0.00,29.97,1012.10,10.00,M,BKN,BKN,M,M,13000.00,18000.00,M,M,M,M,M,M,M,M,M,83.93,KLSV 300758Z AUTO 00000KT 10SM BKN130 BKN180 28/18 A2997 RMK AO2 SLP121 T02810176 404130274 $,M
INS,2021-07-30 07:58,-115.6733,36.5872,955.00,75.20,63.00,65.83,120.00,11.00,0.00,30.05,1012.30,10.00,M,SCT,M,M,M,16000.00,M,M,M,M,M,M,M,M,M,M,75.20,KINS 300758Z AUTO 12011KT 10SM SCT160 24/17 A3005 RMK AO2 SLP123 T02400172 403780230 $,M
TMT,2021-07-30 08:10,-117.1971,39.4643,1749.34,64.20,50.20,60.36,220.00,4.00,0.00,30.24,M,7.00,M,CLR,M,M,M,M,M,M,M,M,M,M,M,M,M,M,64.20,KTMT 300810Z AUTO 22004KT 7SM CLR 18/10 A3024 RMK AO2 T01790101,M
CXP,2021-07-30 08:10,-119.7326,39.1923,1431.00,69.80,50.00,49.37,0.00,0.00,0.00,30.18,M,10.00,M,SCT,M,M,M,12000.00,M,M,M,M,M,M,M,M,M,M,69.80,KCXP 300810Z AUTO 00000KT 10SM SCT120 21/10 A3018 RMK AO2,M
RTS,2021-07-30 08:15,-119.8764,39.6682,1539.00,75.20,41.00,29.23,80.00,3.00,0.00,30.18,M,10.00,M,FEW,M,M,M,12000.00,M,M,M,M,M,M,M,M,M,M,75.20,KRTS 300815Z AUTO 08003KT 10SM FEW120 24/05 A3018 RMK AO2,M
HTH,2021-07-30 08:15,-118.6315,38.5448,1282.89,77.00,50.00,38.74,140.00,13.00,0.00,30.12,M,10.00,M,CLR,M,M,M,M,M,M,M,M,M,M,M,M,M,M,77.00,KHTH 300815Z AUTO 14013KT 10SM CLR 25/10 A3012 RMK A01,M
BAM,2021-07-30 08:15,-116.8743,40.5990,1382.36,75.20,44.60,33.57,0.00,0.00,0.00,30.13,M,10.00,M,CLR,M,M,M,M,M,M,M,M,M,M,M,M,M,M,75.20,KBAM 300815Z AUTO 00000KT 10SM CLR 24/07 A3013 RMK AO1,M
MEV,2021-07-30 08:15,-119.7500,38.9963,1441.42,62.60,53.60,72.38,0.00,0.00,0.00,30.17,M,10.00,M,FEW,M,M,M,12000.00,M,M,M,M,M,M,M,M,M,M,62.60,KMEV 300815Z AUTO 00000KT 10SM FEW120 17/12 A3017 RMK AO2,M
05U,2021-07-30 08:15,-116.0051,39.6042,1811.23,68.00,48.20,49.10,0.00,0.00,0.00,30.26,M,10.00,M,OVC,M,M,M,11000.00,M,M,M,M,M,M,M,M,M,M,68.00,K05U 300815Z AUTO 00000KT 10SM OVC110 20/09 A3026 RMK A01,M
BVU,2021-07-30 08:15,-114.8611,35.9475,671.00,82.40,59.00,45.07,20.00,3.00,0.00,29.99,M,10.00,M,CLR,M,M,M,M,M,M,M,M,M,M,M,M,M,M,82.46,KBVU 300815Z AUTO 02003KT 10SM CLR 28/15 A2999 RMK AO2,M
CXP,2021-07-30 08:30,-119.7326,39.1923,1431.00,69.80,50.00,49.37,0.00,0.00,0.00,30.17,M,10.00,M,BKN,BKN,M,M,6000.00,12000.00,M,M,M,M,M,M,M,M,M,69.80,KCXP 300830Z AUTO 00000KT 10SM BKN060 BKN120 21/10 A3017 RMK AO2,M
BAM,2021-07-30 08:35,-116.8743,40.5990,1382.36,75.20,44.60,33.57,0.00,0.00,0.00,30.13,M,10.00,M,CLR,M,M,M,M,M,M,M,M,M,M,M,M,M,M,75.20,KBAM 300835Z AUTO 00000KT 10SM CLR 24/07 A3013 RMK AO1,M
BVU,2021-07-30 08:35,-114.8611,35.9475,671.00,84.20,57.20,39.86,310.00,6.00,0.00,29.99,M,10.00,M,CLR,M,M,M,M,M,M,M,M,M,M,M,M,M,M,83.47,KBVU 300835Z AUTO 31006KT 10SM CLR 29/14 A2999 RMK AO2,M
RTS,2021-07-30 08:35,-119.8764,39.6682,1539.00,71.60,41.00,33.00,310.00,4.00,0.00,30.18,M,10.00,M,CLR,M,M,M,M,M,M,M,M,M,M,M,M,M,M,71.60,KRTS 300835Z AUTO 31004KT 10SM CLR 22/05 A3018 RMK AO2,M
05U,2021-07-30 08:35,-116.0051,39.6042,1811.23,68.00,48.20,49.10,0.00,0.00,0.00,30.26,M,10.00,M,BKN,OVC,M,M,10000.00,12000.00,M,M,M,M,M,M,M,M,M,68.00,K05U 300835Z AUTO 00000KT 10SM BKN100 OVC120 20/09 A3026 RMK A01,M
MEV,2021-07-30 08:35,-119.7500,38.9963,1441.42,60.80,53.60,77.14,0.00,0.00,0.00,30.17,M,10.00,M,FEW,M,M,M,7500.00,M,M,M,M,M,M,M,M,M,M,60.80,KMEV 300835Z AUTO 00000KT 10SM FEW075 16/12 A3017 RMK AO2,M
TMT,2021-07-30 08:35,-117.1971,39.4643,1749.34,61.70,49.30,63.74,190.00,3.00,0.00,30.24,M,10.00,M,CLR,M,M,M,M,M,M,M,M,M,M,M,M,M,M,61.70,KTMT 300835Z AUTO 19003KT 10SM CLR 17/10 A3024 RMK AO2 T01650096,M
HTH,2021-07-30 08:35,-118.6315,38.5448,1282.89,77.00,48.20,36.22,150.00,14.00,0.00,30.12,M,10.00,M,M,M,M,M,M,M,M,M,M,M,M,M,M,M,M,77.00,KHTH 300835Z AUTO 15014KT 10SM 25/09 A3012 RMK A01,M
CXP,2021-07-30 08:50,-119.7326,39.1923,1431.00,68.00,51.80,56.13,0.00,0.00,0.00,30.17,M,10.00,M,SCT,SCT,M,M,6000.00,8000.00,M,M,M,M,M,M,M,M,M,68.00,KCXP 300850Z AUTO 00000KT 10SM SCT060 SCT080 20/11 A3017 RMK AO2,M
ELY,2021-07-30 08:53,-114.8453,39.2950,1909.00,58.00,54.00,86.82,0.00,0.00,0.00,30.28,1015.50,10.00,M,CLR,M,M,M,M,M,M,M,M,M,M,M,M,M,M,57.90,KELY 300853Z AUTO 00000KT 10SM CLR 14/12 A3028 RMK AO2 SLP155 T01440122 58001,M
P68,2021-07-30 08:53,-116.0056,39.6014,1993.00,67.00,50.00,54.54,0.00,0.00,0.00,30.23,1014.40,M,M,M,M,M,M,M,M,M,M,M,M,M,M,M,M,M,66.90,KP68 300853Z AUTO 00000KT 19/10 A3023 RMK AO1 SLP144 T01940100 58001,M
LOL,2021-07-30 08:53,-118.5701,40.0684,1192.43,74.00,45.00,35.60,110.00,3.00,0.00,30.06,1012.90,10.00,M,CLR,M,M,M,M,M,M,M,M,M,M,M,M,M,M,73.90,KLOL 300853Z AUTO 11003KT 10SM CLR 23/07 A3006 RMK AO2 SLP129 T02330072 56004,M
DRA,2021-07-30 08:53,-116.0278,36.6206,1009.00,78.00,59.00,51.88,190.00,8.00,0.00,30.05,1012.40,10.00,17.00,FEW,M,M,M,11000.00,M,M,M,M,M,M,M,M,M,M,78.10,KDRA 300853Z AUTO 19008G17KT 10SM FEW110 26/15 A3005 RMK AO2 SLP124 60000 T02560150 55007,M
VGT,2021-07-30 08:53,-115.1933,36.2111,667.00,84.00,63.00,49.32,260.00,7.00,0.00,29.97,1013.40,10.00,M,SCT,M,M,M,12000.00,M,M,M,M,M,M,M,M,M,M,84.99,KVGT 300853Z AUTO 26007KT 10SM SCT120 29/17 A2997 RMK AO2 SLP134 6//// T02890172 58014 PNO,M
MEV,2021-07-30 08:55,-119.7500,38.9963,1441.42,60.80,51.80,72.20,60.00,3.00,0.00,30.16,M,10.00,M,BKN,BKN,M,M,7000.00,8000.00,M,M,M,M,M,M,M,M,M,60.80,KMEV 300855Z AUTO 06003KT 10SM BKN070 BKN080 16/11 A3016 RMK AO2,M
BVU,2021-07-30 08:55,-114.8611,35.9475,671.00,84.20,57.20,39.86,300.00,6.00,0.00,29.98,M,10.00,M,CLR,M,M,M,M,M,M,M,M,M,M,M,M,M,M,83.47,KBVU 300855Z AUTO 30006KT 10SM CLR 29/14 A2998 RMK AO2,M
HTH,2021-07-30 08:55,-118.6315,38.5448,1282.89,77.00,48.20,36.22,130.00,13.00,0.00,30.12,M,10.00,M,M,M,M,M,M,M,M,M,M,M,M,M,M,M,M,77.00,KHTH 300855Z AUTO 13013KT 10SM 25/09 A3012 RMK A01,M
BAM,2021-07-30 08:55,-116.8743,40.5990,1382.36,77.00,44.60,31.62,230.00,3.00,0.00,30.14,M,10.00,M,CLR,M,M,M,M,M,M,M,M,M,M,M,M,M,M,77.00,KBAM 300855Z AUTO 23003KT 10SM CLR 25/07 A3014 RMK AO1,M
RNO,2021-07-30 08:55,-119.7711,39.4839,1341.00,73.00,48.00,41.10,180.00,8.00,0.00,30.12,1013.10,10.00,M,SCT,BKN,M,M,12000.00,15000.00,M,M,M,M,M,M,M,M,M,73.00,KRNO 300855Z 18008KT 10SM SCT120 BKN150 23/09 A3012 RMK AO2 SLP131 T02280089 50003,M
RTS,2021-07-30 08:55,-119.8764,39.6682,1539.00,71.60,41.00,33.00,0.00,0.00,0.00,30.18,M,10.00,M,CLR,M,M,M,M,M,M,M,M,M,M,M,M,M,M,71.60,KRTS 300855Z AUTO 00000KT 10SM CLR 22/05 A3018 RMK AO2,M
05U,2021-07-30 08:55,-116.0051,39.6042,1811.23,66.20,48.20,52.25,0.00,0.00,0.00,30.26,M,10.00,M,BKN,OVC,M,M,10000.00,12000.00,M,M,M,M,M,M,M,M,M,66.20,K05U 300855Z AUTO 00000KT 10SM BKN100 OVC120 19/09 A3026 RMK A01,M
TMT,2021-07-30 08:55,-117.1971,39.4643,1749.34,60.30,48.20,64.28,180.00,3.00,0.00,30.24,M,10.00,M,CLR,M,M,M,M,M,M,M,M,M,M,M,M,M,M,60.30,KTMT 300855Z AUTO 18003KT 10SM CLR 16/09 A3024 RMK AO2 T01570090,M
EKO,2021-07-30 08:56,-115.7860,40.8242,1367.00,73.00,49.00,42.51,0.00,0.00,0.00,30.18,1014.60,10.00,M,BKN,OVC,M,M,8500.00,11000.00,M,M,M,M,M,M,M,M,M,73.00,KEKO 300856Z AUTO 00000KT 10SM BKN085 OVC110 23/09 A3018 RMK AO2 SLP146 T02280094 50001 $,M
WMC,2021-07-30 08:56,-117.8072,40.9019,1315.00,75.00,44.00,33.16,70.00,5.00,0.00,30.09,1012.90,10.00,M,CLR,M,M,M,M,M,M,M,M,M,M,M,M,M,M,75.00,KWMC 300856Z AUTO 07005KT 10SM CLR 24/07 A3009 RMK AO2 SLP129 T02390067 51006,M
TPH,2021-07-30 08:56,-117.0904,38.0505,1654.00,71.00,50.00,47.23,320.00,10.00,0.00,30.22,1014.10,10.00,M,BKN,M,M,M,9000.00,M,M,M,M,M,M,M,M,M,M,71.10,KTPH 300856Z AUTO 32010KT 10SM BKN090 22/10 A3022 RMK AO2 SLP141 T02170100 51004,M
NFL,2021-07-30 08:56,-118.7010,39.4166,1199.00,78.00,45.00,30.95,240.00,10.00,0.00,30.06,1014.70,10.00,M,CLR,M,M,M,M,M,M,M,M,M,M,M,M,M,M,78.10,KNFL 300856Z AUTO 24010KT 10SM CLR 26/07 A3006 RMK AO2 SLP147 T02560072 58008,M
LAS,2021-07-30 08:56,-115.1634,36.0719,663.00,82.00,63.00,52.62,270.00,8.00,0.00,29.99,1012.30,10.00,M,FEW,SCT,OVC,M,11000.00,14000.00,20000.00,M,M,M,M,M,M,M,M,83.17,KLAS 300856Z 27008KT 10SM FEW110 SCT140 OVC200 28/17 A2999 RMK AO2 SLP123 60003 T02780172 58016 $,M
HND,2021-07-30 08:56,-115.1344,35.9729,742.79,81.00,65.00,58.10,170.00,4.00,0.00,30.03,1015.00,10.00,M,FEW,M,M,M,12000.00,M,M,M,M,M,M,M,M,M,M,82.79,KHND 300856Z AUTO 17004KT 10SM FEW120 27/18 A3003 RMK AO2 SLP150 T02720183 58014,M
LSV,2021-07-30 08:58,-115.0343,36.2362,570.00,83.00,63.00,51.10,180.00,4.00,0.00,29.96,1011.70,10.00,M,CLR,M,M,M,M,M,M,M,M,M,M,M,M,M,M,83.98,KLSV 300858Z AUTO 18004KT 10SM CLR 28/17 A2996 RMK AO2 SLP117 T02830172 58015 $,M
INS,2021-07-30 08:58,-115.6733,36.5872,955.00,75.60,61.20,60.96,110.00,8.00,0.00,30.04,1012.00,10.00,M,CLR,M,M,M,M,M,M,M,M,M,M,M,M,M,M,75.60,KINS 300858Z AUTO 11008KT 10SM CLR 24/16 A3004 RMK AO2 SLP120 60000 T02420162 57018 $,M
CXP,2021-07-30 09:10,-119.7326,39.1923,1431.00,68.00,51.80,56.13,0.00,0.00,0.00,30.17,M,10.00,M,FEW,FEW,M,M,5000.00,12000.00,M,M,M,M,M,M,M,M,M,68.00,KCXP 300910Z AUTO 00000KT 10SM FEW050 FEW120 20/11 A3017 RMK AO2,M
TMT,2021-07-30 09:15,-117.1971,39.4643,1749.34,64.20,51.00,62.41,220.00,3.00,0.00,30.24,M,10.00,M,CLR,M,M,M,M,M,M,M,M,M,M,M,M,M,M,64.20,KTMT 300915Z AUTO 22003KT 10SM CLR 18/11 A3024 RMK AO2 T01790106,M
05U,2021-07-30 09:15,-116.0051,39.6042,1811.23,66.20,48.20,52.25,0.00,0.00,0.00,30.26,M,10.00,M,FEW,OVC,M,M,10000.00,12000.00,M,M,M,M,M,M,M,M,M,66.20,K05U 300915Z AUTO 00000KT 10SM FEW100 OVC120 19/09 A3026 RMK A01,M
MEV,2021-07-30 09:15,-119.7500,38.9963,1441.42,60.80,51.80,72.20,70.00,3.00,0.00,30.16,M,10.00,M,BKN,OVC,M,M,7000.00,8000.00,M,M,M,M,M,M,M,M,M,60.80,KMEV 300915Z AUTO 07003KT 10SM BKN070 OVC080 16/11 A3016 RMK AO2,M
BAM,2021-07-30 09:15,-116.8743,40.5990,1382.36,69.80,42.80,37.61,160.00,4.00,0.00,30.13,M,10.00,M,CLR,M,M,M,M,M,M,M,M,M,M,M,M,M,M,69.80,KBAM 300915Z AUTO 16004KT 10SM CLR 21/06 A3013 RMK AO1,M
HTH,2021-07-30 09:15,-118.6315,38.5448,1282.89,77.00,46.40,33.85,140.00,10.00,0.00,30.12,M,10.00,M,CLR,M,M,M,M,M,M,M,M,M,M,M,M,M,M,77.00,KHTH 300915Z AUTO 14010KT 10SM CLR 25/08 A3012 RMK A01,M
BVU,2021-07-30 09:15,-114.8611,35.9475,671.00,84.20,59.00,42.52,280.00,8.00,0.00,29.99,M,10.00,M,FEW,SCT,BKN,M,3700.00,9000.00,11000.00,M,M,M,M,M,M,M,M,83.92,KBVU 300915Z AUTO 28008KT 10SM FEW037 SCT090 BKN110 29/15 A2999 RMK AO2,M
RTS,2021-07-30 09:15,-119.8764,39.6682,1539.00,71.60,41.00,33.00,300.00,3.00,0.00,30.17,M,10.00,M,CLR,M,M,M,M,M,M,M,M,M,M,M,M,M,M,71.60,KRTS 300915Z AUTO 30003KT 10SM CLR 22/05 A3017 RMK AO2,M
CXP,2021-07-30 09:30,-119.7326,39.1923,1431.00,68.00,51.80,56.13,0.00,0.00,0.00,30.16,M,10.00,M,BKN,BKN,M,M,5000.00,12000.00,M,M,M,M,M,M,M,M,M,68.00,KCXP 300930Z AUTO 00000KT 10SM BKN050 BKN120 20/11 A3016 RMK AO2,M
BVU,2021-07-30 09:35,-114.8611,35.9475,671.00,82.40,62.60,51.21,250.00,6.00,0.00,29.98,M,10.00,M,FEW,BKN,M,M,8000.00,10000.00,M,M,M,M,M,M,M,M,M,83.41,KBVU 300935Z AUTO 25006KT 10SM FEW080 BKN100 28/17 A2998 RMK AO2,M
05U,2021-07-30 09:35,-116.0051,39.6042,1811.23,66.20,50.00,55.88,0.00,0.00,0.00,30.26,M,10.00,M,BKN,OVC,M,M,10000.00,12000.00,M,M,M,M,M,M,M,M,M,66.20,K05U 300935Z AUTO 00000KT 10SM BKN100 OVC120 19/10 A3026 RMK A01,M
RTS,2021-07-30 09:35,-119.8764,39.6682,1539.00,69.80,41.00,35.09,280.00,3.00,0.00,30.16,M,10.00,M,CLR,M,M,M,M,M,M,M,M,M,M,M,M,M,M,69.80,KRTS 300935Z AUTO 28003KT 10SM CLR 21/05 A3016 RMK AO2,M
MEV,2021-07-30 09:35,-119.7500,38.9963,1441.42,59.00,51.80,76.98,110.00,5.00,0.00,30.15,M,10.00,M,SCT,OVC,M,M,6500.00,7500.00,M,M,M,M,M,M,M,M,M,59.00,KMEV 300935Z AUTO 11005KT 10SM SCT065 OVC075 15/11 A3015 RMK AO2,M
BAM,2021-07-30 09:35,-116.8743,40.5990,1382.36,69.80,44.60,40.29,90.00,4.00,0.00,30.13,M,10.00,M,CLR,M,M,M,M,M,M,M,M,M,M,M,M,M,M,69.80,KBAM 300935Z AUTO 09004KT 10SM CLR 21/07 A3013 RMK AO1,M
HTH,2021-07-30 09:35,-118.6315,38.5448,1282.89,77.00,46.40,33.85,140.00,10.00,0.00,30.11,M,10.00,M,CLR,M,M,M,M,M,M,M,M,M,M,M,M,M,M,77.00,KHTH 300935Z AUTO 14010KT 10SM CLR 25/08 A3011 RMK A01,M
TMT,2021-07-30 09:35,-117.1971,39.4643,1749.34,62.80,50.40,63.87,150.00,4.00,0.00,30.23,M,10.00,M,SCT,M,M,M,12000.00,M,M,M,M,M,M,M,M,M,M,62.80,KTMT 300935Z AUTO 15004KT 10SM SCT120 17/10 A3023 RMK AO2 T01710102,M
CXP,2021-07-30 09:50,-119.7326,39.1923,1431.00,68.00,51.80,56.13,0.00,0.00,0.00,30.16,M,10.00,M,BKN,OVC,M,M,5500.00,7000.00,M,M,M,M,M,M,M,M,M,68.00,KCXP 300950Z AUTO 00000KT 10SM BKN055 OVC070 20/11 A3016 RMK AO2,M
ELY,2021-07-30 09:53,-114.8453,39.2950,1909.00,57.00,53.00,86.77,210.00,7.00,0.00,30.27,1014.70,10.00,M,CLR,M,M,M,M,M,M,M,M,M,M,M,M,M,M,57.00,KELY 300953Z AUTO 21007KT 10SM CLR 14/12 A3027 RMK AO2 SLP147 T01390117,M
VGT,2021-07-30 09:53,-115.1933,36.2111,667.00,85.00,61.00,44.65,230.00,3.00,0.00,29.96,1013.00,10.00,M,CLR,M,M,M,M,M,M,M,M,M,M,M,M,M,M,85.12,KVGT 300953Z AUTO 23003KT 10SM CLR 29/16 A2996 RMK AO2 SLP130 T02940161 PNO,M
P68,2021-07-30 09:53,-116.0056,39.6014,1993.00,66.00,52.00,60.60,70.00,4.00,0.00,30.23,1014.70,M,M,M,M,M,M,M,M,M,M,M,M,M,M,M,M,M,66.00,KP68 300953Z AUTO 07004KT 19/11 A3023 RMK AO1 SLP147 T01890111,M
LOL,2021-07-30 09:53,-118.5701,40.0684,1192.43,74.00,47.00,38.26,50.00,6.00,0.00,30.06,1012.60,10.00,M,CLR,M,M,M,M,M,M,M,M,M,M,M,M,M,M,73.90,KLOL 300953Z AUTO 05006KT 10SM CLR 23/08 A3006 RMK AO2 SLP126 T02330083,M
DRA,2021-07-30 09:53,-116.0278,36.6206,1009.00,77.00,60.00,55.95,40.00,9.00,0.00,30.05,1011.90,10.00,M,CLR,M,M,M,M,M,M,M,M,M,M,M,M,M,M,77.00,KDRA 300953Z AUTO 04009KT 10SM CLR 25/16 A3005 RMK AO2 SLP119 T02500156,M
BAM,2021-07-30 09:55,-116.8743,40.5990,1382.36,66.20,42.80,42.57,130.00,3.00,0.00,30.13,M,10.00,M,SCT,M,M,M,12000.00,M,M,M,M,M,M,M,M,M,M,66.20,KBAM 300955Z AUTO 13003KT 10SM SCT120 19/06 A3013 RMK AO1,M
RTS,2021-07-30 09:55,-119.8764,39.6682,1539.00,69.80,41.00,35.09,350.00,4.00,0.00,30.16,M,10.00,M,CLR,M,M,M,M,M,M,M,M,M,M,M,M,M,M,69.80,KRTS 300955Z AUTO 35004KT 10SM CLR 21/05 A3016 RMK AO2,M
05U,2021-07-30 09:55,-116.0051,39.6042,1811.23,66.20,51.80,59.74,0.00,0.00,0.00,30.26,M,10.00,M,OVC,M,M,M,11000.00,M,M,M,M,M,M,M,M,M,M,66.20,K05U 300955Z AUTO 00000KT 10SM OVC110 19/11 A3026 RMK A01,M
TMT,2021-07-30 09:55,-117.1971,39.4643,1749.34,60.00,48.40,65.23,0.00,0.00,0.00,30.23,M,10.00,M,SCT,M,M,M,12000.00,M,M,M,M,M,M,M,M,M,M,60.10,KTMT 300955Z AUTO 00000KT 10SM SCT120 16/09 A3023 RMK AO2 T01560091,M
BVU,2021-07-30 09:55,-114.8611,35.9475,671.00,80.60,62.60,54.30,0.00,0.00,0.00,29.98,M,10.00,M,FEW,SCT,M,M,7500.00,10000.00,M,M,M,M,M,M,M,M,M,81.84,KBVU 300955Z AUTO 00000KT 10SM FEW075 SCT100 27/17 A2998 RMK AO2,M
RNO,2021-07-30 09:55,-119.7711,39.4839,1341.00,73.00,48.00,41.10,160.00,3.00,0.00,30.10,1012.80,10.00,M,BKN,M,M,M,15000.00,M,M,M,M,M,M,M,M,M,M,73.00,KRNO 300955Z 16003KT 10SM BKN150 23/09 A3010 RMK AO2 SLP128 T02280089,M
MEV,2021-07-30 09:55,-119.7500,38.9963,1441.42,60.80,50.00,67.54,110.00,3.00,0.00,30.14,M,10.00,M,BKN,OVC,M,M,6000.00,7000.00,M,M,M,M,M,M,M,M,M,60.80,KMEV 300955Z AUTO 11003KT 10SM BKN060 OVC070 16/10 A3014 RMK AO2,M
HTH,2021-07-30 09:55,-118.6315,38.5448,1282.89,75.20,48.20,38.46,130.00,7.00,0.00,30.11,M,10.00,M,CLR,M,M,M,M,M,M,M,M,M,M,M,M,M,M,75.20,KHTH 300955Z AUTO 13007KT 10SM CLR 24/09 A3011 RMK A01,M
EKO,2021-07-30 09:56,-115.7860,40.8242,1367.00,72.00,50.00,45.81,110.00,9.00,0.00,30.18,1015.10,10.00,M,SCT,M,M,M,11000.00,M,M,M,M,M,M,M,M,M,M,72.00,KEKO 300956Z AUTO 11009KT 10SM SCT110 22/10 A3018 RMK AO2 SLP151 T02220100 $,M
TPH,2021-07-30 09:56,-117.0904,38.0505,1654.00,69.00,52.00,54.45,200.00,9.00,0.00,30.21,1014.00,10.00,M,BKN,M,M,M,9500.00,M,M,M,M,M,M,M,M,M,M,69.10,KTPH 300956Z AUTO 20009KT 10SM BKN095 21/11 A3021 RMK AO2 SLP140 T02060111,M
HND,2021-07-30 09:56,-115.1344,35.9729,742.79,78.00,67.00,68.49,180.00,5.00,0.00,30.02,1014.70,10.00,M,CLR,M,M,M,M,M,M,M,M,M,M,M,M,M,M,78.10,KHND 300956Z AUTO 18005KT 10SM CLR 26/19 A3002 RMK AO2 SLP147 T02560194,M
WMC,2021-07-30 09:56,-117.8072,40.9019,1315.00,69.00,38.00,31.85,160.00,6.00,0.00,30.09,1012.90,10.00,M,CLR,M,M,M,M,M,M,M,M,M,M,M,M,M,M,69.10,KWMC 300956Z AUTO 16006KT 10SM CLR 21/03 A3009 RMK AO2 SLP129 T02060033,M
NFL,2021-07-30 09:56,-118.7010,39.4166,1199.00,78.00,45.00,30.95,250.00,6.00,0.00,30.04,1014.30,10.00,M,FEW,BKN,M,M,9000.00,11000.00,M,M,M,M,M,M,M,M,M,78.10,KNFL 300956Z AUTO 25006KT 10SM FEW090 BKN110 26/07 A3004 RMK AO2 SLP143 T02560072,M
LAS,2021-07-30 09:56,-115.1634,36.0719,663.00,84.00,60.00,44.51,210.00,3.00,0.00,29.98,1011.80,10.00,M,FEW,BKN,OVC,M,11000.00,13000.00,20000.00,M,M,M,M,M,M,M,M,84.05,KLAS 300956Z 21003KT 10SM FEW110 BKN130 OVC200 29/16 A2998 RMK AO2 SLP118 T02890156 $,M
LSV,2021-07-30 09:58,-115.0343,36.2362,570.00,83.00,64.80,54.08,120.00,3.00,0.00,29.95,1011.40,10.00,M,OVC,M,M,M,14000.00,M,M,M,M,M,M,M,M,M,M,84.80,KLSV 300958Z AUTO 12003KT 10SM OVC140 28/18 A2995 RMK AO2 SLP114 T02840182 $,M
INS,2021-07-30 09:58,-115.6733,36.5872,955.00,75.20,60.30,59.83,330.00,5.00,0.00,30.06,1012.70,10.00,M,CLR,M,M,M,M,M,M,M,M,M,M,M,M,M,M,75.20,KINS 300958Z AUTO 33005KT 10SM CLR 24/16 A3006 RMK AO2 SLP127 T02400157 $,M
CXP,2021-07-30 10:10,-119.7326,39.1923,1431.00,68.00,51.80,56.13,320.00,4.00,0.00,30.15,M,10.00,M,BKN,OVC,M,M,6000.00,7000.00,M,M,M,M,M,M,M,M,M,68.00,KCXP 301010Z AUTO 32004KT 10SM BKN060 OVC070 20/11 A3015 RMK AO2,M
MEV,2021-07-30 10:15,-119.7500,38.9963,1441.42,60.80,50.00,67.54,130.00,4.00,0.00,30.14,M,10.00,M,OVC,M,M,M,6500.00,M,M,M,M,M,M,M,M,M,M,60.80,KMEV 301015Z AUTO 13004KT 10SM OVC065 16/10 A3014 RMK AO2,M
BAM,2021-07-30 10:15,-116.8743,40.5990,1382.36,68.00,42.80,40.00,0.00,0.00,0.00,30.13,M,10.00,M,BKN,M,M,M,12000.00,M,M,M,M,M,M,M,M,M,M,68.00,KBAM 301015Z AUTO 00000KT 10SM BKN120 20/06 A3013 RMK AO1,M
HTH,2021-07-30 10:15,-118.6315,38.5448,1282.89,75.20,46.40,35.94,120.00,7.00,0.00,30.10,M,10.00,M,CLR,M,M,M,M,M,M,M,M,M,M,M,M,M,M,75.20,KHTH 301015Z AUTO 12007KT 10SM CLR 24/08 A3010 RMK A01,M
05U,2021-07-30 10:15,-116.0051,39.6042,1811.23,66.20,48.20,52.25,0.00,0.00,0.00,30.25,M,10.00,M,OVC,M,M,M,12000.00,M,M,M,M,M,M,M,M,M,M,66.20,K05U 301015Z AUTO 00000KT 10SM OVC120 19/09 A3025 RMK A01,M
TMT,2021-07-30 10:15,-117.1971,39.4643,1749.34,58.00,47.80,68.50,0.00,0.00,0.00,30.22,M,10.00,M,CLR,M,M,M,M,M,M,M,M,M,M,M,M,M,M,58.10,KTMT 301015Z AUTO 00000KT 10SM CLR 15/09 A3022 RMK AO2 T01450088,M
BVU,2021-07-30 10:15,-114.8611,35.9475,671.00,82.40,62.60,51.21,0.00,0.00,0.00,29.98,M,10.00,M,FEW,BKN,M,M,6500.00,8500.00,M,M,M,M,M,M,M,M,M,83.41,KBVU 301015Z AUTO 00000KT 10SM FEW065 BKN085 28/17 A2998 RMK AO2,M
RTS,2021-07-30 10:15,-119.8764,39.6682,1539.00,68.00,41.00,37.32,340.00,8.00,0.00,30.15,M,10.00,M,CLR,M,M,M,M,M,M,M,M,M,M,M,M,M,M,68.00,KRTS 301015Z AUTO 34008KT 10SM CLR 20/05 A3015 RMK AO2,M
CXP,2021-07-30 10:30,-119.7326,39.1923,1431.00,68.00,50.00,52.51,0.00,0.00,0.00,30.16,M,10.00,M,OVC,M,M,M,6500.00,M,M,M,M,M,M,M,M,M,M,68.00,KCXP 301030Z AUTO 00000KT 10SM OVC065 20/10 A3016 RMK AO2,M
BAM,2021-07-30 10:35,-116.8743,40.5990,1382.36,69.80,44.60,40.29,0.00,0.00,0.00,30.12,M,10.00,M,BKN,M,M,M,12000.00,M,M,M,M,M,M,M,M,M,M,69.80,KBAM 301035Z AUTO 00000KT 10SM BKN120 21/07 A3012 RMK AO1,M
HTH,2021-07-30 10:35,-118.6315,38.5448,1282.89,75.20,46.40,35.94,150.00,6.00,0.00,30.09,M,10.00,M,CLR,M,M,M,M,M,M,M,M,M,M,M,M,M,M,75.20,KHTH 301035Z AUTO 15006KT 10SM CLR 24/08 A3009 RMK A01,M
TMT,2021-07-30 10:35,-117.1971,39.4643,1749.34,59.50,47.50,64.42,0.00,0.00,0.00,30.22,M,10.00,M,CLR,M,M,M,M,M,M,M,M,M,M,M,M,M,M,59.50,KTMT 301035Z AUTO 00000KT 10SM CLR 15/09 A3022 RMK AO2 T01530086,M
BVU,2021-07-30 10:35,-114.8611,35.9475,671.00,82.40,62.60,51.21,0.00,0.00,0.00,29.98,M,10.00,M,FEW,SCT,BKN,M,6000.00,7500.00,9000.00,M,M,M,M,M,M,M,M,83.41,KBVU 301035Z AUTO 00000KT 10SM FEW060 SCT075 BKN090 28/17 A2998 RMK AO2,M
RTS,2021-07-30 10:35,-119.8764,39.6682,1539.00,68.00,41.00,37.32,340.00,7.00,0.00,30.15,M,10.00,M,CLR,M,M,M,M,M,M,M,M,M,M,M,M,M,M,68.00,KRTS 301035Z AUTO 34007KT 10SM CLR 20/05 A3015 RMK AO2,M
05U,2021-07-30 10:35,-116.0051,39.6042,1811.23,66.20,50.00,55.88,0.00,0.00,0.00,30.25,M,10.00,M,BKN,M,M,M,12000.00,M,M,M,M,M,M,M,M,M,M,66.20,K05U 301035Z AUTO 00000KT 10SM BKN120 19/10 A3025 RMK A01,M
MEV,2021-07-30 10:35,-119.7500,38.9963,1441.42,57.20,50.00,76.82,160.00,6.00,0.00,30.14,M,10.00,M,OVC,M,M,M,6500.00,M,M,M,M,M,M,M,M,M,M,57.20,KMEV 301035Z AUTO 16006KT 10SM OVC065 14/10 A3014 RMK AO2,M
CXP,2021-07-30 10:50,-119.7326,39.1923,1431.00,66.20,50.00,55.88,0.00,0.00,0.00,30.15,M,10.00,M,OVC,M,M,M,6500.00,M,M,M,M,M,M,M,M,M,M,66.20,KCXP 301050Z AUTO 00000KT 10SM OVC065 19/10 A3015 RMK AO2,M
DRA,2021-07-30 10:53,-116.0278,36.6206,1009.00,75.00,62.00,64.20,110.00,8.00,0.00,30.05,1011.90,10.00,M,CLR,M,M,M,M,M,M,M,M,M,M,M,M,M,M,75.00,KDRA 301053Z AUTO 11008KT 10SM CLR 24/17 A3005 RMK AO2 SLP119 T02390167,M
LOL,2021-07-30 10:53,-118.5701,40.0684,1192.43,72.00,46.00,39.42,0.00,0.00,0.00,30.05,1012.10,10.00,M,CLR,M,M,M,M,M,M,M,M,M,M,M,M,M,M,72.00,KLOL 301053Z AUTO 00000KT 10SM CLR 22/08 A3005 RMK AO2 SLP121 T02220078,M
VGT,2021-07-30 10:53,-115.1933,36.2111,667.00,82.00,67.00,60.28,90.00,4.00,0.00,29.96,1013.10,10.00,M,CLR,M,M,M,M,M,M,M,M,M,M,M,M,M,M,84.48,KVGT 301053Z AUTO 09004KT 10SM CLR 28/19 A2996 RMK AO2 SLP131 T02780194 PNO,M
P68,2021-07-30 10:53,-116.0056,39.6014,1993.00,65.00,51.00,60.90,140.00,4.00,0.00,30.22,1014.70,M,M,M,M,M,M,M,M,M,M,M,M,M,M,M,M,M,64.90,KP68 301053Z AUTO 14004KT 18/11 A3022 RMK AO1 SLP147 T01830106,M
ELY,2021-07-30 10:53,-114.8453,39.2950,1909.00,56.00,52.00,86.71,90.00,5.00,0.00,30.26,1014.50,10.00,M,CLR,M,M,M,M,M,M,M,M,M,M,M,M,M,M,55.90,KELY 301053Z AUTO 09005KT 10SM CLR 13/11 A3026 RMK AO2 SLP145 T01330111,M
RTS,2021-07-30 10:55,-119.8764,39.6682,1539.00,68.00,41.00,37.32,360.00,5.00,0.00,30.15,M,10.00,M,CLR,M,M,M,M,M,M,M,M,M,M,M,M,M,M,68.00,KRTS 301055Z AUTO 36005KT 10SM CLR 20/05 A3015 RMK AO2,M
05U,2021-07-30 10:55,-116.0051,39.6042,1811.23,64.40,50.00,59.50,0.00,0.00,0.00,30.25,M,10.00,M,BKN,M,M,M,12000.00,M,M,M,M,M,M,M,M,M,M,64.40,K05U 301055Z AUTO 00000KT 10SM BKN120 18/10 A3025 RMK A01,M
MEV,2021-07-30 10:55,-119.7500,38.9963,1441.42,59.00,51.80,76.98,0.00,0.00,0.00,30.14,M,10.00,M,OVC,M,M,M,7000.00,M,M,M,M,M,M,M,M,M,M,59.00,KMEV 301055Z AUTO 00000KT 10SM OVC070 15/11 A3014 RMK AO2,M
BAM,2021-07-30 10:55,-116.8743,40.5990,1382.36,69.80,44.60,40.29,0.00,0.00,0.00,30.12,M,10.00,M,SCT,M,M,M,12000.00,M,M,M,M,M,M,M,M,M,M,69.80,KBAM 301055Z AUTO 00000KT 10SM SCT120 21/07 A3012 RMK AO1,M
HTH,2021-07-30 10:55,-118.6315,38.5448,1282.89,75.20,46.40,35.94,130.00,10.00,0.00,30.09,M,10.00,M,CLR,M,M,M,M,M,M,M,M,M,M,M,M,M,M,75.20,KHTH 301055Z AUTO 13010KT 10SM CLR 24/08 A3009 RMK A01,M
BVU,2021-07-30 10:55,-114.8611,35.9475,671.00,80.60,64.40,57.84,60.00,4.00,0.00,29.97,M,10.00,M,FEW,FEW,M,M,7500.00,9000.00,M,M,M,M,M,M,M,M,M,82.27,KBVU 301055Z AUTO 06004KT 10SM FEW075 FEW090 27/18 A2997 RMK AO2,M
TMT,2021-07-30 10:55,-117.1971,39.4643,1749.34,55.00,46.00,71.33,0.00,0.00,0.00,30.22,M,10.00,M,SCT,M,M,M,12000.00,M,M,M,M,M,M,M,M,M,M,55.00,KTMT 301055Z AUTO 00000KT 10SM SCT120 13/08 A3022 RMK AO2 T01280077,M
RNO,2021-07-30 10:55,-119.7711,39.4839,1341.00,71.00,49.00,45.33,180.00,3.00,0.00,30.10,1012.70,10.00,M,BKN,BKN,M,M,15000.00,25000.00,M,M,M,M,M,M,M,M,M,71.10,KRNO 301055Z 18003KT 10SM BKN150 BKN250 22/09 A3010 RMK AO2 SLP127 T02170094,M
LAS,2021-07-30 10:56,-115.1634,36.0719,663.00,83.00,61.00,47.62,0.00,0.00,0.00,29.97,1011.70,10.00,M,FEW,BKN,OVC,M,11000.00,14000.00,18000.00,M,M,M,M,M,M,M,M,83.37,KLAS 301056Z 00000KT 10SM FEW110 BKN140 OVC180 28/16 A2997 RMK AO2 SLP117 T02830161 $,M
TPH,2021-07-30 10:56,-117.0904,38.0505,1654.00,69.00,51.00,52.67,0.00,0.00,0.00,30.20,1013.80,10.00,M,CLR,M,M,M,M,M,M,M,M,M,M,M,M,M,M,69.10,KTPH 301056Z AUTO 00000KT 10SM CLR 21/11 A3020 RMK AO2 SLP138 T02060106,M
EKO,2021-07-30 10:56,-115.7860,40.8242,1367.00,73.00,50.00,44.29,10.00,6.00,0.00,30.17,1015.10,10.00,M,CLR,M,M,M,M,M,M,M,M,M,M,M,M,M,M,73.00,KEKO 301056Z AUTO 01006KT 10SM CLR 23/10 A3017 RMK AO2 SLP151 T02280100 $,M
NFL,2021-07-30 10:56,-118.7010,39.4166,1199.00,75.00,44.00,33.16,0.00,0.00,0.00,30.06,1014.80,10.00,M,CLR,M,M,M,M,M,M,M,M,M,M,M,M,M,M,75.00,KNFL 301056Z AUTO 00000KT 10SM CLR 24/07 A3006 RMK AO2 SLP148 T02390067,M
WMC,2021-07-30 10:56,-117.8072,40.9019,1315.00,67.00,46.00,46.94,150.00,5.00,0.00,30.08,1012.70,10.00,M,CLR,M,M,M,M,M,M,M,M,M,M,M,M,M,M,66.90,KWMC 301056Z AUTO 15005KT 10SM CLR 19/08 A3008 RMK AO2 SLP127 T01940078,M
HND,2021-07-30 10:56,-115.1344,35.9729,742.79,78.00,69.00,73.88,0.00,0.00,0.00,30.01,1014.30,10.00,M,CLR,M,M,M,M,M,M,M,M,M,M,M,M,M,M,78.10,KHND 301056Z AUTO 00000KT 10SM CLR 26/21 A3001 RMK AO2 SLP143 T02560206,M
LSV,2021-07-30 10:58,-115.0343,36.2362,570.00,81.50,67.60,62.77,60.00,3.00,0.00,29.95,1011.40,10.00,M,OVC,M,M,M,13000.00,M,M,M,M,M,M,M,M,M,M,84.19,KLSV 301058Z AUTO 06003KT 10SM OVC130 28/20 A2995 RMK AO2 SLP114 T02750198 $,M
INS,2021-07-30 10:58,-115.6733,36.5872,955.00,75.60,59.70,57.79,0.00,0.00,0.00,30.05,1012.30,10.00,M,FEW,M,M,M,15000.00,M,M,M,M,M,M,M,M,M,M,75.60,KINS 301058Z AUTO 00000KT 10SM FEW150 24/15 A3005 RMK AO2 SLP123 T02420154 $,M
CXP,2021-07-30 11:10,-119.7326,39.1923,1431.00,66.20,51.80,59.74,220.00,3.00,0.00,30.15,M,10.00,M,OVC,M,M,M,6000.00,M,M,M,M,M,M,M,M,M,M,66.20,KCXP 301110Z AUTO 22003KT 10SM OVC060 19/11 A3015 RMK AO2,M
HTH,2021-07-30 11:15,-118.6315,38.5448,1282.89,75.20,48.20,38.46,100.00,10.00,0.00,30.09,M,10.00,M,CLR,M,M,M,M,M,M,M,M,M,M,M,M,M,M,75.20,KHTH 301115Z AUTO 10010KT 10SM CLR 24/09 A3009 RMK A01,M
TMT,2021-07-30 11:15,-117.1971,39.4643,1749.34,55.60,46.00,70.06,90.00,3.00,0.00,30.22,M,10.00,M,SCT,M,M,M,12000.00,M,M,M,M,M,M,M,M,M,M,55.60,KTMT 301115Z AUTO 09003KT 10SM SCT120 13/08 A3022 RMK AO2 T01310078,M
BAM,2021-07-30 11:15,-116.8743,40.5990,1382.36,69.80,44.60,40.29,0.00,0.00,0.00,30.12,M,10.00,M,CLR,M,M,M,M,M,M,M,M,M,M,M,M,M,M,69.80,KBAM 301115Z AUTO 00000KT 10SM CLR 21/07 A3012 RMK AO1,M
MEV,2021-07-30 11:15,-119.7500,38.9963,1441.42,59.00,51.80,76.98,0.00,0.00,0.00,30.14,M,10.00,M,OVC,M,M,M,7000.00,M,M,M,M,M,M,M,M,M,M,59.00,KMEV 301115Z AUTO 00000KT 10SM OVC070 15/11 A3014 RMK AO2,M
05U,2021-07-30 11:15,-116.0051,39.6042,1811.23,64.40,50.00,59.50,0.00,0.00,0.00,30.25,M,10.00,M,SCT,M,M,M,12000.00,M,M,M,M,M,M,M,M,M,M,64.40,K05U 301115Z AUTO 00000KT 10SM SCT120 18/10 A3025 RMK A01,M
RTS,2021-07-30 11:15,-119.8764,39.6682,1539.00,68.00,41.00,37.32,0.00,0.00,0.00,30.15,M,10.00,M,CLR,M,M,M,M,M,M,M,M,M,M,M,M,M,M,68.00,KRTS 301115Z AUTO 00000KT 10SM CLR 20/05 A3015 RMK AO2,M
BVU,2021-07-30 11:15,-114.8611,35.9475,671.00,80.60,64.40,57.84,40.00,4.00,0.00,29.97,M,10.00,M,CLR,M,M,M,M,M,M,M,M,M,M,M,M,M,M,82.27,KBVU 301115Z AUTO 04004KT 10SM CLR 27/18 A2997 RMK AO2,M
CXP,2021-07-30 11:30,-119.7326,39.1923,1431.00,64.40,51.80,63.60,0.00,0.00,0.00,30.15,M,10.00,M,OVC,M,M,M,5500.00,M,M,M,M,M,M,M,M,M,M,64.40,KCXP 301130Z AUTO 00000KT 10SM OVC055 18/11 A3015 RMK AO2,M
TMT,2021-07-30 11:35,-117.1971,39.4643,1749.34,52.50,45.30,76.40,100.00,5.00,0.00,30.22,M,10.00,M,CLR,M,M,M,M,M,M,M,M,M,M,M,M,M,M,52.50,KTMT 301135Z AUTO 10005KT 10SM CLR 11/07 A3022 RMK AO2 T01140074,M
RTS,2021-07-30 11:35,-119.8764,39.6682,1539.00,69.80,41.00,35.09,0.00,0.00,0.00,30.15,M,10.00,M,CLR,M,M,M,M,M,M,M,M,M,M,M,M,M,M,69.80,KRTS 301135Z AUTO 00000KT 10SM CLR 21/05 A3015 RMK AO2,M
HTH,2021-07-30 11:35,-118.6315,38.5448,1282.89,73.40,50.00,43.69,110.00,12.00,0.00,30.08,M,10.00,M,CLR,M,M,M,M,M,M,M,M,M,M,M,M,M,M,73.40,KHTH 301135Z AUTO 11012KT 10SM CLR 23/10 A3008 RMK A01,M
BAM,2021-07-30 11:35,-116.8743,40.5990,1382.36,69.80,44.60,40.29,0.00,0.00,0.00,30.13,M,10.00,M,BKN,M,M,M,12000.00,M,M,M,M,M,M,M,M,M,M,69.80,KBAM 301135Z AUTO 00000KT 10SM BKN120 21/07 A3013 RMK AO1,M
MEV,2021-07-30 11:35,-119.7500,38.9963,1441.42,57.20,48.20,71.83,50.00,5.00,0.00,30.14,M,10.00,M,OVC,M,M,M,7000.00,M,M,M,M,M,M,M,M,M,M,57.20,KMEV 301135Z AUTO 05005KT 10SM OVC070 14/09 A3014 RMK AO2,M
05U,2021-07-30 11:35,-116.0051,39.6042,1811.23,64.40,50.00,59.50,0.00,0.00,0.00,30.25,M,10.00,M,FEW,M,M,M,12000.00,M,M,M,M,M,M,M,M,M,M,64.40,K05U 301135Z AUTO 00000KT 10SM FEW120 18/10 A3025 RMK A01,M
BVU,2021-07-30 11:35,-114.8611,35.9475,671.00,82.40,62.60,51.21,0.00,0.00,0.00,29.98,M,10.00,M,FEW,M,M,M,12000.00,M,M,M,M,M,M,M,M,M,M,83.41,KBVU 301135Z AUTO 00000KT 10SM FEW120 28/17 A2998 RMK AO2,M
CXP,2021-07-30 11:50,-119.7326,39.1923,1431.00,64.40,51.80,63.60,0.00,0.00,0.00,30.15,M,10.00,M,OVC,M,M,M,5000.00,M,M,M,M,M,M,M,M,M,M,64.40,KCXP 301150Z AUTO 00000KT 10SM OVC050 18/11 A3015 RMK AO2,M
LOL,2021-07-30 11:53,-118.5701,40.0684,1192.43,64.00,47.00,53.72,150.00,4.00,0.00,30.05,1012.70,10.00,M,CLR,M,M,M,M,M,M,M,M,M,M,M,M,M,M,64.00,KLOL 301153Z AUTO 15004KT 10SM CLR 18/08 A3005 RMK AO2 SLP127 T01780083 10272 20178 56004,M
DRA,2021-07-30 11:53,-116.0278,36.6206,1009.00,75.00,62.00,64.20,110.00,9.00,0.00,30.05,1012.00,10.00,M,CLR,M,M,M,M,M,M,M,M,M,M,M,M,M,M,75.00,KDRA 301153Z AUTO 11009KT 10SM CLR 24/17 A3005 RMK AO2 SLP120 60000 7//// T02390167 10261 20233 55001,M
VGT,2021-07-30 11:53,-115.1933,36.2111,667.00,84.00,63.00,49.32,350.00,5.00,0.00,29.98,1013.50,10.00,M,CLR,M,M,M,M,M,M,M,M,M,M,M,M,M,M,84.99,KVGT 301153Z AUTO 35005KT 10SM CLR 29/17 A2998 RMK AO2 SLP135 6//// 7//// T02890172 10294 20272 53001 PNO,M
P68,2021-07-30 11:53,-116.0056,39.6014,1993.00,64.00,51.00,62.85,190.00,3.00,0.00,30.22,1014.60,M,M,M,M,M,M,M,M,M,M,M,M,M,M,M,M,M,64.00,KP68 301153Z AUTO 19003KT 18/11 A3022 RMK AO1 SLP146 T01780106 10211 20172 55003,M
ELY,2021-07-30 11:53,-114.8453,39.2950,1909.00,58.00,54.00,86.82,0.00,0.00,0.00,30.28,1015.10,10.00,M,OVC,M,M,M,11000.00,M,M,M,M,M,M,M,M,M,M,57.90,KELY 301153Z AUTO 00000KT 10SM OVC110 14/12 A3028 RMK AO2 SLP151 T01440122 10178 20128 53000,M
05U,2021-07-30 11:55,-116.0051,39.6042,1811.23,62.60,50.00,63.38,0.00,0.00,0.00,30.25,M,10.00,M,CLR,M,M,M,M,M,M,M,M,M,M,M,M,M,M,62.60,K05U 301155Z AUTO 00000KT 10SM CLR 17/10 A3025 RMK A01,M
HTH,2021-07-30 11:55,-118.6315,38.5448,1282.89,73.40,50.00,43.69,120.00,9.00,0.00,30.08,M,10.00,M,CLR,M,M,M,M,M,M,M,M,M,M,M,M,M,M,73.40,KHTH 301155Z AUTO 12009KT 10SM CLR 23/10 A3008 RMK A01,M
BAM,2021-07-30 11:55,-116.8743,40.5990,1382.36,71.60,46.40,40.57,0.00,0.00,0.00,30.13,M,10.00,M,BKN,M,M,M,11000.00,M,M,M,M,M,M,M,M,M,M,71.60,KBAM 301155Z AUTO 00000KT 10SM BKN110 22/08 A3013 RMK AO1,M
RTS,2021-07-30 11:55,-119.8764,39.6682,1539.00,64.40,39.20,39.43,350.00,4.00,0.00,30.15,M,10.00,M,CLR,M,M,M,M,M,M,M,M,M,M,M,M,M,M,64.40,KRTS 301155Z AUTO 35004KT 10SM CLR 18/04 A3015 RMK AO2,M
RNO,2021-07-30 11:55,-119.7711,39.4839,1341.00,71.00,49.00,45.33,0.00,0.00,0.00,30.10,1013.00,10.00,M,SCT,BKN,M,M,15000.00,25000.00,M,M,M,M,M,M,M,M,M,71.10,KRNO 301155Z 00000KT 10SM SCT150 BKN250 22/09 A3010 RMK AO2 SLP130 T02170094 10261 20217 56005,M
BVU,2021-07-30 11:55,-114.8611,35.9475,671.00,82.40,60.80,48.05,350.00,4.00,0.00,29.98,M,10.00,M,BKN,M,M,M,12000.00,M,M,M,M,M,M,M,M,M,M,82.90,KBVU 301155Z AUTO 35004KT 10SM BKN120 28/16 A2998 RMK AO2,M
TMT,2021-07-30 11:55,-117.1971,39.4643,1749.34,55.00,45.70,70.79,0.00,0.00,0.00,30.22,M,10.00,M,CLR,M,M,M,M,M,M,M,M,M,M,M,M,M,M,55.00,KTMT 301155Z AUTO 00000KT 10SM CLR 13/08 A3022 RMK AO2 T01280076 10209 20112,M
MEV,2021-07-30 11:55,-119.7500,38.9963,1441.42,59.00,48.20,67.33,80.00,5.00,0.00,30.14,M,10.00,M,OVC,M,M,M,6500.00,M,M,M,M,M,M,M,M,M,M,59.00,KMEV 301155Z AUTO 08005KT 10SM OVC065 15/09 A3014 RMK AO2,M
WMC,2021-07-30 11:56,-117.8072,40.9019,1315.00,64.00,43.00,46.32,30.00,3.00,0.00,30.09,1013.00,10.00,M,CLR,M,M,M,M,M,M,M,M,M,M,M,M,M,M,64.00,KWMC 301156Z AUTO 03003KT 10SM CLR 18/06 A3009 RMK AO2 SLP130 T01780061 10278 20178 55002,M
EKO,2021-07-30 11:56,-115.7860,40.8242,1367.00,72.00,49.00,43.97,90.00,8.00,0.00,30.17,1015.20,10.00,M,CLR,M,M,M,M,M,M,M,M,M,M,M,M,M,M,72.00,KEKO 301156Z AUTO 09008KT 10SM CLR 22/09 A3017 RMK AO2 SLP152 T02220094 10244 20222 58001 $,M
HND,2021-07-30 11:56,-115.1344,35.9729,742.79,78.00,68.00,71.14,180.00,3.00,0.00,30.02,1014.80,10.00,M,CLR,M,M,M,M,M,M,M,M,M,M,M,M,M,M,78.10,KHND 301156Z AUTO 18003KT 10SM CLR 26/20 A3002 RMK AO2 SLP148 70014 T02560200 10278 20256 55003,M
NFL,2021-07-30 11:56,-118.7010,39.4166,1199.00,77.00,44.00,31.02,220.00,5.00,0.00,30.06,1014.70,10.00,M,CLR,M,M,M,M,M,M,M,M,M,M,M,M,M,M,77.00,KNFL 301156Z AUTO 22005KT 10SM CLR 25/07 A3006 RMK AO2 SLP147 T02500067 10267 20233 53000,M
TPH,2021-07-30 11:56,-117.0904,38.0505,1654.00,66.00,50.00,56.27,30.00,5.00,0.00,30.19,1013.90,10.00,M,CLR,M,M,M,M,M,M,M,M,M,M,M,M,M,M,66.00,KTPH 301156Z AUTO 03005KT 10SM CLR 19/10 A3019 RMK AO2 SLP139 T01890100 10239 20189 58009,M
LAS,2021-07-30 11:56,-115.1634,36.0719,663.00,83.00,63.00,51.10,0.00,0.00,0.00,29.99,1012.20,10.00,M,FEW,BKN,OVC,M,11000.00,14000.00,18000.00,M,M,M,M,M,M,M,M,83.98,KLAS 301156Z 00000KT 10SM FEW110 BKN140 OVC180 28/17 A2999 RMK AO2 SLP122 60003 70005 T02830172 10300 20278 55000 $,M
LSV,2021-07-30 11:58,-115.0343,36.2362,570.00,80.80,67.50,64.00,70.00,6.00,0.00,29.96,1011.70,10.00,M,OVC,M,M,M,13000.00,M,M,M,M,M,M,M,M,M,M,83.37,KLSV 301158Z AUTO 07006KT 10SM OVC130 27/20 A2996 RMK AO2 SLP117 70007 T02710197 10295 20268 55001 $,M
INS,2021-07-30 11:58,-115.6733,36.5872,955.00,76.30,60.00,56.86,190.00,3.00,0.00,30.05,1012.20,10.00,M,OVC,M,M,M,14000.00,M,M,M,M,M,M,M,M,M,M,76.30,KINS 301158Z AUTO 19003KT 10SM OVC140 25/16 A3005 RMK AO2 SLP122 60000 T02460155 10247 20230 50004 $,M
CXP,2021-07-30 12:10,-119.7326,39.1923,1431.00,64.40,51.80,63.60,340.00,3.00,0.00,30.15,M,10.00,M,OVC,M,M,M,5000.00,M,M,M,M,M,M,M,M,M,M,64.40,KCXP 301210Z AUTO 34003KT 10SM OVC050 18/11 A3015 RMK AO2,M
BAM,2021-07-30 12:15,-116.8743,40.5990,1382.36,71.60,46.40,40.57,0.00,0.00,0.00,30.13,M,10.00,M,CLR,M,M,M,M,M,M,M,M,M,M,M,M,M,M,71.60,KBAM 301215Z AUTO 00000KT 10SM CLR 22/08 A3013 RMK AO1,M
RTS,2021-07-30 12:15,-119.8764,39.6682,1539.00,64.40,41.00,42.28,340.00,4.00,0.00,30.15,M,10.00,M,CLR,M,M,M,M,M,M,M,M,M,M,M,M,M,M,64.40,KRTS 301215Z AUTO 34004KT 10SM CLR 18/05 A3015 RMK AO2,M
BVU,2021-07-30 12:15,-114.8611,35.9475,671.00,82.40,60.80,48.05,350.00,6.00,0.00,29.98,M,10.00,M,OVC,M,M,M,11000.00,M,M,M,M,M,M,M,M,M,M,82.90,KBVU 301215Z AUTO 35006KT 10SM OVC110 28/16 A2998 RMK AO2,M
MEV,2021-07-30 12:15,-119.7500,38.9963,1441.42,55.40,48.20,76.66,130.00,3.00,0.00,30.14,M,10.00,M,BKN,BKN,M,M,6500.00,7500.00,M,M,M,M,M,M,M,M,M,55.40,KMEV 301215Z AUTO 13003KT 10SM BKN065 BKN075 13/09 A3014 RMK AO2,M
05U,2021-07-30 12:15,-116.0051,39.6042,1811.23,60.80,50.00,67.54,0.00,0.00,0.00,30.25,M,10.00,M,BKN,M,M,M,9500.00,M,M,M,M,M,M,M,M,M,M,60.80,K05U 301215Z AUTO 00000KT 10SM BKN095 16/10 A3025 RMK A01,M
TMT,2021-07-30 12:15,-117.1971,39.4643,1749.34,52.20,45.50,77.84,0.00,0.00,0.00,30.22,M,10.00,M,CLR,M,M,M,M,M,M,M,M,M,M,M,M,M,M,52.20,KTMT 301215Z AUTO 00000KT 10SM CLR 11/08 A3022 RMK AO2 T01120075,M
HTH,2021-07-30 12:15,-118.6315,38.5448,1282.89,73.40,50.00,43.69,110.00,10.00,0.00,30.08,M,10.00,M,CLR,M,M,M,M,M,M,M,M,M,M,M,M,M,M,73.40,KHTH 301215Z AUTO 11010KT 10SM CLR 23/10 A3008 RMK A01,M
CXP,2021-07-30 12:30,-119.7326,39.1923,1431.00,64.40,50.00,59.50,330.00,4.00,0.00,30.14,M,10.00,M,OVC,M,M,M,5000.00,M,M,M,M,M,M,M,M,M,M,64.40,KCXP 301230Z AUTO 33004KT 10SM OVC050 18/10 A3014 RMK AO2,M
HTH,2021-07-30 12:35,-118.6315,38.5448,1282.89,73.40,46.40,38.18,130.00,8.00,0.00,30.09,M,10.00,M,CLR,M,M,M,M,M,M,M,M,M,M,M,M,M,M,73.40,KHTH 301235Z AUTO 13008KT 10SM CLR 23/08 A3009 RMK A01,M
BVU,2021-07-30 12:35,-114.8611,35.9475,671.00,82.40,60.80,48.05,30.00,5.00,0.00,29.99,M,10.00,M,BKN,M,M,M,11000.00,M,M,M,M,M,M,M,M,M,M,82.90,KBVU 301235Z AUTO 03005KT 10SM BKN110 28/16 A2999 RMK AO2,M
BAM,2021-07-30 12:35,-116.8743,40.5990,1382.36,71.60,46.40,40.57,190.00,3.00,0.00,30.12,M,10.00,M,CLR,M,M,M,M,M,M,M,M,M,M,M,M,M,M,71.60,KBAM 301235Z AUTO 19003KT 10SM CLR 22/08 A3012 RMK AO1,M
MEV,2021-07-30 12:35,-119.7500,38.9963,1441.42,55.40,48.20,76.66,200.00,5.00,0.00,30.14,M,10.00,M,FEW,M,M,M,6500.00,M,M,M,M,M,M,M,M,M,M,55.40,KMEV 301235Z AUTO 20005KT 10SM FEW065 13/09 A3014 RMK AO2,M
05U,2021-07-30 12:35,-116.0051,39.6042,1811.23,59.00,50.00,72.01,0.00,0.00,0.00,30.25,M,10.00,M,BKN,M,M,M,9500.00,M,M,M,M,M,M,M,M,M,M,59.00,K05U 301235Z AUTO 00000KT 10SM BKN095 15/10 A3025 RMK A01,M
RTS,2021-07-30 12:35,-119.8764,39.6682,1539.00,64.40,41.00,42.28,340.00,4.00,0.00,30.15,M,10.00,M,CLR,M,M,M,M,M,M,M,M,M,M,M,M,M,M,64.40,KRTS 301235Z AUTO 34004KT 10SM CLR 18/05 A3015 RMK AO2,M
TMT,2021-07-30 12:35,-117.1971,39.4643,1749.34,58.00,49.30,72.98,200.00,4.00,0.00,30.22,M,10.00,M,CLR,M,M,M,M,M,M,M,M,M,M,M,M,M,M,57.90,KTMT 301235Z AUTO 20004KT 10SM CLR 14/10 A3022 RMK AO2 T01440096,M
CXP,2021-07-30 12:50,-119.7326,39.1923,1431.00,64.40,51.80,63.60,0.00,0.00,0.00,30.15,M,10.00,M,SCT,M,M,M,5000.00,M,M,M,M,M,M,M,M,M,M,64.40,KCXP 301250Z AUTO 00000KT 10SM SCT050 18/11 A3015 RMK AO2,M
LOL,2021-07-30 12:53,-118.5701,40.0684,1192.43,66.00,48.00,52.22,0.00,0.00,0.00,30.06,1013.00,10.00,M,CLR,M,M,M,M,M,M,M,M,M,M,M,M,M,M,66.00,KLOL 301253Z AUTO 00000KT 10SM CLR 19/09 A3006 RMK AO2 SLP130 T01890089,M
VGT,2021-07-30 12:53,-115.1933,36.2111,667.00,82.00,64.00,54.50,340.00,5.00,0.00,29.98,1013.80,10.00,M,CLR,M,M,M,M,M,M,M,M,M,M,M,M,M,M,83.47,KVGT 301253Z 34005KT 10SM CLR 28/18 A2998 RMK AO2 SLP138 T02780178 PNO,M
DRA,2021-07-30 12:53,-116.0278,36.6206,1009.00,75.00,62.00,64.20,70.00,7.00,0.00,30.05,1012.30,10.00,M,CLR,M,M,M,M,M,M,M,M,M,M,M,M,M,M,75.00,KDRA 301253Z AUTO 07007KT 10SM CLR 24/17 A3005 RMK AO2 SLP123 T02390167,M
ELY,2021-07-30 12:53,-114.8453,39.2950,1909.00,59.00,55.00,86.56,210.00,3.00,0.00,30.29,1015.90,10.00,M,SCT,OVC,M,M,9500.00,12000.00,M,M,M,M,M,M,M,M,M,59.00,KELY 301253Z AUTO 21003KT 10SM SCT095 OVC120 15/13 A3029 RMK AO2 SLP159 T01500128,M
P68,2021-07-30 12:53,-116.0056,39.6014,1993.00,59.00,50.00,72.01,0.00,0.00,0.00,30.23,1015.60,M,M,M,M,M,M,M,M,M,M,M,M,M,M,M,M,M,59.00,KP68 301253Z AUTO 00000KT 15/10 A3023 RMK AO1 SLP156 T01500100,M
HTH,2021-07-30 12:55,-118.6315,38.5448,1282.89,71.60,48.20,43.42,190.00,3.00,0.00,30.10,M,10.00,M,CLR,M,M,M,M,M,M,M,M,M,M,M,M,M,M,71.60,KHTH 301255Z AUTO 19003KT 10SM CLR 22/09 A3010 RMK A01,M
MEV,2021-07-30 12:55,-119.7500,38.9963,1441.42,53.60,50.00,87.56,210.00,3.00,0.00,30.15,M,10.00,M,CLR,M,M,M,M,M,M,M,M,M,M,M,M,M,M,53.60,KMEV 301255Z AUTO 21003KT 10SM CLR 12/10 A3015 RMK AO2,M
BAM,2021-07-30 12:55,-116.8743,40.5990,1382.36,69.80,44.60,40.29,0.00,0.00,0.00,30.12,M,10.00,M,SCT,M,M,M,12000.00,M,M,M,M,M,M,M,M,M,M,69.80,KBAM 301255Z AUTO 00000KT 10SM SCT120 21/07 A3012 RMK AO1,M
05U,2021-07-30 12:55,-116.0051,39.6042,1811.23,59.00,48.20,67.33,0.00,0.00,0.00,30.26,M,10.00,M,CLR,M,M,M,M,M,M,M,M,M,M,M,M,M,M,59.00,K05U 301255Z AUTO 00000KT 10SM CLR 15/09 A3026 RMK A01,M
RTS,2021-07-30 12:55,-119.8764,39.6682,1539.00,62.60,41.00,45.04,360.00,3.00,0.00,30.15,M,10.00,M,CLR,M,M,M,M,M,M,M,M,M,M,M,M,M,M,62.60,KRTS 301255Z AUTO 36003KT 10SM CLR 17/05 A3015 RMK AO2,M
RNO,2021-07-30 12:55,-119.7711,39.4839,1341.00,69.00,49.00,48.53,0.00,0.00,0.00,30.10,1013.60,10.00,M,SCT,BKN,M,M,15000.00,25000.00,M,M,M,M,M,M,M,M,M,69.10,KRNO 301255Z 00000KT 10SM SCT150 BKN250 21/09 A3010 RMK AO2 SLP136 T02060094,M
BVU,2021-07-30 12:55,-114.8611,35.9475,671.00,82.40,62.60,51.21,20.00,5.00,0.00,30.00,M,10.00,M,CLR,M,M,M,M,M,M,M,M,M,M,M,M,M,M,83.41,KBVU 301255Z AUTO 02005KT 10SM CLR 28/17 A3000 RMK AO2,M
TMT,2021-07-30 12:55,-117.1971,39.4643,1749.34,54.30,47.00,75.99,90.00,3.00,0.00,30.24,M,10.00,M,CLR,M,M,M,M,M,M,M,M,M,M,M,M,M,M,54.30,KTMT 301255Z AUTO 09003KT 10SM CLR 12/08 A3024 RMK AO2 T01240083,M
EKO,2021-07-30 12:56,-115.7860,40.8242,1367.00,71.00,49.00,45.33,60.00,8.00,0.00,30.17,1015.40,10.00,M,FEW,BKN,M,M,9500.00,12000.00,M,M,M,M,M,M,M,M,M,71.10,KEKO 301256Z AUTO 06008KT 10SM FEW095 BKN120 22/09 A3017 RMK AO2 SLP154 T02170094 $,M
WMC,2021-07-30 12:56,-117.8072,40.9019,1315.00,59.00,41.00,51.18,200.00,3.00,0.00,30.09,1013.70,10.00,M,CLR,M,M,M,M,M,M,M,M,M,M,M,M,M,M,59.00,KWMC 301256Z AUTO 20003KT 10SM CLR 15/05 A3009 RMK AO2 SLP137 T01500050,M
LAS,2021-07-30 12:56,-115.1634,36.0719,663.00,83.00,64.00,52.93,60.00,3.00,0.00,30.00,1012.60,10.00,M,FEW,BKN,M,M,11000.00,14000.00,M,M,M,M,M,M,M,M,M,84.32,KLAS 301256Z 06003KT 10SM FEW110 BKN140 28/18 A3000 RMK AO2 SLP126 T02830178 $,M
TPH,2021-07-30 12:56,-117.0904,38.0505,1654.00,65.00,49.00,56.12,20.00,5.00,0.00,30.19,1014.10,10.00,M,CLR,M,M,M,M,M,M,M,M,M,M,M,M,M,M,64.90,KTPH 301256Z AUTO 02005KT 10SM CLR 18/09 A3019 RMK AO2 SLP141 T01830094,M
NFL,2021-07-30 12:56,-118.7010,39.4166,1199.00,73.00,44.00,35.46,180.00,3.00,0.00,30.06,1014.60,10.00,M,CLR,M,M,M,M,M,M,M,M,M,M,M,M,M,M,73.00,KNFL 301256Z AUTO 18003KT 10SM CLR 23/07 A3006 RMK AO2 SLP146 T02280067,M
HND,2021-07-30 12:56,-115.1344,35.9729,742.79,77.00,69.00,76.62,180.00,4.00,0.00,30.03,1015.30,10.00,M,FEW,M,M,M,12000.00,M,M,M,M,M,M,M,M,M,M,77.00,KHND 301256Z AUTO 18004KT 10SM FEW120 25/21 A3003 RMK AO2 SLP153 T02500206,M
INS,2021-07-30 12:58,-115.6733,36.5872,955.00,76.00,61.00,59.92,0.00,0.00,0.00,30.06,1012.80,10.00,M,OVC,M,M,M,15000.00,M,M,M,M,M,M,M,M,M,M,75.90,KINS 301258Z AUTO 00000KT 10SM OVC150 24/16 A3006 RMK AO2 SLP128 T02440161 $,M
LSV,2021-07-30 12:58,-115.0343,36.2362,570.00,82.80,62.80,50.91,50.00,6.00,0.00,29.97,1012.10,10.00,M,OVC,M,M,M,13000.00,M,M,M,M,M,M,M,M,M,M,83.82,KLSV 301258Z AUTO 05006KT 10SM OVC130 28/17 A2997 RMK AO2 SLP121 T02820171 $,M
CXP,2021-07-30 13:10,-119.7326,39.1923,1431.00,64.40,50.00,59.50,0.00,0.00,0.00,30.15,M,10.00,M,CLR,M,M,M,M,M,M,M,M,M,M,M,M,M,M,64.40,KCXP 301310Z AUTO 00000KT 10SM CLR 18/10 A3015 RMK AO2,M
BAM,2021-07-30 13:15,-116.8743,40.5990,1382.36,69.80,44.60,40.29,0.00,0.00,0.00,30.13,M,10.00,M,SCT,M,M,M,12000.00,M,M,M,M,M,M,M,M,M,M,69.80,KBAM 301315Z AUTO 00000KT 10SM SCT120 21/07 A3013 RMK AO1,M
HTH,2021-07-30 13:15,-118.6315,38.5448,1282.89,71.60,48.20,43.42,0.00,0.00,0.00,30.10,M,10.00,M,CLR,M,M,M,M,M,M,M,M,M,M,M,M,M,M,71.60,KHTH 301315Z AUTO 00000KT 10SM CLR 22/09 A3010 RMK A01,M
TMT,2021-07-30 13:15,-117.1971,39.4643,1749.34,51.00,46.00,82.31,180.00,4.00,0.00,30.24,M,10.00,M,CLR,M,M,M,M,M,M,M,M,M,M,M,M,M,M,51.10,KTMT 301315Z AUTO 18004KT 10SM CLR 11/08 A3024 RMK AO2 T01060077,M
05U,2021-07-30 13:15,-116.0051,39.6042,1811.23,57.20,48.20,71.83,0.00,0.00,0.00,30.26,M,10.00,M,CLR,M,M,M,M,M,M,M,M,M,M,M,M,M,M,57.20,K05U 301315Z AUTO 00000KT 10SM CLR 14/09 A3026 RMK A01,M
MEV,2021-07-30 13:15,-119.7500,38.9963,1441.42,57.20,51.80,82.12,0.00,0.00,0.00,30.15,M,10.00,M,CLR,M,M,M,M,M,M,M,M,M,M,M,M,M,M,57.20,KMEV 301315Z AUTO 00000KT 10SM CLR 14/11 A3015 RMK AO2,M
RTS,2021-07-30 13:15,-119.8764,39.6682,1539.00,62.60,41.00,45.04,350.00,4.00,0.00,30.16,M,10.00,M,CLR,M,M,M,M,M,M,M,M,M,M,M,M,M,M,62.60,KRTS 301315Z AUTO 35004KT 10SM CLR 17/05 A3016 RMK AO2,M
BVU,2021-07-30 13:15,-114.8611,35.9475,671.00,82.40,62.60,51.21,20.00,4.00,0.00,30.00,M,10.00,M,CLR,M,M,M,M,M,M,M,M,M,M,M,M,M,M,83.41,KBVU 301315Z AUTO 02004KT 10SM CLR 28/17 A3000 RMK AO2,M
CXP,2021-07-30 13:30,-119.7326,39.1923,1431.00,64.40,50.00,59.50,0.00,0.00,0.00,30.15,M,10.00,M,CLR,M,M,M,M,M,M,M,M,M,M,M,M,M,M,64.40,KCXP 301330Z AUTO 00000KT 10SM CLR 18/10 A3015 RMK AO2,M
HTH,2021-07-30 13:35,-118.6315,38.5448,1282.89,71.60,48.20,43.42,0.00,0.00,0.00,30.10,M,9.00,M,CLR,M,M,M,M,M,M,M,M,M,M,M,M,M,M,71.60,KHTH 301335Z AUTO 00000KT 9SM CLR 22/09 A3010 RMK A01,M
TMT,2021-07-30 13:35,-117.1971,39.4643,1749.34,51.00,45.00,80.44,0.00,0.00,0.00,30.24,M,10.00,M,CLR,M,M,M,M,M,M,M,M,M,M,M,M,M,M,50.90,KTMT 301335Z AUTO 00000KT 10SM CLR 11/07 A3024 RMK AO2 T01050073,M
BAM,2021-07-30 13:35,-116.8743,40.5990,1382.36,69.80,46.40,43.13,80.00,3.00,0.00,30.13,M,10.00,M,CLR,M,M,M,M,M,M,M,M,M,M,M,M,M,M,69.80,KBAM 301335Z AUTO 08003KT 10SM CLR 21/08 A3013 RMK AO1,M
MEV,2021-07-30 13:35,-119.7500,38.9963,1441.42,57.20,51.80,82.12,0.00,0.00,0.00,30.15,M,10.00,M,CLR,M,M,M,M,M,M,M,M,M,M,M,M,M,M,57.20,KMEV 301335Z AUTO 00000KT 10SM CLR 14/11 A3015 RMK AO2,M
BVU,2021-07-30 13:35,-114.8611,35.9475,671.00,82.40,60.80,48.05,30.00,4.00,0.00,30.01,M,10.00,M,CLR,M,M,M,M,M,M,M,M,M,M,M,M,M,M,82.90,KBVU 301335Z AUTO 03004KT 10SM CLR 28/16 A3001 RMK AO2,M
05U,2021-07-30 13:35,-116.0051,39.6042,1811.23,59.00,48.20,67.33,0.00,0.00,0.00,30.26,M,10.00,M,CLR,M,M,M,M,M,M,M,M,M,M,M,M,M,M,59.00,K05U 301335Z AUTO 00000KT 10SM CLR 15/09 A3026 RMK A01,M
RTS,2021-07-30 13:35,-119.8764,39.6682,1539.00,64.40,41.00,42.28,330.00,4.00,0.00,30.16,M,10.00,M,CLR,M,M,M,M,M,M,M,M,M,M,M,M,M,M,64.40,KRTS 301335Z AUTO 33004KT 10SM CLR 18/05 A3016 RMK AO2,M
CXP,2021-07-30 13:50,-119.7326,39.1923,1431.00,64.40,51.80,63.60,0.00,0.00,0.00,30.16,M,10.00,M,CLR,M,M,M,M,M,M,M,M,M,M,M,M,M,M,64.40,KCXP 301350Z AUTO 00000KT 10SM CLR 18/11 A3016 RMK AO2,M
DRA,2021-07-30 13:53,-116.0278,36.6206,1009.00,77.00,60.00,55.95,M,3.00,0.00,30.06,1012.80,10.00,M,CLR,M,M,M,M,M,M,M,M,M,M,M,M,M,M,77.00,KDRA 301353Z AUTO VRB03KT 10SM CLR 25/16 A3006 RMK AO2 SLP128 T02500156,M
LOL,2021-07-30 13:53,-118.5701,40.0684,1192.43,68.00,45.00,43.51,70.00,4.00,0.00,30.08,1013.60,10.00,M,CLR,M,M,M,M,M,M,M,M,M,M,M,M,M,M,68.00,KLOL 301353Z AUTO 07004KT 10SM CLR 20/07 A3008 RMK AO2 SLP136 T02000072,M
ELY,2021-07-30 13:53,-114.8453,39.2950,1909.00,59.00,54.00,83.46,160.00,4.00,0.00,30.30,1016.70,10.00,M,BKN,OVC,M,M,9500.00,12000.00,M,M,M,M,M,M,M,M,M,59.00,KELY 301353Z AUTO 16004KT 10SM BKN095 OVC120 15/12 A3030 RMK AO2 SLP167 T01500122,M
P68,2021-07-30 13:53,-116.0056,39.6014,1993.00,62.00,50.00,64.50,110.00,6.00,0.00,30.24,1015.90,M,M,M,M,M,M,M,M,M,M,M,M,M,M,M,M,M,62.10,KP68 301353Z AUTO 11006KT 17/10 A3024 RMK AO1 SLP159 T01670100,M
VGT,2021-07-30 13:53,-115.1933,36.2111,667.00,83.00,64.00,52.93,0.00,0.00,0.00,30.00,1014.40,10.00,M,CLR,M,M,M,M,M,M,M,M,M,M,M,M,M,M,84.32,KVGT 301353Z 00000KT 10SM CLR 28/18 A3000 RMK AO2 SLP144 T02830178 PNO,M
BAM,2021-07-30 13:55,-116.8743,40.5990,1382.36,69.80,46.40,43.13,0.00,0.00,0.00,30.14,M,10.00,M,CLR,M,M,M,M,M,M,M,M,M,M,M,M,M,M,69.80,KBAM 301355Z AUTO 00000KT 10SM CLR 21/08 A3014 RMK AO1,M
RNO,2021-07-30 13:55,-119.7711,39.4839,1341.00,71.00,48.00,43.83,0.00,0.00,0.00,30.12,1014.10,10.00,M,BKN,BKN,M,M,15000.00,25000.00,M,M,M,M,M,M,M,M,M,71.10,KRNO 301355Z 00000KT 10SM BKN150 BKN250 22/09 A3012 RMK AO2 SLP141 HZ FU ALQDS T02170089,M
HTH,2021-07-30 13:55,-118.6315,38.5448,1282.89,73.40,48.20,40.85,230.00,3.00,0.00,30.11,M,10.00,M,CLR,M,M,M,M,M,M,M,M,M,M,M,M,M,M,73.40,KHTH 301355Z AUTO 23003KT 10SM CLR 23/09 A3011 RMK A01,M
TMT,2021-07-30 13:55,-117.1971,39.4643,1749.34,54.70,47.00,74.89,0.00,0.00,0.00,30.24,M,10.00,M,CLR,M,M,M,M,M,M,M,M,M,M,M,M,M,M,54.70,KTMT 301355Z AUTO 00000KT 10SM CLR 13/08 A3024 RMK AO2 T01260083,M
RTS,2021-07-30 13:55,-119.8764,39.6682,1539.00,66.20,42.80,42.57,0.00,0.00,0.00,30.17,M,10.00,M,CLR,M,M,M,M,M,M,M,M,M,M,M,M,M,M,66.20,KRTS 301355Z AUTO 00000KT 10SM CLR 19/06 A3017 RMK AO2,M
BVU,2021-07-30 13:55,-114.8611,35.9475,671.00,82.40,60.80,48.05,30.00,5.00,0.00,30.01,M,10.00,M,CLR,M,M,M,M,M,M,M,M,M,M,M,M,M,M,82.90,KBVU 301355Z AUTO 03005KT 10SM CLR 28/16 A3001 RMK AO2,M
MEV,2021-07-30 13:55,-119.7500,38.9963,1441.42,59.00,51.80,76.98,0.00,0.00,0.00,30.15,M,10.00,M,CLR,M,M,M,M,M,M,M,M,M,M,M,M,M,M,59.00,KMEV 301355Z AUTO 00000KT 10SM CLR 15/11 A3015 RMK AO2,M
05U,2021-07-30 13:55,-116.0051,39.6042,1811.23,60.80,50.00,67.54,0.00,0.00,0.00,30.27,M,10.00,M,CLR,M,M,M,M,M,M,M,M,M,M,M,M,M,M,60.80,K05U 301355Z AUTO 00000KT 10SM CLR 16/10 A3027 RMK A01,M
NFL,2021-07-30 13:56,-118.7010,39.4166,1199.00,75.00,46.00,35.64,140.00,4.00,0.00,30.07,1015.10,10.00,M,CLR,M,M,M,M,M,M,M,M,M,M,M,M,M,M,75.00,KNFL 301356Z AUTO 14004KT 10SM CLR 24/08 A3007 RMK AO2 SLP151 T02390078,M
WMC,2021-07-30 13:56,-117.8072,40.9019,1315.00,62.00,45.00,53.45,170.00,5.00,0.00,30.11,1014.10,10.00,M,CLR,M,M,M,M,M,M,M,M,M,M,M,M,M,M,62.10,KWMC 301356Z AUTO 17005KT 10SM CLR 17/07 A3011 RMK AO2 SLP141 T01670072,M
EKO,2021-07-30 13:56,-115.7860,40.8242,1367.00,72.00,49.00,43.97,30.00,3.00,0.00,30.18,1015.60,10.00,M,CLR,M,M,M,M,M,M,M,M,M,M,M,M,M,M,72.00,KEKO 301356Z AUTO 03003KT 10SM CLR 22/09 A3018 RMK AO2 SLP156 T02220094 $,M
LAS,2021-07-30 13:56,-115.1634,36.0719,663.00,82.00,61.00,49.03,M,4.00,0.00,30.02,1013.50,10.00,M,BKN,BKN,M,M,14000.00,20000.00,M,M,M,M,M,M,M,M,M,82.62,KLAS 301356Z VRB04KT 10SM BKN140 BKN200 28/16 A3002 RMK AO2 SLP135 T02780161 $,M
HND,2021-07-30 13:56,-115.1344,35.9729,742.79,78.00,68.00,71.14,200.00,5.00,0.00,30.05,1016.60,10.00,M,BKN,M,M,M,12000.00,M,M,M,M,M,M,M,M,M,M,78.10,KHND 301356Z 20005KT 10SM BKN120 26/20 A3005 RMK AO2 SLP166 T02560200,M
TPH,2021-07-30 13:56,-117.0904,38.0505,1654.00,68.00,51.00,54.70,40.00,4.00,0.00,30.20,1014.30,10.00,M,CLR,M,M,M,M,M,M,M,M,M,M,M,M,M,M,68.00,KTPH 301356Z AUTO 04004KT 10SM CLR 20/11 A3020 RMK AO2 SLP143 T02000106,M
INS,2021-07-30 13:58,-115.6733,36.5872,955.00,77.20,60.30,55.98,90.00,3.00,0.00,30.07,1013.30,10.00,M,FEW,M,M,M,16000.00,M,M,M,M,M,M,M,M,M,M,77.20,KINS 301358Z AUTO 09003KT 10SM FEW160 25/16 A3007 RMK AO2 SLP133 T02510157 $,M
LSV,2021-07-30 13:58,-115.0343,36.2362,570.00,82.60,64.20,53.82,60.00,10.00,0.00,29.99,1012.90,10.00,M,OVC,M,M,M,13000.00,M,M,M,M,M,M,M,M,M,M,84.10,KLSV 301358Z AUTO 06010KT 10SM OVC130 28/18 A2999 RMK AO2 SLP129 T02810179 $,M
CXP,2021-07-30 14:10,-119.7326,39.1923,1431.00,66.20,50.00,55.88,230.00,4.00,0.00,30.17,M,10.00,M,CLR,M,M,M,M,M,M,M,M,M,M,M,M,M,M,66.20,KCXP 301410Z AUTO 23004KT 10SM CLR 19/10 A3017 RMK AO2,M
TMT,2021-07-30 14:15,-117.1971,39.4643,1749.34,56.00,47.30,72.26,0.00,0.00,0.00,30.25,M,10.00,M,CLR,M,M,M,M,M,M,M,M,M,M,M,M,M,M,56.10,KTMT 301415Z AUTO 00000KT 10SM CLR 13/09 A3025 RMK AO2 T01340085,M
MEV,2021-07-30 14:15,-119.7500,38.9963,1441.42,62.60,53.60,72.38,0.00,0.00,0.00,30.16,M,10.00,M,CLR,M,M,M,M,M,M,M,M,M,M,M,M,M,M,62.60,KMEV 301415Z AUTO 00000KT 10SM CLR 17/12 A3016 RMK AO2,M
BAM,2021-07-30 14:15,-116.8743,40.5990,1382.36,75.20,48.20,38.46,0.00,0.00,0.00,30.15,M,10.00,M,CLR,M,M,M,M,M,M,M,M,M,M,M,M,M,M,75.20,KBAM 301415Z AUTO 00000KT 10SM CLR 24/09 A3015 RMK AO1,M
HTH,2021-07-30 14:15,-118.6315,38.5448,1282.89,73.40,48.20,40.85,0.00,0.00,0.00,30.11,M,10.00,M,CLR,M,M,M,M,M,M,M,M,M,M,M,M,M,M,73.40,KHTH 301415Z AUTO 00000KT 10SM CLR 23/09 A3011 RMK A01,M
BVU,2021-07-30 14:15,-114.8611,35.9475,671.00,82.40,60.80,48.05,20.00,4.00,0.00,30.02,M,9.00,M,CLR,M,M,M,M,M,M,M,M,M,M,M,M,M,M,82.90,KBVU 301415Z AUTO 02004KT 9SM CLR 28/16 A3002 RMK AO2,M
05U,2021-07-30 14:15,-116.0051,39.6042,1811.23,66.20,50.00,55.88,140.00,6.00,0.00,30.27,M,10.00,M,CLR,M,M,M,M,M,M,M,M,M,M,M,M,M,M,66.20,K05U 301415Z AUTO 14006KT 10SM CLR 19/10 A3027 RMK A01,M
RTS,2021-07-30 14:15,-119.8764,39.6682,1539.00,68.00,42.80,40.00,0.00,0.00,0.00,30.17,M,10.00,M,CLR,M,M,M,M,M,M,M,M,M,M,M,M,M,M,68.00,KRTS 301415Z AUTO 00000KT 10SM CLR 20/06 A3017 RMK AO2,M
CXP,2021-07-30 14:30,-119.7326,39.1923,1431.00,66.20,50.00,55.88,0.00,0.00,0.00,30.17,M,10.00,M,CLR,M,M,M,M,M,M,M,M,M,M,M,M,M,M,66.20,KCXP 301430Z AUTO 00000KT 10SM CLR 19/10 A3017 RMK AO2,M
TMT,2021-07-30 14:35,-117.1971,39.4643,1749.34,60.40,49.00,66.25,300.00,3.00,0.00,30.25,M,10.00,M,CLR,M,M,M,M,M,M,M,M,M,M,M,M,M,M,60.40,KTMT 301435Z AUTO 30003KT 10SM CLR 16/10 A3025 RMK AO2 T01580095,M
RTS,2021-07-30 14:35,-119.8764,39.6682,1539.00,69.80,42.80,37.61,0.00,0.00,0.00,30.18,M,10.00,M,CLR,M,M,M,M,M,M,M,M,M,M,M,M,M,M,69.80,KRTS 301435Z AUTO 00000KT 10SM CLR 21/06 A3018 RMK AO2,M
05U,2021-07-30 14:35,-116.0051,39.6042,1811.23,68.00,51.80,56.13,220.00,6.00,0.00,30.27,M,10.00,M,CLR,M,M,M,M,M,M,M,M,M,M,M,M,M,M,68.00,K05U 301435Z AUTO 22006KT 10SM CLR 20/11 A3027 RMK A01,M
MEV,2021-07-30 14:35,-119.7500,38.9963,1441.42,64.40,51.80,63.60,0.00,0.00,0.00,30.16,M,10.00,M,CLR,M,M,M,M,M,M,M,M,M,M,M,M,M,M,64.40,KMEV 301435Z AUTO 00000KT 10SM CLR 18/11 A3016 RMK AO2,M
BAM,2021-07-30 14:35,-116.8743,40.5990,1382.36,77.00,46.40,33.85,0.00,0.00,0.00,30.15,M,10.00,M,CLR,M,M,M,M,M,M,M,M,M,M,M,M,M,M,77.00,KBAM 301435Z AUTO 00000KT 10SM CLR 25/08 A3015 RMK AO1,M
HTH,2021-07-30 14:35,-118.6315,38.5448,1282.89,75.20,48.20,38.46,0.00,0.00,0.00,30.12,M,10.00,M,CLR,M,M,M,M,M,M,M,M,M,M,M,M,M,M,75.20,KHTH 301435Z AUTO 00000KT 10SM CLR 24/09 A3012 RMK A01,M
BVU,2021-07-30 14:35,-114.8611,35.9475,671.00,82.40,60.80,48.05,0.00,0.00,0.00,30.03,M,10.00,M,SCT,M,M,M,12000.00,M,M,M,M,M,M,M,M,M,M,82.90,KBVU 301435Z AUTO 00000KT 10SM SCT120 28/16 A3003 RMK AO2,M
NFL,2021-07-30 14:36,-118.7010,39.4166,1199.00,79.00,47.00,32.29,150.00,4.00,0.00,30.08,M,10.00,M,SCT,SCT,M,M,12000.00,18000.00,M,M,M,M,M,M,M,M,M,79.00,KNFL 301436Z 15004KT 10SM SCT120 SCT180 26/08 A3008 RMK AO2 T02610083,M
CXP,2021-07-30 14:50,-119.7326,39.1923,1431.00,68.00,50.00,52.51,0.00,0.00,0.00,30.17,M,10.00,M,CLR,M,M,M,M,M,M,M,M,M,M,M,M,M,M,68.00,KCXP 301450Z AUTO 00000KT 10SM CLR 20/10 A3017 RMK AO2,M
ELY,2021-07-30 14:53,-114.8453,39.2950,1909.00,63.00,56.00,77.61,0.00,0.00,0.00,30.30,1017.30,10.00,M,OVC,M,M,M,9000.00,M,M,M,M,M,M,M,M,M,M,63.00,KELY 301453Z AUTO 00000KT 10SM OVC090 17/13 A3030 RMK AO2 SLP173 T01720133 51006,M
P68,2021-07-30 14:53,-116.0056,39.6014,1993.00,66.00,51.00,58.62,210.00,6.00,0.00,30.24,1015.70,M,M,M,M,M,M,M,M,M,M,M,M,M,M,M,M,M,66.00,KP68 301453Z AUTO 21006KT 19/11 A3024 RMK AO1 SLP157 T01890106 51005,M
DRA,2021-07-30 14:53,-116.0278,36.6206,1009.00,81.00,60.00,49.06,M,5.00,0.00,30.08,1013.40,10.00,M,CLR,M,M,M,M,M,M,M,M,M,M,M,M,M,M,81.62,KDRA 301453Z AUTO VRB05KT 10SM CLR 27/16 A3008 RMK AO2 SLP134 T02720156 53009 $,M
VGT,2021-07-30 14:53,-115.1933,36.2111,667.00,84.00,64.00,51.08,200.00,3.00,0.00,30.02,1015.80,10.00,M,CLR,M,M,M,M,M,M,M,M,M,M,M,M,M,M,85.36,KVGT 301453Z 20003KT 10SM CLR 29/18 A3002 RMK AO2 SLP158 6//// T02890178 53015 PNO,M
LOL,2021-07-30 14:53,-118.5701,40.0684,1192.43,76.00,47.00,35.78,0.00,0.00,0.00,30.09,1013.80,10.00,M,CLR,M,M,M,M,M,M,M,M,M,M,M,M,M,M,75.90,KLOL 301453Z AUTO 00000KT 10SM CLR 24/08 A3009 RMK AO2 SLP138 T02440083 53013,M
05U,2021-07-30 14:55,-116.0051,39.6042,1811.23,66.20,50.00,55.88,210.00,5.00,0.00,30.27,M,10.00,M,CLR,M,M,M,M,M,M,M,M,M,M,M,M,M,M,66.20,K05U 301455Z AUTO 21005KT 10SM CLR 19/10 A3027 RMK A01,M
TMT,2021-07-30 14:55,-117.1971,39.4643,1749.34,64.20,50.00,59.91,240.00,3.00,0.00,30.25,M,10.00,M,CLR,M,M,M,M,M,M,M,M,M,M,M,M,M,M,64.20,KTMT 301455Z AUTO 24003KT 10SM CLR 18/10 A3025 RMK AO2 T01790100,M
MEV,2021-07-30 14:55,-119.7500,38.9963,1441.42,64.40,51.80,63.60,0.00,0.00,0.00,30.16,M,10.00,M,CLR,M,M,M,M,M,M,M,M,M,M,M,M,M,M,64.40,KMEV 301455Z AUTO 00000KT 10SM CLR 18/11 A3016 RMK AO2,M
BAM,2021-07-30 14:55,-116.8743,40.5990,1382.36,78.80,46.40,31.90,0.00,0.00,0.00,30.15,M,10.00,M,CLR,M,M,M,M,M,M,M,M,M,M,M,M,M,M,78.80,KBAM 301455Z AUTO 00000KT 10SM CLR 26/08 A3015 RMK AO1,M
HTH,2021-07-30 14:55,-118.6315,38.5448,1282.89,75.20,48.20,38.46,0.00,0.00,0.00,30.12,M,10.00,M,CLR,M,M,M,M,M,M,M,M,M,M,M,M,M,M,75.20,KHTH 301455Z AUTO 00000KT 10SM CLR 24/09 A3012 RMK A01,M
BVU,2021-07-30 14:55,-114.8611,35.9475,671.00,84.20,60.80,45.34,310.00,6.00,0.00,30.03,M,10.00,M,OVC,M,M,M,12000.00,M,M,M,M,M,M,M,M,M,M,84.43,KBVU 301455Z AUTO 31006KT 10SM OVC120 29/16 A3003 RMK AO2,M
RNO,2021-07-30 14:55,-119.7711,39.4839,1341.00,73.00,48.00,41.10,230.00,5.00,0.00,30.13,1014.50,10.00,M,SCT,BKN,M,M,15000.00,25000.00,M,M,M,M,M,M,M,M,M,73.00,KRNO 301455Z 23005KT 10SM SCT150 BKN250 23/09 A3013 RMK AO2 SLP145 HZ ALQDS T02280089 53009,M
RTS,2021-07-30 14:55,-119.8764,39.6682,1539.00,71.60,42.80,35.37,0.00,0.00,0.00,30.18,M,10.00,M,CLR,M,M,M,M,M,M,M,M,M,M,M,M,M,M,71.60,KRTS 301455Z AUTO 00000KT 10SM CLR 22/06 A3018 RMK AO2,M
WMC,2021-07-30 14:56,-117.8072,40.9019,1315.00,71.00,47.00,42.05,70.00,4.00,0.00,30.12,1014.30,10.00,M,CLR,M,M,M,M,M,M,M,M,M,M,M,M,M,M,71.10,KWMC 301456Z AUTO 07004KT 10SM CLR 22/08 A3012 RMK AO2 SLP143 T02170083 53011,M
EKO,2021-07-30 14:56,-115.7860,40.8242,1367.00,74.00,51.00,44.76,10.00,5.00,0.00,30.20,1016.20,10.00,M,CLR,M,M,M,M,M,M,M,M,M,M,M,M,M,M,73.90,KEKO 301456Z AUTO 01005KT 10SM CLR 23/11 A3020 RMK AO2 SLP162 T02330106 53009,M
NFL,2021-07-30 14:56,-118.7010,39.4166,1199.00,81.00,48.00,31.52,170.00,4.00,0.00,30.08,1015.40,10.00,M,SCT,SCT,M,M,12000.00,18000.00,M,M,M,M,M,M,M,M,M,79.92,KNFL 301456Z 17004KT 10SM SCT120 SCT180 27/09 A3008 RMK AO2 SLP154 T02720089 53006,M
TPH,2021-07-30 14:56,-117.0904,38.0505,1654.00,69.00,50.00,50.56,140.00,4.00,0.00,30.22,1015.10,10.00,M,OVC,M,M,M,11000.00,M,M,M,M,M,M,M,M,M,M,69.10,KTPH 301456Z AUTO 14004KT 10SM OVC110 21/10 A3022 RMK AO2 SLP151 T02060100 53010,M
LAS,2021-07-30 14:56,-115.1634,36.0719,663.00,83.00,62.00,49.51,0.00,0.00,0.00,30.04,1014.80,10.00,M,FEW,BKN,BKN,M,11000.00,14000.00,18000.00,M,M,M,M,M,M,M,M,83.70,KLAS 301456Z 00000KT 10SM FEW110 BKN140 BKN180 28/17 A3004 RMK AO2 SLP148 T02830167 53017 $,M
HND,2021-07-30 14:56,-115.1344,35.9729,742.79,80.00,65.00,59.83,70.00,5.00,0.00,30.07,1017.10,10.00,M,CLR,M,M,M,M,M,M,M,M,M,M,M,M,M,M,81.91,KHND 301456Z 07005KT 10SM CLR 27/18 A3007 RMK AO2 SLP171 T02670183 53016,M
LSV,2021-07-30 14:58,-115.0343,36.2362,570.00,83.30,64.40,52.98,80.00,7.00,0.00,30.01,1013.80,10.00,M,BKN,M,M,M,12000.00,M,M,M,M,M,M,M,M,M,M,84.84,KLSV 301458Z AUTO 08007KT 10SM BKN120 29/18 A3001 RMK AO2 SLP138 T02850180 52015 $,M
INS,2021-07-30 14:58,-115.6733,36.5872,955.00,80.00,57.40,45.86,80.00,4.00,0.00,30.08,1013.70,10.00,M,FEW,M,M,M,14000.00,M,M,M,M,M,M,M,M,M,M,80.50,KINS 301458Z AUTO 08004KT 10SM FEW140 27/14 A3008 RMK AO2 SLP137 T02670141 52009 $,M
CXP,2021-07-30 15:10,-119.7326,39.1923,1431.00,69.80,50.00,49.37,0.00,0.00,0.00,30.17,M,10.00,M,CLR,M,M,M,M,M,M,M,M,M,M,M,M,M,M,69.80,KCXP 301510Z AUTO 00000KT 10SM CLR 21/10 A3017 RMK AO2,M
RTS,2021-07-30 15:15,-119.8764,39.6682,1539.00,71.60,42.80,35.37,0.00,0.00,0.00,30.18,M,10.00,M,CLR,M,M,M,M,M,M,M,M,M,M,M,M,M,M,71.60,KRTS 301515Z AUTO 00000KT 10SM CLR 22/06 A3018 RMK AO2,M
BVU,2021-07-30 15:15,-114.8611,35.9475,671.00,84.20,60.80,45.34,320.00,6.00,0.00,30.04,M,10.00,M,SCT,M,M,M,12000.00,M,M,M,M,M,M,M,M,M,M,84.43,KBVU 301515Z AUTO 32006KT 10SM SCT120 29/16 A3004 RMK AO2,M
TMT,2021-07-30 15:15,-117.1971,39.4643,1749.34,67.00,50.40,54.98,230.00,5.00,0.00,30.24,M,10.00,M,CLR,M,M,M,M,M,M,M,M,M,M,M,M,M,M,67.10,KTMT 301515Z AUTO 23005KT 10SM CLR 20/10 A3024 RMK AO2 T01950102,M
HTH,2021-07-30 15:15,-118.6315,38.5448,1282.89,75.20,48.20,38.46,80.00,4.00,0.00,30.13,M,10.00,M,M,M,M,M,M,M,M,M,M,M,M,M,M,M,M,75.20,KHTH 301515Z AUTO 08004KT 10SM 24/09 A3013 RMK A01,M
BAM,2021-07-30 15:15,-116.8743,40.5990,1382.36,78.80,46.40,31.90,0.00,0.00,0.00,30.15,M,10.00,M,CLR,M,M,M,M,M,M,M,M,M,M,M,M,M,M,78.80,KBAM 301515Z AUTO 00000KT 10SM CLR 26/08 A3015 RMK AO1,M
MEV,2021-07-30 15:15,-119.7500,38.9963,1441.42,68.00,51.80,56.13,190.00,4.00,0.00,30.16,M,10.00,M,BKN,M,M,M,11000.00,M,M,M,M,M,M,M,M,M,M,68.00,KMEV 301515Z AUTO 19004KT 10SM BKN110 20/11 A3016 RMK AO2,M
05U,2021-07-30 15:15,-116.0051,39.6042,1811.23,69.80,50.00,49.37,0.00,0.00,0.00,30.28,M,10.00,M,CLR,M,M,M,M,M,M,M,M,M,M,M,M,M,M,69.80,K05U 301515Z AUTO 00000KT 10SM CLR 21/10 A3028 RMK A01,M
CXP,2021-07-30 15:30,-119.7326,39.1923,1431.00,71.60,50.00,46.43,0.00,0.00,0.00,30.18,M,10.00,M,SCT,M,M,M,11000.00,M,M,M,M,M,M,M,M,M,M,71.60,KCXP 301530Z AUTO 00000KT 10SM SCT110 22/10 A3018 RMK AO2,M
05U,2021-07-30 15:35,-116.0051,39.6042,1811.23,71.60,50.00,46.43,160.00,6.00,0.00,30.27,M,10.00,M,CLR,M,M,M,M,M,M,M,M,M,M,M,M,M,M,71.60,K05U 301535Z AUTO 16006KT 10SM CLR 22/10 A3027 RMK A01,M
TMT,2021-07-30 15:35,-117.1971,39.4643,1749.34,70.70,51.80,51.18,200.00,5.00,0.00,30.24,M,10.00,M,CLR,M,M,M,M,M,M,M,M,M,M,M,M,M,M,70.70,KTMT 301535Z AUTO 20005KT 10SM CLR 22/11 A3024 RMK AO2 T02150110,M
HTH,2021-07-30 15:35,-118.6315,38.5448,1282.89,77.00,48.20,36.22,90.00,5.00,0.00,30.13,M,10.00,M,CLR,M,M,M,M,M,M,M,M,M,M,M,M,M,M,77.00,KHTH 301535Z AUTO 09005KT 10SM CLR 25/09 A3013 RMK A01,M
BAM,2021-07-30 15:35,-116.8743,40.5990,1382.36,78.80,46.40,31.90,70.00,3.00,0.00,30.16,M,10.00,M,CLR,M,M,M,M,M,M,M,M,M,M,M,M,M,M,78.80,KBAM 301535Z AUTO 07003KT 10SM CLR 26/08 A3016 RMK AO1,M
MEV,2021-07-30 15:35,-119.7500,38.9963,1441.42,69.80,51.80,52.77,0.00,0.00,0.00,30.17,M,10.00,M,BKN,M,M,M,11000.00,M,M,M,M,M,M,M,M,M,M,69.80,KMEV 301535Z AUTO 00000KT 10SM BKN110 21/11 A3017 RMK AO2,M
RTS,2021-07-30 15:35,-119.8764,39.6682,1539.00,73.40,41.00,31.05,0.00,0.00,0.00,30.18,M,10.00,M,CLR,M,M,M,M,M,M,M,M,M,M,M,M,M,M,73.40,KRTS 301535Z AUTO 00000KT 10SM CLR 23/05 A3018 RMK AO2,M
BVU,2021-07-30 15:35,-114.8611,35.9475,671.00,84.20,60.80,45.34,300.00,4.00,0.00,30.04,M,10.00,M,SCT,M,M,M,12000.00,M,M,M,M,M,M,M,M,M,M,84.43,KBVU 301535Z AUTO 30004KT 10SM SCT120 29/16 A3004 RMK AO2,M
CXP,2021-07-30 15:50,-119.7326,39.1923,1431.00,71.60,50.00,46.43,0.00,0.00,0.00,30.18,M,10.00,M,FEW,M,M,M,11000.00,M,M,M,M,M,M,M,M,M,M,71.60,KCXP 301550Z AUTO 00000KT 10SM FEW110 22/10 A3018 RMK AO2,M
P68,2021-07-30 15:53,-116.0056,39.6014,1993.00,72.00,51.00,47.72,150.00,9.00,0.00,30.25,1015.60,M,M,M,M,M,M,M,M,M,M,M,M,M,M,M,M,M,72.00,KP68 301553Z AUTO 15009KT 22/11 A3025 RMK AO1 SLP156 T02220106,M
ELY,2021-07-30 15:53,-114.8453,39.2950,1909.00,65.00,55.00,70.28,10.00,4.00,0.00,30.31,1017.30,10.00,M,SCT,M,M,M,11000.00,M,M,M,M,M,M,M,M,M,M,64.90,KELY 301553Z AUTO 01004KT 10SM SCT110 18/13 A3031 RMK AO2 SLP173 T01830128,M
VGT,2021-07-30 15:53,-115.1933,36.2111,667.00,84.00,64.00,51.08,0.00,0.00,0.00,30.03,1016.10,10.00,M,SCT,M,M,M,11000.00,M,M,M,M,M,M,M,M,M,M,85.36,KVGT 301553Z 00000KT 10SM SCT110 29/18 A3003 RMK AO2 SLP161 T02890178 PNO,M
DRA,2021-07-30 15:53,-116.0278,36.6206,1009.00,83.00,57.00,41.27,0.00,0.00,0.00,30.09,1013.50,10.00,M,CLR,M,M,M,M,M,M,M,M,M,M,M,M,M,M,82.41,KDRA 301553Z AUTO 00000KT 10SM CLR 28/14 A3009 RMK AO2 SLP135 T02830139 $,M
LOL,2021-07-30 15:53,-118.5701,40.0684,1192.43,83.00,46.00,27.48,0.00,0.00,0.00,30.09,1013.80,10.00,M,CLR,M,M,M,M,M,M,M,M,M,M,M,M,M,M,80.94,KLOL 301553Z AUTO 00000KT 10SM CLR 28/08 A3009 RMK AO2 SLP138 T02830078,M
RNO,2021-07-30 15:55,-119.7711,39.4839,1341.00,76.00,48.00,37.29,0.00,0.00,0.00,30.13,1014.30,10.00,M,BKN,BKN,M,M,10000.00,23000.00,M,M,M,M,M,M,M,M,M,75.90,KRNO 301555Z 00000KT 10SM BKN100 BKN230 24/09 A3013 RMK AO2 SLP143 HZ ALQDS T02440089,M
BAM,2021-07-30 15:55,-116.8743,40.5990,1382.36,80.60,46.40,30.07,60.00,3.00,0.00,30.16,M,10.00,M,CLR,M,M,M,M,M,M,M,M,M,M,M,M,M,M,79.56,KBAM 301555Z AUTO 06003KT 10SM CLR 27/08 A3016 RMK AO1,M
BVU,2021-07-30 15:55,-114.8611,35.9475,671.00,86.00,59.00,40.14,50.00,6.00,0.00,30.04,M,10.00,M,FEW,M,M,M,12000.00,M,M,M,M,M,M,M,M,M,M,85.47,KBVU 301555Z AUTO 05006KT 10SM FEW120 30/15 A3004 RMK AO2,M
HTH,2021-07-30 15:55,-118.6315,38.5448,1282.89,78.80,46.40,31.90,80.00,6.00,0.00,30.14,M,10.00,M,CLR,M,M,M,M,M,M,M,M,M,M,M,M,M,M,78.80,KHTH 301555Z AUTO 08006KT 10SM CLR 26/08 A3014 RMK A01,M
RTS,2021-07-30 15:55,-119.8764,39.6682,1539.00,77.00,41.00,27.53,0.00,0.00,0.00,30.19,M,10.00,M,FEW,M,M,M,11000.00,M,M,M,M,M,M,M,M,M,M,77.00,KRTS 301555Z AUTO 00000KT 10SM FEW110 25/05 A3019 RMK AO2,M
05U,2021-07-30 15:55,-116.0051,39.6042,1811.23,73.40,50.00,43.69,160.00,10.00,0.00,30.28,M,10.00,M,CLR,M,M,M,M,M,M,M,M,M,M,M,M,M,M,73.40,K05U 301555Z AUTO 16010KT 10SM CLR 23/10 A3028 RMK A01,M
MEV,2021-07-30 15:55,-119.7500,38.9963,1441.42,71.60,51.80,49.64,0.00,0.00,0.00,30.17,M,9.00,M,FEW,M,M,M,11000.00,M,M,M,M,M,M,M,M,M,M,71.60,KMEV 301555Z AUTO 00000KT 9SM FEW110 22/11 A3017 RMK AO2,M
TMT,2021-07-30 15:55,-117.1971,39.4643,1749.34,74.30,50.00,42.39,200.00,5.00,0.00,30.24,M,10.00,M,CLR,M,M,M,M,M,M,M,M,M,M,M,M,M,M,74.30,KTMT 301555Z AUTO 20005KT 10SM CLR 24/10 A3024 RMK AO2 T02350100,M
LAS,2021-07-30 15:56,-115.1634,36.0719,663.00,85.00,61.00,44.65,0.00,0.00,0.00,30.05,1015.10,10.00,M,FEW,BKN,BKN,M,11000.00,14000.00,20000.00,M,M,M,M,M,M,M,M,85.12,KLAS 301556Z 00000KT 10SM FEW110 BKN140 BKN200 29/16 A3005 RMK AO2 SLP151 T02940161 $,M
EKO,2021-07-30 15:56,-115.7860,40.8242,1367.00,75.00,51.00,43.14,110.00,5.00,0.00,30.21,1016.60,10.00,M,CLR,M,M,M,M,M,M,M,M,M,M,M,M,M,M,75.00,KEKO 301556Z AUTO 11005KT 10SM CLR 24/11 A3021 RMK AO2 SLP166 T02390106,M
NFL,2021-07-30 15:56,-118.7010,39.4166,1199.00,85.00,47.00,26.66,150.00,5.00,0.00,30.09,1015.60,10.00,M,FEW,SCT,SCT,M,8000.00,14000.00,20000.00,M,M,M,M,M,M,M,M,82.42,KNFL 301556Z 15005KT 10SM FEW080 SCT140 SCT200 29/08 A3009 RMK AO2 SLP156 T02940083,M
TPH,2021-07-30 15:56,-117.0904,38.0505,1654.00,69.00,52.00,54.45,110.00,5.00,0.00,30.25,1016.40,10.00,M,OVC,M,M,M,11000.00,M,M,M,M,M,M,M,M,M,M,69.10,KTPH 301556Z AUTO 11005KT 10SM OVC110 21/11 A3025 RMK AO2 SLP164 T02060111,M
WMC,2021-07-30 15:56,-117.8072,40.9019,1315.00,78.00,41.00,26.55,70.00,3.00,0.00,30.13,1014.30,10.00,M,CLR,M,M,M,M,M,M,M,M,M,M,M,M,M,M,78.10,KWMC 301556Z AUTO 07003KT 10SM CLR 26/05 A3013 RMK AO2 SLP143 T02560050,M
HND,2021-07-30 15:56,-115.1344,35.9729,742.79,83.00,64.00,52.93,60.00,4.00,0.00,30.08,1017.50,10.00,M,CLR,M,M,M,M,M,M,M,M,M,M,M,M,M,M,84.32,KHND 301556Z 06004KT 10SM CLR 28/18 A3008 RMK AO2 SLP175 T02830178,M
INS,2021-07-30 15:58,-115.6733,36.5872,955.00,80.80,58.00,45.97,80.00,5.00,0.00,30.09,1014.20,10.00,M,FEW,M,M,M,13000.00,M,M,M,M,M,M,M,M,M,M,81.10,KINS 301558Z AUTO 08005KT 10SM FEW130 27/15 A3009 RMK AO2 SLP142 T02710145 $,M
LSV,2021-07-30 15:58,-115.0343,36.2362,570.00,84.40,63.70,49.90,80.00,8.00,0.00,30.02,1014.10,10.00,M,BKN,M,M,M,11000.00,M,M,M,M,M,M,M,M,M,M,85.63,KLSV 301558Z AUTO 08008KT 10SM BKN110 29/18 A3002 RMK AO2 SLP141 T02910176 $,M
CXP,2021-07-30 16:10,-119.7326,39.1923,1431.00,71.60,50.00,46.43,0.00,0.00,0.00,30.18,M,10.00,M,SCT,M,M,M,11000.00,M,M,M,M,M,M,M,M,M,M,71.60,KCXP 301610Z AUTO 00000KT 10SM SCT110 22/10 A3018 RMK AO2,M
MEV,2021-07-30 16:15,-119.7500,38.9963,1441.42,71.60,53.60,53.03,M,3.00,0.00,30.17,M,10.00,M,FEW,M,M,M,11000.00,M,M,M,M,M,M,M,M,M,M,71.60,KMEV 301615Z AUTO VRB03KT 10SM FEW110 22/12 A3017 RMK AO2,M
BVU,2021-07-30 16:15,-114.8611,35.9475,671.00,86.00,60.80,42.80,M,3.00,0.00,30.04,M,10.00,M,CLR,M,M,M,M,M,M,M,M,M,M,M,M,M,M,86.05,KBVU 301615Z AUTO VRB03KT 10SM CLR 30/16 A3004 RMK AO2,M
BAM,2021-07-30 16:15,-116.8743,40.5990,1382.36,80.60,46.40,30.07,0.00,0.00,0.00,30.16,M,10.00,M,CLR,M,M,M,M,M,M,M,M,M,M,M,M,M,M,79.56,KBAM 301615Z AUTO 00000KT 10SM CLR 27/08 A3016 RMK AO1,M
TMT,2021-07-30 16:15,-117.1971,39.4643,1749.34,74.50,49.00,40.42,0.00,0.00,0.00,30.25,M,10.00,M,CLR,M,M,M,M,M,M,M,M,M,M,M,M,M,M,74.50,KTMT 301615Z AUTO 00000KT 10SM CLR 24/09 A3025 RMK AO2 T02360094,M
HTH,2021-07-30 16:15,-118.6315,38.5448,1282.89,78.80,48.20,34.13,90.00,9.00,0.00,30.14,M,10.00,M,CLR,M,M,M,M,M,M,M,M,M,M,M,M,M,M,78.80,KHTH 301615Z AUTO 09009KT 10SM CLR 26/09 A3014 RMK A01,M
05U,2021-07-30 16:15,-116.0051,39.6042,1811.23,73.40,50.00,43.69,150.00,12.00,0.00,30.28,M,10.00,M,CLR,M,M,M,M,M,M,M,M,M,M,M,M,M,M,73.40,K05U 301615Z AUTO 15012KT 10SM CLR 23/10 A3028 RMK A01,M
RTS,2021-07-30 16:15,-119.8764,39.6682,1539.00,77.00,42.80,29.51,0.00,0.00,0.00,30.19,M,10.00,M,CLR,M,M,M,M,M,M,M,M,M,M,M,M,M,M,77.00,KRTS 301615Z AUTO 00000KT 10SM CLR 25/06 A3019 RMK AO2,M
HTH,2021-07-30 16:30,-118.6315,38.5448,1282.89,80.60,48.20,32.18,M,6.00,0.00,30.14,M,10.00,M,CLR,M,M,M,M,M,M,M,M,M,M,M,M,M,M,79.71,KHTH 301630Z AUTO VRB06KT 10SM CLR 27/09 A3014 RMK A01,M
CXP,2021-07-30 16:30,-119.7326,39.1923,1431.00,73.40,50.00,43.69,0.00,0.00,0.00,30.17,M,9.00,M,FEW,M,M,M,11000.00,M,M,M,M,M,M,M,M,M,M,73.40,KCXP 301630Z AUTO 00000KT 9SM FEW110 23/10 A3017 RMK AO2,M
MEV,2021-07-30 16:35,-119.7500,38.9963,1441.42,73.40,50.00,43.69,0.00,0.00,0.00,30.16,M,10.00,M,BKN,M,M,M,11000.00,M,M,M,M,M,M,M,M,M,M,73.40,KMEV 301635Z AUTO 00000KT 10SM BKN110 23/10 A3016 RMK AO2,M
TMT,2021-07-30 16:35,-117.1971,39.4643,1749.34,75.00,49.50,40.65,0.00,0.00,0.00,30.24,M,10.00,M,SCT,M,M,M,12000.00,M,M,M,M,M,M,M,M,M,M,75.00,KTMT 301635Z AUTO 00000KT 10SM SCT120 24/10 A3024 RMK AO2 T02390097,M
BVU,2021-07-30 16:35,-114.8611,35.9475,671.00,87.80,59.00,37.90,70.00,5.00,0.00,30.04,M,10.00,M,CLR,M,M,M,M,M,M,M,M,M,M,M,M,M,M,87.12,KBVU 301635Z AUTO 07005KT 10SM CLR 31/15 A3004 RMK AO2,M
BAM,2021-07-30 16:35,-116.8743,40.5990,1382.36,82.40,46.40,28.36,40.00,3.00,0.00,30.16,M,10.00,M,CLR,M,M,M,M,M,M,M,M,M,M,M,M,M,M,80.64,KBAM 301635Z AUTO 04003KT 10SM CLR 28/08 A3016 RMK AO1,M
RTS,2021-07-30 16:35,-119.8764,39.6682,1539.00,78.80,41.00,25.95,0.00,0.00,0.00,30.18,M,10.00,M,CLR,M,M,M,M,M,M,M,M,M,M,M,M,M,M,78.80,KRTS 301635Z AUTO 00000KT 10SM CLR 26/05 A3018 RMK AO2,M
05U,2021-07-30 16:35,-116.0051,39.6042,1811.23,73.40,50.00,43.69,150.00,10.00,0.00,30.28,M,10.00,M,CLR,M,M,M,M,M,M,M,M,M,M,M,M,M,M,73.40,K05U 301635Z AUTO 15010KT 10SM CLR 23/10 A3028 RMK A01,M
CXP,2021-07-30 16:50,-119.7326,39.1923,1431.00,75.20,48.20,38.46,0.00,0.00,0.00,30.17,M,9.00,M,FEW,M,M,M,12000.00,M,M,M,M,M,M,M,M,M,M,75.20,KCXP 301650Z AUTO 00000KT 9SM FEW120 24/09 A3017 RMK AO2,M
LOL,2021-07-30 16:53,-118.5701,40.0684,1192.43,84.00,47.00,27.44,10.00,3.00,0.00,30.09,1013.90,10.00,M,CLR,M,M,M,M,M,M,M,M,M,M,M,M,M,M,81.77,KLOL 301653Z AUTO 01003KT 10SM CLR 29/08 A3009 RMK AO2 SLP139 T02890083,M
VGT,2021-07-30 16:53,-115.1933,36.2111,667.00,85.00,63.00,47.91,0.00,0.00,0.00,30.04,1016.30,10.00,M,CLR,M,M,M,M,M,M,M,M,M,M,M,M,M,M,85.83,KVGT 301653Z 00000KT 10SM CLR 29/17 A3004 RMK AO2 SLP163 T02940172 PNO,M
P68,2021-07-30 16:53,-116.0056,39.6014,1993.00,73.00,51.00,46.13,160.00,13.00,0.00,30.25,1015.80,M,M,M,M,M,M,M,M,M,M,M,M,M,M,M,M,M,73.00,KP68 301653Z AUTO 16013KT 23/11 A3025 RMK AO1 SLP158 T02280106,M
ELY,2021-07-30 16:53,-114.8453,39.2950,1909.00,67.00,55.00,65.56,0.00,0.00,0.00,30.31,1017.10,10.00,M,CLR,M,M,M,M,M,M,M,M,M,M,M,M,M,M,66.90,KELY 301653Z AUTO 00000KT 10SM CLR 19/13 A3031 RMK AO2 SLP171 T01940128,M
DRA,2021-07-30 16:53,-116.0278,36.6206,1009.00,86.00,57.00,37.35,110.00,6.00,0.00,30.09,1013.60,10.00,M,CLR,M,M,M,M,M,M,M,M,M,M,M,M,M,M,84.92,KDRA 301653Z AUTO 11006KT 10SM CLR 30/14 A3009 RMK AO2 SLP136 T03000139 $,M
HTH,2021-07-30 16:55,-118.6315,38.5448,1282.89,82.40,48.20,30.35,0.00,0.00,0.00,30.13,M,10.00,M,CLR,M,M,M,M,M,M,M,M,M,M,M,M,M,M,80.80,KHTH 301655Z AUTO 00000KT 10SM CLR 28/09 A3013 RMK A01,M
BAM,2021-07-30 16:55,-116.8743,40.5990,1382.36,86.00,48.20,27.03,360.00,3.00,0.00,30.16,M,10.00,M,CLR,M,M,M,M,M,M,M,M,M,M,M,M,M,M,83.40,KBAM 301655Z AUTO 36003KT 10SM CLR 30/09 A3016 RMK AO1,M
BVU,2021-07-30 16:55,-114.8611,35.9475,671.00,87.80,59.00,37.90,0.00,0.00,0.00,30.04,M,10.00,M,CLR,M,M,M,M,M,M,M,M,M,M,M,M,M,M,87.12,KBVU 301655Z AUTO 00000KT 10SM CLR 31/15 A3004 RMK AO2,M
TMT,2021-07-30 16:55,-117.1971,39.4643,1749.34,76.00,48.70,38.03,0.00,0.00,0.00,30.24,M,10.00,M,SCT,M,M,M,12000.00,M,M,M,M,M,M,M,M,M,M,76.10,KTMT 301655Z AUTO 00000KT 10SM SCT120 25/09 A3024 RMK AO2 T02450093,M
RTS,2021-07-30 16:55,-119.8764,39.6682,1539.00,78.80,41.00,25.95,0.00,0.00,0.00,30.18,M,10.00,M,CLR,M,M,M,M,M,M,M,M,M,M,M,M,M,M,78.80,KRTS 301655Z AUTO 00000KT 10SM CLR 26/05 A3018 RMK AO2,M
05U,2021-07-30 16:55,-116.0051,39.6042,1811.23,73.40,50.00,43.69,160.00,11.00,0.00,30.28,M,10.00,M,CLR,M,M,M,M,M,M,M,M,M,M,M,M,M,M,73.40,K05U 301655Z AUTO 16011KT 10SM CLR 23/10 A3028 RMK A01,M
MEV,2021-07-30 16:55,-119.7500,38.9963,1441.42,75.20,50.00,41.14,0.00,0.00,0.00,30.16,M,10.00,M,FEW,M,M,M,11000.00,M,M,M,M,M,M,M,M,M,M,75.20,KMEV 301655Z AUTO 00000KT 10SM FEW110 24/10 A3016 RMK AO2,M
RNO,2021-07-30 16:55,-119.7711,39.4839,1341.00,79.00,47.00,32.29,0.00,0.00,0.00,30.13,1013.90,10.00,M,BKN,BKN,M,M,13000.00,19000.00,M,M,M,M,M,M,M,M,M,79.00,KRNO 301655Z 00000KT 10SM BKN130 BKN190 26/08 A3013 RMK AO2 SLP139 HZ AND FU ALQDS T02610083,M
LAS,2021-07-30 16:56,-115.1634,36.0719,663.00,86.00,61.00,43.10,0.00,0.00,0.00,30.05,1015.00,10.00,M,FEW,BKN,BKN,M,11000.00,14000.00,20000.00,M,M,M,M,M,M,M,M,86.12,KLAS 301656Z 00000KT 10SM FEW110 BKN140 BKN200 30/16 A3005 RMK AO2 SLP150 T03000161 $,M
HND,2021-07-30 16:56,-115.1344,35.9729,742.79,85.00,62.00,46.42,20.00,5.00,0.00,30.08,1017.40,10.00,M,CLR,M,M,M,M,M,M,M,M,M,M,M,M,M,M,85.49,KHND 301656Z 02005KT 10SM CLR 29/17 A3008 RMK AO2 SLP174 T02940167,M
EKO,2021-07-30 16:56,-115.7860,40.8242,1367.00,81.00,51.00,35.38,30.00,7.00,0.00,30.20,1016.10,10.00,M,CLR,M,M,M,M,M,M,M,M,M,M,M,M,M,M,80.23,KEKO 301656Z AUTO 03007KT 10SM CLR 27/11 A3020 RMK AO2 SLP161 T02720106,M
NFL,2021-07-30 16:56,-118.7010,39.4166,1199.00,88.00,47.00,24.15,180.00,9.00,0.00,30.08,1015.50,10.00,M,FEW,SCT,BKN,BKN,8000.00,12000.00,17000.00,22000.00,M,M,M,M,M,M,M,84.90,KNFL 301656Z 18009KT 10SM FEW080 SCT120 BKN170 BKN220 31/08 A3008 RMK AO2 SLP155 T03110083,M
WMC,2021-07-30 16:56,-117.8072,40.9019,1315.00,86.00,46.00,24.88,0.00,0.00,0.00,30.12,1013.90,10.00,M,CLR,M,M,M,M,M,M,M,M,M,M,M,M,M,M,83.19,KWMC 301656Z AUTO 00000KT 10SM CLR 30/08 A3012 RMK AO2 SLP139 T03000078,M
TPH,2021-07-30 16:56,-117.0904,38.0505,1654.00,71.00,52.00,50.86,0.00,0.00,0.00,30.25,1016.30,10.00,M,FEW,M,M,M,12000.00,M,M,M,M,M,M,M,M,M,M,71.10,KTPH 301656Z AUTO 00000KT 10SM FEW120 22/11 A3025 RMK AO2 SLP163 T02170111,M
LSV,2021-07-30 16:58,-115.0343,36.2362,570.00,87.00,61.70,42.93,60.00,5.00,0.00,30.02,1014.10,10.00,M,FEW,BKN,BKN,M,10000.00,14000.00,20000.00,M,M,M,M,M,M,M,M,87.23,KLSV 301658Z AUTO 06005KT 10SM FEW100 BKN140 BKN200 31/17 A3002 RMK AO2 SLP141 T03050165 $,M
INS,2021-07-30 16:58,-115.6733,36.5872,955.00,82.60,57.70,42.74,80.00,11.00,0.00,30.09,1014.20,10.00,M,SCT,SCT,BKN,M,14000.00,17000.00,20000.00,M,M,M,M,M,M,M,M,82.33,KINS 301658Z AUTO 08011KT 10SM SCT140 SCT170 BKN200 28/14 A3009 RMK AO2 SLP142 T02810143 $,M
CXP,2021-07-30 17:10,-119.7326,39.1923,1431.00,77.00,48.20,36.22,0.00,0.00,0.00,30.17,M,10.00,M,CLR,M,M,M,M,M,M,M,M,M,M,M,M,M,M,77.00,KCXP 301710Z AUTO 00000KT 10SM CLR 25/09 A3017 RMK AO2,M
HTH,2021-07-30 17:15,-118.6315,38.5448,1282.89,82.40,46.40,28.36,100.00,5.00,0.00,30.13,M,10.00,M,CLR,M,M,M,M,M,M,M,M,M,M,M,M,M,M,80.64,KHTH 301715Z AUTO 10005KT 10SM CLR 28/08 A3013 RMK A01,M
RTS,2021-07-30 17:15,-119.8764,39.6682,1539.00,80.60,41.00,24.46,0.00,0.00,0.00,30.18,M,10.00,M,CLR,M,M,M,M,M,M,M,M,M,M,M,M,M,M,79.20,KRTS 301715Z AUTO 00000KT 10SM CLR 27/05 A3018 RMK AO2,M
BVU,2021-07-30 17:15,-114.8611,35.9475,671.00,87.80,60.80,40.41,0.00,0.00,0.00,30.04,M,10.00,M,CLR,M,M,M,M,M,M,M,M,M,M,M,M,M,M,87.75,KBVU 301715Z AUTO 00000KT 10SM CLR 31/16 A3004 RMK AO2,M
TMT,2021-07-30 17:15,-117.1971,39.4643,1749.34,77.40,48.70,36.42,0.00,0.00,0.00,30.24,M,10.00,M,CLR,M,M,M,M,M,M,M,M,M,M,M,M,M,M,77.40,KTMT 301715Z AUTO 00000KT 10SM CLR 25/09 A3024 RMK AO2 T02520093,M
BAM,2021-07-30 17:15,-116.8743,40.5990,1382.36,87.80,46.40,23.85,110.00,8.00,0.00,30.15,M,10.00,M,CLR,M,M,M,M,M,M,M,M,M,M,M,M,M,M,84.68,KBAM 301715Z AUTO 11008KT 10SM CLR 31/08 A3015 RMK AO1,M
MEV,2021-07-30 17:15,-119.7500,38.9963,1441.42,78.80,51.80,39.02,290.00,4.00,0.00,30.16,M,10.00,M,CLR,M,M,M,M,M,M,M,M,M,M,M,M,M,M,78.80,KMEV 301715Z AUTO 29004KT 10SM CLR 26/11 A3016 RMK AO2,M
05U,2021-07-30 17:15,-116.0051,39.6042,1811.23,75.20,50.00,41.14,150.00,9.00,0.00,30.28,M,10.00,M,CLR,M,M,M,M,M,M,M,M,M,M,M,M,M,M,75.20,K05U 301715Z AUTO 15009KT 10SM CLR 24/10 A3028 RMK A01,M
CXP,2021-07-30 17:30,-119.7326,39.1923,1431.00,78.80,46.40,31.90,M,3.00,0.00,30.17,M,10.00,M,CLR,M,M,M,M,M,M,M,M,M,M,M,M,M,M,78.80,KCXP 301730Z AUTO VRB03KT 10SM CLR 26/08 A3017 RMK AO2,M
RTS,2021-07-30 17:35,-119.8764,39.6682,1539.00,80.60,39.20,22.81,0.00,0.00,0.00,30.19,M,10.00,M,SCT,M,M,M,11000.00,M,M,M,M,M,M,M,M,M,M,79.10,KRTS 301735Z AUTO 00000KT 10SM SCT110 27/04 A3019 RMK AO2,M
BAM,2021-07-30 17:35,-116.8743,40.5990,1382.36,86.00,46.40,25.26,120.00,6.00,0.00,30.15,M,10.00,M,SCT,M,M,M,12000.00,M,M,M,M,M,M,M,M,M,M,83.22,KBAM 301735Z AUTO 12006KT 10SM SCT120 30/08 A3015 RMK AO1,M
HTH,2021-07-30 17:35,-118.6315,38.5448,1282.89,84.20,46.40,26.76,0.00,0.00,0.00,30.13,M,10.00,M,CLR,M,M,M,M,M,M,M,M,M,M,M,M,M,M,81.87,KHTH 301735Z AUTO 00000KT 10SM CLR 29/08 A3013 RMK A01,M
TMT,2021-07-30 17:35,-117.1971,39.4643,1749.34,78.80,49.00,35.30,0.00,0.00,0.00,30.24,M,10.00,M,CLR,M,M,M,M,M,M,M,M,M,M,M,M,M,M,78.80,KTMT 301735Z AUTO 00000KT 10SM CLR 26/10 A3024 RMK AO2 T02600095,M
MEV,2021-07-30 17:35,-119.7500,38.9963,1441.42,82.40,48.20,30.35,190.00,6.00,0.00,30.16,M,9.00,M,CLR,M,M,M,M,M,M,M,M,M,M,M,M,M,M,80.80,KMEV 301735Z AUTO 19006KT 9SM CLR 28/09 A3016 RMK AO2,M
BVU,2021-07-30 17:35,-114.8611,35.9475,671.00,89.60,60.80,38.18,M,4.00,0.00,30.04,M,10.00,M,CLR,M,M,M,M,M,M,M,M,M,M,M,M,M,M,89.54,KBVU 301735Z AUTO VRB04KT 10SM CLR 32/16 A3004 RMK AO2,M
05U,2021-07-30 17:35,-116.0051,39.6042,1811.23,77.00,50.00,38.74,150.00,8.00,0.00,30.28,M,10.00,M,CLR,M,M,M,M,M,M,M,M,M,M,M,M,M,M,77.00,K05U 301735Z AUTO 15008KT 10SM CLR 25/10 A3028 RMK A01,M
CXP,2021-07-30 17:50,-119.7326,39.1923,1431.00,80.60,44.60,28.08,0.00,0.00,0.00,30.16,M,10.00,M,CLR,M,M,M,M,M,M,M,M,M,M,M,M,M,M,79.42,KCXP 301750Z AUTO 00000KT 10SM CLR 27/07 A3016 RMK AO2,M
VGT,2021-07-30 17:53,-115.1933,36.2111,667.00,88.00,64.00,44.95,0.00,0.00,0.00,30.03,1016.10,10.00,M,CLR,M,M,M,M,M,M,M,M,M,M,M,M,M,M,89.34,KVGT 301753Z 00000KT 10SM CLR 31/18 A3003 RMK AO2 SLP161 6//// T03110178 10311 20278 50003 PNO,M
DRA,2021-07-30 17:53,-116.0278,36.6206,1009.00,88.00,55.00,32.60,M,M,0.00,30.09,1013.90,10.00,M,CLR,M,M,M,M,M,M,M,M,M,M,M,M,M,M,86.20,KDRA 301753Z AUTO 10SM CLR 31/13 A3009 RMK AO2 SLP139 T03110128 10311 20239 51003 $,M
ELY,2021-07-30 17:53,-114.8453,39.2950,1909.00,72.00,54.00,53.09,40.00,6.00,0.00,30.30,1016.30,10.00,M,CLR,M,M,M,M,M,M,M,M,M,M,M,M,M,M,72.00,KELY 301753Z AUTO 04006KT 10SM CLR 22/12 A3030 RMK AO2 SLP163 T02220122 10222 20144 58001,M
LOL,2021-07-30 17:53,-118.5701,40.0684,1192.43,85.00,48.00,27.79,80.00,5.00,0.00,30.09,1014.00,10.00,M,CLR,M,M,M,M,M,M,M,M,M,M,M,M,M,M,82.53,KLOL 301753Z AUTO 08005KT 10SM CLR 29/09 A3009 RMK AO2 SLP140 T02940089 10294 20167 57000,M
P68,2021-07-30 17:53,-116.0056,39.6014,1993.00,77.00,52.00,41.72,160.00,9.00,0.00,30.25,1015.30,M,M,M,M,M,M,M,M,M,M,M,M,M,M,M,M,M,77.00,KP68 301753Z AUTO 16009KT 25/11 A3025 RMK AO1 SLP153 T02500111 10250 20144 50002,M
BVU,2021-07-30 17:55,-114.8611,35.9475,671.00,89.60,60.80,38.18,0.00,0.00,0.00,30.04,M,10.00,M,CLR,M,M,M,M,M,M,M,M,M,M,M,M,M,M,89.54,KBVU 301755Z AUTO 00000KT 10SM CLR 32/16 A3004 RMK AO2,M
05U,2021-07-30 17:55,-116.0051,39.6042,1811.23,78.80,50.00,36.51,170.00,7.00,0.00,30.28,M,10.00,M,CLR,M,M,M,M,M,M,M,M,M,M,M,M,M,M,78.80,K05U 301755Z AUTO 17007KT 10SM CLR 26/10 A3028 RMK A01,M
TMT,2021-07-30 17:55,-117.1971,39.4643,1749.34,79.00,47.80,33.40,0.00,0.00,0.00,30.24,M,7.00,M,CLR,M,M,M,M,M,M,M,M,M,M,M,M,M,M,79.00,KTMT 301755Z AUTO 00000KT 7SM CLR 26/09 A3024 RMK AO2 T02610088 10261 20105,M
HTH,2021-07-30 17:55,-118.6315,38.5448,1282.89,86.00,44.60,23.59,M,4.00,0.00,30.13,M,10.00,M,FEW,M,M,M,12000.00,M,M,M,M,M,M,M,M,M,M,83.07,KHTH 301755Z AUTO VRB04KT 10SM FEW120 30/07 A3013 RMK A01,M
BAM,2021-07-30 17:55,-116.8743,40.5990,1382.36,86.00,46.40,25.26,0.00,0.00,0.00,30.15,M,10.00,M,SCT,M,M,M,12000.00,M,M,M,M,M,M,M,M,M,M,83.22,KBAM 301755Z AUTO 00000KT 10SM SCT120 30/08 A3015 RMK AO1,M
MEV,2021-07-30 17:55,-119.7500,38.9963,1441.42,82.40,48.20,30.35,M,4.00,0.00,30.15,M,10.00,M,FEW,M,M,M,11000.00,M,M,M,M,M,M,M,M,M,M,80.80,KMEV 301755Z AUTO VRB04KT 10SM FEW110 28/09 A3015 RMK AO2,M
RTS,2021-07-30 17:55,-119.8764,39.6682,1539.00,80.60,39.20,22.81,0.00,0.00,0.00,30.19,M,10.00,M,FEW,M,M,M,11000.00,M,M,M,M,M,M,M,M,M,M,79.10,KRTS 301755Z AUTO 00000KT 10SM FEW110 27/04 A3019 RMK AO2,M
RNO,2021-07-30 17:55,-119.7711,39.4839,1341.00,81.00,46.00,29.23,150.00,3.00,0.00,30.13,1013.90,10.00,M,BKN,BKN,M,M,11000.00,20000.00,M,M,M,M,M,M,M,M,M,79.76,KRNO 301755Z 15003KT 10SM BKN110 BKN200 27/08 A3013 RMK AO2 SLP139 HZ ALQDS T02720078 10272 20206 58001,M
TPH,2021-07-30 17:56,-117.0904,38.0505,1654.00,74.00,51.00,44.76,100.00,4.00,0.00,30.26,1016.50,10.00,M,CLR,M,M,M,M,M,M,M,M,M,M,M,M,M,M,73.90,KTPH 301756Z AUTO 10004KT 10SM CLR 23/11 A3026 RMK AO2 SLP165 T02330106 10233 20172 51009,M
NFL,2021-07-30 17:56,-118.7010,39.4166,1199.00,90.00,45.00,21.10,M,6.00,0.00,30.08,1015.40,10.00,M,SCT,SCT,BKN,BKN,8000.00,12000.00,15000.00,20000.00,M,M,M,M,M,M,M,86.45,KNFL 301756Z VRB06KT 10SM SCT080 SCT120 BKN150 BKN200 32/07 A3008 RMK AO2 SLP154 T03220072 10328 20217 50001,M
WMC,2021-07-30 17:56,-117.8072,40.9019,1315.00,89.00,46.00,22.54,M,3.00,0.00,30.11,1013.60,10.00,M,CLR,M,M,M,M,M,M,M,M,M,M,M,M,M,M,85.76,KWMC 301756Z AUTO VRB03KT 10SM CLR 32/08 A3011 RMK AO2 SLP136 T03170078 10317 20144 58002,M
EKO,2021-07-30 17:56,-115.7860,40.8242,1367.00,84.00,51.00,32.10,M,M,0.00,30.19,1015.70,10.00,M,FEW,M,M,M,10000.00,M,M,M,M,M,M,M,M,M,M,82.23,KEKO 301756Z AUTO 10SM FEW100 29/11 A3019 RMK AO2 SLP157 T02890106 10289 20211 58004,M
HND,2021-07-30 17:56,-115.1344,35.9729,742.79,87.00,61.00,41.62,M,4.00,0.00,30.08,1017.20,10.00,M,CLR,M,M,M,M,M,M,M,M,M,M,M,M,M,M,87.15,KHND 301756Z VRB04KT 10SM CLR 31/16 A3008 RMK AO2 SLP172 T03060161 10306 20250 50002,M
LAS,2021-07-30 17:56,-115.1634,36.0719,663.00,89.00,60.00,37.83,0.00,0.00,0.00,30.04,1014.60,10.00,M,FEW,BKN,BKN,M,11000.00,14000.00,20000.00,M,M,M,M,M,M,M,M,88.76,KLAS 301756Z 00000KT 10SM FEW110 BKN140 BKN200 32/16 A3004 RMK AO2 SLP146 TCU DSNT NW T03170156 10328 20278 50001 $,M
LSV,2021-07-30 17:58,-115.0343,36.2362,570.00,90.70,60.80,36.88,70.00,9.00,0.00,30.01,1013.70,10.00,M,FEW,SCT,SCT,BKN,10000.00,13000.00,17000.00,20000.00,M,M,M,M,M,M,M,90.66,KLSV 301758Z AUTO 07009KT 10SM FEW100 SCT130 SCT170 BKN200 33/16 A3001 RMK AO2 SLP137 T03260160 10327 20270 50002 $,M
INS,2021-07-30 17:58,-115.6733,36.5872,955.00,86.50,57.20,37.03,90.00,10.00,0.00,30.09,1014.20,10.00,M,FEW,FEW,SCT,BKN,10000.00,12000.00,15000.00,18000.00,M,M,M,M,M,M,M,85.41,KINS 301758Z AUTO 09010KT 10SM FEW100 FEW120 SCT150 BKN180 BKN210 30/14 A3009 RMK AO2 SLP142 T03030140 10303 20241 51003 $,M
CXP,2021-07-30 18:10,-119.7326,39.1923,1431.00,82.40,44.60,26.49,0.00,0.00,0.00,30.16,M,10.00,M,CLR,M,M,M,M,M,M,M,M,M,M,M,M,M,M,80.50,KCXP 301810Z AUTO 00000KT 10SM CLR 28/07 A3016 RMK AO2,M
BVU,2021-07-30 18:15,-114.8611,35.9475,671.00,89.60,60.80,38.18,0.00,0.00,0.00,30.03,M,10.00,M,CLR,M,M,M,M,M,M,M,M,M,M,M,M,M,M,89.54,KBVU 301815Z AUTO 00000KT 10SM CLR 32/16 A3003 RMK AO2,M
HTH,2021-07-30 18:15,-118.6315,38.5448,1282.89,86.00,44.60,23.59,0.00,0.00,0.00,30.12,M,10.00,M,FEW,M,M,M,12000.00,M,M,M,M,M,M,M,M,M,M,83.07,KHTH 301815Z AUTO 00000KT 10SM FEW120 30/07 A3012 RMK A01,M
TMT,2021-07-30 18:15,-117.1971,39.4643,1749.34,80.60,47.80,31.70,10.00,6.00,0.00,30.24,M,10.00,M,CLR,M,M,M,M,M,M,M,M,M,M,M,M,M,M,79.68,KTMT 301815Z AUTO 01006KT 10SM CLR 27/09 A3024 RMK AO2 T02700088,M
BAM,2021-07-30 18:15,-116.8743,40.5990,1382.36,87.80,46.40,23.85,150.00,6.00,0.00,30.14,M,10.00,M,BKN,M,M,M,11000.00,M,M,M,M,M,M,M,M,M,M,84.68,KBAM 301815Z AUTO 15006KT 10SM BKN110 31/08 A3014 RMK AO1,M
MEV,2021-07-30 18:15,-119.7500,38.9963,1441.42,84.20,44.60,24.99,M,5.00,0.00,30.15,M,10.00,M,CLR,M,M,M,M,M,M,M,M,M,M,M,M,M,M,81.73,KMEV 301815Z AUTO VRB05KT 10SM CLR 29/07 A3015 RMK AO2,M
05U,2021-07-30 18:15,-116.0051,39.6042,1811.23,80.60,50.00,34.41,170.00,3.00,0.00,30.27,M,10.00,M,CLR,M,M,M,M,M,M,M,M,M,M,M,M,M,M,79.88,K05U 301815Z AUTO 17003KT 10SM CLR 27/10 A3027 RMK A01,M
RTS,2021-07-30 18:15,-119.8764,39.6682,1539.00,80.60,39.20,22.81,0.00,0.00,0.00,30.19,M,9.00,M,SCT,M,M,M,10000.00,M,M,M,M,M,M,M,M,M,M,79.10,KRTS 301815Z AUTO 00000KT 9SM SCT100 27/04 A3019 RMK AO2,M
CXP,2021-07-30 18:30,-119.7326,39.1923,1431.00,87.80,42.80,20.79,0.00,0.00,0.00,30.15,M,9.00,M,CLR,M,M,M,M,M,M,M,M,M,M,M,M,M,M,84.40,KCXP 301830Z AUTO 00000KT 9SM CLR 31/06 A3015 RMK AO2,M
BVU,2021-07-30 18:35,-114.8611,35.9475,671.00,91.40,60.80,36.08,20.00,6.00,0.00,30.03,M,10.00,M,CLR,M,M,M,M,M,M,M,M,M,M,M,M,M,M,91.40,KBVU 301835Z AUTO 02006KT 10SM CLR 33/16 A3003 RMK AO2,M
RTS,2021-07-30 18:35,-119.8764,39.6682,1539.00,82.40,39.20,21.51,0.00,0.00,0.00,30.19,M,9.00,M,SCT,M,M,M,10000.00,M,M,M,M,M,M,M,M,M,M,80.21,KRTS 301835Z AUTO 00000KT 9SM SCT100 28/04 A3019 RMK AO2,M
05U,2021-07-30 18:35,-116.0051,39.6042,1811.23,84.20,48.20,28.63,150.00,7.00,0.00,30.26,M,10.00,M,CLR,M,M,M,M,M,M,M,M,M,M,M,M,M,M,82.04,K05U 301835Z AUTO 15007KT 140V210 10SM CLR 29/09 A3026 RMK A01,M
MEV,2021-07-30 18:35,-119.7500,38.9963,1441.42,84.20,44.60,24.99,200.00,5.00,0.00,30.15,M,10.00,M,CLR,M,M,M,M,M,M,M,M,M,M,M,M,M,M,81.73,KMEV 301835Z AUTO 20005KT 10SM CLR 29/07 A3015 RMK AO2,M
BAM,2021-07-30 18:35,-116.8743,40.5990,1382.36,87.80,46.40,23.85,280.00,7.00,0.00,30.14,M,10.00,M,SCT,BKN,M,M,9000.00,11000.00,M,M,M,M,M,M,M,M,M,84.68,KBAM 301835Z AUTO 28007KT 10SM SCT090 BKN110 31/08 A3014 RMK AO1,M
HTH,2021-07-30 18:35,-118.6315,38.5448,1282.89,87.80,44.60,22.27,340.00,4.00,0.00,30.12,M,10.00,M,CLR,M,M,M,M,M,M,M,M,M,M,M,M,M,M,84.53,KHTH 301835Z AUTO 34004KT 10SM CLR 31/07 A3012 RMK A01,M
TMT,2021-07-30 18:35,-117.1971,39.4643,1749.34,82.40,47.70,29.78,30.00,4.00,0.00,30.24,M,10.00,M,CLR,M,M,M,M,M,M,M,M,M,M,M,M,M,M,80.75,KTMT 301835Z AUTO 03004KT 10SM CLR 28/09 A3024 RMK AO2 T02800087,M
CXP,2021-07-30 18:50,-119.7326,39.1923,1431.00,89.60,39.20,17.09,M,4.00,0.00,30.15,M,9.00,M,CLR,M,M,M,M,M,M,M,M,M,M,M,M,M,M,85.73,KCXP 301850Z AUTO VRB04KT 9SM CLR 32/04 A3015 RMK AO2,M
P68,2021-07-30 18:53,-116.0056,39.6014,1993.00,82.00,50.00,32.88,180.00,7.00,0.00,30.22,1014.40,M,M,M,M,M,M,M,M,M,M,M,M,M,M,M,M,M,80.73,KP68 301853Z AUTO 18007KT 28/10 A3022 RMK AO1 SLP144 T02780100,M
ELY,2021-07-30 18:53,-114.8453,39.2950,1909.00,76.00,54.00,46.57,M,3.00,0.00,30.28,1015.20,10.00,M,FEW,M,M,M,12000.00,M,M,M,M,M,M,M,M,M,M,75.90,KELY 301853Z AUTO VRB03KT 10SM FEW120 24/12 A3028 RMK AO2 SLP152 T02440122,M
LOL,2021-07-30 18:53,-118.5701,40.0684,1192.43,86.00,48.00,26.82,0.00,0.00,0.00,30.09,1013.90,10.00,M,CLR,M,M,M,M,M,M,M,M,M,M,M,M,M,M,83.38,KLOL 301853Z AUTO 00000KT 10SM CLR 30/09 A3009 RMK AO2 SLP139 T03000089,M
VGT,2021-07-30 18:53,-115.1933,36.2111,667.00,90.00,61.00,37.97,0.00,0.00,0.00,30.02,1015.70,10.00,M,CLR,M,M,M,M,M,M,M,M,M,M,M,M,M,M,90.03,KVGT 301853Z 00000KT 10SM CLR 32/16 A3002 RMK AO2 SLP157 T03220161 PNO,M
DRA,2021-07-30 18:53,-116.0278,36.6206,1009.00,90.00,55.00,30.61,320.00,3.00,0.00,30.08,1013.60,10.00,M,CLR,M,M,M,M,M,M,M,M,M,M,M,M,M,M,88.06,KDRA 301853Z AUTO 32003KT 10SM CLR 32/13 A3008 RMK AO2 SLP136 T03220128 $,M
TMT,2021-07-30 18:55,-117.1971,39.4643,1749.34,83.00,46.20,27.69,0.00,0.00,0.00,30.23,M,10.00,M,CLR,M,M,M,M,M,M,M,M,M,M,M,M,M,M,80.95,KTMT 301855Z AUTO 00000KT 10SM CLR 28/08 A3023 RMK AO2 T02830079,M
MEV,2021-07-30 18:55,-119.7500,38.9963,1441.42,87.80,44.60,22.27,M,3.00,0.00,30.15,M,10.00,M,CLR,M,M,M,M,M,M,M,M,M,M,M,M,M,M,84.53,KMEV 301855Z AUTO VRB03KT 10SM CLR 31/07 A3015 RMK AO2,M
HTH,2021-07-30 18:55,-118.6315,38.5448,1282.89,89.60,44.60,21.04,M,5.00,0.00,30.11,M,10.00,M,CLR,M,M,M,M,M,M,M,M,M,M,M,M,M,M,86.07,KHTH 301855Z AUTO VRB05KT 10SM CLR 32/07 A3011 RMK A01,M
BVU,2021-07-30 18:55,-114.8611,35.9475,671.00,93.20,59.00,31.99,30.00,8.00,0.00,30.03,M,10.00,M,CLR,M,M,M,M,M,M,M,M,M,M,M,M,M,M,92.57,KBVU 301855Z AUTO 03008KT 10SM CLR 34/15 A3003 RMK AO2,M
RTS,2021-07-30 18:55,-119.8764,39.6682,1539.00,82.40,37.40,20.04,0.00,0.00,0.00,30.18,M,10.00,M,FEW,M,M,M,10000.00,M,M,M,M,M,M,M,M,M,M,80.14,KRTS 301855Z AUTO 00000KT 10SM FEW100 28/03 A3018 RMK AO2,M
05U,2021-07-30 18:55,-116.0051,39.6042,1811.23,86.00,46.40,25.26,150.00,9.00,0.00,30.26,M,10.00,M,CLR,M,M,M,M,M,M,M,M,M,M,M,M,M,M,83.22,K05U 301855Z AUTO 15009KT 130V190 10SM CLR 30/08 A3026 RMK A01,M
BAM,2021-07-30 18:55,-116.8743,40.5990,1382.36,87.80,46.40,23.85,20.00,3.00,0.00,30.13,M,10.00,M,BKN,M,M,M,9000.00,M,M,M,M,M,M,M,M,M,M,84.68,KBAM 301855Z AUTO 02003KT 10SM BKN090 31/08 A3013 RMK AO1,M
RNO,2021-07-30 18:55,-119.7711,39.4839,1341.00,86.00,44.00,23.14,0.00,0.00,0.00,30.12,1013.30,10.00,M,SCT,BKN,M,M,8000.00,20000.00,M,M,M,M,M,M,M,M,M,83.04,KRNO 301855Z 00000KT 10SM SCT080 BKN200 30/07 A3012 RMK AO2 SLP133 HZ ALQDS T03000067,M
HND,2021-07-30 18:56,-115.1344,35.9729,742.79,89.00,61.00,39.06,30.00,5.00,0.00,30.07,1016.80,10.00,M,CLR,M,M,M,M,M,M,M,M,M,M,M,M,M,M,89.11,KHND 301856Z 03005KT 10SM CLR 32/16 A3007 RMK AO2 SLP168 T03170161,M
TPH,2021-07-30 18:56,-117.0904,38.0505,1654.00,77.00,50.00,38.74,150.00,5.00,0.00,30.25,1016.10,10.00,M,CLR,M,M,M,M,M,M,M,M,M,M,M,M,M,M,77.00,KTPH 301856Z AUTO 15005KT 10SM CLR 25/10 A3025 RMK AO2 SLP161 T02500100,M
LAS,2021-07-30 18:56,-115.1634,36.0719,663.00,90.00,59.00,35.36,0.00,0.00,0.00,30.03,1014.30,10.00,M,FEW,BKN,BKN,M,11000.00,14000.00,20000.00,M,M,M,M,M,M,M,M,89.26,KLAS 301856Z 00000KT 10SM FEW110 BKN140 BKN200 32/15 A3003 RMK AO2 SLP143 TCU DSNT NW T03220150 $,M
NFL,2021-07-30 18:56,-118.7010,39.4166,1199.00,93.00,44.00,18.56,M,6.00,0.00,30.07,1015.10,10.00,M,SCT,BKN,BKN,BKN,8000.00,12000.00,16000.00,20000.00,M,M,M,M,M,M,M,89.11,KNFL 301856Z VRB06KT 10SM SCT080 BKN120 BKN160 BKN200 34/07 A3007 RMK AO2 SLP151 T03390067,M
EKO,2021-07-30 18:56,-115.7860,40.8242,1367.00,86.00,49.00,27.74,M,4.00,0.00,30.17,1014.80,10.00,M,CLR,M,M,M,M,M,M,M,M,M,M,M,M,M,M,83.48,KEKO 301856Z AUTO VRB04KT 10SM CLR 30/09 A3017 RMK AO2 SLP148 T03000094,M
WMC,2021-07-30 18:56,-117.8072,40.9019,1315.00,90.00,46.00,21.91,0.00,0.00,0.00,30.11,1013.20,10.00,M,CLR,M,M,M,M,M,M,M,M,M,M,M,M,M,M,86.55,KWMC 301856Z AUTO 00000KT 10SM CLR 32/08 A3011 RMK AO2 SLP132 T03220078,M
LSV,2021-07-30 18:58,-115.0343,36.2362,570.00,91.20,58.80,33.81,70.00,5.00,0.00,30.01,1013.80,10.00,M,FEW,FEW,BKN,BKN,10000.00,15000.00,17000.00,20000.00,M,M,M,M,M,M,M,90.40,KLSV 301858Z AUTO 07005KT 10SM FEW100 FEW150 BKN170 BKN200 33/15 A3001 RMK AO2 SLP138 T03290149 $,M
INS,2021-07-30 18:58,-115.6733,36.5872,955.00,89.20,54.70,31.05,90.00,13.00,0.00,30.08,1013.70,10.00,M,FEW,M,M,M,18000.00,M,M,M,M,M,M,M,M,M,M,87.23,KINS 301858Z AUTO 09013KT 10SM FEW180 32/13 A3008 RMK AO2 SLP137 T03180126 $,M
CXP,2021-07-30 19:10,-119.7326,39.1923,1431.00,89.60,39.20,17.09,0.00,0.00,0.00,30.14,M,10.00,M,CLR,M,M,M,M,M,M,M,M,M,M,M,M,M,M,85.73,KCXP 301910Z AUTO 00000KT 10SM CLR 32/04 A3014 RMK AO2,M
MEV,2021-07-30 19:15,-119.7500,38.9963,1441.42,86.00,44.60,23.59,M,5.00,0.00,30.14,M,10.00,M,FEW,M,M,M,11000.00,M,M,M,M,M,M,M,M,M,M,83.07,KMEV 301915Z AUTO VRB05KT 10SM FEW110 30/07 A3014 RMK AO2,M
05U,2021-07-30 19:15,-116.0051,39.6042,1811.23,87.80,46.40,23.85,190.00,6.00,0.00,30.25,M,10.00,11.00,CLR,M,M,M,M,M,M,M,M,M,M,M,M,M,M,84.68,K05U 301915Z AUTO 19006G11KT 10SM CLR 31/08 A3025 RMK A01,M
RTS,2021-07-30 19:15,-119.8764,39.6682,1539.00,84.20,39.20,20.29,340.00,5.00,0.00,30.18,M,10.00,M,CLR,M,M,M,M,M,M,M,M,M,M,M,M,M,M,81.44,KRTS 301915Z AUTO 34005KT 10SM CLR 29/04 A3018 RMK AO2,M
BVU,2021-07-30 19:15,-114.8611,35.9475,671.00,91.40,59.00,33.84,0.00,0.00,0.00,30.02,M,10.00,M,CLR,M,M,M,M,M,M,M,M,M,M,M,M,M,M,90.68,KBVU 301915Z AUTO 00000KT 10SM CLR 33/15 A3002 RMK AO2,M
BAM,2021-07-30 19:15,-116.8743,40.5990,1382.36,89.60,46.40,22.53,0.00,0.00,0.00,30.13,M,10.00,M,OVC,M,M,M,9000.00,M,M,M,M,M,M,M,M,M,M,86.24,KBAM 301915Z AUTO 00000KT 10SM OVC090 32/08 A3013 RMK AO1,M
HTH,2021-07-30 19:15,-118.6315,38.5448,1282.89,89.60,44.60,21.04,280.00,7.00,0.00,30.10,M,10.00,M,CLR,M,M,M,M,M,M,M,M,M,M,M,M,M,M,86.07,KHTH 301915Z AUTO 28007KT 260V320 10SM CLR 32/07 A3010 RMK A01,M
TMT,2021-07-30 19:15,-117.1971,39.4643,1749.34,82.60,47.50,29.37,0.00,0.00,0.00,30.22,M,10.00,M,CLR,M,M,M,M,M,M,M,M,M,M,M,M,M,M,80.87,KTMT 301915Z AUTO 00000KT 10SM CLR 28/09 A3022 RMK AO2 T02810086,M
CXP,2021-07-30 19:30,-119.7326,39.1923,1431.00,89.60,39.20,17.09,M,3.00,0.00,30.14,M,10.00,M,CLR,M,M,M,M,M,M,M,M,M,M,M,M,M,M,85.73,KCXP 301930Z AUTO VRB03KT 10SM CLR 32/04 A3014 RMK AO2,M
HTH,2021-07-30 19:35,-118.6315,38.5448,1282.89,89.60,44.60,21.04,340.00,8.00,0.00,30.10,M,10.00,M,CLR,M,M,M,M,M,M,M,M,M,M,M,M,M,M,86.07,KHTH 301935Z AUTO 34008KT 10SM CLR 32/07 A3010 RMK A01,M
BAM,2021-07-30 19:35,-116.8743,40.5990,1382.36,89.60,46.40,22.53,40.00,3.00,0.00,30.12,M,10.00,M,OVC,M,M,M,9000.00,M,M,M,M,M,M,M,M,M,M,86.24,KBAM 301935Z AUTO 04003KT 10SM OVC090 32/08 A3012 RMK AO1,M
ELY,2021-07-30 19:35,-114.8453,39.2950,1909.00,80.00,52.00,37.67,0.00,0.00,0.00,30.27,M,10.00,M,CLR,M,M,M,M,M,M,M,VCTS,M,M,M,M,M,M,79.81,KELY 301935Z AUTO 00000KT 10SM VCTS CLR 27/11 A3027 RMK AO2 LTG DSNT S AND SW T02670111,M
TMT,2021-07-30 19:35,-117.1971,39.4643,1749.34,84.20,47.30,27.68,330.00,5.00,0.00,30.22,M,10.00,M,CLR,M,M,M,M,M,M,M,M,M,M,M,M,M,M,81.95,KTMT 301935Z AUTO 33005KT 10SM CLR 29/09 A3022 RMK AO2 T02900085,M
RTS,2021-07-30 19:35,-119.8764,39.6682,1539.00,86.00,39.20,19.15,0.00,0.00,0.00,30.18,M,10.00,M,FEW,M,M,M,11000.00,M,M,M,M,M,M,M,M,M,M,82.79,KRTS 301935Z AUTO 00000KT 10SM FEW110 30/04 A3018 RMK AO2,M
BVU,2021-07-30 19:35,-114.8611,35.9475,671.00,93.20,59.00,31.99,0.00,0.00,0.00,30.01,M,10.00,M,CLR,M,M,M,M,M,M,M,VCTS,M,M,M,M,M,M,92.57,KBVU 301935Z AUTO 00000KT 10SM VCTS CLR 34/15 A3001 RMK AO2 LTG DSNT SE,M
MEV,2021-07-30 19:35,-119.7500,38.9963,1441.42,89.60,42.80,19.64,M,5.00,0.00,30.14,M,10.00,10.00,CLR,M,M,M,M,M,M,M,M,M,M,M,M,M,M,85.93,KMEV 301935Z AUTO VRB05G10KT 10SM CLR 32/06 A3014 RMK AO2,M
05U,2021-07-30 19:35,-116.0051,39.6042,1811.23,87.80,46.40,23.85,0.00,0.00,0.00,30.24,M,10.00,12.00,CLR,M,M,M,M,M,M,M,M,M,M,M,M,M,M,84.68,K05U 301935Z AUTO 00000G12KT 10SM CLR 31/08 A3024 RMK A01,M
CXP,2021-07-30 19:50,-119.7326,39.1923,1431.00,91.40,39.20,16.15,190.00,8.00,0.00,30.14,M,10.00,14.00,CLR,M,M,M,M,M,M,M,M,M,M,M,M,M,M,87.30,KCXP 301950Z AUTO 19008G14KT 160V220 10SM CLR 33/04 A3014 RMK AO2,M
P68,2021-07-30 19:53,-116.0056,39.6014,1993.00,84.00,46.00,26.52,110.00,8.00,0.00,30.21,1013.50,M,14.00,M,M,M,M,M,M,M,M,M,M,M,M,M,M,M,81.69,KP68 301953Z AUTO 11008G14KT 29/08 A3021 RMK AO1 SLP135 T02890078 $,M
LOL,2021-07-30 19:53,-118.5701,40.0684,1192.43,90.00,47.00,22.67,M,5.00,0.00,30.07,1013.30,10.00,M,CLR,M,M,M,M,M,M,M,M,M,M,M,M,M,M,86.65,KLOL 301953Z AUTO VRB05KT 10SM CLR 32/08 A3007 RMK AO2 SLP133 T03220083,M
DRA,2021-07-30 19:53,-116.0278,36.6206,1009.00,91.00,54.00,28.60,100.00,9.00,0.00,30.07,1013.00,10.00,24.00,OVC,M,M,M,7500.00,M,M,M,M,M,M,M,M,M,M,88.78,KDRA 301953Z AUTO 10009G24KT 070V140 10SM OVC075 33/12 A3007 RMK AO2 SLP130 T03280122,M
VGT,2021-07-30 19:53,-115.1933,36.2111,667.00,93.00,61.00,34.57,M,6.00,0.00,30.00,1014.80,10.00,M,CLR,M,M,M,M,M,M,M,M,M,M,M,M,M,M,93.20,KVGT 301953Z VRB06KT 10SM CLR 34/16 A3000 RMK AO2 SLP148 T03390161 PNO,M
ELY,2021-07-30 19:53,-114.8453,39.2950,1909.00,83.00,53.00,35.81,60.00,8.00,0.00,30.26,1014.10,10.00,M,CLR,M,M,M,M,M,M,M,M,M,M,M,M,M,M,81.73,KELY 301953Z AUTO 06008KT 10SM CLR 28/12 A3026 RMK AO2 LTG DSNT SW SLP141 T02830117,M
MEV,2021-07-30 19:55,-119.7500,38.9963,1441.42,89.60,42.80,19.64,180.00,6.00,0.00,30.13,M,10.00,M,CLR,M,M,M,M,M,M,M,M,M,M,M,M,M,M,85.93,KMEV 301955Z AUTO 18006KT 10SM CLR 32/06 A3013 RMK AO2,M
BAM,2021-07-30 19:55,-116.8743,40.5990,1382.36,89.60,44.60,21.04,0.00,0.00,0.00,30.12,M,10.00,M,OVC,M,M,M,10000.00,M,M,M,M,M,M,M,M,M,M,86.07,KBAM 301955Z AUTO 00000KT 10SM OVC100 32/07 A3012 RMK AO1,M
RTS,2021-07-30 19:55,-119.8764,39.6682,1539.00,86.00,39.20,19.15,0.00,0.00,0.00,30.17,M,10.00,M,FEW,M,M,M,11000.00,M,M,M,M,M,M,M,M,M,M,82.79,KRTS 301955Z AUTO 00000KT 10SM FEW110 30/04 A3017 RMK AO2,M
RNO,2021-07-30 19:55,-119.7711,39.4839,1341.00,92.00,42.00,17.79,M,4.00,0.00,30.10,1012.50,10.00,M,SCT,BKN,M,M,8000.00,20000.00,M,M,M,M,M,M,M,M,M,87.92,KRNO 301955Z VRB04KT 10SM SCT080 BKN200 33/06 A3010 RMK AO2 SLP125 HZ ALQDS T03330056,M
05U,2021-07-30 19:55,-116.0051,39.6042,1811.23,87.80,46.40,23.85,100.00,5.00,0.00,30.24,M,10.00,10.00,CLR,M,M,M,M,M,M,M,M,M,M,M,M,M,M,84.68,K05U 301955Z AUTO 10005G10KT 10SM CLR 31/08 A3024 RMK A01,M
TMT,2021-07-30 19:55,-117.1971,39.4643,1749.34,84.70,48.20,28.18,150.00,6.00,0.00,30.21,M,10.00,M,CLR,M,M,M,M,M,M,M,M,M,M,M,M,M,M,82.40,KTMT 301955Z AUTO 15006KT 10SM CLR 29/09 A3021 RMK AO2 T02930090,M
BVU,2021-07-30 19:55,-114.8611,35.9475,671.00,95.00,57.20,28.37,M,3.00,0.00,30.01,M,10.00,M,CLR,M,M,M,M,M,M,M,M,M,M,M,M,M,M,93.82,KBVU 301955Z AUTO VRB03KT 10SM CLR 35/14 A3001 RMK AO2 LTG DSNT SE,M
HTH,2021-07-30 19:55,-118.6315,38.5448,1282.89,89.60,44.60,21.04,260.00,7.00,0.00,30.10,M,10.00,12.00,CLR,M,M,M,M,M,M,M,M,M,M,M,M,M,M,86.07,KHTH 301955Z AUTO 26007G12KT 230V290 10SM CLR 32/07 A3010 RMK A01,M
WMC,2021-07-30 19:56,-117.8072,40.9019,1315.00,90.00,43.00,19.55,360.00,6.00,0.00,30.10,1013.30,10.00,15.00,FEW,M,M,M,12000.00,M,M,M,M,M,M,M,M,M,M,86.29,KWMC 301956Z AUTO 36006G15KT 10SM FEW120 32/06 A3010 RMK AO2 SLP133 T03220061,M
TPH,2021-07-30 19:56,-117.0904,38.0505,1654.00,80.00,49.00,33.58,160.00,7.00,0.00,30.23,1015.50,10.00,M,CLR,M,M,M,M,M,M,M,M,M,M,M,M,M,M,79.50,KTPH 301956Z AUTO 16007KT 10SM CLR 27/09 A3023 RMK AO2 SLP155 T02670094,M
EKO,2021-07-30 19:56,-115.7860,40.8242,1367.00,90.00,49.00,24.44,40.00,7.00,0.00,30.15,1013.90,10.00,M,CLR,M,M,M,M,M,M,M,M,M,M,M,M,M,M,86.90,KEKO 301956Z AUTO 04007KT 10SM CLR 32/09 A3015 RMK AO2 SLP139 T03220094,M
NFL,2021-07-30 19:56,-118.7010,39.4166,1199.00,92.00,45.00,19.88,210.00,10.00,0.00,30.07,1015.00,10.00,M,SCT,BKN,BKN,BKN,8000.00,12000.00,16000.00,20000.00,M,M,M,M,M,M,M,88.17,KNFL 301956Z 21010KT 10SM SCT080 BKN120 BKN160 BKN200 33/07 A3007 RMK AO2 SLP150 T03330072,M
LAS,2021-07-30 19:56,-115.1634,36.0719,663.00,93.00,58.00,30.95,90.00,5.00,0.00,30.02,1013.60,10.00,M,FEW,FEW,BKN,M,8000.00,11000.00,15000.00,M,M,M,M,M,M,M,M,91.94,KLAS 301956Z 09005KT 10SM FEW080 FEW110 BKN150 34/14 A3002 RMK AO2 SLP136 T03390144 $,M
HND,2021-07-30 19:56,-115.1344,35.9729,742.79,91.00,61.00,36.80,M,3.00,0.00,30.05,1016.20,10.00,M,CLR,M,M,M,M,M,M,M,M,M,M,M,M,M,M,91.06,KHND 301956Z VRB03KT 10SM CLR 33/16 A3005 RMK AO2 SLP162 T03280161,M
INS,2021-07-30 19:58,-115.6733,36.5872,955.00,89.20,54.70,31.05,80.00,10.00,0.00,30.07,1013.30,10.00,M,FEW,FEW,SCT,SCT,7500.00,10000.00,12000.00,14000.00,M,M,M,M,M,M,M,87.23,KINS 301958Z AUTO 08010KT 10SM FEW075 FEW100 SCT120 SCT140 BKN170 OVC200 32/13 A3007 RMK AO2 SLP133 T03180126 $,M
LSV,2021-07-30 19:58,-115.0343,36.2362,570.00,92.80,58.60,31.93,50.00,3.00,0.00,29.99,1013.00,10.00,M,FEW,SCT,BKN,M,13000.00,16000.00,20000.00,M,M,M,M,M,M,M,M,91.99,KLSV 301958Z AUTO 05003KT 10SM FEW130 SCT160 BKN200 34/15 A2999 RMK AO2 SLP130 T03380148 $,M
CXP,2021-07-30 20:10,-119.7326,39.1923,1431.00,91.40,39.20,16.15,M,6.00,0.00,30.13,M,9.00,M,CLR,M,M,M,M,M,M,M,M,M,M,M,M,M,M,87.30,KCXP 302010Z AUTO VRB06KT 9SM CLR 33/04 A3013 RMK AO2,M
RTS,2021-07-30 20:15,-119.8764,39.6682,1539.00,87.80,39.20,18.09,10.00,8.00,0.00,30.17,M,10.00,14.00,CLR,M,M,M,M,M,M,M,M,M,M,M,M,M,M,84.22,KRTS 302015Z AUTO 01008G14KT 10SM CLR 31/04 A3017 RMK AO2,M
HTH,2021-07-30 20:15,-118.6315,38.5448,1282.89,89.60,44.60,21.04,0.00,0.00,0.00,30.09,M,10.00,M,CLR,M,M,M,M,M,M,M,M,M,M,M,M,M,M,86.07,KHTH 302015Z AUTO 00000KT 10SM CLR 32/07 A3009 RMK A01,M
BAM,2021-07-30 20:15,-116.8743,40.5990,1382.36,91.40,46.40,21.29,10.00,7.00,0.00,30.11,M,10.00,M,BKN,BKN,M,M,10000.00,11000.00,M,M,M,M,M,M,M,M,M,87.86,KBAM 302015Z AUTO 01007KT 10SM BKN100 BKN110 33/08 A3011 RMK AO1,M
TMT,2021-07-30 20:15,-117.1971,39.4643,1749.34,85.50,47.70,26.95,80.00,3.00,0.00,30.20,M,10.00,M,CLR,M,M,M,M,M,M,M,M,M,M,M,M,M,M,82.96,KTMT 302015Z AUTO 08003KT 10SM CLR 30/09 A3020 RMK AO2 LTG DSNT S T02970087,M
MEV,2021-07-30 20:15,-119.7500,38.9963,1441.42,91.40,42.80,18.56,170.00,10.00,0.00,30.13,M,10.00,M,CLR,M,M,M,M,M,M,M,M,M,M,M,M,M,M,87.52,KMEV 302015Z AUTO 17010KT 10SM CLR 33/06 A3013 RMK AO2,M
05U,2021-07-30 20:15,-116.0051,39.6042,1811.23,87.80,46.40,23.85,150.00,5.00,0.00,30.23,M,10.00,12.00,SCT,BKN,M,M,7500.00,8500.00,M,M,M,M,M,M,M,M,M,84.68,K05U 302015Z AUTO 15005G12KT 10SM SCT075 BKN085 31/08 A3023 RMK A01,M
BVU,2021-07-30 20:15,-114.8611,35.9475,671.00,93.20,59.00,31.99,220.00,3.00,0.00,30.01,M,10.00,M,CLR,M,M,M,M,M,M,M,M,M,M,M,M,M,M,92.57,KBVU 302015Z AUTO 22003KT 10SM CLR 34/15 A3001 RMK AO2 LTG DSNT E AND SW,M
ELY,2021-07-30 20:20,-114.8453,39.2950,1909.00,81.00,51.00,35.38,M,3.00,0.00,30.25,M,10.00,M,FEW,BKN,M,M,7000.00,9000.00,M,M,VCTS,M,M,M,M,M,M,80.23,KELY 302020Z AUTO VRB03KT 10SM VCTS FEW070 BKN090 27/11 A3025 RMK AO2 LTG DSNT ALQDS T02720106,M
CXP,2021-07-30 20:30,-119.7326,39.1923,1431.00,93.20,39.20,15.27,270.00,7.00,0.00,30.12,M,10.00,M,CLR,M,M,M,M,M,M,M,M,M,M,M,M,M,M,88.92,KCXP 302030Z AUTO 27007KT 10SM CLR 34/04 A3012 RMK AO2,M
HTH,2021-07-30 20:35,-118.6315,38.5448,1282.89,89.60,42.80,19.64,0.00,0.00,0.00,30.08,M,10.00,M,CLR,M,M,M,M,M,M,M,M,M,M,M,M,M,M,85.93,KHTH 302035Z AUTO 00000KT 10SM CLR 32/06 A3008 RMK A01,M
RTS,2021-07-30 20:35,-119.8764,39.6682,1539.00,87.80,39.20,18.09,M,5.00,0.00,30.16,M,10.00,14.00,CLR,M,M,M,M,M,M,M,M,M,M,M,M,M,M,84.22,KRTS 302035Z AUTO VRB05G14KT 10SM CLR 31/04 A3016 RMK AO2,M
05U,2021-07-30 20:35,-116.0051,39.6042,1811.23,87.80,46.40,23.85,130.00,4.00,0.00,30.22,M,10.00,10.00,FEW,SCT,M,M,7500.00,8500.00,M,M,M,M,M,M,M,M,M,84.68,K05U 302035Z AUTO 13004G10KT 10SM FEW075 SCT085 31/08 A3022 RMK A01,M
MEV,2021-07-30 20:35,-119.7500,38.9963,1441.42,89.60,42.80,19.64,M,6.00,0.00,30.12,M,10.00,12.00,CLR,M,M,M,M,M,M,M,M,M,M,M,M,M,M,85.93,KMEV 302035Z AUTO VRB06G12KT 10SM CLR 32/06 A3012 RMK AO2,M
BAM,2021-07-30 20:35,-116.8743,40.5990,1382.36,91.40,46.40,21.29,70.00,6.00,0.00,30.11,M,10.00,M,BKN,BKN,M,M,10000.00,12000.00,M,M,M,M,M,M,M,M,M,87.86,KBAM 302035Z AUTO 07006KT 10SM BKN100 BKN120 33/08 A3011 RMK AO1,M
TMT,2021-07-30 20:35,-117.1971,39.4643,1749.34,85.00,47.50,27.09,210.00,8.00,0.00,30.20,M,10.00,M,CLR,M,M,M,M,M,M,M,VCTS,M,M,M,M,M,M,82.63,KTMT 302035Z AUTO 21008KT 10SM VCTS CLR 30/09 A3020 RMK AO2 LTG DSNT SE T02950086,M
BVU,2021-07-30 20:35,-114.8611,35.9475,671.00,93.20,57.20,29.99,260.00,4.00,0.00,30.00,M,10.00,M,CLR,M,M,M,M,M,M,M,M,M,M,M,M,M,M,91.91,KBVU 302035Z AUTO 26004KT 10SM CLR 34/14 A3000 RMK AO2,M
CXP,2021-07-30 20:50,-119.7326,39.1923,1431.00,91.40,39.20,16.15,M,5.00,0.00,30.12,M,9.00,M,CLR,M,M,M,M,M,M,M,M,M,M,M,M,M,M,87.30,KCXP 302050Z AUTO VRB05KT 9SM CLR 33/04 A3012 RMK AO2,M
LOL,2021-07-30 20:53,-118.5701,40.0684,1192.43,93.00,45.00,19.21,M,4.00,0.00,30.05,1012.70,10.00,M,CLR,M,M,M,M,M,M,M,M,M,M,M,M,M,M,89.20,KLOL 302053Z AUTO VRB04KT 10SM CLR 34/07 A3005 RMK AO2 SLP127 T03390072 58010,M
VGT,2021-07-30 20:53,-115.1933,36.2111,667.00,93.00,59.00,32.19,230.00,6.00,0.00,29.98,1014.10,10.00,M,CLR,M,M,M,M,M,M,M,M,M,M,M,M,M,M,92.35,KVGT 302053Z 23006KT 10SM CLR 34/15 A2998 RMK AO2 LTG DSNT SW SLP141 6//// T03390150 58016 PNO,M
P68,2021-07-30 20:53,-116.0056,39.6014,1993.00,85.00,46.00,25.77,M,M,0.00,30.19,1012.70,M,M,M,M,M,M,M,M,M,M,M,M,M,M,M,M,M,82.35,KP68 302053Z AUTO 29/08 A3019 RMK AO1 SLP127 T02940078 56018,M
ELY,2021-07-30 20:53,-114.8453,39.2950,1909.00,81.00,52.00,36.58,160.00,21.00,0.00,30.25,1013.90,10.00,26.00,BKN,M,M,M,7000.00,M,M,M,VCTS,M,M,M,26.00,170.00,2021-07-30 20:51,80.34,KELY 302053Z AUTO 16021G26KT 10SM VCTS BKN070 27/11 A3025 RMK AO2 PK WND 17026/2051 WSHFT 2039 LTG DSNT NW SLP139 T02720111 57015,M
DRA,2021-07-30 20:53,-116.0278,36.6206,1009.00,81.00,66.00,60.37,40.00,6.00,0.02,30.06,1013.20,4.00,M,FEW,SCT,OVC,M,5500.00,6500.00,10000.00,M,RA,M,M,M,M,M,M,83.11,KDRA 302053Z AUTO 04006KT 4SM RA FEW055 SCT065 OVC100 27/19 A3006 RMK AO2 RAB19E28B46 SLP132 P0002 60002 T02720189 56009,M
05U,2021-07-30 20:55,-116.0051,39.6042,1811.23,89.60,46.40,22.53,140.00,10.00,0.00,30.21,M,10.00,M,SCT,M,M,M,9000.00,M,M,M,M,M,M,M,M,M,M,86.24,K05U 302055Z AUTO 14010KT 10SM SCT090 32/08 A3021 RMK A01,M
RTS,2021-07-30 20:55,-119.8764,39.6682,1539.00,89.60,39.20,17.09,310.00,7.00,0.00,30.16,M,10.00,M,CLR,M,M,M,M,M,M,M,M,M,M,M,M,M,M,85.73,KRTS 302055Z AUTO 31007KT 10SM CLR 32/04 A3016 RMK AO2,M
RNO,2021-07-30 20:55,-119.7711,39.4839,1341.00,92.00,42.00,17.79,350.00,6.00,0.00,30.09,1012.20,10.00,M,BKN,BKN,M,M,8000.00,15000.00,M,M,M,M,M,M,M,M,M,87.92,KRNO 302055Z 35006KT 10SM BKN080 BKN150 33/06 A3009 RMK AO2 SLP122 HZ ALQDS T03330056 58012,M
HTH,2021-07-30 20:55,-118.6315,38.5448,1282.89,89.60,42.80,19.64,M,4.00,0.00,30.08,M,10.00,M,CLR,M,M,M,M,M,M,M,M,M,M,M,M,M,M,85.93,KHTH 302055Z AUTO VRB04KT 10SM CLR 32/06 A3008 RMK A01,M
BVU,2021-07-30 20:55,-114.8611,35.9475,671.00,93.20,57.20,29.99,M,5.00,0.00,29.99,M,10.00,13.00,CLR,M,M,M,M,M,M,M,M,M,M,M,M,M,M,91.91,KBVU 302055Z AUTO VRB05G13KT 10SM CLR 34/14 A2999 RMK AO2 LTG DSNT N AND SE,M
MEV,2021-07-30 20:55,-119.7500,38.9963,1441.42,91.40,44.60,19.89,M,6.00,0.00,30.12,M,10.00,M,CLR,M,M,M,M,M,M,M,M,M,M,M,M,M,M,87.68,KMEV 302055Z AUTO VRB06KT 10SM CLR 33/07 A3012 RMK AO2,M
BAM,2021-07-30 20:55,-116.8743,40.5990,1382.36,95.00,46.40,19.04,60.00,8.00,0.00,30.10,M,10.00,M,SCT,M,M,M,11000.00,M,M,M,M,M,M,M,M,M,M,91.29,KBAM 302055Z AUTO 06008KT 10SM SCT110 35/08 A3010 RMK AO1,M
INS,2021-07-30 20:55,-115.6733,36.5872,955.00,91.40,53.60,27.83,110.00,13.00,0.00,30.05,1012.50,10.00,15.00,FEW,M,M,M,19000.00,M,M,M,M,M,M,M,M,M,M,89.08,KINS 302055Z AUTO 11013G15KT 10SM FEW190 33/12 A3005 RMK AO2 WSHFT 53 SLP125 $,M
TMT,2021-07-30 20:55,-117.1971,39.4643,1749.34,84.20,47.70,28.10,230.00,16.00,0.00,30.20,M,10.00,19.00,CLR,M,M,M,M,M,M,M,VCTS,M,M,M,M,M,M,81.99,KTMT 302055Z AUTO 23016G19KT 10SM VCTS CLR 29/09 A3020 RMK AO2 LTG DSNT E AND SW T02900087,M
WMC,2021-07-30 20:56,-117.8072,40.9019,1315.00,92.00,48.00,22.26,350.00,6.00,0.00,30.08,1012.50,10.00,M,BKN,M,M,M,11000.00,M,M,M,M,M,M,M,M,M,M,88.53,KWMC 302056Z AUTO 35006KT 10SM BKN110 33/09 A3008 RMK AO2 SLP125 T03330089 58010,M
TPH,2021-07-30 20:56,-117.0904,38.0505,1654.00,81.00,50.00,33.97,190.00,9.00,0.00,30.21,1014.80,10.00,M,CLR,M,M,M,M,M,M,M,M,M,M,M,M,M,M,80.12,KTPH 302056Z AUTO 19009KT 10SM CLR 27/10 A3021 RMK AO2 SLP148 T02720100 58013,M
INS,2021-07-30 20:56,-115.6733,36.5872,955.00,89.60,53.60,29.45,160.00,11.00,0.00,30.05,1012.60,10.00,15.00,FEW,M,M,M,19000.00,M,M,M,M,M,M,M,M,M,M,87.36,KINS 302056Z AUTO 16011G15KT 10SM FEW190 32/12 A3005 RMK AO2 WSHFT 55 SLP126 $,M
EKO,2021-07-30 20:56,-115.7860,40.8242,1367.00,87.00,49.00,26.79,330.00,3.00,0.00,30.13,1013.30,10.00,M,CLR,M,M,M,M,M,M,M,M,M,M,M,M,M,M,84.37,KEKO 302056Z AUTO 33003KT 10SM CLR 31/09 A3013 RMK AO2 SLP133 T03060094 58019 $,M
LAS,2021-07-30 20:56,-115.1634,36.0719,663.00,93.00,58.00,30.95,0.00,0.00,0.00,30.00,1013.00,10.00,M,FEW,FEW,BKN,M,8000.00,11000.00,15000.00,M,M,M,M,M,M,M,M,91.94,KLAS 302056Z 00000KT 10SM FEW080 FEW110 BKN150 34/14 A3000 RMK AO2 LTG DSNT SE AND W SLP130 T03390144 58014,M
HND,2021-07-30 20:56,-115.1344,35.9729,742.79,92.00,59.00,33.31,0.00,0.00,0.00,30.03,1015.50,10.00,M,CLR,M,M,M,M,M,M,M,M,M,M,M,M,M,M,91.20,KHND 302056Z 00000KT 10SM CLR 33/15 A3003 RMK AO2 LTG DSNT SE AND W SLP155 T03330150 58015,M
NFL,2021-07-30 20:56,-118.7010,39.4166,1199.00,92.00,46.00,20.65,220.00,12.00,0.00,30.05,1014.50,10.00,M,SCT,BKN,BKN,M,8000.00,12000.00,17000.00,M,M,M,M,M,M,M,M,88.28,KNFL 302056Z 22012KT 10SM SCT080 BKN120 BKN170 33/08 A3005 RMK AO2 SLP145 T03330078 58009,M
LSV,2021-07-30 20:58,-115.0343,36.2362,570.00,94.00,58.60,30.86,110.00,4.00,0.00,29.97,1012.30,10.00,M,FEW,SCT,SCT,M,11000.00,14000.00,17000.00,M,M,M,M,M,M,M,M,93.16,KLSV 302058Z AUTO 11004KT 10SM FEW110 SCT140 SCT170 34/15 A2997 RMK AO2 SLP123 T03440148 57015 $,M
INS,2021-07-30 20:59,-115.6733,36.5872,955.00,90.30,52.70,27.87,150.00,9.00,0.00,30.05,1012.60,10.00,15.00,FEW,FEW,M,M,14000.00,19000.00,M,M,M,M,M,M,M,M,M,87.82,KINS 302059Z AUTO 15009G15KT 10SM FEW140 FEW190 32/12 A3005 RMK AO2 SLP126 T03240115 57014 $,M
ELY,2021-07-30 21:00,-114.8453,39.2950,1909.00,79.00,52.00,39.06,160.00,19.00,0.00,30.25,M,10.00,24.00,BKN,M,M,M,7000.00,M,M,M,VCTS,M,M,M,M,M,M,79.00,KELY 302100Z AUTO 16019G24KT 10SM VCTS BKN070 26/11 A3025 RMK AO2 WSHFT 2040 LTG DSNT SE AND W AND NW T02610111,M
CXP,2021-07-30 21:10,-119.7326,39.1923,1431.00,89.60,39.20,17.09,240.00,5.00,0.00,30.12,M,10.00,M,SCT,M,M,M,11000.00,M,M,M,M,M,M,M,M,M,M,85.73,KCXP 302110Z AUTO 24005KT 10SM SCT110 32/04 A3012 RMK AO2,M
ELY,2021-07-30 21:11,-114.8453,39.2950,1909.00,74.00,54.00,49.79,150.00,16.00,0.00,30.25,M,10.00,M,BKN,BKN,M,M,7000.00,10000.00,M,M,M,M,M,M,26.00,140.00,2021-07-30 21:02,73.90,KELY 302111Z AUTO 15016KT 10SM BKN070 BKN100 23/12 A3025 RMK AO2 PK WND 14026/2102 WSHFT 2040 LTG DSNT SW-N T02330122,M
RTS,2021-07-30 21:15,-119.8764,39.6682,1539.00,86.00,39.20,19.15,0.00,0.00,0.00,30.16,M,10.00,14.00,BKN,BKN,M,M,10000.00,12000.00,M,M,M,M,M,M,M,M,M,82.79,KRTS 302115Z AUTO 00000G14KT 10SM BKN100 BKN120 30/04 A3016 RMK AO2,M
BAM,2021-07-30 21:15,-116.8743,40.5990,1382.36,93.20,44.60,18.80,350.00,6.00,0.00,30.09,M,10.00,M,BKN,M,M,M,10000.00,M,M,M,M,M,M,M,M,M,M,89.34,KBAM 302115Z AUTO 35006KT 10SM BKN100 34/07 A3009 RMK AO1,M
MEV,2021-07-30 21:15,-119.7500,38.9963,1441.42,93.20,44.60,18.80,270.00,7.00,0.00,30.11,M,10.00,M,CLR,M,M,M,M,M,M,M,M,M,M,M,M,M,M,89.34,KMEV 302115Z AUTO 27007KT 220V300 10SM CLR 34/07 A3011 RMK AO2,M
BVU,2021-07-30 21:15,-114.8611,35.9475,671.00,93.20,57.20,29.99,210.00,5.00,0.00,29.99,M,10.00,M,BKN,M,M,M,12000.00,M,M,M,M,M,M,M,M,M,M,91.91,KBVU 302115Z AUTO 21005KT 10SM BKN120 34/14 A2999 RMK AO2 LTG DSNT SE AND S,M
05U,2021-07-30 21:15,-116.0051,39.6042,1811.23,89.60,46.40,22.53,110.00,3.00,0.00,30.21,M,10.00,12.00,BKN,M,M,M,9000.00,M,M,M,M,M,M,M,M,M,M,86.24,K05U 302115Z AUTO 11003G12KT 10SM BKN090 32/08 A3021 RMK A01,M
TMT,2021-07-30 21:15,-117.1971,39.4643,1749.34,85.60,49.50,28.74,210.00,15.00,0.00,30.20,M,10.00,19.00,SCT,M,M,M,11000.00,M,M,M,M,M,M,M,M,M,M,83.24,KTMT 302115Z AUTO 21015G19KT 10SM SCT110 30/10 A3020 RMK AO2 LTG DSNT E T02980097,M
HTH,2021-07-30 21:15,-118.6315,38.5448,1282.89,89.60,42.80,19.64,140.00,4.00,0.00,30.07,M,9.00,M,CLR,M,M,M,M,M,M,M,M,M,M,M,M,M,M,85.93,KHTH 302115Z AUTO 14004KT 9SM CLR 32/06 A3007 RMK A01,M
CXP,2021-07-30 21:30,-119.7326,39.1923,1431.00,89.60,41.00,18.33,250.00,9.00,0.00,30.12,M,10.00,M,BKN,M,M,M,10000.00,M,M,M,M,M,M,M,M,M,M,85.82,KCXP 302130Z AUTO 25009KT 10SM BKN100 32/05 A3012 RMK AO2,M
BVU,2021-07-30 21:35,-114.8611,35.9475,671.00,93.20,57.20,29.99,230.00,6.00,0.00,29.99,M,10.00,12.00,BKN,M,M,M,12000.00,M,M,M,M,M,M,M,M,M,M,91.91,KBVU 302135Z AUTO 23006G12KT 10SM BKN120 34/14 A2999 RMK AO2 LTG DSNT SW AND NW,M
HTH,2021-07-30 21:35,-118.6315,38.5448,1282.89,89.60,42.80,19.64,150.00,5.00,0.00,30.07,M,10.00,M,CLR,M,M,M,M,M,M,M,M,M,M,M,M,M,M,85.93,KHTH 302135Z AUTO 15005KT 10SM CLR 32/06 A3007 RMK A01,M
BAM,2021-07-30 21:35,-116.8743,40.5990,1382.36,91.40,46.40,21.29,340.00,10.00,0.00,30.09,M,10.00,18.00,BKN,BKN,M,M,9000.00,11000.00,M,M,M,M,M,M,M,M,M,87.86,KBAM 302135Z AUTO 34010G18KT 10SM BKN090 BKN110 33/08 A3009 RMK AO1,M
MEV,2021-07-30 21:35,-119.7500,38.9963,1441.42,91.40,42.80,18.56,290.00,7.00,0.00,30.11,M,10.00,13.00,CLR,M,M,M,M,M,M,M,M,M,M,M,M,M,M,87.52,KMEV 302135Z AUTO 29007G13KT 10SM CLR 33/06 A3011 RMK AO2,M
05U,2021-07-30 21:35,-116.0051,39.6042,1811.23,89.60,44.60,21.04,260.00,5.00,0.00,30.20,M,10.00,11.00,BKN,M,M,M,8500.00,M,M,M,M,M,M,M,M,M,M,86.07,K05U 302135Z AUTO 26005G11KT 10SM BKN085 32/07 A3020 RMK A01,M
TMT,2021-07-30 21:35,-117.1971,39.4643,1749.34,83.30,47.00,28.28,230.00,14.00,0.00,30.21,M,10.00,19.00,SCT,M,M,M,11000.00,M,M,M,M,M,M,M,M,M,M,81.30,KTMT 302135Z AUTO 23014G19KT 10SM SCT110 29/08 A3021 RMK AO2 LTG DSNT E THRU SW T02850084,M
RTS,2021-07-30 21:35,-119.8764,39.6682,1539.00,87.80,39.20,18.09,320.00,9.00,0.00,30.16,M,10.00,18.00,BKN,M,M,M,10000.00,M,M,M,M,M,M,M,M,M,M,84.22,KRTS 302135Z AUTO 32009G18KT 290V350 10SM BKN100 31/04 A3016 RMK AO2,M
ELY,2021-07-30 21:36,-114.8453,39.2950,1909.00,74.00,51.00,44.76,140.00,13.00,T,30.24,M,10.00,M,FEW,BKN,M,M,4900.00,11000.00,M,M,VCTS -RA,M,M,M,26.00,140.00,2021-07-30 21:02,73.90,KELY 302136Z AUTO 14013KT 10SM VCTS -RA FEW049 BKN110 23/11 A3024 RMK AO2 PK WND 14026/2102 WSHFT 2040 LTG DSNT NE AND E RAB33 P0000 T02330106,M
CXP,2021-07-30 21:50,-119.7326,39.1923,1431.00,89.60,41.00,18.33,260.00,6.00,0.00,30.12,M,10.00,M,BKN,M,M,M,10000.00,M,M,M,M,M,M,M,M,M,M,85.82,KCXP 302150Z AUTO 26006KT 10SM BKN100 32/05 A3012 RMK AO2,M
VGT,2021-07-30 21:53,-115.1933,36.2111,667.00,96.00,60.00,30.43,90.00,5.00,0.00,29.97,1013.40,10.00,M,CLR,M,M,M,M,M,M,M,M,M,M,M,M,M,M,96.21,KVGT 302153Z 09005KT 10SM CLR 36/16 A2997 RMK AO2 LTG DSNT SW SLP134 T03560156 PNO,M
DRA,2021-07-30 21:53,-116.0278,36.6206,1009.00,88.00,58.00,36.21,320.00,5.00,0.08,30.05,1012.40,10.00,M,BKN,M,M,M,10000.00,M,M,M,M,M,M,M,M,M,M,86.96,KDRA 302153Z AUTO 32005KT 10SM BKN100 31/14 A3005 RMK AO2 RAE17 SLP124 P0008 T03110144,M
P68,2021-07-30 21:53,-116.0056,39.6014,1993.00,87.00,46.00,24.02,310.00,7.00,0.00,30.17,1012.20,M,M,M,M,M,M,M,M,M,M,M,M,M,M,M,M,M,84.07,KP68 302153Z AUTO 31007KT 31/08 A3017 RMK AO1 SLP122 T03060078,M
LOL,2021-07-30 21:53,-118.5701,40.0684,1192.43,94.00,45.00,18.68,0.00,0.00,0.00,30.04,1012.20,10.00,M,CLR,M,M,M,M,M,M,M,M,M,M,M,M,M,M,90.05,KLOL 302153Z AUTO 00000KT 10SM CLR 34/07 A3004 RMK AO2 SLP122 T03440072,M
ELY,2021-07-30 21:53,-114.8453,39.2950,1909.00,75.00,52.00,44.59,140.00,10.00,T,30.25,1015.10,10.00,M,BKN,OVC,M,M,10000.00,11000.00,M,M,VCTS -RA,M,M,M,26.00,140.00,2021-07-30 21:02,75.00,KELY 302153Z AUTO 14010KT 10SM VCTS -RA BKN100 OVC110 24/11 A3025 RMK AO2 PK WND 14026/2102 WSHFT 2040 LTG DSNT N AND W RAB33 SLP151 P0000 T02390111,M
RTS,2021-07-30 21:55,-119.8764,39.6682,1539.00,86.00,39.20,19.15,250.00,7.00,0.00,30.16,M,10.00,M,BKN,M,M,M,10000.00,M,M,M,M,M,M,M,M,M,M,82.79,KRTS 302155Z AUTO 25007KT 10SM BKN100 30/04 A3016 RMK AO2,M
RNO,2021-07-30 21:55,-119.7711,39.4839,1341.00,90.00,44.00,20.39,280.00,15.00,0.00,30.08,1012.10,10.00,M,BKN,BKN,M,M,8000.00,15000.00,M,M,M,M,M,M,M,M,M,86.38,KRNO 302155Z 28015KT 10SM BKN080 BKN150 32/07 A3008 RMK AO2 SLP121 HZ ALQDS T03220067,M
BVU,2021-07-30 21:55,-114.8611,35.9475,671.00,93.20,55.40,28.10,230.00,10.00,0.00,29.99,M,10.00,M,FEW,M,M,M,12000.00,M,M,M,M,M,M,M,M,M,M,91.35,KBVU 302155Z AUTO 23010KT 10SM FEW120 34/13 A2999 RMK AO2 LTG DSNT ALQDS,M
05U,2021-07-30 21:55,-116.0051,39.6042,1811.23,87.80,46.40,23.85,310.00,9.00,0.00,30.20,M,10.00,16.00,SCT,M,M,M,8500.00,M,M,M,M,M,M,M,M,M,M,84.68,K05U 302155Z AUTO 31009G16KT 10SM SCT085 31/08 A3020 RMK A01,M
MEV,2021-07-30 21:55,-119.7500,38.9963,1441.42,91.40,44.60,19.89,300.00,9.00,0.00,30.10,M,10.00,M,CLR,M,M,M,M,M,M,M,M,M,M,M,M,M,M,87.68,KMEV 302155Z AUTO 30009KT 260V320 10SM CLR 33/07 A3010 RMK AO2,M
TMT,2021-07-30 21:55,-117.1971,39.4643,1749.34,82.40,47.50,29.56,240.00,13.00,0.00,30.21,M,10.00,M,SCT,M,M,M,11000.00,M,M,M,M,M,M,M,M,M,M,80.74,KTMT 302155Z AUTO 24013KT 10SM SCT110 28/09 A3021 RMK AO2 LTG DSNT E T02800086,M
BAM,2021-07-30 21:55,-116.8743,40.5990,1382.36,91.40,44.60,19.89,0.00,0.00,0.00,30.08,M,10.00,M,SCT,M,M,M,9000.00,M,M,M,M,M,M,M,M,M,M,87.68,KBAM 302155Z AUTO 00000KT 10SM SCT090 33/07 A3008 RMK AO1,M
HTH,2021-07-30 21:55,-118.6315,38.5448,1282.89,89.60,42.80,19.64,180.00,4.00,0.00,30.07,M,10.00,11.00,CLR,M,M,M,M,M,M,M,M,M,M,M,M,M,M,85.93,KHTH 302155Z AUTO 18004G11KT 10SM CLR 32/06 A3007 RMK A01,M
NFL,2021-07-30 21:56,-118.7010,39.4166,1199.00,91.00,46.00,21.24,270.00,8.00,0.00,30.04,1014.20,10.00,M,SCT,BKN,BKN,M,8000.00,12000.00,17000.00,M,M,M,M,M,M,M,M,87.45,KNFL 302156Z 27008KT 10SM SCT080 BKN120 BKN170 33/08 A3004 RMK AO2 SLP142 CB DSNT E-S T03280078,M
EKO,2021-07-30 21:56,-115.7860,40.8242,1367.00,87.00,49.00,26.79,M,3.00,0.00,30.11,1012.70,10.00,M,FEW,FEW,SCT,M,5000.00,7000.00,8500.00,M,M,M,M,M,M,M,M,84.37,KEKO 302156Z AUTO VRB03KT 10SM FEW050 FEW070 SCT085 31/09 A3011 RMK AO2 SLP127 T03060094,M
TPH,2021-07-30 21:56,-117.0904,38.0505,1654.00,84.00,48.00,28.60,150.00,6.00,0.00,30.20,1014.10,10.00,M,CLR,M,M,M,M,M,M,M,M,M,M,M,M,M,M,81.87,KTPH 302156Z AUTO 15006KT 10SM CLR 29/09 A3020 RMK AO2 SLP141 T02890089,M
LAS,2021-07-30 21:56,-115.1634,36.0719,663.00,94.00,57.00,29.14,0.00,0.00,0.00,29.98,1012.30,10.00,M,FEW,FEW,BKN,BKN,8000.00,11000.00,15000.00,25000.00,M,M,M,M,M,M,M,92.58,KLAS 302156Z 00000KT 10SM FEW080 FEW110 BKN150 BKN250 34/14 A2998 RMK AO2 LTG DSNT W SLP123 CB DSNT N AND S AND W T03440139,M
WMC,2021-07-30 21:56,-117.8072,40.9019,1315.00,94.00,45.00,18.68,360.00,8.00,0.00,30.07,1012.30,10.00,M,FEW,M,M,M,12000.00,M,M,M,M,M,M,M,M,M,M,90.05,KWMC 302156Z AUTO 36008KT 10SM FEW120 34/07 A3007 RMK AO2 SLP123 T03440072,M
HND,2021-07-30 21:56,-115.1344,35.9729,742.79,93.00,59.00,32.19,200.00,5.00,0.00,30.02,1015.10,10.00,M,CLR,M,M,M,M,M,M,M,M,M,M,M,M,M,M,92.35,KHND 302156Z 20005KT 10SM CLR 34/15 A3002 RMK AO2 LTG DSNT SE AND W SLP151 T03390150,M
INS,2021-07-30 21:58,-115.6733,36.5872,955.00,92.30,52.30,25.80,0.00,0.00,0.00,30.03,1011.80,10.00,M,FEW,M,M,M,19000.00,M,M,M,M,M,M,M,M,M,M,89.67,KINS 302158Z AUTO 00000KT 10SM FEW190 34/11 A3003 RMK AO2 SLP118 T03350113 $,M
LSV,2021-07-30 21:58,-115.0343,36.2362,570.00,95.40,59.00,29.89,50.00,5.00,0.00,29.95,1011.60,10.00,M,FEW,SCT,SCT,M,15000.00,18000.00,20000.00,M,M,M,M,M,M,M,M,94.95,KLSV 302158Z AUTO 05005KT 10SM FEW150 SCT180 SCT200 35/15 A2995 RMK AO2 SLP116 T03520150 $,M
RNO,2021-07-30 22:01,-119.7711,39.4839,1341.00,90.00,44.00,20.39,280.00,14.00,0.00,30.08,M,10.00,22.00,BKN,BKN,M,M,8000.00,15000.00,M,M,M,M,M,M,M,M,M,86.38,KRNO 302201Z 28014G22KT 10SM BKN080 BKN150 32/07 A3008 RMK AO2 WSHFT 2145 HZ ALQDS T03220067,M
CXP,2021-07-30 22:10,-119.7326,39.1923,1431.00,91.40,41.00,17.32,280.00,6.00,0.00,30.11,M,9.00,M,FEW,M,M,M,11000.00,M,M,M,M,M,M,M,M,M,M,87.40,KCXP 302210Z AUTO 28006KT 9SM FEW110 33/05 A3011 RMK AO2 LTG DSNT SE,M
RTS,2021-07-30 22:15,-119.8764,39.6682,1539.00,86.00,39.20,19.15,270.00,11.00,0.00,30.16,M,10.00,M,BKN,M,M,M,10000.00,M,M,M,M,M,M,M,M,M,M,82.79,KRTS 302215Z AUTO 27011KT 10SM BKN100 30/04 A3016 RMK AO2,M
05U,2021-07-30 22:15,-116.0051,39.6042,1811.23,84.20,46.40,26.76,300.00,9.00,0.00,30.20,M,10.00,15.00,SCT,M,M,M,8500.00,M,M,M,M,M,M,M,M,M,M,81.87,K05U 302215Z AUTO 30009G15KT 10SM SCT085 29/08 A3020 RMK A01,M
BVU,2021-07-30 22:15,-114.8611,35.9475,671.00,93.20,53.60,26.31,220.00,9.00,0.00,29.99,M,10.00,M,SCT,M,M,M,11000.00,M,M,M,VCTS,M,M,M,M,M,M,90.86,KBVU 302215Z AUTO 22009KT 10SM VCTS SCT110 34/12 A2999 RMK AO2 LTG DSNT ALQDS,M
MEV,2021-07-30 22:15,-119.7500,38.9963,1441.42,91.40,42.80,18.56,320.00,6.00,0.00,30.10,M,10.00,14.00,SCT,M,M,M,11000.00,M,M,M,M,M,M,M,M,M,M,87.52,KMEV 302215Z AUTO 32006G14KT 10SM SCT110 33/06 A3010 RMK AO2 LTG DSNT SE AND S,M
HTH,2021-07-30 22:15,-118.6315,38.5448,1282.89,89.60,42.80,19.64,M,5.00,0.00,30.07,M,10.00,M,CLR,M,M,M,M,M,M,M,M,M,M,M,M,M,M,85.93,KHTH 302215Z AUTO VRB05KT 10SM CLR 32/06 A3007 RMK A01,M
BAM,2021-07-30 22:15,-116.8743,40.5990,1382.36,91.40,46.40,21.29,320.00,8.00,0.00,30.08,M,10.00,M,CLR,M,M,M,M,M,M,M,M,M,M,M,M,M,M,87.86,KBAM 302215Z AUTO 32008KT 10SM CLR 33/08 A3008 RMK AO1,M
TMT,2021-07-30 22:15,-117.1971,39.4643,1749.34,83.30,50.20,31.76,220.00,23.00,0.00,30.22,M,10.00,M,CLR,M,M,M,M,M,M,M,M,M,M,M,M,M,M,81.62,KTMT 302215Z AUTO 22023KT 10SM CLR 29/10 A3022 RMK AO2 LTG DSNT E THRU SW T02850101,M
ELY,2021-07-30 22:23,-114.8453,39.2950,1909.00,69.00,59.00,70.21,300.00,10.00,0.01,30.26,M,10.00,22.00,OVC,M,M,M,9000.00,M,M,M,-RA,M,M,M,M,M,M,69.10,KELY 302223Z AUTO 30010G22KT 10SM -RA OVC090 21/15 A3026 RMK AO2 LTG DSNT N AND NE P0001 T02060150,M
CXP,2021-07-30 22:30,-119.7326,39.1923,1431.00,89.60,41.00,18.33,300.00,11.00,0.00,30.11,M,10.00,M,SCT,M,M,M,12000.00,M,M,M,M,M,M,M,M,M,M,85.82,KCXP 302230Z AUTO 30011KT 10SM SCT120 32/05 A3011 RMK AO2,M
BAM,2021-07-30 22:35,-116.8743,40.5990,1382.36,91.40,46.40,21.29,320.00,6.00,0.00,30.07,M,10.00,M,CLR,M,M,M,M,M,M,M,M,M,M,M,M,M,M,87.86,KBAM 302235Z AUTO 32006KT 300V360 10SM CLR 33/08 A3007 RMK AO1,M
RTS,2021-07-30 22:35,-119.8764,39.6682,1539.00,86.00,41.00,20.54,270.00,14.00,0.00,30.16,M,10.00,M,BKN,M,M,M,10000.00,M,M,M,M,M,M,M,M,M,M,82.86,KRTS 302235Z AUTO 27014KT 10SM BKN100 30/05 A3016 RMK AO2,M
BVU,2021-07-30 22:35,-114.8611,35.9475,671.00,93.20,55.40,28.10,230.00,11.00,0.00,29.99,M,10.00,M,SCT,M,M,M,11000.00,M,M,M,M,M,M,M,M,M,M,91.35,KBVU 302235Z AUTO 23011KT 10SM SCT110 34/13 A2999 RMK AO2,M
05U,2021-07-30 22:35,-116.0051,39.6042,1811.23,80.60,50.00,34.41,280.00,9.00,0.00,30.21,M,10.00,16.00,FEW,OVC,M,M,4200.00,8000.00,M,M,M,M,M,M,M,M,M,79.88,K05U 302235Z AUTO 28009G16KT 10SM FEW042 OVC080 27/10 A3021 RMK A01,M
MEV,2021-07-30 22:35,-119.7500,38.9963,1441.42,93.20,42.80,17.55,290.00,6.00,0.00,30.10,M,10.00,15.00,SCT,M,M,M,11000.00,M,M,M,M,M,M,M,M,M,M,89.17,KMEV 302235Z AUTO 29006G15KT 10SM SCT110 34/06 A3010 RMK AO2,M
HTH,2021-07-30 22:35,-118.6315,38.5448,1282.89,89.60,42.80,19.64,M,5.00,0.00,30.06,M,10.00,11.00,CLR,M,M,M,M,M,M,M,M,M,M,M,M,M,M,85.93,KHTH 302235Z AUTO VRB05G11KT 10SM CLR 32/06 A3006 RMK A01,M
TMT,2021-07-30 22:35,-117.1971,39.4643,1749.34,82.00,49.80,32.64,210.00,20.00,0.00,30.21,M,10.00,24.00,CLR,M,M,M,M,M,M,M,M,M,M,M,M,M,M,80.71,KTMT 302235Z AUTO 21020G24KT 10SM CLR 28/10 A3021 RMK AO2 LTG DSNT E T02780099,M
ELY,2021-07-30 22:40,-114.8453,39.2950,1909.00,68.00,57.20,68.35,310.00,10.00,0.00,30.25,M,10.00,M,FEW,FEW,BKN,M,5000.00,8000.00,9000.00,M,TS,M,M,M,M,M,M,68.00,KELY 302240Z AUTO 31010KT 10SM TS FEW050 FEW080 BKN090 20/14 A3025,M
CXP,2021-07-30 22:50,-119.7326,39.1923,1431.00,89.60,41.00,18.33,260.00,7.00,0.00,30.10,M,10.00,13.00,SCT,M,M,M,11000.00,M,M,M,M,M,M,M,M,M,M,85.82,KCXP 302250Z AUTO 26007G13KT 10SM SCT110 32/05 A3010 RMK AO2,M
P68,2021-07-30 22:53,-116.0056,39.6014,1993.00,70.00,58.00,65.45,M,5.00,0.01,30.21,1014.90,M,15.00,M,M,M,M,M,M,M,M,M,M,M,M,M,M,M,70.00,KP68 302253Z AUTO VRB05G15KT 21/14 A3021 RMK AO1 SLP149 P0001 T02110144,M
VGT,2021-07-30 22:53,-115.1933,36.2111,667.00,96.00,60.00,30.43,160.00,8.00,0.00,29.96,1013.20,10.00,M,CLR,M,M,M,M,M,M,M,M,M,M,M,M,M,M,96.21,KVGT 302253Z 16008KT 140V200 10SM CLR 36/16 A2996 RMK AO2 LTG DSNT N AND SW SLP132 T03560156 PNO,M
DRA,2021-07-30 22:53,-116.0278,36.6206,1009.00,89.00,54.00,30.36,40.00,4.00,0.00,30.03,1011.90,10.00,M,CLR,M,M,M,M,M,M,M,M,M,M,M,M,M,M,86.98,KDRA 302253Z AUTO 04004KT 10SM CLR 32/12 A3003 RMK AO2 SLP119 T03170122,M
LOL,2021-07-30 22:53,-118.5701,40.0684,1192.43,95.00,45.00,18.06,240.00,5.00,0.00,30.01,1011.30,10.00,M,CLR,M,M,M,M,M,M,M,M,M,M,M,M,M,M,91.10,KLOL 302253Z AUTO 24005KT 10SM CLR 35/07 A3001 RMK AO2 SLP113 T03500072,M
ELY,2021-07-30 22:53,-114.8453,39.2950,1909.00,68.00,58.00,70.10,290.00,8.00,0.01,30.26,1016.30,10.00,M,FEW,SCT,BKN,M,4700.00,7000.00,8500.00,M,M,M,M,M,M,M,M,68.00,KELY 302253Z AUTO 29008KT 10SM FEW047 SCT070 BKN085 20/14 A3026 RMK AO2 LTG DSNT N-SE RAE36 TSB34E53 SLP163 P0001 T02000144,M
MEV,2021-07-30 22:55,-119.7500,38.9963,1441.42,87.80,44.60,22.27,300.00,9.00,0.00,30.09,M,10.00,M,CLR,M,M,M,M,M,M,M,M,M,M,M,M,M,M,84.53,KMEV 302255Z AUTO 30009KT 10SM CLR 31/07 A3009 RMK AO2,M
HTH,2021-07-30 22:55,-118.6315,38.5448,1282.89,89.60,44.60,21.04,190.00,15.00,0.00,30.06,M,10.00,M,CLR,M,M,M,M,M,M,M,M,M,M,M,M,M,M,86.07,KHTH 302255Z AUTO 19015KT 10SM CLR 32/07 A3006 RMK A01,M
RTS,2021-07-30 22:55,-119.8764,39.6682,1539.00,86.00,42.80,22.02,280.00,14.00,0.00,30.16,M,10.00,M,FEW,M,M,M,10000.00,M,M,M,M,M,M,M,M,M,M,82.95,KRTS 302255Z AUTO 28014KT 10SM FEW100 30/06 A3016 RMK AO2,M
RNO,2021-07-30 22:55,-119.7711,39.4839,1341.00,90.00,46.00,21.91,270.00,16.00,0.00,30.07,1012.00,10.00,25.00,FEW,BKN,BKN,M,8000.00,10000.00,15000.00,M,M,M,M,M,M,M,M,86.55,KRNO 302255Z 27016G25KT 10SM FEW080 BKN100 BKN150 32/08 A3007 RMK AO2 WSHFT 2145 SLP120 HZ ALQDS T03220078,M
BAM,2021-07-30 22:55,-116.8743,40.5990,1382.36,91.40,44.60,19.89,340.00,5.00,0.00,30.07,M,10.00,M,CLR,M,M,M,M,M,M,M,M,M,M,M,M,M,M,87.68,KBAM 302255Z AUTO 34005KT 10SM CLR 33/07 A3007 RMK AO1,M
BVU,2021-07-30 22:55,-114.8611,35.9475,671.00,87.80,60.80,40.41,250.00,18.00,0.00,29.99,M,10.00,24.00,CLR,M,M,M,M,M,M,M,M,M,M,M,M,M,M,87.75,KBVU 302255Z AUTO 25018G24KT 10SM CLR 31/16 A2999 RMK AO2 LTG DSNT NE AND E,M
05U,2021-07-30 22:55,-116.0051,39.6042,1811.23,69.80,57.20,64.26,70.00,13.00,0.01,30.23,M,6.00,M,FEW,SCT,OVC,M,4000.00,4800.00,7500.00,M,HZ,M,M,M,M,M,M,69.80,K05U 302255Z AUTO 07013KT 360V090 6SM HZ FEW040 SCT048 OVC075 21/14 A3023 RMK A01 P0001,M
TMT,2021-07-30 22:55,-117.1971,39.4643,1749.34,81.00,50.00,33.86,210.00,17.00,0.00,30.21,M,10.00,21.00,SCT,SCT,M,M,9000.00,11000.00,M,M,M,M,M,M,M,M,M,80.17,KTMT 302255Z AUTO 21017G21KT 10SM SCT090 SCT110 27/10 A3021 RMK AO2 LTG DSNT SW T02730100,M
NFL,2021-07-30 22:56,-118.7010,39.4166,1199.00,95.00,44.00,17.45,20.00,3.00,0.00,30.02,1013.50,10.00,M,SCT,BKN,BKN,M,8000.00,12000.00,18000.00,M,M,M,M,M,M,M,M,91.00,KNFL 302256Z 02003KT 10SM SCT080 BKN120 BKN180 35/07 A3002 RMK AO2 SLP135 CB DSNT E-S T03500067,M
HND,2021-07-30 22:56,-115.1344,35.9729,742.79,87.00,63.00,44.66,210.00,17.00,0.00,30.04,1016.00,10.00,23.00,SCT,M,M,M,8000.00,M,M,M,M,M,M,M,M,M,M,87.96,KHND 302256Z 21017G23KT 10SM SCT080 31/17 A3004 RMK AO2 LTG DSNT W SLP160 T03060172,M
WMC,2021-07-30 22:56,-117.8072,40.9019,1315.00,96.00,44.00,16.87,M,3.00,0.00,30.04,1011.50,10.00,M,FEW,M,M,M,12000.00,M,M,M,M,M,M,M,M,M,M,92.05,KWMC 302256Z AUTO VRB03KT 10SM FEW120 36/07 A3004 RMK AO2 SLP115 T03560067,M
LAS,2021-07-30 22:56,-115.1634,36.0719,663.00,91.00,60.00,35.64,170.00,9.00,0.00,29.98,1012.50,10.00,19.00,SCT,BKN,BKN,BKN,8000.00,11000.00,15000.00,25000.00,M,M,M,M,M,M,M,90.69,KLAS 302256Z 17009G19KT 10SM SCT080 BKN110 BKN150 BKN250 33/16 A2998 RMK AO2 LTG DSNT N AND SW SLP125 CB DSNT N AND SW T03280156,M
TPH,2021-07-30 22:56,-117.0904,38.0505,1654.00,84.00,49.00,29.58,180.00,9.00,0.00,30.17,1013.30,10.00,M,CLR,M,M,M,M,M,M,M,M,M,M,M,M,M,M,81.97,KTPH 302256Z AUTO 18009KT 10SM CLR 29/09 A3017 RMK AO2 SLP133 T02890094,M
EKO,2021-07-30 22:56,-115.7860,40.8242,1367.00,88.00,48.00,25.17,240.00,4.00,0.00,30.09,1012.00,10.00,M,BKN,M,M,M,11000.00,M,M,M,M,M,M,M,M,M,M,85.02,KEKO 302256Z AUTO 24004KT 10SM BKN110 31/09 A3009 RMK AO2 LTG DSNT SE AND S SLP120 T03110089,M
LSV,2021-07-30 22:58,-115.0343,36.2362,570.00,95.50,58.00,28.85,200.00,9.00,0.00,29.94,1011.30,10.00,M,FEW,FEW,M,M,13000.00,20000.00,M,M,M,M,M,M,M,M,M,94.70,KLSV 302258Z AUTO 20009KT 10SM FEW130 FEW200 35/15 A2994 RMK AO2 LTG DSNT NE SLP113 T03530145 $,M
INS,2021-07-30 22:58,-115.6733,36.5872,955.00,92.00,52.20,25.87,180.00,3.00,0.00,30.01,1011.10,10.00,M,FEW,FEW,M,M,8500.00,11000.00,M,M,M,M,M,M,M,M,M,89.45,KINS 302258Z AUTO 18003KT 10SM FEW085 FEW110 33/11 A3001 RMK AO2 SLP111 T03340112 $,M
EKO,2021-07-30 23:06,-115.7860,40.8242,1367.00,88.00,49.00,26.03,220.00,7.00,0.00,30.09,M,10.00,M,BKN,M,M,M,11000.00,M,M,M,TS,M,M,M,M,M,M,85.13,KEKO 302306Z AUTO 22007KT 10SM TS BKN110 31/09 A3009 RMK AO2 LTG DSNT S TSB00 T03110094,M
CXP,2021-07-30 23:10,-119.7326,39.1923,1431.00,93.20,41.00,16.37,270.00,9.00,0.00,30.09,M,10.00,14.00,SCT,M,M,M,11000.00,M,M,M,M,M,M,M,M,M,M,89.03,KCXP 302310Z AUTO 27009G14KT 10SM SCT110 34/05 A3009 RMK AO2,M
HND,2021-07-30 23:10,-115.1344,35.9729,742.79,86.00,62.60,45.61,230.00,18.00,0.00,30.04,M,10.00,23.00,SCT,M,M,M,8000.00,M,M,M,M,M,M,M,M,M,M,86.72,KHND 302310Z 23018G23KT 10SM SCT080 30/17 A3004 RMK AO2 WSHFT 2250 LTG DSNT NE AND SW AND W,M
BVU,2021-07-30 23:15,-114.8611,35.9475,671.00,87.80,59.00,37.90,250.00,15.00,0.00,29.99,M,10.00,M,CLR,M,M,M,M,M,M,M,M,M,M,M,M,M,M,87.12,KBVU 302315Z AUTO 25015KT 10SM CLR 31/15 A2999 RMK AO2 LTG DSNT SE-W,M
TMT,2021-07-30 23:15,-117.1971,39.4643,1749.34,79.20,49.00,34.58,210.00,13.00,0.00,30.21,M,10.00,M,SCT,SCT,M,M,9000.00,11000.00,M,M,M,M,M,M,M,M,M,79.20,KTMT 302315Z AUTO 21013KT 10SM SCT090 SCT110 26/09 A3021 RMK AO2 LTG DSNT NE THRU S T02620094,M
05U,2021-07-30 23:15,-116.0051,39.6042,1811.23,68.00,57.20,68.35,130.00,8.00,0.00,30.26,M,2.00,M,FEW,SCT,BKN,M,300.00,3400.00,6500.00,M,HZ,M,M,M,M,M,M,68.00,K05U 302315Z AUTO 13008KT 2SM HZ FEW003 SCT034 BKN065 20/14 A3026 RMK A01 VIS 1V4,M
RTS,2021-07-30 23:15,-119.8764,39.6682,1539.00,86.00,41.00,20.54,270.00,16.00,0.00,30.15,M,10.00,22.00,CLR,M,M,M,M,M,M,M,M,M,M,M,M,M,M,82.86,KRTS 302315Z AUTO 27016G22KT 10SM CLR 30/05 A3015 RMK AO2,M
MEV,2021-07-30 23:15,-119.7500,38.9963,1441.42,89.60,46.40,22.53,290.00,7.00,0.00,30.08,M,10.00,M,SCT,M,M,M,12000.00,M,M,M,M,M,M,M,M,M,M,86.24,KMEV 302315Z AUTO 29007KT 10SM SCT120 32/08 A3008 RMK AO2 LTG DSNT E AND S,M
BAM,2021-07-30 23:15,-116.8743,40.5990,1382.36,91.40,46.40,21.29,310.00,4.00,0.00,30.06,M,10.00,M,CLR,M,M,M,M,M,M,M,M,M,M,M,M,M,M,87.86,KBAM 302315Z AUTO 31004KT 10SM CLR 33/08 A3006 RMK AO1,M
HTH,2021-07-30 23:15,-118.6315,38.5448,1282.89,87.80,44.60,22.27,230.00,12.00,0.00,30.06,M,7.00,18.00,CLR,M,M,M,M,M,M,M,M,M,M,M,M,M,M,84.53,KHTH 302315Z AUTO 23012G18KT 7SM CLR 31/07 A3006 RMK A01,M
VGT,2021-07-30 23:22,-115.1933,36.2111,667.00,94.00,58.00,30.10,250.00,15.00,0.00,29.95,M,10.00,M,SCT,M,M,M,8000.00,M,M,M,M,M,M,M,M,M,M,92.90,KVGT 302322Z 25015KT 10SM SCT080 34/14 A2995 RMK AO2 WSHFT 2302 LTG DSNT NE AND E T03440144 PNO,M
EKO,2021-07-30 23:28,-115.7860,40.8242,1367.00,74.00,58.00,57.36,130.00,12.00,T,30.10,M,8.00,M,FEW,SCT,BKN,M,7500.00,9000.00,11000.00,M,VCTS -RA,M,M,M,30.00,150.00,2021-07-30 23:13,73.90,KEKO 302328Z AUTO 13012KT 8SM VCTS -RA FEW075 SCT090 BKN110 23/14 A3010 RMK AO2 PK WND 15030/2313 WSHFT 2308 LTG DSNT SE RAB17 TSB00E28 P0000 T02330144,M
CXP,2021-07-30 23:30,-119.7326,39.1923,1431.00,89.60,42.80,19.64,290.00,10.00,0.00,30.09,M,10.00,19.00,FEW,M,M,M,11000.00,M,M,M,M,M,M,M,M,M,M,85.93,KCXP 302330Z AUTO 29010G19KT 10SM FEW110 32/06 A3009 RMK AO2,M
BVU,2021-07-30 23:35,-114.8611,35.9475,671.00,87.80,59.00,37.90,240.00,17.00,0.00,29.98,M,10.00,M,CLR,M,M,M,M,M,M,M,M,M,M,M,M,M,M,87.12,KBVU 302335Z AUTO 24017KT 10SM CLR 31/15 A2998 RMK AO2 LTG DSNT NE-S,M
BAM,2021-07-30 23:35,-116.8743,40.5990,1382.36,91.40,44.60,19.89,290.00,5.00,0.00,30.05,M,10.00,M,CLR,M,M,M,M,M,M,M,M,M,M,M,M,M,M,87.68,KBAM 302335Z AUTO 29005KT 10SM CLR 33/07 A3005 RMK AO1,M
MEV,2021-07-30 23:35,-119.7500,38.9963,1441.42,87.80,46.40,23.85,300.00,12.00,0.00,30.09,M,10.00,M,BKN,M,M,M,12000.00,M,M,M,M,M,M,M,M,M,M,84.68,KMEV 302335Z AUTO 30012KT 10SM BKN120 31/08 A3009 RMK AO2,M
RTS,2021-07-30 23:35,-119.8764,39.6682,1539.00,86.00,41.00,20.54,280.00,15.00,0.00,30.15,M,9.00,21.00,CLR,M,M,M,M,M,M,M,M,M,M,M,M,M,M,82.86,KRTS 302335Z AUTO 28015G21KT 9SM CLR 30/05 A3015 RMK AO2,M
HTH,2021-07-30 23:35,-118.6315,38.5448,1282.89,87.80,46.40,23.85,260.00,19.00,0.00,30.06,M,10.00,M,CLR,M,M,M,M,M,M,M,M,M,M,M,M,M,M,84.68,KHTH 302335Z AUTO 26019KT 10SM CLR 31/08 A3006 RMK A01,M
05U,2021-07-30 23:35,-116.0051,39.6042,1811.23,62.60,59.00,88.00,120.00,15.00,0.00,30.25,M,3.00,M,FEW,SCT,BKN,M,400.00,3200.00,4100.00,M,HZ,M,M,M,M,M,M,62.60,K05U 302335Z AUTO 12015KT 3SM HZ FEW004 SCT032 BKN041 17/15 A3025 RMK A01,M
TMT,2021-07-30 23:35,-117.1971,39.4643,1749.34,80.00,49.00,33.83,210.00,10.00,0.00,30.20,M,10.00,M,BKN,M,M,M,9000.00,M,M,M,M,M,M,M,M,M,M,79.52,KTMT 302335Z AUTO 21010KT 10SM BKN090 27/10 A3020 RMK AO2 T02670095,M
INS,2021-07-30 23:48,-115.6733,36.5872,955.00,89.60,53.60,29.45,220.00,11.00,0.00,30.01,1011.30,9.00,M,BKN,M,M,M,9500.00,M,M,M,M,M,M,M,M,M,M,87.36,KINS 302348Z AUTO 22011KT 9SM BKN095 32/12 A3001 RMK AO2 SLP113 $,M
CXP,2021-07-30 23:50,-119.7326,39.1923,1431.00,89.60,42.80,19.64,300.00,5.00,0.00,30.10,M,10.00,16.00,CLR,M,M,M,M,M,M,M,M,M,M,M,M,M,M,85.93,KCXP 302350Z AUTO 30005G16KT 10SM CLR 32/06 A3010 RMK AO2,M
VGT,2021-07-30 23:53,-115.1933,36.2111,667.00,94.00,57.00,29.14,210.00,12.00,0.00,29.95,1012.80,10.00,M,CLR,M,M,M,M,M,M,M,M,M,M,M,M,M,M,92.58,KVGT 302353Z 21012KT 10SM CLR 34/14 A2995 RMK AO2 WSHFT 2302 LTG DSNT N SLP128 6//// T03440139 10361 20311 56012 PNO,M
P68,2021-07-30 23:53,-116.0056,39.6014,1993.00,64.00,60.00,87.14,130.00,14.00,0.16,30.22,1016.40,M,M,M,M,M,M,M,M,M,M,M,M,M,M,M,M,M,64.00,KP68 302353Z AUTO 13014KT 18/16 A3022 RMK AO1 SLP164 P0016 60017 T01780156 10311 20178 53011,M
DRA,2021-07-30 23:53,-116.0278,36.6206,1009.00,88.00,55.00,32.60,200.00,12.00,0.00,30.03,1011.70,10.00,22.00,CLR,M,M,M,M,M,M,M,M,M,M,M,M,M,M,86.20,KDRA 302353Z AUTO 20012G22KT 10SM CLR 31/13 A3003 RMK AO2 SLP117 60010 T03110128 10344 20272 56011,M
LOL,2021-07-30 23:53,-118.5701,40.0684,1192.43,94.00,44.00,18.05,M,3.00,0.00,29.99,1011.10,10.00,M,CLR,M,M,M,M,M,M,M,M,M,M,M,M,M,M,89.95,KLOL 302353Z AUTO VRB03KT 10SM CLR 34/07 A2999 RMK AO2 SLP111 T03440067 10361 20294 58018,M
ELY,2021-07-30 23:53,-114.8453,39.2950,1909.00,74.00,51.00,44.76,M,3.00,0.00,30.26,1015.50,10.00,M,SCT,BKN,M,M,8500.00,11000.00,M,M,M,M,M,M,M,M,M,73.90,KELY 302353Z AUTO VRB03KT 10SM SCT085 BKN110 23/11 A3026 RMK AO2 LTG DSNT N AND NE SLP155 60001 T02330106 10283 20200 51005,M
EKO,2021-07-30 23:54,-115.7860,40.8242,1367.00,78.80,55.40,44.52,0.00,0.00,M,30.10,M,10.00,M,BKN,M,M,M,11000.00,M,M,M,-RA TS,M,M,M,30.00,150.00,2021-07-30 23:13,78.80,SPECI KEKO 302354Z 00000KT 10SM -TSRA BKN110 26/13 A3010 RMK AO2 PK WND 15030/2313 WSHFT 2308 LTG DSNT NE AND NW RAB17 TSB00E28B53 P0002 FIBI,M
RNO,2021-07-30 23:55,-119.7711,39.4839,1341.00,89.00,46.00,22.54,270.00,16.00,0.00,30.07,1011.80,10.00,22.00,FEW,SCT,BKN,M,10000.00,15000.00,22000.00,M,M,M,M,M,M,M,M,85.76,KRNO 302355Z 27016G22KT 10SM FEW100 SCT150 BKN220 32/08 A3007 RMK AO2 SLP118 HZ ALQDS T03170078 10333 20267 56006,M
BAM,2021-07-30 23:55,-116.8743,40.5990,1382.36,91.40,44.60,19.89,290.00,3.00,0.00,30.05,M,10.00,M,CLR,M,M,M,M,M,M,M,M,M,M,M,M,M,M,87.68,KBAM 302355Z AUTO 29003KT 10SM CLR 33/07 A3005 RMK AO1,M
HTH,2021-07-30 23:55,-118.6315,38.5448,1282.89,84.20,46.40,26.76,230.00,20.00,0.00,30.06,M,10.00,M,FEW,M,M,M,11000.00,M,M,M,M,M,M,M,M,M,M,81.87,KHTH 302355Z AUTO 23020KT 10SM FEW110 29/08 A3006 RMK A01,M
MEV,2021-07-30 23:55,-119.7500,38.9963,1441.42,87.80,48.20,25.52,300.00,10.00,0.00,30.09,M,10.00,M,SCT,M,M,M,12000.00,M,M,M,M,M,M,M,M,M,M,84.87,KMEV 302355Z AUTO 30010KT 10SM SCT120 31/09 A3009 RMK AO2,M
RTS,2021-07-30 23:55,-119.8764,39.6682,1539.00,86.00,41.00,20.54,320.00,15.00,0.00,30.15,M,9.00,20.00,CLR,M,M,M,M,M,M,M,M,M,M,M,M,M,M,82.86,KRTS 302355Z AUTO 32015G20KT 9SM CLR 30/05 A3015 RMK AO2,M
TMT,2021-07-30 23:55,-117.1971,39.4643,1749.34,82.40,49.00,31.39,220.00,10.00,0.00,30.20,M,10.00,M,BKN,M,M,M,9000.00,M,M,M,M,M,M,M,M,M,M,80.89,KTMT 302355Z AUTO 22010KT 10SM BKN090 28/10 A3020 RMK AO2 T02800095 10309 20260,M
BVU,2021-07-30 23:55,-114.8611,35.9475,671.00,87.80,59.00,37.90,210.00,12.00,0.00,29.99,M,10.00,M,CLR,M,M,M,M,M,M,M,M,M,M,M,M,M,M,87.12,KBVU 302355Z AUTO 21012KT 10SM CLR 31/15 A2999 RMK AO2,M
05U,2021-07-30 23:55,-116.0051,39.6042,1811.23,64.40,60.80,88.09,120.00,14.00,0.11,30.25,M,5.00,M,FEW,BKN,BKN,M,3900.00,5500.00,7500.00,M,BR,M,M,M,M,M,M,64.40,K05U 302355Z AUTO 12014KT 5SM BR FEW039 BKN055 BKN075 18/16 A3025 RMK A01 P0011,M
WMC,2021-07-30 23:56,-117.8072,40.9019,1315.00,94.00,45.00,18.68,350.00,6.00,0.00,30.03,1011.30,10.00,M,CLR,M,M,M,M,M,M,M,M,M,M,M,M,M,M,90.05,KWMC 302356Z AUTO 35006KT 10SM CLR 34/07 A3003 RMK AO2 SLP113 T03440072 10361 20317 58016,M
EKO,2021-07-30 23:56,-115.7860,40.8242,1367.00,78.00,57.00,48.28,M,4.00,0.02,30.10,1013.30,10.00,M,BKN,M,M,M,11000.00,M,M,M,-TSRA,M,M,M,30.00,150.00,2021-07-30 23:13,78.10,KEKO 302356Z AUTO VRB04KT 10SM -TSRA BKN110 26/14 A3010 RMK AO2 PK WND 15030/2313 WSHFT 2308 LTG DSNT NE AND NW RAB17 TSB00E28B53 SLP133 P0002 60002 T02560139 10328 20222 55006,M
HND,2021-07-30 23:56,-115.1344,35.9729,742.79,86.00,61.00,43.10,200.00,11.00,T,30.01,1015.30,10.00,M,FEW,M,M,M,4100.00,M,M,M,M,M,M,M,M,M,M,86.12,KHND 302356Z 20011KT 10SM FEW041 30/16 A3001 RMK AO2 WSHFT 2250 RAB20E42 SLP153 P0000 60000 T03000161 10344 20300 58005,M
LAS,2021-07-30 23:56,-115.1634,36.0719,663.00,88.00,60.00,39.17,200.00,8.00,0.00,29.97,1012.10,10.00,17.00,FEW,SCT,BKN,BKN,8000.00,11000.00,15000.00,25000.00,M,M,M,M,27.00,220.00,2021-07-30 23:16,87.69,KLAS 302356Z 20008G17KT 10SM FEW080 SCT110 BKN150 BKN250 31/16 A2997 RMK AO2 PK WND 22027/2316 SLP121 CB DSNT N AND W T03110156 10356 20306 56009,M
TPH,2021-07-30 23:56,-117.0904,38.0505,1654.00,83.00,47.00,28.43,220.00,9.00,0.00,30.17,1013.50,10.00,M,CLR,M,M,M,M,M,M,M,M,M,M,M,M,M,M,81.01,KTPH 302356Z AUTO 22009KT 10SM CLR 28/08 A3017 RMK AO2 SLP135 T02830083 10289 20239 56012,M
NFL,2021-07-30 23:56,-118.7010,39.4166,1199.00,95.00,44.00,17.45,M,4.00,0.00,30.00,1013.00,10.00,M,SCT,BKN,BKN,M,8000.00,12000.00,18000.00,M,M,M,M,M,M,M,M,91.00,KNFL 302356Z VRB04KT 10SM SCT080 BKN120 BKN180 35/07 A3000 RMK AO2 SLP130 CB DSNT E-S-SW T03500067 10356 20322 58016,M
LSV,2021-07-30 23:58,-115.0343,36.2362,570.00,93.70,58.50,30.94,200.00,19.00,0.00,29.93,1011.00,10.00,M,CLR,M,M,M,M,M,M,M,M,M,M,M,26.00,200.00,2021-07-30 23:28,92.91,KLSV 302358Z AUTO 20019KT 10SM CLR 34/15 A2993 RMK AO2 PK WND 20026/28 SLP110 T03430147 10357 20321 57012 $,M
INS,2021-07-30 23:58,-115.6733,36.5872,955.00,89.80,53.20,28.84,260.00,11.00,0.00,30.00,1010.90,10.00,M,SCT,M,M,M,9500.00,M,M,M,M,M,M,M,M,M,M,87.46,KINS 302358Z AUTO 26011KT 10SM SCT095 32/12 A3000 RMK AO2 SLP109 T03210118 10341 20304 57013 $,M
