station,valid,lon,lat,elevation,tmpf,dwpf,relh,drct,sknt,p01i,alti,mslp,vsby,gust,skyc1,skyc2,skyc3,skyc4,skyl1,skyl2,skyl3,skyl4,wxcodes,ice_accretion_1hr,ice_accretion_3hr,ice_accretion_6hr,peak_wind_gust,peak_wind_drct,peak_wind_time,feel,metar,snowdepth
BVU,2023-06-04 00:15,-114.8611,35.9475,671.00,95.00,28.40,9.38,140.00,10.00,0.00,29.77,M,10.00,M,CLR,M,M,M,M,M,M,M,M,M,M,M,M,M,M,89.27,KBVU 040015Z AUTO 14010KT 10SM CLR 35/M02 A2977 RMK AO2,M
CXP,2023-06-04 00:15,-119.7326,39.1923,1431.00,78.80,30.20,16.90,10.00,4.00,0.00,30.02,M,10.00,M,CLR,M,M,M,M,M,M,M,M,M,M,M,M,M,M,78.80,KCXP 040015Z AUTO 01004KT 10SM CLR 26/M01 A3002 RMK AO2,M
RTS,2023-06-04 00:15,-119.8764,39.6682,1539.00,75.20,32.00,20.49,M,3.00,0.00,30.05,M,10.00,10.00,CLR,M,M,M,M,M,M,M,M,M,M,M,M,M,M,75.20,KRTS 040015Z AUTO VRB03G10KT 10SM CLR 24/M00 A3005 RMK AO2,M
MEV,2023-06-04 00:15,-119.7500,38.9963,1441.42,78.80,35.60,21.00,250.00,8.00,0.00,30.02,M,10.00,M,CLR,M,M,M,M,M,M,M,M,M,M,M,M,M,M,78.80,KMEV 040015Z AUTO 25008KT 10SM CLR 26/02 A3002 RMK AO2,M
BAM,2023-06-04 00:15,-116.8743,40.5990,1382.36,77.00,39.20,25.67,320.00,13.00,0.00,30.06,M,10.00,20.00,SCT,M,M,M,11000.00,M,M,M,M,M,M,M,M,M,M,77.00,KBAM 040015Z AUTO 32013G20KT 300V360 10SM SCT110 25/04 A3006 RMK AO1,M
HTH,2023-06-04 00:15,-118.6315,38.5448,1282.89,82.40,28.40,13.96,320.00,14.00,0.00,29.98,M,10.00,M,CLR,M,M,M,M,M,M,M,M,M,M,M,M,M,M,79.94,KHTH 040015Z AUTO 32014KT 10SM CLR 28/M02 A2998 RMK A01,M
TMT,2023-06-04 00:15,-117.1971,39.4643,1749.34,69.60,35.00,27.81,90.00,5.00,0.00,30.10,M,10.00,M,SCT,M,M,M,8500.00,M,M,M,M,M,M,M,M,M,M,69.60,KTMT 040015Z AUTO 09005KT 10SM SCT085 21/02 A3010 RMK AO2 T02090016,M
EKO,2023-06-04 00:31,-115.7860,40.8242,1367.00,62.00,49.00,61.91,330.00,12.00,0.00,30.09,M,10.00,16.00,BKN,OVC,M,M,7000.00,11000.00,M,M,TS,M,M,M,M,M,M,62.10,KEKO 040031Z AUTO 33012G16KT 10SM TS BKN070 OVC110 17/09 A3009 RMK AO2 LTG DSNT N TSB26 T01670094 $,M
BVU,2023-06-04 00:35,-114.8611,35.9475,671.00,95.00,28.40,9.38,290.00,4.00,0.00,29.77,M,10.00,10.00,CLR,M,M,M,M,M,M,M,M,M,M,M,M,M,M,89.27,KBVU 040035Z AUTO 29004G10KT 10SM CLR 35/M02 A2977 RMK AO2,M
CXP,2023-06-04 00:35,-119.7326,39.1923,1431.00,78.80,30.20,16.90,0.00,0.00,0.00,30.02,M,10.00,M,CLR,M,M,M,M,M,M,M,M,M,M,M,M,M,M,78.80,KCXP 040035Z AUTO 00000KT 10SM CLR 26/M01 A3002 RMK AO2,M
RTS,2023-06-04 00:35,-119.8764,39.6682,1539.00,75.20,30.20,19.05,0.00,0.00,0.00,30.05,M,10.00,M,CLR,M,M,M,M,M,M,M,M,M,M,M,M,M,M,75.20,KRTS 040035Z AUTO 00000KT 10SM CLR 24/M01 A3005 RMK AO2,M
MEV,2023-06-04 00:35,-119.7500,38.9963,1441.42,73.40,44.60,35.66,230.00,5.00,0.00,30.01,M,10.00,M,CLR,M,M,M,M,M,M,M,M,M,M,M,M,M,M,73.40,KMEV 040035Z AUTO 23005KT 10SM CLR 23/07 A3001 RMK AO2 LTG DSNT SW,M
BAM,2023-06-04 00:35,-116.8743,40.5990,1382.36,75.20,39.20,27.26,340.00,15.00,0.00,30.06,M,10.00,24.00,OVC,M,M,M,11000.00,M,M,M,M,M,M,M,M,M,M,75.20,KBAM 040035Z AUTO 34015G24KT 10SM OVC110 24/04 A3006 RMK AO1,M
HTH,2023-06-04 00:35,-118.6315,38.5448,1282.89,80.60,30.20,15.94,330.00,13.00,0.00,29.97,M,10.00,M,CLR,M,M,M,M,M,M,M,M,M,M,M,M,M,M,78.77,KHTH 040035Z AUTO 33013KT 10SM CLR 27/M01 A2997 RMK A01,M
TMT,2023-06-04 00:35,-117.1971,39.4643,1749.34,69.30,36.00,29.46,0.00,0.00,0.00,30.09,M,10.00,M,BKN,M,M,M,8500.00,M,M,M,M,M,M,M,M,M,M,69.30,KTMT 040035Z AUTO 00000KT 10SM BKN085 21/02 A3009 RMK AO2 LTG DSNT NE T02070023,M
EKO,2023-06-04 00:44,-115.7860,40.8242,1367.00,58.00,47.00,66.70,190.00,8.00,0.02,30.10,M,2.50,27.00,FEW,SCT,OVC,M,3700.00,5000.00,7000.00,M,VCTS +RA,M,M,M,27.00,310.00,2023-06-04 00:38,57.90,KEKO 040044Z AUTO 19008G27KT 2 1/2SM VCTS +RA FEW037 SCT050 OVC070 14/08 A3010 RMK AO2 PK WND 31027/0038 LTG DSNT N RAB38 TSB26E41 P0002 T01440083 $,M
DRA,2023-06-04 00:53,-116.0278,36.6206,1009.00,90.00,25.00,9.52,220.00,9.00,0.00,29.85,1005.90,10.00,M,CLR,M,M,M,M,M,M,M,M,M,M,M,M,M,M,85.19,KDRA 040053Z AUTO 22009KT 10SM CLR 32/M04 A2985 RMK AO2 SLP059 T03221039,M
ELY,2023-06-04 00:53,-114.8453,39.2950,1909.00,64.00,34.00,32.56,320.00,6.00,0.00,30.11,1013.60,10.00,M,BKN,M,M,M,9500.00,M,M,M,M,M,M,M,M,M,M,64.00,KELY 040053Z AUTO 32006KT 10SM BKN095 18/01 A3011 RMK AO2 SLP136 T01780011,M
VGT,2023-06-04 00:53,-115.1933,36.2111,667.00,96.00,32.00,10.49,100.00,4.00,0.00,29.76,1006.60,10.00,M,CLR,M,M,M,M,M,M,M,M,M,M,M,M,M,M,90.61,KVGT 040053Z AUTO 10004KT 10SM CLR 36/00 A2976 RMK AO2 SLP066 T03560000,M
LOL,2023-06-04 00:53,-118.5701,40.0684,1192.43,80.00,36.00,20.44,90.00,9.00,0.00,29.97,1011.80,10.00,M,CLR,M,M,M,M,M,M,M,M,M,M,M,M,M,M,78.77,KLOL 040053Z AUTO 09009KT 10SM CLR 27/02 A2997 RMK AO2 SLP118 T02670022,M
P68,2023-06-04 00:53,-116.0056,39.6014,1993.00,68.00,38.00,33.07,350.00,10.00,0.00,30.09,1013.90,M,M,M,M,M,M,M,M,M,M,M,M,M,M,M,M,M,68.00,KP68 040053Z AUTO 35010KT 20/03 A3009 RMK AO1 SLP139 T02000033,M
EKO,2023-06-04 00:54,-115.7860,40.8242,1367.00,57.20,46.40,67.12,M,2.92,M,30.09,M,5.00,M,FEW,FEW,BKN,M,2798.00,4901.00,7001.00,M,-RA VCTS,M,M,M,27.00,310.00,2023-06-04 00:38,57.20,SPECI KEKO 040054Z VRB03KT 5SM VCTS -RA FEW028 FEW049 BKN070 14/08 A3009 RMK AO2 PK WND 31027/0038 LTG DSNT SW RAB38 TSB26E41 P0005 $ FIBI,M
BVU,2023-06-04 00:55,-114.8611,35.9475,671.00,95.00,30.20,10.09,180.00,6.00,0.00,29.76,M,10.00,12.00,CLR,M,M,M,M,M,M,M,M,M,M,M,M,M,M,89.48,KBVU 040055Z AUTO 18006G12KT 10SM CLR 35/M01 A2976 RMK AO2,M
CXP,2023-06-04 00:55,-119.7326,39.1923,1431.00,78.80,30.20,16.90,0.00,0.00,0.00,30.02,M,10.00,11.00,CLR,M,M,M,M,M,M,M,M,M,M,M,M,M,M,78.80,KCXP 040055Z AUTO 00000G11KT 10SM CLR 26/M01 A3002 RMK AO2,M
INS,2023-06-04 00:55,-115.6733,36.5872,955.00,90.00,20.70,7.95,260.00,7.00,0.00,29.83,1005.60,10.00,M,CLR,M,M,M,M,M,M,M,M,M,M,M,M,M,M,84.90,KINS 040055Z AUTO 26007KT 10SM CLR 32/M06 A2983 RMK AO2 SLP056 T03221063 $,M
RNO,2023-06-04 00:55,-119.7711,39.4839,1341.00,81.00,34.00,18.33,220.00,3.00,0.00,29.99,1010.80,10.00,M,FEW,FEW,M,M,10000.00,18000.00,M,M,M,M,M,M,M,M,M,79.13,KRNO 040055Z 22003KT 10SM FEW100 FEW180 27/01 A2999 RMK AO2 SLP108 CB DSNT S THRU W T02720011 $,M
LSV,2023-06-04 00:55,-115.0343,36.2362,570.00,95.50,27.70,8.97,0.00,0.00,0.00,29.72,1004.10,10.00,M,CLR,M,M,M,M,M,M,M,M,M,M,M,M,M,M,89.60,KLSV 040055Z AUTO 00000KT 10SM CLR 35/M02 A2972 RMK AO2 SLP041 T03531024 $,M
RTS,2023-06-04 00:55,-119.8764,39.6682,1539.00,75.20,32.00,20.49,0.00,0.00,0.00,30.04,M,10.00,M,CLR,M,M,M,M,M,M,M,M,M,M,M,M,M,M,75.20,KRTS 040055Z AUTO 00000KT 10SM CLR 24/M00 A3004 RMK AO2,M
MEV,2023-06-04 00:55,-119.7500,38.9963,1441.42,73.40,42.80,33.29,230.00,5.00,0.00,30.01,M,10.00,M,CLR,M,M,M,M,M,M,M,M,M,M,M,M,M,M,73.40,KMEV 040055Z AUTO 23005KT 10SM CLR 23/06 A3001 RMK AO2,M
BAM,2023-06-04 00:55,-116.8743,40.5990,1382.36,73.40,39.20,28.96,360.00,4.00,0.00,30.05,M,10.00,20.00,OVC,M,M,M,11000.00,M,M,M,M,M,M,M,M,M,M,73.40,KBAM 040055Z AUTO 36004G20KT 10SM OVC110 23/04 A3005 RMK AO1,M
HTH,2023-06-04 00:55,-118.6315,38.5448,1282.89,80.60,28.40,14.81,310.00,13.00,0.00,29.97,M,10.00,M,CLR,M,M,M,M,M,M,M,M,M,M,M,M,M,M,78.72,KHTH 040055Z AUTO 31013KT 10SM CLR 27/M02 A2997 RMK A01,M
TMT,2023-06-04 00:55,-117.1971,39.4643,1749.34,70.70,35.60,27.54,40.00,6.00,0.00,30.09,M,10.00,M,BKN,M,M,M,8500.00,M,M,M,M,M,M,M,M,M,M,70.70,KTMT 040055Z AUTO 04006KT 10SM BKN085 22/02 A3009 RMK AO2 LTG DSNT NE T02150020,M
WMC,2023-06-04 00:56,-117.8072,40.9019,1315.00,78.00,37.00,22.71,M,3.00,0.00,30.02,1013.50,10.00,M,CLR,M,M,M,M,M,M,M,M,M,M,M,M,M,M,78.10,KWMC 040056Z AUTO VRB03KT 10SM CLR 26/03 A3002 RMK AO2 SLP135 T02560028,M
HND,2023-06-04 00:56,-115.1344,35.9729,742.79,93.00,34.00,12.51,120.00,5.00,0.00,29.80,1007.90,10.00,M,CLR,M,M,M,M,M,M,M,M,M,M,M,M,M,M,88.42,KHND 040056Z 12005KT 10SM CLR 34/01 A2980 RMK AO2 SLP079 T03390011,M
TPH,2023-06-04 00:56,-117.0904,38.0505,1654.00,80.00,30.00,16.07,340.00,15.00,0.00,30.02,1010.40,10.00,20.00,CLR,M,M,M,M,M,M,M,M,M,M,M,M,M,M,78.57,KTPH 040056Z AUTO 34015G20KT 10SM CLR 27/M01 A3002 RMK AO2 SLP104 T02671011,M
EKO,2023-06-04 00:56,-115.7860,40.8242,1367.00,58.00,47.00,66.70,200.00,6.00,0.05,30.08,1016.20,8.00,M,FEW,BKN,BKN,M,2800.00,7000.00,10000.00,M,-RA,M,M,M,27.00,310.00,2023-06-04 00:38,57.90,KEKO 040056Z AUTO 20006KT 8SM -RA FEW028 BKN070 BKN100 14/08 A3008 RMK AO2 PK WND 31027/0038 LTG DSNT SW RAB38 TSB26E41 SLP162 P0005 T01440083 $,M
NFL,2023-06-04 00:56,-118.7010,39.4166,1199.00,80.00,33.00,18.21,290.00,5.00,0.00,29.98,1012.20,10.00,14.00,CLR,M,M,M,M,M,M,M,M,M,M,M,M,M,M,78.67,KNFL 040056Z AUTO 29005G14KT 10SM CLR 27/01 A2998 RMK AO2 SLP122 T02670006,M
LAS,2023-06-04 00:56,-115.1634,36.0719,663.00,94.00,33.00,11.74,M,5.00,0.00,29.76,1005.20,10.00,M,SCT,M,M,M,12000.00,M,M,M,M,M,M,M,M,M,M,89.00,KLAS 040056Z VRB05KT 10SM SCT120 34/01 A2976 RMK AO2 SLP052 T03440006,M
BVU,2023-06-04 01:15,-114.8611,35.9475,671.00,93.20,30.20,10.67,130.00,5.00,0.00,29.76,M,10.00,13.00,CLR,M,M,M,M,M,M,M,M,M,M,M,M,M,M,88.09,KBVU 040115Z AUTO 13005G13KT 10SM CLR 34/M01 A2976 RMK AO2,M
CXP,2023-06-04 01:15,-119.7326,39.1923,1431.00,78.80,32.00,18.18,0.00,0.00,0.00,30.02,M,10.00,M,CLR,M,M,M,M,M,M,M,M,M,M,M,M,M,M,78.80,KCXP 040115Z AUTO 00000KT 10SM CLR 26/M00 A3002 RMK AO2,M
RTS,2023-06-04 01:15,-119.8764,39.6682,1539.00,75.20,32.00,20.49,70.00,6.00,0.00,30.04,M,10.00,M,CLR,M,M,M,M,M,M,M,M,M,M,M,M,M,M,75.20,KRTS 040115Z AUTO 07006KT 10SM CLR 24/M00 A3004 RMK AO2,M
MEV,2023-06-04 01:15,-119.7500,38.9963,1441.42,71.60,48.20,43.42,250.00,5.00,0.00,30.01,M,10.00,M,CLR,M,M,M,M,M,M,M,M,M,M,M,M,M,M,71.60,KMEV 040115Z AUTO 25005KT 10SM CLR 22/09 A3001 RMK AO2,M
BAM,2023-06-04 01:15,-116.8743,40.5990,1382.36,73.40,41.00,31.05,340.00,6.00,0.00,30.05,M,10.00,M,OVC,M,M,M,11000.00,M,M,M,M,M,M,M,M,M,M,73.40,KBAM 040115Z AUTO 34006KT 10SM OVC110 23/05 A3005 RMK AO1,M
HTH,2023-06-04 01:15,-118.6315,38.5448,1282.89,80.60,30.20,15.94,320.00,12.00,0.00,29.97,M,10.00,M,CLR,M,M,M,M,M,M,M,M,M,M,M,M,M,M,78.77,KHTH 040115Z AUTO 32012KT 10SM CLR 27/M01 A2997 RMK A01,M
TMT,2023-06-04 01:15,-117.1971,39.4643,1749.34,71.20,36.00,27.61,10.00,7.00,0.00,30.09,M,10.00,M,SCT,M,M,M,8500.00,M,M,M,M,M,M,M,M,M,M,71.20,KTMT 040115Z AUTO 01007KT 10SM SCT085 22/02 A3009 RMK AO2 LTG DSNT NE T02180023,M
INS,2023-06-04 01:24,-115.6733,36.5872,955.00,89.60,17.60,7.05,270.00,11.00,0.00,29.83,1005.70,10.00,M,CLR,M,M,M,M,M,M,M,M,M,M,M,M,M,M,84.45,KINS 040124Z AUTO 27011KT 10SM CLR 32/M08 A2983 RMK AO2 WSHFT 22 SLP057 $,M
BVU,2023-06-04 01:35,-114.8611,35.9475,671.00,93.20,28.40,9.91,150.00,8.00,0.00,29.77,M,10.00,M,CLR,M,M,M,M,M,M,M,M,M,M,M,M,M,M,87.89,KBVU 040135Z AUTO 15008KT 10SM CLR 34/M02 A2977 RMK AO2,M
CXP,2023-06-04 01:35,-119.7326,39.1923,1431.00,78.80,33.80,19.55,140.00,5.00,0.00,30.01,M,10.00,M,CLR,M,M,M,M,M,M,M,M,M,M,M,M,M,M,78.80,KCXP 040135Z AUTO 14005KT 10SM CLR 26/01 A3001 RMK AO2,M
RTS,2023-06-04 01:35,-119.8764,39.6682,1539.00,73.40,32.00,21.76,60.00,4.00,0.00,30.05,M,10.00,M,SCT,M,M,M,9500.00,M,M,M,M,M,M,M,M,M,M,73.40,KRTS 040135Z AUTO 06004KT 10SM SCT095 23/M00 A3005 RMK AO2,M
MEV,2023-06-04 01:35,-119.7500,38.9963,1441.42,73.40,37.40,26.98,290.00,6.00,0.00,30.01,M,10.00,M,CLR,M,M,M,M,M,M,M,M,M,M,M,M,M,M,73.40,KMEV 040135Z AUTO 29006KT 10SM CLR 23/03 A3001 RMK AO2,M
BAM,2023-06-04 01:35,-116.8743,40.5990,1382.36,77.00,41.00,27.53,360.00,5.00,0.00,30.05,M,10.00,M,OVC,M,M,M,11000.00,M,M,M,M,M,M,M,M,M,M,77.00,KBAM 040135Z AUTO 36005KT 10SM OVC110 25/05 A3005 RMK AO1,M
HTH,2023-06-04 01:35,-118.6315,38.5448,1282.89,80.60,32.00,17.14,320.00,14.00,0.00,29.97,M,10.00,M,CLR,M,M,M,M,M,M,M,M,M,M,M,M,M,M,78.82,KHTH 040135Z AUTO 32014KT 10SM CLR 27/00 A2997 RMK A01,M
TMT,2023-06-04 01:35,-117.1971,39.4643,1749.34,70.30,36.30,28.70,10.00,8.00,0.00,30.09,M,10.00,M,SCT,M,M,M,8500.00,M,M,M,M,M,M,M,M,M,M,70.30,KTMT 040135Z AUTO 01008KT 10SM SCT085 21/02 A3009 RMK AO2 T02130024,M
P68,2023-06-04 01:53,-116.0056,39.6014,1993.00,66.00,41.00,39.99,350.00,11.00,0.00,30.09,1013.30,M,M,M,M,M,M,M,M,M,M,M,M,M,M,M,M,M,66.00,KP68 040153Z AUTO 35011KT 19/05 A3009 RMK AO1 SLP133 T01890050,M
DRA,2023-06-04 01:53,-116.0278,36.6206,1009.00,88.00,26.10,10.61,M,4.00,0.00,29.85,1005.90,10.00,M,CLR,M,M,M,M,M,M,M,M,M,M,M,M,M,M,83.80,KDRA 040153Z AUTO VRB04KT 10SM CLR 31/M03 A2985 RMK AO2 SLP059 T03111033,M
ELY,2023-06-04 01:53,-114.8453,39.2950,1909.00,63.00,36.00,36.52,20.00,14.00,0.00,30.11,1012.90,10.00,19.00,CLR,M,M,M,M,M,M,M,M,M,M,M,M,M,M,63.00,KELY 040153Z AUTO 02014G19KT 10SM CLR 17/02 A3011 RMK AO2 SLP129 T01720022,M
VGT,2023-06-04 01:53,-115.1933,36.2111,667.00,95.00,32.00,10.85,90.00,3.00,0.00,29.76,1006.50,10.00,M,CLR,M,M,M,M,M,M,M,M,M,M,M,M,M,M,89.71,KVGT 040153Z AUTO 09003KT 10SM CLR 35/00 A2976 RMK AO2 SLP065 T03500000,M
LOL,2023-06-04 01:53,-118.5701,40.0684,1192.43,79.00,36.00,21.19,M,4.00,0.00,29.97,1011.80,10.00,M,CLR,M,M,M,M,M,M,M,M,M,M,M,M,M,M,79.00,KLOL 040153Z AUTO VRB04KT 10SM CLR 26/02 A2997 RMK AO2 SLP118 T02610022,M
BVU,2023-06-04 01:55,-114.8611,35.9475,671.00,93.20,28.40,9.91,180.00,9.00,0.00,29.77,M,10.00,M,CLR,M,M,M,M,M,M,M,M,M,M,M,M,M,M,87.89,KBVU 040155Z AUTO 18009KT 10SM CLR 34/M02 A2977 RMK AO2,M
CXP,2023-06-04 01:55,-119.7326,39.1923,1431.00,77.00,32.00,19.30,0.00,0.00,0.00,30.02,M,10.00,M,CLR,M,M,M,M,M,M,M,M,M,M,M,M,M,M,77.00,KCXP 040155Z AUTO 00000KT 10SM CLR 25/M00 A3002 RMK AO2,M
INS,2023-06-04 01:55,-115.6733,36.5872,955.00,89.00,19.90,7.95,250.00,8.00,0.00,29.83,1005.60,10.00,M,CLR,M,M,M,M,M,M,M,M,M,M,M,M,M,M,84.05,KINS 040155Z AUTO 25008KT 10SM CLR 32/M07 A2983 RMK AO2 SLP056 T03161067 $,M
LSV,2023-06-04 01:55,-115.0343,36.2362,570.00,93.20,30.90,10.98,0.00,0.00,0.00,29.72,1004.00,10.00,M,CLR,M,M,M,M,M,M,M,M,M,M,M,M,M,M,88.17,KLSV 040155Z AUTO 00000KT 10SM CLR 34/M01 A2972 RMK AO2 SLP040 T03401006 $,M
RTS,2023-06-04 01:55,-119.8764,39.6682,1539.00,71.60,35.60,26.71,50.00,4.00,0.00,30.05,M,10.00,M,FEW,M,M,M,9500.00,M,M,M,M,M,M,M,M,M,M,71.60,KRTS 040155Z AUTO 05004KT 10SM FEW095 22/02 A3005 RMK AO2,M
MEV,2023-06-04 01:55,-119.7500,38.9963,1441.42,71.60,37.40,28.68,270.00,8.00,0.00,30.01,M,10.00,M,CLR,M,M,M,M,M,M,M,M,M,M,M,M,M,M,71.60,KMEV 040155Z AUTO 27008KT 10SM CLR 22/03 A3001 RMK AO2,M
BAM,2023-06-04 01:55,-116.8743,40.5990,1382.36,73.40,39.20,28.96,340.00,10.00,0.00,30.05,M,10.00,M,OVC,M,M,M,11000.00,M,M,M,M,M,M,M,M,M,M,73.40,KBAM 040155Z AUTO 34010KT 10SM OVC110 23/04 A3005 RMK AO1,M
HTH,2023-06-04 01:55,-118.6315,38.5448,1282.89,80.60,30.20,15.94,320.00,14.00,0.00,29.97,M,10.00,M,CLR,M,M,M,M,M,M,M,M,M,M,M,M,M,M,78.77,KHTH 040155Z AUTO 32014KT 10SM CLR 27/M01 A2997 RMK A01,M
RNO,2023-06-04 01:55,-119.7711,39.4839,1341.00,79.00,33.00,18.88,90.00,6.00,0.00,29.99,1010.80,10.00,M,SCT,SCT,M,M,10000.00,18000.00,M,M,M,M,M,M,M,M,M,79.00,KRNO 040155Z 09006KT 10SM SCT100 SCT180 26/01 A2999 RMK AO2 SLP108 CB DSNT S AND W T02610006 $,M
TMT,2023-06-04 01:55,-117.1971,39.4643,1749.34,70.00,36.00,28.77,360.00,10.00,0.00,30.09,M,10.00,M,CLR,M,M,M,M,M,M,M,M,M,M,M,M,M,M,70.00,KTMT 040155Z AUTO 36010KT 10SM CLR 21/02 A3009 RMK AO2 T02110023,M
NFL,2023-06-04 01:56,-118.7010,39.4166,1199.00,80.00,28.90,15.36,340.00,6.00,0.00,29.97,1012.20,10.00,M,CLR,M,M,M,M,M,M,M,M,M,M,M,M,M,M,78.53,KNFL 040156Z AUTO 34006KT 10SM CLR 27/M02 A2997 RMK AO2 SLP122 T02671017,M
TPH,2023-06-04 01:56,-117.0904,38.0505,1654.00,77.00,28.00,16.40,320.00,10.00,0.00,30.02,1009.90,10.00,20.00,CLR,M,M,M,M,M,M,M,M,M,M,M,M,M,M,77.00,KTPH 040156Z AUTO 32010G20KT 10SM CLR 25/M02 A3002 RMK AO2 SLP099 T02501022,M
LAS,2023-06-04 01:56,-115.1634,36.0719,663.00,94.00,32.00,11.23,150.00,3.00,0.00,29.77,1005.10,10.00,M,SCT,M,M,M,12000.00,M,M,M,M,M,M,M,M,M,M,88.85,KLAS 040156Z 15003KT 10SM SCT120 34/00 A2977 RMK AO2 SLP051 T03440000,M
EKO,2023-06-04 01:56,-115.7860,40.8242,1367.00,58.00,49.00,71.90,30.00,9.00,T,30.11,1017.10,10.00,18.00,SCT,BKN,OVC,M,7500.00,10000.00,11000.00,M,-RA,M,M,M,M,M,M,57.90,KEKO 040156Z AUTO 03009G18KT 10SM -RA SCT075 BKN100 OVC110 14/09 A3011 RMK AO2 RAE0059B56 SLP171 P0000 T01440094 $,M
WMC,2023-06-04 01:56,-117.8072,40.9019,1315.00,78.00,35.00,21.07,40.00,6.00,0.00,30.02,1012.80,10.00,M,CLR,M,M,M,M,M,M,M,M,M,M,M,M,M,M,78.10,KWMC 040156Z AUTO 04006KT 10SM CLR 26/02 A3002 RMK AO2 SLP128 T02560017,M
HND,2023-06-04 01:56,-115.1344,35.9729,742.79,92.00,35.00,13.53,120.00,9.00,0.00,29.81,1007.90,10.00,M,CLR,M,M,M,M,M,M,M,M,M,M,M,M,M,M,87.60,KHND 040156Z 12009KT 10SM CLR 33/02 A2981 RMK AO2 SLP079 T03330017,M
BVU,2023-06-04 02:15,-114.8611,35.9475,671.00,91.40,30.20,11.28,160.00,10.00,0.00,29.77,M,10.00,M,CLR,M,M,M,M,M,M,M,M,M,M,M,M,M,M,86.71,KBVU 040215Z AUTO 16010KT 10SM CLR 33/M01 A2977 RMK AO2,M
CXP,2023-06-04 02:15,-119.7326,39.1923,1431.00,77.00,28.40,16.67,290.00,5.00,0.00,30.02,M,10.00,M,CLR,M,M,M,M,M,M,M,M,M,M,M,M,M,M,77.00,KCXP 040215Z AUTO 29005KT 10SM CLR 25/M02 A3002 RMK AO2,M
RTS,2023-06-04 02:15,-119.8764,39.6682,1539.00,69.80,37.40,30.49,40.00,5.00,0.00,30.05,M,10.00,M,CLR,M,M,M,M,M,M,M,M,M,M,M,M,M,M,69.80,KRTS 040215Z AUTO 04005KT 10SM CLR 21/03 A3005 RMK AO2,M
MEV,2023-06-04 02:15,-119.7500,38.9963,1441.42,71.60,39.20,30.77,230.00,3.00,0.00,30.02,M,10.00,M,CLR,M,M,M,M,M,M,M,M,M,M,M,M,M,M,71.60,KMEV 040215Z AUTO 23003KT 10SM CLR 22/04 A3002 RMK AO2,M
BAM,2023-06-04 02:15,-116.8743,40.5990,1382.36,73.40,41.00,31.05,350.00,9.00,0.00,30.05,M,10.00,M,OVC,M,M,M,11000.00,M,M,M,M,M,M,M,M,M,M,73.40,KBAM 040215Z AUTO 35009KT 10SM OVC110 23/05 A3005 RMK AO1,M
HTH,2023-06-04 02:15,-118.6315,38.5448,1282.89,78.80,33.80,19.55,320.00,11.00,0.00,29.98,M,10.00,17.00,CLR,M,M,M,M,M,M,M,M,M,M,M,M,M,M,78.80,KHTH 040215Z AUTO 32011G17KT 10SM CLR 26/01 A2998 RMK A01,M
TMT,2023-06-04 02:15,-117.1971,39.4643,1749.34,69.00,36.30,29.90,20.00,10.00,0.00,30.09,M,10.00,M,CLR,M,M,M,M,M,M,M,M,M,M,M,M,M,M,69.10,KTMT 040215Z AUTO 02010KT 10SM CLR 21/02 A3009 RMK AO2 T02060024,M
BVU,2023-06-04 02:35,-114.8611,35.9475,671.00,91.40,30.20,11.28,170.00,9.00,0.00,29.77,M,10.00,M,CLR,M,M,M,M,M,M,M,M,M,M,M,M,M,M,86.71,KBVU 040235Z AUTO 17009KT 10SM CLR 33/M01 A2977 RMK AO2,M
CXP,2023-06-04 02:35,-119.7326,39.1923,1431.00,75.20,33.80,22.02,70.00,5.00,0.00,30.03,M,10.00,M,CLR,M,M,M,M,M,M,M,M,M,M,M,M,M,M,75.20,KCXP 040235Z AUTO 07005KT 10SM CLR 24/01 A3003 RMK AO2,M
RTS,2023-06-04 02:35,-119.8764,39.6682,1539.00,69.80,33.80,26.43,40.00,8.00,0.00,30.05,M,10.00,M,CLR,M,M,M,M,M,M,M,M,M,M,M,M,M,M,69.80,KRTS 040235Z AUTO 04008KT 10SM CLR 21/01 A3005 RMK AO2,M
MEV,2023-06-04 02:35,-119.7500,38.9963,1441.42,69.80,37.40,30.49,0.00,0.00,0.00,30.02,M,10.00,M,CLR,M,M,M,M,M,M,M,M,M,M,M,M,M,M,69.80,KMEV 040235Z AUTO 00000KT 10SM CLR 21/03 A3002 RMK AO2,M
BAM,2023-06-04 02:35,-116.8743,40.5990,1382.36,73.40,41.00,31.05,360.00,4.00,0.00,30.05,M,10.00,M,OVC,M,M,M,11000.00,M,M,M,M,M,M,M,M,M,M,73.40,KBAM 040235Z AUTO 36004KT 10SM OVC110 23/05 A3005 RMK AO1,M
HTH,2023-06-04 02:35,-118.6315,38.5448,1282.89,77.00,32.00,19.30,310.00,9.00,0.00,29.99,M,10.00,15.00,CLR,M,M,M,M,M,M,M,M,M,M,M,M,M,M,77.00,KHTH 040235Z AUTO 31009G15KT 10SM CLR 25/00 A2999 RMK A01,M
TMT,2023-06-04 02:35,-117.1971,39.4643,1749.34,67.50,37.20,32.73,30.00,7.00,0.00,30.10,M,10.00,M,CLR,M,M,M,M,M,M,M,M,M,M,M,M,M,M,67.50,KTMT 040235Z AUTO 03007KT 10SM CLR 20/03 A3010 RMK AO2 T01970029,M
DRA,2023-06-04 02:53,-116.0278,36.6206,1009.00,85.00,25.00,11.19,220.00,7.00,0.00,29.85,1006.00,10.00,M,CLR,M,M,M,M,M,M,M,M,M,M,M,M,M,M,81.50,KDRA 040253Z AUTO 22007KT 10SM CLR 29/M04 A2985 RMK AO2 SLP060 T02941039 55003,M
ELY,2023-06-04 02:53,-114.8453,39.2950,1909.00,57.00,36.00,45.22,360.00,7.00,0.00,30.12,1013.10,10.00,M,CLR,M,M,M,M,M,M,M,M,M,M,M,M,M,M,57.00,KELY 040253Z AUTO 36007KT 10SM CLR 14/02 A3012 RMK AO2 SLP131 T01390022 53003,M
VGT,2023-06-04 02:53,-115.1933,36.2111,667.00,94.00,32.00,11.23,M,3.00,0.00,29.77,1006.70,M,M,M,M,M,M,M,M,M,M,M,M,M,M,M,M,M,88.85,KVGT 040253Z VRB03KT 34/00 A2977 RMK AO2 SLP067 T03440000 $,M
LOL,2023-06-04 02:53,-118.5701,40.0684,1192.43,77.00,39.00,25.47,70.00,4.00,0.00,29.98,1011.70,10.00,M,FEW,M,M,M,10000.00,M,M,M,M,M,M,M,M,M,M,77.00,KLOL 040253Z AUTO 07004KT 10SM FEW100 25/04 A2998 RMK AO2 SLP117 T02500039 55004,M
P68,2023-06-04 02:53,-116.0056,39.6014,1993.00,60.00,44.00,55.44,350.00,6.00,0.00,30.11,1013.60,M,M,M,M,M,M,M,M,M,M,M,M,M,M,M,M,M,60.10,KP68 040253Z AUTO 35006KT 16/07 A3011 RMK AO1 SLP136 T01560067 53003,M
BVU,2023-06-04 02:55,-114.8611,35.9475,671.00,91.40,30.20,11.28,150.00,8.00,0.00,29.77,M,10.00,M,CLR,M,M,M,M,M,M,M,M,M,M,M,M,M,M,86.71,KBVU 040255Z AUTO 15008KT 10SM CLR 33/M01 A2977 RMK AO2,M
CXP,2023-06-04 02:55,-119.7326,39.1923,1431.00,75.20,26.60,16.43,350.00,7.00,0.00,30.03,M,10.00,12.00,CLR,M,M,M,M,M,M,M,M,M,M,M,M,M,M,75.20,KCXP 040255Z AUTO 35007G12KT 10SM CLR 24/M03 A3003 RMK AO2,M
INS,2023-06-04 02:55,-115.6733,36.5872,955.00,85.50,17.40,7.96,230.00,9.00,0.00,29.84,1005.80,10.00,M,CLR,M,M,M,M,M,M,M,M,M,M,M,M,M,M,81.49,KINS 040255Z AUTO 23009KT 10SM CLR 30/M08 A2984 RMK AO2 SLP058 T02971081 55000 $,M
RTS,2023-06-04 02:55,-119.8764,39.6682,1539.00,69.80,32.00,24.59,40.00,8.00,0.00,30.05,M,10.00,M,CLR,M,M,M,M,M,M,M,M,M,M,M,M,M,M,69.80,KRTS 040255Z AUTO 04008KT 10SM CLR 21/M00 A3005 RMK AO2,M
MEV,2023-06-04 02:55,-119.7500,38.9963,1441.42,69.80,37.40,30.49,0.00,0.00,0.00,30.02,M,10.00,M,CLR,M,M,M,M,M,M,M,M,M,M,M,M,M,M,69.80,KMEV 040255Z AUTO 00000KT 10SM CLR 21/03 A3002 RMK AO2,M
BAM,2023-06-04 02:55,-116.8743,40.5990,1382.36,73.40,41.00,31.05,360.00,5.00,0.00,30.05,M,10.00,M,BKN,M,M,M,11000.00,M,M,M,M,M,M,M,M,M,M,73.40,KBAM 040255Z AUTO 36005KT 10SM BKN110 23/05 A3005 RMK AO1,M
HTH,2023-06-04 02:55,-118.6315,38.5448,1282.89,75.20,37.40,25.40,310.00,11.00,0.00,29.99,M,10.00,M,CLR,M,M,M,M,M,M,M,M,M,M,M,M,M,M,75.20,KHTH 040255Z AUTO 31011KT 10SM CLR 24/03 A2999 RMK A01,M
TMT,2023-06-04 02:55,-117.1971,39.4643,1749.34,65.80,38.50,36.54,20.00,6.00,0.00,30.10,M,10.00,M,CLR,M,M,M,M,M,M,M,M,M,M,M,M,M,M,65.80,KTMT 040255Z AUTO 02006KT 10SM CLR 19/04 A3010 RMK AO2 T01880036,M
LSV,2023-06-04 02:55,-115.0343,36.2362,570.00,92.00,29.80,10.93,100.00,7.00,0.00,29.72,1003.90,10.00,M,CLR,M,M,M,M,M,M,M,M,M,M,M,M,M,M,87.05,KLSV 040255Z AUTO 10007KT 10SM CLR 33/M01 A2972 RMK AO2 SLP039 T03331012 55004 $,M
RNO,2023-06-04 02:55,-119.7711,39.4839,1341.00,78.00,35.00,21.07,10.00,8.00,0.00,29.99,1010.70,10.00,M,SCT,BKN,M,M,10000.00,18000.00,M,M,M,M,M,M,M,M,M,78.10,KRNO 040255Z 01008KT 10SM SCT100 BKN180 26/02 A2999 RMK AO2 SLP107 CB DSNT NW T02560017 56002 $,M
EKO,2023-06-04 02:56,-115.7860,40.8242,1367.00,57.00,48.00,71.81,360.00,3.00,T,30.10,1016.50,10.00,M,BKN,OVC,M,M,10000.00,12000.00,M,M,M,M,M,M,M,M,M,57.00,KEKO 040256Z AUTO 36003KT 10SM BKN100 OVC120 14/09 A3010 RMK AO2 RAE21 SLP165 P0000 60005 T01390089 50004 $,M
WMC,2023-06-04 02:56,-117.8072,40.9019,1315.00,73.00,39.00,29.12,40.00,7.00,0.00,30.02,1012.70,10.00,M,CLR,M,M,M,M,M,M,M,M,M,M,M,M,M,M,73.00,KWMC 040256Z AUTO 04007KT 10SM CLR 23/04 A3002 RMK AO2 SLP127 T02280039 55003,M
NFL,2023-06-04 02:56,-118.7010,39.4166,1199.00,76.00,34.00,21.69,10.00,3.00,0.00,29.98,1012.30,10.00,M,CLR,M,M,M,M,M,M,M,M,M,M,M,M,M,M,75.90,KNFL 040256Z AUTO 01003KT 10SM CLR 24/01 A2998 RMK AO2 SLP123 T02440011 55002,M
TPH,2023-06-04 02:56,-117.0904,38.0505,1654.00,74.00,28.00,18.19,330.00,9.00,0.00,30.03,1009.90,10.00,M,CLR,M,M,M,M,M,M,M,M,M,M,M,M,M,M,73.90,KTPH 040256Z AUTO 33009KT 10SM CLR 23/M02 A3003 RMK AO2 SLP099 T02331022 55001,M
HND,2023-06-04 02:56,-115.1344,35.9729,742.79,91.00,35.00,13.91,110.00,4.00,0.00,29.81,1007.90,10.00,M,CLR,M,M,M,M,M,M,M,M,M,M,M,M,M,M,86.81,KHND 040256Z 11004KT 10SM CLR 33/02 A2981 RMK AO2 SLP079 T03280017 55003,M
LAS,2023-06-04 02:56,-115.1634,36.0719,663.00,93.00,33.00,12.07,140.00,4.00,0.00,29.77,1005.30,10.00,M,SCT,M,M,M,12000.00,M,M,M,M,M,M,M,M,M,M,88.29,KLAS 040256Z 14004KT 10SM SCT120 34/01 A2977 RMK AO2 SLP053 T03390006 55002,M
BVU,2023-06-04 03:15,-114.8611,35.9475,671.00,89.60,30.20,11.94,150.00,9.00,0.00,29.78,M,10.00,M,CLR,M,M,M,M,M,M,M,M,M,M,M,M,M,M,85.34,KBVU 040315Z AUTO 15009KT 10SM CLR 32/M01 A2978 RMK AO2,M
CXP,2023-06-04 03:15,-119.7326,39.1923,1431.00,73.40,26.60,17.46,50.00,8.00,0.00,30.03,M,10.00,M,CLR,M,M,M,M,M,M,M,M,M,M,M,M,M,M,73.40,KCXP 040315Z AUTO 05008KT 10SM CLR 23/M03 A3003 RMK AO2,M
RTS,2023-06-04 03:15,-119.8764,39.6682,1539.00,68.00,30.20,24.32,50.00,8.00,0.00,30.05,M,10.00,M,CLR,M,M,M,M,M,M,M,M,M,M,M,M,M,M,68.00,KRTS 040315Z AUTO 05008KT 10SM CLR 20/M01 A3005 RMK AO2,M
MEV,2023-06-04 03:15,-119.7500,38.9963,1441.42,66.20,41.00,39.72,60.00,6.00,0.00,30.03,M,10.00,M,CLR,M,M,M,M,M,M,M,M,M,M,M,M,M,M,66.20,KMEV 040315Z AUTO 06006KT 10SM CLR 19/05 A3003 RMK AO2,M
BAM,2023-06-04 03:15,-116.8743,40.5990,1382.36,71.60,42.80,35.37,0.00,0.00,0.00,30.06,M,10.00,M,SCT,M,M,M,12000.00,M,M,M,M,M,M,M,M,M,M,71.60,KBAM 040315Z AUTO 00000KT 10SM SCT120 22/06 A3006 RMK AO1,M
HTH,2023-06-04 03:15,-118.6315,38.5448,1282.89,73.40,35.60,25.13,310.00,11.00,0.00,30.00,M,10.00,M,CLR,M,M,M,M,M,M,M,M,M,M,M,M,M,M,73.40,KHTH 040315Z AUTO 31011KT 10SM CLR 23/02 A3000 RMK A01,M
TMT,2023-06-04 03:15,-117.1971,39.4643,1749.34,62.80,40.30,43.53,30.00,6.00,0.00,30.10,M,10.00,M,CLR,M,M,M,M,M,M,M,M,M,M,M,M,M,M,62.80,KTMT 040315Z AUTO 03006KT 10SM CLR 17/05 A3010 RMK AO2 T01710046,M
BVU,2023-06-04 03:35,-114.8611,35.9475,671.00,89.60,32.00,12.84,170.00,8.00,0.00,29.78,M,10.00,M,CLR,M,M,M,M,M,M,M,M,M,M,M,M,M,M,85.54,KBVU 040335Z AUTO 17008KT 10SM CLR 32/M00 A2978 RMK AO2,M
CXP,2023-06-04 03:35,-119.7326,39.1923,1431.00,73.40,28.40,18.80,70.00,8.00,0.00,30.04,M,10.00,M,FEW,FEW,M,M,1500.00,10000.00,M,M,M,M,M,M,M,M,M,73.40,KCXP 040335Z AUTO 07008KT 10SM FEW015 FEW100 23/M02 A3004 RMK AO2,M
RTS,2023-06-04 03:35,-119.8764,39.6682,1539.00,66.20,32.00,27.83,0.00,0.00,0.00,30.06,M,10.00,M,CLR,M,M,M,M,M,M,M,M,M,M,M,M,M,M,66.20,KRTS 040335Z AUTO 00000KT 10SM CLR 19/00 A3006 RMK AO2,M
MEV,2023-06-04 03:35,-119.7500,38.9963,1441.42,62.60,44.60,51.72,80.00,4.00,0.00,30.03,M,10.00,M,CLR,M,M,M,M,M,M,M,M,M,M,M,M,M,M,62.60,KMEV 040335Z AUTO 08004KT 10SM CLR 17/07 A3003 RMK AO2,M
BAM,2023-06-04 03:35,-116.8743,40.5990,1382.36,69.80,42.80,37.61,70.00,4.00,0.00,30.06,M,10.00,M,BKN,M,M,M,12000.00,M,M,M,M,M,M,M,M,M,M,69.80,KBAM 040335Z AUTO 07004KT 10SM BKN120 21/06 A3006 RMK AO1,M
HTH,2023-06-04 03:35,-118.6315,38.5448,1282.89,73.40,30.20,20.23,310.00,11.00,0.00,30.00,M,10.00,M,CLR,M,M,M,M,M,M,M,M,M,M,M,M,M,M,73.40,KHTH 040335Z AUTO 31011KT 10SM CLR 23/M01 A3000 RMK A01,M
TMT,2023-06-04 03:35,-117.1971,39.4643,1749.34,59.20,42.00,53.02,80.00,6.00,0.00,30.11,M,10.00,M,CLR,M,M,M,M,M,M,M,M,M,M,M,M,M,M,59.20,KTMT 040335Z AUTO 08006KT 10SM CLR 15/06 A3011 RMK AO2 T01510056,M
P68,2023-06-04 03:53,-116.0056,39.6014,1993.00,57.00,41.00,54.99,330.00,12.00,0.00,30.12,1014.10,M,M,M,M,M,M,M,M,M,M,M,M,M,M,M,M,M,57.00,KP68 040353Z AUTO 33012KT 14/05 A3012 RMK AO1 SLP141 T01390050,M
DRA,2023-06-04 03:53,-116.0278,36.6206,1009.00,81.00,24.10,12.23,0.00,0.00,0.00,29.86,1006.20,10.00,M,CLR,M,M,M,M,M,M,M,M,M,M,M,M,M,M,78.83,KDRA 040353Z AUTO 00000KT 10SM CLR 27/M04 A2986 RMK AO2 SLP062 T02721044,M
ELY,2023-06-04 03:53,-114.8453,39.2950,1909.00,49.00,34.00,56.23,300.00,3.00,0.00,30.14,1014.10,10.00,M,CLR,M,M,M,M,M,M,M,M,M,M,M,M,M,M,48.01,KELY 040353Z AUTO 30003KT 10SM CLR 09/01 A3014 RMK AO2 SLP141 T00940011,M
VGT,2023-06-04 03:53,-115.1933,36.2111,667.00,92.00,34.00,12.95,140.00,7.00,0.00,29.77,1006.80,10.00,M,CLR,M,M,M,M,M,M,M,M,M,M,M,M,M,M,87.56,KVGT 040353Z AUTO 14007KT 10SM CLR 33/01 A2977 RMK AO2 SLP068 T03330011 $,M
LOL,2023-06-04 03:53,-118.5701,40.0684,1192.43,71.00,40.00,32.16,20.00,6.00,0.00,29.98,1012.10,10.00,M,CLR,M,M,M,M,M,M,M,M,M,M,M,M,M,M,71.10,KLOL 040353Z AUTO 02006KT 10SM CLR 22/04 A2998 RMK AO2 SLP121 T02170044,M
BVU,2023-06-04 03:55,-114.8611,35.9475,671.00,87.80,32.00,13.59,150.00,7.00,0.00,29.78,M,10.00,M,CLR,M,M,M,M,M,M,M,M,M,M,M,M,M,M,84.08,KBVU 040355Z AUTO 15007KT 10SM CLR 31/00 A2978 RMK AO2,M
CXP,2023-06-04 03:55,-119.7326,39.1923,1431.00,71.60,28.40,19.98,50.00,8.00,0.00,30.05,M,10.00,M,FEW,M,M,M,10000.00,M,M,M,M,M,M,M,M,M,M,71.60,KCXP 040355Z AUTO 05008KT 10SM FEW100 22/M02 A3005 RMK AO2,M
INS,2023-06-04 03:55,-115.6733,36.5872,955.00,82.40,18.00,9.02,210.00,8.00,0.00,29.85,1005.90,10.00,M,CLR,M,M,M,M,M,M,M,M,M,M,M,M,M,M,79.38,KINS 040355Z AUTO 21008KT 10SM CLR 28/M08 A2985 RMK AO2 SLP059 T02801078 $,M
RNO,2023-06-04 03:55,-119.7711,39.4839,1341.00,75.00,34.00,22.35,360.00,4.00,0.00,30.01,1011.20,10.00,M,FEW,BKN,M,M,10000.00,20000.00,M,M,M,M,M,M,M,M,M,75.00,KRNO 040355Z 36004KT 10SM FEW100 BKN200 24/01 A3001 RMK AO2 SLP112 T02390011 $,M
LSV,2023-06-04 03:55,-115.0343,36.2362,570.00,89.00,31.80,12.94,120.00,6.00,0.00,29.72,1003.80,10.00,M,CLR,M,M,M,M,M,M,M,M,M,M,M,M,M,M,85.14,KLSV 040355Z AUTO 12006KT 10SM CLR 32/M00 A2972 RMK AO2 SLP038 T03171001 $,M
RTS,2023-06-04 03:55,-119.8764,39.6682,1539.00,64.40,33.80,31.85,280.00,5.00,0.00,30.06,M,10.00,M,CLR,M,M,M,M,M,M,M,M,M,M,M,M,M,M,64.40,KRTS 040355Z AUTO 28005KT 10SM CLR 18/01 A3006 RMK AO2,M
MEV,2023-06-04 03:55,-119.7500,38.9963,1441.42,60.80,44.60,55.12,90.00,4.00,0.00,30.04,M,10.00,M,CLR,M,M,M,M,M,M,M,M,M,M,M,M,M,M,60.80,KMEV 040355Z AUTO 09004KT 10SM CLR 16/07 A3004 RMK AO2,M
BAM,2023-06-04 03:55,-116.8743,40.5990,1382.36,68.00,42.80,40.00,80.00,5.00,0.00,30.07,M,10.00,M,OVC,M,M,M,12000.00,M,M,M,M,M,M,M,M,M,M,68.00,KBAM 040355Z AUTO 08005KT 10SM OVC120 20/06 A3007 RMK AO1,M
HTH,2023-06-04 03:55,-118.6315,38.5448,1282.89,73.40,28.40,18.80,320.00,9.00,0.00,30.01,M,10.00,M,CLR,M,M,M,M,M,M,M,M,M,M,M,M,M,M,73.40,KHTH 040355Z AUTO 32009KT 10SM CLR 23/M02 A3001 RMK A01,M
TMT,2023-06-04 03:55,-117.1971,39.4643,1749.34,57.60,40.30,52.38,80.00,5.00,0.00,30.12,M,10.00,M,CLR,M,M,M,M,M,M,M,M,M,M,M,M,M,M,57.60,KTMT 040355Z AUTO 08005KT 10SM CLR 14/05 A3012 RMK AO2 T01420046,M
NFL,2023-06-04 03:56,-118.7010,39.4166,1199.00,69.00,41.00,35.94,70.00,5.00,0.00,29.98,1012.20,10.00,M,CLR,M,M,M,M,M,M,M,M,M,M,M,M,M,M,69.10,KNFL 040356Z AUTO 07005KT 10SM CLR 21/05 A2998 RMK AO2 SLP122 T02060050,M
TPH,2023-06-04 03:56,-117.0904,38.0505,1654.00,69.00,27.00,20.54,320.00,7.00,0.00,30.04,1010.30,10.00,M,CLR,M,M,M,M,M,M,M,M,M,M,M,M,M,M,69.10,KTPH 040356Z AUTO 32007KT 10SM CLR 21/M03 A3004 RMK AO2 SLP103 T02061028,M
LAS,2023-06-04 03:56,-115.1634,36.0719,663.00,91.00,34.00,13.32,120.00,3.00,0.00,29.78,1005.60,10.00,M,FEW,M,M,M,12000.00,M,M,M,M,M,M,M,M,M,M,86.79,KLAS 040356Z 12003KT 10SM FEW120 33/01 A2978 RMK AO2 SLP056 T03280011,M
EKO,2023-06-04 03:56,-115.7860,40.8242,1367.00,55.00,49.00,79.85,90.00,5.00,0.00,30.11,1016.70,10.00,M,BKN,M,M,M,12000.00,M,M,M,M,M,M,M,M,M,M,55.00,KEKO 040356Z AUTO 09005KT 10SM BKN120 13/09 A3011 RMK AO2 SLP167 T01280094 $,M
WMC,2023-06-04 03:56,-117.8072,40.9019,1315.00,68.00,40.00,35.76,50.00,5.00,0.00,30.03,1013.00,10.00,M,CLR,M,M,M,M,M,M,M,M,M,M,M,M,M,M,68.00,KWMC 040356Z AUTO 05005KT 10SM CLR 20/04 A3003 RMK AO2 SLP130 T02000044,M
HND,2023-06-04 03:56,-115.1344,35.9729,742.79,88.00,35.00,15.29,150.00,7.00,0.00,29.82,1008.20,10.00,M,CLR,M,M,M,M,M,M,M,M,M,M,M,M,M,M,84.28,KHND 040356Z 15007KT 10SM CLR 31/02 A2982 RMK AO2 SLP082 T03110017,M
BVU,2023-06-04 04:15,-114.8611,35.9475,671.00,87.80,32.00,13.59,150.00,6.00,0.00,29.79,M,10.00,M,CLR,M,M,M,M,M,M,M,M,M,M,M,M,M,M,84.08,KBVU 040415Z AUTO 15006KT 10SM CLR 31/M00 A2979 RMK AO2,M
CXP,2023-06-04 04:15,-119.7326,39.1923,1431.00,71.60,32.00,23.13,100.00,4.00,0.00,30.05,M,10.00,M,CLR,M,M,M,M,M,M,M,M,M,M,M,M,M,M,71.60,KCXP 040415Z AUTO 10004KT 10SM CLR 22/00 A3005 RMK AO2,M
RTS,2023-06-04 04:15,-119.8764,39.6682,1539.00,62.60,32.00,31.56,300.00,6.00,0.00,30.07,M,10.00,M,CLR,M,M,M,M,M,M,M,M,M,M,M,M,M,M,62.60,KRTS 040415Z AUTO 30006KT 10SM CLR 17/00 A3007 RMK AO2,M
MEV,2023-06-04 04:15,-119.7500,38.9963,1441.42,57.20,46.40,67.12,100.00,6.00,0.00,30.04,M,10.00,M,CLR,M,M,M,M,M,M,M,M,M,M,M,M,M,M,57.20,KMEV 040415Z AUTO 10006KT 10SM CLR 14/08 A3004 RMK AO2,M
BAM,2023-06-04 04:15,-116.8743,40.5990,1382.36,68.00,42.80,40.00,90.00,5.00,0.00,30.07,M,10.00,M,OVC,M,M,M,12000.00,M,M,M,M,M,M,M,M,M,M,68.00,KBAM 040415Z AUTO 09005KT 10SM OVC120 20/06 A3007 RMK AO1,M
HTH,2023-06-04 04:15,-118.6315,38.5448,1282.89,71.60,24.80,17.22,310.00,8.00,0.00,30.02,M,10.00,M,CLR,M,M,M,M,M,M,M,M,M,M,M,M,M,M,71.60,KHTH 040415Z AUTO 31008KT 10SM CLR 22/M04 A3002 RMK A01,M
TMT,2023-06-04 04:15,-117.1971,39.4643,1749.34,56.30,40.50,55.32,80.00,3.00,0.00,30.12,M,10.00,M,CLR,M,M,M,M,M,M,M,M,M,M,M,M,M,M,56.30,KTMT 040415Z AUTO 08003KT 10SM CLR 14/05 A3012 RMK AO2 T01350047,M
BVU,2023-06-04 04:35,-114.8611,35.9475,671.00,87.80,32.00,13.59,150.00,6.00,0.00,29.79,M,10.00,M,CLR,M,M,M,M,M,M,M,M,M,M,M,M,M,M,84.08,KBVU 040435Z AUTO 15006KT 10SM CLR 31/M00 A2979 RMK AO2,M
CXP,2023-06-04 04:35,-119.7326,39.1923,1431.00,69.80,32.00,24.59,150.00,4.00,0.00,30.06,M,10.00,M,CLR,M,M,M,M,M,M,M,M,M,M,M,M,M,M,69.80,KCXP 040435Z AUTO 15004KT 10SM CLR 21/M00 A3006 RMK AO2,M
RTS,2023-06-04 04:35,-119.8764,39.6682,1539.00,62.60,32.00,31.56,290.00,3.00,0.00,30.07,M,10.00,M,CLR,M,M,M,M,M,M,M,M,M,M,M,M,M,M,62.60,KRTS 040435Z AUTO 29003KT 10SM CLR 17/00 A3007 RMK AO2,M
MEV,2023-06-04 04:35,-119.7500,38.9963,1441.42,59.00,42.80,54.86,0.00,0.00,0.00,30.05,M,10.00,M,FEW,FEW,SCT,M,3900.00,4700.00,5500.00,M,M,M,M,M,M,M,M,59.00,KMEV 040435Z AUTO 00000KT 10SM FEW039 FEW047 SCT055 15/06 A3005 RMK AO2,M
BAM,2023-06-04 04:35,-116.8743,40.5990,1382.36,68.00,42.80,40.00,90.00,5.00,0.00,30.08,M,10.00,M,OVC,M,M,M,11000.00,M,M,M,M,M,M,M,M,M,M,68.00,KBAM 040435Z AUTO 09005KT 10SM OVC110 20/06 A3008 RMK AO1,M
HTH,2023-06-04 04:35,-118.6315,38.5448,1282.89,69.80,24.80,18.30,310.00,6.00,0.00,30.02,M,10.00,M,CLR,M,M,M,M,M,M,M,M,M,M,M,M,M,M,69.80,KHTH 040435Z AUTO 31006KT 10SM CLR 21/M04 A3002 RMK A01,M
TMT,2023-06-04 04:35,-117.1971,39.4643,1749.34,56.70,40.50,54.53,30.00,4.00,0.00,30.13,M,10.00,M,CLR,M,M,M,M,M,M,M,M,M,M,M,M,M,M,56.70,KTMT 040435Z AUTO 03004KT 10SM CLR 14/05 A3013 RMK AO2 T01370047,M
DRA,2023-06-04 04:53,-116.0278,36.6206,1009.00,76.00,24.10,14.47,0.00,0.00,0.00,29.87,1006.70,10.00,M,CLR,M,M,M,M,M,M,M,M,M,M,M,M,M,M,75.90,KDRA 040453Z AUTO 00000KT 10SM CLR 24/M04 A2987 RMK AO2 SLP067 T02441044,M
LOL,2023-06-04 04:53,-118.5701,40.0684,1192.43,68.00,39.00,34.53,40.00,8.00,0.00,30.00,1012.60,10.00,M,CLR,M,M,M,M,M,M,M,M,M,M,M,M,M,M,68.00,KLOL 040453Z AUTO 04008KT 10SM CLR 20/04 A3000 RMK AO2 SLP126 T02000039,M
P68,2023-06-04 04:53,-116.0056,39.6014,1993.00,54.00,42.00,63.98,340.00,7.00,0.00,30.14,1014.80,M,M,M,M,M,M,M,M,M,M,M,M,M,M,M,M,M,54.00,KP68 040453Z AUTO 34007KT 12/06 A3014 RMK AO1 SLP148 T01220056,M
VGT,2023-06-04 04:53,-115.1933,36.2111,667.00,90.00,35.00,14.36,180.00,5.00,0.00,29.78,1007.30,10.00,M,CLR,M,M,M,M,M,M,M,M,M,M,M,M,M,M,85.95,KVGT 040453Z AUTO 18005KT 10SM CLR 32/02 A2978 RMK AO2 SLP073 T03220017 $,M
ELY,2023-06-04 04:53,-114.8453,39.2950,1909.00,49.00,35.00,58.75,360.00,5.00,0.00,30.15,1014.00,10.00,M,CLR,M,M,M,M,M,M,M,M,M,M,M,M,M,M,46.47,KELY 040453Z AUTO 36005KT 10SM CLR 09/02 A3015 RMK AO2 SLP140 T00940017,M
BVU,2023-06-04 04:55,-114.8611,35.9475,671.00,86.00,32.00,14.40,170.00,5.00,0.00,29.79,M,10.00,M,CLR,M,M,M,M,M,M,M,M,M,M,M,M,M,M,82.64,KBVU 040455Z AUTO 17005KT 10SM CLR 30/M00 A2979 RMK AO2,M
CXP,2023-06-04 04:55,-119.7326,39.1923,1431.00,68.00,32.00,26.15,0.00,0.00,0.00,30.07,M,10.00,M,CLR,M,M,M,M,M,M,M,M,M,M,M,M,M,M,68.00,KCXP 040455Z AUTO 00000KT 10SM CLR 20/00 A3007 RMK AO2,M
RNO,2023-06-04 04:55,-119.7711,39.4839,1341.00,74.00,34.00,23.19,0.00,0.00,0.00,30.03,1011.50,10.00,M,BKN,M,M,M,20000.00,M,M,M,M,M,M,M,M,M,M,73.90,KRNO 040455Z 00000KT 10SM BKN200 23/01 A3003 RMK AO2 SLP115 T02330011 $,M
RTS,2023-06-04 04:55,-119.8764,39.6682,1539.00,62.60,32.00,31.56,220.00,3.00,0.00,30.08,M,10.00,M,CLR,M,M,M,M,M,M,M,M,M,M,M,M,M,M,62.60,KRTS 040455Z AUTO 22003KT 10SM CLR 17/M00 A3008 RMK AO2,M
MEV,2023-06-04 04:55,-119.7500,38.9963,1441.42,60.80,41.00,48.00,0.00,0.00,0.00,30.05,M,10.00,M,FEW,SCT,BKN,M,3100.00,3900.00,4400.00,M,M,M,M,M,M,M,M,60.80,KMEV 040455Z AUTO 00000KT 10SM FEW031 SCT039 BKN044 16/05 A3005 RMK AO2,M
BAM,2023-06-04 04:55,-116.8743,40.5990,1382.36,68.00,42.80,40.00,70.00,6.00,0.00,30.08,M,10.00,M,OVC,M,M,M,11000.00,M,M,M,M,M,M,M,M,M,M,68.00,KBAM 040455Z AUTO 07006KT 10SM OVC110 20/06 A3008 RMK AO1,M
HTH,2023-06-04 04:55,-118.6315,38.5448,1282.89,69.80,24.80,18.30,M,3.00,0.00,30.03,M,10.00,M,CLR,M,M,M,M,M,M,M,M,M,M,M,M,M,M,69.80,KHTH 040455Z AUTO VRB03KT 10SM CLR 21/M04 A3003 RMK A01,M
TMT,2023-06-04 04:55,-117.1971,39.4643,1749.34,57.20,40.30,53.14,50.00,4.00,0.00,30.13,M,10.00,M,CLR,M,M,M,M,M,M,M,M,M,M,M,M,M,M,57.20,KTMT 040455Z AUTO 05004KT 10SM CLR 14/05 A3013 RMK AO2 T01400046,M
INS,2023-06-04 04:55,-115.6733,36.5872,955.00,78.40,23.50,12.99,240.00,7.00,0.00,29.86,1006.30,10.00,M,CLR,M,M,M,M,M,M,M,M,M,M,M,M,M,M,78.40,KINS 040455Z AUTO 24007KT 10SM CLR 26/M05 A2986 RMK AO2 SLP063 T02581047 $,M
LSV,2023-06-04 04:55,-115.0343,36.2362,570.00,88.50,33.30,14.01,140.00,9.00,0.00,29.74,1004.50,10.00,M,CLR,M,M,M,M,M,M,M,M,M,M,M,M,M,M,84.67,KLSV 040455Z AUTO 14009KT 10SM CLR 31/01 A2974 RMK AO2 SLP045 T03140007 $,M
NFL,2023-06-04 04:56,-118.7010,39.4166,1199.00,69.00,43.00,38.82,0.00,0.00,0.00,29.99,1012.70,10.00,M,CLR,M,M,M,M,M,M,M,M,M,M,M,M,M,M,69.10,KNFL 040456Z AUTO 00000KT 10SM CLR 21/06 A2999 RMK AO2 SLP127 T02060061,M
HND,2023-06-04 04:56,-115.1344,35.9729,742.79,86.00,34.00,15.60,160.00,7.00,0.00,29.83,1008.60,10.00,M,CLR,M,M,M,M,M,M,M,M,M,M,M,M,M,M,82.66,KHND 040456Z 16007KT 10SM CLR 30/01 A2983 RMK AO2 SLP086 T03000011,M
LAS,2023-06-04 04:56,-115.1634,36.0719,663.00,89.00,34.00,14.14,170.00,6.00,0.00,29.79,1005.90,10.00,M,FEW,M,M,M,12000.00,M,M,M,M,M,M,M,M,M,M,85.17,KLAS 040456Z 17006KT 10SM FEW120 32/01 A2979 RMK AO2 SLP059 T03170011,M
EKO,2023-06-04 04:56,-115.7860,40.8242,1367.00,55.00,49.00,79.85,100.00,4.00,T,30.11,1016.80,10.00,M,FEW,BKN,M,M,6500.00,9500.00,M,M,M,M,M,M,M,M,M,55.00,KEKO 040456Z AUTO 10004KT 10SM FEW065 BKN095 13/09 A3011 RMK AO2 RAB43E52 SLP168 P0000 T01280094 $,M
TPH,2023-06-04 04:56,-117.0904,38.0505,1654.00,66.00,33.00,29.29,30.00,7.00,0.00,30.06,1011.10,10.00,M,CLR,M,M,M,M,M,M,M,M,M,M,M,M,M,M,66.00,KTPH 040456Z AUTO 03007KT 10SM CLR 19/01 A3006 RMK AO2 SLP111 T01890006,M
WMC,2023-06-04 04:56,-117.8072,40.9019,1315.00,65.00,40.00,39.82,60.00,3.00,0.00,30.05,1013.30,10.00,M,CLR,M,M,M,M,M,M,M,M,M,M,M,M,M,M,64.90,KWMC 040456Z AUTO 06003KT 10SM CLR 18/04 A3005 RMK AO2 SLP133 T01830044,M
BVU,2023-06-04 05:15,-114.8611,35.9475,671.00,84.20,32.00,15.25,M,5.00,0.00,29.80,M,10.00,M,CLR,M,M,M,M,M,M,M,M,M,M,M,M,M,M,81.28,KBVU 040515Z AUTO VRB05KT 10SM CLR 29/M00 A2980 RMK AO2,M
CXP,2023-06-04 05:15,-119.7326,39.1923,1431.00,66.20,32.00,27.83,0.00,0.00,0.00,30.07,M,10.00,M,CLR,M,M,M,M,M,M,M,M,M,M,M,M,M,M,66.20,KCXP 040515Z AUTO 00000KT 10SM CLR 19/00 A3007 RMK AO2,M
RTS,2023-06-04 05:15,-119.8764,39.6682,1539.00,64.40,33.80,31.85,0.00,0.00,0.00,30.08,M,10.00,M,CLR,M,M,M,M,M,M,M,M,M,M,M,M,M,M,64.40,KRTS 040515Z AUTO 00000KT 10SM CLR 18/01 A3008 RMK AO2,M
MEV,2023-06-04 05:15,-119.7500,38.9963,1441.42,60.80,37.40,41.71,130.00,10.00,0.00,30.06,M,10.00,M,FEW,SCT,BKN,M,3100.00,3600.00,4700.00,M,M,M,M,M,M,M,M,60.80,KMEV 040515Z AUTO 13010KT 10SM FEW031 SCT036 BKN047 16/03 A3006 RMK AO2,M
BAM,2023-06-04 05:15,-116.8743,40.5990,1382.36,64.40,44.60,48.55,60.00,11.00,0.00,30.08,M,10.00,M,OVC,M,M,M,11000.00,M,M,M,M,M,M,M,M,M,M,64.40,KBAM 040515Z AUTO 06011KT 10SM OVC110 18/07 A3008 RMK AO1,M
HTH,2023-06-04 05:15,-118.6315,38.5448,1282.89,68.00,26.60,20.98,0.00,0.00,0.00,30.03,M,10.00,M,CLR,M,M,M,M,M,M,M,M,M,M,M,M,M,M,68.00,KHTH 040515Z AUTO 00000KT 10SM CLR 20/M03 A3003 RMK A01,M
TMT,2023-06-04 05:15,-117.1971,39.4643,1749.34,55.00,38.70,54.07,50.00,5.00,0.00,30.13,M,10.00,M,CLR,M,M,M,M,M,M,M,M,M,M,M,M,M,M,55.00,KTMT 040515Z AUTO 05005KT 10SM CLR 13/04 A3013 RMK AO2 T01280037,M
BVU,2023-06-04 05:35,-114.8611,35.9475,671.00,86.00,30.20,13.38,180.00,5.00,0.00,29.80,M,10.00,11.00,CLR,M,M,M,M,M,M,M,M,M,M,M,M,M,M,82.64,KBVU 040535Z AUTO 18005G11KT 10SM CLR 30/M01 A2980 RMK AO2,M
CXP,2023-06-04 05:35,-119.7326,39.1923,1431.00,68.00,32.00,26.15,0.00,0.00,0.00,30.07,M,10.00,M,CLR,M,M,M,M,M,M,M,M,M,M,M,M,M,M,68.00,KCXP 040535Z AUTO 00000KT 10SM CLR 20/M00 A3007 RMK AO2,M
RTS,2023-06-04 05:35,-119.8764,39.6682,1539.00,59.00,33.80,38.56,340.00,6.00,0.00,30.08,M,10.00,M,CLR,M,M,M,M,M,M,M,M,M,M,M,M,M,M,59.00,KRTS 040535Z AUTO 34006KT 10SM CLR 15/01 A3008 RMK AO2,M
MEV,2023-06-04 05:35,-119.7500,38.9963,1441.42,60.80,39.20,44.76,110.00,6.00,0.00,30.06,M,10.00,M,FEW,SCT,SCT,M,3700.00,4500.00,6000.00,M,M,M,M,M,M,M,M,60.80,KMEV 040535Z AUTO 11006KT 10SM FEW037 SCT045 SCT060 16/04 A3006 RMK AO2,M
BAM,2023-06-04 05:35,-116.8743,40.5990,1382.36,62.60,46.40,55.37,70.00,8.00,0.00,30.08,M,10.00,M,SCT,M,M,M,11000.00,M,M,M,M,M,M,M,M,M,M,62.60,KBAM 040535Z AUTO 07008KT 10SM SCT110 17/08 A3008 RMK AO1,M
HTH,2023-06-04 05:35,-118.6315,38.5448,1282.89,68.00,37.40,32.43,330.00,4.00,0.00,30.03,M,10.00,M,CLR,M,M,M,M,M,M,M,M,M,M,M,M,M,M,68.00,KHTH 040535Z AUTO 33004KT 10SM CLR 20/03 A3003 RMK A01,M
TMT,2023-06-04 05:35,-117.1971,39.4643,1749.34,55.40,39.20,54.34,10.00,4.00,0.00,30.13,M,10.00,M,CLR,M,M,M,M,M,M,M,M,M,M,M,M,M,M,55.40,KTMT 040535Z AUTO 01004KT 10SM CLR 13/04 A3013 RMK AO2 T01300040,M
DRA,2023-06-04 05:53,-116.0278,36.6206,1009.00,73.00,26.10,17.33,30.00,4.00,0.00,29.88,1006.80,10.00,M,CLR,M,M,M,M,M,M,M,M,M,M,M,M,M,M,73.00,KDRA 040553Z AUTO 03004KT 10SM CLR 23/M03 A2988 RMK AO2 SLP068 T02281033 10328 20228 51007,M
P68,2023-06-04 05:53,-116.0056,39.6014,1993.00,50.00,42.00,74.15,110.00,5.00,0.00,30.14,1015.00,M,M,M,M,M,M,M,M,M,M,M,M,M,M,M,M,M,50.00,KP68 040553Z AUTO 11005KT 10/06 A3014 RMK AO1 SLP150 T01000056 10211 20100 51010,M
VGT,2023-06-04 05:53,-115.1933,36.2111,667.00,88.00,35.00,15.29,10.00,7.00,0.00,29.79,1007.40,10.00,M,CLR,M,M,M,M,M,M,M,M,M,M,M,M,M,M,84.28,KVGT 040553Z AUTO 01007KT 10SM CLR 31/02 A2979 RMK AO2 SLP074 T03110017 10361 20306 52007 $,M
LOL,2023-06-04 05:53,-118.5701,40.0684,1192.43,68.00,38.00,33.07,20.00,6.00,0.00,30.00,1012.60,10.00,M,CLR,M,M,M,M,M,M,M,M,M,M,M,M,M,M,68.00,KLOL 040553Z AUTO 02006KT 10SM CLR 20/03 A3000 RMK AO2 SLP126 T02000033 10272 20194 51008,M
ELY,2023-06-04 05:53,-114.8453,39.2950,1909.00,49.00,35.00,58.75,310.00,7.00,0.00,30.16,1014.20,10.00,M,CLR,M,M,M,M,M,M,M,M,M,M,M,M,M,M,45.38,KELY 040553Z AUTO 31007KT 10SM CLR 09/02 A3016 RMK AO2 SLP142 T00940017 10183 20083 51009,M
BVU,2023-06-04 05:55,-114.8611,35.9475,671.00,84.20,32.00,15.25,0.00,0.00,0.00,29.80,M,10.00,M,CLR,M,M,M,M,M,M,M,M,M,M,M,M,M,M,81.28,KBVU 040555Z AUTO 00000KT 10SM CLR 29/M00 A2980 RMK AO2,M
CXP,2023-06-04 05:55,-119.7326,39.1923,1431.00,64.40,33.80,31.85,320.00,4.00,0.00,30.07,M,10.00,M,CLR,M,M,M,M,M,M,M,M,M,M,M,M,M,M,64.40,KCXP 040555Z AUTO 32004KT 10SM CLR 18/01 A3007 RMK AO2,M
INS,2023-06-04 05:55,-115.6733,36.5872,955.00,77.20,24.30,13.98,250.00,8.00,0.00,29.87,1006.60,10.00,M,CLR,M,M,M,M,M,M,M,M,M,M,M,M,M,M,77.20,KINS 040555Z AUTO 25008KT 10SM CLR 25/M04 A2987 RMK AO2 SLP066 T02511043 10330 20251 52009 $,M
RTS,2023-06-04 05:55,-119.8764,39.6682,1539.00,62.60,32.00,31.56,0.00,0.00,0.00,30.08,M,10.00,M,CLR,M,M,M,M,M,M,M,M,M,M,M,M,M,M,62.60,KRTS 040555Z AUTO 00000KT 10SM CLR 17/M00 A3008 RMK AO2,M
MEV,2023-06-04 05:55,-119.7500,38.9963,1441.42,59.00,39.20,47.72,80.00,9.00,0.00,30.06,M,10.00,M,SCT,SCT,M,M,4600.00,5500.00,M,M,M,M,M,M,M,M,M,59.00,KMEV 040555Z AUTO 08009KT 10SM SCT046 SCT055 15/04 A3006 RMK AO2,M
BAM,2023-06-04 05:55,-116.8743,40.5990,1382.36,62.60,44.60,51.72,70.00,8.00,0.00,30.07,M,10.00,M,CLR,M,M,M,M,M,M,M,M,M,M,M,M,M,M,62.60,KBAM 040555Z AUTO 07008KT 10SM CLR 17/07 A3007 RMK AO1,M
HTH,2023-06-04 05:55,-118.6315,38.5448,1282.89,68.00,32.00,26.15,0.00,0.00,0.00,30.03,M,10.00,M,CLR,M,M,M,M,M,M,M,M,M,M,M,M,M,M,68.00,KHTH 040555Z AUTO 00000KT 10SM CLR 20/00 A3003 RMK A01,M
TMT,2023-06-04 05:55,-117.1971,39.4643,1749.34,55.00,40.60,58.43,20.00,6.00,0.00,30.13,M,10.00,M,CLR,M,M,M,M,M,M,M,M,M,M,M,M,M,M,54.90,KTMT 040555Z AUTO 02006KT 10SM CLR 13/05 A3013 RMK AO2 T01270048 10219 20125,M
LSV,2023-06-04 05:55,-115.0343,36.2362,570.00,85.80,32.70,14.90,310.00,5.00,0.00,29.75,1004.70,10.00,M,CLR,M,M,M,M,M,M,M,M,M,M,M,M,M,M,82.49,KLSV 040555Z AUTO 31005KT 10SM CLR 30/00 A2975 RMK AO2 SLP047 T02990004 10366 20299 52010 $,M
RNO,2023-06-04 05:55,-119.7711,39.4839,1341.00,70.00,40.00,33.39,280.00,4.00,0.00,30.04,1011.90,10.00,M,BKN,M,M,M,20000.00,M,M,M,M,M,M,M,M,M,M,70.00,KRNO 040555Z 28004KT 10SM BKN200 21/04 A3004 RMK AO2 SLP119 T02110044 10272 20211 51014 $,M
NFL,2023-06-04 05:56,-118.7010,39.4166,1199.00,63.00,43.00,47.97,140.00,4.00,0.00,30.00,1012.90,10.00,M,CLR,M,M,M,M,M,M,M,M,M,M,M,M,M,M,63.00,KNFL 040556Z AUTO 14004KT 10SM CLR 17/06 A3000 RMK AO2 SLP129 T01720061 10278 20172 53006,M
HND,2023-06-04 05:56,-115.1344,35.9729,742.79,83.00,30.00,14.67,170.00,7.00,0.00,29.84,1008.90,10.00,M,CLR,M,M,M,M,M,M,M,M,M,M,M,M,M,M,80.31,KHND 040556Z 17007KT 10SM CLR 28/M01 A2984 RMK AO2 SLP089 T02831011 10350 20283 51010,M
LAS,2023-06-04 05:56,-115.1634,36.0719,663.00,87.00,30.00,12.82,270.00,7.00,0.00,29.80,1006.00,10.00,M,FEW,M,M,M,12000.00,M,M,M,M,M,M,M,M,M,M,83.48,KLAS 040556Z 27007KT 10SM FEW120 31/M01 A2980 RMK AO2 SLP060 T03061011 10356 20300 51008,M
EKO,2023-06-04 05:56,-115.7860,40.8242,1367.00,54.00,49.00,82.82,10.00,3.00,0.00,30.12,1016.60,10.00,M,CLR,M,M,M,M,M,M,M,M,M,M,M,M,M,M,54.00,KEKO 040556Z AUTO 01003KT 10SM CLR 12/09 A3012 RMK AO2 SLP166 60005 T01220094 10167 20122 51005 $,M
WMC,2023-06-04 05:56,-117.8072,40.9019,1315.00,55.00,40.00,56.66,120.00,6.00,0.00,30.04,1013.80,10.00,M,CLR,M,M,M,M,M,M,M,M,M,M,M,M,M,M,55.00,KWMC 040556Z AUTO 12006KT 10SM CLR 13/04 A3004 RMK AO2 SLP138 T01280044 10267 20117 50006,M
TPH,2023-06-04 05:56,-117.0904,38.0505,1654.00,65.00,36.00,34.17,350.00,8.00,0.00,30.07,1011.30,10.00,M,FEW,M,M,M,11000.00,M,M,M,M,M,M,M,M,M,M,64.90,KTPH 040556Z AUTO 35008KT 10SM FEW110 18/02 A3007 RMK AO2 SLP113 T01830022 10272 20183 51013,M
BVU,2023-06-04 06:15,-114.8611,35.9475,671.00,80.60,37.40,21.25,0.00,0.00,0.00,29.80,M,10.00,M,CLR,M,M,M,M,M,M,M,M,M,M,M,M,M,M,79.02,KBVU 040615Z AUTO 00000KT 10SM CLR 27/03 A2980 RMK AO2,M
CXP,2023-06-04 06:15,-119.7326,39.1923,1431.00,62.60,33.80,33.93,0.00,0.00,0.00,30.07,M,10.00,M,CLR,M,M,M,M,M,M,M,M,M,M,M,M,M,M,62.60,KCXP 040615Z AUTO 00000KT 10SM CLR 17/01 A3007 RMK AO2,M
RTS,2023-06-04 06:15,-119.8764,39.6682,1539.00,55.40,33.80,43.90,350.00,3.00,0.00,30.09,M,10.00,M,CLR,M,M,M,M,M,M,M,M,M,M,M,M,M,M,55.40,KRTS 040615Z AUTO 35003KT 10SM CLR 13/01 A3009 RMK AO2,M
MEV,2023-06-04 06:15,-119.7500,38.9963,1441.42,55.40,41.00,58.27,100.00,7.00,0.00,30.06,M,10.00,M,FEW,BKN,BKN,M,3200.00,4200.00,4800.00,M,M,M,M,M,M,M,M,55.40,KMEV 040615Z AUTO 10007KT 10SM FEW032 BKN042 BKN048 13/05 A3006 RMK AO2,M
BAM,2023-06-04 06:15,-116.8743,40.5990,1382.36,62.60,44.60,51.72,80.00,7.00,0.00,30.08,M,10.00,M,CLR,M,M,M,M,M,M,M,M,M,M,M,M,M,M,62.60,KBAM 040615Z AUTO 08007KT 10SM CLR 17/07 A3008 RMK AO1,M
HTH,2023-06-04 06:15,-118.6315,38.5448,1282.89,66.20,30.20,25.88,0.00,0.00,0.00,30.04,M,10.00,M,CLR,M,M,M,M,M,M,M,M,M,M,M,M,M,M,66.20,KHTH 040615Z AUTO 00000KT 10SM CLR 19/M01 A3004 RMK A01,M
TMT,2023-06-04 06:15,-117.1971,39.4643,1749.34,55.80,39.60,54.39,360.00,4.00,0.00,30.13,M,10.00,M,CLR,M,M,M,M,M,M,M,M,M,M,M,M,M,M,55.80,KTMT 040615Z AUTO 36004KT 10SM CLR 13/04 A3013 RMK AO2 T01320042,M
BVU,2023-06-04 06:35,-114.8611,35.9475,671.00,78.80,39.20,24.19,360.00,5.00,0.00,29.80,M,10.00,M,CLR,M,M,M,M,M,M,M,M,M,M,M,M,M,M,78.80,KBVU 040635Z AUTO 36005KT 10SM CLR 26/04 A2980 RMK AO2,M
CXP,2023-06-04 06:35,-119.7326,39.1923,1431.00,60.80,35.60,38.85,0.00,0.00,0.00,30.07,M,10.00,M,CLR,M,M,M,M,M,M,M,M,M,M,M,M,M,M,60.80,KCXP 040635Z AUTO 00000KT 10SM CLR 16/02 A3007 RMK AO2,M
RTS,2023-06-04 06:35,-119.8764,39.6682,1539.00,55.40,33.80,43.90,0.00,0.00,0.00,30.09,M,10.00,M,CLR,M,M,M,M,M,M,M,M,M,M,M,M,M,M,55.40,KRTS 040635Z AUTO 00000KT 10SM CLR 13/01 A3009 RMK AO2,M
MEV,2023-06-04 06:35,-119.7500,38.9963,1441.42,57.20,35.60,44.19,120.00,5.00,0.00,30.06,M,10.00,M,BKN,BKN,M,M,3800.00,4800.00,M,M,M,M,M,M,M,M,M,57.20,KMEV 040635Z AUTO 12005KT 10SM BKN038 BKN048 14/02 A3006 RMK AO2,M
BAM,2023-06-04 06:35,-116.8743,40.5990,1382.36,62.60,44.60,51.72,70.00,12.00,0.00,30.08,M,10.00,M,CLR,M,M,M,M,M,M,M,M,M,M,M,M,M,M,62.60,KBAM 040635Z AUTO 07012KT 10SM CLR 17/07 A3008 RMK AO1,M
HTH,2023-06-04 06:35,-118.6315,38.5448,1282.89,64.40,30.20,27.55,210.00,4.00,0.00,30.04,M,10.00,M,CLR,M,M,M,M,M,M,M,M,M,M,M,M,M,M,64.40,KHTH 040635Z AUTO 21004KT 10SM CLR 18/M01 A3004 RMK A01,M
TMT,2023-06-04 06:35,-117.1971,39.4643,1749.34,52.00,40.00,63.73,360.00,6.00,0.00,30.13,M,10.00,M,CLR,M,M,M,M,M,M,M,M,M,M,M,M,M,M,52.00,KTMT 040635Z AUTO 36006KT 10SM CLR 11/05 A3013 RMK AO2 T01110045,M
P68,2023-06-04 06:53,-116.0056,39.6014,1993.00,48.00,41.00,76.58,210.00,5.00,0.00,30.13,1015.00,M,M,M,M,M,M,M,M,M,M,M,M,M,M,M,M,M,45.40,KP68 040653Z AUTO 21005KT 09/05 A3013 RMK AO1 SLP150 T00890050,M
DRA,2023-06-04 06:53,-116.0278,36.6206,1009.00,70.00,27.00,19.92,0.00,0.00,0.00,29.88,1007.10,10.00,M,CLR,M,M,M,M,M,M,M,M,M,M,M,M,M,M,70.00,KDRA 040653Z AUTO 00000KT 10SM CLR 21/M03 A2988 RMK AO2 SLP071 T02111028,M
ELY,2023-06-04 06:53,-114.8453,39.2950,1909.00,46.00,34.00,62.71,300.00,4.00,0.00,30.15,1014.20,10.00,M,CLR,M,M,M,M,M,M,M,M,M,M,M,M,M,M,43.77,KELY 040653Z AUTO 30004KT 10SM CLR 08/01 A3015 RMK AO2 SLP142 T00780011,M
LOL,2023-06-04 06:53,-118.5701,40.0684,1192.43,64.00,41.00,42.88,320.00,8.00,0.00,30.01,1012.80,10.00,M,CLR,M,M,M,M,M,M,M,M,M,M,M,M,M,M,64.00,KLOL 040653Z AUTO 32008KT 10SM CLR 18/05 A3001 RMK AO2 SLP128 T01780050,M
VGT,2023-06-04 06:53,-115.1933,36.2111,667.00,83.00,33.00,16.62,330.00,6.00,0.00,29.79,1007.70,10.00,M,CLR,M,M,M,M,M,M,M,M,M,M,M,M,M,M,80.36,KVGT 040653Z AUTO 33006KT 10SM CLR 28/01 A2979 RMK AO2 SLP077 T02830006 $,M
BVU,2023-06-04 06:55,-114.8611,35.9475,671.00,78.80,32.00,18.18,330.00,6.00,0.00,29.80,M,10.00,M,CLR,M,M,M,M,M,M,M,M,M,M,M,M,M,M,78.80,KBVU 040655Z AUTO 33006KT 10SM CLR 26/M00 A2980 RMK AO2,M
CXP,2023-06-04 06:55,-119.7326,39.1923,1431.00,60.80,35.60,38.85,0.00,0.00,0.00,30.07,M,10.00,M,CLR,M,M,M,M,M,M,M,M,M,M,M,M,M,M,60.80,KCXP 040655Z AUTO 00000KT 10SM CLR 16/02 A3007 RMK AO2,M
INS,2023-06-04 06:55,-115.6733,36.5872,955.00,76.80,23.90,13.93,270.00,5.00,0.00,29.87,1006.60,10.00,M,CLR,M,M,M,M,M,M,M,M,M,M,M,M,M,M,76.80,KINS 040655Z AUTO 27005KT 10SM CLR 25/M04 A2987 RMK AO2 SLP066 T02491045 $,M
RNO,2023-06-04 06:55,-119.7711,39.4839,1341.00,68.00,41.00,37.32,270.00,4.00,0.00,30.04,1012.00,10.00,M,FEW,SCT,M,M,10000.00,20000.00,M,M,M,M,M,M,M,M,M,68.00,KRNO 040655Z 27004KT 10SM FEW100 SCT200 20/05 A3004 RMK AO2 SLP120 T02000050 $,M
LSV,2023-06-04 06:55,-115.0343,36.2362,570.00,82.60,33.30,16.92,10.00,5.00,0.00,29.75,1004.70,10.00,M,CLR,M,M,M,M,M,M,M,M,M,M,M,M,M,M,80.16,KLSV 040655Z AUTO 01005KT 10SM CLR 28/01 A2975 RMK AO2 SLP047 T02810007 $,M
RTS,2023-06-04 06:55,-119.8764,39.6682,1539.00,53.60,35.60,50.36,320.00,5.00,0.00,30.09,M,10.00,M,CLR,M,M,M,M,M,M,M,M,M,M,M,M,M,M,53.60,KRTS 040655Z AUTO 32005KT 10SM CLR 12/02 A3009 RMK AO2,M
MEV,2023-06-04 06:55,-119.7500,38.9963,1441.42,53.60,37.40,54.07,110.00,4.00,0.00,30.06,M,10.00,M,SCT,BKN,M,M,3300.00,4100.00,M,M,M,M,M,M,M,M,M,53.60,KMEV 040655Z AUTO 11004KT 10SM SCT033 BKN041 12/03 A3006 RMK AO2,M
BAM,2023-06-04 06:55,-116.8743,40.5990,1382.36,60.80,44.60,55.12,80.00,9.00,0.00,30.08,M,10.00,M,CLR,M,M,M,M,M,M,M,M,M,M,M,M,M,M,60.80,KBAM 040655Z AUTO 08009KT 10SM CLR 16/07 A3008 RMK AO1,M
HTH,2023-06-04 06:55,-118.6315,38.5448,1282.89,64.40,32.00,29.63,230.00,4.00,0.00,30.04,M,10.00,M,CLR,M,M,M,M,M,M,M,M,M,M,M,M,M,M,64.40,KHTH 040655Z AUTO 23004KT 10SM CLR 18/00 A3004 RMK A01,M
TMT,2023-06-04 06:55,-117.1971,39.4643,1749.34,51.00,40.00,65.89,340.00,4.00,0.00,30.14,M,10.00,M,CLR,M,M,M,M,M,M,M,M,M,M,M,M,M,M,51.10,KTMT 040655Z AUTO 34004KT 10SM CLR 11/05 A3014 RMK AO2 T01060045,M
EKO,2023-06-04 06:56,-115.7860,40.8242,1367.00,52.00,48.00,86.17,80.00,5.00,0.00,30.12,1016.80,10.00,M,CLR,M,M,M,M,M,M,M,M,M,M,M,M,M,M,52.00,KEKO 040656Z AUTO 08005KT 10SM CLR 11/09 A3012 RMK AO2 SLP168 T01110089 $,M
WMC,2023-06-04 06:56,-117.8072,40.9019,1315.00,58.00,39.00,49.26,0.00,0.00,0.00,30.05,1013.50,10.00,M,CLR,M,M,M,M,M,M,M,M,M,M,M,M,M,M,57.90,KWMC 040656Z AUTO 00000KT 10SM CLR 14/04 A3005 RMK AO2 SLP135 T01440039,M
NFL,2023-06-04 06:56,-118.7010,39.4166,1199.00,63.00,41.00,44.41,250.00,4.00,0.00,30.00,1013.00,10.00,M,CLR,M,M,M,M,M,M,M,M,M,M,M,M,M,M,63.00,KNFL 040656Z AUTO 25004KT 10SM CLR 17/05 A3000 RMK AO2 SLP130 T01720050,M
HND,2023-06-04 06:56,-115.1344,35.9729,742.79,82.00,30.90,15.66,200.00,11.00,0.00,29.84,1009.10,10.00,M,CLR,M,M,M,M,M,M,M,M,M,M,M,M,M,M,79.70,KHND 040656Z 20011KT 10SM CLR 28/M01 A2984 RMK AO2 SLP091 T02781006 403610217,M
TPH,2023-06-04 06:56,-117.0904,38.0505,1654.00,61.00,35.00,37.81,360.00,8.00,0.00,30.08,1011.70,10.00,M,CLR,M,M,M,M,M,M,M,M,M,M,M,M,M,M,61.00,KTPH 040656Z AUTO 36008KT 10SM CLR 16/02 A3008 RMK AO2 SLP117 T01610017,M
LAS,2023-06-04 06:56,-115.1634,36.0719,663.00,85.00,30.00,13.75,M,3.00,0.00,29.80,1006.30,10.00,M,CLR,M,M,M,M,M,M,M,M,M,M,M,M,M,M,81.79,KLAS 040656Z VRB03KT 10SM CLR 29/M01 A2980 RMK AO2 SLP063 T02941011,M
BVU,2023-06-04 07:15,-114.8611,35.9475,671.00,78.80,32.00,18.18,340.00,5.00,0.00,29.81,M,10.00,M,CLR,M,M,M,M,M,M,M,M,M,M,M,M,M,M,78.80,KBVU 040715Z AUTO 34005KT 10SM CLR 26/M00 A2981 RMK AO2,M
CXP,2023-06-04 07:15,-119.7326,39.1923,1431.00,59.00,35.60,41.42,0.00,0.00,0.00,30.08,M,10.00,M,CLR,M,M,M,M,M,M,M,M,M,M,M,M,M,M,59.00,KCXP 040715Z AUTO 00000KT 10SM CLR 15/02 A3008 RMK AO2,M
RTS,2023-06-04 07:15,-119.8764,39.6682,1539.00,53.60,37.40,54.07,350.00,4.00,0.00,30.09,M,10.00,M,CLR,M,M,M,M,M,M,M,M,M,M,M,M,M,M,53.60,KRTS 040715Z AUTO 35004KT 10SM CLR 12/03 A3009 RMK AO2,M
MEV,2023-06-04 07:15,-119.7500,38.9963,1441.42,53.60,39.20,58.02,0.00,0.00,0.00,30.07,M,10.00,M,FEW,FEW,SCT,M,2400.00,2800.00,3300.00,M,M,M,M,M,M,M,M,53.60,KMEV 040715Z AUTO 00000KT 10SM FEW024 FEW028 SCT033 12/04 A3007 RMK AO2,M
BAM,2023-06-04 07:15,-116.8743,40.5990,1382.36,60.80,44.60,55.12,90.00,6.00,0.00,30.08,M,10.00,M,CLR,M,M,M,M,M,M,M,M,M,M,M,M,M,M,60.80,KBAM 040715Z AUTO 09006KT 10SM CLR 16/07 A3008 RMK AO1,M
HTH,2023-06-04 07:15,-118.6315,38.5448,1282.89,62.60,33.80,33.93,180.00,4.00,0.00,30.04,M,10.00,M,CLR,M,M,M,M,M,M,M,M,M,M,M,M,M,M,62.60,KHTH 040715Z AUTO 18004KT 10SM CLR 17/01 A3004 RMK A01,M
TMT,2023-06-04 07:15,-117.1971,39.4643,1749.34,49.00,40.30,72.06,0.00,0.00,0.00,30.14,M,10.00,M,CLR,M,M,M,M,M,M,M,M,M,M,M,M,M,M,48.90,KTMT 040715Z AUTO 00000KT 10SM CLR 09/05 A3014 RMK AO2 T00940046,M
BVU,2023-06-04 07:35,-114.8611,35.9475,671.00,78.80,30.20,16.90,310.00,5.00,0.00,29.81,M,10.00,M,CLR,M,M,M,M,M,M,M,M,M,M,M,M,M,M,78.80,KBVU 040735Z AUTO 31005KT 10SM CLR 26/M01 A2981 RMK AO2,M
CXP,2023-06-04 07:35,-119.7326,39.1923,1431.00,57.20,35.60,44.19,0.00,0.00,0.00,30.08,M,10.00,M,CLR,M,M,M,M,M,M,M,M,M,M,M,M,M,M,57.20,KCXP 040735Z AUTO 00000KT 10SM CLR 14/02 A3008 RMK AO2,M
RTS,2023-06-04 07:35,-119.8764,39.6682,1539.00,53.60,35.60,50.36,340.00,3.00,0.00,30.08,M,10.00,M,CLR,M,M,M,M,M,M,M,M,M,M,M,M,M,M,53.60,KRTS 040735Z AUTO 34003KT 10SM CLR 12/02 A3008 RMK AO2,M
MEV,2023-06-04 07:35,-119.7500,38.9963,1441.42,50.00,39.20,66.27,0.00,0.00,0.00,30.06,M,10.00,M,FEW,FEW,FEW,M,2500.00,3900.00,5000.00,M,M,M,M,M,M,M,M,50.00,KMEV 040735Z AUTO 00000KT 10SM FEW025 FEW039 FEW050 10/04 A3006 RMK AO2,M
BAM,2023-06-04 07:35,-116.8743,40.5990,1382.36,60.80,44.60,55.12,80.00,8.00,0.00,30.08,M,10.00,M,CLR,M,M,M,M,M,M,M,M,M,M,M,M,M,M,60.80,KBAM 040735Z AUTO 08008KT 10SM CLR 16/07 A3008 RMK AO1,M
HTH,2023-06-04 07:35,-118.6315,38.5448,1282.89,62.60,33.80,33.93,190.00,4.00,0.00,30.03,M,10.00,M,CLR,M,M,M,M,M,M,M,M,M,M,M,M,M,M,62.60,KHTH 040735Z AUTO 19004KT 10SM CLR 17/01 A3003 RMK A01,M
TMT,2023-06-04 07:35,-117.1971,39.4643,1749.34,50.20,40.30,68.65,0.00,0.00,0.00,30.14,M,10.00,M,CLR,M,M,M,M,M,M,M,M,M,M,M,M,M,M,50.20,KTMT 040735Z AUTO 00000KT 10SM CLR 10/05 A3014 RMK AO2 T01010046,M
DRA,2023-06-04 07:53,-116.0278,36.6206,1009.00,74.00,28.90,18.87,40.00,8.00,0.00,29.89,1006.90,10.00,M,CLR,M,M,M,M,M,M,M,M,M,M,M,M,M,M,73.90,KDRA 040753Z AUTO 04008KT 10SM CLR 23/M02 A2989 RMK AO2 SLP069 T02331017 403330189,M
LOL,2023-06-04 07:53,-118.5701,40.0684,1192.43,56.00,41.00,57.23,150.00,5.00,0.00,30.00,1013.00,10.00,M,CLR,M,M,M,M,M,M,M,M,M,M,M,M,M,M,55.90,KLOL 040753Z AUTO 15005KT 10SM CLR 13/05 A3000 RMK AO2 SLP130 T01330050 402720083,M
P68,2023-06-04 07:53,-116.0056,39.6014,1993.00,46.00,40.00,79.13,170.00,4.00,0.00,30.13,1014.70,M,M,M,M,M,M,M,M,M,M,M,M,M,M,M,M,M,43.77,KP68 040753Z AUTO 17004KT 08/04 A3013 RMK AO1 SLP147 T00780044 402110028,M
ELY,2023-06-04 07:53,-114.8453,39.2950,1909.00,41.00,33.00,73.25,180.00,6.00,0.00,30.15,1014.90,10.00,M,CLR,M,M,M,M,M,M,M,M,M,M,M,M,M,M,36.37,KELY 040753Z AUTO 18006KT 10SM CLR 05/01 A3015 RMK AO2 SLP149 T00500006 402110022,M
VGT,2023-06-04 07:53,-115.1933,36.2111,667.00,81.00,33.00,17.68,0.00,0.00,0.00,29.80,1007.90,10.00,M,CLR,M,M,M,M,M,M,M,M,M,M,M,M,M,M,79.10,KVGT 040753Z AUTO 00000KT 10SM CLR 27/01 A2980 RMK AO2 SLP079 T02720006 403610228 $,M
BVU,2023-06-04 07:55,-114.8611,35.9475,671.00,77.00,35.60,22.28,340.00,4.00,0.00,29.81,M,10.00,M,CLR,M,M,M,M,M,M,M,M,M,M,M,M,M,M,77.00,KBVU 040755Z AUTO 34004KT 10SM CLR 25/02 A2981 RMK AO2,M
CXP,2023-06-04 07:55,-119.7326,39.1923,1431.00,57.20,35.60,44.19,0.00,0.00,0.00,30.07,M,10.00,M,CLR,M,M,M,M,M,M,M,M,M,M,M,M,M,M,57.20,KCXP 040755Z AUTO 00000KT 10SM CLR 14/02 A3007 RMK AO2,M
RNO,2023-06-04 07:55,-119.7711,39.4839,1341.00,65.00,41.00,41.55,270.00,4.00,0.00,30.04,1012.00,10.00,M,FEW,SCT,M,M,10000.00,20000.00,M,M,M,M,M,M,M,M,M,64.90,KRNO 040755Z 27004KT 10SM FEW100 SCT200 18/05 A3004 RMK AO2 SLP120 T01830050 402780117 $,M
LSV,2023-06-04 07:55,-115.0343,36.2362,570.00,78.40,32.70,18.95,260.00,5.00,0.00,29.76,1005.10,10.00,M,CLR,M,M,M,M,M,M,M,M,M,M,M,M,M,M,78.40,KLSV 040755Z AUTO 26005KT 10SM CLR 26/00 A2976 RMK AO2 SLP051 T02580004 403720208 $,M
RTS,2023-06-04 07:55,-119.8764,39.6682,1539.00,55.40,35.60,47.16,330.00,3.00,0.00,30.08,M,10.00,M,CLR,M,M,M,M,M,M,M,M,M,M,M,M,M,M,55.40,KRTS 040755Z AUTO 33003KT 10SM CLR 13/02 A3008 RMK AO2,M
MEV,2023-06-04 07:55,-119.7500,38.9963,1441.42,48.20,39.20,70.88,M,4.00,0.00,30.06,M,10.00,M,FEW,FEW,M,M,2300.00,6000.00,M,M,M,M,M,M,M,M,M,46.34,KMEV 040755Z AUTO VRB04KT 10SM FEW023 FEW060 09/04 A3006 RMK AO2,M
BAM,2023-06-04 07:55,-116.8743,40.5990,1382.36,59.00,44.60,58.77,110.00,4.00,0.00,30.08,M,10.00,M,CLR,M,M,M,M,M,M,M,M,M,M,M,M,M,M,59.00,KBAM 040755Z AUTO 11004KT 10SM CLR 15/07 A3008 RMK AO1,M
HTH,2023-06-04 07:55,-118.6315,38.5448,1282.89,60.80,33.80,36.16,200.00,4.00,0.00,30.03,M,10.00,M,CLR,M,M,M,M,M,M,M,M,M,M,M,M,M,M,60.80,KHTH 040755Z AUTO 20004KT 10SM CLR 16/01 A3003 RMK A01,M
TMT,2023-06-04 07:55,-117.1971,39.4643,1749.34,48.40,40.30,73.42,0.00,0.00,0.00,30.14,M,10.00,M,CLR,M,M,M,M,M,M,M,M,M,M,M,M,M,M,48.40,KTMT 040755Z AUTO 00000KT 10SM CLR 09/05 A3014 RMK AO2 T00910046 402250000,M
INS,2023-06-04 07:55,-115.6733,36.5872,955.00,72.00,23.40,15.97,290.00,5.00,0.00,29.88,1007.10,10.00,M,CLR,M,M,M,M,M,M,M,M,M,M,M,M,M,M,72.10,KINS 040755Z AUTO 29005KT 10SM CLR 22/M05 A2988 RMK AO2 SLP071 T02231048 403340166 $,M
EKO,2023-06-04 07:56,-115.7860,40.8242,1367.00,51.00,48.00,89.09,90.00,4.00,0.00,30.11,1016.10,10.00,M,CLR,M,M,M,M,M,M,M,M,M,M,M,M,M,M,51.10,KEKO 040756Z AUTO 09004KT 10SM CLR 11/09 A3011 RMK AO2 SLP161 T01060089 402000078 $,M
NFL,2023-06-04 07:56,-118.7010,39.4166,1199.00,61.00,45.00,55.57,290.00,3.00,0.00,30.00,1013.00,10.00,M,CLR,M,M,M,M,M,M,M,M,M,M,M,M,M,M,61.00,KNFL 040756Z AUTO 29003KT 10SM CLR 16/07 A3000 RMK AO2 SLP130 T01610072 402780094,M
HND,2023-06-04 07:56,-115.1344,35.9729,742.79,80.00,32.00,17.42,190.00,7.00,0.00,29.85,1009.20,10.00,M,CLR,M,M,M,M,M,M,M,M,M,M,M,M,M,M,78.63,KHND 040756Z 19007KT 10SM CLR 27/00 A2985 RMK AO2 SLP092 T02670000,M
TPH,2023-06-04 07:56,-117.0904,38.0505,1654.00,60.00,36.00,40.46,10.00,9.00,0.00,30.08,1011.90,10.00,M,CLR,M,M,M,M,M,M,M,M,M,M,M,M,M,M,60.10,KTPH 040756Z AUTO 01009KT 10SM CLR 16/02 A3008 RMK AO2 SLP119 T01560022 402720094,M
LAS,2023-06-04 07:56,-115.1634,36.0719,663.00,83.00,30.90,15.21,210.00,4.00,0.00,29.80,1006.40,10.00,M,CLR,M,M,M,M,M,M,M,M,M,M,M,M,M,M,80.33,KLAS 040756Z 21004KT 10SM CLR 28/M01 A2980 RMK AO2 SLP064 T02831006 403560233,M
WMC,2023-06-04 07:56,-117.8072,40.9019,1315.00,55.00,40.00,56.66,100.00,3.00,0.00,30.05,1014.00,10.00,M,CLR,M,M,M,M,M,M,M,M,M,M,M,M,M,M,55.00,KWMC 040756Z AUTO 10003KT 10SM CLR 13/04 A3005 RMK AO2 SLP140 T01280044 402720044,M
BVU,2023-06-04 08:15,-114.8611,35.9475,671.00,77.00,35.60,22.28,350.00,4.00,0.00,29.81,M,10.00,M,CLR,M,M,M,M,M,M,M,M,M,M,M,M,M,M,77.00,KBVU 040815Z AUTO 35004KT 10SM CLR 25/02 A2981 RMK AO2,M
CXP,2023-06-04 08:15,-119.7326,39.1923,1431.00,57.20,35.60,44.19,0.00,0.00,0.00,30.07,M,10.00,M,CLR,M,M,M,M,M,M,M,M,M,M,M,M,M,M,57.20,KCXP 040815Z AUTO 00000KT 10SM CLR 14/02 A3007 RMK AO2,M
RTS,2023-06-04 08:15,-119.8764,39.6682,1539.00,53.60,37.40,54.07,340.00,4.00,0.00,30.08,M,10.00,M,CLR,M,M,M,M,M,M,M,M,M,M,M,M,M,M,53.60,KRTS 040815Z AUTO 34004KT 10SM CLR 12/03 A3008 RMK AO2,M
MEV,2023-06-04 08:15,-119.7500,38.9963,1441.42,46.40,39.20,75.84,120.00,6.00,0.00,30.06,M,10.00,M,FEW,FEW,SCT,M,2300.00,2800.00,6000.00,M,M,M,M,M,M,M,M,42.87,KMEV 040815Z AUTO 12006KT 10SM FEW023 FEW028 SCT060 08/04 A3006 RMK AO2,M
BAM,2023-06-04 08:15,-116.8743,40.5990,1382.36,55.40,42.80,62.46,120.00,3.00,0.00,30.08,M,10.00,M,CLR,M,M,M,M,M,M,M,M,M,M,M,M,M,M,55.40,KBAM 040815Z AUTO 12003KT 10SM CLR 13/06 A3008 RMK AO1,M
HTH,2023-06-04 08:15,-118.6315,38.5448,1282.89,62.60,33.80,33.93,200.00,3.00,0.00,30.03,M,10.00,M,CLR,M,M,M,M,M,M,M,M,M,M,M,M,M,M,62.60,KHTH 040815Z AUTO 20003KT 10SM CLR 17/01 A3003 RMK A01,M
TMT,2023-06-04 08:15,-117.1971,39.4643,1749.34,45.50,38.80,77.26,210.00,3.00,0.00,30.14,M,10.00,M,CLR,M,M,M,M,M,M,M,M,M,M,M,M,M,M,44.12,KTMT 040815Z AUTO 21003KT 10SM CLR 08/04 A3014 RMK AO2 T00750038,M
BVU,2023-06-04 08:35,-114.8611,35.9475,671.00,75.20,35.60,23.66,350.00,5.00,0.00,29.81,M,10.00,M,CLR,M,M,M,M,M,M,M,M,M,M,M,M,M,M,75.20,KBVU 040835Z AUTO 35005KT 10SM CLR 24/02 A2981 RMK AO2,M
CXP,2023-06-04 08:35,-119.7326,39.1923,1431.00,55.40,33.80,43.90,0.00,0.00,0.00,30.08,M,10.00,M,CLR,M,M,M,M,M,M,M,M,M,M,M,M,M,M,55.40,KCXP 040835Z AUTO 00000KT 10SM CLR 13/01 A3008 RMK AO2,M
RTS,2023-06-04 08:35,-119.8764,39.6682,1539.00,51.80,37.40,57.77,330.00,5.00,0.00,30.08,M,10.00,M,CLR,M,M,M,M,M,M,M,M,M,M,M,M,M,M,51.80,KRTS 040835Z AUTO 33005KT 10SM CLR 11/03 A3008 RMK AO2,M
MEV,2023-06-04 08:35,-119.7500,38.9963,1441.42,48.20,39.20,70.88,110.00,6.00,0.00,30.07,M,10.00,M,FEW,FEW,SCT,M,2400.00,2800.00,4400.00,M,M,M,M,M,M,M,M,45.04,KMEV 040835Z AUTO 11006KT 10SM FEW024 FEW028 SCT044 09/04 A3007 RMK AO2,M
BAM,2023-06-04 08:35,-116.8743,40.5990,1382.36,57.20,44.60,62.69,0.00,0.00,0.00,30.08,M,10.00,M,CLR,M,M,M,M,M,M,M,M,M,M,M,M,M,M,57.20,KBAM 040835Z AUTO 00000KT 10SM CLR 14/07 A3008 RMK AO1,M
HTH,2023-06-04 08:35,-118.6315,38.5448,1282.89,59.00,33.80,38.56,190.00,3.00,0.00,30.03,M,10.00,M,CLR,M,M,M,M,M,M,M,M,M,M,M,M,M,M,59.00,KHTH 040835Z AUTO 19003KT 10SM CLR 15/01 A3003 RMK A01,M
TMT,2023-06-04 08:35,-117.1971,39.4643,1749.34,47.00,39.60,75.03,250.00,4.00,0.00,30.14,M,10.00,M,CLR,M,M,M,M,M,M,M,M,M,M,M,M,M,M,45.05,KTMT 040835Z AUTO 25004KT 10SM CLR 08/04 A3014 RMK AO2 T00840042,M
P68,2023-06-04 08:53,-116.0056,39.6014,1993.00,45.00,39.00,79.36,170.00,5.00,0.00,30.14,1014.80,M,M,M,M,M,M,M,M,M,M,M,M,M,M,M,M,M,41.83,KP68 040853Z AUTO 17005KT 07/04 A3014 RMK AO1 SLP148 T00720039 55002,M
DRA,2023-06-04 08:53,-116.0278,36.6206,1009.00,74.00,30.90,20.47,40.00,12.00,0.00,29.89,1006.90,10.00,M,CLR,M,M,M,M,M,M,M,M,M,M,M,M,M,M,73.90,KDRA 040853Z AUTO 04012KT 10SM CLR 23/M01 A2989 RMK AO2 SLP069 T02331006 51004,M
VGT,2023-06-04 08:53,-115.1933,36.2111,667.00,80.00,34.00,18.88,300.00,3.00,0.00,29.80,1008.00,10.00,M,CLR,M,M,M,M,M,M,M,M,M,M,M,M,M,M,78.70,KVGT 040853Z AUTO 30003KT 10SM CLR 27/01 A2980 RMK AO2 SLP080 T02670011 53004 $,M
LOL,2023-06-04 08:53,-118.5701,40.0684,1192.43,58.00,41.00,53.24,0.00,0.00,0.00,30.01,1013.00,10.00,M,CLR,M,M,M,M,M,M,M,M,M,M,M,M,M,M,57.90,KLOL 040853Z AUTO 00000KT 10SM CLR 14/05 A3001 RMK AO2 SLP130 T01440050 51001,M
ELY,2023-06-04 08:53,-114.8453,39.2950,1909.00,42.00,35.00,76.04,170.00,7.00,0.00,30.15,1014.60,10.00,M,CLR,M,M,M,M,M,M,M,M,M,M,M,M,M,M,37.09,KELY 040853Z AUTO 17007KT 10SM CLR 06/02 A3015 RMK AO2 SLP146 T00560017 58002,M
BVU,2023-06-04 08:55,-114.8611,35.9475,671.00,75.20,33.80,22.02,340.00,5.00,0.00,29.81,M,10.00,M,CLR,M,M,M,M,M,M,M,M,M,M,M,M,M,M,75.20,KBVU 040855Z AUTO 34005KT 10SM CLR 24/01 A2981 RMK AO2,M
CXP,2023-06-04 08:55,-119.7326,39.1923,1431.00,55.40,35.60,47.16,0.00,0.00,0.00,30.08,M,10.00,M,CLR,M,M,M,M,M,M,M,M,M,M,M,M,M,M,55.40,KCXP 040855Z AUTO 00000KT 10SM CLR 13/02 A3008 RMK AO2,M
INS,2023-06-04 08:55,-115.6733,36.5872,955.00,72.70,22.30,14.94,280.00,3.00,0.00,29.89,1007.20,10.00,M,CLR,M,M,M,M,M,M,M,M,M,M,M,M,M,M,72.70,KINS 040855Z AUTO 28003KT 10SM CLR 23/M05 A2989 RMK AO2 SLP072 T02261054 52007 $,M
RNO,2023-06-04 08:55,-119.7711,39.4839,1341.00,64.00,41.00,42.88,270.00,4.00,0.00,30.04,1011.90,10.00,M,FEW,SCT,M,M,10000.00,20000.00,M,M,M,M,M,M,M,M,M,64.00,KRNO 040855Z 27004KT 10SM FEW100 SCT200 18/05 A3004 RMK AO2 SLP119 T01780050 51001 $,M
RTS,2023-06-04 08:55,-119.8764,39.6682,1539.00,51.80,35.60,53.81,360.00,6.00,0.00,30.08,M,10.00,M,CLR,M,M,M,M,M,M,M,M,M,M,M,M,M,M,51.80,KRTS 040855Z AUTO 36006KT 10SM CLR 11/02 A3008 RMK AO2,M
MEV,2023-06-04 08:55,-119.7500,38.9963,1441.42,48.20,41.00,76.01,100.00,6.00,0.00,30.06,M,10.00,M,FEW,FEW,SCT,M,3400.00,4400.00,9000.00,M,M,M,M,M,M,M,M,45.04,KMEV 040855Z AUTO 10006KT 10SM FEW034 FEW044 SCT090 09/05 A3006 RMK AO2,M
BAM,2023-06-04 08:55,-116.8743,40.5990,1382.36,55.40,44.60,66.91,50.00,6.00,0.00,30.08,M,10.00,M,SCT,M,M,M,12000.00,M,M,M,M,M,M,M,M,M,M,55.40,KBAM 040855Z AUTO 05006KT 10SM SCT120 13/07 A3008 RMK AO1,M
HTH,2023-06-04 08:55,-118.6315,38.5448,1282.89,60.80,32.00,33.64,200.00,6.00,0.00,30.03,M,10.00,M,CLR,M,M,M,M,M,M,M,M,M,M,M,M,M,M,60.80,KHTH 040855Z AUTO 20006KT 10SM CLR 16/M00 A3003 RMK A01,M
TMT,2023-06-04 08:55,-117.1971,39.4643,1749.34,46.60,41.40,81.99,230.00,7.00,0.00,30.14,M,10.00,M,CLR,M,M,M,M,M,M,M,M,M,M,M,M,M,M,42.58,KTMT 040855Z AUTO 23007KT 10SM CLR 08/05 A3014 RMK AO2 T00810052,M
LSV,2023-06-04 08:55,-115.0343,36.2362,570.00,76.30,33.40,20.89,10.00,10.00,0.00,29.77,1005.50,10.00,M,CLR,M,M,M,M,M,M,M,M,M,M,M,M,M,M,76.30,KLSV 040855Z AUTO 01010KT 10SM CLR 25/01 A2977 RMK AO2 SLP055 T02460008 53007 $,M
WMC,2023-06-04 08:56,-117.8072,40.9019,1315.00,56.00,43.00,61.81,100.00,7.00,0.00,30.05,1013.70,10.00,M,CLR,M,M,M,M,M,M,M,M,M,M,M,M,M,M,55.90,KWMC 040856Z AUTO 10007KT 10SM CLR 13/06 A3005 RMK AO2 SLP137 T01330061 50002,M
NFL,2023-06-04 08:56,-118.7010,39.4166,1199.00,59.00,45.00,59.67,0.00,0.00,0.00,30.00,1013.10,10.00,M,CLR,M,M,M,M,M,M,M,M,M,M,M,M,M,M,59.00,KNFL 040856Z AUTO 00000KT 10SM CLR 15/07 A3000 RMK AO2 SLP131 T01500072 51002,M
HND,2023-06-04 08:56,-115.1344,35.9729,742.79,79.00,30.00,16.66,190.00,7.00,0.00,29.85,1009.20,10.00,M,CLR,M,M,M,M,M,M,M,M,M,M,M,M,M,M,79.00,KHND 040856Z 19007KT 10SM CLR 26/M01 A2985 RMK AO2 SLP092 T02611011 51002,M
TPH,2023-06-04 08:56,-117.0904,38.0505,1654.00,57.00,37.00,47.04,360.00,10.00,0.00,30.09,1012.40,10.00,M,CLR,M,M,M,M,M,M,M,M,M,M,M,M,M,M,57.00,KTPH 040856Z AUTO 36010KT 10SM CLR 14/03 A3009 RMK AO2 SLP124 T01390028 52006,M
LAS,2023-06-04 08:56,-115.1634,36.0719,663.00,83.00,30.90,15.21,220.00,7.00,0.00,29.81,1006.50,10.00,M,CLR,M,M,M,M,M,M,M,M,M,M,M,M,M,M,80.33,KLAS 040856Z 22007KT 10SM CLR 28/M01 A2981 RMK AO2 SLP065 T02831006 51004,M
EKO,2023-06-04 08:56,-115.7860,40.8242,1367.00,50.00,47.00,89.04,0.00,0.00,0.00,30.10,1016.50,10.00,M,CLR,M,M,M,M,M,M,M,M,M,M,M,M,M,M,50.00,KEKO 040856Z AUTO 00000KT 10SM CLR 10/08 A3010 RMK AO2 SLP165 T01000083 58004 $,M
BVU,2023-06-04 09:15,-114.8611,35.9475,671.00,75.20,33.80,22.02,10.00,4.00,0.00,29.81,M,10.00,M,CLR,M,M,M,M,M,M,M,M,M,M,M,M,M,M,75.20,KBVU 040915Z AUTO 01004KT 10SM CLR 24/01 A2981 RMK AO2,M
CXP,2023-06-04 09:15,-119.7326,39.1923,1431.00,57.20,35.60,44.19,0.00,0.00,0.00,30.07,M,10.00,M,CLR,M,M,M,M,M,M,M,M,M,M,M,M,M,M,57.20,KCXP 040915Z AUTO 00000KT 10SM CLR 14/02 A3007 RMK AO2,M
RTS,2023-06-04 09:15,-119.8764,39.6682,1539.00,53.60,35.60,50.36,0.00,0.00,0.00,30.08,M,10.00,M,CLR,M,M,M,M,M,M,M,M,M,M,M,M,M,M,53.60,KRTS 040915Z AUTO 00000KT 10SM CLR 12/02 A3008 RMK AO2,M
MEV,2023-06-04 09:15,-119.7500,38.9963,1441.42,46.40,39.20,75.84,120.00,4.00,0.00,30.06,M,10.00,M,BKN,M,M,M,8500.00,M,M,M,M,M,M,M,M,M,M,44.24,KMEV 040915Z AUTO 12004KT 10SM BKN085 08/04 A3006 RMK AO2,M
BAM,2023-06-04 09:15,-116.8743,40.5990,1382.36,55.40,44.60,66.91,80.00,6.00,0.00,30.08,M,10.00,M,SCT,M,M,M,12000.00,M,M,M,M,M,M,M,M,M,M,55.40,KBAM 040915Z AUTO 08006KT 10SM SCT120 13/07 A3008 RMK AO1,M
HTH,2023-06-04 09:15,-118.6315,38.5448,1282.89,59.00,32.00,35.87,0.00,0.00,0.00,30.03,M,10.00,M,CLR,M,M,M,M,M,M,M,M,M,M,M,M,M,M,59.00,KHTH 040915Z AUTO 00000KT 10SM CLR 15/00 A3003 RMK A01,M
TMT,2023-06-04 09:15,-117.1971,39.4643,1749.34,46.80,41.00,80.12,230.00,6.00,0.00,30.14,M,10.00,M,CLR,M,M,M,M,M,M,M,M,M,M,M,M,M,M,43.35,KTMT 040915Z AUTO 23006KT 10SM CLR 08/05 A3014 RMK AO2 T00820050,M
BVU,2023-06-04 09:35,-114.8611,35.9475,671.00,73.40,41.00,31.05,50.00,6.00,0.00,29.80,M,10.00,M,CLR,M,M,M,M,M,M,M,M,M,M,M,M,M,M,73.40,KBVU 040935Z AUTO 05006KT 10SM CLR 23/05 A2980 RMK AO2,M
CXP,2023-06-04 09:35,-119.7326,39.1923,1431.00,55.40,37.40,50.64,0.00,0.00,0.00,30.08,M,10.00,M,CLR,M,M,M,M,M,M,M,M,M,M,M,M,M,M,55.40,KCXP 040935Z AUTO 00000KT 10SM CLR 13/03 A3008 RMK AO2,M
RTS,2023-06-04 09:35,-119.8764,39.6682,1539.00,48.20,37.40,66.05,350.00,3.00,0.00,30.08,M,10.00,M,CLR,M,M,M,M,M,M,M,M,M,M,M,M,M,M,47.21,KRTS 040935Z AUTO 35003KT 10SM CLR 09/03 A3008 RMK AO2,M
MEV,2023-06-04 09:35,-119.7500,38.9963,1441.42,44.60,37.40,75.68,120.00,7.00,0.00,30.06,M,10.00,M,BKN,M,M,M,8500.00,M,M,M,M,M,M,M,M,M,M,40.14,KMEV 040935Z AUTO 12007KT 10SM BKN085 07/03 A3006 RMK AO2,M
BAM,2023-06-04 09:35,-116.8743,40.5990,1382.36,55.40,42.80,62.46,0.00,0.00,0.00,30.08,M,10.00,M,SCT,M,M,M,11000.00,M,M,M,M,M,M,M,M,M,M,55.40,KBAM 040935Z AUTO 00000KT 10SM SCT110 13/06 A3008 RMK AO1,M
HTH,2023-06-04 09:35,-118.6315,38.5448,1282.89,59.00,32.00,35.87,250.00,3.00,0.00,30.03,M,10.00,M,CLR,M,M,M,M,M,M,M,M,M,M,M,M,M,M,59.00,KHTH 040935Z AUTO 25003KT 10SM CLR 15/M00 A3003 RMK A01,M
TMT,2023-06-04 09:35,-117.1971,39.4643,1749.34,46.00,41.50,84.51,260.00,3.00,0.00,30.14,M,10.00,M,CLR,M,M,M,M,M,M,M,M,M,M,M,M,M,M,44.58,KTMT 040935Z AUTO 26003KT 10SM CLR 08/05 A3014 RMK AO2 T00770053,M
P68,2023-06-04 09:53,-116.0056,39.6014,1993.00,44.00,39.00,82.12,190.00,3.00,0.00,30.13,1014.50,M,M,M,M,M,M,M,M,M,M,M,M,M,M,M,M,M,42.52,KP68 040953Z AUTO 19003KT 07/04 A3013 RMK AO1 SLP145 T00670039,M
DRA,2023-06-04 09:53,-116.0278,36.6206,1009.00,73.00,32.00,22.06,0.00,0.00,0.00,29.90,1007.50,10.00,M,CLR,M,M,M,M,M,M,M,M,M,M,M,M,M,M,73.00,KDRA 040953Z AUTO 00000KT 10SM CLR 23/00 A2990 RMK AO2 SLP075 T02280000,M
VGT,2023-06-04 09:53,-115.1933,36.2111,667.00,81.00,30.90,16.18,340.00,7.00,0.00,29.81,1008.30,10.00,M,CLR,M,M,M,M,M,M,M,M,M,M,M,M,M,M,79.04,KVGT 040953Z AUTO 34007KT 10SM CLR 27/M01 A2981 RMK AO2 SLP083 T02721006 $,M
ELY,2023-06-04 09:53,-114.8453,39.2950,1909.00,39.00,33.00,79.17,250.00,3.00,0.00,30.15,1014.60,10.00,M,CLR,M,M,M,M,M,M,M,M,M,M,M,M,M,M,36.69,KELY 040953Z AUTO 25003KT 10SM CLR 04/01 A3015 RMK AO2 SLP146 T00390006,M
LOL,2023-06-04 09:53,-118.5701,40.0684,1192.43,52.00,42.00,68.86,110.00,4.00,0.00,30.01,1013.20,10.00,M,CLR,M,M,M,M,M,M,M,M,M,M,M,M,M,M,52.00,KLOL 040953Z AUTO 11004KT 10SM CLR 11/06 A3001 RMK AO2 SLP132 T01110056,M
BVU,2023-06-04 09:55,-114.8611,35.9475,671.00,73.40,37.40,26.98,30.00,5.00,0.00,29.80,M,10.00,M,CLR,M,M,M,M,M,M,M,M,M,M,M,M,M,M,73.40,KBVU 040955Z AUTO 03005KT 10SM CLR 23/03 A2980 RMK AO2,M
CXP,2023-06-04 09:55,-119.7326,39.1923,1431.00,53.60,35.60,50.36,0.00,0.00,0.00,30.07,M,10.00,M,CLR,M,M,M,M,M,M,M,M,M,M,M,M,M,M,53.60,KCXP 040955Z AUTO 00000KT 10SM CLR 12/02 A3007 RMK AO2,M
INS,2023-06-04 09:55,-115.6733,36.5872,955.00,70.50,23.50,16.93,0.00,0.00,0.00,29.90,1007.70,10.00,M,CLR,M,M,M,M,M,M,M,M,M,M,M,M,M,M,70.50,KINS 040955Z AUTO 00000KT 10SM CLR 21/M05 A2990 RMK AO2 SLP077 T02141047 $,M
RNO,2023-06-04 09:55,-119.7711,39.4839,1341.00,62.00,41.00,45.84,280.00,3.00,0.00,30.04,1012.00,10.00,M,SCT,M,M,M,20000.00,M,M,M,M,M,M,M,M,M,M,62.10,KRNO 040955Z 28003KT 10SM SCT200 17/05 A3004 RMK AO2 SLP120 T01670050 $,M
RTS,2023-06-04 09:55,-119.8764,39.6682,1539.00,50.00,35.60,57.52,340.00,5.00,0.00,30.08,M,10.00,M,CLR,M,M,M,M,M,M,M,M,M,M,M,M,M,M,50.00,KRTS 040955Z AUTO 34005KT 10SM CLR 10/02 A3008 RMK AO2,M
MEV,2023-06-04 09:55,-119.7500,38.9963,1441.42,46.40,39.20,75.84,100.00,5.00,0.00,30.06,M,10.00,M,OVC,M,M,M,8500.00,M,M,M,M,M,M,M,M,M,M,43.50,KMEV 040955Z AUTO 10005KT 10SM OVC085 08/04 A3006 RMK AO2,M
BAM,2023-06-04 09:55,-116.8743,40.5990,1382.36,53.60,41.00,62.23,0.00,0.00,0.00,30.08,M,10.00,M,SCT,M,M,M,11000.00,M,M,M,M,M,M,M,M,M,M,53.60,KBAM 040955Z AUTO 00000KT 10SM SCT110 12/05 A3008 RMK AO1,M
HTH,2023-06-04 09:55,-118.6315,38.5448,1282.89,59.00,32.00,35.87,0.00,0.00,0.00,30.03,M,10.00,M,CLR,M,M,M,M,M,M,M,M,M,M,M,M,M,M,59.00,KHTH 040955Z AUTO 00000KT 10SM CLR 15/M00 A3003 RMK A01,M
TMT,2023-06-04 09:55,-117.1971,39.4643,1749.34,43.70,39.60,85.36,0.00,0.00,0.00,30.14,M,10.00,M,CLR,M,M,M,M,M,M,M,M,M,M,M,M,M,M,43.70,KTMT 040955Z AUTO 00000KT 10SM CLR 07/04 A3014 RMK AO2 T00650042,M
LSV,2023-06-04 09:55,-115.0343,36.2362,570.00,77.00,34.00,20.91,20.00,6.00,0.00,29.77,1005.50,10.00,M,CLR,M,M,M,M,M,M,M,M,M,M,M,M,M,M,77.00,KLSV 040955Z AUTO 02006KT 10SM CLR 25/01 A2977 RMK AO2 SLP055 T02500011 $,M
EKO,2023-06-04 09:56,-115.7860,40.8242,1367.00,49.00,46.00,89.67,0.00,0.00,0.00,30.10,1016.70,10.00,M,BKN,M,M,M,10000.00,M,M,M,M,M,M,M,M,M,M,48.90,KEKO 040956Z AUTO 00000KT 10SM BKN100 09/08 A3010 RMK AO2 SLP167 T00940078 $,M
WMC,2023-06-04 09:56,-117.8072,40.9019,1315.00,55.00,43.00,63.86,90.00,8.00,0.00,30.05,1013.80,10.00,M,CLR,M,M,M,M,M,M,M,M,M,M,M,M,M,M,55.00,KWMC 040956Z AUTO 09008KT 10SM CLR 13/06 A3005 RMK AO2 SLP138 T01280061,M
HND,2023-06-04 09:56,-115.1344,35.9729,742.79,78.00,30.00,17.16,220.00,5.00,0.00,29.85,1009.20,10.00,M,CLR,M,M,M,M,M,M,M,M,M,M,M,M,M,M,78.10,KHND 040956Z 22005KT 10SM CLR 26/M01 A2985 RMK AO2 SLP092 T02561011,M
TPH,2023-06-04 09:56,-117.0904,38.0505,1654.00,56.00,37.00,48.95,350.00,10.00,0.00,30.08,1012.20,10.00,M,CLR,M,M,M,M,M,M,M,M,M,M,M,M,M,M,55.90,KTPH 040956Z AUTO 35010KT 10SM CLR 13/03 A3008 RMK AO2 SLP122 T01330028,M
NFL,2023-06-04 09:56,-118.7010,39.4166,1199.00,57.00,44.00,61.95,220.00,3.00,0.00,30.00,1013.00,10.00,M,CLR,M,M,M,M,M,M,M,M,M,M,M,M,M,M,57.00,KNFL 040956Z AUTO 22003KT 10SM CLR 14/07 A3000 RMK AO2 SLP130 T01390067,M
LAS,2023-06-04 09:56,-115.1634,36.0719,663.00,80.00,33.00,18.21,80.00,3.00,0.00,29.82,1006.90,10.00,M,CLR,M,M,M,M,M,M,M,M,M,M,M,M,M,M,78.67,KLAS 040956Z 08003KT 10SM CLR 27/01 A2982 RMK AO2 SLP069 T02670006,M
BVU,2023-06-04 10:15,-114.8611,35.9475,671.00,73.40,37.40,26.98,20.00,7.00,0.00,29.81,M,10.00,M,CLR,M,M,M,M,M,M,M,M,M,M,M,M,M,M,73.40,KBVU 041015Z AUTO 02007KT 10SM CLR 23/03 A2981 RMK AO2,M
CXP,2023-06-04 10:15,-119.7326,39.1923,1431.00,51.80,37.40,57.77,0.00,0.00,0.00,30.07,M,10.00,M,CLR,M,M,M,M,M,M,M,M,M,M,M,M,M,M,51.80,KCXP 041015Z AUTO 00000KT 10SM CLR 11/03 A3007 RMK AO2,M
RTS,2023-06-04 10:15,-119.8764,39.6682,1539.00,50.00,35.60,57.52,330.00,4.00,0.00,30.08,M,10.00,M,CLR,M,M,M,M,M,M,M,M,M,M,M,M,M,M,50.00,KRTS 041015Z AUTO 33004KT 10SM CLR 10/02 A3008 RMK AO2,M
MEV,2023-06-04 10:15,-119.7500,38.9963,1441.42,48.20,39.20,70.88,0.00,0.00,0.00,30.06,M,10.00,M,OVC,M,M,M,8500.00,M,M,M,M,M,M,M,M,M,M,48.20,KMEV 041015Z AUTO 00000KT 10SM OVC085 09/04 A3006 RMK AO2,M
BAM,2023-06-04 10:15,-116.8743,40.5990,1382.36,55.40,42.80,62.46,120.00,3.00,0.00,30.08,M,10.00,M,SCT,M,M,M,11000.00,M,M,M,M,M,M,M,M,M,M,55.40,KBAM 041015Z AUTO 12003KT 10SM SCT110 13/06 A3008 RMK AO1,M
HTH,2023-06-04 10:15,-118.6315,38.5448,1282.89,59.00,33.80,38.56,240.00,4.00,0.00,30.03,M,10.00,M,CLR,M,M,M,M,M,M,M,M,M,M,M,M,M,M,59.00,KHTH 041015Z AUTO 24004KT 10SM CLR 15/01 A3003 RMK A01,M
BVU,2023-06-04 10:35,-114.8611,35.9475,671.00,75.20,32.00,20.49,30.00,6.00,0.00,29.82,M,10.00,M,CLR,M,M,M,M,M,M,M,M,M,M,M,M,M,M,75.20,KBVU 041035Z AUTO 03006KT 10SM CLR 24/00 A2982 RMK AO2,M
CXP,2023-06-04 10:35,-119.7326,39.1923,1431.00,51.80,41.00,66.48,0.00,0.00,0.00,30.07,M,10.00,M,CLR,M,M,M,M,M,M,M,M,M,M,M,M,M,M,51.80,KCXP 041035Z AUTO 00000KT 10SM CLR 11/05 A3007 RMK AO2,M
RTS,2023-06-04 10:35,-119.8764,39.6682,1539.00,50.00,35.60,57.52,340.00,5.00,0.00,30.08,M,10.00,M,CLR,M,M,M,M,M,M,M,M,M,M,M,M,M,M,50.00,KRTS 041035Z AUTO 34005KT 10SM CLR 10/02 A3008 RMK AO2,M
MEV,2023-06-04 10:35,-119.7500,38.9963,1441.42,44.60,37.40,75.68,0.00,0.00,0.00,30.06,M,10.00,M,OVC,M,M,M,8500.00,M,M,M,M,M,M,M,M,M,M,44.60,KMEV 041035Z AUTO 00000KT 10SM OVC085 07/03 A3006 RMK AO2,M
BAM,2023-06-04 10:35,-116.8743,40.5990,1382.36,51.80,41.00,66.48,40.00,6.00,0.00,30.08,M,10.00,M,SCT,M,M,M,8000.00,M,M,M,M,M,M,M,M,M,M,51.80,KBAM 041035Z AUTO 04006KT 10SM SCT080 11/05 A3008 RMK AO1,M
HTH,2023-06-04 10:35,-118.6315,38.5448,1282.89,57.20,33.80,41.13,260.00,3.00,0.00,30.03,M,10.00,M,CLR,M,M,M,M,M,M,M,M,M,M,M,M,M,M,57.20,KHTH 041035Z AUTO 26003KT 10SM CLR 14/01 A3003 RMK A01,M
TMT,2023-06-04 10:35,-117.1971,39.4643,1749.34,40.00,36.70,88.22,0.00,0.00,0.00,30.14,M,10.00,M,CLR,M,M,M,M,M,M,M,M,M,M,M,M,M,M,39.90,KTMT 041035Z AUTO 00000KT 10SM CLR 04/03 A3014 RMK AO2 T00440026,M
P68,2023-06-04 10:53,-116.0056,39.6014,1993.00,41.00,37.00,85.54,170.00,4.00,0.00,30.12,1014.80,M,M,M,M,M,M,M,M,M,M,M,M,M,M,M,M,M,37.93,KP68 041053Z AUTO 17004KT 05/03 A3012 RMK AO1 SLP148 T00500028,M
DRA,2023-06-04 10:53,-116.0278,36.6206,1009.00,72.00,32.00,22.82,40.00,11.00,0.00,29.90,1007.70,10.00,M,CLR,M,M,M,M,M,M,M,M,M,M,M,M,M,M,72.00,KDRA 041053Z AUTO 04011KT 10SM CLR 22/00 A2990 RMK AO2 SLP077 T02220000,M
ELY,2023-06-04 10:53,-114.8453,39.2950,1909.00,39.00,34.00,82.08,190.00,7.00,0.00,30.15,1015.30,10.00,M,CLR,M,M,M,M,M,M,M,M,M,M,M,M,M,M,33.31,KELY 041053Z AUTO 19007KT 10SM CLR 04/01 A3015 RMK AO2 SLP153 T00390011,M
VGT,2023-06-04 10:53,-115.1933,36.2111,667.00,79.00,30.00,16.66,30.00,3.00,0.00,29.82,1008.70,10.00,M,CLR,M,M,M,M,M,M,M,M,M,M,M,M,M,M,79.00,KVGT 041053Z AUTO 03003KT 10SM CLR 26/M01 A2982 RMK AO2 SLP087 T02611011 $,M
LOL,2023-06-04 10:53,-118.5701,40.0684,1192.43,51.00,42.00,71.19,320.00,3.00,0.00,30.01,1013.40,10.00,M,CLR,M,M,M,M,M,M,M,M,M,M,M,M,M,M,51.10,KLOL 041053Z AUTO 32003KT 10SM CLR 11/06 A3001 RMK AO2 SLP134 T01060056,M
BVU,2023-06-04 10:55,-114.8611,35.9475,671.00,75.20,35.60,23.66,20.00,7.00,0.00,29.82,M,10.00,M,CLR,M,M,M,M,M,M,M,M,M,M,M,M,M,M,75.20,KBVU 041055Z AUTO 02007KT 10SM CLR 24/02 A2982 RMK AO2,M
CXP,2023-06-04 10:55,-119.7326,39.1923,1431.00,51.80,41.00,66.48,0.00,0.00,0.00,30.07,M,10.00,M,CLR,M,M,M,M,M,M,M,M,M,M,M,M,M,M,51.80,KCXP 041055Z AUTO 00000KT 10SM CLR 11/05 A3007 RMK AO2,M
INS,2023-06-04 10:55,-115.6733,36.5872,955.00,65.00,23.00,19.97,290.00,6.00,0.00,29.90,1008.00,10.00,M,CLR,M,M,M,M,M,M,M,M,M,M,M,M,M,M,65.10,KINS 041055Z AUTO 29006KT 10SM CLR 18/M05 A2990 RMK AO2 SLP080 T01841050 $,M
RTS,2023-06-04 10:55,-119.8764,39.6682,1539.00,48.20,35.60,61.52,340.00,5.00,0.00,30.08,M,10.00,M,CLR,M,M,M,M,M,M,M,M,M,M,M,M,M,M,45.63,KRTS 041055Z AUTO 34005KT 10SM CLR 09/02 A3008 RMK AO2,M
MEV,2023-06-04 10:55,-119.7500,38.9963,1441.42,42.80,37.40,81.07,50.00,5.00,0.00,30.06,M,10.00,M,BKN,M,M,M,8500.00,M,M,M,M,M,M,M,M,M,M,39.22,KMEV 041055Z AUTO 05005KT 10SM BKN085 06/03 A3006 RMK AO2,M
BAM,2023-06-04 10:55,-116.8743,40.5990,1382.36,55.40,44.60,66.91,80.00,3.00,0.00,30.08,M,10.00,M,BKN,M,M,M,8000.00,M,M,M,M,M,M,M,M,M,M,55.40,KBAM 041055Z AUTO 08003KT 10SM BKN080 13/07 A3008 RMK AO1,M
HTH,2023-06-04 10:55,-118.6315,38.5448,1282.89,57.20,33.80,41.13,250.00,4.00,0.00,30.03,M,10.00,M,CLR,M,M,M,M,M,M,M,M,M,M,M,M,M,M,57.20,KHTH 041055Z AUTO 25004KT 10SM CLR 14/01 A3003 RMK A01,M
TMT,2023-06-04 10:55,-117.1971,39.4643,1749.34,39.20,36.30,89.23,0.00,0.00,0.00,30.14,M,10.00,M,CLR,M,M,M,M,M,M,M,M,M,M,M,M,M,M,39.20,KTMT 041055Z AUTO 00000KT 10SM CLR 04/02 A3014 RMK AO2 T00400024,M
LSV,2023-06-04 10:55,-115.0343,36.2362,570.00,79.00,34.50,19.97,10.00,9.00,0.00,29.79,1006.20,10.00,M,CLR,M,M,M,M,M,M,M,M,M,M,M,M,M,M,79.00,KLSV 041055Z AUTO 01009KT 10SM CLR 26/01 A2979 RMK AO2 SLP062 T02610014 $,M
RNO,2023-06-04 10:55,-119.7711,39.4839,1341.00,60.00,42.00,51.35,280.00,4.00,0.00,30.04,1012.10,10.00,M,SCT,M,M,M,16000.00,M,M,M,M,M,M,M,M,M,M,60.10,KRNO 041055Z 28004KT 10SM SCT160 16/06 A3004 RMK AO2 SLP121 T01560056 $,M
EKO,2023-06-04 10:56,-115.7860,40.8242,1367.00,48.00,46.00,92.74,0.00,0.00,0.00,30.10,1016.40,10.00,M,BKN,BKN,M,M,9500.00,11000.00,M,M,M,M,M,M,M,M,M,48.00,KEKO 041056Z AUTO 00000KT 10SM BKN095 BKN110 09/08 A3010 RMK AO2 SLP164 T00890078 $,M
WMC,2023-06-04 10:56,-117.8072,40.9019,1315.00,46.00,39.00,76.40,100.00,4.00,0.00,30.05,1014.10,10.00,M,CLR,M,M,M,M,M,M,M,M,M,M,M,M,M,M,43.77,KWMC 041056Z AUTO 10004KT 10SM CLR 08/04 A3005 RMK AO2 SLP141 T00780039,M
NFL,2023-06-04 10:56,-118.7010,39.4166,1199.00,55.00,45.00,68.93,0.00,0.00,0.00,30.00,1013.00,10.00,M,CLR,M,M,M,M,M,M,M,M,M,M,M,M,M,M,55.00,KNFL 041056Z AUTO 00000KT 10SM CLR 13/07 A3000 RMK AO2 SLP130 T01280072,M
HND,2023-06-04 10:56,-115.1344,35.9729,742.79,76.00,30.00,18.46,0.00,0.00,0.00,29.87,1009.90,10.00,M,CLR,M,M,M,M,M,M,M,M,M,M,M,M,M,M,75.90,KHND 041056Z 00000KT 10SM CLR 24/M01 A2987 RMK AO2 SLP099 T02441011,M
TPH,2023-06-04 10:56,-117.0904,38.0505,1654.00,55.00,37.00,50.58,360.00,10.00,0.00,30.08,1012.10,10.00,M,CLR,M,M,M,M,M,M,M,M,M,M,M,M,M,M,55.00,KTPH 041056Z AUTO 36010KT 10SM CLR 13/03 A3008 RMK AO2 SLP121 T01280028,M
LAS,2023-06-04 10:56,-115.1634,36.0719,663.00,80.00,33.00,18.21,50.00,5.00,0.00,29.83,1007.30,10.00,M,CLR,M,M,M,M,M,M,M,M,M,M,M,M,M,M,78.67,KLAS 041056Z 05005KT 10SM CLR 27/01 A2983 RMK AO2 SLP073 T02670006,M
BVU,2023-06-04 11:15,-114.8611,35.9475,671.00,75.20,32.00,20.49,360.00,7.00,0.00,29.82,M,10.00,M,CLR,M,M,M,M,M,M,M,M,M,M,M,M,M,M,75.20,KBVU 041115Z AUTO 36007KT 10SM CLR 24/00 A2982 RMK AO2,M
CXP,2023-06-04 11:15,-119.7326,39.1923,1431.00,50.00,41.00,71.07,0.00,0.00,0.00,30.08,M,10.00,M,CLR,M,M,M,M,M,M,M,M,M,M,M,M,M,M,50.00,KCXP 041115Z AUTO 00000KT 10SM CLR 10/05 A3008 RMK AO2,M
RTS,2023-06-04 11:15,-119.8764,39.6682,1539.00,46.40,37.40,70.68,350.00,5.00,0.00,30.08,M,10.00,M,CLR,M,M,M,M,M,M,M,M,M,M,M,M,M,M,43.50,KRTS 041115Z AUTO 35005KT 10SM CLR 08/03 A3008 RMK AO2,M
MEV,2023-06-04 11:15,-119.7500,38.9963,1441.42,42.80,39.20,86.99,90.00,4.00,0.00,30.06,M,10.00,M,OVC,M,M,M,8500.00,M,M,M,M,M,M,M,M,M,M,40.03,KMEV 041115Z AUTO 09004KT 10SM OVC085 06/04 A3006 RMK AO2,M
BAM,2023-06-04 11:15,-116.8743,40.5990,1382.36,53.60,44.60,71.45,50.00,4.00,0.00,30.08,M,10.00,M,SCT,M,M,M,8000.00,M,M,M,M,M,M,M,M,M,M,53.60,KBAM 041115Z AUTO 05004KT 10SM SCT080 12/07 A3008 RMK AO1,M
HTH,2023-06-04 11:15,-118.6315,38.5448,1282.89,57.20,35.60,44.19,210.00,5.00,0.00,30.03,M,10.00,M,CLR,M,M,M,M,M,M,M,M,M,M,M,M,M,M,57.20,KHTH 041115Z AUTO 21005KT 10SM CLR 14/02 A3003 RMK A01,M
TMT,2023-06-04 11:15,-117.1971,39.4643,1749.34,40.30,36.70,86.86,0.00,0.00,0.00,30.13,M,10.00,M,CLR,M,M,M,M,M,M,M,M,M,M,M,M,M,M,40.30,KTMT 041115Z AUTO 00000KT 10SM CLR 05/03 A3013 RMK AO2 T00460026,M
BVU,2023-06-04 11:35,-114.8611,35.9475,671.00,77.00,32.00,19.30,10.00,4.00,0.00,29.83,M,10.00,M,CLR,M,M,M,M,M,M,M,M,M,M,M,M,M,M,77.00,KBVU 041135Z AUTO 01004KT 10SM CLR 25/M00 A2983 RMK AO2,M
CXP,2023-06-04 11:35,-119.7326,39.1923,1431.00,50.00,39.20,66.27,0.00,0.00,0.00,30.08,M,10.00,M,CLR,M,M,M,M,M,M,M,M,M,M,M,M,M,M,50.00,KCXP 041135Z AUTO 00000KT 10SM CLR 10/04 A3008 RMK AO2,M
RTS,2023-06-04 11:35,-119.8764,39.6682,1539.00,46.40,35.60,65.83,330.00,4.00,0.00,30.08,M,10.00,M,CLR,M,M,M,M,M,M,M,M,M,M,M,M,M,M,44.24,KRTS 041135Z AUTO 33004KT 10SM CLR 08/02 A3008 RMK AO2,M
MEV,2023-06-04 11:35,-119.7500,38.9963,1441.42,42.80,39.20,86.99,90.00,4.00,0.00,30.06,M,10.00,M,OVC,M,M,M,8500.00,M,M,M,M,M,M,M,M,M,M,40.03,KMEV 041135Z AUTO 09004KT 10SM OVC085 06/04 A3006 RMK AO2,M
BAM,2023-06-04 11:35,-116.8743,40.5990,1382.36,55.40,46.40,71.64,60.00,7.00,0.00,30.08,M,10.00,M,CLR,M,M,M,M,M,M,M,M,M,M,M,M,M,M,55.40,KBAM 041135Z AUTO 06007KT 10SM CLR 13/08 A3008 RMK AO1,M
HTH,2023-06-04 11:35,-118.6315,38.5448,1282.89,55.40,33.80,43.90,210.00,5.00,0.00,30.03,M,10.00,M,CLR,M,M,M,M,M,M,M,M,M,M,M,M,M,M,55.40,KHTH 041135Z AUTO 21005KT 10SM CLR 13/01 A3003 RMK A01,M
TMT,2023-06-04 11:35,-117.1971,39.4643,1749.34,41.00,38.30,90.02,250.00,4.00,0.00,30.13,M,10.00,M,CLR,M,M,M,M,M,M,M,M,M,M,M,M,M,M,37.93,KTMT 041135Z AUTO 25004KT 10SM CLR 05/04 A3013 RMK AO2 T00500035,M
VGT,2023-06-04 11:53,-115.1933,36.2111,667.00,78.00,32.00,18.61,340.00,11.00,0.00,29.83,1008.90,10.00,M,CLR,M,M,M,M,M,M,M,M,M,M,M,M,M,M,78.10,KVGT 041153Z AUTO 34011KT 10SM CLR 26/00 A2983 RMK AO2 SLP089 T02560000 10311 20256 51009 $,M
ELY,2023-06-04 11:53,-114.8453,39.2950,1909.00,39.00,33.00,79.17,170.00,8.00,0.00,30.14,1014.90,10.00,M,CLR,M,M,M,M,M,M,M,M,M,M,M,M,M,M,32.74,KELY 041153Z AUTO 17008KT 10SM CLR 04/01 A3014 RMK AO2 SLP149 T00390006 10094 20033 58002,M
P68,2023-06-04 11:53,-116.0056,39.6014,1993.00,42.00,38.00,84.93,170.00,4.00,0.00,30.12,1014.40,M,M,M,M,M,M,M,M,M,M,M,M,M,M,M,M,M,39.21,KP68 041153Z AUTO 17004KT 06/03 A3012 RMK AO1 SLP144 T00560033 10111 20044 56005,M
DRA,2023-06-04 11:53,-116.0278,36.6206,1009.00,71.00,33.00,24.59,40.00,12.00,0.00,29.90,1007.70,10.00,M,CLR,M,M,M,M,M,M,M,M,M,M,M,M,M,M,71.10,KDRA 041153Z AUTO 04012KT 10SM CLR 22/01 A2990 RMK AO2 SLP077 T02170006 10244 20206 51005,M
LOL,2023-06-04 11:53,-118.5701,40.0684,1192.43,49.00,40.00,70.95,190.00,3.00,0.00,30.02,1013.60,10.00,M,CLR,M,M,M,M,M,M,M,M,M,M,M,M,M,M,48.01,KLOL 041153Z AUTO 19003KT 10SM CLR 09/04 A3002 RMK AO2 SLP136 T00940044 10200 20094 53002,M
BVU,2023-06-04 11:55,-114.8611,35.9475,671.00,75.20,32.00,20.49,10.00,3.00,0.00,29.83,M,10.00,M,CLR,M,M,M,M,M,M,M,M,M,M,M,M,M,M,75.20,KBVU 041155Z AUTO 01003KT 10SM CLR 24/00 A2983 RMK AO2,M
CXP,2023-06-04 11:55,-119.7326,39.1923,1431.00,50.00,41.00,71.07,0.00,0.00,0.00,30.08,M,10.00,M,CLR,M,M,M,M,M,M,M,M,M,M,M,M,M,M,50.00,KCXP 041155Z AUTO 00000KT 10SM CLR 10/05 A3008 RMK AO2,M
INS,2023-06-04 11:55,-115.6733,36.5872,955.00,64.80,23.90,20.95,0.00,0.00,0.00,29.91,1008.20,10.00,M,CLR,M,M,M,M,M,M,M,M,M,M,M,M,M,M,64.80,KINS 041155Z AUTO 00000KT 10SM CLR 18/M04 A2991 RMK AO2 SLP082 T01821045 10253 20170 52006 $,M
LSV,2023-06-04 11:55,-115.0343,36.2362,570.00,76.50,36.00,23.02,30.00,8.00,0.00,29.80,1006.50,10.00,M,CLR,M,M,M,M,M,M,M,M,M,M,M,M,M,M,76.50,KLSV 041155Z AUTO 03008KT 10SM CLR 25/02 A2980 RMK AO2 SLP065 T02470022 10299 20245 53008 $,M
RTS,2023-06-04 11:55,-119.8764,39.6682,1539.00,46.40,35.60,65.83,350.00,5.00,0.00,30.08,M,10.00,M,CLR,M,M,M,M,M,M,M,M,M,M,M,M,M,M,43.50,KRTS 041155Z AUTO 35005KT 10SM CLR 08/02 A3008 RMK AO2,M
MEV,2023-06-04 11:55,-119.7500,38.9963,1441.42,41.00,37.40,86.89,100.00,4.00,0.00,30.07,M,10.00,M,BKN,M,M,M,8500.00,M,M,M,M,M,M,M,M,M,M,37.93,KMEV 041155Z AUTO 10004KT 10SM BKN085 05/03 A3007 RMK AO2,M
BAM,2023-06-04 11:55,-116.8743,40.5990,1382.36,53.60,44.60,71.45,60.00,5.00,0.00,30.08,M,10.00,M,CLR,M,M,M,M,M,M,M,M,M,M,M,M,M,M,53.60,KBAM 041155Z AUTO 06005KT 10SM CLR 12/07 A3008 RMK AO1,M
HTH,2023-06-04 11:55,-118.6315,38.5448,1282.89,57.20,33.80,41.13,220.00,6.00,0.00,30.03,M,10.00,M,CLR,M,M,M,M,M,M,M,M,M,M,M,M,M,M,57.20,KHTH 041155Z AUTO 22006KT 10SM CLR 14/01 A3003 RMK A01,M
TMT,2023-06-04 11:55,-117.1971,39.4643,1749.34,37.60,34.30,87.75,0.00,0.00,0.00,30.13,M,10.00,M,CLR,M,M,M,M,M,M,M,M,M,M,M,M,M,M,37.60,KTMT 041155Z AUTO 00000KT 10SM CLR 03/01 A3013 RMK AO2 T00310013 10139 20031,M
RNO,2023-06-04 11:55,-119.7711,39.4839,1341.00,58.00,42.00,55.55,0.00,0.00,0.00,30.04,1012.40,10.00,M,SCT,M,M,M,16000.00,M,M,M,M,M,M,M,M,M,M,57.90,KRNO 041155Z 00000KT 10SM SCT160 14/06 A3004 RMK AO2 SLP124 T01440056 10211 20144 53001 $,M
WMC,2023-06-04 11:56,-117.8072,40.9019,1315.00,46.00,39.00,76.40,120.00,5.00,0.00,30.05,1014.10,10.00,M,CLR,M,M,M,M,M,M,M,M,M,M,M,M,M,M,43.02,KWMC 041156Z AUTO 12005KT 10SM CLR 08/04 A3005 RMK AO2 SLP141 T00780039 10150 20067 58001,M
HND,2023-06-04 11:56,-115.1344,35.9729,742.79,75.00,34.00,22.35,90.00,5.00,0.00,29.87,1010.20,10.00,M,CLR,M,M,M,M,M,M,M,M,M,M,M,M,M,M,75.00,KHND 041156Z 09005KT 10SM CLR 24/01 A2987 RMK AO2 SLP102 T02390011 10283 20222 53009,M
TPH,2023-06-04 11:56,-117.0904,38.0505,1654.00,54.00,38.00,54.34,350.00,10.00,0.00,30.08,1012.10,10.00,M,CLR,M,M,M,M,M,M,M,M,M,M,M,M,M,M,54.00,KTPH 041156Z AUTO 35010KT 10SM CLR 12/03 A3008 RMK AO2 SLP121 T01220033 10183 20117 55002,M
LAS,2023-06-04 11:56,-115.1634,36.0719,663.00,77.00,33.00,20.17,10.00,6.00,0.00,29.84,1007.60,10.00,M,FEW,M,M,M,13000.00,M,M,M,M,M,M,M,M,M,M,77.00,KLAS 041156Z 01006KT 10SM FEW130 25/01 A2984 RMK AO2 SLP076 T02500006 10306 20250 51009,M
EKO,2023-06-04 11:56,-115.7860,40.8242,1367.00,49.00,47.00,92.77,0.00,0.00,0.00,30.10,1016.70,10.00,M,OVC,M,M,M,10000.00,M,M,M,M,M,M,M,M,M,M,48.90,KEKO 041156Z AUTO 00000KT 10SM OVC100 09/08 A3010 RMK AO2 SLP167 70021 T00940083 10128 20089 50000 $,M
NFL,2023-06-04 11:56,-118.7010,39.4166,1199.00,53.00,44.00,71.40,0.00,0.00,0.00,30.01,1013.10,10.00,M,CLR,M,M,M,M,M,M,M,M,M,M,M,M,M,M,53.10,KNFL 041156Z AUTO 00000KT 10SM CLR 12/07 A3001 RMK AO2 SLP131 T01170067 10183 20111 53001,M
BVU,2023-06-04 12:15,-114.8611,35.9475,671.00,78.80,33.80,19.55,10.00,9.00,0.00,29.83,M,10.00,M,CLR,M,M,M,M,M,M,M,M,M,M,M,M,M,M,78.80,KBVU 041215Z AUTO 01009KT 10SM CLR 26/01 A2983 RMK AO2,M
CXP,2023-06-04 12:15,-119.7326,39.1923,1431.00,50.00,39.20,66.27,0.00,0.00,0.00,30.08,M,10.00,M,CLR,M,M,M,M,M,M,M,M,M,M,M,M,M,M,50.00,KCXP 041215Z AUTO 00000KT 10SM CLR 10/04 A3008 RMK AO2,M
RTS,2023-06-04 12:15,-119.8764,39.6682,1539.00,46.40,35.60,65.83,350.00,6.00,0.00,30.08,M,10.00,M,CLR,M,M,M,M,M,M,M,M,M,M,M,M,M,M,42.87,KRTS 041215Z AUTO 35006KT 10SM CLR 08/02 A3008 RMK AO2,M
MEV,2023-06-04 12:15,-119.7500,38.9963,1441.42,42.80,39.20,86.99,120.00,5.00,0.00,30.07,M,10.00,M,FEW,M,M,M,8500.00,M,M,M,M,M,M,M,M,M,M,39.22,KMEV 041215Z AUTO 12005KT 10SM FEW085 06/04 A3007 RMK AO2,M
BAM,2023-06-04 12:15,-116.8743,40.5990,1382.36,51.80,44.60,76.34,0.00,0.00,0.00,30.08,M,10.00,M,CLR,M,M,M,M,M,M,M,M,M,M,M,M,M,M,51.80,KBAM 041215Z AUTO 00000KT 10SM CLR 11/07 A3008 RMK AO1,M
HTH,2023-06-04 12:15,-118.6315,38.5448,1282.89,57.20,33.80,41.13,240.00,4.00,0.00,30.03,M,10.00,M,CLR,M,M,M,M,M,M,M,M,M,M,M,M,M,M,57.20,KHTH 041215Z AUTO 24004KT 10SM CLR 14/01 A3003 RMK A01,M
TMT,2023-06-04 12:15,-117.1971,39.4643,1749.34,37.60,34.20,87.40,0.00,0.00,0.00,30.13,M,10.00,M,CLR,M,M,M,M,M,M,M,M,M,M,M,M,M,M,37.60,KTMT 041215Z AUTO 00000KT 10SM CLR 03/01 A3013 RMK AO2 T00310012,M
BVU,2023-06-04 12:35,-114.8611,35.9475,671.00,77.00,33.80,20.74,340.00,11.00,0.00,29.83,M,10.00,16.00,CLR,M,M,M,M,M,M,M,M,M,M,M,M,M,M,77.00,KBVU 041235Z AUTO 34011G16KT 10SM CLR 25/01 A2983 RMK AO2,M
CXP,2023-06-04 12:35,-119.7326,39.1923,1431.00,50.00,41.00,71.07,0.00,0.00,0.00,30.08,M,10.00,M,CLR,M,M,M,M,M,M,M,M,M,M,M,M,M,M,50.00,KCXP 041235Z AUTO 00000KT 10SM CLR 10/05 A3008 RMK AO2,M
RTS,2023-06-04 12:35,-119.8764,39.6682,1539.00,48.20,35.60,61.52,330.00,3.00,0.00,30.08,M,10.00,M,CLR,M,M,M,M,M,M,M,M,M,M,M,M,M,M,47.21,KRTS 041235Z AUTO 33003KT 10SM CLR 09/02 A3008 RMK AO2,M
MEV,2023-06-04 12:35,-119.7500,38.9963,1441.42,42.80,37.40,81.07,130.00,3.00,0.00,30.07,M,10.00,M,CLR,M,M,M,M,M,M,M,M,M,M,M,M,M,M,41.03,KMEV 041235Z AUTO 13003KT 10SM CLR 06/03 A3007 RMK AO2,M
BAM,2023-06-04 12:35,-116.8743,40.5990,1382.36,51.80,42.80,71.26,0.00,0.00,0.00,30.08,M,10.00,M,CLR,M,M,M,M,M,M,M,M,M,M,M,M,M,M,51.80,KBAM 041235Z AUTO 00000KT 10SM CLR 11/06 A3008 RMK AO1,M
HTH,2023-06-04 12:35,-118.6315,38.5448,1282.89,53.60,33.80,46.88,0.00,0.00,0.00,30.04,M,10.00,M,CLR,M,M,M,M,M,M,M,M,M,M,M,M,M,M,53.60,KHTH 041235Z AUTO 00000KT 10SM CLR 12/01 A3004 RMK A01,M
TMT,2023-06-04 12:35,-117.1971,39.4643,1749.34,39.00,35.00,85.76,0.00,0.00,0.00,30.14,M,10.00,M,CLR,M,M,M,M,M,M,M,M,M,M,M,M,M,M,39.00,KTMT 041235Z AUTO 00000KT 10SM CLR 04/02 A3014 RMK AO2 T00390017,M
P68,2023-06-04 12:53,-116.0056,39.6014,1993.00,43.00,39.00,85.66,200.00,3.00,0.00,30.13,1014.70,M,M,M,M,M,M,M,M,M,M,M,M,M,M,M,M,M,41.26,KP68 041253Z AUTO 20003KT 06/04 A3013 RMK AO1 SLP147 T00610039,M
DRA,2023-06-04 12:53,-116.0278,36.6206,1009.00,70.00,34.00,26.46,50.00,12.00,0.00,29.92,1008.40,10.00,M,CLR,M,M,M,M,M,M,M,M,M,M,M,M,M,M,70.00,KDRA 041253Z AUTO 05012KT 10SM CLR 21/01 A2992 RMK AO2 SLP084 T02110011,M
VGT,2023-06-04 12:53,-115.1933,36.2111,667.00,79.00,34.00,19.57,330.00,8.00,0.00,29.84,1009.40,10.00,M,CLR,M,M,M,M,M,M,M,M,M,M,M,M,M,M,79.00,KVGT 041253Z AUTO 33008KT 10SM CLR 26/01 A2984 RMK AO2 SLP094 T02610011 $,M
ELY,2023-06-04 12:53,-114.8453,39.2950,1909.00,37.00,33.00,85.64,180.00,8.00,0.00,30.16,1015.60,10.00,M,CLR,M,M,M,M,M,M,M,M,M,M,M,M,M,M,30.27,KELY 041253Z AUTO 18008KT 10SM CLR 03/01 A3016 RMK AO2 SLP156 T00280006,M
LOL,2023-06-04 12:53,-118.5701,40.0684,1192.43,50.00,42.00,74.15,0.00,0.00,0.00,30.03,1014.00,10.00,M,CLR,M,M,M,M,M,M,M,M,M,M,M,M,M,M,50.00,KLOL 041253Z AUTO 00000KT 10SM CLR 10/06 A3003 RMK AO2 SLP140 T01000056,M
BVU,2023-06-04 12:55,-114.8611,35.9475,671.00,77.00,33.80,20.74,330.00,10.00,0.00,29.84,M,10.00,M,CLR,M,M,M,M,M,M,M,M,M,M,M,M,M,M,77.00,KBVU 041255Z AUTO 33010KT 10SM CLR 25/01 A2984 RMK AO2,M
CXP,2023-06-04 12:55,-119.7326,39.1923,1431.00,48.20,39.20,70.88,0.00,0.00,0.00,30.09,M,10.00,M,CLR,M,M,M,M,M,M,M,M,M,M,M,M,M,M,48.20,KCXP 041255Z AUTO 00000KT 10SM CLR 09/04 A3009 RMK AO2,M
INS,2023-06-04 12:55,-115.6733,36.5872,955.00,61.30,23.20,23.01,220.00,3.00,0.00,29.92,1008.80,10.00,M,CLR,M,M,M,M,M,M,M,M,M,M,M,M,M,M,61.30,KINS 041255Z AUTO 22003KT 10SM CLR 16/M05 A2992 RMK AO2 SLP088 T01631049 $,M
RTS,2023-06-04 12:55,-119.8764,39.6682,1539.00,46.40,35.60,65.83,340.00,4.00,0.00,30.09,M,10.00,M,CLR,M,M,M,M,M,M,M,M,M,M,M,M,M,M,44.24,KRTS 041255Z AUTO 34004KT 10SM CLR 08/02 A3009 RMK AO2,M
MEV,2023-06-04 12:55,-119.7500,38.9963,1441.42,42.80,37.40,81.07,0.00,0.00,0.00,30.07,M,10.00,M,CLR,M,M,M,M,M,M,M,M,M,M,M,M,M,M,42.80,KMEV 041255Z AUTO 00000KT 10SM CLR 06/03 A3007 RMK AO2,M
BAM,2023-06-04 12:55,-116.8743,40.5990,1382.36,53.60,44.60,71.45,0.00,0.00,0.00,30.08,M,10.00,M,CLR,M,M,M,M,M,M,M,M,M,M,M,M,M,M,53.60,KBAM 041255Z AUTO 00000KT 10SM CLR 12/07 A3008 RMK AO1,M
HTH,2023-06-04 12:55,-118.6315,38.5448,1282.89,55.40,33.80,43.90,0.00,0.00,0.00,30.04,M,10.00,M,CLR,M,M,M,M,M,M,M,M,M,M,M,M,M,M,55.40,KHTH 041255Z AUTO 00000KT 10SM CLR 13/01 A3004 RMK A01,M
TMT,2023-06-04 12:55,-117.1971,39.4643,1749.34,36.30,34.00,91.26,150.00,3.00,0.00,30.14,M,10.00,M,CLR,M,M,M,M,M,M,M,M,M,M,M,M,M,M,33.60,KTMT 041255Z AUTO 15003KT 10SM CLR 02/01 A3014 RMK AO2 T00240011,M
LSV,2023-06-04 12:55,-115.0343,36.2362,570.00,75.70,37.40,24.98,40.00,8.00,0.00,29.81,1006.90,10.00,M,CLR,M,M,M,M,M,M,M,M,M,M,M,M,M,M,75.70,KLSV 041255Z AUTO 04008KT 10SM CLR 24/03 A2981 RMK AO2 SLP069 T02430030 $,M
RNO,2023-06-04 12:55,-119.7711,39.4839,1341.00,58.00,42.00,55.55,280.00,4.00,0.00,30.05,1012.70,10.00,M,SCT,M,M,M,16000.00,M,M,M,M,M,M,M,M,M,M,57.90,KRNO 041255Z 28004KT 10SM SCT160 14/06 A3005 RMK AO2 SLP127 T01440056 $,M
EKO,2023-06-04 12:56,-115.7860,40.8242,1367.00,51.00,48.00,89.09,0.00,0.00,0.00,30.11,1016.80,10.00,M,OVC,M,M,M,10000.00,M,M,M,M,M,M,M,M,M,M,51.10,KEKO 041256Z AUTO 00000KT 10SM OVC100 11/09 A3011 RMK AO2 SLP168 T01060089 $,M
NFL,2023-06-04 12:56,-118.7010,39.4166,1199.00,51.00,45.00,79.54,0.00,0.00,0.00,30.02,1013.60,10.00,M,CLR,M,M,M,M,M,M,M,M,M,M,M,M,M,M,51.10,KNFL 041256Z AUTO 00000KT 10SM CLR 11/07 A3002 RMK AO2 SLP136 T01060072,M
HND,2023-06-04 12:56,-115.1344,35.9729,742.79,73.00,36.00,25.88,60.00,6.00,0.00,29.89,1010.90,10.00,M,CLR,M,M,M,M,M,M,M,M,M,M,M,M,M,M,73.00,KHND 041256Z 06006KT 10SM CLR 23/02 A2989 RMK AO2 SLP109 T02280022,M
TPH,2023-06-04 12:56,-117.0904,38.0505,1654.00,55.00,39.00,54.70,10.00,13.00,0.00,30.10,1012.40,10.00,M,CLR,M,M,M,M,M,M,M,M,M,M,M,M,M,M,55.00,KTPH 041256Z AUTO 01013KT 10SM CLR 13/04 A3010 RMK AO2 SLP124 T01280039,M
LAS,2023-06-04 12:56,-115.1634,36.0719,663.00,77.00,32.00,19.30,10.00,4.00,0.00,29.86,1008.40,10.00,M,FEW,M,M,M,13000.00,M,M,M,M,M,M,M,M,M,M,77.00,KLAS 041256Z 01004KT 10SM FEW130 25/00 A2986 RMK AO2 SLP084 T02500000,M
WMC,2023-06-04 12:56,-117.8072,40.9019,1315.00,48.00,40.00,73.38,140.00,7.00,0.00,30.06,1014.30,10.00,M,CLR,M,M,M,M,M,M,M,M,M,M,M,M,M,M,44.28,KWMC 041256Z AUTO 14007KT 10SM CLR 09/04 A3006 RMK AO2 SLP143 T00890044,M
BVU,2023-06-04 13:15,-114.8611,35.9475,671.00,77.00,35.60,22.28,360.00,9.00,0.00,29.85,M,10.00,M,CLR,M,M,M,M,M,M,M,M,M,M,M,M,M,M,77.00,KBVU 041315Z AUTO 36009KT 10SM CLR 25/02 A2985 RMK AO2,M
CXP,2023-06-04 13:15,-119.7326,39.1923,1431.00,50.00,41.00,71.07,0.00,0.00,0.00,30.09,M,10.00,M,CLR,M,M,M,M,M,M,M,M,M,M,M,M,M,M,50.00,KCXP 041315Z AUTO 00000KT 10SM CLR 10/05 A3009 RMK AO2,M
RTS,2023-06-04 13:15,-119.8764,39.6682,1539.00,50.00,37.40,61.76,10.00,4.00,0.00,30.09,M,10.00,M,CLR,M,M,M,M,M,M,M,M,M,M,M,M,M,M,50.00,KRTS 041315Z AUTO 01004KT 10SM CLR 10/03 A3009 RMK AO2,M
MEV,2023-06-04 13:15,-119.7500,38.9963,1441.42,44.60,37.40,75.68,0.00,0.00,0.00,30.08,M,10.00,M,CLR,M,M,M,M,M,M,M,M,M,M,M,M,M,M,44.60,KMEV 041315Z AUTO 00000KT 10SM CLR 07/03 A3008 RMK AO2,M
BAM,2023-06-04 13:15,-116.8743,40.5990,1382.36,53.60,44.60,71.45,0.00,0.00,0.00,30.09,M,10.00,M,CLR,M,M,M,M,M,M,M,M,M,M,M,M,M,M,53.60,KBAM 041315Z AUTO 00000KT 10SM CLR 12/07 A3009 RMK AO1,M
HTH,2023-06-04 13:15,-118.6315,38.5448,1282.89,55.40,35.60,47.16,0.00,0.00,0.00,30.05,M,10.00,M,CLR,M,M,M,M,M,M,M,M,M,M,M,M,M,M,55.40,KHTH 041315Z AUTO 00000KT 10SM CLR 13/02 A3005 RMK A01,M
TMT,2023-06-04 13:15,-117.1971,39.4643,1749.34,39.40,35.40,85.44,0.00,0.00,0.00,30.15,M,10.00,M,CLR,M,M,M,M,M,M,M,M,M,M,M,M,M,M,39.40,KTMT 041315Z AUTO 00000KT 10SM CLR 04/02 A3015 RMK AO2 T00410019,M
HTH,2023-06-04 13:30,-118.6315,38.5448,1282.89,59.00,33.80,38.56,0.00,0.00,0.00,30.05,M,10.00,M,CLR,M,M,M,M,M,M,M,M,M,M,M,M,M,M,59.00,KHTH 041330Z AUTO 00000KT 10SM CLR 15/01 A3005 RMK A01,M
BVU,2023-06-04 13:35,-114.8611,35.9475,671.00,77.00,35.60,22.28,350.00,9.00,0.00,29.85,M,10.00,M,CLR,M,M,M,M,M,M,M,M,M,M,M,M,M,M,77.00,KBVU 041335Z AUTO 35009KT 10SM CLR 25/02 A2985 RMK AO2,M
CXP,2023-06-04 13:35,-119.7326,39.1923,1431.00,51.80,41.00,66.48,0.00,0.00,0.00,30.09,M,10.00,M,CLR,M,M,M,M,M,M,M,M,M,M,M,M,M,M,51.80,KCXP 041335Z AUTO 00000KT 10SM CLR 11/05 A3009 RMK AO2,M
RTS,2023-06-04 13:35,-119.8764,39.6682,1539.00,50.00,39.20,66.27,0.00,0.00,0.00,30.10,M,10.00,M,CLR,M,M,M,M,M,M,M,M,M,M,M,M,M,M,50.00,KRTS 041335Z AUTO 00000KT 10SM CLR 10/04 A3010 RMK AO2,M
MEV,2023-06-04 13:35,-119.7500,38.9963,1441.42,46.40,39.20,75.84,0.00,0.00,0.00,30.08,M,10.00,M,CLR,M,M,M,M,M,M,M,M,M,M,M,M,M,M,46.40,KMEV 041335Z AUTO 00000KT 10SM CLR 08/04 A3008 RMK AO2,M
BAM,2023-06-04 13:35,-116.8743,40.5990,1382.36,46.40,37.40,70.68,130.00,4.00,0.00,30.09,M,10.00,M,CLR,M,M,M,M,M,M,M,M,M,M,M,M,M,M,44.24,KBAM 041335Z AUTO 13004KT 10SM CLR 08/03 A3009 RMK AO1,M
TMT,2023-06-04 13:35,-117.1971,39.4643,1749.34,43.70,38.00,80.50,0.00,0.00,0.00,30.15,M,10.00,M,CLR,M,M,M,M,M,M,M,M,M,M,M,M,M,M,43.70,KTMT 041335Z AUTO 00000KT 10SM CLR 07/03 A3015 RMK AO2 T00650034,M
ELY,2023-06-04 13:53,-114.8453,39.2950,1909.00,45.00,37.00,73.37,200.00,4.00,0.00,30.16,1014.90,10.00,M,CLR,M,M,M,M,M,M,M,M,M,M,M,M,M,M,42.60,KELY 041353Z AUTO 20004KT 10SM CLR 07/03 A3016 RMK AO2 SLP149 T00720028,M
VGT,2023-06-04 13:53,-115.1933,36.2111,667.00,79.00,36.00,21.19,350.00,5.00,0.00,29.87,1010.30,10.00,M,CLR,M,M,M,M,M,M,M,M,M,M,M,M,M,M,79.00,KVGT 041353Z 35005KT 10SM CLR 26/02 A2987 RMK AO2 SLP103 T02610022 $,M
LOL,2023-06-04 13:53,-118.5701,40.0684,1192.43,61.00,43.00,51.48,20.00,6.00,0.00,30.04,1013.80,10.00,M,CLR,M,M,M,M,M,M,M,M,M,M,M,M,M,M,61.00,KLOL 041353Z AUTO 02006KT 10SM CLR 16/06 A3004 RMK AO2 SLP138 T01610061,M
DRA,2023-06-04 13:53,-116.0278,36.6206,1009.00,73.00,35.00,24.97,50.00,10.00,0.00,29.94,1008.80,10.00,M,CLR,M,M,M,M,M,M,M,M,M,M,M,M,M,M,73.00,KDRA 041353Z AUTO 05010KT 10SM CLR 23/02 A2994 RMK AO2 SLP088 T02280017,M
P68,2023-06-04 13:53,-116.0056,39.6014,1993.00,51.00,42.00,71.19,220.00,4.00,0.00,30.14,1014.40,M,M,M,M,M,M,M,M,M,M,M,M,M,M,M,M,M,51.10,KP68 041353Z AUTO 22004KT 11/06 A3014 RMK AO1 SLP144 T01060056,M
BVU,2023-06-04 13:55,-114.8611,35.9475,671.00,78.80,35.60,21.00,350.00,5.00,0.00,29.86,M,10.00,M,CLR,M,M,M,M,M,M,M,M,M,M,M,M,M,M,78.80,KBVU 041355Z AUTO 35005KT 10SM CLR 26/02 A2986 RMK AO2,M
CXP,2023-06-04 13:55,-119.7326,39.1923,1431.00,55.40,41.00,58.27,0.00,0.00,0.00,30.10,M,10.00,M,CLR,M,M,M,M,M,M,M,M,M,M,M,M,M,M,55.40,KCXP 041355Z AUTO 00000KT 10SM CLR 13/05 A3010 RMK AO2,M
INS,2023-06-04 13:55,-115.6733,36.5872,955.00,66.00,23.70,19.93,0.00,0.00,0.00,29.94,1009.40,10.00,M,CLR,M,M,M,M,M,M,M,M,M,M,M,M,M,M,66.00,KINS 041355Z AUTO 00000KT 10SM CLR 19/M05 A2994 RMK AO2 SLP094 T01891046 $,M
RNO,2023-06-04 13:55,-119.7711,39.4839,1341.00,60.00,43.00,53.15,300.00,3.00,0.00,30.06,1013.10,10.00,M,SCT,M,M,M,16000.00,M,M,M,M,M,M,M,M,M,M,60.10,KRNO 041355Z 30003KT 10SM SCT160 16/06 A3006 RMK AO2 SLP131 T01560061 $,M
RTS,2023-06-04 13:55,-119.8764,39.6682,1539.00,51.80,41.00,66.48,0.00,0.00,0.00,30.10,M,10.00,M,CLR,M,M,M,M,M,M,M,M,M,M,M,M,M,M,51.80,KRTS 041355Z AUTO 00000KT 10SM CLR 11/05 A3010 RMK AO2,M
MEV,2023-06-04 13:55,-119.7500,38.9963,1441.42,50.00,41.00,71.07,0.00,0.00,0.00,30.09,M,10.00,M,CLR,M,M,M,M,M,M,M,M,M,M,M,M,M,M,50.00,KMEV 041355Z AUTO 00000KT 10SM CLR 10/05 A3009 RMK AO2,M
BAM,2023-06-04 13:55,-116.8743,40.5990,1382.36,51.80,41.00,66.48,0.00,0.00,0.00,30.09,M,10.00,M,CLR,M,M,M,M,M,M,M,M,M,M,M,M,M,M,51.80,KBAM 041355Z AUTO 00000KT 10SM CLR 11/05 A3009 RMK AO1,M
HTH,2023-06-04 13:55,-118.6315,38.5448,1282.89,60.80,33.80,36.16,0.00,0.00,0.00,30.06,M,10.00,M,CLR,M,M,M,M,M,M,M,M,M,M,M,M,M,M,60.80,KHTH 041355Z AUTO 00000KT 10SM CLR 16/01 A3006 RMK A01,M
TMT,2023-06-04 13:55,-117.1971,39.4643,1749.34,46.40,38.70,74.38,0.00,0.00,0.00,30.15,M,10.00,M,CLR,M,M,M,M,M,M,M,M,M,M,M,M,M,M,46.40,KTMT 041355Z AUTO 00000KT 10SM CLR 08/04 A3015 RMK AO2 T00800037,M
LSV,2023-06-04 13:55,-115.0343,36.2362,570.00,79.20,37.00,21.90,30.00,4.00,0.00,29.83,1007.60,10.00,M,CLR,M,M,M,M,M,M,M,M,M,M,M,M,M,M,79.20,KLSV 041355Z AUTO 03004KT 10SM CLR 26/03 A2983 RMK AO2 SLP076 T02620028 $,M
EKO,2023-06-04 13:56,-115.7860,40.8242,1367.00,53.00,48.00,82.76,130.00,3.00,0.00,30.11,1016.90,10.00,M,SCT,M,M,M,11000.00,M,M,M,M,M,M,M,M,M,M,53.10,KEKO 041356Z AUTO 13003KT 10SM SCT110 12/09 A3011 RMK AO2 SLP169 T01170089 $,M
WMC,2023-06-04 13:56,-117.8072,40.9019,1315.00,57.00,43.00,59.40,0.00,0.00,0.00,30.07,1014.10,10.00,M,CLR,M,M,M,M,M,M,M,M,M,M,M,M,M,M,57.00,KWMC 041356Z AUTO 00000KT 10SM CLR 14/06 A3007 RMK AO2 SLP141 T01390061,M
NFL,2023-06-04 13:56,-118.7010,39.4166,1199.00,60.00,46.00,59.59,0.00,0.00,0.00,30.04,1014.00,10.00,M,CLR,M,M,M,M,M,M,M,M,M,M,M,M,M,M,60.10,KNFL 041356Z AUTO 00000KT 10SM CLR 16/08 A3004 RMK AO2 SLP140 T01560078,M
HND,2023-06-04 13:56,-115.1344,35.9729,742.79,75.00,39.00,27.23,0.00,0.00,0.00,29.91,1011.40,10.00,M,CLR,M,M,M,M,M,M,M,M,M,M,M,M,M,M,75.00,KHND 041356Z 00000KT 10SM CLR 24/04 A2991 RMK AO2 SLP114 T02390039,M
TPH,2023-06-04 13:56,-117.0904,38.0505,1654.00,59.00,40.00,49.04,360.00,11.00,0.00,30.10,1012.70,10.00,M,CLR,M,M,M,M,M,M,M,M,M,M,M,M,M,M,59.00,KTPH 041356Z AUTO 36011KT 10SM CLR 15/04 A3010 RMK AO2 SLP127 T01500044,M
LAS,2023-06-04 13:56,-115.1634,36.0719,663.00,78.00,35.00,21.07,320.00,3.00,0.00,29.88,1008.90,10.00,M,FEW,M,M,M,13000.00,M,M,M,M,M,M,M,M,M,M,78.10,KLAS 041356Z 32003KT 10SM FEW130 26/02 A2988 RMK AO2 SLP089 T02560017,M
BVU,2023-06-04 14:15,-114.8611,35.9475,671.00,78.80,35.60,21.00,0.00,0.00,0.00,29.86,M,10.00,M,CLR,M,M,M,M,M,M,M,M,M,M,M,M,M,M,78.80,KBVU 041415Z AUTO 00000KT 10SM CLR 26/02 A2986 RMK AO2,M
CXP,2023-06-04 14:15,-119.7326,39.1923,1431.00,55.40,41.00,58.27,0.00,0.00,0.00,30.10,M,10.00,M,CLR,M,M,M,M,M,M,M,M,M,M,M,M,M,M,55.40,KCXP 041415Z AUTO 00000KT 10SM CLR 13/05 A3010 RMK AO2,M
RTS,2023-06-04 14:15,-119.8764,39.6682,1539.00,53.60,41.00,62.23,0.00,0.00,0.00,30.10,M,10.00,M,CLR,M,M,M,M,M,M,M,M,M,M,M,M,M,M,53.60,KRTS 041415Z AUTO 00000KT 10SM CLR 12/05 A3010 RMK AO2,M
MEV,2023-06-04 14:15,-119.7500,38.9963,1441.42,51.80,41.00,66.48,0.00,0.00,0.00,30.09,M,10.00,M,CLR,M,M,M,M,M,M,M,M,M,M,M,M,M,M,51.80,KMEV 041415Z AUTO 00000KT 10SM CLR 11/05 A3009 RMK AO2,M
BAM,2023-06-04 14:15,-116.8743,40.5990,1382.36,55.40,44.60,66.91,0.00,0.00,0.00,30.09,M,10.00,M,CLR,M,M,M,M,M,M,M,M,M,M,M,M,M,M,55.40,KBAM 041415Z AUTO 00000KT 10SM CLR 13/07 A3009 RMK AO1,M
HTH,2023-06-04 14:15,-118.6315,38.5448,1282.89,60.80,33.80,36.16,0.00,0.00,0.00,30.06,M,10.00,M,CLR,M,M,M,M,M,M,M,M,M,M,M,M,M,M,60.80,KHTH 041415Z AUTO 00000KT 10SM CLR 16/01 A3006 RMK A01,M
TMT,2023-06-04 14:15,-117.1971,39.4643,1749.34,48.20,39.40,71.43,0.00,0.00,0.00,30.15,M,10.00,M,CLR,M,M,M,M,M,M,M,M,M,M,M,M,M,M,48.20,KTMT 041415Z AUTO 00000KT 10SM CLR 09/04 A3015 RMK AO2 T00900041,M
BVU,2023-06-04 14:35,-114.8611,35.9475,671.00,82.40,35.60,18.67,330.00,8.00,0.00,29.86,M,10.00,M,CLR,M,M,M,M,M,M,M,M,M,M,M,M,M,M,80.08,KBVU 041435Z AUTO 33008KT 10SM CLR 28/02 A2986 RMK AO2,M
CXP,2023-06-04 14:35,-119.7326,39.1923,1431.00,57.20,41.00,54.60,0.00,0.00,0.00,30.10,M,10.00,M,CLR,M,M,M,M,M,M,M,M,M,M,M,M,M,M,57.20,KCXP 041435Z AUTO 00000KT 10SM CLR 14/05 A3010 RMK AO2,M
RTS,2023-06-04 14:35,-119.8764,39.6682,1539.00,57.20,39.20,50.91,0.00,0.00,0.00,30.10,M,10.00,M,CLR,M,M,M,M,M,M,M,M,M,M,M,M,M,M,57.20,KRTS 041435Z AUTO 00000KT 10SM CLR 14/04 A3010 RMK AO2,M
MEV,2023-06-04 14:35,-119.7500,38.9963,1441.42,55.40,41.00,58.27,0.00,0.00,0.00,30.09,M,10.00,M,CLR,M,M,M,M,M,M,M,M,M,M,M,M,M,M,55.40,KMEV 041435Z AUTO 00000KT 10SM CLR 13/05 A3009 RMK AO2,M
BAM,2023-06-04 14:35,-116.8743,40.5990,1382.36,57.20,44.60,62.69,0.00,0.00,0.00,30.09,M,10.00,M,CLR,M,M,M,M,M,M,M,M,M,M,M,M,M,M,57.20,KBAM 041435Z AUTO 00000KT 10SM CLR 14/07 A3009 RMK AO1,M
HTH,2023-06-04 14:35,-118.6315,38.5448,1282.89,62.60,33.80,33.93,0.00,0.00,0.00,30.06,M,10.00,M,CLR,M,M,M,M,M,M,M,M,M,M,M,M,M,M,62.60,KHTH 041435Z AUTO 00000KT 10SM CLR 17/01 A3006 RMK A01,M
TMT,2023-06-04 14:35,-117.1971,39.4643,1749.34,50.70,40.00,66.35,170.00,3.00,0.00,30.15,M,10.00,M,CLR,M,M,M,M,M,M,M,M,M,M,M,M,M,M,50.70,KTMT 041435Z AUTO 17003KT 10SM CLR 10/04 A3015 RMK AO2 T01040044,M
P68,2023-06-04 14:53,-116.0056,39.6014,1993.00,57.00,41.00,54.99,0.00,0.00,0.00,30.14,1014.40,M,M,M,M,M,M,M,M,M,M,M,M,M,M,M,M,M,57.00,KP68 041453Z AUTO 00000KT 14/05 A3014 RMK AO1 SLP144 T01390050 51006,M
DRA,2023-06-04 14:53,-116.0278,36.6206,1009.00,76.00,36.00,23.48,40.00,14.00,0.00,29.94,1008.90,10.00,M,CLR,M,M,M,M,M,M,M,M,M,M,M,M,M,M,75.90,KDRA 041453Z AUTO 04014KT 10SM CLR 24/02 A2994 RMK AO2 SLP089 T02440022 51010,M
ELY,2023-06-04 14:53,-114.8453,39.2950,1909.00,52.00,39.00,61.06,200.00,3.00,0.00,30.16,1014.60,10.00,M,CLR,M,M,M,M,M,M,M,M,M,M,M,M,M,M,52.00,KELY 041453Z AUTO 20003KT 10SM CLR 11/04 A3016 RMK AO2 SLP146 T01110039 51005,M
LOL,2023-06-04 14:53,-118.5701,40.0684,1192.43,65.00,43.00,44.88,40.00,9.00,0.00,30.04,1013.50,10.00,M,CLR,M,M,M,M,M,M,M,M,M,M,M,M,M,M,64.90,KLOL 041453Z AUTO 04009KT 10SM CLR 18/06 A3004 RMK AO2 SLP135 T01830061 50006,M
VGT,2023-06-04 14:53,-115.1933,36.2111,667.00,83.00,38.00,20.11,330.00,9.00,0.00,29.87,1010.20,10.00,M,CLR,M,M,M,M,M,M,M,M,M,M,M,M,M,M,80.49,KVGT 041453Z 33009KT 10SM CLR 28/03 A2987 RMK AO2 SLP102 T02830033 51013 $,M
BVU,2023-06-04 14:55,-114.8611,35.9475,671.00,84.20,35.60,17.61,20.00,7.00,0.00,29.87,M,10.00,M,CLR,M,M,M,M,M,M,M,M,M,M,M,M,M,M,81.34,KBVU 041455Z AUTO 02007KT 10SM CLR 29/02 A2987 RMK AO2,M
CXP,2023-06-04 14:55,-119.7326,39.1923,1431.00,59.00,41.00,51.18,0.00,0.00,0.00,30.10,M,10.00,M,CLR,M,M,M,M,M,M,M,M,M,M,M,M,M,M,59.00,KCXP 041455Z AUTO 00000KT 10SM CLR 15/05 A3010 RMK AO2,M
INS,2023-06-04 14:55,-115.6733,36.5872,955.00,75.40,27.50,16.94,0.00,0.00,0.00,29.94,1009.00,10.00,M,CLR,M,M,M,M,M,M,M,M,M,M,M,M,M,M,75.40,KINS 041455Z AUTO 00000KT 10SM CLR 24/M02 A2994 RMK AO2 SLP090 T02411025 51010 $,M
RNO,2023-06-04 14:55,-119.7711,39.4839,1341.00,64.00,43.00,46.32,0.00,0.00,0.00,30.07,1013.00,10.00,M,FEW,SCT,SCT,M,16000.00,20000.00,25000.00,M,M,M,M,M,M,M,M,64.00,KRNO 041455Z 00000KT 10SM FEW160 SCT200 SCT250 18/06 A3007 RMK AO2 SLP130 T01780061 51007 $,M
LSV,2023-06-04 14:55,-115.0343,36.2362,570.00,84.60,36.30,17.88,0.00,0.00,0.00,29.84,1007.90,10.00,M,CLR,M,M,M,M,M,M,M,M,M,M,M,M,M,M,81.64,KLSV 041455Z AUTO 00000KT 10SM CLR 29/02 A2984 RMK AO2 SLP079 T02920024 52013 $,M
RTS,2023-06-04 14:55,-119.8764,39.6682,1539.00,60.80,39.20,44.76,0.00,0.00,0.00,30.10,M,10.00,M,CLR,M,M,M,M,M,M,M,M,M,M,M,M,M,M,60.80,KRTS 041455Z AUTO 00000KT 10SM CLR 16/04 A3010 RMK AO2,M
MEV,2023-06-04 14:55,-119.7500,38.9963,1441.42,59.00,41.00,51.18,0.00,0.00,0.00,30.09,M,10.00,M,CLR,M,M,M,M,M,M,M,M,M,M,M,M,M,M,59.00,KMEV 041455Z AUTO 00000KT 10SM CLR 15/05 A3009 RMK AO2,M
BAM,2023-06-04 14:55,-116.8743,40.5990,1382.36,60.80,46.40,59.01,0.00,0.00,0.00,30.10,M,10.00,M,CLR,M,M,M,M,M,M,M,M,M,M,M,M,M,M,60.80,KBAM 041455Z AUTO 00000KT 10SM CLR 16/08 A3010 RMK AO1,M
HTH,2023-06-04 14:55,-118.6315,38.5448,1282.89,62.60,33.80,33.93,260.00,5.00,0.00,30.06,M,10.00,M,CLR,M,M,M,M,M,M,M,M,M,M,M,M,M,M,62.60,KHTH 041455Z AUTO 26005KT 10SM CLR 17/01 A3006 RMK A01,M
TMT,2023-06-04 14:55,-117.1971,39.4643,1749.34,53.60,40.00,59.63,0.00,0.00,0.00,30.15,M,10.00,M,CLR,M,M,M,M,M,M,M,M,M,M,M,M,M,M,53.60,KTMT 041455Z AUTO 00000KT 10SM CLR 12/04 A3015 RMK AO2 T01200044,M
EKO,2023-06-04 14:56,-115.7860,40.8242,1367.00,57.00,50.00,77.38,0.00,0.00,0.00,30.12,1017.00,10.00,M,CLR,M,M,M,M,M,M,M,M,M,M,M,M,M,M,57.00,KEKO 041456Z AUTO 00000KT 10SM CLR 14/10 A3012 RMK AO2 SLP170 T01390100 53005 $,M
WMC,2023-06-04 14:56,-117.8072,40.9019,1315.00,63.00,45.00,51.78,30.00,8.00,0.00,30.08,1014.30,10.00,M,CLR,M,M,M,M,M,M,M,M,M,M,M,M,M,M,63.00,KWMC 041456Z AUTO 03008KT 10SM CLR 17/07 A3008 RMK AO2 SLP143 T01720072 53008,M
NFL,2023-06-04 14:56,-118.7010,39.4166,1199.00,66.00,48.00,52.22,180.00,3.00,0.00,30.04,1014.00,10.00,M,CLR,M,M,M,M,M,M,M,M,M,M,M,M,M,M,66.00,KNFL 041456Z AUTO 18003KT 10SM CLR 19/09 A3004 RMK AO2 SLP140 T01890089 50009,M
TPH,2023-06-04 14:56,-117.0904,38.0505,1654.00,64.00,41.00,42.88,360.00,10.00,0.00,30.11,1012.60,10.00,M,CLR,M,M,M,M,M,M,M,M,M,M,M,M,M,M,64.00,KTPH 041456Z AUTO 36010KT 10SM CLR 18/05 A3011 RMK AO2 SLP126 T01780050 51008,M
LAS,2023-06-04 14:56,-115.1634,36.0719,663.00,81.00,36.00,19.85,360.00,4.00,0.00,29.88,1009.10,10.00,M,FEW,M,M,M,13000.00,M,M,M,M,M,M,M,M,M,M,79.20,KLAS 041456Z 36004KT 10SM FEW130 27/02 A2988 RMK AO2 SLP091 T02720022 51014,M
HND,2023-06-04 14:56,-115.1344,35.9729,742.79,80.00,38.00,22.03,40.00,5.00,0.00,29.92,1011.60,10.00,M,CLR,M,M,M,M,M,M,M,M,M,M,M,M,M,M,78.85,KHND 041456Z 04005KT 10SM CLR 27/03 A2992 RMK AO2 SLP116 T02670033 51013,M
BVU,2023-06-04 15:15,-114.8611,35.9475,671.00,84.20,35.60,17.61,30.00,7.00,0.00,29.87,M,10.00,M,CLR,M,M,M,M,M,M,M,M,M,M,M,M,M,M,81.34,KBVU 041515Z AUTO 03007KT 10SM CLR 29/02 A2987 RMK AO2,M
CXP,2023-06-04 15:15,-119.7326,39.1923,1431.00,60.80,41.00,48.00,0.00,0.00,0.00,30.10,M,10.00,M,CLR,M,M,M,M,M,M,M,M,M,M,M,M,M,M,60.80,KCXP 041515Z AUTO 00000KT 10SM CLR 16/05 A3010 RMK AO2,M
RTS,2023-06-04 15:15,-119.8764,39.6682,1539.00,62.60,41.00,45.04,0.00,0.00,0.00,30.10,M,10.00,M,CLR,M,M,M,M,M,M,M,M,M,M,M,M,M,M,62.60,KRTS 041515Z AUTO 00000KT 10SM CLR 17/05 A3010 RMK AO2,M
MEV,2023-06-04 15:15,-119.7500,38.9963,1441.42,59.00,42.80,54.86,140.00,4.00,0.00,30.09,M,10.00,M,CLR,M,M,M,M,M,M,M,M,M,M,M,M,M,M,59.00,KMEV 041515Z AUTO 14004KT 10SM CLR 15/06 A3009 RMK AO2,M
BAM,2023-06-04 15:15,-116.8743,40.5990,1382.36,64.40,46.40,51.98,60.00,6.00,0.00,30.10,M,10.00,M,CLR,M,M,M,M,M,M,M,M,M,M,M,M,M,M,64.40,KBAM 041515Z AUTO 06006KT 10SM CLR 18/08 A3010 RMK AO1,M
HTH,2023-06-04 15:15,-118.6315,38.5448,1282.89,62.60,33.80,33.93,320.00,3.00,0.00,30.07,M,10.00,M,M,M,M,M,M,M,M,M,M,M,M,M,M,M,M,62.60,KHTH 041515Z AUTO 32003KT 10SM 17/01 A3007 RMK A01,M
TMT,2023-06-04 15:15,-117.1971,39.4643,1749.34,54.70,41.00,59.78,0.00,0.00,0.00,30.15,M,10.00,M,CLR,M,M,M,M,M,M,M,M,M,M,M,M,M,M,54.70,KTMT 041515Z AUTO 00000KT 10SM CLR 13/05 A3015 RMK AO2 T01260050,M
BVU,2023-06-04 15:35,-114.8611,35.9475,671.00,84.20,35.60,17.61,60.00,6.00,0.00,29.87,M,10.00,M,CLR,M,M,M,M,M,M,M,M,M,M,M,M,M,M,81.34,KBVU 041535Z AUTO 06006KT 10SM CLR 29/02 A2987 RMK AO2,M
CXP,2023-06-04 15:35,-119.7326,39.1923,1431.00,62.60,41.00,45.04,0.00,0.00,0.00,30.10,M,10.00,M,CLR,M,M,M,M,M,M,M,M,M,M,M,M,M,M,62.60,KCXP 041535Z AUTO 00000KT 10SM CLR 17/05 A3010 RMK AO2,M
RTS,2023-06-04 15:35,-119.8764,39.6682,1539.00,64.40,41.00,42.28,0.00,0.00,0.00,30.10,M,10.00,M,CLR,M,M,M,M,M,M,M,M,M,M,M,M,M,M,64.40,KRTS 041535Z AUTO 00000KT 10SM CLR 18/05 A3010 RMK AO2,M
MEV,2023-06-04 15:35,-119.7500,38.9963,1441.42,60.80,42.80,51.45,0.00,0.00,0.00,30.09,M,10.00,M,CLR,M,M,M,M,M,M,M,M,M,M,M,M,M,M,60.80,KMEV 041535Z AUTO 00000KT 10SM CLR 16/06 A3009 RMK AO2,M
BAM,2023-06-04 15:35,-116.8743,40.5990,1382.36,64.40,46.40,51.98,50.00,10.00,0.00,30.11,M,10.00,M,CLR,M,M,M,M,M,M,M,M,M,M,M,M,M,M,64.40,KBAM 041535Z AUTO 05010KT 10SM CLR 18/08 A3011 RMK AO1,M
HTH,2023-06-04 15:35,-118.6315,38.5448,1282.89,64.40,33.80,31.85,0.00,0.00,0.00,30.07,M,10.00,M,CLR,M,M,M,M,M,M,M,M,M,M,M,M,M,M,64.40,KHTH 041535Z AUTO 00000KT 10SM CLR 18/01 A3007 RMK A01,M
TMT,2023-06-04 15:35,-117.1971,39.4643,1749.34,57.00,41.70,56.50,0.00,0.00,0.00,30.15,M,10.00,M,CLR,M,M,M,M,M,M,M,M,M,M,M,M,M,M,57.00,KTMT 041535Z AUTO 00000KT 10SM CLR 14/05 A3015 RMK AO2 T01390054,M
P68,2023-06-04 15:53,-116.0056,39.6014,1993.00,62.00,43.00,49.52,M,4.00,0.00,30.14,1014.30,M,M,M,M,M,M,M,M,M,M,M,M,M,M,M,M,M,62.10,KP68 041553Z AUTO VRB04KT 17/06 A3014 RMK AO1 SLP143 T01670061,M
DRA,2023-06-04 15:53,-116.0278,36.6206,1009.00,79.00,36.00,21.19,40.00,13.00,0.00,29.94,1009.00,10.00,M,CLR,M,M,M,M,M,M,M,M,M,M,M,M,M,M,79.00,KDRA 041553Z AUTO 04013KT 10SM CLR 26/02 A2994 RMK AO2 SLP090 T02610022,M
LOL,2023-06-04 15:53,-118.5701,40.0684,1192.43,70.00,45.00,40.63,50.00,9.00,0.00,30.03,1013.40,10.00,M,CLR,M,M,M,M,M,M,M,M,M,M,M,M,M,M,70.00,KLOL 041553Z AUTO 05009KT 10SM CLR 21/07 A3003 RMK AO2 SLP134 T02110072,M
ELY,2023-06-04 15:53,-114.8453,39.2950,1909.00,58.00,40.00,51.02,340.00,5.00,0.00,30.16,1014.90,10.00,M,CLR,M,M,M,M,M,M,M,M,M,M,M,M,M,M,57.90,KELY 041553Z AUTO 34005KT 10SM CLR 14/04 A3016 RMK AO2 SLP149 T01440044,M
VGT,2023-06-04 15:53,-115.1933,36.2111,667.00,87.00,38.00,17.58,350.00,7.00,0.00,29.87,1010.20,10.00,M,CLR,M,M,M,M,M,M,M,M,M,M,M,M,M,M,83.61,KVGT 041553Z 35007KT 10SM CLR 31/03 A2987 RMK AO2 SLP102 T03060033 $,M
BVU,2023-06-04 15:55,-114.8611,35.9475,671.00,84.20,35.60,17.61,M,6.00,0.00,29.87,M,10.00,M,CLR,M,M,M,M,M,M,M,M,M,M,M,M,M,M,81.34,KBVU 041555Z AUTO VRB06KT 10SM CLR 29/02 A2987 RMK AO2,M
CXP,2023-06-04 15:55,-119.7326,39.1923,1431.00,64.40,41.00,42.28,0.00,0.00,0.00,30.10,M,10.00,M,CLR,M,M,M,M,M,M,M,M,M,M,M,M,M,M,64.40,KCXP 041555Z AUTO 00000KT 10SM CLR 18/05 A3010 RMK AO2,M
INS,2023-06-04 15:55,-115.6733,36.5872,955.00,79.50,30.90,17.00,320.00,4.00,0.00,29.94,1009.00,10.00,M,CLR,M,M,M,M,M,M,M,M,M,M,M,M,M,M,79.50,KINS 041555Z AUTO 32004KT 10SM CLR 26/M01 A2994 RMK AO2 SLP090 T02641006 $,M
RNO,2023-06-04 15:55,-119.7711,39.4839,1341.00,68.00,41.00,37.32,0.00,0.00,0.00,30.06,1012.80,10.00,M,FEW,SCT,SCT,M,17000.00,20000.00,25000.00,M,M,M,M,M,M,M,M,68.00,KRNO 041555Z 00000KT 10SM FEW170 SCT200 SCT250 20/05 A3006 RMK AO2 SLP128 T02000050 $,M
RTS,2023-06-04 15:55,-119.8764,39.6682,1539.00,66.20,39.20,37.03,0.00,0.00,0.00,30.10,M,10.00,M,CLR,M,M,M,M,M,M,M,M,M,M,M,M,M,M,66.20,KRTS 041555Z AUTO 00000KT 10SM CLR 19/04 A3010 RMK AO2,M
MEV,2023-06-04 15:55,-119.7500,38.9963,1441.42,62.60,42.80,48.28,0.00,0.00,0.00,30.08,M,10.00,M,CLR,M,M,M,M,M,M,M,M,M,M,M,M,M,M,62.60,KMEV 041555Z AUTO 00000KT 10SM CLR 17/06 A3008 RMK AO2,M
BAM,2023-06-04 15:55,-116.8743,40.5990,1382.36,68.00,46.40,45.88,50.00,11.00,0.00,30.10,M,10.00,14.00,CLR,M,M,M,M,M,M,M,M,M,M,M,M,M,M,68.00,KBAM 041555Z AUTO 05011G14KT 10SM CLR 20/08 A3010 RMK AO1,M
HTH,2023-06-04 15:55,-118.6315,38.5448,1282.89,68.00,37.40,32.43,320.00,5.00,0.00,30.06,M,10.00,M,CLR,M,M,M,M,M,M,M,M,M,M,M,M,M,M,68.00,KHTH 041555Z AUTO 32005KT 10SM CLR 20/03 A3006 RMK A01,M
TMT,2023-06-04 15:55,-117.1971,39.4643,1749.34,58.80,41.20,51.95,0.00,0.00,0.00,30.15,M,10.00,M,CLR,M,M,M,M,M,M,M,M,M,M,M,M,M,M,58.80,KTMT 041555Z AUTO 00000KT 10SM CLR 15/05 A3015 RMK AO2 T01490051,M
LSV,2023-06-04 15:55,-115.0343,36.2362,570.00,90.50,36.50,14.94,0.00,0.00,0.00,29.84,1007.80,10.00,M,SCT,M,M,M,15000.00,M,M,M,M,M,M,M,M,M,M,86.41,KLSV 041555Z AUTO 00000KT 10SM SCT150 33/03 A2984 RMK AO2 SLP078 T03250025 $,M
WMC,2023-06-04 15:56,-117.8072,40.9019,1315.00,70.00,46.00,42.20,40.00,7.00,0.00,30.07,1014.10,10.00,M,CLR,M,M,M,M,M,M,M,M,M,M,M,M,M,M,70.00,KWMC 041556Z AUTO 04007KT 10SM CLR 21/08 A3007 RMK AO2 SLP141 T02110078,M
LAS,2023-06-04 15:56,-115.1634,36.0719,663.00,84.00,37.00,18.74,30.00,4.00,0.00,29.89,1009.10,10.00,M,FEW,FEW,M,M,11000.00,14000.00,M,M,M,M,M,M,M,M,M,81.23,KLAS 041556Z 03004KT 10SM FEW110 FEW140 29/03 A2989 RMK AO2 SLP091 T02890028,M
NFL,2023-06-04 15:56,-118.7010,39.4166,1199.00,70.00,47.00,43.66,230.00,4.00,0.00,30.04,1014.00,10.00,M,CLR,M,M,M,M,M,M,M,M,M,M,M,M,M,M,70.00,KNFL 041556Z AUTO 23004KT 10SM CLR 21/08 A3004 RMK AO2 SLP140 T02110083,M
EKO,2023-06-04 15:56,-115.7860,40.8242,1367.00,62.00,49.00,61.91,90.00,4.00,0.00,30.11,1016.40,10.00,M,CLR,M,M,M,M,M,M,M,M,M,M,M,M,M,M,62.10,KEKO 041556Z AUTO 09004KT 10SM CLR 17/09 A3011 RMK AO2 SLP164 T01670094 $,M
HND,2023-06-04 15:56,-115.1344,35.9729,742.79,83.00,38.00,20.11,20.00,6.00,0.00,29.92,1011.60,10.00,M,CLR,M,M,M,M,M,M,M,M,M,M,M,M,M,M,80.49,KHND 041556Z 02006KT 10SM CLR 28/03 A2992 RMK AO2 SLP116 T02830033,M
TPH,2023-06-04 15:56,-117.0904,38.0505,1654.00,69.00,40.00,34.43,0.00,0.00,0.00,30.10,1012.40,10.00,M,CLR,M,M,M,M,M,M,M,M,M,M,M,M,M,M,69.10,KTPH 041556Z AUTO 00000KT 10SM CLR 21/04 A3010 RMK AO2 SLP124 T02060044,M
BVU,2023-06-04 16:15,-114.8611,35.9475,671.00,86.00,35.60,16.63,40.00,6.00,0.00,29.87,M,10.00,M,CLR,M,M,M,M,M,M,M,M,M,M,M,M,M,M,82.69,KBVU 041615Z AUTO 04006KT 10SM CLR 30/02 A2987 RMK AO2,M
CXP,2023-06-04 16:15,-119.7326,39.1923,1431.00,68.00,39.20,34.80,0.00,0.00,0.00,30.09,M,10.00,M,CLR,M,M,M,M,M,M,M,M,M,M,M,M,M,M,68.00,KCXP 041615Z AUTO 00000KT 10SM CLR 20/04 A3009 RMK AO2,M
RTS,2023-06-04 16:15,-119.8764,39.6682,1539.00,68.00,39.20,34.80,120.00,5.00,0.00,30.09,M,10.00,M,CLR,M,M,M,M,M,M,M,M,M,M,M,M,M,M,68.00,KRTS 041615Z AUTO 12005KT 10SM CLR 20/04 A3009 RMK AO2,M
MEV,2023-06-04 16:15,-119.7500,38.9963,1441.42,64.40,42.80,45.32,0.00,0.00,0.00,30.08,M,10.00,M,CLR,M,M,M,M,M,M,M,M,M,M,M,M,M,M,64.40,KMEV 041615Z AUTO 00000KT 10SM CLR 18/06 A3008 RMK AO2,M
BAM,2023-06-04 16:15,-116.8743,40.5990,1382.36,68.00,46.40,45.88,50.00,13.00,0.00,30.10,M,10.00,M,CLR,M,M,M,M,M,M,M,M,M,M,M,M,M,M,68.00,KBAM 041615Z AUTO 05013KT 10SM CLR 20/08 A3010 RMK AO1,M
HTH,2023-06-04 16:15,-118.6315,38.5448,1282.89,68.00,39.20,34.80,M,4.00,0.00,30.06,M,10.00,M,CLR,M,M,M,M,M,M,M,M,M,M,M,M,M,M,68.00,KHTH 041615Z AUTO VRB04KT 10SM CLR 20/04 A3006 RMK A01,M
TMT,2023-06-04 16:15,-117.1971,39.4643,1749.34,60.30,40.50,47.92,0.00,0.00,0.00,30.15,M,10.00,M,CLR,M,M,M,M,M,M,M,M,M,M,M,M,M,M,60.30,KTMT 041615Z AUTO 00000KT 10SM CLR 16/05 A3015 RMK AO2 T01570047,M
BVU,2023-06-04 16:35,-114.8611,35.9475,671.00,86.00,33.80,15.48,M,3.00,0.00,29.87,M,10.00,M,CLR,M,M,M,M,M,M,M,M,M,M,M,M,M,M,82.66,KBVU 041635Z AUTO VRB03KT 10SM CLR 30/01 A2987 RMK AO2,M
CXP,2023-06-04 16:35,-119.7326,39.1923,1431.00,68.00,39.20,34.80,0.00,0.00,0.00,30.08,M,10.00,M,CLR,M,M,M,M,M,M,M,M,M,M,M,M,M,M,68.00,KCXP 041635Z AUTO 00000KT 10SM CLR 20/04 A3008 RMK AO2,M
RTS,2023-06-04 16:35,-119.8764,39.6682,1539.00,69.80,41.00,35.09,110.00,6.00,0.00,30.09,M,10.00,M,CLR,M,M,M,M,M,M,M,M,M,M,M,M,M,M,69.80,KRTS 041635Z AUTO 11006KT 10SM CLR 21/05 A3009 RMK AO2,M
MEV,2023-06-04 16:35,-119.7500,38.9963,1441.42,66.20,42.80,42.57,0.00,0.00,0.00,30.07,M,10.00,M,CLR,M,M,M,M,M,M,M,M,M,M,M,M,M,M,66.20,KMEV 041635Z AUTO 00000KT 10SM CLR 19/06 A3007 RMK AO2,M
BAM,2023-06-04 16:35,-116.8743,40.5990,1382.36,69.80,46.40,43.13,50.00,8.00,0.00,30.09,M,10.00,M,CLR,M,M,M,M,M,M,M,M,M,M,M,M,M,M,69.80,KBAM 041635Z AUTO 05008KT 10SM CLR 21/08 A3009 RMK AO1,M
HTH,2023-06-04 16:35,-118.6315,38.5448,1282.89,69.80,39.20,32.72,M,4.00,0.00,30.06,M,10.00,M,CLR,M,M,M,M,M,M,M,M,M,M,M,M,M,M,69.80,KHTH 041635Z AUTO VRB04KT 10SM CLR 21/04 A3006 RMK A01,M
TMT,2023-06-04 16:35,-117.1971,39.4643,1749.34,62.00,41.20,46.53,0.00,0.00,0.00,30.14,M,10.00,M,CLR,M,M,M,M,M,M,M,M,M,M,M,M,M,M,61.90,KTMT 041635Z AUTO 00000KT 10SM CLR 17/05 A3014 RMK AO2 T01660051,M
ELY,2023-06-04 16:53,-114.8453,39.2950,1909.00,62.00,39.00,42.41,M,3.00,0.00,30.15,1013.90,10.00,M,CLR,M,M,M,M,M,M,M,M,M,M,M,M,M,M,62.10,KELY 041653Z AUTO VRB03KT 10SM CLR 17/04 A3015 RMK AO2 SLP139 T01670039,M
VGT,2023-06-04 16:53,-115.1933,36.2111,667.00,88.00,37.00,16.49,M,3.00,0.00,29.87,1010.00,10.00,M,CLR,M,M,M,M,M,M,M,M,M,M,M,M,M,M,84.32,KVGT 041653Z VRB03KT 10SM CLR 31/03 A2987 RMK AO2 SLP100 T03110028 $,M
LOL,2023-06-04 16:53,-118.5701,40.0684,1192.43,75.00,43.00,31.79,60.00,6.00,0.00,30.02,1012.90,10.00,M,CLR,M,M,M,M,M,M,M,M,M,M,M,M,M,M,75.00,KLOL 041653Z AUTO 06006KT 10SM CLR 24/06 A3002 RMK AO2 SLP129 T02390061,M
DRA,2023-06-04 16:53,-116.0278,36.6206,1009.00,84.00,35.00,17.38,360.00,8.00,0.00,29.93,1008.60,10.00,M,CLR,M,M,M,M,M,M,M,M,M,M,M,M,M,M,81.18,KDRA 041653Z AUTO 36008KT 10SM CLR 29/02 A2993 RMK AO2 SLP086 T02890017,M
P68,2023-06-04 16:53,-116.0056,39.6014,1993.00,62.00,44.00,51.64,10.00,5.00,0.00,30.14,1014.60,M,M,M,M,M,M,M,M,M,M,M,M,M,M,M,M,M,62.10,KP68 041653Z AUTO 01005KT 17/07 A3014 RMK AO1 SLP146 T01670067,M
BVU,2023-06-04 16:55,-114.8611,35.9475,671.00,86.00,33.80,15.48,0.00,0.00,0.00,29.87,M,10.00,M,CLR,M,M,M,M,M,M,M,M,M,M,M,M,M,M,82.66,KBVU 041655Z AUTO 00000KT 10SM CLR 30/01 A2987 RMK AO2,M
CXP,2023-06-04 16:55,-119.7326,39.1923,1431.00,69.80,39.20,32.72,0.00,0.00,0.00,30.08,M,10.00,M,CLR,M,M,M,M,M,M,M,M,M,M,M,M,M,M,69.80,KCXP 041655Z AUTO 00000KT 10SM CLR 21/04 A3008 RMK AO2,M
INS,2023-06-04 16:55,-115.6733,36.5872,955.00,81.70,31.10,15.95,110.00,3.00,0.00,29.92,1008.40,10.00,M,CLR,M,M,M,M,M,M,M,M,M,M,M,M,M,M,79.51,KINS 041655Z AUTO 11003KT 10SM CLR 28/M00 A2992 RMK AO2 SLP084 T02761005 $,M
LSV,2023-06-04 16:55,-115.0343,36.2362,570.00,91.00,38.70,16.04,20.00,10.00,0.00,29.83,1007.40,10.00,M,CLR,M,M,M,M,M,M,M,M,M,M,M,M,M,M,86.93,KLSV 041655Z AUTO 02010KT 10SM CLR 33/04 A2983 RMK AO2 SLP074 T03280037 $,M
RTS,2023-06-04 16:55,-119.8764,39.6682,1539.00,71.60,39.20,30.77,100.00,8.00,0.00,30.09,M,10.00,M,CLR,M,M,M,M,M,M,M,M,M,M,M,M,M,M,71.60,KRTS 041655Z AUTO 10008KT 10SM CLR 22/04 A3009 RMK AO2,M
MEV,2023-06-04 16:55,-119.7500,38.9963,1441.42,68.00,42.80,40.00,0.00,0.00,0.00,30.07,M,10.00,M,CLR,M,M,M,M,M,M,M,M,M,M,M,M,M,M,68.00,KMEV 041655Z AUTO 00000KT 10SM CLR 20/06 A3007 RMK AO2,M
BAM,2023-06-04 16:55,-116.8743,40.5990,1382.36,71.60,46.40,40.57,30.00,3.00,0.00,30.09,M,10.00,M,SCT,M,M,M,11000.00,M,M,M,M,M,M,M,M,M,M,71.60,KBAM 041655Z AUTO 03003KT 10SM SCT110 22/08 A3009 RMK AO1,M
HTH,2023-06-04 16:55,-118.6315,38.5448,1282.89,71.60,37.40,28.68,10.00,6.00,0.00,30.05,M,10.00,M,CLR,M,M,M,M,M,M,M,M,M,M,M,M,M,M,71.60,KHTH 041655Z AUTO 01006KT 10SM CLR 22/03 A3005 RMK A01,M
TMT,2023-06-04 16:55,-117.1971,39.4643,1749.34,63.30,42.30,46.21,320.00,3.00,0.00,30.13,M,10.00,M,CLR,M,M,M,M,M,M,M,M,M,M,M,M,M,M,63.30,KTMT 041655Z AUTO 32003KT 10SM CLR 17/06 A3013 RMK AO2 T01740057,M
RNO,2023-06-04 16:55,-119.7711,39.4839,1341.00,71.00,42.00,35.02,0.00,0.00,0.00,30.05,1012.00,10.00,M,FEW,FEW,FEW,M,10000.00,20000.00,25000.00,M,M,M,M,M,M,M,M,71.10,KRNO 041655Z 00000KT 10SM FEW100 FEW200 FEW250 22/06 A3005 RMK AO2 SLP120 T02170056 $,M
WMC,2023-06-04 16:56,-117.8072,40.9019,1315.00,74.00,45.00,35.60,20.00,9.00,0.00,30.06,1013.60,10.00,M,CLR,M,M,M,M,M,M,M,M,M,M,M,M,M,M,73.90,KWMC 041656Z AUTO 02009KT 10SM CLR 23/07 A3006 RMK AO2 SLP136 T02330072,M
NFL,2023-06-04 16:56,-118.7010,39.4166,1199.00,75.00,43.00,31.79,M,5.00,0.00,30.02,1013.60,10.00,M,FEW,SCT,M,M,8000.00,25000.00,M,M,M,M,M,M,M,M,M,75.00,KNFL 041656Z VRB05KT 10SM FEW080 SCT250 24/06 A3002 RMK AO2 SLP136 T02390061,M
TPH,2023-06-04 16:56,-117.0904,38.0505,1654.00,73.00,39.00,29.12,340.00,5.00,0.00,30.09,1011.70,10.00,M,CLR,M,M,M,M,M,M,M,M,M,M,M,M,M,M,73.00,KTPH 041656Z AUTO 34005KT 10SM CLR 23/04 A3009 RMK AO2 SLP117 T02280039,M
LAS,2023-06-04 16:56,-115.1634,36.0719,663.00,86.00,37.00,17.57,M,6.00,0.00,29.88,1008.90,10.00,M,FEW,FEW,M,M,11000.00,14000.00,M,M,M,M,M,M,M,M,M,82.72,KLAS 041656Z VRB06KT 10SM FEW110 FEW140 30/03 A2988 RMK AO2 SLP089 T03000028,M
EKO,2023-06-04 16:56,-115.7860,40.8242,1367.00,67.00,49.00,52.35,40.00,4.00,0.00,30.11,1015.80,10.00,M,CLR,M,M,M,M,M,M,M,M,M,M,M,M,M,M,66.90,KEKO 041656Z AUTO 04004KT 10SM CLR 19/09 A3011 RMK AO2 SLP158 T01940094 $,M
HND,2023-06-04 16:56,-115.1344,35.9729,742.79,85.00,38.00,18.86,30.00,7.00,0.00,29.91,1011.40,10.00,M,CLR,M,M,M,M,M,M,M,M,M,M,M,M,M,M,81.91,KHND 041656Z 03007KT 10SM CLR 29/03 A2991 RMK AO2 SLP114 T02940033,M
BVU,2023-06-04 17:15,-114.8611,35.9475,671.00,87.80,33.80,14.61,50.00,6.00,0.00,29.86,M,10.00,M,CLR,M,M,M,M,M,M,M,M,M,M,M,M,M,M,84.10,KBVU 041715Z AUTO 05006KT 10SM CLR 31/01 A2986 RMK AO2,M
CXP,2023-06-04 17:15,-119.7326,39.1923,1431.00,71.60,39.20,30.77,0.00,0.00,0.00,30.07,M,10.00,M,CLR,M,M,M,M,M,M,M,M,M,M,M,M,M,M,71.60,KCXP 041715Z AUTO 00000KT 10SM CLR 22/04 A3007 RMK AO2,M
RTS,2023-06-04 17:15,-119.8764,39.6682,1539.00,71.60,37.40,28.68,150.00,8.00,0.00,30.08,M,10.00,M,CLR,M,M,M,M,M,M,M,M,M,M,M,M,M,M,71.60,KRTS 041715Z AUTO 15008KT 10SM CLR 22/03 A3008 RMK AO2,M
MEV,2023-06-04 17:15,-119.7500,38.9963,1441.42,69.80,42.80,37.61,0.00,0.00,0.00,30.06,M,10.00,M,CLR,M,M,M,M,M,M,M,M,M,M,M,M,M,M,69.80,KMEV 041715Z AUTO 00000KT 10SM CLR 21/06 A3006 RMK AO2,M
BAM,2023-06-04 17:15,-116.8743,40.5990,1382.36,71.60,44.60,37.89,10.00,4.00,0.00,30.09,M,10.00,M,SCT,M,M,M,11000.00,M,M,M,M,M,M,M,M,M,M,71.60,KBAM 041715Z AUTO 01004KT 10SM SCT110 22/07 A3009 RMK AO1,M
HTH,2023-06-04 17:15,-118.6315,38.5448,1282.89,71.60,37.40,28.68,330.00,5.00,0.00,30.05,M,10.00,M,CLR,M,M,M,M,M,M,M,M,M,M,M,M,M,M,71.60,KHTH 041715Z AUTO 33005KT 10SM CLR 22/03 A3005 RMK A01,M
TMT,2023-06-04 17:15,-117.1971,39.4643,1749.34,65.70,42.00,41.84,330.00,5.00,0.00,30.13,M,10.00,M,CLR,M,M,M,M,M,M,M,M,M,M,M,M,M,M,65.70,KTMT 041715Z AUTO 33005KT 10SM CLR 19/06 A3013 RMK AO2 T01870055,M
CXP,2023-06-04 17:35,-119.7326,39.1923,1431.00,73.40,37.40,26.98,80.00,3.00,0.00,30.07,M,10.00,10.00,CLR,M,M,M,M,M,M,M,M,M,M,M,M,M,M,73.40,KCXP 041735Z AUTO 08003G10KT 10SM CLR 23/03 A3007 RMK AO2,M
RTS,2023-06-04 17:35,-119.8764,39.6682,1539.00,73.40,37.40,26.98,110.00,10.00,0.00,30.08,M,10.00,M,CLR,M,M,M,M,M,M,M,M,M,M,M,M,M,M,73.40,KRTS 041735Z AUTO 11010KT 10SM CLR 23/03 A3008 RMK AO2,M
MEV,2023-06-04 17:35,-119.7500,38.9963,1441.42,71.60,42.80,35.37,M,3.00,0.00,30.06,M,9.00,M,CLR,M,M,M,M,M,M,M,M,M,M,M,M,M,M,71.60,KMEV 041735Z AUTO VRB03KT 9SM CLR 22/06 A3006 RMK AO2,M
BAM,2023-06-04 17:35,-116.8743,40.5990,1382.36,71.60,42.80,35.37,20.00,5.00,0.00,30.08,M,10.00,M,CLR,M,M,M,M,M,M,M,M,M,M,M,M,M,M,71.60,KBAM 041735Z AUTO 02005KT 10SM CLR 22/06 A3008 RMK AO1,M
HTH,2023-06-04 17:35,-118.6315,38.5448,1282.89,73.40,35.60,25.13,340.00,5.00,0.00,30.04,M,10.00,M,CLR,M,M,M,M,M,M,M,M,M,M,M,M,M,M,73.40,KHTH 041735Z AUTO 34005KT 10SM CLR 23/02 A3004 RMK A01,M
TMT,2023-06-04 17:35,-117.1971,39.4643,1749.34,67.50,41.40,38.56,360.00,6.00,0.00,30.13,M,10.00,M,CLR,M,M,M,M,M,M,M,M,M,M,M,M,M,M,67.50,KTMT 041735Z AUTO 36006KT 10SM CLR 20/05 A3013 RMK AO2 T01970052,M
P68,2023-06-04 17:53,-116.0056,39.6014,1993.00,67.00,37.00,33.16,M,3.00,0.00,30.12,1014.00,M,M,M,M,M,M,M,M,M,M,M,M,M,M,M,M,M,66.90,KP68 041753Z AUTO VRB03KT 19/03 A3012 RMK AO1 SLP140 T01940028 10194 20056 58004,M
ELY,2023-06-04 17:53,-114.8453,39.2950,1909.00,64.00,36.00,35.26,210.00,4.00,0.00,30.14,1013.20,10.00,M,CLR,M,M,M,M,M,M,M,M,M,M,M,M,M,M,64.00,KELY 041753Z AUTO 21004KT 10SM CLR 18/02 A3014 RMK AO2 SLP132 T01780022 10183 20028 58007,M
LOL,2023-06-04 17:53,-118.5701,40.0684,1192.43,77.00,41.00,27.53,M,4.00,0.00,30.01,1012.50,10.00,M,CLR,M,M,M,M,M,M,M,M,M,M,M,M,M,M,77.00,KLOL 041753Z AUTO VRB04KT 10SM CLR 25/05 A3001 RMK AO2 SLP125 T02500050 10250 20083 58007,M
VGT,2023-06-04 17:53,-115.1933,36.2111,667.00,91.00,38.00,15.54,M,M,0.00,29.86,1009.70,10.00,M,CLR,M,M,M,M,M,M,M,M,M,M,M,M,M,M,86.90,KVGT 041753Z 10SM CLR 33/03 A2986 RMK AO2 SLP097 T03280033 10328 20244 58004 $,M
DRA,2023-06-04 17:53,-116.0278,36.6206,1009.00,87.00,35.00,15.74,0.00,0.00,0.00,29.92,1008.30,10.00,M,CLR,M,M,M,M,M,M,M,M,M,M,M,M,M,M,83.55,KDRA 041753Z AUTO 00000KT 10SM CLR 31/02 A2992 RMK AO2 SLP083 T03060017 10306 20211 58006,M
BVU,2023-06-04 17:55,-114.8611,35.9475,671.00,87.80,33.80,14.61,M,4.00,0.00,29.86,M,10.00,M,CLR,M,M,M,M,M,M,M,M,M,M,M,M,M,M,84.10,KBVU 041755Z AUTO VRB04KT 10SM CLR 31/01 A2986 RMK AO2,M
CXP,2023-06-04 17:55,-119.7326,39.1923,1431.00,75.20,37.40,25.40,M,5.00,0.00,30.07,M,10.00,10.00,CLR,M,M,M,M,M,M,M,M,M,M,M,M,M,M,75.20,KCXP 041755Z AUTO VRB05G10KT 10SM CLR 24/03 A3007 RMK AO2,M
INS,2023-06-04 17:55,-115.6733,36.5872,955.00,83.80,29.50,13.96,0.00,0.00,0.00,29.91,1008.00,10.00,M,CLR,M,M,M,M,M,M,M,M,M,M,M,M,M,M,80.96,KINS 041755Z AUTO 00000KT 10SM CLR 29/M01 A2991 RMK AO2 SLP080 T02881014 10288 20162 57008 $,M
RNO,2023-06-04 17:55,-119.7711,39.4839,1341.00,78.00,41.00,26.55,M,3.00,0.00,30.03,1011.40,10.00,M,FEW,FEW,FEW,M,10000.00,20000.00,25000.00,M,M,M,M,M,M,M,M,78.10,KRNO 041755Z VRB03KT 10SM FEW100 FEW200 FEW250 26/05 A3003 RMK AO2 SLP114 T02560050 10256 20133 58011 $,M
RTS,2023-06-04 17:55,-119.8764,39.6682,1539.00,73.40,37.40,26.98,120.00,7.00,0.00,30.08,M,10.00,15.00,CLR,M,M,M,M,M,M,M,M,M,M,M,M,M,M,73.40,KRTS 041755Z AUTO 12007G15KT 10SM CLR 23/03 A3008 RMK AO2,M
MEV,2023-06-04 17:55,-119.7500,38.9963,1441.42,71.60,41.00,33.00,0.00,0.00,0.00,30.06,M,9.00,M,CLR,M,M,M,M,M,M,M,M,M,M,M,M,M,M,71.60,KMEV 041755Z AUTO 00000KT 9SM CLR 22/05 A3006 RMK AO2,M
HTH,2023-06-04 17:55,-118.6315,38.5448,1282.89,75.20,35.60,23.66,M,3.00,0.00,30.04,M,10.00,M,CLR,M,M,M,M,M,M,M,M,M,M,M,M,M,M,75.20,KHTH 041755Z AUTO VRB03KT 10SM CLR 24/02 A3004 RMK A01,M
BAM,2023-06-04 17:55,-116.8743,40.5990,1382.36,73.40,44.60,35.66,30.00,6.00,0.00,30.08,M,10.00,M,CLR,M,M,M,M,M,M,M,M,M,M,M,M,M,M,73.40,KBAM 041755Z AUTO 03006KT 10SM CLR 23/07 A3008 RMK AO1,M
TMT,2023-06-04 17:55,-117.1971,39.4643,1749.34,67.60,41.50,38.58,40.00,3.00,0.00,30.12,M,10.00,M,CLR,M,M,M,M,M,M,M,M,M,M,M,M,M,M,67.60,KTMT 041755Z AUTO 04003KT 10SM CLR 20/05 A3012 RMK AO2 T01980053 10198 20023,M
LSV,2023-06-04 17:55,-115.0343,36.2362,570.00,92.00,36.00,13.93,10.00,6.00,0.00,29.82,1007.20,10.00,M,CLR,M,M,M,M,M,M,M,M,M,M,M,M,M,M,87.80,KLSV 041755Z AUTO 01006KT 10SM CLR 33/02 A2982 RMK AO2 SLP072 T03340022 10335 20240 58006 $,M
EKO,2023-06-04 17:56,-115.7860,40.8242,1367.00,69.00,46.00,43.52,M,M,0.00,30.10,1015.20,10.00,M,CLR,M,M,M,M,M,M,M,M,M,M,M,M,M,M,69.10,KEKO 041756Z AUTO 10SM CLR 21/08 A3010 RMK AO2 SLP152 T02060078 10206 20094 58007 $,M
WMC,2023-06-04 17:56,-117.8072,40.9019,1315.00,77.00,45.00,32.10,30.00,11.00,0.00,30.05,1013.70,10.00,M,CLR,M,M,M,M,M,M,M,M,M,M,M,M,M,M,77.00,KWMC 041756Z AUTO 03011KT 10SM CLR 25/07 A3005 RMK AO2 SLP137 T02500072 10250 20072 58008,M
NFL,2023-06-04 17:56,-118.7010,39.4166,1199.00,79.00,41.00,25.78,M,5.00,0.00,30.01,1013.30,10.00,M,FEW,SCT,M,M,8000.00,25000.00,M,M,M,M,M,M,M,M,M,79.00,KNFL 041756Z VRB05KT 10SM FEW080 SCT250 26/05 A3001 RMK AO2 SLP133 T02610050 10261 20106 58007,M
HND,2023-06-04 17:56,-115.1344,35.9729,742.79,88.00,39.00,17.83,80.00,7.00,0.00,29.90,1011.10,10.00,M,CLR,M,M,M,M,M,M,M,M,M,M,M,M,M,M,84.38,KHND 041756Z 08007KT 10SM CLR 31/04 A2990 RMK AO2 SLP111 T03110039 10311 20228 58004,M
TPH,2023-06-04 17:56,-117.0904,38.0505,1654.00,74.00,39.00,28.25,M,M,0.00,30.08,1011.30,10.00,M,CLR,M,M,M,M,M,M,M,M,M,M,M,M,M,M,73.90,KTPH 041756Z AUTO 10SM CLR 23/04 A3008 RMK AO2 SLP113 T02330039 10239 20117 58009,M
LAS,2023-06-04 17:56,-115.1634,36.0719,663.00,88.00,37.00,16.49,0.00,0.00,0.00,29.87,1008.60,10.00,M,FEW,FEW,M,M,11000.00,14000.00,M,M,M,M,M,M,M,M,M,84.32,KLAS 041756Z 00000KT 10SM FEW110 FEW140 31/03 A2987 RMK AO2 SLP086 T03110028 10317 20244 58004,M
BVU,2023-06-04 18:15,-114.8611,35.9475,671.00,89.60,32.00,12.84,M,4.00,0.00,29.86,M,10.00,M,CLR,M,M,M,M,M,M,M,M,M,M,M,M,M,M,85.54,KBVU 041815Z AUTO VRB04KT 10SM CLR 32/00 A2986 RMK AO2,M
CXP,2023-06-04 18:15,-119.7326,39.1923,1431.00,77.00,35.60,22.28,70.00,5.00,0.00,30.06,M,10.00,M,CLR,M,M,M,M,M,M,M,M,M,M,M,M,M,M,77.00,KCXP 041815Z AUTO 07005KT 10SM CLR 25/02 A3006 RMK AO2,M
RTS,2023-06-04 18:15,-119.8764,39.6682,1539.00,75.20,35.60,23.66,150.00,10.00,0.00,30.08,M,10.00,15.00,CLR,M,M,M,M,M,M,M,M,M,M,M,M,M,M,75.20,KRTS 041815Z AUTO 15010G15KT 110V170 10SM CLR 24/02 A3008 RMK AO2,M
MEV,2023-06-04 18:15,-119.7500,38.9963,1441.42,75.20,39.20,27.26,0.00,0.00,0.00,30.05,M,10.00,M,CLR,M,M,M,M,M,M,M,M,M,M,M,M,M,M,75.20,KMEV 041815Z AUTO 00000KT 10SM CLR 24/04 A3005 RMK AO2,M
BAM,2023-06-04 18:15,-116.8743,40.5990,1382.36,73.40,44.60,35.66,60.00,10.00,0.00,30.08,M,10.00,M,CLR,M,M,M,M,M,M,M,M,M,M,M,M,M,M,73.40,KBAM 041815Z AUTO 06010KT 10SM CLR 23/07 A3008 RMK AO1,M
HTH,2023-06-04 18:15,-118.6315,38.5448,1282.89,77.00,35.60,22.28,330.00,4.00,0.00,30.03,M,10.00,M,CLR,M,M,M,M,M,M,M,M,M,M,M,M,M,M,77.00,KHTH 041815Z AUTO 33004KT 10SM CLR 25/02 A3003 RMK A01,M
TMT,2023-06-04 18:15,-117.1971,39.4643,1749.34,68.00,40.50,36.60,350.00,7.00,0.00,30.12,M,10.00,M,CLR,M,M,M,M,M,M,M,M,M,M,M,M,M,M,68.00,KTMT 041815Z AUTO 35007KT 10SM CLR 20/05 A3012 RMK AO2 T02000047,M
BVU,2023-06-04 18:35,-114.8611,35.9475,671.00,89.60,32.00,12.84,M,3.00,0.00,29.85,M,10.00,M,CLR,M,M,M,M,M,M,M,M,M,M,M,M,M,M,85.54,KBVU 041835Z AUTO VRB03KT 10SM CLR 32/00 A2985 RMK AO2,M
CXP,2023-06-04 18:35,-119.7326,39.1923,1431.00,77.00,37.40,23.93,M,5.00,0.00,30.05,M,10.00,10.00,CLR,M,M,M,M,M,M,M,M,M,M,M,M,M,M,77.00,KCXP 041835Z AUTO VRB05G10KT 10SM CLR 25/03 A3005 RMK AO2,M
RTS,2023-06-04 18:35,-119.8764,39.6682,1539.00,73.40,35.60,25.13,M,5.00,0.00,30.07,M,10.00,12.00,CLR,M,M,M,M,M,M,M,M,M,M,M,M,M,M,73.40,KRTS 041835Z AUTO VRB05G12KT 10SM CLR 23/02 A3007 RMK AO2,M
MEV,2023-06-04 18:35,-119.7500,38.9963,1441.42,75.20,37.40,25.40,250.00,7.00,0.00,30.04,M,10.00,M,CLR,M,M,M,M,M,M,M,M,M,M,M,M,M,M,75.20,KMEV 041835Z AUTO 25007KT 10SM CLR 24/03 A3004 RMK AO2,M
BAM,2023-06-04 18:35,-116.8743,40.5990,1382.36,75.20,42.80,31.34,20.00,5.00,0.00,30.08,M,10.00,9.00,CLR,M,M,M,M,M,M,M,M,M,M,M,M,M,M,75.20,KBAM 041835Z AUTO 02005G09KT 10SM CLR 24/06 A3008 RMK AO1,M
HTH,2023-06-04 18:35,-118.6315,38.5448,1282.89,77.00,33.80,20.74,M,5.00,0.00,30.03,M,10.00,M,CLR,M,M,M,M,M,M,M,M,M,M,M,M,M,M,77.00,KHTH 041835Z AUTO VRB05KT 10SM CLR 25/01 A3003 RMK A01,M
TMT,2023-06-04 18:35,-117.1971,39.4643,1749.34,69.30,40.30,34.74,250.00,6.00,0.00,30.12,M,10.00,M,CLR,M,M,M,M,M,M,M,M,M,M,M,M,M,M,69.30,KTMT 041835Z AUTO 25006KT 10SM CLR 21/05 A3012 RMK AO2 T02070046,M
DRA,2023-06-04 18:53,-116.0278,36.6206,1009.00,89.00,34.00,14.14,M,M,0.00,29.91,1007.90,10.00,M,CLR,M,M,M,M,M,M,M,M,M,M,M,M,M,M,85.17,KDRA 041853Z AUTO 10SM CLR 32/01 A2991 RMK AO2 SLP079 T03170011,M
ELY,2023-06-04 18:53,-114.8453,39.2950,1909.00,69.00,36.00,29.55,360.00,7.00,0.00,30.13,1012.60,10.00,M,CLR,M,M,M,M,M,M,M,M,M,M,M,M,M,M,69.10,KELY 041853Z AUTO 36007KT 10SM CLR 21/02 A3013 RMK AO2 SLP126 T02060022,M
LOL,2023-06-04 18:53,-118.5701,40.0684,1192.43,80.00,39.00,23.00,M,4.00,0.00,30.00,1012.20,10.00,M,CLR,M,M,M,M,M,M,M,M,M,M,M,M,M,M,78.89,KLOL 041853Z AUTO VRB04KT 10SM CLR 27/04 A3000 RMK AO2 SLP122 T02670039,M
P68,2023-06-04 18:53,-116.0056,39.6014,1993.00,69.00,38.00,31.85,350.00,6.00,0.00,30.11,1013.50,M,M,M,M,M,M,M,M,M,M,M,M,M,M,M,M,M,69.10,KP68 041853Z AUTO 35006KT 21/03 A3011 RMK AO1 SLP135 T02060033,M
VGT,2023-06-04 18:53,-115.1933,36.2111,667.00,92.00,38.00,15.11,M,4.00,0.00,29.85,1009.60,10.00,M,CLR,M,M,M,M,M,M,M,M,M,M,M,M,M,M,87.69,KVGT 041853Z VRB04KT 10SM CLR 33/03 A2985 RMK AO2 SLP096 T03330033 $,M
BVU,2023-06-04 18:55,-114.8611,35.9475,671.00,89.60,32.00,12.84,70.00,5.00,0.00,29.85,M,10.00,M,CLR,M,M,M,M,M,M,M,M,M,M,M,M,M,M,85.54,KBVU 041855Z AUTO 07005KT 10SM CLR 32/M00 A2985 RMK AO2,M
CXP,2023-06-04 18:55,-119.7326,39.1923,1431.00,78.80,35.60,21.00,90.00,7.00,0.00,30.05,M,10.00,M,CLR,M,M,M,M,M,M,M,M,M,M,M,M,M,M,78.80,KCXP 041855Z AUTO 09007KT 10SM CLR 26/02 A3005 RMK AO2,M
INS,2023-06-04 18:55,-115.6733,36.5872,955.00,86.20,27.70,12.01,0.00,0.00,0.00,29.91,1008.00,10.00,M,CLR,M,M,M,M,M,M,M,M,M,M,M,M,M,M,82.62,KINS 041855Z AUTO 00000KT 10SM CLR 30/M02 A2991 RMK AO2 SLP080 T03011024 $,M
RNO,2023-06-04 18:55,-119.7711,39.4839,1341.00,81.00,37.00,20.65,60.00,4.00,0.00,30.02,1010.80,10.00,M,FEW,FEW,SCT,M,10000.00,20000.00,25000.00,M,M,M,M,M,M,M,M,79.24,KRNO 041855Z 06004KT 10SM FEW100 FEW200 SCT250 27/03 A3002 RMK AO2 SLP108 TCU DSNT S T02720028 $,M
RTS,2023-06-04 18:55,-119.8764,39.6682,1539.00,75.20,35.60,23.66,90.00,9.00,0.00,30.07,M,10.00,M,CLR,M,M,M,M,M,M,M,M,M,M,M,M,M,M,75.20,KRTS 041855Z AUTO 09009KT 10SM CLR 24/02 A3007 RMK AO2,M
MEV,2023-06-04 18:55,-119.7500,38.9963,1441.42,77.00,39.20,25.67,240.00,5.00,0.00,30.04,M,10.00,10.00,CLR,M,M,M,M,M,M,M,M,M,M,M,M,M,M,77.00,KMEV 041855Z AUTO 24005G10KT 10SM CLR 25/04 A3004 RMK AO2,M
BAM,2023-06-04 18:55,-116.8743,40.5990,1382.36,75.20,42.80,31.34,40.00,6.00,0.00,30.07,M,10.00,M,CLR,M,M,M,M,M,M,M,M,M,M,M,M,M,M,75.20,KBAM 041855Z AUTO 04006KT 10SM CLR 24/06 A3007 RMK AO1,M
HTH,2023-06-04 18:55,-118.6315,38.5448,1282.89,78.80,33.80,19.55,350.00,5.00,0.00,30.02,M,10.00,10.00,CLR,M,M,M,M,M,M,M,M,M,M,M,M,M,M,78.80,KHTH 041855Z AUTO 35005G10KT 10SM CLR 26/01 A3002 RMK A01,M
TMT,2023-06-04 18:55,-117.1971,39.4643,1749.34,70.30,40.50,33.83,340.00,6.00,0.00,30.11,M,10.00,M,CLR,M,M,M,M,M,M,M,M,M,M,M,M,M,M,70.30,KTMT 041855Z AUTO 34006KT 10SM CLR 21/05 A3011 RMK AO2 LTG DSNT N T02130047,M
LSV,2023-06-04 18:55,-115.0343,36.2362,570.00,95.50,37.00,12.99,50.00,6.00,0.00,29.81,1006.80,10.00,M,CLR,M,M,M,M,M,M,M,M,M,M,M,M,M,M,90.88,KLSV 041855Z AUTO 05006KT 10SM CLR 35/03 A2981 RMK AO2 SLP068 T03530027 $,M
WMC,2023-06-04 18:56,-117.8072,40.9019,1315.00,78.00,46.00,32.15,30.00,13.00,0.00,30.04,1013.20,10.00,23.00,FEW,M,M,M,7000.00,M,M,M,M,M,M,M,M,M,M,78.10,KWMC 041856Z AUTO 03013G23KT 10SM FEW070 26/08 A3004 RMK AO2 SLP132 T02560078,M
TPH,2023-06-04 18:56,-117.0904,38.0505,1654.00,77.00,39.00,25.47,M,5.00,0.00,30.06,1011.00,10.00,M,CLR,M,M,M,M,M,M,M,M,M,M,M,M,M,M,77.00,KTPH 041856Z AUTO VRB05KT 10SM CLR 25/04 A3006 RMK AO2 SLP110 T02500039,M
LAS,2023-06-04 18:56,-115.1634,36.0719,663.00,90.00,37.00,15.48,M,4.00,0.00,29.86,1008.30,10.00,M,FEW,FEW,M,M,11000.00,14000.00,M,M,M,M,M,M,M,M,M,86.00,KLAS 041856Z VRB04KT 10SM FEW110 FEW140 32/03 A2986 RMK AO2 SLP083 CB DSNT N T03220028,M
HND,2023-06-04 18:56,-115.1344,35.9729,742.79,90.00,38.00,16.04,40.00,7.00,0.00,29.89,1010.70,10.00,M,CLR,M,M,M,M,M,M,M,M,M,M,M,M,M,M,86.03,KHND 041856Z 04007KT 10SM CLR 32/03 A2989 RMK AO2 SLP107 T03220033,M
EKO,2023-06-04 18:56,-115.7860,40.8242,1367.00,71.00,47.00,42.05,M,4.00,0.00,30.08,1014.50,10.00,M,CLR,M,M,M,M,M,M,M,M,M,M,M,M,M,M,71.10,KEKO 041856Z AUTO VRB04KT 10SM CLR 22/08 A3008 RMK AO2 LTG DSNT NW SLP145 T02170083 $,M
NFL,2023-06-04 18:56,-118.7010,39.4166,1199.00,80.00,38.00,22.03,10.00,4.00,0.00,30.00,1013.00,10.00,M,FEW,FEW,M,M,8000.00,25000.00,M,M,M,M,M,M,M,M,M,78.85,KNFL 041856Z 01004KT 10SM FEW080 FEW250 27/03 A3000 RMK AO2 SLP130 T02670033,M
BVU,2023-06-04 19:15,-114.8611,35.9475,671.00,91.40,32.00,12.14,M,3.00,0.00,29.84,M,10.00,M,CLR,M,M,M,M,M,M,M,M,M,M,M,M,M,M,86.91,KBVU 041915Z AUTO VRB03KT 10SM CLR 33/M00 A2984 RMK AO2,M
CXP,2023-06-04 19:15,-119.7326,39.1923,1431.00,78.80,35.60,21.00,90.00,8.00,0.00,30.04,M,10.00,M,CLR,M,M,M,M,M,M,M,M,M,M,M,M,M,M,78.80,KCXP 041915Z AUTO 09008KT 050V120 10SM CLR 26/02 A3004 RMK AO2,M
RTS,2023-06-04 19:15,-119.8764,39.6682,1539.00,77.00,33.80,20.74,100.00,7.00,0.00,30.07,M,10.00,16.00,CLR,M,M,M,M,M,M,M,M,M,M,M,M,M,M,77.00,KRTS 041915Z AUTO 10007G16KT 10SM CLR 25/01 A3007 RMK AO2,M
MEV,2023-06-04 19:15,-119.7500,38.9963,1441.42,77.00,39.20,25.67,M,5.00,0.00,30.03,M,10.00,M,CLR,M,M,M,M,M,M,M,M,M,M,M,M,M,M,77.00,KMEV 041915Z AUTO VRB05KT 10SM CLR 25/04 A3003 RMK AO2,M
BAM,2023-06-04 19:15,-116.8743,40.5990,1382.36,77.00,42.80,29.51,40.00,8.00,0.00,30.07,M,10.00,15.00,CLR,M,M,M,M,M,M,M,M,M,M,M,M,M,M,77.00,KBAM 041915Z AUTO 04008G15KT 10SM CLR 25/06 A3007 RMK AO1,M
HTH,2023-06-04 19:15,-118.6315,38.5448,1282.89,78.80,33.80,19.55,0.00,0.00,0.00,30.01,M,10.00,11.00,CLR,M,M,M,M,M,M,M,M,M,M,M,M,M,M,78.80,KHTH 041915Z AUTO 00000G11KT 10SM CLR 26/01 A3001 RMK A01,M
TMT,2023-06-04 19:15,-117.1971,39.4643,1749.34,71.40,40.00,32.09,280.00,6.00,0.00,30.10,M,10.00,M,CLR,M,M,M,M,M,M,M,M,M,M,M,M,M,M,71.40,KTMT 041915Z AUTO 28006KT 10SM CLR 22/05 A3010 RMK AO2 LTG DSNT NE T02190045,M
BVU,2023-06-04 19:35,-114.8611,35.9475,671.00,91.40,32.00,12.14,0.00,0.00,0.00,29.83,M,10.00,M,CLR,M,M,M,M,M,M,M,M,M,M,M,M,M,M,86.91,KBVU 041935Z AUTO 00000KT 10SM CLR 33/M00 A2983 RMK AO2,M
CXP,2023-06-04 19:35,-119.7326,39.1923,1431.00,78.80,33.80,19.55,360.00,5.00,0.00,30.04,M,10.00,10.00,CLR,M,M,M,M,M,M,M,M,M,M,M,M,M,M,78.80,KCXP 041935Z AUTO 36005G10KT 10SM CLR 26/01 A3004 RMK AO2,M
RTS,2023-06-04 19:35,-119.8764,39.6682,1539.00,77.00,33.80,20.74,M,5.00,0.00,30.06,M,10.00,M,CLR,M,M,M,M,M,M,M,M,M,M,M,M,M,M,77.00,KRTS 041935Z AUTO VRB05KT 10SM CLR 25/01 A3006 RMK AO2,M
MEV,2023-06-04 19:35,-119.7500,38.9963,1441.42,78.80,37.40,22.54,M,4.00,0.00,30.03,M,10.00,M,CLR,M,M,M,M,M,M,M,M,M,M,M,M,M,M,78.80,KMEV 041935Z AUTO VRB04KT 10SM CLR 26/03 A3003 RMK AO2,M
BAM,2023-06-04 19:35,-116.8743,40.5990,1382.36,75.20,42.80,31.34,50.00,10.00,0.00,30.07,M,10.00,M,CLR,M,M,M,M,M,M,M,M,M,M,M,M,M,M,75.20,KBAM 041935Z AUTO 05010KT 10SM CLR 24/06 A3007 RMK AO1,M
HTH,2023-06-04 19:35,-118.6315,38.5448,1282.89,78.80,33.80,19.55,M,5.00,0.00,30.01,M,10.00,11.00,CLR,M,M,M,M,M,M,M,M,M,M,M,M,M,M,78.80,KHTH 041935Z AUTO VRB05G11KT 10SM CLR 26/01 A3001 RMK A01,M
TMT,2023-06-04 19:35,-117.1971,39.4643,1749.34,71.00,39.00,31.05,330.00,4.00,0.00,30.10,M,10.00,M,CLR,M,M,M,M,M,M,M,M,M,M,M,M,M,M,71.10,KTMT 041935Z AUTO 33004KT 10SM CLR 22/04 A3010 RMK AO2 LTG DSNT N T02170039,M
P68,2023-06-04 19:53,-116.0056,39.6014,1993.00,70.00,37.00,29.81,M,3.00,0.00,30.09,1013.10,M,M,M,M,M,M,M,M,M,M,M,M,M,M,M,M,M,70.00,KP68 041953Z AUTO VRB03KT 21/03 A3009 RMK AO1 SLP131 T02110028,M
DRA,2023-06-04 19:53,-116.0278,36.6206,1009.00,91.00,32.00,12.29,130.00,12.00,0.00,29.89,1006.90,10.00,18.00,CLR,M,M,M,M,M,M,M,M,M,M,M,M,M,M,86.61,KDRA 041953Z AUTO 13012G18KT 10SM CLR 33/00 A2989 RMK AO2 SLP069 T03280000,M
ELY,2023-06-04 19:53,-114.8453,39.2950,1909.00,70.00,36.00,28.65,M,6.00,0.00,30.11,1012.50,10.00,M,BKN,M,M,M,9000.00,M,M,M,M,M,M,M,M,M,M,70.00,KELY 041953Z AUTO VRB06KT 10SM BKN090 21/02 A3011 RMK AO2 SLP125 T02110022,M
VGT,2023-06-04 19:53,-115.1933,36.2111,667.00,94.00,37.00,13.71,0.00,0.00,0.00,29.83,1008.80,10.00,M,CLR,M,M,M,M,M,M,M,M,M,M,M,M,M,M,89.44,KVGT 041953Z 00000KT 10SM CLR 34/03 A2983 RMK AO2 LTG DSNT N SLP088 T03440028 $,M
LOL,2023-06-04 19:53,-118.5701,40.0684,1192.43,81.00,40.00,23.13,80.00,7.00,0.00,29.99,1012.00,10.00,M,CLR,M,M,M,M,M,M,M,M,M,M,M,M,M,M,79.37,KLOL 041953Z AUTO 08007KT 10SM CLR 27/04 A2999 RMK AO2 SLP120 T02720044,M
BVU,2023-06-04 19:55,-114.8611,35.9475,671.00,93.20,30.20,10.67,0.00,0.00,0.00,29.83,M,10.00,M,CLR,M,M,M,M,M,M,M,M,M,M,M,M,M,M,88.09,KBVU 041955Z AUTO 00000KT 10SM CLR 34/M01 A2983 RMK AO2 LTG DSNT N,M
CXP,2023-06-04 19:55,-119.7326,39.1923,1431.00,80.60,35.60,19.79,30.00,9.00,0.00,30.03,M,10.00,M,CLR,M,M,M,M,M,M,M,M,M,M,M,M,M,M,78.94,KCXP 041955Z AUTO 03009KT 360V080 10SM CLR 27/02 A3003 RMK AO2 LTG DSNT NE,M
INS,2023-06-04 19:55,-115.6733,36.5872,955.00,88.70,27.50,11.00,220.00,6.00,0.00,29.89,1007.30,10.00,M,OVC,M,M,M,15000.00,M,M,M,M,M,M,M,M,M,M,84.42,KINS 041955Z AUTO 22006KT 10SM OVC150 32/M02 A2989 RMK AO2 SLP073 T03151025 $,M
RTS,2023-06-04 19:55,-119.8764,39.6682,1539.00,75.20,33.80,22.02,0.00,0.00,0.00,30.05,M,10.00,M,CLR,M,M,M,M,M,M,M,M,M,M,M,M,M,M,75.20,KRTS 041955Z AUTO 00000KT 10SM CLR 24/01 A3005 RMK AO2,M
MEV,2023-06-04 19:55,-119.7500,38.9963,1441.42,78.80,37.40,22.54,0.00,0.00,0.00,30.02,M,10.00,10.00,CLR,M,M,M,M,M,M,M,M,M,M,M,M,M,M,78.80,KMEV 041955Z AUTO 00000G10KT 10SM CLR 26/03 A3002 RMK AO2 LTG DSNT NE,M
BAM,2023-06-04 19:55,-116.8743,40.5990,1382.36,75.20,42.80,31.34,60.00,12.00,0.00,30.06,M,10.00,17.00,CLR,M,M,M,M,M,M,M,M,M,M,M,M,M,M,75.20,KBAM 041955Z AUTO 06012G17KT 10SM CLR 24/06 A3006 RMK AO1,M
HTH,2023-06-04 19:55,-118.6315,38.5448,1282.89,80.60,32.00,17.14,310.00,7.00,0.00,30.00,M,10.00,14.00,CLR,M,M,M,M,M,M,M,M,M,M,M,M,M,M,78.82,KHTH 041955Z AUTO 31007G14KT 10SM CLR 27/00 A3000 RMK A01,M
RNO,2023-06-04 19:55,-119.7711,39.4839,1341.00,82.00,35.00,18.54,M,4.00,0.00,30.00,1010.40,10.00,M,SCT,SCT,SCT,M,10000.00,20000.00,25000.00,M,M,M,M,M,M,M,M,79.80,KRNO 041955Z VRB04KT 10SM SCT100 SCT200 SCT250 28/02 A3000 RMK AO2 SLP104 CB DSNT SE THRU SW T02780017 $,M
LSV,2023-06-04 19:55,-115.0343,36.2362,570.00,98.80,35.00,10.94,90.00,3.00,0.00,29.78,1005.80,10.00,M,CLR,M,M,M,M,M,M,M,M,M,M,M,M,M,M,93.32,KLSV 041955Z AUTO 09003KT 10SM CLR 37/02 A2978 RMK AO2 SLP058 T03710017 $,M
TMT,2023-06-04 19:55,-117.1971,39.4643,1749.34,72.00,36.00,26.87,220.00,3.00,0.00,30.09,M,10.00,M,CLR,M,M,M,M,M,M,M,M,M,M,M,M,M,M,72.00,KTMT 041955Z AUTO 22003KT 10SM CLR 22/02 A3009 RMK AO2 LTG DSNT N T02220023,M
WMC,2023-06-04 19:56,-117.8072,40.9019,1315.00,78.00,45.00,30.95,30.00,11.00,0.00,30.03,1012.80,10.00,19.00,CLR,M,M,M,M,M,M,M,M,M,M,M,M,M,M,78.10,KWMC 041956Z AUTO 03011G19KT 10SM CLR 26/07 A3003 RMK AO2 SLP128 T02560072,M
HND,2023-06-04 19:56,-115.1344,35.9729,742.79,92.00,36.00,14.02,M,3.00,0.00,29.87,1009.90,10.00,M,CLR,M,M,M,M,M,M,M,M,M,M,M,M,M,M,87.62,KHND 041956Z VRB03KT 10SM CLR 33/02 A2987 RMK AO2 SLP099 T03330022,M
LAS,2023-06-04 19:56,-115.1634,36.0719,663.00,93.00,37.00,14.09,70.00,3.00,0.00,29.83,1007.30,10.00,M,FEW,FEW,M,M,11000.00,14000.00,M,M,M,M,M,M,M,M,M,88.63,KLAS 041956Z 07003KT 10SM FEW110 FEW140 34/03 A2983 RMK AO2 SLP073 CB DSNT N TCU DSNT NE-E T03390028,M
EKO,2023-06-04 19:56,-115.7860,40.8242,1367.00,68.00,47.00,46.76,310.00,11.00,0.00,30.07,1014.60,10.00,14.00,CLR,M,M,M,M,M,M,M,M,M,M,M,M,M,M,68.00,KEKO 041956Z AUTO 31011G14KT 10SM CLR 20/08 A3007 RMK AO2 LTG DSNT N AND NW SLP146 T02000083 $,M
NFL,2023-06-04 19:56,-118.7010,39.4166,1199.00,82.00,38.00,20.71,M,5.00,0.00,29.99,1012.50,10.00,M,FEW,FEW,M,M,8000.00,25000.00,M,M,M,M,M,M,M,M,M,79.90,KNFL 041956Z VRB05KT 10SM FEW080 FEW250 28/03 A2999 RMK AO2 SLP125 T02780033,M
TPH,2023-06-04 19:56,-117.0904,38.0505,1654.00,79.00,35.00,20.45,250.00,7.00,0.00,30.05,1010.30,10.00,M,CLR,M,M,M,M,M,M,M,M,M,M,M,M,M,M,79.00,KTPH 041956Z AUTO 25007KT 10SM CLR 26/02 A3005 RMK AO2 SLP103 T02610017,M
BVU,2023-06-04 20:15,-114.8611,35.9475,671.00,95.00,30.20,10.09,60.00,7.00,0.00,29.81,M,10.00,M,CLR,M,M,M,M,M,M,M,M,M,M,M,M,M,M,89.48,KBVU 042015Z AUTO 06007KT 030V090 10SM CLR 35/M01 A2981 RMK AO2 LTG DSNT N AND NE,M
CXP,2023-06-04 20:15,-119.7326,39.1923,1431.00,82.40,33.80,17.38,90.00,7.00,0.00,30.02,M,10.00,20.00,CLR,M,M,M,M,M,M,M,M,M,M,M,M,M,M,80.03,KCXP 042015Z AUTO 09007G20KT 070V130 10SM CLR 28/01 A3002 RMK AO2 LTG DSNT NE,M
RTS,2023-06-04 20:15,-119.8764,39.6682,1539.00,77.00,33.80,20.74,150.00,5.00,0.00,30.05,M,10.00,11.00,CLR,M,M,M,M,M,M,M,M,M,M,M,M,M,M,77.00,KRTS 042015Z AUTO 15005G11KT 10SM CLR 25/01 A3005 RMK AO2,M
MEV,2023-06-04 20:15,-119.7500,38.9963,1441.42,80.60,37.40,21.25,300.00,7.00,0.00,30.01,M,10.00,M,CLR,M,M,M,M,M,M,M,M,M,M,M,M,M,M,79.02,KMEV 042015Z AUTO 30007KT 10SM CLR 27/03 A3001 RMK AO2 LTG DSNT NE,M
BAM,2023-06-04 20:15,-116.8743,40.5990,1382.36,77.00,42.80,29.51,30.00,11.00,0.00,30.05,M,10.00,15.00,CLR,M,M,M,M,M,M,M,M,M,M,M,M,M,M,77.00,KBAM 042015Z AUTO 03011G15KT 10SM CLR 25/06 A3005 RMK AO1,M
HTH,2023-06-04 20:15,-118.6315,38.5448,1282.89,80.60,32.00,17.14,40.00,6.00,0.00,29.99,M,10.00,M,CLR,M,M,M,M,M,M,M,M,M,M,M,M,M,M,78.82,KHTH 042015Z AUTO 04006KT 10SM CLR 27/M00 A2999 RMK A01,M
TMT,2023-06-04 20:15,-117.1971,39.4643,1749.34,73.20,35.60,25.30,0.00,0.00,0.00,30.09,M,10.00,M,CLR,M,M,M,M,M,M,M,M,M,M,M,M,M,M,73.20,KTMT 042015Z AUTO 00000KT 10SM CLR 23/02 A3009 RMK AO2 LTG DSNT N AND E T02290020,M
BVU,2023-06-04 20:35,-114.8611,35.9475,671.00,93.20,30.20,10.67,50.00,8.00,0.00,29.81,M,10.00,M,CLR,M,M,M,M,M,M,M,M,M,M,M,M,M,M,88.09,KBVU 042035Z AUTO 05008KT 10SM CLR 34/M01 A2981 RMK AO2,M
CXP,2023-06-04 20:35,-119.7326,39.1923,1431.00,80.60,33.80,18.42,M,5.00,0.00,30.02,M,10.00,M,CLR,M,M,M,M,M,M,M,M,M,M,M,M,M,M,78.88,KCXP 042035Z AUTO VRB05KT 10SM CLR 27/01 A3002 RMK AO2,M
RTS,2023-06-04 20:35,-119.8764,39.6682,1539.00,77.00,33.80,20.74,120.00,7.00,0.00,30.05,M,10.00,14.00,FEW,M,M,M,9000.00,M,M,M,M,M,M,M,M,M,M,77.00,KRTS 042035Z AUTO 12007G14KT 10SM FEW090 25/01 A3005 RMK AO2,M
MEV,2023-06-04 20:35,-119.7500,38.9963,1441.42,80.60,37.40,21.25,M,5.00,0.00,30.00,M,10.00,M,CLR,M,M,M,M,M,M,M,M,M,M,M,M,M,M,79.02,KMEV 042035Z AUTO VRB05KT 10SM CLR 27/03 A3000 RMK AO2,M
BAM,2023-06-04 20:35,-116.8743,40.5990,1382.36,78.80,42.80,27.81,70.00,9.00,0.00,30.05,M,10.00,15.00,CLR,M,M,M,M,M,M,M,M,M,M,M,M,M,M,78.80,KBAM 042035Z AUTO 07009G15KT 10SM CLR 26/06 A3005 RMK AO1,M
HTH,2023-06-04 20:35,-118.6315,38.5448,1282.89,82.40,32.00,16.17,330.00,7.00,0.00,29.98,M,10.00,M,CLR,M,M,M,M,M,M,M,M,M,M,M,M,M,M,80.00,KHTH 042035Z AUTO 33007KT 10SM CLR 28/00 A2998 RMK A01,M
TMT,2023-06-04 20:35,-117.1971,39.4643,1749.34,74.00,38.00,27.06,290.00,5.00,0.00,30.08,M,10.00,M,CLR,M,M,M,M,M,M,M,M,M,M,M,M,M,M,73.90,KTMT 042035Z AUTO 29005KT 10SM CLR 23/03 A3008 RMK AO2 LTG DSNT S T02330033,M
ELY,2023-06-04 20:53,-114.8453,39.2950,1909.00,71.00,34.00,25.49,M,M,0.00,30.09,1011.70,10.00,M,FEW,BKN,M,M,8000.00,11000.00,M,M,M,M,M,M,M,M,M,71.10,KELY 042053Z AUTO 10SM FEW080 BKN110 22/01 A3009 RMK AO2 SLP117 T02170011 58012,M
VGT,2023-06-04 20:53,-115.1933,36.2111,667.00,96.00,36.00,12.31,30.00,6.00,0.00,29.80,1007.90,10.00,M,CLR,M,M,M,M,M,M,M,M,M,M,M,M,M,M,91.21,KVGT 042053Z 03006KT 10SM CLR 36/02 A2980 RMK AO2 SLP079 T03560022 58018 $,M
LOL,2023-06-04 20:53,-118.5701,40.0684,1192.43,83.00,39.00,21.00,70.00,6.00,0.00,29.97,1011.20,10.00,M,CLR,M,M,M,M,M,M,M,M,M,M,M,M,M,M,80.53,KLOL 042053Z AUTO 07006KT 10SM CLR 28/04 A2997 RMK AO2 SLP112 T02830039 58013,M
P68,2023-06-04 20:53,-116.0056,39.6014,1993.00,71.00,35.00,26.63,330.00,4.00,0.00,30.08,1012.50,M,M,M,M,M,M,M,M,M,M,M,M,M,M,M,M,M,71.10,KP68 042053Z AUTO 33004KT 22/02 A3008 RMK AO1 SLP125 T02170017 58014,M
DRA,2023-06-04 20:53,-116.0278,36.6206,1009.00,92.00,33.00,12.49,M,6.00,0.00,29.87,1006.30,10.00,20.00,CLR,M,M,M,M,M,M,M,M,M,M,M,M,M,M,87.44,KDRA 042053Z AUTO VRB06G20KT 10SM CLR 33/01 A2987 RMK AO2 SLP063 T03330006 58015,M
BVU,2023-06-04 20:55,-114.8611,35.9475,671.00,95.00,30.20,10.09,240.00,4.00,0.00,29.80,M,10.00,M,CLR,M,M,M,M,M,M,M,M,M,M,M,M,M,M,89.48,KBVU 042055Z AUTO 24004KT 10SM CLR 35/M01 A2980 RMK AO2,M
CXP,2023-06-04 20:55,-119.7326,39.1923,1431.00,80.60,33.80,18.42,80.00,7.00,0.00,30.01,M,10.00,M,CLR,M,M,M,M,M,M,M,M,M,M,M,M,M,M,78.88,KCXP 042055Z AUTO 08007KT 10SM CLR 27/01 A3001 RMK AO2,M
INS,2023-06-04 20:55,-115.6733,36.5872,955.00,88.30,24.80,9.96,180.00,8.00,0.00,29.87,1006.60,10.00,M,BKN,M,M,M,15000.00,M,M,M,M,M,M,M,M,M,M,83.92,KINS 042055Z AUTO 18008KT 10SM BKN150 31/M04 A2987 RMK AO2 SLP066 T03131040 57014 $,M
RNO,2023-06-04 20:55,-119.7711,39.4839,1341.00,82.00,34.00,17.74,M,3.00,0.00,29.98,1009.90,10.00,M,SCT,SCT,SCT,M,10000.00,20000.00,25000.00,M,M,M,M,M,M,M,M,79.77,KRNO 042055Z VRB03KT 10SM SCT100 SCT200 SCT250 28/01 A2998 RMK AO2 SLP099 CB DSNT SE THRU SW TCU DSNT W AND NW T02780011 58014 $,M
RTS,2023-06-04 20:55,-119.8764,39.6682,1539.00,78.80,33.80,19.55,80.00,8.00,0.00,30.04,M,10.00,M,FEW,M,M,M,9000.00,M,M,M,M,M,M,M,M,M,M,78.80,KRTS 042055Z AUTO 08008KT 030V130 10SM FEW090 26/01 A3004 RMK AO2,M
MEV,2023-06-04 20:55,-119.7500,38.9963,1441.42,80.60,35.60,19.79,330.00,9.00,0.00,29.99,M,10.00,M,CLR,M,M,M,M,M,M,M,M,M,M,M,M,M,M,78.94,KMEV 042055Z AUTO 33009KT 10SM CLR 27/02 A2999 RMK AO2,M
BAM,2023-06-04 20:55,-116.8743,40.5990,1382.36,77.00,44.60,31.62,60.00,10.00,0.00,30.04,M,10.00,M,CLR,M,M,M,M,M,M,M,M,M,M,M,M,M,M,77.00,KBAM 042055Z AUTO 06010KT 10SM CLR 25/07 A3004 RMK AO1,M
HTH,2023-06-04 20:55,-118.6315,38.5448,1282.89,82.40,32.00,16.17,M,6.00,0.00,29.97,M,10.00,19.00,CLR,M,M,M,M,M,M,M,M,M,M,M,M,M,M,80.00,KHTH 042055Z AUTO VRB06G19KT 10SM CLR 28/00 A2997 RMK A01,M
TMT,2023-06-04 20:55,-117.1971,39.4643,1749.34,73.60,37.80,27.23,90.00,3.00,0.00,30.07,M,10.00,M,CLR,M,M,M,M,M,M,M,M,M,M,M,M,M,M,73.60,KTMT 042055Z AUTO 09003KT 10SM CLR 23/03 A3007 RMK AO2 LTG DSNT N T02310032,M
LSV,2023-06-04 20:55,-115.0343,36.2362,570.00,100.20,33.80,9.96,130.00,4.00,0.00,29.76,1005.10,10.00,M,CLR,M,M,M,M,M,M,M,M,M,M,M,M,M,M,94.30,KLSV 042055Z AUTO 13004KT 10SM CLR 38/01 A2976 RMK AO2 SLP051 T03790010 57019 $,M
NFL,2023-06-04 20:56,-118.7010,39.4166,1199.00,83.00,36.00,18.66,M,5.00,0.00,29.97,1012.00,10.00,M,FEW,FEW,M,M,8000.00,25000.00,M,M,M,M,M,M,M,M,M,80.43,KNFL 042056Z VRB05KT 10SM FEW080 FEW250 28/02 A2997 RMK AO2 SLP120 CB DSNT S-SW T02830022 58013,M
HND,2023-06-04 20:56,-115.1344,35.9729,742.79,94.00,37.00,13.71,M,5.00,0.00,29.84,1008.80,10.00,M,CLR,M,M,M,M,M,M,M,M,M,M,M,M,M,M,89.44,KHND 042056Z VRB05KT 10SM CLR 34/03 A2984 RMK AO2 SLP088 T03440028 58021,M
TPH,2023-06-04 20:56,-117.0904,38.0505,1654.00,81.00,34.00,18.33,260.00,7.00,0.00,30.03,1009.70,10.00,17.00,CLR,M,M,M,M,M,M,M,M,M,M,M,M,M,M,79.13,KTPH 042056Z AUTO 26007G17KT 230V290 10SM CLR 27/01 A3003 RMK AO2 SLP097 T02720011 58015,M
EKO,2023-06-04 20:56,-115.7860,40.8242,1367.00,68.00,47.00,46.76,320.00,8.00,0.00,30.06,1014.50,10.00,M,CLR,M,M,M,M,M,M,M,M,M,M,M,M,M,M,68.00,KEKO 042056Z AUTO 32008KT 10SM CLR 20/08 A3006 RMK AO2 SLP145 T02000083 56011 $,M
LAS,2023-06-04 20:56,-115.1634,36.0719,663.00,95.00,35.00,12.29,10.00,4.00,0.00,29.81,1006.50,10.00,M,FEW,FEW,M,M,11000.00,14000.00,M,M,M,M,M,M,M,M,M,90.17,KLAS 042056Z 01004KT 10SM FEW110 FEW140 35/02 A2981 RMK AO2 SLP065 CB DSNT N AND S ACC DSNT NE-E T03500017 58019,M
WMC,2023-06-04 20:56,-117.8072,40.9019,1315.00,80.00,43.00,26.85,30.00,10.00,0.00,30.01,1012.00,10.00,16.00,CLR,M,M,M,M,M,M,M,M,M,M,M,M,M,M,79.04,KWMC 042056Z AUTO 03010G16KT 350V050 10SM CLR 27/06 A3001 RMK AO2 SLP120 T02670061 58012,M
BVU,2023-06-04 21:15,-114.8611,35.9475,671.00,95.00,30.20,10.09,M,7.00,0.00,29.79,M,10.00,M,CLR,M,M,M,M,M,M,M,M,M,M,M,M,M,M,89.48,KBVU 042115Z AUTO VRB07KT 330V040 10SM CLR 35/M01 A2979 RMK AO2,M
CXP,2023-06-04 21:15,-119.7326,39.1923,1431.00,80.60,32.00,17.14,M,3.00,0.00,30.00,M,10.00,M,CLR,M,M,M,M,M,M,M,M,M,M,M,M,M,M,78.82,KCXP 042115Z AUTO VRB03KT 10SM CLR 27/M00 A3000 RMK AO2,M
RTS,2023-06-04 21:15,-119.8764,39.6682,1539.00,78.80,32.00,18.18,80.00,5.00,0.00,30.03,M,10.00,M,CLR,M,M,M,M,M,M,M,M,M,M,M,M,M,M,78.80,KRTS 042115Z AUTO 08005KT 10SM CLR 26/M00 A3003 RMK AO2,M
MEV,2023-06-04 21:15,-119.7500,38.9963,1441.42,80.60,35.60,19.79,280.00,8.00,0.00,29.98,M,10.00,M,CLR,M,M,M,M,M,M,M,M,M,M,M,M,M,M,78.94,KMEV 042115Z AUTO 28008KT 250V310 10SM CLR 27/02 A2998 RMK AO2 LTG DSNT S AND SW,M
BAM,2023-06-04 21:15,-116.8743,40.5990,1382.36,75.20,44.60,33.57,50.00,13.00,0.00,30.04,M,10.00,M,CLR,M,M,M,M,M,M,M,M,M,M,M,M,M,M,75.20,KBAM 042115Z AUTO 05013KT 10SM CLR 24/07 A3004 RMK AO1,M
HTH,2023-06-04 21:15,-118.6315,38.5448,1282.89,84.20,32.00,15.25,10.00,8.00,0.00,29.96,M,10.00,13.00,CLR,M,M,M,M,M,M,M,M,M,M,M,M,M,M,81.28,KHTH 042115Z AUTO 01008G13KT 10SM CLR 29/M00 A2996 RMK A01,M
TMT,2023-06-04 21:15,-117.1971,39.4643,1749.34,73.40,37.80,27.41,330.00,4.00,0.00,30.06,M,10.00,M,CLR,M,M,M,M,M,M,M,TS,M,M,M,M,M,M,73.40,KTMT 042115Z AUTO 33004KT 10SM TS CLR 23/03 A3006 RMK AO2 LTG DSNT N AND S T02300032,M
BVU,2023-06-04 21:35,-114.8611,35.9475,671.00,95.00,30.20,10.09,340.00,7.00,0.00,29.78,M,10.00,M,CLR,M,M,M,M,M,M,M,M,M,M,M,M,M,M,89.48,KBVU 042135Z AUTO 34007KT 300V360 10SM CLR 35/M01 A2978 RMK AO2,M
CXP,2023-06-04 21:35,-119.7326,39.1923,1431.00,82.40,32.00,16.17,M,5.00,0.00,29.99,M,10.00,M,CLR,M,M,M,M,M,M,M,M,M,M,M,M,M,M,80.00,KCXP 042135Z AUTO VRB05KT 10SM CLR 28/M00 A2999 RMK AO2 LTG DSNT SE,M
RTS,2023-06-04 21:35,-119.8764,39.6682,1539.00,77.00,32.00,19.30,180.00,7.00,0.00,30.02,M,10.00,M,CLR,M,M,M,M,M,M,M,M,M,M,M,M,M,M,77.00,KRTS 042135Z AUTO 18007KT 10SM CLR 25/00 A3002 RMK AO2,M
MEV,2023-06-04 21:35,-119.7500,38.9963,1441.42,80.60,33.80,18.42,280.00,6.00,0.00,29.99,M,10.00,M,CLR,M,M,M,M,M,M,M,M,M,M,M,M,M,M,78.88,KMEV 042135Z AUTO 28006KT 10SM CLR 27/01 A2999 RMK AO2 LTG DSNT SE,M
BAM,2023-06-04 21:35,-116.8743,40.5990,1382.36,77.00,44.60,31.62,40.00,11.00,0.00,30.04,M,10.00,17.00,CLR,M,M,M,M,M,M,M,M,M,M,M,M,M,M,77.00,KBAM 042135Z AUTO 04011G17KT 10SM CLR 25/07 A3004 RMK AO1,M
HTH,2023-06-04 21:35,-118.6315,38.5448,1282.89,84.20,32.00,15.25,310.00,7.00,0.00,29.95,M,10.00,16.00,CLR,M,M,M,M,M,M,M,M,M,M,M,M,M,M,81.28,KHTH 042135Z AUTO 31007G16KT 290V360 10SM CLR 29/M00 A2995 RMK A01,M
TMT,2023-06-04 21:35,-117.1971,39.4643,1749.34,74.80,37.20,25.54,0.00,0.00,0.00,30.06,M,10.00,M,CLR,M,M,M,M,M,M,M,M,M,M,M,M,M,M,74.80,KTMT 042135Z AUTO 00000KT 10SM CLR 24/03 A3006 RMK AO2 LTG DSNT W THRU NE T02380029,M
P68,2023-06-04 21:53,-116.0056,39.6014,1993.00,72.00,37.00,27.85,80.00,5.00,0.00,30.06,1011.90,M,M,M,M,M,M,M,M,M,M,M,M,M,M,M,M,M,72.00,KP68 042153Z AUTO 08005KT 22/03 A3006 RMK AO1 SLP119 T02220028,M
LOL,2023-06-04 21:53,-118.5701,40.0684,1192.43,84.00,37.00,18.74,20.00,4.00,0.00,29.94,1010.80,10.00,M,CLR,M,M,M,M,M,M,M,M,M,M,M,M,M,M,81.23,KLOL 042153Z AUTO 02004KT 10SM CLR 29/03 A2994 RMK AO2 SLP108 T02890028,M
ELY,2023-06-04 21:53,-114.8453,39.2950,1909.00,70.00,35.00,27.65,M,4.00,0.00,30.08,1011.80,10.00,M,FEW,SCT,M,M,9500.00,12000.00,M,M,M,M,M,M,M,M,M,70.00,KELY 042153Z AUTO VRB04KT 10SM FEW095 SCT120 21/02 A3008 RMK AO2 SLP118 T02110017,M
VGT,2023-06-04 21:53,-115.1933,36.2111,667.00,97.00,35.00,11.56,290.00,7.00,0.00,29.78,1007.10,10.00,M,CLR,M,M,M,M,M,M,M,M,M,M,M,M,M,M,91.81,KVGT 042153Z 29007KT 10SM CLR 36/02 A2978 RMK AO2 SLP071 T03610017 $,M
DRA,2023-06-04 21:53,-116.0278,36.6206,1009.00,89.00,33.00,13.64,230.00,6.00,0.00,29.86,1006.10,10.00,M,CLR,M,M,M,M,M,M,M,M,M,M,M,M,M,M,85.16,KDRA 042153Z AUTO 23006KT 10SM CLR 32/01 A2986 RMK AO2 SLP061 T03170006,M
BVU,2023-06-04 21:55,-114.8611,35.9475,671.00,96.80,28.40,8.87,M,5.00,0.00,29.78,M,10.00,M,CLR,M,M,M,M,M,M,M,M,M,M,M,M,M,M,90.75,KBVU 042155Z AUTO VRB05KT 10SM CLR 36/M02 A2978 RMK AO2,M
CXP,2023-06-04 21:55,-119.7326,39.1923,1431.00,82.40,32.00,16.17,M,4.00,0.00,29.99,M,10.00,M,CLR,M,M,M,M,M,M,M,M,M,M,M,M,M,M,80.00,KCXP 042155Z AUTO VRB04KT 10SM CLR 28/00 A2999 RMK AO2 LTG DSNT E AND SW,M
INS,2023-06-04 21:55,-115.6733,36.5872,955.00,90.00,26.10,9.96,100.00,4.00,0.00,29.85,1005.90,10.00,M,CLR,M,M,M,M,M,M,M,M,M,M,M,M,M,M,85.27,KINS 042155Z AUTO 10004KT 10SM CLR 32/M03 A2985 RMK AO2 SLP059 T03221033 $,M
RNO,2023-06-04 21:55,-119.7711,39.4839,1341.00,86.00,34.00,15.60,70.00,8.00,0.00,29.96,1009.00,10.00,M,SCT,SCT,SCT,M,10000.00,15000.00,22000.00,M,M,M,M,M,M,M,M,82.66,KRNO 042155Z 07008KT 10SM SCT100 SCT150 SCT220 30/01 A2996 RMK AO2 SLP090 CB DSNT SE THRU SW TCU DSNT SE AND W T03000011 $,M
LSV,2023-06-04 21:55,-115.0343,36.2362,570.00,102.20,29.70,7.95,190.00,6.00,0.00,29.74,1004.40,10.00,M,CLR,M,M,M,M,M,M,M,M,M,M,M,M,M,M,95.44,KLSV 042155Z AUTO 19006KT 10SM CLR 39/M01 A2974 RMK AO2 SLP044 T03901013 $,M
RTS,2023-06-04 21:55,-119.8764,39.6682,1539.00,78.80,30.20,16.90,M,4.00,0.00,30.02,M,10.00,11.00,CLR,M,M,M,M,M,M,M,M,M,M,M,M,M,M,78.80,KRTS 042155Z AUTO VRB04G11KT 10SM CLR 26/M01 A3002 RMK AO2,M
MEV,2023-06-04 21:55,-119.7500,38.9963,1441.42,78.80,37.40,22.54,240.00,9.00,0.00,29.98,M,10.00,M,CLR,M,M,M,M,M,M,M,M,M,M,M,M,M,M,78.80,KMEV 042155Z AUTO 24009KT 10SM CLR 26/03 A2998 RMK AO2 LTG DSNT E AND W,M
BAM,2023-06-04 21:55,-116.8743,40.5990,1382.36,77.00,44.60,31.62,40.00,8.00,0.00,30.04,M,10.00,M,CLR,M,M,M,M,M,M,M,M,M,M,M,M,M,M,77.00,KBAM 042155Z AUTO 04008KT 10SM CLR 25/07 A3004 RMK AO1,M
HTH,2023-06-04 21:55,-118.6315,38.5448,1282.89,82.40,32.00,16.17,330.00,11.00,0.00,29.95,M,10.00,M,CLR,M,M,M,M,M,M,M,M,M,M,M,M,M,M,80.00,KHTH 042155Z AUTO 33011KT 10SM CLR 28/M00 A2995 RMK A01,M
TMT,2023-06-04 21:55,-117.1971,39.4643,1749.34,73.00,38.70,28.78,330.00,3.00,0.00,30.06,M,10.00,M,SCT,M,M,M,8500.00,M,M,M,VCTS,M,M,M,M,M,M,73.00,KTMT 042155Z AUTO 33003KT 10SM VCTS SCT085 23/04 A3006 RMK AO2 LTG DSNT E AND S T02280037,M
EKO,2023-06-04 21:56,-115.7860,40.8242,1367.00,70.00,43.00,37.64,350.00,8.00,0.00,30.06,1014.40,10.00,M,CLR,M,M,M,M,M,M,M,M,M,M,M,M,M,M,70.00,KEKO 042156Z AUTO 35008KT 10SM CLR 21/06 A3006 RMK AO2 SLP144 T02110061 $,M
WMC,2023-06-04 21:56,-117.8072,40.9019,1315.00,82.00,46.00,28.30,40.00,13.00,0.00,30.00,1011.70,10.00,23.00,CLR,M,M,M,M,M,M,M,M,M,M,M,M,M,M,80.36,KWMC 042156Z AUTO 04013G23KT 10SM CLR 28/08 A3000 RMK AO2 SLP117 T02780078,M
NFL,2023-06-04 21:56,-118.7010,39.4166,1199.00,84.00,37.00,18.74,M,5.00,0.00,29.94,1011.10,10.00,M,FEW,FEW,M,M,8000.00,25000.00,M,M,M,M,M,M,M,M,M,81.23,KNFL 042156Z VRB05KT 10SM FEW080 FEW250 29/03 A2994 RMK AO2 SLP111 CB DSNT SW-W T02890028,M
HND,2023-06-04 21:56,-115.1344,35.9729,742.79,95.00,36.00,12.73,M,6.00,0.00,29.82,1008.20,10.00,M,CLR,M,M,M,M,M,M,M,M,M,M,M,M,M,M,90.32,KHND 042156Z VRB06KT 10SM CLR 35/02 A2982 RMK AO2 SLP082 T03500022,M
TPH,2023-06-04 21:56,-117.0904,38.0505,1654.00,82.00,34.00,17.74,280.00,9.00,0.00,30.01,1009.20,10.00,17.00,FEW,M,M,M,12000.00,M,M,M,M,M,M,M,M,M,M,79.77,KTPH 042156Z AUTO 28009G17KT 10SM FEW120 28/01 A3001 RMK AO2 SLP092 T02780011,M
LAS,2023-06-04 21:56,-115.1634,36.0719,663.00,96.00,34.00,11.37,10.00,7.00,0.00,29.79,1005.70,10.00,M,FEW,FEW,M,M,11000.00,14000.00,M,M,M,M,M,M,M,M,M,90.89,KLAS 042156Z 01007KT 10SM FEW110 FEW140 36/01 A2979 RMK AO2 SLP057 T03560011,M
BVU,2023-06-04 22:15,-114.8611,35.9475,671.00,98.60,28.40,8.40,210.00,8.00,0.00,29.77,M,10.00,M,CLR,M,M,M,M,M,M,M,M,M,M,M,M,M,M,92.25,KBVU 042215Z AUTO 21008KT 10SM CLR 37/M02 A2977 RMK AO2,M
CXP,2023-06-04 22:15,-119.7326,39.1923,1431.00,80.60,32.00,17.14,M,4.00,0.00,29.99,M,10.00,M,CLR,M,M,M,M,M,M,M,M,M,M,M,M,M,M,78.82,KCXP 042215Z AUTO VRB04KT 10SM CLR 27/M00 A2999 RMK AO2,M
RTS,2023-06-04 22:15,-119.8764,39.6682,1539.00,78.80,32.00,18.18,80.00,6.00,0.00,30.01,M,10.00,M,CLR,M,M,M,M,M,M,M,M,M,M,M,M,M,M,78.80,KRTS 042215Z AUTO 08006KT 10SM CLR 26/M00 A3001 RMK AO2,M
MEV,2023-06-04 22:15,-119.7500,38.9963,1441.42,77.00,44.60,31.62,240.00,10.00,0.00,29.98,M,10.00,M,CLR,M,M,M,M,M,M,M,M,M,M,M,M,M,M,77.00,KMEV 042215Z AUTO 24010KT 10SM CLR 25/07 A2998 RMK AO2 LTG DSNT NE AND S AND W,M
BAM,2023-06-04 22:15,-116.8743,40.5990,1382.36,77.00,44.60,31.62,50.00,12.00,0.00,30.04,M,10.00,M,CLR,M,M,M,M,M,M,M,M,M,M,M,M,M,M,77.00,KBAM 042215Z AUTO 05012KT 10SM CLR 25/07 A3004 RMK AO1,M
HTH,2023-06-04 22:15,-118.6315,38.5448,1282.89,82.40,30.20,15.03,320.00,10.00,0.00,29.94,M,10.00,M,CLR,M,M,M,M,M,M,M,M,M,M,M,M,M,M,79.97,KHTH 042215Z AUTO 32010KT 10SM CLR 28/M01 A2994 RMK A01,M
TMT,2023-06-04 22:15,-117.1971,39.4643,1749.34,73.00,38.00,27.99,360.00,4.00,0.00,30.05,M,10.00,M,SCT,M,M,M,8500.00,M,M,M,VCTS,M,M,M,M,M,M,72.90,KTMT 042215Z AUTO 36004KT 10SM VCTS SCT085 23/03 A3005 RMK AO2 LTG DSNT S T02270033,M
BVU,2023-06-04 22:35,-114.8611,35.9475,671.00,96.80,28.40,8.87,M,5.00,0.00,29.76,M,10.00,11.00,CLR,M,M,M,M,M,M,M,M,M,M,M,M,M,M,90.75,KBVU 042235Z AUTO VRB05G11KT 10SM CLR 36/M02 A2976 RMK AO2,M
CXP,2023-06-04 22:35,-119.7326,39.1923,1431.00,80.60,32.00,17.14,M,3.00,0.00,29.99,M,10.00,M,FEW,M,M,M,11000.00,M,M,M,M,M,M,M,M,M,M,78.82,KCXP 042235Z AUTO VRB03KT 10SM FEW110 27/00 A2999 RMK AO2 LTG DSNT NW,M
RTS,2023-06-04 22:35,-119.8764,39.6682,1539.00,78.80,28.40,15.71,160.00,5.00,0.00,30.01,M,10.00,M,CLR,M,M,M,M,M,M,M,M,M,M,M,M,M,M,78.80,KRTS 042235Z AUTO 16005KT 10SM CLR 26/M02 A3001 RMK AO2,M
MEV,2023-06-04 22:35,-119.7500,38.9963,1441.42,71.60,37.40,28.68,270.00,17.00,0.00,29.99,M,10.00,26.00,CLR,M,M,M,M,M,M,M,M,M,M,M,M,M,M,71.60,KMEV 042235Z AUTO 27017G26KT 10SM CLR 22/03 A2999 RMK AO2 LTG DSNT SE AND S AND NW,M
BAM,2023-06-04 22:35,-116.8743,40.5990,1382.36,77.00,42.80,29.51,60.00,11.00,0.00,30.03,M,10.00,14.00,CLR,M,M,M,M,M,M,M,M,M,M,M,M,M,M,77.00,KBAM 042235Z AUTO 06011G14KT 10SM CLR 25/06 A3003 RMK AO1,M
HTH,2023-06-04 22:35,-118.6315,38.5448,1282.89,84.20,30.20,14.18,320.00,10.00,0.00,29.94,M,10.00,M,CLR,M,M,M,M,M,M,M,M,M,M,M,M,M,M,81.26,KHTH 042235Z AUTO 32010KT 10SM CLR 29/M01 A2994 RMK A01,M
TMT,2023-06-04 22:35,-117.1971,39.4643,1749.34,71.00,46.00,40.77,290.00,11.00,0.00,30.06,M,10.00,21.00,SCT,SCT,BKN,M,3600.00,7000.00,9000.00,M,TSRA,M,M,M,M,M,M,70.90,KTMT 042235Z AUTO 29011G21KT 10SM TSRA SCT036 SCT070 BKN090 22/08 A3006 RMK AO2 LTG DSNT ALQS T02160077,M
DRA,2023-06-04 22:53,-116.0278,36.6206,1009.00,93.00,32.00,11.55,M,3.00,0.00,29.84,1005.10,10.00,M,CLR,M,M,M,M,M,M,M,M,M,M,M,M,M,M,88.15,KDRA 042253Z AUTO VRB03KT 10SM CLR 34/00 A2984 RMK AO2 SLP051 T03390000,M
VGT,2023-06-04 22:53,-115.1933,36.2111,667.00,98.00,32.00,9.87,90.00,6.00,0.00,29.76,1006.30,10.00,M,CLR,M,M,M,M,M,M,M,M,M,M,M,M,M,M,92.27,KVGT 042253Z 09006KT 10SM CLR 37/00 A2976 RMK AO2 SLP063 T03670000 $,M
LOL,2023-06-04 22:53,-118.5701,40.0684,1192.43,85.00,34.00,16.16,80.00,6.00,0.00,29.93,1010.20,10.00,M,CLR,M,M,M,M,M,M,M,M,M,M,M,M,M,M,81.82,KLOL 042253Z AUTO 08006KT 10SM CLR 29/01 A2993 RMK AO2 SLP102 T02940011,M
P68,2023-06-04 22:53,-116.0056,39.6014,1993.00,74.00,38.00,27.06,20.00,8.00,0.00,30.04,1011.40,M,M,M,M,M,M,M,M,M,M,M,M,M,M,M,M,M,73.90,KP68 042253Z AUTO 02008KT 350V060 23/03 A3004 RMK AO1 SLP114 T02330033,M
ELY,2023-06-04 22:53,-114.8453,39.2950,1909.00,69.00,35.00,28.51,70.00,7.00,0.00,30.08,1012.10,10.00,M,BKN,M,M,M,11000.00,M,M,M,M,M,M,M,M,M,M,69.10,KELY 042253Z AUTO 07007KT 10SM BKN110 21/02 A3008 RMK AO2 SLP121 T02060017,M
BVU,2023-06-04 22:55,-114.8611,35.9475,671.00,96.80,28.40,8.87,0.00,0.00,0.00,29.76,M,10.00,12.00,CLR,M,M,M,M,M,M,M,M,M,M,M,M,M,M,90.75,KBVU 042255Z AUTO 00000G12KT 10SM CLR 36/M02 A2976 RMK AO2,M
CXP,2023-06-04 22:55,-119.7326,39.1923,1431.00,80.60,32.00,17.14,270.00,9.00,0.00,29.98,M,10.00,M,BKN,M,M,M,11000.00,M,M,M,M,M,M,M,M,M,M,78.82,KCXP 042255Z AUTO 27009KT 240V300 10SM BKN110 27/00 A2998 RMK AO2,M
INS,2023-06-04 22:55,-115.6733,36.5872,955.00,91.60,24.80,8.98,260.00,4.00,0.00,29.82,1005.10,10.00,M,CLR,M,M,M,M,M,M,M,M,M,M,M,M,M,M,86.36,KINS 042255Z AUTO 26004KT 10SM CLR 33/M04 A2982 RMK AO2 SLP051 T03311040 $,M
RNO,2023-06-04 22:55,-119.7711,39.4839,1341.00,84.00,30.90,14.68,30.00,5.00,0.00,29.95,1008.90,10.00,M,SCT,SCT,BKN,M,12000.00,15000.00,18000.00,M,M,M,M,M,M,M,M,81.12,KRNO 042255Z 03005KT 10SM SCT120TCU SCT150 BKN180 29/M01 A2995 RMK AO2 LTG DSNT NW SLP089 VIRGA TCU S AND W CB DSNT W AND NW T02891006 $,M
RTS,2023-06-04 22:55,-119.8764,39.6682,1539.00,78.80,28.40,15.71,0.00,0.00,0.00,30.01,M,10.00,M,CLR,M,M,M,M,M,M,M,M,M,M,M,M,M,M,78.80,KRTS 042255Z AUTO 00000KT 10SM CLR 26/M02 A3001 RMK AO2,M
MEV,2023-06-04 22:55,-119.7500,38.9963,1441.42,71.60,39.20,30.77,250.00,13.00,0.00,29.99,M,10.00,21.00,SCT,M,M,M,12000.00,M,M,M,M,M,M,M,M,M,M,71.60,KMEV 042255Z AUTO 25013G21KT 10SM SCT120 22/04 A2999 RMK AO2,M
BAM,2023-06-04 22:55,-116.8743,40.5990,1382.36,78.80,44.60,29.79,30.00,9.00,0.00,30.03,M,10.00,M,CLR,M,M,M,M,M,M,M,M,M,M,M,M,M,M,78.80,KBAM 042255Z AUTO 03009KT 10SM CLR 26/07 A3003 RMK AO1,M
HTH,2023-06-04 22:55,-118.6315,38.5448,1282.89,84.20,30.20,14.18,340.00,7.00,0.00,29.93,M,10.00,14.00,CLR,M,M,M,M,M,M,M,M,M,M,M,M,M,M,81.26,KHTH 042255Z AUTO 34007G14KT 10SM CLR 29/M01 A2993 RMK A01,M
TMT,2023-06-04 22:55,-117.1971,39.4643,1749.34,66.20,50.00,55.88,200.00,3.00,0.04,30.06,M,10.00,M,SCT,SCT,OVC,M,3400.00,7500.00,10000.00,M,-RA,M,M,M,M,M,M,66.20,KTMT 042255Z AUTO 20003KT 10SM -RA SCT034 SCT075 OVC100 19/10 A3006 RMK AO2 LTG DSNT SE P0004 T01900100,M
HND,2023-06-04 22:56,-115.1344,35.9729,742.79,96.00,36.00,12.31,180.00,10.00,0.00,29.81,1007.70,10.00,18.00,CLR,M,M,M,M,M,M,M,M,M,M,M,M,M,M,91.21,KHND 042256Z 18010G18KT 10SM CLR 36/02 A2981 RMK AO2 SLP077 T03560022,M
TPH,2023-06-04 22:56,-117.0904,38.0505,1654.00,83.00,36.00,18.66,30.00,9.00,0.00,29.98,1008.20,10.00,M,CLR,M,M,M,M,M,M,M,M,M,M,M,M,M,M,80.43,KTPH 042256Z AUTO 03009KT 10SM CLR 28/02 A2998 RMK AO2 SLP082 T02830022,M
LAS,2023-06-04 22:56,-115.1634,36.0719,663.00,95.00,34.00,11.76,70.00,6.00,0.00,29.76,1005.00,10.00,M,FEW,FEW,SCT,M,10000.00,15000.00,23000.00,M,M,M,M,M,M,M,M,90.00,KLAS 042256Z 07006KT 10SM FEW100 FEW150 SCT230 35/01 A2976 RMK AO2 SLP050 CB DSNT W VIRGA DSNT W T03500011,M
EKO,2023-06-04 22:56,-115.7860,40.8242,1367.00,73.00,44.00,35.46,50.00,18.00,0.00,30.06,1014.20,10.00,28.00,CLR,M,M,M,M,M,M,M,M,M,M,M,28.00,30.00,2023-06-04 22:56,73.00,KEKO 042256Z AUTO 05018G28KT 10SM CLR 23/07 A3006 RMK AO2 PK WND 03028/2256 SLP142 T02280067 $,M
WMC,2023-06-04 22:56,-117.8072,40.9019,1315.00,82.00,44.00,26.33,10.00,14.00,0.00,29.99,1011.70,10.00,20.00,CLR,M,M,M,M,M,M,M,M,M,M,M,M,M,M,80.22,KWMC 042256Z AUTO 01014G20KT 10SM CLR 28/07 A2999 RMK AO2 SLP117 T02780067,M
NFL,2023-06-04 22:56,-118.7010,39.4166,1199.00,84.00,33.00,16.04,M,6.00,0.00,29.93,1010.70,10.00,M,CLR,M,M,M,M,M,M,M,M,M,M,M,M,M,M,81.14,KNFL 042256Z AUTO VRB06KT 10SM CLR 29/01 A2993 RMK AO2 SLP107 T02890006,M
BVU,2023-06-04 23:15,-114.8611,35.9475,671.00,96.80,28.40,8.87,M,5.00,0.00,29.75,M,10.00,13.00,CLR,M,M,M,M,M,M,M,M,M,M,M,M,M,M,90.75,KBVU 042315Z AUTO VRB05G13KT 10SM CLR 36/M02 A2975 RMK AO2,M
CXP,2023-06-04 23:15,-119.7326,39.1923,1431.00,75.20,37.40,25.40,260.00,13.00,0.00,29.99,M,10.00,20.00,OVC,M,M,M,11000.00,M,M,M,M,M,M,M,M,M,M,75.20,KCXP 042315Z AUTO 26013G20KT 10SM OVC110 24/03 A2999 RMK AO2 LTG DSNT SE AND S,M
RTS,2023-06-04 23:15,-119.8764,39.6682,1539.00,78.80,26.60,14.59,0.00,0.00,0.00,30.01,M,10.00,M,CLR,M,M,M,M,M,M,M,M,M,M,M,M,M,M,78.80,KRTS 042315Z AUTO 00000KT 10SM CLR 26/M03 A3001 RMK AO2,M
MEV,2023-06-04 23:15,-119.7500,38.9963,1441.42,69.80,37.40,30.49,210.00,7.00,0.00,30.02,M,10.00,16.00,OVC,M,M,M,10000.00,M,M,M,VCTS,M,M,M,M,M,M,69.80,KMEV 042315Z AUTO 21007G16KT 10SM VCTS OVC100 21/03 A3002 RMK AO2 LTG DSNT E-S,M
BAM,2023-06-04 23:15,-116.8743,40.5990,1382.36,77.00,44.60,31.62,10.00,9.00,0.00,30.03,M,10.00,M,CLR,M,M,M,M,M,M,M,M,M,M,M,M,M,M,77.00,KBAM 042315Z AUTO 01009KT 10SM CLR 25/07 A3003 RMK AO1,M
HTH,2023-06-04 23:15,-118.6315,38.5448,1282.89,82.40,30.20,15.03,310.00,10.00,0.00,29.93,M,10.00,M,CLR,M,M,M,M,M,M,M,M,M,M,M,M,M,M,79.97,KHTH 042315Z AUTO 31010KT 10SM CLR 28/M01 A2993 RMK A01,M
TMT,2023-06-04 23:15,-117.1971,39.4643,1749.34,67.30,46.60,47.36,350.00,5.00,0.00,30.05,M,10.00,M,BKN,M,M,M,11000.00,M,M,M,M,M,M,M,M,M,M,67.30,KTMT 042315Z AUTO 35005KT 10SM BKN110 20/08 A3005 RMK AO2 LTG DSNT SE T01960081,M
BVU,2023-06-04 23:35,-114.8611,35.9475,671.00,96.80,30.20,9.55,210.00,10.00,0.00,29.75,M,10.00,16.00,CLR,M,M,M,M,M,M,M,M,M,M,M,M,M,M,90.96,KBVU 042335Z AUTO 21010G16KT 10SM CLR 36/M01 A2975 RMK AO2,M
CXP,2023-06-04 23:35,-119.7326,39.1923,1431.00,75.20,35.60,23.66,150.00,8.00,0.00,30.02,M,10.00,17.00,SCT,M,M,M,11000.00,M,M,M,VCTS,M,M,M,M,M,M,75.20,KCXP 042335Z AUTO 15008G17KT 10SM VCTS SCT110 24/02 A3002 RMK AO2 LTG DSNT NE AND SE,M
RTS,2023-06-04 23:35,-119.8764,39.6682,1539.00,77.00,35.60,22.28,270.00,11.00,0.00,30.01,M,10.00,M,CLR,M,M,M,M,M,M,M,M,M,M,M,M,M,M,77.00,KRTS 042335Z AUTO 27011KT 10SM CLR 25/02 A3001 RMK AO2,M
MEV,2023-06-04 23:35,-119.7500,38.9963,1441.42,66.20,42.80,42.57,120.00,15.00,0.00,30.03,M,9.00,M,OVC,M,M,M,10000.00,M,M,M,-TSRA,M,M,M,M,M,M,66.20,KMEV 042335Z AUTO 12015KT 9SM -TSRA OVC100 19/06 A3003 RMK AO2 LTG DSNT NE-SE,M
BAM,2023-06-04 23:35,-116.8743,40.5990,1382.36,77.00,42.80,29.51,340.00,9.00,0.00,30.02,M,10.00,M,CLR,M,M,M,M,M,M,M,M,M,M,M,M,M,M,77.00,KBAM 042335Z AUTO 34009KT 10SM CLR 25/06 A3002 RMK AO1,M
HTH,2023-06-04 23:35,-118.6315,38.5448,1282.89,82.40,30.20,15.03,330.00,8.00,0.00,29.93,M,10.00,M,CLR,M,M,M,M,M,M,M,M,M,M,M,M,M,M,79.97,KHTH 042335Z AUTO 33008KT 10SM CLR 28/M01 A2993 RMK A01,M
TMT,2023-06-04 23:35,-117.1971,39.4643,1749.34,68.70,44.60,41.83,20.00,4.00,0.00,30.05,M,10.00,M,BKN,M,M,M,12000.00,M,M,M,VCTS,M,M,M,M,M,M,68.70,KTMT 042335Z AUTO 02004KT 10SM VCTS BKN120 20/07 A3005 RMK AO2 LTG DSNT NE AND E T02040070,M
RNO,2023-06-04 23:46,-119.7711,39.4839,1341.00,83.00,30.90,15.21,M,3.00,0.00,29.94,M,10.00,M,SCT,SCT,BKN,M,12000.00,15000.00,18000.00,M,TS,M,M,M,M,M,M,80.33,KRNO 042346Z VRB03KT 10SM TS SCT120CB SCT150 BKN180 28/M01 A2994 RMK AO2 LTG DSNT NW TSB45 OCNL LGTIC W TS W MOV N T02831006 $,M
LSV,2023-06-04 23:49,-115.0343,36.2362,570.00,98.60,30.20,9.04,0.00,0.00,0.00,29.70,1003.10,10.00,M,CLR,M,M,M,M,M,M,M,M,M,M,M,M,M,M,92.46,KLSV 042349Z 00000KT 10SM CLR 37/M01 A2970 RMK SLP031 $,M
DRA,2023-06-04 23:53,-116.0278,36.6206,1009.00,92.00,30.00,11.02,140.00,4.00,0.00,29.82,1004.50,10.00,M,CLR,M,M,M,M,M,M,M,M,M,M,M,M,M,M,87.07,KDRA 042353Z AUTO 14004KT 10SM CLR 33/M01 A2982 RMK AO2 SLP045 T03331011 10344 20300 58017,M
VGT,2023-06-04 23:53,-115.1933,36.2111,667.00,96.00,34.00,11.37,210.00,5.00,0.00,29.74,1006.00,10.00,M,CLR,M,M,M,M,M,M,M,M,M,M,M,M,M,M,90.89,KVGT 042353Z 21005KT 10SM CLR 36/01 A2974 RMK AO2 SLP060 T03560011 10367 20322 56018 $,M
LOL,2023-06-04 23:53,-118.5701,40.0684,1192.43,84.00,34.00,16.63,90.00,10.00,0.00,29.91,1009.60,10.00,16.00,CLR,M,M,M,M,M,M,M,M,M,M,M,M,M,M,81.16,KLOL 042353Z AUTO 09010G16KT 10SM CLR 29/01 A2991 RMK AO2 SLP096 T02890011 10300 20250 56019,M
P68,2023-06-04 23:53,-116.0056,39.6014,1993.00,72.00,42.00,33.97,360.00,10.00,0.00,30.04,1011.60,M,M,M,M,M,M,M,M,M,M,M,M,M,M,M,M,M,72.00,KP68 042353Z AUTO 36010KT 22/06 A3004 RMK AO1 SLP116 T02220056 10239 20194 55009,M
ELY,2023-06-04 23:53,-114.8453,39.2950,1909.00,70.00,35.00,27.65,170.00,7.00,T,30.07,1011.30,10.00,M,SCT,OVC,M,M,9000.00,11000.00,M,M,M,M,M,M,M,M,M,70.00,KELY 042353Z AUTO 17007KT 10SM SCT090 OVC110 21/02 A3007 RMK AO2 RAB21E30 SLP113 P0000 60000 T02110017 10222 20178 57008,M
BVU,2023-06-04 23:55,-114.8611,35.9475,671.00,96.80,28.40,8.87,200.00,9.00,0.00,29.74,M,10.00,14.00,CLR,M,M,M,M,M,M,M,M,M,M,M,M,M,M,90.75,KBVU 042355Z AUTO 20009G14KT 10SM CLR 36/M02 A2974 RMK AO2,M
CXP,2023-06-04 23:55,-119.7326,39.1923,1431.00,69.80,42.80,37.61,M,4.00,0.00,30.03,M,9.00,14.00,FEW,FEW,FEW,M,1500.00,2200.00,10000.00,M,M,M,M,M,M,M,M,69.80,KCXP 042355Z AUTO VRB04G14KT 9SM FEW015 FEW022 FEW100 21/06 A3003 RMK AO2,M
INS,2023-06-04 23:55,-115.6733,36.5872,955.00,88.70,27.50,11.00,100.00,16.00,0.00,29.82,1005.20,10.00,23.00,BKN,M,M,M,12000.00,M,M,M,M,M,M,M,29.00,140.00,2023-06-04 23:36,84.42,KINS 042355Z AUTO 10016G23KT 10SM BKN120 32/M02 A2982 RMK AO2 PK WND 14029/36 SLP052 T03151025 10338 20289 57016 $,M
RNO,2023-06-04 23:55,-119.7711,39.4839,1341.00,82.00,30.00,15.10,0.00,0.00,0.00,29.95,1009.00,10.00,M,SCT,SCT,BKN,M,12000.00,15000.00,18000.00,M,TS,M,M,M,M,M,M,79.69,KRNO 042355Z 00000KT 10SM TS SCT120CB SCT150 BKN180 28/M01 A2995 RMK AO2 LTG DSNT W TSB45 SLP090 OCNL LGTIC W TS W MOV N T02781011 10306 20250 56012 $,M
RTS,2023-06-04 23:55,-119.8764,39.6682,1539.00,73.40,35.60,25.13,280.00,17.00,0.00,30.01,M,10.00,M,FEW,M,M,M,12000.00,M,M,M,M,M,M,M,M,M,M,73.40,KRTS 042355Z AUTO 28017KT 10SM FEW120 23/02 A3001 RMK AO2,M
MEV,2023-06-04 23:55,-119.7500,38.9963,1441.42,64.40,41.00,42.28,190.00,5.00,0.00,30.04,M,8.00,21.00,SCT,BKN,OVC,M,4600.00,6500.00,10000.00,M,-RA,M,M,M,M,M,M,64.40,KMEV 042355Z AUTO 19005G21KT 8SM -RA SCT046 BKN065 OVC100 18/05 A3004 RMK AO2,M
BAM,2023-06-04 23:55,-116.8743,40.5990,1382.36,77.00,42.80,29.51,310.00,3.00,0.00,30.02,M,10.00,M,CLR,M,M,M,M,M,M,M,M,M,M,M,M,M,M,77.00,KBAM 042355Z AUTO 31003KT 10SM CLR 25/06 A3002 RMK AO1,M
HTH,2023-06-04 23:55,-118.6315,38.5448,1282.89,82.40,30.20,15.03,330.00,8.00,0.00,29.93,M,10.00,14.00,CLR,M,M,M,M,M,M,M,M,M,M,M,M,M,M,79.97,KHTH 042355Z AUTO 33008G14KT 10SM CLR 28/M01 A2993 RMK A01,M
TMT,2023-06-04 23:55,-117.1971,39.4643,1749.34,68.70,46.00,43.95,340.00,4.00,0.00,30.05,M,7.00,M,BKN,M,M,M,12000.00,M,M,M,M,M,M,M,M,M,M,68.70,KTMT 042355Z AUTO 34004KT 7SM BKN120 20/08 A3005 RMK AO2 60004 T02040077 10241 20189,M
EKO,2023-06-04 23:56,-115.7860,40.8242,1367.00,66.00,46.00,48.43,30.00,18.00,0.00,30.07,1015.10,10.00,25.00,CLR,M,M,M,M,M,M,M,M,M,M,M,30.00,50.00,2023-06-04 23:01,66.00,KEKO 042356Z AUTO 03018G25KT 10SM CLR 19/08 A3007 RMK AO2 PK WND 05030/2301 LTG DSNT NW SLP151 T01890078 10233 20189 53004 $,M
WMC,2023-06-04 23:56,-117.8072,40.9019,1315.00,82.00,41.00,23.37,20.00,15.00,0.00,29.98,1011.40,10.00,22.00,CLR,M,M,M,M,M,M,M,M,M,M,M,M,M,M,80.04,KWMC 042356Z AUTO 02015G22KT 10SM CLR 28/05 A2998 RMK AO2 SLP114 T02780050 10283 20250 58009,M
NFL,2023-06-04 23:56,-118.7010,39.4166,1199.00,87.00,30.90,13.30,360.00,8.00,0.00,29.91,1010.30,10.00,M,CLR,M,M,M,M,M,M,M,M,M,M,M,M,M,M,83.51,KNFL 042356Z AUTO 36008KT 10SM CLR 31/M01 A2991 RMK AO2 SLP103 T03061006 10306 20250 56017,M
HND,2023-06-04 23:56,-115.1344,35.9729,742.79,96.00,30.90,10.04,190.00,6.00,0.00,29.79,1007.20,10.00,M,CLR,M,M,M,M,M,M,M,M,M,M,M,M,M,M,90.46,KHND 042356Z 19006KT 10SM CLR 36/M01 A2979 RMK AO2 SLP072 T03561006 10361 20306 56016,M
TPH,2023-06-04 23:56,-117.0904,38.0505,1654.00,81.00,34.00,18.33,310.00,6.00,0.00,29.97,1008.10,10.00,M,FEW,M,M,M,12000.00,M,M,M,M,M,M,M,M,M,M,79.13,KTPH 042356Z AUTO 31006KT 10SM FEW120 27/01 A2997 RMK AO2 SLP081 T02720011 10289 20233 56015,M
LAS,2023-06-04 23:56,-115.1634,36.0719,663.00,96.00,34.00,11.37,M,4.00,0.00,29.75,1004.70,10.00,M,FEW,FEW,SCT,M,10000.00,15000.00,23000.00,M,M,M,M,M,M,M,M,90.89,KLAS 042356Z VRB04KT 10SM FEW100 FEW150 SCT230 36/01 A2975 RMK AO2 SLP047 CB DSNT W VIRGA DSNT W AND NW T03560011 10361 20311 56018,M
INS,2023-06-04 23:58,-115.6733,36.5872,955.00,87.80,30.20,12.64,150.00,11.00,0.00,29.82,1005.40,10.00,23.00,BKN,BKN,M,M,12000.00,16000.00,M,M,M,M,M,M,M,M,M,84.01,KINS 042358Z AUTO 15011G23KT 10SM BKN120 BKN160 31/M01 A2982 RMK AO2 WSHFT 50 SLP054 $,M
