station,valid,lon,lat,elevation,tmpf,dwpf,relh,drct,sknt,p01i,alti,mslp,vsby,gust,skyc1,skyc2,skyc3,skyc4,skyl1,skyl2,skyl3,skyl4,wxcodes,ice_accretion_1hr,ice_accretion_3hr,ice_accretion_6hr,peak_wind_gust,peak_wind_drct,peak_wind_time,feel,metar,snowdepth
EKO,2021-12-30 00:03,-115.7860,40.8242,1367.00,28.90,25.00,85.14,210.00,9.00,0.01,29.65,M,0.75,M,BKN,OVC,M,M,1500.00,2600.00,M,M,-SN BR,M,M,M,M,M,M,19.66,KEKO 300003Z AUTO 21009KT 3/4SM -SN BR BKN015 OVC026 M02/M04 A2965 RMK AO2 P0001 T10171039,M
WMC,2021-12-30 00:04,-117.8072,40.9019,1315.00,30.90,28.90,92.18,260.00,7.00,0.01,29.69,M,2.50,M,SCT,OVC,M,M,700.00,2600.00,M,M,-SN BR,M,M,M,M,M,M,23.44,KWMC 300004Z AUTO 26007KT 2 1/2SM -SN BR SCT007 OVC026 M01/M02 A2969 RMK AO2 P0001 T10061017,M
CXP,2021-12-30 00:10,-119.7326,39.1923,1431.00,33.80,28.40,80.36,0.00,0.00,0.00,29.71,M,9.00,M,FEW,BKN,OVC,M,2500.00,4400.00,4900.00,M,-UP,M,M,M,M,M,M,33.80,KCXP 300010Z AUTO 00000KT 9SM -UP FEW025 BKN044 OVC049 01/M02 A2971 RMK AO2,M
EKO,2021-12-30 00:10,-115.7860,40.8242,1367.00,28.90,25.00,85.14,210.00,11.00,0.01,29.65,M,0.75,M,VV ,M,M,M,1300.00,M,M,M,-SN BR,M,M,M,M,M,M,18.55,KEKO 300010Z AUTO 21011KT 3/4SM -SN BR VV013 M02/M04 A2965 RMK AO2 P0001 T10171039,M
05U,2021-12-30 00:10,-116.0051,39.6042,1811.23,26.60,23.00,86.07,40.00,3.00,0.00,29.69,M,10.00,M,FEW,SCT,BKN,M,2600.00,3600.00,4200.00,M,M,M,M,M,M,M,M,22.52,K05U 300010Z AUTO 04003KT 10SM FEW026 SCT036 BKN042 M03/M05 A2969 RMK A01,M
TMT,2021-12-30 00:15,-117.1971,39.4643,1749.34,27.50,24.40,87.94,210.00,8.00,0.00,29.70,M,10.00,M,SCT,BKN,BKN,M,2100.00,2900.00,3800.00,M,M,M,M,M,M,M,M,18.57,KTMT 300015Z AUTO 21008KT 10SM SCT021 BKN029 BKN038 M02/M04 A2970 RMK AO2 T10251042,M
TPH,2021-12-30 00:15,-117.0904,38.0505,1654.00,28.90,27.00,92.49,180.00,8.00,0.00,29.75,M,10.00,M,OVC,M,M,M,1300.00,M,M,M,M,M,M,M,M,M,M,20.29,KTPH 300015Z AUTO 18008KT 10SM OVC013 M02/M03 A2975 RMK AO2 T10171028,M
RTS,2021-12-30 00:15,-119.8764,39.6682,1539.00,30.20,28.40,92.92,0.00,0.00,0.00,29.71,M,9.00,M,FEW,BKN,OVC,M,500.00,1400.00,3900.00,M,M,M,M,M,M,M,M,30.20,KRTS 300015Z AUTO 00000KT 9SM FEW005 BKN014 OVC039 M01/M02 A2971 RMK AO2,M
HTH,2021-12-30 00:15,-118.6315,38.5448,1282.89,37.40,23.00,55.68,90.00,16.00,0.00,29.69,M,10.00,21.00,FEW,M,M,M,7500.00,M,M,M,M,M,M,M,M,M,M,27.46,KHTH 300015Z AUTO 09016G21KT 10SM FEW075 03/M05 A2969 RMK A01,M
BAM,2021-12-30 00:15,-116.8743,40.5990,1382.36,32.00,32.00,100.00,230.00,11.00,0.00,29.69,M,7.00,M,OVC,M,M,M,6000.00,M,M,M,M,M,M,M,M,M,M,22.47,KBAM 300015Z AUTO 23011KT 7SM OVC060 00/00 A2969 RMK AO1,M
MEV,2021-12-30 00:15,-119.7500,38.9963,1441.42,33.80,30.20,86.49,340.00,4.00,0.00,29.69,M,10.00,M,SCT,OVC,M,M,5500.00,8500.00,M,M,M,M,M,M,M,M,M,29.52,KMEV 300015Z AUTO 34004KT 10SM SCT055 OVC085 01/M01 A2969 RMK AO2,M
BVU,2021-12-30 00:15,-114.8611,35.9475,671.00,48.20,30.20,49.53,160.00,18.00,0.00,29.84,M,10.00,M,FEW,SCT,M,M,5500.00,7500.00,M,M,M,M,M,M,M,M,M,41.07,KBVU 300015Z AUTO 16018KT 10SM FEW055 SCT075 09/M01 A2984 RMK AO2,M
RNO,2021-12-30 00:17,-119.7711,39.4839,1341.00,33.00,28.90,84.36,0.00,0.00,T,29.71,M,8.00,M,FEW,SCT,BKN,BKN,400.00,4500.00,8000.00,20000.00,M,M,M,M,M,M,M,33.10,KRNO 300017Z 00000KT 8SM FEW004 SCT045 BKN080 BKN200 01/M02 A2971 RMK AO2 SNE16 MTN TOPS OBSCD ALQDS P0000 T00061017,M
WMC,2021-12-30 00:17,-117.8072,40.9019,1315.00,30.90,28.00,88.84,250.00,7.00,0.01,29.69,M,3.00,M,FEW,OVC,M,M,1200.00,2900.00,M,M,-SN BR,M,M,M,M,M,M,23.44,KWMC 300017Z AUTO 25007KT 3SM -SN BR FEW012 OVC029 M01/M02 A2969 RMK AO2 P0001 T10061022,M
LOL,2021-12-30 00:20,-118.5701,40.0684,1192.43,32.00,30.00,92.22,0.00,0.00,T,29.73,M,1.75,M,FEW,BKN,OVC,M,1000.00,2900.00,7000.00,M,-SN BR,M,M,M,M,M,M,32.00,KLOL 300020Z AUTO 00000KT 1 3/4SM -SN BR FEW010 BKN029 OVC070 00/M01 A2973 RMK AO2 P0000 T00001011,M
TPH,2021-12-30 00:24,-117.0904,38.0505,1654.00,28.90,27.00,92.49,170.00,8.00,0.00,29.75,M,10.00,M,FEW,OVC,M,M,800.00,1300.00,M,M,M,M,M,M,M,M,M,20.29,KTPH 300024Z AUTO 17008KT 10SM FEW008 OVC013 M02/M03 A2975 RMK AO2 T10171028,M
CXP,2021-12-30 00:30,-119.7326,39.1923,1431.00,32.00,28.40,86.39,100.00,6.00,0.00,29.71,M,7.00,M,FEW,BKN,OVC,M,800.00,4100.00,4700.00,M,-UP,M,M,M,M,M,M,25.53,KCXP 300030Z AUTO 10006KT 7SM -UP FEW008 BKN041 OVC047 00/M02 A2971 RMK AO2,M
05U,2021-12-30 00:30,-116.0051,39.6042,1811.23,24.80,23.00,92.74,0.00,0.00,0.00,29.70,M,9.00,M,FEW,BKN,OVC,M,2800.00,3600.00,4400.00,M,M,M,M,M,M,M,M,24.80,K05U 300030Z AUTO 00000KT 9SM FEW028 BKN036 OVC044 M04/M05 A2970 RMK A01,M
INS,2021-12-30 00:33,-115.6733,36.5872,955.00,42.80,28.40,56.48,150.00,8.00,0.00,29.81,1009.80,10.00,M,FEW,SCT,M,M,2100.00,8000.00,M,M,M,M,M,M,M,M,M,37.42,KINS 300033Z AUTO 15008KT 10SM FEW021 SCT080 06/M02 A2981 RMK AO2 SLP098 $,M
INS,2021-12-30 00:34,-115.6733,36.5872,955.00,42.80,28.40,56.48,150.00,8.00,0.00,29.81,1009.80,10.00,M,FEW,SCT,M,M,2100.00,8000.00,M,M,-RA,M,M,M,M,M,M,37.42,KINS 300034Z AUTO 15008KT 10SM -RA FEW021 SCT080 06/M02 A2981 RMK AO2 RAB33 SLP098 $,M
WMC,2021-12-30 00:34,-117.8072,40.9019,1315.00,30.90,28.00,88.84,250.00,11.00,0.01,29.70,M,2.00,M,FEW,SCT,OVC,M,1100.00,2200.00,2900.00,M,-SN BR,M,M,M,M,M,M,21.08,KWMC 300034Z AUTO 25011KT 2SM -SN BR FEW011 SCT022 OVC029 M01/M02 A2970 RMK AO2 P0001 T10061022,M
TMT,2021-12-30 00:35,-117.1971,39.4643,1749.34,27.00,23.40,86.09,210.00,8.00,0.00,29.70,M,10.00,M,SCT,SCT,BKN,M,2200.00,2900.00,5500.00,M,M,M,M,M,M,M,M,17.95,KTMT 300035Z AUTO 21008KT 10SM SCT022 SCT029 BKN055 M03/M05 A2970 RMK AO2 T10281048,M
BVU,2021-12-30 00:35,-114.8611,35.9475,671.00,48.20,30.20,49.53,160.00,11.00,0.00,29.85,M,10.00,M,BKN,BKN,M,M,5500.00,8000.00,M,M,M,M,M,M,M,M,M,42.94,KBVU 300035Z AUTO 16011KT 10SM BKN055 BKN080 09/M01 A2985 RMK AO2,M
RTS,2021-12-30 00:35,-119.8764,39.6682,1539.00,28.40,26.60,92.86,0.00,0.00,0.00,29.72,M,10.00,M,FEW,BKN,OVC,M,1400.00,3200.00,3900.00,M,M,M,M,M,M,M,M,28.40,KRTS 300035Z AUTO 00000KT 10SM FEW014 BKN032 OVC039 M02/M03 A2972 RMK AO2,M
MEV,2021-12-30 00:35,-119.7500,38.9963,1441.42,33.80,28.40,80.36,350.00,4.00,0.00,29.70,M,10.00,M,SCT,OVC,M,M,5500.00,8500.00,M,M,M,M,M,M,M,M,M,29.52,KMEV 300035Z AUTO 35004KT 10SM SCT055 OVC085 01/M02 A2970 RMK AO2,M
BAM,2021-12-30 00:35,-116.8743,40.5990,1382.36,32.00,32.00,100.00,230.00,10.00,0.00,29.69,M,10.00,M,SCT,SCT,OVC,M,6000.00,8000.00,9000.00,M,M,M,M,M,M,M,M,22.97,KBAM 300035Z AUTO 23010KT 10SM SCT060 SCT080 OVC090 00/00 A2969 RMK AO1,M
HTH,2021-12-30 00:35,-118.6315,38.5448,1282.89,37.40,24.80,60.04,90.00,16.00,0.00,29.70,M,10.00,M,SCT,M,M,M,7000.00,M,M,M,M,M,M,M,M,M,M,27.46,KHTH 300035Z AUTO 09016KT 10SM SCT070 03/M04 A2970 RMK A01,M
WMC,2021-12-30 00:43,-117.8072,40.9019,1315.00,30.00,28.00,92.15,230.00,9.00,0.01,29.71,M,3.00,M,FEW,FEW,OVC,M,1100.00,2200.00,3300.00,M,-SN BR,M,M,M,M,M,M,21.03,KWMC 300043Z AUTO 23009KT 3SM -SN BR FEW011 FEW022 OVC033 M01/M02 A2971 RMK AO2 P0001 T10111022,M
EKO,2021-12-30 00:43,-115.7860,40.8242,1367.00,28.90,25.00,85.14,220.00,8.00,0.03,29.66,M,1.50,M,BKN,OVC,M,M,1400.00,2500.00,M,M,-SN BR,M,M,M,M,M,M,20.29,KEKO 300043Z AUTO 22008KT 1 1/2SM -SN BR BKN014 OVC025 M02/M04 A2966 RMK AO2 P0003 T10171039,M
LOL,2021-12-30 00:46,-118.5701,40.0684,1192.43,32.00,30.00,92.22,70.00,3.00,T,29.74,M,2.00,M,SCT,OVC,M,M,1000.00,3100.00,M,M,-SN BR,M,M,M,M,M,M,28.69,KLOL 300046Z AUTO 07003KT 2SM -SN BR SCT010 OVC031 00/M01 A2974 RMK AO2 P0000 T00001011,M
NFL,2021-12-30 00:46,-118.7010,39.4166,1199.00,33.00,30.00,88.23,20.00,6.00,T,29.73,M,2.00,M,BKN,OVC,M,M,1000.00,2000.00,M,M,-SN BR,M,M,M,M,M,M,26.86,KNFL 300046Z 02006KT 2SM -SN BR BKN010 OVC020 01/M01 A2973 RMK AO2 SNB13 P0000 T00061011,M
05U,2021-12-30 00:50,-116.0051,39.6042,1811.23,24.80,23.00,92.74,20.00,3.00,0.00,29.70,M,8.00,M,BKN,OVC,M,M,2800.00,3500.00,M,M,M,M,M,M,M,M,M,20.46,K05U 300050Z AUTO 02003KT 8SM BKN028 OVC035 M04/M05 A2970 RMK A01,M
CXP,2021-12-30 00:50,-119.7326,39.1923,1431.00,32.00,28.40,86.39,0.00,0.00,0.00,29.73,M,5.00,M,FEW,BKN,OVC,M,3000.00,4300.00,5000.00,M,-SN,M,M,M,M,M,M,32.00,KCXP 300050Z AUTO 00000KT 5SM -SN FEW030 BKN043 OVC050 M00/M02 A2973 RMK AO2,M
EKO,2021-12-30 00:52,-115.7860,40.8242,1367.00,28.40,24.80,86.18,220.00,8.00,0.03,29.66,M,2.50,M,BKN,OVC,M,M,1600.00,2300.00,M,M,-SN BR,M,M,M,M,M,M,19.68,KEKO 300052Z AUTO 22008KT 2 1/2SM -SN BR BKN016 OVC023 M02/M04 A2966 RMK AO2 P0003,M
DRA,2021-12-30 00:53,-116.0278,36.6206,1009.00,40.00,32.00,73.14,180.00,4.00,T,29.80,1008.90,10.00,M,OVC,M,M,M,4400.00,M,M,M,M,M,M,M,M,M,M,36.65,KDRA 300053Z AUTO 18004KT 10SM OVC044 04/00 A2980 RMK AO2 RAB11E37 SLP089 P0000 T00440000,M
LOL,2021-12-30 00:53,-118.5701,40.0684,1192.43,32.00,30.00,92.22,0.00,0.00,T,29.75,1009.20,3.00,M,SCT,BKN,OVC,M,700.00,1000.00,3300.00,M,-SN BR,M,M,M,M,M,M,32.00,KLOL 300053Z AUTO 00000KT 3SM -SN BR SCT007 BKN010 OVC033 00/M01 A2975 RMK AO2 SLP092 P0000 T00001011,M
ELY,2021-12-30 00:53,-114.8453,39.2950,1909.00,26.10,19.00,74.16,160.00,13.00,0.00,29.70,1008.60,10.00,20.00,FEW,OVC,M,M,2800.00,3300.00,M,M,M,M,M,M,M,M,M,14.01,KELY 300053Z AUTO 16013G20KT 10SM FEW028 OVC033 M03/M07 A2970 RMK AO2 SLP086 T10331072,M
VGT,2021-12-30 00:53,-115.1933,36.2111,667.00,50.00,28.90,43.92,120.00,8.00,0.00,29.82,1012.30,10.00,M,OVC,M,M,M,6500.00,M,M,M,M,M,M,M,M,M,M,50.00,KVGT 300053Z 12008KT 10SM OVC065 10/M02 A2982 RMK AO2 SLP123 T01001017,M
HTH,2021-12-30 00:55,-118.6315,38.5448,1282.89,35.60,23.00,59.79,90.00,11.00,0.00,29.71,M,10.00,17.00,OVC,M,M,M,6000.00,M,M,M,M,M,M,M,M,M,M,27.02,KHTH 300055Z AUTO 09011G17KT 10SM OVC060 02/M05 A2971 RMK A01,M
RTS,2021-12-30 00:55,-119.8764,39.6682,1539.00,28.40,26.60,92.86,0.00,0.00,0.00,29.73,M,10.00,M,FEW,SCT,BKN,M,2500.00,3200.00,3900.00,M,M,M,M,M,M,M,M,28.40,KRTS 300055Z AUTO 00000KT 10SM FEW025 SCT032 BKN039 M02/M03 A2973 RMK AO2,M
TMT,2021-12-30 00:55,-117.1971,39.4643,1749.34,27.10,22.60,82.90,220.00,10.00,0.00,29.71,M,10.00,M,SCT,SCT,OVC,M,2200.00,5000.00,9500.00,M,M,M,M,M,M,M,M,16.82,KTMT 300055Z AUTO 22010KT 10SM SCT022 SCT050 OVC095 M03/M05 A2971 RMK AO2 T10271052,M
RNO,2021-12-30 00:55,-119.7711,39.4839,1341.00,32.00,28.90,88.17,130.00,3.00,T,29.73,1007.90,7.00,M,FEW,SCT,BKN,BKN,500.00,2100.00,5500.00,20000.00,M,M,M,M,M,M,M,28.69,KRNO 300055Z 13003KT 7SM FEW005 SCT021 BKN055 BKN200 00/M02 A2973 RMK AO2 SNE16 SLP079 MTN TOPS OBSCD SE THRU SW THRU NW P0000 T00001017,M
MEV,2021-12-30 00:55,-119.7500,38.9963,1441.42,32.00,28.40,86.39,360.00,4.00,0.00,29.71,M,10.00,M,FEW,OVC,M,M,5500.00,9000.00,M,M,M,M,M,M,M,M,M,27.42,KMEV 300055Z AUTO 36004KT 10SM FEW055 OVC090 00/M02 A2971 RMK AO2,M
BAM,2021-12-30 00:55,-116.8743,40.5990,1382.36,32.00,32.00,100.00,240.00,9.00,0.00,29.69,M,10.00,M,SCT,OVC,M,M,7000.00,10000.00,M,M,M,M,M,M,M,M,M,23.51,KBAM 300055Z AUTO 24009KT 10SM SCT070 OVC100 00/00 A2969 RMK AO1,M
BVU,2021-12-30 00:55,-114.8611,35.9475,671.00,48.20,28.40,46.02,160.00,12.00,0.00,29.85,M,10.00,M,OVC,M,M,M,5500.00,M,M,M,M,M,M,M,M,M,M,42.62,KBVU 300055Z AUTO 16012KT 10SM OVC055 09/M02 A2985 RMK AO2,M
TPH,2021-12-30 00:56,-117.0904,38.0505,1654.00,28.90,27.00,92.49,170.00,9.00,0.00,29.75,1009.00,10.00,M,OVC,M,M,M,1100.00,M,M,M,M,M,M,M,M,M,M,19.66,KTPH 300056Z AUTO 17009KT 10SM OVC011 M02/M03 A2975 RMK AO2 CIG 008V015 SLP090 T10171028,M
WMC,2021-12-30 00:56,-117.8072,40.9019,1315.00,30.00,28.00,92.15,240.00,9.00,0.01,29.71,1007.80,5.00,M,OVC,M,M,M,3900.00,M,M,M,-SN BR,M,M,M,M,M,M,21.03,KWMC 300056Z AUTO 24009KT 5SM -SN BR OVC039 M01/M02 A2971 RMK AO2 SLP078 P0001 T10111022,M
LAS,2021-12-30 00:56,-115.1634,36.0719,663.00,49.00,30.00,47.85,160.00,9.00,0.00,29.82,1010.30,10.00,M,FEW,BKN,BKN,M,5500.00,7000.00,11000.00,M,M,M,M,M,M,M,M,44.53,KLAS 300056Z 16009KT 10SM FEW055 BKN070 BKN110 09/M01 A2982 RMK AO2 SLP103 T00941011,M
EKO,2021-12-30 00:56,-115.7860,40.8242,1367.00,28.90,25.00,85.14,220.00,9.00,0.03,29.66,1007.70,2.00,M,BKN,OVC,M,M,1600.00,2300.00,M,M,-SN BR,M,M,M,M,M,M,19.66,KEKO 300056Z AUTO 22009KT 2SM -SN BR BKN016 OVC023 M02/M04 A2966 RMK AO2 SLP077 P0003 T10171039,M
HND,2021-12-30 00:56,-115.1344,35.9729,742.79,48.00,28.90,47.32,150.00,14.00,0.00,29.83,1012.80,10.00,22.00,OVC,M,M,M,6500.00,M,M,M,M,M,M,M,M,M,M,41.79,KHND 300056Z 15014G22KT 10SM OVC065 09/M02 A2983 RMK AO2 SLP128 T00891017,M
NFL,2021-12-30 00:56,-118.7010,39.4166,1199.00,33.00,30.00,88.23,20.00,6.00,T,29.74,1005.10,2.00,M,BKN,OVC,M,M,1000.00,2000.00,M,M,-SN BR,M,M,M,M,M,M,26.86,KNFL 300056Z 02006KT 2SM -SN BR BKN010 OVC020 01/M01 A2974 RMK AO2 SNB13 SLP051 P0000 T00061011,M
LSV,2021-12-30 00:58,-115.0343,36.2362,570.00,50.00,30.60,47.06,150.00,13.00,0.00,29.83,1010.70,10.00,M,BKN,M,M,M,6000.00,M,M,M,M,M,M,M,M,M,M,50.00,KLSV 300058Z AUTO 15013KT 10SM BKN060 10/M01 A2983 RMK AO2 SLP107 T01001008 $,M
INS,2021-12-30 00:58,-115.6733,36.5872,955.00,41.70,30.40,63.93,130.00,9.00,T,29.81,1009.80,10.00,M,SCT,M,M,M,5000.00,M,M,M,M,M,M,M,M,M,M,35.58,KINS 300058Z AUTO 13009KT 10SM SCT050 05/M01 A2981 RMK AO2 RAB33E43DZB43E56DZB56E56 SLP098 P0000 T00541009 $,M
RNO,2021-12-30 01:00,-119.7711,39.4839,1341.00,32.00,28.90,88.17,130.00,3.00,0.00,29.73,M,7.00,M,FEW,BKN,BKN,BKN,500.00,1800.00,5500.00,20000.00,M,M,M,M,M,M,M,28.69,KRNO 300100Z 13003KT 7SM FEW005 BKN018 BKN055 BKN200 00/M02 A2973 RMK AO2 MTN TOPS OBSCD SE THRU SW THRU NW T00001017,M
LOL,2021-12-30 01:00,-118.5701,40.0684,1192.43,32.00,30.00,92.22,0.00,0.00,T,29.75,M,4.00,M,BKN,BKN,OVC,M,700.00,1100.00,3100.00,M,-SN BR,M,M,M,M,M,M,32.00,KLOL 300100Z AUTO 00000KT 4SM -SN BR BKN007 BKN011 OVC031 00/M01 A2975 RMK AO2 P0000 T00001011,M
INS,2021-12-30 01:03,-115.6733,36.5872,955.00,41.00,32.00,70.08,140.00,9.00,0.00,29.81,1009.80,10.00,M,BKN,M,M,M,5000.00,M,M,M,M,M,M,M,M,M,M,34.70,KINS 300103Z AUTO 14009KT 10SM BKN050 05/M00 A2981 RMK AO2 SLP098 $,M
LOL,2021-12-30 01:04,-118.5701,40.0684,1192.43,32.00,30.00,92.22,0.00,0.00,T,29.75,M,3.00,M,SCT,OVC,M,M,700.00,2900.00,M,M,-SN BR,M,M,M,M,M,M,32.00,KLOL 300104Z AUTO 00000KT 3SM -SN BR SCT007 OVC029 00/M01 A2975 RMK AO2 P0000 T00001011,M
TPH,2021-12-30 01:06,-117.0904,38.0505,1654.00,28.90,27.00,92.49,180.00,8.00,0.00,29.75,M,10.00,M,OVC,M,M,M,900.00,M,M,M,M,M,M,M,M,M,M,20.29,KTPH 300106Z AUTO 18008KT 10SM OVC009 M02/M03 A2975 RMK AO2 CIG 007V014 T10171028,M
CXP,2021-12-30 01:10,-119.7326,39.1923,1431.00,32.00,28.40,86.39,0.00,0.00,0.00,29.74,M,10.00,M,SCT,OVC,M,M,4200.00,5000.00,M,M,M,M,M,M,M,M,M,32.00,KCXP 300110Z AUTO 00000KT 10SM SCT042 OVC050 M00/M02 A2974 RMK AO2,M
ELY,2021-12-30 01:10,-114.8453,39.2950,1909.00,26.10,19.00,74.16,170.00,11.00,T,29.70,M,8.00,20.00,BKN,OVC,M,M,2800.00,3600.00,M,M,-SN,M,M,M,M,M,M,15.01,KELY 300110Z AUTO 17011G20KT 8SM -SN BKN028 OVC036 M03/M07 A2970 RMK AO2 SNB02 P0000 T10331072,M
05U,2021-12-30 01:10,-116.0051,39.6042,1811.23,24.80,23.00,92.74,0.00,0.00,0.00,29.71,M,10.00,M,FEW,SCT,OVC,M,2800.00,3200.00,3900.00,M,M,M,M,M,M,M,M,24.80,K05U 300110Z AUTO 00000KT 10SM FEW028 SCT032 OVC039 M04/M05 A2971 RMK A01,M
EKO,2021-12-30 01:12,-115.7860,40.8242,1367.00,28.90,25.00,85.14,220.00,9.00,T,29.67,M,7.00,M,OVC,M,M,M,2100.00,M,M,M,-SN,M,M,M,M,M,M,19.66,KEKO 300112Z AUTO 22009KT 7SM -SN OVC021 M02/M04 A2967 RMK AO2 P0000 T10171039,M
BAM,2021-12-30 01:15,-116.8743,40.5990,1382.36,32.00,32.00,100.00,250.00,10.00,0.00,29.71,M,10.00,M,BKN,M,M,M,11000.00,M,M,M,M,M,M,M,M,M,M,22.97,KBAM 300115Z AUTO 25010KT 10SM BKN110 00/00 A2971 RMK AO1,M
TMT,2021-12-30 01:15,-117.1971,39.4643,1749.34,27.30,22.80,82.92,210.00,10.00,0.00,29.72,M,10.00,M,BKN,BKN,OVC,M,4700.00,6000.00,8500.00,M,M,M,M,M,M,M,M,17.07,KTMT 300115Z AUTO 21010KT 10SM BKN047 BKN060 OVC085 M03/M05 A2972 RMK AO2 T10261051,M
HTH,2021-12-30 01:15,-118.6315,38.5448,1282.89,35.60,23.00,59.79,120.00,11.00,0.00,29.72,M,10.00,16.00,FEW,BKN,OVC,M,4600.00,6000.00,7000.00,M,M,M,M,M,M,M,M,27.02,KHTH 300115Z AUTO 12011G16KT 10SM FEW046 BKN060 OVC070 02/M05 A2972 RMK A01,M
MEV,2021-12-30 01:15,-119.7500,38.9963,1441.42,32.00,28.40,86.39,360.00,6.00,0.00,29.72,M,10.00,M,SCT,BKN,OVC,M,6000.00,7500.00,9000.00,M,M,M,M,M,M,M,M,25.53,KMEV 300115Z AUTO 36006KT 10SM SCT060 BKN075 OVC090 00/M02 A2972 RMK AO2,M
BVU,2021-12-30 01:15,-114.8611,35.9475,671.00,48.20,28.40,46.02,160.00,12.00,0.00,29.86,M,10.00,M,FEW,OVC,M,M,4300.00,6000.00,M,M,M,M,M,M,M,M,M,42.62,KBVU 300115Z AUTO 16012KT 10SM FEW043 OVC060 09/M02 A2986 RMK AO2,M
RTS,2021-12-30 01:15,-119.8764,39.6682,1539.00,28.40,26.60,92.86,0.00,0.00,0.00,29.74,M,10.00,M,BKN,BKN,OVC,M,2500.00,3000.00,8500.00,M,M,M,M,M,M,M,M,28.40,KRTS 300115Z AUTO 00000KT 10SM BKN025 BKN030 OVC085 M02/M03 A2974 RMK AO2,M
LOL,2021-12-30 01:15,-118.5701,40.0684,1192.43,32.00,30.00,92.22,0.00,0.00,T,29.76,M,2.00,M,FEW,OVC,M,M,700.00,2300.00,M,M,-SN BR,M,M,M,M,M,M,32.00,KLOL 300115Z AUTO 00000KT 2SM -SN BR FEW007 OVC023 00/M01 A2976 RMK AO2 P0000 T00001011,M
ELY,2021-12-30 01:18,-114.8453,39.2950,1909.00,26.10,19.90,77.06,190.00,9.00,T,29.71,M,9.00,M,BKN,OVC,M,M,3000.00,3600.00,M,M,M,M,M,M,M,M,M,16.18,KELY 300118Z AUTO 19009KT 9SM BKN030 OVC036 M03/M07 A2971 RMK AO2 SNB02E13 P0000 T10331067,M
LOL,2021-12-30 01:24,-118.5701,40.0684,1192.43,30.90,30.00,96.41,50.00,4.00,0.01,29.76,M,1.50,M,OVC,M,M,M,2100.00,M,M,M,-SN BR,M,M,M,M,M,M,26.14,KLOL 300124Z AUTO 05004KT 1 1/2SM -SN BR OVC021 M01/M01 A2976 RMK AO2 P0001 T10061011,M
NFL,2021-12-30 01:24,-118.7010,39.4166,1199.00,32.00,30.00,92.22,50.00,4.00,T,29.75,M,6.00,M,BKN,OVC,M,M,2000.00,3000.00,M,M,-SN BR,M,M,M,M,M,M,27.42,KNFL 300124Z 05004KT 6SM -SN BR BKN020 OVC030 00/M01 A2975 RMK AO2 P0000 T00001011,M
05U,2021-12-30 01:30,-116.0051,39.6042,1811.23,26.60,21.20,79.77,0.00,0.00,0.00,29.72,M,10.00,M,SCT,BKN,OVC,M,3100.00,4100.00,4700.00,M,M,M,M,M,M,M,M,26.60,K05U 300130Z AUTO 00000KT 10SM SCT031 BKN041 OVC047 M03/M06 A2972 RMK A01,M
CXP,2021-12-30 01:30,-119.7326,39.1923,1431.00,32.00,28.40,86.39,0.00,0.00,0.00,29.74,M,10.00,M,BKN,BKN,OVC,M,4300.00,4900.00,6500.00,M,M,M,M,M,M,M,M,32.00,KCXP 300130Z AUTO 00000KT 10SM BKN043 BKN049 OVC065 M00/M02 A2974 RMK AO2,M
TPH,2021-12-30 01:34,-117.0904,38.0505,1654.00,28.90,27.00,92.49,150.00,6.00,0.00,29.77,M,10.00,M,OVC,M,M,M,1400.00,M,M,M,M,M,M,M,M,M,M,21.80,KTPH 300134Z AUTO 15006KT 10SM OVC014 M02/M03 A2977 RMK AO2 T10171028,M
BVU,2021-12-30 01:35,-114.8611,35.9475,671.00,48.20,28.40,46.02,160.00,10.00,0.00,29.87,M,10.00,M,SCT,OVC,M,M,6000.00,7500.00,M,M,M,M,M,M,M,M,M,43.28,KBVU 300135Z AUTO 16010KT 10SM SCT060 OVC075 09/M02 A2987 RMK AO2,M
RTS,2021-12-30 01:35,-119.8764,39.6682,1539.00,28.40,26.60,92.86,0.00,0.00,0.00,29.75,M,10.00,M,BKN,OVC,M,M,2500.00,3500.00,M,M,M,M,M,M,M,M,M,28.40,KRTS 300135Z AUTO 00000KT 10SM BKN025 OVC035 M02/M03 A2975 RMK AO2,M
TMT,2021-12-30 01:35,-117.1971,39.4643,1749.34,27.50,22.50,81.21,230.00,8.00,0.00,29.73,M,10.00,M,BKN,OVC,M,M,4300.00,4900.00,M,M,M,M,M,M,M,M,M,18.57,KTMT 300135Z AUTO 23008KT 10SM BKN043 OVC049 M02/M05 A2973 RMK AO2 T10251053,M
BAM,2021-12-30 01:35,-116.8743,40.5990,1382.36,32.00,32.00,100.00,250.00,11.00,0.00,29.72,M,10.00,M,BKN,BKN,BKN,M,7000.00,8000.00,11000.00,M,M,M,M,M,M,M,M,22.47,KBAM 300135Z AUTO 25011KT 10SM BKN070 BKN080 BKN110 00/00 A2972 RMK AO1,M
HTH,2021-12-30 01:35,-118.6315,38.5448,1282.89,35.60,23.00,59.79,130.00,12.00,0.00,29.73,M,10.00,M,FEW,BKN,BKN,M,4600.00,6500.00,7500.00,M,M,M,M,M,M,M,M,26.58,KHTH 300135Z AUTO 13012KT 10SM FEW046 BKN065 BKN075 02/M05 A2973 RMK A01,M
MEV,2021-12-30 01:35,-119.7500,38.9963,1441.42,32.00,28.40,86.39,20.00,5.00,0.00,29.72,M,10.00,M,SCT,BKN,OVC,M,4800.00,6000.00,7000.00,M,M,M,M,M,M,M,M,26.40,KMEV 300135Z AUTO 02005KT 10SM SCT048 BKN060 OVC070 00/M02 A2972 RMK AO2,M
LOL,2021-12-30 01:37,-118.5701,40.0684,1192.43,30.90,30.00,96.41,80.00,3.00,0.01,29.77,M,3.00,M,OVC,M,M,M,2300.00,M,M,M,-SN BR,M,M,M,M,M,M,27.43,KLOL 300137Z AUTO 08003KT 3SM -SN BR OVC023 M01/M01 A2977 RMK AO2 P0001 T10061011,M
LOL,2021-12-30 01:46,-118.5701,40.0684,1192.43,30.90,30.00,96.41,0.00,0.00,0.01,29.77,M,2.00,M,OVC,M,M,M,2100.00,M,M,M,-SN BR,M,M,M,M,M,M,30.90,KLOL 300146Z AUTO 00000KT 2SM -SN BR OVC021 M01/M01 A2977 RMK AO2 P0001 T10061011,M
05U,2021-12-30 01:50,-116.0051,39.6042,1811.23,24.80,21.20,85.96,340.00,3.00,0.00,29.72,M,10.00,M,BKN,OVC,M,M,3700.00,4500.00,M,M,M,M,M,M,M,M,M,20.46,K05U 300150Z AUTO 34003KT 10SM BKN037 OVC045 M04/M06 A2972 RMK A01,M
CXP,2021-12-30 01:50,-119.7326,39.1923,1431.00,32.00,28.40,86.39,90.00,4.00,0.00,29.75,M,10.00,M,BKN,OVC,M,M,4900.00,6500.00,M,M,M,M,M,M,M,M,M,27.42,KCXP 300150Z AUTO 09004KT 10SM BKN049 OVC065 M00/M02 A2975 RMK AO2,M
LOL,2021-12-30 01:53,-118.5701,40.0684,1192.43,30.90,30.00,96.41,0.00,0.00,0.01,29.77,1010.30,1.75,M,OVC,M,M,M,2300.00,M,M,M,-SN BR,M,M,M,M,M,M,30.90,KLOL 300153Z AUTO 00000KT 1 3/4SM -SN BR OVC023 M01/M01 A2977 RMK AO2 SLP103 P0001 T10061011,M
DRA,2021-12-30 01:53,-116.0278,36.6206,1009.00,40.00,33.00,76.44,90.00,5.00,0.00,29.82,1009.90,10.00,M,OVC,M,M,M,4400.00,M,M,M,M,M,M,M,M,M,M,35.78,KDRA 300153Z AUTO 09005KT 10SM OVC044 04/01 A2982 RMK AO2 SLP099 T00440006,M
ELY,2021-12-30 01:53,-114.8453,39.2950,1909.00,26.10,19.90,77.06,170.00,12.00,T,29.71,1009.20,10.00,21.00,OVC,M,M,M,3200.00,M,M,M,M,M,M,M,M,M,M,14.49,KELY 300153Z AUTO 17012G21KT 10SM OVC032 M03/M07 A2971 RMK AO2 SNB02E13B34E43 SLP092 P0000 T10331067,M
VGT,2021-12-30 01:53,-115.1933,36.2111,667.00,49.00,30.00,47.85,100.00,6.00,0.00,29.84,1013.00,10.00,M,OVC,M,M,M,5500.00,M,M,M,M,M,M,M,M,M,M,45.88,KVGT 300153Z 10006KT 10SM OVC055 09/M01 A2984 RMK AO2 SLP130 T00941011,M
TMT,2021-12-30 01:55,-117.1971,39.4643,1749.34,27.00,22.10,81.51,210.00,6.00,0.00,29.74,M,10.00,M,SCT,SCT,OVC,M,3000.00,3500.00,4500.00,M,M,M,M,M,M,M,M,19.51,KTMT 300155Z AUTO 21006KT 10SM SCT030 SCT035 OVC045 M03/M05 A2974 RMK AO2 T10281055,M
BVU,2021-12-30 01:55,-114.8611,35.9475,671.00,48.20,28.40,46.02,160.00,9.00,0.00,29.88,M,10.00,M,OVC,M,M,M,7000.00,M,M,M,M,M,M,M,M,M,M,43.66,KBVU 300155Z AUTO 16009KT 10SM OVC070 09/M02 A2988 RMK AO2,M
RNO,2021-12-30 01:55,-119.7711,39.4839,1341.00,32.00,28.90,88.17,150.00,4.00,0.00,29.76,1008.80,9.00,M,FEW,BKN,OVC,M,800.00,1900.00,7500.00,M,M,M,M,M,M,M,M,27.42,KRNO 300155Z 15004KT 9SM FEW008 BKN019 OVC075 00/M02 A2976 RMK AO2 SLP088 MTN TOPS OBSCD SE THRU SW THRU NW T00001017,M
RTS,2021-12-30 01:55,-119.8764,39.6682,1539.00,28.40,26.60,92.86,0.00,0.00,0.00,29.75,M,10.00,M,BKN,OVC,M,M,2700.00,3300.00,M,M,M,M,M,M,M,M,M,28.40,KRTS 300155Z AUTO 00000KT 10SM BKN027 OVC033 M02/M03 A2975 RMK AO2,M
MEV,2021-12-30 01:55,-119.7500,38.9963,1441.42,32.00,28.40,86.39,0.00,0.00,0.00,29.73,M,10.00,M,FEW,BKN,OVC,M,4600.00,5000.00,7000.00,M,M,M,M,M,M,M,M,32.00,KMEV 300155Z AUTO 00000KT 10SM FEW046 BKN050 OVC070 M00/M02 A2973 RMK AO2,M
BAM,2021-12-30 01:55,-116.8743,40.5990,1382.36,32.00,32.00,100.00,250.00,13.00,0.00,29.72,M,10.00,M,BKN,M,M,M,7000.00,M,M,M,M,M,M,M,M,M,M,21.57,KBAM 300155Z AUTO 25013KT 10SM BKN070 00/00 A2972 RMK AO1,M
HTH,2021-12-30 01:55,-118.6315,38.5448,1282.89,32.00,24.80,74.44,140.00,9.00,0.00,29.75,M,10.00,M,BKN,BKN,M,M,7000.00,8500.00,M,M,M,M,M,M,M,M,M,23.51,KHTH 300155Z AUTO 14009KT 10SM BKN070 BKN085 00/M04 A2975 RMK A01,M
EKO,2021-12-30 01:56,-115.7860,40.8242,1367.00,28.90,25.00,85.14,240.00,9.00,T,29.68,1008.20,9.00,M,SCT,BKN,OVC,M,1600.00,2000.00,2700.00,M,-SN,M,M,M,M,M,M,19.66,KEKO 300156Z AUTO 24009KT 9SM -SN SCT016 BKN020 OVC027 M02/M04 A2968 RMK AO2 SLP082 P0000 T10171039,M
LAS,2021-12-30 01:56,-115.1634,36.0719,663.00,49.00,28.90,45.75,M,6.00,0.00,29.85,1011.30,10.00,M,SCT,BKN,OVC,M,5500.00,7000.00,11000.00,M,M,M,M,M,M,M,M,45.88,KLAS 300156Z VRB06KT 10SM SCT055 BKN070 OVC110 09/M02 A2985 RMK AO2 SLP113 T00941017,M
TPH,2021-12-30 01:56,-117.0904,38.0505,1654.00,28.90,27.00,92.49,180.00,6.00,0.00,29.78,1010.10,10.00,M,OVC,M,M,M,1100.00,M,M,M,M,M,M,M,M,M,M,21.80,KTPH 300156Z AUTO 18006KT 10SM OVC011 M02/M03 A2978 RMK AO2 CIG 008V014 SLP101 T10171028,M
NFL,2021-12-30 01:56,-118.7010,39.4166,1199.00,33.00,30.00,88.23,50.00,5.00,T,29.77,1006.00,9.00,M,BKN,OVC,M,M,2000.00,3000.00,M,M,M,M,M,M,M,M,M,27.70,KNFL 300156Z 05005KT 9SM BKN020 OVC030 01/M01 A2977 RMK AO2 SNE30 SLP060 P0000 T00061011,M
HND,2021-12-30 01:56,-115.1344,35.9729,742.79,47.00,28.90,49.32,160.00,15.00,0.00,29.86,1013.50,10.00,20.00,OVC,M,M,M,6500.00,M,M,M,M,M,M,M,M,M,M,40.10,KHND 300156Z 16015G20KT 10SM OVC065 08/M02 A2986 RMK AO2 SLP135 T00831017,M
WMC,2021-12-30 01:56,-117.8072,40.9019,1315.00,30.90,27.00,85.26,250.00,8.00,T,29.74,1008.60,10.00,M,BKN,OVC,M,M,4900.00,7000.00,M,M,-SN,M,M,M,M,M,M,22.76,KWMC 300156Z AUTO 25008KT 10SM -SN BKN049 OVC070 M01/M03 A2974 RMK AO2 SNE07B54 SLP086 P0000 T10061028,M
INS,2021-12-30 01:58,-115.6733,36.5872,955.00,41.70,29.30,61.13,120.00,14.00,0.00,29.82,1010.30,10.00,M,OVC,M,M,M,5000.00,M,M,M,M,M,M,M,M,M,M,33.67,KINS 300158Z AUTO 12014KT 10SM OVC050 05/M01 A2982 RMK AO2 SLP103 T00541015 $,M
LSV,2021-12-30 01:58,-115.0343,36.2362,570.00,50.20,29.70,45.04,160.00,11.00,0.00,29.85,1011.20,10.00,M,OVC,M,M,M,6000.00,M,M,M,M,M,M,M,M,M,M,50.20,KLSV 300158Z AUTO 16011KT 10SM OVC060 10/M01 A2985 RMK AO2 SLP112 T01011013 $,M
LOL,2021-12-30 02:00,-118.5701,40.0684,1192.43,30.90,30.00,96.41,0.00,0.00,T,29.77,M,2.50,M,BKN,OVC,M,M,2900.00,5500.00,M,M,-SN BR,M,M,M,M,M,M,30.90,KLOL 300200Z AUTO 00000KT 2 1/2SM -SN BR BKN029 OVC055 M01/M01 A2977 RMK AO2 P0000 T10061011,M
TPH,2021-12-30 02:05,-117.0904,38.0505,1654.00,28.90,27.00,92.49,170.00,4.00,0.00,29.78,M,10.00,M,OVC,M,M,M,900.00,M,M,M,M,M,M,M,M,M,M,23.80,KTPH 300205Z AUTO 17004KT 10SM OVC009 M02/M03 A2978 RMK AO2 CIG 007V013 T10171028,M
LOL,2021-12-30 02:08,-118.5701,40.0684,1192.43,30.90,30.00,96.41,0.00,0.00,T,29.77,M,4.00,M,BKN,OVC,M,M,2900.00,5500.00,M,M,-SN BR,M,M,M,M,M,M,30.90,KLOL 300208Z AUTO 00000KT 4SM -SN BR BKN029 OVC055 M01/M01 A2977 RMK AO2 P0000 T10061011,M
05U,2021-12-30 02:10,-116.0051,39.6042,1811.23,23.00,21.20,92.69,0.00,0.00,0.00,29.73,M,10.00,M,OVC,M,M,M,3800.00,M,M,M,M,M,M,M,M,M,M,23.00,K05U 300210Z AUTO 00000KT 10SM OVC038 M05/M06 A2973 RMK A01,M
CXP,2021-12-30 02:10,-119.7326,39.1923,1431.00,32.00,28.40,86.39,0.00,0.00,0.00,29.76,M,10.00,M,FEW,SCT,BKN,M,1400.00,3500.00,4800.00,M,M,M,M,M,M,M,M,32.00,KCXP 300210Z AUTO 00000KT 10SM FEW014 SCT035 BKN048 M00/M02 A2976 RMK AO2,M
LOL,2021-12-30 02:14,-118.5701,40.0684,1192.43,30.00,30.00,100.00,0.00,0.00,T,29.78,M,2.50,M,BKN,BKN,OVC,M,3100.00,4500.00,5500.00,M,-SN BR,M,M,M,M,M,M,30.00,KLOL 300214Z AUTO 00000KT 2 1/2SM -SN BR BKN031 BKN045 OVC055 M01/M01 A2978 RMK AO2 P0000 T10111011,M
MEV,2021-12-30 02:15,-119.7500,38.9963,1441.42,32.00,28.40,86.39,360.00,5.00,0.00,29.74,M,10.00,M,OVC,M,M,M,5000.00,M,M,M,M,M,M,M,M,M,M,26.40,KMEV 300215Z AUTO 36005KT 10SM OVC050 M00/M02 A2974 RMK AO2,M
TMT,2021-12-30 02:15,-117.1971,39.4643,1749.34,26.60,22.10,82.87,230.00,9.00,0.00,29.74,M,10.00,M,SCT,SCT,OVC,M,3000.00,3700.00,4300.00,M,M,M,M,M,M,M,M,16.80,KTMT 300215Z AUTO 23009KT 10SM SCT030 SCT037 OVC043 M03/M05 A2974 RMK AO2 T10301055,M
BAM,2021-12-30 02:15,-116.8743,40.5990,1382.36,32.00,32.00,100.00,250.00,12.00,0.00,29.73,M,10.00,M,SCT,SCT,M,M,7000.00,7500.00,M,M,M,M,M,M,M,M,M,22.00,KBAM 300215Z AUTO 25012KT 10SM SCT070 SCT075 00/00 A2973 RMK AO1,M
HTH,2021-12-30 02:15,-118.6315,38.5448,1282.89,33.80,24.80,69.25,150.00,10.00,0.00,29.75,M,10.00,M,BKN,M,M,M,7000.00,M,M,M,M,M,M,M,M,M,M,25.23,KHTH 300215Z AUTO 15010KT 10SM BKN070 01/M04 A2975 RMK A01,M
BVU,2021-12-30 02:15,-114.8611,35.9475,671.00,48.20,28.40,46.02,160.00,8.00,0.00,29.88,M,10.00,M,OVC,M,M,M,7000.00,M,M,M,M,M,M,M,M,M,M,44.07,KBVU 300215Z AUTO 16008KT 10SM OVC070 09/M02 A2988 RMK AO2,M
RTS,2021-12-30 02:15,-119.8764,39.6682,1539.00,28.40,28.40,100.00,0.00,0.00,0.00,29.76,M,10.00,M,BKN,OVC,M,M,2400.00,3000.00,M,M,M,M,M,M,M,M,M,28.40,KRTS 300215Z AUTO 00000KT 10SM BKN024 OVC030 M02/M02 A2976 RMK AO2,M
RNO,2021-12-30 02:27,-119.7711,39.4839,1341.00,32.00,28.90,88.17,0.00,0.00,T,29.77,M,5.00,M,BKN,OVC,M,M,2500.00,5500.00,M,M,-SN BR,M,M,M,M,M,M,32.00,KRNO 300227Z 00000KT 5SM -SN BR BKN025 OVC055 00/M02 A2977 RMK AO2 SNB20 P0000 T00001017,M
05U,2021-12-30 02:30,-116.0051,39.6042,1811.23,23.00,21.20,92.69,0.00,0.00,0.00,29.74,M,10.00,M,OVC,M,M,M,4000.00,M,M,M,M,M,M,M,M,M,M,23.00,K05U 300230Z AUTO 00000KT 10SM OVC040 M05/M06 A2974 RMK A01,M
CXP,2021-12-30 02:30,-119.7326,39.1923,1431.00,32.00,28.40,86.39,0.00,0.00,0.00,29.77,M,5.00,M,FEW,SCT,OVC,M,1300.00,3600.00,4600.00,M,-SN,M,M,M,M,M,M,32.00,KCXP 300230Z AUTO 00000KT 5SM -SN FEW013 SCT036 OVC046 M00/M02 A2977 RMK AO2,M
TPH,2021-12-30 02:31,-117.0904,38.0505,1654.00,28.90,27.00,92.49,210.00,4.00,0.00,29.79,M,10.00,M,OVC,M,M,M,1000.00,M,M,M,M,M,M,M,M,M,M,23.80,KTPH 300231Z AUTO 21004KT 10SM OVC010 M02/M03 A2979 RMK AO2 CIG 007V013 T10171028,M
LOL,2021-12-30 02:32,-118.5701,40.0684,1192.43,30.00,28.90,95.61,0.00,0.00,T,29.78,M,2.50,M,SCT,BKN,OVC,M,600.00,3100.00,4800.00,M,BR,M,M,M,M,M,M,30.00,KLOL 300232Z AUTO 00000KT 2 1/2SM BR SCT006 BKN031 OVC048 M01/M02 A2978 RMK AO2 SNE26 P0000 T10111017,M
TMT,2021-12-30 02:35,-117.1971,39.4643,1749.34,27.10,22.30,81.86,240.00,11.00,0.00,29.76,M,10.00,M,SCT,SCT,OVC,M,2400.00,3000.00,4300.00,M,-SN,M,M,M,M,M,M,16.27,KTMT 300235Z AUTO 24011KT 10SM -SN SCT024 SCT030 OVC043 M03/M05 A2976 RMK AO2 T10271054,M
HTH,2021-12-30 02:35,-118.6315,38.5448,1282.89,33.80,24.80,69.25,150.00,7.00,0.00,29.77,M,10.00,M,FEW,M,M,M,7000.00,M,M,M,M,M,M,M,M,M,M,26.97,KHTH 300235Z AUTO 15007KT 10SM FEW070 01/M04 A2977 RMK A01,M
BVU,2021-12-30 02:35,-114.8611,35.9475,671.00,48.20,28.40,46.02,140.00,7.00,0.00,29.90,M,10.00,M,BKN,OVC,M,M,6500.00,7500.00,M,M,M,M,M,M,M,M,M,44.53,KBVU 300235Z AUTO 14007KT 10SM BKN065 OVC075 09/M02 A2990 RMK AO2,M
RTS,2021-12-30 02:35,-119.8764,39.6682,1539.00,28.40,28.40,100.00,150.00,4.00,0.00,29.76,M,8.00,M,SCT,OVC,M,M,2500.00,3200.00,M,M,-UP,M,M,M,M,M,M,23.22,KRTS 300235Z AUTO 15004KT 8SM -UP SCT025 OVC032 M02/M02 A2976 RMK AO2,M
MEV,2021-12-30 02:35,-119.7500,38.9963,1441.42,32.00,28.40,86.39,340.00,4.00,0.00,29.75,M,10.00,M,BKN,OVC,M,M,5000.00,6500.00,M,M,M,M,M,M,M,M,M,27.42,KMEV 300235Z AUTO 34004KT 10SM BKN050 OVC065 M00/M02 A2975 RMK AO2,M
BAM,2021-12-30 02:35,-116.8743,40.5990,1382.36,30.20,30.20,100.00,260.00,10.00,0.00,29.74,M,10.00,M,CLR,M,M,M,M,M,M,M,M,M,M,M,M,M,M,20.71,KBAM 300235Z AUTO 26010KT 10SM CLR M01/M01 A2974 RMK AO1,M
LOL,2021-12-30 02:36,-118.5701,40.0684,1192.43,30.00,28.90,95.61,0.00,0.00,T,29.78,M,5.00,M,BKN,OVC,M,M,600.00,4800.00,M,M,-SN BR,M,M,M,M,M,M,30.00,KLOL 300236Z AUTO 00000KT 5SM -SN BR BKN006 OVC048 M01/M02 A2978 RMK AO2 SNE26B36 P0000 T10111017,M
TPH,2021-12-30 02:38,-117.0904,38.0505,1654.00,28.90,27.00,92.49,210.00,5.00,0.00,29.80,M,10.00,M,BKN,OVC,M,M,800.00,1400.00,M,M,M,M,M,M,M,M,M,22.71,KTPH 300238Z AUTO 21005KT 10SM BKN008 OVC014 M02/M03 A2980 RMK AO2 CIG 007V012 T10171028,M
ELY,2021-12-30 02:42,-114.8453,39.2950,1909.00,26.10,19.90,77.06,190.00,10.00,T,29.73,M,10.00,21.00,OVC,M,M,M,2800.00,M,M,M,-SN,M,M,M,M,M,M,15.57,KELY 300242Z AUTO 19010G21KT 10SM -SN OVC028 M03/M07 A2973 RMK AO2 SNB01 P0000 T10331067,M
LOL,2021-12-30 02:45,-118.5701,40.0684,1192.43,30.00,28.90,95.61,160.00,3.00,T,29.78,M,6.00,M,SCT,OVC,M,M,500.00,4800.00,M,M,-SN BR,M,M,M,M,M,M,26.40,KLOL 300245Z AUTO 16003KT 6SM -SN BR SCT005 OVC048 M01/M02 A2978 RMK AO2 SNE26B36 P0000 T10111017,M
TPH,2021-12-30 02:49,-117.0904,38.0505,1654.00,28.90,26.10,89.12,210.00,3.00,0.00,29.80,M,10.00,M,OVC,M,M,M,1000.00,M,M,M,M,M,M,M,M,M,M,25.14,KTPH 300249Z AUTO 21003KT 10SM OVC010 M02/M03 A2980 RMK AO2 CIG 007V013 T10171033,M
CXP,2021-12-30 02:50,-119.7326,39.1923,1431.00,32.00,28.40,86.39,0.00,0.00,0.00,29.78,M,4.00,M,FEW,BKN,OVC,M,800.00,3300.00,5500.00,M,-SN,M,M,M,M,M,M,32.00,KCXP 300250Z AUTO 00000KT 4SM -SN FEW008 BKN033 OVC055 M00/M02 A2978 RMK AO2,M
05U,2021-12-30 02:50,-116.0051,39.6042,1811.23,23.00,21.20,92.69,0.00,0.00,0.00,29.75,M,10.00,M,BKN,OVC,M,M,3600.00,4100.00,M,M,M,M,M,M,M,M,M,23.00,K05U 300250Z AUTO 00000KT 10SM BKN036 OVC041 M05/M06 A2975 RMK A01,M
VGT,2021-12-30 02:53,-115.1933,36.2111,667.00,50.00,28.90,43.92,150.00,10.00,0.00,29.86,1013.60,10.00,M,FEW,OVC,M,M,5500.00,7000.00,M,M,M,M,M,M,M,M,M,50.00,KVGT 300253Z 15010KT 10SM FEW055 OVC070 10/M02 A2986 RMK AO2 SLP136 T01001017 53013,M
EKO,2021-12-30 02:53,-115.7860,40.8242,1367.00,28.40,24.80,86.18,240.00,5.00,0.01,29.70,M,2.00,M,OVC,M,M,M,2000.00,M,M,M,-SN BR,M,M,M,M,M,M,22.12,KEKO 300253Z AUTO 24005KT 2SM -SN BR OVC020 M02/M04 A2970 RMK AO2 P0001,M
ELY,2021-12-30 02:53,-114.8453,39.2950,1909.00,27.00,19.90,74.25,160.00,14.00,T,29.74,1009.00,9.00,19.00,OVC,M,M,M,2700.00,M,M,M,M,M,M,M,M,M,M,14.72,KELY 300253Z AUTO 16014G19KT 9SM OVC027 M03/M07 A2974 RMK AO2 SNB01E51 SLP090 P0000 60000 T10281067 53015,M
DRA,2021-12-30 02:53,-116.0278,36.6206,1009.00,40.00,33.00,76.44,360.00,6.00,0.00,29.83,1010.10,10.00,M,OVC,M,M,M,4300.00,M,M,M,M,M,M,M,M,M,M,35.04,KDRA 300253Z AUTO 36006KT 10SM OVC043 04/01 A2983 RMK AO2 SLP101 60000 T00440006 51013,M
LOL,2021-12-30 02:53,-118.5701,40.0684,1192.43,28.90,28.90,100.00,0.00,0.00,T,29.78,1010.60,7.00,M,BKN,OVC,M,M,500.00,4800.00,M,M,-SN,M,M,M,M,M,M,28.90,KLOL 300253Z AUTO 00000KT 7SM -SN BKN005 OVC048 M02/M02 A2978 RMK AO2 SNE26B36 SLP106 P0000 60001 T10171017 51020,M
HND,2021-12-30 02:54,-115.1344,35.9729,742.79,46.40,28.40,49.24,150.00,7.00,0.00,29.87,M,10.00,16.00,OVC,M,M,M,8000.00,M,M,M,M,M,M,M,M,M,M,42.33,KHND 300254Z 15007G16KT 10SM OVC080 08/M02 A2987 RMK IV,M
BAM,2021-12-30 02:55,-116.8743,40.5990,1382.36,30.20,30.20,100.00,260.00,10.00,0.00,29.75,M,10.00,M,SCT,BKN,BKN,M,4100.00,4600.00,11000.00,M,M,M,M,M,M,M,M,20.71,KBAM 300255Z AUTO 26010KT 10SM SCT041 BKN046 BKN110 M01/M01 A2975 RMK AO1,M
HTH,2021-12-30 02:55,-118.6315,38.5448,1282.89,33.80,23.00,64.23,140.00,12.00,0.00,29.77,M,10.00,M,CLR,M,M,M,M,M,M,M,M,M,M,M,M,M,M,24.29,KHTH 300255Z AUTO 14012KT 10SM CLR 01/M05 A2977 RMK A01,M
MEV,2021-12-30 02:55,-119.7500,38.9963,1441.42,32.00,28.40,86.39,360.00,5.00,0.00,29.76,M,10.00,M,FEW,BKN,OVC,M,3100.00,5500.00,7000.00,M,M,M,M,M,M,M,M,26.40,KMEV 300255Z AUTO 36005KT 10SM FEW031 BKN055 OVC070 M00/M02 A2976 RMK AO2,M
RTS,2021-12-30 02:55,-119.8764,39.6682,1539.00,28.40,26.60,92.86,0.00,0.00,0.00,29.77,M,10.00,M,OVC,M,M,M,3100.00,M,M,M,M,M,M,M,M,M,M,28.40,KRTS 300255Z AUTO 00000KT 10SM OVC031 M02/M03 A2977 RMK AO2,M
RNO,2021-12-30 02:55,-119.7711,39.4839,1341.00,32.00,28.90,88.17,170.00,3.00,T,29.78,1009.50,7.00,M,FEW,BKN,OVC,M,1100.00,2100.00,5000.00,M,-SN,M,M,M,M,M,M,28.69,KRNO 300255Z 17003KT 7SM -SN FEW011 BKN021 OVC050 00/M02 A2978 RMK AO2 SNB20 SLP095 P0000 60000 T00001017 51022,M
TMT,2021-12-30 02:55,-117.1971,39.4643,1749.34,26.20,23.00,87.50,230.00,8.00,0.00,29.76,M,3.00,M,SCT,BKN,OVC,M,2000.00,2700.00,3600.00,M,-SN,M,M,M,M,M,M,16.97,KTMT 300255Z AUTO 23008KT 3SM -SN SCT020 BKN027 OVC036 M03/M05 A2976 RMK AO2 T10321050,M
BVU,2021-12-30 02:55,-114.8611,35.9475,671.00,48.20,28.40,46.02,150.00,6.00,0.00,29.89,M,10.00,M,SCT,OVC,M,M,6500.00,8000.00,M,M,M,M,M,M,M,M,M,45.04,KBVU 300255Z AUTO 15006KT 10SM SCT065 OVC080 09/M02 A2989 RMK AO2,M
WMC,2021-12-30 02:56,-117.8072,40.9019,1315.00,30.00,26.10,85.21,240.00,7.00,T,29.76,1009.30,10.00,M,OVC,M,M,M,6000.00,M,M,M,M,M,M,M,M,M,M,22.34,KWMC 300256Z AUTO 24007KT 10SM OVC060 M01/M03 A2976 RMK AO2 SNE05 SLP093 P0000 60001 T10111033 51020,M
EKO,2021-12-30 02:56,-115.7860,40.8242,1367.00,28.00,25.00,88.33,240.00,4.00,0.01,29.70,1008.90,1.75,M,BKN,OVC,M,M,1800.00,2200.00,M,M,-SN BR,M,M,M,M,M,M,22.75,KEKO 300256Z AUTO 24004KT 1 3/4SM -SN BR BKN018 OVC022 M02/M04 A2970 RMK AO2 SLP089 P0001 60004 T10221039 51012,M
NFL,2021-12-30 02:56,-118.7010,39.4166,1199.00,32.00,30.00,92.22,0.00,0.00,T,29.78,1006.40,5.00,M,BKN,OVC,M,M,2000.00,3000.00,M,M,-SN BR,M,M,M,M,M,M,32.00,KNFL 300256Z 00000KT 5SM -SN BR BKN020 OVC030 00/M01 A2978 RMK AO2 SNB29 SLP064 P0000 60000 T00001011 51021,M
TPH,2021-12-30 02:56,-117.0904,38.0505,1654.00,28.90,26.10,89.12,210.00,3.00,0.00,29.80,1010.70,10.00,M,OVC,M,M,M,1000.00,M,M,M,M,M,M,M,M,M,M,25.14,KTPH 300256Z AUTO 21003KT 10SM OVC010 M02/M03 A2980 RMK AO2 CIG 007V013 SLP107 T10171033 53017,M
LAS,2021-12-30 02:56,-115.1634,36.0719,663.00,49.00,28.90,45.75,160.00,3.00,0.00,29.87,1011.90,10.00,M,SCT,BKN,BKN,M,5500.00,7000.00,11000.00,M,M,M,M,M,M,M,M,48.01,KLAS 300256Z 16003KT 10SM SCT055 BKN070 BKN110 09/M02 A2987 RMK AO2 SLP119 T00941017 53018,M
HND,2021-12-30 02:56,-115.1344,35.9729,742.79,47.00,28.90,49.32,160.00,10.00,0.00,29.88,1014.40,10.00,M,OVC,M,M,M,8000.00,M,M,M,M,M,M,M,M,M,M,41.65,KHND 300256Z 16010KT 10SM OVC080 08/M02 A2988 RMK AO2 SLP144 T00831017 53019,M
LSV,2021-12-30 02:58,-115.0343,36.2362,570.00,50.20,30.20,45.96,140.00,7.00,0.00,29.87,1012.00,10.00,M,OVC,M,M,M,7000.00,M,M,M,M,M,M,M,M,M,M,50.20,KLSV 300258Z AUTO 14007KT 10SM OVC070 10/M01 A2987 RMK AO2 SLP120 T01011010 53014 $,M
INS,2021-12-30 02:58,-115.6733,36.5872,955.00,41.40,29.30,61.85,100.00,10.00,0.00,29.84,1011.00,10.00,M,OVC,M,M,M,5000.00,M,M,M,M,M,M,M,M,M,M,34.76,KINS 300258Z AUTO 10010KT 10SM OVC050 05/M01 A2984 RMK AO2 SLP110 60000 T00521015 52014 $,M
LOL,2021-12-30 03:01,-118.5701,40.0684,1192.43,28.90,28.90,100.00,0.00,0.00,T,29.79,M,8.00,M,BKN,OVC,M,M,300.00,4800.00,M,M,M,M,M,M,M,M,M,28.90,KLOL 300301Z AUTO 00000KT 8SM BKN003 OVC048 M02/M02 A2979 RMK AO2 SNE0259 P0000 T10171017,M
EKO,2021-12-30 03:10,-115.7860,40.8242,1367.00,28.00,25.00,88.33,240.00,6.00,T,29.70,M,2.00,M,SCT,OVC,M,M,1200.00,1800.00,M,M,-SN BR,M,M,M,M,M,M,20.71,KEKO 300310Z AUTO 24006KT 2SM -SN BR SCT012 OVC018 M02/M04 A2970 RMK AO2 P0000 T10221039,M
CXP,2021-12-30 03:10,-119.7326,39.1923,1431.00,30.20,28.40,92.92,100.00,3.00,0.00,29.78,M,4.00,M,FEW,BKN,OVC,M,700.00,5000.00,7500.00,M,-SN,M,M,M,M,M,M,26.63,KCXP 300310Z AUTO 10003KT 4SM -SN FEW007 BKN050 OVC075 M01/M02 A2978 RMK AO2,M
05U,2021-12-30 03:10,-116.0051,39.6042,1811.23,23.00,21.20,92.69,0.00,0.00,0.00,29.76,M,9.00,M,BKN,OVC,M,M,2300.00,3400.00,M,M,M,M,M,M,M,M,M,23.00,K05U 300310Z AUTO 00000KT 9SM BKN023 OVC034 M05/M06 A2976 RMK A01,M
LOL,2021-12-30 03:12,-118.5701,40.0684,1192.43,28.90,28.90,100.00,0.00,0.00,T,29.79,M,1.75,M,BKN,BKN,OVC,M,200.00,800.00,4700.00,M,BR,M,M,M,M,M,M,28.90,KLOL 300312Z AUTO 00000KT 1 3/4SM BR BKN002 BKN008 OVC047 M02/M02 A2979 RMK AO2 VIS 1V5 SNE0259 P0000 T10171017,M
HTH,2021-12-30 03:15,-118.6315,38.5448,1282.89,33.80,23.00,64.23,110.00,10.00,0.00,29.78,M,10.00,M,CLR,M,M,M,M,M,M,M,M,M,M,M,M,M,M,25.23,KHTH 300315Z AUTO 11010KT 10SM CLR 01/M05 A2978 RMK A01,M
TMT,2021-12-30 03:15,-117.1971,39.4643,1749.34,26.10,23.50,89.73,220.00,4.00,0.00,29.77,M,5.00,M,SCT,BKN,OVC,M,2200.00,3000.00,3600.00,M,-SN,M,M,M,M,M,M,20.53,KTMT 300315Z AUTO 22004KT 5SM -SN SCT022 BKN030 OVC036 M03/M05 A2977 RMK AO2 T10331047,M
MEV,2021-12-30 03:15,-119.7500,38.9963,1441.42,32.00,28.40,86.39,350.00,5.00,0.00,29.76,M,10.00,M,FEW,SCT,OVC,M,3300.00,4100.00,5500.00,M,M,M,M,M,M,M,M,26.40,KMEV 300315Z AUTO 35005KT 10SM FEW033 SCT041 OVC055 M00/M02 A2976 RMK AO2,M
RTS,2021-12-30 03:15,-119.8764,39.6682,1539.00,28.40,26.60,92.86,0.00,0.00,0.00,29.77,M,10.00,M,BKN,OVC,M,M,2800.00,3300.00,M,M,M,M,M,M,M,M,M,28.40,KRTS 300315Z AUTO 00000KT 10SM BKN028 OVC033 M02/M03 A2977 RMK AO2,M
BVU,2021-12-30 03:15,-114.8611,35.9475,671.00,48.20,28.40,46.02,150.00,7.00,0.00,29.90,M,10.00,M,FEW,SCT,BKN,M,4700.00,6500.00,8000.00,M,M,M,M,M,M,M,M,44.53,KBVU 300315Z AUTO 15007KT 10SM FEW047 SCT065 BKN080 09/M02 A2990 RMK AO2,M
BAM,2021-12-30 03:15,-116.8743,40.5990,1382.36,30.20,30.20,100.00,250.00,10.00,0.00,29.76,M,10.00,M,BKN,BKN,OVC,M,3600.00,4200.00,11000.00,M,M,M,M,M,M,M,M,20.71,KBAM 300315Z AUTO 25010KT 10SM BKN036 BKN042 OVC110 M01/M01 A2976 RMK AO1,M
EKO,2021-12-30 03:18,-115.7860,40.8242,1367.00,28.00,25.00,88.33,230.00,7.00,T,29.71,M,1.75,M,FEW,OVC,M,M,900.00,2200.00,M,M,-SN BR,M,M,M,M,M,M,19.90,KEKO 300318Z AUTO 23007KT 1 3/4SM -SN BR FEW009 OVC022 M02/M04 A2971 RMK AO2 P0000 T10221039,M
TPH,2021-12-30 03:19,-117.0904,38.0505,1654.00,28.90,26.10,89.12,220.00,3.00,0.00,29.81,M,10.00,M,OVC,M,M,M,900.00,M,M,M,M,M,M,M,M,M,M,25.14,KTPH 300319Z AUTO 22003KT 10SM OVC009 M02/M03 A2981 RMK AO2 T10171033,M
EKO,2021-12-30 03:26,-115.7860,40.8242,1367.00,28.00,25.00,88.33,M,M,0.01,29.71,M,2.50,M,FEW,SCT,OVC,M,900.00,2000.00,2900.00,M,-SN BR,M,M,M,M,M,M,M,KEKO 300326Z AUTO 2 1/2SM -SN BR FEW009 SCT020 OVC029 M02/M04 A2971 RMK AO2 P0001 T10221039,M
EKO,2021-12-30 03:29,-115.7860,40.8242,1367.00,28.00,25.00,88.33,M,M,0.01,29.71,M,3.00,M,FEW,BKN,OVC,M,900.00,3100.00,5000.00,M,-SN BR,M,M,M,M,M,M,M,KEKO 300329Z AUTO 3SM -SN BR FEW009 BKN031 OVC050 M02/M04 A2971 RMK AO2 P0001 T10221039,M
05U,2021-12-30 03:30,-116.0051,39.6042,1811.23,24.80,23.00,92.74,0.00,0.00,0.00,29.76,M,2.50,M,FEW,OVC,M,M,400.00,2200.00,M,M,BR,M,M,M,M,M,M,24.80,K05U 300330Z AUTO 00000KT 2 1/2SM BR FEW004 OVC022 M04/M05 A2976 RMK A01,M
CXP,2021-12-30 03:30,-119.7326,39.1923,1431.00,32.00,28.40,86.39,M,3.00,0.00,29.79,M,5.00,M,BKN,BKN,OVC,M,1200.00,3700.00,4600.00,M,-SN,M,M,M,M,M,M,28.69,KCXP 300330Z AUTO VRB03KT 5SM -SN BKN012 BKN037 OVC046 M00/M02 A2979 RMK AO2,M
LOL,2021-12-30 03:33,-118.5701,40.0684,1192.43,28.90,28.00,96.38,0.00,0.00,T,29.80,M,0.75,M,VV ,M,M,M,300.00,M,M,M,BR,M,M,M,M,M,M,28.90,KLOL 300333Z AUTO 00000KT 3/4SM BR VV003 M02/M02 A2980 RMK AO2 SNE0259 P0000 T10171022,M
RTS,2021-12-30 03:35,-119.8764,39.6682,1539.00,26.60,26.60,100.00,110.00,3.00,0.00,29.77,M,10.00,M,SCT,SCT,OVC,M,2600.00,3100.00,3900.00,M,M,M,M,M,M,M,M,22.52,KRTS 300335Z AUTO 11003KT 10SM SCT026 SCT031 OVC039 M03/M03 A2977 RMK AO2,M
TMT,2021-12-30 03:35,-117.1971,39.4643,1749.34,26.10,23.50,89.73,220.00,4.00,0.00,29.78,M,10.00,M,SCT,BKN,OVC,M,2000.00,2500.00,3000.00,M,-SN,M,M,M,M,M,M,20.53,KTMT 300335Z AUTO 22004KT 10SM -SN SCT020 BKN025 OVC030 M03/M05 A2978 RMK AO2 T10331047,M
BVU,2021-12-30 03:35,-114.8611,35.9475,671.00,48.20,28.40,46.02,160.00,7.00,0.00,29.91,M,10.00,M,FEW,BKN,OVC,M,5000.00,7500.00,8500.00,M,M,M,M,M,M,M,M,44.53,KBVU 300335Z AUTO 16007KT 10SM FEW050 BKN075 OVC085 09/M02 A2991 RMK AO2,M
MEV,2021-12-30 03:35,-119.7500,38.9963,1441.42,30.20,28.40,92.92,350.00,6.00,0.00,29.77,M,10.00,M,FEW,FEW,OVC,M,3600.00,4400.00,5000.00,M,M,M,M,M,M,M,M,23.36,KMEV 300335Z AUTO 35006KT 10SM FEW036 FEW044 OVC050 M01/M02 A2977 RMK AO2,M
BAM,2021-12-30 03:35,-116.8743,40.5990,1382.36,30.20,30.20,100.00,260.00,8.00,0.00,29.77,M,10.00,M,SCT,BKN,BKN,M,3600.00,4500.00,9500.00,M,M,M,M,M,M,M,M,21.90,KBAM 300335Z AUTO 26008KT 10SM SCT036 BKN045 BKN095 M01/M01 A2977 RMK AO1,M
HTH,2021-12-30 03:35,-118.6315,38.5448,1282.89,33.80,23.00,64.23,110.00,14.00,0.00,29.79,M,10.00,M,CLR,M,M,M,M,M,M,M,M,M,M,M,M,M,M,23.48,KHTH 300335Z AUTO 11014KT 10SM CLR 01/M05 A2979 RMK A01,M
CXP,2021-12-30 03:50,-119.7326,39.1923,1431.00,32.00,30.20,92.97,0.00,0.00,0.00,29.80,M,4.00,M,SCT,BKN,OVC,M,500.00,1400.00,4400.00,M,-SN,M,M,M,M,M,M,32.00,KCXP 300350Z AUTO 00000KT 4SM -SN SCT005 BKN014 OVC044 M00/M01 A2980 RMK AO2,M
05U,2021-12-30 03:50,-116.0051,39.6042,1811.23,24.80,23.00,92.74,130.00,5.00,0.00,29.77,M,8.00,M,FEW,BKN,OVC,M,400.00,2100.00,4400.00,M,M,M,M,M,M,M,M,17.84,K05U 300350Z AUTO 13005KT 8SM FEW004 BKN021 OVC044 M04/M05 A2977 RMK A01,M
VGT,2021-12-30 03:53,-115.1933,36.2111,667.00,50.00,28.90,43.92,150.00,9.00,0.00,29.88,1014.00,10.00,M,OVC,M,M,M,6000.00,M,M,M,M,M,M,M,M,M,M,50.00,KVGT 300353Z AUTO 15009KT 10SM OVC060 10/M02 A2988 RMK AO2 SLP140 T01001017,M
ELY,2021-12-30 03:53,-114.8453,39.2950,1909.00,26.10,21.00,80.75,160.00,14.00,T,29.74,1009.70,10.00,20.00,OVC,M,M,M,2500.00,M,M,M,M,M,M,M,M,M,M,13.56,KELY 300353Z AUTO 16014G20KT 10SM OVC025 M03/M06 A2974 RMK AO2 SNB05E17 SLP097 P0000 T10331061,M
DRA,2021-12-30 03:53,-116.0278,36.6206,1009.00,40.00,33.00,76.44,0.00,0.00,0.00,29.85,1010.50,10.00,M,OVC,M,M,M,4400.00,M,M,M,M,M,M,M,M,M,M,39.90,KDRA 300353Z AUTO 00000KT 10SM OVC044 04/01 A2985 RMK AO2 SLP105 T00440006,M
LOL,2021-12-30 03:53,-118.5701,40.0684,1192.43,28.90,28.00,96.38,0.00,0.00,T,29.80,1011.50,0.75,M,OVC,M,M,M,300.00,M,M,M,BR,M,M,M,M,M,M,28.90,KLOL 300353Z AUTO 00000KT 3/4SM BR OVC003 M02/M02 A2980 RMK AO2 SNE0259 SLP115 P0000 T10171022,M
HTH,2021-12-30 03:55,-118.6315,38.5448,1282.89,33.80,23.00,64.23,130.00,8.00,0.00,29.80,M,10.00,M,CLR,M,M,M,M,M,M,M,M,M,M,M,M,M,M,26.33,KHTH 300355Z AUTO 13008KT 10SM CLR 01/M05 A2980 RMK A01,M
BVU,2021-12-30 03:55,-114.8611,35.9475,671.00,48.20,30.20,49.53,150.00,7.00,0.00,29.90,M,10.00,M,BKN,BKN,OVC,M,4000.00,5000.00,7500.00,M,M,M,M,M,M,M,M,44.53,KBVU 300355Z AUTO 15007KT 10SM BKN040 BKN050 OVC075 09/M01 A2990 RMK AO2,M
RNO,2021-12-30 03:55,-119.7711,39.4839,1341.00,30.00,28.00,92.15,140.00,6.00,T,29.78,1009.90,5.00,M,FEW,BKN,BKN,M,1000.00,2600.00,5500.00,M,-SN BR,M,M,M,M,M,M,23.12,KRNO 300355Z 14006KT 5SM -SN BR FEW010 BKN026 BKN055 M01/M02 A2978 RMK AO2 SLP099 P0000 T10111022,M
RTS,2021-12-30 03:55,-119.8764,39.6682,1539.00,26.60,26.60,100.00,70.00,5.00,0.00,29.78,M,10.00,M,OVC,M,M,M,3800.00,M,M,M,M,M,M,M,M,M,M,19.98,KRTS 300355Z AUTO 07005KT 10SM OVC038 M03/M03 A2978 RMK AO2,M
MEV,2021-12-30 03:55,-119.7500,38.9963,1441.42,30.20,28.40,92.92,340.00,6.00,0.00,29.77,M,10.00,M,BKN,BKN,OVC,M,5000.00,6000.00,7000.00,M,M,M,M,M,M,M,M,23.36,KMEV 300355Z AUTO 34006KT 10SM BKN050 BKN060 OVC070 M01/M02 A2977 RMK AO2,M
BAM,2021-12-30 03:55,-116.8743,40.5990,1382.36,30.20,30.20,100.00,260.00,7.00,0.00,29.77,M,10.00,M,OVC,M,M,M,4300.00,M,M,M,M,M,M,M,M,M,M,22.59,KBAM 300355Z AUTO 26007KT 10SM OVC043 M01/M01 A2977 RMK AO1,M
TMT,2021-12-30 03:55,-117.1971,39.4643,1749.34,25.70,23.50,91.23,230.00,4.00,0.00,29.78,M,10.00,M,SCT,BKN,OVC,M,2500.00,3200.00,3900.00,M,M,M,M,M,M,M,M,20.06,KTMT 300355Z AUTO 23004KT 10SM SCT025 BKN032 OVC039 M03/M05 A2978 RMK AO2 T10351047,M
HND,2021-12-30 03:56,-115.1344,35.9729,742.79,47.00,28.90,49.32,170.00,12.00,0.00,29.89,1014.60,10.00,M,BKN,BKN,OVC,M,7500.00,9000.00,11000.00,M,M,M,M,M,M,M,M,40.97,KHND 300356Z 17012KT 10SM BKN075 BKN090 OVC110 08/M02 A2989 RMK AO2 SLP146 T00831017,M
EKO,2021-12-30 03:56,-115.7860,40.8242,1367.00,28.00,25.00,88.33,210.00,5.00,0.01,29.72,1009.60,9.00,M,FEW,BKN,OVC,M,2600.00,4700.00,5500.00,M,-SN,M,M,M,M,M,M,21.64,KEKO 300356Z AUTO 21005KT 9SM -SN FEW026 BKN047 OVC055 M02/M04 A2972 RMK AO2 SLP096 P0001 T10221039,M
WMC,2021-12-30 03:56,-117.8072,40.9019,1315.00,23.00,19.00,84.39,210.00,4.00,0.00,29.77,1010.60,10.00,M,FEW,M,M,M,9000.00,M,M,M,M,M,M,M,M,M,M,16.91,KWMC 300356Z AUTO 21004KT 10SM FEW090 M05/M07 A2977 RMK AO2 SLP106 T10501072,M
NFL,2021-12-30 03:56,-118.7010,39.4166,1199.00,32.00,30.00,92.22,M,5.00,T,29.80,1007.00,5.00,M,BKN,OVC,M,M,2000.00,3000.00,M,M,BR,M,M,M,M,M,M,26.40,KNFL 300356Z VRB05KT 5SM BR BKN020 OVC030 00/M01 A2980 RMK AO2 SNE20B54E56 SLP070 P0000 T00001011,M
TPH,2021-12-30 03:56,-117.0904,38.0505,1654.00,28.90,27.00,92.49,0.00,0.00,0.00,29.82,1011.30,10.00,M,OVC,M,M,M,800.00,M,M,M,M,M,M,M,M,M,M,28.90,KTPH 300356Z AUTO 00000KT 10SM OVC008 M02/M03 A2982 RMK AO2 CIG 008V012 SLP113 T10171028,M
LAS,2021-12-30 03:56,-115.1634,36.0719,663.00,48.00,28.90,47.32,170.00,4.00,0.00,29.88,1012.30,10.00,M,SCT,BKN,OVC,M,5500.00,7500.00,11000.00,M,M,M,M,M,M,M,M,46.10,KLAS 300356Z 17004KT 10SM SCT055 BKN075 OVC110 09/M02 A2988 RMK AO2 SLP123 T00891017,M
LSV,2021-12-30 03:58,-115.0343,36.2362,570.00,50.00,30.00,45.93,140.00,10.00,0.00,29.88,1012.20,10.00,M,OVC,M,M,M,6500.00,M,M,M,M,M,M,M,M,M,M,50.00,KLSV 300358Z AUTO 14010KT 10SM OVC065 10/M01 A2988 RMK AO2 SLP122 T01001011 $,M
INS,2021-12-30 03:58,-115.6733,36.5872,955.00,41.70,29.30,61.13,110.00,6.00,0.00,29.85,1011.20,10.00,M,OVC,M,M,M,5000.00,M,M,M,M,M,M,M,M,M,M,37.21,KINS 300358Z AUTO 11006KT 10SM OVC050 05/M01 A2985 RMK AO2 SLP112 T00541015 $,M
LOL,2021-12-30 04:04,-118.5701,40.0684,1192.43,28.90,28.00,96.38,0.00,0.00,0.00,29.80,M,1.00,M,BKN,OVC,M,M,300.00,600.00,M,M,BR,M,M,M,M,M,M,28.90,KLOL 300404Z AUTO 00000KT 1SM BR BKN003 OVC006 M02/M02 A2980 RMK AO2 T10171022,M
LOL,2021-12-30 04:10,-118.5701,40.0684,1192.43,28.90,28.00,96.38,0.00,0.00,0.00,29.80,M,0.50,M,SCT,OVC,M,M,300.00,600.00,M,M,FZFG,M,M,M,M,M,M,28.90,KLOL 300410Z AUTO 00000KT 1/2SM FZFG SCT003 OVC006 M02/M02 A2980 RMK AO2 T10171022,M
05U,2021-12-30 04:10,-116.0051,39.6042,1811.23,24.80,23.00,92.74,120.00,5.00,0.00,29.77,M,9.00,M,FEW,SCT,BKN,M,2100.00,2600.00,4200.00,M,M,M,M,M,M,M,M,17.84,K05U 300410Z AUTO 12005KT 9SM FEW021 SCT026 BKN042 M04/M05 A2977 RMK A01,M
CXP,2021-12-30 04:10,-119.7326,39.1923,1431.00,32.00,30.20,92.97,0.00,0.00,0.00,29.80,M,5.00,M,SCT,OVC,M,M,600.00,1100.00,M,M,-SN,M,M,M,M,M,M,32.00,KCXP 300410Z AUTO 00000KT 5SM -SN SCT006 OVC011 M00/M01 A2980 RMK AO2,M
TPH,2021-12-30 04:12,-117.0904,38.0505,1654.00,28.90,27.00,92.49,0.00,0.00,0.00,29.81,M,10.00,M,SCT,OVC,M,M,900.00,1400.00,M,M,M,M,M,M,M,M,M,28.90,KTPH 300412Z AUTO 00000KT 10SM SCT009 OVC014 M02/M03 A2981 RMK AO2 T10171028,M
TMT,2021-12-30 04:15,-117.1971,39.4643,1749.34,25.90,23.20,89.35,240.00,3.00,0.00,29.79,M,10.00,M,SCT,OVC,M,M,3000.00,3900.00,M,M,-SN,M,M,M,M,M,M,21.72,KTMT 300415Z AUTO 24003KT 10SM -SN SCT030 OVC039 M03/M05 A2979 RMK AO2 T10341049,M
MEV,2021-12-30 04:15,-119.7500,38.9963,1441.42,30.20,28.40,92.92,10.00,6.00,0.00,29.78,M,10.00,M,FEW,FEW,OVC,M,5500.00,6000.00,7500.00,M,M,M,M,M,M,M,M,23.36,KMEV 300415Z AUTO 01006KT 10SM FEW055 FEW060 OVC075 M01/M02 A2978 RMK AO2,M
HTH,2021-12-30 04:15,-118.6315,38.5448,1282.89,32.00,23.00,69.04,140.00,5.00,0.00,29.81,M,10.00,M,CLR,M,M,M,M,M,M,M,M,M,M,M,M,M,M,26.40,KHTH 300415Z AUTO 14005KT 10SM CLR 00/M05 A2981 RMK A01,M
BAM,2021-12-30 04:15,-116.8743,40.5990,1382.36,30.20,30.20,100.00,250.00,6.00,0.00,29.78,M,10.00,M,BKN,OVC,M,M,3800.00,4700.00,M,M,M,M,M,M,M,M,M,23.36,KBAM 300415Z AUTO 25006KT 10SM BKN038 OVC047 M01/M01 A2978 RMK AO1,M
RTS,2021-12-30 04:15,-119.8764,39.6682,1539.00,26.60,26.60,100.00,90.00,6.00,0.00,29.78,M,6.00,M,FEW,FEW,OVC,M,200.00,2700.00,3800.00,M,BR,M,M,M,M,M,M,19.03,KRTS 300415Z AUTO 09006KT 6SM BR FEW002 FEW027 OVC038 M03/M03 A2978 RMK AO2,M
BVU,2021-12-30 04:15,-114.8611,35.9475,671.00,46.40,30.20,53.00,170.00,6.00,0.00,29.90,M,10.00,M,SCT,BKN,OVC,M,4200.00,5500.00,11000.00,M,M,M,M,M,M,M,M,42.87,KBVU 300415Z AUTO 17006KT 10SM SCT042 BKN055 OVC110 08/M01 A2990 RMK AO2,M
LOL,2021-12-30 04:19,-118.5701,40.0684,1192.43,30.00,28.00,92.15,0.00,0.00,0.00,29.81,M,0.25,M,FEW,OVC,M,M,300.00,600.00,M,M,FZFG,M,M,M,M,M,M,30.00,KLOL 300419Z AUTO 00000KT 1/4SM FZFG FEW003 OVC006 M01/M02 A2981 RMK AO2 T10111022,M
EKO,2021-12-30 04:21,-115.7860,40.8242,1367.00,27.00,24.10,88.65,230.00,7.00,T,29.72,M,7.00,M,BKN,OVC,M,M,2800.00,4400.00,M,M,-SN,M,M,M,M,M,M,18.68,KEKO 300421Z AUTO 23007KT 7SM -SN BKN028 OVC044 M03/M04 A2972 RMK AO2 P0000 T10281044,M
05U,2021-12-30 04:30,-116.0051,39.6042,1811.23,24.80,23.00,92.74,120.00,4.00,0.00,29.78,M,6.00,M,FEW,SCT,OVC,M,3800.00,4400.00,4900.00,M,BR,M,M,M,M,M,M,19.01,K05U 300430Z AUTO 12004KT 6SM BR FEW038 SCT044 OVC049 M04/M05 A2978 RMK A01,M
CXP,2021-12-30 04:30,-119.7326,39.1923,1431.00,32.00,30.20,92.97,0.00,0.00,0.00,29.81,M,4.00,M,BKN,OVC,M,M,1000.00,1900.00,M,M,-SN,M,M,M,M,M,M,32.00,KCXP 300430Z AUTO 00000KT 4SM -SN BKN010 OVC019 M00/M01 A2981 RMK AO2,M
LOL,2021-12-30 04:33,-118.5701,40.0684,1192.43,28.90,28.00,96.38,260.00,4.00,0.00,29.81,M,0.25,M,SCT,OVC,M,M,700.00,1500.00,M,M,FZFG,M,M,M,M,M,M,23.80,KLOL 300433Z AUTO 26004KT 1/4SM FZFG SCT007 OVC015 M02/M02 A2981 RMK AO2 T10171022,M
BVU,2021-12-30 04:35,-114.8611,35.9475,671.00,48.20,30.20,49.53,180.00,6.00,0.00,29.91,M,10.00,M,FEW,SCT,BKN,M,5500.00,6000.00,7500.00,M,M,M,M,M,M,M,M,45.04,KBVU 300435Z AUTO 18006KT 10SM FEW055 SCT060 BKN075 09/M01 A2991 RMK AO2,M
HTH,2021-12-30 04:35,-118.6315,38.5448,1282.89,32.00,23.00,69.04,110.00,5.00,0.00,29.82,M,10.00,M,CLR,M,M,M,M,M,M,M,M,M,M,M,M,M,M,26.40,KHTH 300435Z AUTO 11005KT 10SM CLR 00/M05 A2982 RMK A01,M
BAM,2021-12-30 04:35,-116.8743,40.5990,1382.36,32.00,30.20,92.97,260.00,7.00,0.00,29.79,M,10.00,M,SCT,SCT,OVC,M,2900.00,3800.00,4900.00,M,M,M,M,M,M,M,M,24.78,KBAM 300435Z AUTO 26007KT 10SM SCT029 SCT038 OVC049 00/M01 A2979 RMK AO1,M
TMT,2021-12-30 04:35,-117.1971,39.4643,1749.34,25.70,23.00,89.34,220.00,4.00,0.00,29.79,M,10.00,M,BKN,OVC,M,M,3000.00,3700.00,M,M,M,M,M,M,M,M,M,20.06,KTMT 300435Z AUTO 22004KT 10SM BKN030 OVC037 M03/M05 A2979 RMK AO2 T10351050,M
MEV,2021-12-30 04:35,-119.7500,38.9963,1441.42,30.20,28.40,92.92,340.00,6.00,0.00,29.79,M,9.00,M,OVC,M,M,M,7000.00,M,M,M,M,M,M,M,M,M,M,23.36,KMEV 300435Z AUTO 34006KT 9SM OVC070 M01/M02 A2979 RMK AO2,M
RTS,2021-12-30 04:35,-119.8764,39.6682,1539.00,26.60,24.80,92.80,80.00,5.00,0.00,29.79,M,0.25,M,OVC,M,M,M,200.00,M,M,M,FZFG,M,M,M,M,M,M,19.98,KRTS 300435Z AUTO 08005KT 1/4SM FZFG OVC002 M03/M04 A2979 RMK AO2,M
LOL,2021-12-30 04:45,-118.5701,40.0684,1192.43,28.90,28.00,96.38,270.00,3.00,0.00,29.81,M,0.50,M,FEW,BKN,OVC,M,700.00,4600.00,6000.00,M,FZFG,M,M,M,M,M,M,25.14,KLOL 300445Z AUTO 27003KT 1/2SM FZFG FEW007 BKN046 OVC060 M02/M02 A2981 RMK AO2 T10171022,M
EKO,2021-12-30 04:47,-115.7860,40.8242,1367.00,28.00,23.00,81.25,200.00,7.00,T,29.73,M,10.00,M,SCT,BKN,OVC,M,2500.00,3000.00,5500.00,M,M,M,M,M,M,M,M,19.90,KEKO 300447Z AUTO 20007KT 10SM SCT025 BKN030 OVC055 M02/M05 A2973 RMK AO2 SNE27 P0000 T10221050,M
CXP,2021-12-30 04:50,-119.7326,39.1923,1431.00,32.00,30.20,92.97,0.00,0.00,0.00,29.81,M,5.00,M,BKN,BKN,OVC,M,800.00,1300.00,4600.00,M,-SN,M,M,M,M,M,M,32.00,KCXP 300450Z AUTO 00000KT 5SM -SN BKN008 BKN013 OVC046 M00/M01 A2981 RMK AO2,M
05U,2021-12-30 04:50,-116.0051,39.6042,1811.23,24.80,23.00,92.74,140.00,5.00,0.00,29.79,M,7.00,M,FEW,SCT,BKN,M,2100.00,3300.00,4100.00,M,M,M,M,M,M,M,M,17.84,K05U 300450Z AUTO 14005KT 7SM FEW021 SCT033 BKN041 M04/M05 A2979 RMK A01,M
RNO,2021-12-30 04:50,-119.7711,39.4839,1341.00,28.40,26.60,92.86,0.00,0.00,0.00,29.80,M,5.00,M,BKN,BKN,BKN,M,1100.00,2700.00,4500.00,M,BR,M,M,M,M,M,M,28.40,KRNO 300450Z 00000KT 5SM BR BKN011 BKN027 BKN045 M02/M03 A2980,M
ELY,2021-12-30 04:53,-114.8453,39.2950,1909.00,26.10,21.00,80.75,180.00,7.00,0.00,29.75,1009.70,10.00,17.00,SCT,OVC,M,M,2700.00,7500.00,M,M,M,M,M,M,M,M,M,17.59,KELY 300453Z AUTO 18007G17KT 10SM SCT027 OVC075 M03/M06 A2975 RMK AO2 SLP097 T10331061,M
VGT,2021-12-30 04:53,-115.1933,36.2111,667.00,49.00,28.90,45.75,140.00,4.00,0.00,29.89,1014.40,10.00,M,SCT,OVC,M,M,7000.00,8500.00,M,M,M,M,M,M,M,M,M,47.16,KVGT 300453Z AUTO 14004KT 10SM SCT070 OVC085 09/M02 A2989 RMK AO2 SLP144 T00941017,M
LOL,2021-12-30 04:53,-118.5701,40.0684,1192.43,28.90,28.00,96.38,0.00,0.00,0.00,29.82,1011.80,0.75,M,FEW,BKN,OVC,M,2400.00,4600.00,6000.00,M,BR,M,M,M,M,M,M,28.90,KLOL 300453Z AUTO 00000KT 3/4SM BR FEW024 BKN046 OVC060 M02/M02 A2982 RMK AO2 SLP118 T10171022,M
DRA,2021-12-30 04:53,-116.0278,36.6206,1009.00,40.00,34.00,79.25,0.00,0.00,0.00,29.86,1010.70,10.00,M,BKN,BKN,OVC,M,4200.00,4900.00,6000.00,M,M,M,M,M,M,M,M,39.90,KDRA 300453Z AUTO 00000KT 10SM BKN042 BKN049 OVC060 04/01 A2986 RMK AO2 SLP107 T00440011,M
INS,2021-12-30 04:53,-115.6733,36.5872,955.00,41.00,32.00,70.08,220.00,7.00,0.00,29.87,1011.40,10.00,M,SCT,M,M,M,5500.00,M,M,M,M,M,M,M,M,M,M,35.75,KINS 300453Z AUTO 22007KT 10SM SCT055 05/M00 A2987 RMK AO2 SLP114 $,M
EKO,2021-12-30 04:54,-115.7860,40.8242,1367.00,28.40,23.00,79.92,210.00,6.03,M,29.74,M,10.00,M,BKN,BKN,OVC,M,2900.00,5000.00,11000.00,M,-SN,M,M,M,M,M,M,21.17,SPECI KEKO 300454Z 21006KT 10SM -SN BKN029 BKN050 OVC110 M02/M05 A2974 RMK AO2 SNE27B53 P0000 FIBI,M
TMT,2021-12-30 04:55,-117.1971,39.4643,1749.34,25.20,23.00,91.21,140.00,3.00,0.00,29.80,M,10.00,M,OVC,M,M,M,3500.00,M,M,M,M,M,M,M,M,M,M,20.91,KTMT 300455Z AUTO 14003KT 10SM OVC035 M04/M05 A2980 RMK AO2 T10381050,M
HTH,2021-12-30 04:55,-118.6315,38.5448,1282.89,32.00,23.00,69.04,120.00,9.00,0.00,29.83,M,10.00,M,CLR,M,M,M,M,M,M,M,M,M,M,M,M,M,M,23.51,KHTH 300455Z AUTO 12009KT 10SM CLR 00/M05 A2983 RMK A01,M
RTS,2021-12-30 04:55,-119.8764,39.6682,1539.00,24.80,24.80,100.00,350.00,5.00,0.00,29.81,M,0.25,M,OVC,M,M,M,200.00,M,M,M,FZFG,M,M,M,M,M,M,17.84,KRTS 300455Z AUTO 35005KT 1/4SM FZFG OVC002 M04/M04 A2981 RMK AO2,M
MEV,2021-12-30 04:55,-119.7500,38.9963,1441.42,28.40,28.40,100.00,0.00,0.00,0.00,29.80,M,9.00,M,FEW,OVC,M,M,700.00,7000.00,M,M,M,M,M,M,M,M,M,28.40,KMEV 300455Z AUTO 00000KT 9SM FEW007 OVC070 M02/M02 A2980 RMK AO2,M
BAM,2021-12-30 04:55,-116.8743,40.5990,1382.36,32.00,28.40,86.39,280.00,4.00,0.00,29.79,M,10.00,M,BKN,OVC,M,M,4400.00,5000.00,M,M,M,M,M,M,M,M,M,27.42,KBAM 300455Z AUTO 28004KT 10SM BKN044 OVC050 00/M02 A2979 RMK AO1,M
BVU,2021-12-30 04:55,-114.8611,35.9475,671.00,48.20,30.20,49.53,190.00,6.00,0.00,29.91,M,10.00,M,SCT,OVC,M,M,5500.00,7500.00,M,M,M,M,M,M,M,M,M,45.04,KBVU 300455Z AUTO 19006KT 10SM SCT055 OVC075 09/M01 A2991 RMK AO2,M
RNO,2021-12-30 04:55,-119.7711,39.4839,1341.00,28.90,27.00,92.49,0.00,0.00,T,29.80,1010.60,5.00,M,BKN,BKN,BKN,M,1100.00,2700.00,4500.00,M,BR,M,M,M,M,M,M,28.90,KRNO 300455Z 00000KT 5SM BR BKN011 BKN027 BKN045 M02/M03 A2980 RMK AO2 SNE49 SLP106 P0000 T10171028,M
HND,2021-12-30 04:56,-115.1344,35.9729,742.79,47.00,30.90,53.50,180.00,8.00,0.00,29.91,1015.10,10.00,M,OVC,M,M,M,7000.00,M,M,M,M,M,M,M,M,M,M,42.47,KHND 300456Z AUTO 18008KT 10SM OVC070 08/M01 A2991 RMK AO2 SLP151 T00831006,M
EKO,2021-12-30 04:56,-115.7860,40.8242,1367.00,28.00,23.00,81.25,220.00,6.00,T,29.74,1010.10,10.00,M,BKN,BKN,OVC,M,2900.00,5000.00,11000.00,M,M,M,M,M,M,M,M,20.71,KEKO 300456Z AUTO 22006KT 10SM BKN029 BKN050 OVC110 M02/M05 A2974 RMK AO2 SNE27B53E56 SLP101 P0000 T10221050,M
WMC,2021-12-30 04:56,-117.8072,40.9019,1315.00,25.00,21.90,87.81,0.00,0.00,0.00,29.80,1011.10,10.00,M,OVC,M,M,M,6000.00,M,M,M,M,M,M,M,M,M,M,25.00,KWMC 300456Z AUTO 00000KT 10SM OVC060 M04/M06 A2980 RMK AO2 SLP111 T10391056,M
NFL,2021-12-30 04:56,-118.7010,39.4166,1199.00,32.00,30.00,92.22,M,5.00,0.00,29.82,1007.40,10.00,M,BKN,OVC,M,M,2000.00,3000.00,M,M,M,M,M,M,M,M,M,26.40,KNFL 300456Z VRB05KT 10SM BKN020 OVC030 00/M01 A2982 RMK AO2 SLP074 T00001011,M
LOL,2021-12-30 04:56,-118.5701,40.0684,1192.43,28.90,28.00,96.38,0.00,0.00,0.00,29.82,M,1.00,M,FEW,SCT,OVC,M,400.00,3300.00,4600.00,M,BR,M,M,M,M,M,M,28.90,KLOL 300456Z AUTO 00000KT 1SM BR FEW004 SCT033 OVC046 M02/M02 A2982 RMK AO2 T10171022,M
TPH,2021-12-30 04:56,-117.0904,38.0505,1654.00,28.90,27.00,92.49,0.00,0.00,0.00,29.82,1011.50,10.00,M,SCT,OVC,M,M,900.00,1400.00,M,M,M,M,M,M,M,M,M,28.90,KTPH 300456Z AUTO 00000KT 10SM SCT009 OVC014 M02/M03 A2982 RMK AO2 SLP115 T10171028,M
LAS,2021-12-30 04:56,-115.1634,36.0719,663.00,48.00,28.90,47.32,190.00,5.00,0.00,29.90,1012.80,10.00,M,BKN,BKN,OVC,M,5500.00,7500.00,11000.00,M,M,M,M,M,M,M,M,45.40,KLAS 300456Z 19005KT 10SM BKN055 BKN075 OVC110 09/M02 A2990 RMK AO2 SLP128 T00891017,M
LSV,2021-12-30 04:58,-115.0343,36.2362,570.00,49.50,30.60,47.95,170.00,10.00,0.00,29.90,1012.60,10.00,M,BKN,OVC,M,M,7000.00,8000.00,M,M,M,M,M,M,M,M,M,44.91,KLSV 300458Z AUTO 17010KT 10SM BKN070 OVC080 10/M01 A2990 RMK AO2 SLP126 T00971008 $,M
INS,2021-12-30 04:58,-115.6733,36.5872,955.00,41.00,31.30,68.13,200.00,6.00,0.00,29.87,1011.40,10.00,M,SCT,M,M,M,5500.00,M,M,M,M,M,M,M,M,M,M,36.37,KINS 300458Z AUTO 20006KT 10SM SCT055 05/M00 A2987 RMK AO2 SLP114 T00501004 $,M
TPH,2021-12-30 05:03,-117.0904,38.0505,1654.00,28.90,27.00,92.49,30.00,3.00,0.00,29.83,M,10.00,M,BKN,OVC,M,M,800.00,1400.00,M,M,M,M,M,M,M,M,M,25.14,KTPH 300503Z AUTO 03003KT 10SM BKN008 OVC014 M02/M03 A2983 RMK AO2 T10171028,M
LOL,2021-12-30 05:04,-118.5701,40.0684,1192.43,28.90,28.00,96.38,0.00,0.00,0.00,29.82,M,1.00,M,SCT,BKN,OVC,M,400.00,1000.00,4600.00,M,BR,M,M,M,M,M,M,28.90,KLOL 300504Z AUTO 00000KT 1SM BR SCT004 BKN010 OVC046 M02/M02 A2982 RMK AO2 T10171022,M
05U,2021-12-30 05:05,-116.0051,39.6042,1811.23,24.80,23.00,92.74,0.00,0.00,0.00,29.79,M,5.00,M,FEW,BKN,OVC,M,300.00,1700.00,4200.00,M,BR,M,M,M,M,M,M,24.80,K05U 300505Z AUTO 00000KT 5SM BR FEW003 BKN017 OVC042 M04/M05 A2979 RMK A01,M
INS,2021-12-30 05:07,-115.6733,36.5872,955.00,41.00,32.00,70.08,230.00,6.00,0.00,29.87,1011.40,10.00,M,FEW,M,M,M,5000.00,M,M,M,-RA,M,M,M,M,M,M,36.37,KINS 300507Z AUTO 23006KT 10SM -RA FEW050 05/00 A2987 RMK AO2 RAB07 SLP114 $,M
CXP,2021-12-30 05:10,-119.7326,39.1923,1431.00,32.00,30.20,92.97,0.00,0.00,0.00,29.81,M,5.00,M,BKN,BKN,OVC,M,900.00,1300.00,4700.00,M,BR,M,M,M,M,M,M,32.00,KCXP 300510Z AUTO 00000KT 5SM BR BKN009 BKN013 OVC047 M00/M01 A2981 RMK AO2,M
LOL,2021-12-30 05:10,-118.5701,40.0684,1192.43,28.90,28.00,96.38,0.00,0.00,0.00,29.82,M,1.00,M,BKN,OVC,M,M,300.00,4600.00,M,M,BR,M,M,M,M,M,M,28.90,KLOL 300510Z AUTO 00000KT 1SM BR BKN003 OVC046 M02/M02 A2982 RMK AO2 T10171022,M
INS,2021-12-30 05:10,-115.6733,36.5872,955.00,41.00,32.00,70.08,240.00,6.00,0.00,29.87,1011.40,10.00,M,CLR,M,M,M,M,M,M,M,M,M,M,M,M,M,M,36.37,KINS 300510Z AUTO 24006KT 10SM CLR 05/00 A2987 RMK AO2 RAB07E10 SLP114 $,M
TMT,2021-12-30 05:15,-117.1971,39.4643,1749.34,25.90,22.60,87.12,230.00,5.00,0.00,29.80,M,10.00,M,OVC,M,M,M,3400.00,M,M,M,M,M,M,M,M,M,M,19.15,KTMT 300515Z AUTO 23005KT 10SM OVC034 M03/M05 A2980 RMK AO2 T10341052,M
BAM,2021-12-30 05:15,-116.8743,40.5990,1382.36,30.20,28.40,92.92,280.00,7.00,0.00,29.80,M,10.00,M,OVC,M,M,M,4800.00,M,M,M,M,M,M,M,M,M,M,22.59,KBAM 300515Z AUTO 28007KT 10SM OVC048 M01/M02 A2980 RMK AO1,M
RTS,2021-12-30 05:15,-119.8764,39.6682,1539.00,24.80,23.00,92.74,0.00,0.00,0.00,29.81,M,10.00,M,OVC,M,M,M,300.00,M,M,M,M,M,M,M,M,M,M,24.80,KRTS 300515Z AUTO 00000KT 10SM OVC003 M04/M05 A2981 RMK AO2,M
MEV,2021-12-30 05:15,-119.7500,38.9963,1441.42,28.40,26.60,92.86,0.00,0.00,0.00,29.80,M,9.00,M,FEW,OVC,M,M,600.00,7000.00,M,M,M,M,M,M,M,M,M,28.40,KMEV 300515Z AUTO 00000KT 9SM FEW006 OVC070 M02/M03 A2980 RMK AO2,M
LSV,2021-12-30 05:15,-115.0343,36.2362,570.00,50.00,32.00,49.81,160.00,11.00,0.00,29.91,1012.80,10.00,M,BKN,M,M,M,7000.00,M,M,M,-RA,M,M,M,M,M,M,50.00,KLSV 300515Z AUTO 16011KT 10SM -RA BKN070 10/00 A2991 RMK AO2 RAB15 SLP128 $,M
BVU,2021-12-30 05:15,-114.8611,35.9475,671.00,48.20,30.20,49.53,180.00,6.00,0.00,29.92,M,10.00,M,SCT,BKN,OVC,M,4900.00,6000.00,7500.00,M,M,M,M,M,M,M,M,45.04,KBVU 300515Z AUTO 18006KT 10SM SCT049 BKN060 OVC075 09/M01 A2992 RMK AO2,M
HTH,2021-12-30 05:15,-118.6315,38.5448,1282.89,30.20,23.00,74.26,120.00,9.00,0.00,29.83,M,10.00,M,CLR,M,M,M,M,M,M,M,M,M,M,M,M,M,M,21.28,KHTH 300515Z AUTO 12009KT 10SM CLR M01/M05 A2983 RMK A01,M
LOL,2021-12-30 05:22,-118.5701,40.0684,1192.43,30.00,28.00,92.15,0.00,0.00,0.00,29.83,M,3.00,M,OVC,M,M,M,300.00,M,M,M,BR,M,M,M,M,M,M,30.00,KLOL 300522Z AUTO 00000KT 3SM BR OVC003 M01/M02 A2983 RMK AO2 T10111022,M
LSV,2021-12-30 05:23,-115.0343,36.2362,570.00,50.00,33.80,53.54,150.00,9.00,0.00,29.90,1012.50,10.00,M,SCT,M,M,M,7000.00,M,M,M,M,M,M,M,M,M,M,50.00,KLSV 300523Z AUTO 15009KT 10SM SCT070 10/01 A2990 RMK AO2 RAB15E23 SLP125 $,M
INS,2021-12-30 05:30,-115.6733,36.5872,955.00,41.00,32.00,70.08,260.00,7.00,0.00,29.87,1011.40,10.00,M,BKN,M,M,M,6500.00,M,M,M,M,M,M,M,M,M,M,35.75,KINS 300530Z AUTO 26007KT 10SM BKN065 05/00 A2987 RMK AO2 RAB07E10 SLP114 $,M
05U,2021-12-30 05:30,-116.0051,39.6042,1811.23,24.80,23.00,92.74,0.00,0.00,0.00,29.80,M,2.50,M,BKN,BKN,OVC,M,300.00,1700.00,8000.00,M,BR,M,M,M,M,M,M,24.80,K05U 300530Z AUTO 00000KT 2 1/2SM BR BKN003 BKN017 OVC080 M04/M05 A2980 RMK A01,M
CXP,2021-12-30 05:30,-119.7326,39.1923,1431.00,30.20,28.40,92.92,0.00,0.00,0.00,29.81,M,10.00,M,SCT,SCT,OVC,M,800.00,1500.00,4900.00,M,M,M,M,M,M,M,M,30.20,KCXP 300530Z AUTO 00000KT 10SM SCT008 SCT015 OVC049 M01/M02 A2981 RMK AO2,M
BVU,2021-12-30 05:35,-114.8611,35.9475,671.00,48.20,32.00,53.27,160.00,6.00,0.00,29.92,M,10.00,M,SCT,BKN,OVC,M,3100.00,4000.00,6500.00,M,M,M,M,M,M,M,M,45.04,KBVU 300535Z AUTO 16006KT 10SM SCT031 BKN040 OVC065 09/00 A2992 RMK AO2,M
TMT,2021-12-30 05:35,-117.1971,39.4643,1749.34,25.90,22.10,85.30,180.00,4.00,0.00,29.80,M,10.00,M,BKN,OVC,M,M,3500.00,4800.00,M,M,M,M,M,M,M,M,M,20.30,KTMT 300535Z AUTO 18004KT 10SM BKN035 OVC048 M03/M05 A2980 RMK AO2 T10341055,M
HTH,2021-12-30 05:35,-118.6315,38.5448,1282.89,30.20,23.00,74.26,150.00,9.00,0.00,29.83,M,10.00,M,CLR,M,M,M,M,M,M,M,M,M,M,M,M,M,M,21.28,KHTH 300535Z AUTO 15009KT 10SM CLR M01/M05 A2983 RMK A01,M
BAM,2021-12-30 05:35,-116.8743,40.5990,1382.36,28.40,26.60,92.86,260.00,5.00,0.00,29.80,M,10.00,M,SCT,SCT,M,M,4800.00,10000.00,M,M,M,M,M,M,M,M,M,22.12,KBAM 300535Z AUTO 26005KT 10SM SCT048 SCT100 M02/M03 A2980 RMK AO1,M
MEV,2021-12-30 05:35,-119.7500,38.9963,1441.42,26.60,24.80,92.80,0.00,0.00,0.00,29.80,M,10.00,M,FEW,SCT,BKN,M,4600.00,5500.00,6500.00,M,M,M,M,M,M,M,M,26.60,KMEV 300535Z AUTO 00000KT 10SM FEW046 SCT055 BKN065 M03/M04 A2980 RMK AO2,M
RTS,2021-12-30 05:35,-119.8764,39.6682,1539.00,24.80,23.00,92.74,0.00,0.00,0.00,29.82,M,1.00,M,OVC,M,M,M,600.00,M,M,M,BR,M,M,M,M,M,M,24.80,KRTS 300535Z AUTO 00000KT 1SM BR OVC006 M04/M05 A2982 RMK AO2,M
LOL,2021-12-30 05:35,-118.5701,40.0684,1192.43,28.90,28.90,100.00,0.00,0.00,0.00,29.83,M,2.00,M,OVC,M,M,M,300.00,M,M,M,BR,M,M,M,M,M,M,28.90,KLOL 300535Z AUTO 00000KT 2SM BR OVC003 M02/M02 A2983 RMK AO2 T10171017,M
LSV,2021-12-30 05:45,-115.0343,36.2362,570.00,50.00,33.80,53.54,180.00,10.00,0.00,29.91,1012.80,10.00,M,CLR,M,M,M,M,M,M,M,-RA,M,M,M,M,M,M,50.00,KLSV 300545Z AUTO 18010KT 10SM -RA CLR 10/01 A2991 RMK AO2 RAB15E23RAB45 SLP128 $,M
RNO,2021-12-30 05:47,-119.7711,39.4839,1341.00,30.00,27.00,88.44,0.00,0.00,0.00,29.83,M,5.00,M,SCT,BKN,M,M,600.00,1400.00,M,M,BR,M,M,M,M,M,M,30.00,KRNO 300547Z 00000KT 5SM BR SCT006 BKN014 M01/M03 A2983 RMK AO2 T10111028,M
CXP,2021-12-30 05:50,-119.7326,39.1923,1431.00,30.20,28.40,92.92,0.00,0.00,0.00,29.83,M,10.00,M,FEW,FEW,OVC,M,700.00,1000.00,4800.00,M,M,M,M,M,M,M,M,30.20,KCXP 300550Z AUTO 00000KT 10SM FEW007 FEW010 OVC048 M01/M02 A2983 RMK AO2,M
INS,2021-12-30 05:50,-115.6733,36.5872,955.00,39.20,32.00,75.16,260.00,6.00,0.00,29.88,1011.70,10.00,M,FEW,BKN,OVC,M,2900.00,3800.00,6000.00,M,M,M,M,M,M,M,M,34.20,KINS 300550Z AUTO 26006KT 10SM FEW029 BKN038 OVC060 04/00 A2988 RMK AO2 RAB07E10 SLP117 $,M
05U,2021-12-30 05:50,-116.0051,39.6042,1811.23,24.80,23.00,92.74,0.00,0.00,0.00,29.80,M,3.00,M,SCT,SCT,OVC,M,300.00,2200.00,5000.00,M,BR,M,M,M,M,M,M,24.80,K05U 300550Z AUTO 00000KT 3SM BR SCT003 SCT022 OVC050 M04/M05 A2980 RMK A01,M
LOL,2021-12-30 05:51,-118.5701,40.0684,1192.43,30.20,28.40,92.92,0.00,0.00,0.00,29.84,M,1.75,M,OVC,M,M,M,300.00,M,M,M,BR,M,M,M,M,M,M,30.20,KLOL 300551Z AUTO 00000KT 1 3/4SM BR OVC003 M01/M02 A2984 RMK AO2,M
ELY,2021-12-30 05:53,-114.8453,39.2950,1909.00,27.00,19.90,74.25,190.00,14.00,0.00,29.77,1010.00,10.00,23.00,FEW,BKN,M,M,2300.00,9000.00,M,M,M,M,M,M,M,M,M,14.72,KELY 300553Z AUTO 19014G23KT 10SM FEW023 BKN090 M03/M07 A2977 RMK AO2 SLP100 60000 T10281067 11028 21039 53010,M
P68,2021-12-30 05:53,-116.0056,39.6014,1993.00,24.10,21.90,91.17,210.00,4.00,0.01,29.77,1010.30,M,M,M,M,M,M,M,M,M,M,M,M,M,M,M,M,M,18.19,KP68 300553Z AUTO 21004KT M04/M06 A2977 RMK AO1 SLP103 P0001 60001 T10441056 11028 21050 51014,M
LOL,2021-12-30 05:53,-118.5701,40.0684,1192.43,30.00,28.90,95.61,0.00,0.00,0.00,29.84,1012.50,1.50,M,OVC,M,M,M,300.00,M,M,M,BR,M,M,M,M,M,M,30.00,KLOL 300553Z AUTO 00000KT 1 1/2SM BR OVC003 M01/M02 A2984 RMK AO2 SLP125 60001 T10111017 10000 21017 51012,M
DRA,2021-12-30 05:53,-116.0278,36.6206,1009.00,40.00,32.00,73.14,20.00,3.00,0.00,29.87,1010.90,10.00,M,FEW,OVC,M,M,2600.00,4100.00,M,M,M,M,M,M,M,M,M,37.72,KDRA 300553Z AUTO 02003KT 10SM FEW026 OVC041 04/00 A2987 RMK AO2 SLP109 60000 T00440000 10056 20039 51013,M
VGT,2021-12-30 05:53,-115.1933,36.2111,667.00,48.00,33.00,56.10,150.00,3.00,T,29.90,1014.80,10.00,M,BKN,OVC,M,M,7000.00,10000.00,M,M,M,M,M,M,M,M,M,46.98,KVGT 300553Z AUTO 15003KT 10SM BKN070 OVC100 09/01 A2990 RMK AO2 RAB14E37 SLP148 P0000 60000 T00890006 10100 20089 51013,M
LSV,2021-12-30 05:53,-115.0343,36.2362,570.00,48.20,35.60,61.52,160.00,6.00,0.00,29.91,1012.80,10.00,M,FEW,SCT,M,M,4300.00,7500.00,M,M,M,M,M,M,M,M,M,45.04,KLSV 300553Z AUTO 16006KT 10SM FEW043 SCT075 09/02 A2991 RMK AO2 RAB15E23RAB45E53 SLP128 $,M
BVU,2021-12-30 05:55,-114.8611,35.9475,671.00,46.40,33.80,61.28,160.00,6.00,0.00,29.91,M,10.00,M,SCT,BKN,OVC,M,3100.00,4400.00,5000.00,M,M,M,M,M,M,M,M,42.87,KBVU 300555Z AUTO 16006KT 10SM SCT031 BKN044 OVC050 08/01 A2991 RMK AO2,M
RNO,2021-12-30 05:55,-119.7711,39.4839,1341.00,30.90,27.00,85.26,0.00,0.00,0.00,29.83,1011.20,5.00,M,SCT,BKN,M,M,600.00,1400.00,M,M,BR,M,M,M,M,M,M,30.90,KRNO 300555Z 00000KT 5SM BR SCT006 BKN014 M01/M03 A2983 RMK AO2 SLP112 4/001 60000 T10061028 10006 21017 53014,1
TMT,2021-12-30 05:55,-117.1971,39.4643,1749.34,25.20,22.10,87.82,160.00,4.00,0.00,29.81,M,10.00,M,BKN,BKN,OVC,M,3500.00,4200.00,4800.00,M,M,M,M,M,M,M,M,19.48,KTMT 300555Z AUTO 16004KT 10SM BKN035 BKN042 OVC048 M04/M05 A2981 RMK AO2 T10381055 11023 21039,M
HTH,2021-12-30 05:55,-118.6315,38.5448,1282.89,30.20,23.00,74.26,150.00,6.00,0.00,29.84,M,10.00,M,CLR,M,M,M,M,M,M,M,M,M,M,M,M,M,M,23.36,KHTH 300555Z AUTO 15006KT 10SM CLR M01/M05 A2984 RMK A01,M
BAM,2021-12-30 05:55,-116.8743,40.5990,1382.36,30.20,30.20,100.00,250.00,8.00,0.00,29.81,M,10.00,M,BKN,BKN,BKN,M,6000.00,7000.00,10000.00,M,M,M,M,M,M,M,M,21.90,KBAM 300555Z AUTO 25008KT 10SM BKN060 BKN070 BKN100 M01/M01 A2981 RMK AO1,M
MEV,2021-12-30 05:55,-119.7500,38.9963,1441.42,24.80,24.80,100.00,80.00,5.00,0.00,29.81,M,10.00,M,BKN,BKN,OVC,M,1000.00,4000.00,6000.00,M,M,M,M,M,M,M,M,17.84,KMEV 300555Z AUTO 08005KT 10SM BKN010 BKN040 OVC060 M04/M04 A2981 RMK AO2,M
RTS,2021-12-30 05:55,-119.8764,39.6682,1539.00,26.60,24.80,92.80,0.00,0.00,0.00,29.83,M,10.00,M,OVC,M,M,M,400.00,M,M,M,M,M,M,M,M,M,M,26.60,KRTS 300555Z AUTO 00000KT 10SM OVC004 M03/M04 A2983 RMK AO2,M
INS,2021-12-30 05:55,-115.6733,36.5872,955.00,39.20,32.00,75.16,260.00,6.00,0.00,29.88,1011.70,10.00,M,FEW,SCT,BKN,BKN,2400.00,3200.00,4000.00,6000.00,M,M,M,M,M,M,M,34.20,KINS 300555Z AUTO 26006KT 10SM FEW024 SCT032 BKN040 BKN060 04/00 A2988 RMK AO2 RAB07E10 SLP117 $,M
LAS,2021-12-30 05:56,-115.1634,36.0719,663.00,47.00,35.00,63.33,0.00,0.00,T,29.91,1012.80,10.00,M,FEW,FEW,BKN,M,4300.00,5500.00,8500.00,M,M,M,M,M,M,M,M,46.90,KLAS 300556Z 00000KT 10SM FEW043 FEW055 BKN085 08/02 A2991 RMK AO2 RAB0459E23 SLP128 MTNS OBSCURED DSNT W-N P0000 60000 T00830017 10100 20083 51010,M
EKO,2021-12-30 05:56,-115.7860,40.8242,1367.00,27.00,23.00,84.66,210.00,7.00,T,29.77,1010.70,10.00,M,BKN,BKN,OVC,M,2000.00,2700.00,3400.00,M,M,M,M,M,M,M,M,18.68,KEKO 300556Z AUTO 21007KT 10SM BKN020 BKN027 OVC034 M03/M05 A2977 RMK AO2 SNB10E19 SLP107 P0000 60005 T10281050 11017 21033 53019,M
WMC,2021-12-30 05:56,-117.8072,40.9019,1315.00,25.00,23.00,91.97,210.00,3.00,0.00,29.82,1011.70,10.00,M,OVC,M,M,M,5500.00,M,M,M,M,M,M,M,M,M,M,20.69,KWMC 300556Z AUTO 21003KT 10SM OVC055 M04/M05 A2982 RMK AO2 SLP117 60001 T10391050 11006 21061 53018,M
NFL,2021-12-30 05:56,-118.7010,39.4166,1199.00,30.90,28.90,92.18,M,5.00,0.00,29.83,1007.90,10.00,M,BKN,OVC,M,M,2000.00,3000.00,M,M,M,M,M,M,M,M,M,25.09,KNFL 300556Z VRB05KT 10SM BKN020 OVC030 M01/M02 A2983 RMK AO2 SLP079 60000 T10061017 10011 21006 51015,M
HND,2021-12-30 05:56,-115.1344,35.9729,742.79,46.00,30.90,55.36,150.00,4.00,T,29.91,1015.10,10.00,M,SCT,OVC,M,M,8000.00,9500.00,M,M,M,M,M,M,M,M,M,43.77,KHND 300556Z AUTO 15004KT 10SM SCT080 OVC095 08/M01 A2991 RMK AO2 RAB01E21 SLP151 P0000 60000 T00781006 10094 20078 51010,M
TPH,2021-12-30 05:56,-117.0904,38.0505,1654.00,28.90,28.00,96.38,0.00,0.00,0.00,29.83,1011.70,10.00,M,OVC,M,M,M,800.00,M,M,M,M,M,M,M,M,M,M,28.90,KTPH 300556Z AUTO 00000KT 10SM OVC008 M02/M02 A2983 RMK AO2 SLP117 T10171022 11017 21022 51009,M
INS,2021-12-30 05:56,-115.6733,36.5872,955.00,39.20,32.00,75.16,260.00,6.00,0.00,29.88,1011.70,10.00,M,FEW,SCT,BKN,BKN,2400.00,3200.00,4000.00,6000.00,-RA,M,M,M,M,M,M,34.20,KINS 300556Z AUTO 26006KT 10SM -RA FEW024 SCT032 BKN040 BKN060 04/00 A2988 RMK AO2 RAB07E10RAB56 SLP117 $,M
INS,2021-12-30 05:58,-115.6733,36.5872,955.00,39.70,32.70,75.81,260.00,6.00,T,29.88,1011.70,10.00,M,FEW,SCT,SCT,BKN,2400.00,3200.00,4000.00,6000.00,-RA,M,M,M,M,M,M,34.80,KINS 300558Z AUTO 26006KT 10SM -RA FEW024 SCT032 SCT040 BKN060 04/00 A2988 RMK AO2 RAB07E10RAB56 SLP117 P0000 60000 T00430004 10061 20043 52013 $,M
LSV,2021-12-30 05:58,-115.0343,36.2362,570.00,48.00,36.00,62.97,170.00,5.00,T,29.91,1012.80,10.00,M,FEW,BKN,M,M,4700.00,7500.00,M,M,M,M,M,M,M,M,M,45.40,KLSV 300558Z AUTO 17005KT 10SM FEW047 BKN075 09/02 A2991 RMK AO2 RAB15E23RAB45E53 SLP128 P0000 60000 T00890022 10102 20089 52013 $,M
NFL,2021-12-30 06:03,-118.7010,39.4166,1199.00,32.00,30.00,92.22,0.00,0.00,0.00,29.83,M,10.00,M,FEW,BKN,OVC,M,200.00,4100.00,6500.00,M,M,M,M,M,M,M,M,32.00,KNFL 300603Z 00000KT 10SM FEW002 BKN041 OVC065 00/M01 A2983 RMK AO2 T00001011,M
INS,2021-12-30 06:08,-115.6733,36.5872,955.00,39.20,33.80,80.79,260.00,4.00,0.00,29.88,1011.50,10.00,M,FEW,FEW,M,M,3200.00,4000.00,M,M,-RA,M,M,M,M,M,M,35.83,KINS 300608Z AUTO 26004KT 10SM -RA FEW032 FEW040 04/01 A2988 RMK AO2 SLP115 $,M
LSV,2021-12-30 06:08,-115.0343,36.2362,570.00,48.20,35.60,61.52,170.00,3.00,0.00,29.91,1012.80,10.00,M,BKN,BKN,M,M,4400.00,7500.00,M,M,M,M,M,M,M,M,M,47.21,KLSV 300608Z AUTO 17003KT 10SM BKN044 BKN075 09/02 A2991 RMK AO2 SLP128 $,M
05U,2021-12-30 06:10,-116.0051,39.6042,1811.23,23.00,21.20,92.69,0.00,0.00,0.00,29.80,M,6.00,M,FEW,BKN,OVC,M,300.00,4900.00,7500.00,M,BR,M,M,M,M,M,M,23.00,K05U 300610Z AUTO 00000KT 6SM BR FEW003 BKN049 OVC075 M05/M06 A2980 RMK A01,M
CXP,2021-12-30 06:10,-119.7326,39.1923,1431.00,30.20,28.40,92.92,0.00,0.00,0.00,29.83,M,9.00,M,BKN,OVC,M,M,1400.00,4900.00,M,M,M,M,M,M,M,M,M,30.20,KCXP 300610Z AUTO 00000KT 9SM BKN014 OVC049 M01/M02 A2983 RMK AO2,M
TMT,2021-12-30 06:15,-117.1971,39.4643,1749.34,25.70,22.10,86.01,230.00,5.00,0.00,29.81,M,10.00,M,BKN,BKN,OVC,M,3700.00,4400.00,5000.00,M,M,M,M,M,M,M,M,18.91,KTMT 300615Z AUTO 23005KT 10SM BKN037 BKN044 OVC050 M03/M05 A2981 RMK AO2 T10351055,M
RTS,2021-12-30 06:15,-119.8764,39.6682,1539.00,26.60,26.60,100.00,0.00,0.00,0.00,29.83,M,7.00,M,OVC,M,M,M,400.00,M,M,M,M,M,M,M,M,M,M,26.60,KRTS 300615Z AUTO 00000KT 7SM OVC004 M03/M03 A2983 RMK AO2,M
MEV,2021-12-30 06:15,-119.7500,38.9963,1441.42,24.80,24.80,100.00,80.00,4.00,0.00,29.82,M,9.00,M,BKN,BKN,BKN,M,1000.00,3800.00,6000.00,M,M,M,M,M,M,M,M,19.01,KMEV 300615Z AUTO 08004KT 9SM BKN010 BKN038 BKN060 M04/M04 A2982 RMK AO2,M
BAM,2021-12-30 06:15,-116.8743,40.5990,1382.36,32.00,30.20,92.97,250.00,9.00,0.00,29.82,M,10.00,M,OVC,M,M,M,6000.00,M,M,M,M,M,M,M,M,M,M,23.51,KBAM 300615Z AUTO 25009KT 10SM OVC060 00/M01 A2982 RMK AO1,M
BVU,2021-12-30 06:15,-114.8611,35.9475,671.00,46.40,33.80,61.28,170.00,7.00,0.00,29.92,M,10.00,M,OVC,M,M,M,5000.00,M,M,M,M,M,M,M,M,M,M,42.33,KBVU 300615Z AUTO 17007KT 10SM OVC050 08/01 A2992 RMK AO2,M
HTH,2021-12-30 06:15,-118.6315,38.5448,1282.89,30.20,23.00,74.26,150.00,8.00,0.00,29.84,M,10.00,M,CLR,M,M,M,M,M,M,M,M,M,M,M,M,M,M,21.90,KHTH 300615Z AUTO 15008KT 10SM CLR M01/M05 A2984 RMK A01,M
LSV,2021-12-30 06:17,-115.0343,36.2362,570.00,48.20,35.60,61.52,0.00,0.00,0.00,29.92,1013.20,10.00,M,SCT,BKN,M,M,4400.00,7500.00,M,M,M,M,M,M,M,M,M,48.20,KLSV 300617Z AUTO 00000KT 10SM SCT044 BKN075 09/02 A2992 RMK AO2 SLP132 $,M
NFL,2021-12-30 06:17,-118.7010,39.4166,1199.00,30.90,30.00,96.41,330.00,4.00,0.00,29.84,M,10.00,M,BKN,OVC,M,M,300.00,4100.00,M,M,M,M,M,M,M,M,M,26.14,KNFL 300617Z 33004KT 10SM BKN003 OVC041 M01/M01 A2984 RMK AO2 T10061011,M
DRA,2021-12-30 06:17,-116.0278,36.6206,1009.00,40.00,34.00,79.25,100.00,4.00,T,29.88,M,10.00,M,BKN,BKN,OVC,M,2800.00,3600.00,4300.00,M,-RA,M,M,M,M,M,M,36.65,KDRA 300617Z AUTO 10004KT 10SM -RA BKN028 BKN036 OVC043 04/01 A2988 RMK AO2 RAB08 P0000 T00440011,M
INS,2021-12-30 06:18,-115.6733,36.5872,955.00,39.20,33.80,80.79,260.00,4.00,0.00,29.89,1011.90,10.00,M,BKN,M,M,M,2500.00,M,M,M,-RA,M,M,M,M,M,M,35.83,KINS 300618Z AUTO 26004KT 10SM -RA BKN025 04/01 A2989 RMK AO2 CIG 025V032 SLP119 $,M
INS,2021-12-30 06:19,-115.6733,36.5872,955.00,39.20,33.80,80.79,270.00,5.00,0.00,29.89,1011.90,10.00,M,FEW,BKN,M,M,1400.00,2500.00,M,M,-RA,M,M,M,M,M,M,34.95,KINS 300619Z AUTO 27005KT 10SM -RA FEW014 BKN025 04/01 A2989 RMK AO2 CIG 025V032 SLP119 $,M
LOL,2021-12-30 06:26,-118.5701,40.0684,1192.43,30.00,28.90,95.61,130.00,3.00,0.00,29.85,M,0.50,M,OVC,M,M,M,300.00,M,M,M,FZFG,T,M,M,M,M,M,26.40,KLOL 300626Z AUTO 13003KT 1/2SM FZFG OVC003 M01/M02 A2985 RMK AO2 I1000 T10111017,M
INS,2021-12-30 06:29,-115.6733,36.5872,955.00,41.00,32.00,70.08,230.00,3.00,0.00,29.89,1011.90,10.00,M,BKN,BKN,M,M,1300.00,2500.00,M,M,-RA,M,M,M,M,M,M,38.98,KINS 300629Z AUTO 23003KT 10SM -RA BKN013 BKN025 05/00 A2989 RMK AO2 CIG 013V025 BKN013 V SCT SLP119 $,M
05U,2021-12-30 06:30,-116.0051,39.6042,1811.23,23.00,19.40,85.85,140.00,4.00,0.00,29.81,M,8.00,M,FEW,SCT,BKN,M,3300.00,4100.00,5000.00,M,M,M,M,M,M,M,M,16.91,K05U 300630Z AUTO 14004KT 8SM FEW033 SCT041 BKN050 M05/M07 A2981 RMK A01,M
CXP,2021-12-30 06:30,-119.7326,39.1923,1431.00,32.00,30.20,92.97,0.00,0.00,0.00,29.84,M,6.00,M,OVC,M,M,M,1100.00,M,M,M,BR,M,M,M,M,M,M,32.00,KCXP 300630Z AUTO 00000KT 6SM BR OVC011 M00/M01 A2984 RMK AO2,M
INS,2021-12-30 06:34,-115.6733,36.5872,955.00,41.00,32.00,70.08,270.00,4.00,0.00,29.89,1011.60,10.00,M,BKN,OVC,M,M,1700.00,2500.00,M,M,-RA,M,M,M,M,M,M,37.93,KINS 300634Z AUTO 27004KT 10SM -RA BKN017 OVC025 05/00 A2989 RMK AO2 CIG 013V025 SLP116 $,M
BAM,2021-12-30 06:35,-116.8743,40.5990,1382.36,32.00,28.40,86.39,250.00,7.00,0.00,29.82,M,10.00,M,OVC,M,M,M,5000.00,M,M,M,M,M,M,M,M,M,M,24.78,KBAM 300635Z AUTO 25007KT 10SM OVC050 00/M02 A2982 RMK AO1,M
BVU,2021-12-30 06:35,-114.8611,35.9475,671.00,48.20,33.80,57.26,180.00,6.00,0.00,29.92,M,10.00,M,OVC,M,M,M,5500.00,M,M,M,M,M,M,M,M,M,M,45.04,KBVU 300635Z AUTO 18006KT 10SM OVC055 09/01 A2992 RMK AO2,M
TMT,2021-12-30 06:35,-117.1971,39.4643,1749.34,25.00,21.90,87.81,120.00,6.00,0.00,29.82,M,10.00,M,SCT,SCT,OVC,M,3200.00,3700.00,4700.00,M,M,M,M,M,M,M,M,17.10,KTMT 300635Z AUTO 12006KT 10SM SCT032 SCT037 OVC047 M04/M06 A2982 RMK AO2 T10391056,M
HTH,2021-12-30 06:35,-118.6315,38.5448,1282.89,28.40,23.00,79.92,150.00,9.00,0.00,29.84,M,10.00,M,CLR,M,M,M,M,M,M,M,M,M,M,M,M,M,M,19.04,KHTH 300635Z AUTO 15009KT 10SM CLR M02/M05 A2984 RMK A01,M
MEV,2021-12-30 06:35,-119.7500,38.9963,1441.42,24.80,23.00,92.74,40.00,4.00,0.00,29.82,M,10.00,M,SCT,SCT,BKN,M,500.00,800.00,6000.00,M,M,M,M,M,M,M,M,19.01,KMEV 300635Z AUTO 04004KT 10SM SCT005 SCT008 BKN060 M04/M05 A2982 RMK AO2,M
RTS,2021-12-30 06:35,-119.8764,39.6682,1539.00,26.60,26.60,100.00,0.00,0.00,0.00,29.84,M,0.50,M,OVC,M,M,M,200.00,M,M,M,BR,M,M,M,M,M,M,26.60,KRTS 300635Z AUTO 00000KT 1/2SM BR OVC002 M03/M03 A2984 RMK AO2,M
LOL,2021-12-30 06:37,-118.5701,40.0684,1192.43,30.00,28.90,95.61,120.00,4.00,0.00,29.86,M,2.00,M,OVC,M,M,M,300.00,M,M,M,BR,T,M,M,M,M,M,25.08,KLOL 300637Z AUTO 12004KT 2SM BR OVC003 M01/M02 A2986 RMK AO2 I1000 T10111017,M
LOL,2021-12-30 06:43,-118.5701,40.0684,1192.43,30.00,28.90,95.61,110.00,3.00,0.00,29.86,M,5.00,M,OVC,M,M,M,400.00,M,M,M,BR,T,M,M,M,M,M,26.40,KLOL 300643Z AUTO 11003KT 5SM BR OVC004 M01/M02 A2986 RMK AO2 I1000 T10111017,M
CXP,2021-12-30 06:50,-119.7326,39.1923,1431.00,32.00,30.20,92.97,0.00,0.00,0.00,29.84,M,10.00,M,OVC,M,M,M,1200.00,M,M,M,M,M,M,M,M,M,M,32.00,KCXP 300650Z AUTO 00000KT 10SM OVC012 M00/M01 A2984 RMK AO2,M
05U,2021-12-30 06:50,-116.0051,39.6042,1811.23,23.00,21.20,92.69,150.00,3.00,0.00,29.81,M,10.00,M,BKN,BKN,OVC,M,3900.00,4500.00,5000.00,M,M,M,M,M,M,M,M,18.40,K05U 300650Z AUTO 15003KT 10SM BKN039 BKN045 OVC050 M05/M06 A2981 RMK A01,M
DRA,2021-12-30 06:53,-116.0278,36.6206,1009.00,38.00,35.00,89.53,80.00,7.00,0.02,29.88,1011.30,8.00,M,FEW,OVC,M,M,1700.00,2600.00,M,M,-RA,M,M,M,M,M,M,31.97,KDRA 300653Z AUTO 08007KT 8SM -RA FEW017 OVC026 03/02 A2988 RMK AO2 RAB08 SLP113 P0002 T00330017,M
LOL,2021-12-30 06:53,-118.5701,40.0684,1192.43,30.00,28.90,95.61,90.00,4.00,0.00,29.86,1013.00,10.00,M,OVC,M,M,M,400.00,M,M,M,M,T,M,M,M,M,M,25.08,KLOL 300653Z AUTO 09004KT 10SM OVC004 M01/M02 A2986 RMK AO2 SLP130 I1000 T10111017,M
VGT,2021-12-30 06:53,-115.1933,36.2111,667.00,48.00,32.00,53.67,50.00,3.00,0.00,29.91,1014.70,10.00,M,SCT,BKN,OVC,M,5000.00,7500.00,9000.00,M,M,M,M,M,M,M,M,46.98,KVGT 300653Z AUTO 05003KT 10SM SCT050 BKN075 OVC090 09/00 A2991 RMK AO2 SLP147 T00890000,M
ELY,2021-12-30 06:53,-114.8453,39.2950,1909.00,27.00,19.90,74.25,200.00,10.00,0.00,29.79,1010.30,10.00,M,BKN,OVC,M,M,4800.00,9000.00,M,M,M,M,M,M,M,M,M,16.70,KELY 300653Z AUTO 20010KT 10SM BKN048 OVC090 M03/M07 A2979 RMK AO2 SLP103 T10281067,M
HTH,2021-12-30 06:55,-118.6315,38.5448,1282.89,28.40,21.20,74.08,130.00,9.00,0.00,29.85,M,10.00,M,CLR,M,M,M,M,M,M,M,M,M,M,M,M,M,M,19.04,KHTH 300655Z AUTO 13009KT 10SM CLR M02/M06 A2985 RMK A01,M
TMT,2021-12-30 06:55,-117.1971,39.4643,1749.34,25.90,21.90,84.59,0.00,0.00,0.00,29.82,M,10.00,M,SCT,SCT,OVC,M,3200.00,3900.00,4500.00,M,M,M,M,M,M,M,M,25.90,KTMT 300655Z AUTO 00000KT 10SM SCT032 SCT039 OVC045 M03/M06 A2982 RMK AO2 T10341056,M
BVU,2021-12-30 06:55,-114.8611,35.9475,671.00,46.40,33.80,61.28,160.00,6.00,0.00,29.92,M,10.00,M,OVC,M,M,M,6000.00,M,M,M,M,M,M,M,M,M,M,42.87,KBVU 300655Z AUTO 16006KT 10SM OVC060 08/01 A2992 RMK AO2,M
MEV,2021-12-30 06:55,-119.7500,38.9963,1441.42,24.80,24.80,100.00,0.00,0.00,0.00,29.83,M,9.00,M,OVC,M,M,M,600.00,M,M,M,M,M,M,M,M,M,M,24.80,KMEV 300655Z AUTO 00000KT 9SM OVC006 M04/M04 A2983 RMK AO2,M
RTS,2021-12-30 06:55,-119.8764,39.6682,1539.00,26.60,26.60,100.00,0.00,0.00,0.00,29.84,M,1.50,M,OVC,M,M,M,300.00,M,M,M,BR,M,M,M,M,M,M,26.60,KRTS 300655Z AUTO 00000KT 1 1/2SM BR OVC003 M03/M03 A2984 RMK AO2,M
BAM,2021-12-30 06:55,-116.8743,40.5990,1382.36,30.20,28.40,92.92,0.00,0.00,0.00,29.83,M,10.00,M,OVC,M,M,M,5000.00,M,M,M,M,M,M,M,M,M,M,30.20,KBAM 300655Z AUTO 00000KT 10SM OVC050 M01/M02 A2983 RMK AO1,M
RNO,2021-12-30 06:55,-119.7711,39.4839,1341.00,30.00,28.00,92.15,0.00,0.00,0.00,29.85,1011.90,7.00,M,BKN,OVC,M,M,1100.00,3000.00,M,M,M,M,M,M,M,M,M,30.00,KRNO 300655Z 00000KT 7SM BKN011 OVC030 M01/M02 A2985 RMK AO2 SLP119 T10111022,M
WMC,2021-12-30 06:56,-117.8072,40.9019,1315.00,24.10,21.90,91.17,0.00,0.00,0.00,29.83,1012.10,10.00,M,OVC,M,M,M,5500.00,M,M,M,M,M,M,M,M,M,M,24.10,KWMC 300656Z AUTO 00000KT 10SM OVC055 M04/M06 A2983 RMK AO2 SLP121 T10441056,M
NFL,2021-12-30 06:56,-118.7010,39.4166,1199.00,30.90,30.00,96.41,350.00,3.00,T,29.85,1008.40,5.00,M,SCT,OVC,M,M,400.00,4100.00,M,M,-SN BR,M,M,M,M,M,M,27.43,KNFL 300656Z AUTO 35003KT 5SM -SN BR SCT004 OVC041 M01/M01 A2985 RMK AO2 SNB45 SLP084 P0000 T10061011,M
LAS,2021-12-30 06:56,-115.1634,36.0719,663.00,46.00,37.00,70.64,360.00,4.00,0.00,29.91,1012.80,10.00,M,FEW,FEW,BKN,M,5500.00,8500.00,10000.00,M,M,M,M,M,M,M,M,43.77,KLAS 300656Z 36004KT 10SM FEW055 FEW085 BKN100 08/03 A2991 RMK AO2 SLP128 TOPS OF MTNS OBSCURED DSNT NW T00780028,M
TPH,2021-12-30 06:56,-117.0904,38.0505,1654.00,28.90,28.00,96.38,340.00,4.00,0.00,29.85,1012.30,7.00,M,OVC,M,M,M,800.00,M,M,M,M,M,M,M,M,M,M,23.80,KTPH 300656Z AUTO 34004KT 7SM OVC008 M02/M02 A2985 RMK AO2 SLP123 T10171022,M
HND,2021-12-30 06:56,-115.1344,35.9729,742.79,45.00,32.00,60.11,170.00,7.00,0.00,29.91,1015.10,10.00,M,FEW,M,M,M,10000.00,M,M,M,M,M,M,M,M,M,M,40.63,KHND 300656Z AUTO 17007KT 10SM FEW100 07/00 A2991 RMK AO2 SLP151 T00720000 401061006,M
EKO,2021-12-30 06:56,-115.7860,40.8242,1367.00,28.00,23.00,81.25,220.00,8.00,0.00,29.78,1011.00,10.00,M,BKN,OVC,M,M,2600.00,3200.00,M,M,M,M,M,M,M,M,M,19.19,KEKO 300656Z AUTO 22008KT 10SM BKN026 OVC032 M02/M05 A2978 RMK AO2 SLP110 T10221050,M
LSV,2021-12-30 06:58,-115.0343,36.2362,570.00,47.00,38.30,71.85,20.00,4.00,0.00,29.91,1012.80,10.00,M,FEW,M,M,M,4700.00,M,M,M,M,M,M,M,M,M,M,44.82,KLSV 300658Z AUTO 02004KT 10SM FEW047 08/04 A2991 RMK AO2 SLP128 T00830035 $,M
INS,2021-12-30 06:58,-115.6733,36.5872,955.00,39.60,34.50,81.79,280.00,6.00,0.01,29.89,1011.90,10.00,M,BKN,OVC,M,M,1700.00,2700.00,M,M,-RA,M,M,M,M,M,M,34.68,KINS 300658Z AUTO 28006KT 10SM -RA BKN017 OVC027 04/01 A2989 RMK AO2 SLP119 P0001 T00420014 $,M
INS,2021-12-30 07:02,-115.6733,36.5872,955.00,39.20,33.80,80.79,270.00,6.00,0.00,29.90,1012.00,10.00,M,BKN,OVC,M,M,1400.00,2500.00,M,M,-RA,M,M,M,M,M,M,34.20,KINS 300702Z AUTO 27006KT 10SM -RA BKN014 OVC025 04/01 A2990 RMK AO2 SLP120 $,M
INS,2021-12-30 07:07,-115.6733,36.5872,955.00,39.20,33.80,80.79,270.00,7.00,0.00,29.90,1012.00,10.00,M,BKN,OVC,M,M,1600.00,2500.00,M,M,-RA,M,M,M,M,M,M,33.56,KINS 300707Z AUTO 27007KT 10SM -RA BKN016 OVC025 04/01 A2990 RMK AO2 SLP120 $,M
INS,2021-12-30 07:08,-115.6733,36.5872,955.00,39.20,35.60,86.79,270.00,7.00,0.00,29.90,1012.00,10.00,M,FEW,BKN,OVC,M,1300.00,1800.00,2800.00,M,-RA,M,M,M,M,M,M,33.56,KINS 300708Z AUTO 27007KT 10SM -RA FEW013 BKN018 OVC028 04/02 A2990 RMK AO2 CIG 014V018 SLP120 $,M
LOL,2021-12-30 07:09,-118.5701,40.0684,1192.43,30.00,28.90,95.61,0.00,0.00,0.00,29.86,M,10.00,M,OVC,M,M,M,500.00,M,M,M,M,M,M,M,M,M,M,30.00,KLOL 300709Z AUTO 00000KT 10SM OVC005 M01/M02 A2986 RMK AO2 T10111017,M
CXP,2021-12-30 07:10,-119.7326,39.1923,1431.00,32.00,30.20,92.97,0.00,0.00,0.00,29.85,M,10.00,M,FEW,OVC,M,M,600.00,1400.00,M,M,M,M,M,M,M,M,M,32.00,KCXP 300710Z AUTO 00000KT 10SM FEW006 OVC014 M00/M01 A2985 RMK AO2,M
05U,2021-12-30 07:10,-116.0051,39.6042,1811.23,23.00,19.40,85.85,150.00,4.00,0.00,29.81,M,10.00,M,BKN,OVC,M,M,3300.00,4100.00,M,M,M,M,M,M,M,M,M,16.91,K05U 300710Z AUTO 15004KT 10SM BKN033 OVC041 M05/M07 A2981 RMK A01,M
TMT,2021-12-30 07:15,-117.1971,39.4643,1749.34,25.20,21.60,85.98,0.00,0.00,0.00,29.82,M,10.00,M,OVC,M,M,M,4700.00,M,M,M,M,M,M,M,M,M,M,25.20,KTMT 300715Z AUTO 00000KT 10SM OVC047 M04/M06 A2982 RMK AO2 T10381058,M
BVU,2021-12-30 07:15,-114.8611,35.9475,671.00,46.40,32.00,57.00,180.00,4.00,0.00,29.92,M,10.00,M,BKN,OVC,M,M,5500.00,10000.00,M,M,M,M,M,M,M,M,M,44.24,KBVU 300715Z AUTO 18004KT 10SM BKN055 OVC100 08/00 A2992 RMK AO2,M
RTS,2021-12-30 07:15,-119.8764,39.6682,1539.00,26.60,26.60,100.00,0.00,0.00,0.00,29.84,M,2.00,M,OVC,M,M,M,300.00,M,M,M,BR,M,M,M,M,M,M,26.60,KRTS 300715Z AUTO 00000KT 2SM BR OVC003 M03/M03 A2984 RMK AO2,M
MEV,2021-12-30 07:15,-119.7500,38.9963,1441.42,26.60,26.60,100.00,340.00,5.00,0.00,29.84,M,9.00,M,OVC,M,M,M,600.00,M,M,M,M,M,M,M,M,M,M,19.98,KMEV 300715Z AUTO 34005KT 9SM OVC006 M03/M03 A2984 RMK AO2,M
BAM,2021-12-30 07:15,-116.8743,40.5990,1382.36,30.20,28.40,92.92,220.00,5.00,0.00,29.83,M,10.00,M,OVC,M,M,M,5000.00,M,M,M,M,M,M,M,M,M,M,24.26,KBAM 300715Z AUTO 22005KT 10SM OVC050 M01/M02 A2983 RMK AO1,M
HTH,2021-12-30 07:15,-118.6315,38.5448,1282.89,28.40,21.20,74.08,130.00,6.00,0.00,29.85,M,10.00,M,CLR,M,M,M,M,M,M,M,M,M,M,M,M,M,M,21.19,KHTH 300715Z AUTO 13006KT 10SM CLR M02/M06 A2985 RMK A01,M
INS,2021-12-30 07:18,-115.6733,36.5872,955.00,39.20,35.60,86.79,270.00,5.00,0.00,29.90,1012.00,10.00,M,FEW,BKN,OVC,M,1300.00,2000.00,2800.00,M,-RA,M,M,M,M,M,M,34.95,KINS 300718Z AUTO 27005KT 10SM -RA FEW013 BKN020 OVC028 04/02 A2990 RMK AO2 SLP120 $,M
ELY,2021-12-30 07:22,-114.8453,39.2950,1909.00,26.10,21.00,80.75,190.00,8.00,0.00,29.79,M,10.00,M,BKN,BKN,OVC,M,2400.00,4700.00,9000.00,M,M,M,M,M,M,M,M,16.85,KELY 300722Z AUTO 19008KT 10SM BKN024 BKN047 OVC090 M03/M06 A2979 RMK AO2 T10331061,M
EKO,2021-12-30 07:25,-115.7860,40.8242,1367.00,28.00,23.00,81.25,210.00,7.00,T,29.78,M,10.00,M,FEW,BKN,OVC,M,2500.00,4100.00,5000.00,M,M,M,M,M,M,M,M,19.90,KEKO 300725Z AUTO 21007KT 10SM FEW025 BKN041 OVC050 M02/M05 A2978 RMK AO2 SNB01E17 P0000 T10221050,M
ELY,2021-12-30 07:30,-114.8453,39.2950,1909.00,26.60,21.20,79.77,200.00,8.00,0.00,29.80,M,10.00,M,SCT,BKN,OVC,M,2400.00,4500.00,6000.00,M,M,M,M,M,M,M,M,17.46,KELY 300730Z AUTO 20008KT 10SM SCT024 BKN045 OVC060 M03/M06 A2980,M
05U,2021-12-30 07:30,-116.0051,39.6042,1811.23,23.00,21.20,92.69,150.00,4.00,0.00,29.82,M,10.00,M,OVC,M,M,M,3200.00,M,M,M,M,M,M,M,M,M,M,16.91,K05U 300730Z AUTO 15004KT 10SM OVC032 M05/M06 A2982 RMK A01,M
CXP,2021-12-30 07:30,-119.7326,39.1923,1431.00,32.00,30.20,92.97,80.00,6.00,0.00,29.85,M,9.00,M,SCT,BKN,OVC,M,500.00,800.00,1600.00,M,M,M,M,M,M,M,M,25.53,KCXP 300730Z AUTO 08006KT 9SM SCT005 BKN008 OVC016 M00/M01 A2985 RMK AO2,M
BAM,2021-12-30 07:35,-116.8743,40.5990,1382.36,30.20,30.20,100.00,0.00,0.00,0.00,29.83,M,10.00,M,SCT,OVC,M,M,800.00,5000.00,M,M,M,M,M,M,M,M,M,30.20,KBAM 300735Z AUTO 00000KT 10SM SCT008 OVC050 M01/M01 A2983 RMK AO1,M
TMT,2021-12-30 07:35,-117.1971,39.4643,1749.34,25.30,21.70,85.99,0.00,0.00,0.00,29.83,M,10.00,M,OVC,M,M,M,4700.00,M,M,M,M,M,M,M,M,M,M,25.30,KTMT 300735Z AUTO 00000KT 10SM OVC047 M04/M06 A2983 RMK AO2 T10371057,M
HTH,2021-12-30 07:35,-118.6315,38.5448,1282.89,28.40,21.20,74.08,130.00,5.00,0.00,29.85,M,10.00,M,CLR,M,M,M,M,M,M,M,M,M,M,M,M,M,M,22.12,KHTH 300735Z AUTO 13005KT 10SM CLR M02/M06 A2985 RMK A01,M
BVU,2021-12-30 07:35,-114.8611,35.9475,671.00,46.40,32.00,57.00,140.00,4.00,0.00,29.92,M,10.00,M,FEW,SCT,M,M,5500.00,10000.00,M,M,M,M,M,M,M,M,M,44.24,KBVU 300735Z AUTO 14004KT 10SM FEW055 SCT100 08/00 A2992 RMK AO2,M
LOL,2021-12-30 07:35,-118.5701,40.0684,1192.43,30.00,28.90,95.61,30.00,3.00,0.00,29.86,M,9.00,M,OVC,M,M,M,400.00,M,M,M,M,M,M,M,M,M,M,26.40,KLOL 300735Z AUTO 03003KT 9SM OVC004 M01/M02 A2986 RMK AO2 T10111017,M
RTS,2021-12-30 07:35,-119.8764,39.6682,1539.00,26.60,26.60,100.00,0.00,0.00,0.00,29.85,M,2.00,M,BKN,BKN,OVC,M,400.00,2700.00,4000.00,M,BR,M,M,M,M,M,M,26.60,KRTS 300735Z AUTO 00000KT 2SM BR BKN004 BKN027 OVC040 M03/M03 A2985 RMK AO2,M
MEV,2021-12-30 07:35,-119.7500,38.9963,1441.42,26.60,26.60,100.00,0.00,0.00,0.00,29.84,M,7.00,M,OVC,M,M,M,600.00,M,M,M,M,M,M,M,M,M,M,26.60,KMEV 300735Z AUTO 00000KT 7SM OVC006 M03/M03 A2984 RMK AO2,M
ELY,2021-12-30 07:37,-114.8453,39.2950,1909.00,26.10,21.00,80.75,180.00,7.00,0.00,29.80,M,10.00,M,BKN,OVC,M,M,2300.00,6000.00,M,M,M,M,M,M,M,M,M,17.59,KELY 300737Z AUTO 18007KT 10SM BKN023 OVC060 M03/M06 A2980 RMK AO2 T10331061,M
INS,2021-12-30 07:38,-115.6733,36.5872,955.00,39.20,35.60,86.79,260.00,5.00,0.00,29.90,1012.00,10.00,M,BKN,BKN,M,M,1700.00,2800.00,M,M,-RA,M,M,M,M,M,M,34.95,KINS 300738Z AUTO 26005KT 10SM -RA BKN017 BKN028 04/02 A2990 RMK AO2 CIG 017V027 BKN017 V SCT SLP120 $,M
DRA,2021-12-30 07:39,-116.0278,36.6206,1009.00,37.00,35.00,92.76,60.00,5.00,0.03,29.89,M,10.00,M,BKN,BKN,OVC,M,1300.00,1900.00,2700.00,M,-RA,M,M,M,M,M,M,32.33,KDRA 300739Z AUTO 06005KT 10SM -RA BKN013 BKN019 OVC027 03/02 A2989 RMK AO2 P0003 T00280017,M
INS,2021-12-30 07:43,-115.6733,36.5872,955.00,39.20,35.60,86.79,270.00,6.00,0.00,29.90,1012.00,10.00,M,SCT,SCT,M,M,1700.00,2700.00,M,M,-RA,M,M,M,M,M,M,34.20,KINS 300743Z AUTO 27006KT 10SM -RA SCT017 SCT027 04/02 A2990 RMK AO2 SLP120 $,M
NFL,2021-12-30 07:45,-118.7010,39.4166,1199.00,30.90,30.00,96.41,0.00,0.00,T,29.86,M,9.00,M,BKN,OVC,M,M,700.00,3700.00,M,M,M,M,M,M,M,M,M,30.90,KNFL 300745Z AUTO 00000KT 9SM BKN007 OVC037 M01/M01 A2986 RMK AO2 SNE10 P0000 T10061011,M
TPH,2021-12-30 07:45,-117.0904,38.0505,1654.00,28.90,28.00,96.38,0.00,0.00,0.00,29.84,M,10.00,M,SCT,OVC,M,M,800.00,1500.00,M,M,M,M,M,M,M,M,M,28.90,KTPH 300745Z AUTO 00000KT 10SM SCT008 OVC015 M02/M02 A2984 RMK AO2 T10171022,M
LSV,2021-12-30 07:48,-115.0343,36.2362,570.00,46.40,37.40,70.68,360.00,4.00,0.00,29.91,1012.80,10.00,M,OVC,M,M,M,4900.00,M,M,M,M,M,M,M,M,M,M,44.24,KLSV 300748Z AUTO 36004KT 10SM OVC049 08/03 A2991 RMK AO2 SLP128 $,M
05U,2021-12-30 07:50,-116.0051,39.6042,1811.23,23.00,19.40,85.85,200.00,3.00,0.00,29.82,M,10.00,M,OVC,M,M,M,3100.00,M,M,M,M,M,M,M,M,M,M,18.40,K05U 300750Z AUTO 20003KT 10SM OVC031 M05/M07 A2982 RMK A01,M
CXP,2021-12-30 07:50,-119.7326,39.1923,1431.00,32.00,30.20,92.97,80.00,4.00,0.00,29.85,M,9.00,M,BKN,OVC,M,M,400.00,800.00,M,M,M,M,M,M,M,M,M,27.42,KCXP 300750Z AUTO 08004KT 9SM BKN004 OVC008 M00/M01 A2985 RMK AO2,M
ELY,2021-12-30 07:53,-114.8453,39.2950,1909.00,26.10,21.00,80.75,210.00,11.00,0.00,29.80,1010.50,10.00,17.00,SCT,OVC,M,M,2300.00,5000.00,M,M,M,M,M,M,M,M,M,15.01,KELY 300753Z AUTO 21011G17KT 10SM SCT023 OVC050 M03/M06 A2980 RMK AO2 SLP105 T10331061 410281111,M
INS,2021-12-30 07:53,-115.6733,36.5872,955.00,37.40,37.40,100.00,270.00,6.00,0.00,29.90,1012.20,10.00,M,FEW,M,M,M,1400.00,M,M,M,-RA,M,M,M,M,M,M,32.03,KINS 300753Z AUTO 27006KT 10SM -RA FEW014 03/03 A2990 RMK AO2 SLP122 $,M
LOL,2021-12-30 07:53,-118.5701,40.0684,1192.43,30.00,28.90,95.61,30.00,3.00,0.00,29.85,1012.70,7.00,M,OVC,M,M,M,400.00,M,M,M,M,M,M,M,M,M,M,26.40,KLOL 300753Z AUTO 03003KT 7SM OVC004 M01/M02 A2985 RMK AO2 SLP127 T10111017 400061033,M
VGT,2021-12-30 07:53,-115.1933,36.2111,667.00,47.00,33.00,58.47,320.00,3.00,0.00,29.90,1014.50,10.00,M,BKN,M,M,M,9000.00,M,M,M,M,M,M,M,M,M,M,45.72,KVGT 300753Z AUTO 32003KT 10SM BKN090 08/01 A2990 RMK AO2 SLP145 T00830006 401001006,M
DRA,2021-12-30 07:53,-116.0278,36.6206,1009.00,37.00,34.00,88.78,0.00,0.00,0.03,29.89,1011.50,10.00,M,BKN,OVC,M,M,1300.00,1900.00,M,M,UP,M,M,M,M,M,M,37.00,KDRA 300753Z AUTO 00000KT 10SM UP BKN013 OVC019 03/01 A2989 RMK AO2 RAE40UPB40 SLP115 P0003 T00280011 400671033,M
TMT,2021-12-30 07:55,-117.1971,39.4643,1749.34,25.20,20.80,83.12,180.00,3.00,0.00,29.83,M,10.00,M,SCT,OVC,M,M,3200.00,4300.00,M,M,M,M,M,M,M,M,M,20.91,KTMT 300755Z AUTO 18003KT 10SM SCT032 OVC043 M04/M06 A2983 RMK AO2 T10381062 410091090,M
RNO,2021-12-30 07:55,-119.7711,39.4839,1341.00,28.90,27.00,92.49,140.00,4.00,0.00,29.85,1011.90,7.00,M,BKN,OVC,M,M,1100.00,3000.00,M,M,M,M,M,M,M,M,M,23.80,KRNO 300755Z 14004KT 7SM BKN011 OVC030 M02/M03 A2985 RMK AO2 SLP119 T10171028 400061028,M
HTH,2021-12-30 07:55,-118.6315,38.5448,1282.89,28.40,21.20,74.08,200.00,4.00,0.00,29.85,M,10.00,M,CLR,M,M,M,M,M,M,M,M,M,M,M,M,M,M,23.22,KHTH 300755Z AUTO 20004KT 10SM CLR M02/M06 A2985 RMK A01,M
BAM,2021-12-30 07:55,-116.8743,40.5990,1382.36,30.20,30.20,100.00,340.00,4.00,0.00,29.83,M,10.00,M,SCT,OVC,M,M,800.00,5000.00,M,M,M,M,M,M,M,M,M,25.32,KBAM 300755Z AUTO 34004KT 10SM SCT008 OVC050 M01/M01 A2983 RMK AO1,M
RTS,2021-12-30 07:55,-119.8764,39.6682,1539.00,26.60,24.80,92.80,0.00,0.00,0.00,29.84,M,4.00,M,SCT,BKN,OVC,M,500.00,2800.00,3700.00,M,BR,M,M,M,M,M,M,26.60,KRTS 300755Z AUTO 00000KT 4SM BR SCT005 BKN028 OVC037 M03/M04 A2984 RMK AO2,M
MEV,2021-12-30 07:55,-119.7500,38.9963,1441.42,26.60,26.60,100.00,140.00,4.00,0.00,29.85,M,6.00,M,OVC,M,M,M,600.00,M,M,M,BR,M,M,M,M,M,M,21.11,KMEV 300755Z AUTO 14004KT 6SM BR OVC006 M03/M03 A2985 RMK AO2,M
BVU,2021-12-30 07:55,-114.8611,35.9475,671.00,46.40,32.00,57.00,140.00,3.00,0.00,29.92,M,10.00,M,SCT,BKN,M,M,5000.00,11000.00,M,M,M,M,M,M,M,M,M,45.15,KBVU 300755Z AUTO 14003KT 10SM SCT050 BKN110 08/00 A2992 RMK AO2,M
EKO,2021-12-30 07:56,-115.7860,40.8242,1367.00,28.00,21.90,77.57,240.00,8.00,T,29.78,1010.70,10.00,M,FEW,FEW,OVC,M,3000.00,3800.00,5000.00,M,M,M,M,M,M,M,M,19.19,KEKO 300756Z AUTO 24008KT 10SM FEW030 FEW038 OVC050 M02/M06 A2978 RMK AO2 SNB01E17 SLP107 P0000 T10221056 410111100,M
HND,2021-12-30 07:56,-115.1344,35.9729,742.79,44.00,33.00,65.02,210.00,7.00,0.00,29.92,1014.90,10.00,M,OVC,M,M,M,9000.00,M,M,M,M,M,M,M,M,M,M,39.53,KHND 300756Z AUTO 21007KT 10SM OVC090 07/01 A2992 RMK AO2 SLP149 T00670006,M
TPH,2021-12-30 07:56,-117.0904,38.0505,1654.00,28.90,28.00,96.38,0.00,0.00,0.00,29.84,1012.10,10.00,M,OVC,M,M,M,1500.00,M,M,M,M,M,M,M,M,M,M,28.90,KTPH 300756Z AUTO 00000KT 10SM OVC015 M02/M02 A2984 RMK AO2 SLP121 T10171022 410111061,M
NFL,2021-12-30 07:56,-118.7010,39.4166,1199.00,30.90,30.00,96.41,0.00,0.00,T,29.86,1008.70,9.00,M,OVC,M,M,M,700.00,M,M,M,M,M,M,M,M,M,M,30.90,KNFL 300756Z AUTO 00000KT 9SM OVC007 M01/M01 A2986 RMK AO2 SNE10 CIG 005V008 SLP087 P0000 T10061011 400391017,M
WMC,2021-12-30 07:56,-117.8072,40.9019,1315.00,28.00,24.10,85.08,170.00,8.00,0.00,29.80,1010.60,10.00,M,OVC,M,M,M,5500.00,M,M,M,M,M,M,M,M,M,M,19.19,KWMC 300756Z AUTO 17008KT 10SM OVC055 M02/M04 A2980 RMK AO2 SLP106 T10221044 400001061,M
LAS,2021-12-30 07:56,-115.1634,36.0719,663.00,45.00,35.00,68.05,300.00,4.00,0.00,29.90,1012.70,10.00,M,FEW,BKN,OVC,M,6000.00,9000.00,14000.00,M,M,M,M,M,M,M,M,42.60,KLAS 300756Z 30004KT 10SM FEW060 BKN090 OVC140 07/02 A2990 RMK AO2 SLP127 T00720017 401000006,M
DRA,2021-12-30 07:57,-116.0278,36.6206,1009.00,37.00,34.00,88.78,140.00,4.00,T,29.89,M,10.00,M,FEW,OVC,M,M,800.00,1300.00,M,M,UP,M,M,M,M,M,M,33.26,KDRA 300757Z AUTO 14004KT 10SM UP FEW008 OVC013 03/01 A2989 RMK AO2 P0000 T00280011,M
INS,2021-12-30 07:58,-115.6733,36.5872,955.00,38.00,36.50,93.90,260.00,5.00,0.01,29.90,1012.20,10.00,M,FEW,M,M,M,1000.00,M,M,M,-RA,M,M,M,M,M,M,33.64,KINS 300758Z AUTO 26005KT 10SM -RA FEW010 03/03 A2990 RMK AO2 SLP122 P0001 T00340025 400631048 $,M
LSV,2021-12-30 07:58,-115.0343,36.2362,570.00,46.80,37.20,69.07,30.00,5.00,0.00,29.91,1012.80,10.00,M,OVC,M,M,M,4900.00,M,M,M,M,M,M,M,M,M,M,43.97,KLSV 300758Z AUTO 03005KT 10SM OVC049 08/03 A2991 RMK AO2 SLP128 T00820029 401031025 $,M
INS,2021-12-30 07:59,-115.6733,36.5872,955.00,37.40,37.40,100.00,250.00,6.00,0.00,29.90,1012.20,10.00,M,CLR,M,M,M,M,M,M,M,M,M,M,M,M,M,M,32.03,KINS 300759Z AUTO 25006KT 10SM CLR 03/03 A2990 RMK AO2 RAE58 SLP122 $,M
INS,2021-12-30 08:00,-115.6733,36.5872,955.00,37.40,37.40,100.00,250.00,6.00,0.00,29.90,1012.20,10.00,M,FEW,M,M,M,5000.00,M,M,M,-RA,M,M,M,M,M,M,32.03,KINS 300800Z AUTO 25006KT 10SM -RA FEW050 03/03 A2990 RMK AO2 RAE0758RAB0759 SLP122 $,M
TPH,2021-12-30 08:09,-117.0904,38.0505,1654.00,28.90,28.00,96.38,50.00,3.00,0.00,29.84,M,10.00,M,SCT,OVC,M,M,800.00,1500.00,M,M,M,M,M,M,M,M,M,25.14,KTPH 300809Z AUTO 05003KT 10SM SCT008 OVC015 M02/M02 A2984 RMK AO2 T10171022,M
EKO,2021-12-30 08:10,-115.7860,40.8242,1367.00,28.00,21.90,77.57,230.00,7.00,0.00,29.78,M,10.00,M,SCT,BKN,OVC,M,2000.00,2600.00,4900.00,M,M,M,M,M,M,M,M,19.90,KEKO 300810Z AUTO 23007KT 10SM SCT020 BKN026 OVC049 M02/M06 A2978 RMK AO2 T10221056,M
05U,2021-12-30 08:10,-116.0051,39.6042,1811.23,21.20,17.60,85.74,0.00,0.00,0.00,29.83,M,10.00,M,OVC,M,M,M,3000.00,M,M,M,M,M,M,M,M,M,M,21.20,K05U 300810Z AUTO 00000KT 10SM OVC030 M06/M08 A2983 RMK A01,M
CXP,2021-12-30 08:10,-119.7326,39.1923,1431.00,32.00,30.20,92.97,10.00,3.00,0.00,29.85,M,10.00,M,OVC,M,M,M,400.00,M,M,M,M,M,M,M,M,M,M,28.69,KCXP 300810Z AUTO 01003KT 10SM OVC004 M00/M01 A2985 RMK AO2,M
HTH,2021-12-30 08:15,-118.6315,38.5448,1282.89,28.40,21.20,74.08,210.00,3.00,0.00,29.85,M,10.00,M,CLR,M,M,M,M,M,M,M,M,M,M,M,M,M,M,24.57,KHTH 300815Z AUTO 21003KT 10SM CLR M02/M06 A2985 RMK A01,M
BAM,2021-12-30 08:15,-116.8743,40.5990,1382.36,30.20,30.20,100.00,290.00,4.00,0.00,29.82,M,10.00,M,SCT,OVC,M,M,800.00,5000.00,M,M,M,M,M,M,M,M,M,25.32,KBAM 300815Z AUTO 29004KT 10SM SCT008 OVC050 M01/M01 A2982 RMK AO1,M
MEV,2021-12-30 08:15,-119.7500,38.9963,1441.42,28.40,26.60,92.86,140.00,5.00,0.00,29.85,M,5.00,M,OVC,M,M,M,600.00,M,M,M,BR,M,M,M,M,M,M,22.12,KMEV 300815Z AUTO 14005KT 5SM BR OVC006 M02/M03 A2985 RMK AO2,M
INS,2021-12-30 08:15,-115.6733,36.5872,955.00,37.40,37.40,100.00,250.00,6.00,0.00,29.90,1012.20,10.00,M,FEW,BKN,M,M,3700.00,5000.00,M,M,-DZ,M,M,M,M,M,M,32.03,KINS 300815Z AUTO 25006KT 10SM -DZ FEW037 BKN050 03/03 A2990 RMK AO2 RAE0758RAB0759E08DZB08 SLP122 $,M
RTS,2021-12-30 08:15,-119.8764,39.6682,1539.00,26.60,24.80,92.80,140.00,4.00,0.00,29.83,M,3.00,M,BKN,BKN,OVC,M,400.00,2900.00,3700.00,M,BR,M,M,M,M,M,M,21.11,KRTS 300815Z AUTO 14004KT 3SM BR BKN004 BKN029 OVC037 M03/M04 A2983 RMK AO2,M
BVU,2021-12-30 08:15,-114.8611,35.9475,671.00,46.40,32.00,57.00,130.00,4.00,0.00,29.92,M,10.00,M,BKN,BKN,M,M,5000.00,11000.00,M,M,M,M,M,M,M,M,M,44.24,KBVU 300815Z AUTO 13004KT 10SM BKN050 BKN110 08/00 A2992 RMK AO2,M
TMT,2021-12-30 08:15,-117.1971,39.4643,1749.34,24.80,20.70,84.16,160.00,4.00,0.00,29.83,M,10.00,M,OVC,M,M,M,3000.00,M,M,M,M,M,M,M,M,M,M,19.01,KTMT 300815Z AUTO 16004KT 10SM OVC030 M04/M06 A2983 RMK AO2 T10401063,M
INS,2021-12-30 08:16,-115.6733,36.5872,955.00,37.40,37.40,100.00,260.00,5.00,0.00,29.90,1012.20,10.00,M,FEW,BKN,M,M,3700.00,5000.00,M,M,M,M,M,M,M,M,M,32.81,KINS 300816Z AUTO 26005KT 10SM FEW037 BKN050 03/03 A2990 RMK AO2 RAE0758RAB0759E08DZB08E15DZB15E15 SLP122 $,M
LSV,2021-12-30 08:16,-115.0343,36.2362,570.00,46.40,37.40,70.68,60.00,5.00,0.00,29.91,1012.80,10.00,M,SCT,OVC,M,M,4800.00,9000.00,M,M,M,M,M,M,M,M,M,43.50,KLSV 300816Z AUTO 06005KT 10SM SCT048 OVC090 08/03 A2991 RMK AO2 SLP128 $,M
TPH,2021-12-30 08:18,-117.0904,38.0505,1654.00,28.90,28.00,96.38,0.00,0.00,0.00,29.85,M,10.00,M,BKN,OVC,M,M,800.00,1400.00,M,M,M,M,M,M,M,M,M,28.90,KTPH 300818Z AUTO 00000KT 10SM BKN008 OVC014 M02/M02 A2985 RMK AO2 T10171022,M
NFL,2021-12-30 08:20,-118.7010,39.4166,1199.00,30.90,30.00,96.41,0.00,0.00,0.00,29.85,M,8.00,M,OVC,M,M,M,400.00,M,M,M,M,M,M,M,M,M,M,30.90,KNFL 300820Z AUTO 00000KT 8SM OVC004 M01/M01 A2985 RMK AO2 T10061011,M
05U,2021-12-30 08:30,-116.0051,39.6042,1811.23,21.20,19.40,92.63,170.00,4.00,0.00,29.83,M,7.00,M,OVC,M,M,M,3100.00,M,M,M,M,M,M,M,M,M,M,14.81,K05U 300830Z AUTO 17004KT 7SM OVC031 M06/M07 A2983 RMK A01,M
CXP,2021-12-30 08:30,-119.7326,39.1923,1431.00,32.00,28.40,86.39,20.00,3.00,0.00,29.85,M,10.00,M,OVC,M,M,M,600.00,M,M,M,M,M,M,M,M,M,M,28.69,KCXP 300830Z AUTO 02003KT 10SM OVC006 M00/M02 A2985 RMK AO2,M
DRA,2021-12-30 08:33,-116.0278,36.6206,1009.00,36.00,34.00,92.35,100.00,4.00,0.01,29.89,M,7.00,M,SCT,BKN,OVC,M,1200.00,1700.00,2200.00,M,UP,M,M,M,M,M,M,32.09,KDRA 300833Z AUTO 10004KT 7SM UP SCT012 BKN017 OVC022 02/01 A2989 RMK AO2 P0001 T00220011,M
BVU,2021-12-30 08:35,-114.8611,35.9475,671.00,46.40,33.80,61.28,140.00,5.00,0.00,29.92,M,10.00,M,SCT,OVC,M,M,4200.00,5000.00,M,M,M,M,M,M,M,M,M,43.50,KBVU 300835Z AUTO 14005KT 10SM SCT042 OVC050 08/01 A2992 RMK AO2,M
TMT,2021-12-30 08:35,-117.1971,39.4643,1749.34,23.90,20.10,85.18,160.00,5.00,0.00,29.83,M,10.00,M,OVC,M,M,M,3000.00,M,M,M,M,M,M,M,M,M,M,16.78,KTMT 300835Z AUTO 16005KT 10SM OVC030 M04/M07 A2983 RMK AO2 T10451066,M
HTH,2021-12-30 08:35,-118.6315,38.5448,1282.89,28.40,21.20,74.08,270.00,4.00,0.00,29.86,M,10.00,M,CLR,M,M,M,M,M,M,M,M,M,M,M,M,M,M,23.22,KHTH 300835Z AUTO 27004KT 10SM CLR M02/M06 A2986 RMK A01,M
BAM,2021-12-30 08:35,-116.8743,40.5990,1382.36,30.20,30.20,100.00,150.00,3.00,0.00,29.81,M,10.00,M,SCT,SCT,OVC,M,600.00,2500.00,5000.00,M,M,M,M,M,M,M,M,26.63,KBAM 300835Z AUTO 15003KT 10SM SCT006 SCT025 OVC050 M01/M01 A2981 RMK AO1,M
MEV,2021-12-30 08:35,-119.7500,38.9963,1441.42,28.40,28.40,100.00,140.00,4.00,0.00,29.85,M,4.00,M,OVC,M,M,M,600.00,M,M,M,BR,M,M,M,M,M,M,23.22,KMEV 300835Z AUTO 14004KT 4SM BR OVC006 M02/M02 A2985 RMK AO2,M
RTS,2021-12-30 08:35,-119.8764,39.6682,1539.00,26.60,26.60,100.00,0.00,0.00,0.00,29.82,M,1.00,M,OVC,M,M,M,200.00,M,M,M,BR,M,M,M,M,M,M,26.60,KRTS 300835Z AUTO 00000KT 1SM BR OVC002 M03/M03 A2982 RMK AO2,M
INS,2021-12-30 08:36,-115.6733,36.5872,955.00,37.40,37.40,100.00,240.00,6.00,0.00,29.90,1012.00,10.00,M,SCT,BKN,BKN,OVC,2600.00,3700.00,5000.00,6000.00,M,M,M,M,M,M,M,32.03,KINS 300836Z AUTO 24006KT 10SM SCT026 BKN037 BKN050 OVC060 03/03 A2990 RMK AO2 RAE0758RAB0759E08DZB08E15DZB15E15 SLP120 $,M
INS,2021-12-30 08:41,-115.6733,36.5872,955.00,37.40,35.60,93.14,250.00,5.00,0.00,29.90,1012.00,10.00,M,BKN,BKN,BKN,OVC,2600.00,3700.00,5000.00,6000.00,M,M,M,M,M,M,M,32.81,KINS 300841Z AUTO 25005KT 10SM BKN026 BKN037 BKN050 OVC060 03/02 A2990 RMK AO2 RAE0758RAB0759E08DZB08E15DZB15E15 CIG 026V050 BKN026 V SCT SLP120 $,M
EKO,2021-12-30 08:45,-115.7860,40.8242,1367.00,26.10,21.90,83.89,230.00,6.00,0.00,29.76,M,10.00,M,SCT,OVC,M,M,1900.00,5000.00,M,M,M,M,M,M,M,M,M,18.42,KEKO 300845Z AUTO 23006KT 10SM SCT019 OVC050 M03/M06 A2976 RMK AO2 T10331056,M
CXP,2021-12-30 08:50,-119.7326,39.1923,1431.00,32.00,28.40,86.39,0.00,0.00,0.00,29.84,M,10.00,M,OVC,M,M,M,800.00,M,M,M,M,M,M,M,M,M,M,32.00,KCXP 300850Z AUTO 00000KT 10SM OVC008 M00/M02 A2984 RMK AO2,M
05U,2021-12-30 08:50,-116.0051,39.6042,1811.23,21.20,19.40,92.63,0.00,0.00,0.00,29.83,M,5.00,M,OVC,M,M,M,3500.00,M,M,M,BR,M,M,M,M,M,M,21.20,K05U 300850Z AUTO 00000KT 5SM BR OVC035 M06/M07 A2983 RMK A01,M
ELY,2021-12-30 08:53,-114.8453,39.2950,1909.00,24.10,19.00,80.59,170.00,8.00,0.00,29.79,1010.40,10.00,22.00,FEW,BKN,M,M,2700.00,4600.00,M,M,M,M,M,M,M,M,M,14.38,KELY 300853Z AUTO 17008G22KT 10SM FEW027 BKN046 M04/M07 A2979 RMK AO2 SLP104 T10441072 50001,M
DRA,2021-12-30 08:53,-116.0278,36.6206,1009.00,36.00,34.00,92.35,0.00,0.00,0.03,29.89,1011.80,7.00,M,FEW,BKN,OVC,M,1100.00,1900.00,2300.00,M,-RA,M,M,M,M,M,M,36.00,KDRA 300853Z AUTO 00000KT 7SM -RA FEW011 BKN019 OVC023 02/01 A2989 RMK AO2 UPE35RAB35 SLP118 P0003 60008 T00220011 51008,M
VGT,2021-12-30 08:53,-115.1933,36.2111,667.00,45.00,34.00,65.13,320.00,3.00,0.00,29.90,1014.60,10.00,M,FEW,BKN,M,M,6000.00,8500.00,M,M,M,M,M,M,M,M,M,43.55,KVGT 300853Z AUTO 32003KT 10SM FEW060 BKN085 07/01 A2990 RMK AO2 SLP146 T00720011 50000,M
LOL,2021-12-30 08:53,-118.5701,40.0684,1192.43,30.00,28.90,95.61,190.00,3.00,0.00,29.83,1012.00,2.50,M,OVC,M,M,M,300.00,M,M,M,BR,M,T,M,M,M,M,26.40,KLOL 300853Z AUTO 19003KT 2 1/2SM BR OVC003 M01/M02 A2983 RMK AO2 SLP120 I3000 T10111017 58003,M
RTS,2021-12-30 08:55,-119.8764,39.6682,1539.00,26.60,26.60,100.00,0.00,0.00,0.00,29.81,M,0.75,M,OVC,M,M,M,200.00,M,M,M,BR,M,M,M,M,M,M,26.60,KRTS 300855Z AUTO 00000KT 3/4SM BR OVC002 M03/M03 A2981 RMK AO2,M
BVU,2021-12-30 08:55,-114.8611,35.9475,671.00,46.40,33.80,61.28,140.00,7.00,0.00,29.92,M,10.00,M,BKN,OVC,M,M,4200.00,4900.00,M,M,M,M,M,M,M,M,M,42.33,KBVU 300855Z AUTO 14007KT 10SM BKN042 OVC049 08/01 A2992 RMK AO2,M
BAM,2021-12-30 08:55,-116.8743,40.5990,1382.36,30.20,30.20,100.00,240.00,6.00,0.00,29.80,M,10.00,M,SCT,SCT,OVC,M,600.00,2500.00,5000.00,M,M,M,M,M,M,M,M,23.36,KBAM 300855Z AUTO 24006KT 10SM SCT006 SCT025 OVC050 M01/M01 A2980 RMK AO1,M
RNO,2021-12-30 08:55,-119.7711,39.4839,1341.00,30.00,27.00,88.44,170.00,6.00,0.00,29.82,1010.90,9.00,M,OVC,M,M,M,1000.00,M,M,M,M,M,M,M,M,M,M,23.12,KRNO 300855Z 17006KT 9SM OVC010 M01/M03 A2982 RMK AO2 SLP109 T10111028 58002,M
TMT,2021-12-30 08:55,-117.1971,39.4643,1749.34,22.60,18.70,84.73,200.00,4.00,0.00,29.83,M,10.00,M,SCT,BKN,OVC,M,3200.00,4000.00,6000.00,M,M,M,M,M,M,M,M,16.44,KTMT 300855Z AUTO 20004KT 10SM SCT032 BKN040 OVC060 M05/M07 A2983 RMK AO2 T10521074,M
MEV,2021-12-30 08:55,-119.7500,38.9963,1441.42,28.40,28.40,100.00,0.00,0.00,0.00,29.84,M,5.00,M,OVC,M,M,M,500.00,M,M,M,BR,M,M,M,M,M,M,28.40,KMEV 300855Z AUTO 00000KT 5SM BR OVC005 M02/M02 A2984 RMK AO2,M
HTH,2021-12-30 08:55,-118.6315,38.5448,1282.89,28.40,21.20,74.08,0.00,0.00,0.00,29.86,M,10.00,M,CLR,M,M,M,M,M,M,M,M,M,M,M,M,M,M,28.40,KHTH 300855Z AUTO 00000KT 10SM CLR M02/M06 A2986 RMK A01,M
HND,2021-12-30 08:56,-115.1344,35.9729,742.79,43.00,32.00,64.88,0.00,0.00,0.00,29.92,1015.10,10.00,M,OVC,M,M,M,5500.00,M,M,M,M,M,M,M,M,M,M,43.00,KHND 300856Z AUTO 00000KT 10SM OVC055 06/00 A2992 RMK AO2 SLP151 T00610000 53002,M
LAS,2021-12-30 08:56,-115.1634,36.0719,663.00,45.00,35.00,68.05,280.00,4.00,0.00,29.91,1012.70,10.00,M,FEW,BKN,OVC,M,6000.00,9000.00,14000.00,M,M,M,M,M,M,M,M,42.60,KLAS 300856Z 28004KT 10SM FEW060 BKN090 OVC140 07/02 A2991 RMK AO2 SLP127 T00720017 53001,M
TPH,2021-12-30 08:56,-117.0904,38.0505,1654.00,28.90,28.00,96.38,80.00,3.00,0.00,29.85,1012.20,10.00,M,OVC,M,M,M,800.00,M,M,M,M,M,M,M,M,M,M,25.14,KTPH 300856Z AUTO 08003KT 10SM OVC008 M02/M02 A2985 RMK AO2 SLP122 T10171022 51004,M
EKO,2021-12-30 08:56,-115.7860,40.8242,1367.00,25.00,21.90,87.81,190.00,5.00,0.00,29.76,1010.20,10.00,M,FEW,BKN,M,M,1900.00,5000.00,M,M,M,M,M,M,M,M,M,18.08,KEKO 300856Z AUTO 19005KT 10SM FEW019 BKN050 M04/M06 A2976 RMK AO2 SLP102 60000 T10391056 58002,M
WMC,2021-12-30 08:56,-117.8072,40.9019,1315.00,28.00,25.00,88.33,200.00,10.00,0.00,29.79,1010.40,10.00,M,OVC,M,M,M,4700.00,M,M,M,M,M,M,M,M,M,M,17.95,KWMC 300856Z AUTO 20010KT 10SM OVC047 M02/M04 A2979 RMK AO2 SLP104 T10221039 58007,M
NFL,2021-12-30 08:56,-118.7010,39.4166,1199.00,30.90,30.00,96.41,0.00,0.00,0.00,29.84,1008.10,6.00,M,OVC,M,M,M,400.00,M,M,M,BR,M,M,M,M,M,M,30.90,KNFL 300856Z AUTO 00000KT 6SM BR OVC004 M01/M01 A2984 RMK AO2 SLP081 60000 T10061011 50002,M
INS,2021-12-30 08:58,-115.6733,36.5872,955.00,38.00,36.00,93.15,250.00,5.00,T,29.90,1012.00,10.00,M,BKN,BKN,OVC,M,2600.00,4900.00,6000.00,M,M,M,M,M,M,M,M,33.40,KINS 300858Z AUTO 25005KT 10SM BKN026 BKN049 OVC060 03/02 A2990 RMK AO2 RAE0758RAB0759E08DZB08E15DZB15E15 SLP120 P0000 60002 T00330023 52005 $,M
LSV,2021-12-30 08:58,-115.0343,36.2362,570.00,45.70,37.20,72.01,60.00,8.00,0.00,29.91,1012.80,10.00,M,BKN,BKN,M,M,8500.00,12000.00,M,M,M,M,M,M,M,M,M,40.99,KLSV 300858Z AUTO 06008KT 10SM BKN085 BKN120 08/03 A2991 RMK AO2 SLP128 T00760029 58000 $,M
LOL,2021-12-30 09:05,-118.5701,40.0684,1192.43,30.00,28.90,95.61,200.00,5.00,0.00,29.83,M,1.00,M,VV ,M,M,M,300.00,M,M,M,BR,M,M,M,M,M,M,24.02,KLOL 300905Z AUTO 20005KT 1SM BR VV003 M01/M02 A2983 RMK AO2 T10111017,M
INS,2021-12-30 09:08,-115.6733,36.5872,955.00,37.40,37.40,100.00,260.00,7.00,0.00,29.90,1012.00,10.00,M,SCT,BKN,BKN,OVC,2700.00,3300.00,4700.00,6000.00,M,M,M,M,M,M,M,31.36,KINS 300908Z AUTO 26007KT 10SM SCT027 BKN033 BKN047 OVC060 03/03 A2990 RMK AO2 SLP120 $,M
CXP,2021-12-30 09:10,-119.7326,39.1923,1431.00,32.00,28.40,86.39,0.00,0.00,0.00,29.84,M,10.00,M,OVC,M,M,M,800.00,M,M,M,M,M,M,M,M,M,M,32.00,KCXP 300910Z AUTO 00000KT 10SM OVC008 M00/M02 A2984 RMK AO2,M
ELY,2021-12-30 09:10,-114.8453,39.2950,1909.00,24.80,19.40,79.62,220.00,7.00,0.00,29.80,M,10.00,M,BKN,OVC,M,M,2700.00,4600.00,M,M,M,M,M,M,M,M,M,16.00,KELY 300910Z AUTO 22007KT 10SM BKN027 OVC046 M04/M07 A2980,M
05U,2021-12-30 09:10,-116.0051,39.6042,1811.23,23.00,19.40,85.85,190.00,5.00,0.00,29.82,M,6.00,M,OVC,M,M,M,3500.00,M,M,M,BR,M,M,M,M,M,M,15.71,K05U 300910Z AUTO 19005KT 6SM BR OVC035 M05/M07 A2982 RMK A01,M
LOL,2021-12-30 09:12,-118.5701,40.0684,1192.43,30.00,28.90,95.61,190.00,6.00,0.00,29.83,M,0.50,M,VV ,M,M,M,300.00,M,M,M,FZFG,M,M,M,M,M,M,23.12,KLOL 300912Z AUTO 19006KT 1/2SM FZFG VV003 M01/M02 A2983 RMK AO2 T10111017,M
TPH,2021-12-30 09:12,-117.0904,38.0505,1654.00,28.90,28.00,96.38,360.00,6.00,0.00,29.85,M,10.00,M,SCT,BKN,OVC,M,800.00,1200.00,2500.00,M,M,M,M,M,M,M,M,21.80,KTPH 300912Z AUTO 36006KT 10SM SCT008 BKN012 OVC025 M02/M02 A2985 RMK AO2 T10171022,M
HTH,2021-12-30 09:15,-118.6315,38.5448,1282.89,28.40,21.20,74.08,0.00,0.00,0.00,29.87,M,10.00,M,CLR,M,M,M,M,M,M,M,M,M,M,M,M,M,M,28.40,KHTH 300915Z AUTO 00000KT 10SM CLR M02/M06 A2987 RMK A01,M
BVU,2021-12-30 09:15,-114.8611,35.9475,671.00,46.40,33.80,61.28,150.00,5.00,0.00,29.92,M,10.00,M,OVC,M,M,M,4300.00,M,M,M,M,M,M,M,M,M,M,43.50,KBVU 300915Z AUTO 15005KT 10SM OVC043 08/01 A2992 RMK AO2,M
RTS,2021-12-30 09:15,-119.8764,39.6682,1539.00,26.60,24.80,92.80,0.00,0.00,0.00,29.82,M,0.25,M,OVC,M,M,M,200.00,M,M,M,FZFG,M,M,M,M,M,M,26.60,KRTS 300915Z AUTO 00000KT 1/4SM FZFG OVC002 M03/M04 A2982 RMK AO2,M
MEV,2021-12-30 09:15,-119.7500,38.9963,1441.42,28.40,28.40,100.00,140.00,3.00,0.00,29.83,M,6.00,M,OVC,M,M,M,500.00,M,M,M,BR,M,M,M,M,M,M,24.57,KMEV 300915Z AUTO 14003KT 6SM BR OVC005 M02/M02 A2983 RMK AO2,M
TMT,2021-12-30 09:15,-117.1971,39.4643,1749.34,19.60,16.30,86.76,210.00,7.00,0.00,29.82,M,10.00,M,SCT,SCT,SCT,M,3900.00,6000.00,7000.00,M,M,M,M,M,M,M,M,9.66,KTMT 300915Z AUTO 21007KT 10SM SCT039 SCT060 SCT070 M07/M09 A2982 RMK AO2 T10691087,M
BAM,2021-12-30 09:15,-116.8743,40.5990,1382.36,30.20,30.20,100.00,160.00,7.00,0.00,29.80,M,10.00,M,OVC,M,M,M,5000.00,M,M,M,M,M,M,M,M,M,M,22.59,KBAM 300915Z AUTO 16007KT 10SM OVC050 M01/M01 A2980 RMK AO1,M
TPH,2021-12-30 09:19,-117.0904,38.0505,1654.00,28.90,28.00,96.38,360.00,7.00,0.00,29.85,M,10.00,M,FEW,SCT,OVC,M,800.00,1200.00,2500.00,M,M,M,M,M,M,M,M,21.00,KTPH 300919Z AUTO 36007KT 10SM FEW008 SCT012 OVC025 M02/M02 A2985 RMK AO2 T10171022,M
INS,2021-12-30 09:23,-115.6733,36.5872,955.00,37.40,37.40,100.00,260.00,6.00,0.00,29.90,1012.00,10.00,M,SCT,BKN,OVC,M,3300.00,4700.00,6000.00,M,M,M,M,M,M,M,M,32.03,KINS 300923Z AUTO 26006KT 10SM SCT033 BKN047 OVC060 03/03 A2990 RMK AO2 SLP120 $,M
05U,2021-12-30 09:30,-116.0051,39.6042,1811.23,21.20,19.40,92.63,0.00,0.00,0.00,29.83,M,7.00,M,OVC,M,M,M,3500.00,M,M,M,M,M,M,M,M,M,M,21.20,K05U 300930Z AUTO 00000KT 7SM OVC035 M06/M07 A2983 RMK A01,M
CXP,2021-12-30 09:30,-119.7326,39.1923,1431.00,30.20,26.60,86.28,210.00,6.00,0.00,29.84,M,10.00,M,OVC,M,M,M,700.00,M,M,M,M,M,M,M,M,M,M,23.36,KCXP 300930Z AUTO 21006KT 10SM OVC007 M01/M03 A2984 RMK AO2,M
DRA,2021-12-30 09:32,-116.0278,36.6206,1009.00,36.00,34.00,92.35,100.00,3.00,0.01,29.90,M,10.00,M,SCT,BKN,OVC,M,2400.00,4300.00,6500.00,M,UP,M,M,M,M,M,M,33.26,KDRA 300932Z AUTO 10003KT 10SM UP SCT024 BKN043 OVC065 02/01 A2990 RMK AO2 RAE27UPB0858E11B27 P0001 T00220011,M
ELY,2021-12-30 09:34,-114.8453,39.2950,1909.00,26.10,21.00,80.75,190.00,5.00,0.00,29.81,M,10.00,M,SCT,OVC,M,M,2600.00,4500.00,M,M,M,M,M,M,M,M,M,19.39,KELY 300934Z AUTO 19005KT 10SM SCT026 OVC045 M03/M06 A2981 RMK AO2 T10331061,M
HTH,2021-12-30 09:35,-118.6315,38.5448,1282.89,28.40,21.20,74.08,200.00,3.00,0.00,29.86,M,10.00,M,CLR,M,M,M,M,M,M,M,M,M,M,M,M,M,M,24.57,KHTH 300935Z AUTO 20003KT 10SM CLR M02/M06 A2986 RMK A01,M
BVU,2021-12-30 09:35,-114.8611,35.9475,671.00,46.40,33.80,61.28,130.00,4.00,0.00,29.92,M,10.00,M,OVC,M,M,M,4300.00,M,M,M,M,M,M,M,M,M,M,44.24,KBVU 300935Z AUTO 13004KT 10SM OVC043 08/01 A2992 RMK AO2,M
RTS,2021-12-30 09:35,-119.8764,39.6682,1539.00,26.60,26.60,100.00,360.00,4.00,0.00,29.83,M,0.25,M,OVC,M,M,M,300.00,M,M,M,FZFG,M,M,M,M,M,M,21.11,KRTS 300935Z AUTO 36004KT 1/4SM FZFG OVC003 M03/M03 A2983 RMK AO2,M
MEV,2021-12-30 09:35,-119.7500,38.9963,1441.42,28.40,28.40,100.00,190.00,5.00,0.00,29.84,M,4.00,M,OVC,M,M,M,400.00,M,M,M,BR,M,M,M,M,M,M,22.12,KMEV 300935Z AUTO 19005KT 4SM BR OVC004 M02/M02 A2984 RMK AO2,M
BAM,2021-12-30 09:35,-116.8743,40.5990,1382.36,30.20,30.20,100.00,250.00,4.00,0.00,29.80,M,10.00,M,SCT,OVC,M,M,400.00,5000.00,M,M,M,M,M,M,M,M,M,25.32,KBAM 300935Z AUTO 25004KT 10SM SCT004 OVC050 M01/M01 A2980 RMK AO1,M
TMT,2021-12-30 09:35,-117.1971,39.4643,1749.34,19.20,16.20,87.88,240.00,9.00,0.00,29.82,M,10.00,M,CLR,M,M,M,M,M,M,M,M,M,M,M,M,M,M,7.60,KTMT 300935Z AUTO 24009KT 10SM CLR M07/M09 A2982 RMK AO2 T10711088,M
INS,2021-12-30 09:38,-115.6733,36.5872,955.00,37.40,37.40,100.00,250.00,6.00,0.00,29.91,1012.30,10.00,M,FEW,BKN,M,M,3300.00,4700.00,M,M,-DZ,M,M,M,M,M,M,32.03,KINS 300938Z AUTO 25006KT 10SM -DZ FEW033 BKN047 03/03 A2991 RMK AO2 DZB38 SLP123 $,M
TPH,2021-12-30 09:42,-117.0904,38.0505,1654.00,28.90,28.00,96.38,0.00,0.00,0.00,29.85,M,10.00,M,BKN,OVC,M,M,1400.00,2400.00,M,M,M,M,M,M,M,M,M,28.90,KTPH 300942Z AUTO 00000KT 10SM BKN014 OVC024 M02/M02 A2985 RMK AO2 T10171022,M
INS,2021-12-30 09:48,-115.6733,36.5872,955.00,37.40,37.40,100.00,260.00,3.00,0.00,29.91,1012.30,10.00,M,FEW,SCT,M,M,3300.00,4700.00,M,M,-DZ,M,M,M,M,M,M,34.86,KINS 300948Z AUTO 26003KT 10SM -DZ FEW033 SCT047 03/03 A2991 RMK AO2 DZB38 SLP123 $,M
05U,2021-12-30 09:50,-116.0051,39.6042,1811.23,21.20,17.60,85.74,170.00,4.00,0.00,29.82,M,10.00,M,SCT,BKN,OVC,M,300.00,3700.00,4400.00,M,M,M,M,M,M,M,M,14.81,K05U 300950Z AUTO 17004KT 10SM SCT003 BKN037 OVC044 M06/M08 A2982 RMK A01,M
CXP,2021-12-30 09:50,-119.7326,39.1923,1431.00,30.20,26.60,86.28,0.00,0.00,0.00,29.84,M,10.00,M,OVC,M,M,M,700.00,M,M,M,M,M,M,M,M,M,M,30.20,KCXP 300950Z AUTO 00000KT 10SM OVC007 M01/M03 A2984 RMK AO2,M
DRA,2021-12-30 09:51,-116.0278,36.6206,1009.00,35.60,33.80,93.08,100.00,3.00,0.01,29.90,M,10.00,M,FEW,BKN,OVC,M,1600.00,2500.00,8000.00,M,M,M,M,M,M,M,M,32.80,KDRA 300951Z AUTO 10003KT 10SM FEW016 BKN025 OVC080 02/01 A2990 RMK AO2 RAE27UPB0858E11B27E34 P0001,M
VGT,2021-12-30 09:53,-115.1933,36.2111,667.00,47.00,34.00,60.61,40.00,4.00,0.00,29.91,1014.80,10.00,M,OVC,M,M,M,5500.00,M,M,M,M,M,M,M,M,M,M,44.82,KVGT 300953Z AUTO 04004KT 10SM OVC055 08/01 A2991 RMK AO2 SLP148 T00830011,M
DRA,2021-12-30 09:53,-116.0278,36.6206,1009.00,36.00,34.00,92.35,0.00,0.00,0.01,29.90,1011.80,10.00,M,BKN,BKN,OVC,M,2500.00,5500.00,7000.00,M,M,M,M,M,M,M,M,36.00,KDRA 300953Z AUTO 00000KT 10SM BKN025 BKN055 OVC070 02/01 A2990 RMK AO2 RAE27UPB0858E11B27E34 SLP118 P0001 T00220011,M
ELY,2021-12-30 09:53,-114.8453,39.2950,1909.00,26.10,21.00,80.75,200.00,6.00,0.00,29.81,1010.80,10.00,M,FEW,OVC,M,M,2600.00,4600.00,M,M,M,M,M,M,M,M,M,18.42,KELY 300953Z AUTO 20006KT 10SM FEW026 OVC046 M03/M06 A2981 RMK AO2 SLP108 T10331061,M
LOL,2021-12-30 09:53,-118.5701,40.0684,1192.43,28.90,28.90,100.00,280.00,4.00,0.00,29.84,1012.40,0.50,M,VV ,M,M,M,200.00,M,M,M,FZFG,0.01,M,M,M,M,M,23.80,KLOL 300953Z AUTO 28004KT 1/2SM FZFG VV002 M02/M02 A2984 RMK AO2 SLP124 I1001 T10171017,M
TMT,2021-12-30 09:55,-117.1971,39.4643,1749.34,18.50,14.70,84.83,250.00,8.00,0.00,29.82,M,10.00,M,CLR,M,M,M,M,M,M,M,M,M,M,M,M,M,M,7.48,KTMT 300955Z AUTO 25008KT 10SM CLR M07/M10 A2982 RMK AO2 T10751096,M
BAM,2021-12-30 09:55,-116.8743,40.5990,1382.36,28.40,28.40,100.00,0.00,0.00,0.00,29.81,M,10.00,M,OVC,M,M,M,5000.00,M,M,M,M,M,M,M,M,M,M,28.40,KBAM 300955Z AUTO 00000KT 10SM OVC050 M02/M02 A2981 RMK AO1,M
MEV,2021-12-30 09:55,-119.7500,38.9963,1441.42,28.40,28.40,100.00,0.00,0.00,0.00,29.83,M,3.00,M,OVC,M,M,M,400.00,M,M,M,BR,M,M,M,M,M,M,28.40,KMEV 300955Z AUTO 00000KT 3SM BR OVC004 M02/M02 A2983 RMK AO2,M
BVU,2021-12-30 09:55,-114.8611,35.9475,671.00,48.20,33.80,57.26,160.00,7.00,0.00,29.92,M,10.00,M,OVC,M,M,M,4500.00,M,M,M,M,M,M,M,M,M,M,44.53,KBVU 300955Z AUTO 16007KT 10SM OVC045 09/01 A2992 RMK AO2,M
RTS,2021-12-30 09:55,-119.8764,39.6682,1539.00,26.60,26.60,100.00,50.00,3.00,0.00,29.83,M,3.00,M,OVC,M,M,M,300.00,M,M,M,BR,M,M,M,M,M,M,22.52,KRTS 300955Z AUTO 05003KT 3SM BR OVC003 M03/M03 A2983 RMK AO2,M
RNO,2021-12-30 09:55,-119.7711,39.4839,1341.00,30.90,26.10,82.15,10.00,4.00,0.00,29.84,1011.30,10.00,M,OVC,M,M,M,1000.00,M,M,M,M,M,M,M,M,M,M,26.14,KRNO 300955Z 01004KT 10SM OVC010 M01/M03 A2984 RMK AO2 SLP113 T10061033,M
HTH,2021-12-30 09:55,-118.6315,38.5448,1282.89,28.40,21.20,74.08,160.00,5.00,0.00,29.86,M,10.00,M,CLR,M,M,M,M,M,M,M,M,M,M,M,M,M,M,22.12,KHTH 300955Z AUTO 16005KT 10SM CLR M02/M06 A2986 RMK A01,M
WMC,2021-12-30 09:56,-117.8072,40.9019,1315.00,28.90,25.00,85.14,200.00,10.00,0.00,29.80,1010.50,10.00,M,OVC,M,M,M,4400.00,M,M,M,M,M,M,M,M,M,M,19.08,KWMC 300956Z AUTO 20010KT 10SM OVC044 M02/M04 A2980 RMK AO2 SLP105 T10171039,M
EKO,2021-12-30 09:56,-115.7860,40.8242,1367.00,23.00,19.90,87.70,0.00,0.00,0.00,29.77,1010.90,10.00,M,FEW,OVC,M,M,2400.00,4600.00,M,M,M,M,M,M,M,M,M,23.00,KEKO 300956Z AUTO 00000KT 10SM FEW024 OVC046 M05/M07 A2977 RMK AO2 SLP109 T10501067,M
LAS,2021-12-30 09:56,-115.1634,36.0719,663.00,45.00,35.00,68.05,290.00,3.00,0.00,29.92,1012.90,10.00,M,FEW,BKN,OVC,M,4000.00,6000.00,9000.00,M,M,M,M,M,M,M,M,43.55,KLAS 300956Z 29003KT 10SM FEW040 BKN060 OVC090 07/02 A2992 RMK AO2 SLP129 T00720017,M
HND,2021-12-30 09:56,-115.1344,35.9729,742.79,44.00,33.00,65.02,0.00,0.00,0.00,29.93,1015.30,10.00,M,BKN,OVC,M,M,4600.00,5500.00,M,M,M,M,M,M,M,M,M,44.10,KHND 300956Z AUTO 00000KT 10SM BKN046 OVC055 07/01 A2993 RMK AO2 SLP153 T00670006,M
TPH,2021-12-30 09:56,-117.0904,38.0505,1654.00,28.90,28.00,96.38,0.00,0.00,0.00,29.85,1012.30,10.00,M,OVC,M,M,M,1300.00,M,M,M,M,M,M,M,M,M,M,28.90,KTPH 300956Z AUTO 00000KT 10SM OVC013 M02/M02 A2985 RMK AO2 SLP123 T10171022,M
NFL,2021-12-30 09:56,-118.7010,39.4166,1199.00,30.90,30.00,96.41,190.00,6.00,0.00,29.83,1007.80,1.00,M,OVC,M,M,M,300.00,M,M,M,BR,M,M,M,M,M,M,24.21,KNFL 300956Z AUTO 19006KT 1SM BR OVC003 M01/M01 A2983 RMK AO2 SLP078 T10061011,M
INS,2021-12-30 09:58,-115.6733,36.5872,955.00,37.60,37.40,99.22,290.00,4.00,T,29.91,1012.30,10.00,M,FEW,FEW,M,M,3200.00,4500.00,M,M,-DZ,M,M,M,M,M,M,33.96,KINS 300958Z AUTO 29004KT 10SM -DZ FEW032 FEW045 03/03 A2991 RMK AO2 DZB38 SLP123 P0000 T00310030 $,M
LSV,2021-12-30 09:58,-115.0343,36.2362,570.00,47.50,35.00,61.91,50.00,5.00,0.00,29.92,1012.90,10.00,M,OVC,M,M,M,5500.00,M,M,M,M,M,M,M,M,M,M,44.80,KLSV 300958Z AUTO 05005KT 10SM OVC055 09/02 A2992 RMK AO2 SLP129 T00860017 $,M
NFL,2021-12-30 10:05,-118.7010,39.4166,1199.00,30.90,28.90,92.18,190.00,7.00,0.00,29.84,M,0.75,M,VV ,M,M,M,200.00,M,M,M,BR,M,M,M,M,M,M,23.44,KNFL 301005Z AUTO 19007KT 3/4SM BR VV002 M01/M02 A2984 RMK AO2 T10061017,M
CXP,2021-12-30 10:10,-119.7326,39.1923,1431.00,30.20,26.60,86.28,0.00,0.00,0.00,29.84,M,10.00,M,OVC,M,M,M,600.00,M,M,M,M,M,M,M,M,M,M,30.20,KCXP 301010Z AUTO 00000KT 10SM OVC006 M01/M03 A2984 RMK AO2,M
05U,2021-12-30 10:10,-116.0051,39.6042,1811.23,19.40,15.80,85.63,180.00,3.00,0.00,29.82,M,10.00,M,FEW,SCT,OVC,M,300.00,3400.00,4600.00,M,M,M,M,M,M,M,M,14.28,K05U 301010Z AUTO 18003KT 10SM FEW003 SCT034 OVC046 M07/M09 A2982 RMK A01,M
BAM,2021-12-30 10:15,-116.8743,40.5990,1382.36,28.40,28.40,100.00,0.00,0.00,0.00,29.81,M,10.00,M,OVC,M,M,M,5000.00,M,M,M,M,M,M,M,M,M,M,28.40,KBAM 301015Z AUTO 00000KT 10SM OVC050 M02/M02 A2981 RMK AO1,M
RTS,2021-12-30 10:15,-119.8764,39.6682,1539.00,26.60,26.60,100.00,90.00,3.00,0.00,29.83,M,3.00,M,OVC,M,M,M,300.00,M,M,M,BR,M,M,M,M,M,M,22.52,KRTS 301015Z AUTO 09003KT 3SM BR OVC003 M03/M03 A2983 RMK AO2,M
BVU,2021-12-30 10:15,-114.8611,35.9475,671.00,46.40,33.80,61.28,140.00,5.00,0.00,29.93,M,10.00,10.00,BKN,OVC,M,M,3900.00,4600.00,M,M,M,M,M,M,M,M,M,43.50,KBVU 301015Z AUTO 14005G10KT 10SM BKN039 OVC046 08/01 A2993 RMK AO2,M
TMT,2021-12-30 10:15,-117.1971,39.4643,1749.34,14.90,12.70,90.80,250.00,7.00,0.00,29.82,M,10.00,M,CLR,M,M,M,M,M,M,M,M,M,M,M,M,M,M,3.94,KTMT 301015Z AUTO 25007KT 10SM CLR M09/M11 A2982 RMK AO2 T10951107,M
HTH,2021-12-30 10:15,-118.6315,38.5448,1282.89,26.60,21.20,79.77,180.00,8.00,0.00,29.86,M,10.00,M,CLR,M,M,M,M,M,M,M,M,M,M,M,M,M,M,17.46,KHTH 301015Z AUTO 18008KT 10SM CLR M03/M06 A2986 RMK A01,M
MEV,2021-12-30 10:15,-119.7500,38.9963,1441.42,28.40,28.40,100.00,0.00,0.00,0.00,29.84,M,6.00,M,OVC,M,M,M,800.00,M,M,M,BR,M,M,M,M,M,M,28.40,KMEV 301015Z AUTO 00000KT 6SM BR OVC008 M02/M02 A2984 RMK AO2,M
INS,2021-12-30 10:17,-115.6733,36.5872,955.00,37.40,37.40,100.00,290.00,5.00,0.00,29.90,1012.00,10.00,M,FEW,M,M,M,4700.00,M,M,M,M,M,M,M,M,M,M,32.81,KINS 301017Z AUTO 29005KT 10SM FEW047 03/03 A2990 RMK AO2 DZE0958RAB0958E14DZB14E17DZB17 SLP120 $,M
NFL,2021-12-30 10:19,-118.7010,39.4166,1199.00,30.00,28.90,95.61,210.00,5.00,0.00,29.84,M,0.25,M,VV ,M,M,M,200.00,M,M,M,FZFG,M,M,M,M,M,M,24.02,KNFL 301019Z AUTO 21005KT 1/4SM FZFG VV002 M01/M02 A2984 RMK AO2 T10111017,M
TPH,2021-12-30 10:22,-117.0904,38.0505,1654.00,28.90,28.00,96.38,0.00,0.00,0.00,29.85,M,10.00,M,FEW,OVC,M,M,1300.00,2200.00,M,M,M,M,M,M,M,M,M,28.90,KTPH 301022Z AUTO 00000KT 10SM FEW013 OVC022 M02/M02 A2985 RMK AO2 T10171022,M
LOL,2021-12-30 10:27,-118.5701,40.0684,1192.43,28.90,28.00,96.38,0.00,0.00,0.00,29.84,M,0.25,M,VV ,M,M,M,200.00,M,M,M,FZFG,M,M,M,M,M,M,28.90,KLOL 301027Z AUTO 00000KT 1/4SM FZFG VV002 M02/M02 A2984 RMK AO2 T10171022,M
05U,2021-12-30 10:30,-116.0051,39.6042,1811.23,14.00,12.20,92.38,0.00,0.00,0.00,29.82,M,10.00,M,FEW,BKN,OVC,M,2700.00,3300.00,4400.00,M,M,M,M,M,M,M,M,14.00,K05U 301030Z AUTO 00000KT 10SM FEW027 BKN033 OVC044 M10/M11 A2982 RMK A01,M
CXP,2021-12-30 10:30,-119.7326,39.1923,1431.00,30.20,26.60,86.28,0.00,0.00,0.00,29.85,M,10.00,M,OVC,M,M,M,600.00,M,M,M,M,M,M,M,M,M,M,30.20,KCXP 301030Z AUTO 00000KT 10SM OVC006 M01/M03 A2985 RMK AO2,M
INS,2021-12-30 10:32,-115.6733,36.5872,955.00,35.60,35.60,100.00,290.00,7.00,0.00,29.91,1012.50,10.00,M,BKN,BKN,M,M,6000.00,7500.00,M,M,M,M,M,M,M,M,M,29.17,KINS 301032Z AUTO 29007KT 10SM BKN060 BKN075 02/02 A2991 RMK AO2 DZE0958RAB0958E14DZB14E17DZB17E17 SLP125 $,M
BVU,2021-12-30 10:35,-114.8611,35.9475,671.00,46.40,33.80,61.28,0.00,0.00,0.00,29.93,M,10.00,M,BKN,OVC,M,M,4000.00,4800.00,M,M,M,M,M,M,M,M,M,46.40,KBVU 301035Z AUTO 00000KT 10SM BKN040 OVC048 08/01 A2993 RMK AO2,M
TMT,2021-12-30 10:35,-117.1971,39.4643,1749.34,12.40,10.80,93.15,80.00,4.00,0.00,29.82,M,10.00,M,CLR,M,M,M,M,M,M,M,M,M,M,M,M,M,M,4.53,KTMT 301035Z AUTO 08004KT 10SM CLR M11/M12 A2982 RMK AO2 T11091118,M
HTH,2021-12-30 10:35,-118.6315,38.5448,1282.89,26.60,21.20,79.77,160.00,6.00,0.00,29.86,M,10.00,M,CLR,M,M,M,M,M,M,M,M,M,M,M,M,M,M,19.03,KHTH 301035Z AUTO 16006KT 10SM CLR M03/M06 A2986 RMK A01,M
BAM,2021-12-30 10:35,-116.8743,40.5990,1382.36,32.00,30.20,92.97,280.00,11.00,0.00,29.81,M,10.00,M,OVC,M,M,M,4800.00,M,M,M,M,M,M,M,M,M,M,22.47,KBAM 301035Z AUTO 28011KT 10SM OVC048 00/M01 A2981 RMK AO1,M
MEV,2021-12-30 10:35,-119.7500,38.9963,1441.42,28.40,26.60,92.86,90.00,3.00,0.00,29.84,M,9.00,M,OVC,M,M,M,700.00,M,M,M,M,M,M,M,M,M,M,24.57,KMEV 301035Z AUTO 09003KT 9SM OVC007 M02/M03 A2984 RMK AO2,M
RTS,2021-12-30 10:35,-119.8764,39.6682,1539.00,26.60,26.60,100.00,0.00,0.00,0.00,29.83,M,4.00,M,OVC,M,M,M,400.00,M,M,M,BR,M,M,M,M,M,M,26.60,KRTS 301035Z AUTO 00000KT 4SM BR OVC004 M03/M03 A2983 RMK AO2,M
DRA,2021-12-30 10:47,-116.0278,36.6206,1009.00,36.00,35.00,96.49,0.00,0.00,T,29.89,M,10.00,M,FEW,BKN,OVC,M,600.00,2400.00,4400.00,M,M,M,M,M,M,M,M,36.00,KDRA 301047Z AUTO 00000KT 10SM FEW006 BKN024 OVC044 02/02 A2989 RMK AO2 UPB00E10 P0000 T00220017,M
05U,2021-12-30 10:50,-116.0051,39.6042,1811.23,14.00,10.40,85.28,0.00,0.00,0.00,29.82,M,10.00,M,FEW,SCT,BKN,M,2600.00,3400.00,4100.00,M,M,M,M,M,M,M,M,14.00,K05U 301050Z AUTO 00000KT 10SM FEW026 SCT034 BKN041 M10/M12 A2982 RMK A01,M
CXP,2021-12-30 10:50,-119.7326,39.1923,1431.00,30.20,26.60,86.28,0.00,0.00,0.00,29.85,M,10.00,M,OVC,M,M,M,600.00,M,M,M,M,M,M,M,M,M,M,30.20,KCXP 301050Z AUTO 00000KT 10SM OVC006 M01/M03 A2985 RMK AO2,M
EKO,2021-12-30 10:52,-115.7860,40.8242,1367.00,24.80,19.40,79.62,0.00,0.00,0.00,29.78,M,10.00,M,BKN,OVC,M,M,2100.00,4500.00,M,M,M,M,M,M,M,M,M,24.80,KEKO 301052Z AUTO 00000KT 10SM BKN021 OVC045 M04/M07 A2978 RMK AO2,M
DRA,2021-12-30 10:53,-116.0278,36.6206,1009.00,36.00,35.00,96.49,0.00,0.00,T,29.89,1011.50,10.00,M,FEW,BKN,OVC,M,600.00,2900.00,3700.00,M,M,M,M,M,M,M,M,36.00,KDRA 301053Z AUTO 00000KT 10SM FEW006 BKN029 OVC037 02/02 A2989 RMK AO2 UPB00E10 SLP115 P0000 T00220017,M
VGT,2021-12-30 10:53,-115.1933,36.2111,667.00,46.00,33.00,60.49,70.00,3.00,0.00,29.91,1014.80,10.00,M,BKN,BKN,OVC,M,5000.00,8500.00,11000.00,M,M,M,M,M,M,M,M,44.69,KVGT 301053Z AUTO 07003KT 10SM BKN050 BKN085 OVC110 08/01 A2991 RMK AO2 SLP148 T00780006,M
ELY,2021-12-30 10:53,-114.8453,39.2950,1909.00,25.00,21.00,84.53,170.00,5.00,T,29.80,1010.60,10.00,M,FEW,BKN,OVC,M,2100.00,2700.00,4800.00,M,M,M,M,M,M,M,M,18.08,KELY 301053Z AUTO 17005KT 10SM FEW021 BKN027 OVC048 M04/M06 A2980 RMK AO2 SNB17E37 SLP106 P0000 T10391061,M
LOL,2021-12-30 10:53,-118.5701,40.0684,1192.43,28.90,28.90,100.00,0.00,0.00,0.00,29.84,1012.30,0.25,M,VV ,M,M,M,200.00,M,M,M,FZFG,M,M,M,M,M,M,28.90,KLOL 301053Z AUTO 00000KT 1/4SM FZFG VV002 M02/M02 A2984 RMK AO2 SLP123 T10171017,M
TPH,2021-12-30 10:54,-117.0904,38.0505,1654.00,28.40,28.40,100.00,350.00,4.00,0.00,29.85,M,10.00,M,BKN,OVC,M,M,1200.00,2500.00,M,M,M,M,M,M,M,M,M,23.22,KTPH 301054Z AUTO 35004KT 10SM BKN012 OVC025 M02/M02 A2985 RMK AO2,M
TMT,2021-12-30 10:55,-117.1971,39.4643,1749.34,14.40,12.00,89.98,100.00,4.00,0.00,29.82,M,10.00,M,CLR,M,M,M,M,M,M,M,M,M,M,M,M,M,M,6.87,KTMT 301055Z AUTO 10004KT 10SM CLR M10/M11 A2982 RMK AO2 T10981111,M
BAM,2021-12-30 10:55,-116.8743,40.5990,1382.36,32.00,28.40,86.39,270.00,12.00,0.00,29.81,M,10.00,17.00,OVC,M,M,M,4600.00,M,M,M,M,M,M,M,M,M,M,22.00,KBAM 301055Z AUTO 27012G17KT 10SM OVC046 00/M02 A2981 RMK AO1,M
RNO,2021-12-30 10:55,-119.7711,39.4839,1341.00,30.00,26.10,85.21,0.00,0.00,0.00,29.83,1010.90,10.00,M,OVC,M,M,M,1000.00,M,M,M,M,M,M,M,M,M,M,30.00,KRNO 301055Z 00000KT 10SM OVC010 M01/M03 A2983 RMK AO2 SLP109 T10111033,M
RTS,2021-12-30 10:55,-119.8764,39.6682,1539.00,26.60,26.60,100.00,0.00,0.00,0.00,29.83,M,3.00,M,OVC,M,M,M,300.00,M,M,M,BR,M,M,M,M,M,M,26.60,KRTS 301055Z AUTO 00000KT 3SM BR OVC003 M03/M03 A2983 RMK AO2,M
BVU,2021-12-30 10:55,-114.8611,35.9475,671.00,46.40,33.80,61.28,0.00,0.00,0.00,29.92,M,10.00,M,FEW,OVC,M,M,3800.00,4800.00,M,M,M,M,M,M,M,M,M,46.40,KBVU 301055Z AUTO 00000KT 10SM FEW038 OVC048 08/01 A2992 RMK AO2,M
HTH,2021-12-30 10:55,-118.6315,38.5448,1282.89,26.60,21.20,79.77,140.00,8.00,0.00,29.85,M,10.00,M,CLR,M,M,M,M,M,M,M,M,M,M,M,M,M,M,17.46,KHTH 301055Z AUTO 14008KT 10SM CLR M03/M06 A2985 RMK A01,M
MEV,2021-12-30 10:55,-119.7500,38.9963,1441.42,28.40,26.60,92.86,90.00,4.00,0.00,29.84,M,10.00,M,OVC,M,M,M,800.00,M,M,M,M,M,M,M,M,M,M,23.22,KMEV 301055Z AUTO 09004KT 10SM OVC008 M02/M03 A2984 RMK AO2,M
TPH,2021-12-30 10:56,-117.0904,38.0505,1654.00,28.90,28.00,96.38,350.00,4.00,0.00,29.85,1012.30,10.00,M,BKN,OVC,M,M,1200.00,2500.00,M,M,M,M,M,M,M,M,M,23.80,KTPH 301056Z AUTO 35004KT 10SM BKN012 OVC025 M02/M02 A2985 RMK AO2 SLP123 T10171022,M
NFL,2021-12-30 10:56,-118.7010,39.4166,1199.00,28.90,28.00,96.38,200.00,4.00,0.00,29.85,1008.40,0.25,M,VV ,M,M,M,200.00,M,M,M,FZFG,M,M,M,M,M,M,23.80,KNFL 301056Z AUTO 20004KT 1/4SM FZFG VV002 M02/M02 A2985 RMK AO2 SLP084 T10171022,M
WMC,2021-12-30 10:56,-117.8072,40.9019,1315.00,28.90,25.00,85.14,190.00,9.00,0.00,29.78,1009.90,10.00,M,OVC,M,M,M,4300.00,M,M,M,M,M,M,M,M,M,M,19.66,KWMC 301056Z AUTO 19009KT 10SM OVC043 M02/M04 A2978 RMK AO2 SLP099 T10171039,M
EKO,2021-12-30 10:56,-115.7860,40.8242,1367.00,24.10,21.00,87.76,0.00,0.00,0.00,29.77,1010.80,10.00,M,BKN,OVC,M,M,2100.00,4500.00,M,M,M,M,M,M,M,M,M,24.10,KEKO 301056Z AUTO 00000KT 10SM BKN021 OVC045 M04/M06 A2977 RMK AO2 SLP108 T10441061,M
LAS,2021-12-30 10:56,-115.1634,36.0719,663.00,45.00,35.00,68.05,270.00,3.00,0.00,29.91,1012.80,10.00,M,FEW,BKN,OVC,M,4500.00,5500.00,8500.00,M,M,M,M,M,M,M,M,43.55,KLAS 301056Z 27003KT 10SM FEW045 BKN055 OVC085 07/02 A2991 RMK AO2 SLP128 MTNS OBSCURED DSNT NW-N T00720017,M
HND,2021-12-30 10:56,-115.1344,35.9729,742.79,44.00,33.00,65.02,210.00,4.00,0.00,29.92,1015.10,10.00,M,FEW,OVC,M,M,4500.00,9500.00,M,M,M,M,M,M,M,M,M,41.55,KHND 301056Z AUTO 21004KT 10SM FEW045 OVC095 07/01 A2992 RMK AO2 SLP151 T00670006,M
LSV,2021-12-30 10:58,-115.0343,36.2362,570.00,48.00,35.00,60.28,140.00,7.00,0.00,29.91,1012.60,10.00,M,OVC,M,M,M,5000.00,M,M,M,M,M,M,M,M,M,M,44.28,KLSV 301058Z AUTO 14007KT 10SM OVC050 09/02 A2991 RMK AO2 SLP126 T00890016 $,M
INS,2021-12-30 10:58,-115.6733,36.5872,955.00,36.00,36.00,99.60,300.00,6.00,T,29.90,1012.20,10.00,M,FEW,OVC,M,M,3200.00,6000.00,M,M,M,M,M,M,M,M,M,30.47,KINS 301058Z AUTO 30006KT 10SM FEW032 OVC060 02/02 A2990 RMK AO2 DZE0958RAB0958E14DZB14E17DZB17E17 SLP122 P0000 T00230022 $,M
DRA,2021-12-30 11:04,-116.0278,36.6206,1009.00,36.00,34.00,92.35,0.00,0.00,0.00,29.88,M,10.00,M,SCT,BKN,OVC,M,2700.00,3700.00,4800.00,M,M,M,M,M,M,M,M,36.00,KDRA 301104Z AUTO 00000KT 10SM SCT027 BKN037 OVC048 02/01 A2988 RMK AO2 T00220011,M
LOL,2021-12-30 11:05,-118.5701,40.0684,1192.43,28.90,28.00,96.38,140.00,4.00,0.00,29.83,M,0.50,M,VV ,M,M,M,400.00,M,M,M,FZFG,M,M,M,M,M,M,23.80,KLOL 301105Z AUTO 14004KT 1/2SM FZFG VV004 M02/M02 A2983 RMK AO2 T10171022,M
INS,2021-12-30 11:07,-115.6733,36.5872,955.00,37.40,35.60,93.14,310.00,4.00,0.00,29.90,1012.00,10.00,M,FEW,FEW,SCT,OVC,900.00,2500.00,3100.00,6500.00,M,M,M,M,M,M,M,33.73,KINS 301107Z AUTO 31004KT 10SM FEW009 FEW025 SCT031 OVC065 03/02 A2990 RMK AO2 SLP120 $,M
CXP,2021-12-30 11:10,-119.7326,39.1923,1431.00,30.20,26.60,86.28,190.00,4.00,0.00,29.84,M,9.00,M,OVC,M,M,M,700.00,M,M,M,M,M,M,M,M,M,M,25.32,KCXP 301110Z AUTO 19004KT 9SM OVC007 M01/M03 A2984 RMK AO2,M
05U,2021-12-30 11:10,-116.0051,39.6042,1811.23,10.40,6.80,85.05,0.00,0.00,0.00,29.81,M,10.00,M,FEW,FEW,M,M,4100.00,4900.00,M,M,M,M,M,M,M,M,M,10.40,K05U 301110Z AUTO 00000KT 10SM FEW041 FEW049 M12/M14 A2981 RMK A01,M
INS,2021-12-30 11:12,-115.6733,36.5872,955.00,37.40,35.60,93.14,310.00,5.00,0.00,29.91,1012.30,10.00,M,FEW,FEW,BKN,OVC,900.00,2500.00,2900.00,6500.00,M,M,M,M,M,M,M,32.81,KINS 301112Z AUTO 31005KT 10SM FEW009 FEW025 BKN029 OVC065 03/02 A2991 RMK AO2 CIG 029V065 SLP123 $,M
LOL,2021-12-30 11:13,-118.5701,40.0684,1192.43,28.90,28.00,96.38,150.00,3.00,0.00,29.83,M,2.00,M,OVC,M,M,M,500.00,M,M,M,BR,M,M,M,M,M,M,25.14,KLOL 301113Z AUTO 15003KT 2SM BR OVC005 M02/M02 A2983 RMK AO2 T10171022,M
HTH,2021-12-30 11:15,-118.6315,38.5448,1282.89,26.60,21.20,79.77,140.00,5.00,0.00,29.85,M,10.00,M,CLR,M,M,M,M,M,M,M,M,M,M,M,M,M,M,19.98,KHTH 301115Z AUTO 14005KT 10SM CLR M03/M06 A2985 RMK A01,M
BVU,2021-12-30 11:15,-114.8611,35.9475,671.00,46.40,33.80,61.28,0.00,0.00,0.00,29.93,M,10.00,M,OVC,M,M,M,4700.00,M,M,M,M,M,M,M,M,M,M,46.40,KBVU 301115Z AUTO 00000KT 10SM OVC047 08/01 A2993 RMK AO2,M
RTS,2021-12-30 11:15,-119.8764,39.6682,1539.00,26.60,26.60,100.00,0.00,0.00,0.00,29.83,M,3.00,M,OVC,M,M,M,300.00,M,M,M,BR,M,M,M,M,M,M,26.60,KRTS 301115Z AUTO 00000KT 3SM BR OVC003 M03/M03 A2983 RMK AO2,M
MEV,2021-12-30 11:15,-119.7500,38.9963,1441.42,28.40,26.60,92.86,130.00,4.00,0.00,29.83,M,10.00,M,OVC,M,M,M,800.00,M,M,M,M,M,M,M,M,M,M,23.22,KMEV 301115Z AUTO 13004KT 10SM OVC008 M02/M03 A2983 RMK AO2,M
BAM,2021-12-30 11:15,-116.8743,40.5990,1382.36,32.00,30.20,92.97,250.00,10.00,0.00,29.81,M,10.00,M,SCT,SCT,OVC,M,1500.00,2200.00,4600.00,M,M,M,M,M,M,M,M,22.97,KBAM 301115Z AUTO 25010KT 10SM SCT015 SCT022 OVC046 00/M01 A2981 RMK AO1,M
TMT,2021-12-30 11:15,-117.1971,39.4643,1749.34,11.70,9.30,89.85,200.00,6.00,0.00,29.82,M,10.00,M,CLR,M,M,M,M,M,M,M,M,M,M,M,M,M,M,1.08,KTMT 301115Z AUTO 20006KT 10SM CLR M11/M13 A2982 RMK AO2 T11131126,M
TPH,2021-12-30 11:17,-117.0904,38.0505,1654.00,28.90,28.00,96.38,10.00,3.00,0.00,29.85,M,10.00,M,BKN,OVC,M,M,700.00,1100.00,M,M,M,M,M,M,M,M,M,25.14,KTPH 301117Z AUTO 01003KT 10SM BKN007 OVC011 M02/M02 A2985 RMK AO2 T10171022,M
LOL,2021-12-30 11:21,-118.5701,40.0684,1192.43,28.90,28.00,96.38,0.00,0.00,0.00,29.83,M,6.00,M,OVC,M,M,M,500.00,M,M,M,BR,M,M,M,M,M,M,28.90,KLOL 301121Z AUTO 00000KT 6SM BR OVC005 M02/M02 A2983 RMK AO2 T10171022,M
NFL,2021-12-30 11:25,-118.7010,39.4166,1199.00,28.90,28.00,96.38,180.00,4.00,0.00,29.84,M,0.50,M,VV ,M,M,M,200.00,M,M,M,FZFG,M,M,M,M,M,M,23.80,KNFL 301125Z AUTO 18004KT 1/2SM FZFG VV002 M02/M02 A2984 RMK AO2 T10171022,M
CXP,2021-12-30 11:30,-119.7326,39.1923,1431.00,30.20,26.60,86.28,0.00,0.00,0.00,29.83,M,10.00,M,OVC,M,M,M,700.00,M,M,M,M,M,M,M,M,M,M,30.20,KCXP 301130Z AUTO 00000KT 10SM OVC007 M01/M03 A2983 RMK AO2,M
05U,2021-12-30 11:30,-116.0051,39.6042,1811.23,8.60,6.80,92.19,0.00,0.00,0.00,29.81,M,10.00,M,CLR,M,M,M,M,M,M,M,M,M,M,M,M,M,M,8.60,K05U 301130Z AUTO 00000KT 10SM CLR M13/M14 A2981 RMK A01,M
BAM,2021-12-30 11:35,-116.8743,40.5990,1382.36,30.20,30.20,100.00,230.00,6.00,0.00,29.79,M,10.00,M,SCT,SCT,BKN,M,1300.00,2200.00,4400.00,M,M,M,M,M,M,M,M,23.36,KBAM 301135Z AUTO 23006KT 10SM SCT013 SCT022 BKN044 M01/M01 A2979 RMK AO1,M
BVU,2021-12-30 11:35,-114.8611,35.9475,671.00,46.40,33.80,61.28,0.00,0.00,0.00,29.92,M,10.00,M,OVC,M,M,M,4800.00,M,M,M,M,M,M,M,M,M,M,46.40,KBVU 301135Z AUTO 00000KT 10SM OVC048 08/01 A2992 RMK AO2,M
RTS,2021-12-30 11:35,-119.8764,39.6682,1539.00,26.60,24.80,92.80,0.00,0.00,0.00,29.81,M,2.50,M,OVC,M,M,M,300.00,M,M,M,BR,M,M,M,M,M,M,26.60,KRTS 301135Z AUTO 00000KT 2 1/2SM BR OVC003 M03/M04 A2981 RMK AO2,M
MEV,2021-12-30 11:35,-119.7500,38.9963,1441.42,28.40,26.60,92.86,0.00,0.00,0.00,29.83,M,10.00,M,OVC,M,M,M,800.00,M,M,M,M,M,M,M,M,M,M,28.40,KMEV 301135Z AUTO 00000KT 10SM OVC008 M02/M03 A2983 RMK AO2,M
HTH,2021-12-30 11:35,-118.6315,38.5448,1282.89,28.40,21.20,74.08,0.00,0.00,0.00,29.85,M,10.00,M,CLR,M,M,M,M,M,M,M,M,M,M,M,M,M,M,28.40,KHTH 301135Z AUTO 00000KT 10SM CLR M02/M06 A2985 RMK A01,M
TMT,2021-12-30 11:35,-117.1971,39.4643,1749.34,16.20,13.10,87.33,210.00,11.00,0.00,29.81,M,10.00,M,CLR,M,M,M,M,M,M,M,M,M,M,M,M,M,M,2.50,KTMT 301135Z AUTO 21011KT 10SM CLR M09/M10 A2981 RMK AO2 T10881105,M
NFL,2021-12-30 11:36,-118.7010,39.4166,1199.00,28.90,28.00,96.38,180.00,5.00,0.00,29.83,M,0.25,M,VV ,M,M,M,200.00,M,M,M,FZFG,M,M,M,M,M,M,22.71,KNFL 301136Z AUTO 18005KT 1/4SM FZFG VV002 M02/M02 A2983 RMK AO2 T10171022,M
INS,2021-12-30 11:42,-115.6733,36.5872,955.00,35.60,35.60,100.00,290.00,4.00,0.00,29.89,1011.90,10.00,M,SCT,BKN,M,M,2900.00,6000.00,M,M,M,M,M,M,M,M,M,31.62,KINS 301142Z AUTO 29004KT 10SM SCT029 BKN060 02/02 A2989 RMK AO2 SLP119 $,M
NFL,2021-12-30 11:43,-118.7010,39.4166,1199.00,28.90,27.00,92.49,160.00,6.00,0.00,29.83,M,0.50,M,VV ,M,M,M,200.00,M,M,M,FZFG,M,M,M,M,M,M,21.80,KNFL 301143Z AUTO 16006KT 1/2SM FZFG VV002 M02/M03 A2983 RMK AO2 T10171028,M
TPH,2021-12-30 11:48,-117.0904,38.0505,1654.00,30.00,28.90,95.61,0.00,0.00,0.00,29.84,M,10.00,M,OVC,M,M,M,600.00,M,M,M,M,M,M,M,M,M,M,30.00,KTPH 301148Z AUTO 00000KT 10SM OVC006 M01/M02 A2984 RMK AO2 CIG 004V009 T10111017,M
05U,2021-12-30 11:50,-116.0051,39.6042,1811.23,8.60,5.00,84.93,200.00,5.00,0.00,29.80,M,10.00,M,CLR,M,M,M,M,M,M,M,M,M,M,M,M,M,M,-1.39,K05U 301150Z AUTO 20005KT 10SM CLR M13/M15 A2980 RMK A01,M
CXP,2021-12-30 11:50,-119.7326,39.1923,1431.00,30.20,26.60,86.28,170.00,3.00,0.00,29.83,M,10.00,M,OVC,M,M,M,700.00,M,M,M,M,M,M,M,M,M,M,26.63,KCXP 301150Z AUTO 17003KT 10SM OVC007 M01/M03 A2983 RMK AO2,M
LOL,2021-12-30 11:53,-118.5701,40.0684,1192.43,28.90,28.90,100.00,0.00,0.00,0.00,29.82,1011.70,8.00,M,OVC,M,M,M,500.00,M,M,M,M,M,M,0.01,M,M,M,28.90,KLOL 301153Z AUTO 00000KT 8SM OVC005 M02/M02 A2982 RMK AO2 SLP117 70006 I6001 T10171017 11011 21017 58003,M
DRA,2021-12-30 11:53,-116.0278,36.6206,1009.00,36.00,34.00,92.35,0.00,0.00,0.00,29.88,1011.50,10.00,M,BKN,OVC,M,M,3200.00,3800.00,M,M,M,M,M,M,M,M,M,36.00,KDRA 301153Z AUTO 00000KT 10SM BKN032 OVC038 02/01 A2988 RMK AO2 SLP115 60009 70009 T00220011 10050 20022 58003,M
ELY,2021-12-30 11:53,-114.8453,39.2950,1909.00,25.00,21.00,84.53,190.00,7.00,0.00,29.79,1010.40,10.00,M,BKN,M,M,M,2400.00,M,M,M,M,M,M,M,M,M,M,16.25,KELY 301153Z AUTO 19007KT 10SM BKN024 M04/M06 A2979 RMK AO2 SLP104 60000 T10391061 11028 21050 58000,M
VGT,2021-12-30 11:53,-115.1933,36.2111,667.00,46.00,34.00,62.71,0.00,0.00,0.00,29.90,1014.20,10.00,M,OVC,M,M,M,5000.00,M,M,M,M,M,M,M,M,M,M,46.00,KVGT 301153Z AUTO 00000KT 10SM OVC050 08/01 A2990 RMK AO2 SLP142 T00780011 10089 20072 58002,M
EKO,2021-12-30 11:54,-115.7860,40.8242,1367.00,26.60,23.00,86.07,200.00,6.03,M,29.75,M,10.00,M,SCT,OVC,M,M,2299.00,4399.00,M,M,M,M,M,M,M,M,M,19.00,SPECI KEKO 301154Z 20006KT 10SM SCT023 OVC044 M03/M05 A2975 RMK AO2 FIBI,M
HTH,2021-12-30 11:55,-118.6315,38.5448,1282.89,28.40,19.40,68.61,130.00,9.00,0.00,29.84,M,10.00,M,CLR,M,M,M,M,M,M,M,M,M,M,M,M,M,M,19.04,KHTH 301155Z AUTO 13009KT 10SM CLR M02/M07 A2984 RMK A01,M
BVU,2021-12-30 11:55,-114.8611,35.9475,671.00,44.60,33.80,65.61,0.00,0.00,0.00,29.92,M,10.00,M,OVC,M,M,M,4800.00,M,M,M,M,M,M,M,M,M,M,44.60,KBVU 301155Z AUTO 00000KT 10SM OVC048 07/01 A2992 RMK AO2,M
RNO,2021-12-30 11:55,-119.7711,39.4839,1341.00,28.90,26.10,89.12,0.00,0.00,0.00,29.81,1010.60,8.00,M,OVC,M,M,M,1000.00,M,M,M,M,M,M,M,M,M,M,28.90,KRNO 301155Z 00000KT 8SM OVC010 M02/M03 A2981 RMK AO2 SLP106 4/001 70004 T10171033 11006 21017 58003,1
RTS,2021-12-30 11:55,-119.8764,39.6682,1539.00,26.60,24.80,92.80,130.00,4.00,0.00,29.81,M,2.00,M,OVC,M,M,M,300.00,M,M,M,BR,M,M,M,M,M,M,21.11,KRTS 301155Z AUTO 13004KT 2SM BR OVC003 M03/M04 A2981 RMK AO2,M
MEV,2021-12-30 11:55,-119.7500,38.9963,1441.42,28.40,24.80,86.18,210.00,5.00,0.00,29.82,M,10.00,M,OVC,M,M,M,900.00,M,M,M,M,M,M,M,M,M,M,22.12,KMEV 301155Z AUTO 21005KT 10SM OVC009 M02/M04 A2982 RMK AO2,M
BAM,2021-12-30 11:55,-116.8743,40.5990,1382.36,26.60,26.60,100.00,210.00,4.00,0.00,29.79,M,10.00,M,CLR,M,M,M,M,M,M,M,M,M,M,M,M,M,M,21.11,KBAM 301155Z AUTO 21004KT 10SM CLR M03/M03 A2979 RMK AO1,M
TMT,2021-12-30 11:55,-117.1971,39.4643,1749.34,16.70,13.10,85.46,220.00,9.00,0.00,29.81,M,10.00,M,CLR,M,M,M,M,M,M,M,M,M,M,M,M,M,M,4.49,KTMT 301155Z AUTO 22009KT 10SM CLR M08/M10 A2981 RMK AO2 T10851105 11033 21113,M
WMC,2021-12-30 11:56,-117.8072,40.9019,1315.00,28.90,25.00,85.14,180.00,11.00,0.00,29.76,1009.20,10.00,M,OVC,M,M,M,4100.00,M,M,M,M,M,M,M,M,M,M,18.55,KWMC 301156Z AUTO 18011KT 10SM OVC041 M02/M04 A2976 RMK AO2 SLP092 70021 T10171039 11011 21044 58010,M
LAS,2021-12-30 11:56,-115.1634,36.0719,663.00,45.00,36.00,70.53,0.00,0.00,0.00,29.90,1012.30,10.00,M,SCT,BKN,OVC,M,5000.00,7000.00,9000.00,M,M,M,M,M,M,M,M,45.00,KLAS 301156Z 00000KT 10SM SCT050 BKN070 OVC090 07/02 A2990 RMK AO2 SLP123 MTNS OBSCURED DSNT NW-N T00720022 10083 20072 58003,M
TPH,2021-12-30 11:56,-117.0904,38.0505,1654.00,30.00,28.90,95.61,0.00,0.00,0.00,29.84,1011.60,10.00,M,OVC,M,M,M,500.00,M,M,M,M,M,M,M,M,M,M,30.00,KTPH 301156Z AUTO 00000KT 10SM OVC005 M01/M02 A2984 RMK AO2 SLP116 T10111017 11011 21017 58004,M
HND,2021-12-30 11:56,-115.1344,35.9729,742.79,45.00,34.00,65.13,220.00,7.00,0.00,29.91,1014.70,10.00,M,OVC,M,M,M,5000.00,M,M,M,M,M,M,M,M,M,M,40.63,KHND 301156Z AUTO 22007KT 10SM OVC050 07/01 A2991 RMK AO2 SLP147 T00720011 10078 20061 58003,M
NFL,2021-12-30 11:56,-118.7010,39.4166,1199.00,28.00,26.10,92.46,160.00,5.00,0.00,29.82,1007.60,0.50,M,VV ,M,M,M,200.00,M,M,M,FZFG,M,M,M,M,M,M,21.64,KNFL 301156Z AUTO 16005KT 1/2SM FZFG VV002 M02/M03 A2982 RMK AO2 SLP076 60000 T10221033 10000 21022 58005,M
EKO,2021-12-30 11:56,-115.7860,40.8242,1367.00,27.00,23.00,84.66,200.00,6.00,0.00,29.75,1009.70,10.00,M,SCT,OVC,M,M,2300.00,4400.00,M,M,M,M,M,M,M,M,M,19.51,KEKO 301156Z AUTO 20006KT 10SM SCT023 OVC044 M03/M05 A2975 RMK AO2 SLP097 60000 70015 T10281050 11022 21072 56007,M
INS,2021-12-30 11:58,-115.6733,36.5872,955.00,35.00,35.00,99.21,280.00,6.00,0.00,29.89,1011.90,10.00,M,FEW,BKN,BKN,M,2900.00,5500.00,8000.00,M,M,M,M,M,M,M,M,29.26,KINS 301158Z AUTO 28006KT 10SM FEW029 BKN055 BKN080 02/02 A2989 RMK AO2 SLP119 60002 70002 T00170016 10047 20017 58003 $,M
LSV,2021-12-30 11:58,-115.0343,36.2362,570.00,46.60,35.40,64.82,110.00,4.00,0.00,29.90,1012.40,10.00,M,SCT,BKN,M,M,5000.00,9000.00,M,M,M,M,M,M,M,M,M,44.47,KLSV 301158Z AUTO 11004KT 10SM SCT050 BKN090 08/02 A2990 RMK AO2 SLP124 T00810019 10090 20074 58002 $,M
NFL,2021-12-30 12:00,-118.7010,39.4166,1199.00,28.00,26.10,92.46,160.00,5.00,0.00,29.82,M,0.25,M,VV ,M,M,M,100.00,M,M,M,FZFG,M,M,M,M,M,M,21.64,KNFL 301200Z AUTO 16005KT 1/4SM FZFG VV001 M02/M03 A2982 RMK AO2 T10221033,M
LSV,2021-12-30 12:09,-115.0343,36.2362,570.00,46.40,35.60,65.83,60.00,5.00,0.00,29.90,1012.40,10.00,M,FEW,BKN,BKN,M,4000.00,4900.00,9000.00,M,M,M,M,M,M,M,M,43.50,KLSV 301209Z AUTO 06005KT 10SM FEW040 BKN049 BKN090 08/02 A2990 RMK AO2 SLP124 $,M
LOL,2021-12-30 12:09,-118.5701,40.0684,1192.43,28.90,28.90,100.00,0.00,0.00,0.00,29.82,M,2.00,M,OVC,M,M,M,300.00,M,M,M,BR,M,M,M,M,M,M,28.90,KLOL 301209Z AUTO 00000KT 2SM BR OVC003 M02/M02 A2982 RMK AO2 T10171017,M
CXP,2021-12-30 12:10,-119.7326,39.1923,1431.00,30.20,26.60,86.28,160.00,3.00,0.00,29.82,M,10.00,M,OVC,M,M,M,700.00,M,M,M,M,M,M,M,M,M,M,26.63,KCXP 301210Z AUTO 16003KT 10SM OVC007 M01/M03 A2982 RMK AO2,M
05U,2021-12-30 12:10,-116.0051,39.6042,1811.23,12.20,8.60,85.17,200.00,4.00,0.00,29.80,M,10.00,M,CLR,M,M,M,M,M,M,M,M,M,M,M,M,M,M,4.30,K05U 301210Z AUTO 20004KT 10SM CLR M11/M13 A2980 RMK A01,M
BVU,2021-12-30 12:15,-114.8611,35.9475,671.00,44.60,35.60,70.48,0.00,0.00,0.00,29.91,M,10.00,M,OVC,M,M,M,4900.00,M,M,M,M,M,M,M,M,M,M,44.60,KBVU 301215Z AUTO 00000KT 10SM OVC049 07/02 A2991 RMK AO2,M
RTS,2021-12-30 12:15,-119.8764,39.6682,1539.00,24.80,24.80,100.00,130.00,3.00,0.00,29.80,M,1.25,M,OVC,M,M,M,200.00,M,M,M,BR,M,M,M,M,M,M,20.46,KRTS 301215Z AUTO 13003KT 1 1/4SM BR OVC002 M04/M04 A2980 RMK AO2,M
MEV,2021-12-30 12:15,-119.7500,38.9963,1441.42,28.40,24.80,86.18,200.00,6.00,0.00,29.82,M,10.00,M,OVC,M,M,M,1000.00,M,M,M,M,M,M,M,M,M,M,21.19,KMEV 301215Z AUTO 20006KT 10SM OVC010 M02/M04 A2982 RMK AO2,M
BAM,2021-12-30 12:15,-116.8743,40.5990,1382.36,26.60,26.60,100.00,0.00,0.00,0.00,29.79,M,10.00,M,SCT,SCT,M,M,4300.00,5000.00,M,M,M,M,M,M,M,M,M,26.60,KBAM 301215Z AUTO 00000KT 10SM SCT043 SCT050 M03/M03 A2979 RMK AO1,M
HTH,2021-12-30 12:15,-118.6315,38.5448,1282.89,26.60,19.40,73.89,160.00,6.00,0.00,29.84,M,10.00,M,CLR,M,M,M,M,M,M,M,M,M,M,M,M,M,M,19.03,KHTH 301215Z AUTO 16006KT 10SM CLR M03/M07 A2984 RMK A01,M
TMT,2021-12-30 12:15,-117.1971,39.4643,1749.34,13.60,10.40,86.79,210.00,7.00,0.00,29.80,M,10.00,M,CLR,M,M,M,M,M,M,M,M,M,M,M,M,M,M,2.35,KTMT 301215Z AUTO 21007KT 10SM CLR M10/M12 A2980 RMK AO2 T11021120,M
LOL,2021-12-30 12:16,-118.5701,40.0684,1192.43,28.90,28.90,100.00,160.00,3.00,0.00,29.81,M,1.25,M,OVC,M,M,M,300.00,M,M,M,BR,M,M,M,M,M,M,25.14,KLOL 301216Z AUTO 16003KT 1 1/4SM BR OVC003 M02/M02 A2981 RMK AO2 T10171017,M
LSV,2021-12-30 12:16,-115.0343,36.2362,570.00,46.40,35.60,65.83,60.00,9.00,0.00,29.90,1012.40,10.00,M,SCT,BKN,BKN,M,4900.00,9500.00,12000.00,M,M,M,M,M,M,M,M,41.42,KLSV 301216Z AUTO 06009KT 10SM SCT049 BKN095 BKN120 08/02 A2990 RMK AO2 SLP124 $,M
DRA,2021-12-30 12:18,-116.0278,36.6206,1009.00,36.00,35.00,96.49,330.00,3.00,0.00,29.88,M,10.00,M,BKN,BKN,OVC,M,2800.00,3400.00,4600.00,M,M,M,M,M,M,M,M,33.26,KDRA 301218Z AUTO 33003KT 10SM BKN028 BKN034 OVC046 02/02 A2988 RMK AO2 T00220017,M
TPH,2021-12-30 12:22,-117.0904,38.0505,1654.00,28.90,28.00,96.38,0.00,0.00,0.00,29.83,M,10.00,M,OVC,M,M,M,700.00,M,M,M,M,M,M,M,M,M,M,28.90,KTPH 301222Z AUTO 00000KT 10SM OVC007 M02/M02 A2983 RMK AO2 CIG 004V009 T10171022,M
LOL,2021-12-30 12:27,-118.5701,40.0684,1192.43,28.90,28.90,100.00,0.00,0.00,0.00,29.81,M,0.75,M,VV ,M,M,M,500.00,M,M,M,BR,M,M,M,M,M,M,28.90,KLOL 301227Z AUTO 00000KT 3/4SM BR VV005 M02/M02 A2981 RMK AO2 T10171017,M
05U,2021-12-30 12:30,-116.0051,39.6042,1811.23,3.20,-0.40,84.56,0.00,0.00,0.00,29.80,M,10.00,M,CLR,M,M,M,M,M,M,M,M,M,M,M,M,M,M,3.20,K05U 301230Z AUTO 00000KT 10SM CLR M16/M18 A2980 RMK A01,M
CXP,2021-12-30 12:30,-119.7326,39.1923,1431.00,30.20,26.60,86.28,0.00,0.00,0.00,29.82,M,10.00,M,OVC,M,M,M,700.00,M,M,M,M,M,M,M,M,M,M,30.20,KCXP 301230Z AUTO 00000KT 10SM OVC007 M01/M03 A2982 RMK AO2,M
NFL,2021-12-30 12:32,-118.7010,39.4166,1199.00,25.00,24.10,96.31,160.00,4.00,0.00,29.82,M,0.75,M,VV ,M,M,M,100.00,M,M,M,BR,M,M,M,M,M,M,19.25,KNFL 301232Z AUTO 16004KT 3/4SM BR VV001 M04/M04 A2982 RMK AO2 T10391044,M
MEV,2021-12-30 12:35,-119.7500,38.9963,1441.42,26.60,24.80,92.80,190.00,5.00,0.00,29.81,M,10.00,M,OVC,M,M,M,1000.00,M,M,M,M,M,M,M,M,M,M,19.98,KMEV 301235Z AUTO 19005KT 10SM OVC010 M03/M04 A2981 RMK AO2,M
BVU,2021-12-30 12:35,-114.8611,35.9475,671.00,46.40,35.60,65.83,170.00,5.00,0.00,29.91,M,10.00,M,OVC,M,M,M,4900.00,M,M,M,M,M,M,M,M,M,M,43.50,KBVU 301235Z AUTO 17005KT 10SM OVC049 08/02 A2991 RMK AO2,M
RTS,2021-12-30 12:35,-119.8764,39.6682,1539.00,24.80,24.80,100.00,0.00,0.00,0.00,29.80,M,1.00,M,OVC,M,M,M,200.00,M,M,M,BR,M,M,M,M,M,M,24.80,KRTS 301235Z AUTO 00000KT 1SM BR OVC002 M04/M04 A2980 RMK AO2,M
TMT,2021-12-30 12:35,-117.1971,39.4643,1749.34,12.90,11.10,92.34,0.00,0.00,0.00,29.81,M,M,M,M,M,M,M,M,M,M,M,M,M,M,M,M,M,M,12.90,KTMT 301235Z AUTO 00000KT M11/M12 A2981 RMK AO2 T11061116 PWINO,M
BAM,2021-12-30 12:35,-116.8743,40.5990,1382.36,24.80,24.80,100.00,0.00,0.00,0.00,29.78,M,10.00,M,BKN,M,M,M,4600.00,M,M,M,M,M,M,M,M,M,M,24.80,KBAM 301235Z AUTO 00000KT 10SM BKN046 M04/M04 A2978 RMK AO1,M
HTH,2021-12-30 12:35,-118.6315,38.5448,1282.89,26.60,19.40,73.89,160.00,7.00,0.00,29.84,M,10.00,M,CLR,M,M,M,M,M,M,M,M,M,M,M,M,M,M,18.20,KHTH 301235Z AUTO 16007KT 10SM CLR M03/M07 A2984 RMK A01,M
NFL,2021-12-30 12:49,-118.7010,39.4166,1199.00,25.00,24.10,96.31,170.00,3.00,0.00,29.82,M,2.00,M,BKN,M,M,M,100.00,M,M,M,BR,M,M,M,M,M,M,20.69,KNFL 301249Z AUTO 17003KT 2SM BR BKN001 M04/M04 A2982 RMK AO2 T10391044,M
CXP,2021-12-30 12:50,-119.7326,39.1923,1431.00,30.20,26.60,86.28,0.00,0.00,0.00,29.82,M,10.00,M,OVC,M,M,M,700.00,M,M,M,M,M,M,M,M,M,M,30.20,KCXP 301250Z AUTO 00000KT 10SM OVC007 M01/M03 A2982 RMK AO2,M
05U,2021-12-30 12:50,-116.0051,39.6042,1811.23,1.40,-4.00,77.49,0.00,0.00,0.00,29.81,M,10.00,M,BKN,M,M,M,200.00,M,M,M,M,M,M,M,M,M,M,1.40,K05U 301250Z AUTO 00000KT 10SM BKN002 M17/M20 A2981 RMK A01,M
LOL,2021-12-30 12:53,-118.5701,40.0684,1192.43,30.00,28.00,92.15,170.00,3.00,0.00,29.81,1011.20,5.00,M,BKN,OVC,M,M,300.00,700.00,M,M,BR,M,M,M,M,M,M,26.40,KLOL 301253Z AUTO 17003KT 5SM BR BKN003 OVC007 M01/M02 A2981 RMK AO2 SLP112 T10111022,M
INS,2021-12-30 12:53,-115.6733,36.5872,955.00,35.60,35.60,100.00,260.00,4.00,0.00,29.90,1012.20,10.00,M,BKN,BKN,M,M,2600.00,6000.00,M,M,M,M,M,M,M,M,M,31.62,KINS 301253Z AUTO 26004KT 10SM BKN026 BKN060 02/02 A2990 RMK AO2 CIG 026V060 BKN026 V SCT SLP122 $,M
VGT,2021-12-30 12:53,-115.1933,36.2111,667.00,45.00,35.00,68.05,0.00,0.00,0.00,29.90,1014.40,10.00,M,SCT,OVC,M,M,4200.00,5000.00,M,M,M,M,M,M,M,M,M,45.00,KVGT 301253Z AUTO 00000KT 10SM SCT042 OVC050 07/02 A2990 RMK AO2 SLP144 T00720017,M
ELY,2021-12-30 12:53,-114.8453,39.2950,1909.00,24.10,21.00,87.76,170.00,8.00,T,29.77,1010.10,10.00,M,OVC,M,M,M,2800.00,M,M,M,-SN,M,M,M,M,M,M,14.38,KELY 301253Z AUTO 17008KT 10SM -SN OVC028 M04/M06 A2977 RMK AO2 SNB38 SLP101 P0000 T10441061,M
DRA,2021-12-30 12:53,-116.0278,36.6206,1009.00,36.00,34.00,92.35,0.00,0.00,0.03,29.88,1011.60,7.00,M,BKN,OVC,M,M,1700.00,2300.00,M,M,-RA,M,M,M,M,M,M,36.00,KDRA 301253Z AUTO 00000KT 7SM -RA BKN017 OVC023 02/01 A2988 RMK AO2 UPB26E29RAB29 SLP116 P0003 T00220011,M
NFL,2021-12-30 12:54,-118.7010,39.4166,1199.00,24.80,24.80,100.00,170.00,3.00,0.00,29.82,M,6.00,M,SCT,M,M,M,100.00,M,M,M,BR,M,M,M,M,M,M,20.46,KNFL 301254Z AUTO 17003KT 6SM BR SCT001 M04/M04 A2982 RMK AO2,M
RTS,2021-12-30 12:55,-119.8764,39.6682,1539.00,24.80,23.00,92.74,340.00,3.00,0.00,29.80,M,1.25,M,OVC,M,M,M,200.00,M,M,M,BR,M,M,M,M,M,M,20.46,KRTS 301255Z AUTO 34003KT 1 1/4SM BR OVC002 M04/M05 A2980 RMK AO2,M
BVU,2021-12-30 12:55,-114.8611,35.9475,671.00,46.40,35.60,65.83,190.00,6.00,0.00,29.91,M,10.00,M,OVC,M,M,M,4900.00,M,M,M,M,M,M,M,M,M,M,42.87,KBVU 301255Z AUTO 19006KT 10SM OVC049 08/02 A2991 RMK AO2,M
RNO,2021-12-30 12:55,-119.7711,39.4839,1341.00,28.90,26.10,89.12,0.00,0.00,0.00,29.80,1010.30,9.00,M,OVC,M,M,M,1000.00,M,M,M,M,M,M,M,M,M,M,28.90,KRNO 301255Z 00000KT 9SM OVC010 M02/M03 A2980 RMK AO2 SLP103 T10171033,M
MEV,2021-12-30 12:55,-119.7500,38.9963,1441.42,26.60,24.80,92.80,180.00,3.00,0.00,29.81,M,10.00,M,OVC,M,M,M,1000.00,M,M,M,M,M,M,M,M,M,M,22.52,KMEV 301255Z AUTO 18003KT 10SM OVC010 M03/M04 A2981 RMK AO2,M
TMT,2021-12-30 12:55,-117.1971,39.4643,1749.34,11.10,8.10,87.43,170.00,6.00,0.00,29.80,M,10.00,M,CLR,M,M,M,M,M,M,M,M,M,M,M,M,M,M,0.36,KTMT 301255Z AUTO 17006KT 10SM CLR M12/M13 A2980 RMK AO2 T11161133,M
BAM,2021-12-30 12:55,-116.8743,40.5990,1382.36,28.40,28.40,100.00,0.00,0.00,0.00,29.76,M,10.00,M,OVC,M,M,M,4400.00,M,M,M,M,M,M,M,M,M,M,28.40,KBAM 301255Z AUTO 00000KT 10SM OVC044 M02/M02 A2976 RMK AO1,M
HTH,2021-12-30 12:55,-118.6315,38.5448,1282.89,26.60,21.20,79.77,140.00,7.00,0.00,29.84,M,10.00,M,CLR,M,M,M,M,M,M,M,M,M,M,M,M,M,M,18.20,KHTH 301255Z AUTO 14007KT 10SM CLR M03/M06 A2984 RMK A01,M
TPH,2021-12-30 12:56,-117.0904,38.0505,1654.00,30.00,28.90,95.61,0.00,0.00,T,29.83,1011.50,10.00,M,OVC,M,M,M,800.00,M,M,M,M,M,M,M,M,M,M,30.00,KTPH 301256Z AUTO 00000KT 10SM OVC008 M01/M02 A2983 RMK AO2 SNB33E42 SLP115 P0000 T10111017,M
LAS,2021-12-30 12:56,-115.1634,36.0719,663.00,45.00,35.00,68.05,290.00,4.00,0.00,29.91,1012.60,10.00,M,BKN,OVC,M,M,4500.00,9000.00,M,M,M,M,M,M,M,M,M,42.60,KLAS 301256Z 29004KT 10SM BKN045 OVC090 07/02 A2991 RMK AO2 SLP126 T00720017,M
HND,2021-12-30 12:56,-115.1344,35.9729,742.79,44.00,33.00,65.02,0.00,0.00,0.00,29.92,1015.10,10.00,M,OVC,M,M,M,4600.00,M,M,M,M,M,M,M,M,M,M,44.10,KHND 301256Z AUTO 00000KT 10SM OVC046 07/01 A2992 RMK AO2 SLP151 T00670006,M
EKO,2021-12-30 12:56,-115.7860,40.8242,1367.00,28.00,23.00,81.25,210.00,6.00,0.00,29.73,1008.70,10.00,M,FEW,OVC,M,M,3200.00,4400.00,M,M,M,M,M,M,M,M,M,20.71,KEKO 301256Z AUTO 21006KT 10SM FEW032 OVC044 M02/M05 A2973 RMK AO2 SLP087 T10221050,M
WMC,2021-12-30 12:56,-117.8072,40.9019,1315.00,28.00,25.00,88.33,180.00,10.00,0.00,29.75,1009.10,10.00,M,OVC,M,M,M,4200.00,M,M,M,M,M,M,M,M,M,M,17.95,KWMC 301256Z AUTO 18010KT 10SM OVC042 M02/M04 A2975 RMK AO2 SLP091 T10221039,M
NFL,2021-12-30 12:56,-118.7010,39.4166,1199.00,25.00,24.10,96.31,170.00,3.00,0.00,29.82,1007.50,7.00,M,SCT,M,M,M,100.00,M,M,M,M,M,M,M,M,M,M,20.69,KNFL 301256Z AUTO 17003KT 7SM SCT001 M04/M04 A2982 RMK AO2 SLP075 T10391044,M
INS,2021-12-30 12:58,-115.6733,36.5872,955.00,36.00,36.00,99.60,250.00,3.00,0.00,29.90,1012.20,10.00,M,BKN,BKN,M,M,2600.00,6000.00,M,M,M,M,M,M,M,M,M,33.38,KINS 301258Z AUTO 25003KT 10SM BKN026 BKN060 02/02 A2990 RMK AO2 CIG 026V060 BKN026 V SCT SLP122 T00230022 $,M
LSV,2021-12-30 12:58,-115.0343,36.2362,570.00,46.60,36.00,66.64,70.00,5.00,0.00,29.91,1012.70,10.00,M,SCT,BKN,BKN,M,4700.00,5500.00,9000.00,M,M,M,M,M,M,M,M,43.73,KLSV 301258Z AUTO 07005KT 10SM SCT047 BKN055 BKN090 08/02 A2991 RMK AO2 SLP127 T00810023 $,M
LSV,2021-12-30 13:00,-115.0343,36.2362,570.00,46.40,35.60,65.83,80.00,4.00,0.00,29.91,1012.70,10.00,M,BKN,BKN,OVC,M,4600.00,5500.00,9000.00,M,M,M,M,M,M,M,M,44.24,KLSV 301300Z AUTO 08004KT 10SM BKN046 BKN055 OVC090 08/02 A2991 RMK AO2 SLP127 $,M
CXP,2021-12-30 13:10,-119.7326,39.1923,1431.00,28.40,24.80,86.18,0.00,0.00,0.00,29.81,M,10.00,M,OVC,M,M,M,800.00,M,M,M,M,M,M,M,M,M,M,28.40,KCXP 301310Z AUTO 00000KT 10SM OVC008 M02/M04 A2981 RMK AO2,M
HTH,2021-12-30 13:15,-118.6315,38.5448,1282.89,26.60,19.40,73.89,150.00,4.00,0.00,29.84,M,10.00,M,CLR,M,M,M,M,M,M,M,M,M,M,M,M,M,M,21.11,KHTH 301315Z AUTO 15004KT 10SM CLR M03/M07 A2984 RMK A01,M
BAM,2021-12-30 13:15,-116.8743,40.5990,1382.36,24.80,24.80,100.00,340.00,4.00,0.00,29.77,M,10.00,M,OVC,M,M,M,4400.00,M,M,M,M,M,M,M,M,M,M,19.01,KBAM 301315Z AUTO 34004KT 10SM OVC044 M04/M04 A2977 RMK AO1,M
RTS,2021-12-30 13:15,-119.8764,39.6682,1539.00,24.80,23.00,92.74,0.00,0.00,0.00,29.80,M,1.25,M,OVC,M,M,M,200.00,M,M,M,BR,M,M,M,M,M,M,24.80,KRTS 301315Z AUTO 00000KT 1 1/4SM BR OVC002 M04/M05 A2980 RMK AO2,M
MEV,2021-12-30 13:15,-119.7500,38.9963,1441.42,24.80,23.00,92.74,110.00,4.00,0.00,29.81,M,10.00,M,OVC,M,M,M,1000.00,M,M,M,M,M,M,M,M,M,M,19.01,KMEV 301315Z AUTO 11004KT 10SM OVC010 M04/M05 A2981 RMK AO2,M
BVU,2021-12-30 13:15,-114.8611,35.9475,671.00,46.40,35.60,65.83,0.00,0.00,0.00,29.92,M,10.00,M,OVC,M,M,M,4700.00,M,M,M,M,M,M,M,M,M,M,46.40,KBVU 301315Z AUTO 00000KT 10SM OVC047 08/02 A2992 RMK AO2,M
TMT,2021-12-30 13:15,-117.1971,39.4643,1749.34,10.40,7.70,88.58,180.00,9.00,0.00,29.80,M,10.00,M,CLR,M,M,M,M,M,M,M,M,M,M,M,M,M,M,-3.34,KTMT 301315Z AUTO 18009KT 10SM CLR M12/M13 A2980 RMK AO2 T11201135,M
INS,2021-12-30 13:19,-115.6733,36.5872,955.00,37.40,37.40,100.00,0.00,0.00,0.00,29.90,1012.20,10.00,M,OVC,M,M,M,2600.00,M,M,M,-DZ,M,M,M,M,M,M,37.40,KINS 301319Z AUTO 00000KT 10SM -DZ OVC026 03/03 A2990 RMK AO2 DZB19 OVC V BKN SLP122 $,M
CXP,2021-12-30 13:30,-119.7326,39.1923,1431.00,28.40,24.80,86.18,0.00,0.00,0.00,29.81,M,10.00,M,OVC,M,M,M,800.00,M,M,M,M,M,M,M,M,M,M,28.40,KCXP 301330Z AUTO 00000KT 10SM OVC008 M02/M04 A2981 RMK AO2,M
05U,2021-12-30 13:30,-116.0051,39.6042,1811.23,1.40,-2.20,84.43,0.00,0.00,0.00,29.81,M,0.75,M,OVC,M,M,M,200.00,M,M,M,HZ,M,M,M,M,M,M,1.40,K05U 301330Z AUTO 00000KT 3/4SM HZ OVC002 M17/M19 A2981 RMK A01,M
NFL,2021-12-30 13:32,-118.7010,39.4166,1199.00,24.10,21.90,91.17,170.00,4.00,0.00,29.81,M,2.50,M,BKN,M,M,M,200.00,M,M,M,BR,M,M,M,M,M,M,18.19,KNFL 301332Z AUTO 17004KT 2 1/2SM BR BKN002 M04/M06 A2981 RMK AO2 T10441056,M
INS,2021-12-30 13:34,-115.6733,36.5872,955.00,37.40,37.40,100.00,0.00,0.00,0.00,29.89,1011.90,10.00,M,SCT,BKN,M,M,2400.00,6000.00,M,M,-RA,M,M,M,M,M,M,37.40,KINS 301334Z AUTO 00000KT 10SM -RA SCT024 BKN060 03/03 A2989 RMK AO2 DZB19E20RAB20 SLP119 $,M
BAM,2021-12-30 13:35,-116.8743,40.5990,1382.36,26.60,26.60,100.00,340.00,4.00,0.00,29.76,M,10.00,M,OVC,M,M,M,4200.00,M,M,M,M,M,M,M,M,M,M,21.11,KBAM 301335Z AUTO 34004KT 10SM OVC042 M03/M03 A2976 RMK AO1,M
MEV,2021-12-30 13:35,-119.7500,38.9963,1441.42,23.00,21.20,92.69,110.00,5.00,0.00,29.81,M,10.00,M,OVC,M,M,M,900.00,M,M,M,M,M,M,M,M,M,M,15.71,KMEV 301335Z AUTO 11005KT 10SM OVC009 M05/M06 A2981 RMK AO2,M
BVU,2021-12-30 13:35,-114.8611,35.9475,671.00,46.40,35.60,65.83,190.00,4.00,0.00,29.93,M,10.00,M,OVC,M,M,M,4800.00,M,M,M,M,M,M,M,M,M,M,44.24,KBVU 301335Z AUTO 19004KT 10SM OVC048 08/02 A2993 RMK AO2,M
HTH,2021-12-30 13:35,-118.6315,38.5448,1282.89,24.80,19.40,79.62,120.00,6.00,0.00,29.85,M,10.00,M,CLR,M,M,M,M,M,M,M,M,M,M,M,M,M,M,16.86,KHTH 301335Z AUTO 12006KT 10SM CLR M04/M07 A2985 RMK A01,M
TMT,2021-12-30 13:35,-117.1971,39.4643,1749.34,9.90,6.80,86.97,210.00,6.00,0.00,29.80,M,10.00,M,CLR,M,M,M,M,M,M,M,M,M,M,M,M,M,M,-1.09,KTMT 301335Z AUTO 21006KT 10SM CLR M12/M14 A2980 RMK AO2 T11231140,M
RTS,2021-12-30 13:35,-119.8764,39.6682,1539.00,24.80,24.80,100.00,0.00,0.00,0.00,29.80,M,2.00,M,OVC,M,M,M,300.00,M,M,M,BR,M,M,M,M,M,M,24.80,KRTS 301335Z AUTO 00000KT 2SM BR OVC003 M04/M04 A2980 RMK AO2,M
NFL,2021-12-30 13:37,-118.7010,39.4166,1199.00,24.10,21.90,91.17,150.00,3.00,0.00,29.81,M,3.00,M,BKN,M,M,M,100.00,M,M,M,BR,M,M,M,M,M,M,19.66,KNFL 301337Z AUTO 15003KT 3SM BR BKN001 M04/M06 A2981 RMK AO2 T10441056,M
LSV,2021-12-30 13:39,-115.0343,36.2362,570.00,46.40,37.40,70.68,60.00,5.00,0.00,29.91,1012.70,10.00,M,OVC,M,M,M,5000.00,M,M,M,M,M,M,M,M,M,M,43.50,KLSV 301339Z AUTO 06005KT 10SM OVC050 08/03 A2991 RMK AO2 SLP127 $,M
NFL,2021-12-30 13:45,-118.7010,39.4166,1199.00,24.10,23.00,95.49,0.00,0.00,0.00,29.81,M,10.00,M,SCT,M,M,M,200.00,M,M,M,M,M,M,M,M,M,M,24.10,KNFL 301345Z AUTO 00000KT 10SM SCT002 M04/M05 A2981 RMK AO2 T10441050,M
LOL,2021-12-30 13:45,-118.5701,40.0684,1192.43,30.00,28.90,95.61,0.00,0.00,0.00,29.81,M,2.00,M,OVC,M,M,M,300.00,M,M,M,BR,M,M,M,M,M,M,30.00,KLOL 301345Z AUTO 00000KT 2SM BR OVC003 M01/M02 A2981 RMK AO2 T10111017,M
INS,2021-12-30 13:48,-115.6733,36.5872,955.00,37.40,37.40,100.00,0.00,0.00,0.00,29.90,1012.20,10.00,M,FEW,BKN,M,M,2000.00,6000.00,M,M,M,M,M,M,M,M,M,37.40,KINS 301348Z AUTO 00000KT 10SM FEW020 BKN060 03/03 A2990 RMK AO2 DZB19E20RAB20E41DZB41E48DZB48 SLP122 $,M
05U,2021-12-30 13:50,-116.0051,39.6042,1811.23,5.00,1.40,84.68,0.00,0.00,0.00,29.80,M,10.00,M,SCT,M,M,M,200.00,M,M,M,M,M,M,M,M,M,M,5.00,K05U 301350Z AUTO 00000KT 10SM SCT002 M15/M17 A2980 RMK A01,M
RNO,2021-12-30 13:50,-119.7711,39.4839,1341.00,30.20,26.60,86.28,0.00,0.00,0.00,29.80,M,10.00,M,SCT,OVC,M,M,800.00,1200.00,M,M,M,M,M,M,M,M,M,30.20,KRNO 301350Z 00000KT 10SM SCT008 OVC012 M01/M03 A2980 RMK AO2,M
CXP,2021-12-30 13:50,-119.7326,39.1923,1431.00,28.40,24.80,86.18,0.00,0.00,0.00,29.81,M,10.00,M,OVC,M,M,M,800.00,M,M,M,M,M,M,M,M,M,M,28.40,KCXP 301350Z AUTO 00000KT 10SM OVC008 M02/M04 A2981 RMK AO2,M
LOL,2021-12-30 13:53,-118.5701,40.0684,1192.43,30.00,28.90,95.61,0.00,0.00,0.00,29.81,1011.30,2.50,M,BKN,OVC,M,M,300.00,800.00,M,M,BR,M,M,M,M,M,M,30.00,KLOL 301353Z AUTO 00000KT 2 1/2SM BR BKN003 OVC008 M01/M02 A2981 RMK AO2 SLP113 T10111017,M
DRA,2021-12-30 13:53,-116.0278,36.6206,1009.00,37.00,34.00,88.78,360.00,3.00,T,29.89,1011.60,10.00,M,OVC,M,M,M,1600.00,M,M,M,M,M,M,M,M,M,M,34.40,KDRA 301353Z AUTO 36003KT 10SM OVC016 03/01 A2989 RMK AO2 RAE1259UPB1259E15 SLP116 P0000 T00280011,M
VGT,2021-12-30 13:53,-115.1933,36.2111,667.00,45.00,35.00,68.05,360.00,3.00,T,29.91,1014.80,10.00,M,BKN,BKN,OVC,M,4800.00,8000.00,9500.00,M,M,M,M,M,M,M,M,43.55,KVGT 301353Z 36003KT 10SM BKN048 BKN080 OVC095 07/02 A2991 RMK AO2 RAB42E51 SLP148 P0000 T00720017,M
ELY,2021-12-30 13:53,-114.8453,39.2950,1909.00,25.00,21.90,87.81,200.00,5.00,T,29.78,1009.80,10.00,M,BKN,OVC,M,M,2500.00,3100.00,M,M,M,M,M,M,M,M,M,18.08,KELY 301353Z AUTO 20005KT 10SM BKN025 OVC031 M04/M06 A2978 RMK AO2 SNE03 SLP098 P0000 T10391056,M
TMT,2021-12-30 13:55,-117.1971,39.4643,1749.34,4.00,-0.40,81.87,0.00,0.00,0.00,29.80,M,10.00,M,CLR,M,M,M,M,M,M,M,M,M,M,M,M,M,M,3.90,KTMT 301355Z AUTO 00000KT 10SM CLR M16/M18 A2980 RMK AO2 T11561180,M
RNO,2021-12-30 13:55,-119.7711,39.4839,1341.00,30.00,26.10,85.21,0.00,0.00,0.00,29.80,1010.10,9.00,M,FEW,OVC,M,M,800.00,1200.00,M,M,M,M,M,M,M,M,M,30.00,KRNO 301355Z 00000KT 9SM FEW008 OVC012 M01/M03 A2980 RMK AO2 SLP101 T10111033,M
MEV,2021-12-30 13:55,-119.7500,38.9963,1441.42,21.20,21.20,100.00,100.00,6.00,0.00,29.80,M,10.00,M,BKN,M,M,M,900.00,M,M,M,M,M,M,M,M,M,M,12.52,KMEV 301355Z AUTO 10006KT 10SM BKN009 M06/M06 A2980 RMK AO2,M
BVU,2021-12-30 13:55,-114.8611,35.9475,671.00,46.40,35.60,65.83,170.00,5.00,0.00,29.93,M,10.00,M,OVC,M,M,M,4700.00,M,M,M,M,M,M,M,M,M,M,43.50,KBVU 301355Z AUTO 17005KT 10SM OVC047 08/02 A2993 RMK AO2,M
BAM,2021-12-30 13:55,-116.8743,40.5990,1382.36,26.60,26.60,100.00,340.00,3.00,0.00,29.76,M,10.00,M,OVC,M,M,M,3800.00,M,M,M,M,M,M,M,M,M,M,22.52,KBAM 301355Z AUTO 34003KT 10SM OVC038 M03/M03 A2976 RMK AO1,M
HTH,2021-12-30 13:55,-118.6315,38.5448,1282.89,24.80,19.40,79.62,150.00,9.00,0.00,29.84,M,10.00,M,CLR,M,M,M,M,M,M,M,M,M,M,M,M,M,M,14.56,KHTH 301355Z AUTO 15009KT 10SM CLR M04/M07 A2984 RMK A01,M
RTS,2021-12-30 13:55,-119.8764,39.6682,1539.00,24.80,24.80,100.00,0.00,0.00,0.00,29.79,M,2.00,M,M,M,M,M,M,M,M,M,BR,M,M,M,M,M,M,24.80,KRTS 301355Z AUTO 00000KT 2SM BR M04/M04 A2979 RMK AO2,M
TPH,2021-12-30 13:56,-117.0904,38.0505,1654.00,30.00,28.90,95.61,0.00,0.00,T,29.84,1011.60,10.00,M,OVC,M,M,M,600.00,M,M,M,M,M,M,M,M,M,M,30.00,KTPH 301356Z AUTO 00000KT 10SM OVC006 M01/M02 A2984 RMK AO2 SNB22E31 SLP116 P0000 T10111017,M
HND,2021-12-30 13:56,-115.1344,35.9729,742.79,45.00,33.00,62.83,210.00,4.00,0.00,29.92,1015.20,10.00,M,OVC,M,M,M,4800.00,M,M,M,M,M,M,M,M,M,M,42.60,KHND 301356Z 21004KT 10SM OVC048 07/01 A2992 RMK AO2 SLP152 T00720006,M
LAS,2021-12-30 13:56,-115.1634,36.0719,663.00,45.00,35.00,68.05,0.00,0.00,0.00,29.91,1012.90,10.00,M,BKN,OVC,M,M,5000.00,9000.00,M,M,M,M,M,M,M,M,M,45.00,KLAS 301356Z 00000KT 10SM BKN050 OVC090 07/02 A2991 RMK AO2 SLP129 T00720017,M
WMC,2021-12-30 13:56,-117.8072,40.9019,1315.00,27.00,23.00,84.66,160.00,10.00,0.00,29.76,1009.30,10.00,M,OVC,M,M,M,4000.00,M,M,M,M,M,M,M,M,M,M,16.70,KWMC 301356Z AUTO 16010KT 10SM OVC040 M03/M05 A2976 RMK AO2 SLP093 T10281050,M
EKO,2021-12-30 13:56,-115.7860,40.8242,1367.00,28.90,21.00,71.96,230.00,11.00,0.00,29.73,1008.60,10.00,M,SCT,OVC,M,M,3200.00,4700.00,M,M,M,M,M,M,M,M,M,18.55,KEKO 301356Z AUTO 23011KT 10SM SCT032 OVC047 M02/M06 A2973 RMK AO2 SLP086 T10171061,M
NFL,2021-12-30 13:56,-118.7010,39.4166,1199.00,24.10,21.90,91.17,0.00,0.00,0.00,29.81,1007.30,10.00,M,FEW,M,M,M,200.00,M,M,M,M,M,M,M,M,M,M,24.10,KNFL 301356Z AUTO 00000KT 10SM FEW002 M04/M06 A2981 RMK AO2 SLP073 T10441056,M
LSV,2021-12-30 13:58,-115.0343,36.2362,570.00,46.00,38.00,73.18,60.00,7.00,0.00,29.92,1013.10,10.00,M,OVC,M,M,M,5000.00,M,M,M,M,M,M,M,M,M,M,41.84,KLSV 301358Z AUTO 06007KT 10SM OVC050 08/03 A2992 RMK AO2 SLP131 T00780033 $,M
INS,2021-12-30 13:58,-115.6733,36.5872,955.00,36.00,36.00,99.60,290.00,3.00,T,29.90,1012.20,10.00,M,FEW,OVC,M,M,2200.00,6000.00,M,M,M,M,M,M,M,M,M,33.38,KINS 301358Z AUTO 29003KT 10SM FEW022 OVC060 02/02 A2990 RMK AO2 DZB19E20RAB20E41DZB41E48DZB48E48 SLP122 P0000 T00230022 $,M
LOL,2021-12-30 14:01,-118.5701,40.0684,1192.43,30.00,28.90,95.61,0.00,0.00,0.00,29.82,M,3.00,M,OVC,M,M,M,300.00,M,M,M,BR,M,M,M,M,M,M,30.00,KLOL 301401Z AUTO 00000KT 3SM BR OVC003 M01/M02 A2982 RMK AO2 T10111017,M
LSV,2021-12-30 14:03,-115.0343,36.2362,570.00,46.40,37.40,70.68,60.00,6.00,0.00,29.92,1013.10,10.00,M,BKN,M,M,M,5000.00,M,M,M,-RA,M,M,M,M,M,M,42.87,KLSV 301403Z AUTO 06006KT 10SM -RA BKN050 08/03 A2992 RMK AO2 RAB03 SLP131 $,M
CXP,2021-12-30 14:10,-119.7326,39.1923,1431.00,26.60,23.00,86.07,100.00,3.00,0.00,29.81,M,10.00,M,BKN,M,M,M,800.00,M,M,M,M,M,M,M,M,M,M,22.52,KCXP 301410Z AUTO 10003KT 10SM BKN008 M03/M05 A2981 RMK AO2,M
05U,2021-12-30 14:10,-116.0051,39.6042,1811.23,-0.40,-4.00,84.30,0.00,0.00,0.00,29.81,M,10.00,M,CLR,M,M,M,M,M,M,M,M,M,M,M,M,M,M,-0.40,K05U 301410Z AUTO 00000KT 10SM CLR M18/M20 A2981 RMK A01,M
HTH,2021-12-30 14:15,-118.6315,38.5448,1282.89,24.80,19.40,79.62,150.00,9.00,0.00,29.83,M,10.00,M,CLR,M,M,M,M,M,M,M,M,M,M,M,M,M,M,14.56,KHTH 301415Z AUTO 15009KT 10SM CLR M04/M07 A2983 RMK A01,M
BVU,2021-12-30 14:15,-114.8611,35.9475,671.00,46.40,35.60,65.83,170.00,7.00,0.00,29.93,M,10.00,M,OVC,M,M,M,4700.00,M,M,M,M,M,M,M,M,M,M,42.33,KBVU 301415Z AUTO 17007KT 10SM OVC047 08/02 A2993 RMK AO2,M
RTS,2021-12-30 14:15,-119.8764,39.6682,1539.00,24.80,23.00,92.74,0.00,0.00,0.00,29.80,M,5.00,M,OVC,M,M,M,300.00,M,M,M,BR,M,M,M,M,M,M,24.80,KRTS 301415Z AUTO 00000KT 5SM BR OVC003 M04/M05 A2980 RMK AO2,M
MEV,2021-12-30 14:15,-119.7500,38.9963,1441.42,21.20,19.40,92.63,80.00,6.00,0.00,29.80,M,10.00,M,FEW,M,M,M,900.00,M,M,M,M,M,M,M,M,M,M,12.52,KMEV 301415Z AUTO 08006KT 10SM FEW009 M06/M07 A2980 RMK AO2,M
TMT,2021-12-30 14:15,-117.1971,39.4643,1749.34,2.30,-0.80,86.51,10.00,4.00,0.00,29.80,M,10.00,M,CLR,M,M,M,M,M,M,M,M,M,M,M,M,M,M,-7.26,KTMT 301415Z AUTO 01004KT 10SM CLR M16/M18 A2980 RMK AO2 T11651182,M
BAM,2021-12-30 14:15,-116.8743,40.5990,1382.36,26.60,26.60,100.00,360.00,3.00,0.00,29.76,M,10.00,M,OVC,M,M,M,3600.00,M,M,M,M,M,M,M,M,M,M,22.52,KBAM 301415Z AUTO 36003KT 10SM OVC036 M03/M03 A2976 RMK AO1,M
INS,2021-12-30 14:18,-115.6733,36.5872,955.00,35.60,35.60,100.00,280.00,3.00,0.00,29.90,1012.20,10.00,M,SCT,SCT,M,M,6000.00,8000.00,M,M,M,M,M,M,M,M,M,32.80,KINS 301418Z AUTO 28003KT 10SM SCT060 SCT080 02/02 A2990 RMK AO2 SLP122 $,M
LSV,2021-12-30 14:20,-115.0343,36.2362,570.00,46.40,41.00,81.34,50.00,7.00,0.00,29.92,1013.10,10.00,M,BKN,M,M,M,5000.00,M,M,M,M,M,M,M,M,M,M,42.33,KLSV 301420Z AUTO 05007KT 10SM BKN050 08/05 A2992 RMK AO2 RAB03E20 SLP131 $,M
LOL,2021-12-30 14:28,-118.5701,40.0684,1192.43,30.00,28.90,95.61,M,3.00,0.00,29.81,M,6.00,M,OVC,M,M,M,600.00,M,M,M,BR,M,M,M,M,M,M,26.40,KLOL 301428Z AUTO VRB03KT 6SM BR OVC006 M01/M02 A2981 RMK AO2 CIG 002V008 T10111017,M
05U,2021-12-30 14:30,-116.0051,39.6042,1811.23,-2.20,-5.80,84.17,0.00,0.00,0.00,29.80,M,10.00,M,CLR,M,M,M,M,M,M,M,M,M,M,M,M,M,M,-2.20,K05U 301430Z AUTO 00000KT 10SM CLR M19/M21 A2980 RMK A01,M
CXP,2021-12-30 14:30,-119.7326,39.1923,1431.00,24.80,23.00,92.74,0.00,0.00,0.00,29.81,M,10.00,M,BKN,M,M,M,800.00,M,M,M,M,M,M,M,M,M,M,24.80,KCXP 301430Z AUTO 00000KT 10SM BKN008 M04/M05 A2981 RMK AO2,M
HTH,2021-12-30 14:35,-118.6315,38.5448,1282.89,24.80,19.40,79.62,130.00,5.00,0.00,29.83,M,10.00,M,CLR,M,M,M,M,M,M,M,M,M,M,M,M,M,M,17.84,KHTH 301435Z AUTO 13005KT 10SM CLR M04/M07 A2983 RMK A01,M
BAM,2021-12-30 14:35,-116.8743,40.5990,1382.36,28.40,28.40,100.00,230.00,6.00,0.00,29.76,M,10.00,M,BKN,M,M,M,3400.00,M,M,M,M,M,M,M,M,M,M,21.19,KBAM 301435Z AUTO 23006KT 10SM BKN034 M02/M02 A2976 RMK AO1,M
BVU,2021-12-30 14:35,-114.8611,35.9475,671.00,46.40,35.60,65.83,170.00,5.00,0.00,29.94,M,10.00,M,OVC,M,M,M,4800.00,M,M,M,M,M,M,M,M,M,M,43.50,KBVU 301435Z AUTO 17005KT 10SM OVC048 08/02 A2994 RMK AO2,M
RTS,2021-12-30 14:35,-119.8764,39.6682,1539.00,23.00,23.00,100.00,350.00,4.00,0.00,29.81,M,1.50,M,OVC,M,M,M,300.00,M,M,M,BR,M,M,M,M,M,M,16.91,KRTS 301435Z AUTO 35004KT 1 1/2SM BR OVC003 M05/M05 A2981 RMK AO2,M
MEV,2021-12-30 14:35,-119.7500,38.9963,1441.42,19.40,17.60,92.57,110.00,6.00,0.00,29.80,M,10.00,M,CLR,M,M,M,M,M,M,M,M,M,M,M,M,M,M,10.36,KMEV 301435Z AUTO 11006KT 10SM CLR M07/M08 A2980 RMK AO2,M
TMT,2021-12-30 14:35,-117.1971,39.4643,1749.34,1.40,-0.80,90.21,0.00,0.00,0.00,29.79,M,M,M,M,M,M,M,M,M,M,M,M,M,M,M,M,M,M,1.40,KTMT 301435Z AUTO 00000KT M17/M18 A2979 RMK AO2 T11701182 PWINO,M
INS,2021-12-30 14:43,-115.6733,36.5872,955.00,33.80,33.80,100.00,0.00,0.00,0.00,29.90,1012.40,10.00,M,SCT,BKN,M,M,2300.00,6500.00,M,M,M,M,M,M,M,M,M,33.80,KINS 301443Z AUTO 00000KT 10SM SCT023 BKN065 01/01 A2990 RMK AO2 SLP124 $,M
INS,2021-12-30 14:44,-115.6733,36.5872,955.00,33.80,33.80,100.00,0.00,0.00,0.00,29.91,1012.80,10.00,M,SCT,SCT,M,M,2300.00,6500.00,M,M,-DZ,M,M,M,M,M,M,33.80,KINS 301444Z AUTO 00000KT 10SM -DZ SCT023 SCT065 01/01 A2991 RMK AO2 DZB44 SLP128 $,M
05U,2021-12-30 14:50,-116.0051,39.6042,1811.23,1.40,-4.00,77.49,180.00,3.00,0.00,29.79,M,10.00,M,CLR,M,M,M,M,M,M,M,M,M,M,M,M,M,M,-6.29,K05U 301450Z AUTO 18003KT 10SM CLR M17/M20 A2979 RMK A01,M
CXP,2021-12-30 14:50,-119.7326,39.1923,1431.00,24.80,23.00,92.74,0.00,0.00,0.00,29.81,M,10.00,M,OVC,M,M,M,800.00,M,M,M,M,M,M,M,M,M,M,24.80,KCXP 301450Z AUTO 00000KT 10SM OVC008 M04/M05 A2981 RMK AO2,M
VGT,2021-12-30 14:53,-115.1933,36.2111,667.00,46.00,35.00,65.52,80.00,3.00,0.00,29.92,1015.00,10.00,M,OVC,M,M,M,4800.00,M,M,M,M,M,M,M,M,M,M,44.69,KVGT 301453Z 08003KT 10SM OVC048 08/02 A2992 RMK AO2 SLP150 60000 T00780017 53007,M
LOL,2021-12-30 14:53,-118.5701,40.0684,1192.43,30.00,28.90,95.61,180.00,5.00,0.00,29.81,1011.30,9.00,M,OVC,M,M,M,800.00,M,M,M,M,M,M,M,M,M,M,24.02,KLOL 301453Z AUTO 18005KT 9SM OVC008 M01/M02 A2981 RMK AO2 CIG 004V010 SLP113 T10111017 56004,M
DRA,2021-12-30 14:53,-116.0278,36.6206,1009.00,36.00,35.00,96.49,290.00,3.00,0.00,29.89,1011.80,10.00,M,BKN,OVC,M,M,2300.00,4900.00,M,M,M,M,M,M,M,M,M,33.26,KDRA 301453Z AUTO 29003KT 10SM BKN023 OVC049 02/02 A2989 RMK AO2 SLP118 60003 T00220017 53002,M
ELY,2021-12-30 14:53,-114.8453,39.2950,1909.00,21.00,19.90,95.43,170.00,3.00,0.00,29.78,1010.60,10.00,M,SCT,M,M,M,2900.00,M,M,M,M,M,M,M,M,M,M,16.11,KELY 301453Z AUTO 17003KT 10SM SCT029 M06/M07 A2978 RMK AO2 SLP106 60000 T10611067 55003,M
INS,2021-12-30 14:54,-115.6733,36.5872,955.00,35.60,35.60,100.00,240.00,5.00,0.00,29.91,1012.50,10.00,M,BKN,M,M,M,2400.00,M,M,M,-DZ,M,M,M,M,M,M,30.67,KINS 301454Z AUTO 24005KT 10SM -DZ BKN024 02/02 A2991 RMK AO2 DZB44 SLP125 $,M
BAM,2021-12-30 14:55,-116.8743,40.5990,1382.36,30.20,26.60,86.28,260.00,11.00,0.00,29.75,M,10.00,M,SCT,M,M,M,3200.00,M,M,M,M,M,M,M,M,M,M,20.19,KBAM 301455Z AUTO 26011KT 10SM SCT032 M01/M03 A2975 RMK AO1,M
RNO,2021-12-30 14:55,-119.7711,39.4839,1341.00,30.00,26.10,85.21,0.00,0.00,0.00,29.82,1010.70,10.00,M,OVC,M,M,M,1100.00,M,M,M,M,M,M,M,M,M,M,30.00,KRNO 301455Z 00000KT 10SM OVC011 M01/M03 A2982 RMK AO2 SLP107 T10111033 53003,M
RTS,2021-12-30 14:55,-119.8764,39.6682,1539.00,23.00,21.20,92.69,320.00,3.00,0.00,29.81,M,3.00,M,OVC,M,M,M,300.00,M,M,M,BR,M,M,M,M,M,M,18.40,KRTS 301455Z AUTO 32003KT 3SM BR OVC003 M05/M06 A2981 RMK AO2,M
HTH,2021-12-30 14:55,-118.6315,38.5448,1282.89,26.60,19.40,73.89,140.00,5.00,0.00,29.83,M,10.00,M,CLR,M,M,M,M,M,M,M,M,M,M,M,M,M,M,19.98,KHTH 301455Z AUTO 14005KT 10SM CLR M03/M07 A2983 RMK A01,M
TMT,2021-12-30 14:55,-117.1971,39.4643,1749.34,5.20,3.40,92.06,0.00,0.00,0.00,29.80,M,M,M,M,M,M,M,M,M,M,M,M,M,M,M,M,M,M,5.20,KTMT 301455Z AUTO 00000KT M15/M16 A2980 RMK AO2 T11491159 PWINO,M
MEV,2021-12-30 14:55,-119.7500,38.9963,1441.42,19.40,17.60,92.57,130.00,5.00,0.00,29.81,M,10.00,M,CLR,M,M,M,M,M,M,M,M,M,M,M,M,M,M,11.43,KMEV 301455Z AUTO 13005KT 10SM CLR M07/M08 A2981 RMK AO2,M
BVU,2021-12-30 14:55,-114.8611,35.9475,671.00,46.40,35.60,65.83,160.00,5.00,0.00,29.94,M,10.00,M,OVC,M,M,M,4900.00,M,M,M,M,M,M,M,M,M,M,43.50,KBVU 301455Z AUTO 16005KT 10SM OVC049 08/02 A2994 RMK AO2,M
TPH,2021-12-30 14:56,-117.0904,38.0505,1654.00,30.00,28.00,92.15,0.00,0.00,0.00,29.83,1011.50,10.00,M,OVC,M,M,M,500.00,M,M,M,M,M,M,M,M,M,M,30.00,KTPH 301456Z AUTO 00000KT 10SM OVC005 M01/M02 A2983 RMK AO2 SLP115 60000 T10111022 56001,M
LAS,2021-12-30 14:56,-115.1634,36.0719,663.00,45.00,35.00,68.05,0.00,0.00,0.00,29.92,1013.20,10.00,M,FEW,BKN,OVC,M,4000.00,5500.00,9000.00,M,M,M,M,M,M,M,M,45.00,KLAS 301456Z 00000KT 10SM FEW040 BKN055 OVC090 07/02 A2992 RMK AO2 SLP132 VIRGA NW T00720017 53008,M
HND,2021-12-30 14:56,-115.1344,35.9729,742.79,43.00,34.00,70.30,210.00,4.00,0.00,29.93,1015.90,10.00,M,OVC,M,M,M,5000.00,M,M,M,M,M,M,M,M,M,M,40.27,KHND 301456Z 21004KT 10SM OVC050 06/01 A2993 RMK AO2 SLP159 T00610011 53008,M
WMC,2021-12-30 14:56,-117.8072,40.9019,1315.00,27.00,24.10,88.65,230.00,9.00,0.00,29.76,1009.30,10.00,M,BKN,OVC,M,M,3400.00,4400.00,M,M,M,M,M,M,M,M,M,17.30,KWMC 301456Z AUTO 23009KT 10SM BKN034 OVC044 M03/M04 A2976 RMK AO2 SLP093 T10281044 55000,M
EKO,2021-12-30 14:56,-115.7860,40.8242,1367.00,28.90,21.90,74.76,210.00,8.00,0.00,29.71,1008.10,10.00,M,FEW,OVC,M,M,3400.00,4600.00,M,M,M,M,M,M,M,M,M,20.29,KEKO 301456Z AUTO 21008KT 10SM FEW034 OVC046 M02/M06 A2971 RMK AO2 SLP081 T10171056 56011,M
NFL,2021-12-30 14:56,-118.7010,39.4166,1199.00,23.00,21.00,91.90,140.00,4.00,0.00,29.81,1007.30,10.00,M,CLR,M,M,M,M,M,M,M,M,M,M,M,M,M,M,16.91,KNFL 301456Z AUTO 14004KT 10SM CLR M05/M06 A2981 RMK AO2 SLP073 T10501061 57003,M
INS,2021-12-30 14:58,-115.6733,36.5872,955.00,35.20,35.00,99.60,240.00,5.00,T,29.91,1012.50,10.00,M,BKN,BKN,M,M,2400.00,7000.00,M,M,-DZ,M,M,M,M,M,M,30.20,KINS 301458Z AUTO 24005KT 10SM -DZ BKN024 BKN070 02/02 A2991 RMK AO2 DZB44 SLP125 P0000 60000 T00180017 51005 $,M
LSV,2021-12-30 14:58,-115.0343,36.2362,570.00,46.40,40.30,79.16,90.00,4.00,T,29.92,1013.10,10.00,M,OVC,M,M,M,5000.00,M,M,M,M,M,M,M,M,M,M,44.24,KLSV 301458Z AUTO 09004KT 10SM OVC050 08/05 A2992 RMK AO2 RAB03E20 SLP131 P0000 60000 T00800046 52007 $,M
INS,2021-12-30 14:59,-115.6733,36.5872,955.00,35.60,35.60,100.00,250.00,4.00,0.00,29.90,1012.20,10.00,M,BKN,M,M,M,2400.00,M,M,M,M,M,M,M,M,M,M,31.62,KINS 301459Z AUTO 25004KT 10SM BKN024 02/02 A2990 RMK AO2 DZE58DZB58E58 SLP122 $,M
INS,2021-12-30 15:09,-115.6733,36.5872,955.00,35.60,35.60,100.00,230.00,4.00,0.00,29.90,1012.20,10.00,M,SCT,BKN,M,M,2300.00,7500.00,M,M,M,M,M,M,M,M,M,31.62,KINS 301509Z AUTO 23004KT 10SM SCT023 BKN075 02/02 A2990 RMK AO2 DZE1458DZB1458E1458 SLP122 $,M
CXP,2021-12-30 15:10,-119.7326,39.1923,1431.00,23.00,21.20,92.69,0.00,0.00,0.00,29.82,M,7.00,M,BKN,M,M,M,800.00,M,M,M,M,M,M,M,M,M,M,23.00,KCXP 301510Z AUTO 00000KT 7SM BKN008 M05/M06 A2982 RMK AO2,M
05U,2021-12-30 15:10,-116.0051,39.6042,1811.23,1.40,-4.00,77.49,210.00,4.00,0.00,29.79,M,10.00,M,CLR,M,M,M,M,M,M,M,M,M,M,M,M,M,M,-8.31,K05U 301510Z AUTO 21004KT 10SM CLR M17/M20 A2979 RMK A01,M
INS,2021-12-30 15:14,-115.6733,36.5872,955.00,35.60,35.60,100.00,250.00,3.00,0.00,29.90,1012.20,10.00,M,BKN,BKN,M,M,2300.00,7500.00,M,M,M,M,M,M,M,M,M,32.80,KINS 301514Z AUTO 25003KT 10SM BKN023 BKN075 02/02 A2990 RMK AO2 DZE1458DZB1458E1458 CIG 023V075 BKN023 V SCT SLP122 $,M
HTH,2021-12-30 15:15,-118.6315,38.5448,1282.89,26.60,19.40,73.89,0.00,0.00,0.00,29.83,M,10.00,M,CLR,M,M,M,M,M,M,M,M,M,M,M,M,M,M,26.60,KHTH 301515Z AUTO 00000KT 10SM CLR M03/M07 A2983 RMK A01,M
BVU,2021-12-30 15:15,-114.8611,35.9475,671.00,46.40,35.60,65.83,180.00,6.00,0.00,29.94,M,10.00,M,OVC,M,M,M,4900.00,M,M,M,M,M,M,M,M,M,M,42.87,KBVU 301515Z AUTO 18006KT 10SM OVC049 08/02 A2994 RMK AO2,M
RTS,2021-12-30 15:15,-119.8764,39.6682,1539.00,23.00,21.20,92.69,350.00,5.00,0.00,29.80,M,0.25,M,OVC,M,M,M,200.00,M,M,M,FZFG,M,M,M,M,M,M,15.71,KRTS 301515Z AUTO 35005KT M1/4SM FZFG OVC002 M05/M06 A2980 RMK AO2,M
BAM,2021-12-30 15:15,-116.8743,40.5990,1382.36,30.20,24.80,80.07,260.00,11.00,0.00,29.74,M,10.00,M,SCT,M,M,M,3200.00,M,M,M,M,M,M,M,M,M,M,20.19,KBAM 301515Z AUTO 26011KT 10SM SCT032 M01/M04 A2974 RMK AO1,M
TMT,2021-12-30 15:15,-117.1971,39.4643,1749.34,-0.80,-3.80,86.73,0.00,0.00,0.00,29.80,M,M,M,M,M,M,M,M,M,M,M,M,M,M,M,M,M,M,-0.80,KTMT 301515Z AUTO 00000KT M18/M20 A2980 RMK AO2 T11821199 PWINO,M
MEV,2021-12-30 15:15,-119.7500,38.9963,1441.42,17.60,15.80,92.50,0.00,0.00,0.00,29.81,M,10.00,M,CLR,M,M,M,M,M,M,M,M,M,M,M,M,M,M,17.60,KMEV 301515Z AUTO 00000KT 10SM CLR M08/M09 A2981 RMK AO2,M
INS,2021-12-30 15:19,-115.6733,36.5872,955.00,35.60,35.60,100.00,0.00,0.00,0.00,29.90,1012.20,10.00,M,SCT,BKN,M,M,2300.00,7500.00,M,M,M,M,M,M,M,M,M,35.60,KINS 301519Z AUTO 00000KT 10SM SCT023 BKN075 02/02 A2990 RMK AO2 DZE1458DZB1458E1458 SLP122 $,M
INS,2021-12-30 15:24,-115.6733,36.5872,955.00,35.60,35.60,100.00,0.00,0.00,0.00,29.90,1012.20,10.00,M,FEW,SCT,M,M,1900.00,2500.00,M,M,M,M,M,M,M,M,M,35.60,KINS 301524Z AUTO 00000KT 10SM FEW019 SCT025 02/02 A2990 RMK AO2 DZE1458DZB1458E1458 SLP122 $,M
INS,2021-12-30 15:29,-115.6733,36.5872,955.00,35.60,35.60,100.00,0.00,0.00,0.00,29.91,1012.50,10.00,M,FEW,BKN,M,M,1900.00,2400.00,M,M,M,M,M,M,M,M,M,35.60,KINS 301529Z AUTO 00000KT 10SM FEW019 BKN024 02/02 A2991 RMK AO2 DZE1458DZB1458E1458 CIG 024V075 SLP125 $,M
CXP,2021-12-30 15:30,-119.7326,39.1923,1431.00,21.20,19.40,92.63,0.00,0.00,0.00,29.82,M,5.00,M,OVC,M,M,M,700.00,M,M,M,BR,M,M,M,M,M,M,21.20,KCXP 301530Z AUTO 00000KT 5SM BR OVC007 M06/M07 A2982 RMK AO2,M
05U,2021-12-30 15:30,-116.0051,39.6042,1811.23,3.20,-2.20,77.67,0.00,0.00,0.00,29.80,M,10.00,M,CLR,M,M,M,M,M,M,M,M,M,M,M,M,M,M,3.20,K05U 301530Z AUTO 00000KT 10SM CLR M16/M19 A2980 RMK A01,M
TMT,2021-12-30 15:35,-117.1971,39.4643,1749.34,-1.80,-5.00,85.43,0.00,0.00,0.00,29.80,M,M,M,M,M,M,M,M,M,M,M,M,M,M,M,M,M,M,-1.80,KTMT 301535Z AUTO 00000KT M19/M21 A2980 RMK AO2 T11881206 PWINO,M
HTH,2021-12-30 15:35,-118.6315,38.5448,1282.89,26.60,19.40,73.89,0.00,0.00,0.00,29.83,M,10.00,M,CLR,M,M,M,M,M,M,M,M,M,M,M,M,M,M,26.60,KHTH 301535Z AUTO 00000KT 10SM CLR M03/M07 A2983 RMK A01,M
BAM,2021-12-30 15:35,-116.8743,40.5990,1382.36,30.20,24.80,80.07,270.00,10.00,0.00,29.75,M,10.00,M,BKN,M,M,M,3400.00,M,M,M,M,M,M,M,M,M,M,20.71,KBAM 301535Z AUTO 27010KT 10SM BKN034 M01/M04 A2975 RMK AO1,M
MEV,2021-12-30 15:35,-119.7500,38.9963,1441.42,17.60,15.80,92.50,120.00,6.00,0.00,29.81,M,10.00,M,FEW,M,M,M,200.00,M,M,M,M,M,M,M,M,M,M,8.19,KMEV 301535Z AUTO 12006KT 10SM FEW002 M08/M09 A2981 RMK AO2,M
RTS,2021-12-30 15:35,-119.8764,39.6682,1539.00,23.00,21.20,92.69,360.00,4.00,0.00,29.79,M,0.25,M,OVC,M,M,M,200.00,M,M,M,FZFG,M,M,M,M,M,M,16.91,KRTS 301535Z AUTO 36004KT M1/4SM FZFG OVC002 M05/M06 A2979 RMK AO2,M
BVU,2021-12-30 15:35,-114.8611,35.9475,671.00,46.40,35.60,65.83,110.00,4.00,0.00,29.94,M,10.00,M,OVC,M,M,M,5000.00,M,M,M,M,M,M,M,M,M,M,44.24,KBVU 301535Z AUTO 11004KT 10SM OVC050 08/02 A2994 RMK AO2,M
DRA,2021-12-30 15:48,-116.0278,36.6206,1009.00,37.00,35.00,92.76,10.00,4.00,T,29.90,M,10.00,M,FEW,OVC,M,M,700.00,1900.00,M,M,M,M,M,M,M,M,M,33.26,KDRA 301548Z AUTO 01004KT 10SM FEW007 OVC019 03/02 A2990 RMK AO2 UPB12E30 P0000 T00280017,M
CXP,2021-12-30 15:50,-119.7326,39.1923,1431.00,23.00,19.40,85.85,0.00,0.00,0.00,29.81,M,9.00,M,OVC,M,M,M,700.00,M,M,M,M,M,M,M,M,M,M,23.00,KCXP 301550Z AUTO 00000KT 9SM OVC007 M05/M07 A2981 RMK AO2,M
05U,2021-12-30 15:50,-116.0051,39.6042,1811.23,1.40,-4.00,77.49,0.00,0.00,0.00,29.80,M,10.00,M,CLR,M,M,M,M,M,M,M,M,M,M,M,M,M,M,1.40,K05U 301550Z AUTO 00000KT 10SM CLR M17/M20 A2980 RMK A01,M
ELY,2021-12-30 15:53,-114.8453,39.2950,1909.00,21.90,19.00,88.40,170.00,6.00,0.00,29.78,1010.50,10.00,M,SCT,BKN,M,M,2900.00,3500.00,M,M,M,M,M,M,M,M,M,13.37,KELY 301553Z AUTO 17006KT 10SM SCT029 BKN035 M06/M07 A2978 RMK AO2 SLP105 T10561072,M
DRA,2021-12-30 15:53,-116.0278,36.6206,1009.00,37.00,35.00,92.76,0.00,0.00,T,29.90,1011.90,10.00,M,FEW,OVC,M,M,700.00,1900.00,M,M,M,M,M,M,M,M,M,37.00,KDRA 301553Z AUTO 00000KT 10SM FEW007 OVC019 03/02 A2990 RMK AO2 UPB12E30 SLP119 P0000 T00280017,M
VGT,2021-12-30 15:53,-115.1933,36.2111,667.00,46.00,36.00,67.90,50.00,3.00,0.00,29.92,1015.20,10.00,M,SCT,M,M,M,5000.00,M,M,M,M,M,M,M,M,M,M,44.69,KVGT 301553Z 05003KT 10SM SCT050 08/02 A2992 RMK AO2 SLP152 T00780022,M
LOL,2021-12-30 15:53,-118.5701,40.0684,1192.43,30.00,28.90,95.61,0.00,0.00,0.00,29.80,1011.20,10.00,M,OVC,M,M,M,1100.00,M,M,M,M,M,M,M,M,M,M,30.00,KLOL 301553Z AUTO 00000KT 10SM OVC011 M01/M02 A2980 RMK AO2 SLP112 T10111017,M
HTH,2021-12-30 15:55,-118.6315,38.5448,1282.89,26.60,19.40,73.89,270.00,6.00,0.00,29.83,M,10.00,M,CLR,M,M,M,M,M,M,M,M,M,M,M,M,M,M,19.03,KHTH 301555Z AUTO 27006KT 10SM CLR M03/M07 A2983 RMK A01,M
BAM,2021-12-30 15:55,-116.8743,40.5990,1382.36,30.20,24.80,80.07,270.00,8.00,0.00,29.74,M,10.00,M,OVC,M,M,M,3400.00,M,M,M,M,M,M,M,M,M,M,21.90,KBAM 301555Z AUTO 27008KT 10SM OVC034 M01/M04 A2974 RMK AO1,M
RNO,2021-12-30 15:55,-119.7711,39.4839,1341.00,30.00,25.00,81.40,140.00,5.00,0.00,29.80,1010.30,10.00,M,BKN,M,M,M,1100.00,M,M,M,M,M,M,M,M,M,M,24.02,KRNO 301555Z 14005KT 10SM BKN011 M01/M04 A2980 RMK AO2 SLP103 T10111039,M
BVU,2021-12-30 15:55,-114.8611,35.9475,671.00,46.40,35.60,65.83,130.00,5.00,0.00,29.94,M,10.00,M,BKN,OVC,M,M,5500.00,10000.00,M,M,M,M,M,M,M,M,M,43.50,KBVU 301555Z AUTO 13005KT 10SM BKN055 OVC100 08/02 A2994 RMK AO2,M
RTS,2021-12-30 15:55,-119.8764,39.6682,1539.00,21.20,21.20,100.00,350.00,5.00,0.00,29.80,M,0.25,M,OVC,M,M,M,200.00,M,M,M,FZFG,M,M,M,M,M,M,13.57,KRTS 301555Z AUTO 35005KT M1/4SM FZFG OVC002 M06/M06 A2980 RMK AO2,M
MEV,2021-12-30 15:55,-119.7500,38.9963,1441.42,17.60,17.60,100.00,130.00,5.00,0.00,29.81,M,0.25,M,OVC,M,M,M,200.00,M,M,M,FZFG,M,M,M,M,M,M,9.29,KMEV 301555Z AUTO 13005KT M1/4SM FZFG OVC002 M08/M08 A2981 RMK AO2 VIS M1/4V5,M
TMT,2021-12-30 15:55,-117.1971,39.4643,1749.34,0.90,-2.20,86.42,200.00,3.00,0.00,29.79,M,10.00,M,CLR,M,M,M,M,M,M,M,M,M,M,M,M,M,M,-6.86,KTMT 301555Z AUTO 20003KT 10SM CLR M17/M19 A2979 RMK AO2 T11731190 PWINO,M
WMC,2021-12-30 15:56,-117.8072,40.9019,1315.00,28.00,24.10,85.08,180.00,9.00,0.00,29.74,1009.40,10.00,M,BKN,BKN,M,M,2700.00,3200.00,M,M,M,M,M,M,M,M,M,18.54,KWMC 301556Z AUTO 18009KT 10SM BKN027 BKN032 M02/M04 A2974 RMK AO2 SLP094 T10221044,M
EKO,2021-12-30 15:56,-115.7860,40.8242,1367.00,30.00,21.00,68.81,220.00,13.00,0.00,29.70,1007.60,10.00,M,BKN,OVC,M,M,3200.00,4100.00,M,M,M,M,M,M,M,M,M,19.01,KEKO 301556Z AUTO 22013KT 10SM BKN032 OVC041 M01/M06 A2970 RMK AO2 SLP076 T10111061,M
LAS,2021-12-30 15:56,-115.1634,36.0719,663.00,46.00,36.00,67.90,0.00,0.00,0.00,29.93,1013.40,10.00,M,FEW,SCT,BKN,BKN,4000.00,5500.00,9000.00,20000.00,M,M,M,M,M,M,M,46.00,KLAS 301556Z 00000KT 10SM FEW040 SCT055 BKN090 BKN200 08/02 A2993 RMK AO2 SLP134 T00780022,M
HND,2021-12-30 15:56,-115.1344,35.9729,742.79,46.00,35.00,65.52,210.00,9.00,0.00,29.93,1015.50,10.00,M,OVC,M,M,M,9000.00,M,M,M,M,M,M,M,M,M,M,40.92,KHND 301556Z 21009KT 10SM OVC090 08/02 A2993 RMK AO2 SLP155 T00780017,M
TPH,2021-12-30 15:56,-117.0904,38.0505,1654.00,30.00,28.90,95.61,0.00,0.00,0.00,29.84,1011.90,9.00,M,SCT,OVC,M,M,500.00,2800.00,M,M,M,M,M,M,M,M,M,30.00,KTPH 301556Z AUTO 00000KT 9SM SCT005 OVC028 M01/M02 A2984 RMK AO2 SLP119 T10111017,M
NFL,2021-12-30 15:56,-118.7010,39.4166,1199.00,24.10,21.90,91.17,0.00,0.00,0.00,29.81,1007.10,10.00,M,CLR,M,M,M,M,M,M,M,M,M,M,M,M,M,M,24.10,KNFL 301556Z AUTO 00000KT 10SM CLR M04/M06 A2981 RMK AO2 SLP071 T10441056,M
INS,2021-12-30 15:58,-115.6733,36.5872,955.00,35.60,35.40,99.21,0.00,0.00,T,29.91,1012.50,10.00,M,BKN,M,M,M,2400.00,M,M,M,M,M,M,M,M,M,M,35.60,KINS 301558Z AUTO 00000KT 10SM BKN024 02/02 A2991 RMK AO2 DZE1458DZB1458E1458 SLP125 P0000 T00200019 $,M
LSV,2021-12-30 15:58,-115.0343,36.2362,570.00,45.70,43.50,91.96,60.00,8.00,0.00,29.93,1013.40,10.00,M,BKN,BKN,M,M,5500.00,9000.00,M,M,M,M,M,M,M,M,M,40.99,KLSV 301558Z 06008KT 10SM BKN055 BKN090 08/06 A2993 RMK AO2A SLP134 T00760064 $,M
WMC,2021-12-30 16:03,-117.8072,40.9019,1315.00,27.00,24.10,88.65,190.00,11.00,0.00,29.74,M,10.00,M,SCT,M,M,M,2700.00,M,M,M,M,M,M,M,M,M,M,16.15,KWMC 301603Z AUTO 19011KT 10SM SCT027 M03/M04 A2974 RMK AO2 T10281044,M
05U,2021-12-30 16:10,-116.0051,39.6042,1811.23,5.00,1.40,84.68,0.00,0.00,0.00,29.79,M,10.00,M,SCT,M,M,M,200.00,M,M,M,M,M,M,M,M,M,M,5.00,K05U 301610Z AUTO 00000KT 10SM SCT002 M15/M17 A2979 RMK A01,M
CXP,2021-12-30 16:10,-119.7326,39.1923,1431.00,24.80,23.00,92.74,0.00,0.00,0.00,29.81,M,9.00,M,OVC,M,M,M,600.00,M,M,M,M,M,M,M,M,M,M,24.80,KCXP 301610Z AUTO 00000KT 9SM OVC006 M04/M05 A2981 RMK AO2,M
TPH,2021-12-30 16:12,-117.0904,38.0505,1654.00,30.00,28.90,95.61,0.00,0.00,0.00,29.85,M,10.00,M,BKN,BKN,OVC,M,500.00,1700.00,2800.00,M,M,M,M,M,M,M,M,30.00,KTPH 301612Z AUTO 00000KT 10SM BKN005 BKN017 OVC028 M01/M02 A2985 RMK AO2 T10111017,M
INS,2021-12-30 16:13,-115.6733,36.5872,955.00,37.40,35.60,93.14,250.00,3.00,0.00,29.91,1012.50,10.00,M,SCT,M,M,M,2200.00,M,M,M,M,M,M,M,M,M,M,34.86,KINS 301613Z AUTO 25003KT 10SM SCT022 03/02 A2991 RMK AO2 SLP125 $,M
BVU,2021-12-30 16:15,-114.8611,35.9475,671.00,46.40,35.60,65.83,130.00,4.00,0.00,29.95,M,10.00,M,FEW,OVC,M,M,5500.00,10000.00,M,M,M,M,M,M,M,M,M,44.24,KBVU 301615Z AUTO 13004KT 10SM FEW055 OVC100 08/02 A2995 RMK AO2,M
RTS,2021-12-30 16:15,-119.8764,39.6682,1539.00,21.20,19.40,92.63,0.00,0.00,0.00,29.81,M,0.25,M,OVC,M,M,M,200.00,M,M,M,FZFG,M,M,M,M,M,M,21.20,KRTS 301615Z AUTO 00000KT M1/4SM FZFG OVC002 M06/M07 A2981 RMK AO2,M
HTH,2021-12-30 16:15,-118.6315,38.5448,1282.89,28.40,21.20,74.08,0.00,0.00,0.00,29.83,M,10.00,M,CLR,M,M,M,M,M,M,M,M,M,M,M,M,M,M,28.40,KHTH 301615Z AUTO 00000KT 10SM CLR M02/M06 A2983 RMK A01,M
MEV,2021-12-30 16:15,-119.7500,38.9963,1441.42,21.20,21.20,100.00,0.00,0.00,0.00,29.81,M,0.25,M,OVC,M,M,M,200.00,M,M,M,FZFG,M,M,M,M,M,M,21.20,KMEV 301615Z AUTO 00000KT M1/4SM FZFG OVC002 M06/M06 A2981 RMK AO2,M
TMT,2021-12-30 16:15,-117.1971,39.4643,1749.34,9.50,7.30,90.57,200.00,7.00,0.00,29.79,M,10.00,M,CLR,M,M,M,M,M,M,M,M,M,M,M,M,M,M,-2.65,KTMT 301615Z AUTO 20007KT 10SM CLR M12/M14 A2979 RMK AO2 T11251137 PWINO,M
BAM,2021-12-30 16:15,-116.8743,40.5990,1382.36,30.20,23.00,74.26,280.00,14.00,0.00,29.75,M,10.00,18.00,BKN,M,M,M,3400.00,M,M,M,M,M,M,M,M,M,M,18.84,KBAM 301615Z AUTO 28014G18KT 10SM BKN034 M01/M05 A2975 RMK AO1,M
05U,2021-12-30 16:30,-116.0051,39.6042,1811.23,8.60,5.00,84.93,0.00,0.00,0.00,29.79,M,8.00,M,SCT,M,M,M,200.00,M,M,M,M,M,M,M,M,M,M,8.60,K05U 301630Z AUTO 00000KT 8SM SCT002 M13/M15 A2979 RMK A01,M
CXP,2021-12-30 16:30,-119.7326,39.1923,1431.00,24.80,23.00,92.74,0.00,0.00,0.00,29.81,M,9.00,M,OVC,M,M,M,500.00,M,M,M,M,M,M,M,M,M,M,24.80,KCXP 301630Z AUTO 00000KT 9SM OVC005 M04/M05 A2981 RMK AO2,M
HTH,2021-12-30 16:35,-118.6315,38.5448,1282.89,30.20,21.20,68.83,130.00,8.00,0.00,29.84,M,10.00,M,CLR,M,M,M,M,M,M,M,M,M,M,M,M,M,M,21.90,KHTH 301635Z AUTO 13008KT 10SM CLR M01/M06 A2984 RMK A01,M
BVU,2021-12-30 16:35,-114.8611,35.9475,671.00,48.20,37.40,66.05,150.00,6.00,0.00,29.94,M,10.00,12.00,FEW,BKN,BKN,M,5500.00,10000.00,12000.00,M,M,M,M,M,M,M,M,45.04,KBVU 301635Z AUTO 15006G12KT 10SM FEW055 BKN100 BKN120 09/03 A2994 RMK AO2,M
RTS,2021-12-30 16:35,-119.8764,39.6682,1539.00,21.20,19.40,92.63,M,4.00,0.00,29.81,M,0.25,M,BKN,M,M,M,200.00,M,M,M,FZFG,M,M,M,M,M,M,14.81,KRTS 301635Z AUTO VRB04KT M1/4SM FZFG BKN002 M06/M07 A2981 RMK AO2,M
TPH,2021-12-30 16:35,-117.0904,38.0505,1654.00,30.00,28.90,95.61,0.00,0.00,0.00,29.85,M,5.00,M,BKN,OVC,M,M,400.00,1600.00,M,M,BR,M,M,M,M,M,M,30.00,KTPH 301635Z AUTO 00000KT 5SM BR BKN004 OVC016 M01/M02 A2985 RMK AO2 T10111017,M
MEV,2021-12-30 16:35,-119.7500,38.9963,1441.42,21.20,21.20,100.00,0.00,0.00,0.00,29.80,M,0.25,M,OVC,M,M,M,200.00,M,M,M,FZFG,M,M,M,M,M,M,21.20,KMEV 301635Z AUTO 00000KT M1/4SM FZFG OVC002 M06/M06 A2980 RMK AO2,M
BAM,2021-12-30 16:35,-116.8743,40.5990,1382.36,30.20,23.00,74.26,260.00,12.00,0.00,29.74,M,10.00,17.00,SCT,M,M,M,3400.00,M,M,M,M,M,M,M,M,M,M,19.71,KBAM 301635Z AUTO 26012G17KT 10SM SCT034 M01/M05 A2974 RMK AO1,M
TMT,2021-12-30 16:35,-117.1971,39.4643,1749.34,7.70,4.50,86.44,240.00,3.00,0.00,29.79,M,M,M,M,M,M,M,M,M,M,M,M,M,M,M,M,M,M,0.91,KTMT 301635Z AUTO 24003KT M13/M15 A2979 RMK AO2 T11351153 PWINO,M
TPH,2021-12-30 16:49,-117.0904,38.0505,1654.00,30.00,30.00,100.00,150.00,3.00,T,29.85,M,1.75,M,BKN,BKN,OVC,M,400.00,1600.00,2800.00,M,-SN BR,M,M,M,M,M,M,26.40,KTPH 301649Z AUTO 15003KT 1 3/4SM -SN BR BKN004 BKN016 OVC028 M01/M01 A2985 RMK AO2 SNB41 P0000 T10111011,M
CXP,2021-12-30 16:50,-119.7326,39.1923,1431.00,26.60,23.00,86.07,0.00,0.00,0.00,29.82,M,9.00,M,OVC,M,M,M,500.00,M,M,M,M,M,M,M,M,M,M,26.60,KCXP 301650Z AUTO 00000KT 9SM OVC005 M03/M05 A2982 RMK AO2,M
05U,2021-12-30 16:50,-116.0051,39.6042,1811.23,12.20,8.60,85.17,0.00,0.00,0.00,29.79,M,10.00,M,FEW,M,M,M,200.00,M,M,M,M,M,M,M,M,M,M,12.20,K05U 301650Z AUTO 00000KT 10SM FEW002 M11/M13 A2979 RMK A01,M
DRA,2021-12-30 16:53,-116.0278,36.6206,1009.00,39.00,35.00,85.76,0.00,0.00,T,29.91,1012.10,10.00,M,BKN,OVC,M,M,2200.00,5500.00,M,M,M,M,M,M,M,M,M,39.00,KDRA 301653Z AUTO 00000KT 10SM BKN022 OVC055 04/02 A2991 RMK AO2 UPB00E09 SLP121 P0000 T00390017,M
LOL,2021-12-30 16:53,-118.5701,40.0684,1192.43,28.90,28.00,96.38,150.00,5.00,0.00,29.81,1011.40,10.00,M,FEW,BKN,M,M,400.00,1200.00,M,M,M,M,M,M,M,M,M,22.71,KLOL 301653Z AUTO 15005KT 10SM FEW004 BKN012 M02/M02 A2981 RMK AO2 SLP114 T10171022,M
VGT,2021-12-30 16:53,-115.1933,36.2111,667.00,48.00,36.00,62.97,100.00,5.00,0.00,29.94,1015.50,10.00,M,FEW,BKN,M,M,9000.00,11000.00,M,M,M,M,M,M,M,M,M,45.40,KVGT 301653Z 10005KT 10SM FEW090 BKN110 09/02 A2994 RMK AO2 SLP155 T00890022,M
ELY,2021-12-30 16:53,-114.8453,39.2950,1909.00,28.00,23.00,81.25,210.00,7.00,0.00,29.76,1009.00,10.00,M,FEW,M,M,M,3100.00,M,M,M,M,M,M,M,M,M,M,19.90,KELY 301653Z AUTO 21007KT 10SM FEW031 M02/M05 A2976 RMK AO2 SLP090 T10221050,M
RTS,2021-12-30 16:55,-119.8764,39.6682,1539.00,23.00,21.20,92.69,100.00,4.00,0.00,29.80,M,0.25,M,BKN,M,M,M,200.00,M,M,M,FZFG,M,M,M,M,M,M,16.91,KRTS 301655Z AUTO 10004KT 1/4SM FZFG BKN002 M05/M06 A2980 RMK AO2,M
MEV,2021-12-30 16:55,-119.7500,38.9963,1441.42,23.00,21.20,92.69,0.00,0.00,0.00,29.81,M,0.25,M,OVC,M,M,M,200.00,M,M,M,FZFG,M,M,M,M,M,M,23.00,KMEV 301655Z AUTO 00000KT M1/4SM FZFG OVC002 M05/M06 A2981 RMK AO2,M
TMT,2021-12-30 16:55,-117.1971,39.4643,1749.34,11.10,8.10,87.43,70.00,5.00,0.00,29.80,M,10.00,M,CLR,M,M,M,M,M,M,M,M,M,M,M,M,M,M,1.57,KTMT 301655Z AUTO 07005KT 10SM CLR M12/M13 A2980 RMK AO2 T11161133,M
HTH,2021-12-30 16:55,-118.6315,38.5448,1282.89,32.00,21.20,63.99,140.00,9.00,0.00,29.83,M,10.00,M,CLR,M,M,M,M,M,M,M,M,M,M,M,M,M,M,23.51,KHTH 301655Z AUTO 14009KT 10SM CLR M00/M06 A2983 RMK A01,M
RNO,2021-12-30 16:55,-119.7711,39.4839,1341.00,28.90,25.00,85.14,80.00,6.00,0.00,29.82,1011.10,10.00,M,BKN,M,M,M,1100.00,M,M,M,M,M,M,M,M,M,M,21.80,KRNO 301655Z 08006KT 10SM BKN011 M02/M04 A2982 RMK AO2 SLP111 T10171039,M
BVU,2021-12-30 16:55,-114.8611,35.9475,671.00,50.00,35.60,57.52,160.00,9.00,0.00,29.95,M,10.00,M,FEW,SCT,BKN,M,5500.00,10000.00,12000.00,M,M,M,M,M,M,M,M,50.00,KBVU 301655Z AUTO 16009KT 10SM FEW055 SCT100 BKN120 10/02 A2995 RMK AO2,M
BAM,2021-12-30 16:55,-116.8743,40.5990,1382.36,32.00,23.00,69.04,260.00,12.00,0.00,29.74,M,10.00,M,SCT,M,M,M,3400.00,M,M,M,M,M,M,M,M,M,M,22.00,KBAM 301655Z AUTO 26012KT 10SM SCT034 00/M05 A2974 RMK AO1,M
WMC,2021-12-30 16:56,-117.8072,40.9019,1315.00,30.00,25.00,81.40,190.00,5.00,0.00,29.74,1008.90,10.00,M,SCT,BKN,M,M,2700.00,12000.00,M,M,M,M,M,M,M,M,M,24.02,KWMC 301656Z AUTO 19005KT 10SM SCT027 BKN120 M01/M04 A2974 RMK AO2 SLP089 T10111039,M
LAS,2021-12-30 16:56,-115.1634,36.0719,663.00,47.00,36.00,65.63,0.00,0.00,0.00,29.94,1013.70,10.00,M,FEW,FEW,BKN,M,4000.00,5500.00,9500.00,M,M,M,M,M,M,M,M,46.90,KLAS 301656Z 00000KT 10SM FEW040 FEW055 BKN095 08/02 A2994 RMK AO2 SLP137 T00830022,M
EKO,2021-12-30 16:56,-115.7860,40.8242,1367.00,30.00,19.00,63.18,220.00,11.00,0.00,29.71,1008.00,10.00,M,BKN,OVC,M,M,3400.00,4600.00,M,M,M,M,M,M,M,M,M,19.94,KEKO 301656Z AUTO 22011KT 10SM BKN034 OVC046 M01/M07 A2971 RMK AO2 SLP080 T10111072,M
NFL,2021-12-30 16:56,-118.7010,39.4166,1199.00,28.00,26.10,92.46,170.00,5.00,0.00,29.81,1007.20,10.00,M,CLR,M,M,M,M,M,M,M,M,M,M,M,M,M,M,21.64,KNFL 301656Z AUTO 17005KT 10SM CLR M02/M03 A2981 RMK AO2 SLP072 T10221033,M
TPH,2021-12-30 16:56,-117.0904,38.0505,1654.00,30.90,30.00,96.41,160.00,3.00,T,29.86,1012.30,2.00,M,SCT,BKN,OVC,M,400.00,1600.00,2800.00,M,-SN BR,M,M,M,M,M,M,27.43,KTPH 301656Z AUTO 16003KT 2SM -SN BR SCT004 BKN016 OVC028 M01/M01 A2986 RMK AO2 SNB41 SLP123 P0000 T10061011,M
HND,2021-12-30 16:56,-115.1344,35.9729,742.79,48.00,35.00,60.76,M,5.00,0.00,29.95,1016.00,10.00,M,OVC,M,M,M,11000.00,M,M,M,M,M,M,M,M,M,M,45.40,KHND 301656Z VRB05KT 10SM OVC110 09/02 A2995 RMK AO2 SLP160 T00890017,M
INS,2021-12-30 16:58,-115.6733,36.5872,955.00,39.60,38.80,96.93,330.00,4.00,0.00,29.92,1012.70,10.00,M,SCT,M,M,M,2200.00,M,M,M,M,M,M,M,M,M,M,36.30,KINS 301658Z AUTO 33004KT 10SM SCT022 04/04 A2992 RMK AO2 SLP127 T00420038 $,M
LSV,2021-12-30 16:58,-115.0343,36.2362,570.00,48.40,40.50,74.00,80.00,4.00,0.00,29.95,1014.10,10.00,M,BKN,SCT,M,M,5000.00,10000.00,M,M,M,M,M,M,M,M,M,46.57,KLSV 301658Z 08004KT 10SM BKN050 SCT100 09/05 A2995 RMK AO2A SLP141 T00910047 $,M
INS,2021-12-30 17:08,-115.6733,36.5872,955.00,39.20,39.20,100.00,0.00,0.00,0.00,29.92,1012.70,10.00,M,BKN,M,M,M,2100.00,M,M,M,M,M,M,M,M,M,M,39.20,KINS 301708Z AUTO 00000KT 10SM BKN021 04/04 A2992 RMK AO2 SLP127 $,M
TPH,2021-12-30 17:08,-117.0904,38.0505,1654.00,30.90,30.00,96.41,180.00,4.00,T,29.85,M,5.00,M,FEW,SCT,OVC,M,400.00,1600.00,2900.00,M,BR,M,M,M,M,M,M,26.14,KTPH 301708Z AUTO 18004KT 5SM BR FEW004 SCT016 OVC029 M01/M01 A2985 RMK AO2 SNE05 P0000 T10061011,M
CXP,2021-12-30 17:10,-119.7326,39.1923,1431.00,24.80,21.20,85.96,0.00,0.00,0.00,29.83,M,10.00,M,OVC,M,M,M,600.00,M,M,M,M,M,M,M,M,M,M,24.80,KCXP 301710Z AUTO 00000KT 10SM OVC006 M04/M06 A2983 RMK AO2,M
05U,2021-12-30 17:10,-116.0051,39.6042,1811.23,15.80,12.20,85.40,0.00,0.00,0.00,29.80,M,10.00,M,CLR,M,M,M,M,M,M,M,M,M,M,M,M,M,M,15.80,K05U 301710Z AUTO 00000KT 10SM CLR M09/M11 A2980 RMK A01,M
LOL,2021-12-30 17:10,-118.5701,40.0684,1192.43,30.00,28.00,92.15,160.00,7.00,0.00,29.81,M,10.00,M,FEW,FEW,M,M,400.00,1100.00,M,M,M,M,M,M,M,M,M,22.34,KLOL 301710Z AUTO 16007KT 10SM FEW004 FEW011 M01/M02 A2981 RMK AO2 T10111022,M
INS,2021-12-30 17:13,-115.6733,36.5872,955.00,39.20,37.40,93.19,0.00,0.00,0.00,29.92,1012.90,10.00,M,BKN,M,M,M,1900.00,M,M,M,M,M,M,M,M,M,M,39.20,KINS 301713Z AUTO 00000KT 10SM BKN019 04/03 A2992 RMK AO2 SLP129 $,M
BVU,2021-12-30 17:15,-114.8611,35.9475,671.00,50.00,35.60,57.52,150.00,12.00,0.00,29.96,M,10.00,M,FEW,OVC,M,M,5500.00,12000.00,M,M,M,M,M,M,M,M,M,50.00,KBVU 301715Z AUTO 15012KT 10SM FEW055 OVC120 10/02 A2996 RMK AO2,M
TMT,2021-12-30 17:15,-117.1971,39.4643,1749.34,18.00,11.70,75.95,90.00,4.00,0.00,29.79,M,10.00,M,CLR,M,M,M,M,M,M,M,M,M,M,M,M,M,M,11.07,KTMT 301715Z AUTO 09004KT 10SM CLR M08/M11 A2979 RMK AO2 T10781113,M
RTS,2021-12-30 17:15,-119.8764,39.6682,1539.00,23.00,21.20,92.69,M,3.00,0.00,29.80,M,0.25,M,BKN,M,M,M,200.00,M,M,M,FZFG,M,M,M,M,M,M,18.40,KRTS 301715Z AUTO VRB03KT M1/4SM FZFG BKN002 M05/M06 A2980 RMK AO2,M
MEV,2021-12-30 17:15,-119.7500,38.9963,1441.42,23.00,23.00,100.00,340.00,4.00,0.00,29.81,M,0.25,M,OVC,M,M,M,200.00,M,M,M,FZFG,M,M,M,M,M,M,16.91,KMEV 301715Z AUTO 34004KT M1/4SM FZFG OVC002 M05/M05 A2981 RMK AO2,M
BAM,2021-12-30 17:15,-116.8743,40.5990,1382.36,32.00,23.00,69.04,260.00,12.00,0.00,29.76,M,10.00,M,CLR,M,M,M,M,M,M,M,M,M,M,M,M,M,M,22.00,KBAM 301715Z AUTO 26012KT 10SM CLR 00/M05 A2976 RMK AO1,M
HTH,2021-12-30 17:15,-118.6315,38.5448,1282.89,33.80,21.20,59.53,130.00,6.00,0.00,29.83,M,10.00,M,CLR,M,M,M,M,M,M,M,M,M,M,M,M,M,M,27.70,KHTH 301715Z AUTO 13006KT 10SM CLR 01/M06 A2983 RMK A01,M
INS,2021-12-30 17:23,-115.6733,36.5872,955.00,39.20,37.40,93.19,0.00,0.00,0.00,29.92,1012.90,10.00,M,SCT,M,M,M,1800.00,M,M,M,M,M,M,M,M,M,M,39.20,KINS 301723Z AUTO 00000KT 10SM SCT018 04/03 A2992 RMK AO2 SLP129 $,M
TPH,2021-12-30 17:27,-117.0904,38.0505,1654.00,30.90,30.00,96.41,190.00,3.00,T,29.85,M,5.00,M,BKN,BKN,OVC,M,400.00,1500.00,2800.00,M,BR,M,M,M,M,M,M,27.43,KTPH 301727Z AUTO 19003KT 5SM BR BKN004 BKN015 OVC028 M01/M01 A2985 RMK AO2 SNE05 P0000 T10061011,M
INS,2021-12-30 17:28,-115.6733,36.5872,955.00,39.20,37.40,93.19,0.00,0.00,0.00,29.92,1012.90,10.00,M,BKN,M,M,M,2000.00,M,M,M,M,M,M,M,M,M,M,39.20,KINS 301728Z AUTO 00000KT 10SM BKN020 04/03 A2992 RMK AO2 CIG 019V023 SLP129 $,M
CXP,2021-12-30 17:30,-119.7326,39.1923,1431.00,24.80,23.00,92.74,0.00,0.00,0.00,29.83,M,9.00,M,BKN,M,M,M,600.00,M,M,M,M,M,M,M,M,M,M,24.80,KCXP 301730Z AUTO 00000KT 9SM BKN006 M04/M05 A2983 RMK AO2,M
05U,2021-12-30 17:30,-116.0051,39.6042,1811.23,17.60,14.00,85.51,0.00,0.00,0.00,29.80,M,10.00,M,CLR,M,M,M,M,M,M,M,M,M,M,M,M,M,M,17.60,K05U 301730Z AUTO 00000KT 10SM CLR M08/M10 A2980 RMK A01,M
INS,2021-12-30 17:33,-115.6733,36.5872,955.00,41.00,37.40,86.89,0.00,0.00,0.00,29.92,1012.70,10.00,M,SCT,M,M,M,2000.00,M,M,M,M,M,M,M,M,M,M,41.00,KINS 301733Z AUTO 00000KT 10SM SCT020 05/03 A2992 RMK AO2 SLP127 $,M
BAM,2021-12-30 17:35,-116.8743,40.5990,1382.36,32.00,23.00,69.04,250.00,14.00,0.00,29.75,M,10.00,18.00,SCT,M,M,M,12000.00,M,M,M,M,M,M,M,M,M,M,21.16,KBAM 301735Z AUTO 25014G18KT 10SM SCT120 00/M05 A2975 RMK AO1,M
MEV,2021-12-30 17:35,-119.7500,38.9963,1441.42,23.00,23.00,100.00,M,4.00,0.00,29.81,M,0.50,M,BKN,M,M,M,300.00,M,M,M,FZFG,M,M,M,M,M,M,16.91,KMEV 301735Z AUTO VRB04KT 1/2SM FZFG BKN003 M05/M05 A2981 RMK AO2,M
RTS,2021-12-30 17:35,-119.8764,39.6682,1539.00,28.40,26.60,92.86,270.00,8.00,0.00,29.80,M,10.00,17.00,CLR,M,M,M,M,M,M,M,M,M,M,M,M,M,M,19.68,KRTS 301735Z AUTO 27008G17KT 10SM CLR M02/M03 A2980 RMK AO2,M
BVU,2021-12-30 17:35,-114.8611,35.9475,671.00,51.80,37.40,57.77,160.00,14.00,0.00,29.95,M,10.00,M,FEW,SCT,M,M,3800.00,12000.00,M,M,M,M,M,M,M,M,M,51.80,KBVU 301735Z AUTO 16014KT 10SM FEW038 SCT120 11/03 A2995 RMK AO2,M
HTH,2021-12-30 17:35,-118.6315,38.5448,1282.89,33.80,21.20,59.53,140.00,3.00,0.00,29.83,M,10.00,M,CLR,M,M,M,M,M,M,M,M,M,M,M,M,M,M,30.75,KHTH 301735Z AUTO 14003KT 10SM CLR 01/M06 A2983 RMK A01,M
TMT,2021-12-30 17:35,-117.1971,39.4643,1749.34,21.40,13.60,71.44,30.00,3.00,0.00,29.80,M,M,M,CLR,M,M,M,M,M,M,M,M,M,M,M,M,M,M,16.57,KTMT 301735Z AUTO 03003KT CLR M06/M10 A2980 RMK AO2 T10591102 PWINO,M
TPH,2021-12-30 17:36,-117.0904,38.0505,1654.00,30.90,30.00,96.41,170.00,3.00,T,29.85,M,5.00,M,BKN,BKN,OVC,M,500.00,1500.00,2900.00,M,BR,M,M,M,M,M,M,27.43,KTPH 301736Z AUTO 17003KT 5SM BR BKN005 BKN015 OVC029 M01/M01 A2985 RMK AO2 SNE05 P0000 T10061011,M
ELY,2021-12-30 17:36,-114.8453,39.2950,1909.00,32.00,24.80,74.44,170.00,13.00,0.00,29.76,M,10.00,M,BKN,BKN,OVC,M,2700.00,3300.00,4100.00,M,M,M,M,M,M,M,M,21.57,KELY 301736Z AUTO 17013KT 10SM BKN027 BKN033 OVC041 00/M04 A2976,M
INS,2021-12-30 17:48,-115.6733,36.5872,955.00,41.00,35.60,80.93,0.00,0.00,0.00,29.92,1012.70,10.00,M,BKN,M,M,M,1900.00,M,M,M,M,M,M,M,M,M,M,41.00,KINS 301748Z AUTO 00000KT 10SM BKN019 05/02 A2992 RMK AO2 BKN V SCT SLP127 $,M
05U,2021-12-30 17:50,-116.0051,39.6042,1811.23,19.40,14.00,79.16,0.00,0.00,0.00,29.79,M,10.00,M,CLR,M,M,M,M,M,M,M,M,M,M,M,M,M,M,19.40,K05U 301750Z AUTO 00000KT 10SM CLR M07/M10 A2979 RMK A01,M
CXP,2021-12-30 17:50,-119.7326,39.1923,1431.00,26.60,23.00,86.07,310.00,4.00,0.00,29.82,M,9.00,M,SCT,M,M,M,500.00,M,M,M,M,M,M,M,M,M,M,21.11,KCXP 301750Z AUTO 31004KT 9SM SCT005 M03/M05 A2982 RMK AO2,M
INS,2021-12-30 17:53,-115.6733,36.5872,955.00,41.00,35.60,80.93,290.00,3.00,0.00,29.92,1012.70,10.00,M,SCT,M,M,M,1900.00,M,M,M,M,M,M,M,M,M,M,38.98,KINS 301753Z AUTO 29003KT 10SM SCT019 05/02 A2992 RMK AO2 SLP127 $,M
VGT,2021-12-30 17:53,-115.1933,36.2111,667.00,50.00,35.00,56.39,120.00,7.00,0.00,29.93,1015.30,10.00,M,FEW,M,M,M,10000.00,M,M,M,M,M,M,M,M,M,M,50.00,KVGT 301753Z 12007KT 10SM FEW100 10/02 A2993 RMK AO2 SLP153 60000 T01000017 10100 20067 50003,M
DRA,2021-12-30 17:53,-116.0278,36.6206,1009.00,39.00,36.00,88.87,0.00,0.00,T,29.91,1012.20,10.00,M,BKN,OVC,M,M,2300.00,4400.00,M,M,-RA,M,M,M,M,M,M,39.00,KDRA 301753Z AUTO 00000KT 10SM -RA BKN023 OVC044 04/02 A2991 RMK AO2 RAB47 SLP122 P0000 60003 T00390022 10039 20022 52006,M
LOL,2021-12-30 17:53,-118.5701,40.0684,1192.43,30.90,28.90,92.18,190.00,7.00,0.00,29.80,1011.00,10.00,M,FEW,BKN,M,M,700.00,11000.00,M,M,M,M,M,M,M,M,M,23.44,KLOL 301753Z AUTO 19007KT 10SM FEW007 BKN110 M01/M02 A2980 RMK AO2 SLP110 T10061017 11006 21017 58001,M
ELY,2021-12-30 17:53,-114.8453,39.2950,1909.00,33.00,24.10,69.17,200.00,9.00,0.00,29.76,1008.00,10.00,M,SCT,BKN,OVC,M,2700.00,3500.00,4200.00,M,M,M,M,M,M,M,M,24.88,KELY 301753Z AUTO 20009KT 10SM SCT027 BKN035 OVC042 01/M04 A2976 RMK AO2 SLP080 60000 T00061044 10006 21078 56005,M
MEV,2021-12-30 17:55,-119.7500,38.9963,1441.42,26.60,24.80,92.80,150.00,4.00,0.00,29.80,M,10.00,M,FEW,M,M,M,400.00,M,M,M,M,M,M,M,M,M,M,21.11,KMEV 301755Z AUTO 15004KT 10SM FEW004 M03/M04 A2980 RMK AO2,M
TMT,2021-12-30 17:55,-117.1971,39.4643,1749.34,25.70,16.50,67.70,0.00,0.00,0.00,29.79,M,10.00,M,CLR,M,M,M,M,M,M,M,M,M,M,M,M,M,M,25.70,KTMT 301755Z AUTO 00000KT 10SM CLR M03/M09 A2979 RMK AO2 T10351086 11035 21188,M
RNO,2021-12-30 17:55,-119.7711,39.4839,1341.00,30.90,26.10,82.15,170.00,4.00,0.00,29.81,1010.30,10.00,M,BKN,BKN,M,M,1000.00,9500.00,M,M,M,M,M,M,M,M,M,26.14,KRNO 301755Z 17004KT 10SM BKN010 BKN095 M01/M03 A2981 RMK AO2 SLP103 4/001 T10061033 11006 21022 56003,1
BAM,2021-12-30 17:55,-116.8743,40.5990,1382.36,32.00,24.80,74.44,260.00,11.00,0.00,29.75,M,10.00,17.00,SCT,M,M,M,12000.00,M,M,M,M,M,M,M,M,M,M,22.47,KBAM 301755Z AUTO 26011G17KT 10SM SCT120 00/M04 A2975 RMK AO1,M
HTH,2021-12-30 17:55,-118.6315,38.5448,1282.89,35.60,21.20,55.41,240.00,3.00,0.00,29.83,M,10.00,M,CLR,M,M,M,M,M,M,M,M,M,M,M,M,M,M,32.80,KHTH 301755Z AUTO 24003KT 10SM CLR 02/M06 A2983 RMK A01,M
BVU,2021-12-30 17:55,-114.8611,35.9475,671.00,51.80,37.40,57.77,150.00,11.00,0.00,29.95,M,10.00,16.00,FEW,FEW,M,M,3700.00,12000.00,M,M,M,M,M,M,M,M,M,51.80,KBVU 301755Z AUTO 15011G16KT 10SM FEW037 FEW120 11/03 A2995 RMK AO2,M
RTS,2021-12-30 17:55,-119.8764,39.6682,1539.00,26.60,26.60,100.00,0.00,0.00,0.00,29.79,M,10.00,M,CLR,M,M,M,M,M,M,M,M,M,M,M,M,M,M,26.60,KRTS 301755Z AUTO 00000KT 10SM CLR M03/M03 A2979 RMK AO2,M
EKO,2021-12-30 17:56,-115.7860,40.8242,1367.00,30.90,19.90,63.31,240.00,9.00,0.00,29.71,1007.90,10.00,M,BKN,OVC,M,M,3700.00,4600.00,M,M,M,M,M,M,M,M,M,22.15,KEKO 301756Z AUTO 24009KT 10SM BKN037 OVC046 M01/M07 A2971 RMK AO2 SLP079 T10061067 11006 21033 56002,M
NFL,2021-12-30 17:56,-118.7010,39.4166,1199.00,30.90,28.00,88.84,170.00,5.00,0.00,29.81,1007.30,10.00,M,CLR,M,M,M,M,M,M,M,M,M,M,M,M,M,M,25.09,KNFL 301756Z AUTO 17005KT 10SM CLR M01/M02 A2981 RMK AO2 SLP073 T10061022 11006 21050 53000,M
HND,2021-12-30 17:56,-115.1344,35.9729,742.79,51.00,36.00,56.10,170.00,9.00,0.00,29.94,1015.60,10.00,M,BKN,M,M,M,11000.00,M,M,M,M,M,M,M,M,M,M,51.10,KHND 301756Z 17009KT 10SM BKN110 11/02 A2994 RMK AO2 SLP156 T01060022 10111 20061 50002,M
TPH,2021-12-30 17:56,-117.0904,38.0505,1654.00,32.00,30.00,92.22,180.00,4.00,T,29.85,1011.70,10.00,M,BKN,OVC,M,M,600.00,2900.00,M,M,M,M,M,M,M,M,M,27.42,KTPH 301756Z AUTO 18004KT 10SM BKN006 OVC029 00/M01 A2985 RMK AO2 SNE05 SLP117 P0000 60000 T00001011 10000 21017 50004,M
LAS,2021-12-30 17:56,-115.1634,36.0719,663.00,49.00,35.00,58.75,0.00,0.00,0.00,29.93,1013.50,10.00,M,FEW,BKN,BKN,M,5500.00,9500.00,12000.00,M,M,M,M,M,M,M,M,48.90,KLAS 301756Z 00000KT 10SM FEW055 BKN095 BKN120 09/02 A2993 RMK AO2 SLP135 T00940017 10094 20067 50003,M
WMC,2021-12-30 17:56,-117.8072,40.9019,1315.00,32.00,26.10,78.58,190.00,11.00,0.00,29.73,1008.40,10.00,19.00,BKN,OVC,M,M,8500.00,10000.00,M,M,M,M,M,M,M,M,M,22.47,KWMC 301756Z AUTO 19011G19KT 10SM BKN085 OVC100 00/M03 A2973 RMK AO2 SLP084 T00001033 10000 21028 56008,M
LSV,2021-12-30 17:58,-115.0343,36.2362,570.00,50.00,37.60,62.24,100.00,3.00,0.00,29.94,1013.70,10.00,M,SCT,BKN,M,M,5000.00,9000.00,M,M,M,M,M,M,M,M,M,50.00,KLSV 301758Z 10003KT 10SM SCT050 BKN090 10/03 A2994 RMK AO2A SLP137 60000 T01000031 10100 20074 50005 $,M
INS,2021-12-30 17:58,-115.6733,36.5872,955.00,40.50,36.30,84.83,290.00,3.00,0.00,29.92,1012.70,10.00,M,SCT,BKN,M,M,1800.00,2100.00,M,M,M,M,M,M,M,M,M,38.41,KINS 301758Z 29003KT 10SM SCT018 BKN021 05/02 A2992 RMK AO2A SLP127 60000 T00470024 10049 20014 52006 $,M
RNO,2021-12-30 18:02,-119.7711,39.4839,1341.00,30.90,26.10,82.15,130.00,3.00,0.00,29.81,M,10.00,M,SCT,BKN,BKN,M,1100.00,9500.00,15000.00,M,M,M,M,M,M,M,M,27.43,KRNO 301802Z 13003KT 10SM SCT011 BKN095 BKN150 M01/M03 A2981 RMK AO2 T10061033,M
05U,2021-12-30 18:10,-116.0051,39.6042,1811.23,21.20,15.80,79.31,0.00,0.00,0.00,29.79,M,10.00,M,CLR,M,M,M,M,M,M,M,M,M,M,M,M,M,M,21.20,K05U 301810Z AUTO 00000KT 10SM CLR M06/M09 A2979 RMK A01,M
CXP,2021-12-30 18:10,-119.7326,39.1923,1431.00,28.40,23.00,79.92,0.00,0.00,0.00,29.82,M,9.00,M,CLR,M,M,M,M,M,M,M,M,M,M,M,M,M,M,28.40,KCXP 301810Z AUTO 00000KT 9SM CLR M02/M05 A2982 RMK AO2,M
RTS,2021-12-30 18:15,-119.8764,39.6682,1539.00,26.60,26.60,100.00,M,3.00,0.00,29.78,M,10.00,M,FEW,M,M,M,8500.00,M,M,M,M,M,M,M,M,M,M,22.52,KRTS 301815Z AUTO VRB03KT 10SM FEW085 M03/M03 A2978 RMK AO2,M
TMT,2021-12-30 18:15,-117.1971,39.4643,1749.34,27.30,16.50,63.37,0.00,0.00,0.00,29.80,M,10.00,M,CLR,M,M,M,M,M,M,M,M,M,M,M,M,M,M,27.30,KTMT 301815Z AUTO 00000KT 10SM CLR M03/M09 A2980 RMK AO2 T10261086,M
BVU,2021-12-30 18:15,-114.8611,35.9475,671.00,51.80,35.60,53.81,150.00,11.00,0.00,29.95,M,10.00,M,CLR,M,M,M,M,M,M,M,M,M,M,M,M,M,M,51.80,KBVU 301815Z AUTO 15011KT 10SM CLR 11/02 A2995 RMK AO2,M
HTH,2021-12-30 18:15,-118.6315,38.5448,1282.89,35.60,21.20,55.41,M,4.00,0.00,29.83,M,10.00,M,CLR,M,M,M,M,M,M,M,M,M,M,M,M,M,M,31.62,KHTH 301815Z AUTO VRB04KT 10SM CLR 02/M06 A2983 RMK A01,M
MEV,2021-12-30 18:15,-119.7500,38.9963,1441.42,24.80,24.80,100.00,0.00,0.00,0.00,29.81,M,2.50,M,SCT,SCT,M,M,300.00,800.00,M,M,BR,M,M,M,M,M,M,24.80,KMEV 301815Z AUTO 00000KT 2 1/2SM BR SCT003 SCT008 M04/M04 A2981 RMK AO2,M
BAM,2021-12-30 18:15,-116.8743,40.5990,1382.36,32.00,24.80,74.44,260.00,10.00,0.00,29.74,M,10.00,M,SCT,M,M,M,12000.00,M,M,M,M,M,M,M,M,M,M,22.97,KBAM 301815Z AUTO 26010KT 10SM SCT120 00/M04 A2974 RMK AO1,M
05U,2021-12-30 18:30,-116.0051,39.6042,1811.23,23.00,15.80,73.51,0.00,0.00,0.00,29.79,M,10.00,M,CLR,M,M,M,M,M,M,M,M,M,M,M,M,M,M,23.00,K05U 301830Z AUTO 00000KT 10SM CLR M05/M09 A2979 RMK A01,M
CXP,2021-12-30 18:30,-119.7326,39.1923,1431.00,30.20,23.00,74.26,0.00,0.00,0.00,29.81,M,10.00,M,FEW,M,M,M,10000.00,M,M,M,M,M,M,M,M,M,M,30.20,KCXP 301830Z AUTO 00000KT 10SM FEW100 M01/M05 A2981 RMK AO2,M
INS,2021-12-30 18:33,-115.6733,36.5872,955.00,41.00,37.40,86.89,270.00,3.00,0.00,29.91,1012.30,10.00,M,SCT,BKN,M,M,2200.00,6500.00,M,M,M,M,M,M,M,M,M,38.98,KINS 301833Z AUTO 27003KT 10SM SCT022 BKN065 05/03 A2991 RMK AO2 SLP123 $,M
HTH,2021-12-30 18:35,-118.6315,38.5448,1282.89,37.40,23.00,55.68,0.00,0.00,0.00,29.83,M,10.00,M,CLR,M,M,M,M,M,M,M,M,M,M,M,M,M,M,37.40,KHTH 301835Z AUTO 00000KT 10SM CLR 03/M05 A2983 RMK A01,M
MEV,2021-12-30 18:35,-119.7500,38.9963,1441.42,26.60,24.80,92.80,330.00,4.00,0.00,29.80,M,10.00,M,FEW,FEW,M,M,300.00,800.00,M,M,M,M,M,M,M,M,M,21.11,KMEV 301835Z AUTO 33004KT 10SM FEW003 FEW008 M03/M04 A2980 RMK AO2,M
BVU,2021-12-30 18:35,-114.8611,35.9475,671.00,51.80,37.40,57.77,150.00,10.00,0.00,29.94,M,10.00,16.00,FEW,M,M,M,12000.00,M,M,M,M,M,M,M,M,M,M,51.80,KBVU 301835Z AUTO 15010G16KT 10SM FEW120 11/03 A2994 RMK AO2,M
RTS,2021-12-30 18:35,-119.8764,39.6682,1539.00,32.00,24.80,74.44,0.00,0.00,0.00,29.77,M,10.00,M,BKN,M,M,M,8000.00,M,M,M,M,M,M,M,M,M,M,32.00,KRTS 301835Z AUTO 00000KT 10SM BKN080 00/M04 A2977 RMK AO2,M
TMT,2021-12-30 18:35,-117.1971,39.4643,1749.34,29.10,17.60,61.72,230.00,8.00,0.00,29.79,M,10.00,M,CLR,M,M,M,M,M,M,M,M,M,M,M,M,M,M,20.54,KTMT 301835Z AUTO 23008KT 10SM CLR M02/M08 A2979 RMK AO2 T10161080,M
BAM,2021-12-30 18:35,-116.8743,40.5990,1382.36,33.80,26.60,74.63,250.00,10.00,0.00,29.71,M,10.00,M,BKN,BKN,M,M,10000.00,12000.00,M,M,M,M,M,M,M,M,M,25.23,KBAM 301835Z AUTO 25010KT 10SM BKN100 BKN120 01/M03 A2971 RMK AO1,M
INS,2021-12-30 18:38,-115.6733,36.5872,955.00,41.00,37.40,86.89,0.00,0.00,0.00,29.91,1012.30,10.00,M,FEW,SCT,M,M,2200.00,6500.00,M,M,M,M,M,M,M,M,M,41.00,KINS 301838Z AUTO 00000KT 10SM FEW022 SCT065 05/03 A2991 RMK AO2 SLP123 $,M
TPH,2021-12-30 18:43,-117.0904,38.0505,1654.00,32.00,30.00,92.22,170.00,5.00,0.00,29.83,M,10.00,M,BKN,BKN,OVC,M,700.00,1500.00,2700.00,M,M,M,M,M,M,M,M,26.40,KTPH 301843Z AUTO 17005KT 10SM BKN007 BKN015 OVC027 00/M01 A2983 RMK AO2 T00001011,M
CXP,2021-12-30 18:50,-119.7326,39.1923,1431.00,30.20,23.00,74.26,0.00,0.00,0.00,29.79,M,10.00,M,FEW,M,M,M,10000.00,M,M,M,M,M,M,M,M,M,M,30.20,KCXP 301850Z AUTO 00000KT 10SM FEW100 M01/M05 A2979 RMK AO2,M
INS,2021-12-30 18:50,-115.6733,36.5872,955.00,42.80,35.60,75.50,260.00,3.00,0.00,29.90,1012.00,10.00,M,BKN,M,M,M,2200.00,M,M,M,M,M,M,M,M,M,M,41.03,KINS 301850Z 26003KT 10SM BKN022 06/02 A2990 RMK SLP120 $,M
05U,2021-12-30 18:50,-116.0051,39.6042,1811.23,24.80,15.80,68.18,0.00,0.00,0.00,29.78,M,10.00,M,CLR,M,M,M,M,M,M,M,M,M,M,M,M,M,M,24.80,K05U 301850Z AUTO 00000KT 10SM CLR M04/M09 A2978 RMK A01,M
ELY,2021-12-30 18:53,-114.8453,39.2950,1909.00,33.00,24.10,69.17,200.00,13.00,0.00,29.74,1007.10,10.00,M,BKN,OVC,M,M,3400.00,4400.00,M,M,M,M,M,M,M,M,M,22.98,KELY 301853Z AUTO 20013KT 10SM BKN034 OVC044 01/M04 A2974 RMK AO2 SLP071 T00061044,M
LOL,2021-12-30 18:53,-118.5701,40.0684,1192.43,30.00,28.90,95.61,160.00,5.00,0.00,29.78,1010.20,10.00,M,OVC,M,M,M,10000.00,M,M,M,M,M,M,M,M,M,M,24.02,KLOL 301853Z AUTO 16005KT 10SM OVC100 M01/M02 A2978 RMK AO2 SLP102 T10111017,M
VGT,2021-12-30 18:53,-115.1933,36.2111,667.00,51.00,36.00,56.10,110.00,7.00,0.00,29.91,1014.60,10.00,M,FEW,BKN,BKN,M,7500.00,9500.00,11000.00,M,M,M,M,M,M,M,M,51.10,KVGT 301853Z 11007KT 10SM FEW075 BKN095 BKN110 11/02 A2991 RMK AO2 SLP146 T01060022,M
DRA,2021-12-30 18:53,-116.0278,36.6206,1009.00,41.00,37.00,85.54,0.00,0.00,0.01,29.89,1011.50,10.00,M,OVC,M,M,M,1700.00,M,M,M,M,M,M,M,M,M,M,41.00,KDRA 301853Z AUTO 00000KT 10SM OVC017 05/03 A2989 RMK AO2 RAE07B24E36 SLP115 P0001 T00500028,M
BAM,2021-12-30 18:55,-116.8743,40.5990,1382.36,33.80,26.60,74.63,250.00,9.00,0.00,29.71,M,10.00,14.00,SCT,OVC,M,M,10000.00,12000.00,M,M,M,M,M,M,M,M,M,25.75,KBAM 301855Z AUTO 25009G14KT 10SM SCT100 OVC120 01/M03 A2971 RMK AO1,M
RTS,2021-12-30 18:55,-119.8764,39.6682,1539.00,33.80,23.00,64.23,0.00,0.00,0.00,29.76,M,10.00,M,OVC,M,M,M,8000.00,M,M,M,M,M,M,M,M,M,M,33.80,KRTS 301855Z AUTO 00000KT 10SM OVC080 01/M05 A2976 RMK AO2,M
MEV,2021-12-30 18:55,-119.7500,38.9963,1441.42,28.40,24.80,86.18,340.00,4.00,0.00,29.79,M,10.00,M,SCT,M,M,M,9500.00,M,M,M,M,M,M,M,M,M,M,23.22,KMEV 301855Z AUTO 34004KT 10SM SCT095 M02/M04 A2979 RMK AO2,M
BVU,2021-12-30 18:55,-114.8611,35.9475,671.00,51.80,37.40,57.77,160.00,12.00,0.00,29.93,M,10.00,17.00,FEW,FEW,M,M,4600.00,12000.00,M,M,M,M,M,M,M,M,M,51.80,KBVU 301855Z AUTO 16012G17KT 10SM FEW046 FEW120 11/03 A2993 RMK AO2,M
TMT,2021-12-30 18:55,-117.1971,39.4643,1749.34,29.70,21.00,69.65,220.00,11.00,0.00,29.77,M,10.00,M,CLR,M,M,M,M,M,M,M,M,M,M,M,M,M,M,19.56,KTMT 301855Z AUTO 22011KT 10SM CLR M01/M06 A2977 RMK AO2 T10131061,M
RNO,2021-12-30 18:55,-119.7711,39.4839,1341.00,32.00,26.10,78.58,0.00,0.00,0.00,29.77,1009.00,10.00,M,FEW,BKN,BKN,M,5000.00,9500.00,15000.00,M,M,M,M,M,M,M,M,32.00,KRNO 301855Z 00000KT 10SM FEW050 BKN095 BKN150 00/M03 A2977 RMK AO2 SLP090 T00001033,M
HTH,2021-12-30 18:55,-118.6315,38.5448,1282.89,39.20,23.00,51.89,100.00,11.00,0.00,29.81,M,10.00,M,CLR,M,M,M,M,M,M,M,M,M,M,M,M,M,M,31.57,KHTH 301855Z AUTO 10011KT 10SM CLR 04/M05 A2981 RMK A01,M
WMC,2021-12-30 18:56,-117.8072,40.9019,1315.00,30.90,25.00,78.48,160.00,12.00,0.00,29.71,1007.70,10.00,18.00,OVC,M,M,M,7500.00,M,M,M,M,M,M,M,M,M,M,20.60,KWMC 301856Z AUTO 16012G18KT 10SM OVC075 M01/M04 A2971 RMK AO2 SLP077 T10061039,M
EKO,2021-12-30 18:56,-115.7860,40.8242,1367.00,32.00,19.90,60.55,240.00,12.00,0.00,29.67,1006.40,10.00,M,BKN,BKN,M,M,4000.00,11000.00,M,M,M,M,M,M,M,M,M,22.00,KEKO 301856Z AUTO 24012KT 10SM BKN040 BKN110 00/M07 A2967 RMK AO2 PRESFR SLP064 T00001067,M
NFL,2021-12-30 18:56,-118.7010,39.4166,1199.00,33.00,27.00,78.03,180.00,6.00,0.00,29.78,1006.30,10.00,M,CLR,M,M,M,M,M,M,M,M,M,M,M,M,M,M,26.86,KNFL 301856Z AUTO 18006KT 10SM CLR 01/M03 A2978 RMK AO2 SLP063 T00061028,M
TPH,2021-12-30 18:56,-117.0904,38.0505,1654.00,32.00,30.00,92.22,190.00,4.00,0.00,29.82,1010.90,10.00,M,BKN,BKN,OVC,M,800.00,1300.00,2700.00,M,M,M,M,M,M,M,M,27.42,KTPH 301856Z AUTO 19004KT 10SM BKN008 BKN013 OVC027 00/M01 A2982 RMK AO2 SLP109 T00001011,M
LAS,2021-12-30 18:56,-115.1634,36.0719,663.00,51.00,35.00,54.13,80.00,3.00,0.00,29.91,1012.70,10.00,M,SCT,BKN,M,M,5000.00,10000.00,M,M,M,M,M,M,M,M,M,51.10,KLAS 301856Z 08003KT 10SM SCT050 BKN100 11/02 A2991 RMK AO2 SLP127 VIRGA DSNT NW T01060017,M
HND,2021-12-30 18:56,-115.1344,35.9729,742.79,52.00,36.00,54.26,150.00,11.00,0.00,29.92,1014.90,10.00,M,FEW,OVC,M,M,3800.00,10000.00,M,M,M,M,M,M,M,M,M,52.00,KHND 301856Z 15011KT 10SM FEW038 OVC100 11/02 A2992 RMK AO2 SLP149 T01110022,M
INS,2021-12-30 18:58,-115.6733,36.5872,955.00,42.60,36.50,78.85,260.00,4.00,0.00,29.90,1012.00,10.00,M,BKN,M,M,M,2800.00,M,M,M,M,M,M,M,M,M,M,39.80,KINS 301858Z 26004KT 10SM BKN028 06/03 A2990 RMK AO2A SLP120 T00590025 $,M
LSV,2021-12-30 18:58,-115.0343,36.2362,570.00,51.40,38.00,59.79,110.00,7.00,0.00,29.91,1012.60,10.00,M,FEW,SCT,M,M,4000.00,10000.00,M,M,M,M,M,M,M,M,M,51.40,KLSV 301858Z 11007KT 10SM FEW040 SCT100 11/03 A2991 RMK AO2A SLP126 T01080033 $,M
LOL,2021-12-30 19:01,-118.5701,40.0684,1192.43,30.90,28.90,92.18,160.00,5.00,0.00,29.77,M,10.00,M,FEW,OVC,M,M,600.00,9500.00,M,M,M,M,M,M,M,M,M,25.09,KLOL 301901Z AUTO 16005KT 10SM FEW006 OVC095 M01/M02 A2977 RMK AO2 T10061017,M
INS,2021-12-30 19:02,-115.6733,36.5872,955.00,42.80,35.60,75.50,270.00,3.00,0.00,29.90,1012.00,9.00,M,BKN,BKN,BKN,M,2800.00,5000.00,10000.00,M,-DZ,M,M,M,M,M,M,41.03,KINS 301902Z 27003KT 9SM -DZ BKN028 BKN050 BKN100 06/02 A2990 RMK AO2A DZB1858 SLP120 $,M
05U,2021-12-30 19:10,-116.0051,39.6042,1811.23,23.00,14.00,67.96,0.00,0.00,0.00,29.76,M,10.00,M,CLR,M,M,M,M,M,M,M,M,M,M,M,M,M,M,23.00,K05U 301910Z AUTO 00000KT 10SM CLR M05/M10 A2976 RMK A01,M
CXP,2021-12-30 19:10,-119.7326,39.1923,1431.00,32.00,23.00,69.04,270.00,3.00,0.00,29.78,M,10.00,M,FEW,M,M,M,10000.00,M,M,M,M,M,M,M,M,M,M,28.69,KCXP 301910Z AUTO 27003KT 10SM FEW100 M00/M05 A2978 RMK AO2,M
RTS,2021-12-30 19:15,-119.8764,39.6682,1539.00,37.40,23.00,55.68,250.00,21.00,0.00,29.74,M,9.00,28.00,OVC,M,M,M,8000.00,M,M,M,M,M,M,M,M,M,M,26.06,KRTS 301915Z AUTO 25021G28KT 9SM OVC080 03/M05 A2974 RMK AO2,M
HTH,2021-12-30 19:15,-118.6315,38.5448,1282.89,39.20,23.00,51.89,220.00,6.00,0.00,29.79,M,10.00,M,CLR,M,M,M,M,M,M,M,M,M,M,M,M,M,M,34.20,KHTH 301915Z AUTO 22006KT 10SM CLR 04/M05 A2979 RMK A01,M
TMT,2021-12-30 19:15,-117.1971,39.4643,1749.34,32.00,21.70,65.36,220.00,7.00,0.00,29.74,M,10.00,M,CLR,M,M,M,M,M,M,M,M,M,M,M,M,M,M,24.78,KTMT 301915Z AUTO 22007KT 10SM CLR 00/M06 A2974 RMK AO2 T00001057,M
BVU,2021-12-30 19:15,-114.8611,35.9475,671.00,51.80,37.40,57.77,160.00,14.00,0.00,29.92,M,10.00,M,FEW,BKN,BKN,M,3900.00,4500.00,10000.00,M,M,M,M,M,M,M,M,51.80,KBVU 301915Z AUTO 16014KT 10SM FEW039 BKN045 BKN100 11/03 A2992 RMK AO2,M
MEV,2021-12-30 19:15,-119.7500,38.9963,1441.42,32.00,26.60,80.22,M,6.00,0.00,29.77,M,10.00,11.00,BKN,M,M,M,9000.00,M,M,M,M,M,M,M,M,M,M,25.53,KMEV 301915Z AUTO VRB06G11KT 10SM BKN090 M00/M03 A2977 RMK AO2,M
BAM,2021-12-30 19:15,-116.8743,40.5990,1382.36,35.60,26.60,69.46,260.00,11.00,0.00,29.71,M,10.00,M,OVC,M,M,M,11000.00,M,M,M,M,M,M,M,M,M,M,27.02,KBAM 301915Z AUTO 26011KT 10SM OVC110 02/M03 A2971 RMK AO1,M
CXP,2021-12-30 19:30,-119.7326,39.1923,1431.00,35.60,23.00,59.79,M,5.00,0.00,29.76,M,10.00,M,CLR,M,M,M,M,M,M,M,M,M,M,M,M,M,M,30.67,KCXP 301930Z AUTO VRB05KT 10SM CLR 02/M05 A2976 RMK AO2,M
05U,2021-12-30 19:30,-116.0051,39.6042,1811.23,24.80,15.80,68.18,0.00,0.00,0.00,29.74,M,10.00,M,CLR,M,M,M,M,M,M,M,M,M,M,M,M,M,M,24.80,K05U 301930Z AUTO 00000KT 10SM CLR M04/M09 A2974 RMK A01,M
RTS,2021-12-30 19:35,-119.8764,39.6682,1539.00,35.60,23.00,59.79,250.00,19.00,0.00,29.73,M,10.00,27.00,OVC,M,M,M,7500.00,M,M,M,M,M,M,M,M,M,M,24.20,KRTS 301935Z AUTO 25019G27KT 10SM OVC075 02/M05 A2973 RMK AO2,M
BVU,2021-12-30 19:35,-114.8611,35.9475,671.00,53.60,37.40,54.07,140.00,14.00,0.00,29.90,M,10.00,M,OVC,M,M,M,4500.00,M,M,M,M,M,M,M,M,M,M,53.60,KBVU 301935Z AUTO 14014KT 10SM OVC045 12/03 A2990 RMK AO2,M
MEV,2021-12-30 19:35,-119.7500,38.9963,1441.42,32.00,28.40,86.39,M,6.00,0.00,29.75,M,10.00,M,BKN,M,M,M,9000.00,M,M,M,M,M,M,M,M,M,M,25.53,KMEV 301935Z AUTO VRB06KT 10SM BKN090 00/M02 A2975 RMK AO2,M
BAM,2021-12-30 19:35,-116.8743,40.5990,1382.36,33.80,26.60,74.63,260.00,11.00,0.00,29.69,M,10.00,M,OVC,M,M,M,9000.00,M,M,M,M,M,M,M,M,M,M,24.74,KBAM 301935Z AUTO 26011KT 10SM OVC090 01/M03 A2969 RMK AO1,M
HTH,2021-12-30 19:35,-118.6315,38.5448,1282.89,39.20,23.00,51.89,140.00,5.00,0.00,29.77,M,10.00,M,CLR,M,M,M,M,M,M,M,M,M,M,M,M,M,M,34.95,KHTH 301935Z AUTO 14005KT 10SM CLR 04/M05 A2977 RMK A01,M
TMT,2021-12-30 19:35,-117.1971,39.4643,1749.34,33.80,20.70,58.28,240.00,13.00,0.00,29.73,M,10.00,M,CLR,M,M,M,M,M,M,M,M,M,M,M,M,M,M,23.87,KTMT 301935Z AUTO 24013KT 10SM CLR 01/M06 A2973 RMK AO2 T00101063,M
CXP,2021-12-30 19:50,-119.7326,39.1923,1431.00,37.40,23.00,55.68,320.00,4.00,0.00,29.74,M,10.00,M,BKN,M,M,M,9000.00,M,M,M,M,M,M,M,M,M,M,33.73,KCXP 301950Z AUTO 32004KT 10SM BKN090 03/M05 A2974 RMK AO2,M
05U,2021-12-30 19:50,-116.0051,39.6042,1811.23,28.40,17.60,63.51,140.00,3.00,0.00,29.72,M,10.00,M,CLR,M,M,M,M,M,M,M,M,M,M,M,M,M,M,24.57,K05U 301950Z AUTO 14003KT 10SM CLR M02/M08 A2972 RMK A01,M
LSV,2021-12-30 19:50,-115.0343,36.2362,570.00,53.60,37.40,54.07,0.00,0.00,0.00,29.88,1011.50,10.00,M,BKN,M,M,M,4200.00,M,M,M,M,M,M,M,M,M,M,53.60,KLSV 301950Z AUTO 00000KT 10SM BKN042 12/03 A2988 RMK AO2 SLP115 $,M
DRA,2021-12-30 19:53,-116.0278,36.6206,1009.00,42.00,39.00,88.67,M,3.00,T,29.86,1010.30,8.00,M,FEW,OVC,M,M,1000.00,1500.00,M,M,-RA,M,M,M,M,M,M,40.23,KDRA 301953Z AUTO VRB03KT 8SM -RA FEW010 OVC015 06/04 A2986 RMK AO2 RAB1858E19B40 SLP103 P0000 T00560039,M
LOL,2021-12-30 19:53,-118.5701,40.0684,1192.43,32.00,28.90,88.17,200.00,5.00,0.00,29.74,1008.90,10.00,M,FEW,OVC,M,M,1100.00,9000.00,M,M,M,M,M,M,M,M,M,26.40,KLOL 301953Z AUTO 20005KT 10SM FEW011 OVC090 00/M02 A2974 RMK AO2 SLP089 T00001017,M
VGT,2021-12-30 19:53,-115.1933,36.2111,667.00,53.00,35.00,50.28,130.00,5.00,0.00,29.87,1013.20,10.00,M,SCT,BKN,M,M,8500.00,11000.00,M,M,M,M,M,M,M,M,M,53.10,KVGT 301953Z 13005KT 10SM SCT085 BKN110 12/02 A2987 RMK AO2 SLP132 T01170017,M
INS,2021-12-30 19:53,-115.6733,36.5872,955.00,44.60,35.60,70.48,0.00,0.00,0.00,29.86,1010.60,10.00,M,SCT,M,M,M,9000.00,M,M,M,M,M,M,M,M,M,M,44.60,KINS 301953Z AUTO 00000KT 10SM SCT090 07/02 A2986 RMK AO2 DZB1858E10DZB10E10 SLP106 $,M
ELY,2021-12-30 19:53,-114.8453,39.2950,1909.00,33.00,23.00,66.06,210.00,22.00,0.00,29.69,1005.60,10.00,29.00,BKN,BKN,M,M,3500.00,4200.00,M,M,M,M,M,M,29.00,220.00,2021-12-30 19:53,20.05,KELY 301953Z AUTO 21022G29KT 10SM BKN035 BKN042 01/M05 A2969 RMK AO2 PK WND 22029/1953 SLP056 T00061050,M
MEV,2021-12-30 19:55,-119.7500,38.9963,1441.42,33.80,26.60,74.63,0.00,0.00,0.00,29.73,M,10.00,M,OVC,M,M,M,9000.00,M,M,M,M,M,M,M,M,M,M,33.80,KMEV 301955Z AUTO 00000KT 10SM OVC090 01/M03 A2973 RMK AO2,M
TMT,2021-12-30 19:55,-117.1971,39.4643,1749.34,32.20,21.20,63.48,240.00,15.00,0.00,29.72,M,10.00,20.00,SCT,M,M,M,11000.00,M,M,M,M,M,M,M,M,M,M,21.04,KTMT 301955Z AUTO 24015G20KT 10SM SCT110 00/M06 A2972 RMK AO2 T00011060,M
HTH,2021-12-30 19:55,-118.6315,38.5448,1282.89,39.20,23.00,51.89,80.00,6.00,0.00,29.76,M,10.00,M,CLR,M,M,M,M,M,M,M,M,M,M,M,M,M,M,34.20,KHTH 301955Z AUTO 08006KT 10SM CLR 04/M05 A2976 RMK A01,M
BAM,2021-12-30 19:55,-116.8743,40.5990,1382.36,33.80,26.60,74.63,270.00,11.00,0.00,29.68,M,10.00,M,OVC,M,M,M,9000.00,M,M,M,M,M,M,M,M,M,M,24.74,KBAM 301955Z AUTO 27011KT 10SM OVC090 01/M03 A2968 RMK AO1,M
RTS,2021-12-30 19:55,-119.8764,39.6682,1539.00,37.40,24.80,60.04,270.00,16.00,0.00,29.73,M,10.00,24.00,BKN,M,M,M,7500.00,M,M,M,M,M,M,M,M,M,M,27.46,KRTS 301955Z AUTO 27016G24KT 10SM BKN075 03/M04 A2973 RMK AO2,M
RNO,2021-12-30 19:55,-119.7711,39.4839,1341.00,36.00,26.10,66.97,150.00,3.00,0.00,29.73,1007.10,10.00,M,FEW,BKN,BKN,M,6000.00,8500.00,14000.00,M,M,M,M,M,M,M,M,33.26,KRNO 301955Z 15003KT 10SM FEW060 BKN085 BKN140 02/M03 A2973 RMK AO2 SLP071 ACSL SE THRU SW T00221033,M
BVU,2021-12-30 19:55,-114.8611,35.9475,671.00,53.60,37.40,54.07,150.00,14.00,0.00,29.89,M,10.00,M,BKN,OVC,M,M,4100.00,4700.00,M,M,M,M,M,M,M,M,M,53.60,KBVU 301955Z AUTO 15014KT 10SM BKN041 OVC047 12/03 A2989 RMK AO2,M
TPH,2021-12-30 19:56,-117.0904,38.0505,1654.00,33.00,30.00,88.23,190.00,6.00,0.00,29.79,1009.60,7.00,M,BKN,OVC,M,M,900.00,1700.00,M,M,M,M,M,M,M,M,M,26.86,KTPH 301956Z AUTO 19006KT 7SM BKN009 OVC017 01/M01 A2979 RMK AO2 SLP096 T00061011,M
LAS,2021-12-30 19:56,-115.1634,36.0719,663.00,52.00,36.00,54.26,120.00,5.00,0.00,29.88,1011.50,10.00,M,SCT,BKN,M,M,5000.00,10000.00,M,M,M,M,M,M,M,M,M,52.00,KLAS 301956Z 12005KT 10SM SCT050 BKN100 11/02 A2988 RMK AO2 SLP115 VIRGA DSNT NW T01110022,M
EKO,2021-12-30 19:56,-115.7860,40.8242,1367.00,33.00,19.90,57.93,240.00,17.00,0.00,29.64,1005.00,10.00,M,OVC,M,M,M,10000.00,M,M,M,M,M,M,M,M,M,M,21.52,KEKO 301956Z AUTO 24017KT 10SM OVC100 01/M07 A2964 RMK AO2 SLP050 T00061067,M
WMC,2021-12-30 19:56,-117.8072,40.9019,1315.00,33.00,26.10,75.18,190.00,9.00,T,29.68,1006.20,9.00,M,OVC,M,M,M,6000.00,M,M,M,-SN,M,M,M,M,M,M,24.88,KWMC 301956Z AUTO 19009KT 9SM -SN OVC060 01/M03 A2968 RMK AO2 SNB44 SLP062 P0000 T00061033,M
NFL,2021-12-30 19:56,-118.7010,39.4166,1199.00,38.00,27.00,64.49,180.00,10.00,0.00,29.73,1004.80,10.00,M,CLR,M,M,M,M,M,M,M,M,M,M,M,M,M,M,30.37,KNFL 301956Z AUTO 18010KT 10SM CLR 03/M03 A2973 RMK AO2 SLP048 T00331028,M
HND,2021-12-30 19:56,-115.1344,35.9729,742.79,53.00,36.00,52.11,160.00,12.00,0.00,29.89,1013.70,10.00,M,OVC,M,M,M,4100.00,M,M,M,M,M,M,M,M,M,M,53.10,KHND 301956Z 16012KT 10SM OVC041 12/02 A2989 RMK AO2 SLP137 T01170022,M
DRA,2021-12-30 19:57,-116.0278,36.6206,1009.00,42.00,39.00,88.67,0.00,0.00,0.01,29.85,M,10.00,M,BKN,OVC,M,M,1300.00,2000.00,M,M,-RA,M,M,M,M,M,M,42.10,KDRA 301957Z AUTO 00000KT 10SM -RA BKN013 OVC020 06/04 A2985 RMK AO2 P0001 T00560039,M
INS,2021-12-30 19:58,-115.6733,36.5872,955.00,44.20,35.80,72.13,0.00,0.00,T,29.86,1010.60,10.00,M,BKN,M,M,M,9000.00,M,M,M,M,M,M,M,M,M,M,44.20,KINS 301958Z AUTO 00000KT 10SM BKN090 07/02 A2986 RMK AO2 DZB1858E10DZB10E10 SLP106 P0000 T00680021 $,M
LSV,2021-12-30 19:58,-115.0343,36.2362,570.00,54.00,37.40,53.09,140.00,9.00,0.00,29.87,1011.20,10.00,M,SCT,BKN,M,M,4100.00,14000.00,M,M,M,M,M,M,M,M,M,54.10,KLSV 301958Z 14009KT 10SM SCT041 BKN140 12/03 A2987 RMK SLP112 T01230030 58024 $,M
DRA,2021-12-30 20:10,-116.0278,36.6206,1009.00,42.00,39.00,88.67,230.00,6.00,0.01,29.85,M,9.00,M,SCT,BKN,OVC,M,800.00,1100.00,1800.00,M,-RA,M,M,M,M,M,M,37.69,KDRA 302010Z AUTO 23006KT 9SM -RA SCT008 BKN011 OVC018 06/04 A2985 RMK AO2 P0001 T00560039,M
CXP,2021-12-30 20:10,-119.7326,39.1923,1431.00,37.40,21.20,51.61,M,5.00,0.00,29.74,M,10.00,M,SCT,M,M,M,9000.00,M,M,M,M,M,M,M,M,M,M,32.81,KCXP 302010Z AUTO VRB05KT 10SM SCT090 03/M06 A2974 RMK AO2,M
05U,2021-12-30 20:10,-116.0051,39.6042,1811.23,30.20,17.60,59.01,0.00,0.00,0.00,29.71,M,10.00,M,CLR,M,M,M,M,M,M,M,M,M,M,M,M,M,M,30.20,K05U 302010Z AUTO 00000KT 10SM CLR M01/M08 A2971 RMK A01,M
TMT,2021-12-30 20:15,-117.1971,39.4643,1749.34,32.00,22.60,67.89,240.00,13.00,0.00,29.71,M,10.00,17.00,OVC,M,M,M,11000.00,M,M,M,M,M,M,M,M,M,M,21.57,KTMT 302015Z AUTO 24013G17KT 10SM OVC110 00/M05 A2971 RMK AO2 T00001052,M
BAM,2021-12-30 20:15,-116.8743,40.5990,1382.36,33.80,26.60,74.63,270.00,9.00,0.00,29.68,M,10.00,15.00,OVC,M,M,M,8000.00,M,M,M,M,M,M,M,M,M,M,25.75,KBAM 302015Z AUTO 27009G15KT 10SM OVC080 01/M03 A2968 RMK AO1,M
BVU,2021-12-30 20:15,-114.8611,35.9475,671.00,53.60,37.40,54.07,170.00,14.00,0.00,29.88,M,10.00,22.00,OVC,M,M,M,4300.00,M,M,M,M,M,M,M,M,M,M,53.60,KBVU 302015Z AUTO 17014G22KT 10SM OVC043 12/03 A2988 RMK AO2,M
MEV,2021-12-30 20:15,-119.7500,38.9963,1441.42,35.60,28.40,74.80,70.00,5.00,0.00,29.73,M,10.00,M,OVC,M,M,M,8500.00,M,M,M,M,M,M,M,M,M,M,30.67,KMEV 302015Z AUTO 07005KT 10SM OVC085 02/M02 A2973 RMK AO2,M
RTS,2021-12-30 20:15,-119.8764,39.6682,1539.00,37.40,23.00,55.68,270.00,16.00,0.00,29.71,M,10.00,M,BKN,M,M,M,8000.00,M,M,M,M,M,M,M,M,M,M,27.46,KRTS 302015Z AUTO 27016KT 10SM BKN080 03/M05 A2971 RMK AO2,M
HTH,2021-12-30 20:15,-118.6315,38.5448,1282.89,41.00,23.00,48.39,180.00,5.00,0.00,29.74,M,10.00,M,CLR,M,M,M,M,M,M,M,M,M,M,M,M,M,M,37.08,KHTH 302015Z AUTO 18005KT 10SM CLR 05/M05 A2974 RMK A01,M
INS,2021-12-30 20:23,-115.6733,36.5872,955.00,44.60,35.60,70.48,0.00,0.00,0.00,29.84,1009.90,10.00,M,SCT,M,M,M,9000.00,M,M,M,M,M,M,M,M,M,M,44.60,KINS 302023Z AUTO 00000KT 10SM SCT090 07/02 A2984 RMK AO2 SLP099 $,M
05U,2021-12-30 20:30,-116.0051,39.6042,1811.23,30.20,17.60,59.01,0.00,0.00,0.00,29.70,M,10.00,M,CLR,M,M,M,M,M,M,M,M,M,M,M,M,M,M,30.20,K05U 302030Z AUTO 00000KT 10SM CLR M01/M08 A2970 RMK A01,M
CXP,2021-12-30 20:30,-119.7326,39.1923,1431.00,41.00,21.20,44.85,0.00,0.00,0.00,29.73,M,10.00,M,BKN,BKN,M,M,8000.00,9000.00,M,M,M,M,M,M,M,M,M,41.00,KCXP 302030Z AUTO 00000KT 10SM BKN080 BKN090 05/M06 A2973 RMK AO2,M
HTH,2021-12-30 20:35,-118.6315,38.5448,1282.89,41.00,23.00,48.39,80.00,8.00,0.00,29.73,M,10.00,M,CLR,M,M,M,M,M,M,M,M,M,M,M,M,M,M,35.20,KHTH 302035Z AUTO 08008KT 020V190 10SM CLR 05/M05 A2973 RMK A01,M
BVU,2021-12-30 20:35,-114.8611,35.9475,671.00,53.60,37.40,54.07,150.00,16.00,0.00,29.87,M,10.00,22.00,OVC,M,M,M,4500.00,M,M,M,M,M,M,M,M,M,M,53.60,KBVU 302035Z AUTO 15016G22KT 10SM OVC045 12/03 A2987 RMK AO2,M
RTS,2021-12-30 20:35,-119.8764,39.6682,1539.00,37.40,23.00,55.68,300.00,10.00,0.00,29.72,M,10.00,16.00,BKN,M,M,M,8500.00,M,M,M,M,M,M,M,M,M,M,29.74,KRTS 302035Z AUTO 30010G16KT 10SM BKN085 03/M05 A2972 RMK AO2,M
MEV,2021-12-30 20:35,-119.7500,38.9963,1441.42,37.40,28.40,69.67,360.00,7.00,0.00,29.72,M,10.00,M,OVC,M,M,M,8500.00,M,M,M,M,M,M,M,M,M,M,31.36,KMEV 302035Z AUTO 36007KT 10SM OVC085 03/M02 A2972 RMK AO2,M
TMT,2021-12-30 20:35,-117.1971,39.4643,1749.34,32.20,23.00,68.49,240.00,12.00,0.00,29.70,M,10.00,16.00,BKN,M,M,M,11000.00,M,M,M,M,M,M,M,M,M,M,22.26,KTMT 302035Z AUTO 24012G16KT 10SM BKN110 00/M05 A2970 RMK AO2 T00011050,M
BAM,2021-12-30 20:35,-116.8743,40.5990,1382.36,33.80,24.80,69.25,250.00,12.00,0.00,29.68,M,10.00,M,OVC,M,M,M,8000.00,M,M,M,M,M,M,M,M,M,M,24.29,KBAM 302035Z AUTO 25012KT 10SM OVC080 01/M04 A2968 RMK AO1,M
DRA,2021-12-30 20:39,-116.0278,36.6206,1009.00,45.00,42.00,89.49,230.00,10.00,0.02,29.83,M,10.00,14.00,SCT,BKN,OVC,M,800.00,1500.00,3500.00,M,-RA,M,M,M,M,M,M,39.27,KDRA 302039Z AUTO 23010G14KT 10SM -RA SCT008 BKN015 OVC035 07/06 A2983 RMK AO2 P0002 T00720056,M
05U,2021-12-30 20:50,-116.0051,39.6042,1811.23,30.20,17.60,59.01,0.00,0.00,0.00,29.69,M,10.00,M,CLR,M,M,M,M,M,M,M,M,M,M,M,M,M,M,30.20,K05U 302050Z AUTO 00000KT 10SM CLR M01/M08 A2969 RMK A01,M
CXP,2021-12-30 20:50,-119.7326,39.1923,1431.00,42.80,21.20,41.84,M,3.00,0.00,29.72,M,10.00,M,OVC,M,M,M,7500.00,M,M,M,M,M,M,M,M,M,M,41.03,KCXP 302050Z AUTO VRB03KT 10SM OVC075 06/M06 A2972 RMK AO2,M
ELY,2021-12-30 20:53,-114.8453,39.2950,1909.00,33.00,24.10,69.17,190.00,13.00,0.00,29.66,1004.80,10.00,23.00,BKN,OVC,M,M,3300.00,4300.00,M,M,M,M,M,M,32.00,220.00,2021-12-30 20:15,22.98,KELY 302053Z AUTO 19013G23KT 10SM BKN033 OVC043 01/M04 A2966 RMK AO2 PK WND 22032/2015 SLP048 T00061044 58028,M
LOL,2021-12-30 20:53,-118.5701,40.0684,1192.43,32.00,28.90,88.17,230.00,5.00,0.00,29.71,1007.90,10.00,M,FEW,OVC,M,M,1100.00,6500.00,M,M,M,M,M,M,M,M,M,26.40,KLOL 302053Z AUTO 23005KT 10SM FEW011 OVC065 00/M02 A2971 RMK AO2 SLP079 T00001017 58026,M
DRA,2021-12-30 20:53,-116.0278,36.6206,1009.00,45.00,41.00,85.77,230.00,12.00,0.02,29.82,1009.10,10.00,M,FEW,BKN,OVC,M,1000.00,2300.00,3700.00,M,M,M,M,M,M,M,M,38.55,KDRA 302053Z AUTO 23012KT 10SM FEW010 BKN023 OVC037 07/05 A2982 RMK AO2 RAE52 SLP091 P0002 60003 T00720050 58027,M
VGT,2021-12-30 20:53,-115.1933,36.2111,667.00,55.00,35.00,46.91,150.00,10.00,0.00,29.84,1012.10,10.00,M,BKN,M,M,M,5500.00,M,M,M,M,M,M,M,M,M,M,55.00,KVGT 302053Z 15010KT 110V170 10SM BKN055 13/02 A2984 RMK AO2 SLP121 T01280017 58028,M
BVU,2021-12-30 20:55,-114.8611,35.9475,671.00,53.60,37.40,54.07,160.00,17.00,0.00,29.86,M,10.00,22.00,OVC,M,M,M,4600.00,M,M,M,M,M,M,M,M,M,M,53.60,KBVU 302055Z AUTO 16017G22KT 10SM OVC046 12/03 A2986 RMK AO2,M
RTS,2021-12-30 20:55,-119.8764,39.6682,1539.00,37.40,23.00,55.68,310.00,8.00,0.00,29.72,M,10.00,M,FEW,M,M,M,8500.00,M,M,M,M,M,M,M,M,M,M,30.76,KRTS 302055Z AUTO 31008KT 10SM FEW085 03/M05 A2972 RMK AO2,M
MEV,2021-12-30 20:55,-119.7500,38.9963,1441.42,42.80,21.20,41.84,250.00,11.00,0.00,29.72,M,10.00,M,OVC,M,M,M,8500.00,M,M,M,M,M,M,M,M,M,M,36.11,KMEV 302055Z AUTO 25011KT 230V290 10SM OVC085 06/M06 A2972 RMK AO2,M
BAM,2021-12-30 20:55,-116.8743,40.5990,1382.36,35.60,24.80,64.46,260.00,9.00,0.00,29.67,M,10.00,M,SCT,OVC,M,M,6000.00,8000.00,M,M,M,M,M,M,M,M,M,27.99,KBAM 302055Z AUTO 26009KT 10SM SCT060 OVC080 02/M04 A2967 RMK AO1,M
TMT,2021-12-30 20:55,-117.1971,39.4643,1749.34,32.00,23.00,69.04,240.00,16.00,0.00,29.70,M,10.00,M,BKN,M,M,M,10000.00,M,M,M,M,M,M,M,M,M,M,20.42,KTMT 302055Z AUTO 24016KT 10SM BKN100 00/M05 A2970 RMK AO2 T00001050,M
HTH,2021-12-30 20:55,-118.6315,38.5448,1282.89,42.80,24.80,48.67,M,5.00,0.00,29.72,M,10.00,17.00,CLR,M,M,M,M,M,M,M,M,M,M,M,M,M,M,39.22,KHTH 302055Z AUTO VRB05G17KT 10SM CLR 06/M04 A2972 RMK A01,M
RNO,2021-12-30 20:55,-119.7711,39.4839,1341.00,38.00,27.00,64.49,140.00,6.00,0.00,29.70,1006.00,10.00,M,FEW,BKN,BKN,BKN,6000.00,8500.00,14000.00,20000.00,M,M,M,M,M,M,M,32.64,KRNO 302055Z 14006KT 10SM FEW060 BKN085 BKN140 BKN200 03/M03 A2970 RMK AO2 SLP060 ACSL ALQDS T00331028 56031,M
EKO,2021-12-30 20:56,-115.7860,40.8242,1367.00,33.00,19.90,57.93,240.00,14.00,0.00,29.62,1004.90,10.00,M,OVC,M,M,M,6000.00,M,M,M,M,M,M,M,M,M,M,22.58,KEKO 302056Z AUTO 24014KT 10SM OVC060 01/M07 A2962 RMK AO2 SLP049 T00061067 56025,M
HND,2021-12-30 20:56,-115.1344,35.9729,742.79,53.00,36.00,52.11,160.00,11.00,0.00,29.86,1012.70,10.00,17.00,OVC,M,M,M,4500.00,M,M,M,M,M,M,M,M,M,M,53.10,KHND 302056Z 16011G17KT 10SM OVC045 12/02 A2986 RMK AO2 SLP127 T01170022 58027,M
NFL,2021-12-30 20:56,-118.7010,39.4166,1199.00,40.00,27.00,59.65,190.00,9.00,0.00,29.71,1004.10,10.00,M,OVC,M,M,M,9500.00,M,M,M,M,M,M,M,M,M,M,33.34,KNFL 302056Z AUTO 19009KT 10SM OVC095 04/M03 A2971 RMK AO2 SLP041 T00441028 56032,M
WMC,2021-12-30 20:56,-117.8072,40.9019,1315.00,34.00,27.00,75.26,190.00,11.00,T,29.66,1005.60,10.00,M,BKN,OVC,M,M,6500.00,10000.00,M,M,M,M,M,M,M,M,M,24.99,KWMC 302056Z AUTO 19011KT 10SM BKN065 OVC100 01/M03 A2966 RMK AO2 SNE06 SLP056 P0000 60000 T00111028 56021,M
TPH,2021-12-30 20:56,-117.0904,38.0505,1654.00,34.00,30.90,88.27,200.00,5.00,T,29.76,1008.40,10.00,M,BKN,BKN,OVC,M,900.00,1300.00,2900.00,M,M,M,M,M,M,M,M,28.77,KTPH 302056Z AUTO 20005KT 10SM BKN009 BKN013 OVC029 01/M01 A2976 RMK AO2 SNB1958E15 CIG 007V011 SLP084 P0000 60000 T00111006 58025,M
LAS,2021-12-30 20:56,-115.1634,36.0719,663.00,54.00,34.00,46.57,M,5.00,0.00,29.84,1010.30,10.00,M,FEW,BKN,OVC,M,4200.00,5500.00,10000.00,M,M,M,M,M,M,M,M,54.00,KLAS 302056Z VRB05KT 10SM FEW042 BKN055 OVC100 12/01 A2984 RMK AO2 SLP103 VIRGA DSNT W T01220011 58029,M
DRA,2021-12-30 20:57,-116.0278,36.6206,1009.00,45.00,41.00,85.77,220.00,9.00,0.00,29.82,M,10.00,M,FEW,BKN,OVC,M,1000.00,3900.00,4800.00,M,M,M,M,M,M,M,M,39.68,KDRA 302057Z AUTO 22009KT 10SM FEW010 BKN039 OVC048 07/05 A2982 RMK AO2 T00720050,M
INS,2021-12-30 20:58,-115.6733,36.5872,955.00,45.70,35.80,68.13,0.00,0.00,0.00,29.82,1009.00,10.00,M,FEW,M,M,M,9500.00,M,M,M,M,M,M,M,M,M,M,45.70,KINS 302058Z AUTO 00000KT 10SM FEW095 08/02 A2982 RMK AO2 SLP090 60000 T00760021 57031 $,M
LSV,2021-12-30 20:58,-115.0343,36.2362,570.00,55.80,36.30,47.79,170.00,13.00,0.00,29.82,1009.40,10.00,M,BKN,OVC,M,M,4900.00,6000.00,M,M,M,M,M,M,M,M,M,55.80,KLSV 302058Z 17013KT 10SM BKN049 OVC060 13/02 A2982 RMK SLP094 T01320024 $,M
CXP,2021-12-30 21:10,-119.7326,39.1923,1431.00,44.60,21.20,39.06,200.00,8.00,0.00,29.71,M,10.00,18.00,OVC,M,M,M,7500.00,M,M,M,M,M,M,M,M,M,M,39.63,KCXP 302110Z AUTO 20008G18KT 150V290 10SM OVC075 07/M06 A2971 RMK AO2,M
TPH,2021-12-30 21:10,-117.0904,38.0505,1654.00,35.00,30.90,84.49,220.00,10.00,0.00,29.75,M,10.00,M,SCT,SCT,OVC,M,900.00,1300.00,2900.00,M,M,M,M,M,M,M,M,26.86,KTPH 302110Z AUTO 22010KT 10SM SCT009 SCT013 OVC029 02/M01 A2975 RMK AO2 T00171006,M
05U,2021-12-30 21:10,-116.0051,39.6042,1811.23,28.40,17.60,63.51,0.00,0.00,0.00,29.68,M,10.00,M,BKN,M,M,M,10000.00,M,M,M,M,M,M,M,M,M,M,28.40,K05U 302110Z AUTO 00000KT 10SM BKN100 M02/M08 A2968 RMK A01,M
RTS,2021-12-30 21:15,-119.8764,39.6682,1539.00,37.40,23.00,55.68,320.00,7.00,0.00,29.72,M,10.00,M,CLR,M,M,M,M,M,M,M,M,M,M,M,M,M,M,31.36,KRTS 302115Z AUTO 32007KT 10SM CLR 03/M05 A2972 RMK AO2,M
HTH,2021-12-30 21:15,-118.6315,38.5448,1282.89,42.80,24.80,48.67,M,4.00,0.00,29.72,M,10.00,M,CLR,M,M,M,M,M,M,M,M,M,M,M,M,M,M,40.03,KHTH 302115Z AUTO VRB04KT 10SM CLR 06/M04 A2972 RMK A01,M
TMT,2021-12-30 21:15,-117.1971,39.4643,1749.34,32.20,24.30,72.32,230.00,12.00,0.00,29.70,M,10.00,M,OVC,M,M,M,10000.00,M,M,M,M,M,M,M,M,M,M,22.26,KTMT 302115Z AUTO 23012KT 10SM OVC100 00/M04 A2970 RMK AO2 T00011043,M
BVU,2021-12-30 21:15,-114.8611,35.9475,671.00,53.60,37.40,54.07,170.00,16.00,0.00,29.85,M,10.00,23.00,OVC,M,M,M,4700.00,M,M,M,M,M,M,M,M,M,M,53.60,KBVU 302115Z AUTO 17016G23KT 10SM OVC047 12/03 A2985 RMK AO2,M
MEV,2021-12-30 21:15,-119.7500,38.9963,1441.42,41.00,26.60,56.22,180.00,8.00,0.00,29.71,M,10.00,M,OVC,M,M,M,8000.00,M,M,M,M,M,M,M,M,M,M,35.20,KMEV 302115Z AUTO 18008KT 10SM OVC080 05/M03 A2971 RMK AO2,M
BAM,2021-12-30 21:15,-116.8743,40.5990,1382.36,33.80,26.60,74.63,290.00,12.00,0.00,29.68,M,10.00,15.00,BKN,OVC,M,M,6000.00,8000.00,M,M,M,M,M,M,M,M,M,24.29,KBAM 302115Z AUTO 29012G15KT 10SM BKN060 OVC080 01/M03 A2968 RMK AO1,M
05U,2021-12-30 21:30,-116.0051,39.6042,1811.23,28.40,17.60,63.51,30.00,3.00,0.00,29.69,M,10.00,M,SCT,M,M,M,10000.00,M,M,M,M,M,M,M,M,M,M,24.57,K05U 302130Z AUTO 03003KT 10SM SCT100 M02/M08 A2969 RMK A01,M
CXP,2021-12-30 21:30,-119.7326,39.1923,1431.00,42.80,21.20,41.84,230.00,8.00,0.00,29.72,M,10.00,13.00,OVC,M,M,M,7500.00,M,M,M,M,M,M,M,M,M,M,37.42,KCXP 302130Z AUTO 23008G13KT 10SM OVC075 06/M06 A2972 RMK AO2,M
MEV,2021-12-30 21:30,-119.7500,38.9963,1441.42,41.00,28.40,60.54,210.00,4.00,0.00,29.71,M,10.00,10.00,OVC,M,M,M,8000.00,M,M,M,M,M,M,M,M,M,M,37.93,KMEV 302130Z AUTO 21004G10KT 10SM OVC080 05/M02 A2971 RMK AO2,M
INS,2021-12-30 21:33,-115.6733,36.5872,955.00,46.40,37.40,70.68,280.00,3.00,0.00,29.80,1008.30,10.00,M,BKN,M,M,M,7500.00,M,M,M,M,M,M,M,M,M,M,45.15,KINS 302133Z AUTO 28003KT 10SM BKN075 08/03 A2980 RMK AO2 SLP083 $,M
BAM,2021-12-30 21:35,-116.8743,40.5990,1382.36,33.80,26.60,74.63,330.00,6.00,0.00,29.68,M,10.00,M,SCT,BKN,OVC,M,3500.00,4800.00,6000.00,M,M,M,M,M,M,M,M,27.70,KBAM 302135Z AUTO 33006KT 10SM SCT035 BKN048 OVC060 01/M03 A2968 RMK AO1,M
TMT,2021-12-30 21:35,-117.1971,39.4643,1749.34,32.00,24.30,72.91,240.00,14.00,0.00,29.70,M,10.00,17.00,OVC,M,M,M,10000.00,M,M,M,M,M,M,M,M,M,M,21.16,KTMT 302135Z AUTO 24014G17KT 10SM OVC100 00/M04 A2970 RMK AO2 T00001043,M
HTH,2021-12-30 21:35,-118.6315,38.5448,1282.89,42.80,26.60,52.45,90.00,12.00,0.00,29.71,M,10.00,19.00,CLR,M,M,M,M,M,M,M,M,M,M,M,M,M,M,35.75,KHTH 302135Z AUTO 09012G19KT 10SM CLR 06/M03 A2971 RMK A01,M
BVU,2021-12-30 21:35,-114.8611,35.9475,671.00,53.60,35.60,50.36,160.00,17.00,0.00,29.85,M,10.00,M,OVC,M,M,M,4800.00,M,M,M,M,M,M,M,M,M,M,53.60,KBVU 302135Z AUTO 16017KT 10SM OVC048 12/02 A2985 RMK AO2,M
RTS,2021-12-30 21:35,-119.8764,39.6682,1539.00,37.40,23.00,55.68,340.00,8.00,0.00,29.72,M,10.00,M,CLR,M,M,M,M,M,M,M,M,M,M,M,M,M,M,30.76,KRTS 302135Z AUTO 34008KT 10SM CLR 03/M05 A2972 RMK AO2,M
INS,2021-12-30 21:48,-115.6733,36.5872,955.00,48.20,35.60,61.52,0.00,0.00,0.00,29.80,1008.30,10.00,M,SCT,M,M,M,7500.00,M,M,M,M,M,M,M,M,M,M,48.20,KINS 302148Z AUTO 00000KT 10SM SCT075 09/02 A2980 RMK AO2 SLP083 $,M
CXP,2021-12-30 21:50,-119.7326,39.1923,1431.00,42.80,19.40,38.75,260.00,12.00,0.00,29.72,M,10.00,19.00,BKN,OVC,M,M,7500.00,8500.00,M,M,M,M,M,M,M,M,M,35.75,KCXP 302150Z AUTO 26012G19KT 230V290 10SM BKN075 OVC085 06/M07 A2972 RMK AO2,M
05U,2021-12-30 21:50,-116.0051,39.6042,1811.23,30.20,19.40,63.75,50.00,4.00,0.00,29.68,M,10.00,M,CLR,M,M,M,M,M,M,M,M,M,M,M,M,M,M,25.32,K05U 302150Z AUTO 05004KT 10SM CLR M01/M07 A2968 RMK A01,M
LSV,2021-12-30 21:51,-115.0343,36.2362,570.00,57.20,37.40,47.44,160.00,14.00,0.00,29.82,1009.40,10.00,M,SCT,OVC,M,M,4900.00,6000.00,M,M,M,M,M,M,M,M,M,57.20,KLSV 302151Z AUTO 16014KT 10SM SCT049 OVC060 14/03 A2982 RMK AO2 SLP094 $,M
ELY,2021-12-30 21:53,-114.8453,39.2950,1909.00,34.00,24.10,66.72,190.00,17.00,0.00,29.67,1004.90,10.00,23.00,BKN,BKN,BKN,M,3100.00,3600.00,5500.00,M,M,M,M,M,34.00,220.00,2021-12-30 21:32,22.70,KELY 302153Z AUTO 19017G23KT 10SM BKN031 BKN036 BKN055 01/M04 A2967 RMK AO2 PK WND 22034/2132 SLP049 T00111044,M
VGT,2021-12-30 21:53,-115.1933,36.2111,667.00,56.00,33.00,41.92,170.00,13.00,0.00,29.81,1010.90,10.00,M,OVC,M,M,M,5000.00,M,M,M,M,M,M,M,M,M,M,55.90,KVGT 302153Z 17013KT 10SM OVC050 13/01 A2981 RMK AO2 SLP109 T01330006,M
LOL,2021-12-30 21:53,-118.5701,40.0684,1192.43,33.00,30.00,88.23,120.00,3.00,0.00,29.71,1007.70,10.00,M,OVC,M,M,M,7500.00,M,M,M,M,M,M,M,M,M,M,29.95,KLOL 302153Z AUTO 12003KT 10SM OVC075 01/M01 A2971 RMK AO2 SLP077 T00061011,M
DRA,2021-12-30 21:53,-116.0278,36.6206,1009.00,46.00,40.00,79.13,230.00,13.00,0.00,29.79,1007.90,10.00,M,FEW,BKN,M,M,2900.00,4200.00,M,M,M,M,M,M,M,M,M,39.50,KDRA 302153Z AUTO 23013KT 10SM FEW029 BKN042 08/04 A2979 RMK AO2 SLP079 T00780044,M
EKO,2021-12-30 21:54,-115.7860,40.8242,1367.00,33.80,21.20,59.53,240.00,18.08,M,29.63,M,4.00,28.96,BKN,BKN,OVC,M,2700.00,3599.00,4599.00,M,-SN,M,M,M,29.00,210.00,2021-12-30 21:52,22.09,SPECI KEKO 302154Z 24018G29KT 4SM -SN BKN027 BKN036 OVC046 01/M06 A2963 RMK AO2 PK WND 21029/2152 SNB53 P0000 FIBI,M
RTS,2021-12-30 21:55,-119.8764,39.6682,1539.00,37.40,23.00,55.68,290.00,7.00,0.00,29.71,M,10.00,13.00,CLR,M,M,M,M,M,M,M,M,M,M,M,M,M,M,31.36,KRTS 302155Z AUTO 29007G13KT 10SM CLR 03/M05 A2971 RMK AO2,M
BVU,2021-12-30 21:55,-114.8611,35.9475,671.00,53.60,35.60,50.36,170.00,17.00,0.00,29.84,M,10.00,M,OVC,M,M,M,4700.00,M,M,M,M,M,M,M,M,M,M,53.60,KBVU 302155Z AUTO 17017KT 10SM OVC047 12/02 A2984 RMK AO2,M
TMT,2021-12-30 21:55,-117.1971,39.4643,1749.34,33.00,23.00,66.59,230.00,12.00,0.00,29.69,M,10.00,18.00,OVC,M,M,M,10000.00,M,M,M,M,M,M,M,M,M,M,23.15,KTMT 302155Z AUTO 23012G18KT 10SM OVC100 01/M05 A2969 RMK AO2 T00051050,M
MEV,2021-12-30 21:55,-119.7500,38.9963,1441.42,42.80,24.80,48.67,0.00,0.00,0.00,29.71,M,10.00,M,OVC,M,M,M,8000.00,M,M,M,M,M,M,M,M,M,M,42.80,KMEV 302155Z AUTO 00000KT 10SM OVC080 06/M04 A2971 RMK AO2,M
HTH,2021-12-30 21:55,-118.6315,38.5448,1282.89,42.80,26.60,52.45,100.00,16.00,0.00,29.71,M,10.00,M,CLR,M,M,M,M,M,M,M,M,M,M,M,M,M,M,34.50,KHTH 302155Z AUTO 10016KT 10SM CLR 06/M03 A2971 RMK A01,M
BAM,2021-12-30 21:55,-116.8743,40.5990,1382.36,33.80,28.40,80.36,250.00,12.00,0.00,29.68,M,10.00,20.00,SCT,OVC,M,M,3700.00,5000.00,M,M,M,M,M,M,M,M,M,24.29,KBAM 302155Z AUTO 25012G20KT 10SM SCT037 OVC050 01/M02 A2968 RMK AO1,M
RNO,2021-12-30 21:55,-119.7711,39.4839,1341.00,45.00,25.00,45.12,M,3.00,0.00,29.69,1004.80,10.00,M,FEW,BKN,BKN,M,6000.00,9500.00,14000.00,M,M,M,M,M,M,M,M,43.55,KRNO 302155Z VRB03KT 10SM FEW060 BKN095 BKN140 07/M04 A2969 RMK AO2 SLP048 ACSL ALQDS T00721039,M
NFL,2021-12-30 21:56,-118.7010,39.4166,1199.00,42.00,28.00,57.08,230.00,4.00,0.00,29.70,1003.90,10.00,M,OVC,M,M,M,8500.00,M,M,M,M,M,M,M,M,M,M,39.21,KNFL 302156Z AUTO 23004KT 10SM OVC085 06/M02 A2970 RMK AO2 SLP039 T00561022,M
WMC,2021-12-30 21:56,-117.8072,40.9019,1315.00,35.00,25.00,66.31,180.00,8.00,0.00,29.66,1005.20,10.00,M,BKN,M,M,M,12000.00,M,M,M,M,M,M,M,M,M,M,27.93,KWMC 302156Z AUTO 18008KT 10SM BKN120 02/M04 A2966 RMK AO2 SLP052 T00171039,M
EKO,2021-12-30 21:56,-115.7860,40.8242,1367.00,32.00,21.00,63.45,240.00,17.00,T,29.63,1005.40,3.00,29.00,BKN,BKN,OVC,M,2500.00,3900.00,4800.00,M,-SN,M,M,M,29.00,210.00,2021-12-30 21:52,20.08,KEKO 302156Z AUTO 24017G29KT 3SM -SN BKN025 BKN039 OVC048 00/M06 A2963 RMK AO2 PK WND 21029/2152 SNB53 SLP054 P0000 T00001061,M
TPH,2021-12-30 21:56,-117.0904,38.0505,1654.00,34.00,30.90,88.27,200.00,11.00,0.00,29.74,1007.90,10.00,M,OVC,M,M,M,2700.00,M,M,M,M,M,M,M,M,M,M,24.99,KTPH 302156Z AUTO 20011KT 10SM OVC027 01/M01 A2974 RMK AO2 SLP079 T00111006,M
LAS,2021-12-30 21:56,-115.1634,36.0719,663.00,55.00,34.00,44.90,200.00,8.00,0.00,29.83,1009.70,10.00,18.00,FEW,OVC,M,M,4200.00,5500.00,M,M,M,M,M,M,M,M,M,55.00,KLAS 302156Z 20008G18KT 10SM FEW042 OVC055 13/01 A2983 RMK AO2 SLP097 T01280011,M
HND,2021-12-30 21:56,-115.1344,35.9729,742.79,53.00,37.00,54.21,160.00,14.00,0.00,29.84,1012.00,10.00,M,OVC,M,M,M,4700.00,M,M,M,M,M,M,M,M,M,M,53.10,KHND 302156Z 16014KT 10SM OVC047 12/03 A2984 RMK AO2 SLP120 T01170028,M
LSV,2021-12-30 21:58,-115.0343,36.2362,570.00,56.00,36.70,48.02,170.00,15.00,0.00,29.82,1009.40,10.00,M,SCT,OVC,M,M,4900.00,6000.00,M,M,M,M,M,M,M,M,M,56.10,KLSV 302158Z AUTO 17015KT 10SM SCT049 OVC060 13/03 A2982 RMK AO2 SLP094 T01340026 $,M
INS,2021-12-30 21:58,-115.6733,36.5872,955.00,47.30,36.00,64.90,330.00,5.00,0.00,29.80,1008.30,10.00,M,SCT,M,M,M,7500.00,M,M,M,M,M,M,M,M,M,M,44.57,KINS 302158Z AUTO 33005KT 10SM SCT075 09/02 A2980 RMK AO2 SLP083 T00850023 $,M
05U,2021-12-30 22:00,-116.0051,39.6042,1811.23,28.40,19.40,68.61,30.00,4.00,0.00,29.68,M,10.00,M,CLR,M,M,M,M,M,M,M,M,M,M,M,M,M,M,23.22,K05U 302200Z AUTO 03004KT 10SM CLR M02/M07 A2968 RMK A01,M
EKO,2021-12-30 22:04,-115.7860,40.8242,1367.00,32.00,21.90,65.92,240.00,21.00,T,29.64,M,1.75,30.00,BKN,OVC,M,M,2100.00,3900.00,M,M,-SN,M,M,M,30.00,220.00,2021-12-30 22:01,18.85,KEKO 302204Z AUTO 24021G30KT 1 3/4SM -SN BKN021 OVC039 00/M06 A2964 RMK AO2 PK WND 22030/2201 VIS 3/4V5 P0000 T00001056,M
TPH,2021-12-30 22:08,-117.0904,38.0505,1654.00,34.00,30.90,88.27,200.00,10.00,0.00,29.74,M,10.00,M,FEW,OVC,M,M,900.00,2700.00,M,M,M,M,M,M,M,M,M,25.48,KTPH 302208Z AUTO 20010KT 10SM FEW009 OVC027 01/M01 A2974 RMK AO2 T00111006,M
CXP,2021-12-30 22:10,-119.7326,39.1923,1431.00,42.80,19.40,38.75,230.00,11.00,0.00,29.71,M,10.00,17.00,OVC,M,M,M,8000.00,M,M,M,M,M,M,M,M,M,M,36.11,KCXP 302210Z AUTO 23011G17KT 200V260 10SM OVC080 06/M07 A2971 RMK AO2,M
ELY,2021-12-30 22:11,-114.8453,39.2950,1909.00,34.00,25.00,69.28,180.00,14.00,0.00,29.66,M,10.00,23.00,BKN,BKN,BKN,M,2900.00,3500.00,5000.00,M,M,M,M,M,M,M,M,23.74,KELY 302211Z AUTO 18014G23KT 10SM BKN029 BKN035 BKN050 01/M04 A2966 RMK AO2 T00111039,M
HTH,2021-12-30 22:15,-118.6315,38.5448,1282.89,44.60,26.60,48.96,90.00,15.00,0.00,29.70,M,10.00,M,CLR,M,M,M,M,M,M,M,M,M,M,M,M,M,M,37.11,KHTH 302215Z AUTO 09015KT 10SM CLR 07/M03 A2970 RMK A01,M
TMT,2021-12-30 22:15,-117.1971,39.4643,1749.34,32.20,23.40,69.65,240.00,16.00,0.00,29.68,M,10.00,M,OVC,M,M,M,9000.00,M,M,M,M,M,M,M,M,M,M,20.68,KTMT 302215Z AUTO 24016KT 10SM OVC090 00/M05 A2968 RMK AO2 T00011048,M
MEV,2021-12-30 22:15,-119.7500,38.9963,1441.42,42.80,21.20,41.84,280.00,14.00,0.00,29.70,M,10.00,19.00,SCT,M,M,M,8000.00,M,M,M,M,M,M,M,M,M,M,35.08,KMEV 302215Z AUTO 28014G19KT 10SM SCT080 06/M06 A2970 RMK AO2,M
BAM,2021-12-30 22:15,-116.8743,40.5990,1382.36,33.80,28.40,80.36,250.00,10.00,0.00,29.68,M,10.00,M,OVC,M,M,M,6000.00,M,M,M,M,M,M,M,M,M,M,25.23,KBAM 302215Z AUTO 25010KT 10SM OVC060 01/M02 A2968 RMK AO1,M
RTS,2021-12-30 22:15,-119.8764,39.6682,1539.00,37.40,24.80,60.04,310.00,7.00,0.00,29.72,M,10.00,M,CLR,M,M,M,M,M,M,M,M,M,M,M,M,M,M,31.36,KRTS 302215Z AUTO 31007KT 10SM CLR 03/M04 A2972 RMK AO2,M
BVU,2021-12-30 22:15,-114.8611,35.9475,671.00,51.80,37.40,57.77,160.00,17.00,0.00,29.85,M,10.00,M,OVC,M,M,M,4800.00,M,M,M,M,M,M,M,M,M,M,51.80,KBVU 302215Z AUTO 16017KT 10SM OVC048 11/03 A2985 RMK AO2,M
ELY,2021-12-30 22:20,-114.8453,39.2950,1909.00,33.80,24.80,69.25,200.00,15.00,0.00,29.66,M,10.00,24.00,FEW,SCT,BKN,M,2700.00,3300.00,4600.00,M,M,M,M,M,M,M,M,23.11,KELY 302220Z AUTO 20015G24KT 10SM FEW027 SCT033 BKN046 01/M04 A2966,M
EKO,2021-12-30 22:24,-115.7860,40.8242,1367.00,30.00,25.00,81.40,240.00,15.00,T,29.64,M,0.75,M,VV ,M,M,M,1600.00,M,M,M,-SN,M,M,M,30.00,220.00,2021-12-30 22:01,18.19,KEKO 302224Z AUTO 24015KT 3/4SM -SN VV016 M01/M04 A2964 RMK AO2 PK WND 22030/2201 P0000 T10111039,M
05U,2021-12-30 22:30,-116.0051,39.6042,1811.23,30.20,19.40,63.75,80.00,5.00,0.00,29.68,M,10.00,M,SCT,M,M,M,9500.00,M,M,M,M,M,M,M,M,M,M,24.26,K05U 302230Z AUTO 08005KT 10SM SCT095 M01/M07 A2968 RMK A01,M
CXP,2021-12-30 22:30,-119.7326,39.1923,1431.00,42.80,21.20,41.84,220.00,8.00,0.00,29.71,M,10.00,17.00,SCT,M,M,M,8000.00,M,M,M,M,M,M,M,M,M,M,37.42,KCXP 302230Z AUTO 22008G17KT 190V250 10SM SCT080 06/M06 A2971 RMK AO2,M
BVU,2021-12-30 22:35,-114.8611,35.9475,671.00,51.80,37.40,57.77,160.00,15.00,0.00,29.84,M,10.00,22.00,OVC,M,M,M,4800.00,M,M,M,M,M,M,M,M,M,M,51.80,KBVU 302235Z AUTO 16015G22KT 10SM OVC048 11/03 A2984 RMK AO2,M
MEV,2021-12-30 22:35,-119.7500,38.9963,1441.42,42.80,21.20,41.84,260.00,20.00,0.00,29.69,M,10.00,26.00,FEW,M,M,M,8000.00,M,M,M,M,M,M,M,M,M,M,33.48,KMEV 302235Z AUTO 26020G26KT 10SM FEW080 06/M06 A2969 RMK AO2,M
RTS,2021-12-30 22:35,-119.8764,39.6682,1539.00,35.60,24.80,64.46,310.00,9.00,0.00,29.72,M,10.00,M,CLR,M,M,M,M,M,M,M,M,M,M,M,M,M,M,27.99,KRTS 302235Z AUTO 31009KT 10SM CLR 02/M04 A2972 RMK AO2,M
BAM,2021-12-30 22:35,-116.8743,40.5990,1382.36,33.80,28.40,80.36,250.00,7.00,0.00,29.68,M,10.00,M,BKN,BKN,OVC,M,4800.00,5500.00,6500.00,M,M,M,M,M,M,M,M,26.97,KBAM 302235Z AUTO 25007KT 10SM BKN048 BKN055 OVC065 01/M02 A2968 RMK AO1,M
TMT,2021-12-30 22:35,-117.1971,39.4643,1749.34,32.40,22.80,67.37,250.00,14.00,0.00,29.69,M,10.00,M,OVC,M,M,M,9000.00,M,M,M,M,M,M,M,M,M,M,21.68,KTMT 302235Z AUTO 25014KT 10SM OVC090 00/M05 A2969 RMK AO2 T00021051,M
HTH,2021-12-30 22:35,-118.6315,38.5448,1282.89,44.60,26.60,48.96,80.00,14.00,0.00,29.69,M,10.00,M,CLR,M,M,M,M,M,M,M,M,M,M,M,M,M,M,37.40,KHTH 302235Z AUTO 08014KT 10SM CLR 07/M03 A2969 RMK A01,M
EKO,2021-12-30 22:37,-115.7860,40.8242,1367.00,30.00,25.00,81.40,230.00,13.00,T,29.64,M,0.75,M,VV ,M,M,M,1400.00,M,M,M,-SN,M,M,M,30.00,220.00,2021-12-30 22:01,19.01,KEKO 302237Z AUTO 23013KT 3/4SM -SN VV014 M01/M04 A2964 RMK AO2 PK WND 22030/2201 P0000 T10111039,M
CXP,2021-12-30 22:50,-119.7326,39.1923,1431.00,42.80,19.40,38.75,250.00,10.00,0.00,29.71,M,10.00,17.00,CLR,M,M,M,M,M,M,M,M,M,M,M,M,M,M,36.51,KCXP 302250Z AUTO 25010G17KT 220V280 10SM CLR 06/M07 A2971 RMK AO2,M
05U,2021-12-30 22:50,-116.0051,39.6042,1811.23,30.20,19.40,63.75,0.00,0.00,0.00,29.67,M,10.00,M,SCT,M,M,M,9000.00,M,M,M,M,M,M,M,M,M,M,30.20,K05U 302250Z AUTO 00000KT 10SM SCT090 M01/M07 A2967 RMK A01,M
LOL,2021-12-30 22:53,-118.5701,40.0684,1192.43,35.00,28.90,77.88,0.00,0.00,0.00,29.71,1007.50,10.00,M,CLR,M,M,M,M,M,M,M,M,M,M,M,M,M,M,35.10,KLOL 302253Z AUTO 00000KT 10SM CLR 02/M02 A2971 RMK AO2 SLP075 T00171017,M
DRA,2021-12-30 22:53,-116.0278,36.6206,1009.00,47.00,38.00,70.73,230.00,14.00,0.00,29.77,1007.10,10.00,22.00,OVC,M,M,M,3900.00,M,M,M,M,M,M,M,29.00,240.00,2021-12-30 22:36,40.37,KDRA 302253Z AUTO 23014G22KT 10SM OVC039 08/03 A2977 RMK AO2 PK WND 24029/2236 SLP071 T00830033,M
ELY,2021-12-30 22:53,-114.8453,39.2950,1909.00,33.00,25.00,71.82,200.00,18.00,0.00,29.66,1004.60,10.00,28.00,BKN,OVC,M,M,3300.00,4400.00,M,M,M,M,M,M,28.00,220.00,2021-12-30 22:51,21.20,KELY 302253Z AUTO 20018G28KT 10SM BKN033 OVC044 01/M04 A2966 RMK AO2 PK WND 22028/2251 SLP046 T00061039,M
VGT,2021-12-30 22:53,-115.1933,36.2111,667.00,56.00,34.00,43.46,170.00,13.00,0.00,29.80,1010.60,10.00,M,OVC,M,M,M,5000.00,M,M,M,M,M,M,M,M,M,M,55.90,KVGT 302253Z 17013KT 10SM OVC050 13/01 A2980 RMK AO2 SLP106 T01330011,M
RTS,2021-12-30 22:55,-119.8764,39.6682,1539.00,37.40,24.80,60.04,290.00,7.00,0.00,29.72,M,10.00,M,CLR,M,M,M,M,M,M,M,M,M,M,M,M,M,M,31.36,KRTS 302255Z AUTO 29007KT 10SM CLR 03/M04 A2972 RMK AO2,M
BVU,2021-12-30 22:55,-114.8611,35.9475,671.00,51.80,37.40,57.77,160.00,15.00,0.00,29.84,M,10.00,21.00,OVC,M,M,M,4900.00,M,M,M,M,M,M,M,M,M,M,51.80,KBVU 302255Z AUTO 16015G21KT 10SM OVC049 11/03 A2984 RMK AO2,M
RNO,2021-12-30 22:55,-119.7711,39.4839,1341.00,43.00,24.10,46.91,310.00,17.00,0.00,29.69,1005.00,10.00,24.00,FEW,SCT,BKN,BKN,6000.00,9500.00,13000.00,19000.00,M,M,M,M,M,M,M,34.49,KRNO 302255Z 31017G24KT 10SM FEW060 SCT095 BKN130 BKN190 06/M04 A2969 RMK AO2 SLP050 ACSL ALQDS T00611044,M
MEV,2021-12-30 22:55,-119.7500,38.9963,1441.42,42.80,23.00,45.14,240.00,11.00,0.00,29.70,M,10.00,19.00,FEW,M,M,M,8000.00,M,M,M,M,M,M,M,M,M,M,36.11,KMEV 302255Z AUTO 24011G19KT 10SM FEW080 06/M05 A2970 RMK AO2,M
BAM,2021-12-30 22:55,-116.8743,40.5990,1382.36,33.80,28.40,80.36,280.00,4.00,0.00,29.67,M,10.00,M,SCT,BKN,OVC,M,4800.00,6500.00,7000.00,M,M,M,M,M,M,M,M,29.52,KBAM 302255Z AUTO 28004KT 10SM SCT048 BKN065 OVC070 01/M02 A2967 RMK AO1,M
HTH,2021-12-30 22:55,-118.6315,38.5448,1282.89,44.60,24.80,45.44,130.00,8.00,0.00,29.70,M,10.00,18.00,FEW,M,M,M,10000.00,M,M,M,M,M,M,M,M,M,M,39.63,KHTH 302255Z AUTO 13008G18KT 10SM FEW100 07/M04 A2970 RMK A01,M
TMT,2021-12-30 22:55,-117.1971,39.4643,1749.34,32.00,24.40,73.21,250.00,14.00,0.00,29.71,M,10.00,M,SCT,BKN,OVC,M,4500.00,7000.00,8000.00,M,M,M,M,M,M,M,M,21.16,KTMT 302255Z AUTO 25014KT 10SM SCT045 BKN070 OVC080 00/M04 A2971 RMK AO2 T00001042,M
HND,2021-12-30 22:56,-115.1344,35.9729,742.79,52.00,38.00,58.48,170.00,14.00,0.00,29.83,1011.80,10.00,M,OVC,M,M,M,4700.00,M,M,M,M,M,M,M,M,M,M,52.00,KHND 302256Z 17014KT 10SM OVC047 11/03 A2983 RMK AO2 SLP118 T01110033,M
NFL,2021-12-30 22:56,-118.7010,39.4166,1199.00,40.00,30.90,69.96,20.00,3.00,0.00,29.70,1003.80,10.00,M,OVC,M,M,M,10000.00,M,M,M,M,M,M,M,M,M,M,37.72,KNFL 302256Z AUTO 02003KT 10SM OVC100 04/M01 A2970 RMK AO2 SLP038 T00441006,M
LAS,2021-12-30 22:56,-115.1634,36.0719,663.00,54.00,34.00,46.57,190.00,9.00,0.00,29.81,1009.00,10.00,18.00,FEW,BKN,M,M,4200.00,5000.00,M,M,M,M,M,M,M,M,M,54.00,KLAS 302256Z 19009G18KT 10SM FEW042 BKN050 12/01 A2981 RMK AO2 SLP090 T01220011,M
WMC,2021-12-30 22:56,-117.8072,40.9019,1315.00,34.00,25.00,69.28,150.00,12.00,0.00,29.66,1005.30,10.00,M,SCT,BKN,M,M,6500.00,12000.00,M,M,M,M,M,M,M,M,M,24.55,KWMC 302256Z AUTO 15012KT 10SM SCT065 BKN120 01/M04 A2966 RMK AO2 SLP053 T00111039,M
EKO,2021-12-30 22:56,-115.7860,40.8242,1367.00,28.90,26.10,89.12,220.00,11.00,0.01,29.65,1006.20,0.75,M,VV ,M,M,M,1400.00,M,M,M,-SN BR,M,M,M,30.00,220.00,2021-12-30 22:01,18.55,KEKO 302256Z AUTO 22011KT 3/4SM -SN BR VV014 M02/M03 A2965 RMK AO2 PK WND 22030/2201 SLP062 P0001 T10171033,M
TPH,2021-12-30 22:56,-117.0904,38.0505,1654.00,35.00,30.90,84.49,180.00,7.00,0.00,29.74,1008.00,10.00,M,SCT,OVC,M,M,1400.00,2600.00,M,M,M,M,M,M,M,M,M,28.56,KTPH 302256Z AUTO 18007KT 10SM SCT014 OVC026 02/M01 A2974 RMK AO2 SLP080 T00171006,M
INS,2021-12-30 22:58,-115.6733,36.5872,955.00,48.60,35.20,59.65,210.00,3.00,0.00,29.77,1007.20,10.00,M,BKN,M,M,M,4700.00,M,M,M,M,M,M,M,M,M,M,47.67,KINS 302258Z AUTO 21003KT 10SM BKN047 09/02 A2977 RMK AO2 SLP072 T00920018 $,M
LSV,2021-12-30 22:58,-115.0343,36.2362,570.00,55.20,37.40,51.01,170.00,15.00,0.00,29.80,1008.70,10.00,M,OVC,M,M,M,5500.00,M,M,M,M,M,M,M,M,M,M,55.20,KLSV 302258Z AUTO 17015KT 10SM OVC055 13/03 A2980 RMK AO2 SLP087 T01290030 $,M
INS,2021-12-30 23:03,-115.6733,36.5872,955.00,48.20,35.60,61.52,220.00,3.00,0.00,29.77,1007.20,10.00,M,SCT,SCT,M,M,4700.00,5500.00,M,M,M,M,M,M,M,M,M,47.21,KINS 302303Z AUTO 22003KT 10SM SCT047 SCT055 09/02 A2977 RMK AO2 SLP072 $,M
05U,2021-12-30 23:10,-116.0051,39.6042,1811.23,30.20,21.20,68.83,0.00,0.00,0.00,29.68,M,10.00,M,FEW,M,M,M,9000.00,M,M,M,M,M,M,M,M,M,M,30.20,K05U 302310Z AUTO 00000KT 10SM FEW090 M01/M06 A2968 RMK A01,M
CXP,2021-12-30 23:10,-119.7326,39.1923,1431.00,42.80,19.40,38.75,210.00,10.00,0.00,29.71,M,10.00,22.00,CLR,M,M,M,M,M,M,M,M,M,M,M,M,M,M,36.51,KCXP 302310Z AUTO 21010G22KT 180V240 10SM CLR 06/M07 A2971 RMK AO2,M
EKO,2021-12-30 23:11,-115.7860,40.8242,1367.00,28.90,27.00,92.49,210.00,8.00,T,29.65,M,0.75,M,VV ,M,M,M,1700.00,M,M,M,-SN BR,M,M,M,M,M,M,20.29,KEKO 302311Z AUTO 21008KT 3/4SM -SN BR VV017 M02/M03 A2965 RMK AO2 P0000 T10171028,M
INS,2021-12-30 23:13,-115.6733,36.5872,955.00,48.20,35.60,61.52,210.00,3.00,0.00,29.77,1007.20,10.00,M,BKN,M,M,M,4600.00,M,M,M,M,M,M,M,M,M,M,47.21,KINS 302313Z AUTO 21003KT 10SM BKN046 09/02 A2977 RMK AO2 SLP072 $,M
TPH,2021-12-30 23:14,-117.0904,38.0505,1654.00,34.00,30.90,88.27,190.00,9.00,0.00,29.74,M,10.00,M,FEW,BKN,OVC,M,1000.00,1400.00,2800.00,M,M,M,M,M,M,M,M,26.00,KTPH 302314Z AUTO 19009KT 10SM FEW010 BKN014 OVC028 01/M01 A2974 RMK AO2 T00111006,M
BAM,2021-12-30 23:15,-116.8743,40.5990,1382.36,35.60,26.60,69.46,0.00,0.00,0.00,29.67,M,10.00,M,BKN,BKN,OVC,M,5500.00,6500.00,12000.00,M,M,M,M,M,M,M,M,35.60,KBAM 302315Z AUTO 00000KT 10SM BKN055 BKN065 OVC120 02/M03 A2967 RMK AO1,M
BVU,2021-12-30 23:15,-114.8611,35.9475,671.00,51.80,37.40,57.77,150.00,17.00,0.00,29.83,M,10.00,23.00,OVC,M,M,M,5000.00,M,M,M,M,M,M,M,M,M,M,51.80,KBVU 302315Z AUTO 15017G23KT 10SM OVC050 11/03 A2983 RMK AO2,M
RTS,2021-12-30 23:15,-119.8764,39.6682,1539.00,37.40,23.00,55.68,300.00,8.00,0.00,29.73,M,10.00,M,FEW,M,M,M,12000.00,M,M,M,M,M,M,M,M,M,M,30.76,KRTS 302315Z AUTO 30008KT 10SM FEW120 03/M05 A2973 RMK AO2,M
MEV,2021-12-30 23:15,-119.7500,38.9963,1441.42,42.80,19.40,38.75,240.00,17.00,0.00,29.70,M,10.00,22.00,CLR,M,M,M,M,M,M,M,M,M,M,M,M,M,M,34.22,KMEV 302315Z AUTO 24017G22KT 10SM CLR 06/M07 A2970 RMK AO2,M
TMT,2021-12-30 23:15,-117.1971,39.4643,1749.34,33.80,20.10,56.81,260.00,12.00,0.00,29.71,M,10.00,20.00,SCT,OVC,M,M,4200.00,6000.00,M,M,M,M,M,M,M,M,M,24.29,KTMT 302315Z AUTO 26012G20KT 10SM SCT042 OVC060 01/M07 A2971 RMK AO2 T00101066,M
HTH,2021-12-30 23:15,-118.6315,38.5448,1282.89,44.60,26.60,48.96,110.00,10.00,0.00,29.69,M,10.00,16.00,FEW,M,M,M,9500.00,M,M,M,M,M,M,M,M,M,M,38.77,KHTH 302315Z AUTO 11010G16KT 10SM FEW095 07/M03 A2969 RMK A01,M
EKO,2021-12-30 23:19,-115.7860,40.8242,1367.00,28.90,27.00,92.49,210.00,8.00,0.01,29.65,M,1.00,M,BKN,BKN,OVC,M,1700.00,2400.00,3000.00,M,-SN BR,M,M,M,M,M,M,20.29,KEKO 302319Z AUTO 21008KT 1SM -SN BR BKN017 BKN024 OVC030 M02/M03 A2965 RMK AO2 P0001 T10171028,M
05U,2021-12-30 23:20,-116.0051,39.6042,1811.23,30.20,21.20,68.83,0.00,0.00,0.00,29.68,M,10.00,M,FEW,M,M,M,9000.00,M,M,M,M,M,M,M,M,M,M,30.20,K05U 302320Z AUTO 00000KT 10SM FEW090 M01/M06 A2968 RMK A01,M
TPH,2021-12-30 23:23,-117.0904,38.0505,1654.00,34.00,30.90,88.27,180.00,10.00,0.00,29.74,M,10.00,M,SCT,OVC,M,M,1400.00,2800.00,M,M,M,M,M,M,M,M,M,25.48,KTPH 302323Z AUTO 18010KT 10SM SCT014 OVC028 01/M01 A2974 RMK AO2 T00111006,M
INS,2021-12-30 23:23,-115.6733,36.5872,955.00,48.20,35.60,61.52,0.00,0.00,0.00,29.77,1007.20,10.00,M,SCT,SCT,M,M,4400.00,5500.00,M,M,M,M,M,M,M,M,M,48.20,KINS 302323Z AUTO 00000KT 10SM SCT044 SCT055 09/02 A2977 RMK AO2 SLP072 $,M
CXP,2021-12-30 23:30,-119.7326,39.1923,1431.00,42.80,17.60,35.87,270.00,7.00,0.00,29.72,M,10.00,17.00,FEW,M,M,M,9000.00,M,M,M,M,M,M,M,M,M,M,37.94,KCXP 302330Z AUTO 27007G17KT 10SM FEW090 06/M08 A2972 RMK AO2,M
EKO,2021-12-30 23:31,-115.7860,40.8242,1367.00,28.90,27.00,92.49,200.00,9.00,0.01,29.64,M,3.00,M,FEW,BKN,OVC,M,1900.00,2400.00,3300.00,M,-SN BR,M,M,M,M,M,M,19.66,KEKO 302331Z AUTO 20009KT 3SM -SN BR FEW019 BKN024 OVC033 M02/M03 A2964 RMK AO2 P0001 T10171028,M
HTH,2021-12-30 23:35,-118.6315,38.5448,1282.89,44.60,26.60,48.96,100.00,12.00,0.00,29.70,M,10.00,M,FEW,M,M,M,9500.00,M,M,M,M,M,M,M,M,M,M,38.04,KHTH 302335Z AUTO 10012KT 10SM FEW095 07/M03 A2970 RMK A01,M
BVU,2021-12-30 23:35,-114.8611,35.9475,671.00,51.80,37.40,57.77,160.00,14.00,0.00,29.83,M,10.00,M,OVC,M,M,M,5000.00,M,M,M,M,M,M,M,M,M,M,51.80,KBVU 302335Z AUTO 16014KT 10SM OVC050 11/03 A2983 RMK AO2,M
RTS,2021-12-30 23:35,-119.8764,39.6682,1539.00,37.40,23.00,55.68,280.00,10.00,0.00,29.73,M,10.00,15.00,FEW,M,M,M,12000.00,M,M,M,M,M,M,M,M,M,M,29.74,KRTS 302335Z AUTO 28010G15KT 10SM FEW120 03/M05 A2973 RMK AO2,M
MEV,2021-12-30 23:35,-119.7500,38.9963,1441.42,42.80,17.60,35.87,280.00,13.00,0.00,29.69,M,10.00,22.00,CLR,M,M,M,M,M,M,M,M,M,M,M,M,M,M,35.40,KMEV 302335Z AUTO 28013G22KT 10SM CLR 06/M08 A2969 RMK AO2,M
BAM,2021-12-30 23:35,-116.8743,40.5990,1382.36,35.60,26.60,69.46,0.00,0.00,0.00,29.67,M,10.00,M,BKN,BKN,M,M,6000.00,12000.00,M,M,M,M,M,M,M,M,M,35.60,KBAM 302335Z AUTO 00000KT 10SM BKN060 BKN120 02/M03 A2967 RMK AO1,M
TMT,2021-12-30 23:35,-117.1971,39.4643,1749.34,32.00,23.70,71.10,240.00,8.00,0.00,29.71,M,10.00,M,SCT,BKN,OVC,M,3500.00,4100.00,4700.00,M,M,M,M,M,M,M,M,24.11,KTMT 302335Z AUTO 24008KT 10SM SCT035 BKN041 OVC047 00/M05 A2971 RMK AO2 T00001046,M
INS,2021-12-30 23:38,-115.6733,36.5872,955.00,48.20,33.80,57.26,0.00,0.00,0.00,29.77,1007.20,10.00,M,SCT,BKN,M,M,4500.00,5500.00,M,M,M,M,M,M,M,M,M,48.20,KINS 302338Z AUTO 00000KT 10SM SCT045 BKN055 09/01 A2977 RMK AO2 SLP072 $,M
EKO,2021-12-30 23:48,-115.7860,40.8242,1367.00,30.00,26.10,85.21,210.00,9.00,0.01,29.64,M,6.00,M,FEW,BKN,OVC,M,1400.00,3100.00,3800.00,M,-SN BR,M,M,M,M,M,M,21.03,KEKO 302348Z AUTO 21009KT 6SM -SN BR FEW014 BKN031 OVC038 M01/M03 A2964 RMK AO2 P0001 T10111033,M
TPH,2021-12-30 23:49,-117.0904,38.0505,1654.00,34.00,32.00,92.29,200.00,7.00,0.00,29.74,M,10.00,M,FEW,OVC,M,M,800.00,3000.00,M,M,M,M,M,M,M,M,M,27.22,KTPH 302349Z AUTO 20007KT 10SM FEW008 OVC030 01/00 A2974 RMK AO2 T00110000,M
CXP,2021-12-30 23:50,-119.7326,39.1923,1431.00,42.80,21.20,41.84,270.00,18.00,0.00,29.74,M,10.00,30.00,FEW,FEW,M,M,5000.00,9000.00,M,M,M,M,M,M,M,M,M,33.97,KCXP 302350Z AUTO 27018G30KT 10SM FEW050 FEW090 06/M06 A2974 RMK AO2,M
VGT,2021-12-30 23:53,-115.1933,36.2111,667.00,56.00,34.00,43.46,180.00,13.00,0.00,29.78,1010.00,10.00,M,SCT,OVC,M,M,5000.00,7500.00,M,M,M,M,M,M,M,M,M,55.90,KVGT 302353Z 18013KT 10SM SCT050 OVC075 13/01 A2978 RMK AO2 SLP100 T01330011 10133 20100 56019,M
ELY,2021-12-30 23:53,-114.8453,39.2950,1909.00,33.00,25.00,71.82,210.00,19.00,0.00,29.65,1004.40,10.00,26.00,SCT,SCT,OVC,M,2800.00,3400.00,11000.00,M,M,M,M,M,28.00,210.00,2021-12-30 23:35,20.89,KELY 302353Z AUTO 21019G26KT 10SM SCT028 SCT034 OVC110 01/M04 A2965 RMK AO2 PK WND 21028/2335 SLP044 T00061039 10017 20000 58003,M
DRA,2021-12-30 23:53,-116.0278,36.6206,1009.00,47.00,36.00,65.63,180.00,20.00,0.00,29.77,1007.10,10.00,30.00,OVC,M,M,M,3600.00,M,M,M,M,M,M,M,30.00,190.00,2021-12-30 23:53,38.93,KDRA 302353Z AUTO 18020G30KT 10SM OVC036 08/02 A2977 RMK AO2 PK WND 19030/2353 SLP071 60003 T00830022 10089 20039 55016,M
LOL,2021-12-30 23:53,-118.5701,40.0684,1192.43,34.00,28.90,81.37,60.00,3.00,0.00,29.70,1007.40,10.00,M,CLR,M,M,M,M,M,M,M,M,M,M,M,M,M,M,30.97,KLOL 302353Z AUTO 06003KT 10SM CLR 01/M02 A2970 RMK AO2 SLP074 T00111017 10022 21011 56003,M
MEV,2021-12-30 23:55,-119.7500,38.9963,1441.42,42.80,17.60,35.87,260.00,13.00,0.00,29.72,M,10.00,20.00,CLR,M,M,M,M,M,M,M,M,M,M,M,M,M,M,35.40,KMEV 302355Z AUTO 26013G20KT 10SM CLR 06/M08 A2972 RMK AO2,M
BVU,2021-12-30 23:55,-114.8611,35.9475,671.00,51.80,37.40,57.77,160.00,15.00,0.00,29.83,M,10.00,M,OVC,M,M,M,4900.00,M,M,M,M,M,M,M,M,M,M,51.80,KBVU 302355Z AUTO 16015KT 10SM OVC049 11/03 A2983 RMK AO2,M
RTS,2021-12-30 23:55,-119.8764,39.6682,1539.00,35.60,23.00,59.79,270.00,10.00,0.00,29.74,M,10.00,M,FEW,M,M,M,12000.00,M,M,M,M,M,M,M,M,M,M,27.48,KRTS 302355Z AUTO 27010KT 10SM FEW120 02/M05 A2974 RMK AO2,M
RNO,2021-12-30 23:55,-119.7711,39.4839,1341.00,42.00,25.00,50.42,300.00,18.00,0.00,29.69,1005.50,10.00,28.00,FEW,FEW,SCT,BKN,5500.00,9500.00,13000.00,20000.00,M,M,M,M,29.00,290.00,2021-12-30 23:30,33.04,KRNO 302355Z 30018G28KT 10SM FEW055 FEW095 SCT130 BKN200 06/M04 A2969 RMK AO2 PK WND 29029/2330 SLP055 ACSL ALQDS T00561039 10078 21006 55002,M
TMT,2021-12-30 23:55,-117.1971,39.4643,1749.34,32.40,22.50,66.53,250.00,9.00,0.00,29.71,M,10.00,M,SCT,SCT,OVC,M,3500.00,4500.00,5500.00,M,M,M,M,M,M,M,M,24.01,KTMT 302355Z AUTO 25009KT 10SM SCT035 SCT045 OVC055 00/M05 A2971 RMK AO2 T00021053 10015 21034,M
BAM,2021-12-30 23:55,-116.8743,40.5990,1382.36,33.80,26.60,74.63,300.00,4.00,0.00,29.67,M,10.00,M,SCT,OVC,M,M,3900.00,6000.00,M,M,M,M,M,M,M,M,M,29.52,KBAM 302355Z AUTO 30004KT 10SM SCT039 OVC060 01/M03 A2967 RMK AO1,M
HTH,2021-12-30 23:55,-118.6315,38.5448,1282.89,42.80,26.60,52.45,100.00,12.00,0.00,29.70,M,10.00,18.00,BKN,M,M,M,9000.00,M,M,M,M,M,M,M,M,M,M,35.75,KHTH 302355Z AUTO 10012G18KT 10SM BKN090 06/M03 A2970 RMK A01,M
EKO,2021-12-30 23:56,-115.7860,40.8242,1367.00,30.00,26.10,85.21,200.00,9.00,0.01,29.64,1005.40,8.00,M,FEW,BKN,OVC,M,1400.00,3600.00,4900.00,M,-SN,M,M,M,M,M,M,21.03,KEKO 302356Z AUTO 20009KT 8SM -SN FEW014 BKN036 OVC049 M01/M03 A2964 RMK AO2 SLP054 P0001 60002 T10111033 10011 21017 50005,M
LAS,2021-12-30 23:56,-115.1634,36.0719,663.00,54.00,35.00,48.65,180.00,9.00,0.00,29.80,1008.60,10.00,16.00,FEW,BKN,M,M,4200.00,5000.00,M,M,M,M,M,M,M,M,M,54.00,KLAS 302356Z 18009G16KT 10SM FEW042 BKN050 12/02 A2980 RMK AO2 SLP086 T01220017 10128 20094 56015,M
WMC,2021-12-30 23:56,-117.8072,40.9019,1315.00,33.00,24.10,69.17,160.00,9.00,0.00,29.66,1005.50,10.00,M,FEW,M,M,M,5000.00,M,M,M,M,M,M,M,M,M,M,24.88,KWMC 302356Z AUTO 16009KT 10SM FEW050 01/M04 A2966 RMK AO2 SLP055 60000 T00061044 10017 21006 55000,M
HND,2021-12-30 23:56,-115.1344,35.9729,742.79,53.00,35.00,50.28,200.00,12.00,0.00,29.82,1011.30,10.00,M,OVC,M,M,M,4700.00,M,M,M,M,M,M,M,M,M,M,53.10,KHND 302356Z 20012KT 10SM OVC047 12/02 A2982 RMK AO2 SLP113 T01170017 10122 20106 56012,M
NFL,2021-12-30 23:56,-118.7010,39.4166,1199.00,39.00,30.90,72.45,350.00,3.00,0.00,29.70,1003.90,10.00,M,OVC,M,M,M,11000.00,M,M,M,M,M,M,M,M,M,M,36.69,KNFL 302356Z AUTO 35003KT 10SM OVC110 04/M01 A2970 RMK AO2 SLP039 T00391006 10056 21006 55002,M
TPH,2021-12-30 23:56,-117.0904,38.0505,1654.00,34.00,30.90,88.27,200.00,8.00,0.00,29.74,1007.80,10.00,M,FEW,OVC,M,M,800.00,3000.00,M,M,M,M,M,M,M,M,M,26.58,KTPH 302356Z AUTO 20008KT 10SM FEW008 OVC030 01/M01 A2974 RMK AO2 SLP078 60000 T00111006 10017 20000 56006,M
INS,2021-12-30 23:58,-115.6733,36.5872,955.00,48.00,35.20,61.00,260.00,5.00,0.00,29.77,1007.50,10.00,M,FEW,SCT,BKN,M,4300.00,5000.00,7000.00,M,M,M,M,M,M,M,M,45.40,KINS 302358Z AUTO 26005KT 10SM FEW043 SCT050 BKN070 09/02 A2977 RMK AO2 SLP075 60000 T00890018 10100 20047 56016 $,M
LSV,2021-12-30 23:58,-115.0343,36.2362,570.00,54.30,38.00,53.75,160.00,16.00,0.00,29.78,1008.10,10.00,M,BKN,OVC,M,M,5500.00,10000.00,M,M,M,M,M,M,M,M,M,54.30,KLSV 302358Z AUTO 16016KT 10SM BKN055 OVC100 12/03 A2978 RMK AO2 SLP081 T01240033 10139 20101 57019 $,M
