station,valid,lon,lat,elevation,tmpf,dwpf,relh,drct,sknt,p01i,alti,mslp,vsby,gust,skyc1,skyc2,skyc3,skyc4,skyl1,skyl2,skyl3,skyl4,wxcodes,ice_accretion_1hr,ice_accretion_3hr,ice_accretion_6hr,peak_wind_gust,peak_wind_drct,peak_wind_time,feel,metar,snowdepth
DRA,2024-07-18 00:02,-116.0278,36.6206,1009.00,106.00,39.00,10.28,230.00,15.00,0.00,29.93,M,10.00,23.00,CLR,M,M,M,M,M,M,M,M,M,M,M,M,M,M,100.27,KDRA 180002Z AUTO 23015G23KT 10SM CLR 41/04 A2993 RMK AO2 WSHFT 2345 T04110039,M
05U,2024-07-18 00:05,-116.0051,39.6042,1811.23,95.00,30.20,10.09,M,4.00,0.00,30.16,M,10.00,11.00,M,M,M,M,M,M,M,M,M,M,M,M,M,M,M,89.48,K05U 180005Z AUTO VRB04G11KT 10SM 35/M01 A3016 RMK A01,M
BVU,2024-07-18 00:15,-114.8611,35.9475,671.00,107.60,39.20,9.89,260.00,10.00,0.00,29.82,M,10.00,M,CLR,M,M,M,M,M,M,M,M,M,M,M,M,M,M,101.73,KBVU 180015Z AUTO 26010KT 10SM CLR 42/04 A2982 RMK AO2,M
CXP,2024-07-18 00:15,-119.7326,39.1923,1431.00,89.60,33.80,13.80,250.00,10.00,0.00,30.12,M,10.00,16.00,CLR,M,M,M,M,M,M,M,M,M,M,M,M,M,M,85.59,KCXP 180015Z AUTO 25010G16KT 10SM CLR 32/01 A3012 RMK AO2,M
RTS,2024-07-18 00:15,-119.8764,39.6682,1539.00,89.60,19.40,7.61,280.00,13.00,0.00,30.16,M,10.00,19.00,CLR,M,M,M,M,M,M,M,M,M,M,M,M,M,M,84.54,KRTS 180015Z AUTO 28013G19KT 10SM CLR 32/M07 A3016 RMK AO2,M
MEV,2024-07-18 00:15,-119.7500,38.9963,1441.42,89.60,35.60,14.83,280.00,17.00,0.00,30.11,M,10.00,23.00,CLR,M,M,M,M,M,M,M,M,M,M,M,M,M,M,85.62,KMEV 180015Z AUTO 28017G23KT 10SM CLR 32/02 A3011 RMK AO2,M
BAM,2024-07-18 00:15,-116.8743,40.5990,1382.36,96.80,41.00,14.66,240.00,9.00,0.00,30.04,M,10.00,M,CLR,M,M,M,M,M,M,M,M,M,M,M,M,M,M,92.39,KBAM 180015Z AUTO 24009KT 10SM CLR 36/05 A3004 RMK AO1,M
HTH,2024-07-18 00:15,-118.6315,38.5448,1282.89,96.80,30.20,9.55,340.00,14.00,0.00,30.01,M,10.00,M,CLR,M,M,M,M,M,M,M,M,M,M,M,M,M,M,90.96,KHTH 180015Z AUTO 34014KT 10SM CLR 36/M01 A3001 RMK A01,M
10U,2024-07-18 00:15,-116.1876,41.9532,1637.00,95.00,30.20,10.09,300.00,14.00,0.00,30.11,M,M,M,M,M,M,M,M,M,M,M,M,M,M,M,M,M,M,89.48,K10U 180015Z AUTO 30014KT 35/M01 A3011 RMK AO2 PWINO,M
TMT,2024-07-18 00:15,-117.1971,39.4643,1749.34,92.70,35.00,13.14,220.00,10.00,0.00,30.15,M,10.00,M,CLR,M,M,M,M,M,M,M,M,M,M,M,M,M,M,88.30,KTMT 180015Z AUTO 22010KT 10SM CLR 34/02 A3015 RMK AO2 T03370017,M
BVU,2024-07-18 00:35,-114.8611,35.9475,671.00,107.60,39.20,9.89,260.00,8.00,0.00,29.82,M,10.00,M,CLR,M,M,M,M,M,M,M,M,M,M,M,M,M,M,101.73,KBVU 180035Z AUTO 26008KT 10SM CLR 42/04 A2982 RMK AO2,M
CXP,2024-07-18 00:35,-119.7326,39.1923,1431.00,89.60,33.80,13.80,260.00,11.00,0.00,30.13,M,10.00,19.00,CLR,M,M,M,M,M,M,M,M,M,M,M,M,M,M,85.59,KCXP 180035Z AUTO 26011G19KT 10SM CLR 32/01 A3013 RMK AO2,M
RTS,2024-07-18 00:35,-119.8764,39.6682,1539.00,87.80,23.00,9.39,280.00,13.00,0.00,30.16,M,10.00,23.00,CLR,M,M,M,M,M,M,M,M,M,M,M,M,M,M,83.43,KRTS 180035Z AUTO 28013G23KT 10SM CLR 31/M05 A3016 RMK AO2,M
05U,2024-07-18 00:35,-116.0051,39.6042,1811.23,91.40,30.20,11.28,0.00,0.00,0.00,30.16,M,10.00,M,M,M,M,M,M,M,M,M,M,M,M,M,M,M,M,86.71,K05U 180035Z AUTO 00000KT 10SM 33/M01 A3016 RMK A01,M
MEV,2024-07-18 00:35,-119.7500,38.9963,1441.42,87.80,35.60,15.70,280.00,18.00,0.00,30.11,M,10.00,24.00,CLR,M,M,M,M,M,M,M,M,M,M,M,M,M,M,84.12,KMEV 180035Z AUTO 28018G24KT 10SM CLR 31/02 A3011 RMK AO2,M
HTH,2024-07-18 00:35,-118.6315,38.5448,1282.89,96.80,30.20,9.55,350.00,12.00,0.00,30.01,M,10.00,18.00,CLR,M,M,M,M,M,M,M,M,M,M,M,M,M,M,90.96,KHTH 180035Z AUTO 35012G18KT 10SM CLR 36/M01 A3001 RMK A01,M
10U,2024-07-18 00:35,-116.1876,41.9532,1637.00,93.20,30.20,10.67,270.00,12.00,0.00,30.12,M,10.00,18.00,M,M,M,M,M,M,M,M,M,M,M,M,M,M,M,88.09,K10U 180035Z AUTO 27012G18KT 250V310 10SM 34/M01 A3012 RMK AO2,M
BAM,2024-07-18 00:35,-116.8743,40.5990,1382.36,96.80,42.80,15.71,260.00,7.00,0.00,30.04,M,10.00,14.00,CLR,M,M,M,M,M,M,M,M,M,M,M,M,M,M,92.57,KBAM 180035Z AUTO 26007G14KT 10SM CLR 36/06 A3004 RMK AO1,M
TMT,2024-07-18 00:35,-117.1971,39.4643,1749.34,92.50,37.20,14.43,270.00,10.00,0.00,30.15,M,10.00,14.00,CLR,M,M,M,M,M,M,M,M,M,M,M,M,M,M,88.19,KTMT 180035Z AUTO 27010G14KT 10SM CLR 34/03 A3015 RMK AO2 T03360029,M
P68,2024-07-18 00:53,-116.0056,39.6014,1993.00,94.00,31.00,10.75,250.00,10.00,0.00,30.13,1011.20,M,21.00,M,M,M,M,M,M,M,M,M,M,M,M,M,M,M,88.80,KP68 180053Z AUTO 25010G21KT 34/M01 A3013 RMK AO1 SLP112 T03441006,M
DRA,2024-07-18 00:53,-116.0278,36.6206,1009.00,104.00,38.00,10.49,230.00,9.00,0.00,29.92,1007.30,10.00,18.00,CLR,M,M,M,M,M,M,M,M,M,M,M,M,M,M,98.31,KDRA 180053Z AUTO 23009G18KT 10SM CLR 40/03 A2992 RMK AO2 WSHFT 2345 SLP073 T04000033,M
ELY,2024-07-18 00:53,-114.8453,39.2950,1909.00,85.00,44.00,23.80,120.00,7.00,0.00,30.21,1012.70,10.00,M,FEW,M,M,M,10000.00,M,M,M,M,M,M,M,M,M,M,82.27,KELY 180053Z AUTO 12007KT 10SM FEW100 29/07 A3021 RMK AO2 SLP127 T02940067,M
VGT,2024-07-18 00:53,-115.1933,36.2111,667.00,108.00,46.00,12.69,200.00,11.00,0.00,29.82,1008.00,10.00,M,CLR,M,M,M,M,M,M,M,M,M,M,M,M,M,M,103.95,KVGT 180053Z 20011KT 10SM CLR 42/08 A2982 RMK AO2 SLP080 T04220078,M
LOL,2024-07-18 00:53,-118.5701,40.0684,1192.43,96.00,33.00,10.96,230.00,5.00,0.00,30.01,1011.30,10.00,15.00,CLR,M,M,M,M,M,M,M,M,M,M,M,M,M,M,90.66,KLOL 180053Z AUTO 23005G15KT 10SM CLR 36/01 A3001 RMK AO2 SLP113 T03560006,M
NFL,2024-07-18 00:54,-118.7010,39.4166,1199.00,99.00,33.00,10.00,M,5.00,0.00,30.00,1013.10,10.00,M,FEW,M,M,M,25000.00,M,M,M,M,M,M,M,M,M,M,93.16,KNFL 180054Z VRB05KT 10SM FEW250 37/01 A3000 RMK SLP131 T03720006,M
BVU,2024-07-18 00:55,-114.8611,35.9475,671.00,107.60,39.20,9.89,230.00,9.00,0.00,29.83,M,10.00,M,CLR,M,M,M,M,M,M,M,M,M,M,M,M,M,M,101.73,KBVU 180055Z AUTO 23009KT 10SM CLR 42/04 A2983 RMK AO2,M
CXP,2024-07-18 00:55,-119.7326,39.1923,1431.00,87.80,35.60,15.70,270.00,9.00,0.00,30.13,M,10.00,18.00,CLR,M,M,M,M,M,M,M,M,M,M,M,M,M,M,84.12,KCXP 180055Z AUTO 27009G18KT 240V300 10SM CLR 31/02 A3013 RMK AO2,M
INS,2024-07-18 00:55,-115.6733,36.5872,955.00,103.00,35.80,9.91,290.00,4.00,0.00,29.90,1006.30,10.00,M,SCT,OVC,M,M,14000.00,17000.00,M,M,M,M,M,M,M,M,M,97.03,KINS 180055Z AUTO 29004KT 10SM SCT140 OVC170 39/02 A2990 RMK AO2 SLP063 T03940021 $,M
RNO,2024-07-18 00:55,-119.7711,39.4839,1341.00,92.00,32.00,11.91,290.00,17.00,0.00,30.08,1012.40,10.00,28.00,CLR,M,M,M,M,M,M,M,M,M,M,M,28.00,290.00,2024-07-18 00:44,87.38,KRNO 180055Z 29017G28KT 10SM CLR 33/00 A3008 RMK AO2 PK WND 29028/0044 SLP124 FU ALF DSNT W THRU N AND S THRU W T03330000,M
LSV,2024-07-18 00:55,-115.0343,36.2362,570.00,109.00,37.60,8.91,220.00,15.00,0.00,29.76,1004.20,10.00,M,FEW,M,M,M,17000.00,M,M,M,M,M,M,M,M,M,M,102.62,KLSV 180055Z AUTO 22015KT 10SM FEW170 43/03 A2976 RMK AO2 SLP042 T04270031 $,M
RTS,2024-07-18 00:55,-119.8764,39.6682,1539.00,87.80,24.80,10.12,280.00,12.00,0.00,30.16,M,10.00,21.00,CLR,M,M,M,M,M,M,M,M,M,M,M,M,M,M,83.56,KRTS 180055Z AUTO 28012G21KT 10SM CLR 31/M04 A3016 RMK AO2,M
05U,2024-07-18 00:55,-116.0051,39.6042,1811.23,M,M,M,80.00,10.00,0.00,30.16,M,10.00,16.00,M,M,M,M,M,M,M,M,M,M,M,M,M,M,M,M,K05U 180055Z AUTO 08010G16KT 10SM A3016 RMK A01,M
MEV,2024-07-18 00:55,-119.7500,38.9963,1441.42,87.80,37.40,16.86,280.00,13.00,0.00,30.11,M,10.00,24.00,CLR,M,M,M,M,M,M,M,M,M,M,M,M,M,M,84.16,KMEV 180055Z AUTO 28013G24KT 10SM CLR 31/03 A3011 RMK AO2,M
HTH,2024-07-18 00:55,-118.6315,38.5448,1282.89,96.80,30.20,9.55,330.00,13.00,0.00,30.01,M,10.00,M,CLR,M,M,M,M,M,M,M,M,M,M,M,M,M,M,90.96,KHTH 180055Z AUTO 33013KT 10SM CLR 36/M01 A3001 RMK A01,M
10U,2024-07-18 00:55,-116.1876,41.9532,1637.00,93.20,28.40,9.91,290.00,9.00,0.00,30.12,M,10.00,20.00,CLR,M,M,M,M,M,M,M,M,M,M,M,M,M,M,87.89,K10U 180055Z AUTO 29009G20KT 10SM CLR 34/M02 A3012 RMK AO2,M
BAM,2024-07-18 00:55,-116.8743,40.5990,1382.36,96.80,42.80,15.71,330.00,9.00,0.00,30.04,M,10.00,M,CLR,M,M,M,M,M,M,M,M,M,M,M,M,M,M,92.57,KBAM 180055Z AUTO 33009KT 10SM CLR 36/06 A3004 RMK AO1,M
TMT,2024-07-18 00:55,-117.1971,39.4643,1749.34,91.60,34.50,13.33,290.00,8.00,0.00,30.15,M,10.00,M,CLR,M,M,M,M,M,M,M,M,M,M,M,M,M,M,87.32,KTMT 180055Z AUTO 29008KT 10SM CLR 33/01 A3015 RMK AO2 T03310014,M
EKO,2024-07-18 00:56,-115.7860,40.8242,1367.00,92.00,45.00,19.82,0.00,0.00,0.00,30.07,1011.50,10.00,M,CLR,M,M,M,M,M,M,M,M,M,M,M,M,M,M,88.27,KEKO 180056Z AUTO 00000KT 10SM CLR 33/07 A3007 RMK AO2 SLP115 T03330072,M
WMC,2024-07-18 00:56,-117.8072,40.9019,1315.00,97.00,32.00,10.21,280.00,9.00,0.00,30.03,1011.10,10.00,M,CLR,M,M,M,M,M,M,M,M,M,M,M,M,M,M,91.35,KWMC 180056Z AUTO 28009KT 10SM CLR 36/00 A3003 RMK AO2 SLP111 T03610000,M
HND,2024-07-18 00:56,-115.1344,35.9729,742.79,104.00,47.00,14.83,230.00,9.00,0.00,29.89,1009.80,10.00,M,CLR,M,M,M,M,M,M,M,M,M,M,M,M,M,M,100.35,KHND 180056Z 23009KT 10SM CLR 40/08 A2989 RMK AO2 SLP098 T04000083,M
TPH,2024-07-18 00:56,-117.0904,38.0505,1654.00,93.00,35.00,13.02,170.00,12.00,0.00,30.12,1011.40,10.00,M,CLR,M,M,M,M,M,M,M,M,M,M,M,M,M,M,88.56,KTPH 180056Z AUTO 17012KT 10SM CLR 34/02 A3012 RMK AO2 SLP114 T03390017,M
LAS,2024-07-18 00:56,-115.1634,36.0719,663.00,107.00,45.00,12.58,240.00,13.00,0.00,29.83,1003.30,10.00,22.00,SCT,SCT,SCT,M,12000.00,15000.00,22000.00,M,M,M,M,M,M,M,M,102.73,KLAS 180056Z 24013G22KT 10SM SCT120 SCT150 SCT220 42/07 A2983 RMK AO2 SLP033 VIRGA SE AND S-W CB DSNT NE-SE T04170072 $,M
BVU,2024-07-18 01:15,-114.8611,35.9475,671.00,107.60,39.20,9.89,M,3.00,0.00,29.83,M,10.00,M,CLR,M,M,M,M,M,M,M,M,M,M,M,M,M,M,101.73,KBVU 180115Z AUTO VRB03KT 10SM CLR 42/04 A2983 RMK AO2,M
CXP,2024-07-18 01:15,-119.7326,39.1923,1431.00,87.80,33.80,14.61,260.00,10.00,0.00,30.13,M,10.00,19.00,CLR,M,M,M,M,M,M,M,M,M,M,M,M,M,M,84.10,KCXP 180115Z AUTO 26010G19KT 10SM CLR 31/01 A3013 RMK AO2,M
RTS,2024-07-18 01:15,-119.8764,39.6682,1539.00,86.00,23.00,9.94,270.00,15.00,0.00,30.16,M,10.00,M,CLR,M,M,M,M,M,M,M,M,M,M,M,M,M,M,82.14,KRTS 180115Z AUTO 27015KT 10SM CLR 30/M05 A3016 RMK AO2,M
05U,2024-07-18 01:15,-116.0051,39.6042,1811.23,91.40,30.20,11.28,0.00,0.00,0.00,30.16,M,10.00,13.00,M,M,M,M,M,M,M,M,M,M,M,M,M,M,M,86.71,K05U 180115Z AUTO 00000G13KT 10SM 33/M01 A3016 RMK A01,M
MEV,2024-07-18 01:15,-119.7500,38.9963,1441.42,87.80,35.60,15.70,270.00,18.00,0.00,30.11,M,10.00,M,CLR,M,M,M,M,M,M,M,M,M,M,M,M,M,M,84.12,KMEV 180115Z AUTO 27018KT 10SM CLR 31/02 A3011 RMK AO2,M
HTH,2024-07-18 01:15,-118.6315,38.5448,1282.89,96.80,30.20,9.55,340.00,15.00,0.00,30.01,M,10.00,M,CLR,M,M,M,M,M,M,M,M,M,M,M,M,M,M,90.96,KHTH 180115Z AUTO 34015KT 10SM CLR 36/M01 A3001 RMK A01,M
10U,2024-07-18 01:15,-116.1876,41.9532,1637.00,93.20,30.20,10.67,M,6.00,0.00,30.12,M,10.00,15.00,CLR,M,M,M,M,M,M,M,M,M,M,M,M,M,M,88.09,K10U 180115Z AUTO VRB06G15KT 10SM CLR 34/M01 A3012 RMK AO2,M
BAM,2024-07-18 01:15,-116.8743,40.5990,1382.36,96.80,44.60,16.83,340.00,7.00,0.00,30.04,M,10.00,M,CLR,M,M,M,M,M,M,M,M,M,M,M,M,M,M,92.79,KBAM 180115Z AUTO 34007KT 10SM CLR 36/07 A3004 RMK AO1,M
TMT,2024-07-18 01:15,-117.1971,39.4643,1749.34,91.20,35.60,14.10,230.00,8.00,0.00,30.15,M,10.00,M,CLR,M,M,M,M,M,M,M,M,M,M,M,M,M,M,87.00,KTMT 180115Z AUTO 23008KT 10SM CLR 33/02 A3015 RMK AO2 T03290020,M
EKO,2024-07-18 01:30,-115.7860,40.8242,1367.00,90.00,42.00,18.81,130.00,7.00,0.00,30.07,M,10.00,M,CLR,M,M,M,M,M,M,M,VCTS,M,M,M,M,M,M,86.22,KEKO 180130Z AUTO 13007KT 10SM VCTS CLR 32/06 A3007 RMK AO2 LTG DSNT SW AND W T03220056,M
LOL,2024-07-18 01:30,-118.5701,40.0684,1192.43,96.00,32.00,10.53,290.00,12.00,0.00,30.01,M,10.00,M,CLR,M,M,M,M,M,M,M,M,M,M,M,M,M,M,90.53,KLOL 180130Z AUTO 29012KT 10SM CLR 36/00 A3001 RMK AO2 WSHFT 0110 T03560000,M
BVU,2024-07-18 01:35,-114.8611,35.9475,671.00,105.80,39.20,10.43,M,3.00,0.00,29.83,M,10.00,M,CLR,M,M,M,M,M,M,M,M,M,M,M,M,M,M,100.14,KBVU 180135Z AUTO VRB03KT 10SM CLR 41/04 A2983 RMK AO2,M
CXP,2024-07-18 01:35,-119.7326,39.1923,1431.00,86.00,35.60,16.63,270.00,12.00,0.00,30.13,M,9.00,18.00,CLR,M,M,M,M,M,M,M,M,M,M,M,M,M,M,82.69,KCXP 180135Z AUTO 27012G18KT 9SM CLR 30/02 A3013 RMK AO2,M
RTS,2024-07-18 01:35,-119.8764,39.6682,1539.00,86.00,21.20,9.21,270.00,12.00,0.00,30.17,M,10.00,21.00,CLR,M,M,M,M,M,M,M,M,M,M,M,M,M,M,82.04,KRTS 180135Z AUTO 27012G21KT 10SM CLR 30/M06 A3017 RMK AO2,M
05U,2024-07-18 01:35,-116.0051,39.6042,1811.23,89.60,30.20,11.94,0.00,0.00,0.00,30.16,M,10.00,M,M,M,M,M,M,M,M,M,M,M,M,M,M,M,M,85.34,K05U 180135Z AUTO 00000KT 10SM 32/M01 A3016 RMK A01,M
MEV,2024-07-18 01:35,-119.7500,38.9963,1441.42,86.00,35.60,16.63,280.00,12.00,0.00,30.12,M,10.00,21.00,CLR,M,M,M,M,M,M,M,M,M,M,M,M,M,M,82.69,KMEV 180135Z AUTO 28012G21KT 10SM CLR 30/02 A3012 RMK AO2,M
BAM,2024-07-18 01:35,-116.8743,40.5990,1382.36,95.00,44.60,17.78,350.00,4.00,0.00,30.05,M,10.00,M,CLR,M,M,M,M,M,M,M,M,M,M,M,M,M,M,91.06,KBAM 180135Z AUTO 35004KT 10SM CLR 35/07 A3005 RMK AO1,M
HTH,2024-07-18 01:35,-118.6315,38.5448,1282.89,96.80,30.20,9.55,330.00,12.00,0.00,30.01,M,10.00,M,CLR,M,M,M,M,M,M,M,M,M,M,M,M,M,M,90.96,KHTH 180135Z AUTO 33012KT 10SM CLR 36/M01 A3001 RMK A01,M
10U,2024-07-18 01:35,-116.1876,41.9532,1637.00,93.20,28.40,9.91,250.00,9.00,0.00,30.12,M,10.00,M,CLR,M,M,M,M,M,M,M,M,M,M,M,M,M,M,87.89,K10U 180135Z AUTO 25009KT 10SM CLR 34/M02 A3012 RMK AO2,M
TMT,2024-07-18 01:35,-117.1971,39.4643,1749.34,90.50,37.00,15.24,260.00,7.00,0.00,30.16,M,10.00,M,CLR,M,M,M,M,M,M,M,M,M,M,M,M,M,M,86.43,KTMT 180135Z AUTO 26007KT 10SM CLR 33/03 A3016 RMK AO2 T03250028,M
EKO,2024-07-18 01:39,-115.7860,40.8242,1367.00,90.00,42.00,18.81,210.00,9.00,0.00,30.08,M,10.00,M,SCT,M,M,M,12000.00,M,M,M,M,M,M,M,M,M,M,86.22,KEKO 180139Z AUTO 21009KT 10SM SCT120 32/06 A3008 RMK AO2 T03220056,M
EKO,2024-07-18 01:51,-115.7860,40.8242,1367.00,86.00,44.60,23.59,250.00,8.00,0.00,30.08,M,10.00,21.00,FEW,BKN,M,M,9000.00,11000.00,M,M,VCTS,M,M,M,M,M,M,83.07,KEKO 180151Z AUTO 25008G21KT 10SM VCTS FEW090 BKN110 30/07 A3008 RMK AO2 LTG DSNT SW,M
P68,2024-07-18 01:53,-116.0056,39.6014,1993.00,89.00,30.00,12.07,310.00,5.00,0.00,30.14,1011.20,M,M,M,M,M,M,M,M,M,M,M,M,M,M,M,M,M,84.88,KP68 180153Z AUTO 31005KT 32/M01 A3014 RMK AO1 SLP112 T03171011,M
DRA,2024-07-18 01:53,-116.0278,36.6206,1009.00,102.00,38.00,11.14,240.00,9.00,0.00,29.93,1007.40,10.00,20.00,CLR,M,M,M,M,M,M,M,M,M,M,M,M,M,M,96.57,KDRA 180153Z AUTO 24009G20KT 10SM CLR 39/03 A2993 RMK AO2 SLP074 T03890033,M
ELY,2024-07-18 01:53,-114.8453,39.2950,1909.00,85.00,43.00,22.91,130.00,13.00,0.00,30.21,1012.30,10.00,M,CLR,M,M,M,M,M,M,M,M,M,M,M,M,M,M,82.21,KELY 180153Z AUTO 13013KT 10SM CLR 29/06 A3021 RMK AO2 SLP123 T02940061,M
VGT,2024-07-18 01:53,-115.1933,36.2111,667.00,107.00,45.00,12.58,240.00,13.00,0.00,29.83,1008.40,10.00,M,CLR,M,M,M,M,M,M,M,M,M,M,M,M,M,M,102.73,KVGT 180153Z 24013KT 10SM CLR 42/07 A2983 RMK AO2 SLP084 T04170072,M
LOL,2024-07-18 01:53,-118.5701,40.0684,1192.43,95.00,32.00,10.85,280.00,6.00,0.00,30.01,1011.50,10.00,M,CLR,M,M,M,M,M,M,M,M,M,M,M,M,M,M,89.71,KLOL 180153Z AUTO 28006KT 10SM CLR 35/00 A3001 RMK AO2 WSHFT 0110 SLP115 T03500000,M
NFL,2024-07-18 01:54,-118.7010,39.4166,1199.00,97.00,33.00,10.63,300.00,10.00,0.00,30.01,1013.20,10.00,15.00,CLR,M,M,M,M,M,M,M,M,M,M,M,M,M,M,91.49,KNFL 180154Z 30010G15KT 10SM CLR 36/01 A3001 RMK AO2 SLP132 T03610006,M
BVU,2024-07-18 01:55,-114.8611,35.9475,671.00,104.00,48.20,15.52,120.00,15.00,0.00,29.84,M,10.00,21.00,CLR,M,M,M,M,M,M,M,M,M,M,M,M,M,M,100.65,KBVU 180155Z AUTO 12015G21KT 090V150 10SM CLR 40/09 A2984 RMK AO2 LTG DSNT SE,M
CXP,2024-07-18 01:55,-119.7326,39.1923,1431.00,86.00,35.60,16.63,260.00,8.00,0.00,30.14,M,10.00,18.00,CLR,M,M,M,M,M,M,M,M,M,M,M,M,M,M,82.69,KCXP 180155Z AUTO 26008G18KT 10SM CLR 30/02 A3014 RMK AO2,M
INS,2024-07-18 01:55,-115.6733,36.5872,955.00,102.40,35.40,9.93,0.00,0.00,0.00,29.91,1006.60,10.00,M,BKN,OVC,M,M,14000.00,16000.00,M,M,M,M,M,M,M,M,M,96.44,KINS 180155Z AUTO 00000KT 10SM BKN140 OVC160 39/02 A2991 RMK AO2 SLP066 T03910019 $,M
RNO,2024-07-18 01:55,-119.7711,39.4839,1341.00,89.00,31.00,12.57,280.00,17.00,0.00,30.09,1012.90,10.00,27.00,CLR,M,M,M,M,M,M,M,M,M,M,M,28.00,300.00,2024-07-18 00:56,84.98,KRNO 180155Z 28017G27KT 10SM CLR 32/M01 A3009 RMK AO2 PK WND 30028/0056 SLP129 FU ALF DSNT S THRU NW T03171006,M
RTS,2024-07-18 01:55,-119.8764,39.6682,1539.00,86.00,23.00,9.94,280.00,15.00,0.00,30.17,M,10.00,20.00,CLR,M,M,M,M,M,M,M,M,M,M,M,M,M,M,82.14,KRTS 180155Z AUTO 28015G20KT 10SM CLR 30/M05 A3017 RMK AO2,M
05U,2024-07-18 01:55,-116.0051,39.6042,1811.23,89.60,30.20,11.94,0.00,0.00,0.00,30.16,M,10.00,M,M,M,M,M,M,M,M,M,M,M,M,M,M,M,M,85.34,K05U 180155Z AUTO 00000KT 10SM 32/M01 A3016 RMK A01,M
MEV,2024-07-18 01:55,-119.7500,38.9963,1441.42,86.00,35.60,16.63,270.00,10.00,0.00,30.12,M,10.00,16.00,CLR,M,M,M,M,M,M,M,M,M,M,M,M,M,M,82.69,KMEV 180155Z AUTO 27010G16KT 10SM CLR 30/02 A3012 RMK AO2,M
BAM,2024-07-18 01:55,-116.8743,40.5990,1382.36,93.20,44.60,18.80,340.00,3.00,0.00,30.05,M,10.00,M,CLR,M,M,M,M,M,M,M,M,M,M,M,M,M,M,89.34,KBAM 180155Z AUTO 34003KT 10SM CLR 34/07 A3005 RMK AO1,M
HTH,2024-07-18 01:55,-118.6315,38.5448,1282.89,95.00,30.20,10.09,330.00,15.00,0.00,30.01,M,10.00,M,CLR,M,M,M,M,M,M,M,M,M,M,M,M,M,M,89.48,KHTH 180155Z AUTO 33015KT 10SM CLR 35/M01 A3001 RMK A01,M
10U,2024-07-18 01:55,-116.1876,41.9532,1637.00,91.40,30.20,11.28,270.00,10.00,0.00,30.12,M,10.00,15.00,CLR,M,M,M,M,M,M,M,M,M,M,M,M,M,M,86.71,K10U 180155Z AUTO 27010G15KT 10SM CLR 33/M01 A3012 RMK AO2,M
TMT,2024-07-18 01:55,-117.1971,39.4643,1749.34,88.00,39.00,17.83,330.00,4.00,0.00,30.16,M,10.00,M,CLR,M,M,M,M,M,M,M,M,M,M,M,M,M,M,84.38,KTMT 180155Z AUTO 33004KT 10SM CLR 31/04 A3016 RMK AO2 T03110039,M
LSV,2024-07-18 01:55,-115.0343,36.2362,570.00,107.00,39.00,9.99,220.00,9.00,0.00,29.78,1005.00,10.00,M,SCT,BKN,M,M,16000.00,19000.00,M,M,M,M,M,M,M,M,M,101.15,KLSV 180155Z AUTO 22009KT 10SM SCT160 BKN190 42/04 A2978 RMK AO2 SLP050 T04160038 $,M
EKO,2024-07-18 01:56,-115.7860,40.8242,1367.00,88.00,46.00,23.34,260.00,15.00,T,30.08,1012.00,10.00,19.00,FEW,SCT,BKN,M,7000.00,9000.00,11000.00,M,VCTS -RA,M,M,M,M,M,M,84.81,KEKO 180156Z AUTO 26015G19KT 10SM VCTS -RA FEW070 SCT090 BKN110 31/08 A3008 RMK AO2 LTG DSNT SW RAB54 SLP120 P0000 T03110078,M
WMC,2024-07-18 01:56,-117.8072,40.9019,1315.00,95.00,31.00,10.42,280.00,10.00,0.00,30.04,1011.10,10.00,M,CLR,M,M,M,M,M,M,M,M,M,M,M,M,M,M,89.58,KWMC 180156Z AUTO 28010KT 10SM CLR 35/M01 A3004 RMK AO2 SLP111 T03501006,M
HND,2024-07-18 01:56,-115.1344,35.9729,742.79,103.00,46.00,14.71,240.00,7.00,0.00,29.89,1010.10,10.00,M,CLR,M,M,M,M,M,M,M,M,M,M,M,M,M,M,99.14,KHND 180156Z 24007KT 10SM CLR 39/08 A2989 RMK AO2 SLP101 T03940078,M
TPH,2024-07-18 01:56,-117.0904,38.0505,1654.00,91.00,35.00,13.86,180.00,9.00,0.00,30.12,1011.00,10.00,M,CLR,M,M,M,M,M,M,M,M,M,M,M,M,M,M,86.81,KTPH 180156Z AUTO 18009KT 10SM CLR 33/02 A3012 RMK AO2 SLP110 T03280017,M
LAS,2024-07-18 01:56,-115.1634,36.0719,663.00,106.00,44.00,12.47,240.00,6.00,0.00,29.84,1003.60,10.00,M,BKN,BKN,BKN,M,12000.00,15000.00,22000.00,M,M,M,M,M,M,M,M,101.53,KLAS 180156Z 24006KT 10SM BKN120 BKN150 BKN220 41/07 A2984 RMK AO2 SLP036 VCSH CB DSNT NE-SE AND W-NW T04110067 $,M
BVU,2024-07-18 02:15,-114.8611,35.9475,671.00,100.40,48.20,17.28,110.00,21.00,0.00,29.85,M,10.00,27.00,CLR,M,M,M,M,M,M,M,M,M,M,M,M,M,M,97.00,KBVU 180215Z AUTO 11021G27KT 10SM CLR 38/09 A2985 RMK AO2,M
CXP,2024-07-18 02:15,-119.7326,39.1923,1431.00,84.20,35.60,17.61,270.00,8.00,0.00,30.14,M,10.00,14.00,CLR,M,M,M,M,M,M,M,M,M,M,M,M,M,M,81.34,KCXP 180215Z AUTO 27008G14KT 230V290 10SM CLR 29/02 A3014 RMK AO2,M
RTS,2024-07-18 02:15,-119.8764,39.6682,1539.00,84.20,21.20,9.76,270.00,15.00,0.00,30.17,M,10.00,20.00,CLR,M,M,M,M,M,M,M,M,M,M,M,M,M,M,80.77,KRTS 180215Z AUTO 27015G20KT 10SM CLR 29/M06 A3017 RMK AO2,M
05U,2024-07-18 02:15,-116.0051,39.6042,1811.23,89.60,28.40,11.09,0.00,0.00,0.00,30.17,M,10.00,10.00,M,M,M,M,M,M,M,M,M,M,M,M,M,M,M,85.17,K05U 180215Z AUTO 00000G10KT 10SM 32/M02 A3017 RMK A01,M
MEV,2024-07-18 02:15,-119.7500,38.9963,1441.42,84.20,35.60,17.61,280.00,8.00,0.00,30.13,M,10.00,15.00,CLR,M,M,M,M,M,M,M,M,M,M,M,M,M,M,81.34,KMEV 180215Z AUTO 28008G15KT 10SM CLR 29/02 A3013 RMK AO2,M
HTH,2024-07-18 02:15,-118.6315,38.5448,1282.89,95.00,30.20,10.09,340.00,13.00,0.00,30.02,M,10.00,M,CLR,M,M,M,M,M,M,M,M,M,M,M,M,M,M,89.48,KHTH 180215Z AUTO 34013KT 10SM CLR 35/M01 A3002 RMK A01,M
10U,2024-07-18 02:15,-116.1876,41.9532,1637.00,89.60,28.40,11.09,290.00,9.00,0.00,30.12,M,10.00,16.00,CLR,M,M,M,M,M,M,M,M,M,M,M,M,M,M,85.17,K10U 180215Z AUTO 29009G16KT 10SM CLR 32/M02 A3012 RMK AO2,M
BAM,2024-07-18 02:15,-116.8743,40.5990,1382.36,93.20,46.40,20.13,250.00,3.00,0.00,30.05,M,10.00,M,CLR,M,M,M,M,M,M,M,M,M,M,M,M,M,M,89.55,KBAM 180215Z AUTO 25003KT 10SM CLR 34/08 A3005 RMK AO1,M
TMT,2024-07-18 02:15,-117.1971,39.4643,1749.34,87.00,35.40,15.98,360.00,12.00,0.00,30.16,M,10.00,17.00,CLR,M,M,M,M,M,M,M,M,M,M,M,M,M,M,83.47,KTMT 180215Z AUTO 36012G17KT 10SM CLR 31/02 A3016 RMK AO2 T03050019,M
BVU,2024-07-18 02:35,-114.8611,35.9475,671.00,100.40,46.40,16.15,120.00,17.00,0.00,29.86,M,10.00,M,CLR,M,M,M,M,M,M,M,M,M,M,M,M,M,M,96.63,KBVU 180235Z AUTO 12017KT 10SM CLR 38/08 A2986 RMK AO2,M
CXP,2024-07-18 02:35,-119.7326,39.1923,1431.00,84.20,33.80,16.39,270.00,6.00,0.00,30.14,M,10.00,12.00,CLR,M,M,M,M,M,M,M,M,M,M,M,M,M,M,81.30,KCXP 180235Z AUTO 27006G12KT 10SM CLR 29/01 A3014 RMK AO2,M
RTS,2024-07-18 02:35,-119.8764,39.6682,1539.00,82.40,21.20,10.34,270.00,14.00,0.00,30.18,M,10.00,20.00,CLR,M,M,M,M,M,M,M,M,M,M,M,M,M,M,79.55,KRTS 180235Z AUTO 27014G20KT 10SM CLR 28/M06 A3018 RMK AO2,M
05U,2024-07-18 02:35,-116.0051,39.6042,1811.23,89.60,32.00,12.84,0.00,0.00,0.00,30.17,M,10.00,M,M,M,M,M,M,M,M,M,M,M,M,M,M,M,M,85.54,K05U 180235Z AUTO 00000KT 10SM 32/M00 A3017 RMK A01,M
MEV,2024-07-18 02:35,-119.7500,38.9963,1441.42,82.40,35.60,18.67,300.00,10.00,0.00,30.13,M,10.00,16.00,CLR,M,M,M,M,M,M,M,M,M,M,M,M,M,M,80.08,KMEV 180235Z AUTO 30010G16KT 10SM CLR 28/02 A3013 RMK AO2,M
BAM,2024-07-18 02:35,-116.8743,40.5990,1382.36,91.40,44.60,19.89,340.00,5.00,0.00,30.06,M,10.00,M,CLR,M,M,M,M,M,M,M,M,M,M,M,M,M,M,87.68,KBAM 180235Z AUTO 34005KT 10SM CLR 33/07 A3006 RMK AO1,M
HTH,2024-07-18 02:35,-118.6315,38.5448,1282.89,93.20,35.60,13.25,340.00,14.00,0.00,30.03,M,10.00,19.00,CLR,M,M,M,M,M,M,M,M,M,M,M,M,M,M,88.76,KHTH 180235Z AUTO 34014G19KT 10SM CLR 34/02 A3003 RMK A01,M
10U,2024-07-18 02:35,-116.1876,41.9532,1637.00,87.80,30.20,12.64,260.00,6.00,0.00,30.12,M,10.00,11.00,CLR,M,M,M,M,M,M,M,M,M,M,M,M,M,M,84.01,K10U 180235Z AUTO 26006G11KT 10SM CLR 31/M01 A3012 RMK AO2,M
TMT,2024-07-18 02:35,-117.1971,39.4643,1749.34,85.30,35.20,16.73,360.00,9.00,0.00,30.18,M,10.00,15.00,CLR,M,M,M,M,M,M,M,M,M,M,M,M,M,M,82.14,KTMT 180235Z AUTO 36009G15KT 10SM CLR 30/02 A3018 RMK AO2 T02960018,M
EKO,2024-07-18 02:40,-115.7860,40.8242,1367.00,87.00,46.00,24.10,60.00,8.00,T,30.09,M,10.00,M,CLR,M,M,M,M,M,M,M,M,M,M,M,M,M,M,83.98,KEKO 180240Z AUTO 06008KT 10SM CLR 31/08 A3009 RMK AO2 LTG DSNT N AND NE RAE04 P0000 T03060078,M
P68,2024-07-18 02:53,-116.0056,39.6014,1993.00,88.00,29.00,11.96,260.00,9.00,0.00,30.15,1010.80,M,M,M,M,M,M,M,M,M,M,M,M,M,M,M,M,M,84.04,KP68 180253Z AUTO 26009KT 31/M02 A3015 RMK AO1 SLP108 T03111017 53005,M
DRA,2024-07-18 02:53,-116.0278,36.6206,1009.00,99.00,39.00,12.68,190.00,10.00,0.00,29.94,1007.60,10.00,M,CLR,M,M,M,M,M,M,M,M,M,M,M,M,M,M,94.19,KDRA 180253Z AUTO 19010KT 10SM CLR 37/04 A2994 RMK AO2 SLP076 T03720039 53004,M
ELY,2024-07-18 02:53,-114.8453,39.2950,1909.00,79.00,45.00,30.05,200.00,7.00,0.00,30.21,1012.30,10.00,M,CLR,M,M,M,M,M,M,M,M,M,M,M,M,M,M,79.00,KELY 180253Z AUTO 20007KT 10SM CLR 26/07 A3021 RMK AO2 SLP123 T02610072 55003,M
VGT,2024-07-18 02:53,-115.1933,36.2111,667.00,105.00,46.00,13.86,270.00,7.00,0.00,29.85,1008.90,10.00,M,CLR,M,M,M,M,M,M,M,M,M,M,M,M,M,M,101.10,KVGT 180253Z 27007KT 10SM CLR 41/08 A2985 RMK AO2 SLP089 T04060078 53010,M
LOL,2024-07-18 02:53,-118.5701,40.0684,1192.43,91.00,29.00,10.88,310.00,12.00,0.00,30.02,1011.80,10.00,M,CLR,M,M,M,M,M,M,M,M,M,M,M,M,M,M,86.28,KLOL 180253Z AUTO 31012KT 10SM CLR 33/M02 A3002 RMK AO2 SLP118 T03281017 53003,M
NFL,2024-07-18 02:54,-118.7010,39.4166,1199.00,92.00,31.00,11.44,320.00,10.00,0.00,30.02,1013.60,10.00,M,CLR,M,M,M,M,M,M,M,M,M,M,M,M,M,M,87.26,KNFL 180254Z 32010KT 10SM CLR 33/M01 A3002 RMK SLP136 T03331006 53001,M
BVU,2024-07-18 02:55,-114.8611,35.9475,671.00,100.40,48.20,17.28,110.00,11.00,0.00,29.86,M,10.00,17.00,CLR,M,M,M,M,M,M,M,M,M,M,M,M,M,M,97.00,KBVU 180255Z AUTO 11011G17KT 10SM CLR 38/09 A2986 RMK AO2,M
CXP,2024-07-18 02:55,-119.7326,39.1923,1431.00,82.40,33.80,17.38,290.00,5.00,0.00,30.15,M,10.00,11.00,CLR,M,M,M,M,M,M,M,M,M,M,M,M,M,M,80.03,KCXP 180255Z AUTO 29005G11KT 10SM CLR 28/01 A3015 RMK AO2,M
INS,2024-07-18 02:55,-115.6733,36.5872,955.00,102.00,37.40,10.88,170.00,12.00,0.00,29.92,1006.70,10.00,15.00,FEW,OVC,M,M,14000.00,17000.00,M,M,M,M,M,M,M,M,M,96.45,KINS 180255Z AUTO 17012G15KT 10SM FEW140 OVC170 39/03 A2992 RMK AO2 SLP067 T03880030 53004 $,M
RNO,2024-07-18 02:55,-119.7711,39.4839,1341.00,86.00,33.00,14.99,280.00,17.00,0.00,30.11,1013.40,10.00,22.00,CLR,M,M,M,M,M,M,M,M,M,M,M,M,M,M,82.65,KRNO 180255Z 28017G22KT 10SM CLR 30/01 A3011 RMK AO2 SLP134 FU ALF DSNT S THRU NW T03000006 53007,M
LSV,2024-07-18 02:55,-115.0343,36.2362,570.00,105.80,38.00,9.95,250.00,7.00,0.00,29.79,1005.30,10.00,M,BKN,M,M,M,17000.00,M,M,M,M,M,M,M,M,M,M,99.88,KLSV 180255Z AUTO 25007KT 10SM BKN170 41/03 A2979 RMK AO2 SLP053 T04100033 53009 $,M
RTS,2024-07-18 02:55,-119.8764,39.6682,1539.00,80.60,26.60,13.75,270.00,10.00,0.00,30.18,M,10.00,M,CLR,M,M,M,M,M,M,M,M,M,M,M,M,M,M,78.68,KRTS 180255Z AUTO 27010KT 10SM CLR 27/M03 A3018 RMK AO2,M
05U,2024-07-18 02:55,-116.0051,39.6042,1811.23,87.80,28.40,11.74,60.00,6.00,0.00,30.18,M,10.00,M,M,M,M,M,M,M,M,M,M,M,M,M,M,M,M,83.84,K05U 180255Z AUTO 06006KT 10SM 31/M02 A3018 RMK A01,M
MEV,2024-07-18 02:55,-119.7500,38.9963,1441.42,80.60,37.40,21.25,270.00,10.00,0.00,30.14,M,10.00,M,CLR,M,M,M,M,M,M,M,M,M,M,M,M,M,M,79.02,KMEV 180255Z AUTO 27010KT 10SM CLR 27/03 A3014 RMK AO2,M
BAM,2024-07-18 02:55,-116.8743,40.5990,1382.36,89.60,44.60,21.04,350.00,5.00,0.00,30.07,M,10.00,M,CLR,M,M,M,M,M,M,M,M,M,M,M,M,M,M,86.07,KBAM 180255Z AUTO 35005KT 10SM CLR 32/07 A3007 RMK AO1,M
HTH,2024-07-18 02:55,-118.6315,38.5448,1282.89,91.40,33.80,13.05,350.00,15.00,0.00,30.03,M,10.00,22.00,CLR,M,M,M,M,M,M,M,M,M,M,M,M,M,M,87.13,KHTH 180255Z AUTO 35015G22KT 10SM CLR 33/01 A3003 RMK A01,M
10U,2024-07-18 02:55,-116.1876,41.9532,1637.00,86.00,30.20,13.38,280.00,7.00,0.00,30.12,M,10.00,M,CLR,M,M,M,M,M,M,M,M,M,M,M,M,M,M,82.64,K10U 180255Z AUTO 28007KT 10SM CLR 30/M01 A3012 RMK AO2,M
TMT,2024-07-18 02:55,-117.1971,39.4643,1749.34,83.50,35.00,17.59,350.00,8.00,0.00,30.18,M,10.00,M,CLR,M,M,M,M,M,M,M,M,M,M,M,M,M,M,80.82,KTMT 180255Z AUTO 35008KT 10SM CLR 29/02 A3018 RMK AO2 T02860016,M
EKO,2024-07-18 02:56,-115.7860,40.8242,1367.00,86.00,45.00,23.95,160.00,5.00,T,30.10,1012.30,10.00,M,CLR,M,M,M,M,M,M,M,M,M,M,M,M,M,M,83.10,KEKO 180256Z AUTO 16005KT 10SM CLR 30/07 A3010 RMK AO2 LTG DSNT N AND NE RAE04 SLP123 P0000 60000 T03000072 53009,M
WMC,2024-07-18 02:56,-117.8072,40.9019,1315.00,89.00,31.00,12.57,280.00,8.00,0.00,30.05,1011.40,10.00,M,CLR,M,M,M,M,M,M,M,M,M,M,M,M,M,M,84.98,KWMC 180256Z AUTO 28008KT 10SM CLR 32/M01 A3005 RMK AO2 SLP114 T03171006 53005,M
HND,2024-07-18 02:56,-115.1344,35.9729,742.79,100.00,51.00,19.42,120.00,12.00,0.00,29.91,1010.60,10.00,18.00,CLR,M,M,M,M,M,M,M,M,M,M,M,M,M,M,97.26,KHND 180256Z 12012G18KT 10SM CLR 38/11 A2991 RMK AO2 SLP106 T03780106 53009,M
TPH,2024-07-18 02:56,-117.0904,38.0505,1654.00,88.00,35.00,15.23,180.00,10.00,0.00,30.13,1010.90,10.00,M,CLR,M,M,M,M,M,M,M,M,M,M,M,M,M,M,84.28,KTPH 180256Z AUTO 18010KT 10SM CLR 31/02 A3013 RMK AO2 SLP109 T03110017 53004,M
LAS,2024-07-18 02:56,-115.1634,36.0719,663.00,105.00,43.00,12.37,0.00,0.00,0.00,29.86,1004.00,10.00,M,SCT,BKN,BKN,M,12000.00,15000.00,22000.00,M,M,M,M,M,M,M,M,100.36,KLAS 180256Z 00000KT 10SM SCT120 BKN150 BKN220 41/06 A2986 RMK AO2 SLP040 CB DSNT NE-SE T04060061 53009 $,M
10U,2024-07-18 03:10,-116.1876,41.9532,1637.00,84.20,35.60,17.61,320.00,4.00,0.00,30.13,M,10.00,M,CLR,M,M,M,M,M,M,M,M,M,M,M,M,M,M,81.34,K10U 180310Z AUTO 32004KT 10SM CLR 29/02 A3013 RMK AO2,M
BVU,2024-07-18 03:15,-114.8611,35.9475,671.00,100.40,44.60,15.08,140.00,7.00,0.00,29.87,M,10.00,M,CLR,M,M,M,M,M,M,M,M,M,M,M,M,M,M,96.31,KBVU 180315Z AUTO 14007KT 10SM CLR 38/07 A2987 RMK AO2,M
CXP,2024-07-18 03:15,-119.7326,39.1923,1431.00,80.60,33.80,18.42,0.00,0.00,0.00,30.16,M,10.00,M,CLR,M,M,M,M,M,M,M,M,M,M,M,M,M,M,78.88,KCXP 180315Z AUTO 00000KT 10SM CLR 27/01 A3016 RMK AO2,M
RTS,2024-07-18 03:15,-119.8764,39.6682,1539.00,78.80,28.40,15.71,310.00,8.00,0.00,30.19,M,10.00,M,CLR,M,M,M,M,M,M,M,M,M,M,M,M,M,M,78.80,KRTS 180315Z AUTO 31008KT 10SM CLR 26/M02 A3019 RMK AO2,M
05U,2024-07-18 03:15,-116.0051,39.6042,1811.23,86.00,28.40,12.44,0.00,0.00,0.00,30.18,M,10.00,M,M,M,M,M,M,M,M,M,M,M,M,M,M,M,M,82.54,K05U 180315Z AUTO 00000KT 10SM 30/M02 A3018 RMK A01,M
MEV,2024-07-18 03:15,-119.7500,38.9963,1441.42,78.80,35.60,21.00,280.00,6.00,0.00,30.15,M,10.00,12.00,CLR,M,M,M,M,M,M,M,M,M,M,M,M,M,M,78.80,KMEV 180315Z AUTO 28006G12KT 10SM CLR 26/02 A3015 RMK AO2,M
BAM,2024-07-18 03:15,-116.8743,40.5990,1382.36,87.80,44.60,22.27,330.00,8.00,0.00,30.08,M,10.00,M,CLR,M,M,M,M,M,M,M,M,M,M,M,M,M,M,84.53,KBAM 180315Z AUTO 33008KT 10SM CLR 31/07 A3008 RMK AO1,M
HTH,2024-07-18 03:15,-118.6315,38.5448,1282.89,89.60,35.60,14.83,340.00,15.00,0.00,30.04,M,10.00,M,CLR,M,M,M,M,M,M,M,M,M,M,M,M,M,M,85.62,KHTH 180315Z AUTO 34015KT 10SM CLR 32/02 A3004 RMK A01,M
TMT,2024-07-18 03:15,-117.1971,39.4643,1749.34,80.40,34.70,19.22,360.00,6.00,0.00,30.18,M,10.00,M,CLR,M,M,M,M,M,M,M,M,M,M,M,M,M,M,78.79,KTMT 180315Z AUTO 36006KT 10SM CLR 27/02 A3018 RMK AO2 T02690015,M
BVU,2024-07-18 03:35,-114.8611,35.9475,671.00,100.40,44.60,15.08,140.00,7.00,0.00,29.88,M,10.00,M,CLR,M,M,M,M,M,M,M,M,M,M,M,M,M,M,96.31,KBVU 180335Z AUTO 14007KT 10SM CLR 38/07 A2988 RMK AO2,M
CXP,2024-07-18 03:35,-119.7326,39.1923,1431.00,80.60,33.80,18.42,350.00,5.00,0.00,30.16,M,10.00,M,CLR,M,M,M,M,M,M,M,M,M,M,M,M,M,M,78.88,KCXP 180335Z AUTO 35005KT 10SM CLR 27/01 A3016 RMK AO2,M
RTS,2024-07-18 03:35,-119.8764,39.6682,1539.00,75.20,28.40,17.70,310.00,10.00,0.00,30.20,M,10.00,M,CLR,M,M,M,M,M,M,M,M,M,M,M,M,M,M,75.20,KRTS 180335Z AUTO 31010KT 10SM CLR 24/M02 A3020 RMK AO2,M
05U,2024-07-18 03:35,-116.0051,39.6042,1811.23,82.40,28.40,13.96,0.00,0.00,0.00,30.19,M,10.00,M,M,M,M,M,M,M,M,M,M,M,M,M,M,M,M,79.94,K05U 180335Z AUTO 00000KT 10SM 28/M02 A3019 RMK A01,M
MEV,2024-07-18 03:35,-119.7500,38.9963,1441.42,77.00,35.60,22.28,0.00,0.00,0.00,30.15,M,10.00,M,CLR,M,M,M,M,M,M,M,M,M,M,M,M,M,M,77.00,KMEV 180335Z AUTO 00000KT 10SM CLR 25/02 A3015 RMK AO2,M
HTH,2024-07-18 03:35,-118.6315,38.5448,1282.89,87.80,41.00,19.40,340.00,12.00,0.00,30.05,M,10.00,M,CLR,M,M,M,M,M,M,M,M,M,M,M,M,M,M,84.30,KHTH 180335Z AUTO 34012KT 10SM CLR 31/05 A3005 RMK A01,M
10U,2024-07-18 03:35,-116.1876,41.9532,1637.00,78.80,41.00,25.95,360.00,5.00,0.00,30.14,M,10.00,M,CLR,M,M,M,M,M,M,M,M,M,M,M,M,M,M,78.80,K10U 180335Z AUTO 36005KT 10SM CLR 26/05 A3014 RMK AO2,M
BAM,2024-07-18 03:35,-116.8743,40.5990,1382.36,86.00,42.80,22.02,330.00,5.00,0.00,30.08,M,10.00,M,CLR,M,M,M,M,M,M,M,M,M,M,M,M,M,M,82.95,KBAM 180335Z AUTO 33005KT 10SM CLR 30/06 A3008 RMK AO1,M
TMT,2024-07-18 03:35,-117.1971,39.4643,1749.34,77.00,34.70,21.50,10.00,3.00,0.00,30.19,M,10.00,M,CLR,M,M,M,M,M,M,M,M,M,M,M,M,M,M,77.00,KTMT 180335Z AUTO 01003KT 10SM CLR 25/02 A3019 RMK AO2 T02500015,M
P68,2024-07-18 03:53,-116.0056,39.6014,1993.00,83.00,33.00,16.50,310.00,6.00,0.00,30.17,1011.40,M,M,M,M,M,M,M,M,M,M,M,M,M,M,M,M,M,80.43,KP68 180353Z AUTO 31006KT 28/01 A3017 RMK AO1 SLP114 T02830006,M
DRA,2024-07-18 03:53,-116.0278,36.6206,1009.00,97.00,38.00,12.96,220.00,8.00,0.00,29.96,1008.10,10.00,M,CLR,M,M,M,M,M,M,M,M,M,M,M,M,M,M,92.32,KDRA 180353Z AUTO 22008KT 10SM CLR 36/03 A2996 RMK AO2 SLP081 T03610033,M
ELY,2024-07-18 03:53,-114.8453,39.2950,1909.00,74.00,43.00,32.87,180.00,8.00,0.00,30.23,1012.50,10.00,M,CLR,M,M,M,M,M,M,M,M,M,M,M,M,M,M,74.00,KELY 180353Z AUTO 18008KT 10SM CLR 23/06 A3023 RMK AO2 SLP125 T02330061,M
VGT,2024-07-18 03:53,-115.1933,36.2111,667.00,102.00,48.00,16.35,0.00,0.00,0.00,29.88,1009.90,10.00,M,CLR,M,M,M,M,M,M,M,M,M,M,M,M,M,M,98.58,KVGT 180353Z AUTO 00000KT 10SM CLR 39/09 A2988 RMK AO2 SLP099 T03890089,M
LOL,2024-07-18 03:53,-118.5701,40.0684,1192.43,86.00,25.00,10.81,310.00,12.00,0.00,30.04,1012.40,10.00,M,CLR,M,M,M,M,M,M,M,M,M,M,M,M,M,M,82.27,KLOL 180353Z AUTO 31012KT 10SM CLR 30/M04 A3004 RMK AO2 SLP124 T03001039,M
NFL,2024-07-18 03:54,-118.7010,39.4166,1199.00,88.00,29.00,11.96,310.00,11.00,0.00,30.05,1014.30,10.00,M,CLR,M,M,M,M,M,M,M,M,M,M,M,M,M,M,84.04,KNFL 180354Z 31011KT 10SM CLR 31/M02 A3005 RMK AO2 SLP143 T03111017,M
BVU,2024-07-18 03:55,-114.8611,35.9475,671.00,98.60,44.60,15.93,190.00,4.00,0.00,29.89,M,10.00,M,CLR,M,M,M,M,M,M,M,M,M,M,M,M,M,M,94.55,KBVU 180355Z AUTO 19004KT 10SM CLR 37/07 A2989 RMK AO2,M
CXP,2024-07-18 03:55,-119.7326,39.1923,1431.00,77.00,33.80,20.74,0.00,0.00,0.00,30.17,M,10.00,M,CLR,M,M,M,M,M,M,M,M,M,M,M,M,M,M,77.00,KCXP 180355Z AUTO 00000KT 10SM CLR 25/01 A3017 RMK AO2,M
INS,2024-07-18 03:55,-115.6733,36.5872,955.00,97.30,38.30,12.99,160.00,20.00,0.08,29.94,1007.40,10.00,28.00,SCT,BKN,M,M,14000.00,18000.00,M,M,M,M,M,M,31.00,180.00,2024-07-18 03:44,92.62,KINS 180355Z AUTO 16020G28KT 10SM SCT140 BKN180 36/04 A2994 RMK AO2 PK WND 18031/44 SLP074 P0008 T03630035 $,M
RNO,2024-07-18 03:55,-119.7711,39.4839,1341.00,83.00,29.00,14.04,290.00,13.00,0.00,30.13,1014.00,10.00,23.00,CLR,M,M,M,M,M,M,M,M,M,M,M,26.00,290.00,2024-07-18 03:04,80.37,KRNO 180355Z 29013G23KT 10SM CLR 28/M02 A3013 RMK AO2 PK WND 29026/0304 SLP140 FU ALF DSNT NW THRU N T02831017,M
LSV,2024-07-18 03:55,-115.0343,36.2362,570.00,103.00,42.60,12.92,170.00,10.00,0.00,29.82,1006.30,10.00,M,FEW,M,M,M,17000.00,M,M,M,M,M,M,M,M,M,M,98.48,KLSV 180355Z AUTO 17010KT 10SM FEW170 39/06 A2982 RMK AO2 SLP063 T03940059 $,M
RTS,2024-07-18 03:55,-119.8764,39.6682,1539.00,73.40,28.40,18.80,270.00,9.00,0.00,30.21,M,10.00,M,CLR,M,M,M,M,M,M,M,M,M,M,M,M,M,M,73.40,KRTS 180355Z AUTO 27009KT 10SM CLR 23/M02 A3021 RMK AO2,M
05U,2024-07-18 03:55,-116.0051,39.6042,1811.23,82.40,32.00,16.17,0.00,0.00,0.00,30.20,M,10.00,M,M,M,M,M,M,M,M,M,M,M,M,M,M,M,M,80.00,K05U 180355Z AUTO 00000KT 10SM 28/00 A3020 RMK A01,M
MEV,2024-07-18 03:55,-119.7500,38.9963,1441.42,75.20,37.40,25.40,M,4.00,0.00,30.16,M,10.00,M,CLR,M,M,M,M,M,M,M,M,M,M,M,M,M,M,75.20,KMEV 180355Z AUTO VRB04KT 10SM CLR 24/03 A3016 RMK AO2,M
BAM,2024-07-18 03:55,-116.8743,40.5990,1382.36,86.00,41.00,20.54,340.00,7.00,0.00,30.09,M,10.00,M,CLR,M,M,M,M,M,M,M,M,M,M,M,M,M,M,82.86,KBAM 180355Z AUTO 34007KT 10SM CLR 30/05 A3009 RMK AO1,M
HTH,2024-07-18 03:55,-118.6315,38.5448,1282.89,86.00,42.80,22.02,320.00,7.00,0.00,30.06,M,10.00,M,CLR,M,M,M,M,M,M,M,M,M,M,M,M,M,M,82.95,KHTH 180355Z AUTO 32007KT 10SM CLR 30/06 A3006 RMK A01,M
10U,2024-07-18 03:55,-116.1876,41.9532,1637.00,78.80,39.20,24.19,320.00,5.00,0.00,30.15,M,10.00,M,CLR,M,M,M,M,M,M,M,M,M,M,M,M,M,M,78.80,K10U 180355Z AUTO 32005KT 10SM CLR 26/04 A3015 RMK AO2,M
TMT,2024-07-18 03:55,-117.1971,39.4643,1749.34,69.40,34.50,27.55,100.00,5.00,0.00,30.20,M,10.00,M,CLR,M,M,M,M,M,M,M,M,M,M,M,M,M,M,69.40,KTMT 180355Z AUTO 10005KT 10SM CLR 21/01 A3020 RMK AO2 T02080014,M
EKO,2024-07-18 03:56,-115.7860,40.8242,1367.00,86.00,44.00,23.05,30.00,5.00,0.00,30.11,1012.60,10.00,M,CLR,M,M,M,M,M,M,M,M,M,M,M,M,M,M,83.03,KEKO 180356Z AUTO 03005KT 10SM CLR 30/07 A3011 RMK AO2 SLP126 T03000067,M
WMC,2024-07-18 03:56,-117.8072,40.9019,1315.00,81.00,29.00,14.98,0.00,0.00,0.00,30.08,1012.50,10.00,M,CLR,M,M,M,M,M,M,M,M,M,M,M,M,M,M,79.00,KWMC 180356Z AUTO 00000KT 10SM CLR 27/M02 A3008 RMK AO2 SLP125 T02721017,M
HND,2024-07-18 03:56,-115.1344,35.9729,742.79,99.00,49.00,18.58,M,3.00,0.00,29.93,1011.10,10.00,M,CLR,M,M,M,M,M,M,M,M,M,M,M,M,M,M,95.75,KHND 180356Z AUTO VRB03KT 10SM CLR 37/09 A2993 RMK AO2 SLP111 T03720094,M
TPH,2024-07-18 03:56,-117.0904,38.0505,1654.00,81.00,34.00,18.33,180.00,5.00,0.00,30.15,1011.80,10.00,M,CLR,M,M,M,M,M,M,M,M,M,M,M,M,M,M,79.13,KTPH 180356Z AUTO 18005KT 10SM CLR 27/01 A3015 RMK AO2 SLP118 T02720011,M
LAS,2024-07-18 03:56,-115.1634,36.0719,663.00,102.00,48.00,16.35,150.00,3.00,0.00,29.88,1004.70,10.00,M,FEW,SCT,SCT,M,12000.00,15000.00,22000.00,M,M,M,M,M,M,M,M,98.58,KLAS 180356Z 15003KT 10SM FEW120 SCT150 SCT220 39/09 A2988 RMK AO2 SLP047 CB DSNT NE-SE T03890089 $,M
BVU,2024-07-18 04:15,-114.8611,35.9475,671.00,98.60,44.60,15.93,160.00,6.00,0.00,29.88,M,10.00,M,CLR,M,M,M,M,M,M,M,M,M,M,M,M,M,M,94.55,KBVU 180415Z AUTO 16006KT 10SM CLR 37/07 A2988 RMK AO2,M
CXP,2024-07-18 04:15,-119.7326,39.1923,1431.00,77.00,32.00,19.30,350.00,4.00,0.00,30.17,M,10.00,M,CLR,M,M,M,M,M,M,M,M,M,M,M,M,M,M,77.00,KCXP 180415Z AUTO 35004KT 10SM CLR 25/M00 A3017 RMK AO2,M
RTS,2024-07-18 04:15,-119.8764,39.6682,1539.00,73.40,28.40,18.80,300.00,10.00,0.00,30.21,M,10.00,M,CLR,M,M,M,M,M,M,M,M,M,M,M,M,M,M,73.40,KRTS 180415Z AUTO 30010KT 10SM CLR 23/M02 A3021 RMK AO2,M
05U,2024-07-18 04:15,-116.0051,39.6042,1811.23,80.60,33.80,18.42,120.00,8.00,0.00,30.21,M,10.00,M,M,M,M,M,M,M,M,M,M,M,M,M,M,M,M,78.88,K05U 180415Z AUTO 12008KT 10SM 27/01 A3021 RMK A01,M
MEV,2024-07-18 04:15,-119.7500,38.9963,1441.42,75.20,35.60,23.66,0.00,0.00,0.00,30.16,M,10.00,M,CLR,M,M,M,M,M,M,M,M,M,M,M,M,M,M,75.20,KMEV 180415Z AUTO 00000KT 10SM CLR 24/02 A3016 RMK AO2,M
HTH,2024-07-18 04:15,-118.6315,38.5448,1282.89,84.20,46.40,26.76,350.00,9.00,0.00,30.07,M,10.00,M,CLR,M,M,M,M,M,M,M,M,M,M,M,M,M,M,81.87,KHTH 180415Z AUTO 35009KT 10SM CLR 29/08 A3007 RMK A01,M
10U,2024-07-18 04:15,-116.1876,41.9532,1637.00,77.00,41.00,27.53,80.00,5.00,0.00,30.16,M,10.00,M,CLR,M,M,M,M,M,M,M,M,M,M,M,M,M,M,77.00,K10U 180415Z AUTO 08005KT 10SM CLR 25/05 A3016 RMK AO2,M
BAM,2024-07-18 04:15,-116.8743,40.5990,1382.36,82.40,42.80,24.72,330.00,4.00,0.00,30.09,M,10.00,M,CLR,M,M,M,M,M,M,M,M,M,M,M,M,M,M,80.39,KBAM 180415Z AUTO 33004KT 10SM CLR 28/06 A3009 RMK AO1,M
TMT,2024-07-18 04:15,-117.1971,39.4643,1749.34,70.00,34.00,26.46,90.00,3.00,0.00,30.21,M,10.00,M,CLR,M,M,M,M,M,M,M,M,M,M,M,M,M,M,70.00,KTMT 180415Z AUTO 09003KT 10SM CLR 21/01 A3021 RMK AO2 T02110011,M
BVU,2024-07-18 04:35,-114.8611,35.9475,671.00,98.60,44.60,15.93,120.00,5.00,0.00,29.88,M,10.00,M,CLR,M,M,M,M,M,M,M,M,M,M,M,M,M,M,94.55,KBVU 180435Z AUTO 12005KT 10SM CLR 37/07 A2988 RMK AO2,M
CXP,2024-07-18 04:35,-119.7326,39.1923,1431.00,77.00,32.00,19.30,350.00,5.00,0.00,30.18,M,10.00,M,CLR,M,M,M,M,M,M,M,M,M,M,M,M,M,M,77.00,KCXP 180435Z AUTO 35005KT 10SM CLR 25/00 A3018 RMK AO2,M
RTS,2024-07-18 04:35,-119.8764,39.6682,1539.00,73.40,30.20,20.23,300.00,13.00,0.00,30.22,M,10.00,M,CLR,M,M,M,M,M,M,M,M,M,M,M,M,M,M,73.40,KRTS 180435Z AUTO 30013KT 10SM CLR 23/M01 A3022 RMK AO2,M
05U,2024-07-18 04:35,-116.0051,39.6042,1811.23,80.60,35.60,19.79,130.00,5.00,0.00,30.22,M,10.00,11.00,M,M,M,M,M,M,M,M,M,M,M,M,M,M,M,78.94,K05U 180435Z AUTO 13005G11KT 10SM 27/02 A3022 RMK A01,M
MEV,2024-07-18 04:35,-119.7500,38.9963,1441.42,66.20,42.80,42.57,100.00,6.00,0.00,30.17,M,10.00,M,CLR,M,M,M,M,M,M,M,M,M,M,M,M,M,M,66.20,KMEV 180435Z AUTO 10006KT 10SM CLR 19/06 A3017 RMK AO2,M
BAM,2024-07-18 04:35,-116.8743,40.5990,1382.36,82.40,42.80,24.72,320.00,6.00,0.00,30.10,M,10.00,M,CLR,M,M,M,M,M,M,M,M,M,M,M,M,M,M,80.39,KBAM 180435Z AUTO 32006KT 10SM CLR 28/06 A3010 RMK AO1,M
HTH,2024-07-18 04:35,-118.6315,38.5448,1282.89,86.00,39.20,19.15,350.00,8.00,0.00,30.08,M,10.00,15.00,CLR,M,M,M,M,M,M,M,M,M,M,M,M,M,M,82.79,KHTH 180435Z AUTO 35008G15KT 10SM CLR 30/04 A3008 RMK A01,M
10U,2024-07-18 04:35,-116.1876,41.9532,1637.00,75.20,42.80,31.34,0.00,0.00,0.00,30.16,M,10.00,M,CLR,M,M,M,M,M,M,M,M,M,M,M,M,M,M,75.20,K10U 180435Z AUTO 00000KT 10SM CLR 24/06 A3016 RMK AO2,M
TMT,2024-07-18 04:35,-117.1971,39.4643,1749.34,69.60,34.30,27.15,90.00,4.00,0.00,30.22,M,10.00,M,CLR,M,M,M,M,M,M,M,M,M,M,M,M,M,M,69.60,KTMT 180435Z AUTO 09004KT 10SM CLR 21/01 A3022 RMK AO2 T02090013,M
05U,2024-07-18 04:50,-116.0051,39.6042,1811.23,78.80,35.60,21.00,0.00,0.00,0.00,30.22,M,10.00,M,M,M,M,M,M,M,M,M,M,M,M,M,M,M,M,78.80,K05U 180450Z AUTO 00000KT 10SM 26/02 A3022 RMK A01,M
P68,2024-07-18 04:53,-116.0056,39.6014,1993.00,77.00,37.00,23.55,50.00,5.00,0.00,30.19,1012.20,M,M,M,M,M,M,M,M,M,M,M,M,M,M,M,M,M,77.00,KP68 180453Z AUTO 05005KT 25/03 A3019 RMK AO1 SLP122 T02500028,M
DRA,2024-07-18 04:53,-116.0278,36.6206,1009.00,97.00,39.00,13.48,170.00,5.00,0.00,29.97,1008.50,10.00,M,CLR,M,M,M,M,M,M,M,M,M,M,M,M,M,M,92.40,KDRA 180453Z AUTO 17005KT 10SM CLR 36/04 A2997 RMK AO2 SLP085 T03610039,M
ELY,2024-07-18 04:53,-114.8453,39.2950,1909.00,74.00,43.00,32.87,200.00,11.00,0.00,30.24,1012.00,10.00,M,CLR,M,M,M,M,M,M,M,M,M,M,M,M,M,M,74.00,KELY 180453Z AUTO 20011KT 10SM CLR 23/06 A3024 RMK AO2 SLP120 T02330061,M
VGT,2024-07-18 04:53,-115.1933,36.2111,667.00,100.00,49.00,18.02,80.00,4.00,0.00,29.89,1010.40,10.00,M,CLR,M,M,M,M,M,M,M,M,M,M,M,M,M,M,96.77,KVGT 180453Z AUTO 08004KT 10SM CLR 38/09 A2989 RMK AO2 SLP104 T03780094,M
LOL,2024-07-18 04:53,-118.5701,40.0684,1192.43,84.00,27.00,12.52,310.00,15.00,0.00,30.05,1012.50,10.00,24.00,CLR,M,M,M,M,M,M,M,M,M,M,M,M,M,M,81.03,KLOL 180453Z AUTO 31015G24KT 10SM CLR 29/M03 A3005 RMK AO2 SLP125 T02891028,M
NFL,2024-07-18 04:54,-118.7010,39.4166,1199.00,83.00,30.00,14.62,330.00,8.00,0.00,30.06,1014.90,10.00,M,CLR,M,M,M,M,M,M,M,M,M,M,M,M,M,M,80.39,KNFL 180454Z 33008KT 10SM CLR 28/M01 A3006 RMK AO2 SLP149 T02831011,M
BVU,2024-07-18 04:55,-114.8611,35.9475,671.00,93.20,50.00,23.04,10.00,3.00,0.00,29.88,M,10.00,M,CLR,M,M,M,M,M,M,M,M,M,M,M,M,M,M,90.10,KBVU 180455Z AUTO 01003KT 10SM CLR 34/10 A2988 RMK AO2,M
CXP,2024-07-18 04:55,-119.7326,39.1923,1431.00,75.20,33.80,22.02,0.00,0.00,0.00,30.18,M,10.00,M,CLR,M,M,M,M,M,M,M,M,M,M,M,M,M,M,75.20,KCXP 180455Z AUTO 00000KT 10SM CLR 24/01 A3018 RMK AO2,M
INS,2024-07-18 04:55,-115.6733,36.5872,955.00,99.00,35.40,11.00,130.00,4.00,0.00,29.94,1007.20,10.00,M,BKN,BKN,OVC,M,17000.00,19000.00,22000.00,M,M,M,M,M,31.00,180.00,2024-07-18 03:59,93.53,KINS 180455Z AUTO 13004KT 10SM BKN170 BKN190 OVC220 37/02 A2994 RMK AO2 PK WND 18031/0359 SLP072 T03730019 $,M
RNO,2024-07-18 04:55,-119.7711,39.4839,1341.00,81.00,28.00,14.38,320.00,9.00,0.00,30.15,1014.70,10.00,M,CLR,M,M,M,M,M,M,M,M,M,M,M,M,M,M,78.98,KRNO 180455Z 32009KT 10SM CLR 27/M02 A3015 RMK AO2 SLP147 T02721022,M
LSV,2024-07-18 04:55,-115.0343,36.2362,570.00,102.00,42.00,13.01,180.00,4.00,0.00,29.83,1006.60,10.00,M,CLR,M,M,M,M,M,M,M,M,M,M,M,M,M,M,97.45,KLSV 180455Z AUTO 18004KT 10SM CLR 39/06 A2983 RMK AO2 SLP066 T03890055 $,M
RTS,2024-07-18 04:55,-119.8764,39.6682,1539.00,71.60,30.20,21.50,290.00,13.00,0.00,30.22,M,10.00,M,CLR,M,M,M,M,M,M,M,M,M,M,M,M,M,M,71.60,KRTS 180455Z AUTO 29013KT 10SM CLR 22/M01 A3022 RMK AO2,M
MEV,2024-07-18 04:55,-119.7500,38.9963,1441.42,62.60,41.00,45.04,110.00,8.00,0.00,30.17,M,10.00,M,CLR,M,M,M,M,M,M,M,M,M,M,M,M,M,M,62.60,KMEV 180455Z AUTO 11008KT 10SM CLR 17/05 A3017 RMK AO2,M
BAM,2024-07-18 04:55,-116.8743,40.5990,1382.36,80.60,42.80,26.22,320.00,5.00,0.00,30.11,M,10.00,M,CLR,M,M,M,M,M,M,M,M,M,M,M,M,M,M,79.30,KBAM 180455Z AUTO 32005KT 10SM CLR 27/06 A3011 RMK AO1,M
HTH,2024-07-18 04:55,-118.6315,38.5448,1282.89,84.20,39.20,20.29,10.00,8.00,0.00,30.08,M,10.00,M,CLR,M,M,M,M,M,M,M,M,M,M,M,M,M,M,81.44,KHTH 180455Z AUTO 01008KT 10SM CLR 29/04 A3008 RMK A01,M
10U,2024-07-18 04:55,-116.1876,41.9532,1637.00,73.40,39.20,28.96,0.00,0.00,0.00,30.16,M,10.00,M,CLR,M,M,M,M,M,M,M,M,M,M,M,M,M,M,73.40,K10U 180455Z AUTO 00000KT 10SM CLR 23/04 A3016 RMK AO2,M
TMT,2024-07-18 04:55,-117.1971,39.4643,1749.34,70.30,34.30,26.51,0.00,0.00,0.00,30.22,M,10.00,M,CLR,M,M,M,M,M,M,M,M,M,M,M,M,M,M,70.30,KTMT 180455Z AUTO 00000KT 10SM CLR 21/01 A3022 RMK AO2 T02130013,M
EKO,2024-07-18 04:56,-115.7860,40.8242,1367.00,80.00,44.00,27.99,120.00,3.00,0.00,30.13,1013.10,10.00,M,CLR,M,M,M,M,M,M,M,M,M,M,M,M,M,M,79.06,KEKO 180456Z AUTO 12003KT 10SM CLR 27/07 A3013 RMK AO2 SLP131 T02670067,M
WMC,2024-07-18 04:56,-117.8072,40.9019,1315.00,78.00,25.00,14.01,240.00,4.00,0.00,30.09,1013.10,10.00,M,CLR,M,M,M,M,M,M,M,M,M,M,M,M,M,M,78.00,KWMC 180456Z AUTO 24004KT 10SM CLR 26/M04 A3009 RMK AO2 SLP131 T02561039,M
HND,2024-07-18 04:56,-115.1344,35.9729,742.79,97.00,49.00,19.74,260.00,6.00,0.00,29.94,1011.50,10.00,M,CLR,M,M,M,M,M,M,M,M,M,M,M,M,M,M,93.71,KHND 180456Z AUTO 26006KT 10SM CLR 36/09 A2994 RMK AO2 SLP115 T03610094,M
TPH,2024-07-18 04:56,-117.0904,38.0505,1654.00,75.00,32.00,20.63,100.00,7.00,0.00,30.16,1012.50,10.00,M,CLR,M,M,M,M,M,M,M,M,M,M,M,M,M,M,75.00,KTPH 180456Z AUTO 10007KT 10SM CLR 24/00 A3016 RMK AO2 SLP125 T02390000,M
LAS,2024-07-18 04:56,-115.1634,36.0719,663.00,101.00,46.00,15.62,230.00,6.00,0.00,29.90,1005.50,10.00,M,FEW,SCT,SCT,M,12000.00,15000.00,22000.00,M,M,M,M,M,M,M,M,97.16,KLAS 180456Z 23006KT 10SM FEW120 SCT150 SCT220 38/08 A2990 RMK AO2 SLP055 T03830078 $,M
BVU,2024-07-18 05:15,-114.8611,35.9475,671.00,93.20,44.60,18.80,0.00,0.00,0.00,29.89,M,10.00,M,CLR,M,M,M,M,M,M,M,M,M,M,M,M,M,M,89.34,KBVU 180515Z AUTO 00000KT 10SM CLR 34/07 A2989 RMK AO2,M
CXP,2024-07-18 05:15,-119.7326,39.1923,1431.00,75.20,33.80,22.02,0.00,0.00,0.00,30.18,M,10.00,M,CLR,M,M,M,M,M,M,M,M,M,M,M,M,M,M,75.20,KCXP 180515Z AUTO 00000KT 10SM CLR 24/01 A3018 RMK AO2,M
05U,2024-07-18 05:15,-116.0051,39.6042,1811.23,77.00,35.60,22.28,0.00,0.00,0.00,30.22,M,10.00,M,M,M,M,M,M,M,M,M,M,M,M,M,M,M,M,77.00,K05U 180515Z AUTO 00000KT 10SM 25/02 A3022 RMK A01,M
HTH,2024-07-18 05:15,-118.6315,38.5448,1282.89,84.20,33.80,16.39,10.00,11.00,0.00,30.09,M,10.00,M,CLR,M,M,M,M,M,M,M,M,M,M,M,M,M,M,81.30,KHTH 180515Z AUTO 01011KT 10SM CLR 29/01 A3009 RMK A01,M
10U,2024-07-18 05:15,-116.1876,41.9532,1637.00,71.60,37.40,28.68,M,6.00,0.00,30.16,M,10.00,M,CLR,M,M,M,M,M,M,M,M,M,M,M,M,M,M,71.60,K10U 180515Z AUTO VRB06KT 10SM CLR 22/03 A3016 RMK AO2,M
BAM,2024-07-18 05:15,-116.8743,40.5990,1382.36,78.80,42.80,27.81,340.00,6.00,0.00,30.11,M,10.00,M,CLR,M,M,M,M,M,M,M,M,M,M,M,M,M,M,78.80,KBAM 180515Z AUTO 34006KT 10SM CLR 26/06 A3011 RMK AO1,M
TMT,2024-07-18 05:15,-117.1971,39.4643,1749.34,63.00,35.00,35.10,130.00,4.00,0.00,30.22,M,10.00,M,CLR,M,M,M,M,M,M,M,M,M,M,M,M,M,M,63.00,KTMT 180515Z AUTO 13004KT 10SM CLR 17/02 A3022 RMK AO2 T01730016,M
CXP,2024-07-18 05:30,-119.7326,39.1923,1431.00,73.40,33.80,23.39,0.00,0.00,0.00,30.19,M,10.00,M,CLR,M,M,M,M,M,M,M,M,M,M,M,M,M,M,73.40,KCXP 180530Z AUTO 00000KT 10SM CLR 23/01 A3019 RMK AO2,M
BVU,2024-07-18 05:35,-114.8611,35.9475,671.00,96.80,44.60,16.83,0.00,0.00,0.00,29.89,M,10.00,M,CLR,M,M,M,M,M,M,M,M,M,M,M,M,M,M,92.79,KBVU 180535Z AUTO 00000KT 10SM CLR 36/07 A2989 RMK AO2,M
05U,2024-07-18 05:35,-116.0051,39.6042,1811.23,71.60,35.60,26.71,0.00,0.00,0.00,30.23,M,10.00,M,M,M,M,M,M,M,M,M,M,M,M,M,M,M,M,71.60,K05U 180535Z AUTO 00000KT 10SM 22/02 A3023 RMK A01,M
HTH,2024-07-18 05:35,-118.6315,38.5448,1282.89,84.20,32.00,15.25,360.00,12.00,0.00,30.10,M,10.00,M,CLR,M,M,M,M,M,M,M,M,M,M,M,M,M,M,81.28,KHTH 180535Z AUTO 36012KT 10SM CLR 29/M00 A3010 RMK A01,M
10U,2024-07-18 05:35,-116.1876,41.9532,1637.00,68.00,37.40,32.43,220.00,4.00,0.00,30.17,M,10.00,M,CLR,M,M,M,M,M,M,M,M,M,M,M,M,M,M,68.00,K10U 180535Z AUTO 22004KT 10SM CLR 20/03 A3017 RMK AO2,M
BAM,2024-07-18 05:35,-116.8743,40.5990,1382.36,78.80,41.00,25.95,350.00,9.00,0.00,30.11,M,10.00,M,CLR,M,M,M,M,M,M,M,M,M,M,M,M,M,M,78.80,KBAM 180535Z AUTO 35009KT 10SM CLR 26/05 A3011 RMK AO1,M
TMT,2024-07-18 05:35,-117.1971,39.4643,1749.34,64.40,33.80,31.85,140.00,3.00,0.00,30.22,M,10.00,M,CLR,M,M,M,M,M,M,M,M,M,M,M,M,M,M,64.40,KTMT 180535Z AUTO 14003KT 10SM CLR 18/01 A3022 RMK AO2 T01800010,M
P68,2024-07-18 05:53,-116.0056,39.6014,1993.00,69.00,35.00,28.50,280.00,5.00,0.00,30.20,1012.80,M,M,M,M,M,M,M,M,M,M,M,M,M,M,M,M,M,69.00,KP68 180553Z AUTO 28005KT 21/02 A3020 RMK AO1 SLP128 T02060017 10350 20206 51015,M
DRA,2024-07-18 05:53,-116.0278,36.6206,1009.00,96.00,40.00,14.45,220.00,7.00,0.00,29.97,1008.20,10.00,M,CLR,M,M,M,M,M,M,M,M,M,M,M,M,M,M,91.55,KDRA 180553Z AUTO 22007KT 10SM CLR 36/04 A2997 RMK AO2 SLP082 T03560044 10411 20350 50008,M
ELY,2024-07-18 05:53,-114.8453,39.2950,1909.00,71.00,42.00,35.01,200.00,10.00,0.00,30.24,1012.10,10.00,M,CLR,M,M,M,M,M,M,M,M,M,M,M,M,M,M,71.00,KELY 180553Z AUTO 20010KT 10SM CLR 22/06 A3024 RMK AO2 SLP121 T02170056 10300 20206 50006,M
VGT,2024-07-18 05:53,-115.1933,36.2111,667.00,100.00,49.00,18.02,230.00,4.00,0.00,29.89,1010.30,10.00,M,CLR,M,M,M,M,M,M,M,M,M,M,M,M,M,M,96.77,KVGT 180553Z AUTO 23004KT 10SM CLR 38/09 A2989 RMK AO2 SLP103 T03780094 10433 20367 51014,M
LOL,2024-07-18 05:53,-118.5701,40.0684,1192.43,79.00,30.00,16.66,0.00,0.00,0.00,30.07,1013.40,10.00,M,CLR,M,M,M,M,M,M,M,M,M,M,M,M,M,M,79.00,KLOL 180553Z AUTO 00000KT 10SM CLR 26/M01 A3007 RMK AO2 SLP134 T02611011 10361 20256 53015,M
NFL,2024-07-18 05:54,-118.7010,39.4166,1199.00,79.00,30.00,16.66,300.00,5.00,0.00,30.08,1015.30,10.00,M,CLR,M,M,M,M,M,M,M,M,M,M,M,M,M,M,79.00,KNFL 180554Z 30005KT 10SM CLR 26/M01 A3008 RMK AO2 SLP153 T02611011 10372 20250 51017,M
BVU,2024-07-18 05:55,-114.8611,35.9475,671.00,93.20,50.00,23.04,0.00,0.00,0.00,29.89,M,10.00,M,CLR,M,M,M,M,M,M,M,M,M,M,M,M,M,M,90.10,KBVU 180555Z AUTO 00000KT 10SM CLR 34/10 A2989 RMK AO2,M
CXP,2024-07-18 05:55,-119.7326,39.1923,1431.00,71.60,33.80,24.86,240.00,3.00,0.00,30.20,M,10.00,M,CLR,M,M,M,M,M,M,M,M,M,M,M,M,M,M,71.60,KCXP 180555Z AUTO 24003KT 10SM CLR 22/01 A3020 RMK AO2,M
INS,2024-07-18 05:55,-115.6733,36.5872,955.00,95.40,38.70,13.99,90.00,12.00,0.00,29.96,1007.90,10.00,M,BKN,OVC,M,M,15000.00,18000.00,M,M,M,M,M,M,M,M,M,90.90,KINS 180555Z AUTO 09012KT 10SM BKN150 OVC180 35/04 A2996 RMK AO2 SLP079 T03520037 10401 20351 52013 $,M
RNO,2024-07-18 05:55,-119.7711,39.4839,1341.00,77.00,33.00,20.09,20.00,4.00,0.00,30.17,1015.20,10.00,M,CLR,M,M,M,M,M,M,M,M,M,M,M,M,M,M,77.00,KRNO 180555Z 02004KT 10SM CLR 25/01 A3017 RMK AO2 SLP152 T02500006 10344 20250 51018,M
05U,2024-07-18 05:55,-116.0051,39.6042,1811.23,69.80,33.80,26.43,0.00,0.00,0.00,30.23,M,10.00,M,M,M,M,M,M,M,M,M,M,M,M,M,M,M,M,69.80,K05U 180555Z AUTO 00000KT 10SM 21/01 A3023 RMK A01,M
BAM,2024-07-18 05:55,-116.8743,40.5990,1382.36,80.60,37.40,21.25,350.00,9.00,0.00,30.12,M,10.00,M,CLR,M,M,M,M,M,M,M,M,M,M,M,M,M,M,79.02,KBAM 180555Z AUTO 35009KT 10SM CLR 27/03 A3012 RMK AO1,M
HTH,2024-07-18 05:55,-118.6315,38.5448,1282.89,84.20,32.00,15.25,340.00,10.00,0.00,30.11,M,10.00,17.00,CLR,M,M,M,M,M,M,M,M,M,M,M,M,M,M,81.28,KHTH 180555Z AUTO 34010G17KT 10SM CLR 29/M00 A3011 RMK A01,M
10U,2024-07-18 05:55,-116.1876,41.9532,1637.00,66.20,37.40,34.51,220.00,4.00,0.00,30.17,M,10.00,M,CLR,M,M,M,M,M,M,M,M,M,M,M,M,M,M,66.20,K10U 180555Z AUTO 22004KT 10SM CLR 19/03 A3017 RMK AO2,M
TMT,2024-07-18 05:55,-117.1971,39.4643,1749.34,63.50,38.30,39.28,250.00,5.00,0.00,30.22,M,10.00,M,CLR,M,M,M,M,M,M,M,M,M,M,M,M,M,M,63.50,KTMT 180555Z AUTO 25005KT 10SM CLR 18/04 A3022 RMK AO2 T01750035 10337 20171,M
LSV,2024-07-18 05:55,-115.0343,36.2362,570.00,100.00,42.30,13.98,0.00,0.00,0.00,29.84,1006.90,10.00,M,CLR,M,M,M,M,M,M,M,M,M,M,M,M,M,M,95.58,KLSV 180555Z AUTO 00000KT 10SM CLR 38/06 A2984 RMK AO2 SLP069 T03780057 10432 20378 52014 $,M
EKO,2024-07-18 05:56,-115.7860,40.8242,1367.00,80.00,46.00,30.20,80.00,3.00,0.00,30.15,1013.50,10.00,M,CLR,M,M,M,M,M,M,M,M,M,M,M,M,M,M,79.20,KEKO 180556Z AUTO 08003KT 10SM CLR 27/08 A3015 RMK AO2 SLP135 60000 T02670078 10344 20267 53015,M
WMC,2024-07-18 05:56,-117.8072,40.9019,1315.00,73.00,24.00,15.88,280.00,6.00,0.00,30.10,1013.40,10.00,M,CLR,M,M,M,M,M,M,M,M,M,M,M,M,M,M,73.00,KWMC 180556Z AUTO 28006KT 10SM CLR 23/M04 A3010 RMK AO2 SLP134 T02281044 10372 20228 51014,M
HND,2024-07-18 05:56,-115.1344,35.9729,742.79,96.00,49.00,20.36,190.00,9.00,0.00,29.94,1011.50,10.00,M,CLR,M,M,M,M,M,M,M,M,M,M,M,M,M,M,92.70,KHND 180556Z AUTO 19009KT 10SM CLR 36/09 A2994 RMK AO2 SLP115 T03560094 10406 20356 50009,M
TPH,2024-07-18 05:56,-117.0904,38.0505,1654.00,76.00,33.00,20.77,0.00,0.00,0.00,30.16,1011.90,10.00,M,CLR,M,M,M,M,M,M,M,M,M,M,M,M,M,M,76.00,KTPH 180556Z AUTO 00000KT 10SM CLR 24/01 A3016 RMK AO2 SLP119 T02440006 10350 20239 51010,M
LAS,2024-07-18 05:56,-115.1634,36.0719,663.00,100.00,47.00,16.72,220.00,4.00,0.00,29.89,1005.00,10.00,M,FEW,SCT,SCT,M,12000.00,15000.00,22000.00,M,M,M,M,M,M,M,M,96.35,KLAS 180556Z 22004KT 10SM FEW120 SCT150 SCT220 38/08 A2989 RMK AO2 SLP050 T03780083 10422 20372 50009 $,M
BVU,2024-07-18 06:15,-114.8611,35.9475,671.00,91.40,51.80,26.05,0.00,0.00,0.00,29.89,M,10.00,M,CLR,M,M,M,M,M,M,M,M,M,M,M,M,M,M,88.69,KBVU 180615Z AUTO 00000KT 10SM CLR 33/11 A2989 RMK AO2,M
CXP,2024-07-18 06:15,-119.7326,39.1923,1431.00,69.80,35.60,28.39,0.00,0.00,0.00,30.20,M,10.00,M,CLR,M,M,M,M,M,M,M,M,M,M,M,M,M,M,69.80,KCXP 180615Z AUTO 00000KT 10SM CLR 21/02 A3020 RMK AO2,M
05U,2024-07-18 06:15,-116.0051,39.6042,1811.23,69.80,35.60,28.39,0.00,0.00,0.00,30.23,M,10.00,M,M,M,M,M,M,M,M,M,M,M,M,M,M,M,M,69.80,K05U 180615Z AUTO 00000KT 10SM 21/02 A3023 RMK A01,M
HTH,2024-07-18 06:15,-118.6315,38.5448,1282.89,80.60,42.80,26.22,300.00,6.00,0.00,30.11,M,10.00,M,CLR,M,M,M,M,M,M,M,M,M,M,M,M,M,M,79.30,KHTH 180615Z AUTO 30006KT 10SM CLR 27/06 A3011 RMK A01,M
10U,2024-07-18 06:15,-116.1876,41.9532,1637.00,68.00,37.40,32.43,140.00,4.00,0.00,30.18,M,10.00,M,CLR,M,M,M,M,M,M,M,M,M,M,M,M,M,M,68.00,K10U 180615Z AUTO 14004KT 10SM CLR 20/03 A3018 RMK AO2,M
BAM,2024-07-18 06:15,-116.8743,40.5990,1382.36,78.80,37.40,22.54,350.00,9.00,0.00,30.12,M,10.00,M,CLR,M,M,M,M,M,M,M,M,M,M,M,M,M,M,78.80,KBAM 180615Z AUTO 35009KT 10SM CLR 26/03 A3012 RMK AO1,M
TMT,2024-07-18 06:15,-117.1971,39.4643,1749.34,63.50,38.50,39.59,240.00,3.00,0.00,30.22,M,10.00,M,CLR,M,M,M,M,M,M,M,M,M,M,M,M,M,M,63.50,KTMT 180615Z AUTO 24003KT 10SM CLR 18/04 A3022 RMK AO2 T01750036,M
BVU,2024-07-18 06:35,-114.8611,35.9475,671.00,91.40,50.00,24.37,0.00,0.00,0.00,29.89,M,10.00,M,CLR,M,M,M,M,M,M,M,M,M,M,M,M,M,M,88.36,KBVU 180635Z AUTO 00000KT 10SM CLR 33/10 A2989 RMK AO2,M
CXP,2024-07-18 06:35,-119.7326,39.1923,1431.00,71.60,33.80,24.86,0.00,0.00,0.00,30.20,M,10.00,M,CLR,M,M,M,M,M,M,M,M,M,M,M,M,M,M,71.60,KCXP 180635Z AUTO 00000KT 10SM CLR 22/01 A3020 RMK AO2,M
RTS,2024-07-18 06:35,-119.8764,39.6682,1539.00,64.40,30.20,27.55,320.00,9.00,0.00,30.23,M,10.00,M,CLR,M,M,M,M,M,M,M,M,M,M,M,M,M,M,64.40,KRTS 180635Z AUTO 32009KT 10SM CLR 18/M01 A3023 RMK AO2,M
05U,2024-07-18 06:35,-116.0051,39.6042,1811.23,68.00,33.80,28.11,0.00,0.00,0.00,30.23,M,10.00,M,M,M,M,M,M,M,M,M,M,M,M,M,M,M,M,68.00,K05U 180635Z AUTO 00000KT 10SM 20/01 A3023 RMK A01,M
MEV,2024-07-18 06:35,-119.7500,38.9963,1441.42,55.40,37.40,50.64,120.00,5.00,0.00,30.19,M,10.00,M,CLR,M,M,M,M,M,M,M,M,M,M,M,M,M,M,55.40,KMEV 180635Z AUTO 12005KT 10SM CLR 13/03 A3019 RMK AO2,M
BAM,2024-07-18 06:35,-116.8743,40.5990,1382.36,77.00,39.20,25.67,360.00,6.00,0.00,30.12,M,10.00,M,CLR,M,M,M,M,M,M,M,M,M,M,M,M,M,M,77.00,KBAM 180635Z AUTO 36006KT 10SM CLR 25/04 A3012 RMK AO1,M
HTH,2024-07-18 06:35,-118.6315,38.5448,1282.89,82.40,37.40,20.04,310.00,11.00,0.00,30.12,M,10.00,M,CLR,M,M,M,M,M,M,M,M,M,M,M,M,M,M,80.14,KHTH 180635Z AUTO 31011KT 10SM CLR 28/03 A3012 RMK A01,M
10U,2024-07-18 06:35,-116.1876,41.9532,1637.00,64.40,37.40,36.74,140.00,8.00,0.00,30.17,M,10.00,M,CLR,M,M,M,M,M,M,M,M,M,M,M,M,M,M,64.40,K10U 180635Z AUTO 14008KT 10SM CLR 18/03 A3017 RMK AO2,M
TMT,2024-07-18 06:35,-117.1971,39.4643,1749.34,62.80,36.70,37.81,0.00,0.00,0.00,30.22,M,10.00,M,CLR,M,M,M,M,M,M,M,M,M,M,M,M,M,M,62.80,KTMT 180635Z AUTO 00000KT 10SM CLR 17/03 A3022 RMK AO2 T01710026,M
P68,2024-07-18 06:53,-116.0056,39.6014,1993.00,65.00,39.00,38.31,110.00,6.00,0.00,30.21,1013.50,M,M,M,M,M,M,M,M,M,M,M,M,M,M,M,M,M,65.00,KP68 180653Z AUTO 11006KT 18/04 A3021 RMK AO1 SLP135 T01830039,M
DRA,2024-07-18 06:53,-116.0278,36.6206,1009.00,94.00,40.00,15.37,160.00,7.00,0.00,29.98,1008.60,10.00,M,CLR,M,M,M,M,M,M,M,M,M,M,M,M,M,M,89.70,KDRA 180653Z AUTO 16007KT 10SM CLR 34/04 A2998 RMK AO2 SLP086 T03440044,M
ELY,2024-07-18 06:53,-114.8453,39.2950,1909.00,69.00,43.00,38.95,140.00,6.00,0.00,30.25,1012.50,10.00,M,CLR,M,M,M,M,M,M,M,M,M,M,M,M,M,M,69.00,KELY 180653Z AUTO 14006KT 10SM CLR 21/06 A3025 RMK AO2 SLP125 T02060061,M
VGT,2024-07-18 06:53,-115.1933,36.2111,667.00,98.00,49.00,19.15,220.00,3.00,0.00,29.89,1010.30,10.00,M,CLR,M,M,M,M,M,M,M,M,M,M,M,M,M,M,94.72,KVGT 180653Z AUTO 22003KT 10SM CLR 37/09 A2989 RMK AO2 SLP103 T03670094,M
LOL,2024-07-18 06:53,-118.5701,40.0684,1192.43,83.00,28.00,13.47,10.00,6.00,0.00,30.08,1013.20,10.00,15.00,CLR,M,M,M,M,M,M,M,M,M,M,M,M,M,M,80.37,KLOL 180653Z AUTO 01006G15KT 10SM CLR 28/M02 A3008 RMK AO2 SLP132 T02831022,M
BVU,2024-07-18 06:55,-114.8611,35.9475,671.00,91.40,48.20,22.78,0.00,0.00,0.00,29.89,M,10.00,M,CLR,M,M,M,M,M,M,M,M,M,M,M,M,M,M,88.09,KBVU 180655Z AUTO 00000KT 10SM CLR 33/09 A2989 RMK AO2,M
CXP,2024-07-18 06:55,-119.7326,39.1923,1431.00,68.00,33.80,28.11,0.00,0.00,0.00,30.20,M,10.00,M,CLR,M,M,M,M,M,M,M,M,M,M,M,M,M,M,68.00,KCXP 180655Z AUTO 00000KT 10SM CLR 20/01 A3020 RMK AO2,M
INS,2024-07-18 06:55,-115.6733,36.5872,955.00,91.20,40.30,16.96,120.00,3.00,0.00,29.96,1007.90,10.00,M,SCT,M,M,M,17000.00,M,M,M,M,M,M,M,M,M,M,87.18,KINS 180655Z AUTO 12003KT 10SM SCT170 33/05 A2996 RMK AO2 SLP079 T03290046 $,M
RNO,2024-07-18 06:55,-119.7711,39.4839,1341.00,74.00,34.00,23.11,0.00,0.00,0.00,30.17,1015.40,10.00,M,CLR,M,M,M,M,M,M,M,M,M,M,M,M,M,M,74.00,KRNO 180655Z 00000KT 10SM CLR 23/01 A3017 RMK AO2 SLP154 T02330011,M
LSV,2024-07-18 06:55,-115.0343,36.2362,570.00,96.30,42.80,15.95,60.00,4.00,0.00,29.84,1006.90,10.00,M,CLR,M,M,M,M,M,M,M,M,M,M,M,M,M,M,92.10,KLSV 180655Z AUTO 06004KT 10SM CLR 36/06 A2984 RMK AO2 SLP069 T03570060 $,M
RTS,2024-07-18 06:55,-119.8764,39.6682,1539.00,64.40,30.20,27.55,300.00,10.00,0.00,30.23,M,10.00,M,CLR,M,M,M,M,M,M,M,M,M,M,M,M,M,M,64.40,KRTS 180655Z AUTO 30010KT 10SM CLR 18/M01 A3023 RMK AO2,M
05U,2024-07-18 06:55,-116.0051,39.6042,1811.23,66.20,39.20,37.03,0.00,0.00,0.00,30.24,M,10.00,M,M,M,M,M,M,M,M,M,M,M,M,M,M,M,M,66.20,K05U 180655Z AUTO 00000KT 10SM 19/04 A3024 RMK A01,M
MEV,2024-07-18 06:55,-119.7500,38.9963,1441.42,57.20,39.20,50.91,0.00,0.00,0.00,30.19,M,10.00,M,CLR,M,M,M,M,M,M,M,M,M,M,M,M,M,M,57.20,KMEV 180655Z AUTO 00000KT 10SM CLR 14/04 A3019 RMK AO2,M
BAM,2024-07-18 06:55,-116.8743,40.5990,1382.36,77.00,37.40,23.93,0.00,0.00,0.00,30.13,M,10.00,M,CLR,M,M,M,M,M,M,M,M,M,M,M,M,M,M,77.00,KBAM 180655Z AUTO 00000KT 10SM CLR 25/03 A3013 RMK AO1,M
HTH,2024-07-18 06:55,-118.6315,38.5448,1282.89,82.40,35.60,18.67,310.00,9.00,0.00,30.12,M,10.00,M,M,M,M,M,M,M,M,M,M,M,M,M,M,M,M,80.08,KHTH 180655Z AUTO 31009KT 10SM 28/02 A3012 RMK A01,M
10U,2024-07-18 06:55,-116.1876,41.9532,1637.00,66.20,39.20,37.03,140.00,8.00,0.00,30.17,M,10.00,M,CLR,M,M,M,M,M,M,M,M,M,M,M,M,M,M,66.20,K10U 180655Z AUTO 14008KT 10SM CLR 19/04 A3017 RMK AO2,M
TMT,2024-07-18 06:55,-117.1971,39.4643,1749.34,57.40,35.40,43.52,230.00,3.00,0.00,30.23,M,10.00,M,CLR,M,M,M,M,M,M,M,M,M,M,M,M,M,M,57.40,KTMT 180655Z AUTO 23003KT 10SM CLR 14/02 A3023 RMK AO2 T01410019,M
EKO,2024-07-18 06:56,-115.7860,40.8242,1367.00,69.00,48.00,47.09,250.00,5.00,0.00,30.15,1014.00,10.00,M,CLR,M,M,M,M,M,M,M,M,M,M,M,M,M,M,69.00,KEKO 180656Z AUTO 25005KT 10SM CLR 21/09 A3015 RMK AO2 SLP140 T02060089,M
WMC,2024-07-18 06:56,-117.8072,40.9019,1315.00,74.00,25.00,16.01,0.00,0.00,0.00,30.11,1013.60,10.00,M,CLR,M,M,M,M,M,M,M,M,M,M,M,M,M,M,74.00,KWMC 180656Z AUTO 00000KT 10SM CLR 23/M04 A3011 RMK AO2 SLP136 T02331039,M
HND,2024-07-18 06:56,-115.1344,35.9729,742.79,94.00,50.00,22.48,190.00,8.00,0.00,29.93,1011.30,10.00,M,CLR,M,M,M,M,M,M,M,M,M,M,M,M,M,M,90.89,KHND 180656Z AUTO 19008KT 10SM CLR 34/10 A2993 RMK AO2 SLP113 T03440100 404220300,M
TPH,2024-07-18 06:56,-117.0904,38.0505,1654.00,73.00,33.00,22.96,60.00,5.00,0.00,30.18,1012.30,10.00,M,CLR,M,M,M,M,M,M,M,M,M,M,M,M,M,M,73.00,KTPH 180656Z AUTO 06005KT 10SM CLR 23/01 A3018 RMK AO2 SLP123 T02280006,M
LAS,2024-07-18 06:56,-115.1634,36.0719,663.00,97.00,49.00,19.74,0.00,0.00,0.00,29.90,1005.40,10.00,M,FEW,FEW,M,M,15000.00,22000.00,M,M,M,M,M,M,M,M,M,93.71,KLAS 180656Z 00000KT 10SM FEW150 FEW220 36/09 A2990 RMK AO2 SLP054 T03610094 $,M
BVU,2024-07-18 07:15,-114.8611,35.9475,671.00,91.40,50.00,24.37,0.00,0.00,0.00,29.89,M,10.00,M,CLR,M,M,M,M,M,M,M,M,M,M,M,M,M,M,88.36,KBVU 180715Z AUTO 00000KT 10SM CLR 33/10 A2989 RMK AO2,M
CXP,2024-07-18 07:15,-119.7326,39.1923,1431.00,64.40,35.60,34.22,0.00,0.00,0.00,30.20,M,10.00,M,CLR,M,M,M,M,M,M,M,M,M,M,M,M,M,M,64.40,KCXP 180715Z AUTO 00000KT 10SM CLR 18/02 A3020 RMK AO2,M
RTS,2024-07-18 07:15,-119.8764,39.6682,1539.00,62.60,28.40,27.27,300.00,9.00,0.00,30.22,M,10.00,M,CLR,M,M,M,M,M,M,M,M,M,M,M,M,M,M,62.60,KRTS 180715Z AUTO 30009KT 10SM CLR 17/M02 A3022 RMK AO2,M
05U,2024-07-18 07:15,-116.0051,39.6042,1811.23,64.40,35.60,34.22,0.00,0.00,0.00,30.24,M,10.00,M,M,M,M,M,M,M,M,M,M,M,M,M,M,M,M,64.40,K05U 180715Z AUTO 00000KT 10SM 18/02 A3024 RMK A01,M
MEV,2024-07-18 07:15,-119.7500,38.9963,1441.42,55.40,37.40,50.64,140.00,9.00,0.00,30.19,M,10.00,M,CLR,M,M,M,M,M,M,M,M,M,M,M,M,M,M,55.40,KMEV 180715Z AUTO 14009KT 10SM CLR 13/03 A3019 RMK AO2,M
BAM,2024-07-18 07:15,-116.8743,40.5990,1382.36,73.40,37.40,26.98,350.00,6.00,0.00,30.13,M,10.00,M,CLR,M,M,M,M,M,M,M,M,M,M,M,M,M,M,73.40,KBAM 180715Z AUTO 35006KT 10SM CLR 23/03 A3013 RMK AO1,M
HTH,2024-07-18 07:15,-118.6315,38.5448,1282.89,M,M,M,M,M,0.00,30.13,M,M,M,M,M,M,M,M,M,M,M,M,M,M,M,M,M,M,M,KHTH 180715Z AUTO A3013 RMK A01,M
10U,2024-07-18 07:15,-116.1876,41.9532,1637.00,64.40,39.20,39.43,140.00,8.00,0.00,30.17,M,10.00,M,CLR,M,M,M,M,M,M,M,M,M,M,M,M,M,M,64.40,K10U 180715Z AUTO 14008KT 10SM CLR 18/04 A3017 RMK AO2,M
TMT,2024-07-18 07:15,-117.1971,39.4643,1749.34,54.00,35.00,48.46,190.00,4.00,0.00,30.24,M,10.00,M,CLR,M,M,M,M,M,M,M,M,M,M,M,M,M,M,54.00,KTMT 180715Z AUTO 19004KT 10SM CLR 12/02 A3024 RMK AO2 T01220017,M
BVU,2024-07-18 07:35,-114.8611,35.9475,671.00,91.40,50.00,24.37,0.00,0.00,0.00,29.89,M,10.00,M,CLR,M,M,M,M,M,M,M,M,M,M,M,M,M,M,88.36,KBVU 180735Z AUTO 00000KT 10SM CLR 33/10 A2989 RMK AO2,M
CXP,2024-07-18 07:35,-119.7326,39.1923,1431.00,66.20,35.60,32.14,0.00,0.00,0.00,30.20,M,10.00,M,CLR,M,M,M,M,M,M,M,M,M,M,M,M,M,M,66.20,KCXP 180735Z AUTO 00000KT 10SM CLR 19/02 A3020 RMK AO2,M
RTS,2024-07-18 07:35,-119.8764,39.6682,1539.00,60.80,26.60,26.98,340.00,9.00,0.00,30.22,M,10.00,M,CLR,M,M,M,M,M,M,M,M,M,M,M,M,M,M,60.80,KRTS 180735Z AUTO 34009KT 10SM CLR 16/M03 A3022 RMK AO2,M
05U,2024-07-18 07:35,-116.0051,39.6042,1811.23,62.60,33.80,33.93,0.00,0.00,0.00,30.23,M,10.00,M,M,M,M,M,M,M,M,M,M,M,M,M,M,M,M,62.60,K05U 180735Z AUTO 00000KT 10SM 17/01 A3023 RMK A01,M
MEV,2024-07-18 07:35,-119.7500,38.9963,1441.42,57.20,35.60,44.19,120.00,8.00,0.00,30.19,M,10.00,M,CLR,M,M,M,M,M,M,M,M,M,M,M,M,M,M,57.20,KMEV 180735Z AUTO 12008KT 10SM CLR 14/02 A3019 RMK AO2,M
HTH,2024-07-18 07:35,-118.6315,38.5448,1282.89,M,M,M,M,M,0.00,M,M,M,M,M,M,M,M,M,M,M,M,M,M,M,M,M,M,M,M,KHTH 180735Z AUTO RMK A01,M
10U,2024-07-18 07:35,-116.1876,41.9532,1637.00,62.60,37.40,39.14,140.00,6.00,0.00,30.17,M,10.00,M,CLR,M,M,M,M,M,M,M,M,M,M,M,M,M,M,62.60,K10U 180735Z AUTO 14006KT 10SM CLR 17/03 A3017 RMK AO2,M
BAM,2024-07-18 07:35,-116.8743,40.5990,1382.36,73.40,37.40,26.98,140.00,3.00,0.00,30.13,M,10.00,M,CLR,M,M,M,M,M,M,M,M,M,M,M,M,M,M,73.40,KBAM 180735Z AUTO 14003KT 10SM CLR 23/03 A3013 RMK AO1,M
TMT,2024-07-18 07:35,-117.1971,39.4643,1749.34,55.00,32.50,42.28,150.00,5.00,0.00,30.24,M,10.00,M,CLR,M,M,M,M,M,M,M,M,M,M,M,M,M,M,55.00,KTMT 180735Z AUTO 15005KT 10SM CLR 13/00 A3024 RMK AO2 T01270003,M
P68,2024-07-18 07:53,-116.0056,39.6014,1993.00,63.00,36.00,36.52,200.00,7.00,0.00,30.21,1013.70,M,M,M,M,M,M,M,M,M,M,M,M,M,M,M,M,M,63.00,KP68 180753Z AUTO 20007KT 17/02 A3021 RMK AO1 SLP137 T01720022 403560117,M
DRA,2024-07-18 07:53,-116.0278,36.6206,1009.00,90.00,42.00,18.81,70.00,4.00,0.00,29.97,1008.50,10.00,M,CLR,M,M,M,M,M,M,M,M,M,M,M,M,M,M,86.22,KDRA 180753Z AUTO 07004KT 10SM CLR 32/06 A2997 RMK AO2 SLP085 T03220056 404170250,M
ELY,2024-07-18 07:53,-114.8453,39.2950,1909.00,71.00,43.00,36.38,210.00,14.00,0.00,30.25,1012.30,10.00,M,CLR,M,M,M,M,M,M,M,M,M,M,M,M,M,M,71.00,KELY 180753Z AUTO 21014KT 10SM CLR 22/06 A3025 RMK AO2 SLP123 T02170061 403330117,M
VGT,2024-07-18 07:53,-115.1933,36.2111,667.00,95.00,49.00,21.00,0.00,0.00,0.00,29.88,1009.90,10.00,M,CLR,M,M,M,M,M,M,M,M,M,M,M,M,M,M,91.70,KVGT 180753Z AUTO 00000KT 10SM CLR 35/09 A2988 RMK AO2 SLP099 T03500094 404440317,M
LOL,2024-07-18 07:53,-118.5701,40.0684,1192.43,76.00,29.00,17.66,20.00,8.00,0.00,30.09,1013.80,10.00,M,CLR,M,M,M,M,M,M,M,M,M,M,M,M,M,M,76.00,KLOL 180753Z AUTO 02008KT 10SM CLR 24/M02 A3009 RMK AO2 SLP138 T02441017 403670156,M
NFL,2024-07-18 07:54,-118.7010,39.4166,1199.00,72.00,30.00,21.04,260.00,5.00,0.00,30.10,1016.00,10.00,M,CLR,M,M,M,M,M,M,M,M,M,M,M,M,M,M,72.00,KNFL 180754Z AUTO 26005KT 10SM CLR 22/M01 A3010 RMK AO2 SLP160 T02221011 403720161,M
BVU,2024-07-18 07:55,-114.8611,35.9475,671.00,89.60,53.60,29.45,0.00,0.00,0.00,29.89,M,10.00,M,CLR,M,M,M,M,M,M,M,M,M,M,M,M,M,M,87.36,KBVU 180755Z AUTO 00000KT 10SM CLR 32/12 A2989 RMK AO2,M
CXP,2024-07-18 07:55,-119.7326,39.1923,1431.00,66.20,35.60,32.14,0.00,0.00,0.00,30.20,M,10.00,M,CLR,M,M,M,M,M,M,M,M,M,M,M,M,M,M,66.20,KCXP 180755Z AUTO 00000KT 10SM CLR 19/02 A3020 RMK AO2,M
INS,2024-07-18 07:55,-115.6733,36.5872,955.00,89.00,38.50,16.94,250.00,3.00,0.00,29.96,1008.00,10.00,M,CLR,M,M,M,M,M,M,M,M,M,M,M,M,M,M,85.20,KINS 180755Z AUTO 25003KT 10SM CLR 32/04 A2996 RMK AO2 SLP080 T03170036 404080248 $,M
RNO,2024-07-18 07:55,-119.7711,39.4839,1341.00,73.00,33.00,22.96,M,3.00,0.00,30.17,1015.20,10.00,M,FEW,M,M,M,10000.00,M,M,M,M,M,M,M,M,M,M,73.00,KRNO 180755Z VRB03KT 10SM FEW100 23/01 A3017 RMK AO2 SLP152 T02280006 403560183,M
RTS,2024-07-18 07:55,-119.8764,39.6682,1539.00,60.80,24.80,25.04,350.00,7.00,0.00,30.22,M,10.00,M,CLR,M,M,M,M,M,M,M,M,M,M,M,M,M,M,60.80,KRTS 180755Z AUTO 35007KT 10SM CLR 16/M04 A3022 RMK AO2,M
05U,2024-07-18 07:55,-116.0051,39.6042,1811.23,62.60,33.80,33.93,0.00,0.00,0.00,30.24,M,10.00,M,M,M,M,M,M,M,M,M,M,M,M,M,M,M,M,62.60,K05U 180755Z AUTO 00000KT 10SM 17/01 A3024 RMK A01,M
MEV,2024-07-18 07:55,-119.7500,38.9963,1441.42,57.20,35.60,44.19,80.00,5.00,0.00,30.19,M,10.00,M,CLR,M,M,M,M,M,M,M,M,M,M,M,M,M,M,57.20,KMEV 180755Z AUTO 08005KT 10SM CLR 14/02 A3019 RMK AO2,M
BAM,2024-07-18 07:55,-116.8743,40.5990,1382.36,68.00,37.40,32.43,160.00,4.00,0.00,30.13,M,10.00,M,CLR,M,M,M,M,M,M,M,M,M,M,M,M,M,M,68.00,KBAM 180755Z AUTO 16004KT 10SM CLR 20/03 A3013 RMK AO1,M
HTH,2024-07-18 07:55,-118.6315,38.5448,1282.89,80.60,30.20,15.94,320.00,10.00,0.00,30.13,M,10.00,M,M,M,M,M,M,M,M,M,M,M,M,M,M,M,M,78.77,KHTH 180755Z AUTO 32010KT 10SM 27/M01 A3013 RMK A01,M
10U,2024-07-18 07:55,-116.1876,41.9532,1637.00,64.40,39.20,39.43,190.00,5.00,0.00,30.17,M,10.00,M,CLR,M,M,M,M,M,M,M,M,M,M,M,M,M,M,64.40,K10U 180755Z AUTO 19005KT 10SM CLR 18/04 A3017 RMK AO2,M
TMT,2024-07-18 07:55,-117.1971,39.4643,1749.34,56.00,33.80,42.95,140.00,6.00,0.00,30.24,M,10.00,M,CLR,M,M,M,M,M,M,M,M,M,M,M,M,M,M,56.00,KTMT 180755Z AUTO 14006KT 10SM CLR 13/01 A3024 RMK AO2 T01340010 403400081,M
LSV,2024-07-18 07:55,-115.0343,36.2362,570.00,94.00,44.00,17.93,30.00,5.00,0.00,29.83,1006.70,10.00,M,CLR,M,M,M,M,M,M,M,M,M,M,M,M,M,M,90.04,KLSV 180755Z AUTO 03005KT 10SM CLR 35/07 A2983 RMK AO2 SLP067 T03450067 404390321 $,M
EKO,2024-07-18 07:56,-115.7860,40.8242,1367.00,71.00,45.00,39.27,0.00,0.00,0.00,30.14,1013.70,10.00,M,CLR,M,M,M,M,M,M,M,M,M,M,M,M,M,M,71.00,KEKO 180756Z AUTO 00000KT 10SM CLR 22/07 A3014 RMK AO2 SLP137 T02170072 403720144,M
WMC,2024-07-18 07:56,-117.8072,40.9019,1315.00,72.00,27.00,18.61,10.00,4.00,0.00,30.12,1014.00,10.00,M,CLR,M,M,M,M,M,M,M,M,M,M,M,M,M,M,72.00,KWMC 180756Z AUTO 01004KT 10SM CLR 22/M03 A3012 RMK AO2 SLP140 T02221028 403780150,M
HND,2024-07-18 07:56,-115.1344,35.9729,742.79,94.00,50.00,22.48,0.00,0.00,0.00,29.94,1011.30,10.00,M,CLR,M,M,M,M,M,M,M,M,M,M,M,M,M,M,90.89,KHND 180756Z AUTO 00000KT 10SM CLR 34/10 A2994 RMK AO2 SLP113 T03440100,M
TPH,2024-07-18 07:56,-117.0904,38.0505,1654.00,70.00,33.00,25.42,M,3.00,0.00,30.18,1012.60,10.00,M,CLR,M,M,M,M,M,M,M,M,M,M,M,M,M,M,70.00,KTPH 180756Z AUTO VRB03KT 10SM CLR 21/01 A3018 RMK AO2 SLP126 T02110006 403610161,M
LAS,2024-07-18 07:56,-115.1634,36.0719,663.00,96.00,48.00,19.61,260.00,5.00,0.00,29.89,1005.00,10.00,M,FEW,M,M,M,22000.00,M,M,M,M,M,M,M,M,M,M,92.52,KLAS 180756Z 26005KT 10SM FEW220 36/09 A2989 RMK AO2 SLP050 T03560089 404390328 $,M
BVU,2024-07-18 08:15,-114.8611,35.9475,671.00,87.80,53.60,31.17,0.00,0.00,0.00,29.89,M,10.00,M,CLR,M,M,M,M,M,M,M,M,M,M,M,M,M,M,85.72,KBVU 180815Z AUTO 00000KT 10SM CLR 31/12 A2989 RMK AO2,M
CXP,2024-07-18 08:15,-119.7326,39.1923,1431.00,62.60,35.60,36.45,0.00,0.00,0.00,30.20,M,10.00,M,CLR,M,M,M,M,M,M,M,M,M,M,M,M,M,M,62.60,KCXP 180815Z AUTO 00000KT 10SM CLR 17/02 A3020 RMK AO2,M
RTS,2024-07-18 08:15,-119.8764,39.6682,1539.00,57.20,24.80,28.48,360.00,8.00,0.00,30.22,M,10.00,M,CLR,M,M,M,M,M,M,M,M,M,M,M,M,M,M,57.20,KRTS 180815Z AUTO 36008KT 10SM CLR 14/M04 A3022 RMK AO2,M
05U,2024-07-18 08:15,-116.0051,39.6042,1811.23,62.60,35.60,36.45,0.00,0.00,0.00,30.24,M,10.00,M,M,M,M,M,M,M,M,M,M,M,M,M,M,M,M,62.60,K05U 180815Z AUTO 00000KT 10SM 17/02 A3024 RMK A01,M
10U,2024-07-18 08:15,-116.1876,41.9532,1637.00,62.60,37.40,39.14,190.00,6.00,0.00,30.18,M,10.00,M,CLR,M,M,M,M,M,M,M,M,M,M,M,M,M,M,62.60,K10U 180815Z AUTO 19006KT 10SM CLR 17/03 A3018 RMK AO2,M
MEV,2024-07-18 08:15,-119.7500,38.9963,1441.42,57.20,37.40,47.44,0.00,0.00,0.00,30.19,M,10.00,M,CLR,M,M,M,M,M,M,M,M,M,M,M,M,M,M,57.20,KMEV 180815Z AUTO 00000KT 10SM CLR 14/03 A3019 RMK AO2,M
HTH,2024-07-18 08:15,-118.6315,38.5448,1282.89,78.80,32.00,18.18,320.00,9.00,0.00,30.13,M,10.00,M,CLR,M,M,M,M,M,M,M,M,M,M,M,M,M,M,78.80,KHTH 180815Z AUTO 32009KT 10SM CLR 26/M00 A3013 RMK A01,M
BAM,2024-07-18 08:15,-116.8743,40.5990,1382.36,68.00,41.00,37.32,0.00,0.00,0.00,30.13,M,10.00,M,CLR,M,M,M,M,M,M,M,M,M,M,M,M,M,M,68.00,KBAM 180815Z AUTO 00000KT 10SM CLR 20/05 A3013 RMK AO1,M
TMT,2024-07-18 08:15,-117.1971,39.4643,1749.34,55.20,31.60,40.48,190.00,6.00,0.00,30.24,M,10.00,M,CLR,M,M,M,M,M,M,M,M,M,M,M,M,M,M,55.20,KTMT 180815Z AUTO 19006KT 10SM CLR 13/00 A3024 RMK AO2 T01291002,M
BVU,2024-07-18 08:35,-114.8611,35.9475,671.00,87.80,51.80,29.18,0.00,0.00,0.00,29.89,M,10.00,M,CLR,M,M,M,M,M,M,M,M,M,M,M,M,M,M,85.39,KBVU 180835Z AUTO 00000KT 10SM CLR 31/11 A2989 RMK AO2,M
CXP,2024-07-18 08:35,-119.7326,39.1923,1431.00,62.60,37.40,39.14,0.00,0.00,0.00,30.20,M,10.00,M,CLR,M,M,M,M,M,M,M,M,M,M,M,M,M,M,62.60,KCXP 180835Z AUTO 00000KT 10SM CLR 17/03 A3020 RMK AO2,M
RTS,2024-07-18 08:35,-119.8764,39.6682,1539.00,60.80,26.60,26.98,320.00,8.00,0.00,30.23,M,10.00,M,CLR,M,M,M,M,M,M,M,M,M,M,M,M,M,M,60.80,KRTS 180835Z AUTO 32008KT 10SM CLR 16/M03 A3023 RMK AO2,M
05U,2024-07-18 08:35,-116.0051,39.6042,1811.23,60.80,35.60,38.85,0.00,0.00,0.00,30.24,M,10.00,M,M,M,M,M,M,M,M,M,M,M,M,M,M,M,M,60.80,K05U 180835Z AUTO 00000KT 10SM 16/02 A3024 RMK A01,M
MEV,2024-07-18 08:35,-119.7500,38.9963,1441.42,57.20,37.40,47.44,0.00,0.00,0.00,30.19,M,10.00,M,CLR,M,M,M,M,M,M,M,M,M,M,M,M,M,M,57.20,KMEV 180835Z AUTO 00000KT 10SM CLR 14/03 A3019 RMK AO2,M
HTH,2024-07-18 08:35,-118.6315,38.5448,1282.89,77.00,37.40,23.93,310.00,7.00,0.00,30.13,M,10.00,M,CLR,M,M,M,M,M,M,M,M,M,M,M,M,M,M,77.00,KHTH 180835Z AUTO 31007KT 10SM CLR 25/03 A3013 RMK A01,M
10U,2024-07-18 08:35,-116.1876,41.9532,1637.00,62.60,35.60,36.45,180.00,6.00,0.00,30.18,M,10.00,M,CLR,M,M,M,M,M,M,M,M,M,M,M,M,M,M,62.60,K10U 180835Z AUTO 18006KT 10SM CLR 17/02 A3018 RMK AO2,M
BAM,2024-07-18 08:35,-116.8743,40.5990,1382.36,64.40,37.40,36.74,170.00,3.00,0.00,30.13,M,10.00,M,CLR,M,M,M,M,M,M,M,M,M,M,M,M,M,M,64.40,KBAM 180835Z AUTO 17003KT 10SM CLR 18/03 A3013 RMK AO1,M
TMT,2024-07-18 08:35,-117.1971,39.4643,1749.34,55.20,32.00,41.14,260.00,3.00,0.00,30.24,M,10.00,M,CLR,M,M,M,M,M,M,M,M,M,M,M,M,M,M,55.20,KTMT 180835Z AUTO 26003KT 10SM CLR 13/00 A3024 RMK AO2 T01290000,M
P68,2024-07-18 08:53,-116.0056,39.6014,1993.00,60.00,35.00,39.03,170.00,6.00,0.00,30.21,1013.80,M,M,M,M,M,M,M,M,M,M,M,M,M,M,M,M,M,60.00,KP68 180853Z AUTO 17006KT 16/02 A3021 RMK AO1 SLP138 T01560017 50002,M
DRA,2024-07-18 08:53,-116.0278,36.6206,1009.00,88.00,43.00,20.82,M,3.00,0.00,29.97,1008.70,10.00,M,CLR,M,M,M,M,M,M,M,M,M,M,M,M,M,M,84.58,KDRA 180853Z AUTO VRB03KT 10SM CLR 31/06 A2997 RMK AO2 SLP087 T03110061 51002,M
ELY,2024-07-18 08:53,-114.8453,39.2950,1909.00,68.00,43.00,40.31,210.00,13.00,0.00,30.25,1012.30,10.00,M,CLR,M,M,M,M,M,M,M,M,M,M,M,M,M,M,68.00,KELY 180853Z AUTO 21013KT 10SM CLR 20/06 A3025 RMK AO2 SLP123 T02000061 51005,M
VGT,2024-07-18 08:53,-115.1933,36.2111,667.00,95.00,50.00,21.79,270.00,3.00,0.00,29.89,1010.10,10.00,M,CLR,M,M,M,M,M,M,M,M,M,M,M,M,M,M,91.89,KVGT 180853Z AUTO 27003KT 10SM CLR 35/10 A2989 RMK AO2 SLP101 T03500100 55002,M
LOL,2024-07-18 08:53,-118.5701,40.0684,1192.43,67.00,30.00,24.97,300.00,6.00,0.00,30.09,1014.40,10.00,M,CLR,M,M,M,M,M,M,M,M,M,M,M,M,M,M,67.00,KLOL 180853Z AUTO 30006KT 10SM CLR 19/M01 A3009 RMK AO2 SLP144 T01941011 53007,M
NFL,2024-07-18 08:54,-118.7010,39.4166,1199.00,69.00,38.00,32.08,250.00,6.00,0.00,30.10,1016.00,10.00,M,CLR,M,M,M,M,M,M,M,M,M,M,M,M,M,M,69.00,KNFL 180854Z AUTO 25006KT 10SM CLR 21/03 A3010 RMK AO2 SLP160 T02060033 51007,M
BVU,2024-07-18 08:55,-114.8611,35.9475,671.00,87.80,50.00,27.29,0.00,0.00,0.00,29.89,M,10.00,M,CLR,M,M,M,M,M,M,M,M,M,M,M,M,M,M,85.11,KBVU 180855Z AUTO 00000KT 10SM CLR 31/10 A2989 RMK AO2,M
CXP,2024-07-18 08:55,-119.7326,39.1923,1431.00,60.80,35.60,38.85,0.00,0.00,0.00,30.20,M,10.00,M,CLR,M,M,M,M,M,M,M,M,M,M,M,M,M,M,60.80,KCXP 180855Z AUTO 00000KT 10SM CLR 16/02 A3020 RMK AO2,M
INS,2024-07-18 08:55,-115.6733,36.5872,955.00,87.00,39.70,18.92,190.00,3.00,0.00,29.96,1008.00,10.00,M,CLR,M,M,M,M,M,M,M,M,M,M,M,M,M,M,83.59,KINS 180855Z AUTO 19003KT 10SM CLR 31/04 A2996 RMK AO2 SLP080 T03060043 50000 $,M
RNO,2024-07-18 08:55,-119.7711,39.4839,1341.00,69.00,33.00,26.31,280.00,3.00,0.00,30.17,1015.30,10.00,M,FEW,M,M,M,10000.00,M,M,M,M,M,M,M,M,M,M,69.00,KRNO 180855Z 28003KT 10SM FEW100 21/01 A3017 RMK AO2 SLP153 T02060006 50002,M
RTS,2024-07-18 08:55,-119.8764,39.6682,1539.00,57.20,23.00,26.42,350.00,6.00,0.00,30.22,M,10.00,M,CLR,M,M,M,M,M,M,M,M,M,M,M,M,M,M,57.20,KRTS 180855Z AUTO 35006KT 10SM CLR 14/M05 A3022 RMK AO2,M
05U,2024-07-18 08:55,-116.0051,39.6042,1811.23,59.00,33.80,38.56,0.00,0.00,0.00,30.23,M,10.00,M,M,M,M,M,M,M,M,M,M,M,M,M,M,M,M,59.00,K05U 180855Z AUTO 00000KT 10SM 15/01 A3023 RMK A01,M
MEV,2024-07-18 08:55,-119.7500,38.9963,1441.42,50.00,39.20,66.27,110.00,4.00,0.00,30.19,M,10.00,M,CLR,M,M,M,M,M,M,M,M,M,M,M,M,M,M,50.00,KMEV 180855Z AUTO 11004KT 10SM CLR 10/04 A3019 RMK AO2,M
BAM,2024-07-18 08:55,-116.8743,40.5990,1382.36,64.40,41.00,42.28,170.00,4.00,0.00,30.13,M,10.00,M,CLR,M,M,M,M,M,M,M,M,M,M,M,M,M,M,64.40,KBAM 180855Z AUTO 17004KT 10SM CLR 18/05 A3013 RMK AO1,M
HTH,2024-07-18 08:55,-118.6315,38.5448,1282.89,75.20,37.40,25.40,320.00,6.00,0.00,30.13,M,10.00,M,CLR,M,M,M,M,M,M,M,M,M,M,M,M,M,M,75.20,KHTH 180855Z AUTO 32006KT 10SM CLR 24/03 A3013 RMK A01,M
10U,2024-07-18 08:55,-116.1876,41.9532,1637.00,62.60,33.80,33.93,180.00,6.00,0.00,30.18,M,10.00,M,CLR,M,M,M,M,M,M,M,M,M,M,M,M,M,M,62.60,K10U 180855Z AUTO 18006KT 10SM CLR 17/01 A3018 RMK AO2,M
TMT,2024-07-18 08:55,-117.1971,39.4643,1749.34,54.30,36.00,49.87,240.00,4.00,0.00,30.24,M,10.00,M,CLR,M,M,M,M,M,M,M,M,M,M,M,M,M,M,54.30,KTMT 180855Z AUTO 24004KT 10SM CLR 12/02 A3024 RMK AO2 T01240023,M
LSV,2024-07-18 08:55,-115.0343,36.2362,570.00,92.70,43.00,17.96,60.00,5.00,0.00,29.83,1006.70,10.00,M,CLR,M,M,M,M,M,M,M,M,M,M,M,M,M,M,88.73,KLSV 180855Z AUTO 06005KT 10SM CLR 34/06 A2983 RMK AO2 SLP067 T03370061 58002 $,M
EKO,2024-07-18 08:56,-115.7860,40.8242,1367.00,63.00,51.00,64.85,270.00,5.00,0.00,30.15,1014.50,10.00,M,CLR,M,M,M,M,M,M,M,M,M,M,M,M,M,M,63.00,KEKO 180856Z AUTO 27005KT 10SM CLR 17/11 A3015 RMK AO2 SLP145 T01720106 53003,M
WMC,2024-07-18 08:56,-117.8072,40.9019,1315.00,60.00,25.00,25.98,260.00,4.00,0.00,30.11,1014.30,10.00,M,CLR,M,M,M,M,M,M,M,M,M,M,M,M,M,M,60.00,KWMC 180856Z AUTO 26004KT 10SM CLR 16/M04 A3011 RMK AO2 SLP143 T01561039 50004,M
HND,2024-07-18 08:56,-115.1344,35.9729,742.79,88.00,49.00,26.13,170.00,4.00,0.00,29.94,1011.60,10.00,M,CLR,M,M,M,M,M,M,M,M,M,M,M,M,M,M,85.14,KHND 180856Z AUTO 17004KT 10SM CLR 31/09 A2994 RMK AO2 SLP116 T03110094 53001,M
TPH,2024-07-18 08:56,-117.0904,38.0505,1654.00,69.00,33.00,26.31,10.00,3.00,0.00,30.18,1012.80,10.00,M,CLR,M,M,M,M,M,M,M,M,M,M,M,M,M,M,69.00,KTPH 180856Z AUTO 01003KT 10SM CLR 21/01 A3018 RMK AO2 SLP128 T02060006 51005,M
LAS,2024-07-18 08:56,-115.1634,36.0719,663.00,94.00,47.00,20.09,200.00,4.00,0.00,29.89,1005.00,10.00,M,CLR,M,M,M,M,M,M,M,M,M,M,M,M,M,M,90.40,KLAS 180856Z 20004KT 10SM CLR 34/08 A2989 RMK AO2 SLP050 T03440083 58000 $,M
BVU,2024-07-18 09:15,-114.8611,35.9475,671.00,87.80,51.80,29.18,0.00,0.00,0.00,29.89,M,10.00,M,CLR,M,M,M,M,M,M,M,M,M,M,M,M,M,M,85.39,KBVU 180915Z AUTO 00000KT 10SM CLR 31/11 A2989 RMK AO2,M
CXP,2024-07-18 09:15,-119.7326,39.1923,1431.00,62.60,35.60,36.45,0.00,0.00,0.00,30.20,M,10.00,M,CLR,M,M,M,M,M,M,M,M,M,M,M,M,M,M,62.60,KCXP 180915Z AUTO 00000KT 10SM CLR 17/02 A3020 RMK AO2,M
RTS,2024-07-18 09:15,-119.8764,39.6682,1539.00,57.20,23.00,26.42,340.00,6.00,0.00,30.22,M,10.00,M,CLR,M,M,M,M,M,M,M,M,M,M,M,M,M,M,57.20,KRTS 180915Z AUTO 34006KT 10SM CLR 14/M05 A3022 RMK AO2,M
05U,2024-07-18 09:15,-116.0051,39.6042,1811.23,60.80,33.80,36.16,0.00,0.00,0.00,30.24,M,10.00,M,M,M,M,M,M,M,M,M,M,M,M,M,M,M,M,60.80,K05U 180915Z AUTO 00000KT 10SM 16/01 A3024 RMK A01,M
MEV,2024-07-18 09:15,-119.7500,38.9963,1441.42,51.80,41.00,66.48,120.00,5.00,0.00,30.18,M,10.00,M,CLR,M,M,M,M,M,M,M,M,M,M,M,M,M,M,51.80,KMEV 180915Z AUTO 12005KT 10SM CLR 11/05 A3018 RMK AO2,M
BAM,2024-07-18 09:15,-116.8743,40.5990,1382.36,64.40,37.40,36.74,140.00,7.00,0.00,30.13,M,10.00,M,CLR,M,M,M,M,M,M,M,M,M,M,M,M,M,M,64.40,KBAM 180915Z AUTO 14007KT 10SM CLR 18/03 A3013 RMK AO1,M
HTH,2024-07-18 09:15,-118.6315,38.5448,1282.89,75.20,35.60,23.66,300.00,4.00,0.00,30.13,M,10.00,M,CLR,M,M,M,M,M,M,M,M,M,M,M,M,M,M,75.20,KHTH 180915Z AUTO 30004KT 10SM CLR 24/02 A3013 RMK A01,M
10U,2024-07-18 09:15,-116.1876,41.9532,1637.00,62.60,33.80,33.93,180.00,5.00,0.00,30.19,M,10.00,M,CLR,M,M,M,M,M,M,M,M,M,M,M,M,M,M,62.60,K10U 180915Z AUTO 18005KT 10SM CLR 17/01 A3019 RMK AO2,M
TMT,2024-07-18 09:15,-117.1971,39.4643,1749.34,53.60,34.70,48.59,0.00,0.00,0.00,30.24,M,10.00,M,CLR,M,M,M,M,M,M,M,M,M,M,M,M,M,M,53.60,KTMT 180915Z AUTO 00000KT 10SM CLR 12/02 A3024 RMK AO2 T01200015,M
10U,2024-07-18 09:30,-116.1876,41.9532,1637.00,60.80,32.00,33.64,200.00,7.00,0.00,30.19,M,10.00,M,CLR,M,M,M,M,M,M,M,M,M,M,M,M,M,M,60.80,K10U 180930Z AUTO 20007KT 10SM CLR 16/00 A3019 RMK AO2,M
BVU,2024-07-18 09:35,-114.8611,35.9475,671.00,89.60,51.80,27.56,60.00,3.00,0.00,29.89,M,10.00,M,CLR,M,M,M,M,M,M,M,M,M,M,M,M,M,M,87.00,KBVU 180935Z AUTO 06003KT 10SM CLR 32/11 A2989 RMK AO2,M
CXP,2024-07-18 09:35,-119.7326,39.1923,1431.00,62.60,33.80,33.93,340.00,4.00,0.00,30.20,M,10.00,M,CLR,M,M,M,M,M,M,M,M,M,M,M,M,M,M,62.60,KCXP 180935Z AUTO 34004KT 10SM CLR 17/01 A3020 RMK AO2,M
RTS,2024-07-18 09:35,-119.8764,39.6682,1539.00,57.20,23.00,26.42,340.00,5.00,0.00,30.22,M,10.00,M,CLR,M,M,M,M,M,M,M,M,M,M,M,M,M,M,57.20,KRTS 180935Z AUTO 34005KT 10SM CLR 14/M05 A3022 RMK AO2,M
05U,2024-07-18 09:35,-116.0051,39.6042,1811.23,62.60,33.80,33.93,0.00,0.00,0.00,30.24,M,10.00,M,M,M,M,M,M,M,M,M,M,M,M,M,M,M,M,62.60,K05U 180935Z AUTO 00000KT 10SM 17/01 A3024 RMK A01,M
MEV,2024-07-18 09:35,-119.7500,38.9963,1441.42,51.80,39.20,61.99,M,3.00,0.00,30.19,M,10.00,M,CLR,M,M,M,M,M,M,M,M,M,M,M,M,M,M,51.80,KMEV 180935Z AUTO VRB03KT 10SM CLR 11/04 A3019 RMK AO2,M
BAM,2024-07-18 09:35,-116.8743,40.5990,1382.36,64.40,37.40,36.74,190.00,3.00,0.00,30.14,M,10.00,M,CLR,M,M,M,M,M,M,M,M,M,M,M,M,M,M,64.40,KBAM 180935Z AUTO 19003KT 10SM CLR 18/03 A3014 RMK AO1,M
HTH,2024-07-18 09:35,-118.6315,38.5448,1282.89,75.20,33.80,22.02,0.00,0.00,0.00,30.14,M,10.00,M,CLR,M,M,M,M,M,M,M,M,M,M,M,M,M,M,75.20,KHTH 180935Z AUTO 00000KT 10SM CLR 24/01 A3014 RMK A01,M
TMT,2024-07-18 09:35,-117.1971,39.4643,1749.34,52.00,34.30,50.72,0.00,0.00,0.00,30.24,M,10.00,M,CLR,M,M,M,M,M,M,M,M,M,M,M,M,M,M,52.00,KTMT 180935Z AUTO 00000KT 10SM CLR 11/01 A3024 RMK AO2 T01110013,M
P68,2024-07-18 09:53,-116.0056,39.6014,1993.00,60.00,34.00,37.50,180.00,7.00,0.00,30.22,1014.00,M,M,M,M,M,M,M,M,M,M,M,M,M,M,M,M,M,60.00,KP68 180953Z AUTO 18007KT 16/01 A3022 RMK AO1 SLP140 T01560011,M
DRA,2024-07-18 09:53,-116.0278,36.6206,1009.00,85.00,42.00,22.05,40.00,7.00,0.00,29.98,1008.80,10.00,M,CLR,M,M,M,M,M,M,M,M,M,M,M,M,M,M,82.15,KDRA 180953Z AUTO 04007KT 10SM CLR 29/06 A2998 RMK AO2 SLP088 T02940056,M
ELY,2024-07-18 09:53,-114.8453,39.2950,1909.00,69.00,43.00,38.95,200.00,13.00,0.00,30.25,1012.10,10.00,M,CLR,M,M,M,M,M,M,M,M,M,M,M,M,M,M,69.00,KELY 180953Z AUTO 20013KT 10SM CLR 21/06 A3025 RMK AO2 SLP121 T02060061,M
VGT,2024-07-18 09:53,-115.1933,36.2111,667.00,92.00,52.00,25.76,0.00,0.00,0.00,29.89,1010.40,9.00,M,CLR,M,M,M,M,M,M,M,M,M,M,M,M,M,M,89.31,KVGT 180953Z AUTO 00000KT 9SM CLR 33/11 A2989 RMK AO2 SLP104 T03330111,M
LOL,2024-07-18 09:53,-118.5701,40.0684,1192.43,57.00,32.00,38.54,160.00,5.00,0.00,30.10,1014.90,10.00,M,CLR,M,M,M,M,M,M,M,M,M,M,M,M,M,M,57.00,KLOL 180953Z AUTO 16005KT 10SM CLR 14/00 A3010 RMK AO2 SLP149 T01390000,M
NFL,2024-07-18 09:54,-118.7010,39.4166,1199.00,67.00,36.00,31.76,240.00,6.00,0.00,30.10,1015.90,10.00,M,CLR,M,M,M,M,M,M,M,M,M,M,M,M,M,M,67.00,KNFL 180954Z AUTO 24006KT 10SM CLR 19/02 A3010 RMK AO2 SLP159 T01940022,M
BVU,2024-07-18 09:55,-114.8611,35.9475,671.00,93.20,48.20,21.54,110.00,4.00,0.00,29.90,M,10.00,M,CLR,M,M,M,M,M,M,M,M,M,M,M,M,M,M,89.80,KBVU 180955Z AUTO 11004KT 10SM CLR 34/09 A2990 RMK AO2,M
CXP,2024-07-18 09:55,-119.7326,39.1923,1431.00,60.80,35.60,38.85,0.00,0.00,0.00,30.20,M,10.00,M,CLR,M,M,M,M,M,M,M,M,M,M,M,M,M,M,60.80,KCXP 180955Z AUTO 00000KT 10SM CLR 16/02 A3020 RMK AO2,M
INS,2024-07-18 09:55,-115.6733,36.5872,955.00,84.00,39.70,20.83,0.00,0.00,0.00,29.97,1008.50,10.00,M,CLR,M,M,M,M,M,M,M,M,M,M,M,M,M,M,81.32,KINS 180955Z AUTO 00000KT 10SM CLR 29/04 A2997 RMK AO2 SLP085 T02880043 $,M
RNO,2024-07-18 09:55,-119.7711,39.4839,1341.00,66.00,33.00,29.18,190.00,4.00,0.00,30.18,1015.80,10.00,M,FEW,M,M,M,10000.00,M,M,M,M,M,M,M,M,M,M,66.00,KRNO 180955Z 19004KT 10SM FEW100 19/01 A3018 RMK AO2 SLP158 T01890006,M
RTS,2024-07-18 09:55,-119.8764,39.6682,1539.00,55.40,23.00,28.20,340.00,7.00,0.00,30.22,M,10.00,M,CLR,M,M,M,M,M,M,M,M,M,M,M,M,M,M,55.40,KRTS 180955Z AUTO 34007KT 10SM CLR 13/M05 A3022 RMK AO2,M
05U,2024-07-18 09:55,-116.0051,39.6042,1811.23,59.00,33.80,38.56,0.00,0.00,0.00,30.24,M,10.00,M,M,M,M,M,M,M,M,M,M,M,M,M,M,M,M,59.00,K05U 180955Z AUTO 00000KT 10SM 15/01 A3024 RMK A01,M
MEV,2024-07-18 09:55,-119.7500,38.9963,1441.42,53.60,37.40,54.07,0.00,0.00,0.00,30.19,M,10.00,M,CLR,M,M,M,M,M,M,M,M,M,M,M,M,M,M,53.60,KMEV 180955Z AUTO 00000KT 10SM CLR 12/03 A3019 RMK AO2,M
HTH,2024-07-18 09:55,-118.6315,38.5448,1282.89,75.20,37.40,25.40,310.00,5.00,0.00,30.14,M,10.00,M,CLR,M,M,M,M,M,M,M,M,M,M,M,M,M,M,75.20,KHTH 180955Z AUTO 31005KT 10SM CLR 24/03 A3014 RMK A01,M
BAM,2024-07-18 09:55,-116.8743,40.5990,1382.36,64.40,39.20,39.43,0.00,0.00,0.00,30.14,M,10.00,M,CLR,M,M,M,M,M,M,M,M,M,M,M,M,M,M,64.40,KBAM 180955Z AUTO 00000KT 10SM CLR 18/04 A3014 RMK AO1,M
TMT,2024-07-18 09:55,-117.1971,39.4643,1749.34,52.00,34.30,50.72,220.00,4.00,0.00,30.24,M,10.00,M,CLR,M,M,M,M,M,M,M,M,M,M,M,M,M,M,52.00,KTMT 180955Z AUTO 22004KT 10SM CLR 11/01 A3024 RMK AO2 T01120013,M
10U,2024-07-18 09:55,-116.1876,41.9532,1637.00,60.80,32.00,33.64,160.00,4.00,0.00,30.19,M,10.00,M,CLR,M,M,M,M,M,M,M,M,M,M,M,M,M,M,60.80,K10U 180955Z AUTO 16004KT 10SM CLR 16/00 A3019 RMK AO2,M
LSV,2024-07-18 09:55,-115.0343,36.2362,570.00,93.00,43.00,17.80,60.00,7.00,0.00,29.84,1006.90,10.00,M,CLR,M,M,M,M,M,M,M,M,M,M,M,M,M,M,89.00,KLSV 180955Z AUTO 06007KT 10SM CLR 34/06 A2984 RMK AO2 SLP069 T03390062 $,M
EKO,2024-07-18 09:56,-115.7860,40.8242,1367.00,62.00,49.00,62.36,140.00,4.00,0.00,30.15,1014.40,10.00,M,CLR,M,M,M,M,M,M,M,M,M,M,M,M,M,M,62.00,KEKO 180956Z AUTO 14004KT 10SM CLR 17/09 A3015 RMK AO2 SLP144 T01670094,M
WMC,2024-07-18 09:56,-117.8072,40.9019,1315.00,60.00,27.00,28.23,0.00,0.00,0.00,30.12,1014.20,10.00,M,CLR,M,M,M,M,M,M,M,M,M,M,M,M,M,M,60.00,KWMC 180956Z AUTO 00000KT 10SM CLR 16/M03 A3012 RMK AO2 SLP142 T01561028,M
HND,2024-07-18 09:56,-115.1344,35.9729,742.79,88.00,48.00,25.17,160.00,8.00,0.00,29.94,1011.60,10.00,M,CLR,M,M,M,M,M,M,M,M,M,M,M,M,M,M,85.02,KHND 180956Z AUTO 16008KT 10SM CLR 31/09 A2994 RMK AO2 SLP116 T03110089,M
TPH,2024-07-18 09:56,-117.0904,38.0505,1654.00,67.00,32.00,27.07,30.00,7.00,0.00,30.18,1012.80,10.00,M,CLR,M,M,M,M,M,M,M,M,M,M,M,M,M,M,67.00,KTPH 180956Z AUTO 03007KT 10SM CLR 19/00 A3018 RMK AO2 SLP128 T01940000,M
LAS,2024-07-18 09:56,-115.1634,36.0719,663.00,92.00,47.00,21.38,180.00,3.00,0.00,29.90,1005.50,10.00,M,CLR,M,M,M,M,M,M,M,M,M,M,M,M,M,M,88.49,KLAS 180956Z 18003KT 10SM CLR 33/08 A2990 RMK AO2 SLP055 T03330083 $,M
BVU,2024-07-18 10:15,-114.8611,35.9475,671.00,91.40,50.00,24.37,0.00,0.00,0.00,29.90,M,10.00,M,CLR,M,M,M,M,M,M,M,M,M,M,M,M,M,M,88.36,KBVU 181015Z AUTO 00000KT 10SM CLR 33/10 A2990 RMK AO2,M
CXP,2024-07-18 10:15,-119.7326,39.1923,1431.00,60.80,35.60,38.85,0.00,0.00,0.00,30.21,M,10.00,M,CLR,M,M,M,M,M,M,M,M,M,M,M,M,M,M,60.80,KCXP 181015Z AUTO 00000KT 10SM CLR 16/02 A3021 RMK AO2,M
RTS,2024-07-18 10:15,-119.8764,39.6682,1539.00,55.40,24.80,30.40,330.00,7.00,0.00,30.22,M,10.00,M,CLR,M,M,M,M,M,M,M,M,M,M,M,M,M,M,55.40,KRTS 181015Z AUTO 33007KT 10SM CLR 13/M04 A3022 RMK AO2,M
05U,2024-07-18 10:15,-116.0051,39.6042,1811.23,62.60,33.80,33.93,0.00,0.00,0.00,30.25,M,10.00,M,M,M,M,M,M,M,M,M,M,M,M,M,M,M,M,62.60,K05U 181015Z AUTO 00000KT 10SM 17/01 A3025 RMK A01,M
MEV,2024-07-18 10:15,-119.7500,38.9963,1441.42,53.60,37.40,54.07,0.00,0.00,0.00,30.19,M,10.00,M,FEW,FEW,M,M,6500.00,12000.00,M,M,M,M,M,M,M,M,M,53.60,KMEV 181015Z AUTO 00000KT 10SM FEW065 FEW120 12/03 A3019 RMK AO2,M
HTH,2024-07-18 10:15,-118.6315,38.5448,1282.89,75.20,35.60,23.66,280.00,5.00,0.00,30.14,M,10.00,M,CLR,M,M,M,M,M,M,M,M,M,M,M,M,M,M,75.20,KHTH 181015Z AUTO 28005KT 10SM CLR 24/02 A3014 RMK A01,M
10U,2024-07-18 10:15,-116.1876,41.9532,1637.00,59.00,35.60,41.42,180.00,5.00,0.00,30.20,M,10.00,M,CLR,M,M,M,M,M,M,M,M,M,M,M,M,M,M,59.00,K10U 181015Z AUTO 18005KT 10SM CLR 15/02 A3020 RMK AO2,M
BAM,2024-07-18 10:15,-116.8743,40.5990,1382.36,68.00,35.60,30.20,190.00,4.00,0.00,30.13,M,10.00,M,CLR,M,M,M,M,M,M,M,M,M,M,M,M,M,M,68.00,KBAM 181015Z AUTO 19004KT 10SM CLR 20/02 A3013 RMK AO1,M
TMT,2024-07-18 10:15,-117.1971,39.4643,1749.34,48.00,32.00,53.67,170.00,5.00,0.00,30.24,M,10.00,M,CLR,M,M,M,M,M,M,M,M,M,M,M,M,M,M,45.40,KTMT 181015Z AUTO 17005KT 10SM CLR 09/00 A3024 RMK AO2 T00880001,M
05U,2024-07-18 10:30,-116.0051,39.6042,1811.23,59.00,33.80,38.56,0.00,0.00,0.00,30.25,M,10.00,M,M,M,M,M,M,M,M,M,M,M,M,M,M,M,M,59.00,K05U 181030Z AUTO 00000KT 10SM 15/01 A3025 RMK A01,M
BVU,2024-07-18 10:35,-114.8611,35.9475,671.00,89.60,51.80,27.56,70.00,5.00,0.00,29.90,M,10.00,M,CLR,M,M,M,M,M,M,M,M,M,M,M,M,M,M,87.00,KBVU 181035Z AUTO 07005KT 10SM CLR 32/11 A2990 RMK AO2,M
CXP,2024-07-18 10:35,-119.7326,39.1923,1431.00,59.00,37.40,44.47,0.00,0.00,0.00,30.21,M,10.00,M,CLR,M,M,M,M,M,M,M,M,M,M,M,M,M,M,59.00,KCXP 181035Z AUTO 00000KT 10SM CLR 15/03 A3021 RMK AO2,M
RTS,2024-07-18 10:35,-119.8764,39.6682,1539.00,53.60,23.00,30.11,340.00,6.00,0.00,30.22,M,10.00,M,CLR,M,M,M,M,M,M,M,M,M,M,M,M,M,M,53.60,KRTS 181035Z AUTO 34006KT 10SM CLR 12/M05 A3022 RMK AO2,M
MEV,2024-07-18 10:35,-119.7500,38.9963,1441.42,53.60,37.40,54.07,60.00,4.00,0.00,30.19,M,10.00,M,SCT,M,M,M,6000.00,M,M,M,M,M,M,M,M,M,M,53.60,KMEV 181035Z AUTO 06004KT 10SM SCT060 12/03 A3019 RMK AO2,M
HTH,2024-07-18 10:35,-118.6315,38.5448,1282.89,75.20,33.80,22.02,280.00,4.00,0.00,30.14,M,10.00,M,CLR,M,M,M,M,M,M,M,M,M,M,M,M,M,M,75.20,KHTH 181035Z AUTO 28004KT 10SM CLR 24/01 A3014 RMK A01,M
BAM,2024-07-18 10:35,-116.8743,40.5990,1382.36,68.00,35.60,30.20,0.00,0.00,0.00,30.13,M,10.00,M,CLR,M,M,M,M,M,M,M,M,M,M,M,M,M,M,68.00,KBAM 181035Z AUTO 00000KT 10SM CLR 20/02 A3013 RMK AO1,M
TMT,2024-07-18 10:35,-117.1971,39.4643,1749.34,46.00,34.00,62.71,150.00,5.00,0.00,30.24,M,10.00,M,CLR,M,M,M,M,M,M,M,M,M,M,M,M,M,M,43.02,KTMT 181035Z AUTO 15005KT 10SM CLR 08/01 A3024 RMK AO2 T00780011,M
10U,2024-07-18 10:35,-116.1876,41.9532,1637.00,57.20,37.40,47.44,160.00,6.00,0.00,30.20,M,10.00,M,CLR,M,M,M,M,M,M,M,M,M,M,M,M,M,M,57.20,K10U 181035Z AUTO 16006KT 10SM CLR 14/03 A3020 RMK AO2,M
P68,2024-07-18 10:53,-116.0056,39.6014,1993.00,57.00,34.00,41.76,190.00,3.00,0.00,30.23,1014.30,M,M,M,M,M,M,M,M,M,M,M,M,M,M,M,M,M,57.00,KP68 181053Z AUTO 19003KT 14/01 A3023 RMK AO1 SLP143 T01390011,M
DRA,2024-07-18 10:53,-116.0278,36.6206,1009.00,84.00,42.00,22.77,0.00,0.00,0.00,29.98,1009.10,10.00,M,FEW,M,M,M,9000.00,M,M,M,M,M,M,M,M,M,M,81.42,KDRA 181053Z AUTO 00000KT 10SM FEW090 29/06 A2998 RMK AO2 SLP091 T02890056,M
ELY,2024-07-18 10:53,-114.8453,39.2950,1909.00,69.00,43.00,38.95,200.00,13.00,0.00,30.26,1012.00,10.00,M,CLR,M,M,M,M,M,M,M,M,M,M,M,M,M,M,69.00,KELY 181053Z AUTO 20013KT 10SM CLR 21/06 A3026 RMK AO2 SLP120 T02060061,M
VGT,2024-07-18 10:53,-115.1933,36.2111,667.00,89.00,51.00,27.27,340.00,5.00,0.00,29.90,1010.80,10.00,M,CLR,M,M,M,M,M,M,M,M,M,M,M,M,M,M,86.31,KVGT 181053Z AUTO 34005KT 10SM CLR 32/11 A2990 RMK AO2 SLP108 T03170106,M
LOL,2024-07-18 10:53,-118.5701,40.0684,1192.43,58.00,29.00,32.91,0.00,0.00,0.00,30.10,1015.10,10.00,M,CLR,M,M,M,M,M,M,M,M,M,M,M,M,M,M,58.00,KLOL 181053Z AUTO 00000KT 10SM CLR 14/M02 A3010 RMK AO2 SLP151 T01441017,M
NFL,2024-07-18 10:54,-118.7010,39.4166,1199.00,67.00,37.00,33.04,M,3.00,0.00,30.10,1016.00,10.00,M,CLR,M,M,M,M,M,M,M,M,M,M,M,M,M,M,67.00,KNFL 181054Z AUTO VRB03KT 10SM CLR 19/03 A3010 RMK AO2 SLP160 T01940028,M
BVU,2024-07-18 10:55,-114.8611,35.9475,671.00,89.60,51.80,27.56,80.00,6.00,0.00,29.90,M,10.00,M,CLR,M,M,M,M,M,M,M,M,M,M,M,M,M,M,87.00,KBVU 181055Z AUTO 08006KT 10SM CLR 32/11 A2990 RMK AO2,M
CXP,2024-07-18 10:55,-119.7326,39.1923,1431.00,60.80,35.60,38.85,0.00,0.00,0.00,30.20,M,10.00,M,CLR,M,M,M,M,M,M,M,M,M,M,M,M,M,M,60.80,KCXP 181055Z AUTO 00000KT 10SM CLR 16/02 A3020 RMK AO2,M
INS,2024-07-18 10:55,-115.6733,36.5872,955.00,84.00,40.00,21.07,0.00,0.00,0.00,29.98,1008.70,10.00,M,BKN,M,M,M,15000.00,M,M,M,M,M,M,M,M,M,M,81.33,KINS 181055Z AUTO 00000KT 10SM BKN150 29/04 A2998 RMK AO2 SLP087 T02890044 $,M
RNO,2024-07-18 10:55,-119.7711,39.4839,1341.00,66.00,32.00,28.03,280.00,4.00,0.00,30.19,1016.10,10.00,M,FEW,M,M,M,10000.00,M,M,M,M,M,M,M,M,M,M,66.00,KRNO 181055Z 28004KT 10SM FEW100 19/00 A3019 RMK AO2 SLP161 T01890000,M
RTS,2024-07-18 10:55,-119.8764,39.6682,1539.00,50.00,23.00,34.39,360.00,6.00,0.00,30.22,M,10.00,M,CLR,M,M,M,M,M,M,M,M,M,M,M,M,M,M,50.00,KRTS 181055Z AUTO 36006KT 10SM CLR 10/M05 A3022 RMK AO2,M
05U,2024-07-18 10:55,-116.0051,39.6042,1811.23,57.20,33.80,41.13,0.00,0.00,0.00,30.26,M,10.00,M,M,M,M,M,M,M,M,M,M,M,M,M,M,M,M,57.20,K05U 181055Z AUTO 00000KT 10SM 14/01 A3026 RMK A01,M
MEV,2024-07-18 10:55,-119.7500,38.9963,1441.42,53.60,41.00,62.23,0.00,0.00,0.00,30.19,M,10.00,M,SCT,M,M,M,6000.00,M,M,M,M,M,M,M,M,M,M,53.60,KMEV 181055Z AUTO 00000KT 10SM SCT060 12/05 A3019 RMK AO2,M
HTH,2024-07-18 10:55,-118.6315,38.5448,1282.89,73.40,35.60,25.13,240.00,4.00,0.00,30.14,M,10.00,M,CLR,M,M,M,M,M,M,M,M,M,M,M,M,M,M,73.40,KHTH 181055Z AUTO 24004KT 10SM CLR 23/02 A3014 RMK A01,M
10U,2024-07-18 10:55,-116.1876,41.9532,1637.00,53.60,37.40,54.07,150.00,7.00,0.00,30.19,M,10.00,M,CLR,M,M,M,M,M,M,M,M,M,M,M,M,M,M,53.60,K10U 181055Z AUTO 15007KT 10SM CLR 12/03 A3019 RMK AO2,M
BAM,2024-07-18 10:55,-116.8743,40.5990,1382.36,68.00,37.40,32.43,190.00,3.00,0.00,30.13,M,10.00,M,CLR,M,M,M,M,M,M,M,M,M,M,M,M,M,M,68.00,KBAM 181055Z AUTO 19003KT 10SM CLR 20/03 A3013 RMK AO1,M
TMT,2024-07-18 10:55,-117.1971,39.4643,1749.34,47.00,33.60,59.43,140.00,4.00,0.00,30.24,M,10.00,M,CLR,M,M,M,M,M,M,M,M,M,M,M,M,M,M,44.94,KTMT 181055Z AUTO 14004KT 10SM CLR 08/01 A3024 RMK AO2 T00830009,M
LSV,2024-07-18 10:55,-115.0343,36.2362,570.00,92.00,43.70,18.86,60.00,5.00,0.00,29.85,1007.40,10.00,M,BKN,M,M,M,20000.00,M,M,M,M,M,M,M,M,M,M,88.14,KLSV 181055Z AUTO 06005KT 10SM BKN200 33/07 A2985 RMK AO2 SLP074 T03330065 $,M
EKO,2024-07-18 10:56,-115.7860,40.8242,1367.00,67.00,48.00,50.44,0.00,0.00,0.00,30.16,1014.50,10.00,M,CLR,M,M,M,M,M,M,M,M,M,M,M,M,M,M,67.00,KEKO 181056Z AUTO 00000KT 10SM CLR 19/09 A3016 RMK AO2 SLP145 T01940089,M
WMC,2024-07-18 10:56,-117.8072,40.9019,1315.00,54.00,30.00,39.63,170.00,7.00,0.00,30.13,1015.00,10.00,M,CLR,M,M,M,M,M,M,M,M,M,M,M,M,M,M,54.00,KWMC 181056Z AUTO 17007KT 10SM CLR 12/M01 A3013 RMK AO2 SLP150 T01221011,M
HND,2024-07-18 10:56,-115.1344,35.9729,742.79,87.00,48.00,25.98,210.00,10.00,0.00,29.95,1012.00,10.00,M,CLR,M,M,M,M,M,M,M,M,M,M,M,M,M,M,84.18,KHND 181056Z AUTO 21010KT 10SM CLR 31/09 A2995 RMK AO2 SLP120 T03060089,M
TPH,2024-07-18 10:56,-117.0904,38.0505,1654.00,67.00,32.00,27.07,20.00,4.00,0.00,30.20,1013.40,10.00,M,CLR,M,M,M,M,M,M,M,M,M,M,M,M,M,M,67.00,KTPH 181056Z AUTO 02004KT 10SM CLR 19/00 A3020 RMK AO2 SLP134 T01940000,M
LAS,2024-07-18 10:56,-115.1634,36.0719,663.00,92.00,46.00,20.58,0.00,0.00,0.00,29.91,1005.70,10.00,M,SCT,M,M,M,20000.00,M,M,M,M,M,M,M,M,M,M,88.38,KLAS 181056Z 00000KT 10SM SCT200 33/08 A2991 RMK AO2 SLP057 T03330078 $,M
BVU,2024-07-18 11:15,-114.8611,35.9475,671.00,89.60,53.60,29.45,80.00,5.00,0.00,29.91,M,10.00,M,CLR,M,M,M,M,M,M,M,M,M,M,M,M,M,M,87.36,KBVU 181115Z AUTO 08005KT 10SM CLR 32/12 A2991 RMK AO2,M
CXP,2024-07-18 11:15,-119.7326,39.1923,1431.00,59.00,37.40,44.47,0.00,0.00,0.00,30.20,M,10.00,M,CLR,M,M,M,M,M,M,M,M,M,M,M,M,M,M,59.00,KCXP 181115Z AUTO 00000KT 10SM CLR 15/03 A3020 RMK AO2,M
RTS,2024-07-18 11:15,-119.8764,39.6682,1539.00,53.60,23.00,30.11,350.00,4.00,0.00,30.22,M,10.00,M,CLR,M,M,M,M,M,M,M,M,M,M,M,M,M,M,53.60,KRTS 181115Z AUTO 35004KT 10SM CLR 12/M05 A3022 RMK AO2,M
05U,2024-07-18 11:15,-116.0051,39.6042,1811.23,59.00,33.80,38.56,0.00,0.00,0.00,30.27,M,10.00,M,M,M,M,M,M,M,M,M,M,M,M,M,M,M,M,59.00,K05U 181115Z AUTO 00000KT 10SM 15/01 A3027 RMK A01,M
MEV,2024-07-18 11:15,-119.7500,38.9963,1441.42,53.60,41.00,62.23,0.00,0.00,0.00,30.19,M,10.00,M,FEW,M,M,M,5500.00,M,M,M,M,M,M,M,M,M,M,53.60,KMEV 181115Z AUTO 00000KT 10SM FEW055 12/05 A3019 RMK AO2,M
HTH,2024-07-18 11:15,-118.6315,38.5448,1282.89,73.40,33.80,23.39,0.00,0.00,0.00,30.14,M,10.00,M,CLR,M,M,M,M,M,M,M,M,M,M,M,M,M,M,73.40,KHTH 181115Z AUTO 00000KT 10SM CLR 23/01 A3014 RMK A01,M
10U,2024-07-18 11:15,-116.1876,41.9532,1637.00,55.40,39.20,54.34,140.00,5.00,0.00,30.20,M,10.00,M,CLR,M,M,M,M,M,M,M,M,M,M,M,M,M,M,55.40,K10U 181115Z AUTO 14005KT 10SM CLR 13/04 A3020 RMK AO2,M
BAM,2024-07-18 11:15,-116.8743,40.5990,1382.36,64.40,37.40,36.74,160.00,5.00,0.00,30.13,M,10.00,M,CLR,M,M,M,M,M,M,M,M,M,M,M,M,M,M,64.40,KBAM 181115Z AUTO 16005KT 10SM CLR 18/03 A3013 RMK AO1,M
TMT,2024-07-18 11:15,-117.1971,39.4643,1749.34,48.00,33.80,57.69,310.00,5.00,0.00,30.24,M,10.00,M,CLR,M,M,M,M,M,M,M,M,M,M,M,M,M,M,45.40,KTMT 181115Z AUTO 31005KT 10SM CLR 09/01 A3024 RMK AO2 T00880010,M
BVU,2024-07-18 11:35,-114.8611,35.9475,671.00,86.00,55.40,35.25,80.00,5.00,0.00,29.91,M,10.00,M,CLR,M,M,M,M,M,M,M,M,M,M,M,M,M,M,84.54,KBVU 181135Z AUTO 08005KT 10SM CLR 30/13 A2991 RMK AO2,M
CXP,2024-07-18 11:35,-119.7326,39.1923,1431.00,59.00,39.20,47.72,0.00,0.00,0.00,30.20,M,10.00,M,CLR,M,M,M,M,M,M,M,M,M,M,M,M,M,M,59.00,KCXP 181135Z AUTO 00000KT 10SM CLR 15/04 A3020 RMK AO2,M
RTS,2024-07-18 11:35,-119.8764,39.6682,1539.00,55.40,24.80,30.40,0.00,0.00,0.00,30.22,M,10.00,M,CLR,M,M,M,M,M,M,M,M,M,M,M,M,M,M,55.40,KRTS 181135Z AUTO 00000KT 10SM CLR 13/M04 A3022 RMK AO2,M
05U,2024-07-18 11:35,-116.0051,39.6042,1811.23,57.20,33.80,41.13,0.00,0.00,0.00,30.27,M,10.00,M,M,M,M,M,M,M,M,M,M,M,M,M,M,M,M,57.20,K05U 181135Z AUTO 00000KT 10SM 14/01 A3027 RMK A01,M
MEV,2024-07-18 11:35,-119.7500,38.9963,1441.42,53.60,39.20,58.02,0.00,0.00,0.00,30.19,M,10.00,M,FEW,FEW,SCT,M,5000.00,5500.00,12000.00,M,M,M,M,M,M,M,M,53.60,KMEV 181135Z AUTO 00000KT 10SM FEW050 FEW055 SCT120 12/04 A3019 RMK AO2,M
BAM,2024-07-18 11:35,-116.8743,40.5990,1382.36,62.60,39.20,42.00,200.00,4.00,0.00,30.14,M,10.00,M,CLR,M,M,M,M,M,M,M,M,M,M,M,M,M,M,62.60,KBAM 181135Z AUTO 20004KT 10SM CLR 17/04 A3014 RMK AO1,M
HTH,2024-07-18 11:35,-118.6315,38.5448,1282.89,71.60,35.60,26.71,0.00,0.00,0.00,30.14,M,10.00,M,CLR,M,M,M,M,M,M,M,M,M,M,M,M,M,M,71.60,KHTH 181135Z AUTO 00000KT 10SM CLR 22/02 A3014 RMK A01,M
10U,2024-07-18 11:35,-116.1876,41.9532,1637.00,53.60,39.20,58.02,190.00,3.00,0.00,30.20,M,10.00,M,CLR,M,M,M,M,M,M,M,M,M,M,M,M,M,M,53.60,K10U 181135Z AUTO 19003KT 10SM CLR 12/04 A3020 RMK AO2,M
TMT,2024-07-18 11:35,-117.1971,39.4643,1749.34,48.70,36.50,62.56,300.00,3.00,0.00,30.25,M,10.00,M,CLR,M,M,M,M,M,M,M,M,M,M,M,M,M,M,47.78,KTMT 181135Z AUTO 30003KT 10SM CLR 09/03 A3025 RMK AO2 T00930025,M
P68,2024-07-18 11:53,-116.0056,39.6014,1993.00,59.00,35.00,40.45,170.00,4.00,0.00,30.24,1014.60,M,M,M,M,M,M,M,M,M,M,M,M,M,M,M,M,M,59.00,KP68 181153Z AUTO 17004KT 15/02 A3024 RMK AO1 SLP146 T01500017 10222 20133 53009,M
DRA,2024-07-18 11:53,-116.0278,36.6206,1009.00,83.00,43.00,24.44,0.00,0.00,0.00,30.00,1009.80,10.00,M,CLR,M,M,M,M,M,M,M,M,M,M,M,M,M,M,80.79,KDRA 181153Z AUTO 00000KT 10SM CLR 28/06 A3000 RMK AO2 SLP098 T02830061 10361 20278 53009,M
ELY,2024-07-18 11:53,-114.8453,39.2950,1909.00,69.00,43.00,38.95,210.00,12.00,0.00,30.28,1013.60,10.00,M,CLR,M,M,M,M,M,M,M,M,M,M,M,M,M,M,69.00,KELY 181153Z AUTO 21012KT 10SM CLR 21/06 A3028 RMK AO2 SLP136 70001 T02060061 10228 20194 53007,M
VGT,2024-07-18 11:53,-115.1933,36.2111,667.00,91.00,49.00,23.77,30.00,4.00,0.00,29.92,1011.20,10.00,M,CLR,M,M,M,M,M,M,M,M,M,M,M,M,M,M,87.83,KVGT 181153Z AUTO 03004KT 10SM CLR 33/09 A2992 RMK AO2 SLP112 T03280094 10378 20317 53010,M
LOL,2024-07-18 11:53,-118.5701,40.0684,1192.43,57.00,31.00,37.01,0.00,0.00,0.00,30.12,1015.60,10.00,M,CLR,M,M,M,M,M,M,M,M,M,M,M,M,M,M,57.00,KLOL 181153Z AUTO 00000KT 10SM CLR 14/M01 A3012 RMK AO2 SLP156 T01391006 10283 20133 53007,M
NFL,2024-07-18 11:54,-118.7010,39.4166,1199.00,64.00,35.00,33.89,0.00,0.00,0.00,30.12,1016.50,10.00,M,CLR,M,M,M,M,M,M,M,M,M,M,M,M,M,M,64.00,KNFL 181154Z AUTO 00000KT 10SM CLR 18/02 A3012 RMK AO2 SLP165 T01780017 10261 20178 53005,M
BVU,2024-07-18 11:55,-114.8611,35.9475,671.00,86.00,55.40,35.25,70.00,6.00,0.00,29.92,M,10.00,M,CLR,M,M,M,M,M,M,M,M,M,M,M,M,M,M,84.54,KBVU 181155Z AUTO 07006KT 10SM CLR 30/13 A2992 RMK AO2,M
CXP,2024-07-18 11:55,-119.7326,39.1923,1431.00,59.00,37.40,44.47,0.00,0.00,0.00,30.21,M,10.00,M,CLR,M,M,M,M,M,M,M,M,M,M,M,M,M,M,59.00,KCXP 181155Z AUTO 00000KT 10SM CLR 15/03 A3021 RMK AO2,M
INS,2024-07-18 11:55,-115.6733,36.5872,955.00,80.80,39.60,23.01,0.00,0.00,0.00,30.00,1009.60,10.00,M,OVC,M,M,M,15000.00,M,M,M,M,M,M,M,M,M,M,79.24,KINS 181155Z AUTO 00000KT 10SM OVC150 27/04 A3000 RMK AO2 SLP096 T02710042 10352 20265 52011 $,M
RNO,2024-07-18 11:55,-119.7711,39.4839,1341.00,65.00,31.00,27.87,300.00,4.00,0.00,30.19,1016.30,10.00,M,SCT,M,M,M,15000.00,M,M,M,M,M,M,M,M,M,M,65.00,KRNO 181155Z 30004KT 10SM SCT150 18/M01 A3019 RMK AO2 SLP163 T01831006 10250 20183 51007,M
RTS,2024-07-18 11:55,-119.8764,39.6682,1539.00,55.40,24.80,30.40,10.00,5.00,0.00,30.23,M,10.00,M,CLR,M,M,M,M,M,M,M,M,M,M,M,M,M,M,55.40,KRTS 181155Z AUTO 01005KT 10SM CLR 13/M04 A3023 RMK AO2,M
05U,2024-07-18 11:55,-116.0051,39.6042,1811.23,57.20,33.80,41.13,0.00,0.00,0.00,30.27,M,10.00,M,M,M,M,M,M,M,M,M,M,M,M,M,M,M,M,57.20,K05U 181155Z AUTO 00000KT 10SM 14/01 A3027 RMK A01,M
MEV,2024-07-18 11:55,-119.7500,38.9963,1441.42,51.80,39.20,61.99,0.00,0.00,0.00,30.20,M,10.00,M,FEW,FEW,M,M,5000.00,12000.00,M,M,M,M,M,M,M,M,M,51.80,KMEV 181155Z AUTO 00000KT 10SM FEW050 FEW120 11/04 A3020 RMK AO2,M
BAM,2024-07-18 11:55,-116.8743,40.5990,1382.36,59.00,44.60,58.77,200.00,6.00,0.00,30.15,M,10.00,M,CLR,M,M,M,M,M,M,M,M,M,M,M,M,M,M,59.00,KBAM 181155Z AUTO 20006KT 10SM CLR 15/07 A3015 RMK AO1,M
HTH,2024-07-18 11:55,-118.6315,38.5448,1282.89,69.80,35.60,28.39,0.00,0.00,0.00,30.15,M,10.00,M,CLR,M,M,M,M,M,M,M,M,M,M,M,M,M,M,69.80,KHTH 181155Z AUTO 00000KT 10SM CLR 21/02 A3015 RMK A01,M
10U,2024-07-18 11:55,-116.1876,41.9532,1637.00,51.80,37.40,57.77,200.00,7.00,0.00,30.21,M,10.00,M,CLR,M,M,M,M,M,M,M,M,M,M,M,M,M,M,51.80,K10U 181155Z AUTO 20007KT 10SM CLR 11/03 A3021 RMK AO2,M
TMT,2024-07-18 11:55,-117.1971,39.4643,1749.34,50.00,34.30,54.62,240.00,3.00,0.00,30.25,M,10.00,M,CLR,M,M,M,M,M,M,M,M,M,M,M,M,M,M,50.00,KTMT 181155Z AUTO 24003KT 10SM CLR 10/01 A3025 RMK AO2 T01010013 10176 20078,M
LSV,2024-07-18 11:55,-115.0343,36.2362,570.00,91.00,48.00,22.90,20.00,5.00,0.00,29.86,1007.70,10.00,M,SCT,M,M,M,21000.00,M,M,M,M,M,M,M,M,M,M,87.69,KLSV 181155Z AUTO 02005KT 10SM SCT210 33/09 A2986 RMK AO2 SLP077 T03280089 10381 20326 52010 $,M
EKO,2024-07-18 11:56,-115.7860,40.8242,1367.00,62.00,48.00,60.07,140.00,4.00,0.00,30.18,1015.40,10.00,M,CLR,M,M,M,M,M,M,M,M,M,M,M,M,M,M,62.00,KEKO 181156Z AUTO 14004KT 10SM CLR 17/09 A3018 RMK AO2 SLP154 T01670089 10261 20156 53007,M
WMC,2024-07-18 11:56,-117.8072,40.9019,1315.00,53.00,27.00,36.36,150.00,4.00,0.00,30.14,1015.70,10.00,M,CLR,M,M,M,M,M,M,M,M,M,M,M,M,M,M,53.00,KWMC 181156Z AUTO 15004KT 10SM CLR 12/M03 A3014 RMK AO2 SLP157 T01171028 10250 20117 53009,M
HND,2024-07-18 11:56,-115.1344,35.9729,742.79,89.00,47.00,23.49,210.00,8.00,0.00,29.97,1012.60,10.00,M,CLR,M,M,M,M,M,M,M,M,M,M,M,M,M,M,85.77,KHND 181156Z AUTO 21008KT 10SM CLR 32/08 A2997 RMK AO2 SLP126 T03170083 10356 20300 53008,M
TPH,2024-07-18 11:56,-117.0904,38.0505,1654.00,65.00,32.00,29.02,290.00,9.00,0.00,30.22,1014.20,10.00,M,CLR,M,M,M,M,M,M,M,M,M,M,M,M,M,M,65.00,KTPH 181156Z AUTO 29009KT 10SM CLR 18/00 A3022 RMK AO2 SLP142 T01830000 10244 20183 53010,M
LAS,2024-07-18 11:56,-115.1634,36.0719,663.00,91.00,48.00,22.90,0.00,0.00,0.00,29.91,1005.80,10.00,M,BKN,M,M,M,22000.00,M,M,M,M,M,M,M,M,M,M,87.69,KLAS 181156Z 00000KT 10SM BKN220 33/09 A2991 RMK AO2 SLP058 T03280089 10372 20328 51006 $,M
BVU,2024-07-18 12:15,-114.8611,35.9475,671.00,86.00,57.20,37.62,70.00,4.00,0.00,29.93,M,10.00,M,CLR,M,M,M,M,M,M,M,M,M,M,M,M,M,M,84.97,KBVU 181215Z AUTO 07004KT 10SM CLR 30/14 A2993 RMK AO2,M
CXP,2024-07-18 12:15,-119.7326,39.1923,1431.00,59.00,37.40,44.47,0.00,0.00,0.00,30.21,M,10.00,M,CLR,M,M,M,M,M,M,M,M,M,M,M,M,M,M,59.00,KCXP 181215Z AUTO 00000KT 10SM CLR 15/03 A3021 RMK AO2,M
RTS,2024-07-18 12:15,-119.8764,39.6682,1539.00,51.80,23.00,32.17,270.00,4.00,0.00,30.23,M,10.00,M,CLR,M,M,M,M,M,M,M,M,M,M,M,M,M,M,51.80,KRTS 181215Z AUTO 27004KT 10SM CLR 11/M05 A3023 RMK AO2,M
05U,2024-07-18 12:15,-116.0051,39.6042,1811.23,53.60,32.00,43.61,0.00,0.00,0.00,30.27,M,10.00,M,M,M,M,M,M,M,M,M,M,M,M,M,M,M,M,53.60,K05U 181215Z AUTO 00000KT 10SM 12/00 A3027 RMK A01,M
MEV,2024-07-18 12:15,-119.7500,38.9963,1441.42,51.80,41.00,66.48,0.00,0.00,0.00,30.21,M,10.00,M,CLR,M,M,M,M,M,M,M,M,M,M,M,M,M,M,51.80,KMEV 181215Z AUTO 00000KT 10SM CLR 11/05 A3021 RMK AO2,M
BAM,2024-07-18 12:15,-116.8743,40.5990,1382.36,59.00,42.80,54.86,240.00,6.00,0.00,30.16,M,10.00,M,CLR,M,M,M,M,M,M,M,M,M,M,M,M,M,M,59.00,KBAM 181215Z AUTO 24006KT 10SM CLR 15/06 A3016 RMK AO1,M
HTH,2024-07-18 12:15,-118.6315,38.5448,1282.89,68.00,37.40,32.43,220.00,4.00,0.00,30.15,M,10.00,M,CLR,M,M,M,M,M,M,M,M,M,M,M,M,M,M,68.00,KHTH 181215Z AUTO 22004KT 10SM CLR 20/03 A3015 RMK A01,M
TMT,2024-07-18 12:15,-117.1971,39.4643,1749.34,45.30,32.00,59.43,0.00,0.00,0.00,30.25,M,10.00,M,CLR,M,M,M,M,M,M,M,M,M,M,M,M,M,M,45.30,KTMT 181215Z AUTO 00000KT 10SM CLR 07/00 A3025 RMK AO2 T00740000,M
10U,2024-07-18 12:15,-116.1876,41.9532,1637.00,55.40,39.20,54.34,150.00,8.00,0.00,30.22,M,10.00,M,CLR,M,M,M,M,M,M,M,M,M,M,M,M,M,M,55.40,K10U 181215Z AUTO 15008KT 10SM CLR 13/04 A3022 RMK AO2,M
BVU,2024-07-18 12:35,-114.8611,35.9475,671.00,86.00,57.20,37.62,70.00,6.00,0.00,29.93,M,10.00,M,CLR,M,M,M,M,M,M,M,M,M,M,M,M,M,M,84.97,KBVU 181235Z AUTO 07006KT 10SM CLR 30/14 A2993 RMK AO2,M
CXP,2024-07-18 12:35,-119.7326,39.1923,1431.00,59.00,39.20,47.72,0.00,0.00,0.00,30.22,M,10.00,M,CLR,M,M,M,M,M,M,M,M,M,M,M,M,M,M,59.00,KCXP 181235Z AUTO 00000KT 10SM CLR 15/04 A3022 RMK AO2,M
RTS,2024-07-18 12:35,-119.8764,39.6682,1539.00,51.80,23.00,32.17,330.00,5.00,0.00,30.23,M,10.00,M,CLR,M,M,M,M,M,M,M,M,M,M,M,M,M,M,51.80,KRTS 181235Z AUTO 33005KT 10SM CLR 11/M05 A3023 RMK AO2,M
05U,2024-07-18 12:35,-116.0051,39.6042,1811.23,55.40,33.80,43.90,0.00,0.00,0.00,30.27,M,10.00,M,M,M,M,M,M,M,M,M,M,M,M,M,M,M,M,55.40,K05U 181235Z AUTO 00000KT 10SM 13/01 A3027 RMK A01,M
MEV,2024-07-18 12:35,-119.7500,38.9963,1441.42,51.80,41.00,66.48,110.00,4.00,0.00,30.21,M,10.00,M,CLR,M,M,M,M,M,M,M,M,M,M,M,M,M,M,51.80,KMEV 181235Z AUTO 11004KT 10SM CLR 11/05 A3021 RMK AO2,M
HTH,2024-07-18 12:35,-118.6315,38.5448,1282.89,68.00,37.40,32.43,230.00,3.00,0.00,30.16,M,10.00,M,CLR,M,M,M,M,M,M,M,M,M,M,M,M,M,M,68.00,KHTH 181235Z AUTO 23003KT 10SM CLR 20/03 A3016 RMK A01,M
10U,2024-07-18 12:35,-116.1876,41.9532,1637.00,57.20,39.20,50.91,150.00,8.00,0.00,30.22,M,10.00,M,CLR,M,M,M,M,M,M,M,M,M,M,M,M,M,M,57.20,K10U 181235Z AUTO 15008KT 10SM CLR 14/04 A3022 RMK AO2,M
BAM,2024-07-18 12:35,-116.8743,40.5990,1382.36,60.80,41.00,48.00,230.00,4.00,0.00,30.17,M,10.00,M,CLR,M,M,M,M,M,M,M,M,M,M,M,M,M,M,60.80,KBAM 181235Z AUTO 23004KT 10SM CLR 16/05 A3017 RMK AO1,M
TMT,2024-07-18 12:35,-117.1971,39.4643,1749.34,43.00,32.00,64.88,180.00,3.00,0.00,30.26,M,10.00,M,CLR,M,M,M,M,M,M,M,M,M,M,M,M,M,M,41.26,KTMT 181235Z AUTO 18003KT 10SM CLR 06/00 A3026 RMK AO2 T00610000,M
P68,2024-07-18 12:53,-116.0056,39.6014,1993.00,58.00,35.00,41.92,170.00,6.00,0.00,30.25,1015.10,M,M,M,M,M,M,M,M,M,M,M,M,M,M,M,M,M,58.00,KP68 181253Z AUTO 17006KT 14/02 A3025 RMK AO1 SLP151 T01440017,M
DRA,2024-07-18 12:53,-116.0278,36.6206,1009.00,81.00,42.00,25.09,50.00,5.00,0.00,30.02,1010.40,10.00,M,CLR,M,M,M,M,M,M,M,M,M,M,M,M,M,M,79.48,KDRA 181253Z AUTO 05005KT 10SM CLR 27/06 A3002 RMK AO2 SLP104 T02720056,M
ELY,2024-07-18 12:53,-114.8453,39.2950,1909.00,63.00,43.00,47.97,0.00,0.00,0.00,30.30,1015.00,10.00,M,CLR,M,M,M,M,M,M,M,M,M,M,M,M,M,M,63.00,KELY 181253Z AUTO 00000KT 10SM CLR 17/06 A3030 RMK AO2 SLP150 T01720061,M
VGT,2024-07-18 12:53,-115.1933,36.2111,667.00,90.00,51.00,26.43,40.00,6.00,0.00,29.94,1011.90,10.00,M,CLR,M,M,M,M,M,M,M,M,M,M,M,M,M,M,87.22,KVGT 181253Z 04006KT 10SM CLR 32/11 A2994 RMK AO2 SLP119 T03220106,M
LOL,2024-07-18 12:53,-118.5701,40.0684,1192.43,56.00,35.00,45.06,0.00,0.00,0.00,30.12,1016.00,10.00,M,CLR,M,M,M,M,M,M,M,M,M,M,M,M,M,M,56.00,KLOL 181253Z AUTO 00000KT 10SM CLR 13/02 A3012 RMK AO2 SLP160 T01330017,M
NFL,2024-07-18 12:54,-118.7010,39.4166,1199.00,65.00,39.00,38.31,180.00,4.00,0.00,30.12,1016.70,10.00,M,CLR,M,M,M,M,M,M,M,M,M,M,M,M,M,M,65.00,KNFL 181254Z AUTO 18004KT 10SM CLR 18/04 A3012 RMK AO2 SLP167 T01830039,M
BVU,2024-07-18 12:55,-114.8611,35.9475,671.00,86.00,55.40,35.25,70.00,6.00,0.00,29.94,M,10.00,M,CLR,M,M,M,M,M,M,M,M,M,M,M,M,M,M,84.54,KBVU 181255Z AUTO 07006KT 10SM CLR 30/13 A2994 RMK AO2,M
CXP,2024-07-18 12:55,-119.7326,39.1923,1431.00,59.00,37.40,44.47,0.00,0.00,0.00,30.22,M,10.00,M,CLR,M,M,M,M,M,M,M,M,M,M,M,M,M,M,59.00,KCXP 181255Z AUTO 00000KT 10SM CLR 15/03 A3022 RMK AO2,M
RNO,2024-07-18 12:55,-119.7711,39.4839,1341.00,65.00,32.00,29.02,250.00,4.00,0.00,30.20,1016.70,10.00,M,BKN,M,M,M,15000.00,M,M,M,M,M,M,M,M,M,M,65.00,KRNO 181255Z 25004KT 10SM BKN150 18/00 A3020 RMK AO2 SLP167 T01830000,M
LSV,2024-07-18 12:55,-115.0343,36.2362,570.00,89.20,51.00,27.10,70.00,3.00,0.00,29.88,1008.50,10.00,M,BKN,M,M,M,19000.00,M,M,M,M,M,M,M,M,M,M,86.49,KLSV 181255Z AUTO 07003KT 10SM BKN190 32/11 A2988 RMK AO2 SLP085 T03180105 $,M
RTS,2024-07-18 12:55,-119.8764,39.6682,1539.00,51.80,26.60,37.38,360.00,5.00,0.00,30.24,M,10.00,M,CLR,M,M,M,M,M,M,M,M,M,M,M,M,M,M,51.80,KRTS 181255Z AUTO 36005KT 10SM CLR 11/M03 A3024 RMK AO2,M
05U,2024-07-18 12:55,-116.0051,39.6042,1811.23,57.20,33.80,41.13,0.00,0.00,0.00,30.28,M,10.00,M,M,M,M,M,M,M,M,M,M,M,M,M,M,M,M,57.20,K05U 181255Z AUTO 00000KT 10SM 14/01 A3028 RMK A01,M
MEV,2024-07-18 12:55,-119.7500,38.9963,1441.42,51.80,41.00,66.48,120.00,5.00,0.00,30.21,M,10.00,M,CLR,M,M,M,M,M,M,M,M,M,M,M,M,M,M,51.80,KMEV 181255Z AUTO 12005KT 10SM CLR 11/05 A3021 RMK AO2,M
BAM,2024-07-18 12:55,-116.8743,40.5990,1382.36,60.80,41.00,48.00,0.00,0.00,0.00,30.17,M,10.00,M,CLR,M,M,M,M,M,M,M,M,M,M,M,M,M,M,60.80,KBAM 181255Z AUTO 00000KT 10SM CLR 16/05 A3017 RMK AO1,M
HTH,2024-07-18 12:55,-118.6315,38.5448,1282.89,69.80,35.60,28.39,210.00,3.00,0.00,30.16,M,10.00,M,CLR,M,M,M,M,M,M,M,M,M,M,M,M,M,M,69.80,KHTH 181255Z AUTO 21003KT 10SM CLR 21/02 A3016 RMK A01,M
INS,2024-07-18 12:55,-115.6733,36.5872,955.00,81.30,41.00,23.91,0.00,0.00,0.00,30.02,1010.30,10.00,M,FEW,SCT,M,M,16000.00,18000.00,M,M,M,M,M,M,M,M,M,79.61,KINS 181255Z AUTO 00000KT 10SM FEW160 SCT180 27/05 A3002 RMK AO2 SLP103 T02740050 $,M
TMT,2024-07-18 12:55,-117.1971,39.4643,1749.34,44.00,31.50,61.20,160.00,3.00,0.00,30.27,M,10.00,M,CLR,M,M,M,M,M,M,M,M,M,M,M,M,M,M,42.41,KTMT 181255Z AUTO 16003KT 10SM CLR 07/00 A3027 RMK AO2 T00661003,M
10U,2024-07-18 12:55,-116.1876,41.9532,1637.00,57.20,41.00,54.60,140.00,8.00,0.00,30.22,M,10.00,M,CLR,M,M,M,M,M,M,M,M,M,M,M,M,M,M,57.20,K10U 181255Z AUTO 14008KT 10SM CLR 14/05 A3022 RMK AO2,M
EKO,2024-07-18 12:56,-115.7860,40.8242,1367.00,64.00,47.00,53.92,0.00,0.00,0.00,30.19,1015.90,10.00,M,CLR,M,M,M,M,M,M,M,M,M,M,M,M,M,M,64.00,KEKO 181256Z AUTO 00000KT 10SM CLR 18/08 A3019 RMK AO2 SLP159 T01780083,M
WMC,2024-07-18 12:56,-117.8072,40.9019,1315.00,52.00,31.00,44.42,130.00,3.00,0.00,30.15,1016.00,10.00,M,CLR,M,M,M,M,M,M,M,M,M,M,M,M,M,M,52.00,KWMC 181256Z AUTO 13003KT 10SM CLR 11/M01 A3015 RMK AO2 SLP160 T01111006,M
HND,2024-07-18 12:56,-115.1344,35.9729,742.79,88.00,45.00,22.47,200.00,8.00,0.00,29.98,1013.30,10.00,M,CLR,M,M,M,M,M,M,M,M,M,M,M,M,M,M,84.72,KHND 181256Z AUTO 20008KT 10SM CLR 31/07 A2998 RMK AO2 SLP133 T03110072,M
TPH,2024-07-18 12:56,-117.0904,38.0505,1654.00,66.00,34.00,30.37,320.00,6.00,0.00,30.21,1013.80,10.00,M,CLR,M,M,M,M,M,M,M,M,M,M,M,M,M,M,66.00,KTPH 181256Z AUTO 32006KT 10SM CLR 19/01 A3021 RMK AO2 SLP138 T01890011,M
LAS,2024-07-18 12:56,-115.1634,36.0719,663.00,90.00,49.00,24.53,180.00,3.00,0.00,29.94,1007.00,10.00,M,FEW,SCT,M,M,15000.00,20000.00,M,M,M,M,M,M,M,M,M,86.91,KLAS 181256Z 18003KT 10SM FEW150 SCT200 32/09 A2994 RMK AO2 PRESRR SLP070 ACC DSNT NE T03220094 $,M
BVU,2024-07-18 13:15,-114.8611,35.9475,671.00,86.00,57.20,37.62,50.00,5.00,0.00,29.94,M,10.00,M,CLR,M,M,M,M,M,M,M,M,M,M,M,M,M,M,84.97,KBVU 181315Z AUTO 05005KT 10SM CLR 30/14 A2994 RMK AO2,M
CXP,2024-07-18 13:15,-119.7326,39.1923,1431.00,60.80,37.40,41.71,0.00,0.00,0.00,30.23,M,10.00,M,CLR,M,M,M,M,M,M,M,M,M,M,M,M,M,M,60.80,KCXP 181315Z AUTO 00000KT 10SM CLR 16/03 A3023 RMK AO2,M
RTS,2024-07-18 13:15,-119.8764,39.6682,1539.00,55.40,24.80,30.40,0.00,0.00,0.00,30.24,M,10.00,M,CLR,M,M,M,M,M,M,M,M,M,M,M,M,M,M,55.40,KRTS 181315Z AUTO 00000KT 10SM CLR 13/M04 A3024 RMK AO2,M
05U,2024-07-18 13:15,-116.0051,39.6042,1811.23,60.80,33.80,36.16,0.00,0.00,0.00,30.28,M,10.00,M,M,M,M,M,M,M,M,M,M,M,M,M,M,M,M,60.80,K05U 181315Z AUTO 00000KT 10SM 16/01 A3028 RMK A01,M
MEV,2024-07-18 13:15,-119.7500,38.9963,1441.42,55.40,39.20,54.34,0.00,0.00,0.00,30.22,M,10.00,M,CLR,M,M,M,M,M,M,M,M,M,M,M,M,M,M,55.40,KMEV 181315Z AUTO 00000KT 10SM CLR 13/04 A3022 RMK AO2,M
BAM,2024-07-18 13:15,-116.8743,40.5990,1382.36,59.00,41.00,51.18,150.00,3.00,0.00,30.18,M,10.00,M,CLR,M,M,M,M,M,M,M,M,M,M,M,M,M,M,59.00,KBAM 181315Z AUTO 15003KT 10SM CLR 15/05 A3018 RMK AO1,M
HTH,2024-07-18 13:15,-118.6315,38.5448,1282.89,68.00,37.40,32.43,160.00,4.00,0.00,30.16,M,10.00,M,CLR,M,M,M,M,M,M,M,M,M,M,M,M,M,M,68.00,KHTH 181315Z AUTO 16004KT 10SM CLR 20/03 A3016 RMK A01,M
TMT,2024-07-18 13:15,-117.1971,39.4643,1749.34,45.30,32.50,60.64,150.00,3.00,0.00,30.27,M,10.00,M,CLR,M,M,M,M,M,M,M,M,M,M,M,M,M,M,43.89,KTMT 181315Z AUTO 15003KT 10SM CLR 07/00 A3027 RMK AO2 T00740003,M
10U,2024-07-18 13:15,-116.1876,41.9532,1637.00,60.80,41.00,48.00,150.00,6.00,0.00,30.23,M,10.00,M,CLR,M,M,M,M,M,M,M,M,M,M,M,M,M,M,60.80,K10U 181315Z AUTO 15006KT 10SM CLR 16/05 A3023 RMK AO2,M
BVU,2024-07-18 13:35,-114.8611,35.9475,671.00,86.00,59.00,40.14,50.00,4.00,0.00,29.95,M,10.00,M,CLR,M,M,M,M,M,M,M,M,M,M,M,M,M,M,85.47,KBVU 181335Z AUTO 05004KT 10SM CLR 30/15 A2995 RMK AO2,M
CXP,2024-07-18 13:35,-119.7326,39.1923,1431.00,60.80,37.40,41.71,0.00,0.00,0.00,30.23,M,10.00,M,CLR,M,M,M,M,M,M,M,M,M,M,M,M,M,M,60.80,KCXP 181335Z AUTO 00000KT 10SM CLR 16/03 A3023 RMK AO2,M
RTS,2024-07-18 13:35,-119.8764,39.6682,1539.00,55.40,23.00,28.20,0.00,0.00,0.00,30.25,M,10.00,M,CLR,M,M,M,M,M,M,M,M,M,M,M,M,M,M,55.40,KRTS 181335Z AUTO 00000KT 10SM CLR 13/M05 A3025 RMK AO2,M
05U,2024-07-18 13:35,-116.0051,39.6042,1811.23,62.60,33.80,33.93,0.00,0.00,0.00,30.28,M,10.00,M,M,M,M,M,M,M,M,M,M,M,M,M,M,M,M,62.60,K05U 181335Z AUTO 00000KT 10SM 17/01 A3028 RMK A01,M
MEV,2024-07-18 13:35,-119.7500,38.9963,1441.42,55.40,39.20,54.34,270.00,3.00,0.00,30.22,M,10.00,M,CLR,M,M,M,M,M,M,M,M,M,M,M,M,M,M,55.40,KMEV 181335Z AUTO 27003KT 10SM CLR 13/04 A3022 RMK AO2,M
HTH,2024-07-18 13:35,-118.6315,38.5448,1282.89,71.60,35.60,26.71,190.00,4.00,0.00,30.17,M,10.00,M,CLR,M,M,M,M,M,M,M,M,M,M,M,M,M,M,71.60,KHTH 181335Z AUTO 19004KT 10SM CLR 22/02 A3017 RMK A01,M
10U,2024-07-18 13:35,-116.1876,41.9532,1637.00,60.80,41.00,48.00,150.00,5.00,0.00,30.23,M,10.00,M,CLR,M,M,M,M,M,M,M,M,M,M,M,M,M,M,60.80,K10U 181335Z AUTO 15005KT 10SM CLR 16/05 A3023 RMK AO2,M
BAM,2024-07-18 13:35,-116.8743,40.5990,1382.36,59.00,42.80,54.86,0.00,0.00,0.00,30.18,M,10.00,M,CLR,M,M,M,M,M,M,M,M,M,M,M,M,M,M,59.00,KBAM 181335Z AUTO 00000KT 10SM CLR 15/06 A3018 RMK AO1,M
TMT,2024-07-18 13:35,-117.1971,39.4643,1749.34,50.70,35.40,55.60,0.00,0.00,0.00,30.27,M,10.00,M,CLR,M,M,M,M,M,M,M,M,M,M,M,M,M,M,50.70,KTMT 181335Z AUTO 00000KT 10SM CLR 10/02 A3027 RMK AO2 T01040019,M
05U,2024-07-18 13:50,-116.0051,39.6042,1811.23,64.40,33.80,31.85,0.00,0.00,0.00,30.28,M,10.00,M,M,M,M,M,M,M,M,M,M,M,M,M,M,M,M,64.40,K05U 181350Z AUTO 00000KT 10SM 18/01 A3028 RMK A01,M
10U,2024-07-18 13:50,-116.1876,41.9532,1637.00,64.40,41.00,42.28,150.00,5.00,0.00,30.23,M,10.00,M,CLR,M,M,M,M,M,M,M,M,M,M,M,M,M,M,64.40,K10U 181350Z AUTO 15005KT 10SM CLR 18/05 A3023 RMK AO2,M
P68,2024-07-18 13:53,-116.0056,39.6014,1993.00,64.00,35.00,33.89,250.00,3.00,0.00,30.26,1015.00,M,M,M,M,M,M,M,M,M,M,M,M,M,M,M,M,M,64.00,KP68 181353Z AUTO 25003KT 18/02 A3026 RMK AO1 SLP150 T01780017,M
DRA,2024-07-18 13:53,-116.0278,36.6206,1009.00,86.00,44.00,23.05,0.00,0.00,0.00,30.03,1010.80,10.00,M,CLR,M,M,M,M,M,M,M,M,M,M,M,M,M,M,83.03,KDRA 181353Z AUTO 00000KT 10SM CLR 30/07 A3003 RMK AO2 SLP108 T03000067,M
ELY,2024-07-18 13:53,-114.8453,39.2950,1909.00,64.00,43.00,46.32,220.00,3.00,0.00,30.31,1015.20,10.00,M,CLR,M,M,M,M,M,M,M,M,M,M,M,M,M,M,64.00,KELY 181353Z AUTO 22003KT 10SM CLR 18/06 A3031 RMK AO2 SLP152 T01780061,M
VGT,2024-07-18 13:53,-115.1933,36.2111,667.00,93.00,55.00,27.87,0.00,0.00,0.00,29.95,1012.50,10.00,M,CLR,M,M,M,M,M,M,M,M,M,M,M,M,M,M,91.03,KVGT 181353Z 00000KT 10SM CLR 34/13 A2995 RMK AO2 SLP125 T03390128,M
LOL,2024-07-18 13:53,-118.5701,40.0684,1192.43,62.00,36.00,37.83,0.00,0.00,0.00,30.13,1015.90,10.00,M,CLR,M,M,M,M,M,M,M,M,M,M,M,M,M,M,62.00,KLOL 181353Z AUTO 00000KT 10SM CLR 17/02 A3013 RMK AO2 SLP159 T01670022,M
BVU,2024-07-18 13:55,-114.8611,35.9475,671.00,87.80,59.00,37.90,0.00,0.00,0.00,29.95,M,10.00,M,CLR,M,M,M,M,M,M,M,M,M,M,M,M,M,M,87.12,KBVU 181355Z AUTO 00000KT 10SM CLR 31/15 A2995 RMK AO2,M
CXP,2024-07-18 13:55,-119.7326,39.1923,1431.00,60.80,35.60,38.85,0.00,0.00,0.00,30.24,M,10.00,M,CLR,M,M,M,M,M,M,M,M,M,M,M,M,M,M,60.80,KCXP 181355Z AUTO 00000KT 10SM CLR 16/02 A3024 RMK AO2,M
RNO,2024-07-18 13:55,-119.7711,39.4839,1341.00,64.00,32.00,30.05,260.00,5.00,0.00,30.21,1017.20,10.00,M,FEW,BKN,M,M,10000.00,15000.00,M,M,M,M,M,M,M,M,M,64.00,KRNO 181355Z 26005KT 10SM FEW100 BKN150 18/00 A3021 RMK AO2 SLP172 T01780000,M
LSV,2024-07-18 13:55,-115.0343,36.2362,570.00,92.70,53.80,26.92,0.00,0.00,0.00,29.90,1009.10,10.00,M,FEW,M,M,M,20000.00,M,M,M,M,M,M,M,M,M,M,90.41,KLSV 181355Z AUTO 00000KT 10SM FEW200 34/12 A2990 RMK AO2 SLP091 T03370121 $,M
RTS,2024-07-18 13:55,-119.8764,39.6682,1539.00,53.60,23.00,30.11,0.00,0.00,0.00,30.25,M,10.00,M,CLR,M,M,M,M,M,M,M,M,M,M,M,M,M,M,53.60,KRTS 181355Z AUTO 00000KT 10SM CLR 12/M05 A3025 RMK AO2,M
MEV,2024-07-18 13:55,-119.7500,38.9963,1441.42,55.40,41.00,58.27,0.00,0.00,0.00,30.22,M,10.00,M,CLR,M,M,M,M,M,M,M,M,M,M,M,M,M,M,55.40,KMEV 181355Z AUTO 00000KT 10SM CLR 13/05 A3022 RMK AO2,M
HTH,2024-07-18 13:55,-118.6315,38.5448,1282.89,71.60,37.40,28.68,190.00,3.00,0.00,30.17,M,10.00,M,CLR,M,M,M,M,M,M,M,M,M,M,M,M,M,M,71.60,KHTH 181355Z AUTO 19003KT 10SM CLR 22/03 A3017 RMK A01,M
BAM,2024-07-18 13:55,-116.8743,40.5990,1382.36,64.40,42.80,45.32,240.00,4.00,0.00,30.18,M,10.00,M,CLR,M,M,M,M,M,M,M,M,M,M,M,M,M,M,64.40,KBAM 181355Z AUTO 24004KT 10SM CLR 18/06 A3018 RMK AO1,M
TMT,2024-07-18 13:55,-117.1971,39.4643,1749.34,54.30,36.00,49.87,0.00,0.00,0.00,30.28,M,10.00,M,CLR,M,M,M,M,M,M,M,M,M,M,M,M,M,M,54.30,KTMT 181355Z AUTO 00000KT 10SM CLR 12/02 A3028 RMK AO2 T01240023,M
INS,2024-07-18 13:55,-115.6733,36.5872,955.00,82.80,41.00,22.77,0.00,0.00,0.00,30.03,1010.60,10.00,M,FEW,SCT,M,M,14000.00,18000.00,M,M,M,M,M,M,M,M,M,80.55,KINS 181355Z AUTO 00000KT 10SM FEW140 SCT180 28/05 A3003 RMK AO2 SLP106 T02820051 $,M
EKO,2024-07-18 13:56,-115.7860,40.8242,1367.00,67.00,46.00,46.78,70.00,4.00,0.00,30.21,1016.50,10.00,M,CLR,M,M,M,M,M,M,M,M,M,M,M,M,M,M,67.00,KEKO 181356Z AUTO 07004KT 10SM CLR 19/08 A3021 RMK AO2 SLP165 T01940078,M
WMC,2024-07-18 13:56,-117.8072,40.9019,1315.00,59.00,29.00,31.76,170.00,3.00,0.00,30.16,1016.20,10.00,M,CLR,M,M,M,M,M,M,M,M,M,M,M,M,M,M,59.00,KWMC 181356Z AUTO 17003KT 10SM CLR 15/M02 A3016 RMK AO2 SLP162 T01501017,M
HND,2024-07-18 13:56,-115.1344,35.9729,742.79,89.00,49.00,25.32,170.00,4.00,0.00,30.00,1013.90,10.00,M,CLR,M,M,M,M,M,M,M,M,M,M,M,M,M,M,86.01,KHND 181356Z 17004KT 10SM CLR 32/09 A3000 RMK AO2 SLP139 T03170094,M
TPH,2024-07-18 13:56,-117.0904,38.0505,1654.00,68.00,35.00,29.49,350.00,10.00,0.00,30.23,1014.40,10.00,M,FEW,FEW,BKN,M,7500.00,10000.00,12000.00,M,M,M,M,M,M,M,M,68.00,KTPH 181356Z AUTO 35010KT 10SM FEW075 FEW100 BKN120 20/02 A3023 RMK AO2 SLP144 T02000017,M
LAS,2024-07-18 13:56,-115.1634,36.0719,663.00,92.00,48.00,22.19,210.00,4.00,0.00,29.96,1007.80,10.00,M,FEW,SCT,M,M,15000.00,20000.00,M,M,M,M,M,M,M,M,M,88.63,KLAS 181356Z 21004KT 10SM FEW150 SCT200 33/09 A2996 RMK AO2 SLP078 T03330089 $,M
BVU,2024-07-18 14:15,-114.8611,35.9475,671.00,91.40,53.60,27.83,0.00,0.00,0.00,29.96,M,10.00,M,CLR,M,M,M,M,M,M,M,M,M,M,M,M,M,M,89.08,KBVU 181415Z AUTO 00000KT 10SM CLR 33/12 A2996 RMK AO2,M
CXP,2024-07-18 14:15,-119.7326,39.1923,1431.00,62.60,37.40,39.14,0.00,0.00,0.00,30.24,M,10.00,M,CLR,M,M,M,M,M,M,M,M,M,M,M,M,M,M,62.60,KCXP 181415Z AUTO 00000KT 10SM CLR 17/03 A3024 RMK AO2,M
RTS,2024-07-18 14:15,-119.8764,39.6682,1539.00,53.60,24.80,32.46,0.00,0.00,0.00,30.25,M,10.00,M,CLR,M,M,M,M,M,M,M,M,M,M,M,M,M,M,53.60,KRTS 181415Z AUTO 00000KT 10SM CLR 12/M04 A3025 RMK AO2,M
05U,2024-07-18 14:15,-116.0051,39.6042,1811.23,66.20,33.80,29.92,0.00,0.00,0.00,30.28,M,10.00,M,M,M,M,M,M,M,M,M,M,M,M,M,M,M,M,66.20,K05U 181415Z AUTO 00000KT 10SM 19/01 A3028 RMK A01,M
MEV,2024-07-18 14:15,-119.7500,38.9963,1441.42,59.00,41.00,51.18,0.00,0.00,0.00,30.22,M,10.00,M,CLR,M,M,M,M,M,M,M,M,M,M,M,M,M,M,59.00,KMEV 181415Z AUTO 00000KT 10SM CLR 15/05 A3022 RMK AO2,M
HTH,2024-07-18 14:15,-118.6315,38.5448,1282.89,73.40,39.20,28.96,0.00,0.00,0.00,30.18,M,10.00,M,CLR,M,M,M,M,M,M,M,M,M,M,M,M,M,M,73.40,KHTH 181415Z AUTO 00000KT 10SM CLR 23/04 A3018 RMK A01,M
10U,2024-07-18 14:15,-116.1876,41.9532,1637.00,68.00,41.00,37.32,160.00,4.00,0.00,30.23,M,10.00,M,CLR,M,M,M,M,M,M,M,M,M,M,M,M,M,M,68.00,K10U 181415Z AUTO 16004KT 10SM CLR 20/05 A3023 RMK AO2,M
BAM,2024-07-18 14:15,-116.8743,40.5990,1382.36,68.00,42.80,40.00,0.00,0.00,0.00,30.19,M,10.00,M,CLR,M,M,M,M,M,M,M,M,M,M,M,M,M,M,68.00,KBAM 181415Z AUTO 00000KT 10SM CLR 20/06 A3019 RMK AO1,M
TMT,2024-07-18 14:15,-117.1971,39.4643,1749.34,59.00,37.00,43.78,0.00,0.00,0.00,30.28,M,10.00,M,CLR,M,M,M,M,M,M,M,M,M,M,M,M,M,M,59.00,KTMT 181415Z AUTO 00000KT 10SM CLR 15/03 A3028 RMK AO2 T01500028,M
BVU,2024-07-18 14:35,-114.8611,35.9475,671.00,93.20,51.80,24.63,0.00,0.00,0.00,29.96,M,10.00,M,CLR,M,M,M,M,M,M,M,M,M,M,M,M,M,M,90.45,KBVU 181435Z AUTO 00000KT 10SM CLR 34/11 A2996 RMK AO2,M
CXP,2024-07-18 14:35,-119.7326,39.1923,1431.00,62.60,37.40,39.14,0.00,0.00,0.00,30.24,M,10.00,M,CLR,M,M,M,M,M,M,M,M,M,M,M,M,M,M,62.60,KCXP 181435Z AUTO 00000KT 10SM CLR 17/03 A3024 RMK AO2,M
RTS,2024-07-18 14:35,-119.8764,39.6682,1539.00,59.00,26.60,28.77,330.00,3.00,0.00,30.26,M,10.00,M,CLR,M,M,M,M,M,M,M,M,M,M,M,M,M,M,59.00,KRTS 181435Z AUTO 33003KT 10SM CLR 15/M03 A3026 RMK AO2,M
05U,2024-07-18 14:35,-116.0051,39.6042,1811.23,71.60,33.80,24.86,0.00,0.00,0.00,30.29,M,10.00,M,M,M,M,M,M,M,M,M,M,M,M,M,M,M,M,71.60,K05U 181435Z AUTO 00000KT 10SM 22/01 A3029 RMK A01,M
MEV,2024-07-18 14:35,-119.7500,38.9963,1441.42,57.20,44.60,62.69,0.00,0.00,0.00,30.22,M,10.00,M,CLR,M,M,M,M,M,M,M,M,M,M,M,M,M,M,57.20,KMEV 181435Z AUTO 00000KT 10SM CLR 14/07 A3022 RMK AO2,M
HTH,2024-07-18 14:35,-118.6315,38.5448,1282.89,75.20,41.00,29.23,0.00,0.00,0.00,30.19,M,10.00,M,CLR,M,M,M,M,M,M,M,M,M,M,M,M,M,M,75.20,KHTH 181435Z AUTO 00000KT 10SM CLR 24/05 A3019 RMK A01,M
10U,2024-07-18 14:35,-116.1876,41.9532,1637.00,69.80,41.00,35.09,140.00,3.00,0.00,30.24,M,10.00,M,CLR,M,M,M,M,M,M,M,M,M,M,M,M,M,M,69.80,K10U 181435Z AUTO 14003KT 10SM CLR 21/05 A3024 RMK AO2,M
BAM,2024-07-18 14:35,-116.8743,40.5990,1382.36,69.80,41.00,35.09,0.00,0.00,0.00,30.19,M,10.00,M,CLR,M,M,M,M,M,M,M,M,M,M,M,M,M,M,69.80,KBAM 181435Z AUTO 00000KT 10SM CLR 21/05 A3019 RMK AO1,M
P68,2024-07-18 14:53,-116.0056,39.6014,1993.00,76.00,36.00,23.40,250.00,5.00,0.00,30.27,1014.60,M,M,M,M,M,M,M,M,M,M,M,M,M,M,M,M,M,76.00,KP68 181453Z AUTO 25005KT 24/02 A3027 RMK AO1 SLP146 T02440022 52006,M
DRA,2024-07-18 14:53,-116.0278,36.6206,1009.00,90.00,44.00,20.31,190.00,4.00,0.00,30.05,1011.40,10.00,M,CLR,M,M,M,M,M,M,M,M,M,M,M,M,M,M,86.37,KDRA 181453Z AUTO 19004KT 10SM CLR 32/07 A3005 RMK AO2 SLP114 T03220067 52014,M
ELY,2024-07-18 14:53,-114.8453,39.2950,1909.00,75.00,44.00,33.03,0.00,0.00,0.00,30.32,1015.00,10.00,M,CLR,M,M,M,M,M,M,M,M,M,M,M,M,M,M,75.00,KELY 181453Z AUTO 00000KT 10SM CLR 24/07 A3032 RMK AO2 SLP150 T02390067 51011,M
VGT,2024-07-18 14:53,-115.1933,36.2111,667.00,94.00,49.00,21.65,90.00,4.00,0.00,29.97,1013.20,10.00,M,CLR,M,M,M,M,M,M,M,M,M,M,M,M,M,M,90.71,KVGT 181453Z 09004KT 10SM CLR 34/09 A2997 RMK AO2 SLP132 T03440094 53018,M
LOL,2024-07-18 14:53,-118.5701,40.0684,1192.43,70.00,33.00,25.42,0.00,0.00,0.00,30.14,1016.10,10.00,M,CLR,M,M,M,M,M,M,M,M,M,M,M,M,M,M,70.00,KLOL 181453Z AUTO 00000KT 10SM CLR 21/01 A3014 RMK AO2 SLP161 T02110006 53008,M
NFL,2024-07-18 14:54,-118.7010,39.4166,1199.00,75.00,34.00,22.35,240.00,3.00,0.00,30.15,1017.60,10.00,M,FEW,BKN,M,M,8000.00,15000.00,M,M,M,M,M,M,M,M,M,75.00,KNFL 181454Z 24003KT 10SM FEW080 BKN150 24/01 A3015 RMK AO2 SLP176 FU ALOFT SE-SW T02390011 53011,M
BVU,2024-07-18 14:55,-114.8611,35.9475,671.00,93.20,51.80,24.63,0.00,0.00,0.00,29.97,M,10.00,M,CLR,M,M,M,M,M,M,M,M,M,M,M,M,M,M,90.45,KBVU 181455Z AUTO 00000KT 10SM CLR 34/11 A2997 RMK AO2,M
CXP,2024-07-18 14:55,-119.7326,39.1923,1431.00,64.40,37.40,36.74,0.00,0.00,0.00,30.24,M,10.00,M,CLR,M,M,M,M,M,M,M,M,M,M,M,M,M,M,64.40,KCXP 181455Z AUTO 00000KT 10SM CLR 18/03 A3024 RMK AO2,M
INS,2024-07-18 14:55,-115.6733,36.5872,955.00,87.60,41.50,19.90,0.00,0.00,0.00,30.04,1010.80,10.00,M,FEW,M,M,M,19000.00,M,M,M,M,M,M,M,M,M,M,84.16,KINS 181455Z AUTO 00000KT 10SM FEW190 31/05 A3004 RMK AO2 SLP108 T03090053 52014 $,M
RNO,2024-07-18 14:55,-119.7711,39.4839,1341.00,68.00,33.00,27.23,0.00,0.00,0.00,30.22,1017.50,10.00,M,SCT,M,M,M,12000.00,M,M,M,M,M,M,M,M,M,M,68.00,KRNO 181455Z 00000KT 10SM SCT120 20/01 A3022 RMK AO2 SLP175 T02000006 53007,M
LSV,2024-07-18 14:55,-115.0343,36.2362,570.00,95.50,42.00,15.85,240.00,3.00,0.00,29.92,1009.70,10.00,M,CLR,M,M,M,M,M,M,M,M,M,M,M,M,M,M,91.26,KLSV 181455Z AUTO 24003KT 10SM CLR 35/06 A2992 RMK AO2 SLP097 T03530056 52020 $,M
RTS,2024-07-18 14:55,-119.8764,39.6682,1539.00,62.60,24.80,23.50,0.00,0.00,0.00,30.26,M,10.00,M,CLR,M,M,M,M,M,M,M,M,M,M,M,M,M,M,62.60,KRTS 181455Z AUTO 00000KT 10SM CLR 17/M04 A3026 RMK AO2,M
05U,2024-07-18 14:55,-116.0051,39.6042,1811.23,77.00,35.60,22.28,0.00,0.00,0.00,30.29,M,10.00,M,M,M,M,M,M,M,M,M,M,M,M,M,M,M,M,77.00,K05U 181455Z AUTO 00000KT 10SM 25/02 A3029 RMK A01,M
MEV,2024-07-18 14:55,-119.7500,38.9963,1441.42,62.60,44.60,51.72,100.00,4.00,0.00,30.23,M,10.00,M,CLR,M,M,M,M,M,M,M,M,M,M,M,M,M,M,62.60,KMEV 181455Z AUTO 10004KT 10SM CLR 17/07 A3023 RMK AO2,M
BAM,2024-07-18 14:55,-116.8743,40.5990,1382.36,71.60,41.00,33.00,0.00,0.00,0.00,30.20,M,10.00,M,CLR,M,M,M,M,M,M,M,M,M,M,M,M,M,M,71.60,KBAM 181455Z AUTO 00000KT 10SM CLR 22/05 A3020 RMK AO1,M
HTH,2024-07-18 14:55,-118.6315,38.5448,1282.89,75.20,39.20,27.26,0.00,0.00,0.00,30.19,M,10.00,M,CLR,M,M,M,M,M,M,M,M,M,M,M,M,M,M,75.20,KHTH 181455Z AUTO 00000KT 10SM CLR 24/04 A3019 RMK A01,M
10U,2024-07-18 14:55,-116.1876,41.9532,1637.00,73.40,35.60,25.13,0.00,0.00,0.00,30.25,M,10.00,M,CLR,M,M,M,M,M,M,M,M,M,M,M,M,M,M,73.40,K10U 181455Z AUTO 00000KT 10SM CLR 23/02 A3025 RMK AO2,M
TMT,2024-07-18 14:55,-117.1971,39.4643,1749.34,63.70,40.00,41.68,0.00,0.00,0.00,30.28,M,10.00,M,CLR,M,M,M,M,M,M,M,M,M,M,M,M,M,M,63.70,KTMT 181455Z AUTO 00000KT 10SM CLR 18/04 A3028 RMK AO2 T01760044,M
EKO,2024-07-18 14:56,-115.7860,40.8242,1367.00,71.00,49.00,45.66,190.00,3.00,0.00,30.22,1016.90,10.00,M,CLR,M,M,M,M,M,M,M,M,M,M,M,M,M,M,71.00,KEKO 181456Z AUTO 19003KT 10SM CLR 22/09 A3022 RMK AO2 SLP169 T02170094 52013,M
WMC,2024-07-18 14:56,-117.8072,40.9019,1315.00,70.00,32.00,24.42,150.00,4.00,0.00,30.17,1016.10,10.00,M,CLR,M,M,M,M,M,M,M,M,M,M,M,M,M,M,70.00,KWMC 181456Z AUTO 15004KT 10SM CLR 21/00 A3017 RMK AO2 SLP161 T02110000 53008,M
HND,2024-07-18 14:56,-115.1344,35.9729,742.79,95.00,44.00,17.38,250.00,6.00,0.00,30.02,1014.40,10.00,M,CLR,M,M,M,M,M,M,M,M,M,M,M,M,M,M,90.99,KHND 181456Z 25006KT 10SM CLR 35/07 A3002 RMK AO2 SLP144 T03500067 53017,M
TPH,2024-07-18 14:56,-117.0904,38.0505,1654.00,77.00,35.00,21.76,20.00,5.00,0.00,30.25,1014.70,10.00,M,FEW,FEW,M,M,9000.00,12000.00,M,M,M,M,M,M,M,M,M,77.00,KTPH 181456Z AUTO 02005KT 10SM FEW090 FEW120 25/02 A3025 RMK AO2 SLP147 T02500017 53009,M
LAS,2024-07-18 14:56,-115.1634,36.0719,663.00,94.00,51.00,23.33,270.00,4.00,0.00,29.98,1008.00,10.00,M,FEW,FEW,M,M,15000.00,20000.00,M,M,M,M,M,M,M,M,M,91.08,KLAS 181456Z 27004KT 10SM FEW150 FEW200 34/11 A2998 RMK AO2 SLP080 T03440106 51022 $,M
BVU,2024-07-18 15:15,-114.8611,35.9475,671.00,95.00,51.80,23.30,0.00,0.00,0.00,29.97,M,10.00,M,CLR,M,M,M,M,M,M,M,M,M,M,M,M,M,M,92.26,KBVU 181515Z AUTO 00000KT 10SM CLR 35/11 A2997 RMK AO2,M
CXP,2024-07-18 15:15,-119.7326,39.1923,1431.00,68.00,39.20,34.80,0.00,0.00,0.00,30.24,M,10.00,M,CLR,M,M,M,M,M,M,M,M,M,M,M,M,M,M,68.00,KCXP 181515Z AUTO 00000KT 10SM CLR 20/04 A3024 RMK AO2,M
RTS,2024-07-18 15:15,-119.8764,39.6682,1539.00,66.20,24.80,20.72,0.00,0.00,0.00,30.26,M,10.00,M,CLR,M,M,M,M,M,M,M,M,M,M,M,M,M,M,66.20,KRTS 181515Z AUTO 00000KT 10SM CLR 19/M04 A3026 RMK AO2,M
05U,2024-07-18 15:15,-116.0051,39.6042,1811.23,77.00,37.40,23.93,270.00,7.00,0.00,30.29,M,10.00,M,M,M,M,M,M,M,M,M,M,M,M,M,M,M,M,77.00,K05U 181515Z AUTO 27007KT 10SM 25/03 A3029 RMK A01,M
MEV,2024-07-18 15:15,-119.7500,38.9963,1441.42,66.20,39.20,37.03,0.00,0.00,0.00,30.23,M,10.00,M,CLR,M,M,M,M,M,M,M,M,M,M,M,M,M,M,66.20,KMEV 181515Z AUTO 00000KT 10SM CLR 19/04 A3023 RMK AO2,M
BAM,2024-07-18 15:15,-116.8743,40.5990,1382.36,75.20,41.00,29.23,0.00,0.00,0.00,30.19,M,10.00,M,CLR,M,M,M,M,M,M,M,M,M,M,M,M,M,M,75.20,KBAM 181515Z AUTO 00000KT 10SM CLR 24/05 A3019 RMK AO1,M
HTH,2024-07-18 15:15,-118.6315,38.5448,1282.89,73.40,37.40,26.98,0.00,0.00,0.00,30.19,M,10.00,M,CLR,M,M,M,M,M,M,M,M,M,M,M,M,M,M,73.40,KHTH 181515Z AUTO 00000KT 10SM CLR 23/03 A3019 RMK A01,M
10U,2024-07-18 15:15,-116.1876,41.9532,1637.00,75.20,33.80,22.02,180.00,5.00,0.00,30.24,M,10.00,M,CLR,M,M,M,M,M,M,M,M,M,M,M,M,M,M,75.20,K10U 181515Z AUTO 18005KT 10SM CLR 24/01 A3024 RMK AO2,M
TMT,2024-07-18 15:15,-117.1971,39.4643,1749.34,65.70,40.00,38.87,260.00,3.00,0.00,30.28,M,10.00,M,CLR,M,M,M,M,M,M,M,M,M,M,M,M,M,M,65.70,KTMT 181515Z AUTO 26003KT 10SM CLR 19/04 A3028 RMK AO2 T01870044,M
BVU,2024-07-18 15:35,-114.8611,35.9475,671.00,95.00,51.80,23.30,0.00,0.00,0.00,29.97,M,10.00,M,CLR,M,M,M,M,M,M,M,M,M,M,M,M,M,M,92.26,KBVU 181535Z AUTO 00000KT 10SM CLR 35/11 A2997 RMK AO2,M
CXP,2024-07-18 15:35,-119.7326,39.1923,1431.00,69.80,37.40,30.49,0.00,0.00,0.00,30.24,M,9.00,M,CLR,M,M,M,M,M,M,M,M,M,M,M,M,M,M,69.80,KCXP 181535Z AUTO 00000KT 9SM CLR 21/03 A3024 RMK AO2,M
RTS,2024-07-18 15:35,-119.8764,39.6682,1539.00,68.00,24.80,19.47,0.00,0.00,0.00,30.25,M,10.00,M,FEW,M,M,M,12000.00,M,M,M,M,M,M,M,M,M,M,68.00,KRTS 181535Z AUTO 00000KT 10SM FEW120 20/M04 A3025 RMK AO2,M
05U,2024-07-18 15:35,-116.0051,39.6042,1811.23,80.60,37.40,21.25,0.00,0.00,0.00,30.29,M,10.00,M,M,M,M,M,M,M,M,M,M,M,M,M,M,M,M,79.02,K05U 181535Z AUTO 00000KT 10SM 27/03 A3029 RMK A01,M
MEV,2024-07-18 15:35,-119.7500,38.9963,1441.42,68.00,35.60,30.20,0.00,0.00,0.00,30.23,M,10.00,M,CLR,M,M,M,M,M,M,M,M,M,M,M,M,M,M,68.00,KMEV 181535Z AUTO 00000KT 10SM CLR 20/02 A3023 RMK AO2,M
HTH,2024-07-18 15:35,-118.6315,38.5448,1282.89,75.20,41.00,29.23,0.00,0.00,0.00,30.20,M,10.00,M,CLR,M,M,M,M,M,M,M,M,M,M,M,M,M,M,75.20,KHTH 181535Z AUTO 00000KT 10SM CLR 24/05 A3020 RMK A01,M
10U,2024-07-18 15:35,-116.1876,41.9532,1637.00,78.80,32.00,18.18,190.00,5.00,0.00,30.24,M,10.00,M,CLR,M,M,M,M,M,M,M,M,M,M,M,M,M,M,78.80,K10U 181535Z AUTO 19005KT 10SM CLR 26/M00 A3024 RMK AO2,M
BAM,2024-07-18 15:35,-116.8743,40.5990,1382.36,77.00,35.60,22.28,0.00,0.00,0.00,30.19,M,10.00,M,CLR,M,M,M,M,M,M,M,M,M,M,M,M,M,M,77.00,KBAM 181535Z AUTO 00000KT 10SM CLR 25/02 A3019 RMK AO1,M
10U,2024-07-18 15:50,-116.1876,41.9532,1637.00,78.80,28.40,15.71,0.00,0.00,0.00,30.24,M,10.00,M,CLR,M,M,M,M,M,M,M,M,M,M,M,M,M,M,78.80,K10U 181550Z AUTO 00000KT 10SM CLR 26/M02 A3024 RMK AO2,M
P68,2024-07-18 15:53,-116.0056,39.6014,1993.00,84.00,38.00,19.49,20.00,4.00,0.00,30.26,1014.00,M,M,M,M,M,M,M,M,M,M,M,M,M,M,M,M,M,81.26,KP68 181553Z AUTO 02004KT 29/03 A3026 RMK AO1 SLP140 T02890033,M
DRA,2024-07-18 15:53,-116.0278,36.6206,1009.00,94.00,43.00,17.25,260.00,4.00,0.00,30.05,1011.40,10.00,M,CLR,M,M,M,M,M,M,M,M,M,M,M,M,M,M,89.94,KDRA 181553Z AUTO 26004KT 10SM CLR 34/06 A3005 RMK AO2 SLP114 T03440061,M
ELY,2024-07-18 15:53,-114.8453,39.2950,1909.00,81.00,45.00,28.15,210.00,9.00,0.00,30.31,1014.60,10.00,M,CLR,M,M,M,M,M,M,M,M,M,M,M,M,M,M,79.68,KELY 181553Z AUTO 21009KT 10SM CLR 27/07 A3031 RMK AO2 SLP146 T02720072,M
VGT,2024-07-18 15:53,-115.1933,36.2111,667.00,97.00,51.00,21.27,130.00,4.00,0.00,29.98,1013.30,10.00,M,CLR,M,M,M,M,M,M,M,M,M,M,M,M,M,M,94.14,KVGT 181553Z 13004KT 10SM CLR 36/11 A2998 RMK AO2 SLP133 T03610106,M
LOL,2024-07-18 15:53,-118.5701,40.0684,1192.43,76.00,34.00,21.62,310.00,3.00,0.00,30.15,1016.30,10.00,M,CLR,M,M,M,M,M,M,M,M,M,M,M,M,M,M,76.00,KLOL 181553Z AUTO 31003KT 10SM CLR 24/01 A3015 RMK AO2 SLP163 T02440011,M
NFL,2024-07-18 15:54,-118.7010,39.4166,1199.00,81.00,34.00,18.33,240.00,6.00,0.00,30.16,1017.70,10.00,M,SCT,SCT,M,M,10000.00,15000.00,M,M,M,M,M,M,M,M,M,79.13,KNFL 181554Z 24006KT 10SM SCT100 SCT150 27/01 A3016 RMK SLP177 T02720011,M
BVU,2024-07-18 15:55,-114.8611,35.9475,671.00,96.80,51.80,22.04,0.00,0.00,0.00,29.97,M,10.00,M,CLR,M,M,M,M,M,M,M,M,M,M,M,M,M,M,94.12,KBVU 181555Z AUTO 00000KT 10SM CLR 36/11 A2997 RMK AO2,M
CXP,2024-07-18 15:55,-119.7326,39.1923,1431.00,71.60,35.60,26.71,0.00,0.00,0.00,30.24,M,10.00,M,CLR,M,M,M,M,M,M,M,M,M,M,M,M,M,M,71.60,KCXP 181555Z AUTO 00000KT 10SM CLR 22/02 A3024 RMK AO2,M
RNO,2024-07-18 15:55,-119.7711,39.4839,1341.00,71.00,35.00,26.62,0.00,0.00,0.00,30.22,1017.50,10.00,M,FEW,M,M,M,12000.00,M,M,M,M,M,M,M,M,M,M,71.00,KRNO 181555Z 00000KT 10SM FEW120 22/02 A3022 RMK AO2 SLP175 T02170017,M
RTS,2024-07-18 15:55,-119.8764,39.6682,1539.00,69.80,26.60,19.72,220.00,4.00,0.00,30.26,M,10.00,M,SCT,M,M,M,12000.00,M,M,M,M,M,M,M,M,M,M,69.80,KRTS 181555Z AUTO 22004KT 10SM SCT120 21/M03 A3026 RMK AO2,M
05U,2024-07-18 15:55,-116.0051,39.6042,1811.23,86.00,37.40,17.85,0.00,0.00,0.00,30.29,M,10.00,M,M,M,M,M,M,M,M,M,M,M,M,M,M,M,M,82.73,K05U 181555Z AUTO 00000KT 10SM 30/03 A3029 RMK A01,M
MEV,2024-07-18 15:55,-119.7500,38.9963,1441.42,69.80,37.40,30.49,0.00,0.00,0.00,30.23,M,5.00,M,CLR,M,M,M,M,M,M,M,HZ,M,M,M,M,M,M,69.80,KMEV 181555Z AUTO 00000KT 5SM HZ CLR 21/03 A3023 RMK AO2,M
HTH,2024-07-18 15:55,-118.6315,38.5448,1282.89,M,M,M,240.00,4.00,0.00,30.20,M,M,M,M,M,M,M,M,M,M,M,M,M,M,M,M,M,M,M,KHTH 181555Z AUTO 24004KT A3020 RMK A01,M
INS,2024-07-18 15:55,-115.6733,36.5872,955.00,91.60,44.80,19.91,80.00,6.00,0.00,30.04,1010.80,10.00,M,OVC,M,M,M,18000.00,M,M,M,M,M,M,M,M,M,M,87.88,KINS 181555Z AUTO 08006KT 10SM OVC180 33/07 A3004 RMK AO2 SLP108 T03310071 $,M
BAM,2024-07-18 15:55,-116.8743,40.5990,1382.36,78.80,35.60,21.00,0.00,0.00,0.00,30.19,M,10.00,M,CLR,M,M,M,M,M,M,M,M,M,M,M,M,M,M,78.80,KBAM 181555Z AUTO 00000KT 10SM CLR 26/02 A3019 RMK AO1,M
TMT,2024-07-18 15:55,-117.1971,39.4643,1749.34,73.40,35.40,24.93,0.00,0.00,0.00,30.28,M,10.00,M,CLR,M,M,M,M,M,M,M,M,M,M,M,M,M,M,73.40,KTMT 181555Z AUTO 00000KT 10SM CLR 23/02 A3028 RMK AO2 T02300019,M
LSV,2024-07-18 15:55,-115.0343,36.2362,570.00,98.20,49.00,19.04,0.00,0.00,0.00,29.93,1010.10,10.00,M,FEW,M,M,M,21000.00,M,M,M,M,M,M,M,M,M,M,94.93,KLSV 181555Z AUTO 00000KT 10SM FEW210 37/09 A2993 RMK AO2 SLP101 T03680094 $,M
EKO,2024-07-18 15:56,-115.7860,40.8242,1367.00,78.00,48.00,34.78,80.00,3.00,0.00,30.22,1016.20,10.00,M,CLR,M,M,M,M,M,M,M,M,M,M,M,M,M,M,78.00,KEKO 181556Z AUTO 08003KT 10SM CLR 26/09 A3022 RMK AO2 SLP162 T02560089,M
WMC,2024-07-18 15:56,-117.8072,40.9019,1315.00,81.00,30.00,15.60,0.00,0.00,0.00,30.17,1015.90,10.00,M,CLR,M,M,M,M,M,M,M,M,M,M,M,M,M,M,79.02,KWMC 181556Z AUTO 00000KT 10SM CLR 27/M01 A3017 RMK AO2 SLP159 T02721011,M
HND,2024-07-18 15:56,-115.1344,35.9729,742.79,98.00,49.00,19.15,300.00,4.00,0.00,30.03,1014.50,10.00,M,CLR,M,M,M,M,M,M,M,M,M,M,M,M,M,M,94.72,KHND 181556Z 30004KT 10SM CLR 37/09 A3003 RMK AO2 SLP145 T03670094,M
TPH,2024-07-18 15:56,-117.0904,38.0505,1654.00,76.00,46.00,34.47,50.00,8.00,T,30.26,1015.90,10.00,M,BKN,M,M,M,11000.00,M,M,M,M,M,M,M,M,M,M,76.00,KTPH 181556Z AUTO 05008KT 10SM BKN110 24/08 A3026 RMK AO2 RAB28E40 SLP159 P0000 T02440078,M
LAS,2024-07-18 15:56,-115.1634,36.0719,663.00,98.00,51.00,20.63,0.00,0.00,0.00,29.98,1008.40,10.00,M,FEW,FEW,M,M,12000.00,20000.00,M,M,M,M,M,M,M,M,M,95.17,KLAS 181556Z 00000KT 10SM FEW120 FEW200 37/11 A2998 RMK AO2 SLP084 T03670106 $,M
05U,2024-07-18 16:10,-116.0051,39.6042,1811.23,84.20,37.40,18.91,M,4.00,0.00,30.29,M,10.00,M,M,M,M,M,M,M,M,M,M,M,M,M,M,M,M,81.38,K05U 181610Z AUTO VRB04KT 10SM 29/03 A3029 RMK A01,M
BVU,2024-07-18 16:15,-114.8611,35.9475,671.00,98.60,51.80,20.87,0.00,0.00,0.00,29.97,M,10.00,M,CLR,M,M,M,M,M,M,M,M,M,M,M,M,M,M,96.00,KBVU 181615Z AUTO 00000KT 10SM CLR 37/11 A2997 RMK AO2,M
CXP,2024-07-18 16:15,-119.7326,39.1923,1431.00,73.40,35.60,25.13,0.00,0.00,0.00,30.24,M,10.00,M,CLR,M,M,M,M,M,M,M,M,M,M,M,M,M,M,73.40,KCXP 181615Z AUTO 00000KT 10SM CLR 23/02 A3024 RMK AO2,M
RTS,2024-07-18 16:15,-119.8764,39.6682,1539.00,71.60,26.60,18.55,230.00,4.00,0.00,30.26,M,10.00,M,FEW,M,M,M,12000.00,M,M,M,M,M,M,M,M,M,M,71.60,KRTS 181615Z AUTO 23004KT 10SM FEW120 22/M03 A3026 RMK AO2,M
MEV,2024-07-18 16:15,-119.7500,38.9963,1441.42,71.60,37.40,28.68,0.00,0.00,0.00,30.22,M,8.00,M,CLR,M,M,M,M,M,M,M,M,M,M,M,M,M,M,71.60,KMEV 181615Z AUTO 00000KT 8SM CLR 22/03 A3022 RMK AO2,M
BAM,2024-07-18 16:15,-116.8743,40.5990,1382.36,78.80,35.60,21.00,0.00,0.00,0.00,30.19,M,10.00,M,CLR,M,M,M,M,M,M,M,M,M,M,M,M,M,M,78.80,KBAM 181615Z AUTO 00000KT 10SM CLR 26/02 A3019 RMK AO1,M
HTH,2024-07-18 16:15,-118.6315,38.5448,1282.89,78.80,35.60,21.00,0.00,0.00,0.00,30.19,M,10.00,M,M,M,M,M,M,M,M,M,M,M,M,M,M,M,M,78.80,KHTH 181615Z AUTO 00000KT 10SM 26/02 A3019 RMK A01,M
10U,2024-07-18 16:15,-116.1876,41.9532,1637.00,80.60,28.40,14.81,0.00,0.00,0.00,30.24,M,10.00,M,CLR,M,M,M,M,M,M,M,M,M,M,M,M,M,M,78.72,K10U 181615Z AUTO 00000KT 10SM CLR 27/M02 A3024 RMK AO2,M
TMT,2024-07-18 16:15,-117.1971,39.4643,1749.34,76.00,33.60,21.27,0.00,0.00,0.00,30.28,M,10.00,M,CLR,M,M,M,M,M,M,M,M,M,M,M,M,M,M,76.00,KTMT 181615Z AUTO 00000KT 10SM CLR 25/01 A3028 RMK AO2 T02450009,M
BVU,2024-07-18 16:35,-114.8611,35.9475,671.00,98.60,50.00,19.52,0.00,0.00,0.00,29.97,M,10.00,M,CLR,M,M,M,M,M,M,M,M,M,M,M,M,M,M,95.56,KBVU 181635Z AUTO 00000KT 10SM CLR 37/10 A2997 RMK AO2,M
CXP,2024-07-18 16:35,-119.7326,39.1923,1431.00,77.00,35.60,22.28,M,3.00,0.00,30.23,M,10.00,M,CLR,M,M,M,M,M,M,M,M,M,M,M,M,M,M,77.00,KCXP 181635Z AUTO VRB03KT 10SM CLR 25/02 A3023 RMK AO2,M
RTS,2024-07-18 16:35,-119.8764,39.6682,1539.00,73.40,21.20,13.93,0.00,0.00,0.00,30.25,M,10.00,M,CLR,M,M,M,M,M,M,M,M,M,M,M,M,M,M,73.40,KRTS 181635Z AUTO 00000KT 10SM CLR 23/M06 A3025 RMK AO2,M
05U,2024-07-18 16:35,-116.0051,39.6042,1811.23,84.20,37.40,18.91,0.00,0.00,0.00,30.29,M,10.00,M,M,M,M,M,M,M,M,M,M,M,M,M,M,M,M,81.38,K05U 181635Z AUTO 00000KT 10SM 29/03 A3029 RMK A01,M
MEV,2024-07-18 16:35,-119.7500,38.9963,1441.42,75.20,37.40,25.40,0.00,0.00,0.00,30.22,M,10.00,M,CLR,M,M,M,M,M,M,M,M,M,M,M,M,M,M,75.20,KMEV 181635Z AUTO 00000KT 10SM CLR 24/03 A3022 RMK AO2,M
HTH,2024-07-18 16:35,-118.6315,38.5448,1282.89,78.80,32.00,18.18,0.00,0.00,0.00,30.19,M,10.00,M,CLR,M,M,M,M,M,M,M,M,M,M,M,M,M,M,78.80,KHTH 181635Z AUTO 00000KT 10SM CLR 26/M00 A3019 RMK A01,M
BAM,2024-07-18 16:35,-116.8743,40.5990,1382.36,80.60,35.60,19.79,0.00,0.00,0.00,30.20,M,10.00,M,CLR,M,M,M,M,M,M,M,M,M,M,M,M,M,M,78.94,KBAM 181635Z AUTO 00000KT 10SM CLR 27/02 A3020 RMK AO1,M
TMT,2024-07-18 16:35,-117.1971,39.4643,1749.34,78.00,34.70,20.80,0.00,0.00,0.00,30.27,M,10.00,M,CLR,M,M,M,M,M,M,M,M,M,M,M,M,M,M,78.00,KTMT 181635Z AUTO 00000KT 10SM CLR 26/02 A3027 RMK AO2 T02550015,M
10U,2024-07-18 16:35,-116.1876,41.9532,1637.00,82.40,32.00,16.17,0.00,0.00,0.00,30.24,M,10.00,M,CLR,M,M,M,M,M,M,M,M,M,M,M,M,M,M,80.00,K10U 181635Z AUTO 00000KT 10SM CLR 28/M00 A3024 RMK AO2,M
P68,2024-07-18 16:53,-116.0056,39.6014,1993.00,86.00,38.00,18.28,300.00,5.00,0.00,30.26,1014.30,M,M,M,M,M,M,M,M,M,M,M,M,M,M,M,M,M,82.75,KP68 181653Z AUTO 30005KT 30/03 A3026 RMK AO1 SLP143 T03000033,M
DRA,2024-07-18 16:53,-116.0278,36.6206,1009.00,97.00,44.00,16.35,170.00,5.00,0.00,30.06,1011.40,10.00,M,CLR,M,M,M,M,M,M,M,M,M,M,M,M,M,M,92.91,KDRA 181653Z AUTO 17005KT 10SM CLR 36/07 A3006 RMK AO2 SLP114 T03610067,M
ELY,2024-07-18 16:53,-114.8453,39.2950,1909.00,86.00,42.00,21.35,140.00,8.00,0.00,30.31,1014.10,10.00,M,CLR,M,M,M,M,M,M,M,M,M,M,M,M,M,M,82.91,KELY 181653Z AUTO 14008KT 10SM CLR 30/06 A3031 RMK AO2 SLP141 T03000056,M
VGT,2024-07-18 16:53,-115.1933,36.2111,667.00,100.00,50.00,18.71,M,M,0.00,29.98,1013.30,10.00,M,CLR,M,M,M,M,M,M,M,M,M,M,M,M,M,M,97.00,KVGT 181653Z 10SM CLR 38/10 A2998 RMK AO2 SLP133 T03780100,M
LOL,2024-07-18 16:53,-118.5701,40.0684,1192.43,83.00,32.00,15.85,M,3.00,0.00,30.15,1015.90,10.00,M,CLR,M,M,M,M,M,M,M,M,M,M,M,M,M,M,80.41,KLOL 181653Z AUTO VRB03KT 10SM CLR 28/00 A3015 RMK AO2 SLP159 T02830000,M
NFL,2024-07-18 16:54,-118.7010,39.4166,1199.00,86.00,33.00,14.99,0.00,0.00,0.00,30.15,1017.50,10.00,M,FEW,SCT,SCT,M,8000.00,12000.00,15000.00,M,M,M,M,M,M,M,M,82.65,KNFL 181654Z 00000KT 10SM FEW080 SCT120 SCT150 30/01 A3015 RMK SLP175 T03000006,M
BVU,2024-07-18 16:55,-114.8611,35.9475,671.00,100.40,50.00,18.48,M,3.00,0.00,29.97,M,10.00,M,CLR,M,M,M,M,M,M,M,M,M,M,M,M,M,M,97.42,KBVU 181655Z AUTO VRB03KT 10SM CLR 38/10 A2997 RMK AO2,M
CXP,2024-07-18 16:55,-119.7326,39.1923,1431.00,78.80,35.60,21.00,240.00,4.00,0.00,30.23,M,10.00,M,CLR,M,M,M,M,M,M,M,M,M,M,M,M,M,M,78.80,KCXP 181655Z AUTO 24004KT 10SM CLR 26/02 A3023 RMK AO2,M
INS,2024-07-18 16:55,-115.6733,36.5872,955.00,97.70,45.50,16.94,90.00,8.00,0.00,30.04,1010.60,10.00,M,BKN,BKN,BKN,M,12000.00,14000.00,19000.00,M,M,M,M,M,M,M,M,93.80,KINS 181655Z AUTO 09008KT 10SM BKN120 BKN140 BKN190 37/08 A3004 RMK AO2 SLP106 T03650075 $,M
RNO,2024-07-18 16:55,-119.7711,39.4839,1341.00,77.00,33.00,20.09,130.00,3.00,0.00,30.20,1016.70,10.00,M,FEW,M,M,M,12000.00,M,M,M,M,M,M,M,M,M,M,77.00,KRNO 181655Z 13003KT 10SM FEW120 25/01 A3020 RMK AO2 SLP167 T02500006,M
LSV,2024-07-18 16:55,-115.0343,36.2362,570.00,100.60,49.30,17.90,150.00,3.00,0.00,29.92,1009.70,10.00,M,SCT,M,M,M,21000.00,M,M,M,M,M,M,M,M,M,M,97.45,KLSV 181655Z AUTO 15003KT 10SM SCT210 38/10 A2992 RMK AO2 SLP097 T03810096 $,M
RTS,2024-07-18 16:55,-119.8764,39.6682,1539.00,77.00,23.00,13.32,M,3.00,0.00,30.25,M,10.00,M,CLR,M,M,M,M,M,M,M,M,M,M,M,M,M,M,77.00,KRTS 181655Z AUTO VRB03KT 10SM CLR 25/M05 A3025 RMK AO2,M
05U,2024-07-18 16:55,-116.0051,39.6042,1811.23,87.80,37.40,16.86,0.00,0.00,0.00,30.29,M,10.00,M,M,M,M,M,M,M,M,M,M,M,M,M,M,M,M,84.16,K05U 181655Z AUTO 00000KT 10SM 31/03 A3029 RMK A01,M
MEV,2024-07-18 16:55,-119.7500,38.9963,1441.42,77.00,35.60,22.28,0.00,0.00,0.00,30.22,M,10.00,M,CLR,M,M,M,M,M,M,M,M,M,M,M,M,M,M,77.00,KMEV 181655Z AUTO 00000KT 10SM CLR 25/02 A3022 RMK AO2,M
BAM,2024-07-18 16:55,-116.8743,40.5990,1382.36,82.40,35.60,18.67,0.00,0.00,0.00,30.19,M,10.00,M,CLR,M,M,M,M,M,M,M,M,M,M,M,M,M,M,80.08,KBAM 181655Z AUTO 00000KT 10SM CLR 28/02 A3019 RMK AO1,M
HTH,2024-07-18 16:55,-118.6315,38.5448,1282.89,82.40,32.00,16.17,0.00,0.00,0.00,30.19,M,10.00,M,CLR,M,M,M,M,M,M,M,M,M,M,M,M,M,M,80.00,KHTH 181655Z AUTO 00000KT 10SM CLR 28/M00 A3019 RMK A01,M
10U,2024-07-18 16:55,-116.1876,41.9532,1637.00,82.40,32.00,16.17,0.00,0.00,0.00,30.24,M,10.00,M,CLR,M,M,M,M,M,M,M,M,M,M,M,M,M,M,80.00,K10U 181655Z AUTO 00000KT 10SM CLR 28/M00 A3024 RMK AO2,M
TMT,2024-07-18 16:55,-117.1971,39.4643,1749.34,79.70,33.30,18.60,0.00,0.00,0.00,30.27,M,10.00,M,CLR,M,M,M,M,M,M,M,M,M,M,M,M,M,M,79.70,KTMT 181655Z AUTO 00000KT 10SM CLR 27/01 A3027 RMK AO2 T02650007,M
EKO,2024-07-18 16:56,-115.7860,40.8242,1367.00,85.00,46.00,25.69,340.00,3.00,0.00,30.21,1015.80,10.00,M,CLR,M,M,M,M,M,M,M,M,M,M,M,M,M,M,82.42,KEKO 181656Z AUTO 34003KT 10SM CLR 29/08 A3021 RMK AO2 SLP158 T02940078,M
WMC,2024-07-18 16:56,-117.8072,40.9019,1315.00,87.00,26.00,10.91,M,4.00,0.00,30.17,1015.70,10.00,M,CLR,M,M,M,M,M,M,M,M,M,M,M,M,M,M,83.06,KWMC 181656Z AUTO VRB04KT 10SM CLR 31/M03 A3017 RMK AO2 SLP157 T03061033,M
HND,2024-07-18 16:56,-115.1344,35.9729,742.79,100.00,49.00,18.02,0.00,0.00,0.00,30.03,1014.50,10.00,M,CLR,M,M,M,M,M,M,M,M,M,M,M,M,M,M,96.77,KHND 181656Z 00000KT 10SM CLR 38/09 A3003 RMK AO2 SLP145 T03780094,M
TPH,2024-07-18 16:56,-117.0904,38.0505,1654.00,82.00,40.00,22.48,290.00,8.00,0.00,30.27,1016.20,10.00,M,SCT,M,M,M,11000.00,M,M,M,M,M,M,M,M,M,M,79.99,KTPH 181656Z AUTO 29008KT 10SM SCT110 28/04 A3027 RMK AO2 SLP162 T02780044,M
LAS,2024-07-18 16:56,-115.1634,36.0719,663.00,101.00,50.00,18.15,0.00,0.00,0.00,29.98,1008.40,10.00,M,FEW,FEW,M,M,12000.00,20000.00,M,M,M,M,M,M,M,M,M,98.04,KLAS 181656Z 00000KT 10SM FEW120 FEW200 38/10 A2998 RMK AO2 SLP084 T03830100 $,M
BVU,2024-07-18 17:15,-114.8611,35.9475,671.00,102.20,50.00,17.51,M,4.00,0.00,29.97,M,10.00,M,CLR,M,M,M,M,M,M,M,M,M,M,M,M,M,M,99.28,KBVU 181715Z AUTO VRB04KT 10SM CLR 39/10 A2997 RMK AO2,M
CXP,2024-07-18 17:15,-119.7326,39.1923,1431.00,80.60,35.60,19.79,M,3.00,0.00,30.22,M,9.00,M,CLR,M,M,M,M,M,M,M,M,M,M,M,M,M,M,78.94,KCXP 181715Z AUTO VRB03KT 9SM CLR 27/02 A3022 RMK AO2,M
RTS,2024-07-18 17:15,-119.8764,39.6682,1539.00,78.80,23.00,12.55,0.00,0.00,0.00,30.25,M,10.00,M,CLR,M,M,M,M,M,M,M,M,M,M,M,M,M,M,78.80,KRTS 181715Z AUTO 00000KT 10SM CLR 26/M05 A3025 RMK AO2,M
05U,2024-07-18 17:15,-116.0051,39.6042,1811.23,89.60,37.40,15.92,0.00,0.00,0.00,30.29,M,10.00,M,M,M,M,M,M,M,M,M,M,M,M,M,M,M,M,85.67,K05U 181715Z AUTO 00000KT 10SM 32/03 A3029 RMK A01,M
MEV,2024-07-18 17:15,-119.7500,38.9963,1441.42,78.80,39.20,24.19,M,3.00,0.00,30.21,M,3.00,M,CLR,M,M,M,M,M,M,M,-RA HZ,M,M,M,M,M,M,78.80,KMEV 181715Z AUTO VRB03KT 3SM -RA HZ CLR 26/04 A3021 RMK AO2,M
BAM,2024-07-18 17:15,-116.8743,40.5990,1382.36,86.00,35.60,16.63,0.00,0.00,0.00,30.19,M,10.00,M,CLR,M,M,M,M,M,M,M,M,M,M,M,M,M,M,82.69,KBAM 181715Z AUTO 00000KT 10SM CLR 30/02 A3019 RMK AO1,M
HTH,2024-07-18 17:15,-118.6315,38.5448,1282.89,82.40,32.00,16.17,M,3.00,0.00,30.19,M,10.00,M,CLR,M,M,M,M,M,M,M,M,M,M,M,M,M,M,80.00,KHTH 181715Z AUTO VRB03KT 10SM CLR 28/M00 A3019 RMK A01,M
10U,2024-07-18 17:15,-116.1876,41.9532,1637.00,84.20,32.00,15.25,0.00,0.00,0.00,30.24,M,10.00,M,CLR,M,M,M,M,M,M,M,M,M,M,M,M,M,M,81.28,K10U 181715Z AUTO 00000KT 10SM CLR 29/00 A3024 RMK AO2,M
TMT,2024-07-18 17:15,-117.1971,39.4643,1749.34,81.00,35.00,19.08,0.00,0.00,0.00,30.27,M,10.00,M,CLR,M,M,M,M,M,M,M,M,M,M,M,M,M,M,79.16,KTMT 181715Z AUTO 00000KT 10SM CLR 27/02 A3027 RMK AO2 T02720017,M
BVU,2024-07-18 17:35,-114.8611,35.9475,671.00,102.20,50.00,17.51,M,5.00,0.00,29.97,M,10.00,M,CLR,M,M,M,M,M,M,M,M,M,M,M,M,M,M,99.28,KBVU 181735Z AUTO VRB05KT 10SM CLR 39/10 A2997 RMK AO2,M
CXP,2024-07-18 17:35,-119.7326,39.1923,1431.00,82.40,28.40,13.96,0.00,0.00,0.00,30.22,M,10.00,M,CLR,M,M,M,M,M,M,M,M,M,M,M,M,M,M,79.94,KCXP 181735Z AUTO 00000KT 10SM CLR 28/M02 A3022 RMK AO2,M
RTS,2024-07-18 17:35,-119.8764,39.6682,1539.00,80.60,19.40,10.16,130.00,5.00,0.00,30.24,M,10.00,M,CLR,M,M,M,M,M,M,M,M,M,M,M,M,M,M,78.56,KRTS 181735Z AUTO 13005KT 10SM CLR 27/M07 A3024 RMK AO2,M
05U,2024-07-18 17:35,-116.0051,39.6042,1811.23,87.80,35.60,15.70,0.00,0.00,0.00,30.29,M,10.00,10.00,M,M,M,M,M,M,M,M,M,M,M,M,M,M,M,84.12,K05U 181735Z AUTO 00000G10KT 10SM 31/02 A3029 RMK A01,M
MEV,2024-07-18 17:35,-119.7500,38.9963,1441.42,80.60,35.60,19.79,0.00,0.00,0.00,30.21,M,8.00,M,CLR,M,M,M,M,M,M,M,M,M,M,M,M,M,M,78.94,KMEV 181735Z AUTO 00000KT 8SM CLR 27/02 A3021 RMK AO2,M
BAM,2024-07-18 17:35,-116.8743,40.5990,1382.36,86.00,35.60,16.63,360.00,7.00,0.00,30.19,M,10.00,M,CLR,M,M,M,M,M,M,M,M,M,M,M,M,M,M,82.69,KBAM 181735Z AUTO 36007KT 10SM CLR 30/02 A3019 RMK AO1,M
HTH,2024-07-18 17:35,-118.6315,38.5448,1282.89,84.20,30.20,14.18,0.00,0.00,0.00,30.19,M,10.00,M,CLR,M,M,M,M,M,M,M,M,M,M,M,M,M,M,81.26,KHTH 181735Z AUTO 00000KT 10SM CLR 29/M01 A3019 RMK A01,M
10U,2024-07-18 17:35,-116.1876,41.9532,1637.00,86.00,28.40,12.44,M,5.00,0.00,30.24,M,10.00,M,CLR,M,M,M,M,M,M,M,M,M,M,M,M,M,M,82.54,K10U 181735Z AUTO VRB05KT 10SM CLR 30/M02 A3024 RMK AO2,M
TMT,2024-07-18 17:35,-117.1971,39.4643,1749.34,82.80,35.20,18.14,0.00,0.00,0.00,30.27,M,10.00,M,CLR,M,M,M,M,M,M,M,M,M,M,M,M,M,M,80.34,KTMT 181735Z AUTO 00000KT 10SM CLR 28/02 A3027 RMK AO2 T02820018,M
P68,2024-07-18 17:53,-116.0056,39.6014,1993.00,88.00,36.00,15.85,240.00,5.00,0.00,30.26,1014.70,M,M,M,M,M,M,M,M,M,M,M,M,M,M,M,M,M,84.29,KP68 181753Z AUTO 24005KT 31/02 A3026 RMK AO1 SLP147 T03110022 10317 20122 56002,M
DRA,2024-07-18 17:53,-116.0278,36.6206,1009.00,100.00,44.00,14.92,M,5.00,0.00,30.06,1011.40,10.00,M,CLR,M,M,M,M,M,M,M,M,M,M,M,M,M,M,95.83,KDRA 181753Z AUTO VRB05KT 10SM CLR 38/07 A3006 RMK AO2 SLP114 T03780067 10378 20267 51003,M
ELY,2024-07-18 17:53,-114.8453,39.2950,1909.00,89.00,42.00,19.41,340.00,6.00,0.00,30.30,1013.70,10.00,M,CLR,M,M,M,M,M,M,M,M,M,M,M,M,M,M,85.36,KELY 181753Z AUTO 34006KT 10SM CLR 32/06 A3030 RMK AO2 SLP137 T03170056 10317 20161 58006,M
VGT,2024-07-18 17:53,-115.1933,36.2111,667.00,103.00,48.00,15.87,130.00,7.00,0.00,29.97,1013.10,10.00,M,CLR,M,M,M,M,M,M,M,M,M,M,M,M,M,M,99.59,KVGT 181753Z 13007KT 10SM CLR 39/09 A2997 RMK AO2 SLP131 T03940089 10400 20322 50000,M
LOL,2024-07-18 17:53,-118.5701,40.0684,1192.43,88.00,35.00,15.23,120.00,4.00,0.00,30.14,1015.80,10.00,M,CLR,M,M,M,M,M,M,M,M,M,M,M,M,M,M,84.28,KLOL 181753Z AUTO 12004KT 10SM CLR 31/02 A3014 RMK AO2 SLP158 T03110017 10311 20117 50000,M
NFL,2024-07-18 17:54,-118.7010,39.4166,1199.00,87.00,33.00,14.52,M,3.00,0.00,30.15,1017.30,10.00,M,FEW,SCT,SCT,M,8000.00,12000.00,15000.00,M,M,M,M,M,M,M,M,83.44,KNFL 181754Z VRB03KT 10SM FEW080 SCT120 SCT150 31/01 A3015 RMK AO2 SLP173 T03060006 10311 20172 58003,M
BVU,2024-07-18 17:55,-114.8611,35.9475,671.00,104.00,50.00,16.59,140.00,8.00,0.00,29.96,M,10.00,M,CLR,M,M,M,M,M,M,M,M,M,M,M,M,M,M,101.14,KBVU 181755Z AUTO 14008KT 110V170 10SM CLR 40/10 A2996 RMK AO2,M
CXP,2024-07-18 17:55,-119.7326,39.1923,1431.00,86.00,24.80,10.72,M,4.00,0.00,30.21,M,10.00,M,CLR,M,M,M,M,M,M,M,M,M,M,M,M,M,M,82.26,KCXP 181755Z AUTO VRB04KT 10SM CLR 30/M04 A3021 RMK AO2,M
INS,2024-07-18 17:55,-115.6733,36.5872,955.00,95.40,45.00,17.84,250.00,6.00,0.00,30.04,1010.80,10.00,M,OVC,M,M,M,12000.00,M,M,M,M,M,M,M,M,M,M,91.49,KINS 181755Z AUTO 25006KT 10SM OVC120 35/07 A3004 RMK AO2 LTG DSNT SE AND NW SLP108 T03520073 10369 20268 58002 $,M
RNO,2024-07-18 17:55,-119.7711,39.4839,1341.00,83.00,32.00,15.85,0.00,0.00,0.00,30.19,1016.20,10.00,M,FEW,M,M,M,12000.00,M,M,M,M,M,M,M,M,M,M,80.41,KRNO 181755Z 00000KT 10SM FEW120 28/00 A3019 RMK AO2 SLP162 T02830000 10283 20178 58007,M
RTS,2024-07-18 17:55,-119.8764,39.6682,1539.00,80.60,10.40,6.86,190.00,3.00,0.00,30.24,M,10.00,M,CLR,M,M,M,M,M,M,M,M,M,M,M,M,M,M,78.08,KRTS 181755Z AUTO 19003KT 10SM CLR 27/M12 A3024 RMK AO2,M
HTH,2024-07-18 17:55,-118.6315,38.5448,1282.89,84.20,30.20,14.18,M,3.00,0.00,30.19,M,10.00,M,CLR,M,M,M,M,M,M,M,M,M,M,M,M,M,M,81.26,KHTH 181755Z AUTO VRB03KT 10SM CLR 29/M01 A3019 RMK A01,M
05U,2024-07-18 17:55,-116.0051,39.6042,1811.23,87.80,35.60,15.70,10.00,4.00,0.00,30.29,M,10.00,M,CLR,M,M,M,M,M,M,M,M,M,M,M,M,M,M,84.12,K05U 181755Z AUTO 01004KT 10SM CLR 31/02 A3029 RMK A01,M
MEV,2024-07-18 17:55,-119.7500,38.9963,1441.42,80.60,32.00,17.14,0.00,0.00,0.00,30.20,M,7.00,M,CLR,M,M,M,M,M,M,M,M,M,M,M,M,M,M,78.82,KMEV 181755Z AUTO 00000KT 7SM CLR 27/00 A3020 RMK AO2,M
BAM,2024-07-18 17:55,-116.8743,40.5990,1382.36,87.80,33.80,14.61,350.00,4.00,0.00,30.19,M,10.00,M,CLR,M,M,M,M,M,M,M,M,M,M,M,M,M,M,84.10,KBAM 181755Z AUTO 35004KT 10SM CLR 31/01 A3019 RMK AO1,M
10U,2024-07-18 17:55,-116.1876,41.9532,1637.00,86.00,30.20,13.38,M,5.00,0.00,30.24,M,10.00,M,CLR,M,M,M,M,M,M,M,M,M,M,M,M,M,M,82.64,K10U 181755Z AUTO VRB05KT 10SM CLR 30/M01 A3024 RMK AO2,M
TMT,2024-07-18 17:55,-117.1971,39.4643,1749.34,83.70,35.20,17.62,230.00,4.00,0.00,30.28,M,10.00,M,CLR,M,M,M,M,M,M,M,M,M,M,M,M,M,M,80.97,KTMT 181755Z AUTO 23004KT 10SM CLR 29/02 A3028 RMK AO2 T02870018 10287 20061,M
LSV,2024-07-18 17:55,-115.0343,36.2362,570.00,103.60,48.60,15.94,200.00,3.00,0.00,29.92,1009.70,10.00,M,FEW,FEW,M,M,17000.00,20000.00,M,M,M,M,M,M,M,M,M,100.35,KLSV 181755Z AUTO 20003KT 10SM FEW170 FEW200 40/09 A2992 RMK AO2 SLP097 T03980092 10398 20318 58001 $,M
EKO,2024-07-18 17:56,-115.7860,40.8242,1367.00,90.00,46.00,21.91,0.00,0.00,0.00,30.20,1015.30,10.00,M,CLR,M,M,M,M,M,M,M,M,M,M,M,M,M,M,86.55,KEKO 181756Z AUTO 00000KT 10SM CLR 32/08 A3020 RMK AO2 SLP153 T03220078 10322 20161 57007,M
WMC,2024-07-18 17:56,-117.8072,40.9019,1315.00,91.00,26.00,9.62,M,3.00,0.00,30.15,1015.30,10.00,M,CLR,M,M,M,M,M,M,M,M,M,M,M,M,M,M,86.01,KWMC 181756Z AUTO VRB03KT 10SM CLR 33/M03 A3015 RMK AO2 SLP153 T03281033 10328 20106 58005,M
HND,2024-07-18 17:56,-115.1344,35.9729,742.79,102.00,51.00,18.28,M,4.00,0.00,30.02,1014.20,10.00,M,CLR,M,M,M,M,M,M,M,M,M,M,M,M,M,M,99.35,KHND 181756Z VRB04KT 10SM CLR 39/11 A3002 RMK AO2 SLP142 T03890106 10389 20311 58001,M
TPH,2024-07-18 17:56,-117.0904,38.0505,1654.00,88.00,41.00,19.28,200.00,5.00,0.00,30.26,1015.10,10.00,M,CLR,M,M,M,M,M,M,M,M,M,M,M,M,M,M,84.46,KTPH 181756Z AUTO 20005KT 10SM CLR 31/05 A3026 RMK AO2 SLP151 60000 T03110050 10311 20178 50002,M
LAS,2024-07-18 17:56,-115.1634,36.0719,663.00,104.00,49.00,15.99,M,4.00,0.00,29.98,1008.30,10.00,M,FEW,FEW,M,M,12000.00,20000.00,M,M,M,M,M,M,M,M,M,100.86,KLAS 181756Z VRB04KT 10SM FEW120 FEW200 40/09 A2998 RMK AO2 SLP083 T04000094 10400 20322 51001 $,M
INS,2024-07-18 18:07,-115.6733,36.5872,955.00,91.40,55.40,29.72,240.00,17.00,0.00,30.04,1010.90,9.00,M,OVC,M,M,M,12000.00,M,M,M,-RA,M,M,M,M,M,M,89.53,KINS 181807Z AUTO 24017KT 9SM -RA OVC120 33/13 A3004 RMK AO2 RAB07 SLP109 $,M
INS,2024-07-18 18:13,-115.6733,36.5872,955.00,91.40,57.20,31.72,280.00,18.00,0.00,30.04,1010.90,6.00,M,OVC,M,M,M,12000.00,M,M,M,-RA,M,M,M,M,M,M,90.06,KINS 181813Z AUTO 28018KT 6SM -RA OVC120 33/14 A3004 RMK AO2 WSHFT 04 RAB07 SLP109 $,M
BVU,2024-07-18 18:15,-114.8611,35.9475,671.00,104.00,50.00,16.59,M,4.00,0.00,29.96,M,10.00,M,CLR,M,M,M,M,M,M,M,M,M,M,M,M,M,M,101.14,KBVU 181815Z AUTO VRB04KT 10SM CLR 40/10 A2996 RMK AO2,M
CXP,2024-07-18 18:15,-119.7326,39.1923,1431.00,86.00,19.40,8.53,0.00,0.00,0.00,30.21,M,10.00,M,CLR,M,M,M,M,M,M,M,M,M,M,M,M,M,M,81.94,KCXP 181815Z AUTO 00000KT 10SM CLR 30/M07 A3021 RMK AO2,M
RTS,2024-07-18 18:15,-119.8764,39.6682,1539.00,84.20,5.00,4.78,140.00,6.00,0.00,30.24,M,10.00,M,CLR,M,M,M,M,M,M,M,M,M,M,M,M,M,M,80.16,KRTS 181815Z AUTO 14006KT 10SM CLR 29/M15 A3024 RMK AO2,M
05U,2024-07-18 18:15,-116.0051,39.6042,1811.23,87.80,35.60,15.70,M,5.00,0.00,30.29,M,10.00,M,CLR,M,M,M,M,M,M,M,M,M,M,M,M,M,M,84.12,K05U 181815Z AUTO VRB05KT 10SM CLR 31/02 A3029 RMK A01,M
MEV,2024-07-18 18:15,-119.7500,38.9963,1441.42,82.40,33.80,17.38,0.00,0.00,0.00,30.20,M,10.00,M,CLR,M,M,M,M,M,M,M,M,M,M,M,M,M,M,80.03,KMEV 181815Z AUTO 00000KT 10SM CLR 28/01 A3020 RMK AO2,M
HTH,2024-07-18 18:15,-118.6315,38.5448,1282.89,86.00,30.20,13.38,340.00,3.00,0.00,30.18,M,10.00,M,CLR,M,M,M,M,M,M,M,M,M,M,M,M,M,M,82.64,KHTH 181815Z AUTO 34003KT 10SM CLR 30/M01 A3018 RMK A01,M
10U,2024-07-18 18:15,-116.1876,41.9532,1637.00,87.80,30.20,12.64,0.00,0.00,0.00,30.23,M,10.00,M,CLR,M,M,M,M,M,M,M,M,M,M,M,M,M,M,84.01,K10U 181815Z AUTO 00000KT 10SM CLR 31/M01 A3023 RMK AO2,M
BAM,2024-07-18 18:15,-116.8743,40.5990,1382.36,89.60,35.60,14.83,350.00,6.00,0.00,30.17,M,10.00,M,CLR,M,M,M,M,M,M,M,M,M,M,M,M,M,M,85.62,KBAM 181815Z AUTO 35006KT 10SM CLR 32/02 A3017 RMK AO1,M
TMT,2024-07-18 18:15,-117.1971,39.4643,1749.34,84.60,36.00,17.67,230.00,6.00,0.00,30.27,M,10.00,M,CLR,M,M,M,M,M,M,M,M,M,M,M,M,M,M,81.64,KTMT 181815Z AUTO 23006KT 10SM CLR 29/02 A3027 RMK AO2 T02920023,M
BVU,2024-07-18 18:35,-114.8611,35.9475,671.00,105.80,50.00,15.73,160.00,11.00,0.00,29.95,M,10.00,16.00,CLR,M,M,M,M,M,M,M,M,M,M,M,M,M,M,102.98,KBVU 181835Z AUTO 16011G16KT 10SM CLR 41/10 A2995 RMK AO2,M
CXP,2024-07-18 18:35,-119.7326,39.1923,1431.00,87.80,21.20,8.70,0.00,0.00,0.00,30.20,M,9.00,M,CLR,M,M,M,M,M,M,M,M,M,M,M,M,M,M,83.33,KCXP 181835Z AUTO 00000KT 9SM CLR 31/M06 A3020 RMK AO2,M
RTS,2024-07-18 18:35,-119.8764,39.6682,1539.00,84.20,21.20,9.76,100.00,4.00,0.00,30.24,M,10.00,M,CLR,M,M,M,M,M,M,M,M,M,M,M,M,M,M,80.77,KRTS 181835Z AUTO 10004KT 10SM CLR 29/M06 A3024 RMK AO2,M
05U,2024-07-18 18:35,-116.0051,39.6042,1811.23,86.00,35.60,16.63,250.00,4.00,0.00,30.29,M,10.00,M,CLR,M,M,M,M,M,M,M,M,M,M,M,M,M,M,82.69,K05U 181835Z AUTO 25004KT 10SM CLR 30/02 A3029 RMK A01,M
MEV,2024-07-18 18:35,-119.7500,38.9963,1441.42,84.20,26.60,12.23,0.00,0.00,0.00,30.19,M,10.00,M,CLR,M,M,M,M,M,M,M,M,M,M,M,M,M,M,81.13,KMEV 181835Z AUTO 00000KT 10SM CLR 29/M03 A3019 RMK AO2,M
BAM,2024-07-18 18:35,-116.8743,40.5990,1382.36,91.40,35.60,14.02,350.00,5.00,0.00,30.17,M,10.00,M,CLR,M,M,M,M,M,M,M,M,M,M,M,M,M,M,87.17,KBAM 181835Z AUTO 35005KT 10SM CLR 33/02 A3017 RMK AO1,M
HTH,2024-07-18 18:35,-118.6315,38.5448,1282.89,87.80,30.20,12.64,340.00,6.00,0.00,30.17,M,10.00,M,CLR,M,M,M,M,M,M,M,M,M,M,M,M,M,M,84.01,KHTH 181835Z AUTO 34006KT 10SM CLR 31/M01 A3017 RMK A01,M
10U,2024-07-18 18:35,-116.1876,41.9532,1637.00,89.60,32.00,12.84,80.00,5.00,0.00,30.23,M,10.00,M,CLR,M,M,M,M,M,M,M,M,M,M,M,M,M,M,85.54,K10U 181835Z AUTO 08005KT 10SM CLR 32/M00 A3023 RMK AO2,M
TMT,2024-07-18 18:35,-117.1971,39.4643,1749.34,87.00,38.00,17.70,240.00,8.00,0.00,30.27,M,10.00,M,CLR,M,M,M,M,M,M,M,M,M,M,M,M,M,M,83.53,KTMT 181835Z AUTO 24008KT 10SM CLR 31/03 A3027 RMK AO2 T03050033,M
INS,2024-07-18 18:40,-115.6733,36.5872,955.00,96.80,46.40,18.02,210.00,12.00,0.00,30.04,1010.80,10.00,15.00,FEW,BKN,OVC,M,4200.00,12000.00,14000.00,M,M,M,M,M,M,M,M,93.05,KINS 181840Z AUTO 21012G15KT 10SM FEW042 BKN120 OVC140 36/08 A3004 RMK AO2 RAB07E40 SLP108 $,M
INS,2024-07-18 18:44,-115.6733,36.5872,955.00,95.00,51.80,23.30,190.00,10.00,0.00,30.05,1011.30,10.00,15.00,FEW,BKN,OVC,M,4200.00,12000.00,14000.00,M,-DZ,M,M,M,M,M,M,92.26,KINS 181844Z AUTO 19010G15KT 10SM -DZ FEW042 BKN120 OVC140 35/11 A3005 RMK AO2 RAB07E40DZB44 SLP113 $,M
INS,2024-07-18 18:49,-115.6733,36.5872,955.00,91.40,51.80,26.05,220.00,11.00,0.00,30.05,1011.40,10.00,M,SCT,OVC,M,M,4200.00,13000.00,M,M,-RA,M,M,M,M,M,M,88.69,KINS 181849Z AUTO 22011KT 10SM -RA SCT042 OVC130 33/11 A3005 RMK AO2 WSHFT 45 LTG DSNT S RAB07E40DZB44E47RAB47 SLP114 $,M
INS,2024-07-18 18:51,-115.6733,36.5872,955.00,93.20,48.20,21.54,240.00,14.00,0.00,30.05,1011.40,10.00,22.00,SCT,OVC,M,M,4200.00,13000.00,M,M,-TSRA,M,M,M,M,M,M,89.80,KINS 181851Z AUTO 24014G22KT 10SM -TSRA SCT042 OVC130 34/09 A3005 RMK AO2 RAB07E40DZB44E47RAB47 TSB51 SLP114 $,M
P68,2024-07-18 18:53,-116.0056,39.6014,1993.00,85.00,41.00,21.21,140.00,10.00,0.00,30.26,1015.50,M,M,M,M,M,M,M,M,M,M,M,M,M,M,M,M,M,82.10,KP68 181853Z AUTO 14010KT 29/05 A3026 RMK AO1 SLP155 T02940050,M
DRA,2024-07-18 18:53,-116.0278,36.6206,1009.00,102.00,45.00,14.60,M,5.00,0.00,30.05,1011.00,10.00,16.00,CLR,M,M,M,M,M,M,M,M,M,M,M,M,M,M,97.95,KDRA 181853Z AUTO VRB05G16KT 10SM CLR 39/07 A3005 RMK AO2 SLP110 T03890072,M
ELY,2024-07-18 18:53,-114.8453,39.2950,1909.00,84.00,42.00,22.77,280.00,7.00,0.00,30.29,1014.10,10.00,17.00,CLR,M,M,M,M,M,M,M,M,M,M,M,M,M,M,81.42,KELY 181853Z AUTO 28007G17KT 10SM CLR 29/06 A3029 RMK AO2 SLP141 T02890056,M
VGT,2024-07-18 18:53,-115.1933,36.2111,667.00,105.00,50.00,16.11,150.00,7.00,0.00,29.96,1012.60,10.00,M,CLR,M,M,M,M,M,M,M,M,M,M,M,M,M,M,102.16,KVGT 181853Z 15007KT 10SM CLR 41/10 A2996 RMK AO2 LTG DSNT S-NW SLP126 T04060100,M
LOL,2024-07-18 18:53,-118.5701,40.0684,1192.43,90.00,32.00,12.68,0.00,0.00,0.00,30.13,1014.90,10.00,M,CLR,M,M,M,M,M,M,M,M,M,M,M,M,M,M,85.84,KLOL 181853Z AUTO 00000KT 10SM CLR 32/00 A3013 RMK AO2 SLP149 T03220000,M
NFL,2024-07-18 18:54,-118.7010,39.4166,1199.00,93.00,33.00,12.02,30.00,4.00,0.00,30.13,1016.90,10.00,M,SCT,BKN,BKN,M,8000.00,10000.00,15000.00,M,M,M,M,M,M,M,M,88.28,KNFL 181854Z COR 03004KT 10SM SCT080 BKN100 BKN150 34/01 A3013 RMK AO2 SLP169 T03390006,M
BVU,2024-07-18 18:55,-114.8611,35.9475,671.00,105.80,48.20,14.71,120.00,11.00,0.00,29.95,M,10.00,17.00,CLR,M,M,M,M,M,M,M,M,M,M,M,M,M,M,102.45,KBVU 181855Z AUTO 12011G17KT 10SM CLR 41/09 A2995 RMK AO2,M
CXP,2024-07-18 18:55,-119.7326,39.1923,1431.00,87.80,23.00,9.39,0.00,0.00,0.00,30.20,M,10.00,M,CLR,M,M,M,M,M,M,M,M,M,M,M,M,M,M,83.43,KCXP 181855Z AUTO 00000KT 10SM CLR 31/M05 A3020 RMK AO2,M
INS,2024-07-18 18:55,-115.6733,36.5872,955.00,92.70,52.70,25.86,260.00,23.00,T,30.05,1011.40,10.00,28.00,SCT,OVC,M,M,5500.00,13000.00,M,M,-TSRA,M,M,M,M,M,M,90.15,KINS 181855Z AUTO 26023G28KT 10SM -TSRA SCT055 OVC130 34/12 A3005 RMK AO2 RAB07E40DZB44E47RAB47 TSB51 SLP114 P0000 T03370115 $,M
RNO,2024-07-18 18:55,-119.7711,39.4839,1341.00,89.00,22.00,8.66,40.00,5.00,0.00,30.18,1015.50,10.00,M,FEW,M,M,M,12000.00,M,M,M,M,M,M,M,M,M,M,84.25,KRNO 181855Z 04005KT 10SM FEW120 32/M06 A3018 RMK AO2 SLP155 T03171056,M
RTS,2024-07-18 18:55,-119.8764,39.6682,1539.00,86.00,21.20,9.21,M,5.00,0.00,30.23,M,10.00,M,CLR,M,M,M,M,M,M,M,M,M,M,M,M,M,M,82.04,KRTS 181855Z AUTO VRB05KT 10SM CLR 30/M06 A3023 RMK AO2,M
05U,2024-07-18 18:55,-116.0051,39.6042,1811.23,86.00,39.20,19.15,130.00,11.00,0.00,30.29,M,10.00,M,CLR,M,M,M,M,M,M,M,M,M,M,M,M,M,M,82.79,K05U 181855Z AUTO 13011KT 10SM CLR 30/04 A3029 RMK A01,M
MEV,2024-07-18 18:55,-119.7500,38.9963,1441.42,86.00,26.60,11.55,310.00,6.00,0.00,30.19,M,10.00,M,CLR,M,M,M,M,M,M,M,M,M,M,M,M,M,M,82.39,KMEV 181855Z AUTO 31006KT 10SM CLR 30/M03 A3019 RMK AO2,M
BAM,2024-07-18 18:55,-116.8743,40.5990,1382.36,91.40,33.80,13.05,10.00,4.00,0.00,30.17,M,10.00,M,CLR,M,M,M,M,M,M,M,M,M,M,M,M,M,M,87.13,KBAM 181855Z AUTO 01004KT 10SM CLR 33/01 A3017 RMK AO1,M
HTH,2024-07-18 18:55,-118.6315,38.5448,1282.89,89.60,28.40,11.09,30.00,6.00,0.00,30.17,M,10.00,M,CLR,M,M,M,M,M,M,M,M,M,M,M,M,M,M,85.17,KHTH 181855Z AUTO 03006KT 10SM CLR 32/M02 A3017 RMK A01,M
10U,2024-07-18 18:55,-116.1876,41.9532,1637.00,91.40,32.00,12.14,310.00,5.00,0.00,30.23,M,10.00,M,CLR,M,M,M,M,M,M,M,M,M,M,M,M,M,M,86.91,K10U 181855Z AUTO 31005KT 10SM CLR 33/00 A3023 RMK AO2,M
TMT,2024-07-18 18:55,-117.1971,39.4643,1749.34,86.40,35.60,16.41,240.00,6.00,0.00,30.27,M,10.00,M,CLR,M,M,M,M,M,M,M,M,M,M,M,M,M,M,83.00,KTMT 181855Z AUTO 24006KT 10SM CLR 30/02 A3027 RMK AO2 T03020020,M
LSV,2024-07-18 18:55,-115.0343,36.2362,570.00,105.80,44.80,12.94,0.00,0.00,0.00,29.90,1009.10,10.00,M,FEW,M,M,M,18000.00,M,M,M,M,M,M,M,M,M,M,101.59,KLSV 181855Z AUTO 00000KT 10SM FEW180 41/07 A2990 RMK AO2 SLP091 T04100071 $,M
EKO,2024-07-18 18:56,-115.7860,40.8242,1367.00,94.00,46.00,19.34,M,M,0.00,30.19,1015.10,10.00,M,CLR,M,M,M,M,M,M,M,M,M,M,M,M,M,M,90.27,KEKO 181856Z AUTO 10SM CLR 34/08 A3019 RMK AO2 SLP151 T03440078,M
WMC,2024-07-18 18:56,-117.8072,40.9019,1315.00,94.00,27.00,9.13,M,4.00,0.00,30.14,1014.60,10.00,M,CLR,M,M,M,M,M,M,M,M,M,M,M,M,M,M,88.36,KWMC 181856Z AUTO VRB04KT 10SM CLR 34/M03 A3014 RMK AO2 SLP146 T03441028,M
HND,2024-07-18 18:56,-115.1344,35.9729,742.79,104.00,53.00,18.54,M,4.00,0.00,30.00,1013.60,10.00,M,CLR,M,M,M,M,M,M,M,VCTS,M,M,M,M,M,M,102.10,KHND 181856Z VRB04KT 10SM VCTS CLR 40/12 A3000 RMK AO2 LTG DSNT NW TSB52 SLP136 T04000117,M
TPH,2024-07-18 18:56,-117.0904,38.0505,1654.00,89.00,39.00,17.28,210.00,7.00,0.00,30.25,1015.20,10.00,19.00,CLR,M,M,M,M,M,M,M,M,M,M,M,M,M,M,85.21,KTPH 181856Z AUTO 21007G19KT 160V240 10SM CLR 32/04 A3025 RMK AO2 SLP152 T03170039,M
LAS,2024-07-18 18:56,-115.1634,36.0719,663.00,107.00,50.00,15.19,M,3.00,0.00,29.96,1007.60,10.00,M,FEW,FEW,M,M,12000.00,25000.00,M,M,M,M,M,M,M,M,M,104.19,KLAS 181856Z VRB03KT 10SM FEW120 FEW250 42/10 A2996 RMK AO2 LTG DSNT SW-NW SLP076 CB DSNT S AND W-NW T04170100 $,M
INS,2024-07-18 18:59,-115.6733,36.5872,955.00,89.60,59.00,35.81,270.00,19.00,0.00,30.05,1011.50,7.00,28.00,FEW,OVC,M,M,9500.00,12000.00,M,M,-TSRA,M,M,M,M,M,M,88.86,KINS 181859Z AUTO 27019G28KT 7SM -TSRA FEW095 OVC120 32/15 A3005 RMK AO2 WSHFT 49 SLP115 $,M
ELY,2024-07-18 19:06,-114.8453,39.2950,1909.00,84.00,42.00,22.77,330.00,5.00,T,30.29,M,10.00,M,FEW,SCT,M,M,8500.00,11000.00,M,M,-TSRA,M,M,M,M,M,M,81.42,KELY 181906Z AUTO 33005KT 10SM -TSRA FEW085 SCT110 29/06 A3029 RMK AO2 LTG DSNT NE AND E RAB01 TSB00 P0000 T02890056,M
INS,2024-07-18 19:11,-115.6733,36.5872,955.00,87.80,55.40,33.29,210.00,8.00,0.00,30.05,1011.50,8.00,21.00,FEW,OVC,M,M,4600.00,12000.00,M,M,VCTS -RA,M,M,M,M,M,M,86.11,KINS 181911Z AUTO 21008G21KT 8SM VCTS -RA FEW046 OVC120 31/13 A3005 RMK AO2 TSE11 SLP115 $,M
INS,2024-07-18 19:13,-115.6733,36.5872,955.00,87.80,57.20,35.53,150.00,14.00,0.00,30.05,1011.50,10.00,25.00,FEW,OVC,M,M,4600.00,12000.00,M,M,VCTS -RA,M,M,M,M,M,M,86.58,KINS 181913Z AUTO 15014G25KT 10SM VCTS -RA FEW046 OVC120 31/14 A3005 RMK AO2 WSHFT 12 TSE11 SLP115 $,M
BVU,2024-07-18 19:15,-114.8611,35.9475,671.00,105.80,48.20,14.71,110.00,10.00,0.00,29.94,M,10.00,17.00,CLR,M,M,M,M,M,M,M,M,M,M,M,M,M,M,102.45,KBVU 181915Z AUTO 11010G17KT 10SM CLR 41/09 A2994 RMK AO2,M
CXP,2024-07-18 19:15,-119.7326,39.1923,1431.00,89.60,24.80,9.56,0.00,0.00,0.00,30.19,M,10.00,M,CLR,M,M,M,M,M,M,M,M,M,M,M,M,M,M,84.88,KCXP 181915Z AUTO 00000KT 10SM CLR 32/M04 A3019 RMK AO2,M
INS,2024-07-18 19:15,-115.6733,36.5872,955.00,89.60,57.20,33.56,100.00,12.00,0.00,30.05,1011.50,10.00,25.00,FEW,OVC,M,M,4600.00,12000.00,M,M,VCTS -RA,M,M,M,M,M,M,88.28,KINS 181915Z AUTO 10012G25KT 10SM VCTS -RA FEW046 OVC120 32/14 A3005 RMK AO2 WSHFT 13 TSE11 SLP115 $,M
LSV,2024-07-18 19:15,-115.0343,36.2362,570.00,107.60,46.40,13.04,M,3.00,0.00,29.89,1008.70,10.00,M,FEW,M,M,M,18000.00,M,M,M,M,M,M,M,M,M,M,103.71,KLSV 181915Z VRB03KT 10SM FEW180 42/08 A2989 RMK LTG DSNT S SLP087 $,M
RTS,2024-07-18 19:15,-119.8764,39.6682,1539.00,86.00,17.60,7.90,M,5.00,0.00,30.23,M,10.00,M,CLR,M,M,M,M,M,M,M,M,M,M,M,M,M,M,81.85,KRTS 181915Z AUTO VRB05KT 10SM CLR 30/M08 A3023 RMK AO2,M
05U,2024-07-18 19:15,-116.0051,39.6042,1811.23,84.20,41.00,21.76,140.00,10.00,0.00,30.29,M,10.00,M,SCT,M,M,M,11000.00,M,M,M,M,M,M,M,M,M,M,81.52,K05U 181915Z AUTO 14010KT 10SM SCT110 29/05 A3029 RMK A01,M
MEV,2024-07-18 19:15,-119.7500,38.9963,1441.42,87.80,26.60,10.91,M,4.00,0.00,30.18,M,9.00,M,CLR,M,M,M,M,M,M,M,M,M,M,M,M,M,M,83.69,KMEV 181915Z AUTO VRB04KT 9SM CLR 31/M03 A3018 RMK AO2,M
BAM,2024-07-18 19:15,-116.8743,40.5990,1382.36,91.40,35.60,14.02,350.00,6.00,0.00,30.16,M,10.00,M,CLR,M,M,M,M,M,M,M,M,M,M,M,M,M,M,87.17,KBAM 181915Z AUTO 35006KT 10SM CLR 33/02 A3016 RMK AO1,M
HTH,2024-07-18 19:15,-118.6315,38.5448,1282.89,89.60,28.40,11.09,M,4.00,0.00,30.16,M,10.00,M,CLR,M,M,M,M,M,M,M,M,M,M,M,M,M,M,85.17,KHTH 181915Z AUTO VRB04KT 10SM CLR 32/M02 A3016 RMK A01,M
10U,2024-07-18 19:15,-116.1876,41.9532,1637.00,91.40,30.20,11.28,M,4.00,0.00,30.22,M,10.00,M,CLR,M,M,M,M,M,M,M,M,M,M,M,M,M,M,86.71,K10U 181915Z AUTO VRB04KT 10SM CLR 33/M01 A3022 RMK AO2,M
TMT,2024-07-18 19:15,-117.1971,39.4643,1749.34,86.40,35.80,16.54,0.00,0.00,0.00,30.27,M,10.00,M,CLR,M,M,M,M,M,M,M,M,M,M,M,M,M,M,83.00,KTMT 181915Z AUTO 00000KT 10SM CLR 30/02 A3027 RMK AO2 T03020021,M
ELY,2024-07-18 19:21,-114.8453,39.2950,1909.00,83.00,44.00,25.39,100.00,8.00,T,30.29,M,10.00,M,FEW,BKN,M,M,9000.00,11000.00,M,M,VCTS,M,M,M,M,M,M,80.86,KELY 181921Z AUTO 10008KT 10SM VCTS FEW090 BKN110 28/07 A3029 RMK AO2 LTG DSNT NE RAB01E15 TSB00E15 P0000 T02830067,M
LAS,2024-07-18 19:22,-115.1634,36.0719,663.00,105.00,50.00,16.11,110.00,5.00,0.00,29.95,M,10.00,M,FEW,SCT,M,M,12000.00,25000.00,M,M,TS,M,M,M,M,M,M,102.16,KLAS 181922Z 11005KT 10SM TS FEW120 SCT250 41/10 A2995 RMK AO2 TSB22 OCNL LTGCG SW TS SW MOV NE CB DSNT E AND NW T04060100 $,M
INS,2024-07-18 19:23,-115.6733,36.5872,955.00,87.80,55.40,33.29,190.00,5.00,0.00,30.07,1012.20,6.00,19.00,FEW,OVC,M,M,3200.00,12000.00,M,M,-TSRA,M,M,M,M,M,M,86.11,KINS 181923Z AUTO 19005G19KT 6SM -TSRA FEW032 OVC120 31/13 A3007 RMK AO2 TSE11TSB23 PRESRR SLP122 $,M
HND,2024-07-18 19:27,-115.1344,35.9729,742.79,93.20,57.20,29.99,250.00,19.00,0.00,30.01,M,8.00,37.00,BKN,M,M,M,12000.00,M,M,M,TS,M,M,M,37.00,220.00,2024-07-18 19:20,91.91,KHND 181927Z 25019G37KT 8SM TS BKN120 34/14 A3001 RMK AO2 PK WND 22037/1920 WSHFT 1907 LTG DSNT S-NW,M
BVU,2024-07-18 19:35,-114.8611,35.9475,671.00,107.60,48.20,13.95,150.00,17.00,0.00,29.94,M,10.00,M,CLR,M,M,M,M,M,M,M,M,M,M,M,M,M,M,104.23,KBVU 181935Z AUTO 15017KT 10SM CLR 42/09 A2994 RMK AO2 LTG DSNT SW AND W,M
CXP,2024-07-18 19:35,-119.7326,39.1923,1431.00,89.60,24.80,9.56,290.00,5.00,0.00,30.19,M,10.00,M,CLR,M,M,M,M,M,M,M,M,M,M,M,M,M,M,84.88,KCXP 181935Z AUTO 29005KT 10SM CLR 32/M04 A3019 RMK AO2,M
RTS,2024-07-18 19:35,-119.8764,39.6682,1539.00,87.80,14.00,6.38,150.00,7.00,0.00,30.22,M,10.00,M,CLR,M,M,M,M,M,M,M,M,M,M,M,M,M,M,83.00,KRTS 181935Z AUTO 15007KT 10SM CLR 31/M10 A3022 RMK AO2,M
05U,2024-07-18 19:35,-116.0051,39.6042,1811.23,78.80,50.00,36.51,130.00,20.00,0.00,30.29,M,7.00,M,BKN,M,M,M,11000.00,M,M,M,M,M,M,M,M,M,M,78.80,K05U 181935Z AUTO 13020KT 7SM BKN110 26/10 A3029 RMK A01,M
MEV,2024-07-18 19:35,-119.7500,38.9963,1441.42,89.60,28.40,11.09,290.00,6.00,0.00,30.18,M,10.00,M,CLR,M,M,M,M,M,M,M,M,M,M,M,M,M,M,85.17,KMEV 181935Z AUTO 29006KT 10SM CLR 32/M02 A3018 RMK AO2,M
BAM,2024-07-18 19:35,-116.8743,40.5990,1382.36,93.20,35.60,13.25,0.00,0.00,0.00,30.15,M,10.00,M,CLR,M,M,M,M,M,M,M,M,M,M,M,M,M,M,88.76,KBAM 181935Z AUTO 00000KT 10SM CLR 34/02 A3015 RMK AO1,M
HTH,2024-07-18 19:35,-118.6315,38.5448,1282.89,89.60,28.40,11.09,330.00,5.00,0.00,30.15,M,10.00,10.00,CLR,M,M,M,M,M,M,M,M,M,M,M,M,M,M,85.17,KHTH 181935Z AUTO 33005G10KT 10SM CLR 32/M02 A3015 RMK A01,M
10U,2024-07-18 19:35,-116.1876,41.9532,1637.00,91.40,32.00,12.14,M,5.00,0.00,30.22,M,10.00,M,CLR,M,M,M,M,M,M,M,M,M,M,M,M,M,M,86.91,K10U 181935Z AUTO VRB05KT 10SM CLR 33/M00 A3022 RMK AO2,M
TMT,2024-07-18 19:35,-117.1971,39.4643,1749.34,88.70,40.30,18.35,170.00,7.00,0.00,30.26,M,10.00,M,SCT,M,M,M,11000.00,M,M,M,M,M,M,M,M,M,M,85.02,KTMT 181935Z AUTO 17007KT 10SM SCT110 32/05 A3026 RMK AO2 T03150046,M
INS,2024-07-18 19:38,-115.6733,36.5872,955.00,87.80,53.60,31.17,130.00,16.00,0.00,30.08,1012.60,10.00,26.00,SCT,BKN,OVC,M,200.00,3800.00,12000.00,M,+RA,M,M,M,M,M,M,85.72,KINS 181938Z AUTO 13016G26KT 10SM +RA SCT002 BKN038 OVC120 31/12 A3008 RMK AO2 LTG DSNT NE-E TSE11TSB23E38 SLP126 $,M
INS,2024-07-18 19:43,-115.6733,36.5872,955.00,87.80,50.00,27.29,120.00,13.00,0.00,30.08,1012.60,8.00,26.00,SCT,BKN,OVC,M,200.00,5000.00,12000.00,M,TSRA,M,M,M,M,M,M,85.11,KINS 181943Z AUTO 12013G26KT 8SM TSRA SCT002 BKN050 OVC120 31/10 A3008 RMK AO2 TSE11TSB23E38TSB43 SLP126 $,M
LAS,2024-07-18 19:43,-115.1634,36.0719,663.00,98.00,52.00,21.41,230.00,19.00,T,29.95,M,10.00,40.00,SCT,BKN,M,M,12000.00,25000.00,M,M,-TSRA,M,M,M,40.00,230.00,2024-07-18 19:34,95.42,KLAS 181943Z 23019G40KT 10SM -TSRA SCT120 BKN250 37/11 A2995 RMK AO2 PK WND 23040/1934 WSHFT 1928 RAB37 TSB22 OCNL LTGICCG SW-W TS SW-W MOV NW CB DSNT E P0000 T03670111 $,M
05U,2024-07-18 19:50,-116.0051,39.6042,1811.23,75.20,50.00,41.14,110.00,13.00,0.00,30.29,M,9.00,M,FEW,BKN,M,M,3600.00,11000.00,M,M,M,M,M,M,M,M,M,75.20,K05U 181950Z AUTO 11013KT 9SM FEW036 BKN110 24/10 A3029 RMK A01,M
INS,2024-07-18 19:53,-115.6733,36.5872,955.00,87.80,55.40,33.29,120.00,9.00,0.00,30.08,1012.60,2.50,18.00,FEW,BKN,OVC,M,300.00,6500.00,12000.00,M,-TSRA,M,M,M,M,M,M,86.11,KINS 181953Z AUTO 12009G18KT 2 1/2SM -TSRA FEW003 BKN065 OVC120 31/13 A3008 RMK AO2 VIS 2 1/4V7 TSE11TSB23E38TSB43 SLP126 $,M
P68,2024-07-18 19:53,-116.0056,39.6014,1993.00,76.00,51.00,41.57,100.00,11.00,0.00,30.27,1016.70,M,M,M,M,M,M,M,M,M,M,M,M,M,M,27.00,140.00,2024-07-18 19:34,76.00,KP68 181953Z AUTO 10011KT 24/11 A3027 RMK AO1 PK WND 14027/1934 SLP167 T02440106,M
DRA,2024-07-18 19:53,-116.0278,36.6206,1009.00,99.00,47.00,17.23,110.00,19.00,0.00,30.05,1011.20,10.00,27.00,BKN,M,M,M,12000.00,M,M,M,M,M,M,M,27.00,120.00,2024-07-18 19:51,95.35,KDRA 181953Z AUTO 11019G27KT 10SM BKN120 37/08 A3005 RMK AO2 PK WND 12027/1951 SLP112 T03720083,M
ELY,2024-07-18 19:53,-114.8453,39.2950,1909.00,79.00,51.00,37.64,60.00,11.00,T,30.29,1014.40,10.00,16.00,OVC,M,M,M,11000.00,M,M,M,-RA,M,M,M,M,M,M,79.00,KELY 181953Z AUTO 06011G16KT 10SM -RA OVC110 26/11 A3029 RMK AO2 LTG DSNT SE RAB01E15B34 TSB00E15 SLP144 P0000 T02610106,M
VGT,2024-07-18 19:53,-115.1933,36.2111,667.00,104.00,50.00,16.59,210.00,18.00,0.00,29.95,1012.30,10.00,27.00,CLR,M,M,M,M,M,M,M,M,M,M,M,27.00,180.00,2024-07-18 19:50,101.14,KVGT 181953Z 21018G27KT 10SM CLR 40/10 A2995 RMK AO2 PK WND 18027/1950 LTG DSNT S-W SLP123 T04000100,M
LOL,2024-07-18 19:53,-118.5701,40.0684,1192.43,93.00,33.00,12.02,M,5.00,0.00,30.12,1014.70,10.00,M,CLR,M,M,M,M,M,M,M,M,M,M,M,M,M,M,88.28,KLOL 181953Z AUTO VRB05KT 10SM CLR 34/01 A3012 RMK AO2 SLP147 T03390006,M
NFL,2024-07-18 19:54,-118.7010,39.4166,1199.00,93.00,33.00,12.02,M,3.00,0.00,30.12,1016.70,10.00,M,SCT,SCT,BKN,M,8000.00,12000.00,15000.00,M,M,M,M,M,M,M,M,88.28,KNFL 181954Z VRB03KT 10SM SCT080 SCT120 BKN150 34/01 A3012 RMK AO2 SLP167 T03390006,M
BVU,2024-07-18 19:55,-114.8611,35.9475,671.00,107.60,48.20,13.95,150.00,11.00,0.00,29.93,M,10.00,20.00,CLR,M,M,M,M,M,M,M,M,M,M,M,M,M,M,104.23,KBVU 181955Z AUTO 15011G20KT 10SM CLR 42/09 A2993 RMK AO2,M
CXP,2024-07-18 19:55,-119.7326,39.1923,1431.00,91.40,26.60,9.74,0.00,0.00,0.00,30.19,M,10.00,M,CLR,M,M,M,M,M,M,M,M,M,M,M,M,M,M,86.36,KCXP 181955Z AUTO 00000KT 10SM CLR 33/M03 A3019 RMK AO2,M
INS,2024-07-18 19:55,-115.6733,36.5872,955.00,86.50,56.30,35.84,120.00,8.00,0.07,30.07,1012.30,3.00,18.00,FEW,BKN,OVC,M,300.00,6500.00,12000.00,M,-TSRA,M,M,M,28.00,260.00,2024-07-18 18:55,85.18,KINS 181955Z AUTO 12008G18KT 3SM -TSRA FEW003 BKN065 OVC120 30/14 A3007 RMK AO2 PK WND 26028/1855 TSE11TSB23E38TSB43 SLP123 P0007 T03030135 $,M
RNO,2024-07-18 19:55,-119.7711,39.4839,1341.00,93.00,21.00,7.33,0.00,0.00,0.00,30.16,1014.70,10.00,M,FEW,M,M,M,12000.00,M,M,M,M,M,M,M,M,M,M,87.13,KRNO 181955Z 00000KT 10SM FEW120 34/M06 A3016 RMK AO2 SLP147 T03391061,M
LSV,2024-07-18 19:55,-115.0343,36.2362,570.00,105.60,44.60,12.91,120.00,4.00,0.00,29.88,1008.40,10.00,M,FEW,M,M,M,20000.00,M,M,M,M,M,M,M,M,M,M,101.35,KLSV 181955Z AUTO 12004KT 10SM FEW200 41/07 A2988 RMK AO2 LTG DSNT NE AND S SLP084 T04090070 $,M
RTS,2024-07-18 19:55,-119.8764,39.6682,1539.00,87.80,14.00,6.38,M,4.00,0.00,30.22,M,10.00,M,CLR,M,M,M,M,M,M,M,M,M,M,M,M,M,M,83.00,KRTS 181955Z AUTO VRB04KT 10SM CLR 31/M10 A3022 RMK AO2,M
MEV,2024-07-18 19:55,-119.7500,38.9963,1441.42,87.80,30.20,12.64,250.00,5.00,0.00,30.18,M,9.00,M,CLR,M,M,M,M,M,M,M,M,M,M,M,M,M,M,84.01,KMEV 181955Z AUTO 25005KT 9SM CLR 31/M01 A3018 RMK AO2,M
BAM,2024-07-18 19:55,-116.8743,40.5990,1382.36,91.40,37.40,15.05,350.00,4.00,0.00,30.15,M,10.00,M,CLR,M,M,M,M,M,M,M,M,M,M,M,M,M,M,87.23,KBAM 181955Z AUTO 35004KT 10SM CLR 33/03 A3015 RMK AO1,M
HTH,2024-07-18 19:55,-118.6315,38.5448,1282.89,91.40,28.40,10.48,310.00,9.00,0.00,30.15,M,10.00,M,CLR,M,M,M,M,M,M,M,M,M,M,M,M,M,M,86.53,KHTH 181955Z AUTO 31009KT 10SM CLR 33/M02 A3015 RMK A01,M
10U,2024-07-18 19:55,-116.1876,41.9532,1637.00,93.20,30.20,10.67,250.00,8.00,0.00,30.21,M,10.00,M,CLR,M,M,M,M,M,M,M,M,M,M,M,M,M,M,88.09,K10U 181955Z AUTO 25008KT 10SM CLR 34/M01 A3021 RMK AO2,M
TMT,2024-07-18 19:55,-117.1971,39.4643,1749.34,87.60,42.00,20.29,220.00,12.00,0.00,30.27,M,10.00,16.00,BKN,M,M,M,11000.00,M,M,M,M,M,M,M,M,M,M,84.19,KTMT 181955Z AUTO 22012G16KT 10SM BKN110 31/06 A3027 RMK AO2 T03090055,M
EKO,2024-07-18 19:56,-115.7860,40.8242,1367.00,93.00,44.00,18.49,M,4.00,0.00,30.16,1014.20,10.00,M,CLR,M,M,M,M,M,M,M,M,M,M,M,M,M,M,89.10,KEKO 181956Z AUTO VRB04KT 10SM CLR 34/07 A3016 RMK AO2 SLP142 T03390067,M
WMC,2024-07-18 19:56,-117.8072,40.9019,1315.00,97.00,28.00,8.67,M,3.00,0.00,30.12,1013.90,10.00,M,CLR,M,M,M,M,M,M,M,M,M,M,M,M,M,M,90.87,KWMC 181956Z AUTO VRB03KT 10SM CLR 36/M02 A3012 RMK AO2 SLP139 T03611022,M
HND,2024-07-18 19:56,-115.1344,35.9729,742.79,95.00,58.00,29.20,240.00,16.00,0.00,30.01,1014.00,9.00,20.00,FEW,M,M,M,12000.00,M,M,M,TS,M,M,M,37.00,220.00,2024-07-18 19:20,94.11,KHND 181956Z 24016G20KT 9SM TS FEW120 35/14 A3001 RMK AO2 PK WND 22037/1920 WSHFT 1907 LTG DSNT S AND W SLP140 T03500144,M
TPH,2024-07-18 19:56,-117.0904,38.0505,1654.00,92.00,41.00,17.00,200.00,24.00,0.00,30.25,1015.00,10.00,35.00,BKN,M,M,M,11000.00,M,M,M,M,M,M,M,35.00,190.00,2024-07-18 19:56,87.94,KTPH 181956Z AUTO 20024G35KT 10SM BKN110 33/05 A3025 RMK AO2 PK WND 19035/1956 SLP150 T03330050,M
LAS,2024-07-18 19:56,-115.1634,36.0719,663.00,98.00,54.00,23.04,250.00,16.00,T,29.95,1007.50,10.00,30.00,SCT,BKN,M,M,12000.00,25000.00,M,M,-TSRA,M,M,M,40.00,230.00,2024-07-18 19:34,95.99,KLAS 181956Z COR 25016G30KT 10SM -TSRA SCT120CB BKN250 37/12 A2995 RMK AO2 PK WND 23040/1934 WSHFT 1928 RAB37 TSB22 SLP075 OCNL LTGIC W TS W MOV NW CB DSNT E AND S P0000 T03670122 $,M
INS,2024-07-18 19:58,-115.6733,36.5872,955.00,84.20,57.20,39.86,90.00,8.00,0.00,30.06,1012.10,6.00,M,SCT,BKN,OVC,M,300.00,5500.00,12000.00,M,VCTS -RA,M,M,M,M,M,M,83.47,KINS 181958Z AUTO 09008KT 6SM VCTS -RA SCT003 BKN055 OVC120 29/14 A3006 RMK AO2 TSE58 SLP121 $,M
P68,2024-07-18 20:08,-116.0056,39.6014,1993.00,71.00,54.00,54.92,180.00,23.00,0.00,30.32,M,M,33.00,M,M,M,M,M,M,M,M,M,M,M,M,33.00,190.00,2024-07-18 20:07,71.00,KP68 182008Z AUTO 18023G33KT 22/12 A3032 RMK AO1 PK WND 19033/2007 WSHFT 1951 PRESRR T02170122,M
LSV,2024-07-18 20:09,-115.0343,36.2362,570.00,105.80,46.40,13.75,220.00,20.00,0.00,29.87,1008.10,10.00,M,SCT,BKN,M,M,12000.00,15000.00,M,M,VCTS,M,M,M,M,M,M,101.97,KLSV 182009Z 22020KT 10SM VCTS SCT120CB BKN150 41/08 A2987 RMK LTG DSNT S-SW SLP081 $,M
LSV,2024-07-18 20:10,-115.0343,36.2362,570.00,105.80,46.40,13.75,220.00,19.00,0.00,29.87,1008.10,10.00,M,FEW,FEW,M,M,12000.00,21000.00,M,M,M,M,M,M,M,M,M,101.97,KLSV 182010Z AUTO 22019KT 10SM FEW120 FEW210 41/08 A2987 RMK AO2 WSHFT 06 LTG DSNT S-SW SLP081 $,M
ELY,2024-07-18 20:11,-114.8453,39.2950,1909.00,74.00,52.00,46.11,80.00,17.00,0.03,30.31,M,5.00,22.00,FEW,FEW,OVC,M,5000.00,9000.00,11000.00,M,-TSRA,M,M,M,M,M,M,74.00,KELY 182011Z AUTO 08017G22KT 5SM -TSRA FEW050 FEW090 OVC110 23/11 A3031 RMK AO2 LTG DSNT N-SE TSB05 P0003 T02330111,M
INS,2024-07-18 20:14,-115.6733,36.5872,955.00,87.80,57.20,35.53,80.00,5.00,0.00,30.04,1011.30,10.00,M,SCT,BKN,M,M,5500.00,13000.00,M,M,M,M,M,M,M,M,M,86.58,KINS 182014Z AUTO 08005KT 10SM SCT055 BKN130 31/14 A3004 RMK AO2 LTG DSNT S RAE14 TSE1958 PRESFR SLP113 $,M
CXP,2024-07-18 20:15,-119.7326,39.1923,1431.00,91.40,28.40,10.48,50.00,8.00,0.00,30.19,M,10.00,M,CLR,M,M,M,M,M,M,M,M,M,M,M,M,M,M,86.53,KCXP 182015Z AUTO 05008KT 10SM CLR 33/M02 A3019 RMK AO2,M
RTS,2024-07-18 20:15,-119.8764,39.6682,1539.00,89.60,15.80,6.52,M,4.00,0.00,30.22,M,10.00,10.00,CLR,M,M,M,M,M,M,M,M,M,M,M,M,M,M,84.37,KRTS 182015Z AUTO VRB04G10KT 10SM CLR 32/M09 A3022 RMK AO2,M
05U,2024-07-18 20:15,-116.0051,39.6042,1811.23,66.20,55.40,68.15,200.00,14.00,0.00,30.35,M,2.50,23.00,SCT,BKN,OVC,M,3600.00,6000.00,11000.00,M,HZ,M,M,M,M,M,M,66.20,K05U 182015Z AUTO 20014G23KT 2 1/2SM HZ SCT036 BKN060 OVC110 19/13 A3035 RMK A01 VIS 1V5,M
MEV,2024-07-18 20:15,-119.7500,38.9963,1441.42,89.60,30.20,11.94,310.00,3.00,0.00,30.18,M,10.00,M,CLR,M,M,M,M,M,M,M,M,M,M,M,M,M,M,85.34,KMEV 182015Z AUTO 31003KT 10SM CLR 32/M01 A3018 RMK AO2,M
BAM,2024-07-18 20:15,-116.8743,40.5990,1382.36,95.00,37.40,13.46,350.00,5.00,0.00,30.14,M,10.00,M,CLR,M,M,M,M,M,M,M,M,M,M,M,M,M,M,90.46,KBAM 182015Z AUTO 35005KT 10SM CLR 35/03 A3014 RMK AO1,M
HTH,2024-07-18 20:15,-118.6315,38.5448,1282.89,93.20,28.40,9.91,360.00,6.00,0.00,30.14,M,10.00,11.00,CLR,M,M,M,M,M,M,M,M,M,M,M,M,M,M,87.89,KHTH 182015Z AUTO 36006G11KT 10SM CLR 34/M02 A3014 RMK A01,M
10U,2024-07-18 20:15,-116.1876,41.9532,1637.00,93.20,28.40,9.91,M,4.00,0.00,30.20,M,10.00,M,CLR,M,M,M,M,M,M,M,M,M,M,M,M,M,M,87.89,K10U 182015Z AUTO VRB04KT 10SM CLR 34/M02 A3020 RMK AO2,M
BVU,2024-07-18 20:15,-114.8611,35.9475,671.00,105.80,50.00,15.73,170.00,9.00,0.00,29.92,M,10.00,21.00,CLR,M,M,M,M,M,M,M,M,M,M,M,M,M,M,102.98,KBVU 182015Z AUTO 17009G21KT 10SM CLR 41/10 A2992 RMK AO2 LTG DSNT E AND W AND NW,M
TMT,2024-07-18 20:15,-117.1971,39.4643,1749.34,86.00,42.40,21.68,210.00,16.00,0.00,30.27,M,10.00,24.00,SCT,M,M,M,12000.00,M,M,M,M,M,M,M,M,M,M,82.93,KTMT 182015Z AUTO 21016G24KT 10SM SCT120 30/06 A3027 RMK AO2 T02990058,M
VGT,2024-07-18 20:22,-115.1933,36.2111,667.00,102.00,49.00,16.97,210.00,10.00,T,29.95,M,10.00,M,FEW,M,M,M,11000.00,M,M,M,VCTS,M,M,M,29.00,220.00,2024-07-18 20:02,98.82,KVGT 182022Z 21010KT 10SM VCTS FEW110 39/09 A2995 RMK AO2 PK WND 22029/2002 LTG DSNT ALQDS RAB08E17 P0000 T03890094,M
LSV,2024-07-18 20:27,-115.0343,36.2362,570.00,104.00,42.80,12.64,220.00,16.00,0.00,29.89,1008.80,10.00,M,BKN,M,M,M,12000.00,M,M,M,-TSRA,M,M,M,M,M,M,99.42,KLSV 182027Z 22016KT 10SM -TSRA BKN120 40/06 A2989 RMK PRESRR SLP088 $,M
LSV,2024-07-18 20:28,-115.0343,36.2362,570.00,104.00,42.80,12.64,210.00,16.00,0.00,29.89,1008.80,10.00,M,BKN,M,M,M,12000.00,M,M,M,TS,M,M,M,M,M,M,99.42,KLSV 182028Z AUTO 21016KT 10SM TS BKN120 40/06 A2989 RMK AO2 TSB27 SLP088 $,M
LSV,2024-07-18 20:30,-115.0343,36.2362,570.00,104.00,42.80,12.64,200.00,17.00,0.00,29.90,1009.10,10.00,M,BKN,M,M,M,12000.00,M,M,M,TS,M,M,M,M,M,M,99.42,KLSV 182030Z COR AUTO 20017KT 10SM TS BKN120CB 40/06 A2990 RMK AO2 WSHFT 17 TSB27E30TSB30 SLP091 $ COR 2031,M
LSV,2024-07-18 20:31,-115.0343,36.2362,570.00,104.00,42.80,12.64,190.00,17.00,0.00,29.90,1009.10,10.00,M,BKN,M,M,M,12000.00,M,M,M,-TSRA,M,M,M,M,M,M,99.42,KLSV 182031Z COR AUTO 19017KT 10SM -TSRA BKN120CB 40/06 A2990 RMK AO2A WSHFT 17 TSB27E30TSB30 SLP091 $ COR 2031,M
LSV,2024-07-18 20:32,-115.0343,36.2362,570.00,104.00,42.80,12.64,190.00,17.00,0.00,29.90,1009.10,10.00,M,BKN,M,M,M,12000.00,M,M,M,-TSRA,M,M,M,M,M,M,99.42,KLSV 182032Z COR AUTO 19017KT 10SM -TSRA BKN120CB 40/06 A2990 RMK AO2A WSHFT 17 TSB27E30TSB30 SLP091 $ COR 2031,M
LSV,2024-07-18 20:33,-115.0343,36.2362,570.00,104.00,44.60,13.54,180.00,25.00,0.00,29.90,1009.10,10.00,27.00,BKN,BKN,M,M,12000.00,15000.00,M,M,TS,M,M,M,M,M,M,99.82,KLSV 182033Z AUTO 18025G27KT 10SM TS BKN120 BKN150 40/07 A2990 RMK AO2 TSB27E33TSB33 SLP091 $,M
BVU,2024-07-18 20:35,-114.8611,35.9475,671.00,104.00,51.80,17.74,320.00,11.00,0.00,29.94,M,10.00,M,CLR,M,M,M,M,M,M,M,VCTS,M,M,M,M,M,M,101.69,KBVU 182035Z AUTO 32011KT 10SM VCTS CLR 40/11 A2994 RMK AO2 LTG DSNT N AND NW,M
CXP,2024-07-18 20:35,-119.7326,39.1923,1431.00,93.20,26.60,9.21,M,6.00,0.00,30.18,M,10.00,11.00,CLR,M,M,M,M,M,M,M,M,M,M,M,M,M,M,87.72,KCXP 182035Z AUTO VRB06G11KT 10SM CLR 34/M03 A3018 RMK AO2,M
ELY,2024-07-18 20:35,-114.8453,39.2950,1909.00,75.00,55.00,49.78,80.00,14.00,0.04,30.29,M,10.00,22.00,FEW,BKN,M,M,2800.00,11000.00,M,M,-RA,M,M,M,M,M,M,75.00,KELY 182035Z AUTO 08014G22KT 10SM -RA FEW028 BKN110 24/13 A3029 RMK AO2 LTG DSNT N AND SE TSB05E29 P0004 T02390128,M
LSV,2024-07-18 20:35,-115.0343,36.2362,570.00,104.00,48.20,15.52,180.00,28.00,0.00,29.90,1009.10,10.00,M,SCT,BKN,M,M,12000.00,15000.00,M,M,-TSRA,M,M,M,M,M,M,100.65,KLSV 182035Z 18028KT 10SM -TSRA SCT120CB BKN150 40/09 A2990 RMK A02A LTG DSNT W TSB27E35 SLP091 $,M
RTS,2024-07-18 20:35,-119.8764,39.6682,1539.00,89.60,19.40,7.61,120.00,13.00,0.00,30.21,M,10.00,M,CLR,M,M,M,M,M,M,M,M,M,M,M,M,M,M,84.54,KRTS 182035Z AUTO 12013KT 10SM CLR 32/M07 A3021 RMK AO2,M
05U,2024-07-18 20:35,-116.0051,39.6042,1811.23,73.40,46.40,38.18,M,5.00,0.00,30.34,M,4.00,26.00,SCT,BKN,OVC,M,4000.00,6000.00,7000.00,M,HZ,M,M,M,M,M,M,73.40,K05U 182035Z AUTO VRB05G26KT 4SM HZ SCT040 BKN060 OVC070 23/08 A3034 RMK A01,M
MEV,2024-07-18 20:35,-119.7500,38.9963,1441.42,91.40,32.00,12.14,M,4.00,0.00,30.17,M,8.00,M,CLR,M,M,M,M,M,M,M,M,M,M,M,M,M,M,86.91,KMEV 182035Z AUTO VRB04KT 8SM CLR 33/M00 A3017 RMK AO2,M
HTH,2024-07-18 20:35,-118.6315,38.5448,1282.89,95.00,28.40,9.38,300.00,6.00,0.00,30.13,M,10.00,M,CLR,M,M,M,M,M,M,M,M,M,M,M,M,M,M,89.27,KHTH 182035Z AUTO 30006KT 10SM CLR 35/M02 A3013 RMK A01,M
10U,2024-07-18 20:35,-116.1876,41.9532,1637.00,95.00,30.20,10.09,170.00,9.00,0.00,30.19,M,10.00,M,CLR,M,M,M,M,M,M,M,M,M,M,M,M,M,M,89.48,K10U 182035Z AUTO 17009KT 10SM CLR 35/M01 A3019 RMK AO2,M
BAM,2024-07-18 20:35,-116.8743,40.5990,1382.36,95.00,37.40,13.46,100.00,3.00,0.00,30.13,M,10.00,M,CLR,M,M,M,M,M,M,M,M,M,M,M,M,M,M,90.46,KBAM 182035Z AUTO 10003KT 10SM CLR 35/03 A3013 RMK AO1,M
TMT,2024-07-18 20:35,-117.1971,39.4643,1749.34,82.80,45.30,26.85,220.00,16.00,0.00,30.28,M,10.00,21.00,SCT,SCT,SCT,M,4700.00,6500.00,10000.00,M,M,M,M,M,M,M,M,80.82,KTMT 182035Z AUTO 22016G21KT 10SM SCT047 SCT065 SCT100 28/07 A3028 RMK AO2 T02820074,M
LSV,2024-07-18 20:36,-115.0343,36.2362,570.00,102.20,50.00,17.51,180.00,26.00,0.00,29.90,1009.10,10.00,M,SCT,BKN,M,M,12000.00,15000.00,M,M,TS,M,M,M,M,M,M,99.28,KLSV 182036Z AUTO 18026KT 10SM TS SCT120 BKN150 39/10 A2990 RMK AO2 TSB27E36TSB36 SLP091 $,M
LAS,2024-07-18 20:36,-115.1634,36.0719,663.00,98.00,51.00,20.63,230.00,22.00,T,29.96,M,10.00,35.00,SCT,BKN,M,M,12000.00,25000.00,M,M,-TSRA,M,M,M,35.00,230.00,2024-07-18 20:35,95.17,KLAS 182036Z 23022G35KT 10SM -TSRA SCT120 BKN250 37/11 A2996 RMK AO2 PK WND 23035/2035 RAE13B35 OCNL LTGICCG NE-SE TS NE-SE MOV NW CB DSNT SW P0000 T03670106 $,M
LSV,2024-07-18 20:42,-115.0343,36.2362,570.00,98.60,53.60,22.29,200.00,19.00,0.00,29.91,1009.50,10.00,27.00,SCT,M,M,M,12000.00,M,M,M,VCTS,M,M,M,M,M,M,96.51,KLSV 182042Z AUTO 20019G27KT 10SM VCTS SCT120 37/12 A2991 RMK AO2 TSB27E42 SLP095 $,M
VGT,2024-07-18 20:45,-115.1933,36.2111,667.00,100.00,54.00,21.68,210.00,12.00,T,29.98,M,10.00,31.00,FEW,M,M,M,11000.00,M,M,M,M,M,M,M,31.00,200.00,2024-07-18 20:37,98.14,KVGT 182045Z 21012G31KT 10SM FEW110 38/12 A2998 RMK AO2 PK WND 20031/2037 LTG DSNT SE AND W RAB08E17 PRESRR P0000 T03780122,M
LSV,2024-07-18 20:47,-115.0343,36.2362,570.00,98.60,51.80,20.87,220.00,21.00,0.00,29.90,1009.20,10.00,28.00,SCT,M,M,M,12000.00,M,M,M,VCTS,M,M,M,M,M,M,96.00,KLSV 182047Z AUTO 22021G28KT 10SM VCTS SCT120 37/11 A2990 RMK AO2 WSHFT 36 TSB27E42 SLP092 $,M
P68,2024-07-18 20:53,-116.0056,39.6014,1993.00,77.00,47.00,34.63,330.00,7.00,0.08,30.30,1017.70,M,M,M,M,M,M,M,M,M,M,M,M,M,M,33.00,190.00,2024-07-18 20:07,77.00,KP68 182053Z AUTO 33007KT 25/08 A3030 RMK AO1 PK WND 19033/2007 WSHFT 1951 SLP177 P0008 60008 T02500083 53011,M
DRA,2024-07-18 20:53,-116.0278,36.6206,1009.00,100.00,48.00,17.36,100.00,13.00,0.00,30.03,1010.70,10.00,M,CLR,M,M,M,M,M,M,M,M,M,M,M,32.00,110.00,2024-07-18 20:17,96.55,KDRA 182053Z AUTO 10013KT 10SM CLR 38/09 A3003 RMK AO2 PK WND 11032/2017 SLP107 T03780089 58008,M
ELY,2024-07-18 20:53,-114.8453,39.2950,1909.00,82.00,51.00,34.12,90.00,11.00,0.04,30.28,1013.90,10.00,M,FEW,M,M,M,11000.00,M,M,M,M,M,M,M,M,M,M,80.84,KELY 182053Z AUTO 09011KT 10SM FEW110 28/11 A3028 RMK AO2 LTG DSNT N-SE RAE38 TSB05E29 SLP139 P0004 60004 T02780106 58006,M
VGT,2024-07-18 20:53,-115.1933,36.2111,667.00,99.00,54.00,22.35,230.00,18.00,T,29.99,1013.70,10.00,28.00,FEW,M,M,M,11000.00,M,M,M,M,M,M,M,31.00,200.00,2024-07-18 20:37,97.06,KVGT 182053Z 23018G28KT 10SM FEW110 37/12 A2999 RMK AO2 PK WND 20031/2037 LTG DSNT ALQDS RAB08E17 SLP137 P0000 60000 T03720122 53004,M
LSV,2024-07-18 20:53,-115.0343,36.2362,570.00,100.40,53.60,21.11,230.00,20.00,0.00,29.90,1009.20,10.00,28.00,FEW,M,M,M,13000.00,M,M,M,TS,M,M,M,M,M,M,98.44,KLSV 182053Z AUTO 23020G28KT 10SM TS FEW130 38/12 A2990 RMK AO2 TSB27E42TSB53 SLP092 $,M
LOL,2024-07-18 20:53,-118.5701,40.0684,1192.43,93.00,30.00,10.65,130.00,5.00,0.00,30.10,1014.80,10.00,M,CLR,M,M,M,M,M,M,M,M,M,M,M,M,M,M,87.91,KLOL 182053Z AUTO 13005KT 10SM CLR 34/M01 A3010 RMK AO2 SLP148 T03391011 56012,M
NFL,2024-07-18 20:54,-118.7010,39.4166,1199.00,94.00,32.00,11.19,M,5.00,0.00,30.11,1016.10,10.00,M,SCT,SCT,BKN,M,8000.00,12000.00,15000.00,M,M,M,M,M,M,M,M,88.93,KNFL 182054Z VRB05KT 10SM SCT080 SCT120 BKN150 34/00 A3011 RMK AO2 SLP161 T03440000 58012,M
BVU,2024-07-18 20:55,-114.8611,35.9475,671.00,98.60,51.80,20.87,320.00,21.00,0.00,29.93,M,10.00,30.00,FEW,M,M,M,12000.00,M,M,M,VCTS,M,M,M,M,M,M,96.00,KBVU 182055Z AUTO 32021G30KT 10SM VCTS FEW120 37/11 A2993 RMK AO2 LTG DSNT ALQDS,M
CXP,2024-07-18 20:55,-119.7326,39.1923,1431.00,93.20,26.60,9.21,M,6.00,0.00,30.18,M,10.00,M,CLR,M,M,M,M,M,M,M,M,M,M,M,M,M,M,87.72,KCXP 182055Z AUTO VRB06KT 10SM CLR 34/M03 A3018 RMK AO2,M
RNO,2024-07-18 20:55,-119.7711,39.4839,1341.00,97.00,25.00,7.66,230.00,5.00,0.00,30.14,1014.00,10.00,M,SCT,M,M,M,15000.00,M,M,M,M,M,M,M,M,M,M,90.58,KRNO 182055Z 23005KT 10SM SCT150 36/M04 A3014 RMK AO2 SLP140 T03611039 58016,M
RTS,2024-07-18 20:55,-119.8764,39.6682,1539.00,91.40,21.20,7.77,130.00,8.00,0.00,30.21,M,10.00,M,CLR,M,M,M,M,M,M,M,M,M,M,M,M,M,M,85.96,KRTS 182055Z AUTO 13008KT 10SM CLR 33/M06 A3021 RMK AO2,M
05U,2024-07-18 20:55,-116.0051,39.6042,1811.23,75.20,48.20,38.46,350.00,8.00,0.08,30.32,M,10.00,M,FEW,SCT,BKN,M,1700.00,4200.00,7000.00,M,M,M,M,M,M,M,M,75.20,K05U 182055Z AUTO 35008KT 310V010 10SM FEW017 SCT042 BKN070 24/09 A3032 RMK A01 P0008,M
MEV,2024-07-18 20:55,-119.7500,38.9963,1441.42,91.40,32.00,12.14,M,4.00,0.00,30.17,M,10.00,10.00,CLR,M,M,M,M,M,M,M,M,M,M,M,M,M,M,86.91,KMEV 182055Z AUTO VRB04G10KT 10SM CLR 33/M00 A3017 RMK AO2,M
BAM,2024-07-18 20:55,-116.8743,40.5990,1382.36,96.80,37.40,12.73,340.00,4.00,0.00,30.13,M,10.00,M,CLR,M,M,M,M,M,M,M,M,M,M,M,M,M,M,92.04,KBAM 182055Z AUTO 34004KT 10SM CLR 36/03 A3013 RMK AO1,M
HTH,2024-07-18 20:55,-118.6315,38.5448,1282.89,93.20,28.40,9.91,310.00,7.00,0.00,30.13,M,10.00,13.00,CLR,M,M,M,M,M,M,M,M,M,M,M,M,M,M,87.89,KHTH 182055Z AUTO 31007G13KT 280V360 10SM CLR 34/M02 A3013 RMK A01,M
10U,2024-07-18 20:55,-116.1876,41.9532,1637.00,95.00,32.00,10.85,M,4.00,0.00,30.19,M,10.00,15.00,CLR,M,M,M,M,M,M,M,M,M,M,M,M,M,M,89.71,K10U 182055Z AUTO VRB04G15KT 10SM CLR 35/M00 A3019 RMK AO2,M
TMT,2024-07-18 20:55,-117.1971,39.4643,1749.34,86.00,44.60,23.59,250.00,9.00,0.00,30.27,M,10.00,M,SCT,SCT,SCT,M,4100.00,6500.00,8000.00,M,M,M,M,M,M,M,M,83.07,KTMT 182055Z AUTO 25009KT 10SM SCT041 SCT065 SCT080 30/07 A3027 RMK AO2 T02990070,M
INS,2024-07-18 20:55,-115.6733,36.5872,955.00,96.00,51.00,21.93,170.00,20.00,0.01,30.03,1010.70,10.00,M,FEW,BKN,M,M,13000.00,21000.00,M,M,M,M,M,M,M,M,M,93.11,KINS 182055Z AUTO 17020KT 10SM FEW130 BKN210 36/11 A3003 RMK AO2 LTG DSNT SE RAE14 TSE1958 SLP107 P0001 60008 T03550105 58001 $,M
LSV,2024-07-18 20:55,-115.0343,36.2362,570.00,100.20,53.20,20.93,230.00,20.00,0.00,29.90,1009.20,10.00,28.00,FEW,M,M,M,13000.00,M,M,M,TS,M,M,M,39.00,180.00,2024-07-18 20:44,98.10,KLSV 182055Z AUTO 23020G28KT 10SM TS FEW130 38/12 A2990 RMK AO2 PK WND 18039/44 TSB27E42TSB53 SLP092 T03790118 55006 $,M
EKO,2024-07-18 20:56,-115.7860,40.8242,1367.00,95.00,44.00,17.38,220.00,8.00,0.00,30.14,1014.00,10.00,M,CLR,M,M,M,M,M,M,M,M,M,M,M,M,M,M,90.99,KEKO 182056Z AUTO 22008KT 10SM CLR 35/07 A3014 RMK AO2 LTG DSNT E SLP140 T03500067 58017,M
WMC,2024-07-18 20:56,-117.8072,40.9019,1315.00,100.00,29.00,8.25,290.00,9.00,0.00,30.12,1014.20,10.00,M,CLR,M,M,M,M,M,M,M,M,M,M,M,M,M,M,93.50,KWMC 182056Z AUTO 29009KT 10SM CLR 38/M02 A3012 RMK AO2 SLP142 T03781017 56012,M
HND,2024-07-18 20:56,-115.1344,35.9729,742.79,93.00,56.00,28.90,310.00,11.00,T,30.01,1014.50,10.00,M,CLR,M,M,M,M,M,M,M,VCTS,M,M,M,30.00,270.00,2024-07-18 20:12,91.32,KHND 182056Z 31011KT 10SM VCTS CLR 34/13 A3001 RMK AO2 PK WND 27030/2012 LTG DSNT NW-NE RAB04E22 SLP145 P0000 60000 T03390133 55002,M
TPH,2024-07-18 20:56,-117.0904,38.0505,1654.00,89.00,40.00,17.96,170.00,13.00,0.00,30.23,1015.00,10.00,21.00,FEW,M,M,M,12000.00,M,M,M,M,M,M,M,35.00,180.00,2024-07-18 20:04,85.26,KTPH 182056Z AUTO 17013G21KT 10SM FEW120 32/04 A3023 RMK AO2 PK WND 18035/2004 SLP150 T03170044 58006,M
LAS,2024-07-18 20:56,-115.1634,36.0719,663.00,97.00,52.00,22.07,220.00,12.00,T,29.96,1007.80,10.00,24.00,SCT,BKN,M,M,12000.00,25000.00,M,M,TS,M,M,M,35.00,220.00,2024-07-18 20:40,94.38,KLAS 182056Z 22012G24KT 10SM TS SCT120CB BKN250 36/11 A2996 RMK AO2 PK WND 22035/2040 RAE13B35E55 SLP078 OCNL LTGICCG E TS E MOV NW CB DSNT SW P0000 60000 T03610111 $,M
VGT,2024-07-18 21:01,-115.1933,36.2111,667.00,98.00,54.00,23.04,260.00,15.00,0.00,29.99,M,10.00,27.00,CLR,M,M,M,M,M,M,M,VCTS,M,M,M,27.00,260.00,2024-07-18 20:59,95.99,KVGT 182101Z 26015G27KT 10SM VCTS CLR 37/12 A2999 RMK AO2 PK WND 26027/2059 LTG DSNT ALQDS T03670122,M
LSV,2024-07-18 21:08,-115.0343,36.2362,570.00,96.80,57.20,26.84,230.00,17.00,0.00,29.92,1010.00,10.00,M,FEW,M,M,M,13000.00,M,M,M,M,M,M,M,M,M,M,95.77,KLSV 182108Z AUTO 23017KT 10SM FEW130 36/14 A2992 RMK AO2 LTG DSNT SE-S TSE08 PRESRR SLP100 $,M
BVU,2024-07-18 21:15,-114.8611,35.9475,671.00,91.40,62.60,38.45,350.00,21.00,0.00,29.94,M,2.50,28.00,FEW,SCT,BKN,M,600.00,6500.00,12000.00,M,+TSRA,M,M,M,M,M,M,92.23,KBVU 182115Z AUTO 35021G28KT 2 1/2SM +TSRA FEW006 SCT065 BKN120 33/17 A2994 RMK AO2 LTG DSNT ALQDS,M
CXP,2024-07-18 21:15,-119.7326,39.1923,1431.00,93.20,26.60,9.21,200.00,6.00,0.00,30.17,M,10.00,M,CLR,M,M,M,M,M,M,M,M,M,M,M,M,M,M,87.72,KCXP 182115Z AUTO 20006KT 10SM CLR 34/M03 A3017 RMK AO2,M
RTS,2024-07-18 21:15,-119.8764,39.6682,1539.00,91.40,23.00,8.38,100.00,9.00,0.00,30.20,M,10.00,M,FEW,M,M,M,11000.00,M,M,M,M,M,M,M,M,M,M,86.08,KRTS 182115Z AUTO 10009KT 10SM FEW110 33/M05 A3020 RMK AO2,M
05U,2024-07-18 21:15,-116.0051,39.6042,1811.23,77.00,42.80,29.51,60.00,7.00,0.00,30.31,M,5.00,27.00,FEW,SCT,SCT,M,3200.00,4500.00,6000.00,M,HZ,M,M,M,M,M,M,77.00,K05U 182115Z AUTO 06007G27KT 040V110 5SM HZ FEW032 SCT045 SCT060 25/06 A3031 RMK A01,M
MEV,2024-07-18 21:15,-119.7500,38.9963,1441.42,91.40,33.80,13.05,240.00,4.00,0.00,30.17,M,10.00,M,CLR,M,M,M,M,M,M,M,M,M,M,M,M,M,M,87.13,KMEV 182115Z AUTO 24004KT 10SM CLR 33/01 A3017 RMK AO2,M
HTH,2024-07-18 21:15,-118.6315,38.5448,1282.89,95.00,30.20,10.09,340.00,9.00,0.00,30.12,M,10.00,M,CLR,M,M,M,M,M,M,M,M,M,M,M,M,M,M,89.48,KHTH 182115Z AUTO 34009KT 310V010 10SM CLR 35/M01 A3012 RMK A01,M
10U,2024-07-18 21:15,-116.1876,41.9532,1637.00,96.80,32.00,10.27,300.00,7.00,0.00,30.18,M,10.00,M,CLR,M,M,M,M,M,M,M,M,M,M,M,M,M,M,91.19,K10U 182115Z AUTO 30007KT 250V340 10SM CLR 36/M00 A3018 RMK AO2,M
BAM,2024-07-18 21:15,-116.8743,40.5990,1382.36,98.60,37.40,12.05,260.00,10.00,0.00,30.12,M,10.00,17.00,CLR,M,M,M,M,M,M,M,M,M,M,M,M,M,M,93.54,KBAM 182115Z AUTO 26010G17KT 10SM CLR 37/03 A3012 RMK AO1,M
TMT,2024-07-18 21:15,-117.1971,39.4643,1749.34,88.00,40.60,18.98,250.00,7.00,0.00,30.26,M,10.00,M,CLR,M,M,M,M,M,M,M,M,M,M,M,M,M,M,84.45,KTMT 182115Z AUTO 25007KT 10SM CLR 31/05 A3026 RMK AO2 T03120048,M
VGT,2024-07-18 21:16,-115.1933,36.2111,667.00,98.00,54.00,23.04,290.00,19.00,T,29.97,M,10.00,32.00,CLR,M,M,M,M,M,M,M,M,M,M,M,32.00,270.00,2024-07-18 21:09,95.99,KVGT 182116Z 29019G32KT 10SM CLR 37/12 A2997 RMK AO2 PK WND 27032/2109 LTG DSNT ALQDS RAB04E15 P0000 T03670122,M
HND,2024-07-18 21:25,-115.1344,35.9729,742.79,96.80,55.40,25.15,0.00,0.00,0.00,30.01,M,10.00,M,FEW,M,M,M,12000.00,M,M,M,M,M,M,M,M,M,M,95.14,KHND 182125Z 00000KT 10SM FEW120 36/13 A3001 RMK AO2 LTG DSNT NE AND E TSE19,M
HND,2024-07-18 21:32,-115.1344,35.9729,742.79,96.80,57.20,26.84,80.00,5.00,0.00,30.02,M,10.00,M,SCT,M,M,M,12000.00,M,M,M,TS,M,M,M,M,M,M,95.77,KHND 182132Z 08005KT 10SM TS SCT120 36/14 A3002 RMK AO2 LTG DSNT NE AND E TSE19B26 PRESRR,M
BVU,2024-07-18 21:35,-114.8611,35.9475,671.00,87.80,60.80,40.41,320.00,15.00,0.00,29.94,M,7.00,25.00,FEW,SCT,BKN,M,500.00,8500.00,12000.00,M,-TSRA,M,M,M,M,M,M,87.75,KBVU 182135Z AUTO 32015G25KT 7SM -TSRA FEW005 SCT085 BKN120 31/16 A2994 RMK AO2 LTG DSNT ALQDS,M
CXP,2024-07-18 21:35,-119.7326,39.1923,1431.00,93.20,28.40,9.91,130.00,6.00,0.00,30.16,M,10.00,M,CLR,M,M,M,M,M,M,M,M,M,M,M,M,M,M,87.89,KCXP 182135Z AUTO 13006KT 10SM CLR 34/M02 A3016 RMK AO2,M
RTS,2024-07-18 21:35,-119.8764,39.6682,1539.00,91.40,24.80,9.04,120.00,7.00,0.00,30.19,M,10.00,M,FEW,M,M,M,11000.00,M,M,M,M,M,M,M,M,M,M,86.21,KRTS 182135Z AUTO 12007KT 10SM FEW110 33/M04 A3019 RMK AO2,M
05U,2024-07-18 21:35,-116.0051,39.6042,1811.23,78.80,53.60,41.69,100.00,7.00,0.00,30.31,M,10.00,M,FEW,FEW,SCT,M,3200.00,4500.00,11000.00,M,M,M,M,M,M,M,M,78.80,K05U 182135Z AUTO 10007KT 10SM FEW032 FEW045 SCT110 26/12 A3031 RMK A01,M
MEV,2024-07-18 21:35,-119.7500,38.9963,1441.42,89.60,35.60,14.83,260.00,7.00,0.00,30.16,M,10.00,M,CLR,M,M,M,M,M,M,M,M,M,M,M,M,M,M,85.62,KMEV 182135Z AUTO 26007KT 10SM CLR 32/02 A3016 RMK AO2,M
HTH,2024-07-18 21:35,-118.6315,38.5448,1282.89,95.00,30.20,10.09,340.00,11.00,0.00,30.11,M,10.00,M,CLR,M,M,M,M,M,M,M,M,M,M,M,M,M,M,89.48,KHTH 182135Z AUTO 34011KT 10SM CLR 35/M01 A3011 RMK A01,M
10U,2024-07-18 21:35,-116.1876,41.9532,1637.00,93.20,30.20,10.67,M,5.00,0.00,30.18,M,10.00,M,CLR,M,M,M,M,M,M,M,M,M,M,M,M,M,M,88.09,K10U 182135Z AUTO VRB05KT 10SM CLR 34/M01 A3018 RMK AO2,M
BAM,2024-07-18 21:35,-116.8743,40.5990,1382.36,98.60,37.40,12.05,250.00,7.00,0.00,30.12,M,10.00,M,CLR,M,M,M,M,M,M,M,M,M,M,M,M,M,M,93.54,KBAM 182135Z AUTO 25007KT 10SM CLR 37/03 A3012 RMK AO1,M
TMT,2024-07-18 21:35,-117.1971,39.4643,1749.34,87.00,40.60,19.59,270.00,4.00,0.00,30.25,M,10.00,M,CLR,M,M,M,M,M,M,M,M,M,M,M,M,M,M,83.63,KTMT 182135Z AUTO 27004KT 10SM CLR 31/05 A3025 RMK AO2 T03050048,M
VGT,2024-07-18 21:40,-115.1933,36.2111,667.00,101.00,49.00,17.49,280.00,16.00,T,29.96,M,10.00,24.00,FEW,M,M,M,11000.00,M,M,M,VCTS,M,M,M,32.00,270.00,2024-07-18 21:09,97.79,KVGT 182140Z 28016G24KT 10SM VCTS FEW110 38/09 A2996 RMK AO2 PK WND 27032/2109 LTG DSNT E-S RAB04E15 P0000 T03830094,M
INS,2024-07-18 21:42,-115.6733,36.5872,955.00,89.60,51.80,27.56,180.00,26.00,0.00,30.06,1012.10,10.00,35.00,OVC,M,M,M,12000.00,M,M,M,-RA,M,M,M,M,M,M,87.00,KINS 182142Z AUTO 18026G35KT 10SM -RA OVC120 32/11 A3006 RMK AO2 RAB42 SLP121 $,M
05U,2024-07-18 21:50,-116.0051,39.6042,1811.23,78.80,51.80,39.02,80.00,11.00,0.00,30.28,M,10.00,M,FEW,FEW,SCT,M,3300.00,4600.00,11000.00,M,M,M,M,M,M,M,M,78.80,K05U 182150Z AUTO 08011KT 10SM FEW033 FEW046 SCT110 26/11 A3028 RMK A01,M
INS,2024-07-18 21:52,-115.6733,36.5872,955.00,89.60,50.00,25.79,190.00,23.00,0.00,30.06,1012.10,10.00,33.00,SCT,OVC,M,M,10000.00,12000.00,M,M,M,M,M,M,M,M,M,86.70,KINS 182152Z AUTO 19023G33KT 10SM SCT100 OVC120 32/10 A3006 RMK AO2 RAB42E52 SLP121 $,M
P68,2024-07-18 21:53,-116.0056,39.6014,1993.00,80.00,52.00,37.79,80.00,10.00,0.00,30.26,1016.20,M,18.00,M,M,M,M,M,M,M,M,M,M,M,M,29.00,230.00,2024-07-18 21:08,79.75,KP68 182153Z AUTO 08010G18KT 27/11 A3026 RMK AO1 PK WND 23029/2108 SLP162 T02670111,M
DRA,2024-07-18 21:53,-116.0278,36.6206,1009.00,96.00,50.00,21.13,130.00,22.00,0.00,30.04,1011.20,10.00,32.00,FEW,M,M,M,12000.00,M,M,M,M,M,M,M,33.00,120.00,2024-07-18 21:41,92.89,KDRA 182153Z AUTO 13022G32KT 10SM FEW120 36/10 A3004 RMK AO2 PK WND 12033/2141 SLP112 T03560100,M
ELY,2024-07-18 21:53,-114.8453,39.2950,1909.00,85.00,44.00,23.80,120.00,6.00,0.00,30.26,1013.10,10.00,M,FEW,M,M,M,7000.00,M,M,M,M,M,M,M,M,M,M,82.27,KELY 182153Z AUTO 12006KT 10SM FEW070 29/07 A3026 RMK AO2 LTG DSNT SE AND S SLP131 T02940067,M
VGT,2024-07-18 21:53,-115.1933,36.2111,667.00,101.00,49.00,17.49,0.00,0.00,T,29.96,1012.70,10.00,M,FEW,M,M,M,10000.00,M,M,M,M,M,M,M,32.00,270.00,2024-07-18 21:09,97.79,KVGT 182153Z 00000KT 10SM FEW100 38/09 A2996 RMK AO2 PK WND 27032/2109 LTG DSNT E AND SE RAB04E15 SLP127 P0000 T03830094,M
LOL,2024-07-18 21:53,-118.5701,40.0684,1192.43,96.00,31.00,10.11,230.00,11.00,0.00,30.09,1014.60,10.00,M,CLR,M,M,M,M,M,M,M,M,M,M,M,M,M,M,90.40,KLOL 182153Z AUTO 23011KT 10SM CLR 36/M01 A3009 RMK AO2 SLP146 T03561006,M
NFL,2024-07-18 21:54,-118.7010,39.4166,1199.00,97.00,31.00,9.80,M,4.00,0.00,30.09,1015.60,10.00,M,SCT,BKN,BKN,M,8000.00,12000.00,15000.00,M,M,M,M,M,M,M,M,91.22,KNFL 182154Z VRB04KT 10SM SCT080 BKN120 BKN150 36/M01 A3009 RMK AO2 SLP156 T03611006,M
BVU,2024-07-18 21:55,-114.8611,35.9475,671.00,M,M,M,90.00,9.00,0.00,29.94,M,M,31.00,M,M,M,M,M,M,M,M,M,M,M,M,M,M,M,M,KBVU 182155Z AUTO 09009G31KT A2994 RMK AO2 LTG DSNT ALQDS PWINO,M
CXP,2024-07-18 21:55,-119.7326,39.1923,1431.00,95.00,28.40,9.38,M,5.00,0.00,30.16,M,10.00,10.00,CLR,M,M,M,M,M,M,M,M,M,M,M,M,M,M,89.27,KCXP 182155Z AUTO VRB05G10KT 10SM CLR 35/M02 A3016 RMK AO2,M
INS,2024-07-18 21:55,-115.6733,36.5872,955.00,91.80,47.50,21.92,190.00,23.00,T,30.06,1011.90,10.00,33.00,SCT,OVC,M,M,9000.00,12000.00,M,M,M,M,M,M,35.00,170.00,2024-07-18 21:33,88.37,KINS 182155Z AUTO 19023G33KT 10SM SCT090 OVC120 33/09 A3006 RMK AO2 PK WND 17035/33 RAB42E52 SLP119 P0000 T03320086 $,M
RNO,2024-07-18 21:55,-119.7711,39.4839,1341.00,97.00,29.00,9.04,40.00,8.00,0.00,30.12,1013.40,10.00,M,SCT,M,M,M,14000.00,M,M,M,M,M,M,M,M,M,M,90.98,KRNO 182155Z 04008KT 10SM SCT140 36/M02 A3012 RMK AO2 SLP134 T03611017,M
LSV,2024-07-18 21:55,-115.0343,36.2362,570.00,99.70,48.60,17.92,270.00,10.00,0.00,29.91,1009.50,10.00,M,FEW,FEW,SCT,BKN,9000.00,11000.00,15000.00,17000.00,M,M,M,M,M,M,M,96.37,KLSV 182155Z AUTO 27010KT 10SM FEW090 FEW110 SCT150 BKN170 38/09 A2991 RMK AO2 LTG DSNT SE TSE08 SLP095 T03760092 $,M
RTS,2024-07-18 21:55,-119.8764,39.6682,1539.00,91.40,26.60,9.74,0.00,0.00,0.00,30.19,M,10.00,10.00,CLR,M,M,M,M,M,M,M,M,M,M,M,M,M,M,86.36,KRTS 182155Z AUTO 00000G10KT 10SM CLR 33/M03 A3019 RMK AO2,M
MEV,2024-07-18 21:55,-119.7500,38.9963,1441.42,89.60,37.40,15.92,230.00,6.00,0.00,30.16,M,10.00,M,FEW,M,M,M,12000.00,M,M,M,M,M,M,M,M,M,M,85.67,KMEV 182155Z AUTO 23006KT 10SM FEW120 32/03 A3016 RMK AO2,M
HTH,2024-07-18 21:55,-118.6315,38.5448,1282.89,96.80,32.00,10.27,320.00,12.00,0.00,30.11,M,10.00,M,CLR,M,M,M,M,M,M,M,M,M,M,M,M,M,M,91.19,KHTH 182155Z AUTO 32012KT 10SM CLR 36/M00 A3011 RMK A01,M
10U,2024-07-18 21:55,-116.1876,41.9532,1637.00,96.80,32.00,10.27,210.00,8.00,0.00,30.17,M,10.00,15.00,CLR,M,M,M,M,M,M,M,M,M,M,M,M,M,M,91.19,K10U 182155Z AUTO 21008G15KT 180V250 10SM CLR 36/M00 A3017 RMK AO2,M
BAM,2024-07-18 21:55,-116.8743,40.5990,1382.36,96.80,37.40,12.73,250.00,8.00,0.00,30.12,M,10.00,14.00,CLR,M,M,M,M,M,M,M,M,M,M,M,M,M,M,92.04,KBAM 182155Z AUTO 25008G14KT 10SM CLR 36/03 A3012 RMK AO1,M
TMT,2024-07-18 21:55,-117.1971,39.4643,1749.34,87.00,41.00,19.90,220.00,5.00,0.00,30.25,M,10.00,M,SCT,SCT,BKN,M,4900.00,7000.00,12000.00,M,M,M,M,M,M,M,M,83.65,KTMT 182155Z AUTO 22005KT 10SM SCT049 SCT070 BKN120 31/05 A3025 RMK AO2 T03050050,M
EKO,2024-07-18 21:56,-115.7860,40.8242,1367.00,99.00,41.00,13.70,220.00,9.00,0.00,30.13,1013.20,10.00,M,CLR,M,M,M,M,M,M,M,M,M,M,M,M,M,M,94.47,KEKO 182156Z AUTO 22009KT 10SM CLR 37/05 A3013 RMK AO2 LTG DSNT SE SLP132 T03720050,M
WMC,2024-07-18 21:56,-117.8072,40.9019,1315.00,96.00,29.00,9.32,320.00,3.00,0.00,30.10,1013.90,10.00,M,CLR,M,M,M,M,M,M,M,M,M,M,M,M,M,M,90.16,KWMC 182156Z AUTO 32003KT 10SM CLR 36/M02 A3010 RMK AO2 SLP139 T03561017,M
HND,2024-07-18 21:56,-115.1344,35.9729,742.79,94.00,58.00,30.11,40.00,11.00,0.00,30.01,1014.30,10.00,14.00,FEW,BKN,M,M,6500.00,12000.00,M,M,M,M,M,M,M,M,M,93.04,KHND 182156Z 04011G14KT 10SM FEW065 BKN120 34/14 A3001 RMK AO2 LTG DSNT NE AND E TSE19B26E54 SLP143 T03440144,M
TPH,2024-07-18 21:56,-117.0904,38.0505,1654.00,93.00,42.00,17.13,200.00,10.00,0.00,30.20,1013.60,10.00,23.00,CLR,M,M,M,M,M,M,M,M,M,M,M,26.00,180.00,2024-07-18 21:21,88.92,KTPH 182156Z AUTO 20010G23KT 10SM CLR 34/06 A3020 RMK AO2 PK WND 18026/2121 SLP136 T03390056,M
LAS,2024-07-18 21:56,-115.1634,36.0719,663.00,98.00,54.00,23.04,80.00,10.00,0.00,29.98,1008.70,10.00,19.00,BKN,BKN,BKN,M,12000.00,17000.00,22000.00,M,TS,M,M,M,M,M,M,95.99,KLAS 182156Z 08010G19KT 10SM TS BKN120CB BKN170 BKN220 37/12 A2998 RMK AO2 LTG DSNT SE SLP087 OCNL LTGICCG E-S TS E-S MOV N CB DSNT ALQDS VCSH N AND E-S T03670122 $,M
LSV,2024-07-18 22:08,-115.0343,36.2362,570.00,98.60,53.60,22.29,190.00,15.00,0.00,29.94,1010.60,9.00,21.00,FEW,FEW,BKN,BKN,3500.00,10000.00,12000.00,14000.00,VCTS -RA,M,M,M,M,M,M,96.51,KLSV 182208Z AUTO 19015G21KT 9SM VCTS -RA FEW035 FEW100 BKN120 BKN140 OVC180 37/12 A2994 RMK AO2 RAB08 PRESRR SLP106 $,M
INS,2024-07-18 22:09,-115.6733,36.5872,955.00,91.40,50.00,24.37,150.00,18.00,0.00,30.07,1012.30,10.00,30.00,FEW,SCT,BKN,OVC,3500.00,4600.00,10000.00,12000.00,M,M,M,M,M,M,M,88.36,KINS 182209Z AUTO 15018G30KT 10SM FEW035 SCT046 BKN100 OVC120 33/10 A3007 RMK AO2 WSHFT 2154 SLP123 $,M
MEV,2024-07-18 22:10,-119.7500,38.9963,1441.42,91.40,35.60,14.02,240.00,9.00,0.00,30.16,M,10.00,M,SCT,M,M,M,12000.00,M,M,M,M,M,M,M,M,M,M,87.17,KMEV 182210Z AUTO 24009KT 10SM SCT120 33/02 A3016 RMK AO2,M
HND,2024-07-18 22:13,-115.1344,35.9729,742.79,91.40,60.80,36.08,110.00,9.00,0.00,30.02,M,10.00,M,FEW,M,M,M,10000.00,M,M,M,VCTS,M,M,M,M,M,M,91.40,KHND 182213Z 11009KT 10SM VCTS FEW100 33/16 A3002 RMK AO2 LTG DSNT NE AND E TSB07,M
BVU,2024-07-18 22:15,-114.8611,35.9475,671.00,87.80,60.80,40.41,340.00,17.00,0.00,29.94,M,8.00,26.00,M,M,M,M,M,M,M,M,VCTS RA,M,M,M,M,M,M,87.75,KBVU 182215Z AUTO 34017G26KT 8SM VCTS RA 31/16 A2994 RMK AO2 LTG DSNT N,M
CXP,2024-07-18 22:15,-119.7326,39.1923,1431.00,95.00,33.80,11.67,190.00,11.00,0.00,30.16,M,10.00,M,CLR,M,M,M,M,M,M,M,M,M,M,M,M,M,M,89.97,KCXP 182215Z AUTO 19011KT 10SM CLR 35/01 A3016 RMK AO2,M
RTS,2024-07-18 22:15,-119.8764,39.6682,1539.00,91.40,26.60,9.74,0.00,0.00,0.00,30.18,M,10.00,10.00,CLR,M,M,M,M,M,M,M,M,M,M,M,M,M,M,86.36,KRTS 182215Z AUTO 00000G10KT 10SM CLR 33/M03 A3018 RMK AO2,M
05U,2024-07-18 22:15,-116.0051,39.6042,1811.23,82.40,48.20,30.35,80.00,6.00,0.00,30.28,M,10.00,M,CLR,M,M,M,M,M,M,M,M,M,M,M,M,M,M,80.80,K05U 182215Z AUTO 08006KT 10SM CLR 28/09 A3028 RMK A01,M
BAM,2024-07-18 22:15,-116.8743,40.5990,1382.36,100.40,37.40,11.41,260.00,5.00,0.00,30.11,M,10.00,M,CLR,M,M,M,M,M,M,M,M,M,M,M,M,M,M,95.08,KBAM 182215Z AUTO 26005KT 10SM CLR 38/03 A3011 RMK AO1,M
HTH,2024-07-18 22:15,-118.6315,38.5448,1282.89,95.00,33.80,11.67,360.00,8.00,0.00,30.10,M,10.00,14.00,CLR,M,M,M,M,M,M,M,M,M,M,M,M,M,M,89.97,KHTH 182215Z AUTO 36008G14KT 10SM CLR 35/01 A3010 RMK A01,M
10U,2024-07-18 22:15,-116.1876,41.9532,1637.00,95.00,30.20,10.09,150.00,7.00,0.00,30.17,M,10.00,M,CLR,M,M,M,M,M,M,M,M,M,M,M,M,M,M,89.48,K10U 182215Z AUTO 15007KT 10SM CLR 35/M01 A3017 RMK AO2,M
TMT,2024-07-18 22:15,-117.1971,39.4643,1749.34,88.50,42.60,20.18,260.00,14.00,0.00,30.25,M,10.00,19.00,SCT,BKN,M,M,7000.00,11000.00,M,M,M,M,M,M,M,M,M,84.97,KTMT 182215Z AUTO 26014G19KT 10SM SCT070 BKN110 31/06 A3025 RMK AO2 T03140059,M
INS,2024-07-18 22:18,-115.6733,36.5872,955.00,91.40,48.20,22.78,140.00,17.00,0.00,30.07,1012.30,10.00,24.00,FEW,SCT,BKN,BKN,2300.00,4600.00,7500.00,9000.00,-RA,M,M,M,M,M,M,88.09,KINS 182218Z AUTO 14017G24KT 10SM -RA FEW023 SCT046 BKN075 BKN090 OVC120 33/09 A3007 RMK AO2 RAB18 SLP123 $,M
INS,2024-07-18 22:22,-115.6733,36.5872,955.00,91.40,48.20,22.78,120.00,11.00,0.00,30.07,1012.30,10.00,24.00,FEW,BKN,BKN,BKN,2300.00,4100.00,7500.00,9000.00,-RA,M,M,M,M,M,M,88.09,KINS 182222Z AUTO 12011G24KT 10SM -RA FEW023 BKN041 BKN075 BKN090 OVC110 33/09 A3007 RMK AO2 WSHFT 16 RAB18 SLP123 $,M
VGT,2024-07-18 22:26,-115.1933,36.2111,667.00,98.00,56.00,24.78,90.00,13.00,T,29.96,M,10.00,M,FEW,FEW,SCT,M,5000.00,9000.00,11000.00,M,M,M,M,M,M,M,M,96.65,KVGT 182226Z 09013KT 10SM FEW050 FEW090 SCT110 37/13 A2996 RMK AO2 WSHFT 2206 LTG DSNT S RAB10E19 P0000 T03670133,M
INS,2024-07-18 22:28,-115.6733,36.5872,955.00,93.20,46.40,20.13,120.00,6.00,0.00,30.06,1011.90,10.00,15.00,SCT,SCT,OVC,M,3200.00,7500.00,11000.00,M,M,M,M,M,M,M,M,89.55,KINS 182228Z AUTO 12006G15KT 10SM SCT032 SCT075 OVC110 34/08 A3006 RMK AO2 RAB18E28 SLP119 $,M
ELY,2024-07-18 22:32,-114.8453,39.2950,1909.00,79.00,46.00,31.21,330.00,17.00,T,30.28,M,8.00,30.00,FEW,BKN,M,M,6500.00,10000.00,M,M,VCTS -RA,M,M,M,30.00,310.00,2024-07-18 22:27,79.00,KELY 182232Z AUTO 33017G30KT 290V350 8SM VCTS -RA FEW065 BKN100 26/08 A3028 RMK AO2 PK WND 31030/2227 WSHFT 2218 LTG DSNT N RAB2157E14B30 P0000 T02610078,M
HND,2024-07-18 22:32,-115.1344,35.9729,742.79,93.20,59.00,31.99,70.00,9.00,0.00,30.01,M,10.00,M,FEW,M,M,M,11000.00,M,M,M,VCTS,M,M,M,M,M,M,92.57,KHND 182232Z 07009KT 10SM VCTS FEW110 34/15 A3001 RMK AO2 TSB07E31B32,M
BVU,2024-07-18 22:35,-114.8611,35.9475,671.00,89.60,59.00,35.81,320.00,18.00,0.00,29.93,M,10.00,24.00,FEW,FEW,BKN,M,4300.00,7500.00,12000.00,M,-RA,M,M,M,M,M,M,88.86,KBVU 182235Z AUTO 32018G24KT 10SM -RA FEW043 FEW075 BKN120 32/15 A2993 RMK AO2 LTG DSNT ALQDS,M
CXP,2024-07-18 22:35,-119.7326,39.1923,1431.00,93.20,33.80,12.34,220.00,5.00,0.00,30.16,M,10.00,13.00,CLR,M,M,M,M,M,M,M,M,M,M,M,M,M,M,88.55,KCXP 182235Z AUTO 22005G13KT 10SM CLR 34/01 A3016 RMK AO2,M
RTS,2024-07-18 22:35,-119.8764,39.6682,1539.00,91.40,26.60,9.74,M,5.00,0.00,30.18,M,10.00,13.00,CLR,M,M,M,M,M,M,M,M,M,M,M,M,M,M,86.36,KRTS 182235Z AUTO VRB05G13KT 10SM CLR 33/M03 A3018 RMK AO2,M
05U,2024-07-18 22:35,-116.0051,39.6042,1811.23,80.60,50.00,34.41,0.00,0.00,0.00,30.29,M,10.00,M,CLR,M,M,M,M,M,M,M,M,M,M,M,M,M,M,79.88,K05U 182235Z AUTO 00000KT 10SM CLR 27/10 A3029 RMK A01,M
HTH,2024-07-18 22:35,-118.6315,38.5448,1282.89,95.00,33.80,11.67,M,6.00,0.00,30.09,M,10.00,13.00,CLR,M,M,M,M,M,M,M,M,M,M,M,M,M,M,89.97,KHTH 182235Z AUTO VRB06G13KT 10SM CLR 35/01 A3009 RMK A01,M
10U,2024-07-18 22:35,-116.1876,41.9532,1637.00,93.20,28.40,9.91,M,4.00,0.00,30.16,M,10.00,12.00,CLR,M,M,M,M,M,M,M,M,M,M,M,M,M,M,87.89,K10U 182235Z AUTO VRB04G12KT 10SM CLR 34/M02 A3016 RMK AO2,M
BAM,2024-07-18 22:35,-116.8743,40.5990,1382.36,98.60,35.60,11.23,240.00,11.00,0.00,30.10,M,10.00,16.00,CLR,M,M,M,M,M,M,M,M,M,M,M,M,M,M,93.23,KBAM 182235Z AUTO 24011G16KT 10SM CLR 37/02 A3010 RMK AO1,M
TMT,2024-07-18 22:35,-117.1971,39.4643,1749.34,87.00,42.00,20.68,240.00,8.00,0.00,30.25,M,10.00,M,SCT,M,M,M,12000.00,M,M,M,M,M,M,M,M,M,M,83.70,KTMT 182235Z AUTO 24008KT 10SM SCT120 31/06 A3025 RMK AO2 T03060056,M
TPH,2024-07-18 22:40,-117.0904,38.0505,1654.00,94.00,42.00,16.60,200.00,11.00,0.00,30.18,M,10.00,23.00,CLR,M,M,M,M,M,M,M,M,M,M,M,M,M,M,89.85,KTPH 182240Z AUTO 20011G23KT 10SM CLR 34/06 A3018 RMK AO2 WSHFT 2220 T03440056,M
VGT,2024-07-18 22:50,-115.1933,36.2111,667.00,96.80,57.20,26.84,100.00,10.00,T,29.96,M,10.00,M,CLR,M,M,M,M,M,M,M,VCTS,M,M,M,M,M,M,95.77,KVGT 182250Z 10010KT 10SM VCTS CLR 36/14 A2996 RMK AO2 WSHFT 2206 LTG DSNT SE RAB10E19 P0000,M
P68,2024-07-18 22:53,-116.0056,39.6014,1993.00,80.00,47.00,31.37,230.00,7.00,0.00,30.26,1016.60,M,24.00,M,M,M,M,M,M,M,M,M,M,M,M,M,M,M,79.28,KP68 182253Z AUTO 23007G24KT 27/08 A3026 RMK AO1 SLP166 T02670083,M
DRA,2024-07-18 22:53,-116.0278,36.6206,1009.00,97.00,51.00,21.27,100.00,20.00,T,30.02,1010.60,10.00,30.00,FEW,FEW,M,M,6500.00,10000.00,M,M,M,M,M,M,39.00,130.00,2024-07-18 22:04,94.14,KDRA 182253Z AUTO 10020G30KT 10SM FEW065 FEW100 36/11 A3002 RMK AO2 PK WND 13039/2204 RAB25E34 SLP106 P0000 T03610106,M
ELY,2024-07-18 22:53,-114.8453,39.2950,1909.00,72.00,54.00,53.09,130.00,5.00,0.02,30.32,1016.20,10.00,M,SCT,OVC,M,M,6500.00,9500.00,M,M,VCTS,M,M,M,30.00,310.00,2024-07-18 22:27,72.00,KELY 182253Z AUTO 13005KT 10SM VCTS SCT065 OVC095 22/12 A3032 RMK AO2 PK WND 31030/2227 WSHFT 2218 RAB2157E14B30E49 SLP162 P0002 T02220122,M
VGT,2024-07-18 22:53,-115.1933,36.2111,667.00,97.00,57.00,26.49,90.00,10.00,T,29.96,1013.00,10.00,M,CLR,M,M,M,M,M,M,M,VCTS,M,M,M,M,M,M,95.92,KVGT 182253Z 09010KT 10SM VCTS CLR 36/14 A2996 RMK AO2 WSHFT 2206 LTG DSNT SE RAB10E19 SLP130 P0000 T03610139,M
LOL,2024-07-18 22:53,-118.5701,40.0684,1192.43,95.00,31.00,10.42,240.00,7.00,0.00,30.07,1014.00,10.00,M,CLR,M,M,M,M,M,M,M,M,M,M,M,M,M,M,89.58,KLOL 182253Z AUTO 24007KT 210V270 10SM CLR 35/M01 A3007 RMK AO2 SLP140 T03501006,M
NFL,2024-07-18 22:54,-118.7010,39.4166,1199.00,95.00,31.00,10.42,0.00,0.00,0.00,30.07,1015.20,10.00,M,SCT,BKN,BKN,M,8000.00,12000.00,15000.00,M,M,M,M,M,M,M,M,89.58,KNFL 182254Z 00000KT 10SM SCT080 BKN120 BKN150 35/M01 A3007 RMK AO2 SLP152 T03501006,M
BVU,2024-07-18 22:55,-114.8611,35.9475,671.00,89.60,60.80,38.18,330.00,17.00,0.00,29.93,M,10.00,M,FEW,FEW,SCT,M,3100.00,4300.00,5500.00,M,VCTS DZ,M,M,M,M,M,M,89.54,KBVU 182255Z AUTO 33017KT 10SM VCTS DZ FEW031 FEW043 SCT055 32/16 A2993 RMK AO2 LTG DSNT N AND NW,M
CXP,2024-07-18 22:55,-119.7326,39.1923,1431.00,93.20,32.00,11.48,210.00,7.00,0.00,30.15,M,10.00,12.00,CLR,M,M,M,M,M,M,M,M,M,M,M,M,M,M,88.31,KCXP 182255Z AUTO 21007G12KT 190V260 10SM CLR 34/00 A3015 RMK AO2,M
INS,2024-07-18 22:55,-115.6733,36.5872,955.00,92.00,50.00,23.92,90.00,10.00,0.13,30.02,1010.60,10.00,M,FEW,OVC,M,M,10000.00,13000.00,M,M,M,M,M,M,33.00,190.00,2024-07-18 21:55,88.94,KINS 182255Z AUTO 09010KT 10SM FEW100 OVC130 33/10 A3002 RMK AO2 PK WND 19033/2155 RAB18E28 PRESFR SLP106 P0013 T03330100 $,M
RNO,2024-07-18 22:55,-119.7711,39.4839,1341.00,96.00,32.00,10.53,80.00,4.00,0.00,30.11,1013.10,10.00,M,BKN,M,M,M,13000.00,M,M,M,M,M,M,M,M,M,M,90.53,KRNO 182255Z 08004KT 10SM BKN130 36/00 A3011 RMK AO2 SLP131 T03560000,M
RTS,2024-07-18 22:55,-119.8764,39.6682,1539.00,93.20,26.60,9.21,M,6.00,0.00,30.17,M,10.00,13.00,CLR,M,M,M,M,M,M,M,M,M,M,M,M,M,M,87.72,KRTS 182255Z AUTO VRB06G13KT 10SM CLR 34/M03 A3017 RMK AO2,M
05U,2024-07-18 22:55,-116.0051,39.6042,1811.23,78.80,48.20,34.13,0.00,0.00,0.00,30.29,M,8.00,M,FEW,FEW,M,M,6000.00,7500.00,M,M,M,M,M,M,M,M,M,78.80,K05U 182255Z AUTO 00000KT 8SM FEW060 FEW075 26/09 A3029 RMK A01,M
BAM,2024-07-18 22:55,-116.8743,40.5990,1382.36,98.60,37.40,12.05,250.00,10.00,0.00,30.10,M,10.00,15.00,CLR,M,M,M,M,M,M,M,M,M,M,M,M,M,M,93.54,KBAM 182255Z AUTO 25010G15KT 230V290 10SM CLR 37/03 A3010 RMK AO1,M
HTH,2024-07-18 22:55,-118.6315,38.5448,1282.89,96.80,35.60,11.86,350.00,9.00,0.00,30.09,M,10.00,M,CLR,M,M,M,M,M,M,M,M,M,M,M,M,M,M,91.72,KHTH 182255Z AUTO 35009KT 10SM CLR 36/02 A3009 RMK A01,M
10U,2024-07-18 22:55,-116.1876,41.9532,1637.00,95.00,28.40,9.38,0.00,0.00,0.00,30.16,M,10.00,M,CLR,M,M,M,M,M,M,M,M,M,M,M,M,M,M,89.27,K10U 182255Z AUTO 00000KT 10SM CLR 35/M02 A3016 RMK AO2,M
TMT,2024-07-18 22:55,-117.1971,39.4643,1749.34,87.00,42.00,20.68,190.00,5.00,0.00,30.25,M,10.00,M,BKN,M,M,M,12000.00,M,M,M,M,M,M,M,M,M,M,83.70,KTMT 182255Z AUTO 19005KT 10SM BKN120 31/06 A3025 RMK AO2 T03060055,M
LSV,2024-07-18 22:55,-115.0343,36.2362,570.00,94.00,62.00,34.72,360.00,5.00,0.07,29.91,1009.70,10.00,M,FEW,FEW,SCT,M,4100.00,5000.00,6000.00,M,-DZ,M,M,M,28.00,240.00,2024-07-18 22:54,94.78,KLSV 182255Z AUTO 36005KT 10SM -DZ FEW041 FEW050 SCT060 34/17 A2991 RMK AO2 PK WND 24028/54 LTG DSNT S RAB08E54DZB54 SLP097 P0007 T03440167 $,M
EKO,2024-07-18 22:56,-115.7860,40.8242,1367.00,92.00,43.00,18.36,230.00,16.00,0.00,30.13,1013.30,10.00,24.00,CLR,M,M,M,M,M,M,M,M,M,M,M,M,M,M,88.08,KEKO 182256Z AUTO 23016G24KT 10SM CLR 33/06 A3013 RMK AO2 LTG DSNT NE AND E SLP133 T03330061,M
WMC,2024-07-18 22:56,-117.8072,40.9019,1315.00,100.00,30.00,8.59,M,M,0.00,30.07,1013.20,10.00,M,CLR,M,M,M,M,M,M,M,M,M,M,M,M,M,M,93.61,KWMC 182256Z AUTO 10SM CLR 38/M01 A3007 RMK AO2 SLP132 T03781011,M
HND,2024-07-18 22:56,-115.1344,35.9729,742.79,94.00,57.00,29.05,90.00,7.00,0.00,30.00,1014.00,9.00,M,CLR,M,M,M,M,M,M,M,TS,M,M,M,M,M,M,92.68,KHND 182256Z 09007KT 9SM TS CLR 34/14 A3000 RMK AO2 LTG DSNT N AND E TSB07E31B32 SLP140 T03440139,M
TPH,2024-07-18 22:56,-117.0904,38.0505,1654.00,94.00,42.00,16.60,170.00,15.00,0.00,30.17,1012.30,10.00,21.00,CLR,M,M,M,M,M,M,M,M,M,M,M,M,M,M,89.85,KTPH 182256Z AUTO 17015G21KT 10SM CLR 34/06 A3017 RMK AO2 WSHFT 2220 SLP123 T03440056,M
LAS,2024-07-18 22:56,-115.1634,36.0719,663.00,95.00,56.00,27.16,130.00,6.00,0.00,29.96,1007.90,10.00,M,BKN,BKN,BKN,M,12000.00,17000.00,22000.00,M,TS,M,M,M,M,M,M,93.41,KLAS 182256Z 13006KT 10SM TS BKN120CB BKN170 BKN220 35/13 A2996 RMK AO2 LTG DSNT E SLP079 OCNL LTGICCG NE-S TS NE-S MOV N CB DSNT ALQDS VCSH NE-SE T03500133 $,M
ELY,2024-07-18 23:04,-114.8453,39.2950,1909.00,73.00,55.00,53.23,90.00,7.00,T,30.32,M,10.00,M,FEW,OVC,M,M,6500.00,10000.00,M,M,-RA,M,M,M,M,M,M,73.00,KELY 182304Z AUTO 09007KT 10SM -RA FEW065 OVC100 23/13 A3032 RMK AO2 LTG DSNT S RAB2256 P0000 T02280128,M
VGT,2024-07-18 23:05,-115.1933,36.2111,667.00,99.00,55.00,23.18,80.00,9.00,0.00,29.95,M,10.00,M,CLR,M,M,M,M,M,M,M,M,M,M,M,M,M,M,97.39,KVGT 182305Z 08009KT 10SM CLR 37/13 A2995 RMK AO2 LTG DSNT SE T03720128,M
LSV,2024-07-18 23:09,-115.0343,36.2362,570.00,95.00,55.40,26.58,300.00,6.00,0.00,29.89,1009.00,10.00,34.00,CLR,M,M,M,M,M,M,M,M,M,M,M,M,M,M,93.22,KLSV 182309Z AUTO 30006G34KT 10SM CLR 35/13 A2989 RMK AO2 DZE01RAB01E09 PRESFR SLP090 $,M
BVU,2024-07-18 23:15,-114.8611,35.9475,671.00,89.60,62.60,40.69,360.00,11.00,0.00,29.93,M,10.00,18.00,CLR,M,M,M,M,M,M,M,M,M,M,M,M,M,M,90.32,KBVU 182315Z AUTO 36011G18KT 10SM CLR 32/17 A2993 RMK AO2,M
CXP,2024-07-18 23:15,-119.7326,39.1923,1431.00,93.20,30.20,10.67,260.00,9.00,0.00,30.16,M,8.00,16.00,FEW,M,M,M,12000.00,M,M,M,M,M,M,M,M,M,M,88.09,KCXP 182315Z AUTO 26009G16KT 8SM FEW120 34/M01 A3016 RMK AO2,M
LSV,2024-07-18 23:15,-115.0343,36.2362,570.00,95.00,57.20,28.37,120.00,10.00,0.00,29.89,1009.00,10.00,18.00,FEW,M,M,M,9000.00,M,M,M,-DZ,M,M,M,M,M,M,93.82,KLSV 182315Z AUTO 12010G18KT 10SM -DZ FEW090 35/14 A2989 RMK AO2 DZE01RAB01E09DZB15 SLP090 $,M
HND,2024-07-18 23:15,-115.1344,35.9729,742.79,96.80,53.60,23.55,310.00,4.00,0.00,29.99,M,10.00,M,CLR,M,M,M,M,M,M,M,M,M,M,M,M,M,M,94.59,KHND 182315Z 31004KT 10SM CLR 36/12 A2999 RMK AO2 TSE09,M
RTS,2024-07-18 23:15,-119.8764,39.6682,1539.00,93.20,24.80,8.54,200.00,7.00,0.00,30.17,M,10.00,14.00,CLR,M,M,M,M,M,M,M,M,M,M,M,M,M,M,87.56,KRTS 182315Z AUTO 20007G14KT 180V240 10SM CLR 34/M04 A3017 RMK AO2,M
05U,2024-07-18 23:15,-116.0051,39.6042,1811.23,78.80,50.00,36.51,0.00,0.00,0.00,30.29,M,10.00,M,BKN,M,M,M,11000.00,M,M,M,M,M,M,M,M,M,M,78.80,K05U 182315Z AUTO 00000KT 10SM BKN110 26/10 A3029 RMK A01,M
BAM,2024-07-18 23:15,-116.8743,40.5990,1382.36,98.60,37.40,12.05,240.00,12.00,0.00,30.10,M,10.00,16.00,CLR,M,M,M,M,M,M,M,M,M,M,M,M,M,M,93.54,KBAM 182315Z AUTO 24012G16KT 10SM CLR 37/03 A3010 RMK AO1,M
HTH,2024-07-18 23:15,-118.6315,38.5448,1282.89,95.00,35.60,12.53,310.00,6.00,0.00,30.09,M,10.00,M,CLR,M,M,M,M,M,M,M,M,M,M,M,M,M,M,90.25,KHTH 182315Z AUTO 31006KT 10SM CLR 35/02 A3009 RMK A01,M
10U,2024-07-18 23:15,-116.1876,41.9532,1637.00,93.20,33.80,12.34,20.00,7.00,0.00,30.15,M,10.00,M,CLR,M,M,M,M,M,M,M,M,M,M,M,M,M,M,88.55,K10U 182315Z AUTO 02007KT 10SM CLR 34/01 A3015 RMK AO2,M
TMT,2024-07-18 23:15,-117.1971,39.4643,1749.34,86.00,42.30,21.60,0.00,0.00,0.00,30.24,M,10.00,M,SCT,M,M,M,11000.00,M,M,M,M,M,M,M,M,M,M,82.93,KTMT 182315Z AUTO 00000KT 10SM SCT110 30/06 A3024 RMK AO2 T02990057,M
LSV,2024-07-18 23:16,-115.0343,36.2362,570.00,95.00,57.20,28.37,120.00,10.00,0.00,29.89,1009.00,10.00,18.00,FEW,M,M,M,8500.00,M,M,M,M,M,M,M,M,M,M,93.82,KLSV 182316Z AUTO 12010G18KT 10SM FEW085 35/14 A2989 RMK AO2 DZE01RAB01E09DZB15E16 SLP090 $,M
LSV,2024-07-18 23:18,-115.0343,36.2362,570.00,95.00,59.00,30.26,160.00,13.00,0.00,29.89,1009.00,10.00,17.00,FEW,FEW,M,M,6500.00,8500.00,M,M,M,M,M,M,M,M,M,94.51,KLSV 182318Z AUTO 16013G17KT 10SM FEW065 FEW085 35/15 A2989 RMK AO2 WSHFT 16 DZE01RAB01E09DZB15E16 SLP090 $,M
LSV,2024-07-18 23:27,-115.0343,36.2362,570.00,96.80,53.60,23.55,290.00,12.00,0.00,29.87,1008.30,10.00,18.00,FEW,SCT,SCT,M,8000.00,10000.00,12000.00,M,M,M,M,M,M,M,M,94.59,KLSV 182327Z AUTO 29012G18KT 10SM FEW080 SCT100 SCT120 36/12 A2987 RMK AO2 WSHFT 23 DZE01RAB01E09DZB15E16 PRESFR SLP083 $,M
LSV,2024-07-18 23:29,-115.0343,36.2362,570.00,98.60,50.00,19.52,250.00,10.00,0.00,29.87,1008.30,10.00,21.00,FEW,SCT,M,M,9000.00,11000.00,M,M,M,M,M,M,M,M,M,95.56,KLSV 182329Z AUTO 25010G21KT 10SM FEW090 SCT110 37/10 A2987 RMK AO2 WSHFT 28 DZE01RAB01E09DZB15E16 SLP083 $,M
HND,2024-07-18 23:29,-115.1344,35.9729,742.79,96.80,55.40,25.15,0.00,0.00,0.00,29.99,M,10.00,M,CLR,M,M,M,M,M,M,M,VCTS,M,M,M,M,M,M,95.14,KHND 182329Z 00000KT 10SM VCTS CLR 36/13 A2999 RMK AO2 LTG DSNT E TSE09B23,M
LSV,2024-07-18 23:30,-115.0343,36.2362,570.00,98.60,50.00,19.52,250.00,9.00,0.00,29.87,1008.30,10.00,21.00,FEW,SCT,M,M,9000.00,11000.00,M,M,-DZ,M,M,M,M,M,M,95.56,KLSV 182330Z AUTO 25009G21KT 10SM -DZ FEW090 SCT110 37/10 A2987 RMK AO2 DZE01RAB01E09DZB15E16DZB30 SLP083 $,M
BVU,2024-07-18 23:35,-114.8611,35.9475,671.00,93.20,59.00,31.99,320.00,10.00,0.00,29.93,M,10.00,M,CLR,M,M,M,M,M,M,M,M,M,M,M,M,M,M,92.57,KBVU 182335Z AUTO 32010KT 10SM CLR 34/15 A2993 RMK AO2 LTG DSNT NW,M
CXP,2024-07-18 23:35,-119.7326,39.1923,1431.00,91.40,30.20,11.28,240.00,9.00,0.00,30.16,M,9.00,14.00,FEW,M,M,M,12000.00,M,M,M,M,M,M,M,M,M,M,86.71,KCXP 182335Z AUTO 24009G14KT 210V270 9SM FEW120 33/M01 A3016 RMK AO2,M
RTS,2024-07-18 23:35,-119.8764,39.6682,1539.00,93.20,23.00,7.92,310.00,8.00,0.00,30.17,M,10.00,15.00,CLR,M,M,M,M,M,M,M,M,M,M,M,M,M,M,87.42,KRTS 182335Z AUTO 31008G15KT 280V340 10SM CLR 34/M05 A3017 RMK AO2,M
05U,2024-07-18 23:35,-116.0051,39.6042,1811.23,78.80,51.80,39.02,0.00,0.00,0.00,30.29,M,10.00,M,SCT,M,M,M,11000.00,M,M,M,M,M,M,M,M,M,M,78.80,K05U 182335Z AUTO 00000KT 10SM SCT110 26/11 A3029 RMK A01,M
BAM,2024-07-18 23:35,-116.8743,40.5990,1382.36,98.60,37.40,12.05,240.00,7.00,0.00,30.09,M,10.00,15.00,CLR,M,M,M,M,M,M,M,M,M,M,M,M,M,M,93.54,KBAM 182335Z AUTO 24007G15KT 10SM CLR 37/03 A3009 RMK AO1,M
HTH,2024-07-18 23:35,-118.6315,38.5448,1282.89,93.20,42.80,17.55,250.00,18.00,0.00,30.10,M,10.00,25.00,CLR,M,M,M,M,M,M,M,M,M,M,M,M,M,M,89.17,KHTH 182335Z AUTO 25018G25KT 10SM CLR 34/06 A3010 RMK A01,M
10U,2024-07-18 23:35,-116.1876,41.9532,1637.00,95.00,28.40,9.38,M,5.00,0.00,30.15,M,10.00,M,CLR,M,M,M,M,M,M,M,M,M,M,M,M,M,M,89.27,K10U 182335Z AUTO VRB05KT 10SM CLR 35/M02 A3015 RMK AO2 LTG DSNT ALQDS,M
TMT,2024-07-18 23:35,-117.1971,39.4643,1749.34,87.40,42.80,21.06,120.00,4.00,0.00,30.22,M,10.00,M,CLR,M,M,M,M,M,M,M,M,M,M,M,M,M,M,84.07,KTMT 182335Z AUTO 12004KT 10SM CLR 31/06 A3022 RMK AO2 T03080060,M
LSV,2024-07-18 23:40,-115.0343,36.2362,570.00,98.60,51.80,20.87,130.00,5.00,0.00,29.87,1008.30,10.00,M,FEW,M,M,M,10000.00,M,M,M,M,M,M,M,M,M,M,96.00,KLSV 182340Z AUTO 13005KT 10SM FEW100 37/11 A2987 RMK AO2 DZE01RAB01E09DZB15E16DZB30E40 SLP083 $,M
P68,2024-07-18 23:53,-116.0056,39.6014,1993.00,77.00,54.00,44.90,200.00,6.00,0.00,30.27,1017.10,M,M,M,M,M,M,M,M,M,M,M,M,M,M,M,M,M,77.00,KP68 182353Z AUTO 20006KT 25/12 A3027 RMK AO1 SLP171 60008 T02500122 10317 20194 55007,M
DRA,2024-07-18 23:53,-116.0278,36.6206,1009.00,101.00,46.00,15.62,120.00,15.00,0.00,29.99,1009.60,10.00,27.00,CLR,M,M,M,M,M,M,M,M,M,M,M,28.00,120.00,2024-07-18 23:30,97.16,KDRA 182353Z AUTO 12015G27KT 10SM CLR 38/08 A2999 RMK AO2 PK WND 12028/2330 SLP096 60000 T03830078 10400 20333 58012,M
ELY,2024-07-18 23:53,-114.8453,39.2950,1909.00,76.00,50.00,40.05,60.00,15.00,T,30.31,1015.30,10.00,23.00,FEW,SCT,BKN,M,3900.00,7000.00,11000.00,M,M,M,M,M,M,M,M,76.00,KELY 182353Z AUTO 06015G23KT 10SM FEW039 SCT070 BKN110 24/10 A3031 RMK AO2 LTG DSNT SW RAB2256E28 SLP153 P0000 60006 T02440100 10322 20222 50008,M
VGT,2024-07-18 23:53,-115.1933,36.2111,667.00,99.00,54.00,22.35,320.00,6.00,0.00,29.94,1012.20,10.00,M,CLR,M,M,M,M,M,M,M,M,M,M,M,M,M,M,97.06,KVGT 182353Z 32006KT 10SM CLR 37/12 A2994 RMK AO2 SLP122 60000 T03720122 10422 20356 58006,M
LOL,2024-07-18 23:53,-118.5701,40.0684,1192.43,96.00,34.00,11.40,210.00,7.00,0.00,30.06,1013.60,10.00,M,CLR,M,M,M,M,M,M,M,M,M,M,M,M,M,M,90.81,KLOL 182353Z AUTO 21007KT 10SM CLR 36/01 A3006 RMK AO2 SLP136 T03560011 10367 20306 56013,M
NFL,2024-07-18 23:54,-118.7010,39.4166,1199.00,96.00,33.00,10.96,M,3.00,0.00,30.06,1014.80,10.00,M,SCT,BKN,BKN,M,8000.00,12000.00,15000.00,M,M,M,M,M,M,M,M,90.66,KNFL 182354Z VRB03KT 10SM SCT080 BKN120 BKN150 36/01 A3006 RMK AO2 SLP148 T03560006 10367 20311 56014,M
BVU,2024-07-18 23:55,-114.8611,35.9475,671.00,95.00,59.00,30.26,320.00,10.00,0.00,29.92,M,10.00,M,CLR,M,M,M,M,M,M,M,M,M,M,M,M,M,M,94.51,KBVU 182355Z AUTO 32010KT 10SM CLR 35/15 A2992 RMK AO2,M
CXP,2024-07-18 23:55,-119.7326,39.1923,1431.00,89.60,30.20,11.94,M,5.00,0.00,30.16,M,10.00,13.00,SCT,M,M,M,12000.00,M,M,M,M,M,M,M,M,M,M,85.34,KCXP 182355Z AUTO VRB05G13KT 10SM SCT120 32/M01 A3016 RMK AO2,M
INS,2024-07-18 23:55,-115.6733,36.5872,955.00,98.60,44.60,15.93,100.00,9.00,0.00,30.00,1009.80,10.00,M,SCT,M,M,M,17000.00,M,M,M,M,M,M,M,M,M,M,94.55,KINS 182355Z AUTO 10009KT 10SM SCT170 37/07 A3000 RMK AO2 SLP098 60021 T03700070 10370 20292 58009 $,M
RNO,2024-07-18 23:55,-119.7711,39.4839,1341.00,98.00,32.00,9.90,230.00,5.00,0.00,30.10,1012.70,10.00,M,BKN,M,M,M,14000.00,M,M,M,M,M,M,M,M,M,M,92.19,KRNO 182355Z 23005KT 10SM BKN140 37/00 A3010 RMK AO2 SLP127 T03670000 10372 20278 56013,M
RTS,2024-07-18 23:55,-119.8764,39.6682,1539.00,93.20,23.00,7.92,320.00,9.00,0.00,30.17,M,10.00,16.00,CLR,M,M,M,M,M,M,M,M,M,M,M,M,M,M,87.42,KRTS 182355Z AUTO 32009G16KT 10SM CLR 34/M05 A3017 RMK AO2,M
05U,2024-07-18 23:55,-116.0051,39.6042,1811.23,77.00,53.60,44.25,0.00,0.00,0.00,30.30,M,10.00,M,FEW,FEW,FEW,M,4600.00,6000.00,7000.00,M,M,M,M,M,M,M,M,77.00,K05U 182355Z AUTO 00000KT 10SM FEW046 FEW060 FEW070 25/12 A3030 RMK A01,M
BAM,2024-07-18 23:55,-116.8743,40.5990,1382.36,98.60,37.40,12.05,230.00,11.00,0.00,30.09,M,10.00,16.00,CLR,M,M,M,M,M,M,M,M,M,M,M,M,M,M,93.54,KBAM 182355Z AUTO 23011G16KT 10SM CLR 37/03 A3009 RMK AO1,M
HTH,2024-07-18 23:55,-118.6315,38.5448,1282.89,91.40,42.80,18.56,270.00,20.00,0.00,30.09,M,10.00,M,CLR,M,M,M,M,M,M,M,M,M,M,M,M,M,M,87.52,KHTH 182355Z AUTO 27020KT 10SM CLR 33/06 A3009 RMK A01,M
10U,2024-07-18 23:55,-116.1876,41.9532,1637.00,93.20,32.00,11.48,10.00,7.00,0.00,30.15,M,10.00,13.00,CLR,M,M,M,M,M,M,M,M,M,M,M,M,M,M,88.31,K10U 182355Z AUTO 01007G13KT 10SM CLR 34/00 A3015 RMK AO2,M
TMT,2024-07-18 23:55,-117.1971,39.4643,1749.34,88.00,42.40,20.35,40.00,4.00,0.00,30.22,M,10.00,M,CLR,M,M,M,M,M,M,M,M,M,M,M,M,M,M,84.54,KTMT 182355Z AUTO 04004KT 10SM CLR 31/06 A3022 RMK AO2 T03120058 10317 20281,M
LSV,2024-07-18 23:55,-115.0343,36.2362,570.00,94.30,64.00,36.91,210.00,17.00,T,29.88,1008.70,10.00,M,FEW,FEW,SCT,SCT,11000.00,14000.00,18000.00,21000.00,M,M,M,M,34.00,300.00,2024-07-18 23:01,96.21,KLSV 182355Z AUTO 21017KT 10SM FEW110 FEW140 SCT180 SCT210 35/18 A2988 RMK AO2 PK WND 30034/01 DZE01RAB01E09DZB15E16DZB30E40 SLP087 P0000 60007 T03460177 10423 20334 58007 $,M
EKO,2024-07-18 23:56,-115.7860,40.8242,1367.00,91.00,45.00,20.45,230.00,13.00,0.00,30.13,1013.80,10.00,22.00,CLR,M,M,M,M,M,M,M,M,M,M,M,M,M,M,87.35,KEKO 182356Z AUTO 23013G22KT 10SM CLR 33/07 A3013 RMK AO2 SLP138 T03280072 10378 20322 55004,M
WMC,2024-07-18 23:56,-117.8072,40.9019,1315.00,101.00,32.00,9.04,270.00,9.00,0.00,30.07,1012.90,10.00,17.00,CLR,M,M,M,M,M,M,M,M,M,M,M,M,M,M,94.72,KWMC 182356Z AUTO 27009G17KT 10SM CLR 38/00 A3007 RMK AO2 SLP129 T03830000 10394 20322 56014,M
HND,2024-07-18 23:56,-115.1344,35.9729,742.79,97.00,56.00,25.55,310.00,3.00,0.00,29.99,1013.50,10.00,M,FEW,M,M,M,11000.00,M,M,M,M,M,M,M,M,M,M,95.56,KHND 182356Z 31003KT 10SM FEW110 36/13 A2999 RMK AO2 LTG DSNT N TSE09B23E44 SLP135 60000 T03610133 10406 20322 58008,M
TPH,2024-07-18 23:56,-117.0904,38.0505,1654.00,93.00,40.00,15.85,200.00,15.00,0.00,30.16,1012.50,10.00,22.00,SCT,M,M,M,12000.00,M,M,M,M,M,M,M,M,M,M,88.78,KTPH 182356Z AUTO 20015G22KT 10SM SCT120 34/04 A3016 RMK AO2 LTG DSNT NE SLP125 T03390044 10350 20306 56021,M
LAS,2024-07-18 23:56,-115.1634,36.0719,663.00,98.00,56.00,24.78,M,3.00,0.00,29.95,1007.60,10.00,M,BKN,BKN,BKN,M,12000.00,17000.00,22000.00,M,TS,M,M,M,M,M,M,96.65,KLAS 182356Z VRB03KT 10SM TS BKN120CB BKN170 BKN220 37/13 A2995 RMK AO2 SLP076 OCNL LTGICCG NE TS NE MOV N CB DSNT ALQDS VCSH N-E 60000 T03670133 10422 20339 58003 $,M
