station,valid,lon,lat,elevation,tmpf,dwpf,relh,drct,sknt,p01i,alti,mslp,vsby,gust,skyc1,skyc2,skyc3,skyc4,skyl1,skyl2,skyl3,skyl4,wxcodes,ice_accretion_1hr,ice_accretion_3hr,ice_accretion_6hr,peak_wind_gust,peak_wind_drct,peak_wind_time,feel,metar,snowdepth
CXP,2022-08-04 00:10,-119.7326,39.1923,1431.00,95.00,48.20,20.38,190.00,14.00,0.00,30.07,M,10.00,23.00,CLR,M,M,M,M,M,M,M,M,M,M,M,M,M,M,91.56,KCXP 040010Z AUTO 19014G23KT 10SM CLR 35/09 A3007 RMK AO2 LTG DSNT NW,M
RTS,2022-08-04 00:15,-119.8764,39.6682,1539.00,89.60,46.40,22.53,30.00,5.00,0.00,30.09,M,10.00,10.00,CLR,M,M,M,M,M,M,M,M,M,M,M,M,M,M,86.24,KRTS 040015Z AUTO 03005G10KT 10SM CLR 32/08 A3009 RMK AO2,M
05U,2022-08-04 00:15,-116.0051,39.6042,1811.23,M,M,M,M,M,0.00,M,M,M,M,M,M,M,M,M,M,M,M,M,M,M,M,M,M,M,M,K05U 040015Z AUTO RMK A01 PNO,M
MEV,2022-08-04 00:15,-119.7500,38.9963,1441.42,73.40,53.60,49.90,170.00,11.00,0.00,30.07,M,10.00,18.00,CLR,M,M,M,M,M,M,M,M,M,M,M,M,M,M,73.40,KMEV 040015Z AUTO 17011G18KT 10SM CLR 23/12 A3007 RMK AO2 LTG DSNT N AND SE AND NW,M
BVU,2022-08-04 00:15,-114.8611,35.9475,671.00,100.40,57.20,24.06,190.00,15.00,0.00,29.83,M,M,M,M,M,M,M,M,M,M,M,M,M,M,M,M,M,M,99.77,KBVU 040015Z AUTO 19015KT 38/14 A2983 RMK AO2 PWINO TSNO,M
TMT,2022-08-04 00:15,-117.1971,39.4643,1749.34,M,M,M,0.00,0.00,0.00,30.16,M,10.00,M,CLR,M,M,M,M,M,M,M,M,M,M,M,M,M,M,M,KTMT 040015Z AUTO 00000KT 10SM CLR A3016 RMK AO2 LTG DSNT N AND NE,M
HTH,2022-08-04 00:15,-118.6315,38.5448,1282.89,93.20,44.60,18.80,310.00,11.00,0.00,30.00,M,10.00,M,BKN,M,M,M,11000.00,M,M,M,M,M,M,M,M,M,M,89.34,KHTH 040015Z AUTO 31011KT 10SM BKN110 34/07 A3000 RMK A01,M
BAM,2022-08-04 00:15,-116.8743,40.5990,1382.36,95.00,46.40,19.04,20.00,7.00,0.00,30.04,M,10.00,M,CLR,M,M,M,M,M,M,M,M,M,M,M,M,M,M,91.29,KBAM 040015Z AUTO 02007KT 10SM CLR 35/08 A3004 RMK AO1,M
CXP,2022-08-04 00:30,-119.7326,39.1923,1431.00,89.60,51.80,27.56,160.00,14.00,0.00,30.07,M,10.00,23.00,CLR,M,M,M,M,M,M,M,M,M,M,M,M,M,M,87.00,KCXP 040030Z AUTO 16014G23KT 10SM CLR 32/11 A3007 RMK AO2,M
TMT,2022-08-04 00:35,-117.1971,39.4643,1749.34,M,M,M,60.00,5.00,0.00,30.16,M,10.00,M,SCT,M,M,M,11000.00,M,M,M,M,M,M,M,M,M,M,M,KTMT 040035Z AUTO 06005KT 10SM SCT110 A3016 RMK AO2,M
BVU,2022-08-04 00:35,-114.8611,35.9475,671.00,102.20,55.40,21.36,210.00,11.00,0.00,29.82,M,M,M,M,M,M,M,M,M,M,M,M,M,M,M,M,M,M,101.04,KBVU 040035Z AUTO 21011KT 39/13 A2982 RMK AO2 PWINO TSNO,M
HTH,2022-08-04 00:35,-118.6315,38.5448,1282.89,91.40,44.60,19.89,300.00,8.00,0.00,30.01,M,10.00,13.00,BKN,M,M,M,11000.00,M,M,M,M,M,M,M,M,M,M,87.68,KHTH 040035Z AUTO 30008G13KT 10SM BKN110 33/07 A3001 RMK A01,M
MEV,2022-08-04 00:35,-119.7500,38.9963,1441.42,77.00,57.20,50.43,180.00,15.00,0.00,30.07,M,10.00,M,CLR,M,M,M,M,M,M,M,M,M,M,M,M,M,M,77.00,KMEV 040035Z AUTO 18015KT 10SM CLR 25/14 A3007 RMK AO2,M
RTS,2022-08-04 00:35,-119.8764,39.6682,1539.00,89.60,46.40,22.53,240.00,9.00,0.00,30.09,M,10.00,M,FEW,M,M,M,9000.00,M,M,M,M,M,M,M,M,M,M,86.24,KRTS 040035Z AUTO 24009KT 10SM FEW090 32/08 A3009 RMK AO2,M
BAM,2022-08-04 00:35,-116.8743,40.5990,1382.36,95.00,48.20,20.38,340.00,9.00,0.00,30.04,M,10.00,M,CLR,M,M,M,M,M,M,M,M,M,M,M,M,M,M,91.56,KBAM 040035Z AUTO 34009KT 10SM CLR 35/09 A3004 RMK AO1,M
05U,2022-08-04 00:35,-116.0051,39.6042,1811.23,M,M,M,M,M,0.00,M,M,M,M,M,M,M,M,M,M,M,M,M,M,M,M,M,M,M,M,K05U 040035Z AUTO RMK A01 PNO,M
CXP,2022-08-04 00:50,-119.7326,39.1923,1431.00,89.60,48.20,24.11,180.00,11.00,0.00,30.06,M,10.00,17.00,FEW,M,M,M,9500.00,M,M,M,M,M,M,M,M,M,M,86.44,KCXP 040050Z AUTO 18011G17KT 10SM FEW095 32/09 A3006 RMK AO2 LTG DSNT E AND S,M
DRA,2022-08-04 00:53,-116.0278,36.6206,1009.00,99.00,49.00,18.51,200.00,6.00,0.00,29.90,1006.80,10.00,M,BKN,M,M,M,11000.00,M,M,M,M,M,M,M,M,M,M,95.72,KDRA 040053Z AUTO 20006KT 10SM BKN110 37/09 A2990 RMK AO2 SLP068 T03720094,M
LOL,2022-08-04 00:53,-118.5701,40.0684,1192.43,97.00,46.00,17.64,90.00,10.00,0.00,29.96,1009.90,10.00,14.00,CLR,M,M,M,M,M,M,M,M,M,M,M,M,M,M,93.19,KLOL 040053Z AUTO 09010G14KT 10SM CLR 36/08 A2996 RMK AO2 SLP099 T03610078,M
ELY,2022-08-04 00:53,-114.8453,39.2950,1909.00,80.00,46.00,30.11,0.00,0.00,T,30.20,1013.20,10.00,M,FEW,SCT,BKN,M,7000.00,9000.00,11000.00,M,M,M,M,M,M,M,M,79.26,KELY 040053Z AUTO 00000KT 10SM FEW070 SCT090 BKN110 27/08 A3020 RMK AO2 RAB24E39 SLP132 P0000 T02670078,M
VGT,2022-08-04 00:53,-115.1933,36.2111,667.00,105.00,54.00,18.61,210.00,8.00,0.00,29.80,1007.30,10.00,18.00,CLR,M,M,M,M,M,M,M,M,M,M,M,M,M,M,103.64,KVGT 040053Z 21008G18KT 10SM CLR 41/12 A2980 RMK AO2 SLP073 T04060122,M
RNO,2022-08-04 00:55,-119.7711,39.4839,1341.00,91.00,51.00,25.70,M,3.00,T,30.01,1009.90,10.00,M,BKN,BKN,M,M,11000.00,25000.00,M,M,M,M,M,M,M,M,M,88.18,KRNO 040055Z VRB03KT 10SM BKN110CB BKN250 33/11 A3001 RMK AO2 RAB12E54 SLP099 CB SW AND DSNT NW THRU NE AND DSNT SE THRU S TCU ALQDS P0000 T03280106,M
BVU,2022-08-04 00:55,-114.8611,35.9475,671.00,100.40,57.20,24.06,200.00,13.00,0.00,29.82,M,M,M,M,M,M,M,M,M,M,M,M,M,M,M,M,M,M,99.77,KBVU 040055Z AUTO 20013KT 38/14 A2982 RMK AO2 PWINO TSNO,M
HTH,2022-08-04 00:55,-118.6315,38.5448,1282.89,84.20,50.00,30.62,220.00,32.00,0.00,30.02,M,7.00,44.00,FEW,SCT,BKN,M,300.00,7000.00,11000.00,M,M,M,M,M,M,M,M,82.24,KHTH 040055Z AUTO 22032G44KT 7SM FEW003 SCT070 BKN110 29/10 A3002 RMK A01,M
BAM,2022-08-04 00:55,-116.8743,40.5990,1382.36,95.00,46.40,19.04,330.00,9.00,0.00,30.04,M,10.00,M,CLR,M,M,M,M,M,M,M,M,M,M,M,M,M,M,91.29,KBAM 040055Z AUTO 33009KT 10SM CLR 35/08 A3004 RMK AO1,M
RTS,2022-08-04 00:55,-119.8764,39.6682,1539.00,89.60,46.40,22.53,240.00,8.00,0.00,30.08,M,10.00,M,CLR,M,M,M,M,M,M,M,M,M,M,M,M,M,M,86.24,KRTS 040055Z AUTO 24008KT 10SM CLR 32/08 A3008 RMK AO2,M
05U,2022-08-04 00:55,-116.0051,39.6042,1811.23,M,M,M,M,M,0.00,M,M,M,M,M,M,M,M,M,M,M,M,M,M,M,M,M,M,M,M,K05U 040055Z AUTO RMK A01 PNO,M
MEV,2022-08-04 00:55,-119.7500,38.9963,1441.42,75.20,55.40,50.17,170.00,14.00,0.00,30.06,M,10.00,19.00,CLR,M,M,M,M,M,M,M,M,M,M,M,M,M,M,75.20,KMEV 040055Z AUTO 17014G19KT 10SM CLR 24/13 A3006 RMK AO2 LTG DSNT SE,M
TMT,2022-08-04 00:55,-117.1971,39.4643,1749.34,M,M,M,40.00,5.00,0.00,30.16,M,10.00,M,SCT,M,M,M,11000.00,M,M,M,M,M,M,M,M,M,M,M,KTMT 040055Z AUTO 04005KT 10SM SCT110 A3016 RMK AO2,M
TPH,2022-08-04 00:56,-117.0904,38.0505,1654.00,88.00,51.00,28.25,160.00,16.00,T,30.09,1010.40,10.00,22.00,BKN,M,M,M,10000.00,M,M,M,-RA,M,M,M,27.00,140.00,2022-08-04 00:35,85.45,KTPH 040056Z AUTO 16016G22KT 10SM -RA BKN100 31/11 A3009 RMK AO2 PK WND 14027/0035 LTG DSNT NE AND S AND SW RAB55 SLP104 P0000 T03110106,M
WMC,2022-08-04 00:56,-117.8072,40.9019,1315.00,95.00,45.00,18.06,260.00,7.00,0.00,30.00,1010.60,10.00,M,CLR,M,M,M,M,M,M,M,M,M,M,M,M,M,M,91.10,KWMC 040056Z AUTO 26007KT 10SM CLR 35/07 A3000 RMK AO2 SLP106 T03500072,M
EKO,2022-08-04 00:56,-115.7860,40.8242,1367.00,91.00,41.00,17.54,310.00,9.00,0.00,30.06,1011.70,10.00,M,FEW,M,M,M,11000.00,M,M,M,M,M,M,M,M,M,M,87.04,KEKO 040056Z AUTO 31009KT 10SM FEW110 33/05 A3006 RMK AO2 SLP117 T03280050,M
HND,2022-08-04 00:56,-115.1344,35.9729,742.79,103.00,58.00,22.89,270.00,8.00,0.00,29.86,1009.00,10.00,M,CLR,M,M,M,M,M,M,M,M,M,M,M,M,M,M,102.89,KHND 040056Z 27008KT 10SM CLR 39/14 A2986 RMK AO2 SLP090 T03940144,M
LAS,2022-08-04 00:56,-115.1634,36.0719,663.00,103.00,55.00,20.61,M,4.00,0.00,29.81,1006.30,10.00,M,FEW,SCT,M,M,10000.00,25000.00,M,M,M,M,M,M,M,M,M,101.65,KLAS 040056Z VRB04KT 10SM FEW100 SCT250 39/13 A2981 RMK AO2 SLP063 CB DSNT N-E-SE T03940128 $,M
NFL,2022-08-04 00:56,-118.7010,39.4166,1199.00,95.00,40.00,14.84,M,5.00,0.00,29.97,1012.00,10.00,M,SCT,BKN,BKN,M,8000.00,12000.00,25000.00,M,M,M,M,M,M,M,M,90.61,KNFL 040056Z VRB05KT 10SM SCT080 BKN120 BKN250 35/04 A2997 RMK AO2 SLP120 CB DSNT SE AND SW-W T03500044,M
LSV,2022-08-04 00:58,-115.0343,36.2362,570.00,107.60,53.40,16.92,200.00,7.00,0.00,29.77,1005.10,10.00,M,FEW,FEW,M,M,14000.00,19000.00,M,M,M,M,M,M,M,M,M,106.05,KLSV 040058Z AUTO 20007KT 10SM FEW140 FEW190 42/12 A2977 RMK AO2 SLP051 T04200119 $,M
INS,2022-08-04 00:58,-115.6733,36.5872,955.00,98.00,51.30,20.92,150.00,4.00,0.00,29.89,1006.60,10.00,M,CLR,M,M,M,M,M,M,M,M,M,M,M,M,M,M,95.14,KINS 040058Z AUTO 15004KT 10SM CLR 37/11 A2989 RMK AO2 SLP066 T03660107,M
RNO,2022-08-04 01:09,-119.7711,39.4839,1341.00,88.00,57.00,35.05,230.00,9.00,0.00,30.01,M,10.00,M,BKN,BKN,M,M,11000.00,25000.00,M,M,TS,M,M,M,M,M,M,86.71,KRNO 040109Z COR 23009KT 10SM TS BKN110CB BKN250 31/14 A3001 RMK AO2 LTG DSNT SE TSB09 OCNL LTGIC SE TS SE MOV NE T03110139,M
CXP,2022-08-04 01:10,-119.7326,39.1923,1431.00,87.80,50.00,27.29,190.00,14.00,0.00,30.06,M,10.00,21.00,FEW,M,M,M,9500.00,M,M,M,M,M,M,M,M,M,M,85.11,KCXP 040110Z AUTO 19014G21KT 10SM FEW095 31/10 A3006 RMK AO2 LTG DSNT NE AND SE AND NW,M
MEV,2022-08-04 01:15,-119.7500,38.9963,1441.42,75.20,53.60,46.98,180.00,11.00,0.00,30.07,M,10.00,M,CLR,M,M,M,M,M,M,M,M,M,M,M,M,M,M,75.20,KMEV 040115Z AUTO 18011KT 10SM CLR 24/12 A3007 RMK AO2 LTG DSNT SE,M
BVU,2022-08-04 01:15,-114.8611,35.9475,671.00,100.40,57.20,24.06,190.00,11.00,0.00,29.82,M,M,M,M,M,M,M,M,M,M,M,M,M,M,M,M,M,M,99.77,KBVU 040115Z AUTO 19011KT 38/14 A2982 RMK AO2 PWINO TSNO,M
RTS,2022-08-04 01:15,-119.8764,39.6682,1539.00,87.80,46.40,23.85,260.00,10.00,0.00,30.08,M,10.00,M,CLR,M,M,M,M,M,M,M,M,M,M,M,M,M,M,84.68,KRTS 040115Z AUTO 26010KT 10SM CLR 31/08 A3008 RMK AO2,M
05U,2022-08-04 01:15,-116.0051,39.6042,1811.23,M,M,M,M,M,0.00,M,M,M,M,M,M,M,M,M,M,M,M,M,M,M,M,M,M,M,M,K05U 040115Z AUTO RMK A01 PNO,M
BAM,2022-08-04 01:15,-116.8743,40.5990,1382.36,93.20,46.40,20.13,340.00,7.00,0.00,30.03,M,10.00,M,CLR,M,M,M,M,M,M,M,M,M,M,M,M,M,M,89.55,KBAM 040115Z AUTO 34007KT 10SM CLR 34/08 A3003 RMK AO1,M
HTH,2022-08-04 01:15,-118.6315,38.5448,1282.89,78.80,53.60,41.69,230.00,20.00,0.00,30.05,M,7.00,27.00,BKN,BKN,OVC,M,3900.00,5500.00,11000.00,M,M,M,M,M,M,M,M,78.80,KHTH 040115Z AUTO 23020G27KT 7SM BKN039 BKN055 OVC110 26/12 A3005 RMK A01,M
TMT,2022-08-04 01:15,-117.1971,39.4643,1749.34,M,M,M,130.00,5.00,0.00,30.16,M,10.00,M,SCT,M,M,M,11000.00,M,M,M,M,M,M,M,M,M,M,M,KTMT 040115Z AUTO 13005KT 10SM SCT110 A3016 RMK AO2 LTG DSNT S AND SW,M
TPH,2022-08-04 01:24,-117.0904,38.0505,1654.00,88.00,46.00,23.34,270.00,5.00,T,30.09,M,10.00,M,OVC,M,M,M,11000.00,M,M,M,VCTS,M,M,M,M,M,M,84.81,KTPH 040124Z AUTO 27005KT 10SM VCTS OVC110 31/08 A3009 RMK AO2 LTG DSNT SW RAE14 P0000 T03110078,M
CXP,2022-08-04 01:30,-119.7326,39.1923,1431.00,86.00,50.00,28.90,180.00,9.00,0.00,30.08,M,10.00,16.00,CLR,M,M,M,M,M,M,M,VCTS,M,M,M,M,M,M,83.62,KCXP 040130Z AUTO 18009G16KT 10SM VCTS CLR 30/10 A3008 RMK AO2 LTG DSNT NE AND E,M
LSV,2022-08-04 01:31,-115.0343,36.2362,570.00,107.60,55.40,18.20,150.00,14.00,0.00,29.77,1005.10,9.00,M,SCT,M,M,M,11000.00,M,M,M,M,M,M,M,M,M,M,106.91,KLSV 040131Z AUTO 15014KT 9SM SCT110 42/13 A2977 RMK AO2 WSHFT 25 SLP051 $,M
BVU,2022-08-04 01:35,-114.8611,35.9475,671.00,100.40,59.00,25.67,190.00,7.00,0.00,29.82,M,M,M,M,M,M,M,M,M,M,M,M,M,M,M,M,M,M,100.57,KBVU 040135Z AUTO 19007KT 38/15 A2982 RMK AO2 PWINO TSNO,M
RTS,2022-08-04 01:35,-119.8764,39.6682,1539.00,87.80,48.20,25.52,270.00,13.00,0.00,30.08,M,10.00,M,CLR,M,M,M,M,M,M,M,M,M,M,M,M,M,M,84.87,KRTS 040135Z AUTO 27013KT 10SM CLR 31/09 A3008 RMK AO2,M
05U,2022-08-04 01:35,-116.0051,39.6042,1811.23,M,M,M,M,M,0.00,M,M,M,M,M,M,M,M,M,M,M,M,M,M,M,M,M,M,M,M,K05U 040135Z AUTO RMK A01 PNO,M
MEV,2022-08-04 01:35,-119.7500,38.9963,1441.42,80.60,53.60,39.30,180.00,14.00,0.00,30.07,M,10.00,M,CLR,M,M,M,M,M,M,M,M,M,M,M,M,M,M,80.29,KMEV 040135Z AUTO 18014KT 10SM CLR 27/12 A3007 RMK AO2,M
BAM,2022-08-04 01:35,-116.8743,40.5990,1382.36,91.40,46.40,21.29,330.00,8.00,0.00,30.03,M,10.00,M,CLR,M,M,M,M,M,M,M,M,M,M,M,M,M,M,87.86,KBAM 040135Z AUTO 33008KT 10SM CLR 33/08 A3003 RMK AO1,M
HTH,2022-08-04 01:35,-118.6315,38.5448,1282.89,75.20,57.20,53.55,230.00,28.00,0.00,30.08,M,4.00,39.00,FEW,BKN,OVC,M,500.00,3800.00,8000.00,M,HZ,M,M,M,M,M,M,75.20,KHTH 040135Z AUTO 23028G39KT 4SM HZ FEW005 BKN038 OVC080 24/14 A3008 RMK A01,M
TMT,2022-08-04 01:35,-117.1971,39.4643,1749.34,M,M,M,100.00,9.00,0.00,30.15,M,10.00,M,CLR,M,M,M,M,M,M,M,M,M,M,M,M,M,M,M,KTMT 040135Z AUTO 10009KT 10SM CLR A3015 RMK AO2 LTG DSNT SE AND S,M
RNO,2022-08-04 01:40,-119.7711,39.4839,1341.00,88.00,50.00,27.12,260.00,12.00,0.00,30.02,M,10.00,M,BKN,BKN,M,M,11000.00,25000.00,M,M,M,M,M,M,M,M,M,85.28,KRNO 040140Z 26012KT 10SM BKN110 BKN250 31/10 A3002 RMK AO2 LTG DSNT E AND SE TSB09E38 TS MOVD NE CB DSNT NW THRU N AND DSNT E THRU S T03110100,M
TPH,2022-08-04 01:43,-117.0904,38.0505,1654.00,88.00,47.00,24.15,160.00,5.00,T,30.09,M,10.00,M,BKN,M,M,M,11000.00,M,M,M,M,M,M,M,M,M,M,84.90,KTPH 040143Z AUTO 16005KT 10SM BKN110 31/08 A3009 RMK AO2 LTG DSNT W-NE RAE14 P0000 T03110083,M
CXP,2022-08-04 01:50,-119.7326,39.1923,1431.00,86.00,50.00,28.90,220.00,4.00,0.00,30.09,M,10.00,11.00,CLR,M,M,M,M,M,M,M,M,M,M,M,M,M,M,83.62,KCXP 040150Z AUTO 22004G11KT 10SM CLR 30/10 A3009 RMK AO2 LTG DSNT NE,M
ELY,2022-08-04 01:53,-114.8453,39.2950,1909.00,80.00,44.00,28.01,180.00,4.00,0.00,30.19,1012.30,10.00,M,BKN,M,M,M,11000.00,M,M,M,M,M,M,M,M,M,M,79.12,KELY 040153Z AUTO 18004KT 10SM BKN110 27/07 A3019 RMK AO2 SLP123 T02670067,M
LOL,2022-08-04 01:53,-118.5701,40.0684,1192.43,95.00,46.00,18.76,100.00,6.00,0.00,29.95,1009.40,10.00,M,CLR,M,M,M,M,M,M,M,M,M,M,M,M,M,M,91.23,KLOL 040153Z AUTO 10006KT 10SM CLR 35/08 A2995 RMK AO2 SLP094 T03500078,M
VGT,2022-08-04 01:53,-115.1933,36.2111,667.00,104.00,54.00,19.23,200.00,9.00,0.00,29.80,1007.40,10.00,M,CLR,M,M,M,M,M,M,M,M,M,M,M,M,M,M,102.46,KVGT 040153Z 20009KT 10SM CLR 40/12 A2980 RMK AO2 SLP074 T04000122,M
DRA,2022-08-04 01:53,-116.0278,36.6206,1009.00,100.00,46.00,16.10,210.00,7.00,0.00,29.90,1006.70,10.00,M,OVC,M,M,M,11000.00,M,M,M,M,M,M,M,M,M,M,96.16,KDRA 040153Z AUTO 21007KT 10SM OVC110 38/08 A2990 RMK AO2 SLP067 T03780078,M
BVU,2022-08-04 01:55,-114.8611,35.9475,671.00,100.40,57.20,24.06,190.00,7.00,0.00,29.82,M,M,M,M,M,M,M,M,M,M,M,M,M,M,M,M,M,M,99.77,KBVU 040155Z AUTO 19007KT 38/14 A2982 RMK AO2 PWINO TSNO,M
TMT,2022-08-04 01:55,-117.1971,39.4643,1749.34,M,M,M,110.00,7.00,0.00,30.15,M,10.00,M,SCT,M,M,M,11000.00,M,M,M,M,M,M,M,M,M,M,M,KTMT 040155Z AUTO 11007KT 10SM SCT110 A3015 RMK AO2 LTG DSNT S,M
05U,2022-08-04 01:55,-116.0051,39.6042,1811.23,M,M,M,M,M,0.00,M,M,M,M,M,M,M,M,M,M,M,M,M,M,M,M,M,M,M,M,K05U 040155Z AUTO RMK A01 PNO,M
MEV,2022-08-04 01:55,-119.7500,38.9963,1441.42,78.80,57.20,47.52,170.00,15.00,0.00,30.08,M,10.00,23.00,CLR,M,M,M,M,M,M,M,M,M,M,M,M,M,M,78.80,KMEV 040155Z AUTO 17015G23KT 10SM CLR 26/14 A3008 RMK AO2,M
BAM,2022-08-04 01:55,-116.8743,40.5990,1382.36,89.60,48.20,24.11,330.00,6.00,0.00,30.03,M,10.00,M,CLR,M,M,M,M,M,M,M,M,M,M,M,M,M,M,86.44,KBAM 040155Z AUTO 33006KT 10SM CLR 32/09 A3003 RMK AO1,M
HTH,2022-08-04 01:55,-118.6315,38.5448,1282.89,73.40,57.20,56.88,230.00,18.00,0.08,30.09,M,4.00,27.00,SCT,BKN,OVC,M,300.00,2400.00,7000.00,M,HZ,M,M,M,M,M,M,73.40,KHTH 040155Z AUTO 23018G27KT 4SM HZ SCT003 BKN024 OVC070 23/14 A3009 RMK A01 P0008,M
RTS,2022-08-04 01:55,-119.8764,39.6682,1539.00,87.80,48.20,25.52,310.00,6.00,0.00,30.09,M,10.00,14.00,FEW,M,M,M,9500.00,M,M,M,M,M,M,M,M,M,M,84.87,KRTS 040155Z AUTO 31006G14KT 10SM FEW095 31/09 A3009 RMK AO2,M
RNO,2022-08-04 01:55,-119.7711,39.4839,1341.00,87.00,51.00,29.07,270.00,6.00,0.00,30.02,1010.50,10.00,M,BKN,BKN,BKN,M,8000.00,12000.00,25000.00,M,M,M,M,M,M,M,M,84.67,KRNO 040155Z 27006KT 10SM BKN080 BKN120 BKN250 31/11 A3002 RMK AO2 LTG DSNT E-S SLP105 TSB09E38 CB DSNT NW THRU N AND DSNT E THRU S T03060106,M
TPH,2022-08-04 01:56,-117.0904,38.0505,1654.00,87.00,50.00,27.91,170.00,9.00,T,30.10,1010.40,10.00,M,BKN,M,M,M,10000.00,M,M,M,M,M,M,M,M,M,M,84.51,KTPH 040156Z AUTO 17009KT 10SM BKN100 31/10 A3010 RMK AO2 LTG DSNT ALQDS RAE14 SLP104 P0000 T03060100,M
WMC,2022-08-04 01:56,-117.8072,40.9019,1315.00,95.00,46.00,18.76,40.00,3.00,0.00,29.99,1009.90,10.00,M,CLR,M,M,M,M,M,M,M,M,M,M,M,M,M,M,91.23,KWMC 040156Z AUTO 04003KT 10SM CLR 35/08 A2999 RMK AO2 SLP099 T03500078,M
LAS,2022-08-04 01:56,-115.1634,36.0719,663.00,103.00,55.00,20.61,220.00,10.00,0.00,29.82,1006.40,10.00,16.00,FEW,SCT,M,M,10000.00,25000.00,M,M,M,M,M,M,M,M,M,101.65,KLAS 040156Z 22010G16KT 10SM FEW100 SCT250 39/13 A2982 RMK AO2 SLP064 ACC N CB DSNT NE-SE T03940128 $,M
NFL,2022-08-04 01:56,-118.7010,39.4166,1199.00,94.00,38.00,14.20,M,5.00,0.00,29.96,1011.80,10.00,M,SCT,BKN,BKN,M,8000.00,12000.00,25000.00,M,M,M,M,M,M,M,M,89.48,KNFL 040156Z VRB05KT 10SM SCT080 BKN120 BKN250 34/03 A2996 RMK AO2 SLP118 CB DSNT SE AND SW-W T03440033,M
HND,2022-08-04 01:56,-115.1344,35.9729,742.79,101.00,58.00,24.31,220.00,10.00,0.00,29.86,1009.20,10.00,M,CLR,M,M,M,M,M,M,M,M,M,M,M,M,M,M,100.63,KHND 040156Z 22010KT 10SM CLR 38/14 A2986 RMK AO2 SLP092 T03830144,M
EKO,2022-08-04 01:56,-115.7860,40.8242,1367.00,86.00,40.00,19.68,310.00,8.00,0.00,30.06,1011.90,10.00,M,CLR,M,M,M,M,M,M,M,M,M,M,M,M,M,M,82.81,KEKO 040156Z AUTO 31008KT 10SM CLR 30/04 A3006 RMK AO2 SLP119 T03000044,M
INS,2022-08-04 01:58,-115.6733,36.5872,955.00,97.00,50.50,20.88,0.00,0.00,0.00,29.89,1006.80,10.00,M,CLR,M,M,M,M,M,M,M,M,M,M,M,M,M,M,94.02,KINS 040158Z AUTO 00000KT 10SM CLR 36/10 A2989 RMK AO2 SLP068 T03610103,M
LSV,2022-08-04 01:58,-115.0343,36.2362,570.00,105.00,55.60,19.85,180.00,12.00,0.00,29.77,1005.20,10.00,M,SCT,M,M,M,25000.00,M,M,M,M,M,M,M,M,M,M,104.08,KLSV 040158Z 18012KT 10SM SCT250 41/13 A2977 RMK AO2A SLP052 T04050131 $,M
CXP,2022-08-04 02:10,-119.7326,39.1923,1431.00,84.20,50.00,30.62,M,5.00,0.00,30.09,M,10.00,11.00,BKN,M,M,M,10000.00,M,M,M,M,M,M,M,M,M,M,82.24,KCXP 040210Z AUTO VRB05G11KT 10SM BKN100 29/10 A3009 RMK AO2,M
MEV,2022-08-04 02:15,-119.7500,38.9963,1441.42,77.00,57.20,50.43,170.00,14.00,0.00,30.09,M,10.00,23.00,CLR,M,M,M,M,M,M,M,M,M,M,M,M,M,M,77.00,KMEV 040215Z AUTO 17014G23KT 10SM CLR 25/14 A3009 RMK AO2 LTG DSNT SE,M
RTS,2022-08-04 02:15,-119.8764,39.6682,1539.00,86.00,53.60,33.01,200.00,16.00,0.00,30.09,M,10.00,M,BKN,M,M,M,9500.00,M,M,M,-DZ,M,M,M,M,M,M,84.18,KRTS 040215Z AUTO 20016KT 10SM -DZ BKN095 30/12 A3009 RMK AO2,M
05U,2022-08-04 02:15,-116.0051,39.6042,1811.23,M,M,M,M,M,0.00,M,M,M,M,M,M,M,M,M,M,M,M,M,M,M,M,M,M,M,M,K05U 040215Z AUTO RMK A01 PNO,M
BAM,2022-08-04 02:15,-116.8743,40.5990,1382.36,91.40,46.40,21.29,340.00,5.00,0.00,30.03,M,10.00,M,CLR,M,M,M,M,M,M,M,M,M,M,M,M,M,M,87.86,KBAM 040215Z AUTO 34005KT 10SM CLR 33/08 A3003 RMK AO1,M
TMT,2022-08-04 02:15,-117.1971,39.4643,1749.34,M,M,M,120.00,7.00,0.00,30.16,M,10.00,M,SCT,M,M,M,11000.00,M,M,M,M,M,M,M,M,M,M,M,KTMT 040215Z AUTO 12007KT 10SM SCT110 A3016 RMK AO2 LTG DSNT S AND SW,M
BVU,2022-08-04 02:15,-114.8611,35.9475,671.00,100.40,57.20,24.06,230.00,7.00,0.00,29.82,M,M,M,M,M,M,M,M,M,M,M,M,M,M,M,M,M,M,99.77,KBVU 040215Z AUTO 23007KT 38/14 A2982 RMK AO2 PWINO TSNO,M
HTH,2022-08-04 02:15,-118.6315,38.5448,1282.89,73.40,57.20,56.88,260.00,24.00,0.00,30.11,M,7.00,29.00,FEW,BKN,OVC,M,4100.00,7000.00,11000.00,M,M,M,M,M,M,M,M,73.40,KHTH 040215Z AUTO 26024G29KT 7SM FEW041 BKN070 OVC110 23/14 A3011 RMK A01,M
RNO,2022-08-04 02:18,-119.7711,39.4839,1341.00,84.00,57.00,39.83,260.00,6.00,0.00,30.04,M,10.00,M,SCT,BKN,M,M,7500.00,12000.00,M,M,TS,M,M,M,M,M,M,83.26,KRNO 040218Z 26006KT 10SM TS SCT075CB BKN120 29/14 A3004 RMK AO2 LTG DSNT E AND SE AND NW TSB14 OCNL LTGICCG NW TS NW MOV NE T02890139,M
TPH,2022-08-04 02:23,-117.0904,38.0505,1654.00,85.00,53.00,33.57,210.00,9.00,0.00,30.11,M,10.00,M,BKN,M,M,M,11000.00,M,M,M,VCTS,M,M,M,M,M,M,83.21,KTPH 040223Z AUTO 21009KT 10SM VCTS BKN110 29/12 A3011 RMK AO2 LTG DSNT ALQDS T02940117,M
CXP,2022-08-04 02:30,-119.7326,39.1923,1431.00,84.20,53.60,34.97,200.00,7.00,0.00,30.10,M,10.00,17.00,OVC,M,M,M,9500.00,M,M,M,VCTS,M,M,M,M,M,M,82.76,KCXP 040230Z AUTO 20007G17KT 10SM VCTS OVC095 29/12 A3010 RMK AO2 LTG DSNT NE AND E,M
MEV,2022-08-04 02:35,-119.7500,38.9963,1441.42,77.00,55.40,47.25,180.00,18.00,0.00,30.10,M,10.00,M,CLR,M,M,M,M,M,M,M,M,M,M,M,M,M,M,77.00,KMEV 040235Z AUTO 18018KT 10SM CLR 25/13 A3010 RMK AO2,M
TMT,2022-08-04 02:35,-117.1971,39.4643,1749.34,M,M,M,210.00,15.00,0.00,30.19,M,10.00,20.00,BKN,M,M,M,10000.00,M,M,M,VCTS,M,M,M,M,M,M,M,KTMT 040235Z AUTO 21015G20KT 10SM VCTS BKN100 A3019 RMK AO2 LTG DSNT SE THRU SW,M
BVU,2022-08-04 02:35,-114.8611,35.9475,671.00,98.60,57.20,25.41,200.00,4.00,0.00,29.83,M,M,M,M,M,M,M,M,M,M,M,M,M,M,M,M,M,M,97.76,KBVU 040235Z AUTO 20004KT 37/14 A2983 RMK AO2 PWINO TSNO,M
RTS,2022-08-04 02:35,-119.8764,39.6682,1539.00,73.40,57.20,56.88,190.00,17.00,0.00,30.12,M,5.00,30.00,FEW,FEW,BKN,M,2400.00,5500.00,9000.00,M,-RA,M,M,M,M,M,M,73.40,KRTS 040235Z AUTO 19017G30KT 5SM -RA FEW024 FEW055 BKN090 23/14 A3012 RMK AO2,M
05U,2022-08-04 02:35,-116.0051,39.6042,1811.23,M,M,M,M,M,0.00,M,M,M,M,M,M,M,M,M,M,M,M,M,M,M,M,M,M,M,M,K05U 040235Z AUTO RMK A01 PNO,M
BAM,2022-08-04 02:35,-116.8743,40.5990,1382.36,89.60,48.20,24.11,340.00,4.00,0.00,30.03,M,10.00,M,CLR,M,M,M,M,M,M,M,M,M,M,M,M,M,M,86.44,KBAM 040235Z AUTO 34004KT 10SM CLR 32/09 A3003 RMK AO1,M
HTH,2022-08-04 02:35,-118.6315,38.5448,1282.89,73.40,57.20,56.88,270.00,24.00,0.00,30.11,M,9.00,M,FEW,SCT,BKN,M,4100.00,5500.00,7000.00,M,M,M,M,M,M,M,M,73.40,KHTH 040235Z AUTO 27024KT 9SM FEW041 SCT055 BKN070 23/14 A3011 RMK A01,M
RNO,2022-08-04 02:47,-119.7711,39.4839,1341.00,76.00,61.00,59.92,280.00,24.00,T,30.05,M,2.50,35.00,BKN,BKN,M,M,8000.00,12000.00,M,M,-TSRA,M,M,M,35.00,270.00,2022-08-04 02:46,75.90,KRNO 040247Z 28024G35KT 2 1/2SM -TSRA BKN080CB BKN120 24/16 A3005 RMK AO2 PK WND 27035/0246 LTG DSNT NE TSB14 OCNL LTGICCG NW TS NW MOV NE P0000 T02440161,M
RNO,2022-08-04 02:50,-119.7711,39.4839,1341.00,73.40,59.00,60.67,300.00,21.00,0.03,30.07,M,1.25,35.00,BKN,BKN,M,M,8000.00,12000.00,M,M,+TSGRRA,M,M,M,35.00,270.00,2022-08-04 02:46,73.40,KRNO 040250Z 30021G35KT 1 1/4SM +TSGRRA BKN080CB BKN120 23/15 A3007 RMK AO2 PK WND 27035/0246 LTG DSNT N-SE TSB14 OCNL LTGICCG NW TS NW MOV NE GR LESS THAN 1/4 P0003,M
CXP,2022-08-04 02:50,-119.7326,39.1923,1431.00,80.60,55.40,41.97,190.00,12.00,0.00,30.11,M,10.00,18.00,OVC,M,M,M,9500.00,M,M,M,M,M,M,M,M,M,M,80.53,KCXP 040250Z AUTO 19012G18KT 160V230 10SM OVC095 27/13 A3011 RMK AO2 LTG DSNT NW-NE,M
TPH,2022-08-04 02:51,-117.0904,38.0505,1654.00,80.60,53.60,39.30,270.00,16.00,0.00,30.13,M,10.00,27.00,OVC,M,M,M,10000.00,M,M,M,TS,M,M,M,27.00,250.00,2022-08-04 02:44,80.29,KTPH 040251Z AUTO 27016G27KT 10SM TS OVC100 27/12 A3013 RMK AO2 PK WND 25027/0244 WSHFT 0232 LTG DSNT SW-N TSB51,M
TPH,2022-08-04 02:52,-117.0904,38.0505,1654.00,80.00,53.00,39.23,270.00,18.00,0.00,30.13,1011.80,10.00,27.00,OVC,M,M,M,10000.00,M,M,M,TS,M,M,M,27.00,250.00,2022-08-04 02:44,79.94,KTPH 040252Z AUTO 27018G27KT 10SM TS OVC100 27/12 A3013 RMK AO2 PK WND 25027/0244 WSHFT 0232 LTG DSNT SW-N TSB51 SLP118 60000 T02670117 53009,M
DRA,2022-08-04 02:53,-116.0278,36.6206,1009.00,96.00,46.00,18.13,240.00,8.00,0.00,29.92,1007.10,10.00,M,BKN,M,M,M,11000.00,M,M,M,M,M,M,M,M,M,M,92.30,KDRA 040253Z AUTO 24008KT 10SM BKN110 36/08 A2992 RMK AO2 SLP071 T03560078 53001,M
LOL,2022-08-04 02:53,-118.5701,40.0684,1192.43,91.00,48.00,22.90,100.00,4.00,0.00,29.96,1009.60,10.00,M,CLR,M,M,M,M,M,M,M,M,M,M,M,M,M,M,87.69,KLOL 040253Z AUTO 10004KT 10SM CLR 33/09 A2996 RMK AO2 SLP096 T03280089 55003,M
ELY,2022-08-04 02:53,-114.8453,39.2950,1909.00,76.00,49.00,38.57,160.00,8.00,0.00,30.21,1012.40,10.00,M,BKN,M,M,M,11000.00,M,M,M,M,M,M,M,M,M,M,75.90,KELY 040253Z AUTO 16008KT 10SM BKN110 24/09 A3021 RMK AO2 SLP124 60000 T02440094 55002,M
VGT,2022-08-04 02:53,-115.1933,36.2111,667.00,103.00,54.00,19.87,210.00,6.00,0.00,29.81,1007.70,10.00,M,CLR,M,M,M,M,M,M,M,M,M,M,M,M,M,M,101.27,KVGT 040253Z 21006KT 10SM CLR 39/12 A2981 RMK AO2 SLP077 T03940122 55001,M
RTS,2022-08-04 02:55,-119.8764,39.6682,1539.00,75.20,57.20,53.55,150.00,9.00,0.10,30.11,M,8.00,15.00,FEW,FEW,FEW,M,5500.00,8500.00,11000.00,M,-DZ,M,M,M,M,M,M,75.20,KRTS 040255Z AUTO 15009G15KT 8SM -DZ FEW055 FEW085 FEW110 24/14 A3011 RMK AO2 P0010,M
TMT,2022-08-04 02:55,-117.1971,39.4643,1749.34,M,M,M,190.00,18.00,0.00,30.18,M,10.00,M,BKN,M,M,M,11000.00,M,M,M,-TSRA,M,M,M,M,M,M,M,KTMT 040255Z AUTO 19018KT 10SM -TSRA BKN110 A3018 RMK AO2 LTG DSNT S THRU W,M
05U,2022-08-04 02:55,-116.0051,39.6042,1811.23,M,M,M,M,M,0.00,M,M,M,M,M,M,M,M,M,M,M,M,M,M,M,M,M,M,M,M,K05U 040255Z AUTO RMK A01 PNO,M
MEV,2022-08-04 02:55,-119.7500,38.9963,1441.42,77.00,51.80,41.42,160.00,23.00,0.00,30.10,M,8.00,29.00,CLR,M,M,M,M,M,M,M,M,M,M,M,M,M,M,77.00,KMEV 040255Z AUTO 16023G29KT 8SM CLR 25/11 A3010 RMK AO2,M
BAM,2022-08-04 02:55,-116.8743,40.5990,1382.36,87.80,48.20,25.52,320.00,4.00,0.00,30.03,M,10.00,M,CLR,M,M,M,M,M,M,M,M,M,M,M,M,M,M,84.87,KBAM 040255Z AUTO 32004KT 10SM CLR 31/09 A3003 RMK AO1,M
HTH,2022-08-04 02:55,-118.6315,38.5448,1282.89,73.40,55.40,53.29,250.00,18.00,0.01,30.12,M,10.00,25.00,FEW,SCT,BKN,M,4600.00,6000.00,7000.00,M,M,M,M,M,M,M,M,73.40,KHTH 040255Z AUTO 25018G25KT 10SM FEW046 SCT060 BKN070 23/13 A3012 RMK A01 P0001,M
RNO,2022-08-04 02:55,-119.7711,39.4839,1341.00,74.00,59.00,59.66,270.00,6.00,0.16,30.06,1012.60,0.75,35.00,BKN,BKN,M,M,6000.00,10000.00,M,M,+TSGRRA,M,M,M,35.00,270.00,2022-08-04 02:46,73.90,KRNO 040255Z 27006G35KT 3/4SM +TSGRRA BKN060CB BKN100 23/15 A3006 RMK AO2 PK WND 27035/0246 LTG DSNT N-SE SLP126 TSB14 OCNL LTGICCG NW TS NW MOV NE GR 1/4 P0016 60016 T02330150 53012 RVRNO,M
BVU,2022-08-04 02:55,-114.8611,35.9475,671.00,96.80,57.20,26.84,170.00,4.00,0.00,29.83,M,M,M,M,M,M,M,M,M,M,M,M,M,M,M,M,M,M,95.77,KBVU 040255Z AUTO 17004KT 36/14 A2983 RMK AO2 PWINO TSNO,M
HND,2022-08-04 02:56,-115.1344,35.9729,742.79,99.00,57.00,24.92,230.00,7.00,0.00,29.87,1009.60,10.00,M,CLR,M,M,M,M,M,M,M,M,M,M,M,M,M,M,98.12,KHND 040256Z 23007KT 10SM CLR 37/14 A2987 RMK AO2 SLP096 T03720139 55000,M
LAS,2022-08-04 02:56,-115.1634,36.0719,663.00,101.00,54.00,21.10,200.00,6.00,0.00,29.83,1006.80,10.00,M,FEW,SCT,M,M,10000.00,25000.00,M,M,M,M,M,M,M,M,M,99.11,KLAS 040256Z 20006KT 10SM FEW100 SCT250 38/12 A2983 RMK AO2 SLP068 CB DSNT NE-SE T03830122 53000 $,M
NFL,2022-08-04 02:56,-118.7010,39.4166,1199.00,91.00,45.00,20.45,220.00,7.00,0.00,29.98,1012.50,10.00,M,SCT,BKN,BKN,M,8000.00,12000.00,25000.00,M,M,M,M,M,M,M,M,87.35,KNFL 040256Z 22007KT 10SM SCT080 BKN120 BKN250 33/07 A2998 RMK AO2 SLP125 OCNL LTGIC DSNT W CB DSNT W-NW T03280072 55000,M
LSV,2022-08-04 02:56,-115.0343,36.2362,570.00,103.00,56.70,21.92,180.00,10.00,0.00,29.75,M,10.00,M,FEW,SCT,M,M,12000.00,18000.00,M,M,M,M,M,M,M,M,M,102.34,KLSV 040256Z 18010KT 10SM FEW120 SCT180 39/14 2975 RMK A02A SLPNO T03940137 $,M
WMC,2022-08-04 02:56,-117.8072,40.9019,1315.00,90.00,46.00,21.91,350.00,3.00,0.00,30.00,1010.00,10.00,M,CLR,M,M,M,M,M,M,M,M,M,M,M,M,M,M,86.55,KWMC 040256Z AUTO 35003KT 10SM CLR 32/08 A3000 RMK AO2 SLP100 T03220078 55007,M
EKO,2022-08-04 02:56,-115.7860,40.8242,1367.00,82.00,41.00,23.37,290.00,5.00,0.00,30.06,1011.80,10.00,M,CLR,M,M,M,M,M,M,M,M,M,M,M,M,M,M,80.04,KEKO 040256Z AUTO 29005KT 10SM CLR 28/05 A3006 RMK AO2 SLP118 T02780050 55004,M
INS,2022-08-04 02:58,-115.6733,36.5872,955.00,92.80,55.00,27.94,0.00,0.00,0.00,29.90,1007.00,10.00,M,CLR,M,M,M,M,M,M,M,M,M,M,M,M,M,M,90.80,KINS 040258Z AUTO 00000KT 10SM CLR 34/13 A2990 RMK AO2 SLP070 T03380127 55001,M
RNO,2022-08-04 03:02,-119.7711,39.4839,1341.00,77.00,55.00,46.57,M,3.00,0.27,30.07,M,0.75,M,SCT,BKN,BKN,M,4000.00,6000.00,9500.00,M,+TSRA,M,M,M,M,M,M,77.00,KRNO 040302Z VRB03KT 3/4SM +TSRA SCT040 BKN060CB BKN095 25/13 A3007 RMK AO2 LTG DSNT N-SE GRE01 OCNL LTGICCG N TS N MOV NE P0027 T02500128 RVRNO,M
RNO,2022-08-04 03:09,-119.7711,39.4839,1341.00,75.00,62.00,64.20,220.00,15.00,0.49,30.06,M,1.25,23.00,SCT,BKN,BKN,M,4000.00,6000.00,9500.00,M,+TSRA,M,M,M,M,M,M,75.00,KRNO 040309Z 22015G23KT 1 1/4SM +TSRA SCT040 BKN060CB BKN095 24/17 A3006 RMK AO2 LTG DSNT N-SE GRE01 OCNL LTGICCG N TS N MOV NE P0049 T02390167,M
CXP,2022-08-04 03:10,-119.7326,39.1923,1431.00,80.60,51.80,36.79,190.00,13.00,0.00,30.12,M,10.00,21.00,BKN,BKN,M,M,9500.00,12000.00,M,M,M,M,M,M,M,M,M,80.08,KCXP 040310Z AUTO 19013G21KT 10SM BKN095 BKN120 27/11 A3012 RMK AO2 LTG DSNT NE AND E,M
RNO,2022-08-04 03:12,-119.7711,39.4839,1341.00,77.00,62.00,60.06,210.00,10.00,0.53,30.06,M,1.75,23.00,SCT,BKN,BKN,M,4000.00,6000.00,9500.00,M,+TSRA,M,M,M,M,M,M,77.00,KRNO 040312Z 21010G23KT 1 3/4SM +TSRA SCT040 BKN060CB BKN095 25/17 A3006 RMK AO2 VIS 3/4V3 LTG DSNT N-SE GRE01 OCNL LTGICCG N TS N MOV NE P0053 T02500167,M
TPH,2022-08-04 03:12,-117.0904,38.0505,1654.00,78.00,54.00,43.30,300.00,19.00,T,30.12,M,10.00,25.00,FEW,BKN,OVC,M,3900.00,10000.00,11000.00,M,VCTS -RA,M,M,M,32.00,280.00,2022-08-04 02:58,78.10,KTPH 040312Z AUTO 30019G25KT 10SM VCTS -RA FEW039 BKN100 OVC110 26/12 A3012 RMK AO2 PK WND 28032/0258 LTG DSNT SW-N RAB04 TSE06 P0000 T02560122,M
MEV,2022-08-04 03:15,-119.7500,38.9963,1441.42,75.20,51.80,43.97,170.00,16.00,0.00,30.11,M,8.00,28.00,CLR,M,M,M,M,M,M,M,M,M,M,M,M,M,M,75.20,KMEV 040315Z AUTO 17016G28KT 8SM CLR 24/11 A3011 RMK AO2 LTG DSNT NE AND SE,M
HTH,2022-08-04 03:15,-118.6315,38.5448,1282.89,77.00,51.80,41.42,260.00,17.00,0.00,30.10,M,10.00,29.00,FEW,SCT,BKN,M,3700.00,4900.00,6000.00,M,M,M,M,M,M,M,M,77.00,KHTH 040315Z AUTO 26017G29KT 10SM FEW037 SCT049 BKN060 25/11 A3010 RMK A01,M
BVU,2022-08-04 03:15,-114.8611,35.9475,671.00,96.80,59.00,28.63,0.00,0.00,0.00,29.83,M,M,M,M,M,M,M,M,M,M,M,M,M,M,M,M,M,M,96.50,KBVU 040315Z AUTO 00000KT 36/15 A2983 RMK AO2 PWINO TSNO,M
BAM,2022-08-04 03:15,-116.8743,40.5990,1382.36,86.00,48.20,27.03,330.00,5.00,0.00,30.04,M,10.00,M,CLR,M,M,M,M,M,M,M,M,M,M,M,M,M,M,83.40,KBAM 040315Z AUTO 33005KT 10SM CLR 30/09 A3004 RMK AO1,M
05U,2022-08-04 03:15,-116.0051,39.6042,1811.23,M,M,M,M,M,0.00,M,M,M,M,M,M,M,M,M,M,M,M,M,M,M,M,M,M,M,M,K05U 040315Z AUTO RMK A01 PNO,M
TMT,2022-08-04 03:15,-117.1971,39.4643,1749.34,M,M,M,190.00,16.00,0.00,30.18,M,10.00,21.00,BKN,M,M,M,11000.00,M,M,M,-RA,M,M,M,M,M,M,M,KTMT 040315Z AUTO 19016G21KT 10SM -RA BKN110 A3018 RMK AO2 LTG DSNT S THRU W,M
RTS,2022-08-04 03:15,-119.8764,39.6682,1539.00,73.40,57.20,56.88,190.00,7.00,0.00,30.12,M,10.00,M,CLR,M,M,M,M,M,M,M,M,M,M,M,M,M,M,73.40,KRTS 040315Z AUTO 19007KT 10SM CLR 23/14 A3012 RMK AO2,M
RNO,2022-08-04 03:16,-119.7711,39.4839,1341.00,75.00,63.00,66.27,210.00,19.00,0.58,30.07,M,2.50,27.00,SCT,BKN,BKN,M,4000.00,6000.00,9500.00,M,+TSRA,M,M,M,27.00,240.00,2022-08-04 03:14,75.00,KRNO 040316Z 21019G27KT 2 1/2SM +TSRA SCT040 BKN060CB BKN095 24/17 A3007 RMK AO2 PK WND 24027/0314 TWR VIS 10 VIS 2V3 LTG DSNT N-SE GRE01 OCNL LTGICCG N TS N MOV NE P0058 T02390172,M
RNO,2022-08-04 03:22,-119.7711,39.4839,1341.00,80.00,63.00,55.98,260.00,10.00,0.69,30.06,M,1.75,27.00,BKN,BKN,BKN,M,4500.00,7000.00,12000.00,M,+TSRA,M,M,M,27.00,240.00,2022-08-04 03:14,81.50,KRNO 040322Z 26010G27KT 1 3/4SM +TSRA BKN045CB BKN070 BKN120 27/17 A3006 RMK AO2 PK WND 24027/0314 TWR VIS 10 LTG DSNT N-E GRE01 OCNL LTGICCG NE TS NE MOV NE P0069 T02670172,M
RNO,2022-08-04 03:26,-119.7711,39.4839,1341.00,79.00,63.00,58.04,320.00,14.00,0.80,30.06,M,0.75,27.00,BKN,BKN,BKN,M,4500.00,7000.00,12000.00,M,+TSRA,M,M,M,27.00,240.00,2022-08-04 03:14,79.00,KRNO 040326Z 32014G27KT 270V010 3/4SM +TSRA BKN045CB BKN070 BKN120 26/17 A3006 RMK AO2 PK WND 24027/0314 TWR VIS 10 LTG DSNT N-E GRE01 OCNL LTGICCG NE TS NE MOV NE P0080 T02610172 RVRNO,M
CXP,2022-08-04 03:30,-119.7326,39.1923,1431.00,78.80,51.80,39.02,190.00,15.00,0.00,30.13,M,10.00,25.00,SCT,SCT,M,M,9500.00,12000.00,M,M,M,M,M,M,M,M,M,78.80,KCXP 040330Z AUTO 19015G25KT 10SM SCT095 SCT120 26/11 A3013 RMK AO2 LTG DSNT N AND E,M
TPH,2022-08-04 03:31,-117.0904,38.0505,1654.00,78.00,52.00,40.23,300.00,14.00,T,30.13,M,10.00,M,OVC,M,M,M,9500.00,M,M,M,M,M,M,M,32.00,280.00,2022-08-04 02:58,78.10,KTPH 040331Z AUTO 30014KT 10SM OVC095 26/11 A3013 RMK AO2 PK WND 28032/0258 LTG DSNT SW-N RAB04E25 TSE06 P0000 T02560111,M
RNO,2022-08-04 03:33,-119.7711,39.4839,1341.00,81.00,64.00,56.30,330.00,15.00,1.06,30.07,M,1.00,27.00,BKN,BKN,BKN,M,4100.00,6000.00,10000.00,M,-TSRA,M,M,M,27.00,240.00,2022-08-04 03:14,82.54,KRNO 040333Z 33015G27KT 1SM -TSRA BKN041 BKN060CB BKN100 27/18 A3007 RMK AO2 PK WND 24027/0314 TWR VIS 10 LTG DSNT N-E GRE01 OCNL LTGICCG NE TS NE MOV NE P0106 T02720178 RVRNO,M
BVU,2022-08-04 03:35,-114.8611,35.9475,671.00,93.20,62.60,36.35,0.00,0.00,0.00,29.83,M,M,M,M,M,M,M,M,M,M,M,M,M,M,M,M,M,M,94.20,KBVU 040335Z AUTO 00000KT 34/17 A2983 RMK AO2 PWINO TSNO,M
BAM,2022-08-04 03:35,-116.8743,40.5990,1382.36,82.40,50.00,32.46,330.00,3.00,0.00,30.04,M,10.00,M,CLR,M,M,M,M,M,M,M,M,M,M,M,M,M,M,80.99,KBAM 040335Z AUTO 33003KT 10SM CLR 28/10 A3004 RMK AO1,M
MEV,2022-08-04 03:35,-119.7500,38.9963,1441.42,75.20,53.60,46.98,170.00,13.00,0.00,30.11,M,10.00,20.00,SCT,M,M,M,10000.00,M,M,M,M,M,M,M,M,M,M,75.20,KMEV 040335Z AUTO 17013G20KT 10SM SCT100 24/12 A3011 RMK AO2,M
TMT,2022-08-04 03:35,-117.1971,39.4643,1749.34,68.20,53.60,59.56,230.00,18.00,0.00,30.21,M,10.00,25.00,SCT,SCT,OVC,M,6500.00,8000.00,10000.00,M,-RA,M,M,M,M,M,M,68.20,KTMT 040335Z AUTO 23018G25KT 10SM -RA SCT065 SCT080 OVC100 20/12 A3021 RMK AO2 LTG DSNT SE THRU W T02010120,M
05U,2022-08-04 03:35,-116.0051,39.6042,1811.23,M,M,M,M,M,0.00,M,M,M,M,M,M,M,M,M,M,M,M,M,M,M,M,M,M,M,M,K05U 040335Z AUTO RMK A01 PNO,M
RTS,2022-08-04 03:35,-119.8764,39.6682,1539.00,73.40,57.20,56.88,0.00,0.00,0.00,30.13,M,10.00,M,CLR,M,M,M,M,M,M,M,M,M,M,M,M,M,M,73.40,KRTS 040335Z AUTO 00000KT 10SM CLR 23/14 A3013 RMK AO2,M
HTH,2022-08-04 03:35,-118.6315,38.5448,1282.89,77.00,53.60,44.25,250.00,16.00,0.00,30.08,M,10.00,26.00,FEW,SCT,BKN,M,4200.00,5500.00,7500.00,M,M,M,M,M,M,M,M,77.00,KHTH 040335Z AUTO 25016G26KT 10SM FEW042 SCT055 BKN075 25/12 A3008 RMK A01,M
RNO,2022-08-04 03:36,-119.7711,39.4839,1341.00,79.00,65.00,62.03,330.00,15.00,1.06,30.07,M,6.00,27.00,BKN,BKN,BKN,M,4100.00,6000.00,10000.00,M,-TSRA,M,M,M,27.00,240.00,2022-08-04 03:14,79.00,KRNO 040336Z 33015G27KT 6SM -TSRA BKN041 BKN060CB BKN100 26/18 A3007 RMK AO2 PK WND 24027/0314 LTG DSNT N AND NE GRE01 OCNL LTGICCG NE TS NE MOV NE P0106 T02610183,M
RNO,2022-08-04 03:43,-119.7711,39.4839,1341.00,79.00,66.00,64.45,180.00,13.00,1.06,30.07,M,10.00,M,BKN,BKN,BKN,M,4500.00,7000.00,12000.00,M,M,M,M,M,27.00,240.00,2022-08-04 03:14,79.00,KRNO 040343Z 18013KT 10SM BKN045 BKN070 BKN120 26/19 A3007 RMK AO2 PK WND 24027/0314 LTG DSNT N AND NE RAE41GRE01 TSE41 TS MOVD NE CB DSNT N AND DSNT SE THRU S P0106 T02610189,M
CXP,2022-08-04 03:50,-119.7326,39.1923,1431.00,77.00,51.80,41.42,190.00,9.00,0.00,30.14,M,10.00,21.00,FEW,M,M,M,9500.00,M,M,M,M,M,M,M,M,M,M,77.00,KCXP 040350Z AUTO 19009G21KT 10SM FEW095 25/11 A3014 RMK AO2,M
VGT,2022-08-04 03:53,-115.1933,36.2111,667.00,102.00,55.00,21.17,210.00,6.00,0.00,29.82,1008.10,10.00,M,CLR,M,M,M,M,M,M,M,M,M,M,M,M,M,M,100.66,KVGT 040353Z AUTO 21006KT 10SM CLR 39/13 A2982 RMK AO2 SLP081 T03890128,M
LOL,2022-08-04 03:53,-118.5701,40.0684,1192.43,82.00,46.00,28.30,0.00,0.00,0.00,29.98,1010.20,10.00,M,CLR,M,M,M,M,M,M,M,M,M,M,M,M,M,M,80.36,KLOL 040353Z AUTO 00000KT 10SM CLR 28/08 A2998 RMK AO2 LTG DSNT SW AND W SLP102 T02780078,M
ELY,2022-08-04 03:53,-114.8453,39.2950,1909.00,71.00,53.00,52.96,190.00,12.00,0.00,30.23,1013.10,10.00,M,CLR,M,M,M,M,M,M,M,M,M,M,M,M,M,M,71.10,KELY 040353Z AUTO 19012KT 10SM CLR 22/12 A3023 RMK AO2 SLP131 T02170117,M
DRA,2022-08-04 03:53,-116.0278,36.6206,1009.00,94.00,47.00,20.07,240.00,8.00,0.00,29.93,1007.30,10.00,M,CLR,M,M,M,M,M,M,M,M,M,M,M,M,M,M,90.29,KDRA 040353Z AUTO 24008KT 10SM CLR 34/08 A2993 RMK AO2 SLP073 T03440083,M
RTS,2022-08-04 03:55,-119.8764,39.6682,1539.00,73.40,57.20,56.88,130.00,5.00,0.00,30.14,M,10.00,M,CLR,M,M,M,M,M,M,M,M,M,M,M,M,M,M,73.40,KRTS 040355Z AUTO 13005KT 10SM CLR 23/14 A3014 RMK AO2,M
RNO,2022-08-04 03:55,-119.7711,39.4839,1341.00,78.00,61.00,55.71,180.00,18.00,1.06,30.07,1012.50,10.00,M,FEW,SCT,BKN,M,3600.00,7000.00,11000.00,M,M,M,M,M,27.00,240.00,2022-08-04 03:14,78.10,KRNO 040355Z 18018KT 10SM FEW036 SCT070 BKN110 26/16 A3007 RMK AO2 PK WND 24027/0314 WSHFT 0333 LTG DSNT N AND NE RAE41GRE01 TSE41 SLP125 CB DSNT N AND DSNT SE THRU S P0106 T02560161 $,M
HTH,2022-08-04 03:55,-118.6315,38.5448,1282.89,80.60,50.00,34.41,160.00,10.00,0.00,30.09,M,10.00,M,FEW,SCT,SCT,M,8000.00,10000.00,12000.00,M,M,M,M,M,M,M,M,79.88,KHTH 040355Z AUTO 16010KT 10SM FEW080 SCT100 SCT120 27/10 A3009 RMK A01,M
TMT,2022-08-04 03:55,-117.1971,39.4643,1749.34,M,M,M,230.00,15.00,0.00,30.21,M,10.00,23.00,SCT,SCT,M,M,8000.00,10000.00,M,M,VCTS,M,M,M,M,M,M,M,KTMT 040355Z AUTO 23015G23KT 10SM VCTS SCT080 SCT100 A3021 RMK AO2 LTG DSNT SE AND W,M
BAM,2022-08-04 03:55,-116.8743,40.5990,1382.36,80.60,48.20,32.18,0.00,0.00,0.00,30.04,M,10.00,M,CLR,M,M,M,M,M,M,M,M,M,M,M,M,M,M,79.71,KBAM 040355Z AUTO 00000KT 10SM CLR 27/09 A3004 RMK AO1,M
MEV,2022-08-04 03:55,-119.7500,38.9963,1441.42,71.60,51.80,49.64,180.00,10.00,0.00,30.12,M,10.00,16.00,FEW,M,M,M,10000.00,M,M,M,M,M,M,M,M,M,M,71.60,KMEV 040355Z AUTO 18010G16KT 10SM FEW100 22/11 A3012 RMK AO2,M
05U,2022-08-04 03:55,-116.0051,39.6042,1811.23,M,M,M,M,M,0.00,M,M,M,M,M,M,M,M,M,M,M,M,M,M,M,M,M,M,M,M,K05U 040355Z AUTO RMK A01 PNO,M
BVU,2022-08-04 03:55,-114.8611,35.9475,671.00,95.00,59.00,30.26,290.00,3.00,0.00,29.84,M,M,M,M,M,M,M,M,M,M,M,M,M,M,M,M,M,M,94.51,KBVU 040355Z AUTO 29003KT 35/15 A2984 RMK AO2 PWINO TSNO,M
NFL,2022-08-04 03:56,-118.7010,39.4166,1199.00,83.00,50.00,31.93,230.00,22.00,0.00,30.03,1013.80,9.00,30.00,SCT,BKN,BKN,M,8000.00,12000.00,25000.00,M,M,M,M,M,34.00,230.00,2022-08-04 03:17,81.32,KNFL 040356Z 23022G30KT 9SM SCT080 BKN120 BKN250 28/10 A3003 RMK AO2 PK WND 23034/0317 SLP138 OCNL LTGICCG DSNT W CB DSNT W-NW T02830100,M
EKO,2022-08-04 03:56,-115.7860,40.8242,1367.00,79.00,41.00,25.78,0.00,0.00,0.00,30.08,1012.20,10.00,M,FEW,M,M,M,12000.00,M,M,M,M,M,M,M,M,M,M,79.00,KEKO 040356Z AUTO 00000KT 10SM FEW120 26/05 A3008 RMK AO2 SLP122 T02610050,M
TPH,2022-08-04 03:56,-117.0904,38.0505,1654.00,78.00,55.00,44.90,350.00,18.00,T,30.17,1013.00,10.00,23.00,OVC,M,M,M,9000.00,M,M,M,VCTS -RA,M,M,M,32.00,280.00,2022-08-04 02:58,78.10,KTPH 040356Z AUTO 35018G23KT 10SM VCTS -RA OVC090 26/13 A3017 RMK AO2 PK WND 28032/0258 LTG DSNT W-NE RAB04E25B56 TSE06 SLP130 P0000 T02560128,M
WMC,2022-08-04 03:56,-117.8072,40.9019,1315.00,77.00,45.00,32.10,150.00,5.00,0.00,30.01,1010.70,10.00,M,CLR,M,M,M,M,M,M,M,M,M,M,M,M,M,M,77.00,KWMC 040356Z AUTO 15005KT 10SM CLR 25/07 A3001 RMK AO2 SLP107 T02500072,M
LAS,2022-08-04 03:56,-115.1634,36.0719,663.00,99.00,55.00,23.18,200.00,4.00,0.00,29.83,1007.00,10.00,M,FEW,SCT,M,M,10000.00,25000.00,M,M,M,M,M,M,M,M,M,97.39,KLAS 040356Z 20004KT 10SM FEW100 SCT250 37/13 A2983 RMK AO2 SLP070 T03720128 $,M
HND,2022-08-04 03:56,-115.1344,35.9729,742.79,96.00,57.00,27.23,200.00,6.00,0.00,29.88,1009.80,10.00,M,CLR,M,M,M,M,M,M,M,M,M,M,M,M,M,M,94.94,KHND 040356Z AUTO 20006KT 10SM CLR 36/14 A2988 RMK AO2 SLP098 T03560139,M
INS,2022-08-04 03:58,-115.6733,36.5872,955.00,92.70,52.70,25.86,210.00,4.00,0.00,29.91,1007.20,10.00,M,CLR,M,M,M,M,M,M,M,M,M,M,M,M,M,M,90.15,KINS 040358Z AUTO 21004KT 10SM CLR 34/12 A2991 RMK AO2 SLP072 T03370115,M
LSV,2022-08-04 03:58,-115.0343,36.2362,570.00,102.20,55.40,21.36,190.00,2.00,0.00,29.79,M,10.00,M,CLR,M,M,M,M,M,M,M,M,M,M,M,M,M,M,101.04,KLSV 040358Z 19002KT 10SM CLR 39/13 A2979 RMK AO2A SLPNO WND DATA ESTMD $,M
LOL,2022-08-04 04:07,-118.5701,40.0684,1192.43,84.00,48.00,28.60,160.00,4.00,0.00,29.98,M,10.00,M,CLR,M,M,M,M,M,M,M,VCTS,M,M,M,M,M,M,81.87,KLOL 040407Z AUTO 16004KT 10SM VCTS CLR 29/09 A2998 RMK AO2 LTG DSNT SW AND W T02890089,M
CXP,2022-08-04 04:10,-119.7326,39.1923,1431.00,77.00,51.80,41.42,210.00,8.00,0.00,30.15,M,10.00,M,CLR,M,M,M,M,M,M,M,M,M,M,M,M,M,M,77.00,KCXP 040410Z AUTO 21008KT 10SM CLR 25/11 A3015 RMK AO2,M
05U,2022-08-04 04:10,-116.0051,39.6042,1811.23,M,M,M,M,M,0.00,M,M,M,M,M,M,M,M,M,M,M,M,M,M,M,M,M,M,M,M,K05U 040410Z AUTO RMK A01 PNO,M
MEV,2022-08-04 04:15,-119.7500,38.9963,1441.42,73.40,51.80,46.71,320.00,4.00,0.00,30.14,M,10.00,M,CLR,M,M,M,M,M,M,M,M,M,M,M,M,M,M,73.40,KMEV 040415Z AUTO 32004KT 10SM CLR 23/11 A3014 RMK AO2 LTG DSNT N AND E,M
TMT,2022-08-04 04:15,-117.1971,39.4643,1749.34,M,M,M,230.00,16.00,0.00,30.22,M,10.00,21.00,CLR,M,M,M,M,M,M,M,VCTS,M,M,M,M,M,M,M,KTMT 040415Z AUTO 23016G21KT 10SM VCTS CLR A3022 RMK AO2 LTG DSNT SE THRU W,M
RTS,2022-08-04 04:15,-119.8764,39.6682,1539.00,73.40,59.00,60.67,90.00,4.00,0.00,30.15,M,10.00,M,FEW,M,M,M,9500.00,M,M,M,M,M,M,M,M,M,M,73.40,KRTS 040415Z AUTO 09004KT 10SM FEW095 23/15 A3015 RMK AO2,M
HTH,2022-08-04 04:15,-118.6315,38.5448,1282.89,78.80,51.80,39.02,150.00,5.00,0.00,30.08,M,10.00,M,SCT,SCT,SCT,M,7000.00,9500.00,12000.00,M,M,M,M,M,M,M,M,78.80,KHTH 040415Z AUTO 15005KT 10SM SCT070 SCT095 SCT120 26/11 A3008 RMK A01,M
BAM,2022-08-04 04:15,-116.8743,40.5990,1382.36,80.60,50.00,34.41,240.00,5.00,0.00,30.05,M,10.00,M,CLR,M,M,M,M,M,M,M,M,M,M,M,M,M,M,79.88,KBAM 040415Z AUTO 24005KT 10SM CLR 27/10 A3005 RMK AO1,M
BVU,2022-08-04 04:15,-114.8611,35.9475,671.00,91.40,60.80,36.08,0.00,0.00,0.00,29.84,M,M,M,M,M,M,M,M,M,M,M,M,M,M,M,M,M,M,91.40,KBVU 040415Z AUTO 00000KT 33/16 A2984 RMK AO2 PWINO TSNO,M
TPH,2022-08-04 04:25,-117.0904,38.0505,1654.00,74.00,58.00,57.36,10.00,15.00,T,30.17,M,10.00,M,FEW,SCT,M,M,10000.00,11000.00,M,M,M,M,M,M,27.00,350.00,2022-08-04 04:10,73.90,KTPH 040425Z AUTO 01015KT 10SM FEW100 SCT110 23/14 A3017 RMK AO2 PK WND 35027/0410 LTG DSNT NW-NE RAE20 P0000 T02330144,M
CXP,2022-08-04 04:30,-119.7326,39.1923,1431.00,77.00,51.80,41.42,M,5.00,0.00,30.16,M,10.00,11.00,CLR,M,M,M,M,M,M,M,M,M,M,M,M,M,M,77.00,KCXP 040430Z AUTO VRB05G11KT 10SM CLR 25/11 A3016 RMK AO2,M
TMT,2022-08-04 04:35,-117.1971,39.4643,1749.34,M,M,M,210.00,11.00,0.00,30.23,M,10.00,15.00,SCT,M,M,M,12000.00,M,M,M,-RA,M,M,M,M,M,M,M,KTMT 040435Z AUTO 21011G15KT 150V230 10SM -RA SCT120 A3023 RMK AO2 LTG DSNT W,M
05U,2022-08-04 04:35,-116.0051,39.6042,1811.23,M,M,M,M,M,0.00,M,M,M,M,M,M,M,M,M,M,M,M,M,M,M,M,M,M,M,M,K05U 040435Z AUTO RMK A01 PNO,M
MEV,2022-08-04 04:35,-119.7500,38.9963,1441.42,71.60,51.80,49.64,M,4.00,0.00,30.14,M,10.00,M,CLR,M,M,M,M,M,M,M,M,M,M,M,M,M,M,71.60,KMEV 040435Z AUTO VRB04KT 10SM CLR 22/11 A3014 RMK AO2,M
BAM,2022-08-04 04:35,-116.8743,40.5990,1382.36,80.60,46.40,30.07,0.00,0.00,0.00,30.06,M,10.00,M,CLR,M,M,M,M,M,M,M,M,M,M,M,M,M,M,79.56,KBAM 040435Z AUTO 00000KT 10SM CLR 27/08 A3006 RMK AO1,M
HTH,2022-08-04 04:35,-118.6315,38.5448,1282.89,77.00,55.40,47.25,0.00,0.00,0.00,30.07,M,10.00,M,FEW,SCT,BKN,M,4800.00,6500.00,8000.00,M,M,M,M,M,M,M,M,77.00,KHTH 040435Z AUTO 00000KT 10SM FEW048 SCT065 BKN080 25/13 A3007 RMK A01,M
BVU,2022-08-04 04:35,-114.8611,35.9475,671.00,93.20,60.80,34.11,0.00,0.00,0.00,29.84,M,M,M,M,M,M,M,M,M,M,M,M,M,M,M,M,M,M,93.32,KBVU 040435Z AUTO 00000KT 34/16 A2984 RMK AO2 PWINO TSNO,M
RTS,2022-08-04 04:35,-119.8764,39.6682,1539.00,71.60,59.00,64.48,80.00,8.00,0.00,30.15,M,10.00,M,SCT,SCT,M,M,9000.00,12000.00,M,M,M,M,M,M,M,M,M,71.60,KRTS 040435Z AUTO 08008KT 10SM SCT090 SCT120 22/15 A3015 RMK AO2,M
CXP,2022-08-04 04:50,-119.7326,39.1923,1431.00,75.20,51.80,43.97,0.00,0.00,0.00,30.16,M,10.00,M,FEW,M,M,M,9500.00,M,M,M,M,M,M,M,M,M,M,75.20,KCXP 040450Z AUTO 00000KT 10SM FEW095 24/11 A3016 RMK AO2,M
ELY,2022-08-04 04:53,-114.8453,39.2950,1909.00,69.00,49.00,48.53,230.00,12.00,0.00,30.24,1013.10,10.00,M,CLR,M,M,M,M,M,M,M,M,M,M,M,M,M,M,69.10,KELY 040453Z AUTO 23012KT 10SM CLR 21/09 A3024 RMK AO2 SLP131 T02060094,M
DRA,2022-08-04 04:53,-116.0278,36.6206,1009.00,91.00,47.00,21.97,230.00,4.00,0.00,29.94,1007.90,10.00,M,CLR,M,M,M,M,M,M,M,M,M,M,M,M,M,M,87.55,KDRA 040453Z AUTO 23004KT 10SM CLR 33/08 A2994 RMK AO2 SLP079 T03280083,M
VGT,2022-08-04 04:53,-115.1933,36.2111,667.00,100.00,55.00,22.49,230.00,4.00,0.00,29.83,1008.40,10.00,M,CLR,M,M,M,M,M,M,M,M,M,M,M,M,M,M,98.48,KVGT 040453Z AUTO 23004KT 10SM CLR 38/13 A2983 RMK AO2 SLP084 T03780128,M
LOL,2022-08-04 04:53,-118.5701,40.0684,1192.43,87.00,50.00,27.91,270.00,13.00,0.00,30.02,1011.10,8.00,M,FEW,BKN,OVC,M,4800.00,5500.00,11000.00,M,VCTS,M,M,M,26.00,210.00,2022-08-04 04:42,84.51,KLOL 040453Z AUTO 27013KT 8SM VCTS FEW048 BKN055 OVC110 31/10 A3002 RMK AO2 PK WND 21026/0442 LTG DSNT W AND NW SLP111 T03060100,M
RTS,2022-08-04 04:55,-119.8764,39.6682,1539.00,71.60,57.20,60.44,90.00,7.00,0.00,30.16,M,10.00,M,BKN,BKN,M,M,10000.00,12000.00,M,M,M,M,M,M,M,M,M,71.60,KRTS 040455Z AUTO 09007KT 10SM BKN100 BKN120 22/14 A3016 RMK AO2,M
05U,2022-08-04 04:55,-116.0051,39.6042,1811.23,M,M,M,M,M,0.00,M,M,M,M,M,M,M,M,M,M,M,M,M,M,M,M,M,M,M,M,K05U 040455Z AUTO RMK A01 PNO,M
MEV,2022-08-04 04:55,-119.7500,38.9963,1441.42,71.60,51.80,49.64,0.00,0.00,0.00,30.14,M,10.00,M,CLR,M,M,M,M,M,M,M,M,M,M,M,M,M,M,71.60,KMEV 040455Z AUTO 00000KT 10SM CLR 22/11 A3014 RMK AO2,M
BAM,2022-08-04 04:55,-116.8743,40.5990,1382.36,77.00,44.60,31.62,190.00,4.00,0.00,30.06,M,10.00,M,CLR,M,M,M,M,M,M,M,M,M,M,M,M,M,M,77.00,KBAM 040455Z AUTO 19004KT 10SM CLR 25/07 A3006 RMK AO1,M
HTH,2022-08-04 04:55,-118.6315,38.5448,1282.89,75.20,55.40,50.17,160.00,9.00,0.00,30.08,M,10.00,M,FEW,SCT,SCT,M,7500.00,9000.00,12000.00,M,M,M,M,M,M,M,M,75.20,KHTH 040455Z AUTO 16009KT 10SM FEW075 SCT090 SCT120 24/13 A3008 RMK A01,M
TMT,2022-08-04 04:55,-117.1971,39.4643,1749.34,M,M,M,220.00,13.00,0.00,30.23,M,10.00,19.00,OVC,M,M,M,11000.00,M,M,M,-DZ,M,M,M,M,M,M,M,KTMT 040455Z AUTO 22013G19KT 10SM -DZ OVC110 A3023 RMK AO2 LTG DSNT S AND W,M
BVU,2022-08-04 04:55,-114.8611,35.9475,671.00,93.20,62.60,36.35,0.00,0.00,0.00,29.85,M,M,M,M,M,M,M,M,M,M,M,M,M,M,M,M,M,M,94.20,KBVU 040455Z AUTO 00000KT 34/17 A2985 RMK AO2 PWINO TSNO,M
RNO,2022-08-04 04:55,-119.7711,39.4839,1341.00,77.00,56.00,48.12,170.00,14.00,0.00,30.10,1013.10,10.00,M,SCT,BKN,M,M,11000.00,15000.00,M,M,M,M,M,M,M,M,M,77.00,KRNO 040455Z 17014KT 10SM SCT110 BKN150 25/13 A3010 RMK AO2 SLP131 T02500133 $,M
HND,2022-08-04 04:56,-115.1344,35.9729,742.79,93.00,59.00,32.19,210.00,6.00,0.00,29.89,1010.30,10.00,M,CLR,M,M,M,M,M,M,M,M,M,M,M,M,M,M,92.35,KHND 040456Z AUTO 21006KT 10SM CLR 34/15 A2989 RMK AO2 SLP103 T03390150,M
EKO,2022-08-04 04:56,-115.7860,40.8242,1367.00,77.00,41.00,27.53,0.00,0.00,0.00,30.09,1012.60,10.00,M,BKN,M,M,M,11000.00,M,M,M,M,M,M,M,M,M,M,77.00,KEKO 040456Z AUTO 00000KT 10SM BKN110 25/05 A3009 RMK AO2 SLP126 T02500050,M
WMC,2022-08-04 04:56,-117.8072,40.9019,1315.00,74.00,45.00,35.60,140.00,4.00,0.00,30.02,1011.10,10.00,M,CLR,M,M,M,M,M,M,M,M,M,M,M,M,M,M,73.90,KWMC 040456Z AUTO 14004KT 10SM CLR 23/07 A3002 RMK AO2 SLP111 T02330072,M
LAS,2022-08-04 04:56,-115.1634,36.0719,663.00,97.00,56.00,25.45,210.00,5.00,0.00,29.85,1007.40,10.00,M,FEW,SCT,M,M,10000.00,25000.00,M,M,M,M,M,M,M,M,M,95.53,KLAS 040456Z 21005KT 10SM FEW100 SCT250 36/13 A2985 RMK AO2 SLP074 T03610133 $,M
TPH,2022-08-04 04:56,-117.0904,38.0505,1654.00,72.00,59.00,63.61,20.00,16.00,T,30.18,1013.60,10.00,23.00,FEW,M,M,M,10000.00,M,M,M,M,M,M,M,27.00,350.00,2022-08-04 04:10,72.00,KTPH 040456Z AUTO 02016G23KT 10SM FEW100 22/15 A3018 RMK AO2 PK WND 35027/0410 LTG DSNT NE RAE20 SLP136 P0000 T02220150,M
NFL,2022-08-04 04:56,-118.7010,39.4166,1199.00,81.00,50.00,33.97,240.00,19.00,0.00,30.04,1014.10,10.00,24.00,SCT,BKN,BKN,M,8000.00,12000.00,25000.00,M,M,M,M,M,28.00,240.00,2022-08-04 03:59,80.12,KNFL 040456Z 24019G24KT 10SM SCT080 BKN120 BKN250 27/10 A3004 RMK AO2 PK WND 24028/0359 SLP141 OCNL LTGICCG DSNT NW-N CB DSNT NW-N T02720100,M
LSV,2022-08-04 04:58,-115.0343,36.2362,570.00,96.80,55.40,25.15,180.00,6.00,0.00,29.79,M,10.00,M,CLR,M,M,M,M,M,M,M,M,M,M,M,M,M,M,95.14,KLSV 040458Z 18006KT 10SM CLR 36/13 A2979 RMK AO2A SLPNO WND DATA ESTMD $,M
INS,2022-08-04 04:58,-115.6733,36.5872,955.00,88.70,55.00,31.89,280.00,4.00,0.00,29.92,1007.50,10.00,M,CLR,M,M,M,M,M,M,M,M,M,M,M,M,M,M,86.84,KINS 040458Z AUTO 28004KT 10SM CLR 32/13 A2992 RMK AO2 SLP075 T03150128,M
CXP,2022-08-04 05:10,-119.7326,39.1923,1431.00,75.20,51.80,43.97,M,3.00,0.00,30.16,M,10.00,M,CLR,M,M,M,M,M,M,M,M,M,M,M,M,M,M,75.20,KCXP 040510Z AUTO VRB03KT 10SM CLR 24/11 A3016 RMK AO2,M
BVU,2022-08-04 05:15,-114.8611,35.9475,671.00,91.40,62.60,38.45,0.00,0.00,0.00,29.86,M,M,M,M,M,M,M,M,M,M,M,M,M,M,M,M,M,M,92.23,KBVU 040515Z AUTO 00000KT 33/17 A2986 RMK AO2 PWINO TSNO,M
RTS,2022-08-04 05:15,-119.8764,39.6682,1539.00,71.60,57.20,60.44,130.00,7.00,0.00,30.16,M,10.00,M,BKN,BKN,M,M,9000.00,12000.00,M,M,M,M,M,M,M,M,M,71.60,KRTS 040515Z AUTO 13007KT 10SM BKN090 BKN120 22/14 A3016 RMK AO2,M
05U,2022-08-04 05:15,-116.0051,39.6042,1811.23,M,M,M,M,M,0.00,M,M,M,M,M,M,M,M,M,M,M,M,M,M,M,M,M,M,M,M,K05U 040515Z AUTO RMK A01 PNO,M
MEV,2022-08-04 05:15,-119.7500,38.9963,1441.42,69.80,50.00,49.37,0.00,0.00,0.00,30.14,M,10.00,M,CLR,M,M,M,M,M,M,M,M,M,M,M,M,M,M,69.80,KMEV 040515Z AUTO 00000KT 10SM CLR 21/10 A3014 RMK AO2,M
BAM,2022-08-04 05:15,-116.8743,40.5990,1382.36,77.00,46.40,33.85,230.00,6.00,0.00,30.07,M,10.00,M,CLR,M,M,M,M,M,M,M,M,M,M,M,M,M,M,77.00,KBAM 040515Z AUTO 23006KT 10SM CLR 25/08 A3007 RMK AO1,M
HTH,2022-08-04 05:15,-118.6315,38.5448,1282.89,77.00,53.60,44.25,170.00,14.00,0.00,30.07,M,10.00,19.00,CLR,M,M,M,M,M,M,M,M,M,M,M,M,M,M,77.00,KHTH 040515Z AUTO 17014G19KT 10SM CLR 25/12 A3007 RMK A01,M
TMT,2022-08-04 05:15,-117.1971,39.4643,1749.34,M,M,M,230.00,15.00,0.00,30.24,M,10.00,21.00,BKN,M,M,M,11000.00,M,M,M,TS,M,M,M,M,M,M,M,KTMT 040515Z AUTO 23015G21KT 10SM TS BKN110 A3024 RMK AO2 LTG DSNT S,M
CXP,2022-08-04 05:30,-119.7326,39.1923,1431.00,75.20,51.80,43.97,0.00,0.00,0.00,30.15,M,10.00,M,CLR,M,M,M,M,M,M,M,M,M,M,M,M,M,M,75.20,KCXP 040530Z AUTO 00000KT 10SM CLR 24/11 A3015 RMK AO2,M
HTH,2022-08-04 05:35,-118.6315,38.5448,1282.89,75.20,53.60,46.98,170.00,11.00,0.00,30.08,M,10.00,M,FEW,M,M,M,11000.00,M,M,M,M,M,M,M,M,M,M,75.20,KHTH 040535Z AUTO 17011KT 10SM FEW110 24/12 A3008 RMK A01,M
MEV,2022-08-04 05:35,-119.7500,38.9963,1441.42,69.80,50.00,49.37,0.00,0.00,0.00,30.13,M,10.00,M,CLR,M,M,M,M,M,M,M,M,M,M,M,M,M,M,69.80,KMEV 040535Z AUTO 00000KT 10SM CLR 21/10 A3013 RMK AO2,M
TMT,2022-08-04 05:35,-117.1971,39.4643,1749.34,M,M,M,230.00,13.00,0.00,30.22,M,10.00,M,SCT,M,M,M,11000.00,M,M,M,M,M,M,M,M,M,M,M,KTMT 040535Z AUTO 23013KT 10SM SCT110 A3022 RMK AO2 LTG DSNT S,M
BVU,2022-08-04 05:35,-114.8611,35.9475,671.00,89.60,64.40,43.34,0.00,0.00,0.00,29.86,M,M,M,M,M,M,M,M,M,M,M,M,M,M,M,M,M,M,91.23,KBVU 040535Z AUTO 00000KT 32/18 A2986 RMK AO2 PWINO TSNO,M
RTS,2022-08-04 05:35,-119.8764,39.6682,1539.00,71.60,57.20,60.44,0.00,0.00,0.00,30.16,M,10.00,M,FEW,M,M,M,9000.00,M,M,M,M,M,M,M,M,M,M,71.60,KRTS 040535Z AUTO 00000KT 10SM FEW090 22/14 A3016 RMK AO2,M
05U,2022-08-04 05:35,-116.0051,39.6042,1811.23,M,M,M,M,M,0.00,M,M,M,M,M,M,M,M,M,M,M,M,M,M,M,M,M,M,M,M,K05U 040535Z AUTO RMK A01 PNO,M
BAM,2022-08-04 05:35,-116.8743,40.5990,1382.36,73.40,44.60,35.66,250.00,6.00,0.00,30.07,M,10.00,M,CLR,M,M,M,M,M,M,M,M,M,M,M,M,M,M,73.40,KBAM 040535Z AUTO 25006KT 10SM CLR 23/07 A3007 RMK AO1,M
CXP,2022-08-04 05:50,-119.7326,39.1923,1431.00,73.40,51.80,46.71,0.00,0.00,0.00,30.15,M,10.00,M,CLR,M,M,M,M,M,M,M,M,M,M,M,M,M,M,73.40,KCXP 040550Z AUTO 00000KT 10SM CLR 23/11 A3015 RMK AO2,M
LOL,2022-08-04 05:51,-118.5701,40.0684,1192.43,78.80,53.60,41.69,250.00,10.00,T,30.03,M,10.00,M,BKN,M,M,M,11000.00,M,M,M,M,M,M,M,30.00,270.00,2022-08-04 05:26,78.80,KLOL 040551Z AUTO 25010KT 10SM BKN110 26/12 A3003 RMK AO2 PK WND 27030/0526 LTG DSNT NE AND NW RAB14E35 P0000,M
ELY,2022-08-04 05:53,-114.8453,39.2950,1909.00,67.00,49.00,52.35,0.00,0.00,0.00,30.24,1012.60,10.00,M,CLR,M,M,M,M,M,M,M,M,M,M,M,M,M,M,66.90,KELY 040553Z AUTO 00000KT 10SM CLR 19/09 A3024 RMK AO2 SLP126 60000 T01940094 10278 20189 50008,M
DRA,2022-08-04 05:53,-116.0278,36.6206,1009.00,90.00,48.00,23.63,20.00,6.00,0.00,29.95,1007.90,10.00,M,CLR,M,M,M,M,M,M,M,M,M,M,M,M,M,M,86.78,KDRA 040553Z AUTO 02006KT 10SM CLR 32/09 A2995 RMK AO2 SLP079 T03220089 10389 20317 51009,M
LOL,2022-08-04 05:53,-118.5701,40.0684,1192.43,79.00,54.00,42.03,250.00,9.00,T,30.03,1012.00,10.00,M,BKN,M,M,M,11000.00,M,M,M,-RA,M,M,M,30.00,270.00,2022-08-04 05:26,79.00,KLOL 040553Z AUTO 25009KT 10SM -RA BKN110 26/12 A3003 RMK AO2 PK WND 27030/0526 LTG DSNT NE AND NW RAB14E35B52 SLP120 P0000 60000 T02610122 10367 20261 50016,M
VGT,2022-08-04 05:53,-115.1933,36.2111,667.00,98.00,56.00,24.61,180.00,3.00,0.00,29.84,1008.70,10.00,M,CLR,M,M,M,M,M,M,M,M,M,M,M,M,M,M,96.72,KVGT 040553Z AUTO 18003KT 10SM CLR 37/13 A2984 RMK AO2 SLP087 T03670133 10417 20361 51009,M
RNO,2022-08-04 05:55,-119.7711,39.4839,1341.00,75.00,57.00,53.52,180.00,9.00,0.00,30.09,1012.70,10.00,M,FEW,M,M,M,10000.00,M,M,M,M,M,M,M,M,M,M,75.00,KRNO 040555Z 18009KT 10SM FEW100 24/14 A3009 RMK AO2 SLP127 60122 T02390139 10350 20228 50008 $,M
TMT,2022-08-04 05:55,-117.1971,39.4643,1749.34,M,M,M,220.00,12.00,0.00,30.24,M,10.00,M,SCT,M,M,M,11000.00,M,M,M,M,M,M,M,M,M,M,M,KTMT 040555Z AUTO 22012KT 10SM SCT110 A3024 RMK AO2 LTG DSNT S,M
HTH,2022-08-04 05:55,-118.6315,38.5448,1282.89,75.20,53.60,46.98,160.00,13.00,0.00,30.08,M,10.00,M,CLR,M,M,M,M,M,M,M,M,M,M,M,M,M,M,75.20,KHTH 040555Z AUTO 16013KT 10SM CLR 24/12 A3008 RMK A01,M
BAM,2022-08-04 05:55,-116.8743,40.5990,1382.36,73.40,42.80,33.29,230.00,7.00,0.00,30.08,M,10.00,M,CLR,M,M,M,M,M,M,M,M,M,M,M,M,M,M,73.40,KBAM 040555Z AUTO 23007KT 10SM CLR 23/06 A3008 RMK AO1,M
MEV,2022-08-04 05:55,-119.7500,38.9963,1441.42,66.20,50.00,55.88,60.00,5.00,0.00,30.13,M,10.00,M,CLR,M,M,M,M,M,M,M,M,M,M,M,M,M,M,66.20,KMEV 040555Z AUTO 06005KT 10SM CLR 19/10 A3013 RMK AO2,M
05U,2022-08-04 05:55,-116.0051,39.6042,1811.23,M,M,M,M,M,0.00,M,M,M,M,M,M,M,M,M,M,M,M,M,M,M,M,M,M,M,M,K05U 040555Z AUTO RMK A01 PNO,M
RTS,2022-08-04 05:55,-119.8764,39.6682,1539.00,69.80,57.20,64.26,0.00,0.00,0.00,30.16,M,10.00,M,CLR,M,M,M,M,M,M,M,M,M,M,M,M,M,M,69.80,KRTS 040555Z AUTO 00000KT 10SM CLR 21/14 A3016 RMK AO2,M
BVU,2022-08-04 05:55,-114.8611,35.9475,671.00,89.60,62.60,40.69,0.00,0.00,0.00,29.86,M,M,M,M,M,M,M,M,M,M,M,M,M,M,M,M,M,M,90.32,KBVU 040555Z AUTO 00000KT 32/17 A2986 RMK AO2 PWINO TSNO,M
EKO,2022-08-04 05:56,-115.7860,40.8242,1367.00,72.00,42.00,33.97,0.00,0.00,0.00,30.10,1012.90,10.00,M,CLR,M,M,M,M,M,M,M,M,M,M,M,M,M,M,72.00,KEKO 040556Z AUTO 00000KT 10SM CLR 22/06 A3010 RMK AO2 SLP129 T02220056 10339 20211 51011,M
WMC,2022-08-04 05:56,-117.8072,40.9019,1315.00,77.00,47.00,34.50,140.00,3.00,0.00,30.02,1010.70,10.00,M,CLR,M,M,M,M,M,M,M,M,M,M,M,M,M,M,77.00,KWMC 040556Z AUTO 14003KT 10SM CLR 25/08 A3002 RMK AO2 SLP107 T02500083 10361 20228 50007,M
HND,2022-08-04 05:56,-115.1344,35.9729,742.79,91.00,59.00,34.27,180.00,6.00,0.00,29.90,1010.50,10.00,M,CLR,M,M,M,M,M,M,M,M,M,M,M,M,M,M,90.27,KHND 040556Z AUTO 18006KT 10SM CLR 33/15 A2990 RMK AO2 SLP105 T03280150 10400 20328 51009,M
NFL,2022-08-04 05:56,-118.7010,39.4166,1199.00,80.00,50.00,34.98,280.00,7.00,0.00,30.07,1015.00,10.00,M,SCT,SCT,BKN,M,8000.00,12000.00,25000.00,M,M,M,M,M,M,M,M,79.60,KNFL 040556Z 28007KT 10SM SCT080 SCT120 BKN250 27/10 A3007 RMK AO2 SLP150 T02670100 10361 20267 51025,M
LAS,2022-08-04 05:56,-115.1634,36.0719,663.00,95.00,56.00,27.06,210.00,6.00,0.00,29.85,1007.60,10.00,M,FEW,SCT,M,M,10000.00,25000.00,M,M,M,M,M,M,M,M,M,93.38,KLAS 040556Z 21006KT 10SM FEW100 SCT250 35/13 A2985 RMK AO2 SLP076 T03500133 10400 20350 53008 $,M
TPH,2022-08-04 05:56,-117.0904,38.0505,1654.00,71.00,57.00,61.04,10.00,17.00,0.00,30.19,1013.50,10.00,M,CLR,M,M,M,M,M,M,M,M,M,M,M,M,M,M,71.10,KTPH 040556Z AUTO 01017KT 10SM CLR 22/14 A3019 RMK AO2 SLP135 60000 T02170139 10311 20217 51018,M
INS,2022-08-04 05:58,-115.6733,36.5872,955.00,86.20,55.20,34.77,80.00,3.00,0.00,29.94,1008.20,10.00,M,CLR,M,M,M,M,M,M,M,M,M,M,M,M,M,M,84.67,KINS 040558Z AUTO 08003KT 10SM CLR 30/13 A2994 RMK AO2 SLP082 T03010129 10368 20300 52012,M
LSV,2022-08-04 05:58,-115.0343,36.2362,570.00,96.80,32.00,10.27,0.00,0.00,0.00,29.80,M,10.00,M,CLR,M,M,M,M,M,M,M,M,M,M,M,M,M,M,91.19,KLSV 040558Z 00000KT 10SM CLR 36/00 A2980 RMK AO2A SLPNO WND DATA ESTMD 10426 20394 $,M
CXP,2022-08-04 06:10,-119.7326,39.1923,1431.00,73.40,51.80,46.71,0.00,0.00,0.00,30.15,M,10.00,M,CLR,M,M,M,M,M,M,M,M,M,M,M,M,M,M,73.40,KCXP 040610Z AUTO 00000KT 10SM CLR 23/11 A3015 RMK AO2,M
TMT,2022-08-04 06:15,-117.1971,39.4643,1749.34,M,M,M,160.00,10.00,0.00,30.24,M,10.00,M,SCT,M,M,M,11000.00,M,M,M,M,M,M,M,M,M,M,M,KTMT 040615Z AUTO 16010KT 10SM SCT110 A3024 RMK AO2,M
BVU,2022-08-04 06:15,-114.8611,35.9475,671.00,89.60,62.60,40.69,320.00,7.00,0.00,29.86,M,M,M,M,M,M,M,M,M,M,M,M,M,M,M,M,M,M,90.32,KBVU 040615Z AUTO 32007KT 32/17 A2986 RMK AO2 PWINO TSNO,M
BAM,2022-08-04 06:15,-116.8743,40.5990,1382.36,78.80,48.20,34.13,240.00,12.00,0.00,30.07,M,10.00,M,CLR,M,M,M,M,M,M,M,M,M,M,M,M,M,M,78.80,KBAM 040615Z AUTO 24012KT 10SM CLR 26/09 A3007 RMK AO1,M
05U,2022-08-04 06:15,-116.0051,39.6042,1811.23,M,M,M,M,M,0.00,M,M,M,M,M,M,M,M,M,M,M,M,M,M,M,M,M,M,M,M,K05U 040615Z AUTO RMK A01 PNO,M
HTH,2022-08-04 06:15,-118.6315,38.5448,1282.89,75.20,53.60,46.98,160.00,15.00,0.00,30.10,M,10.00,23.00,SCT,M,M,M,12000.00,M,M,M,M,M,M,M,M,M,M,75.20,KHTH 040615Z AUTO 16015G23KT 10SM SCT120 24/12 A3010 RMK A01,M
MEV,2022-08-04 06:15,-119.7500,38.9963,1441.42,69.80,50.00,49.37,M,4.00,0.00,30.13,M,10.00,M,FEW,M,M,M,4500.00,M,M,M,M,M,M,M,M,M,M,69.80,KMEV 040615Z AUTO VRB04KT 10SM FEW045 21/10 A3013 RMK AO2,M
RTS,2022-08-04 06:15,-119.8764,39.6682,1539.00,69.80,57.20,64.26,0.00,0.00,0.00,30.16,M,10.00,M,CLR,M,M,M,M,M,M,M,M,M,M,M,M,M,M,69.80,KRTS 040615Z AUTO 00000KT 10SM CLR 21/14 A3016 RMK AO2,M
CXP,2022-08-04 06:30,-119.7326,39.1923,1431.00,73.40,51.80,46.71,0.00,0.00,0.00,30.14,M,10.00,M,CLR,M,M,M,M,M,M,M,M,M,M,M,M,M,M,73.40,KCXP 040630Z AUTO 00000KT 10SM CLR 23/11 A3014 RMK AO2,M
LOL,2022-08-04 06:34,-118.5701,40.0684,1192.43,81.00,52.00,36.58,330.00,14.00,T,30.02,M,10.00,20.00,FEW,SCT,BKN,M,6500.00,8000.00,9000.00,M,M,M,M,M,M,M,M,80.34,KLOL 040634Z AUTO 33014G20KT 10SM FEW065 SCT080 BKN090 27/11 A3002 RMK AO2 WSHFT 0614 RAE02 P0000 T02720111,M
BAM,2022-08-04 06:35,-116.8743,40.5990,1382.36,80.60,50.00,34.41,240.00,15.00,0.00,30.07,M,10.00,21.00,CLR,M,M,M,M,M,M,M,M,M,M,M,M,M,M,79.88,KBAM 040635Z AUTO 24015G21KT 10SM CLR 27/10 A3007 RMK AO1,M
MEV,2022-08-04 06:35,-119.7500,38.9963,1441.42,66.20,50.00,55.88,200.00,3.00,0.00,30.13,M,10.00,M,FEW,FEW,M,M,4300.00,4900.00,M,M,M,M,M,M,M,M,M,66.20,KMEV 040635Z AUTO 20003KT 10SM FEW043 FEW049 19/10 A3013 RMK AO2,M
05U,2022-08-04 06:35,-116.0051,39.6042,1811.23,M,M,M,M,M,0.00,M,M,M,M,M,M,M,M,M,M,M,M,M,M,M,M,M,M,M,M,K05U 040635Z AUTO RMK A01 PNO,M
BVU,2022-08-04 06:35,-114.8611,35.9475,671.00,89.60,60.80,38.18,320.00,6.00,0.00,29.85,M,M,M,M,M,M,M,M,M,M,M,M,M,M,M,M,M,M,89.54,KBVU 040635Z AUTO 32006KT 32/16 A2985 RMK AO2 PWINO TSNO,M
HTH,2022-08-04 06:35,-118.6315,38.5448,1282.89,77.00,50.00,38.74,160.00,11.00,0.00,30.10,M,10.00,M,SCT,M,M,M,12000.00,M,M,M,M,M,M,M,M,M,M,77.00,KHTH 040635Z AUTO 16011KT 10SM SCT120 25/10 A3010 RMK A01,M
TMT,2022-08-04 06:35,-117.1971,39.4643,1749.34,M,M,M,160.00,10.00,0.00,30.22,M,10.00,M,SCT,M,M,M,12000.00,M,M,M,M,M,M,M,M,M,M,M,KTMT 040635Z AUTO 16010KT 10SM SCT120 A3022 RMK AO2,M
RTS,2022-08-04 06:35,-119.8764,39.6682,1539.00,66.20,55.40,68.15,330.00,5.00,0.00,30.15,M,10.00,M,CLR,M,M,M,M,M,M,M,M,M,M,M,M,M,M,66.20,KRTS 040635Z AUTO 33005KT 10SM CLR 19/13 A3015 RMK AO2,M
CXP,2022-08-04 06:50,-119.7326,39.1923,1431.00,71.60,51.80,49.64,0.00,0.00,0.00,30.13,M,10.00,M,CLR,M,M,M,M,M,M,M,M,M,M,M,M,M,M,71.60,KCXP 040650Z AUTO 00000KT 10SM CLR 22/11 A3013 RMK AO2,M
DRA,2022-08-04 06:53,-116.0278,36.6206,1009.00,87.00,49.00,26.79,50.00,7.00,0.00,29.95,1008.00,10.00,M,CLR,M,M,M,M,M,M,M,M,M,M,M,M,M,M,84.37,KDRA 040653Z AUTO 05007KT 10SM CLR 31/09 A2995 RMK AO2 SLP080 T03060094,M
LOL,2022-08-04 06:53,-118.5701,40.0684,1192.43,82.00,51.00,34.25,340.00,8.00,T,30.02,1011.30,10.00,M,FEW,FEW,M,M,6500.00,8000.00,M,M,M,M,M,M,M,M,M,80.85,KLOL 040653Z AUTO 34008KT 10SM FEW065 FEW080 28/11 A3002 RMK AO2 WSHFT 0614 RAE02 SLP113 P0000 T02780106,M
VGT,2022-08-04 06:53,-115.1933,36.2111,667.00,95.00,56.00,27.06,0.00,0.00,0.00,29.84,1008.60,10.00,M,CLR,M,M,M,M,M,M,M,M,M,M,M,M,M,M,93.38,KVGT 040653Z AUTO 00000KT 10SM CLR 35/13 A2984 RMK AO2 SLP086 T03500133,M
ELY,2022-08-04 06:53,-114.8453,39.2950,1909.00,63.00,47.00,55.64,200.00,4.00,0.00,30.23,1012.40,10.00,M,CLR,M,M,M,M,M,M,M,M,M,M,M,M,M,M,63.00,KELY 040653Z AUTO 20004KT 10SM CLR 17/08 A3023 RMK AO2 SLP124 T01720083 403170106,M
05U,2022-08-04 06:55,-116.0051,39.6042,1811.23,M,M,M,M,M,0.00,M,M,M,M,M,M,M,M,M,M,M,M,M,M,M,M,M,M,M,M,K05U 040655Z AUTO RMK A01 PNO,M
BAM,2022-08-04 06:55,-116.8743,40.5990,1382.36,80.60,50.00,34.41,230.00,17.00,0.00,30.08,M,10.00,24.00,CLR,M,M,M,M,M,M,M,M,M,M,M,M,M,M,79.88,KBAM 040655Z AUTO 23017G24KT 10SM CLR 27/10 A3008 RMK AO1,M
TMT,2022-08-04 06:55,-117.1971,39.4643,1749.34,M,M,M,160.00,10.00,0.00,30.21,M,10.00,M,CLR,M,M,M,M,M,M,M,M,M,M,M,M,M,M,M,KTMT 040655Z AUTO 16010KT 10SM CLR A3021 RMK AO2,M
BVU,2022-08-04 06:55,-114.8611,35.9475,671.00,89.60,60.80,38.18,270.00,4.00,0.00,29.85,M,M,M,M,M,M,M,M,M,M,M,M,M,M,M,M,M,M,89.54,KBVU 040655Z AUTO 27004KT 32/16 A2985 RMK AO2 PWINO TSNO,M
RTS,2022-08-04 06:55,-119.8764,39.6682,1539.00,64.40,57.20,77.45,350.00,3.00,0.00,30.15,M,10.00,M,CLR,M,M,M,M,M,M,M,M,M,M,M,M,M,M,64.40,KRTS 040655Z AUTO 35003KT 10SM CLR 18/14 A3015 RMK AO2,M
RNO,2022-08-04 06:55,-119.7711,39.4839,1341.00,73.00,60.00,63.96,0.00,0.00,0.00,30.09,1012.70,10.00,M,FEW,M,M,M,15000.00,M,M,M,M,M,M,M,M,M,M,73.00,KRNO 040655Z 00000KT 10SM FEW150 23/16 A3009 RMK AO2 SLP127 T02280156 $,M
MEV,2022-08-04 06:55,-119.7500,38.9963,1441.42,66.20,50.00,55.88,0.00,0.00,0.00,30.12,M,10.00,M,FEW,M,M,M,4100.00,M,M,M,M,M,M,M,M,M,M,66.20,KMEV 040655Z AUTO 00000KT 10SM FEW041 19/10 A3012 RMK AO2,M
HTH,2022-08-04 06:55,-118.6315,38.5448,1282.89,75.20,53.60,46.98,130.00,8.00,0.00,30.11,M,10.00,M,SCT,M,M,M,12000.00,M,M,M,M,M,M,M,M,M,M,75.20,KHTH 040655Z AUTO 13008KT 10SM SCT120 24/12 A3011 RMK A01,M
TPH,2022-08-04 06:56,-117.0904,38.0505,1654.00,70.00,58.00,65.45,360.00,14.00,0.00,30.20,1013.80,10.00,M,SCT,M,M,M,11000.00,M,M,M,M,M,M,M,M,M,M,70.00,KTPH 040656Z AUTO 36014KT 10SM SCT110 21/14 A3020 RMK AO2 SLP138 T02110144,M
WMC,2022-08-04 06:56,-117.8072,40.9019,1315.00,81.00,50.00,33.97,140.00,15.00,0.00,30.03,1010.60,2.00,22.00,SCT,BKN,M,M,1000.00,11000.00,M,M,HZ,M,M,M,M,M,M,80.12,KWMC 040656Z AUTO 14015G22KT 2SM HZ SCT010 BKN110 27/10 A3003 RMK AO2 SLP106 T02720100,M
LSV,2022-08-04 06:56,-115.0343,36.2362,570.00,93.20,55.40,28.10,0.00,0.00,0.00,29.80,1006.00,10.00,M,CLR,M,M,M,M,M,M,M,M,M,M,M,M,M,M,91.35,KLSV 040656Z 00000KT 10SM CLR 34/13 A2980 RMK SLP060 WND DATA ESTMD ALSTG/SLP ESTMD $,M
EKO,2022-08-04 06:56,-115.7860,40.8242,1367.00,71.00,42.00,35.02,0.00,0.00,0.00,30.10,1012.80,10.00,M,CLR,M,M,M,M,M,M,M,M,M,M,M,M,M,M,71.10,KEKO 040656Z AUTO 00000KT 10SM CLR 22/06 A3010 RMK AO2 SLP128 T02170056,M
NFL,2022-08-04 06:56,-118.7010,39.4166,1199.00,80.00,49.00,33.58,260.00,8.00,0.00,30.06,1014.60,10.00,M,FEW,SCT,SCT,M,8000.00,12000.00,25000.00,M,M,M,M,M,M,M,M,79.50,KNFL 040656Z 26008KT 10SM FEW080 SCT120 SCT250 27/09 A3006 RMK AO2 SLP146 T02670094,M
HND,2022-08-04 06:56,-115.1344,35.9729,742.79,91.00,58.00,32.94,210.00,8.00,0.00,29.89,1010.10,10.00,M,CLR,M,M,M,M,M,M,M,M,M,M,M,M,M,M,89.88,KHND 040656Z AUTO 21008KT 10SM CLR 33/14 A2989 RMK AO2 SLP101 T03280144 404060283,M
LAS,2022-08-04 06:56,-115.1634,36.0719,663.00,94.00,56.00,28.00,200.00,3.00,0.00,29.85,1007.40,10.00,M,SCT,M,M,M,25000.00,M,M,M,M,M,M,M,M,M,M,92.22,KLAS 040656Z 20003KT 10SM SCT250 34/13 A2985 RMK AO2 SLP074 T03440133 $,M
INS,2022-08-04 06:58,-115.6733,36.5872,955.00,86.20,56.00,35.93,0.00,0.00,0.00,29.94,1008.20,10.00,M,CLR,M,M,M,M,M,M,M,M,M,M,M,M,M,M,84.87,KINS 040658Z AUTO 00000KT 10SM CLR 30/13 A2994 RMK AO2 SLP082 T03010134,M
WMC,2022-08-04 07:00,-117.8072,40.9019,1315.00,82.00,51.00,34.25,150.00,16.00,0.00,30.03,M,1.50,22.00,BKN,BKN,M,M,1000.00,11000.00,M,M,HZ,M,M,M,M,M,M,80.85,KWMC 040700Z AUTO 15016G22KT 1 1/2SM HZ BKN010 BKN110 28/11 A3003 RMK AO2 T02780106,M
CXP,2022-08-04 07:10,-119.7326,39.1923,1431.00,71.60,51.80,49.64,0.00,0.00,0.00,30.13,M,10.00,M,CLR,M,M,M,M,M,M,M,M,M,M,M,M,M,M,71.60,KCXP 040710Z AUTO 00000KT 10SM CLR 22/11 A3013 RMK AO2,M
RTS,2022-08-04 07:15,-119.8764,39.6682,1539.00,66.20,57.20,72.74,0.00,0.00,0.00,30.15,M,10.00,M,CLR,M,M,M,M,M,M,M,M,M,M,M,M,M,M,66.20,KRTS 040715Z AUTO 00000KT 10SM CLR 19/14 A3015 RMK AO2,M
BAM,2022-08-04 07:15,-116.8743,40.5990,1382.36,80.60,48.20,32.18,220.00,16.00,0.00,30.08,M,10.00,23.00,SCT,M,M,M,11000.00,M,M,M,M,M,M,M,M,M,M,79.71,KBAM 040715Z AUTO 22016G23KT 10SM SCT110 27/09 A3008 RMK AO1,M
HTH,2022-08-04 07:15,-118.6315,38.5448,1282.89,73.40,55.40,53.29,160.00,7.00,0.00,30.10,M,10.00,M,SCT,M,M,M,12000.00,M,M,M,M,M,M,M,M,M,M,73.40,KHTH 040715Z AUTO 16007KT 10SM SCT120 23/13 A3010 RMK A01,M
TMT,2022-08-04 07:15,-117.1971,39.4643,1749.34,M,M,M,160.00,5.00,0.00,30.21,M,10.00,M,CLR,M,M,M,M,M,M,M,M,M,M,M,M,M,M,M,KTMT 040715Z AUTO 16005KT 10SM CLR A3021 RMK AO2,M
WMC,2022-08-04 07:15,-117.8072,40.9019,1315.00,82.00,51.00,34.25,180.00,11.00,0.00,30.05,M,1.75,20.00,SCT,OVC,M,M,1400.00,11000.00,M,M,HZ,M,M,M,M,M,M,80.85,KWMC 040715Z AUTO 18011G20KT 1 3/4SM HZ SCT014 OVC110 28/11 A3005 RMK AO2 T02780106,M
BVU,2022-08-04 07:15,-114.8611,35.9475,671.00,91.40,60.80,36.08,230.00,4.00,0.00,29.86,M,M,M,M,M,M,M,M,M,M,M,M,M,M,M,M,M,M,91.40,KBVU 040715Z AUTO 23004KT 33/16 A2986 RMK AO2 PWINO TSNO,M
05U,2022-08-04 07:15,-116.0051,39.6042,1811.23,M,M,M,M,M,0.00,M,M,M,M,M,M,M,M,M,M,M,M,M,M,M,M,M,M,M,M,K05U 040715Z AUTO RMK A01 PNO,M
MEV,2022-08-04 07:15,-119.7500,38.9963,1441.42,60.80,48.20,63.15,130.00,7.00,0.00,30.12,M,10.00,M,CLR,M,M,M,M,M,M,M,M,M,M,M,M,M,M,60.80,KMEV 040715Z AUTO 13007KT 10SM CLR 16/09 A3012 RMK AO2,M
WMC,2022-08-04 07:17,-117.8072,40.9019,1315.00,82.00,51.00,34.25,190.00,12.00,0.00,30.05,M,2.00,20.00,BKN,OVC,M,M,1600.00,11000.00,M,M,HZ,M,M,M,M,M,M,80.85,KWMC 040717Z AUTO 19012G20KT 2SM HZ BKN016 OVC110 28/11 A3005 RMK AO2 T02780106,M
LOL,2022-08-04 07:18,-118.5701,40.0684,1192.43,78.00,52.00,40.23,150.00,10.00,0.00,30.03,M,10.00,M,CLR,M,M,M,M,M,M,M,M,M,M,M,M,M,M,78.10,KLOL 040718Z AUTO 15010KT 10SM CLR 26/11 A3003 RMK AO2 WSHFT 0658 T02560111,M
CXP,2022-08-04 07:30,-119.7326,39.1923,1431.00,71.60,51.80,49.64,0.00,0.00,0.00,30.13,M,10.00,M,CLR,M,M,M,M,M,M,M,M,M,M,M,M,M,M,71.60,KCXP 040730Z AUTO 00000KT 10SM CLR 22/11 A3013 RMK AO2,M
WMC,2022-08-04 07:34,-117.8072,40.9019,1315.00,82.00,51.00,34.25,240.00,7.00,T,30.04,M,2.50,M,FEW,OVC,M,M,3000.00,11000.00,M,M,-RA,M,M,M,M,M,M,80.85,KWMC 040734Z AUTO 24007KT 2 1/2SM -RA FEW030 OVC110 28/11 A3004 RMK AO2 RAB21 P0000 T02780106,M
MEV,2022-08-04 07:35,-119.7500,38.9963,1441.42,62.60,48.20,59.26,130.00,5.00,0.00,30.12,M,10.00,M,CLR,M,M,M,M,M,M,M,M,M,M,M,M,M,M,62.60,KMEV 040735Z AUTO 13005KT 10SM CLR 17/09 A3012 RMK AO2,M
RTS,2022-08-04 07:35,-119.8764,39.6682,1539.00,68.00,53.60,59.97,320.00,3.00,0.00,30.15,M,10.00,M,CLR,M,M,M,M,M,M,M,M,M,M,M,M,M,M,68.00,KRTS 040735Z AUTO 32003KT 10SM CLR 20/12 A3015 RMK AO2,M
05U,2022-08-04 07:35,-116.0051,39.6042,1811.23,M,M,M,M,M,0.00,M,M,M,M,M,M,M,M,M,M,M,M,M,M,M,M,M,M,M,M,K05U 040735Z AUTO RMK A01 PNO,M
BAM,2022-08-04 07:35,-116.8743,40.5990,1382.36,80.60,48.20,32.18,220.00,13.00,0.00,30.08,M,10.00,M,CLR,M,M,M,M,M,M,M,M,M,M,M,M,M,M,79.71,KBAM 040735Z AUTO 22013KT 10SM CLR 27/09 A3008 RMK AO1,M
HTH,2022-08-04 07:35,-118.6315,38.5448,1282.89,75.20,53.60,46.98,210.00,5.00,0.00,30.09,M,10.00,M,FEW,M,M,M,12000.00,M,M,M,M,M,M,M,M,M,M,75.20,KHTH 040735Z AUTO 21005KT 10SM FEW120 24/12 A3009 RMK A01,M
BVU,2022-08-04 07:35,-114.8611,35.9475,671.00,89.60,60.80,38.18,0.00,0.00,0.00,29.86,M,M,M,M,M,M,M,M,M,M,M,M,M,M,M,M,M,M,89.54,KBVU 040735Z AUTO 00000KT 32/16 A2986 RMK AO2 PWINO TSNO,M
TMT,2022-08-04 07:35,-117.1971,39.4643,1749.34,M,M,M,250.00,5.00,0.00,30.21,M,10.00,M,CLR,M,M,M,M,M,M,M,M,M,M,M,M,M,M,M,KTMT 040735Z AUTO 25005KT 10SM CLR A3021 RMK AO2,M
WMC,2022-08-04 07:45,-117.8072,40.9019,1315.00,86.00,48.00,26.82,220.00,7.00,T,30.05,M,4.00,16.00,FEW,BKN,M,M,3200.00,11000.00,M,M,HZ,M,M,M,M,M,M,83.38,KWMC 040745Z AUTO 22007G16KT 200V260 4SM HZ FEW032 BKN110 30/09 A3005 RMK AO2 RAB21E43 P0000 T03000089,M
CXP,2022-08-04 07:50,-119.7326,39.1923,1431.00,71.60,50.00,46.43,260.00,3.00,0.00,30.13,M,10.00,M,CLR,M,M,M,M,M,M,M,M,M,M,M,M,M,M,71.60,KCXP 040750Z AUTO 26003KT 10SM CLR 22/10 A3013 RMK AO2,M
LOL,2022-08-04 07:53,-118.5701,40.0684,1192.43,76.00,52.00,43.28,200.00,9.00,0.00,30.03,1011.90,10.00,M,CLR,M,M,M,M,M,M,M,M,M,M,M,M,M,M,75.90,KLOL 040753Z AUTO 20009KT 10SM CLR 24/11 A3003 RMK AO2 WSHFT 0658 SLP119 T02440111 403670167,M
VGT,2022-08-04 07:53,-115.1933,36.2111,667.00,94.00,55.00,27.10,360.00,4.00,0.00,29.84,1008.60,10.00,M,CLR,M,M,M,M,M,M,M,M,M,M,M,M,M,M,91.95,KVGT 040753Z AUTO 36004KT 10SM CLR 34/13 A2984 RMK AO2 SLP086 T03440128 404170306,M
ELY,2022-08-04 07:53,-114.8453,39.2950,1909.00,61.00,48.00,62.23,190.00,5.00,0.00,30.23,1012.50,10.00,M,CLR,M,M,M,M,M,M,M,M,M,M,M,M,M,M,61.00,KELY 040753Z AUTO 19005KT 10SM CLR 16/09 A3023 RMK AO2 SLP125 T01610089,M
DRA,2022-08-04 07:53,-116.0278,36.6206,1009.00,84.00,50.00,30.82,0.00,0.00,0.00,29.95,1008.10,10.00,M,CLR,M,M,M,M,M,M,M,M,M,M,M,M,M,M,82.09,KDRA 040753Z AUTO 00000KT 10SM CLR 29/10 A2995 RMK AO2 SLP081 T02890100 403940233,M
RNO,2022-08-04 07:55,-119.7711,39.4839,1341.00,73.00,60.00,63.96,0.00,0.00,0.00,30.09,1012.40,10.00,M,FEW,M,M,M,15000.00,M,M,M,M,M,M,M,M,M,M,73.00,KRNO 040755Z 00000KT 10SM FEW150 23/16 A3009 RMK AO2 SLP124 T02280156 403610194 $,M
05U,2022-08-04 07:55,-116.0051,39.6042,1811.23,M,M,M,M,M,0.00,M,M,M,M,M,M,M,M,M,M,M,M,M,M,M,M,M,M,M,M,K05U 040755Z AUTO RMK A01 PNO,M
RTS,2022-08-04 07:55,-119.8764,39.6682,1539.00,64.40,57.20,77.45,320.00,3.00,0.00,30.15,M,10.00,M,CLR,M,M,M,M,M,M,M,M,M,M,M,M,M,M,64.40,KRTS 040755Z AUTO 32003KT 10SM CLR 18/14 A3015 RMK AO2,M
HTH,2022-08-04 07:55,-118.6315,38.5448,1282.89,73.40,53.60,49.90,130.00,3.00,0.00,30.09,M,10.00,M,CLR,M,M,M,M,M,M,M,M,M,M,M,M,M,M,73.40,KHTH 040755Z AUTO 13003KT 10SM CLR 23/12 A3009 RMK A01,M
BVU,2022-08-04 07:55,-114.8611,35.9475,671.00,86.00,64.40,48.58,0.00,0.00,0.00,29.85,M,M,M,M,M,M,M,M,M,M,M,M,M,M,M,M,M,M,87.49,KBVU 040755Z AUTO 00000KT 30/18 A2985 RMK AO2 PWINO TSNO,M
BAM,2022-08-04 07:55,-116.8743,40.5990,1382.36,80.60,48.20,32.18,210.00,14.00,0.00,30.08,M,10.00,21.00,CLR,M,M,M,M,M,M,M,M,M,M,M,M,M,M,79.71,KBAM 040755Z AUTO 21014G21KT 10SM CLR 27/09 A3008 RMK AO1,M
MEV,2022-08-04 07:55,-119.7500,38.9963,1441.42,62.60,48.20,59.26,110.00,4.00,0.00,30.12,M,10.00,M,CLR,M,M,M,M,M,M,M,M,M,M,M,M,M,M,62.60,KMEV 040755Z AUTO 11004KT 10SM CLR 17/09 A3012 RMK AO2,M
TMT,2022-08-04 07:55,-117.1971,39.4643,1749.34,M,M,M,280.00,7.00,0.00,30.21,M,10.00,M,CLR,M,M,M,M,M,M,M,M,M,M,M,M,M,M,M,KTMT 040755Z AUTO 28007KT 10SM CLR A3021 RMK AO2,M
EKO,2022-08-04 07:56,-115.7860,40.8242,1367.00,68.00,41.00,37.32,170.00,3.00,0.00,30.12,1013.60,10.00,M,FEW,M,M,M,11000.00,M,M,M,M,M,M,M,M,M,M,68.00,KEKO 040756Z AUTO 17003KT 10SM FEW110 20/05 A3012 RMK AO2 SLP136 T02000050 403390139,M
WMC,2022-08-04 07:56,-117.8072,40.9019,1315.00,84.00,49.00,29.58,300.00,7.00,T,30.06,1011.30,3.00,M,BKN,M,M,M,11000.00,M,M,M,HZ,M,M,M,M,M,M,81.97,KWMC 040756Z AUTO 30007KT 3SM HZ BKN110 29/09 A3006 RMK AO2 RAB21E43 SLP113 P0000 T02890094 403610156,M
TPH,2022-08-04 07:56,-117.0904,38.0505,1654.00,70.00,56.00,60.89,360.00,18.00,0.00,30.18,1012.80,10.00,M,CLR,M,M,M,M,M,M,M,M,M,M,M,M,M,M,70.00,KTPH 040756Z AUTO 36018KT 10SM CLR 21/13 A3018 RMK AO2 SLP128 T02110133 403390183,M
LAS,2022-08-04 07:56,-115.1634,36.0719,663.00,93.00,56.00,28.79,200.00,3.00,0.00,29.85,1007.40,10.00,M,BKN,BKN,M,M,18000.00,25000.00,M,M,M,M,M,M,M,M,M,91.29,KLAS 040756Z 20003KT 10SM BKN180 BKN250 34/13 A2985 RMK AO2 SLP074 T03390133 404110294 $,M
HND,2022-08-04 07:56,-115.1344,35.9729,742.79,89.00,59.00,36.37,220.00,6.00,0.00,29.89,1010.20,10.00,M,CLR,M,M,M,M,M,M,M,M,M,M,M,M,M,M,88.37,KHND 040756Z AUTO 22006KT 10SM CLR 32/15 A2989 RMK AO2 SLP102 T03170150,M
NFL,2022-08-04 07:56,-118.7010,39.4166,1199.00,76.00,51.00,41.86,240.00,7.00,0.00,30.05,1014.40,10.00,M,CLR,M,M,M,M,M,M,M,M,M,M,M,M,M,M,75.90,KNFL 040756Z AUTO 24007KT 10SM CLR 24/11 A3005 RMK AO2 SLP144 T02440106 403670183,M
LSV,2022-08-04 07:58,-115.0343,36.2362,570.00,93.20,55.40,28.10,350.00,3.00,0.00,29.82,1006.60,10.00,M,CLR,M,M,M,M,M,M,M,M,M,M,M,M,M,M,91.35,KLSV 040758Z 35003KT 10SM CLR 34/13 A2982 RMK SLP066 WND DATA ESTMD ALSTG/SLP ESTMD $,M
INS,2022-08-04 07:58,-115.6733,36.5872,955.00,82.40,57.60,42.86,0.00,0.00,0.00,29.93,1007.90,10.00,M,CLR,M,M,M,M,M,M,M,M,M,M,M,M,M,M,82.16,KINS 040758Z AUTO 00000KT 10SM CLR 28/14 A2993 RMK AO2 SLP079 T02800142 403760232,M
CXP,2022-08-04 08:10,-119.7326,39.1923,1431.00,69.80,50.00,49.37,0.00,0.00,0.00,30.13,M,10.00,M,CLR,M,M,M,M,M,M,M,M,M,M,M,M,M,M,69.80,KCXP 040810Z AUTO 00000KT 10SM CLR 21/10 A3013 RMK AO2,M
BAM,2022-08-04 08:15,-116.8743,40.5990,1382.36,78.80,48.20,34.13,220.00,11.00,0.00,30.07,M,10.00,18.00,CLR,M,M,M,M,M,M,M,M,M,M,M,M,M,M,78.80,KBAM 040815Z AUTO 22011G18KT 10SM CLR 26/09 A3007 RMK AO1,M
05U,2022-08-04 08:15,-116.0051,39.6042,1811.23,M,M,M,M,M,0.00,M,M,M,M,M,M,M,M,M,M,M,M,M,M,M,M,M,M,M,M,K05U 040815Z AUTO RMK A01 PNO,M
TMT,2022-08-04 08:15,-117.1971,39.4643,1749.34,M,M,M,300.00,5.00,0.00,30.20,M,10.00,M,CLR,M,M,M,M,M,M,M,M,M,M,M,M,M,M,M,KTMT 040815Z AUTO 30005KT 10SM CLR A3020 RMK AO2,M
HTH,2022-08-04 08:15,-118.6315,38.5448,1282.89,71.60,53.60,53.03,170.00,6.00,0.00,30.09,M,10.00,M,CLR,M,M,M,M,M,M,M,M,M,M,M,M,M,M,71.60,KHTH 040815Z AUTO 17006KT 10SM CLR 22/12 A3009 RMK A01,M
BVU,2022-08-04 08:15,-114.8611,35.9475,671.00,87.80,64.40,45.88,0.00,0.00,0.00,29.86,M,M,M,M,M,M,M,M,M,M,M,M,M,M,M,M,M,M,89.33,KBVU 040815Z AUTO 00000KT 31/18 A2986 RMK AO2 PWINO TSNO,M
RTS,2022-08-04 08:15,-119.8764,39.6682,1539.00,60.80,53.60,77.14,350.00,7.00,0.00,30.15,M,10.00,M,CLR,M,M,M,M,M,M,M,M,M,M,M,M,M,M,60.80,KRTS 040815Z AUTO 35007KT 10SM CLR 16/12 A3015 RMK AO2,M
MEV,2022-08-04 08:15,-119.7500,38.9963,1441.42,60.80,48.20,63.15,0.00,0.00,0.00,30.12,M,10.00,M,FEW,M,M,M,4700.00,M,M,M,M,M,M,M,M,M,M,60.80,KMEV 040815Z AUTO 00000KT 10SM FEW047 16/09 A3012 RMK AO2,M
CXP,2022-08-04 08:30,-119.7326,39.1923,1431.00,68.00,50.00,52.51,0.00,0.00,0.00,30.14,M,10.00,M,CLR,M,M,M,M,M,M,M,M,M,M,M,M,M,M,68.00,KCXP 040830Z AUTO 00000KT 10SM CLR 20/10 A3014 RMK AO2,M
BVU,2022-08-04 08:35,-114.8611,35.9475,671.00,86.00,64.40,48.58,0.00,0.00,0.00,29.86,M,M,M,M,M,M,M,M,M,M,M,M,M,M,M,M,M,M,87.49,KBVU 040835Z AUTO 00000KT 30/18 A2986 RMK AO2 PWINO TSNO,M
RTS,2022-08-04 08:35,-119.8764,39.6682,1539.00,60.80,53.60,77.14,360.00,7.00,0.00,30.15,M,10.00,M,CLR,M,M,M,M,M,M,M,M,M,M,M,M,M,M,60.80,KRTS 040835Z AUTO 36007KT 10SM CLR 16/12 A3015 RMK AO2,M
MEV,2022-08-04 08:35,-119.7500,38.9963,1441.42,59.00,46.40,62.92,140.00,5.00,0.00,30.12,M,10.00,M,CLR,M,M,M,M,M,M,M,M,M,M,M,M,M,M,59.00,KMEV 040835Z AUTO 14005KT 10SM CLR 15/08 A3012 RMK AO2,M
BAM,2022-08-04 08:35,-116.8743,40.5990,1382.36,78.80,48.20,34.13,230.00,7.00,0.00,30.08,M,10.00,M,CLR,M,M,M,M,M,M,M,M,M,M,M,M,M,M,78.80,KBAM 040835Z AUTO 23007KT 10SM CLR 26/09 A3008 RMK AO1,M
HTH,2022-08-04 08:35,-118.6315,38.5448,1282.89,71.60,53.60,53.03,150.00,8.00,0.00,30.08,M,10.00,M,CLR,M,M,M,M,M,M,M,M,M,M,M,M,M,M,71.60,KHTH 040835Z AUTO 15008KT 10SM CLR 22/12 A3008 RMK A01,M
TMT,2022-08-04 08:35,-117.1971,39.4643,1749.34,M,M,M,360.00,4.00,0.00,30.19,M,10.00,M,CLR,M,M,M,M,M,M,M,M,M,M,M,M,M,M,M,KTMT 040835Z AUTO 36004KT 10SM CLR A3019 RMK AO2,M
05U,2022-08-04 08:35,-116.0051,39.6042,1811.23,M,M,M,M,M,0.00,M,M,M,M,M,M,M,M,M,M,M,M,M,M,M,M,M,M,M,M,K05U 040835Z AUTO RMK A01 PNO,M
BAM,2022-08-04 08:50,-116.8743,40.5990,1382.36,77.00,50.00,38.74,210.00,5.00,0.00,30.08,M,10.00,M,CLR,M,M,M,M,M,M,M,M,M,M,M,M,M,M,77.00,KBAM 040850Z AUTO 21005KT 10SM CLR 25/10 A3008 RMK AO1,M
TMT,2022-08-04 08:50,-117.1971,39.4643,1749.34,M,M,M,100.00,7.00,0.00,30.20,M,10.00,M,CLR,M,M,M,M,M,M,M,M,M,M,M,M,M,M,M,KTMT 040850Z AUTO 10007KT 10SM CLR A3020 RMK AO2,M
CXP,2022-08-04 08:50,-119.7326,39.1923,1431.00,68.00,51.80,56.13,0.00,0.00,0.00,30.14,M,10.00,M,CLR,M,M,M,M,M,M,M,M,M,M,M,M,M,M,68.00,KCXP 040850Z AUTO 00000KT 10SM CLR 20/11 A3014 RMK AO2,M
LOL,2022-08-04 08:53,-118.5701,40.0684,1192.43,71.00,51.00,49.20,130.00,6.00,0.00,30.04,1012.30,10.00,M,CLR,M,M,M,M,M,M,M,M,M,M,M,M,M,M,71.10,KLOL 040853Z AUTO 13006KT 10SM CLR 22/11 A3004 RMK AO2 SLP123 60000 T02170106 53002,M
DRA,2022-08-04 08:53,-116.0278,36.6206,1009.00,85.00,51.00,31.19,50.00,4.00,0.00,29.95,1008.10,10.00,M,CLR,M,M,M,M,M,M,M,M,M,M,M,M,M,M,82.90,KDRA 040853Z AUTO 05004KT 10SM CLR 29/11 A2995 RMK AO2 SLP081 T02940106 53002,M
VGT,2022-08-04 08:53,-115.1933,36.2111,667.00,92.00,55.00,28.84,310.00,4.00,0.00,29.84,1008.70,10.00,M,CLR,M,M,M,M,M,M,M,M,M,M,M,M,M,M,89.92,KVGT 040853Z AUTO 31004KT 10SM CLR 33/13 A2984 RMK AO2 SLP087 T03330128 55000,M
ELY,2022-08-04 08:53,-114.8453,39.2950,1909.00,59.00,46.00,61.98,270.00,4.00,0.00,30.23,1012.80,10.00,M,CLR,M,M,M,M,M,M,M,M,M,M,M,M,M,M,59.00,KELY 040853Z AUTO 27004KT 10SM CLR 15/08 A3023 RMK AO2 SLP128 T01500078 55004,M
BVU,2022-08-04 08:55,-114.8611,35.9475,671.00,86.00,60.80,42.80,310.00,3.00,0.00,29.86,M,M,M,M,M,M,M,M,M,M,M,M,M,M,M,M,M,M,86.05,KBVU 040855Z AUTO 31003KT 30/16 A2986 RMK AO2 PWINO TSNO,M
05U,2022-08-04 08:55,-116.0051,39.6042,1811.23,M,M,M,M,M,0.00,M,M,M,M,M,M,M,M,M,M,M,M,M,M,M,M,M,M,M,M,K05U 040855Z AUTO RMK A01 PNO,M
RNO,2022-08-04 08:55,-119.7711,39.4839,1341.00,71.00,60.00,68.21,300.00,3.00,0.00,30.09,1012.60,10.00,M,FEW,M,M,M,15000.00,M,M,M,M,M,M,M,M,M,M,71.10,KRNO 040855Z 30003KT 10SM FEW150 22/16 A3009 RMK AO2 SLP126 T02170156 53000 $,M
HTH,2022-08-04 08:55,-118.6315,38.5448,1282.89,71.60,53.60,53.03,170.00,8.00,0.00,30.08,M,10.00,M,CLR,M,M,M,M,M,M,M,M,M,M,M,M,M,M,71.60,KHTH 040855Z AUTO 17008KT 10SM CLR 22/12 A3008 RMK A01,M
RTS,2022-08-04 08:55,-119.8764,39.6682,1539.00,64.40,53.60,67.95,340.00,5.00,0.00,30.15,M,10.00,M,CLR,M,M,M,M,M,M,M,M,M,M,M,M,M,M,64.40,KRTS 040855Z AUTO 34005KT 10SM CLR 18/12 A3015 RMK AO2,M
MEV,2022-08-04 08:55,-119.7500,38.9963,1441.42,57.20,48.20,71.83,200.00,4.00,0.00,30.13,M,10.00,M,CLR,M,M,M,M,M,M,M,M,M,M,M,M,M,M,57.20,KMEV 040855Z AUTO 20004KT 10SM CLR 14/09 A3013 RMK AO2,M
NFL,2022-08-04 08:56,-118.7010,39.4166,1199.00,73.00,51.00,46.13,250.00,7.00,0.00,30.04,1014.10,10.00,M,CLR,M,M,M,M,M,M,M,M,M,M,M,M,M,M,73.00,KNFL 040856Z AUTO 25007KT 10SM CLR 23/11 A3004 RMK AO2 SLP141 T02280106 58009,M
TPH,2022-08-04 08:56,-117.0904,38.0505,1654.00,69.00,55.00,60.78,360.00,12.00,0.00,30.17,1012.70,10.00,19.00,CLR,M,M,M,M,M,M,M,M,M,M,M,M,M,M,69.10,KTPH 040856Z AUTO 36012G19KT 10SM CLR 21/13 A3017 RMK AO2 SLP127 T02060128 58005,M
HND,2022-08-04 08:56,-115.1344,35.9729,742.79,89.00,59.00,36.37,210.00,12.00,0.00,29.90,1010.20,10.00,M,CLR,M,M,M,M,M,M,M,M,M,M,M,M,M,M,88.37,KHND 040856Z AUTO 21012KT 10SM CLR 32/15 A2990 RMK AO2 SLP102 T03170150 55001,M
WMC,2022-08-04 08:56,-117.8072,40.9019,1315.00,79.00,52.00,39.06,0.00,0.00,0.00,30.05,1011.10,5.00,M,BKN,BKN,M,M,2300.00,11000.00,M,M,HZ,M,M,M,M,M,M,79.00,KWMC 040856Z AUTO 00000KT 5SM HZ BKN023 BKN110 26/11 A3005 RMK AO2 SLP111 60000 T02610111 50008,M
LAS,2022-08-04 08:56,-115.1634,36.0719,663.00,92.00,56.00,29.80,220.00,4.00,0.00,29.85,1007.60,10.00,M,BKN,BKN,M,M,16000.00,25000.00,M,M,M,M,M,M,M,M,M,90.17,KLAS 040856Z 22004KT 10SM BKN160 BKN250 33/13 A2985 RMK AO2 SLP076 T03330133 53000 $,M
EKO,2022-08-04 08:56,-115.7860,40.8242,1367.00,72.00,41.00,32.56,120.00,3.00,0.00,30.13,1013.50,10.00,M,CLR,M,M,M,M,M,M,M,M,M,M,M,M,M,M,72.00,KEKO 040856Z AUTO 12003KT 10SM CLR 22/05 A3013 RMK AO2 SLP135 T02220050 53008,M
LSV,2022-08-04 08:56,-115.0343,36.2362,570.00,91.40,55.40,29.72,30.00,4.00,0.00,29.84,1007.30,10.00,M,FEW,SCT,M,M,18000.00,20000.00,M,M,M,M,M,M,M,M,M,89.53,KLSV 040856Z 03004KT 10SM FEW180 SCT200 33/13 A2984 RMK SLP073 5//// WND DATA ESTMD ALSTG/SLP ESTMD $,M
INS,2022-08-04 08:58,-115.6733,36.5872,955.00,82.00,57.20,42.94,50.00,3.00,0.00,29.94,1008.20,10.00,M,CLR,M,M,M,M,M,M,M,M,M,M,M,M,M,M,81.71,KINS 040858Z AUTO 05003KT 10SM CLR 28/14 A2994 RMK AO2 SLP082 T02770140 50002,M
CXP,2022-08-04 09:10,-119.7326,39.1923,1431.00,66.20,50.00,55.88,0.00,0.00,0.00,30.14,M,10.00,M,CLR,M,M,M,M,M,M,M,M,M,M,M,M,M,M,66.20,KCXP 040910Z AUTO 00000KT 10SM CLR 19/10 A3014 RMK AO2,M
BAM,2022-08-04 09:15,-116.8743,40.5990,1382.36,77.00,48.20,36.22,230.00,4.00,0.00,30.08,M,10.00,M,CLR,M,M,M,M,M,M,M,M,M,M,M,M,M,M,77.00,KBAM 040915Z AUTO 23004KT 10SM CLR 25/09 A3008 RMK AO1,M
BVU,2022-08-04 09:15,-114.8611,35.9475,671.00,87.80,60.80,40.41,300.00,5.00,0.00,29.85,M,M,M,M,M,M,M,M,M,M,M,M,M,M,M,M,M,M,87.75,KBVU 040915Z AUTO 30005KT 31/16 A2985 RMK AO2 PWINO TSNO,M
HTH,2022-08-04 09:15,-118.6315,38.5448,1282.89,71.60,53.60,53.03,180.00,6.00,0.00,30.08,M,10.00,M,CLR,M,M,M,M,M,M,M,M,M,M,M,M,M,M,71.60,KHTH 040915Z AUTO 18006KT 10SM CLR 22/12 A3008 RMK A01,M
05U,2022-08-04 09:15,-116.0051,39.6042,1811.23,M,M,M,M,M,0.00,M,M,M,M,M,M,M,M,M,M,M,M,M,M,M,M,M,M,M,M,K05U 040915Z AUTO RMK A01 PNO,M
TMT,2022-08-04 09:15,-117.1971,39.4643,1749.34,M,M,M,120.00,5.00,0.00,30.19,M,10.00,M,CLR,M,M,M,M,M,M,M,M,M,M,M,M,M,M,M,KTMT 040915Z AUTO 12005KT 10SM CLR A3019 RMK AO2,M
RTS,2022-08-04 09:15,-119.8764,39.6682,1539.00,64.40,57.20,77.45,80.00,3.00,0.00,30.15,M,10.00,M,CLR,M,M,M,M,M,M,M,M,M,M,M,M,M,M,64.40,KRTS 040915Z AUTO 08003KT 10SM CLR 18/14 A3015 RMK AO2,M
MEV,2022-08-04 09:15,-119.7500,38.9963,1441.42,57.20,48.20,71.83,0.00,0.00,0.00,30.13,M,10.00,M,CLR,M,M,M,M,M,M,M,M,M,M,M,M,M,M,57.20,KMEV 040915Z AUTO 00000KT 10SM CLR 14/09 A3013 RMK AO2,M
CXP,2022-08-04 09:30,-119.7326,39.1923,1431.00,66.20,51.80,59.74,0.00,0.00,0.00,30.15,M,10.00,M,CLR,M,M,M,M,M,M,M,M,M,M,M,M,M,M,66.20,KCXP 040930Z AUTO 00000KT 10SM CLR 19/11 A3015 RMK AO2,M
05U,2022-08-04 09:35,-116.0051,39.6042,1811.23,M,M,M,M,M,0.00,M,M,M,M,M,M,M,M,M,M,M,M,M,M,M,M,M,M,M,M,K05U 040935Z AUTO RMK A01 PNO,M
RTS,2022-08-04 09:35,-119.8764,39.6682,1539.00,64.40,57.20,77.45,130.00,3.00,0.00,30.15,M,10.00,M,CLR,M,M,M,M,M,M,M,M,M,M,M,M,M,M,64.40,KRTS 040935Z AUTO 13003KT 10SM CLR 18/14 A3015 RMK AO2,M
HTH,2022-08-04 09:35,-118.6315,38.5448,1282.89,71.60,53.60,53.03,140.00,7.00,0.00,30.08,M,10.00,M,CLR,M,M,M,M,M,M,M,M,M,M,M,M,M,M,71.60,KHTH 040935Z AUTO 14007KT 10SM CLR 22/12 A3008 RMK A01,M
BVU,2022-08-04 09:35,-114.8611,35.9475,671.00,87.80,60.80,40.41,310.00,5.00,0.00,29.85,M,M,M,M,M,M,M,M,M,M,M,M,M,M,M,M,M,M,87.75,KBVU 040935Z AUTO 31005KT 31/16 A2985 RMK AO2 PWINO TSNO,M
TMT,2022-08-04 09:35,-117.1971,39.4643,1749.34,M,M,M,140.00,5.00,0.00,30.19,M,10.00,M,CLR,M,M,M,M,M,M,M,M,M,M,M,M,M,M,M,KTMT 040935Z AUTO 14005KT 10SM CLR A3019 RMK AO2,M
BAM,2022-08-04 09:35,-116.8743,40.5990,1382.36,73.40,50.00,43.69,330.00,5.00,0.00,30.08,M,10.00,M,CLR,M,M,M,M,M,M,M,M,M,M,M,M,M,M,73.40,KBAM 040935Z AUTO 33005KT 10SM CLR 23/10 A3008 RMK AO1,M
MEV,2022-08-04 09:35,-119.7500,38.9963,1441.42,55.40,46.40,71.64,80.00,5.00,0.00,30.13,M,10.00,M,CLR,M,M,M,M,M,M,M,M,M,M,M,M,M,M,55.40,KMEV 040935Z AUTO 08005KT 10SM CLR 13/08 A3013 RMK AO2,M
WMC,2022-08-04 09:43,-117.8072,40.9019,1315.00,78.00,51.00,38.92,160.00,10.00,0.00,30.05,M,3.00,M,SCT,M,M,M,1900.00,M,M,M,HZ,M,M,M,M,M,M,78.10,KWMC 040943Z AUTO 16010KT 3SM HZ SCT019 26/11 A3005 RMK AO2 T02560106,M
CXP,2022-08-04 09:50,-119.7326,39.1923,1431.00,66.20,51.80,59.74,310.00,3.00,0.00,30.14,M,10.00,M,CLR,M,M,M,M,M,M,M,M,M,M,M,M,M,M,66.20,KCXP 040950Z AUTO 31003KT 10SM CLR 19/11 A3014 RMK AO2,M
05U,2022-08-04 09:50,-116.0051,39.6042,1811.23,M,M,M,M,M,0.00,M,M,M,M,M,M,M,M,M,M,M,M,M,M,M,M,M,M,M,M,K05U 040950Z AUTO RMK A01 PNO,M
ELY,2022-08-04 09:53,-114.8453,39.2950,1909.00,57.00,45.00,64.12,160.00,8.00,0.00,30.23,1013.30,10.00,M,CLR,M,M,M,M,M,M,M,M,M,M,M,M,M,M,57.00,KELY 040953Z AUTO 16008KT 10SM CLR 14/07 A3023 RMK AO2 SLP133 T01390072,M
DRA,2022-08-04 09:53,-116.0278,36.6206,1009.00,81.00,49.00,32.60,0.00,0.00,0.00,29.95,1008.00,10.00,M,CLR,M,M,M,M,M,M,M,M,M,M,M,M,M,M,80.01,KDRA 040953Z AUTO 00000KT 10SM CLR 27/09 A2995 RMK AO2 SLP080 T02720094,M
VGT,2022-08-04 09:53,-115.1933,36.2111,667.00,92.00,56.00,29.80,300.00,3.00,0.00,29.83,1008.30,10.00,M,CLR,M,M,M,M,M,M,M,M,M,M,M,M,M,M,90.17,KVGT 040953Z AUTO 30003KT 10SM CLR 33/13 A2983 RMK AO2 SLP083 T03330133,M
LOL,2022-08-04 09:53,-118.5701,40.0684,1192.43,70.00,51.00,51.07,0.00,0.00,0.00,30.03,1011.90,10.00,M,CLR,M,M,M,M,M,M,M,M,M,M,M,M,M,M,70.00,KLOL 040953Z AUTO 00000KT 10SM CLR 21/11 A3003 RMK AO2 SLP119 T02110106,M
BVU,2022-08-04 09:55,-114.8611,35.9475,671.00,87.80,60.80,40.41,290.00,4.00,0.00,29.84,M,M,M,M,M,M,M,M,M,M,M,M,M,M,M,M,M,M,87.75,KBVU 040955Z AUTO 29004KT 31/16 A2984 RMK AO2 PWINO TSNO,M
RTS,2022-08-04 09:55,-119.8764,39.6682,1539.00,62.60,55.40,77.29,320.00,5.00,0.00,30.15,M,10.00,M,CLR,M,M,M,M,M,M,M,M,M,M,M,M,M,M,62.60,KRTS 040955Z AUTO 32005KT 10SM CLR 17/13 A3015 RMK AO2,M
MEV,2022-08-04 09:55,-119.7500,38.9963,1441.42,59.00,48.20,67.33,60.00,5.00,0.00,30.13,M,10.00,M,CLR,M,M,M,M,M,M,M,M,M,M,M,M,M,M,59.00,KMEV 040955Z AUTO 06005KT 10SM CLR 15/09 A3013 RMK AO2,M
BAM,2022-08-04 09:55,-116.8743,40.5990,1382.36,73.40,50.00,43.69,290.00,4.00,0.00,30.08,M,10.00,M,CLR,M,M,M,M,M,M,M,M,M,M,M,M,M,M,73.40,KBAM 040955Z AUTO 29004KT 10SM CLR 23/10 A3008 RMK AO1,M
HTH,2022-08-04 09:55,-118.6315,38.5448,1282.89,71.60,51.80,49.64,170.00,7.00,0.00,30.08,M,10.00,M,CLR,M,M,M,M,M,M,M,M,M,M,M,M,M,M,71.60,KHTH 040955Z AUTO 17007KT 10SM CLR 22/11 A3008 RMK A01,M
TMT,2022-08-04 09:55,-117.1971,39.4643,1749.34,M,M,M,170.00,6.00,0.00,30.19,M,10.00,M,CLR,M,M,M,M,M,M,M,M,M,M,M,M,M,M,M,KTMT 040955Z AUTO 17006KT 10SM CLR A3019 RMK AO2,M
RNO,2022-08-04 09:55,-119.7711,39.4839,1341.00,70.00,60.00,70.81,0.00,0.00,0.00,30.09,1012.40,10.00,M,CLR,M,M,M,M,M,M,M,M,M,M,M,M,M,M,70.00,KRNO 040955Z 00000KT 10SM CLR 21/16 A3009 RMK AO2 SLP124 T02110156 $,M
NFL,2022-08-04 09:56,-118.7010,39.4166,1199.00,69.00,50.00,50.56,150.00,6.00,0.00,30.04,1014.10,10.00,M,CLR,M,M,M,M,M,M,M,M,M,M,M,M,M,M,69.10,KNFL 040956Z AUTO 15006KT 10SM CLR 21/10 A3004 RMK AO2 SLP141 T02060100,M
EKO,2022-08-04 09:56,-115.7860,40.8242,1367.00,70.00,43.00,37.64,0.00,0.00,0.00,30.12,1013.30,10.00,M,CLR,M,M,M,M,M,M,M,M,M,M,M,M,M,M,70.00,KEKO 040956Z AUTO 00000KT 10SM CLR 21/06 A3012 RMK AO2 SLP133 T02110061,M
HND,2022-08-04 09:56,-115.1344,35.9729,742.79,89.00,59.00,36.37,210.00,8.00,0.00,29.88,1009.80,10.00,M,CLR,M,M,M,M,M,M,M,M,M,M,M,M,M,M,88.37,KHND 040956Z AUTO 21008KT 10SM CLR 32/15 A2988 RMK AO2 SLP098 T03170150,M
LSV,2022-08-04 09:56,-115.0343,36.2362,570.00,91.40,55.40,29.72,70.00,6.00,0.00,29.84,1007.30,10.00,M,FEW,SCT,M,M,18000.00,20000.00,M,M,M,M,M,M,M,M,M,89.53,KLSV 040956Z 07006KT 10SM FEW180 SCT200 33/13 A2984 RMK SLP073 WND DATA ESTMD ALSTG/SLP ESTMD $,M
LAS,2022-08-04 09:56,-115.1634,36.0719,663.00,92.00,55.00,28.84,180.00,4.00,0.00,29.84,1007.00,10.00,M,FEW,BKN,BKN,M,16000.00,18000.00,25000.00,M,M,M,M,M,M,M,M,89.92,KLAS 040956Z 18004KT 10SM FEW160 BKN180 BKN250 33/13 A2984 RMK AO2 SLP070 T03330128 $,M
WMC,2022-08-04 09:56,-117.8072,40.9019,1315.00,78.00,51.00,38.92,170.00,7.00,0.00,30.05,1011.10,4.00,M,FEW,M,M,M,1700.00,M,M,M,HZ,M,M,M,M,M,M,78.10,KWMC 040956Z AUTO 17007KT 4SM HZ FEW017 26/11 A3005 RMK AO2 SLP111 T02560106,M
TPH,2022-08-04 09:56,-117.0904,38.0505,1654.00,67.00,56.00,67.74,20.00,10.00,0.00,30.17,1012.60,10.00,M,CLR,M,M,M,M,M,M,M,M,M,M,M,M,M,M,66.90,KTPH 040956Z AUTO 02010KT 10SM CLR 19/13 A3017 RMK AO2 SLP126 T01940133,M
INS,2022-08-04 09:58,-115.6733,36.5872,955.00,80.60,58.50,46.94,0.00,0.00,0.00,29.93,1007.90,10.00,M,CLR,M,M,M,M,M,M,M,M,M,M,M,M,M,M,81.02,KINS 040958Z AUTO 00000KT 10SM CLR 27/15 A2993 RMK AO2 SLP079 T02700147,M
BAM,2022-08-04 10:15,-116.8743,40.5990,1382.36,73.40,50.00,43.69,280.00,5.00,0.00,30.08,M,10.00,M,CLR,M,M,M,M,M,M,M,M,M,M,M,M,M,M,73.40,KBAM 041015Z AUTO 28005KT 10SM CLR 23/10 A3008 RMK AO1,M
HTH,2022-08-04 10:15,-118.6315,38.5448,1282.89,69.80,53.60,56.38,180.00,5.00,0.00,30.08,M,10.00,M,CLR,M,M,M,M,M,M,M,M,M,M,M,M,M,M,69.80,KHTH 041015Z AUTO 18005KT 10SM CLR 21/12 A3008 RMK A01,M
TMT,2022-08-04 10:15,-117.1971,39.4643,1749.34,M,M,M,250.00,6.00,0.00,30.19,M,10.00,M,CLR,M,M,M,M,M,M,M,M,M,M,M,M,M,M,M,KTMT 041015Z AUTO 25006KT 10SM CLR A3019 RMK AO2,M
BVU,2022-08-04 10:15,-114.8611,35.9475,671.00,86.00,62.60,45.61,0.00,0.00,0.00,29.84,M,M,M,M,M,M,M,M,M,M,M,M,M,M,M,M,M,M,86.72,KBVU 041015Z AUTO 00000KT 30/17 A2984 RMK AO2 PWINO TSNO,M
CXP,2022-08-04 10:15,-119.7326,39.1923,1431.00,66.20,50.00,55.88,0.00,0.00,0.00,30.14,M,10.00,M,CLR,M,M,M,M,M,M,M,M,M,M,M,M,M,M,66.20,KCXP 041015Z AUTO 00000KT 10SM CLR 19/10 A3014 RMK AO2,M
MEV,2022-08-04 10:15,-119.7500,38.9963,1441.42,57.20,46.40,67.12,100.00,5.00,0.00,30.13,M,10.00,M,CLR,M,M,M,M,M,M,M,M,M,M,M,M,M,M,57.20,KMEV 041015Z AUTO 10005KT 10SM CLR 14/08 A3013 RMK AO2,M
05U,2022-08-04 10:15,-116.0051,39.6042,1811.23,M,M,M,M,M,0.00,M,M,M,M,M,M,M,M,M,M,M,M,M,M,M,M,M,M,M,M,K05U 041015Z AUTO RMK A01 PNO,M
RTS,2022-08-04 10:15,-119.8764,39.6682,1539.00,60.80,51.80,72.20,330.00,5.00,0.00,30.15,M,10.00,M,CLR,M,M,M,M,M,M,M,M,M,M,M,M,M,M,60.80,KRTS 041015Z AUTO 33005KT 10SM CLR 16/11 A3015 RMK AO2,M
05U,2022-08-04 10:35,-116.0051,39.6042,1811.23,M,M,M,M,M,0.00,M,M,M,M,M,M,M,M,M,M,M,M,M,M,M,M,M,M,M,M,K05U 041035Z AUTO RMK A01 PNO,M
MEV,2022-08-04 10:35,-119.7500,38.9963,1441.42,55.40,46.40,71.64,110.00,6.00,0.00,30.13,M,10.00,M,FEW,FEW,M,M,5000.00,6000.00,M,M,M,M,M,M,M,M,M,55.40,KMEV 041035Z AUTO 11006KT 10SM FEW050 FEW060 13/08 A3013 RMK AO2,M
BAM,2022-08-04 10:35,-116.8743,40.5990,1382.36,73.40,50.00,43.69,260.00,7.00,0.00,30.07,M,10.00,M,CLR,M,M,M,M,M,M,M,M,M,M,M,M,M,M,73.40,KBAM 041035Z AUTO 26007KT 10SM CLR 23/10 A3007 RMK AO1,M
HTH,2022-08-04 10:35,-118.6315,38.5448,1282.89,69.80,51.80,52.77,M,3.00,0.00,30.08,M,10.00,M,CLR,M,M,M,M,M,M,M,M,M,M,M,M,M,M,69.80,KHTH 041035Z AUTO VRB03KT 10SM CLR 21/11 A3008 RMK A01,M
TMT,2022-08-04 10:35,-117.1971,39.4643,1749.34,M,M,M,250.00,7.00,0.00,30.19,M,10.00,M,CLR,M,M,M,M,M,M,M,M,M,M,M,M,M,M,M,KTMT 041035Z AUTO 25007KT 10SM CLR A3019 RMK AO2,M
BVU,2022-08-04 10:35,-114.8611,35.9475,671.00,86.00,64.40,48.58,0.00,0.00,0.00,29.84,M,M,M,M,M,M,M,M,M,M,M,M,M,M,M,M,M,M,87.49,KBVU 041035Z AUTO 00000KT 30/18 A2984 RMK AO2 PWINO TSNO,M
CXP,2022-08-04 10:35,-119.7326,39.1923,1431.00,64.40,51.80,63.60,0.00,0.00,0.00,30.13,M,10.00,M,CLR,M,M,M,M,M,M,M,M,M,M,M,M,M,M,64.40,KCXP 041035Z AUTO 00000KT 10SM CLR 18/11 A3013 RMK AO2,M
RTS,2022-08-04 10:35,-119.8764,39.6682,1539.00,60.80,51.80,72.20,0.00,0.00,0.00,30.14,M,10.00,M,CLR,M,M,M,M,M,M,M,M,M,M,M,M,M,M,60.80,KRTS 041035Z AUTO 00000KT 10SM CLR 16/11 A3014 RMK AO2,M
ELY,2022-08-04 10:53,-114.8453,39.2950,1909.00,54.00,46.00,74.26,180.00,6.00,0.00,30.23,1013.90,10.00,M,CLR,M,M,M,M,M,M,M,M,M,M,M,M,M,M,54.00,KELY 041053Z AUTO 18006KT 10SM CLR 12/08 A3023 RMK AO2 SLP139 T01220078,M
VGT,2022-08-04 10:53,-115.1933,36.2111,667.00,92.00,55.00,28.84,0.00,0.00,0.00,29.83,1008.40,10.00,M,CLR,M,M,M,M,M,M,M,M,M,M,M,M,M,M,89.92,KVGT 041053Z AUTO 00000KT 10SM CLR 33/13 A2983 RMK AO2 SLP084 T03330128,M
LOL,2022-08-04 10:53,-118.5701,40.0684,1192.43,66.00,51.00,58.62,0.00,0.00,0.00,30.03,1012.00,10.00,M,CLR,M,M,M,M,M,M,M,M,M,M,M,M,M,M,66.00,KLOL 041053Z AUTO 00000KT 10SM CLR 19/11 A3003 RMK AO2 SLP120 T01890106,M
DRA,2022-08-04 10:53,-116.0278,36.6206,1009.00,83.00,50.00,31.93,50.00,5.00,0.00,29.94,1007.80,10.00,M,CLR,M,M,M,M,M,M,M,M,M,M,M,M,M,M,81.32,KDRA 041053Z AUTO 05005KT 10SM CLR 28/10 A2994 RMK AO2 SLP078 T02830100,M
RTS,2022-08-04 10:55,-119.8764,39.6682,1539.00,59.00,51.80,76.98,340.00,4.00,0.00,30.14,M,10.00,M,CLR,M,M,M,M,M,M,M,M,M,M,M,M,M,M,59.00,KRTS 041055Z AUTO 34004KT 10SM CLR 15/11 A3014 RMK AO2,M
HTH,2022-08-04 10:55,-118.6315,38.5448,1282.89,68.00,53.60,59.97,150.00,5.00,0.00,30.07,M,10.00,M,CLR,M,M,M,M,M,M,M,M,M,M,M,M,M,M,68.00,KHTH 041055Z AUTO 15005KT 10SM CLR 20/12 A3007 RMK A01,M
BAM,2022-08-04 10:55,-116.8743,40.5990,1382.36,75.20,50.00,41.14,270.00,9.00,0.00,30.07,M,10.00,M,CLR,M,M,M,M,M,M,M,M,M,M,M,M,M,M,75.20,KBAM 041055Z AUTO 27009KT 10SM CLR 24/10 A3007 RMK AO1,M
CXP,2022-08-04 10:55,-119.7326,39.1923,1431.00,64.40,51.80,63.60,0.00,0.00,0.00,30.13,M,10.00,M,CLR,M,M,M,M,M,M,M,M,M,M,M,M,M,M,64.40,KCXP 041055Z AUTO 00000KT 10SM CLR 18/11 A3013 RMK AO2,M
BVU,2022-08-04 10:55,-114.8611,35.9475,671.00,86.00,62.60,45.61,0.00,0.00,0.00,29.84,M,M,M,M,M,M,M,M,M,M,M,M,M,M,M,M,M,M,86.72,KBVU 041055Z AUTO 00000KT 30/17 A2984 RMK AO2 PWINO TSNO,M
MEV,2022-08-04 10:55,-119.7500,38.9963,1441.42,57.20,46.40,67.12,120.00,5.00,0.00,30.12,M,10.00,M,FEW,SCT,M,M,4600.00,5000.00,M,M,M,M,M,M,M,M,M,57.20,KMEV 041055Z AUTO 12005KT 10SM FEW046 SCT050 14/08 A3012 RMK AO2,M
TMT,2022-08-04 10:55,-117.1971,39.4643,1749.34,M,M,M,240.00,6.00,0.00,30.19,M,10.00,M,CLR,M,M,M,M,M,M,M,M,M,M,M,M,M,M,M,KTMT 041055Z AUTO 24006KT 10SM CLR A3019 RMK AO2,M
RNO,2022-08-04 10:55,-119.7711,39.4839,1341.00,69.00,58.00,67.50,0.00,0.00,0.00,30.09,1012.20,10.00,M,CLR,M,M,M,M,M,M,M,M,M,M,M,M,M,M,69.10,KRNO 041055Z 00000KT 10SM CLR 21/14 A3009 RMK AO2 SLP122 T02060144 $,M
05U,2022-08-04 10:55,-116.0051,39.6042,1811.23,M,M,M,M,M,0.00,M,M,M,M,M,M,M,M,M,M,M,M,M,M,M,M,M,M,M,M,K05U 041055Z AUTO RMK A01 PNO,M
HND,2022-08-04 10:56,-115.1344,35.9729,742.79,88.00,59.00,37.66,210.00,8.00,0.00,29.88,1009.70,10.00,M,CLR,M,M,M,M,M,M,M,M,M,M,M,M,M,M,87.31,KHND 041056Z AUTO 21008KT 10SM CLR 31/15 A2988 RMK AO2 SLP097 T03110150,M
TPH,2022-08-04 10:56,-117.0904,38.0505,1654.00,66.00,57.00,72.72,360.00,11.00,0.00,30.16,1012.70,10.00,M,CLR,M,M,M,M,M,M,M,M,M,M,M,M,M,M,66.00,KTPH 041056Z AUTO 36011KT 10SM CLR 19/14 A3016 RMK AO2 SLP127 T01890139,M
LAS,2022-08-04 10:56,-115.1634,36.0719,663.00,91.00,56.00,30.65,0.00,0.00,0.00,29.84,1007.10,10.00,M,BKN,BKN,M,M,17000.00,25000.00,M,M,M,M,M,M,M,M,M,89.27,KLAS 041056Z 00000KT 10SM BKN170 BKN250 33/13 A2984 RMK AO2 SLP071 T03280133 $,M
EKO,2022-08-04 10:56,-115.7860,40.8242,1367.00,66.00,44.00,45.05,310.00,3.00,0.00,30.11,1013.30,10.00,M,CLR,M,M,M,M,M,M,M,M,M,M,M,M,M,M,66.00,KEKO 041056Z AUTO 31003KT 10SM CLR 19/07 A3011 RMK AO2 SLP133 T01890067,M
WMC,2022-08-04 10:56,-117.8072,40.9019,1315.00,76.00,51.00,41.86,210.00,6.00,0.00,30.04,1010.80,7.00,M,CLR,M,M,M,M,M,M,M,M,M,M,M,M,M,M,75.90,KWMC 041056Z AUTO 21006KT 7SM CLR 24/11 A3004 RMK AO2 SLP108 T02440106,M
LSV,2022-08-04 10:56,-115.0343,36.2362,570.00,89.60,59.00,35.81,60.00,8.00,0.00,29.83,1006.90,10.00,M,SCT,SCT,M,M,17000.00,25000.00,M,M,M,M,M,M,M,M,M,88.86,KLSV 041056Z 06008KT 10SM SCT170 SCT250 32/15 A2983 RMK SLP069 WND DATA ESTMD ALSTG/SLP ESTMD $,M
INS,2022-08-04 10:58,-115.6733,36.5872,955.00,77.70,58.00,50.90,0.00,0.00,0.00,29.92,1007.70,10.00,M,CLR,M,M,M,M,M,M,M,M,M,M,M,M,M,M,77.70,KINS 041058Z AUTO 00000KT 10SM CLR 25/15 A2992 RMK AO2 SLP077 T02540145,M
05U,2022-08-04 11:15,-116.0051,39.6042,1811.23,M,M,M,M,M,0.00,M,M,M,M,M,M,M,M,M,M,M,M,M,M,M,M,M,M,M,M,K05U 041115Z AUTO RMK A01 PNO,M
BVU,2022-08-04 11:15,-114.8611,35.9475,671.00,84.20,64.40,51.47,0.00,0.00,0.00,29.84,M,M,M,M,M,M,M,M,M,M,M,M,M,M,M,M,M,M,85.71,KBVU 041115Z AUTO 00000KT 29/18 A2984 RMK AO2 PWINO TSNO,M
CXP,2022-08-04 11:15,-119.7326,39.1923,1431.00,62.60,51.80,67.75,0.00,0.00,0.00,30.13,M,10.00,M,CLR,M,M,M,M,M,M,M,M,M,M,M,M,M,M,62.60,KCXP 041115Z AUTO 00000KT 10SM CLR 17/11 A3013 RMK AO2,M
RTS,2022-08-04 11:15,-119.8764,39.6682,1539.00,57.20,53.60,87.74,350.00,4.00,0.00,30.14,M,10.00,M,CLR,M,M,M,M,M,M,M,M,M,M,M,M,M,M,57.20,KRTS 041115Z AUTO 35004KT 10SM CLR 14/12 A3014 RMK AO2,M
MEV,2022-08-04 11:15,-119.7500,38.9963,1441.42,53.60,46.40,76.50,130.00,4.00,0.00,30.13,M,10.00,M,FEW,FEW,FEW,M,3900.00,4700.00,5500.00,M,M,M,M,M,M,M,M,53.60,KMEV 041115Z AUTO 13004KT 10SM FEW039 FEW047 FEW055 12/08 A3013 RMK AO2,M
BAM,2022-08-04 11:15,-116.8743,40.5990,1382.36,77.00,50.00,38.74,270.00,8.00,0.00,30.07,M,10.00,M,CLR,M,M,M,M,M,M,M,M,M,M,M,M,M,M,77.00,KBAM 041115Z AUTO 27008KT 10SM CLR 25/10 A3007 RMK AO1,M
HTH,2022-08-04 11:15,-118.6315,38.5448,1282.89,69.80,53.60,56.38,170.00,4.00,0.00,30.07,M,10.00,M,CLR,M,M,M,M,M,M,M,M,M,M,M,M,M,M,69.80,KHTH 041115Z AUTO 17004KT 10SM CLR 21/12 A3007 RMK A01,M
TMT,2022-08-04 11:15,-117.1971,39.4643,1749.34,M,M,M,210.00,4.00,0.00,30.18,M,10.00,M,CLR,M,M,M,M,M,M,M,M,M,M,M,M,M,M,M,KTMT 041115Z AUTO 21004KT 10SM CLR A3018 RMK AO2,M
BVU,2022-08-04 11:35,-114.8611,35.9475,671.00,84.20,64.40,51.47,0.00,0.00,0.00,29.85,M,M,M,M,M,M,M,M,M,M,M,M,M,M,M,M,M,M,85.71,KBVU 041135Z AUTO 00000KT 29/18 A2985 RMK AO2 PWINO TSNO,M
RTS,2022-08-04 11:35,-119.8764,39.6682,1539.00,59.00,53.60,82.25,340.00,3.00,0.00,30.14,M,10.00,M,CLR,M,M,M,M,M,M,M,M,M,M,M,M,M,M,59.00,KRTS 041135Z AUTO 34003KT 10SM CLR 15/12 A3014 RMK AO2,M
05U,2022-08-04 11:35,-116.0051,39.6042,1811.23,M,M,M,M,M,0.00,M,M,M,M,M,M,M,M,M,M,M,M,M,M,M,M,M,M,M,M,K05U 041135Z AUTO RMK A01 PNO,M
MEV,2022-08-04 11:35,-119.7500,38.9963,1441.42,55.40,46.40,71.64,0.00,0.00,0.00,30.12,M,10.00,M,FEW,FEW,SCT,M,3900.00,5000.00,5500.00,M,M,M,M,M,M,M,M,55.40,KMEV 041135Z AUTO 00000KT 10SM FEW039 FEW050 SCT055 13/08 A3012 RMK AO2,M
BAM,2022-08-04 11:35,-116.8743,40.5990,1382.36,73.40,50.00,43.69,140.00,7.00,0.00,30.07,M,10.00,M,CLR,M,M,M,M,M,M,M,M,M,M,M,M,M,M,73.40,KBAM 041135Z AUTO 14007KT 10SM CLR 23/10 A3007 RMK AO1,M
HTH,2022-08-04 11:35,-118.6315,38.5448,1282.89,66.20,57.20,72.74,0.00,0.00,0.00,30.08,M,10.00,M,CLR,M,M,M,M,M,M,M,M,M,M,M,M,M,M,66.20,KHTH 041135Z AUTO 00000KT 10SM CLR 19/14 A3008 RMK A01,M
TMT,2022-08-04 11:35,-117.1971,39.4643,1749.34,M,M,M,210.00,4.00,0.00,30.19,M,10.00,M,SCT,M,M,M,12000.00,M,M,M,M,M,M,M,M,M,M,M,KTMT 041135Z AUTO 21004KT 10SM SCT120 A3019 RMK AO2,M
CXP,2022-08-04 11:35,-119.7326,39.1923,1431.00,64.40,50.00,59.50,0.00,0.00,0.00,30.13,M,10.00,M,CLR,M,M,M,M,M,M,M,M,M,M,M,M,M,M,64.40,KCXP 041135Z AUTO 00000KT 10SM CLR 18/10 A3013 RMK AO2,M
LOL,2022-08-04 11:53,-118.5701,40.0684,1192.43,67.00,52.00,58.74,0.00,0.00,0.00,30.03,1012.20,10.00,M,CLR,M,M,M,M,M,M,M,M,M,M,M,M,M,M,66.90,KLOL 041153Z AUTO 00000KT 10SM CLR 19/11 A3003 RMK AO2 SLP122 60000 T01940111 10283 20183 55002,M
VGT,2022-08-04 11:53,-115.1933,36.2111,667.00,91.00,55.00,29.66,0.00,0.00,0.00,29.84,1008.50,10.00,M,CLR,M,M,M,M,M,M,M,M,M,M,M,M,M,M,89.03,KVGT 041153Z AUTO 00000KT 10SM CLR 33/13 A2984 RMK AO2 SLP085 T03280128 10367 20328 55001,M
DRA,2022-08-04 11:53,-116.0278,36.6206,1009.00,83.00,51.00,33.27,60.00,7.00,0.00,29.94,1007.80,10.00,M,CLR,M,M,M,M,M,M,M,M,M,M,M,M,M,M,81.45,KDRA 041153Z AUTO 06007KT 10SM CLR 28/11 A2994 RMK AO2 SLP078 T02830106 10322 20261 56004,M
ELY,2022-08-04 11:53,-114.8453,39.2950,1909.00,54.00,46.00,74.26,190.00,6.00,0.00,30.22,1013.60,10.00,M,CLR,M,M,M,M,M,M,M,M,M,M,M,M,M,M,54.00,KELY 041153Z AUTO 19006KT 10SM CLR 12/08 A3022 RMK AO2 SLP136 T01220078 10194 20122 58003,M
CXP,2022-08-04 11:55,-119.7326,39.1923,1431.00,64.40,50.00,59.50,0.00,0.00,0.00,30.13,M,10.00,M,CLR,M,M,M,M,M,M,M,M,M,M,M,M,M,M,64.40,KCXP 041155Z AUTO 00000KT 10SM CLR 18/10 A3013 RMK AO2,M
RNO,2022-08-04 11:55,-119.7711,39.4839,1341.00,69.00,54.00,58.60,290.00,6.00,0.00,30.09,1012.30,10.00,M,CLR,M,M,M,M,M,M,M,M,M,M,M,M,M,M,69.10,KRNO 041155Z 29006KT 10SM CLR 21/12 A3009 RMK AO2 SLP123 70122 T02060122 10244 20200 58002 $,M
RTS,2022-08-04 11:55,-119.8764,39.6682,1539.00,59.00,53.60,82.25,0.00,0.00,0.00,30.14,M,10.00,M,CLR,M,M,M,M,M,M,M,M,M,M,M,M,M,M,59.00,KRTS 041155Z AUTO 00000KT 10SM CLR 15/12 A3014 RMK AO2,M
TMT,2022-08-04 11:55,-117.1971,39.4643,1749.34,M,M,M,0.00,0.00,0.00,30.19,M,10.00,M,SCT,M,M,M,12000.00,M,M,M,M,M,M,M,M,M,M,M,KTMT 041155Z AUTO 00000KT 10SM SCT120 A3019 RMK AO2,M
HTH,2022-08-04 11:55,-118.6315,38.5448,1282.89,66.20,55.40,68.15,250.00,4.00,0.00,30.07,M,10.00,M,CLR,M,M,M,M,M,M,M,M,M,M,M,M,M,M,66.20,KHTH 041155Z AUTO 25004KT 10SM CLR 19/13 A3007 RMK A01,M
05U,2022-08-04 11:55,-116.0051,39.6042,1811.23,M,M,M,M,M,0.00,M,M,M,M,M,M,M,M,M,M,M,M,M,M,M,M,M,M,M,M,K05U 041155Z AUTO RMK A01 PNO,M
MEV,2022-08-04 11:55,-119.7500,38.9963,1441.42,55.40,48.20,76.66,240.00,4.00,0.00,30.12,M,10.00,M,FEW,SCT,BKN,M,3900.00,5000.00,6000.00,M,M,M,M,M,M,M,M,55.40,KMEV 041155Z AUTO 24004KT 10SM FEW039 SCT050 BKN060 13/09 A3012 RMK AO2,M
BAM,2022-08-04 11:55,-116.8743,40.5990,1382.36,71.60,50.00,46.43,150.00,6.00,0.00,30.08,M,10.00,M,CLR,M,M,M,M,M,M,M,M,M,M,M,M,M,M,71.60,KBAM 041155Z AUTO 15006KT 10SM CLR 22/10 A3008 RMK AO1,M
BVU,2022-08-04 11:55,-114.8611,35.9475,671.00,84.20,64.40,51.47,0.00,0.00,0.00,29.85,M,M,M,M,M,M,M,M,M,M,M,M,M,M,M,M,M,M,85.71,KBVU 041155Z AUTO 00000KT 29/18 A2985 RMK AO2 PWINO TSNO,M
LAS,2022-08-04 11:56,-115.1634,36.0719,663.00,90.00,58.00,33.99,0.00,0.00,0.00,29.85,1007.50,10.00,M,FEW,BKN,BKN,M,15000.00,18000.00,25000.00,M,M,M,M,M,M,M,M,88.89,KLAS 041156Z 00000KT 10SM FEW150 BKN180 BKN250 32/14 A2985 RMK AO2 SLP075 T03220144 10350 20322 55001 $,M
TPH,2022-08-04 11:56,-117.0904,38.0505,1654.00,66.00,56.00,69.88,10.00,9.00,0.00,30.15,1012.20,10.00,M,CLR,M,M,M,M,M,M,M,M,M,M,M,M,M,M,66.00,KTPH 041156Z AUTO 01009KT 10SM CLR 19/13 A3015 RMK AO2 SLP122 T01890133 10217 20183 58006,M
EKO,2022-08-04 11:56,-115.7860,40.8242,1367.00,64.00,45.00,49.99,0.00,0.00,0.00,30.12,1013.60,10.00,M,CLR,M,M,M,M,M,M,M,M,M,M,M,M,M,M,64.00,KEKO 041156Z AUTO 00000KT 10SM CLR 18/07 A3012 RMK AO2 SLP136 T01780072 10233 20167 55002,M
NFL,2022-08-04 11:56,-118.7010,39.4166,1199.00,68.00,49.00,50.40,150.00,5.00,0.00,30.04,1014.00,10.00,M,CLR,M,M,M,M,M,M,M,M,M,M,M,M,M,M,68.00,KNFL 041156Z AUTO 15005KT 10SM CLR 20/09 A3004 RMK AO2 SLP140 T02000094 10272 20194 57000,M
WMC,2022-08-04 11:56,-117.8072,40.9019,1315.00,75.00,50.00,41.41,190.00,7.00,0.00,30.04,1010.90,9.00,M,CLR,M,M,M,M,M,M,M,M,M,M,M,M,M,M,75.00,KWMC 041156Z AUTO 19007KT 9SM CLR 24/10 A3004 RMK AO2 SLP109 60000 T02390100 10300 20233 55002,M
LSV,2022-08-04 11:56,-115.0343,36.2362,570.00,87.80,59.00,37.90,70.00,4.00,0.00,29.83,1007.00,10.00,M,SCT,SCT,M,M,17000.00,25000.00,M,M,M,M,M,M,M,M,M,87.12,KLSV 041156Z 07004KT 10SM SCT170 SCT250 31/15 A2983 RMK SLP070 5//// WND DATA ESTMD ALSTG/SLP ESTMD $,M
HND,2022-08-04 11:56,-115.1344,35.9729,742.79,87.00,59.00,38.75,230.00,10.00,0.00,29.89,1010.20,10.00,M,CLR,M,M,M,M,M,M,M,M,M,M,M,M,M,M,86.47,KHND 041156Z AUTO 23010KT 10SM CLR 31/15 A2989 RMK AO2 SLP102 T03060150 10333 20306 55001,M
INS,2022-08-04 11:58,-115.6733,36.5872,955.00,77.20,57.00,49.74,300.00,3.00,0.00,29.94,1008.50,10.00,M,CLR,M,M,M,M,M,M,M,M,M,M,M,M,M,M,77.20,KINS 041158Z AUTO 30003KT 10SM CLR 25/14 A2994 RMK AO2 SLP085 T02510139 10307 20251 55002,M
CXP,2022-08-04 12:15,-119.7326,39.1923,1431.00,64.40,50.00,59.50,0.00,0.00,0.00,30.13,M,10.00,M,CLR,M,M,M,M,M,M,M,M,M,M,M,M,M,M,64.40,KCXP 041215Z AUTO 00000KT 10SM CLR 18/10 A3013 RMK AO2,M
RTS,2022-08-04 12:15,-119.8764,39.6682,1539.00,57.20,53.60,87.74,0.00,0.00,0.00,30.14,M,10.00,M,CLR,M,M,M,M,M,M,M,M,M,M,M,M,M,M,57.20,KRTS 041215Z AUTO 00000KT 10SM CLR 14/12 A3014 RMK AO2,M
HTH,2022-08-04 12:15,-118.6315,38.5448,1282.89,66.20,57.20,72.74,0.00,0.00,0.00,30.07,M,10.00,M,CLR,M,M,M,M,M,M,M,M,M,M,M,M,M,M,66.20,KHTH 041215Z AUTO 00000KT 10SM CLR 19/14 A3007 RMK A01,M
05U,2022-08-04 12:15,-116.0051,39.6042,1811.23,M,M,M,M,M,0.00,M,M,M,M,M,M,M,M,M,M,M,M,M,M,M,M,M,M,M,M,K05U 041215Z AUTO RMK A01 PNO,M
MEV,2022-08-04 12:15,-119.7500,38.9963,1441.42,53.60,48.20,81.87,0.00,0.00,0.00,30.12,M,10.00,M,FEW,FEW,SCT,M,3900.00,4800.00,5500.00,M,M,M,M,M,M,M,M,53.60,KMEV 041215Z AUTO 00000KT 10SM FEW039 FEW048 SCT055 12/09 A3012 RMK AO2,M
BVU,2022-08-04 12:15,-114.8611,35.9475,671.00,86.00,64.40,48.58,0.00,0.00,0.00,29.85,M,M,M,M,M,M,M,M,M,M,M,M,M,M,M,M,M,M,87.49,KBVU 041215Z AUTO 00000KT 30/18 A2985 RMK AO2 PWINO TSNO,M
BAM,2022-08-04 12:15,-116.8743,40.5990,1382.36,69.80,50.00,49.37,80.00,3.00,0.00,30.08,M,10.00,M,CLR,M,M,M,M,M,M,M,M,M,M,M,M,M,M,69.80,KBAM 041215Z AUTO 08003KT 10SM CLR 21/10 A3008 RMK AO1,M
TMT,2022-08-04 12:15,-117.1971,39.4643,1749.34,M,M,M,150.00,4.00,0.00,30.19,M,10.00,M,SCT,M,M,M,12000.00,M,M,M,M,M,M,M,M,M,M,M,KTMT 041215Z AUTO 15004KT 10SM SCT120 A3019 RMK AO2,M
MEV,2022-08-04 12:35,-119.7500,38.9963,1441.42,51.80,46.40,81.74,130.00,4.00,0.00,30.12,M,10.00,M,FEW,M,M,M,6000.00,M,M,M,M,M,M,M,M,M,M,51.80,KMEV 041235Z AUTO 13004KT 10SM FEW060 11/08 A3012 RMK AO2,M
HTH,2022-08-04 12:35,-118.6315,38.5448,1282.89,66.20,57.20,72.74,0.00,0.00,0.00,30.08,M,10.00,M,CLR,M,M,M,M,M,M,M,M,M,M,M,M,M,M,66.20,KHTH 041235Z AUTO 00000KT 10SM CLR 19/14 A3008 RMK A01,M
BAM,2022-08-04 12:35,-116.8743,40.5990,1382.36,69.80,50.00,49.37,50.00,5.00,0.00,30.08,M,10.00,M,CLR,M,M,M,M,M,M,M,M,M,M,M,M,M,M,69.80,KBAM 041235Z AUTO 05005KT 10SM CLR 21/10 A3008 RMK AO1,M
05U,2022-08-04 12:35,-116.0051,39.6042,1811.23,M,M,M,M,M,0.00,M,M,M,M,M,M,M,M,M,M,M,M,M,M,M,M,M,M,M,M,K05U 041235Z AUTO RMK A01 PNO,M
RTS,2022-08-04 12:35,-119.8764,39.6682,1539.00,57.20,51.80,82.12,330.00,5.00,0.00,30.14,M,10.00,M,CLR,M,M,M,M,M,M,M,M,M,M,M,M,M,M,57.20,KRTS 041235Z AUTO 33005KT 10SM CLR 14/11 A3014 RMK AO2,M
CXP,2022-08-04 12:35,-119.7326,39.1923,1431.00,64.40,50.00,59.50,0.00,0.00,0.00,30.13,M,10.00,M,CLR,M,M,M,M,M,M,M,M,M,M,M,M,M,M,64.40,KCXP 041235Z AUTO 00000KT 10SM CLR 18/10 A3013 RMK AO2,M
BVU,2022-08-04 12:35,-114.8611,35.9475,671.00,86.00,64.40,48.58,0.00,0.00,0.00,29.86,M,M,M,M,M,M,M,M,M,M,M,M,M,M,M,M,M,M,87.49,KBVU 041235Z AUTO 00000KT 30/18 A2986 RMK AO2 PWINO TSNO,M
TMT,2022-08-04 12:35,-117.1971,39.4643,1749.34,M,M,M,130.00,4.00,0.00,30.19,M,10.00,M,SCT,M,M,M,12000.00,M,M,M,M,M,M,M,M,M,M,M,KTMT 041235Z AUTO 13004KT 10SM SCT120 A3019 RMK AO2,M
DRA,2022-08-04 12:53,-116.0278,36.6206,1009.00,82.00,52.00,35.41,M,5.00,0.00,29.96,1008.40,10.00,M,CLR,M,M,M,M,M,M,M,M,M,M,M,M,M,M,80.97,KDRA 041253Z AUTO VRB05KT 10SM CLR 28/11 A2996 RMK AO2 SLP084 T02780111,M
VGT,2022-08-04 12:53,-115.1933,36.2111,667.00,92.00,55.00,28.84,330.00,3.00,0.00,29.85,1009.10,10.00,M,CLR,M,M,M,M,M,M,M,M,M,M,M,M,M,M,89.92,KVGT 041253Z 33003KT 10SM CLR 33/13 A2985 RMK AO2 SLP091 T03330128,M
LOL,2022-08-04 12:53,-118.5701,40.0684,1192.43,63.00,51.00,65.09,60.00,5.00,0.00,30.04,1012.40,10.00,M,CLR,M,M,M,M,M,M,M,M,M,M,M,M,M,M,63.00,KLOL 041253Z AUTO 06005KT 10SM CLR 17/11 A3004 RMK AO2 SLP124 T01720106,M
ELY,2022-08-04 12:53,-114.8453,39.2950,1909.00,53.00,46.00,76.75,200.00,8.00,0.00,30.23,1014.00,10.00,M,CLR,M,M,M,M,M,M,M,M,M,M,M,M,M,M,53.10,KELY 041253Z AUTO 20008KT 10SM CLR 12/08 A3023 RMK AO2 SLP140 T01170078,M
RNO,2022-08-04 12:55,-119.7711,39.4839,1341.00,68.00,53.00,58.88,270.00,5.00,0.00,30.09,1012.50,10.00,M,FEW,M,M,M,12000.00,M,M,M,M,M,M,M,M,M,M,68.00,KRNO 041255Z 27005KT 10SM FEW120 20/12 A3009 RMK AO2 SLP125 T02000117 $,M
HTH,2022-08-04 12:55,-118.6315,38.5448,1282.89,66.20,57.20,72.74,270.00,4.00,0.00,30.08,M,10.00,M,CLR,M,M,M,M,M,M,M,M,M,M,M,M,M,M,66.20,KHTH 041255Z AUTO 27004KT 10SM CLR 19/14 A3008 RMK A01,M
BAM,2022-08-04 12:55,-116.8743,40.5990,1382.36,68.00,50.00,52.51,0.00,0.00,0.00,30.08,M,10.00,M,CLR,M,M,M,M,M,M,M,M,M,M,M,M,M,M,68.00,KBAM 041255Z AUTO 00000KT 10SM CLR 20/10 A3008 RMK AO1,M
TMT,2022-08-04 12:55,-117.1971,39.4643,1749.34,M,M,M,110.00,3.00,0.00,30.20,M,10.00,M,CLR,M,M,M,M,M,M,M,M,M,M,M,M,M,M,M,KTMT 041255Z AUTO 11003KT 10SM CLR A3020 RMK AO2,M
BVU,2022-08-04 12:55,-114.8611,35.9475,671.00,86.00,62.60,45.61,0.00,0.00,0.00,29.87,M,M,M,M,M,M,M,M,M,M,M,M,M,M,M,M,M,M,86.72,KBVU 041255Z AUTO 00000KT 30/17 A2987 RMK AO2 PWINO TSNO,M
CXP,2022-08-04 12:55,-119.7326,39.1923,1431.00,62.60,50.00,63.38,0.00,0.00,0.00,30.13,M,10.00,M,CLR,M,M,M,M,M,M,M,M,M,M,M,M,M,M,62.60,KCXP 041255Z AUTO 00000KT 10SM CLR 17/10 A3013 RMK AO2,M
05U,2022-08-04 12:55,-116.0051,39.6042,1811.23,M,M,M,M,M,0.00,M,M,M,M,M,M,M,M,M,M,M,M,M,M,M,M,M,M,M,M,K05U 041255Z AUTO RMK A01 PNO,M
RTS,2022-08-04 12:55,-119.8764,39.6682,1539.00,55.40,50.00,81.99,320.00,4.00,0.00,30.14,M,10.00,M,CLR,M,M,M,M,M,M,M,M,M,M,M,M,M,M,55.40,KRTS 041255Z AUTO 32004KT 10SM CLR 13/10 A3014 RMK AO2,M
MEV,2022-08-04 12:55,-119.7500,38.9963,1441.42,53.60,46.40,76.50,0.00,0.00,0.00,30.12,M,10.00,M,CLR,M,M,M,M,M,M,M,M,M,M,M,M,M,M,53.60,KMEV 041255Z AUTO 00000KT 10SM CLR 12/08 A3012 RMK AO2,M
WMC,2022-08-04 12:56,-117.8072,40.9019,1315.00,70.00,49.00,47.06,250.00,5.00,0.00,30.04,1011.40,8.00,M,CLR,M,M,M,M,M,M,M,M,M,M,M,M,M,M,70.00,KWMC 041256Z AUTO 25005KT 8SM CLR 21/09 A3004 RMK AO2 SLP114 T02110094,M
NFL,2022-08-04 12:56,-118.7010,39.4166,1199.00,69.00,50.00,50.56,0.00,0.00,0.00,30.04,1014.20,10.00,M,CLR,M,M,M,M,M,M,M,M,M,M,M,M,M,M,69.10,KNFL 041256Z AUTO 00000KT 10SM CLR 21/10 A3004 RMK AO2 SLP142 T02060100,M
LSV,2022-08-04 12:56,-115.0343,36.2362,570.00,87.80,59.00,37.90,70.00,3.00,0.00,29.83,1007.00,10.00,M,SCT,BKN,M,M,19000.00,25000.00,M,M,M,M,M,M,M,M,M,87.12,KLSV 041256Z 07003KT 10SM SCT190 BKN250 31/15 A2983 RMK SLP070,M
HND,2022-08-04 12:56,-115.1344,35.9729,742.79,88.00,59.00,37.66,220.00,12.00,0.00,29.90,1010.30,10.00,M,CLR,M,M,M,M,M,M,M,M,M,M,M,M,M,M,87.31,KHND 041256Z AUTO 22012KT 10SM CLR 31/15 A2990 RMK AO2 SLP103 T03110150,M
LAS,2022-08-04 12:56,-115.1634,36.0719,663.00,90.00,57.00,32.91,340.00,3.00,0.00,29.86,1007.80,10.00,M,FEW,BKN,BKN,M,10000.00,15000.00,25000.00,M,M,M,M,M,M,M,M,88.61,KLAS 041256Z 34003KT 10SM FEW100 BKN150 BKN250 32/14 A2986 RMK AO2 SLP078 ACC DSNT SE T03220139 $,M
TPH,2022-08-04 12:56,-117.0904,38.0505,1654.00,65.00,57.00,75.56,10.00,10.00,0.00,30.15,1012.60,10.00,M,CLR,M,M,M,M,M,M,M,M,M,M,M,M,M,M,64.90,KTPH 041256Z AUTO 01010KT 10SM CLR 18/14 A3015 RMK AO2 SLP126 T01830139,M
EKO,2022-08-04 12:56,-115.7860,40.8242,1367.00,65.00,47.00,52.06,90.00,5.00,0.00,30.12,1013.30,10.00,M,CLR,M,M,M,M,M,M,M,M,M,M,M,M,M,M,64.90,KEKO 041256Z AUTO 09005KT 10SM CLR 18/08 A3012 RMK AO2 SLP133 T01830083,M
INS,2022-08-04 12:58,-115.6733,36.5872,955.00,77.20,58.00,51.75,320.00,3.00,0.00,29.95,1008.70,10.00,M,CLR,M,M,M,M,M,M,M,M,M,M,M,M,M,M,77.20,KINS 041258Z AUTO 32003KT 10SM CLR 25/15 A2995 RMK AO2 SLP087 T02510145,M
TMT,2022-08-04 13:15,-117.1971,39.4643,1749.34,M,M,M,300.00,4.00,0.00,30.20,M,10.00,M,CLR,M,M,M,M,M,M,M,M,M,M,M,M,M,M,M,KTMT 041315Z AUTO 30004KT 10SM CLR A3020 RMK AO2,M
BAM,2022-08-04 13:15,-116.8743,40.5990,1382.36,68.00,50.00,52.51,0.00,0.00,0.00,30.09,M,10.00,M,CLR,M,M,M,M,M,M,M,M,M,M,M,M,M,M,68.00,KBAM 041315Z AUTO 00000KT 10SM CLR 20/10 A3009 RMK AO1,M
HTH,2022-08-04 13:15,-118.6315,38.5448,1282.89,66.20,57.20,72.74,0.00,0.00,0.00,30.09,M,10.00,M,CLR,M,M,M,M,M,M,M,M,M,M,M,M,M,M,66.20,KHTH 041315Z AUTO 00000KT 10SM CLR 19/14 A3009 RMK A01,M
05U,2022-08-04 13:15,-116.0051,39.6042,1811.23,M,M,M,M,M,0.00,M,M,M,M,M,M,M,M,M,M,M,M,M,M,M,M,M,M,M,M,K05U 041315Z AUTO RMK A01 PNO,M
RTS,2022-08-04 13:15,-119.8764,39.6682,1539.00,55.40,50.00,81.99,300.00,4.00,0.00,30.14,M,10.00,M,CLR,M,M,M,M,M,M,M,M,M,M,M,M,M,M,55.40,KRTS 041315Z AUTO 30004KT 10SM CLR 13/10 A3014 RMK AO2,M
BVU,2022-08-04 13:15,-114.8611,35.9475,671.00,86.00,64.40,48.58,20.00,4.00,0.00,29.86,M,M,M,M,M,M,M,M,M,M,M,M,M,M,M,M,M,M,87.49,KBVU 041315Z AUTO 02004KT 30/18 A2986 RMK AO2 PWINO TSNO,M
MEV,2022-08-04 13:15,-119.7500,38.9963,1441.42,53.60,46.40,76.50,0.00,0.00,0.00,30.12,M,10.00,M,CLR,M,M,M,M,M,M,M,M,M,M,M,M,M,M,53.60,KMEV 041315Z AUTO 00000KT 10SM CLR 12/08 A3012 RMK AO2,M
CXP,2022-08-04 13:15,-119.7326,39.1923,1431.00,62.60,50.00,63.38,0.00,0.00,0.00,30.13,M,10.00,M,CLR,M,M,M,M,M,M,M,M,M,M,M,M,M,M,62.60,KCXP 041315Z AUTO 00000KT 10SM CLR 17/10 A3013 RMK AO2,M
HTH,2022-08-04 13:35,-118.6315,38.5448,1282.89,66.20,55.40,68.15,230.00,3.00,0.00,30.09,M,10.00,M,CLR,M,M,M,M,M,M,M,M,M,M,M,M,M,M,66.20,KHTH 041335Z AUTO 23003KT 10SM CLR 19/13 A3009 RMK A01,M
RTS,2022-08-04 13:35,-119.8764,39.6682,1539.00,57.20,50.00,76.82,0.00,0.00,0.00,30.14,M,10.00,M,CLR,M,M,M,M,M,M,M,M,M,M,M,M,M,M,57.20,KRTS 041335Z AUTO 00000KT 10SM CLR 14/10 A3014 RMK AO2,M
05U,2022-08-04 13:35,-116.0051,39.6042,1811.23,M,M,M,M,M,0.00,M,M,M,M,M,M,M,M,M,M,M,M,M,M,M,M,M,M,M,M,K05U 041335Z AUTO RMK A01 PNO,M
MEV,2022-08-04 13:35,-119.7500,38.9963,1441.42,53.60,46.40,76.50,120.00,5.00,0.00,30.13,M,10.00,M,CLR,M,M,M,M,M,M,M,M,M,M,M,M,M,M,53.60,KMEV 041335Z AUTO 12005KT 10SM CLR 12/08 A3013 RMK AO2,M
BAM,2022-08-04 13:35,-116.8743,40.5990,1382.36,68.00,50.00,52.51,0.00,0.00,0.00,30.09,M,10.00,M,CLR,M,M,M,M,M,M,M,M,M,M,M,M,M,M,68.00,KBAM 041335Z AUTO 00000KT 10SM CLR 20/10 A3009 RMK AO1,M
TMT,2022-08-04 13:35,-117.1971,39.4643,1749.34,M,M,M,310.00,5.00,0.00,30.21,M,10.00,M,CLR,M,M,M,M,M,M,M,M,M,M,M,M,M,M,M,KTMT 041335Z AUTO 31005KT 10SM CLR A3021 RMK AO2,M
BVU,2022-08-04 13:35,-114.8611,35.9475,671.00,86.00,62.60,45.61,0.00,0.00,0.00,29.87,M,M,M,M,M,M,M,M,M,M,M,M,M,M,M,M,M,M,86.72,KBVU 041335Z AUTO 00000KT 30/17 A2987 RMK AO2 PWINO TSNO,M
CXP,2022-08-04 13:35,-119.7326,39.1923,1431.00,64.40,50.00,59.50,0.00,0.00,0.00,30.14,M,10.00,M,CLR,M,M,M,M,M,M,M,M,M,M,M,M,M,M,64.40,KCXP 041335Z AUTO 00000KT 10SM CLR 18/10 A3014 RMK AO2,M
DRA,2022-08-04 13:53,-116.0278,36.6206,1009.00,82.00,51.00,34.25,80.00,3.00,0.00,29.96,1008.70,10.00,M,CLR,M,M,M,M,M,M,M,M,M,M,M,M,M,M,80.85,KDRA 041353Z AUTO 08003KT 10SM CLR 28/11 A2996 RMK AO2 SLP087 T02780106,M
VGT,2022-08-04 13:53,-115.1933,36.2111,667.00,92.00,55.00,28.84,310.00,8.00,0.00,29.87,1009.60,10.00,M,CLR,M,M,M,M,M,M,M,M,M,M,M,M,M,M,89.92,KVGT 041353Z 31008KT 10SM CLR 33/13 A2987 RMK AO2 SLP096 T03330128,M
LOL,2022-08-04 13:53,-118.5701,40.0684,1192.43,66.00,51.00,58.62,110.00,4.00,0.00,30.04,1012.70,10.00,M,CLR,M,M,M,M,M,M,M,M,M,M,M,M,M,M,66.00,KLOL 041353Z AUTO 11004KT 10SM CLR 19/11 A3004 RMK AO2 SLP127 T01890106,M
ELY,2022-08-04 13:53,-114.8453,39.2950,1909.00,57.00,47.00,68.90,170.00,9.00,0.00,30.24,1014.00,10.00,M,CLR,M,M,M,M,M,M,M,M,M,M,M,M,M,M,57.00,KELY 041353Z AUTO 17009KT 10SM CLR 14/08 A3024 RMK AO2 SLP140 T01390083,M
TMT,2022-08-04 13:55,-117.1971,39.4643,1749.34,56.80,52.20,84.55,290.00,3.00,0.00,30.21,M,10.00,M,CLR,M,M,M,M,M,M,M,M,M,M,M,M,M,M,56.80,KTMT 041355Z AUTO 29003KT 10SM CLR 14/11 A3021 RMK AO2 T01380112,M
BVU,2022-08-04 13:55,-114.8611,35.9475,671.00,87.80,60.80,40.41,0.00,0.00,0.00,29.88,M,M,M,M,M,M,M,M,M,M,M,M,M,M,M,M,M,M,87.75,KBVU 041355Z AUTO 00000KT 31/16 A2988 RMK AO2 PWINO TSNO,M
RTS,2022-08-04 13:55,-119.8764,39.6682,1539.00,59.00,51.80,76.98,340.00,4.00,0.00,30.14,M,10.00,M,CLR,M,M,M,M,M,M,M,M,M,M,M,M,M,M,59.00,KRTS 041355Z AUTO 34004KT 10SM CLR 15/11 A3014 RMK AO2,M
MEV,2022-08-04 13:55,-119.7500,38.9963,1441.42,57.20,46.40,67.12,110.00,5.00,0.00,30.13,M,10.00,M,CLR,M,M,M,M,M,M,M,M,M,M,M,M,M,M,57.20,KMEV 041355Z AUTO 11005KT 10SM CLR 14/08 A3013 RMK AO2,M
05U,2022-08-04 13:55,-116.0051,39.6042,1811.23,M,M,M,M,M,0.00,M,M,M,M,M,M,M,M,M,M,M,M,M,M,M,M,M,M,M,M,K05U 041355Z AUTO RMK A01 PNO,M
RNO,2022-08-04 13:55,-119.7711,39.4839,1341.00,69.00,54.00,58.60,230.00,3.00,0.00,30.10,1013.10,10.00,M,FEW,M,M,M,12000.00,M,M,M,M,M,M,M,M,M,M,69.10,KRNO 041355Z 23003KT 10SM FEW120 21/12 A3010 RMK AO2 SLP131 T02060122 $,M
HTH,2022-08-04 13:55,-118.6315,38.5448,1282.89,68.00,55.40,64.04,0.00,0.00,0.00,30.10,M,10.00,M,CLR,M,M,M,M,M,M,M,M,M,M,M,M,M,M,68.00,KHTH 041355Z AUTO 00000KT 10SM CLR 20/13 A3010 RMK A01,M
CXP,2022-08-04 13:55,-119.7326,39.1923,1431.00,66.20,51.80,59.74,210.00,3.00,0.00,30.14,M,10.00,M,CLR,M,M,M,M,M,M,M,M,M,M,M,M,M,M,66.20,KCXP 041355Z AUTO 21003KT 10SM CLR 19/11 A3014 RMK AO2,M
BAM,2022-08-04 13:55,-116.8743,40.5990,1382.36,68.00,50.00,52.51,0.00,0.00,0.00,30.10,M,10.00,M,CLR,M,M,M,M,M,M,M,M,M,M,M,M,M,M,68.00,KBAM 041355Z AUTO 00000KT 10SM CLR 20/10 A3010 RMK AO1,M
EKO,2022-08-04 13:56,-115.7860,40.8242,1367.00,68.00,48.00,48.73,0.00,0.00,0.00,30.13,1013.90,10.00,M,CLR,M,M,M,M,M,M,M,M,M,M,M,M,M,M,68.00,KEKO 041356Z AUTO 00000KT 10SM CLR 20/09 A3013 RMK AO2 SLP139 T02000089,M
TPH,2022-08-04 13:56,-117.0904,38.0505,1654.00,65.00,57.00,75.56,10.00,11.00,0.00,30.18,1013.50,10.00,M,CLR,M,M,M,M,M,M,M,M,M,M,M,M,M,M,64.90,KTPH 041356Z AUTO 01011KT 10SM CLR 18/14 A3018 RMK AO2 SLP135 T01830139,M
LAS,2022-08-04 13:56,-115.1634,36.0719,663.00,91.00,56.00,30.65,50.00,4.00,0.00,29.88,1008.30,10.00,M,FEW,BKN,OVC,M,12000.00,15000.00,25000.00,M,M,M,M,M,M,M,M,89.27,KLAS 041356Z 05004KT 10SM FEW120 BKN150 OVC250 33/13 A2988 RMK AO2 SLP083 CB DSNT S ACC DSNT E-SE T03280133 $,M
HND,2022-08-04 13:56,-115.1344,35.9729,742.79,88.00,59.00,37.66,190.00,8.00,0.00,29.91,1010.80,10.00,M,CLR,M,M,M,M,M,M,M,M,M,M,M,M,M,M,87.31,KHND 041356Z 19008KT 10SM CLR 31/15 A2991 RMK AO2 SLP108 T03110150,M
NFL,2022-08-04 13:56,-118.7010,39.4166,1199.00,73.00,50.00,44.29,210.00,3.00,0.00,30.05,1014.40,10.00,M,CLR,M,M,M,M,M,M,M,M,M,M,M,M,M,M,73.00,KNFL 041356Z AUTO 21003KT 10SM CLR 23/10 A3005 RMK AO2 SLP144 T02280100,M
WMC,2022-08-04 13:56,-117.8072,40.9019,1315.00,73.00,50.00,44.29,210.00,5.00,0.00,30.06,1011.70,7.00,M,CLR,M,M,M,M,M,M,M,M,M,M,M,M,M,M,73.00,KWMC 041356Z AUTO 21005KT 7SM CLR 23/10 A3006 RMK AO2 SLP117 T02280100,M
LSV,2022-08-04 13:58,-115.0343,36.2362,570.00,89.20,56.30,32.90,0.00,0.00,0.00,29.84,1007.50,10.00,M,FEW,M,M,M,15000.00,M,M,M,M,M,M,M,M,M,M,87.64,KLSV 041358Z AUTO 00000KT 10SM FEW150 32/14 A2984 RMK AO2 SLP075 T03180135 $,M
INS,2022-08-04 13:58,-115.6733,36.5872,955.00,78.60,56.70,46.98,230.00,4.00,0.00,29.96,1009.10,10.00,M,FEW,M,M,M,19000.00,M,M,M,M,M,M,M,M,M,M,78.60,KINS 041358Z AUTO 23004KT 10SM FEW190 26/14 A2996 RMK AO2 SLP091 T02590137,M
BVU,2022-08-04 14:15,-114.8611,35.9475,671.00,87.80,62.60,43.07,60.00,4.00,0.00,29.89,M,M,M,M,M,M,M,M,M,M,M,M,M,M,M,M,M,M,88.48,KBVU 041415Z AUTO 06004KT 31/17 A2989 RMK AO2 PWINO TSNO,M
RTS,2022-08-04 14:15,-119.8764,39.6682,1539.00,60.80,53.60,77.14,0.00,0.00,0.00,30.15,M,10.00,M,CLR,M,M,M,M,M,M,M,M,M,M,M,M,M,M,60.80,KRTS 041415Z AUTO 00000KT 10SM CLR 16/12 A3015 RMK AO2,M
TMT,2022-08-04 14:15,-117.1971,39.4643,1749.34,M,M,M,0.00,0.00,0.00,30.22,M,10.00,M,CLR,M,M,M,M,M,M,M,M,M,M,M,M,M,M,M,KTMT 041415Z AUTO 00000KT 10SM CLR A3022 RMK AO2,M
MEV,2022-08-04 14:15,-119.7500,38.9963,1441.42,62.60,48.20,59.26,0.00,0.00,0.00,30.14,M,10.00,M,CLR,M,M,M,M,M,M,M,M,M,M,M,M,M,M,62.60,KMEV 041415Z AUTO 00000KT 10SM CLR 17/09 A3014 RMK AO2,M
05U,2022-08-04 14:15,-116.0051,39.6042,1811.23,M,M,M,M,M,0.00,M,M,M,M,M,M,M,M,M,M,M,M,M,M,M,M,M,M,M,M,K05U 041415Z AUTO RMK A01 PNO,M
HTH,2022-08-04 14:15,-118.6315,38.5448,1282.89,68.00,55.40,64.04,290.00,3.00,0.00,30.10,M,10.00,M,CLR,M,M,M,M,M,M,M,M,M,M,M,M,M,M,68.00,KHTH 041415Z AUTO 29003KT 10SM CLR 20/13 A3010 RMK A01,M
BAM,2022-08-04 14:15,-116.8743,40.5990,1382.36,69.80,50.00,49.37,0.00,0.00,0.00,30.11,M,10.00,M,CLR,M,M,M,M,M,M,M,M,M,M,M,M,M,M,69.80,KBAM 041415Z AUTO 00000KT 10SM CLR 21/10 A3011 RMK AO1,M
CXP,2022-08-04 14:15,-119.7326,39.1923,1431.00,66.20,50.00,55.88,0.00,0.00,0.00,30.15,M,10.00,M,CLR,M,M,M,M,M,M,M,M,M,M,M,M,M,M,66.20,KCXP 041415Z AUTO 00000KT 10SM CLR 19/10 A3015 RMK AO2,M
BVU,2022-08-04 14:35,-114.8611,35.9475,671.00,91.40,57.20,31.72,150.00,14.00,0.00,29.91,M,M,M,M,M,M,M,M,M,M,M,M,M,M,M,M,M,M,90.06,KBVU 041435Z AUTO 15014KT 33/14 A2991 RMK AO2 PWINO TSNO,M
CXP,2022-08-04 14:35,-119.7326,39.1923,1431.00,68.00,50.00,52.51,0.00,0.00,0.00,30.14,M,10.00,M,CLR,M,M,M,M,M,M,M,M,M,M,M,M,M,M,68.00,KCXP 041435Z AUTO 00000KT 10SM CLR 20/10 A3014 RMK AO2,M
RTS,2022-08-04 14:35,-119.8764,39.6682,1539.00,64.40,53.60,67.95,0.00,0.00,0.00,30.15,M,10.00,M,CLR,M,M,M,M,M,M,M,M,M,M,M,M,M,M,64.40,KRTS 041435Z AUTO 00000KT 10SM CLR 18/12 A3015 RMK AO2,M
05U,2022-08-04 14:35,-116.0051,39.6042,1811.23,M,M,M,M,M,0.00,M,M,M,M,M,M,M,M,M,M,M,M,M,M,M,M,M,M,M,M,K05U 041435Z AUTO RMK A01 PNO,M
MEV,2022-08-04 14:35,-119.7500,38.9963,1441.42,64.40,50.00,59.50,0.00,0.00,0.00,30.13,M,10.00,M,CLR,M,M,M,M,M,M,M,M,M,M,M,M,M,M,64.40,KMEV 041435Z AUTO 00000KT 10SM CLR 18/10 A3013 RMK AO2,M
BAM,2022-08-04 14:35,-116.8743,40.5990,1382.36,69.80,50.00,49.37,0.00,0.00,0.00,30.11,M,10.00,M,CLR,M,M,M,M,M,M,M,M,M,M,M,M,M,M,69.80,KBAM 041435Z AUTO 00000KT 10SM CLR 21/10 A3011 RMK AO1,M
HTH,2022-08-04 14:35,-118.6315,38.5448,1282.89,68.00,55.40,64.04,0.00,0.00,0.00,30.11,M,10.00,M,CLR,M,M,M,M,M,M,M,M,M,M,M,M,M,M,68.00,KHTH 041435Z AUTO 00000KT 10SM CLR 20/13 A3011 RMK A01,M
TMT,2022-08-04 14:35,-117.1971,39.4643,1749.34,M,M,M,200.00,3.00,0.00,30.22,M,10.00,M,CLR,M,M,M,M,M,M,M,M,M,M,M,M,M,M,M,KTMT 041435Z AUTO 20003KT 10SM CLR A3022 RMK AO2,M
NFL,2022-08-04 14:44,-118.7010,39.4166,1199.00,74.00,51.00,44.76,190.00,4.00,0.00,30.06,M,10.00,M,FEW,M,M,M,10000.00,M,M,M,M,M,M,M,M,M,M,73.90,KNFL 041444Z 19004KT 10SM FEW100 23/11 A3006 RMK AO2 T02330106,M
VGT,2022-08-04 14:53,-115.1933,36.2111,667.00,93.00,56.00,28.79,330.00,6.00,0.00,29.88,1010.20,10.00,M,CLR,M,M,M,M,M,M,M,M,M,M,M,M,M,M,91.29,KVGT 041453Z 33006KT 10SM CLR 34/13 A2988 RMK AO2 SLP102 T03390133 53015,M
LOL,2022-08-04 14:53,-118.5701,40.0684,1192.43,75.00,53.00,46.44,0.00,0.00,0.00,30.05,1012.70,10.00,M,CLR,M,M,M,M,M,M,M,M,M,M,M,M,M,M,75.00,KLOL 041453Z AUTO 00000KT 10SM CLR 24/12 A3005 RMK AO2 SLP127 T02390117 53005,M
ELY,2022-08-04 14:53,-114.8453,39.2950,1909.00,67.00,49.00,52.35,180.00,6.00,0.00,30.24,1013.40,10.00,M,CLR,M,M,M,M,M,M,M,M,M,M,M,M,M,M,66.90,KELY 041453Z AUTO 18006KT 10SM CLR 19/09 A3024 RMK AO2 SLP134 T01940094 51007,M
DRA,2022-08-04 14:53,-116.0278,36.6206,1009.00,83.00,52.00,34.39,0.00,0.00,0.00,29.98,1009.30,10.00,M,CLR,M,M,M,M,M,M,M,M,M,M,M,M,M,M,81.57,KDRA 041453Z AUTO 00000KT 10SM CLR 28/11 A2998 RMK AO2 SLP093 T02830111 52012,M
RTS,2022-08-04 14:55,-119.8764,39.6682,1539.00,66.20,51.80,59.74,0.00,0.00,0.00,30.15,M,10.00,M,CLR,M,M,M,M,M,M,M,M,M,M,M,M,M,M,66.20,KRTS 041455Z AUTO 00000KT 10SM CLR 19/11 A3015 RMK AO2,M
05U,2022-08-04 14:55,-116.0051,39.6042,1811.23,M,M,M,M,M,0.00,M,M,M,M,M,M,M,M,M,M,M,M,M,M,M,M,M,M,M,M,K05U 041455Z AUTO RMK A01 PNO,M
MEV,2022-08-04 14:55,-119.7500,38.9963,1441.42,66.20,50.00,55.88,0.00,0.00,0.00,30.14,M,10.00,M,CLR,M,M,M,M,M,M,M,M,M,M,M,M,M,M,66.20,KMEV 041455Z AUTO 00000KT 10SM CLR 19/10 A3014 RMK AO2,M
BAM,2022-08-04 14:55,-116.8743,40.5990,1382.36,71.60,50.00,46.43,0.00,0.00,0.00,30.11,M,10.00,M,CLR,M,M,M,M,M,M,M,M,M,M,M,M,M,M,71.60,KBAM 041455Z AUTO 00000KT 10SM CLR 22/10 A3011 RMK AO1,M
HTH,2022-08-04 14:55,-118.6315,38.5448,1282.89,68.00,55.40,64.04,0.00,0.00,0.00,30.11,M,10.00,M,CLR,M,M,M,M,M,M,M,M,M,M,M,M,M,M,68.00,KHTH 041455Z AUTO 00000KT 10SM CLR 20/13 A3011 RMK A01,M
TMT,2022-08-04 14:55,-117.1971,39.4643,1749.34,M,M,M,210.00,4.00,0.00,30.22,M,10.00,M,CLR,M,M,M,M,M,M,M,M,M,M,M,M,M,M,M,KTMT 041455Z AUTO 21004KT 10SM CLR A3022 RMK AO2,M
BVU,2022-08-04 14:55,-114.8611,35.9475,671.00,89.60,59.00,35.81,160.00,16.00,0.00,29.91,M,M,22.00,M,M,M,M,M,M,M,M,M,M,M,M,M,M,M,88.86,KBVU 041455Z AUTO 16016G22KT 32/15 A2991 RMK AO2 PWINO TSNO,M
CXP,2022-08-04 14:55,-119.7326,39.1923,1431.00,68.00,50.00,52.51,280.00,3.00,0.00,30.15,M,10.00,M,CLR,M,M,M,M,M,M,M,M,M,M,M,M,M,M,68.00,KCXP 041455Z AUTO 28003KT 10SM CLR 20/10 A3015 RMK AO2,M
RNO,2022-08-04 14:55,-119.7711,39.4839,1341.00,74.00,54.00,49.79,260.00,3.00,0.00,30.10,1013.90,10.00,M,FEW,M,M,M,12000.00,M,M,M,M,M,M,M,M,M,M,73.90,KRNO 041455Z 26003KT 10SM FEW120 23/12 A3010 RMK AO2 SLP139 T02330122 53004 $,M
HND,2022-08-04 14:56,-115.1344,35.9729,742.79,89.00,59.00,36.37,150.00,6.00,0.00,29.95,1012.00,10.00,M,FEW,M,M,M,12000.00,M,M,M,M,M,M,M,M,M,M,88.37,KHND 041456Z 15006KT 10SM FEW120 32/15 A2995 RMK AO2 LTG DSNT SE SLP120 T03170150 53016,M
WMC,2022-08-04 14:56,-117.8072,40.9019,1315.00,79.00,51.00,37.78,180.00,12.00,0.00,30.07,1012.00,10.00,M,CLR,M,M,M,M,M,M,M,M,M,M,M,M,M,M,79.00,KWMC 041456Z AUTO 18012KT 10SM CLR 26/11 A3007 RMK AO2 SLP120 T02610106 53008,M
NFL,2022-08-04 14:56,-118.7010,39.4166,1199.00,75.00,50.00,41.41,190.00,3.00,0.00,30.06,1014.80,10.00,M,FEW,M,M,M,10000.00,M,M,M,M,M,M,M,M,M,M,75.00,KNFL 041456Z 19003KT 10SM FEW100 24/10 A3006 RMK AO2 SLP148 T02390100 53007,M
LAS,2022-08-04 14:56,-115.1634,36.0719,663.00,90.00,59.00,35.36,160.00,3.00,0.00,29.90,1009.10,10.00,M,FEW,BKN,OVC,M,12000.00,15000.00,25000.00,M,M,M,M,M,M,M,M,89.26,KLAS 041456Z 16003KT 10SM FEW120 BKN150 OVC250 32/15 A2990 RMK AO2 SLP091 VIRGA DSNT SE ACC DSNT NE-E T03220150 53016 $,M
EKO,2022-08-04 14:56,-115.7860,40.8242,1367.00,67.00,50.00,54.54,0.00,0.00,0.00,30.14,1014.70,10.00,M,FEW,M,M,M,11000.00,M,M,M,M,M,M,M,M,M,M,66.90,KEKO 041456Z AUTO 00000KT 10SM FEW110 19/10 A3014 RMK AO2 SLP147 T01940100 53008,M
TPH,2022-08-04 14:56,-117.0904,38.0505,1654.00,69.00,57.00,65.35,360.00,8.00,0.00,30.18,1013.90,10.00,M,CLR,M,M,M,M,M,M,M,M,M,M,M,M,M,M,69.10,KTPH 041456Z AUTO 36008KT 10SM CLR 21/14 A3018 RMK AO2 SLP139 T02060139 52009,M
INS,2022-08-04 14:58,-115.6733,36.5872,955.00,80.60,58.50,46.94,0.00,0.00,0.00,29.97,1009.60,10.00,M,CLR,M,M,M,M,M,M,M,M,M,M,M,M,M,M,81.02,KINS 041458Z AUTO 00000KT 10SM CLR 27/15 A2997 RMK AO2 SLP096 T02700147 52010,M
LSV,2022-08-04 14:58,-115.0343,36.2362,570.00,90.50,59.00,34.81,80.00,4.00,0.00,29.86,M,10.00,M,SCT,M,M,M,14000.00,M,M,M,M,M,M,M,M,M,M,89.76,KLSV 041458Z AUTO 08004KT 10SM SCT140 33/15 A2986 RMK AO2 SLPNO T03250150 $,M
HTH,2022-08-04 15:15,-118.6315,38.5448,1282.89,69.80,55.40,60.21,0.00,0.00,0.00,30.11,M,10.00,M,CLR,M,M,M,M,M,M,M,M,M,M,M,M,M,M,69.80,KHTH 041515Z AUTO 00000KT 10SM CLR 21/13 A3011 RMK A01,M
BVU,2022-08-04 15:15,-114.8611,35.9475,671.00,89.60,59.00,35.81,170.00,19.00,0.00,29.93,M,M,26.00,M,M,M,M,M,M,M,M,M,M,M,M,M,M,M,88.86,KBVU 041515Z AUTO 17019G26KT 32/15 A2993 RMK AO2 PWINO TSNO,M
CXP,2022-08-04 15:15,-119.7326,39.1923,1431.00,69.80,50.00,49.37,280.00,4.00,0.00,30.14,M,9.00,M,CLR,M,M,M,M,M,M,M,M,M,M,M,M,M,M,69.80,KCXP 041515Z AUTO 28004KT 9SM CLR 21/10 A3014 RMK AO2,M
RTS,2022-08-04 15:15,-119.8764,39.6682,1539.00,68.00,55.40,64.04,0.00,0.00,0.00,30.16,M,10.00,M,CLR,M,M,M,M,M,M,M,M,M,M,M,M,M,M,68.00,KRTS 041515Z AUTO 00000KT 10SM CLR 20/13 A3016 RMK AO2,M
05U,2022-08-04 15:15,-116.0051,39.6042,1811.23,M,M,M,M,M,0.00,M,M,M,M,M,M,M,M,M,M,M,M,M,M,M,M,M,M,M,M,K05U 041515Z AUTO RMK A01 PNO,M
MEV,2022-08-04 15:15,-119.7500,38.9963,1441.42,69.80,50.00,49.37,0.00,0.00,0.00,30.14,M,10.00,M,CLR,M,M,M,M,M,M,M,M,M,M,M,M,M,M,69.80,KMEV 041515Z AUTO 00000KT 10SM CLR 21/10 A3014 RMK AO2,M
BAM,2022-08-04 15:15,-116.8743,40.5990,1382.36,73.40,51.80,46.71,0.00,0.00,0.00,30.12,M,10.00,M,SCT,M,M,M,12000.00,M,M,M,M,M,M,M,M,M,M,73.40,KBAM 041515Z AUTO 00000KT 10SM SCT120 23/11 A3012 RMK AO1,M
TMT,2022-08-04 15:15,-117.1971,39.4643,1749.34,M,M,M,0.00,0.00,0.00,30.22,M,10.00,M,CLR,M,M,M,M,M,M,M,M,M,M,M,M,M,M,M,KTMT 041515Z AUTO 00000KT 10SM CLR A3022 RMK AO2,M
05U,2022-08-04 15:30,-116.0051,39.6042,1811.23,M,M,M,M,M,0.00,M,M,M,M,M,M,M,M,M,M,M,M,M,M,M,M,M,M,M,M,K05U 041530Z AUTO RMK A01 PNO,M
HND,2022-08-04 15:32,-115.1344,35.9729,742.79,87.80,59.00,37.90,220.00,13.00,0.00,29.97,M,10.00,M,BKN,M,M,M,12000.00,M,M,M,M,M,M,M,M,M,M,87.12,KHND 041532Z 22013KT 10SM BKN120 31/15 A2997 RMK AO2 WSHFT 1512 LTG DSNT SW,M
BVU,2022-08-04 15:35,-114.8611,35.9475,671.00,87.80,62.60,43.07,170.00,19.00,0.00,29.95,M,M,27.00,M,M,M,M,M,M,M,M,M,M,M,M,M,M,M,88.48,KBVU 041535Z AUTO 17019G27KT 31/17 A2995 RMK AO2 PWINO TSNO,M
MEV,2022-08-04 15:35,-119.7500,38.9963,1441.42,71.60,50.00,46.43,0.00,0.00,0.00,30.13,M,10.00,M,CLR,M,M,M,M,M,M,M,M,M,M,M,M,M,M,71.60,KMEV 041535Z AUTO 00000KT 10SM CLR 22/10 A3013 RMK AO2,M
RTS,2022-08-04 15:35,-119.8764,39.6682,1539.00,69.80,53.60,56.38,0.00,0.00,0.00,30.16,M,10.00,M,CLR,M,M,M,M,M,M,M,M,M,M,M,M,M,M,69.80,KRTS 041535Z AUTO 00000KT 10SM CLR 21/12 A3016 RMK AO2,M
CXP,2022-08-04 15:35,-119.7326,39.1923,1431.00,71.60,50.00,46.43,0.00,0.00,0.00,30.14,M,10.00,M,CLR,M,M,M,M,M,M,M,M,M,M,M,M,M,M,71.60,KCXP 041535Z AUTO 00000KT 10SM CLR 22/10 A3014 RMK AO2,M
BAM,2022-08-04 15:35,-116.8743,40.5990,1382.36,73.40,50.00,43.69,0.00,0.00,0.00,30.12,M,10.00,M,SCT,M,M,M,12000.00,M,M,M,M,M,M,M,M,M,M,73.40,KBAM 041535Z AUTO 00000KT 10SM SCT120 23/10 A3012 RMK AO1,M
HTH,2022-08-04 15:35,-118.6315,38.5448,1282.89,71.60,55.40,56.63,0.00,0.00,0.00,30.11,M,10.00,M,CLR,M,M,M,M,M,M,M,M,M,M,M,M,M,M,71.60,KHTH 041535Z AUTO 00000KT 10SM CLR 22/13 A3011 RMK A01,M
TMT,2022-08-04 15:35,-117.1971,39.4643,1749.34,M,M,M,210.00,6.00,0.00,30.22,M,10.00,M,CLR,M,M,M,M,M,M,M,M,M,M,M,M,M,M,M,KTMT 041535Z AUTO 21006KT 10SM CLR A3022 RMK AO2,M
LOL,2022-08-04 15:53,-118.5701,40.0684,1192.43,81.00,53.00,38.09,M,3.00,0.00,30.05,1012.90,10.00,M,CLR,M,M,M,M,M,M,M,M,M,M,M,M,M,M,80.47,KLOL 041553Z AUTO VRB03KT 10SM CLR 27/12 A3005 RMK AO2 SLP129 T02720117,M
ELY,2022-08-04 15:53,-114.8453,39.2950,1909.00,74.00,47.00,38.26,190.00,5.00,0.00,30.24,1012.90,10.00,M,CLR,M,M,M,M,M,M,M,M,M,M,M,M,M,M,73.90,KELY 041553Z AUTO 19005KT 10SM CLR 23/08 A3024 RMK AO2 SLP129 T02330083,M
VGT,2022-08-04 15:53,-115.1933,36.2111,667.00,94.00,56.00,28.00,200.00,7.00,0.00,29.92,1011.30,10.00,M,CLR,M,M,M,M,M,M,M,M,M,M,M,M,M,M,92.22,KVGT 041553Z 20007KT 10SM CLR 34/13 A2992 RMK AO2 SLP113 T03440133,M
DRA,2022-08-04 15:53,-116.0278,36.6206,1009.00,90.00,52.00,27.42,250.00,3.00,0.00,29.98,1009.30,10.00,M,CLR,M,M,M,M,M,M,M,M,M,M,M,M,M,M,87.40,KDRA 041553Z AUTO 25003KT 10SM CLR 32/11 A2998 RMK AO2 SLP093 T03220111,M
TMT,2022-08-04 15:55,-117.1971,39.4643,1749.34,M,M,M,210.00,5.00,0.00,30.22,M,10.00,M,CLR,M,M,M,M,M,M,M,M,M,M,M,M,M,M,M,KTMT 041555Z AUTO 21005KT 10SM CLR A3022 RMK AO2,M
MEV,2022-08-04 15:55,-119.7500,38.9963,1441.42,73.40,50.00,43.69,0.00,0.00,0.00,30.13,M,10.00,M,CLR,M,M,M,M,M,M,M,M,M,M,M,M,M,M,73.40,KMEV 041555Z AUTO 00000KT 10SM CLR 23/10 A3013 RMK AO2,M
05U,2022-08-04 15:55,-116.0051,39.6042,1811.23,M,M,M,M,M,0.00,M,M,M,M,M,M,M,M,M,M,M,M,M,M,M,M,M,M,M,M,K05U 041555Z AUTO RMK A01 PNO,M
RTS,2022-08-04 15:55,-119.8764,39.6682,1539.00,71.60,55.40,56.63,0.00,0.00,0.00,30.16,M,10.00,M,CLR,M,M,M,M,M,M,M,M,M,M,M,M,M,M,71.60,KRTS 041555Z AUTO 00000KT 10SM CLR 22/13 A3016 RMK AO2,M
RNO,2022-08-04 15:55,-119.7711,39.4839,1341.00,77.00,55.00,46.57,0.00,0.00,0.00,30.11,1013.40,10.00,M,FEW,M,M,M,11000.00,M,M,M,M,M,M,M,M,M,M,77.00,KRNO 041555Z 00000KT 10SM FEW110 25/13 A3011 RMK AO2 SLP134 T02500128,M
CXP,2022-08-04 15:55,-119.7326,39.1923,1431.00,73.40,51.80,46.71,290.00,3.00,0.00,30.14,M,10.00,M,CLR,M,M,M,M,M,M,M,M,M,M,M,M,M,M,73.40,KCXP 041555Z AUTO 29003KT 10SM CLR 23/11 A3014 RMK AO2,M
BVU,2022-08-04 15:55,-114.8611,35.9475,671.00,87.80,60.80,40.41,190.00,14.00,0.00,29.96,M,M,28.00,M,M,M,M,M,M,M,M,M,M,M,M,M,M,M,87.75,KBVU 041555Z AUTO 19014G28KT 31/16 A2996 RMK AO2 PWINO TSNO,M
HTH,2022-08-04 15:55,-118.6315,38.5448,1282.89,73.40,57.20,56.88,0.00,0.00,0.00,30.11,M,10.00,M,CLR,M,M,M,M,M,M,M,M,M,M,M,M,M,M,73.40,KHTH 041555Z AUTO 00000KT 10SM CLR 23/14 A3011 RMK A01,M
BAM,2022-08-04 15:55,-116.8743,40.5990,1382.36,75.20,51.80,43.97,0.00,0.00,0.00,30.12,M,10.00,M,CLR,M,M,M,M,M,M,M,M,M,M,M,M,M,M,75.20,KBAM 041555Z AUTO 00000KT 10SM CLR 24/11 A3012 RMK AO1,M
NFL,2022-08-04 15:56,-118.7010,39.4166,1199.00,83.00,51.00,33.27,190.00,5.00,0.00,30.06,1014.80,10.00,M,CLR,M,M,M,M,M,M,M,M,M,M,M,M,M,M,81.45,KNFL 041556Z 19005KT 10SM CLR 28/11 A3006 RMK AO2 SLP148 T02830106,M
WMC,2022-08-04 15:56,-117.8072,40.9019,1315.00,83.00,51.00,33.27,180.00,8.00,0.00,30.07,1012.70,10.00,M,CLR,M,M,M,M,M,M,M,M,M,M,M,M,M,M,81.45,KWMC 041556Z AUTO 18008KT 10SM CLR 28/11 A3007 RMK AO2 SLP127 T02830106,M
HND,2022-08-04 15:56,-115.1344,35.9729,742.79,88.00,61.00,40.44,210.00,14.00,0.00,29.97,1013.00,10.00,M,SCT,M,M,M,12000.00,M,M,M,M,M,M,M,M,M,M,88.02,KHND 041556Z 21014KT 10SM SCT120 31/16 A2997 RMK AO2 WSHFT 1512 LTG DSNT SW SLP130 T03110161,M
LAS,2022-08-04 15:56,-115.1634,36.0719,663.00,89.00,58.00,34.97,190.00,12.00,0.00,29.93,1010.30,10.00,22.00,SCT,BKN,OVC,M,12000.00,15000.00,25000.00,M,M,M,M,M,M,M,M,88.01,KLAS 041556Z 19012G22KT 10SM SCT120 BKN150 OVC250 32/14 A2993 RMK AO2 SLP103 VIRGA DSNT NE-SE T03170144,M
EKO,2022-08-04 15:56,-115.7860,40.8242,1367.00,74.00,48.00,39.87,230.00,4.00,0.00,30.15,1014.60,10.00,M,CLR,M,M,M,M,M,M,M,M,M,M,M,M,M,M,73.90,KEKO 041556Z AUTO 23004KT 10SM CLR 23/09 A3015 RMK AO2 SLP146 T02330089,M
TPH,2022-08-04 15:56,-117.0904,38.0505,1654.00,75.00,55.00,49.78,30.00,7.00,0.00,30.18,1013.60,10.00,M,CLR,M,M,M,M,M,M,M,M,M,M,M,M,M,M,75.00,KTPH 041556Z AUTO 03007KT 10SM CLR 24/13 A3018 RMK AO2 SLP136 T02390128,M
LSV,2022-08-04 15:58,-115.0343,36.2362,570.00,93.20,58.80,31.77,150.00,10.00,0.00,29.90,M,10.00,M,BKN,M,M,M,11000.00,M,M,M,M,M,M,M,M,M,M,92.49,KLSV 041558Z AUTO 15010KT 10SM BKN110 34/15 A2990 RMK AO2 SLPNO T03400149 $,M
INS,2022-08-04 15:58,-115.6733,36.5872,955.00,84.60,53.80,34.78,0.00,0.00,0.00,29.97,1009.40,10.00,M,BKN,BKN,M,M,14000.00,17000.00,M,M,M,M,M,M,M,M,M,83.10,KINS 041558Z AUTO 00000KT 10SM BKN140 BKN170 29/12 A2997 RMK AO2 SLP094 T02920121,M
RTS,2022-08-04 16:15,-119.8764,39.6682,1539.00,73.40,55.40,53.29,0.00,0.00,0.00,30.16,M,10.00,M,CLR,M,M,M,M,M,M,M,M,M,M,M,M,M,M,73.40,KRTS 041615Z AUTO 00000KT 10SM CLR 23/13 A3016 RMK AO2,M
TMT,2022-08-04 16:15,-117.1971,39.4643,1749.34,M,M,M,230.00,3.00,0.00,30.21,M,10.00,M,CLR,M,M,M,M,M,M,M,M,M,M,M,M,M,M,M,KTMT 041615Z AUTO 23003KT 10SM CLR A3021 RMK AO2,M
05U,2022-08-04 16:15,-116.0051,39.6042,1811.23,M,M,M,M,M,0.00,M,M,M,M,M,M,M,M,M,M,M,M,M,M,M,M,M,M,M,M,K05U 041615Z AUTO RMK A01 PNO,M
MEV,2022-08-04 16:15,-119.7500,38.9963,1441.42,75.20,50.00,41.14,0.00,0.00,0.00,30.12,M,10.00,M,CLR,M,M,M,M,M,M,M,M,M,M,M,M,M,M,75.20,KMEV 041615Z AUTO 00000KT 10SM CLR 24/10 A3012 RMK AO2,M
HTH,2022-08-04 16:15,-118.6315,38.5448,1282.89,75.20,55.40,50.17,0.00,0.00,0.00,30.10,M,10.00,M,CLR,M,M,M,M,M,M,M,M,M,M,M,M,M,M,75.20,KHTH 041615Z AUTO 00000KT 10SM CLR 24/13 A3010 RMK A01,M
BAM,2022-08-04 16:15,-116.8743,40.5990,1382.36,77.00,50.00,38.74,0.00,0.00,0.00,30.11,M,10.00,M,CLR,M,M,M,M,M,M,M,M,M,M,M,M,M,M,77.00,KBAM 041615Z AUTO 00000KT 10SM CLR 25/10 A3011 RMK AO1,M
BVU,2022-08-04 16:15,-114.8611,35.9475,671.00,87.80,59.00,37.90,190.00,15.00,0.00,29.96,M,M,25.00,M,M,M,M,M,M,M,M,M,M,M,M,M,M,M,87.12,KBVU 041615Z AUTO 19015G25KT 31/15 A2996 RMK AO2 PWINO TSNO,M
CXP,2022-08-04 16:15,-119.7326,39.1923,1431.00,75.20,51.80,43.97,0.00,0.00,0.00,30.14,M,10.00,M,CLR,M,M,M,M,M,M,M,M,M,M,M,M,M,M,75.20,KCXP 041615Z AUTO 00000KT 10SM CLR 24/11 A3014 RMK AO2,M
TMT,2022-08-04 16:35,-117.1971,39.4643,1749.34,M,M,M,0.00,0.00,0.00,30.21,M,10.00,M,CLR,M,M,M,M,M,M,M,M,M,M,M,M,M,M,M,KTMT 041635Z AUTO 00000KT 10SM CLR A3021 RMK AO2 LTG DSNT NE,M
MEV,2022-08-04 16:35,-119.7500,38.9963,1441.42,77.00,51.80,41.42,0.00,0.00,0.00,30.12,M,10.00,M,CLR,M,M,M,M,M,M,M,M,M,M,M,M,M,M,77.00,KMEV 041635Z AUTO 00000KT 10SM CLR 25/11 A3012 RMK AO2,M
RTS,2022-08-04 16:35,-119.8764,39.6682,1539.00,75.20,53.60,46.98,0.00,0.00,0.00,30.15,M,10.00,M,CLR,M,M,M,M,M,M,M,M,M,M,M,M,M,M,75.20,KRTS 041635Z AUTO 00000KT 10SM CLR 24/12 A3015 RMK AO2,M
CXP,2022-08-04 16:35,-119.7326,39.1923,1431.00,77.00,50.00,38.74,280.00,5.00,0.00,30.13,M,10.00,M,CLR,M,M,M,M,M,M,M,M,M,M,M,M,M,M,77.00,KCXP 041635Z AUTO 28005KT 10SM CLR 25/10 A3013 RMK AO2,M
BVU,2022-08-04 16:35,-114.8611,35.9475,671.00,87.80,60.80,40.41,210.00,12.00,0.00,29.97,M,M,19.00,M,M,M,M,M,M,M,M,M,M,M,M,M,M,M,87.75,KBVU 041635Z AUTO 21012G19KT 31/16 A2997 RMK AO2 PWINO TSNO,M
BAM,2022-08-04 16:35,-116.8743,40.5990,1382.36,78.80,51.80,39.02,30.00,3.00,0.00,30.11,M,10.00,M,CLR,M,M,M,M,M,M,M,M,M,M,M,M,M,M,78.80,KBAM 041635Z AUTO 03003KT 10SM CLR 26/11 A3011 RMK AO1,M
05U,2022-08-04 16:35,-116.0051,39.6042,1811.23,M,M,M,M,M,0.00,M,M,M,M,M,M,M,M,M,M,M,M,M,M,M,M,M,M,M,M,K05U 041635Z AUTO RMK A01 PNO,M
HTH,2022-08-04 16:35,-118.6315,38.5448,1282.89,77.00,55.40,47.25,0.00,0.00,0.00,30.10,M,10.00,M,CLR,M,M,M,M,M,M,M,M,M,M,M,M,M,M,77.00,KHTH 041635Z AUTO 00000KT 10SM CLR 25/13 A3010 RMK A01,M
VGT,2022-08-04 16:53,-115.1933,36.2111,667.00,91.00,58.00,32.94,170.00,13.00,0.00,29.93,1011.90,10.00,M,FEW,M,M,M,11000.00,M,M,M,M,M,M,M,M,M,M,89.88,KVGT 041653Z 17013KT 10SM FEW110 33/14 A2993 RMK AO2 SLP119 T03280144,M
LOL,2022-08-04 16:53,-118.5701,40.0684,1192.43,85.00,52.00,32.24,220.00,5.00,0.00,30.05,1012.20,10.00,M,CLR,M,M,M,M,M,M,M,M,M,M,M,M,M,M,83.03,KLOL 041653Z AUTO 22005KT 10SM CLR 29/11 A3005 RMK AO2 SLP122 T02940111,M
ELY,2022-08-04 16:53,-114.8453,39.2950,1909.00,80.00,46.00,30.11,0.00,0.00,0.00,30.22,1012.00,10.00,M,CLR,M,M,M,M,M,M,M,M,M,M,M,M,M,M,79.26,KELY 041653Z AUTO 00000KT 10SM CLR 27/08 A3022 RMK AO2 SLP120 T02670078,M
DRA,2022-08-04 16:53,-116.0278,36.6206,1009.00,92.00,51.00,24.99,0.00,0.00,0.00,29.98,1009.30,10.00,M,CLR,M,M,M,M,M,M,M,M,M,M,M,M,M,M,89.04,KDRA 041653Z AUTO 00000KT 10SM CLR 33/11 A2998 RMK AO2 SLP093 T03330106,M
05U,2022-08-04 16:55,-116.0051,39.6042,1811.23,M,M,M,M,M,0.00,M,M,M,M,M,M,M,M,M,M,M,M,M,M,M,M,M,M,M,M,K05U 041655Z AUTO RMK A01 PNO,M
MEV,2022-08-04 16:55,-119.7500,38.9963,1441.42,77.00,50.00,38.74,0.00,0.00,0.00,30.12,M,10.00,M,CLR,M,M,M,M,M,M,M,M,M,M,M,M,M,M,77.00,KMEV 041655Z AUTO 00000KT 10SM CLR 25/10 A3012 RMK AO2,M
BAM,2022-08-04 16:55,-116.8743,40.5990,1382.36,80.60,50.00,34.41,40.00,3.00,0.00,30.11,M,10.00,M,CLR,M,M,M,M,M,M,M,M,M,M,M,M,M,M,79.88,KBAM 041655Z AUTO 04003KT 10SM CLR 27/10 A3011 RMK AO1,M
HTH,2022-08-04 16:55,-118.6315,38.5448,1282.89,77.00,55.40,47.25,0.00,0.00,0.00,30.09,M,10.00,M,CLR,M,M,M,M,M,M,M,M,M,M,M,M,M,M,77.00,KHTH 041655Z AUTO 00000KT 10SM CLR 25/13 A3009 RMK A01,M
CXP,2022-08-04 16:55,-119.7326,39.1923,1431.00,78.80,50.00,36.51,0.00,0.00,0.00,30.12,M,10.00,M,CLR,M,M,M,M,M,M,M,M,M,M,M,M,M,M,78.80,KCXP 041655Z AUTO 00000KT 10SM CLR 26/10 A3012 RMK AO2,M
BVU,2022-08-04 16:55,-114.8611,35.9475,671.00,87.80,59.00,37.90,210.00,14.00,0.00,29.96,M,M,M,M,M,M,M,M,M,M,M,M,M,M,M,M,M,M,87.12,KBVU 041655Z AUTO 21014KT 31/15 A2996 RMK AO2 PWINO TSNO,M
RTS,2022-08-04 16:55,-119.8764,39.6682,1539.00,77.00,53.60,44.25,0.00,0.00,0.00,30.15,M,10.00,M,CLR,M,M,M,M,M,M,M,M,M,M,M,M,M,M,77.00,KRTS 041655Z AUTO 00000KT 10SM CLR 25/12 A3015 RMK AO2,M
TMT,2022-08-04 16:55,-117.1971,39.4643,1749.34,M,M,M,0.00,0.00,0.00,30.20,M,10.00,M,CLR,M,M,M,M,M,M,M,M,M,M,M,M,M,M,M,KTMT 041655Z AUTO 00000KT 10SM CLR A3020 RMK AO2,M
RNO,2022-08-04 16:55,-119.7711,39.4839,1341.00,80.00,55.00,42.05,M,3.00,0.00,30.10,1013.00,10.00,M,FEW,M,M,M,9000.00,M,M,M,M,M,M,M,M,M,M,80.17,KRNO 041655Z VRB03KT 10SM FEW090 27/13 A3010 RMK AO2 SLP130 T02670128,M
EKO,2022-08-04 16:56,-115.7860,40.8242,1367.00,77.00,50.00,38.74,M,3.00,0.00,30.15,1014.50,10.00,M,CLR,M,M,M,M,M,M,M,M,M,M,M,M,M,M,77.00,KEKO 041656Z AUTO VRB03KT 10SM CLR 25/10 A3015 RMK AO2 SLP145 T02500100,M
TPH,2022-08-04 16:56,-117.0904,38.0505,1654.00,82.00,52.00,35.41,40.00,4.00,0.00,30.17,1013.30,10.00,M,CLR,M,M,M,M,M,M,M,M,M,M,M,M,M,M,80.97,KTPH 041656Z AUTO 04004KT 10SM CLR 28/11 A3017 RMK AO2 SLP133 T02780111,M
NFL,2022-08-04 16:56,-118.7010,39.4166,1199.00,85.00,50.00,29.94,190.00,6.00,0.00,30.05,1014.40,10.00,M,SCT,M,M,M,20000.00,M,M,M,M,M,M,M,M,M,M,82.76,KNFL 041656Z 19006KT 10SM SCT200 29/10 A3005 RMK AO2 SLP144 T02940100,M
WMC,2022-08-04 16:56,-117.8072,40.9019,1315.00,87.00,51.00,29.07,M,4.00,0.00,30.06,1012.30,10.00,M,CLR,M,M,M,M,M,M,M,M,M,M,M,M,M,M,84.67,KWMC 041656Z AUTO VRB04KT 10SM CLR 31/11 A3006 RMK AO2 SLP123 T03060106,M
HND,2022-08-04 16:56,-115.1344,35.9729,742.79,85.00,60.00,43.24,220.00,20.00,0.00,29.98,1013.50,10.00,25.00,BKN,M,M,M,11000.00,M,M,M,M,M,M,M,M,M,M,84.83,KHND 041656Z 22020G25KT 10SM BKN110 29/16 A2998 RMK AO2 LTG DSNT S SLP135 T02940156,M
LAS,2022-08-04 16:56,-115.1634,36.0719,663.00,89.00,57.00,33.85,200.00,8.00,0.00,29.94,1010.70,10.00,21.00,FEW,SCT,BKN,OVC,10000.00,12000.00,15000.00,25000.00,M,M,M,M,26.00,190.00,2022-08-04 16:43,87.74,KLAS 041656Z 20008G21KT 10SM FEW100 SCT120 BKN150 OVC250 32/14 A2994 RMK AO2 PK WND 19026/1643 SLP107 VIRGA DSNT N T03170139,M
INS,2022-08-04 16:58,-115.6733,36.5872,955.00,88.30,52.00,28.93,140.00,7.00,0.00,29.99,1010.10,10.00,M,BKN,M,M,M,12000.00,M,M,M,M,M,M,M,M,M,M,85.86,KINS 041658Z AUTO 14007KT 10SM BKN120 31/11 A2999 RMK AO2 SLP101 T03130111,M
LSV,2022-08-04 16:58,-115.0343,36.2362,570.00,92.00,61.20,36.03,180.00,11.00,0.00,29.91,M,10.00,M,FEW,M,M,M,18000.00,M,M,M,M,M,M,M,M,M,M,92.10,KLSV 041658Z AUTO 18011KT 10SM FEW180 33/16 A2991 RMK AO2 SLPNO T03330162 $,M
HTH,2022-08-04 17:15,-118.6315,38.5448,1282.89,78.80,53.60,41.69,0.00,0.00,0.00,30.09,M,10.00,M,CLR,M,M,M,M,M,M,M,M,M,M,M,M,M,M,78.80,KHTH 041715Z AUTO 00000KT 10SM CLR 26/12 A3009 RMK A01,M
TMT,2022-08-04 17:15,-117.1971,39.4643,1749.34,M,M,M,0.00,0.00,0.00,30.20,M,10.00,M,CLR,M,M,M,M,M,M,M,M,M,M,M,M,M,M,M,KTMT 041715Z AUTO 00000KT 10SM CLR A3020 RMK AO2,M
MEV,2022-08-04 17:15,-119.7500,38.9963,1441.42,80.60,51.80,36.79,300.00,4.00,0.00,30.11,M,10.00,M,CLR,M,M,M,M,M,M,M,M,M,M,M,M,M,M,80.08,KMEV 041715Z AUTO 30004KT 10SM CLR 27/11 A3011 RMK AO2,M
05U,2022-08-04 17:15,-116.0051,39.6042,1811.23,M,M,M,M,M,0.00,M,M,M,M,M,M,M,M,M,M,M,M,M,M,M,M,M,M,M,M,K05U 041715Z AUTO RMK A01 PNO,M
RTS,2022-08-04 17:15,-119.8764,39.6682,1539.00,78.80,51.80,39.02,0.00,0.00,0.00,30.15,M,10.00,M,CLR,M,M,M,M,M,M,M,M,M,M,M,M,M,M,78.80,KRTS 041715Z AUTO 00000KT 10SM CLR 26/11 A3015 RMK AO2,M
CXP,2022-08-04 17:15,-119.7326,39.1923,1431.00,80.60,50.00,34.41,240.00,4.00,0.00,30.12,M,10.00,M,CLR,M,M,M,M,M,M,M,M,M,M,M,M,M,M,79.88,KCXP 041715Z AUTO 24004KT 10SM CLR 27/10 A3012 RMK AO2,M
BAM,2022-08-04 17:15,-116.8743,40.5990,1382.36,82.40,50.00,32.46,40.00,3.00,0.00,30.11,M,10.00,M,CLR,M,M,M,M,M,M,M,M,M,M,M,M,M,M,80.99,KBAM 041715Z AUTO 04003KT 10SM CLR 28/10 A3011 RMK AO1,M
BVU,2022-08-04 17:15,-114.8611,35.9475,671.00,87.80,59.00,37.90,160.00,14.00,0.00,29.98,M,M,M,M,M,M,M,M,M,M,M,M,M,M,M,M,M,M,87.12,KBVU 041715Z AUTO 16014KT 31/15 A2998 RMK AO2 PWINO TSNO,M
CXP,2022-08-04 17:35,-119.7326,39.1923,1431.00,82.40,50.00,32.46,0.00,0.00,0.00,30.12,M,10.00,M,CLR,M,M,M,M,M,M,M,M,M,M,M,M,M,M,80.99,KCXP 041735Z AUTO 00000KT 10SM CLR 28/10 A3012 RMK AO2,M
BVU,2022-08-04 17:35,-114.8611,35.9475,671.00,86.00,60.80,42.80,130.00,17.00,0.00,29.99,M,M,M,M,M,M,M,M,M,M,M,M,M,M,M,M,M,M,86.05,KBVU 041735Z AUTO 13017KT 30/16 A2999 RMK AO2 PWINO TSNO,M
RTS,2022-08-04 17:35,-119.8764,39.6682,1539.00,78.80,50.00,36.51,M,3.00,0.00,30.15,M,10.00,M,CLR,M,M,M,M,M,M,M,M,M,M,M,M,M,M,78.80,KRTS 041735Z AUTO VRB03KT 10SM CLR 26/10 A3015 RMK AO2,M
05U,2022-08-04 17:35,-116.0051,39.6042,1811.23,M,M,M,M,M,0.00,M,M,M,M,M,M,M,M,M,M,M,M,M,M,M,M,M,M,M,M,K05U 041735Z AUTO RMK A01 PNO,M
MEV,2022-08-04 17:35,-119.7500,38.9963,1441.42,82.40,51.80,34.69,280.00,3.00,0.00,30.11,M,10.00,M,CLR,M,M,M,M,M,M,M,M,M,M,M,M,M,M,81.20,KMEV 041735Z AUTO 28003KT 10SM CLR 28/11 A3011 RMK AO2,M
BAM,2022-08-04 17:35,-116.8743,40.5990,1382.36,86.00,50.00,28.90,120.00,4.00,0.00,30.10,M,10.00,M,CLR,M,M,M,M,M,M,M,M,M,M,M,M,M,M,83.62,KBAM 041735Z AUTO 12004KT 10SM CLR 30/10 A3010 RMK AO1,M
HTH,2022-08-04 17:35,-118.6315,38.5448,1282.89,80.60,53.60,39.30,0.00,0.00,0.00,30.09,M,10.00,M,CLR,M,M,M,M,M,M,M,M,M,M,M,M,M,M,80.29,KHTH 041735Z AUTO 00000KT 10SM CLR 27/12 A3009 RMK A01,M
TMT,2022-08-04 17:35,-117.1971,39.4643,1749.34,M,M,M,30.00,3.00,0.00,30.19,M,10.00,M,CLR,M,M,M,M,M,M,M,M,M,M,M,M,M,M,M,KTMT 041735Z AUTO 03003KT 10SM CLR A3019 RMK AO2,M
CXP,2022-08-04 17:50,-119.7326,39.1923,1431.00,84.20,50.00,30.62,190.00,4.00,0.00,30.12,M,10.00,M,CLR,M,M,M,M,M,M,M,M,M,M,M,M,M,M,82.24,KCXP 041750Z AUTO 19004KT 10SM CLR 29/10 A3012 RMK AO2,M
LOL,2022-08-04 17:53,-118.5701,40.0684,1192.43,88.00,52.00,29.21,220.00,6.00,0.00,30.04,1012.30,10.00,M,CLR,M,M,M,M,M,M,M,M,M,M,M,M,M,M,85.60,KLOL 041753Z AUTO 22006KT 10SM CLR 31/11 A3004 RMK AO2 SLP123 T03110111 10311 20172 58002,M
ELY,2022-08-04 17:53,-114.8453,39.2950,1909.00,85.00,48.00,27.79,0.00,0.00,0.00,30.21,1011.40,10.00,M,CLR,M,M,M,M,M,M,M,M,M,M,M,M,M,M,82.53,KELY 041753Z AUTO 00000KT 10SM CLR 29/09 A3021 RMK AO2 SLP114 T02940089 10294 20111 58009,M
DRA,2022-08-04 17:53,-116.0278,36.6206,1009.00,93.00,55.00,27.87,230.00,22.00,0.00,30.01,1010.30,10.00,30.00,FEW,M,M,M,12000.00,M,M,M,M,M,M,M,32.00,240.00,2022-08-04 17:39,91.03,KDRA 041753Z AUTO 23022G30KT 10SM FEW120 34/13 A3001 RMK AO2 PK WND 24032/1739 SLP103 T03390128 10350 20261 53010,M
VGT,2022-08-04 17:53,-115.1933,36.2111,667.00,89.00,60.00,37.83,140.00,12.00,T,29.94,1012.30,10.00,18.00,CLR,M,M,M,M,M,M,M,VCTS,M,M,M,M,M,M,88.76,KVGT 041753Z 14012G18KT 10SM VCTS CLR 32/16 A2994 RMK AO2 RAB11E32 SLP123 P0000 60000 T03170156 10344 20317 51018,M
LAS,2022-08-04 17:54,-115.1634,36.0719,663.00,86.00,60.80,42.80,180.00,7.00,0.02,29.96,M,10.00,23.00,FEW,SCT,BKN,OVC,10000.00,12000.00,15000.00,25000.00,VCTS,M,M,M,30.00,220.00,2022-08-04 17:31,86.05,KLAS 041754Z 18007G23KT 10SM VCTS FEW100 SCT120 BKN150 OVC250 30/16 A2996 RMK AO2 PK WND 22030/1731 RAB15E43 TSE48 P0002,M
HTH,2022-08-04 17:55,-118.6315,38.5448,1282.89,82.40,53.60,37.07,0.00,0.00,0.00,30.09,M,10.00,M,CLR,M,M,M,M,M,M,M,M,M,M,M,M,M,M,81.46,KHTH 041755Z AUTO 00000KT 10SM CLR 28/12 A3009 RMK A01,M
RTS,2022-08-04 17:55,-119.8764,39.6682,1539.00,82.40,48.20,30.35,M,3.00,0.00,30.15,M,10.00,M,CLR,M,M,M,M,M,M,M,M,M,M,M,M,M,M,80.80,KRTS 041755Z AUTO VRB03KT 10SM CLR 28/09 A3015 RMK AO2,M
RNO,2022-08-04 17:55,-119.7711,39.4839,1341.00,85.00,55.00,35.99,0.00,0.00,0.00,30.09,1012.50,10.00,M,FEW,M,M,M,10000.00,M,M,M,M,M,M,M,M,M,M,83.56,KRNO 041755Z 00000KT 10SM FEW100 29/13 A3009 RMK AO2 SLP125 T02940128 10294 20194 58005,M
05U,2022-08-04 17:55,-116.0051,39.6042,1811.23,M,M,M,M,M,0.00,M,M,M,M,M,M,M,M,M,M,M,M,M,M,M,M,M,M,M,M,K05U 041755Z AUTO RMK A01 PNO,M
MEV,2022-08-04 17:55,-119.7500,38.9963,1441.42,84.20,51.80,32.73,0.00,0.00,0.00,30.10,M,10.00,M,CLR,M,M,M,M,M,M,M,M,M,M,M,M,M,M,82.48,KMEV 041755Z AUTO 00000KT 10SM CLR 29/11 A3010 RMK AO2,M
BAM,2022-08-04 17:55,-116.8743,40.5990,1382.36,87.80,50.00,27.29,80.00,3.00,0.00,30.09,M,10.00,M,CLR,M,M,M,M,M,M,M,M,M,M,M,M,M,M,85.11,KBAM 041755Z AUTO 08003KT 10SM CLR 31/10 A3009 RMK AO1,M
TMT,2022-08-04 17:55,-117.1971,39.4643,1749.34,M,M,M,320.00,6.00,0.00,30.19,M,10.00,M,CLR,M,M,M,M,M,M,M,M,M,M,M,M,M,M,M,KTMT 041755Z AUTO 32006KT 10SM CLR A3019 RMK AO2,M
BVU,2022-08-04 17:55,-114.8611,35.9475,671.00,84.20,62.60,48.32,160.00,18.00,0.00,30.01,M,M,24.00,M,M,M,M,M,M,M,M,M,M,M,M,M,M,M,85.03,KBVU 041755Z AUTO 16018G24KT 29/17 A3001 RMK AO2 PWINO TSNO,M
TPH,2022-08-04 17:56,-117.0904,38.0505,1654.00,84.00,52.00,33.19,360.00,3.00,0.00,30.18,1013.20,10.00,M,CLR,M,M,M,M,M,M,M,M,M,M,M,M,M,M,82.36,KTPH 041756Z AUTO 36003KT 10SM CLR 29/11 A3018 RMK AO2 SLP132 T02890111 10289 20178 55001,M
LAS,2022-08-04 17:56,-115.1634,36.0719,663.00,87.00,61.00,41.62,170.00,8.00,0.02,29.95,1011.30,10.00,23.00,FEW,SCT,BKN,BKN,10000.00,12000.00,15000.00,25000.00,VCTS,M,M,M,30.00,220.00,2022-08-04 17:31,87.15,KLAS 041756Z 17008G23KT 10SM VCTS FEW100 SCT120 BKN150 BKN250 31/16 A2995 RMK AO2 PK WND 22030/1731 RAB15E43 TSE48 SLP113 VCSH W P0002 60002 T03060161 10328 20283 50007,M
WMC,2022-08-04 17:56,-117.8072,40.9019,1315.00,90.00,51.00,26.52,M,3.00,0.00,30.06,1011.70,10.00,M,CLR,M,M,M,M,M,M,M,M,M,M,M,M,M,M,87.24,KWMC 041756Z AUTO VRB03KT 10SM CLR 32/11 A3006 RMK AO2 SLP117 T03220106 10328 20211 58003,M
EKO,2022-08-04 17:56,-115.7860,40.8242,1367.00,80.00,48.00,32.46,0.00,0.00,0.00,30.14,1014.30,10.00,M,CLR,M,M,M,M,M,M,M,M,M,M,M,M,M,M,79.42,KEKO 041756Z AUTO 00000KT 10SM CLR 27/09 A3014 RMK AO2 SLP143 T02670089 10272 20167 58002,M
HND,2022-08-04 17:56,-115.1344,35.9729,742.79,86.00,61.00,43.10,190.00,20.00,0.00,30.01,1014.50,10.00,M,FEW,M,M,M,11000.00,M,M,M,M,M,M,M,31.00,220.00,2022-08-04 17:13,86.12,KHND 041756Z 19020KT 10SM FEW110 30/16 A3001 RMK AO2 PK WND 22031/1713 LTG DSNT NW PRESRR SLP145 T03000161 10322 20283 53020,M
NFL,2022-08-04 17:56,-118.7010,39.4166,1199.00,89.00,49.00,25.14,M,5.00,0.00,30.05,1014.30,10.00,M,FEW,SCT,M,M,8000.00,20000.00,M,M,M,M,M,M,M,M,M,86.09,KNFL 041756Z VRB05KT 10SM FEW080 SCT200 32/09 A3005 RMK AO2 SLP143 T03170094 10317 20178 58005,M
INS,2022-08-04 17:58,-115.6733,36.5872,955.00,95.00,53.60,24.89,140.00,6.00,0.00,29.98,1009.40,10.00,M,FEW,M,M,M,13000.00,M,M,M,M,M,M,M,M,M,M,92.71,KINS 041758Z AUTO 14006KT 10SM FEW130 35/12 A2998 RMK AO2 SLP094 T03500120 10350 20245 50002,M
LSV,2022-08-04 17:58,-115.0343,36.2362,570.00,94.50,58.00,29.76,190.00,21.00,0.00,29.93,M,10.00,M,FEW,SCT,M,M,16000.00,18000.00,M,M,M,M,M,M,M,M,M,93.61,KLSV 041758Z AUTO 19021KT 10SM FEW160 SCT180 35/15 A2993 RMK AO2 LTG DSNT SW SLPNO T03470145 10348 20305 52022 $,M
LAS,2022-08-04 18:09,-115.1634,36.0719,663.00,86.00,60.00,41.74,170.00,16.00,0.00,29.96,M,10.00,28.00,FEW,SCT,BKN,BKN,10000.00,12000.00,15000.00,25000.00,M,M,M,M,28.00,160.00,2022-08-04 18:07,85.81,KLAS 041809Z 17016G28KT 10SM FEW100 SCT120 BKN150 BKN250 30/16 A2996 RMK AO2 PK WND 16028/1807 VIRGA DSNT W T03000156,M
VGT,2022-08-04 18:09,-115.1933,36.2111,667.00,88.00,61.00,40.44,150.00,18.00,0.00,29.95,M,10.00,22.00,SCT,M,M,M,12000.00,M,M,M,M,M,M,M,M,M,M,88.02,KVGT 041809Z 15018G22KT 10SM SCT120 31/16 A2995 RMK AO2 T03110161,M
05U,2022-08-04 18:10,-116.0051,39.6042,1811.23,M,M,M,M,M,0.00,M,M,M,M,M,M,M,M,M,M,M,M,M,M,M,M,M,M,M,M,K05U 041810Z AUTO RMK A01 PNO,M
TMT,2022-08-04 18:15,-117.1971,39.4643,1749.34,M,M,M,360.00,4.00,0.00,30.19,M,10.00,M,CLR,M,M,M,M,M,M,M,M,M,M,M,M,M,M,M,KTMT 041815Z AUTO 36004KT 10SM CLR A3019 RMK AO2,M
CXP,2022-08-04 18:15,-119.7326,39.1923,1431.00,87.80,50.00,27.29,0.00,0.00,0.00,30.11,M,10.00,M,CLR,M,M,M,M,M,M,M,M,M,M,M,M,M,M,85.11,KCXP 041815Z AUTO 00000KT 10SM CLR 31/10 A3011 RMK AO2,M
RTS,2022-08-04 18:15,-119.8764,39.6682,1539.00,82.40,50.00,32.46,140.00,5.00,0.00,30.14,M,10.00,M,CLR,M,M,M,M,M,M,M,M,M,M,M,M,M,M,80.99,KRTS 041815Z AUTO 14005KT 10SM CLR 28/10 A3014 RMK AO2,M
BVU,2022-08-04 18:15,-114.8611,35.9475,671.00,84.20,66.20,54.80,160.00,19.00,0.00,30.00,M,M,25.00,M,M,M,M,M,M,M,M,M,M,M,M,M,M,M,86.50,KBVU 041815Z AUTO 16019G25KT 29/19 A3000 RMK AO2 PWINO TSNO,M
MEV,2022-08-04 18:15,-119.7500,38.9963,1441.42,86.00,51.80,30.90,0.00,0.00,0.00,30.10,M,10.00,M,CLR,M,M,M,M,M,M,M,M,M,M,M,M,M,M,83.87,KMEV 041815Z AUTO 00000KT 10SM CLR 30/11 A3010 RMK AO2,M
BAM,2022-08-04 18:15,-116.8743,40.5990,1382.36,87.80,50.00,27.29,350.00,4.00,0.00,30.09,M,10.00,M,CLR,M,M,M,M,M,M,M,M,M,M,M,M,M,M,85.11,KBAM 041815Z AUTO 35004KT 10SM CLR 31/10 A3009 RMK AO1,M
HTH,2022-08-04 18:15,-118.6315,38.5448,1282.89,84.20,51.80,32.73,0.00,0.00,0.00,30.08,M,10.00,M,CLR,M,M,M,M,M,M,M,M,M,M,M,M,M,M,82.48,KHTH 041815Z AUTO 00000KT 10SM CLR 29/11 A3008 RMK A01,M
LSV,2022-08-04 18:16,-115.0343,36.2362,570.00,95.00,59.00,30.26,150.00,12.00,0.00,29.94,M,10.00,M,FEW,SCT,M,M,16000.00,20000.00,M,M,M,M,M,M,M,M,M,94.51,KLSV 041816Z AUTO 15012KT 10SM FEW160 SCT200 35/15 A2994 RMK AO2 WSHFT 02 SLPNO $,M
BVU,2022-08-04 18:35,-114.8611,35.9475,671.00,84.20,66.20,54.80,160.00,16.00,0.00,30.00,M,M,M,M,M,M,M,M,M,M,M,M,M,M,M,M,M,M,86.50,KBVU 041835Z AUTO 16016KT 29/19 A3000 RMK AO2 PWINO TSNO,M
TMT,2022-08-04 18:35,-117.1971,39.4643,1749.34,M,M,M,300.00,4.00,0.00,30.18,M,10.00,M,CLR,M,M,M,M,M,M,M,M,M,M,M,M,M,M,M,KTMT 041835Z AUTO 30004KT 10SM CLR A3018 RMK AO2 LTG DSNT SW,M
RTS,2022-08-04 18:35,-119.8764,39.6682,1539.00,82.40,48.20,30.35,0.00,0.00,0.00,30.14,M,10.00,M,CLR,M,M,M,M,M,M,M,M,M,M,M,M,M,M,80.80,KRTS 041835Z AUTO 00000KT 10SM CLR 28/09 A3014 RMK AO2,M
05U,2022-08-04 18:35,-116.0051,39.6042,1811.23,M,M,M,M,M,0.00,M,M,M,M,M,M,M,M,M,M,M,M,M,M,M,M,M,M,M,M,K05U 041835Z AUTO RMK A01 PNO,M
MEV,2022-08-04 18:35,-119.7500,38.9963,1441.42,87.80,50.00,27.29,300.00,5.00,0.00,30.09,M,10.00,M,CLR,M,M,M,M,M,M,M,M,M,M,M,M,M,M,85.11,KMEV 041835Z AUTO 30005KT 10SM CLR 31/10 A3009 RMK AO2,M
BAM,2022-08-04 18:35,-116.8743,40.5990,1382.36,89.60,48.20,24.11,0.00,0.00,0.00,30.08,M,10.00,M,CLR,M,M,M,M,M,M,M,M,M,M,M,M,M,M,86.44,KBAM 041835Z AUTO 00000KT 10SM CLR 32/09 A3008 RMK AO1,M
HTH,2022-08-04 18:35,-118.6315,38.5448,1282.89,86.00,50.00,28.90,300.00,4.00,0.00,30.07,M,10.00,M,CLR,M,M,M,M,M,M,M,M,M,M,M,M,M,M,83.62,KHTH 041835Z AUTO 30004KT 10SM CLR 30/10 A3007 RMK A01,M
CXP,2022-08-04 18:35,-119.7326,39.1923,1431.00,87.80,48.20,25.52,320.00,4.00,0.00,30.11,M,10.00,M,CLR,M,M,M,M,M,M,M,M,M,M,M,M,M,M,84.87,KCXP 041835Z AUTO 32004KT 10SM CLR 31/09 A3011 RMK AO2,M
CXP,2022-08-04 18:50,-119.7326,39.1923,1431.00,87.80,46.40,23.85,M,4.00,0.00,30.10,M,10.00,M,CLR,M,M,M,M,M,M,M,M,M,M,M,M,M,M,84.68,KCXP 041850Z AUTO VRB04KT 10SM CLR 31/08 A3010 RMK AO2,M
ELY,2022-08-04 18:53,-114.8453,39.2950,1909.00,88.00,47.00,24.15,180.00,7.00,0.00,30.19,1010.80,10.00,M,FEW,M,M,M,8500.00,M,M,M,M,M,M,M,M,M,M,84.90,KELY 041853Z AUTO 18007KT 10SM FEW085 31/08 A3019 RMK AO2 LTG DSNT SW AND W SLP108 T03110083,M
DRA,2022-08-04 18:53,-116.0278,36.6206,1009.00,92.00,57.00,31.00,230.00,23.00,0.00,30.01,1010.50,10.00,38.00,CLR,M,M,M,M,M,M,M,M,M,M,M,38.00,220.00,2022-08-04 18:50,90.50,KDRA 041853Z AUTO 23023G38KT 10SM CLR 33/14 A3001 RMK AO2 PK WND 22038/1850 SLP105 T03330139,M
VGT,2022-08-04 18:53,-115.1933,36.2111,667.00,90.00,58.00,33.99,170.00,22.00,0.00,29.94,1012.50,10.00,34.00,SCT,M,M,M,11000.00,M,M,M,M,M,M,M,34.00,180.00,2022-08-04 18:53,88.89,KVGT 041853Z 17022G34KT 10SM SCT110 32/14 A2994 RMK AO2 PK WND 18034/1853 SLP125 T03220144,M
LOL,2022-08-04 18:53,-118.5701,40.0684,1192.43,91.00,51.00,25.70,80.00,3.00,0.00,30.03,1011.40,10.00,M,CLR,M,M,M,M,M,M,M,M,M,M,M,M,M,M,88.18,KLOL 041853Z AUTO 08003KT 10SM CLR 33/11 A3003 RMK AO2 SLP114 T03280106,M
MEV,2022-08-04 18:55,-119.7500,38.9963,1441.42,89.60,48.20,24.11,0.00,0.00,0.00,30.09,M,10.00,M,CLR,M,M,M,M,M,M,M,M,M,M,M,M,M,M,86.44,KMEV 041855Z AUTO 00000KT 10SM CLR 32/09 A3009 RMK AO2,M
RNO,2022-08-04 18:55,-119.7711,39.4839,1341.00,89.00,53.00,29.37,20.00,4.00,0.00,30.07,1011.80,10.00,M,FEW,M,M,M,11000.00,M,M,M,M,M,M,M,M,M,M,86.79,KRNO 041855Z 02004KT 10SM FEW110TCU 32/12 A3007 RMK AO2 SLP118 TCU SW T03170117,M
HTH,2022-08-04 18:55,-118.6315,38.5448,1282.89,86.00,50.00,28.90,0.00,0.00,0.00,30.06,M,10.00,M,CLR,M,M,M,M,M,M,M,M,M,M,M,M,M,M,83.62,KHTH 041855Z AUTO 00000KT 10SM CLR 30/10 A3006 RMK A01,M
BAM,2022-08-04 18:55,-116.8743,40.5990,1382.36,91.40,50.00,24.37,360.00,3.00,0.00,30.08,M,10.00,M,CLR,M,M,M,M,M,M,M,M,M,M,M,M,M,M,88.36,KBAM 041855Z AUTO 36003KT 10SM CLR 33/10 A3008 RMK AO1,M
BVU,2022-08-04 18:55,-114.8611,35.9475,671.00,86.00,64.40,48.58,180.00,12.00,0.00,29.99,M,M,M,M,M,M,M,M,M,M,M,M,M,M,M,M,M,M,87.49,KBVU 041855Z AUTO 18012KT 30/18 A2999 RMK AO2 PWINO TSNO,M
05U,2022-08-04 18:55,-116.0051,39.6042,1811.23,M,M,M,M,M,0.00,M,M,M,M,M,M,M,M,M,M,M,M,M,M,M,M,M,M,M,M,K05U 041855Z AUTO RMK A01 PNO,M
TMT,2022-08-04 18:55,-117.1971,39.4643,1749.34,M,M,M,0.00,0.00,0.00,30.18,M,10.00,M,CLR,M,M,M,M,M,M,M,M,M,M,M,M,M,M,M,KTMT 041855Z AUTO 00000KT 10SM CLR A3018 RMK AO2,M
RTS,2022-08-04 18:55,-119.8764,39.6682,1539.00,86.00,50.00,28.90,140.00,8.00,0.00,30.13,M,10.00,M,CLR,M,M,M,M,M,M,M,M,M,M,M,M,M,M,83.62,KRTS 041855Z AUTO 14008KT 10SM CLR 30/10 A3013 RMK AO2,M
NFL,2022-08-04 18:56,-118.7010,39.4166,1199.00,90.00,47.00,22.67,M,3.00,0.00,30.03,1013.90,10.00,M,SCT,SCT,M,M,8000.00,20000.00,M,M,M,M,M,M,M,M,M,86.65,KNFL 041856Z VRB03KT 10SM SCT080 SCT200 32/08 A3003 RMK AO2 SLP139 T03220083,M
LAS,2022-08-04 18:56,-115.1634,36.0719,663.00,87.00,57.00,36.07,190.00,12.00,0.00,29.97,1011.70,10.00,27.00,SCT,BKN,BKN,M,12000.00,15000.00,25000.00,M,M,M,M,M,33.00,190.00,2022-08-04 18:18,85.89,KLAS 041856Z 19012G27KT 10SM SCT120 BKN150 BKN250 31/14 A2997 RMK AO2 PK WND 19033/1818 SLP117 T03060139,M
WMC,2022-08-04 18:56,-117.8072,40.9019,1315.00,93.00,49.00,22.25,0.00,0.00,0.00,30.04,1010.90,10.00,M,CLR,M,M,M,M,M,M,M,M,M,M,M,M,M,M,89.72,KWMC 041856Z AUTO 00000KT 10SM CLR 34/09 A3004 RMK AO2 SLP109 T03390094,M
EKO,2022-08-04 18:56,-115.7860,40.8242,1367.00,84.00,46.00,26.52,M,4.00,0.00,30.12,1013.40,10.00,M,CLR,M,M,M,M,M,M,M,M,M,M,M,M,M,M,81.69,KEKO 041856Z AUTO VRB04KT 10SM CLR 29/08 A3012 RMK AO2 SLP134 T02890078,M
TPH,2022-08-04 18:56,-117.0904,38.0505,1654.00,86.00,50.00,28.90,M,M,0.00,30.16,1012.70,10.00,M,CLR,M,M,M,M,M,M,M,M,M,M,M,M,M,M,83.62,KTPH 041856Z AUTO 10SM CLR 30/10 A3016 RMK AO2 SLP127 T03000100,M
HND,2022-08-04 18:56,-115.1344,35.9729,742.79,86.00,59.00,40.14,220.00,21.00,0.00,30.00,1014.20,10.00,24.00,CLR,M,M,M,M,M,M,M,M,M,M,M,M,M,M,85.47,KHND 041856Z 22021G24KT 10SM CLR 30/15 A3000 RMK AO2 SLP142 T03000150,M
LSV,2022-08-04 18:58,-115.0343,36.2362,570.00,91.20,60.40,35.79,160.00,11.00,0.00,29.94,M,10.00,M,FEW,SCT,SCT,M,11000.00,19000.00,21000.00,M,M,M,M,M,M,M,M,91.02,KLSV 041858Z AUTO 16011KT 10SM FEW110 SCT190 SCT210 33/16 A2994 RMK AO2 SLPNO T03290158 $,M
INS,2022-08-04 18:58,-115.6733,36.5872,955.00,92.00,54.30,27.94,90.00,17.00,0.00,29.98,1009.60,10.00,M,BKN,BKN,M,M,10000.00,13000.00,M,M,M,M,M,M,M,M,M,89.94,KINS 041858Z AUTO 09017KT 10SM BKN100 BKN130 33/12 A2998 RMK AO2 SLP096 T03340124,M
HTH,2022-08-04 19:15,-118.6315,38.5448,1282.89,87.80,50.00,27.29,0.00,0.00,0.00,30.06,M,10.00,M,CLR,M,M,M,M,M,M,M,M,M,M,M,M,M,M,85.11,KHTH 041915Z AUTO 00000KT 10SM CLR 31/10 A3006 RMK A01,M
TMT,2022-08-04 19:15,-117.1971,39.4643,1749.34,M,M,M,260.00,5.00,0.00,30.18,M,10.00,M,CLR,M,M,M,M,M,M,M,M,M,M,M,M,M,M,M,KTMT 041915Z AUTO 26005KT 10SM CLR A3018 RMK AO2 LTG DSNT SW,M
BVU,2022-08-04 19:15,-114.8611,35.9475,671.00,86.00,66.20,51.72,150.00,16.00,0.00,29.98,M,M,M,M,M,M,M,M,M,M,M,M,M,M,M,M,M,M,88.39,KBVU 041915Z AUTO 15016KT 30/19 A2998 RMK AO2 PWINO TSNO,M
CXP,2022-08-04 19:15,-119.7326,39.1923,1431.00,89.60,46.40,22.53,110.00,5.00,0.00,30.10,M,10.00,M,CLR,M,M,M,M,M,M,M,M,M,M,M,M,M,M,86.24,KCXP 041915Z AUTO 11005KT 10SM CLR 32/08 A3010 RMK AO2,M
RTS,2022-08-04 19:15,-119.8764,39.6682,1539.00,86.00,50.00,28.90,M,6.00,0.00,30.13,M,10.00,M,CLR,M,M,M,M,M,M,M,M,M,M,M,M,M,M,83.62,KRTS 041915Z AUTO VRB06KT 10SM CLR 30/10 A3013 RMK AO2,M
05U,2022-08-04 19:15,-116.0051,39.6042,1811.23,M,M,M,M,M,0.00,M,M,M,M,M,M,M,M,M,M,M,M,M,M,M,M,M,M,M,M,K05U 041915Z AUTO RMK A01 PNO,M
MEV,2022-08-04 19:15,-119.7500,38.9963,1441.42,89.60,48.20,24.11,M,3.00,0.00,30.08,M,10.00,M,M,M,M,M,M,M,M,M,M,M,M,M,M,M,M,86.44,KMEV 041915Z AUTO VRB03KT 10SM 32/09 A3008 RMK AO2,M
BAM,2022-08-04 19:15,-116.8743,40.5990,1382.36,91.40,50.00,24.37,180.00,5.00,0.00,30.07,M,10.00,M,CLR,M,M,M,M,M,M,M,M,M,M,M,M,M,M,88.36,KBAM 041915Z AUTO 18005KT 10SM CLR 33/10 A3007 RMK AO1,M
CXP,2022-08-04 19:30,-119.7326,39.1923,1431.00,91.40,46.40,21.29,0.00,0.00,0.00,30.09,M,10.00,M,CLR,M,M,M,M,M,M,M,M,M,M,M,M,M,M,87.86,KCXP 041930Z AUTO 00000KT 10SM CLR 33/08 A3009 RMK AO2 LTG DSNT SE AND S,M
HTH,2022-08-04 19:35,-118.6315,38.5448,1282.89,87.80,50.00,27.29,M,4.00,0.00,30.05,M,10.00,M,CLR,M,M,M,M,M,M,M,M,M,M,M,M,M,M,85.11,KHTH 041935Z AUTO VRB04KT 10SM CLR 31/10 A3005 RMK A01,M
TMT,2022-08-04 19:35,-117.1971,39.4643,1749.34,M,M,M,270.00,7.00,0.00,30.16,M,10.00,M,CLR,M,M,M,M,M,M,M,M,M,M,M,M,M,M,M,KTMT 041935Z AUTO 27007KT 10SM CLR A3016 RMK AO2 LTG DSNT S,M
BAM,2022-08-04 19:35,-116.8743,40.5990,1382.36,93.20,50.00,23.04,190.00,6.00,0.00,30.07,M,10.00,M,CLR,M,M,M,M,M,M,M,M,M,M,M,M,M,M,90.10,KBAM 041935Z AUTO 19006KT 10SM CLR 34/10 A3007 RMK AO1,M
MEV,2022-08-04 19:35,-119.7500,38.9963,1441.42,91.40,46.40,21.29,M,6.00,0.00,30.08,M,10.00,M,M,M,M,M,M,M,M,M,M,M,M,M,M,M,M,87.86,KMEV 041935Z AUTO VRB06KT 10SM 33/08 A3008 RMK AO2,M
05U,2022-08-04 19:35,-116.0051,39.6042,1811.23,M,M,M,M,M,0.00,M,M,M,M,M,M,M,M,M,M,M,M,M,M,M,M,M,M,M,M,K05U 041935Z AUTO RMK A01 PNO,M
RTS,2022-08-04 19:35,-119.8764,39.6682,1539.00,86.00,50.00,28.90,220.00,5.00,0.00,30.12,M,10.00,12.00,CLR,M,M,M,M,M,M,M,M,M,M,M,M,M,M,83.62,KRTS 041935Z AUTO 22005G12KT 10SM CLR 30/10 A3012 RMK AO2,M
BVU,2022-08-04 19:35,-114.8611,35.9475,671.00,82.40,66.20,58.08,160.00,17.00,0.00,29.98,M,M,M,M,M,M,M,M,M,M,M,M,M,M,M,M,M,M,84.63,KBVU 041935Z AUTO 16017KT 28/19 A2998 RMK AO2 PWINO TSNO,M
CXP,2022-08-04 19:50,-119.7326,39.1923,1431.00,93.20,44.60,18.80,180.00,5.00,0.00,30.09,M,10.00,M,CLR,M,M,M,M,M,M,M,M,M,M,M,M,M,M,89.34,KCXP 041950Z AUTO 18005KT 10SM CLR 34/07 A3009 RMK AO2,M
LOL,2022-08-04 19:53,-118.5701,40.0684,1192.43,94.00,50.00,22.55,M,5.00,0.00,30.01,1010.90,10.00,M,CLR,M,M,M,M,M,M,M,M,M,M,M,M,M,M,90.79,KLOL 041953Z AUTO VRB05KT 10SM CLR 34/10 A3001 RMK AO2 SLP109 T03440100,M
ELY,2022-08-04 19:53,-114.8453,39.2950,1909.00,84.00,51.00,32.10,140.00,14.00,T,30.18,1010.90,10.00,20.00,FEW,FEW,BKN,M,6500.00,8500.00,11000.00,M,-RA,M,M,M,M,M,M,82.23,KELY 041953Z AUTO 14014G20KT 10SM -RA FEW065 FEW085 BKN110 29/11 A3018 RMK AO2 LTG DSNT ALQDS RAB47 SLP109 P0000 T02890106,M
VGT,2022-08-04 19:53,-115.1933,36.2111,667.00,94.00,58.00,30.10,190.00,18.00,0.00,29.91,1011.20,10.00,24.00,CLR,M,M,M,M,M,M,M,M,M,M,M,32.00,170.00,2022-08-04 18:57,92.90,KVGT 041953Z 19018G24KT 10SM CLR 34/14 A2991 RMK AO2 PK WND 17032/1857 SLP112 T03440144,M
DRA,2022-08-04 19:53,-116.0278,36.6206,1009.00,92.00,56.00,29.80,200.00,22.00,0.00,30.01,1010.50,10.00,31.00,FEW,M,M,M,11000.00,M,M,M,M,M,M,M,34.00,220.00,2022-08-04 19:10,90.17,KDRA 041953Z AUTO 20022G31KT 10SM FEW110 33/13 A3001 RMK AO2 PK WND 22034/1910 SLP105 T03330133,M
05U,2022-08-04 19:55,-116.0051,39.6042,1811.23,M,M,M,M,M,0.00,M,M,M,M,M,M,M,M,M,M,M,M,M,M,M,M,M,M,M,M,K05U 041955Z AUTO RMK A01 PNO,M
MEV,2022-08-04 19:55,-119.7500,38.9963,1441.42,89.60,46.40,22.53,250.00,7.00,0.00,30.07,M,10.00,M,CLR,M,M,M,M,M,M,M,M,M,M,M,M,M,M,86.24,KMEV 041955Z AUTO 25007KT 10SM CLR 32/08 A3007 RMK AO2,M
BAM,2022-08-04 19:55,-116.8743,40.5990,1382.36,91.40,48.20,22.78,50.00,3.00,0.00,30.06,M,10.00,M,CLR,M,M,M,M,M,M,M,M,M,M,M,M,M,M,88.09,KBAM 041955Z AUTO 05003KT 10SM CLR 33/09 A3006 RMK AO1,M
HTH,2022-08-04 19:55,-118.6315,38.5448,1282.89,87.80,50.00,27.29,300.00,5.00,0.00,30.04,M,10.00,M,CLR,M,M,M,M,M,M,M,M,M,M,M,M,M,M,85.11,KHTH 041955Z AUTO 30005KT 10SM CLR 31/10 A3004 RMK A01,M
TMT,2022-08-04 19:55,-117.1971,39.4643,1749.34,M,M,M,220.00,7.00,0.00,30.16,M,10.00,M,CLR,M,M,M,M,M,M,M,M,M,M,M,M,M,M,M,KTMT 041955Z AUTO 22007KT 10SM CLR A3016 RMK AO2 LTG DSNT S,M
BVU,2022-08-04 19:55,-114.8611,35.9475,671.00,84.20,64.40,51.47,150.00,13.00,0.00,29.97,M,M,18.00,M,M,M,M,M,M,M,M,M,M,M,M,M,M,M,85.71,KBVU 041955Z AUTO 15013G18KT 29/18 A2997 RMK AO2 PWINO TSNO,M
RNO,2022-08-04 19:55,-119.7711,39.4839,1341.00,92.00,52.00,25.84,M,3.00,0.00,30.05,1010.90,10.00,M,SCT,SCT,M,M,11000.00,24000.00,M,M,M,M,M,M,M,M,M,89.21,KRNO 041955Z VRB03KT 10SM SCT110CB SCT240 33/11 A3005 RMK AO2 SLP109 CB SW STNRY TCU NE AND W T03330111,M
RTS,2022-08-04 19:55,-119.8764,39.6682,1539.00,86.00,48.20,27.03,0.00,0.00,0.00,30.12,M,10.00,10.00,CLR,M,M,M,M,M,M,M,M,M,M,M,M,M,M,83.40,KRTS 041955Z AUTO 00000G10KT 10SM CLR 30/09 A3012 RMK AO2,M
WMC,2022-08-04 19:56,-117.8072,40.9019,1315.00,95.00,48.00,20.22,M,M,0.00,30.02,1010.00,10.00,M,CLR,M,M,M,M,M,M,M,M,M,M,M,M,M,M,91.53,KWMC 041956Z AUTO 10SM CLR 35/09 A3002 RMK AO2 SLP100 T03500089,M
NFL,2022-08-04 19:56,-118.7010,39.4166,1199.00,93.00,46.00,19.95,0.00,0.00,0.00,30.01,1013.30,10.00,M,SCT,SCT,SCT,M,8000.00,11000.00,20000.00,M,M,M,M,M,M,M,M,89.31,KNFL 041956Z 00000KT 10SM SCT080 SCT110 SCT200 34/08 A3001 RMK AO2 SLP133 T03390078,M
LAS,2022-08-04 19:56,-115.1634,36.0719,663.00,87.00,58.00,37.25,200.00,16.00,0.00,29.93,1010.60,10.00,28.00,FEW,SCT,BKN,BKN,10000.00,12000.00,15000.00,25000.00,M,M,M,M,32.00,200.00,2022-08-04 19:40,86.14,KLAS 041956Z 20016G28KT 10SM FEW100 SCT120 BKN150 BKN250 31/14 A2993 RMK AO2 PK WND 20032/1940 SLP106 T03060144,M
HND,2022-08-04 19:56,-115.1344,35.9729,742.79,84.00,60.00,44.51,210.00,22.00,0.00,29.98,1013.80,10.00,26.00,CLR,M,M,M,M,M,M,M,M,M,M,M,31.00,220.00,2022-08-04 19:20,84.05,KHND 041956Z 21022G26KT 10SM CLR 29/16 A2998 RMK AO2 PK WND 22031/1920 SLP138 T02890156,M
TPH,2022-08-04 19:56,-117.0904,38.0505,1654.00,88.00,49.00,26.03,150.00,5.00,0.00,30.14,1011.70,10.00,M,CLR,M,M,M,M,M,M,M,M,M,M,M,M,M,M,85.13,KTPH 041956Z AUTO 15005KT 10SM CLR 31/09 A3014 RMK AO2 LTG DSNT SE SLP117 T03110094,M
EKO,2022-08-04 19:56,-115.7860,40.8242,1367.00,85.00,44.00,23.97,M,3.00,0.00,30.10,1012.70,10.00,M,CLR,M,M,M,M,M,M,M,M,M,M,M,M,M,M,82.20,KEKO 041956Z AUTO VRB03KT 10SM CLR 29/07 A3010 RMK AO2 SLP127 T02940067,M
LSV,2022-08-04 19:58,-115.0343,36.2362,570.00,95.00,57.70,28.88,180.00,18.00,0.00,29.91,M,10.00,22.00,SCT,M,M,M,19000.00,M,M,M,M,M,M,M,M,M,M,94.00,KLSV 041958Z AUTO 18018G22KT 10SM SCT190 35/14 A2991 RMK AO2 SLPNO T03500143 $,M
INS,2022-08-04 19:58,-115.6733,36.5872,955.00,91.80,56.00,29.89,100.00,15.00,0.00,29.97,1009.40,10.00,21.00,CLR,M,M,M,M,M,M,M,M,M,M,M,28.00,120.00,2022-08-04 19:23,90.07,KINS 041958Z AUTO 10015G21KT 10SM CLR 33/13 A2997 RMK AO2 PK WND 12028/23 SLP094 T03320133,M
BVU,2022-08-04 20:15,-114.8611,35.9475,671.00,86.00,64.40,48.58,140.00,11.00,0.00,29.96,M,M,M,M,M,M,M,M,M,M,M,M,M,M,M,M,M,M,87.49,KBVU 042015Z AUTO 14011KT 30/18 A2996 RMK AO2 PWINO TSNO,M
HTH,2022-08-04 20:15,-118.6315,38.5448,1282.89,87.80,50.00,27.29,0.00,0.00,0.00,30.03,M,10.00,M,CLR,M,M,M,M,M,M,M,M,M,M,M,M,M,M,85.11,KHTH 042015Z AUTO 00000KT 10SM CLR 31/10 A3003 RMK A01,M
RTS,2022-08-04 20:15,-119.8764,39.6682,1539.00,87.80,50.00,27.29,100.00,8.00,0.00,30.11,M,10.00,M,CLR,M,M,M,M,M,M,M,M,M,M,M,M,M,M,85.11,KRTS 042015Z AUTO 10008KT 10SM CLR 31/10 A3011 RMK AO2,M
MEV,2022-08-04 20:15,-119.7500,38.9963,1441.42,89.60,48.20,24.11,260.00,7.00,0.00,30.07,M,10.00,M,CLR,M,M,M,M,M,M,M,M,M,M,M,M,M,M,86.44,KMEV 042015Z AUTO 26007KT 10SM CLR 32/09 A3007 RMK AO2 LTG DSNT SE AND S,M
BAM,2022-08-04 20:15,-116.8743,40.5990,1382.36,95.00,46.40,19.04,200.00,5.00,0.00,30.05,M,10.00,M,CLR,M,M,M,M,M,M,M,M,M,M,M,M,M,M,91.29,KBAM 042015Z AUTO 20005KT 10SM CLR 35/08 A3005 RMK AO1,M
TMT,2022-08-04 20:15,-117.1971,39.4643,1749.34,M,M,M,0.00,0.00,0.00,30.15,M,10.00,M,CLR,M,M,M,M,M,M,M,M,M,M,M,M,M,M,M,KTMT 042015Z AUTO 00000KT 10SM CLR A3015 RMK AO2,M
CXP,2022-08-04 20:15,-119.7326,39.1923,1431.00,93.20,46.40,20.13,M,5.00,0.00,30.08,M,10.00,M,CLR,M,M,M,M,M,M,M,M,M,M,M,M,M,M,89.55,KCXP 042015Z AUTO VRB05KT 10SM CLR 34/08 A3008 RMK AO2,M
05U,2022-08-04 20:15,-116.0051,39.6042,1811.23,M,M,M,M,M,0.00,M,M,M,M,M,M,M,M,M,M,M,M,M,M,M,M,M,M,M,M,K05U 042015Z AUTO RMK A01 PNO,M
ELY,2022-08-04 20:20,-114.8453,39.2950,1909.00,85.00,45.00,24.81,280.00,15.00,T,30.18,M,10.00,21.00,FEW,BKN,OVC,M,3500.00,9000.00,11000.00,M,TS,M,M,M,M,M,M,82.27,KELY 042020Z AUTO 28015G21KT 10SM TS FEW035 BKN090 OVC110 29/07 A3018 RMK AO2 LTG DSNT N AND SE AND NW RAE02 TSB14 P0000 T02940072,M
ELY,2022-08-04 20:29,-114.8453,39.2950,1909.00,75.00,56.00,51.43,230.00,14.00,0.01,30.19,M,2.00,22.00,FEW,BKN,OVC,M,7500.00,9500.00,12000.00,M,+RA,M,M,M,M,M,M,75.00,KELY 042029Z AUTO 23014G22KT 2SM +RA FEW075 BKN095 OVC120 24/13 A3019 RMK AO2 LTG DSNT ALQDS RAE02B22 TSB14E29 P0001 T02390133,M
BAM,2022-08-04 20:35,-116.8743,40.5990,1382.36,95.00,46.40,19.04,170.00,3.00,0.00,30.04,M,10.00,M,CLR,M,M,M,M,M,M,M,M,M,M,M,M,M,M,91.29,KBAM 042035Z AUTO 17003KT 10SM CLR 35/08 A3004 RMK AO1,M
TMT,2022-08-04 20:35,-117.1971,39.4643,1749.34,M,M,M,280.00,5.00,0.00,30.14,M,10.00,M,CLR,M,M,M,M,M,M,M,M,M,M,M,M,M,M,M,KTMT 042035Z AUTO 28005KT 10SM CLR A3014 RMK AO2 LTG DSNT SW,M
BVU,2022-08-04 20:35,-114.8611,35.9475,671.00,89.60,59.00,35.81,230.00,8.00,0.00,29.96,M,M,17.00,M,M,M,M,M,M,M,M,M,M,M,M,M,M,M,88.86,KBVU 042035Z AUTO 23008G17KT 32/15 A2996 RMK AO2 PWINO TSNO,M
CXP,2022-08-04 20:35,-119.7326,39.1923,1431.00,91.40,46.40,21.29,M,3.00,0.00,30.07,M,10.00,M,CLR,M,M,M,M,M,M,M,M,M,M,M,M,M,M,87.86,KCXP 042035Z AUTO VRB03KT 10SM CLR 33/08 A3007 RMK AO2,M
RTS,2022-08-04 20:35,-119.8764,39.6682,1539.00,87.80,50.00,27.29,110.00,6.00,0.00,30.10,M,10.00,M,CLR,M,M,M,M,M,M,M,M,M,M,M,M,M,M,85.11,KRTS 042035Z AUTO 11006KT 10SM CLR 31/10 A3010 RMK AO2,M
05U,2022-08-04 20:35,-116.0051,39.6042,1811.23,M,M,M,M,M,0.00,M,M,M,M,M,M,M,M,M,M,M,M,M,M,M,M,M,M,M,M,K05U 042035Z AUTO RMK A01 PNO,M
MEV,2022-08-04 20:35,-119.7500,38.9963,1441.42,87.80,50.00,27.29,270.00,6.00,0.00,30.06,M,10.00,14.00,CLR,M,M,M,M,M,M,M,M,M,M,M,M,M,M,85.11,KMEV 042035Z AUTO 27006G14KT 10SM CLR 31/10 A3006 RMK AO2,M
HTH,2022-08-04 20:35,-118.6315,38.5448,1282.89,89.60,48.20,24.11,0.00,0.00,0.00,30.02,M,10.00,M,CLR,M,M,M,M,M,M,M,M,M,M,M,M,M,M,86.44,KHTH 042035Z AUTO 00000KT 10SM CLR 32/09 A3002 RMK A01,M
ELY,2022-08-04 20:37,-114.8453,39.2950,1909.00,78.00,52.00,39.02,M,5.00,0.08,30.18,M,3.00,19.00,FEW,BKN,OVC,M,7000.00,10000.00,12000.00,M,VCTS RA,M,M,M,M,M,M,78.80,KELY 042037Z AUTO VRB05G19KT 3SM VCTS RA FEW070 BKN100 OVC120 26/11 A3018 RMK AO2 LTG DSNT NW-E RAE02B22 TSB14E29 P0008 T02560111,M
VGT,2022-08-04 20:53,-115.1933,36.2111,667.00,93.00,58.00,30.95,150.00,14.00,0.00,29.88,1010.50,10.00,M,CLR,M,M,M,M,M,M,M,M,M,M,M,26.00,170.00,2022-08-04 20:24,91.94,KVGT 042053Z 15014KT 10SM CLR 34/14 A2988 RMK AO2 PK WND 17026/2024 SLP105 T03390144 58018,M
LOL,2022-08-04 20:53,-118.5701,40.0684,1192.43,97.00,47.00,18.25,200.00,9.00,0.00,29.99,1010.40,10.00,18.00,CLR,M,M,M,M,M,M,M,M,M,M,M,M,M,M,93.33,KLOL 042053Z AUTO 20009G18KT 10SM CLR 36/08 A2999 RMK AO2 SLP104 T03610083 58017,M
DRA,2022-08-04 20:53,-116.0278,36.6206,1009.00,90.00,56.00,31.62,210.00,21.00,0.00,30.00,1010.10,10.00,32.00,CLR,M,M,M,M,M,M,M,M,M,M,M,35.00,220.00,2022-08-04 20:37,88.29,KDRA 042053Z AUTO 21021G32KT 10SM CLR 32/13 A3000 RMK AO2 PK WND 22035/2037 SLP101 T03220133 58005,M
ELY,2022-08-04 20:53,-114.8453,39.2950,1909.00,81.00,55.00,40.83,290.00,3.00,0.09,30.18,1011.70,10.00,17.00,FEW,OVC,M,M,4100.00,11000.00,M,M,VCTS,M,M,M,M,M,M,80.73,KELY 042053Z AUTO 29003G17KT 10SM VCTS FEW041 OVC110 27/13 A3018 RMK AO2 LTG DSNT NE AND E RAE02B22E52 TSB14E29 SLP117 P0009 60009 T02720128 55008,M
RTS,2022-08-04 20:55,-119.8764,39.6682,1539.00,86.00,51.80,30.90,M,5.00,0.00,30.10,M,9.00,11.00,CLR,M,M,M,M,M,M,M,-DZ,M,M,M,M,M,M,83.87,KRTS 042055Z AUTO VRB05G11KT 9SM -DZ CLR 30/11 A3010 RMK AO2,M
05U,2022-08-04 20:55,-116.0051,39.6042,1811.23,M,M,M,M,M,0.00,M,M,M,M,M,M,M,M,M,M,M,M,M,M,M,M,M,M,M,M,K05U 042055Z AUTO RMK A01 PNO,M
TMT,2022-08-04 20:55,-117.1971,39.4643,1749.34,M,M,M,260.00,4.00,0.00,30.14,M,10.00,M,CLR,M,M,M,M,M,M,M,M,M,M,M,M,M,M,M,KTMT 042055Z AUTO 26004KT 10SM CLR A3014 RMK AO2 LTG DSNT S AND SW,M
RNO,2022-08-04 20:55,-119.7711,39.4839,1341.00,91.00,52.00,26.57,M,5.00,0.00,30.03,1010.30,10.00,M,BKN,BKN,M,M,9000.00,24000.00,M,M,M,M,M,M,M,M,M,88.35,KRNO 042055Z VRB05KT 10SM BKN090CB BKN240 33/11 A3003 RMK AO2 LTG DSNT NW SLP103 CB NW MOV NE TCU ALQDS T03280111 58018,M
HTH,2022-08-04 20:55,-118.6315,38.5448,1282.89,89.60,48.20,24.11,0.00,0.00,0.00,30.01,M,10.00,M,CLR,M,M,M,M,M,M,M,M,M,M,M,M,M,M,86.44,KHTH 042055Z AUTO 00000KT 10SM CLR 32/09 A3001 RMK A01,M
BAM,2022-08-04 20:55,-116.8743,40.5990,1382.36,95.00,46.40,19.04,0.00,0.00,0.00,30.03,M,10.00,M,CLR,M,M,M,M,M,M,M,M,M,M,M,M,M,M,91.29,KBAM 042055Z AUTO 00000KT 10SM CLR 35/08 A3003 RMK AO1,M
MEV,2022-08-04 20:55,-119.7500,38.9963,1441.42,86.00,48.20,27.03,0.00,0.00,0.00,30.06,M,10.00,M,CLR,M,M,M,M,M,M,M,VCTS,M,M,M,M,M,M,83.40,KMEV 042055Z AUTO 00000KT 10SM VCTS CLR 30/09 A3006 RMK AO2 LTG DSNT E-SW,M
BVU,2022-08-04 20:55,-114.8611,35.9475,671.00,91.40,59.00,33.84,220.00,14.00,0.00,29.95,M,M,M,M,M,M,M,M,M,M,M,M,M,M,M,M,M,M,90.68,KBVU 042055Z AUTO 22014KT 33/15 A2995 RMK AO2 PWINO TSNO,M
CXP,2022-08-04 20:55,-119.7326,39.1923,1431.00,89.60,46.40,22.53,M,3.00,0.00,30.06,M,10.00,M,CLR,M,M,M,M,M,M,M,M,M,M,M,M,M,M,86.24,KCXP 042055Z AUTO VRB03KT 10SM CLR 32/08 A3006 RMK AO2 LTG DSNT SE,M
TPH,2022-08-04 20:56,-117.0904,38.0505,1654.00,89.00,49.00,25.14,M,M,0.00,30.13,1011.30,10.00,M,CLR,M,M,M,M,M,M,M,M,M,M,M,M,M,M,86.09,KTPH 042056Z AUTO 10SM CLR 32/09 A3013 RMK AO2 LTG DSNT E SLP113 T03170094 57014,M
NFL,2022-08-04 20:56,-118.7010,39.4166,1199.00,96.00,45.00,17.46,M,4.00,0.00,29.98,1012.40,10.00,16.00,SCT,SCT,BKN,BKN,8000.00,10000.00,17000.00,20000.00,M,M,M,M,M,M,M,92.17,KNFL 042056Z VRB04G16KT 10SM SCT080 SCT100 BKN170 BKN200 36/07 A2998 RMK AO2 SLP124 CB DSNT SE-SW-NW T03560072 58019,M
EKO,2022-08-04 20:56,-115.7860,40.8242,1367.00,88.00,46.00,23.34,M,3.00,0.00,30.07,1011.20,10.00,M,CLR,M,M,M,M,M,M,M,M,M,M,M,M,M,M,84.81,KEKO 042056Z AUTO VRB03KT 10SM CLR 31/08 A3007 RMK AO2 SLP112 T03110078 58020,M
WMC,2022-08-04 20:56,-117.8072,40.9019,1315.00,99.00,46.00,16.60,280.00,7.00,0.00,30.00,1009.30,10.00,17.00,FEW,M,M,M,10000.00,M,M,M,M,M,M,M,M,M,M,95.17,KWMC 042056Z AUTO 28007G17KT 250V320 10SM FEW100 37/08 A3000 RMK AO2 SLP093 T03720078 58016,M
LAS,2022-08-04 20:56,-115.1634,36.0719,663.00,88.00,60.00,39.17,180.00,13.00,0.00,29.91,1009.90,10.00,22.00,FEW,SCT,BKN,M,12000.00,15000.00,25000.00,M,M,M,M,M,M,M,M,87.69,KLAS 042056Z 18013G22KT 10SM FEW120 SCT150 BKN250 31/16 A2991 RMK AO2 SLP099 T03110156 58013,M
HND,2022-08-04 20:56,-115.1344,35.9729,742.79,89.00,60.00,37.83,200.00,21.00,0.00,29.96,1012.80,10.00,26.00,CLR,M,M,M,M,M,M,M,M,M,M,M,28.00,200.00,2022-08-04 20:14,88.76,KHND 042056Z 20021G26KT 10SM CLR 32/16 A2996 RMK AO2 PK WND 20028/2014 SLP128 T03170156 58016,M
LSV,2022-08-04 20:58,-115.0343,36.2362,570.00,91.00,59.40,34.87,160.00,17.00,0.00,29.89,M,10.00,M,FEW,FEW,SCT,M,15000.00,18000.00,21000.00,M,M,M,M,M,M,M,M,90.31,KLSV 042058Z AUTO 16017KT 10SM FEW150 FEW180 SCT210 33/15 A2989 RMK AO2 SLPNO T03270152 58015 $,M
INS,2022-08-04 20:58,-115.6733,36.5872,955.00,94.30,54.00,25.90,100.00,8.00,0.00,29.95,1008.70,10.00,M,FEW,M,M,M,21000.00,M,M,M,M,M,M,M,M,M,M,92.12,KINS 042058Z AUTO 10008KT 10SM FEW210 35/12 A2995 RMK AO2 SLP087 T03460123 58007,M
05U,2022-08-04 21:10,-116.0051,39.6042,1811.23,M,M,M,M,M,0.00,M,M,M,M,M,M,M,M,M,M,M,M,M,M,M,M,M,M,M,M,K05U 042110Z AUTO RMK A01 PNO,M
ELY,2022-08-04 21:10,-114.8453,39.2950,1909.00,83.00,48.00,29.64,300.00,9.00,0.00,30.18,M,10.00,M,SCT,M,M,M,11000.00,M,M,M,M,M,M,M,M,M,M,81.11,KELY 042110Z AUTO 30009KT 10SM SCT110 28/09 A3018 RMK AO2 LTG DSNT NE AND SE T02830089,M
TMT,2022-08-04 21:15,-117.1971,39.4643,1749.34,M,M,M,230.00,6.00,0.00,30.14,M,10.00,M,CLR,M,M,M,M,M,M,M,TS,M,M,M,M,M,M,M,KTMT 042115Z AUTO 23006KT 10SM TS CLR A3014 RMK AO2 LTG DSNT E THRU SW,M
HTH,2022-08-04 21:15,-118.6315,38.5448,1282.89,91.40,48.20,22.78,320.00,6.00,0.00,30.00,M,10.00,M,CLR,M,M,M,M,M,M,M,M,M,M,M,M,M,M,88.09,KHTH 042115Z AUTO 32006KT 10SM CLR 33/09 A3000 RMK A01,M
BAM,2022-08-04 21:15,-116.8743,40.5990,1382.36,96.80,46.40,18.02,280.00,8.00,0.00,30.02,M,10.00,M,SCT,M,M,M,11000.00,M,M,M,M,M,M,M,M,M,M,93.05,KBAM 042115Z AUTO 28008KT 10SM SCT110 36/08 A3002 RMK AO1,M
MEV,2022-08-04 21:15,-119.7500,38.9963,1441.42,78.80,59.00,50.69,230.00,18.00,0.00,30.07,M,9.00,M,CLR,M,M,M,M,M,M,M,VCTS RA,M,M,M,M,M,M,78.80,KMEV 042115Z AUTO 23018KT 9SM VCTS RA CLR 26/15 A3007 RMK AO2 LTG DSNT E-SW,M
CXP,2022-08-04 21:15,-119.7326,39.1923,1431.00,89.60,46.40,22.53,M,5.00,0.00,30.06,M,10.00,M,CLR,M,M,M,M,M,M,M,VCTS,M,M,M,M,M,M,86.24,KCXP 042115Z AUTO VRB05KT 10SM VCTS CLR 32/08 A3006 RMK AO2 LTG DSNT E-S,M
RTS,2022-08-04 21:15,-119.8764,39.6682,1539.00,82.40,57.20,42.25,280.00,8.00,0.00,30.10,M,10.00,15.00,FEW,M,M,M,12000.00,M,M,M,-DZ,M,M,M,M,M,M,82.08,KRTS 042115Z AUTO 28008G15KT 10SM -DZ FEW120 28/14 A3010 RMK AO2,M
BVU,2022-08-04 21:15,-114.8611,35.9475,671.00,87.80,64.40,45.88,170.00,11.00,0.00,29.94,M,M,M,M,M,M,M,M,M,M,M,M,M,M,M,M,M,M,89.33,KBVU 042115Z AUTO 17011KT 31/18 A2994 RMK AO2 PWINO TSNO,M
05U,2022-08-04 21:35,-116.0051,39.6042,1811.23,M,M,M,M,M,0.00,M,M,M,M,M,M,M,M,M,M,M,M,M,M,M,M,M,M,M,M,K05U 042135Z AUTO RMK A01 PNO,M
BVU,2022-08-04 21:35,-114.8611,35.9475,671.00,87.80,64.40,45.88,160.00,11.00,0.00,29.93,M,M,M,M,M,M,M,M,M,M,M,M,M,M,M,M,M,M,89.33,KBVU 042135Z AUTO 16011KT 31/18 A2993 RMK AO2 PWINO TSNO,M
CXP,2022-08-04 21:35,-119.7326,39.1923,1431.00,89.60,46.40,22.53,0.00,0.00,0.00,30.05,M,10.00,M,CLR,M,M,M,M,M,M,M,M,M,M,M,M,M,M,86.24,KCXP 042135Z AUTO 00000KT 10SM CLR 32/08 A3005 RMK AO2 LTG DSNT E AND S,M
RTS,2022-08-04 21:35,-119.8764,39.6682,1539.00,82.40,55.40,39.58,220.00,12.00,0.00,30.09,M,10.00,M,FEW,M,M,M,11000.00,M,M,M,-DZ,M,M,M,M,M,M,81.75,KRTS 042135Z AUTO 22012KT 10SM -DZ FEW110 28/13 A3009 RMK AO2,M
MEV,2022-08-04 21:35,-119.7500,38.9963,1441.42,69.80,62.60,77.90,180.00,9.00,0.00,30.08,M,9.00,15.00,FEW,FEW,M,M,7000.00,9500.00,M,M,-TSRA,M,M,M,M,M,M,69.80,KMEV 042135Z AUTO 18009G15KT 9SM -TSRA FEW070 FEW095 21/17 A3008 RMK AO2 LTG DSNT ALQDS,M
BAM,2022-08-04 21:35,-116.8743,40.5990,1382.36,96.80,46.40,18.02,120.00,3.00,0.00,30.01,M,10.00,M,CLR,M,M,M,M,M,M,M,M,M,M,M,M,M,M,93.05,KBAM 042135Z AUTO 12003KT 10SM CLR 36/08 A3001 RMK AO1,M
HTH,2022-08-04 21:35,-118.6315,38.5448,1282.89,91.40,48.20,22.78,320.00,7.00,0.00,29.99,M,10.00,M,CLR,M,M,M,M,M,M,M,M,M,M,M,M,M,M,88.09,KHTH 042135Z AUTO 32007KT 10SM CLR 33/09 A2999 RMK A01,M
TMT,2022-08-04 21:35,-117.1971,39.4643,1749.34,81.50,48.70,31.84,160.00,16.00,0.00,30.15,M,10.00,29.00,SCT,M,M,M,12000.00,M,M,M,VCTS,M,M,M,M,M,M,80.28,KTMT 042135Z AUTO 16016G29KT 10SM VCTS SCT120 28/09 A3015 RMK AO2 LTG DSNT E THRU S T02750093,M
RNO,2022-08-04 21:37,-119.7711,39.4839,1341.00,91.00,54.00,28.60,M,4.00,T,30.01,M,10.00,M,BKN,BKN,M,M,9000.00,16000.00,M,M,-TSRA,M,M,M,M,M,M,88.78,KRNO 042137Z VRB04KT 10SM -TSRA BKN090CB BKN160 33/12 A3001 RMK AO2 LTG DSNT SE RAB34 TSB36 OCNL LTGIC SW TS SW MOV NE CB DSNT ALQDS P0000 T03280122,M
LOL,2022-08-04 21:53,-118.5701,40.0684,1192.43,97.00,46.00,17.64,220.00,5.00,0.00,29.95,1009.10,10.00,14.00,CLR,M,M,M,M,M,M,M,M,M,M,M,M,M,M,93.19,KLOL 042153Z AUTO 22005G14KT 10SM CLR 36/08 A2995 RMK AO2 SLP091 T03610078,M
ELY,2022-08-04 21:53,-114.8453,39.2950,1909.00,86.00,48.00,26.82,360.00,7.00,0.00,30.16,1010.30,10.00,M,FEW,M,M,M,10000.00,M,M,M,M,M,M,M,M,M,M,83.38,KELY 042153Z AUTO 36007KT 10SM FEW100 30/09 A3016 RMK AO2 LTG DSNT NE AND W SLP103 T03000089,M
VGT,2022-08-04 21:53,-115.1933,36.2111,667.00,93.00,59.00,32.19,160.00,15.00,0.00,29.87,1010.10,10.00,M,CLR,M,M,M,M,M,M,M,M,M,M,M,M,M,M,92.35,KVGT 042153Z 16015KT 10SM CLR 34/15 A2987 RMK AO2 SLP101 T03390150,M
DRA,2022-08-04 21:53,-116.0278,36.6206,1009.00,91.00,57.00,31.89,220.00,18.00,0.00,29.99,1010.10,10.00,31.00,CLR,M,M,M,M,M,M,M,M,M,M,M,33.00,240.00,2022-08-04 21:21,89.59,KDRA 042153Z AUTO 22018G31KT 10SM CLR 33/14 A2999 RMK AO2 PK WND 24033/2121 SLP101 T03280139,M
BVU,2022-08-04 21:55,-114.8611,35.9475,671.00,87.80,64.40,45.88,160.00,14.00,0.00,29.92,M,M,M,M,M,M,M,M,M,M,M,M,M,M,M,M,M,M,89.33,KBVU 042155Z AUTO 16014KT 31/18 A2992 RMK AO2 PWINO TSNO,M
HTH,2022-08-04 21:55,-118.6315,38.5448,1282.89,93.20,48.20,21.54,330.00,11.00,0.00,29.99,M,10.00,17.00,CLR,M,M,M,M,M,M,M,M,M,M,M,M,M,M,89.80,KHTH 042155Z AUTO 33011G17KT 10SM CLR 34/09 A2999 RMK A01,M
RNO,2022-08-04 21:55,-119.7711,39.4839,1341.00,87.00,60.00,40.31,240.00,10.00,T,30.01,1009.90,10.00,M,BKN,BKN,M,M,9000.00,16000.00,M,M,-TSRA,M,M,M,M,M,M,86.83,KRNO 042155Z 24010KT 10SM -TSRA BKN090CB BKN160 31/16 A3001 RMK AO2 LTG DSNT N AND SE AND NW RAB34 TSB36 SLP099 OCNL LTGIC W TS W MOV NE CB DSNT ALQDS P0000 T03060156,M
TMT,2022-08-04 21:55,-117.1971,39.4643,1749.34,M,M,M,150.00,22.00,0.00,30.13,M,10.00,26.00,BKN,M,M,M,11000.00,M,M,M,M,M,M,M,M,M,M,M,KTMT 042155Z AUTO 15022G26KT 10SM BKN110 A3013 RMK AO2 LTG DSNT SW,M
BAM,2022-08-04 21:55,-116.8743,40.5990,1382.36,96.80,46.40,18.02,10.00,5.00,0.00,30.00,M,10.00,M,CLR,M,M,M,M,M,M,M,M,M,M,M,M,M,M,93.05,KBAM 042155Z AUTO 01005KT 10SM CLR 36/08 A3000 RMK AO1,M
RTS,2022-08-04 21:55,-119.8764,39.6682,1539.00,82.40,53.60,37.07,250.00,5.00,0.00,30.08,M,10.00,M,CLR,M,M,M,M,M,M,M,M,M,M,M,M,M,M,81.46,KRTS 042155Z AUTO 25005KT 10SM CLR 28/12 A3008 RMK AO2,M
05U,2022-08-04 21:55,-116.0051,39.6042,1811.23,M,M,M,M,M,0.00,M,M,M,M,M,M,M,M,M,M,M,M,M,M,M,M,M,M,M,M,K05U 042155Z AUTO RMK A01 PNO,M
MEV,2022-08-04 21:55,-119.7500,38.9963,1441.42,68.00,60.80,77.75,180.00,14.00,0.02,30.07,M,3.00,M,SCT,BKN,BKN,M,4100.00,5500.00,7000.00,M,VCTS RA HZ,M,M,M,M,M,M,68.00,KMEV 042155Z AUTO 18014KT 3SM VCTS RA HZ SCT041 BKN055 BKN070 20/16 A3007 RMK AO2 LTG DSNT ALQDS P0002,M
CXP,2022-08-04 21:55,-119.7326,39.1923,1431.00,82.40,57.20,42.25,200.00,15.00,0.00,30.06,M,10.00,M,CLR,M,M,M,M,M,M,M,M,M,M,M,M,M,M,82.08,KCXP 042155Z AUTO 20015KT 10SM CLR 28/14 A3006 RMK AO2 LTG DSNT ALQDS,M
HND,2022-08-04 21:56,-115.1344,35.9729,742.79,88.00,60.00,39.17,220.00,16.00,0.00,29.94,1012.00,10.00,M,CLR,M,M,M,M,M,M,M,M,M,M,M,27.00,200.00,2022-08-04 20:57,87.69,KHND 042156Z 22016KT 10SM CLR 31/16 A2994 RMK AO2 PK WND 20027/2057 SLP120 T03110156,M
EKO,2022-08-04 21:56,-115.7860,40.8242,1367.00,91.00,44.00,19.76,250.00,12.00,0.00,30.04,1010.20,10.00,17.00,CLR,M,M,M,M,M,M,M,M,M,M,M,M,M,M,87.27,KEKO 042156Z AUTO 25012G17KT 240V320 10SM CLR 33/07 A3004 RMK AO2 SLP102 T03280067,M
TPH,2022-08-04 21:56,-117.0904,38.0505,1654.00,81.00,56.00,42.19,190.00,14.00,T,30.14,1012.70,10.00,23.00,FEW,SCT,BKN,M,3600.00,9500.00,12000.00,M,-RA,M,M,M,30.00,150.00,2022-08-04 21:18,80.87,KTPH 042156Z AUTO 19014G23KT 10SM -RA FEW036 SCT095 BKN120 27/13 A3014 RMK AO2 PK WND 15030/2118 LTG DSNT SW RAB25 SLP127 P0000 T02720133,M
NFL,2022-08-04 21:56,-118.7010,39.4166,1199.00,97.00,45.00,16.98,0.00,0.00,0.00,29.95,1011.60,10.00,M,SCT,SCT,BKN,BKN,8000.00,10000.00,17000.00,20000.00,M,M,M,M,M,M,M,93.04,KNFL 042156Z 00000KT 10SM SCT080 SCT100 BKN170 BKN200 36/07 A2995 RMK AO2 SLP116 CB DSNT E-S-W-NW T03610072,M
LAS,2022-08-04 21:56,-115.1634,36.0719,663.00,89.00,59.00,36.37,190.00,12.00,0.00,29.89,1009.10,10.00,22.00,SCT,BKN,OVC,M,12000.00,15000.00,22000.00,M,M,M,M,M,M,M,M,88.37,KLAS 042156Z 19012G22KT 10SM SCT120 BKN150 OVC220 32/15 A2989 RMK AO2 SLP091 ACC NW-N T03170150,M
WMC,2022-08-04 21:56,-117.8072,40.9019,1315.00,98.00,46.00,17.06,360.00,3.00,0.00,29.97,1008.40,10.00,M,CLR,M,M,M,M,M,M,M,M,M,M,M,M,M,M,94.28,KWMC 042156Z AUTO 36003KT 10SM CLR 37/08 A2997 RMK AO2 SLP084 T03670078,M
INS,2022-08-04 21:58,-115.6733,36.5872,955.00,93.70,52.50,24.88,280.00,16.00,0.00,29.93,1008.20,10.00,19.00,FEW,FEW,M,M,19000.00,21000.00,M,M,M,M,M,M,M,M,M,91.11,KINS 042158Z AUTO 28016G19KT 10SM FEW190 FEW210 34/11 A2993 RMK AO2 SLP082 T03430114,M
LSV,2022-08-04 21:58,-115.0343,36.2362,570.00,93.20,58.00,30.76,180.00,15.00,0.00,29.87,M,10.00,M,FEW,SCT,M,M,15000.00,20000.00,M,M,M,M,M,M,M,M,M,92.15,KLSV 042158Z 18015KT 10SM FEW150 SCT200 34/14 A2987 RMK AO2A SLPNO T03400144 $,M
CXP,2022-08-04 22:10,-119.7326,39.1923,1431.00,78.80,55.40,44.52,180.00,15.00,0.00,30.07,M,10.00,M,CLR,M,M,M,M,M,M,M,M,M,M,M,M,M,M,78.80,KCXP 042210Z AUTO 18015KT 10SM CLR 26/13 A3007 RMK AO2 LTG DSNT S AND NW,M
RTS,2022-08-04 22:15,-119.8764,39.6682,1539.00,82.40,53.60,37.07,200.00,4.00,0.00,30.07,M,10.00,M,FEW,M,M,M,12000.00,M,M,M,M,M,M,M,M,M,M,81.46,KRTS 042215Z AUTO 20004KT 10SM FEW120 28/12 A3007 RMK AO2,M
BVU,2022-08-04 22:15,-114.8611,35.9475,671.00,86.00,66.20,51.72,160.00,16.00,0.00,29.92,M,M,M,M,M,M,M,M,M,M,M,M,M,M,M,M,M,M,88.39,KBVU 042215Z AUTO 16016KT 30/19 A2992 RMK AO2 PWINO TSNO,M
TMT,2022-08-04 22:15,-117.1971,39.4643,1749.34,M,M,M,120.00,14.00,0.00,30.12,M,10.00,18.00,SCT,M,M,M,11000.00,M,M,M,M,M,M,M,M,M,M,M,KTMT 042215Z AUTO 12014G18KT 10SM SCT110 A3012 RMK AO2 LTG DSNT S,M
HTH,2022-08-04 22:15,-118.6315,38.5448,1282.89,91.40,48.20,22.78,330.00,13.00,0.00,29.99,M,10.00,M,CLR,M,M,M,M,M,M,M,M,M,M,M,M,M,M,88.09,KHTH 042215Z AUTO 33013KT 10SM CLR 33/09 A2999 RMK A01,M
BAM,2022-08-04 22:15,-116.8743,40.5990,1382.36,96.80,46.40,18.02,350.00,8.00,0.00,29.99,M,10.00,14.00,CLR,M,M,M,M,M,M,M,M,M,M,M,M,M,M,93.05,KBAM 042215Z AUTO 35008G14KT 10SM CLR 36/08 A2999 RMK AO1,M
MEV,2022-08-04 22:15,-119.7500,38.9963,1441.42,68.00,59.00,72.92,240.00,13.00,0.00,30.08,M,2.50,M,SCT,BKN,OVC,M,3700.00,4500.00,7500.00,M,+TSRA HZ,M,M,M,M,M,M,68.00,KMEV 042215Z AUTO 24013KT 2 1/2SM +TSRA HZ SCT037 BKN045 OVC075 20/15 A3008 RMK AO2 LTG DSNT ALQDS VIS 1 3/4V5,M
05U,2022-08-04 22:15,-116.0051,39.6042,1811.23,M,M,M,M,M,0.00,M,M,M,M,M,M,M,M,M,M,M,M,M,M,M,M,M,M,M,M,K05U 042215Z AUTO RMK A01 PNO,M
ELY,2022-08-04 22:21,-114.8453,39.2950,1909.00,84.00,48.00,28.63,50.00,11.00,0.00,30.15,M,10.00,22.00,BKN,M,M,M,10000.00,M,M,M,M,M,M,M,M,M,M,82.04,KELY 042221Z AUTO 05011G22KT 10SM BKN100 29/09 A3015 RMK AO2 WSHFT 2201 LTG DSNT SE T02890089,M
HTH,2022-08-04 22:35,-118.6315,38.5448,1282.89,91.40,48.20,22.78,320.00,9.00,0.00,29.99,M,10.00,15.00,BKN,M,M,M,10000.00,M,M,M,M,M,M,M,M,M,M,88.09,KHTH 042235Z AUTO 32009G15KT 10SM BKN100 33/09 A2999 RMK A01,M
BAM,2022-08-04 22:35,-116.8743,40.5990,1382.36,95.00,46.40,19.04,330.00,8.00,0.00,29.98,M,10.00,M,CLR,M,M,M,M,M,M,M,M,M,M,M,M,M,M,91.29,KBAM 042235Z AUTO 33008KT 10SM CLR 35/08 A2998 RMK AO1,M
MEV,2022-08-04 22:35,-119.7500,38.9963,1441.42,66.20,59.00,77.60,220.00,14.00,0.00,30.09,M,7.00,M,BKN,BKN,OVC,M,4000.00,5000.00,8000.00,M,-RA,M,M,M,M,M,M,66.20,KMEV 042235Z AUTO 22014KT 7SM -RA BKN040 BKN050 OVC080 19/15 A3009 RMK AO2 LTG DSNT ALQDS,M
TMT,2022-08-04 22:35,-117.1971,39.4643,1749.34,M,M,M,150.00,6.00,0.00,30.12,M,10.00,M,CLR,M,M,M,M,M,M,M,M,M,M,M,M,M,M,M,KTMT 042235Z AUTO 15006KT 10SM CLR A3012 RMK AO2,M
RTS,2022-08-04 22:35,-119.8764,39.6682,1539.00,78.80,55.40,44.52,210.00,11.00,0.00,30.08,M,10.00,M,FEW,SCT,M,M,10000.00,12000.00,M,M,-DZ,M,M,M,M,M,M,78.80,KRTS 042235Z AUTO 21011KT 10SM -DZ FEW100 SCT120 26/13 A3008 RMK AO2,M
CXP,2022-08-04 22:35,-119.7326,39.1923,1431.00,77.00,55.40,47.25,180.00,12.00,0.00,30.07,M,10.00,19.00,FEW,M,M,M,12000.00,M,M,M,M,M,M,M,M,M,M,77.00,KCXP 042235Z AUTO 18012G19KT 10SM FEW120 25/13 A3007 RMK AO2 LTG DSNT ALQDS,M
BVU,2022-08-04 22:35,-114.8611,35.9475,671.00,87.80,66.20,48.84,150.00,18.00,0.00,29.91,M,M,M,M,M,M,M,M,M,M,M,M,M,M,M,M,M,M,90.31,KBVU 042235Z AUTO 15018KT 31/19 A2991 RMK AO2 PWINO TSNO,M
05U,2022-08-04 22:35,-116.0051,39.6042,1811.23,M,M,M,M,M,0.00,M,M,M,M,M,M,M,M,M,M,M,M,M,M,M,M,M,M,M,M,K05U 042235Z AUTO RMK A01 PNO,M
05U,2022-08-04 22:50,-116.0051,39.6042,1811.23,M,M,M,M,M,0.00,M,M,M,M,M,M,M,M,M,M,M,M,M,M,M,M,M,M,M,M,K05U 042250Z AUTO RMK A01 PNO,M
DRA,2022-08-04 22:53,-116.0278,36.6206,1009.00,90.00,56.00,31.62,220.00,17.00,0.00,29.97,1009.30,10.00,23.00,CLR,M,M,M,M,M,M,M,M,M,M,M,31.00,210.00,2022-08-04 21:58,88.29,KDRA 042253Z AUTO 22017G23KT 10SM CLR 32/13 A2997 RMK AO2 PK WND 21031/2158 SLP093 T03220133,M
VGT,2022-08-04 22:53,-115.1933,36.2111,667.00,94.00,59.00,31.31,140.00,12.00,0.00,29.86,1009.70,10.00,M,CLR,M,M,M,M,M,M,M,M,M,M,M,M,M,M,93.32,KVGT 042253Z 14012KT 10SM CLR 34/15 A2986 RMK AO2 SLP097 T03440150,M
ELY,2022-08-04 22:53,-114.8453,39.2950,1909.00,86.00,49.00,27.74,10.00,9.00,0.00,30.15,1010.40,10.00,20.00,FEW,FEW,M,M,10000.00,12000.00,M,M,M,M,M,M,M,M,M,83.48,KELY 042253Z AUTO 01009G20KT 10SM FEW100 FEW120 30/09 A3015 RMK AO2 WSHFT 2201 LTG DSNT S SLP104 T03000094,M
LOL,2022-08-04 22:53,-118.5701,40.0684,1192.43,98.00,47.00,17.65,170.00,8.00,0.00,29.92,1008.20,10.00,M,CLR,M,M,M,M,M,M,M,M,M,M,M,M,M,M,94.43,KLOL 042253Z AUTO 17008KT 150V210 10SM CLR 37/08 A2992 RMK AO2 SLP082 T03670083,M
MEV,2022-08-04 22:55,-119.7500,38.9963,1441.42,66.20,59.00,77.60,210.00,13.00,0.10,30.09,M,9.00,M,FEW,BKN,OVC,M,3900.00,7500.00,9000.00,M,VCTS RA,M,M,M,M,M,M,66.20,KMEV 042255Z AUTO 21013KT 9SM VCTS RA FEW039 BKN075 OVC090 19/15 A3009 RMK AO2 LTG DSNT SW-N P0010,M
RNO,2022-08-04 22:55,-119.7711,39.4839,1341.00,77.00,57.00,50.07,220.00,8.00,0.02,30.05,1012.10,10.00,23.00,SCT,BKN,BKN,M,6000.00,9000.00,14000.00,M,-TSRA,M,M,M,M,M,M,77.00,KRNO 042255Z 22008G23KT 190V260 10SM -TSRA SCT060 BKN090CB BKN140 25/14 A3005 RMK AO2 LTG DSNT W-NE PRESRR SLP121 OCNL LTGICCG OHD TS OHD MOV NE CB DSNT ALQDS P0002 T02500139,M
BVU,2022-08-04 22:55,-114.8611,35.9475,671.00,86.00,66.20,51.72,150.00,19.00,0.00,29.91,M,M,M,M,M,M,M,M,M,M,M,M,M,M,M,M,M,M,88.39,KBVU 042255Z AUTO 15019KT 30/19 A2991 RMK AO2 PWINO TSNO,M
CXP,2022-08-04 22:55,-119.7326,39.1923,1431.00,75.20,55.40,50.17,190.00,9.00,0.00,30.08,M,10.00,15.00,CLR,M,M,M,M,M,M,M,M,M,M,M,M,M,M,75.20,KCXP 042255Z AUTO 19009G15KT 10SM CLR 24/13 A3008 RMK AO2 LTG DSNT N,M
RTS,2022-08-04 22:55,-119.8764,39.6682,1539.00,73.40,55.40,53.29,240.00,16.00,0.00,30.09,M,8.00,M,FEW,SCT,BKN,M,5500.00,6500.00,10000.00,M,-RA,M,M,M,M,M,M,73.40,KRTS 042255Z AUTO 24016KT 8SM -RA FEW055 SCT065 BKN100 23/13 A3009 RMK AO2,M
BAM,2022-08-04 22:55,-116.8743,40.5990,1382.36,95.00,46.40,19.04,0.00,0.00,0.00,29.98,M,10.00,M,CLR,M,M,M,M,M,M,M,M,M,M,M,M,M,M,91.29,KBAM 042255Z AUTO 00000KT 10SM CLR 35/08 A2998 RMK AO1,M
HTH,2022-08-04 22:55,-118.6315,38.5448,1282.89,87.80,53.60,31.17,150.00,17.00,0.00,30.01,M,10.00,28.00,SCT,OVC,M,M,6000.00,10000.00,M,M,M,M,M,M,M,M,M,85.72,KHTH 042255Z AUTO 15017G28KT 10SM SCT060 OVC100 31/12 A3001 RMK A01,M
TMT,2022-08-04 22:55,-117.1971,39.4643,1749.34,M,M,M,180.00,4.00,0.00,30.11,M,10.00,M,CLR,M,M,M,M,M,M,M,M,M,M,M,M,M,M,M,KTMT 042255Z AUTO 18004KT 10SM CLR A3011 RMK AO2 LTG DSNT S,M
LAS,2022-08-04 22:56,-115.1634,36.0719,663.00,90.00,59.00,35.36,170.00,10.00,0.00,29.87,1008.60,10.00,M,SCT,BKN,OVC,M,12000.00,15000.00,22000.00,M,M,M,M,M,M,M,M,89.26,KLAS 042256Z 17010KT 10SM SCT120 BKN150 OVC220 32/15 A2987 RMK AO2 SLP086 ACC NW-N T03220150,M
HND,2022-08-04 22:56,-115.1344,35.9729,742.79,88.00,60.00,39.17,210.00,19.00,0.00,29.91,1011.20,10.00,M,CLR,M,M,M,M,M,M,M,M,M,M,M,M,M,M,87.69,KHND 042256Z 21019KT 10SM CLR 31/16 A2991 RMK AO2 SLP112 T03110156,M
EKO,2022-08-04 22:56,-115.7860,40.8242,1367.00,91.00,44.00,19.76,260.00,7.00,0.00,30.02,1009.60,10.00,19.00,CLR,M,M,M,M,M,M,M,M,M,M,M,M,M,M,87.27,KEKO 042256Z AUTO 26007G19KT 10SM CLR 33/07 A3002 RMK AO2 SLP096 T03280067,M
NFL,2022-08-04 22:56,-118.7010,39.4166,1199.00,97.00,46.00,17.64,290.00,5.00,0.00,29.93,1010.90,10.00,M,SCT,SCT,SCT,BKN,8000.00,12000.00,18000.00,25000.00,M,M,M,M,M,M,M,93.19,KNFL 042256Z 29005KT 10SM SCT080 SCT120 SCT180 BKN250 36/08 A2993 RMK AO2 SLP109 CB DSNT E-S-W-NW T03610078,M
WMC,2022-08-04 22:56,-117.8072,40.9019,1315.00,99.00,47.00,17.17,M,4.00,0.00,29.94,1007.30,10.00,M,SCT,M,M,M,11000.00,M,M,M,M,M,M,M,M,M,M,95.33,KWMC 042256Z AUTO VRB04KT 10SM SCT110 37/08 A2994 RMK AO2 SLP073 T03720083,M
TPH,2022-08-04 22:56,-117.0904,38.0505,1654.00,88.00,51.00,28.25,160.00,9.00,T,30.13,1011.60,10.00,M,BKN,M,M,M,8000.00,M,M,M,M,M,M,M,M,M,M,85.45,KTPH 042256Z AUTO 16009KT 10SM BKN080 31/11 A3013 RMK AO2 LTG DSNT N RAE2159 SLP116 P0000 T03110106,M
INS,2022-08-04 22:58,-115.6733,36.5872,955.00,91.60,53.80,27.86,280.00,19.00,0.00,29.92,1008.00,10.00,M,BKN,M,M,M,19000.00,M,M,M,M,M,M,M,M,M,M,89.32,KINS 042258Z AUTO 28019KT 10SM BKN190 33/12 A2992 RMK AO2 SLP080 T03310121,M
LSV,2022-08-04 22:58,-115.0343,36.2362,570.00,94.60,58.30,29.88,190.00,12.00,0.00,29.85,M,10.00,M,SCT,M,M,M,19000.00,M,M,M,M,M,M,M,M,M,M,93.80,KLSV 042258Z AUTO 19012KT 10SM SCT190 35/15 A2985 RMK AO2 SLPNO T03480146 $,M
RNO,2022-08-04 23:05,-119.7711,39.4839,1341.00,72.00,60.00,66.16,210.00,16.00,0.01,30.05,M,2.00,23.00,SCT,BKN,BKN,M,6000.00,9500.00,13000.00,M,TSRA,M,M,M,M,M,M,72.00,KRNO 042305Z 21016G23KT 2SM TSRA SCT060 BKN095CB BKN130 22/16 A3005 RMK AO2 LTG DSNT NE AND S AND NW OCNL LTGICCG SE TS SE MOV NE CB DSNT ALQDS P0001 T02220156,M
RNO,2022-08-04 23:08,-119.7711,39.4839,1341.00,71.00,59.00,65.58,210.00,10.00,0.03,30.06,M,4.00,23.00,SCT,BKN,BKN,M,6000.00,9500.00,13000.00,M,+TSRA,M,M,M,M,M,M,71.10,KRNO 042308Z 21010G23KT 4SM R16R/4000VP6000FT +TSRA SCT060 BKN095CB BKN130 22/15 A3006 RMK AO2 LTG DSNT NE AND S AND NW PRESRR OCNL LTGICCG SE TS SE MOV NE CB DSNT ALQDS P0003 T02170150,M
RTS,2022-08-04 23:15,-119.8764,39.6682,1539.00,68.00,53.60,59.97,230.00,18.00,0.00,30.10,M,2.00,36.00,FEW,SCT,BKN,M,300.00,3000.00,4200.00,M,RA,M,M,M,M,M,M,68.00,KRTS 042315Z AUTO 23018G36KT 2SM RA FEW003 SCT030 BKN042 20/12 A3010 RMK AO2,M
BVU,2022-08-04 23:15,-114.8611,35.9475,671.00,86.00,66.20,51.72,160.00,16.00,0.00,29.91,M,M,M,M,M,M,M,M,M,M,M,M,M,M,M,M,M,M,88.39,KBVU 042315Z AUTO 16016KT 30/19 A2991 RMK AO2 PWINO TSNO,M
CXP,2022-08-04 23:15,-119.7326,39.1923,1431.00,77.00,53.60,44.25,180.00,13.00,0.00,30.09,M,10.00,19.00,CLR,M,M,M,M,M,M,M,M,M,M,M,M,M,M,77.00,KCXP 042315Z AUTO 18013G19KT 10SM CLR 25/12 A3009 RMK AO2 LTG DSNT N AND SE,M
05U,2022-08-04 23:15,-116.0051,39.6042,1811.23,M,M,M,M,M,0.00,M,M,M,M,M,M,M,M,M,M,M,M,M,M,M,M,M,M,M,M,K05U 042315Z AUTO RMK A01 PNO,M
MEV,2022-08-04 23:15,-119.7500,38.9963,1441.42,64.40,60.80,88.09,170.00,12.00,0.00,30.11,M,1.50,M,SCT,BKN,OVC,M,3200.00,3800.00,4600.00,M,VCTS RA HZ,M,M,M,M,M,M,64.40,KMEV 042315Z AUTO 17012KT 1 1/2SM VCTS RA HZ SCT032 BKN038 OVC046 18/16 A3011 RMK AO2 LTG DSNT ALQDS,M
BAM,2022-08-04 23:15,-116.8743,40.5990,1382.36,96.80,46.40,18.02,10.00,3.00,0.00,29.97,M,10.00,M,CLR,M,M,M,M,M,M,M,M,M,M,M,M,M,M,93.05,KBAM 042315Z AUTO 01003KT 10SM CLR 36/08 A2997 RMK AO1,M
HTH,2022-08-04 23:15,-118.6315,38.5448,1282.89,84.20,50.00,30.62,140.00,16.00,0.00,30.01,M,10.00,23.00,FEW,FEW,SCT,M,2900.00,5500.00,7000.00,M,M,M,M,M,M,M,M,82.24,KHTH 042315Z AUTO 14016G23KT 10SM FEW029 FEW055 SCT070 29/10 A3001 RMK A01,M
TMT,2022-08-04 23:15,-117.1971,39.4643,1749.34,M,M,M,240.00,9.00,0.00,30.11,M,10.00,M,CLR,M,M,M,M,M,M,M,M,M,M,M,M,M,M,M,KTMT 042315Z AUTO 24009KT 10SM CLR A3011 RMK AO2 LTG DSNT S,M
RNO,2022-08-04 23:23,-119.7711,39.4839,1341.00,70.00,62.00,76.01,180.00,15.00,0.20,30.06,M,5.00,M,SCT,BKN,BKN,M,6000.00,9500.00,13000.00,M,+TSRA,M,M,M,M,M,M,70.00,KRNO 042323Z 18015KT 5SM +TSRA SCT060 BKN095CB BKN130 21/17 A3006 RMK AO2 LTG DSNT NE AND NW VIS SW 2 OCNL LTGICCG NW TS NW MOV NE CB DSNT ALQDS P0020 T02110167,M
HTH,2022-08-04 23:35,-118.6315,38.5448,1282.89,84.20,51.80,32.73,210.00,10.00,0.00,30.05,M,10.00,20.00,FEW,SCT,M,M,8500.00,11000.00,M,M,M,M,M,M,M,M,M,82.48,KHTH 042335Z AUTO 21010G20KT 10SM FEW085 SCT110 29/11 A3005 RMK A01,M
TMT,2022-08-04 23:35,-117.1971,39.4643,1749.34,M,M,M,240.00,6.00,0.00,30.11,M,10.00,M,CLR,M,M,M,M,M,M,M,M,M,M,M,M,M,M,M,KTMT 042335Z AUTO 24006KT 10SM CLR A3011 RMK AO2 LTG DSNT SE AND W,M
RTS,2022-08-04 23:35,-119.8764,39.6682,1539.00,69.80,55.40,60.21,240.00,11.00,0.00,30.13,M,6.00,17.00,FEW,SCT,BKN,M,3200.00,3800.00,4800.00,M,-RA,M,M,M,M,M,M,69.80,KRTS 042335Z AUTO 24011G17KT 6SM -RA FEW032 SCT038 BKN048 21/13 A3013 RMK AO2,M
BVU,2022-08-04 23:35,-114.8611,35.9475,671.00,84.20,66.20,54.80,150.00,17.00,0.00,29.90,M,M,M,M,M,M,M,M,M,M,M,M,M,M,M,M,M,M,86.50,KBVU 042335Z AUTO 15017KT 29/19 A2990 RMK AO2 PWINO TSNO,M
CXP,2022-08-04 23:35,-119.7326,39.1923,1431.00,75.20,55.40,50.17,240.00,7.00,0.00,30.10,M,10.00,M,CLR,M,M,M,M,M,M,M,M,M,M,M,M,M,M,75.20,KCXP 042335Z AUTO 24007KT 200V270 10SM CLR 24/13 A3010 RMK AO2 LTG DSNT N,M
05U,2022-08-04 23:35,-116.0051,39.6042,1811.23,M,M,M,M,M,0.00,M,M,M,M,M,M,M,M,M,M,M,M,M,M,M,M,M,M,M,M,K05U 042335Z AUTO RMK A01 PNO,M
BAM,2022-08-04 23:35,-116.8743,40.5990,1382.36,96.80,46.40,18.02,350.00,6.00,0.00,29.97,M,10.00,M,CLR,M,M,M,M,M,M,M,M,M,M,M,M,M,M,93.05,KBAM 042335Z AUTO 35006KT 10SM CLR 36/08 A2997 RMK AO1,M
MEV,2022-08-04 23:35,-119.7500,38.9963,1441.42,64.40,60.80,88.09,140.00,9.00,0.00,30.11,M,3.00,M,FEW,BKN,OVC,M,3300.00,4100.00,6500.00,M,VCTS RA BR,M,M,M,M,M,M,64.40,KMEV 042335Z AUTO 14009KT 3SM VCTS RA BR FEW033 BKN041 OVC065 18/16 A3011 RMK AO2,M
TPH,2022-08-04 23:51,-117.0904,38.0505,1654.00,80.60,59.00,47.79,120.00,10.00,0.01,30.11,M,10.00,M,FEW,BKN,OVC,M,7000.00,9500.00,11000.00,M,-TSRA,M,M,M,M,M,M,81.11,KTPH 042351Z AUTO 12010KT 10SM -TSRA FEW070 BKN095 OVC110 27/15 A3011 RMK AO2 RAB27 TSB45 P0001,M
DRA,2022-08-04 23:53,-116.0278,36.6206,1009.00,88.00,56.00,33.68,240.00,15.00,0.00,29.96,1009.20,10.00,23.00,CLR,M,M,M,M,M,M,M,M,M,M,M,M,M,M,86.42,KDRA 042353Z AUTO 24015G23KT 10SM CLR 31/13 A2996 RMK AO2 SLP092 T03110133 10350 20311 56010,M
VGT,2022-08-04 23:53,-115.1933,36.2111,667.00,93.00,59.00,32.19,140.00,12.00,0.00,29.86,1009.50,10.00,M,CLR,M,M,M,M,M,M,M,M,M,M,M,M,M,M,92.35,KVGT 042353Z 14012KT 10SM CLR 34/15 A2986 RMK AO2 SLP095 T03390150 10350 20311 56009,M
ELY,2022-08-04 23:53,-114.8453,39.2950,1909.00,76.00,56.00,49.91,230.00,11.00,T,30.16,1012.10,10.00,15.00,SCT,OVC,M,M,9500.00,11000.00,M,M,-RA,M,M,M,M,M,M,75.90,KELY 042353Z AUTO 23011G15KT 10SM -RA SCT095 OVC110 24/13 A3016 RMK AO2 LTG DSNT SE RAB28 SLP121 P0000 60009 T02440133 10317 20239 55006,M
LOL,2022-08-04 23:53,-118.5701,40.0684,1192.43,97.00,46.00,17.64,180.00,10.00,0.00,29.90,1007.60,10.00,M,CLR,M,M,M,M,M,M,M,M,M,M,M,M,M,M,93.19,KLOL 042353Z AUTO 18010KT 10SM CLR 36/08 A2990 RMK AO2 SLP076 T03610078 10372 20311 56025,M
TMT,2022-08-04 23:55,-117.1971,39.4643,1749.34,M,M,M,220.00,5.00,0.00,30.11,M,10.00,M,CLR,M,M,M,M,M,M,M,M,M,M,M,M,M,M,M,KTMT 042355Z AUTO 22005KT 10SM CLR A3011 RMK AO2 LTG DSNT SW,M
BVU,2022-08-04 23:55,-114.8611,35.9475,671.00,84.20,66.20,54.80,150.00,16.00,0.00,29.90,M,M,M,M,M,M,M,M,M,M,M,M,M,M,M,M,M,M,86.50,KBVU 042355Z AUTO 15016KT 29/19 A2990 RMK AO2 PWINO TSNO,M
CXP,2022-08-04 23:55,-119.7326,39.1923,1431.00,73.40,55.40,53.29,M,6.00,0.00,30.13,M,10.00,16.00,FEW,M,M,M,11000.00,M,M,M,M,M,M,M,M,M,M,73.40,KCXP 042355Z AUTO VRB06G16KT 10SM FEW110 23/13 A3013 RMK AO2 LTG DSNT NW,M
RNO,2022-08-04 23:55,-119.7711,39.4839,1341.00,71.00,62.00,73.22,330.00,7.00,0.22,30.08,1013.70,10.00,M,SCT,BKN,BKN,M,5000.00,9000.00,15000.00,M,-TSRA,M,M,M,M,M,M,71.10,KRNO 042355Z 33007KT 10SM -TSRA SCT050 BKN090CB BKN150 22/17 A3008 RMK AO2 LTG DSNT N AND NE AND SW SLP137 OCNL LTGICCG SE TS SE MOV NE CB DSNT ALQDS MTNS OBSCD DSNT SW P0022 60024 T02170167 10339 20206 53017,M
RTS,2022-08-04 23:55,-119.8764,39.6682,1539.00,66.20,57.20,72.74,170.00,7.00,0.25,30.12,M,4.00,M,SCT,BKN,OVC,M,3200.00,4000.00,9000.00,M,-RA,M,M,M,M,M,M,66.20,KRTS 042355Z AUTO 17007KT 4SM -RA SCT032 BKN040 OVC090 19/14 A3012 RMK AO2 P0025,M
05U,2022-08-04 23:55,-116.0051,39.6042,1811.23,M,M,M,M,M,0.00,M,M,M,M,M,M,M,M,M,M,M,M,M,M,M,M,M,M,M,M,K05U 042355Z AUTO RMK A01 PNO,M
MEV,2022-08-04 23:55,-119.7500,38.9963,1441.42,62.60,59.00,88.00,190.00,13.00,0.08,30.12,M,3.00,18.00,FEW,SCT,BKN,M,2200.00,3900.00,5500.00,M,VCTS RA BR,M,M,M,M,M,M,62.60,KMEV 042355Z AUTO 19013G18KT 3SM VCTS RA BR FEW022 SCT039 BKN055 17/15 A3012 RMK AO2 LTG DSNT ALQDS P0008,M
BAM,2022-08-04 23:55,-116.8743,40.5990,1382.36,96.80,50.00,20.62,340.00,12.00,0.00,29.96,M,10.00,15.00,CLR,M,M,M,M,M,M,M,M,M,M,M,M,M,M,93.71,KBAM 042355Z AUTO 34012G15KT 10SM CLR 36/10 A2996 RMK AO1,M
HTH,2022-08-04 23:55,-118.6315,38.5448,1282.89,80.60,53.60,39.30,220.00,14.00,0.00,30.07,M,10.00,24.00,BKN,M,M,M,11000.00,M,M,M,M,M,M,M,M,M,M,80.29,KHTH 042355Z AUTO 22014G24KT 10SM BKN110 27/12 A3007 RMK A01,M
LAS,2022-08-04 23:56,-115.1634,36.0719,663.00,89.00,60.00,37.83,180.00,12.00,0.00,29.87,1008.30,10.00,21.00,SCT,BKN,OVC,M,12000.00,15000.00,22000.00,M,M,M,M,M,M,M,M,88.76,KLAS 042356Z 18012G21KT 10SM SCT120 BKN150 OVC220 32/16 A2987 RMK AO2 SLP083 ACC NW-N T03170156 10328 20294 56015,M
HND,2022-08-04 23:56,-115.1344,35.9729,742.79,87.00,60.00,40.31,210.00,18.00,0.00,29.91,1011.30,10.00,24.00,FEW,M,M,M,9000.00,M,M,M,M,M,M,M,M,M,M,86.83,KHND 042356Z 21018G24KT 10SM FEW090 31/16 A2991 RMK AO2 SLP113 T03060156 10317 20289 55015,M
NFL,2022-08-04 23:56,-118.7010,39.4166,1199.00,96.00,46.00,18.13,250.00,11.00,0.00,29.93,1010.90,10.00,M,SCT,SCT,BKN,BKN,8000.00,12000.00,18000.00,25000.00,M,M,M,M,M,M,M,92.30,KNFL 042356Z 25011KT 10SM SCT080 SCT120 BKN180 BKN250 36/08 A2993 RMK AO2 SLP109 CB DSNT E-S-W-NW T03560078 10367 20311 55015,M
TPH,2022-08-04 23:56,-117.0904,38.0505,1654.00,82.00,56.00,40.83,120.00,10.00,0.01,30.11,1011.50,10.00,M,FEW,SCT,OVC,M,7000.00,9000.00,11000.00,M,-TSRA,M,M,M,M,M,M,81.55,KTPH 042356Z AUTO 12010KT 10SM -TSRA FEW070 SCT090 OVC110 28/13 A3011 RMK AO2 RAB27 TSB45 SLP115 P0001 60001 T02780133 10317 20261 56009,M
EKO,2022-08-04 23:56,-115.7860,40.8242,1367.00,93.00,43.00,17.80,M,4.00,0.00,30.00,1008.90,10.00,14.00,CLR,M,M,M,M,M,M,M,M,M,M,M,M,M,M,89.00,KEKO 042356Z AUTO VRB04G14KT 10SM CLR 34/06 A3000 RMK AO2 SLP089 T03390061 10356 20244 56021,M
WMC,2022-08-04 23:56,-117.8072,40.9019,1315.00,97.00,46.00,17.64,250.00,9.00,0.00,29.93,1007.20,10.00,M,CLR,M,M,M,M,M,M,M,M,M,M,M,M,M,M,93.19,KWMC 042356Z AUTO 25009KT 10SM CLR 36/08 A2993 RMK AO2 SLP072 T03610078 10383 20317 56021,M
INS,2022-08-04 23:58,-115.6733,36.5872,955.00,89.60,52.20,27.97,280.00,21.00,0.00,29.92,1008.00,10.00,M,SCT,M,M,M,18000.00,M,M,M,M,M,M,M,26.00,270.00,2022-08-04 23:40,87.07,KINS 042358Z AUTO 28021KT 10SM SCT180 32/11 A2992 RMK AO2 PK WND 27026/40 SLP080 T03200112 10355 20320 56010,M
LSV,2022-08-04 23:58,-115.0343,36.2362,570.00,91.80,65.30,41.74,140.00,9.00,0.00,29.84,M,10.00,M,SCT,M,M,M,18000.00,M,M,M,M,M,M,M,M,M,M,94.17,KLSV 042358Z 14009KT 10SM SCT180 33/19 A2984 RMK AO2A SLPNO T03320185 10363 20326 57015 $,M
