station,valid,lon,lat,elevation,tmpf,dwpf,relh,drct,sknt,p01i,alti,mslp,vsby,gust,skyc1,skyc2,skyc3,skyc4,skyl1,skyl2,skyl3,skyl4,wxcodes,ice_accretion_1hr,ice_accretion_3hr,ice_accretion_6hr,peak_wind_gust,peak_wind_drct,peak_wind_time,feel,metar,snowdepth
BAM,2021-03-26 00:15,-116.8743,40.5990,1382.36,35.60,32.00,86.59,330.00,5.00,0.00,29.71,M,2.00,22.00,SCT,BKN,OVC,M,300.00,3300.00,7000.00,M,M,M,M,M,M,M,M,30.67,KBAM 260015Z AUTO 33005G22KT 2SM SCT003 BKN033 OVC070 02/00 A2971 RMK AO1 VIS 3/4V5,M
CXP,2021-03-26 00:15,-119.7326,39.1923,1431.00,48.20,15.80,27.04,350.00,7.00,0.00,29.73,M,10.00,M,FEW,BKN,M,M,3400.00,5500.00,M,M,M,M,M,M,M,M,M,44.53,KCXP 260015Z AUTO 35007KT 10SM FEW034 BKN055 09/M09 A2973 RMK AO2,M
RTS,2021-03-26 00:15,-119.8764,39.6682,1539.00,42.80,14.00,30.68,350.00,17.00,0.00,29.73,M,10.00,27.00,BKN,BKN,M,M,6000.00,7000.00,M,M,M,M,M,M,M,M,M,34.22,KRTS 260015Z AUTO 35017G27KT 10SM BKN060 BKN070 06/M10 A2973 RMK AO2,M
05U,2021-03-26 00:15,-116.0051,39.6042,1811.23,33.80,30.20,86.49,360.00,6.00,0.00,29.68,M,1.50,11.00,BKN,BKN,BKN,M,300.00,2700.00,3300.00,M,HZ,M,M,M,M,M,M,27.70,K05U 260015Z AUTO 36006G11KT 1 1/2SM HZ BKN003 BKN027 BKN033 01/M01 A2968 RMK A01,M
HTH,2021-03-26 00:15,-118.6315,38.5448,1282.89,42.80,26.60,52.45,290.00,7.00,0.00,29.72,M,10.00,M,OVC,M,M,M,4900.00,M,M,M,M,M,M,M,M,M,M,37.94,KHTH 260015Z AUTO 29007KT 10SM OVC049 06/M03 A2972 RMK A01,M
BVU,2021-03-26 00:15,-114.8611,35.9475,671.00,62.60,14.00,14.81,170.00,15.00,0.00,29.54,M,10.00,27.00,OVC,M,M,M,9000.00,M,M,M,M,M,M,M,M,M,M,62.60,KBVU 260015Z AUTO 17015G27KT 10SM OVC090 17/M10 A2954 RMK AO2,M
TMT,2021-03-26 00:15,-117.1971,39.4643,1749.34,34.70,26.40,71.40,350.00,8.00,0.00,29.70,M,10.00,M,M,M,M,M,M,M,M,M,M,M,M,M,M,M,M,27.44,KTMT 260015Z AUTO 35008KT 10SM 02/M03 A2970 RMK AO2 T00151031,M
MEV,2021-03-26 00:15,-119.7500,38.9963,1441.42,42.80,26.60,52.45,10.00,11.00,0.00,29.72,M,10.00,18.00,FEW,SCT,BKN,M,3700.00,4800.00,6000.00,M,M,M,M,M,M,M,M,36.11,KMEV 260015Z AUTO 01011G18KT 10SM FEW037 SCT048 BKN060 06/M03 A2972 RMK AO2,M
HTH,2021-03-26 00:35,-118.6315,38.5448,1282.89,42.80,28.40,56.48,330.00,9.00,0.00,29.73,M,9.00,16.00,FEW,SCT,BKN,M,2200.00,2600.00,3100.00,M,M,M,M,M,M,M,M,36.94,KHTH 260035Z AUTO 33009G16KT 290V350 9SM FEW022 SCT026 BKN031 06/M02 A2973 RMK A01,M
CXP,2021-03-26 00:35,-119.7326,39.1923,1431.00,46.40,15.80,28.93,10.00,9.00,0.00,29.73,M,10.00,15.00,OVC,M,M,M,6000.00,M,M,M,M,M,M,M,M,M,M,41.42,KCXP 260035Z AUTO 01009G15KT 10SM OVC060 08/M09 A2973 RMK AO2,M
RTS,2021-03-26 00:35,-119.8764,39.6682,1539.00,42.80,14.00,30.68,350.00,20.00,0.00,29.74,M,10.00,27.00,BKN,BKN,M,M,6000.00,7500.00,M,M,M,M,M,M,M,M,M,33.48,KRTS 260035Z AUTO 35020G27KT 10SM BKN060 BKN075 06/M10 A2974 RMK AO2,M
05U,2021-03-26 00:35,-116.0051,39.6042,1811.23,32.00,28.40,86.39,20.00,7.00,0.00,29.68,M,8.00,M,FEW,FEW,SCT,M,1300.00,2500.00,2900.00,M,M,M,M,M,M,M,M,24.78,K05U 260035Z AUTO 02007KT 8SM FEW013 FEW025 SCT029 00/M02 A2968 RMK A01,M
MEV,2021-03-26 00:35,-119.7500,38.9963,1441.42,41.00,32.00,70.08,20.00,15.00,0.00,29.73,M,8.00,21.00,FEW,SCT,BKN,M,1700.00,2500.00,3200.00,M,-RA,M,M,M,M,M,M,32.45,KMEV 260035Z AUTO 02015G21KT 8SM -RA FEW017 SCT025 BKN032 05/M00 A2973 RMK AO2,M
TMT,2021-03-26 00:35,-117.1971,39.4643,1749.34,34.20,28.20,78.44,330.00,16.00,0.00,29.71,M,10.00,M,M,M,M,M,M,M,M,M,M,M,M,M,M,M,M,23.29,KTMT 260035Z AUTO 33016KT 10SM 01/M02 A2971 RMK AO2 T00121021,M
BAM,2021-03-26 00:35,-116.8743,40.5990,1382.36,37.40,32.00,80.65,350.00,14.00,0.00,29.72,M,10.00,M,SCT,BKN,OVC,M,1500.00,3100.00,6500.00,M,M,M,M,M,M,M,M,28.12,KBAM 260035Z AUTO 35014KT 10SM SCT015 BKN031 OVC065 03/00 A2972 RMK AO1,M
BVU,2021-03-26 00:35,-114.8611,35.9475,671.00,66.20,23.00,19.22,230.00,18.00,0.00,29.54,M,10.00,M,OVC,M,M,M,9000.00,M,M,M,M,M,M,M,M,M,M,66.20,KBVU 260035Z AUTO 23018KT 10SM OVC090 19/M05 A2954 RMK AO2,M
DRA,2021-03-26 00:53,-116.0278,36.6206,1009.00,60.00,15.10,16.98,210.00,12.00,0.00,29.53,997.50,10.00,21.00,OVC,M,M,M,10000.00,M,M,M,M,M,M,M,M,M,M,60.10,KDRA 260053Z AUTO 21012G21KT 10SM OVC100 16/M09 A2953 RMK AO2 SLP975 T01561094,M
ELY,2021-03-26 00:53,-114.8453,39.2950,1909.00,35.00,21.90,58.22,M,M,0.00,29.61,1001.60,10.00,M,SCT,BKN,OVC,M,3300.00,4400.00,5500.00,M,M,M,M,M,M,M,M,M,KELY 260053Z AUTO 10SM SCT033 BKN044 OVC055 02/M06 A2961 RMK AO2 SLP016 T00171056,M
P68,2021-03-26 00:53,-116.0056,39.6014,1993.00,30.90,27.00,85.26,360.00,10.00,0.02,29.66,1003.80,M,M,M,M,M,M,M,M,M,M,M,M,M,M,M,M,M,21.59,KP68 260053Z AUTO 36010KT M01/M03 A2966 RMK AO1 SLP038 P0002 T10061028,M
VGT,2021-03-26 00:53,-115.1933,36.2111,667.00,66.00,19.90,16.97,210.00,13.00,0.00,29.48,998.60,10.00,M,OVC,M,M,M,10000.00,M,M,M,M,M,M,M,M,M,M,66.00,KVGT 260053Z 21013KT 10SM OVC100 19/M07 A2948 RMK AO2 SLP986 T01891067,M
LOL,2021-03-26 00:53,-118.5701,40.0684,1192.43,48.00,19.00,31.27,340.00,12.00,0.00,29.74,1006.70,10.00,M,OVC,M,M,M,10000.00,M,M,M,M,M,M,M,M,M,M,42.37,KLOL 260053Z AUTO 34012KT 10SM OVC100 09/M07 A2974 RMK AO2 SLP067 T00891072,M
MEV,2021-03-26 00:55,-119.7500,38.9963,1441.42,37.40,30.20,74.98,30.00,14.00,0.00,29.74,M,1.50,23.00,SCT,BKN,BKN,M,400.00,1700.00,4600.00,M,-RA HZ,M,M,M,M,M,M,28.12,KMEV 260055Z AUTO 03014G23KT 1 1/2SM -RA HZ SCT004 BKN017 BKN046 03/M01 A2974 RMK AO2 VIS 3/4V5,M
TMT,2021-03-26 00:55,-117.1971,39.4643,1749.34,32.00,27.50,83.25,330.00,11.00,0.00,29.72,M,10.00,M,M,M,M,M,M,M,M,M,M,M,M,M,M,M,M,22.47,KTMT 260055Z AUTO 33011KT 10SM 00/M02 A2972 RMK AO2 T00001025,M
BAM,2021-03-26 00:55,-116.8743,40.5990,1382.36,33.80,33.80,100.00,30.00,10.00,0.00,29.72,M,5.00,M,SCT,BKN,OVC,M,1300.00,3600.00,7000.00,M,M,M,M,M,M,M,M,25.23,KBAM 260055Z AUTO 03010KT 5SM SCT013 BKN036 OVC070 01/01 A2972 RMK AO1,M
HTH,2021-03-26 00:55,-118.6315,38.5448,1282.89,42.80,28.40,56.48,30.00,14.00,0.00,29.74,M,10.00,M,SCT,BKN,OVC,M,2400.00,3800.00,4300.00,M,M,M,M,M,M,M,M,35.08,KHTH 260055Z AUTO 03014KT 10SM SCT024 BKN038 OVC043 06/M02 A2974 RMK A01,M
BVU,2021-03-26 00:55,-114.8611,35.9475,671.00,66.20,23.00,19.22,210.00,16.00,0.00,29.54,M,10.00,M,OVC,M,M,M,9500.00,M,M,M,M,M,M,M,M,M,M,66.20,KBVU 260055Z AUTO 21016KT 10SM OVC095 19/M05 A2954 RMK AO2,M
RNO,2021-03-26 00:55,-119.7711,39.4839,1341.00,45.00,15.10,29.59,350.00,22.00,0.00,29.72,1005.20,10.00,28.00,BKN,M,M,M,7500.00,M,M,M,M,M,M,M,30.00,360.00,2021-03-26 00:21,35.99,KRNO 260055Z 35022G28KT 10SM BKN075 07/M09 A2972 RMK AO2 PK WND 36030/0021 SLP052 T00721094,M
RTS,2021-03-26 00:55,-119.8764,39.6682,1539.00,41.00,14.00,32.88,360.00,18.00,0.00,29.74,M,10.00,24.00,BKN,OVC,M,M,6000.00,7000.00,M,M,M,M,M,M,M,M,M,31.60,KRTS 260055Z AUTO 36018G24KT 10SM BKN060 OVC070 05/M10 A2974 RMK AO2,M
CXP,2021-03-26 00:55,-119.7326,39.1923,1431.00,46.40,15.80,28.93,10.00,10.00,0.00,29.74,M,10.00,M,BKN,OVC,M,M,6000.00,7000.00,M,M,M,M,M,M,M,M,M,41.03,KCXP 260055Z AUTO 01010KT 10SM BKN060 OVC070 08/M09 A2974 RMK AO2,M
05U,2021-03-26 00:55,-116.0051,39.6042,1811.23,32.00,26.60,80.22,360.00,6.00,0.01,29.69,M,5.00,M,FEW,SCT,SCT,M,1500.00,2300.00,3100.00,M,HZ,M,M,M,M,M,M,25.53,K05U 260055Z AUTO 36006KT 5SM HZ FEW015 SCT023 SCT031 M00/M03 A2969 RMK A01 P0001,M
WMC,2021-03-26 00:56,-117.8072,40.9019,1315.00,38.00,26.10,62.14,320.00,11.00,T,29.73,1007.20,9.00,M,FEW,SCT,OVC,M,2600.00,5000.00,8000.00,M,-SN,M,M,M,M,M,M,29.92,KWMC 260056Z AUTO 32011KT 9SM -SN FEW026 SCT050 OVC080 03/M03 A2973 RMK AO2 SNB50 SLP072 P0000 T00331033,M
TPH,2021-03-26 00:56,-117.0904,38.0505,1654.00,43.00,19.90,39.29,320.00,18.00,0.00,29.65,1003.40,10.00,25.00,SCT,BKN,M,M,7000.00,9000.00,M,M,M,M,M,M,28.00,320.00,2021-03-26 00:26,34.23,KTPH 260056Z AUTO 32018G25KT 10SM SCT070 BKN090 06/M07 A2965 RMK AO2 PK WND 32028/0026 SLP034 T00611067,M
HND,2021-03-26 00:56,-115.1344,35.9729,742.79,63.00,26.10,24.46,210.00,23.00,0.00,29.54,1000.90,10.00,26.00,CLR,M,M,M,M,M,M,M,M,M,M,M,26.00,220.00,2021-03-26 00:56,63.00,KHND 260056Z 21023G26KT 10SM CLR 17/M03 A2954 RMK AO2 PK WND 22026/0056 SLP009 T01721033,M
NFL,2021-03-26 00:56,-118.7010,39.4166,1199.00,47.00,19.00,32.59,360.00,18.00,0.00,29.71,1004.30,10.00,22.00,SCT,BKN,BKN,BKN,3000.00,5000.00,10000.00,20000.00,M,M,M,M,28.00,350.00,2021-03-26 00:06,39.36,KNFL 260056Z 36018G22KT 10SM SCT030 BKN050 BKN100 BKN200 08/M07 A2971 RMK AO2 PK WND 35028/0006 SLP043 SH DSNT NW-N T00831072,M
LAS,2021-03-26 00:56,-115.1634,36.0719,663.00,64.00,23.00,20.75,230.00,12.00,0.00,29.52,998.50,10.00,M,BKN,BKN,BKN,M,11000.00,14000.00,17000.00,M,M,M,M,M,M,M,M,64.00,KLAS 260056Z 23012KT 10SM BKN110 BKN140 BKN170 18/M05 A2952 RMK AO2 SLP985 VIRGA ALQDS T01781050,M
EKO,2021-03-26 00:56,-115.7860,40.8242,1367.00,39.00,24.10,54.77,270.00,11.00,0.00,29.65,1004.60,10.00,M,BKN,OVC,M,M,4400.00,6000.00,M,M,M,M,M,M,M,M,M,31.31,KEKO 260056Z AUTO 27011KT 10SM BKN044 OVC060 04/M04 A2965 RMK AO2 SLP046 T00391044,M
INS,2021-03-26 00:58,-115.6733,36.5872,955.00,62.00,12.20,14.02,310.00,4.00,0.00,29.52,997.30,10.00,M,FEW,M,M,M,10000.00,M,M,M,M,M,M,M,M,M,M,61.90,KINS 260058Z AUTO 31004KT 10SM FEW100 17/M11 A2952 RMK AO2 SLP973 T01661110 $,M
LSV,2021-03-26 00:58,-115.0343,36.2362,570.00,66.70,20.50,16.99,230.00,13.00,0.00,29.51,998.20,10.00,M,FEW,M,M,M,10000.00,M,M,M,M,M,M,M,M,M,M,66.70,KLSV 260058Z AUTO 23013KT 10SM FEW100 19/M06 A2951 RMK AO2 SLP982 T01931064 $,M
HTH,2021-03-26 01:15,-118.6315,38.5448,1282.89,41.00,30.20,65.16,320.00,11.00,0.00,29.76,M,6.00,16.00,FEW,SCT,BKN,M,1400.00,2200.00,2700.00,M,HZ,M,M,M,M,M,M,33.84,KHTH 260115Z AUTO 32011G16KT 6SM HZ FEW014 SCT022 BKN027 05/M01 A2976 RMK A01,M
TMT,2021-03-26 01:15,-117.1971,39.4643,1749.34,32.20,27.70,83.27,330.00,10.00,0.00,29.72,M,7.00,M,M,M,M,M,M,M,M,M,-SN,M,M,M,M,M,M,23.22,KTMT 260115Z AUTO 33010KT 7SM -SN 00/M02 A2972 RMK AO2 T00011024,M
05U,2021-03-26 01:15,-116.0051,39.6042,1811.23,32.00,26.60,80.22,350.00,6.00,0.00,29.70,M,10.00,M,SCT,BKN,M,M,2500.00,3400.00,M,M,M,M,M,M,M,M,M,25.53,K05U 260115Z AUTO 35006KT 10SM SCT025 BKN034 M00/M03 A2970 RMK A01,M
BAM,2021-03-26 01:15,-116.8743,40.5990,1382.36,35.60,35.60,100.00,60.00,4.00,0.00,29.73,M,10.00,M,SCT,SCT,OVC,M,3200.00,4500.00,7000.00,M,M,M,M,M,M,M,M,31.62,KBAM 260115Z AUTO 06004KT 10SM SCT032 SCT045 OVC070 02/02 A2973 RMK AO1,M
BVU,2021-03-26 01:15,-114.8611,35.9475,671.00,66.20,24.80,20.72,230.00,17.00,0.00,29.55,M,10.00,M,BKN,M,M,M,10000.00,M,M,M,M,M,M,M,M,M,M,66.20,KBVU 260115Z AUTO 23017KT 10SM BKN100 19/M04 A2955 RMK AO2,M
CXP,2021-03-26 01:15,-119.7326,39.1923,1431.00,44.60,14.00,28.64,10.00,12.00,0.00,29.75,M,10.00,M,BKN,BKN,BKN,M,6000.00,7000.00,8000.00,M,M,M,M,M,M,M,M,38.04,KCXP 260115Z AUTO 01012KT 10SM BKN060 BKN070 BKN080 07/M10 A2975 RMK AO2,M
RTS,2021-03-26 01:15,-119.8764,39.6682,1539.00,41.00,14.00,32.88,350.00,18.00,0.00,29.75,M,10.00,M,OVC,M,M,M,6000.00,M,M,M,M,M,M,M,M,M,M,31.60,KRTS 260115Z AUTO 35018KT 10SM OVC060 05/M10 A2975 RMK AO2,M
MEV,2021-03-26 01:15,-119.7500,38.9963,1441.42,39.20,28.40,64.93,M,5.00,0.00,29.74,M,8.00,13.00,FEW,FEW,SCT,M,400.00,1700.00,2800.00,M,UP,M,M,M,M,M,M,34.95,KMEV 260115Z AUTO VRB05G13KT 8SM UP FEW004 FEW017 SCT028 04/M02 A2974 RMK AO2,M
LSV,2021-03-26 01:35,-115.0343,36.2362,570.00,66.20,23.00,19.22,270.00,12.00,0.00,29.52,998.40,10.00,M,SCT,M,M,M,11000.00,M,M,M,M,M,M,M,M,M,M,66.20,KLSV 260135Z AUTO 27012KT 10SM SCT110 19/M05 A2952 RMK AO2 WSHFT 20 SLP984 $,M
05U,2021-03-26 01:35,-116.0051,39.6042,1811.23,30.20,26.60,86.28,10.00,7.00,0.00,29.71,M,1.00,13.00,SCT,SCT,BKN,M,400.00,2500.00,3300.00,M,HZ,M,M,M,M,M,M,22.59,K05U 260135Z AUTO 01007G13KT 1SM HZ SCT004 SCT025 BKN033 M01/M03 A2971 RMK A01,M
HTH,2021-03-26 01:35,-118.6315,38.5448,1282.89,39.20,30.20,69.88,290.00,8.00,0.00,29.76,M,8.00,M,BKN,BKN,M,M,2500.00,3200.00,M,M,M,M,M,M,M,M,M,32.98,KHTH 260135Z AUTO 29008KT 8SM BKN025 BKN032 04/M01 A2976 RMK A01,M
CXP,2021-03-26 01:35,-119.7326,39.1923,1431.00,44.60,14.00,28.64,360.00,11.00,0.00,29.76,M,10.00,17.00,BKN,OVC,M,M,6000.00,6500.00,M,M,M,M,M,M,M,M,M,38.39,KCXP 260135Z AUTO 36011G17KT 10SM BKN060 OVC065 07/M10 A2976 RMK AO2,M
MEV,2021-03-26 01:35,-119.7500,38.9963,1441.42,39.20,26.60,60.29,310.00,13.00,0.00,29.75,M,10.00,M,FEW,BKN,BKN,M,2100.00,2700.00,3600.00,M,M,M,M,M,M,M,M,30.79,KMEV 260135Z AUTO 31013KT 10SM FEW021 BKN027 BKN036 04/M03 A2975 RMK AO2,M
BVU,2021-03-26 01:35,-114.8611,35.9475,671.00,64.40,24.80,22.06,220.00,17.00,0.00,29.56,M,10.00,M,BKN,M,M,M,10000.00,M,M,M,M,M,M,M,M,M,M,64.40,KBVU 260135Z AUTO 22017KT 10SM BKN100 18/M04 A2956 RMK AO2,M
BAM,2021-03-26 01:35,-116.8743,40.5990,1382.36,35.60,32.00,86.59,0.00,0.00,0.00,29.74,M,10.00,M,SCT,BKN,OVC,M,7000.00,8500.00,10000.00,M,M,M,M,M,M,M,M,35.60,KBAM 260135Z AUTO 00000KT 10SM SCT070 BKN085 OVC100 02/00 A2974 RMK AO1,M
RTS,2021-03-26 01:35,-119.8764,39.6682,1539.00,39.20,14.00,35.26,360.00,15.00,0.00,29.76,M,10.00,22.00,SCT,OVC,M,M,5000.00,6000.00,M,M,M,M,M,M,M,M,M,30.11,KRTS 260135Z AUTO 36015G22KT 10SM SCT050 OVC060 04/M10 A2976 RMK AO2,M
TMT,2021-03-26 01:35,-117.1971,39.4643,1749.34,32.00,28.20,85.68,330.00,4.00,0.00,29.74,M,10.00,M,M,M,M,M,M,M,M,M,M,M,M,M,M,M,M,27.42,KTMT 260135Z AUTO 33004KT 10SM 00/M02 A2974 RMK AO2 T00001021,M
ELY,2021-03-26 01:53,-114.8453,39.2950,1909.00,33.00,21.00,60.71,M,M,0.00,29.63,1002.80,10.00,M,OVC,M,M,M,9500.00,M,M,M,M,M,M,M,M,M,M,M,KELY 260153Z AUTO 10SM OVC095 01/M06 A2963 RMK AO2 SLP028 T00061061,M
VGT,2021-03-26 01:53,-115.1933,36.2111,667.00,65.00,24.10,21.05,210.00,13.00,0.00,29.50,999.40,10.00,M,OVC,M,M,M,10000.00,M,M,M,M,M,M,M,M,M,M,64.90,KVGT 260153Z 21013KT 10SM OVC100 18/M04 A2950 RMK AO2 SLP994 T01831044,M
DRA,2021-03-26 01:53,-116.0278,36.6206,1009.00,58.00,18.00,20.83,M,M,0.00,29.56,998.40,10.00,M,BKN,M,M,M,11000.00,M,M,M,M,M,M,M,M,M,M,57.90,KDRA 260153Z AUTO 10SM BKN110 14/M08 A2956 RMK AO2 SLP984 T01441078,M
P68,2021-03-26 01:53,-116.0056,39.6014,1993.00,30.00,27.00,88.44,350.00,3.00,0.00,29.69,1005.50,M,M,M,M,M,M,M,M,M,M,M,M,M,M,M,M,M,26.40,KP68 260153Z AUTO 35003KT M01/M03 A2969 RMK AO1 SLP055 T10111028,M
LOL,2021-03-26 01:53,-118.5701,40.0684,1192.43,44.00,19.90,37.67,340.00,14.00,0.00,29.76,1007.80,10.00,M,OVC,M,M,M,11000.00,M,M,M,M,M,M,M,M,M,M,36.76,KLOL 260153Z AUTO 34014KT 10SM OVC110 07/M07 A2976 RMK AO2 SLP078 T00671067,M
TMT,2021-03-26 01:55,-117.1971,39.4643,1749.34,32.00,28.20,85.68,0.00,0.00,0.00,29.74,M,10.00,M,M,M,M,M,M,M,M,M,M,M,M,M,M,M,M,32.00,KTMT 260155Z AUTO 00000KT 10SM 00/M02 A2974 RMK AO2 T00001021,M
CXP,2021-03-26 01:55,-119.7326,39.1923,1431.00,42.80,14.00,30.68,360.00,7.00,0.00,29.76,M,10.00,16.00,FEW,BKN,OVC,M,5000.00,6000.00,7500.00,M,M,M,M,M,M,M,M,37.94,KCXP 260155Z AUTO 36007G16KT 10SM FEW050 BKN060 OVC075 06/M10 A2976 RMK AO2,M
RTS,2021-03-26 01:55,-119.8764,39.6682,1539.00,39.20,14.00,35.26,360.00,16.00,0.00,29.77,M,10.00,M,FEW,BKN,OVC,M,4900.00,6000.00,7000.00,M,M,M,M,M,M,M,M,29.80,KRTS 260155Z AUTO 36016KT 10SM FEW049 BKN060 OVC070 04/M10 A2977 RMK AO2,M
MEV,2021-03-26 01:55,-119.7500,38.9963,1441.42,37.40,28.40,69.67,290.00,7.00,0.00,29.76,M,10.00,13.00,FEW,BKN,OVC,M,1800.00,2600.00,4900.00,M,M,M,M,M,M,M,M,31.36,KMEV 260155Z AUTO 29007G13KT 10SM FEW018 BKN026 OVC049 03/M02 A2976 RMK AO2,M
HTH,2021-03-26 01:55,-118.6315,38.5448,1282.89,39.20,30.20,69.88,260.00,8.00,0.00,29.76,M,9.00,M,SCT,BKN,BKN,M,2700.00,3700.00,4800.00,M,M,M,M,M,M,M,M,32.98,KHTH 260155Z AUTO 26008KT 9SM SCT027 BKN037 BKN048 04/M01 A2976 RMK A01,M
RNO,2021-03-26 01:55,-119.7711,39.4839,1341.00,43.00,16.00,33.22,10.00,18.00,0.00,29.76,1006.80,10.00,22.00,BKN,M,M,M,7000.00,M,M,M,M,M,M,M,27.00,350.00,2021-03-26 00:57,34.23,KRNO 260155Z 01018G22KT 10SM BKN070 06/M09 A2976 RMK AO2 PK WND 35027/0057 SLP068 T00611089,M
BAM,2021-03-26 01:55,-116.8743,40.5990,1382.36,35.60,32.00,86.59,0.00,0.00,0.00,29.75,M,10.00,M,OVC,M,M,M,11000.00,M,M,M,M,M,M,M,M,M,M,35.60,KBAM 260155Z AUTO 00000KT 10SM OVC110 02/00 A2975 RMK AO1,M
BVU,2021-03-26 01:55,-114.8611,35.9475,671.00,62.60,24.80,23.50,220.00,13.00,0.00,29.57,M,10.00,18.00,BKN,M,M,M,10000.00,M,M,M,M,M,M,M,M,M,M,62.60,KBVU 260155Z AUTO 22013G18KT 10SM BKN100 17/M04 A2957 RMK AO2,M
05U,2021-03-26 01:55,-116.0051,39.6042,1811.23,30.20,26.60,86.28,M,M,0.00,29.71,M,6.00,M,FEW,SCT,BKN,M,1900.00,2600.00,3700.00,M,HZ,M,M,M,M,M,M,M,K05U 260155Z AUTO 6SM HZ FEW019 SCT026 BKN037 M01/M03 A2971 RMK A01,M
TPH,2021-03-26 01:56,-117.0904,38.0505,1654.00,40.00,23.00,50.50,320.00,12.00,0.00,29.68,1004.50,10.00,M,BKN,OVC,M,M,7000.00,9000.00,M,M,M,M,M,M,M,M,M,32.06,KTPH 260156Z AUTO 32012KT 10SM BKN070 OVC090 04/M05 A2968 RMK AO2 SLP045 T00441050,M
LAS,2021-03-26 01:56,-115.1634,36.0719,663.00,62.00,28.00,27.30,220.00,14.00,0.00,29.55,999.70,10.00,22.00,SCT,SCT,BKN,M,11000.00,14000.00,17000.00,M,M,M,M,M,M,M,M,62.10,KLAS 260156Z 22014G22KT 10SM SCT110 SCT140 BKN170 17/M02 A2955 RMK AO2 SLP997 VIRGA ALQDS TCU DSNT SE T01671022,M
NFL,2021-03-26 01:56,-118.7010,39.4166,1199.00,45.00,18.00,33.55,360.00,14.00,0.00,29.74,1005.10,10.00,M,SCT,BKN,BKN,BKN,3000.00,5000.00,10000.00,20000.00,M,M,M,M,M,M,M,37.92,KNFL 260156Z 36014KT 10SM SCT030 BKN050 BKN100 BKN200 07/M08 A2974 RMK AO2 SLP051 SH DSNT NW-N T00721078,M
EKO,2021-03-26 01:56,-115.7860,40.8242,1367.00,38.00,19.00,46.08,300.00,9.00,0.00,29.68,1005.60,10.00,M,OVC,M,M,M,9000.00,M,M,M,M,M,M,M,M,M,M,30.85,KEKO 260156Z AUTO 30009KT 10SM OVC090 03/M07 A2968 RMK AO2 SLP056 T00331072,M
HND,2021-03-26 01:56,-115.1344,35.9729,742.79,60.00,28.00,29.31,230.00,15.00,0.00,29.58,1002.30,10.00,21.00,CLR,M,M,M,M,M,M,M,M,M,M,M,M,M,M,60.10,KHND 260156Z 23015G21KT 10SM CLR 16/M02 A2958 RMK AO2 SLP023 T01561022,M
WMC,2021-03-26 01:56,-117.8072,40.9019,1315.00,38.00,25.00,59.36,340.00,6.00,T,29.76,1008.00,10.00,M,OVC,M,M,M,9000.00,M,M,M,M,M,M,M,M,M,M,32.64,KWMC 260156Z AUTO 34006KT 10SM OVC090 03/M04 A2976 RMK AO2 SNE01 SLP080 P0000 T00331039,M
INS,2021-03-26 01:58,-115.6733,36.5872,955.00,60.00,13.60,16.01,300.00,11.00,0.00,29.53,997.80,10.00,M,BKN,M,M,M,10000.00,M,M,M,M,M,M,M,M,M,M,59.90,KINS 260158Z AUTO 30011KT 10SM BKN100 16/M10 A2953 RMK AO2 SLP978 T01551102 $,M
LSV,2021-03-26 01:58,-115.0343,36.2362,570.00,65.00,25.20,22.04,200.00,18.00,0.00,29.53,998.80,10.00,22.00,SCT,M,M,M,11000.00,M,M,M,M,M,M,M,M,M,M,64.90,KLSV 260158Z AUTO 20018G22KT 10SM SCT110 18/M04 A2953 RMK AO2 SLP988 T01831038 $,M
RTS,2021-03-26 02:15,-119.8764,39.6682,1539.00,39.20,14.00,35.26,10.00,13.00,0.00,29.78,M,10.00,M,OVC,M,M,M,6000.00,M,M,M,M,M,M,M,M,M,M,30.79,KRTS 260215Z AUTO 01013KT 10SM OVC060 04/M10 A2978 RMK AO2,M
TMT,2021-03-26 02:15,-117.1971,39.4643,1749.34,32.00,28.00,84.98,130.00,3.00,0.00,29.75,M,10.00,M,M,M,M,M,M,M,M,M,M,M,M,M,M,M,M,28.69,KTMT 260215Z AUTO 13003KT 10SM 00/M02 A2975 RMK AO2 T00001022,M
MEV,2021-03-26 02:15,-119.7500,38.9963,1441.42,39.20,28.40,64.93,260.00,5.00,0.00,29.76,M,10.00,M,FEW,SCT,BKN,M,2500.00,4300.00,5500.00,M,M,M,M,M,M,M,M,34.95,KMEV 260215Z AUTO 26005KT 10SM FEW025 SCT043 BKN055 04/M02 A2976 RMK AO2,M
BAM,2021-03-26 02:15,-116.8743,40.5990,1382.36,35.60,32.00,86.59,0.00,0.00,0.00,29.75,M,10.00,M,SCT,SCT,OVC,M,5000.00,7000.00,11000.00,M,M,M,M,M,M,M,M,35.60,KBAM 260215Z AUTO 00000KT 10SM SCT050 SCT070 OVC110 02/00 A2975 RMK AO1,M
05U,2021-03-26 02:15,-116.0051,39.6042,1811.23,30.20,26.60,86.28,0.00,0.00,0.00,29.72,M,10.00,M,FEW,BKN,OVC,M,2300.00,3500.00,4700.00,M,M,M,M,M,M,M,M,30.20,K05U 260215Z AUTO 00000KT 10SM FEW023 BKN035 OVC047 M01/M03 A2972 RMK A01,M
CXP,2021-03-26 02:15,-119.7326,39.1923,1431.00,42.80,15.80,33.18,10.00,11.00,0.00,29.77,M,10.00,18.00,SCT,BKN,OVC,M,5000.00,6000.00,7500.00,M,M,M,M,M,M,M,M,36.11,KCXP 260215Z AUTO 01011G18KT 10SM SCT050 BKN060 OVC075 06/M09 A2977 RMK AO2,M
BVU,2021-03-26 02:15,-114.8611,35.9475,671.00,60.80,26.60,26.98,230.00,11.00,0.00,29.58,M,10.00,M,SCT,M,M,M,10000.00,M,M,M,M,M,M,M,M,M,M,60.80,KBVU 260215Z AUTO 23011KT 10SM SCT100 16/M03 A2958 RMK AO2,M
HTH,2021-03-26 02:15,-118.6315,38.5448,1282.89,39.20,32.00,75.16,240.00,7.00,0.00,29.77,M,10.00,M,SCT,BKN,OVC,M,3100.00,4900.00,5500.00,M,M,M,M,M,M,M,M,33.56,KHTH 260215Z AUTO 24007KT 10SM SCT031 BKN049 OVC055 04/M00 A2977 RMK A01,M
BAM,2021-03-26 02:35,-116.8743,40.5990,1382.36,35.60,32.00,86.59,0.00,0.00,0.00,29.77,M,10.00,M,BKN,BKN,OVC,M,5000.00,6000.00,7500.00,M,M,M,M,M,M,M,M,35.60,KBAM 260235Z AUTO 00000KT 10SM BKN050 BKN060 OVC075 02/00 A2977 RMK AO1,M
05U,2021-03-26 02:35,-116.0051,39.6042,1811.23,28.40,24.80,86.18,0.00,0.00,0.00,29.73,M,10.00,M,FEW,BKN,OVC,M,1800.00,2300.00,6000.00,M,M,M,M,M,M,M,M,28.40,K05U 260235Z AUTO 00000KT 10SM FEW018 BKN023 OVC060 M02/M04 A2973 RMK A01,M
DRA,2021-03-26 02:35,-116.0278,36.6206,1009.00,55.00,26.10,32.56,30.00,25.00,0.00,29.59,M,10.00,33.00,FEW,BKN,OVC,M,7500.00,9000.00,11000.00,M,M,M,M,M,33.00,30.00,2021-03-26 02:34,55.00,KDRA 260235Z AUTO 03025G33KT 10SM FEW075 BKN090 OVC110 13/M03 A2959 RMK AO2 PK WND 03033/0234 WSHFT 0218 T01281033,M
MEV,2021-03-26 02:35,-119.7500,38.9963,1441.42,35.60,30.20,80.51,240.00,6.00,0.00,29.77,M,10.00,M,FEW,SCT,OVC,M,3900.00,4500.00,6000.00,M,M,M,M,M,M,M,M,29.87,KMEV 260235Z AUTO 24006KT 10SM FEW039 SCT045 OVC060 02/M01 A2977 RMK AO2,M
RTS,2021-03-26 02:35,-119.8764,39.6682,1539.00,39.20,14.00,35.26,360.00,9.00,0.00,29.79,M,10.00,M,OVC,M,M,M,6000.00,M,M,M,M,M,M,M,M,M,M,32.47,KRTS 260235Z AUTO 36009KT 10SM OVC060 04/M10 A2979 RMK AO2,M
HTH,2021-03-26 02:35,-118.6315,38.5448,1282.89,39.20,30.20,69.88,20.00,4.00,0.00,29.78,M,10.00,M,BKN,OVC,M,M,3100.00,5000.00,M,M,M,M,M,M,M,M,M,35.83,KHTH 260235Z AUTO 02004KT 10SM BKN031 OVC050 04/M01 A2978 RMK A01,M
BVU,2021-03-26 02:35,-114.8611,35.9475,671.00,60.80,26.60,26.98,230.00,11.00,0.00,29.59,M,10.00,M,FEW,FEW,M,M,9500.00,12000.00,M,M,M,M,M,M,M,M,M,60.80,KBVU 260235Z AUTO 23011KT 10SM FEW095 FEW120 16/M03 A2959 RMK AO2,M
CXP,2021-03-26 02:35,-119.7326,39.1923,1431.00,42.80,15.80,33.18,360.00,10.00,0.00,29.78,M,10.00,16.00,BKN,OVC,M,M,6000.00,7500.00,M,M,M,M,M,M,M,M,M,36.51,KCXP 260235Z AUTO 36010G16KT 10SM BKN060 OVC075 06/M09 A2978 RMK AO2,M
TMT,2021-03-26 02:35,-117.1971,39.4643,1749.34,31.80,27.50,83.93,0.00,0.00,0.00,29.75,M,10.00,M,M,M,M,M,M,M,M,M,M,M,M,M,M,M,M,31.80,KTMT 260235Z AUTO 00000KT 10SM 00/M02 A2975 RMK AO2 T10011025,M
INS,2021-03-26 02:43,-115.6733,36.5872,955.00,59.00,15.80,18.20,360.00,13.00,0.00,29.56,998.90,10.00,M,SCT,M,M,M,10000.00,M,M,M,M,M,M,M,M,M,M,59.00,KINS 260243Z AUTO 36013KT 10SM SCT100 15/M09 A2956 RMK AO2 WSHFT 30 SLP989 $,M
P68,2021-03-26 02:53,-116.0056,39.6014,1993.00,28.90,26.10,89.12,320.00,4.00,0.00,29.72,1006.30,M,M,M,M,M,M,M,M,M,M,M,M,M,M,M,M,M,23.80,KP68 260253Z AUTO 32004KT M02/M03 A2972 RMK AO1 SLP063 60002 T10171033 53019,M
LOL,2021-03-26 02:53,-118.5701,40.0684,1192.43,41.00,23.00,48.39,360.00,10.00,0.00,29.78,1008.50,10.00,M,FEW,M,M,M,11000.00,M,M,M,M,M,M,M,M,M,M,34.25,KLOL 260253Z AUTO 36010KT 10SM FEW110 05/M05 A2978 RMK AO2 SLP085 T00501050 53016,M
DRA,2021-03-26 02:53,-116.0278,36.6206,1009.00,54.00,27.00,35.05,30.00,27.00,0.00,29.59,999.90,10.00,38.00,BKN,OVC,M,M,7000.00,9000.00,M,M,M,M,M,M,38.00,30.00,2021-03-26 02:45,54.00,KDRA 260253Z AUTO 03027G38KT 10SM BKN070 OVC090 12/M03 A2959 RMK AO2 PK WND 03038/0245 WSHFT 0218 SLP999 T01221028 53021,M
ELY,2021-03-26 02:53,-114.8453,39.2950,1909.00,30.90,24.10,75.59,M,M,0.00,29.66,1004.10,10.00,M,FEW,BKN,BKN,M,4800.00,6500.00,9000.00,M,M,M,M,M,M,M,M,M,KELY 260253Z AUTO 10SM FEW048 BKN065 BKN090 M01/M04 A2966 RMK AO2 SLP041 T10061044 53016,M
VGT,2021-03-26 02:53,-115.1933,36.2111,667.00,62.00,30.00,29.63,240.00,15.00,0.00,29.52,1000.50,10.00,M,FEW,M,M,M,12000.00,M,M,M,M,M,M,M,M,M,M,62.10,KVGT 260253Z 24015KT 10SM FEW120 17/M01 A2952 RMK AO2 SLP005 T01671011 53017,M
HTH,2021-03-26 02:55,-118.6315,38.5448,1282.89,41.00,26.60,56.22,0.00,0.00,0.00,29.78,M,10.00,M,BKN,BKN,OVC,M,2900.00,3500.00,5000.00,M,M,M,M,M,M,M,M,41.00,KHTH 260255Z AUTO 00000KT 10SM BKN029 BKN035 OVC050 05/M03 A2978 RMK A01,M
TMT,2021-03-26 02:55,-117.1971,39.4643,1749.34,31.60,27.00,82.88,0.00,0.00,0.00,29.76,M,10.00,M,M,M,M,M,M,M,M,M,M,M,M,M,M,M,M,31.60,KTMT 260255Z AUTO 00000KT 10SM 00/M03 A2976 RMK AO2 T10021028,M
RNO,2021-03-26 02:55,-119.7711,39.4839,1341.00,42.00,18.00,37.49,20.00,12.00,0.00,29.79,1007.70,10.00,M,FEW,BKN,M,M,5000.00,7000.00,M,M,M,M,M,M,M,M,M,34.86,KRNO 260255Z 02012KT 10SM FEW050 BKN070 06/M08 A2979 RMK AO2 SLP077 T00561078 53024,M
CXP,2021-03-26 02:55,-119.7326,39.1923,1431.00,41.00,15.80,35.57,360.00,11.00,0.00,29.79,M,10.00,17.00,SCT,OVC,M,M,5000.00,6000.00,M,M,M,M,M,M,M,M,M,33.84,KCXP 260255Z AUTO 36011G17KT 10SM SCT050 OVC060 05/M09 A2979 RMK AO2,M
BAM,2021-03-26 02:55,-116.8743,40.5990,1382.36,33.80,33.80,100.00,60.00,6.00,0.00,29.77,M,10.00,M,SCT,SCT,OVC,M,1000.00,2000.00,5000.00,M,M,M,M,M,M,M,M,27.70,KBAM 260255Z AUTO 06006KT 10SM SCT010 SCT020 OVC050 01/01 A2977 RMK AO1,M
MEV,2021-03-26 02:55,-119.7500,38.9963,1441.42,37.40,28.40,69.67,170.00,6.00,0.00,29.79,M,10.00,M,OVC,M,M,M,6000.00,M,M,M,M,M,M,M,M,M,M,32.03,KMEV 260255Z AUTO 17006KT 10SM OVC060 03/M02 A2979 RMK AO2,M
RTS,2021-03-26 02:55,-119.8764,39.6682,1539.00,37.40,15.80,40.93,360.00,13.00,0.00,29.80,M,10.00,M,OVC,M,M,M,6000.00,M,M,M,M,M,M,M,M,M,M,28.49,KRTS 260255Z AUTO 36013KT 10SM OVC060 03/M09 A2980 RMK AO2,M
BVU,2021-03-26 02:55,-114.8611,35.9475,671.00,59.00,26.60,28.77,240.00,11.00,0.00,29.59,M,10.00,M,FEW,M,M,M,5500.00,M,M,M,M,M,M,M,M,M,M,59.00,KBVU 260255Z AUTO 24011KT 10SM FEW055 15/M03 A2959 RMK AO2,M
05U,2021-03-26 02:55,-116.0051,39.6042,1811.23,28.40,24.80,86.18,0.00,0.00,0.00,29.74,M,10.00,M,SCT,SCT,OVC,M,2100.00,2800.00,3700.00,M,M,M,M,M,M,M,M,28.40,K05U 260255Z AUTO 00000KT 10SM SCT021 SCT028 OVC037 M02/M04 A2974 RMK A01,M
LAS,2021-03-26 02:56,-115.1634,36.0719,663.00,60.00,30.00,31.80,230.00,11.00,0.00,29.58,1000.50,10.00,22.00,SCT,SCT,BKN,M,11000.00,14000.00,17000.00,M,M,M,M,M,M,M,M,60.10,KLAS 260256Z 23011G22KT 10SM SCT110 SCT140 BKN170 16/M01 A2958 RMK AO2 SLP005 T01561011 53019,M
TPH,2021-03-26 02:56,-117.0904,38.0505,1654.00,37.00,24.10,59.24,320.00,14.00,0.00,29.70,1005.40,10.00,21.00,FEW,SCT,BKN,M,6000.00,7500.00,9500.00,M,M,M,M,M,M,M,M,27.61,KTPH 260256Z AUTO 32014G21KT 10SM FEW060 SCT075 BKN095 03/M04 A2970 RMK AO2 SLP054 T00281044 53019,M
EKO,2021-03-26 02:56,-115.7860,40.8242,1367.00,35.00,21.90,58.22,310.00,11.00,0.00,29.70,1006.70,10.00,M,SCT,BKN,OVC,M,7000.00,9000.00,11000.00,M,M,M,M,M,M,M,M,26.38,KEKO 260256Z AUTO 31011KT 10SM SCT070 BKN090 OVC110 02/M06 A2970 RMK AO2 SLP067 T00171056 53020,M
NFL,2021-03-26 02:56,-118.7010,39.4166,1199.00,42.00,19.90,40.67,360.00,9.00,0.00,29.77,1006.10,10.00,M,SCT,BKN,BKN,M,3000.00,10000.00,20000.00,M,M,M,M,M,M,M,M,36.07,KNFL 260256Z 36009KT 10SM SCT030 BKN100 BKN200 06/M07 A2977 RMK AO2 SLP061 SH DSNT NW-N T00561067 53025,M
HND,2021-03-26 02:56,-115.1344,35.9729,742.79,57.00,28.90,33.98,220.00,15.00,0.00,29.61,1003.40,10.00,M,CLR,M,M,M,M,M,M,M,M,M,M,M,M,M,M,57.00,KHND 260256Z 22015KT 10SM CLR 14/M02 A2961 RMK AO2 SLP034 T01391017 53020,M
WMC,2021-03-26 02:56,-117.8072,40.9019,1315.00,37.00,27.00,66.82,340.00,6.00,0.00,29.78,1009.00,10.00,M,FEW,BKN,OVC,M,5000.00,6500.00,9000.00,M,M,M,M,M,M,M,M,31.55,KWMC 260256Z AUTO 34006KT 10SM FEW050 BKN065 OVC090 03/M03 A2978 RMK AO2 SLP090 60000 T00281028 53021,M
LSV,2021-03-26 02:58,-115.0343,36.2362,570.00,62.80,29.10,27.86,210.00,14.00,0.00,29.55,999.50,10.00,M,CLR,M,M,M,M,M,M,M,M,M,M,M,M,M,M,62.80,KLSV 260258Z AUTO 21014KT 10SM CLR 17/M02 A2955 RMK AO2 SLP995 T01711016 53017 $,M
INS,2021-03-26 02:58,-115.6733,36.5872,955.00,55.00,25.70,32.02,30.00,24.00,0.00,29.57,999.20,10.00,31.00,BKN,M,M,M,10000.00,M,M,M,M,M,M,M,31.00,30.00,2021-03-26 02:54,55.00,KINS 260258Z AUTO 03024G31KT 10SM BKN100 13/M03 A2957 RMK AO2 PK WND 03031/54 SLP992 T01281035 52021 $,M
TMT,2021-03-26 03:15,-117.1971,39.4643,1749.34,31.10,28.20,88.85,250.00,6.00,0.00,29.77,M,7.00,M,M,M,M,M,M,M,M,M,-SN,M,M,M,M,M,M,24.45,KTMT 260315Z AUTO 25006KT 7SM -SN 00/M02 A2977 RMK AO2 T10051021,M
BVU,2021-03-26 03:15,-114.8611,35.9475,671.00,57.20,26.60,30.69,230.00,5.00,0.00,29.60,M,10.00,M,CLR,M,M,M,M,M,M,M,M,M,M,M,M,M,M,57.20,KBVU 260315Z AUTO 23005KT 10SM CLR 14/M03 A2960 RMK AO2,M
05U,2021-03-26 03:15,-116.0051,39.6042,1811.23,30.20,26.60,86.28,0.00,0.00,0.00,29.75,M,2.00,M,BKN,BKN,OVC,M,300.00,600.00,3600.00,M,BR,M,M,M,M,M,M,30.20,K05U 260315Z AUTO 00000KT 2SM BR BKN003 BKN006 OVC036 M01/M03 A2975 RMK A01,M
BAM,2021-03-26 03:15,-116.8743,40.5990,1382.36,33.80,32.00,93.03,0.00,0.00,0.00,29.78,M,10.00,M,SCT,SCT,OVC,M,1600.00,3700.00,10000.00,M,M,M,M,M,M,M,M,33.80,KBAM 260315Z AUTO 00000KT 10SM SCT016 SCT037 OVC100 01/00 A2978 RMK AO1,M
HTH,2021-03-26 03:15,-118.6315,38.5448,1282.89,41.00,26.60,56.22,M,4.00,0.00,29.79,M,10.00,M,FEW,SCT,BKN,M,2600.00,3700.00,4400.00,M,M,M,M,M,M,M,M,37.93,KHTH 260315Z AUTO VRB04KT 10SM FEW026 SCT037 BKN044 05/M03 A2979 RMK A01,M
MEV,2021-03-26 03:15,-119.7500,38.9963,1441.42,35.60,28.40,74.80,130.00,6.00,0.00,29.80,M,10.00,M,FEW,OVC,M,M,4800.00,6000.00,M,M,M,M,M,M,M,M,M,29.87,KMEV 260315Z AUTO 13006KT 10SM FEW048 OVC060 02/M02 A2980 RMK AO2,M
RTS,2021-03-26 03:15,-119.8764,39.6682,1539.00,37.40,15.80,40.93,360.00,14.00,0.00,29.80,M,10.00,M,OVC,M,M,M,6500.00,M,M,M,M,M,M,M,M,M,M,28.12,KRTS 260315Z AUTO 36014KT 10SM OVC065 03/M09 A2980 RMK AO2,M
CXP,2021-03-26 03:15,-119.7326,39.1923,1431.00,41.00,15.80,35.57,350.00,14.00,0.00,29.80,M,10.00,M,FEW,OVC,M,M,4900.00,6000.00,M,M,M,M,M,M,M,M,M,32.76,KCXP 260315Z AUTO 35014KT 10SM FEW049 OVC060 05/M09 A2980 RMK AO2,M
INS,2021-03-26 03:18,-115.6733,36.5872,955.00,53.60,26.60,34.98,20.00,22.00,0.00,29.59,1000.10,10.00,29.00,BKN,M,M,M,9500.00,M,M,M,M,M,M,M,M,M,M,53.60,KINS 260318Z AUTO 02022G29KT 10SM BKN095 12/M03 A2959 RMK AO2 SLP001 $,M
HTH,2021-03-26 03:35,-118.6315,38.5448,1282.89,41.00,28.40,60.54,0.00,0.00,0.00,29.80,M,10.00,11.00,FEW,BKN,OVC,M,3000.00,3600.00,5500.00,M,M,M,M,M,M,M,M,41.00,KHTH 260335Z AUTO 00000G11KT 10SM FEW030 BKN036 OVC055 05/M02 A2980 RMK A01,M
05U,2021-03-26 03:35,-116.0051,39.6042,1811.23,28.40,26.60,92.86,360.00,7.00,0.00,29.76,M,0.75,M,OVC,M,M,M,200.00,M,M,M,BR,M,M,M,M,M,M,20.39,K05U 260335Z AUTO 36007KT 3/4SM BR OVC002 M02/M03 A2976 RMK A01,M
BAM,2021-03-26 03:35,-116.8743,40.5990,1382.36,33.80,32.00,93.03,0.00,0.00,0.00,29.79,M,10.00,M,SCT,BKN,OVC,M,5000.00,9000.00,10000.00,M,M,M,M,M,M,M,M,33.80,KBAM 260335Z AUTO 00000KT 10SM SCT050 BKN090 OVC100 01/00 A2979 RMK AO1,M
BVU,2021-03-26 03:35,-114.8611,35.9475,671.00,57.20,26.60,30.69,230.00,9.00,0.00,29.61,M,10.00,M,CLR,M,M,M,M,M,M,M,M,M,M,M,M,M,M,57.20,KBVU 260335Z AUTO 23009KT 10SM CLR 14/M03 A2961 RMK AO2,M
MEV,2021-03-26 03:35,-119.7500,38.9963,1441.42,33.80,28.40,80.36,120.00,6.00,0.00,29.81,M,10.00,M,FEW,OVC,M,M,4700.00,6000.00,M,M,M,M,M,M,M,M,M,27.70,KMEV 260335Z AUTO 12006KT 10SM FEW047 OVC060 01/M02 A2981 RMK AO2,M
TMT,2021-03-26 03:35,-117.1971,39.4643,1749.34,30.90,26.60,83.87,320.00,5.00,0.00,29.77,M,10.00,M,M,M,M,M,M,M,M,M,M,M,M,M,M,M,M,25.09,KTMT 260335Z AUTO 32005KT 10SM M01/M03 A2977 RMK AO2 T10061030,M
CXP,2021-03-26 03:35,-119.7326,39.1923,1431.00,41.00,15.80,35.57,350.00,11.00,0.00,29.81,M,10.00,17.00,FEW,SCT,BKN,M,4200.00,4800.00,6500.00,M,M,M,M,M,M,M,M,33.84,KCXP 260335Z AUTO 35011G17KT 10SM FEW042 SCT048 BKN065 05/M09 A2981 RMK AO2,M
RTS,2021-03-26 03:35,-119.8764,39.6682,1539.00,37.40,15.80,40.93,360.00,15.00,0.00,29.81,M,10.00,M,OVC,M,M,M,7000.00,M,M,M,M,M,M,M,M,M,M,27.78,KRTS 260335Z AUTO 36015KT 10SM OVC070 03/M09 A2981 RMK AO2,M
INS,2021-03-26 03:51,-115.6733,36.5872,955.00,53.60,24.80,32.46,20.00,15.00,0.00,29.63,1001.30,10.00,21.00,BKN,BKN,M,M,8000.00,9500.00,M,M,M,M,M,M,M,M,M,53.60,KINS 260351Z AUTO 02015G21KT 10SM BKN080 BKN095 12/M04 A2963 RMK AO2 PRESRR SLP013 $,M
P68,2021-03-26 03:53,-116.0056,39.6014,1993.00,28.00,26.10,92.46,360.00,7.00,0.02,29.74,1007.00,M,M,M,M,M,M,M,M,M,M,M,M,M,M,M,M,M,19.90,KP68 260353Z AUTO 36007KT M02/M03 A2974 RMK AO1 SLP070 P0002 T10221033,M
VGT,2021-03-26 03:53,-115.1933,36.2111,667.00,60.00,32.00,34.49,240.00,16.00,0.00,29.55,1001.30,10.00,22.00,FEW,M,M,M,12000.00,M,M,M,M,M,M,M,27.00,260.00,2021-03-26 03:16,60.10,KVGT 260353Z AUTO 24016G22KT 10SM FEW120 16/00 A2955 RMK AO2 PK WND 26027/0316 SLP013 T01560000,M
ELY,2021-03-26 03:53,-114.8453,39.2950,1909.00,30.90,21.00,66.34,M,M,0.00,29.69,1004.90,10.00,M,BKN,OVC,M,M,3300.00,4200.00,M,M,M,M,M,M,M,M,M,M,KELY 260353Z AUTO 10SM BKN033 OVC042 M01/M06 A2969 RMK AO2 SLP049 T10061061,M
LOL,2021-03-26 03:53,-118.5701,40.0684,1192.43,39.00,24.10,54.77,360.00,10.00,0.00,29.81,1010.20,10.00,M,SCT,M,M,M,8500.00,M,M,M,M,M,M,M,M,M,M,31.75,KLOL 260353Z AUTO 36010KT 10SM SCT085 04/M04 A2981 RMK AO2 SLP102 T00391044,M
DRA,2021-03-26 03:53,-116.0278,36.6206,1009.00,52.00,28.00,39.30,30.00,13.00,0.00,29.65,1001.50,10.00,17.00,OVC,M,M,M,7000.00,M,M,M,M,M,M,M,34.00,20.00,2021-03-26 02:54,52.00,KDRA 260353Z AUTO 03013G17KT 10SM OVC070 11/M02 A2965 RMK AO2 PK WND 02034/0254 SLP015 T01111022,M
CXP,2021-03-26 03:55,-119.7326,39.1923,1431.00,41.00,15.80,35.57,M,6.00,0.00,29.82,M,10.00,14.00,FEW,FEW,OVC,M,3400.00,6000.00,7500.00,M,M,M,M,M,M,M,M,36.37,KCXP 260355Z AUTO VRB06G14KT 10SM FEW034 FEW060 OVC075 05/M09 A2982 RMK AO2,M
BAM,2021-03-26 03:55,-116.8743,40.5990,1382.36,33.80,33.80,100.00,0.00,0.00,0.00,29.80,M,10.00,M,BKN,OVC,M,M,5000.00,8000.00,M,M,M,M,M,M,M,M,M,33.80,KBAM 260355Z AUTO 00000KT 10SM BKN050 OVC080 01/01 A2980 RMK AO1,M
BVU,2021-03-26 03:55,-114.8611,35.9475,671.00,57.20,28.40,33.05,230.00,9.00,0.00,29.62,M,10.00,M,CLR,M,M,M,M,M,M,M,M,M,M,M,M,M,M,57.20,KBVU 260355Z AUTO 23009KT 10SM CLR 14/M02 A2962 RMK AO2,M
RNO,2021-03-26 03:55,-119.7711,39.4839,1341.00,41.00,18.00,39.12,360.00,11.00,0.00,29.81,1008.30,10.00,M,FEW,BKN,M,M,6000.00,8000.00,M,M,M,M,M,M,M,M,M,33.84,KRNO 260355Z 36011KT 10SM FEW060 BKN080 05/M08 A2981 RMK AO2 SLP083 T00501078,M
HTH,2021-03-26 03:55,-118.6315,38.5448,1282.89,41.00,21.20,44.85,330.00,12.00,0.00,29.81,M,10.00,M,SCT,BKN,OVC,M,3200.00,4300.00,5000.00,M,M,M,M,M,M,M,M,33.46,KHTH 260355Z AUTO 33012KT 10SM SCT032 BKN043 OVC050 05/M06 A2981 RMK A01,M
RTS,2021-03-26 03:55,-119.8764,39.6682,1539.00,37.40,15.80,40.93,350.00,11.00,0.00,29.82,M,10.00,M,FEW,OVC,M,M,6000.00,7000.00,M,M,M,M,M,M,M,M,M,29.29,KRTS 260355Z AUTO 35011KT 10SM FEW060 OVC070 03/M09 A2982 RMK AO2,M
05U,2021-03-26 03:55,-116.0051,39.6042,1811.23,28.40,26.60,92.86,360.00,4.00,0.00,29.76,M,3.00,M,BKN,OVC,M,M,200.00,2600.00,M,M,BR,M,M,M,M,M,M,23.22,K05U 260355Z AUTO 36004KT 3SM BR BKN002 OVC026 M02/M03 A2976 RMK A01,M
MEV,2021-03-26 03:55,-119.7500,38.9963,1441.42,33.80,30.20,86.49,130.00,4.00,0.00,29.82,M,10.00,M,FEW,OVC,M,M,4700.00,6000.00,M,M,M,M,M,M,M,M,M,29.52,KMEV 260355Z AUTO 13004KT 10SM FEW047 OVC060 01/M01 A2982 RMK AO2,M
TMT,2021-03-26 03:55,-117.1971,39.4643,1749.34,30.20,26.60,86.28,300.00,6.00,0.00,29.79,M,10.00,M,M,M,M,M,M,M,M,M,M,M,M,M,M,M,M,23.36,KTMT 260355Z AUTO 30006KT 10SM M01/M03 A2979 RMK AO2 T10101030,M
WMC,2021-03-26 03:56,-117.8072,40.9019,1315.00,35.00,27.00,72.04,350.00,11.00,0.00,29.81,1009.80,10.00,M,BKN,OVC,M,M,5000.00,7500.00,M,M,M,M,M,M,M,M,M,26.38,KWMC 260356Z AUTO 35011KT 10SM BKN050 OVC075 02/M03 A2981 RMK AO2 SLP098 T00171028,M
EKO,2021-03-26 03:56,-115.7860,40.8242,1367.00,35.00,21.90,58.22,330.00,7.00,0.00,29.74,1008.00,10.00,M,BKN,OVC,M,M,5000.00,7000.00,M,M,M,M,M,M,M,M,M,28.56,KEKO 260356Z AUTO 33007KT 10SM BKN050 OVC070 02/M06 A2974 RMK AO2 SLP080 T00171056,M
TPH,2021-03-26 03:56,-117.0904,38.0505,1654.00,36.00,25.00,63.98,320.00,16.00,0.00,29.73,1005.70,10.00,M,SCT,SCT,M,M,7500.00,9000.00,M,M,M,M,M,M,M,M,M,25.63,KTPH 260356Z AUTO 32016KT 10SM SCT075 SCT090 02/M04 A2973 RMK AO2 SLP057 T00221039,M
NFL,2021-03-26 03:56,-118.7010,39.4166,1199.00,39.00,21.00,48.06,350.00,8.00,0.00,29.80,1007.00,10.00,M,FEW,SCT,SCT,M,3000.00,10000.00,20000.00,M,M,M,M,M,M,M,M,32.74,KNFL 260356Z 35008KT 10SM FEW030 SCT100 SCT200 04/M06 A2980 RMK AO2 SLP070 T00391061,M
LAS,2021-03-26 03:56,-115.1634,36.0719,663.00,58.00,30.90,35.69,250.00,11.00,0.00,29.61,1001.60,10.00,M,BKN,BKN,BKN,M,11000.00,14000.00,17000.00,M,M,M,M,M,M,M,M,57.90,KLAS 260356Z 25011KT 10SM BKN110 BKN140 BKN170 14/M01 A2961 RMK AO2 SLP016 T01441006,M
HND,2021-03-26 03:56,-115.1344,35.9729,742.79,56.00,30.90,38.36,220.00,13.00,0.00,29.64,1004.40,10.00,M,CLR,M,M,M,M,M,M,M,M,M,M,M,M,M,M,55.90,KHND 260356Z AUTO 22013KT 10SM CLR 13/M01 A2964 RMK AO2 SLP044 T01331006,M
LSV,2021-03-26 03:58,-115.0343,36.2362,570.00,59.50,33.30,37.12,230.00,16.00,0.00,29.59,1001.00,10.00,M,CLR,M,M,M,M,M,M,M,M,M,M,M,M,M,M,59.50,KLSV 260358Z AUTO 23016KT 10SM CLR 15/01 A2959 RMK AO2 SLP010 T01530007 $,M
INS,2021-03-26 03:58,-115.6733,36.5872,955.00,53.00,23.90,31.85,20.00,17.00,0.00,29.63,1001.30,10.00,24.00,BKN,M,M,M,8000.00,M,M,M,M,M,M,M,35.00,10.00,2021-03-26 03:03,53.10,KINS 260358Z AUTO 02017G24KT 10SM BKN080 12/M04 A2963 RMK AO2 PK WND 01035/03 SLP013 T01171045 $,M
INS,2021-03-26 04:03,-115.6733,36.5872,955.00,53.60,24.80,32.46,20.00,17.00,0.00,29.63,1001.30,10.00,24.00,SCT,M,M,M,8000.00,M,M,M,M,M,M,M,M,M,M,53.60,KINS 260403Z AUTO 02017G24KT 10SM SCT080 12/M04 A2963 RMK AO2 SLP013 $,M
CXP,2021-03-26 04:10,-119.7326,39.1923,1431.00,41.00,17.60,38.45,360.00,10.00,0.00,29.83,M,10.00,16.00,FEW,OVC,M,M,3300.00,7500.00,M,M,M,M,M,M,M,M,M,34.25,KCXP 260410Z AUTO 36010G16KT 10SM FEW033 OVC075 05/M08 A2983 RMK AO2,M
BAM,2021-03-26 04:15,-116.8743,40.5990,1382.36,33.80,33.80,100.00,0.00,0.00,0.00,29.81,M,10.00,M,BKN,BKN,M,M,4800.00,6000.00,M,M,M,M,M,M,M,M,M,33.80,KBAM 260415Z AUTO 00000KT 10SM BKN048 BKN060 01/01 A2981 RMK AO1,M
BVU,2021-03-26 04:15,-114.8611,35.9475,671.00,57.20,28.40,33.05,250.00,11.00,0.00,29.62,M,10.00,M,BKN,M,M,M,11000.00,M,M,M,M,M,M,M,M,M,M,57.20,KBVU 260415Z AUTO 25011KT 10SM BKN110 14/M02 A2962 RMK AO2,M
MEV,2021-03-26 04:15,-119.7500,38.9963,1441.42,35.60,28.40,74.80,0.00,0.00,0.00,29.82,M,10.00,M,OVC,M,M,M,6000.00,M,M,M,M,M,M,M,M,M,M,35.60,KMEV 260415Z AUTO 00000KT 10SM OVC060 02/M02 A2982 RMK AO2,M
05U,2021-03-26 04:15,-116.0051,39.6042,1811.23,28.40,26.60,92.86,M,M,0.00,29.78,M,6.00,M,FEW,FEW,OVC,M,300.00,1800.00,2500.00,M,BR,M,M,M,M,M,M,M,K05U 260415Z AUTO 6SM BR FEW003 FEW018 OVC025 M02/M03 A2978 RMK A01,M
RTS,2021-03-26 04:15,-119.8764,39.6682,1539.00,35.60,17.60,47.51,10.00,18.00,0.00,29.83,M,10.00,M,SCT,OVC,M,M,6000.00,7500.00,M,M,M,M,M,M,M,M,M,24.49,KRTS 260415Z AUTO 01018KT 10SM SCT060 OVC075 02/M08 A2983 RMK AO2,M
HTH,2021-03-26 04:15,-118.6315,38.5448,1282.89,41.00,23.00,48.39,330.00,9.00,0.00,29.81,M,10.00,M,FEW,SCT,BKN,M,2700.00,3300.00,4800.00,M,M,M,M,M,M,M,M,34.70,KHTH 260415Z AUTO 33009KT 10SM FEW027 SCT033 BKN048 05/M05 A2981 RMK A01,M
TMT,2021-03-26 04:15,-117.1971,39.4643,1749.34,30.20,27.50,89.54,290.00,4.00,0.00,29.80,M,10.00,M,M,M,M,M,M,M,M,M,M,M,M,M,M,M,M,25.32,KTMT 260415Z AUTO 29004KT 10SM M01/M02 A2980 RMK AO2 T10101025,M
MEV,2021-03-26 04:35,-119.7500,38.9963,1441.42,35.60,28.40,74.80,0.00,0.00,0.00,29.83,M,10.00,M,OVC,M,M,M,6000.00,M,M,M,M,M,M,M,M,M,M,35.60,KMEV 260435Z AUTO 00000KT 10SM OVC060 02/M02 A2983 RMK AO2,M
BVU,2021-03-26 04:35,-114.8611,35.9475,671.00,57.20,28.40,33.05,240.00,11.00,0.00,29.63,M,10.00,M,BKN,M,M,M,10000.00,M,M,M,M,M,M,M,M,M,M,57.20,KBVU 260435Z AUTO 24011KT 10SM BKN100 14/M02 A2963 RMK AO2,M
05U,2021-03-26 04:35,-116.0051,39.6042,1811.23,28.40,26.60,92.86,0.00,0.00,0.00,29.78,M,5.00,M,FEW,SCT,BKN,M,300.00,1600.00,2000.00,M,BR,M,M,M,M,M,M,28.40,K05U 260435Z AUTO 00000KT 5SM BR FEW003 SCT016 BKN020 M02/M03 A2978 RMK A01,M
BAM,2021-03-26 04:35,-116.8743,40.5990,1382.36,32.00,32.00,100.00,0.00,0.00,0.00,29.82,M,10.00,M,BKN,M,M,M,5000.00,M,M,M,M,M,M,M,M,M,M,32.00,KBAM 260435Z AUTO 00000KT 10SM BKN050 00/00 A2982 RMK AO1,M
RTS,2021-03-26 04:35,-119.8764,39.6682,1539.00,35.60,17.60,47.51,10.00,12.00,0.00,29.85,M,10.00,18.00,FEW,BKN,OVC,M,5500.00,8000.00,9000.00,M,M,M,M,M,M,M,M,26.58,KRTS 260435Z AUTO 01012G18KT 10SM FEW055 BKN080 OVC090 02/M08 A2985 RMK AO2,M
CXP,2021-03-26 04:35,-119.7326,39.1923,1431.00,39.20,17.60,41.24,360.00,8.00,0.00,29.84,M,10.00,13.00,OVC,M,M,M,7000.00,M,M,M,M,M,M,M,M,M,M,32.98,KCXP 260435Z AUTO 36008G13KT 10SM OVC070 04/M08 A2984 RMK AO2,M
HTH,2021-03-26 04:35,-118.6315,38.5448,1282.89,41.00,23.00,48.39,340.00,6.00,0.00,29.82,M,10.00,M,SCT,SCT,OVC,M,3700.00,4500.00,5500.00,M,M,M,M,M,M,M,M,36.37,KHTH 260435Z AUTO 34006KT 10SM SCT037 SCT045 OVC055 05/M05 A2982 RMK A01,M
TMT,2021-03-26 04:35,-117.1971,39.4643,1749.34,30.70,26.40,83.85,300.00,5.00,0.00,29.80,M,10.00,M,M,M,M,M,M,M,M,M,M,M,M,M,M,M,M,24.85,KTMT 260435Z AUTO 30005KT 10SM M01/M03 A2980 RMK AO2 T10071031,M
INS,2021-03-26 04:43,-115.6733,36.5872,955.00,53.60,24.80,32.46,360.00,8.00,0.00,29.66,M,10.00,M,BKN,M,M,M,6500.00,M,M,M,M,M,M,M,M,M,M,53.60,KINS 260443Z AUTO 36008KT 10SM BKN065 12/M04 A2966 RMK AO2 SLPNO $,M
DRA,2021-03-26 04:53,-116.0278,36.6206,1009.00,52.00,28.00,39.30,40.00,7.00,0.00,29.69,1002.80,10.00,M,OVC,M,M,M,6000.00,M,M,M,M,M,M,M,M,M,M,52.00,KDRA 260453Z AUTO 04007KT 10SM OVC060 11/M02 A2969 RMK AO2 SLP028 T01111022,M
LOL,2021-03-26 04:53,-118.5701,40.0684,1192.43,38.00,24.10,57.18,350.00,10.00,0.00,29.84,1010.90,10.00,M,CLR,M,M,M,M,M,M,M,M,M,M,M,M,M,M,30.37,KLOL 260453Z AUTO 35010KT 10SM CLR 03/M04 A2984 RMK AO2 SLP109 T00331044,M
ELY,2021-03-26 04:53,-114.8453,39.2950,1909.00,30.00,25.00,81.40,M,M,0.00,29.71,1005.50,10.00,M,FEW,FEW,OVC,M,1600.00,2700.00,3800.00,M,M,M,M,M,M,M,M,M,KELY 260453Z AUTO 10SM FEW016 FEW027 OVC038 M01/M04 A2971 RMK AO2 SLP055 T10111039,M
VGT,2021-03-26 04:53,-115.1933,36.2111,667.00,58.00,32.00,37.31,210.00,10.00,0.00,29.57,1002.10,10.00,M,CLR,M,M,M,M,M,M,M,M,M,M,M,M,M,M,57.90,KVGT 260453Z AUTO 21010KT 10SM CLR 14/00 A2957 RMK AO2 SLP021 T01440000,M
P68,2021-03-26 04:53,-116.0056,39.6014,1993.00,28.00,26.10,92.46,0.00,0.00,0.00,29.77,1008.00,M,M,M,M,M,M,M,M,M,M,M,M,M,M,M,M,M,28.00,KP68 260453Z AUTO 00000KT M02/M03 A2977 RMK AO1 SLP080 T10221033,M
05U,2021-03-26 04:55,-116.0051,39.6042,1811.23,28.40,26.60,92.86,0.00,0.00,0.00,29.79,M,2.00,M,SCT,BKN,OVC,M,300.00,1300.00,2200.00,M,BR,M,M,M,M,M,M,28.40,K05U 260455Z AUTO 00000KT 2SM BR SCT003 BKN013 OVC022 M02/M03 A2979 RMK A01,M
INS,2021-03-26 04:55,-115.6733,36.5872,955.00,53.60,24.80,32.46,330.00,10.00,0.00,29.68,M,10.00,M,SCT,M,M,M,6500.00,M,M,M,M,M,M,M,M,M,M,53.60,KINS 260455Z AUTO 33010KT 10SM SCT065 12/M04 A2968 RMK AO2 WSHFT 52 PRESRR SLPNO $,M
CXP,2021-03-26 04:55,-119.7326,39.1923,1431.00,39.20,17.60,41.24,350.00,8.00,0.00,29.86,M,10.00,M,BKN,OVC,M,M,7500.00,8500.00,M,M,M,M,M,M,M,M,M,32.98,KCXP 260455Z AUTO 35008KT 10SM BKN075 OVC085 04/M08 A2986 RMK AO2,M
RNO,2021-03-26 04:55,-119.7711,39.4839,1341.00,40.00,18.00,40.82,340.00,10.00,0.00,29.85,1009.60,10.00,M,FEW,BKN,M,M,6500.00,8500.00,M,M,M,M,M,M,M,M,M,32.87,KRNO 260455Z 34010KT 10SM FEW065 BKN085 04/M08 A2985 RMK AO2 SLP096 T00441078,M
BVU,2021-03-26 04:55,-114.8611,35.9475,671.00,55.40,30.20,37.97,230.00,10.00,0.00,29.64,M,10.00,M,FEW,BKN,M,M,7500.00,11000.00,M,M,M,M,M,M,M,M,M,55.40,KBVU 260455Z AUTO 23010KT 10SM FEW075 BKN110 13/M01 A2964 RMK AO2,M
RTS,2021-03-26 04:55,-119.8764,39.6682,1539.00,35.60,17.60,47.51,360.00,12.00,0.00,29.85,M,10.00,M,SCT,M,M,M,8500.00,M,M,M,M,M,M,M,M,M,M,26.58,KRTS 260455Z AUTO 36012KT 10SM SCT085 02/M08 A2985 RMK AO2,M
MEV,2021-03-26 04:55,-119.7500,38.9963,1441.42,37.40,23.00,55.68,360.00,6.00,0.00,29.84,M,10.00,M,OVC,M,M,M,6000.00,M,M,M,M,M,M,M,M,M,M,32.03,KMEV 260455Z AUTO 36006KT 10SM OVC060 03/M05 A2984 RMK AO2,M
HTH,2021-03-26 04:55,-118.6315,38.5448,1282.89,41.00,23.00,48.39,330.00,9.00,0.00,29.83,M,10.00,M,FEW,BKN,OVC,M,3800.00,5000.00,5500.00,M,M,M,M,M,M,M,M,34.70,KHTH 260455Z AUTO 33009KT 10SM FEW038 BKN050 OVC055 05/M05 A2983 RMK A01,M
BAM,2021-03-26 04:55,-116.8743,40.5990,1382.36,33.80,33.80,100.00,0.00,0.00,0.00,29.82,M,10.00,M,SCT,OVC,M,M,4200.00,5000.00,M,M,M,M,M,M,M,M,M,33.80,KBAM 260455Z AUTO 00000KT 10SM SCT042 OVC050 01/01 A2982 RMK AO1,M
TMT,2021-03-26 04:55,-117.1971,39.4643,1749.34,30.40,26.40,84.88,0.00,0.00,0.00,29.81,M,10.00,M,M,M,M,M,M,M,M,M,M,M,M,M,M,M,M,30.40,KTMT 260455Z AUTO 00000KT 10SM M01/M03 A2981 RMK AO2 T10091031,M
LAS,2021-03-26 04:56,-115.1634,36.0719,663.00,57.00,30.90,36.86,240.00,7.00,0.00,29.63,1002.20,10.00,M,BKN,BKN,M,M,10000.00,14000.00,M,M,M,M,M,M,M,M,M,57.00,KLAS 260456Z 24007KT 10SM BKN100 BKN140 14/M01 A2963 RMK AO2 SLP022 T01391006,M
EKO,2021-03-26 04:56,-115.7860,40.8242,1367.00,36.00,21.00,54.08,360.00,6.00,0.00,29.76,1008.40,10.00,M,OVC,M,M,M,6500.00,M,M,M,M,M,M,M,M,M,M,30.35,KEKO 260456Z AUTO 36006KT 10SM OVC065 02/M06 A2976 RMK AO2 SLP084 T00221061,M
NFL,2021-03-26 04:56,-118.7010,39.4166,1199.00,38.00,21.90,52.13,350.00,6.00,0.00,29.83,1007.80,10.00,M,FEW,SCT,SCT,M,3000.00,10000.00,20000.00,M,M,M,M,M,M,M,M,32.64,KNFL 260456Z 35006KT 10SM FEW030 SCT100 SCT200 03/M06 A2983 RMK AO2 SLP078 T00331056,M
WMC,2021-03-26 04:56,-117.8072,40.9019,1315.00,34.00,27.00,75.26,320.00,8.00,0.00,29.84,1011.10,10.00,M,BKN,OVC,M,M,6500.00,8000.00,M,M,M,M,M,M,M,M,M,26.58,KWMC 260456Z AUTO 32008KT 10SM BKN065 OVC080 01/M03 A2984 RMK AO2 SLP111 T00111028,M
TPH,2021-03-26 04:56,-117.0904,38.0505,1654.00,35.00,23.00,60.99,340.00,12.00,0.00,29.74,1006.40,10.00,M,OVC,M,M,M,9500.00,M,M,M,M,M,M,M,M,M,M,25.95,KTPH 260456Z AUTO 34012KT 10SM OVC095 02/M05 A2974 RMK AO2 SLP064 T00171050,M
HND,2021-03-26 04:56,-115.1344,35.9729,742.79,54.00,30.90,41.11,190.00,13.00,0.00,29.65,1005.00,10.00,M,CLR,M,M,M,M,M,M,M,M,M,M,M,M,M,M,54.00,KHND 260456Z AUTO 19013KT 10SM CLR 12/M01 A2965 RMK AO2 SLP050 T01221006,M
INS,2021-03-26 04:58,-115.6733,36.5872,955.00,53.00,24.80,33.07,310.00,11.00,0.00,29.68,M,10.00,M,SCT,M,M,M,6000.00,M,M,M,M,M,M,M,M,M,M,53.10,KINS 260458Z AUTO 31011KT 10SM SCT060 12/M04 A2968 RMK AO2 SLPNO T01171040 $,M
LSV,2021-03-26 04:58,-115.0343,36.2362,570.00,58.50,33.60,38.94,200.00,7.00,0.00,29.62,M,10.00,M,SCT,SCT,M,M,11000.00,14000.00,M,M,M,M,M,M,M,M,M,58.50,KLSV 260458Z AUTO 20007KT 10SM SCT110 SCT140 15/01 A2962 RMK AO2 SLPNO T01470009 $,M
INS,2021-03-26 04:59,-115.6733,36.5872,955.00,53.60,24.80,32.46,310.00,9.00,0.00,29.68,M,10.00,M,FEW,FEW,SCT,M,1800.00,5000.00,6500.00,M,-RA,M,M,M,M,M,M,53.60,KINS 260459Z AUTO 31009KT 10SM -RA FEW018 FEW050 SCT065 12/M04 A2968 RMK AO2 RAB58 SLPNO $,M
INS,2021-03-26 05:04,-115.6733,36.5872,955.00,51.80,28.40,40.25,300.00,8.00,0.00,29.69,M,10.00,16.00,SCT,SCT,BKN,M,2400.00,5000.00,6500.00,M,-RA,M,M,M,M,M,M,51.80,KINS 260504Z AUTO 30008G16KT 10SM -RA SCT024 SCT050 BKN065 11/M02 A2969 RMK AO2 RAB0458 SLPNO $,M
BAM,2021-03-26 05:15,-116.8743,40.5990,1382.36,33.80,32.00,93.03,0.00,0.00,0.00,29.83,M,10.00,M,BKN,BKN,OVC,M,3600.00,5000.00,6000.00,M,M,M,M,M,M,M,M,33.80,KBAM 260515Z AUTO 00000KT 10SM BKN036 BKN050 OVC060 01/00 A2983 RMK AO1,M
LSV,2021-03-26 05:15,-115.0343,36.2362,570.00,59.00,30.20,33.35,40.00,20.00,0.00,29.62,M,10.00,M,OVC,M,M,M,10000.00,M,M,M,M,M,M,M,M,M,M,59.00,KLSV 260515Z AUTO 04020KT 10SM OVC100 15/M01 A2962 RMK AO2 WSHFT 09 SLPNO $,M
05U,2021-03-26 05:15,-116.0051,39.6042,1811.23,26.60,26.60,100.00,0.00,0.00,0.00,29.79,M,10.00,M,FEW,SCT,OVC,M,300.00,1100.00,3300.00,M,M,M,M,M,M,M,M,26.60,K05U 260515Z AUTO 00000KT 10SM FEW003 SCT011 OVC033 M03/M03 A2979 RMK A01,M
CXP,2021-03-26 05:15,-119.7326,39.1923,1431.00,39.20,19.40,44.55,340.00,11.00,0.00,29.86,M,10.00,17.00,FEW,BKN,OVC,M,3200.00,7000.00,8500.00,M,M,M,M,M,M,M,M,31.57,KCXP 260515Z AUTO 34011G17KT 10SM FEW032 BKN070 OVC085 04/M07 A2986 RMK AO2,M
RTS,2021-03-26 05:15,-119.8764,39.6682,1539.00,33.80,17.60,51.04,360.00,14.00,0.00,29.87,M,10.00,M,CLR,M,M,M,M,M,M,M,M,M,M,M,M,M,M,23.48,KRTS 260515Z AUTO 36014KT 10SM CLR 01/M08 A2987 RMK AO2,M
MEV,2021-03-26 05:15,-119.7500,38.9963,1441.42,37.40,21.20,51.61,20.00,8.00,0.00,29.85,M,10.00,M,OVC,M,M,M,6500.00,M,M,M,M,M,M,M,M,M,M,30.76,KMEV 260515Z AUTO 02008KT 10SM OVC065 03/M06 A2985 RMK AO2,M
HTH,2021-03-26 05:15,-118.6315,38.5448,1282.89,41.00,19.40,41.54,350.00,11.00,0.00,29.84,M,10.00,16.00,SCT,OVC,M,M,4600.00,5500.00,M,M,M,M,M,M,M,M,M,33.84,KHTH 260515Z AUTO 35011G16KT 10SM SCT046 OVC055 05/M07 A2984 RMK A01,M
TMT,2021-03-26 05:15,-117.1971,39.4643,1749.34,30.20,26.40,85.57,290.00,5.00,0.00,29.82,M,10.00,M,M,M,M,M,M,M,M,M,M,M,M,M,M,M,M,24.26,KTMT 260515Z AUTO 29005KT 10SM M01/M03 A2982 RMK AO2 T10101031,M
VGT,2021-03-26 05:22,-115.1933,36.2111,667.00,60.00,27.00,28.13,340.00,13.00,0.00,29.60,M,10.00,26.00,BKN,M,M,M,10000.00,M,M,M,M,M,M,M,26.00,310.00,2021-03-26 05:05,60.10,KVGT 260522Z AUTO 34013G26KT 10SM BKN100 16/M03 A2960 RMK AO2 PK WND 31026/0505 WSHFT 0502 T01561028,M
INS,2021-03-26 05:22,-115.6733,36.5872,955.00,51.80,30.20,43.32,230.00,8.00,0.00,29.70,M,10.00,M,FEW,SCT,SCT,BKN,2000.00,3100.00,3800.00,5000.00,M,M,M,M,M,M,M,51.80,KINS 260522Z AUTO 23008KT 10SM FEW020 SCT031 SCT038 BKN050 11/M01 A2970 RMK AO2 RAB0458E22 SLPNO $,M
INS,2021-03-26 05:30,-115.6733,36.5872,955.00,50.00,32.00,49.81,260.00,9.00,0.00,29.70,M,10.00,M,FEW,SCT,OVC,M,2000.00,4200.00,5000.00,M,-RA,M,M,M,M,M,M,50.00,KINS 260530Z AUTO 26009KT 10SM -RA FEW020 SCT042 OVC050 10/00 A2970 RMK AO2 RAB0458E22RAB30 SLPNO $,M
INS,2021-03-26 05:34,-115.6733,36.5872,955.00,50.00,33.80,53.54,260.00,13.00,0.00,29.70,M,10.00,M,FEW,FEW,OVC,M,1100.00,3500.00,5000.00,M,-RA,M,M,M,M,M,M,50.00,KINS 260534Z AUTO 26013KT 10SM -RA FEW011 FEW035 OVC050 10/01 A2970 RMK AO2 RAB0458E22RAB30 SLPNO $,M
TMT,2021-03-26 05:35,-117.1971,39.4643,1749.34,29.80,25.70,84.49,300.00,4.00,0.00,29.82,M,10.00,M,M,M,M,M,M,M,M,M,M,M,M,M,M,M,M,24.85,KTMT 260535Z AUTO 30004KT 10SM M01/M03 A2982 RMK AO2 T10121035,M
BAM,2021-03-26 05:35,-116.8743,40.5990,1382.36,33.80,32.00,93.03,300.00,4.00,0.00,29.84,M,10.00,M,BKN,BKN,OVC,M,3600.00,4300.00,6000.00,M,M,M,M,M,M,M,M,29.52,KBAM 260535Z AUTO 30004KT 10SM BKN036 BKN043 OVC060 01/00 A2984 RMK AO1,M
MEV,2021-03-26 05:35,-119.7500,38.9963,1441.42,37.40,21.20,51.61,360.00,5.00,0.00,29.86,M,10.00,M,OVC,M,M,M,7000.00,M,M,M,M,M,M,M,M,M,M,32.81,KMEV 260535Z AUTO 36005KT 10SM OVC070 03/M06 A2986 RMK AO2,M
CXP,2021-03-26 05:35,-119.7326,39.1923,1431.00,39.20,17.60,41.24,360.00,11.00,0.00,29.87,M,10.00,17.00,BKN,OVC,M,M,7000.00,8500.00,M,M,M,M,M,M,M,M,M,31.57,KCXP 260535Z AUTO 36011G17KT 10SM BKN070 OVC085 04/M08 A2987 RMK AO2,M
05U,2021-03-26 05:35,-116.0051,39.6042,1811.23,24.80,24.80,100.00,0.00,0.00,0.00,29.80,M,10.00,M,SCT,BKN,OVC,M,1300.00,3100.00,6000.00,M,M,M,M,M,M,M,M,24.80,K05U 260535Z AUTO 00000KT 10SM SCT013 BKN031 OVC060 M04/M04 A2980 RMK A01,M
BVU,2021-03-26 05:35,-114.8611,35.9475,671.00,55.40,30.20,37.97,250.00,4.00,0.00,29.66,M,10.00,M,FEW,OVC,M,M,7000.00,8500.00,M,M,M,M,M,M,M,M,M,55.40,KBVU 260535Z AUTO 25004KT 10SM FEW070 OVC085 13/M01 A2966 RMK AO2,M
RTS,2021-03-26 05:35,-119.8764,39.6682,1539.00,33.80,17.60,51.04,360.00,10.00,0.00,29.88,M,10.00,M,CLR,M,M,M,M,M,M,M,M,M,M,M,M,M,M,25.23,KRTS 260535Z AUTO 36010KT 10SM CLR 01/M08 A2988 RMK AO2,M
HTH,2021-03-26 05:35,-118.6315,38.5448,1282.89,41.00,19.40,41.54,340.00,13.00,0.00,29.85,M,10.00,M,FEW,SCT,OVC,M,3300.00,4900.00,5500.00,M,M,M,M,M,M,M,M,33.10,KHTH 260535Z AUTO 34013KT 10SM FEW033 SCT049 OVC055 05/M07 A2985 RMK A01,M
LOL,2021-03-26 05:53,-118.5701,40.0684,1192.43,36.00,23.00,58.85,50.00,9.00,0.00,29.87,1012.00,10.00,M,CLR,M,M,M,M,M,M,M,M,M,M,M,M,M,M,28.49,KLOL 260553Z AUTO 05009KT 10SM CLR 02/M05 A2987 RMK AO2 SLP120 T00221050 10089 20022 51026,M
ELY,2021-03-26 05:53,-114.8453,39.2950,1909.00,28.90,25.00,85.14,M,M,0.00,29.72,1006.30,10.00,M,BKN,M,M,M,3600.00,M,M,M,M,M,M,M,M,M,M,M,KELY 260553Z AUTO 10SM BKN036 M02/M04 A2972 RMK AO2 SLP063 T10171039 10022 21017 51017,M
DRA,2021-03-26 05:53,-116.0278,36.6206,1009.00,51.00,28.00,40.63,30.00,22.00,0.00,29.72,1003.90,10.00,30.00,SCT,OVC,M,M,4800.00,6000.00,M,M,M,M,M,M,30.00,20.00,2021-03-26 05:52,51.10,KDRA 260553Z AUTO 03022G30KT 10SM SCT048 OVC060 11/M02 A2972 RMK AO2 PK WND 02030/0552 SLP039 T01061022 10167 20106 51037,M
VGT,2021-03-26 05:53,-115.1933,36.2111,667.00,57.00,30.90,36.86,310.00,22.00,0.00,29.62,1003.80,10.00,26.00,SCT,OVC,M,M,7500.00,10000.00,M,M,M,M,M,M,26.00,320.00,2021-03-26 05:52,57.00,KVGT 260553Z AUTO 31022G26KT 10SM SCT075 OVC100 14/M01 A2962 RMK AO2 PK WND 32026/0552 WSHFT 0502 SLP038 T01391006 10200 20139 53031,M
P68,2021-03-26 05:53,-116.0056,39.6014,1993.00,27.00,25.00,92.05,170.00,3.00,0.00,29.78,1008.50,M,M,M,M,M,M,M,M,M,M,M,M,M,M,M,M,M,22.97,KP68 260553Z AUTO 17003KT M03/M04 A2978 RMK AO1 SLP085 60004 T10281039 10006 21039 51018,M
INS,2021-03-26 05:54,-115.6733,36.5872,955.00,48.20,33.80,57.26,160.00,4.00,0.00,29.71,M,9.00,M,FEW,FEW,BKN,OVC,1300.00,1700.00,2900.00,4700.00,-RA,M,M,M,M,M,M,46.34,KINS 260554Z AUTO 16004KT 9SM -RA FEW013 FEW017 BKN029 OVC047 09/01 A2971 RMK AO2 RAB0458E22RAB30 CIG 029V047 BKN V SCT SLPNO $,M
BVU,2021-03-26 05:55,-114.8611,35.9475,671.00,55.40,30.20,37.97,210.00,5.00,0.00,29.66,M,10.00,M,OVC,M,M,M,8000.00,M,M,M,M,M,M,M,M,M,M,55.40,KBVU 260555Z AUTO 21005KT 10SM OVC080 13/M01 A2966 RMK AO2,M
CXP,2021-03-26 05:55,-119.7326,39.1923,1431.00,37.40,21.20,51.61,10.00,11.00,0.00,29.88,M,9.00,19.00,FEW,SCT,BKN,M,2900.00,5000.00,7000.00,M,-RA,M,M,M,M,M,M,29.29,KCXP 260555Z AUTO 01011G19KT 9SM -RA FEW029 SCT050 BKN070 03/M06 A2988 RMK AO2,M
MEV,2021-03-26 05:55,-119.7500,38.9963,1441.42,37.40,21.20,51.61,350.00,5.00,0.00,29.87,M,10.00,M,BKN,OVC,M,M,7000.00,7500.00,M,M,M,M,M,M,M,M,M,32.81,KMEV 260555Z AUTO 35005KT 10SM BKN070 OVC075 03/M06 A2987 RMK AO2,M
RTS,2021-03-26 05:55,-119.8764,39.6682,1539.00,32.00,19.40,59.27,360.00,11.00,0.00,29.88,M,10.00,M,CLR,M,M,M,M,M,M,M,M,M,M,M,M,M,M,22.47,KRTS 260555Z AUTO 36011KT 10SM CLR 00/M07 A2988 RMK AO2,M
05U,2021-03-26 05:55,-116.0051,39.6042,1811.23,26.60,26.60,100.00,0.00,0.00,0.00,29.80,M,10.00,M,BKN,BKN,OVC,M,800.00,1400.00,2000.00,M,M,M,M,M,M,M,M,26.60,K05U 260555Z AUTO 00000KT 10SM BKN008 BKN014 OVC020 M03/M03 A2980 RMK A01,M
BAM,2021-03-26 05:55,-116.8743,40.5990,1382.36,33.80,32.00,93.03,330.00,4.00,0.00,29.84,M,10.00,M,SCT,SCT,OVC,M,3600.00,4500.00,6000.00,M,M,M,M,M,M,M,M,29.52,KBAM 260555Z AUTO 33004KT 10SM SCT036 SCT045 OVC060 01/00 A2984 RMK AO1,M
HTH,2021-03-26 05:55,-118.6315,38.5448,1282.89,41.00,21.20,44.85,340.00,10.00,0.00,29.86,M,10.00,M,FEW,SCT,OVC,M,4000.00,5000.00,6000.00,M,M,M,M,M,M,M,M,34.25,KHTH 260555Z AUTO 34010KT 10SM FEW040 SCT050 OVC060 05/M06 A2986 RMK A01,M
RNO,2021-03-26 05:55,-119.7711,39.4839,1341.00,38.00,19.90,47.89,350.00,8.00,0.00,29.87,1010.90,10.00,M,FEW,SCT,M,M,5500.00,9500.00,M,M,M,M,M,M,M,M,M,31.38,KRNO 260555Z 35008KT 10SM FEW055 SCT095 03/M07 A2987 RMK AO2 SLP109 T00331067 10083 20033 53026,M
TMT,2021-03-26 05:55,-117.1971,39.4643,1749.34,29.30,25.70,86.23,320.00,3.00,0.00,29.83,M,10.00,M,M,M,M,M,M,M,M,M,M,M,M,M,M,M,M,25.60,KTMT 260555Z AUTO 32003KT 10SM M01/M03 A2983 RMK AO2 T10151035 10015 21015,M
NFL,2021-03-26 05:56,-118.7010,39.4166,1199.00,38.00,24.10,57.18,360.00,8.00,0.00,29.86,1008.60,10.00,M,FEW,SCT,M,M,10000.00,20000.00,M,M,M,M,M,M,M,M,M,31.38,KNFL 260556Z 36008KT 10SM FEW100 SCT200 03/M04 A2986 RMK AO2 SLP086 T00331044 10094 20033 51025,M
LAS,2021-03-26 05:56,-115.1634,36.0719,663.00,57.00,30.00,35.54,310.00,12.00,0.00,29.66,1003.40,10.00,19.00,OVC,M,M,M,10000.00,M,M,M,M,M,M,M,M,M,M,57.00,KLAS 260556Z 31012G19KT 10SM OVC100 14/M01 A2966 RMK AO2 SLP034 SHRA OBSCURES MTNS DSNT W-NW T01391011 10189 20139 52027,M
HND,2021-03-26 05:56,-115.1344,35.9729,742.79,53.00,32.00,44.42,200.00,9.00,0.00,29.69,1006.20,10.00,M,SCT,OVC,M,M,7500.00,10000.00,M,M,M,M,M,M,M,M,M,53.10,KHND 260556Z AUTO 20009KT 10SM SCT075 OVC100 12/00 A2969 RMK AO2 SLP062 T01170000 10183 20117 53026,M
TPH,2021-03-26 05:56,-117.0904,38.0505,1654.00,33.00,21.00,60.71,340.00,6.00,0.00,29.77,1007.10,10.00,M,CLR,M,M,M,M,M,M,M,M,M,M,M,M,M,M,26.86,KTPH 260556Z AUTO 34006KT 10SM CLR 01/M06 A2977 RMK AO2 SLP071 T00061061 10083 20006 53019,M
EKO,2021-03-26 05:56,-115.7860,40.8242,1367.00,34.00,21.90,60.83,40.00,4.00,0.00,29.78,1009.00,10.00,M,BKN,OVC,M,M,4600.00,6500.00,M,M,M,M,M,M,M,M,M,29.76,KEKO 260556Z AUTO 04004KT 10SM BKN046 OVC065 01/M06 A2978 RMK AO2 SLP090 T00111056 10050 20011 51021,M
WMC,2021-03-26 05:56,-117.8072,40.9019,1315.00,34.00,28.00,78.43,350.00,13.00,0.00,29.86,1011.70,10.00,M,BKN,OVC,M,M,5000.00,7000.00,M,M,M,M,M,M,M,M,M,24.13,KWMC 260556Z AUTO 35013KT 10SM BKN050 OVC070 01/M02 A2986 RMK AO2 SLP117 60000 T00111022 10067 20006 51022,M
INS,2021-03-26 05:58,-115.6733,36.5872,955.00,47.70,33.60,57.88,170.00,5.00,T,29.72,M,9.00,M,FEW,FEW,BKN,OVC,1300.00,1700.00,2700.00,4700.00,-RA,M,M,M,M,M,M,45.04,KINS 260558Z AUTO 17005KT 9SM -RA FEW013 FEW017 BKN027 OVC047 09/01 A2972 RMK AO2 RAB0458E22RAB30 CIG 027V047 SLPNO P0000 60000 T00870009 10171 20087 52045 $,M
LSV,2021-03-26 05:58,-115.0343,36.2362,570.00,56.80,32.20,39.13,360.00,12.00,0.00,29.67,M,10.00,18.00,OVC,M,M,M,10000.00,M,M,M,M,M,M,M,M,M,M,56.80,KLSV 260558Z AUTO 36012G18KT 10SM OVC100 14/00 A2967 RMK AO2 PRESRR SLPNO T01380001 10201 20137 52035 $,M
VGT,2021-03-26 06:00,-115.1933,36.2111,667.00,57.00,32.00,38.54,310.00,19.00,0.00,29.62,M,10.00,26.00,SCT,BKN,OVC,M,7500.00,9500.00,12000.00,M,M,M,M,M,26.00,320.00,2021-03-26 06:00,57.00,KVGT 260600Z AUTO 31019G26KT 10SM SCT075 BKN095 OVC120 14/00 A2962 RMK AO2 PK WND 32026/0600 WSHFT 0540 T01390000,M
BAM,2021-03-26 06:15,-116.8743,40.5990,1382.36,33.80,32.00,93.03,340.00,6.00,0.00,29.85,M,10.00,M,BKN,BKN,OVC,M,4800.00,5000.00,6000.00,M,M,M,M,M,M,M,M,27.70,KBAM 260615Z AUTO 34006KT 10SM BKN048 BKN050 OVC060 01/00 A2985 RMK AO1,M
HTH,2021-03-26 06:15,-118.6315,38.5448,1282.89,41.00,21.20,44.85,350.00,13.00,0.00,29.87,M,10.00,M,FEW,FEW,OVC,M,4200.00,4800.00,6000.00,M,M,M,M,M,M,M,M,33.10,KHTH 260615Z AUTO 35013KT 10SM FEW042 FEW048 OVC060 05/M06 A2987 RMK A01,M
BVU,2021-03-26 06:15,-114.8611,35.9475,671.00,55.40,30.20,37.97,220.00,5.00,0.00,29.67,M,10.00,M,OVC,M,M,M,7500.00,M,M,M,M,M,M,M,M,M,M,55.40,KBVU 260615Z AUTO 22005KT 10SM OVC075 13/M01 A2967 RMK AO2,M
TMT,2021-03-26 06:15,-117.1971,39.4643,1749.34,29.30,25.70,86.23,290.00,3.00,0.00,29.84,M,10.00,M,M,M,M,M,M,M,M,M,M,M,M,M,M,M,M,25.60,KTMT 260615Z AUTO 29003KT 10SM M01/M03 A2984 RMK AO2 T10151035,M
MEV,2021-03-26 06:15,-119.7500,38.9963,1441.42,35.60,21.20,55.41,0.00,0.00,0.00,29.87,M,10.00,M,FEW,BKN,OVC,M,6000.00,7500.00,8500.00,M,M,M,M,M,M,M,M,35.60,KMEV 260615Z AUTO 00000KT 10SM FEW060 BKN075 OVC085 02/M06 A2987 RMK AO2,M
05U,2021-03-26 06:15,-116.0051,39.6042,1811.23,26.60,26.60,100.00,0.00,0.00,0.00,29.81,M,10.00,M,SCT,OVC,M,M,700.00,1200.00,M,M,M,M,M,M,M,M,M,26.60,K05U 260615Z AUTO 00000KT 10SM SCT007 OVC012 M03/M03 A2981 RMK A01,M
CXP,2021-03-26 06:15,-119.7326,39.1923,1431.00,39.20,19.40,44.55,340.00,7.00,0.00,29.88,M,10.00,M,FEW,BKN,OVC,M,2400.00,7500.00,9000.00,M,M,M,M,M,M,M,M,33.56,KCXP 260615Z AUTO 34007KT 10SM FEW024 BKN075 OVC090 04/M07 A2988 RMK AO2,M
RTS,2021-03-26 06:15,-119.8764,39.6682,1539.00,32.00,19.40,59.27,10.00,6.00,0.00,29.90,M,10.00,M,CLR,M,M,M,M,M,M,M,M,M,M,M,M,M,M,25.53,KRTS 260615Z AUTO 01006KT 10SM CLR M00/M07 A2990 RMK AO2,M
MEV,2021-03-26 06:35,-119.7500,38.9963,1441.42,35.60,21.20,55.41,330.00,7.00,0.00,29.88,M,10.00,M,BKN,OVC,M,M,7500.00,9000.00,M,M,M,M,M,M,M,M,M,29.17,KMEV 260635Z AUTO 33007KT 10SM BKN075 OVC090 02/M06 A2988 RMK AO2,M
BVU,2021-03-26 06:35,-114.8611,35.9475,671.00,55.40,30.20,37.97,0.00,0.00,0.00,29.68,M,10.00,10.00,BKN,OVC,M,M,7000.00,8000.00,M,M,M,M,M,M,M,M,M,55.40,KBVU 260635Z AUTO 00000G10KT 10SM BKN070 OVC080 13/M01 A2968 RMK AO2,M
05U,2021-03-26 06:35,-116.0051,39.6042,1811.23,26.60,26.60,100.00,0.00,0.00,0.00,29.81,M,10.00,M,BKN,OVC,M,M,1100.00,2000.00,M,M,M,M,M,M,M,M,M,26.60,K05U 260635Z AUTO 00000KT 10SM BKN011 OVC020 M03/M03 A2981 RMK A01,M
TMT,2021-03-26 06:35,-117.1971,39.4643,1749.34,29.30,25.70,86.23,0.00,0.00,0.00,29.85,M,10.00,M,M,M,M,M,M,M,M,M,M,M,M,M,M,M,M,29.30,KTMT 260635Z AUTO 00000KT 10SM M01/M03 A2985 RMK AO2 T10151035,M
HTH,2021-03-26 06:35,-118.6315,38.5448,1282.89,39.20,21.20,48.10,330.00,12.00,0.00,29.88,M,10.00,M,FEW,BKN,OVC,M,4800.00,6000.00,7000.00,M,M,M,M,M,M,M,M,31.17,KHTH 260635Z AUTO 33012KT 10SM FEW048 BKN060 OVC070 04/M06 A2988 RMK A01,M
BAM,2021-03-26 06:35,-116.8743,40.5990,1382.36,33.80,30.20,86.49,330.00,8.00,0.00,29.86,M,10.00,M,BKN,BKN,OVC,M,3200.00,4400.00,5000.00,M,M,M,M,M,M,M,M,26.33,KBAM 260635Z AUTO 33008KT 10SM BKN032 BKN044 OVC050 01/M01 A2986 RMK AO1,M
RTS,2021-03-26 06:35,-119.8764,39.6682,1539.00,30.20,17.60,59.01,240.00,4.00,0.00,29.91,M,10.00,M,FEW,FEW,FEW,M,4000.00,4700.00,5500.00,M,M,M,M,M,M,M,M,25.32,KRTS 260635Z AUTO 24004KT 10SM FEW040 FEW047 FEW055 M01/M08 A2991 RMK AO2,M
CXP,2021-03-26 06:35,-119.7326,39.1923,1431.00,39.20,19.40,44.55,10.00,9.00,0.00,29.89,M,10.00,15.00,FEW,OVC,M,M,7000.00,8500.00,M,M,M,M,M,M,M,M,M,32.47,KCXP 260635Z AUTO 01009G15KT 340V040 10SM FEW070 OVC085 04/M07 A2989 RMK AO2,M
INS,2021-03-26 06:38,-115.6733,36.5872,955.00,46.40,37.40,70.68,160.00,8.00,0.00,29.72,1004.40,10.00,M,SCT,SCT,BKN,BKN,1800.00,2500.00,3600.00,4400.00,-RA,M,M,M,M,M,M,41.85,KINS 260638Z AUTO 16008KT 10SM -RA SCT018 SCT025 BKN036 BKN044 08/03 A2972 RMK AO2 SLP044 $,M
INS,2021-03-26 06:48,-115.6733,36.5872,955.00,46.40,37.40,70.68,180.00,5.00,0.00,29.73,M,10.00,M,BKN,BKN,BKN,M,2200.00,2700.00,3600.00,M,-RA,M,M,M,M,M,M,43.50,KINS 260648Z AUTO 18005KT 10SM -RA BKN022 BKN027 BKN036 08/03 A2973 RMK AO2 CIG 022V036 BKN022 V SCT SLPNO $,M
ELY,2021-03-26 06:53,-114.8453,39.2950,1909.00,28.00,25.00,88.33,M,M,0.00,29.74,1007.00,10.00,M,BKN,BKN,OVC,M,3800.00,4600.00,6000.00,M,M,M,M,M,M,M,M,M,KELY 260653Z AUTO 10SM BKN038 BKN046 OVC060 M02/M04 A2974 RMK AO2 SLP070 T10221039,M
P68,2021-03-26 06:53,-116.0056,39.6014,1993.00,27.00,25.00,92.05,0.00,0.00,0.00,29.80,1009.10,M,M,M,M,M,M,M,M,M,M,M,M,M,M,M,M,M,27.00,KP68 260653Z AUTO 00000KT M03/M04 A2980 RMK AO1 SLP091 T10281039,M
LOL,2021-03-26 06:53,-118.5701,40.0684,1192.43,34.00,23.00,63.72,360.00,9.00,0.00,29.89,1012.60,10.00,M,CLR,M,M,M,M,M,M,M,M,M,M,M,M,M,M,26.00,KLOL 260653Z AUTO 36009KT 10SM CLR 01/M05 A2989 RMK AO2 SLP126 T00111050,M
VGT,2021-03-26 06:53,-115.1933,36.2111,667.00,54.00,33.00,44.92,320.00,17.00,T,29.64,1004.50,10.00,32.00,FEW,M,M,M,9000.00,M,M,M,-RA,M,M,M,35.00,320.00,2021-03-26 06:15,54.00,KVGT 260653Z AUTO 32017G32KT 10SM -RA FEW090 12/01 A2964 RMK AO2 PK WND 32035/0615 WSHFT 0540 RAB15 SLP045 P0000 T01220006,M
DRA,2021-03-26 06:53,-116.0278,36.6206,1009.00,46.00,35.00,65.52,80.00,6.00,T,29.74,1005.00,10.00,M,OVC,M,M,M,6000.00,M,M,M,M,M,M,M,27.00,30.00,2021-03-26 06:02,42.39,KDRA 260653Z AUTO 08006KT 10SM OVC060 08/02 A2974 RMK AO2 PK WND 03027/0602 RAB0555E37 SLP050 P0000 T00780017,M
CXP,2021-03-26 06:55,-119.7326,39.1923,1431.00,37.40,19.40,47.80,10.00,9.00,0.00,29.90,M,10.00,M,FEW,BKN,M,M,7000.00,8500.00,M,M,M,M,M,M,M,M,M,30.23,KCXP 260655Z AUTO 01009KT 10SM FEW070 BKN085 03/M07 A2990 RMK AO2,M
HTH,2021-03-26 06:55,-118.6315,38.5448,1282.89,39.20,21.20,48.10,340.00,11.00,0.00,29.89,M,10.00,M,FEW,SCT,BKN,M,5500.00,6500.00,7500.00,M,M,M,M,M,M,M,M,31.57,KHTH 260655Z AUTO 34011KT 10SM FEW055 SCT065 BKN075 04/M06 A2989 RMK A01,M
BAM,2021-03-26 06:55,-116.8743,40.5990,1382.36,35.60,30.20,80.51,330.00,7.00,0.00,29.87,M,10.00,M,BKN,OVC,M,M,3200.00,4400.00,M,M,M,M,M,M,M,M,M,29.17,KBAM 260655Z AUTO 33007KT 10SM BKN032 OVC044 02/M01 A2987 RMK AO1,M
MEV,2021-03-26 06:55,-119.7500,38.9963,1441.42,35.60,21.20,55.41,M,4.00,0.00,29.89,M,10.00,M,SCT,OVC,M,M,8000.00,9000.00,M,M,M,M,M,M,M,M,M,31.62,KMEV 260655Z AUTO VRB04KT 10SM SCT080 OVC090 02/M06 A2989 RMK AO2,M
RNO,2021-03-26 06:55,-119.7711,39.4839,1341.00,36.00,19.90,51.61,350.00,6.00,0.00,29.90,1012.00,10.00,M,FEW,SCT,M,M,5500.00,9500.00,M,M,M,M,M,M,M,M,M,30.35,KRNO 260655Z 35006KT 10SM FEW055 SCT095 02/M07 A2990 RMK AO2 SLP120 T00221067,M
BVU,2021-03-26 06:55,-114.8611,35.9475,671.00,55.40,30.20,37.97,290.00,9.00,0.00,29.68,M,10.00,15.00,FEW,BKN,OVC,M,4000.00,4700.00,7000.00,M,M,M,M,M,M,M,M,55.40,KBVU 260655Z AUTO 29009G15KT 10SM FEW040 BKN047 OVC070 13/M01 A2968 RMK AO2,M
05U,2021-03-26 06:55,-116.0051,39.6042,1811.23,26.60,26.60,100.00,0.00,0.00,0.00,29.82,M,4.00,M,FEW,BKN,OVC,M,400.00,1200.00,1800.00,M,BR,M,M,M,M,M,M,26.60,K05U 260655Z AUTO 00000KT 4SM BR FEW004 BKN012 OVC018 M03/M03 A2982 RMK A01,M
TMT,2021-03-26 06:55,-117.1971,39.4643,1749.34,29.70,25.70,84.83,0.00,0.00,0.00,29.85,M,10.00,M,M,M,M,M,M,M,M,M,M,M,M,M,M,M,M,29.70,KTMT 260655Z AUTO 00000KT 10SM M01/M03 A2985 RMK AO2 T10131035,M
RTS,2021-03-26 06:55,-119.8764,39.6682,1539.00,32.00,19.40,59.27,230.00,8.00,0.00,29.91,M,10.00,M,FEW,FEW,M,M,4500.00,5500.00,M,M,M,M,M,M,M,M,M,24.11,KRTS 260655Z AUTO 23008KT 10SM FEW045 FEW055 M00/M07 A2991 RMK AO2,M
HND,2021-03-26 06:56,-115.1344,35.9729,742.79,52.00,33.00,48.34,350.00,13.00,0.00,29.71,1007.00,10.00,20.00,FEW,OVC,M,M,6500.00,9500.00,M,M,M,M,M,M,M,M,M,52.00,KHND 260656Z AUTO 35013G20KT 10SM FEW065 OVC095 11/01 A2971 RMK AO2 SLP070 T01110006,M
WMC,2021-03-26 06:56,-117.8072,40.9019,1315.00,34.00,28.00,78.43,350.00,8.00,T,29.89,1012.80,9.00,M,BKN,OVC,M,M,5000.00,9000.00,M,M,M,M,M,M,M,M,M,26.58,KWMC 260656Z AUTO 35008KT 9SM BKN050 OVC090 01/M02 A2989 RMK AO2 SNB33E55 SLP128 P0000 T00111022,M
LAS,2021-03-26 06:56,-115.1634,36.0719,663.00,53.00,34.00,48.13,350.00,20.00,0.00,29.70,1004.60,10.00,26.00,FEW,SCT,BKN,M,7000.00,9000.00,11000.00,M,M,M,M,M,30.00,340.00,2021-03-26 06:32,53.10,KLAS 260656Z 35020G26KT 10SM FEW070 SCT090 BKN110 12/01 A2970 RMK AO2 PK WND 34030/0632 SLP046 VCSH E MTNS OBSCURED DSNT NW T01170011,M
EKO,2021-03-26 06:56,-115.7860,40.8242,1367.00,35.00,23.00,60.99,330.00,3.00,T,29.80,1009.40,10.00,M,OVC,M,M,M,5000.00,M,M,M,M,M,M,M,M,M,M,32.23,KEKO 260656Z AUTO 33003KT 10SM OVC050 02/M05 A2980 RMK AO2 SNB09E23 SLP094 P0000 T00171050,M
NFL,2021-03-26 06:56,-118.7010,39.4166,1199.00,33.00,23.00,66.06,340.00,8.00,0.00,29.88,1009.40,10.00,M,CLR,M,M,M,M,M,M,M,M,M,M,M,M,M,M,25.47,KNFL 260656Z AUTO 34008KT 10SM CLR 01/M05 A2988 RMK AO2 SLP094 T00061050,M
TPH,2021-03-26 06:56,-117.0904,38.0505,1654.00,30.90,19.00,60.92,340.00,11.00,0.00,29.80,1008.40,10.00,M,FEW,M,M,M,5500.00,M,M,M,M,M,M,M,M,M,M,21.08,KTPH 260656Z AUTO 34011KT 10SM FEW055 M01/M07 A2980 RMK AO2 SLP084 T10061072,M
INS,2021-03-26 06:58,-115.6733,36.5872,955.00,46.00,36.00,68.17,200.00,6.00,T,29.73,M,10.00,M,BKN,BKN,M,M,2200.00,3700.00,M,M,-RA,M,M,M,M,M,M,42.39,KINS 260658Z AUTO 20006KT 10SM -RA BKN022 BKN037 08/02 A2973 RMK AO2 SLPNO P0000 T00780023 $,M
LSV,2021-03-26 06:58,-115.0343,36.2362,570.00,56.70,32.00,38.96,80.00,6.00,0.00,29.68,M,10.00,M,FEW,FEW,M,M,7000.00,10000.00,M,M,M,M,M,M,M,M,M,56.70,KLSV 260658Z AUTO 08006KT 10SM FEW070 FEW100 14/00 A2968 RMK AO2 SLPNO T01370000 $,M
INS,2021-03-26 07:03,-115.6733,36.5872,955.00,46.40,37.40,70.68,200.00,7.00,0.00,29.73,M,10.00,M,SCT,BKN,M,M,2400.00,3700.00,M,M,-RA,M,M,M,M,M,M,42.33,KINS 260703Z AUTO 20007KT 10SM -RA SCT024 BKN037 08/03 A2973 RMK AO2 SLPNO $,M
INS,2021-03-26 07:05,-115.6733,36.5872,955.00,46.40,37.40,70.68,200.00,5.00,0.00,29.73,M,10.00,M,SCT,SCT,M,M,2400.00,3700.00,M,M,M,M,M,M,M,M,M,43.50,KINS 260705Z AUTO 20005KT 10SM SCT024 SCT037 08/03 A2973 RMK AO2 RAE03DZB03E05 SLPNO $,M
CXP,2021-03-26 07:10,-119.7326,39.1923,1431.00,37.40,19.40,47.80,360.00,8.00,0.00,29.91,M,10.00,M,FEW,SCT,BKN,M,5500.00,7000.00,8000.00,M,M,M,M,M,M,M,M,30.76,KCXP 260710Z AUTO 36008KT 10SM FEW055 SCT070 BKN080 03/M07 A2991 RMK AO2,M
INS,2021-03-26 07:10,-115.6733,36.5872,955.00,46.40,35.60,65.83,230.00,6.00,0.00,29.73,M,10.00,M,SCT,M,M,M,2400.00,M,M,M,-RA,M,M,M,M,M,M,42.87,KINS 260710Z AUTO 23006KT 10SM -RA SCT024 08/02 A2973 RMK AO2 RAE03DZB03E05RAB10 SLPNO $,M
TMT,2021-03-26 07:15,-117.1971,39.4643,1749.34,29.30,26.40,88.77,190.00,3.00,0.00,29.86,M,10.00,M,M,M,M,M,M,M,M,M,M,M,M,M,M,M,M,25.60,KTMT 260715Z AUTO 19003KT 10SM M01/M03 A2986 RMK AO2 T10151031,M
05U,2021-03-26 07:15,-116.0051,39.6042,1811.23,26.60,26.60,100.00,0.00,0.00,0.00,29.83,M,4.00,M,FEW,BKN,OVC,M,300.00,1300.00,1900.00,M,BR,M,M,M,M,M,M,26.60,K05U 260715Z AUTO 00000KT 4SM BR FEW003 BKN013 OVC019 M03/M03 A2983 RMK A01,M
BVU,2021-03-26 07:15,-114.8611,35.9475,671.00,55.40,30.20,37.97,340.00,9.00,0.00,29.69,M,10.00,M,FEW,SCT,BKN,M,4300.00,4900.00,6000.00,M,M,M,M,M,M,M,M,55.40,KBVU 260715Z AUTO 34009KT 10SM FEW043 SCT049 BKN060 13/M01 A2969 RMK AO2,M
BAM,2021-03-26 07:15,-116.8743,40.5990,1382.36,33.80,30.20,86.49,330.00,4.00,0.00,29.88,M,10.00,M,SCT,OVC,M,M,3400.00,4400.00,M,M,M,M,M,M,M,M,M,29.52,KBAM 260715Z AUTO 33004KT 10SM SCT034 OVC044 01/M01 A2988 RMK AO1,M
MEV,2021-03-26 07:15,-119.7500,38.9963,1441.42,33.80,21.20,59.53,350.00,7.00,0.00,29.90,M,10.00,M,SCT,SCT,M,M,8000.00,9000.00,M,M,M,M,M,M,M,M,M,26.97,KMEV 260715Z AUTO 35007KT 10SM SCT080 SCT090 01/M06 A2990 RMK AO2,M
RTS,2021-03-26 07:15,-119.8764,39.6682,1539.00,32.00,19.40,59.27,330.00,5.00,0.00,29.93,M,10.00,M,BKN,M,M,M,5500.00,M,M,M,M,M,M,M,M,M,M,26.40,KRTS 260715Z AUTO 33005KT 10SM BKN055 00/M07 A2993 RMK AO2,M
HTH,2021-03-26 07:15,-118.6315,38.5448,1282.89,37.40,21.20,51.61,340.00,10.00,0.00,29.90,M,10.00,15.00,SCT,BKN,OVC,M,6000.00,7000.00,10000.00,M,M,M,M,M,M,M,M,29.74,KHTH 260715Z AUTO 34010G15KT 10SM SCT060 BKN070 OVC100 03/M06 A2990 RMK A01,M
INS,2021-03-26 07:21,-115.6733,36.5872,955.00,46.40,35.60,65.83,220.00,7.00,0.00,29.74,1004.90,10.00,M,FEW,M,M,M,1100.00,M,M,M,-RA,M,M,M,M,M,M,42.33,KINS 260721Z AUTO 22007KT 10SM -RA FEW011 08/02 A2974 RMK AO2 RAE03DZB03E05RAB10 SLP049 $,M
INS,2021-03-26 07:22,-115.6733,36.5872,955.00,46.40,35.60,65.83,220.00,6.00,0.00,29.74,1004.90,10.00,M,FEW,M,M,M,1100.00,M,M,M,M,M,M,M,M,M,M,42.87,KINS 260722Z AUTO 22006KT 10SM FEW011 08/02 A2974 RMK AO2 RAE03DZB03E05RAB10E22 SLP049 $,M
LSV,2021-03-26 07:31,-115.0343,36.2362,570.00,55.40,33.80,43.90,280.00,7.00,0.00,29.69,1004.30,10.00,M,FEW,BKN,M,M,3100.00,6500.00,M,M,-DZ,M,M,M,M,M,M,55.40,KLSV 260731Z AUTO 28007KT 10SM -DZ FEW031 BKN065 13/01 A2969 RMK AO2 DZB31 SLP043 $,M
CXP,2021-03-26 07:35,-119.7326,39.1923,1431.00,35.60,19.40,51.33,350.00,3.00,0.00,29.93,M,10.00,M,SCT,BKN,M,M,7000.00,9000.00,M,M,M,M,M,M,M,M,M,32.80,KCXP 260735Z AUTO 35003KT 10SM SCT070 BKN090 02/M07 A2993 RMK AO2,M
TMT,2021-03-26 07:35,-117.1971,39.4643,1749.34,28.90,26.10,89.12,0.00,0.00,0.00,29.87,M,10.00,M,M,M,M,M,M,M,M,M,M,M,M,M,M,M,M,28.90,KTMT 260735Z AUTO 00000KT 10SM M02/M03 A2987 RMK AO2 T10171033,M
05U,2021-03-26 07:35,-116.0051,39.6042,1811.23,26.60,24.80,92.80,0.00,0.00,0.00,29.83,M,10.00,M,FEW,SCT,OVC,M,1300.00,1700.00,3700.00,M,M,M,M,M,M,M,M,26.60,K05U 260735Z AUTO 00000KT 10SM FEW013 SCT017 OVC037 M03/M04 A2983 RMK A01,M
BVU,2021-03-26 07:35,-114.8611,35.9475,671.00,55.40,32.00,40.84,320.00,15.00,0.00,29.70,M,10.00,M,BKN,BKN,OVC,M,4200.00,4900.00,6000.00,M,M,M,M,M,M,M,M,55.40,KBVU 260735Z AUTO 32015KT 10SM BKN042 BKN049 OVC060 13/00 A2970 RMK AO2,M
RTS,2021-03-26 07:35,-119.8764,39.6682,1539.00,32.00,19.40,59.27,290.00,5.00,0.00,29.93,M,10.00,M,FEW,M,M,M,5500.00,M,M,M,M,M,M,M,M,M,M,26.40,KRTS 260735Z AUTO 29005KT 10SM FEW055 M00/M07 A2993 RMK AO2,M
MEV,2021-03-26 07:35,-119.7500,38.9963,1441.42,32.00,21.20,63.99,20.00,8.00,0.00,29.91,M,10.00,M,FEW,M,M,M,7500.00,M,M,M,M,M,M,M,M,M,M,24.11,KMEV 260735Z AUTO 02008KT 10SM FEW075 00/M06 A2991 RMK AO2,M
BAM,2021-03-26 07:35,-116.8743,40.5990,1382.36,35.60,30.20,80.51,330.00,4.00,0.00,29.88,M,10.00,M,OVC,M,M,M,3800.00,M,M,M,M,M,M,M,M,M,M,31.62,KBAM 260735Z AUTO 33004KT 10SM OVC038 02/M01 A2988 RMK AO1,M
HTH,2021-03-26 07:35,-118.6315,38.5448,1282.89,37.40,21.20,51.61,350.00,13.00,0.00,29.90,M,10.00,M,OVC,M,M,M,5500.00,M,M,M,M,M,M,M,M,M,M,28.49,KHTH 260735Z AUTO 35013KT 10SM OVC055 03/M06 A2990 RMK A01,M
LSV,2021-03-26 07:40,-115.0343,36.2362,570.00,57.20,33.80,41.13,260.00,4.00,0.00,29.70,1004.70,10.00,M,SCT,M,M,M,6500.00,M,M,M,M,M,M,M,M,M,M,57.20,KLSV 260740Z AUTO 26004KT 10SM SCT065 14/01 A2970 RMK AO2 DZB31E40 SLP047 $,M
LOL,2021-03-26 07:53,-118.5701,40.0684,1192.43,32.00,21.90,65.92,20.00,5.00,0.00,29.92,1014.00,10.00,M,SCT,BKN,M,M,5500.00,7000.00,M,M,M,M,M,M,M,M,M,26.40,KLOL 260753Z AUTO 02005KT 10SM SCT055 BKN070 00/M06 A2992 RMK AO2 SLP140 T00001056 400941017,M
DRA,2021-03-26 07:53,-116.0278,36.6206,1009.00,48.00,27.00,43.77,360.00,12.00,0.00,29.75,1005.10,10.00,17.00,BKN,OVC,M,M,4900.00,6500.00,M,M,M,M,M,M,M,M,M,42.37,KDRA 260753Z AUTO 36012G17KT 10SM BKN049 OVC065 09/M03 A2975 RMK AO2 SLP051 T00891028 401830078,M
P68,2021-03-26 07:53,-116.0056,39.6014,1993.00,24.10,21.90,91.17,270.00,3.00,0.01,29.81,1010.10,M,M,M,M,M,M,M,M,M,M,M,M,M,M,M,M,M,19.66,KP68 260753Z AUTO 27003KT M04/M06 A2981 RMK AO1 SLP101 P0001 T10441056 400221044,M
ELY,2021-03-26 07:53,-114.8453,39.2950,1909.00,28.00,25.00,88.33,M,M,T,29.76,1007.40,10.00,M,SCT,BKN,OVC,M,2600.00,3400.00,4400.00,M,M,M,M,M,M,M,M,M,KELY 260753Z AUTO 10SM SCT026 BKN034 OVC044 M02/M04 A2976 RMK AO2 SNB07E16 SLP074 P0000 T10221039 400221033,M
VGT,2021-03-26 07:53,-115.1933,36.2111,667.00,54.00,34.00,46.57,320.00,22.00,T,29.67,1005.40,10.00,34.00,OVC,M,M,M,7000.00,M,M,M,-RA,M,M,M,34.00,310.00,2021-03-26 07:46,54.00,KVGT 260753Z AUTO 32022G34KT 10SM -RA OVC070 12/01 A2967 RMK AO2 PK WND 31034/0746 RAE0657B13E23B47 SLP054 P0000 T01220011 402060106,M
MEV,2021-03-26 07:55,-119.7500,38.9963,1441.42,35.60,21.20,55.41,10.00,9.00,0.00,29.92,M,10.00,15.00,SCT,M,M,M,4700.00,M,M,M,M,M,M,M,M,M,M,27.99,KMEV 260755Z AUTO 01009G15KT 340V040 10SM SCT047 02/M06 A2992 RMK AO2,M
HTH,2021-03-26 07:55,-118.6315,38.5448,1282.89,37.40,21.20,51.61,340.00,13.00,0.00,29.91,M,10.00,M,SCT,BKN,OVC,M,4800.00,5500.00,11000.00,M,M,M,M,M,M,M,M,28.49,KHTH 260755Z AUTO 34013KT 10SM SCT048 BKN055 OVC110 03/M06 A2991 RMK A01,M
BAM,2021-03-26 07:55,-116.8743,40.5990,1382.36,35.60,30.20,80.51,320.00,6.00,0.00,29.89,M,10.00,M,OVC,M,M,M,3600.00,M,M,M,M,M,M,M,M,M,M,29.87,KBAM 260755Z AUTO 32006KT 10SM OVC036 02/M01 A2989 RMK AO1,M
CXP,2021-03-26 07:55,-119.7326,39.1923,1431.00,35.60,19.40,51.33,340.00,5.00,0.00,29.94,M,10.00,M,BKN,BKN,M,M,8000.00,9000.00,M,M,M,M,M,M,M,M,M,30.67,KCXP 260755Z AUTO 34005KT 10SM BKN080 BKN090 02/M07 A2994 RMK AO2,M
RTS,2021-03-26 07:55,-119.8764,39.6682,1539.00,30.20,19.40,63.75,320.00,5.00,0.00,29.94,M,10.00,M,CLR,M,M,M,M,M,M,M,M,M,M,M,M,M,M,24.26,KRTS 260755Z AUTO 32005KT 10SM CLR M01/M07 A2994 RMK AO2,M
RNO,2021-03-26 07:55,-119.7711,39.4839,1341.00,36.00,19.90,51.61,0.00,0.00,0.00,29.94,1012.90,10.00,M,SCT,M,M,M,5500.00,M,M,M,M,M,M,M,M,M,M,36.00,KRNO 260755Z 00000KT 10SM SCT055 02/M07 A2994 RMK AO2 SLP129 T00221067 401060022,M
BVU,2021-03-26 07:55,-114.8611,35.9475,671.00,53.60,33.80,46.88,320.00,14.00,0.00,29.70,M,10.00,21.00,SCT,BKN,OVC,M,4100.00,4900.00,8000.00,M,M,M,M,M,M,M,M,53.60,KBVU 260755Z AUTO 32014G21KT 10SM SCT041 BKN049 OVC080 12/01 A2970 RMK AO2,M
05U,2021-03-26 07:55,-116.0051,39.6042,1811.23,24.80,23.00,92.74,0.00,0.00,0.00,29.84,M,10.00,M,FEW,FEW,OVC,M,2600.00,3000.00,4100.00,M,M,M,M,M,M,M,M,24.80,K05U 260755Z AUTO 00000KT 10SM FEW026 FEW030 OVC041 M04/M05 A2984 RMK A01,M
TMT,2021-03-26 07:55,-117.1971,39.4643,1749.34,29.30,26.10,87.67,0.00,0.00,0.00,29.87,M,10.00,M,M,M,M,M,M,M,M,M,M,M,M,M,M,M,M,29.30,KTMT 260755Z AUTO 00000KT 10SM M01/M03 A2987 RMK AO2 T10151033 400261017,M
TPH,2021-03-26 07:56,-117.0904,38.0505,1654.00,28.90,19.00,66.08,50.00,9.00,0.00,29.82,1009.20,10.00,M,SCT,M,M,M,9000.00,M,M,M,M,M,M,M,M,M,M,19.66,KTPH 260756Z AUTO 05009KT 10SM SCT090 M02/M07 A2982 RMK AO2 SLP092 T10171072 400891017,M
WMC,2021-03-26 07:56,-117.8072,40.9019,1315.00,34.00,28.00,78.43,350.00,10.00,0.00,29.91,1013.40,10.00,M,BKN,BKN,OVC,M,4900.00,6500.00,8000.00,M,M,M,M,M,M,M,M,25.48,KWMC 260756Z AUTO 35010KT 10SM BKN049 BKN065 OVC080 01/M02 A2991 RMK AO2 SLP134 T00111022 400720000,M
NFL,2021-03-26 07:56,-118.7010,39.4166,1199.00,34.00,24.10,66.72,310.00,3.00,0.00,29.92,1010.60,10.00,M,BKN,BKN,M,M,5500.00,7000.00,M,M,M,M,M,M,M,M,M,30.97,KNFL 260756Z AUTO 31003KT 10SM BKN055 BKN070 01/M04 A2992 RMK AO2 SLP106 T00111044 401060006,M
HND,2021-03-26 07:56,-115.1344,35.9729,742.79,52.00,33.00,48.34,10.00,18.00,0.00,29.72,1007.20,10.00,21.00,BKN,OVC,M,M,6500.00,8500.00,M,M,M,M,M,M,M,M,M,52.00,KHND 260756Z AUTO 01018G21KT 10SM BKN065 OVC085 11/01 A2972 RMK AO2 SLP072 T01110006 401940111,M
LAS,2021-03-26 07:56,-115.1634,36.0719,663.00,53.00,34.00,48.13,340.00,19.00,0.00,29.71,1005.10,10.00,26.00,FEW,OVC,M,M,6000.00,7000.00,M,M,M,M,M,M,29.00,350.00,2021-03-26 07:13,53.10,KLAS 260756Z 34019G26KT 10SM FEW060 OVC070 12/01 A2971 RMK AO2 PK WND 35029/0713 SLP051 CIG LWR W-N SHRA OBSCURES TOPS OF MTNS DSNT W-N T01170011 402000117,M
EKO,2021-03-26 07:56,-115.7860,40.8242,1367.00,32.00,26.10,78.58,210.00,6.00,0.00,29.82,1010.30,10.00,M,BKN,OVC,M,M,3500.00,5500.00,M,M,M,M,M,M,M,M,M,25.53,KEKO 260756Z AUTO 21006KT 10SM BKN035 OVC055 00/M03 A2982 RMK AO2 SLP103 T00001033 400671017,M
INS,2021-03-26 07:57,-115.6733,36.5872,955.00,46.40,33.80,61.28,290.00,9.00,0.00,29.75,1005.20,10.00,M,SCT,M,M,M,4700.00,M,M,M,-RA,M,M,M,M,M,M,41.42,KINS 260757Z AUTO 29009KT 10SM -RA SCT047 08/01 A2975 RMK AO2 RAE03DZB03E05RAB10E22RAB57 SLP052 $,M
LSV,2021-03-26 07:58,-115.0343,36.2362,570.00,56.50,33.60,41.85,320.00,5.00,T,29.70,1004.70,10.00,M,CLR,M,M,M,M,M,M,M,M,M,M,M,M,M,M,56.50,KLSV 260758Z AUTO 32005KT 10SM CLR 14/01 A2970 RMK AO2 DZB31E40 SLP047 P0000 T01360009 402050130 $,M
INS,2021-03-26 07:58,-115.6733,36.5872,955.00,46.00,34.50,63.97,280.00,9.00,T,29.75,1005.20,10.00,M,FEW,SCT,M,M,2300.00,4900.00,M,M,-RA,M,M,M,M,M,M,40.92,KINS 260758Z AUTO 28009KT 10SM -RA FEW023 SCT049 08/01 A2975 RMK AO2 RAE03DZB03E05RAB10E22RAB57 SLP052 P0000 T00780014 401760054 $,M
INS,2021-03-26 08:03,-115.6733,36.5872,955.00,46.40,35.60,65.83,220.00,12.00,0.00,29.74,1004.90,10.00,M,FEW,SCT,BKN,M,1500.00,2300.00,4800.00,M,-RA,M,M,M,M,M,M,40.33,KINS 260803Z AUTO 22012KT 10SM -RA FEW015 SCT023 BKN048 08/02 A2974 RMK AO2 SLP049 $,M
INS,2021-03-26 08:13,-115.6733,36.5872,955.00,46.40,35.60,65.83,220.00,13.00,0.00,29.73,1004.50,10.00,M,FEW,FEW,SCT,M,1500.00,2300.00,4600.00,M,-RA,M,M,M,M,M,M,40.02,KINS 260813Z AUTO 22013KT 10SM -RA FEW015 FEW023 SCT046 08/02 A2973 RMK AO2 SLP045 $,M
INS,2021-03-26 08:14,-115.6733,36.5872,955.00,46.40,35.60,65.83,220.00,13.00,0.00,29.73,1004.50,10.00,M,FEW,FEW,SCT,M,1500.00,2300.00,4600.00,M,M,M,M,M,M,M,M,40.02,KINS 260814Z AUTO 22013KT 10SM FEW015 FEW023 SCT046 08/02 A2973 RMK AO2 RAE13 SLP045 $,M
ELY,2021-03-26 08:14,-114.8453,39.2950,1909.00,28.00,25.00,88.33,M,M,0.00,29.77,M,10.00,M,FEW,BKN,OVC,M,700.00,2600.00,3400.00,M,M,M,M,M,M,M,M,M,KELY 260814Z AUTO 10SM FEW007 BKN026 OVC034 M02/M04 A2977 RMK AO2 T10221039,M
CXP,2021-03-26 08:15,-119.7326,39.1923,1431.00,35.60,19.40,51.33,350.00,5.00,0.00,29.95,M,10.00,M,FEW,FEW,SCT,M,6000.00,7000.00,7500.00,M,M,M,M,M,M,M,M,30.67,KCXP 260815Z AUTO 35005KT 10SM FEW060 FEW070 SCT075 02/M07 A2995 RMK AO2,M
TMT,2021-03-26 08:15,-117.1971,39.4643,1749.34,29.70,26.20,86.61,0.00,0.00,0.00,29.89,M,10.00,M,M,M,M,M,M,M,M,M,-SN,M,M,M,M,M,M,29.70,KTMT 260815Z AUTO 00000KT 10SM -SN M01/M03 A2989 RMK AO2 T10131032,M
BVU,2021-03-26 08:15,-114.8611,35.9475,671.00,53.60,32.00,43.61,340.00,10.00,0.00,29.71,M,10.00,15.00,OVC,M,M,M,7500.00,M,M,M,M,M,M,M,M,M,M,53.60,KBVU 260815Z AUTO 34010G15KT 10SM OVC075 12/00 A2971 RMK AO2,M
05U,2021-03-26 08:15,-116.0051,39.6042,1811.23,24.80,24.80,100.00,0.00,0.00,0.00,29.84,M,10.00,M,FEW,OVC,M,M,2800.00,4300.00,M,M,M,M,M,M,M,M,M,24.80,K05U 260815Z AUTO 00000KT 10SM FEW028 OVC043 M04/M04 A2984 RMK A01,M
RTS,2021-03-26 08:15,-119.8764,39.6682,1539.00,30.20,19.40,63.75,360.00,9.00,0.00,29.95,M,10.00,M,CLR,M,M,M,M,M,M,M,M,M,M,M,M,M,M,21.28,KRTS 260815Z AUTO 36009KT 10SM CLR M01/M07 A2995 RMK AO2,M
MEV,2021-03-26 08:15,-119.7500,38.9963,1441.42,32.00,21.20,63.99,20.00,4.00,0.00,29.93,M,10.00,M,BKN,OVC,M,M,4700.00,6500.00,M,M,M,M,M,M,M,M,M,27.42,KMEV 260815Z AUTO 02004KT 10SM BKN047 OVC065 00/M06 A2993 RMK AO2,M
BAM,2021-03-26 08:15,-116.8743,40.5990,1382.36,33.80,30.20,86.49,320.00,5.00,0.00,29.90,M,10.00,M,BKN,OVC,M,M,3600.00,4300.00,M,M,M,M,M,M,M,M,M,28.53,KBAM 260815Z AUTO 32005KT 10SM BKN036 OVC043 01/M01 A2990 RMK AO1,M
HTH,2021-03-26 08:15,-118.6315,38.5448,1282.89,37.40,23.00,55.68,340.00,12.00,0.00,29.93,M,10.00,M,BKN,OVC,M,M,5000.00,5500.00,M,M,M,M,M,M,M,M,M,28.87,KHTH 260815Z AUTO 34012KT 10SM BKN050 OVC055 03/M05 A2993 RMK A01,M
INS,2021-03-26 08:29,-115.6733,36.5872,955.00,46.40,32.00,57.00,240.00,15.00,0.00,29.72,1004.20,10.00,M,FEW,FEW,M,M,1200.00,4700.00,M,M,M,M,M,M,M,M,M,39.45,KINS 260829Z AUTO 24015KT 10SM FEW012 FEW047 08/M00 A2972 RMK AO2 RAE13 SLP042 $,M
BVU,2021-03-26 08:35,-114.8611,35.9475,671.00,53.60,32.00,43.61,340.00,8.00,0.00,29.72,M,10.00,15.00,OVC,M,M,M,7500.00,M,M,M,M,M,M,M,M,M,M,53.60,KBVU 260835Z AUTO 34008G15KT 10SM OVC075 12/00 A2972 RMK AO2,M
HTH,2021-03-26 08:35,-118.6315,38.5448,1282.89,37.40,23.00,55.68,330.00,9.00,0.00,29.94,M,10.00,M,OVC,M,M,M,5500.00,M,M,M,M,M,M,M,M,M,M,30.23,KHTH 260835Z AUTO 33009KT 10SM OVC055 03/M05 A2994 RMK A01,M
CXP,2021-03-26 08:35,-119.7326,39.1923,1431.00,35.60,19.40,51.33,360.00,7.00,0.00,29.95,M,10.00,M,BKN,BKN,M,M,5500.00,7500.00,M,M,M,M,M,M,M,M,M,29.17,KCXP 260835Z AUTO 36007KT 10SM BKN055 BKN075 02/M07 A2995 RMK AO2,M
RTS,2021-03-26 08:35,-119.8764,39.6682,1539.00,30.20,19.40,63.75,340.00,6.00,0.00,29.96,M,10.00,11.00,CLR,M,M,M,M,M,M,M,M,M,M,M,M,M,M,23.36,KRTS 260835Z AUTO 34006G11KT 10SM CLR M01/M07 A2996 RMK AO2,M
TMT,2021-03-26 08:35,-117.1971,39.4643,1749.34,29.30,26.60,89.50,0.00,0.00,0.00,29.89,M,10.00,M,M,M,M,M,M,M,M,M,M,M,M,M,M,M,M,29.30,KTMT 260835Z AUTO 00000KT 10SM M01/M03 A2989 RMK AO2 T10151030,M
05U,2021-03-26 08:35,-116.0051,39.6042,1811.23,26.60,24.80,92.80,0.00,0.00,0.00,29.85,M,10.00,M,FEW,FEW,OVC,M,2200.00,2700.00,4100.00,M,M,M,M,M,M,M,M,26.60,K05U 260835Z AUTO 00000KT 10SM FEW022 FEW027 OVC041 M03/M04 A2985 RMK A01,M
BAM,2021-03-26 08:35,-116.8743,40.5990,1382.36,35.60,30.20,80.51,320.00,6.00,0.00,29.91,M,10.00,M,OVC,M,M,M,3600.00,M,M,M,M,M,M,M,M,M,M,29.87,KBAM 260835Z AUTO 32006KT 10SM OVC036 02/M01 A2991 RMK AO1,M
MEV,2021-03-26 08:35,-119.7500,38.9963,1441.42,32.00,19.40,59.27,20.00,7.00,0.00,29.93,M,10.00,M,SCT,SCT,BKN,M,4800.00,5500.00,6500.00,M,M,M,M,M,M,M,M,24.78,KMEV 260835Z AUTO 02007KT 10SM SCT048 SCT055 BKN065 00/M07 A2993 RMK AO2,M
LSV,2021-03-26 08:52,-115.0343,36.2362,570.00,53.60,37.40,54.07,290.00,12.00,0.00,29.73,1005.80,10.00,20.00,FEW,SCT,BKN,M,2600.00,3200.00,5500.00,M,-RA,M,M,M,M,M,M,53.60,KLSV 260852Z AUTO 29012G20KT 10SM -RA FEW026 SCT032 BKN055 12/03 A2973 RMK AO2 RAB52 SLP058 $,M
VGT,2021-03-26 08:53,-115.1933,36.2111,667.00,53.00,34.00,48.13,320.00,13.00,T,29.69,1006.30,10.00,M,OVC,M,M,M,7500.00,M,M,M,M,M,M,M,27.00,320.00,2021-03-26 08:09,53.10,KVGT 260853Z AUTO 32013KT 10SM OVC075 12/01 A2969 RMK AO2 PK WND 32027/0809 RAE0757 SLP063 P0000 60000 T01170011 53023,M
P68,2021-03-26 08:53,-116.0056,39.6014,1993.00,26.10,23.00,87.87,330.00,4.00,0.00,29.83,1010.40,M,M,M,M,M,M,M,M,M,M,M,M,M,M,M,M,M,20.53,KP68 260853Z AUTO 33004KT M03/M05 A2983 RMK AO1 SLP104 60001 T10331050 53016,M
ELY,2021-03-26 08:53,-114.8453,39.2950,1909.00,28.00,25.00,88.33,M,M,T,29.78,1008.10,9.00,M,BKN,OVC,M,M,2800.00,3700.00,M,M,-SN,M,M,M,M,M,M,M,KELY 260853Z AUTO 9SM -SN BKN028 OVC037 M02/M04 A2978 RMK AO2 SNB20 SLP081 P0000 60000 T10221039 51017,M
DRA,2021-03-26 08:53,-116.0278,36.6206,1009.00,44.00,32.00,62.21,120.00,7.00,0.00,29.75,1005.30,10.00,M,OVC,M,M,M,10000.00,M,M,M,M,M,M,M,M,M,M,39.53,KDRA 260853Z AUTO 12007KT 10SM OVC100 07/00 A2975 RMK AO2 SLP053 60000 T00670000 51011,M
LOL,2021-03-26 08:53,-118.5701,40.0684,1192.43,30.90,23.00,72.18,M,4.00,0.00,29.94,1014.70,10.00,M,CLR,M,M,M,M,M,M,M,M,M,M,M,M,M,M,26.14,KLOL 260853Z AUTO VRB04KT 10SM CLR M01/M05 A2994 RMK AO2 SLP147 T10061050 51023,M
INS,2021-03-26 08:54,-115.6733,36.5872,955.00,46.40,32.00,57.00,230.00,11.00,0.00,29.73,1004.50,10.00,M,BKN,M,M,M,9500.00,M,M,M,M,M,M,M,M,M,M,40.66,KINS 260854Z AUTO 23011KT 10SM BKN095 08/00 A2973 RMK AO2 RAE13 SLP045 $,M
MEV,2021-03-26 08:55,-119.7500,38.9963,1441.42,33.80,21.20,59.53,360.00,10.00,0.00,29.93,M,10.00,M,CLR,M,M,M,M,M,M,M,M,M,M,M,M,M,M,25.23,KMEV 260855Z AUTO 36010KT 10SM CLR 01/M06 A2993 RMK AO2,M
RTS,2021-03-26 08:55,-119.8764,39.6682,1539.00,28.40,19.40,68.61,0.00,0.00,0.00,29.96,M,10.00,M,BKN,M,M,M,4500.00,M,M,M,M,M,M,M,M,M,M,28.40,KRTS 260855Z AUTO 00000KT 10SM BKN045 M02/M07 A2996 RMK AO2,M
RNO,2021-03-26 08:55,-119.7711,39.4839,1341.00,36.00,19.90,51.61,40.00,5.00,0.00,29.96,1013.50,10.00,M,SCT,M,M,M,5000.00,M,M,M,M,M,M,M,M,M,M,31.15,KRNO 260855Z 04005KT 10SM SCT050 02/M07 A2996 RMK AO2 SLP135 T00221067 51025,M
CXP,2021-03-26 08:55,-119.7326,39.1923,1431.00,35.60,19.40,51.33,360.00,10.00,0.00,29.95,M,10.00,M,FEW,OVC,M,M,4400.00,5000.00,M,M,M,M,M,M,M,M,M,27.48,KCXP 260855Z AUTO 36010KT 10SM FEW044 OVC050 02/M07 A2995 RMK AO2,M
TMT,2021-03-26 08:55,-117.1971,39.4643,1749.34,29.80,26.20,86.26,0.00,0.00,0.00,29.90,M,10.00,M,M,M,M,M,M,M,M,M,M,M,M,M,M,M,M,29.80,KTMT 260855Z AUTO 00000KT 10SM M01/M03 A2990 RMK AO2 T10121032,M
05U,2021-03-26 08:55,-116.0051,39.6042,1811.23,26.60,24.80,92.80,0.00,0.00,0.00,29.86,M,10.00,M,FEW,FEW,OVC,M,2500.00,3300.00,4200.00,M,M,M,M,M,M,M,M,26.60,K05U 260855Z AUTO 00000KT 10SM FEW025 FEW033 OVC042 M03/M04 A2986 RMK A01,M
BVU,2021-03-26 08:55,-114.8611,35.9475,671.00,53.60,33.80,46.88,330.00,9.00,0.00,29.73,M,10.00,15.00,SCT,BKN,OVC,M,5500.00,6500.00,8000.00,M,M,M,M,M,M,M,M,53.60,KBVU 260855Z AUTO 33009G15KT 10SM SCT055 BKN065 OVC080 12/01 A2973 RMK AO2,M
HTH,2021-03-26 08:55,-118.6315,38.5448,1282.89,37.40,23.00,55.68,320.00,10.00,0.00,29.95,M,10.00,16.00,SCT,OVC,M,M,5500.00,7000.00,M,M,M,M,M,M,M,M,M,29.74,KHTH 260855Z AUTO 32010G16KT 10SM SCT055 OVC070 03/M05 A2995 RMK A01,M
BAM,2021-03-26 08:55,-116.8743,40.5990,1382.36,33.80,32.00,93.03,10.00,4.00,0.00,29.92,M,10.00,M,OVC,M,M,M,3400.00,M,M,M,M,M,M,M,M,M,M,29.52,KBAM 260855Z AUTO 01004KT 10SM OVC034 01/00 A2992 RMK AO1,M
NFL,2021-03-26 08:56,-118.7010,39.4166,1199.00,32.00,23.00,69.04,330.00,7.00,0.00,29.94,1011.20,10.00,M,CLR,M,M,M,M,M,M,M,M,M,M,M,M,M,M,24.78,KNFL 260856Z AUTO 33007KT 10SM CLR 00/M05 A2994 RMK AO2 SLP112 T00001050 51026,M
TPH,2021-03-26 08:56,-117.0904,38.0505,1654.00,30.00,19.00,63.18,350.00,11.00,0.00,29.84,1010.10,10.00,M,CLR,M,M,M,M,M,M,M,M,M,M,M,M,M,M,19.94,KTPH 260856Z AUTO 35011KT 10SM CLR M01/M07 A2984 RMK AO2 SLP101 T10111072 51020,M
HND,2021-03-26 08:56,-115.1344,35.9729,742.79,51.00,33.00,49.98,340.00,17.00,T,29.75,1008.10,10.00,21.00,FEW,OVC,M,M,4900.00,6000.00,M,M,-RA,M,M,M,M,M,M,51.10,KHND 260856Z AUTO 34017G21KT 10SM -RA FEW049 OVC060 11/01 A2975 RMK AO2 RAB41 SLP081 P0000 60000 T01060006 53019,M
LAS,2021-03-26 08:56,-115.1634,36.0719,663.00,52.00,33.00,48.34,350.00,13.00,T,29.74,1006.20,10.00,19.00,FEW,BKN,OVC,M,4800.00,6000.00,8000.00,M,M,M,M,M,31.00,350.00,2021-03-26 08:05,52.00,KLAS 260856Z 35013G19KT 10SM FEW048 BKN060 OVC080 11/01 A2974 RMK AO2 PK WND 35031/0805 RAB11E39 SLP062 VCSH CIG LWR W-N TOPS OF MTNS OBSCURED DSNT W-N P0000 60000 T01110006 51026 $,M
EKO,2021-03-26 08:56,-115.7860,40.8242,1367.00,33.00,23.00,66.06,0.00,0.00,0.00,29.85,1010.90,10.00,M,SCT,OVC,M,M,3500.00,6000.00,M,M,M,M,M,M,M,M,M,33.10,KEKO 260856Z AUTO 00000KT 10SM SCT035 OVC060 01/M05 A2985 RMK AO2 SLP109 60000 T00061050 53020,M
WMC,2021-03-26 08:56,-117.8072,40.9019,1315.00,32.00,27.00,81.55,360.00,7.00,0.00,29.92,1013.70,10.00,M,CLR,M,M,M,M,M,M,M,M,M,M,M,M,M,M,24.78,KWMC 260856Z AUTO 36007KT 10SM CLR 00/M03 A2992 RMK AO2 SLP137 60000 T00001028 51020,M
INS,2021-03-26 08:58,-115.6733,36.5872,955.00,46.00,32.70,59.75,230.00,10.00,T,29.74,1004.90,10.00,M,BKN,M,M,M,9500.00,M,M,M,M,M,M,M,M,M,M,40.40,KINS 260858Z AUTO 23010KT 10SM BKN095 08/00 A2974 RMK AO2 RAE13 SLP049 P0000 60000 T00770004 50006 $,M
LSV,2021-03-26 08:58,-115.0343,36.2362,570.00,53.20,38.00,55.96,350.00,5.00,T,29.74,1006.20,10.00,19.00,FEW,SCT,BKN,BKN,2600.00,3200.00,4600.00,5500.00,-RA,M,M,M,M,M,M,53.20,KLSV 260858Z AUTO 35005G19KT 10SM -RA FEW026 SCT032 BKN046 BKN055 12/03 A2974 RMK AO2 RAB52E53DZB53E54RAB54 SLP062 P0000 60000 T01180033 52023 $,M
ELY,2021-03-26 09:10,-114.8453,39.2950,1909.00,28.00,25.00,88.33,M,M,T,29.79,M,9.00,M,SCT,OVC,M,M,2700.00,4200.00,M,M,M,M,M,M,M,M,M,M,KELY 260910Z AUTO 9SM SCT027 OVC042 M02/M04 A2979 RMK AO2 SNE08 P0000 T10221039,M
INS,2021-03-26 09:13,-115.6733,36.5872,955.00,44.60,32.00,61.03,210.00,13.00,0.00,29.73,1004.50,10.00,M,BKN,M,M,M,10000.00,M,M,M,M,M,M,M,M,M,M,37.71,KINS 260913Z AUTO 21013KT 10SM BKN100 07/00 A2973 RMK AO2 SLP045 $,M
TMT,2021-03-26 09:15,-117.1971,39.4643,1749.34,30.00,25.30,82.42,0.00,0.00,0.00,29.91,M,4.00,M,M,M,M,M,M,M,M,M,-SN,M,M,M,M,M,M,30.00,KTMT 260915Z AUTO 00000KT 4SM -SN M01/M04 A2991 RMK AO2 T10111037,M
CXP,2021-03-26 09:15,-119.7326,39.1923,1431.00,33.80,19.40,55.14,360.00,7.00,0.00,29.96,M,10.00,M,SCT,BKN,M,M,4200.00,5000.00,M,M,M,M,M,M,M,M,M,26.97,KCXP 260915Z AUTO 36007KT 10SM SCT042 BKN050 01/M07 A2996 RMK AO2,M
BVU,2021-03-26 09:15,-114.8611,35.9475,671.00,53.60,32.00,43.61,340.00,13.00,0.00,29.74,M,10.00,19.00,OVC,M,M,M,5000.00,M,M,M,M,M,M,M,M,M,M,53.60,KBVU 260915Z AUTO 34013G19KT 10SM OVC050 12/00 A2974 RMK AO2,M
HTH,2021-03-26 09:15,-118.6315,38.5448,1282.89,37.40,24.80,60.04,320.00,9.00,0.00,29.95,M,10.00,M,BKN,OVC,M,M,7000.00,8500.00,M,M,M,M,M,M,M,M,M,30.23,KHTH 260915Z AUTO 32009KT 10SM BKN070 OVC085 03/M04 A2995 RMK A01,M
BAM,2021-03-26 09:15,-116.8743,40.5990,1382.36,33.80,32.00,93.03,360.00,6.00,0.00,29.92,M,10.00,M,BKN,BKN,OVC,M,3200.00,4000.00,4900.00,M,M,M,M,M,M,M,M,27.70,KBAM 260915Z AUTO 36006KT 10SM BKN032 BKN040 OVC049 01/00 A2992 RMK AO1,M
MEV,2021-03-26 09:15,-119.7500,38.9963,1441.42,28.40,19.40,68.61,M,6.00,0.00,29.95,M,10.00,M,CLR,M,M,M,M,M,M,M,M,M,M,M,M,M,M,21.19,KMEV 260915Z AUTO VRB06KT 10SM CLR M02/M07 A2995 RMK AO2,M
RTS,2021-03-26 09:15,-119.8764,39.6682,1539.00,26.60,17.60,68.40,290.00,5.00,0.00,29.96,M,10.00,M,SCT,M,M,M,4600.00,M,M,M,M,M,M,M,M,M,M,19.98,KRTS 260915Z AUTO 29005KT 10SM SCT046 M03/M08 A2996 RMK AO2,M
05U,2021-03-26 09:15,-116.0051,39.6042,1811.23,26.60,24.80,92.80,0.00,0.00,0.00,29.87,M,10.00,M,BKN,OVC,M,M,4100.00,4700.00,M,M,M,M,M,M,M,M,M,26.60,K05U 260915Z AUTO 00000KT 10SM BKN041 OVC047 M03/M04 A2987 RMK A01,M
BAM,2021-03-26 09:35,-116.8743,40.5990,1382.36,33.80,32.00,93.03,360.00,3.00,0.00,29.93,M,10.00,M,SCT,BKN,OVC,M,3400.00,4600.00,5500.00,M,M,M,M,M,M,M,M,30.75,KBAM 260935Z AUTO 36003KT 10SM SCT034 BKN046 OVC055 01/00 A2993 RMK AO1,M
HTH,2021-03-26 09:35,-118.6315,38.5448,1282.89,35.60,23.00,59.79,330.00,8.00,0.00,29.95,M,10.00,M,SCT,BKN,M,M,7000.00,8500.00,M,M,M,M,M,M,M,M,M,28.55,KHTH 260935Z AUTO 33008KT 10SM SCT070 BKN085 02/M05 A2995 RMK A01,M
TMT,2021-03-26 09:35,-117.1971,39.4643,1749.34,29.70,24.80,81.72,270.00,4.00,0.00,29.92,M,10.00,M,M,M,M,M,M,M,M,M,M,M,M,M,M,M,M,24.73,KTMT 260935Z AUTO 27004KT 10SM M01/M04 A2992 RMK AO2 T10131040,M
MEV,2021-03-26 09:35,-119.7500,38.9963,1441.42,30.20,19.40,63.75,20.00,6.00,0.00,29.95,M,10.00,M,CLR,M,M,M,M,M,M,M,M,M,M,M,M,M,M,23.36,KMEV 260935Z AUTO 02006KT 10SM CLR M01/M07 A2995 RMK AO2,M
RTS,2021-03-26 09:35,-119.8764,39.6682,1539.00,28.40,17.60,63.51,M,3.00,0.00,29.97,M,10.00,M,FEW,M,M,M,4600.00,M,M,M,M,M,M,M,M,M,M,24.57,KRTS 260935Z AUTO VRB03KT 10SM FEW046 M02/M08 A2997 RMK AO2,M
CXP,2021-03-26 09:35,-119.7326,39.1923,1431.00,33.80,19.40,55.14,350.00,5.00,0.00,29.96,M,10.00,M,FEW,BKN,OVC,M,4200.00,4900.00,6000.00,M,M,M,M,M,M,M,M,28.53,KCXP 260935Z AUTO 35005KT 10SM FEW042 BKN049 OVC060 01/M07 A2996 RMK AO2,M
05U,2021-03-26 09:35,-116.0051,39.6042,1811.23,26.60,24.80,92.80,0.00,0.00,0.00,29.87,M,10.00,M,BKN,OVC,M,M,3700.00,4800.00,M,M,M,M,M,M,M,M,M,26.60,K05U 260935Z AUTO 00000KT 10SM BKN037 OVC048 M03/M04 A2987 RMK A01,M
BVU,2021-03-26 09:35,-114.8611,35.9475,671.00,51.80,33.80,50.08,330.00,15.00,0.00,29.75,M,10.00,M,BKN,OVC,M,M,4600.00,5500.00,M,M,M,M,M,M,M,M,M,51.80,KBVU 260935Z AUTO 33015KT 10SM BKN046 OVC055 11/01 A2975 RMK AO2,M
LSV,2021-03-26 09:46,-115.0343,36.2362,570.00,50.00,39.20,66.27,190.00,5.00,0.00,29.75,1006.50,8.00,M,SCT,SCT,M,M,2300.00,4000.00,M,M,-RA,M,M,M,M,M,M,50.00,KLSV 260946Z AUTO 19005KT 8SM -RA SCT023 SCT040 10/04 A2975 RMK AO2 SLP065 $,M
ELY,2021-03-26 09:47,-114.8453,39.2950,1909.00,26.60,24.80,92.80,M,M,0.01,29.79,M,2.00,M,FEW,BKN,OVC,M,2400.00,2900.00,5000.00,M,-SN BR,M,M,M,M,M,M,M,KELY 260947Z AUTO 2SM -SN BR FEW024 BKN029 OVC050 M03/M04 A2979 RMK AO2 SNE08B28 P0001,M
LSV,2021-03-26 09:52,-115.0343,36.2362,570.00,50.00,41.00,71.07,180.00,7.00,0.00,29.75,1006.50,10.00,M,FEW,FEW,M,M,2400.00,3900.00,M,M,M,M,M,M,M,M,M,50.00,KLSV 260952Z AUTO 18007KT 10SM FEW024 FEW039 10/05 A2975 RMK AO2 RAE52 SLP065 $,M
P68,2021-03-26 09:53,-116.0056,39.6014,1993.00,27.00,23.00,84.66,340.00,5.00,0.00,29.86,1011.30,M,M,M,M,M,M,M,M,M,M,M,M,M,M,M,M,M,20.46,KP68 260953Z AUTO 34005KT M03/M05 A2986 RMK AO1 SLP113 T10281050,M
VGT,2021-03-26 09:53,-115.1933,36.2111,667.00,54.00,30.00,39.63,40.00,7.00,0.00,29.71,1006.60,10.00,M,SCT,BKN,OVC,M,5500.00,7000.00,9000.00,M,M,M,M,M,M,M,M,54.00,KVGT 260953Z AUTO 04007KT 10SM SCT055 BKN070 OVC090 12/M01 A2971 RMK AO2 SLP066 T01221011,M
ELY,2021-03-26 09:53,-114.8453,39.2950,1909.00,27.00,25.00,92.05,M,M,0.01,29.80,1009.30,2.00,M,FEW,BKN,OVC,M,2600.00,3200.00,4900.00,M,-SN BR,M,M,M,M,M,M,M,KELY 260953Z AUTO 2SM -SN BR FEW026 BKN032 OVC049 M03/M04 A2980 RMK AO2 SNE08B28 SLP093 P0001 T10281039,M
LOL,2021-03-26 09:53,-118.5701,40.0684,1192.43,28.00,21.00,74.67,350.00,3.00,0.00,29.95,1015.30,10.00,M,CLR,M,M,M,M,M,M,M,M,M,M,M,M,M,M,24.12,KLOL 260953Z AUTO 35003KT 10SM CLR M02/M06 A2995 RMK AO2 SLP153 T10221061,M
DRA,2021-03-26 09:53,-116.0278,36.6206,1009.00,45.00,30.00,55.43,340.00,4.00,0.00,29.77,1005.90,10.00,M,OVC,M,M,M,11000.00,M,M,M,M,M,M,M,M,M,M,42.60,KDRA 260953Z AUTO 34004KT 10SM OVC110 07/M01 A2977 RMK AO2 SLP059 T00721011,M
LAS,2021-03-26 09:54,-115.1634,36.0719,663.00,50.00,35.60,57.52,30.00,10.00,T,29.75,M,10.00,18.00,BKN,BKN,OVC,M,3400.00,4500.00,5500.00,M,-RA,M,M,M,27.00,340.00,2021-03-26 09:38,50.00,KLAS 260954Z 03010G18KT 10SM -RA BKN034 BKN045 OVC055 10/02 A2975 RMK AO2 PK WND 34027/0938 WSHFT 0934 RAB20 TOPS OF MTNS OBSCURED DSNT W-N P0000 $,M
RNO,2021-03-26 09:55,-119.7711,39.4839,1341.00,32.00,19.90,60.55,350.00,7.00,0.00,29.96,1014.30,10.00,M,FEW,M,M,M,5000.00,M,M,M,M,M,M,M,M,M,M,24.78,KRNO 260955Z 35007KT 10SM FEW050 00/M07 A2996 RMK AO2 SLP143 T00001067,M
TMT,2021-03-26 09:55,-117.1971,39.4643,1749.34,29.80,24.80,81.39,0.00,0.00,0.00,29.91,M,10.00,M,M,M,M,M,M,M,M,M,M,M,M,M,M,M,M,29.80,KTMT 260955Z AUTO 00000KT 10SM M01/M04 A2991 RMK AO2 T10121040,M
HTH,2021-03-26 09:55,-118.6315,38.5448,1282.89,33.80,23.00,64.23,340.00,8.00,0.00,29.95,M,10.00,M,FEW,BKN,BKN,M,6000.00,7000.00,8000.00,M,M,M,M,M,M,M,M,26.33,KHTH 260955Z AUTO 34008KT 10SM FEW060 BKN070 BKN080 01/M05 A2995 RMK A01,M
BAM,2021-03-26 09:55,-116.8743,40.5990,1382.36,33.80,32.00,93.03,350.00,4.00,0.00,29.93,M,10.00,M,BKN,OVC,M,M,3600.00,4400.00,M,M,M,M,M,M,M,M,M,29.52,KBAM 260955Z AUTO 35004KT 10SM BKN036 OVC044 01/00 A2993 RMK AO1,M
MEV,2021-03-26 09:55,-119.7500,38.9963,1441.42,26.60,17.60,68.40,30.00,6.00,0.00,29.95,M,10.00,M,FEW,M,M,M,4300.00,M,M,M,M,M,M,M,M,M,M,19.03,KMEV 260955Z AUTO 03006KT 10SM FEW043 M03/M08 A2995 RMK AO2,M
BVU,2021-03-26 09:55,-114.8611,35.9475,671.00,51.80,33.80,50.08,340.00,8.00,0.00,29.76,M,10.00,15.00,OVC,M,M,M,4300.00,M,M,M,M,M,M,M,M,M,M,51.80,KBVU 260955Z AUTO 34008G15KT 10SM OVC043 11/01 A2976 RMK AO2,M
CXP,2021-03-26 09:55,-119.7326,39.1923,1431.00,33.80,19.40,55.14,0.00,0.00,0.00,29.97,M,10.00,M,FEW,OVC,M,M,4900.00,6500.00,M,M,M,M,M,M,M,M,M,33.80,KCXP 260955Z AUTO 00000KT 10SM FEW049 OVC065 01/M07 A2997 RMK AO2,M
RTS,2021-03-26 09:55,-119.8764,39.6682,1539.00,26.60,17.60,68.40,0.00,0.00,0.00,29.97,M,10.00,M,FEW,M,M,M,4400.00,M,M,M,M,M,M,M,M,M,M,26.60,KRTS 260955Z AUTO 00000KT 10SM FEW044 M03/M08 A2997 RMK AO2,M
05U,2021-03-26 09:55,-116.0051,39.6042,1811.23,26.60,24.80,92.80,0.00,0.00,0.00,29.88,M,10.00,M,OVC,M,M,M,3500.00,M,M,M,M,M,M,M,M,M,M,26.60,K05U 260955Z AUTO 00000KT 10SM OVC035 M03/M04 A2988 RMK A01,M
EKO,2021-03-26 09:56,-115.7860,40.8242,1367.00,32.00,23.00,69.04,230.00,4.00,0.00,29.86,1011.60,10.00,M,OVC,M,M,M,5500.00,M,M,M,M,M,M,M,M,M,M,27.42,KEKO 260956Z AUTO 23004KT 10SM OVC055 00/M05 A2986 RMK AO2 SLP116 T00001050,M
HND,2021-03-26 09:56,-115.1344,35.9729,742.79,48.00,35.00,60.76,350.00,14.00,T,29.78,1009.20,10.00,M,SCT,OVC,M,M,3400.00,4800.00,M,M,-RA,M,M,M,26.00,310.00,2021-03-26 09:25,41.79,KHND 260956Z AUTO 35014KT 10SM -RA SCT034 OVC048 09/02 A2978 RMK AO2 PK WND 31026/0925 SLP092 P0000 T00890017,M
TPH,2021-03-26 09:56,-117.0904,38.0505,1654.00,32.00,17.10,53.70,350.00,16.00,0.00,29.85,1009.70,10.00,M,CLR,M,M,M,M,M,M,M,M,M,M,M,M,M,M,20.42,KTPH 260956Z AUTO 35016KT 10SM CLR 00/M08 A2985 RMK AO2 SLP097 T00001083,M
NFL,2021-03-26 09:56,-118.7010,39.4166,1199.00,28.00,21.90,77.57,120.00,4.00,0.00,29.95,1011.50,10.00,M,CLR,M,M,M,M,M,M,M,M,M,M,M,M,M,M,22.75,KNFL 260956Z AUTO 12004KT 10SM CLR M02/M06 A2995 RMK AO2 SLP115 T10221056,M
LAS,2021-03-26 09:56,-115.1634,36.0719,663.00,51.00,35.00,54.13,30.00,14.00,T,29.75,1006.50,10.00,M,BKN,BKN,OVC,M,3400.00,4500.00,5500.00,M,M,M,M,M,27.00,340.00,2021-03-26 09:38,51.10,KLAS 260956Z 03014KT 10SM BKN034 BKN045 OVC055 11/02 A2975 RMK AO2 PK WND 34027/0938 WSHFT 0934 RAB20E56 SLP065 TOPS OF MTNS OBSCURED DSNT W-N P0000 T01060017 $,M
WMC,2021-03-26 09:56,-117.8072,40.9019,1315.00,28.90,25.00,85.14,220.00,6.00,0.00,29.95,1014.90,10.00,M,CLR,M,M,M,M,M,M,M,M,M,M,M,M,M,M,21.80,KWMC 260956Z AUTO 22006KT 10SM CLR M02/M04 A2995 RMK AO2 SLP149 T10171039,M
INS,2021-03-26 09:58,-115.6733,36.5872,955.00,45.70,32.50,59.72,280.00,12.00,0.00,29.74,1004.90,10.00,M,SCT,M,M,M,10000.00,M,M,M,M,M,M,M,M,M,M,39.44,KINS 260958Z AUTO 28012KT 10SM SCT100 08/00 A2974 RMK AO2 SLP049 T00760003 $,M
LSV,2021-03-26 09:58,-115.0343,36.2362,570.00,49.50,40.00,69.92,170.00,8.00,0.02,29.74,1006.20,10.00,M,FEW,FEW,M,M,2400.00,3900.00,M,M,M,M,M,M,M,M,M,45.67,KLSV 260958Z AUTO 17008KT 10SM FEW024 FEW039 10/05 A2974 RMK AO2 RAE52 SLP062 P0002 T00970045 $,M
ELY,2021-03-26 10:01,-114.8453,39.2950,1909.00,27.00,24.10,88.65,M,M,T,29.80,M,9.00,M,FEW,BKN,OVC,M,2900.00,3500.00,6000.00,M,M,M,M,M,M,M,M,M,KELY 261001Z AUTO 9SM FEW029 BKN035 OVC060 M03/M04 A2980 RMK AO2 SNE01 P0000 T10281044,M
HND,2021-03-26 10:12,-115.1344,35.9729,742.79,48.20,33.80,57.26,30.00,13.00,T,29.77,M,10.00,20.00,BKN,BKN,OVC,M,3400.00,4100.00,5000.00,M,-RA,M,M,M,M,M,M,42.32,KHND 261012Z AUTO 03013G20KT 10SM -RA BKN034 BKN041 OVC050 09/01 A2977 RMK AO2 WSHFT 0952 P0000,M
CXP,2021-03-26 10:15,-119.7326,39.1923,1431.00,33.80,19.40,55.14,0.00,0.00,0.00,29.97,M,10.00,M,FEW,SCT,BKN,M,3800.00,4300.00,5000.00,M,M,M,M,M,M,M,M,33.80,KCXP 261015Z AUTO 00000KT 10SM FEW038 SCT043 BKN050 01/M07 A2997 RMK AO2,M
BVU,2021-03-26 10:15,-114.8611,35.9475,671.00,50.00,37.40,61.76,330.00,14.00,0.00,29.76,M,10.00,M,OVC,M,M,M,4000.00,M,M,M,M,M,M,M,M,M,M,50.00,KBVU 261015Z AUTO 33014KT 10SM OVC040 10/03 A2976 RMK AO2,M
05U,2021-03-26 10:15,-116.0051,39.6042,1811.23,26.60,24.80,92.80,0.00,0.00,0.00,29.88,M,10.00,M,OVC,M,M,M,3500.00,M,M,M,M,M,M,M,M,M,M,26.60,K05U 261015Z AUTO 00000KT 10SM OVC035 M03/M04 A2988 RMK A01,M
MEV,2021-03-26 10:15,-119.7500,38.9963,1441.42,24.80,17.60,73.70,0.00,0.00,0.00,29.95,M,10.00,M,FEW,M,M,M,4200.00,M,M,M,M,M,M,M,M,M,M,24.80,KMEV 261015Z AUTO 00000KT 10SM FEW042 M04/M08 A2995 RMK AO2,M
RTS,2021-03-26 10:15,-119.8764,39.6682,1539.00,26.60,17.60,68.40,240.00,4.00,0.00,29.97,M,10.00,M,CLR,M,M,M,M,M,M,M,M,M,M,M,M,M,M,21.11,KRTS 261015Z AUTO 24004KT 10SM CLR M03/M08 A2997 RMK AO2,M
BAM,2021-03-26 10:15,-116.8743,40.5990,1382.36,33.80,30.20,86.49,350.00,6.00,0.00,29.93,M,10.00,M,BKN,OVC,M,M,3500.00,4400.00,M,M,M,M,M,M,M,M,M,27.70,KBAM 261015Z AUTO 35006KT 10SM BKN035 OVC044 01/M01 A2993 RMK AO1,M
HTH,2021-03-26 10:15,-118.6315,38.5448,1282.89,33.80,21.20,59.53,340.00,9.00,0.00,29.96,M,10.00,M,FEW,OVC,M,M,6000.00,7000.00,M,M,M,M,M,M,M,M,M,25.75,KHTH 261015Z AUTO 34009KT 10SM FEW060 OVC070 01/M06 A2996 RMK A01,M
TMT,2021-03-26 10:15,-117.1971,39.4643,1749.34,29.30,25.90,86.95,190.00,3.00,0.00,29.91,M,10.00,M,M,M,M,M,M,M,M,M,M,M,M,M,M,M,M,25.60,KTMT 261015Z AUTO 19003KT 10SM M01/M03 A2991 RMK AO2 T10151034,M
TMT,2021-03-26 10:35,-117.1971,39.4643,1749.34,29.30,24.60,82.37,0.00,0.00,0.00,29.91,M,10.00,M,M,M,M,M,M,M,M,M,M,M,M,M,M,M,M,29.30,KTMT 261035Z AUTO 00000KT 10SM M01/M04 A2991 RMK AO2 T10151041,M
BVU,2021-03-26 10:35,-114.8611,35.9475,671.00,50.00,37.40,61.76,320.00,12.00,0.00,29.77,M,10.00,17.00,SCT,BKN,OVC,M,3900.00,4600.00,7000.00,M,M,M,M,M,M,M,M,50.00,KBVU 261035Z AUTO 32012G17KT 10SM SCT039 BKN046 OVC070 10/03 A2977 RMK AO2,M
RTS,2021-03-26 10:35,-119.8764,39.6682,1539.00,24.80,15.80,68.18,0.00,0.00,0.00,29.98,M,10.00,M,FEW,M,M,M,4000.00,M,M,M,M,M,M,M,M,M,M,24.80,KRTS 261035Z AUTO 00000KT 10SM FEW040 M04/M09 A2998 RMK AO2,M
HTH,2021-03-26 10:35,-118.6315,38.5448,1282.89,33.80,21.20,59.53,340.00,10.00,0.00,29.95,M,10.00,M,FEW,SCT,BKN,M,4400.00,6000.00,7000.00,M,M,M,M,M,M,M,M,25.23,KHTH 261035Z AUTO 34010KT 10SM FEW044 SCT060 BKN070 01/M06 A2995 RMK A01,M
BAM,2021-03-26 10:35,-116.8743,40.5990,1382.36,33.80,30.20,86.49,320.00,9.00,0.00,29.93,M,10.00,M,SCT,OVC,M,M,3500.00,4400.00,M,M,M,M,M,M,M,M,M,25.75,KBAM 261035Z AUTO 32009KT 10SM SCT035 OVC044 01/M01 A2993 RMK AO1,M
MEV,2021-03-26 10:35,-119.7500,38.9963,1441.42,23.00,17.60,79.47,210.00,4.00,0.00,29.95,M,10.00,M,CLR,M,M,M,M,M,M,M,M,M,M,M,M,M,M,16.91,KMEV 261035Z AUTO 21004KT 10SM CLR M05/M08 A2995 RMK AO2,M
05U,2021-03-26 10:35,-116.0051,39.6042,1811.23,26.60,24.80,92.80,0.00,0.00,0.00,29.88,M,9.00,M,BKN,OVC,M,M,3400.00,4000.00,M,M,M,M,M,M,M,M,M,26.60,K05U 261035Z AUTO 00000KT 9SM BKN034 OVC040 M03/M04 A2988 RMK A01,M
CXP,2021-03-26 10:35,-119.7326,39.1923,1431.00,32.00,19.40,59.27,0.00,0.00,0.00,29.97,M,10.00,M,FEW,SCT,BKN,M,3800.00,4600.00,5500.00,M,M,M,M,M,M,M,M,32.00,KCXP 261035Z AUTO 00000KT 10SM FEW038 SCT046 BKN055 M00/M07 A2997 RMK AO2,M
DRA,2021-03-26 10:53,-116.0278,36.6206,1009.00,45.00,26.10,47.23,40.00,9.00,0.00,29.77,1005.90,10.00,M,BKN,M,M,M,11000.00,M,M,M,M,M,M,M,M,M,M,39.68,KDRA 261053Z AUTO 04009KT 10SM BKN110 07/M03 A2977 RMK AO2 SLP059 T00721033,M
LOL,2021-03-26 10:53,-118.5701,40.0684,1192.43,24.10,18.00,77.21,350.00,4.00,0.00,29.97,1016.20,10.00,M,CLR,M,M,M,M,M,M,M,M,M,M,M,M,M,M,18.19,KLOL 261053Z AUTO 35004KT 10SM CLR M04/M08 A2997 RMK AO2 SLP162 T10441078,M
P68,2021-03-26 10:53,-116.0056,39.6014,1993.00,27.00,23.00,84.66,350.00,4.00,0.00,29.85,1010.90,M,M,M,M,M,M,M,M,M,M,M,M,M,M,M,M,M,21.58,KP68 261053Z AUTO 35004KT M03/M05 A2985 RMK AO1 SLP109 T10281050,M
ELY,2021-03-26 10:53,-114.8453,39.2950,1909.00,27.00,24.10,88.65,M,M,T,29.81,1009.40,10.00,M,OVC,M,M,M,4500.00,M,M,M,M,M,M,M,M,M,M,M,KELY 261053Z AUTO 10SM OVC045 M03/M04 A2981 RMK AO2 SNE01 SLP094 P0000 T10281044,M
VGT,2021-03-26 10:53,-115.1933,36.2111,667.00,51.00,35.00,54.13,150.00,4.00,0.00,29.71,1006.80,10.00,M,BKN,BKN,OVC,M,7000.00,8000.00,9500.00,M,M,M,M,M,M,M,M,51.10,KVGT 261053Z AUTO 15004KT 10SM BKN070 BKN080 OVC095 11/02 A2971 RMK AO2 SLP068 T01060017,M
TMT,2021-03-26 10:55,-117.1971,39.4643,1749.34,29.80,24.60,80.71,330.00,4.00,0.00,29.92,M,10.00,M,M,M,M,M,M,M,M,M,M,M,M,M,M,M,M,24.85,KTMT 261055Z AUTO 33004KT 10SM M01/M04 A2992 RMK AO2 T10121041,M
MEV,2021-03-26 10:55,-119.7500,38.9963,1441.42,23.00,15.80,73.51,0.00,0.00,0.00,29.96,M,10.00,M,CLR,M,M,M,M,M,M,M,M,M,M,M,M,M,M,23.00,KMEV 261055Z AUTO 00000KT 10SM CLR M05/M09 A2996 RMK AO2,M
05U,2021-03-26 10:55,-116.0051,39.6042,1811.23,26.60,23.00,86.07,0.00,0.00,0.00,29.88,M,9.00,M,BKN,BKN,OVC,M,3400.00,3900.00,4400.00,M,M,M,M,M,M,M,M,26.60,K05U 261055Z AUTO 00000KT 9SM BKN034 BKN039 OVC044 M03/M05 A2988 RMK A01,M
CXP,2021-03-26 10:55,-119.7326,39.1923,1431.00,30.20,17.60,59.01,0.00,0.00,0.00,29.98,M,10.00,M,SCT,SCT,BKN,M,4000.00,4900.00,5500.00,M,M,M,M,M,M,M,M,30.20,KCXP 261055Z AUTO 00000KT 10SM SCT040 SCT049 BKN055 M01/M08 A2998 RMK AO2,M
RNO,2021-03-26 10:55,-119.7711,39.4839,1341.00,32.00,19.90,60.55,0.00,0.00,0.00,29.97,1014.50,10.00,M,FEW,M,M,M,5000.00,M,M,M,M,M,M,M,M,M,M,32.00,KRNO 261055Z 00000KT 10SM FEW050 00/M07 A2997 RMK AO2 SLP145 T00001067,M
BAM,2021-03-26 10:55,-116.8743,40.5990,1382.36,33.80,30.20,86.49,330.00,11.00,0.00,29.93,M,10.00,M,BKN,OVC,M,M,3200.00,4000.00,M,M,M,M,M,M,M,M,M,24.74,KBAM 261055Z AUTO 33011KT 10SM BKN032 OVC040 01/M01 A2993 RMK AO1,M
HTH,2021-03-26 10:55,-118.6315,38.5448,1282.89,33.80,21.20,59.53,310.00,7.00,0.00,29.96,M,10.00,M,SCT,M,M,M,6500.00,M,M,M,M,M,M,M,M,M,M,26.97,KHTH 261055Z AUTO 31007KT 10SM SCT065 01/M06 A2996 RMK A01,M
BVU,2021-03-26 10:55,-114.8611,35.9475,671.00,46.40,39.20,75.84,330.00,16.00,0.00,29.78,M,6.00,22.00,FEW,SCT,BKN,M,600.00,3400.00,4500.00,M,-RA,M,M,M,M,M,M,39.19,KBVU 261055Z AUTO 33016G22KT 6SM -RA FEW006 SCT034 BKN045 08/04 A2978 RMK AO2,M
RTS,2021-03-26 10:55,-119.8764,39.6682,1539.00,21.20,14.00,73.32,350.00,5.00,0.00,29.97,M,10.00,M,FEW,M,M,M,4000.00,M,M,M,M,M,M,M,M,M,M,13.57,KRTS 261055Z AUTO 35005KT 10SM FEW040 M06/M10 A2997 RMK AO2,M
HND,2021-03-26 10:56,-115.1344,35.9729,742.79,48.00,37.00,65.51,50.00,4.00,T,29.78,1009.40,10.00,M,SCT,SCT,OVC,M,4800.00,5500.00,8500.00,M,M,M,M,M,M,M,M,46.10,KHND 261056Z AUTO 05004KT 10SM SCT048 SCT055 OVC085 09/03 A2978 RMK AO2 WSHFT 0952 RAE52 SLP094 P0000 T00890028,M
WMC,2021-03-26 10:56,-117.8072,40.9019,1315.00,30.90,25.00,78.48,330.00,6.00,0.00,29.95,1014.80,10.00,M,CLR,M,M,M,M,M,M,M,M,M,M,M,M,M,M,24.21,KWMC 261056Z AUTO 33006KT 10SM CLR M01/M04 A2995 RMK AO2 SLP148 T10061039,M
LAS,2021-03-26 10:56,-115.1634,36.0719,663.00,50.00,36.00,58.44,70.00,4.00,0.00,29.77,1007.00,10.00,M,FEW,SCT,OVC,M,4000.00,7500.00,9500.00,M,M,M,M,M,M,M,M,50.00,KLAS 261056Z 07004KT 10SM FEW040 SCT075 OVC095 10/02 A2977 RMK AO2 SLP070 VCSH CIG LWR SW-NW TOPS OF MTNS OBSCURED DSNT SW-NW T01000022 $,M
EKO,2021-03-26 10:56,-115.7860,40.8242,1367.00,33.00,23.00,66.06,230.00,6.00,0.00,29.87,1011.70,10.00,M,OVC,M,M,M,5500.00,M,M,M,M,M,M,M,M,M,M,26.86,KEKO 261056Z AUTO 23006KT 10SM OVC055 01/M05 A2987 RMK AO2 SLP117 T00061050,M
TPH,2021-03-26 10:56,-117.0904,38.0505,1654.00,30.00,17.10,58.23,360.00,16.00,0.00,29.85,1010.20,10.00,M,CLR,M,M,M,M,M,M,M,M,M,M,M,M,M,M,17.81,KTPH 261056Z AUTO 36016KT 10SM CLR M01/M08 A2985 RMK AO2 SLP102 T10111083,M
NFL,2021-03-26 10:56,-118.7010,39.4166,1199.00,28.90,21.90,74.76,260.00,3.00,0.00,29.96,1011.80,10.00,M,CLR,M,M,M,M,M,M,M,M,M,M,M,M,M,M,25.14,KNFL 261056Z AUTO 26003KT 10SM CLR M02/M06 A2996 RMK AO2 SLP118 T10171056,M
LSV,2021-03-26 10:58,-115.0343,36.2362,570.00,50.70,42.00,72.25,160.00,4.00,0.00,29.74,1006.20,10.00,M,CLR,M,M,M,M,M,M,M,M,M,M,M,M,M,M,50.70,KLSV 261058Z AUTO 16004KT 10SM CLR 10/06 A2974 RMK AO2 SLP062 T01040056 $,M
INS,2021-03-26 10:58,-115.6733,36.5872,955.00,46.40,28.20,48.84,340.00,5.00,0.00,29.75,1005.20,10.00,M,CLR,M,M,M,M,M,M,M,M,M,M,M,M,M,M,43.50,KINS 261058Z AUTO 34005KT 10SM CLR 08/M02 A2975 RMK AO2 SLP052 T00801021 $,M
BAM,2021-03-26 11:15,-116.8743,40.5990,1382.36,33.80,30.20,86.49,350.00,7.00,0.00,29.95,M,10.00,M,BKN,OVC,M,M,3200.00,3800.00,M,M,M,M,M,M,M,M,M,26.97,KBAM 261115Z AUTO 35007KT 10SM BKN032 OVC038 01/M01 A2995 RMK AO1,M
HTH,2021-03-26 11:15,-118.6315,38.5448,1282.89,33.80,23.00,64.23,330.00,9.00,0.00,29.96,M,10.00,M,FEW,M,M,M,6500.00,M,M,M,M,M,M,M,M,M,M,25.75,KHTH 261115Z AUTO 33009KT 10SM FEW065 01/M05 A2996 RMK A01,M
MEV,2021-03-26 11:15,-119.7500,38.9963,1441.42,24.80,17.60,73.70,10.00,6.00,0.00,29.96,M,10.00,M,CLR,M,M,M,M,M,M,M,M,M,M,M,M,M,M,16.86,KMEV 261115Z AUTO 01006KT 10SM CLR M04/M08 A2996 RMK AO2,M
05U,2021-03-26 11:15,-116.0051,39.6042,1811.23,26.60,24.80,92.80,0.00,0.00,0.00,29.89,M,1.50,M,BKN,BKN,OVC,M,200.00,2300.00,3600.00,M,BR,M,M,M,M,M,M,26.60,K05U 261115Z AUTO 00000KT 1 1/2SM BR BKN002 BKN023 OVC036 M03/M04 A2989 RMK A01,M
CXP,2021-03-26 11:15,-119.7326,39.1923,1431.00,30.20,17.60,59.01,0.00,0.00,0.00,29.98,M,10.00,M,FEW,SCT,M,M,4000.00,5000.00,M,M,M,M,M,M,M,M,M,30.20,KCXP 261115Z AUTO 00000KT 10SM FEW040 SCT050 M01/M08 A2998 RMK AO2,M
BVU,2021-03-26 11:15,-114.8611,35.9475,671.00,46.40,39.20,75.84,350.00,10.00,0.00,29.79,M,4.00,17.00,FEW,BKN,OVC,M,1700.00,2900.00,3600.00,M,-RA,M,M,M,M,M,M,41.03,KBVU 261115Z AUTO 35010G17KT 4SM -RA FEW017 BKN029 OVC036 08/04 A2979 RMK AO2,M
TMT,2021-03-26 11:15,-117.1971,39.4643,1749.34,29.30,24.80,83.06,320.00,4.00,0.00,29.92,M,10.00,M,M,M,M,M,M,M,M,M,M,M,M,M,M,M,M,24.27,KTMT 261115Z AUTO 32004KT 10SM M01/M04 A2992 RMK AO2 T10151040,M
RTS,2021-03-26 11:15,-119.8764,39.6682,1539.00,21.20,14.00,73.32,M,4.00,0.00,29.98,M,10.00,M,CLR,M,M,M,M,M,M,M,M,M,M,M,M,M,M,14.81,KRTS 261115Z AUTO VRB04KT 10SM CLR M06/M10 A2998 RMK AO2,M
RTS,2021-03-26 11:30,-119.8764,39.6682,1539.00,21.20,14.00,73.32,310.00,4.00,0.00,29.98,M,10.00,M,CLR,M,M,M,M,M,M,M,M,M,M,M,M,M,M,14.81,KRTS 261130Z AUTO 31004KT 10SM CLR M06/M10 A2998 RMK AO2,M
CXP,2021-03-26 11:30,-119.7326,39.1923,1431.00,30.20,17.60,59.01,0.00,0.00,0.00,29.98,M,10.00,M,FEW,M,M,M,4100.00,M,M,M,M,M,M,M,M,M,M,30.20,KCXP 261130Z AUTO 00000KT 10SM FEW041 M01/M08 A2998 RMK AO2,M
05U,2021-03-26 11:35,-116.0051,39.6042,1811.23,26.60,24.80,92.80,0.00,0.00,0.00,29.89,M,1.50,M,OVC,M,M,M,200.00,M,M,M,BR,M,M,M,M,M,M,26.60,K05U 261135Z AUTO 00000KT 1 1/2SM BR OVC002 M03/M04 A2989 RMK A01,M
MEV,2021-03-26 11:35,-119.7500,38.9963,1441.42,24.80,17.60,73.70,0.00,0.00,0.00,29.97,M,10.00,M,CLR,M,M,M,M,M,M,M,M,M,M,M,M,M,M,24.80,KMEV 261135Z AUTO 00000KT 10SM CLR M04/M08 A2997 RMK AO2,M
BAM,2021-03-26 11:35,-116.8743,40.5990,1382.36,33.80,30.20,86.49,360.00,6.00,0.00,29.96,M,10.00,M,OVC,M,M,M,3000.00,M,M,M,M,M,M,M,M,M,M,27.70,KBAM 261135Z AUTO 36006KT 10SM OVC030 01/M01 A2996 RMK AO1,M
HTH,2021-03-26 11:35,-118.6315,38.5448,1282.89,33.80,21.20,59.53,330.00,8.00,0.00,29.97,M,10.00,M,CLR,M,M,M,M,M,M,M,M,M,M,M,M,M,M,26.33,KHTH 261135Z AUTO 33008KT 10SM CLR 01/M06 A2997 RMK A01,M
TMT,2021-03-26 11:35,-117.1971,39.4643,1749.34,28.90,25.30,86.21,300.00,4.00,0.00,29.93,M,10.00,M,M,M,M,M,M,M,M,M,M,M,M,M,M,M,M,23.80,KTMT 261135Z AUTO 30004KT 10SM M02/M04 A2993 RMK AO2 T10171037,M
BVU,2021-03-26 11:35,-114.8611,35.9475,671.00,48.20,37.40,66.05,40.00,10.00,0.00,29.77,M,10.00,M,FEW,SCT,BKN,M,1700.00,2800.00,3500.00,M,M,M,M,M,M,M,M,43.28,KBVU 261135Z AUTO 04010KT 10SM FEW017 SCT028 BKN035 09/03 A2977 RMK AO2,M
VGT,2021-03-26 11:53,-115.1933,36.2111,667.00,53.00,30.00,40.96,330.00,3.00,0.00,29.72,1007.20,10.00,M,OVC,M,M,M,11000.00,M,M,M,M,M,M,M,M,M,M,53.10,KVGT 261153Z AUTO 33003KT 10SM OVC110 12/M01 A2972 RMK AO2 SLP072 60000 T01171011 10139 20106 53009,M
ELY,2021-03-26 11:53,-114.8453,39.2950,1909.00,26.10,23.00,87.87,M,M,0.00,29.82,1009.90,10.00,M,OVC,M,M,M,4600.00,M,M,M,M,M,M,M,M,M,M,M,KELY 261153Z AUTO 10SM OVC046 M03/M05 A2982 RMK AO2 SLP099 60001 70007 T10331050 11017 21033 52012,M
DRA,2021-03-26 11:53,-116.0278,36.6206,1009.00,44.00,24.10,44.98,30.00,14.00,0.00,29.80,1007.00,10.00,19.00,CLR,M,M,M,M,M,M,M,M,M,M,M,M,M,M,36.76,KDRA 261153Z AUTO 03014G19KT 10SM CLR 07/M04 A2980 RMK AO2 SLP070 60000 T00671044 10100 20061 53015,M
LOL,2021-03-26 11:53,-118.5701,40.0684,1192.43,23.00,19.00,84.39,210.00,3.00,0.00,29.99,1017.10,10.00,M,CLR,M,M,M,M,M,M,M,M,M,M,M,M,M,M,18.40,KLOL 261153Z AUTO 21003KT 10SM CLR M05/M07 A2999 RMK AO2 SLP171 T10501072 10022 21078 53014,M
P68,2021-03-26 11:53,-116.0056,39.6014,1993.00,27.00,25.00,92.05,10.00,3.00,0.01,29.88,1012.20,M,M,M,M,M,M,M,M,M,M,M,M,M,M,M,M,M,22.97,KP68 261153Z AUTO 01003KT M03/M04 A2988 RMK AO1 SLP122 P0001 60002 70036 T10281039 11022 21044 51012,M
TMT,2021-03-26 11:55,-117.1971,39.4643,1749.34,29.30,25.90,86.95,360.00,6.00,0.00,29.93,M,10.00,M,M,M,M,M,M,M,M,M,M,M,M,M,M,M,M,22.28,KTMT 261155Z AUTO 36006KT 10SM M01/M03 A2993 RMK AO2 70001 T10151034 11010 21017,M
CXP,2021-03-26 11:55,-119.7326,39.1923,1431.00,26.60,17.60,68.40,0.00,0.00,0.00,29.99,M,10.00,M,CLR,M,M,M,M,M,M,M,M,M,M,M,M,M,M,26.60,KCXP 261155Z AUTO 00000KT 10SM CLR M03/M08 A2999 RMK AO2,M
RTS,2021-03-26 11:55,-119.8764,39.6682,1539.00,23.00,15.80,73.51,0.00,0.00,0.00,29.99,M,10.00,M,CLR,M,M,M,M,M,M,M,M,M,M,M,M,M,M,23.00,KRTS 261155Z AUTO 00000KT 10SM CLR M05/M09 A2999 RMK AO2,M
05U,2021-03-26 11:55,-116.0051,39.6042,1811.23,26.60,26.60,100.00,0.00,0.00,0.00,29.90,M,2.00,M,BKN,OVC,M,M,300.00,1700.00,M,M,BR,M,M,M,M,M,M,26.60,K05U 261155Z AUTO 00000KT 2SM BR BKN003 OVC017 M03/M03 A2990 RMK A01,M
MEV,2021-03-26 11:55,-119.7500,38.9963,1441.42,23.00,15.80,73.51,0.00,0.00,0.00,29.98,M,10.00,M,CLR,M,M,M,M,M,M,M,M,M,M,M,M,M,M,23.00,KMEV 261155Z AUTO 00000KT 10SM CLR M05/M09 A2998 RMK AO2,M
BVU,2021-03-26 11:55,-114.8611,35.9475,671.00,48.20,35.60,61.52,60.00,6.00,0.00,29.78,M,10.00,12.00,FEW,BKN,OVC,M,3800.00,4500.00,6000.00,M,M,M,M,M,M,M,M,45.04,KBVU 261155Z AUTO 06006G12KT 10SM FEW038 BKN045 OVC060 09/02 A2978 RMK AO2,M
BAM,2021-03-26 11:55,-116.8743,40.5990,1382.36,33.80,30.20,86.49,20.00,4.00,0.00,29.96,M,10.00,M,BKN,OVC,M,M,3000.00,3500.00,M,M,M,M,M,M,M,M,M,29.52,KBAM 261155Z AUTO 02004KT 10SM BKN030 OVC035 01/M01 A2996 RMK AO1,M
HTH,2021-03-26 11:55,-118.6315,38.5448,1282.89,33.80,23.00,64.23,330.00,7.00,0.00,29.98,M,10.00,M,CLR,M,M,M,M,M,M,M,M,M,M,M,M,M,M,26.97,KHTH 261155Z AUTO 33007KT 10SM CLR 01/M05 A2998 RMK A01,M
RNO,2021-03-26 11:55,-119.7711,39.4839,1341.00,30.90,19.90,63.31,360.00,3.00,0.00,29.99,1015.30,10.00,M,FEW,M,M,M,5000.00,M,M,M,M,M,M,M,M,M,M,27.43,KRNO 261155Z 36003KT 10SM FEW050 M01/M07 A2999 RMK AO2 SLP153 T10061067 10033 21011 53009,M
WMC,2021-03-26 11:56,-117.8072,40.9019,1315.00,28.90,24.10,82.00,M,M,0.00,29.98,1015.80,10.00,M,CLR,M,M,M,M,M,M,M,M,M,M,M,M,M,M,M,KWMC 261156Z AUTO 10SM CLR M02/M04 A2998 RMK AO2 SLP158 60000 70006 T10171044 10017 21017 53016,M
TPH,2021-03-26 11:56,-117.0904,38.0505,1654.00,30.00,17.10,58.23,350.00,10.00,0.00,29.87,1010.90,10.00,M,CLR,M,M,M,M,M,M,M,M,M,M,M,M,M,M,20.46,KTPH 261156Z AUTO 35010KT 10SM CLR M01/M08 A2987 RMK AO2 SLP109 T10111083 10006 21017 53008,M
EKO,2021-03-26 11:56,-115.7860,40.8242,1367.00,33.00,21.90,63.06,0.00,0.00,0.00,29.89,1012.90,10.00,M,FEW,SCT,OVC,M,3700.00,5000.00,6000.00,M,M,M,M,M,M,M,M,33.10,KEKO 261156Z AUTO 00000KT 10SM FEW037 SCT050 OVC060 01/M06 A2989 RMK AO2 SLP129 60000 70012 T00061056 10017 20000 53014,M
HND,2021-03-26 11:56,-115.1344,35.9729,742.79,47.00,36.00,65.63,150.00,5.00,0.00,29.78,1009.50,10.00,M,OVC,M,M,M,9000.00,M,M,M,M,M,M,M,M,M,M,44.09,KHND 261156Z AUTO 15005KT 10SM OVC090 08/02 A2978 RMK AO2 SLP095 60000 T00830022 10122 20083 51011,M
LAS,2021-03-26 11:56,-115.1634,36.0719,663.00,50.00,37.00,60.79,M,3.00,0.00,29.77,1007.10,10.00,M,FEW,OVC,M,M,6000.00,10000.00,M,M,M,M,M,M,M,M,M,50.00,KLAS 261156Z VRB03KT 10SM FEW060 OVC100 10/03 A2977 RMK AO2 SLP071 VCSH TOPS OF MTNS OBSCURED DSNT SW-W 60000 T01000028 10139 20094 53005 $,M
NFL,2021-03-26 11:56,-118.7010,39.4166,1199.00,26.10,21.00,80.75,100.00,3.00,0.00,29.98,1012.30,10.00,M,CLR,M,M,M,M,M,M,M,M,M,M,M,M,M,M,21.94,KNFL 261156Z AUTO 10003KT 10SM CLR M03/M06 A2998 RMK AO2 SLP123 T10331061 10033 21039 53011,M
INS,2021-03-26 11:58,-115.6733,36.5872,955.00,43.70,27.10,51.73,0.00,0.00,0.00,29.78,1006.30,10.00,M,CLR,M,M,M,M,M,M,M,M,M,M,M,M,M,M,43.70,KINS 261158Z AUTO 00000KT 10SM CLR 07/M03 A2978 RMK AO2 SLP063 60000 T00651027 10088 20065 52014 $,M
LSV,2021-03-26 11:58,-115.0343,36.2362,570.00,51.00,40.60,67.68,0.00,0.00,0.00,29.77,1007.10,10.00,M,FEW,M,M,M,10000.00,M,M,M,M,M,M,M,M,M,M,50.90,KLSV 261158Z AUTO 00000KT 10SM FEW100 11/05 A2977 RMK AO2 SLP071 60002 70002 T01050048 10144 20096 53009 $,M
CXP,2021-03-26 12:10,-119.7326,39.1923,1431.00,26.60,15.80,63.27,0.00,0.00,0.00,29.99,M,10.00,M,CLR,M,M,M,M,M,M,M,M,M,M,M,M,M,M,26.60,KCXP 261210Z AUTO 00000KT 10SM CLR M03/M09 A2999 RMK AO2,M
RTS,2021-03-26 12:15,-119.8764,39.6682,1539.00,19.40,14.00,79.16,300.00,6.00,0.00,30.00,M,10.00,M,CLR,M,M,M,M,M,M,M,M,M,M,M,M,M,M,10.36,KRTS 261215Z AUTO 30006KT 10SM CLR M07/M10 A3000 RMK AO2,M
MEV,2021-03-26 12:15,-119.7500,38.9963,1441.42,17.60,14.00,85.51,120.00,4.00,0.00,29.98,M,10.00,M,CLR,M,M,M,M,M,M,M,M,M,M,M,M,M,M,10.60,KMEV 261215Z AUTO 12004KT 10SM CLR M08/M10 A2998 RMK AO2,M
BAM,2021-03-26 12:15,-116.8743,40.5990,1382.36,33.80,30.20,86.49,20.00,4.00,0.00,29.97,M,10.00,M,OVC,M,M,M,3300.00,M,M,M,M,M,M,M,M,M,M,29.52,KBAM 261215Z AUTO 02004KT 10SM OVC033 01/M01 A2997 RMK AO1,M
BVU,2021-03-26 12:15,-114.8611,35.9475,671.00,48.20,35.60,61.52,260.00,6.00,0.00,29.78,M,10.00,M,FEW,SCT,OVC,M,4500.00,6000.00,7000.00,M,M,M,M,M,M,M,M,45.04,KBVU 261215Z AUTO 26006KT 10SM FEW045 SCT060 OVC070 09/02 A2978 RMK AO2,M
HTH,2021-03-26 12:15,-118.6315,38.5448,1282.89,32.00,21.20,63.99,340.00,7.00,0.00,29.98,M,10.00,M,CLR,M,M,M,M,M,M,M,M,M,M,M,M,M,M,24.78,KHTH 261215Z AUTO 34007KT 10SM CLR M00/M06 A2998 RMK A01,M
05U,2021-03-26 12:15,-116.0051,39.6042,1811.23,24.80,24.80,100.00,0.00,0.00,0.00,29.91,M,10.00,M,FEW,BKN,OVC,M,300.00,1800.00,2500.00,M,M,M,M,M,M,M,M,24.80,K05U 261215Z AUTO 00000KT 10SM FEW003 BKN018 OVC025 M04/M04 A2991 RMK A01,M
TMT,2021-03-26 12:15,-117.1971,39.4643,1749.34,29.70,25.50,84.13,360.00,6.00,0.00,29.95,M,10.00,M,M,M,M,M,M,M,M,M,M,M,M,M,M,M,M,22.76,KTMT 261215Z AUTO 36006KT 10SM M01/M04 A2995 RMK AO2 T10131036,M
MEV,2021-03-26 12:35,-119.7500,38.9963,1441.42,17.60,14.00,85.51,0.00,0.00,0.00,29.99,M,10.00,M,CLR,M,M,M,M,M,M,M,M,M,M,M,M,M,M,17.60,KMEV 261235Z AUTO 00000KT 10SM CLR M08/M10 A2999 RMK AO2,M
RTS,2021-03-26 12:35,-119.8764,39.6682,1539.00,21.20,15.80,79.31,320.00,5.00,0.00,30.01,M,10.00,M,CLR,M,M,M,M,M,M,M,M,M,M,M,M,M,M,13.57,KRTS 261235Z AUTO 32005KT 10SM CLR M06/M09 A3001 RMK AO2,M
CXP,2021-03-26 12:35,-119.7326,39.1923,1431.00,28.40,17.60,63.51,0.00,0.00,0.00,30.00,M,10.00,M,CLR,M,M,M,M,M,M,M,M,M,M,M,M,M,M,28.40,KCXP 261235Z AUTO 00000KT 10SM CLR M02/M08 A3000 RMK AO2,M
BVU,2021-03-26 12:35,-114.8611,35.9475,671.00,46.40,39.20,75.84,250.00,8.00,0.00,29.79,M,10.00,M,FEW,FEW,OVC,M,5000.00,6000.00,7500.00,M,M,M,M,M,M,M,M,41.85,KBVU 261235Z AUTO 25008KT 10SM FEW050 FEW060 OVC075 08/04 A2979 RMK AO2,M
HTH,2021-03-26 12:35,-118.6315,38.5448,1282.89,30.20,21.20,68.83,310.00,5.00,0.00,29.99,M,10.00,M,CLR,M,M,M,M,M,M,M,M,M,M,M,M,M,M,24.26,KHTH 261235Z AUTO 31005KT 10SM CLR M01/M06 A2999 RMK A01,M
TMT,2021-03-26 12:35,-117.1971,39.4643,1749.34,29.50,25.00,83.08,20.00,3.00,0.00,29.95,M,10.00,M,M,M,M,M,M,M,M,M,M,M,M,M,M,M,M,25.83,KTMT 261235Z AUTO 02003KT 10SM M01/M04 A2995 RMK AO2 T10141039,M
05U,2021-03-26 12:35,-116.0051,39.6042,1811.23,24.80,24.80,100.00,0.00,0.00,0.00,29.92,M,10.00,M,FEW,BKN,OVC,M,400.00,1600.00,2000.00,M,M,M,M,M,M,M,M,24.80,K05U 261235Z AUTO 00000KT 10SM FEW004 BKN016 OVC020 M04/M04 A2992 RMK A01,M
BAM,2021-03-26 12:35,-116.8743,40.5990,1382.36,32.00,30.20,92.97,0.00,0.00,0.00,29.97,M,10.00,M,BKN,M,M,M,3300.00,M,M,M,M,M,M,M,M,M,M,32.00,KBAM 261235Z AUTO 00000KT 10SM BKN033 00/M01 A2997 RMK AO1,M
P68,2021-03-26 12:53,-116.0056,39.6014,1993.00,26.10,24.10,92.01,0.00,0.00,0.00,29.90,1013.00,M,M,M,M,M,M,M,M,M,M,M,M,M,M,M,M,M,26.10,KP68 261253Z AUTO 00000KT M03/M04 A2990 RMK AO1 SLP130 T10331044,M
VGT,2021-03-26 12:53,-115.1933,36.2111,667.00,53.00,26.10,34.90,320.00,13.00,0.00,29.75,1008.30,10.00,M,OVC,M,M,M,11000.00,M,M,M,M,M,M,M,M,M,M,53.10,KVGT 261253Z 32013KT 10SM OVC110 12/M03 A2975 RMK AO2 SLP083 T01171033,M
ELY,2021-03-26 12:53,-114.8453,39.2950,1909.00,26.10,21.90,83.89,M,M,0.00,29.85,1010.90,10.00,M,OVC,M,M,M,4600.00,M,M,M,M,M,M,M,M,M,M,M,KELY 261253Z AUTO 10SM OVC046 M03/M06 A2985 RMK AO2 SLP109 T10331056,M
LOL,2021-03-26 12:53,-118.5701,40.0684,1192.43,19.90,15.10,81.30,0.00,0.00,0.00,30.02,1018.10,10.00,M,CLR,M,M,M,M,M,M,M,M,M,M,M,M,M,M,19.90,KLOL 261253Z AUTO 00000KT 10SM CLR M07/M09 A3002 RMK AO2 SLP181 T10671094,M
DRA,2021-03-26 12:53,-116.0278,36.6206,1009.00,42.00,23.00,46.37,30.00,14.00,0.00,29.83,1008.00,10.00,M,CLR,M,M,M,M,M,M,M,M,M,M,M,M,M,M,34.18,KDRA 261253Z AUTO 03014KT 10SM CLR 06/M05 A2983 RMK AO2 SLP080 T00561050,M
RNO,2021-03-26 12:55,-119.7711,39.4839,1341.00,28.00,19.00,68.57,160.00,3.00,0.00,30.02,1016.60,10.00,M,FEW,M,M,M,5000.00,M,M,M,M,M,M,M,M,M,M,24.12,KRNO 261255Z 16003KT 10SM FEW050 M02/M07 A3002 RMK AO2 SLP166 T10221072,M
TMT,2021-03-26 12:55,-117.1971,39.4643,1749.34,29.30,24.80,83.06,10.00,3.00,0.00,29.96,M,10.00,M,M,M,M,M,M,M,M,M,M,M,M,M,M,M,M,25.60,KTMT 261255Z AUTO 01003KT 10SM M01/M04 A2996 RMK AO2 T10151040,M
BAM,2021-03-26 12:55,-116.8743,40.5990,1382.36,32.00,30.20,92.97,0.00,0.00,0.00,29.99,M,10.00,M,BKN,M,M,M,3900.00,M,M,M,M,M,M,M,M,M,M,32.00,KBAM 261255Z AUTO 00000KT 10SM BKN039 00/M01 A2999 RMK AO1,M
MEV,2021-03-26 12:55,-119.7500,38.9963,1441.42,15.80,14.00,92.44,0.00,0.00,0.00,30.00,M,10.00,M,CLR,M,M,M,M,M,M,M,M,M,M,M,M,M,M,15.80,KMEV 261255Z AUTO 00000KT 10SM CLR M09/M10 A3000 RMK AO2,M
05U,2021-03-26 12:55,-116.0051,39.6042,1811.23,24.80,24.80,100.00,0.00,0.00,0.00,29.93,M,10.00,M,BKN,BKN,OVC,M,700.00,1000.00,1500.00,M,M,M,M,M,M,M,M,24.80,K05U 261255Z AUTO 00000KT 10SM BKN007 BKN010 OVC015 M04/M04 A2993 RMK A01,M
HTH,2021-03-26 12:55,-118.6315,38.5448,1282.89,32.00,23.00,69.04,220.00,4.00,0.00,30.01,M,10.00,M,CLR,M,M,M,M,M,M,M,M,M,M,M,M,M,M,27.42,KHTH 261255Z AUTO 22004KT 10SM CLR 00/M05 A3001 RMK A01,M
RTS,2021-03-26 12:55,-119.8764,39.6682,1539.00,19.40,14.00,79.16,0.00,0.00,0.00,30.02,M,10.00,M,CLR,M,M,M,M,M,M,M,M,M,M,M,M,M,M,19.40,KRTS 261255Z AUTO 00000KT 10SM CLR M07/M10 A3002 RMK AO2,M
CXP,2021-03-26 12:55,-119.7326,39.1923,1431.00,28.40,17.60,63.51,0.00,0.00,0.00,30.01,M,10.00,M,CLR,M,M,M,M,M,M,M,M,M,M,M,M,M,M,28.40,KCXP 261255Z AUTO 00000KT 10SM CLR M02/M08 A3001 RMK AO2,M
BVU,2021-03-26 12:55,-114.8611,35.9475,671.00,46.40,39.20,75.84,260.00,4.00,0.00,29.81,M,10.00,M,FEW,OVC,M,M,5000.00,6500.00,M,M,M,M,M,M,M,M,M,44.24,KBVU 261255Z AUTO 26004KT 10SM FEW050 OVC065 08/04 A2981 RMK AO2,M
EKO,2021-03-26 12:56,-115.7860,40.8242,1367.00,33.00,21.90,63.06,350.00,7.00,0.00,29.92,1014.00,10.00,M,OVC,M,M,M,3600.00,M,M,M,M,M,M,M,M,M,M,26.12,KEKO 261256Z AUTO 35007KT 10SM OVC036 01/M06 A2992 RMK AO2 SLP140 T00061056,M
LAS,2021-03-26 12:56,-115.1634,36.0719,663.00,50.00,35.00,56.39,170.00,5.00,0.00,29.81,1008.50,10.00,M,BKN,OVC,M,M,7000.00,11000.00,M,M,M,M,M,M,M,M,M,50.00,KLAS 261256Z 17005KT 10SM BKN070 OVC110 10/02 A2981 RMK AO2 SLP085 T01000017 $,M
NFL,2021-03-26 12:56,-118.7010,39.4166,1199.00,26.10,21.00,80.75,0.00,0.00,0.00,30.01,1013.10,10.00,M,CLR,M,M,M,M,M,M,M,M,M,M,M,M,M,M,26.10,KNFL 261256Z AUTO 00000KT 10SM CLR M03/M06 A3001 RMK AO2 SLP131 T10331061,M
TPH,2021-03-26 12:56,-117.0904,38.0505,1654.00,28.00,19.00,68.57,320.00,10.00,0.00,29.90,1012.70,10.00,M,CLR,M,M,M,M,M,M,M,M,M,M,M,M,M,M,17.95,KTPH 261256Z AUTO 32010KT 10SM CLR M02/M07 A2990 RMK AO2 SLP127 T10221072,M
HND,2021-03-26 12:56,-115.1344,35.9729,742.79,46.00,37.00,70.64,210.00,13.00,0.00,29.81,1010.60,10.00,M,BKN,OVC,M,M,7000.00,10000.00,M,M,M,M,M,M,M,M,M,39.50,KHND 261256Z 21013KT 10SM BKN070 OVC100 08/03 A2981 RMK AO2 SLP106 T00780028,M
WMC,2021-03-26 12:56,-117.8072,40.9019,1315.00,26.10,21.00,80.75,310.00,4.00,0.00,30.01,1017.40,10.00,M,CLR,M,M,M,M,M,M,M,M,M,M,M,M,M,M,20.53,KWMC 261256Z AUTO 31004KT 10SM CLR M03/M06 A3001 RMK AO2 SLP174 T10331061,M
LSV,2021-03-26 12:58,-115.0343,36.2362,570.00,50.00,42.80,76.18,200.00,3.00,0.00,29.82,M,10.00,M,BKN,BKN,M,M,7500.00,11000.00,M,M,M,M,M,M,M,M,M,50.00,KLSV 261258Z 20003KT 10SM BKN075 BKN110 10/06 A2982 RMK AO2A SLPNO WND DATA ESTMD ALSTG ESTMD $,M
INS,2021-03-26 12:58,-115.6733,36.5872,955.00,44.00,23.90,44.94,20.00,4.00,0.00,29.81,1007.30,10.00,M,CLR,M,M,M,M,M,M,M,M,M,M,M,M,M,M,41.32,KINS 261258Z AUTO 02004KT 10SM CLR 07/M04 A2981 RMK AO2 SLP073 T00661045 $,M
BVU,2021-03-26 13:15,-114.8611,35.9475,671.00,46.40,39.20,75.84,290.00,4.00,0.00,29.82,M,10.00,M,OVC,M,M,M,6500.00,M,M,M,M,M,M,M,M,M,M,44.24,KBVU 261315Z AUTO 29004KT 10SM OVC065 08/04 A2982 RMK AO2,M
BAM,2021-03-26 13:15,-116.8743,40.5990,1382.36,32.00,30.20,92.97,340.00,4.00,0.00,29.99,M,10.00,M,BKN,M,M,M,3900.00,M,M,M,M,M,M,M,M,M,M,27.42,KBAM 261315Z AUTO 34004KT 10SM BKN039 00/M01 A2999 RMK AO1,M
RTS,2021-03-26 13:15,-119.8764,39.6682,1539.00,19.40,14.00,79.16,330.00,5.00,0.00,30.03,M,10.00,M,CLR,M,M,M,M,M,M,M,M,M,M,M,M,M,M,11.43,KRTS 261315Z AUTO 33005KT 10SM CLR M07/M10 A3003 RMK AO2,M
CXP,2021-03-26 13:15,-119.7326,39.1923,1431.00,26.60,17.60,68.40,0.00,0.00,0.00,30.02,M,10.00,M,CLR,M,M,M,M,M,M,M,M,M,M,M,M,M,M,26.60,KCXP 261315Z AUTO 00000KT 10SM CLR M03/M08 A3002 RMK AO2,M
05U,2021-03-26 13:15,-116.0051,39.6042,1811.23,26.60,24.80,92.80,0.00,0.00,0.00,29.94,M,10.00,M,FEW,SCT,OVC,M,700.00,1000.00,1800.00,M,M,M,M,M,M,M,M,26.60,K05U 261315Z AUTO 00000KT 10SM FEW007 SCT010 OVC018 M03/M04 A2994 RMK A01,M
MEV,2021-03-26 13:15,-119.7500,38.9963,1441.42,17.60,14.00,85.51,0.00,0.00,0.00,30.01,M,10.00,M,CLR,M,M,M,M,M,M,M,M,M,M,M,M,M,M,17.60,KMEV 261315Z AUTO 00000KT 10SM CLR M08/M10 A3001 RMK AO2,M
HTH,2021-03-26 13:15,-118.6315,38.5448,1282.89,33.80,23.00,64.23,0.00,0.00,0.00,30.02,M,10.00,M,CLR,M,M,M,M,M,M,M,M,M,M,M,M,M,M,33.80,KHTH 261315Z AUTO 00000KT 10SM CLR 01/M05 A3002 RMK A01,M
TMT,2021-03-26 13:15,-117.1971,39.4643,1749.34,29.30,24.30,81.35,350.00,5.00,0.00,29.97,M,10.00,M,M,M,M,M,M,M,M,M,M,M,M,M,M,M,M,23.19,KTMT 261315Z AUTO 35005KT 10SM M01/M04 A2997 RMK AO2 T10151043,M
INS,2021-03-26 13:33,-115.6733,36.5872,955.00,42.80,23.00,45.14,20.00,7.00,0.00,29.83,1008.20,10.00,M,BKN,M,M,M,6000.00,M,M,M,M,M,M,M,M,M,M,37.94,KINS 261333Z AUTO 02007KT 10SM BKN060 06/M05 A2983 RMK AO2 SLP082 $,M
05U,2021-03-26 13:35,-116.0051,39.6042,1811.23,24.80,23.00,92.74,0.00,0.00,0.00,29.95,M,10.00,M,BKN,OVC,M,M,2000.00,2700.00,M,M,M,M,M,M,M,M,M,24.80,K05U 261335Z AUTO 00000KT 10SM BKN020 OVC027 M04/M05 A2995 RMK A01,M
MEV,2021-03-26 13:35,-119.7500,38.9963,1441.42,15.80,10.40,78.84,0.00,0.00,0.00,30.02,M,10.00,M,CLR,M,M,M,M,M,M,M,M,M,M,M,M,M,M,15.80,KMEV 261335Z AUTO 00000KT 10SM CLR M09/M12 A3002 RMK AO2,M
TMT,2021-03-26 13:35,-117.1971,39.4643,1749.34,28.90,24.30,82.69,360.00,3.00,0.00,29.99,M,10.00,M,M,M,M,M,M,M,M,M,M,M,M,M,M,M,M,25.14,KTMT 261335Z AUTO 36003KT 10SM M02/M04 A2999 RMK AO2 T10171043,M
HTH,2021-03-26 13:35,-118.6315,38.5448,1282.89,32.00,23.00,69.04,240.00,4.00,0.00,30.03,M,10.00,M,CLR,M,M,M,M,M,M,M,M,M,M,M,M,M,M,27.42,KHTH 261335Z AUTO 24004KT 10SM CLR 00/M05 A3003 RMK A01,M
BVU,2021-03-26 13:35,-114.8611,35.9475,671.00,46.40,39.20,75.84,0.00,0.00,0.00,29.83,M,10.00,M,BKN,OVC,M,M,5500.00,7000.00,M,M,M,M,M,M,M,M,M,46.40,KBVU 261335Z AUTO 00000KT 10SM BKN055 OVC070 08/04 A2983 RMK AO2,M
BAM,2021-03-26 13:35,-116.8743,40.5990,1382.36,32.00,28.40,86.39,330.00,5.00,0.00,30.01,M,10.00,M,SCT,M,M,M,4600.00,M,M,M,M,M,M,M,M,M,M,26.40,KBAM 261335Z AUTO 33005KT 10SM SCT046 00/M02 A3001 RMK AO1,M
CXP,2021-03-26 13:35,-119.7326,39.1923,1431.00,26.60,17.60,68.40,0.00,0.00,0.00,30.03,M,10.00,M,CLR,M,M,M,M,M,M,M,M,M,M,M,M,M,M,26.60,KCXP 261335Z AUTO 00000KT 10SM CLR M03/M08 A3003 RMK AO2,M
RTS,2021-03-26 13:35,-119.8764,39.6682,1539.00,21.20,14.00,73.32,0.00,0.00,0.00,30.03,M,10.00,M,CLR,M,M,M,M,M,M,M,M,M,M,M,M,M,M,21.20,KRTS 261335Z AUTO 00000KT 10SM CLR M06/M10 A3003 RMK AO2,M
VGT,2021-03-26 13:53,-115.1933,36.2111,667.00,53.00,25.00,33.34,320.00,13.00,0.00,29.78,1009.30,10.00,19.00,OVC,M,M,M,11000.00,M,M,M,M,M,M,M,M,M,M,53.10,KVGT 261353Z 32013G19KT 10SM OVC110 12/M04 A2978 RMK AO2 SLP093 T01171039,M
ELY,2021-03-26 13:53,-114.8453,39.2950,1909.00,24.10,19.90,83.75,M,M,0.00,29.88,1012.50,10.00,M,FEW,M,M,M,4500.00,M,M,M,M,M,M,M,M,M,M,M,KELY 261353Z AUTO 10SM FEW045 M04/M07 A2988 RMK AO2 SLP125 T10441067,M
DRA,2021-03-26 13:53,-116.0278,36.6206,1009.00,41.00,24.10,50.67,40.00,14.00,0.00,29.85,1009.00,10.00,M,CLR,M,M,M,M,M,M,M,M,M,M,M,M,M,M,32.76,KDRA 261353Z AUTO 04014KT 10SM CLR 05/M04 A2985 RMK AO2 SLP090 T00501044,M
P68,2021-03-26 13:53,-116.0056,39.6014,1993.00,24.10,21.00,87.76,360.00,4.00,0.00,29.93,1014.80,M,M,M,M,M,M,M,M,M,M,M,M,M,M,M,M,M,18.19,KP68 261353Z AUTO 36004KT M04/M06 A2993 RMK AO1 SLP148 T10441061,M
LOL,2021-03-26 13:53,-118.5701,40.0684,1192.43,19.00,15.10,84.49,100.00,6.00,0.00,30.05,1019.60,10.00,M,CLR,M,M,M,M,M,M,M,M,M,M,M,M,M,M,9.87,KLOL 261353Z AUTO 10006KT 10SM CLR M07/M09 A3005 RMK AO2 SLP196 T10721094,M
BAM,2021-03-26 13:55,-116.8743,40.5990,1382.36,32.00,28.40,86.39,340.00,5.00,0.00,30.02,M,10.00,M,SCT,BKN,M,M,3300.00,4400.00,M,M,M,M,M,M,M,M,M,26.40,KBAM 261355Z AUTO 34005KT 10SM SCT033 BKN044 00/M02 A3002 RMK AO1,M
RNO,2021-03-26 13:55,-119.7711,39.4839,1341.00,28.90,19.90,68.67,0.00,0.00,0.00,30.05,1018.10,10.00,M,FEW,M,M,M,5000.00,M,M,M,M,M,M,M,M,M,M,28.90,KRNO 261355Z 00000KT 10SM FEW050 M02/M07 A3005 RMK AO2 SLP181 T10171067,M
HTH,2021-03-26 13:55,-118.6315,38.5448,1282.89,33.80,24.80,69.25,300.00,7.00,0.00,30.04,M,10.00,M,CLR,M,M,M,M,M,M,M,M,M,M,M,M,M,M,26.97,KHTH 261355Z AUTO 30007KT 10SM CLR 01/M04 A3004 RMK A01,M
TMT,2021-03-26 13:55,-117.1971,39.4643,1749.34,28.80,24.60,84.07,320.00,3.00,0.00,30.00,M,10.00,M,M,M,M,M,M,M,M,M,M,M,M,M,M,M,M,25.03,KTMT 261355Z AUTO 32003KT 10SM M02/M04 A3000 RMK AO2 T10181041,M
MEV,2021-03-26 13:55,-119.7500,38.9963,1441.42,17.60,14.00,85.51,140.00,5.00,0.00,30.03,M,10.00,M,CLR,M,M,M,M,M,M,M,M,M,M,M,M,M,M,9.29,KMEV 261355Z AUTO 14005KT 10SM CLR M08/M10 A3003 RMK AO2,M
BVU,2021-03-26 13:55,-114.8611,35.9475,671.00,46.40,39.20,75.84,0.00,0.00,0.00,29.84,M,10.00,M,FEW,BKN,OVC,M,5500.00,7500.00,8500.00,M,M,M,M,M,M,M,M,46.40,KBVU 261355Z AUTO 00000KT 10SM FEW055 BKN075 OVC085 08/04 A2984 RMK AO2,M
CXP,2021-03-26 13:55,-119.7326,39.1923,1431.00,24.80,17.60,73.70,0.00,0.00,0.00,30.04,M,10.00,M,CLR,M,M,M,M,M,M,M,M,M,M,M,M,M,M,24.80,KCXP 261355Z AUTO 00000KT 10SM CLR M04/M08 A3004 RMK AO2,M
RTS,2021-03-26 13:55,-119.8764,39.6682,1539.00,19.40,14.00,79.16,0.00,0.00,0.00,30.05,M,10.00,M,CLR,M,M,M,M,M,M,M,M,M,M,M,M,M,M,19.40,KRTS 261355Z AUTO 00000KT 10SM CLR M07/M10 A3005 RMK AO2,M
05U,2021-03-26 13:55,-116.0051,39.6042,1811.23,23.00,21.20,92.69,0.00,0.00,0.00,29.96,M,10.00,M,BKN,BKN,OVC,M,2200.00,2700.00,4200.00,M,M,M,M,M,M,M,M,23.00,K05U 261355Z AUTO 00000KT 10SM BKN022 BKN027 OVC042 M05/M06 A2996 RMK A01,M
WMC,2021-03-26 13:56,-117.8072,40.9019,1315.00,26.10,21.00,80.75,0.00,0.00,0.00,30.04,1018.50,10.00,M,CLR,M,M,M,M,M,M,M,M,M,M,M,M,M,M,26.10,KWMC 261356Z AUTO 00000KT 10SM CLR M03/M06 A3004 RMK AO2 SLP185 T10331061,M
NFL,2021-03-26 13:56,-118.7010,39.4166,1199.00,23.00,19.90,87.70,0.00,0.00,0.00,30.05,1014.30,10.00,M,FEW,FEW,M,M,6000.00,10000.00,M,M,M,M,M,M,M,M,M,23.00,KNFL 261356Z 00000KT 10SM FEW060 FEW100 M05/M07 A3005 RMK AO2 SLP143 T10501067,M
HND,2021-03-26 13:56,-115.1344,35.9729,742.79,46.00,37.00,70.64,190.00,4.00,0.00,29.85,1012.00,10.00,M,FEW,BKN,M,M,6000.00,11000.00,M,M,M,M,M,M,M,M,M,43.77,KHND 261356Z 19004KT 10SM FEW060 BKN110 08/03 A2985 RMK AO2 SLP120 T00780028,M
EKO,2021-03-26 13:56,-115.7860,40.8242,1367.00,32.00,21.00,63.45,340.00,9.00,0.00,29.95,1015.10,10.00,M,BKN,BKN,M,M,4700.00,9000.00,M,M,M,M,M,M,M,M,M,23.51,KEKO 261356Z AUTO 34009KT 10SM BKN047 BKN090 00/M06 A2995 RMK AO2 SLP151 T00001061,M
TPH,2021-03-26 13:56,-117.0904,38.0505,1654.00,27.00,18.00,68.45,20.00,9.00,0.00,29.94,1014.20,10.00,M,CLR,M,M,M,M,M,M,M,M,M,M,M,M,M,M,17.30,KTPH 261356Z AUTO 02009KT 10SM CLR M03/M08 A2994 RMK AO2 SLP142 T10281078,M
LAS,2021-03-26 13:56,-115.1634,36.0719,663.00,51.00,33.00,49.98,M,3.00,0.00,29.83,1009.30,10.00,M,SCT,BKN,M,M,8000.00,12000.00,M,M,M,M,M,M,M,M,M,51.10,KLAS 261356Z VRB03KT 10SM SCT080 BKN120 11/01 A2983 RMK AO2 SLP093 VIRGA DSNT S AND W T01060006 $,M
INS,2021-03-26 13:58,-115.6733,36.5872,955.00,42.30,23.00,46.02,350.00,5.00,0.00,29.85,1008.90,10.00,M,OVC,M,M,M,7000.00,M,M,M,M,M,M,M,M,M,M,38.63,KINS 261358Z AUTO 35005KT 10SM OVC070 06/M05 A2985 RMK AO2 SLP089 T00571050 $,M
LSV,2021-03-26 13:58,-115.0343,36.2362,570.00,49.60,44.60,82.83,80.00,4.00,0.00,29.83,1009.40,10.00,M,FEW,BKN,M,M,8000.00,12000.00,M,M,M,M,M,M,M,M,M,47.97,KLSV 261358Z 08004KT 10SM FEW080 BKN120 10/07 A2983 RMK AO2A SLP094 T00980070 $,M
INS,2021-03-26 14:13,-115.6733,36.5872,955.00,42.80,23.00,45.14,0.00,0.00,0.00,29.85,1008.90,10.00,M,SCT,M,M,M,7000.00,M,M,M,M,M,M,M,M,M,M,42.80,KINS 261413Z AUTO 00000KT 10SM SCT070 06/M05 A2985 RMK AO2 SLP089 $,M
BVU,2021-03-26 14:15,-114.8611,35.9475,671.00,46.40,39.20,75.84,0.00,0.00,0.00,29.85,M,10.00,M,BKN,OVC,M,M,8000.00,11000.00,M,M,M,M,M,M,M,M,M,46.40,KBVU 261415Z AUTO 00000KT 10SM BKN080 OVC110 08/04 A2985 RMK AO2,M
RTS,2021-03-26 14:15,-119.8764,39.6682,1539.00,19.40,14.00,79.16,340.00,4.00,0.00,30.06,M,10.00,M,CLR,M,M,M,M,M,M,M,M,M,M,M,M,M,M,12.71,KRTS 261415Z AUTO 34004KT 10SM CLR M07/M10 A3006 RMK AO2,M
MEV,2021-03-26 14:15,-119.7500,38.9963,1441.42,17.60,14.00,85.51,120.00,5.00,0.00,30.05,M,10.00,M,CLR,M,M,M,M,M,M,M,M,M,M,M,M,M,M,9.29,KMEV 261415Z AUTO 12005KT 10SM CLR M08/M10 A3005 RMK AO2,M
TMT,2021-03-26 14:15,-117.1971,39.4643,1749.34,28.90,24.30,82.69,340.00,4.00,0.00,30.01,M,10.00,M,M,M,M,M,M,M,M,M,M,M,M,M,M,M,M,23.80,KTMT 261415Z AUTO 34004KT 10SM M02/M04 A3001 RMK AO2 T10171043,M
HTH,2021-03-26 14:15,-118.6315,38.5448,1282.89,32.00,24.80,74.44,310.00,7.00,0.00,30.05,M,10.00,M,CLR,M,M,M,M,M,M,M,M,M,M,M,M,M,M,24.78,KHTH 261415Z AUTO 31007KT 10SM CLR 00/M04 A3005 RMK A01,M
BAM,2021-03-26 14:15,-116.8743,40.5990,1382.36,32.00,28.40,86.39,0.00,0.00,0.00,30.04,M,10.00,M,SCT,SCT,BKN,M,2800.00,3300.00,4000.00,M,M,M,M,M,M,M,M,32.00,KBAM 261415Z AUTO 00000KT 10SM SCT028 SCT033 BKN040 00/M02 A3004 RMK AO1,M
05U,2021-03-26 14:15,-116.0051,39.6042,1811.23,23.00,21.20,92.69,0.00,0.00,0.00,29.97,M,10.00,M,BKN,OVC,M,M,2600.00,3500.00,M,M,M,M,M,M,M,M,M,23.00,K05U 261415Z AUTO 00000KT 10SM BKN026 OVC035 M05/M06 A2997 RMK A01,M
CXP,2021-03-26 14:15,-119.7326,39.1923,1431.00,26.60,17.60,68.40,0.00,0.00,0.00,30.06,M,10.00,M,CLR,M,M,M,M,M,M,M,M,M,M,M,M,M,M,26.60,KCXP 261415Z AUTO 00000KT 10SM CLR M03/M08 A3006 RMK AO2,M
HTH,2021-03-26 14:35,-118.6315,38.5448,1282.89,33.80,24.80,69.25,320.00,8.00,0.00,30.06,M,10.00,M,CLR,M,M,M,M,M,M,M,M,M,M,M,M,M,M,26.33,KHTH 261435Z AUTO 32008KT 10SM CLR 01/M04 A3006 RMK A01,M
MEV,2021-03-26 14:35,-119.7500,38.9963,1441.42,19.40,15.80,85.63,100.00,5.00,0.00,30.06,M,10.00,M,CLR,M,M,M,M,M,M,M,M,M,M,M,M,M,M,11.43,KMEV 261435Z AUTO 10005KT 10SM CLR M07/M09 A3006 RMK AO2,M
05U,2021-03-26 14:35,-116.0051,39.6042,1811.23,24.80,23.00,92.74,0.00,0.00,0.00,29.98,M,10.00,M,SCT,OVC,M,M,2100.00,2700.00,M,M,M,M,M,M,M,M,M,24.80,K05U 261435Z AUTO 00000KT 10SM SCT021 OVC027 M04/M05 A2998 RMK A01,M
TMT,2021-03-26 14:35,-117.1971,39.4643,1749.34,28.80,24.60,84.07,0.00,0.00,0.00,30.02,M,10.00,M,M,M,M,M,M,M,M,M,M,M,M,M,M,M,M,28.80,KTMT 261435Z AUTO 00000KT 10SM M02/M04 A3002 RMK AO2 T10181041,M
BAM,2021-03-26 14:35,-116.8743,40.5990,1382.36,32.00,28.40,86.39,0.00,0.00,0.00,30.05,M,10.00,M,OVC,M,M,M,4000.00,M,M,M,M,M,M,M,M,M,M,32.00,KBAM 261435Z AUTO 00000KT 10SM OVC040 00/M02 A3005 RMK AO1,M
RTS,2021-03-26 14:35,-119.8764,39.6682,1539.00,21.20,15.80,79.31,0.00,0.00,0.00,30.07,M,10.00,M,CLR,M,M,M,M,M,M,M,M,M,M,M,M,M,M,21.20,KRTS 261435Z AUTO 00000KT 10SM CLR M06/M09 A3007 RMK AO2,M
CXP,2021-03-26 14:35,-119.7326,39.1923,1431.00,28.40,17.60,63.51,0.00,0.00,0.00,30.07,M,10.00,M,CLR,M,M,M,M,M,M,M,M,M,M,M,M,M,M,28.40,KCXP 261435Z AUTO 00000KT 10SM CLR M02/M08 A3007 RMK AO2,M
BVU,2021-03-26 14:35,-114.8611,35.9475,671.00,48.20,37.40,66.05,0.00,0.00,0.00,29.86,M,10.00,M,FEW,M,M,M,8000.00,M,M,M,M,M,M,M,M,M,M,48.20,KBVU 261435Z AUTO 00000KT 10SM FEW080 09/03 A2986 RMK AO2,M
P68,2021-03-26 14:53,-116.0056,39.6014,1993.00,26.10,21.90,83.89,0.00,0.00,0.00,29.97,1015.70,M,M,M,M,M,M,M,M,M,M,M,M,M,M,M,M,M,26.10,KP68 261453Z AUTO 00000KT M03/M06 A2997 RMK AO1 SLP157 T10331056 53026,M
DRA,2021-03-26 14:53,-116.0278,36.6206,1009.00,44.00,23.00,42.95,30.00,14.00,0.00,29.90,1010.70,10.00,M,CLR,M,M,M,M,M,M,M,M,M,M,M,M,M,M,36.76,KDRA 261453Z AUTO 03014KT 10SM CLR 07/M05 A2990 RMK AO2 SLP107 T00671050 53029,M
ELY,2021-03-26 14:53,-114.8453,39.2950,1909.00,28.00,21.00,74.67,M,M,0.00,29.91,1013.30,10.00,M,BKN,M,M,M,3200.00,M,M,M,M,M,M,M,M,M,M,M,KELY 261453Z AUTO 10SM BKN032 M02/M06 A2991 RMK AO2 SLP133 T10221061 53024,M
LOL,2021-03-26 14:53,-118.5701,40.0684,1192.43,27.00,21.90,80.83,0.00,0.00,0.00,30.08,1020.40,10.00,M,CLR,M,M,M,M,M,M,M,M,M,M,M,M,M,M,27.00,KLOL 261453Z AUTO 00000KT 10SM CLR M03/M06 A3008 RMK AO2 SLP204 T10281056 53028,M
VGT,2021-03-26 14:53,-115.1933,36.2111,667.00,53.00,24.10,32.11,310.00,12.00,T,29.82,1010.70,10.00,22.00,CLR,M,M,M,M,M,M,M,M,M,M,M,M,M,M,53.10,KVGT 261453Z 31012G22KT 10SM CLR 12/M04 A2982 RMK AO2 RAB17E26 SLP107 P0000 60000 T01171044 53029,M
BVU,2021-03-26 14:55,-114.8611,35.9475,671.00,48.20,37.40,66.05,0.00,0.00,0.00,29.87,M,10.00,M,FEW,SCT,M,M,9500.00,12000.00,M,M,M,M,M,M,M,M,M,48.20,KBVU 261455Z AUTO 00000KT 10SM FEW095 SCT120 09/03 A2987 RMK AO2,M
05U,2021-03-26 14:55,-116.0051,39.6042,1811.23,26.60,23.00,86.07,0.00,0.00,0.00,29.99,M,10.00,M,BKN,OVC,M,M,2100.00,2600.00,M,M,M,M,M,M,M,M,M,26.60,K05U 261455Z AUTO 00000KT 10SM BKN021 OVC026 M03/M05 A2999 RMK A01,M
RNO,2021-03-26 14:55,-119.7711,39.4839,1341.00,30.00,19.90,65.66,160.00,3.00,0.00,30.08,1019.10,10.00,M,FEW,M,M,M,5000.00,M,M,M,M,M,M,M,M,M,M,26.40,KRNO 261455Z 16003KT 10SM FEW050 M01/M07 A3008 RMK AO2 SLP191 T10111067 53028,M
HTH,2021-03-26 14:55,-118.6315,38.5448,1282.89,35.60,24.80,64.46,320.00,8.00,0.00,30.08,M,10.00,M,CLR,M,M,M,M,M,M,M,M,M,M,M,M,M,M,28.55,KHTH 261455Z AUTO 32008KT 10SM CLR 02/M04 A3008 RMK A01,M
RTS,2021-03-26 14:55,-119.8764,39.6682,1539.00,23.00,17.60,79.47,0.00,0.00,0.00,30.08,M,10.00,M,CLR,M,M,M,M,M,M,M,M,M,M,M,M,M,M,23.00,KRTS 261455Z AUTO 00000KT 10SM CLR M05/M08 A3008 RMK AO2,M
BAM,2021-03-26 14:55,-116.8743,40.5990,1382.36,32.00,28.40,86.39,10.00,3.00,0.00,30.06,M,10.00,M,BKN,OVC,M,M,3100.00,3800.00,M,M,M,M,M,M,M,M,M,28.69,KBAM 261455Z AUTO 01003KT 10SM BKN031 OVC038 00/M02 A3006 RMK AO1,M
MEV,2021-03-26 14:55,-119.7500,38.9963,1441.42,24.80,19.40,79.62,120.00,3.00,0.00,30.07,M,10.00,M,CLR,M,M,M,M,M,M,M,M,M,M,M,M,M,M,20.46,KMEV 261455Z AUTO 12003KT 10SM CLR M04/M07 A3007 RMK AO2,M
CXP,2021-03-26 14:55,-119.7326,39.1923,1431.00,30.20,19.40,63.75,0.00,0.00,0.00,30.08,M,10.00,M,CLR,M,M,M,M,M,M,M,M,M,M,M,M,M,M,30.20,KCXP 261455Z AUTO 00000KT 10SM CLR M01/M07 A3008 RMK AO2,M
TMT,2021-03-26 14:55,-117.1971,39.4643,1749.34,28.90,24.40,83.03,0.00,0.00,0.00,30.03,M,10.00,M,M,M,M,M,M,M,M,M,M,M,M,M,M,M,M,28.90,KTMT 261455Z AUTO 00000KT 10SM M02/M04 A3003 RMK AO2 T10171042,M
WMC,2021-03-26 14:56,-117.8072,40.9019,1315.00,32.00,24.10,72.30,300.00,4.00,0.00,30.06,1018.90,10.00,M,CLR,M,M,M,M,M,M,M,M,M,M,M,M,M,M,27.42,KWMC 261456Z AUTO 30004KT 10SM CLR 00/M04 A3006 RMK AO2 SLP189 T00001044 52025,M
LAS,2021-03-26 14:56,-115.1634,36.0719,663.00,52.00,27.00,37.72,350.00,12.00,0.00,29.86,1010.50,10.00,19.00,FEW,SCT,BKN,M,6000.00,9000.00,12000.00,M,M,M,M,M,M,M,M,52.00,KLAS 261456Z 35012G19KT 10SM FEW060 SCT090 BKN120 11/M03 A2986 RMK AO2 SLP105 T01111028 51030 $,M
TPH,2021-03-26 14:56,-117.0904,38.0505,1654.00,30.90,19.00,60.92,360.00,7.00,0.00,29.97,1015.30,10.00,M,CLR,M,M,M,M,M,M,M,M,M,M,M,M,M,M,23.44,KTPH 261456Z AUTO 36007KT 10SM CLR M01/M07 A2997 RMK AO2 SLP153 T10061072 51028,M
NFL,2021-03-26 14:56,-118.7010,39.4166,1199.00,30.90,24.10,75.59,0.00,0.00,0.00,30.08,1015.30,10.00,M,FEW,M,M,M,10000.00,M,M,M,M,M,M,M,M,M,M,30.90,KNFL 261456Z 00000KT 10SM FEW100 M01/M04 A3008 RMK AO2 SLP153 T10061044 53029,M
HND,2021-03-26 14:56,-115.1344,35.9729,742.79,47.00,37.00,68.27,220.00,8.00,0.00,29.88,1013.20,10.00,M,FEW,BKN,OVC,M,6000.00,7000.00,12000.00,M,M,M,M,M,M,M,M,42.47,KHND 261456Z 22008KT 10SM FEW060 BKN070 OVC120 08/03 A2988 RMK AO2 SLP132 T00830028 53030,M
EKO,2021-03-26 14:56,-115.7860,40.8242,1367.00,34.00,19.90,55.88,340.00,10.00,0.00,29.99,1016.50,10.00,M,BKN,OVC,M,M,3900.00,5000.00,M,M,M,M,M,M,M,M,M,25.48,KEKO 261456Z AUTO 34010KT 10SM BKN039 OVC050 01/M07 A2999 RMK AO2 SLP165 T00111067 53027,M
LSV,2021-03-26 14:58,-115.0343,36.2362,570.00,52.30,37.60,57.16,0.00,0.00,0.00,29.86,1010.40,10.00,M,SCT,SCT,M,M,9000.00,14000.00,M,M,M,M,M,M,M,M,M,52.30,KLSV 261458Z AUTO 00000KT 10SM SCT090 SCT140 11/03 A2986 RMK AO2 SLP104 T01130031 $,M
INS,2021-03-26 14:58,-115.6733,36.5872,955.00,43.50,24.10,46.02,260.00,4.00,0.00,29.88,1010.40,10.00,M,CLR,M,M,M,M,M,M,M,M,M,M,M,M,M,M,40.85,KINS 261458Z AUTO 26004KT 10SM CLR 06/M04 A2988 RMK AO2 SLP104 T00641044 52032 $,M
05U,2021-03-26 15:15,-116.0051,39.6042,1811.23,26.60,23.00,86.07,0.00,0.00,0.00,30.00,M,10.00,M,BKN,OVC,M,M,1900.00,2500.00,M,M,M,M,M,M,M,M,M,26.60,K05U 261515Z AUTO 00000KT 10SM BKN019 OVC025 M03/M05 A3000 RMK A01,M
TMT,2021-03-26 15:15,-117.1971,39.4643,1749.34,29.70,25.00,82.40,260.00,3.00,0.00,30.05,M,10.00,M,M,M,M,M,M,M,M,M,M,M,M,M,M,M,M,26.06,KTMT 261515Z AUTO 26003KT 10SM M01/M04 A3005 RMK AO2 T10131039,M
HTH,2021-03-26 15:15,-118.6315,38.5448,1282.89,37.40,24.80,60.04,330.00,7.00,0.00,30.09,M,10.00,M,CLR,M,M,M,M,M,M,M,M,M,M,M,M,M,M,31.36,KHTH 261515Z AUTO 33007KT 10SM CLR 03/M04 A3009 RMK A01,M
BAM,2021-03-26 15:15,-116.8743,40.5990,1382.36,32.00,28.40,86.39,0.00,0.00,0.00,30.07,M,10.00,M,OVC,M,M,M,3100.00,M,M,M,M,M,M,M,M,M,M,32.00,KBAM 261515Z AUTO 00000KT 10SM OVC031 00/M02 A3007 RMK AO1,M
MEV,2021-03-26 15:15,-119.7500,38.9963,1441.42,30.20,21.20,68.83,0.00,0.00,0.00,30.08,M,10.00,M,CLR,M,M,M,M,M,M,M,M,M,M,M,M,M,M,30.20,KMEV 261515Z AUTO 00000KT 10SM CLR M01/M06 A3008 RMK AO2,M
RTS,2021-03-26 15:15,-119.8764,39.6682,1539.00,28.40,19.40,68.61,0.00,0.00,0.00,30.09,M,10.00,M,CLR,M,M,M,M,M,M,M,M,M,M,M,M,M,M,28.40,KRTS 261515Z AUTO 00000KT 10SM CLR M02/M07 A3009 RMK AO2,M
CXP,2021-03-26 15:15,-119.7326,39.1923,1431.00,33.80,19.40,55.14,0.00,0.00,0.00,30.09,M,10.00,M,CLR,M,M,M,M,M,M,M,M,M,M,M,M,M,M,33.80,KCXP 261515Z AUTO 00000KT 10SM CLR 01/M07 A3009 RMK AO2,M
BVU,2021-03-26 15:15,-114.8611,35.9475,671.00,48.20,37.40,66.05,0.00,0.00,0.00,29.88,M,10.00,M,FEW,M,M,M,12000.00,M,M,M,M,M,M,M,M,M,M,48.20,KBVU 261515Z AUTO 00000KT 10SM FEW120 09/03 A2988 RMK AO2,M
BVU,2021-03-26 15:35,-114.8611,35.9475,671.00,48.20,39.20,70.88,0.00,0.00,0.00,29.89,M,10.00,M,CLR,M,M,M,M,M,M,M,M,M,M,M,M,M,M,48.20,KBVU 261535Z AUTO 00000KT 10SM CLR 09/04 A2989 RMK AO2,M
HTH,2021-03-26 15:35,-118.6315,38.5448,1282.89,37.40,24.80,60.04,330.00,8.00,0.00,30.10,M,10.00,M,SCT,SCT,M,M,3500.00,5500.00,M,M,M,M,M,M,M,M,M,30.76,KHTH 261535Z AUTO 33008KT 10SM SCT035 SCT055 03/M04 A3010 RMK A01,M
TMT,2021-03-26 15:35,-117.1971,39.4643,1749.34,30.90,24.60,77.18,300.00,3.00,0.00,30.05,M,10.00,M,M,M,M,M,M,M,M,M,M,M,M,M,M,M,M,27.43,KTMT 261535Z AUTO 30003KT 10SM M01/M04 A3005 RMK AO2 T10061041,M
BAM,2021-03-26 15:35,-116.8743,40.5990,1382.36,33.80,28.40,80.36,0.00,0.00,0.00,30.08,M,10.00,M,OVC,M,M,M,2900.00,M,M,M,M,M,M,M,M,M,M,33.80,KBAM 261535Z AUTO 00000KT 10SM OVC029 01/M02 A3008 RMK AO1,M
MEV,2021-03-26 15:35,-119.7500,38.9963,1441.42,32.00,21.20,63.99,0.00,0.00,0.00,30.09,M,10.00,M,CLR,M,M,M,M,M,M,M,M,M,M,M,M,M,M,32.00,KMEV 261535Z AUTO 00000KT 10SM CLR 00/M06 A3009 RMK AO2,M
05U,2021-03-26 15:35,-116.0051,39.6042,1811.23,28.40,24.80,86.18,0.00,0.00,0.00,30.01,M,10.00,M,OVC,M,M,M,1900.00,M,M,M,M,M,M,M,M,M,M,28.40,K05U 261535Z AUTO 00000KT 10SM OVC019 M02/M04 A3001 RMK A01,M
RTS,2021-03-26 15:35,-119.8764,39.6682,1539.00,30.20,19.40,63.75,0.00,0.00,0.00,30.09,M,10.00,M,CLR,M,M,M,M,M,M,M,M,M,M,M,M,M,M,30.20,KRTS 261535Z AUTO 00000KT 10SM CLR M01/M07 A3009 RMK AO2,M
CXP,2021-03-26 15:35,-119.7326,39.1923,1431.00,35.60,19.40,51.33,0.00,0.00,0.00,30.09,M,10.00,M,CLR,M,M,M,M,M,M,M,M,M,M,M,M,M,M,35.60,KCXP 261535Z AUTO 00000KT 10SM CLR 02/M07 A3009 RMK AO2,M
VGT,2021-03-26 15:53,-115.1933,36.2111,667.00,55.00,23.00,28.61,320.00,16.00,0.00,29.84,1011.60,10.00,23.00,CLR,M,M,M,M,M,M,M,M,M,M,M,M,M,M,55.00,KVGT 261553Z 32016G23KT 10SM CLR 13/M05 A2984 RMK AO2 SLP116 T01281050,M
LOL,2021-03-26 15:53,-118.5701,40.0684,1192.43,36.00,27.00,69.51,0.00,0.00,0.00,30.11,1020.60,10.00,M,CLR,M,M,M,M,M,M,M,M,M,M,M,M,M,M,36.00,KLOL 261553Z AUTO 00000KT 10SM CLR 02/M03 A3011 RMK AO2 SLP206 T00221028,M
ELY,2021-03-26 15:53,-114.8453,39.2950,1909.00,30.00,21.00,68.81,M,M,0.00,29.93,1013.80,10.00,M,CLR,M,M,M,M,M,M,M,M,M,M,M,M,M,M,M,KELY 261553Z AUTO 10SM CLR M01/M06 A2993 RMK AO2 SLP138 T10111061,M
DRA,2021-03-26 15:53,-116.0278,36.6206,1009.00,48.00,21.90,35.38,20.00,15.00,0.00,29.92,1011.50,10.00,M,CLR,M,M,M,M,M,M,M,M,M,M,M,M,M,M,41.52,KDRA 261553Z AUTO 02015KT 10SM CLR 09/M06 A2992 RMK AO2 SLP115 T00891056,M
P68,2021-03-26 15:53,-116.0056,39.6014,1993.00,28.90,24.10,82.00,340.00,11.00,0.00,30.00,1016.50,M,M,M,M,M,M,M,M,M,M,M,M,M,M,M,M,M,18.55,KP68 261553Z AUTO 34011KT M02/M04 A3000 RMK AO1 SLP165 T10171044,M
MEV,2021-03-26 15:55,-119.7500,38.9963,1441.42,33.80,23.00,64.23,0.00,0.00,0.00,30.09,M,10.00,M,CLR,M,M,M,M,M,M,M,M,M,M,M,M,M,M,33.80,KMEV 261555Z AUTO 00000KT 10SM CLR 01/M05 A3009 RMK AO2,M
HTH,2021-03-26 15:55,-118.6315,38.5448,1282.89,39.20,24.80,55.95,330.00,9.00,0.00,30.11,M,10.00,M,FEW,BKN,BKN,M,3500.00,5000.00,6000.00,M,M,M,M,M,M,M,M,32.47,KHTH 261555Z AUTO 33009KT 10SM FEW035 BKN050 BKN060 04/M04 A3011 RMK A01,M
05U,2021-03-26 15:55,-116.0051,39.6042,1811.23,30.20,24.80,80.07,340.00,10.00,0.00,30.03,M,10.00,M,BKN,OVC,M,M,2000.00,2800.00,M,M,M,M,M,M,M,M,M,20.71,K05U 261555Z AUTO 34010KT 10SM BKN020 OVC028 M01/M04 A3003 RMK A01,M
BAM,2021-03-26 15:55,-116.8743,40.5990,1382.36,33.80,28.40,80.36,0.00,0.00,0.00,30.09,M,10.00,M,OVC,M,M,M,3100.00,M,M,M,M,M,M,M,M,M,M,33.80,KBAM 261555Z AUTO 00000KT 10SM OVC031 01/M02 A3009 RMK AO1,M
TMT,2021-03-26 15:55,-117.1971,39.4643,1749.34,30.70,23.70,74.94,0.00,0.00,0.00,30.06,M,10.00,M,M,M,M,M,M,M,M,M,M,M,M,M,M,M,M,30.70,KTMT 261555Z AUTO 00000KT 10SM M01/M05 A3006 RMK AO2 T10071046,M
RTS,2021-03-26 15:55,-119.8764,39.6682,1539.00,32.00,19.40,59.27,0.00,0.00,0.00,30.10,M,10.00,M,CLR,M,M,M,M,M,M,M,M,M,M,M,M,M,M,32.00,KRTS 261555Z AUTO 00000KT 10SM CLR M00/M07 A3010 RMK AO2,M
CXP,2021-03-26 15:55,-119.7326,39.1923,1431.00,39.20,19.40,44.55,0.00,0.00,0.00,30.10,M,10.00,M,CLR,M,M,M,M,M,M,M,M,M,M,M,M,M,M,39.20,KCXP 261555Z AUTO 00000KT 10SM CLR 04/M07 A3010 RMK AO2,M
BVU,2021-03-26 15:55,-114.8611,35.9475,671.00,50.00,37.40,61.76,M,3.00,0.00,29.90,M,10.00,M,CLR,M,M,M,M,M,M,M,M,M,M,M,M,M,M,50.00,KBVU 261555Z AUTO VRB03KT 10SM CLR 10/03 A2990 RMK AO2,M
RNO,2021-03-26 15:55,-119.7711,39.4839,1341.00,35.00,21.00,56.05,0.00,0.00,0.00,30.10,1019.40,10.00,M,CLR,M,M,M,M,M,M,M,M,M,M,M,M,M,M,35.10,KRNO 261555Z 00000KT 10SM CLR 02/M06 A3010 RMK AO2 SLP194 T00171061,M
WMC,2021-03-26 15:56,-117.8072,40.9019,1315.00,36.00,24.10,61.62,350.00,7.00,0.00,30.10,1019.90,10.00,M,CLR,M,M,M,M,M,M,M,M,M,M,M,M,M,M,29.65,KWMC 261556Z AUTO 35007KT 10SM CLR 02/M04 A3010 RMK AO2 SLP199 T00221044,M
LAS,2021-03-26 15:56,-115.1634,36.0719,663.00,55.00,24.10,29.96,340.00,12.00,0.00,29.89,1011.40,10.00,M,FEW,SCT,SCT,M,6000.00,9000.00,12000.00,M,M,M,M,M,M,M,M,55.00,KLAS 261556Z 34012KT 10SM FEW060 SCT090 SCT120 13/M04 A2989 RMK AO2 SLP114 T01281044 $,M
NFL,2021-03-26 15:56,-118.7010,39.4166,1199.00,36.00,24.10,61.62,0.00,0.00,0.00,30.11,1016.20,10.00,M,FEW,M,M,M,10000.00,M,M,M,M,M,M,M,M,M,M,36.00,KNFL 261556Z 00000KT 10SM FEW100 02/M04 A3011 RMK AO2 SLP162 T00221044,M
EKO,2021-03-26 15:56,-115.7860,40.8242,1367.00,35.00,19.00,51.47,30.00,6.00,0.00,30.02,1017.60,10.00,M,OVC,M,M,M,3800.00,M,M,M,M,M,M,M,M,M,M,29.26,KEKO 261556Z AUTO 03006KT 10SM OVC038 02/M07 A3002 RMK AO2 SLP176 T00171072,M
HND,2021-03-26 15:56,-115.1344,35.9729,742.79,53.00,26.10,34.90,340.00,10.00,0.00,29.91,1013.80,10.00,M,FEW,M,M,M,9000.00,M,M,M,M,M,M,M,M,M,M,53.10,KHND 261556Z 34010KT 10SM FEW090 12/M03 A2991 RMK AO2 SLP138 T01171033,M
TPH,2021-03-26 15:56,-117.0904,38.0505,1654.00,37.00,18.00,45.73,360.00,21.00,0.00,29.99,1015.60,10.00,27.00,CLR,M,M,M,M,M,M,M,M,M,M,M,27.00,360.00,2021-03-26 15:53,25.52,KTPH 261556Z AUTO 36021G27KT 10SM CLR 03/M08 A2999 RMK AO2 PK WND 36027/1553 SLP156 T00281078,M
INS,2021-03-26 15:58,-115.6733,36.5872,955.00,47.30,22.30,36.94,0.00,0.00,0.00,29.91,1011.20,10.00,M,CLR,M,M,M,M,M,M,M,M,M,M,M,M,M,M,47.30,KINS 261558Z AUTO 00000KT 10SM CLR 09/M05 A2991 RMK AO2 SLP112 T00851054 $,M
LSV,2021-03-26 15:58,-115.0343,36.2362,570.00,54.30,34.00,46.06,210.00,3.00,0.00,29.89,1011.40,10.00,M,SCT,M,M,M,8000.00,M,M,M,M,M,M,M,M,M,M,54.30,KLSV 261558Z AUTO 21003KT 10SM SCT080 12/01 A2989 RMK AO2 SLP114 T01240011 $,M
BAM,2021-03-26 16:15,-116.8743,40.5990,1382.36,35.60,26.60,69.46,0.00,0.00,0.00,30.10,M,10.00,M,BKN,M,M,M,3300.00,M,M,M,M,M,M,M,M,M,M,35.60,KBAM 261615Z AUTO 00000KT 10SM BKN033 02/M03 A3010 RMK AO1,M
TMT,2021-03-26 16:15,-117.1971,39.4643,1749.34,30.90,23.50,73.71,0.00,0.00,0.00,30.08,M,10.00,M,M,M,M,M,M,M,M,M,M,M,M,M,M,M,M,30.90,KTMT 261615Z AUTO 00000KT 10SM M01/M05 A3008 RMK AO2 T10061047,M
MEV,2021-03-26 16:15,-119.7500,38.9963,1441.42,35.60,23.00,59.79,0.00,0.00,0.00,30.10,M,10.00,M,CLR,M,M,M,M,M,M,M,M,M,M,M,M,M,M,35.60,KMEV 261615Z AUTO 00000KT 10SM CLR 02/M05 A3010 RMK AO2,M
RTS,2021-03-26 16:15,-119.8764,39.6682,1539.00,33.80,21.20,59.53,0.00,0.00,0.00,30.11,M,10.00,M,CLR,M,M,M,M,M,M,M,M,M,M,M,M,M,M,33.80,KRTS 261615Z AUTO 00000KT 10SM CLR 01/M06 A3011 RMK AO2,M
BVU,2021-03-26 16:15,-114.8611,35.9475,671.00,53.60,28.40,37.67,340.00,11.00,0.00,29.90,M,10.00,M,CLR,M,M,M,M,M,M,M,M,M,M,M,M,M,M,53.60,KBVU 261615Z AUTO 34011KT 10SM CLR 12/M02 A2990 RMK AO2,M
CXP,2021-03-26 16:15,-119.7326,39.1923,1431.00,39.20,19.40,44.55,70.00,5.00,0.00,30.11,M,10.00,M,CLR,M,M,M,M,M,M,M,M,M,M,M,M,M,M,34.95,KCXP 261615Z AUTO 07005KT 10SM CLR 04/M07 A3011 RMK AO2,M
05U,2021-03-26 16:15,-116.0051,39.6042,1811.23,30.20,23.00,74.26,350.00,11.00,0.00,30.04,M,10.00,M,BKN,BKN,OVC,M,2000.00,2700.00,3400.00,M,M,M,M,M,M,M,M,20.19,K05U 261615Z AUTO 35011KT 10SM BKN020 BKN027 OVC034 M01/M05 A3004 RMK A01,M
HTH,2021-03-26 16:15,-118.6315,38.5448,1282.89,39.20,23.00,51.89,340.00,8.00,0.00,30.12,M,10.00,M,OVC,M,M,M,5000.00,M,M,M,M,M,M,M,M,M,M,32.98,KHTH 261615Z AUTO 34008KT 10SM OVC050 04/M05 A3012 RMK A01,M
RTS,2021-03-26 16:35,-119.8764,39.6682,1539.00,35.60,21.20,55.41,150.00,5.00,0.00,30.12,M,10.00,M,CLR,M,M,M,M,M,M,M,M,M,M,M,M,M,M,30.67,KRTS 261635Z AUTO 15005KT 10SM CLR 02/M06 A3012 RMK AO2,M
CXP,2021-03-26 16:35,-119.7326,39.1923,1431.00,42.80,19.40,38.75,60.00,8.00,0.00,30.12,M,10.00,M,CLR,M,M,M,M,M,M,M,M,M,M,M,M,M,M,37.42,KCXP 261635Z AUTO 06008KT 10SM CLR 06/M07 A3012 RMK AO2,M
BAM,2021-03-26 16:35,-116.8743,40.5990,1382.36,35.60,26.60,69.46,300.00,3.00,0.00,30.12,M,10.00,M,OVC,M,M,M,3300.00,M,M,M,M,M,M,M,M,M,M,32.80,KBAM 261635Z AUTO 30003KT 10SM OVC033 02/M03 A3012 RMK AO1,M
TMT,2021-03-26 16:35,-117.1971,39.4643,1749.34,31.80,25.30,76.63,170.00,4.00,0.00,30.09,M,10.00,M,M,M,M,M,M,M,M,M,M,M,M,M,M,M,M,27.19,KTMT 261635Z AUTO 17004KT 10SM 00/M04 A3009 RMK AO2 T10011037,M
05U,2021-03-26 16:35,-116.0051,39.6042,1811.23,30.20,23.00,74.26,340.00,11.00,0.00,30.05,M,10.00,16.00,FEW,SCT,OVC,M,1900.00,3000.00,3600.00,M,M,M,M,M,M,M,M,20.19,K05U 261635Z AUTO 34011G16KT 10SM FEW019 SCT030 OVC036 M01/M05 A3005 RMK A01,M
BVU,2021-03-26 16:35,-114.8611,35.9475,671.00,53.60,26.60,34.98,350.00,12.00,0.00,29.91,M,10.00,M,SCT,BKN,M,M,7000.00,8000.00,M,M,M,M,M,M,M,M,M,53.60,KBVU 261635Z AUTO 35012KT 10SM SCT070 BKN080 12/M03 A2991 RMK AO2,M
MEV,2021-03-26 16:35,-119.7500,38.9963,1441.42,37.40,21.20,51.61,0.00,0.00,0.00,30.10,M,10.00,M,CLR,M,M,M,M,M,M,M,M,M,M,M,M,M,M,37.40,KMEV 261635Z AUTO 00000KT 10SM CLR 03/M06 A3010 RMK AO2,M
HTH,2021-03-26 16:35,-118.6315,38.5448,1282.89,39.20,24.80,55.95,330.00,9.00,0.00,30.13,M,10.00,M,OVC,M,M,M,5000.00,M,M,M,M,M,M,M,M,M,M,32.47,KHTH 261635Z AUTO 33009KT 10SM OVC050 04/M04 A3013 RMK A01,M
P68,2021-03-26 16:53,-116.0056,39.6014,1993.00,30.90,23.00,72.18,350.00,13.00,0.00,30.04,1017.70,M,M,M,M,M,M,M,M,M,M,M,M,M,M,M,M,M,20.16,KP68 261653Z AUTO 35013KT M01/M05 A3004 RMK AO1 SLP177 T10061050,M
ELY,2021-03-26 16:53,-114.8453,39.2950,1909.00,33.00,21.00,60.71,M,M,0.00,29.98,1015.00,10.00,M,CLR,M,M,M,M,M,M,M,M,M,M,M,M,M,M,M,KELY 261653Z AUTO 10SM CLR 01/M06 A2998 RMK AO2 SLP150 T00061061,M
LOL,2021-03-26 16:53,-118.5701,40.0684,1192.43,41.00,25.00,52.61,M,3.00,0.00,30.14,1021.40,10.00,M,CLR,M,M,M,M,M,M,M,M,M,M,M,M,M,M,38.98,KLOL 261653Z AUTO VRB03KT 10SM CLR 05/M04 A3014 RMK AO2 SLP214 T00501039,M
VGT,2021-03-26 16:53,-115.1933,36.2111,667.00,57.00,21.90,25.40,320.00,14.00,0.00,29.88,1012.70,10.00,24.00,CLR,M,M,M,M,M,M,M,M,M,M,M,29.00,320.00,2021-03-26 16:19,57.00,KVGT 261653Z 32014G24KT 10SM CLR 14/M06 A2988 RMK AO2 PK WND 32029/1619 SLP127 T01391056,M
DRA,2021-03-26 16:53,-116.0278,36.6206,1009.00,51.00,19.90,28.95,40.00,15.00,0.00,29.95,1012.10,10.00,21.00,CLR,M,M,M,M,M,M,M,M,M,M,M,M,M,M,51.10,KDRA 261653Z AUTO 04015G21KT 10SM CLR 11/M07 A2995 RMK AO2 SLP121 T01061067,M
TMT,2021-03-26 16:55,-117.1971,39.4643,1749.34,31.80,23.70,71.68,0.00,0.00,0.00,30.10,M,10.00,M,M,M,M,M,M,M,M,M,M,M,M,M,M,M,M,31.80,KTMT 261655Z AUTO 00000KT 10SM 00/M05 A3010 RMK AO2 T10011046,M
BAM,2021-03-26 16:55,-116.8743,40.5990,1382.36,35.60,26.60,69.46,0.00,0.00,0.00,30.13,M,10.00,M,OVC,M,M,M,3500.00,M,M,M,M,M,M,M,M,M,M,35.60,KBAM 261655Z AUTO 00000KT 10SM OVC035 02/M03 A3013 RMK AO1,M
BVU,2021-03-26 16:55,-114.8611,35.9475,671.00,55.40,26.60,32.76,320.00,10.00,0.00,29.92,M,10.00,16.00,FEW,M,M,M,7500.00,M,M,M,M,M,M,M,M,M,M,55.40,KBVU 261655Z AUTO 32010G16KT 10SM FEW075 13/M03 A2992 RMK AO2,M
HTH,2021-03-26 16:55,-118.6315,38.5448,1282.89,41.00,24.80,52.17,340.00,10.00,0.00,30.13,M,10.00,M,BKN,OVC,M,M,5000.00,5500.00,M,M,M,M,M,M,M,M,M,34.25,KHTH 261655Z AUTO 34010KT 10SM BKN050 OVC055 05/M04 A3013 RMK A01,M
CXP,2021-03-26 16:55,-119.7326,39.1923,1431.00,42.80,19.40,38.75,80.00,7.00,0.00,30.13,M,10.00,13.00,CLR,M,M,M,M,M,M,M,M,M,M,M,M,M,M,37.94,KCXP 261655Z AUTO 08007G13KT 10SM CLR 06/M07 A3013 RMK AO2,M
RTS,2021-03-26 16:55,-119.8764,39.6682,1539.00,37.40,21.20,51.61,90.00,8.00,0.00,30.13,M,10.00,M,CLR,M,M,M,M,M,M,M,M,M,M,M,M,M,M,30.76,KRTS 261655Z AUTO 09008KT 10SM CLR 03/M06 A3013 RMK AO2,M
05U,2021-03-26 16:55,-116.0051,39.6042,1811.23,32.00,23.00,69.04,350.00,11.00,0.00,30.07,M,10.00,M,OVC,M,M,M,3400.00,M,M,M,M,M,M,M,M,M,M,22.47,K05U 261655Z AUTO 35011KT 10SM OVC034 M00/M05 A3007 RMK A01,M
MEV,2021-03-26 16:55,-119.7500,38.9963,1441.42,39.20,21.20,48.10,330.00,4.00,0.00,30.11,M,10.00,M,CLR,M,M,M,M,M,M,M,M,M,M,M,M,M,M,35.83,KMEV 261655Z AUTO 33004KT 10SM CLR 04/M06 A3011 RMK AO2,M
RNO,2021-03-26 16:55,-119.7711,39.4839,1341.00,41.00,21.90,46.19,M,3.00,0.00,30.13,1019.80,10.00,M,FEW,M,M,M,5000.00,M,M,M,M,M,M,M,M,M,M,38.98,KRNO 261655Z VRB03KT 10SM FEW050 05/M06 A3013 RMK AO2 SLP198 T00501056,M
WMC,2021-03-26 16:56,-117.8072,40.9019,1315.00,39.00,24.10,54.77,340.00,9.00,0.00,30.13,1020.90,10.00,M,CLR,M,M,M,M,M,M,M,M,M,M,M,M,M,M,32.22,KWMC 261656Z AUTO 34009KT 10SM CLR 04/M04 A3013 RMK AO2 SLP209 T00391044,M
EKO,2021-03-26 16:56,-115.7860,40.8242,1367.00,36.00,19.00,49.66,280.00,3.00,0.00,30.05,1018.50,10.00,M,BKN,M,M,M,4000.00,M,M,M,M,M,M,M,M,M,M,33.26,KEKO 261656Z AUTO 28003KT 10SM BKN040 02/M07 A3005 RMK AO2 SLP185 T00221072,M
TPH,2021-03-26 16:56,-117.0904,38.0505,1654.00,41.00,16.00,35.88,350.00,21.00,0.00,30.02,1016.40,10.00,28.00,CLR,M,M,M,M,M,M,M,M,M,M,M,29.00,350.00,2021-03-26 16:36,30.86,KTPH 261656Z AUTO 35021G28KT 10SM CLR 05/M09 A3002 RMK AO2 PK WND 35029/1636 SLP164 T00501089,M
HND,2021-03-26 16:56,-115.1344,35.9729,742.79,55.00,24.10,29.96,350.00,14.00,0.00,29.93,1014.70,10.00,18.00,CLR,M,M,M,M,M,M,M,M,M,M,M,M,M,M,55.00,KHND 261656Z 35014G18KT 10SM CLR 13/M04 A2993 RMK AO2 SLP147 T01281044,M
NFL,2021-03-26 16:56,-118.7010,39.4166,1199.00,40.00,25.00,54.90,0.00,0.00,0.00,30.14,1017.10,10.00,M,SCT,M,M,M,8000.00,M,M,M,M,M,M,M,M,M,M,39.90,KNFL 261656Z 00000KT 10SM SCT080 04/M04 A3014 RMK AO2 SLP171 T00441039,M
LAS,2021-03-26 16:56,-115.1634,36.0719,663.00,57.00,23.00,26.61,360.00,16.00,0.00,29.92,1012.40,10.00,23.00,FEW,FEW,SCT,M,6000.00,9000.00,12000.00,M,M,M,M,M,M,M,M,57.00,KLAS 261656Z 36016G23KT 10SM FEW060 FEW090 SCT120 14/M05 A2992 RMK AO2 SLP124 T01391050 $,M
INS,2021-03-26 16:58,-115.6733,36.5872,955.00,50.20,19.90,29.94,240.00,4.00,0.00,29.94,1012.00,10.00,M,CLR,M,M,M,M,M,M,M,M,M,M,M,M,M,M,50.20,KINS 261658Z AUTO 24004KT 10SM CLR 10/M07 A2994 RMK AO2 SLP120 T01011067 $,M
LSV,2021-03-26 16:58,-115.0343,36.2362,570.00,56.80,26.60,31.14,350.00,6.00,0.00,29.92,1012.40,10.00,M,OVC,M,M,M,7500.00,M,M,M,M,M,M,M,27.00,320.00,2021-03-26 16:46,56.80,KLSV 261658Z AUTO 35006KT 10SM OVC075 14/M03 A2992 RMK AO2 PK WND 32027/46 SLP124 T01381030 $,M
TMT,2021-03-26 17:10,-117.1971,39.4643,1749.34,32.00,24.10,72.30,0.00,0.00,0.00,30.11,M,10.00,M,M,M,M,M,M,M,M,M,M,M,M,M,M,M,M,32.00,KTMT 261710Z AUTO 00000KT 10SM 00/M04 A3011 RMK AO2 T00001044,M
05U,2021-03-26 17:15,-116.0051,39.6042,1811.23,32.00,23.00,69.04,360.00,11.00,0.00,30.08,M,10.00,M,OVC,M,M,M,3300.00,M,M,M,M,M,M,M,M,M,M,22.47,K05U 261715Z AUTO 36011KT 10SM OVC033 M00/M05 A3008 RMK A01,M
MEV,2021-03-26 17:15,-119.7500,38.9963,1441.42,37.40,21.20,51.61,0.00,0.00,0.00,30.13,M,8.00,M,CLR,M,M,M,M,M,M,M,M,M,M,M,M,M,M,37.40,KMEV 261715Z AUTO 00000KT 8SM CLR 03/M06 A3013 RMK AO2,M
HTH,2021-03-26 17:15,-118.6315,38.5448,1282.89,41.00,23.00,48.39,350.00,11.00,0.00,30.14,M,10.00,16.00,BKN,BKN,M,M,5000.00,5500.00,M,M,M,M,M,M,M,M,M,33.84,KHTH 261715Z AUTO 35011G16KT 10SM BKN050 BKN055 05/M05 A3014 RMK A01,M
RTS,2021-03-26 17:15,-119.8764,39.6682,1539.00,39.20,19.40,44.55,90.00,6.00,0.00,30.13,M,10.00,12.00,CLR,M,M,M,M,M,M,M,M,M,M,M,M,M,M,34.20,KRTS 261715Z AUTO 09006G12KT 10SM CLR 04/M07 A3013 RMK AO2,M
BAM,2021-03-26 17:15,-116.8743,40.5990,1382.36,37.40,28.40,69.67,50.00,4.00,0.00,30.14,M,10.00,M,OVC,M,M,M,3500.00,M,M,M,M,M,M,M,M,M,M,33.73,KBAM 261715Z AUTO 05004KT 10SM OVC035 03/M02 A3014 RMK AO1,M
CXP,2021-03-26 17:15,-119.7326,39.1923,1431.00,42.80,19.40,38.75,80.00,8.00,0.00,30.14,M,10.00,15.00,CLR,M,M,M,M,M,M,M,M,M,M,M,M,M,M,37.42,KCXP 261715Z AUTO 08008G15KT 10SM CLR 06/M07 A3014 RMK AO2,M
BVU,2021-03-26 17:15,-114.8611,35.9475,671.00,55.40,24.80,30.40,360.00,12.00,0.00,29.93,M,10.00,21.00,CLR,M,M,M,M,M,M,M,M,M,M,M,M,M,M,55.40,KBVU 261715Z AUTO 36012G21KT 10SM CLR 13/M04 A2993 RMK AO2,M
RTS,2021-03-26 17:35,-119.8764,39.6682,1539.00,39.20,19.40,44.55,60.00,8.00,0.00,30.14,M,10.00,14.00,CLR,M,M,M,M,M,M,M,M,M,M,M,M,M,M,32.98,KRTS 261735Z AUTO 06008G14KT 10SM CLR 04/M07 A3014 RMK AO2,M
BVU,2021-03-26 17:35,-114.8611,35.9475,671.00,57.20,24.80,28.48,30.00,10.00,0.00,29.93,M,10.00,15.00,CLR,M,M,M,M,M,M,M,M,M,M,M,M,M,M,57.20,KBVU 261735Z AUTO 03010G15KT 10SM CLR 14/M04 A2993 RMK AO2,M
MEV,2021-03-26 17:35,-119.7500,38.9963,1441.42,41.00,21.20,44.85,0.00,0.00,0.00,30.13,M,10.00,M,FEW,M,M,M,4400.00,M,M,M,M,M,M,M,M,M,M,41.00,KMEV 261735Z AUTO 00000KT 10SM FEW044 05/M06 A3013 RMK AO2,M
BAM,2021-03-26 17:35,-116.8743,40.5990,1382.36,37.40,26.60,64.70,0.00,0.00,0.00,30.14,M,10.00,M,OVC,M,M,M,3300.00,M,M,M,M,M,M,M,M,M,M,37.40,KBAM 261735Z AUTO 00000KT 10SM OVC033 03/M03 A3014 RMK AO1,M
HTH,2021-03-26 17:35,-118.6315,38.5448,1282.89,41.00,23.00,48.39,320.00,11.00,0.00,30.15,M,10.00,M,FEW,M,M,M,5000.00,M,M,M,M,M,M,M,M,M,M,33.84,KHTH 261735Z AUTO 32011KT 10SM FEW050 05/M05 A3015 RMK A01,M
05U,2021-03-26 17:35,-116.0051,39.6042,1811.23,32.00,21.20,63.99,350.00,9.00,0.00,30.08,M,10.00,M,BKN,OVC,M,M,2500.00,3300.00,M,M,M,M,M,M,M,M,M,23.51,K05U 261735Z AUTO 35009KT 10SM BKN025 OVC033 00/M06 A3008 RMK A01,M
CXP,2021-03-26 17:35,-119.7326,39.1923,1431.00,44.60,19.40,36.18,80.00,10.00,0.00,30.14,M,10.00,M,CLR,M,M,M,M,M,M,M,M,M,M,M,M,M,M,38.77,KCXP 261735Z AUTO 08010KT 10SM CLR 07/M07 A3014 RMK AO2,M
VGT,2021-03-26 17:53,-115.1933,36.2111,667.00,60.00,21.00,21.88,330.00,17.00,0.00,29.90,1013.30,10.00,24.00,CLR,M,M,M,M,M,M,M,M,M,M,M,27.00,300.00,2021-03-26 17:03,60.10,KVGT 261753Z 33017G24KT 10SM CLR 16/M06 A2990 RMK AO2 PK WND 30027/1703 SLP133 60000 T01561061 10161 20117 51025,M
LOL,2021-03-26 17:53,-118.5701,40.0684,1192.43,45.00,25.00,45.12,50.00,9.00,0.00,30.15,1021.70,10.00,M,CLR,M,M,M,M,M,M,M,M,M,M,M,M,M,M,39.68,KLOL 261753Z AUTO 05009KT 10SM CLR 07/M04 A3015 RMK AO2 SLP217 T00721039 10072 21078 51022,M
DRA,2021-03-26 17:53,-116.0278,36.6206,1009.00,53.00,19.00,25.88,50.00,9.00,0.00,29.97,1012.90,10.00,19.00,CLR,M,M,M,M,M,M,M,M,M,M,M,29.00,30.00,2021-03-26 17:21,53.10,KDRA 261753Z AUTO 05009G19KT 10SM CLR 12/M07 A2997 RMK AO2 PK WND 03029/1721 SLP129 T01171072 10122 20050 51023,M
P68,2021-03-26 17:53,-116.0056,39.6014,1993.00,33.00,23.00,66.06,360.00,9.00,0.00,30.06,1018.50,M,M,M,M,M,M,M,M,M,M,M,M,M,M,M,M,M,24.88,KP68 261753Z AUTO 36009KT 01/M05 A3006 RMK AO1 SLP185 T00061050 10006 21050 51027,M
ELY,2021-03-26 17:53,-114.8453,39.2950,1909.00,34.00,21.90,60.83,M,M,0.00,30.00,1015.90,10.00,M,OVC,M,M,M,4700.00,M,M,M,M,M,M,M,M,M,M,M,KELY 261753Z AUTO 10SM OVC047 01/M06 A3000 RMK AO2 SLP159 T00111056 10017 21044 53026,M
BAM,2021-03-26 17:55,-116.8743,40.5990,1382.36,37.40,26.60,64.70,0.00,0.00,0.00,30.14,M,10.00,M,OVC,M,M,M,3300.00,M,M,M,M,M,M,M,M,M,M,37.40,KBAM 261755Z AUTO 00000KT 10SM OVC033 03/M03 A3014 RMK AO1,M
05U,2021-03-26 17:55,-116.0051,39.6042,1811.23,33.80,21.20,59.53,360.00,11.00,0.00,30.09,M,10.00,M,BKN,OVC,M,M,2600.00,3100.00,M,M,M,M,M,M,M,M,M,24.74,K05U 261755Z AUTO 36011KT 10SM BKN026 OVC031 01/M06 A3009 RMK A01,M
RTS,2021-03-26 17:55,-119.8764,39.6682,1539.00,39.20,19.40,44.55,100.00,8.00,0.00,30.15,M,10.00,14.00,CLR,M,M,M,M,M,M,M,M,M,M,M,M,M,M,32.98,KRTS 261755Z AUTO 10008G14KT 070V130 10SM CLR 04/M07 A3015 RMK AO2,M
BVU,2021-03-26 17:55,-114.8611,35.9475,671.00,59.00,23.00,24.76,20.00,13.00,0.00,29.94,M,10.00,19.00,CLR,M,M,M,M,M,M,M,M,M,M,M,M,M,M,59.00,KBVU 261755Z AUTO 02013G19KT 10SM CLR 15/M05 A2994 RMK AO2,M
CXP,2021-03-26 17:55,-119.7326,39.1923,1431.00,44.60,19.40,36.18,70.00,8.00,0.00,30.15,M,10.00,14.00,CLR,M,M,M,M,M,M,M,M,M,M,M,M,M,M,39.63,KCXP 261755Z AUTO 07008G14KT 030V100 10SM CLR 07/M07 A3015 RMK AO2,M
RNO,2021-03-26 17:55,-119.7711,39.4839,1341.00,44.00,19.00,36.25,110.00,8.00,0.00,30.15,1020.40,10.00,M,FEW,M,M,M,6000.00,M,M,M,M,M,M,M,M,M,M,39.02,KRNO 261755Z 11008KT 070V130 10SM FEW060 07/M07 A3015 RMK AO2 SLP204 T00671072 10067 21033 51019,M
TMT,2021-03-26 17:55,-117.1971,39.4643,1749.34,M,M,M,360.00,4.00,0.00,30.12,M,10.00,M,M,M,M,M,M,M,M,M,M,M,M,M,M,M,M,M,KTMT 261755Z AUTO 36004KT 10SM A3012 RMK AO2 6////,M
HTH,2021-03-26 17:55,-118.6315,38.5448,1282.89,42.80,23.00,45.14,350.00,9.00,0.00,30.16,M,10.00,M,CLR,M,M,M,M,M,M,M,M,M,M,M,M,M,M,36.94,KHTH 261755Z AUTO 35009KT 10SM CLR 06/M05 A3016 RMK A01,M
MEV,2021-03-26 17:55,-119.7500,38.9963,1441.42,42.80,21.20,41.84,50.00,3.00,0.00,30.13,M,10.00,M,CLR,M,M,M,M,M,M,M,M,M,M,M,M,M,M,41.03,KMEV 261755Z AUTO 05003KT 10SM CLR 06/M06 A3013 RMK AO2,M
TPH,2021-03-26 17:56,-117.0904,38.0505,1654.00,44.00,16.00,31.85,350.00,15.00,0.00,30.04,1016.80,10.00,25.00,CLR,M,M,M,M,M,M,M,M,M,M,M,27.00,350.00,2021-03-26 17:41,36.47,KTPH 261756Z AUTO 35015G25KT 10SM CLR 07/M09 A3004 RMK AO2 PK WND 35027/1741 SLP168 T00671089 10067 21033 51022,M
NFL,2021-03-26 17:56,-118.7010,39.4166,1199.00,45.00,25.00,45.12,20.00,6.00,0.00,30.15,1017.60,10.00,M,SCT,M,M,M,8000.00,M,M,M,M,M,M,M,M,M,M,41.19,KNFL 261756Z 02006KT 10SM SCT080 07/M04 A3015 RMK AO2 SLP176 T00721039 10072 21050 51023,M
WMC,2021-03-26 17:56,-117.8072,40.9019,1315.00,42.00,23.00,46.37,M,4.00,0.00,30.14,1021.10,10.00,M,CLR,M,M,M,M,M,M,M,M,M,M,M,M,M,M,39.21,KWMC 261756Z AUTO VRB04KT 10SM CLR 06/M05 A3014 RMK AO2 SLP211 T00561050 10056 21039 51023,M
HND,2021-03-26 17:56,-115.1344,35.9729,742.79,56.00,23.00,27.69,30.00,10.00,0.00,29.96,1015.50,10.00,18.00,SCT,M,M,M,7000.00,M,M,M,M,M,M,M,M,M,M,55.90,KHND 261756Z 03010G18KT 10SM SCT070 13/M05 A2996 RMK AO2 SLP155 T01331050 10144 20078 51024,M
LAS,2021-03-26 17:56,-115.1634,36.0719,663.00,58.00,21.90,24.59,320.00,12.00,0.00,29.94,1013.00,10.00,19.00,FEW,SCT,M,M,9000.00,12000.00,M,M,M,M,M,M,M,M,M,57.90,KLAS 261756Z 32012G19KT 10SM FEW090 SCT120 14/M06 A2994 RMK AO2 SLP130 T01441056 10150 20100 51024,M
EKO,2021-03-26 17:56,-115.7860,40.8242,1367.00,40.00,19.90,44.29,220.00,5.00,0.00,30.06,1018.70,10.00,M,OVC,M,M,M,4300.00,M,M,M,M,M,M,M,M,M,M,35.78,KEKO 261756Z AUTO 22005KT 10SM OVC043 04/M07 A3006 RMK AO2 SLP187 T00441067 10044 20000 51021,M
INS,2021-03-26 17:58,-115.6733,36.5872,955.00,52.50,18.70,26.12,150.00,3.00,0.00,29.96,1012.90,10.00,M,CLR,M,M,M,M,M,M,M,M,M,M,M,M,M,M,52.50,KINS 261758Z AUTO 15003KT 10SM CLR 11/M07 A2996 RMK AO2 SLP129 T01141074 10114 20055 52024 $,M
LSV,2021-03-26 17:58,-115.0343,36.2362,570.00,59.20,25.20,26.96,50.00,11.00,0.00,29.93,1012.80,10.00,17.00,CLR,M,M,M,M,M,M,M,M,M,M,M,M,M,M,59.20,KLSV 261758Z AUTO 05011G17KT 10SM CLR 15/M04 A2993 RMK AO2 SLP128 T01511038 10151 20095 52023 $,M
MEV,2021-03-26 18:15,-119.7500,38.9963,1441.42,42.80,21.20,41.84,0.00,0.00,0.00,30.14,M,10.00,M,CLR,M,M,M,M,M,M,M,M,M,M,M,M,M,M,42.80,KMEV 261815Z AUTO 00000KT 10SM CLR 06/M06 A3014 RMK AO2,M
BAM,2021-03-26 18:15,-116.8743,40.5990,1382.36,37.40,26.60,64.70,0.00,0.00,0.00,30.15,M,10.00,M,OVC,M,M,M,3100.00,M,M,M,M,M,M,M,M,M,M,37.40,KBAM 261815Z AUTO 00000KT 10SM OVC031 03/M03 A3015 RMK AO1,M
TMT,2021-03-26 18:15,-117.1971,39.4643,1749.34,36.30,25.00,63.23,10.00,5.00,0.00,30.13,M,M,M,M,M,M,M,M,M,M,M,M,M,M,M,M,M,M,31.50,KTMT 261815Z AUTO 01005KT 02/M04 A3013 RMK AO2 T00241039 PWINO,M
CXP,2021-03-26 18:15,-119.7326,39.1923,1431.00,46.40,17.60,31.28,60.00,7.00,0.00,30.15,M,10.00,18.00,CLR,M,M,M,M,M,M,M,M,M,M,M,M,M,M,42.33,KCXP 261815Z AUTO 06007G18KT 020V100 10SM CLR 08/M08 A3015 RMK AO2,M
RTS,2021-03-26 18:15,-119.8764,39.6682,1539.00,41.00,17.60,38.45,70.00,9.00,0.00,30.15,M,10.00,16.00,CLR,M,M,M,M,M,M,M,M,M,M,M,M,M,M,34.70,KRTS 261815Z AUTO 07009G16KT 10SM CLR 05/M08 A3015 RMK AO2,M
05U,2021-03-26 18:15,-116.0051,39.6042,1811.23,33.80,21.20,59.53,360.00,5.00,0.00,30.10,M,10.00,11.00,OVC,M,M,M,2800.00,M,M,M,M,M,M,M,M,M,M,28.53,K05U 261815Z AUTO 36005G11KT 10SM OVC028 01/M06 A3010 RMK A01,M
BVU,2021-03-26 18:15,-114.8611,35.9475,671.00,59.00,24.80,26.70,10.00,14.00,0.00,29.94,M,10.00,M,CLR,M,M,M,M,M,M,M,M,M,M,M,M,M,M,59.00,KBVU 261815Z AUTO 01014KT 10SM CLR 15/M04 A2994 RMK AO2,M
HTH,2021-03-26 18:15,-118.6315,38.5448,1282.89,42.80,23.00,45.14,330.00,7.00,0.00,30.16,M,10.00,14.00,CLR,M,M,M,M,M,M,M,M,M,M,M,M,M,M,37.94,KHTH 261815Z AUTO 33007G14KT 290V360 10SM CLR 06/M05 A3016 RMK A01,M
HTH,2021-03-26 18:35,-118.6315,38.5448,1282.89,44.60,21.20,39.06,350.00,9.00,0.00,30.17,M,10.00,M,FEW,M,M,M,5500.00,M,M,M,M,M,M,M,M,M,M,39.18,KHTH 261835Z AUTO 35009KT 10SM FEW055 07/M06 A3017 RMK A01,M
BVU,2021-03-26 18:35,-114.8611,35.9475,671.00,59.00,24.80,26.70,350.00,7.00,0.00,29.95,M,10.00,22.00,SCT,SCT,M,M,7000.00,8000.00,M,M,M,M,M,M,M,M,M,59.00,KBVU 261835Z AUTO 35007G22KT 300V070 10SM SCT070 SCT080 15/M04 A2995 RMK AO2,M
MEV,2021-03-26 18:35,-119.7500,38.9963,1441.42,44.60,21.20,39.06,0.00,0.00,0.00,30.14,M,5.00,M,CLR,M,M,M,M,M,M,M,HZ,M,M,M,M,M,M,44.60,KMEV 261835Z AUTO 00000KT 5SM HZ CLR 07/M06 A3014 RMK AO2,M
CXP,2021-03-26 18:35,-119.7326,39.1923,1431.00,46.40,17.60,31.28,80.00,12.00,0.00,30.16,M,10.00,M,CLR,M,M,M,M,M,M,M,M,M,M,M,M,M,M,40.33,KCXP 261835Z AUTO 08012KT 10SM CLR 08/M08 A3016 RMK AO2,M
RTS,2021-03-26 18:35,-119.8764,39.6682,1539.00,41.00,17.60,38.45,100.00,12.00,0.00,30.15,M,10.00,18.00,CLR,M,M,M,M,M,M,M,M,M,M,M,M,M,M,33.46,KRTS 261835Z AUTO 10012G18KT 10SM CLR 05/M08 A3015 RMK AO2,M
BAM,2021-03-26 18:35,-116.8743,40.5990,1382.36,37.40,28.40,69.67,0.00,0.00,0.00,30.14,M,10.00,M,BKN,OVC,M,M,3300.00,4000.00,M,M,M,M,M,M,M,M,M,37.40,KBAM 261835Z AUTO 00000KT 10SM BKN033 OVC040 03/M02 A3014 RMK AO1,M
05U,2021-03-26 18:35,-116.0051,39.6042,1811.23,33.80,21.20,59.53,10.00,9.00,0.00,30.10,M,10.00,M,OVC,M,M,M,2900.00,M,M,M,M,M,M,M,M,M,M,25.75,K05U 261835Z AUTO 01009KT 10SM OVC029 01/M06 A3010 RMK A01,M
TMT,2021-03-26 18:35,-117.1971,39.4643,1749.34,36.70,23.90,59.44,20.00,7.00,0.00,30.13,M,10.00,M,M,M,M,M,M,M,M,M,M,M,M,M,M,M,M,30.51,KTMT 261835Z AUTO 02007KT 10SM 03/M04 A3013 RMK AO2 T00261045,M
LOL,2021-03-26 18:53,-118.5701,40.0684,1192.43,47.00,23.00,38.62,60.00,5.00,0.00,30.15,1021.70,10.00,M,FEW,M,M,M,4500.00,M,M,M,M,M,M,M,M,M,M,44.09,KLOL 261853Z AUTO 06005KT 10SM FEW045 08/M05 A3015 RMK AO2 SLP217 T00831050,M
ELY,2021-03-26 18:53,-114.8453,39.2950,1909.00,39.00,23.00,52.30,M,M,0.00,30.01,1015.50,10.00,M,SCT,M,M,M,4600.00,M,M,M,M,M,M,M,M,M,M,M,KELY 261853Z AUTO 10SM SCT046 04/M05 A3001 RMK AO2 SLP155 T00391050 $,M
DRA,2021-03-26 18:53,-116.0278,36.6206,1009.00,56.00,17.10,21.53,360.00,14.00,0.00,29.98,1013.40,10.00,22.00,CLR,M,M,M,M,M,M,M,M,M,M,M,M,M,M,55.90,KDRA 261853Z AUTO 36014G22KT 10SM CLR 13/M08 A2998 RMK AO2 SLP134 T01331083,M
P68,2021-03-26 18:53,-116.0056,39.6014,1993.00,34.00,21.90,60.83,350.00,10.00,0.00,30.08,1018.90,M,M,M,M,M,M,M,M,M,M,M,M,M,M,M,M,M,25.48,KP68 261853Z AUTO 35010KT 01/M06 A3008 RMK AO1 SLP189 T00111056,M
VGT,2021-03-26 18:53,-115.1933,36.2111,667.00,61.00,19.90,20.23,320.00,14.00,0.00,29.91,1013.80,10.00,22.00,FEW,M,M,M,9500.00,M,M,M,M,M,M,M,26.00,310.00,2021-03-26 18:32,61.00,KVGT 261853Z 32014G22KT 10SM FEW095 16/M07 A2991 RMK AO2 PK WND 31026/1832 SLP138 T01611067,M
TMT,2021-03-26 18:55,-117.1971,39.4643,1749.34,36.50,21.60,54.39,50.00,6.00,0.00,30.14,M,10.00,M,M,M,M,M,M,M,M,M,M,M,M,M,M,M,M,30.95,KTMT 261855Z AUTO 05006KT 10SM 03/M06 A3014 RMK AO2 T00251058,M
BAM,2021-03-26 18:55,-116.8743,40.5990,1382.36,39.20,28.40,64.93,0.00,0.00,0.00,30.14,M,10.00,M,BKN,OVC,M,M,3600.00,4200.00,M,M,M,M,M,M,M,M,M,39.20,KBAM 261855Z AUTO 00000KT 10SM BKN036 OVC042 04/M02 A3014 RMK AO1,M
BVU,2021-03-26 18:55,-114.8611,35.9475,671.00,57.20,24.80,28.48,330.00,10.00,0.00,29.95,M,10.00,18.00,BKN,BKN,M,M,7000.00,8000.00,M,M,M,M,M,M,M,M,M,57.20,KBVU 261855Z AUTO 33010G18KT 10SM BKN070 BKN080 14/M04 A2995 RMK AO2,M
CXP,2021-03-26 18:55,-119.7326,39.1923,1431.00,48.20,17.60,29.23,80.00,11.00,0.00,30.16,M,10.00,M,CLR,M,M,M,M,M,M,M,M,M,M,M,M,M,M,42.94,KCXP 261855Z AUTO 08011KT 10SM CLR 09/M08 A3016 RMK AO2,M
RTS,2021-03-26 18:55,-119.8764,39.6682,1539.00,42.80,15.80,33.18,110.00,10.00,0.00,30.15,M,10.00,M,CLR,M,M,M,M,M,M,M,M,M,M,M,M,M,M,36.51,KRTS 261855Z AUTO 11010KT 080V140 10SM CLR 06/M09 A3015 RMK AO2,M
05U,2021-03-26 18:55,-116.0051,39.6042,1811.23,35.60,21.20,55.41,360.00,7.00,0.00,30.11,M,10.00,13.00,OVC,M,M,M,2900.00,M,M,M,M,M,M,M,M,M,M,29.17,K05U 261855Z AUTO 36007G13KT 10SM OVC029 02/M06 A3011 RMK A01,M
MEV,2021-03-26 18:55,-119.7500,38.9963,1441.42,44.60,19.40,36.18,180.00,7.00,0.00,30.14,M,10.00,M,CLR,M,M,M,M,M,M,M,M,M,M,M,M,M,M,40.14,KMEV 261855Z AUTO 18007KT 10SM CLR 07/M07 A3014 RMK AO2,M
HTH,2021-03-26 18:55,-118.6315,38.5448,1282.89,44.60,19.40,36.18,340.00,12.00,0.00,30.17,M,10.00,M,CLR,M,M,M,M,M,M,M,M,M,M,M,M,M,M,38.04,KHTH 261855Z AUTO 34012KT 10SM CLR 07/M07 A3017 RMK A01,M
RNO,2021-03-26 18:55,-119.7711,39.4839,1341.00,46.00,18.00,32.30,80.00,7.00,0.00,30.15,1020.50,10.00,M,FEW,M,M,M,6000.00,M,M,M,M,M,M,M,M,M,M,41.84,KRNO 261855Z 08007KT 020V120 10SM FEW060 08/M08 A3015 RMK AO2 SLP205 T00781078,M
HND,2021-03-26 18:56,-115.1344,35.9729,742.79,57.00,21.90,25.40,360.00,9.00,0.00,29.97,1015.90,10.00,M,SCT,M,M,M,7500.00,M,M,M,M,M,M,M,M,M,M,57.00,KHND 261856Z 36009KT 10SM SCT075 14/M06 A2997 RMK AO2 SLP159 T01391056,M
WMC,2021-03-26 18:56,-117.8072,40.9019,1315.00,44.00,21.00,39.47,M,4.00,0.00,30.14,1020.90,10.00,M,CLR,M,M,M,M,M,M,M,M,M,M,M,M,M,M,41.55,KWMC 261856Z AUTO VRB04KT 10SM CLR 07/M06 A3014 RMK AO2 SLP209 T00671061,M
EKO,2021-03-26 18:56,-115.7860,40.8242,1367.00,41.00,19.00,40.83,0.00,0.00,0.00,30.07,1018.70,10.00,M,OVC,M,M,M,4500.00,M,M,M,M,M,M,M,M,M,M,41.00,KEKO 261856Z AUTO 00000KT 10SM OVC045 05/M07 A3007 RMK AO2 SLP187 T00501072,M
TPH,2021-03-26 18:56,-117.0904,38.0505,1654.00,47.00,15.10,27.54,350.00,12.00,0.00,30.05,1017.00,10.00,23.00,CLR,M,M,M,M,M,M,M,M,M,M,M,29.00,40.00,2021-03-26 18:13,40.97,KTPH 261856Z AUTO 35012G23KT 10SM CLR 08/M09 A3005 RMK AO2 PK WND 04029/1813 SLP170 T00831094,M
NFL,2021-03-26 18:56,-118.7010,39.4166,1199.00,46.00,24.10,41.84,330.00,8.00,0.00,30.16,1017.80,10.00,M,FEW,SCT,M,M,4500.00,8000.00,M,M,M,M,M,M,M,M,M,41.36,KNFL 261856Z 33008KT 10SM FEW045 SCT080 08/M04 A3016 RMK AO2 SLP178 T00781044,M
LAS,2021-03-26 18:56,-115.1634,36.0719,663.00,60.00,21.00,21.88,320.00,11.00,0.00,29.95,1013.50,10.00,22.00,FEW,SCT,M,M,9000.00,12000.00,M,M,M,M,M,M,M,M,M,60.10,KLAS 261856Z 32011G22KT 10SM FEW090 SCT120 16/M06 A2995 RMK AO2 SLP135 T01561061,M
LSV,2021-03-26 18:58,-115.0343,36.2362,570.00,61.20,24.10,23.98,40.00,16.00,0.00,29.94,1013.00,10.00,M,CLR,M,M,M,M,M,M,M,M,M,M,M,M,M,M,61.20,KLSV 261858Z AUTO 04016KT 10SM CLR 16/M04 A2994 RMK AO2 SLP130 T01621044 $,M
INS,2021-03-26 18:58,-115.6733,36.5872,955.00,54.30,15.30,21.11,350.00,6.00,0.00,29.96,1012.90,10.00,M,FEW,FEW,M,M,8500.00,20000.00,M,M,M,M,M,M,M,M,M,54.30,KINS 261858Z AUTO 35006KT 10SM FEW085 FEW200 12/M09 A2996 RMK AO2 SLP129 T01241093 $,M
CXP,2021-03-26 19:10,-119.7326,39.1923,1431.00,48.20,14.00,24.99,60.00,11.00,0.00,30.16,M,10.00,17.00,CLR,M,M,M,M,M,M,M,M,M,M,M,M,M,M,42.94,KCXP 261910Z AUTO 06011G17KT 10SM CLR 09/M10 A3016 RMK AO2,M
RTS,2021-03-26 19:15,-119.8764,39.6682,1539.00,42.80,15.80,33.18,110.00,10.00,0.00,30.15,M,10.00,M,CLR,M,M,M,M,M,M,M,M,M,M,M,M,M,M,36.51,KRTS 261915Z AUTO 11010KT 050V140 10SM CLR 06/M09 A3015 RMK AO2,M
BAM,2021-03-26 19:15,-116.8743,40.5990,1382.36,42.80,28.40,56.48,20.00,6.00,0.00,30.14,M,10.00,M,SCT,OVC,M,M,3400.00,4100.00,M,M,M,M,M,M,M,M,M,38.54,KBAM 261915Z AUTO 02006KT 10SM SCT034 OVC041 06/M02 A3014 RMK AO1,M
BVU,2021-03-26 19:15,-114.8611,35.9475,671.00,59.00,24.80,26.70,40.00,5.00,0.00,29.95,M,10.00,12.00,FEW,SCT,M,M,7000.00,8000.00,M,M,M,M,M,M,M,M,M,59.00,KBVU 261915Z AUTO 04005G12KT 10SM FEW070 SCT080 15/M04 A2995 RMK AO2,M
05U,2021-03-26 19:15,-116.0051,39.6042,1811.23,35.60,19.40,51.33,340.00,12.00,0.00,30.11,M,10.00,M,OVC,M,M,M,3200.00,M,M,M,M,M,M,M,M,M,M,26.58,K05U 261915Z AUTO 34012KT 10SM OVC032 02/M07 A3011 RMK A01,M
MEV,2021-03-26 19:15,-119.7500,38.9963,1441.42,46.40,19.40,33.79,0.00,0.00,0.00,30.14,M,10.00,11.00,CLR,M,M,M,M,M,M,M,M,M,M,M,M,M,M,46.40,KMEV 261915Z AUTO 00000G11KT 10SM CLR 08/M07 A3014 RMK AO2,M
TMT,2021-03-26 19:15,-117.1971,39.4643,1749.34,38.00,23.50,55.76,10.00,8.00,0.00,30.14,M,10.00,M,M,M,M,M,M,M,M,M,M,M,M,M,M,M,M,31.38,KTMT 261915Z AUTO 01008KT 10SM 03/M05 A3014 RMK AO2 T00331047,M
HTH,2021-03-26 19:15,-118.6315,38.5448,1282.89,44.60,17.60,33.49,340.00,10.00,0.00,30.17,M,10.00,M,CLR,M,M,M,M,M,M,M,M,M,M,M,M,M,M,38.77,KHTH 261915Z AUTO 34010KT 10SM CLR 07/M08 A3017 RMK A01,M
BVU,2021-03-26 19:35,-114.8611,35.9475,671.00,60.80,23.00,23.23,10.00,13.00,0.00,29.95,M,10.00,M,SCT,BKN,M,M,7000.00,9000.00,M,M,M,M,M,M,M,M,M,60.80,KBVU 261935Z AUTO 01013KT 10SM SCT070 BKN090 16/M05 A2995 RMK AO2,M
CXP,2021-03-26 19:35,-119.7326,39.1923,1431.00,48.20,14.00,24.99,80.00,9.00,0.00,30.16,M,10.00,M,CLR,M,M,M,M,M,M,M,M,M,M,M,M,M,M,43.66,KCXP 261935Z AUTO 08009KT 10SM CLR 09/M10 A3016 RMK AO2,M
05U,2021-03-26 19:35,-116.0051,39.6042,1811.23,37.40,21.20,51.61,340.00,11.00,0.00,30.12,M,10.00,M,BKN,OVC,M,M,3000.00,3500.00,M,M,M,M,M,M,M,M,M,29.29,K05U 261935Z AUTO 34011KT 10SM BKN030 OVC035 03/M06 A3012 RMK A01,M
BAM,2021-03-26 19:35,-116.8743,40.5990,1382.36,42.80,30.20,60.79,30.00,6.00,0.00,30.14,M,10.00,M,OVC,M,M,M,4300.00,M,M,M,M,M,M,M,M,M,M,38.54,KBAM 261935Z AUTO 03006KT 10SM OVC043 06/M01 A3014 RMK AO1,M
TMT,2021-03-26 19:35,-117.1971,39.4643,1749.34,38.00,22.50,53.05,0.00,0.00,0.00,30.14,M,10.00,M,M,M,M,M,M,M,M,M,M,M,M,M,M,M,M,38.10,KTMT 261935Z AUTO 00000KT 10SM 03/M05 A3014 RMK AO2 T00341053,M
MEV,2021-03-26 19:35,-119.7500,38.9963,1441.42,46.40,19.40,33.79,0.00,0.00,0.00,30.14,M,9.00,M,CLR,M,M,M,M,M,M,M,M,M,M,M,M,M,M,46.40,KMEV 261935Z AUTO 00000KT 9SM CLR 08/M07 A3014 RMK AO2,M
HTH,2021-03-26 19:35,-118.6315,38.5448,1282.89,46.40,17.60,31.28,330.00,9.00,0.00,30.17,M,10.00,14.00,CLR,M,M,M,M,M,M,M,M,M,M,M,M,M,M,41.42,KHTH 261935Z AUTO 33009G14KT 10SM CLR 08/M08 A3017 RMK A01,M
RTS,2021-03-26 19:35,-119.8764,39.6682,1539.00,42.80,15.80,33.18,M,4.00,0.00,30.15,M,10.00,12.00,CLR,M,M,M,M,M,M,M,M,M,M,M,M,M,M,40.03,KRTS 261935Z AUTO VRB04G12KT 10SM CLR 06/M09 A3015 RMK AO2,M
DRA,2021-03-26 19:53,-116.0278,36.6206,1009.00,59.00,16.00,18.36,20.00,9.00,0.00,29.98,1013.00,10.00,20.00,FEW,M,M,M,8000.00,M,M,M,M,M,M,M,30.00,10.00,2021-03-26 18:55,59.00,KDRA 261953Z AUTO 02009G20KT 10SM FEW080 15/M09 A2998 RMK AO2 PK WND 01030/1855 SLP130 T01501089,M
VGT,2021-03-26 19:53,-115.1933,36.2111,667.00,64.00,19.00,17.51,300.00,19.00,0.00,29.91,1013.80,10.00,24.00,BKN,M,M,M,10000.00,M,M,M,M,M,M,M,27.00,330.00,2021-03-26 19:41,64.00,KVGT 261953Z 30019G24KT 10SM BKN100 18/M07 A2991 RMK AO2 PK WND 33027/1941 SLP138 T01781072,M
P68,2021-03-26 19:53,-116.0056,39.6014,1993.00,35.00,21.90,58.22,330.00,10.00,0.00,30.10,1019.90,M,M,M,M,M,M,M,M,M,M,M,M,M,M,M,M,M,26.86,KP68 261953Z AUTO 33010KT 02/M06 A3010 RMK AO1 SLP199 T00171056,M
ELY,2021-03-26 19:53,-114.8453,39.2950,1909.00,39.00,23.00,52.30,10.00,16.00,0.00,30.02,1016.10,10.00,21.00,BKN,M,M,M,5000.00,M,M,M,M,M,M,M,M,M,M,29.54,KELY 261953Z AUTO 01016G21KT 10SM BKN050 04/M05 A3002 RMK AO2 SLP161 T00391050,M
LOL,2021-03-26 19:53,-118.5701,40.0684,1192.43,49.00,21.00,32.93,M,M,0.00,30.15,1021.50,10.00,M,CLR,M,M,M,M,M,M,M,M,M,M,M,M,M,M,M,KLOL 261953Z AUTO 10SM CLR 09/M06 A3015 RMK AO2 SLP215 T00941061,M
BVU,2021-03-26 19:55,-114.8611,35.9475,671.00,59.00,23.00,24.76,20.00,8.00,0.00,29.96,M,10.00,16.00,SCT,OVC,M,M,7500.00,9000.00,M,M,M,M,M,M,M,M,M,59.00,KBVU 261955Z AUTO 02008G16KT 10SM SCT075 OVC090 15/M05 A2996 RMK AO2,M
TMT,2021-03-26 19:55,-117.1971,39.4643,1749.34,38.00,24.60,57.93,70.00,8.00,0.00,30.15,M,10.00,M,M,M,M,M,M,M,M,M,M,M,M,M,M,M,M,31.63,KTMT 261955Z AUTO 07008KT 10SM 03/M04 A3015 RMK AO2 T00341041,M
RTS,2021-03-26 19:55,-119.8764,39.6682,1539.00,44.60,17.60,33.49,100.00,9.00,0.00,30.15,M,10.00,M,CLR,M,M,M,M,M,M,M,M,M,M,M,M,M,M,39.18,KRTS 261955Z AUTO 10009KT 10SM CLR 07/M08 A3015 RMK AO2,M
HTH,2021-03-26 19:55,-118.6315,38.5448,1282.89,46.40,17.60,31.28,330.00,8.00,0.00,30.17,M,10.00,M,CLR,M,M,M,M,M,M,M,M,M,M,M,M,M,M,41.85,KHTH 261955Z AUTO 33008KT 10SM CLR 08/M08 A3017 RMK A01,M
BAM,2021-03-26 19:55,-116.8743,40.5990,1382.36,42.80,28.40,56.48,20.00,4.00,0.00,30.15,M,10.00,M,OVC,M,M,M,4300.00,M,M,M,M,M,M,M,M,M,M,40.03,KBAM 261955Z AUTO 02004KT 10SM OVC043 06/M02 A3015 RMK AO1,M
MEV,2021-03-26 19:55,-119.7500,38.9963,1441.42,48.20,19.40,31.57,140.00,7.00,0.00,30.14,M,10.00,M,CLR,M,M,M,M,M,M,M,M,M,M,M,M,M,M,44.53,KMEV 261955Z AUTO 14007KT 10SM CLR 09/M07 A3014 RMK AO2,M
05U,2021-03-26 19:55,-116.0051,39.6042,1811.23,37.40,19.40,47.80,330.00,10.00,0.00,30.13,M,10.00,M,OVC,M,M,M,3400.00,M,M,M,M,M,M,M,M,M,M,29.74,K05U 261955Z AUTO 33010KT 10SM OVC034 03/M07 A3013 RMK A01,M
RNO,2021-03-26 19:55,-119.7711,39.4839,1341.00,48.00,12.90,23.99,50.00,7.00,0.00,30.15,1020.20,10.00,M,FEW,M,M,M,6000.00,M,M,M,M,M,M,M,M,M,M,44.28,KRNO 261955Z 05007KT 10SM FEW060 09/M11 A3015 RMK AO2 SLP202 T00891106,M
CXP,2021-03-26 19:55,-119.7326,39.1923,1431.00,50.00,12.20,21.59,70.00,11.00,0.00,30.16,M,10.00,M,CLR,M,M,M,M,M,M,M,M,M,M,M,M,M,M,50.00,KCXP 261955Z AUTO 07011KT 10SM CLR 10/M11 A3016 RMK AO2,M
HND,2021-03-26 19:56,-115.1344,35.9729,742.79,60.00,21.90,22.73,20.00,8.00,0.00,29.98,1016.10,10.00,M,CLR,M,M,M,M,M,M,M,M,M,M,M,M,M,M,60.10,KHND 261956Z 02008KT 10SM CLR 16/M06 A2998 RMK AO2 SLP161 T01561056,M
LAS,2021-03-26 19:56,-115.1634,36.0719,663.00,60.00,19.90,20.88,M,6.00,0.00,29.96,1013.90,10.00,16.00,SCT,M,M,M,12000.00,M,M,M,M,M,M,M,M,M,M,60.10,KLAS 261956Z VRB06G16KT 10SM SCT120 16/M07 A2996 RMK AO2 SLP139 T01561067,M
EKO,2021-03-26 19:56,-115.7860,40.8242,1367.00,44.00,18.00,34.72,M,M,0.00,30.07,1018.80,10.00,M,BKN,M,M,M,6000.00,M,M,M,M,M,M,M,M,M,M,M,KEKO 261956Z AUTO 10SM BKN060 07/M08 A3007 RMK AO2 SLP188 T00671078,M
NFL,2021-03-26 19:56,-118.7010,39.4166,1199.00,49.00,23.00,35.83,20.00,4.00,0.00,30.16,1017.70,10.00,M,FEW,SCT,M,M,5000.00,8000.00,M,M,M,M,M,M,M,M,M,47.16,KNFL 261956Z 02004KT 10SM FEW050 SCT080 09/M05 A3016 RMK AO2 SLP177 T00941050,M
TPH,2021-03-26 19:56,-117.0904,38.0505,1654.00,49.00,14.00,24.35,10.00,10.00,0.00,30.05,1017.30,10.00,20.00,CLR,M,M,M,M,M,M,M,M,M,M,M,M,M,M,44.16,KTPH 261956Z AUTO 01010G20KT 10SM CLR 09/M10 A3005 RMK AO2 SLP173 T00941100,M
WMC,2021-03-26 19:56,-117.8072,40.9019,1315.00,48.00,21.00,34.05,M,6.00,0.00,30.13,1020.40,10.00,M,CLR,M,M,M,M,M,M,M,M,M,M,M,M,M,M,44.80,KWMC 261956Z AUTO VRB06KT 10SM CLR 09/M06 A3013 RMK AO2 SLP204 T00891061,M
INS,2021-03-26 19:58,-115.6733,36.5872,955.00,56.50,14.70,18.98,0.00,0.00,0.00,29.96,1012.70,10.00,M,FEW,FEW,M,M,8500.00,19000.00,M,M,M,M,M,M,M,M,M,56.50,KINS 261958Z AUTO 00000KT 10SM FEW085 FEW190 14/M10 A2996 RMK AO2 SLP127 T01361096 $,M
LSV,2021-03-26 19:58,-115.0343,36.2362,570.00,62.40,20.80,20.00,50.00,8.00,0.00,29.95,1013.40,10.00,16.00,CLR,M,M,M,M,M,M,M,M,M,M,M,M,M,M,62.40,KLSV 261958Z AUTO 05008G16KT 10SM CLR 17/M06 A2995 RMK AO2 SLP134 T01691062 $,M
LAS,2021-03-26 20:01,-115.1634,36.0719,663.00,61.00,19.90,20.23,30.00,8.00,0.00,29.97,M,10.00,M,SCT,M,M,M,10000.00,M,M,M,M,M,M,M,M,M,M,61.00,KLAS 262001Z 03008KT 10SM SCT100 16/M07 A2997 RMK AO2 T01611067,M
CXP,2021-03-26 20:10,-119.7326,39.1923,1431.00,50.00,14.00,23.37,M,4.00,0.00,30.16,M,10.00,14.00,CLR,M,M,M,M,M,M,M,M,M,M,M,M,M,M,50.00,KCXP 262010Z AUTO VRB04G14KT 10SM CLR 10/M10 A3016 RMK AO2,M
05U,2021-03-26 20:15,-116.0051,39.6042,1811.23,37.40,19.40,47.80,10.00,8.00,0.00,30.13,M,10.00,M,BKN,OVC,M,M,3400.00,3900.00,M,M,M,M,M,M,M,M,M,30.76,K05U 262015Z AUTO 01008KT 10SM BKN034 OVC039 03/M07 A3013 RMK A01,M
HTH,2021-03-26 20:15,-118.6315,38.5448,1282.89,46.40,15.80,28.93,360.00,7.00,0.00,30.17,M,10.00,M,CLR,M,M,M,M,M,M,M,M,M,M,M,M,M,M,42.33,KHTH 262015Z AUTO 36007KT 10SM CLR 08/M09 A3017 RMK A01,M
TMT,2021-03-26 20:15,-117.1971,39.4643,1749.34,40.60,22.50,48.12,360.00,4.00,0.00,30.15,M,10.00,M,M,M,M,M,M,M,M,M,M,M,M,M,M,M,M,37.46,KTMT 262015Z AUTO 36004KT 10SM 05/M05 A3015 RMK AO2 T00481053,M
BAM,2021-03-26 20:15,-116.8743,40.5990,1382.36,44.60,30.20,56.74,0.00,0.00,0.00,30.14,M,10.00,M,BKN,M,M,M,4500.00,M,M,M,M,M,M,M,M,M,M,44.60,KBAM 262015Z AUTO 00000KT 10SM BKN045 07/M01 A3014 RMK AO1,M
MEV,2021-03-26 20:15,-119.7500,38.9963,1441.42,48.20,17.60,29.23,0.00,0.00,0.00,30.14,M,10.00,10.00,CLR,M,M,M,M,M,M,M,M,M,M,M,M,M,M,48.20,KMEV 262015Z AUTO 00000G10KT 10SM CLR 09/M08 A3014 RMK AO2,M
BVU,2021-03-26 20:15,-114.8611,35.9475,671.00,60.80,23.00,23.23,30.00,10.00,0.00,29.96,M,10.00,16.00,BKN,BKN,M,M,8000.00,9000.00,M,M,M,M,M,M,M,M,M,60.80,KBVU 262015Z AUTO 03010G16KT 340V060 10SM BKN080 BKN090 16/M05 A2996 RMK AO2,M
RTS,2021-03-26 20:15,-119.8764,39.6682,1539.00,44.60,17.60,33.49,140.00,7.00,0.00,30.15,M,10.00,M,CLR,M,M,M,M,M,M,M,M,M,M,M,M,M,M,40.14,KRTS 262015Z AUTO 14007KT 110V180 10SM CLR 07/M08 A3015 RMK AO2,M
TMT,2021-03-26 20:30,-117.1971,39.4643,1749.34,40.00,23.40,50.95,10.00,5.00,0.00,30.15,M,10.00,M,M,M,M,M,M,M,M,M,M,M,M,M,M,M,M,36.01,KTMT 262030Z AUTO 01005KT 10SM 05/M05 A3015 RMK AO2 T00451048,M
05U,2021-03-26 20:35,-116.0051,39.6042,1811.23,37.40,21.20,51.61,340.00,8.00,0.00,30.13,M,10.00,M,OVC,M,M,M,3700.00,M,M,M,M,M,M,M,M,M,M,30.76,K05U 262035Z AUTO 34008KT 10SM OVC037 03/M06 A3013 RMK A01,M
RTS,2021-03-26 20:35,-119.8764,39.6682,1539.00,46.40,17.60,31.28,90.00,8.00,0.00,30.15,M,10.00,14.00,CLR,M,M,M,M,M,M,M,M,M,M,M,M,M,M,41.85,KRTS 262035Z AUTO 09008G14KT 340V130 10SM CLR 08/M08 A3015 RMK AO2,M
HTH,2021-03-26 20:35,-118.6315,38.5448,1282.89,48.20,14.00,24.99,340.00,6.00,0.00,30.17,M,10.00,M,CLR,M,M,M,M,M,M,M,M,M,M,M,M,M,M,45.04,KHTH 262035Z AUTO 34006KT 10SM CLR 09/M10 A3017 RMK A01,M
MEV,2021-03-26 20:35,-119.7500,38.9963,1441.42,50.00,17.60,27.33,0.00,0.00,0.00,30.14,M,10.00,M,CLR,M,M,M,M,M,M,M,M,M,M,M,M,M,M,50.00,KMEV 262035Z AUTO 00000KT 10SM CLR 10/M08 A3014 RMK AO2,M
CXP,2021-03-26 20:35,-119.7326,39.1923,1431.00,50.00,12.20,21.59,80.00,7.00,0.00,30.16,M,10.00,17.00,CLR,M,M,M,M,M,M,M,M,M,M,M,M,M,M,50.00,KCXP 262035Z AUTO 08007G17KT 10SM CLR 10/M11 A3016 RMK AO2,M
BVU,2021-03-26 20:35,-114.8611,35.9475,671.00,60.80,21.20,21.53,340.00,7.00,0.00,29.96,M,10.00,13.00,SCT,SCT,M,M,8000.00,9000.00,M,M,M,M,M,M,M,M,M,60.80,KBVU 262035Z AUTO 34007G13KT 310V020 10SM SCT080 SCT090 16/M06 A2996 RMK AO2,M
BAM,2021-03-26 20:37,-116.8743,40.5990,1382.36,44.60,28.40,52.72,50.00,5.00,0.00,30.14,M,10.00,M,BKN,M,M,M,4300.00,M,M,M,M,M,M,M,M,M,M,41.36,KBAM 262037Z AUTO 05005KT 10SM BKN043 07/M02 A3014 RMK AO1,M
DRA,2021-03-26 20:53,-116.0278,36.6206,1009.00,60.00,15.10,16.98,50.00,11.00,0.00,29.98,1013.10,10.00,16.00,CLR,M,M,M,M,M,M,M,M,M,M,M,M,M,M,60.10,KDRA 262053Z AUTO 05011G16KT 10SM CLR 16/M09 A2998 RMK AO2 SLP131 T01561094 50002,M
LOL,2021-03-26 20:53,-118.5701,40.0684,1192.43,50.00,19.90,30.16,60.00,5.00,0.00,30.14,1021.20,10.00,M,CLR,M,M,M,M,M,M,M,M,M,M,M,M,M,M,50.00,KLOL 262053Z AUTO 06005KT 10SM CLR 10/M07 A3014 RMK AO2 SLP212 T01001067 58004,M
VGT,2021-03-26 20:53,-115.1933,36.2111,667.00,64.00,19.00,17.51,70.00,11.00,0.00,29.91,1013.80,10.00,M,OVC,M,M,M,10000.00,M,M,M,M,M,M,M,M,M,M,64.00,KVGT 262053Z 07011KT 10SM OVC100 18/M07 A2991 RMK AO2 WSHFT 2036 SLP138 T01781072 51004,M
ELY,2021-03-26 20:53,-114.8453,39.2950,1909.00,41.00,21.90,46.19,10.00,10.00,0.00,30.03,1016.10,10.00,20.00,SCT,BKN,M,M,5000.00,6000.00,M,M,M,M,M,M,M,M,M,34.25,KELY 262053Z AUTO 01010G20KT 10SM SCT050 BKN060 05/M06 A3003 RMK AO2 SLP161 T00501056 53009,M
P68,2021-03-26 20:53,-116.0056,39.6014,1993.00,37.00,21.90,54.01,340.00,7.00,0.00,30.11,1019.70,M,M,M,M,M,M,M,M,M,M,M,M,M,M,M,M,M,30.87,KP68 262053Z AUTO 34007KT 03/M06 A3011 RMK AO1 SLP197 T00281056 51014,M
RTS,2021-03-26 20:55,-119.8764,39.6682,1539.00,46.40,15.80,28.93,100.00,7.00,0.00,30.15,M,10.00,M,CLR,M,M,M,M,M,M,M,M,M,M,M,M,M,M,42.33,KRTS 262055Z AUTO 10007KT 050V160 10SM CLR 08/M09 A3015 RMK AO2,M
05U,2021-03-26 20:55,-116.0051,39.6042,1811.23,39.20,19.40,44.55,350.00,5.00,0.01,30.13,M,10.00,13.00,BKN,BKN,M,M,3700.00,4400.00,M,M,M,M,M,M,M,M,M,34.95,K05U 262055Z AUTO 35005G13KT 10SM BKN037 BKN044 04/M07 A3013 RMK A01 P0001,M
RNO,2021-03-26 20:55,-119.7711,39.4839,1341.00,50.00,12.90,22.27,0.00,0.00,0.00,30.13,1019.60,10.00,M,CLR,M,M,M,M,M,M,M,M,M,M,M,M,M,M,50.00,KRNO 262055Z 00000KT 10SM CLR 10/M11 A3013 RMK AO2 SLP196 T01001106 58004,M
MEV,2021-03-26 20:55,-119.7500,38.9963,1441.42,50.00,17.60,27.33,40.00,6.00,0.00,30.13,M,10.00,M,CLR,M,M,M,M,M,M,M,M,M,M,M,M,M,M,50.00,KMEV 262055Z AUTO 04006KT 10SM CLR 10/M08 A3013 RMK AO2,M
CXP,2021-03-26 20:55,-119.7326,39.1923,1431.00,51.80,14.00,21.86,70.00,8.00,0.00,30.16,M,10.00,15.00,CLR,M,M,M,M,M,M,M,M,M,M,M,M,M,M,51.80,KCXP 262055Z AUTO 07008G15KT 050V110 10SM CLR 11/M10 A3016 RMK AO2,M
BVU,2021-03-26 20:55,-114.8611,35.9475,671.00,60.80,21.20,21.53,50.00,10.00,0.00,29.95,M,10.00,M,BKN,BKN,M,M,8500.00,10000.00,M,M,M,M,M,M,M,M,M,60.80,KBVU 262055Z AUTO 05010KT 10SM BKN085 BKN100 16/M06 A2995 RMK AO2,M
TMT,2021-03-26 20:55,-117.1971,39.4643,1749.34,38.70,22.60,52.03,330.00,4.00,0.00,30.15,M,10.00,M,M,M,M,M,M,M,M,M,M,M,M,M,M,M,M,35.24,KTMT 262055Z AUTO 33004KT 10SM 04/M05 A3015 RMK AO2 T00371052,M
BAM,2021-03-26 20:55,-116.8743,40.5990,1382.36,44.60,30.20,56.74,90.00,3.00,0.00,30.15,M,10.00,M,BKN,OVC,M,M,4300.00,5000.00,M,M,M,M,M,M,M,M,M,43.09,KBAM 262055Z AUTO 09003KT 10SM BKN043 OVC050 07/M01 A3015 RMK AO1,M
HTH,2021-03-26 20:55,-118.6315,38.5448,1282.89,48.20,17.60,29.23,290.00,6.00,0.00,30.16,M,10.00,M,CLR,M,M,M,M,M,M,M,M,M,M,M,M,M,M,45.04,KHTH 262055Z AUTO 29006KT 10SM CLR 09/M08 A3016 RMK A01,M
TPH,2021-03-26 20:56,-117.0904,38.0505,1654.00,50.00,12.90,22.27,360.00,20.00,0.00,30.05,1016.90,10.00,25.00,CLR,M,M,M,M,M,M,M,M,M,M,M,26.00,360.00,2021-03-26 20:37,50.00,KTPH 262056Z AUTO 36020G25KT 10SM CLR 10/M11 A3005 RMK AO2 PK WND 36026/2037 SLP169 T01001106 50003,M
EKO,2021-03-26 20:56,-115.7860,40.8242,1367.00,44.00,19.00,36.25,M,5.00,0.00,30.07,1018.60,10.00,M,BKN,M,M,M,5500.00,M,M,M,M,M,M,M,M,M,M,40.77,KEKO 262056Z AUTO VRB05KT 10SM BKN055 07/M07 A3007 RMK AO2 SLP186 T00671072 50003,M
NFL,2021-03-26 20:56,-118.7010,39.4166,1199.00,49.00,21.00,32.93,60.00,6.00,0.00,30.15,1017.50,10.00,M,SCT,SCT,M,M,5000.00,8000.00,M,M,M,M,M,M,M,M,M,45.88,KNFL 262056Z 06006KT 10SM SCT050 SCT080 09/M06 A3015 RMK AO2 SLP175 T00941061 58000,M
LAS,2021-03-26 20:56,-115.1634,36.0719,663.00,62.00,18.00,17.93,350.00,6.00,0.00,29.95,1013.40,10.00,17.00,SCT,M,M,M,9500.00,M,M,M,M,M,M,M,M,M,M,62.10,KLAS 262056Z 35006G17KT 10SM SCT095 17/M08 A2995 RMK AO2 SLP134 T01671078 50003,M
WMC,2021-03-26 20:56,-117.8072,40.9019,1315.00,49.00,21.00,32.93,0.00,0.00,0.00,30.13,1020.40,10.00,M,CLR,M,M,M,M,M,M,M,M,M,M,M,M,M,M,48.90,KWMC 262056Z AUTO 00000KT 10SM CLR 09/M06 A3013 RMK AO2 SLP204 T00941061 58003,M
HND,2021-03-26 20:56,-115.1344,35.9729,742.79,61.00,19.90,20.23,300.00,8.00,0.00,29.97,1016.00,10.00,14.00,SCT,M,M,M,8500.00,M,M,M,M,M,M,M,M,M,M,61.00,KHND 262056Z 30008G14KT 250V360 10SM SCT085 16/M07 A2997 RMK AO2 SLP160 T01611067 50005,M
LSV,2021-03-26 20:58,-115.0343,36.2362,570.00,63.00,20.10,19.01,40.00,6.00,0.00,29.94,1013.10,10.00,M,SCT,M,M,M,10000.00,M,M,M,M,M,M,M,M,M,M,63.00,KLSV 262058Z AUTO 04006KT 10SM SCT100 17/M07 A2994 RMK AO2 SLP131 T01721066 50003 $,M
INS,2021-03-26 20:58,-115.6733,36.5872,955.00,58.30,12.20,15.94,30.00,4.00,0.00,29.96,1012.70,10.00,M,CLR,M,M,M,M,M,M,M,M,M,M,M,M,M,M,58.30,KINS 262058Z AUTO 03004KT 10SM CLR 15/M11 A2996 RMK AO2 SLP127 T01461110 58002 $,M
VGT,2021-03-26 21:00,-115.1933,36.2111,667.00,64.00,19.00,17.51,M,3.00,0.00,29.91,M,10.00,M,OVC,M,M,M,9500.00,M,M,M,M,M,M,M,M,M,M,64.00,KVGT 262100Z VRB03KT 10SM OVC095 18/M07 A2991 RMK AO2 WSHFT 2040 T01781072,M
RTS,2021-03-26 21:15,-119.8764,39.6682,1539.00,48.20,15.80,27.04,M,6.00,0.00,30.15,M,10.00,M,CLR,M,M,M,M,M,M,M,M,M,M,M,M,M,M,45.04,KRTS 262115Z AUTO VRB06KT 10SM CLR 09/M09 A3015 RMK AO2,M
CXP,2021-03-26 21:15,-119.7326,39.1923,1431.00,51.80,10.40,18.64,60.00,7.00,0.00,30.15,M,10.00,13.00,CLR,M,M,M,M,M,M,M,M,M,M,M,M,M,M,51.80,KCXP 262115Z AUTO 06007G13KT 10SM CLR 11/M12 A3015 RMK AO2,M
BVU,2021-03-26 21:15,-114.8611,35.9475,671.00,60.80,17.60,18.46,30.00,11.00,0.00,29.95,M,10.00,17.00,BKN,M,M,M,9000.00,M,M,M,M,M,M,M,M,M,M,60.80,KBVU 262115Z AUTO 03011G17KT 320V090 10SM BKN090 16/M08 A2995 RMK AO2,M
HTH,2021-03-26 21:15,-118.6315,38.5448,1282.89,48.20,17.60,29.23,320.00,7.00,0.00,30.16,M,10.00,M,CLR,M,M,M,M,M,M,M,M,M,M,M,M,M,M,44.53,KHTH 262115Z AUTO 32007KT 10SM CLR 09/M08 A3016 RMK A01,M
TMT,2021-03-26 21:15,-117.1971,39.4643,1749.34,38.80,22.80,52.27,0.00,0.00,0.00,30.15,M,10.00,M,M,M,M,M,M,M,M,M,M,M,M,M,M,M,M,38.80,KTMT 262115Z AUTO 00000KT 10SM 04/M05 A3015 RMK AO2 T00381051,M
BAM,2021-03-26 21:15,-116.8743,40.5990,1382.36,44.60,28.40,52.72,0.00,0.00,0.00,30.15,M,10.00,M,OVC,M,M,M,4400.00,M,M,M,M,M,M,M,M,M,M,44.60,KBAM 262115Z AUTO 00000KT 10SM OVC044 07/M02 A3015 RMK AO1,M
05U,2021-03-26 21:15,-116.0051,39.6042,1811.23,41.00,19.40,41.54,350.00,6.00,0.00,30.13,M,10.00,11.00,BKN,M,M,M,4000.00,M,M,M,M,M,M,M,M,M,M,36.37,K05U 262115Z AUTO 35006G11KT 10SM BKN040 05/M07 A3013 RMK A01,M
MEV,2021-03-26 21:15,-119.7500,38.9963,1441.42,50.00,17.60,27.33,M,3.00,0.00,30.13,M,10.00,M,CLR,M,M,M,M,M,M,M,M,M,M,M,M,M,M,50.00,KMEV 262115Z AUTO VRB03KT 10SM CLR 10/M08 A3013 RMK AO2,M
CXP,2021-03-26 21:30,-119.7326,39.1923,1431.00,51.80,12.20,20.20,100.00,9.00,0.00,30.15,M,10.00,M,CLR,M,M,M,M,M,M,M,M,M,M,M,M,M,M,51.80,KCXP 262130Z AUTO 10009KT 10SM CLR 11/M11 A3015 RMK AO2,M
MEV,2021-03-26 21:35,-119.7500,38.9963,1441.42,51.80,17.60,25.56,M,6.00,0.00,30.13,M,10.00,11.00,CLR,M,M,M,M,M,M,M,M,M,M,M,M,M,M,51.80,KMEV 262135Z AUTO VRB06G11KT 10SM CLR 11/M08 A3013 RMK AO2,M
BAM,2021-03-26 21:35,-116.8743,40.5990,1382.36,44.60,28.40,52.72,0.00,0.00,0.00,30.14,M,10.00,M,BKN,M,M,M,4800.00,M,M,M,M,M,M,M,M,M,M,44.60,KBAM 262135Z AUTO 00000KT 10SM BKN048 07/M02 A3014 RMK AO1,M
RTS,2021-03-26 21:35,-119.8764,39.6682,1539.00,48.20,14.00,24.99,100.00,6.00,0.00,30.15,M,10.00,11.00,CLR,M,M,M,M,M,M,M,M,M,M,M,M,M,M,45.04,KRTS 262135Z AUTO 10006G11KT 10SM CLR 09/M10 A3015 RMK AO2,M
05U,2021-03-26 21:35,-116.0051,39.6042,1811.23,39.20,19.40,44.55,360.00,9.00,0.00,30.13,M,10.00,M,BKN,M,M,M,3900.00,M,M,M,M,M,M,M,M,M,M,32.47,K05U 262135Z AUTO 36009KT 320V020 10SM BKN039 04/M07 A3013 RMK A01,M
HTH,2021-03-26 21:35,-118.6315,38.5448,1282.89,48.20,15.80,27.04,M,5.00,0.00,30.16,M,10.00,12.00,CLR,M,M,M,M,M,M,M,M,M,M,M,M,M,M,45.63,KHTH 262135Z AUTO VRB05G12KT 10SM CLR 09/M09 A3016 RMK A01,M
TMT,2021-03-26 21:35,-117.1971,39.4643,1749.34,38.50,23.40,54.23,350.00,3.00,0.00,30.15,M,10.00,M,M,M,M,M,M,M,M,M,M,M,M,M,M,M,M,36.12,KTMT 262135Z AUTO 35003KT 10SM 04/M05 A3015 RMK AO2 T00361048,M
BVU,2021-03-26 21:35,-114.8611,35.9475,671.00,62.60,17.60,17.32,340.00,7.00,0.00,29.95,M,10.00,17.00,SCT,M,M,M,9000.00,M,M,M,M,M,M,M,M,M,M,62.60,KBVU 262135Z AUTO 34007G17KT 10SM SCT090 17/M08 A2995 RMK AO2,M
CXP,2021-03-26 21:50,-119.7326,39.1923,1431.00,51.80,12.20,20.20,10.00,8.00,0.00,30.14,M,10.00,M,CLR,M,M,M,M,M,M,M,M,M,M,M,M,M,M,51.80,KCXP 262150Z AUTO 01008KT 340V040 10SM CLR 11/M11 A3014 RMK AO2,M
P68,2021-03-26 21:53,-116.0056,39.6014,1993.00,38.00,21.90,52.13,20.00,9.00,0.00,30.10,1019.20,M,16.00,M,M,M,M,M,M,M,M,M,M,M,M,M,M,M,30.85,KP68 262153Z AUTO 02009G16KT 03/M06 A3010 RMK AO1 SLP192 T00331056,M
VGT,2021-03-26 21:53,-115.1933,36.2111,667.00,66.00,18.00,15.64,50.00,8.00,0.00,29.90,1013.40,10.00,16.00,BKN,M,M,M,10000.00,M,M,M,M,M,M,M,M,M,M,66.00,KVGT 262153Z 05008G16KT 010V070 10SM BKN100 19/M08 A2990 RMK AO2 WSHFT 2040 SLP134 T01891078,M
LOL,2021-03-26 21:53,-118.5701,40.0684,1192.43,52.00,19.90,28.01,M,3.00,0.00,30.14,1021.20,10.00,M,CLR,M,M,M,M,M,M,M,M,M,M,M,M,M,M,52.00,KLOL 262153Z AUTO VRB03KT 10SM CLR 11/M07 A3014 RMK AO2 SLP212 T01111067,M
DRA,2021-03-26 21:53,-116.0278,36.6206,1009.00,61.00,14.00,15.67,M,M,0.00,29.98,1013.10,10.00,M,CLR,M,M,M,M,M,M,M,M,M,M,M,M,M,M,61.00,KDRA 262153Z AUTO 10SM CLR 16/M10 A2998 RMK AO2 SLP131 T01611100,M
ELY,2021-03-26 21:53,-114.8453,39.2950,1909.00,42.00,21.90,44.27,350.00,10.00,0.00,30.04,1016.30,10.00,M,FEW,SCT,M,M,5000.00,6000.00,M,M,M,M,M,M,M,M,M,35.63,KELY 262153Z AUTO 35010KT 10SM FEW050 SCT060 06/M06 A3004 RMK AO2 SLP163 T00561056,M
TMT,2021-03-26 21:55,-117.1971,39.4643,1749.34,40.60,23.00,49.14,90.00,4.00,0.00,30.15,M,10.00,M,M,M,M,M,M,M,M,M,M,M,M,M,M,M,M,37.46,KTMT 262155Z AUTO 09004KT 10SM 05/M05 A3015 RMK AO2 T00481050,M
RTS,2021-03-26 21:55,-119.8764,39.6682,1539.00,48.20,14.00,24.99,M,4.00,0.00,30.15,M,10.00,10.00,CLR,M,M,M,M,M,M,M,M,M,M,M,M,M,M,46.34,KRTS 262155Z AUTO VRB04G10KT 10SM CLR 09/M10 A3015 RMK AO2,M
05U,2021-03-26 21:55,-116.0051,39.6042,1811.23,39.20,21.20,48.10,30.00,8.00,0.00,30.13,M,10.00,M,BKN,M,M,M,3900.00,M,M,M,M,M,M,M,M,M,M,32.98,K05U 262155Z AUTO 03008KT 10SM BKN039 04/M06 A3013 RMK A01,M
BAM,2021-03-26 21:55,-116.8743,40.5990,1382.36,46.40,28.40,49.24,320.00,6.00,0.00,30.14,M,10.00,M,BKN,BKN,M,M,4800.00,6000.00,M,M,M,M,M,M,M,M,M,42.87,KBAM 262155Z AUTO 32006KT 10SM BKN048 BKN060 08/M02 A3014 RMK AO1,M
BVU,2021-03-26 21:55,-114.8611,35.9475,671.00,64.40,15.80,15.04,310.00,11.00,0.00,29.94,M,10.00,17.00,FEW,M,M,M,9500.00,M,M,M,M,M,M,M,M,M,M,64.40,KBVU 262155Z AUTO 31011G17KT 10SM FEW095 18/M09 A2994 RMK AO2,M
MEV,2021-03-26 21:55,-119.7500,38.9963,1441.42,51.80,17.60,25.56,M,6.00,0.00,30.12,M,10.00,M,CLR,M,M,M,M,M,M,M,M,M,M,M,M,M,M,51.80,KMEV 262155Z AUTO VRB06KT 10SM CLR 11/M08 A3012 RMK AO2,M
HTH,2021-03-26 21:55,-118.6315,38.5448,1282.89,50.00,17.60,27.33,360.00,8.00,0.00,30.15,M,10.00,14.00,CLR,M,M,M,M,M,M,M,M,M,M,M,M,M,M,50.00,KHTH 262155Z AUTO 36008G14KT 10SM CLR 10/M08 A3015 RMK A01,M
RNO,2021-03-26 21:55,-119.7711,39.4839,1341.00,52.00,15.10,22.77,M,6.00,0.00,30.12,1019.40,10.00,M,CLR,M,M,M,M,M,M,M,M,M,M,M,M,M,M,52.00,KRNO 262155Z VRB06KT 10SM CLR 11/M09 A3012 RMK AO2 SLP194 T01111094 $,M
WMC,2021-03-26 21:56,-117.8072,40.9019,1315.00,50.00,18.00,27.80,330.00,7.00,0.00,30.13,1020.40,10.00,M,CLR,M,M,M,M,M,M,M,M,M,M,M,M,M,M,50.00,KWMC 262156Z AUTO 33007KT 270V040 10SM CLR 10/M08 A3013 RMK AO2 SLP204 T01001078,M
TPH,2021-03-26 21:56,-117.0904,38.0505,1654.00,51.00,9.00,17.97,340.00,14.00,0.00,30.05,1016.60,10.00,24.00,CLR,M,M,M,M,M,M,M,M,M,M,M,28.00,10.00,2021-03-26 21:06,51.10,KTPH 262156Z AUTO 34014G24KT 10SM CLR 11/M13 A3005 RMK AO2 PK WND 01028/2106 SLP166 T01061128,M
NFL,2021-03-26 21:56,-118.7010,39.4166,1199.00,51.00,19.90,28.95,320.00,6.00,0.00,30.14,1017.30,10.00,M,FEW,M,M,M,6000.00,M,M,M,M,M,M,M,M,M,M,51.10,KNFL 262156Z 32006KT 10SM FEW060 11/M07 A3014 RMK AO2 SLP173 T01061067,M
EKO,2021-03-26 21:56,-115.7860,40.8242,1367.00,48.00,19.00,31.27,260.00,8.00,0.00,30.07,1018.40,10.00,M,OVC,M,M,M,6000.00,M,M,M,M,M,M,M,M,M,M,43.82,KEKO 262156Z AUTO 26008KT 220V290 10SM OVC060 09/M07 A3007 RMK AO2 SLP184 T00891072,M
HND,2021-03-26 21:56,-115.1344,35.9729,742.79,61.00,18.00,18.64,10.00,11.00,0.00,29.97,1015.90,10.00,16.00,OVC,M,M,M,9500.00,M,M,M,M,M,M,M,M,M,M,61.00,KHND 262156Z 01011G16KT 10SM OVC095 16/M08 A2997 RMK AO2 SLP159 T01611078,M
LAS,2021-03-26 21:56,-115.1634,36.0719,663.00,63.00,18.00,17.37,M,3.00,0.00,29.95,1013.30,10.00,M,SCT,M,M,M,9500.00,M,M,M,M,M,M,M,M,M,M,63.00,KLAS 262156Z VRB03KT 10SM SCT095 17/M08 A2995 RMK AO2 SLP133 T01721078,M
LSV,2021-03-26 21:58,-115.0343,36.2362,570.00,65.70,19.60,16.93,260.00,5.00,0.00,29.94,1013.10,10.00,14.00,BKN,M,M,M,10000.00,M,M,M,M,M,M,M,M,M,M,65.70,KLSV 262158Z AUTO 26005G14KT 10SM BKN100 19/M07 A2994 RMK AO2 SLP131 T01871069 $,M
INS,2021-03-26 21:58,-115.6733,36.5872,955.00,59.70,12.00,15.03,70.00,6.00,0.00,29.95,1012.30,10.00,15.00,CLR,M,M,M,M,M,M,M,M,M,M,M,M,M,M,59.70,KINS 262158Z AUTO 07006G15KT 10SM CLR 15/M11 A2995 RMK AO2 SLP123 T01541111 $,M
TMT,2021-03-26 22:15,-117.1971,39.4643,1749.34,42.30,22.30,44.68,0.00,0.00,0.00,30.15,M,10.00,M,M,M,M,M,M,M,M,M,M,M,M,M,M,M,M,42.30,KTMT 262215Z AUTO 00000KT 10SM 06/M05 A3015 RMK AO2 T00571054,M
BVU,2021-03-26 22:15,-114.8611,35.9475,671.00,64.40,14.00,13.90,340.00,10.00,0.00,29.95,M,10.00,20.00,CLR,M,M,M,M,M,M,M,M,M,M,M,M,M,M,64.40,KBVU 262215Z AUTO 34010G20KT 10SM CLR 18/M10 A2995 RMK AO2,M
CXP,2021-03-26 22:15,-119.7326,39.1923,1431.00,53.60,12.20,18.90,80.00,9.00,0.00,30.14,M,10.00,M,CLR,M,M,M,M,M,M,M,M,M,M,M,M,M,M,53.60,KCXP 262215Z AUTO 08009KT 10SM CLR 12/M11 A3014 RMK AO2,M
RTS,2021-03-26 22:15,-119.8764,39.6682,1539.00,48.20,12.20,23.09,M,4.00,0.00,30.15,M,10.00,10.00,CLR,M,M,M,M,M,M,M,M,M,M,M,M,M,M,46.34,KRTS 262215Z AUTO VRB04G10KT 10SM CLR 09/M11 A3015 RMK AO2,M
05U,2021-03-26 22:15,-116.0051,39.6042,1811.23,39.20,21.20,48.10,360.00,6.00,0.00,30.13,M,10.00,M,OVC,M,M,M,4000.00,M,M,M,M,M,M,M,M,M,M,34.20,K05U 262215Z AUTO 36006KT 10SM OVC040 04/M06 A3013 RMK A01,M
MEV,2021-03-26 22:15,-119.7500,38.9963,1441.42,51.80,15.80,23.65,M,3.00,0.00,30.12,M,10.00,M,CLR,M,M,M,M,M,M,M,M,M,M,M,M,M,M,51.80,KMEV 262215Z AUTO VRB03KT 10SM CLR 11/M09 A3012 RMK AO2,M
BAM,2021-03-26 22:15,-116.8743,40.5990,1382.36,48.20,26.60,42.73,340.00,8.00,0.00,30.14,M,10.00,14.00,SCT,SCT,M,M,4800.00,6000.00,M,M,M,M,M,M,M,M,M,44.07,KBAM 262215Z AUTO 34008G14KT 10SM SCT048 SCT060 09/M03 A3014 RMK AO1,M
HTH,2021-03-26 22:15,-118.6315,38.5448,1282.89,50.00,17.60,27.33,330.00,9.00,0.00,30.15,M,10.00,M,CLR,M,M,M,M,M,M,M,M,M,M,M,M,M,M,50.00,KHTH 262215Z AUTO 33009KT 10SM CLR 10/M08 A3015 RMK A01,M
HTH,2021-03-26 22:35,-118.6315,38.5448,1282.89,50.00,17.60,27.33,310.00,9.00,0.00,30.14,M,10.00,M,CLR,M,M,M,M,M,M,M,M,M,M,M,M,M,M,50.00,KHTH 262235Z AUTO 31009KT 10SM CLR 10/M08 A3014 RMK A01,M
BAM,2021-03-26 22:35,-116.8743,40.5990,1382.36,46.40,26.60,45.73,0.00,0.00,0.00,30.14,M,10.00,M,SCT,M,M,M,6000.00,M,M,M,M,M,M,M,M,M,M,46.40,KBAM 262235Z AUTO 00000KT 10SM SCT060 08/M03 A3014 RMK AO1,M
TMT,2021-03-26 22:35,-117.1971,39.4643,1749.34,42.00,23.50,47.72,150.00,3.00,0.00,30.15,M,10.00,M,M,M,M,M,M,M,M,M,M,M,M,M,M,M,M,40.01,KTMT 262235Z AUTO 15003KT 10SM 06/M05 A3015 RMK AO2 T00551047,M
BVU,2021-03-26 22:35,-114.8611,35.9475,671.00,64.40,14.00,13.90,360.00,14.00,0.00,29.94,M,10.00,M,CLR,M,M,M,M,M,M,M,M,M,M,M,M,M,M,64.40,KBVU 262235Z AUTO 36014KT 10SM CLR 18/M10 A2994 RMK AO2,M
RTS,2021-03-26 22:35,-119.8764,39.6682,1539.00,50.00,12.20,21.59,M,5.00,0.00,30.15,M,10.00,M,CLR,M,M,M,M,M,M,M,M,M,M,M,M,M,M,50.00,KRTS 262235Z AUTO VRB05KT 10SM CLR 10/M11 A3015 RMK AO2,M
CXP,2021-03-26 22:35,-119.7326,39.1923,1431.00,53.60,10.40,17.45,40.00,9.00,0.00,30.14,M,10.00,M,CLR,M,M,M,M,M,M,M,M,M,M,M,M,M,M,53.60,KCXP 262235Z AUTO 04009KT 020V080 10SM CLR 12/M12 A3014 RMK AO2,M
MEV,2021-03-26 22:35,-119.7500,38.9963,1441.42,51.80,15.80,23.65,0.00,0.00,0.00,30.12,M,10.00,12.00,CLR,M,M,M,M,M,M,M,M,M,M,M,M,M,M,51.80,KMEV 262235Z AUTO 00000G12KT 10SM CLR 11/M09 A3012 RMK AO2,M
05U,2021-03-26 22:35,-116.0051,39.6042,1811.23,39.20,21.20,48.10,10.00,6.00,0.00,30.13,M,10.00,M,SCT,SCT,M,M,4300.00,5000.00,M,M,M,M,M,M,M,M,M,34.20,K05U 262235Z AUTO 01006KT 10SM SCT043 SCT050 04/M06 A3013 RMK A01,M
LOL,2021-03-26 22:53,-118.5701,40.0684,1192.43,54.00,21.00,27.27,190.00,8.00,0.00,30.13,1021.30,10.00,M,CLR,M,M,M,M,M,M,M,M,M,M,M,M,M,M,54.00,KLOL 262253Z AUTO 19008KT 10SM CLR 12/M06 A3013 RMK AO2 SLP213 T01221061,M
ELY,2021-03-26 22:53,-114.8453,39.2950,1909.00,43.00,21.00,41.17,10.00,11.00,0.00,30.05,1016.60,10.00,M,SCT,M,M,M,5500.00,M,M,M,M,M,M,M,M,M,M,36.37,KELY 262253Z AUTO 01011KT 10SM SCT055 06/M06 A3005 RMK AO2 SLP166 T00611061,M
DRA,2021-03-26 22:53,-116.0278,36.6206,1009.00,63.00,12.90,13.91,360.00,15.00,0.00,29.97,1012.80,10.00,22.00,SCT,M,M,M,9500.00,M,M,M,M,M,M,M,M,M,M,63.00,KDRA 262253Z AUTO 36015G22KT 10SM SCT095 17/M11 A2997 RMK AO2 SLP128 T01721106,M
P68,2021-03-26 22:53,-116.0056,39.6014,1993.00,41.00,23.00,48.39,350.00,8.00,0.00,30.11,1019.20,M,M,M,M,M,M,M,M,M,M,M,M,M,M,M,M,M,35.20,KP68 262253Z AUTO 35008KT 05/M05 A3011 RMK AO1 SLP192 T00501050,M
VGT,2021-03-26 22:53,-115.1933,36.2111,667.00,68.00,16.00,13.39,0.00,0.00,0.00,29.90,1013.40,10.00,M,BKN,M,M,M,11000.00,M,M,M,M,M,M,M,M,M,M,68.00,KVGT 262253Z 00000KT 10SM BKN110 20/M09 A2990 RMK AO2 SLP134 T02001089,M
TMT,2021-03-26 22:55,-117.1971,39.4643,1749.34,42.00,23.00,46.73,0.00,0.00,0.00,30.15,M,10.00,M,M,M,M,M,M,M,M,M,M,M,M,M,M,M,M,41.90,KTMT 262255Z AUTO 00000KT 10SM 06/M05 A3015 RMK AO2 T00551050,M
RNO,2021-03-26 22:55,-119.7711,39.4839,1341.00,54.00,12.00,18.46,40.00,8.00,0.00,30.12,1019.10,10.00,M,CLR,M,M,M,M,M,M,M,M,M,M,M,M,M,M,54.00,KRNO 262255Z 04008KT 10SM CLR 12/M11 A3012 RMK AO2 SLP191 T01221111 $,M
HTH,2021-03-26 22:55,-118.6315,38.5448,1282.89,50.00,19.40,29.52,M,6.00,0.00,30.14,M,10.00,14.00,CLR,M,M,M,M,M,M,M,M,M,M,M,M,M,M,50.00,KHTH 262255Z AUTO VRB06G14KT 10SM CLR 10/M07 A3014 RMK A01,M
BAM,2021-03-26 22:55,-116.8743,40.5990,1382.36,48.20,26.60,42.73,330.00,4.00,0.00,30.14,M,10.00,M,SCT,M,M,M,6000.00,M,M,M,M,M,M,M,M,M,M,46.34,KBAM 262255Z AUTO 33004KT 10SM SCT060 09/M03 A3014 RMK AO1,M
MEV,2021-03-26 22:55,-119.7500,38.9963,1441.42,51.80,15.80,23.65,M,6.00,0.00,30.12,M,10.00,12.00,CLR,M,M,M,M,M,M,M,M,M,M,M,M,M,M,51.80,KMEV 262255Z AUTO VRB06G12KT 10SM CLR 11/M09 A3012 RMK AO2,M
05U,2021-03-26 22:55,-116.0051,39.6042,1811.23,41.00,19.40,41.54,360.00,6.00,0.00,30.14,M,10.00,M,BKN,BKN,M,M,4200.00,4800.00,M,M,M,M,M,M,M,M,M,36.37,K05U 262255Z AUTO 36006KT 10SM BKN042 BKN048 05/M07 A3014 RMK A01,M
RTS,2021-03-26 22:55,-119.8764,39.6682,1539.00,48.20,12.20,23.09,120.00,6.00,0.00,30.15,M,10.00,M,CLR,M,M,M,M,M,M,M,M,M,M,M,M,M,M,45.04,KRTS 262255Z AUTO 12006KT 10SM CLR 09/M11 A3015 RMK AO2,M
BVU,2021-03-26 22:55,-114.8611,35.9475,671.00,64.40,14.00,13.90,340.00,16.00,0.00,29.94,M,10.00,22.00,CLR,M,M,M,M,M,M,M,M,M,M,M,M,M,M,64.40,KBVU 262255Z AUTO 34016G22KT 10SM CLR 18/M10 A2994 RMK AO2,M
CXP,2021-03-26 22:55,-119.7326,39.1923,1431.00,53.60,8.60,16.10,50.00,8.00,0.00,30.13,M,10.00,14.00,CLR,M,M,M,M,M,M,M,M,M,M,M,M,M,M,53.60,KCXP 262255Z AUTO 05008G14KT 10SM CLR 12/M13 A3013 RMK AO2,M
HND,2021-03-26 22:56,-115.1344,35.9729,742.79,62.00,18.00,17.93,40.00,7.00,0.00,29.97,1015.90,10.00,M,FEW,M,M,M,10000.00,M,M,M,M,M,M,M,M,M,M,62.10,KHND 262256Z 04007KT 350V080 10SM FEW100 17/M08 A2997 RMK AO2 SLP159 T01671078,M
TPH,2021-03-26 22:56,-117.0904,38.0505,1654.00,52.00,6.00,15.25,340.00,15.00,0.00,30.06,1017.00,10.00,24.00,CLR,M,M,M,M,M,M,M,M,M,M,M,M,M,M,52.00,KTPH 262256Z AUTO 34015G24KT 310V020 10SM CLR 11/M14 A3006 RMK AO2 SLP170 T01111144,M
LAS,2021-03-26 22:56,-115.1634,36.0719,663.00,63.00,16.00,15.93,80.00,5.00,0.00,29.94,1013.10,10.00,M,BKN,M,M,M,10000.00,M,M,M,M,M,M,M,M,M,M,63.00,KLAS 262256Z 08005KT 10SM BKN100 17/M09 A2994 RMK AO2 SLP131 T01721089,M
EKO,2021-03-26 22:56,-115.7860,40.8242,1367.00,49.00,18.00,28.97,320.00,11.00,0.00,30.09,1018.70,10.00,M,SCT,M,M,M,6000.00,M,M,M,M,M,M,M,M,M,M,43.82,KEKO 262256Z AUTO 32011KT 10SM SCT060 09/M08 A3009 RMK AO2 SLP187 T00941078,M
WMC,2021-03-26 22:56,-117.8072,40.9019,1315.00,52.00,17.10,24.83,360.00,8.00,0.00,30.14,1020.30,10.00,M,CLR,M,M,M,M,M,M,M,M,M,M,M,M,M,M,52.00,KWMC 262256Z AUTO 36008KT 10SM CLR 11/M08 A3014 RMK AO2 SLP203 T01111083,M
NFL,2021-03-26 22:56,-118.7010,39.4166,1199.00,52.00,19.90,28.01,320.00,4.00,0.00,30.14,1017.20,10.00,M,FEW,M,M,M,6000.00,M,M,M,M,M,M,M,M,M,M,52.00,KNFL 262256Z 32004KT 10SM FEW060 11/M07 A3014 RMK AO2 SLP172 T01111067,M
INS,2021-03-26 22:58,-115.6733,36.5872,955.00,60.30,10.80,13.95,360.00,12.00,0.00,29.96,1012.50,10.00,M,CLR,M,M,M,M,M,M,M,M,M,M,M,M,M,M,60.30,KINS 262258Z AUTO 36012KT 10SM CLR 16/M12 A2996 RMK AO2 SLP125 T01571118 $,M
LSV,2021-03-26 22:58,-115.0343,36.2362,570.00,66.60,19.00,15.99,10.00,4.00,0.00,29.93,1012.70,10.00,M,BKN,M,M,M,10000.00,M,M,M,M,M,M,M,M,M,M,66.60,KLSV 262258Z AUTO 01004KT 10SM BKN100 19/M07 A2993 RMK AO2 SLP127 T01921072 $,M
BVU,2021-03-26 23:15,-114.8611,35.9475,671.00,66.20,14.00,13.06,340.00,15.00,0.00,29.94,M,10.00,23.00,CLR,M,M,M,M,M,M,M,M,M,M,M,M,M,M,66.20,KBVU 262315Z AUTO 34015G23KT 10SM CLR 19/M10 A2994 RMK AO2,M
RTS,2021-03-26 23:15,-119.8764,39.6682,1539.00,50.00,10.40,19.93,M,4.00,0.00,30.15,M,10.00,M,CLR,M,M,M,M,M,M,M,M,M,M,M,M,M,M,50.00,KRTS 262315Z AUTO VRB04KT 10SM CLR 10/M12 A3015 RMK AO2,M
MEV,2021-03-26 23:15,-119.7500,38.9963,1441.42,53.60,15.80,22.13,290.00,5.00,0.00,30.12,M,10.00,M,CLR,M,M,M,M,M,M,M,M,M,M,M,M,M,M,53.60,KMEV 262315Z AUTO 29005KT 10SM CLR 12/M09 A3012 RMK AO2,M
BAM,2021-03-26 23:15,-116.8743,40.5990,1382.36,50.00,26.60,39.95,360.00,4.00,0.00,30.15,M,10.00,M,CLR,M,M,M,M,M,M,M,M,M,M,M,M,M,M,50.00,KBAM 262315Z AUTO 36004KT 10SM CLR 10/M03 A3015 RMK AO1,M
TMT,2021-03-26 23:15,-117.1971,39.4643,1749.34,42.80,23.40,45.91,350.00,6.00,0.00,30.15,M,10.00,M,M,M,M,M,M,M,M,M,M,M,M,M,M,M,M,38.54,KTMT 262315Z AUTO 35006KT 10SM 06/M05 A3015 RMK AO2 T00601048,M
CXP,2021-03-26 23:15,-119.7326,39.1923,1431.00,55.40,8.60,15.08,70.00,7.00,0.00,30.14,M,10.00,14.00,CLR,M,M,M,M,M,M,M,M,M,M,M,M,M,M,55.40,KCXP 262315Z AUTO 07007G14KT 10SM CLR 13/M13 A3014 RMK AO2,M
HTH,2021-03-26 23:15,-118.6315,38.5448,1282.89,50.00,17.60,27.33,330.00,6.00,0.00,30.14,M,10.00,12.00,CLR,M,M,M,M,M,M,M,M,M,M,M,M,M,M,50.00,KHTH 262315Z AUTO 33006G12KT 10SM CLR 10/M08 A3014 RMK A01,M
05U,2021-03-26 23:15,-116.0051,39.6042,1811.23,42.80,19.40,38.75,330.00,10.00,0.00,30.14,M,10.00,M,BKN,OVC,M,M,4200.00,4800.00,M,M,M,M,M,M,M,M,M,36.51,K05U 262315Z AUTO 33010KT 10SM BKN042 OVC048 06/M07 A3014 RMK A01,M
BAM,2021-03-26 23:35,-116.8743,40.5990,1382.36,50.00,26.60,39.95,340.00,7.00,0.00,30.15,M,10.00,M,CLR,M,M,M,M,M,M,M,M,M,M,M,M,M,M,50.00,KBAM 262335Z AUTO 34007KT 310V010 10SM CLR 10/M03 A3015 RMK AO1,M
TMT,2021-03-26 23:35,-117.1971,39.4643,1749.34,41.20,22.30,46.62,0.00,0.00,0.00,30.16,M,10.00,M,M,M,M,M,M,M,M,M,M,M,M,M,M,M,M,41.20,KTMT 262335Z AUTO 00000KT 10SM 05/M05 A3016 RMK AO2 T00511054,M
MEV,2021-03-26 23:35,-119.7500,38.9963,1441.42,53.60,14.00,20.46,360.00,4.00,0.00,30.12,M,10.00,M,CLR,M,M,M,M,M,M,M,M,M,M,M,M,M,M,53.60,KMEV 262335Z AUTO 36004KT 10SM CLR 12/M10 A3012 RMK AO2,M
HTH,2021-03-26 23:35,-118.6315,38.5448,1282.89,51.80,17.60,25.56,320.00,8.00,0.00,30.14,M,10.00,M,CLR,M,M,M,M,M,M,M,M,M,M,M,M,M,M,51.80,KHTH 262335Z AUTO 32008KT 10SM CLR 11/M08 A3014 RMK A01,M
05U,2021-03-26 23:35,-116.0051,39.6042,1811.23,42.80,21.20,41.84,340.00,9.00,0.00,30.15,M,10.00,14.00,OVC,M,M,M,4300.00,M,M,M,M,M,M,M,M,M,M,36.94,K05U 262335Z AUTO 34009G14KT 10SM OVC043 06/M06 A3015 RMK A01,M
RTS,2021-03-26 23:35,-119.8764,39.6682,1539.00,50.00,8.60,18.39,M,4.00,0.00,30.15,M,10.00,M,CLR,M,M,M,M,M,M,M,M,M,M,M,M,M,M,50.00,KRTS 262335Z AUTO VRB04KT 10SM CLR 10/M13 A3015 RMK AO2,M
CXP,2021-03-26 23:35,-119.7326,39.1923,1431.00,55.40,6.80,13.90,60.00,12.00,0.00,30.14,M,10.00,M,CLR,M,M,M,M,M,M,M,M,M,M,M,M,M,M,55.40,KCXP 262335Z AUTO 06012KT 10SM CLR 13/M14 A3014 RMK AO2,M
BVU,2021-03-26 23:35,-114.8611,35.9475,671.00,66.20,14.00,13.06,350.00,15.00,0.00,29.95,M,10.00,M,CLR,M,M,M,M,M,M,M,M,M,M,M,M,M,M,66.20,KBVU 262335Z AUTO 35015KT 10SM CLR 19/M10 A2995 RMK AO2,M
CXP,2021-03-26 23:50,-119.7326,39.1923,1431.00,55.40,6.80,13.90,50.00,10.00,0.00,30.14,M,10.00,M,CLR,M,M,M,M,M,M,M,M,M,M,M,M,M,M,55.40,KCXP 262350Z AUTO 05010KT 10SM CLR 13/M14 A3014 RMK AO2,M
LOL,2021-03-26 23:53,-118.5701,40.0684,1192.43,53.00,19.90,26.89,280.00,7.00,0.00,30.14,1021.60,10.00,M,CLR,M,M,M,M,M,M,M,M,M,M,M,M,M,M,53.10,KLOL 262353Z AUTO 28007KT 10SM CLR 12/M07 A3014 RMK AO2 SLP216 T01171067 10128 20067 55002,M
DRA,2021-03-26 23:53,-116.0278,36.6206,1009.00,62.00,14.00,15.07,20.00,15.00,0.00,29.99,1013.30,10.00,26.00,FEW,M,M,M,10000.00,M,M,M,M,M,M,M,26.00,360.00,2021-03-26 23:47,62.10,KDRA 262353Z AUTO 02015G26KT 10SM FEW100 17/M10 A2999 RMK AO2 PK WND 36026/2347 SLP133 T01671100 10178 20117 53003,M
P68,2021-03-26 23:53,-116.0056,39.6014,1993.00,40.00,21.90,48.21,340.00,11.00,0.00,30.12,1019.70,M,M,M,M,M,M,M,M,M,M,M,M,M,M,M,M,M,32.45,KP68 262353Z AUTO 34011KT 04/M06 A3012 RMK AO1 SLP197 T00441056 10056 20000 53004,M
ELY,2021-03-26 23:53,-114.8453,39.2950,1909.00,41.00,21.00,44.47,10.00,9.00,0.00,30.07,1017.60,10.00,M,SCT,M,M,M,6000.00,M,M,M,M,M,M,M,M,M,M,34.70,KELY 262353Z AUTO 01009KT 10SM SCT060 05/M06 A3007 RMK AO2 SLP176 T00501061 10067 20011 53009,M
VGT,2021-03-26 23:53,-115.1933,36.2111,667.00,68.00,14.00,12.27,M,6.00,0.00,29.91,1013.60,10.00,M,OVC,M,M,M,11000.00,M,M,M,M,M,M,M,M,M,M,68.00,KVGT 262353Z VRB06KT 10SM OVC110 20/M10 A2991 RMK AO2 SLP136 T02001100 10206 20156 55000,M
MEV,2021-03-26 23:55,-119.7500,38.9963,1441.42,51.80,14.00,21.86,330.00,4.00,0.00,30.13,M,10.00,11.00,CLR,M,M,M,M,M,M,M,M,M,M,M,M,M,M,51.80,KMEV 262355Z AUTO 33004G11KT 10SM CLR 11/M10 A3013 RMK AO2,M
BAM,2021-03-26 23:55,-116.8743,40.5990,1382.36,50.00,24.80,37.08,330.00,9.00,0.00,30.15,M,10.00,M,CLR,M,M,M,M,M,M,M,M,M,M,M,M,M,M,50.00,KBAM 262355Z AUTO 33009KT 310V010 10SM CLR 10/M04 A3015 RMK AO1,M
HTH,2021-03-26 23:55,-118.6315,38.5448,1282.89,51.80,15.80,23.65,310.00,9.00,0.00,30.14,M,10.00,M,CLR,M,M,M,M,M,M,M,M,M,M,M,M,M,M,51.80,KHTH 262355Z AUTO 31009KT 10SM CLR 11/M09 A3014 RMK A01,M
BVU,2021-03-26 23:55,-114.8611,35.9475,671.00,64.40,14.00,13.90,340.00,9.00,0.00,29.95,M,10.00,16.00,CLR,M,M,M,M,M,M,M,M,M,M,M,M,M,M,64.40,KBVU 262355Z AUTO 34009G16KT 320V030 10SM CLR 18/M10 A2995 RMK AO2,M
RTS,2021-03-26 23:55,-119.8764,39.6682,1539.00,50.00,10.40,19.93,0.00,0.00,0.00,30.15,M,10.00,11.00,CLR,M,M,M,M,M,M,M,M,M,M,M,M,M,M,50.00,KRTS 262355Z AUTO 00000G11KT 10SM CLR 10/M12 A3015 RMK AO2,M
TMT,2021-03-26 23:55,-117.1971,39.4643,1749.34,41.40,21.60,44.91,30.00,3.00,0.00,30.16,M,10.00,M,M,M,M,M,M,M,M,M,M,M,M,M,M,M,M,39.43,KTMT 262355Z AUTO 03003KT 10SM 05/M06 A3016 RMK AO2 T00521058 10062 20019,M
RNO,2021-03-26 23:55,-119.7711,39.4839,1341.00,54.00,10.90,17.58,90.00,5.00,0.00,30.13,1019.50,10.00,M,CLR,M,M,M,M,M,M,M,M,M,M,M,M,M,M,54.00,KRNO 262355Z 09005KT 10SM CLR 12/M12 A3013 RMK AO2 SLP195 T01221117 10128 20056 55000 $,M
05U,2021-03-26 23:55,-116.0051,39.6042,1811.23,41.00,21.20,44.85,350.00,10.00,0.00,30.15,M,10.00,M,BKN,M,M,M,4400.00,M,M,M,M,M,M,M,M,M,M,34.25,K05U 262355Z AUTO 35010KT 10SM BKN044 05/M06 A3015 RMK A01,M
TPH,2021-03-26 23:56,-117.0904,38.0505,1654.00,53.00,8.10,16.03,360.00,14.00,0.00,30.07,1017.20,10.00,21.00,CLR,M,M,M,M,M,M,M,M,M,M,M,M,M,M,53.10,KTPH 262356Z AUTO 36014G21KT 10SM CLR 12/M13 A3007 RMK AO2 SLP172 T01171133 10117 20061 53006,M
HND,2021-03-26 23:56,-115.1344,35.9729,742.79,62.00,17.10,17.25,50.00,6.00,0.00,29.98,1016.20,10.00,M,SCT,M,M,M,11000.00,M,M,M,M,M,M,M,M,M,M,62.10,KHND 262356Z 05006KT 10SM SCT110 17/M08 A2998 RMK AO2 SLP162 T01671083 10178 20133 53001,M
LSV,2021-03-26 23:56,-115.0343,36.2362,570.00,66.20,17.60,15.27,40.00,13.00,0.00,29.94,1013.00,10.00,21.00,CLR,M,M,M,M,M,M,M,M,M,M,M,M,M,M,66.20,KLSV 262356Z AUTO 04013G21KT 10SM CLR 19/M08 A2994 RMK AO2 WSHFT 52 SLP130 $,M
NFL,2021-03-26 23:56,-118.7010,39.4166,1199.00,52.00,18.00,25.82,M,3.00,0.00,30.15,1017.40,10.00,M,FEW,M,M,M,6000.00,M,M,M,M,M,M,M,M,M,M,52.00,KNFL 262356Z VRB03KT 10SM FEW060 11/M08 A3015 RMK AO2 SLP174 T01111078 10122 20061 55001,M
EKO,2021-03-26 23:56,-115.7860,40.8242,1367.00,47.00,18.00,31.22,300.00,11.00,0.00,30.11,1019.70,10.00,M,CLR,M,M,M,M,M,M,M,M,M,M,M,M,M,M,41.30,KEKO 262356Z AUTO 30011KT 10SM CLR 08/M08 A3011 RMK AO2 SLP197 T00831078 10094 20039 53012,M
WMC,2021-03-26 23:56,-117.8072,40.9019,1315.00,53.00,15.10,21.87,300.00,6.00,0.00,30.14,1020.60,10.00,M,CLR,M,M,M,M,M,M,M,M,M,M,M,M,M,M,53.10,KWMC 262356Z AUTO 30006KT 10SM CLR 12/M09 A3014 RMK AO2 SLP206 T01171094 10117 20056 53002,M
LAS,2021-03-26 23:56,-115.1634,36.0719,663.00,64.00,16.00,15.39,M,5.00,0.00,29.95,1013.30,10.00,M,SCT,M,M,M,11000.00,M,M,M,M,M,M,M,M,M,M,64.00,KLAS 262356Z VRB05KT 10SM SCT110 18/M09 A2995 RMK AO2 SLP133 T01781089 10183 20139 55001,M
LSV,2021-03-26 23:58,-115.0343,36.2362,570.00,66.70,17.60,15.01,40.00,11.00,0.00,29.94,1013.00,10.00,21.00,CLR,M,M,M,M,M,M,M,M,M,M,M,M,M,M,66.70,KLSV 262358Z AUTO 04011G21KT 10SM CLR 19/M08 A2994 RMK AO2 SLP130 T01931080 10193 20152 55000 $,M
INS,2021-03-26 23:58,-115.6733,36.5872,955.00,60.80,11.30,14.01,10.00,9.00,0.00,29.97,1013.00,10.00,M,CLR,M,M,M,M,M,M,M,M,M,M,M,M,M,M,60.80,KINS 262358Z AUTO 01009KT 10SM CLR 16/M11 A2997 RMK AO2 SLP130 T01601115 10166 20111 53004 $,M
