station,valid,lon,lat,elevation,tmpf,dwpf,relh,drct,sknt,p01i,alti,mslp,vsby,gust,skyc1,skyc2,skyc3,skyc4,skyl1,skyl2,skyl3,skyl4,wxcodes,ice_accretion_1hr,ice_accretion_3hr,ice_accretion_6hr,peak_wind_gust,peak_wind_drct,peak_wind_time,feel,metar,snowdepth
CXP,2022-08-03 00:10,-119.7326,39.1923,1431.00,89.60,48.20,24.11,260.00,12.00,0.00,30.14,M,10.00,M,CLR,M,M,M,M,M,M,M,M,M,M,M,M,M,M,86.44,KCXP 030010Z AUTO 26012KT 10SM CLR 32/09 A3014 RMK AO2 LTG DSNT SE,M
RTS,2022-08-03 00:15,-119.8764,39.6682,1539.00,87.80,46.40,23.85,300.00,12.00,0.00,30.17,M,10.00,19.00,SCT,SCT,M,M,8500.00,12000.00,M,M,M,M,M,M,M,M,M,84.68,KRTS 030015Z AUTO 30012G19KT 10SM SCT085 SCT120 31/08 A3017 RMK AO2,M
05U,2022-08-03 00:15,-116.0051,39.6042,1811.23,M,M,M,M,M,0.00,M,M,M,M,M,M,M,M,M,M,M,M,M,M,M,M,M,M,M,M,K05U 030015Z AUTO RMK A01 PNO,M
BVU,2022-08-03 00:15,-114.8611,35.9475,671.00,100.40,55.40,22.54,160.00,5.00,0.00,29.90,M,M,11.00,M,M,M,M,M,M,M,M,M,M,M,M,M,M,M,99.06,KBVU 030015Z AUTO 16005G11KT 38/13 A2990 RMK AO2 PWINO TSNO,M
HTH,2022-08-03 00:15,-118.6315,38.5448,1282.89,89.60,44.60,21.04,340.00,8.00,0.00,30.10,M,10.00,21.00,CLR,M,M,M,M,M,M,M,M,M,M,M,M,M,M,86.07,KHTH 030015Z AUTO 34008G21KT 10SM CLR 32/07 A3010 RMK A01,M
TMT,2022-08-03 00:15,-117.1971,39.4643,1749.34,M,M,M,40.00,7.00,0.00,30.19,M,10.00,M,SCT,M,M,M,10000.00,M,M,M,M,M,M,M,M,M,M,M,KTMT 030015Z AUTO 04007KT 10SM SCT100 A3019 RMK AO2,M
BAM,2022-08-03 00:15,-116.8743,40.5990,1382.36,89.60,48.20,24.11,340.00,5.00,0.00,30.08,M,10.00,M,CLR,M,M,M,M,M,M,M,M,M,M,M,M,M,M,86.44,KBAM 030015Z AUTO 34005KT 10SM CLR 32/09 A3008 RMK AO1,M
MEV,2022-08-03 00:15,-119.7500,38.9963,1441.42,89.60,48.20,24.11,300.00,10.00,0.00,30.13,M,10.00,18.00,CLR,M,M,M,M,M,M,M,M,M,M,M,M,M,M,86.44,KMEV 030015Z AUTO 30010G18KT 10SM CLR 32/09 A3013 RMK AO2 LTG DSNT SE,M
CXP,2022-08-03 00:30,-119.7326,39.1923,1431.00,89.60,48.20,24.11,290.00,8.00,0.00,30.14,M,10.00,14.00,CLR,M,M,M,M,M,M,M,M,M,M,M,M,M,M,86.44,KCXP 030030Z AUTO 29008G14KT 10SM CLR 32/09 A3014 RMK AO2,M
TMT,2022-08-03 00:35,-117.1971,39.4643,1749.34,M,M,M,60.00,13.00,0.00,30.19,M,10.00,16.00,CLR,M,M,M,M,M,M,M,M,M,M,M,M,M,M,M,KTMT 030035Z AUTO 06013G16KT 10SM CLR A3019 RMK AO2,M
BVU,2022-08-03 00:35,-114.8611,35.9475,671.00,100.40,55.40,22.54,210.00,5.00,0.00,29.89,M,M,M,M,M,M,M,M,M,M,M,M,M,M,M,M,M,M,99.06,KBVU 030035Z AUTO 21005KT 38/13 A2989 RMK AO2 PWINO TSNO,M
RTS,2022-08-03 00:35,-119.8764,39.6682,1539.00,87.80,46.40,23.85,290.00,16.00,0.00,30.17,M,10.00,M,CLR,M,M,M,M,M,M,M,M,M,M,M,M,M,M,84.68,KRTS 030035Z AUTO 29016KT 10SM CLR 31/08 A3017 RMK AO2,M
05U,2022-08-03 00:35,-116.0051,39.6042,1811.23,M,M,M,M,M,0.00,M,M,M,M,M,M,M,M,M,M,M,M,M,M,M,M,M,M,M,M,K05U 030035Z AUTO RMK A01 PNO,M
MEV,2022-08-03 00:35,-119.7500,38.9963,1441.42,89.60,50.00,25.79,300.00,13.00,0.00,30.13,M,10.00,19.00,CLR,M,M,M,M,M,M,M,M,M,M,M,M,M,M,86.70,KMEV 030035Z AUTO 30013G19KT 10SM CLR 32/10 A3013 RMK AO2,M
BAM,2022-08-03 00:35,-116.8743,40.5990,1382.36,87.80,51.80,29.18,360.00,4.00,0.00,30.08,M,10.00,M,CLR,M,M,M,M,M,M,M,M,M,M,M,M,M,M,85.39,KBAM 030035Z AUTO 36004KT 10SM CLR 31/11 A3008 RMK AO1,M
HTH,2022-08-03 00:35,-118.6315,38.5448,1282.89,87.80,44.60,22.27,360.00,8.00,0.00,30.10,M,10.00,M,CLR,M,M,M,M,M,M,M,M,M,M,M,M,M,M,84.53,KHTH 030035Z AUTO 36008KT 10SM CLR 31/07 A3010 RMK A01,M
CXP,2022-08-03 00:50,-119.7326,39.1923,1431.00,89.60,48.20,24.11,280.00,10.00,0.00,30.13,M,10.00,16.00,CLR,M,M,M,M,M,M,M,M,M,M,M,M,M,M,86.44,KCXP 030050Z AUTO 28010G16KT 10SM CLR 32/09 A3013 RMK AO2,M
ELY,2022-08-03 00:53,-114.8453,39.2950,1909.00,78.00,49.00,35.86,290.00,8.00,0.00,30.22,1013.90,10.00,M,FEW,M,M,M,10000.00,M,M,M,M,M,M,M,M,M,M,78.10,KELY 030053Z AUTO 29008KT 10SM FEW100 26/09 A3022 RMK AO2 LTG DSNT N SLP139 T02560094,M
DRA,2022-08-03 00:53,-116.0278,36.6206,1009.00,96.00,50.00,21.07,0.00,0.00,0.00,29.98,1009.70,10.00,M,CLR,M,M,M,M,M,M,M,M,M,M,M,M,M,M,93.00,KDRA 030053Z AUTO 00000KT 10SM CLR 36/10 A2998 RMK AO2 SLP097 T03560100,M
VGT,2022-08-03 00:53,-115.1933,36.2111,667.00,102.00,58.00,23.52,320.00,4.00,0.00,29.87,1010.00,10.00,M,CLR,M,M,M,M,M,M,M,M,M,M,M,M,M,M,101.87,KVGT 030053Z 32004KT 10SM CLR 39/14 A2987 RMK AO2 SLP100 T03890144,M
LOL,2022-08-03 00:53,-118.5701,40.0684,1192.43,93.00,42.00,17.19,310.00,12.00,0.00,30.03,1012.40,10.00,M,FEW,M,M,M,11000.00,M,M,M,M,M,M,M,M,M,M,88.93,KLOL 030053Z AUTO 31012KT 10SM FEW110 34/06 A3003 RMK AO2 SLP124 T03390056,M
BAM,2022-08-03 00:55,-116.8743,40.5990,1382.36,87.80,53.60,31.17,360.00,6.00,0.00,30.08,M,10.00,M,SCT,M,M,M,11000.00,M,M,M,M,M,M,M,M,M,M,85.72,KBAM 030055Z AUTO 36006KT 10SM SCT110 31/12 A3008 RMK AO1,M
RTS,2022-08-03 00:55,-119.8764,39.6682,1539.00,86.00,46.40,25.26,290.00,12.00,0.00,30.16,M,10.00,18.00,CLR,M,M,M,M,M,M,M,M,M,M,M,M,M,M,83.22,KRTS 030055Z AUTO 29012G18KT 10SM CLR 30/08 A3016 RMK AO2,M
MEV,2022-08-03 00:55,-119.7500,38.9963,1441.42,89.60,50.00,25.79,280.00,12.00,0.00,30.13,M,10.00,18.00,CLR,M,M,M,M,M,M,M,M,M,M,M,M,M,M,86.70,KMEV 030055Z AUTO 28012G18KT 10SM CLR 32/10 A3013 RMK AO2 LTG DSNT SE AND S,M
05U,2022-08-03 00:55,-116.0051,39.6042,1811.23,M,M,M,M,M,0.00,M,M,M,M,M,M,M,M,M,M,M,M,M,M,M,M,M,M,M,M,K05U 030055Z AUTO RMK A01 PNO,M
HTH,2022-08-03 00:55,-118.6315,38.5448,1282.89,86.00,50.00,28.90,150.00,16.00,0.00,30.10,M,10.00,M,FEW,M,M,M,11000.00,M,M,M,M,M,M,M,M,M,M,83.62,KHTH 030055Z AUTO 15016KT 10SM FEW110 30/10 A3010 RMK A01,M
BVU,2022-08-03 00:55,-114.8611,35.9475,671.00,100.40,55.40,22.54,190.00,7.00,0.00,29.88,M,M,M,M,M,M,M,M,M,M,M,M,M,M,M,M,M,M,99.06,KBVU 030055Z AUTO 19007KT 38/13 A2988 RMK AO2 PWINO TSNO,M
RNO,2022-08-03 00:55,-119.7711,39.4839,1341.00,90.00,51.00,26.52,40.00,5.00,0.00,30.09,1013.20,10.00,M,BKN,BKN,M,M,9000.00,25000.00,M,M,M,M,M,M,M,M,M,87.24,KRNO 030055Z 04005KT 10SM BKN090CB BKN250 32/11 A3009 RMK AO2 LTG DSNT SE SLP132 CB NW THRU NE AND SE THRU S MOV NE T03220106,M
TMT,2022-08-03 00:55,-117.1971,39.4643,1749.34,M,M,M,80.00,9.00,0.00,30.19,M,10.00,M,SCT,M,M,M,10000.00,M,M,M,M,M,M,M,M,M,M,M,KTMT 030055Z AUTO 08009KT 10SM SCT100 A3019 RMK AO2,M
TPH,2022-08-03 00:56,-117.0904,38.0505,1654.00,84.00,49.00,29.58,240.00,5.00,0.00,30.16,1013.80,10.00,M,CLR,M,M,M,M,M,M,M,M,M,M,M,M,M,M,81.97,KTPH 030056Z AUTO 24005KT 10SM CLR 29/09 A3016 RMK AO2 SLP138 T02890094,M
WMC,2022-08-03 00:56,-117.8072,40.9019,1315.00,93.00,46.00,19.95,M,4.00,0.00,30.05,1011.70,10.00,M,SCT,M,M,M,11000.00,M,M,M,M,M,M,M,M,M,M,89.31,KWMC 030056Z AUTO VRB04KT 10SM SCT110 34/08 A3005 RMK AO2 SLP117 T03390078,M
LAS,2022-08-03 00:56,-115.1634,36.0719,663.00,99.00,55.00,23.18,330.00,3.00,0.00,29.88,1008.80,10.00,M,SCT,SCT,M,M,10000.00,25000.00,M,M,M,M,M,M,M,M,M,97.39,KLAS 030056Z 33003KT 10SM SCT100 SCT250 37/13 A2988 RMK AO2 SLP088 T03720128,M
EKO,2022-08-03 00:56,-115.7860,40.8242,1367.00,84.00,45.00,25.54,310.00,7.00,0.00,30.10,1013.30,10.00,M,CLR,M,M,M,M,M,M,M,M,M,M,M,M,M,M,81.61,KEKO 030056Z AUTO 31007KT 10SM CLR 29/07 A3010 RMK AO2 SLP133 T02890072,M
HND,2022-08-03 00:56,-115.1344,35.9729,742.79,99.00,58.00,25.74,240.00,10.00,0.00,29.92,1011.50,10.00,M,CLR,M,M,M,M,M,M,M,M,M,M,M,M,M,M,98.49,KHND 030056Z 24010KT 10SM CLR 37/14 A2992 RMK AO2 SLP115 T03720144,M
NFL,2022-08-03 00:56,-118.7010,39.4166,1199.00,91.00,42.00,18.30,300.00,7.00,0.00,30.05,1014.60,10.00,M,SCT,BKN,BKN,BKN,8000.00,12000.00,18000.00,25000.00,M,M,M,M,26.00,330.00,2022-08-03 00:04,87.11,KNFL 030056Z 30007KT 10SM SCT080 BKN120 BKN180 BKN250 33/06 A3005 RMK AO2 PK WND 33026/0004 SLP146 CB DSNT SW-W T03280056,M
LSV,2022-08-03 00:58,-115.0343,36.2362,570.00,103.30,57.00,21.90,200.00,3.00,0.00,29.84,1007.70,10.00,M,FEW,SCT,M,M,10000.00,12000.00,M,M,M,M,M,M,M,M,M,102.92,KLSV 030058Z 20003KT 10SM FEW100 SCT120 40/14 A2984 RMK AO2A SLP077 T03960139 $,M
INS,2022-08-03 00:58,-115.6733,36.5872,955.00,94.50,53.00,24.82,200.00,6.00,0.00,29.96,1009.40,10.00,M,CLR,M,M,M,M,M,M,M,M,M,M,M,M,M,M,92.06,KINS 030058Z AUTO 20006KT 10SM CLR 35/12 A2996 RMK AO2 SLP094 T03470117,M
CXP,2022-08-03 01:10,-119.7326,39.1923,1431.00,87.80,48.20,25.52,270.00,10.00,0.00,30.13,M,10.00,16.00,CLR,M,M,M,M,M,M,M,M,M,M,M,M,M,M,84.87,KCXP 030110Z AUTO 27010G16KT 10SM CLR 31/09 A3013 RMK AO2 LTG DSNT N AND SE,M
TMT,2022-08-03 01:15,-117.1971,39.4643,1749.34,M,M,M,80.00,10.00,0.00,30.19,M,10.00,M,SCT,M,M,M,10000.00,M,M,M,M,M,M,M,M,M,M,M,KTMT 030115Z AUTO 08010KT 10SM SCT100 A3019 RMK AO2,M
BVU,2022-08-03 01:15,-114.8611,35.9475,671.00,100.40,55.40,22.54,210.00,8.00,0.00,29.88,M,M,M,M,M,M,M,M,M,M,M,M,M,M,M,M,M,M,99.06,KBVU 030115Z AUTO 21008KT 38/13 A2988 RMK AO2 PWINO TSNO,M
RTS,2022-08-03 01:15,-119.8764,39.6682,1539.00,86.00,46.40,25.26,300.00,9.00,0.00,30.16,M,10.00,17.00,CLR,M,M,M,M,M,M,M,M,M,M,M,M,M,M,83.22,KRTS 030115Z AUTO 30009G17KT 10SM CLR 30/08 A3016 RMK AO2,M
05U,2022-08-03 01:15,-116.0051,39.6042,1811.23,M,M,M,M,M,0.00,M,M,M,M,M,M,M,M,M,M,M,M,M,M,M,M,M,M,M,M,K05U 030115Z AUTO RMK A01 PNO,M
MEV,2022-08-03 01:15,-119.7500,38.9963,1441.42,87.80,50.00,27.29,270.00,13.00,0.00,30.13,M,10.00,M,CLR,M,M,M,M,M,M,M,M,M,M,M,M,M,M,85.11,KMEV 030115Z AUTO 27013KT 10SM CLR 31/10 A3013 RMK AO2,M
BAM,2022-08-03 01:15,-116.8743,40.5990,1382.36,89.60,50.00,25.79,0.00,0.00,0.00,30.08,M,10.00,M,SCT,M,M,M,12000.00,M,M,M,M,M,M,M,M,M,M,86.70,KBAM 030115Z AUTO 00000KT 10SM SCT120 32/10 A3008 RMK AO1,M
HTH,2022-08-03 01:15,-118.6315,38.5448,1282.89,86.00,48.20,27.03,200.00,14.00,0.00,30.10,M,10.00,M,CLR,M,M,M,M,M,M,M,M,M,M,M,M,M,M,83.40,KHTH 030115Z AUTO 20014KT 10SM CLR 30/09 A3010 RMK A01,M
CXP,2022-08-03 01:30,-119.7326,39.1923,1431.00,87.80,50.00,27.29,270.00,10.00,0.00,30.14,M,10.00,17.00,CLR,M,M,M,M,M,M,M,M,M,M,M,M,M,M,85.11,KCXP 030130Z AUTO 27010G17KT 10SM CLR 31/10 A3014 RMK AO2,M
MEV,2022-08-03 01:35,-119.7500,38.9963,1441.42,86.00,50.00,28.90,280.00,14.00,0.00,30.13,M,10.00,M,CLR,M,M,M,M,M,M,M,M,M,M,M,M,M,M,83.62,KMEV 030135Z AUTO 28014KT 10SM CLR 30/10 A3013 RMK AO2 LTG DSNT NE AND SE,M
RTS,2022-08-03 01:35,-119.8764,39.6682,1539.00,86.00,46.40,25.26,290.00,12.00,0.00,30.17,M,10.00,18.00,CLR,M,M,M,M,M,M,M,M,M,M,M,M,M,M,83.22,KRTS 030135Z AUTO 29012G18KT 10SM CLR 30/08 A3017 RMK AO2,M
BVU,2022-08-03 01:35,-114.8611,35.9475,671.00,100.40,55.40,22.54,170.00,7.00,0.00,29.88,M,M,M,M,M,M,M,M,M,M,M,M,M,M,M,M,M,M,99.06,KBVU 030135Z AUTO 17007KT 38/13 A2988 RMK AO2 PWINO TSNO,M
HTH,2022-08-03 01:35,-118.6315,38.5448,1282.89,86.00,48.20,27.03,200.00,13.00,0.00,30.10,M,10.00,19.00,CLR,M,M,M,M,M,M,M,M,M,M,M,M,M,M,83.40,KHTH 030135Z AUTO 20013G19KT 10SM CLR 30/09 A3010 RMK A01,M
BAM,2022-08-03 01:35,-116.8743,40.5990,1382.36,87.80,53.60,31.17,270.00,17.00,0.00,30.09,M,7.00,30.00,SCT,SCT,SCT,M,6000.00,9000.00,12000.00,M,M,M,M,M,M,M,M,85.72,KBAM 030135Z AUTO 27017G30KT 260V320 7SM SCT060 SCT090 SCT120 31/12 A3009 RMK AO1,M
TMT,2022-08-03 01:35,-117.1971,39.4643,1749.34,M,M,M,80.00,6.00,0.00,30.19,M,10.00,M,SCT,M,M,M,10000.00,M,M,M,M,M,M,M,M,M,M,M,KTMT 030135Z AUTO 08006KT 10SM SCT100 A3019 RMK AO2,M
05U,2022-08-03 01:35,-116.0051,39.6042,1811.23,M,M,M,M,M,0.00,M,M,M,M,M,M,M,M,M,M,M,M,M,M,M,M,M,M,M,M,K05U 030135Z AUTO RMK A01 PNO,M
WMC,2022-08-03 01:36,-117.8072,40.9019,1315.00,86.00,56.00,35.90,350.00,22.00,0.00,30.07,M,5.00,39.00,FEW,M,M,M,11000.00,M,M,M,HZ,M,M,M,39.00,360.00,2022-08-03 01:31,84.66,KWMC 030136Z AUTO 35022G39KT 5SM HZ FEW110 30/13 A3007 RMK AO2 PK WND 36039/0131 WSHFT 0116 T03000133,M
NFL,2022-08-03 01:38,-118.7010,39.4166,1199.00,87.00,50.00,27.91,210.00,12.00,0.00,30.05,M,10.00,M,SCT,BKN,BKN,BKN,8000.00,12000.00,18000.00,25000.00,M,M,M,M,M,M,M,84.51,KNFL 030138Z 21012KT 10SM SCT080 BKN120 BKN180 BKN250 31/10 A3005 RMK AO2 WSHFT 0118 CB DSNT SW-W T03060100,M
RNO,2022-08-03 01:44,-119.7711,39.4839,1341.00,88.00,53.00,30.41,0.00,0.00,0.00,30.10,M,10.00,M,BKN,BKN,M,M,9000.00,25000.00,M,M,TS,M,M,M,M,M,M,85.80,KRNO 030144Z 00000KT 10SM TS BKN090CB BKN250 31/12 A3010 RMK AO2 LTG DSNT SE TSB44 OCNL LTGCG E TS E MOV NE CB N THRU SE MOV NE T03110117,M
CXP,2022-08-03 01:50,-119.7326,39.1923,1431.00,86.00,50.00,28.90,260.00,9.00,0.00,30.14,M,10.00,M,CLR,M,M,M,M,M,M,M,M,M,M,M,M,M,M,83.62,KCXP 030150Z AUTO 26009KT 10SM CLR 30/10 A3014 RMK AO2 LTG DSNT SE,M
DRA,2022-08-03 01:53,-116.0278,36.6206,1009.00,95.00,51.00,22.70,230.00,4.00,0.00,29.97,1009.60,10.00,M,CLR,M,M,M,M,M,M,M,M,M,M,M,M,M,M,92.11,KDRA 030153Z AUTO 23004KT 10SM CLR 35/11 A2997 RMK AO2 SLP096 T03500106,M
VGT,2022-08-03 01:53,-115.1933,36.2111,667.00,97.00,61.00,30.56,M,3.00,T,29.87,1010.00,10.00,M,CLR,M,M,M,M,M,M,M,M,M,M,M,M,M,M,97.66,KVGT 030153Z VRB03KT 10SM CLR 36/16 A2987 RMK AO2 RAB14E27 SLP100 P0000 T03610161,M
LOL,2022-08-03 01:53,-118.5701,40.0684,1192.43,94.00,42.00,16.72,260.00,8.00,0.00,30.03,1012.10,10.00,M,SCT,M,M,M,11000.00,M,M,M,M,M,M,M,M,M,M,89.76,KLOL 030153Z AUTO 26008KT 10SM SCT110 34/06 A3003 RMK AO2 SLP121 T03440056,M
ELY,2022-08-03 01:53,-114.8453,39.2950,1909.00,79.00,47.00,32.29,330.00,9.00,0.00,30.22,1013.00,10.00,M,FEW,OVC,M,M,7500.00,11000.00,M,M,M,M,M,M,M,M,M,79.00,KELY 030153Z AUTO 33009KT 10SM FEW075 OVC110 26/08 A3022 RMK AO2 SLP130 T02610083,M
RTS,2022-08-03 01:55,-119.8764,39.6682,1539.00,86.00,46.40,25.26,280.00,12.00,0.00,30.17,M,10.00,19.00,CLR,M,M,M,M,M,M,M,M,M,M,M,M,M,M,83.22,KRTS 030155Z AUTO 28012G19KT 10SM CLR 30/08 A3017 RMK AO2,M
05U,2022-08-03 01:55,-116.0051,39.6042,1811.23,M,M,M,M,M,0.00,M,M,M,M,M,M,M,M,M,M,M,M,M,M,M,M,M,M,M,M,K05U 030155Z AUTO RMK A01 PNO,M
MEV,2022-08-03 01:55,-119.7500,38.9963,1441.42,84.20,50.00,30.62,280.00,11.00,0.00,30.14,M,10.00,18.00,CLR,M,M,M,M,M,M,M,M,M,M,M,M,M,M,82.24,KMEV 030155Z AUTO 28011G18KT 10SM CLR 29/10 A3014 RMK AO2,M
BAM,2022-08-03 01:55,-116.8743,40.5990,1382.36,75.20,57.20,53.55,60.00,12.00,0.00,30.08,M,3.00,32.00,SCT,SCT,BKN,M,600.00,2900.00,5000.00,M,M,M,M,M,M,M,M,75.20,KBAM 030155Z AUTO 06012G32KT 3SM SCT006 SCT029 BKN050 24/14 A3008 RMK AO1,M
HTH,2022-08-03 01:55,-118.6315,38.5448,1282.89,86.00,48.20,27.03,200.00,8.00,0.00,30.11,M,10.00,13.00,CLR,M,M,M,M,M,M,M,M,M,M,M,M,M,M,83.40,KHTH 030155Z AUTO 20008G13KT 10SM CLR 30/09 A3011 RMK A01,M
TMT,2022-08-03 01:55,-117.1971,39.4643,1749.34,M,M,M,10.00,5.00,0.00,30.20,M,10.00,M,BKN,M,M,M,10000.00,M,M,M,M,M,M,M,M,M,M,M,KTMT 030155Z AUTO 01005KT 10SM BKN100 A3020 RMK AO2 LTG DSNT SE,M
BVU,2022-08-03 01:55,-114.8611,35.9475,671.00,100.40,55.40,22.54,180.00,8.00,0.00,29.88,M,M,M,M,M,M,M,M,M,M,M,M,M,M,M,M,M,M,99.06,KBVU 030155Z AUTO 18008KT 38/13 A2988 RMK AO2 PWINO TSNO,M
RNO,2022-08-03 01:55,-119.7711,39.4839,1341.00,89.00,52.00,28.21,220.00,5.00,0.00,30.10,1013.50,10.00,M,BKN,BKN,M,M,9000.00,25000.00,M,M,TS,M,M,M,M,M,M,86.58,KRNO 030155Z 22005KT 10SM TS BKN090CB BKN250 32/11 A3010 RMK AO2 LTG DSNT SE TSB44 SLP135 OCNL LTGICCG E TS E MOV NE CB N THRU SE MOV NE T03170111,M
HND,2022-08-03 01:56,-115.1344,35.9729,742.79,98.00,58.00,26.46,220.00,6.00,0.00,29.92,1011.40,10.00,M,CLR,M,M,M,M,M,M,M,M,M,M,M,M,M,M,97.49,KHND 030156Z 22006KT 10SM CLR 37/14 A2992 RMK AO2 SLP114 T03670144,M
EKO,2022-08-03 01:56,-115.7860,40.8242,1367.00,81.00,45.00,28.15,280.00,9.00,0.00,30.10,1013.80,10.00,M,CLR,M,M,M,M,M,M,M,M,M,M,M,M,M,M,79.68,KEKO 030156Z AUTO 28009KT 10SM CLR 27/07 A3010 RMK AO2 SLP138 T02720072,M
WMC,2022-08-03 01:56,-117.8072,40.9019,1315.00,84.00,55.00,37.05,350.00,22.00,0.00,30.08,1012.90,9.00,37.00,CLR,M,M,M,M,M,M,M,M,M,M,M,39.00,360.00,2022-08-03 01:31,82.85,KWMC 030156Z AUTO 35022G37KT 9SM CLR 29/13 A3008 RMK AO2 PK WND 36039/0131 WSHFT 0116 SLP129 T02890128,M
LAS,2022-08-03 01:56,-115.1634,36.0719,663.00,99.00,55.00,23.18,0.00,0.00,0.00,29.88,1008.60,10.00,M,FEW,SCT,M,M,10000.00,25000.00,M,M,M,M,M,M,M,M,M,97.39,KLAS 030156Z 00000KT 10SM FEW100 SCT250 37/13 A2988 RMK AO2 SLP086 T03720128,M
NFL,2022-08-03 01:56,-118.7010,39.4166,1199.00,88.00,48.00,25.17,210.00,9.00,0.00,30.05,1014.50,10.00,M,SCT,BKN,BKN,BKN,8000.00,12000.00,18000.00,25000.00,M,M,M,M,M,M,M,85.02,KNFL 030156Z 21009KT 10SM SCT080 BKN120 BKN180 BKN250 31/09 A3005 RMK AO2 WSHFT 0118 SLP145 CB DSNT SW-W T03110089,M
TPH,2022-08-03 01:56,-117.0904,38.0505,1654.00,83.00,53.00,35.81,270.00,11.00,0.00,30.17,1013.90,10.00,17.00,CLR,M,M,M,M,M,M,M,M,M,M,M,M,M,M,81.73,KTPH 030156Z AUTO 27011G17KT 10SM CLR 28/12 A3017 RMK AO2 SLP139 T02830117,M
INS,2022-08-03 01:58,-115.6733,36.5872,955.00,93.60,53.40,25.80,220.00,10.00,0.00,29.96,1009.40,10.00,M,CLR,M,M,M,M,M,M,M,M,M,M,M,M,M,M,91.22,KINS 030158Z AUTO 22010KT 10SM CLR 34/12 A2996 RMK AO2 SLP094 T03420119,M
LSV,2022-08-03 01:58,-115.0343,36.2362,570.00,101.00,56.50,22.97,230.00,3.00,0.00,29.83,1007.40,10.00,M,SCT,M,M,M,17000.00,M,M,M,M,M,M,M,M,M,M,100.26,KLSV 030158Z 23003KT 10SM SCT170 38/14 A2983 RMK AO2A SLP074 T03840136 $,M
CXP,2022-08-03 02:10,-119.7326,39.1923,1431.00,86.00,51.80,30.90,M,5.00,0.00,30.14,M,10.00,18.00,CLR,M,M,M,M,M,M,M,VCTS,M,M,M,M,M,M,83.87,KCXP 030210Z AUTO VRB05G18KT 10SM VCTS CLR 30/11 A3014 RMK AO2 LTG DSNT E,M
TPH,2022-08-03 02:14,-117.0904,38.0505,1654.00,80.00,53.00,39.23,310.00,19.00,0.00,30.17,M,10.00,26.00,SCT,M,M,M,9000.00,M,M,M,M,M,M,M,28.00,310.00,2022-08-03 02:03,79.94,KTPH 030214Z AUTO 31019G26KT 10SM SCT090 27/12 A3017 RMK AO2 PK WND 31028/0203 WSHFT 0154 T02670117,M
RTS,2022-08-03 02:15,-119.8764,39.6682,1539.00,84.20,46.40,26.76,280.00,11.00,0.00,30.17,M,10.00,M,CLR,M,M,M,M,M,M,M,M,M,M,M,M,M,M,81.87,KRTS 030215Z AUTO 28011KT 10SM CLR 29/08 A3017 RMK AO2,M
BVU,2022-08-03 02:15,-114.8611,35.9475,671.00,98.60,55.40,23.81,190.00,8.00,0.00,29.88,M,M,M,M,M,M,M,M,M,M,M,M,M,M,M,M,M,M,97.09,KBVU 030215Z AUTO 19008KT 37/13 A2988 RMK AO2 PWINO TSNO,M
TMT,2022-08-03 02:15,-117.1971,39.4643,1749.34,M,M,M,340.00,3.00,0.00,30.20,M,10.00,M,SCT,M,M,M,10000.00,M,M,M,M,M,M,M,M,M,M,M,KTMT 030215Z AUTO 34003KT 10SM SCT100 A3020 RMK AO2,M
HTH,2022-08-03 02:15,-118.6315,38.5448,1282.89,86.00,50.00,28.90,190.00,9.00,0.00,30.12,M,10.00,16.00,CLR,M,M,M,M,M,M,M,M,M,M,M,M,M,M,83.62,KHTH 030215Z AUTO 19009G16KT 160V230 10SM CLR 30/10 A3012 RMK A01,M
MEV,2022-08-03 02:15,-119.7500,38.9963,1441.42,82.40,51.80,34.69,270.00,12.00,0.00,30.14,M,10.00,18.00,CLR,M,M,M,M,M,M,M,M,M,M,M,M,M,M,81.20,KMEV 030215Z AUTO 27012G18KT 10SM CLR 28/11 A3014 RMK AO2,M
05U,2022-08-03 02:15,-116.0051,39.6042,1811.23,M,M,M,M,M,0.00,M,M,M,M,M,M,M,M,M,M,M,M,M,M,M,M,M,M,M,M,K05U 030215Z AUTO RMK A01 PNO,M
BAM,2022-08-03 02:15,-116.8743,40.5990,1382.36,78.80,59.00,50.69,80.00,7.00,0.00,30.08,M,10.00,M,BKN,BKN,M,M,10000.00,12000.00,M,M,M,M,M,M,M,M,M,78.80,KBAM 030215Z AUTO 08007KT 10SM BKN100 BKN120 26/15 A3008 RMK AO1,M
RNO,2022-08-03 02:21,-119.7711,39.4839,1341.00,90.00,51.00,26.52,280.00,9.00,0.00,30.10,M,10.00,M,SCT,BKN,M,M,9000.00,25000.00,M,M,M,M,M,M,M,M,M,87.24,KRNO 030221Z 28009KT 10SM SCT090CB BKN250 32/11 A3010 RMK AO2 TSE20 TS MOVD NE CB N THRU E MOV NE T03220106,M
CXP,2022-08-03 02:30,-119.7326,39.1923,1431.00,84.20,51.80,32.73,260.00,7.00,0.00,30.15,M,10.00,12.00,CLR,M,M,M,M,M,M,M,M,M,M,M,M,M,M,82.48,KCXP 030230Z AUTO 26007G12KT 220V290 10SM CLR 29/11 A3015 RMK AO2,M
BVU,2022-08-03 02:35,-114.8611,35.9475,671.00,96.80,55.40,25.15,170.00,6.00,0.00,29.88,M,M,M,M,M,M,M,M,M,M,M,M,M,M,M,M,M,M,95.14,KBVU 030235Z AUTO 17006KT 36/13 A2988 RMK AO2 PWINO TSNO,M
RTS,2022-08-03 02:35,-119.8764,39.6682,1539.00,82.40,48.20,30.35,280.00,12.00,0.00,30.17,M,10.00,M,CLR,M,M,M,M,M,M,M,M,M,M,M,M,M,M,80.80,KRTS 030235Z AUTO 28012KT 10SM CLR 28/09 A3017 RMK AO2,M
05U,2022-08-03 02:35,-116.0051,39.6042,1811.23,M,M,M,M,M,0.00,M,M,M,M,M,M,M,M,M,M,M,M,M,M,M,M,M,M,M,M,K05U 030235Z AUTO RMK A01 PNO,M
MEV,2022-08-03 02:35,-119.7500,38.9963,1441.42,82.40,51.80,34.69,280.00,12.00,0.00,30.15,M,10.00,M,SCT,M,M,M,9500.00,M,M,M,M,M,M,M,M,M,M,81.20,KMEV 030235Z AUTO 28012KT 10SM SCT095 28/11 A3015 RMK AO2,M
BAM,2022-08-03 02:35,-116.8743,40.5990,1382.36,77.00,64.40,65.12,60.00,5.00,0.00,30.08,M,10.00,M,BKN,M,M,M,11000.00,M,M,M,M,M,M,M,M,M,M,77.00,KBAM 030235Z AUTO 06005KT 10SM BKN110 25/18 A3008 RMK AO1,M
TMT,2022-08-03 02:35,-117.1971,39.4643,1749.34,M,M,M,0.00,0.00,0.00,30.20,M,10.00,M,CLR,M,M,M,M,M,M,M,M,M,M,M,M,M,M,M,KTMT 030235Z AUTO 00000KT 10SM CLR A3020 RMK AO2,M
HTH,2022-08-03 02:35,-118.6315,38.5448,1282.89,82.40,50.00,32.46,300.00,14.00,0.00,30.12,M,10.00,M,FEW,M,M,M,12000.00,M,M,M,M,M,M,M,M,M,M,80.99,KHTH 030235Z AUTO 30014KT 10SM FEW120 28/10 A3012 RMK A01,M
EKO,2022-08-03 02:42,-115.7860,40.8242,1367.00,75.00,51.00,43.14,350.00,18.00,0.00,30.12,M,10.00,27.00,CLR,M,M,M,M,M,M,M,M,M,M,M,30.00,340.00,2022-08-03 02:31,75.00,KEKO 030242Z AUTO 35018G27KT 10SM CLR 24/11 A3012 RMK AO2 PK WND 34030/0231 WSHFT 0222 T02390106,M
CXP,2022-08-03 02:50,-119.7326,39.1923,1431.00,84.20,51.80,32.73,270.00,6.00,0.00,30.15,M,10.00,M,FEW,M,M,M,9500.00,M,M,M,M,M,M,M,M,M,M,82.48,KCXP 030250Z AUTO 27006KT 10SM FEW095 29/11 A3015 RMK AO2,M
VGT,2022-08-03 02:53,-115.1933,36.2111,667.00,100.00,57.00,24.18,300.00,7.00,0.00,29.87,1009.80,10.00,M,CLR,M,M,M,M,M,M,M,M,M,M,M,M,M,M,99.24,KVGT 030253Z 30007KT 10SM CLR 38/14 A2987 RMK AO2 SLP098 60000 T03780139 56006,M
LOL,2022-08-03 02:53,-118.5701,40.0684,1192.43,90.00,43.00,19.55,290.00,5.00,0.00,30.03,1012.20,10.00,M,CLR,M,M,M,M,M,M,M,M,M,M,M,M,M,M,86.29,KLOL 030253Z AUTO 29005KT 10SM CLR 32/06 A3003 RMK AO2 SLP122 T03220061 55003,M
DRA,2022-08-03 02:53,-116.0278,36.6206,1009.00,93.00,51.00,24.15,270.00,5.00,0.00,29.97,1009.40,10.00,M,CLR,M,M,M,M,M,M,M,M,M,M,M,M,M,M,90.11,KDRA 030253Z AUTO 27005KT 10SM CLR 34/11 A2997 RMK AO2 SLP094 T03390106 55004,M
ELY,2022-08-03 02:53,-114.8453,39.2950,1909.00,73.00,48.00,41.10,60.00,6.00,0.00,30.22,1012.90,10.00,M,CLR,M,M,M,M,M,M,M,M,M,M,M,M,M,M,73.00,KELY 030253Z AUTO 06006KT 10SM CLR 23/09 A3022 RMK AO2 SLP129 T02280089 55001,M
HTH,2022-08-03 02:55,-118.6315,38.5448,1282.89,82.40,51.80,34.69,310.00,10.00,0.00,30.12,M,10.00,M,FEW,M,M,M,12000.00,M,M,M,M,M,M,M,M,M,M,81.20,KHTH 030255Z AUTO 31010KT 10SM FEW120 28/11 A3012 RMK A01,M
TMT,2022-08-03 02:55,-117.1971,39.4643,1749.34,M,M,M,0.00,0.00,0.00,30.21,M,10.00,M,SCT,M,M,M,9500.00,M,M,M,M,M,M,M,M,M,M,M,KTMT 030255Z AUTO 00000KT 10SM SCT095 A3021 RMK AO2 LTG DSNT E,M
BVU,2022-08-03 02:55,-114.8611,35.9475,671.00,96.80,57.20,26.84,160.00,5.00,0.00,29.88,M,M,M,M,M,M,M,M,M,M,M,M,M,M,M,M,M,M,95.77,KBVU 030255Z AUTO 16005KT 36/14 A2988 RMK AO2 PWINO TSNO,M
MEV,2022-08-03 02:55,-119.7500,38.9963,1441.42,80.60,51.80,36.79,250.00,12.00,0.00,30.15,M,10.00,M,FEW,M,M,M,9500.00,M,M,M,M,M,M,M,M,M,M,80.08,KMEV 030255Z AUTO 25012KT 10SM FEW095 27/11 A3015 RMK AO2,M
05U,2022-08-03 02:55,-116.0051,39.6042,1811.23,M,M,M,M,M,0.00,M,M,M,M,M,M,M,M,M,M,M,M,M,M,M,M,M,M,M,M,K05U 030255Z AUTO RMK A01 PNO,M
RTS,2022-08-03 02:55,-119.8764,39.6682,1539.00,80.60,48.20,32.18,290.00,10.00,0.00,30.18,M,10.00,M,CLR,M,M,M,M,M,M,M,M,M,M,M,M,M,M,79.71,KRTS 030255Z AUTO 29010KT 10SM CLR 27/09 A3018 RMK AO2,M
RNO,2022-08-03 02:55,-119.7711,39.4839,1341.00,88.00,52.00,29.21,280.00,11.00,0.00,30.11,1013.20,10.00,M,FEW,BKN,M,M,9000.00,25000.00,M,M,M,M,M,M,M,M,M,85.60,KRNO 030255Z 28011KT 10SM FEW090CB BKN250 31/11 A3011 RMK AO2 TSE20 SLP132 CB N THRU SE MOV NE T03110111 55001,M
BAM,2022-08-03 02:55,-116.8743,40.5990,1382.36,77.00,62.60,61.13,60.00,5.00,0.00,30.09,M,10.00,M,BKN,M,M,M,11000.00,M,M,M,M,M,M,M,M,M,M,77.00,KBAM 030255Z AUTO 06005KT 10SM BKN110 25/17 A3009 RMK AO1,M
HND,2022-08-03 02:56,-115.1344,35.9729,742.79,96.00,57.00,27.23,210.00,8.00,0.00,29.92,1011.20,10.00,M,CLR,M,M,M,M,M,M,M,M,M,M,M,M,M,M,94.94,KHND 030256Z 21008KT 10SM CLR 36/14 A2992 RMK AO2 SLP112 T03560139 56007,M
NFL,2022-08-03 02:56,-118.7010,39.4166,1199.00,86.00,48.00,26.82,230.00,11.00,0.00,30.06,1014.80,10.00,M,SCT,BKN,BKN,BKN,8000.00,12000.00,18000.00,25000.00,M,M,M,M,M,M,M,83.38,KNFL 030256Z 23011KT 10SM SCT080 BKN120 BKN180 BKN250 30/09 A3006 RMK AO2 SLP148 CB DSNT SW-W T03000089 53002,M
EKO,2022-08-03 02:56,-115.7860,40.8242,1367.00,75.00,51.00,43.14,30.00,13.00,0.00,30.14,1015.40,10.00,20.00,CLR,M,M,M,M,M,M,M,M,M,M,M,30.00,340.00,2022-08-03 02:31,75.00,KEKO 030256Z AUTO 03013G20KT 10SM CLR 24/11 A3014 RMK AO2 PK WND 34030/0231 WSHFT 0222 SLP154 T02390106 53011,M
TPH,2022-08-03 02:56,-117.0904,38.0505,1654.00,77.00,52.00,41.72,310.00,13.00,0.00,30.17,1014.00,10.00,M,CLR,M,M,M,M,M,M,M,M,M,M,M,28.00,310.00,2022-08-03 02:03,77.00,KTPH 030256Z AUTO 31013KT 10SM CLR 25/11 A3017 RMK AO2 PK WND 31028/0203 WSHFT 0154 SLP140 T02500111 56001,M
LAS,2022-08-03 02:56,-115.1634,36.0719,663.00,97.00,56.00,25.45,220.00,3.00,0.00,29.88,1008.50,10.00,M,FEW,FEW,M,M,10000.00,25000.00,M,M,M,M,M,M,M,M,M,95.53,KLAS 030256Z 22003KT 10SM FEW100 FEW250 36/13 A2988 RMK AO2 SLP085 T03610133 56007,M
WMC,2022-08-03 02:56,-117.8072,40.9019,1315.00,82.00,54.00,38.11,10.00,9.00,0.00,30.11,1014.20,10.00,M,BKN,M,M,M,10000.00,M,M,M,M,M,M,M,30.00,330.00,2022-08-03 02:00,81.24,KWMC 030256Z AUTO 01009KT 10SM BKN100 28/12 A3011 RMK AO2 PK WND 33030/0200 SLP142 T02780122 53014,M
INS,2022-08-03 02:58,-115.6733,36.5872,955.00,91.20,53.40,27.80,220.00,6.00,0.00,29.96,1009.20,10.00,M,CLR,M,M,M,M,M,M,M,M,M,M,M,M,M,M,88.83,KINS 030258Z AUTO 22006KT 10SM CLR 33/12 A2996 RMK AO2 SLP092 T03290119 56006,M
LSV,2022-08-03 02:58,-115.0343,36.2362,570.00,100.40,57.20,24.06,0.00,0.00,0.00,29.84,M,10.00,M,CLR,M,M,M,M,M,M,M,M,M,M,M,M,M,M,99.77,KLSV 030258Z 00000KT 10SM CLR 38/14 A2984 RMK AO2A SLPNO WND DATA ESTMD 55007 $,M
CXP,2022-08-03 03:10,-119.7326,39.1923,1431.00,82.40,51.80,34.69,0.00,0.00,0.00,30.16,M,10.00,M,BKN,M,M,M,8000.00,M,M,M,M,M,M,M,M,M,M,81.20,KCXP 030310Z AUTO 00000KT 10SM BKN080 28/11 A3016 RMK AO2,M
RTS,2022-08-03 03:15,-119.8764,39.6682,1539.00,80.60,48.20,32.18,290.00,11.00,0.00,30.18,M,10.00,M,BKN,M,M,M,9000.00,M,M,M,M,M,M,M,M,M,M,79.71,KRTS 030315Z AUTO 29011KT 10SM BKN090 27/09 A3018 RMK AO2,M
05U,2022-08-03 03:15,-116.0051,39.6042,1811.23,M,M,M,M,M,0.00,M,M,M,M,M,M,M,M,M,M,M,M,M,M,M,M,M,M,M,M,K05U 030315Z AUTO RMK A01 PNO,M
MEV,2022-08-03 03:15,-119.7500,38.9963,1441.42,78.80,51.80,39.02,240.00,12.00,0.00,30.16,M,10.00,M,CLR,M,M,M,M,M,M,M,M,M,M,M,M,M,M,78.80,KMEV 030315Z AUTO 24012KT 10SM CLR 26/11 A3016 RMK AO2,M
BAM,2022-08-03 03:15,-116.8743,40.5990,1382.36,77.00,60.80,57.36,10.00,5.00,0.00,30.11,M,10.00,M,BKN,M,M,M,10000.00,M,M,M,M,M,M,M,M,M,M,77.00,KBAM 030315Z AUTO 01005KT 10SM BKN100 25/16 A3011 RMK AO1,M
HTH,2022-08-03 03:15,-118.6315,38.5448,1282.89,82.40,51.80,34.69,260.00,15.00,0.00,30.12,M,10.00,M,FEW,BKN,M,M,7500.00,11000.00,M,M,M,M,M,M,M,M,M,81.20,KHTH 030315Z AUTO 26015KT 10SM FEW075 BKN110 28/11 A3012 RMK A01,M
BVU,2022-08-03 03:15,-114.8611,35.9475,671.00,95.00,59.00,30.26,150.00,5.00,0.00,29.89,M,M,M,M,M,M,M,M,M,M,M,M,M,M,M,M,M,M,94.51,KBVU 030315Z AUTO 15005KT 35/15 A2989 RMK AO2 PWINO TSNO,M
TMT,2022-08-03 03:15,-117.1971,39.4643,1749.34,M,M,M,0.00,0.00,0.00,30.21,M,10.00,M,SCT,M,M,M,9500.00,M,M,M,M,M,M,M,M,M,M,M,KTMT 030315Z AUTO 00000KT 10SM SCT095 A3021 RMK AO2,M
CXP,2022-08-03 03:30,-119.7326,39.1923,1431.00,82.40,50.00,32.46,0.00,0.00,0.00,30.17,M,10.00,M,OVC,M,M,M,8500.00,M,M,M,M,M,M,M,M,M,M,80.99,KCXP 030330Z AUTO 00000KT 10SM OVC085 28/10 A3017 RMK AO2,M
RTS,2022-08-03 03:35,-119.8764,39.6682,1539.00,78.80,48.20,34.13,300.00,10.00,0.00,30.19,M,10.00,M,BKN,M,M,M,9000.00,M,M,M,M,M,M,M,M,M,M,78.80,KRTS 030335Z AUTO 30010KT 10SM BKN090 26/09 A3019 RMK AO2,M
05U,2022-08-03 03:35,-116.0051,39.6042,1811.23,M,M,M,M,M,0.00,M,M,M,M,M,M,M,M,M,M,M,M,M,M,M,M,M,M,M,M,K05U 030335Z AUTO RMK A01 PNO,M
BAM,2022-08-03 03:35,-116.8743,40.5990,1382.36,73.40,60.80,64.69,80.00,7.00,0.00,30.12,M,10.00,M,SCT,M,M,M,10000.00,M,M,M,M,M,M,M,M,M,M,73.40,KBAM 030335Z AUTO 08007KT 10SM SCT100 23/16 A3012 RMK AO1,M
BVU,2022-08-03 03:35,-114.8611,35.9475,671.00,95.00,59.00,30.26,140.00,5.00,0.00,29.89,M,M,M,M,M,M,M,M,M,M,M,M,M,M,M,M,M,M,94.51,KBVU 030335Z AUTO 14005KT 35/15 A2989 RMK AO2 PWINO TSNO,M
HTH,2022-08-03 03:35,-118.6315,38.5448,1282.89,82.40,50.00,32.46,260.00,5.00,0.00,30.13,M,10.00,M,FEW,FEW,SCT,M,5000.00,7000.00,11000.00,M,M,M,M,M,M,M,M,80.99,KHTH 030335Z AUTO 26005KT 10SM FEW050 FEW070 SCT110 28/10 A3013 RMK A01,M
MEV,2022-08-03 03:35,-119.7500,38.9963,1441.42,75.20,53.60,46.98,190.00,7.00,0.00,30.18,M,10.00,M,BKN,M,M,M,9000.00,M,M,M,M,M,M,M,M,M,M,75.20,KMEV 030335Z AUTO 19007KT 10SM BKN090 24/12 A3018 RMK AO2,M
CXP,2022-08-03 03:50,-119.7326,39.1923,1431.00,82.40,50.00,32.46,M,4.00,0.00,30.18,M,10.00,12.00,BKN,BKN,M,M,8500.00,11000.00,M,M,M,M,M,M,M,M,M,80.99,KCXP 030350Z AUTO VRB04G12KT 10SM BKN085 BKN110 28/10 A3018 RMK AO2,M
VGT,2022-08-03 03:53,-115.1933,36.2111,667.00,99.00,57.00,24.92,320.00,3.00,0.00,29.88,1010.30,10.00,M,CLR,M,M,M,M,M,M,M,M,M,M,M,M,M,M,98.12,KVGT 030353Z AUTO 32003KT 10SM CLR 37/14 A2988 RMK AO2 SLP103 T03720139,M
ELY,2022-08-03 03:53,-114.8453,39.2950,1909.00,68.00,50.00,52.51,0.00,0.00,0.00,30.24,1013.70,10.00,M,CLR,M,M,M,M,M,M,M,M,M,M,M,M,M,M,68.00,KELY 030353Z AUTO 00000KT 10SM CLR 20/10 A3024 RMK AO2 SLP137 T02000100,M
DRA,2022-08-03 03:53,-116.0278,36.6206,1009.00,90.00,53.00,28.55,330.00,3.00,0.00,29.98,1009.60,10.00,M,CLR,M,M,M,M,M,M,M,M,M,M,M,M,M,M,87.62,KDRA 030353Z AUTO 33003KT 10SM CLR 32/12 A2998 RMK AO2 SLP096 T03220117,M
LOL,2022-08-03 03:53,-118.5701,40.0684,1192.43,86.00,50.00,28.90,30.00,18.00,0.00,30.06,1013.00,9.00,23.00,BKN,M,M,M,11000.00,M,M,M,M,M,M,M,M,M,M,83.62,KLOL 030353Z AUTO 03018G23KT 9SM BKN110 30/10 A3006 RMK AO2 SLP130 T03000100,M
RNO,2022-08-03 03:55,-119.7711,39.4839,1341.00,84.00,53.00,34.56,260.00,10.00,0.00,30.14,1014.40,10.00,16.00,SCT,BKN,M,M,9000.00,25000.00,M,M,M,M,M,M,M,M,M,82.52,KRNO 030355Z 26010G16KT 10SM SCT090CB BKN250 29/12 A3014 RMK AO2 LTG DSNT N AND NE SLP144 CB N THRU SE MOV NE T02890117,M
BAM,2022-08-03 03:55,-116.8743,40.5990,1382.36,77.00,57.20,50.43,60.00,9.00,0.00,30.13,M,10.00,16.00,CLR,M,M,M,M,M,M,M,M,M,M,M,M,M,M,77.00,KBAM 030355Z AUTO 06009G16KT 10SM CLR 25/14 A3013 RMK AO1,M
BVU,2022-08-03 03:55,-114.8611,35.9475,671.00,93.20,60.80,34.11,150.00,4.00,0.00,29.90,M,M,M,M,M,M,M,M,M,M,M,M,M,M,M,M,M,M,93.32,KBVU 030355Z AUTO 15004KT 34/16 A2990 RMK AO2 PWINO TSNO,M
RTS,2022-08-03 03:55,-119.8764,39.6682,1539.00,78.80,48.20,34.13,290.00,8.00,0.00,30.20,M,10.00,M,BKN,M,M,M,8500.00,M,M,M,M,M,M,M,M,M,M,78.80,KRTS 030355Z AUTO 29008KT 10SM BKN085 26/09 A3020 RMK AO2,M
05U,2022-08-03 03:55,-116.0051,39.6042,1811.23,M,M,M,M,M,0.00,M,M,M,M,M,M,M,M,M,M,M,M,M,M,M,M,M,M,M,M,K05U 030355Z AUTO RMK A01 PNO,M
HTH,2022-08-03 03:55,-118.6315,38.5448,1282.89,82.40,50.00,32.46,330.00,5.00,0.00,30.13,M,10.00,M,CLR,M,M,M,M,M,M,M,M,M,M,M,M,M,M,80.99,KHTH 030355Z AUTO 33005KT 10SM CLR 28/10 A3013 RMK A01,M
MEV,2022-08-03 03:55,-119.7500,38.9963,1441.42,75.20,53.60,46.98,230.00,8.00,0.00,30.19,M,10.00,M,OVC,M,M,M,8500.00,M,M,M,M,M,M,M,M,M,M,75.20,KMEV 030355Z AUTO 23008KT 10SM OVC085 24/12 A3019 RMK AO2,M
EKO,2022-08-03 03:56,-115.7860,40.8242,1367.00,70.00,52.00,52.80,40.00,12.00,0.00,30.17,1016.60,10.00,24.00,CLR,M,M,M,M,M,M,M,M,M,M,M,M,M,M,70.00,KEKO 030356Z AUTO 04012G24KT 10SM CLR 21/11 A3017 RMK AO2 SLP166 T02110111,M
LAS,2022-08-03 03:56,-115.1634,36.0719,663.00,97.00,55.00,24.63,190.00,3.00,0.00,29.89,1009.10,10.00,M,FEW,FEW,M,M,10000.00,25000.00,M,M,M,M,M,M,M,M,M,95.23,KLAS 030356Z 19003KT 10SM FEW100 FEW250 36/13 A2989 RMK AO2 SLP091 T03610128,M
TPH,2022-08-03 03:56,-117.0904,38.0505,1654.00,78.00,50.00,37.36,30.00,7.00,0.00,30.18,1014.10,10.00,M,CLR,M,M,M,M,M,M,M,M,M,M,M,M,M,M,78.10,KTPH 030356Z AUTO 03007KT 10SM CLR 26/10 A3018 RMK AO2 SLP141 T02560100,M
HND,2022-08-03 03:56,-115.1344,35.9729,742.79,94.00,58.00,30.10,200.00,8.00,0.00,29.94,1011.80,10.00,M,CLR,M,M,M,M,M,M,M,M,M,M,M,M,M,M,92.90,KHND 030356Z AUTO 20008KT 10SM CLR 34/14 A2994 RMK AO2 SLP118 T03440144,M
NFL,2022-08-03 03:56,-118.7010,39.4166,1199.00,81.00,51.00,35.38,260.00,9.00,0.00,30.08,1015.20,10.00,M,SCT,BKN,BKN,BKN,8000.00,12000.00,18000.00,25000.00,M,M,M,M,M,M,M,80.23,KNFL 030356Z 26009KT 10SM SCT080 BKN120 BKN180 BKN250 27/11 A3008 RMK AO2 SLP152 CB DSNT SW-W AND N T02720106,M
WMC,2022-08-03 03:56,-117.8072,40.9019,1315.00,80.00,54.00,40.54,30.00,7.00,0.00,30.12,1014.40,10.00,M,CLR,M,M,M,M,M,M,M,M,M,M,M,M,M,M,80.04,KWMC 030356Z AUTO 03007KT 10SM CLR 27/12 A3012 RMK AO2 SLP144 T02670122,M
INS,2022-08-03 03:58,-115.6733,36.5872,955.00,87.40,58.00,36.90,280.00,5.00,0.00,29.97,1009.60,10.00,M,CLR,M,M,M,M,M,M,M,M,M,M,M,M,M,M,86.41,KINS 030358Z AUTO 28005KT 10SM CLR 31/14 A2997 RMK AO2 SLP096 T03080144,M
LSV,2022-08-03 03:58,-115.0343,36.2362,570.00,98.60,59.00,27.10,300.00,2.00,0.00,29.88,M,10.00,M,CLR,M,M,M,M,M,M,M,M,M,M,M,M,M,M,98.52,KLSV 030358Z 30002KT 10SM CLR 37/15 A2988 RMK AO2A SLPNO WND DATA ESTMD $,M
LOL,2022-08-03 04:03,-118.5701,40.0684,1192.43,84.00,51.00,32.10,40.00,18.00,0.00,30.06,M,8.00,27.00,BKN,M,M,M,11000.00,M,M,M,M,M,M,M,27.00,30.00,2022-08-03 04:02,82.23,KLOL 030403Z AUTO 04018G27KT 8SM BKN110 29/11 A3006 RMK AO2 PK WND 03027/0402 WSHFT 0343 T02890106,M
CXP,2022-08-03 04:10,-119.7326,39.1923,1431.00,78.80,57.20,47.52,190.00,9.00,0.00,30.20,M,8.00,15.00,OVC,M,M,M,7500.00,M,M,M,M,M,M,M,M,M,M,78.80,KCXP 030410Z AUTO 19009G15KT 8SM OVC075 26/14 A3020 RMK AO2,M
RTS,2022-08-03 04:15,-119.8764,39.6682,1539.00,77.00,50.00,38.74,290.00,11.00,0.00,30.21,M,10.00,M,OVC,M,M,M,8000.00,M,M,M,M,M,M,M,M,M,M,77.00,KRTS 030415Z AUTO 29011KT 10SM OVC080 25/10 A3021 RMK AO2,M
HTH,2022-08-03 04:15,-118.6315,38.5448,1282.89,80.60,53.60,39.30,360.00,3.00,0.00,30.13,M,10.00,M,CLR,M,M,M,M,M,M,M,M,M,M,M,M,M,M,80.29,KHTH 030415Z AUTO 36003KT 10SM CLR 27/12 A3013 RMK A01,M
05U,2022-08-03 04:15,-116.0051,39.6042,1811.23,M,M,M,M,M,0.00,M,M,M,M,M,M,M,M,M,M,M,M,M,M,M,M,M,M,M,M,K05U 030415Z AUTO RMK A01 PNO,M
MEV,2022-08-03 04:15,-119.7500,38.9963,1441.42,75.20,53.60,46.98,230.00,6.00,0.00,30.20,M,10.00,M,BKN,M,M,M,9500.00,M,M,M,M,M,M,M,M,M,M,75.20,KMEV 030415Z AUTO 23006KT 10SM BKN095 24/12 A3020 RMK AO2,M
BVU,2022-08-03 04:15,-114.8611,35.9475,671.00,93.20,60.80,34.11,140.00,4.00,0.00,29.91,M,M,M,M,M,M,M,M,M,M,M,M,M,M,M,M,M,M,93.32,KBVU 030415Z AUTO 14004KT 34/16 A2991 RMK AO2 PWINO TSNO,M
BAM,2022-08-03 04:15,-116.8743,40.5990,1382.36,77.00,55.40,47.25,40.00,17.00,0.00,30.13,M,10.00,21.00,CLR,M,M,M,M,M,M,M,M,M,M,M,M,M,M,77.00,KBAM 030415Z AUTO 04017G21KT 10SM CLR 25/13 A3013 RMK AO1,M
TMT,2022-08-03 04:20,-117.1971,39.4643,1749.34,M,M,M,150.00,4.00,0.00,30.22,M,10.00,M,CLR,M,M,M,M,M,M,M,M,M,M,M,M,M,M,M,KTMT 030420Z AUTO 15004KT 10SM CLR A3022 RMK AO2 LTG DSNT NW,M
CXP,2022-08-03 04:30,-119.7326,39.1923,1431.00,73.40,60.80,64.69,M,4.00,0.00,30.21,M,9.00,M,FEW,SCT,BKN,M,4300.00,5000.00,6000.00,M,-RA,M,M,M,M,M,M,73.40,KCXP 030430Z AUTO VRB04KT 9SM -RA FEW043 SCT050 BKN060 23/16 A3021 RMK AO2,M
MEV,2022-08-03 04:35,-119.7500,38.9963,1441.42,75.20,51.80,43.97,230.00,7.00,0.00,30.20,M,10.00,M,SCT,SCT,M,M,8000.00,10000.00,M,M,M,M,M,M,M,M,M,75.20,KMEV 030435Z AUTO 23007KT 10SM SCT080 SCT100 24/11 A3020 RMK AO2,M
BVU,2022-08-03 04:35,-114.8611,35.9475,671.00,93.20,60.80,34.11,0.00,0.00,0.00,29.91,M,M,M,M,M,M,M,M,M,M,M,M,M,M,M,M,M,M,93.32,KBVU 030435Z AUTO 00000KT 34/16 A2991 RMK AO2 PWINO TSNO,M
TMT,2022-08-03 04:35,-117.1971,39.4643,1749.34,M,M,M,150.00,5.00,0.00,30.23,M,10.00,M,CLR,M,M,M,M,M,M,M,M,M,M,M,M,M,M,M,KTMT 030435Z AUTO 15005KT 10SM CLR A3023 RMK AO2 LTG DSNT NW,M
HTH,2022-08-03 04:35,-118.6315,38.5448,1282.89,78.80,55.40,44.52,0.00,0.00,0.00,30.14,M,10.00,M,FEW,M,M,M,12000.00,M,M,M,M,M,M,M,M,M,M,78.80,KHTH 030435Z AUTO 00000KT 10SM FEW120 26/13 A3014 RMK A01,M
BAM,2022-08-03 04:35,-116.8743,40.5990,1382.36,77.00,55.40,47.25,60.00,10.00,0.00,30.14,M,10.00,14.00,CLR,M,M,M,M,M,M,M,M,M,M,M,M,M,M,77.00,KBAM 030435Z AUTO 06010G14KT 10SM CLR 25/13 A3014 RMK AO1,M
05U,2022-08-03 04:35,-116.0051,39.6042,1811.23,M,M,M,M,M,0.00,M,M,M,M,M,M,M,M,M,M,M,M,M,M,M,M,M,M,M,M,K05U 030435Z AUTO RMK A01 PNO,M
RTS,2022-08-03 04:35,-119.8764,39.6682,1539.00,77.00,50.00,38.74,290.00,13.00,0.00,30.21,M,10.00,M,SCT,M,M,M,8000.00,M,M,M,M,M,M,M,M,M,M,77.00,KRTS 030435Z AUTO 29013KT 10SM SCT080 25/10 A3021 RMK AO2,M
CXP,2022-08-03 04:50,-119.7326,39.1923,1431.00,73.40,59.00,60.67,0.00,0.00,0.00,30.21,M,10.00,M,SCT,BKN,OVC,M,5000.00,7000.00,9500.00,M,M,M,M,M,M,M,M,73.40,KCXP 030450Z AUTO 00000KT 10SM SCT050 BKN070 OVC095 23/15 A3021 RMK AO2,M
ELY,2022-08-03 04:53,-114.8453,39.2950,1909.00,63.00,48.00,57.99,190.00,5.00,0.00,30.25,1014.20,10.00,M,CLR,M,M,M,M,M,M,M,M,M,M,M,M,M,M,63.00,KELY 030453Z AUTO 19005KT 10SM CLR 17/09 A3025 RMK AO2 SLP142 T01720089,M
LOL,2022-08-03 04:53,-118.5701,40.0684,1192.43,81.00,52.00,36.58,10.00,8.00,0.00,30.09,1014.20,10.00,16.00,SCT,M,M,M,10000.00,M,M,M,M,M,M,M,27.00,30.00,2022-08-03 04:02,80.34,KLOL 030453Z AUTO 01008G16KT 10SM SCT100 27/11 A3009 RMK AO2 PK WND 03027/0402 WSHFT 0343 SLP142 T02720111,M
DRA,2022-08-03 04:53,-116.0278,36.6206,1009.00,88.00,52.00,29.21,0.00,0.00,0.00,30.00,1010.20,10.00,M,CLR,M,M,M,M,M,M,M,M,M,M,M,M,M,M,85.60,KDRA 030453Z AUTO 00000KT 10SM CLR 31/11 A3000 RMK AO2 SLP102 T03110111,M
VGT,2022-08-03 04:53,-115.1933,36.2111,667.00,97.00,58.00,27.36,240.00,4.00,0.00,29.89,1010.60,10.00,M,CLR,M,M,M,M,M,M,M,M,M,M,M,M,M,M,96.26,KVGT 030453Z AUTO 24004KT 10SM CLR 36/14 A2989 RMK AO2 SLP106 T03610144,M
BVU,2022-08-03 04:55,-114.8611,35.9475,671.00,91.40,60.80,36.08,0.00,0.00,0.00,29.91,M,M,M,M,M,M,M,M,M,M,M,M,M,M,M,M,M,M,91.40,KBVU 030455Z AUTO 00000KT 33/16 A2991 RMK AO2 PWINO TSNO,M
TMT,2022-08-03 04:55,-117.1971,39.4643,1749.34,M,M,M,170.00,6.00,0.00,30.23,M,10.00,M,CLR,M,M,M,M,M,M,M,M,M,M,M,M,M,M,M,KTMT 030455Z AUTO 17006KT 10SM CLR A3023 RMK AO2,M
RNO,2022-08-03 04:55,-119.7711,39.4839,1341.00,80.00,55.00,42.05,140.00,5.00,0.00,30.17,1015.30,10.00,M,BKN,BKN,M,M,10000.00,25000.00,M,M,M,M,M,M,M,M,M,80.17,KRNO 030455Z 14005KT 10SM BKN100 BKN250 27/13 A3017 RMK AO2 SLP153 T02670128,M
HTH,2022-08-03 04:55,-118.6315,38.5448,1282.89,78.80,53.60,41.69,0.00,0.00,0.00,30.14,M,10.00,M,CLR,M,M,M,M,M,M,M,M,M,M,M,M,M,M,78.80,KHTH 030455Z AUTO 00000KT 10SM CLR 26/12 A3014 RMK A01,M
BAM,2022-08-03 04:55,-116.8743,40.5990,1382.36,75.20,55.40,50.17,50.00,9.00,0.00,30.15,M,10.00,M,SCT,M,M,M,12000.00,M,M,M,M,M,M,M,M,M,M,75.20,KBAM 030455Z AUTO 05009KT 10SM SCT120 24/13 A3015 RMK AO1,M
MEV,2022-08-03 04:55,-119.7500,38.9963,1441.42,71.60,53.60,53.03,230.00,7.00,0.00,30.20,M,10.00,M,BKN,BKN,M,M,7500.00,8500.00,M,M,M,M,M,M,M,M,M,71.60,KMEV 030455Z AUTO 23007KT 10SM BKN075 BKN085 22/12 A3020 RMK AO2,M
05U,2022-08-03 04:55,-116.0051,39.6042,1811.23,M,M,M,M,M,0.00,M,M,M,M,M,M,M,M,M,M,M,M,M,M,M,M,M,M,M,M,K05U 030455Z AUTO RMK A01 PNO,M
RTS,2022-08-03 04:55,-119.8764,39.6682,1539.00,77.00,50.00,38.74,290.00,9.00,0.00,30.22,M,10.00,M,FEW,M,M,M,8500.00,M,M,M,M,M,M,M,M,M,M,77.00,KRTS 030455Z AUTO 29009KT 10SM FEW085 25/10 A3022 RMK AO2,M
TPH,2022-08-03 04:56,-117.0904,38.0505,1654.00,77.00,49.00,37.19,10.00,6.00,0.00,30.20,1014.40,10.00,M,CLR,M,M,M,M,M,M,M,M,M,M,M,M,M,M,77.00,KTPH 030456Z AUTO 01006KT 10SM CLR 25/09 A3020 RMK AO2 SLP144 T02500094,M
LAS,2022-08-03 04:56,-115.1634,36.0719,663.00,95.00,57.00,28.16,340.00,3.00,0.00,29.90,1009.50,10.00,M,FEW,FEW,M,M,10000.00,25000.00,M,M,M,M,M,M,M,M,M,93.75,KLAS 030456Z 34003KT 10SM FEW100 FEW250 35/14 A2990 RMK AO2 SLP095 T03500139,M
HND,2022-08-03 04:56,-115.1344,35.9729,742.79,92.00,59.00,33.31,220.00,8.00,0.00,29.95,1012.20,10.00,M,CLR,M,M,M,M,M,M,M,M,M,M,M,M,M,M,91.20,KHND 030456Z AUTO 22008KT 10SM CLR 33/15 A2995 RMK AO2 SLP122 T03330150,M
EKO,2022-08-03 04:56,-115.7860,40.8242,1367.00,69.00,53.00,56.70,40.00,12.00,0.00,30.19,1016.30,10.00,M,CLR,M,M,M,M,M,M,M,M,M,M,M,M,M,M,69.10,KEKO 030456Z AUTO 04012KT 10SM CLR 21/12 A3019 RMK AO2 SLP163 T02060117,M
WMC,2022-08-03 04:56,-117.8072,40.9019,1315.00,74.00,54.00,49.79,320.00,6.00,0.00,30.14,1015.10,10.00,M,CLR,M,M,M,M,M,M,M,M,M,M,M,M,M,M,73.90,KWMC 030456Z AUTO 32006KT 10SM CLR 23/12 A3014 RMK AO2 SLP151 T02330122,M
NFL,2022-08-03 04:56,-118.7010,39.4166,1199.00,81.00,51.00,35.38,270.00,15.00,0.00,30.10,1015.90,10.00,M,SCT,BKN,BKN,BKN,8000.00,12000.00,18000.00,25000.00,M,M,M,M,M,M,M,80.23,KNFL 030456Z 27015KT 10SM SCT080 BKN120 BKN180 BKN250 27/11 A3010 RMK AO2 SLP159 T02720106,M
LSV,2022-08-03 04:58,-115.0343,36.2362,570.00,96.80,59.00,28.63,0.00,0.00,0.00,29.89,M,10.00,M,CLR,M,M,M,M,M,M,M,M,M,M,M,M,M,M,96.50,KLSV 030458Z 00000KT 10SM CLR 36/15 A2989 RMK AO2A SLPNO WND DATA ESTMD $,M
INS,2022-08-03 04:58,-115.6733,36.5872,955.00,85.00,59.20,41.87,270.00,5.00,0.00,29.99,1010.20,10.00,M,CLR,M,M,M,M,M,M,M,M,M,M,M,M,M,M,84.56,KINS 030458Z AUTO 27005KT 10SM CLR 29/15 A2999 RMK AO2 SLP102 T02940151,M
RNO,2022-08-03 05:07,-119.7711,39.4839,1341.00,81.00,54.00,39.37,110.00,5.00,0.00,30.17,M,10.00,M,SCT,BKN,M,M,9000.00,25000.00,M,M,TS,M,M,M,M,M,M,80.59,KRNO 030507Z 11005KT 10SM TS SCT090CB BKN250 27/12 A3017 RMK AO2 TSB07 OCNL LTGIC NE TS NE MOV NE T02720122,M
CXP,2022-08-03 05:10,-119.7326,39.1923,1431.00,73.40,57.20,56.88,M,3.00,0.00,30.21,M,10.00,M,BKN,BKN,M,M,10000.00,12000.00,M,M,M,M,M,M,M,M,M,73.40,KCXP 030510Z AUTO VRB03KT 10SM BKN100 BKN120 23/14 A3021 RMK AO2,M
BVU,2022-08-03 05:15,-114.8611,35.9475,671.00,89.60,62.60,40.69,0.00,0.00,0.00,29.91,M,M,M,M,M,M,M,M,M,M,M,M,M,M,M,M,M,M,90.32,KBVU 030515Z AUTO 00000KT 32/17 A2991 RMK AO2 PWINO TSNO,M
RTS,2022-08-03 05:15,-119.8764,39.6682,1539.00,75.20,50.00,41.14,250.00,5.00,0.00,30.23,M,10.00,10.00,BKN,BKN,M,M,8000.00,10000.00,M,M,M,M,M,M,M,M,M,75.20,KRTS 030515Z AUTO 25005G10KT 10SM BKN080 BKN100 24/10 A3023 RMK AO2,M
05U,2022-08-03 05:15,-116.0051,39.6042,1811.23,M,M,M,M,M,0.00,M,M,M,M,M,M,M,M,M,M,M,M,M,M,M,M,M,M,M,M,K05U 030515Z AUTO RMK A01 PNO,M
MEV,2022-08-03 05:15,-119.7500,38.9963,1441.42,69.80,53.60,56.38,0.00,0.00,0.00,30.20,M,10.00,M,SCT,M,M,M,7000.00,M,M,M,M,M,M,M,M,M,M,69.80,KMEV 030515Z AUTO 00000KT 10SM SCT070 21/12 A3020 RMK AO2,M
TMT,2022-08-03 05:15,-117.1971,39.4643,1749.34,M,M,M,0.00,0.00,0.00,30.23,M,10.00,M,CLR,M,M,M,M,M,M,M,M,M,M,M,M,M,M,M,KTMT 030515Z AUTO 00000KT 10SM CLR A3023 RMK AO2,M
BAM,2022-08-03 05:15,-116.8743,40.5990,1382.36,73.40,53.60,49.90,60.00,4.00,0.00,30.15,M,10.00,M,SCT,M,M,M,12000.00,M,M,M,M,M,M,M,M,M,M,73.40,KBAM 030515Z AUTO 06004KT 10SM SCT120 23/12 A3015 RMK AO1,M
HTH,2022-08-03 05:15,-118.6315,38.5448,1282.89,78.80,53.60,41.69,130.00,5.00,0.00,30.15,M,10.00,M,CLR,M,M,M,M,M,M,M,M,M,M,M,M,M,M,78.80,KHTH 030515Z AUTO 13005KT 10SM CLR 26/12 A3015 RMK A01,M
CXP,2022-08-03 05:30,-119.7326,39.1923,1431.00,73.40,59.00,60.67,0.00,0.00,0.00,30.21,M,10.00,M,SCT,M,M,M,10000.00,M,M,M,M,M,M,M,M,M,M,73.40,KCXP 030530Z AUTO 00000KT 10SM SCT100 23/15 A3021 RMK AO2,M
HTH,2022-08-03 05:35,-118.6315,38.5448,1282.89,78.80,51.80,39.02,120.00,6.00,0.00,30.15,M,10.00,M,M,M,M,M,M,M,M,M,M,M,M,M,M,M,M,78.80,KHTH 030535Z AUTO 12006KT 10SM 26/11 A3015 RMK A01,M
BVU,2022-08-03 05:35,-114.8611,35.9475,671.00,89.60,60.80,38.18,0.00,0.00,0.00,29.91,M,M,M,M,M,M,M,M,M,M,M,M,M,M,M,M,M,M,89.54,KBVU 030535Z AUTO 00000KT 32/16 A2991 RMK AO2 PWINO TSNO,M
BAM,2022-08-03 05:35,-116.8743,40.5990,1382.36,73.40,53.60,49.90,40.00,6.00,0.00,30.15,M,10.00,M,CLR,M,M,M,M,M,M,M,M,M,M,M,M,M,M,73.40,KBAM 030535Z AUTO 04006KT 10SM CLR 23/12 A3015 RMK AO1,M
TMT,2022-08-03 05:35,-117.1971,39.4643,1749.34,59.50,41.20,50.67,0.00,0.00,0.00,30.23,M,10.00,M,CLR,M,M,M,M,M,M,M,M,M,M,M,M,M,M,59.50,KTMT 030535Z AUTO 00000KT 10SM CLR 15/05 A3023 RMK AO2 T01530051,M
MEV,2022-08-03 05:35,-119.7500,38.9963,1441.42,71.60,53.60,53.03,170.00,4.00,0.00,30.20,M,10.00,M,CLR,M,M,M,M,M,M,M,M,M,M,M,M,M,M,71.60,KMEV 030535Z AUTO 17004KT 10SM CLR 22/12 A3020 RMK AO2,M
RTS,2022-08-03 05:35,-119.8764,39.6682,1539.00,77.00,50.00,38.74,230.00,4.00,0.00,30.24,M,10.00,M,OVC,M,M,M,7500.00,M,M,M,M,M,M,M,M,M,M,77.00,KRTS 030535Z AUTO 23004KT 10SM OVC075 25/10 A3024 RMK AO2,M
05U,2022-08-03 05:35,-116.0051,39.6042,1811.23,M,M,M,M,M,0.00,M,M,M,M,M,M,M,M,M,M,M,M,M,M,M,M,M,M,M,M,K05U 030535Z AUTO RMK A01 PNO,M
RNO,2022-08-03 05:36,-119.7711,39.4839,1341.00,80.00,54.00,40.54,10.00,6.00,0.00,30.18,M,10.00,M,SCT,BKN,M,M,9000.00,25000.00,M,M,M,M,M,M,M,M,M,80.04,KRNO 030536Z 01006KT 10SM SCT090CB BKN250 27/12 A3018 RMK AO2 TSB07E35 TS MOVD NE T02670122,M
CXP,2022-08-03 05:50,-119.7326,39.1923,1431.00,71.60,60.80,68.75,80.00,5.00,0.00,30.21,M,10.00,M,CLR,M,M,M,M,M,M,M,M,M,M,M,M,M,M,71.60,KCXP 030550Z AUTO 08005KT 10SM CLR 22/16 A3021 RMK AO2,M
05U,2022-08-03 05:50,-116.0051,39.6042,1811.23,M,M,M,M,M,0.00,M,M,M,M,M,M,M,M,M,M,M,M,M,M,M,M,M,M,M,M,K05U 030550Z AUTO RMK A01 PNO,M
LOL,2022-08-03 05:53,-118.5701,40.0684,1192.43,81.00,51.00,35.38,0.00,0.00,0.00,30.12,1015.10,10.00,M,OVC,M,M,M,9500.00,M,M,M,M,M,M,M,M,M,M,80.23,KLOL 030553Z AUTO 00000KT 10SM OVC095 27/11 A3012 RMK AO2 SLP151 T02720106 10356 20272 52027,M
ELY,2022-08-03 05:53,-114.8453,39.2950,1909.00,58.00,44.00,59.98,0.00,0.00,0.00,30.26,1014.90,10.00,M,CLR,M,M,M,M,M,M,M,M,M,M,M,M,M,M,57.90,KELY 030553Z AUTO 00000KT 10SM CLR 14/07 A3026 RMK AO2 SLP149 T01440067 10272 20144 51009,M
DRA,2022-08-03 05:53,-116.0278,36.6206,1009.00,85.00,53.00,33.57,60.00,4.00,0.00,30.00,1010.20,10.00,M,CLR,M,M,M,M,M,M,M,M,M,M,M,M,M,M,83.21,KDRA 030553Z AUTO 06004KT 10SM CLR 29/12 A3000 RMK AO2 SLP102 T02940117 10372 20294 50008,M
VGT,2022-08-03 05:53,-115.1933,36.2111,667.00,94.00,59.00,31.31,350.00,3.00,0.00,29.89,1010.70,10.00,M,CLR,M,M,M,M,M,M,M,M,M,M,M,M,M,M,93.32,KVGT 030553Z AUTO 35003KT 10SM CLR 34/15 A2989 RMK AO2 SLP107 60000 T03440150 10400 20344 51009,M
TMT,2022-08-03 05:55,-117.1971,39.4643,1749.34,M,M,M,0.00,0.00,0.00,30.24,M,10.00,M,CLR,M,M,M,M,M,M,M,M,M,M,M,M,M,M,M,KTMT 030555Z AUTO 00000KT 10SM CLR A3024 RMK AO2,M
BVU,2022-08-03 05:55,-114.8611,35.9475,671.00,87.80,60.80,40.41,360.00,4.00,0.00,29.91,M,M,M,M,M,M,M,M,M,M,M,M,M,M,M,M,M,M,87.75,KBVU 030555Z AUTO 36004KT 31/16 A2991 RMK AO2 PWINO TSNO,M
RNO,2022-08-03 05:55,-119.7711,39.4839,1341.00,78.00,54.00,43.30,30.00,9.00,0.00,30.19,1015.90,10.00,M,SCT,BKN,M,M,8500.00,25000.00,M,M,M,M,M,M,M,M,M,78.10,KRNO 030555Z 03009KT 10SM SCT085CB BKN250 26/12 A3019 RMK AO2 TSB07E35 SLP159 T02560122 10328 20256 51024,M
MEV,2022-08-03 05:55,-119.7500,38.9963,1441.42,69.80,51.80,52.77,30.00,5.00,0.00,30.20,M,10.00,M,CLR,M,M,M,M,M,M,M,M,M,M,M,M,M,M,69.80,KMEV 030555Z AUTO 03005KT 10SM CLR 21/11 A3020 RMK AO2,M
BAM,2022-08-03 05:55,-116.8743,40.5990,1382.36,73.40,53.60,49.90,60.00,5.00,0.00,30.16,M,10.00,M,CLR,M,M,M,M,M,M,M,M,M,M,M,M,M,M,73.40,KBAM 030555Z AUTO 06005KT 10SM CLR 23/12 A3016 RMK AO1,M
HTH,2022-08-03 05:55,-118.6315,38.5448,1282.89,78.80,51.80,39.02,140.00,7.00,0.00,30.14,M,10.00,M,M,M,M,M,M,M,M,M,M,M,M,M,M,M,M,78.80,KHTH 030555Z AUTO 14007KT 10SM 26/11 A3014 RMK A01,M
RTS,2022-08-03 05:55,-119.8764,39.6682,1539.00,73.40,51.80,46.71,110.00,5.00,0.00,30.25,M,10.00,M,OVC,M,M,M,7000.00,M,M,M,M,M,M,M,M,M,M,73.40,KRTS 030555Z AUTO 11005KT 10SM OVC070 23/11 A3025 RMK AO2,M
TPH,2022-08-03 05:56,-117.0904,38.0505,1654.00,73.00,54.00,51.33,330.00,3.00,0.00,30.20,1014.70,10.00,M,CLR,M,M,M,M,M,M,M,M,M,M,M,M,M,M,73.00,KTPH 030556Z AUTO 33003KT 10SM CLR 23/12 A3020 RMK AO2 SLP147 T02280122 10294 20222 51011,M
EKO,2022-08-03 05:56,-115.7860,40.8242,1367.00,67.00,53.00,61.16,40.00,9.00,0.00,30.18,1016.10,10.00,M,CLR,M,M,M,M,M,M,M,M,M,M,M,M,M,M,66.90,KEKO 030556Z AUTO 04009KT 10SM CLR 19/12 A3018 RMK AO2 SLP161 T01940117 10306 20194 50014,M
LAS,2022-08-03 05:56,-115.1634,36.0719,663.00,93.00,55.00,27.87,220.00,4.00,0.00,29.90,1009.50,10.00,M,FEW,M,M,M,18000.00,M,M,M,M,M,M,M,M,M,M,91.03,KLAS 030556Z 22004KT 10SM FEW180 34/13 A2990 RMK AO2 SLP095 T03390128 10383 20339 51009,M
WMC,2022-08-03 05:56,-117.8072,40.9019,1315.00,72.00,54.00,53.09,330.00,8.00,0.00,30.14,1015.50,10.00,M,CLR,M,M,M,M,M,M,M,M,M,M,M,M,M,M,72.00,KWMC 030556Z AUTO 33008KT 10SM CLR 22/12 A3014 RMK AO2 SLP155 T02220122 10344 20217 51009,M
NFL,2022-08-03 05:56,-118.7010,39.4166,1199.00,81.00,51.00,35.38,280.00,11.00,0.00,30.12,1016.50,10.00,M,FEW,SCT,SCT,M,8000.00,12000.00,25000.00,M,M,M,M,M,M,M,M,80.23,KNFL 030556Z 28011KT 10SM FEW080 SCT120 SCT250 27/11 A3012 RMK AO2 SLP165 T02720106 10344 20267 53016,M
HND,2022-08-03 05:56,-115.1344,35.9729,742.79,90.00,59.00,35.36,190.00,6.00,0.00,29.95,1012.30,10.00,M,CLR,M,M,M,M,M,M,M,M,M,M,M,M,M,M,89.26,KHND 030556Z AUTO 19006KT 10SM CLR 32/15 A2995 RMK AO2 SLP123 T03220150 10378 20317 51010,M
LSV,2022-08-03 05:58,-115.0343,36.2362,570.00,95.00,59.00,30.26,290.00,3.00,0.00,29.90,M,10.00,M,CLR,M,M,M,M,M,M,M,M,M,M,M,M,M,M,94.51,KLSV 030558Z 29003KT 10SM CLR 35/15 A2990 RMK AO2A SLPNO WND DATA ESTMD 10399 20351 $,M
INS,2022-08-03 05:58,-115.6733,36.5872,955.00,83.00,58.00,42.94,270.00,3.00,0.00,29.99,1010.40,10.00,M,CLR,M,M,M,M,M,M,M,M,M,M,M,M,M,M,82.65,KINS 030558Z AUTO 27003KT 10SM CLR 28/15 A2999 RMK AO2 SLP104 T02830145 10348 20283 51010,M
CXP,2022-08-03 06:10,-119.7326,39.1923,1431.00,71.60,59.00,64.48,70.00,4.00,0.00,30.21,M,10.00,M,CLR,M,M,M,M,M,M,M,M,M,M,M,M,M,M,71.60,KCXP 030610Z AUTO 07004KT 10SM CLR 22/15 A3021 RMK AO2,M
TMT,2022-08-03 06:15,-117.1971,39.4643,1749.34,M,M,M,220.00,4.00,0.00,30.24,M,10.00,M,CLR,M,M,M,M,M,M,M,M,M,M,M,M,M,M,M,KTMT 030615Z AUTO 22004KT 10SM CLR A3024 RMK AO2,M
RTS,2022-08-03 06:15,-119.8764,39.6682,1539.00,71.60,53.60,53.03,50.00,3.00,0.00,30.25,M,10.00,M,OVC,M,M,M,7000.00,M,M,M,M,M,M,M,M,M,M,71.60,KRTS 030615Z AUTO 05003KT 10SM OVC070 22/12 A3025 RMK AO2,M
05U,2022-08-03 06:15,-116.0051,39.6042,1811.23,M,M,M,M,M,0.00,M,M,M,M,M,M,M,M,M,M,M,M,M,M,M,M,M,M,M,M,K05U 030615Z AUTO RMK A01 PNO,M
MEV,2022-08-03 06:15,-119.7500,38.9963,1441.42,M,M,M,M,M,0.00,M,M,10.00,M,CLR,M,M,M,M,M,M,M,M,M,M,M,M,M,M,M,KMEV 030615Z AUTO 10SM CLR RMK AO2 PNO PWINO TSNO,M
BAM,2022-08-03 06:15,-116.8743,40.5990,1382.36,71.60,53.60,53.03,70.00,7.00,0.00,30.16,M,10.00,M,CLR,M,M,M,M,M,M,M,M,M,M,M,M,M,M,71.60,KBAM 030615Z AUTO 07007KT 10SM CLR 22/12 A3016 RMK AO1,M
HTH,2022-08-03 06:15,-118.6315,38.5448,1282.89,78.80,50.00,36.51,150.00,8.00,0.00,30.14,M,10.00,M,M,M,M,M,M,M,M,M,M,M,M,M,M,M,M,78.80,KHTH 030615Z AUTO 15008KT 10SM 26/10 A3014 RMK A01,M
BVU,2022-08-03 06:15,-114.8611,35.9475,671.00,87.80,62.60,43.07,330.00,4.00,0.00,29.91,M,M,M,M,M,M,M,M,M,M,M,M,M,M,M,M,M,M,88.48,KBVU 030615Z AUTO 33004KT 31/17 A2991 RMK AO2 PWINO TSNO,M
CXP,2022-08-03 06:30,-119.7326,39.1923,1431.00,69.80,59.00,68.55,60.00,3.00,0.00,30.22,M,10.00,M,CLR,M,M,M,M,M,M,M,M,M,M,M,M,M,M,69.80,KCXP 030630Z AUTO 06003KT 10SM CLR 21/15 A3022 RMK AO2,M
BAM,2022-08-03 06:35,-116.8743,40.5990,1382.36,71.60,55.40,56.63,90.00,4.00,0.00,30.16,M,10.00,M,SCT,M,M,M,11000.00,M,M,M,M,M,M,M,M,M,M,71.60,KBAM 030635Z AUTO 09004KT 10SM SCT110 22/13 A3016 RMK AO1,M
RTS,2022-08-03 06:35,-119.8764,39.6682,1539.00,69.80,57.20,64.26,50.00,7.00,0.00,30.26,M,10.00,M,OVC,M,M,M,7000.00,M,M,M,-DZ,M,M,M,M,M,M,69.80,KRTS 030635Z AUTO 05007KT 10SM -DZ OVC070 21/14 A3026 RMK AO2,M
TMT,2022-08-03 06:35,-117.1971,39.4643,1749.34,M,M,M,10.00,7.00,0.00,30.26,M,10.00,M,SCT,M,M,M,11000.00,M,M,M,M,M,M,M,M,M,M,M,KTMT 030635Z AUTO 01007KT 10SM SCT110 A3026 RMK AO2,M
HTH,2022-08-03 06:35,-118.6315,38.5448,1282.89,78.80,50.00,36.51,160.00,8.00,0.00,30.14,M,10.00,M,CLR,M,M,M,M,M,M,M,M,M,M,M,M,M,M,78.80,KHTH 030635Z AUTO 16008KT 10SM CLR 26/10 A3014 RMK A01,M
MEV,2022-08-03 06:35,-119.7500,38.9963,1441.42,64.40,51.80,63.60,80.00,5.00,0.00,30.20,M,10.00,M,CLR,M,M,M,M,M,M,M,M,M,M,M,M,M,M,64.40,KMEV 030635Z AUTO 08005KT 10SM CLR 18/11 A3020 RMK AO2,M
05U,2022-08-03 06:35,-116.0051,39.6042,1811.23,M,M,M,M,M,0.00,M,M,M,M,M,M,M,M,M,M,M,M,M,M,M,M,M,M,M,M,K05U 030635Z AUTO RMK A01 PNO,M
BVU,2022-08-03 06:35,-114.8611,35.9475,671.00,87.80,62.60,43.07,320.00,4.00,0.00,29.91,M,M,M,M,M,M,M,M,M,M,M,M,M,M,M,M,M,M,88.48,KBVU 030635Z AUTO 32004KT 31/17 A2991 RMK AO2 PWINO TSNO,M
CXP,2022-08-03 06:50,-119.7326,39.1923,1431.00,69.80,60.80,73.09,0.00,0.00,0.00,30.21,M,10.00,M,CLR,M,M,M,M,M,M,M,M,M,M,M,M,M,M,69.80,KCXP 030650Z AUTO 00000KT 10SM CLR 21/16 A3021 RMK AO2,M
LOL,2022-08-03 06:53,-118.5701,40.0684,1192.43,79.00,52.00,39.06,360.00,5.00,0.00,30.13,1015.40,10.00,M,BKN,OVC,M,M,10000.00,12000.00,M,M,M,M,M,M,M,M,M,79.00,KLOL 030653Z AUTO 36005KT 10SM BKN100 OVC120 26/11 A3013 RMK AO2 SLP154 T02610111,M
ELY,2022-08-03 06:53,-114.8453,39.2950,1909.00,57.00,44.00,61.95,250.00,4.00,0.00,30.26,1015.20,10.00,M,CLR,M,M,M,M,M,M,M,M,M,M,M,M,M,M,57.00,KELY 030653Z AUTO 25004KT 10SM CLR 14/07 A3026 RMK AO2 SLP152 T01390067 403110117,M
DRA,2022-08-03 06:53,-116.0278,36.6206,1009.00,83.00,52.00,34.39,0.00,0.00,0.00,30.00,1010.30,10.00,M,CLR,M,M,M,M,M,M,M,M,M,M,M,M,M,M,81.57,KDRA 030653Z AUTO 00000KT 10SM CLR 28/11 A3000 RMK AO2 SLP103 T02830111,M
VGT,2022-08-03 06:53,-115.1933,36.2111,667.00,92.00,59.00,33.31,320.00,6.00,0.00,29.89,1010.60,10.00,M,CLR,M,M,M,M,M,M,M,M,M,M,M,M,M,M,91.20,KVGT 030653Z AUTO 32006KT 10SM CLR 33/15 A2989 RMK AO2 SLP106 T03330150,M
TMT,2022-08-03 06:55,-117.1971,39.4643,1749.34,M,M,M,0.00,0.00,0.00,30.25,M,10.00,M,SCT,M,M,M,11000.00,M,M,M,M,M,M,M,M,M,M,M,KTMT 030655Z AUTO 00000KT 10SM SCT110 A3025 RMK AO2,M
BVU,2022-08-03 06:55,-114.8611,35.9475,671.00,87.80,62.60,43.07,310.00,3.00,0.00,29.91,M,M,M,M,M,M,M,M,M,M,M,M,M,M,M,M,M,M,88.48,KBVU 030655Z AUTO 31003KT 31/17 A2991 RMK AO2 PWINO TSNO,M
RNO,2022-08-03 06:55,-119.7711,39.4839,1341.00,73.00,57.00,57.23,40.00,5.00,0.00,30.20,1016.30,10.00,M,BKN,M,M,M,8500.00,M,M,M,M,M,M,M,M,M,M,73.00,KRNO 030655Z 04005KT 10SM BKN085 23/14 A3020 RMK AO2 SLP163 T02280139,M
HTH,2022-08-03 06:55,-118.6315,38.5448,1282.89,78.80,50.00,36.51,150.00,9.00,0.00,30.14,M,10.00,M,CLR,M,M,M,M,M,M,M,M,M,M,M,M,M,M,78.80,KHTH 030655Z AUTO 15009KT 10SM CLR 26/10 A3014 RMK A01,M
MEV,2022-08-03 06:55,-119.7500,38.9963,1441.42,64.40,51.80,63.60,90.00,6.00,0.00,30.20,M,10.00,M,CLR,M,M,M,M,M,M,M,M,M,M,M,M,M,M,64.40,KMEV 030655Z AUTO 09006KT 10SM CLR 18/11 A3020 RMK AO2,M
05U,2022-08-03 06:55,-116.0051,39.6042,1811.23,M,M,M,M,M,0.00,M,M,M,M,M,M,M,M,M,M,M,M,M,M,M,M,M,M,M,M,K05U 030655Z AUTO RMK A01 PNO,M
RTS,2022-08-03 06:55,-119.8764,39.6682,1539.00,69.80,55.40,60.21,290.00,5.00,0.00,30.26,M,10.00,M,BKN,BKN,OVC,M,6500.00,8000.00,9000.00,M,M,M,M,M,M,M,M,69.80,KRTS 030655Z AUTO 29005KT 10SM BKN065 BKN080 OVC090 21/13 A3026 RMK AO2,M
BAM,2022-08-03 06:55,-116.8743,40.5990,1382.36,69.80,55.40,60.21,10.00,4.00,0.00,30.17,M,10.00,M,CLR,M,M,M,M,M,M,M,M,M,M,M,M,M,M,69.80,KBAM 030655Z AUTO 01004KT 10SM CLR 21/13 A3017 RMK AO1,M
NFL,2022-08-03 06:56,-118.7010,39.4166,1199.00,79.00,52.00,39.06,290.00,6.00,0.00,30.13,1016.80,10.00,M,FEW,SCT,SCT,M,8000.00,12000.00,25000.00,M,M,M,M,M,M,M,M,79.00,KNFL 030656Z 29006KT 10SM FEW080 SCT120 SCT250 26/11 A3013 RMK AO2 SLP168 T02610111,M
LAS,2022-08-03 06:56,-115.1634,36.0719,663.00,91.00,56.00,30.65,180.00,4.00,0.00,29.90,1009.40,10.00,M,SCT,M,M,M,20000.00,M,M,M,M,M,M,M,M,M,M,89.27,KLAS 030656Z 18004KT 10SM SCT200 33/13 A2990 RMK AO2 SLP094 T03280133,M
EKO,2022-08-03 06:56,-115.7860,40.8242,1367.00,70.00,52.00,52.80,100.00,5.00,0.00,30.19,1015.90,10.00,M,CLR,M,M,M,M,M,M,M,M,M,M,M,M,M,M,70.00,KEKO 030656Z AUTO 10005KT 10SM CLR 21/11 A3019 RMK AO2 SLP159 T02110111,M
TPH,2022-08-03 06:56,-117.0904,38.0505,1654.00,77.00,50.00,38.74,360.00,7.00,0.00,30.21,1014.10,10.00,14.00,CLR,M,M,M,M,M,M,M,M,M,M,M,M,M,M,77.00,KTPH 030656Z AUTO 36007G14KT 300V030 10SM CLR 25/10 A3021 RMK AO2 SLP141 T02500100,M
HND,2022-08-03 06:56,-115.1344,35.9729,742.79,88.00,59.00,37.66,220.00,6.00,0.00,29.95,1012.30,10.00,M,CLR,M,M,M,M,M,M,M,M,M,M,M,M,M,M,87.31,KHND 030656Z AUTO 22006KT 10SM CLR 31/15 A2995 RMK AO2 SLP123 T03110150 403830250,M
WMC,2022-08-03 06:56,-117.8072,40.9019,1315.00,70.00,54.00,56.82,330.00,6.00,0.00,30.15,1015.60,10.00,M,CLR,M,M,M,M,M,M,M,M,M,M,M,M,M,M,70.00,KWMC 030656Z AUTO 33006KT 10SM CLR 21/12 A3015 RMK AO2 SLP156 T02110122,M
LSV,2022-08-03 06:56,-115.0343,36.2362,570.00,91.40,59.00,33.84,300.00,3.00,0.00,29.87,1008.50,10.00,M,M,M,M,M,M,M,M,M,M,M,M,M,M,M,M,90.68,KLSV 030656Z 30003KT 10SM FEW100SCT200 33/15 A2987 RMK SLP085 WIND DATA ESTMD ALSTG/SLP085 ESTMD $,M
INS,2022-08-03 06:58,-115.6733,36.5872,955.00,83.70,58.00,41.84,260.00,5.00,0.00,29.99,1010.20,10.00,M,CLR,M,M,M,M,M,M,M,M,M,M,M,M,M,M,83.28,KINS 030658Z AUTO 26005KT 10SM CLR 29/15 A2999 RMK AO2 SLP102 T02870145,M
CXP,2022-08-03 07:10,-119.7326,39.1923,1431.00,68.00,59.00,72.92,330.00,6.00,0.00,30.22,M,10.00,M,CLR,M,M,M,M,M,M,M,M,M,M,M,M,M,M,68.00,KCXP 030710Z AUTO 33006KT 10SM CLR 20/15 A3022 RMK AO2,M
TMT,2022-08-03 07:15,-117.1971,39.4643,1749.34,M,M,M,170.00,6.00,0.00,30.26,M,10.00,M,CLR,M,M,M,M,M,M,M,M,M,M,M,M,M,M,M,KTMT 030715Z AUTO 17006KT 10SM CLR A3026 RMK AO2,M
BVU,2022-08-03 07:15,-114.8611,35.9475,671.00,86.00,62.60,45.61,300.00,4.00,0.00,29.91,M,M,M,M,M,M,M,M,M,M,M,M,M,M,M,M,M,M,86.72,KBVU 030715Z AUTO 30004KT 30/17 A2991 RMK AO2 PWINO TSNO,M
BAM,2022-08-03 07:15,-116.8743,40.5990,1382.36,69.80,53.60,56.38,10.00,4.00,0.00,30.17,M,10.00,M,CLR,M,M,M,M,M,M,M,M,M,M,M,M,M,M,69.80,KBAM 030715Z AUTO 01004KT 10SM CLR 21/12 A3017 RMK AO1,M
HTH,2022-08-03 07:15,-118.6315,38.5448,1282.89,78.80,50.00,36.51,140.00,7.00,0.00,30.14,M,10.00,M,CLR,M,M,M,M,M,M,M,M,M,M,M,M,M,M,78.80,KHTH 030715Z AUTO 14007KT 10SM CLR 26/10 A3014 RMK A01,M
RTS,2022-08-03 07:15,-119.8764,39.6682,1539.00,71.60,53.60,53.03,50.00,4.00,0.00,30.26,M,10.00,M,BKN,OVC,M,M,6000.00,10000.00,M,M,M,M,M,M,M,M,M,71.60,KRTS 030715Z AUTO 05004KT 10SM BKN060 OVC100 22/12 A3026 RMK AO2,M
05U,2022-08-03 07:15,-116.0051,39.6042,1811.23,M,M,M,M,M,0.00,M,M,M,M,M,M,M,M,M,M,M,M,M,M,M,M,M,M,M,M,K05U 030715Z AUTO RMK A01 PNO,M
MEV,2022-08-03 07:15,-119.7500,38.9963,1441.42,62.60,51.80,67.75,90.00,7.00,0.00,30.20,M,10.00,M,CLR,M,M,M,M,M,M,M,M,M,M,M,M,M,M,62.60,KMEV 030715Z AUTO 09007KT 10SM CLR 17/11 A3020 RMK AO2,M
CXP,2022-08-03 07:30,-119.7326,39.1923,1431.00,69.80,59.00,68.55,300.00,4.00,0.00,30.22,M,10.00,M,FEW,M,M,M,8000.00,M,M,M,M,M,M,M,M,M,M,69.80,KCXP 030730Z AUTO 30004KT 10SM FEW080 21/15 A3022 RMK AO2,M
BAM,2022-08-03 07:35,-116.8743,40.5990,1382.36,69.80,53.60,56.38,360.00,7.00,0.00,30.17,M,10.00,M,CLR,M,M,M,M,M,M,M,M,M,M,M,M,M,M,69.80,KBAM 030735Z AUTO 36007KT 10SM CLR 21/12 A3017 RMK AO1,M
BVU,2022-08-03 07:35,-114.8611,35.9475,671.00,86.00,62.60,45.61,300.00,3.00,0.00,29.91,M,M,M,M,M,M,M,M,M,M,M,M,M,M,M,M,M,M,86.72,KBVU 030735Z AUTO 30003KT 30/17 A2991 RMK AO2 PWINO TSNO,M
HTH,2022-08-03 07:35,-118.6315,38.5448,1282.89,78.80,50.00,36.51,M,4.00,0.00,30.15,M,10.00,M,CLR,M,M,M,M,M,M,M,M,M,M,M,M,M,M,78.80,KHTH 030735Z AUTO VRB04KT 10SM CLR 26/10 A3015 RMK A01,M
MEV,2022-08-03 07:35,-119.7500,38.9963,1441.42,64.40,51.80,63.60,0.00,0.00,0.00,30.20,M,10.00,M,CLR,M,M,M,M,M,M,M,M,M,M,M,M,M,M,64.40,KMEV 030735Z AUTO 00000KT 10SM CLR 18/11 A3020 RMK AO2,M
05U,2022-08-03 07:35,-116.0051,39.6042,1811.23,M,M,M,M,M,0.00,M,M,M,M,M,M,M,M,M,M,M,M,M,M,M,M,M,M,M,M,K05U 030735Z AUTO RMK A01 PNO,M
RTS,2022-08-03 07:35,-119.8764,39.6682,1539.00,69.80,53.60,56.38,360.00,3.00,0.00,30.26,M,10.00,M,FEW,SCT,M,M,6500.00,10000.00,M,M,M,M,M,M,M,M,M,69.80,KRTS 030735Z AUTO 36003KT 10SM FEW065 SCT100 21/12 A3026 RMK AO2,M
TMT,2022-08-03 07:35,-117.1971,39.4643,1749.34,M,M,M,200.00,5.00,0.00,30.27,M,10.00,M,CLR,M,M,M,M,M,M,M,M,M,M,M,M,M,M,M,KTMT 030735Z AUTO 20005KT 10SM CLR A3027 RMK AO2,M
CXP,2022-08-03 07:50,-119.7326,39.1923,1431.00,71.60,55.40,56.63,0.00,0.00,0.00,30.22,M,10.00,M,CLR,M,M,M,M,M,M,M,M,M,M,M,M,M,M,71.60,KCXP 030750Z AUTO 00000KT 10SM CLR 22/13 A3022 RMK AO2,M
VGT,2022-08-03 07:53,-115.1933,36.2111,667.00,92.00,59.00,33.31,240.00,4.00,0.00,29.89,1010.50,10.00,M,CLR,M,M,M,M,M,M,M,M,M,M,M,M,M,M,91.20,KVGT 030753Z AUTO 24004KT 10SM CLR 33/15 A2989 RMK AO2 SLP105 T03330150 404000283,M
LOL,2022-08-03 07:53,-118.5701,40.0684,1192.43,78.00,54.00,43.30,100.00,5.00,0.00,30.12,1014.90,10.00,M,CLR,M,M,M,M,M,M,M,M,M,M,M,M,M,M,78.10,KLOL 030753Z AUTO 10005KT 10SM CLR 26/12 A3012 RMK AO2 SLP149 T02560122 403560172,M
ELY,2022-08-03 07:53,-114.8453,39.2950,1909.00,57.00,47.00,68.90,280.00,4.00,0.00,30.28,1015.00,10.00,M,CLR,M,M,M,M,M,M,M,M,M,M,M,M,M,M,57.00,KELY 030753Z AUTO 28004KT 10SM CLR 14/08 A3028 RMK AO2 SLP150 T01390083,M
DRA,2022-08-03 07:53,-116.0278,36.6206,1009.00,83.00,52.00,34.39,0.00,0.00,0.00,30.00,1010.10,10.00,M,CLR,M,M,M,M,M,M,M,M,M,M,M,M,M,M,81.57,KDRA 030753Z AUTO 00000KT 10SM CLR 28/11 A3000 RMK AO2 SLP101 T02830111 403720222,M
MEV,2022-08-03 07:55,-119.7500,38.9963,1441.42,62.60,51.80,67.75,0.00,0.00,0.00,30.21,M,10.00,M,CLR,M,M,M,M,M,M,M,M,M,M,M,M,M,M,62.60,KMEV 030755Z AUTO 00000KT 10SM CLR 17/11 A3021 RMK AO2,M
HTH,2022-08-03 07:55,-118.6315,38.5448,1282.89,77.00,51.80,41.42,20.00,10.00,0.00,30.15,M,10.00,M,CLR,M,M,M,M,M,M,M,M,M,M,M,M,M,M,77.00,KHTH 030755Z AUTO 02010KT 10SM CLR 25/11 A3015 RMK A01,M
BAM,2022-08-03 07:55,-116.8743,40.5990,1382.36,68.00,55.40,64.04,350.00,4.00,0.00,30.17,M,10.00,M,CLR,M,M,M,M,M,M,M,M,M,M,M,M,M,M,68.00,KBAM 030755Z AUTO 35004KT 10SM CLR 20/13 A3017 RMK AO1,M
BVU,2022-08-03 07:55,-114.8611,35.9475,671.00,86.00,62.60,45.61,320.00,3.00,0.00,29.90,M,M,M,M,M,M,M,M,M,M,M,M,M,M,M,M,M,M,86.72,KBVU 030755Z AUTO 32003KT 30/17 A2990 RMK AO2 PWINO TSNO,M
RNO,2022-08-03 07:55,-119.7711,39.4839,1341.00,71.00,59.00,65.58,340.00,7.00,0.00,30.20,1016.40,10.00,M,SCT,SCT,M,M,8000.00,11000.00,M,M,M,M,M,M,M,M,M,71.10,KRNO 030755Z 34007KT 10SM SCT080 SCT110 22/15 A3020 RMK AO2 SLP164 T02170150 403390178,M
TMT,2022-08-03 07:55,-117.1971,39.4643,1749.34,M,M,M,210.00,4.00,0.00,30.26,M,10.00,M,CLR,M,M,M,M,M,M,M,M,M,M,M,M,M,M,M,KTMT 030755Z AUTO 21004KT 10SM CLR A3026 RMK AO2,M
RTS,2022-08-03 07:55,-119.8764,39.6682,1539.00,69.80,53.60,56.38,340.00,10.00,0.00,30.25,M,10.00,M,FEW,FEW,M,M,7000.00,11000.00,M,M,M,M,M,M,M,M,M,69.80,KRTS 030755Z AUTO 34010KT 10SM FEW070 FEW110 21/12 A3025 RMK AO2,M
05U,2022-08-03 07:55,-116.0051,39.6042,1811.23,M,M,M,M,M,0.00,M,M,M,M,M,M,M,M,M,M,M,M,M,M,M,M,M,M,M,M,K05U 030755Z AUTO RMK A01 PNO,M
TPH,2022-08-03 07:56,-117.0904,38.0505,1654.00,72.00,52.00,49.33,320.00,5.00,0.00,30.21,1014.40,10.00,M,CLR,M,M,M,M,M,M,M,M,M,M,M,M,M,M,72.00,KTPH 030756Z AUTO 32005KT 10SM CLR 22/11 A3021 RMK AO2 SLP144 T02220111 403060156,M
HND,2022-08-03 07:56,-115.1344,35.9729,742.79,87.00,61.00,41.62,210.00,8.00,0.00,29.95,1012.20,10.00,M,CLR,M,M,M,M,M,M,M,M,M,M,M,M,M,M,87.15,KHND 030756Z AUTO 21008KT 10SM CLR 31/16 A2995 RMK AO2 SLP122 T03060161,M
LSV,2022-08-03 07:56,-115.0343,36.2362,570.00,91.40,59.00,33.84,260.00,4.00,0.00,29.86,1008.10,10.00,M,FEW,SCT,M,M,10000.00,20000.00,M,M,M,M,M,M,M,M,M,90.68,KLSV 030756Z 26004KT 10SM FEW100 SCT200 33/15 A2986 RMK SLP081 WND DATA ESTMD ALSTG/SLP ESTMD $,M
EKO,2022-08-03 07:56,-115.7860,40.8242,1367.00,66.00,52.00,60.60,120.00,5.00,0.00,30.19,1015.90,10.00,M,CLR,M,M,M,M,M,M,M,M,M,M,M,M,M,M,66.00,KEKO 030756Z AUTO 12005KT 10SM CLR 19/11 A3019 RMK AO2 SLP159 T01890111 403220156,M
LAS,2022-08-03 07:56,-115.1634,36.0719,663.00,90.00,57.00,32.91,200.00,4.00,0.00,29.90,1009.30,10.00,M,SCT,M,M,M,20000.00,M,M,M,M,M,M,M,M,M,M,88.61,KLAS 030756Z 20004KT 10SM SCT200 32/14 A2990 RMK AO2 SLP093 T03220139 403890272,M
WMC,2022-08-03 07:56,-117.8072,40.9019,1315.00,66.00,53.00,63.10,290.00,5.00,0.00,30.16,1016.00,10.00,M,CLR,M,M,M,M,M,M,M,M,M,M,M,M,M,M,66.00,KWMC 030756Z AUTO 29005KT 10SM CLR 19/12 A3016 RMK AO2 SLP160 T01890117 403440183,M
NFL,2022-08-03 07:56,-118.7010,39.4166,1199.00,77.00,53.00,43.44,290.00,6.00,0.00,30.13,1016.90,10.00,M,CLR,M,M,M,M,M,M,M,M,M,M,M,M,M,M,77.00,KNFL 030756Z AUTO 29006KT 10SM CLR 25/12 A3013 RMK AO2 SLP169 T02500117 403560172,M
INS,2022-08-03 07:58,-115.6733,36.5872,955.00,80.00,61.20,52.88,270.00,4.00,0.00,29.99,1010.20,10.00,M,CLR,M,M,M,M,M,M,M,M,M,M,M,M,M,M,79.90,KINS 030758Z AUTO 27004KT 10SM CLR 27/16 A2999 RMK AO2 SLP102 T02660162 403480222,M
CXP,2022-08-03 08:10,-119.7326,39.1923,1431.00,71.60,55.40,56.63,M,6.00,0.00,30.21,M,10.00,M,CLR,M,M,M,M,M,M,M,M,M,M,M,M,M,M,71.60,KCXP 030810Z AUTO VRB06KT 10SM CLR 22/13 A3021 RMK AO2,M
BVU,2022-08-03 08:15,-114.8611,35.9475,671.00,86.00,60.80,42.80,0.00,0.00,0.00,29.90,M,M,M,M,M,M,M,M,M,M,M,M,M,M,M,M,M,M,86.05,KBVU 030815Z AUTO 00000KT 30/16 A2990 RMK AO2 PWINO TSNO,M
HTH,2022-08-03 08:15,-118.6315,38.5448,1282.89,77.00,59.00,53.80,350.00,10.00,0.00,30.16,M,10.00,M,CLR,M,M,M,M,M,M,M,M,M,M,M,M,M,M,77.00,KHTH 030815Z AUTO 35010KT 10SM CLR 25/15 A3016 RMK A01,M
RTS,2022-08-03 08:15,-119.8764,39.6682,1539.00,68.00,53.60,59.97,300.00,8.00,0.00,30.25,M,10.00,M,CLR,M,M,M,M,M,M,M,M,M,M,M,M,M,M,68.00,KRTS 030815Z AUTO 30008KT 10SM CLR 20/12 A3025 RMK AO2,M
MEV,2022-08-03 08:15,-119.7500,38.9963,1441.42,64.40,51.80,63.60,290.00,4.00,0.00,30.21,M,10.00,M,CLR,M,M,M,M,M,M,M,M,M,M,M,M,M,M,64.40,KMEV 030815Z AUTO 29004KT 10SM CLR 18/11 A3021 RMK AO2,M
TMT,2022-08-03 08:15,-117.1971,39.4643,1749.34,M,M,M,220.00,4.00,0.00,30.27,M,10.00,M,CLR,M,M,M,M,M,M,M,M,M,M,M,M,M,M,M,KTMT 030815Z AUTO 22004KT 10SM CLR A3027 RMK AO2,M
BAM,2022-08-03 08:15,-116.8743,40.5990,1382.36,69.80,55.40,60.21,330.00,6.00,0.00,30.17,M,10.00,M,CLR,M,M,M,M,M,M,M,M,M,M,M,M,M,M,69.80,KBAM 030815Z AUTO 33006KT 10SM CLR 21/13 A3017 RMK AO1,M
05U,2022-08-03 08:15,-116.0051,39.6042,1811.23,M,M,M,M,M,0.00,M,M,M,M,M,M,M,M,M,M,M,M,M,M,M,M,M,M,M,M,K05U 030815Z AUTO RMK A01 PNO,M
CXP,2022-08-03 08:30,-119.7326,39.1923,1431.00,68.00,57.20,68.35,320.00,4.00,0.00,30.22,M,10.00,M,CLR,M,M,M,M,M,M,M,M,M,M,M,M,M,M,68.00,KCXP 030830Z AUTO 32004KT 10SM CLR 20/14 A3022 RMK AO2,M
RTS,2022-08-03 08:35,-119.8764,39.6682,1539.00,66.20,53.60,63.82,300.00,8.00,0.00,30.24,M,10.00,M,CLR,M,M,M,M,M,M,M,M,M,M,M,M,M,M,66.20,KRTS 030835Z AUTO 30008KT 10SM CLR 19/12 A3024 RMK AO2,M
BVU,2022-08-03 08:35,-114.8611,35.9475,671.00,86.00,60.80,42.80,0.00,0.00,0.00,29.90,M,M,M,M,M,M,M,M,M,M,M,M,M,M,M,M,M,M,86.05,KBVU 030835Z AUTO 00000KT 30/16 A2990 RMK AO2 PWINO TSNO,M
BAM,2022-08-03 08:35,-116.8743,40.5990,1382.36,68.00,55.40,64.04,340.00,5.00,0.00,30.18,M,10.00,M,CLR,M,M,M,M,M,M,M,M,M,M,M,M,M,M,68.00,KBAM 030835Z AUTO 34005KT 10SM CLR 20/13 A3018 RMK AO1,M
TMT,2022-08-03 08:35,-117.1971,39.4643,1749.34,M,M,M,240.00,3.00,0.00,30.27,M,10.00,M,CLR,M,M,M,M,M,M,M,M,M,M,M,M,M,M,M,KTMT 030835Z AUTO 24003KT 10SM CLR A3027 RMK AO2,M
05U,2022-08-03 08:35,-116.0051,39.6042,1811.23,M,M,M,M,M,0.00,M,M,M,M,M,M,M,M,M,M,M,M,M,M,M,M,M,M,M,M,K05U 030835Z AUTO RMK A01 PNO,M
MEV,2022-08-03 08:35,-119.7500,38.9963,1441.42,62.60,51.80,67.75,60.00,4.00,0.00,30.20,M,10.00,M,CLR,M,M,M,M,M,M,M,M,M,M,M,M,M,M,62.60,KMEV 030835Z AUTO 06004KT 10SM CLR 17/11 A3020 RMK AO2,M
HTH,2022-08-03 08:35,-118.6315,38.5448,1282.89,75.20,57.20,53.55,350.00,4.00,0.00,30.16,M,10.00,M,CLR,M,M,M,M,M,M,M,M,M,M,M,M,M,M,75.20,KHTH 030835Z AUTO 35004KT 10SM CLR 24/14 A3016 RMK A01,M
CXP,2022-08-03 08:50,-119.7326,39.1923,1431.00,68.00,55.40,64.04,110.00,3.00,0.00,30.22,M,10.00,M,CLR,M,M,M,M,M,M,M,M,M,M,M,M,M,M,68.00,KCXP 030850Z AUTO 11003KT 10SM CLR 20/13 A3022 RMK AO2,M
DRA,2022-08-03 08:53,-116.0278,36.6206,1009.00,80.00,53.00,39.23,10.00,4.00,0.00,30.00,1010.20,10.00,M,CLR,M,M,M,M,M,M,M,M,M,M,M,M,M,M,79.94,KDRA 030853Z AUTO 01004KT 10SM CLR 27/12 A3000 RMK AO2 SLP102 T02670117 58000,M
ELY,2022-08-03 08:53,-114.8453,39.2950,1909.00,62.00,50.00,64.50,0.00,0.00,0.00,30.27,1014.10,10.00,M,BKN,M,M,M,12000.00,M,M,M,M,M,M,M,M,M,M,62.10,KELY 030853Z AUTO 00000KT 10SM BKN120 17/10 A3027 RMK AO2 SLP141 T01670100 50004,M
LOL,2022-08-03 08:53,-118.5701,40.0684,1192.43,76.00,54.00,46.57,350.00,3.00,0.00,30.12,1014.80,10.00,M,CLR,M,M,M,M,M,M,M,M,M,M,M,M,M,M,75.90,KLOL 030853Z AUTO 35003KT 10SM CLR 24/12 A3012 RMK AO2 SLP148 T02440122 50000,M
VGT,2022-08-03 08:53,-115.1933,36.2111,667.00,91.00,58.00,32.94,0.00,0.00,0.00,29.89,1010.50,10.00,M,CLR,M,M,M,M,M,M,M,M,M,M,M,M,M,M,89.88,KVGT 030853Z AUTO 00000KT 10SM CLR 33/14 A2989 RMK AO2 SLP105 T03280144 56001,M
RNO,2022-08-03 08:55,-119.7711,39.4839,1341.00,70.00,59.00,68.09,100.00,3.00,0.00,30.19,1015.90,10.00,M,FEW,M,M,M,8000.00,M,M,M,M,M,M,M,M,M,M,70.00,KRNO 030855Z 10003KT 10SM FEW080 21/15 A3019 RMK AO2 SLP159 T02110150 50000,M
RTS,2022-08-03 08:55,-119.8764,39.6682,1539.00,66.20,53.60,63.82,310.00,6.00,0.00,30.24,M,10.00,M,CLR,M,M,M,M,M,M,M,M,M,M,M,M,M,M,66.20,KRTS 030855Z AUTO 31006KT 10SM CLR 19/12 A3024 RMK AO2,M
BAM,2022-08-03 08:55,-116.8743,40.5990,1382.36,68.00,55.40,64.04,350.00,6.00,0.00,30.18,M,10.00,M,CLR,M,M,M,M,M,M,M,M,M,M,M,M,M,M,68.00,KBAM 030855Z AUTO 35006KT 10SM CLR 20/13 A3018 RMK AO1,M
05U,2022-08-03 08:55,-116.0051,39.6042,1811.23,M,M,M,M,M,0.00,M,M,M,M,M,M,M,M,M,M,M,M,M,M,M,M,M,M,M,M,K05U 030855Z AUTO RMK A01 PNO,M
MEV,2022-08-03 08:55,-119.7500,38.9963,1441.42,66.20,51.80,59.74,290.00,4.00,0.00,30.20,M,10.00,M,CLR,M,M,M,M,M,M,M,M,M,M,M,M,M,M,66.20,KMEV 030855Z AUTO 29004KT 10SM CLR 19/11 A3020 RMK AO2,M
HTH,2022-08-03 08:55,-118.6315,38.5448,1282.89,75.20,57.20,53.55,0.00,0.00,0.00,30.16,M,10.00,M,CLR,M,M,M,M,M,M,M,M,M,M,M,M,M,M,75.20,KHTH 030855Z AUTO 00000KT 10SM CLR 24/14 A3016 RMK A01,M
TMT,2022-08-03 08:55,-117.1971,39.4643,1749.34,53.80,41.00,61.77,0.00,0.00,0.00,30.27,M,10.00,M,CLR,M,M,M,M,M,M,M,M,M,M,M,M,M,M,53.80,KTMT 030855Z AUTO 00000KT 10SM CLR 12/05 A3027 RMK AO2 T01210050,M
BVU,2022-08-03 08:55,-114.8611,35.9475,671.00,84.20,60.80,45.34,0.00,0.00,0.00,29.90,M,M,M,M,M,M,M,M,M,M,M,M,M,M,M,M,M,M,84.43,KBVU 030855Z AUTO 00000KT 29/16 A2990 RMK AO2 PWINO TSNO,M
EKO,2022-08-03 08:56,-115.7860,40.8242,1367.00,62.00,51.00,67.19,0.00,0.00,0.00,30.19,1016.50,10.00,M,CLR,M,M,M,M,M,M,M,M,M,M,M,M,M,M,62.10,KEKO 030856Z AUTO 00000KT 10SM CLR 17/11 A3019 RMK AO2 SLP165 T01670106 51001,M
NFL,2022-08-03 08:56,-118.7010,39.4166,1199.00,74.00,54.00,49.79,280.00,5.00,0.00,30.13,1016.80,10.00,M,CLR,M,M,M,M,M,M,M,M,M,M,M,M,M,M,73.90,KNFL 030856Z AUTO 28005KT 10SM CLR 23/12 A3013 RMK AO2 SLP168 T02330122 50003,M
WMC,2022-08-03 08:56,-117.8072,40.9019,1315.00,65.00,53.00,65.56,90.00,3.00,0.00,30.16,1015.90,10.00,M,CLR,M,M,M,M,M,M,M,M,M,M,M,M,M,M,64.90,KWMC 030856Z AUTO 09003KT 10SM CLR 18/12 A3016 RMK AO2 SLP159 T01830117 51005,M
LSV,2022-08-03 08:56,-115.0343,36.2362,570.00,89.60,57.20,33.56,290.00,5.00,0.00,29.89,1009.10,10.00,M,FEW,SCT,M,M,10000.00,20000.00,M,M,M,M,M,M,M,M,M,88.28,KLSV 030856Z 29005KT 10SM FEW100 SCT200 32/14 A2989 RMK SLP091 5//// WND DATA ESTMD ALSTG/SLP ESTMD $,M
TPH,2022-08-03 08:56,-117.0904,38.0505,1654.00,70.00,54.00,56.82,340.00,6.00,0.00,30.20,1014.30,10.00,M,CLR,M,M,M,M,M,M,M,M,M,M,M,M,M,M,70.00,KTPH 030856Z AUTO 34006KT 10SM CLR 21/12 A3020 RMK AO2 SLP143 T02110122 58001,M
LAS,2022-08-03 08:56,-115.1634,36.0719,663.00,89.00,56.00,32.53,210.00,5.00,0.00,29.90,1009.20,10.00,M,BKN,M,M,M,22000.00,M,M,M,M,M,M,M,M,M,M,87.44,KLAS 030856Z 21005KT 10SM BKN220 32/13 A2990 RMK AO2 SLP092 T03170133 58001,M
HND,2022-08-03 08:56,-115.1344,35.9729,742.79,86.00,62.00,44.81,210.00,8.00,0.00,29.94,1012.10,10.00,M,CLR,M,M,M,M,M,M,M,M,M,M,M,M,M,M,86.52,KHND 030856Z AUTO 21008KT 10SM CLR 30/17 A2994 RMK AO2 SLP121 T03000167 58001,M
INS,2022-08-03 08:58,-115.6733,36.5872,955.00,79.20,60.40,52.59,0.00,0.00,0.00,29.99,1010.20,10.00,M,CLR,M,M,M,M,M,M,M,M,M,M,M,M,M,M,79.20,KINS 030858Z AUTO 00000KT 10SM CLR 26/16 A2999 RMK AO2 SLP102 T02620158 58000,M
BAM,2022-08-03 09:10,-116.8743,40.5990,1382.36,68.00,53.60,59.97,360.00,4.00,0.00,30.18,M,10.00,M,CLR,M,M,M,M,M,M,M,M,M,M,M,M,M,M,68.00,KBAM 030910Z AUTO 36004KT 10SM CLR 20/12 A3018 RMK AO1,M
TMT,2022-08-03 09:10,-117.1971,39.4643,1749.34,M,M,M,0.00,0.00,0.00,30.26,M,10.00,M,CLR,M,M,M,M,M,M,M,M,M,M,M,M,M,M,M,KTMT 030910Z AUTO 00000KT 10SM CLR A3026 RMK AO2,M
CXP,2022-08-03 09:10,-119.7326,39.1923,1431.00,68.00,55.40,64.04,0.00,0.00,0.00,30.22,M,10.00,M,CLR,M,M,M,M,M,M,M,M,M,M,M,M,M,M,68.00,KCXP 030910Z AUTO 00000KT 10SM CLR 20/13 A3022 RMK AO2,M
05U,2022-08-03 09:15,-116.0051,39.6042,1811.23,M,M,M,M,M,0.00,M,M,M,M,M,M,M,M,M,M,M,M,M,M,M,M,M,M,M,M,K05U 030915Z AUTO RMK A01 PNO,M
RTS,2022-08-03 09:15,-119.8764,39.6682,1539.00,64.40,53.60,67.95,330.00,3.00,0.00,30.23,M,10.00,M,CLR,M,M,M,M,M,M,M,M,M,M,M,M,M,M,64.40,KRTS 030915Z AUTO 33003KT 10SM CLR 18/12 A3023 RMK AO2,M
BVU,2022-08-03 09:15,-114.8611,35.9475,671.00,86.00,60.80,42.80,0.00,0.00,0.00,29.90,M,M,M,M,M,M,M,M,M,M,M,M,M,M,M,M,M,M,86.05,KBVU 030915Z AUTO 00000KT 30/16 A2990 RMK AO2 PWINO TSNO,M
HTH,2022-08-03 09:15,-118.6315,38.5448,1282.89,75.20,53.60,46.98,320.00,6.00,0.00,30.17,M,10.00,M,FEW,SCT,M,M,4800.00,5500.00,M,M,M,M,M,M,M,M,M,75.20,KHTH 030915Z AUTO 32006KT 10SM FEW048 SCT055 24/12 A3017 RMK A01,M
MEV,2022-08-03 09:15,-119.7500,38.9963,1441.42,68.00,53.60,59.97,350.00,4.00,0.00,30.20,M,10.00,M,CLR,M,M,M,M,M,M,M,M,M,M,M,M,M,M,68.00,KMEV 030915Z AUTO 35004KT 10SM CLR 20/12 A3020 RMK AO2,M
CXP,2022-08-03 09:30,-119.7326,39.1923,1431.00,68.00,57.20,68.35,280.00,4.00,0.00,30.22,M,10.00,M,CLR,M,M,M,M,M,M,M,M,M,M,M,M,M,M,68.00,KCXP 030930Z AUTO 28004KT 10SM CLR 20/14 A3022 RMK AO2,M
BAM,2022-08-03 09:35,-116.8743,40.5990,1382.36,64.40,53.60,67.95,0.00,0.00,0.00,30.18,M,10.00,M,CLR,M,M,M,M,M,M,M,M,M,M,M,M,M,M,64.40,KBAM 030935Z AUTO 00000KT 10SM CLR 18/12 A3018 RMK AO1,M
MEV,2022-08-03 09:35,-119.7500,38.9963,1441.42,62.60,50.00,63.38,0.00,0.00,0.00,30.20,M,10.00,M,CLR,M,M,M,M,M,M,M,M,M,M,M,M,M,M,62.60,KMEV 030935Z AUTO 00000KT 10SM CLR 17/10 A3020 RMK AO2,M
05U,2022-08-03 09:35,-116.0051,39.6042,1811.23,M,M,M,M,M,0.00,M,M,M,M,M,M,M,M,M,M,M,M,M,M,M,M,M,M,M,M,K05U 030935Z AUTO RMK A01 PNO,M
HTH,2022-08-03 09:35,-118.6315,38.5448,1282.89,75.20,55.40,50.17,320.00,10.00,0.00,30.17,M,10.00,M,BKN,M,M,M,5000.00,M,M,M,M,M,M,M,M,M,M,75.20,KHTH 030935Z AUTO 32010KT 10SM BKN050 24/13 A3017 RMK A01,M
BVU,2022-08-03 09:35,-114.8611,35.9475,671.00,86.00,60.80,42.80,0.00,0.00,0.00,29.91,M,M,M,M,M,M,M,M,M,M,M,M,M,M,M,M,M,M,86.05,KBVU 030935Z AUTO 00000KT 30/16 A2991 RMK AO2 PWINO TSNO,M
RTS,2022-08-03 09:35,-119.8764,39.6682,1539.00,64.40,53.60,67.95,330.00,5.00,0.00,30.23,M,10.00,M,CLR,M,M,M,M,M,M,M,M,M,M,M,M,M,M,64.40,KRTS 030935Z AUTO 33005KT 10SM CLR 18/12 A3023 RMK AO2,M
CXP,2022-08-03 09:50,-119.7326,39.1923,1431.00,66.20,57.20,72.74,0.00,0.00,0.00,30.22,M,10.00,M,CLR,M,M,M,M,M,M,M,M,M,M,M,M,M,M,66.20,KCXP 030950Z AUTO 00000KT 10SM CLR 19/14 A3022 RMK AO2,M
LOL,2022-08-03 09:53,-118.5701,40.0684,1192.43,74.00,53.00,48.18,80.00,5.00,0.00,30.12,1015.10,10.00,M,FEW,M,M,M,10000.00,M,M,M,M,M,M,M,M,M,M,73.90,KLOL 030953Z AUTO 08005KT 10SM FEW100 23/12 A3012 RMK AO2 SLP151 T02330117,M
DRA,2022-08-03 09:53,-116.0278,36.6206,1009.00,78.00,53.00,41.89,0.00,0.00,0.00,30.00,1010.40,10.00,M,CLR,M,M,M,M,M,M,M,M,M,M,M,M,M,M,78.10,KDRA 030953Z AUTO 00000KT 10SM CLR 26/12 A3000 RMK AO2 SLP104 T02560117,M
ELY,2022-08-03 09:53,-114.8453,39.2950,1909.00,55.00,46.00,71.60,160.00,4.00,0.00,30.27,1014.80,10.00,M,SCT,M,M,M,11000.00,M,M,M,M,M,M,M,M,M,M,55.00,KELY 030953Z AUTO 16004KT 10SM SCT110 13/08 A3027 RMK AO2 SLP148 T01280078,M
VGT,2022-08-03 09:53,-115.1933,36.2111,667.00,90.00,57.00,32.91,310.00,4.00,0.00,29.90,1010.80,10.00,M,CLR,M,M,M,M,M,M,M,M,M,M,M,M,M,M,88.61,KVGT 030953Z AUTO 31004KT 10SM CLR 32/14 A2990 RMK AO2 SLP108 T03220139,M
RNO,2022-08-03 09:55,-119.7711,39.4839,1341.00,69.00,59.00,70.21,220.00,3.00,0.00,30.18,1016.20,10.00,M,CLR,M,M,M,M,M,M,M,M,M,M,M,M,M,M,69.10,KRNO 030955Z 22003KT 10SM CLR 21/15 A3018 RMK AO2 SLP162 T02060150,M
BVU,2022-08-03 09:55,-114.8611,35.9475,671.00,84.20,62.60,48.32,0.00,0.00,0.00,29.91,M,M,M,M,M,M,M,M,M,M,M,M,M,M,M,M,M,M,85.03,KBVU 030955Z AUTO 00000KT 29/17 A2991 RMK AO2 PWINO TSNO,M
RTS,2022-08-03 09:55,-119.8764,39.6682,1539.00,64.40,53.60,67.95,0.00,0.00,0.00,30.23,M,10.00,M,CLR,M,M,M,M,M,M,M,M,M,M,M,M,M,M,64.40,KRTS 030955Z AUTO 00000KT 10SM CLR 18/12 A3023 RMK AO2,M
05U,2022-08-03 09:55,-116.0051,39.6042,1811.23,M,M,M,M,M,0.00,M,M,M,M,M,M,M,M,M,M,M,M,M,M,M,M,M,M,M,M,K05U 030955Z AUTO RMK A01 PNO,M
MEV,2022-08-03 09:55,-119.7500,38.9963,1441.42,60.80,50.00,67.54,100.00,6.00,0.00,30.21,M,10.00,M,CLR,M,M,M,M,M,M,M,M,M,M,M,M,M,M,60.80,KMEV 030955Z AUTO 10006KT 10SM CLR 16/10 A3021 RMK AO2,M
BAM,2022-08-03 09:55,-116.8743,40.5990,1382.36,60.80,51.80,72.20,0.00,0.00,0.00,30.18,M,10.00,M,CLR,M,M,M,M,M,M,M,M,M,M,M,M,M,M,60.80,KBAM 030955Z AUTO 00000KT 10SM CLR 16/11 A3018 RMK AO1,M
HTH,2022-08-03 09:55,-118.6315,38.5448,1282.89,73.40,55.40,53.29,310.00,6.00,0.00,30.17,M,10.00,M,OVC,M,M,M,5000.00,M,M,M,M,M,M,M,M,M,M,73.40,KHTH 030955Z AUTO 31006KT 10SM OVC050 23/13 A3017 RMK A01,M
HND,2022-08-03 09:56,-115.1344,35.9729,742.79,85.00,62.00,46.42,220.00,8.00,0.00,29.95,1012.30,10.00,M,CLR,M,M,M,M,M,M,M,M,M,M,M,M,M,M,85.49,KHND 030956Z AUTO 22008KT 10SM CLR 29/17 A2995 RMK AO2 SLP123 T02940167,M
TPH,2022-08-03 09:56,-117.0904,38.0505,1654.00,68.00,55.00,63.12,360.00,6.00,0.00,30.20,1014.40,10.00,M,FEW,M,M,M,10000.00,M,M,M,M,M,M,M,M,M,M,68.00,KTPH 030956Z AUTO 36006KT 10SM FEW100 20/13 A3020 RMK AO2 SLP144 T02000128,M
EKO,2022-08-03 09:56,-115.7860,40.8242,1367.00,62.00,50.00,64.50,M,3.00,0.00,30.19,1016.30,10.00,M,CLR,M,M,M,M,M,M,M,M,M,M,M,M,M,M,62.10,KEKO 030956Z AUTO VRB03KT 10SM CLR 17/10 A3019 RMK AO2 SLP163 T01670100,M
LSV,2022-08-03 09:56,-115.0343,36.2362,570.00,87.80,57.20,35.53,0.00,0.00,0.00,29.91,1009.80,10.00,M,FEW,SCT,M,M,10000.00,20000.00,M,M,M,M,M,M,M,M,M,86.58,KLSV 030956Z 00000KT 10SM FEW100 SCT200 31/14 A2991 RMK SLP098 WND DATA ESTMD ALSTG/SLP ESTMD $,M
NFL,2022-08-03 09:56,-118.7010,39.4166,1199.00,68.00,53.00,58.88,180.00,5.00,0.00,30.13,1016.80,10.00,M,CLR,M,M,M,M,M,M,M,M,M,M,M,M,M,M,68.00,KNFL 030956Z AUTO 18005KT 10SM CLR 20/12 A3013 RMK AO2 SLP168 T02000117,M
LAS,2022-08-03 09:56,-115.1634,36.0719,663.00,88.00,57.00,35.05,210.00,4.00,0.00,29.91,1009.40,10.00,M,BKN,M,M,M,25000.00,M,M,M,M,M,M,M,M,M,M,86.71,KLAS 030956Z 21004KT 10SM BKN250 31/14 A2991 RMK AO2 SLP094 T03110139,M
WMC,2022-08-03 09:56,-117.8072,40.9019,1315.00,67.00,54.00,63.21,0.00,0.00,0.00,30.16,1015.60,10.00,M,CLR,M,M,M,M,M,M,M,M,M,M,M,M,M,M,66.90,KWMC 030956Z AUTO 00000KT 10SM CLR 19/12 A3016 RMK AO2 SLP156 T01940122,M
INS,2022-08-03 09:58,-115.6733,36.5872,955.00,78.00,61.00,55.71,0.00,0.00,0.00,30.00,1010.60,10.00,M,CLR,M,M,M,M,M,M,M,M,M,M,M,M,M,M,78.10,KINS 030958Z AUTO 00000KT 10SM CLR 26/16 A3000 RMK AO2 SLP106 T02560161,M
TMT,2022-08-03 10:00,-117.1971,39.4643,1749.34,M,M,M,0.00,0.00,0.00,30.26,M,10.00,M,CLR,M,M,M,M,M,M,M,M,M,M,M,M,M,M,M,KTMT 031000Z AUTO 00000KT 10SM CLR A3026 RMK AO2,M
CXP,2022-08-03 10:10,-119.7326,39.1923,1431.00,66.20,55.40,68.15,0.00,0.00,0.00,30.22,M,10.00,M,CLR,M,M,M,M,M,M,M,M,M,M,M,M,M,M,66.20,KCXP 031010Z AUTO 00000KT 10SM CLR 19/13 A3022 RMK AO2,M
BVU,2022-08-03 10:15,-114.8611,35.9475,671.00,82.40,62.60,51.21,10.00,3.00,0.00,29.91,M,M,M,M,M,M,M,M,M,M,M,M,M,M,M,M,M,M,83.41,KBVU 031015Z AUTO 01003KT 28/17 A2991 RMK AO2 PWINO TSNO,M
HTH,2022-08-03 10:15,-118.6315,38.5448,1282.89,73.40,57.20,56.88,280.00,6.00,0.00,30.17,M,10.00,M,OVC,M,M,M,5000.00,M,M,M,M,M,M,M,M,M,M,73.40,KHTH 031015Z AUTO 28006KT 10SM OVC050 23/14 A3017 RMK A01,M
BAM,2022-08-03 10:15,-116.8743,40.5990,1382.36,60.80,51.80,72.20,0.00,0.00,0.00,30.18,M,10.00,M,CLR,M,M,M,M,M,M,M,M,M,M,M,M,M,M,60.80,KBAM 031015Z AUTO 00000KT 10SM CLR 16/11 A3018 RMK AO1,M
MEV,2022-08-03 10:15,-119.7500,38.9963,1441.42,59.00,50.00,72.01,200.00,3.00,0.00,30.21,M,10.00,M,CLR,M,M,M,M,M,M,M,M,M,M,M,M,M,M,59.00,KMEV 031015Z AUTO 20003KT 10SM CLR 15/10 A3021 RMK AO2,M
05U,2022-08-03 10:15,-116.0051,39.6042,1811.23,M,M,M,M,M,0.00,M,M,M,M,M,M,M,M,M,M,M,M,M,M,M,M,M,M,M,M,K05U 031015Z AUTO RMK A01 PNO,M
TMT,2022-08-03 10:15,-117.1971,39.4643,1749.34,52.30,41.50,66.54,0.00,0.00,0.00,30.26,M,10.00,M,CLR,M,M,M,M,M,M,M,M,M,M,M,M,M,M,52.30,KTMT 031015Z AUTO 00000KT 10SM CLR 11/05 A3026 RMK AO2 T01130053,M
RTS,2022-08-03 10:15,-119.8764,39.6682,1539.00,64.40,53.60,67.95,0.00,0.00,0.00,30.23,M,10.00,M,CLR,M,M,M,M,M,M,M,M,M,M,M,M,M,M,64.40,KRTS 031015Z AUTO 00000KT 10SM CLR 18/12 A3023 RMK AO2,M
CXP,2022-08-03 10:30,-119.7326,39.1923,1431.00,66.20,57.20,72.74,0.00,0.00,0.00,30.22,M,10.00,M,CLR,M,M,M,M,M,M,M,M,M,M,M,M,M,M,66.20,KCXP 031030Z AUTO 00000KT 10SM CLR 19/14 A3022 RMK AO2,M
BVU,2022-08-03 10:35,-114.8611,35.9475,671.00,84.20,60.80,45.34,320.00,6.00,0.00,29.91,M,M,M,M,M,M,M,M,M,M,M,M,M,M,M,M,M,M,84.43,KBVU 031035Z AUTO 32006KT 29/16 A2991 RMK AO2 PWINO TSNO,M
05U,2022-08-03 10:35,-116.0051,39.6042,1811.23,M,M,M,M,M,0.00,M,M,M,M,M,M,M,M,M,M,M,M,M,M,M,M,M,M,M,M,K05U 031035Z AUTO RMK A01 PNO,M
MEV,2022-08-03 10:35,-119.7500,38.9963,1441.42,57.20,50.00,76.82,160.00,5.00,0.00,30.21,M,10.00,M,CLR,M,M,M,M,M,M,M,M,M,M,M,M,M,M,57.20,KMEV 031035Z AUTO 16005KT 10SM CLR 14/10 A3021 RMK AO2,M
BAM,2022-08-03 10:35,-116.8743,40.5990,1382.36,60.80,53.60,77.14,0.00,0.00,0.00,30.18,M,10.00,M,CLR,M,M,M,M,M,M,M,M,M,M,M,M,M,M,60.80,KBAM 031035Z AUTO 00000KT 10SM CLR 16/12 A3018 RMK AO1,M
HTH,2022-08-03 10:35,-118.6315,38.5448,1282.89,73.40,55.40,53.29,270.00,8.00,0.00,30.17,M,10.00,M,OVC,M,M,M,5000.00,M,M,M,M,M,M,M,M,M,M,73.40,KHTH 031035Z AUTO 27008KT 10SM OVC050 23/13 A3017 RMK A01,M
TMT,2022-08-03 10:35,-117.1971,39.4643,1749.34,M,M,M,200.00,4.00,0.00,30.27,M,10.00,M,CLR,M,M,M,M,M,M,M,M,M,M,M,M,M,M,M,KTMT 031035Z AUTO 20004KT 10SM CLR A3027 RMK AO2,M
RTS,2022-08-03 10:35,-119.8764,39.6682,1539.00,62.60,51.80,67.75,320.00,5.00,0.00,30.23,M,10.00,M,CLR,M,M,M,M,M,M,M,M,M,M,M,M,M,M,62.60,KRTS 031035Z AUTO 32005KT 10SM CLR 17/11 A3023 RMK AO2,M
CXP,2022-08-03 10:50,-119.7326,39.1923,1431.00,64.40,55.40,72.56,M,3.00,0.00,30.22,M,10.00,M,CLR,M,M,M,M,M,M,M,M,M,M,M,M,M,M,64.40,KCXP 031050Z AUTO VRB03KT 10SM CLR 18/13 A3022 RMK AO2,M
VGT,2022-08-03 10:53,-115.1933,36.2111,667.00,89.00,57.00,33.85,290.00,4.00,0.00,29.90,1010.80,10.00,M,CLR,M,M,M,M,M,M,M,M,M,M,M,M,M,M,87.74,KVGT 031053Z AUTO 29004KT 10SM CLR 32/14 A2990 RMK AO2 SLP108 T03170139,M
ELY,2022-08-03 10:53,-114.8453,39.2950,1909.00,53.00,45.00,73.89,160.00,6.00,0.00,30.27,1016.30,10.00,M,CLR,M,M,M,M,M,M,M,M,M,M,M,M,M,M,53.10,KELY 031053Z AUTO 16006KT 10SM CLR 12/07 A3027 RMK AO2 SLP163 T01170072,M
DRA,2022-08-03 10:53,-116.0278,36.6206,1009.00,78.00,53.00,41.89,0.00,0.00,0.00,30.00,1010.30,10.00,M,CLR,M,M,M,M,M,M,M,M,M,M,M,M,M,M,78.10,KDRA 031053Z AUTO 00000KT 10SM CLR 26/12 A3000 RMK AO2 SLP103 T02560117,M
LOL,2022-08-03 10:53,-118.5701,40.0684,1192.43,71.00,52.00,50.86,330.00,3.00,0.00,30.12,1015.20,10.00,M,CLR,M,M,M,M,M,M,M,M,M,M,M,M,M,M,71.10,KLOL 031053Z AUTO 33003KT 10SM CLR 22/11 A3012 RMK AO2 SLP152 T02170111,M
BVU,2022-08-03 10:55,-114.8611,35.9475,671.00,84.20,59.00,42.52,330.00,4.00,0.00,29.91,M,M,M,M,M,M,M,M,M,M,M,M,M,M,M,M,M,M,83.92,KBVU 031055Z AUTO 33004KT 29/15 A2991 RMK AO2 PWINO TSNO,M
RTS,2022-08-03 10:55,-119.8764,39.6682,1539.00,62.60,53.60,72.38,90.00,5.00,0.00,30.23,M,10.00,M,CLR,M,M,M,M,M,M,M,M,M,M,M,M,M,M,62.60,KRTS 031055Z AUTO 09005KT 10SM CLR 17/12 A3023 RMK AO2,M
05U,2022-08-03 10:55,-116.0051,39.6042,1811.23,M,M,M,M,M,0.00,M,M,M,M,M,M,M,M,M,M,M,M,M,M,M,M,M,M,M,M,K05U 031055Z AUTO RMK A01 PNO,M
MEV,2022-08-03 10:55,-119.7500,38.9963,1441.42,59.00,50.00,72.01,0.00,0.00,0.00,30.21,M,10.00,M,CLR,M,M,M,M,M,M,M,M,M,M,M,M,M,M,59.00,KMEV 031055Z AUTO 00000KT 10SM CLR 15/10 A3021 RMK AO2,M
TMT,2022-08-03 10:55,-117.1971,39.4643,1749.34,M,M,M,220.00,5.00,0.00,30.26,M,10.00,M,CLR,M,M,M,M,M,M,M,M,M,M,M,M,M,M,M,KTMT 031055Z AUTO 22005KT 10SM CLR A3026 RMK AO2,M
HTH,2022-08-03 10:55,-118.6315,38.5448,1282.89,73.40,55.40,53.29,280.00,5.00,0.00,30.17,M,10.00,M,OVC,M,M,M,5500.00,M,M,M,M,M,M,M,M,M,M,73.40,KHTH 031055Z AUTO 28005KT 10SM OVC055 23/13 A3017 RMK A01,M
BAM,2022-08-03 10:55,-116.8743,40.5990,1382.36,60.80,51.80,72.20,0.00,0.00,0.00,30.18,M,10.00,M,CLR,M,M,M,M,M,M,M,M,M,M,M,M,M,M,60.80,KBAM 031055Z AUTO 00000KT 10SM CLR 16/11 A3018 RMK AO1,M
RNO,2022-08-03 10:55,-119.7711,39.4839,1341.00,69.00,58.00,67.50,120.00,3.00,0.00,30.18,1016.30,10.00,M,FEW,M,M,M,22000.00,M,M,M,M,M,M,M,M,M,M,69.10,KRNO 031055Z 12003KT 10SM FEW220 21/14 A3018 RMK AO2 SLP163 T02060144,M
LAS,2022-08-03 10:56,-115.1634,36.0719,663.00,87.00,58.00,37.25,200.00,4.00,0.00,29.91,1009.60,10.00,M,BKN,M,M,M,25000.00,M,M,M,M,M,M,M,M,M,M,86.14,KLAS 031056Z 20004KT 10SM BKN250 31/14 A2991 RMK AO2 SLP096 T03060144,M
WMC,2022-08-03 10:56,-117.8072,40.9019,1315.00,65.00,52.00,62.96,0.00,0.00,0.00,30.16,1015.70,10.00,M,CLR,M,M,M,M,M,M,M,M,M,M,M,M,M,M,64.90,KWMC 031056Z AUTO 00000KT 10SM CLR 18/11 A3016 RMK AO2 SLP157 T01830111,M
TPH,2022-08-03 10:56,-117.0904,38.0505,1654.00,67.00,55.00,65.56,30.00,9.00,0.00,30.20,1014.30,10.00,M,SCT,M,M,M,10000.00,M,M,M,M,M,M,M,M,M,M,66.90,KTPH 031056Z AUTO 03009KT 10SM SCT100 19/13 A3020 RMK AO2 SLP143 T01940128,M
EKO,2022-08-03 10:56,-115.7860,40.8242,1367.00,60.00,49.00,66.46,0.00,0.00,0.00,30.20,1016.70,10.00,M,CLR,M,M,M,M,M,M,M,M,M,M,M,M,M,M,60.10,KEKO 031056Z AUTO 00000KT 10SM CLR 16/09 A3020 RMK AO2 SLP167 T01560094,M
NFL,2022-08-03 10:56,-118.7010,39.4166,1199.00,68.00,53.00,58.88,150.00,3.00,0.00,30.13,1016.80,10.00,M,CLR,M,M,M,M,M,M,M,M,M,M,M,M,M,M,68.00,KNFL 031056Z AUTO 15003KT 10SM CLR 20/12 A3013 RMK AO2 SLP168 T02000117,M
HND,2022-08-03 10:56,-115.1344,35.9729,742.79,84.00,62.00,47.78,220.00,10.00,0.00,29.95,1012.30,10.00,M,CLR,M,M,M,M,M,M,M,M,M,M,M,M,M,M,84.67,KHND 031056Z AUTO 22010KT 10SM CLR 29/17 A2995 RMK AO2 SLP123 T02890167,M
LSV,2022-08-03 10:56,-115.0343,36.2362,570.00,86.00,57.20,37.62,240.00,2.00,0.00,29.89,M,10.00,M,FEW,SCT,M,M,10000.00,20000.00,M,M,M,M,M,M,M,M,M,84.97,KLSV 031056Z 24002KT 10SM FEW100 SCT200 30/14 A2989 RMK SLP092WND DATA ESTMD ALSTG/SLP ESTMD $,M
INS,2022-08-03 10:58,-115.6733,36.5872,955.00,76.60,61.20,58.96,0.00,0.00,0.00,30.00,1010.60,10.00,M,CLR,M,M,M,M,M,M,M,M,M,M,M,M,M,M,76.60,KINS 031058Z AUTO 00000KT 10SM CLR 25/16 A3000 RMK AO2 SLP106 T02480162,M
CXP,2022-08-03 11:10,-119.7326,39.1923,1431.00,64.40,55.40,72.56,50.00,3.00,0.00,30.21,M,10.00,M,CLR,M,M,M,M,M,M,M,M,M,M,M,M,M,M,64.40,KCXP 031110Z AUTO 05003KT 10SM CLR 18/13 A3021 RMK AO2,M
05U,2022-08-03 11:10,-116.0051,39.6042,1811.23,M,M,M,M,M,0.00,M,M,M,M,M,M,M,M,M,M,M,M,M,M,M,M,M,M,M,M,K05U 031110Z AUTO RMK A01 PNO,M
RTS,2022-08-03 11:15,-119.8764,39.6682,1539.00,62.60,53.60,72.38,90.00,3.00,0.00,30.23,M,10.00,M,CLR,M,M,M,M,M,M,M,M,M,M,M,M,M,M,62.60,KRTS 031115Z AUTO 09003KT 10SM CLR 17/12 A3023 RMK AO2,M
TMT,2022-08-03 11:15,-117.1971,39.4643,1749.34,M,M,M,220.00,4.00,0.00,30.26,M,10.00,M,CLR,M,M,M,M,M,M,M,M,M,M,M,M,M,M,M,KTMT 031115Z AUTO 22004KT 10SM CLR A3026 RMK AO2,M
HTH,2022-08-03 11:15,-118.6315,38.5448,1282.89,73.40,55.40,53.29,270.00,6.00,0.00,30.16,M,10.00,M,OVC,M,M,M,5500.00,M,M,M,M,M,M,M,M,M,M,73.40,KHTH 031115Z AUTO 27006KT 10SM OVC055 23/13 A3016 RMK A01,M
BAM,2022-08-03 11:15,-116.8743,40.5990,1382.36,60.80,50.00,67.54,0.00,0.00,0.00,30.18,M,10.00,M,CLR,M,M,M,M,M,M,M,M,M,M,M,M,M,M,60.80,KBAM 031115Z AUTO 00000KT 10SM CLR 16/10 A3018 RMK AO1,M
MEV,2022-08-03 11:15,-119.7500,38.9963,1441.42,59.00,50.00,72.01,0.00,0.00,0.00,30.21,M,10.00,M,CLR,M,M,M,M,M,M,M,M,M,M,M,M,M,M,59.00,KMEV 031115Z AUTO 00000KT 10SM CLR 15/10 A3021 RMK AO2,M
BVU,2022-08-03 11:15,-114.8611,35.9475,671.00,84.20,60.80,45.34,280.00,3.00,0.00,29.91,M,M,M,M,M,M,M,M,M,M,M,M,M,M,M,M,M,M,84.43,KBVU 031115Z AUTO 28003KT 29/16 A2991 RMK AO2 PWINO TSNO,M
CXP,2022-08-03 11:30,-119.7326,39.1923,1431.00,62.60,55.40,77.29,0.00,0.00,0.00,30.21,M,10.00,M,CLR,M,M,M,M,M,M,M,M,M,M,M,M,M,M,62.60,KCXP 031130Z AUTO 00000KT 10SM CLR 17/13 A3021 RMK AO2,M
TMT,2022-08-03 11:35,-117.1971,39.4643,1749.34,52.70,41.50,65.57,250.00,5.00,0.00,30.27,M,10.00,M,CLR,M,M,M,M,M,M,M,M,M,M,M,M,M,M,52.70,KTMT 031135Z AUTO 25005KT 10SM CLR 12/05 A3027 RMK AO2 T01150053,M
HTH,2022-08-03 11:35,-118.6315,38.5448,1282.89,73.40,55.40,53.29,290.00,6.00,0.00,30.16,M,10.00,M,SCT,OVC,M,M,3700.00,5500.00,M,M,M,M,M,M,M,M,M,73.40,KHTH 031135Z AUTO 29006KT 10SM SCT037 OVC055 23/13 A3016 RMK A01,M
MEV,2022-08-03 11:35,-119.7500,38.9963,1441.42,57.20,48.20,71.83,110.00,5.00,0.00,30.21,M,10.00,M,CLR,M,M,M,M,M,M,M,M,M,M,M,M,M,M,57.20,KMEV 031135Z AUTO 11005KT 10SM CLR 14/09 A3021 RMK AO2,M
05U,2022-08-03 11:35,-116.0051,39.6042,1811.23,M,M,M,M,M,0.00,M,M,M,M,M,M,M,M,M,M,M,M,M,M,M,M,M,M,M,M,K05U 031135Z AUTO RMK A01 PNO,M
BAM,2022-08-03 11:35,-116.8743,40.5990,1382.36,60.80,53.60,77.14,0.00,0.00,0.00,30.18,M,10.00,M,CLR,M,M,M,M,M,M,M,M,M,M,M,M,M,M,60.80,KBAM 031135Z AUTO 00000KT 10SM CLR 16/12 A3018 RMK AO1,M
BVU,2022-08-03 11:35,-114.8611,35.9475,671.00,82.40,60.80,48.05,0.00,0.00,0.00,29.91,M,M,M,M,M,M,M,M,M,M,M,M,M,M,M,M,M,M,82.90,KBVU 031135Z AUTO 00000KT 28/16 A2991 RMK AO2 PWINO TSNO,M
RTS,2022-08-03 11:35,-119.8764,39.6682,1539.00,60.80,51.80,72.20,330.00,3.00,0.00,30.22,M,10.00,M,CLR,M,M,M,M,M,M,M,M,M,M,M,M,M,M,60.80,KRTS 031135Z AUTO 33003KT 10SM CLR 16/11 A3022 RMK AO2,M
CXP,2022-08-03 11:50,-119.7326,39.1923,1431.00,62.60,55.40,77.29,0.00,0.00,0.00,30.22,M,10.00,M,CLR,M,M,M,M,M,M,M,M,M,M,M,M,M,M,62.60,KCXP 031150Z AUTO 00000KT 10SM CLR 17/13 A3022 RMK AO2,M
LOL,2022-08-03 11:53,-118.5701,40.0684,1192.43,66.00,49.00,54.01,0.00,0.00,0.00,30.12,1015.30,10.00,M,CLR,M,M,M,M,M,M,M,M,M,M,M,M,M,M,66.00,KLOL 031153Z AUTO 00000KT 10SM CLR 19/09 A3012 RMK AO2 SLP153 T01890094 10272 20189 50000,M
VGT,2022-08-03 11:53,-115.1933,36.2111,667.00,88.00,58.00,36.21,0.00,0.00,0.00,29.90,1010.80,10.00,M,CLR,M,M,M,M,M,M,M,M,M,M,M,M,M,M,86.96,KVGT 031153Z AUTO 00000KT 10SM CLR 31/14 A2990 RMK AO2 SLP108 T03110144 10344 20306 51003,M
ELY,2022-08-03 11:53,-114.8453,39.2950,1909.00,54.00,46.00,74.26,200.00,8.00,0.00,30.28,1016.10,10.00,M,CLR,M,M,M,M,M,M,M,M,M,M,M,M,M,M,54.00,KELY 031153Z AUTO 20008KT 10SM CLR 12/08 A3028 RMK AO2 SLP161 T01220078 10167 20117 53003,M
DRA,2022-08-03 11:53,-116.0278,36.6206,1009.00,78.00,53.00,41.89,360.00,4.00,0.00,30.00,1010.20,10.00,M,CLR,M,M,M,M,M,M,M,M,M,M,M,M,M,M,78.10,KDRA 031153Z AUTO 36004KT 10SM CLR 26/12 A3000 RMK AO2 SLP102 T02560117 10300 20239 50001,M
TMT,2022-08-03 11:55,-117.1971,39.4643,1749.34,54.30,42.60,64.52,230.00,6.00,0.00,30.26,M,10.00,M,CLR,M,M,M,M,M,M,M,M,M,M,M,M,M,M,54.30,KTMT 031155Z AUTO 23006KT 10SM CLR 12/06 A3026 RMK AO2 T01240059,M
05U,2022-08-03 11:55,-116.0051,39.6042,1811.23,M,M,M,M,M,0.00,M,M,M,M,M,M,M,M,M,M,M,M,M,M,M,M,M,M,M,M,K05U 031155Z AUTO RMK A01 PNO,M
HTH,2022-08-03 11:55,-118.6315,38.5448,1282.89,73.40,53.60,49.90,250.00,5.00,0.00,30.16,M,10.00,M,FEW,SCT,BKN,M,3400.00,3900.00,4800.00,M,M,M,M,M,M,M,M,73.40,KHTH 031155Z AUTO 25005KT 10SM FEW034 SCT039 BKN048 23/12 A3016 RMK A01,M
RNO,2022-08-03 11:55,-119.7711,39.4839,1341.00,68.00,59.00,72.92,10.00,4.00,0.00,30.18,1015.90,10.00,M,SCT,M,M,M,22000.00,M,M,M,M,M,M,M,M,M,M,68.00,KRNO 031155Z 01004KT 10SM SCT220 20/15 A3018 RMK AO2 SLP159 70001 T02000150 10256 20200 58003,M
BAM,2022-08-03 11:55,-116.8743,40.5990,1382.36,62.60,53.60,72.38,0.00,0.00,0.00,30.18,M,10.00,M,CLR,M,M,M,M,M,M,M,M,M,M,M,M,M,M,62.60,KBAM 031155Z AUTO 00000KT 10SM CLR 17/12 A3018 RMK AO1,M
BVU,2022-08-03 11:55,-114.8611,35.9475,671.00,82.40,60.80,48.05,0.00,0.00,0.00,29.91,M,M,M,M,M,M,M,M,M,M,M,M,M,M,M,M,M,M,82.90,KBVU 031155Z AUTO 00000KT 28/16 A2991 RMK AO2 PWINO TSNO,M
LSV,2022-08-03 11:55,-115.0343,36.2362,570.00,86.00,57.20,37.62,210.00,3.00,0.00,29.89,1009.30,10.00,M,SCT,M,M,M,20000.00,M,M,M,M,M,M,M,M,M,M,84.97,KLSV 031155Z 21003KT 10SM SCT200 30/14 A2989 RMK SLP093 5//// WND DATA ESTMD ALSTG/SLP ESTMD $,M
RTS,2022-08-03 11:55,-119.8764,39.6682,1539.00,60.80,51.80,72.20,350.00,5.00,0.00,30.23,M,10.00,M,CLR,M,M,M,M,M,M,M,M,M,M,M,M,M,M,60.80,KRTS 031155Z AUTO 35005KT 10SM CLR 16/11 A3023 RMK AO2,M
MEV,2022-08-03 11:55,-119.7500,38.9963,1441.42,55.40,48.20,76.66,110.00,5.00,0.00,30.21,M,10.00,M,FEW,M,M,M,4900.00,M,M,M,M,M,M,M,M,M,M,55.40,KMEV 031155Z AUTO 11005KT 10SM FEW049 13/09 A3021 RMK AO2,M
WMC,2022-08-03 11:56,-117.8072,40.9019,1315.00,61.00,53.00,75.20,180.00,4.00,0.00,30.15,1015.90,10.00,M,CLR,M,M,M,M,M,M,M,M,M,M,M,M,M,M,61.00,KWMC 031156Z AUTO 18004KT 10SM CLR 16/12 A3015 RMK AO2 SLP159 T01610117 10222 20156 57001,M
TPH,2022-08-03 11:56,-117.0904,38.0505,1654.00,67.00,55.00,65.56,360.00,7.00,0.00,30.20,1014.50,10.00,M,CLR,M,M,M,M,M,M,M,M,M,M,M,M,M,M,66.90,KTPH 031156Z AUTO 36007KT 10SM CLR 19/13 A3020 RMK AO2 SLP145 T01940128 10250 20194 53000,M
NFL,2022-08-03 11:56,-118.7010,39.4166,1199.00,67.00,52.00,58.74,210.00,3.00,0.00,30.13,1016.90,10.00,M,CLR,M,M,M,M,M,M,M,M,M,M,M,M,M,M,66.90,KNFL 031156Z AUTO 21003KT 10SM CLR 19/11 A3013 RMK AO2 SLP169 T01940111 10272 20194 52001,M
EKO,2022-08-03 11:56,-115.7860,40.8242,1367.00,61.00,49.00,64.37,60.00,3.00,0.00,30.20,1016.80,10.00,M,CLR,M,M,M,M,M,M,M,M,M,M,M,M,M,M,61.00,KEKO 031156Z AUTO 06003KT 10SM CLR 16/09 A3020 RMK AO2 SLP168 T01610094 10228 20150 51004,M
HND,2022-08-03 11:56,-115.1344,35.9729,742.79,84.00,61.00,45.96,220.00,11.00,0.00,29.94,1012.10,10.00,M,CLR,M,M,M,M,M,M,M,M,M,M,M,M,M,M,84.32,KHND 031156Z AUTO 22011KT 10SM CLR 29/16 A2994 RMK AO2 SLP121 T02890161 10322 20289 50000,M
LAS,2022-08-03 11:56,-115.1634,36.0719,663.00,86.00,58.00,38.58,210.00,4.00,0.00,29.91,1009.40,10.00,M,BKN,M,M,M,25000.00,M,M,M,M,M,M,M,M,M,M,85.16,KLAS 031156Z 21004KT 10SM BKN250 30/14 A2991 RMK AO2 SLP094 T03000144 10339 20300 50002,M
INS,2022-08-03 11:58,-115.6733,36.5872,955.00,75.40,60.00,59.01,270.00,3.00,0.00,30.00,1010.80,10.00,M,CLR,M,M,M,M,M,M,M,M,M,M,M,M,M,M,75.40,KINS 031158Z AUTO 27003KT 10SM CLR 24/16 A3000 RMK AO2 SLP108 70005 T02410156 10288 20236 51002,M
CXP,2022-08-03 12:10,-119.7326,39.1923,1431.00,64.40,53.60,67.95,0.00,0.00,0.00,30.22,M,10.00,M,CLR,M,M,M,M,M,M,M,M,M,M,M,M,M,M,64.40,KCXP 031210Z AUTO 00000KT 10SM CLR 18/12 A3022 RMK AO2,M
BVU,2022-08-03 12:15,-114.8611,35.9475,671.00,84.20,60.80,45.34,0.00,0.00,0.00,29.91,M,M,M,M,M,M,M,M,M,M,M,M,M,M,M,M,M,M,84.43,KBVU 031215Z AUTO 00000KT 29/16 A2991 RMK AO2 PWINO TSNO,M
TMT,2022-08-03 12:15,-117.1971,39.4643,1749.34,51.00,40.80,67.70,0.00,0.00,0.00,30.27,M,10.00,M,CLR,M,M,M,M,M,M,M,M,M,M,M,M,M,M,51.10,KTMT 031215Z AUTO 00000KT 10SM CLR 11/05 A3027 RMK AO2 T01060049,M
RTS,2022-08-03 12:15,-119.8764,39.6682,1539.00,60.80,51.80,72.20,20.00,4.00,0.00,30.23,M,10.00,M,CLR,M,M,M,M,M,M,M,M,M,M,M,M,M,M,60.80,KRTS 031215Z AUTO 02004KT 10SM CLR 16/11 A3023 RMK AO2,M
05U,2022-08-03 12:15,-116.0051,39.6042,1811.23,M,M,M,M,M,0.00,M,M,M,M,M,M,M,M,M,M,M,M,M,M,M,M,M,M,M,M,K05U 031215Z AUTO RMK A01 PNO,M
BAM,2022-08-03 12:15,-116.8743,40.5990,1382.36,55.40,50.00,81.99,130.00,3.00,0.00,30.18,M,10.00,M,CLR,M,M,M,M,M,M,M,M,M,M,M,M,M,M,55.40,KBAM 031215Z AUTO 13003KT 10SM CLR 13/10 A3018 RMK AO1,M
MEV,2022-08-03 12:15,-119.7500,38.9963,1441.42,55.40,48.20,76.66,110.00,5.00,0.00,30.21,M,10.00,M,CLR,M,M,M,M,M,M,M,M,M,M,M,M,M,M,55.40,KMEV 031215Z AUTO 11005KT 10SM CLR 13/09 A3021 RMK AO2,M
HTH,2022-08-03 12:15,-118.6315,38.5448,1282.89,73.40,53.60,49.90,250.00,5.00,0.00,30.16,M,10.00,M,BKN,OVC,M,M,4500.00,5000.00,M,M,M,M,M,M,M,M,M,73.40,KHTH 031215Z AUTO 25005KT 10SM BKN045 OVC050 23/12 A3016 RMK A01,M
CXP,2022-08-03 12:30,-119.7326,39.1923,1431.00,62.60,55.40,77.29,300.00,3.00,0.00,30.22,M,10.00,M,CLR,M,M,M,M,M,M,M,M,M,M,M,M,M,M,62.60,KCXP 031230Z AUTO 30003KT 10SM CLR 17/13 A3022 RMK AO2,M
TMT,2022-08-03 12:35,-117.1971,39.4643,1749.34,49.00,40.00,70.42,0.00,0.00,0.00,30.27,M,10.00,M,CLR,M,M,M,M,M,M,M,M,M,M,M,M,M,M,49.10,KTMT 031235Z AUTO 00000KT 10SM CLR 10/04 A3027 RMK AO2 T00950044,M
BAM,2022-08-03 12:35,-116.8743,40.5990,1382.36,57.20,50.00,76.82,170.00,4.00,0.00,30.19,M,10.00,M,CLR,M,M,M,M,M,M,M,M,M,M,M,M,M,M,57.20,KBAM 031235Z AUTO 17004KT 10SM CLR 14/10 A3019 RMK AO1,M
05U,2022-08-03 12:35,-116.0051,39.6042,1811.23,M,M,M,M,M,0.00,M,M,M,M,M,M,M,M,M,M,M,M,M,M,M,M,M,M,M,M,K05U 031235Z AUTO RMK A01 PNO,M
HTH,2022-08-03 12:35,-118.6315,38.5448,1282.89,71.60,53.60,53.03,260.00,3.00,0.00,30.17,M,10.00,M,OVC,M,M,M,4900.00,M,M,M,M,M,M,M,M,M,M,71.60,KHTH 031235Z AUTO 26003KT 10SM OVC049 22/12 A3017 RMK A01,M
RTS,2022-08-03 12:35,-119.8764,39.6682,1539.00,60.80,51.80,72.20,120.00,3.00,0.00,30.23,M,10.00,M,CLR,M,M,M,M,M,M,M,M,M,M,M,M,M,M,60.80,KRTS 031235Z AUTO 12003KT 10SM CLR 16/11 A3023 RMK AO2,M
BVU,2022-08-03 12:35,-114.8611,35.9475,671.00,82.40,62.60,51.21,0.00,0.00,0.00,29.92,M,M,M,M,M,M,M,M,M,M,M,M,M,M,M,M,M,M,83.41,KBVU 031235Z AUTO 00000KT 28/17 A2992 RMK AO2 PWINO TSNO,M
MEV,2022-08-03 12:35,-119.7500,38.9963,1441.42,55.40,48.20,76.66,0.00,0.00,0.00,30.21,M,10.00,M,CLR,M,M,M,M,M,M,M,M,M,M,M,M,M,M,55.40,KMEV 031235Z AUTO 00000KT 10SM CLR 13/09 A3021 RMK AO2,M
CXP,2022-08-03 12:50,-119.7326,39.1923,1431.00,64.40,53.60,67.95,0.00,0.00,0.00,30.22,M,10.00,M,CLR,M,M,M,M,M,M,M,M,M,M,M,M,M,M,64.40,KCXP 031250Z AUTO 00000KT 10SM CLR 18/12 A3022 RMK AO2,M
ELY,2022-08-03 12:53,-114.8453,39.2950,1909.00,51.00,44.00,76.86,180.00,4.00,0.00,30.29,1016.70,10.00,M,CLR,M,M,M,M,M,M,M,M,M,M,M,M,M,M,51.10,KELY 031253Z AUTO 18004KT 10SM CLR 11/07 A3029 RMK AO2 SLP167 T01060067,M
VGT,2022-08-03 12:53,-115.1933,36.2111,667.00,87.00,57.00,36.07,350.00,5.00,0.00,29.91,1011.10,10.00,M,CLR,M,M,M,M,M,M,M,M,M,M,M,M,M,M,85.89,KVGT 031253Z AUTO 35005KT 10SM CLR 31/14 A2991 RMK AO2 SLP111 T03060139,M
DRA,2022-08-03 12:53,-116.0278,36.6206,1009.00,75.00,52.00,44.59,0.00,0.00,0.00,30.01,1010.80,10.00,M,CLR,M,M,M,M,M,M,M,M,M,M,M,M,M,M,75.00,KDRA 031253Z AUTO 00000KT 10SM CLR 24/11 A3001 RMK AO2 SLP108 T02390111,M
LOL,2022-08-03 12:53,-118.5701,40.0684,1192.43,62.00,50.00,64.50,120.00,5.00,0.00,30.13,1015.90,10.00,M,CLR,M,M,M,M,M,M,M,M,M,M,M,M,M,M,62.10,KLOL 031253Z AUTO 12005KT 10SM CLR 17/10 A3013 RMK AO2 SLP159 T01670100,M
RNO,2022-08-03 12:55,-119.7711,39.4839,1341.00,68.00,59.00,72.92,0.00,0.00,0.00,30.18,1016.00,10.00,M,BKN,M,M,M,22000.00,M,M,M,M,M,M,M,M,M,M,68.00,KRNO 031255Z 00000KT 10SM BKN220 20/15 A3018 RMK AO2 SLP160 T02000150,M
BVU,2022-08-03 12:55,-114.8611,35.9475,671.00,82.40,62.60,51.21,0.00,0.00,0.00,29.92,M,M,M,M,M,M,M,M,M,M,M,M,M,M,M,M,M,M,83.41,KBVU 031255Z AUTO 00000KT 28/17 A2992 RMK AO2 PWINO TSNO,M
HTH,2022-08-03 12:55,-118.6315,38.5448,1282.89,69.80,51.80,52.77,270.00,3.00,0.00,30.17,M,10.00,M,SCT,M,M,M,4800.00,M,M,M,M,M,M,M,M,M,M,69.80,KHTH 031255Z AUTO 27003KT 10SM SCT048 21/11 A3017 RMK A01,M
BAM,2022-08-03 12:55,-116.8743,40.5990,1382.36,59.00,48.20,67.33,160.00,3.00,0.00,30.19,M,10.00,M,CLR,M,M,M,M,M,M,M,M,M,M,M,M,M,M,59.00,KBAM 031255Z AUTO 16003KT 10SM CLR 15/09 A3019 RMK AO1,M
MEV,2022-08-03 12:55,-119.7500,38.9963,1441.42,55.40,48.20,76.66,0.00,0.00,0.00,30.21,M,10.00,M,CLR,M,M,M,M,M,M,M,M,M,M,M,M,M,M,55.40,KMEV 031255Z AUTO 00000KT 10SM CLR 13/09 A3021 RMK AO2,M
05U,2022-08-03 12:55,-116.0051,39.6042,1811.23,M,M,M,M,M,0.00,M,M,M,M,M,M,M,M,M,M,M,M,M,M,M,M,M,M,M,M,K05U 031255Z AUTO RMK A01 PNO,M
RTS,2022-08-03 12:55,-119.8764,39.6682,1539.00,59.00,50.00,72.01,0.00,0.00,0.00,30.23,M,10.00,M,CLR,M,M,M,M,M,M,M,M,M,M,M,M,M,M,59.00,KRTS 031255Z AUTO 00000KT 10SM CLR 15/10 A3023 RMK AO2,M
TMT,2022-08-03 12:55,-117.1971,39.4643,1749.34,52.20,42.00,67.83,0.00,0.00,0.00,30.28,M,10.00,M,CLR,M,M,M,M,M,M,M,M,M,M,M,M,M,M,52.20,KTMT 031255Z AUTO 00000KT 10SM CLR 11/06 A3028 RMK AO2 T01120055,M
LSV,2022-08-03 12:56,-115.0343,36.2362,570.00,84.20,60.80,45.34,230.00,3.00,0.00,29.88,1009.00,10.00,M,SCT,M,M,M,22000.00,M,M,M,M,M,M,M,M,M,M,84.43,KLSV 031256Z 23003KT 10SM SCT220 29/16 A2988 RMK SLP090 WND DATA ESTMD ALSTG/SLP ESTMD $,M
TPH,2022-08-03 12:56,-117.0904,38.0505,1654.00,66.00,55.00,67.64,20.00,6.00,0.00,30.21,1014.90,10.00,M,CLR,M,M,M,M,M,M,M,M,M,M,M,M,M,M,66.00,KTPH 031256Z AUTO 02006KT 10SM CLR 19/13 A3021 RMK AO2 SLP149 T01890128,M
EKO,2022-08-03 12:56,-115.7860,40.8242,1367.00,58.00,49.00,71.90,100.00,4.00,0.00,30.21,1017.60,10.00,M,CLR,M,M,M,M,M,M,M,M,M,M,M,M,M,M,57.90,KEKO 031256Z AUTO 10004KT 10SM CLR 14/09 A3021 RMK AO2 SLP176 T01440094,M
HND,2022-08-03 12:56,-115.1344,35.9729,742.79,83.00,61.00,47.62,210.00,10.00,0.00,29.96,1012.60,10.00,M,CLR,M,M,M,M,M,M,M,M,M,M,M,M,M,M,83.37,KHND 031256Z AUTO 21010KT 10SM CLR 28/16 A2996 RMK AO2 SLP126 T02830161,M
LAS,2022-08-03 12:56,-115.1634,36.0719,663.00,85.00,59.00,41.58,210.00,3.00,0.00,29.91,1009.80,10.00,M,FEW,BKN,M,M,20000.00,25000.00,M,M,M,M,M,M,M,M,M,84.51,KLAS 031256Z 21003KT 10SM FEW200 BKN250 29/15 A2991 RMK AO2 SLP098 T02940150,M
NFL,2022-08-03 12:56,-118.7010,39.4166,1199.00,66.00,52.00,60.60,250.00,7.00,0.00,30.13,1017.00,10.00,M,CLR,M,M,M,M,M,M,M,M,M,M,M,M,M,M,66.00,KNFL 031256Z AUTO 25007KT 10SM CLR 19/11 A3013 RMK AO2 SLP170 T01890111,M
WMC,2022-08-03 12:56,-117.8072,40.9019,1315.00,60.00,53.00,77.65,150.00,5.00,0.00,30.16,1016.20,10.00,M,CLR,M,M,M,M,M,M,M,M,M,M,M,M,M,M,60.10,KWMC 031256Z AUTO 15005KT 10SM CLR 16/12 A3016 RMK AO2 SLP162 T01560117,M
INS,2022-08-03 12:58,-115.6733,36.5872,955.00,75.20,60.80,60.90,270.00,4.00,0.00,30.01,1011.10,10.00,M,CLR,M,M,M,M,M,M,M,M,M,M,M,M,M,M,75.20,KINS 031258Z AUTO 27004KT 10SM CLR 24/16 A3001 RMK AO2 SLP111 T02400160,M
CXP,2022-08-03 13:10,-119.7326,39.1923,1431.00,62.60,53.60,72.38,310.00,3.00,0.00,30.23,M,10.00,M,CLR,M,M,M,M,M,M,M,M,M,M,M,M,M,M,62.60,KCXP 031310Z AUTO 31003KT 10SM CLR 17/12 A3023 RMK AO2,M
BVU,2022-08-03 13:15,-114.8611,35.9475,671.00,82.40,60.80,48.05,0.00,0.00,0.00,29.92,M,M,M,M,M,M,M,M,M,M,M,M,M,M,M,M,M,M,82.90,KBVU 031315Z AUTO 00000KT 28/16 A2992 RMK AO2 PWINO TSNO,M
HTH,2022-08-03 13:15,-118.6315,38.5448,1282.89,68.00,55.40,64.04,0.00,0.00,0.00,30.17,M,10.00,M,CLR,M,M,M,M,M,M,M,M,M,M,M,M,M,M,68.00,KHTH 031315Z AUTO 00000KT 10SM CLR 20/13 A3017 RMK A01,M
BAM,2022-08-03 13:15,-116.8743,40.5990,1382.36,57.20,48.20,71.83,0.00,0.00,0.00,30.19,M,10.00,M,CLR,M,M,M,M,M,M,M,M,M,M,M,M,M,M,57.20,KBAM 031315Z AUTO 00000KT 10SM CLR 14/09 A3019 RMK AO1,M
MEV,2022-08-03 13:15,-119.7500,38.9963,1441.42,55.40,48.20,76.66,0.00,0.00,0.00,30.22,M,10.00,M,CLR,M,M,M,M,M,M,M,M,M,M,M,M,M,M,55.40,KMEV 031315Z AUTO 00000KT 10SM CLR 13/09 A3022 RMK AO2,M
05U,2022-08-03 13:15,-116.0051,39.6042,1811.23,M,M,M,M,M,0.00,M,M,M,M,M,M,M,M,M,M,M,M,M,M,M,M,M,M,M,M,K05U 031315Z AUTO RMK A01 PNO,M
RTS,2022-08-03 13:15,-119.8764,39.6682,1539.00,55.40,50.00,81.99,340.00,6.00,0.00,30.24,M,10.00,M,CLR,M,M,M,M,M,M,M,M,M,M,M,M,M,M,55.40,KRTS 031315Z AUTO 34006KT 10SM CLR 13/10 A3024 RMK AO2,M
TMT,2022-08-03 13:15,-117.1971,39.4643,1749.34,51.00,40.80,67.70,220.00,4.00,0.00,30.27,M,10.00,M,CLR,M,M,M,M,M,M,M,M,M,M,M,M,M,M,51.10,KTMT 031315Z AUTO 22004KT 10SM CLR 11/05 A3027 RMK AO2 T01060049,M
CXP,2022-08-03 13:30,-119.7326,39.1923,1431.00,64.40,53.60,67.95,310.00,4.00,0.00,30.23,M,10.00,M,CLR,M,M,M,M,M,M,M,M,M,M,M,M,M,M,64.40,KCXP 031330Z AUTO 31004KT 10SM CLR 18/12 A3023 RMK AO2,M
RTS,2022-08-03 13:35,-119.8764,39.6682,1539.00,59.00,50.00,72.01,360.00,4.00,0.00,30.24,M,10.00,M,CLR,M,M,M,M,M,M,M,M,M,M,M,M,M,M,59.00,KRTS 031335Z AUTO 36004KT 10SM CLR 15/10 A3024 RMK AO2,M
05U,2022-08-03 13:35,-116.0051,39.6042,1811.23,M,M,M,M,M,0.00,M,M,M,M,M,M,M,M,M,M,M,M,M,M,M,M,M,M,M,M,K05U 031335Z AUTO RMK A01 PNO,M
BAM,2022-08-03 13:35,-116.8743,40.5990,1382.36,59.00,50.00,72.01,0.00,0.00,0.00,30.20,M,10.00,M,CLR,M,M,M,M,M,M,M,M,M,M,M,M,M,M,59.00,KBAM 031335Z AUTO 00000KT 10SM CLR 15/10 A3020 RMK AO1,M
BVU,2022-08-03 13:35,-114.8611,35.9475,671.00,82.40,60.80,48.05,320.00,4.00,0.00,29.93,M,M,M,M,M,M,M,M,M,M,M,M,M,M,M,M,M,M,82.90,KBVU 031335Z AUTO 32004KT 28/16 A2993 RMK AO2 PWINO TSNO,M
MEV,2022-08-03 13:35,-119.7500,38.9963,1441.42,55.40,46.40,71.64,0.00,0.00,0.00,30.22,M,10.00,M,CLR,M,M,M,M,M,M,M,M,M,M,M,M,M,M,55.40,KMEV 031335Z AUTO 00000KT 10SM CLR 13/08 A3022 RMK AO2,M
HTH,2022-08-03 13:35,-118.6315,38.5448,1282.89,69.80,51.80,52.77,0.00,0.00,0.00,30.18,M,10.00,M,CLR,M,M,M,M,M,M,M,M,M,M,M,M,M,M,69.80,KHTH 031335Z AUTO 00000KT 10SM CLR 21/11 A3018 RMK A01,M
TMT,2022-08-03 13:35,-117.1971,39.4643,1749.34,M,M,M,0.00,0.00,0.00,30.28,M,7.00,M,CLR,M,M,M,M,M,M,M,M,M,M,M,M,M,M,M,KTMT 031335Z AUTO 00000KT 7SM CLR A3028 RMK AO2,M
CXP,2022-08-03 13:50,-119.7326,39.1923,1431.00,66.20,53.60,63.82,320.00,4.00,0.00,30.23,M,10.00,M,CLR,M,M,M,M,M,M,M,M,M,M,M,M,M,M,66.20,KCXP 031350Z AUTO 32004KT 10SM CLR 19/12 A3023 RMK AO2,M
LOL,2022-08-03 13:53,-118.5701,40.0684,1192.43,69.00,51.00,52.67,320.00,3.00,0.00,30.14,1015.90,10.00,M,CLR,M,M,M,M,M,M,M,M,M,M,M,M,M,M,69.10,KLOL 031353Z AUTO 32003KT 10SM CLR 21/11 A3014 RMK AO2 SLP159 T02060106,M
VGT,2022-08-03 13:53,-115.1933,36.2111,667.00,88.00,57.00,35.05,320.00,4.00,0.00,29.92,1011.70,10.00,M,CLR,M,M,M,M,M,M,M,M,M,M,M,M,M,M,86.71,KVGT 031353Z 32004KT 10SM CLR 31/14 A2992 RMK AO2 SLP117 T03110139,M
ELY,2022-08-03 13:53,-114.8453,39.2950,1909.00,57.00,47.00,68.90,170.00,6.00,0.00,30.29,1016.10,10.00,M,CLR,M,M,M,M,M,M,M,M,M,M,M,M,M,M,57.00,KELY 031353Z AUTO 17006KT 10SM CLR 14/08 A3029 RMK AO2 SLP161 T01390083,M
DRA,2022-08-03 13:53,-116.0278,36.6206,1009.00,78.00,53.00,41.89,0.00,0.00,0.00,30.02,1010.90,10.00,M,CLR,M,M,M,M,M,M,M,M,M,M,M,M,M,M,78.10,KDRA 031353Z AUTO 00000KT 10SM CLR 26/12 A3002 RMK AO2 SLP109 T02560117,M
RTS,2022-08-03 13:55,-119.8764,39.6682,1539.00,60.80,51.80,72.20,0.00,0.00,0.00,30.24,M,10.00,M,CLR,M,M,M,M,M,M,M,M,M,M,M,M,M,M,60.80,KRTS 031355Z AUTO 00000KT 10SM CLR 16/11 A3024 RMK AO2,M
BAM,2022-08-03 13:55,-116.8743,40.5990,1382.36,60.80,51.80,72.20,0.00,0.00,0.00,30.20,M,10.00,M,CLR,M,M,M,M,M,M,M,M,M,M,M,M,M,M,60.80,KBAM 031355Z AUTO 00000KT 10SM CLR 16/11 A3020 RMK AO1,M
05U,2022-08-03 13:55,-116.0051,39.6042,1811.23,M,M,M,M,M,0.00,M,M,M,M,M,M,M,M,M,M,M,M,M,M,M,M,M,M,M,M,K05U 031355Z AUTO RMK A01 PNO,M
MEV,2022-08-03 13:55,-119.7500,38.9963,1441.42,57.20,48.20,71.83,0.00,0.00,0.00,30.22,M,10.00,M,CLR,M,M,M,M,M,M,M,M,M,M,M,M,M,M,57.20,KMEV 031355Z AUTO 00000KT 10SM CLR 14/09 A3022 RMK AO2,M
TMT,2022-08-03 13:55,-117.1971,39.4643,1749.34,54.00,42.30,64.48,0.00,0.00,0.00,30.28,M,10.00,M,CLR,M,M,M,M,M,M,M,M,M,M,M,M,M,M,54.00,KTMT 031355Z AUTO 00000KT 10SM CLR 12/06 A3028 RMK AO2 T01220057,M
BVU,2022-08-03 13:55,-114.8611,35.9475,671.00,84.20,60.80,45.34,300.00,4.00,0.00,29.93,M,M,M,M,M,M,M,M,M,M,M,M,M,M,M,M,M,M,84.43,KBVU 031355Z AUTO 30004KT 29/16 A2993 RMK AO2 PWINO TSNO,M
RNO,2022-08-03 13:55,-119.7711,39.4839,1341.00,69.00,54.00,58.60,260.00,3.00,0.00,30.19,1016.40,10.00,M,FEW,SCT,M,M,8000.00,24000.00,M,M,M,M,M,M,M,M,M,69.10,KRNO 031355Z 26003KT 10SM FEW080 SCT240 21/12 A3019 RMK AO2 SLP164 T02060122,M
HTH,2022-08-03 13:55,-118.6315,38.5448,1282.89,71.60,53.60,53.03,0.00,0.00,0.00,30.18,M,10.00,M,CLR,M,M,M,M,M,M,M,M,M,M,M,M,M,M,71.60,KHTH 031355Z AUTO 00000KT 10SM CLR 22/12 A3018 RMK A01,M
HND,2022-08-03 13:56,-115.1344,35.9729,742.79,84.00,61.00,45.96,210.00,10.00,0.00,29.97,1013.00,10.00,M,CLR,M,M,M,M,M,M,M,M,M,M,M,M,M,M,84.32,KHND 031356Z 21010KT 10SM CLR 29/16 A2997 RMK AO2 SLP130 T02890161,M
LAS,2022-08-03 13:56,-115.1634,36.0719,663.00,86.00,58.00,38.58,210.00,3.00,0.00,29.93,1010.40,10.00,M,FEW,BKN,M,M,20000.00,25000.00,M,M,M,M,M,M,M,M,M,85.16,KLAS 031356Z 21003KT 10SM FEW200 BKN250 30/14 A2993 RMK AO2 SLP104 T03000144,M
NFL,2022-08-03 13:56,-118.7010,39.4166,1199.00,69.00,53.00,56.70,140.00,3.00,0.00,30.14,1017.30,10.00,M,SCT,M,M,M,12000.00,M,M,M,M,M,M,M,M,M,M,69.10,KNFL 031356Z AUTO 14003KT 10SM SCT120 21/12 A3014 RMK AO2 SLP173 T02060117,M
EKO,2022-08-03 13:56,-115.7860,40.8242,1367.00,60.00,50.00,69.24,100.00,4.00,0.00,30.23,1018.20,10.00,M,CLR,M,M,M,M,M,M,M,M,M,M,M,M,M,M,60.10,KEKO 031356Z AUTO 10004KT 10SM CLR 16/10 A3023 RMK AO2 SLP182 T01560100,M
WMC,2022-08-03 13:56,-117.8072,40.9019,1315.00,67.00,54.00,63.21,0.00,0.00,0.00,30.18,1016.80,10.00,M,CLR,M,M,M,M,M,M,M,M,M,M,M,M,M,M,66.90,KWMC 031356Z AUTO 00000KT 10SM CLR 19/12 A3018 RMK AO2 SLP168 T01940122,M
TPH,2022-08-03 13:56,-117.0904,38.0505,1654.00,68.00,54.00,60.86,10.00,9.00,0.00,30.22,1015.00,10.00,M,CLR,M,M,M,M,M,M,M,M,M,M,M,M,M,M,68.00,KTPH 031356Z AUTO 01009KT 10SM CLR 20/12 A3022 RMK AO2 SLP150 T02000122,M
INS,2022-08-03 13:58,-115.6733,36.5872,955.00,76.60,59.70,55.90,0.00,0.00,0.00,30.01,1010.90,10.00,M,CLR,M,M,M,M,M,M,M,M,M,M,M,M,M,M,76.60,KINS 031358Z AUTO 00000KT 10SM CLR 25/15 A3001 RMK AO2 SLP109 T02480154,M
LSV,2022-08-03 13:58,-115.0343,36.2362,570.00,85.60,60.40,42.74,190.00,4.00,0.00,29.90,1009.70,10.00,M,CLR,M,M,M,M,M,M,M,M,M,M,M,M,M,M,85.55,KLSV 031358Z AUTO 19004KT 10SM CLR 30/16 A2990 RMK AO2 SLP097 T02980158 $,M
CXP,2022-08-03 14:10,-119.7326,39.1923,1431.00,68.00,53.60,59.97,0.00,0.00,0.00,30.23,M,10.00,M,CLR,M,M,M,M,M,M,M,M,M,M,M,M,M,M,68.00,KCXP 031410Z AUTO 00000KT 10SM CLR 20/12 A3023 RMK AO2,M
TMT,2022-08-03 14:15,-117.1971,39.4643,1749.34,56.80,44.00,62.40,0.00,0.00,0.00,30.28,M,10.00,M,CLR,M,M,M,M,M,M,M,M,M,M,M,M,M,M,56.80,KTMT 031415Z AUTO 00000KT 10SM CLR 14/07 A3028 RMK AO2 T01380067,M
HTH,2022-08-03 14:15,-118.6315,38.5448,1282.89,71.60,55.40,56.63,240.00,3.00,0.00,30.18,M,10.00,M,CLR,M,M,M,M,M,M,M,M,M,M,M,M,M,M,71.60,KHTH 031415Z AUTO 24003KT 10SM CLR 22/13 A3018 RMK A01,M
BAM,2022-08-03 14:15,-116.8743,40.5990,1382.36,62.60,53.60,72.38,0.00,0.00,0.00,30.20,M,10.00,M,CLR,M,M,M,M,M,M,M,M,M,M,M,M,M,M,62.60,KBAM 031415Z AUTO 00000KT 10SM CLR 17/12 A3020 RMK AO1,M
MEV,2022-08-03 14:15,-119.7500,38.9963,1441.42,60.80,50.00,67.54,0.00,0.00,0.00,30.22,M,10.00,M,CLR,M,M,M,M,M,M,M,M,M,M,M,M,M,M,60.80,KMEV 031415Z AUTO 00000KT 10SM CLR 16/10 A3022 RMK AO2,M
05U,2022-08-03 14:15,-116.0051,39.6042,1811.23,M,M,M,M,M,0.00,M,M,M,M,M,M,M,M,M,M,M,M,M,M,M,M,M,M,M,M,K05U 031415Z AUTO RMK A01 PNO,M
RTS,2022-08-03 14:15,-119.8764,39.6682,1539.00,62.60,51.80,67.75,0.00,0.00,0.00,30.24,M,10.00,M,CLR,M,M,M,M,M,M,M,M,M,M,M,M,M,M,62.60,KRTS 031415Z AUTO 00000KT 10SM CLR 17/11 A3024 RMK AO2,M
BVU,2022-08-03 14:15,-114.8611,35.9475,671.00,84.20,62.60,48.32,0.00,0.00,0.00,29.93,M,M,M,M,M,M,M,M,M,M,M,M,M,M,M,M,M,M,85.03,KBVU 031415Z AUTO 00000KT 29/17 A2993 RMK AO2 PWINO TSNO,M
CXP,2022-08-03 14:30,-119.7326,39.1923,1431.00,68.00,51.80,56.13,0.00,0.00,0.00,30.23,M,10.00,M,CLR,M,M,M,M,M,M,M,M,M,M,M,M,M,M,68.00,KCXP 031430Z AUTO 00000KT 10SM CLR 20/11 A3023 RMK AO2,M
BVU,2022-08-03 14:35,-114.8611,35.9475,671.00,84.20,62.60,48.32,0.00,0.00,0.00,29.94,M,M,M,M,M,M,M,M,M,M,M,M,M,M,M,M,M,M,85.03,KBVU 031435Z AUTO 00000KT 29/17 A2994 RMK AO2 PWINO TSNO,M
TMT,2022-08-03 14:35,-117.1971,39.4643,1749.34,M,M,M,0.00,0.00,0.00,30.28,M,10.00,M,CLR,M,M,M,M,M,M,M,M,M,M,M,M,M,M,M,KTMT 031435Z AUTO 00000KT 10SM CLR A3028 RMK AO2,M
BAM,2022-08-03 14:35,-116.8743,40.5990,1382.36,64.40,53.60,67.95,0.00,0.00,0.00,30.20,M,10.00,M,CLR,M,M,M,M,M,M,M,M,M,M,M,M,M,M,64.40,KBAM 031435Z AUTO 00000KT 10SM CLR 18/12 A3020 RMK AO1,M
HTH,2022-08-03 14:35,-118.6315,38.5448,1282.89,71.60,57.20,60.44,300.00,7.00,0.00,30.19,M,10.00,M,M,M,M,M,M,M,M,M,M,M,M,M,M,M,M,71.60,KHTH 031435Z AUTO 30007KT 10SM 22/14 A3019 RMK A01,M
05U,2022-08-03 14:35,-116.0051,39.6042,1811.23,M,M,M,M,M,0.00,M,M,M,M,M,M,M,M,M,M,M,M,M,M,M,M,M,M,M,M,K05U 031435Z AUTO RMK A01 PNO,M
RTS,2022-08-03 14:35,-119.8764,39.6682,1539.00,62.60,51.80,67.75,0.00,0.00,0.00,30.24,M,10.00,M,CLR,M,M,M,M,M,M,M,M,M,M,M,M,M,M,62.60,KRTS 031435Z AUTO 00000KT 10SM CLR 17/11 A3024 RMK AO2,M
MEV,2022-08-03 14:35,-119.7500,38.9963,1441.42,64.40,50.00,59.50,0.00,0.00,0.00,30.22,M,10.00,M,CLR,M,M,M,M,M,M,M,M,M,M,M,M,M,M,64.40,KMEV 031435Z AUTO 00000KT 10SM CLR 18/10 A3022 RMK AO2,M
CXP,2022-08-03 14:50,-119.7326,39.1923,1431.00,68.00,51.80,56.13,0.00,0.00,0.00,30.23,M,10.00,M,CLR,M,M,M,M,M,M,M,M,M,M,M,M,M,M,68.00,KCXP 031450Z AUTO 00000KT 10SM CLR 20/11 A3023 RMK AO2,M
ELY,2022-08-03 14:53,-114.8453,39.2950,1909.00,65.00,50.00,58.47,0.00,0.00,0.00,30.29,1015.80,10.00,M,CLR,M,M,M,M,M,M,M,M,M,M,M,M,M,M,64.90,KELY 031453Z AUTO 00000KT 10SM CLR 18/10 A3029 RMK AO2 SLP158 T01830100 50003,M
LOL,2022-08-03 14:53,-118.5701,40.0684,1192.43,74.00,54.00,49.79,130.00,4.00,0.00,30.15,1016.10,10.00,M,CLR,M,M,M,M,M,M,M,M,M,M,M,M,M,M,73.90,KLOL 031453Z AUTO 13004KT 10SM CLR 23/12 A3015 RMK AO2 SLP161 T02330122 51008,M
DRA,2022-08-03 14:53,-116.0278,36.6206,1009.00,84.00,55.00,37.05,300.00,3.00,0.00,30.03,1011.10,10.00,M,CLR,M,M,M,M,M,M,M,M,M,M,M,M,M,M,82.85,KDRA 031453Z AUTO 30003KT 10SM CLR 29/13 A3003 RMK AO2 SLP111 T02890128 53008,M
VGT,2022-08-03 14:53,-115.1933,36.2111,667.00,90.00,57.00,32.91,360.00,7.00,0.00,29.93,1011.90,10.00,M,CLR,M,M,M,M,M,M,M,M,M,M,M,M,M,M,88.61,KVGT 031453Z 36007KT 10SM CLR 32/14 A2993 RMK AO2 SLP119 T03220139 53010,M
HTH,2022-08-03 14:55,-118.6315,38.5448,1282.89,73.40,57.20,56.88,310.00,5.00,0.00,30.19,M,10.00,M,CLR,M,M,M,M,M,M,M,M,M,M,M,M,M,M,73.40,KHTH 031455Z AUTO 31005KT 10SM CLR 23/14 A3019 RMK A01,M
TMT,2022-08-03 14:55,-117.1971,39.4643,1749.34,M,M,M,0.00,0.00,0.00,30.28,M,10.00,M,CLR,M,M,M,M,M,M,M,M,M,M,M,M,M,M,M,KTMT 031455Z AUTO 00000KT 10SM CLR A3028 RMK AO2,M
BVU,2022-08-03 14:55,-114.8611,35.9475,671.00,87.80,62.60,43.07,0.00,0.00,0.00,29.94,M,M,M,M,M,M,M,M,M,M,M,M,M,M,M,M,M,M,88.48,KBVU 031455Z AUTO 00000KT 31/17 A2994 RMK AO2 PWINO TSNO,M
RNO,2022-08-03 14:55,-119.7711,39.4839,1341.00,73.00,54.00,51.33,0.00,0.00,0.00,30.19,1016.00,10.00,M,FEW,M,M,M,10000.00,M,M,M,M,M,M,M,M,M,M,73.00,KRNO 031455Z 00000KT 10SM FEW100 23/12 A3019 RMK AO2 SLP160 T02280122 50004,M
RTS,2022-08-03 14:55,-119.8764,39.6682,1539.00,66.20,53.60,63.82,0.00,0.00,0.00,30.24,M,10.00,M,CLR,M,M,M,M,M,M,M,M,M,M,M,M,M,M,66.20,KRTS 031455Z AUTO 00000KT 10SM CLR 19/12 A3024 RMK AO2,M
05U,2022-08-03 14:55,-116.0051,39.6042,1811.23,M,M,M,M,M,0.00,M,M,M,M,M,M,M,M,M,M,M,M,M,M,M,M,M,M,M,M,K05U 031455Z AUTO RMK A01 PNO,M
MEV,2022-08-03 14:55,-119.7500,38.9963,1441.42,68.00,50.00,52.51,0.00,0.00,0.00,30.22,M,10.00,M,CLR,M,M,M,M,M,M,M,M,M,M,M,M,M,M,68.00,KMEV 031455Z AUTO 00000KT 10SM CLR 20/10 A3022 RMK AO2,M
BAM,2022-08-03 14:55,-116.8743,40.5990,1382.36,69.80,53.60,56.38,360.00,4.00,0.00,30.21,M,10.00,M,CLR,M,M,M,M,M,M,M,M,M,M,M,M,M,M,69.80,KBAM 031455Z AUTO 36004KT 10SM CLR 21/12 A3021 RMK AO1,M
EKO,2022-08-03 14:56,-115.7860,40.8242,1367.00,65.00,51.00,60.90,40.00,3.00,0.00,30.23,1018.50,10.00,M,CLR,M,M,M,M,M,M,M,M,M,M,M,M,M,M,64.90,KEKO 031456Z AUTO 04003KT 10SM CLR 18/11 A3023 RMK AO2 SLP185 T01830106 51009,M
WMC,2022-08-03 14:56,-117.8072,40.9019,1315.00,72.00,54.00,53.09,90.00,3.00,0.00,30.18,1016.90,10.00,M,CLR,M,M,M,M,M,M,M,M,M,M,M,M,M,M,72.00,KWMC 031456Z AUTO 09003KT 10SM CLR 22/12 A3018 RMK AO2 SLP169 T02220122 51008,M
HND,2022-08-03 14:56,-115.1344,35.9729,742.79,85.00,60.00,43.24,210.00,10.00,0.00,29.98,1013.40,10.00,M,CLR,M,M,M,M,M,M,M,M,M,M,M,M,M,M,84.83,KHND 031456Z 21010KT 10SM CLR 29/16 A2998 RMK AO2 SLP134 T02940156 52012,M
TPH,2022-08-03 14:56,-117.0904,38.0505,1654.00,73.00,53.00,49.66,10.00,10.00,0.00,30.23,1015.40,10.00,M,CLR,M,M,M,M,M,M,M,M,M,M,M,M,M,M,73.00,KTPH 031456Z AUTO 01010KT 10SM CLR 23/12 A3023 RMK AO2 SLP154 T02280117 52006,M
LAS,2022-08-03 14:56,-115.1634,36.0719,663.00,87.00,58.00,37.25,220.00,3.00,0.00,29.94,1010.90,10.00,M,FEW,BKN,M,M,20000.00,25000.00,M,M,M,M,M,M,M,M,M,86.14,KLAS 031456Z 22003KT 10SM FEW200 BKN250 31/14 A2994 RMK AO2 SLP109 T03060144 53012,M
NFL,2022-08-03 14:56,-118.7010,39.4166,1199.00,75.00,54.00,47.99,170.00,4.00,0.00,30.15,1017.40,10.00,M,FEW,FEW,M,M,10000.00,20000.00,M,M,M,M,M,M,M,M,M,75.00,KNFL 031456Z 17004KT 10SM FEW100 FEW200 24/12 A3015 RMK AO2 SLP174 T02390122 51005,M
INS,2022-08-03 14:58,-115.6733,36.5872,955.00,81.00,61.20,51.01,0.00,0.00,0.00,30.02,1011.30,10.00,M,CLR,M,M,M,M,M,M,M,M,M,M,M,M,M,M,81.86,KINS 031458Z AUTO 00000KT 10SM CLR 27/16 A3002 RMK AO2 SLP113 T02720162 52007,M
LSV,2022-08-03 14:58,-115.0343,36.2362,570.00,88.20,61.30,40.62,0.00,0.00,0.00,29.91,M,10.00,M,CLR,M,M,M,M,M,M,M,M,M,M,M,M,M,M,88.34,KLSV 031458Z AUTO 00000KT 10SM CLR 31/16 A2991 RMK AO2 SLPNO T03120163 $,M
CXP,2022-08-03 15:10,-119.7326,39.1923,1431.00,69.80,53.60,56.38,0.00,0.00,0.00,30.23,M,10.00,M,CLR,M,M,M,M,M,M,M,M,M,M,M,M,M,M,69.80,KCXP 031510Z AUTO 00000KT 10SM CLR 21/12 A3023 RMK AO2,M
HTH,2022-08-03 15:15,-118.6315,38.5448,1282.89,73.40,57.20,56.88,310.00,5.00,0.00,30.19,M,10.00,M,CLR,M,M,M,M,M,M,M,M,M,M,M,M,M,M,73.40,KHTH 031515Z AUTO 31005KT 10SM CLR 23/14 A3019 RMK A01,M
BVU,2022-08-03 15:15,-114.8611,35.9475,671.00,87.80,62.60,43.07,0.00,0.00,0.00,29.94,M,M,M,M,M,M,M,M,M,M,M,M,M,M,M,M,M,M,88.48,KBVU 031515Z AUTO 00000KT 31/17 A2994 RMK AO2 PWINO TSNO,M
RTS,2022-08-03 15:15,-119.8764,39.6682,1539.00,69.80,53.60,56.38,0.00,0.00,0.00,30.24,M,10.00,M,CLR,M,M,M,M,M,M,M,M,M,M,M,M,M,M,69.80,KRTS 031515Z AUTO 00000KT 10SM CLR 21/12 A3024 RMK AO2,M
05U,2022-08-03 15:15,-116.0051,39.6042,1811.23,M,M,M,M,M,0.00,M,M,M,M,M,M,M,M,M,M,M,M,M,M,M,M,M,M,M,M,K05U 031515Z AUTO RMK A01 PNO,M
MEV,2022-08-03 15:15,-119.7500,38.9963,1441.42,69.80,50.00,49.37,0.00,0.00,0.00,30.21,M,10.00,M,CLR,M,M,M,M,M,M,M,M,M,M,M,M,M,M,69.80,KMEV 031515Z AUTO 00000KT 10SM CLR 21/10 A3021 RMK AO2,M
BAM,2022-08-03 15:15,-116.8743,40.5990,1382.36,71.60,53.60,53.03,0.00,0.00,0.00,30.21,M,10.00,M,CLR,M,M,M,M,M,M,M,M,M,M,M,M,M,M,71.60,KBAM 031515Z AUTO 00000KT 10SM CLR 22/12 A3021 RMK AO1,M
TMT,2022-08-03 15:15,-117.1971,39.4643,1749.34,M,M,M,0.00,0.00,0.00,30.28,M,10.00,M,CLR,M,M,M,M,M,M,M,M,M,M,M,M,M,M,M,KTMT 031515Z AUTO 00000KT 10SM CLR A3028 RMK AO2,M
CXP,2022-08-03 15:30,-119.7326,39.1923,1431.00,69.80,53.60,56.38,290.00,5.00,0.00,30.23,M,10.00,M,CLR,M,M,M,M,M,M,M,M,M,M,M,M,M,M,69.80,KCXP 031530Z AUTO 29005KT 10SM CLR 21/12 A3023 RMK AO2,M
RTS,2022-08-03 15:35,-119.8764,39.6682,1539.00,69.80,55.40,60.21,140.00,3.00,0.00,30.24,M,10.00,M,CLR,M,M,M,M,M,M,M,M,M,M,M,M,M,M,69.80,KRTS 031535Z AUTO 14003KT 10SM CLR 21/13 A3024 RMK AO2,M
MEV,2022-08-03 15:35,-119.7500,38.9963,1441.42,71.60,51.80,49.64,310.00,3.00,0.00,30.21,M,10.00,M,CLR,M,M,M,M,M,M,M,M,M,M,M,M,M,M,71.60,KMEV 031535Z AUTO 31003KT 10SM CLR 22/11 A3021 RMK AO2,M
TMT,2022-08-03 15:35,-117.1971,39.4643,1749.34,M,M,M,0.00,0.00,0.00,30.28,M,10.00,M,CLR,M,M,M,M,M,M,M,M,M,M,M,M,M,M,M,KTMT 031535Z AUTO 00000KT 10SM CLR A3028 RMK AO2,M
BAM,2022-08-03 15:35,-116.8743,40.5990,1382.36,71.60,53.60,53.03,0.00,0.00,0.00,30.21,M,10.00,M,CLR,M,M,M,M,M,M,M,M,M,M,M,M,M,M,71.60,KBAM 031535Z AUTO 00000KT 10SM CLR 22/12 A3021 RMK AO1,M
HTH,2022-08-03 15:35,-118.6315,38.5448,1282.89,75.20,55.40,50.17,330.00,7.00,0.00,30.18,M,10.00,M,CLR,M,M,M,M,M,M,M,M,M,M,M,M,M,M,75.20,KHTH 031535Z AUTO 33007KT 10SM CLR 24/13 A3018 RMK A01,M
05U,2022-08-03 15:35,-116.0051,39.6042,1811.23,M,M,M,M,M,0.00,M,M,M,M,M,M,M,M,M,M,M,M,M,M,M,M,M,M,M,M,K05U 031535Z AUTO RMK A01 PNO,M
BVU,2022-08-03 15:35,-114.8611,35.9475,671.00,89.60,57.20,33.56,0.00,0.00,0.00,29.94,M,M,M,M,M,M,M,M,M,M,M,M,M,M,M,M,M,M,88.28,KBVU 031535Z AUTO 00000KT 32/14 A2994 RMK AO2 PWINO TSNO,M
CXP,2022-08-03 15:50,-119.7326,39.1923,1431.00,71.60,53.60,53.03,0.00,0.00,0.00,30.22,M,10.00,M,CLR,M,M,M,M,M,M,M,M,M,M,M,M,M,M,71.60,KCXP 031550Z AUTO 00000KT 10SM CLR 22/12 A3022 RMK AO2,M
VGT,2022-08-03 15:53,-115.1933,36.2111,667.00,90.00,59.00,35.36,330.00,5.00,0.00,29.94,1012.20,10.00,M,CLR,M,M,M,M,M,M,M,M,M,M,M,M,M,M,89.26,KVGT 031553Z 33005KT 10SM CLR 32/15 A2994 RMK AO2 SLP122 T03220150,M
LOL,2022-08-03 15:53,-118.5701,40.0684,1192.43,82.00,53.00,36.87,60.00,4.00,0.00,30.14,1015.80,10.00,M,CLR,M,M,M,M,M,M,M,M,M,M,M,M,M,M,81.11,KLOL 031553Z AUTO 06004KT 10SM CLR 28/12 A3014 RMK AO2 SLP158 T02780117,M
ELY,2022-08-03 15:53,-114.8453,39.2950,1909.00,72.00,51.00,47.72,0.00,0.00,0.00,30.29,1015.30,10.00,M,CLR,M,M,M,M,M,M,M,M,M,M,M,M,M,M,72.00,KELY 031553Z AUTO 00000KT 10SM CLR 22/11 A3029 RMK AO2 SLP153 T02220106,M
DRA,2022-08-03 15:53,-116.0278,36.6206,1009.00,89.00,54.00,30.36,M,3.00,0.00,30.03,1011.00,10.00,M,CLR,M,M,M,M,M,M,M,M,M,M,M,M,M,M,86.98,KDRA 031553Z AUTO VRB03KT 10SM CLR 32/12 A3003 RMK AO2 SLP110 T03170122,M
BVU,2022-08-03 15:55,-114.8611,35.9475,671.00,91.40,57.20,31.72,0.00,0.00,0.00,29.95,M,M,M,M,M,M,M,M,M,M,M,M,M,M,M,M,M,M,90.06,KBVU 031555Z AUTO 00000KT 33/14 A2995 RMK AO2 PWINO TSNO,M
HTH,2022-08-03 15:55,-118.6315,38.5448,1282.89,75.20,53.60,46.98,350.00,4.00,0.00,30.18,M,10.00,M,CLR,M,M,M,M,M,M,M,M,M,M,M,M,M,M,75.20,KHTH 031555Z AUTO 35004KT 10SM CLR 24/12 A3018 RMK A01,M
RNO,2022-08-03 15:55,-119.7711,39.4839,1341.00,76.00,55.00,48.30,M,3.00,0.00,30.19,1016.00,10.00,M,FEW,M,M,M,8500.00,M,M,M,M,M,M,M,M,M,M,75.90,KRNO 031555Z VRB03KT 10SM FEW085 24/13 A3019 RMK AO2 SLP160 T02440128,M
BAM,2022-08-03 15:55,-116.8743,40.5990,1382.36,73.40,55.40,53.29,0.00,0.00,0.00,30.20,M,10.00,M,CLR,M,M,M,M,M,M,M,M,M,M,M,M,M,M,73.40,KBAM 031555Z AUTO 00000KT 10SM CLR 23/13 A3020 RMK AO1,M
05U,2022-08-03 15:55,-116.0051,39.6042,1811.23,M,M,M,M,M,0.00,M,M,M,M,M,M,M,M,M,M,M,M,M,M,M,M,M,M,M,M,K05U 031555Z AUTO RMK A01 PNO,M
MEV,2022-08-03 15:55,-119.7500,38.9963,1441.42,73.40,51.80,46.71,0.00,0.00,0.00,30.21,M,10.00,M,CLR,M,M,M,M,M,M,M,M,M,M,M,M,M,M,73.40,KMEV 031555Z AUTO 00000KT 10SM CLR 23/11 A3021 RMK AO2,M
RTS,2022-08-03 15:55,-119.8764,39.6682,1539.00,71.60,53.60,53.03,0.00,0.00,0.00,30.24,M,10.00,M,CLR,M,M,M,M,M,M,M,M,M,M,M,M,M,M,71.60,KRTS 031555Z AUTO 00000KT 10SM CLR 22/12 A3024 RMK AO2,M
TMT,2022-08-03 15:55,-117.1971,39.4643,1749.34,M,M,M,0.00,0.00,0.00,30.28,M,10.00,M,CLR,M,M,M,M,M,M,M,M,M,M,M,M,M,M,M,KTMT 031555Z AUTO 00000KT 10SM CLR A3028 RMK AO2,M
LAS,2022-08-03 15:56,-115.1634,36.0719,663.00,88.00,60.00,39.17,0.00,0.00,0.00,29.95,1011.10,10.00,M,FEW,FEW,BKN,M,10000.00,17000.00,25000.00,M,M,M,M,M,M,M,M,87.69,KLAS 031556Z 00000KT 10SM FEW100 FEW170 BKN250 31/16 A2995 RMK AO2 SLP111 T03110156,M
EKO,2022-08-03 15:56,-115.7860,40.8242,1367.00,70.00,52.00,52.80,0.00,0.00,0.00,30.23,1018.40,10.00,M,CLR,M,M,M,M,M,M,M,M,M,M,M,M,M,M,70.00,KEKO 031556Z AUTO 00000KT 10SM CLR 21/11 A3023 RMK AO2 SLP184 T02110111,M
WMC,2022-08-03 15:56,-117.8072,40.9019,1315.00,78.00,55.00,44.90,60.00,3.00,0.00,30.18,1016.40,10.00,M,CLR,M,M,M,M,M,M,M,M,M,M,M,M,M,M,78.10,KWMC 031556Z AUTO 06003KT 10SM CLR 26/13 A3018 RMK AO2 SLP164 T02560128,M
NFL,2022-08-03 15:56,-118.7010,39.4166,1199.00,78.00,54.00,43.30,230.00,4.00,0.00,30.15,1017.40,10.00,M,FEW,FEW,M,M,10000.00,20000.00,M,M,M,M,M,M,M,M,M,78.10,KNFL 031556Z 23004KT 10SM FEW100 FEW200 26/12 A3015 RMK AO2 SLP174 T02560122,M
TPH,2022-08-03 15:56,-117.0904,38.0505,1654.00,77.00,52.00,41.72,M,3.00,0.00,30.22,1014.80,10.00,M,CLR,M,M,M,M,M,M,M,M,M,M,M,M,M,M,77.00,KTPH 031556Z AUTO VRB03KT 10SM CLR 25/11 A3022 RMK AO2 SLP148 T02500111,M
HND,2022-08-03 15:56,-115.1344,35.9729,742.79,88.00,60.00,39.17,220.00,7.00,0.00,29.99,1013.60,10.00,M,CLR,M,M,M,M,M,M,M,M,M,M,M,M,M,M,87.69,KHND 031556Z 22007KT 10SM CLR 31/16 A2999 RMK AO2 SLP136 T03110156,M
LSV,2022-08-03 15:58,-115.0343,36.2362,570.00,92.00,60.40,34.80,40.00,9.00,0.00,29.91,M,10.00,M,FEW,M,M,M,20000.00,M,M,M,M,M,M,M,M,M,M,91.97,KLSV 031558Z AUTO 04009KT 10SM FEW200 33/16 A2991 RMK AO2 SLPNO T03340158 $,M
INS,2022-08-03 15:58,-115.6733,36.5872,955.00,84.70,57.70,39.94,0.00,0.00,0.00,30.01,1010.90,10.00,M,CLR,M,M,M,M,M,M,M,M,M,M,M,M,M,M,84.00,KINS 031558Z AUTO 00000KT 10SM CLR 29/14 A3001 RMK AO2 SLP109 T02930143,M
CXP,2022-08-03 16:10,-119.7326,39.1923,1431.00,73.40,53.60,49.90,0.00,0.00,0.00,30.22,M,10.00,M,CLR,M,M,M,M,M,M,M,M,M,M,M,M,M,M,73.40,KCXP 031610Z AUTO 00000KT 10SM CLR 23/12 A3022 RMK AO2,M
BVU,2022-08-03 16:15,-114.8611,35.9475,671.00,93.20,57.20,29.99,M,3.00,0.00,29.94,M,M,M,M,M,M,M,M,M,M,M,M,M,M,M,M,M,M,91.91,KBVU 031615Z AUTO VRB03KT 34/14 A2994 RMK AO2 PWINO TSNO,M
TMT,2022-08-03 16:15,-117.1971,39.4643,1749.34,M,M,M,0.00,0.00,0.00,30.27,M,10.00,M,CLR,M,M,M,M,M,M,M,M,M,M,M,M,M,M,M,KTMT 031615Z AUTO 00000KT 10SM CLR A3027 RMK AO2,M
HTH,2022-08-03 16:15,-118.6315,38.5448,1282.89,77.00,53.60,44.25,280.00,4.00,0.00,30.17,M,10.00,M,CLR,M,M,M,M,M,M,M,M,M,M,M,M,M,M,77.00,KHTH 031615Z AUTO 28004KT 10SM CLR 25/12 A3017 RMK A01,M
BAM,2022-08-03 16:15,-116.8743,40.5990,1382.36,75.20,55.40,50.17,0.00,0.00,0.00,30.20,M,10.00,M,CLR,M,M,M,M,M,M,M,M,M,M,M,M,M,M,75.20,KBAM 031615Z AUTO 00000KT 10SM CLR 24/13 A3020 RMK AO1,M
MEV,2022-08-03 16:15,-119.7500,38.9963,1441.42,75.20,51.80,43.97,0.00,0.00,0.00,30.20,M,10.00,M,CLR,M,M,M,M,M,M,M,M,M,M,M,M,M,M,75.20,KMEV 031615Z AUTO 00000KT 10SM CLR 24/11 A3020 RMK AO2,M
05U,2022-08-03 16:15,-116.0051,39.6042,1811.23,M,M,M,M,M,0.00,M,M,M,M,M,M,M,M,M,M,M,M,M,M,M,M,M,M,M,M,K05U 031615Z AUTO RMK A01 PNO,M
RTS,2022-08-03 16:15,-119.8764,39.6682,1539.00,73.40,53.60,49.90,150.00,4.00,0.00,30.23,M,10.00,M,CLR,M,M,M,M,M,M,M,M,M,M,M,M,M,M,73.40,KRTS 031615Z AUTO 15004KT 10SM CLR 23/12 A3023 RMK AO2,M
CXP,2022-08-03 16:30,-119.7326,39.1923,1431.00,77.00,53.60,44.25,0.00,0.00,0.00,30.21,M,10.00,M,CLR,M,M,M,M,M,M,M,M,M,M,M,M,M,M,77.00,KCXP 031630Z AUTO 00000KT 10SM CLR 25/12 A3021 RMK AO2,M
BAM,2022-08-03 16:35,-116.8743,40.5990,1382.36,77.00,53.60,44.25,0.00,0.00,0.00,30.19,M,10.00,M,CLR,M,M,M,M,M,M,M,M,M,M,M,M,M,M,77.00,KBAM 031635Z AUTO 00000KT 10SM CLR 25/12 A3019 RMK AO1,M
MEV,2022-08-03 16:35,-119.7500,38.9963,1441.42,77.00,51.80,41.42,0.00,0.00,0.00,30.20,M,10.00,M,CLR,M,M,M,M,M,M,M,M,M,M,M,M,M,M,77.00,KMEV 031635Z AUTO 00000KT 10SM CLR 25/11 A3020 RMK AO2,M
05U,2022-08-03 16:35,-116.0051,39.6042,1811.23,M,M,M,M,M,0.00,M,M,M,M,M,M,M,M,M,M,M,M,M,M,M,M,M,M,M,M,K05U 031635Z AUTO RMK A01 PNO,M
HTH,2022-08-03 16:35,-118.6315,38.5448,1282.89,78.80,53.60,41.69,300.00,4.00,0.00,30.17,M,10.00,M,CLR,M,M,M,M,M,M,M,M,M,M,M,M,M,M,78.80,KHTH 031635Z AUTO 30004KT 10SM CLR 26/12 A3017 RMK A01,M
TMT,2022-08-03 16:35,-117.1971,39.4643,1749.34,M,M,M,300.00,3.00,0.00,30.27,M,10.00,M,CLR,M,M,M,M,M,M,M,M,M,M,M,M,M,M,M,KTMT 031635Z AUTO 30003KT 10SM CLR A3027 RMK AO2,M
BVU,2022-08-03 16:35,-114.8611,35.9475,671.00,93.20,59.00,31.99,M,3.00,0.00,29.94,M,M,M,M,M,M,M,M,M,M,M,M,M,M,M,M,M,M,92.57,KBVU 031635Z AUTO VRB03KT 34/15 A2994 RMK AO2 PWINO TSNO,M
RTS,2022-08-03 16:35,-119.8764,39.6682,1539.00,73.40,53.60,49.90,120.00,4.00,0.00,30.23,M,10.00,M,CLR,M,M,M,M,M,M,M,M,M,M,M,M,M,M,73.40,KRTS 031635Z AUTO 12004KT 10SM CLR 23/12 A3023 RMK AO2,M
CXP,2022-08-03 16:50,-119.7326,39.1923,1431.00,78.80,53.60,41.69,0.00,0.00,0.00,30.20,M,10.00,M,CLR,M,M,M,M,M,M,M,M,M,M,M,M,M,M,78.80,KCXP 031650Z AUTO 00000KT 10SM CLR 26/12 A3020 RMK AO2,M
05U,2022-08-03 16:50,-116.0051,39.6042,1811.23,M,M,M,M,M,0.00,M,M,M,M,M,M,M,M,M,M,M,M,M,M,M,M,M,M,M,M,K05U 031650Z AUTO RMK A01 PNO,M
DRA,2022-08-03 16:53,-116.0278,36.6206,1009.00,91.00,53.00,27.67,M,M,0.00,30.03,1010.90,10.00,M,CLR,M,M,M,M,M,M,M,M,M,M,M,M,M,M,88.57,KDRA 031653Z AUTO 10SM CLR 33/12 A3003 RMK AO2 SLP109 T03280117,M
ELY,2022-08-03 16:53,-114.8453,39.2950,1909.00,77.00,50.00,38.74,M,4.00,0.00,30.27,1014.90,10.00,M,CLR,M,M,M,M,M,M,M,M,M,M,M,M,M,M,77.00,KELY 031653Z AUTO VRB04KT 10SM CLR 25/10 A3027 RMK AO2 SLP149 T02500100,M
VGT,2022-08-03 16:53,-115.1933,36.2111,667.00,93.00,59.00,32.19,160.00,3.00,0.00,29.94,1012.30,10.00,M,CLR,M,M,M,M,M,M,M,M,M,M,M,M,M,M,92.35,KVGT 031653Z 16003KT 10SM CLR 34/15 A2994 RMK AO2 SLP123 T03390150,M
LOL,2022-08-03 16:53,-118.5701,40.0684,1192.43,84.00,53.00,34.56,40.00,4.00,0.00,30.13,1015.40,10.00,M,CLR,M,M,M,M,M,M,M,M,M,M,M,M,M,M,82.52,KLOL 031653Z AUTO 04004KT 10SM CLR 29/12 A3013 RMK AO2 SLP154 T02890117,M
RTS,2022-08-03 16:55,-119.8764,39.6682,1539.00,77.00,51.80,41.42,140.00,4.00,0.00,30.23,M,10.00,M,CLR,M,M,M,M,M,M,M,M,M,M,M,M,M,M,77.00,KRTS 031655Z AUTO 14004KT 10SM CLR 25/11 A3023 RMK AO2,M
MEV,2022-08-03 16:55,-119.7500,38.9963,1441.42,78.80,51.80,39.02,200.00,4.00,0.00,30.19,M,10.00,M,CLR,M,M,M,M,M,M,M,M,M,M,M,M,M,M,78.80,KMEV 031655Z AUTO 20004KT 10SM CLR 26/11 A3019 RMK AO2,M
BAM,2022-08-03 16:55,-116.8743,40.5990,1382.36,78.80,53.60,41.69,340.00,3.00,0.00,30.19,M,10.00,M,CLR,M,M,M,M,M,M,M,M,M,M,M,M,M,M,78.80,KBAM 031655Z AUTO 34003KT 10SM CLR 26/12 A3019 RMK AO1,M
HTH,2022-08-03 16:55,-118.6315,38.5448,1282.89,78.80,51.80,39.02,320.00,4.00,0.00,30.17,M,10.00,M,CLR,M,M,M,M,M,M,M,M,M,M,M,M,M,M,78.80,KHTH 031655Z AUTO 32004KT 10SM CLR 26/11 A3017 RMK A01,M
RNO,2022-08-03 16:55,-119.7711,39.4839,1341.00,80.00,56.00,43.44,M,3.00,0.00,30.17,1015.50,10.00,M,FEW,M,M,M,9000.00,M,M,M,M,M,M,M,M,M,M,80.29,KRNO 031655Z VRB03KT 10SM FEW090 27/13 A3017 RMK AO2 SLP155 T02670133,M
TMT,2022-08-03 16:55,-117.1971,39.4643,1749.34,M,M,M,0.00,0.00,0.00,30.26,M,10.00,M,CLR,M,M,M,M,M,M,M,M,M,M,M,M,M,M,M,KTMT 031655Z AUTO 00000KT 10SM CLR A3026 RMK AO2,M
BVU,2022-08-03 16:55,-114.8611,35.9475,671.00,95.00,55.40,26.58,50.00,4.00,0.00,29.94,M,M,M,M,M,M,M,M,M,M,M,M,M,M,M,M,M,M,93.22,KBVU 031655Z AUTO 05004KT 35/13 A2994 RMK AO2 PWINO TSNO,M
HND,2022-08-03 16:56,-115.1344,35.9729,742.79,93.00,59.00,32.19,0.00,0.00,0.00,29.99,1013.60,10.00,M,CLR,M,M,M,M,M,M,M,M,M,M,M,M,M,M,92.35,KHND 031656Z 00000KT 10SM CLR 34/15 A2999 RMK AO2 SLP136 T03390150,M
TPH,2022-08-03 16:56,-117.0904,38.0505,1654.00,81.00,50.00,33.97,0.00,0.00,0.00,30.21,1014.20,10.00,M,CLR,M,M,M,M,M,M,M,M,M,M,M,M,M,M,80.12,KTPH 031656Z AUTO 00000KT 10SM CLR 27/10 A3021 RMK AO2 SLP142 T02720100,M
EKO,2022-08-03 16:56,-115.7860,40.8242,1367.00,74.00,50.00,42.97,0.00,0.00,0.00,30.21,1017.60,10.00,M,CLR,M,M,M,M,M,M,M,M,M,M,M,M,M,M,73.90,KEKO 031656Z AUTO 00000KT 10SM CLR 23/10 A3021 RMK AO2 SLP176 T02330100,M
NFL,2022-08-03 16:56,-118.7010,39.4166,1199.00,82.00,53.00,36.87,0.00,0.00,0.00,30.14,1017.10,10.00,M,CLR,M,M,M,M,M,M,M,M,M,M,M,M,M,M,81.11,KNFL 031656Z 00000KT 10SM CLR 28/12 A3014 RMK AO2 SLP171 T02780117,M
LAS,2022-08-03 16:56,-115.1634,36.0719,663.00,93.00,58.00,30.95,M,3.00,0.00,29.95,1010.90,10.00,M,FEW,FEW,BKN,M,10000.00,12000.00,25000.00,M,M,M,M,M,M,M,M,91.94,KLAS 031656Z VRB03KT 10SM FEW100 FEW120 BKN250 34/14 A2995 RMK AO2 SLP109 T03390144,M
WMC,2022-08-03 16:56,-117.8072,40.9019,1315.00,83.00,53.00,35.81,360.00,4.00,0.00,30.16,1016.00,10.00,M,CLR,M,M,M,M,M,M,M,M,M,M,M,M,M,M,81.73,KWMC 031656Z AUTO 36004KT 10SM CLR 28/12 A3016 RMK AO2 SLP160 T02830117,M
INS,2022-08-03 16:58,-115.6733,36.5872,955.00,89.60,56.70,32.96,0.00,0.00,0.00,30.01,1010.80,10.00,M,CLR,M,M,M,M,M,M,M,M,M,M,M,M,M,M,88.13,KINS 031658Z AUTO 00000KT 10SM CLR 32/14 A3001 RMK AO2 SLP108 T03200137,M
LSV,2022-08-03 16:58,-115.0343,36.2362,570.00,97.20,59.50,28.80,50.00,6.00,0.00,29.91,M,10.00,M,FEW,M,M,M,20000.00,M,M,M,M,M,M,M,M,M,M,97.17,KLSV 031658Z AUTO 05006KT 10SM FEW200 36/15 A2991 RMK AO2 SLPNO T03620153 $,M
CXP,2022-08-03 17:10,-119.7326,39.1923,1431.00,80.60,51.80,36.79,200.00,3.00,0.00,30.20,M,10.00,M,CLR,M,M,M,M,M,M,M,M,M,M,M,M,M,M,80.08,KCXP 031710Z AUTO 20003KT 10SM CLR 27/11 A3020 RMK AO2,M
BAM,2022-08-03 17:15,-116.8743,40.5990,1382.36,80.60,53.60,39.30,0.00,0.00,0.00,30.19,M,10.00,M,CLR,M,M,M,M,M,M,M,M,M,M,M,M,M,M,80.29,KBAM 031715Z AUTO 00000KT 10SM CLR 27/12 A3019 RMK AO1,M
HTH,2022-08-03 17:15,-118.6315,38.5448,1282.89,80.60,50.00,34.41,M,3.00,0.00,30.16,M,10.00,M,CLR,M,M,M,M,M,M,M,M,M,M,M,M,M,M,79.88,KHTH 031715Z AUTO VRB03KT 10SM CLR 27/10 A3016 RMK A01,M
TMT,2022-08-03 17:15,-117.1971,39.4643,1749.34,M,M,M,20.00,3.00,0.00,30.26,M,10.00,M,CLR,M,M,M,M,M,M,M,M,M,M,M,M,M,M,M,KTMT 031715Z AUTO 02003KT 10SM CLR A3026 RMK AO2,M
BVU,2022-08-03 17:15,-114.8611,35.9475,671.00,95.00,55.40,26.58,0.00,0.00,0.00,29.94,M,M,M,M,M,M,M,M,M,M,M,M,M,M,M,M,M,M,93.22,KBVU 031715Z AUTO 00000KT 35/13 A2994 RMK AO2 PWINO TSNO,M
RTS,2022-08-03 17:15,-119.8764,39.6682,1539.00,77.00,51.80,41.42,M,3.00,0.00,30.22,M,10.00,M,CLR,M,M,M,M,M,M,M,M,M,M,M,M,M,M,77.00,KRTS 031715Z AUTO VRB03KT 10SM CLR 25/11 A3022 RMK AO2,M
05U,2022-08-03 17:15,-116.0051,39.6042,1811.23,M,M,M,M,M,0.00,M,M,M,M,M,M,M,M,M,M,M,M,M,M,M,M,M,M,M,M,K05U 031715Z AUTO RMK A01 PNO,M
MEV,2022-08-03 17:15,-119.7500,38.9963,1441.42,80.60,51.80,36.79,M,4.00,0.00,30.18,M,10.00,M,CLR,M,M,M,M,M,M,M,M,M,M,M,M,M,M,80.08,KMEV 031715Z AUTO VRB04KT 10SM CLR 27/11 A3018 RMK AO2,M
CXP,2022-08-03 17:30,-119.7326,39.1923,1431.00,82.40,51.80,34.69,0.00,0.00,0.00,30.19,M,10.00,M,CLR,M,M,M,M,M,M,M,M,M,M,M,M,M,M,81.20,KCXP 031730Z AUTO 00000KT 10SM CLR 28/11 A3019 RMK AO2,M
BVU,2022-08-03 17:35,-114.8611,35.9475,671.00,96.80,55.40,25.15,60.00,4.00,0.00,29.94,M,M,M,M,M,M,M,M,M,M,M,M,M,M,M,M,M,M,95.14,KBVU 031735Z AUTO 06004KT 36/13 A2994 RMK AO2 PWINO TSNO,M
RTS,2022-08-03 17:35,-119.8764,39.6682,1539.00,78.80,51.80,39.02,M,5.00,0.00,30.21,M,10.00,M,CLR,M,M,M,M,M,M,M,M,M,M,M,M,M,M,78.80,KRTS 031735Z AUTO VRB05KT 10SM CLR 26/11 A3021 RMK AO2,M
05U,2022-08-03 17:35,-116.0051,39.6042,1811.23,M,M,M,M,M,0.00,M,M,M,M,M,M,M,M,M,M,M,M,M,M,M,M,M,M,M,M,K05U 031735Z AUTO RMK A01 PNO,M
MEV,2022-08-03 17:35,-119.7500,38.9963,1441.42,82.40,50.00,32.46,0.00,0.00,0.00,30.18,M,10.00,M,CLR,M,M,M,M,M,M,M,M,M,M,M,M,M,M,80.99,KMEV 031735Z AUTO 00000KT 10SM CLR 28/10 A3018 RMK AO2,M
BAM,2022-08-03 17:35,-116.8743,40.5990,1382.36,80.60,53.60,39.30,0.00,0.00,0.00,30.17,M,10.00,M,CLR,M,M,M,M,M,M,M,M,M,M,M,M,M,M,80.29,KBAM 031735Z AUTO 00000KT 10SM CLR 27/12 A3017 RMK AO1,M
TMT,2022-08-03 17:35,-117.1971,39.4643,1749.34,M,M,M,0.00,0.00,0.00,30.25,M,10.00,M,CLR,M,M,M,M,M,M,M,M,M,M,M,M,M,M,M,KTMT 031735Z AUTO 00000KT 10SM CLR A3025 RMK AO2,M
HTH,2022-08-03 17:35,-118.6315,38.5448,1282.89,82.40,50.00,32.46,M,4.00,0.00,30.16,M,9.00,M,CLR,M,M,M,M,M,M,M,M,M,M,M,M,M,M,80.99,KHTH 031735Z AUTO VRB04KT 9SM CLR 28/10 A3016 RMK A01,M
CXP,2022-08-03 17:50,-119.7326,39.1923,1431.00,82.40,50.00,32.46,0.00,0.00,0.00,30.19,M,10.00,M,CLR,M,M,M,M,M,M,M,M,M,M,M,M,M,M,80.99,KCXP 031750Z AUTO 00000KT 10SM CLR 28/10 A3019 RMK AO2,M
LOL,2022-08-03 17:53,-118.5701,40.0684,1192.43,87.00,52.00,30.05,M,4.00,0.00,30.12,1014.80,10.00,M,CLR,M,M,M,M,M,M,M,M,M,M,M,M,M,M,84.82,KLOL 031753Z AUTO VRB04KT 10SM CLR 31/11 A3012 RMK AO2 SLP148 T03060111 10311 20167 58009,M
VGT,2022-08-03 17:53,-115.1933,36.2111,667.00,97.00,59.00,28.46,120.00,5.00,0.00,29.93,1011.90,10.00,M,CLR,M,M,M,M,M,M,M,M,M,M,M,M,M,M,96.72,KVGT 031753Z 12005KT 10SM CLR 36/15 A2993 RMK AO2 SLP119 T03610150 10361 20306 50000,M
DRA,2022-08-03 17:53,-116.0278,36.6206,1009.00,95.00,52.00,23.47,M,4.00,0.00,30.02,1010.60,10.00,M,CLR,M,M,M,M,M,M,M,M,M,M,M,M,M,M,92.31,KDRA 031753Z AUTO VRB04KT 10SM CLR 35/11 A3002 RMK AO2 SLP106 T03500111 10350 20233 58003,M
ELY,2022-08-03 17:53,-114.8453,39.2950,1909.00,82.00,49.00,31.56,M,M,0.00,30.26,1014.30,10.00,M,CLR,M,M,M,M,M,M,M,M,M,M,M,M,M,M,80.61,KELY 031753Z AUTO 10SM CLR 28/09 A3026 RMK AO2 SLP143 T02780094 10278 20106 58009,M
MEV,2022-08-03 17:55,-119.7500,38.9963,1441.42,82.40,51.80,34.69,120.00,5.00,0.00,30.17,M,10.00,M,CLR,M,M,M,M,M,M,M,M,M,M,M,M,M,M,81.20,KMEV 031755Z AUTO 12005KT 10SM CLR 28/11 A3017 RMK AO2,M
BAM,2022-08-03 17:55,-116.8743,40.5990,1382.36,82.40,53.60,37.07,300.00,4.00,0.00,30.17,M,10.00,M,CLR,M,M,M,M,M,M,M,M,M,M,M,M,M,M,81.46,KBAM 031755Z AUTO 30004KT 10SM CLR 28/12 A3017 RMK AO1,M
HTH,2022-08-03 17:55,-118.6315,38.5448,1282.89,84.20,50.00,30.62,M,3.00,0.00,30.15,M,8.00,M,CLR,M,M,M,M,M,M,M,M,M,M,M,M,M,M,82.24,KHTH 031755Z AUTO VRB03KT 8SM CLR 29/10 A3015 RMK A01,M
TMT,2022-08-03 17:55,-117.1971,39.4643,1749.34,M,M,M,50.00,3.00,0.00,30.24,M,10.00,M,CLR,M,M,M,M,M,M,M,M,M,M,M,M,M,M,M,KTMT 031755Z AUTO 05003KT 10SM CLR A3024 RMK AO2,M
RTS,2022-08-03 17:55,-119.8764,39.6682,1539.00,80.60,51.80,36.79,110.00,5.00,0.00,30.21,M,10.00,M,CLR,M,M,M,M,M,M,M,M,M,M,M,M,M,M,80.08,KRTS 031755Z AUTO 11005KT 10SM CLR 27/11 A3021 RMK AO2,M
05U,2022-08-03 17:55,-116.0051,39.6042,1811.23,M,M,M,M,M,0.00,M,M,M,M,M,M,M,M,M,M,M,M,M,M,M,M,M,M,M,M,K05U 031755Z AUTO RMK A01 PNO,M
RNO,2022-08-03 17:55,-119.7711,39.4839,1341.00,85.00,55.00,35.99,0.00,0.00,0.00,30.15,1014.50,10.00,M,FEW,M,M,M,9500.00,M,M,M,M,M,M,M,M,M,M,83.56,KRNO 031755Z 00000KT 10SM FEW095 29/13 A3015 RMK AO2 SLP145 T02940128 10294 20194 58012,M
BVU,2022-08-03 17:55,-114.8611,35.9475,671.00,98.60,57.20,25.41,M,5.00,0.00,29.93,M,M,M,M,M,M,M,M,M,M,M,M,M,M,M,M,M,M,97.76,KBVU 031755Z AUTO VRB05KT 37/14 A2993 RMK AO2 PWINO TSNO,M
TPH,2022-08-03 17:56,-117.0904,38.0505,1654.00,85.00,51.00,31.19,0.00,0.00,0.00,30.21,1014.00,10.00,M,CLR,M,M,M,M,M,M,M,M,M,M,M,M,M,M,82.90,KTPH 031756Z AUTO 00000KT 10SM CLR 29/11 A3021 RMK AO2 SLP140 T02940106 10294 20183 58006,M
EKO,2022-08-03 17:56,-115.7860,40.8242,1367.00,79.00,48.00,33.66,M,3.00,0.00,30.19,1016.60,10.00,M,CLR,M,M,M,M,M,M,M,M,M,M,M,M,M,M,79.00,KEKO 031756Z AUTO VRB03KT 10SM CLR 26/09 A3019 RMK AO2 SLP166 T02610089 10267 20139 58013,M
HND,2022-08-03 17:56,-115.1344,35.9729,742.79,95.00,59.00,30.26,0.00,0.00,0.00,29.98,1013.30,10.00,M,CLR,M,M,M,M,M,M,M,M,M,M,M,M,M,M,94.51,KHND 031756Z 00000KT 10SM CLR 35/15 A2998 RMK AO2 SLP133 T03500150 10356 20283 50000,M
LAS,2022-08-03 17:56,-115.1634,36.0719,663.00,97.00,59.00,28.46,30.00,5.00,0.00,29.94,1010.80,10.00,M,FEW,FEW,BKN,M,10000.00,15000.00,25000.00,M,M,M,M,M,M,M,M,96.72,KLAS 031756Z 03005KT 10SM FEW100 FEW150 BKN250 36/15 A2994 RMK AO2 SLP108 TCU W T03610150 10361 20294 50000,M
NFL,2022-08-03 17:56,-118.7010,39.4166,1199.00,85.00,51.00,31.19,M,3.00,0.00,30.12,1016.50,10.00,M,FEW,M,M,M,8000.00,M,M,M,M,M,M,M,M,M,M,82.90,KNFL 031756Z VRB03KT 10SM FEW080 29/11 A3012 RMK AO2 SLP165 T02940106 10294 20183 58009,M
WMC,2022-08-03 17:56,-117.8072,40.9019,1315.00,87.00,51.00,29.07,M,M,0.00,30.14,1015.10,10.00,M,CLR,M,M,M,M,M,M,M,M,M,M,M,M,M,M,84.67,KWMC 031756Z AUTO 10SM CLR 31/11 A3014 RMK AO2 SLP151 T03060106 10306 20156 58012,M
LSV,2022-08-03 17:58,-115.0343,36.2362,570.00,101.50,59.00,24.83,50.00,7.00,0.00,29.90,M,10.00,M,FEW,M,M,M,18000.00,M,M,M,M,M,M,M,M,M,M,101.82,KLSV 031758Z AUTO 05007KT 10SM FEW180 39/15 A2990 RMK AO2 SLPNO T03860150 10386 20286 58003 $,M
INS,2022-08-03 17:58,-115.6733,36.5872,955.00,93.70,54.70,26.97,360.00,4.00,0.00,30.00,1010.40,10.00,M,CLR,M,M,M,M,M,M,M,M,M,M,M,M,M,M,91.66,KINS 031758Z AUTO 36004KT 10SM CLR 34/13 A3000 RMK AO2 SLP104 T03430126 10343 20232 57006,M
CXP,2022-08-03 18:10,-119.7326,39.1923,1431.00,84.20,51.80,32.73,360.00,4.00,0.00,30.18,M,10.00,M,CLR,M,M,M,M,M,M,M,M,M,M,M,M,M,M,82.48,KCXP 031810Z AUTO 36004KT 10SM CLR 29/11 A3018 RMK AO2,M
BVU,2022-08-03 18:15,-114.8611,35.9475,671.00,96.80,55.40,25.15,0.00,0.00,0.00,29.93,M,M,M,M,M,M,M,M,M,M,M,M,M,M,M,M,M,M,95.14,KBVU 031815Z AUTO 00000KT 36/13 A2993 RMK AO2 PWINO TSNO,M
RTS,2022-08-03 18:15,-119.8764,39.6682,1539.00,82.40,50.00,32.46,110.00,7.00,0.00,30.20,M,10.00,M,CLR,M,M,M,M,M,M,M,M,M,M,M,M,M,M,80.99,KRTS 031815Z AUTO 11007KT 10SM CLR 28/10 A3020 RMK AO2,M
HTH,2022-08-03 18:15,-118.6315,38.5448,1282.89,84.20,50.00,30.62,M,4.00,0.00,30.14,M,8.00,10.00,CLR,M,M,M,M,M,M,M,M,M,M,M,M,M,M,82.24,KHTH 031815Z AUTO VRB04G10KT 8SM CLR 29/10 A3014 RMK A01,M
TMT,2022-08-03 18:15,-117.1971,39.4643,1749.34,M,M,M,0.00,0.00,0.00,30.24,M,10.00,M,CLR,M,M,M,M,M,M,M,M,M,M,M,M,M,M,M,KTMT 031815Z AUTO 00000KT 10SM CLR A3024 RMK AO2,M
MEV,2022-08-03 18:15,-119.7500,38.9963,1441.42,84.20,50.00,30.62,210.00,4.00,0.00,30.17,M,10.00,M,CLR,M,M,M,M,M,M,M,M,M,M,M,M,M,M,82.24,KMEV 031815Z AUTO 21004KT 10SM CLR 29/10 A3017 RMK AO2,M
BAM,2022-08-03 18:15,-116.8743,40.5990,1382.36,84.20,51.80,32.73,310.00,3.00,0.00,30.17,M,10.00,M,CLR,M,M,M,M,M,M,M,M,M,M,M,M,M,M,82.48,KBAM 031815Z AUTO 31003KT 10SM CLR 29/11 A3017 RMK AO1,M
05U,2022-08-03 18:15,-116.0051,39.6042,1811.23,M,M,M,M,M,0.00,M,M,M,M,M,M,M,M,M,M,M,M,M,M,M,M,M,M,M,M,K05U 031815Z AUTO RMK A01 PNO,M
CXP,2022-08-03 18:30,-119.7326,39.1923,1431.00,84.20,51.80,32.73,50.00,5.00,0.00,30.17,M,10.00,M,CLR,M,M,M,M,M,M,M,M,M,M,M,M,M,M,82.48,KCXP 031830Z AUTO 05005KT 10SM CLR 29/11 A3017 RMK AO2,M
MEV,2022-08-03 18:35,-119.7500,38.9963,1441.42,86.00,50.00,28.90,180.00,6.00,0.00,30.16,M,10.00,M,CLR,M,M,M,M,M,M,M,M,M,M,M,M,M,M,83.62,KMEV 031835Z AUTO 18006KT 10SM CLR 30/10 A3016 RMK AO2,M
05U,2022-08-03 18:35,-116.0051,39.6042,1811.23,M,M,M,M,M,0.00,M,M,M,M,M,M,M,M,M,M,M,M,M,M,M,M,M,M,M,M,K05U 031835Z AUTO RMK A01 PNO,M
BAM,2022-08-03 18:35,-116.8743,40.5990,1382.36,86.00,51.80,30.90,0.00,0.00,0.00,30.16,M,10.00,M,CLR,M,M,M,M,M,M,M,M,M,M,M,M,M,M,83.87,KBAM 031835Z AUTO 00000KT 10SM CLR 30/11 A3016 RMK AO1,M
TMT,2022-08-03 18:35,-117.1971,39.4643,1749.34,M,M,M,300.00,4.00,0.00,30.23,M,10.00,M,CLR,M,M,M,M,M,M,M,M,M,M,M,M,M,M,M,KTMT 031835Z AUTO 30004KT 10SM CLR A3023 RMK AO2,M
BVU,2022-08-03 18:35,-114.8611,35.9475,671.00,98.60,55.40,23.81,M,4.00,0.00,29.93,M,M,M,M,M,M,M,M,M,M,M,M,M,M,M,M,M,M,97.09,KBVU 031835Z AUTO VRB04KT 37/13 A2993 RMK AO2 PWINO TSNO,M
HTH,2022-08-03 18:35,-118.6315,38.5448,1282.89,86.00,48.20,27.03,350.00,6.00,0.00,30.13,M,8.00,M,CLR,M,M,M,M,M,M,M,M,M,M,M,M,M,M,83.40,KHTH 031835Z AUTO 35006KT 8SM CLR 30/09 A3013 RMK A01,M
RTS,2022-08-03 18:35,-119.8764,39.6682,1539.00,82.40,50.00,32.46,120.00,9.00,0.00,30.20,M,10.00,M,CLR,M,M,M,M,M,M,M,M,M,M,M,M,M,M,80.99,KRTS 031835Z AUTO 12009KT 10SM CLR 28/10 A3020 RMK AO2,M
CXP,2022-08-03 18:50,-119.7326,39.1923,1431.00,86.00,50.00,28.90,0.00,0.00,0.00,30.16,M,10.00,M,CLR,M,M,M,M,M,M,M,M,M,M,M,M,M,M,83.62,KCXP 031850Z AUTO 00000KT 10SM CLR 30/10 A3016 RMK AO2,M
ELY,2022-08-03 18:53,-114.8453,39.2950,1909.00,87.00,44.00,22.34,M,3.00,0.00,30.23,1013.00,10.00,M,CLR,M,M,M,M,M,M,M,M,M,M,M,M,M,M,83.91,KELY 031853Z AUTO VRB03KT 10SM CLR 31/07 A3023 RMK AO2 LTG DSNT S AND SW SLP130 T03060067,M
DRA,2022-08-03 18:53,-116.0278,36.6206,1009.00,97.00,51.00,21.35,M,5.00,0.00,30.00,1010.00,10.00,18.00,CLR,M,M,M,M,M,M,M,M,M,M,M,M,M,M,94.16,KDRA 031853Z AUTO VRB05G18KT 10SM CLR 36/11 A3000 RMK AO2 SLP100 T03610106,M
VGT,2022-08-03 18:53,-115.1933,36.2111,667.00,101.00,58.00,24.31,M,M,0.00,29.91,1011.20,10.00,M,CLR,M,M,M,M,M,M,M,M,M,M,M,M,M,M,100.63,KVGT 031853Z 10SM CLR 38/14 A2991 RMK AO2 SLP112 T03830144,M
LOL,2022-08-03 18:53,-118.5701,40.0684,1192.43,89.00,51.00,27.29,60.00,7.00,0.00,30.10,1014.20,10.00,M,CLR,M,M,M,M,M,M,M,M,M,M,M,M,M,M,86.42,KLOL 031853Z AUTO 06007KT 10SM CLR 32/11 A3010 RMK AO2 SLP142 T03170106,M
MEV,2022-08-03 18:55,-119.7500,38.9963,1441.42,86.00,48.20,27.03,M,4.00,0.00,30.15,M,10.00,M,CLR,M,M,M,M,M,M,M,M,M,M,M,M,M,M,83.40,KMEV 031855Z AUTO VRB04KT 10SM CLR 30/09 A3015 RMK AO2,M
TMT,2022-08-03 18:55,-117.1971,39.4643,1749.34,M,M,M,0.00,0.00,0.00,30.22,M,10.00,M,CLR,M,M,M,M,M,M,M,M,M,M,M,M,M,M,M,KTMT 031855Z AUTO 00000KT 10SM CLR A3022 RMK AO2,M
BVU,2022-08-03 18:55,-114.8611,35.9475,671.00,98.60,55.40,23.81,M,5.00,0.00,29.92,M,M,M,M,M,M,M,M,M,M,M,M,M,M,M,M,M,M,97.09,KBVU 031855Z AUTO VRB05KT 37/13 A2992 RMK AO2 PWINO TSNO,M
BAM,2022-08-03 18:55,-116.8743,40.5990,1382.36,86.00,50.00,28.90,240.00,5.00,0.00,30.15,M,10.00,M,CLR,M,M,M,M,M,M,M,M,M,M,M,M,M,M,83.62,KBAM 031855Z AUTO 24005KT 10SM CLR 30/10 A3015 RMK AO1,M
HTH,2022-08-03 18:55,-118.6315,38.5448,1282.89,86.00,48.20,27.03,M,4.00,0.00,30.13,M,8.00,M,CLR,M,M,M,M,M,M,M,M,M,M,M,M,M,M,83.40,KHTH 031855Z AUTO VRB04KT 8SM CLR 30/09 A3013 RMK A01,M
05U,2022-08-03 18:55,-116.0051,39.6042,1811.23,M,M,M,M,M,0.00,M,M,M,M,M,M,M,M,M,M,M,M,M,M,M,M,M,M,M,M,K05U 031855Z AUTO RMK A01 PNO,M
RTS,2022-08-03 18:55,-119.8764,39.6682,1539.00,82.40,50.00,32.46,120.00,6.00,0.00,30.19,M,10.00,M,CLR,M,M,M,M,M,M,M,M,M,M,M,M,M,M,80.99,KRTS 031855Z AUTO 12006KT 10SM CLR 28/10 A3019 RMK AO2,M
RNO,2022-08-03 18:55,-119.7711,39.4839,1341.00,89.00,55.00,31.49,M,3.00,0.00,30.13,1013.80,10.00,M,FEW,M,M,M,9500.00,M,M,M,M,M,M,M,M,M,M,87.21,KRNO 031855Z VRB03KT 10SM FEW095 32/13 A3013 RMK AO2 SLP138 T03170128,M
NFL,2022-08-03 18:56,-118.7010,39.4166,1199.00,88.00,51.00,28.25,350.00,4.00,0.00,30.10,1015.90,10.00,M,FEW,M,M,M,8000.00,M,M,M,M,M,M,M,M,M,M,85.45,KNFL 031856Z 35004KT 10SM FEW080 31/11 A3010 RMK AO2 SLP159 T03110106,M
TPH,2022-08-03 18:56,-117.0904,38.0505,1654.00,86.00,50.00,28.90,130.00,8.00,0.00,30.19,1012.80,10.00,M,CLR,M,M,M,M,M,M,M,M,M,M,M,M,M,M,83.62,KTPH 031856Z AUTO 13008KT 10SM CLR 30/10 A3019 RMK AO2 SLP128 T03000100,M
HND,2022-08-03 18:56,-115.1344,35.9729,742.79,100.00,59.00,25.98,M,4.00,0.00,29.96,1012.60,10.00,M,CLR,M,M,M,M,M,M,M,M,M,M,M,M,M,M,100.11,KHND 031856Z VRB04KT 10SM CLR 38/15 A2996 RMK AO2 SLP126 T03780150,M
EKO,2022-08-03 18:56,-115.7860,40.8242,1367.00,82.00,48.00,30.51,0.00,0.00,0.00,30.17,1015.40,10.00,M,CLR,M,M,M,M,M,M,M,M,M,M,M,M,M,M,80.53,KEKO 031856Z AUTO 00000KT 10SM CLR 28/09 A3017 RMK AO2 SLP154 T02780089,M
WMC,2022-08-03 18:56,-117.8072,40.9019,1315.00,90.00,49.00,24.44,M,M,0.00,30.12,1014.40,10.00,M,CLR,M,M,M,M,M,M,M,M,M,M,M,M,M,M,86.90,KWMC 031856Z AUTO 10SM CLR 32/09 A3012 RMK AO2 SLP144 T03220094,M
LAS,2022-08-03 18:56,-115.1634,36.0719,663.00,99.00,58.00,25.74,90.00,5.00,0.00,29.92,1010.10,10.00,M,FEW,SCT,BKN,M,10000.00,15000.00,25000.00,M,M,M,M,M,M,M,M,98.49,KLAS 031856Z 09005KT 10SM FEW100 SCT150 BKN250 37/14 A2992 RMK AO2 SLP101 TCU DSNT NW E T03720144,M
INS,2022-08-03 18:58,-115.6733,36.5872,955.00,94.00,52.70,24.91,0.00,0.00,0.00,29.99,1010.10,10.00,M,CLR,M,M,M,M,M,M,M,M,M,M,M,M,M,M,91.35,KINS 031858Z AUTO 00000KT 10SM CLR 34/12 A2999 RMK AO2 SLP101 T03440115,M
LSV,2022-08-03 18:58,-115.0343,36.2362,570.00,105.80,59.00,21.85,50.00,4.00,0.00,29.89,M,10.00,M,CLR,M,M,M,M,M,M,M,M,M,M,M,M,M,M,106.72,KLSV 031858Z AUTO 05004KT 10SM CLR 41/15 A2989 RMK AO2 SLPNO T04100150 $,M
CXP,2022-08-03 19:10,-119.7326,39.1923,1431.00,86.00,50.00,28.90,M,4.00,0.00,30.15,M,10.00,M,CLR,M,M,M,M,M,M,M,M,M,M,M,M,M,M,83.62,KCXP 031910Z AUTO VRB04KT 10SM CLR 30/10 A3015 RMK AO2,M
TMT,2022-08-03 19:15,-117.1971,39.4643,1749.34,M,M,M,0.00,0.00,0.00,30.21,M,10.00,M,CLR,M,M,M,M,M,M,M,M,M,M,M,M,M,M,M,KTMT 031915Z AUTO 00000KT 10SM CLR A3021 RMK AO2 LTG DSNT S,M
05U,2022-08-03 19:15,-116.0051,39.6042,1811.23,M,M,M,M,M,0.00,M,M,M,M,M,M,M,M,M,M,M,M,M,M,M,M,M,M,M,M,K05U 031915Z AUTO RMK A01 PNO,M
MEV,2022-08-03 19:15,-119.7500,38.9963,1441.42,87.80,46.40,23.85,M,5.00,0.00,30.14,M,10.00,M,CLR,M,M,M,M,M,M,M,M,M,M,M,M,M,M,84.68,KMEV 031915Z AUTO VRB05KT 10SM CLR 31/08 A3014 RMK AO2,M
BAM,2022-08-03 19:15,-116.8743,40.5990,1382.36,87.80,51.80,29.18,0.00,0.00,0.00,30.14,M,10.00,M,CLR,M,M,M,M,M,M,M,M,M,M,M,M,M,M,85.39,KBAM 031915Z AUTO 00000KT 10SM CLR 31/11 A3014 RMK AO1,M
HTH,2022-08-03 19:15,-118.6315,38.5448,1282.89,87.80,48.20,25.52,0.00,0.00,0.00,30.11,M,9.00,M,CLR,M,M,M,M,M,M,M,M,M,M,M,M,M,M,84.87,KHTH 031915Z AUTO 00000KT 9SM CLR 31/09 A3011 RMK A01,M
BVU,2022-08-03 19:15,-114.8611,35.9475,671.00,100.40,55.40,22.54,130.00,4.00,0.00,29.91,M,M,M,M,M,M,M,M,M,M,M,M,M,M,M,M,M,M,99.06,KBVU 031915Z AUTO 13004KT 38/13 A2991 RMK AO2 PWINO TSNO,M
RTS,2022-08-03 19:15,-119.8764,39.6682,1539.00,84.20,50.00,30.62,90.00,9.00,0.00,30.18,M,10.00,15.00,CLR,M,M,M,M,M,M,M,M,M,M,M,M,M,M,82.24,KRTS 031915Z AUTO 09009G15KT 10SM CLR 29/10 A3018 RMK AO2,M
CXP,2022-08-03 19:30,-119.7326,39.1923,1431.00,87.80,48.20,25.52,M,3.00,0.00,30.15,M,10.00,M,CLR,M,M,M,M,M,M,M,M,M,M,M,M,M,M,84.87,KCXP 031930Z AUTO VRB03KT 10SM CLR 31/09 A3015 RMK AO2,M
05U,2022-08-03 19:35,-116.0051,39.6042,1811.23,M,M,M,M,M,0.00,M,M,M,M,M,M,M,M,M,M,M,M,M,M,M,M,M,M,M,M,K05U 031935Z AUTO RMK A01 PNO,M
MEV,2022-08-03 19:35,-119.7500,38.9963,1441.42,87.80,46.40,23.85,M,5.00,0.00,30.13,M,10.00,M,CLR,M,M,M,M,M,M,M,M,M,M,M,M,M,M,84.68,KMEV 031935Z AUTO VRB05KT 10SM CLR 31/08 A3013 RMK AO2,M
HTH,2022-08-03 19:35,-118.6315,38.5448,1282.89,87.80,48.20,25.52,20.00,4.00,0.00,30.11,M,8.00,10.00,CLR,M,M,M,M,M,M,M,M,M,M,M,M,M,M,84.87,KHTH 031935Z AUTO 02004G10KT 8SM CLR 31/09 A3011 RMK A01,M
TMT,2022-08-03 19:35,-117.1971,39.4643,1749.34,M,M,M,230.00,5.00,0.00,30.21,M,10.00,M,CLR,M,M,M,M,M,M,M,M,M,M,M,M,M,M,M,KTMT 031935Z AUTO 23005KT 10SM CLR A3021 RMK AO2,M
RTS,2022-08-03 19:35,-119.8764,39.6682,1539.00,86.00,48.20,27.03,0.00,0.00,0.00,30.17,M,10.00,11.00,CLR,M,M,M,M,M,M,M,M,M,M,M,M,M,M,83.40,KRTS 031935Z AUTO 00000G11KT 10SM CLR 30/09 A3017 RMK AO2,M
BAM,2022-08-03 19:35,-116.8743,40.5990,1382.36,86.00,51.80,30.90,0.00,0.00,0.00,30.13,M,10.00,M,CLR,M,M,M,M,M,M,M,M,M,M,M,M,M,M,83.87,KBAM 031935Z AUTO 00000KT 10SM CLR 30/11 A3013 RMK AO1,M
BVU,2022-08-03 19:35,-114.8611,35.9475,671.00,100.40,55.40,22.54,M,3.00,0.00,29.91,M,M,M,M,M,M,M,M,M,M,M,M,M,M,M,M,M,M,99.06,KBVU 031935Z AUTO VRB03KT 38/13 A2991 RMK AO2 PWINO TSNO,M
CXP,2022-08-03 19:50,-119.7326,39.1923,1431.00,89.60,46.40,22.53,M,4.00,0.00,30.14,M,10.00,M,CLR,M,M,M,M,M,M,M,M,M,M,M,M,M,M,86.24,KCXP 031950Z AUTO VRB04KT 10SM CLR 32/08 A3014 RMK AO2,M
VGT,2022-08-03 19:53,-115.1933,36.2111,667.00,101.00,57.00,23.53,M,3.00,0.00,29.89,1010.60,10.00,M,CLR,M,M,M,M,M,M,M,M,M,M,M,M,M,M,100.24,KVGT 031953Z VRB03KT 10SM CLR 38/14 A2989 RMK AO2 SLP106 T03830139,M
DRA,2022-08-03 19:53,-116.0278,36.6206,1009.00,98.00,51.00,20.64,180.00,9.00,0.00,29.98,1009.30,10.00,M,CLR,M,M,M,M,M,M,M,M,M,M,M,M,M,M,95.30,KDRA 031953Z AUTO 18009KT 10SM CLR 37/11 A2998 RMK AO2 SLP093 T03670106,M
LOL,2022-08-03 19:53,-118.5701,40.0684,1192.43,91.00,50.00,24.68,M,4.00,0.00,30.07,1013.20,10.00,15.00,CLR,M,M,M,M,M,M,M,M,M,M,M,M,M,M,87.99,KLOL 031953Z AUTO VRB04G15KT 10SM CLR 33/10 A3007 RMK AO2 SLP132 T03280100,M
ELY,2022-08-03 19:53,-114.8453,39.2950,1909.00,85.00,45.00,24.81,M,6.00,0.00,30.22,1012.70,10.00,M,CLR,M,M,M,M,M,M,M,M,M,M,M,M,M,M,82.27,KELY 031953Z AUTO VRB06KT 10SM CLR 29/07 A3022 RMK AO2 SLP127 T02940072,M
RNO,2022-08-03 19:55,-119.7711,39.4839,1341.00,91.00,54.00,28.60,30.00,6.00,0.00,30.10,1012.90,10.00,M,SCT,M,M,M,9000.00,M,M,M,M,M,M,M,M,M,M,88.78,KRNO 031955Z 03006KT 10SM SCT090TCU 33/12 A3010 RMK AO2 SLP129 TCU SW AND NW T03280122,M
BVU,2022-08-03 19:55,-114.8611,35.9475,671.00,102.20,53.60,20.00,150.00,8.00,0.00,29.90,M,M,M,M,M,M,M,M,M,M,M,M,M,M,M,M,M,M,100.38,KBVU 031955Z AUTO 15008KT 39/12 A2990 RMK AO2 PWINO TSNO,M
RTS,2022-08-03 19:55,-119.8764,39.6682,1539.00,86.00,48.20,27.03,M,4.00,0.00,30.17,M,10.00,M,CLR,M,M,M,M,M,M,M,M,M,M,M,M,M,M,83.40,KRTS 031955Z AUTO VRB04KT 10SM CLR 30/09 A3017 RMK AO2,M
05U,2022-08-03 19:55,-116.0051,39.6042,1811.23,M,M,M,M,M,0.00,M,M,M,M,M,M,M,M,M,M,M,M,M,M,M,M,M,M,M,M,K05U 031955Z AUTO RMK A01 PNO,M
MEV,2022-08-03 19:55,-119.7500,38.9963,1441.42,89.60,46.40,22.53,M,3.00,0.00,30.12,M,10.00,M,CLR,M,M,M,M,M,M,M,M,M,M,M,M,M,M,86.24,KMEV 031955Z AUTO VRB03KT 10SM CLR 32/08 A3012 RMK AO2,M
BAM,2022-08-03 19:55,-116.8743,40.5990,1382.36,89.60,51.80,27.56,20.00,3.00,0.00,30.13,M,10.00,M,CLR,M,M,M,M,M,M,M,M,M,M,M,M,M,M,87.00,KBAM 031955Z AUTO 02003KT 10SM CLR 32/11 A3013 RMK AO1,M
HTH,2022-08-03 19:55,-118.6315,38.5448,1282.89,89.60,48.20,24.11,M,4.00,0.00,30.10,M,9.00,M,CLR,M,M,M,M,M,M,M,M,M,M,M,M,M,M,86.44,KHTH 031955Z AUTO VRB04KT 9SM CLR 32/09 A3010 RMK A01,M
TMT,2022-08-03 19:55,-117.1971,39.4643,1749.34,M,M,M,220.00,7.00,0.00,30.20,M,10.00,M,SCT,M,M,M,12000.00,M,M,M,M,M,M,M,M,M,M,M,KTMT 031955Z AUTO 22007KT 10SM SCT120 A3020 RMK AO2,M
LAS,2022-08-03 19:56,-115.1634,36.0719,663.00,101.00,57.00,23.53,40.00,4.00,0.00,29.91,1009.40,10.00,M,SCT,SCT,BKN,M,10000.00,15000.00,25000.00,M,M,M,M,M,M,M,M,100.24,KLAS 031956Z 04004KT 10SM SCT100 SCT150 BKN250 38/14 A2991 RMK AO2 SLP094 T03830139,M
NFL,2022-08-03 19:56,-118.7010,39.4166,1199.00,91.00,49.00,23.68,60.00,5.00,0.00,30.08,1015.30,10.00,M,SCT,M,M,M,8000.00,M,M,M,M,M,M,M,M,M,M,87.82,KNFL 031956Z 06005KT 10SM SCT080 33/09 A3008 RMK AO2 SLP153 CB DSNT NW T03280094,M
HND,2022-08-03 19:56,-115.1344,35.9729,742.79,100.00,58.00,24.97,M,3.00,0.00,29.94,1012.00,10.00,M,CLR,M,M,M,M,M,M,M,M,M,M,M,M,M,M,99.61,KHND 031956Z VRB03KT 10SM CLR 38/14 A2994 RMK AO2 SLP120 T03780144,M
WMC,2022-08-03 19:56,-117.8072,40.9019,1315.00,91.00,48.00,22.90,M,5.00,0.00,30.10,1013.90,10.00,M,CLR,M,M,M,M,M,M,M,M,M,M,M,M,M,M,87.69,KWMC 031956Z AUTO VRB05KT 10SM CLR 33/09 A3010 RMK AO2 SLP139 T03280089,M
TPH,2022-08-03 19:56,-117.0904,38.0505,1654.00,89.00,49.00,25.14,110.00,6.00,0.00,30.17,1012.40,10.00,M,CLR,M,M,M,M,M,M,M,M,M,M,M,M,M,M,86.09,KTPH 031956Z AUTO 11006KT 10SM CLR 32/09 A3017 RMK AO2 SLP124 T03170094,M
EKO,2022-08-03 19:56,-115.7860,40.8242,1367.00,84.00,46.00,26.52,190.00,9.00,0.00,30.14,1014.50,10.00,15.00,CLR,M,M,M,M,M,M,M,M,M,M,M,M,M,M,81.69,KEKO 031956Z AUTO 19009G15KT 10SM CLR 29/08 A3014 RMK AO2 SLP145 T02890078,M
LSV,2022-08-03 19:58,-115.0343,36.2362,570.00,107.60,58.00,19.92,90.00,3.00,0.00,29.86,1008.10,10.00,M,CLR,M,M,M,M,M,M,M,M,M,M,M,M,M,M,108.14,KLSV 031958Z AUTO 09003KT 10SM CLR 42/14 A2986 RMK AO2 SLP081 T04200144 $,M
INS,2022-08-03 19:58,-115.6733,36.5872,955.00,96.40,52.50,22.90,260.00,3.00,0.00,29.97,1009.40,10.00,M,FEW,M,M,M,19000.00,M,M,M,M,M,M,M,M,M,M,93.88,KINS 031958Z AUTO 26003KT 10SM FEW190 36/11 A2997 RMK AO2 SLP094 T03580114,M
CXP,2022-08-03 20:10,-119.7326,39.1923,1431.00,89.60,46.40,22.53,340.00,5.00,0.00,30.13,M,10.00,M,CLR,M,M,M,M,M,M,M,M,M,M,M,M,M,M,86.24,KCXP 032010Z AUTO 34005KT 10SM CLR 32/08 A3013 RMK AO2,M
05U,2022-08-03 20:15,-116.0051,39.6042,1811.23,M,M,M,M,M,0.00,M,M,M,M,M,M,M,M,M,M,M,M,M,M,M,M,M,M,M,M,K05U 032015Z AUTO RMK A01 PNO,M
BVU,2022-08-03 20:15,-114.8611,35.9475,671.00,100.40,53.60,21.11,M,4.00,0.00,29.89,M,M,M,M,M,M,M,M,M,M,M,M,M,M,M,M,M,M,98.44,KBVU 032015Z AUTO VRB04KT 38/12 A2989 RMK AO2 PWINO TSNO,M
RTS,2022-08-03 20:15,-119.8764,39.6682,1539.00,86.00,46.40,25.26,0.00,0.00,0.00,30.16,M,10.00,M,CLR,M,M,M,M,M,M,M,M,M,M,M,M,M,M,83.22,KRTS 032015Z AUTO 00000KT 10SM CLR 30/08 A3016 RMK AO2,M
TMT,2022-08-03 20:15,-117.1971,39.4643,1749.34,M,M,M,280.00,9.00,0.00,30.19,M,10.00,M,CLR,M,M,M,M,M,M,M,M,M,M,M,M,M,M,M,KTMT 032015Z AUTO 28009KT 10SM CLR A3019 RMK AO2,M
MEV,2022-08-03 20:15,-119.7500,38.9963,1441.42,89.60,48.20,24.11,0.00,0.00,0.00,30.12,M,10.00,M,M,M,M,M,M,M,M,M,M,M,M,M,M,M,M,86.44,KMEV 032015Z AUTO 00000KT 10SM 32/09 A3012 RMK AO2,M
BAM,2022-08-03 20:15,-116.8743,40.5990,1382.36,89.60,51.80,27.56,300.00,3.00,0.00,30.12,M,10.00,M,CLR,M,M,M,M,M,M,M,M,M,M,M,M,M,M,87.00,KBAM 032015Z AUTO 30003KT 10SM CLR 32/11 A3012 RMK AO1,M
HTH,2022-08-03 20:15,-118.6315,38.5448,1282.89,89.60,46.40,22.53,0.00,0.00,0.00,30.09,M,9.00,M,CLR,M,M,M,M,M,M,M,M,M,M,M,M,M,M,86.24,KHTH 032015Z AUTO 00000KT 9SM CLR 32/08 A3009 RMK A01,M
CXP,2022-08-03 20:30,-119.7326,39.1923,1431.00,91.40,46.40,21.29,110.00,5.00,0.00,30.13,M,10.00,M,CLR,M,M,M,M,M,M,M,M,M,M,M,M,M,M,87.86,KCXP 032030Z AUTO 11005KT 10SM CLR 33/08 A3013 RMK AO2,M
HTH,2022-08-03 20:35,-118.6315,38.5448,1282.89,89.60,46.40,22.53,0.00,0.00,0.00,30.08,M,9.00,M,CLR,M,M,M,M,M,M,M,M,M,M,M,M,M,M,86.24,KHTH 032035Z AUTO 00000KT 9SM CLR 32/08 A3008 RMK A01,M
MEV,2022-08-03 20:35,-119.7500,38.9963,1441.42,89.60,48.20,24.11,M,5.00,0.00,M,M,10.00,M,M,M,M,M,M,M,M,M,M,M,M,M,M,M,M,86.44,KMEV 032035Z AUTO VRB05KT 10SM 32/09 RMK AO2,M
05U,2022-08-03 20:35,-116.0051,39.6042,1811.23,M,M,M,M,M,0.00,M,M,M,M,M,M,M,M,M,M,M,M,M,M,M,M,M,M,M,M,K05U 032035Z AUTO RMK A01 PNO,M
RTS,2022-08-03 20:35,-119.8764,39.6682,1539.00,86.00,48.20,27.03,110.00,6.00,0.00,30.16,M,10.00,M,SCT,SCT,M,M,8000.00,12000.00,M,M,M,M,M,M,M,M,M,83.40,KRTS 032035Z AUTO 11006KT 10SM SCT080 SCT120 30/09 A3016 RMK AO2,M
BVU,2022-08-03 20:35,-114.8611,35.9475,671.00,102.20,53.60,20.00,0.00,0.00,0.00,29.88,M,M,10.00,M,M,M,M,M,M,M,M,M,M,M,M,M,M,M,100.38,KBVU 032035Z AUTO 00000G10KT 39/12 A2988 RMK AO2 PWINO TSNO,M
TMT,2022-08-03 20:35,-117.1971,39.4643,1749.34,M,M,M,240.00,6.00,0.00,30.19,M,10.00,M,CLR,M,M,M,M,M,M,M,M,M,M,M,M,M,M,M,KTMT 032035Z AUTO 24006KT 10SM CLR A3019 RMK AO2,M
BAM,2022-08-03 20:35,-116.8743,40.5990,1382.36,89.60,50.00,25.79,310.00,5.00,0.00,30.12,M,10.00,M,CLR,M,M,M,M,M,M,M,M,M,M,M,M,M,M,86.70,KBAM 032035Z AUTO 31005KT 10SM CLR 32/10 A3012 RMK AO1,M
CXP,2022-08-03 20:50,-119.7326,39.1923,1431.00,93.20,46.40,20.13,300.00,5.00,0.00,30.12,M,10.00,M,CLR,M,M,M,M,M,M,M,M,M,M,M,M,M,M,89.55,KCXP 032050Z AUTO 30005KT 10SM CLR 34/08 A3012 RMK AO2,M
VGT,2022-08-03 20:53,-115.1933,36.2111,667.00,103.00,56.00,21.30,210.00,6.00,0.00,29.87,1009.60,10.00,M,CLR,M,M,M,M,M,M,M,M,M,M,M,M,M,M,102.01,KVGT 032053Z 21006KT 10SM CLR 39/13 A2987 RMK AO2 SLP096 T03940133 58020,M
DRA,2022-08-03 20:53,-116.0278,36.6206,1009.00,100.00,50.00,18.71,M,5.00,0.00,29.96,1008.80,10.00,19.00,CLR,M,M,M,M,M,M,M,M,M,M,M,M,M,M,97.00,KDRA 032053Z AUTO VRB05G19KT 10SM CLR 38/10 A2996 RMK AO2 SLP088 T03780100 58017,M
ELY,2022-08-03 20:53,-114.8453,39.2950,1909.00,84.00,47.00,27.44,320.00,14.00,0.00,30.22,1012.20,10.00,M,OVC,M,M,M,11000.00,M,M,M,M,M,M,M,M,M,M,81.77,KELY 032053Z AUTO 32014KT 10SM OVC110 29/08 A3022 RMK AO2 LTG DSNT S SLP122 T02890083 56012,M
LOL,2022-08-03 20:53,-118.5701,40.0684,1192.43,93.00,49.00,22.25,M,3.00,0.00,30.05,1012.30,10.00,M,CLR,M,M,M,M,M,M,M,M,M,M,M,M,M,M,89.72,KLOL 032053Z AUTO VRB03KT 10SM CLR 34/09 A3005 RMK AO2 SLP123 T03390094 58021,M
BVU,2022-08-03 20:55,-114.8611,35.9475,671.00,102.20,53.60,20.00,320.00,4.00,0.00,29.87,M,M,M,M,M,M,M,M,M,M,M,M,M,M,M,M,M,M,100.38,KBVU 032055Z AUTO 32004KT 39/12 A2987 RMK AO2 PWINO TSNO,M
RTS,2022-08-03 20:55,-119.8764,39.6682,1539.00,87.80,48.20,25.52,110.00,4.00,0.00,30.15,M,10.00,M,SCT,SCT,M,M,8000.00,12000.00,M,M,M,M,M,M,M,M,M,84.87,KRTS 032055Z AUTO 11004KT 10SM SCT080 SCT120 31/09 A3015 RMK AO2,M
05U,2022-08-03 20:55,-116.0051,39.6042,1811.23,M,M,M,M,M,0.00,M,M,M,M,M,M,M,M,M,M,M,M,M,M,M,M,M,M,M,M,K05U 032055Z AUTO RMK A01 PNO,M
MEV,2022-08-03 20:55,-119.7500,38.9963,1441.42,89.60,48.20,24.11,0.00,0.00,0.00,30.10,M,10.00,M,CLR,M,M,M,M,M,M,M,M,M,M,M,M,M,M,86.44,KMEV 032055Z AUTO 00000KT 10SM CLR 32/09 A3010 RMK AO2,M
BAM,2022-08-03 20:55,-116.8743,40.5990,1382.36,91.40,50.00,24.37,210.00,6.00,0.00,30.10,M,10.00,M,CLR,M,M,M,M,M,M,M,M,M,M,M,M,M,M,88.36,KBAM 032055Z AUTO 21006KT 10SM CLR 33/10 A3010 RMK AO1,M
HTH,2022-08-03 20:55,-118.6315,38.5448,1282.89,91.40,46.40,21.29,M,6.00,0.00,30.07,M,10.00,M,CLR,M,M,M,M,M,M,M,M,M,M,M,M,M,M,87.86,KHTH 032055Z AUTO VRB06KT 10SM CLR 33/08 A3007 RMK A01,M
RNO,2022-08-03 20:55,-119.7711,39.4839,1341.00,93.00,51.00,24.15,70.00,8.00,0.00,30.08,1011.90,10.00,M,SCT,SCT,M,M,9000.00,20000.00,M,M,M,M,M,M,M,M,M,90.11,KRNO 032055Z 07008KT 10SM SCT090TCU SCT200 34/11 A3008 RMK AO2 SLP119 CB DSNT S TCU SW THRU NW T03390106 58022,M
TMT,2022-08-03 20:55,-117.1971,39.4643,1749.34,M,M,M,360.00,3.00,0.00,30.18,M,10.00,M,CLR,M,M,M,M,M,M,M,M,M,M,M,M,M,M,M,KTMT 032055Z AUTO 36003KT 10SM CLR A3018 RMK AO2 LTG DSNT S,M
WMC,2022-08-03 20:56,-117.8072,40.9019,1315.00,94.00,46.00,19.40,M,5.00,0.00,30.08,1012.90,10.00,M,CLR,M,M,M,M,M,M,M,M,M,M,M,M,M,M,90.17,KWMC 032056Z AUTO VRB05KT 10SM CLR 34/08 A3008 RMK AO2 SLP129 T03440078 58019,M
EKO,2022-08-03 20:56,-115.7860,40.8242,1367.00,85.00,44.00,23.97,220.00,9.00,0.00,30.12,1014.00,10.00,17.00,SCT,M,M,M,10000.00,M,M,M,M,M,M,M,M,M,M,82.20,KEKO 032056Z AUTO 22009G17KT 10SM SCT100 29/07 A3012 RMK AO2 SLP140 T02940067 56020,M
LAS,2022-08-03 20:56,-115.1634,36.0719,663.00,102.00,55.00,21.17,0.00,0.00,0.00,29.88,1008.50,10.00,M,FEW,SCT,M,M,10000.00,25000.00,M,M,M,M,M,M,M,M,M,100.66,KLAS 032056Z 00000KT 10SM FEW100 SCT250 39/13 A2988 RMK AO2 SLP085 TCU DSNT E T03890128 58020,M
TPH,2022-08-03 20:56,-117.0904,38.0505,1654.00,89.00,46.00,22.54,110.00,6.00,0.00,30.15,1011.80,10.00,M,CLR,M,M,M,M,M,M,M,M,M,M,M,M,M,M,85.76,KTPH 032056Z AUTO 11006KT 10SM CLR 32/08 A3015 RMK AO2 LTG DSNT E SLP118 T03170078 58016,M
HND,2022-08-03 20:56,-115.1344,35.9729,742.79,102.00,58.00,23.52,M,4.00,0.00,29.92,1011.00,10.00,M,CLR,M,M,M,M,M,M,M,M,M,M,M,M,M,M,101.87,KHND 032056Z VRB04KT 10SM CLR 39/14 A2992 RMK AO2 SLP110 T03890144 58020,M
NFL,2022-08-03 20:56,-118.7010,39.4166,1199.00,93.00,48.00,21.51,0.00,0.00,0.00,30.05,1014.40,10.00,M,SCT,SCT,M,M,8000.00,10000.00,M,M,M,M,M,M,M,M,M,89.58,KNFL 032056Z 00000KT 10SM SCT080 SCT100 34/09 A3005 RMK AO2 SLP144 CB DSNT SW-NW T03390089 58021,M
LSV,2022-08-03 20:58,-115.0343,36.2362,570.00,108.00,56.70,18.85,0.00,0.00,0.00,29.84,M,10.00,M,SCT,BKN,M,M,15000.00,22000.00,M,M,M,M,M,M,M,M,M,107.97,KLSV 032058Z 00000KT 10SM SCT150 BKN220 42/14 A2984 RMK AO2A SLPNO T04220137 57019 $,M
INS,2022-08-03 20:58,-115.6733,36.5872,955.00,97.00,51.80,21.91,0.00,0.00,0.00,29.95,1008.70,10.00,M,FEW,M,M,M,21000.00,M,M,M,M,M,M,M,M,M,M,94.33,KINS 032058Z AUTO 00000KT 10SM FEW210 36/11 A2995 RMK AO2 SLP087 T03610110 57016,M
CXP,2022-08-03 21:10,-119.7326,39.1923,1431.00,91.40,46.40,21.29,320.00,4.00,0.00,30.11,M,10.00,M,CLR,M,M,M,M,M,M,M,M,M,M,M,M,M,M,87.86,KCXP 032110Z AUTO 32004KT 10SM CLR 33/08 A3011 RMK AO2,M
RTS,2022-08-03 21:15,-119.8764,39.6682,1539.00,87.80,48.20,25.52,M,4.00,0.00,30.14,M,10.00,M,BKN,BKN,M,M,8000.00,9000.00,M,M,M,M,M,M,M,M,M,84.87,KRTS 032115Z AUTO VRB04KT 10SM BKN080 BKN090 31/09 A3014 RMK AO2,M
MEV,2022-08-03 21:15,-119.7500,38.9963,1441.42,87.80,48.20,25.52,270.00,4.00,0.00,30.10,M,10.00,M,CLR,M,M,M,M,M,M,M,M,M,M,M,M,M,M,84.87,KMEV 032115Z AUTO 27004KT 10SM CLR 31/09 A3010 RMK AO2,M
TMT,2022-08-03 21:15,-117.1971,39.4643,1749.34,M,M,M,250.00,7.00,0.00,30.18,M,10.00,M,CLR,M,M,M,M,M,M,M,M,M,M,M,M,M,M,M,KTMT 032115Z AUTO 25007KT 10SM CLR A3018 RMK AO2,M
BAM,2022-08-03 21:15,-116.8743,40.5990,1382.36,91.40,50.00,24.37,340.00,3.00,0.00,30.09,M,10.00,M,CLR,M,M,M,M,M,M,M,M,M,M,M,M,M,M,88.36,KBAM 032115Z AUTO 34003KT 10SM CLR 33/10 A3009 RMK AO1,M
BVU,2022-08-03 21:15,-114.8611,35.9475,671.00,102.20,53.60,20.00,160.00,5.00,0.00,29.87,M,M,M,M,M,M,M,M,M,M,M,M,M,M,M,M,M,M,100.38,KBVU 032115Z AUTO 16005KT 39/12 A2987 RMK AO2 PWINO TSNO,M
HTH,2022-08-03 21:15,-118.6315,38.5448,1282.89,91.40,46.40,21.29,0.00,0.00,0.00,30.06,M,10.00,M,CLR,M,M,M,M,M,M,M,M,M,M,M,M,M,M,87.86,KHTH 032115Z AUTO 00000KT 10SM CLR 33/08 A3006 RMK A01,M
05U,2022-08-03 21:15,-116.0051,39.6042,1811.23,M,M,M,M,M,0.00,M,M,M,M,M,M,M,M,M,M,M,M,M,M,M,M,M,M,M,M,K05U 032115Z AUTO RMK A01 PNO,M
CXP,2022-08-03 21:30,-119.7326,39.1923,1431.00,91.40,46.40,21.29,M,6.00,0.00,30.10,M,10.00,M,CLR,M,M,M,M,M,M,M,M,M,M,M,M,M,M,87.86,KCXP 032130Z AUTO VRB06KT 10SM CLR 33/08 A3010 RMK AO2,M
MEV,2022-08-03 21:35,-119.7500,38.9963,1441.42,89.60,50.00,25.79,230.00,6.00,0.00,30.09,M,10.00,M,CLR,M,M,M,M,M,M,M,M,M,M,M,M,M,M,86.70,KMEV 032135Z AUTO 23006KT 10SM CLR 32/10 A3009 RMK AO2,M
TMT,2022-08-03 21:35,-117.1971,39.4643,1749.34,M,M,M,310.00,5.00,0.00,30.16,M,10.00,M,SCT,M,M,M,12000.00,M,M,M,M,M,M,M,M,M,M,M,KTMT 032135Z AUTO 31005KT 10SM SCT120 A3016 RMK AO2 LTG DSNT SW,M
HTH,2022-08-03 21:35,-118.6315,38.5448,1282.89,93.20,46.40,20.13,0.00,0.00,0.00,30.04,M,10.00,12.00,CLR,M,M,M,M,M,M,M,M,M,M,M,M,M,M,89.55,KHTH 032135Z AUTO 00000G12KT 10SM CLR 34/08 A3004 RMK A01,M
BAM,2022-08-03 21:35,-116.8743,40.5990,1382.36,93.20,50.00,23.04,340.00,6.00,0.00,30.09,M,10.00,M,CLR,M,M,M,M,M,M,M,M,M,M,M,M,M,M,90.10,KBAM 032135Z AUTO 34006KT 10SM CLR 34/10 A3009 RMK AO1,M
05U,2022-08-03 21:35,-116.0051,39.6042,1811.23,M,M,M,M,M,0.00,M,M,M,M,M,M,M,M,M,M,M,M,M,M,M,M,M,M,M,M,K05U 032135Z AUTO RMK A01 PNO,M
RTS,2022-08-03 21:35,-119.8764,39.6682,1539.00,86.00,48.20,27.03,0.00,0.00,0.00,30.14,M,10.00,M,BKN,M,M,M,8000.00,M,M,M,M,M,M,M,M,M,M,83.40,KRTS 032135Z AUTO 00000KT 10SM BKN080 30/09 A3014 RMK AO2,M
BVU,2022-08-03 21:35,-114.8611,35.9475,671.00,104.00,51.80,17.74,M,5.00,0.00,29.86,M,M,14.00,M,M,M,M,M,M,M,M,M,M,M,M,M,M,M,101.69,KBVU 032135Z AUTO VRB05G14KT 40/11 A2986 RMK AO2 PWINO TSNO,M
CXP,2022-08-03 21:50,-119.7326,39.1923,1431.00,93.20,46.40,20.13,M,4.00,0.00,30.09,M,10.00,11.00,FEW,M,M,M,11000.00,M,M,M,M,M,M,M,M,M,M,89.55,KCXP 032150Z AUTO VRB04G11KT 10SM FEW110 34/08 A3009 RMK AO2,M
ELY,2022-08-03 21:53,-114.8453,39.2950,1909.00,83.00,47.00,28.43,160.00,18.00,0.00,30.22,1013.20,10.00,22.00,FEW,M,M,M,11000.00,M,M,M,M,M,M,M,M,M,M,81.01,KELY 032153Z AUTO 16018G22KT 10SM FEW110 28/08 A3022 RMK AO2 SLP132 T02830083,M
DRA,2022-08-03 21:53,-116.0278,36.6206,1009.00,101.00,50.00,18.21,230.00,12.00,0.00,29.95,1008.20,10.00,20.00,CLR,M,M,M,M,M,M,M,M,M,M,M,M,M,M,97.94,KDRA 032153Z AUTO 23012G20KT 10SM CLR 38/10 A2995 RMK AO2 SLP082 T03830100,M
VGT,2022-08-03 21:53,-115.1933,36.2111,667.00,105.00,55.00,19.31,150.00,8.00,0.00,29.85,1009.00,10.00,M,CLR,M,M,M,M,M,M,M,M,M,M,M,M,M,M,104.04,KVGT 032153Z 15008KT 10SM CLR 41/13 A2985 RMK AO2 SLP090 T04060128,M
LOL,2022-08-03 21:53,-118.5701,40.0684,1192.43,95.00,48.00,20.22,M,6.00,0.00,30.02,1011.40,10.00,M,CLR,M,M,M,M,M,M,M,M,M,M,M,M,M,M,91.53,KLOL 032153Z AUTO VRB06KT 10SM CLR 35/09 A3002 RMK AO2 SLP114 T03500089,M
BVU,2022-08-03 21:55,-114.8611,35.9475,671.00,105.80,51.80,16.82,270.00,7.00,0.00,29.85,M,M,13.00,M,M,M,M,M,M,M,M,M,M,M,M,M,M,M,103.57,KBVU 032155Z AUTO 27007G13KT 41/11 A2985 RMK AO2 PWINO TSNO,M
RNO,2022-08-03 21:55,-119.7711,39.4839,1341.00,95.00,52.00,23.47,0.00,0.00,0.00,30.06,1011.30,10.00,M,SCT,SCT,M,M,12000.00,22000.00,M,M,M,M,M,M,M,M,M,92.31,KRNO 032155Z 00000KT 10SM SCT120CB SCT220 35/11 A3006 RMK AO2 SLP113 CB NW MOV NE CB DSNT SE THRU S T03500111,M
MEV,2022-08-03 21:55,-119.7500,38.9963,1441.42,89.60,48.20,24.11,10.00,4.00,0.00,30.08,M,10.00,M,FEW,M,M,M,12000.00,M,M,M,M,M,M,M,M,M,M,86.44,KMEV 032155Z AUTO 01004KT 10SM FEW120 32/09 A3008 RMK AO2,M
BAM,2022-08-03 21:55,-116.8743,40.5990,1382.36,91.40,50.00,24.37,30.00,5.00,0.00,30.08,M,10.00,17.00,CLR,M,M,M,M,M,M,M,M,M,M,M,M,M,M,88.36,KBAM 032155Z AUTO 03005G17KT 10SM CLR 33/10 A3008 RMK AO1,M
TMT,2022-08-03 21:55,-117.1971,39.4643,1749.34,M,M,M,110.00,4.00,0.00,30.16,M,10.00,M,SCT,M,M,M,11000.00,M,M,M,VCTS,M,M,M,M,M,M,M,KTMT 032155Z AUTO 11004KT 10SM VCTS SCT110 A3016 RMK AO2 LTG DSNT SW,M
HTH,2022-08-03 21:55,-118.6315,38.5448,1282.89,93.20,46.40,20.13,300.00,9.00,0.00,30.04,M,9.00,M,CLR,M,M,M,M,M,M,M,M,M,M,M,M,M,M,89.55,KHTH 032155Z AUTO 30009KT 9SM CLR 34/08 A3004 RMK A01,M
RTS,2022-08-03 21:55,-119.8764,39.6682,1539.00,86.00,51.80,30.90,120.00,6.00,0.00,30.13,M,8.00,M,SCT,SCT,M,M,8000.00,10000.00,M,M,-RA,M,M,M,M,M,M,83.87,KRTS 032155Z AUTO 12006KT 8SM -RA SCT080 SCT100 30/11 A3013 RMK AO2,M
05U,2022-08-03 21:55,-116.0051,39.6042,1811.23,M,M,M,M,M,0.00,M,M,M,M,M,M,M,M,M,M,M,M,M,M,M,M,M,M,M,M,K05U 032155Z AUTO RMK A01 PNO,M
LAS,2022-08-03 21:56,-115.1634,36.0719,663.00,104.00,54.00,19.23,230.00,8.00,0.00,29.86,1007.90,10.00,M,FEW,SCT,M,M,10000.00,25000.00,M,M,M,M,M,M,M,M,M,102.46,KLAS 032156Z 23008KT 10SM FEW100 SCT250 40/12 A2986 RMK AO2 SLP079 CB DSNT NE-SE T04000122 $,M
HND,2022-08-03 21:56,-115.1344,35.9729,742.79,104.00,58.00,22.15,270.00,8.00,0.00,29.90,1010.30,10.00,M,CLR,M,M,M,M,M,M,M,M,M,M,M,M,M,M,104.13,KHND 032156Z 27008KT 10SM CLR 40/14 A2990 RMK AO2 SLP103 T04000144,M
WMC,2022-08-03 21:56,-117.8072,40.9019,1315.00,96.00,47.00,18.76,320.00,8.00,0.00,30.06,1012.10,10.00,17.00,SCT,SCT,M,M,10000.00,12000.00,M,M,M,M,M,M,M,M,M,92.44,KWMC 032156Z AUTO 32008G17KT 10SM SCT100 SCT120 36/08 A3006 RMK AO2 SLP121 T03560083,M
TPH,2022-08-03 21:56,-117.0904,38.0505,1654.00,90.00,47.00,22.67,270.00,7.00,0.00,30.13,1011.20,10.00,M,CLR,M,M,M,M,M,M,M,M,M,M,M,M,M,M,86.65,KTPH 032156Z AUTO 27007KT 10SM CLR 32/08 A3013 RMK AO2 SLP112 T03220083,M
EKO,2022-08-03 21:56,-115.7860,40.8242,1367.00,87.00,42.00,20.70,270.00,13.00,0.00,30.11,1013.30,10.00,20.00,CLR,M,M,M,M,M,M,M,M,M,M,M,M,M,M,83.79,KEKO 032156Z AUTO 27013G20KT 10SM CLR 31/06 A3011 RMK AO2 SLP133 T03060056,M
LSV,2022-08-03 21:58,-115.0343,36.2362,570.00,109.00,56.00,17.92,140.00,8.00,0.00,29.82,M,10.00,M,FEW,SCT,M,M,20000.00,25000.00,M,M,M,M,M,M,M,M,M,108.74,KLSV 032158Z 14008KT 10SM FEW200 SCT250 43/13 A2982 RMK AO2A SLPNO T04280134 $,M
INS,2022-08-03 21:58,-115.6733,36.5872,955.00,98.40,51.60,20.84,0.00,0.00,0.00,29.93,1008.00,10.00,M,CLR,M,M,M,M,M,M,M,M,M,M,M,M,M,M,95.74,KINS 032158Z AUTO 00000KT 10SM CLR 37/11 A2993 RMK AO2 SLP080 T03690109,M
CXP,2022-08-03 22:10,-119.7326,39.1923,1431.00,93.20,46.40,20.13,310.00,6.00,0.00,30.08,M,10.00,M,FEW,M,M,M,12000.00,M,M,M,M,M,M,M,M,M,M,89.55,KCXP 032210Z AUTO 31006KT 10SM FEW120 34/08 A3008 RMK AO2,M
HTH,2022-08-03 22:15,-118.6315,38.5448,1282.89,95.00,46.40,19.04,320.00,9.00,0.00,30.03,M,10.00,M,CLR,M,M,M,M,M,M,M,M,M,M,M,M,M,M,91.29,KHTH 032215Z AUTO 32009KT 10SM CLR 35/08 A3003 RMK A01,M
BVU,2022-08-03 22:15,-114.8611,35.9475,671.00,105.80,48.20,14.71,250.00,10.00,0.00,29.85,M,M,M,M,M,M,M,M,M,M,M,M,M,M,M,M,M,M,102.45,KBVU 032215Z AUTO 25010KT 41/09 A2985 RMK AO2 PWINO TSNO,M
RTS,2022-08-03 22:15,-119.8764,39.6682,1539.00,87.80,48.20,25.52,100.00,5.00,0.00,30.13,M,10.00,M,FEW,M,M,M,9000.00,M,M,M,M,M,M,M,M,M,M,84.87,KRTS 032215Z AUTO 10005KT 10SM FEW090 31/09 A3013 RMK AO2,M
05U,2022-08-03 22:15,-116.0051,39.6042,1811.23,M,M,M,M,M,0.00,M,M,M,M,M,M,M,M,M,M,M,M,M,M,M,M,M,M,M,M,K05U 032215Z AUTO RMK A01 PNO,M
MEV,2022-08-03 22:15,-119.7500,38.9963,1441.42,89.60,50.00,25.79,170.00,9.00,0.00,30.08,M,10.00,M,FEW,M,M,M,12000.00,M,M,M,M,M,M,M,M,M,M,86.70,KMEV 032215Z AUTO 17009KT 10SM FEW120 32/10 A3008 RMK AO2,M
TMT,2022-08-03 22:15,-117.1971,39.4643,1749.34,M,M,M,220.00,17.00,0.00,30.18,M,10.00,21.00,SCT,M,M,M,11000.00,M,M,M,M,M,M,M,M,M,M,M,KTMT 032215Z AUTO 22017G21KT 10SM SCT110 A3018 RMK AO2 LTG DSNT SE AND S,M
BAM,2022-08-03 22:15,-116.8743,40.5990,1382.36,91.40,50.00,24.37,330.00,6.00,0.00,30.08,M,10.00,M,CLR,M,M,M,M,M,M,M,M,M,M,M,M,M,M,88.36,KBAM 032215Z AUTO 33006KT 10SM CLR 33/10 A3008 RMK AO1,M
CXP,2022-08-03 22:30,-119.7326,39.1923,1431.00,93.20,46.40,20.13,190.00,6.00,0.00,30.08,M,10.00,M,CLR,M,M,M,M,M,M,M,M,M,M,M,M,M,M,89.55,KCXP 032230Z AUTO 19006KT 10SM CLR 34/08 A3008 RMK AO2 LTG DSNT S,M
05U,2022-08-03 22:30,-116.0051,39.6042,1811.23,M,M,M,M,M,0.00,M,M,M,M,M,M,M,M,M,M,M,M,M,M,M,M,M,M,M,M,K05U 032230Z AUTO RMK A01 PNO,M
BVU,2022-08-03 22:35,-114.8611,35.9475,671.00,104.00,46.40,14.50,0.00,0.00,0.00,29.84,M,M,10.00,M,M,M,M,M,M,M,M,M,M,M,M,M,M,M,100.21,KBVU 032235Z AUTO 00000G10KT 40/08 A2984 RMK AO2 PWINO TSNO,M
RTS,2022-08-03 22:35,-119.8764,39.6682,1539.00,89.60,48.20,24.11,M,6.00,0.00,30.12,M,10.00,M,SCT,M,M,M,9000.00,M,M,M,M,M,M,M,M,M,M,86.44,KRTS 032235Z AUTO VRB06KT 10SM SCT090 32/09 A3012 RMK AO2,M
MEV,2022-08-03 22:35,-119.7500,38.9963,1441.42,93.20,48.20,21.54,190.00,6.00,0.00,30.07,M,10.00,M,CLR,M,M,M,M,M,M,M,M,M,M,M,M,M,M,89.80,KMEV 032235Z AUTO 19006KT 10SM CLR 34/09 A3007 RMK AO2 LTG DSNT S,M
HTH,2022-08-03 22:35,-118.6315,38.5448,1282.89,95.00,44.60,17.78,340.00,7.00,0.00,30.02,M,10.00,14.00,CLR,M,M,M,M,M,M,M,M,M,M,M,M,M,M,91.06,KHTH 032235Z AUTO 34007G14KT 10SM CLR 35/07 A3002 RMK A01,M
BAM,2022-08-03 22:35,-116.8743,40.5990,1382.36,91.40,50.00,24.37,350.00,7.00,0.00,30.07,M,10.00,M,CLR,M,M,M,M,M,M,M,M,M,M,M,M,M,M,88.36,KBAM 032235Z AUTO 35007KT 310V010 10SM CLR 33/10 A3007 RMK AO1,M
TMT,2022-08-03 22:35,-117.1971,39.4643,1749.34,M,M,M,190.00,14.00,0.00,30.18,M,10.00,21.00,SCT,SCT,BKN,M,4500.00,6000.00,10000.00,M,-RA,M,M,M,M,M,M,M,KTMT 032235Z AUTO 19014G21KT 10SM -RA SCT045 SCT060 BKN100 A3018 RMK AO2 LTG DSNT W,M
CXP,2022-08-03 22:50,-119.7326,39.1923,1431.00,93.20,44.60,18.80,210.00,8.00,0.00,30.07,M,10.00,M,CLR,M,M,M,M,M,M,M,M,M,M,M,M,M,M,89.34,KCXP 032250Z AUTO 21008KT 10SM CLR 34/07 A3007 RMK AO2,M
DRA,2022-08-03 22:53,-116.0278,36.6206,1009.00,101.00,50.00,18.21,240.00,8.00,0.00,29.93,1007.50,10.00,18.00,CLR,M,M,M,M,M,M,M,M,M,M,M,M,M,M,97.94,KDRA 032253Z AUTO 24008G18KT 10SM CLR 38/10 A2993 RMK AO2 SLP075 T03830100,M
LOL,2022-08-03 22:53,-118.5701,40.0684,1192.43,95.00,46.00,18.76,M,5.00,0.00,30.00,1010.80,10.00,15.00,CLR,M,M,M,M,M,M,M,M,M,M,M,M,M,M,91.23,KLOL 032253Z AUTO VRB05G15KT 10SM CLR 35/08 A3000 RMK AO2 SLP108 T03500078,M
ELY,2022-08-03 22:53,-114.8453,39.2950,1909.00,79.00,53.00,40.67,170.00,8.00,T,30.21,1013.60,10.00,M,FEW,BKN,M,M,2500.00,10000.00,M,M,M,M,M,M,29.00,150.00,2022-08-03 21:54,79.00,KELY 032253Z AUTO 17008KT 10SM FEW025 BKN100 26/12 A3021 RMK AO2 PK WND 15029/2154 LTG DSNT SW RAB07E53 SLP136 P0000 T02610117,M
VGT,2022-08-03 22:53,-115.1933,36.2111,667.00,106.00,52.00,16.84,M,3.00,0.00,29.83,1008.20,10.00,M,CLR,M,M,M,M,M,M,M,M,M,M,M,M,M,M,103.85,KVGT 032253Z VRB03KT 10SM CLR 41/11 A2983 RMK AO2 SLP082 T04110111,M
05U,2022-08-03 22:55,-116.0051,39.6042,1811.23,M,M,M,M,M,0.00,M,M,M,M,M,M,M,M,M,M,M,M,M,M,M,M,M,M,M,M,K05U 032255Z AUTO RMK A01 PNO,M
BVU,2022-08-03 22:55,-114.8611,35.9475,671.00,104.00,48.20,15.52,210.00,6.00,0.00,29.84,M,M,M,M,M,M,M,M,M,M,M,M,M,M,M,M,M,M,100.65,KBVU 032255Z AUTO 21006KT 40/09 A2984 RMK AO2 PWINO TSNO,M
RTS,2022-08-03 22:55,-119.8764,39.6682,1539.00,89.60,46.40,22.53,M,5.00,0.00,30.11,M,10.00,10.00,BKN,M,M,M,8500.00,M,M,M,M,M,M,M,M,M,M,86.24,KRTS 032255Z AUTO VRB05G10KT 10SM BKN085 32/08 A3011 RMK AO2,M
MEV,2022-08-03 22:55,-119.7500,38.9963,1441.42,93.20,46.40,20.13,M,6.00,0.00,30.07,M,10.00,12.00,CLR,M,M,M,M,M,M,M,M,M,M,M,M,M,M,89.55,KMEV 032255Z AUTO VRB06G12KT 10SM CLR 34/08 A3007 RMK AO2 LTG DSNT S AND SW,M
BAM,2022-08-03 22:55,-116.8743,40.5990,1382.36,93.20,50.00,23.04,320.00,6.00,0.00,30.07,M,10.00,M,CLR,M,M,M,M,M,M,M,M,M,M,M,M,M,M,90.10,KBAM 032255Z AUTO 32006KT 10SM CLR 34/10 A3007 RMK AO1,M
HTH,2022-08-03 22:55,-118.6315,38.5448,1282.89,95.00,42.80,16.60,320.00,9.00,0.00,30.01,M,10.00,15.00,CLR,M,M,M,M,M,M,M,M,M,M,M,M,M,M,90.86,KHTH 032255Z AUTO 32009G15KT 10SM CLR 35/06 A3001 RMK A01,M
TMT,2022-08-03 22:55,-117.1971,39.4643,1749.34,M,M,M,170.00,8.00,0.00,30.18,M,10.00,M,SCT,SCT,SCT,M,5000.00,7000.00,10000.00,M,M,M,M,M,M,M,M,M,KTMT 032255Z AUTO 17008KT 10SM SCT050 SCT070 SCT100 A3018 RMK AO2 LTG DSNT S,M
RNO,2022-08-03 22:55,-119.7711,39.4839,1341.00,97.00,50.00,20.49,M,6.00,0.00,30.03,1010.30,10.00,M,SCT,BKN,M,M,12000.00,25000.00,M,M,M,M,M,M,M,M,M,93.91,KRNO 032255Z VRB06KT 10SM SCT120TCU BKN250 36/10 A3003 RMK AO2 SLP103 CB DSNT SE THRU S TCU W THRU N T03610100,M
WMC,2022-08-03 22:56,-117.8072,40.9019,1315.00,95.00,45.00,18.06,30.00,9.00,0.00,30.04,1011.50,10.00,15.00,SCT,M,M,M,11000.00,M,M,M,M,M,M,M,M,M,M,91.10,KWMC 032256Z AUTO 03009G15KT 360V070 10SM SCT110 35/07 A3004 RMK AO2 SLP115 T03500072,M
TPH,2022-08-03 22:56,-117.0904,38.0505,1654.00,89.00,46.00,22.54,200.00,3.00,0.00,30.11,1010.70,10.00,M,FEW,M,M,M,9500.00,M,M,M,M,M,M,M,M,M,M,85.76,KTPH 032256Z AUTO 20003KT 10SM FEW095 32/08 A3011 RMK AO2 SLP107 T03170078,M
LAS,2022-08-03 22:56,-115.1634,36.0719,663.00,104.00,55.00,19.95,180.00,7.00,0.00,29.84,1007.20,10.00,M,FEW,SCT,M,M,10000.00,25000.00,M,M,M,M,M,M,M,M,M,102.85,KLAS 032256Z 18007KT 10SM FEW100CB SCT250 40/13 A2984 RMK AO2 SLP072 CB SE AND DSNT W-N-NE T04000128 $,M
EKO,2022-08-03 22:56,-115.7860,40.8242,1367.00,88.00,41.00,19.28,250.00,13.00,0.00,30.09,1012.80,10.00,21.00,CLR,M,M,M,M,M,M,M,M,M,M,M,M,M,M,84.46,KEKO 032256Z AUTO 25013G21KT 10SM CLR 31/05 A3009 RMK AO2 SLP128 T03110050,M
NFL,2022-08-03 22:56,-118.7010,39.4166,1199.00,96.00,46.00,18.13,M,4.00,0.00,30.00,1012.80,10.00,M,SCT,SCT,M,M,8000.00,12000.00,M,M,M,M,M,M,M,M,M,92.30,KNFL 032256Z VRB04KT 10SM SCT080 SCT120 36/08 A3000 RMK AO2 SLP128 CB DSNT E AND SW T03560078,M
HND,2022-08-03 22:56,-115.1344,35.9729,742.79,101.00,58.00,24.31,250.00,8.00,0.00,29.89,1010.00,10.00,M,CLR,M,M,M,M,M,M,M,M,M,M,M,M,M,M,100.63,KHND 032256Z 25008KT 10SM CLR 38/14 A2989 RMK AO2 SLP100 T03830144,M
LSV,2022-08-03 22:58,-115.0343,36.2362,570.00,110.50,54.00,15.89,0.00,0.00,0.00,29.80,M,10.00,M,CLR,M,M,M,M,M,M,M,M,M,M,M,M,M,M,109.31,KLSV 032258Z 00000KT 10SM CLR 44/12 A2980 RMK AO2A SLPNO T04360122 $,M
INS,2022-08-03 22:58,-115.6733,36.5872,955.00,97.70,49.80,19.91,0.00,0.00,0.00,29.91,1007.30,10.00,M,CLR,M,M,M,M,M,M,M,M,M,M,M,M,M,M,94.59,KINS 032258Z AUTO 00000KT 10SM CLR 37/10 A2991 RMK AO2 SLP073 T03650099,M
CXP,2022-08-03 23:10,-119.7326,39.1923,1431.00,93.20,44.60,18.80,M,3.00,0.00,30.07,M,10.00,M,CLR,M,M,M,M,M,M,M,M,M,M,M,M,M,M,89.34,KCXP 032310Z AUTO VRB03KT 10SM CLR 34/07 A3007 RMK AO2,M
HTH,2022-08-03 23:15,-118.6315,38.5448,1282.89,95.00,42.80,16.60,320.00,11.00,0.00,30.00,M,10.00,M,CLR,M,M,M,M,M,M,M,M,M,M,M,M,M,M,90.86,KHTH 032315Z AUTO 32011KT 10SM CLR 35/06 A3000 RMK A01,M
TMT,2022-08-03 23:15,-117.1971,39.4643,1749.34,M,M,M,150.00,6.00,0.00,30.16,M,10.00,M,SCT,M,M,M,11000.00,M,M,M,VCTS,M,M,M,M,M,M,M,KTMT 032315Z AUTO 15006KT 10SM VCTS SCT110 A3016 RMK AO2 LTG DSNT W AND NW,M
BAM,2022-08-03 23:15,-116.8743,40.5990,1382.36,95.00,48.20,20.38,340.00,8.00,0.00,30.05,M,10.00,M,CLR,M,M,M,M,M,M,M,M,M,M,M,M,M,M,91.56,KBAM 032315Z AUTO 34008KT 10SM CLR 35/09 A3005 RMK AO1,M
MEV,2022-08-03 23:15,-119.7500,38.9963,1441.42,91.40,46.40,21.29,230.00,5.00,0.00,30.07,M,10.00,M,FEW,M,M,M,11000.00,M,M,M,M,M,M,M,M,M,M,87.86,KMEV 032315Z AUTO 23005KT 10SM FEW110 33/08 A3007 RMK AO2 LTG DSNT S AND SW,M
05U,2022-08-03 23:15,-116.0051,39.6042,1811.23,M,M,M,M,M,0.00,M,M,M,M,M,M,M,M,M,M,M,M,M,M,M,M,M,M,M,M,K05U 032315Z AUTO RMK A01 PNO,M
RTS,2022-08-03 23:15,-119.8764,39.6682,1539.00,89.60,48.20,24.11,M,6.00,0.00,30.10,M,10.00,M,FEW,M,M,M,8500.00,M,M,M,M,M,M,M,M,M,M,86.44,KRTS 032315Z AUTO VRB06KT 10SM FEW085 32/09 A3010 RMK AO2,M
BVU,2022-08-03 23:15,-114.8611,35.9475,671.00,102.20,55.40,21.36,190.00,13.00,0.00,29.84,M,M,M,M,M,M,M,M,M,M,M,M,M,M,M,M,M,M,101.04,KBVU 032315Z AUTO 19013KT 39/13 A2984 RMK AO2 PWINO TSNO,M
CXP,2022-08-03 23:30,-119.7326,39.1923,1431.00,95.00,44.60,17.78,M,6.00,0.00,30.07,M,10.00,14.00,CLR,M,M,M,M,M,M,M,M,M,M,M,M,M,M,91.06,KCXP 032330Z AUTO VRB06G14KT 10SM CLR 35/07 A3007 RMK AO2,M
BAM,2022-08-03 23:35,-116.8743,40.5990,1382.36,95.00,48.20,20.38,20.00,5.00,0.00,30.05,M,10.00,8.00,CLR,M,M,M,M,M,M,M,M,M,M,M,M,M,M,91.56,KBAM 032335Z AUTO 02005G08KT 10SM CLR 35/09 A3005 RMK AO1,M
HTH,2022-08-03 23:35,-118.6315,38.5448,1282.89,95.00,42.80,16.60,320.00,11.00,0.00,30.00,M,10.00,16.00,CLR,M,M,M,M,M,M,M,M,M,M,M,M,M,M,90.86,KHTH 032335Z AUTO 32011G16KT 10SM CLR 35/06 A3000 RMK A01,M
BVU,2022-08-03 23:35,-114.8611,35.9475,671.00,104.00,53.60,18.95,220.00,11.00,0.00,29.83,M,M,18.00,M,M,M,M,M,M,M,M,M,M,M,M,M,M,M,102.31,KBVU 032335Z AUTO 22011G18KT 40/12 A2983 RMK AO2 PWINO TSNO,M
MEV,2022-08-03 23:35,-119.7500,38.9963,1441.42,82.40,53.60,37.07,170.00,18.00,0.00,30.07,M,10.00,M,FEW,M,M,M,11000.00,M,M,M,M,M,M,M,M,M,M,81.46,KMEV 032335Z AUTO 17018KT 10SM FEW110 28/12 A3007 RMK AO2 LTG DSNT S AND W,M
RTS,2022-08-03 23:35,-119.8764,39.6682,1539.00,89.60,46.40,22.53,260.00,9.00,0.00,30.10,M,10.00,14.00,CLR,M,M,M,M,M,M,M,M,M,M,M,M,M,M,86.24,KRTS 032335Z AUTO 26009G14KT 190V310 10SM CLR 32/08 A3010 RMK AO2,M
05U,2022-08-03 23:35,-116.0051,39.6042,1811.23,M,M,M,M,M,0.00,M,M,M,M,M,M,M,M,M,M,M,M,M,M,M,M,M,M,M,M,K05U 032335Z AUTO RMK A01 PNO,M
TMT,2022-08-03 23:35,-117.1971,39.4643,1749.34,M,M,M,0.00,0.00,0.00,30.16,M,10.00,M,SCT,M,M,M,12000.00,M,M,M,VCTS,M,M,M,M,M,M,M,KTMT 032335Z AUTO 00000KT 10SM VCTS SCT120 A3016 RMK AO2 LTG DSNT NE AND NW,M
CXP,2022-08-03 23:50,-119.7326,39.1923,1431.00,93.20,44.60,18.80,M,4.00,0.00,30.06,M,10.00,M,CLR,M,M,M,M,M,M,M,M,M,M,M,M,M,M,89.34,KCXP 032350Z AUTO VRB04KT 10SM CLR 34/07 A3006 RMK AO2,M
DRA,2022-08-03 23:53,-116.0278,36.6206,1009.00,101.00,49.00,17.48,250.00,11.00,0.00,29.91,1007.00,10.00,17.00,FEW,M,M,M,10000.00,M,M,M,M,M,M,M,M,M,M,97.67,KDRA 032353Z AUTO 25011G17KT 10SM FEW100 38/09 A2991 RMK AO2 SLP070 T03830094 10394 20350 56016,M
LOL,2022-08-03 23:53,-118.5701,40.0684,1192.43,96.00,46.00,18.13,240.00,5.00,0.00,29.97,1010.10,10.00,M,CLR,M,M,M,M,M,M,M,M,M,M,M,M,M,M,92.30,KLOL 032353Z AUTO 24005KT 10SM CLR 36/08 A2997 RMK AO2 SLP101 T03560078 10361 20306 58023,M
ELY,2022-08-03 23:53,-114.8453,39.2950,1909.00,79.00,48.00,33.66,300.00,8.00,0.00,30.22,1013.60,10.00,17.00,OVC,M,M,M,10000.00,M,M,M,M,M,M,M,M,M,M,79.00,KELY 032353Z AUTO 30008G17KT 10SM OVC100 26/09 A3022 RMK AO2 SLP136 60000 T02610089 10317 20256 53000,M
VGT,2022-08-03 23:53,-115.1933,36.2111,667.00,106.00,52.00,16.84,130.00,5.00,0.00,29.81,1007.70,10.00,M,CLR,M,M,M,M,M,M,M,M,M,M,M,M,M,M,103.85,KVGT 032353Z 13005KT 10SM CLR 41/11 A2981 RMK AO2 SLP077 T04110111 10417 20361 56018,M
BAM,2022-08-03 23:55,-116.8743,40.5990,1382.36,95.00,48.20,20.38,20.00,5.00,0.00,30.04,M,10.00,M,CLR,M,M,M,M,M,M,M,M,M,M,M,M,M,M,91.56,KBAM 032355Z AUTO 02005KT 10SM CLR 35/09 A3004 RMK AO1,M
BVU,2022-08-03 23:55,-114.8611,35.9475,671.00,102.20,55.40,21.36,190.00,13.00,0.00,29.83,M,M,20.00,M,M,M,M,M,M,M,M,M,M,M,M,M,M,M,101.04,KBVU 032355Z AUTO 19013G20KT 39/13 A2983 RMK AO2 PWINO TSNO,M
TMT,2022-08-03 23:55,-117.1971,39.4643,1749.34,M,M,M,0.00,0.00,0.00,30.16,M,10.00,M,CLR,M,M,M,M,M,M,M,M,M,M,M,M,M,M,M,KTMT 032355Z AUTO 00000KT 10SM CLR A3016 RMK AO2 LTG DSNT NE AND NW,M
HTH,2022-08-03 23:55,-118.6315,38.5448,1282.89,93.20,44.60,18.80,310.00,12.00,0.00,30.00,M,10.00,M,CLR,M,M,M,M,M,M,M,M,M,M,M,M,M,M,89.34,KHTH 032355Z AUTO 31012KT 10SM CLR 34/07 A3000 RMK A01,M
RNO,2022-08-03 23:55,-119.7711,39.4839,1341.00,94.00,51.00,23.48,60.00,6.00,0.00,30.03,1010.30,10.00,M,SCT,BKN,M,M,9000.00,25000.00,M,M,M,M,M,M,M,M,M,91.00,KRNO 032355Z 06006KT 10SM SCT090TCU BKN250 34/11 A3003 RMK AO2 SLP103 CB DSNT NW THRU N AND DSNT S TCU ALQDS T03440106 10361 20289 56015,M
MEV,2022-08-03 23:55,-119.7500,38.9963,1441.42,77.00,59.00,53.80,170.00,16.00,0.00,30.08,M,10.00,M,CLR,M,M,M,M,M,M,M,M,M,M,M,M,M,M,77.00,KMEV 032355Z AUTO 17016KT 10SM CLR 25/15 A3008 RMK AO2 LTG DSNT S AND SW,M
05U,2022-08-03 23:55,-116.0051,39.6042,1811.23,M,M,M,M,M,0.00,M,M,M,M,M,M,M,M,M,M,M,M,M,M,M,M,M,M,M,M,K05U 032355Z AUTO RMK A01 PNO,M
RTS,2022-08-03 23:55,-119.8764,39.6682,1539.00,91.40,46.40,21.29,230.00,9.00,0.00,30.10,M,10.00,M,CLR,M,M,M,M,M,M,M,M,M,M,M,M,M,M,87.86,KRTS 032355Z AUTO 23009KT 10SM CLR 33/08 A3010 RMK AO2,M
LAS,2022-08-03 23:56,-115.1634,36.0719,663.00,104.00,54.00,19.23,230.00,6.00,0.00,29.83,1006.80,10.00,M,FEW,SCT,M,M,10000.00,25000.00,M,M,M,M,M,M,M,M,M,102.46,KLAS 032356Z 23006KT 10SM FEW100CB SCT250 40/12 A2983 RMK AO2 SLP068 CB OHD-E-S AND DSNT NW-NE-SE VCSH SE T04000122 10411 20350 56018 $,M
WMC,2022-08-03 23:56,-117.8072,40.9019,1315.00,96.00,45.00,17.46,300.00,4.00,0.00,30.02,1011.00,10.00,16.00,CLR,M,M,M,M,M,M,M,M,M,M,M,M,M,M,92.17,KWMC 032356Z AUTO 30004G16KT 10SM CLR 36/07 A3002 RMK AO2 SLP110 T03560072 10361 20294 58018,M
TPH,2022-08-03 23:56,-117.0904,38.0505,1654.00,90.00,45.00,21.10,0.00,0.00,0.00,30.09,1010.10,10.00,M,CLR,M,M,M,M,M,M,M,M,M,M,M,M,M,M,86.45,KTPH 032356Z AUTO 00000KT 10SM CLR 32/07 A3009 RMK AO2 SLP101 T03220072 10339 20283 56016,M
HND,2022-08-03 23:56,-115.1344,35.9729,742.79,103.00,58.00,22.89,240.00,9.00,0.00,29.87,1009.50,10.00,M,CLR,M,M,M,M,M,M,M,M,M,M,M,M,M,M,102.89,KHND 032356Z 24009KT 10SM CLR 39/14 A2987 RMK AO2 SLP095 T03940144 10406 20350 56015,M
NFL,2022-08-03 23:56,-118.7010,39.4166,1199.00,96.00,44.00,16.87,10.00,5.00,0.00,29.98,1012.50,10.00,M,FEW,FEW,FEW,M,8000.00,12000.00,25000.00,M,M,M,M,M,M,M,M,92.05,KNFL 032356Z 01005KT 10SM FEW080 FEW120 FEW250 36/07 A2998 RMK AO2 SLP125 CB DSNT E-SE AND SW T03560067 10367 20294 56019,M
EKO,2022-08-03 23:56,-115.7860,40.8242,1367.00,87.00,42.00,20.70,230.00,6.00,0.00,30.07,1012.30,10.00,19.00,CLR,M,M,M,M,M,M,M,M,M,M,M,M,M,M,83.79,KEKO 032356Z AUTO 23006G19KT 10SM CLR 31/06 A3007 RMK AO2 SLP123 T03060056 10311 20261 57015,M
LSV,2022-08-03 23:58,-115.0343,36.2362,570.00,108.00,48.40,13.89,160.00,5.00,0.00,29.78,M,10.00,M,CLR,M,M,M,M,M,M,M,M,M,M,M,M,M,M,104.68,KLSV 032358Z 16005KT 10SM CLR 42/09 A2978 RMK AO2A SLPNO T04220091 10437 20387 57018 $,M
INS,2022-08-03 23:58,-115.6733,36.5872,955.00,95.40,54.00,24.95,190.00,10.00,0.00,29.90,1007.10,10.00,M,BKN,BKN,M,M,20000.00,22000.00,M,M,M,M,M,M,M,M,M,93.23,KINS 032358Z AUTO 19010KT 10SM BKN200 BKN220 35/12 A2990 RMK AO2 LTG DSNT W SLP071 T03520122 10376 20336 57014,M
