station,valid,lon,lat,elevation,tmpf,dwpf,relh,drct,sknt,p01i,alti,mslp,vsby,gust,skyc1,skyc2,skyc3,skyc4,skyl1,skyl2,skyl3,skyl4,wxcodes,ice_accretion_1hr,ice_accretion_3hr,ice_accretion_6hr,peak_wind_gust,peak_wind_drct,peak_wind_time,feel,metar,snowdepth
HND,2023-06-12 00:06,-115.1344,35.9729,742.79,77.00,42.80,29.51,270.00,11.00,0.00,29.77,M,10.00,M,CLR,M,M,M,M,M,M,M,M,M,M,M,M,M,M,77.00,KHND 120006Z 27011KT 10SM CLR 25/06 A2977 RMK AO2 TSB2358E2359B04E06,M
LOL,2023-06-12 00:06,-118.5701,40.0684,1192.43,69.00,42.00,37.50,250.00,16.00,0.00,29.80,M,10.00,28.00,BKN,OVC,M,M,8000.00,10000.00,M,M,M,M,M,M,28.00,230.00,2023-06-12 00:00,69.10,KLOL 120006Z AUTO 25016G28KT 10SM BKN080 OVC100 21/06 A2980 RMK AO2 PK WND 23028/0000 LTG DSNT E-SW TSE2359B00E01B02E05 T02060056,M
LOL,2023-06-12 00:08,-118.5701,40.0684,1192.43,68.00,42.00,38.94,250.00,17.00,0.00,29.80,M,10.00,26.00,OVC,M,M,M,8000.00,M,M,M,TS,M,M,M,28.00,230.00,2023-06-12 00:00,68.00,KLOL 120008Z AUTO 25017G26KT 10SM TS OVC080 20/06 A2980 RMK AO2 PK WND 23028/0000 LTG DSNT ALQDS TSE2359B00E01B02E05B08 T02000056,M
HND,2023-06-12 00:09,-115.1344,35.9729,742.79,78.80,42.80,27.81,270.00,9.00,0.00,29.77,M,10.00,M,CLR,M,M,M,M,M,M,M,M,M,M,M,M,M,M,78.80,KHND 120009Z 27009KT 10SM CLR 26/06 A2977 RMK AO2 TSB2358E2359B04E06B07E09,M
05U,2023-06-12 00:10,-116.0051,39.6042,1811.23,55.40,44.60,66.91,30.00,8.00,0.00,30.02,M,10.00,M,BKN,BKN,M,M,6000.00,7000.00,M,M,M,M,M,M,M,M,M,55.40,K05U 120010Z AUTO 03008KT 10SM BKN060 BKN070 13/07 A3002 RMK A01,M
HND,2023-06-12 00:11,-115.1344,35.9729,742.79,78.80,42.80,27.81,270.00,15.00,0.00,29.77,M,10.00,19.00,FEW,M,M,M,11000.00,M,M,M,M,M,M,M,M,M,M,78.80,KHND 120011Z 27015G19KT 10SM FEW110 26/06 A2977 RMK AO2 TSB2358E2359B04E06B07E09B10E11,M
BVU,2023-06-12 00:15,-114.8611,35.9475,671.00,82.40,33.80,17.38,250.00,15.00,0.00,29.73,M,10.00,M,CLR,M,M,M,M,M,M,M,M,M,M,M,M,M,M,80.03,KBVU 120015Z AUTO 25015KT 10SM CLR 28/01 A2973 RMK AO2 LTG DSNT W-NE,M
CXP,2023-06-12 00:15,-119.7326,39.1923,1431.00,66.20,44.60,45.60,230.00,7.00,0.00,29.90,M,10.00,17.00,OVC,M,M,M,6000.00,M,M,M,VCTS,M,M,M,M,M,M,66.20,KCXP 120015Z AUTO 23007G17KT 10SM VCTS OVC060 19/07 A2990 RMK AO2 LTG DSNT ALQDS,M
RTS,2023-06-12 00:15,-119.8764,39.6682,1539.00,69.80,44.60,40.29,10.00,8.00,0.00,29.90,M,10.00,M,CLR,M,M,M,M,M,M,M,M,M,M,M,M,M,M,69.80,KRTS 120015Z AUTO 01008KT 10SM CLR 21/07 A2990 RMK AO2,M
MEV,2023-06-12 00:15,-119.7500,38.9963,1441.42,57.20,51.80,82.12,230.00,5.00,0.00,29.92,M,0.50,12.00,BKN,BKN,OVC,M,500.00,900.00,1600.00,M,-TSRA HZ,M,M,M,M,M,M,57.20,KMEV 120015Z AUTO 23005G12KT 1/2SM -TSRA HZ BKN005 BKN009 OVC016 14/11 A2992 RMK AO2 LTG DSNT ALQDS,M
BAM,2023-06-12 00:15,-116.8743,40.5990,1382.36,66.20,42.80,42.57,70.00,14.00,0.00,29.89,M,10.00,M,OVC,M,M,M,10000.00,M,M,M,M,M,M,M,M,M,M,66.20,KBAM 120015Z AUTO 07014KT 10SM OVC100 19/06 A2989 RMK AO1,M
HTH,2023-06-12 00:15,-118.6315,38.5448,1282.89,59.00,44.60,58.77,180.00,25.00,0.00,29.93,M,9.00,34.00,OVC,M,M,M,6000.00,M,M,M,M,M,M,M,M,M,M,59.00,KHTH 120015Z AUTO 18025G34KT 9SM OVC060 15/07 A2993 RMK A01,M
TMT,2023-06-12 00:15,-117.1971,39.4643,1749.34,51.00,48.40,90.43,200.00,15.00,0.00,30.02,M,10.00,M,SCT,BKN,OVC,M,2700.00,6000.00,7000.00,M,-RA,M,M,M,M,M,M,51.10,KTMT 120015Z AUTO 20015KT 10SM -RA SCT027 BKN060 OVC070 11/09 A3002 RMK AO2 LTG DSNT ALQS T01060091,M
HND,2023-06-12 00:26,-115.1344,35.9729,742.79,75.20,42.80,31.34,220.00,25.00,0.00,29.77,M,10.00,29.00,BKN,M,M,M,10000.00,M,M,M,M,M,M,M,29.00,210.00,2023-06-12 00:26,75.20,KHND 120026Z 22025G29KT 10SM BKN100 24/06 A2977 RMK AO2 PK WND 21029/0026 LTG DSNT SE TSB2358E2359B04E06B07E09B10E11B14E17B18E20B22E26,M
HND,2023-06-12 00:28,-115.1344,35.9729,742.79,75.20,42.80,31.34,220.00,20.00,0.00,29.78,M,10.00,29.00,BKN,M,M,M,10000.00,M,M,M,M,M,M,M,29.00,210.00,2023-06-12 00:26,75.20,KHND 120028Z 22020G29KT 10SM BKN100 24/06 A2978 RMK AO2 PK WND 21029/0026 TSB2358E2359B04E06B07E09B10E11B14E17B18E20B22E26B27E28,M
05U,2023-06-12 00:30,-116.0051,39.6042,1811.23,57.20,44.60,62.69,20.00,6.00,0.00,30.01,M,10.00,12.00,FEW,FEW,FEW,M,6000.00,7000.00,11000.00,M,M,M,M,M,M,M,M,57.20,K05U 120030Z AUTO 02006G12KT 10SM FEW060 FEW070 FEW110 14/07 A3001 RMK A01,M
BVU,2023-06-12 00:35,-114.8611,35.9475,671.00,80.60,37.40,21.25,220.00,10.00,0.00,29.75,M,10.00,M,BKN,M,M,M,10000.00,M,M,M,VCTS,M,M,M,M,M,M,79.02,KBVU 120035Z AUTO 22010KT 10SM VCTS BKN100 27/03 A2975 RMK AO2 LTG DSNT SE AND W,M
CXP,2023-06-12 00:35,-119.7326,39.1923,1431.00,64.40,44.60,48.55,210.00,8.00,0.00,29.91,M,10.00,M,BKN,BKN,OVC,M,6500.00,9000.00,12000.00,M,VCTS,M,M,M,M,M,M,64.40,KCXP 120035Z AUTO 21008KT 10SM VCTS BKN065 BKN090 OVC120 18/07 A2991 RMK AO2 LTG DSNT ALQDS,M
HND,2023-06-12 00:35,-115.1344,35.9729,742.79,73.40,42.80,33.29,220.00,19.00,0.00,29.78,M,10.00,26.00,BKN,M,M,M,10000.00,M,M,M,M,M,M,M,29.00,210.00,2023-06-12 00:26,73.40,KHND 120035Z 22019G26KT 10SM BKN100 23/06 A2978 RMK AO2 PK WND 21029/0026 LTG DSNT E TSB2358E2359B04E06B07E09B10E11B14E17B18E20B22E26B27E28B33E35,M
RTS,2023-06-12 00:35,-119.8764,39.6682,1539.00,68.00,44.60,42.85,360.00,7.00,0.00,29.91,M,10.00,M,CLR,M,M,M,M,M,M,M,M,M,M,M,M,M,M,68.00,KRTS 120035Z AUTO 36007KT 10SM CLR 20/07 A2991 RMK AO2,M
MEV,2023-06-12 00:35,-119.7500,38.9963,1441.42,57.20,50.00,76.82,260.00,11.00,0.00,29.92,M,2.00,16.00,FEW,SCT,BKN,M,600.00,1500.00,6000.00,M,VCTS RA HZ,M,M,M,M,M,M,57.20,KMEV 120035Z AUTO 26011G16KT 2SM VCTS RA HZ FEW006 SCT015 BKN060 14/10 A2992 RMK AO2 LTG DSNT ALQDS VIS 1V5,M
BAM,2023-06-12 00:35,-116.8743,40.5990,1382.36,62.60,46.40,55.37,50.00,16.00,0.00,29.88,M,10.00,24.00,OVC,M,M,M,10000.00,M,M,M,M,M,M,M,M,M,M,62.60,KBAM 120035Z AUTO 05016G24KT 10SM OVC100 17/08 A2988 RMK AO1,M
HTH,2023-06-12 00:35,-118.6315,38.5448,1282.89,59.00,46.40,62.92,190.00,15.00,0.00,29.95,M,10.00,22.00,BKN,OVC,M,M,6500.00,7000.00,M,M,M,M,M,M,M,M,M,59.00,KHTH 120035Z AUTO 19015G22KT 10SM BKN065 OVC070 15/08 A2995 RMK A01,M
TMT,2023-06-12 00:35,-117.1971,39.4643,1749.34,51.00,47.80,89.08,200.00,12.00,0.00,30.02,M,10.00,M,SCT,SCT,OVC,M,2800.00,3300.00,6000.00,M,-RA,M,M,M,M,M,M,50.90,KTMT 120035Z AUTO 20012KT 10SM -RA SCT028 SCT033 OVC060 11/09 A3002 RMK AO2 LTG DSNT N AND NW T01050088,M
ELY,2023-06-12 00:42,-114.8453,39.2950,1909.00,48.00,45.00,89.29,40.00,16.00,0.02,30.00,M,10.00,M,FEW,FEW,M,M,8000.00,11000.00,M,M,M,M,M,M,M,M,M,41.27,KELY 120042Z AUTO 04016KT 10SM FEW080 FEW110 09/07 A3000 RMK AO2 WSHFT 0022 RAE32 P0002 T00890072,M
HND,2023-06-12 00:44,-115.1344,35.9729,742.79,73.40,41.00,31.05,220.00,20.00,0.00,29.79,M,10.00,25.00,SCT,M,M,M,10000.00,M,M,M,M,M,M,M,29.00,210.00,2023-06-12 00:26,73.40,KHND 120044Z 22020G25KT 10SM SCT100 23/05 A2979 RMK AO2 PK WND 21029/0026 TSB2358E2359B04E06B07E09B10E11B14E17B18E20B22E26B27E28B33E35B 43E4 4,M
LOL,2023-06-12 00:47,-118.5701,40.0684,1192.43,62.60,46.40,55.37,M,5.00,T,29.85,M,10.00,M,OVC,M,M,M,8000.00,M,M,M,M,M,M,M,32.00,280.00,2023-06-12 00:14,62.60,KLOL 120047Z AUTO VRB05KT 10SM OVC080 17/08 A2985 RMK AO2 PK WND 28032/0014 LTG DSNT ALQDS RAB15E24 TSE2359B00E01B02E05B08E10B11E20B21E31B32E36B37E46 PRESRR P0000,M
HTH,2023-06-12 00:50,-118.6315,38.5448,1282.89,60.80,44.60,55.12,170.00,20.00,0.00,29.95,M,10.00,M,BKN,OVC,M,M,6500.00,7500.00,M,M,M,M,M,M,M,M,M,60.80,KHTH 120050Z AUTO 17020KT 10SM BKN065 OVC075 16/07 A2995 RMK A01,M
05U,2023-06-12 00:50,-116.0051,39.6042,1811.23,57.20,44.60,62.69,360.00,4.00,0.00,29.99,M,10.00,M,FEW,M,M,M,11000.00,M,M,M,M,M,M,M,M,M,M,57.20,K05U 120050Z AUTO 36004KT 10SM FEW110 14/07 A2999 RMK A01,M
DRA,2023-06-12 00:53,-116.0278,36.6206,1009.00,76.00,39.00,26.42,230.00,16.00,0.00,29.79,1004.50,10.00,28.00,SCT,M,M,M,11000.00,M,M,M,M,M,M,M,37.00,210.00,2023-06-12 00:07,75.90,KDRA 120053Z AUTO 23016G28KT 10SM SCT110 24/04 A2979 RMK AO2 PK WND 21037/0007 SLP045 T02440039,M
LOL,2023-06-12 00:53,-118.5701,40.0684,1192.43,64.00,47.00,53.72,160.00,13.00,T,29.86,1009.00,9.00,M,OVC,M,M,M,8500.00,M,M,M,M,M,M,M,32.00,280.00,2023-06-12 00:14,64.00,KLOL 120053Z AUTO 16013KT 9SM OVC085 18/08 A2986 RMK AO2 PK WND 28032/0014 LTG DSNT ALQDS RAB15E24 TSE2359B00E01B02E05B08E10B11E20B21E31B32E36B37E46B48E51 SLP090 P0000 T01780083,M
P68,2023-06-12 00:53,-116.0056,39.6014,1993.00,56.00,44.00,64.47,360.00,5.00,0.00,29.96,1010.10,M,M,M,M,M,M,M,M,M,M,M,M,M,M,M,M,M,55.90,KP68 120053Z AUTO 36005KT 13/07 A2996 RMK AO1 SLP101 T01330067 $,M
ELY,2023-06-12 00:53,-114.8453,39.2950,1909.00,49.00,44.00,83.42,30.00,12.00,0.02,30.01,1012.10,10.00,22.00,CLR,M,M,M,M,M,M,M,M,M,M,M,M,M,M,43.51,KELY 120053Z AUTO 03012G22KT 10SM CLR 09/07 A3001 RMK AO2 WSHFT 0022 RAE32 SLP121 P0002 T00940067,M
VGT,2023-06-12 00:53,-115.1933,36.2111,667.00,83.00,35.00,18.01,220.00,17.00,0.00,29.72,1006.00,10.00,M,CLR,M,M,M,M,M,M,M,M,M,M,M,30.00,230.00,2023-06-12 00:21,80.41,KVGT 120053Z 22017KT 10SM CLR 28/02 A2972 RMK AO2 PK WND 23030/0021 SLP060 T02830017,M
BVU,2023-06-12 00:55,-114.8611,35.9475,671.00,75.20,42.80,31.34,290.00,16.00,0.00,29.77,M,10.00,M,OVC,M,M,M,9500.00,M,M,M,M,M,M,M,M,M,M,75.20,KBVU 120055Z AUTO 29016KT 10SM OVC095 24/06 A2977 RMK AO2 LTG DSNT NW,M
CXP,2023-06-12 00:55,-119.7326,39.1923,1431.00,60.80,48.20,63.15,180.00,12.00,0.00,29.94,M,8.00,21.00,FEW,BKN,OVC,M,5500.00,6500.00,9500.00,M,-TSRA,M,M,M,M,M,M,60.80,KCXP 120055Z AUTO 18012G21KT 8SM -TSRA FEW055 BKN065 OVC095 16/09 A2994 RMK AO2 LTG DSNT ALQDS,M
INS,2023-06-12 00:55,-115.6733,36.5872,955.00,78.80,31.60,17.89,250.00,22.00,0.00,29.75,1003.30,10.00,M,SCT,M,M,M,10000.00,M,M,M,M,M,M,M,28.00,270.00,2023-06-12 00:48,78.80,KINS 120055Z AUTO 25022KT 10SM SCT100 26/M00 A2975 RMK AO2 PK WND 27028/48 SLP033 T02601002 $,M
RNO,2023-06-12 00:55,-119.7711,39.4839,1341.00,70.00,45.00,40.63,300.00,18.00,0.00,29.86,1007.30,10.00,25.00,FEW,SCT,BKN,OVC,6000.00,7500.00,12000.00,16000.00,M,M,M,M,M,M,M,70.00,KRNO 120055Z 30018G25KT 10SM FEW060 SCT075CB BKN120 OVC160 21/07 A2986 RMK AO2 WSHFT 0039 LTG DSNT E AND S SLP073 VIRGA CB N AND E AND SW MOV W CB DSNT ALQDS CLDS TPG MTNS DSNT SW T02110072,M
RTS,2023-06-12 00:55,-119.8764,39.6682,1539.00,68.00,44.60,42.85,10.00,5.00,0.00,29.92,M,10.00,M,CLR,M,M,M,M,M,M,M,M,M,M,M,M,M,M,68.00,KRTS 120055Z AUTO 01005KT 10SM CLR 20/07 A2992 RMK AO2,M
MEV,2023-06-12 00:55,-119.7500,38.9963,1441.42,57.20,48.20,71.83,320.00,7.00,0.00,29.94,M,8.00,M,SCT,OVC,M,M,6000.00,7500.00,M,M,VCTS RA,M,M,M,M,M,M,57.20,KMEV 120055Z AUTO 32007KT 8SM VCTS RA SCT060 OVC075 14/09 A2994 RMK AO2 LTG DSNT ALQDS,M
BAM,2023-06-12 00:55,-116.8743,40.5990,1382.36,64.40,44.60,48.55,70.00,10.00,0.00,29.89,M,10.00,19.00,OVC,M,M,M,10000.00,M,M,M,M,M,M,M,M,M,M,64.40,KBAM 120055Z AUTO 07010G19KT 10SM OVC100 18/07 A2989 RMK AO1,M
LSV,2023-06-12 00:55,-115.0343,36.2362,570.00,85.00,35.40,16.98,190.00,15.00,0.00,29.69,1003.20,10.00,M,BKN,M,M,M,15000.00,M,M,M,M,M,M,M,M,M,M,82.00,KLSV 120055Z 19015KT 10SM BKN150 30/02 A2969 RMK AO2A SLP032 T02950019 $,M
TMT,2023-06-12 00:55,-117.1971,39.4643,1749.34,50.20,47.00,88.38,210.00,8.00,0.01,30.03,M,10.00,M,OVC,M,M,M,6000.00,M,M,M,DZ,M,M,M,M,M,M,50.20,KTMT 120055Z AUTO 21008KT 10SM DZ OVC060 10/08 A3003 RMK AO2 P0001 T01010083,M
EKO,2023-06-12 00:56,-115.7860,40.8242,1367.00,60.00,48.00,64.26,110.00,6.00,0.00,29.93,1010.40,10.00,M,CLR,M,M,M,M,M,M,M,M,M,M,M,M,M,M,60.10,KEKO 120056Z AUTO 11006KT 10SM CLR 16/09 A2993 RMK AO2 SLP104 T01560089,M
NFL,2023-06-12 00:56,-118.7010,39.4166,1199.00,66.00,41.00,39.99,120.00,18.00,0.00,29.88,1009.20,10.00,26.00,BKN,BKN,OVC,M,7000.00,9000.00,12000.00,M,M,M,M,M,27.00,130.00,2023-06-12 00:36,66.00,KNFL 120056Z AUTO 12018G26KT 10SM BKN070 BKN090 OVC120 19/05 A2988 RMK AO2 PK WND 13027/0036 PRESRR SLP092 T01890050,M
TPH,2023-06-12 00:56,-117.0904,38.0505,1654.00,61.00,41.00,47.66,360.00,19.00,0.00,29.93,1008.90,10.00,27.00,BKN,M,M,M,10000.00,M,M,M,M,M,M,M,33.00,360.00,2023-06-12 00:04,61.00,KTPH 120056Z AUTO 36019G27KT 10SM BKN100 16/05 A2993 RMK AO2 PK WND 36033/0004 SLP089 T01610050,M
WMC,2023-06-12 00:56,-117.8072,40.9019,1315.00,73.00,42.00,32.84,130.00,13.00,0.00,29.83,1007.00,10.00,18.00,FEW,M,M,M,8500.00,M,M,M,M,M,M,M,33.00,10.00,2023-06-12 00:26,73.00,KWMC 120056Z AUTO 13013G18KT 10SM FEW085 23/06 A2983 RMK AO2 PK WND 01033/0026 LTG DSNT S SLP070 T02280056,M
LOL,2023-06-12 00:56,-118.5701,40.0684,1192.43,64.00,47.00,53.72,160.00,13.00,0.00,29.86,M,9.00,M,OVC,M,M,M,8500.00,M,M,M,TS,M,M,M,M,M,M,64.00,KLOL 120056Z AUTO 16013KT 9SM TS OVC085 18/08 A2986 RMK AO2 LTG DSNT ALQDS TSB56 T01780083,M
HND,2023-06-12 00:56,-115.1344,35.9729,742.79,74.00,42.00,31.86,210.00,20.00,0.00,29.78,1008.00,10.00,30.00,FEW,M,M,M,10000.00,M,M,M,M,M,M,M,30.00,230.00,2023-06-12 00:48,73.90,KHND 120056Z 21020G30KT 10SM FEW100 23/06 A2978 RMK AO2 PK WND 23030/0048 LTG DSNT E TSB2358E2359B04E06B07E09B10E11B14E17B18E20B22E26B27E28B33E35B 43E4 4 SLP080 T02330056,M
LAS,2023-06-12 00:56,-115.1634,36.0719,663.00,78.00,38.00,23.53,190.00,15.00,0.00,29.75,1005.20,10.00,23.00,FEW,SCT,BKN,M,10000.00,14000.00,25000.00,M,M,M,M,M,26.00,270.00,2023-06-12 00:09,78.10,KLAS 120056Z 19015G23KT 10SM FEW100 SCT140 BKN250 26/03 A2975 RMK AO2 PK WND 27026/0009 LTG DSNT SE SLP052 T02560033,M
WMC,2023-06-12 01:03,-117.8072,40.9019,1315.00,71.00,44.00,37.81,M,4.00,0.00,29.86,M,10.00,M,FEW,M,M,M,8500.00,M,M,M,VCTS,M,M,M,M,M,M,71.10,KWMC 120103Z AUTO VRB04KT 10SM VCTS FEW085 22/07 A2986 RMK AO2 LTG DSNT S-W PRESRR T02170067,M
05U,2023-06-12 01:10,-116.0051,39.6042,1811.23,55.40,42.80,62.46,10.00,3.00,0.00,30.01,M,10.00,M,FEW,M,M,M,10000.00,M,M,M,M,M,M,M,M,M,M,55.40,K05U 120110Z AUTO 01003KT 10SM FEW100 13/06 A3001 RMK A01,M
LOL,2023-06-12 01:11,-118.5701,40.0684,1192.43,61.00,51.00,69.86,140.00,10.00,0.02,29.88,M,5.00,M,FEW,BKN,OVC,M,6500.00,9000.00,11000.00,M,RA,M,M,M,M,M,M,61.00,KLOL 120111Z AUTO 14010KT 5SM RA FEW065 BKN090 OVC110 16/11 A2988 RMK AO2 LTG DSNT ALQDS RAB01 TSB0056E0057B0059E00B01E03B04E05 P0002 T01610106,M
BVU,2023-06-12 01:15,-114.8611,35.9475,671.00,75.20,42.80,31.34,280.00,9.00,0.00,29.78,M,10.00,18.00,FEW,SCT,BKN,M,5500.00,6500.00,9500.00,M,M,M,M,M,M,M,M,75.20,KBVU 120115Z AUTO 28009G18KT 10SM FEW055 SCT065 BKN095 24/06 A2978 RMK AO2 LTG DSNT N AND SW,M
CXP,2023-06-12 01:15,-119.7326,39.1923,1431.00,57.20,50.00,76.82,0.00,0.00,0.00,29.95,M,3.00,M,SCT,BKN,OVC,M,3800.00,6500.00,7500.00,M,-TSRA HZ,M,M,M,M,M,M,57.20,KCXP 120115Z AUTO 00000KT 3SM -TSRA HZ SCT038 BKN065 OVC075 14/10 A2995 RMK AO2 LTG DSNT ALQDS,M
RTS,2023-06-12 01:15,-119.8764,39.6682,1539.00,66.20,44.60,45.60,260.00,6.00,0.00,29.92,M,10.00,M,CLR,M,M,M,M,M,M,M,M,M,M,M,M,M,M,66.20,KRTS 120115Z AUTO 26006KT 10SM CLR 19/07 A2992 RMK AO2,M
MEV,2023-06-12 01:15,-119.7500,38.9963,1441.42,55.40,48.20,76.66,300.00,9.00,0.00,29.94,M,9.00,22.00,FEW,BKN,OVC,M,2600.00,7000.00,8000.00,M,-TSRA,M,M,M,M,M,M,55.40,KMEV 120115Z AUTO 30009G22KT 270V330 9SM -TSRA FEW026 BKN070 OVC080 13/09 A2994 RMK AO2 LTG DSNT ALQDS,M
BAM,2023-06-12 01:15,-116.8743,40.5990,1382.36,64.40,44.60,48.55,90.00,6.00,0.00,29.91,M,10.00,M,OVC,M,M,M,10000.00,M,M,M,M,M,M,M,M,M,M,64.40,KBAM 120115Z AUTO 09006KT 10SM OVC100 18/07 A2991 RMK AO1,M
HTH,2023-06-12 01:15,-118.6315,38.5448,1282.89,60.80,46.40,59.01,240.00,14.00,0.00,29.95,M,10.00,M,FEW,FEW,FEW,M,7000.00,8000.00,12000.00,M,M,M,M,M,M,M,M,60.80,KHTH 120115Z AUTO 24014KT 10SM FEW070 FEW080 FEW120 16/08 A2995 RMK A01,M
TMT,2023-06-12 01:15,-117.1971,39.4643,1749.34,50.00,47.30,90.39,180.00,5.00,0.00,30.03,M,10.00,M,SCT,BKN,OVC,M,6000.00,7000.00,8000.00,M,-DZ,M,M,M,M,M,M,50.00,KTMT 120115Z AUTO 18005KT 10SM -DZ SCT060 BKN070 OVC080 10/09 A3003 RMK AO2 LTG DSNT W THRU NE T01000085,M
05U,2023-06-12 01:30,-116.0051,39.6042,1811.23,57.20,42.80,58.52,20.00,3.00,0.00,30.01,M,10.00,M,CLR,M,M,M,M,M,M,M,M,M,M,M,M,M,M,57.20,K05U 120130Z AUTO 02003KT 10SM CLR 14/06 A3001 RMK A01,M
BVU,2023-06-12 01:35,-114.8611,35.9475,671.00,75.20,42.80,31.34,290.00,9.00,0.00,29.78,M,10.00,M,FEW,FEW,SCT,M,5500.00,6500.00,11000.00,M,M,M,M,M,M,M,M,75.20,KBVU 120135Z AUTO 29009KT 10SM FEW055 FEW065 SCT110 24/06 A2978 RMK AO2,M
CXP,2023-06-12 01:35,-119.7326,39.1923,1431.00,57.20,48.20,71.83,260.00,5.00,0.00,29.95,M,6.00,M,SCT,BKN,OVC,M,4500.00,6000.00,7000.00,M,-RA HZ,M,M,M,M,M,M,57.20,KCXP 120135Z AUTO 26005KT 6SM -RA HZ SCT045 BKN060 OVC070 14/09 A2995 RMK AO2 LTG DSNT ALQDS,M
RTS,2023-06-12 01:35,-119.8764,39.6682,1539.00,66.20,46.40,48.83,250.00,7.00,0.00,29.92,M,10.00,M,SCT,SCT,M,M,6000.00,7000.00,M,M,M,M,M,M,M,M,M,66.20,KRTS 120135Z AUTO 25007KT 10SM SCT060 SCT070 19/08 A2992 RMK AO2,M
MEV,2023-06-12 01:35,-119.7500,38.9963,1441.42,55.40,51.80,87.65,60.00,9.00,0.00,29.96,M,10.00,M,BKN,OVC,M,M,6500.00,8000.00,M,M,VCTS,M,M,M,M,M,M,55.40,KMEV 120135Z AUTO 06009KT 10SM VCTS BKN065 OVC080 13/11 A2996 RMK AO2 LTG DSNT ALQDS,M
BAM,2023-06-12 01:35,-116.8743,40.5990,1382.36,66.20,44.60,45.60,160.00,5.00,0.00,29.91,M,10.00,M,OVC,M,M,M,10000.00,M,M,M,M,M,M,M,M,M,M,66.20,KBAM 120135Z AUTO 16005KT 10SM OVC100 19/07 A2991 RMK AO1,M
HTH,2023-06-12 01:35,-118.6315,38.5448,1282.89,60.80,42.80,51.45,M,3.00,0.00,29.94,M,10.00,16.00,CLR,M,M,M,M,M,M,M,M,M,M,M,M,M,M,60.80,KHTH 120135Z AUTO VRB03G16KT 10SM CLR 16/06 A2994 RMK A01,M
TMT,2023-06-12 01:35,-117.1971,39.4643,1749.34,51.00,47.30,87.42,200.00,7.00,0.00,30.02,M,10.00,M,BKN,OVC,M,M,9000.00,11000.00,M,M,M,M,M,M,M,M,M,50.90,KTMT 120135Z AUTO 20007KT 10SM BKN090 OVC110 11/09 A3002 RMK AO2 LTG DSNT N T01050085,M
WMC,2023-06-12 01:37,-117.8072,40.9019,1315.00,65.00,45.00,48.44,M,6.00,T,29.94,M,10.00,21.00,BKN,OVC,M,M,6000.00,7500.00,M,M,M,M,M,M,34.00,40.00,2023-06-12 01:08,64.90,KWMC 120137Z AUTO VRB06G21KT 10SM BKN060 OVC075 18/07 A2994 RMK AO2 PK WND 04034/0108 LTG DSNT S AND SW RAB16E25 P0000 T01830072,M
05U,2023-06-12 01:50,-116.0051,39.6042,1811.23,57.20,42.80,58.52,30.00,5.00,0.00,30.01,M,10.00,M,CLR,M,M,M,M,M,M,M,M,M,M,M,M,M,M,57.20,K05U 120150Z AUTO 03005KT 10SM CLR 14/06 A3001 RMK A01,M
VGT,2023-06-12 01:53,-115.1933,36.2111,667.00,79.00,41.00,25.78,200.00,19.00,0.00,29.75,1007.10,10.00,28.00,CLR,M,M,M,M,M,M,M,M,M,M,M,32.00,220.00,2023-06-12 01:37,79.00,KVGT 120153Z 20019G28KT 10SM CLR 26/05 A2975 RMK AO2 PK WND 22032/0137 SLP071 T02610050,M
LOL,2023-06-12 01:53,-118.5701,40.0684,1192.43,58.00,52.00,80.67,150.00,8.00,0.04,29.92,1011.40,5.00,M,OVC,M,M,M,8000.00,M,M,M,-RA,M,M,M,M,M,M,57.90,KLOL 120153Z AUTO 15008KT 5SM -RA OVC080 14/11 A2992 RMK AO2 LTG DSNT N RAB01 TSB0056E0057B0059E00B01E03B04E05B25E27B35E36B52E53 SLP114 P0004 T01440111,M
DRA,2023-06-12 01:53,-116.0278,36.6206,1009.00,72.00,42.00,33.97,310.00,14.00,0.00,29.82,1005.80,10.00,20.00,CLR,M,M,M,M,M,M,M,M,M,M,M,M,M,M,72.00,KDRA 120153Z AUTO 31014G20KT 10SM CLR 22/06 A2982 RMK AO2 SLP058 T02220056,M
ELY,2023-06-12 01:53,-114.8453,39.2950,1909.00,48.00,44.00,86.28,10.00,12.00,0.00,30.03,1012.70,10.00,M,CLR,M,M,M,M,M,M,M,M,M,M,M,M,M,M,42.37,KELY 120153Z AUTO 01012KT 10SM CLR 09/07 A3003 RMK AO2 SLP127 T00890067,M
P68,2023-06-12 01:53,-116.0056,39.6014,1993.00,56.00,44.00,64.47,250.00,6.00,0.00,29.98,1010.60,M,M,M,M,M,M,M,M,M,M,M,M,M,M,M,M,M,55.90,KP68 120153Z AUTO 25006KT 13/07 A2998 RMK AO1 SLP106 T01330067 $,M
BVU,2023-06-12 01:55,-114.8611,35.9475,671.00,75.20,41.00,29.23,290.00,6.00,0.00,29.78,M,10.00,M,FEW,M,M,M,11000.00,M,M,M,M,M,M,M,M,M,M,75.20,KBVU 120155Z AUTO 29006KT 10SM FEW110 24/05 A2978 RMK AO2,M
CXP,2023-06-12 01:55,-119.7326,39.1923,1431.00,57.20,48.20,71.83,0.00,0.00,0.04,29.96,M,5.00,M,FEW,BKN,OVC,M,4400.00,6000.00,7000.00,M,VCTS RA HZ,M,M,M,M,M,M,57.20,KCXP 120155Z AUTO 00000KT 5SM VCTS RA HZ FEW044 BKN060 OVC070 14/09 A2996 RMK AO2 LTG DSNT ALQDS P0004,M
LSV,2023-06-12 01:55,-115.0343,36.2362,570.00,80.00,37.80,21.95,140.00,18.00,0.00,29.72,1004.40,10.00,M,SCT,M,M,M,12000.00,M,M,M,M,M,M,M,26.00,160.00,2023-06-12 01:11,78.84,KLSV 120155Z 14018KT 10SM SCT120 27/03 A2972 RMK AO2A PK WND 16026/11 SLP044 T02670032 $,M
RTS,2023-06-12 01:55,-119.8764,39.6682,1539.00,64.40,44.60,48.55,270.00,14.00,0.00,29.93,M,10.00,M,BKN,BKN,BKN,M,6000.00,8000.00,10000.00,M,M,M,M,M,M,M,M,64.40,KRTS 120155Z AUTO 27014KT 10SM BKN060 BKN080 BKN100 18/07 A2993 RMK AO2,M
MEV,2023-06-12 01:55,-119.7500,38.9963,1441.42,55.40,50.00,81.99,M,3.00,0.00,29.96,M,6.00,M,FEW,SCT,BKN,M,3500.00,4600.00,5000.00,M,-TSRA HZ,M,M,M,M,M,M,55.40,KMEV 120155Z AUTO VRB03KT 6SM -TSRA HZ FEW035 SCT046 BKN050 13/10 A2996 RMK AO2 LTG DSNT ALQDS,M
BAM,2023-06-12 01:55,-116.8743,40.5990,1382.36,68.00,42.80,40.00,50.00,4.00,0.00,29.93,M,10.00,M,SCT,OVC,M,M,7500.00,9000.00,M,M,M,M,M,M,M,M,M,68.00,KBAM 120155Z AUTO 05004KT 10SM SCT075 OVC090 20/06 A2993 RMK AO1,M
HTH,2023-06-12 01:55,-118.6315,38.5448,1282.89,62.60,41.00,45.04,M,4.00,0.00,29.93,M,10.00,M,CLR,M,M,M,M,M,M,M,M,M,M,M,M,M,M,62.60,KHTH 120155Z AUTO VRB04KT 10SM CLR 17/05 A2993 RMK A01,M
INS,2023-06-12 01:55,-115.6733,36.5872,955.00,75.40,35.00,23.04,260.00,15.00,0.00,29.79,1004.70,10.00,M,FEW,M,M,M,11000.00,M,M,M,M,M,M,M,29.00,240.00,2023-06-12 00:58,75.40,KINS 120155Z AUTO 26015KT 10SM FEW110 24/02 A2979 RMK AO2 PK WND 24029/0058 SLP047 T02410017 $,M
RNO,2023-06-12 01:55,-119.7711,39.4839,1341.00,67.00,42.00,40.45,260.00,11.00,0.00,29.90,1008.70,10.00,M,FEW,BKN,BKN,BKN,5500.00,7000.00,9500.00,13000.00,M,M,M,M,26.00,300.00,2023-06-12 01:13,66.90,KRNO 120155Z 26011KT 10SM FEW055 BKN070CB BKN095 BKN130 OVC160 19/06 A2990 RMK AO2 PK WND 30026/0113 WSHFT 0042 LTG DSNT SE-SW SLP087 VIRGA CB NE THRU E MOV SW CB DSNT ALQDS CLDS TPG MTNS DSNT SW SH DSNT SE THRU SW T01940056,M
TMT,2023-06-12 01:55,-117.1971,39.4643,1749.34,51.00,47.00,86.76,200.00,5.00,0.00,30.02,M,10.00,M,SCT,M,M,M,9000.00,M,M,M,M,M,M,M,M,M,M,50.90,KTMT 120155Z AUTO 20005KT 10SM SCT090 11/08 A3002 RMK AO2 LTG DSNT NW T01050084,M
LAS,2023-06-12 01:56,-115.1634,36.0719,663.00,76.00,39.00,26.42,200.00,14.00,0.00,29.77,1006.20,10.00,22.00,FEW,SCT,BKN,M,11000.00,14000.00,25000.00,M,M,M,M,M,M,M,M,75.90,KLAS 120156Z 20014G22KT 10SM FEW110 SCT140 BKN250 24/04 A2977 RMK AO2 SLP062 VIRGA VC SE T02440039,M
HND,2023-06-12 01:56,-115.1344,35.9729,742.79,73.00,42.00,32.84,210.00,13.00,0.00,29.81,1008.90,10.00,21.00,FEW,BKN,M,M,3700.00,10000.00,M,M,M,M,M,M,29.00,190.00,2023-06-12 01:21,73.00,KHND 120156Z 21013G21KT 10SM FEW037 BKN100 23/06 A2981 RMK AO2 PK WND 19029/0121 SLP089 T02280056,M
EKO,2023-06-12 01:56,-115.7860,40.8242,1367.00,60.00,49.00,66.46,170.00,4.00,0.00,29.98,1011.80,10.00,M,FEW,SCT,OVC,M,3100.00,7000.00,9000.00,M,M,M,M,M,M,M,M,60.10,KEKO 120156Z AUTO 17004KT 10SM FEW031 SCT070 OVC090 16/09 A2998 RMK AO2 SLP118 T01560094,M
WMC,2023-06-12 01:56,-117.8072,40.9019,1315.00,58.00,51.00,78.03,190.00,9.00,0.01,29.95,1012.00,7.00,18.00,FEW,BKN,OVC,M,5000.00,6500.00,8500.00,M,-RA,M,M,M,34.00,40.00,2023-06-12 01:08,57.90,KWMC 120156Z AUTO 19009G18KT 7SM -RA FEW050 BKN065 OVC085 14/11 A2995 RMK AO2 PK WND 04034/0108 RAB16E25B39 SLP120 P0001 T01440106,M
NFL,2023-06-12 01:56,-118.7010,39.4166,1199.00,60.00,51.00,72.13,280.00,3.00,0.05,29.94,1011.30,5.00,M,OVC,M,M,M,7000.00,M,M,M,-RA,M,M,M,M,M,M,60.10,KNFL 120156Z AUTO 28003KT 5SM -RA OVC070 16/11 A2994 RMK AO2 RAB07 PRESRR SLP113 P0005 T01560106,M
TPH,2023-06-12 01:56,-117.0904,38.0505,1654.00,56.00,47.00,71.69,210.00,14.00,0.00,29.97,1010.20,10.00,19.00,FEW,SCT,OVC,M,3600.00,5500.00,7000.00,M,M,M,M,M,29.00,350.00,2023-06-12 00:57,55.90,KTPH 120156Z AUTO 21014G19KT 10SM FEW036 SCT055 OVC070 13/08 A2997 RMK AO2 PK WND 35029/0057 SLP102 T01330083,M
05U,2023-06-12 02:10,-116.0051,39.6042,1811.23,55.40,44.60,66.91,20.00,6.00,0.00,30.01,M,10.00,M,CLR,M,M,M,M,M,M,M,M,M,M,M,M,M,M,55.40,K05U 120210Z AUTO 02006KT 10SM CLR 13/07 A3001 RMK A01,M
RNO,2023-06-12 02:14,-119.7711,39.4839,1341.00,67.00,42.00,40.45,270.00,10.00,0.00,29.91,M,10.00,17.00,FEW,BKN,BKN,BKN,5500.00,7000.00,9500.00,13000.00,TS,M,M,M,M,M,M,66.90,KRNO 120214Z 27010G17KT 10SM TS FEW055 BKN070CB BKN095 BKN130 OVC160 19/06 A2991 RMK AO2 LTG DSNT N AND SE TSB13 OCNL LTGIC NW TS NW MOV SW VIRGA CB NE THRU E MOV SW CB DSNT ALQDS CLDS TPG MTNS DSNT SW SH DSNT SW T01940056,M
BVU,2023-06-12 02:15,-114.8611,35.9475,671.00,75.20,41.00,29.23,210.00,6.00,0.00,29.78,M,10.00,M,CLR,M,M,M,M,M,M,M,M,M,M,M,M,M,M,75.20,KBVU 120215Z AUTO 21006KT 10SM CLR 24/05 A2978 RMK AO2,M
CXP,2023-06-12 02:15,-119.7326,39.1923,1431.00,57.20,48.20,71.83,0.00,0.00,0.00,29.97,M,2.50,M,SCT,SCT,OVC,M,4100.00,5000.00,6000.00,M,VCTS RA HZ,M,M,M,M,M,M,57.20,KCXP 120215Z AUTO 00000KT 2 1/2SM VCTS RA HZ SCT041 SCT050 OVC060 14/09 A2997 RMK AO2 LTG DSNT ALQDS VIS 1 3/4V5,M
RTS,2023-06-12 02:15,-119.8764,39.6682,1539.00,60.80,41.00,48.00,250.00,18.00,0.00,29.96,M,10.00,24.00,BKN,OVC,M,M,5500.00,6500.00,M,M,M,M,M,M,M,M,M,60.80,KRTS 120215Z AUTO 25018G24KT 10SM BKN055 OVC065 16/05 A2996 RMK AO2,M
MEV,2023-06-12 02:15,-119.7500,38.9963,1441.42,53.60,51.80,93.60,150.00,4.00,0.00,29.97,M,7.00,M,FEW,SCT,OVC,M,3700.00,4400.00,6000.00,M,-RA,M,M,M,M,M,M,53.60,KMEV 120215Z AUTO 15004KT 7SM -RA FEW037 SCT044 OVC060 12/11 A2997 RMK AO2 LTG DSNT NW-E,M
BAM,2023-06-12 02:15,-116.8743,40.5990,1382.36,62.60,48.20,59.26,40.00,7.00,0.00,29.95,M,10.00,M,SCT,OVC,M,M,7500.00,9000.00,M,M,M,M,M,M,M,M,M,62.60,KBAM 120215Z AUTO 04007KT 10SM SCT075 OVC090 17/09 A2995 RMK AO1,M
HTH,2023-06-12 02:15,-118.6315,38.5448,1282.89,60.80,44.60,55.12,150.00,12.00,0.00,29.93,M,10.00,M,CLR,M,M,M,M,M,M,M,M,M,M,M,M,M,M,60.80,KHTH 120215Z AUTO 15012KT 10SM CLR 16/07 A2993 RMK A01,M
TMT,2023-06-12 02:15,-117.1971,39.4643,1749.34,51.30,47.00,84.85,220.00,6.00,0.00,30.01,M,10.00,M,SCT,M,M,M,8500.00,M,M,M,M,M,M,M,M,M,M,51.30,KTMT 120215Z AUTO 22006KT 10SM SCT085 11/08 A3001 RMK AO2 T01070083,M
05U,2023-06-12 02:30,-116.0051,39.6042,1811.23,53.60,44.60,71.45,10.00,10.00,0.00,30.02,M,10.00,16.00,FEW,M,M,M,12000.00,M,M,M,M,M,M,M,M,M,M,53.60,K05U 120230Z AUTO 01010G16KT 10SM FEW120 12/07 A3002 RMK A01,M
BVU,2023-06-12 02:35,-114.8611,35.9475,671.00,75.20,39.20,27.26,0.00,0.00,0.00,29.79,M,10.00,M,CLR,M,M,M,M,M,M,M,M,M,M,M,M,M,M,75.20,KBVU 120235Z AUTO 00000KT 10SM CLR 24/04 A2979 RMK AO2,M
CXP,2023-06-12 02:35,-119.7326,39.1923,1431.00,55.40,50.00,81.99,80.00,8.00,0.00,29.99,M,6.00,M,FEW,OVC,M,M,4400.00,6000.00,M,M,VCTS RA HZ,M,M,M,M,M,M,55.40,KCXP 120235Z AUTO 08008KT 6SM VCTS RA HZ FEW044 OVC060 13/10 A2999 RMK AO2 LTG DSNT ALQDS,M
RTS,2023-06-12 02:35,-119.8764,39.6682,1539.00,59.00,44.60,58.77,250.00,11.00,0.00,29.98,M,9.00,16.00,OVC,M,M,M,5000.00,M,M,M,-DZ,M,M,M,M,M,M,59.00,KRTS 120235Z AUTO 25011G16KT 9SM -DZ OVC050 15/07 A2998 RMK AO2,M
MEV,2023-06-12 02:35,-119.7500,38.9963,1441.42,55.40,50.00,81.99,M,4.00,0.00,30.00,M,5.00,M,OVC,M,M,M,6000.00,M,M,M,VCTS RA HZ,M,M,M,M,M,M,55.40,KMEV 120235Z AUTO VRB04KT 5SM VCTS RA HZ OVC060 13/10 A3000 RMK AO2 LTG DSNT NW-NE,M
BAM,2023-06-12 02:35,-116.8743,40.5990,1382.36,62.60,50.00,63.38,340.00,15.00,0.00,29.96,M,10.00,21.00,SCT,OVC,M,M,6000.00,9000.00,M,M,M,M,M,M,M,M,M,62.60,KBAM 120235Z AUTO 34015G21KT 10SM SCT060 OVC090 17/10 A2996 RMK AO1,M
HTH,2023-06-12 02:35,-118.6315,38.5448,1282.89,59.00,46.40,62.92,140.00,13.00,0.00,29.93,M,10.00,M,CLR,M,M,M,M,M,M,M,M,M,M,M,M,M,M,59.00,KHTH 120235Z AUTO 14013KT 10SM CLR 15/08 A2993 RMK A01,M
TMT,2023-06-12 02:35,-117.1971,39.4643,1749.34,51.00,46.60,84.52,200.00,6.00,0.00,30.00,M,10.00,M,SCT,M,M,M,8500.00,M,M,M,M,M,M,M,M,M,M,51.10,KTMT 120235Z AUTO 20006KT 10SM SCT085 11/08 A3000 RMK AO2 LTG DSNT W T01060081,M
05U,2023-06-12 02:50,-116.0051,39.6042,1811.23,53.60,44.60,71.45,30.00,7.00,0.00,30.02,M,10.00,M,SCT,M,M,M,10000.00,M,M,M,M,M,M,M,M,M,M,53.60,K05U 120250Z AUTO 03007KT 10SM SCT100 12/07 A3002 RMK A01,M
P68,2023-06-12 02:53,-116.0056,39.6014,1993.00,52.00,45.00,76.94,240.00,9.00,0.00,30.00,1011.40,M,M,M,M,M,M,M,M,M,M,M,M,M,M,M,M,M,52.00,KP68 120253Z AUTO 24009KT 11/07 A3000 RMK AO1 SLP114 T01110072 55002 $,M
ELY,2023-06-12 02:53,-114.8453,39.2950,1909.00,47.00,43.00,86.21,350.00,10.00,0.00,30.01,1010.90,10.00,M,CLR,M,M,M,M,M,M,M,M,M,M,M,M,M,M,41.65,KELY 120253Z AUTO 35010KT 10SM CLR 08/06 A3001 RMK AO2 SLP109 60002 T00830061 56009,M
VGT,2023-06-12 02:53,-115.1933,36.2111,667.00,78.00,39.00,24.56,180.00,14.00,0.00,29.76,1007.40,10.00,M,SCT,M,M,M,12000.00,M,M,M,M,M,M,M,27.00,200.00,2023-06-12 01:54,78.10,KVGT 120253Z 18014KT 10SM SCT120 26/04 A2976 RMK AO2 PK WND 20027/0154 SLP074 T02560039 53014,M
LOL,2023-06-12 02:53,-118.5701,40.0684,1192.43,56.00,54.00,93.32,0.00,0.00,0.15,29.99,1013.50,2.50,M,SCT,OVC,M,M,5000.00,6500.00,M,M,+RA BR,M,M,M,M,M,M,55.90,KLOL 120253Z AUTO 00000KT 2 1/2SM +RA BR SCT050 OVC065 13/12 A2999 RMK AO2 SLP135 P0015 60019 T01330122 53058,M
DRA,2023-06-12 02:53,-116.0278,36.6206,1009.00,70.00,40.00,33.39,290.00,7.00,0.00,29.83,1006.00,10.00,M,CLR,M,M,M,M,M,M,M,M,M,M,M,M,M,M,70.00,KDRA 120253Z AUTO 29007KT 10SM CLR 21/04 A2983 RMK AO2 SLP060 T02110044 53014,M
BVU,2023-06-12 02:55,-114.8611,35.9475,671.00,75.20,37.40,25.40,250.00,7.00,0.00,29.80,M,10.00,M,FEW,FEW,BKN,M,6500.00,8000.00,9500.00,M,M,M,M,M,M,M,M,75.20,KBVU 120255Z AUTO 25007KT 10SM FEW065 FEW080 BKN095 24/03 A2980 RMK AO2,M
CXP,2023-06-12 02:55,-119.7326,39.1923,1431.00,55.40,51.80,87.65,60.00,12.00,0.07,30.02,M,4.00,M,FEW,BKN,OVC,M,2200.00,5000.00,6000.00,M,-RA HZ,M,M,M,M,M,M,55.40,KCXP 120255Z AUTO 06012KT 4SM -RA HZ FEW022 BKN050 OVC060 13/11 A3002 RMK AO2 LTG DSNT N AND NW P0007,M
INS,2023-06-12 02:55,-115.6733,36.5872,955.00,73.20,36.30,26.01,270.00,11.00,0.00,29.81,1005.40,10.00,M,SCT,BKN,M,M,10000.00,12000.00,M,M,M,M,M,M,M,M,M,73.20,KINS 120255Z AUTO 27011KT 10SM SCT100 BKN120 23/02 A2981 RMK AO2 SLP054 T02290024 53016 $,M
RNO,2023-06-12 02:55,-119.7711,39.4839,1341.00,57.20,50.00,76.82,130.00,15.00,0.01,29.98,1012.10,7.00,23.00,FEW,BKN,OVC,M,5000.00,6500.00,8000.00,M,TSRA,M,M,M,M,M,M,57.20,KRNO 120255Z 13015G23KT 7SM TSRA FEW050 BKN065CB OVC080 14/10 A2998 RMK AO2 RAB23 TSB13 PRESRR SLP121 OCNL LTGICCG E AND S AND W TS E AND S AND W MOV SW VIRGA CB ALQDS MOV SW CLDS TPG MTNS DSNT SW P0001 60001 T0144010 $,M
RTS,2023-06-12 02:55,-119.8764,39.6682,1539.00,59.00,44.60,58.77,320.00,6.00,0.00,30.00,M,9.00,M,FEW,OVC,M,M,3500.00,4700.00,M,M,-RA,M,M,M,M,M,M,59.00,KRTS 120255Z AUTO 32006KT 9SM -RA FEW035 OVC047 15/07 A3000 RMK AO2,M
MEV,2023-06-12 02:55,-119.7500,38.9963,1441.42,53.60,48.20,81.87,130.00,4.00,0.00,30.01,M,6.00,M,OVC,M,M,M,6000.00,M,M,M,-RA HZ,M,M,M,M,M,M,53.60,KMEV 120255Z AUTO 13004KT 6SM -RA HZ OVC060 12/09 A3001 RMK AO2,M
BAM,2023-06-12 02:55,-116.8743,40.5990,1382.36,60.80,50.00,67.54,300.00,10.00,0.00,29.97,M,10.00,M,SCT,OVC,M,M,6000.00,8000.00,M,M,M,M,M,M,M,M,M,60.80,KBAM 120255Z AUTO 30010KT 10SM SCT060 OVC080 16/10 A2997 RMK AO1,M
HTH,2023-06-12 02:55,-118.6315,38.5448,1282.89,59.00,46.40,62.92,150.00,6.00,0.00,29.93,M,10.00,12.00,CLR,M,M,M,M,M,M,M,M,M,M,M,M,M,M,59.00,KHTH 120255Z AUTO 15006G12KT 10SM CLR 15/08 A2993 RMK A01,M
TMT,2023-06-12 02:55,-117.1971,39.4643,1749.34,50.00,46.80,88.70,150.00,5.00,0.00,30.01,M,10.00,M,CLR,M,M,M,M,M,M,M,M,M,M,M,M,M,M,50.00,KTMT 120255Z AUTO 15005KT 10SM CLR 10/08 A3001 RMK AO2 60001 T01000082,M
LSV,2023-06-12 02:55,-115.0343,36.2362,570.00,78.40,37.60,23.02,130.00,11.00,0.00,29.73,1004.70,10.00,M,BKN,M,M,M,12000.00,M,M,M,M,M,M,M,M,M,M,78.40,KLSV 120255Z 13011KT 10SM BKN120 26/03 A2973 RMK AO2A SLP047 T02580031 52017 $,M
EKO,2023-06-12 02:56,-115.7860,40.8242,1367.00,57.00,47.00,68.90,160.00,5.00,0.00,29.97,1011.50,10.00,M,CLR,M,M,M,M,M,M,M,M,M,M,M,M,M,M,57.00,KEKO 120256Z AUTO 16005KT 10SM CLR 14/08 A2997 RMK AO2 SLP115 T01390083 50010,M
HND,2023-06-12 02:56,-115.1344,35.9729,742.79,73.00,44.00,35.46,190.00,10.00,0.00,29.83,1009.40,10.00,M,FEW,OVC,M,M,6000.00,10000.00,M,M,M,M,M,M,M,M,M,73.00,KHND 120256Z 19010KT 10SM FEW060 OVC100 23/07 A2983 RMK AO2 SLP094 T02280067 51019,M
TPH,2023-06-12 02:56,-117.0904,38.0505,1654.00,59.00,42.00,53.40,300.00,11.00,0.00,29.96,1009.50,10.00,17.00,OVC,M,M,M,10000.00,M,M,M,M,M,M,M,M,M,M,59.00,KTPH 120256Z AUTO 30011G17KT 10SM OVC100 15/06 A2996 RMK AO2 SLP095 T01500056 50012,M
WMC,2023-06-12 02:56,-117.8072,40.9019,1315.00,56.00,53.00,90.29,170.00,9.00,0.04,29.97,1012.30,7.00,M,OVC,M,M,M,7000.00,M,M,M,-RA,M,M,M,M,M,M,55.90,KWMC 120256Z AUTO 17009KT 7SM -RA OVC070 13/12 A2997 RMK AO2 SLP123 P0004 60005 T01330117 51047,M
NFL,2023-06-12 02:56,-118.7010,39.4166,1199.00,58.00,53.00,84.00,0.00,0.00,0.09,29.94,1011.30,7.00,M,OVC,M,M,M,8000.00,M,M,M,-RA,M,M,M,M,M,M,57.90,KNFL 120256Z AUTO 00000KT 7SM -RA OVC080 14/12 A2994 RMK AO2 SLP113 P0009 60014 T01440117 51034,M
LAS,2023-06-12 02:56,-115.1634,36.0719,663.00,76.00,40.00,27.37,200.00,9.00,0.00,29.78,1006.30,10.00,M,SCT,BKN,M,M,11000.00,25000.00,M,M,M,M,M,M,M,M,M,75.90,KLAS 120256Z 20009KT 10SM SCT110 BKN250 24/04 A2978 RMK AO2 SLP063 SH DSNT SE T02440044 51015,M
LOL,2023-06-12 03:04,-118.5701,40.0684,1192.43,56.00,53.00,90.29,0.00,0.00,0.04,29.98,M,3.00,M,BKN,OVC,M,M,5500.00,7000.00,M,M,+RA BR,M,M,M,M,M,M,55.90,KLOL 120304Z AUTO 00000KT 3SM +RA BR BKN055 OVC070 13/12 A2998 RMK AO2 P0004 T01330117,M
05U,2023-06-12 03:10,-116.0051,39.6042,1811.23,51.80,44.60,76.34,40.00,5.00,0.00,30.02,M,10.00,M,BKN,M,M,M,9500.00,M,M,M,M,M,M,M,M,M,M,51.80,K05U 120310Z AUTO 04005KT 10SM BKN095 11/07 A3002 RMK A01,M
BVU,2023-06-12 03:15,-114.8611,35.9475,671.00,77.00,37.40,23.93,290.00,11.00,0.00,29.79,M,10.00,M,FEW,SCT,BKN,M,1400.00,4900.00,7000.00,M,M,M,M,M,M,M,M,77.00,KBVU 120315Z AUTO 29011KT 10SM FEW014 SCT049 BKN070 25/03 A2979 RMK AO2,M
CXP,2023-06-12 03:15,-119.7326,39.1923,1431.00,53.60,50.00,87.56,60.00,11.00,0.00,30.04,M,4.00,16.00,FEW,SCT,OVC,M,2900.00,3800.00,4900.00,M,VCTS RA HZ,M,M,M,M,M,M,53.60,KCXP 120315Z AUTO 06011G16KT 4SM VCTS RA HZ FEW029 SCT038 OVC049 12/10 A3004 RMK AO2 LTG DSNT N AND NE,M
RTS,2023-06-12 03:15,-119.8764,39.6682,1539.00,55.40,48.20,76.66,200.00,9.00,0.00,30.03,M,5.00,M,FEW,SCT,BKN,M,300.00,3300.00,4400.00,M,-RA,M,M,M,M,M,M,55.40,KRTS 120315Z AUTO 20009KT 5SM -RA FEW003 SCT033 BKN044 13/09 A3003 RMK AO2,M
MEV,2023-06-12 03:15,-119.7500,38.9963,1441.42,53.60,51.80,93.60,120.00,6.00,0.00,30.01,M,5.00,M,FEW,OVC,M,M,500.00,6000.00,M,M,-RA BR,M,M,M,M,M,M,53.60,KMEV 120315Z AUTO 12006KT 5SM -RA BR FEW005 OVC060 12/11 A3001 RMK AO2 LTG DSNT N,M
BAM,2023-06-12 03:15,-116.8743,40.5990,1382.36,60.80,50.00,67.54,270.00,7.00,0.00,29.98,M,10.00,M,SCT,OVC,M,M,6500.00,8000.00,M,M,M,M,M,M,M,M,M,60.80,KBAM 120315Z AUTO 27007KT 10SM SCT065 OVC080 16/10 A2998 RMK AO1,M
HTH,2023-06-12 03:15,-118.6315,38.5448,1282.89,59.00,48.20,67.33,0.00,0.00,0.00,29.94,M,10.00,M,CLR,M,M,M,M,M,M,M,M,M,M,M,M,M,M,59.00,KHTH 120315Z AUTO 00000KT 10SM CLR 15/09 A2994 RMK A01,M
TMT,2023-06-12 03:15,-117.1971,39.4643,1749.34,48.60,46.40,92.06,160.00,3.00,0.00,30.00,M,10.00,M,CLR,M,M,M,M,M,M,M,M,M,M,M,M,M,M,47.67,KTMT 120315Z AUTO 16003KT 10SM CLR 09/08 A3000 RMK AO2 T00920080,M
RNO,2023-06-12 03:27,-119.7711,39.4839,1341.00,56.00,49.00,77.28,M,3.00,0.10,30.03,M,8.00,M,SCT,OVC,M,M,4000.00,5500.00,M,M,-RA,M,M,M,M,M,M,55.90,KRNO 120327Z VRB03KT 8SM -RA SCT040 OVC055CB 13/09 A3003 RMK AO2 TSE27 CB ALQDS MOV SW MTNS OBSCD DSNT SW THRU NW P0010 T01330094 $,M
LOL,2023-06-12 03:28,-118.5701,40.0684,1192.43,55.00,53.00,93.29,0.00,0.00,0.14,29.98,M,1.75,M,OVC,M,M,M,6000.00,M,M,M,+RA BR,M,M,M,M,M,M,55.00,KLOL 120328Z AUTO 00000KT 1 3/4SM +RA BR OVC060 13/12 A2998 RMK AO2 P0014 T01280117,M
05U,2023-06-12 03:30,-116.0051,39.6042,1811.23,51.80,46.40,81.74,0.00,0.00,0.00,30.01,M,10.00,M,OVC,M,M,M,10000.00,M,M,M,M,M,M,M,M,M,M,51.80,K05U 120330Z AUTO 00000KT 10SM OVC100 11/08 A3001 RMK A01,M
BVU,2023-06-12 03:35,-114.8611,35.9475,671.00,75.20,37.40,25.40,260.00,10.00,0.00,29.80,M,10.00,16.00,FEW,SCT,OVC,M,1800.00,5500.00,7000.00,M,M,M,M,M,M,M,M,75.20,KBVU 120335Z AUTO 26010G16KT 10SM FEW018 SCT055 OVC070 24/03 A2980 RMK AO2,M
CXP,2023-06-12 03:35,-119.7326,39.1923,1431.00,53.60,48.20,81.87,0.00,0.00,0.00,30.05,M,3.00,10.00,OVC,M,M,M,5000.00,M,M,M,-RA HZ,M,M,M,M,M,M,53.60,KCXP 120335Z AUTO 00000G10KT 3SM -RA HZ OVC050 12/09 A3005 RMK AO2,M
RTS,2023-06-12 03:35,-119.8764,39.6682,1539.00,51.80,50.00,93.55,140.00,13.00,0.00,30.05,M,3.00,18.00,FEW,BKN,OVC,M,2700.00,3500.00,5500.00,M,-RA,M,M,M,M,M,M,51.80,KRTS 120335Z AUTO 14013G18KT 3SM -RA FEW027 BKN035 OVC055 11/10 A3005 RMK AO2,M
MEV,2023-06-12 03:35,-119.7500,38.9963,1441.42,53.60,51.80,93.60,0.00,0.00,0.00,30.02,M,5.00,M,OVC,M,M,M,6000.00,M,M,M,-RA BR,M,M,M,M,M,M,53.60,KMEV 120335Z AUTO 00000KT 5SM -RA BR OVC060 12/11 A3002 RMK AO2,M
BAM,2023-06-12 03:35,-116.8743,40.5990,1382.36,60.80,50.00,67.54,270.00,7.00,0.00,29.99,M,10.00,M,BKN,BKN,OVC,M,5500.00,6500.00,8000.00,M,M,M,M,M,M,M,M,60.80,KBAM 120335Z AUTO 27007KT 10SM BKN055 BKN065 OVC080 16/10 A2999 RMK AO1,M
HTH,2023-06-12 03:35,-118.6315,38.5448,1282.89,57.20,48.20,71.83,30.00,7.00,0.00,29.95,M,10.00,M,CLR,M,M,M,M,M,M,M,M,M,M,M,M,M,M,57.20,KHTH 120335Z AUTO 03007KT 10SM CLR 14/09 A2995 RMK A01,M
TMT,2023-06-12 03:35,-117.1971,39.4643,1749.34,47.70,45.70,92.73,0.00,0.00,0.00,30.01,M,10.00,M,CLR,M,M,M,M,M,M,M,M,M,M,M,M,M,M,47.70,KTMT 120335Z AUTO 00000KT 10SM CLR 09/08 A3001 RMK AO2 T00870076,M
LOL,2023-06-12 03:41,-118.5701,40.0684,1192.43,55.00,53.00,93.29,260.00,4.00,0.20,29.98,M,3.00,M,OVC,M,M,M,6000.00,M,M,M,+RA BR,M,M,M,M,M,M,55.00,KLOL 120341Z AUTO 26004KT 3SM +RA BR OVC060 13/12 A2998 RMK AO2 P0020 T01280117,M
05U,2023-06-12 03:50,-116.0051,39.6042,1811.23,50.00,46.40,87.37,10.00,5.00,0.00,30.00,M,10.00,M,BKN,BKN,M,M,9000.00,12000.00,M,M,M,M,M,M,M,M,M,50.00,K05U 120350Z AUTO 01005KT 10SM BKN090 BKN120 10/08 A3000 RMK A01,M
P68,2023-06-12 03:53,-116.0056,39.6014,1993.00,50.00,46.00,86.06,70.00,5.00,0.00,29.98,1010.50,M,M,M,M,M,M,M,M,M,M,M,M,M,M,M,M,M,50.00,KP68 120353Z AUTO 07005KT 10/08 A2998 RMK AO1 SLP105 T01000078 $,M
DRA,2023-06-12 03:53,-116.0278,36.6206,1009.00,68.00,39.00,34.53,350.00,5.00,0.00,29.84,1006.50,10.00,M,CLR,M,M,M,M,M,M,M,M,M,M,M,M,M,M,68.00,KDRA 120353Z AUTO 35005KT 10SM CLR 20/04 A2984 RMK AO2 SLP065 T02000039,M
ELY,2023-06-12 03:53,-114.8453,39.2950,1909.00,45.00,41.00,85.77,350.00,6.00,0.00,30.01,1010.90,10.00,M,CLR,M,M,M,M,M,M,M,M,M,M,M,M,M,M,41.19,KELY 120353Z AUTO 35006KT 10SM CLR 07/05 A3001 RMK AO2 SLP109 T00720050,M
VGT,2023-06-12 03:53,-115.1933,36.2111,667.00,76.00,43.00,30.85,180.00,18.00,0.00,29.77,1007.60,10.00,29.00,CLR,M,M,M,M,M,M,M,M,M,M,M,29.00,170.00,2023-06-12 03:47,75.90,KVGT 120353Z 18018G29KT 10SM CLR 24/06 A2977 RMK AO2 PK WND 17029/0347 SLP076 T02440061,M
LOL,2023-06-12 03:53,-118.5701,40.0684,1192.43,55.00,53.00,93.29,340.00,4.00,0.24,29.98,1013.30,3.00,M,OVC,M,M,M,6000.00,M,M,M,RA BR,M,M,M,M,M,M,55.00,KLOL 120353Z AUTO 34004KT 3SM RA BR OVC060 13/12 A2998 RMK AO2 SLP133 P0024 T01280117,M
BVU,2023-06-12 03:55,-114.8611,35.9475,671.00,75.20,39.20,27.26,220.00,8.00,0.00,29.81,M,10.00,M,FEW,SCT,OVC,M,5500.00,7000.00,11000.00,M,M,M,M,M,M,M,M,75.20,KBVU 120355Z AUTO 22008KT 10SM FEW055 SCT070 OVC110 24/04 A2981 RMK AO2,M
CXP,2023-06-12 03:55,-119.7326,39.1923,1431.00,53.60,50.00,87.56,0.00,0.00,0.09,30.06,M,8.00,M,SCT,OVC,M,M,4900.00,6000.00,M,M,-RA,M,M,M,M,M,M,53.60,KCXP 120355Z AUTO 00000KT 8SM -RA SCT049 OVC060 12/10 A3006 RMK AO2 P0009,M
INS,2023-06-12 03:55,-115.6733,36.5872,955.00,72.50,36.70,27.06,360.00,4.00,0.00,29.84,1006.30,10.00,M,OVC,M,M,M,9500.00,M,M,M,M,M,M,M,M,M,M,72.50,KINS 120355Z AUTO 36004KT 10SM OVC095 23/03 A2984 RMK AO2 SLP063 T02250026 $,M
RNO,2023-06-12 03:55,-119.7711,39.4839,1341.00,55.00,50.00,83.20,200.00,4.00,0.18,30.04,1014.00,3.00,M,SCT,OVC,M,M,4000.00,5000.00,M,M,+RA,M,M,M,M,M,M,55.00,KRNO 120355Z 20004KT 3SM +RA SCT040 OVC050CB 13/10 A3004 RMK AO2 TSE27 SLP140 CB ALQDS MOV SW P0018 T01280100 $,M
RTS,2023-06-12 03:55,-119.8764,39.6682,1539.00,51.80,48.20,87.47,150.00,14.00,0.30,30.06,M,2.50,M,SCT,BKN,OVC,M,300.00,2900.00,3600.00,M,-RA,M,M,M,M,M,M,51.80,KRTS 120355Z AUTO 15014KT 2 1/2SM -RA SCT003 BKN029 OVC036 11/09 A3006 RMK AO2 P0030,M
MEV,2023-06-12 03:55,-119.7500,38.9963,1441.42,53.60,51.80,93.60,340.00,7.00,0.00,30.04,M,5.00,M,OVC,M,M,M,6000.00,M,M,M,-RA BR,M,M,M,M,M,M,53.60,KMEV 120355Z AUTO 34007KT 5SM -RA BR OVC060 12/11 A3004 RMK AO2,M
BAM,2023-06-12 03:55,-116.8743,40.5990,1382.36,59.00,50.00,72.01,240.00,7.00,0.00,29.99,M,10.00,M,BKN,OVC,M,M,5000.00,7500.00,M,M,M,M,M,M,M,M,M,59.00,KBAM 120355Z AUTO 24007KT 10SM BKN050 OVC075 15/10 A2999 RMK AO1,M
HTH,2023-06-12 03:55,-118.6315,38.5448,1282.89,57.20,48.20,71.83,70.00,4.00,0.00,29.96,M,10.00,M,CLR,M,M,M,M,M,M,M,M,M,M,M,M,M,M,57.20,KHTH 120355Z AUTO 07004KT 10SM CLR 14/09 A2996 RMK A01,M
TMT,2023-06-12 03:55,-117.1971,39.4643,1749.34,48.20,45.70,91.01,0.00,0.00,0.00,30.02,M,10.00,M,CLR,M,M,M,M,M,M,M,M,M,M,M,M,M,M,48.20,KTMT 120355Z AUTO 00000KT 10SM CLR 09/08 A3002 RMK AO2 T00900076,M
LSV,2023-06-12 03:55,-115.0343,36.2362,570.00,78.00,40.50,26.04,160.00,20.00,0.00,29.74,1004.90,10.00,M,FEW,M,M,M,20000.00,M,M,M,M,M,M,M,M,M,M,78.10,KLSV 120355Z AUTO 16020KT 10SM FEW200 26/05 A2974 RMK AO2 SLP049 T02560047 $,M
NFL,2023-06-12 03:56,-118.7010,39.4166,1199.00,58.00,54.00,86.82,320.00,4.00,T,29.98,1012.30,10.00,M,BKN,OVC,M,M,6000.00,8500.00,M,M,M,M,M,M,M,M,M,57.90,KNFL 120356Z AUTO 32004KT 10SM BKN060 OVC085 14/12 A2998 RMK AO2 RAE16 SLP123 P0000 T01440122,M
HND,2023-06-12 03:56,-115.1344,35.9729,742.79,69.00,46.00,43.52,180.00,13.00,T,29.83,1009.70,10.00,M,CLR,M,M,M,M,M,M,M,M,M,M,M,M,M,M,69.10,KHND 120356Z AUTO 18013KT 10SM CLR 21/08 A2983 RMK AO2 RAB04E14 SLP097 P0000 T02060078,M
TPH,2023-06-12 03:56,-117.0904,38.0505,1654.00,57.00,43.00,59.40,310.00,11.00,0.00,29.97,1009.70,10.00,M,OVC,M,M,M,11000.00,M,M,M,M,M,M,M,M,M,M,57.00,KTPH 120356Z AUTO 31011KT 10SM OVC110 14/06 A2997 RMK AO2 SLP097 T01390061,M
LAS,2023-06-12 03:56,-115.1634,36.0719,663.00,73.00,44.00,35.46,200.00,10.00,0.00,29.79,1006.70,10.00,21.00,BKN,M,M,M,25000.00,M,M,M,M,M,M,M,M,M,M,73.00,KLAS 120356Z 20010G21KT 10SM BKN250 23/07 A2979 RMK AO2 SLP067 T02280067,M
EKO,2023-06-12 03:56,-115.7860,40.8242,1367.00,56.00,47.00,71.69,40.00,7.00,0.00,29.99,1011.90,10.00,M,CLR,M,M,M,M,M,M,M,M,M,M,M,M,M,M,55.90,KEKO 120356Z AUTO 04007KT 10SM CLR 13/08 A2999 RMK AO2 SLP119 T01330083,M
WMC,2023-06-12 03:56,-117.8072,40.9019,1315.00,56.00,53.00,90.29,160.00,9.00,0.01,29.96,1011.70,10.00,M,SCT,BKN,OVC,M,8000.00,10000.00,12000.00,M,M,M,M,M,M,M,M,55.90,KWMC 120356Z AUTO 16009KT 10SM SCT080 BKN100 OVC120 13/12 A2996 RMK AO2 RAE34 SLP117 P0001 T01330117,M
RNO,2023-06-12 04:05,-119.7711,39.4839,1341.00,55.00,50.00,83.20,200.00,4.00,0.03,30.04,M,4.00,M,SCT,OVC,M,M,4000.00,5000.00,M,M,-RA,M,M,M,M,M,M,55.00,KRNO 120405Z 20004KT 4SM -RA SCT040 OVC050CB 13/10 A3004 RMK AO2 CB NE THRU SW AND W MOV SW P0003 T01280100 $,M
05U,2023-06-12 04:10,-116.0051,39.6042,1811.23,50.00,46.40,87.37,30.00,5.00,0.00,30.00,M,10.00,M,BKN,M,M,M,11000.00,M,M,M,M,M,M,M,M,M,M,50.00,K05U 120410Z AUTO 03005KT 10SM BKN110 10/08 A3000 RMK A01,M
BVU,2023-06-12 04:15,-114.8611,35.9475,671.00,73.40,41.00,31.05,220.00,11.00,0.00,29.81,M,10.00,16.00,BKN,M,M,M,10000.00,M,M,M,M,M,M,M,M,M,M,73.40,KBVU 120415Z AUTO 22011G16KT 10SM BKN100 23/05 A2981 RMK AO2,M
CXP,2023-06-12 04:15,-119.7326,39.1923,1431.00,53.60,51.80,93.60,M,3.00,0.00,30.06,M,8.00,M,SCT,OVC,M,M,4800.00,6000.00,M,M,-RA,M,M,M,M,M,M,53.60,KCXP 120415Z AUTO VRB03KT 8SM -RA SCT048 OVC060 12/11 A3006 RMK AO2,M
RTS,2023-06-12 04:15,-119.8764,39.6682,1539.00,51.80,50.00,93.55,150.00,10.00,0.00,30.06,M,3.00,M,SCT,BKN,OVC,M,300.00,3400.00,4100.00,M,-RA,M,M,M,M,M,M,51.80,KRTS 120415Z AUTO 15010KT 3SM -RA SCT003 BKN034 OVC041 11/10 A3006 RMK AO2,M
MEV,2023-06-12 04:15,-119.7500,38.9963,1441.42,53.60,51.80,93.60,350.00,7.00,0.00,30.05,M,4.00,M,OVC,M,M,M,6000.00,M,M,M,-RA BR,M,M,M,M,M,M,53.60,KMEV 120415Z AUTO 35007KT 4SM -RA BR OVC060 12/11 A3005 RMK AO2,M
BAM,2023-06-12 04:15,-116.8743,40.5990,1382.36,59.00,50.00,72.01,280.00,4.00,0.00,29.99,M,10.00,M,SCT,SCT,BKN,M,5000.00,7500.00,11000.00,M,M,M,M,M,M,M,M,59.00,KBAM 120415Z AUTO 28004KT 10SM SCT050 SCT075 BKN110 15/10 A2999 RMK AO1,M
HTH,2023-06-12 04:15,-118.6315,38.5448,1282.89,59.00,46.40,62.92,290.00,5.00,0.00,29.97,M,10.00,M,CLR,M,M,M,M,M,M,M,M,M,M,M,M,M,M,59.00,KHTH 120415Z AUTO 29005KT 10SM CLR 15/08 A2997 RMK A01,M
TMT,2023-06-12 04:15,-117.1971,39.4643,1749.34,46.60,44.80,93.40,0.00,0.00,0.00,30.02,M,10.00,M,CLR,M,M,M,M,M,M,M,M,M,M,M,M,M,M,46.60,KTMT 120415Z AUTO 00000KT 10SM CLR 08/07 A3002 RMK AO2 T00810071,M
05U,2023-06-12 04:30,-116.0051,39.6042,1811.23,48.20,44.60,87.28,30.00,4.00,0.00,30.01,M,10.00,M,FEW,M,M,M,11000.00,M,M,M,M,M,M,M,M,M,M,46.34,K05U 120430Z AUTO 03004KT 10SM FEW110 09/07 A3001 RMK A01,M
HTH,2023-06-12 04:30,-118.6315,38.5448,1282.89,57.20,48.20,71.83,300.00,6.00,0.00,29.98,M,10.00,M,FEW,M,M,M,12000.00,M,M,M,M,M,M,M,M,M,M,57.20,KHTH 120430Z AUTO 30006KT 10SM FEW120 14/09 A2998 RMK A01,M
INS,2023-06-12 04:32,-115.6733,36.5872,955.00,71.60,35.60,26.71,300.00,15.00,0.00,29.85,1006.40,10.00,19.00,FEW,SCT,SCT,OVC,5000.00,6000.00,7000.00,12000.00,-DZ,M,M,M,M,M,M,71.60,KINS 120432Z AUTO 30015G19KT 10SM -DZ FEW050 SCT060 SCT070 OVC120 22/02 A2985 RMK AO2 DZB32 SLP064 $,M
BVU,2023-06-12 04:35,-114.8611,35.9475,671.00,73.40,41.00,31.05,220.00,10.00,0.00,29.81,M,10.00,17.00,SCT,M,M,M,11000.00,M,M,M,M,M,M,M,M,M,M,73.40,KBVU 120435Z AUTO 22010G17KT 10SM SCT110 23/05 A2981 RMK AO2,M
CXP,2023-06-12 04:35,-119.7326,39.1923,1431.00,53.60,51.80,93.60,0.00,0.00,0.00,30.06,M,9.00,M,BKN,OVC,M,M,4800.00,6000.00,M,M,-RA,M,M,M,M,M,M,53.60,KCXP 120435Z AUTO 00000KT 9SM -RA BKN048 OVC060 12/11 A3006 RMK AO2,M
RTS,2023-06-12 04:35,-119.8764,39.6682,1539.00,51.80,50.00,93.55,150.00,6.00,0.00,30.06,M,7.00,12.00,FEW,BKN,OVC,M,300.00,3400.00,4400.00,M,-RA,M,M,M,M,M,M,51.80,KRTS 120435Z AUTO 15006G12KT 7SM -RA FEW003 BKN034 OVC044 11/10 A3006 RMK AO2,M
MEV,2023-06-12 04:35,-119.7500,38.9963,1441.42,53.60,51.80,93.60,350.00,4.00,0.00,30.05,M,3.00,M,SCT,BKN,OVC,M,4300.00,4800.00,6000.00,M,-RA BR,M,M,M,M,M,M,53.60,KMEV 120435Z AUTO 35004KT 3SM -RA BR SCT043 BKN048 OVC060 12/11 A3005 RMK AO2,M
BAM,2023-06-12 04:35,-116.8743,40.5990,1382.36,59.00,50.00,72.01,0.00,0.00,0.00,29.99,M,10.00,M,SCT,M,M,M,11000.00,M,M,M,M,M,M,M,M,M,M,59.00,KBAM 120435Z AUTO 00000KT 10SM SCT110 15/10 A2999 RMK AO1,M
TMT,2023-06-12 04:35,-117.1971,39.4643,1749.34,45.70,45.00,97.75,100.00,5.00,0.00,30.02,M,10.00,M,CLR,M,M,M,M,M,M,M,M,M,M,M,M,M,M,42.67,KTMT 120435Z AUTO 10005KT 10SM CLR 08/07 A3002 RMK AO2 T00760073,M
INS,2023-06-12 04:47,-115.6733,36.5872,955.00,69.80,39.20,32.72,340.00,8.00,0.00,29.86,1006.90,10.00,M,FEW,OVC,M,M,7000.00,12000.00,M,M,M,M,M,M,M,M,M,69.80,KINS 120447Z AUTO 34008KT 10SM FEW070 OVC120 21/04 A2986 RMK AO2 DZB32E47 SLP069 $,M
05U,2023-06-12 04:50,-116.0051,39.6042,1811.23,48.20,44.60,87.28,40.00,4.00,0.00,30.02,M,10.00,M,CLR,M,M,M,M,M,M,M,M,M,M,M,M,M,M,46.34,K05U 120450Z AUTO 04004KT 10SM CLR 09/07 A3002 RMK A01,M
DRA,2023-06-12 04:53,-116.0278,36.6206,1009.00,66.00,39.00,37.00,0.00,0.00,0.00,29.86,1007.10,10.00,M,CLR,M,M,M,M,M,M,M,M,M,M,M,M,M,M,66.00,KDRA 120453Z AUTO 00000KT 10SM CLR 19/04 A2986 RMK AO2 SLP071 T01890039,M
VGT,2023-06-12 04:53,-115.1933,36.2111,667.00,74.00,46.00,36.98,170.00,12.00,0.00,29.79,1008.50,10.00,M,CLR,M,M,M,M,M,M,M,M,M,M,M,27.00,170.00,2023-06-12 03:54,73.90,KVGT 120453Z AUTO 17012KT 10SM CLR 23/08 A2979 RMK AO2 PK WND 17027/0354 SLP085 T02330078,M
P68,2023-06-12 04:53,-116.0056,39.6014,1993.00,48.00,44.00,86.28,130.00,3.00,0.00,29.99,1010.90,M,M,M,M,M,M,M,M,M,M,M,M,M,M,M,M,M,46.98,KP68 120453Z AUTO 13003KT 09/07 A2999 RMK AO1 SLP109 T00890067 $,M
ELY,2023-06-12 04:53,-114.8453,39.2950,1909.00,43.00,40.00,88.71,0.00,0.00,0.00,30.02,1011.20,10.00,M,CLR,M,M,M,M,M,M,M,M,M,M,M,M,M,M,43.00,KELY 120453Z AUTO 00000KT 10SM CLR 06/04 A3002 RMK AO2 SLP112 T00610044,M
LOL,2023-06-12 04:53,-118.5701,40.0684,1192.43,55.00,53.00,93.29,150.00,4.00,0.04,29.97,1012.70,7.00,M,BKN,OVC,M,M,8000.00,9000.00,M,M,-RA,M,M,M,M,M,M,55.00,KLOL 120453Z AUTO 15004KT 7SM -RA BKN080 OVC090 13/12 A2997 RMK AO2 SLP127 P0004 T01280117,M
BVU,2023-06-12 04:55,-114.8611,35.9475,671.00,73.40,41.00,31.05,200.00,10.00,0.00,29.82,M,10.00,15.00,BKN,M,M,M,11000.00,M,M,M,M,M,M,M,M,M,M,73.40,KBVU 120455Z AUTO 20010G15KT 10SM BKN110 23/05 A2982 RMK AO2,M
CXP,2023-06-12 04:55,-119.7326,39.1923,1431.00,53.60,51.80,93.60,210.00,3.00,0.03,30.07,M,8.00,M,SCT,OVC,M,M,4900.00,6000.00,M,M,-RA,M,M,M,M,M,M,53.60,KCXP 120455Z AUTO 21003KT 8SM -RA SCT049 OVC060 12/11 A3007 RMK AO2 P0003,M
INS,2023-06-12 04:55,-115.6733,36.5872,955.00,68.50,37.60,32.13,30.00,4.00,T,29.86,1006.90,10.00,M,OVC,M,M,M,12000.00,M,M,M,M,M,M,M,M,M,M,68.50,KINS 120455Z AUTO 03004KT 10SM OVC120 20/03 A2986 RMK AO2 DZB32E47 SLP069 P0000 T02030031 $,M
RTS,2023-06-12 04:55,-119.8764,39.6682,1539.00,51.80,50.00,93.55,150.00,8.00,0.12,30.05,M,9.00,M,FEW,OVC,M,M,3400.00,4500.00,M,M,-DZ,M,M,M,M,M,M,51.80,KRTS 120455Z AUTO 15008KT 9SM -DZ FEW034 OVC045 11/10 A3005 RMK AO2 P0012,M
MEV,2023-06-12 04:55,-119.7500,38.9963,1441.42,51.80,51.80,100.00,0.00,0.00,0.00,30.06,M,3.00,M,FEW,BKN,OVC,M,400.00,4800.00,6000.00,M,-RA BR,M,M,M,M,M,M,51.80,KMEV 120455Z AUTO 00000KT 3SM -RA BR FEW004 BKN048 OVC060 11/11 A3006 RMK AO2,M
BAM,2023-06-12 04:55,-116.8743,40.5990,1382.36,55.40,48.20,76.66,0.00,0.00,0.00,29.99,M,10.00,M,CLR,M,M,M,M,M,M,M,M,M,M,M,M,M,M,55.40,KBAM 120455Z AUTO 00000KT 10SM CLR 13/09 A2999 RMK AO1,M
HTH,2023-06-12 04:55,-118.6315,38.5448,1282.89,55.40,48.20,76.66,310.00,6.00,0.00,29.99,M,10.00,M,CLR,M,M,M,M,M,M,M,M,M,M,M,M,M,M,55.40,KHTH 120455Z AUTO 31006KT 10SM CLR 13/09 A2999 RMK A01,M
TMT,2023-06-12 04:55,-117.1971,39.4643,1749.34,46.00,45.50,98.12,150.00,3.00,0.00,30.03,M,10.00,M,CLR,M,M,M,M,M,M,M,M,M,M,M,M,M,M,44.69,KTMT 120455Z AUTO 15003KT 10SM CLR 08/08 A3003 RMK AO2 T00780075,M
RNO,2023-06-12 04:55,-119.7711,39.4839,1341.00,55.00,51.00,86.66,220.00,4.00,0.11,30.03,1013.60,10.00,M,FEW,BKN,OVC,M,3500.00,5000.00,6500.00,M,-RA,M,M,M,M,M,M,55.00,KRNO 120455Z 22004KT 10SM -RA FEW035 BKN050 OVC065 13/11 A3003 RMK AO2 SLP136 P0011 T01280106 $,M
LSV,2023-06-12 04:55,-115.0343,36.2362,570.00,74.30,44.00,33.94,170.00,13.00,0.00,29.77,1006.10,10.00,M,BKN,M,M,M,12000.00,M,M,M,M,M,M,M,M,M,M,74.30,KLSV 120455Z AUTO 17013KT 10SM BKN120 24/07 A2977 RMK AO2 SLP061 T02350067 $,M
EKO,2023-06-12 04:56,-115.7860,40.8242,1367.00,55.00,48.00,77.21,350.00,3.00,0.00,29.97,1011.10,10.00,M,CLR,M,M,M,M,M,M,M,M,M,M,M,M,M,M,55.00,KEKO 120456Z AUTO 35003KT 10SM CLR 13/09 A2997 RMK AO2 SLP111 T01280089,M
WMC,2023-06-12 04:56,-117.8072,40.9019,1315.00,55.00,52.00,89.59,210.00,7.00,0.00,29.95,1011.00,10.00,M,SCT,M,M,M,11000.00,M,M,M,M,M,M,M,M,M,M,55.00,KWMC 120456Z AUTO 21007KT 10SM SCT110 13/11 A2995 RMK AO2 SLP110 T01280111,M
HND,2023-06-12 04:56,-115.1344,35.9729,742.79,70.00,45.00,40.63,190.00,15.00,0.00,29.84,1010.00,10.00,M,CLR,M,M,M,M,M,M,M,M,M,M,M,M,M,M,70.00,KHND 120456Z AUTO 19015KT 10SM CLR 21/07 A2984 RMK AO2 SLP100 T02110072,M
TPH,2023-06-12 04:56,-117.0904,38.0505,1654.00,57.00,43.00,59.40,310.00,9.00,0.00,29.99,1009.70,10.00,M,BKN,M,M,M,11000.00,M,M,M,M,M,M,M,M,M,M,57.00,KTPH 120456Z AUTO 31009KT 10SM BKN110 14/06 A2999 RMK AO2 SLP097 T01390061,M
LAS,2023-06-12 04:56,-115.1634,36.0719,663.00,72.00,45.00,37.96,190.00,12.00,0.00,29.81,1007.20,10.00,20.00,FEW,BKN,M,M,10000.00,25000.00,M,M,M,M,M,M,M,M,M,72.00,KLAS 120456Z 19012G20KT 10SM FEW100 BKN250 22/07 A2981 RMK AO2 SLP072 T02220072,M
NFL,2023-06-12 04:56,-118.7010,39.4166,1199.00,56.00,53.00,90.29,330.00,5.00,0.02,29.98,1012.40,10.00,M,BKN,OVC,M,M,5500.00,7500.00,M,M,-RA,M,M,M,M,M,M,55.90,KNFL 120456Z AUTO 33005KT 10SM -RA BKN055 OVC075 13/12 A2998 RMK AO2 RAB25 SLP124 P0002 T01330117,M
05U,2023-06-12 05:10,-116.0051,39.6042,1811.23,46.40,44.60,93.40,0.00,0.00,0.00,30.03,M,10.00,M,CLR,M,M,M,M,M,M,M,M,M,M,M,M,M,M,46.40,K05U 120510Z AUTO 00000KT 10SM CLR 08/07 A3003 RMK A01,M
BVU,2023-06-12 05:15,-114.8611,35.9475,671.00,73.40,41.00,31.05,190.00,12.00,0.00,29.83,M,10.00,M,BKN,OVC,M,M,9500.00,11000.00,M,M,M,M,M,M,M,M,M,73.40,KBVU 120515Z AUTO 19012KT 10SM BKN095 OVC110 23/05 A2983 RMK AO2,M
CXP,2023-06-12 05:15,-119.7326,39.1923,1431.00,53.60,51.80,93.60,210.00,4.00,0.00,30.06,M,9.00,M,BKN,OVC,M,M,4900.00,6000.00,M,M,-RA,M,M,M,M,M,M,53.60,KCXP 120515Z AUTO 21004KT 9SM -RA BKN049 OVC060 12/11 A3006 RMK AO2,M
RTS,2023-06-12 05:15,-119.8764,39.6682,1539.00,51.80,48.20,87.47,150.00,5.00,0.00,30.04,M,10.00,M,BKN,BKN,M,M,4700.00,7000.00,M,M,M,M,M,M,M,M,M,51.80,KRTS 120515Z AUTO 15005KT 10SM BKN047 BKN070 11/09 A3004 RMK AO2,M
MEV,2023-06-12 05:15,-119.7500,38.9963,1441.42,51.80,51.80,100.00,0.00,0.00,0.00,30.06,M,4.00,M,FEW,SCT,BKN,M,600.00,2900.00,3600.00,M,-RA BR,M,M,M,M,M,M,51.80,KMEV 120515Z AUTO 00000KT 4SM -RA BR FEW006 SCT029 BKN036 11/11 A3006 RMK AO2,M
BAM,2023-06-12 05:15,-116.8743,40.5990,1382.36,55.40,50.00,81.99,0.00,0.00,0.00,29.98,M,10.00,M,CLR,M,M,M,M,M,M,M,M,M,M,M,M,M,M,55.40,KBAM 120515Z AUTO 00000KT 10SM CLR 13/10 A2998 RMK AO1,M
HTH,2023-06-12 05:15,-118.6315,38.5448,1282.89,57.20,48.20,71.83,0.00,0.00,0.00,30.00,M,10.00,M,BKN,M,M,M,11000.00,M,M,M,M,M,M,M,M,M,M,57.20,KHTH 120515Z AUTO 00000KT 10SM BKN110 14/09 A3000 RMK A01,M
TMT,2023-06-12 05:15,-117.1971,39.4643,1749.34,45.30,44.20,95.90,240.00,4.00,0.00,30.03,M,10.00,M,CLR,M,M,M,M,M,M,M,M,M,M,M,M,M,M,42.95,KTMT 120515Z AUTO 24004KT 10SM CLR 07/07 A3003 RMK AO2 T00740068,M
05U,2023-06-12 05:30,-116.0051,39.6042,1811.23,44.60,42.80,93.35,0.00,0.00,0.00,30.03,M,10.00,M,CLR,M,M,M,M,M,M,M,M,M,M,M,M,M,M,44.60,K05U 120530Z AUTO 00000KT 10SM CLR 07/06 A3003 RMK A01,M
BVU,2023-06-12 05:35,-114.8611,35.9475,671.00,71.60,41.00,33.00,190.00,7.00,0.00,29.83,M,10.00,M,SCT,SCT,M,M,10000.00,12000.00,M,M,M,M,M,M,M,M,M,71.60,KBVU 120535Z AUTO 19007KT 10SM SCT100 SCT120 22/05 A2983 RMK AO2,M
CXP,2023-06-12 05:35,-119.7326,39.1923,1431.00,53.60,51.80,93.60,200.00,5.00,0.00,30.06,M,9.00,M,BKN,OVC,M,M,4900.00,6500.00,M,M,-RA,M,M,M,M,M,M,53.60,KCXP 120535Z AUTO 20005KT 9SM -RA BKN049 OVC065 12/11 A3006 RMK AO2,M
RTS,2023-06-12 05:35,-119.8764,39.6682,1539.00,51.80,48.20,87.47,330.00,6.00,0.00,30.04,M,10.00,M,FEW,M,M,M,7000.00,M,M,M,M,M,M,M,M,M,M,51.80,KRTS 120535Z AUTO 33006KT 10SM FEW070 11/09 A3004 RMK AO2,M
MEV,2023-06-12 05:35,-119.7500,38.9963,1441.42,51.80,51.80,100.00,0.00,0.00,0.00,30.06,M,7.00,M,FEW,SCT,BKN,M,700.00,3200.00,4700.00,M,-RA,M,M,M,M,M,M,51.80,KMEV 120535Z AUTO 00000KT 7SM -RA FEW007 SCT032 BKN047 11/11 A3006 RMK AO2,M
BAM,2023-06-12 05:35,-116.8743,40.5990,1382.36,55.40,50.00,81.99,0.00,0.00,0.00,29.97,M,10.00,M,CLR,M,M,M,M,M,M,M,M,M,M,M,M,M,M,55.40,KBAM 120535Z AUTO 00000KT 10SM CLR 13/10 A2997 RMK AO1,M
HTH,2023-06-12 05:35,-118.6315,38.5448,1282.89,57.20,48.20,71.83,210.00,3.00,0.00,30.00,M,10.00,M,BKN,M,M,M,11000.00,M,M,M,M,M,M,M,M,M,M,57.20,KHTH 120535Z AUTO 21003KT 10SM BKN110 14/09 A3000 RMK A01,M
TMT,2023-06-12 05:35,-117.1971,39.4643,1749.34,46.00,45.00,97.01,280.00,4.00,0.00,30.03,M,10.00,M,CLR,M,M,M,M,M,M,M,M,M,M,M,M,M,M,43.65,KTMT 120535Z AUTO 28004KT 10SM CLR 08/07 A3003 RMK AO2 T00770073,M
05U,2023-06-12 05:50,-116.0051,39.6042,1811.23,44.60,42.80,93.35,0.00,0.00,0.00,30.03,M,10.00,M,CLR,M,M,M,M,M,M,M,M,M,M,M,M,M,M,44.60,K05U 120550Z AUTO 00000KT 10SM CLR 07/06 A3003 RMK A01,M
P68,2023-06-12 05:53,-116.0056,39.6014,1993.00,46.00,43.00,89.20,M,3.00,0.00,30.00,1011.10,M,M,M,M,M,M,M,M,M,M,M,M,M,M,M,M,M,44.69,KP68 120553Z AUTO VRB03KT 08/06 A3000 RMK AO1 SLP111 T00780061 10139 20072 53002 $,M
DRA,2023-06-12 05:53,-116.0278,36.6206,1009.00,67.00,39.00,35.86,10.00,3.00,0.00,29.86,1006.80,10.00,M,FEW,M,M,M,10000.00,M,M,M,M,M,M,M,M,M,M,66.90,KDRA 120553Z AUTO 01003KT 10SM FEW100 19/04 A2986 RMK AO2 SLP068 T01940039 10261 20189 51009,M
VGT,2023-06-12 05:53,-115.1933,36.2111,667.00,73.00,46.00,38.11,190.00,14.00,0.00,29.80,1008.50,10.00,M,CLR,M,M,M,M,M,M,M,M,M,M,M,M,M,M,73.00,KVGT 120553Z AUTO 19014KT 10SM CLR 23/08 A2980 RMK AO2 SLP085 T02280078 10294 20228 51011,M
LOL,2023-06-12 05:53,-118.5701,40.0684,1192.43,54.00,53.00,96.76,80.00,4.00,0.01,29.96,1012.20,10.00,M,SCT,M,M,M,11000.00,M,M,M,M,M,M,M,M,M,M,54.00,KLOL 120553Z AUTO 08004KT 10SM SCT110 12/12 A2996 RMK AO2 RAE24 SLP122 P0001 60048 T01220117 10211 20122 58007,M
ELY,2023-06-12 05:53,-114.8453,39.2950,1909.00,40.00,38.00,92.48,180.00,8.00,0.00,30.02,1012.20,10.00,M,CLR,M,M,M,M,M,M,M,M,M,M,M,M,M,M,33.84,KELY 120553Z AUTO 18008KT 10SM CLR 04/03 A3002 RMK AO2 SLP122 60002 T00440033 10094 20044 51005,M
BVU,2023-06-12 05:55,-114.8611,35.9475,671.00,71.60,42.80,35.37,170.00,10.00,0.00,29.83,M,10.00,M,BKN,M,M,M,11000.00,M,M,M,M,M,M,M,M,M,M,71.60,KBVU 120555Z AUTO 17010KT 10SM BKN110 22/06 A2983 RMK AO2,M
CXP,2023-06-12 05:55,-119.7326,39.1923,1431.00,51.80,51.80,100.00,200.00,5.00,0.01,30.05,M,10.00,M,SCT,SCT,OVC,M,5000.00,6500.00,9500.00,M,-RA,M,M,M,M,M,M,51.80,KCXP 120555Z AUTO 20005KT 10SM -RA SCT050 SCT065 OVC095 11/11 A3005 RMK AO2 P0001,M
INS,2023-06-12 05:55,-115.6733,36.5872,955.00,67.60,40.50,37.11,0.00,0.00,0.00,29.86,1006.90,10.00,M,BKN,OVC,M,M,14000.00,17000.00,M,M,M,M,M,M,M,M,M,67.60,KINS 120555Z AUTO 00000KT 10SM BKN140 OVC170 20/05 A2986 RMK AO2 SLP069 60000 T01980047 10270 20198 51017 $,M
RNO,2023-06-12 05:55,-119.7711,39.4839,1341.00,55.00,52.00,89.59,0.00,0.00,T,30.01,1012.50,10.00,M,FEW,FEW,SCT,BKN,3000.00,8000.00,10000.00,18000.00,M,M,M,M,M,M,M,55.00,KRNO 120555Z 00000KT 10SM FEW030 FEW080 SCT100 BKN180 13/11 A3001 RMK AO2 RAE15 SLP125 P0000 60030 T01280111 10244 20128 50007 $,M
RTS,2023-06-12 05:55,-119.8764,39.6682,1539.00,50.00,50.00,100.00,360.00,7.00,0.00,30.04,M,10.00,M,CLR,M,M,M,M,M,M,M,M,M,M,M,M,M,M,50.00,KRTS 120555Z AUTO 36007KT 10SM CLR 10/10 A3004 RMK AO2,M
MEV,2023-06-12 05:55,-119.7500,38.9963,1441.42,51.80,51.80,100.00,0.00,0.00,0.00,30.05,M,9.00,M,FEW,SCT,BKN,M,1200.00,4100.00,4800.00,M,-RA,M,M,M,M,M,M,51.80,KMEV 120555Z AUTO 00000KT 9SM -RA FEW012 SCT041 BKN048 11/11 A3005 RMK AO2,M
BAM,2023-06-12 05:55,-116.8743,40.5990,1382.36,51.80,46.40,81.74,0.00,0.00,0.00,29.97,M,10.00,M,CLR,M,M,M,M,M,M,M,M,M,M,M,M,M,M,51.80,KBAM 120555Z AUTO 00000KT 10SM CLR 11/08 A2997 RMK AO1,M
HTH,2023-06-12 05:55,-118.6315,38.5448,1282.89,59.00,48.20,67.33,230.00,7.00,0.00,30.00,M,10.00,M,FEW,FEW,OVC,M,4900.00,7000.00,10000.00,M,M,M,M,M,M,M,M,59.00,KHTH 120555Z AUTO 23007KT 10SM FEW049 FEW070 OVC100 15/09 A3000 RMK A01,M
LSV,2023-06-12 05:55,-115.0343,36.2362,570.00,74.70,42.80,31.86,170.00,6.00,0.00,29.78,1006.30,10.00,M,OVC,M,M,M,13000.00,M,M,M,M,M,M,M,M,M,M,74.70,KLSV 120555Z AUTO 17006KT 10SM OVC130 24/06 A2978 RMK AO2 SLP063 T02370060 10300 20235 52015 $,M
TMT,2023-06-12 05:55,-117.1971,39.4643,1749.34,45.30,44.60,97.37,260.00,3.00,0.00,30.03,M,10.00,M,CLR,M,M,M,M,M,M,M,M,M,M,M,M,M,M,43.89,KTMT 120555Z AUTO 26003KT 10SM CLR 07/07 A3003 RMK AO2 60001 T00740070 10120 20073,M
NFL,2023-06-12 05:56,-118.7010,39.4166,1199.00,57.00,54.00,89.68,10.00,4.00,T,29.97,1012.20,10.00,M,CLR,M,M,M,M,M,M,M,M,M,M,M,M,M,M,57.00,KNFL 120556Z AUTO 01004KT 10SM CLR 14/12 A2997 RMK AO2 RAE01 SLP122 P0000 60016 T01390122 10217 20133 50009,M
HND,2023-06-12 05:56,-115.1344,35.9729,742.79,69.00,46.00,43.52,190.00,12.00,0.00,29.86,1010.20,10.00,M,CLR,M,M,M,M,M,M,M,M,M,M,M,M,M,M,69.10,KHND 120556Z AUTO 19012KT 10SM CLR 21/08 A2986 RMK AO2 SLP102 60000 T02060078 10256 20200 53009,M
TPH,2023-06-12 05:56,-117.0904,38.0505,1654.00,57.00,43.00,59.40,340.00,7.00,0.00,30.00,1009.80,10.00,M,OVC,M,M,M,10000.00,M,M,M,M,M,M,M,M,M,M,57.00,KTPH 120556Z AUTO 34007KT 10SM OVC100 14/06 A3000 RMK AO2 SLP098 T01390061 10172 20133 52010,M
EKO,2023-06-12 05:56,-115.7860,40.8242,1367.00,53.00,47.00,79.40,90.00,3.00,0.00,29.97,1011.00,10.00,M,CLR,M,M,M,M,M,M,M,M,M,M,M,M,M,M,53.10,KEKO 120556Z AUTO 09003KT 10SM CLR 12/08 A2997 RMK AO2 SLP110 T01170083 10161 20117 50000,M
LAS,2023-06-12 05:56,-115.1634,36.0719,663.00,71.00,47.00,42.05,190.00,10.00,0.00,29.81,1007.50,10.00,19.00,FEW,SCT,M,M,12000.00,25000.00,M,M,M,M,M,M,M,M,M,71.10,KLAS 120556Z 19010G19KT 10SM FEW120 SCT250 22/08 A2981 RMK AO2 SLP075 T02170083 10267 20217 51010,M
05U,2023-06-12 06:10,-116.0051,39.6042,1811.23,44.60,41.00,87.09,30.00,5.00,0.00,30.03,M,10.00,M,CLR,M,M,M,M,M,M,M,M,M,M,M,M,M,M,41.36,K05U 120610Z AUTO 03005KT 10SM CLR 07/05 A3003 RMK A01,M
BVU,2023-06-12 06:15,-114.8611,35.9475,671.00,71.60,44.60,37.89,180.00,14.00,0.00,29.84,M,10.00,M,OVC,M,M,M,11000.00,M,M,M,M,M,M,M,M,M,M,71.60,KBVU 120615Z AUTO 18014KT 10SM OVC110 22/07 A2984 RMK AO2,M
CXP,2023-06-12 06:15,-119.7326,39.1923,1431.00,53.60,51.80,93.60,190.00,5.00,0.00,30.04,M,10.00,M,FEW,SCT,OVC,M,4600.00,8000.00,9500.00,M,M,M,M,M,M,M,M,53.60,KCXP 120615Z AUTO 19005KT 10SM FEW046 SCT080 OVC095 12/11 A3004 RMK AO2,M
RTS,2023-06-12 06:15,-119.8764,39.6682,1539.00,50.00,50.00,100.00,40.00,6.00,0.00,30.04,M,10.00,M,CLR,M,M,M,M,M,M,M,M,M,M,M,M,M,M,50.00,KRTS 120615Z AUTO 04006KT 10SM CLR 10/10 A3004 RMK AO2,M
MEV,2023-06-12 06:15,-119.7500,38.9963,1441.42,51.80,50.00,93.55,160.00,5.00,0.00,30.03,M,10.00,M,FEW,FEW,OVC,M,1200.00,4500.00,6500.00,M,M,M,M,M,M,M,M,51.80,KMEV 120615Z AUTO 16005KT 10SM FEW012 FEW045 OVC065 11/10 A3003 RMK AO2,M
BAM,2023-06-12 06:15,-116.8743,40.5990,1382.36,51.80,46.40,81.74,170.00,4.00,0.00,29.97,M,10.00,M,CLR,M,M,M,M,M,M,M,M,M,M,M,M,M,M,51.80,KBAM 120615Z AUTO 17004KT 10SM CLR 11/08 A2997 RMK AO1,M
HTH,2023-06-12 06:15,-118.6315,38.5448,1282.89,59.00,48.20,67.33,290.00,6.00,0.00,30.00,M,10.00,M,FEW,FEW,OVC,M,5500.00,7000.00,9000.00,M,M,M,M,M,M,M,M,59.00,KHTH 120615Z AUTO 29006KT 10SM FEW055 FEW070 OVC090 15/09 A3000 RMK A01,M
TMT,2023-06-12 06:15,-117.1971,39.4643,1749.34,45.00,44.40,97.74,290.00,3.00,0.00,30.03,M,10.00,M,CLR,M,M,M,M,M,M,M,M,M,M,M,M,M,M,43.55,KTMT 120615Z AUTO 29003KT 10SM CLR 07/07 A3003 RMK AO2 T00720069,M
05U,2023-06-12 06:30,-116.0051,39.6042,1811.23,44.60,42.80,93.35,360.00,5.00,0.00,30.03,M,10.00,M,CLR,M,M,M,M,M,M,M,M,M,M,M,M,M,M,41.36,K05U 120630Z AUTO 36005KT 10SM CLR 07/06 A3003 RMK A01,M
BVU,2023-06-12 06:35,-114.8611,35.9475,671.00,69.80,44.60,40.29,210.00,9.00,0.00,29.84,M,10.00,15.00,OVC,M,M,M,11000.00,M,M,M,M,M,M,M,M,M,M,69.80,KBVU 120635Z AUTO 21009G15KT 10SM OVC110 21/07 A2984 RMK AO2,M
CXP,2023-06-12 06:35,-119.7326,39.1923,1431.00,51.80,51.80,100.00,M,3.00,0.00,30.03,M,10.00,M,FEW,SCT,BKN,M,8000.00,9500.00,12000.00,M,M,M,M,M,M,M,M,51.80,KCXP 120635Z AUTO VRB03KT 10SM FEW080 SCT095 BKN120 11/11 A3003 RMK AO2,M
RTS,2023-06-12 06:35,-119.8764,39.6682,1539.00,50.00,48.20,93.50,60.00,6.00,0.00,30.03,M,10.00,M,CLR,M,M,M,M,M,M,M,M,M,M,M,M,M,M,50.00,KRTS 120635Z AUTO 06006KT 10SM CLR 10/09 A3003 RMK AO2,M
MEV,2023-06-12 06:35,-119.7500,38.9963,1441.42,51.80,50.00,93.55,150.00,5.00,0.00,30.02,M,10.00,M,FEW,BKN,OVC,M,4400.00,7000.00,12000.00,M,M,M,M,M,M,M,M,51.80,KMEV 120635Z AUTO 15005KT 10SM FEW044 BKN070 OVC120 11/10 A3002 RMK AO2,M
BAM,2023-06-12 06:35,-116.8743,40.5990,1382.36,50.00,46.40,87.37,210.00,3.00,0.00,29.97,M,10.00,M,CLR,M,M,M,M,M,M,M,M,M,M,M,M,M,M,50.00,KBAM 120635Z AUTO 21003KT 10SM CLR 10/08 A2997 RMK AO1,M
HTH,2023-06-12 06:35,-118.6315,38.5448,1282.89,59.00,48.20,67.33,290.00,6.00,0.00,29.99,M,10.00,M,OVC,M,M,M,8500.00,M,M,M,M,M,M,M,M,M,M,59.00,KHTH 120635Z AUTO 29006KT 10SM OVC085 15/09 A2999 RMK A01,M
TMT,2023-06-12 06:35,-117.1971,39.4643,1749.34,43.30,42.80,98.10,130.00,4.00,0.00,30.05,M,10.00,M,CLR,M,M,M,M,M,M,M,M,M,M,M,M,M,M,40.62,KTMT 120635Z AUTO 13004KT 10SM CLR 06/06 A3005 RMK AO2 T00630060,M
05U,2023-06-12 06:50,-116.0051,39.6042,1811.23,42.80,42.80,100.00,360.00,5.00,0.00,30.03,M,10.00,M,CLR,M,M,M,M,M,M,M,M,M,M,M,M,M,M,39.22,K05U 120650Z AUTO 36005KT 10SM CLR 06/06 A3003 RMK A01,M
DRA,2023-06-12 06:53,-116.0278,36.6206,1009.00,65.00,39.00,38.44,0.00,0.00,0.00,29.87,1007.10,10.00,M,CLR,M,M,M,M,M,M,M,M,M,M,M,M,M,M,64.90,KDRA 120653Z AUTO 00000KT 10SM CLR 18/04 A2987 RMK AO2 SLP071 T01830039,M
VGT,2023-06-12 06:53,-115.1933,36.2111,667.00,73.00,45.00,36.70,140.00,8.00,0.00,29.81,1008.90,10.00,M,CLR,M,M,M,M,M,M,M,M,M,M,M,M,M,M,73.00,KVGT 120653Z AUTO 14008KT 10SM CLR 23/07 A2981 RMK AO2 SLP089 T02280072,M
LOL,2023-06-12 06:53,-118.5701,40.0684,1192.43,53.00,52.00,96.03,0.00,0.00,0.00,29.96,1012.00,10.00,M,CLR,M,M,M,M,M,M,M,M,M,M,M,M,M,M,53.10,KLOL 120653Z AUTO 00000KT 10SM CLR 12/11 A2996 RMK AO2 SLP120 T01170111,M
P68,2023-06-12 06:53,-116.0056,39.6014,1993.00,44.00,42.00,92.62,170.00,7.00,0.00,30.01,1011.10,M,M,M,M,M,M,M,M,M,M,M,M,M,M,M,M,M,39.53,KP68 120653Z AUTO 17007KT 07/06 A3001 RMK AO1 SLP111 T00670056 $,M
ELY,2023-06-12 06:53,-114.8453,39.2950,1909.00,40.00,38.00,92.48,180.00,7.00,0.00,30.02,1011.20,10.00,M,CLR,M,M,M,M,M,M,M,M,M,M,M,M,M,M,34.41,KELY 120653Z AUTO 18007KT 10SM CLR 04/03 A3002 RMK AO2 SLP112 T00440033,M
BVU,2023-06-12 06:55,-114.8611,35.9475,671.00,69.80,44.60,40.29,250.00,7.00,0.00,29.84,M,10.00,13.00,SCT,M,M,M,11000.00,M,M,M,M,M,M,M,M,M,M,69.80,KBVU 120655Z AUTO 25007G13KT 10SM SCT110 21/07 A2984 RMK AO2,M
CXP,2023-06-12 06:55,-119.7326,39.1923,1431.00,51.80,51.80,100.00,0.00,0.00,0.00,30.03,M,10.00,M,FEW,SCT,BKN,M,600.00,900.00,11000.00,M,M,M,M,M,M,M,M,51.80,KCXP 120655Z AUTO 00000KT 10SM FEW006 SCT009 BKN110 11/11 A3003 RMK AO2,M
INS,2023-06-12 06:55,-115.6733,36.5872,955.00,68.20,37.20,31.95,0.00,0.00,0.00,29.86,1006.90,10.00,M,FEW,BKN,M,M,11000.00,17000.00,M,M,M,M,M,M,M,M,M,68.20,KINS 120655Z AUTO 00000KT 10SM FEW110 BKN170 20/03 A2986 RMK AO2 SLP069 T02010029 $,M
RNO,2023-06-12 06:55,-119.7711,39.4839,1341.00,56.00,50.00,80.52,60.00,3.00,0.00,30.00,1011.90,10.00,M,SCT,SCT,M,M,10000.00,18000.00,M,M,M,M,M,M,M,M,M,55.90,KRNO 120655Z 06003KT 10SM SCT100 SCT180 13/10 A3000 RMK AO2 SLP119 T01330100 $,M
RTS,2023-06-12 06:55,-119.8764,39.6682,1539.00,50.00,48.20,93.50,70.00,3.00,0.00,30.03,M,10.00,M,FEW,M,M,M,11000.00,M,M,M,M,M,M,M,M,M,M,50.00,KRTS 120655Z AUTO 07003KT 10SM FEW110 10/09 A3003 RMK AO2,M
MEV,2023-06-12 06:55,-119.7500,38.9963,1441.42,51.80,50.00,93.55,180.00,4.00,0.00,30.01,M,10.00,M,BKN,OVC,M,M,7500.00,11000.00,M,M,M,M,M,M,M,M,M,51.80,KMEV 120655Z AUTO 18004KT 10SM BKN075 OVC110 11/10 A3001 RMK AO2,M
BAM,2023-06-12 06:55,-116.8743,40.5990,1382.36,50.00,46.40,87.37,0.00,0.00,0.00,29.97,M,10.00,M,CLR,M,M,M,M,M,M,M,M,M,M,M,M,M,M,50.00,KBAM 120655Z AUTO 00000KT 10SM CLR 10/08 A2997 RMK AO1,M
HTH,2023-06-12 06:55,-118.6315,38.5448,1282.89,59.00,48.20,67.33,220.00,5.00,0.00,29.98,M,10.00,M,OVC,M,M,M,8500.00,M,M,M,M,M,M,M,M,M,M,59.00,KHTH 120655Z AUTO 22005KT 10SM OVC085 15/09 A2998 RMK A01,M
LSV,2023-06-12 06:55,-115.0343,36.2362,570.00,73.80,42.80,32.84,160.00,6.00,0.00,29.79,1006.70,10.00,M,BKN,M,M,M,13000.00,M,M,M,M,M,M,M,M,M,M,73.80,KLSV 120655Z AUTO 16006KT 10SM BKN130 23/06 A2979 RMK AO2 SLP067 T02320060 $,M
TMT,2023-06-12 06:55,-117.1971,39.4643,1749.34,42.60,42.00,97.34,0.00,0.00,0.00,30.05,M,10.00,M,CLR,M,M,M,M,M,M,M,M,M,M,M,M,M,M,42.60,KTMT 120655Z AUTO 00000KT 10SM CLR 06/06 A3005 RMK AO2 T00590055,M
EKO,2023-06-12 06:56,-115.7860,40.8242,1367.00,53.00,46.00,76.75,20.00,4.00,0.00,29.97,1010.50,10.00,M,CLR,M,M,M,M,M,M,M,M,M,M,M,M,M,M,53.10,KEKO 120656Z AUTO 02004KT 10SM CLR 12/08 A2997 RMK AO2 SLP105 T01170078,M
NFL,2023-06-12 06:56,-118.7010,39.4166,1199.00,55.00,54.00,96.42,130.00,3.00,0.00,29.97,1012.00,10.00,M,CLR,M,M,M,M,M,M,M,M,M,M,M,M,M,M,55.00,KNFL 120656Z AUTO 13003KT 10SM CLR 13/12 A2997 RMK AO2 SLP120 T01280122,M
TPH,2023-06-12 06:56,-117.0904,38.0505,1654.00,54.00,43.00,66.24,10.00,7.00,0.00,30.00,1010.10,10.00,M,CLR,M,M,M,M,M,M,M,M,M,M,M,M,M,M,54.00,KTPH 120656Z AUTO 01007KT 10SM CLR 12/06 A3000 RMK AO2 SLP101 T01220061,M
WMC,2023-06-12 06:56,-117.8072,40.9019,1315.00,54.00,51.00,89.88,360.00,6.00,0.00,29.96,1010.90,10.00,M,BKN,M,M,M,11000.00,M,M,M,M,M,M,M,M,M,M,54.00,KWMC 120656Z AUTO 36006KT 10SM BKN110 12/11 A2996 RMK AO2 SLP109 T01220106,M
HND,2023-06-12 06:56,-115.1344,35.9729,742.79,68.00,47.00,46.76,190.00,11.00,0.00,29.86,1010.30,10.00,M,BKN,M,M,M,11000.00,M,M,M,M,M,M,M,M,M,M,68.00,KHND 120656Z AUTO 19011KT 10SM BKN110 20/08 A2986 RMK AO2 SLP103 T02000083 403000200,M
LAS,2023-06-12 06:56,-115.1634,36.0719,663.00,70.00,47.00,43.66,180.00,9.00,0.00,29.82,1007.60,10.00,M,BKN,BKN,M,M,11000.00,25000.00,M,M,M,M,M,M,M,M,M,70.00,KLAS 120656Z 18009KT 10SM BKN110 BKN250 21/08 A2982 RMK AO2 SLP076 T02110083,M
05U,2023-06-12 07:10,-116.0051,39.6042,1811.23,42.80,41.00,93.30,360.00,4.00,0.00,30.04,M,10.00,M,CLR,M,M,M,M,M,M,M,M,M,M,M,M,M,M,40.03,K05U 120710Z AUTO 36004KT 10SM CLR 06/05 A3004 RMK A01,M
BVU,2023-06-12 07:15,-114.8611,35.9475,671.00,69.80,46.40,43.13,260.00,7.00,0.00,29.83,M,10.00,M,BKN,M,M,M,11000.00,M,M,M,M,M,M,M,M,M,M,69.80,KBVU 120715Z AUTO 26007KT 10SM BKN110 21/08 A2983 RMK AO2,M
CXP,2023-06-12 07:15,-119.7326,39.1923,1431.00,51.80,51.80,100.00,0.00,0.00,0.00,30.02,M,10.00,M,FEW,BKN,OVC,M,700.00,1100.00,11000.00,M,M,M,M,M,M,M,M,51.80,KCXP 120715Z AUTO 00000KT 10SM FEW007 BKN011 OVC110 11/11 A3002 RMK AO2,M
RTS,2023-06-12 07:15,-119.8764,39.6682,1539.00,50.00,48.20,93.50,0.00,0.00,0.00,30.03,M,10.00,M,FEW,M,M,M,11000.00,M,M,M,M,M,M,M,M,M,M,50.00,KRTS 120715Z AUTO 00000KT 10SM FEW110 10/09 A3003 RMK AO2,M
MEV,2023-06-12 07:15,-119.7500,38.9963,1441.42,51.80,50.00,93.55,260.00,5.00,0.00,30.01,M,10.00,M,FEW,SCT,BKN,M,7500.00,9500.00,12000.00,M,M,M,M,M,M,M,M,51.80,KMEV 120715Z AUTO 26005KT 10SM FEW075 SCT095 BKN120 11/10 A3001 RMK AO2,M
BAM,2023-06-12 07:15,-116.8743,40.5990,1382.36,50.00,44.60,81.61,170.00,4.00,0.00,29.97,M,10.00,M,CLR,M,M,M,M,M,M,M,M,M,M,M,M,M,M,50.00,KBAM 120715Z AUTO 17004KT 10SM CLR 10/07 A2997 RMK AO1,M
HTH,2023-06-12 07:15,-118.6315,38.5448,1282.89,59.00,50.00,72.01,230.00,5.00,0.00,29.98,M,10.00,M,FEW,BKN,OVC,M,6000.00,7500.00,8500.00,M,M,M,M,M,M,M,M,59.00,KHTH 120715Z AUTO 23005KT 10SM FEW060 BKN075 OVC085 15/10 A2998 RMK A01,M
TMT,2023-06-12 07:15,-117.1971,39.4643,1749.34,42.00,41.50,98.47,0.00,0.00,0.00,30.05,M,10.00,M,CLR,M,M,M,M,M,M,M,M,M,M,M,M,M,M,41.90,KTMT 120715Z AUTO 00000KT 10SM CLR 06/05 A3005 RMK AO2 T00550053,M
05U,2023-06-12 07:30,-116.0051,39.6042,1811.23,42.80,41.00,93.30,10.00,5.00,0.00,30.04,M,10.00,M,CLR,M,M,M,M,M,M,M,M,M,M,M,M,M,M,39.22,K05U 120730Z AUTO 01005KT 10SM CLR 06/05 A3004 RMK A01,M
BVU,2023-06-12 07:35,-114.8611,35.9475,671.00,68.00,46.40,45.88,280.00,5.00,0.00,29.83,M,10.00,M,OVC,M,M,M,11000.00,M,M,M,M,M,M,M,M,M,M,68.00,KBVU 120735Z AUTO 28005KT 10SM OVC110 20/08 A2983 RMK AO2,M
CXP,2023-06-12 07:35,-119.7326,39.1923,1431.00,51.80,51.80,100.00,0.00,0.00,0.00,30.01,M,10.00,M,FEW,SCT,M,M,1000.00,11000.00,M,M,M,M,M,M,M,M,M,51.80,KCXP 120735Z AUTO 00000KT 10SM FEW010 SCT110 11/11 A3001 RMK AO2,M
RTS,2023-06-12 07:35,-119.8764,39.6682,1539.00,50.00,48.20,93.50,0.00,0.00,0.00,30.02,M,10.00,M,CLR,M,M,M,M,M,M,M,M,M,M,M,M,M,M,50.00,KRTS 120735Z AUTO 00000KT 10SM CLR 10/09 A3002 RMK AO2,M
MEV,2023-06-12 07:35,-119.7500,38.9963,1441.42,50.00,50.00,100.00,230.00,5.00,0.00,30.00,M,10.00,M,SCT,M,M,M,10000.00,M,M,M,M,M,M,M,M,M,M,50.00,KMEV 120735Z AUTO 23005KT 10SM SCT100 10/10 A3000 RMK AO2,M
BAM,2023-06-12 07:35,-116.8743,40.5990,1382.36,50.00,44.60,81.61,190.00,3.00,0.00,29.97,M,10.00,M,CLR,M,M,M,M,M,M,M,M,M,M,M,M,M,M,50.00,KBAM 120735Z AUTO 19003KT 10SM CLR 10/07 A2997 RMK AO1,M
HTH,2023-06-12 07:35,-118.6315,38.5448,1282.89,59.00,50.00,72.01,270.00,4.00,0.00,29.98,M,10.00,M,OVC,M,M,M,7500.00,M,M,M,M,M,M,M,M,M,M,59.00,KHTH 120735Z AUTO 27004KT 10SM OVC075 15/10 A2998 RMK A01,M
TMT,2023-06-12 07:35,-117.1971,39.4643,1749.34,43.50,42.00,94.04,0.00,0.00,0.00,30.04,M,10.00,M,BKN,M,M,M,6500.00,M,M,M,M,M,M,M,M,M,M,43.50,KTMT 120735Z AUTO 00000KT 10SM BKN065 06/06 A3004 RMK AO2 T00640055,M
05U,2023-06-12 07:50,-116.0051,39.6042,1811.23,42.80,41.00,93.30,10.00,3.00,0.00,30.04,M,10.00,M,CLR,M,M,M,M,M,M,M,M,M,M,M,M,M,M,41.03,K05U 120750Z AUTO 01003KT 10SM CLR 06/05 A3004 RMK A01,M
DRA,2023-06-12 07:53,-116.0278,36.6206,1009.00,63.00,39.00,41.09,270.00,3.00,0.00,29.87,1007.30,10.00,M,CLR,M,M,M,M,M,M,M,M,M,M,M,M,M,M,63.00,KDRA 120753Z AUTO 27003KT 10SM CLR 17/04 A2987 RMK AO2 SLP073 T01720039 402780172,M
ELY,2023-06-12 07:53,-114.8453,39.2950,1909.00,39.00,36.00,88.87,200.00,4.00,0.00,30.03,1010.80,10.00,M,CLR,M,M,M,M,M,M,M,M,M,M,M,M,M,M,35.59,KELY 120753Z AUTO 20004KT 10SM CLR 04/02 A3003 RMK AO2 SLP108 T00390022 401890039,M
VGT,2023-06-12 07:53,-115.1933,36.2111,667.00,73.00,46.00,38.11,50.00,5.00,0.00,29.82,1009.10,10.00,M,FEW,M,M,M,12000.00,M,M,M,M,M,M,M,M,M,M,73.00,KVGT 120753Z AUTO 05005KT 10SM FEW120 23/08 A2982 RMK AO2 SLP091 T02280078 403110222,M
LOL,2023-06-12 07:53,-118.5701,40.0684,1192.43,53.00,52.00,96.03,0.00,0.00,0.00,29.96,1012.10,10.00,M,FEW,SCT,M,M,2100.00,12000.00,M,M,M,M,M,M,M,M,M,53.10,KLOL 120753Z AUTO 00000KT 10SM FEW021 SCT120 12/11 A2996 RMK AO2 SLP121 T01170111 402720072,M
P68,2023-06-12 07:53,-116.0056,39.6014,1993.00,44.00,42.00,92.62,170.00,5.00,0.00,30.01,1011.50,M,M,M,M,M,M,M,M,M,M,M,M,M,M,M,M,M,40.77,KP68 120753Z AUTO 17005KT 07/06 A3001 RMK AO1 SLP115 T00670056 401720050 $,M
BVU,2023-06-12 07:55,-114.8611,35.9475,671.00,68.00,46.40,45.88,310.00,4.00,0.00,29.83,M,10.00,M,OVC,M,M,M,10000.00,M,M,M,M,M,M,M,M,M,M,68.00,KBVU 120755Z AUTO 31004KT 10SM OVC100 20/08 A2983 RMK AO2,M
CXP,2023-06-12 07:55,-119.7326,39.1923,1431.00,51.80,50.00,93.55,0.00,0.00,0.00,30.01,M,10.00,M,SCT,M,M,M,1300.00,M,M,M,M,M,M,M,M,M,M,51.80,KCXP 120755Z AUTO 00000KT 10SM SCT013 11/10 A3001 RMK AO2,M
RNO,2023-06-12 07:55,-119.7711,39.4839,1341.00,55.00,50.00,83.20,270.00,3.00,0.00,29.98,1011.20,10.00,M,FEW,FEW,M,M,10000.00,18000.00,M,M,M,M,M,M,M,M,M,55.00,KRNO 120755Z 27003KT 10SM FEW100 FEW180 13/10 A2998 RMK AO2 SLP112 T01280100 402500094 $,M
RTS,2023-06-12 07:55,-119.8764,39.6682,1539.00,50.00,48.20,93.50,0.00,0.00,0.00,30.01,M,10.00,M,FEW,M,M,M,7500.00,M,M,M,M,M,M,M,M,M,M,50.00,KRTS 120755Z AUTO 00000KT 10SM FEW075 10/09 A3001 RMK AO2,M
MEV,2023-06-12 07:55,-119.7500,38.9963,1441.42,50.00,48.20,93.50,0.00,0.00,0.00,30.00,M,10.00,M,FEW,M,M,M,10000.00,M,M,M,M,M,M,M,M,M,M,50.00,KMEV 120755Z AUTO 00000KT 10SM FEW100 10/09 A3000 RMK AO2,M
BAM,2023-06-12 07:55,-116.8743,40.5990,1382.36,48.20,44.60,87.28,150.00,6.00,0.00,29.98,M,10.00,M,CLR,M,M,M,M,M,M,M,M,M,M,M,M,M,M,45.04,KBAM 120755Z AUTO 15006KT 10SM CLR 09/07 A2998 RMK AO1,M
HTH,2023-06-12 07:55,-118.6315,38.5448,1282.89,57.20,50.00,76.82,0.00,0.00,0.00,29.98,M,10.00,M,OVC,M,M,M,7000.00,M,M,M,M,M,M,M,M,M,M,57.20,KHTH 120755Z AUTO 00000KT 10SM OVC070 14/10 A2998 RMK A01,M
TMT,2023-06-12 07:55,-117.1971,39.4643,1749.34,42.30,41.40,96.59,0.00,0.00,0.00,30.05,M,10.00,M,SCT,M,M,M,6500.00,M,M,M,M,M,M,M,M,M,M,42.30,KTMT 120755Z AUTO 00000KT 10SM SCT065 06/05 A3005 RMK AO2 T00570052 401910050,M
INS,2023-06-12 07:55,-115.6733,36.5872,955.00,66.40,40.00,37.79,310.00,5.00,0.00,29.87,1007.30,10.00,M,OVC,M,M,M,11000.00,M,M,M,M,M,M,M,M,M,M,66.40,KINS 120755Z AUTO 31005KT 10SM OVC110 19/04 A2987 RMK AO2 SLP073 T01910044 402860173 $,M
LSV,2023-06-12 07:55,-115.0343,36.2362,570.00,73.00,45.00,36.82,130.00,5.00,0.00,29.79,1006.60,10.00,M,OVC,M,M,M,11000.00,M,M,M,M,M,M,M,M,M,M,72.90,KLSV 120755Z AUTO 13005KT 10SM OVC110 23/07 A2979 RMK AO2 SLP066 T02270072 403180216 $,M
WMC,2023-06-12 07:56,-117.8072,40.9019,1315.00,52.00,50.00,92.86,320.00,4.00,0.00,29.97,1011.10,10.00,M,BKN,M,M,M,11000.00,M,M,M,M,M,M,M,M,M,M,52.00,KWMC 120756Z AUTO 32004KT 10SM BKN110 11/10 A2997 RMK AO2 SLP111 T01110100 402720072,M
NFL,2023-06-12 07:56,-118.7010,39.4166,1199.00,54.00,52.00,92.92,90.00,4.00,0.00,29.96,1011.80,10.00,M,FEW,M,M,M,12000.00,M,M,M,M,M,M,M,M,M,M,54.00,KNFL 120756Z AUTO 09004KT 10SM FEW120 12/11 A2996 RMK AO2 SLP118 T01220111 402440111,M
HND,2023-06-12 07:56,-115.1344,35.9729,742.79,68.00,46.00,45.19,200.00,12.00,0.00,29.86,1010.20,10.00,M,CLR,M,M,M,M,M,M,M,M,M,M,M,M,M,M,68.00,KHND 120756Z AUTO 20012KT 10SM CLR 20/08 A2986 RMK AO2 SLP102 T02000078,M
TPH,2023-06-12 07:56,-117.0904,38.0505,1654.00,50.00,43.00,76.76,340.00,7.00,0.00,30.00,1010.70,10.00,M,CLR,M,M,M,M,M,M,M,M,M,M,M,M,M,M,50.00,KTPH 120756Z AUTO 34007KT 10SM CLR 10/06 A3000 RMK AO2 SLP107 T01000061 402330100,M
LAS,2023-06-12 07:56,-115.1634,36.0719,663.00,72.00,44.00,36.68,210.00,6.00,0.00,29.82,1007.50,10.00,M,SCT,BKN,M,M,14000.00,25000.00,M,M,M,M,M,M,M,M,M,72.00,KLAS 120756Z 21006KT 10SM SCT140 BKN250 22/07 A2982 RMK AO2 SLP075 T02220067 403000211,M
EKO,2023-06-12 07:56,-115.7860,40.8242,1367.00,51.00,47.00,85.48,0.00,0.00,0.00,29.98,1010.70,10.00,M,SCT,M,M,M,11000.00,M,M,M,M,M,M,M,M,M,M,51.10,KEKO 120756Z AUTO 00000KT 10SM SCT110 11/08 A2998 RMK AO2 SLP107 T01060083 402440100,M
05U,2023-06-12 08:10,-116.0051,39.6042,1811.23,42.80,41.00,93.30,M,M,0.00,30.04,M,10.00,M,CLR,M,M,M,M,M,M,M,M,M,M,M,M,M,M,M,K05U 120810Z AUTO 10SM CLR 06/05 A3004 RMK A01,M
HTH,2023-06-12 08:10,-118.6315,38.5448,1282.89,57.20,51.80,82.12,0.00,0.00,0.00,29.98,M,10.00,M,BKN,OVC,M,M,7000.00,9000.00,M,M,M,M,M,M,M,M,M,57.20,KHTH 120810Z AUTO 00000KT 10SM BKN070 OVC090 14/11 A2998 RMK A01,M
BVU,2023-06-12 08:15,-114.8611,35.9475,671.00,68.00,46.40,45.88,320.00,4.00,0.00,29.83,M,10.00,M,BKN,M,M,M,10000.00,M,M,M,M,M,M,M,M,M,M,68.00,KBVU 120815Z AUTO 32004KT 10SM BKN100 20/08 A2983 RMK AO2,M
CXP,2023-06-12 08:15,-119.7326,39.1923,1431.00,51.80,50.00,93.55,0.00,0.00,0.00,30.01,M,10.00,M,FEW,M,M,M,1300.00,M,M,M,M,M,M,M,M,M,M,51.80,KCXP 120815Z AUTO 00000KT 10SM FEW013 11/10 A3001 RMK AO2,M
RTS,2023-06-12 08:15,-119.8764,39.6682,1539.00,48.20,48.20,100.00,350.00,5.00,0.00,30.01,M,10.00,M,FEW,M,M,M,7500.00,M,M,M,M,M,M,M,M,M,M,45.63,KRTS 120815Z AUTO 35005KT 10SM FEW075 09/09 A3001 RMK AO2,M
MEV,2023-06-12 08:15,-119.7500,38.9963,1441.42,48.20,48.20,100.00,0.00,0.00,0.00,30.00,M,10.00,M,CLR,M,M,M,M,M,M,M,M,M,M,M,M,M,M,48.20,KMEV 120815Z AUTO 00000KT 10SM CLR 09/09 A3000 RMK AO2,M
BAM,2023-06-12 08:15,-116.8743,40.5990,1382.36,50.00,44.60,81.61,220.00,3.00,0.00,29.98,M,10.00,M,CLR,M,M,M,M,M,M,M,M,M,M,M,M,M,M,50.00,KBAM 120815Z AUTO 22003KT 10SM CLR 10/07 A2998 RMK AO1,M
TMT,2023-06-12 08:15,-117.1971,39.4643,1749.34,42.60,41.40,95.48,0.00,0.00,0.00,30.04,M,10.00,M,BKN,M,M,M,6500.00,M,M,M,M,M,M,M,M,M,M,42.60,KTMT 120815Z AUTO 00000KT 10SM BKN065 06/05 A3004 RMK AO2 T00590052,M
05U,2023-06-12 08:30,-116.0051,39.6042,1811.23,41.00,41.00,100.00,0.00,0.00,0.00,30.04,M,10.00,M,CLR,M,M,M,M,M,M,M,M,M,M,M,M,M,M,41.00,K05U 120830Z AUTO 00000KT 10SM CLR 05/05 A3004 RMK A01,M
BVU,2023-06-12 08:35,-114.8611,35.9475,671.00,68.00,46.40,45.88,0.00,0.00,0.00,29.83,M,10.00,M,CLR,M,M,M,M,M,M,M,M,M,M,M,M,M,M,68.00,KBVU 120835Z AUTO 00000KT 10SM CLR 20/08 A2983 RMK AO2,M
CXP,2023-06-12 08:35,-119.7326,39.1923,1431.00,50.00,50.00,100.00,0.00,0.00,0.00,30.01,M,10.00,M,CLR,M,M,M,M,M,M,M,M,M,M,M,M,M,M,50.00,KCXP 120835Z AUTO 00000KT 10SM CLR 10/10 A3001 RMK AO2,M
RTS,2023-06-12 08:35,-119.8764,39.6682,1539.00,48.20,48.20,100.00,350.00,3.00,0.00,30.01,M,10.00,M,BKN,M,M,M,7500.00,M,M,M,M,M,M,M,M,M,M,47.21,KRTS 120835Z AUTO 35003KT 10SM BKN075 09/09 A3001 RMK AO2,M
MEV,2023-06-12 08:35,-119.7500,38.9963,1441.42,46.40,46.40,100.00,90.00,4.00,0.00,29.99,M,1.50,M,SCT,M,M,M,2800.00,M,M,M,BR,M,M,M,M,M,M,44.24,KMEV 120835Z AUTO 09004KT 1 1/2SM BR SCT028 08/08 A2999 RMK AO2,M
BAM,2023-06-12 08:35,-116.8743,40.5990,1382.36,48.20,44.60,87.28,240.00,3.00,0.00,29.99,M,10.00,M,CLR,M,M,M,M,M,M,M,M,M,M,M,M,M,M,47.21,KBAM 120835Z AUTO 24003KT 10SM CLR 09/07 A2999 RMK AO1,M
HTH,2023-06-12 08:35,-118.6315,38.5448,1282.89,57.20,48.20,71.83,0.00,0.00,0.00,29.98,M,10.00,M,BKN,OVC,M,M,7000.00,9000.00,M,M,M,M,M,M,M,M,M,57.20,KHTH 120835Z AUTO 00000KT 10SM BKN070 OVC090 14/09 A2998 RMK A01,M
TMT,2023-06-12 08:35,-117.1971,39.4643,1749.34,42.40,41.40,96.22,0.00,0.00,0.00,30.03,M,10.00,M,SCT,M,M,M,6500.00,M,M,M,M,M,M,M,M,M,M,42.40,KTMT 120835Z AUTO 00000KT 10SM SCT065 06/05 A3003 RMK AO2 T00580052,M
05U,2023-06-12 08:50,-116.0051,39.6042,1811.23,41.00,39.20,93.24,20.00,4.00,0.00,30.03,M,10.00,M,CLR,M,M,M,M,M,M,M,M,M,M,M,M,M,M,37.93,K05U 120850Z AUTO 02004KT 10SM CLR 05/04 A3003 RMK A01,M
P68,2023-06-12 08:53,-116.0056,39.6014,1993.00,41.00,39.00,92.52,150.00,5.00,0.00,30.00,1011.60,M,M,M,M,M,M,M,M,M,M,M,M,M,M,M,M,M,37.08,KP68 120853Z AUTO 15005KT 05/04 A3000 RMK AO1 SLP116 T00500039 58000 $,M
VGT,2023-06-12 08:53,-115.1933,36.2111,667.00,72.00,46.00,39.42,60.00,3.00,0.00,29.82,1009.10,10.00,M,CLR,M,M,M,M,M,M,M,M,M,M,M,M,M,M,72.00,KVGT 120853Z AUTO 06003KT 10SM CLR 22/08 A2982 RMK AO2 SLP091 T02220078 51006,M
LOL,2023-06-12 08:53,-118.5701,40.0684,1192.43,53.00,52.00,96.03,360.00,4.00,0.00,29.96,1011.40,10.00,M,CLR,M,M,M,M,M,M,M,M,M,M,M,M,M,M,53.10,KLOL 120853Z AUTO 36004KT 10SM CLR 12/11 A2996 RMK AO2 SLP114 T01170111 58002,M
DRA,2023-06-12 08:53,-116.0278,36.6206,1009.00,63.00,42.00,46.34,360.00,5.00,0.00,29.88,1007.70,10.00,M,FEW,M,M,M,11000.00,M,M,M,M,M,M,M,M,M,M,63.00,KDRA 120853Z AUTO 36005KT 10SM FEW110 17/06 A2988 RMK AO2 SLP077 T01720056 53006,M
ELY,2023-06-12 08:53,-114.8453,39.2950,1909.00,36.00,33.00,89.09,180.00,8.00,0.00,30.03,1011.60,10.00,M,CLR,M,M,M,M,M,M,M,M,M,M,M,M,M,M,29.04,KELY 120853Z AUTO 18008KT 10SM CLR 02/01 A3003 RMK AO2 SLP116 T00220006 53001,M
BVU,2023-06-12 08:55,-114.8611,35.9475,671.00,68.00,46.40,45.88,0.00,0.00,0.00,29.83,M,10.00,M,CLR,M,M,M,M,M,M,M,M,M,M,M,M,M,M,68.00,KBVU 120855Z AUTO 00000KT 10SM CLR 20/08 A2983 RMK AO2,M
CXP,2023-06-12 08:55,-119.7326,39.1923,1431.00,50.00,50.00,100.00,150.00,3.00,0.00,30.01,M,10.00,M,BKN,M,M,M,9000.00,M,M,M,M,M,M,M,M,M,M,50.00,KCXP 120855Z AUTO 15003KT 10SM BKN090 10/10 A3001 RMK AO2,M
RNO,2023-06-12 08:55,-119.7711,39.4839,1341.00,53.00,48.00,82.76,200.00,5.00,0.00,29.98,1011.10,10.00,M,FEW,SCT,M,M,2000.00,10000.00,M,M,M,M,M,M,M,M,M,53.10,KRNO 120855Z 20005KT 10SM FEW020 SCT100 12/09 A2998 RMK AO2 SLP111 T01170089 56008 $,M
RTS,2023-06-12 08:55,-119.8764,39.6682,1539.00,48.20,48.20,100.00,0.00,0.00,0.00,30.00,M,10.00,M,FEW,BKN,M,M,7500.00,11000.00,M,M,M,M,M,M,M,M,M,48.20,KRTS 120855Z AUTO 00000KT 10SM FEW075 BKN110 09/09 A3000 RMK AO2,M
MEV,2023-06-12 08:55,-119.7500,38.9963,1441.42,48.20,48.20,100.00,70.00,5.00,0.00,29.99,M,0.75,M,SCT,SCT,OVC,M,2800.00,4100.00,10000.00,M,BR,M,M,M,M,M,M,45.63,KMEV 120855Z AUTO 07005KT 3/4SM BR SCT028 SCT041 OVC100 09/09 A2999 RMK AO2,M
BAM,2023-06-12 08:55,-116.8743,40.5990,1382.36,50.00,46.40,87.37,0.00,0.00,0.00,29.98,M,10.00,M,BKN,M,M,M,12000.00,M,M,M,M,M,M,M,M,M,M,50.00,KBAM 120855Z AUTO 00000KT 10SM BKN120 10/08 A2998 RMK AO1,M
HTH,2023-06-12 08:55,-118.6315,38.5448,1282.89,57.20,50.00,76.82,0.00,0.00,0.00,29.98,M,10.00,M,OVC,M,M,M,7000.00,M,M,M,M,M,M,M,M,M,M,57.20,KHTH 120855Z AUTO 00000KT 10SM OVC070 14/10 A2998 RMK A01,M
LSV,2023-06-12 08:55,-115.0343,36.2362,570.00,72.30,45.30,38.00,110.00,3.00,0.00,29.78,1006.30,10.00,M,BKN,BKN,M,M,12000.00,15000.00,M,M,M,M,M,M,M,M,M,72.30,KLSV 120855Z AUTO 11003KT 10SM BKN120 BKN150 22/07 A2978 RMK AO2 SLP063 T02240074 50002 $,M
TMT,2023-06-12 08:55,-117.1971,39.4643,1749.34,43.20,42.00,95.13,0.00,0.00,0.00,30.03,M,10.00,M,CLR,M,M,M,M,M,M,M,M,M,M,M,M,M,M,43.20,KTMT 120855Z AUTO 00000KT 10SM CLR 06/06 A3003 RMK AO2 T00620055,M
INS,2023-06-12 08:55,-115.6733,36.5872,955.00,65.00,40.00,40.13,250.00,5.00,0.00,29.87,1007.30,10.00,M,M,M,M,M,M,M,M,M,M,M,M,M,M,M,M,64.90,KINS 120855Z AUTO 25005KT 10SM M 18/05 A2987 RMK AO2 SLP073 T01830045 53001 $,M
WMC,2023-06-12 08:56,-117.8072,40.9019,1315.00,53.00,50.00,89.18,10.00,4.00,0.00,29.97,1010.90,10.00,M,FEW,BKN,M,M,8000.00,12000.00,M,M,M,M,M,M,M,M,M,53.10,KWMC 120856Z AUTO 01004KT 10SM FEW080 BKN120 12/10 A2997 RMK AO2 SLP109 T01170100 53002,M
NFL,2023-06-12 08:56,-118.7010,39.4166,1199.00,52.00,50.00,92.86,110.00,4.00,0.00,29.95,1011.60,10.00,M,CLR,M,M,M,M,M,M,M,M,M,M,M,M,M,M,52.00,KNFL 120856Z AUTO 11004KT 10SM CLR 11/10 A2995 RMK AO2 SLP116 T01110100 56006,M
HND,2023-06-12 08:56,-115.1344,35.9729,742.79,66.00,46.00,48.43,200.00,10.00,0.00,29.86,1010.40,10.00,M,CLR,M,M,M,M,M,M,M,M,M,M,M,M,M,M,66.00,KHND 120856Z AUTO 20010KT 10SM CLR 19/08 A2986 RMK AO2 SLP104 T01890078 50000,M
TPH,2023-06-12 08:56,-117.0904,38.0505,1654.00,51.00,43.00,73.69,350.00,8.00,0.00,29.99,1010.80,10.00,M,SCT,M,M,M,11000.00,M,M,M,M,M,M,M,M,M,M,51.10,KTPH 120856Z AUTO 35008KT 10SM SCT110 11/06 A2999 RMK AO2 SLP108 T01060061 58003,M
EKO,2023-06-12 08:56,-115.7860,40.8242,1367.00,50.00,47.00,89.04,330.00,3.00,0.00,29.97,1011.90,10.00,M,CLR,M,M,M,M,M,M,M,M,M,M,M,M,M,M,50.00,KEKO 120856Z AUTO 33003KT 10SM CLR 10/08 A2997 RMK AO2 SLP119 T01000083 50001,M
LAS,2023-06-12 08:56,-115.1634,36.0719,663.00,71.00,44.00,37.81,230.00,7.00,0.00,29.82,1007.40,10.00,M,BKN,BKN,M,M,14000.00,25000.00,M,M,M,M,M,M,M,M,M,71.10,KLAS 120856Z 23007KT 10SM BKN140 BKN250 22/07 A2982 RMK AO2 SLP074 T02170067 50002,M
05U,2023-06-12 09:10,-116.0051,39.6042,1811.23,41.00,39.20,93.24,20.00,4.00,0.00,30.03,M,10.00,M,CLR,M,M,M,M,M,M,M,M,M,M,M,M,M,M,37.93,K05U 120910Z AUTO 02004KT 10SM CLR 05/04 A3003 RMK A01,M
BVU,2023-06-12 09:15,-114.8611,35.9475,671.00,66.20,46.40,48.83,40.00,4.00,0.00,29.83,M,10.00,M,CLR,M,M,M,M,M,M,M,M,M,M,M,M,M,M,66.20,KBVU 120915Z AUTO 04004KT 10SM CLR 19/08 A2983 RMK AO2,M
CXP,2023-06-12 09:15,-119.7326,39.1923,1431.00,50.00,50.00,100.00,0.00,0.00,0.00,30.02,M,10.00,M,BKN,M,M,M,9000.00,M,M,M,M,M,M,M,M,M,M,50.00,KCXP 120915Z AUTO 00000KT 10SM BKN090 10/10 A3002 RMK AO2,M
RTS,2023-06-12 09:15,-119.8764,39.6682,1539.00,50.00,46.40,87.37,0.00,0.00,0.00,30.01,M,10.00,M,BKN,M,M,M,11000.00,M,M,M,M,M,M,M,M,M,M,50.00,KRTS 120915Z AUTO 00000KT 10SM BKN110 10/08 A3001 RMK AO2,M
MEV,2023-06-12 09:15,-119.7500,38.9963,1441.42,48.20,48.20,100.00,100.00,4.00,0.00,30.00,M,10.00,M,BKN,M,M,M,10000.00,M,M,M,M,M,M,M,M,M,M,46.34,KMEV 120915Z AUTO 10004KT 10SM BKN100 09/09 A3000 RMK AO2,M
BAM,2023-06-12 09:15,-116.8743,40.5990,1382.36,50.00,46.40,87.37,0.00,0.00,0.00,29.99,M,10.00,M,OVC,M,M,M,12000.00,M,M,M,M,M,M,M,M,M,M,50.00,KBAM 120915Z AUTO 00000KT 10SM OVC120 10/08 A2999 RMK AO1,M
HTH,2023-06-12 09:15,-118.6315,38.5448,1282.89,57.20,50.00,76.82,0.00,0.00,0.00,29.98,M,10.00,M,FEW,FEW,OVC,M,4800.00,5500.00,7000.00,M,M,M,M,M,M,M,M,57.20,KHTH 120915Z AUTO 00000KT 10SM FEW048 FEW055 OVC070 14/10 A2998 RMK A01,M
TMT,2023-06-12 09:15,-117.1971,39.4643,1749.34,42.40,42.00,98.09,300.00,4.00,0.00,30.03,M,10.00,M,CLR,M,M,M,M,M,M,M,M,M,M,M,M,M,M,39.56,KTMT 120915Z AUTO 30004KT 10SM CLR 06/06 A3003 RMK AO2 T00580055,M
05U,2023-06-12 09:30,-116.0051,39.6042,1811.23,39.20,37.40,93.19,10.00,4.00,0.00,30.04,M,10.00,M,CLR,M,M,M,M,M,M,M,M,M,M,M,M,M,M,35.83,K05U 120930Z AUTO 01004KT 10SM CLR 04/03 A3004 RMK A01,M
BVU,2023-06-12 09:35,-114.8611,35.9475,671.00,66.20,48.20,52.25,40.00,5.00,0.00,29.83,M,10.00,M,CLR,M,M,M,M,M,M,M,M,M,M,M,M,M,M,66.20,KBVU 120935Z AUTO 04005KT 10SM CLR 19/09 A2983 RMK AO2,M
CXP,2023-06-12 09:35,-119.7326,39.1923,1431.00,50.00,50.00,100.00,0.00,0.00,0.00,30.02,M,10.00,M,FEW,M,M,M,9500.00,M,M,M,M,M,M,M,M,M,M,50.00,KCXP 120935Z AUTO 00000KT 10SM FEW095 10/10 A3002 RMK AO2,M
RTS,2023-06-12 09:35,-119.8764,39.6682,1539.00,51.80,46.40,81.74,0.00,0.00,0.00,30.01,M,10.00,M,OVC,M,M,M,10000.00,M,M,M,M,M,M,M,M,M,M,51.80,KRTS 120935Z AUTO 00000KT 10SM OVC100 11/08 A3001 RMK AO2,M
MEV,2023-06-12 09:35,-119.7500,38.9963,1441.42,48.20,48.20,100.00,0.00,0.00,0.00,30.01,M,10.00,M,BKN,M,M,M,10000.00,M,M,M,M,M,M,M,M,M,M,48.20,KMEV 120935Z AUTO 00000KT 10SM BKN100 09/09 A3001 RMK AO2,M
BAM,2023-06-12 09:35,-116.8743,40.5990,1382.36,51.80,46.40,81.74,210.00,3.00,0.00,29.99,M,10.00,M,SCT,OVC,M,M,8500.00,12000.00,M,M,M,M,M,M,M,M,M,51.80,KBAM 120935Z AUTO 21003KT 10SM SCT085 OVC120 11/08 A2999 RMK AO1,M
HTH,2023-06-12 09:35,-118.6315,38.5448,1282.89,57.20,51.80,82.12,0.00,0.00,0.00,29.98,M,10.00,M,FEW,FEW,OVC,M,4800.00,5500.00,7000.00,M,M,M,M,M,M,M,M,57.20,KHTH 120935Z AUTO 00000KT 10SM FEW048 FEW055 OVC070 14/11 A2998 RMK A01,M
TMT,2023-06-12 09:35,-117.1971,39.4643,1749.34,42.60,42.30,98.85,0.00,0.00,0.00,30.03,M,10.00,M,CLR,M,M,M,M,M,M,M,M,M,M,M,M,M,M,42.60,KTMT 120935Z AUTO 00000KT 10SM CLR 06/06 A3003 RMK AO2 T00590057,M
05U,2023-06-12 09:50,-116.0051,39.6042,1811.23,39.20,39.20,100.00,360.00,3.00,0.00,30.03,M,10.00,M,CLR,M,M,M,M,M,M,M,M,M,M,M,M,M,M,36.92,K05U 120950Z AUTO 36003KT 10SM CLR 04/04 A3003 RMK A01,M
P68,2023-06-12 09:53,-116.0056,39.6014,1993.00,41.00,39.00,92.52,220.00,3.00,0.00,30.00,1011.30,M,M,M,M,M,M,M,M,M,M,M,M,M,M,M,M,M,38.98,KP68 120953Z AUTO 22003KT 05/04 A3000 RMK AO1 SLP113 T00500039 $,M
DRA,2023-06-12 09:53,-116.0278,36.6206,1009.00,63.00,43.00,47.97,0.00,0.00,0.00,29.89,1008.10,10.00,M,FEW,M,M,M,12000.00,M,M,M,M,M,M,M,M,M,M,63.00,KDRA 120953Z AUTO 00000KT 10SM FEW120 17/06 A2989 RMK AO2 SLP081 T01720061,M
ELY,2023-06-12 09:53,-114.8453,39.2950,1909.00,33.00,32.00,95.67,180.00,5.00,0.00,30.03,1015.10,10.00,M,CLR,M,M,M,M,M,M,M,M,M,M,M,M,M,M,27.70,KELY 120953Z AUTO 18005KT 10SM CLR 01/00 A3003 RMK AO2 SLP151 T00060000,M
VGT,2023-06-12 09:53,-115.1933,36.2111,667.00,72.00,46.00,39.42,0.00,0.00,0.00,29.82,1009.30,10.00,M,FEW,M,M,M,11000.00,M,M,M,M,M,M,M,M,M,M,72.00,KVGT 120953Z AUTO 00000KT 10SM FEW110 22/08 A2982 RMK AO2 SLP093 T02220078,M
LOL,2023-06-12 09:53,-118.5701,40.0684,1192.43,52.00,51.00,96.73,60.00,5.00,0.00,29.97,1011.90,10.00,M,BKN,M,M,M,10000.00,M,M,M,M,M,M,M,M,M,M,52.00,KLOL 120953Z AUTO 06005KT 10SM BKN100 11/11 A2997 RMK AO2 SLP119 T01110106,M
BVU,2023-06-12 09:55,-114.8611,35.9475,671.00,66.20,46.40,48.83,70.00,5.00,0.00,29.84,M,10.00,M,CLR,M,M,M,M,M,M,M,M,M,M,M,M,M,M,66.20,KBVU 120955Z AUTO 07005KT 10SM CLR 19/08 A2984 RMK AO2,M
CXP,2023-06-12 09:55,-119.7326,39.1923,1431.00,50.00,50.00,100.00,0.00,0.00,0.00,30.02,M,10.00,M,FEW,M,M,M,9500.00,M,M,M,M,M,M,M,M,M,M,50.00,KCXP 120955Z AUTO 00000KT 10SM FEW095 10/10 A3002 RMK AO2,M
INS,2023-06-12 09:55,-115.6733,36.5872,955.00,64.20,37.40,37.00,270.00,5.00,0.00,29.87,1007.30,10.00,M,OVC,M,M,M,10000.00,M,M,M,M,M,M,M,M,M,M,64.20,KINS 120955Z AUTO 27005KT 10SM OVC100 18/03 A2987 RMK AO2 SLP073 T01790030 $,M
RTS,2023-06-12 09:55,-119.8764,39.6682,1539.00,50.00,48.20,93.50,0.00,0.00,0.00,30.01,M,10.00,M,OVC,M,M,M,10000.00,M,M,M,M,M,M,M,M,M,M,50.00,KRTS 120955Z AUTO 00000KT 10SM OVC100 10/09 A3001 RMK AO2,M
MEV,2023-06-12 09:55,-119.7500,38.9963,1441.42,50.00,48.20,93.50,0.00,0.00,0.00,30.01,M,10.00,M,OVC,M,M,M,9000.00,M,M,M,M,M,M,M,M,M,M,50.00,KMEV 120955Z AUTO 00000KT 10SM OVC090 10/09 A3001 RMK AO2,M
BAM,2023-06-12 09:55,-116.8743,40.5990,1382.36,46.40,44.60,93.40,0.00,0.00,0.00,29.99,M,10.00,M,SCT,BKN,M,M,8500.00,12000.00,M,M,M,M,M,M,M,M,M,46.40,KBAM 120955Z AUTO 00000KT 10SM SCT085 BKN120 08/07 A2999 RMK AO1,M
HTH,2023-06-12 09:55,-118.6315,38.5448,1282.89,57.20,51.80,82.12,0.00,0.00,0.00,29.98,M,9.00,M,FEW,FEW,OVC,M,4100.00,5500.00,7000.00,M,M,M,M,M,M,M,M,57.20,KHTH 120955Z AUTO 00000KT 9SM FEW041 FEW055 OVC070 14/11 A2998 RMK A01,M
TMT,2023-06-12 09:55,-117.1971,39.4643,1749.34,41.00,40.60,98.46,0.00,0.00,0.00,30.03,M,10.00,M,CLR,M,M,M,M,M,M,M,M,M,M,M,M,M,M,41.00,KTMT 120955Z AUTO 00000KT 10SM CLR 05/05 A3003 RMK AO2 T00500048,M
LSV,2023-06-12 09:55,-115.0343,36.2362,570.00,70.50,45.70,41.02,50.00,6.00,0.00,29.79,1006.70,10.00,M,CLR,M,M,M,M,M,M,M,M,M,M,M,M,M,M,70.50,KLSV 120955Z AUTO 05006KT 10SM CLR 21/08 A2979 RMK AO2 SLP067 T02140076 $,M
RNO,2023-06-12 09:55,-119.7711,39.4839,1341.00,53.00,49.00,85.59,230.00,4.00,0.00,29.99,1011.40,10.00,M,BKN,M,M,M,10000.00,M,M,M,M,M,M,M,M,M,M,53.10,KRNO 120955Z 23004KT 10SM BKN100 12/09 A2999 RMK AO2 SLP114 T01170094 $,M
WMC,2023-06-12 09:56,-117.8072,40.9019,1315.00,53.00,50.00,89.18,0.00,0.00,0.00,29.98,1011.30,10.00,M,BKN,BKN,OVC,M,7000.00,9000.00,10000.00,M,M,M,M,M,M,M,M,53.10,KWMC 120956Z AUTO 00000KT 10SM BKN070 BKN090 OVC100 12/10 A2998 RMK AO2 SLP113 T01170100,M
HND,2023-06-12 09:56,-115.1344,35.9729,742.79,67.00,46.00,46.94,220.00,10.00,0.00,29.86,1010.50,10.00,M,CLR,M,M,M,M,M,M,M,M,M,M,M,M,M,M,66.90,KHND 120956Z AUTO 22010KT 10SM CLR 19/08 A2986 RMK AO2 SLP105 T01940078,M
EKO,2023-06-12 09:56,-115.7860,40.8242,1367.00,50.00,47.00,89.04,150.00,3.00,0.00,29.98,1012.70,10.00,M,BKN,M,M,M,9500.00,M,M,M,M,M,M,M,M,M,M,50.00,KEKO 120956Z AUTO 15003KT 10SM BKN095 10/08 A2998 RMK AO2 SLP127 T01000083,M
LAS,2023-06-12 09:56,-115.1634,36.0719,663.00,70.00,44.00,39.26,220.00,6.00,0.00,29.82,1007.90,10.00,M,BKN,BKN,M,M,14000.00,25000.00,M,M,M,M,M,M,M,M,M,70.00,KLAS 120956Z 22006KT 10SM BKN140 BKN250 21/07 A2982 RMK AO2 SLP079 T02110067,M
NFL,2023-06-12 09:56,-118.7010,39.4166,1199.00,53.00,51.00,92.89,160.00,3.00,0.00,29.97,1012.00,10.00,M,SCT,M,M,M,11000.00,M,M,M,M,M,M,M,M,M,M,53.10,KNFL 120956Z AUTO 16003KT 10SM SCT110 12/11 A2997 RMK AO2 SLP120 T01170106,M
TPH,2023-06-12 09:56,-117.0904,38.0505,1654.00,49.00,42.00,77.26,360.00,7.00,0.00,29.99,1011.10,10.00,M,FEW,M,M,M,11000.00,M,M,M,M,M,M,M,M,M,M,45.38,KTPH 120956Z AUTO 36007KT 10SM FEW110 09/06 A2999 RMK AO2 SLP111 T00940056,M
05U,2023-06-12 10:10,-116.0051,39.6042,1811.23,39.20,39.20,100.00,M,M,0.00,30.03,M,10.00,M,CLR,M,M,M,M,M,M,M,M,M,M,M,M,M,M,M,K05U 121010Z AUTO 10SM CLR 04/04 A3003 RMK A01,M
BVU,2023-06-12 10:15,-114.8611,35.9475,671.00,66.20,44.60,45.60,80.00,4.00,0.00,29.84,M,10.00,M,CLR,M,M,M,M,M,M,M,M,M,M,M,M,M,M,66.20,KBVU 121015Z AUTO 08004KT 10SM CLR 19/07 A2984 RMK AO2,M
CXP,2023-06-12 10:15,-119.7326,39.1923,1431.00,50.00,50.00,100.00,320.00,4.00,0.00,30.02,M,10.00,M,FEW,FEW,M,M,9500.00,12000.00,M,M,M,M,M,M,M,M,M,50.00,KCXP 121015Z AUTO 32004KT 10SM FEW095 FEW120 10/10 A3002 RMK AO2,M
RTS,2023-06-12 10:15,-119.8764,39.6682,1539.00,50.00,48.20,93.50,0.00,0.00,0.00,30.02,M,10.00,M,OVC,M,M,M,10000.00,M,M,M,M,M,M,M,M,M,M,50.00,KRTS 121015Z AUTO 00000KT 10SM OVC100 10/09 A3002 RMK AO2,M
MEV,2023-06-12 10:15,-119.7500,38.9963,1441.42,48.20,48.20,100.00,260.00,3.00,0.00,30.00,M,9.00,M,BKN,M,M,M,8500.00,M,M,M,M,M,M,M,M,M,M,47.21,KMEV 121015Z AUTO 26003KT 9SM BKN085 09/09 A3000 RMK AO2,M
BAM,2023-06-12 10:15,-116.8743,40.5990,1382.36,46.40,44.60,93.40,0.00,0.00,0.00,29.99,M,10.00,M,SCT,M,M,M,12000.00,M,M,M,M,M,M,M,M,M,M,46.40,KBAM 121015Z AUTO 00000KT 10SM SCT120 08/07 A2999 RMK AO1,M
HTH,2023-06-12 10:15,-118.6315,38.5448,1282.89,57.20,51.80,82.12,0.00,0.00,0.00,29.99,M,10.00,M,FEW,OVC,M,M,5500.00,7000.00,M,M,M,M,M,M,M,M,M,57.20,KHTH 121015Z AUTO 00000KT 10SM FEW055 OVC070 14/11 A2999 RMK A01,M
TMT,2023-06-12 10:15,-117.1971,39.4643,1749.34,40.00,40.00,100.00,0.00,0.00,0.00,30.03,M,10.00,M,CLR,M,M,M,M,M,M,M,M,M,M,M,M,M,M,40.10,KTMT 121015Z AUTO 00000KT 10SM CLR 05/05 A3003 RMK AO2 T00450045,M
05U,2023-06-12 10:30,-116.0051,39.6042,1811.23,39.20,39.20,100.00,10.00,6.00,0.00,30.03,M,10.00,M,FEW,M,M,M,12000.00,M,M,M,M,M,M,M,M,M,M,34.20,K05U 121030Z AUTO 01006KT 10SM FEW120 04/04 A3003 RMK A01,M
BVU,2023-06-12 10:35,-114.8611,35.9475,671.00,64.40,46.40,51.98,50.00,6.00,0.00,29.84,M,10.00,M,CLR,M,M,M,M,M,M,M,M,M,M,M,M,M,M,64.40,KBVU 121035Z AUTO 05006KT 10SM CLR 18/08 A2984 RMK AO2,M
CXP,2023-06-12 10:35,-119.7326,39.1923,1431.00,50.00,50.00,100.00,0.00,0.00,0.00,30.02,M,10.00,M,CLR,M,M,M,M,M,M,M,M,M,M,M,M,M,M,50.00,KCXP 121035Z AUTO 00000KT 10SM CLR 10/10 A3002 RMK AO2,M
RTS,2023-06-12 10:35,-119.8764,39.6682,1539.00,50.00,48.20,93.50,0.00,0.00,0.00,30.02,M,10.00,M,BKN,OVC,M,M,8000.00,10000.00,M,M,M,M,M,M,M,M,M,50.00,KRTS 121035Z AUTO 00000KT 10SM BKN080 OVC100 10/09 A3002 RMK AO2,M
MEV,2023-06-12 10:35,-119.7500,38.9963,1441.42,46.40,46.40,100.00,0.00,0.00,0.00,30.01,M,8.00,M,BKN,BKN,M,M,7500.00,9000.00,M,M,M,M,M,M,M,M,M,46.40,KMEV 121035Z AUTO 00000KT 8SM BKN075 BKN090 08/08 A3001 RMK AO2,M
BAM,2023-06-12 10:35,-116.8743,40.5990,1382.36,46.40,44.60,93.40,160.00,3.00,0.00,29.99,M,10.00,M,SCT,M,M,M,8500.00,M,M,M,M,M,M,M,M,M,M,45.15,KBAM 121035Z AUTO 16003KT 10SM SCT085 08/07 A2999 RMK AO1,M
HTH,2023-06-12 10:35,-118.6315,38.5448,1282.89,57.20,51.80,82.12,0.00,0.00,0.00,29.99,M,10.00,M,BKN,OVC,M,M,7000.00,9000.00,M,M,M,M,M,M,M,M,M,57.20,KHTH 121035Z AUTO 00000KT 10SM BKN070 OVC090 14/11 A2999 RMK A01,M
TMT,2023-06-12 10:35,-117.1971,39.4643,1749.34,40.00,39.70,98.46,0.00,0.00,0.00,30.03,M,10.00,M,BKN,M,M,M,12000.00,M,M,M,M,M,M,M,M,M,M,40.10,KTMT 121035Z AUTO 00000KT 10SM BKN120 05/04 A3003 RMK AO2 T00450043,M
05U,2023-06-12 10:50,-116.0051,39.6042,1811.23,41.00,39.20,93.24,360.00,5.00,0.00,30.03,M,10.00,M,FEW,M,M,M,11000.00,M,M,M,M,M,M,M,M,M,M,37.08,K05U 121050Z AUTO 36005KT 10SM FEW110 05/04 A3003 RMK A01,M
P68,2023-06-12 10:53,-116.0056,39.6014,1993.00,41.00,39.00,92.52,190.00,6.00,0.00,30.00,1012.10,M,M,M,M,M,M,M,M,M,M,M,M,M,M,M,M,M,36.37,KP68 121053Z AUTO 19006KT 05/04 A3000 RMK AO1 SLP121 T00500039 $,M
DRA,2023-06-12 10:53,-116.0278,36.6206,1009.00,62.00,43.00,49.52,30.00,4.00,0.00,29.90,1008.30,10.00,M,CLR,M,M,M,M,M,M,M,M,M,M,M,M,M,M,62.10,KDRA 121053Z AUTO 03004KT 10SM CLR 17/06 A2990 RMK AO2 SLP083 T01670061,M
ELY,2023-06-12 10:53,-114.8453,39.2950,1909.00,33.00,32.00,95.67,170.00,8.00,0.00,30.03,1014.80,10.00,M,CLR,M,M,M,M,M,M,M,M,M,M,M,M,M,M,25.47,KELY 121053Z AUTO 17008KT 10SM CLR 01/00 A3003 RMK AO2 SLP148 T00060000,M
VGT,2023-06-12 10:53,-115.1933,36.2111,667.00,72.00,46.00,39.42,20.00,4.00,0.00,29.84,1009.70,10.00,M,OVC,M,M,M,10000.00,M,M,M,M,M,M,M,M,M,M,72.00,KVGT 121053Z AUTO 02004KT 10SM OVC100 22/08 A2984 RMK AO2 SLP097 T02220078,M
LOL,2023-06-12 10:53,-118.5701,40.0684,1192.43,53.00,52.00,96.03,330.00,4.00,0.00,29.97,1011.80,10.00,M,OVC,M,M,M,10000.00,M,M,M,M,M,M,M,M,M,M,53.10,KLOL 121053Z AUTO 33004KT 10SM OVC100 12/11 A2997 RMK AO2 SLP118 T01170111,M
BVU,2023-06-12 10:55,-114.8611,35.9475,671.00,64.40,46.40,51.98,60.00,5.00,0.00,29.85,M,10.00,M,CLR,M,M,M,M,M,M,M,M,M,M,M,M,M,M,64.40,KBVU 121055Z AUTO 06005KT 10SM CLR 18/08 A2985 RMK AO2,M
CXP,2023-06-12 10:55,-119.7326,39.1923,1431.00,50.00,48.20,93.50,0.00,0.00,0.00,30.03,M,10.00,M,SCT,M,M,M,11000.00,M,M,M,M,M,M,M,M,M,M,50.00,KCXP 121055Z AUTO 00000KT 10SM SCT110 10/09 A3003 RMK AO2,M
INS,2023-06-12 10:55,-115.6733,36.5872,955.00,65.00,37.60,36.14,230.00,4.00,0.00,29.90,1008.30,10.00,M,BKN,BKN,BKN,M,8500.00,10000.00,13000.00,M,M,M,M,M,M,M,M,65.10,KINS 121055Z AUTO 23004KT 10SM BKN085 BKN100 BKN130 18/03 A2990 RMK AO2 SLP083 T01840031 $,M
RTS,2023-06-12 10:55,-119.8764,39.6682,1539.00,50.00,48.20,93.50,0.00,0.00,0.00,30.02,M,10.00,M,BKN,OVC,M,M,7500.00,10000.00,M,M,M,M,M,M,M,M,M,50.00,KRTS 121055Z AUTO 00000KT 10SM BKN075 OVC100 10/09 A3002 RMK AO2,M
MEV,2023-06-12 10:55,-119.7500,38.9963,1441.42,48.20,48.20,100.00,0.00,0.00,0.00,30.01,M,10.00,M,OVC,M,M,M,7500.00,M,M,M,M,M,M,M,M,M,M,48.20,KMEV 121055Z AUTO 00000KT 10SM OVC075 09/09 A3001 RMK AO2,M
BAM,2023-06-12 10:55,-116.8743,40.5990,1382.36,46.40,44.60,93.40,0.00,0.00,0.00,29.99,M,10.00,M,OVC,M,M,M,8500.00,M,M,M,M,M,M,M,M,M,M,46.40,KBAM 121055Z AUTO 00000KT 10SM OVC085 08/07 A2999 RMK AO1,M
HTH,2023-06-12 10:55,-118.6315,38.5448,1282.89,57.20,50.00,76.82,0.00,0.00,0.00,29.99,M,10.00,M,SCT,OVC,M,M,7000.00,9000.00,M,M,M,M,M,M,M,M,M,57.20,KHTH 121055Z AUTO 00000KT 10SM SCT070 OVC090 14/10 A2999 RMK A01,M
LSV,2023-06-12 10:55,-115.0343,36.2362,570.00,69.00,45.00,41.90,30.00,5.00,0.00,29.81,1007.30,10.00,M,SCT,M,M,M,10000.00,M,M,M,M,M,M,M,M,M,M,69.10,KLSV 121055Z AUTO 03005KT 10SM SCT100 21/07 A2981 RMK AO2 SLP073 T02060072 $,M
TMT,2023-06-12 10:55,-117.1971,39.4643,1749.34,39.20,38.80,98.45,0.00,0.00,0.00,30.03,M,10.00,M,SCT,M,M,M,12000.00,M,M,M,M,M,M,M,M,M,M,39.20,KTMT 121055Z AUTO 00000KT 10SM SCT120 04/04 A3003 RMK AO2 T00400038,M
RNO,2023-06-12 10:55,-119.7711,39.4839,1341.00,53.00,49.00,85.59,0.00,0.00,0.00,30.01,1011.90,10.00,M,BKN,M,M,M,11000.00,M,M,M,M,M,M,M,M,M,M,53.10,KRNO 121055Z 00000KT 10SM BKN110 12/09 A3001 RMK AO2 SLP119 T01170094 $,M
NFL,2023-06-12 10:56,-118.7010,39.4166,1199.00,54.00,51.00,89.88,150.00,3.00,0.00,29.97,1012.00,10.00,M,OVC,M,M,M,10000.00,M,M,M,M,M,M,M,M,M,M,54.00,KNFL 121056Z AUTO 15003KT 10SM OVC100 12/11 A2997 RMK AO2 SLP120 T01220106,M
EKO,2023-06-12 10:56,-115.7860,40.8242,1367.00,51.00,47.00,85.48,0.00,0.00,0.00,29.99,1012.90,10.00,M,OVC,M,M,M,10000.00,M,M,M,M,M,M,M,M,M,M,51.10,KEKO 121056Z AUTO 00000KT 10SM OVC100 11/08 A2999 RMK AO2 SLP129 T01060083,M
WMC,2023-06-12 10:56,-117.8072,40.9019,1315.00,53.00,51.00,92.89,180.00,7.00,0.00,29.97,1010.80,10.00,M,OVC,M,M,M,9500.00,M,M,M,M,M,M,M,M,M,M,53.10,KWMC 121056Z AUTO 18007KT 10SM OVC095 12/11 A2997 RMK AO2 SLP108 T01170106,M
HND,2023-06-12 10:56,-115.1344,35.9729,742.79,65.00,47.00,52.06,200.00,8.00,0.00,29.87,1011.20,10.00,M,CLR,M,M,M,M,M,M,M,M,M,M,M,M,M,M,64.90,KHND 121056Z AUTO 20008KT 10SM CLR 18/08 A2987 RMK AO2 SLP112 T01830083,M
TPH,2023-06-12 10:56,-117.0904,38.0505,1654.00,47.00,42.00,83.28,20.00,7.00,0.00,30.00,1011.50,10.00,M,CLR,M,M,M,M,M,M,M,M,M,M,M,M,M,M,42.94,KTPH 121056Z AUTO 02007KT 10SM CLR 08/06 A3000 RMK AO2 SLP115 T00830056,M
LAS,2023-06-12 10:56,-115.1634,36.0719,663.00,69.00,44.00,40.48,220.00,3.00,0.00,29.84,1008.30,10.00,M,SCT,BKN,M,M,14000.00,21000.00,M,M,M,M,M,M,M,M,M,69.10,KLAS 121056Z 22003KT 10SM SCT140 BKN210 21/07 A2984 RMK AO2 SLP083 T02060067,M
05U,2023-06-12 11:10,-116.0051,39.6042,1811.23,39.20,39.20,100.00,360.00,5.00,0.00,30.04,M,10.00,M,CLR,M,M,M,M,M,M,M,M,M,M,M,M,M,M,34.95,K05U 121110Z AUTO 36005KT 10SM CLR 04/04 A3004 RMK A01,M
BVU,2023-06-12 11:15,-114.8611,35.9475,671.00,64.40,44.60,48.55,70.00,6.00,0.00,29.85,M,10.00,M,CLR,M,M,M,M,M,M,M,M,M,M,M,M,M,M,64.40,KBVU 121115Z AUTO 07006KT 10SM CLR 18/07 A2985 RMK AO2,M
CXP,2023-06-12 11:15,-119.7326,39.1923,1431.00,50.00,50.00,100.00,0.00,0.00,0.00,30.03,M,10.00,M,BKN,BKN,M,M,10000.00,12000.00,M,M,M,M,M,M,M,M,M,50.00,KCXP 121115Z AUTO 00000KT 10SM BKN100 BKN120 10/10 A3003 RMK AO2,M
RTS,2023-06-12 11:15,-119.8764,39.6682,1539.00,50.00,48.20,93.50,0.00,0.00,0.00,30.03,M,10.00,M,SCT,OVC,M,M,7500.00,10000.00,M,M,M,M,M,M,M,M,M,50.00,KRTS 121115Z AUTO 00000KT 10SM SCT075 OVC100 10/09 A3003 RMK AO2,M
MEV,2023-06-12 11:15,-119.7500,38.9963,1441.42,48.20,46.40,93.45,0.00,0.00,0.00,30.02,M,10.00,M,OVC,M,M,M,7000.00,M,M,M,M,M,M,M,M,M,M,48.20,KMEV 121115Z AUTO 00000KT 10SM OVC070 09/08 A3002 RMK AO2,M
BAM,2023-06-12 11:15,-116.8743,40.5990,1382.36,46.40,44.60,93.40,160.00,5.00,0.00,29.99,M,10.00,M,BKN,M,M,M,8500.00,M,M,M,M,M,M,M,M,M,M,43.50,KBAM 121115Z AUTO 16005KT 10SM BKN085 08/07 A2999 RMK AO1,M
HTH,2023-06-12 11:15,-118.6315,38.5448,1282.89,57.20,50.00,76.82,0.00,0.00,0.00,29.99,M,10.00,M,BKN,OVC,M,M,7000.00,9000.00,M,M,M,M,M,M,M,M,M,57.20,KHTH 121115Z AUTO 00000KT 10SM BKN070 OVC090 14/10 A2999 RMK A01,M
TMT,2023-06-12 11:15,-117.1971,39.4643,1749.34,39.00,38.50,98.06,0.00,0.00,0.00,30.03,M,10.00,M,CLR,M,M,M,M,M,M,M,M,M,M,M,M,M,M,39.00,KTMT 121115Z AUTO 00000KT 10SM CLR 04/04 A3003 RMK AO2 T00390036,M
05U,2023-06-12 11:30,-116.0051,39.6042,1811.23,39.20,39.20,100.00,20.00,5.00,0.00,30.04,M,10.00,M,CLR,M,M,M,M,M,M,M,M,M,M,M,M,M,M,34.95,K05U 121130Z AUTO 02005KT 10SM CLR 04/04 A3004 RMK A01,M
BVU,2023-06-12 11:35,-114.8611,35.9475,671.00,64.40,46.40,51.98,60.00,6.00,0.00,29.85,M,10.00,M,CLR,M,M,M,M,M,M,M,M,M,M,M,M,M,M,64.40,KBVU 121135Z AUTO 06006KT 10SM CLR 18/08 A2985 RMK AO2,M
CXP,2023-06-12 11:35,-119.7326,39.1923,1431.00,50.00,50.00,100.00,0.00,0.00,0.00,30.04,M,10.00,M,BKN,OVC,M,M,7000.00,9500.00,M,M,M,M,M,M,M,M,M,50.00,KCXP 121135Z AUTO 00000KT 10SM BKN070 OVC095 10/10 A3004 RMK AO2,M
RTS,2023-06-12 11:35,-119.8764,39.6682,1539.00,50.00,48.20,93.50,0.00,0.00,0.00,30.03,M,10.00,M,FEW,SCT,OVC,M,3200.00,7000.00,11000.00,M,M,M,M,M,M,M,M,50.00,KRTS 121135Z AUTO 00000KT 10SM FEW032 SCT070 OVC110 10/09 A3003 RMK AO2,M
MEV,2023-06-12 11:35,-119.7500,38.9963,1441.42,46.40,46.40,100.00,0.00,0.00,0.00,30.02,M,10.00,M,SCT,BKN,OVC,M,7000.00,9000.00,11000.00,M,M,M,M,M,M,M,M,46.40,KMEV 121135Z AUTO 00000KT 10SM SCT070 BKN090 OVC110 08/08 A3002 RMK AO2,M
BAM,2023-06-12 11:35,-116.8743,40.5990,1382.36,44.60,42.80,93.35,170.00,5.00,0.00,29.99,M,10.00,M,SCT,M,M,M,8500.00,M,M,M,M,M,M,M,M,M,M,41.36,KBAM 121135Z AUTO 17005KT 10SM SCT085 07/06 A2999 RMK AO1,M
HTH,2023-06-12 11:35,-118.6315,38.5448,1282.89,57.20,50.00,76.82,0.00,0.00,0.00,29.99,M,10.00,M,OVC,M,M,M,7000.00,M,M,M,M,M,M,M,M,M,M,57.20,KHTH 121135Z AUTO 00000KT 10SM OVC070 14/10 A2999 RMK A01,M
TMT,2023-06-12 11:35,-117.1971,39.4643,1749.34,39.00,38.50,98.06,0.00,0.00,0.00,30.04,M,10.00,M,CLR,M,M,M,M,M,M,M,M,M,M,M,M,M,M,39.00,KTMT 121135Z AUTO 00000KT 10SM CLR 04/04 A3004 RMK AO2 T00390036,M
05U,2023-06-12 11:50,-116.0051,39.6042,1811.23,41.00,39.20,93.24,10.00,5.00,0.00,30.04,M,10.00,M,CLR,M,M,M,M,M,M,M,M,M,M,M,M,M,M,37.08,K05U 121150Z AUTO 01005KT 10SM CLR 05/04 A3004 RMK A01,M
HTH,2023-06-12 11:50,-118.6315,38.5448,1282.89,57.20,50.00,76.82,0.00,0.00,0.00,30.00,M,10.00,M,OVC,M,M,M,6500.00,M,M,M,M,M,M,M,M,M,M,57.20,KHTH 121150Z AUTO 00000KT 10SM OVC065 14/10 A3000 RMK A01,M
P68,2023-06-12 11:53,-116.0056,39.6014,1993.00,40.00,39.00,96.55,170.00,7.00,0.00,30.01,1012.50,M,M,M,M,M,M,M,M,M,M,M,M,M,M,M,M,M,34.41,KP68 121153Z AUTO 17007KT 04/04 A3001 RMK AO1 SLP125 7//// T00440039 10078 20039 53003 $,M
ELY,2023-06-12 11:53,-114.8453,39.2950,1909.00,34.00,32.00,92.29,190.00,8.00,0.00,30.04,1014.40,10.00,M,CLR,M,M,M,M,M,M,M,M,M,M,M,M,M,M,26.58,KELY 121153Z AUTO 19008KT 10SM CLR 01/00 A3004 RMK AO2 SLP144 70030 T00110000 10056 20000 53002,M
VGT,2023-06-12 11:53,-115.1933,36.2111,667.00,71.00,46.00,40.65,10.00,6.00,0.00,29.85,1010.40,10.00,M,OVC,M,M,M,10000.00,M,M,M,M,M,M,M,M,M,M,71.10,KVGT 121153Z AUTO 01006KT 10SM OVC100 22/08 A2985 RMK AO2 SLP104 T02170078 10228 20217 53010,M
DRA,2023-06-12 11:53,-116.0278,36.6206,1009.00,59.00,42.00,53.40,250.00,5.00,0.00,29.90,1008.70,10.00,M,CLR,M,M,M,M,M,M,M,M,M,M,M,M,M,M,59.00,KDRA 121153Z AUTO 25005KT 10SM CLR 15/06 A2990 RMK AO2 SLP087 T01500056 10200 20150 51007,M
LOL,2023-06-12 11:53,-118.5701,40.0684,1192.43,52.00,51.00,96.73,90.00,5.00,0.00,29.97,1012.50,10.00,M,FEW,OVC,M,M,8000.00,11000.00,M,M,M,M,M,M,M,M,M,52.00,KLOL 121153Z AUTO 09005KT 10SM FEW080 OVC110 11/11 A2997 RMK AO2 SLP125 70048 T01110106 10122 20106 51005,M
BVU,2023-06-12 11:55,-114.8611,35.9475,671.00,66.20,44.60,45.60,70.00,5.00,0.00,29.86,M,10.00,M,CLR,M,M,M,M,M,M,M,M,M,M,M,M,M,M,66.20,KBVU 121155Z AUTO 07005KT 10SM CLR 19/07 A2986 RMK AO2,M
CXP,2023-06-12 11:55,-119.7326,39.1923,1431.00,50.00,50.00,100.00,0.00,0.00,0.00,30.04,M,10.00,M,SCT,BKN,OVC,M,4500.00,6000.00,7000.00,M,M,M,M,M,M,M,M,50.00,KCXP 121155Z AUTO 00000KT 10SM SCT045 BKN060 OVC070 10/10 A3004 RMK AO2,M
INS,2023-06-12 11:55,-115.6733,36.5872,955.00,64.60,38.50,38.10,0.00,0.00,0.00,29.91,1008.80,10.00,M,BKN,BKN,OVC,M,12000.00,15000.00,18000.00,M,M,M,M,M,M,M,M,64.60,KINS 121155Z AUTO 00000KT 10SM BKN120 BKN150 OVC180 18/04 A2991 RMK AO2 SLP088 T01810036 10202 20177 52013 $,M
RTS,2023-06-12 11:55,-119.8764,39.6682,1539.00,51.80,48.20,87.47,0.00,0.00,0.00,30.03,M,10.00,M,BKN,BKN,OVC,M,3100.00,7500.00,11000.00,M,M,M,M,M,M,M,M,51.80,KRTS 121155Z AUTO 00000KT 10SM BKN031 BKN075 OVC110 11/09 A3003 RMK AO2,M
MEV,2023-06-12 11:55,-119.7500,38.9963,1441.42,48.20,46.40,93.45,0.00,0.00,0.00,30.02,M,10.00,M,BKN,BKN,OVC,M,6000.00,7000.00,11000.00,M,M,M,M,M,M,M,M,48.20,KMEV 121155Z AUTO 00000KT 10SM BKN060 BKN070 OVC110 09/08 A3002 RMK AO2,M
BAM,2023-06-12 11:55,-116.8743,40.5990,1382.36,46.40,42.80,87.19,170.00,3.00,0.00,30.00,M,10.00,M,BKN,M,M,M,11000.00,M,M,M,M,M,M,M,M,M,M,45.15,KBAM 121155Z AUTO 17003KT 10SM BKN110 08/06 A3000 RMK AO1,M
TMT,2023-06-12 11:55,-117.1971,39.4643,1749.34,38.00,37.60,98.83,150.00,3.00,0.00,30.04,M,10.00,M,CLR,M,M,M,M,M,M,M,M,M,M,M,M,M,M,35.43,KTMT 121155Z AUTO 15003KT 10SM CLR 03/03 A3004 RMK AO2 70025 T00330031 10075 20033,M
LSV,2023-06-12 11:55,-115.0343,36.2362,570.00,68.50,44.60,42.12,10.00,5.00,0.00,29.82,1007.80,10.00,M,OVC,M,M,M,13000.00,M,M,M,M,M,M,M,M,M,M,68.50,KLSV 121155Z AUTO 01005KT 10SM OVC130 20/07 A2982 RMK AO2 SLP078 T02030070 10237 20203 52012 $,M
RNO,2023-06-12 11:55,-119.7711,39.4839,1341.00,53.00,49.00,85.59,210.00,4.00,0.00,30.01,1011.90,10.00,M,SCT,BKN,BKN,M,3800.00,8500.00,11000.00,M,M,M,M,M,M,M,M,53.10,KRNO 121155Z 21004KT 10SM SCT038 BKN085 BKN110 12/09 A3001 RMK AO2 SLP119 70030 T01170094 10133 20117 51009 $,M
EKO,2023-06-12 11:56,-115.7860,40.8242,1367.00,49.00,46.00,89.67,270.00,3.00,0.00,29.98,1012.70,10.00,M,FEW,M,M,M,11000.00,M,M,M,M,M,M,M,M,M,M,48.01,KEKO 121156Z AUTO 27003KT 10SM FEW110 09/08 A2998 RMK AO2 SLP127 70010 T00940078 10117 20094 50003,M
WMC,2023-06-12 11:56,-117.8072,40.9019,1315.00,53.00,50.00,89.18,0.00,0.00,0.00,29.98,1011.20,10.00,M,OVC,M,M,M,10000.00,M,M,M,M,M,M,M,M,M,M,53.10,KWMC 121156Z AUTO 00000KT 10SM OVC100 12/10 A2998 RMK AO2 SLP112 70006 T01170100 10128 20111 53003,M
NFL,2023-06-12 11:56,-118.7010,39.4166,1199.00,54.00,52.00,92.92,150.00,4.00,0.00,29.97,1012.20,10.00,M,BKN,OVC,M,M,9500.00,11000.00,M,M,M,M,M,M,M,M,M,54.00,KNFL 121156Z AUTO 15004KT 10SM BKN095 OVC110 12/11 A2997 RMK AO2 SLP122 70016 T01220111 10139 20111 51006,M
TPH,2023-06-12 11:56,-117.0904,38.0505,1654.00,45.00,41.00,85.77,10.00,6.00,0.00,30.01,1012.40,10.00,M,CLR,M,M,M,M,M,M,M,M,M,M,M,M,M,M,41.19,KTPH 121156Z AUTO 01006KT 10SM CLR 07/05 A3001 RMK AO2 SLP124 T00720050 10139 20072 53006,M
LAS,2023-06-12 11:56,-115.1634,36.0719,663.00,68.00,46.00,45.19,0.00,0.00,0.00,29.86,1009.00,10.00,M,BKN,M,M,M,13000.00,M,M,M,M,M,M,M,M,M,M,68.00,KLAS 121156Z 00000KT 10SM BKN130 20/08 A2986 RMK AO2 SLP090 BKN V OVC T02000078 10222 20200 53012,M
HND,2023-06-12 11:56,-115.1344,35.9729,742.79,65.00,47.00,52.06,210.00,8.00,0.00,29.88,1011.60,10.00,M,BKN,M,M,M,10000.00,M,M,M,M,M,M,M,M,M,M,64.90,KHND 121156Z AUTO 21008KT 10SM BKN100 18/08 A2988 RMK AO2 SLP116 70005 T01830083 10206 20178 53009,M
05U,2023-06-12 12:10,-116.0051,39.6042,1811.23,39.20,39.20,100.00,0.00,0.00,0.00,30.05,M,10.00,M,CLR,M,M,M,M,M,M,M,M,M,M,M,M,M,M,39.20,K05U 121210Z AUTO 00000KT 10SM CLR 04/04 A3005 RMK A01,M
WMC,2023-06-12 12:10,-117.8072,40.9019,1315.00,54.00,51.00,89.88,30.00,3.00,0.00,29.98,M,10.00,M,FEW,OVC,M,M,700.00,10000.00,M,M,M,M,M,M,M,M,M,54.00,KWMC 121210Z AUTO 03003KT 10SM FEW007 OVC100 12/11 A2998 RMK AO2 T01220106,M
BVU,2023-06-12 12:15,-114.8611,35.9475,671.00,62.60,46.40,55.37,40.00,5.00,0.00,29.87,M,10.00,M,CLR,M,M,M,M,M,M,M,M,M,M,M,M,M,M,62.60,KBVU 121215Z AUTO 04005KT 10SM CLR 17/08 A2987 RMK AO2,M
CXP,2023-06-12 12:15,-119.7326,39.1923,1431.00,50.00,50.00,100.00,0.00,0.00,0.00,30.04,M,10.00,M,FEW,OVC,M,M,4400.00,6000.00,M,M,M,M,M,M,M,M,M,50.00,KCXP 121215Z AUTO 00000KT 10SM FEW044 OVC060 10/10 A3004 RMK AO2,M
RTS,2023-06-12 12:15,-119.8764,39.6682,1539.00,51.80,48.20,87.47,0.00,0.00,0.00,30.03,M,10.00,M,BKN,OVC,M,M,2900.00,7000.00,M,M,M,M,M,M,M,M,M,51.80,KRTS 121215Z AUTO 00000KT 10SM BKN029 OVC070 11/09 A3003 RMK AO2,M
MEV,2023-06-12 12:15,-119.7500,38.9963,1441.42,48.20,48.20,100.00,0.00,0.00,0.00,30.03,M,10.00,M,BKN,OVC,M,M,6000.00,7000.00,M,M,M,M,M,M,M,M,M,48.20,KMEV 121215Z AUTO 00000KT 10SM BKN060 OVC070 09/09 A3003 RMK AO2,M
BAM,2023-06-12 12:15,-116.8743,40.5990,1382.36,46.40,42.80,87.19,0.00,0.00,0.00,30.00,M,10.00,M,OVC,M,M,M,11000.00,M,M,M,M,M,M,M,M,M,M,46.40,KBAM 121215Z AUTO 00000KT 10SM OVC110 08/06 A3000 RMK AO1,M
HTH,2023-06-12 12:15,-118.6315,38.5448,1282.89,57.20,50.00,76.82,260.00,4.00,0.00,30.00,M,10.00,M,OVC,M,M,M,6500.00,M,M,M,M,M,M,M,M,M,M,57.20,KHTH 121215Z AUTO 26004KT 10SM OVC065 14/10 A3000 RMK A01,M
TMT,2023-06-12 12:15,-117.1971,39.4643,1749.34,39.70,39.40,98.84,0.00,0.00,0.00,30.04,M,10.00,M,CLR,M,M,M,M,M,M,M,M,M,M,M,M,M,M,39.70,KTMT 121215Z AUTO 00000KT 10SM CLR 04/04 A3004 RMK AO2 T00430041,M
05U,2023-06-12 12:30,-116.0051,39.6042,1811.23,39.20,37.40,93.19,360.00,4.00,0.00,30.05,M,10.00,M,CLR,M,M,M,M,M,M,M,M,M,M,M,M,M,M,35.83,K05U 121230Z AUTO 36004KT 10SM CLR 04/03 A3005 RMK A01,M
BVU,2023-06-12 12:35,-114.8611,35.9475,671.00,64.40,46.40,51.98,60.00,5.00,0.00,29.87,M,10.00,M,CLR,M,M,M,M,M,M,M,M,M,M,M,M,M,M,64.40,KBVU 121235Z AUTO 06005KT 10SM CLR 18/08 A2987 RMK AO2,M
CXP,2023-06-12 12:35,-119.7326,39.1923,1431.00,50.00,50.00,100.00,0.00,0.00,0.00,30.04,M,10.00,M,SCT,BKN,OVC,M,4500.00,6000.00,6500.00,M,M,M,M,M,M,M,M,50.00,KCXP 121235Z AUTO 00000KT 10SM SCT045 BKN060 OVC065 10/10 A3004 RMK AO2,M
RTS,2023-06-12 12:35,-119.8764,39.6682,1539.00,51.80,48.20,87.47,0.00,0.00,0.00,30.04,M,10.00,M,BKN,BKN,OVC,M,2700.00,3500.00,7000.00,M,M,M,M,M,M,M,M,51.80,KRTS 121235Z AUTO 00000KT 10SM BKN027 BKN035 OVC070 11/09 A3004 RMK AO2,M
MEV,2023-06-12 12:35,-119.7500,38.9963,1441.42,48.20,48.20,100.00,0.00,0.00,0.00,30.03,M,6.00,M,SCT,OVC,M,M,4500.00,6000.00,M,M,BR,M,M,M,M,M,M,48.20,KMEV 121235Z AUTO 00000KT 6SM BR SCT045 OVC060 09/09 A3003 RMK AO2,M
BAM,2023-06-12 12:35,-116.8743,40.5990,1382.36,46.40,42.80,87.19,0.00,0.00,0.00,30.00,M,10.00,M,OVC,M,M,M,11000.00,M,M,M,M,M,M,M,M,M,M,46.40,KBAM 121235Z AUTO 00000KT 10SM OVC110 08/06 A3000 RMK AO1,M
HTH,2023-06-12 12:35,-118.6315,38.5448,1282.89,57.20,50.00,76.82,260.00,3.00,0.00,30.01,M,10.00,M,OVC,M,M,M,6500.00,M,M,M,M,M,M,M,M,M,M,57.20,KHTH 121235Z AUTO 26003KT 10SM OVC065 14/10 A3001 RMK A01,M
TMT,2023-06-12 12:35,-117.1971,39.4643,1749.34,40.00,39.60,98.07,200.00,5.00,0.00,30.05,M,10.00,M,CLR,M,M,M,M,M,M,M,M,M,M,M,M,M,M,36.01,KTMT 121235Z AUTO 20005KT 10SM CLR 05/04 A3005 RMK AO2 LTG DSNT S T00450042,M
05U,2023-06-12 12:50,-116.0051,39.6042,1811.23,39.20,37.40,93.19,360.00,4.00,0.00,30.06,M,10.00,M,CLR,M,M,M,M,M,M,M,M,M,M,M,M,M,M,35.83,K05U 121250Z AUTO 36004KT 10SM CLR 04/03 A3006 RMK A01,M
P68,2023-06-12 12:53,-116.0056,39.6014,1993.00,39.00,37.00,92.45,190.00,4.00,0.00,30.03,1012.90,M,M,M,M,M,M,M,M,M,M,M,M,M,M,M,M,M,35.59,KP68 121253Z AUTO 19004KT 04/03 A3003 RMK AO1 SLP129 T00390028 $,M
VGT,2023-06-12 12:53,-115.1933,36.2111,667.00,71.00,46.00,40.65,30.00,7.00,0.00,29.88,1011.30,10.00,M,BKN,M,M,M,11000.00,M,M,M,M,M,M,M,M,M,M,71.10,KVGT 121253Z 03007KT 10SM BKN110 22/08 A2988 RMK AO2 SLP113 T02170078,M
DRA,2023-06-12 12:53,-116.0278,36.6206,1009.00,61.00,42.00,49.73,40.00,4.00,0.00,29.92,1009.50,10.00,M,CLR,M,M,M,M,M,M,M,M,M,M,M,M,M,M,61.00,KDRA 121253Z AUTO 04004KT 10SM CLR 16/06 A2992 RMK AO2 SLP095 T01610056,M
ELY,2023-06-12 12:53,-114.8453,39.2950,1909.00,34.00,33.00,96.46,180.00,9.00,0.00,30.04,1014.30,10.00,M,CLR,M,M,M,M,M,M,M,M,M,M,M,M,M,M,26.00,KELY 121253Z AUTO 18009KT 10SM CLR 01/01 A3004 RMK AO2 SLP143 T00110006,M
LOL,2023-06-12 12:53,-118.5701,40.0684,1192.43,52.00,51.00,96.73,250.00,3.00,0.00,29.98,1013.20,10.00,M,BKN,M,M,M,11000.00,M,M,M,M,M,M,M,M,M,M,52.00,KLOL 121253Z AUTO 25003KT 10SM BKN110 11/11 A2998 RMK AO2 SLP132 T01110106,M
BVU,2023-06-12 12:55,-114.8611,35.9475,671.00,66.20,44.60,45.60,70.00,5.00,0.00,29.88,M,10.00,11.00,CLR,M,M,M,M,M,M,M,M,M,M,M,M,M,M,66.20,KBVU 121255Z AUTO 07005G11KT 10SM CLR 19/07 A2988 RMK AO2,M
CXP,2023-06-12 12:55,-119.7326,39.1923,1431.00,50.00,50.00,100.00,0.00,0.00,0.00,30.04,M,10.00,M,SCT,OVC,M,M,4400.00,6500.00,M,M,M,M,M,M,M,M,M,50.00,KCXP 121255Z AUTO 00000KT 10SM SCT044 OVC065 10/10 A3004 RMK AO2,M
RNO,2023-06-12 12:55,-119.7711,39.4839,1341.00,54.00,48.00,80.07,0.00,0.00,0.00,30.01,1012.40,10.00,M,BKN,BKN,BKN,M,3600.00,8000.00,11000.00,M,M,M,M,M,M,M,M,54.00,KRNO 121255Z 00000KT 10SM BKN036 BKN080 BKN110 12/09 A3001 RMK AO2 SLP124 T01220089 $,M
RTS,2023-06-12 12:55,-119.8764,39.6682,1539.00,51.80,48.20,87.47,150.00,4.00,0.00,30.03,M,10.00,M,BKN,BKN,OVC,M,2900.00,6000.00,10000.00,M,M,M,M,M,M,M,M,51.80,KRTS 121255Z AUTO 15004KT 10SM BKN029 BKN060 OVC100 11/09 A3003 RMK AO2,M
MEV,2023-06-12 12:55,-119.7500,38.9963,1441.42,48.20,48.20,100.00,0.00,0.00,0.00,30.03,M,8.00,M,OVC,M,M,M,4400.00,M,M,M,M,M,M,M,M,M,M,48.20,KMEV 121255Z AUTO 00000KT 8SM OVC044 09/09 A3003 RMK AO2,M
BAM,2023-06-12 12:55,-116.8743,40.5990,1382.36,46.40,42.80,87.19,200.00,3.00,0.00,30.01,M,10.00,M,OVC,M,M,M,11000.00,M,M,M,M,M,M,M,M,M,M,45.15,KBAM 121255Z AUTO 20003KT 10SM OVC110 08/06 A3001 RMK AO1,M
HTH,2023-06-12 12:55,-118.6315,38.5448,1282.89,57.20,51.80,82.12,0.00,0.00,0.00,30.01,M,10.00,M,OVC,M,M,M,6000.00,M,M,M,M,M,M,M,M,M,M,57.20,KHTH 121255Z AUTO 00000KT 10SM OVC060 14/11 A3001 RMK A01,M
TMT,2023-06-12 12:55,-117.1971,39.4643,1749.34,39.00,38.30,97.30,170.00,5.00,0.00,30.05,M,10.00,M,CLR,M,M,M,M,M,M,M,M,M,M,M,M,M,M,34.71,KTMT 121255Z AUTO 17005KT 10SM CLR 04/04 A3005 RMK AO2 T00390035,M
LSV,2023-06-12 12:55,-115.0343,36.2362,570.00,68.20,44.80,42.88,350.00,4.00,0.00,29.85,1008.80,10.00,M,SCT,SCT,M,M,12000.00,14000.00,M,M,M,M,M,M,M,M,M,68.20,KLSV 121255Z AUTO 35004KT 10SM SCT120 SCT140 20/07 A2985 RMK AO2 SLP088 T02010071 $,M
INS,2023-06-12 12:55,-115.6733,36.5872,955.00,65.00,40.60,40.91,120.00,12.00,0.00,29.92,1009.20,10.00,M,FEW,SCT,SCT,OVC,3800.00,7000.00,8500.00,10000.00,M,M,M,M,M,M,M,64.90,KINS 121255Z AUTO 12012KT 10SM FEW038 SCT070 SCT085 OVC100 18/05 A2992 RMK AO2 SLP092 T01830048 $,M
INS,2023-06-12 12:56,-115.6733,36.5872,955.00,64.40,41.00,42.28,120.00,11.00,0.00,29.92,1009.20,10.00,M,FEW,SCT,SCT,OVC,3600.00,7000.00,8500.00,10000.00,-RA,M,M,M,M,M,M,64.40,KINS 121256Z AUTO 12011KT 10SM -RA FEW036 SCT070 SCT085 OVC100 18/05 A2992 RMK AO2 RAB55 SLP092 $,M
WMC,2023-06-12 12:56,-117.8072,40.9019,1315.00,53.00,50.00,89.18,130.00,3.00,0.00,29.99,1012.20,10.00,M,OVC,M,M,M,10000.00,M,M,M,M,M,M,M,M,M,M,53.10,KWMC 121256Z AUTO 13003KT 10SM OVC100 12/10 A2999 RMK AO2 SLP122 T01170100,M
NFL,2023-06-12 12:56,-118.7010,39.4166,1199.00,54.00,52.00,92.92,0.00,0.00,0.00,29.98,1012.40,10.00,M,SCT,M,M,M,11000.00,M,M,M,M,M,M,M,M,M,M,54.00,KNFL 121256Z AUTO 00000KT 10SM SCT110 12/11 A2998 RMK AO2 SLP124 T01220111,M
TPH,2023-06-12 12:56,-117.0904,38.0505,1654.00,45.00,41.00,85.77,320.00,5.00,0.00,30.02,1013.00,10.00,M,CLR,M,M,M,M,M,M,M,M,M,M,M,M,M,M,41.83,KTPH 121256Z AUTO 32005KT 10SM CLR 07/05 A3002 RMK AO2 SLP130 T00720050,M
LAS,2023-06-12 12:56,-115.1634,36.0719,663.00,69.00,46.00,43.52,330.00,3.00,0.00,29.88,1010.00,10.00,M,BKN,BKN,M,M,9500.00,13000.00,M,M,M,M,M,M,M,M,M,69.10,KLAS 121256Z 33003KT 10SM BKN095 BKN130 21/08 A2988 RMK AO2 SLP100 VCSH NE AND S T02060078,M
EKO,2023-06-12 12:56,-115.7860,40.8242,1367.00,50.00,47.00,89.04,290.00,3.00,0.00,29.99,1012.90,10.00,M,BKN,M,M,M,7000.00,M,M,M,M,M,M,M,M,M,M,50.00,KEKO 121256Z AUTO 29003KT 10SM BKN070 10/08 A2999 RMK AO2 SLP129 T01000083,M
HND,2023-06-12 12:56,-115.1344,35.9729,742.79,65.00,49.00,56.12,220.00,11.00,0.00,29.91,1012.70,10.00,M,FEW,BKN,M,M,9500.00,12000.00,M,M,M,M,M,M,M,M,M,64.90,KHND 121256Z AUTO 22011KT 10SM FEW095 BKN120 18/09 A2991 RMK AO2 SLP127 T01830094,M
INS,2023-06-12 13:04,-115.6733,36.5872,955.00,64.40,41.00,42.28,100.00,10.00,0.00,29.93,1009.50,10.00,M,FEW,BKN,OVC,M,3600.00,8000.00,10000.00,M,M,M,M,M,M,M,M,64.40,KINS 121304Z AUTO 10010KT 10SM FEW036 BKN080 OVC100 18/05 A2993 RMK AO2 RAB1255E04 SLP095 $,M
05U,2023-06-12 13:10,-116.0051,39.6042,1811.23,41.00,41.00,100.00,10.00,3.00,0.00,30.06,M,10.00,M,CLR,M,M,M,M,M,M,M,M,M,M,M,M,M,M,38.98,K05U 121310Z AUTO 01003KT 10SM CLR 05/05 A3006 RMK A01,M
BVU,2023-06-12 13:15,-114.8611,35.9475,671.00,68.00,44.60,42.85,0.00,0.00,0.00,29.89,M,10.00,M,CLR,M,M,M,M,M,M,M,M,M,M,M,M,M,M,68.00,KBVU 121315Z AUTO 00000KT 10SM CLR 20/07 A2989 RMK AO2,M
CXP,2023-06-12 13:15,-119.7326,39.1923,1431.00,51.80,50.00,93.55,0.00,0.00,0.00,30.04,M,10.00,M,BKN,BKN,OVC,M,3900.00,4700.00,6500.00,M,M,M,M,M,M,M,M,51.80,KCXP 121315Z AUTO 00000KT 10SM BKN039 BKN047 OVC065 11/10 A3004 RMK AO2,M
RTS,2023-06-12 13:15,-119.8764,39.6682,1539.00,51.80,50.00,93.55,350.00,3.00,0.00,30.04,M,10.00,M,BKN,BKN,OVC,M,2800.00,6000.00,10000.00,M,M,M,M,M,M,M,M,51.80,KRTS 121315Z AUTO 35003KT 10SM BKN028 BKN060 OVC100 11/10 A3004 RMK AO2,M
MEV,2023-06-12 13:15,-119.7500,38.9963,1441.42,50.00,48.20,93.50,0.00,0.00,0.00,30.03,M,10.00,M,BKN,OVC,M,M,4400.00,5000.00,M,M,M,M,M,M,M,M,M,50.00,KMEV 121315Z AUTO 00000KT 10SM BKN044 OVC050 10/09 A3003 RMK AO2,M
BAM,2023-06-12 13:15,-116.8743,40.5990,1382.36,50.00,46.40,87.37,190.00,3.00,0.00,30.01,M,10.00,M,OVC,M,M,M,11000.00,M,M,M,M,M,M,M,M,M,M,50.00,KBAM 121315Z AUTO 19003KT 10SM OVC110 10/08 A3001 RMK AO1,M
HTH,2023-06-12 13:15,-118.6315,38.5448,1282.89,57.20,51.80,82.12,0.00,0.00,0.00,30.01,M,10.00,M,OVC,M,M,M,6500.00,M,M,M,M,M,M,M,M,M,M,57.20,KHTH 121315Z AUTO 00000KT 10SM OVC065 14/11 A3001 RMK A01,M
TMT,2023-06-12 13:15,-117.1971,39.4643,1749.34,40.80,40.30,98.08,170.00,5.00,0.00,30.06,M,10.00,M,CLR,M,M,M,M,M,M,M,M,M,M,M,M,M,M,36.85,KTMT 121315Z AUTO 17005KT 10SM CLR 05/05 A3006 RMK AO2 T00490046,M
05U,2023-06-12 13:30,-116.0051,39.6042,1811.23,44.60,42.80,93.35,360.00,3.00,0.00,30.06,M,10.00,M,CLR,M,M,M,M,M,M,M,M,M,M,M,M,M,M,43.09,K05U 121330Z AUTO 36003KT 10SM CLR 07/06 A3006 RMK A01,M
BVU,2023-06-12 13:35,-114.8611,35.9475,671.00,68.00,44.60,42.85,0.00,0.00,0.00,29.89,M,10.00,M,CLR,M,M,M,M,M,M,M,M,M,M,M,M,M,M,68.00,KBVU 121335Z AUTO 00000KT 10SM CLR 20/07 A2989 RMK AO2,M
CXP,2023-06-12 13:35,-119.7326,39.1923,1431.00,51.80,50.00,93.55,0.00,0.00,0.00,30.04,M,10.00,M,SCT,BKN,OVC,M,3900.00,6500.00,8500.00,M,M,M,M,M,M,M,M,51.80,KCXP 121335Z AUTO 00000KT 10SM SCT039 BKN065 OVC085 11/10 A3004 RMK AO2,M
RTS,2023-06-12 13:35,-119.8764,39.6682,1539.00,51.80,48.20,87.47,0.00,0.00,0.00,30.04,M,10.00,M,BKN,OVC,M,M,2800.00,10000.00,M,M,M,M,M,M,M,M,M,51.80,KRTS 121335Z AUTO 00000KT 10SM BKN028 OVC100 11/09 A3004 RMK AO2,M
MEV,2023-06-12 13:35,-119.7500,38.9963,1441.42,50.00,50.00,100.00,0.00,0.00,0.00,30.03,M,10.00,M,BKN,OVC,M,M,4400.00,5000.00,M,M,M,M,M,M,M,M,M,50.00,KMEV 121335Z AUTO 00000KT 10SM BKN044 OVC050 10/10 A3003 RMK AO2,M
BAM,2023-06-12 13:35,-116.8743,40.5990,1382.36,50.00,46.40,87.37,200.00,3.00,0.00,30.01,M,10.00,M,OVC,M,M,M,11000.00,M,M,M,M,M,M,M,M,M,M,50.00,KBAM 121335Z AUTO 20003KT 10SM OVC110 10/08 A3001 RMK AO1,M
HTH,2023-06-12 13:35,-118.6315,38.5448,1282.89,57.20,50.00,76.82,210.00,3.00,0.00,30.01,M,10.00,M,OVC,M,M,M,6500.00,M,M,M,M,M,M,M,M,M,M,57.20,KHTH 121335Z AUTO 21003KT 10SM OVC065 14/10 A3001 RMK A01,M
TMT,2023-06-12 13:35,-117.1971,39.4643,1749.34,43.70,42.30,94.77,0.00,0.00,0.00,30.07,M,10.00,M,CLR,M,M,M,M,M,M,M,M,M,M,M,M,M,M,43.70,KTMT 121335Z AUTO 00000KT 10SM CLR 07/06 A3007 RMK AO2 T00650057,M
05U,2023-06-12 13:50,-116.0051,39.6042,1811.23,46.40,44.60,93.40,0.00,0.00,0.00,30.06,M,10.00,M,CLR,M,M,M,M,M,M,M,M,M,M,M,M,M,M,46.40,K05U 121350Z AUTO 00000KT 10SM CLR 08/07 A3006 RMK A01,M
LOL,2023-06-12 13:53,-118.5701,40.0684,1192.43,53.00,52.00,96.03,340.00,3.00,0.00,29.99,1013.80,10.00,M,OVC,M,M,M,11000.00,M,M,M,M,M,M,M,M,M,M,53.10,KLOL 121353Z AUTO 34003KT 10SM OVC110 12/11 A2999 RMK AO2 SLP138 T01170111,M
P68,2023-06-12 13:53,-116.0056,39.6014,1993.00,46.00,44.00,93.03,210.00,3.00,0.00,30.03,1012.50,M,M,M,M,M,M,M,M,M,M,M,M,M,M,M,M,M,44.69,KP68 121353Z AUTO 21003KT 08/07 A3003 RMK AO1 SLP125 T00780067 $,M
DRA,2023-06-12 13:53,-116.0278,36.6206,1009.00,63.00,42.00,46.34,0.00,0.00,0.00,29.94,1010.30,10.00,M,SCT,M,M,M,12000.00,M,M,M,M,M,M,M,M,M,M,63.00,KDRA 121353Z AUTO 00000KT 10SM SCT120 17/06 A2994 RMK AO2 SLP103 T01720056,M
VGT,2023-06-12 13:53,-115.1933,36.2111,667.00,71.00,45.00,39.13,360.00,6.00,0.00,29.89,1011.70,10.00,M,SCT,M,M,M,12000.00,M,M,M,M,M,M,M,M,M,M,71.10,KVGT 121353Z 36006KT 10SM SCT120 22/07 A2989 RMK AO2 SLP117 T02170072,M
ELY,2023-06-12 13:53,-114.8453,39.2950,1909.00,35.00,33.00,92.32,170.00,5.00,0.00,30.05,1014.70,10.00,M,CLR,M,M,M,M,M,M,M,M,M,M,M,M,M,M,30.08,KELY 121353Z AUTO 17005KT 10SM CLR 02/01 A3005 RMK AO2 SLP147 T00170006,M
BVU,2023-06-12 13:55,-114.8611,35.9475,671.00,68.00,44.60,42.85,0.00,0.00,0.00,29.90,M,10.00,M,CLR,M,M,M,M,M,M,M,M,M,M,M,M,M,M,68.00,KBVU 121355Z AUTO 00000KT 10SM CLR 20/07 A2990 RMK AO2,M
CXP,2023-06-12 13:55,-119.7326,39.1923,1431.00,51.80,50.00,93.55,0.00,0.00,0.00,30.05,M,10.00,M,SCT,BKN,OVC,M,3700.00,6000.00,8500.00,M,M,M,M,M,M,M,M,51.80,KCXP 121355Z AUTO 00000KT 10SM SCT037 BKN060 OVC085 11/10 A3005 RMK AO2,M
INS,2023-06-12 13:55,-115.6733,36.5872,955.00,62.00,44.60,53.01,110.00,10.00,T,29.96,1010.70,10.00,M,BKN,OVC,M,M,8500.00,11000.00,M,M,M,M,M,M,M,M,M,61.90,KINS 121355Z AUTO 11010KT 10SM BKN085 OVC110 17/07 A2996 RMK AO2 RAB1255E04 SLP107 P0000 T01660070 $,M
RNO,2023-06-12 13:55,-119.7711,39.4839,1341.00,55.00,48.00,77.21,280.00,3.00,0.00,30.02,1012.70,10.00,M,FEW,SCT,BKN,M,2000.00,3600.00,7500.00,M,M,M,M,M,M,M,M,55.00,KRNO 121355Z 28003KT 10SM FEW020 SCT036 BKN075 13/09 A3002 RMK AO2 SLP127 MTN TOPS OBSCD DSNT SW AND NW T01280089 $,M
RTS,2023-06-12 13:55,-119.8764,39.6682,1539.00,51.80,50.00,93.55,330.00,4.00,0.00,30.05,M,10.00,M,BKN,BKN,OVC,M,2700.00,7000.00,10000.00,M,M,M,M,M,M,M,M,51.80,KRTS 121355Z AUTO 33004KT 10SM BKN027 BKN070 OVC100 11/10 A3005 RMK AO2,M
MEV,2023-06-12 13:55,-119.7500,38.9963,1441.42,50.00,50.00,100.00,180.00,3.00,0.00,30.03,M,10.00,M,OVC,M,M,M,4200.00,M,M,M,M,M,M,M,M,M,M,50.00,KMEV 121355Z AUTO 18003KT 10SM OVC042 10/10 A3003 RMK AO2,M
BAM,2023-06-12 13:55,-116.8743,40.5990,1382.36,51.80,46.40,81.74,170.00,3.00,0.00,30.01,M,10.00,M,OVC,M,M,M,11000.00,M,M,M,M,M,M,M,M,M,M,51.80,KBAM 121355Z AUTO 17003KT 10SM OVC110 11/08 A3001 RMK AO1,M
HTH,2023-06-12 13:55,-118.6315,38.5448,1282.89,57.20,50.00,76.82,210.00,3.00,0.00,30.02,M,10.00,M,OVC,M,M,M,6000.00,M,M,M,M,M,M,M,M,M,M,57.20,KHTH 121355Z AUTO 21003KT 10SM OVC060 14/10 A3002 RMK A01,M
LSV,2023-06-12 13:55,-115.0343,36.2362,570.00,69.30,46.00,43.06,0.00,0.00,0.00,29.86,1009.30,10.00,M,BKN,M,M,M,11000.00,M,M,M,M,M,M,M,M,M,M,69.30,KLSV 121355Z 00000KT 10SM BKN110 21/08 A2986 RMK AO2A SLP093 T02070077 $,M
TMT,2023-06-12 13:55,-117.1971,39.4643,1749.34,44.00,42.00,91.91,0.00,0.00,0.00,30.07,M,10.00,M,CLR,M,M,M,M,M,M,M,M,M,M,M,M,M,M,44.10,KTMT 121355Z AUTO 00000KT 10SM CLR 07/06 A3007 RMK AO2 T00670055,M
EKO,2023-06-12 13:56,-115.7860,40.8242,1367.00,51.00,48.00,89.09,270.00,3.00,0.00,30.01,1013.20,10.00,M,BKN,M,M,M,7000.00,M,M,M,M,M,M,M,M,M,M,51.10,KEKO 121356Z AUTO 27003KT 10SM BKN070 11/09 A3001 RMK AO2 SLP132 T01060089,M
NFL,2023-06-12 13:56,-118.7010,39.4166,1199.00,56.00,52.00,86.71,130.00,5.00,0.00,29.99,1012.50,10.00,M,CLR,M,M,M,M,M,M,M,M,M,M,M,M,M,M,55.90,KNFL 121356Z AUTO 13005KT 10SM CLR 13/11 A2999 RMK AO2 SLP125 T01330111,M
HND,2023-06-12 13:56,-115.1344,35.9729,742.79,66.00,50.00,56.27,200.00,8.00,0.00,29.93,1013.20,10.00,M,BKN,BKN,M,M,9500.00,12000.00,M,M,M,M,M,M,M,M,M,66.00,KHND 121356Z 20008KT 10SM BKN095 BKN120 19/10 A2993 RMK AO2 SLP132 T01890100,M
WMC,2023-06-12 13:56,-117.8072,40.9019,1315.00,55.00,51.00,86.66,40.00,3.00,0.00,30.00,1013.30,10.00,M,OVC,M,M,M,10000.00,M,M,M,M,M,M,M,M,M,M,55.00,KWMC 121356Z AUTO 04003KT 10SM OVC100 13/11 A3000 RMK AO2 SLP133 T01280106,M
TPH,2023-06-12 13:56,-117.0904,38.0505,1654.00,50.00,42.00,74.15,10.00,7.00,0.00,30.04,1013.60,10.00,M,CLR,M,M,M,M,M,M,M,M,M,M,M,M,M,M,50.00,KTPH 121356Z AUTO 01007KT 10SM CLR 10/06 A3004 RMK AO2 SLP136 T01000056,M
LAS,2023-06-12 13:56,-115.1634,36.0719,663.00,69.00,47.00,45.02,290.00,4.00,0.00,29.90,1010.40,10.00,M,SCT,BKN,M,M,9500.00,13000.00,M,M,M,M,M,M,M,M,M,69.10,KLAS 121356Z 29004KT 10SM SCT095 BKN130 21/08 A2990 RMK AO2 SLP104 VIRGA DSNT NE AND SE T02060083,M
05U,2023-06-12 14:10,-116.0051,39.6042,1811.23,50.00,44.60,81.61,0.00,0.00,0.00,30.06,M,10.00,M,CLR,M,M,M,M,M,M,M,M,M,M,M,M,M,M,50.00,K05U 121410Z AUTO 00000KT 10SM CLR 10/07 A3006 RMK A01,M
BVU,2023-06-12 14:15,-114.8611,35.9475,671.00,68.00,44.60,42.85,0.00,0.00,0.00,29.90,M,10.00,M,CLR,M,M,M,M,M,M,M,M,M,M,M,M,M,M,68.00,KBVU 121415Z AUTO 00000KT 10SM CLR 20/07 A2990 RMK AO2,M
CXP,2023-06-12 14:15,-119.7326,39.1923,1431.00,51.80,50.00,93.55,0.00,0.00,0.00,30.05,M,10.00,M,FEW,BKN,M,M,3700.00,8500.00,M,M,M,M,M,M,M,M,M,51.80,KCXP 121415Z AUTO 00000KT 10SM FEW037 BKN085 11/10 A3005 RMK AO2,M
RTS,2023-06-12 14:15,-119.8764,39.6682,1539.00,51.80,50.00,93.55,0.00,0.00,0.00,30.05,M,10.00,M,OVC,M,M,M,2800.00,M,M,M,M,M,M,M,M,M,M,51.80,KRTS 121415Z AUTO 00000KT 10SM OVC028 11/10 A3005 RMK AO2,M
MEV,2023-06-12 14:15,-119.7500,38.9963,1441.42,51.80,50.00,93.55,0.00,0.00,0.00,30.04,M,10.00,M,OVC,M,M,M,3900.00,M,M,M,M,M,M,M,M,M,M,51.80,KMEV 121415Z AUTO 00000KT 10SM OVC039 11/10 A3004 RMK AO2,M
BAM,2023-06-12 14:15,-116.8743,40.5990,1382.36,51.80,46.40,81.74,210.00,3.00,0.00,30.02,M,10.00,M,OVC,M,M,M,11000.00,M,M,M,M,M,M,M,M,M,M,51.80,KBAM 121415Z AUTO 21003KT 10SM OVC110 11/08 A3002 RMK AO1,M
HTH,2023-06-12 14:15,-118.6315,38.5448,1282.89,59.00,50.00,72.01,220.00,3.00,0.00,30.02,M,10.00,M,OVC,M,M,M,6000.00,M,M,M,M,M,M,M,M,M,M,59.00,KHTH 121415Z AUTO 22003KT 10SM OVC060 15/10 A3002 RMK A01,M
TMT,2023-06-12 14:15,-117.1971,39.4643,1749.34,44.60,42.80,93.35,0.00,0.00,0.00,30.07,M,10.00,M,CLR,M,M,M,M,M,M,M,M,M,M,M,M,M,M,44.60,KTMT 121415Z AUTO 00000KT 10SM CLR 07/06 A3007 RMK AO2 T00700060,M
05U,2023-06-12 14:30,-116.0051,39.6042,1811.23,51.80,44.60,76.34,0.00,0.00,0.00,30.07,M,10.00,M,CLR,M,M,M,M,M,M,M,M,M,M,M,M,M,M,51.80,K05U 121430Z AUTO 00000KT 10SM CLR 11/07 A3007 RMK A01,M
BVU,2023-06-12 14:35,-114.8611,35.9475,671.00,69.80,44.60,40.29,0.00,0.00,0.00,29.91,M,10.00,M,CLR,M,M,M,M,M,M,M,M,M,M,M,M,M,M,69.80,KBVU 121435Z AUTO 00000KT 10SM CLR 21/07 A2991 RMK AO2,M
CXP,2023-06-12 14:35,-119.7326,39.1923,1431.00,53.60,50.00,87.56,0.00,0.00,0.00,30.05,M,10.00,M,FEW,M,M,M,9000.00,M,M,M,M,M,M,M,M,M,M,53.60,KCXP 121435Z AUTO 00000KT 10SM FEW090 12/10 A3005 RMK AO2,M
RTS,2023-06-12 14:35,-119.8764,39.6682,1539.00,51.80,48.20,87.47,320.00,3.00,0.00,30.05,M,10.00,M,OVC,M,M,M,2900.00,M,M,M,M,M,M,M,M,M,M,51.80,KRTS 121435Z AUTO 32003KT 10SM OVC029 11/09 A3005 RMK AO2,M
MEV,2023-06-12 14:35,-119.7500,38.9963,1441.42,51.80,50.00,93.55,0.00,0.00,0.00,30.04,M,10.00,M,OVC,M,M,M,4000.00,M,M,M,M,M,M,M,M,M,M,51.80,KMEV 121435Z AUTO 00000KT 10SM OVC040 11/10 A3004 RMK AO2,M
BAM,2023-06-12 14:35,-116.8743,40.5990,1382.36,53.60,48.20,81.87,230.00,4.00,0.00,30.02,M,10.00,M,OVC,M,M,M,11000.00,M,M,M,M,M,M,M,M,M,M,53.60,KBAM 121435Z AUTO 23004KT 10SM OVC110 12/09 A3002 RMK AO1,M
HTH,2023-06-12 14:35,-118.6315,38.5448,1282.89,59.00,50.00,72.01,0.00,0.00,0.00,30.02,M,10.00,M,FEW,M,M,M,6000.00,M,M,M,M,M,M,M,M,M,M,59.00,KHTH 121435Z AUTO 00000KT 10SM FEW060 15/10 A3002 RMK A01,M
TMT,2023-06-12 14:35,-117.1971,39.4643,1749.34,45.70,43.70,92.67,310.00,3.00,0.00,30.08,M,10.00,M,CLR,M,M,M,M,M,M,M,M,M,M,M,M,M,M,44.35,KTMT 121435Z AUTO 31003KT 10SM CLR 08/07 A3008 RMK AO2 T00760065,M
NFL,2023-06-12 14:40,-118.7010,39.4166,1199.00,57.00,53.00,86.77,130.00,5.00,0.00,30.00,M,10.00,M,SCT,BKN,BKN,M,6000.00,12000.00,15000.00,M,M,M,M,M,M,M,M,57.00,KNFL 121440Z 13005KT 10SM SCT060 BKN120 BKN150 14/12 A3000 RMK AO2 T01390117,M
DRA,2023-06-12 14:47,-116.0278,36.6206,1009.00,67.00,44.00,43.67,130.00,10.00,0.00,29.95,M,10.00,M,CLR,M,M,M,M,M,M,M,M,M,M,M,M,M,M,66.90,KDRA 121447Z AUTO 13010KT 10SM CLR 19/07 A2995 RMK AO2 WSHFT 1430 T01940067 $,M
05U,2023-06-12 14:50,-116.0051,39.6042,1811.23,55.40,44.60,66.91,0.00,0.00,0.00,30.07,M,10.00,M,CLR,M,M,M,M,M,M,M,M,M,M,M,M,M,M,55.40,K05U 121450Z AUTO 00000KT 10SM CLR 13/07 A3007 RMK A01,M
P68,2023-06-12 14:53,-116.0056,39.6014,1993.00,52.00,45.00,76.94,0.00,0.00,0.00,30.04,1012.50,M,M,M,M,M,M,M,M,M,M,M,M,M,M,M,M,M,52.00,KP68 121453Z AUTO 00000KT 11/07 A3004 RMK AO1 SLP125 T01110072 51007 $,M
DRA,2023-06-12 14:53,-116.0278,36.6206,1009.00,67.00,43.00,41.87,120.00,9.00,0.00,29.95,1010.30,10.00,M,CLR,M,M,M,M,M,M,M,M,M,M,M,M,M,M,66.90,KDRA 121453Z AUTO 12009KT 10SM CLR 19/06 A2995 RMK AO2 WSHFT 1430 SLP103 T01940061 51014 $,M
LOL,2023-06-12 14:53,-118.5701,40.0684,1192.43,55.00,53.00,93.29,290.00,3.00,0.00,30.00,1014.20,10.00,M,BKN,M,M,M,11000.00,M,M,M,M,M,M,M,M,M,M,55.00,KLOL 121453Z AUTO 29003KT 10SM BKN110 13/12 A3000 RMK AO2 SLP142 T01280117 53008,M
ELY,2023-06-12 14:53,-114.8453,39.2950,1909.00,40.00,38.00,92.48,190.00,6.00,0.00,30.05,1014.00,10.00,M,CLR,M,M,M,M,M,M,M,M,M,M,M,M,M,M,35.04,KELY 121453Z AUTO 19006KT 10SM CLR 04/03 A3005 RMK AO2 SLP140 T00440033 50004,M
VGT,2023-06-12 14:53,-115.1933,36.2111,667.00,74.00,44.00,34.40,330.00,13.00,0.00,29.90,1012.20,10.00,19.00,CLR,M,M,M,M,M,M,M,M,M,M,M,M,M,M,73.90,KVGT 121453Z 33013G19KT 10SM CLR 23/07 A2990 RMK AO2 SLP122 T02330067 51016,M
BVU,2023-06-12 14:55,-114.8611,35.9475,671.00,69.80,44.60,40.29,0.00,0.00,0.00,29.91,M,10.00,M,CLR,M,M,M,M,M,M,M,M,M,M,M,M,M,M,69.80,KBVU 121455Z AUTO 00000KT 10SM CLR 21/07 A2991 RMK AO2,M
CXP,2023-06-12 14:55,-119.7326,39.1923,1431.00,55.40,50.00,81.99,210.00,3.00,0.01,30.05,M,10.00,M,CLR,M,M,M,M,M,M,M,M,M,M,M,M,M,M,55.40,KCXP 121455Z AUTO 21003KT 10SM CLR 13/10 A3005 RMK AO2 P0001,M
RNO,2023-06-12 14:55,-119.7711,39.4839,1341.00,57.00,48.00,71.81,330.00,3.00,0.00,30.03,1013.60,10.00,M,FEW,BKN,OVC,M,3000.00,7500.00,16000.00,M,M,M,M,M,M,M,M,57.00,KRNO 121455Z 33003KT 10SM FEW030 BKN075 OVC160 14/09 A3003 RMK AO2 SLP136 T01390089 53005,M
RTS,2023-06-12 14:55,-119.8764,39.6682,1539.00,53.60,50.00,87.56,0.00,0.00,0.00,30.06,M,10.00,M,BKN,OVC,M,M,2900.00,6000.00,M,M,M,M,M,M,M,M,M,53.60,KRTS 121455Z AUTO 00000KT 10SM BKN029 OVC060 12/10 A3006 RMK AO2,M
MEV,2023-06-12 14:55,-119.7500,38.9963,1441.42,51.80,50.00,93.55,0.00,0.00,0.00,30.04,M,10.00,M,OVC,M,M,M,4100.00,M,M,M,M,M,M,M,M,M,M,51.80,KMEV 121455Z AUTO 00000KT 10SM OVC041 11/10 A3004 RMK AO2,M
BAM,2023-06-12 14:55,-116.8743,40.5990,1382.36,53.60,48.20,81.87,230.00,4.00,0.00,30.03,M,10.00,M,OVC,M,M,M,11000.00,M,M,M,M,M,M,M,M,M,M,53.60,KBAM 121455Z AUTO 23004KT 10SM OVC110 12/09 A3003 RMK AO1,M
HTH,2023-06-12 14:55,-118.6315,38.5448,1282.89,60.80,50.00,67.54,0.00,0.00,0.00,30.02,M,10.00,M,CLR,M,M,M,M,M,M,M,M,M,M,M,M,M,M,60.80,KHTH 121455Z AUTO 00000KT 10SM CLR 16/10 A3002 RMK A01,M
TMT,2023-06-12 14:55,-117.1971,39.4643,1749.34,46.80,44.20,90.61,0.00,0.00,0.00,30.07,M,10.00,M,CLR,M,M,M,M,M,M,M,M,M,M,M,M,M,M,46.80,KTMT 121455Z AUTO 00000KT 10SM CLR 08/07 A3007 RMK AO2 LTG DSNT E T00820068,M
LSV,2023-06-12 14:55,-115.0343,36.2362,570.00,72.70,50.20,45.07,0.00,0.00,0.00,29.88,1009.90,10.00,M,SCT,M,M,M,9500.00,M,M,M,M,M,M,M,M,M,M,72.70,KLSV 121455Z AUTO 00000KT 10SM SCT095 23/10 A2988 RMK AO2 SLP099 T02260101 52018 $,M
INS,2023-06-12 14:55,-115.6733,36.5872,955.00,62.80,44.00,50.00,100.00,8.00,0.00,29.95,1010.50,10.00,M,BKN,OVC,M,M,10000.00,14000.00,M,M,M,M,M,M,M,M,M,62.80,KINS 121455Z AUTO 10008KT 10SM BKN100 OVC140 17/07 A2995 RMK AO2 SLP105 60000 T01710066 50014 $,M
TPH,2023-06-12 14:56,-117.0904,38.0505,1654.00,56.00,43.00,61.81,340.00,6.00,0.00,30.04,1012.80,10.00,M,CLR,M,M,M,M,M,M,M,M,M,M,M,M,M,M,55.90,KTPH 121456Z AUTO 34006KT 10SM CLR 13/06 A3004 RMK AO2 SLP128 T01330061 51010,M
LAS,2023-06-12 14:56,-115.1634,36.0719,663.00,73.00,43.00,34.00,340.00,6.00,0.00,29.92,1011.00,10.00,15.00,SCT,BKN,M,M,9000.00,13000.00,M,M,M,M,M,M,M,M,M,73.00,KLAS 121456Z 34006G15KT 10SM SCT090 BKN130 23/06 A2992 RMK AO2 SLP110 VIRGA DSNT SE AND NW T02280061 51019,M
EKO,2023-06-12 14:56,-115.7860,40.8242,1367.00,54.00,49.00,82.82,0.00,0.00,0.00,30.01,1013.20,10.00,M,FEW,FEW,M,M,7000.00,10000.00,M,M,M,M,M,M,M,M,M,54.00,KEKO 121456Z AUTO 00000KT 10SM FEW070 FEW100 12/09 A3001 RMK AO2 SLP132 T01220094 51007,M
WMC,2023-06-12 14:56,-117.8072,40.9019,1315.00,56.00,53.00,90.29,0.00,0.00,0.00,30.01,1013.90,10.00,M,OVC,M,M,M,11000.00,M,M,M,M,M,M,M,M,M,M,55.90,KWMC 121456Z AUTO 00000KT 10SM OVC110 13/12 A3001 RMK AO2 SLP139 T01330117 51010,M
HND,2023-06-12 14:56,-115.1344,35.9729,742.79,69.00,51.00,52.67,230.00,10.00,0.00,29.95,1013.70,10.00,M,OVC,M,M,M,9500.00,M,M,M,M,M,M,M,M,M,M,69.10,KHND 121456Z 23010KT 10SM OVC095 21/11 A2995 RMK AO2 SLP137 T02060106 51019,M
NFL,2023-06-12 14:56,-118.7010,39.4166,1199.00,58.00,53.00,84.00,180.00,3.00,0.00,30.00,1012.90,10.00,M,SCT,BKN,BKN,M,6000.00,12000.00,15000.00,M,M,M,M,M,M,M,M,57.90,KNFL 121456Z 18003KT 10SM SCT060 BKN120 BKN150 14/12 A3000 RMK AO2 SLP129 T01440117 53007,M
05U,2023-06-12 15:10,-116.0051,39.6042,1811.23,57.20,44.60,62.69,0.00,0.00,0.00,30.07,M,10.00,M,CLR,M,M,M,M,M,M,M,M,M,M,M,M,M,M,57.20,K05U 121510Z AUTO 00000KT 10SM CLR 14/07 A3007 RMK A01,M
BVU,2023-06-12 15:15,-114.8611,35.9475,671.00,69.80,44.60,40.29,230.00,5.00,0.00,29.92,M,10.00,M,CLR,M,M,M,M,M,M,M,M,M,M,M,M,M,M,69.80,KBVU 121515Z AUTO 23005KT 10SM CLR 21/07 A2992 RMK AO2,M
CXP,2023-06-12 15:15,-119.7326,39.1923,1431.00,55.40,50.00,81.99,0.00,0.00,0.00,30.06,M,10.00,M,CLR,M,M,M,M,M,M,M,M,M,M,M,M,M,M,55.40,KCXP 121515Z AUTO 00000KT 10SM CLR 13/10 A3006 RMK AO2,M
RTS,2023-06-12 15:15,-119.8764,39.6682,1539.00,53.60,48.20,81.87,M,4.00,0.00,30.06,M,10.00,M,FEW,BKN,BKN,M,3000.00,6000.00,10000.00,M,M,M,M,M,M,M,M,53.60,KRTS 121515Z AUTO VRB04KT 10SM FEW030 BKN060 BKN100 12/09 A3006 RMK AO2,M
MEV,2023-06-12 15:15,-119.7500,38.9963,1441.42,53.60,50.00,87.56,0.00,0.00,0.00,30.04,M,10.00,M,BKN,M,M,M,4100.00,M,M,M,M,M,M,M,M,M,M,53.60,KMEV 121515Z AUTO 00000KT 10SM BKN041 12/10 A3004 RMK AO2,M
BAM,2023-06-12 15:15,-116.8743,40.5990,1382.36,55.40,48.20,76.66,220.00,5.00,0.00,30.03,M,10.00,M,SCT,OVC,M,M,7500.00,10000.00,M,M,M,M,M,M,M,M,M,55.40,KBAM 121515Z AUTO 22005KT 10SM SCT075 OVC100 13/09 A3003 RMK AO1,M
HTH,2023-06-12 15:15,-118.6315,38.5448,1282.89,60.80,50.00,67.54,0.00,0.00,0.00,30.02,M,10.00,M,CLR,M,M,M,M,M,M,M,M,M,M,M,M,M,M,60.80,KHTH 121515Z AUTO 00000KT 10SM CLR 16/10 A3002 RMK A01,M
TMT,2023-06-12 15:15,-117.1971,39.4643,1749.34,47.80,44.60,88.60,0.00,0.00,0.00,30.08,M,10.00,M,CLR,M,M,M,M,M,M,M,M,M,M,M,M,M,M,47.80,KTMT 121515Z AUTO 00000KT 10SM CLR 09/07 A3008 RMK AO2 LTG DSNT E T00880070,M
05U,2023-06-12 15:30,-116.0051,39.6042,1811.23,57.20,44.60,62.69,0.00,0.00,0.00,30.08,M,10.00,M,CLR,M,M,M,M,M,M,M,M,M,M,M,M,M,M,57.20,K05U 121530Z AUTO 00000KT 10SM CLR 14/07 A3008 RMK A01,M
HTH,2023-06-12 15:30,-118.6315,38.5448,1282.89,60.80,50.00,67.54,0.00,0.00,0.00,30.03,M,10.00,M,CLR,M,M,M,M,M,M,M,M,M,M,M,M,M,M,60.80,KHTH 121530Z AUTO 00000KT 10SM CLR 16/10 A3003 RMK A01,M
BVU,2023-06-12 15:35,-114.8611,35.9475,671.00,69.80,44.60,40.29,210.00,5.00,0.00,29.93,M,10.00,M,CLR,M,M,M,M,M,M,M,M,M,M,M,M,M,M,69.80,KBVU 121535Z AUTO 21005KT 10SM CLR 21/07 A2993 RMK AO2,M
CXP,2023-06-12 15:35,-119.7326,39.1923,1431.00,57.20,48.20,71.83,220.00,3.00,0.00,30.06,M,10.00,M,BKN,M,M,M,11000.00,M,M,M,M,M,M,M,M,M,M,57.20,KCXP 121535Z AUTO 22003KT 10SM BKN110 14/09 A3006 RMK AO2,M
RTS,2023-06-12 15:35,-119.8764,39.6682,1539.00,53.60,48.20,81.87,0.00,0.00,0.00,30.06,M,10.00,M,FEW,BKN,OVC,M,2800.00,6000.00,7000.00,M,M,M,M,M,M,M,M,53.60,KRTS 121535Z AUTO 00000KT 10SM FEW028 BKN060 OVC070 12/09 A3006 RMK AO2,M
MEV,2023-06-12 15:35,-119.7500,38.9963,1441.42,55.40,51.80,87.65,0.00,0.00,0.00,30.05,M,10.00,M,FEW,M,M,M,4100.00,M,M,M,M,M,M,M,M,M,M,55.40,KMEV 121535Z AUTO 00000KT 10SM FEW041 13/11 A3005 RMK AO2,M
BAM,2023-06-12 15:35,-116.8743,40.5990,1382.36,59.00,48.20,67.33,240.00,6.00,0.00,30.03,M,10.00,M,SCT,BKN,OVC,M,6000.00,8000.00,10000.00,M,M,M,M,M,M,M,M,59.00,KBAM 121535Z AUTO 24006KT 10SM SCT060 BKN080 OVC100 15/09 A3003 RMK AO1,M
TMT,2023-06-12 15:35,-117.1971,39.4643,1749.34,48.60,45.00,87.63,0.00,0.00,0.00,30.08,M,10.00,M,CLR,M,M,M,M,M,M,M,M,M,M,M,M,M,M,48.60,KTMT 121535Z AUTO 00000KT 10SM CLR 09/07 A3008 RMK AO2 T00920073,M
05U,2023-06-12 15:50,-116.0051,39.6042,1811.23,59.00,44.60,58.77,40.00,3.00,0.00,30.07,M,10.00,M,CLR,M,M,M,M,M,M,M,M,M,M,M,M,M,M,59.00,K05U 121550Z AUTO 04003KT 10SM CLR 15/07 A3007 RMK A01,M
DRA,2023-06-12 15:53,-116.0278,36.6206,1009.00,69.00,43.00,38.82,90.00,5.00,0.00,29.95,1010.50,10.00,M,CLR,M,M,M,M,M,M,M,M,M,M,M,M,M,M,69.10,KDRA 121553Z AUTO 09005KT 10SM CLR 21/06 A2995 RMK AO2 SLP105 T02060061 $,M
VGT,2023-06-12 15:53,-115.1933,36.2111,667.00,72.00,45.00,37.96,320.00,9.00,0.00,29.91,1012.70,10.00,M,CLR,M,M,M,M,M,M,M,M,M,M,M,M,M,M,72.00,KVGT 121553Z 32009KT 10SM CLR 22/07 A2991 RMK AO2 SLP127 T02220072,M
P68,2023-06-12 15:53,-116.0056,39.6014,1993.00,55.00,44.00,66.61,0.00,0.00,0.00,30.04,1012.50,M,M,M,M,M,M,M,M,M,M,M,M,M,M,M,M,M,55.00,KP68 121553Z AUTO 00000KT 13/07 A3004 RMK AO1 SLP125 T01280067,M
LOL,2023-06-12 15:53,-118.5701,40.0684,1192.43,57.00,53.00,86.77,0.00,0.00,0.00,30.01,1014.70,10.00,M,SCT,M,M,M,11000.00,M,M,M,M,M,M,M,M,M,M,57.00,KLOL 121553Z AUTO 00000KT 10SM SCT110 14/12 A3001 RMK AO2 SLP147 T01390117,M
ELY,2023-06-12 15:53,-114.8453,39.2950,1909.00,47.00,42.00,83.28,180.00,3.00,0.00,30.06,1013.70,10.00,M,CLR,M,M,M,M,M,M,M,M,M,M,M,M,M,M,45.72,KELY 121553Z AUTO 18003KT 10SM CLR 08/06 A3006 RMK AO2 SLP137 T00830056,M
BVU,2023-06-12 15:55,-114.8611,35.9475,671.00,69.80,48.20,46.16,220.00,5.00,0.00,29.93,M,10.00,M,CLR,M,M,M,M,M,M,M,M,M,M,M,M,M,M,69.80,KBVU 121555Z AUTO 22005KT 10SM CLR 21/09 A2993 RMK AO2,M
CXP,2023-06-12 15:55,-119.7326,39.1923,1431.00,57.20,50.00,76.82,0.00,0.00,0.00,30.06,M,10.00,M,BKN,OVC,M,M,7500.00,11000.00,M,M,M,M,M,M,M,M,M,57.20,KCXP 121555Z AUTO 00000KT 10SM BKN075 OVC110 14/10 A3006 RMK AO2,M
INS,2023-06-12 15:55,-115.6733,36.5872,955.00,66.20,41.70,40.80,0.00,0.00,0.00,29.96,1010.70,10.00,M,CLR,M,M,M,M,M,M,M,M,M,M,M,M,M,M,66.20,KINS 121555Z AUTO 00000KT 10SM CLR 19/05 A2996 RMK AO2 SLP107 T01900054 $,M
RNO,2023-06-12 15:55,-119.7711,39.4839,1341.00,57.00,50.00,77.38,90.00,4.00,0.00,30.04,1014.20,10.00,M,FEW,BKN,BKN,M,4000.00,7500.00,16000.00,M,M,M,M,M,M,M,M,57.00,KRNO 121555Z 09004KT 10SM FEW040 BKN075 BKN160 14/10 A3004 RMK AO2 SLP142 T01390100,M
RTS,2023-06-12 15:55,-119.8764,39.6682,1539.00,53.60,50.00,87.56,300.00,5.00,0.00,30.07,M,10.00,M,BKN,OVC,M,M,2800.00,5500.00,M,M,M,M,M,M,M,M,M,53.60,KRTS 121555Z AUTO 30005KT 10SM BKN028 OVC055 12/10 A3007 RMK AO2,M
MEV,2023-06-12 15:55,-119.7500,38.9963,1441.42,55.40,50.00,81.99,0.00,0.00,0.00,30.05,M,10.00,M,FEW,M,M,M,12000.00,M,M,M,M,M,M,M,M,M,M,55.40,KMEV 121555Z AUTO 00000KT 10SM FEW120 13/10 A3005 RMK AO2,M
BAM,2023-06-12 15:55,-116.8743,40.5990,1382.36,59.00,50.00,72.01,230.00,4.00,0.00,30.04,M,10.00,M,SCT,BKN,OVC,M,3400.00,7500.00,12000.00,M,M,M,M,M,M,M,M,59.00,KBAM 121555Z AUTO 23004KT 10SM SCT034 BKN075 OVC120 15/10 A3004 RMK AO1,M
HTH,2023-06-12 15:55,-118.6315,38.5448,1282.89,62.60,50.00,63.38,360.00,3.00,0.00,30.03,M,10.00,M,FEW,M,M,M,5500.00,M,M,M,M,M,M,M,M,M,M,62.60,KHTH 121555Z AUTO 36003KT 10SM FEW055 17/10 A3003 RMK A01,M
TMT,2023-06-12 15:55,-117.1971,39.4643,1749.34,49.30,46.00,88.34,0.00,0.00,0.00,30.09,M,10.00,M,CLR,M,M,M,M,M,M,M,M,M,M,M,M,M,M,49.30,KTMT 121555Z AUTO 00000KT 10SM CLR 10/08 A3009 RMK AO2 T00960078,M
LSV,2023-06-12 15:55,-115.0343,36.2362,570.00,79.20,45.00,29.85,20.00,5.00,0.00,29.88,1009.70,10.00,M,FEW,M,M,M,10000.00,M,M,M,M,M,M,M,M,M,M,79.20,KLSV 121555Z AUTO 02005KT 10SM FEW100 26/07 A2988 RMK AO2 SLP097 T02620072 $,M
EKO,2023-06-12 15:56,-115.7860,40.8242,1367.00,57.00,50.00,77.38,210.00,6.00,T,30.02,1013.50,10.00,M,SCT,M,M,M,12000.00,M,M,M,M,M,M,M,M,M,M,57.00,KEKO 121556Z AUTO 21006KT 10SM SCT120 14/10 A3002 RMK AO2 RAB00E09 SLP135 P0000 T01390100,M
WMC,2023-06-12 15:56,-117.8072,40.9019,1315.00,60.00,52.00,74.57,300.00,3.00,0.00,30.02,1013.80,10.00,M,FEW,OVC,M,M,8500.00,12000.00,M,M,M,M,M,M,M,M,M,60.10,KWMC 121556Z AUTO 30003KT 10SM FEW085 OVC120 16/11 A3002 RMK AO2 SLP138 T01560111,M
NFL,2023-06-12 15:56,-118.7010,39.4166,1199.00,60.00,52.00,74.57,0.00,0.00,0.00,30.01,1013.30,10.00,M,SCT,BKN,BKN,M,6000.00,12000.00,18000.00,M,M,M,M,M,M,M,M,60.10,KNFL 121556Z 00000KT 10SM SCT060 BKN120 BKN180 16/11 A3001 RMK AO2 SLP133 T01560111,M
HND,2023-06-12 15:56,-115.1344,35.9729,742.79,73.00,46.00,38.11,M,4.00,0.00,29.95,1013.90,10.00,M,CLR,M,M,M,M,M,M,M,M,M,M,M,M,M,M,73.00,KHND 121556Z VRB04KT 10SM CLR 23/08 A2995 RMK AO2 SLP139 T02280078,M
LAS,2023-06-12 15:56,-115.1634,36.0719,663.00,75.00,43.00,31.79,350.00,10.00,0.00,29.91,1010.80,10.00,M,FEW,SCT,SCT,M,9000.00,14000.00,22000.00,M,M,M,M,M,M,M,M,75.00,KLAS 121556Z 35010KT 10SM FEW090 SCT140 SCT220 24/06 A2991 RMK AO2 SLP108 T02390061,M
TPH,2023-06-12 15:56,-117.0904,38.0505,1654.00,59.00,44.00,57.66,0.00,0.00,0.00,30.05,1013.00,10.00,M,CLR,M,M,M,M,M,M,M,M,M,M,M,M,M,M,59.00,KTPH 121556Z AUTO 00000KT 10SM CLR 15/07 A3005 RMK AO2 SLP130 T01500067,M
05U,2023-06-12 16:10,-116.0051,39.6042,1811.23,60.80,44.60,55.12,0.00,0.00,0.00,30.07,M,10.00,M,CLR,M,M,M,M,M,M,M,M,M,M,M,M,M,M,60.80,K05U 121610Z AUTO 00000KT 10SM CLR 16/07 A3007 RMK A01,M
BVU,2023-06-12 16:15,-114.8611,35.9475,671.00,71.60,46.40,40.57,200.00,4.00,0.00,29.93,M,10.00,M,CLR,M,M,M,M,M,M,M,M,M,M,M,M,M,M,71.60,KBVU 121615Z AUTO 20004KT 10SM CLR 22/08 A2993 RMK AO2,M
CXP,2023-06-12 16:15,-119.7326,39.1923,1431.00,57.20,50.00,76.82,220.00,3.00,0.00,30.06,M,10.00,M,SCT,OVC,M,M,7000.00,12000.00,M,M,M,M,M,M,M,M,M,57.20,KCXP 121615Z AUTO 22003KT 10SM SCT070 OVC120 14/10 A3006 RMK AO2,M
RTS,2023-06-12 16:15,-119.8764,39.6682,1539.00,55.40,50.00,81.99,0.00,0.00,0.00,30.07,M,10.00,M,BKN,BKN,BKN,M,2800.00,4700.00,5500.00,M,M,M,M,M,M,M,M,55.40,KRTS 121615Z AUTO 00000KT 10SM BKN028 BKN047 BKN055 13/10 A3007 RMK AO2,M
MEV,2023-06-12 16:15,-119.7500,38.9963,1441.42,55.40,50.00,81.99,0.00,0.00,0.00,30.05,M,10.00,M,FEW,M,M,M,12000.00,M,M,M,M,M,M,M,M,M,M,55.40,KMEV 121615Z AUTO 00000KT 10SM FEW120 13/10 A3005 RMK AO2,M
BAM,2023-06-12 16:15,-116.8743,40.5990,1382.36,60.80,50.00,67.54,240.00,4.00,0.00,30.04,M,10.00,M,SCT,SCT,BKN,M,3400.00,4200.00,10000.00,M,M,M,M,M,M,M,M,60.80,KBAM 121615Z AUTO 24004KT 10SM SCT034 SCT042 BKN100 16/10 A3004 RMK AO1,M
HTH,2023-06-12 16:15,-118.6315,38.5448,1282.89,62.60,48.20,59.26,0.00,0.00,0.00,30.03,M,10.00,M,CLR,M,M,M,M,M,M,M,M,M,M,M,M,M,M,62.60,KHTH 121615Z AUTO 00000KT 10SM CLR 17/09 A3003 RMK A01,M
TMT,2023-06-12 16:15,-117.1971,39.4643,1749.34,51.30,46.80,84.53,0.00,0.00,0.00,30.08,M,10.00,M,SCT,M,M,M,12000.00,M,M,M,M,M,M,M,M,M,M,51.30,KTMT 121615Z AUTO 00000KT 10SM SCT120 11/08 A3008 RMK AO2 T01070082,M
05U,2023-06-12 16:30,-116.0051,39.6042,1811.23,60.80,42.80,51.45,0.00,0.00,0.00,30.08,M,10.00,M,CLR,M,M,M,M,M,M,M,M,M,M,M,M,M,M,60.80,K05U 121630Z AUTO 00000KT 10SM CLR 16/06 A3008 RMK A01,M
BVU,2023-06-12 16:35,-114.8611,35.9475,671.00,71.60,46.40,40.57,150.00,5.00,0.00,29.92,M,10.00,M,CLR,M,M,M,M,M,M,M,M,M,M,M,M,M,M,71.60,KBVU 121635Z AUTO 15005KT 10SM CLR 22/08 A2992 RMK AO2,M
CXP,2023-06-12 16:35,-119.7326,39.1923,1431.00,59.00,46.40,62.92,0.00,0.00,0.00,30.06,M,10.00,M,BKN,OVC,M,M,7000.00,12000.00,M,M,M,M,M,M,M,M,M,59.00,KCXP 121635Z AUTO 00000KT 10SM BKN070 OVC120 15/08 A3006 RMK AO2,M
RTS,2023-06-12 16:35,-119.8764,39.6682,1539.00,55.40,50.00,81.99,260.00,5.00,0.00,30.07,M,10.00,M,FEW,FEW,SCT,M,4700.00,5500.00,7000.00,M,-DZ,M,M,M,M,M,M,55.40,KRTS 121635Z AUTO 26005KT 10SM -DZ FEW047 FEW055 SCT070 13/10 A3007 RMK AO2,M
MEV,2023-06-12 16:35,-119.7500,38.9963,1441.42,57.20,50.00,76.82,0.00,0.00,0.00,30.05,M,10.00,M,FEW,M,M,M,12000.00,M,M,M,M,M,M,M,M,M,M,57.20,KMEV 121635Z AUTO 00000KT 10SM FEW120 14/10 A3005 RMK AO2,M
BAM,2023-06-12 16:35,-116.8743,40.5990,1382.36,60.80,50.00,67.54,0.00,0.00,0.00,30.04,M,10.00,M,SCT,BKN,BKN,M,7000.00,8000.00,12000.00,M,M,M,M,M,M,M,M,60.80,KBAM 121635Z AUTO 00000KT 10SM SCT070 BKN080 BKN120 16/10 A3004 RMK AO1,M
HTH,2023-06-12 16:35,-118.6315,38.5448,1282.89,62.60,48.20,59.26,0.00,0.00,0.00,30.03,M,10.00,M,CLR,M,M,M,M,M,M,M,M,M,M,M,M,M,M,62.60,KHTH 121635Z AUTO 00000KT 10SM CLR 17/09 A3003 RMK A01,M
TMT,2023-06-12 16:35,-117.1971,39.4643,1749.34,52.50,46.40,79.66,0.00,0.00,0.00,30.08,M,10.00,M,CLR,M,M,M,M,M,M,M,M,M,M,M,M,M,M,52.50,KTMT 121635Z AUTO 00000KT 10SM CLR 11/08 A3008 RMK AO2 T01140080,M
05U,2023-06-12 16:50,-116.0051,39.6042,1811.23,62.60,44.60,51.72,10.00,5.00,0.00,30.08,M,10.00,M,CLR,M,M,M,M,M,M,M,M,M,M,M,M,M,M,62.60,K05U 121650Z AUTO 01005KT 10SM CLR 17/07 A3008 RMK A01,M
DRA,2023-06-12 16:53,-116.0278,36.6206,1009.00,73.00,45.00,36.70,210.00,11.00,0.00,29.95,1010.30,10.00,18.00,CLR,M,M,M,M,M,M,M,M,M,M,M,M,M,M,73.00,KDRA 121653Z AUTO 21011G18KT 10SM CLR 23/07 A2995 RMK AO2 SLP103 T02280072 $,M
VGT,2023-06-12 16:53,-115.1933,36.2111,667.00,76.00,46.00,34.58,M,3.00,0.00,29.91,1012.80,10.00,M,BKN,M,M,M,11000.00,M,M,M,M,M,M,M,M,M,M,75.90,KVGT 121653Z VRB03KT 10SM BKN110 24/08 A2991 RMK AO2 SLP128 T02440078,M
LOL,2023-06-12 16:53,-118.5701,40.0684,1192.43,59.00,54.00,83.46,290.00,5.00,0.00,30.02,1014.70,10.00,M,SCT,M,M,M,1500.00,M,M,M,M,M,M,M,M,M,M,59.00,KLOL 121653Z AUTO 29005KT 10SM SCT015 15/12 A3002 RMK AO2 SLP147 T01500122,M
P68,2023-06-12 16:53,-116.0056,39.6014,1993.00,59.00,44.00,57.66,60.00,6.00,0.00,30.05,1012.40,M,M,M,M,M,M,M,M,M,M,M,M,M,M,M,M,M,59.00,KP68 121653Z AUTO 06006KT 15/07 A3005 RMK AO1 SLP124 T01500067,M
ELY,2023-06-12 16:53,-114.8453,39.2950,1909.00,53.00,42.00,66.13,0.00,0.00,0.00,30.06,1013.10,10.00,M,CLR,M,M,M,M,M,M,M,M,M,M,M,M,M,M,53.10,KELY 121653Z AUTO 00000KT 10SM CLR 12/06 A3006 RMK AO2 SLP131 T01170056,M
BVU,2023-06-12 16:55,-114.8611,35.9475,671.00,73.40,44.60,35.66,0.00,0.00,0.00,29.93,M,10.00,M,CLR,M,M,M,M,M,M,M,M,M,M,M,M,M,M,73.40,KBVU 121655Z AUTO 00000KT 10SM CLR 23/07 A2993 RMK AO2,M
CXP,2023-06-12 16:55,-119.7326,39.1923,1431.00,59.00,48.20,67.33,0.00,0.00,0.00,30.07,M,10.00,M,OVC,M,M,M,7000.00,M,M,M,M,M,M,M,M,M,M,59.00,KCXP 121655Z AUTO 00000KT 10SM OVC070 15/09 A3007 RMK AO2,M
INS,2023-06-12 16:55,-115.6733,36.5872,955.00,70.00,41.00,34.85,40.00,3.00,0.00,29.96,1010.70,10.00,M,FEW,M,M,M,13000.00,M,M,M,M,M,M,M,M,M,M,70.00,KINS 121655Z AUTO 04003KT 10SM FEW130 21/05 A2996 RMK AO2 SLP107 T02110050 $,M
RNO,2023-06-12 16:55,-119.7711,39.4839,1341.00,59.00,50.00,72.01,0.00,0.00,0.00,30.05,1014.30,10.00,M,SCT,BKN,OVC,M,4000.00,7500.00,16000.00,M,M,M,M,M,M,M,M,59.00,KRNO 121655Z 00000KT 10SM SCT040 BKN075 OVC160 15/10 A3005 RMK AO2 SLP143 SH VC SW AND NW T01500100,M
RTS,2023-06-12 16:55,-119.8764,39.6682,1539.00,55.40,50.00,81.99,0.00,0.00,0.00,30.07,M,10.00,M,FEW,FEW,M,M,5000.00,8000.00,M,M,-DZ,M,M,M,M,M,M,55.40,KRTS 121655Z AUTO 00000KT 10SM -DZ FEW050 FEW080 13/10 A3007 RMK AO2,M
MEV,2023-06-12 16:55,-119.7500,38.9963,1441.42,57.20,50.00,76.82,0.00,0.00,0.00,30.05,M,10.00,M,CLR,M,M,M,M,M,M,M,M,M,M,M,M,M,M,57.20,KMEV 121655Z AUTO 00000KT 10SM CLR 14/10 A3005 RMK AO2,M
BAM,2023-06-12 16:55,-116.8743,40.5990,1382.36,60.80,50.00,67.54,250.00,4.00,0.00,30.04,M,10.00,M,SCT,BKN,OVC,M,3900.00,7000.00,8000.00,M,M,M,M,M,M,M,M,60.80,KBAM 121655Z AUTO 25004KT 10SM SCT039 BKN070 OVC080 16/10 A3004 RMK AO1,M
HTH,2023-06-12 16:55,-118.6315,38.5448,1282.89,62.60,48.20,59.26,0.00,0.00,0.00,30.03,M,10.00,M,CLR,M,M,M,M,M,M,M,M,M,M,M,M,M,M,62.60,KHTH 121655Z AUTO 00000KT 10SM CLR 17/09 A3003 RMK A01,M
LSV,2023-06-12 16:55,-115.0343,36.2362,570.00,82.20,46.80,28.98,0.00,0.00,0.00,29.88,1009.70,10.00,M,SCT,SCT,M,M,11000.00,13000.00,M,M,M,M,M,M,M,M,M,80.55,KLSV 121655Z AUTO 00000KT 10SM SCT110 SCT130 28/08 A2988 RMK AO2 SLP097 T02790082 $,M
TMT,2023-06-12 16:55,-117.1971,39.4643,1749.34,56.00,46.60,70.38,0.00,0.00,0.00,30.08,M,10.00,M,CLR,M,M,M,M,M,M,M,M,M,M,M,M,M,M,56.10,KTMT 121655Z AUTO 00000KT 10SM CLR 13/08 A3008 RMK AO2 T01340081,M
EKO,2023-06-12 16:56,-115.7860,40.8242,1367.00,61.00,50.00,67.06,210.00,6.00,0.00,30.02,1013.40,10.00,M,BKN,M,M,M,7000.00,M,M,M,M,M,M,M,M,M,M,61.00,KEKO 121656Z AUTO 21006KT 10SM BKN070 16/10 A3002 RMK AO2 SLP134 T01610100,M
WMC,2023-06-12 16:56,-117.8072,40.9019,1315.00,64.00,50.00,60.34,270.00,4.00,0.00,30.02,1013.50,10.00,M,OVC,M,M,M,12000.00,M,M,M,M,M,M,M,M,M,M,64.00,KWMC 121656Z AUTO 27004KT 10SM OVC120 18/10 A3002 RMK AO2 SLP135 T01780100,M
NFL,2023-06-12 16:56,-118.7010,39.4166,1199.00,62.00,52.00,69.46,0.00,0.00,0.00,30.02,1013.40,10.00,M,FEW,SCT,BKN,BKN,4000.00,6000.00,12000.00,15000.00,M,M,M,M,M,M,M,62.10,KNFL 121656Z 00000KT 10SM FEW040 SCT060 BKN120 BKN150 17/11 A3002 RMK AO2 SLP134 T01670111,M
HND,2023-06-12 16:56,-115.1344,35.9729,742.79,76.00,43.00,30.85,240.00,4.00,0.00,29.95,1013.60,10.00,M,CLR,M,M,M,M,M,M,M,M,M,M,M,M,M,M,75.90,KHND 121656Z 24004KT 10SM CLR 24/06 A2995 RMK AO2 SLP136 T02440061,M
LAS,2023-06-12 16:56,-115.1634,36.0719,663.00,75.00,45.00,34.31,M,3.00,0.00,29.92,1011.20,10.00,M,FEW,SCT,SCT,M,9000.00,14000.00,22000.00,M,M,M,M,M,M,M,M,75.00,KLAS 121656Z VRB03KT 10SM FEW090 SCT140 SCT220 24/07 A2992 RMK AO2 SLP112 T02390072,M
TPH,2023-06-12 16:56,-117.0904,38.0505,1654.00,63.00,44.00,50.03,M,3.00,0.00,30.05,1012.50,10.00,M,CLR,M,M,M,M,M,M,M,M,M,M,M,M,M,M,63.00,KTPH 121656Z AUTO VRB03KT 10SM CLR 17/07 A3005 RMK AO2 SLP125 T01720067,M
05U,2023-06-12 17:10,-116.0051,39.6042,1811.23,62.60,42.80,48.28,M,5.00,0.00,30.07,M,10.00,M,CLR,M,M,M,M,M,M,M,M,M,M,M,M,M,M,62.60,K05U 121710Z AUTO VRB05KT 10SM CLR 17/06 A3007 RMK A01,M
BVU,2023-06-12 17:15,-114.8611,35.9475,671.00,73.40,44.60,35.66,140.00,5.00,0.00,29.93,M,10.00,M,CLR,M,M,M,M,M,M,M,M,M,M,M,M,M,M,73.40,KBVU 121715Z AUTO 14005KT 10SM CLR 23/07 A2993 RMK AO2,M
CXP,2023-06-12 17:15,-119.7326,39.1923,1431.00,59.00,48.20,67.33,0.00,0.00,0.00,30.07,M,10.00,M,FEW,SCT,BKN,M,3300.00,4600.00,7000.00,M,M,M,M,M,M,M,M,59.00,KCXP 121715Z AUTO 00000KT 10SM FEW033 SCT046 BKN070 15/09 A3007 RMK AO2,M
RTS,2023-06-12 17:15,-119.8764,39.6682,1539.00,57.20,50.00,76.82,0.00,0.00,0.00,30.08,M,10.00,M,FEW,SCT,M,M,2800.00,4900.00,M,M,M,M,M,M,M,M,M,57.20,KRTS 121715Z AUTO 00000KT 10SM FEW028 SCT049 14/10 A3008 RMK AO2,M
MEV,2023-06-12 17:15,-119.7500,38.9963,1441.42,59.00,51.80,76.98,0.00,0.00,0.00,30.05,M,10.00,M,FEW,M,M,M,4800.00,M,M,M,M,M,M,M,M,M,M,59.00,KMEV 121715Z AUTO 00000KT 10SM FEW048 15/11 A3005 RMK AO2,M
BAM,2023-06-12 17:15,-116.8743,40.5990,1382.36,60.80,50.00,67.54,0.00,0.00,0.00,30.04,M,10.00,M,SCT,SCT,OVC,M,4400.00,7000.00,8000.00,M,M,M,M,M,M,M,M,60.80,KBAM 121715Z AUTO 00000KT 10SM SCT044 SCT070 OVC080 16/10 A3004 RMK AO1,M
HTH,2023-06-12 17:15,-118.6315,38.5448,1282.89,64.40,48.20,55.63,M,4.00,0.00,30.03,M,10.00,M,CLR,M,M,M,M,M,M,M,M,M,M,M,M,M,M,64.40,KHTH 121715Z AUTO VRB04KT 10SM CLR 18/09 A3003 RMK A01,M
TMT,2023-06-12 17:15,-117.1971,39.4643,1749.34,56.00,45.70,68.02,0.00,0.00,0.00,30.08,M,10.00,M,CLR,M,M,M,M,M,M,M,M,M,M,M,M,M,M,56.10,KTMT 121715Z AUTO 00000KT 10SM CLR 13/08 A3008 RMK AO2 T01340076,M
05U,2023-06-12 17:30,-116.0051,39.6042,1811.23,62.60,44.60,51.72,M,M,0.00,30.08,M,10.00,M,CLR,M,M,M,M,M,M,M,M,M,M,M,M,M,M,62.60,K05U 121730Z AUTO 10SM CLR 17/07 A3008 RMK A01,M
BVU,2023-06-12 17:35,-114.8611,35.9475,671.00,75.20,44.60,33.57,M,6.00,0.00,29.93,M,10.00,12.00,CLR,M,M,M,M,M,M,M,M,M,M,M,M,M,M,75.20,KBVU 121735Z AUTO VRB06G12KT 10SM CLR 24/07 A2993 RMK AO2,M
CXP,2023-06-12 17:35,-119.7326,39.1923,1431.00,60.80,48.20,63.15,0.00,0.00,0.00,30.07,M,10.00,M,FEW,BKN,OVC,M,3300.00,4300.00,11000.00,M,M,M,M,M,M,M,M,60.80,KCXP 121735Z AUTO 00000KT 10SM FEW033 BKN043 OVC110 16/09 A3007 RMK AO2,M
RTS,2023-06-12 17:35,-119.8764,39.6682,1539.00,57.20,50.00,76.82,0.00,0.00,0.00,30.08,M,10.00,M,BKN,BKN,BKN,M,4900.00,6000.00,8500.00,M,M,M,M,M,M,M,M,57.20,KRTS 121735Z AUTO 00000KT 10SM BKN049 BKN060 BKN085 14/10 A3008 RMK AO2,M
MEV,2023-06-12 17:35,-119.7500,38.9963,1441.42,59.00,50.00,72.01,0.00,0.00,0.00,30.05,M,10.00,M,CLR,M,M,M,M,M,M,M,M,M,M,M,M,M,M,59.00,KMEV 121735Z AUTO 00000KT 10SM CLR 15/10 A3005 RMK AO2,M
BAM,2023-06-12 17:35,-116.8743,40.5990,1382.36,60.80,50.00,67.54,0.00,0.00,0.00,30.04,M,10.00,M,SCT,SCT,OVC,M,3000.00,4400.00,7500.00,M,M,M,M,M,M,M,M,60.80,KBAM 121735Z AUTO 00000KT 10SM SCT030 SCT044 OVC075 16/10 A3004 RMK AO1,M
HTH,2023-06-12 17:35,-118.6315,38.5448,1282.89,64.40,46.40,51.98,M,3.00,0.00,30.03,M,10.00,M,CLR,M,M,M,M,M,M,M,M,M,M,M,M,M,M,64.40,KHTH 121735Z AUTO VRB03KT 10SM CLR 18/08 A3003 RMK A01,M
TMT,2023-06-12 17:35,-117.1971,39.4643,1749.34,57.40,45.00,63.20,340.00,3.00,0.00,30.08,M,10.00,M,CLR,M,M,M,M,M,M,M,M,M,M,M,M,M,M,57.40,KTMT 121735Z AUTO 34003KT 10SM CLR 14/07 A3008 RMK AO2 LTG DSNT NE T01410072,M
05U,2023-06-12 17:50,-116.0051,39.6042,1811.23,64.40,44.60,48.55,10.00,4.00,0.00,30.08,M,10.00,10.00,CLR,M,M,M,M,M,M,M,M,M,M,M,M,M,M,64.40,K05U 121750Z AUTO 01004G10KT 10SM CLR 18/07 A3008 RMK A01,M
DRA,2023-06-12 17:53,-116.0278,36.6206,1009.00,74.00,43.00,32.98,200.00,9.00,0.00,29.96,1010.40,10.00,M,CLR,M,M,M,M,M,M,M,M,M,M,M,M,M,M,73.90,KDRA 121753Z AUTO 20009KT 10SM CLR 23/06 A2996 RMK AO2 SLP104 T02330061 10239 20150 51003 $,M
ELY,2023-06-12 17:53,-114.8453,39.2950,1909.00,58.00,43.00,57.51,30.00,4.00,0.00,30.06,1013.00,10.00,M,BKN,M,M,M,12000.00,M,M,M,M,M,M,M,M,M,M,57.90,KELY 121753Z AUTO 03004KT 10SM BKN120 14/06 A3006 RMK AO2 SLP130 T01440061 10144 20011 51004,M
P68,2023-06-12 17:53,-116.0056,39.6014,1993.00,61.00,44.00,53.69,M,3.00,0.00,30.05,1012.40,M,M,M,M,M,M,M,M,M,M,M,M,M,M,M,M,M,61.00,KP68 121753Z AUTO VRB03KT 16/07 A3005 RMK AO1 SLP124 T01610067 10172 20028 51002,M
LOL,2023-06-12 17:53,-118.5701,40.0684,1192.43,63.00,53.00,70.07,M,3.00,0.00,30.02,1014.40,10.00,M,CLR,M,M,M,M,M,M,M,M,M,M,M,M,M,M,63.00,KLOL 121753Z AUTO VRB03KT 10SM CLR 17/12 A3002 RMK AO2 SLP144 T01720117 10178 20106 50006,M
VGT,2023-06-12 17:53,-115.1933,36.2111,667.00,78.00,42.00,27.70,0.00,0.00,0.00,29.92,1012.70,10.00,M,BKN,M,M,M,11000.00,M,M,M,M,M,M,M,M,M,M,78.10,KVGT 121753Z 00000KT 10SM BKN110 26/06 A2992 RMK AO2 LTG DSNT W SLP127 T02560056 10256 20217 51005,M
BVU,2023-06-12 17:55,-114.8611,35.9475,671.00,75.20,44.60,33.57,160.00,3.00,0.00,29.93,M,10.00,12.00,CLR,M,M,M,M,M,M,M,M,M,M,M,M,M,M,75.20,KBVU 121755Z AUTO 16003G12KT 10SM CLR 24/07 A2993 RMK AO2,M
CXP,2023-06-12 17:55,-119.7326,39.1923,1431.00,60.80,48.20,63.15,0.00,0.00,0.00,30.07,M,10.00,M,OVC,M,M,M,3800.00,M,M,M,M,M,M,M,M,M,M,60.80,KCXP 121755Z AUTO 00000KT 10SM OVC038 16/09 A3007 RMK AO2,M
INS,2023-06-12 17:55,-115.6733,36.5872,955.00,74.50,37.40,26.01,20.00,3.00,0.00,29.95,1010.20,10.00,M,CLR,M,M,M,M,M,M,M,M,M,M,M,M,M,M,74.50,KINS 121755Z AUTO 02003KT 10SM CLR 24/03 A2995 RMK AO2 SLP102 60000 T02360030 10236 20162 50000 $,M
RTS,2023-06-12 17:55,-119.8764,39.6682,1539.00,59.00,50.00,72.01,0.00,0.00,0.00,30.08,M,10.00,M,FEW,SCT,BKN,M,2400.00,5000.00,7500.00,M,M,M,M,M,M,M,M,59.00,KRTS 121755Z AUTO 00000KT 10SM FEW024 SCT050 BKN075 15/10 A3008 RMK AO2,M
MEV,2023-06-12 17:55,-119.7500,38.9963,1441.42,60.80,51.80,72.20,0.00,0.00,0.00,30.06,M,10.00,M,CLR,M,M,M,M,M,M,M,M,M,M,M,M,M,M,60.80,KMEV 121755Z AUTO 00000KT 10SM CLR 16/11 A3006 RMK AO2,M
BAM,2023-06-12 17:55,-116.8743,40.5990,1382.36,60.80,50.00,67.54,0.00,0.00,0.00,30.05,M,10.00,M,SCT,SCT,OVC,M,3000.00,4700.00,7500.00,M,M,M,M,M,M,M,M,60.80,KBAM 121755Z AUTO 00000KT 10SM SCT030 SCT047 OVC075 16/10 A3005 RMK AO1,M
HTH,2023-06-12 17:55,-118.6315,38.5448,1282.89,66.20,46.40,48.83,M,5.00,0.00,30.03,M,10.00,M,CLR,M,M,M,M,M,M,M,M,M,M,M,M,M,M,66.20,KHTH 121755Z AUTO VRB05KT 10SM CLR 19/08 A3003 RMK A01,M
TMT,2023-06-12 17:55,-117.1971,39.4643,1749.34,58.60,46.00,62.63,290.00,3.00,0.00,30.08,M,10.00,M,CLR,M,M,M,M,M,M,M,M,M,M,M,M,M,M,58.60,KTMT 121755Z AUTO 29003KT 10SM CLR 15/08 A3008 RMK AO2 T01480077 10148 20034,M
LSV,2023-06-12 17:55,-115.0343,36.2362,570.00,82.00,44.60,26.92,110.00,4.00,0.00,29.88,1009.70,10.00,M,FEW,M,M,M,10000.00,M,M,M,M,M,M,M,M,M,M,80.19,KLSV 121755Z AUTO 11004KT 10SM FEW100 28/07 A2988 RMK AO2 SLP097 T02770070 10291 20200 50001 $,M
RNO,2023-06-12 17:55,-119.7711,39.4839,1341.00,56.00,51.00,83.88,210.00,4.00,T,30.05,1014.70,10.00,M,FEW,BKN,OVC,M,3500.00,6000.00,16000.00,M,-RA,M,M,M,M,M,M,55.90,KRNO 121755Z 21004KT 10SM -RA FEW035 BKN060 OVC160 13/11 A3005 RMK AO2 RAB09 SLP147 P0000 60000 T01330106 10150 20117 51008,M
EKO,2023-06-12 17:56,-115.7860,40.8242,1367.00,64.00,50.00,60.34,M,M,0.00,30.02,1013.20,10.00,M,BKN,M,M,M,6500.00,M,M,M,M,M,M,M,M,M,M,64.00,KEKO 121756Z AUTO 10SM BKN065 18/10 A3002 RMK AO2 SLP132 60000 T01780100 10178 20094 51005,M
WMC,2023-06-12 17:56,-117.8072,40.9019,1315.00,66.00,50.00,56.27,260.00,6.00,0.00,30.02,1013.60,10.00,M,FEW,M,M,M,2900.00,M,M,M,M,M,M,M,M,M,M,66.00,KWMC 121756Z AUTO 26006KT 10SM FEW029 19/10 A3002 RMK AO2 SLP136 T01890100 10194 20117 51003,M
NFL,2023-06-12 17:56,-118.7010,39.4166,1199.00,65.00,52.00,62.96,0.00,0.00,0.00,30.02,1013.50,10.00,M,FEW,SCT,BKN,BKN,4000.00,6000.00,12000.00,15000.00,M,M,M,M,M,M,M,64.90,KNFL 121756Z 00000KT 10SM FEW040 SCT060 BKN120 BKN150 18/11 A3002 RMK AO2 SLP135 T01830111 10183 20122 51005,M
LAS,2023-06-12 17:56,-115.1634,36.0719,663.00,77.00,45.00,32.10,M,3.00,0.00,29.92,1011.40,10.00,M,FEW,SCT,BKN,M,9000.00,14000.00,22000.00,M,M,M,M,M,M,M,M,77.00,KLAS 121756Z VRB03KT 10SM FEW090 SCT140 BKN220 25/07 A2992 RMK AO2 SLP114 CB DSNT W T02500072 10256 20200 53002,M
HND,2023-06-12 17:56,-115.1344,35.9729,742.79,77.00,42.00,28.73,0.00,0.00,0.00,29.95,1013.80,10.00,M,CLR,M,M,M,M,M,M,M,M,M,M,M,M,M,M,77.00,KHND 121756Z 00000KT 10SM CLR 25/06 A2995 RMK AO2 SLP138 T02500056 10250 20183 51001,M
TPH,2023-06-12 17:56,-117.0904,38.0505,1654.00,65.00,44.00,46.81,220.00,5.00,0.00,30.04,1012.10,10.00,M,FEW,M,M,M,5000.00,M,M,M,M,M,M,M,M,M,M,64.90,KTPH 121756Z AUTO 22005KT 10SM FEW050 18/07 A3004 RMK AO2 SLP121 T01830067 10194 20067 58000,M
05U,2023-06-12 18:10,-116.0051,39.6042,1811.23,64.40,44.60,48.55,10.00,4.00,0.00,30.08,M,10.00,M,CLR,M,M,M,M,M,M,M,M,M,M,M,M,M,M,64.40,K05U 121810Z AUTO 01004KT 10SM CLR 18/07 A3008 RMK A01,M
BVU,2023-06-12 18:15,-114.8611,35.9475,671.00,77.00,42.80,29.51,M,5.00,0.00,29.92,M,10.00,13.00,CLR,M,M,M,M,M,M,M,M,M,M,M,M,M,M,77.00,KBVU 121815Z AUTO VRB05G13KT 10SM CLR 25/06 A2992 RMK AO2,M
CXP,2023-06-12 18:15,-119.7326,39.1923,1431.00,60.80,50.00,67.54,0.00,0.00,0.00,30.07,M,10.00,M,FEW,SCT,OVC,M,2600.00,3200.00,4100.00,M,M,M,M,M,M,M,M,60.80,KCXP 121815Z AUTO 00000KT 10SM FEW026 SCT032 OVC041 16/10 A3007 RMK AO2,M
RTS,2023-06-12 18:15,-119.8764,39.6682,1539.00,59.00,51.80,76.98,330.00,8.00,0.00,30.09,M,10.00,M,SCT,SCT,BKN,M,2200.00,3000.00,5000.00,M,M,M,M,M,M,M,M,59.00,KRTS 121815Z AUTO 33008KT 10SM SCT022 SCT030 BKN050 15/11 A3009 RMK AO2,M
MEV,2023-06-12 18:15,-119.7500,38.9963,1441.42,62.60,50.00,63.38,0.00,0.00,0.00,30.06,M,10.00,M,BKN,M,M,M,5000.00,M,M,M,M,M,M,M,M,M,M,62.60,KMEV 121815Z AUTO 00000KT 10SM BKN050 17/10 A3006 RMK AO2,M
BAM,2023-06-12 18:15,-116.8743,40.5990,1382.36,62.60,50.00,63.38,330.00,3.00,0.00,30.05,M,10.00,M,SCT,BKN,OVC,M,2700.00,7500.00,8500.00,M,M,M,M,M,M,M,M,62.60,KBAM 121815Z AUTO 33003KT 10SM SCT027 BKN075 OVC085 17/10 A3005 RMK AO1,M
HTH,2023-06-12 18:15,-118.6315,38.5448,1282.89,66.20,48.20,52.25,M,M,0.00,30.03,M,10.00,M,CLR,M,M,M,M,M,M,M,M,M,M,M,M,M,M,66.20,KHTH 121815Z AUTO 6.29166706KT 10SM CLR 19/09 A3003 RMK A01,M
TMT,2023-06-12 18:15,-117.1971,39.4643,1749.34,59.00,45.50,60.81,340.00,4.00,0.00,30.08,M,10.00,M,CLR,M,M,M,M,M,M,M,M,M,M,M,M,M,M,59.00,KTMT 121815Z AUTO 34004KT 10SM CLR 15/08 A3008 RMK AO2 T01500075,M
05U,2023-06-12 18:30,-116.0051,39.6042,1811.23,66.20,44.60,45.60,M,7.00,0.00,30.08,M,10.00,M,CLR,M,M,M,M,M,M,M,M,M,M,M,M,M,M,66.20,K05U 121830Z AUTO VRB07KT 360V060 10SM CLR 19/07 A3008 RMK A01,M
BVU,2023-06-12 18:35,-114.8611,35.9475,671.00,78.80,42.80,27.81,0.00,0.00,0.00,29.92,M,10.00,12.00,CLR,M,M,M,M,M,M,M,M,M,M,M,M,M,M,78.80,KBVU 121835Z AUTO 00000G12KT 10SM CLR 26/06 A2992 RMK AO2,M
CXP,2023-06-12 18:35,-119.7326,39.1923,1431.00,62.60,50.00,63.38,M,4.00,0.00,30.07,M,10.00,M,SCT,BKN,OVC,M,2500.00,4600.00,6000.00,M,M,M,M,M,M,M,M,62.60,KCXP 121835Z AUTO VRB04KT 10SM SCT025 BKN046 OVC060 17/10 A3007 RMK AO2,M
RTS,2023-06-12 18:35,-119.8764,39.6682,1539.00,57.20,51.80,82.12,330.00,8.00,0.00,30.09,M,10.00,M,FEW,SCT,OVC,M,2000.00,3400.00,4800.00,M,-DZ,M,M,M,M,M,M,57.20,KRTS 121835Z AUTO 33008KT 10SM -DZ FEW020 SCT034 OVC048 14/11 A3009 RMK AO2,M
MEV,2023-06-12 18:35,-119.7500,38.9963,1441.42,64.40,50.00,59.50,M,3.00,0.00,30.06,M,10.00,M,SCT,SCT,M,M,5000.00,7000.00,M,M,M,M,M,M,M,M,M,64.40,KMEV 121835Z AUTO VRB03KT 10SM SCT050 SCT070 18/10 A3006 RMK AO2,M
BAM,2023-06-12 18:35,-116.8743,40.5990,1382.36,62.60,50.00,63.38,0.00,0.00,0.00,30.05,M,10.00,M,SCT,SCT,BKN,M,2600.00,3700.00,9000.00,M,M,M,M,M,M,M,M,62.60,KBAM 121835Z AUTO 00000KT 10SM SCT026 SCT037 BKN090 17/10 A3005 RMK AO1,M
HTH,2023-06-12 18:35,-118.6315,38.5448,1282.89,68.00,46.40,45.88,M,6.00,0.00,30.03,M,10.00,M,CLR,M,M,M,M,M,M,M,M,M,M,M,M,M,M,68.00,KHTH 121835Z AUTO VRB06KT 10SM CLR 20/08 A3003 RMK A01,M
TMT,2023-06-12 18:35,-117.1971,39.4643,1749.34,58.60,45.00,60.53,0.00,0.00,0.00,30.08,M,10.00,M,CLR,M,M,M,M,M,M,M,M,M,M,M,M,M,M,58.60,KTMT 121835Z AUTO 00000KT 10SM CLR 15/07 A3008 RMK AO2 LTG DSNT SE T01480072,M
HND,2023-06-12 18:47,-115.1344,35.9729,742.79,77.00,41.00,27.53,300.00,6.00,0.00,29.95,M,10.00,M,CLR,M,M,M,M,M,M,M,M,M,M,M,M,M,M,77.00,KHND 121847Z 30006KT 10SM CLR 25/05 A2995 RMK AO2 TSB45E47,M
05U,2023-06-12 18:50,-116.0051,39.6042,1811.23,66.20,42.80,42.57,M,5.00,0.00,30.07,M,10.00,10.00,CLR,M,M,M,M,M,M,M,M,M,M,M,M,M,M,66.20,K05U 121850Z AUTO VRB05G10KT 10SM CLR 19/06 A3007 RMK A01,M
ELY,2023-06-12 18:53,-114.8453,39.2950,1909.00,64.00,39.00,39.67,M,3.00,0.00,30.05,1011.70,10.00,M,CLR,M,M,M,M,M,M,M,M,M,M,M,M,M,M,64.00,KELY 121853Z AUTO VRB03KT 10SM CLR 18/04 A3005 RMK AO2 SLP117 T01780039,M
VGT,2023-06-12 18:53,-115.1933,36.2111,667.00,80.00,43.00,26.85,180.00,7.00,0.00,29.92,1012.70,10.00,M,FEW,M,M,M,10000.00,M,M,M,M,M,M,M,M,M,M,79.04,KVGT 121853Z 18007KT 10SM FEW100 27/06 A2992 RMK AO2 SLP127 T02670061,M
DRA,2023-06-12 18:53,-116.0278,36.6206,1009.00,77.00,42.00,28.73,220.00,7.00,0.00,29.95,1010.20,10.00,M,CLR,M,M,M,M,M,M,M,M,M,M,M,M,M,M,77.00,KDRA 121853Z AUTO 22007KT 10SM CLR 25/06 A2995 RMK AO2 SLP102 T02500056,M
P68,2023-06-12 18:53,-116.0056,39.6014,1993.00,65.00,44.00,46.81,320.00,6.00,0.00,30.04,1011.90,M,M,M,M,M,M,M,M,M,M,M,M,M,M,M,M,M,64.90,KP68 121853Z AUTO 32006KT 18/07 A3004 RMK AO1 SLP119 T01830067,M
LOL,2023-06-12 18:53,-118.5701,40.0684,1192.43,65.00,53.00,65.56,0.00,0.00,0.00,30.02,1014.30,10.00,M,CLR,M,M,M,M,M,M,M,M,M,M,M,M,M,M,64.90,KLOL 121853Z AUTO 00000KT 10SM CLR 18/12 A3002 RMK AO2 SLP143 T01830117,M
BVU,2023-06-12 18:55,-114.8611,35.9475,671.00,78.80,42.80,27.81,150.00,4.00,0.00,29.92,M,10.00,11.00,CLR,M,M,M,M,M,M,M,M,M,M,M,M,M,M,78.80,KBVU 121855Z AUTO 15004G11KT 10SM CLR 26/06 A2992 RMK AO2,M
CXP,2023-06-12 18:55,-119.7326,39.1923,1431.00,62.60,50.00,63.38,290.00,6.00,0.00,30.07,M,10.00,13.00,FEW,OVC,M,M,4700.00,6000.00,M,M,M,M,M,M,M,M,M,62.60,KCXP 121855Z AUTO 29006G13KT 10SM FEW047 OVC060 17/10 A3007 RMK AO2,M
INS,2023-06-12 18:55,-115.6733,36.5872,955.00,76.50,36.00,23.02,20.00,5.00,0.00,29.95,1010.00,10.00,M,CLR,M,M,M,M,M,M,M,M,M,M,M,M,M,M,76.50,KINS 121855Z AUTO 02005KT 10SM CLR 25/02 A2995 RMK AO2 SLP100 T02470022 $,M
RTS,2023-06-12 18:55,-119.8764,39.6682,1539.00,57.20,51.80,82.12,320.00,6.00,0.01,30.09,M,4.00,M,SCT,BKN,M,M,4800.00,7000.00,M,M,-RA,M,M,M,M,M,M,57.20,KRTS 121855Z AUTO 32006KT 4SM -RA SCT048 BKN070 14/11 A3009 RMK AO2 P0001,M
MEV,2023-06-12 18:55,-119.7500,38.9963,1441.42,64.40,50.00,59.50,M,4.00,0.00,30.06,M,10.00,M,SCT,M,M,M,5500.00,M,M,M,M,M,M,M,M,M,M,64.40,KMEV 121855Z AUTO VRB04KT 10SM SCT055 18/10 A3006 RMK AO2,M
BAM,2023-06-12 18:55,-116.8743,40.5990,1382.36,64.40,50.00,59.50,340.00,3.00,0.00,30.05,M,10.00,M,SCT,OVC,M,M,9500.00,12000.00,M,M,M,M,M,M,M,M,M,64.40,KBAM 121855Z AUTO 34003KT 10SM SCT095 OVC120 18/10 A3005 RMK AO1,M
HTH,2023-06-12 18:55,-118.6315,38.5448,1282.89,68.00,44.60,42.85,320.00,6.00,0.00,30.03,M,10.00,12.00,CLR,M,M,M,M,M,M,M,M,M,M,M,M,M,M,68.00,KHTH 121855Z AUTO 32006G12KT 10SM CLR 20/07 A3003 RMK A01,M
LSV,2023-06-12 18:55,-115.0343,36.2362,570.00,86.70,44.40,22.89,0.00,0.00,0.00,29.87,1009.30,10.00,M,FEW,M,M,M,20000.00,M,M,M,M,M,M,M,M,M,M,83.61,KLSV 121855Z AUTO 00000KT 10SM FEW200 30/07 A2987 RMK AO2 SLP093 T03040069 $,M
TMT,2023-06-12 18:55,-117.1971,39.4643,1749.34,59.70,45.30,58.86,80.00,4.00,0.00,30.08,M,10.00,M,SCT,M,M,M,10000.00,M,M,M,M,M,M,M,M,M,M,59.70,KTMT 121855Z AUTO 08004KT 10SM SCT100 15/07 A3008 RMK AO2 LTG DSNT N T01540074,M
RNO,2023-06-12 18:55,-119.7711,39.4839,1341.00,63.00,51.00,65.09,0.00,0.00,T,30.05,1014.20,10.00,M,FEW,BKN,OVC,M,3500.00,8000.00,15000.00,M,M,M,M,M,M,M,M,63.00,KRNO 121855Z 00000KT 10SM FEW035 BKN080 OVC150 17/11 A3005 RMK AO2 RAE17 SLP142 P0000 T01720106,M
WMC,2023-06-12 18:56,-117.8072,40.9019,1315.00,69.00,48.00,46.92,M,M,0.00,30.01,1013.10,10.00,M,CLR,M,M,M,M,M,M,M,M,M,M,M,M,M,M,69.10,KWMC 121856Z AUTO 10SM CLR 21/09 A3001 RMK AO2 SLP131 T02060089,M
NFL,2023-06-12 18:56,-118.7010,39.4166,1199.00,68.00,50.00,52.51,0.00,0.00,0.00,30.01,1013.40,10.00,M,FEW,SCT,BKN,BKN,4000.00,6000.00,11000.00,15000.00,M,M,M,M,M,M,M,68.00,KNFL 121856Z 00000KT 10SM FEW040 SCT060 BKN110 BKN150 20/10 A3001 RMK AO2 SLP134 T02000100,M
HND,2023-06-12 18:56,-115.1344,35.9729,742.79,78.00,41.00,26.55,340.00,7.00,0.00,29.95,1013.80,10.00,M,FEW,M,M,M,11000.00,M,M,M,VCTS,M,M,M,M,M,M,78.10,KHND 121856Z 34007KT 10SM VCTS FEW110 26/05 A2995 RMK AO2 LTG DSNT W TSB45E47B55 SLP138 T02560050,M
TPH,2023-06-12 18:56,-117.0904,38.0505,1654.00,67.00,41.00,38.76,M,M,0.00,30.04,1011.90,10.00,M,CLR,M,M,M,M,M,M,M,M,M,M,M,M,M,M,66.90,KTPH 121856Z AUTO 10SM CLR 19/05 A3004 RMK AO2 SLP119 T01940050,M
EKO,2023-06-12 18:56,-115.7860,40.8242,1367.00,64.00,47.00,53.72,340.00,8.00,0.00,30.03,1013.40,10.00,M,BKN,BKN,OVC,M,3500.00,5000.00,6500.00,M,M,M,M,M,M,M,M,64.00,KEKO 121856Z AUTO 34008KT 10SM BKN035 BKN050 OVC065 18/08 A3003 RMK AO2 SLP134 T01780083,M
LAS,2023-06-12 18:56,-115.1634,36.0719,663.00,76.00,44.00,32.17,M,3.00,0.00,29.93,1011.40,10.00,M,FEW,SCT,BKN,BKN,7500.00,9500.00,12000.00,25000.00,M,M,M,M,M,M,M,75.90,KLAS 121856Z VRB03KT 10SM FEW075 SCT095 BKN120 BKN250 24/07 A2993 RMK AO2 LTG DSNT SW TSE55 SLP114 CB DSNT NE AND SW T02440067,M
HND,2023-06-12 19:06,-115.1344,35.9729,742.79,77.00,42.80,29.51,M,3.00,0.00,29.95,M,10.00,M,FEW,M,M,M,10000.00,M,M,M,M,M,M,M,M,M,M,77.00,KHND 121906Z VRB03KT 10SM FEW100 25/06 A2995 RMK AO2 LTG DSNT W TSE00,M
05U,2023-06-12 19:10,-116.0051,39.6042,1811.23,68.00,42.80,40.00,360.00,3.00,0.00,30.08,M,10.00,10.00,CLR,M,M,M,M,M,M,M,M,M,M,M,M,M,M,68.00,K05U 121910Z AUTO 36003G10KT 10SM CLR 20/06 A3008 RMK A01,M
HTH,2023-06-12 19:10,-118.6315,38.5448,1282.89,68.00,44.60,42.85,300.00,5.00,0.00,30.02,M,10.00,M,CLR,M,M,M,M,M,M,M,M,M,M,M,M,M,M,68.00,KHTH 121910Z AUTO 30005KT 10SM CLR 20/07 A3002 RMK A01,M
HND,2023-06-12 19:12,-115.1344,35.9729,742.79,78.80,42.80,27.81,310.00,7.00,0.00,29.95,M,10.00,M,FEW,M,M,M,10000.00,M,M,M,M,M,M,M,M,M,M,78.80,KHND 121912Z 31007KT 10SM FEW100 26/06 A2995 RMK AO2 TSE00B09E12,M
BVU,2023-06-12 19:15,-114.8611,35.9475,671.00,80.60,41.00,24.46,190.00,10.00,0.00,29.91,M,10.00,M,CLR,M,M,M,M,M,M,M,M,M,M,M,M,M,M,79.20,KBVU 121915Z AUTO 19010KT 10SM CLR 27/05 A2991 RMK AO2,M
CXP,2023-06-12 19:15,-119.7326,39.1923,1431.00,62.60,50.00,63.38,310.00,9.00,0.00,30.08,M,10.00,M,BKN,OVC,M,M,4000.00,6000.00,M,M,M,M,M,M,M,M,M,62.60,KCXP 121915Z AUTO 31009KT 10SM BKN040 OVC060 17/10 A3008 RMK AO2,M
RTS,2023-06-12 19:15,-119.8764,39.6682,1539.00,59.00,51.80,76.98,290.00,5.00,0.00,30.09,M,10.00,11.00,FEW,BKN,M,M,7000.00,8500.00,M,M,M,M,M,M,M,M,M,59.00,KRTS 121915Z AUTO 29005G11KT 10SM FEW070 BKN085 15/11 A3009 RMK AO2,M
MEV,2023-06-12 19:15,-119.7500,38.9963,1441.42,64.40,51.80,63.60,360.00,10.00,0.00,30.06,M,10.00,M,BKN,M,M,M,6500.00,M,M,M,M,M,M,M,M,M,M,64.40,KMEV 121915Z AUTO 36010KT 10SM BKN065 18/11 A3006 RMK AO2,M
BAM,2023-06-12 19:15,-116.8743,40.5990,1382.36,68.00,50.00,52.51,310.00,3.00,0.00,30.04,M,10.00,M,SCT,M,M,M,11000.00,M,M,M,M,M,M,M,M,M,M,68.00,KBAM 121915Z AUTO 31003KT 10SM SCT110 20/10 A3004 RMK AO1,M
TMT,2023-06-12 19:15,-117.1971,39.4643,1749.34,60.60,45.70,57.88,0.00,0.00,0.00,30.08,M,10.00,M,CLR,M,M,M,M,M,M,M,TS,M,M,M,M,M,M,60.60,KTMT 121915Z AUTO 00000KT 10SM TS CLR 16/08 A3008 RMK AO2 LTG DSNT NE AND E T01590076,M
05U,2023-06-12 19:30,-116.0051,39.6042,1811.23,68.00,42.80,40.00,10.00,4.00,0.00,30.07,M,10.00,M,FEW,M,M,M,5000.00,M,M,M,M,M,M,M,M,M,M,68.00,K05U 121930Z AUTO 01004KT 10SM FEW050 20/06 A3007 RMK A01,M
BVU,2023-06-12 19:35,-114.8611,35.9475,671.00,78.80,42.80,27.81,140.00,5.00,0.00,29.91,M,10.00,12.00,SCT,SCT,M,M,7500.00,12000.00,M,M,M,M,M,M,M,M,M,78.80,KBVU 121935Z AUTO 14005G12KT 10SM SCT075 SCT120 26/06 A2991 RMK AO2,M
CXP,2023-06-12 19:35,-119.7326,39.1923,1431.00,62.60,50.00,63.38,320.00,7.00,0.00,30.07,M,10.00,M,FEW,SCT,BKN,M,4000.00,5500.00,9000.00,M,M,M,M,M,M,M,M,62.60,KCXP 121935Z AUTO 32007KT 10SM FEW040 SCT055 BKN090 17/10 A3007 RMK AO2 LTG DSNT NE AND E,M
RTS,2023-06-12 19:35,-119.8764,39.6682,1539.00,59.00,51.80,76.98,M,5.00,0.00,30.09,M,10.00,10.00,FEW,BKN,BKN,M,7000.00,8000.00,9000.00,M,M,M,M,M,M,M,M,59.00,KRTS 121935Z AUTO VRB05G10KT 10SM FEW070 BKN080 BKN090 15/11 A3009 RMK AO2,M
MEV,2023-06-12 19:35,-119.7500,38.9963,1441.42,64.40,50.00,59.50,360.00,9.00,0.00,30.06,M,10.00,M,SCT,BKN,M,M,6000.00,9000.00,M,M,M,M,M,M,M,M,M,64.40,KMEV 121935Z AUTO 36009KT 10SM SCT060 BKN090 18/10 A3006 RMK AO2 LTG DSNT NE AND E,M
BAM,2023-06-12 19:35,-116.8743,40.5990,1382.36,68.00,48.20,49.10,210.00,4.00,0.00,30.04,M,10.00,M,SCT,M,M,M,10000.00,M,M,M,M,M,M,M,M,M,M,68.00,KBAM 121935Z AUTO 21004KT 10SM SCT100 20/09 A3004 RMK AO1,M
HTH,2023-06-12 19:35,-118.6315,38.5448,1282.89,69.80,42.80,37.61,340.00,7.00,0.00,30.02,M,10.00,M,CLR,M,M,M,M,M,M,M,M,M,M,M,M,M,M,69.80,KHTH 121935Z AUTO 34007KT 10SM CLR 21/06 A3002 RMK A01,M
TMT,2023-06-12 19:35,-117.1971,39.4643,1749.34,61.00,46.20,58.15,60.00,6.00,0.00,30.08,M,10.00,M,SCT,M,M,M,11000.00,M,M,M,M,M,M,M,M,M,M,61.00,KTMT 121935Z AUTO 06006KT 10SM SCT110 16/08 A3008 RMK AO2 LTG DSNT SE AND S T01610079,M
05U,2023-06-12 19:50,-116.0051,39.6042,1811.23,64.40,42.80,45.32,20.00,11.00,0.00,30.08,M,10.00,17.00,BKN,BKN,BKN,M,4400.00,5000.00,6000.00,M,M,M,M,M,M,M,M,64.40,K05U 121950Z AUTO 02011G17KT 10SM BKN044 BKN050 BKN060 18/06 A3008 RMK A01,M
DRA,2023-06-12 19:53,-116.0278,36.6206,1009.00,81.00,39.00,22.33,190.00,10.00,0.00,29.93,1009.40,10.00,15.00,CLR,M,M,M,M,M,M,M,M,M,M,M,M,M,M,79.33,KDRA 121953Z AUTO 19010G15KT 10SM CLR 27/04 A2993 RMK AO2 SLP094 T02720039,M
ELY,2023-06-12 19:53,-114.8453,39.2950,1909.00,67.00,39.00,35.86,310.00,7.00,0.00,30.04,1011.10,10.00,M,CLR,M,M,M,M,M,M,M,M,M,M,M,M,M,M,66.90,KELY 121953Z AUTO 31007KT 270V340 10SM CLR 19/04 A3004 RMK AO2 SLP111 T01940039,M
LOL,2023-06-12 19:53,-118.5701,40.0684,1192.43,69.00,52.00,54.45,0.00,0.00,0.00,30.01,1013.80,10.00,M,FEW,M,M,M,3900.00,M,M,M,M,M,M,M,M,M,M,69.10,KLOL 121953Z AUTO 00000KT 10SM FEW039 21/11 A3001 RMK AO2 SLP138 T02060111,M
P68,2023-06-12 19:53,-116.0056,39.6014,1993.00,62.00,44.00,51.64,340.00,12.00,0.00,30.05,1012.70,M,21.00,M,M,M,M,M,M,M,M,M,M,M,M,M,M,M,62.10,KP68 121953Z AUTO 34012G21KT 17/07 A3005 RMK AO1 SLP127 T01670067,M
VGT,2023-06-12 19:53,-115.1933,36.2111,667.00,80.00,44.00,28.01,230.00,8.00,0.00,29.90,1012.10,10.00,M,CLR,M,M,M,M,M,M,M,M,M,M,M,M,M,M,79.12,KVGT 121953Z 23008KT 10SM CLR 27/07 A2990 RMK AO2 SLP121 T02670067,M
BVU,2023-06-12 19:55,-114.8611,35.9475,671.00,78.80,41.00,25.95,170.00,7.00,0.00,29.91,M,10.00,M,FEW,SCT,M,M,8000.00,11000.00,M,M,M,M,M,M,M,M,M,78.80,KBVU 121955Z AUTO 17007KT 10SM FEW080 SCT110 26/05 A2991 RMK AO2,M
CXP,2023-06-12 19:55,-119.7326,39.1923,1431.00,64.40,51.80,63.60,320.00,12.00,0.00,30.07,M,10.00,M,SCT,M,M,M,6000.00,M,M,M,M,M,M,M,M,M,M,64.40,KCXP 121955Z AUTO 32012KT 10SM SCT060 18/11 A3007 RMK AO2,M
INS,2023-06-12 19:55,-115.6733,36.5872,955.00,77.40,36.70,22.97,80.00,3.00,0.00,29.93,1009.50,10.00,M,CLR,M,M,M,M,M,M,M,M,M,M,M,M,M,M,77.40,KINS 121955Z AUTO 08003KT 10SM CLR 25/03 A2993 RMK AO2 SLP095 T02520026 $,M
RNO,2023-06-12 19:55,-119.7711,39.4839,1341.00,65.00,55.00,70.28,M,4.00,0.01,30.05,1014.10,10.00,M,FEW,BKN,BKN,M,3000.00,7500.00,15000.00,M,M,M,M,M,M,M,M,64.90,KRNO 121955Z VRB04KT 10SM FEW030 BKN075 BKN150 18/13 A3005 RMK AO2 RAB10E41 SLP141 P0001 T01830128,M
RTS,2023-06-12 19:55,-119.8764,39.6682,1539.00,60.80,51.80,72.20,280.00,5.00,0.00,30.09,M,10.00,M,FEW,BKN,BKN,M,1900.00,7000.00,8500.00,M,M,M,M,M,M,M,M,60.80,KRTS 121955Z AUTO 28005KT 10SM FEW019 BKN070 BKN085 16/11 A3009 RMK AO2,M
MEV,2023-06-12 19:55,-119.7500,38.9963,1441.42,66.20,51.80,59.74,340.00,10.00,0.00,30.06,M,10.00,15.00,FEW,FEW,SCT,M,6000.00,7000.00,9000.00,M,M,M,M,M,M,M,M,66.20,KMEV 121955Z AUTO 34010G15KT 10SM FEW060 FEW070 SCT090 19/11 A3006 RMK AO2,M
BAM,2023-06-12 19:55,-116.8743,40.5990,1382.36,69.80,46.40,43.13,0.00,0.00,0.00,30.04,M,10.00,M,CLR,M,M,M,M,M,M,M,M,M,M,M,M,M,M,69.80,KBAM 121955Z AUTO 00000KT 10SM CLR 21/08 A3004 RMK AO1,M
HTH,2023-06-12 19:55,-118.6315,38.5448,1282.89,71.60,44.60,37.89,330.00,8.00,0.00,30.02,M,10.00,M,CLR,M,M,M,M,M,M,M,M,M,M,M,M,M,M,71.60,KHTH 121955Z AUTO 33008KT 10SM CLR 22/07 A3002 RMK A01,M
TMT,2023-06-12 19:55,-117.1971,39.4643,1749.34,60.80,46.40,59.01,50.00,7.00,0.00,30.08,M,10.00,M,SCT,M,M,M,11000.00,M,M,M,VCTS,M,M,M,M,M,M,60.80,KTMT 121955Z AUTO 05007KT 10SM VCTS SCT110 16/08 A3008 RMK AO2 LTG DSNT ALQS T01600080,M
LSV,2023-06-12 19:55,-115.0343,36.2362,570.00,84.60,43.70,23.84,160.00,4.00,0.00,29.86,1009.00,10.00,M,SCT,SCT,SCT,M,8000.00,10000.00,18000.00,M,M,M,M,M,M,M,M,81.96,KLSV 121955Z AUTO 16004KT 10SM SCT080 SCT100 SCT180 29/07 A2986 RMK AO2 SLP090 T02920065 $,M
EKO,2023-06-12 19:56,-115.7860,40.8242,1367.00,65.00,48.00,54.26,240.00,6.00,0.00,30.02,1013.30,10.00,M,SCT,BKN,M,M,4000.00,6000.00,M,M,M,M,M,M,M,M,M,64.90,KEKO 121956Z AUTO 24006KT 10SM SCT040 BKN060 18/09 A3002 RMK AO2 SLP133 T01830089,M
TPH,2023-06-12 19:56,-117.0904,38.0505,1654.00,71.00,41.00,33.57,M,6.00,0.00,30.03,1011.50,10.00,M,CLR,M,M,M,M,M,M,M,M,M,M,M,M,M,M,71.10,KTPH 121956Z AUTO VRB06KT 10SM CLR 22/05 A3003 RMK AO2 SLP115 T02170050,M
LAS,2023-06-12 19:56,-115.1634,36.0719,663.00,79.00,45.00,30.05,M,3.00,T,29.91,1010.90,10.00,M,FEW,SCT,SCT,M,9500.00,13000.00,25000.00,M,M,M,M,M,M,M,M,79.00,KLAS 121956Z VRB03KT 10SM FEW095 SCT130 SCT250 26/07 A2991 RMK AO2 LTG DSNT S RAB22E31 SLP109 P0000 T02610072,M
NFL,2023-06-12 19:56,-118.7010,39.4166,1199.00,70.00,49.00,47.06,10.00,6.00,0.00,30.01,1013.20,10.00,M,FEW,SCT,BKN,BKN,4000.00,6000.00,11000.00,15000.00,M,M,M,M,M,M,M,70.00,KNFL 121956Z 01006KT 10SM FEW040 SCT060 BKN110 BKN150 21/09 A3001 RMK AO2 SLP132 CB DSNT ALQDS T02110094,M
HND,2023-06-12 19:56,-115.1344,35.9729,742.79,78.00,45.00,30.95,290.00,5.00,0.00,29.94,1013.50,10.00,M,SCT,M,M,M,10000.00,M,M,M,M,M,M,M,M,M,M,78.10,KHND 121956Z 29005KT 10SM SCT100 26/07 A2994 RMK AO2 LTG DSNT SE AND S TSE00B09E12 SLP135 T02560072,M
WMC,2023-06-12 19:56,-117.8072,40.9019,1315.00,74.00,47.00,38.26,0.00,0.00,0.00,30.00,1012.60,10.00,M,SCT,M,M,M,4500.00,M,M,M,M,M,M,M,M,M,M,73.90,KWMC 121956Z AUTO 00000KT 10SM SCT045 23/08 A3000 RMK AO2 LTG DSNT SE SLP126 T02330083,M
05U,2023-06-12 20:10,-116.0051,39.6042,1811.23,64.40,42.80,45.32,10.00,7.00,0.00,30.07,M,10.00,14.00,FEW,SCT,BKN,M,4400.00,5500.00,9000.00,M,M,M,M,M,M,M,M,64.40,K05U 122010Z AUTO 01007G14KT 10SM FEW044 SCT055 BKN090 18/06 A3007 RMK A01,M
BVU,2023-06-12 20:15,-114.8611,35.9475,671.00,80.60,41.00,24.46,70.00,5.00,0.00,29.90,M,10.00,M,FEW,M,M,M,11000.00,M,M,M,M,M,M,M,M,M,M,79.20,KBVU 122015Z AUTO 07005KT 10SM FEW110 27/05 A2990 RMK AO2,M
CXP,2023-06-12 20:15,-119.7326,39.1923,1431.00,66.20,51.80,59.74,320.00,11.00,0.00,30.06,M,10.00,M,BKN,M,M,M,8000.00,M,M,M,M,M,M,M,M,M,M,66.20,KCXP 122015Z AUTO 32011KT 10SM BKN080 19/11 A3006 RMK AO2,M
RTS,2023-06-12 20:15,-119.8764,39.6682,1539.00,59.00,51.80,76.98,M,3.00,0.00,30.09,M,7.00,M,FEW,SCT,BKN,M,2000.00,3100.00,4600.00,M,-DZ,M,M,M,M,M,M,59.00,KRTS 122015Z AUTO VRB03KT 7SM -DZ FEW020 SCT031 BKN046 15/11 A3009 RMK AO2,M
MEV,2023-06-12 20:15,-119.7500,38.9963,1441.42,66.20,50.00,55.88,360.00,8.00,0.00,30.05,M,10.00,M,BKN,BKN,M,M,6500.00,9000.00,M,M,M,M,M,M,M,M,M,66.20,KMEV 122015Z AUTO 36008KT 10SM BKN065 BKN090 19/10 A3005 RMK AO2,M
BAM,2023-06-12 20:15,-116.8743,40.5990,1382.36,71.60,46.40,40.57,70.00,5.00,0.00,30.04,M,10.00,M,SCT,SCT,SCT,M,4700.00,7000.00,8000.00,M,M,M,M,M,M,M,M,71.60,KBAM 122015Z AUTO 07005KT 10SM SCT047 SCT070 SCT080 22/08 A3004 RMK AO1,M
HTH,2023-06-12 20:15,-118.6315,38.5448,1282.89,71.60,42.80,35.37,350.00,10.00,0.00,30.01,M,10.00,M,CLR,M,M,M,M,M,M,M,M,M,M,M,M,M,M,71.60,KHTH 122015Z AUTO 35010KT 10SM CLR 22/06 A3001 RMK A01,M
TMT,2023-06-12 20:15,-117.1971,39.4643,1749.34,62.00,45.00,53.45,0.00,0.00,0.00,30.07,M,10.00,M,CLR,M,M,M,M,M,M,M,TS,M,M,M,M,M,M,62.10,KTMT 122015Z AUTO 00000KT 10SM TS CLR 17/07 A3007 RMK AO2 LTG DSNT ALQS T01670072,M
05U,2023-06-12 20:30,-116.0051,39.6042,1811.23,66.20,44.60,45.60,M,M,0.00,30.06,M,10.00,M,FEW,M,M,M,9000.00,M,M,M,M,M,M,M,M,M,M,66.20,K05U 122030Z AUTO 10SM FEW090 19/07 A3006 RMK A01,M
BVU,2023-06-12 20:35,-114.8611,35.9475,671.00,84.20,41.00,21.76,240.00,10.00,0.00,29.89,M,10.00,15.00,FEW,FEW,M,M,9000.00,11000.00,M,M,M,M,M,M,M,M,M,81.52,KBVU 122035Z AUTO 24010G15KT 10SM FEW090 FEW110 29/05 A2989 RMK AO2,M
CXP,2023-06-12 20:35,-119.7326,39.1923,1431.00,66.20,51.80,59.74,310.00,7.00,0.00,30.06,M,10.00,13.00,BKN,OVC,M,M,7000.00,8500.00,M,M,M,M,M,M,M,M,M,66.20,KCXP 122035Z AUTO 31007G13KT 10SM BKN070 OVC085 19/11 A3006 RMK AO2,M
RTS,2023-06-12 20:35,-119.8764,39.6682,1539.00,59.00,55.40,87.83,90.00,8.00,0.00,30.09,M,9.00,M,BKN,BKN,BKN,M,2200.00,2700.00,3300.00,M,-DZ,M,M,M,M,M,M,59.00,KRTS 122035Z AUTO 09008KT 9SM -DZ BKN022 BKN027 BKN033 15/13 A3009 RMK AO2,M
MEV,2023-06-12 20:35,-119.7500,38.9963,1441.42,66.20,46.40,48.83,0.00,0.00,0.00,30.05,M,10.00,M,SCT,BKN,M,M,6500.00,8000.00,M,M,M,M,M,M,M,M,M,66.20,KMEV 122035Z AUTO 00000KT 10SM SCT065 BKN080 19/08 A3005 RMK AO2,M
BAM,2023-06-12 20:35,-116.8743,40.5990,1382.36,68.00,46.40,45.88,80.00,3.00,0.00,30.03,M,10.00,M,SCT,SCT,BKN,M,2800.00,4700.00,8000.00,M,M,M,M,M,M,M,M,68.00,KBAM 122035Z AUTO 08003KT 10SM SCT028 SCT047 BKN080 20/08 A3003 RMK AO1,M
HTH,2023-06-12 20:35,-118.6315,38.5448,1282.89,71.60,41.00,33.00,340.00,10.00,0.00,30.00,M,10.00,M,CLR,M,M,M,M,M,M,M,M,M,M,M,M,M,M,71.60,KHTH 122035Z AUTO 34010KT 10SM CLR 22/05 A3000 RMK A01,M
TMT,2023-06-12 20:35,-117.1971,39.4643,1749.34,63.00,44.20,50.22,290.00,3.00,0.00,30.07,M,10.00,M,CLR,M,M,M,M,M,M,M,TS,M,M,M,M,M,M,63.00,KTMT 122035Z AUTO 29003KT 10SM TS CLR 17/07 A3007 RMK AO2 LTG DSNT ALQS T01720068,M
05U,2023-06-12 20:50,-116.0051,39.6042,1811.23,66.20,42.80,42.57,30.00,7.00,0.00,30.06,M,10.00,M,CLR,M,M,M,M,M,M,M,M,M,M,M,M,M,M,66.20,K05U 122050Z AUTO 03007KT 360V060 10SM CLR 19/06 A3006 RMK A01,M
ELY,2023-06-12 20:53,-114.8453,39.2950,1909.00,62.00,36.00,37.69,310.00,6.00,T,30.04,1012.20,10.00,M,SCT,M,M,M,9500.00,M,M,M,M,M,M,M,M,M,M,62.10,KELY 122053Z AUTO 31006KT 10SM SCT095 17/02 A3004 RMK AO2 RAB34E45 SLP122 P0000 60000 T01670022 56006,M
LOL,2023-06-12 20:53,-118.5701,40.0684,1192.43,65.00,52.00,62.96,330.00,9.00,T,30.00,1013.70,9.00,M,BKN,OVC,M,M,6000.00,7500.00,M,M,-RA,M,M,M,M,M,M,64.90,KLOL 122053Z AUTO 33009KT 9SM -RA BKN060 OVC075 18/11 A3000 RMK AO2 RAB48 SLP137 P0000 60000 T01830111 58006,M
VGT,2023-06-12 20:53,-115.1933,36.2111,667.00,82.00,42.00,24.38,190.00,9.00,0.00,29.87,1011.30,10.00,16.00,CLR,M,M,M,M,M,M,M,M,M,M,M,M,M,M,80.09,KVGT 122053Z 19009G16KT 10SM CLR 28/06 A2987 RMK AO2 LTG DSNT SE SLP113 T02780056 58013,M
P68,2023-06-12 20:53,-116.0056,39.6014,1993.00,65.00,44.00,46.81,350.00,7.00,0.00,30.03,1012.10,M,M,M,M,M,M,M,M,M,M,M,M,M,M,M,M,M,64.90,KP68 122053Z AUTO 35007KT 18/07 A3003 RMK AO1 SLP121 T01830067 58004,M
DRA,2023-06-12 20:53,-116.0278,36.6206,1009.00,80.00,38.00,22.03,250.00,7.00,0.00,29.91,1008.80,10.00,M,CLR,M,M,M,M,M,M,M,M,M,M,M,M,M,M,78.85,KDRA 122053Z AUTO 25007KT 220V290 10SM CLR 27/03 A2991 RMK AO2 SLP088 T02670033 58014,M
EKO,2023-06-12 20:54,-115.7860,40.8242,1367.00,69.80,48.20,46.16,M,M,M,29.99,M,10.00,M,FEW,FEW,M,M,4901.00,8500.00,M,M,VCTS,M,M,M,M,M,M,69.80,SPECI KEKO 122054Z KT 10SM VCTS FEW049 FEW085 21/09 A2999 RMK AO2 FIBI,M
BVU,2023-06-12 20:55,-114.8611,35.9475,671.00,82.40,42.80,24.72,220.00,13.00,0.00,29.88,M,10.00,19.00,CLR,M,M,M,M,M,M,M,M,M,M,M,M,M,M,80.39,KBVU 122055Z AUTO 22013G19KT 10SM CLR 28/06 A2988 RMK AO2 LTG DSNT S,M
CXP,2023-06-12 20:55,-119.7326,39.1923,1431.00,66.20,51.80,59.74,320.00,10.00,0.00,30.05,M,10.00,16.00,FEW,SCT,M,M,7500.00,9000.00,M,M,M,M,M,M,M,M,M,66.20,KCXP 122055Z AUTO 32010G16KT 10SM FEW075 SCT090 19/11 A3005 RMK AO2 LTG DSNT NE AND E,M
INS,2023-06-12 20:55,-115.6733,36.5872,955.00,79.30,36.00,20.99,230.00,5.00,0.00,29.91,1008.80,10.00,M,CLR,M,M,M,M,M,M,M,M,M,M,M,M,M,M,79.30,KINS 122055Z AUTO 23005KT 10SM CLR 26/02 A2991 RMK AO2 SLP088 T02630022 57015 $,M
RNO,2023-06-12 20:55,-119.7711,39.4839,1341.00,64.00,54.00,69.92,30.00,4.00,0.01,30.05,1014.00,10.00,M,SCT,BKN,BKN,M,3500.00,8000.00,16000.00,M,-RA,M,M,M,M,M,M,64.00,KRNO 122055Z 03004KT 10SM -RA SCT035 BKN080 BKN160 18/12 A3005 RMK AO2 LTG DSNT SE RAB11E41B44 SLP140 P0001 60002 T01780122 58002,M
RTS,2023-06-12 20:55,-119.8764,39.6682,1539.00,59.00,53.60,82.25,130.00,7.00,0.01,30.08,M,7.00,M,SCT,BKN,BKN,M,2300.00,3300.00,6500.00,M,-DZ,M,M,M,M,M,M,59.00,KRTS 122055Z AUTO 13007KT 7SM -DZ SCT023 BKN033 BKN065 15/12 A3008 RMK AO2 P0001,M
MEV,2023-06-12 20:55,-119.7500,38.9963,1441.42,66.20,53.60,63.82,130.00,9.00,0.00,30.05,M,10.00,14.00,SCT,SCT,SCT,M,2800.00,3600.00,8500.00,M,M,M,M,M,M,M,M,66.20,KMEV 122055Z AUTO 13009G14KT 10SM SCT028 SCT036 SCT085 19/12 A3005 RMK AO2 LTG DSNT N AND NE,M
BAM,2023-06-12 20:55,-116.8743,40.5990,1382.36,69.80,46.40,43.13,360.00,6.00,0.00,30.03,M,10.00,M,SCT,SCT,BKN,M,3000.00,4300.00,7000.00,M,M,M,M,M,M,M,M,69.80,KBAM 122055Z AUTO 36006KT 10SM SCT030 SCT043 BKN070 21/08 A3003 RMK AO1,M
HTH,2023-06-12 20:55,-118.6315,38.5448,1282.89,73.40,42.80,33.29,340.00,13.00,0.00,29.99,M,10.00,18.00,CLR,M,M,M,M,M,M,M,M,M,M,M,M,M,M,73.40,KHTH 122055Z AUTO 34013G18KT 10SM CLR 23/06 A2999 RMK A01,M
LSV,2023-06-12 20:55,-115.0343,36.2362,570.00,87.30,41.20,19.86,180.00,7.00,0.00,29.84,1008.30,10.00,16.00,CLR,M,M,M,M,M,M,M,M,M,M,M,M,M,M,83.90,KLSV 122055Z AUTO 18007G16KT 10SM CLR 31/05 A2984 RMK AO2 SLP083 T03070051 58014 $,M
TMT,2023-06-12 20:55,-117.1971,39.4643,1749.34,63.00,45.70,53.17,270.00,4.00,0.00,30.07,M,10.00,M,SCT,M,M,M,11000.00,M,M,M,M,M,M,M,M,M,M,63.00,KTMT 122055Z AUTO 27004KT 10SM SCT110 17/08 A3007 RMK AO2 LTG DSNT N AND NW T01720076,M
WMC,2023-06-12 20:56,-117.8072,40.9019,1315.00,75.00,47.00,36.87,M,6.00,0.00,29.99,1011.90,10.00,M,FEW,BKN,OVC,M,4500.00,6000.00,11000.00,M,M,M,M,M,M,M,M,75.00,KWMC 122056Z AUTO VRB06KT 10SM FEW045 BKN060 OVC110 24/08 A2999 RMK AO2 LTG DSNT N AND NE SLP119 T02390083 58010,M
NFL,2023-06-12 20:56,-118.7010,39.4166,1199.00,70.00,49.00,47.06,0.00,0.00,0.00,29.99,1012.60,10.00,M,SCT,SCT,BKN,BKN,4000.00,6000.00,16000.00,20000.00,M,M,M,M,M,M,M,70.00,KNFL 122056Z 00000KT 10SM SCT040 SCT060 BKN160 BKN200 21/09 A2999 RMK AO2 SLP126 CB DSNT ALQDS T02110094 58009,M
HND,2023-06-12 20:56,-115.1344,35.9729,742.79,81.00,40.00,23.13,270.00,8.00,0.00,29.91,1012.20,10.00,M,CLR,M,M,M,M,M,M,M,M,M,M,M,M,M,M,79.37,KHND 122056Z 27008KT 10SM CLR 27/04 A2991 RMK AO2 LTG DSNT SE SLP122 T02720044 58013,M
TPH,2023-06-12 20:56,-117.0904,38.0505,1654.00,73.00,38.00,27.89,M,3.00,0.00,30.01,1010.70,10.00,M,CLR,M,M,M,M,M,M,M,M,M,M,M,M,M,M,73.00,KTPH 122056Z AUTO VRB03KT 10SM CLR 23/03 A3001 RMK AO2 SLP107 T02280033 58010,M
EKO,2023-06-12 20:56,-115.7860,40.8242,1367.00,69.00,49.00,48.53,M,M,0.00,29.99,1011.90,10.00,M,FEW,M,M,M,4900.00,M,M,M,M,M,M,M,M,M,M,69.10,KEKO 122056Z AUTO 10SM FEW049 21/09 A2999 RMK AO2 SLP119 T02060094 58010,M
LAS,2023-06-12 20:56,-115.1634,36.0719,663.00,80.00,42.00,25.94,M,4.00,0.00,29.88,1009.80,10.00,M,FEW,FEW,SCT,M,9500.00,13000.00,25000.00,M,M,M,M,M,M,M,M,78.99,KLAS 122056Z VRB04KT 10SM FEW095 FEW130 SCT250 27/06 A2988 RMK AO2 LTG DSNT SE SLP098 CB DSNT N AND SE 60000 T02670056 58014,M
05U,2023-06-12 21:10,-116.0051,39.6042,1811.23,68.00,41.00,37.32,10.00,5.00,0.00,30.05,M,10.00,M,CLR,M,M,M,M,M,M,M,M,M,M,M,M,M,M,68.00,K05U 122110Z AUTO 01005KT 10SM CLR 20/05 A3005 RMK A01,M
BVU,2023-06-12 21:15,-114.8611,35.9475,671.00,80.60,46.40,30.07,170.00,21.00,0.00,29.89,M,10.00,28.00,CLR,M,M,M,M,M,M,M,M,M,M,M,M,M,M,79.56,KBVU 122115Z AUTO 17021G28KT 10SM CLR 27/08 A2989 RMK AO2 LTG DSNT N AND SE AND S,M
CXP,2023-06-12 21:15,-119.7326,39.1923,1431.00,66.20,51.80,59.74,330.00,10.00,0.00,30.06,M,10.00,M,BKN,BKN,M,M,6500.00,9000.00,M,M,VCTS RA,M,M,M,M,M,M,66.20,KCXP 122115Z AUTO 33010KT 10SM VCTS RA BKN065 BKN090 19/11 A3006 RMK AO2 LTG DSNT E AND SE,M
RTS,2023-06-12 21:15,-119.8764,39.6682,1539.00,59.00,51.80,76.98,110.00,4.00,0.00,30.07,M,10.00,M,FEW,BKN,BKN,M,3400.00,6500.00,8000.00,M,M,M,M,M,M,M,M,59.00,KRTS 122115Z AUTO 11004KT 10SM FEW034 BKN065 BKN080 15/11 A3007 RMK AO2,M
MEV,2023-06-12 21:15,-119.7500,38.9963,1441.42,64.40,53.60,67.95,120.00,10.00,0.00,30.05,M,10.00,M,FEW,SCT,BKN,M,2900.00,4100.00,9000.00,M,M,M,M,M,M,M,M,64.40,KMEV 122115Z AUTO 12010KT 10SM FEW029 SCT041 BKN090 18/12 A3005 RMK AO2,M
BAM,2023-06-12 21:15,-116.8743,40.5990,1382.36,71.60,48.20,43.42,10.00,9.00,0.00,30.02,M,10.00,M,SCT,SCT,SCT,M,4100.00,5000.00,7000.00,M,M,M,M,M,M,M,M,71.60,KBAM 122115Z AUTO 01009KT 10SM SCT041 SCT050 SCT070 22/09 A3002 RMK AO1,M
HTH,2023-06-12 21:15,-118.6315,38.5448,1282.89,73.40,42.80,33.29,340.00,13.00,0.00,29.99,M,10.00,M,FEW,M,M,M,11000.00,M,M,M,M,M,M,M,M,M,M,73.40,KHTH 122115Z AUTO 34013KT 10SM FEW110 23/06 A2999 RMK A01,M
TMT,2023-06-12 21:15,-117.1971,39.4643,1749.34,62.80,46.00,53.96,0.00,0.00,0.00,30.06,M,10.00,M,BKN,M,M,M,10000.00,M,M,M,M,M,M,M,M,M,M,62.80,KTMT 122115Z AUTO 00000KT 10SM BKN100 17/08 A3006 RMK AO2 LTG DSNT ALQS T01710077,M
05U,2023-06-12 21:30,-116.0051,39.6042,1811.23,69.80,39.20,32.72,M,6.00,0.00,30.05,M,10.00,M,CLR,M,M,M,M,M,M,M,M,M,M,M,M,M,M,69.80,K05U 122130Z AUTO VRB06KT 360V120 10SM CLR 21/04 A3005 RMK A01,M
WMC,2023-06-12 21:31,-117.8072,40.9019,1315.00,69.00,50.00,50.56,150.00,12.00,0.00,29.99,M,10.00,M,FEW,SCT,BKN,M,5000.00,9000.00,11000.00,M,TS,M,M,M,M,M,M,69.10,KWMC 122131Z AUTO 15012KT 10SM TS FEW050 SCT090 BKN110 21/10 A2999 RMK AO2 LTG DSNT NE TSB12E18B24E25B31 T02060100,M
BVU,2023-06-12 21:35,-114.8611,35.9475,671.00,80.60,42.80,26.22,170.00,14.00,0.00,29.89,M,10.00,22.00,CLR,M,M,M,M,M,M,M,M,M,M,M,M,M,M,79.30,KBVU 122135Z AUTO 17014G22KT 10SM CLR 27/06 A2989 RMK AO2 LTG DSNT NE AND E,M
CXP,2023-06-12 21:35,-119.7326,39.1923,1431.00,60.80,55.40,82.37,80.00,10.00,0.00,30.06,M,3.00,15.00,SCT,BKN,OVC,M,3500.00,5000.00,6500.00,M,-RA HZ,M,M,M,M,M,M,60.80,KCXP 122135Z AUTO 08010G15KT 3SM -RA HZ SCT035 BKN050 OVC065 16/13 A3006 RMK AO2,M
RTS,2023-06-12 21:35,-119.8764,39.6682,1539.00,60.80,53.60,77.14,150.00,5.00,0.00,30.07,M,10.00,M,OVC,M,M,M,6500.00,M,M,M,M,M,M,M,M,M,M,60.80,KRTS 122135Z AUTO 15005KT 10SM OVC065 16/12 A3007 RMK AO2,M
MEV,2023-06-12 21:35,-119.7500,38.9963,1441.42,62.60,53.60,72.38,120.00,9.00,0.00,30.05,M,10.00,M,FEW,SCT,OVC,M,4500.00,6000.00,9000.00,M,M,M,M,M,M,M,M,62.60,KMEV 122135Z AUTO 12009KT 10SM FEW045 SCT060 OVC090 17/12 A3005 RMK AO2 LTG DSNT N AND E,M
BAM,2023-06-12 21:35,-116.8743,40.5990,1382.36,69.80,46.40,43.13,360.00,5.00,0.00,30.01,M,10.00,M,SCT,M,M,M,8000.00,M,M,M,M,M,M,M,M,M,M,69.80,KBAM 122135Z AUTO 36005KT 10SM SCT080 21/08 A3001 RMK AO1,M
HTH,2023-06-12 21:35,-118.6315,38.5448,1282.89,71.60,41.00,33.00,330.00,7.00,0.00,29.98,M,10.00,15.00,FEW,M,M,M,11000.00,M,M,M,M,M,M,M,M,M,M,71.60,KHTH 122135Z AUTO 33007G15KT 10SM FEW110 22/05 A2998 RMK A01,M
TMT,2023-06-12 21:35,-117.1971,39.4643,1749.34,64.40,45.50,50.24,350.00,5.00,0.00,30.06,M,10.00,M,BKN,M,M,M,10000.00,M,M,M,TS,M,M,M,M,M,M,64.40,KTMT 122135Z AUTO 35005KT 10SM TS BKN100 18/08 A3006 RMK AO2 LTG DSNT E THRU SW T01800075,M
05U,2023-06-12 21:50,-116.0051,39.6042,1811.23,71.60,39.20,30.77,0.00,0.00,0.00,30.05,M,10.00,M,FEW,M,M,M,6500.00,M,M,M,M,M,M,M,M,M,M,71.60,K05U 122150Z AUTO 00000KT 10SM FEW065 22/04 A3005 RMK A01,M
P68,2023-06-12 21:53,-116.0056,39.6014,1993.00,68.00,38.00,33.07,M,3.00,0.00,30.01,1010.90,M,M,M,M,M,M,M,M,M,M,M,M,M,M,M,M,M,68.00,KP68 122153Z AUTO VRB03KT 20/03 A3001 RMK AO1 SLP109 T02000033,M
DRA,2023-06-12 21:53,-116.0278,36.6206,1009.00,79.00,38.00,22.84,270.00,8.00,0.00,29.90,1008.60,10.00,19.00,CLR,M,M,M,M,M,M,M,M,M,M,M,M,M,M,79.00,KDRA 122153Z AUTO 27008G19KT 10SM CLR 26/03 A2990 RMK AO2 SLP086 T02610033,M
ELY,2023-06-12 21:53,-114.8453,39.2950,1909.00,66.00,35.00,31.73,310.00,5.00,0.00,30.03,1011.40,10.00,M,CLR,M,M,M,M,M,M,M,M,M,M,M,M,M,M,66.00,KELY 122153Z AUTO 31005KT 10SM CLR 19/02 A3003 RMK AO2 LTG DSNT W SLP114 T01890017,M
VGT,2023-06-12 21:53,-115.1933,36.2111,667.00,84.00,42.00,22.85,250.00,6.00,0.00,29.86,1010.50,10.00,M,CLR,M,M,M,M,M,M,M,M,M,M,M,M,M,M,81.43,KVGT 122153Z 25006KT 10SM CLR 29/06 A2986 RMK AO2 SLP105 T02890056,M
LOL,2023-06-12 21:53,-118.5701,40.0684,1192.43,69.00,51.00,52.67,340.00,3.00,T,29.98,1012.70,10.00,M,FEW,M,M,M,7500.00,M,M,M,M,M,M,M,M,M,M,69.10,KLOL 122153Z AUTO 34003KT 10SM FEW075 21/11 A2998 RMK AO2 RAE17 SLP127 P0000 T02060106,M
BVU,2023-06-12 21:55,-114.8611,35.9475,671.00,80.60,41.00,24.46,170.00,10.00,0.00,29.88,M,10.00,M,CLR,M,M,M,M,M,M,M,M,M,M,M,M,M,M,79.20,KBVU 122155Z AUTO 17010KT 140V210 10SM CLR 27/05 A2988 RMK AO2,M
CXP,2023-06-12 21:55,-119.7326,39.1923,1431.00,60.80,55.40,82.37,80.00,7.00,0.00,30.06,M,10.00,M,SCT,SCT,SCT,M,3500.00,5000.00,6500.00,M,-RA,M,M,M,M,M,M,60.80,KCXP 122155Z AUTO 08007KT 10SM -RA SCT035 SCT050 SCT065 16/13 A3006 RMK AO2 LTG DSNT N AND NW,M
INS,2023-06-12 21:55,-115.6733,36.5872,955.00,80.40,35.60,19.92,60.00,7.00,0.00,29.89,1008.00,10.00,M,CLR,M,M,M,M,M,M,M,M,M,M,M,M,M,M,78.83,KINS 122155Z AUTO 06007KT 10SM CLR 27/02 A2989 RMK AO2 SLP080 T02690020 $,M
RNO,2023-06-12 21:55,-119.7711,39.4839,1341.00,67.00,50.00,54.54,M,3.00,T,30.02,1013.10,10.00,M,FEW,SCT,BKN,M,3500.00,8000.00,16000.00,M,M,M,M,M,M,M,M,66.90,KRNO 122155Z VRB03KT 10SM FEW035 SCT080 BKN160 19/10 A3002 RMK AO2 RAE05 SLP131 P0000 T01940100,M
RTS,2023-06-12 21:55,-119.8764,39.6682,1539.00,62.60,50.00,63.38,0.00,0.00,0.00,30.06,M,10.00,M,BKN,OVC,M,M,7000.00,7500.00,M,M,M,M,M,M,M,M,M,62.60,KRTS 122155Z AUTO 00000KT 10SM BKN070 OVC075 17/10 A3006 RMK AO2,M
MEV,2023-06-12 21:55,-119.7500,38.9963,1441.42,60.80,51.80,72.20,110.00,12.00,0.00,30.05,M,10.00,M,SCT,BKN,M,M,7000.00,9500.00,M,M,M,M,M,M,M,M,M,60.80,KMEV 122155Z AUTO 11012KT 10SM SCT070 BKN095 16/11 A3005 RMK AO2 LTG DSNT NW-NE,M
BAM,2023-06-12 21:55,-116.8743,40.5990,1382.36,69.80,44.60,40.29,340.00,6.00,0.00,30.00,M,10.00,M,BKN,M,M,M,8000.00,M,M,M,M,M,M,M,M,M,M,69.80,KBAM 122155Z AUTO 34006KT 10SM BKN080 21/07 A3000 RMK AO1,M
HTH,2023-06-12 21:55,-118.6315,38.5448,1282.89,73.40,42.80,33.29,320.00,11.00,0.00,29.98,M,10.00,M,M,M,M,M,M,M,M,M,M,M,M,M,M,M,M,73.40,KHTH 122155Z AUTO 32011KT 10SM 23/06 A2998 RMK A01,M
LSV,2023-06-12 21:55,-115.0343,36.2362,570.00,87.30,41.20,19.86,150.00,6.00,0.00,29.82,1007.70,10.00,M,CLR,M,M,M,M,M,M,M,M,M,M,M,M,M,M,83.90,KLSV 122155Z AUTO 15006KT 10SM CLR 31/05 A2982 RMK AO2 SLP077 T03070051 $,M
TMT,2023-06-12 21:55,-117.1971,39.4643,1749.34,65.00,47.00,51.70,320.00,9.00,0.00,30.06,M,10.00,14.00,SCT,BKN,M,M,6500.00,10000.00,M,M,M,M,M,M,M,M,M,65.10,KTMT 122155Z AUTO 32009G14KT 10SM SCT065 BKN100 18/08 A3006 RMK AO2 LTG DSNT N AND NW T01840083,M
WMC,2023-06-12 21:56,-117.8072,40.9019,1315.00,65.00,50.00,58.47,310.00,9.00,0.00,30.01,1013.40,10.00,M,FEW,BKN,OVC,M,3700.00,4500.00,10000.00,M,M,M,M,M,M,M,M,64.90,KWMC 122156Z AUTO 31009KT 10SM FEW037 BKN045 OVC100 18/10 A3001 RMK AO2 TSB12E18B24E25B31E33B36E37B38E41B45E47B48E49B50E52 SLP134 T01830100,M
NFL,2023-06-12 21:56,-118.7010,39.4166,1199.00,74.00,50.00,42.97,340.00,8.00,0.00,29.97,1012.20,10.00,M,SCT,SCT,BKN,BKN,4000.00,6000.00,16000.00,20000.00,M,M,M,M,M,M,M,73.90,KNFL 122156Z 34008KT 10SM SCT040 SCT060 BKN160 BKN200 23/10 A2997 RMK AO2 SLP122 CB DSNT ALQDS T02330100,M
HND,2023-06-12 21:56,-115.1344,35.9729,742.79,82.00,46.00,28.30,200.00,8.00,0.00,29.90,1011.70,10.00,M,SCT,M,M,M,9000.00,M,M,M,M,M,M,M,M,M,M,80.36,KHND 122156Z 20008KT 10SM SCT090 28/08 A2990 RMK AO2 SLP117 T02780078,M
LAS,2023-06-12 21:56,-115.1634,36.0719,663.00,83.00,41.00,22.70,M,3.00,0.00,29.87,1009.20,10.00,M,FEW,FEW,SCT,M,9500.00,13000.00,25000.00,M,M,M,M,M,M,M,M,80.62,KLAS 122156Z VRB03KT 10SM FEW095 FEW130 SCT250 28/05 A2987 RMK AO2 SLP092 CB DSNT N AND SE T02830050,M
EKO,2023-06-12 21:56,-115.7860,40.8242,1367.00,68.00,47.00,46.76,240.00,3.00,0.00,29.98,1011.60,10.00,M,SCT,OVC,M,M,5000.00,6500.00,M,M,M,M,M,M,M,M,M,68.00,KEKO 122156Z AUTO 24003KT 10SM SCT050 OVC065 20/08 A2998 RMK AO2 SLP116 T02000083,M
TPH,2023-06-12 21:56,-117.0904,38.0505,1654.00,72.00,35.00,25.83,300.00,9.00,0.00,30.00,1010.40,10.00,M,CLR,M,M,M,M,M,M,M,M,M,M,M,M,M,M,72.00,KTPH 122156Z AUTO 30009KT 10SM CLR 22/02 A3000 RMK AO2 SLP104 T02220017,M
05U,2023-06-12 22:10,-116.0051,39.6042,1811.23,66.20,41.00,39.72,10.00,9.00,0.00,30.04,M,10.00,M,FEW,SCT,M,M,6500.00,7500.00,M,M,M,M,M,M,M,M,M,66.20,K05U 122210Z AUTO 01009KT 360V060 10SM FEW065 SCT075 19/05 A3004 RMK A01,M
BVU,2023-06-12 22:15,-114.8611,35.9475,671.00,82.40,41.00,23.07,200.00,8.00,0.00,29.87,M,10.00,13.00,CLR,M,M,M,M,M,M,M,M,M,M,M,M,M,M,80.29,KBVU 122215Z AUTO 20008G13KT 10SM CLR 28/05 A2987 RMK AO2,M
CXP,2023-06-12 22:15,-119.7326,39.1923,1431.00,60.80,53.60,77.14,110.00,5.00,0.00,30.05,M,10.00,M,CLR,M,M,M,M,M,M,M,-RA,M,M,M,M,M,M,60.80,KCXP 122215Z AUTO 11005KT 10SM -RA CLR 16/12 A3005 RMK AO2 LTG DSNT ALQDS,M
RTS,2023-06-12 22:15,-119.8764,39.6682,1539.00,60.80,53.60,77.14,310.00,14.00,0.00,30.07,M,10.00,M,SCT,BKN,OVC,M,2500.00,6000.00,7500.00,M,M,M,M,M,M,M,M,60.80,KRTS 122215Z AUTO 31014KT 10SM SCT025 BKN060 OVC075 16/12 A3007 RMK AO2,M
MEV,2023-06-12 22:15,-119.7500,38.9963,1441.42,59.00,53.60,82.25,30.00,7.00,0.00,30.07,M,2.00,13.00,FEW,BKN,BKN,M,2800.00,3700.00,7500.00,M,-TSRA HZ,M,M,M,M,M,M,59.00,KMEV 122215Z AUTO 03007G13KT 2SM -TSRA HZ FEW028 BKN037 BKN075 15/12 A3007 RMK AO2 LTG DSNT E AND SW VIS 3/4V5,M
BAM,2023-06-12 22:15,-116.8743,40.5990,1382.36,71.60,44.60,37.89,300.00,5.00,0.00,30.00,M,10.00,M,BKN,M,M,M,9000.00,M,M,M,M,M,M,M,M,M,M,71.60,KBAM 122215Z AUTO 30005KT 10SM BKN090 22/07 A3000 RMK AO1,M
HTH,2023-06-12 22:15,-118.6315,38.5448,1282.89,75.20,42.80,31.34,340.00,11.00,0.00,29.97,M,10.00,M,CLR,M,M,M,M,M,M,M,M,M,M,M,M,M,M,75.20,KHTH 122215Z AUTO 34011KT 10SM CLR 24/06 A2997 RMK A01,M
TMT,2023-06-12 22:15,-117.1971,39.4643,1749.34,60.80,45.30,56.60,310.00,8.00,0.00,30.07,M,10.00,M,SCT,BKN,BKN,M,6500.00,10000.00,12000.00,M,VCTS,M,M,M,M,M,M,60.80,KTMT 122215Z AUTO 31008KT 10SM VCTS SCT065 BKN100 BKN120 16/07 A3007 RMK AO2 LTG DSNT ALQS T01600074,M
05U,2023-06-12 22:30,-116.0051,39.6042,1811.23,69.80,42.80,37.61,40.00,6.00,0.00,30.03,M,10.00,M,FEW,FEW,M,M,6500.00,7500.00,M,M,M,M,M,M,M,M,M,69.80,K05U 122230Z AUTO 04006KT 10SM FEW065 FEW075 21/06 A3003 RMK A01,M
BVU,2023-06-12 22:35,-114.8611,35.9475,671.00,82.40,41.00,23.07,190.00,9.00,0.00,29.87,M,10.00,M,CLR,M,M,M,M,M,M,M,M,M,M,M,M,M,M,80.29,KBVU 122235Z AUTO 19009KT 150V210 10SM CLR 28/05 A2987 RMK AO2,M
CXP,2023-06-12 22:35,-119.7326,39.1923,1431.00,64.40,53.60,67.95,0.00,0.00,0.00,30.05,M,10.00,M,CLR,M,M,M,M,M,M,M,M,M,M,M,M,M,M,64.40,KCXP 122235Z AUTO 00000KT 10SM CLR 18/12 A3005 RMK AO2,M
RTS,2023-06-12 22:35,-119.8764,39.6682,1539.00,57.20,53.60,87.74,260.00,6.00,0.00,30.07,M,3.00,M,SCT,BKN,OVC,M,2500.00,3400.00,6000.00,M,-RA,M,M,M,M,M,M,57.20,KRTS 122235Z AUTO 26006KT 3SM -RA SCT025 BKN034 OVC060 14/12 A3007 RMK AO2,M
MEV,2023-06-12 22:35,-119.7500,38.9963,1441.42,57.20,55.40,93.69,180.00,6.00,0.00,30.06,M,2.00,M,FEW,SCT,BKN,M,600.00,2800.00,3500.00,M,-RA BR,M,M,M,M,M,M,57.20,KMEV 122235Z AUTO 18006KT 2SM -RA BR FEW006 SCT028 BKN035 14/13 A3006 RMK AO2 LTG DSNT SW AND NW,M
BAM,2023-06-12 22:35,-116.8743,40.5990,1382.36,71.60,44.60,37.89,330.00,6.00,0.00,29.99,M,10.00,M,BKN,M,M,M,9000.00,M,M,M,M,M,M,M,M,M,M,71.60,KBAM 122235Z AUTO 33006KT 10SM BKN090 22/07 A2999 RMK AO1,M
HTH,2023-06-12 22:35,-118.6315,38.5448,1282.89,75.20,42.80,31.34,330.00,13.00,0.00,29.97,M,10.00,18.00,CLR,M,M,M,M,M,M,M,M,M,M,M,M,M,M,75.20,KHTH 122235Z AUTO 33013G18KT 10SM CLR 24/06 A2997 RMK A01,M
TMT,2023-06-12 22:35,-117.1971,39.4643,1749.34,61.00,45.50,56.63,200.00,11.00,0.00,30.07,M,10.00,M,SCT,SCT,OVC,M,7000.00,8000.00,10000.00,M,M,M,M,M,M,M,M,61.00,KTMT 122235Z AUTO 20011KT 10SM SCT070 SCT080 OVC100 16/08 A3007 RMK AO2 T01610075,M
HTH,2023-06-12 22:50,-118.6315,38.5448,1282.89,73.40,41.00,31.05,350.00,11.00,0.00,29.97,M,10.00,17.00,CLR,M,M,M,M,M,M,M,M,M,M,M,M,M,M,73.40,KHTH 122250Z AUTO 35011G17KT 10SM CLR 23/05 A2997 RMK A01,M
05U,2023-06-12 22:50,-116.0051,39.6042,1811.23,64.40,41.00,42.28,50.00,15.00,0.00,30.04,M,10.00,M,BKN,BKN,M,M,6000.00,7000.00,M,M,M,M,M,M,M,M,M,64.40,K05U 122250Z AUTO 05015KT 10SM BKN060 BKN070 18/05 A3004 RMK A01,M
P68,2023-06-12 22:53,-116.0056,39.6014,1993.00,64.00,41.00,42.88,250.00,13.00,0.00,30.02,1011.50,M,21.00,M,M,M,M,M,M,M,M,M,M,M,M,M,M,M,64.00,KP68 122253Z AUTO 25013G21KT 18/05 A3002 RMK AO1 SLP115 T01780050,M
DRA,2023-06-12 22:53,-116.0278,36.6206,1009.00,79.00,37.00,22.05,250.00,9.00,0.00,29.90,1008.40,10.00,M,CLR,M,M,M,M,M,M,M,M,M,M,M,M,M,M,79.00,KDRA 122253Z AUTO 25009KT 10SM CLR 26/03 A2990 RMK AO2 SLP084 T02610028,M
LOL,2023-06-12 22:53,-118.5701,40.0684,1192.43,72.00,50.00,45.81,0.00,0.00,0.00,29.97,1012.20,10.00,M,CLR,M,M,M,M,M,M,M,M,M,M,M,M,M,M,72.00,KLOL 122253Z AUTO 00000KT 10SM CLR 22/10 A2997 RMK AO2 SLP122 T02220100,M
ELY,2023-06-12 22:53,-114.8453,39.2950,1909.00,66.00,40.00,38.32,250.00,10.00,0.00,30.02,1011.20,10.00,15.00,CLR,M,M,M,M,M,M,M,M,M,M,M,M,M,M,66.00,KELY 122253Z AUTO 25010G15KT 10SM CLR 19/04 A3002 RMK AO2 SLP112 T01890044,M
VGT,2023-06-12 22:53,-115.1933,36.2111,667.00,85.00,42.00,22.20,M,M,0.00,29.84,1010.00,10.00,M,CLR,M,M,M,M,M,M,M,M,M,M,M,M,M,M,82.08,KVGT 122253Z 10SM CLR 29/06 A2984 RMK AO2 SLP100 T02940056,M
BVU,2023-06-12 22:55,-114.8611,35.9475,671.00,82.40,41.00,23.07,220.00,7.00,0.00,29.86,M,10.00,M,CLR,M,M,M,M,M,M,M,M,M,M,M,M,M,M,80.29,KBVU 122255Z AUTO 22007KT 170V230 10SM CLR 28/05 A2986 RMK AO2,M
CXP,2023-06-12 22:55,-119.7326,39.1923,1431.00,66.20,53.60,63.82,200.00,7.00,0.00,30.04,M,10.00,M,FEW,BKN,M,M,3000.00,6500.00,M,M,M,M,M,M,M,M,M,66.20,KCXP 122255Z AUTO 20007KT 10SM FEW030 BKN065 19/12 A3004 RMK AO2,M
RTS,2023-06-12 22:55,-119.8764,39.6682,1539.00,59.00,55.40,87.83,240.00,7.00,0.05,30.06,M,10.00,M,FEW,SCT,BKN,M,2700.00,4500.00,6000.00,M,M,M,M,M,M,M,M,59.00,KRTS 122255Z AUTO 24007KT 10SM FEW027 SCT045 BKN060 15/13 A3006 RMK AO2 P0005,M
MEV,2023-06-12 22:55,-119.7500,38.9963,1441.42,59.00,55.40,87.83,180.00,6.00,0.00,30.05,M,10.00,M,FEW,FEW,FEW,M,3200.00,4700.00,7000.00,M,-RA,M,M,M,M,M,M,59.00,KMEV 122255Z AUTO 18006KT 10SM -RA FEW032 FEW047 FEW070 15/13 A3005 RMK AO2,M
BAM,2023-06-12 22:55,-116.8743,40.5990,1382.36,73.40,44.60,35.66,340.00,5.00,0.00,29.98,M,10.00,M,BKN,M,M,M,10000.00,M,M,M,M,M,M,M,M,M,M,73.40,KBAM 122255Z AUTO 34005KT 10SM BKN100 23/07 A2998 RMK AO1,M
TMT,2023-06-12 22:55,-117.1971,39.4643,1749.34,60.80,48.20,63.15,200.00,12.00,0.00,30.06,M,10.00,M,SCT,SCT,M,M,8000.00,10000.00,M,M,M,M,M,M,M,M,M,60.80,KTMT 122255Z AUTO 20012KT 10SM SCT080 SCT100 16/09 A3006 RMK AO2 LTG DSNT ALQS T01600090,M
RNO,2023-06-12 22:55,-119.7711,39.4839,1341.00,73.00,50.00,44.29,290.00,8.00,0.00,30.00,1011.90,10.00,M,FEW,SCT,BKN,M,7000.00,11000.00,25000.00,M,M,M,M,M,M,M,M,73.00,KRNO 122255Z COR 29008KT 10SM FEW070 SCT110 BKN250 23/10 A3000 RMK AO2 SLP119 CB DSNT N THRU E AND SW T02280100,M
LSV,2023-06-12 22:55,-115.0343,36.2362,570.00,88.70,41.20,19.00,130.00,6.00,0.00,29.81,1007.30,10.00,M,CLR,M,M,M,M,M,M,M,M,M,M,M,M,M,M,85.06,KLSV 122255Z AUTO 13006KT 10SM CLR 32/05 A2981 RMK AO2 SLP073 T03150051 $,M
INS,2023-06-12 22:55,-115.6733,36.5872,955.00,79.50,36.00,20.93,0.00,0.00,0.00,29.88,1007.80,10.00,M,CLR,M,M,M,M,M,M,M,M,M,M,M,M,M,M,79.50,KINS 122255Z AUTO 00000KT 10SM CLR 26/02 A2988 RMK AO2 SLP078 T02640023 $,M
NFL,2023-06-12 22:56,-118.7010,39.4166,1199.00,74.00,48.00,39.87,M,3.00,0.00,29.96,1011.70,10.00,M,SCT,BKN,BKN,M,6000.00,15000.00,20000.00,M,M,M,M,M,M,M,M,73.90,KNFL 122256Z VRB03KT 10SM SCT060 BKN150 BKN200 23/09 A2996 RMK AO2 SLP117 CB DSNT ALQDS T02330089,M
HND,2023-06-12 22:56,-115.1344,35.9729,742.79,84.00,45.00,25.54,180.00,18.00,0.00,29.88,1011.00,10.00,22.00,CLR,M,M,M,M,M,M,M,M,M,M,M,M,M,M,81.61,KHND 122256Z 18018G22KT 10SM CLR 29/07 A2988 RMK AO2 SLP110 T02890072,M
TPH,2023-06-12 22:56,-117.0904,38.0505,1654.00,70.00,41.00,34.85,30.00,18.00,0.00,29.98,1010.30,10.00,27.00,CLR,M,M,M,M,M,M,M,M,M,M,M,27.00,20.00,2023-06-12 22:51,70.00,KTPH 122256Z AUTO 03018G27KT 10SM CLR 21/05 A2998 RMK AO2 PK WND 02027/2251 WSHFT 2241 SLP103 T02110050,M
LAS,2023-06-12 22:56,-115.1634,36.0719,663.00,84.00,41.00,21.90,M,3.00,0.00,29.85,1008.70,10.00,M,FEW,FEW,SCT,M,9500.00,13000.00,25000.00,M,M,M,M,M,M,M,M,81.37,KLAS 122256Z VRB03KT 10SM FEW095 FEW130 SCT250 29/05 A2985 RMK AO2 SLP087 T02890050,M
WMC,2023-06-12 22:56,-117.8072,40.9019,1315.00,68.00,51.00,54.70,240.00,11.00,T,30.00,1012.60,10.00,M,FEW,BKN,M,M,8000.00,10000.00,M,M,M,M,M,M,M,M,M,68.00,KWMC 122256Z AUTO 24011KT 10SM FEW080 BKN100 20/11 A3000 RMK AO2 LTG DSNT W RAB01E13 SLP126 P0000 T02000106,M
EKO,2023-06-12 22:56,-115.7860,40.8242,1367.00,69.00,47.00,45.02,140.00,5.00,0.00,29.97,1011.00,10.00,M,FEW,SCT,SCT,M,6000.00,7000.00,12000.00,M,M,M,M,M,M,M,M,69.10,KEKO 122256Z AUTO 14005KT 10SM FEW060 SCT070 SCT120 21/08 A2997 RMK AO2 SLP110 T02060083,M
P68,2023-06-12 22:58,-116.0056,39.6014,1993.00,64.00,41.00,42.88,250.00,15.00,0.00,30.02,M,M,M,M,M,M,M,M,M,M,M,M,M,M,M,M,M,M,64.00,KP68 122258Z AUTO 25015KT 18/05 A3002 RMK AO1 WSHFT 2241 T01780050,M
TPH,2023-06-12 23:03,-117.0904,38.0505,1654.00,71.00,41.00,33.57,20.00,18.00,0.00,29.98,M,10.00,25.00,CLR,M,M,M,M,M,M,M,M,M,M,M,M,M,M,71.10,KTPH 122303Z AUTO 02018G25KT 10SM CLR 22/05 A2998 RMK AO2 WSHFT 2243 T02170050,M
05U,2023-06-12 23:10,-116.0051,39.6042,1811.23,66.20,42.80,42.57,60.00,13.00,0.00,30.04,M,10.00,M,FEW,SCT,SCT,M,6000.00,7000.00,10000.00,M,M,M,M,M,M,M,M,66.20,K05U 122310Z AUTO 06013KT 020V080 10SM FEW060 SCT070 SCT100 19/06 A3004 RMK A01,M
BVU,2023-06-12 23:15,-114.8611,35.9475,671.00,84.20,41.00,21.76,M,M,0.00,29.86,M,10.00,M,CLR,M,M,M,M,M,M,M,M,M,M,M,M,M,M,81.52,KBVU 122315Z AUTO 8.41666708KT 190V250 10SM CLR 29/05 A2986 RMK AO2,M
CXP,2023-06-12 23:15,-119.7326,39.1923,1431.00,66.20,53.60,63.82,190.00,14.00,0.00,30.04,M,10.00,20.00,FEW,SCT,M,M,3000.00,7000.00,M,M,M,M,M,M,M,M,M,66.20,KCXP 122315Z AUTO 19014G20KT 10SM FEW030 SCT070 19/12 A3004 RMK AO2 LTG DSNT SE AND NW,M
RTS,2023-06-12 23:15,-119.8764,39.6682,1539.00,60.80,53.60,77.14,270.00,6.00,0.00,30.06,M,10.00,M,FEW,FEW,OVC,M,4400.00,6000.00,8000.00,M,M,M,M,M,M,M,M,60.80,KRTS 122315Z AUTO 27006KT 10SM FEW044 FEW060 OVC080 16/12 A3006 RMK AO2,M
MEV,2023-06-12 23:15,-119.7500,38.9963,1441.42,59.00,53.60,82.25,170.00,3.00,0.00,30.04,M,10.00,M,FEW,SCT,M,M,7000.00,8000.00,M,M,M,M,M,M,M,M,M,59.00,KMEV 122315Z AUTO 17003KT 10SM FEW070 SCT080 15/12 A3004 RMK AO2 LTG DSNT SE AND NW,M
BAM,2023-06-12 23:15,-116.8743,40.5990,1382.36,73.40,44.60,35.66,360.00,8.00,0.00,29.98,M,10.00,M,SCT,M,M,M,10000.00,M,M,M,M,M,M,M,M,M,M,73.40,KBAM 122315Z AUTO 36008KT 10SM SCT100 23/07 A2998 RMK AO1,M
HTH,2023-06-12 23:15,-118.6315,38.5448,1282.89,71.60,44.60,37.89,40.00,10.00,0.00,29.96,M,10.00,M,CLR,M,M,M,M,M,M,M,M,M,M,M,M,M,M,71.60,KHTH 122315Z AUTO 04010KT 10SM CLR 22/07 A2996 RMK A01,M
TMT,2023-06-12 23:15,-117.1971,39.4643,1749.34,62.40,43.70,50.33,210.00,4.00,0.00,30.06,M,10.00,M,BKN,M,M,M,9000.00,M,M,M,M,M,M,M,M,M,M,62.40,KTMT 122315Z AUTO 21004KT 10SM BKN090 17/07 A3006 RMK AO2 LTG DSNT SW THRU NE T01690065,M
05U,2023-06-12 23:30,-116.0051,39.6042,1811.23,64.40,41.00,42.28,30.00,12.00,0.00,30.05,M,10.00,M,SCT,SCT,M,M,7500.00,9500.00,M,M,M,M,M,M,M,M,M,64.40,K05U 122330Z AUTO 03012KT 10SM SCT075 SCT095 18/05 A3005 RMK A01,M
BVU,2023-06-12 23:35,-114.8611,35.9475,671.00,84.20,42.80,23.33,210.00,17.00,0.00,29.85,M,10.00,22.00,CLR,M,M,M,M,M,M,M,M,M,M,M,M,M,M,81.61,KBVU 122335Z AUTO 21017G22KT 10SM CLR 29/06 A2985 RMK AO2,M
CXP,2023-06-12 23:35,-119.7326,39.1923,1431.00,66.20,53.60,63.82,190.00,12.00,0.00,30.04,M,10.00,M,BKN,M,M,M,9000.00,M,M,M,M,M,M,M,M,M,M,66.20,KCXP 122335Z AUTO 19012KT 10SM BKN090 19/12 A3004 RMK AO2,M
RTS,2023-06-12 23:35,-119.8764,39.6682,1539.00,62.60,53.60,72.38,260.00,5.00,0.00,30.05,M,10.00,M,OVC,M,M,M,8000.00,M,M,M,M,M,M,M,M,M,M,62.60,KRTS 122335Z AUTO 26005KT 10SM OVC080 17/12 A3005 RMK AO2,M
MEV,2023-06-12 23:35,-119.7500,38.9963,1441.42,60.80,53.60,77.14,0.00,0.00,0.00,30.04,M,10.00,M,FEW,SCT,BKN,M,7000.00,8000.00,8500.00,M,M,M,M,M,M,M,M,60.80,KMEV 122335Z AUTO 00000KT 10SM FEW070 SCT080 BKN085 16/12 A3004 RMK AO2,M
BAM,2023-06-12 23:35,-116.8743,40.5990,1382.36,73.40,46.40,38.18,350.00,8.00,0.00,29.98,M,10.00,M,BKN,M,M,M,9000.00,M,M,M,M,M,M,M,M,M,M,73.40,KBAM 122335Z AUTO 35008KT 10SM BKN090 23/08 A2998 RMK AO1,M
HTH,2023-06-12 23:35,-118.6315,38.5448,1282.89,73.40,42.80,33.29,40.00,11.00,0.00,29.96,M,10.00,18.00,CLR,M,M,M,M,M,M,M,M,M,M,M,M,M,M,73.40,KHTH 122335Z AUTO 04011G18KT 10SM CLR 23/06 A2996 RMK A01,M
TMT,2023-06-12 23:35,-117.1971,39.4643,1749.34,63.70,46.00,52.28,210.00,3.00,0.00,30.05,M,10.00,M,BKN,M,M,M,9000.00,M,M,M,M,M,M,M,M,M,M,63.70,KTMT 122335Z AUTO 21003KT 10SM BKN090 18/08 A3005 RMK AO2 LTG DSNT N AND NE T01760077,M
05U,2023-06-12 23:50,-116.0051,39.6042,1811.23,66.20,42.80,42.57,50.00,11.00,0.00,30.05,M,10.00,18.00,SCT,BKN,BKN,M,6000.00,7500.00,9500.00,M,M,M,M,M,M,M,M,66.20,K05U 122350Z AUTO 05011G18KT 10SM SCT060 BKN075 BKN095 19/06 A3005 RMK A01,M
DRA,2023-06-12 23:53,-116.0278,36.6206,1009.00,81.00,37.00,20.65,280.00,10.00,0.00,29.89,1008.10,10.00,M,CLR,M,M,M,M,M,M,M,M,M,M,M,M,M,M,79.24,KDRA 122353Z AUTO 28010KT 10SM CLR 27/03 A2989 RMK AO2 SLP081 T02720028 10283 20233 58008,M
ELY,2023-06-12 23:53,-114.8453,39.2950,1909.00,64.00,36.00,35.26,0.00,0.00,0.00,30.02,1011.50,10.00,M,CLR,M,M,M,M,M,M,M,M,M,M,M,M,M,M,64.00,KELY 122353Z AUTO 00000KT 10SM CLR 18/02 A3002 RMK AO2 LTG DSNT NE SLP115 60000 T01780022 10194 20144 55005,M
VGT,2023-06-12 23:53,-115.1933,36.2111,667.00,86.00,41.00,20.54,0.00,0.00,0.00,29.83,1009.60,10.00,M,CLR,M,M,M,M,M,M,M,M,M,M,M,M,M,M,82.86,KVGT 122353Z 00000KT 10SM CLR 30/05 A2983 RMK AO2 SLP096 T03000050 10306 20256 56013,M
LOL,2023-06-12 23:53,-118.5701,40.0684,1192.43,72.00,48.00,42.51,M,3.00,0.00,29.96,1012.10,10.00,M,CLR,M,M,M,M,M,M,M,M,M,M,M,M,M,M,72.00,KLOL 122353Z AUTO VRB03KT 10SM CLR 22/09 A2996 RMK AO2 SLP121 60000 T02220089 10228 20167 56011,M
P68,2023-06-12 23:53,-116.0056,39.6014,1993.00,65.00,42.00,43.36,260.00,11.00,0.00,30.02,1011.80,M,20.00,M,M,M,M,M,M,M,M,M,M,M,M,M,M,M,64.90,KP68 122353Z AUTO 26011G20KT 18/06 A3002 RMK AO1 WSHFT 2241 SLP118 T01830056 10206 20161 55002,M
BVU,2023-06-12 23:55,-114.8611,35.9475,671.00,84.20,42.80,23.33,230.00,10.00,0.00,29.85,M,10.00,17.00,FEW,M,M,M,9000.00,M,M,M,M,M,M,M,M,M,M,81.61,KBVU 122355Z AUTO 23010G17KT 10SM FEW090 29/06 A2985 RMK AO2,M
CXP,2023-06-12 23:55,-119.7326,39.1923,1431.00,64.40,53.60,67.95,190.00,8.00,0.00,30.05,M,5.00,M,FEW,SCT,OVC,M,2100.00,5500.00,9000.00,M,-RA HZ,M,M,M,M,M,M,64.40,KCXP 122355Z AUTO 19008KT 5SM -RA HZ FEW021 SCT055 OVC090 18/12 A3005 RMK AO2 LTG DSNT E AND NW,M
INS,2023-06-12 23:55,-115.6733,36.5872,955.00,81.50,36.50,19.92,210.00,13.00,0.00,29.87,1007.30,10.00,M,CLR,M,M,M,M,M,M,M,M,M,M,M,M,M,M,79.53,KINS 122355Z AUTO 21013KT 10SM CLR 28/03 A2987 RMK AO2 SLP073 T02750025 10280 20234 57012 $,M
RTS,2023-06-12 23:55,-119.8764,39.6682,1539.00,64.40,51.80,63.60,300.00,6.00,0.00,30.05,M,10.00,M,SCT,M,M,M,8000.00,M,M,M,M,M,M,M,M,M,M,64.40,KRTS 122355Z AUTO 30006KT 10SM SCT080 18/11 A3005 RMK AO2,M
MEV,2023-06-12 23:55,-119.7500,38.9963,1441.42,60.80,53.60,77.14,0.00,0.00,0.00,30.04,M,10.00,M,SCT,BKN,M,M,7500.00,8500.00,M,M,M,M,M,M,M,M,M,60.80,KMEV 122355Z AUTO 00000KT 10SM SCT075 BKN085 16/12 A3004 RMK AO2 LTG DSNT E AND NW,M
BAM,2023-06-12 23:55,-116.8743,40.5990,1382.36,71.60,46.40,40.57,350.00,5.00,0.00,29.98,M,10.00,M,OVC,M,M,M,9000.00,M,M,M,M,M,M,M,M,M,M,71.60,KBAM 122355Z AUTO 35005KT 10SM OVC090 22/08 A2998 RMK AO1,M
HTH,2023-06-12 23:55,-118.6315,38.5448,1282.89,71.60,46.40,40.57,10.00,8.00,0.00,29.96,M,9.00,14.00,M,M,M,M,M,M,M,M,M,M,M,M,M,M,M,71.60,KHTH 122355Z AUTO 01008G14KT 330V050 9SM 22/08 A2996 RMK A01,M
RNO,2023-06-12 23:55,-119.7711,39.4839,1341.00,68.00,51.00,54.70,260.00,9.00,0.00,30.01,1012.50,10.00,M,FEW,BKN,BKN,M,6000.00,9000.00,25000.00,M,M,M,M,M,M,M,M,68.00,KRNO 122355Z 26009KT 10SM FEW060 BKN090 BKN250 20/11 A3001 RMK AO2 SLP125 CB DSNT N THRU NE AND S 60002 T02000106 10228 20133 55010,M
TMT,2023-06-12 23:55,-117.1971,39.4643,1749.34,63.00,44.00,49.65,0.00,0.00,0.00,30.06,M,10.00,M,BKN,M,M,M,9000.00,M,M,M,M,M,M,M,M,M,M,63.00,KTMT 122355Z AUTO 00000KT 10SM BKN090 17/07 A3006 RMK AO2 LTG DSNT S AND SW T01720066 10185 20146,M
LSV,2023-06-12 23:55,-115.0343,36.2362,570.00,86.70,42.00,20.96,130.00,7.00,0.00,29.80,1007.10,10.00,M,FEW,M,M,M,15000.00,M,M,M,M,M,M,M,M,M,M,83.47,KLSV 122355Z AUTO 13007KT 10SM FEW150 30/06 A2980 RMK AO2 SLP071 T03040056 10324 20278 57011 $,M
EKO,2023-06-12 23:56,-115.7860,40.8242,1367.00,69.00,46.00,43.52,220.00,6.00,0.00,29.97,1011.20,10.00,M,BKN,M,M,M,6000.00,M,M,M,M,M,M,M,M,M,M,69.10,KEKO 122356Z AUTO 22006KT 10SM BKN060 21/08 A2997 RMK AO2 SLP112 T02060078 10217 20172 55007,M
NFL,2023-06-12 23:56,-118.7010,39.4166,1199.00,75.00,48.00,38.43,M,M,0.00,29.96,1011.70,10.00,M,SCT,BKN,BKN,BKN,6000.00,12000.00,15000.00,20000.00,M,M,M,M,M,M,M,75.00,KNFL 122356Z 10SM SCT060 BKN120 BKN150 BKN200 24/09 A2996 RMK AO2 SLP117 CB DSNT ALQDS T02390089 10239 20183 55009,M
HND,2023-06-12 23:56,-115.1344,35.9729,742.79,83.00,43.00,24.51,190.00,11.00,0.00,29.88,1011.20,10.00,M,FEW,M,M,M,9500.00,M,M,M,M,M,M,M,M,M,M,80.73,KHND 122356Z 19011KT 10SM FEW095 28/06 A2988 RMK AO2 SLP112 T02830061 10294 20250 55009,M
LAS,2023-06-12 23:56,-115.1634,36.0719,663.00,83.00,43.00,24.51,150.00,10.00,0.00,29.84,1008.40,10.00,18.00,FEW,FEW,SCT,M,9500.00,13000.00,25000.00,M,M,M,M,M,M,M,M,80.73,KLAS 122356Z 15010G18KT 10SM FEW095 FEW130 SCT250 28/06 A2984 RMK AO2 SLP084 60000 T02830061 10294 20244 56013,M
TPH,2023-06-12 23:56,-117.0904,38.0505,1654.00,70.00,40.00,33.39,330.00,12.00,0.00,30.00,1011.10,10.00,M,FEW,SCT,M,M,5000.00,9500.00,M,M,M,M,M,M,M,M,M,70.00,KTPH 122356Z AUTO 33012KT 10SM FEW050 SCT095 21/04 A3000 RMK AO2 WSHFT 2243 SLP111 T02110044 10233 20183 55003,M
WMC,2023-06-12 23:56,-117.8072,40.9019,1315.00,69.00,49.00,48.53,310.00,5.00,0.00,30.00,1012.50,10.00,M,FEW,M,M,M,12000.00,M,M,M,M,M,M,M,M,M,M,69.10,KWMC 122356Z AUTO 31005KT 10SM FEW120 21/09 A3000 RMK AO2 SLP125 60000 T02060094 10239 20178 50002,M
