station,valid,lon,lat,elevation,tmpf,dwpf,relh,drct,sknt,p01i,alti,mslp,vsby,gust,skyc1,skyc2,skyc3,skyc4,skyl1,skyl2,skyl3,skyl4,wxcodes,ice_accretion_1hr,ice_accretion_3hr,ice_accretion_6hr,peak_wind_gust,peak_wind_drct,peak_wind_time,feel,metar,snowdepth
LSV,2023-03-16 00:05,-115.0343,36.2362,570.00,64.40,44.60,48.55,300.00,29.00,0.00,29.71,1004.90,10.00,35.00,CLR,M,M,M,M,M,M,M,M,M,M,M,M,M,M,64.40,KLSV 160005Z AUTO 30029G35KT 10SM CLR 18/07 A2971 RMK AO2 WSHFT 2356 SLP049 $,M
LAS,2023-03-16 00:05,-115.1634,36.0719,663.00,62.00,43.00,49.52,350.00,12.00,0.00,29.78,M,10.00,18.00,SCT,BKN,BKN,M,6000.00,11000.00,22000.00,M,M,M,M,M,M,M,M,62.10,KLAS 160005Z 35012G18KT 10SM SCT060 BKN110 BKN220 17/06 A2978 RMK AO2 WSHFT 2351 VCSH CB DSNT ALQDS TS DSIPTD T01670061,M
INS,2023-03-16 00:15,-115.6733,36.5872,955.00,50.00,42.80,76.18,190.00,7.00,0.00,29.85,1008.90,10.00,M,FEW,SCT,BKN,BKN,500.00,1400.00,2500.00,3200.00,-RA,M,M,M,M,M,M,50.00,KINS 160015Z AUTO 19007KT 10SM -RA FEW005 SCT014 BKN025 BKN032 OVC040 10/06 A2985 RMK AO2 CIG 025V032 BKN025 V SCT SLP089 $,M
BVU,2023-03-16 00:15,-114.8611,35.9475,671.00,59.00,42.80,54.86,200.00,12.00,0.00,29.78,M,10.00,M,BKN,M,M,M,9500.00,M,M,M,M,M,M,M,M,M,M,59.00,KBVU 160015Z AUTO 20012KT 10SM BKN095 15/06 A2978 RMK AO2 LTG DSNT NE AND E,M
RTS,2023-03-16 00:15,-119.8764,39.6682,1539.00,44.60,19.40,36.18,10.00,8.00,0.00,30.00,M,10.00,M,CLR,M,M,M,M,M,M,M,M,M,M,M,M,M,M,39.63,KRTS 160015Z AUTO 01008KT 10SM CLR 07/M07 A3000 RMK AO2,M
05U,2023-03-16 00:15,-116.0051,39.6042,1811.23,37.40,24.80,60.04,10.00,10.00,0.00,29.98,M,10.00,M,OVC,M,M,M,4000.00,M,M,M,M,M,M,M,M,M,M,29.74,K05U 160015Z AUTO 01010KT 10SM OVC040 03/M04 A2998 RMK A01,M
MEV,2023-03-16 00:15,-119.7500,38.9963,1441.42,48.20,24.80,39.66,330.00,8.00,0.00,29.96,M,10.00,M,CLR,M,M,M,M,M,M,M,M,M,M,M,M,M,M,44.07,KMEV 160015Z AUTO 33008KT 10SM CLR 09/M04 A2996 RMK AO2,M
BAM,2023-03-16 00:15,-116.8743,40.5990,1382.36,44.60,26.60,48.96,10.00,11.00,0.00,30.02,M,10.00,16.00,SCT,M,M,M,4900.00,M,M,M,M,M,M,M,M,M,M,38.39,KBAM 160015Z AUTO 01011G16KT 10SM SCT049 07/M03 A3002 RMK AO1,M
HTH,2023-03-16 00:15,-118.6315,38.5448,1282.89,50.00,24.80,37.08,330.00,12.00,0.00,29.97,M,10.00,M,FEW,M,M,M,6000.00,M,M,M,M,M,M,M,M,M,M,50.00,KHTH 160015Z AUTO 33012KT 10SM FEW060 10/M04 A2997 RMK A01,M
TMT,2023-03-16 00:15,-117.1971,39.4643,1749.34,41.40,25.70,53.33,10.00,10.00,0.00,29.96,M,10.00,M,SCT,BKN,BKN,M,4300.00,5000.00,6000.00,M,M,M,M,M,M,M,M,34.76,KTMT 160015Z AUTO 01010KT 10SM SCT043 BKN050 BKN060 05/M03 A2996 RMK AO2 T00521035,M
INS,2023-03-16 00:20,-115.6733,36.5872,955.00,50.00,42.80,76.18,210.00,5.00,0.00,29.85,1009.10,10.00,M,FEW,FEW,SCT,BKN,500.00,1400.00,2500.00,3200.00,-RA,M,M,M,M,M,M,50.00,KINS 160020Z AUTO 21005KT 10SM -RA FEW005 FEW014 SCT025 BKN032 BKN040 OVC095 10/06 A2985 RMK AO2 SLP091 $,M
INS,2023-03-16 00:23,-115.6733,36.5872,955.00,50.00,42.80,76.18,210.00,6.00,0.00,29.85,1009.10,10.00,M,FEW,FEW,SCT,BKN,500.00,1400.00,2500.00,3400.00,M,M,M,M,M,M,M,50.00,KINS 160023Z AUTO 21006KT 10SM FEW005 FEW014 SCT025 BKN034 BKN085 OVC110 10/06 A2985 RMK AO2 RAE23 SLP091 $,M
BVU,2023-03-16 00:35,-114.8611,35.9475,671.00,59.00,42.80,54.86,220.00,9.00,0.00,29.80,M,10.00,14.00,BKN,OVC,M,M,8000.00,10000.00,M,M,M,M,M,M,M,M,M,59.00,KBVU 160035Z AUTO 22009G14KT 10SM BKN080 OVC100 15/06 A2980 RMK AO2 LTG DSNT NE-S,M
RTS,2023-03-16 00:35,-119.8764,39.6682,1539.00,44.60,19.40,36.18,60.00,6.00,0.00,30.01,M,10.00,12.00,CLR,M,M,M,M,M,M,M,M,M,M,M,M,M,M,40.71,KRTS 160035Z AUTO 06006G12KT 10SM CLR 07/M07 A3001 RMK AO2,M
05U,2023-03-16 00:35,-116.0051,39.6042,1811.23,35.60,24.80,64.46,10.00,8.00,0.00,29.99,M,10.00,M,OVC,M,M,M,3800.00,M,M,M,M,M,M,M,M,M,M,28.55,K05U 160035Z AUTO 01008KT 10SM OVC038 02/M04 A2999 RMK A01,M
MEV,2023-03-16 00:35,-119.7500,38.9963,1441.42,48.20,24.80,39.66,340.00,9.00,0.00,29.96,M,10.00,M,CLR,M,M,M,M,M,M,M,M,M,M,M,M,M,M,43.66,KMEV 160035Z AUTO 34009KT 10SM CLR 09/M04 A2996 RMK AO2,M
BAM,2023-03-16 00:35,-116.8743,40.5990,1382.36,44.60,28.40,52.72,50.00,11.00,0.00,30.03,M,10.00,M,SCT,BKN,M,M,4400.00,4900.00,M,M,M,M,M,M,M,M,M,38.39,KBAM 160035Z AUTO 05011KT 10SM SCT044 BKN049 07/M02 A3003 RMK AO1,M
HTH,2023-03-16 00:35,-118.6315,38.5448,1282.89,50.00,23.00,34.39,360.00,13.00,0.00,29.97,M,10.00,M,CLR,M,M,M,M,M,M,M,M,M,M,M,M,M,M,50.00,KHTH 160035Z AUTO 36013KT 10SM CLR 10/M05 A2997 RMK A01,M
TMT,2023-03-16 00:35,-117.1971,39.4643,1749.34,40.80,25.70,54.58,20.00,12.00,0.00,29.97,M,10.00,17.00,BKN,M,M,M,5000.00,M,M,M,M,M,M,M,M,M,M,33.20,KTMT 160035Z AUTO 02012G17KT 10SM BKN050 05/M03 A2997 RMK AO2 T00491035,M
LSV,2023-03-16 00:35,-115.0343,36.2362,570.00,62.60,41.00,45.04,350.00,12.00,0.00,29.78,1007.40,10.00,25.00,BKN,M,M,M,7500.00,M,M,M,M,M,M,M,M,M,M,62.60,KLSV 160035Z AUTO 35012G25KT 10SM BKN075 17/05 A2978 RMK AO2 WSHFT 22 PRESRR SLP074 $,M
LSV,2023-03-16 00:41,-115.0343,36.2362,570.00,62.60,42.80,48.28,10.00,15.00,0.00,29.79,1007.70,10.00,21.00,FEW,BKN,M,M,4500.00,7500.00,M,M,M,M,M,M,M,M,M,62.60,KLSV 160041Z AUTO 01015G21KT 10SM FEW045 BKN075 17/06 A2979 RMK AO2 WSHFT 39 SLP077 $,M
LSV,2023-03-16 00:50,-115.0343,36.2362,570.00,60.80,44.60,55.12,340.00,8.00,0.00,29.80,1008.20,10.00,M,BKN,BKN,OVC,M,4200.00,5000.00,7500.00,M,M,M,M,M,M,M,M,60.80,KLSV 160050Z AUTO 34008KT 10SM BKN042 BKN050 OVC075 16/07 A2980 RMK AO2 SLP082 $,M
P68,2023-03-16 00:53,-116.0056,39.6014,1993.00,34.00,25.00,69.28,20.00,9.00,0.00,29.96,1013.50,M,M,M,M,M,M,M,M,M,M,M,M,M,M,M,M,M,26.00,KP68 160053Z AUTO 02009KT 01/M04 A2996 RMK AO1 SLP135 T00111039,M
DRA,2023-03-16 00:53,-116.0278,36.6206,1009.00,51.00,41.00,68.23,100.00,11.00,0.00,29.84,1008.50,10.00,M,BKN,BKN,M,M,9000.00,11000.00,M,M,M,M,M,M,M,M,M,51.10,KDRA 160053Z AUTO 10011KT 10SM BKN090 BKN110 11/05 A2984 RMK AO2 SLP085 T01060050 $,M
ELY,2023-03-16 00:53,-114.8453,39.2950,1909.00,36.00,25.00,63.98,330.00,8.00,0.00,29.91,1011.20,10.00,M,FEW,M,M,M,4300.00,M,M,M,M,M,M,M,M,M,M,29.04,KELY 160053Z AUTO 33008KT 10SM FEW043 02/M04 A2991 RMK AO2 SLP112 T00221039,M
VGT,2023-03-16 00:53,-115.1933,36.2111,667.00,57.00,41.00,54.99,340.00,21.00,T,29.81,1010.20,10.00,33.00,SCT,BKN,M,M,7500.00,10000.00,M,M,M,M,M,M,41.00,320.00,2023-03-16 00:18,57.00,KVGT 160053Z 34021G33KT 10SM SCT075 BKN100 14/05 A2981 RMK AO2 PK WND 32041/0018 RAE33 SLP102 P0000 T01390050,M
LOL,2023-03-16 00:53,-118.5701,40.0684,1192.43,48.00,21.00,34.05,40.00,10.00,0.00,30.00,1015.80,10.00,M,CLR,M,M,M,M,M,M,M,M,M,M,M,M,M,M,43.03,KLOL 160053Z AUTO 04010KT 10SM CLR 09/M06 A3000 RMK AO2 SLP158 T00891061,M
BVU,2023-03-16 00:55,-114.8611,35.9475,671.00,60.80,41.00,48.00,330.00,15.00,0.00,29.81,M,10.00,M,BKN,BKN,OVC,M,5000.00,6500.00,7500.00,M,VCTS,M,M,M,M,M,M,60.80,KBVU 160055Z AUTO 33015KT 10SM VCTS BKN050 BKN065 OVC075 16/05 A2981 RMK AO2 LTG DSNT NE AND S,M
RNO,2023-03-16 00:55,-119.7711,39.4839,1341.00,50.00,19.00,29.02,20.00,9.00,0.00,29.99,1014.20,10.00,M,FEW,M,M,M,6500.00,M,M,M,M,M,M,M,M,M,M,50.00,KRNO 160055Z 02009KT 10SM FEW065 10/M07 A2999 RMK AO2 SLP142 T01001072,M
RTS,2023-03-16 00:55,-119.8764,39.6682,1539.00,42.80,17.60,35.87,30.00,6.00,0.00,30.01,M,10.00,M,CLR,M,M,M,M,M,M,M,M,M,M,M,M,M,M,38.54,KRTS 160055Z AUTO 03006KT 10SM CLR 06/M08 A3001 RMK AO2,M
05U,2023-03-16 00:55,-116.0051,39.6042,1811.23,35.60,24.80,64.46,30.00,10.00,0.00,29.99,M,10.00,M,OVC,M,M,M,3600.00,M,M,M,M,M,M,M,M,M,M,27.48,K05U 160055Z AUTO 03010KT 10SM OVC036 02/M04 A2999 RMK A01,M
MEV,2023-03-16 00:55,-119.7500,38.9963,1441.42,48.20,24.80,39.66,340.00,10.00,0.00,29.96,M,10.00,M,CLR,M,M,M,M,M,M,M,M,M,M,M,M,M,M,43.28,KMEV 160055Z AUTO 34010KT 10SM CLR 09/M04 A2996 RMK AO2,M
BAM,2023-03-16 00:55,-116.8743,40.5990,1382.36,42.80,28.40,56.48,50.00,9.00,0.00,30.03,M,10.00,M,BKN,M,M,M,4700.00,M,M,M,M,M,M,M,M,M,M,36.94,KBAM 160055Z AUTO 05009KT 10SM BKN047 06/M02 A3003 RMK AO1,M
HTH,2023-03-16 00:55,-118.6315,38.5448,1282.89,48.20,23.00,36.78,330.00,10.00,0.00,29.98,M,10.00,M,CLR,M,M,M,M,M,M,M,M,M,M,M,M,M,M,43.28,KHTH 160055Z AUTO 33010KT 10SM CLR 09/M05 A2998 RMK A01,M
TMT,2023-03-16 00:55,-117.1971,39.4643,1749.34,41.00,24.10,50.67,10.00,11.00,0.00,29.97,M,10.00,14.00,OVC,M,M,M,5000.00,M,M,M,M,M,M,M,M,M,M,33.84,KTMT 160055Z AUTO 01011G14KT 10SM OVC050 05/M04 A2997 RMK AO2 LTG DSNT SE T00501044,M
INS,2023-03-16 00:55,-115.6733,36.5872,955.00,50.50,42.00,72.23,220.00,7.00,T,29.85,1009.10,10.00,M,FEW,OVC,M,M,6000.00,8000.00,M,M,M,M,M,M,M,M,M,50.50,KINS 160055Z AUTO 22007KT 10SM FEW060 OVC080 10/06 A2985 RMK AO2 RAE23 SLP091 P0000 T01030055 $,M
LSV,2023-03-16 00:55,-115.0343,36.2362,570.00,61.20,44.00,52.91,360.00,10.00,0.00,29.80,1008.20,10.00,M,BKN,OVC,M,M,4200.00,7500.00,M,M,M,M,M,M,35.00,290.00,2023-03-16 00:04,61.20,KLSV 160055Z AUTO 36010KT 10SM BKN042 OVC075 16/07 A2980 RMK AO2 PK WND 29035/04 SLP082 T01620066 $,M
NFL,2023-03-16 00:56,-118.7010,39.4166,1199.00,50.00,21.90,32.83,360.00,12.00,0.00,29.98,1012.40,10.00,18.00,FEW,M,M,M,5000.00,M,M,M,M,M,M,M,M,M,M,50.00,KNFL 160056Z 36012G18KT 10SM FEW050 10/M06 A2998 RMK AO2 SLP124 T01001056,M
HND,2023-03-16 00:56,-115.1344,35.9729,742.79,57.00,41.00,54.99,350.00,13.00,T,29.84,1011.30,10.00,19.00,BKN,BKN,M,M,4600.00,9500.00,M,M,-RA,M,M,M,M,M,M,57.00,KHND 160056Z 35013G19KT 10SM -RA BKN046 BKN095 14/05 A2984 RMK AO2 RAB46 SLP113 P0000 T01390050,M
TPH,2023-03-16 00:56,-117.0904,38.0505,1654.00,49.00,23.00,35.83,320.00,22.00,0.00,29.88,1009.80,10.00,28.00,CLR,M,M,M,M,M,M,M,M,M,M,M,31.00,300.00,2023-03-16 00:08,41.21,KTPH 160056Z AUTO 32022G28KT 10SM CLR 09/M05 A2988 RMK AO2 PK WND 30031/0008 SLP098 T00941050,M
EKO,2023-03-16 00:56,-115.7860,40.8242,1367.00,37.00,18.00,45.73,10.00,8.94,M,30.01,1016.60,10.00,M,CLR,M,M,M,M,M,M,M,M,M,M,M,M,M,M,29.76,METAR KEKO 160056Z 01009KT 10SM CLR 03/M08 A3001 RMK AO2 SLP166 T00281078 TSNO FIBI,M
LAS,2023-03-16 00:56,-115.1634,36.0719,663.00,57.00,40.00,52.70,350.00,24.00,0.00,29.81,1008.60,10.00,34.00,SCT,BKN,BKN,BKN,6000.00,7000.00,11000.00,20000.00,M,M,M,M,36.00,350.00,2023-03-16 00:42,57.00,KLAS 160056Z 35024G34KT 10SM SCT060 BKN070 BKN110 BKN200 14/04 A2981 RMK AO2 PK WND 35036/0042 WSHFT 2351 SLP086 VCSH ALQDS CB DSNT ALQDS T01390044,M
WMC,2023-03-16 00:56,-117.8072,40.9019,1315.00,44.00,21.00,39.47,340.00,14.00,0.00,30.03,1016.80,10.00,M,CLR,M,M,M,M,M,M,M,M,M,M,M,M,M,M,36.76,KWMC 160056Z AUTO 34014KT 10SM CLR 07/M06 A3003 RMK AO2 SLP168 T00671061,M
BVU,2023-03-16 01:15,-114.8611,35.9475,671.00,57.20,42.80,58.52,310.00,17.00,0.00,29.82,M,9.00,M,FEW,SCT,BKN,M,4000.00,5000.00,6500.00,M,VCTS RA,M,M,M,M,M,M,57.20,KBVU 160115Z AUTO 31017KT 9SM VCTS RA FEW040 SCT050 BKN065 14/06 A2982 RMK AO2 LTG DSNT NE AND W,M
RTS,2023-03-16 01:15,-119.8764,39.6682,1539.00,42.80,21.20,41.84,10.00,7.00,0.00,30.01,M,10.00,M,CLR,M,M,M,M,M,M,M,M,M,M,M,M,M,M,37.94,KRTS 160115Z AUTO 01007KT 10SM CLR 06/M06 A3001 RMK AO2,M
05U,2023-03-16 01:15,-116.0051,39.6042,1811.23,33.80,23.00,64.23,20.00,7.00,0.00,30.00,M,10.00,M,BKN,M,M,M,3600.00,M,M,M,M,M,M,M,M,M,M,26.97,K05U 160115Z AUTO 02007KT 10SM BKN036 01/M05 A3000 RMK A01,M
MEV,2023-03-16 01:15,-119.7500,38.9963,1441.42,48.20,24.80,39.66,340.00,10.00,0.00,29.97,M,10.00,M,CLR,M,M,M,M,M,M,M,M,M,M,M,M,M,M,43.28,KMEV 160115Z AUTO 34010KT 10SM CLR 09/M04 A2997 RMK AO2,M
BAM,2023-03-16 01:15,-116.8743,40.5990,1382.36,42.80,26.60,52.45,40.00,9.00,0.00,30.04,M,10.00,M,SCT,M,M,M,4700.00,M,M,M,M,M,M,M,M,M,M,36.94,KBAM 160115Z AUTO 04009KT 10SM SCT047 06/M03 A3004 RMK AO1,M
HTH,2023-03-16 01:15,-118.6315,38.5448,1282.89,48.20,24.80,39.66,310.00,10.00,0.00,29.98,M,10.00,M,CLR,M,M,M,M,M,M,M,M,M,M,M,M,M,M,43.28,KHTH 160115Z AUTO 31010KT 10SM CLR 09/M04 A2998 RMK A01,M
TMT,2023-03-16 01:15,-117.1971,39.4643,1749.34,40.30,23.50,50.77,10.00,12.00,0.00,29.98,M,10.00,15.00,BKN,M,M,M,5000.00,M,M,M,M,M,M,M,M,M,M,32.57,KTMT 160115Z AUTO 01012G15KT 10SM BKN050 05/M05 A2998 RMK AO2 T00461047,M
LSV,2023-03-16 01:17,-115.0343,36.2362,570.00,59.00,42.80,54.86,60.00,9.00,0.00,29.81,1008.70,10.00,M,SCT,OVC,M,M,4300.00,6500.00,M,M,M,M,M,M,M,M,M,59.00,KLSV 160117Z AUTO 06009KT 10SM SCT043 OVC065 15/06 A2981 RMK AO2 SLP087 $,M
BVU,2023-03-16 01:35,-114.8611,35.9475,671.00,55.40,46.40,71.64,340.00,21.00,0.00,29.82,M,4.00,M,FEW,SCT,OVC,M,3100.00,4000.00,7000.00,M,-RA,M,M,M,M,M,M,55.40,KBVU 160135Z AUTO 34021KT 4SM -RA FEW031 SCT040 OVC070 13/08 A2982 RMK AO2 LTG DSNT E AND SE,M
RTS,2023-03-16 01:35,-119.8764,39.6682,1539.00,42.80,23.00,45.14,40.00,9.00,0.00,30.02,M,10.00,M,CLR,M,M,M,M,M,M,M,M,M,M,M,M,M,M,36.94,KRTS 160135Z AUTO 04009KT 10SM CLR 06/M05 A3002 RMK AO2,M
05U,2023-03-16 01:35,-116.0051,39.6042,1811.23,32.00,24.80,74.44,40.00,9.00,0.00,30.01,M,10.00,M,FEW,M,M,M,3600.00,M,M,M,M,M,M,M,M,M,M,23.51,K05U 160135Z AUTO 04009KT 10SM FEW036 00/M04 A3001 RMK A01,M
MEV,2023-03-16 01:35,-119.7500,38.9963,1441.42,46.40,24.80,42.44,330.00,11.00,0.00,29.97,M,10.00,M,CLR,M,M,M,M,M,M,M,M,M,M,M,M,M,M,40.66,KMEV 160135Z AUTO 33011KT 10SM CLR 08/M04 A2997 RMK AO2,M
BAM,2023-03-16 01:35,-116.8743,40.5990,1382.36,41.00,26.60,56.22,30.00,8.00,0.00,30.04,M,10.00,M,CLR,M,M,M,M,M,M,M,M,M,M,M,M,M,M,35.20,KBAM 160135Z AUTO 03008KT 10SM CLR 05/M03 A3004 RMK AO1,M
HTH,2023-03-16 01:35,-118.6315,38.5448,1282.89,46.40,24.80,42.44,310.00,9.00,0.00,29.99,M,10.00,M,CLR,M,M,M,M,M,M,M,M,M,M,M,M,M,M,41.42,KHTH 160135Z AUTO 31009KT 10SM CLR 08/M04 A2999 RMK A01,M
TMT,2023-03-16 01:35,-117.1971,39.4643,1749.34,39.20,23.90,53.89,10.00,10.00,0.00,29.99,M,10.00,M,SCT,M,M,M,5000.00,M,M,M,M,M,M,M,M,M,M,32.00,KTMT 160135Z AUTO 01010KT 10SM SCT050 04/M04 A2999 RMK AO2 T00401045,M
LSV,2023-03-16 01:43,-115.0343,36.2362,570.00,57.20,42.80,58.52,60.00,9.00,0.00,29.80,1008.30,10.00,M,BKN,M,M,M,7000.00,M,M,M,-RA,M,M,M,M,M,M,57.20,KLSV 160143Z AUTO 06009KT 10SM -RA BKN070 14/06 A2980 RMK AO2 RAB43 SLP083 $,M
P68,2023-03-16 01:53,-116.0056,39.6014,1993.00,30.90,25.00,78.48,30.00,8.00,0.00,29.99,1015.00,M,M,M,M,M,M,M,M,M,M,M,M,M,M,M,M,M,22.76,KP68 160153Z AUTO 03008KT M01/M04 A2999 RMK AO1 SLP150 T10061039,M
ELY,2023-03-16 01:53,-114.8453,39.2950,1909.00,33.00,23.00,66.06,340.00,11.00,0.00,29.93,1012.40,10.00,M,CLR,M,M,M,M,M,M,M,M,M,M,M,M,M,M,23.86,KELY 160153Z AUTO 34011KT 10SM CLR 01/M05 A2993 RMK AO2 SLP124 T00061050,M
VGT,2023-03-16 01:53,-115.1933,36.2111,667.00,57.00,41.00,54.99,320.00,6.00,T,29.82,1010.70,10.00,M,BKN,M,M,M,10000.00,M,M,M,M,M,M,M,31.00,320.00,2023-03-16 01:07,57.00,KVGT 160153Z 32006KT 10SM BKN100 14/05 A2982 RMK AO2 PK WND 32031/0107 RAB03E36 SLP107 P0000 T01390050,M
DRA,2023-03-16 01:53,-116.0278,36.6206,1009.00,50.00,40.00,68.10,80.00,6.00,0.00,29.85,1008.90,10.00,M,BKN,M,M,M,12000.00,M,M,M,M,M,M,M,M,M,M,50.00,KDRA 160153Z AUTO 08006KT 10SM BKN120 10/04 A2985 RMK AO2 SLP089 T01000044 $,M
LOL,2023-03-16 01:53,-118.5701,40.0684,1192.43,44.00,21.90,41.00,30.00,11.00,0.00,30.02,1016.70,10.00,M,CLR,M,M,M,M,M,M,M,M,M,M,M,M,M,M,37.76,KLOL 160153Z AUTO 03011KT 10SM CLR 07/M06 A3002 RMK AO2 SLP167 T00671056,M
BVU,2023-03-16 01:55,-114.8611,35.9475,671.00,53.60,46.40,76.50,360.00,18.00,0.00,29.82,M,6.00,24.00,SCT,BKN,OVC,M,3300.00,6500.00,7500.00,M,-RA,M,M,M,M,M,M,53.60,KBVU 160155Z AUTO 36018G24KT 6SM -RA SCT033 BKN065 OVC075 12/08 A2982 RMK AO2,M
RNO,2023-03-16 01:55,-119.7711,39.4839,1341.00,46.00,21.90,38.15,20.00,10.00,0.00,30.01,1015.40,10.00,M,FEW,M,M,M,6500.00,M,M,M,M,M,M,M,M,M,M,40.52,KRNO 160155Z 02010KT 10SM FEW065 08/M06 A3001 RMK AO2 SLP154 T00781056,M
RTS,2023-03-16 01:55,-119.8764,39.6682,1539.00,41.00,23.00,48.39,50.00,6.00,0.00,30.02,M,10.00,M,CLR,M,M,M,M,M,M,M,M,M,M,M,M,M,M,36.37,KRTS 160155Z AUTO 05006KT 10SM CLR 05/M05 A3002 RMK AO2,M
05U,2023-03-16 01:55,-116.0051,39.6042,1811.23,30.20,24.80,80.07,40.00,6.00,0.00,30.02,M,10.00,M,CLR,M,M,M,M,M,M,M,M,M,M,M,M,M,M,23.36,K05U 160155Z AUTO 04006KT 10SM CLR M01/M04 A3002 RMK A01,M
MEV,2023-03-16 01:55,-119.7500,38.9963,1441.42,42.80,26.60,52.45,330.00,8.00,0.00,29.98,M,10.00,M,CLR,M,M,M,M,M,M,M,M,M,M,M,M,M,M,37.42,KMEV 160155Z AUTO 33008KT 10SM CLR 06/M03 A2998 RMK AO2,M
BAM,2023-03-16 01:55,-116.8743,40.5990,1382.36,39.20,26.60,60.29,40.00,6.00,0.00,30.05,M,10.00,M,CLR,M,M,M,M,M,M,M,M,M,M,M,M,M,M,34.20,KBAM 160155Z AUTO 04006KT 10SM CLR 04/M03 A3005 RMK AO1,M
HTH,2023-03-16 01:55,-118.6315,38.5448,1282.89,44.60,26.60,48.96,310.00,8.00,0.00,29.99,M,10.00,13.00,CLR,M,M,M,M,M,M,M,M,M,M,M,M,M,M,39.63,KHTH 160155Z AUTO 31008G13KT 10SM CLR 07/M03 A2999 RMK A01,M
TMT,2023-03-16 01:55,-117.1971,39.4643,1749.34,37.00,24.60,60.49,10.00,8.00,0.00,29.99,M,10.00,M,CLR,M,M,M,M,M,M,M,M,M,M,M,M,M,M,30.27,KTMT 160155Z AUTO 01008KT 10SM CLR 03/M04 A2999 RMK AO2 T00281041,M
LSV,2023-03-16 01:55,-115.0343,36.2362,570.00,56.30,43.50,62.10,70.00,6.00,T,29.80,1008.30,10.00,M,FEW,M,M,M,7000.00,M,M,M,-RA,M,M,M,M,M,M,56.30,KLSV 160155Z AUTO 07006KT 10SM -RA FEW070 14/06 A2980 RMK AO2 RAB43 SLP083 P0000 T01350064 $,M
INS,2023-03-16 01:55,-115.6733,36.5872,955.00,51.40,40.00,65.16,0.00,0.00,0.00,29.84,1008.50,10.00,M,OVC,M,M,M,9000.00,M,M,M,M,M,M,M,M,M,M,51.40,KINS 160155Z AUTO 00000KT 10SM OVC090 11/05 A2984 RMK AO2 SLP085 T01080045 $,M
TPH,2023-03-16 01:56,-117.0904,38.0505,1654.00,46.00,23.00,39.96,320.00,20.00,0.00,29.91,1011.20,10.00,27.00,CLR,M,M,M,M,M,M,M,M,M,M,M,30.00,320.00,2023-03-16 01:06,37.73,KTPH 160156Z AUTO 32020G27KT 10SM CLR 08/M05 A2991 RMK AO2 PK WND 32030/0106 SLP112 T00781050,M
LAS,2023-03-16 01:56,-115.1634,36.0719,663.00,56.00,41.00,57.23,200.00,5.00,T,29.84,1009.50,10.00,M,FEW,BKN,BKN,M,6000.00,8000.00,20000.00,M,M,M,M,M,35.00,340.00,2023-03-16 00:57,55.90,KLAS 160156Z 20005KT 10SM FEW060 BKN080CB BKN200 13/05 A2984 RMK AO2 PK WND 34035/0057 RAB0058E30 SLP095 CB NE-SE-S MOV NE P0000 T01330050,M
EKO,2023-03-16 01:56,-115.7860,40.8242,1367.00,34.00,19.00,53.77,60.00,6.03,M,30.03,1017.90,10.00,M,CLR,M,M,M,M,M,M,M,M,M,M,M,M,M,M,27.92,METAR KEKO 160156Z 06006KT 10SM CLR 01/M07 A3003 RMK AO2 SLP179 T00111072 TSNO FIBI,M
WMC,2023-03-16 01:56,-117.8072,40.9019,1315.00,40.00,21.00,46.41,330.00,8.00,0.00,30.04,1017.70,10.00,M,CLR,M,M,M,M,M,M,M,M,M,M,M,M,M,M,33.84,KWMC 160156Z AUTO 33008KT 10SM CLR 04/M06 A3004 RMK AO2 SLP177 T00441061,M
NFL,2023-03-16 01:56,-118.7010,39.4166,1199.00,47.00,23.00,38.62,10.00,12.00,0.00,30.00,1012.80,10.00,M,FEW,M,M,M,5000.00,M,M,M,M,M,M,M,M,M,M,40.97,KNFL 160156Z 01012KT 10SM FEW050 08/M05 A3000 RMK AO2 SLP128 T00831050,M
HND,2023-03-16 01:56,-115.1344,35.9729,742.79,51.00,45.00,79.54,240.00,4.00,0.12,29.86,1012.70,7.00,M,BKN,OVC,M,M,4200.00,5000.00,M,M,-RA,M,M,M,M,M,M,51.10,KHND 160156Z 24004KT 7SM -RA BKN042 OVC050 11/07 A2986 RMK AO2 RAE0057B17 SLP127 P0012 T01060072,M
LSV,2023-03-16 02:07,-115.0343,36.2362,570.00,55.40,44.60,66.91,330.00,3.00,0.00,29.81,1008.80,10.00,M,FEW,FEW,M,M,4200.00,7000.00,M,M,M,M,M,M,M,M,M,55.40,KLSV 160207Z AUTO 33003KT 10SM FEW042 FEW070 13/07 A2981 RMK AO2 RAE0159DZB0159E07 SLP088 $,M
BVU,2023-03-16 02:15,-114.8611,35.9475,671.00,53.60,46.40,76.50,330.00,11.00,0.00,29.85,M,6.00,M,FEW,BKN,OVC,M,2400.00,5500.00,7500.00,M,RA,M,M,M,M,M,M,53.60,KBVU 160215Z AUTO 33011KT 6SM RA FEW024 BKN055 OVC075 12/08 A2985 RMK AO2,M
RTS,2023-03-16 02:15,-119.8764,39.6682,1539.00,39.20,21.20,48.10,50.00,7.00,0.00,30.02,M,10.00,M,CLR,M,M,M,M,M,M,M,M,M,M,M,M,M,M,33.56,KRTS 160215Z AUTO 05007KT 10SM CLR 04/M06 A3002 RMK AO2,M
05U,2023-03-16 02:15,-116.0051,39.6042,1811.23,30.20,24.80,80.07,30.00,5.00,0.00,30.02,M,10.00,M,FEW,M,M,M,3400.00,M,M,M,M,M,M,M,M,M,M,24.26,K05U 160215Z AUTO 03005KT 10SM FEW034 M01/M04 A3002 RMK A01,M
MEV,2023-03-16 02:15,-119.7500,38.9963,1441.42,42.80,26.60,52.45,350.00,5.00,0.00,29.99,M,10.00,M,CLR,M,M,M,M,M,M,M,M,M,M,M,M,M,M,39.22,KMEV 160215Z AUTO 35005KT 10SM CLR 06/M03 A2999 RMK AO2,M
BAM,2023-03-16 02:15,-116.8743,40.5990,1382.36,37.40,26.60,64.70,40.00,7.00,0.00,30.06,M,10.00,M,CLR,M,M,M,M,M,M,M,M,M,M,M,M,M,M,31.36,KBAM 160215Z AUTO 04007KT 10SM CLR 03/M03 A3006 RMK AO1,M
HTH,2023-03-16 02:15,-118.6315,38.5448,1282.89,44.60,28.40,52.72,330.00,6.00,0.00,30.00,M,10.00,M,CLR,M,M,M,M,M,M,M,M,M,M,M,M,M,M,40.71,KHTH 160215Z AUTO 33006KT 10SM CLR 07/M02 A3000 RMK A01,M
TMT,2023-03-16 02:15,-117.1971,39.4643,1749.34,36.00,25.00,63.73,10.00,7.00,0.00,30.00,M,10.00,M,SCT,M,M,M,4900.00,M,M,M,M,M,M,M,M,M,M,29.78,KTMT 160215Z AUTO 01007KT 10SM SCT049 02/M04 A3000 RMK AO2 T00231039,M
WMC,2023-03-16 02:31,-117.8072,40.9019,1315.00,38.00,21.00,50.18,50.00,10.00,0.00,30.05,M,10.00,M,CLR,M,M,M,M,M,M,M,M,M,M,M,M,M,M,30.37,KWMC 160231Z AUTO 05010KT 10SM CLR 03/M06 A3005 RMK AO2 WSHFT 0211 T00331061,M
BVU,2023-03-16 02:35,-114.8611,35.9475,671.00,51.80,46.40,81.74,50.00,4.00,0.00,29.84,M,6.00,M,FEW,FEW,OVC,M,2800.00,3400.00,5000.00,M,-RA,M,M,M,M,M,M,51.80,KBVU 160235Z AUTO 05004KT 6SM -RA FEW028 FEW034 OVC050 11/08 A2984 RMK AO2,M
RTS,2023-03-16 02:35,-119.8764,39.6682,1539.00,37.40,21.20,51.61,70.00,5.00,0.00,30.03,M,10.00,M,CLR,M,M,M,M,M,M,M,M,M,M,M,M,M,M,32.81,KRTS 160235Z AUTO 07005KT 10SM CLR 03/M06 A3003 RMK AO2,M
05U,2023-03-16 02:35,-116.0051,39.6042,1811.23,30.20,24.80,80.07,20.00,5.00,0.00,30.03,M,10.00,M,BKN,M,M,M,3300.00,M,M,M,M,M,M,M,M,M,M,24.26,K05U 160235Z AUTO 02005KT 10SM BKN033 M01/M04 A3003 RMK A01,M
MEV,2023-03-16 02:35,-119.7500,38.9963,1441.42,41.00,28.40,60.54,0.00,0.00,0.00,29.99,M,10.00,M,FEW,M,M,M,6500.00,M,M,M,M,M,M,M,M,M,M,41.00,KMEV 160235Z AUTO 00000KT 10SM FEW065 05/M02 A2999 RMK AO2,M
BAM,2023-03-16 02:35,-116.8743,40.5990,1382.36,35.60,26.60,69.46,50.00,6.00,0.00,30.06,M,10.00,M,CLR,M,M,M,M,M,M,M,M,M,M,M,M,M,M,29.87,KBAM 160235Z AUTO 05006KT 10SM CLR 02/M03 A3006 RMK AO1,M
HTH,2023-03-16 02:35,-118.6315,38.5448,1282.89,42.80,28.40,56.48,350.00,7.00,0.00,30.00,M,10.00,M,CLR,M,M,M,M,M,M,M,M,M,M,M,M,M,M,37.94,KHTH 160235Z AUTO 35007KT 10SM CLR 06/M02 A3000 RMK A01,M
TMT,2023-03-16 02:35,-117.1971,39.4643,1749.34,34.20,25.70,70.76,20.00,5.00,0.00,30.01,M,10.00,M,SCT,M,M,M,4900.00,M,M,M,M,M,M,M,M,M,M,29.01,KTMT 160235Z AUTO 02005KT 10SM SCT049 01/M03 A3001 RMK AO2 T00121035,M
05U,2023-03-16 02:50,-116.0051,39.6042,1811.23,28.40,24.80,86.18,330.00,5.00,0.00,30.04,M,10.00,M,SCT,M,M,M,3300.00,M,M,M,M,M,M,M,M,M,M,22.12,K05U 160250Z AUTO 33005KT 10SM SCT033 M02/M04 A3004 RMK A01,M
P68,2023-03-16 02:53,-116.0056,39.6014,1993.00,28.00,24.10,85.08,320.00,6.00,0.00,30.01,1016.20,M,M,M,M,M,M,M,M,M,M,M,M,M,M,M,M,M,20.71,KP68 160253Z AUTO 32006KT M02/M04 A3001 RMK AO1 SLP162 T10221044 53018,M
ELY,2023-03-16 02:53,-114.8453,39.2950,1909.00,30.90,21.90,68.91,10.00,13.00,0.00,29.95,1013.60,10.00,M,CLR,M,M,M,M,M,M,M,M,M,M,M,M,M,M,20.16,KELY 160253Z AUTO 01013KT 10SM CLR M01/M06 A2995 RMK AO2 SLP136 T10061056 53016,M
VGT,2023-03-16 02:53,-115.1933,36.2111,667.00,57.00,42.00,57.38,0.00,0.00,0.00,29.83,1011.20,10.00,M,OVC,M,M,M,10000.00,M,M,M,M,M,M,M,M,M,M,57.00,KVGT 160253Z AUTO 00000KT 10SM OVC100 14/06 A2983 RMK AO2 SLP112 60000 T01390056 51030,M
DRA,2023-03-16 02:53,-116.0278,36.6206,1009.00,49.00,41.00,74.05,40.00,7.00,0.00,29.85,1008.90,10.00,M,BKN,OVC,M,M,7500.00,9500.00,M,M,M,M,M,M,M,M,M,45.38,KDRA 160253Z AUTO 04007KT 10SM BKN075 OVC095 09/05 A2985 RMK AO2 SLP089 T00940050 51007 $,M
LOL,2023-03-16 02:53,-118.5701,40.0684,1192.43,40.00,21.90,48.21,30.00,7.00,0.00,30.04,1018.00,10.00,M,CLR,M,M,M,M,M,M,M,M,M,M,M,M,M,M,34.41,KLOL 160253Z AUTO 03007KT 10SM CLR 04/M06 A3004 RMK AO2 SLP180 T00441056 53015,M
BVU,2023-03-16 02:55,-114.8611,35.9475,671.00,51.80,48.20,87.47,50.00,5.00,0.00,29.85,M,10.00,M,FEW,SCT,BKN,M,3100.00,4900.00,7500.00,M,M,M,M,M,M,M,M,51.80,KBVU 160255Z AUTO 05005KT 10SM FEW031 SCT049 BKN075 11/09 A2985 RMK AO2 LTG DSNT E AND SE,M
INS,2023-03-16 02:55,-115.6733,36.5872,955.00,48.00,42.80,82.09,0.00,0.00,0.00,29.86,1009.70,10.00,M,SCT,M,M,M,19000.00,M,M,M,M,M,M,M,M,M,M,48.00,KINS 160255Z AUTO 00000KT 10SM SCT190 09/06 A2986 RMK AO2 SLP097 60000 T00890060 55001 $,M
RNO,2023-03-16 02:55,-119.7711,39.4839,1341.00,43.00,23.00,44.80,360.00,7.00,0.00,30.02,1016.10,10.00,M,FEW,M,M,M,5500.00,M,M,M,M,M,M,M,M,M,M,38.19,KRNO 160255Z 36007KT 10SM FEW055 06/M05 A3002 RMK AO2 SLP161 T00611050 53011,M
RTS,2023-03-16 02:55,-119.8764,39.6682,1539.00,37.40,21.20,51.61,60.00,5.00,0.00,30.03,M,10.00,M,CLR,M,M,M,M,M,M,M,M,M,M,M,M,M,M,32.81,KRTS 160255Z AUTO 06005KT 10SM CLR 03/M06 A3003 RMK AO2,M
BAM,2023-03-16 02:55,-116.8743,40.5990,1382.36,35.60,26.60,69.46,50.00,9.00,0.00,30.07,M,10.00,M,CLR,M,M,M,M,M,M,M,M,M,M,M,M,M,M,27.99,KBAM 160255Z AUTO 05009KT 10SM CLR 02/M03 A3007 RMK AO1,M
MEV,2023-03-16 02:55,-119.7500,38.9963,1441.42,39.20,24.80,55.95,40.00,8.00,0.00,30.00,M,10.00,M,FEW,FEW,SCT,M,3000.00,4200.00,6000.00,M,M,M,M,M,M,M,M,32.98,KMEV 160255Z AUTO 04008KT 10SM FEW030 FEW042 SCT060 04/M04 A3000 RMK AO2,M
HTH,2023-03-16 02:55,-118.6315,38.5448,1282.89,42.80,28.40,56.48,300.00,8.00,0.00,30.01,M,10.00,M,CLR,M,M,M,M,M,M,M,M,M,M,M,M,M,M,37.42,KHTH 160255Z AUTO 30008KT 10SM CLR 06/M02 A3001 RMK A01,M
TMT,2023-03-16 02:55,-117.1971,39.4643,1749.34,33.80,26.10,73.10,20.00,7.00,0.00,30.02,M,10.00,M,CLR,M,M,M,M,M,M,M,M,M,M,M,M,M,M,26.97,KTMT 160255Z AUTO 02007KT 10SM CLR 01/M03 A3002 RMK AO2 T00101033,M
LSV,2023-03-16 02:55,-115.0343,36.2362,570.00,55.20,46.80,73.26,170.00,6.00,T,29.81,1008.80,10.00,M,CLR,M,M,M,M,M,M,M,M,M,M,M,M,M,M,55.20,KLSV 160255Z AUTO 17006KT 10SM CLR 13/08 A2981 RMK AO2 RAE0159DZB0159E07 SLP088 P0000 60000 T01290082 51030 $,M
WMC,2023-03-16 02:56,-117.8072,40.9019,1315.00,37.00,21.00,51.99,30.00,8.00,0.00,30.06,1018.60,10.00,M,CLR,M,M,M,M,M,M,M,M,M,M,M,M,M,M,30.27,KWMC 160256Z AUTO 03008KT 10SM CLR 03/M06 A3006 RMK AO2 WSHFT 0211 SLP186 T00281061 53011,M
TPH,2023-03-16 02:56,-117.0904,38.0505,1654.00,43.00,25.00,48.70,360.00,16.00,0.00,29.93,1012.00,10.00,M,CLR,M,M,M,M,M,M,M,M,M,M,M,M,M,M,34.76,KTPH 160256Z AUTO 36016KT 10SM CLR 06/M04 A2993 RMK AO2 SLP120 T00611039 53016,M
LAS,2023-03-16 02:56,-115.1634,36.0719,663.00,54.00,45.00,71.50,0.00,0.00,T,29.84,1009.80,10.00,M,FEW,BKN,BKN,M,6000.00,8000.00,20000.00,M,M,M,M,M,M,M,M,54.00,KLAS 160256Z 00000KT 10SM FEW060 BKN080 BKN200 12/07 A2984 RMK AO2 RAB06E18 SLP098 P0000 60000 T01220072 51020,M
EKO,2023-03-16 02:56,-115.7860,40.8242,1367.00,32.00,19.00,58.27,20.00,5.05,M,30.03,1018.30,10.00,M,CLR,M,M,M,M,M,M,M,M,M,M,M,M,M,M,26.35,METAR KEKO 160256Z 02005KT 10SM CLR 00/M07 A3003 RMK AO2 SLP183 T00001072 51009 TSNO FIBI,M
HND,2023-03-16 02:56,-115.1344,35.9729,742.79,50.00,47.00,89.04,170.00,5.00,0.02,29.87,1012.70,10.00,M,BKN,M,M,M,8500.00,M,M,M,M,M,M,M,M,M,M,50.00,KHND 160256Z AUTO 17005KT 10SM BKN085 10/08 A2987 RMK AO2 RAE18 SLP127 P0002 60014 T01000083 51021,M
NFL,2023-03-16 02:56,-118.7010,39.4166,1199.00,42.00,25.00,50.42,340.00,7.00,0.00,30.01,1013.30,10.00,M,FEW,M,M,M,5000.00,M,M,M,M,M,M,M,M,M,M,37.09,KNFL 160256Z 34007KT 10SM FEW050 06/M04 A3001 RMK AO2 SLP133 T00561039 53013,M
BVU,2023-03-16 03:15,-114.8611,35.9475,671.00,51.80,48.20,87.47,80.00,4.00,0.00,29.85,M,10.00,M,FEW,BKN,M,M,8000.00,9500.00,M,M,M,M,M,M,M,M,M,51.80,KBVU 160315Z AUTO 08004KT 10SM FEW080 BKN095 11/09 A2985 RMK AO2,M
RTS,2023-03-16 03:15,-119.8764,39.6682,1539.00,35.60,23.00,59.79,350.00,4.00,0.00,30.04,M,10.00,M,CLR,M,M,M,M,M,M,M,M,M,M,M,M,M,M,31.62,KRTS 160315Z AUTO 35004KT 10SM CLR 02/M05 A3004 RMK AO2,M
05U,2023-03-16 03:15,-116.0051,39.6042,1811.23,28.40,24.80,86.18,340.00,5.00,0.00,30.04,M,10.00,M,CLR,M,M,M,M,M,M,M,M,M,M,M,M,M,M,22.12,K05U 160315Z AUTO 34005KT 10SM CLR M02/M04 A3004 RMK A01,M
MEV,2023-03-16 03:15,-119.7500,38.9963,1441.42,41.00,24.80,52.17,0.00,0.00,0.00,30.01,M,10.00,M,FEW,FEW,BKN,M,3000.00,4100.00,6000.00,M,M,M,M,M,M,M,M,41.00,KMEV 160315Z AUTO 00000KT 10SM FEW030 FEW041 BKN060 05/M04 A3001 RMK AO2,M
BAM,2023-03-16 03:15,-116.8743,40.5990,1382.36,35.60,26.60,69.46,60.00,7.00,0.00,30.07,M,10.00,M,CLR,M,M,M,M,M,M,M,M,M,M,M,M,M,M,29.17,KBAM 160315Z AUTO 06007KT 10SM CLR 02/M03 A3007 RMK AO1,M
HTH,2023-03-16 03:15,-118.6315,38.5448,1282.89,42.80,26.60,52.45,310.00,8.00,0.00,30.02,M,10.00,M,CLR,M,M,M,M,M,M,M,M,M,M,M,M,M,M,37.42,KHTH 160315Z AUTO 31008KT 10SM CLR 06/M03 A3002 RMK A01,M
TMT,2023-03-16 03:15,-117.1971,39.4643,1749.34,33.00,25.70,74.54,10.00,6.00,0.00,30.02,M,10.00,M,CLR,M,M,M,M,M,M,M,M,M,M,M,M,M,M,26.61,KTMT 160315Z AUTO 01006KT 10SM CLR 01/M03 A3002 RMK AO2 T00051035,M
BVU,2023-03-16 03:35,-114.8611,35.9475,671.00,51.80,48.20,87.47,0.00,0.00,0.00,29.86,M,10.00,M,BKN,M,M,M,10000.00,M,M,M,M,M,M,M,M,M,M,51.80,KBVU 160335Z AUTO 00000KT 10SM BKN100 11/09 A2986 RMK AO2 LTG DSNT SE AND S,M
RTS,2023-03-16 03:35,-119.8764,39.6682,1539.00,37.40,21.20,51.61,290.00,4.00,0.00,30.04,M,10.00,M,CLR,M,M,M,M,M,M,M,M,M,M,M,M,M,M,33.73,KRTS 160335Z AUTO 29004KT 10SM CLR 03/M06 A3004 RMK AO2,M
05U,2023-03-16 03:35,-116.0051,39.6042,1811.23,26.60,23.00,86.07,330.00,5.00,0.00,30.05,M,10.00,M,CLR,M,M,M,M,M,M,M,M,M,M,M,M,M,M,19.98,K05U 160335Z AUTO 33005KT 10SM CLR M03/M05 A3005 RMK A01,M
MEV,2023-03-16 03:35,-119.7500,38.9963,1441.42,41.00,24.80,52.17,60.00,4.00,0.00,30.02,M,10.00,M,OVC,M,M,M,6000.00,M,M,M,M,M,M,M,M,M,M,37.93,KMEV 160335Z AUTO 06004KT 10SM OVC060 05/M04 A3002 RMK AO2,M
BAM,2023-03-16 03:35,-116.8743,40.5990,1382.36,33.80,26.60,74.63,50.00,8.00,0.00,30.08,M,10.00,M,CLR,M,M,M,M,M,M,M,M,M,M,M,M,M,M,26.33,KBAM 160335Z AUTO 05008KT 10SM CLR 01/M03 A3008 RMK AO1,M
HTH,2023-03-16 03:35,-118.6315,38.5448,1282.89,41.00,28.40,60.54,320.00,7.00,0.00,30.03,M,10.00,M,SCT,M,M,M,6500.00,M,M,M,M,M,M,M,M,M,M,35.75,KHTH 160335Z AUTO 32007KT 10SM SCT065 05/M02 A3003 RMK A01,M
TMT,2023-03-16 03:35,-117.1971,39.4643,1749.34,30.90,25.70,80.80,70.00,4.00,0.00,30.03,M,10.00,M,CLR,M,M,M,M,M,M,M,M,M,M,M,M,M,M,26.14,KTMT 160335Z AUTO 07004KT 10SM CLR M01/M03 A3003 RMK AO2 T10061035,M
05U,2023-03-16 03:50,-116.0051,39.6042,1811.23,M,M,M,340.00,5.00,0.00,30.05,M,10.00,M,CLR,M,M,M,M,M,M,M,M,M,M,M,M,M,M,M,K05U 160350Z AUTO 34005KT 10SM CLR A3005 RMK A01,M
P68,2023-03-16 03:53,-116.0056,39.6014,1993.00,27.00,24.10,88.65,330.00,5.00,0.00,30.03,1016.50,M,M,M,M,M,M,M,M,M,M,M,M,M,M,M,M,M,20.46,KP68 160353Z AUTO 33005KT M03/M04 A3003 RMK AO1 SLP165 T10281044,M
ELY,2023-03-16 03:53,-114.8453,39.2950,1909.00,28.00,21.00,74.67,30.00,10.00,0.00,29.98,1015.10,10.00,M,CLR,M,M,M,M,M,M,M,M,M,M,M,M,M,M,17.95,KELY 160353Z AUTO 03010KT 10SM CLR M02/M06 A2998 RMK AO2 SLP151 T10221061,M
LOL,2023-03-16 03:53,-118.5701,40.0684,1192.43,39.00,23.00,52.30,30.00,8.00,0.00,30.06,1018.40,10.00,M,CLR,M,M,M,M,M,M,M,M,M,M,M,M,M,M,32.74,KLOL 160353Z AUTO 03008KT 10SM CLR 04/M05 A3006 RMK AO2 SLP184 T00391050,M
DRA,2023-03-16 03:53,-116.0278,36.6206,1009.00,48.00,40.00,73.38,30.00,6.00,0.00,29.87,1009.70,10.00,M,OVC,M,M,M,8000.00,M,M,M,M,M,M,M,M,M,M,44.80,KDRA 160353Z AUTO 03006KT 10SM OVC080 09/04 A2987 RMK AO2 SLP097 T00890044 $,M
VGT,2023-03-16 03:53,-115.1933,36.2111,667.00,57.00,42.00,57.38,340.00,5.00,0.00,29.85,1011.70,10.00,M,FEW,M,M,M,11000.00,M,M,M,M,M,M,M,M,M,M,57.00,KVGT 160353Z AUTO 34005KT 10SM FEW110 14/06 A2985 RMK AO2 SLP117 T01390056,M
BVU,2023-03-16 03:55,-114.8611,35.9475,671.00,51.80,48.20,87.47,210.00,3.00,0.00,29.86,M,10.00,M,OVC,M,M,M,11000.00,M,M,M,M,M,M,M,M,M,M,51.80,KBVU 160355Z AUTO 21003KT 10SM OVC110 11/09 A2986 RMK AO2,M
INS,2023-03-16 03:55,-115.6733,36.5872,955.00,48.00,41.50,78.08,50.00,3.00,0.00,29.88,1010.10,10.00,M,BKN,M,M,M,14000.00,M,M,M,M,M,M,M,M,M,M,46.98,KINS 160355Z AUTO 05003KT 10SM BKN140 09/05 A2988 RMK AO2 SLP101 T00890053 $,M
RNO,2023-03-16 03:55,-119.7711,39.4839,1341.00,41.00,23.00,48.39,330.00,5.00,0.00,30.04,1016.80,10.00,M,CLR,M,M,M,M,M,M,M,M,M,M,M,M,M,M,37.08,KRNO 160355Z 33005KT 10SM CLR 05/M05 A3004 RMK AO2 SLP168 T00501050,M
RTS,2023-03-16 03:55,-119.8764,39.6682,1539.00,35.60,21.20,55.41,0.00,0.00,0.00,30.05,M,10.00,M,CLR,M,M,M,M,M,M,M,M,M,M,M,M,M,M,35.60,KRTS 160355Z AUTO 00000KT 10SM CLR 02/M06 A3005 RMK AO2,M
MEV,2023-03-16 03:55,-119.7500,38.9963,1441.42,41.00,24.80,52.17,10.00,6.00,0.00,30.03,M,10.00,12.00,OVC,M,M,M,6000.00,M,M,M,M,M,M,M,M,M,M,36.37,KMEV 160355Z AUTO 01006G12KT 10SM OVC060 05/M04 A3003 RMK AO2,M
BAM,2023-03-16 03:55,-116.8743,40.5990,1382.36,35.60,26.60,69.46,60.00,9.00,0.00,30.08,M,10.00,M,CLR,M,M,M,M,M,M,M,M,M,M,M,M,M,M,27.99,KBAM 160355Z AUTO 06009KT 10SM CLR 02/M03 A3008 RMK AO1,M
HTH,2023-03-16 03:55,-118.6315,38.5448,1282.89,41.00,28.40,60.54,320.00,8.00,0.00,30.04,M,10.00,M,SCT,M,M,M,7000.00,M,M,M,M,M,M,M,M,M,M,35.20,KHTH 160355Z AUTO 32008KT 10SM SCT070 05/M02 A3004 RMK A01,M
TMT,2023-03-16 03:55,-117.1971,39.4643,1749.34,30.40,25.50,81.77,0.00,0.00,0.00,30.05,M,10.00,M,CLR,M,M,M,M,M,M,M,M,M,M,M,M,M,M,30.40,KTMT 160355Z AUTO 00000KT 10SM CLR M01/M04 A3005 RMK AO2 T10091036,M
LSV,2023-03-16 03:55,-115.0343,36.2362,570.00,55.00,47.00,74.08,0.00,0.00,0.00,29.83,1009.40,10.00,M,CLR,M,M,M,M,M,M,M,M,M,M,M,M,M,M,55.00,KLSV 160355Z AUTO 00000KT 10SM CLR 13/08 A2983 RMK AO2 SLP094 T01280083 $,M
NFL,2023-03-16 03:56,-118.7010,39.4166,1199.00,39.00,25.00,56.86,360.00,6.00,0.00,30.04,1014.10,10.00,M,CLR,M,M,M,M,M,M,M,M,M,M,M,M,M,M,33.96,KNFL 160356Z 36006KT 10SM CLR 04/M04 A3004 RMK AO2 SLP141 T00391039,M
TPH,2023-03-16 03:56,-117.0904,38.0505,1654.00,40.00,24.10,52.88,360.00,13.00,0.00,29.96,1012.90,10.00,M,CLR,M,M,M,M,M,M,M,M,M,M,M,M,M,M,31.69,KTPH 160356Z AUTO 36013KT 10SM CLR 04/M04 A2996 RMK AO2 SLP129 T00441044,M
EKO,2023-03-16 03:56,-115.7860,40.8242,1367.00,30.00,20.00,65.94,50.00,5.05,M,30.06,1019.30,10.00,M,CLR,M,M,M,M,M,M,M,M,M,M,M,M,M,M,23.97,METAR KEKO 160356Z 05005KT 10SM CLR M01/M07 A3006 RMK AO2 SLP193 T10111067 TSNO FIBI,M
WMC,2023-03-16 03:56,-117.8072,40.9019,1315.00,35.00,21.90,58.22,50.00,9.00,0.00,30.08,1019.40,10.00,M,CLR,M,M,M,M,M,M,M,M,M,M,M,M,M,M,27.37,KWMC 160356Z AUTO 05009KT 10SM CLR 02/M06 A3008 RMK AO2 SLP194 T00171056,M
LAS,2023-03-16 03:56,-115.1634,36.0719,663.00,53.00,45.00,73.89,220.00,5.00,0.00,29.85,1010.20,10.00,M,FEW,SCT,BKN,M,7500.00,11000.00,20000.00,M,M,M,M,M,M,M,M,53.10,KLAS 160356Z 22005KT 10SM FEW075 SCT110 BKN200 12/07 A2985 RMK AO2 SLP102 T01170072,M
HND,2023-03-16 03:56,-115.1344,35.9729,742.79,51.00,47.00,85.48,250.00,4.00,0.00,29.88,1013.10,10.00,M,FEW,SCT,M,M,7500.00,11000.00,M,M,M,M,M,M,M,M,M,51.10,KHND 160356Z AUTO 25004KT 10SM FEW075 SCT110 11/08 A2988 RMK AO2 SLP131 T01060083,M
BVU,2023-03-16 04:15,-114.8611,35.9475,671.00,51.80,48.20,87.47,270.00,4.00,0.00,29.86,M,10.00,M,SCT,BKN,M,M,10000.00,12000.00,M,M,M,M,M,M,M,M,M,51.80,KBVU 160415Z AUTO 27004KT 10SM SCT100 BKN120 11/09 A2986 RMK AO2 LTG DSNT SE,M
RTS,2023-03-16 04:15,-119.8764,39.6682,1539.00,33.80,23.00,64.23,0.00,0.00,0.00,30.05,M,10.00,M,CLR,M,M,M,M,M,M,M,M,M,M,M,M,M,M,33.80,KRTS 160415Z AUTO 00000KT 10SM CLR 01/M05 A3005 RMK AO2,M
05U,2023-03-16 04:15,-116.0051,39.6042,1811.23,26.60,23.00,86.07,330.00,5.00,0.00,30.06,M,10.00,M,CLR,M,M,M,M,M,M,M,M,M,M,M,M,M,M,19.98,K05U 160415Z AUTO 33005KT 10SM CLR M03/M05 A3006 RMK A01,M
MEV,2023-03-16 04:15,-119.7500,38.9963,1441.42,41.00,23.00,48.39,40.00,6.00,0.00,30.03,M,10.00,M,OVC,M,M,M,6000.00,M,M,M,M,M,M,M,M,M,M,36.37,KMEV 160415Z AUTO 04006KT 10SM OVC060 05/M05 A3003 RMK AO2,M
BAM,2023-03-16 04:15,-116.8743,40.5990,1382.36,35.60,24.80,64.46,30.00,8.00,0.00,30.09,M,10.00,M,CLR,M,M,M,M,M,M,M,M,M,M,M,M,M,M,28.55,KBAM 160415Z AUTO 03008KT 10SM CLR 02/M04 A3009 RMK AO1,M
HTH,2023-03-16 04:15,-118.6315,38.5448,1282.89,41.00,26.60,56.22,320.00,8.00,0.00,30.04,M,10.00,M,FEW,M,M,M,6500.00,M,M,M,M,M,M,M,M,M,M,35.20,KHTH 160415Z AUTO 32008KT 10SM FEW065 05/M03 A3004 RMK A01,M
TMT,2023-03-16 04:15,-117.1971,39.4643,1749.34,31.10,25.50,79.48,20.00,7.00,0.00,30.05,M,10.00,M,CLR,M,M,M,M,M,M,M,M,M,M,M,M,M,M,23.68,KTMT 160415Z AUTO 02007KT 10SM CLR 00/M04 A3005 RMK AO2 T10051036,M
BVU,2023-03-16 04:35,-114.8611,35.9475,671.00,50.00,48.20,93.50,320.00,4.00,0.00,29.88,M,10.00,M,FEW,SCT,M,M,10000.00,12000.00,M,M,M,M,M,M,M,M,M,50.00,KBVU 160435Z AUTO 32004KT 10SM FEW100 SCT120 10/09 A2988 RMK AO2,M
RTS,2023-03-16 04:35,-119.8764,39.6682,1539.00,33.80,23.00,64.23,0.00,0.00,0.00,30.06,M,10.00,M,CLR,M,M,M,M,M,M,M,M,M,M,M,M,M,M,33.80,KRTS 160435Z AUTO 00000KT 10SM CLR 01/M05 A3006 RMK AO2,M
05U,2023-03-16 04:35,-116.0051,39.6042,1811.23,26.60,23.00,86.07,340.00,4.00,0.00,30.07,M,10.00,M,CLR,M,M,M,M,M,M,M,M,M,M,M,M,M,M,21.11,K05U 160435Z AUTO 34004KT 10SM CLR M03/M05 A3007 RMK A01,M
MEV,2023-03-16 04:35,-119.7500,38.9963,1441.42,39.20,24.80,55.95,40.00,5.00,0.00,30.04,M,10.00,M,OVC,M,M,M,6000.00,M,M,M,M,M,M,M,M,M,M,34.95,KMEV 160435Z AUTO 04005KT 10SM OVC060 04/M04 A3004 RMK AO2,M
BAM,2023-03-16 04:35,-116.8743,40.5990,1382.36,33.80,24.80,69.25,40.00,9.00,0.00,30.09,M,10.00,M,CLR,M,M,M,M,M,M,M,M,M,M,M,M,M,M,25.75,KBAM 160435Z AUTO 04009KT 10SM CLR 01/M04 A3009 RMK AO1,M
HTH,2023-03-16 04:35,-118.6315,38.5448,1282.89,39.20,26.60,60.29,330.00,8.00,0.00,30.05,M,10.00,M,CLR,M,M,M,M,M,M,M,M,M,M,M,M,M,M,32.98,KHTH 160435Z AUTO 33008KT 10SM CLR 04/M03 A3005 RMK A01,M
TMT,2023-03-16 04:35,-117.1971,39.4643,1749.34,31.30,26.10,80.83,20.00,9.00,0.00,30.05,M,10.00,M,CLR,M,M,M,M,M,M,M,M,M,M,M,M,M,M,22.64,KTMT 160435Z AUTO 02009KT 10SM CLR 00/M03 A3005 RMK AO2 T10041033,M
P68,2023-03-16 04:53,-116.0056,39.6014,1993.00,26.10,23.00,87.87,340.00,3.00,0.00,30.04,1017.10,M,M,M,M,M,M,M,M,M,M,M,M,M,M,M,M,M,21.94,KP68 160453Z AUTO 34003KT M03/M05 A3004 RMK AO1 SLP171 T10331050,M
ELY,2023-03-16 04:53,-114.8453,39.2950,1909.00,27.00,19.90,74.25,20.00,12.00,0.00,29.99,1015.50,10.00,M,CLR,M,M,M,M,M,M,M,M,M,M,M,M,M,M,15.64,KELY 160453Z AUTO 02012KT 10SM CLR M03/M07 A2999 RMK AO2 SLP155 T10281067,M
VGT,2023-03-16 04:53,-115.1933,36.2111,667.00,54.00,43.00,66.24,80.00,6.00,0.00,29.87,1012.70,10.00,M,FEW,M,M,M,12000.00,M,M,M,M,M,M,M,M,M,M,54.00,KVGT 160453Z AUTO 08006KT 10SM FEW120 12/06 A2987 RMK AO2 SLP127 T01220061,M
LOL,2023-03-16 04:53,-118.5701,40.0684,1192.43,36.00,21.90,56.18,40.00,7.00,0.00,30.07,1019.20,10.00,M,CLR,M,M,M,M,M,M,M,M,M,M,M,M,M,M,29.65,KLOL 160453Z AUTO 04007KT 10SM CLR 02/M06 A3007 RMK AO2 SLP192 T00221056,M
DRA,2023-03-16 04:53,-116.0278,36.6206,1009.00,48.00,40.00,73.38,0.00,0.00,0.00,29.89,1010.40,10.00,M,BKN,BKN,OVC,M,5000.00,6000.00,10000.00,M,M,M,M,M,M,M,M,48.00,KDRA 160453Z AUTO 00000KT 10SM BKN050 BKN060 OVC100 09/04 A2989 RMK AO2 SLP104 T00890044 $,M
BVU,2023-03-16 04:55,-114.8611,35.9475,671.00,50.00,48.20,93.50,330.00,3.00,0.00,29.89,M,10.00,M,SCT,M,M,M,12000.00,M,M,M,M,M,M,M,M,M,M,50.00,KBVU 160455Z AUTO 33003KT 10SM SCT120 10/09 A2989 RMK AO2,M
INS,2023-03-16 04:55,-115.6733,36.5872,955.00,46.80,45.70,95.93,0.00,0.00,0.00,29.90,1010.80,10.00,M,SCT,OVC,M,M,7500.00,9000.00,M,M,M,M,M,M,M,M,M,46.80,KINS 160455Z AUTO 00000KT 10SM SCT075 OVC090 08/08 A2990 RMK AO2 SLP108 T00820076 $,M
RTS,2023-03-16 04:55,-119.8764,39.6682,1539.00,35.60,23.00,59.79,0.00,0.00,0.00,30.06,M,10.00,M,CLR,M,M,M,M,M,M,M,M,M,M,M,M,M,M,35.60,KRTS 160455Z AUTO 00000KT 10SM CLR 02/M05 A3006 RMK AO2,M
05U,2023-03-16 04:55,-116.0051,39.6042,1811.23,M,M,M,330.00,5.00,0.00,30.07,M,10.00,M,CLR,M,M,M,M,M,M,M,M,M,M,M,M,M,M,M,K05U 160455Z AUTO 33005KT 10SM CLR A3007 RMK A01,M
MEV,2023-03-16 04:55,-119.7500,38.9963,1441.42,37.40,24.80,60.04,30.00,5.00,0.00,30.05,M,10.00,M,FEW,OVC,M,M,4300.00,6000.00,M,M,M,M,M,M,M,M,M,32.81,KMEV 160455Z AUTO 03005KT 10SM FEW043 OVC060 03/M04 A3005 RMK AO2,M
BAM,2023-03-16 04:55,-116.8743,40.5990,1382.36,33.80,24.80,69.25,70.00,9.00,0.00,30.10,M,10.00,M,CLR,M,M,M,M,M,M,M,M,M,M,M,M,M,M,25.75,KBAM 160455Z AUTO 07009KT 10SM CLR 01/M04 A3010 RMK AO1,M
HTH,2023-03-16 04:55,-118.6315,38.5448,1282.89,39.20,28.40,64.93,320.00,8.00,0.00,30.05,M,10.00,M,CLR,M,M,M,M,M,M,M,M,M,M,M,M,M,M,32.98,KHTH 160455Z AUTO 32008KT 10SM CLR 04/M02 A3005 RMK A01,M
TMT,2023-03-16 04:55,-117.1971,39.4643,1749.34,30.60,25.30,80.44,30.00,8.00,0.00,30.06,M,10.00,M,CLR,M,M,M,M,M,M,M,M,M,M,M,M,M,M,22.39,KTMT 160455Z AUTO 03008KT 10SM CLR M01/M04 A3006 RMK AO2 T10081037,M
LSV,2023-03-16 04:55,-115.0343,36.2362,570.00,53.80,45.70,73.96,50.00,8.00,0.00,29.86,1010.50,10.00,M,FEW,M,M,M,12000.00,M,M,M,M,M,M,M,M,M,M,53.80,KLSV 160455Z AUTO 05008KT 10SM FEW120 12/08 A2986 RMK AO2 SLP105 T01210076 $,M
RNO,2023-03-16 04:55,-119.7711,39.4839,1341.00,40.00,24.10,52.88,0.00,0.00,0.00,30.06,1017.40,10.00,M,CLR,M,M,M,M,M,M,M,M,M,M,M,M,M,M,39.90,KRNO 160455Z 00000KT 10SM CLR 04/M04 A3006 RMK AO2 SLP174 T00441044,M
WMC,2023-03-16 04:56,-117.8072,40.9019,1315.00,33.00,21.00,60.71,70.00,10.00,0.00,30.10,1020.20,10.00,M,CLR,M,M,M,M,M,M,M,M,M,M,M,M,M,M,24.35,KWMC 160456Z AUTO 07010KT 10SM CLR 01/M06 A3010 RMK AO2 SLP202 T00061061,M
NFL,2023-03-16 04:56,-118.7010,39.4166,1199.00,37.00,24.10,59.24,350.00,7.00,0.00,30.06,1014.70,10.00,M,CLR,M,M,M,M,M,M,M,M,M,M,M,M,M,M,30.87,KNFL 160456Z 35007KT 10SM CLR 03/M04 A3006 RMK AO2 SLP147 T00281044,M
HND,2023-03-16 04:56,-115.1344,35.9729,742.79,50.00,46.00,86.06,150.00,5.00,0.00,29.90,1013.70,10.00,M,SCT,M,M,M,12000.00,M,M,M,M,M,M,M,M,M,M,50.00,KHND 160456Z AUTO 15005KT 10SM SCT120 10/08 A2990 RMK AO2 SLP137 T01000078,M
TPH,2023-03-16 04:56,-117.0904,38.0505,1654.00,38.00,24.10,57.18,360.00,16.00,0.00,29.98,1013.70,10.00,M,CLR,M,M,M,M,M,M,M,M,M,M,M,M,M,M,28.11,KTPH 160456Z AUTO 36016KT 10SM CLR 03/M04 A2998 RMK AO2 SLP137 T00331044,M
EKO,2023-03-16 04:56,-115.7860,40.8242,1367.00,29.00,18.00,63.05,20.00,2.92,M,30.07,1020.10,10.00,M,CLR,M,M,M,M,M,M,M,M,M,M,M,M,M,M,25.39,METAR KEKO 160456Z 02003KT 10SM CLR M02/M08 A3007 RMK AO2 SLP201 T10171078 TSNO FIBI,M
LAS,2023-03-16 04:56,-115.1634,36.0719,663.00,54.00,44.00,69.09,0.00,0.00,0.00,29.88,1011.00,10.00,M,FEW,SCT,BKN,M,7500.00,13000.00,25000.00,M,M,M,M,M,M,M,M,54.00,KLAS 160456Z 00000KT 10SM FEW075 SCT130 BKN250 12/07 A2988 RMK AO2 SLP110 T01220067,M
BVU,2023-03-16 05:15,-114.8611,35.9475,671.00,50.00,48.20,93.50,290.00,3.00,0.00,29.89,M,10.00,M,BKN,M,M,M,11000.00,M,M,M,M,M,M,M,M,M,M,50.00,KBVU 160515Z AUTO 29003KT 10SM BKN110 10/09 A2989 RMK AO2,M
RTS,2023-03-16 05:15,-119.8764,39.6682,1539.00,33.80,23.00,64.23,20.00,3.00,0.00,30.07,M,10.00,M,CLR,M,M,M,M,M,M,M,M,M,M,M,M,M,M,30.75,KRTS 160515Z AUTO 02003KT 10SM CLR 01/M05 A3007 RMK AO2,M
05U,2023-03-16 05:15,-116.0051,39.6042,1811.23,24.80,23.00,92.74,340.00,5.00,0.00,30.07,M,10.00,M,CLR,M,M,M,M,M,M,M,M,M,M,M,M,M,M,17.84,K05U 160515Z AUTO 34005KT 10SM CLR M04/M05 A3007 RMK A01,M
MEV,2023-03-16 05:15,-119.7500,38.9963,1441.42,37.40,26.60,64.70,10.00,6.00,0.00,30.05,M,10.00,M,FEW,SCT,OVC,M,4000.00,4600.00,6000.00,M,M,M,M,M,M,M,M,32.03,KMEV 160515Z AUTO 01006KT 10SM FEW040 SCT046 OVC060 03/M03 A3005 RMK AO2,M
BAM,2023-03-16 05:15,-116.8743,40.5990,1382.36,33.80,26.60,74.63,70.00,9.00,0.00,30.11,M,10.00,M,CLR,M,M,M,M,M,M,M,M,M,M,M,M,M,M,25.75,KBAM 160515Z AUTO 07009KT 10SM CLR 01/M03 A3011 RMK AO1,M
HTH,2023-03-16 05:15,-118.6315,38.5448,1282.89,39.20,28.40,64.93,320.00,7.00,0.00,30.05,M,10.00,M,CLR,M,M,M,M,M,M,M,M,M,M,M,M,M,M,33.56,KHTH 160515Z AUTO 32007KT 10SM CLR 04/M02 A3005 RMK A01,M
TMT,2023-03-16 05:15,-117.1971,39.4643,1749.34,30.20,24.60,79.41,20.00,9.00,0.00,30.06,M,10.00,M,CLR,M,M,M,M,M,M,M,M,M,M,M,M,M,M,21.28,KTMT 160515Z AUTO 02009KT 10SM CLR M01/M04 A3006 RMK AO2 T10101041,M
05U,2023-03-16 05:30,-116.0051,39.6042,1811.23,24.80,23.00,92.74,330.00,5.00,0.00,30.07,M,10.00,M,CLR,M,M,M,M,M,M,M,M,M,M,M,M,M,M,17.84,K05U 160530Z AUTO 33005KT 10SM CLR M04/M05 A3007 RMK A01,M
BVU,2023-03-16 05:35,-114.8611,35.9475,671.00,50.00,46.40,87.37,0.00,0.00,0.00,29.89,M,10.00,M,CLR,M,M,M,M,M,M,M,M,M,M,M,M,M,M,50.00,KBVU 160535Z AUTO 00000KT 10SM CLR 10/08 A2989 RMK AO2,M
RTS,2023-03-16 05:35,-119.8764,39.6682,1539.00,35.60,23.00,59.79,40.00,6.00,0.00,30.07,M,10.00,M,CLR,M,M,M,M,M,M,M,M,M,M,M,M,M,M,29.87,KRTS 160535Z AUTO 04006KT 10SM CLR 02/M05 A3007 RMK AO2,M
MEV,2023-03-16 05:35,-119.7500,38.9963,1441.42,35.60,26.60,69.46,320.00,4.00,0.00,30.05,M,10.00,M,FEW,OVC,M,M,4600.00,6000.00,M,M,M,M,M,M,M,M,M,31.62,KMEV 160535Z AUTO 32004KT 10SM FEW046 OVC060 02/M03 A3005 RMK AO2,M
BAM,2023-03-16 05:35,-116.8743,40.5990,1382.36,33.80,24.80,69.25,70.00,10.00,0.00,30.11,M,10.00,M,CLR,M,M,M,M,M,M,M,M,M,M,M,M,M,M,25.23,KBAM 160535Z AUTO 07010KT 10SM CLR 01/M04 A3011 RMK AO1,M
HTH,2023-03-16 05:35,-118.6315,38.5448,1282.89,39.20,26.60,60.29,330.00,8.00,0.00,30.06,M,10.00,M,CLR,M,M,M,M,M,M,M,M,M,M,M,M,M,M,32.98,KHTH 160535Z AUTO 33008KT 10SM CLR 04/M03 A3006 RMK A01,M
TMT,2023-03-16 05:35,-117.1971,39.4643,1749.34,30.00,24.10,78.40,20.00,8.00,0.00,30.07,M,10.00,M,CLR,M,M,M,M,M,M,M,M,M,M,M,M,M,M,21.65,KTMT 160535Z AUTO 02008KT 10SM CLR M01/M04 A3007 RMK AO2 T10111044,M
P68,2023-03-16 05:53,-116.0056,39.6014,1993.00,26.10,21.00,80.75,M,4.00,0.00,30.05,1017.40,M,M,M,M,M,M,M,M,M,M,M,M,M,M,M,M,M,20.53,KP68 160553Z AUTO VRB04KT M03/M06 A3005 RMK AO1 SLP174 T10331061 10028 21033 51012,M
ELY,2023-03-16 05:53,-114.8453,39.2950,1909.00,25.00,18.00,74.36,360.00,16.00,0.00,30.00,1015.80,10.00,M,CLR,M,M,M,M,M,M,M,M,M,M,M,M,M,M,11.29,KELY 160553Z AUTO 36016KT 10SM CLR M04/M08 A3000 RMK AO2 SLP158 T10391078 10022 21039 51013,M
VGT,2023-03-16 05:53,-115.1933,36.2111,667.00,54.00,44.00,69.09,110.00,5.00,0.00,29.88,1012.90,10.00,M,OVC,M,M,M,10000.00,M,M,M,M,M,M,M,M,M,M,54.00,KVGT 160553Z AUTO 11005KT 10SM OVC100 12/07 A2988 RMK AO2 SLP129 60000 T01220067 10161 20122 51016,M
LOL,2023-03-16 05:53,-118.5701,40.0684,1192.43,33.00,21.00,60.71,30.00,5.00,0.00,30.08,1019.50,10.00,M,CLR,M,M,M,M,M,M,M,M,M,M,M,M,M,M,27.70,KLOL 160553Z AUTO 03005KT 10SM CLR 01/M06 A3008 RMK AO2 SLP195 T00061061 10100 21017 51013,M
DRA,2023-03-16 05:53,-116.0278,36.6206,1009.00,49.00,40.00,70.95,40.00,7.00,0.00,29.91,1010.50,10.00,M,OVC,M,M,M,8500.00,M,M,M,M,M,M,M,M,M,M,45.38,KDRA 160553Z AUTO 04007KT 10SM OVC085 09/04 A2991 RMK AO2 SLP105 T00940044 10106 20083 51017 $,M
BVU,2023-03-16 05:55,-114.8611,35.9475,671.00,50.00,46.40,87.37,0.00,0.00,0.00,29.89,M,10.00,M,CLR,M,M,M,M,M,M,M,M,M,M,M,M,M,M,50.00,KBVU 160555Z AUTO 00000KT 10SM CLR 10/08 A2989 RMK AO2,M
RTS,2023-03-16 05:55,-119.8764,39.6682,1539.00,33.80,23.00,64.23,60.00,6.00,0.00,30.07,M,10.00,M,CLR,M,M,M,M,M,M,M,M,M,M,M,M,M,M,27.70,KRTS 160555Z AUTO 06006KT 10SM CLR 01/M05 A3007 RMK AO2,M
05U,2023-03-16 05:55,-116.0051,39.6042,1811.23,24.80,21.20,85.96,0.00,0.00,0.00,30.08,M,10.00,M,CLR,M,M,M,M,M,M,M,M,M,M,M,M,M,M,24.80,K05U 160555Z AUTO 00000KT 10SM CLR M04/M06 A3008 RMK A01,M
MEV,2023-03-16 05:55,-119.7500,38.9963,1441.42,35.60,26.60,69.46,340.00,5.00,0.00,30.05,M,10.00,M,FEW,BKN,OVC,M,4400.00,5000.00,6000.00,M,M,M,M,M,M,M,M,30.67,KMEV 160555Z AUTO 34005KT 10SM FEW044 BKN050 OVC060 02/M03 A3005 RMK AO2,M
BAM,2023-03-16 05:55,-116.8743,40.5990,1382.36,33.80,24.80,69.25,60.00,8.00,0.00,30.12,M,10.00,M,CLR,M,M,M,M,M,M,M,M,M,M,M,M,M,M,26.33,KBAM 160555Z AUTO 06008KT 10SM CLR 01/M04 A3012 RMK AO1,M
HTH,2023-03-16 05:55,-118.6315,38.5448,1282.89,37.40,28.40,69.67,320.00,9.00,0.00,30.06,M,10.00,M,CLR,M,M,M,M,M,M,M,M,M,M,M,M,M,M,30.23,KHTH 160555Z AUTO 32009KT 10SM CLR 03/M02 A3006 RMK A01,M
TMT,2023-03-16 05:55,-117.1971,39.4643,1749.34,28.90,23.70,80.64,40.00,6.00,0.00,30.07,M,10.00,M,CLR,M,M,M,M,M,M,M,M,M,M,M,M,M,M,21.80,KTMT 160555Z AUTO 04006KT 10SM CLR M02/M05 A3007 RMK AO2 T10171046 10060 21017,M
LSV,2023-03-16 05:55,-115.0343,36.2362,570.00,52.50,48.20,85.24,90.00,9.00,0.00,29.86,1010.50,10.00,M,FEW,FEW,M,M,6500.00,11000.00,M,M,M,M,M,M,M,M,M,52.50,KLSV 160555Z AUTO 09009KT 10SM FEW065 FEW110 11/09 A2986 RMK AO2 SLP105 60000 T01140090 10178 20114 51017 $,M
INS,2023-03-16 05:55,-115.6733,36.5872,955.00,46.00,44.00,92.32,0.00,0.00,0.00,29.92,1011.30,10.00,M,SCT,OVC,M,M,6500.00,9500.00,M,M,M,M,M,M,M,M,M,46.00,KINS 160555Z AUTO 00000KT 10SM SCT065 OVC095 08/07 A2992 RMK AO2 SLP113 60000 T00780066 10109 20074 52017 $,M
RNO,2023-03-16 05:55,-119.7711,39.4839,1341.00,38.00,24.10,57.18,100.00,5.00,0.00,30.06,1017.50,10.00,M,CLR,M,M,M,M,M,M,M,M,M,M,M,M,M,M,33.40,KRNO 160555Z 10005KT 10SM CLR 03/M04 A3006 RMK AO2 SLP175 T00331044 10106 20033 51013,M
NFL,2023-03-16 05:56,-118.7010,39.4166,1199.00,37.00,24.10,59.24,350.00,10.00,0.00,30.06,1014.80,10.00,M,CLR,M,M,M,M,M,M,M,M,M,M,M,M,M,M,29.24,KNFL 160556Z 35010KT 10SM CLR 03/M04 A3006 RMK AO2 SLP148 T00281044 10111 20028 51015,M
TPH,2023-03-16 05:56,-117.0904,38.0505,1654.00,36.00,23.00,58.85,10.00,14.00,0.00,29.99,1014.00,10.00,M,CLR,M,M,M,M,M,M,M,M,M,M,M,M,M,M,26.32,KTPH 160556Z AUTO 01014KT 10SM CLR 02/M05 A2999 RMK AO2 SLP140 T00221050 10106 20022 51019,M
LAS,2023-03-16 05:56,-115.1634,36.0719,663.00,52.00,46.00,79.92,170.00,3.00,0.00,29.89,1011.40,10.00,M,FEW,SCT,BKN,M,7000.00,12000.00,25000.00,M,M,M,M,M,M,M,M,52.00,KLAS 160556Z 17003KT 10SM FEW070 SCT120 BKN250 11/08 A2989 RMK AO2 SLP114 60000 T01110078 10167 20111 51014,M
EKO,2023-03-16 05:56,-115.7860,40.8242,1367.00,28.00,19.00,68.57,0.00,0.00,M,30.08,1020.30,10.00,M,CLR,M,M,M,M,M,M,M,M,M,M,M,M,M,M,28.00,METAR KEKO 160556Z 00000KT 10SM CLR M02/M07 A3008 RMK AO2 SLP203 T10221072 10033 21028 51013 TSNO FIBI,M
WMC,2023-03-16 05:56,-117.8072,40.9019,1315.00,33.00,21.00,60.71,40.00,12.00,0.00,30.11,1020.20,10.00,M,CLR,M,M,M,M,M,M,M,M,M,M,M,M,M,M,23.40,KWMC 160556Z AUTO 04012KT 10SM CLR 01/M06 A3011 RMK AO2 SLP202 T00061061 10072 20006 51016,M
HND,2023-03-16 05:56,-115.1344,35.9729,742.79,49.00,45.00,86.33,0.00,0.00,0.00,29.91,1014.10,10.00,M,BKN,BKN,M,M,7000.00,12000.00,M,M,M,M,M,M,M,M,M,48.90,KHND 160556Z AUTO 00000KT 10SM BKN070 BKN120 09/07 A2991 RMK AO2 SLP141 60014 T00940072 10150 20094 51016,M
BVU,2023-03-16 06:15,-114.8611,35.9475,671.00,50.00,46.40,87.37,0.00,0.00,0.00,29.90,M,10.00,M,CLR,M,M,M,M,M,M,M,M,M,M,M,M,M,M,50.00,KBVU 160615Z AUTO 00000KT 10SM CLR 10/08 A2990 RMK AO2,M
RTS,2023-03-16 06:15,-119.8764,39.6682,1539.00,32.00,23.00,69.04,140.00,3.00,0.00,30.07,M,10.00,M,CLR,M,M,M,M,M,M,M,M,M,M,M,M,M,M,28.69,KRTS 160615Z AUTO 14003KT 10SM CLR 00/M05 A3007 RMK AO2,M
05U,2023-03-16 06:15,-116.0051,39.6042,1811.23,24.80,21.20,85.96,350.00,6.00,0.00,30.08,M,10.00,M,CLR,M,M,M,M,M,M,M,M,M,M,M,M,M,M,16.86,K05U 160615Z AUTO 35006KT 10SM CLR M04/M06 A3008 RMK A01,M
MEV,2023-03-16 06:15,-119.7500,38.9963,1441.42,35.60,24.80,64.46,0.00,0.00,0.00,30.06,M,10.00,M,FEW,BKN,OVC,M,4500.00,5000.00,6000.00,M,M,M,M,M,M,M,M,35.60,KMEV 160615Z AUTO 00000KT 10SM FEW045 BKN050 OVC060 02/M04 A3006 RMK AO2,M
BAM,2023-03-16 06:15,-116.8743,40.5990,1382.36,32.00,24.80,74.44,40.00,9.00,0.00,30.12,M,10.00,M,CLR,M,M,M,M,M,M,M,M,M,M,M,M,M,M,23.51,KBAM 160615Z AUTO 04009KT 10SM CLR 00/M04 A3012 RMK AO1,M
HTH,2023-03-16 06:15,-118.6315,38.5448,1282.89,39.20,28.40,64.93,330.00,9.00,0.00,30.06,M,10.00,M,CLR,M,M,M,M,M,M,M,M,M,M,M,M,M,M,32.47,KHTH 160615Z AUTO 33009KT 10SM CLR 04/M02 A3006 RMK A01,M
TMT,2023-03-16 06:15,-117.1971,39.4643,1749.34,28.80,23.40,79.96,20.00,8.00,0.00,30.07,M,10.00,M,CLR,M,M,M,M,M,M,M,M,M,M,M,M,M,M,20.17,KTMT 160615Z AUTO 02008KT 10SM CLR M02/M05 A3007 RMK AO2 T10181048,M
BVU,2023-03-16 06:35,-114.8611,35.9475,671.00,50.00,44.60,81.61,0.00,0.00,0.00,29.90,M,10.00,M,CLR,M,M,M,M,M,M,M,M,M,M,M,M,M,M,50.00,KBVU 160635Z AUTO 00000KT 10SM CLR 10/07 A2990 RMK AO2,M
RTS,2023-03-16 06:35,-119.8764,39.6682,1539.00,33.80,23.00,64.23,70.00,4.00,0.00,30.07,M,10.00,M,CLR,M,M,M,M,M,M,M,M,M,M,M,M,M,M,29.52,KRTS 160635Z AUTO 07004KT 10SM CLR 01/M05 A3007 RMK AO2,M
05U,2023-03-16 06:35,-116.0051,39.6042,1811.23,23.00,21.20,92.69,0.00,0.00,0.00,30.08,M,10.00,M,CLR,M,M,M,M,M,M,M,M,M,M,M,M,M,M,23.00,K05U 160635Z AUTO 00000KT 10SM CLR M05/M06 A3008 RMK A01,M
MEV,2023-03-16 06:35,-119.7500,38.9963,1441.42,33.80,26.60,74.63,330.00,4.00,0.00,30.06,M,10.00,M,FEW,BKN,OVC,M,4300.00,4800.00,6000.00,M,M,M,M,M,M,M,M,29.52,KMEV 160635Z AUTO 33004KT 10SM FEW043 BKN048 OVC060 01/M03 A3006 RMK AO2,M
BAM,2023-03-16 06:35,-116.8743,40.5990,1382.36,32.00,24.80,74.44,60.00,5.00,0.00,30.12,M,10.00,M,CLR,M,M,M,M,M,M,M,M,M,M,M,M,M,M,26.40,KBAM 160635Z AUTO 06005KT 10SM CLR 00/M04 A3012 RMK AO1,M
HTH,2023-03-16 06:35,-118.6315,38.5448,1282.89,37.40,28.40,69.67,330.00,9.00,0.00,30.06,M,10.00,M,CLR,M,M,M,M,M,M,M,M,M,M,M,M,M,M,30.23,KHTH 160635Z AUTO 33009KT 10SM CLR 03/M02 A3006 RMK A01,M
TMT,2023-03-16 06:35,-117.1971,39.4643,1749.34,28.20,23.00,80.58,20.00,6.00,0.00,30.08,M,10.00,M,CLR,M,M,M,M,M,M,M,M,M,M,M,M,M,M,20.95,KTMT 160635Z AUTO 02006KT 10SM CLR M02/M05 A3008 RMK AO2 T10211050,M
P68,2023-03-16 06:53,-116.0056,39.6014,1993.00,24.10,19.90,83.75,50.00,3.00,0.00,30.05,1017.70,M,M,M,M,M,M,M,M,M,M,M,M,M,M,M,M,M,19.66,KP68 160653Z AUTO 05003KT M04/M07 A3005 RMK AO1 SLP177 T10441067,M
ELY,2023-03-16 06:53,-114.8453,39.2950,1909.00,24.10,16.00,70.81,10.00,11.00,0.00,30.00,1015.70,10.00,M,CLR,M,M,M,M,M,M,M,M,M,M,M,M,M,M,12.48,KELY 160653Z AUTO 01011KT 10SM CLR M04/M09 A3000 RMK AO2 SLP157 T10441089,M
LOL,2023-03-16 06:53,-118.5701,40.0684,1192.43,26.10,18.00,71.04,140.00,4.00,0.00,30.09,1020.20,10.00,M,CLR,M,M,M,M,M,M,M,M,M,M,M,M,M,M,20.53,KLOL 160653Z AUTO 14004KT 10SM CLR M03/M08 A3009 RMK AO2 SLP202 T10331078,M
DRA,2023-03-16 06:53,-116.0278,36.6206,1009.00,47.00,37.00,68.27,40.00,12.00,0.00,29.92,1011.10,10.00,M,CLR,M,M,M,M,M,M,M,M,M,M,M,M,M,M,40.97,KDRA 160653Z AUTO 04012KT 10SM CLR 08/03 A2992 RMK AO2 SLP111 T00830028 $,M
VGT,2023-03-16 06:53,-115.1933,36.2111,667.00,53.00,44.00,71.40,M,3.00,0.00,29.89,1013.10,10.00,M,BKN,M,M,M,9000.00,M,M,M,M,M,M,M,M,M,M,53.10,KVGT 160653Z AUTO VRB03KT 10SM BKN090 12/07 A2989 RMK AO2 SLP131 T01170067,M
BVU,2023-03-16 06:55,-114.8611,35.9475,671.00,50.00,46.40,87.37,0.00,0.00,0.00,29.90,M,10.00,M,CLR,M,M,M,M,M,M,M,M,M,M,M,M,M,M,50.00,KBVU 160655Z AUTO 00000KT 10SM CLR 10/08 A2990 RMK AO2,M
INS,2023-03-16 06:55,-115.6733,36.5872,955.00,46.00,43.50,90.92,320.00,3.00,0.00,29.92,1011.30,10.00,M,OVC,M,M,M,10000.00,M,M,M,M,M,M,M,M,M,M,44.69,KINS 160655Z AUTO 32003KT 10SM OVC100 08/06 A2992 RMK AO2 SLP113 T00780064 $,M
RNO,2023-03-16 06:55,-119.7711,39.4839,1341.00,36.00,24.10,61.62,0.00,0.00,0.00,30.07,1018.00,10.00,M,CLR,M,M,M,M,M,M,M,M,M,M,M,M,M,M,36.00,KRNO 160655Z 00000KT 10SM CLR 02/M04 A3007 RMK AO2 SLP180 T00221044,M
RTS,2023-03-16 06:55,-119.8764,39.6682,1539.00,32.00,23.00,69.04,0.00,0.00,0.00,30.08,M,10.00,M,CLR,M,M,M,M,M,M,M,M,M,M,M,M,M,M,32.00,KRTS 160655Z AUTO 00000KT 10SM CLR 00/M05 A3008 RMK AO2,M
05U,2023-03-16 06:55,-116.0051,39.6042,1811.23,23.00,21.20,92.69,0.00,0.00,0.00,30.08,M,10.00,M,CLR,M,M,M,M,M,M,M,M,M,M,M,M,M,M,23.00,K05U 160655Z AUTO 00000KT 10SM CLR M05/M06 A3008 RMK A01,M
MEV,2023-03-16 06:55,-119.7500,38.9963,1441.42,33.80,26.60,74.63,330.00,4.00,0.00,30.06,M,10.00,M,SCT,OVC,M,M,4800.00,5500.00,M,M,M,M,M,M,M,M,M,29.52,KMEV 160655Z AUTO 33004KT 10SM SCT048 OVC055 01/M03 A3006 RMK AO2,M
BAM,2023-03-16 06:55,-116.8743,40.5990,1382.36,32.00,24.80,74.44,0.00,0.00,0.00,30.12,M,10.00,M,CLR,M,M,M,M,M,M,M,M,M,M,M,M,M,M,32.00,KBAM 160655Z AUTO 00000KT 10SM CLR 00/M04 A3012 RMK AO1,M
HTH,2023-03-16 06:55,-118.6315,38.5448,1282.89,37.40,24.80,60.04,330.00,10.00,0.00,30.07,M,10.00,M,CLR,M,M,M,M,M,M,M,M,M,M,M,M,M,M,29.74,KHTH 160655Z AUTO 33010KT 10SM CLR 03/M04 A3007 RMK A01,M
TMT,2023-03-16 06:55,-117.1971,39.4643,1749.34,28.00,22.80,80.57,50.00,4.00,0.00,30.08,M,10.00,M,CLR,M,M,M,M,M,M,M,M,M,M,M,M,M,M,22.75,KTMT 160655Z AUTO 05004KT 10SM CLR M02/M05 A3008 RMK AO2 T10221051,M
LSV,2023-03-16 06:55,-115.0343,36.2362,570.00,51.00,50.50,98.53,90.00,9.00,0.00,29.87,1010.70,10.00,M,FEW,M,M,M,10000.00,M,M,M,M,M,M,M,M,M,M,50.90,KLSV 160655Z AUTO 09009KT 10SM FEW100 11/10 A2987 RMK AO2 SLP107 T01050103 $,M
WMC,2023-03-16 06:56,-117.8072,40.9019,1315.00,32.00,21.00,63.45,40.00,11.00,0.00,30.11,1020.30,10.00,M,CLR,M,M,M,M,M,M,M,M,M,M,M,M,M,M,22.47,KWMC 160656Z AUTO 04011KT 10SM CLR 00/M06 A3011 RMK AO2 SLP203 T00001061,M
NFL,2023-03-16 06:56,-118.7010,39.4166,1199.00,36.00,24.10,61.62,350.00,12.00,0.00,30.07,1015.00,10.00,M,CLR,M,M,M,M,M,M,M,M,M,M,M,M,M,M,27.09,KNFL 160656Z AUTO 35012KT 10SM CLR 02/M04 A3007 RMK AO2 SLP150 T00221044,M
HND,2023-03-16 06:56,-115.1344,35.9729,742.79,48.00,45.00,89.29,160.00,3.00,0.00,29.92,1014.40,10.00,M,FEW,M,M,M,6000.00,M,M,M,M,M,M,M,M,M,M,46.98,KHND 160656Z AUTO 16003KT 10SM FEW060 09/07 A2992 RMK AO2 SLP144 T00890072 401940089,M
TPH,2023-03-16 06:56,-117.0904,38.0505,1654.00,34.00,23.00,63.72,20.00,11.00,0.00,30.01,1015.20,10.00,M,CLR,M,M,M,M,M,M,M,M,M,M,M,M,M,M,24.99,KTPH 160656Z AUTO 02011KT 10SM CLR 01/M05 A3001 RMK AO2 SLP152 T00111050,M
LAS,2023-03-16 06:56,-115.1634,36.0719,663.00,52.00,45.00,76.94,0.00,0.00,0.00,29.90,1011.60,10.00,M,FEW,SCT,M,M,7000.00,10000.00,M,M,M,M,M,M,M,M,M,52.00,KLAS 160656Z 00000KT 10SM FEW070 SCT100 11/07 A2990 RMK AO2 SLP116 T01110072,M
EKO,2023-03-16 06:56,-115.7860,40.8242,1367.00,27.00,18.00,68.45,0.00,0.00,M,30.09,1020.90,10.00,M,CLR,M,M,M,M,M,M,M,M,M,M,M,M,M,M,27.00,METAR KEKO 160656Z 00000KT 10SM CLR M03/M08 A3009 RMK AO2 SLP209 T10281078 TSNO $ FIBI,M
BVU,2023-03-16 07:15,-114.8611,35.9475,671.00,48.20,44.60,87.28,0.00,0.00,0.00,29.90,M,10.00,M,CLR,M,M,M,M,M,M,M,M,M,M,M,M,M,M,48.20,KBVU 160715Z AUTO 00000KT 10SM CLR 09/07 A2990 RMK AO2,M
RTS,2023-03-16 07:15,-119.8764,39.6682,1539.00,32.00,23.00,69.04,0.00,0.00,0.00,30.08,M,10.00,M,CLR,M,M,M,M,M,M,M,M,M,M,M,M,M,M,32.00,KRTS 160715Z AUTO 00000KT 10SM CLR 00/M05 A3008 RMK AO2,M
05U,2023-03-16 07:15,-116.0051,39.6042,1811.23,23.00,21.20,92.69,M,3.00,0.00,30.08,M,10.00,M,CLR,M,M,M,M,M,M,M,M,M,M,M,M,M,M,18.40,K05U 160715Z AUTO VRB03KT 10SM CLR M05/M06 A3008 RMK A01,M
MEV,2023-03-16 07:15,-119.7500,38.9963,1441.42,33.80,26.60,74.63,330.00,7.00,0.00,30.06,M,10.00,M,FEW,BKN,OVC,M,4900.00,5500.00,6500.00,M,M,M,M,M,M,M,M,26.97,KMEV 160715Z AUTO 33007KT 10SM FEW049 BKN055 OVC065 01/M03 A3006 RMK AO2,M
BAM,2023-03-16 07:15,-116.8743,40.5990,1382.36,32.00,23.00,69.04,0.00,0.00,0.00,30.12,M,10.00,M,CLR,M,M,M,M,M,M,M,M,M,M,M,M,M,M,32.00,KBAM 160715Z AUTO 00000KT 10SM CLR 00/M05 A3012 RMK AO1,M
HTH,2023-03-16 07:15,-118.6315,38.5448,1282.89,37.40,24.80,60.04,330.00,8.00,0.00,30.07,M,10.00,M,CLR,M,M,M,M,M,M,M,M,M,M,M,M,M,M,30.76,KHTH 160715Z AUTO 33008KT 10SM CLR 03/M04 A3007 RMK A01,M
TMT,2023-03-16 07:15,-117.1971,39.4643,1749.34,28.20,22.60,79.24,10.00,9.00,0.00,30.07,M,10.00,M,CLR,M,M,M,M,M,M,M,M,M,M,M,M,M,M,18.79,KTMT 160715Z AUTO 01009KT 10SM CLR M02/M05 A3007 RMK AO2 T10211052,M
BVU,2023-03-16 07:35,-114.8611,35.9475,671.00,48.20,44.60,87.28,0.00,0.00,0.00,29.90,M,10.00,M,CLR,M,M,M,M,M,M,M,M,M,M,M,M,M,M,48.20,KBVU 160735Z AUTO 00000KT 10SM CLR 09/07 A2990 RMK AO2,M
RTS,2023-03-16 07:35,-119.8764,39.6682,1539.00,32.00,23.00,69.04,60.00,7.00,0.00,30.08,M,10.00,M,CLR,M,M,M,M,M,M,M,M,M,M,M,M,M,M,24.78,KRTS 160735Z AUTO 06007KT 10SM CLR 00/M05 A3008 RMK AO2,M
05U,2023-03-16 07:35,-116.0051,39.6042,1811.23,23.00,19.40,85.85,40.00,5.00,0.00,30.08,M,10.00,M,CLR,M,M,M,M,M,M,M,M,M,M,M,M,M,M,15.71,K05U 160735Z AUTO 04005KT 10SM CLR M05/M07 A3008 RMK A01,M
MEV,2023-03-16 07:35,-119.7500,38.9963,1441.42,33.80,26.60,74.63,0.00,0.00,0.00,30.07,M,10.00,M,FEW,BKN,BKN,M,4300.00,5500.00,6500.00,M,M,M,M,M,M,M,M,33.80,KMEV 160735Z AUTO 00000KT 10SM FEW043 BKN055 BKN065 01/M03 A3007 RMK AO2,M
BAM,2023-03-16 07:35,-116.8743,40.5990,1382.36,32.00,23.00,69.04,0.00,0.00,0.00,30.13,M,10.00,M,CLR,M,M,M,M,M,M,M,M,M,M,M,M,M,M,32.00,KBAM 160735Z AUTO 00000KT 10SM CLR 00/M05 A3013 RMK AO1,M
HTH,2023-03-16 07:35,-118.6315,38.5448,1282.89,37.40,24.80,60.04,320.00,9.00,0.00,30.07,M,10.00,M,SCT,M,M,M,5500.00,M,M,M,M,M,M,M,M,M,M,30.23,KHTH 160735Z AUTO 32009KT 10SM SCT055 03/M04 A3007 RMK A01,M
TMT,2023-03-16 07:35,-117.1971,39.4643,1749.34,28.00,22.30,78.89,30.00,8.00,0.00,30.08,M,10.00,M,CLR,M,M,M,M,M,M,M,M,M,M,M,M,M,M,19.19,KTMT 160735Z AUTO 03008KT 10SM CLR M02/M05 A3008 RMK AO2 T10221054,M
P68,2023-03-16 07:53,-116.0056,39.6014,1993.00,24.10,19.90,83.75,30.00,3.00,0.00,30.06,1018.10,M,M,M,M,M,M,M,M,M,M,M,M,M,M,M,M,M,19.66,KP68 160753Z AUTO 03003KT M04/M07 A3006 RMK AO1 SLP181 T10441067 400561050,M
DRA,2023-03-16 07:53,-116.0278,36.6206,1009.00,45.00,30.90,57.50,30.00,13.00,0.00,29.94,1011.80,10.00,M,CLR,M,M,M,M,M,M,M,M,M,M,M,M,M,M,38.22,KDRA 160753Z AUTO 03013KT 10SM CLR 07/M01 A2994 RMK AO2 SLP118 T00721006 401610072 $,M
ELY,2023-03-16 07:53,-114.8453,39.2950,1909.00,23.00,16.00,74.15,10.00,11.00,0.00,30.02,1016.70,10.00,M,CLR,M,M,M,M,M,M,M,M,M,M,M,M,M,M,11.09,KELY 160753Z AUTO 01011KT 10SM CLR M05/M09 A3002 RMK AO2 SLP167 T10501089 400561050,M
VGT,2023-03-16 07:53,-115.1933,36.2111,667.00,53.00,43.00,68.46,300.00,7.00,0.00,29.91,1013.60,10.00,M,CLR,M,M,M,M,M,M,M,M,M,M,M,M,M,M,53.10,KVGT 160753Z AUTO 30007KT 10SM CLR 12/06 A2991 RMK AO2 SLP136 T01170061 402110111,M
LOL,2023-03-16 07:53,-118.5701,40.0684,1192.43,28.90,19.90,68.67,0.00,0.00,0.00,30.11,1020.50,10.00,M,CLR,M,M,M,M,M,M,M,M,M,M,M,M,M,M,28.90,KLOL 160753Z AUTO 00000KT 10SM CLR M02/M07 A3011 RMK AO2 SLP205 T10171067 401061033,M
BVU,2023-03-16 07:55,-114.8611,35.9475,671.00,48.20,46.40,93.45,0.00,0.00,0.00,29.91,M,10.00,M,CLR,M,M,M,M,M,M,M,M,M,M,M,M,M,M,48.20,KBVU 160755Z AUTO 00000KT 10SM CLR 09/08 A2991 RMK AO2,M
RNO,2023-03-16 07:55,-119.7711,39.4839,1341.00,34.00,24.10,66.72,0.00,0.00,0.00,30.08,1018.30,10.00,M,CLR,M,M,M,M,M,M,M,M,M,M,M,M,M,M,34.00,KRNO 160755Z 00000KT 10SM CLR 01/M04 A3008 RMK AO2 SLP183 T00111044 401110011,M
RTS,2023-03-16 07:55,-119.8764,39.6682,1539.00,32.00,23.00,69.04,80.00,5.00,0.00,30.09,M,10.00,M,CLR,M,M,M,M,M,M,M,M,M,M,M,M,M,M,26.40,KRTS 160755Z AUTO 08005KT 10SM CLR 00/M05 A3009 RMK AO2,M
05U,2023-03-16 07:55,-116.0051,39.6042,1811.23,23.00,19.40,85.85,0.00,0.00,0.00,30.08,M,10.00,M,CLR,M,M,M,M,M,M,M,M,M,M,M,M,M,M,23.00,K05U 160755Z AUTO 00000KT 10SM CLR M05/M07 A3008 RMK A01,M
MEV,2023-03-16 07:55,-119.7500,38.9963,1441.42,32.00,26.60,80.22,0.00,0.00,0.00,30.07,M,10.00,M,FEW,BKN,BKN,M,4300.00,5000.00,6000.00,M,M,M,M,M,M,M,M,32.00,KMEV 160755Z AUTO 00000KT 10SM FEW043 BKN050 BKN060 M00/M03 A3007 RMK AO2,M
BAM,2023-03-16 07:55,-116.8743,40.5990,1382.36,32.00,24.80,74.44,260.00,3.00,0.00,30.13,M,10.00,M,CLR,M,M,M,M,M,M,M,M,M,M,M,M,M,M,28.69,KBAM 160755Z AUTO 26003KT 10SM CLR 00/M04 A3013 RMK AO1,M
HTH,2023-03-16 07:55,-118.6315,38.5448,1282.89,35.60,24.80,64.46,320.00,10.00,0.00,30.08,M,10.00,M,SCT,M,M,M,5500.00,M,M,M,M,M,M,M,M,M,M,27.48,KHTH 160755Z AUTO 32010KT 10SM SCT055 02/M04 A3008 RMK A01,M
TMT,2023-03-16 07:55,-117.1971,39.4643,1749.34,26.80,22.60,83.94,40.00,4.00,0.00,30.08,M,10.00,M,CLR,M,M,M,M,M,M,M,M,M,M,M,M,M,M,21.35,KTMT 160755Z AUTO 04004KT 10SM CLR M03/M05 A3008 RMK AO2 T10291052 400661029,M
LSV,2023-03-16 07:55,-115.0343,36.2362,570.00,50.40,50.00,98.52,0.00,0.00,0.00,29.88,1011.10,10.00,M,CLR,M,M,M,M,M,M,M,M,M,M,M,M,M,M,50.40,KLSV 160755Z AUTO 00000KT 10SM CLR 10/10 A2988 RMK AO2 SLP111 T01020100 402270102 $,M
INS,2023-03-16 07:55,-115.6733,36.5872,955.00,44.20,44.00,99.62,0.00,0.00,0.00,29.94,1012.00,10.00,M,FEW,M,M,M,4000.00,M,M,M,M,M,M,M,M,M,M,44.20,KINS 160755Z AUTO 00000KT 10SM FEW040 07/07 A2994 RMK AO2 SLP120 T00680067 401700067 $,M
WMC,2023-03-16 07:56,-117.8072,40.9019,1315.00,30.90,21.00,66.34,40.00,11.00,0.00,30.12,1020.50,10.00,M,CLR,M,M,M,M,M,M,M,M,M,M,M,M,M,M,21.08,KWMC 160756Z AUTO 04011KT 10SM CLR M01/M06 A3012 RMK AO2 SLP205 T10061061 400831006,M
NFL,2023-03-16 07:56,-118.7010,39.4166,1199.00,36.00,23.00,58.85,360.00,9.00,0.00,30.08,1015.40,10.00,M,CLR,M,M,M,M,M,M,M,M,M,M,M,M,M,M,28.49,KNFL 160756Z AUTO 36009KT 10SM CLR 02/M05 A3008 RMK AO2 SLP154 T00221050 401110017,M
EKO,2023-03-16 07:56,-115.7860,40.8242,1367.00,26.00,18.00,71.33,20.00,4.08,M,30.09,1021.00,10.00,M,CLR,M,M,M,M,M,M,M,M,M,M,M,M,M,M,20.31,METAR KEKO 160756Z 02004KT 10SM CLR M03/M08 A3009 RMK AO2 SLP210 T10331078 400561044 TSNO $ FIBI,M
HND,2023-03-16 07:56,-115.1344,35.9729,742.79,46.00,44.00,93.03,180.00,6.00,0.00,29.93,1014.60,10.00,M,FEW,SCT,M,M,5500.00,9000.00,M,M,M,M,M,M,M,M,M,42.39,KHND 160756Z AUTO 18006KT 10SM FEW055 SCT090 08/07 A2993 RMK AO2 SLP146 T00780067,M
TPH,2023-03-16 07:56,-117.0904,38.0505,1654.00,33.00,23.00,66.06,350.00,10.00,0.00,30.02,1015.20,10.00,M,CLR,M,M,M,M,M,M,M,M,M,M,M,M,M,M,24.35,KTPH 160756Z AUTO 35010KT 10SM CLR 01/M05 A3002 RMK AO2 SLP152 T00061050 401220000,M
LAS,2023-03-16 07:56,-115.1634,36.0719,663.00,51.00,45.00,79.54,210.00,4.00,0.00,29.91,1011.80,10.00,M,FEW,BKN,M,M,6000.00,9000.00,M,M,M,M,M,M,M,M,M,51.10,KLAS 160756Z 21004KT 10SM FEW060 BKN090 11/07 A2991 RMK AO2 SLP118 T01060072 402000106,M
BVU,2023-03-16 08:15,-114.8611,35.9475,671.00,48.20,44.60,87.28,0.00,0.00,0.00,29.91,M,10.00,M,CLR,M,M,M,M,M,M,M,M,M,M,M,M,M,M,48.20,KBVU 160815Z AUTO 00000KT 10SM CLR 09/07 A2991 RMK AO2,M
RTS,2023-03-16 08:15,-119.8764,39.6682,1539.00,32.00,23.00,69.04,100.00,5.00,0.00,30.09,M,10.00,M,CLR,M,M,M,M,M,M,M,M,M,M,M,M,M,M,26.40,KRTS 160815Z AUTO 10005KT 10SM CLR 00/M05 A3009 RMK AO2,M
05U,2023-03-16 08:15,-116.0051,39.6042,1811.23,21.20,19.40,92.63,0.00,0.00,0.00,30.08,M,10.00,M,CLR,M,M,M,M,M,M,M,M,M,M,M,M,M,M,21.20,K05U 160815Z AUTO 00000KT 10SM CLR M06/M07 A3008 RMK A01,M
MEV,2023-03-16 08:15,-119.7500,38.9963,1441.42,32.00,26.60,80.22,330.00,4.00,0.00,30.08,M,10.00,M,BKN,OVC,M,M,4900.00,6000.00,M,M,M,M,M,M,M,M,M,27.42,KMEV 160815Z AUTO 33004KT 10SM BKN049 OVC060 M00/M03 A3008 RMK AO2,M
BAM,2023-03-16 08:15,-116.8743,40.5990,1382.36,30.20,24.80,80.07,0.00,0.00,0.00,30.13,M,10.00,M,CLR,M,M,M,M,M,M,M,M,M,M,M,M,M,M,30.20,KBAM 160815Z AUTO 00000KT 10SM CLR M01/M04 A3013 RMK AO1,M
HTH,2023-03-16 08:15,-118.6315,38.5448,1282.89,37.40,24.80,60.04,330.00,8.00,0.00,30.08,M,10.00,M,SCT,M,M,M,5500.00,M,M,M,M,M,M,M,M,M,M,30.76,KHTH 160815Z AUTO 33008KT 10SM SCT055 03/M04 A3008 RMK A01,M
TMT,2023-03-16 08:15,-117.1971,39.4643,1749.34,25.90,22.10,85.30,50.00,4.00,0.00,30.08,M,10.00,M,CLR,M,M,M,M,M,M,M,M,M,M,M,M,M,M,20.30,KTMT 160815Z AUTO 05004KT 10SM CLR M03/M05 A3008 RMK AO2 T10341055,M
BVU,2023-03-16 08:35,-114.8611,35.9475,671.00,48.20,44.60,87.28,0.00,0.00,0.00,29.92,M,10.00,M,FEW,M,M,M,5500.00,M,M,M,M,M,M,M,M,M,M,48.20,KBVU 160835Z AUTO 00000KT 10SM FEW055 09/07 A2992 RMK AO2,M
RTS,2023-03-16 08:35,-119.8764,39.6682,1539.00,32.00,23.00,69.04,60.00,7.00,0.00,30.09,M,10.00,M,CLR,M,M,M,M,M,M,M,M,M,M,M,M,M,M,24.78,KRTS 160835Z AUTO 06007KT 10SM CLR M00/M05 A3009 RMK AO2,M
05U,2023-03-16 08:35,-116.0051,39.6042,1811.23,21.20,19.40,92.63,0.00,0.00,0.00,30.09,M,10.00,M,CLR,M,M,M,M,M,M,M,M,M,M,M,M,M,M,21.20,K05U 160835Z AUTO 00000KT 10SM CLR M06/M07 A3009 RMK A01,M
MEV,2023-03-16 08:35,-119.7500,38.9963,1441.42,32.00,24.80,74.44,340.00,5.00,0.00,30.08,M,10.00,M,SCT,BKN,M,M,4700.00,5500.00,M,M,M,M,M,M,M,M,M,26.40,KMEV 160835Z AUTO 34005KT 10SM SCT047 BKN055 M00/M04 A3008 RMK AO2,M
BAM,2023-03-16 08:35,-116.8743,40.5990,1382.36,30.20,24.80,80.07,0.00,0.00,0.00,30.13,M,10.00,M,CLR,M,M,M,M,M,M,M,M,M,M,M,M,M,M,30.20,KBAM 160835Z AUTO 00000KT 10SM CLR M01/M04 A3013 RMK AO1,M
HTH,2023-03-16 08:35,-118.6315,38.5448,1282.89,37.40,26.60,64.70,320.00,7.00,0.00,30.08,M,10.00,M,FEW,M,M,M,5500.00,M,M,M,M,M,M,M,M,M,M,31.36,KHTH 160835Z AUTO 32007KT 10SM FEW055 03/M03 A3008 RMK A01,M
TMT,2023-03-16 08:35,-117.1971,39.4643,1749.34,26.20,22.10,84.25,30.00,5.00,0.00,30.08,M,10.00,M,CLR,M,M,M,M,M,M,M,M,M,M,M,M,M,M,19.51,KTMT 160835Z AUTO 03005KT 10SM CLR M03/M05 A3008 RMK AO2 T10321055,M
P68,2023-03-16 08:53,-116.0056,39.6014,1993.00,19.90,17.10,88.68,0.00,0.00,0.00,30.06,1018.60,M,M,M,M,M,M,M,M,M,M,M,M,M,M,M,M,M,19.90,KP68 160853Z AUTO 00000KT M07/M08 A3006 RMK AO1 SLP186 T10671083 53004,M
DRA,2023-03-16 08:53,-116.0278,36.6206,1009.00,43.00,27.00,52.91,20.00,15.00,0.00,29.95,1012.20,10.00,M,CLR,M,M,M,M,M,M,M,M,M,M,M,M,M,M,35.04,KDRA 160853Z AUTO 02015KT 10SM CLR 06/M03 A2995 RMK AO2 SLP122 T00611028 51014 $,M
ELY,2023-03-16 08:53,-114.8453,39.2950,1909.00,21.90,16.00,77.67,10.00,11.00,0.00,30.02,1017.20,10.00,M,CLR,M,M,M,M,M,M,M,M,M,M,M,M,M,M,9.70,KELY 160853Z AUTO 01011KT 10SM CLR M06/M09 A3002 RMK AO2 SLP172 T10561089 51006,M
LOL,2023-03-16 08:53,-118.5701,40.0684,1192.43,30.00,19.90,65.66,50.00,8.00,0.00,30.11,1020.50,10.00,M,CLR,M,M,M,M,M,M,M,M,M,M,M,M,M,M,21.65,KLOL 160853Z AUTO 05008KT 10SM CLR M01/M07 A3011 RMK AO2 SLP205 T10111067 51009,M
VGT,2023-03-16 08:53,-115.1933,36.2111,667.00,52.00,42.00,68.86,0.00,0.00,0.00,29.92,1013.90,10.00,M,CLR,M,M,M,M,M,M,M,M,M,M,M,M,M,M,52.00,KVGT 160853Z AUTO 00000KT 10SM CLR 11/06 A2992 RMK AO2 SLP139 T01110056 53011,M
BVU,2023-03-16 08:55,-114.8611,35.9475,671.00,48.20,42.80,81.47,0.00,0.00,0.00,29.92,M,10.00,M,SCT,M,M,M,6000.00,M,M,M,M,M,M,M,M,M,M,48.20,KBVU 160855Z AUTO 00000KT 10SM SCT060 09/06 A2992 RMK AO2,M
INS,2023-03-16 08:55,-115.6733,36.5872,955.00,43.00,36.00,76.12,260.00,5.00,0.00,29.95,1012.30,10.00,M,SCT,M,M,M,4500.00,M,M,M,M,M,M,M,M,M,M,39.46,KINS 160855Z AUTO 26005KT 10SM SCT045 06/02 A2995 RMK AO2 SLP123 T00610022 52013 $,M
RNO,2023-03-16 08:55,-119.7711,39.4839,1341.00,34.00,24.10,66.72,250.00,4.00,0.00,30.09,1018.40,10.00,M,CLR,M,M,M,M,M,M,M,M,M,M,M,M,M,M,29.76,KRNO 160855Z 25004KT 10SM CLR 01/M04 A3009 RMK AO2 SLP184 T00111044 51008,M
RTS,2023-03-16 08:55,-119.8764,39.6682,1539.00,30.20,23.00,74.26,110.00,5.00,0.00,30.09,M,10.00,M,CLR,M,M,M,M,M,M,M,M,M,M,M,M,M,M,24.26,KRTS 160855Z AUTO 11005KT 10SM CLR M01/M05 A3009 RMK AO2,M
05U,2023-03-16 08:55,-116.0051,39.6042,1811.23,19.40,17.60,92.57,0.00,0.00,0.00,30.09,M,10.00,M,CLR,M,M,M,M,M,M,M,M,M,M,M,M,M,M,19.40,K05U 160855Z AUTO 00000KT 10SM CLR M07/M08 A3009 RMK A01,M
MEV,2023-03-16 08:55,-119.7500,38.9963,1441.42,32.00,26.60,80.22,330.00,5.00,0.00,30.08,M,10.00,M,SCT,OVC,M,M,4800.00,5500.00,M,M,M,M,M,M,M,M,M,26.40,KMEV 160855Z AUTO 33005KT 10SM SCT048 OVC055 M00/M03 A3008 RMK AO2,M
BAM,2023-03-16 08:55,-116.8743,40.5990,1382.36,30.20,24.80,80.07,0.00,0.00,0.00,30.14,M,10.00,M,CLR,M,M,M,M,M,M,M,M,M,M,M,M,M,M,30.20,KBAM 160855Z AUTO 00000KT 10SM CLR M01/M04 A3014 RMK AO1,M
HTH,2023-03-16 08:55,-118.6315,38.5448,1282.89,35.60,26.60,69.46,340.00,5.00,0.00,30.08,M,10.00,M,CLR,M,M,M,M,M,M,M,M,M,M,M,M,M,M,30.67,KHTH 160855Z AUTO 34005KT 10SM CLR 02/M03 A3008 RMK A01,M
TMT,2023-03-16 08:55,-117.1971,39.4643,1749.34,26.60,22.10,82.87,360.00,8.00,0.00,30.09,M,10.00,M,CLR,M,M,M,M,M,M,M,M,M,M,M,M,M,M,17.46,KTMT 160855Z AUTO 36008KT 10SM CLR M03/M05 A3009 RMK AO2 T10301055,M
LSV,2023-03-16 08:55,-115.0343,36.2362,570.00,48.60,48.20,98.51,20.00,3.00,0.00,29.91,1012.10,10.00,M,CLR,M,M,M,M,M,M,M,M,M,M,M,M,M,M,47.67,KLSV 160855Z AUTO 02003KT 10SM CLR 09/09 A2991 RMK AO2 SLP121 T00920090 52015 $,M
WMC,2023-03-16 08:56,-117.8072,40.9019,1315.00,30.00,19.90,65.66,40.00,11.00,0.00,30.13,1020.90,10.00,M,CLR,M,M,M,M,M,M,M,M,M,M,M,M,M,M,19.94,KWMC 160856Z AUTO 04011KT 10SM CLR M01/M07 A3013 RMK AO2 SLP209 T10111067 53005,M
NFL,2023-03-16 08:56,-118.7010,39.4166,1199.00,33.00,23.00,66.06,360.00,9.00,0.00,30.09,1015.60,10.00,M,CLR,M,M,M,M,M,M,M,M,M,M,M,M,M,M,24.88,KNFL 160856Z AUTO 36009KT 10SM CLR 01/M05 A3009 RMK AO2 SLP156 T00061050 53008,M
HND,2023-03-16 08:56,-115.1344,35.9729,742.79,45.00,43.00,92.65,160.00,6.00,0.00,29.94,1015.10,10.00,M,CLR,M,M,M,M,M,M,M,M,M,M,M,M,M,M,41.19,KHND 160856Z AUTO 16006KT 10SM CLR 07/06 A2994 RMK AO2 SLP151 T00720061 53009,M
TPH,2023-03-16 08:56,-117.0904,38.0505,1654.00,30.90,21.00,66.34,350.00,8.00,0.00,30.02,1015.40,10.00,M,CLR,M,M,M,M,M,M,M,M,M,M,M,M,M,M,22.76,KTPH 160856Z AUTO 35008KT 10SM CLR M01/M06 A3002 RMK AO2 SLP154 T10061061 51007,M
LAS,2023-03-16 08:56,-115.1634,36.0719,663.00,51.00,45.00,79.54,0.00,0.00,0.00,29.92,1012.40,10.00,M,FEW,SCT,M,M,6000.00,9000.00,M,M,M,M,M,M,M,M,M,51.10,KLAS 160856Z 00000KT 10SM FEW060 SCT090 11/07 A2992 RMK AO2 SLP124 T01060072 53012,M
EKO,2023-03-16 08:56,-115.7860,40.8242,1367.00,24.00,17.00,74.26,0.00,0.00,M,30.10,1021.40,10.00,M,CLR,M,M,M,M,M,M,M,M,M,M,M,M,M,M,24.00,METAR KEKO 160856Z 00000KT 10SM CLR M04/M08 A3010 RMK AO2 SLP214 T10441083 51007 TSNO $ FIBI,M
BVU,2023-03-16 09:15,-114.8611,35.9475,671.00,50.00,42.80,76.18,350.00,10.00,0.00,29.92,M,10.00,M,CLR,M,M,M,M,M,M,M,M,M,M,M,M,M,M,50.00,KBVU 160915Z AUTO 35010KT 10SM CLR 10/06 A2992 RMK AO2,M
RTS,2023-03-16 09:15,-119.8764,39.6682,1539.00,30.20,23.00,74.26,80.00,6.00,0.00,30.09,M,10.00,M,CLR,M,M,M,M,M,M,M,M,M,M,M,M,M,M,23.36,KRTS 160915Z AUTO 08006KT 10SM CLR M01/M05 A3009 RMK AO2,M
05U,2023-03-16 09:15,-116.0051,39.6042,1811.23,M,M,M,M,M,0.00,30.09,M,10.00,M,CLR,M,M,M,M,M,M,M,M,M,M,M,M,M,M,M,K05U 160915Z AUTO 10SM CLR A3009 RMK A01,M
MEV,2023-03-16 09:15,-119.7500,38.9963,1441.42,32.00,26.60,80.22,330.00,7.00,0.00,30.09,M,10.00,M,BKN,OVC,M,M,4700.00,5500.00,M,M,M,M,M,M,M,M,M,24.78,KMEV 160915Z AUTO 33007KT 10SM BKN047 OVC055 M00/M03 A3009 RMK AO2,M
BAM,2023-03-16 09:15,-116.8743,40.5990,1382.36,30.20,23.00,74.26,0.00,0.00,0.00,30.14,M,10.00,M,CLR,M,M,M,M,M,M,M,M,M,M,M,M,M,M,30.20,KBAM 160915Z AUTO 00000KT 10SM CLR M01/M05 A3014 RMK AO1,M
HTH,2023-03-16 09:15,-118.6315,38.5448,1282.89,35.60,26.60,69.46,310.00,6.00,0.00,30.09,M,10.00,M,FEW,M,M,M,5500.00,M,M,M,M,M,M,M,M,M,M,29.87,KHTH 160915Z AUTO 31006KT 10SM FEW055 02/M03 A3009 RMK A01,M
TMT,2023-03-16 09:15,-117.1971,39.4643,1749.34,26.60,21.70,81.48,20.00,8.00,0.00,30.09,M,10.00,M,CLR,M,M,M,M,M,M,M,M,M,M,M,M,M,M,17.46,KTMT 160915Z AUTO 02008KT 10SM CLR M03/M06 A3009 RMK AO2 T10301057,M
BVU,2023-03-16 09:35,-114.8611,35.9475,671.00,50.00,41.00,71.07,350.00,10.00,0.00,29.92,M,10.00,M,CLR,M,M,M,M,M,M,M,M,M,M,M,M,M,M,50.00,KBVU 160935Z AUTO 35010KT 10SM CLR 10/05 A2992 RMK AO2,M
RTS,2023-03-16 09:35,-119.8764,39.6682,1539.00,30.20,23.00,74.26,100.00,6.00,0.00,30.09,M,10.00,M,CLR,M,M,M,M,M,M,M,M,M,M,M,M,M,M,23.36,KRTS 160935Z AUTO 10006KT 10SM CLR M01/M05 A3009 RMK AO2,M
05U,2023-03-16 09:35,-116.0051,39.6042,1811.23,M,M,M,M,3.00,0.00,30.10,M,10.00,M,CLR,M,M,M,M,M,M,M,M,M,M,M,M,M,M,M,K05U 160935Z AUTO VRB03KT 10SM CLR A3010 RMK A01,M
MEV,2023-03-16 09:35,-119.7500,38.9963,1441.42,30.20,24.80,80.07,10.00,7.00,0.00,30.09,M,10.00,M,BKN,OVC,M,M,4600.00,5500.00,M,M,M,M,M,M,M,M,M,22.59,KMEV 160935Z AUTO 01007KT 10SM BKN046 OVC055 M01/M04 A3009 RMK AO2,M
BAM,2023-03-16 09:35,-116.8743,40.5990,1382.36,30.20,23.00,74.26,0.00,0.00,0.00,30.14,M,10.00,M,CLR,M,M,M,M,M,M,M,M,M,M,M,M,M,M,30.20,KBAM 160935Z AUTO 00000KT 10SM CLR M01/M05 A3014 RMK AO1,M
HTH,2023-03-16 09:35,-118.6315,38.5448,1282.89,35.60,24.80,64.46,310.00,6.00,0.00,30.10,M,10.00,M,BKN,M,M,M,5500.00,M,M,M,M,M,M,M,M,M,M,29.87,KHTH 160935Z AUTO 31006KT 10SM BKN055 02/M04 A3010 RMK A01,M
TMT,2023-03-16 09:35,-117.1971,39.4643,1749.34,26.60,21.20,79.77,10.00,8.00,0.00,30.09,M,10.00,M,CLR,M,M,M,M,M,M,M,M,M,M,M,M,M,M,17.46,KTMT 160935Z AUTO 01008KT 10SM CLR M03/M06 A3009 RMK AO2 T10301060,M
05U,2023-03-16 09:50,-116.0051,39.6042,1811.23,17.60,15.80,92.50,0.00,0.00,0.00,30.10,M,10.00,M,CLR,M,M,M,M,M,M,M,M,M,M,M,M,M,M,17.60,K05U 160950Z AUTO 00000KT 10SM CLR M08/M09 A3010 RMK A01,M
P68,2023-03-16 09:53,-116.0056,39.6014,1993.00,19.90,16.00,84.55,180.00,3.00,0.00,30.07,1019.10,M,M,M,M,M,M,M,M,M,M,M,M,M,M,M,M,M,14.86,KP68 160953Z AUTO 18003KT M07/M09 A3007 RMK AO1 SLP191 T10671089,M
DRA,2023-03-16 09:53,-116.0278,36.6206,1009.00,42.00,26.10,52.78,60.00,10.00,0.00,29.96,1013.40,10.00,21.00,CLR,M,M,M,M,M,M,M,M,M,M,M,M,M,M,35.63,KDRA 160953Z AUTO 06010G21KT 10SM CLR 06/M03 A2996 RMK AO2 SLP134 T00561033 $,M
ELY,2023-03-16 09:53,-114.8453,39.2950,1909.00,21.00,16.00,80.69,20.00,14.00,0.00,30.03,1017.50,10.00,M,CLR,M,M,M,M,M,M,M,M,M,M,M,M,M,M,6.98,KELY 160953Z AUTO 02014KT 10SM CLR M06/M09 A3003 RMK AO2 SLP175 T10611089,M
VGT,2023-03-16 09:53,-115.1933,36.2111,667.00,53.00,32.00,44.42,320.00,12.00,0.00,29.92,1014.10,10.00,18.00,CLR,M,M,M,M,M,M,M,M,M,M,M,M,M,M,53.10,KVGT 160953Z AUTO 32012G18KT 10SM CLR 12/00 A2992 RMK AO2 SLP141 T01170000,M
LOL,2023-03-16 09:53,-118.5701,40.0684,1192.43,25.00,18.00,74.36,50.00,4.00,0.00,30.12,1021.10,10.00,M,CLR,M,M,M,M,M,M,M,M,M,M,M,M,M,M,19.25,KLOL 160953Z AUTO 05004KT 10SM CLR M04/M08 A3012 RMK AO2 SLP211 T10391078,M
BVU,2023-03-16 09:55,-114.8611,35.9475,671.00,50.00,41.00,71.07,360.00,9.00,0.00,29.93,M,10.00,M,CLR,M,M,M,M,M,M,M,M,M,M,M,M,M,M,50.00,KBVU 160955Z AUTO 36009KT 10SM CLR 10/05 A2993 RMK AO2,M
INS,2023-03-16 09:55,-115.6733,36.5872,955.00,42.00,32.00,67.17,0.00,0.00,0.00,29.97,1013.00,10.00,M,CLR,M,M,M,M,M,M,M,M,M,M,M,M,M,M,42.10,KINS 160955Z AUTO 00000KT 10SM CLR 06/00 A2997 RMK AO2 SLP130 T00560000 $,M
RNO,2023-03-16 09:55,-119.7711,39.4839,1341.00,35.00,23.00,60.99,0.00,0.00,0.00,30.09,1018.20,10.00,M,CLR,M,M,M,M,M,M,M,M,M,M,M,M,M,M,35.10,KRNO 160955Z 00000KT 10SM CLR 02/M05 A3009 RMK AO2 SLP182 T00171050,M
RTS,2023-03-16 09:55,-119.8764,39.6682,1539.00,30.20,23.00,74.26,80.00,4.00,0.00,30.10,M,10.00,M,CLR,M,M,M,M,M,M,M,M,M,M,M,M,M,M,25.32,KRTS 160955Z AUTO 08004KT 10SM CLR M01/M05 A3010 RMK AO2,M
MEV,2023-03-16 09:55,-119.7500,38.9963,1441.42,30.20,24.80,80.07,30.00,4.00,0.00,30.09,M,10.00,M,FEW,BKN,OVC,M,3500.00,4400.00,5000.00,M,M,M,M,M,M,M,M,25.32,KMEV 160955Z AUTO 03004KT 10SM FEW035 BKN044 OVC050 M01/M04 A3009 RMK AO2,M
BAM,2023-03-16 09:55,-116.8743,40.5990,1382.36,28.40,23.00,79.92,290.00,4.00,0.00,30.14,M,10.00,M,CLR,M,M,M,M,M,M,M,M,M,M,M,M,M,M,23.22,KBAM 160955Z AUTO 29004KT 10SM CLR M02/M05 A3014 RMK AO1,M
HTH,2023-03-16 09:55,-118.6315,38.5448,1282.89,35.60,24.80,64.46,310.00,5.00,0.00,30.10,M,10.00,M,OVC,M,M,M,5500.00,M,M,M,M,M,M,M,M,M,M,30.67,KHTH 160955Z AUTO 31005KT 10SM OVC055 02/M04 A3010 RMK A01,M
TMT,2023-03-16 09:55,-117.1971,39.4643,1749.34,26.20,21.60,82.49,20.00,6.00,0.00,30.09,M,10.00,M,CLR,M,M,M,M,M,M,M,M,M,M,M,M,M,M,18.54,KTMT 160955Z AUTO 02006KT 10SM CLR M03/M06 A3009 RMK AO2 T10321058,M
LSV,2023-03-16 09:55,-115.0343,36.2362,570.00,47.50,47.00,98.51,80.00,8.00,0.00,29.91,1012.00,10.00,M,CLR,M,M,M,M,M,M,M,M,M,M,M,M,M,M,43.21,KLSV 160955Z AUTO 08008KT 10SM CLR 09/08 A2991 RMK AO2 SLP120 T00860084 $,M
WMC,2023-03-16 09:56,-117.8072,40.9019,1315.00,28.90,19.90,68.67,50.00,10.00,0.00,30.14,1021.20,10.00,M,CLR,M,M,M,M,M,M,M,M,M,M,M,M,M,M,19.08,KWMC 160956Z AUTO 05010KT 10SM CLR M02/M07 A3014 RMK AO2 SLP212 T10171067,M
NFL,2023-03-16 09:56,-118.7010,39.4166,1199.00,30.00,23.00,74.87,170.00,6.00,0.00,30.11,1016.20,10.00,M,CLR,M,M,M,M,M,M,M,M,M,M,M,M,M,M,23.12,KNFL 160956Z AUTO 17006KT 10SM CLR M01/M05 A3011 RMK AO2 SLP162 T10111050,M
HND,2023-03-16 09:56,-115.1344,35.9729,742.79,44.00,41.00,88.77,140.00,3.00,0.00,29.95,1015.60,10.00,M,CLR,M,M,M,M,M,M,M,M,M,M,M,M,M,M,42.52,KHND 160956Z AUTO 14003KT 10SM CLR 07/05 A2995 RMK AO2 SLP156 T00670050,M
TPH,2023-03-16 09:56,-117.0904,38.0505,1654.00,30.90,21.00,66.34,360.00,15.00,0.00,30.03,1015.50,10.00,M,CLR,M,M,M,M,M,M,M,M,M,M,M,M,M,M,19.35,KTPH 160956Z AUTO 36015KT 10SM CLR M01/M06 A3003 RMK AO2 SLP155 T10061061,M
EKO,2023-03-16 09:56,-115.7860,40.8242,1367.00,23.00,17.00,77.44,0.00,0.00,M,30.11,1021.80,10.00,M,CLR,M,M,M,M,M,M,M,M,M,M,M,M,M,M,23.00,METAR KEKO 160956Z 00000KT 10SM CLR M05/M08 A3011 RMK AO2 SLP218 T10501083 TSNO $ FIBI,M
LAS,2023-03-16 09:56,-115.1634,36.0719,663.00,49.00,44.00,83.42,0.00,0.00,0.00,29.93,1013.00,10.00,M,FEW,M,M,M,9000.00,M,M,M,M,M,M,M,M,M,M,48.90,KLAS 160956Z 00000KT 10SM FEW090 09/07 A2993 RMK AO2 SLP130 T00940067,M
BVU,2023-03-16 10:15,-114.8611,35.9475,671.00,50.00,39.20,66.27,350.00,9.00,0.00,29.93,M,10.00,M,CLR,M,M,M,M,M,M,M,M,M,M,M,M,M,M,50.00,KBVU 161015Z AUTO 35009KT 10SM CLR 10/04 A2993 RMK AO2,M
RTS,2023-03-16 10:15,-119.8764,39.6682,1539.00,28.40,23.00,79.92,60.00,6.00,0.00,30.09,M,10.00,M,CLR,M,M,M,M,M,M,M,M,M,M,M,M,M,M,21.19,KRTS 161015Z AUTO 06006KT 10SM CLR M02/M05 A3009 RMK AO2,M
05U,2023-03-16 10:15,-116.0051,39.6042,1811.23,17.60,15.80,92.50,0.00,0.00,0.00,30.10,M,10.00,M,CLR,M,M,M,M,M,M,M,M,M,M,M,M,M,M,17.60,K05U 161015Z AUTO 00000KT 10SM CLR M08/M09 A3010 RMK A01,M
MEV,2023-03-16 10:15,-119.7500,38.9963,1441.42,32.00,24.80,74.44,20.00,4.00,0.00,30.09,M,10.00,M,BKN,OVC,M,M,4300.00,5000.00,M,M,M,M,M,M,M,M,M,27.42,KMEV 161015Z AUTO 02004KT 10SM BKN043 OVC050 00/M04 A3009 RMK AO2,M
BAM,2023-03-16 10:15,-116.8743,40.5990,1382.36,28.40,23.00,79.92,0.00,0.00,0.00,30.15,M,10.00,M,CLR,M,M,M,M,M,M,M,M,M,M,M,M,M,M,28.40,KBAM 161015Z AUTO 00000KT 10SM CLR M02/M05 A3015 RMK AO1,M
HTH,2023-03-16 10:15,-118.6315,38.5448,1282.89,35.60,26.60,69.46,310.00,5.00,0.00,30.10,M,10.00,M,BKN,M,M,M,5500.00,M,M,M,M,M,M,M,M,M,M,30.67,KHTH 161015Z AUTO 31005KT 10SM BKN055 02/M03 A3010 RMK A01,M
TMT,2023-03-16 10:15,-117.1971,39.4643,1749.34,25.70,21.90,85.29,20.00,5.00,0.00,30.10,M,10.00,M,CLR,M,M,M,M,M,M,M,M,M,M,M,M,M,M,18.91,KTMT 161015Z AUTO 02005KT 10SM CLR M03/M06 A3010 RMK AO2 T10351056,M
BVU,2023-03-16 10:35,-114.8611,35.9475,671.00,50.00,39.20,66.27,350.00,8.00,0.00,29.93,M,10.00,13.00,CLR,M,M,M,M,M,M,M,M,M,M,M,M,M,M,50.00,KBVU 161035Z AUTO 35008G13KT 10SM CLR 10/04 A2993 RMK AO2,M
RTS,2023-03-16 10:35,-119.8764,39.6682,1539.00,28.40,23.00,79.92,50.00,5.00,0.00,30.09,M,10.00,M,CLR,M,M,M,M,M,M,M,M,M,M,M,M,M,M,22.12,KRTS 161035Z AUTO 05005KT 10SM CLR M02/M05 A3009 RMK AO2,M
05U,2023-03-16 10:35,-116.0051,39.6042,1811.23,17.60,15.80,92.50,M,4.00,0.00,30.09,M,10.00,M,CLR,M,M,M,M,M,M,M,M,M,M,M,M,M,M,10.60,K05U 161035Z AUTO VRB04KT 10SM CLR M08/M09 A3009 RMK A01,M
MEV,2023-03-16 10:35,-119.7500,38.9963,1441.42,30.20,24.80,80.07,0.00,0.00,0.00,30.09,M,10.00,M,BKN,BKN,OVC,M,4300.00,5000.00,5500.00,M,M,M,M,M,M,M,M,30.20,KMEV 161035Z AUTO 00000KT 10SM BKN043 BKN050 OVC055 M01/M04 A3009 RMK AO2,M
BAM,2023-03-16 10:35,-116.8743,40.5990,1382.36,28.40,23.00,79.92,0.00,0.00,0.00,30.15,M,10.00,M,CLR,M,M,M,M,M,M,M,M,M,M,M,M,M,M,28.40,KBAM 161035Z AUTO 00000KT 10SM CLR M02/M05 A3015 RMK AO1,M
HTH,2023-03-16 10:35,-118.6315,38.5448,1282.89,33.80,26.60,74.63,300.00,8.00,0.00,30.10,M,10.00,M,FEW,M,M,M,6000.00,M,M,M,M,M,M,M,M,M,M,26.33,KHTH 161035Z AUTO 30008KT 10SM FEW060 01/M03 A3010 RMK A01,M
TMT,2023-03-16 10:35,-117.1971,39.4643,1749.34,24.80,21.60,87.43,80.00,3.00,0.00,30.10,M,10.00,M,CLR,M,M,M,M,M,M,M,M,M,M,M,M,M,M,20.46,KTMT 161035Z AUTO 08003KT 10SM CLR M04/M06 A3010 RMK AO2 T10401058,M
P68,2023-03-16 10:53,-116.0056,39.6014,1993.00,19.90,16.00,84.55,190.00,5.00,0.00,30.08,1019.00,M,M,M,M,M,M,M,M,M,M,M,M,M,M,M,M,M,12.03,KP68 161053Z AUTO 19005KT M07/M09 A3008 RMK AO1 SLP190 T10671089,M
DRA,2023-03-16 10:53,-116.0278,36.6206,1009.00,42.00,26.10,52.78,60.00,13.00,0.00,29.96,1013.20,10.00,M,FEW,M,M,M,4800.00,M,M,M,M,M,M,M,M,M,M,34.51,KDRA 161053Z AUTO 06013KT 10SM FEW048 06/M03 A2996 RMK AO2 SLP132 T00561033 $,M
ELY,2023-03-16 10:53,-114.8453,39.2950,1909.00,21.00,16.00,80.69,30.00,15.00,0.00,30.04,1018.10,10.00,M,CLR,M,M,M,M,M,M,M,M,M,M,M,M,M,M,6.52,KELY 161053Z AUTO 03015KT 10SM CLR M06/M09 A3004 RMK AO2 SLP181 T10611089,M
VGT,2023-03-16 10:53,-115.1933,36.2111,667.00,52.00,30.90,44.24,340.00,9.00,0.00,29.93,1014.50,10.00,M,CLR,M,M,M,M,M,M,M,M,M,M,M,M,M,M,52.00,KVGT 161053Z AUTO 34009KT 10SM CLR 11/M01 A2993 RMK AO2 SLP145 T01111006,M
LOL,2023-03-16 10:53,-118.5701,40.0684,1192.43,27.00,19.90,74.25,0.00,0.00,0.00,30.12,1021.00,10.00,M,CLR,M,M,M,M,M,M,M,M,M,M,M,M,M,M,27.00,KLOL 161053Z AUTO 00000KT 10SM CLR M03/M07 A3012 RMK AO2 SLP210 T10281067,M
BVU,2023-03-16 10:55,-114.8611,35.9475,671.00,50.00,37.40,61.76,340.00,10.00,0.00,29.93,M,10.00,M,CLR,M,M,M,M,M,M,M,M,M,M,M,M,M,M,50.00,KBVU 161055Z AUTO 34010KT 10SM CLR 10/03 A2993 RMK AO2,M
RNO,2023-03-16 10:55,-119.7711,39.4839,1341.00,33.00,21.90,63.06,0.00,0.00,0.00,30.09,1018.20,10.00,M,CLR,M,M,M,M,M,M,M,M,M,M,M,M,M,M,33.10,KRNO 161055Z 00000KT 10SM CLR 01/M06 A3009 RMK AO2 SLP182 T00061056,M
RTS,2023-03-16 10:55,-119.8764,39.6682,1539.00,28.40,23.00,79.92,60.00,7.00,0.00,30.09,M,10.00,M,CLR,M,M,M,M,M,M,M,M,M,M,M,M,M,M,20.39,KRTS 161055Z AUTO 06007KT 10SM CLR M02/M05 A3009 RMK AO2,M
05U,2023-03-16 10:55,-116.0051,39.6042,1811.23,19.40,15.80,85.63,M,4.00,0.00,30.10,M,10.00,M,CLR,M,M,M,M,M,M,M,M,M,M,M,M,M,M,12.71,K05U 161055Z AUTO VRB04KT 10SM CLR M07/M09 A3010 RMK A01,M
MEV,2023-03-16 10:55,-119.7500,38.9963,1441.42,28.40,24.80,86.18,0.00,0.00,0.00,30.09,M,10.00,M,FEW,SCT,BKN,M,3400.00,4100.00,4900.00,M,M,M,M,M,M,M,M,28.40,KMEV 161055Z AUTO 00000KT 10SM FEW034 SCT041 BKN049 M02/M04 A3009 RMK AO2,M
BAM,2023-03-16 10:55,-116.8743,40.5990,1382.36,28.40,23.00,79.92,320.00,4.00,0.00,30.15,M,10.00,M,CLR,M,M,M,M,M,M,M,M,M,M,M,M,M,M,23.22,KBAM 161055Z AUTO 32004KT 10SM CLR M02/M05 A3015 RMK AO1,M
HTH,2023-03-16 10:55,-118.6315,38.5448,1282.89,33.80,26.60,74.63,310.00,9.00,0.00,30.10,M,10.00,M,FEW,M,M,M,5500.00,M,M,M,M,M,M,M,M,M,M,25.75,KHTH 161055Z AUTO 31009KT 10SM FEW055 01/M03 A3010 RMK A01,M
TMT,2023-03-16 10:55,-117.1971,39.4643,1749.34,23.50,21.60,92.31,0.00,0.00,0.00,30.10,M,10.00,M,CLR,M,M,M,M,M,M,M,M,M,M,M,M,M,M,23.50,KTMT 161055Z AUTO 00000KT 10SM CLR M05/M06 A3010 RMK AO2 T10471058,M
LSV,2023-03-16 10:55,-115.0343,36.2362,570.00,47.70,47.30,98.51,20.00,3.00,0.00,29.92,1012.60,10.00,M,CLR,M,M,M,M,M,M,M,M,M,M,M,M,M,M,46.64,KLSV 161055Z AUTO 02003KT 10SM CLR 09/09 A2992 RMK AO2 SLP126 T00870085 $,M
INS,2023-03-16 10:55,-115.6733,36.5872,955.00,42.00,30.40,62.96,0.00,0.00,0.00,29.97,1013.50,10.00,M,CLR,M,M,M,M,M,M,M,M,M,M,M,M,M,M,42.10,KINS 161055Z AUTO 00000KT 10SM CLR 06/M01 A2997 RMK AO2 SLP135 T00561009 $,M
WMC,2023-03-16 10:56,-117.8072,40.9019,1315.00,28.00,19.00,68.57,40.00,9.00,0.00,30.14,1021.30,10.00,M,CLR,M,M,M,M,M,M,M,M,M,M,M,M,M,M,18.54,KWMC 161056Z AUTO 04009KT 10SM CLR M02/M07 A3014 RMK AO2 SLP213 T10221072,M
NFL,2023-03-16 10:56,-118.7010,39.4166,1199.00,28.90,23.00,78.30,0.00,0.00,0.00,30.11,1016.30,10.00,M,CLR,M,M,M,M,M,M,M,M,M,M,M,M,M,M,28.90,KNFL 161056Z AUTO 00000KT 10SM CLR M02/M05 A3011 RMK AO2 SLP163 T10171050,M
HND,2023-03-16 10:56,-115.1344,35.9729,742.79,43.00,41.00,92.58,190.00,4.00,0.00,29.96,1016.40,10.00,M,CLR,M,M,M,M,M,M,M,M,M,M,M,M,M,M,40.27,KHND 161056Z AUTO 19004KT 10SM CLR 06/05 A2996 RMK AO2 SLP164 T00610050,M
TPH,2023-03-16 10:56,-117.0904,38.0505,1654.00,28.90,19.90,68.67,360.00,7.00,0.00,30.04,1016.20,10.00,M,CLR,M,M,M,M,M,M,M,M,M,M,M,M,M,M,21.00,KTPH 161056Z AUTO 36007KT 10SM CLR M02/M07 A3004 RMK AO2 SLP162 T10171067,M
LAS,2023-03-16 10:56,-115.1634,36.0719,663.00,49.00,37.00,63.34,70.00,6.00,0.00,29.94,1013.30,10.00,M,FEW,M,M,M,9000.00,M,M,M,M,M,M,M,M,M,M,45.88,KLAS 161056Z 07006KT 10SM FEW090 09/03 A2994 RMK AO2 SLP133 T00940028,M
EKO,2023-03-16 10:56,-115.7860,40.8242,1367.00,23.00,16.00,74.15,60.00,2.92,M,30.12,1021.90,10.00,M,CLR,M,M,M,M,M,M,M,M,M,M,M,M,M,M,18.54,METAR KEKO 161056Z 06003KT 10SM CLR M05/M09 A3012 RMK AO2 SLP219 T10501089 TSNO $ FIBI,M
BVU,2023-03-16 11:15,-114.8611,35.9475,671.00,48.20,35.60,61.52,350.00,10.00,0.00,29.94,M,10.00,M,CLR,M,M,M,M,M,M,M,M,M,M,M,M,M,M,43.28,KBVU 161115Z AUTO 35010KT 10SM CLR 09/02 A2994 RMK AO2,M
RTS,2023-03-16 11:15,-119.8764,39.6682,1539.00,28.40,21.20,74.08,70.00,4.00,0.00,30.09,M,10.00,M,CLR,M,M,M,M,M,M,M,M,M,M,M,M,M,M,23.22,KRTS 161115Z AUTO 07004KT 10SM CLR M02/M06 A3009 RMK AO2,M
05U,2023-03-16 11:15,-116.0051,39.6042,1811.23,17.60,15.80,92.50,M,5.00,0.00,30.10,M,10.00,M,CLR,M,M,M,M,M,M,M,M,M,M,M,M,M,M,9.29,K05U 161115Z AUTO VRB05KT 10SM CLR M08/M09 A3010 RMK A01,M
MEV,2023-03-16 11:15,-119.7500,38.9963,1441.42,28.40,24.80,86.18,50.00,3.00,0.00,30.09,M,10.00,M,BKN,BKN,BKN,M,4000.00,4700.00,5500.00,M,M,M,M,M,M,M,M,24.57,KMEV 161115Z AUTO 05003KT 10SM BKN040 BKN047 BKN055 M02/M04 A3009 RMK AO2,M
BAM,2023-03-16 11:15,-116.8743,40.5990,1382.36,28.40,23.00,79.92,350.00,4.00,0.00,30.15,M,10.00,M,CLR,M,M,M,M,M,M,M,M,M,M,M,M,M,M,23.22,KBAM 161115Z AUTO 35004KT 10SM CLR M02/M05 A3015 RMK AO1,M
HTH,2023-03-16 11:15,-118.6315,38.5448,1282.89,33.80,26.60,74.63,320.00,10.00,0.00,30.09,M,10.00,M,FEW,FEW,M,M,5000.00,6000.00,M,M,M,M,M,M,M,M,M,25.23,KHTH 161115Z AUTO 32010KT 10SM FEW050 FEW060 01/M03 A3009 RMK A01,M
TMT,2023-03-16 11:15,-117.1971,39.4643,1749.34,23.90,21.70,91.16,0.00,0.00,0.00,30.10,M,10.00,M,CLR,M,M,M,M,M,M,M,M,M,M,M,M,M,M,23.90,KTMT 161115Z AUTO 00000KT 10SM CLR M04/M06 A3010 RMK AO2 T10451057,M
BVU,2023-03-16 11:35,-114.8611,35.9475,671.00,48.20,35.60,61.52,340.00,11.00,0.00,29.94,M,10.00,M,CLR,M,M,M,M,M,M,M,M,M,M,M,M,M,M,42.94,KBVU 161135Z AUTO 34011KT 10SM CLR 09/02 A2994 RMK AO2,M
RTS,2023-03-16 11:35,-119.8764,39.6682,1539.00,26.60,21.20,79.77,0.00,0.00,0.00,30.09,M,10.00,M,CLR,M,M,M,M,M,M,M,M,M,M,M,M,M,M,26.60,KRTS 161135Z AUTO 00000KT 10SM CLR M03/M06 A3009 RMK AO2,M
05U,2023-03-16 11:35,-116.0051,39.6042,1811.23,17.60,15.80,92.50,0.00,0.00,0.00,30.11,M,10.00,M,CLR,M,M,M,M,M,M,M,M,M,M,M,M,M,M,17.60,K05U 161135Z AUTO 00000KT 10SM CLR M08/M09 A3011 RMK A01,M
MEV,2023-03-16 11:35,-119.7500,38.9963,1441.42,28.40,24.80,86.18,80.00,4.00,0.00,30.09,M,10.00,M,SCT,BKN,BKN,M,4000.00,4500.00,5000.00,M,M,M,M,M,M,M,M,23.22,KMEV 161135Z AUTO 08004KT 10SM SCT040 BKN045 BKN050 M02/M04 A3009 RMK AO2,M
BAM,2023-03-16 11:35,-116.8743,40.5990,1382.36,28.40,23.00,79.92,350.00,4.00,0.00,30.15,M,10.00,M,CLR,M,M,M,M,M,M,M,M,M,M,M,M,M,M,23.22,KBAM 161135Z AUTO 35004KT 10SM CLR M02/M05 A3015 RMK AO1,M
HTH,2023-03-16 11:35,-118.6315,38.5448,1282.89,33.80,26.60,74.63,320.00,8.00,0.00,30.10,M,10.00,M,FEW,M,M,M,5000.00,M,M,M,M,M,M,M,M,M,M,26.33,KHTH 161135Z AUTO 32008KT 10SM FEW050 01/M03 A3010 RMK A01,M
TMT,2023-03-16 11:35,-117.1971,39.4643,1749.34,23.50,21.90,93.49,0.00,0.00,0.00,30.10,M,10.00,M,CLR,M,M,M,M,M,M,M,M,M,M,M,M,M,M,23.50,KTMT 161135Z AUTO 00000KT 10SM CLR M05/M06 A3010 RMK AO2 T10471056,M
P68,2023-03-16 11:53,-116.0056,39.6014,1993.00,18.00,15.10,88.20,0.00,0.00,0.00,30.08,1020.10,M,M,M,M,M,M,M,M,M,M,M,M,M,M,M,M,M,18.00,KP68 161153Z AUTO 00000KT M08/M09 A3008 RMK AO1 SLP201 70001 T10781094 11028 21078 52005,M
DRA,2023-03-16 11:53,-116.0278,36.6206,1009.00,41.00,25.00,52.61,50.00,14.00,0.00,29.97,1013.50,10.00,M,CLR,M,M,M,M,M,M,M,M,M,M,M,M,M,M,32.76,KDRA 161153Z AUTO 05014KT 10SM CLR 05/M04 A2997 RMK AO2 SLP135 70047 T00501039 10094 20050 51005 $,M
ELY,2023-03-16 11:53,-114.8453,39.2950,1909.00,19.90,16.00,84.55,20.00,12.00,0.00,30.06,1019.20,10.00,M,CLR,M,M,M,M,M,M,M,M,M,M,M,M,M,M,6.60,KELY 161153Z AUTO 02012KT 10SM CLR M07/M09 A3006 RMK AO2 SLP192 T10671089 11033 21067 53010,M
VGT,2023-03-16 11:53,-115.1933,36.2111,667.00,51.00,30.00,44.09,340.00,7.00,0.00,29.95,1015.50,10.00,M,CLR,M,M,M,M,M,M,M,M,M,M,M,M,M,M,51.10,KVGT 161153Z AUTO 34007KT 10SM CLR 11/M01 A2995 RMK AO2 SLP155 70002 T01061011 10128 20106 53011,M
LOL,2023-03-16 11:53,-118.5701,40.0684,1192.43,27.00,19.00,71.45,360.00,5.00,0.00,30.12,1021.00,10.00,M,CLR,M,M,M,M,M,M,M,M,M,M,M,M,M,M,20.46,KLOL 161153Z AUTO 36005KT 10SM CLR M03/M07 A3012 RMK AO2 SLP210 T10281072 10011 21056 51004,M
BVU,2023-03-16 11:55,-114.8611,35.9475,671.00,50.00,33.80,53.54,340.00,13.00,0.00,29.95,M,10.00,M,CLR,M,M,M,M,M,M,M,M,M,M,M,M,M,M,50.00,KBVU 161155Z AUTO 34013KT 10SM CLR 10/01 A2995 RMK AO2,M
INS,2023-03-16 11:55,-115.6733,36.5872,955.00,39.40,30.70,70.76,360.00,5.00,0.00,29.99,1014.60,10.00,M,BKN,M,M,M,5500.00,M,M,M,M,M,M,M,M,M,M,35.18,KINS 161155Z AUTO 36005KT 10SM BKN055 04/M01 A2999 RMK AO2 SLP146 70008 T00411007 10087 20041 52010 $,M
RTS,2023-03-16 11:55,-119.8764,39.6682,1539.00,28.40,21.20,74.08,90.00,3.00,0.00,30.09,M,10.00,M,CLR,M,M,M,M,M,M,M,M,M,M,M,M,M,M,24.57,KRTS 161155Z AUTO 09003KT 10SM CLR M02/M06 A3009 RMK AO2,M
05U,2023-03-16 11:55,-116.0051,39.6042,1811.23,17.60,15.80,92.50,M,3.00,0.00,30.11,M,10.00,M,CLR,M,M,M,M,M,M,M,M,M,M,M,M,M,M,12.23,K05U 161155Z AUTO VRB03KT 10SM CLR M08/M09 A3011 RMK A01,M
MEV,2023-03-16 11:55,-119.7500,38.9963,1441.42,26.60,24.80,92.80,70.00,3.00,0.00,30.09,M,10.00,M,SCT,BKN,M,M,4400.00,5000.00,M,M,M,M,M,M,M,M,M,22.52,KMEV 161155Z AUTO 07003KT 10SM SCT044 BKN050 M03/M04 A3009 RMK AO2,M
BAM,2023-03-16 11:55,-116.8743,40.5990,1382.36,28.40,23.00,79.92,0.00,0.00,0.00,30.15,M,10.00,M,CLR,M,M,M,M,M,M,M,M,M,M,M,M,M,M,28.40,KBAM 161155Z AUTO 00000KT 10SM CLR M02/M05 A3015 RMK AO1,M
HTH,2023-03-16 11:55,-118.6315,38.5448,1282.89,33.80,24.80,69.25,330.00,7.00,0.00,30.10,M,10.00,M,CLR,M,M,M,M,M,M,M,M,M,M,M,M,M,M,26.97,KHTH 161155Z AUTO 33007KT 10SM CLR 01/M04 A3010 RMK A01,M
TMT,2023-03-16 11:55,-117.1971,39.4643,1749.34,23.40,21.20,91.14,0.00,0.00,0.00,30.11,M,10.00,M,CLR,M,M,M,M,M,M,M,M,M,M,M,M,M,M,23.40,KTMT 161155Z AUTO 00000KT 10SM CLR M05/M06 A3011 RMK AO2 T10481060 11017 21048,M
LSV,2023-03-16 11:55,-115.0343,36.2362,570.00,49.80,48.20,94.20,30.00,10.00,0.00,29.94,1013.10,10.00,17.00,SCT,M,M,M,7000.00,M,M,M,M,M,M,M,M,M,M,45.29,KLSV 161155Z AUTO 03010G17KT 10SM SCT070 10/09 A2994 RMK AO2 SLP131 T00990090 10113 20079 52010 $,M
RNO,2023-03-16 11:55,-119.7711,39.4839,1341.00,33.00,21.90,63.06,170.00,4.00,0.00,30.09,1018.30,10.00,M,CLR,M,M,M,M,M,M,M,M,M,M,M,M,M,M,28.70,KRNO 161155Z 17004KT 10SM CLR 01/M06 A3009 RMK AO2 SLP183 T00061056 10033 20000 51001,M
WMC,2023-03-16 11:56,-117.8072,40.9019,1315.00,28.00,19.00,68.57,40.00,10.00,0.00,30.14,1021.20,10.00,M,CLR,M,M,M,M,M,M,M,M,M,M,M,M,M,M,17.95,KWMC 161156Z AUTO 04010KT 10SM CLR M02/M07 A3014 RMK AO2 SLP212 T10221072 10006 21022 50002,M
NFL,2023-03-16 11:56,-118.7010,39.4166,1199.00,28.90,21.90,74.76,300.00,4.00,0.00,30.11,1016.20,10.00,M,CLR,M,M,M,M,M,M,M,M,M,M,M,M,M,M,23.80,KNFL 161156Z AUTO 30004KT 10SM CLR M02/M06 A3011 RMK AO2 SLP162 T10171056 10028 21022 50006,M
TPH,2023-03-16 11:56,-117.0904,38.0505,1654.00,28.90,19.90,68.67,340.00,10.00,0.00,30.04,1016.50,10.00,M,CLR,M,M,M,M,M,M,M,M,M,M,M,M,M,M,19.08,KTPH 161156Z AUTO 34010KT 10SM CLR M02/M07 A3004 RMK AO2 SLP165 T10171067 10022 21022 51005,M
EKO,2023-03-16 11:56,-115.7860,40.8242,1367.00,22.00,16.00,77.34,0.00,0.00,M,30.13,1022.50,10.00,M,CLR,M,M,M,M,M,M,M,M,M,M,M,M,M,M,22.00,METAR KEKO 161156Z 00000KT 10SM CLR M06/M09 A3013 RMK AO2 SLP225 T10561089 11017 21056 53007 TSNO $ FIBI,M
LAS,2023-03-16 11:56,-115.1634,36.0719,663.00,48.00,38.00,67.87,180.00,3.00,0.00,29.96,1014.00,10.00,M,BKN,BKN,M,M,7500.00,10000.00,M,M,M,M,M,M,M,M,M,46.98,KLAS 161156Z 18003KT 10SM BKN075 BKN100 09/03 A2996 RMK AO2 SLP140 70004 T00890033 10111 20089 53012,M
HND,2023-03-16 11:56,-115.1344,35.9729,742.79,42.00,40.00,91.84,140.00,4.00,0.00,29.97,1016.50,10.00,M,CLR,M,M,M,M,M,M,M,M,M,M,M,M,M,M,39.21,KHND 161156Z AUTO 14004KT 10SM CLR 06/04 A2997 RMK AO2 SLP165 70028 T00560044 10094 20056 53009,M
BVU,2023-03-16 12:15,-114.8611,35.9475,671.00,48.20,33.80,57.26,340.00,14.00,0.00,29.96,M,10.00,M,CLR,M,M,M,M,M,M,M,M,M,M,M,M,M,M,42.04,KBVU 161215Z AUTO 34014KT 10SM CLR 09/01 A2996 RMK AO2,M
RTS,2023-03-16 12:15,-119.8764,39.6682,1539.00,28.40,21.20,74.08,60.00,7.00,0.00,30.09,M,10.00,M,CLR,M,M,M,M,M,M,M,M,M,M,M,M,M,M,20.39,KRTS 161215Z AUTO 06007KT 10SM CLR M02/M06 A3009 RMK AO2,M
05U,2023-03-16 12:15,-116.0051,39.6042,1811.23,M,M,M,0.00,0.00,0.00,30.11,M,10.00,M,CLR,M,M,M,M,M,M,M,M,M,M,M,M,M,M,M,K05U 161215Z AUTO 00000KT 10SM CLR A3011 RMK A01,M
MEV,2023-03-16 12:15,-119.7500,38.9963,1441.42,26.60,24.80,92.80,0.00,0.00,0.00,30.09,M,10.00,M,SCT,BKN,BKN,M,3800.00,4400.00,5000.00,M,M,M,M,M,M,M,M,26.60,KMEV 161215Z AUTO 00000KT 10SM SCT038 BKN044 BKN050 M03/M04 A3009 RMK AO2,M
BAM,2023-03-16 12:15,-116.8743,40.5990,1382.36,26.60,23.00,86.07,360.00,3.00,0.00,30.15,M,10.00,M,CLR,M,M,M,M,M,M,M,M,M,M,M,M,M,M,22.52,KBAM 161215Z AUTO 36003KT 10SM CLR M03/M05 A3015 RMK AO1,M
HTH,2023-03-16 12:15,-118.6315,38.5448,1282.89,33.80,24.80,69.25,300.00,7.00,0.00,30.10,M,10.00,M,CLR,M,M,M,M,M,M,M,M,M,M,M,M,M,M,26.97,KHTH 161215Z AUTO 30007KT 10SM CLR 01/M04 A3010 RMK A01,M
TMT,2023-03-16 12:15,-117.1971,39.4643,1749.34,23.20,20.80,90.36,80.00,3.00,0.00,30.11,M,10.00,M,CLR,M,M,M,M,M,M,M,M,M,M,M,M,M,M,18.63,KTMT 161215Z AUTO 08003KT 10SM CLR M05/M06 A3011 RMK AO2 T10491062,M
BVU,2023-03-16 12:35,-114.8611,35.9475,671.00,48.20,33.80,57.26,350.00,11.00,0.00,29.96,M,10.00,M,CLR,M,M,M,M,M,M,M,M,M,M,M,M,M,M,42.94,KBVU 161235Z AUTO 35011KT 10SM CLR 09/01 A2996 RMK AO2,M
RTS,2023-03-16 12:35,-119.8764,39.6682,1539.00,28.40,21.20,74.08,70.00,6.00,0.00,30.09,M,10.00,M,CLR,M,M,M,M,M,M,M,M,M,M,M,M,M,M,21.19,KRTS 161235Z AUTO 07006KT 10SM CLR M02/M06 A3009 RMK AO2,M
05U,2023-03-16 12:35,-116.0051,39.6042,1811.23,17.60,14.00,85.51,0.00,0.00,0.00,30.12,M,10.00,M,CLR,M,M,M,M,M,M,M,M,M,M,M,M,M,M,17.60,K05U 161235Z AUTO 00000KT 10SM CLR M08/M10 A3012 RMK A01,M
MEV,2023-03-16 12:35,-119.7500,38.9963,1441.42,26.60,24.80,92.80,0.00,0.00,0.00,30.09,M,10.00,M,SCT,BKN,OVC,M,3800.00,4400.00,5500.00,M,M,M,M,M,M,M,M,26.60,KMEV 161235Z AUTO 00000KT 10SM SCT038 BKN044 OVC055 M03/M04 A3009 RMK AO2,M
BAM,2023-03-16 12:35,-116.8743,40.5990,1382.36,26.60,21.20,79.77,40.00,5.00,0.00,30.16,M,10.00,M,CLR,M,M,M,M,M,M,M,M,M,M,M,M,M,M,19.98,KBAM 161235Z AUTO 04005KT 10SM CLR M03/M06 A3016 RMK AO1,M
HTH,2023-03-16 12:35,-118.6315,38.5448,1282.89,33.80,24.80,69.25,310.00,9.00,0.00,30.10,M,10.00,M,FEW,M,M,M,5500.00,M,M,M,M,M,M,M,M,M,M,25.75,KHTH 161235Z AUTO 31009KT 10SM FEW055 01/M04 A3010 RMK A01,M
TMT,2023-03-16 12:35,-117.1971,39.4643,1749.34,22.60,20.80,92.67,0.00,0.00,0.00,30.11,M,10.00,M,CLR,M,M,M,M,M,M,M,M,M,M,M,M,M,M,22.60,KTMT 161235Z AUTO 00000KT 10SM CLR M05/M06 A3011 RMK AO2 T10521062,M
P68,2023-03-16 12:53,-116.0056,39.6014,1993.00,18.00,14.00,84.05,190.00,4.00,0.00,30.10,1020.80,M,M,M,M,M,M,M,M,M,M,M,M,M,M,M,M,M,11.07,KP68 161253Z AUTO 19004KT M08/M10 A3010 RMK AO1 SLP208 T10781100,M
DRA,2023-03-16 12:53,-116.0278,36.6206,1009.00,41.00,24.10,50.67,50.00,12.00,0.00,29.99,1014.40,10.00,M,CLR,M,M,M,M,M,M,M,M,M,M,M,M,M,M,33.46,KDRA 161253Z AUTO 05012KT 10SM CLR 05/M04 A2999 RMK AO2 SLP144 T00501044 $,M
ELY,2023-03-16 12:53,-114.8453,39.2950,1909.00,19.90,16.00,84.55,40.00,10.00,0.00,30.08,1019.80,10.00,M,CLR,M,M,M,M,M,M,M,M,M,M,M,M,M,M,7.79,KELY 161253Z AUTO 04010KT 10SM CLR M07/M09 A3008 RMK AO2 SLP198 T10671089,M
VGT,2023-03-16 12:53,-115.1933,36.2111,667.00,51.00,27.00,38.99,350.00,9.00,0.00,29.97,1016.20,10.00,M,CLR,M,M,M,M,M,M,M,M,M,M,M,M,M,M,51.10,KVGT 161253Z 35009KT 10SM CLR 11/M03 A2997 RMK AO2 SLP162 T01061028,M
LOL,2023-03-16 12:53,-118.5701,40.0684,1192.43,27.00,19.00,71.45,30.00,3.00,0.00,30.13,1021.40,10.00,M,CLR,M,M,M,M,M,M,M,M,M,M,M,M,M,M,22.97,KLOL 161253Z AUTO 03003KT 10SM CLR M03/M07 A3013 RMK AO2 SLP214 T10281072,M
BVU,2023-03-16 12:55,-114.8611,35.9475,671.00,50.00,32.00,49.81,350.00,12.00,0.00,29.97,M,10.00,M,CLR,M,M,M,M,M,M,M,M,M,M,M,M,M,M,50.00,KBVU 161255Z AUTO 35012KT 10SM CLR 10/M00 A2997 RMK AO2,M
INS,2023-03-16 12:55,-115.6733,36.5872,955.00,41.20,27.90,58.85,0.00,0.00,0.00,30.01,1015.10,10.00,M,CLR,M,M,M,M,M,M,M,M,M,M,M,M,M,M,41.20,KINS 161255Z AUTO 00000KT 10SM CLR 05/M02 A3001 RMK AO2 SLP151 T00511023 $,M
RNO,2023-03-16 12:55,-119.7711,39.4839,1341.00,32.00,21.90,65.92,90.00,4.00,0.00,30.10,1018.60,10.00,M,CLR,M,M,M,M,M,M,M,M,M,M,M,M,M,M,27.42,KRNO 161255Z 09004KT 10SM CLR 00/M06 A3010 RMK AO2 SLP186 T00001056,M
RTS,2023-03-16 12:55,-119.8764,39.6682,1539.00,28.40,21.20,74.08,70.00,7.00,0.00,30.09,M,10.00,M,CLR,M,M,M,M,M,M,M,M,M,M,M,M,M,M,20.39,KRTS 161255Z AUTO 07007KT 10SM CLR M02/M06 A3009 RMK AO2,M
05U,2023-03-16 12:55,-116.0051,39.6042,1811.23,M,M,M,M,3.00,0.00,30.12,M,10.00,M,CLR,M,M,M,M,M,M,M,M,M,M,M,M,M,M,M,K05U 161255Z AUTO VRB03KT 10SM CLR A3012 RMK A01,M
MEV,2023-03-16 12:55,-119.7500,38.9963,1441.42,26.60,24.80,92.80,0.00,0.00,0.00,30.10,M,10.00,M,FEW,BKN,BKN,M,3800.00,4600.00,5000.00,M,M,M,M,M,M,M,M,26.60,KMEV 161255Z AUTO 00000KT 10SM FEW038 BKN046 BKN050 M03/M04 A3010 RMK AO2,M
BAM,2023-03-16 12:55,-116.8743,40.5990,1382.36,26.60,21.20,79.77,40.00,3.00,0.00,30.16,M,10.00,M,CLR,M,M,M,M,M,M,M,M,M,M,M,M,M,M,22.52,KBAM 161255Z AUTO 04003KT 10SM CLR M03/M06 A3016 RMK AO1,M
HTH,2023-03-16 12:55,-118.6315,38.5448,1282.89,33.80,24.80,69.25,300.00,9.00,0.00,30.11,M,10.00,M,CLR,M,M,M,M,M,M,M,M,M,M,M,M,M,M,25.75,KHTH 161255Z AUTO 30009KT 10SM CLR 01/M04 A3011 RMK A01,M
TMT,2023-03-16 12:55,-117.1971,39.4643,1749.34,22.60,20.50,91.50,60.00,3.00,0.00,30.11,M,10.00,M,CLR,M,M,M,M,M,M,M,M,M,M,M,M,M,M,17.94,KTMT 161255Z AUTO 06003KT 10SM CLR M05/M06 A3011 RMK AO2 T10521064,M
LSV,2023-03-16 12:55,-115.0343,36.2362,570.00,49.00,37.40,63.86,350.00,10.00,0.00,29.97,1014.30,10.00,18.00,CLR,M,M,M,M,M,M,M,M,M,M,M,M,M,M,44.41,KLSV 161255Z AUTO 35010G18KT 10SM CLR 10/03 A2997 RMK AO2 SLP143 T00950030 $,M
WMC,2023-03-16 12:56,-117.8072,40.9019,1315.00,26.10,19.00,74.16,40.00,7.00,0.00,30.14,1021.70,10.00,M,CLR,M,M,M,M,M,M,M,M,M,M,M,M,M,M,17.59,KWMC 161256Z AUTO 04007KT 10SM CLR M03/M07 A3014 RMK AO2 SLP217 T10331072,M
NFL,2023-03-16 12:56,-118.7010,39.4166,1199.00,26.10,21.90,83.89,280.00,4.00,0.00,30.12,1016.50,10.00,M,CLR,M,M,M,M,M,M,M,M,M,M,M,M,M,M,20.53,KNFL 161256Z AUTO 28004KT 10SM CLR M03/M06 A3012 RMK AO2 SLP165 T10331056,M
HND,2023-03-16 12:56,-115.1344,35.9729,742.79,46.00,34.00,62.71,40.00,7.00,0.00,29.99,1017.10,10.00,M,FEW,SCT,M,M,7000.00,8500.00,M,M,M,M,M,M,M,M,M,41.84,KHND 161256Z 04007KT 10SM FEW070 SCT085 08/01 A2999 RMK AO2 SLP171 T00780011,M
TPH,2023-03-16 12:56,-117.0904,38.0505,1654.00,28.00,19.00,68.57,340.00,7.00,0.00,30.04,1016.90,10.00,M,CLR,M,M,M,M,M,M,M,M,M,M,M,M,M,M,19.90,KTPH 161256Z AUTO 34007KT 10SM CLR M02/M07 A3004 RMK AO2 SLP169 T10221072,M
LAS,2023-03-16 12:56,-115.1634,36.0719,663.00,49.00,32.00,51.89,50.00,10.00,0.00,29.98,1014.70,10.00,M,BKN,M,M,M,8000.00,M,M,M,M,M,M,M,M,M,M,44.16,KLAS 161256Z 05010KT 10SM BKN080 09/00 A2998 RMK AO2 SLP147 T00940000,M
EKO,2023-03-16 12:56,-115.7860,40.8242,1367.00,20.00,14.00,77.16,10.00,2.92,M,30.14,1023.30,10.00,M,CLR,M,M,M,M,M,M,M,M,M,M,M,M,M,M,15.12,METAR KEKO 161256Z 01003KT 10SM CLR M07/M10 A3014 RMK AO2 SLP233 T10671100 TSNO $ FIBI,M
BVU,2023-03-16 13:15,-114.8611,35.9475,671.00,48.20,32.00,53.27,360.00,11.00,0.00,29.98,M,10.00,M,CLR,M,M,M,M,M,M,M,M,M,M,M,M,M,M,42.94,KBVU 161315Z AUTO 36011KT 10SM CLR 09/M00 A2998 RMK AO2,M
RTS,2023-03-16 13:15,-119.8764,39.6682,1539.00,28.40,21.20,74.08,70.00,6.00,0.00,30.10,M,10.00,M,CLR,M,M,M,M,M,M,M,M,M,M,M,M,M,M,21.19,KRTS 161315Z AUTO 07006KT 10SM CLR M02/M06 A3010 RMK AO2,M
05U,2023-03-16 13:15,-116.0051,39.6042,1811.23,15.80,14.00,92.44,0.00,0.00,0.00,30.12,M,10.00,M,CLR,M,M,M,M,M,M,M,M,M,M,M,M,M,M,15.80,K05U 161315Z AUTO 00000KT 10SM CLR M09/M10 A3012 RMK A01,M
MEV,2023-03-16 13:15,-119.7500,38.9963,1441.42,26.60,24.80,92.80,80.00,4.00,0.00,30.10,M,10.00,M,SCT,SCT,M,M,4300.00,5000.00,M,M,M,M,M,M,M,M,M,21.11,KMEV 161315Z AUTO 08004KT 10SM SCT043 SCT050 M03/M04 A3010 RMK AO2,M
BAM,2023-03-16 13:15,-116.8743,40.5990,1382.36,24.80,21.20,85.96,50.00,4.00,0.00,30.17,M,10.00,M,CLR,M,M,M,M,M,M,M,M,M,M,M,M,M,M,19.01,KBAM 161315Z AUTO 05004KT 10SM CLR M04/M06 A3017 RMK AO1,M
HTH,2023-03-16 13:15,-118.6315,38.5448,1282.89,33.80,24.80,69.25,310.00,10.00,0.00,30.11,M,10.00,M,FEW,M,M,M,5500.00,M,M,M,M,M,M,M,M,M,M,25.23,KHTH 161315Z AUTO 31010KT 10SM FEW055 01/M04 A3011 RMK A01,M
TMT,2023-03-16 13:15,-117.1971,39.4643,1749.34,23.00,20.80,91.13,0.00,0.00,0.00,30.11,M,10.00,M,CLR,M,M,M,M,M,M,M,M,M,M,M,M,M,M,23.00,KTMT 161315Z AUTO 00000KT 10SM CLR M05/M06 A3011 RMK AO2 T10501062,M
BVU,2023-03-16 13:35,-114.8611,35.9475,671.00,48.20,32.00,53.27,360.00,12.00,0.00,29.98,M,10.00,M,CLR,M,M,M,M,M,M,M,M,M,M,M,M,M,M,42.62,KBVU 161335Z AUTO 36012KT 10SM CLR 09/M00 A2998 RMK AO2,M
RTS,2023-03-16 13:35,-119.8764,39.6682,1539.00,28.40,19.40,68.61,70.00,7.00,0.00,30.10,M,10.00,M,CLR,M,M,M,M,M,M,M,M,M,M,M,M,M,M,20.39,KRTS 161335Z AUTO 07007KT 10SM CLR M02/M07 A3010 RMK AO2,M
05U,2023-03-16 13:35,-116.0051,39.6042,1811.23,15.80,14.00,92.44,190.00,3.00,0.00,30.12,M,10.00,M,CLR,M,M,M,M,M,M,M,M,M,M,M,M,M,M,10.17,K05U 161335Z AUTO 19003KT 10SM CLR M09/M10 A3012 RMK A01,M
MEV,2023-03-16 13:35,-119.7500,38.9963,1441.42,26.60,24.80,92.80,90.00,3.00,0.00,30.10,M,10.00,M,SCT,BKN,M,M,4200.00,5000.00,M,M,M,M,M,M,M,M,M,22.52,KMEV 161335Z AUTO 09003KT 10SM SCT042 BKN050 M03/M04 A3010 RMK AO2,M
BAM,2023-03-16 13:35,-116.8743,40.5990,1382.36,24.80,21.20,85.96,0.00,0.00,0.00,30.17,M,10.00,M,CLR,M,M,M,M,M,M,M,M,M,M,M,M,M,M,24.80,KBAM 161335Z AUTO 00000KT 10SM CLR M04/M06 A3017 RMK AO1,M
HTH,2023-03-16 13:35,-118.6315,38.5448,1282.89,33.80,24.80,69.25,310.00,10.00,0.00,30.12,M,10.00,M,FEW,M,M,M,5000.00,M,M,M,M,M,M,M,M,M,M,25.23,KHTH 161335Z AUTO 31010KT 10SM FEW050 01/M04 A3012 RMK A01,M
TMT,2023-03-16 13:35,-117.1971,39.4643,1749.34,23.20,20.50,89.22,0.00,0.00,0.00,30.11,M,10.00,M,CLR,M,M,M,M,M,M,M,M,M,M,M,M,M,M,23.20,KTMT 161335Z AUTO 00000KT 10SM CLR M05/M06 A3011 RMK AO2 T10491064,M
NFL,2023-03-16 13:37,-118.7010,39.4166,1199.00,26.10,21.00,80.75,0.00,0.00,0.00,30.12,M,10.00,M,CLR,M,M,M,M,M,M,M,M,M,M,M,M,M,M,26.10,KNFL 161337Z 00000KT 10SM CLR M03/M06 A3012 RMK AO2 T10331061,M
P68,2023-03-16 13:53,-116.0056,39.6014,1993.00,18.00,15.10,88.20,0.00,0.00,0.00,30.10,1021.30,M,M,M,M,M,M,M,M,M,M,M,M,M,M,M,M,M,18.00,KP68 161353Z AUTO 00000KT M08/M09 A3010 RMK AO1 SLP213 T10781094,M
DRA,2023-03-16 13:53,-116.0278,36.6206,1009.00,40.00,24.10,52.88,40.00,12.00,0.00,30.02,1015.20,10.00,M,CLR,M,M,M,M,M,M,M,M,M,M,M,M,M,M,32.06,KDRA 161353Z AUTO 04012KT 10SM CLR 04/M04 A3002 RMK AO2 SLP152 T00441044 $,M
ELY,2023-03-16 13:53,-114.8453,39.2950,1909.00,19.00,15.10,84.49,40.00,10.00,0.00,30.09,1020.90,10.00,M,CLR,M,M,M,M,M,M,M,M,M,M,M,M,M,M,6.67,KELY 161353Z AUTO 04010KT 10SM CLR M07/M09 A3009 RMK AO2 SLP209 T10721094,M
LOL,2023-03-16 13:53,-118.5701,40.0684,1192.43,25.00,18.00,74.36,0.00,0.00,0.00,30.14,1022.30,10.00,M,CLR,M,M,M,M,M,M,M,M,M,M,M,M,M,M,25.00,KLOL 161353Z AUTO 00000KT 10SM CLR M04/M08 A3014 RMK AO2 SLP223 T10391078,M
VGT,2023-03-16 13:53,-115.1933,36.2111,667.00,49.00,28.00,44.10,340.00,11.00,0.00,29.99,1016.90,10.00,21.00,SCT,M,M,M,7500.00,M,M,M,M,M,M,M,M,M,M,43.82,KVGT 161353Z 34011G21KT 10SM SCT075 09/M02 A2999 RMK AO2 SLP169 T00941022,M
BVU,2023-03-16 13:55,-114.8611,35.9475,671.00,46.40,32.00,57.00,360.00,11.00,0.00,29.99,M,10.00,M,CLR,M,M,M,M,M,M,M,M,M,M,M,M,M,M,40.66,KBVU 161355Z AUTO 36011KT 10SM CLR 08/00 A2999 RMK AO2,M
INS,2023-03-16 13:55,-115.6733,36.5872,955.00,40.50,27.30,59.00,0.00,0.00,0.00,30.03,1015.80,10.00,M,CLR,M,M,M,M,M,M,M,M,M,M,M,M,M,M,40.50,KINS 161355Z AUTO 00000KT 10SM CLR 05/M03 A3003 RMK AO2 SLP158 T00471026 $,M
RNO,2023-03-16 13:55,-119.7711,39.4839,1341.00,30.90,21.00,66.34,0.00,0.00,0.00,30.10,1019.30,10.00,M,FEW,M,M,M,4000.00,M,M,M,M,M,M,M,M,M,M,30.90,KRNO 161355Z 00000KT 10SM FEW040 M01/M06 A3010 RMK AO2 SLP193 T10061061,M
RTS,2023-03-16 13:55,-119.8764,39.6682,1539.00,28.40,19.40,68.61,90.00,6.00,0.00,30.10,M,10.00,M,CLR,M,M,M,M,M,M,M,M,M,M,M,M,M,M,21.19,KRTS 161355Z AUTO 09006KT 10SM CLR M02/M07 A3010 RMK AO2,M
05U,2023-03-16 13:55,-116.0051,39.6042,1811.23,15.80,14.00,92.44,0.00,0.00,0.00,30.13,M,10.00,M,CLR,M,M,M,M,M,M,M,M,M,M,M,M,M,M,15.80,K05U 161355Z AUTO 00000KT 10SM CLR M09/M10 A3013 RMK A01,M
MEV,2023-03-16 13:55,-119.7500,38.9963,1441.42,24.80,23.00,92.74,0.00,0.00,0.00,30.11,M,10.00,M,FEW,FEW,M,M,4200.00,5000.00,M,M,M,M,M,M,M,M,M,24.80,KMEV 161355Z AUTO 00000KT 10SM FEW042 FEW050 M04/M05 A3011 RMK AO2,M
BAM,2023-03-16 13:55,-116.8743,40.5990,1382.36,28.40,21.20,74.08,20.00,5.00,0.00,30.17,M,10.00,M,CLR,M,M,M,M,M,M,M,M,M,M,M,M,M,M,22.12,KBAM 161355Z AUTO 02005KT 10SM CLR M02/M06 A3017 RMK AO1,M
HTH,2023-03-16 13:55,-118.6315,38.5448,1282.89,32.00,24.80,74.44,310.00,8.00,0.00,30.12,M,10.00,M,FEW,M,M,M,5000.00,M,M,M,M,M,M,M,M,M,M,24.11,KHTH 161355Z AUTO 31008KT 10SM FEW050 00/M04 A3012 RMK A01,M
TMT,2023-03-16 13:55,-117.1971,39.4643,1749.34,22.10,19.90,91.09,0.00,0.00,0.00,30.11,M,10.00,M,CLR,M,M,M,M,M,M,M,M,M,M,M,M,M,M,22.10,KTMT 161355Z AUTO 00000KT 10SM CLR M05/M07 A3011 RMK AO2 T10551067,M
LSV,2023-03-16 13:55,-115.0343,36.2362,570.00,47.80,28.00,45.95,0.00,0.00,0.00,29.98,1014.90,10.00,M,FEW,M,M,M,6000.00,M,M,M,M,M,M,M,M,M,M,47.80,KLSV 161355Z AUTO 00000KT 10SM FEW060 09/M02 A2998 RMK AO2 SLP149 T00881022 $,M
WMC,2023-03-16 13:56,-117.8072,40.9019,1315.00,25.00,19.00,77.62,70.00,7.00,0.00,30.15,1022.40,10.00,M,CLR,M,M,M,M,M,M,M,M,M,M,M,M,M,M,16.25,KWMC 161356Z AUTO 07007KT 10SM CLR M04/M07 A3015 RMK AO2 SLP224 T10391072,M
NFL,2023-03-16 13:56,-118.7010,39.4166,1199.00,26.10,21.00,80.75,230.00,3.00,0.00,30.13,1016.80,10.00,M,CLR,M,M,M,M,M,M,M,M,M,M,M,M,M,M,21.94,KNFL 161356Z 23003KT 10SM CLR M03/M06 A3013 RMK AO2 SLP168 T10331061,M
HND,2023-03-16 13:56,-115.1344,35.9729,742.79,46.00,32.00,57.87,70.00,8.00,0.00,30.01,1018.10,10.00,M,OVC,M,M,M,6500.00,M,M,M,M,M,M,M,M,M,M,41.36,KHND 161356Z 07008KT 10SM OVC065 08/00 A3001 RMK AO2 SLP181 T00780000,M
TPH,2023-03-16 13:56,-117.0904,38.0505,1654.00,27.00,17.10,65.84,30.00,5.00,0.00,30.06,1017.80,10.00,M,CLR,M,M,M,M,M,M,M,M,M,M,M,M,M,M,20.46,KTPH 161356Z AUTO 03005KT 10SM CLR M03/M08 A3006 RMK AO2 SLP178 T10281083,M
EKO,2023-03-16 13:56,-115.7860,40.8242,1367.00,20.00,15.00,80.60,50.00,5.05,M,30.15,1024.00,10.00,M,CLR,M,M,M,M,M,M,M,M,M,M,M,M,M,M,12.08,METAR KEKO 161356Z 05005KT 10SM CLR M07/M09 A3015 RMK AO2 SLP240 T10671094 TSNO $ FIBI,M
LAS,2023-03-16 13:56,-115.1634,36.0719,663.00,49.00,28.90,45.75,40.00,11.00,0.00,30.00,1015.40,10.00,M,FEW,M,M,M,7000.00,M,M,M,M,M,M,M,M,M,M,43.82,KLAS 161356Z 04011KT 10SM FEW070 09/M02 A3000 RMK AO2 SLP154 T00941017,M
BVU,2023-03-16 14:15,-114.8611,35.9475,671.00,46.40,30.20,53.00,350.00,11.00,0.00,30.00,M,10.00,M,CLR,M,M,M,M,M,M,M,M,M,M,M,M,M,M,40.66,KBVU 161415Z AUTO 35011KT 10SM CLR 08/M01 A3000 RMK AO2,M
RTS,2023-03-16 14:15,-119.8764,39.6682,1539.00,28.40,19.40,68.61,70.00,6.00,0.00,30.11,M,10.00,11.00,CLR,M,M,M,M,M,M,M,M,M,M,M,M,M,M,21.19,KRTS 161415Z AUTO 07006G11KT 10SM CLR M02/M07 A3011 RMK AO2,M
05U,2023-03-16 14:15,-116.0051,39.6042,1811.23,M,M,M,0.00,0.00,0.00,30.13,M,10.00,M,CLR,M,M,M,M,M,M,M,M,M,M,M,M,M,M,M,K05U 161415Z AUTO 00000KT 10SM CLR A3013 RMK A01,M
MEV,2023-03-16 14:15,-119.7500,38.9963,1441.42,26.60,24.80,92.80,0.00,0.00,0.00,30.11,M,10.00,M,CLR,M,M,M,M,M,M,M,M,M,M,M,M,M,M,26.60,KMEV 161415Z AUTO 00000KT 10SM CLR M03/M04 A3011 RMK AO2,M
BAM,2023-03-16 14:15,-116.8743,40.5990,1382.36,28.40,23.00,79.92,60.00,9.00,0.00,30.17,M,10.00,M,CLR,M,M,M,M,M,M,M,M,M,M,M,M,M,M,19.04,KBAM 161415Z AUTO 06009KT 10SM CLR M02/M05 A3017 RMK AO1,M
HTH,2023-03-16 14:15,-118.6315,38.5448,1282.89,32.00,24.80,74.44,310.00,7.00,0.00,30.13,M,10.00,M,CLR,M,M,M,M,M,M,M,M,M,M,M,M,M,M,24.78,KHTH 161415Z AUTO 31007KT 10SM CLR M00/M04 A3013 RMK A01,M
TMT,2023-03-16 14:15,-117.1971,39.4643,1749.34,22.10,20.30,92.66,0.00,0.00,0.00,30.12,M,10.00,M,CLR,M,M,M,M,M,M,M,M,M,M,M,M,M,M,22.10,KTMT 161415Z AUTO 00000KT 10SM CLR M05/M06 A3012 RMK AO2 T10551065,M
BVU,2023-03-16 14:35,-114.8611,35.9475,671.00,48.20,26.60,42.73,360.00,14.00,0.00,30.01,M,10.00,M,CLR,M,M,M,M,M,M,M,M,M,M,M,M,M,M,42.04,KBVU 161435Z AUTO 36014KT 10SM CLR 09/M03 A3001 RMK AO2,M
RTS,2023-03-16 14:35,-119.8764,39.6682,1539.00,28.40,19.40,68.61,70.00,7.00,0.00,30.11,M,10.00,M,CLR,M,M,M,M,M,M,M,M,M,M,M,M,M,M,20.39,KRTS 161435Z AUTO 07007KT 10SM CLR M02/M07 A3011 RMK AO2,M
05U,2023-03-16 14:35,-116.0051,39.6042,1811.23,17.60,14.00,85.51,0.00,0.00,0.00,30.13,M,10.00,M,CLR,M,M,M,M,M,M,M,M,M,M,M,M,M,M,17.60,K05U 161435Z AUTO 00000KT 10SM CLR M08/M10 A3013 RMK A01,M
MEV,2023-03-16 14:35,-119.7500,38.9963,1441.42,26.60,24.80,92.80,0.00,0.00,0.00,30.12,M,10.00,M,CLR,M,M,M,M,M,M,M,M,M,M,M,M,M,M,26.60,KMEV 161435Z AUTO 00000KT 10SM CLR M03/M04 A3012 RMK AO2,M
BAM,2023-03-16 14:35,-116.8743,40.5990,1382.36,28.40,21.20,74.08,350.00,3.00,0.00,30.18,M,10.00,M,CLR,M,M,M,M,M,M,M,M,M,M,M,M,M,M,24.57,KBAM 161435Z AUTO 35003KT 10SM CLR M02/M06 A3018 RMK AO1,M
HTH,2023-03-16 14:35,-118.6315,38.5448,1282.89,32.00,24.80,74.44,300.00,6.00,0.00,30.13,M,10.00,M,CLR,M,M,M,M,M,M,M,M,M,M,M,M,M,M,25.53,KHTH 161435Z AUTO 30006KT 10SM CLR 00/M04 A3013 RMK A01,M
TMT,2023-03-16 14:35,-117.1971,39.4643,1749.34,23.50,20.80,89.23,0.00,0.00,0.00,30.12,M,10.00,M,CLR,M,M,M,M,M,M,M,M,M,M,M,M,M,M,23.50,KTMT 161435Z AUTO 00000KT 10SM CLR M05/M06 A3012 RMK AO2 T10471062,M
P68,2023-03-16 14:53,-116.0056,39.6014,1993.00,19.00,16.00,87.87,M,4.00,0.00,30.11,1021.90,M,M,M,M,M,M,M,M,M,M,M,M,M,M,M,M,M,12.24,KP68 161453Z AUTO VRB04KT M07/M09 A3011 RMK AO1 SLP219 T10721089 51008,M
DRA,2023-03-16 14:53,-116.0278,36.6206,1009.00,41.00,23.00,48.39,40.00,13.00,0.00,30.04,1016.10,10.00,M,CLR,M,M,M,M,M,M,M,M,M,M,M,M,M,M,33.10,KDRA 161453Z AUTO 04013KT 10SM CLR 05/M05 A3004 RMK AO2 SLP161 T00501050 51023 $,M
ELY,2023-03-16 14:53,-114.8453,39.2950,1909.00,21.90,15.10,74.69,40.00,13.00,0.00,30.09,1020.80,10.00,M,CLR,M,M,M,M,M,M,M,M,M,M,M,M,M,M,8.63,KELY 161453Z AUTO 04013KT 10SM CLR M06/M09 A3009 RMK AO2 SLP208 T10561094 51010,M
LOL,2023-03-16 14:53,-118.5701,40.0684,1192.43,21.90,17.10,81.46,0.00,0.00,0.00,30.15,1023.30,10.00,M,CLR,M,M,M,M,M,M,M,M,M,M,M,M,M,M,21.90,KLOL 161453Z AUTO 00000KT 10SM CLR M06/M08 A3015 RMK AO2 SLP233 T10561083 53009,M
VGT,2023-03-16 14:53,-115.1933,36.2111,667.00,51.00,24.10,34.57,330.00,11.00,0.00,30.02,1017.90,10.00,18.00,FEW,M,M,M,7500.00,M,M,M,M,M,M,M,M,M,M,51.10,KVGT 161453Z 33011G18KT 10SM FEW075 11/M04 A3002 RMK AO2 SLP179 T01061044 53021,M
BVU,2023-03-16 14:55,-114.8611,35.9475,671.00,48.20,26.60,42.73,360.00,14.00,0.00,30.02,M,10.00,M,CLR,M,M,M,M,M,M,M,M,M,M,M,M,M,M,42.04,KBVU 161455Z AUTO 36014KT 10SM CLR 09/M03 A3002 RMK AO2,M
INS,2023-03-16 14:55,-115.6733,36.5872,955.00,40.30,29.10,64.01,0.00,0.00,0.00,30.05,1016.70,10.00,M,CLR,M,M,M,M,M,M,M,M,M,M,M,M,M,M,40.30,KINS 161455Z AUTO 00000KT 10SM CLR 05/M02 A3005 RMK AO2 SLP167 T00461016 52021 $,M
RTS,2023-03-16 14:55,-119.8764,39.6682,1539.00,28.40,19.40,68.61,70.00,7.00,0.00,30.11,M,10.00,M,CLR,M,M,M,M,M,M,M,M,M,M,M,M,M,M,20.39,KRTS 161455Z AUTO 07007KT 10SM CLR M02/M07 A3011 RMK AO2,M
05U,2023-03-16 14:55,-116.0051,39.6042,1811.23,19.40,17.60,92.57,0.00,0.00,0.00,30.14,M,10.00,M,CLR,M,M,M,M,M,M,M,M,M,M,M,M,M,M,19.40,K05U 161455Z AUTO 00000KT 10SM CLR M07/M08 A3014 RMK A01,M
MEV,2023-03-16 14:55,-119.7500,38.9963,1441.42,28.40,24.80,86.18,0.00,0.00,0.00,30.12,M,10.00,M,CLR,M,M,M,M,M,M,M,M,M,M,M,M,M,M,28.40,KMEV 161455Z AUTO 00000KT 10SM CLR M02/M04 A3012 RMK AO2,M
BAM,2023-03-16 14:55,-116.8743,40.5990,1382.36,28.40,23.00,79.92,0.00,0.00,0.00,30.18,M,10.00,M,CLR,M,M,M,M,M,M,M,M,M,M,M,M,M,M,28.40,KBAM 161455Z AUTO 00000KT 10SM CLR M02/M05 A3018 RMK AO1,M
HTH,2023-03-16 14:55,-118.6315,38.5448,1282.89,33.80,24.80,69.25,310.00,7.00,0.00,30.14,M,10.00,M,CLR,M,M,M,M,M,M,M,M,M,M,M,M,M,M,26.97,KHTH 161455Z AUTO 31007KT 10SM CLR 01/M04 A3014 RMK A01,M
TMT,2023-03-16 14:55,-117.1971,39.4643,1749.34,23.90,20.50,86.64,0.00,0.00,0.00,30.12,M,10.00,M,CLR,M,M,M,M,M,M,M,M,M,M,M,M,M,M,23.90,KTMT 161455Z AUTO 00000KT 10SM CLR M04/M06 A3012 RMK AO2 T10451064,M
LSV,2023-03-16 14:55,-115.0343,36.2362,570.00,50.00,27.10,40.79,30.00,11.00,0.00,30.01,1015.90,10.00,M,FEW,M,M,M,6000.00,M,M,M,M,M,M,M,M,M,M,50.00,KLSV 161455Z AUTO 03011KT 10SM FEW060 10/M03 A3001 RMK AO2 SLP159 T01001027 52024 $,M
RNO,2023-03-16 14:55,-119.7711,39.4839,1341.00,33.00,21.00,60.71,0.00,0.00,0.00,30.11,1019.80,10.00,M,FEW,M,M,M,4000.00,M,M,M,M,M,M,M,M,M,M,33.10,KRNO 161455Z 00000KT 10SM FEW040 01/M06 A3011 RMK AO2 SLP198 T00061061 53007,M
WMC,2023-03-16 14:56,-117.8072,40.9019,1315.00,27.00,19.90,74.25,60.00,8.00,0.00,30.16,1022.80,10.00,M,CLR,M,M,M,M,M,M,M,M,M,M,M,M,M,M,17.95,KWMC 161456Z AUTO 06008KT 10SM CLR M03/M07 A3016 RMK AO2 SLP228 T10281067 53007,M
NFL,2023-03-16 14:56,-118.7010,39.4166,1199.00,28.00,23.00,81.25,0.00,0.00,0.00,30.14,1017.20,10.00,M,CLR,M,M,M,M,M,M,M,M,M,M,M,M,M,M,28.00,KNFL 161456Z 00000KT 10SM CLR M02/M05 A3014 RMK AO2 SLP172 T10221050 53009,M
TPH,2023-03-16 14:56,-117.0904,38.0505,1654.00,28.90,15.10,55.83,20.00,12.00,0.00,30.08,1019.00,10.00,M,CLR,M,M,M,M,M,M,M,M,M,M,M,M,M,M,18.06,KTPH 161456Z AUTO 02012KT 10SM CLR M02/M09 A3008 RMK AO2 SLP190 T10171094 53013,M
LAS,2023-03-16 14:56,-115.1634,36.0719,663.00,49.00,28.00,44.10,50.00,14.00,0.00,30.03,1016.40,10.00,M,FEW,M,M,M,7000.00,M,M,M,M,M,M,M,M,M,M,42.95,KLAS 161456Z 05014KT 10SM FEW070 09/M02 A3003 RMK AO2 SLP164 T00941022 53020,M
EKO,2023-03-16 14:56,-115.7860,40.8242,1367.00,21.00,16.00,80.69,120.00,2.92,M,30.16,1024.40,10.00,M,CLR,M,M,M,M,M,M,M,M,M,M,M,M,M,M,16.26,METAR KEKO 161456Z 12003KT 10SM CLR M06/M09 A3016 RMK AO2 SLP244 T10611089 51010 TSNO $ FIBI,M
HND,2023-03-16 14:56,-115.1344,35.9729,742.79,47.00,28.90,49.32,60.00,11.00,0.00,30.04,1019.20,10.00,M,OVC,M,M,M,7000.00,M,M,M,M,M,M,M,M,M,M,41.30,KHND 161456Z 06011KT 10SM OVC070 08/M02 A3004 RMK AO2 SLP192 T00831017 53023,M
BVU,2023-03-16 15:15,-114.8611,35.9475,671.00,50.00,26.60,39.95,20.00,7.00,0.00,30.03,M,10.00,12.00,CLR,M,M,M,M,M,M,M,M,M,M,M,M,M,M,50.00,KBVU 161515Z AUTO 02007G12KT 10SM CLR 10/M03 A3003 RMK AO2,M
RTS,2023-03-16 15:15,-119.8764,39.6682,1539.00,30.20,19.40,63.75,70.00,5.00,0.00,30.12,M,10.00,M,CLR,M,M,M,M,M,M,M,M,M,M,M,M,M,M,24.26,KRTS 161515Z AUTO 07005KT 10SM CLR M01/M07 A3012 RMK AO2,M
05U,2023-03-16 15:15,-116.0051,39.6042,1811.23,23.00,19.40,85.85,0.00,0.00,0.00,30.14,M,10.00,M,CLR,M,M,M,M,M,M,M,M,M,M,M,M,M,M,23.00,K05U 161515Z AUTO 00000KT 10SM CLR M05/M07 A3014 RMK A01,M
MEV,2023-03-16 15:15,-119.7500,38.9963,1441.42,30.20,24.80,80.07,0.00,0.00,0.00,30.12,M,10.00,M,CLR,M,M,M,M,M,M,M,M,M,M,M,M,M,M,30.20,KMEV 161515Z AUTO 00000KT 10SM CLR M01/M04 A3012 RMK AO2,M
BAM,2023-03-16 15:15,-116.8743,40.5990,1382.36,30.20,21.20,68.83,40.00,5.00,0.00,30.18,M,10.00,M,CLR,M,M,M,M,M,M,M,M,M,M,M,M,M,M,24.26,KBAM 161515Z AUTO 04005KT 10SM CLR M01/M06 A3018 RMK AO1,M
HTH,2023-03-16 15:15,-118.6315,38.5448,1282.89,33.80,23.00,64.23,290.00,5.00,0.00,30.14,M,10.00,M,CLR,M,M,M,M,M,M,M,M,M,M,M,M,M,M,28.53,KHTH 161515Z AUTO 29005KT 10SM CLR 01/M05 A3014 RMK A01,M
TMT,2023-03-16 15:15,-117.1971,39.4643,1749.34,24.30,20.50,85.20,0.00,0.00,0.00,30.13,M,10.00,M,CLR,M,M,M,M,M,M,M,M,M,M,M,M,M,M,24.30,KTMT 161515Z AUTO 00000KT 10SM CLR M04/M06 A3013 RMK AO2 T10431064,M
05U,2023-03-16 15:30,-116.0051,39.6042,1811.23,M,M,M,40.00,4.00,0.00,30.14,M,10.00,M,CLR,M,M,M,M,M,M,M,M,M,M,M,M,M,M,M,K05U 161530Z AUTO 04004KT 10SM CLR A3014 RMK A01,M
BVU,2023-03-16 15:35,-114.8611,35.9475,671.00,50.00,26.60,39.95,20.00,8.00,0.00,30.03,M,10.00,M,CLR,M,M,M,M,M,M,M,M,M,M,M,M,M,M,50.00,KBVU 161535Z AUTO 02008KT 10SM CLR 10/M03 A3003 RMK AO2,M
RTS,2023-03-16 15:35,-119.8764,39.6682,1539.00,30.20,19.40,63.75,100.00,6.00,0.00,30.12,M,10.00,M,CLR,M,M,M,M,M,M,M,M,M,M,M,M,M,M,23.36,KRTS 161535Z AUTO 10006KT 10SM CLR M01/M07 A3012 RMK AO2,M
MEV,2023-03-16 15:35,-119.7500,38.9963,1441.42,30.20,24.80,80.07,0.00,0.00,0.00,30.12,M,10.00,M,CLR,M,M,M,M,M,M,M,M,M,M,M,M,M,M,30.20,KMEV 161535Z AUTO 00000KT 10SM CLR M01/M04 A3012 RMK AO2,M
BAM,2023-03-16 15:35,-116.8743,40.5990,1382.36,32.00,23.00,69.04,50.00,5.00,0.00,30.19,M,10.00,M,CLR,M,M,M,M,M,M,M,M,M,M,M,M,M,M,26.40,KBAM 161535Z AUTO 05005KT 10SM CLR 00/M05 A3019 RMK AO1,M
HTH,2023-03-16 15:35,-118.6315,38.5448,1282.89,33.80,23.00,64.23,300.00,7.00,0.00,30.14,M,10.00,M,CLR,M,M,M,M,M,M,M,M,M,M,M,M,M,M,26.97,KHTH 161535Z AUTO 30007KT 10SM CLR 01/M05 A3014 RMK A01,M
TMT,2023-03-16 15:35,-117.1971,39.4643,1749.34,25.20,21.00,83.83,0.00,0.00,0.00,30.13,M,10.00,M,SCT,M,M,M,1000.00,M,M,M,M,M,M,M,M,M,M,25.20,KTMT 161535Z AUTO 00000KT 10SM SCT010 M04/M06 A3013 RMK AO2 T10381061,M
P68,2023-03-16 15:53,-116.0056,39.6014,1993.00,25.00,18.00,74.36,20.00,4.00,0.00,30.12,1021.60,M,M,M,M,M,M,M,M,M,M,M,M,M,M,M,M,M,19.25,KP68 161553Z AUTO 02004KT M04/M08 A3012 RMK AO1 SLP216 T10391078,M
DRA,2023-03-16 15:53,-116.0278,36.6206,1009.00,43.00,24.10,46.91,30.00,17.00,0.00,30.06,1016.60,10.00,22.00,CLR,M,M,M,M,M,M,M,M,M,M,M,M,M,M,34.49,KDRA 161553Z AUTO 03017G22KT 10SM CLR 06/M04 A3006 RMK AO2 SLP166 T00611044,M
ELY,2023-03-16 15:53,-114.8453,39.2950,1909.00,23.00,15.10,71.30,140.00,5.00,0.00,30.10,1021.40,10.00,M,CLR,M,M,M,M,M,M,M,M,M,M,M,M,M,M,15.71,KELY 161553Z AUTO 14005KT 10SM CLR M05/M09 A3010 RMK AO2 SLP214 T10501094,M
VGT,2023-03-16 15:53,-115.1933,36.2111,667.00,53.00,23.00,30.67,340.00,16.00,0.00,30.04,1018.40,10.00,21.00,CLR,M,M,M,M,M,M,M,M,M,M,M,26.00,320.00,2023-03-16 15:33,53.10,KVGT 161553Z 34016G21KT 10SM CLR 12/M05 A3004 RMK AO2 PK WND 32026/1533 SLP184 T01171050,M
LOL,2023-03-16 15:53,-118.5701,40.0684,1192.43,33.00,19.90,57.93,20.00,6.00,0.00,30.16,1022.60,10.00,M,CLR,M,M,M,M,M,M,M,M,M,M,M,M,M,M,26.86,KLOL 161553Z AUTO 02006KT 10SM CLR 01/M07 A3016 RMK AO2 SLP226 T00061067,M
BVU,2023-03-16 15:55,-114.8611,35.9475,671.00,50.00,24.80,37.08,10.00,11.00,0.00,30.04,M,10.00,M,CLR,M,M,M,M,M,M,M,M,M,M,M,M,M,M,50.00,KBVU 161555Z AUTO 01011KT 10SM CLR 10/M04 A3004 RMK AO2,M
RNO,2023-03-16 15:55,-119.7711,39.4839,1341.00,36.00,21.00,54.08,150.00,3.00,0.00,30.13,1020.20,10.00,M,FEW,M,M,M,4000.00,M,M,M,M,M,M,M,M,M,M,33.26,KRNO 161555Z 15003KT 10SM FEW040 02/M06 A3013 RMK AO2 SLP202 T00221061,M
RTS,2023-03-16 15:55,-119.8764,39.6682,1539.00,32.00,19.40,59.27,120.00,9.00,0.00,30.13,M,10.00,M,CLR,M,M,M,M,M,M,M,M,M,M,M,M,M,M,23.51,KRTS 161555Z AUTO 12009KT 10SM CLR M00/M07 A3013 RMK AO2,M
05U,2023-03-16 15:55,-116.0051,39.6042,1811.23,M,M,M,30.00,5.00,0.00,30.15,M,10.00,M,CLR,M,M,M,M,M,M,M,M,M,M,M,M,M,M,M,K05U 161555Z AUTO 03005KT 10SM CLR A3015 RMK A01,M
MEV,2023-03-16 15:55,-119.7500,38.9963,1441.42,30.20,26.60,86.28,0.00,0.00,0.00,30.13,M,10.00,M,CLR,M,M,M,M,M,M,M,M,M,M,M,M,M,M,30.20,KMEV 161555Z AUTO 00000KT 10SM CLR M01/M03 A3013 RMK AO2,M
BAM,2023-03-16 15:55,-116.8743,40.5990,1382.36,32.00,21.20,63.99,50.00,9.00,0.00,30.19,M,10.00,M,CLR,M,M,M,M,M,M,M,M,M,M,M,M,M,M,23.51,KBAM 161555Z AUTO 05009KT 10SM CLR 00/M06 A3019 RMK AO1,M
HTH,2023-03-16 15:55,-118.6315,38.5448,1282.89,35.60,23.00,59.79,280.00,8.00,0.00,30.15,M,10.00,M,CLR,M,M,M,M,M,M,M,M,M,M,M,M,M,M,28.55,KHTH 161555Z AUTO 28008KT 10SM CLR 02/M05 A3015 RMK A01,M
TMT,2023-03-16 15:55,-117.1971,39.4643,1749.34,25.70,20.50,80.38,0.00,0.00,0.00,30.13,M,10.00,M,CLR,M,M,M,M,M,M,M,M,M,M,M,M,M,M,25.70,KTMT 161555Z AUTO 00000KT 10SM CLR M03/M06 A3013 RMK AO2 T10351064,M
LSV,2023-03-16 15:55,-115.0343,36.2362,570.00,52.70,23.70,32.05,20.00,21.00,0.00,30.03,1016.40,10.00,M,CLR,M,M,M,M,M,M,M,M,M,M,M,M,M,M,52.70,KLSV 161555Z AUTO 02021KT 10SM CLR 12/M05 A3003 RMK AO2 SLP164 T01151046 $,M
INS,2023-03-16 15:55,-115.6733,36.5872,955.00,45.00,24.40,43.84,0.00,0.00,0.00,30.07,1017.20,10.00,M,CLR,M,M,M,M,M,M,M,M,M,M,M,M,M,M,45.10,KINS 161555Z AUTO 00000KT 10SM CLR 07/M04 A3007 RMK AO2 SLP172 T00731042 $,M
WMC,2023-03-16 15:56,-117.8072,40.9019,1315.00,30.00,21.00,68.81,40.00,13.00,0.00,30.17,1022.90,10.00,21.00,CLR,M,M,M,M,M,M,M,M,M,M,M,M,M,M,19.01,KWMC 161556Z AUTO 04013G21KT 10SM CLR M01/M06 A3017 RMK AO2 SLP229 T10111061,M
NFL,2023-03-16 15:56,-118.7010,39.4166,1199.00,32.00,24.10,72.30,180.00,4.00,0.00,30.15,1017.50,10.00,M,CLR,M,M,M,M,M,M,M,M,M,M,M,M,M,M,27.42,KNFL 161556Z 18004KT 10SM CLR 00/M04 A3015 RMK AO2 SLP175 T00001044,M
TPH,2023-03-16 15:56,-117.0904,38.0505,1654.00,33.00,17.10,51.37,20.00,11.00,0.00,30.10,1019.20,10.00,M,CLR,M,M,M,M,M,M,M,M,M,M,M,M,M,M,23.86,KTPH 161556Z AUTO 02011KT 10SM CLR 01/M08 A3010 RMK AO2 SLP192 T00061083,M
LAS,2023-03-16 15:56,-115.1634,36.0719,663.00,51.00,26.10,37.57,60.00,11.00,0.00,30.05,1017.20,10.00,M,FEW,M,M,M,7000.00,M,M,M,M,M,M,M,M,M,M,51.10,KLAS 161556Z 06011KT 10SM FEW070 11/M03 A3005 RMK AO2 SLP172 T01061033,M
EKO,2023-03-16 15:56,-115.7860,40.8242,1367.00,24.00,15.00,68.08,100.00,2.92,M,30.17,1024.60,10.00,M,CLR,M,M,M,M,M,M,M,M,M,M,M,M,M,M,19.68,METAR KEKO 161556Z 10003KT 10SM CLR M04/M09 A3017 RMK AO2 SLP246 T10441094 TSNO FIBI,M
HND,2023-03-16 15:56,-115.1344,35.9729,742.79,49.00,26.10,40.77,30.00,11.00,0.00,30.06,1019.70,10.00,M,CLR,M,M,M,M,M,M,M,M,M,M,M,M,M,M,43.82,KHND 161556Z 03011KT 10SM CLR 09/M03 A3006 RMK AO2 SLP197 T00941033,M
BVU,2023-03-16 16:15,-114.8611,35.9475,671.00,50.00,24.80,37.08,20.00,11.00,0.00,30.05,M,10.00,17.00,CLR,M,M,M,M,M,M,M,M,M,M,M,M,M,M,50.00,KBVU 161615Z AUTO 02011G17KT 10SM CLR 10/M04 A3005 RMK AO2,M
RTS,2023-03-16 16:15,-119.8764,39.6682,1539.00,32.00,19.40,59.27,130.00,12.00,0.00,30.13,M,10.00,M,CLR,M,M,M,M,M,M,M,M,M,M,M,M,M,M,22.00,KRTS 161615Z AUTO 13012KT 10SM CLR 00/M07 A3013 RMK AO2,M
05U,2023-03-16 16:15,-116.0051,39.6042,1811.23,26.60,19.40,73.89,M,4.00,0.00,30.15,M,10.00,M,CLR,M,M,M,M,M,M,M,M,M,M,M,M,M,M,21.11,K05U 161615Z AUTO VRB04KT 10SM CLR M03/M07 A3015 RMK A01,M
MEV,2023-03-16 16:15,-119.7500,38.9963,1441.42,32.00,26.60,80.22,0.00,0.00,0.00,30.13,M,10.00,M,CLR,M,M,M,M,M,M,M,M,M,M,M,M,M,M,32.00,KMEV 161615Z AUTO 00000KT 10SM CLR M00/M03 A3013 RMK AO2,M
BAM,2023-03-16 16:15,-116.8743,40.5990,1382.36,33.80,21.20,59.53,50.00,8.00,0.00,30.19,M,10.00,M,CLR,M,M,M,M,M,M,M,M,M,M,M,M,M,M,26.33,KBAM 161615Z AUTO 05008KT 10SM CLR 01/M06 A3019 RMK AO1,M
HTH,2023-03-16 16:15,-118.6315,38.5448,1282.89,35.60,23.00,59.79,290.00,7.00,0.00,30.15,M,10.00,M,CLR,M,M,M,M,M,M,M,M,M,M,M,M,M,M,29.17,KHTH 161615Z AUTO 29007KT 10SM CLR 02/M05 A3015 RMK A01,M
TMT,2023-03-16 16:15,-117.1971,39.4643,1749.34,27.30,20.30,74.60,0.00,0.00,0.00,30.14,M,10.00,M,CLR,M,M,M,M,M,M,M,M,M,M,M,M,M,M,27.30,KTMT 161615Z AUTO 00000KT 10SM CLR M03/M06 A3014 RMK AO2 T10261065,M
05U,2023-03-16 16:30,-116.0051,39.6042,1811.23,26.60,19.40,73.89,20.00,4.00,0.00,30.15,M,10.00,M,CLR,M,M,M,M,M,M,M,M,M,M,M,M,M,M,21.11,K05U 161630Z AUTO 02004KT 10SM CLR M03/M07 A3015 RMK A01,M
BVU,2023-03-16 16:35,-114.8611,35.9475,671.00,51.80,24.80,34.69,30.00,13.00,0.00,30.05,M,10.00,20.00,CLR,M,M,M,M,M,M,M,M,M,M,M,M,M,M,51.80,KBVU 161635Z AUTO 03013G20KT 10SM CLR 11/M04 A3005 RMK AO2,M
RTS,2023-03-16 16:35,-119.8764,39.6682,1539.00,33.80,19.40,55.14,130.00,10.00,0.00,30.13,M,10.00,M,CLR,M,M,M,M,M,M,M,M,M,M,M,M,M,M,25.23,KRTS 161635Z AUTO 13010KT 10SM CLR 01/M07 A3013 RMK AO2,M
MEV,2023-03-16 16:35,-119.7500,38.9963,1441.42,32.00,26.60,80.22,0.00,0.00,0.00,30.13,M,10.00,M,CLR,M,M,M,M,M,M,M,M,M,M,M,M,M,M,32.00,KMEV 161635Z AUTO 00000KT 10SM CLR 00/M03 A3013 RMK AO2,M
BAM,2023-03-16 16:35,-116.8743,40.5990,1382.36,33.80,21.20,59.53,40.00,8.00,0.00,30.19,M,10.00,M,CLR,M,M,M,M,M,M,M,M,M,M,M,M,M,M,26.33,KBAM 161635Z AUTO 04008KT 10SM CLR 01/M06 A3019 RMK AO1,M
HTH,2023-03-16 16:35,-118.6315,38.5448,1282.89,35.60,23.00,59.79,310.00,6.00,0.00,30.15,M,10.00,M,CLR,M,M,M,M,M,M,M,M,M,M,M,M,M,M,29.87,KHTH 161635Z AUTO 31006KT 10SM CLR 02/M05 A3015 RMK A01,M
TMT,2023-03-16 16:35,-117.1971,39.4643,1749.34,28.20,20.50,72.50,0.00,0.00,0.00,30.13,M,10.00,M,CLR,M,M,M,M,M,M,M,M,M,M,M,M,M,M,28.20,KTMT 161635Z AUTO 00000KT 10SM CLR M02/M06 A3013 RMK AO2 T10211064,M
05U,2023-03-16 16:50,-116.0051,39.6042,1811.23,26.60,19.40,73.89,M,4.00,0.00,30.15,M,10.00,M,CLR,M,M,M,M,M,M,M,M,M,M,M,M,M,M,21.11,K05U 161650Z AUTO VRB04KT 10SM CLR M03/M07 A3015 RMK A01,M
P68,2023-03-16 16:53,-116.0056,39.6014,1993.00,26.10,19.00,74.16,90.00,4.00,0.00,30.13,1021.80,M,M,M,M,M,M,M,M,M,M,M,M,M,M,M,M,M,20.53,KP68 161653Z AUTO 09004KT M03/M07 A3013 RMK AO1 SLP218 T10331072,M
DRA,2023-03-16 16:53,-116.0278,36.6206,1009.00,46.00,23.00,39.96,50.00,13.00,0.00,30.07,1016.80,10.00,M,CLR,M,M,M,M,M,M,M,M,M,M,M,M,M,M,39.50,KDRA 161653Z AUTO 05013KT 10SM CLR 08/M05 A3007 RMK AO2 SLP168 T00781050,M
ELY,2023-03-16 16:53,-114.8453,39.2950,1909.00,28.00,17.10,63.19,20.00,9.00,0.00,30.10,1020.70,10.00,M,CLR,M,M,M,M,M,M,M,M,M,M,M,M,M,M,18.54,KELY 161653Z AUTO 02009KT 10SM CLR M02/M08 A3010 RMK AO2 SLP207 T10221083,M
VGT,2023-03-16 16:53,-115.1933,36.2111,667.00,54.00,24.10,31.07,330.00,16.00,0.00,30.05,1018.90,10.00,M,CLR,M,M,M,M,M,M,M,M,M,M,M,26.00,320.00,2023-03-16 16:13,54.00,KVGT 161653Z 33016KT 10SM CLR 12/M04 A3005 RMK AO2 PK WND 32026/1613 SLP189 T01221044,M
LOL,2023-03-16 16:53,-118.5701,40.0684,1192.43,37.00,21.00,51.99,40.00,8.00,0.00,30.17,1022.70,10.00,M,CLR,M,M,M,M,M,M,M,M,M,M,M,M,M,M,30.27,KLOL 161653Z AUTO 04008KT 10SM CLR 03/M06 A3017 RMK AO2 SLP227 T00281061,M
BVU,2023-03-16 16:55,-114.8611,35.9475,671.00,51.80,24.80,34.69,10.00,9.00,0.00,30.06,M,10.00,15.00,CLR,M,M,M,M,M,M,M,M,M,M,M,M,M,M,51.80,KBVU 161655Z AUTO 01009G15KT 330V040 10SM CLR 11/M04 A3006 RMK AO2,M
INS,2023-03-16 16:55,-115.6733,36.5872,955.00,47.50,23.20,38.08,30.00,11.00,0.00,30.09,1017.60,10.00,M,CLR,M,M,M,M,M,M,M,M,M,M,M,M,M,M,42.05,KINS 161655Z AUTO 03011KT 10SM CLR 09/M05 A3009 RMK AO2 SLP176 T00861049 $,M
RTS,2023-03-16 16:55,-119.8764,39.6682,1539.00,33.80,19.40,55.14,120.00,12.00,0.00,30.13,M,10.00,M,CLR,M,M,M,M,M,M,M,M,M,M,M,M,M,M,24.29,KRTS 161655Z AUTO 12012KT 10SM CLR 01/M07 A3013 RMK AO2,M
MEV,2023-03-16 16:55,-119.7500,38.9963,1441.42,33.80,26.60,74.63,M,4.00,0.00,30.13,M,10.00,M,CLR,M,M,M,M,M,M,M,M,M,M,M,M,M,M,29.52,KMEV 161655Z AUTO VRB04KT 10SM CLR 01/M03 A3013 RMK AO2,M
BAM,2023-03-16 16:55,-116.8743,40.5990,1382.36,33.80,21.20,59.53,50.00,4.00,0.00,30.19,M,10.00,M,CLR,M,M,M,M,M,M,M,M,M,M,M,M,M,M,29.52,KBAM 161655Z AUTO 05004KT 10SM CLR 01/M06 A3019 RMK AO1,M
HTH,2023-03-16 16:55,-118.6315,38.5448,1282.89,35.60,23.00,59.79,280.00,4.00,0.00,30.15,M,10.00,M,CLR,M,M,M,M,M,M,M,M,M,M,M,M,M,M,31.62,KHTH 161655Z AUTO 28004KT 10SM CLR 02/M05 A3015 RMK A01,M
LSV,2023-03-16 16:55,-115.0343,36.2362,570.00,55.80,21.40,25.98,40.00,22.00,0.00,30.04,1016.70,10.00,M,CLR,M,M,M,M,M,M,M,M,M,M,M,M,M,M,55.80,KLSV 161655Z AUTO 04022KT 10SM CLR 13/M06 A3004 RMK AO2 SLP167 T01321059 $,M
TMT,2023-03-16 16:55,-117.1971,39.4643,1749.34,28.80,20.10,69.55,0.00,0.00,0.00,30.13,M,10.00,M,CLR,M,M,M,M,M,M,M,M,M,M,M,M,M,M,28.80,KTMT 161655Z AUTO 00000KT 10SM CLR M02/M07 A3013 RMK AO2 T10181066,M
RNO,2023-03-16 16:55,-119.7711,39.4839,1341.00,40.00,21.90,48.21,120.00,9.00,0.00,30.14,1020.30,10.00,M,FEW,M,M,M,5000.00,M,M,M,M,M,M,M,M,M,M,33.34,KRNO 161655Z 12009KT 10SM FEW050 04/M06 A3014 RMK AO2 SLP203 T00441056,M
NFL,2023-03-16 16:56,-118.7010,39.4166,1199.00,36.00,24.10,61.62,220.00,4.00,0.00,30.16,1017.80,10.00,M,CLR,M,M,M,M,M,M,M,M,M,M,M,M,M,M,32.09,KNFL 161656Z 22004KT 10SM CLR 02/M04 A3016 RMK AO2 SLP178 T00221044,M
HND,2023-03-16 16:56,-115.1344,35.9729,742.79,51.00,26.10,37.57,40.00,10.00,0.00,30.08,1020.00,10.00,19.00,CLR,M,M,M,M,M,M,M,M,M,M,M,M,M,M,51.10,KHND 161656Z 04010G19KT 10SM CLR 11/M03 A3008 RMK AO2 SLP200 T01061033,M
TPH,2023-03-16 16:56,-117.0904,38.0505,1654.00,37.00,15.10,40.34,80.00,6.00,0.00,30.10,1019.00,10.00,M,CLR,M,M,M,M,M,M,M,M,M,M,M,M,M,M,31.55,KTPH 161656Z AUTO 08006KT 10SM CLR 03/M09 A3010 RMK AO2 SLP190 T00281094,M
LAS,2023-03-16 16:56,-115.1634,36.0719,663.00,53.00,24.10,32.11,360.00,16.00,0.00,30.06,1017.40,10.00,21.00,FEW,M,M,M,8000.00,M,M,M,M,M,M,M,M,M,M,53.10,KLAS 161656Z 36016G21KT 10SM FEW080 12/M04 A3006 RMK AO2 SLP174 T01171044,M
EKO,2023-03-16 16:56,-115.7860,40.8242,1367.00,28.00,16.00,60.25,70.00,5.05,M,30.17,1024.10,10.00,M,CLR,M,M,M,M,M,M,M,M,M,M,M,M,M,M,21.59,METAR KEKO 161656Z 07005KT 10SM CLR M02/M09 A3017 RMK AO2 SLP241 T10221089 TSNO FIBI,M
WMC,2023-03-16 16:56,-117.8072,40.9019,1315.00,35.00,21.00,56.05,40.00,8.00,0.00,30.17,1022.90,10.00,M,CLR,M,M,M,M,M,M,M,M,M,M,M,M,M,M,27.93,KWMC 161656Z AUTO 04008KT 10SM CLR 02/M06 A3017 RMK AO2 SLP229 T00171061,M
05U,2023-03-16 17:10,-116.0051,39.6042,1811.23,28.40,19.40,68.61,0.00,0.00,0.00,30.15,M,10.00,M,CLR,M,M,M,M,M,M,M,M,M,M,M,M,M,M,28.40,K05U 161710Z AUTO 00000KT 10SM CLR M02/M07 A3015 RMK A01,M
BVU,2023-03-16 17:15,-114.8611,35.9475,671.00,51.80,24.80,34.69,360.00,14.00,0.00,30.06,M,10.00,20.00,CLR,M,M,M,M,M,M,M,M,M,M,M,M,M,M,51.80,KBVU 161715Z AUTO 36014G20KT 10SM CLR 11/M04 A3006 RMK AO2,M
RTS,2023-03-16 17:15,-119.8764,39.6682,1539.00,33.80,19.40,55.14,100.00,11.00,0.00,30.13,M,10.00,M,CLR,M,M,M,M,M,M,M,M,M,M,M,M,M,M,24.74,KRTS 161715Z AUTO 10011KT 10SM CLR 01/M07 A3013 RMK AO2,M
MEV,2023-03-16 17:15,-119.7500,38.9963,1441.42,35.60,26.60,69.46,0.00,0.00,0.00,30.13,M,10.00,M,CLR,M,M,M,M,M,M,M,M,M,M,M,M,M,M,35.60,KMEV 161715Z AUTO 00000KT 10SM CLR 02/M03 A3013 RMK AO2,M
BAM,2023-03-16 17:15,-116.8743,40.5990,1382.36,35.60,21.20,55.41,100.00,3.00,0.00,30.19,M,10.00,M,CLR,M,M,M,M,M,M,M,M,M,M,M,M,M,M,32.80,KBAM 161715Z AUTO 10003KT 10SM CLR 02/M06 A3019 RMK AO1,M
HTH,2023-03-16 17:15,-118.6315,38.5448,1282.89,37.40,24.80,60.04,320.00,6.00,0.00,30.16,M,10.00,M,CLR,M,M,M,M,M,M,M,M,M,M,M,M,M,M,32.03,KHTH 161715Z AUTO 32006KT 10SM CLR 03/M04 A3016 RMK A01,M
TMT,2023-03-16 17:15,-117.1971,39.4643,1749.34,30.40,19.40,63.24,20.00,9.00,0.00,30.14,M,10.00,M,CLR,M,M,M,M,M,M,M,M,M,M,M,M,M,M,21.52,KTMT 161715Z AUTO 02009KT 10SM CLR M01/M07 A3014 RMK AO2 T10091070,M
05U,2023-03-16 17:30,-116.0051,39.6042,1811.23,28.40,19.40,68.61,M,4.00,0.00,30.15,M,10.00,M,CLR,M,M,M,M,M,M,M,M,M,M,M,M,M,M,23.22,K05U 161730Z AUTO VRB04KT 10SM CLR M02/M07 A3015 RMK A01,M
BVU,2023-03-16 17:35,-114.8611,35.9475,671.00,51.80,24.80,34.69,350.00,12.00,0.00,30.06,M,10.00,M,CLR,M,M,M,M,M,M,M,M,M,M,M,M,M,M,51.80,KBVU 161735Z AUTO 35012KT 10SM CLR 11/M04 A3006 RMK AO2,M
RTS,2023-03-16 17:35,-119.8764,39.6682,1539.00,35.60,19.40,51.33,110.00,10.00,0.00,30.14,M,10.00,M,FEW,M,M,M,3400.00,M,M,M,M,M,M,M,M,M,M,27.48,KRTS 161735Z AUTO 11010KT 10SM FEW034 02/M07 A3014 RMK AO2,M
MEV,2023-03-16 17:35,-119.7500,38.9963,1441.42,35.60,24.80,64.46,0.00,0.00,0.00,30.13,M,10.00,M,CLR,M,M,M,M,M,M,M,M,M,M,M,M,M,M,35.60,KMEV 161735Z AUTO 00000KT 10SM CLR 02/M04 A3013 RMK AO2,M
BAM,2023-03-16 17:35,-116.8743,40.5990,1382.36,35.60,21.20,55.41,100.00,4.00,0.00,30.19,M,10.00,M,CLR,M,M,M,M,M,M,M,M,M,M,M,M,M,M,31.62,KBAM 161735Z AUTO 10004KT 10SM CLR 02/M06 A3019 RMK AO1,M
HTH,2023-03-16 17:35,-118.6315,38.5448,1282.89,37.40,24.80,60.04,320.00,4.00,0.00,30.16,M,10.00,M,CLR,M,M,M,M,M,M,M,M,M,M,M,M,M,M,33.73,KHTH 161735Z AUTO 32004KT 10SM CLR 03/M04 A3016 RMK A01,M
TMT,2023-03-16 17:35,-117.1971,39.4643,1749.34,30.70,18.30,59.60,60.00,4.00,0.00,30.13,M,10.00,M,CLR,M,M,M,M,M,M,M,M,M,M,M,M,M,M,25.90,KTMT 161735Z AUTO 06004KT 10SM CLR M01/M08 A3013 RMK AO2 T10071076,M
P68,2023-03-16 17:53,-116.0056,39.6014,1993.00,28.90,19.90,68.67,60.00,4.00,0.00,30.13,1021.40,M,M,M,M,M,M,M,M,M,M,M,M,M,M,M,M,M,23.80,KP68 161753Z AUTO 06004KT M02/M07 A3013 RMK AO1 SLP214 T10171067 11017 21083 51004,M
DRA,2023-03-16 17:53,-116.0278,36.6206,1009.00,50.00,23.00,34.39,30.00,14.00,0.00,30.06,1016.40,10.00,M,CLR,M,M,M,M,M,M,M,M,M,M,M,M,M,M,50.00,KDRA 161753Z AUTO 03014KT 10SM CLR 10/M05 A3006 RMK AO2 SLP164 T01001050 10100 20044 50007,M
ELY,2023-03-16 17:53,-114.8453,39.2950,1909.00,30.00,15.10,53.38,10.00,12.00,0.00,30.10,1020.70,10.00,M,CLR,M,M,M,M,M,M,M,M,M,M,M,M,M,M,19.46,KELY 161753Z AUTO 01012KT 10SM CLR M01/M09 A3010 RMK AO2 SLP207 T10111094 11011 21072 51002,M
LOL,2023-03-16 17:53,-118.5701,40.0684,1192.43,39.00,19.90,45.87,320.00,4.00,0.00,30.17,1023.00,10.00,M,CLR,M,M,M,M,M,M,M,M,M,M,M,M,M,M,35.59,KLOL 161753Z AUTO 32004KT 10SM CLR 04/M07 A3017 RMK AO2 SLP230 T00391067 10044 21078 52004,M
VGT,2023-03-16 17:53,-115.1933,36.2111,667.00,56.00,24.10,29.00,340.00,7.00,0.00,30.06,1019.20,10.00,M,CLR,M,M,M,M,M,M,M,M,M,M,M,M,M,M,55.90,KVGT 161753Z 34007KT 10SM CLR 13/M04 A3006 RMK AO2 SLP192 T01331044 10133 20089 51013,M
BVU,2023-03-16 17:55,-114.8611,35.9475,671.00,53.60,24.80,32.46,360.00,12.00,0.00,30.06,M,10.00,19.00,CLR,M,M,M,M,M,M,M,M,M,M,M,M,M,M,53.60,KBVU 161755Z AUTO 36012G19KT 10SM CLR 12/M04 A3006 RMK AO2,M
RNO,2023-03-16 17:55,-119.7711,39.4839,1341.00,42.00,21.90,44.27,M,6.00,0.00,30.14,1020.20,10.00,M,FEW,M,M,M,5000.00,M,M,M,M,M,M,M,M,M,M,37.69,KRNO 161755Z VRB06KT 10SM FEW050 06/M06 A3014 RMK AO2 SLP202 T00561056 10056 21011 51006,M
RTS,2023-03-16 17:55,-119.8764,39.6682,1539.00,35.60,19.40,51.33,130.00,8.00,0.00,30.14,M,10.00,M,CLR,M,M,M,M,M,M,M,M,M,M,M,M,M,M,28.55,KRTS 161755Z AUTO 13008KT 10SM CLR 02/M07 A3014 RMK AO2,M
05U,2023-03-16 17:55,-116.0051,39.6042,1811.23,30.20,19.40,63.75,0.00,0.00,0.00,30.15,M,10.00,M,CLR,M,M,M,M,M,M,M,M,M,M,M,M,M,M,30.20,K05U 161755Z AUTO 00000KT 10SM CLR M01/M07 A3015 RMK A01,M
MEV,2023-03-16 17:55,-119.7500,38.9963,1441.42,37.40,24.80,60.04,0.00,0.00,0.00,30.13,M,10.00,M,CLR,M,M,M,M,M,M,M,M,M,M,M,M,M,M,37.40,KMEV 161755Z AUTO 00000KT 10SM CLR 03/M04 A3013 RMK AO2,M
BAM,2023-03-16 17:55,-116.8743,40.5990,1382.36,35.60,21.20,55.41,130.00,4.00,0.00,30.20,M,10.00,M,CLR,M,M,M,M,M,M,M,M,M,M,M,M,M,M,31.62,KBAM 161755Z AUTO 13004KT 10SM CLR 02/M06 A3020 RMK AO1,M
HTH,2023-03-16 17:55,-118.6315,38.5448,1282.89,39.20,23.00,51.89,M,4.00,0.00,30.16,M,10.00,M,CLR,M,M,M,M,M,M,M,M,M,M,M,M,M,M,35.83,KHTH 161755Z AUTO VRB04KT 10SM CLR 04/M05 A3016 RMK A01,M
TMT,2023-03-16 17:55,-117.1971,39.4643,1749.34,31.50,18.90,59.20,360.00,7.00,0.00,30.13,M,7.00,M,CLR,M,M,M,M,M,M,M,M,M,M,M,M,M,M,24.17,KTMT 161755Z AUTO 36007KT 7SM CLR 00/M07 A3013 RMK AO2 T10031073 11003 21055,M
LSV,2023-03-16 17:55,-115.0343,36.2362,570.00,57.70,20.10,22.95,30.00,17.00,0.00,30.04,1016.70,10.00,22.00,CLR,M,M,M,M,M,M,M,M,M,M,M,27.00,30.00,2023-03-16 17:32,57.70,KLSV 161755Z AUTO 03017G22KT 10SM CLR 14/M07 A3004 RMK AO2 PK WND 03027/32 SLP167 T01431066 10143 20086 51009 $,M
INS,2023-03-16 17:55,-115.6733,36.5872,955.00,49.00,20.30,31.96,40.00,4.00,0.00,30.08,1017.30,10.00,M,CLR,M,M,M,M,M,M,M,M,M,M,M,M,M,M,47.16,KINS 161755Z AUTO 04004KT 10SM CLR 09/M06 A3008 RMK AO2 SLP173 T00941065 10094 20029 50008 $,M
WMC,2023-03-16 17:56,-117.8072,40.9019,1315.00,38.00,19.00,46.08,50.00,11.00,0.00,30.17,1022.60,10.00,M,CLR,M,M,M,M,M,M,M,M,M,M,M,M,M,M,29.92,KWMC 161756Z AUTO 05011KT 10SM CLR 03/M07 A3017 RMK AO2 SLP226 T00331072 10033 21039 51004,M
NFL,2023-03-16 17:56,-118.7010,39.4166,1199.00,39.00,23.00,52.30,M,3.00,0.00,30.16,1017.90,10.00,M,CLR,M,M,M,M,M,M,M,M,M,M,M,M,M,M,36.69,KNFL 161756Z VRB03KT 10SM CLR 04/M05 A3016 RMK AO2 SLP179 T00391050 10039 21039 51007,M
TPH,2023-03-16 17:56,-117.0904,38.0505,1654.00,38.00,8.10,28.54,0.00,0.00,0.00,30.09,1018.90,10.00,M,CLR,M,M,M,M,M,M,M,M,M,M,M,M,M,M,37.90,KTPH 161756Z AUTO 00000KT 10SM CLR 03/M13 A3009 RMK AO2 SLP189 T00331133 10039 21044 50001,M
LAS,2023-03-16 17:56,-115.1634,36.0719,663.00,55.00,21.90,27.31,30.00,10.00,0.00,30.07,1017.50,10.00,21.00,FEW,M,M,M,8000.00,M,M,M,M,M,M,M,M,M,M,55.00,KLAS 161756Z 03010G21KT 10SM FEW080 13/M06 A3007 RMK AO2 SLP175 T01281056 10128 20083 51013,M
EKO,2023-03-16 17:56,-115.7860,40.8242,1367.00,31.00,18.00,58.12,M,2.92,M,30.17,1023.90,10.00,14.00,CLR,M,M,M,M,M,M,M,M,M,M,M,M,M,M,27.67,METAR KEKO 161756Z VRB03G14KT 10SM CLR M01/M08 A3017 RMK AO2 SLP239 T10061078 11006 21067 51002 TSNO FIBI,M
HND,2023-03-16 17:56,-115.1344,35.9729,742.79,53.00,25.00,33.34,40.00,12.00,0.00,30.08,1020.10,10.00,M,CLR,M,M,M,M,M,M,M,M,M,M,M,M,M,M,53.10,KHND 161756Z 04012KT 10SM CLR 12/M04 A3008 RMK AO2 SLP201 T01171039 10117 20056 51010,M
BVU,2023-03-16 18:15,-114.8611,35.9475,671.00,53.60,24.80,32.46,10.00,11.00,0.00,30.06,M,10.00,18.00,CLR,M,M,M,M,M,M,M,M,M,M,M,M,M,M,53.60,KBVU 161815Z AUTO 01011G18KT 10SM CLR 12/M04 A3006 RMK AO2,M
RTS,2023-03-16 18:15,-119.8764,39.6682,1539.00,37.40,19.40,47.80,130.00,9.00,0.00,30.13,M,10.00,M,CLR,M,M,M,M,M,M,M,M,M,M,M,M,M,M,30.23,KRTS 161815Z AUTO 13009KT 10SM CLR 03/M07 A3013 RMK AO2,M
05U,2023-03-16 18:15,-116.0051,39.6042,1811.23,30.20,17.60,59.01,70.00,3.00,0.00,30.15,M,10.00,M,CLR,M,M,M,M,M,M,M,M,M,M,M,M,M,M,26.63,K05U 161815Z AUTO 07003KT 10SM CLR M01/M08 A3015 RMK A01,M
MEV,2023-03-16 18:15,-119.7500,38.9963,1441.42,37.40,23.00,55.68,230.00,4.00,0.00,30.13,M,10.00,M,CLR,M,M,M,M,M,M,M,M,M,M,M,M,M,M,33.73,KMEV 161815Z AUTO 23004KT 10SM CLR 03/M05 A3013 RMK AO2,M
BAM,2023-03-16 18:15,-116.8743,40.5990,1382.36,35.60,23.00,59.79,340.00,3.00,0.00,30.19,M,10.00,M,CLR,M,M,M,M,M,M,M,M,M,M,M,M,M,M,32.80,KBAM 161815Z AUTO 34003KT 10SM CLR 02/M05 A3019 RMK AO1,M
HTH,2023-03-16 18:15,-118.6315,38.5448,1282.89,39.20,23.00,51.89,320.00,6.00,0.00,30.16,M,10.00,M,CLR,M,M,M,M,M,M,M,M,M,M,M,M,M,M,34.20,KHTH 161815Z AUTO 32006KT 10SM CLR 04/M05 A3016 RMK A01,M
TMT,2023-03-16 18:15,-117.1971,39.4643,1749.34,32.70,18.30,54.97,10.00,8.00,0.00,30.13,M,10.00,M,CLR,M,M,M,M,M,M,M,M,M,M,M,M,M,M,24.98,KTMT 161815Z AUTO 01008KT 10SM CLR 00/M08 A3013 RMK AO2 T00041076,M
BVU,2023-03-16 18:35,-114.8611,35.9475,671.00,55.40,23.00,28.20,10.00,14.00,0.00,30.06,M,10.00,20.00,CLR,M,M,M,M,M,M,M,M,M,M,M,M,M,M,55.40,KBVU 161835Z AUTO 01014G20KT 10SM CLR 13/M05 A3006 RMK AO2,M
RTS,2023-03-16 18:35,-119.8764,39.6682,1539.00,37.40,21.20,51.61,140.00,6.00,0.00,30.13,M,10.00,13.00,CLR,M,M,M,M,M,M,M,M,M,M,M,M,M,M,32.03,KRTS 161835Z AUTO 14006G13KT 10SM CLR 03/M06 A3013 RMK AO2,M
05U,2023-03-16 18:35,-116.0051,39.6042,1811.23,30.20,17.60,59.01,80.00,4.00,0.00,30.15,M,10.00,M,CLR,M,M,M,M,M,M,M,M,M,M,M,M,M,M,25.32,K05U 161835Z AUTO 08004KT 10SM CLR M01/M08 A3015 RMK A01,M
MEV,2023-03-16 18:35,-119.7500,38.9963,1441.42,39.20,24.80,55.95,0.00,0.00,0.00,30.13,M,10.00,M,CLR,M,M,M,M,M,M,M,M,M,M,M,M,M,M,39.20,KMEV 161835Z AUTO 00000KT 10SM CLR 04/M04 A3013 RMK AO2,M
BAM,2023-03-16 18:35,-116.8743,40.5990,1382.36,37.40,21.20,51.61,0.00,0.00,0.00,30.19,M,10.00,M,CLR,M,M,M,M,M,M,M,M,M,M,M,M,M,M,37.40,KBAM 161835Z AUTO 00000KT 10SM CLR 03/M06 A3019 RMK AO1,M
HTH,2023-03-16 18:35,-118.6315,38.5448,1282.89,41.00,24.80,52.17,300.00,4.00,0.00,30.15,M,10.00,M,CLR,M,M,M,M,M,M,M,M,M,M,M,M,M,M,37.93,KHTH 161835Z AUTO 30004KT 10SM CLR 05/M04 A3015 RMK A01,M
TMT,2023-03-16 18:35,-117.1971,39.4643,1749.34,33.40,20.10,57.73,20.00,8.00,0.00,30.13,M,10.00,M,CLR,M,M,M,M,M,M,M,M,M,M,M,M,M,M,25.84,KTMT 161835Z AUTO 02008KT 10SM CLR 01/M07 A3013 RMK AO2 T00081066,M
P68,2023-03-16 18:53,-116.0056,39.6014,1993.00,30.90,17.10,56.14,M,4.00,0.00,30.11,1020.90,M,M,M,M,M,M,M,M,M,M,M,M,M,M,M,M,M,26.14,KP68 161853Z AUTO VRB04KT M01/M08 A3011 RMK AO1 SLP209 T10061083,M
DRA,2023-03-16 18:53,-116.0278,36.6206,1009.00,52.00,21.90,30.49,30.00,7.00,0.00,30.05,1016.10,10.00,M,CLR,M,M,M,M,M,M,M,M,M,M,M,M,M,M,52.00,KDRA 161853Z AUTO 03007KT 010V070 10SM CLR 11/M06 A3005 RMK AO2 SLP161 T01111056,M
ELY,2023-03-16 18:53,-114.8453,39.2950,1909.00,32.00,16.00,51.20,20.00,13.00,0.00,30.10,1020.60,10.00,21.00,CLR,M,M,M,M,M,M,M,M,M,M,M,M,M,M,21.57,KELY 161853Z AUTO 02013G21KT 10SM CLR 00/M09 A3010 RMK AO2 SLP206 T00001089,M
LOL,2023-03-16 18:53,-118.5701,40.0684,1192.43,42.00,21.00,42.62,350.00,5.00,0.00,30.16,1023.10,10.00,M,CLR,M,M,M,M,M,M,M,M,M,M,M,M,M,M,38.39,KLOL 161853Z AUTO 35005KT 10SM CLR 06/M06 A3016 RMK AO2 SLP231 T00561061,M
VGT,2023-03-16 18:53,-115.1933,36.2111,667.00,58.00,18.00,20.83,330.00,11.00,0.00,30.05,1018.80,10.00,M,CLR,M,M,M,M,M,M,M,M,M,M,M,M,M,M,57.90,KVGT 161853Z 33011KT 10SM CLR 14/M08 A3005 RMK AO2 SLP188 T01441078,M
BVU,2023-03-16 18:55,-114.8611,35.9475,671.00,55.40,21.20,26.13,20.00,12.00,0.00,30.06,M,10.00,18.00,CLR,M,M,M,M,M,M,M,M,M,M,M,M,M,M,55.40,KBVU 161855Z AUTO 02012G18KT 10SM CLR 13/M06 A3006 RMK AO2,M
INS,2023-03-16 18:55,-115.6733,36.5872,955.00,50.70,19.60,29.01,350.00,9.00,0.00,30.08,1017.30,10.00,M,CLR,M,M,M,M,M,M,M,M,M,M,M,M,M,M,50.70,KINS 161855Z AUTO 35009KT 10SM CLR 10/M07 A3008 RMK AO2 SLP173 T01041069 $,M
RNO,2023-03-16 18:55,-119.7711,39.4839,1341.00,43.00,21.90,42.77,M,6.00,0.00,30.13,1020.00,10.00,14.00,SCT,M,M,M,5000.00,M,M,M,M,M,M,M,M,M,M,38.78,KRNO 161855Z VRB06G14KT 10SM SCT050 06/M06 A3013 RMK AO2 SLP200 T00611056,M
RTS,2023-03-16 18:55,-119.8764,39.6682,1539.00,37.40,21.20,51.61,110.00,11.00,0.00,30.13,M,10.00,M,FEW,M,M,M,3600.00,M,M,M,M,M,M,M,M,M,M,29.29,KRTS 161855Z AUTO 11011KT 10SM FEW036 03/M06 A3013 RMK AO2,M
05U,2023-03-16 18:55,-116.0051,39.6042,1811.23,32.00,15.80,50.75,60.00,3.00,0.00,30.14,M,10.00,M,CLR,M,M,M,M,M,M,M,M,M,M,M,M,M,M,28.69,K05U 161855Z AUTO 06003KT 10SM CLR M00/M09 A3014 RMK A01,M
MEV,2023-03-16 18:55,-119.7500,38.9963,1441.42,39.20,24.80,55.95,M,4.00,0.00,30.13,M,10.00,M,SCT,M,M,M,3300.00,M,M,M,M,M,M,M,M,M,M,35.83,KMEV 161855Z AUTO VRB04KT 10SM SCT033 04/M04 A3013 RMK AO2,M
BAM,2023-03-16 18:55,-116.8743,40.5990,1382.36,37.40,23.00,55.68,140.00,4.00,0.00,30.19,M,10.00,M,CLR,M,M,M,M,M,M,M,M,M,M,M,M,M,M,33.73,KBAM 161855Z AUTO 14004KT 10SM CLR 03/M05 A3019 RMK AO1,M
HTH,2023-03-16 18:55,-118.6315,38.5448,1282.89,41.00,23.00,48.39,320.00,6.00,0.00,30.15,M,10.00,M,CLR,M,M,M,M,M,M,M,M,M,M,M,M,M,M,36.37,KHTH 161855Z AUTO 32006KT 10SM CLR 05/M05 A3015 RMK A01,M
TMT,2023-03-16 18:55,-117.1971,39.4643,1749.34,34.00,19.90,55.88,10.00,6.00,0.00,30.13,M,10.00,M,CLR,M,M,M,M,M,M,M,M,M,M,M,M,M,M,27.94,KTMT 161855Z AUTO 01006KT 10SM CLR 01/M07 A3013 RMK AO2 T00111067,M
LSV,2023-03-16 18:55,-115.0343,36.2362,570.00,59.50,20.70,22.07,50.00,15.00,0.00,30.04,1016.70,10.00,M,CLR,M,M,M,M,M,M,M,M,M,M,M,M,M,M,59.50,KLSV 161855Z AUTO 05015KT 10SM CLR 15/M06 A3004 RMK AO2 SLP167 T01531063 $,M
WMC,2023-03-16 18:56,-117.8072,40.9019,1315.00,41.00,19.00,40.83,M,M,0.00,30.17,1022.20,10.00,M,CLR,M,M,M,M,M,M,M,M,M,M,M,M,M,M,M,KWMC 161856Z AUTO 10SM CLR 05/M07 A3017 RMK AO2 SLP222 T00501072,M
NFL,2023-03-16 18:56,-118.7010,39.4166,1199.00,41.00,21.00,44.47,220.00,4.00,0.00,30.16,1017.60,10.00,M,SCT,M,M,M,5000.00,M,M,M,M,M,M,M,M,M,M,37.93,KNFL 161856Z 22004KT 10SM SCT050 05/M06 A3016 RMK AO2 SLP176 T00501061,M
HND,2023-03-16 18:56,-115.1344,35.9729,742.79,55.00,23.00,28.61,360.00,6.00,0.00,30.07,1019.80,10.00,15.00,CLR,M,M,M,M,M,M,M,M,M,M,M,M,M,M,55.00,KHND 161856Z 36006G15KT 10SM CLR 13/M05 A3007 RMK AO2 SLP198 T01281050,M
TPH,2023-03-16 18:56,-117.0904,38.0505,1654.00,41.00,10.00,27.55,M,3.00,0.00,30.08,1018.30,10.00,M,CLR,M,M,M,M,M,M,M,M,M,M,M,M,M,M,38.98,KTPH 161856Z AUTO VRB03KT 10SM CLR 05/M12 A3008 RMK AO2 SLP183 T00501122,M
LAS,2023-03-16 18:56,-115.1634,36.0719,663.00,55.00,21.90,27.31,70.00,8.00,0.00,30.05,1017.10,10.00,19.00,FEW,M,M,M,8000.00,M,M,M,M,M,M,M,M,M,M,55.00,KLAS 161856Z 07008G19KT 10SM FEW080 13/M06 A3005 RMK AO2 SLP171 T01281056,M
EKO,2023-03-16 18:56,-115.7860,40.8242,1367.00,34.00,19.00,53.77,M,M,M,30.16,1023.50,10.00,M,CLR,M,M,M,M,M,M,M,M,M,M,M,M,M,M,M,METAR KEKO 161856Z KT 10SM CLR 01/M07 A3016 RMK AO2 SLP235 T00111072 TSNO FIBI,M
LAS,2023-03-16 19:09,-115.1634,36.0719,663.00,58.00,23.00,25.76,10.00,11.00,0.00,30.05,M,10.00,18.00,FEW,M,M,M,8000.00,M,M,M,M,M,M,M,M,M,M,57.90,KLAS 161909Z 01011G18KT 10SM FEW080 14/M05 A3005 RMK AO2 T01441050,M
BVU,2023-03-16 19:15,-114.8611,35.9475,671.00,55.40,23.00,28.20,30.00,9.00,0.00,30.05,M,10.00,17.00,CLR,M,M,M,M,M,M,M,M,M,M,M,M,M,M,55.40,KBVU 161915Z AUTO 03009G17KT 10SM CLR 13/M05 A3005 RMK AO2,M
CXP,2023-03-16 19:15,-119.7326,39.1923,1431.00,41.00,23.00,48.39,M,4.00,0.00,30.15,M,10.00,M,CLR,M,M,M,M,M,M,M,M,M,M,M,M,M,M,37.93,KCXP 161915Z AUTO VRB04KT 10SM CLR 05/M05 A3015 RMK AO2,M
RTS,2023-03-16 19:15,-119.8764,39.6682,1539.00,39.20,23.00,51.89,120.00,10.00,0.00,30.13,M,10.00,M,FEW,M,M,M,3600.00,M,M,M,M,M,M,M,M,M,M,32.00,KRTS 161915Z AUTO 12010KT 10SM FEW036 04/M05 A3013 RMK AO2,M
05U,2023-03-16 19:15,-116.0051,39.6042,1811.23,32.00,14.00,46.92,M,4.00,0.00,30.14,M,10.00,M,CLR,M,M,M,M,M,M,M,M,M,M,M,M,M,M,27.42,K05U 161915Z AUTO VRB04KT 10SM CLR M00/M10 A3014 RMK A01,M
MEV,2023-03-16 19:15,-119.7500,38.9963,1441.42,41.00,26.60,56.22,0.00,0.00,0.00,30.13,M,10.00,M,CLR,M,M,M,M,M,M,M,M,M,M,M,M,M,M,41.00,KMEV 161915Z AUTO 00000KT 10SM CLR 05/M03 A3013 RMK AO2,M
BAM,2023-03-16 19:15,-116.8743,40.5990,1382.36,37.40,23.00,55.68,0.00,0.00,0.00,30.19,M,10.00,M,CLR,M,M,M,M,M,M,M,M,M,M,M,M,M,M,37.40,KBAM 161915Z AUTO 00000KT 10SM CLR 03/M05 A3019 RMK AO1,M
HTH,2023-03-16 19:15,-118.6315,38.5448,1282.89,41.00,23.00,48.39,330.00,6.00,0.00,30.15,M,10.00,M,CLR,M,M,M,M,M,M,M,M,M,M,M,M,M,M,36.37,KHTH 161915Z AUTO 33006KT 10SM CLR 05/M05 A3015 RMK A01,M
TMT,2023-03-16 19:15,-117.1971,39.4643,1749.34,33.80,19.40,55.14,360.00,8.00,0.00,30.12,M,10.00,M,CLR,M,M,M,M,M,M,M,M,M,M,M,M,M,M,26.33,KTMT 161915Z AUTO 36008KT 10SM CLR 01/M07 A3012 RMK AO2 T00101070,M
BVU,2023-03-16 19:35,-114.8611,35.9475,671.00,57.20,21.20,24.49,360.00,14.00,0.00,30.05,M,10.00,M,CLR,M,M,M,M,M,M,M,M,M,M,M,M,M,M,57.20,KBVU 161935Z AUTO 36014KT 10SM CLR 14/M06 A3005 RMK AO2,M
CXP,2023-03-16 19:35,-119.7326,39.1923,1431.00,41.00,23.00,48.39,M,4.00,0.00,30.14,M,10.00,M,FEW,M,M,M,3700.00,M,M,M,M,M,M,M,M,M,M,37.93,KCXP 161935Z AUTO VRB04KT 10SM FEW037 05/M05 A3014 RMK AO2,M
RTS,2023-03-16 19:35,-119.8764,39.6682,1539.00,39.20,23.00,51.89,110.00,9.00,0.00,30.13,M,10.00,14.00,FEW,M,M,M,3700.00,M,M,M,M,M,M,M,M,M,M,32.47,KRTS 161935Z AUTO 11009G14KT 10SM FEW037 04/M05 A3013 RMK AO2,M
05U,2023-03-16 19:35,-116.0051,39.6042,1811.23,32.00,15.80,50.75,M,4.00,0.00,30.14,M,10.00,M,CLR,M,M,M,M,M,M,M,M,M,M,M,M,M,M,27.42,K05U 161935Z AUTO VRB04KT 10SM CLR 00/M09 A3014 RMK A01,M
MEV,2023-03-16 19:35,-119.7500,38.9963,1441.42,39.20,26.60,60.29,360.00,4.00,0.00,30.12,M,10.00,M,BKN,M,M,M,3400.00,M,M,M,M,M,M,M,M,M,M,35.83,KMEV 161935Z AUTO 36004KT 10SM BKN034 04/M03 A3012 RMK AO2,M
BAM,2023-03-16 19:35,-116.8743,40.5990,1382.36,41.00,26.60,56.22,120.00,4.00,0.00,30.18,M,10.00,M,CLR,M,M,M,M,M,M,M,M,M,M,M,M,M,M,37.93,KBAM 161935Z AUTO 12004KT 10SM CLR 05/M03 A3018 RMK AO1,M
HTH,2023-03-16 19:35,-118.6315,38.5448,1282.89,42.80,23.00,45.14,300.00,4.00,0.00,30.14,M,10.00,M,CLR,M,M,M,M,M,M,M,M,M,M,M,M,M,M,40.03,KHTH 161935Z AUTO 30004KT 10SM CLR 06/M05 A3014 RMK A01,M
TMT,2023-03-16 19:35,-117.1971,39.4643,1749.34,36.00,20.10,52.05,350.00,8.00,0.00,30.12,M,10.00,M,CLR,M,M,M,M,M,M,M,M,M,M,M,M,M,M,29.04,KTMT 161935Z AUTO 35008KT 10SM CLR 02/M07 A3012 RMK AO2 T00221066,M
P68,2023-03-16 19:53,-116.0056,39.6014,1993.00,34.00,18.00,51.52,30.00,3.00,0.00,30.11,1020.40,M,M,M,M,M,M,M,M,M,M,M,M,M,M,M,M,M,30.97,KP68 161953Z AUTO 03003KT 01/M08 A3011 RMK AO1 SLP204 T00111078,M
DRA,2023-03-16 19:53,-116.0278,36.6206,1009.00,54.00,24.10,31.07,100.00,10.00,0.00,30.05,1015.90,10.00,18.00,CLR,M,M,M,M,M,M,M,M,M,M,M,M,M,M,54.00,KDRA 161953Z AUTO 10010G18KT 10SM CLR 12/M04 A3005 RMK AO2 SLP159 T01221044,M
LOL,2023-03-16 19:53,-118.5701,40.0684,1192.43,43.00,19.90,39.29,M,5.00,0.00,30.15,1022.20,10.00,M,CLR,M,M,M,M,M,M,M,M,M,M,M,M,M,M,39.46,KLOL 161953Z AUTO VRB05KT 10SM CLR 06/M07 A3015 RMK AO2 SLP222 T00611067,M
ELY,2023-03-16 19:53,-114.8453,39.2950,1909.00,33.00,18.00,53.40,10.00,17.00,0.00,30.09,1020.30,10.00,M,CLR,M,M,M,M,M,M,M,M,M,M,M,M,M,M,21.52,KELY 161953Z AUTO 01017KT 10SM CLR 01/M08 A3009 RMK AO2 SLP203 T00061078,M
VGT,2023-03-16 19:53,-115.1933,36.2111,667.00,60.00,17.10,18.52,340.00,8.00,0.00,30.04,1018.30,10.00,17.00,CLR,M,M,M,M,M,M,M,M,M,M,M,M,M,M,60.10,KVGT 161953Z 34008G17KT 10SM CLR 16/M08 A3004 RMK AO2 SLP183 T01561083,M
BVU,2023-03-16 19:55,-114.8611,35.9475,671.00,57.20,21.20,24.49,360.00,15.00,0.00,30.05,M,10.00,M,CLR,M,M,M,M,M,M,M,M,M,M,M,M,M,M,57.20,KBVU 161955Z AUTO 36015KT 10SM CLR 14/M06 A3005 RMK AO2,M
CXP,2023-03-16 19:55,-119.7326,39.1923,1431.00,41.00,23.00,48.39,M,3.00,0.00,30.14,M,10.00,10.00,FEW,M,M,M,3900.00,M,M,M,M,M,M,M,M,M,M,38.98,KCXP 161955Z AUTO VRB03G10KT 10SM FEW039 05/M05 A3014 RMK AO2,M
INS,2023-03-16 19:55,-115.6733,36.5872,955.00,51.60,16.90,24.99,20.00,7.00,0.00,30.06,1016.60,10.00,M,CLR,M,M,M,M,M,M,M,M,M,M,M,M,M,M,51.60,KINS 161955Z AUTO 02007KT 10SM CLR 11/M08 A3006 RMK AO2 SLP166 T01091084 $,M
RNO,2023-03-16 19:55,-119.7711,39.4839,1341.00,45.00,23.00,41.50,M,4.00,0.00,30.12,1019.70,10.00,M,FEW,M,M,M,5000.00,M,M,M,M,M,M,M,M,M,M,42.60,KRNO 161955Z VRB04KT 10SM FEW050 07/M05 A3012 RMK AO2 SLP197 T00721050,M
RTS,2023-03-16 19:55,-119.8764,39.6682,1539.00,39.20,21.20,48.10,120.00,10.00,0.00,30.12,M,10.00,M,CLR,M,M,M,M,M,M,M,M,M,M,M,M,M,M,32.00,KRTS 161955Z AUTO 12010KT 10SM CLR 04/M06 A3012 RMK AO2,M
05U,2023-03-16 19:55,-116.0051,39.6042,1811.23,33.80,17.60,51.04,20.00,5.00,0.00,30.14,M,10.00,M,CLR,M,M,M,M,M,M,M,M,M,M,M,M,M,M,28.53,K05U 161955Z AUTO 02005KT 10SM CLR 01/M08 A3014 RMK A01,M
MEV,2023-03-16 19:55,-119.7500,38.9963,1441.42,41.00,23.00,48.39,0.00,0.00,0.00,30.12,M,10.00,M,BKN,M,M,M,3600.00,M,M,M,M,M,M,M,M,M,M,41.00,KMEV 161955Z AUTO 00000KT 10SM BKN036 05/M05 A3012 RMK AO2,M
HTH,2023-03-16 19:55,-118.6315,38.5448,1282.89,42.80,23.00,45.14,0.00,0.00,0.00,30.14,M,10.00,M,CLR,M,M,M,M,M,M,M,M,M,M,M,M,M,M,42.80,KHTH 161955Z AUTO 00000KT 10SM CLR 06/M05 A3014 RMK A01,M
BAM,2023-03-16 19:55,-116.8743,40.5990,1382.36,39.20,23.00,51.89,0.00,0.00,0.00,30.18,M,10.00,M,CLR,M,M,M,M,M,M,M,M,M,M,M,M,M,M,39.20,KBAM 161955Z AUTO 00000KT 10SM CLR 04/M05 A3018 RMK AO1,M
TMT,2023-03-16 19:55,-117.1971,39.4643,1749.34,36.00,18.70,48.83,10.00,5.00,0.00,30.12,M,10.00,M,CLR,M,M,M,M,M,M,M,M,M,M,M,M,M,M,31.26,KTMT 161955Z AUTO 01005KT 10SM CLR 02/M07 A3012 RMK AO2 T00231074,M
LSV,2023-03-16 19:55,-115.0343,36.2362,570.00,60.80,20.70,21.07,60.00,15.00,0.00,30.02,1016.00,10.00,M,CLR,M,M,M,M,M,M,M,M,M,M,M,M,M,M,60.80,KLSV 161955Z AUTO 06015KT 10SM CLR 16/M06 A3002 RMK AO2 SLP160 T01601063 $,M
WMC,2023-03-16 19:56,-117.8072,40.9019,1315.00,43.00,18.00,36.22,360.00,7.00,0.00,30.16,1021.80,10.00,M,CLR,M,M,M,M,M,M,M,M,M,M,M,M,M,M,38.19,KWMC 161956Z AUTO 36007KT 10SM CLR 06/M08 A3016 RMK AO2 SLP218 T00611078,M
NFL,2023-03-16 19:56,-118.7010,39.4166,1199.00,43.00,21.90,42.77,M,4.00,0.00,30.15,1017.40,10.00,M,FEW,M,M,M,4000.00,M,M,M,M,M,M,M,M,M,M,40.27,KNFL 161956Z VRB04KT 10SM FEW040 06/M06 A3015 RMK AO2 SLP174 T00611056,M
HND,2023-03-16 19:56,-115.1344,35.9729,742.79,56.00,25.00,30.10,360.00,8.00,0.00,30.06,1019.50,10.00,M,SCT,M,M,M,7000.00,M,M,M,M,M,M,M,M,M,M,55.90,KHND 161956Z 36008KT 10SM SCT070 13/M04 A3006 RMK AO2 SLP195 T01331039,M
TPH,2023-03-16 19:56,-117.0904,38.0505,1654.00,43.00,7.00,22.28,0.00,0.00,0.00,30.07,1018.10,10.00,M,CLR,M,M,M,M,M,M,M,M,M,M,M,M,M,M,43.00,KTPH 161956Z AUTO 00000KT 10SM CLR 06/M14 A3007 RMK AO2 SLP181 T00611139,M
LAS,2023-03-16 19:56,-115.1634,36.0719,663.00,58.00,21.90,24.59,50.00,5.00,0.00,30.04,1016.80,10.00,16.00,FEW,M,M,M,8000.00,M,M,M,M,M,M,M,M,M,M,57.90,KLAS 161956Z 05005G16KT 10SM FEW080 14/M06 A3004 RMK AO2 SLP168 T01441056,M
EKO,2023-03-16 19:56,-115.7860,40.8242,1367.00,37.00,21.00,51.99,M,M,M,30.15,1022.80,10.00,M,CLR,M,M,M,M,M,M,M,M,M,M,M,M,M,M,M,METAR KEKO 161956Z KT CLR 03/M06 A3015 RMK AO2 SLP228 T00281061 PWINO TSNO PNO $ FIBI,M
LAS,2023-03-16 20:12,-115.1634,36.0719,663.00,58.00,21.00,23.67,350.00,11.00,0.00,30.04,M,10.00,18.00,FEW,M,M,M,8000.00,M,M,M,M,M,M,M,M,M,M,57.90,KLAS 162012Z 35011G18KT 10SM FEW080 14/M06 A3004 RMK AO2 T01441061,M
BVU,2023-03-16 20:15,-114.8611,35.9475,671.00,57.20,19.40,22.68,360.00,12.00,0.00,30.04,M,10.00,20.00,CLR,M,M,M,M,M,M,M,M,M,M,M,M,M,M,57.20,KBVU 162015Z AUTO 36012G20KT 10SM CLR 14/M07 A3004 RMK AO2,M
CXP,2023-03-16 20:15,-119.7326,39.1923,1431.00,41.00,23.00,48.39,M,3.00,0.00,30.13,M,10.00,M,CLR,M,M,M,M,M,M,M,M,M,M,M,M,M,M,38.98,KCXP 162015Z AUTO VRB03KT 10SM CLR 05/M05 A3013 RMK AO2,M
RTS,2023-03-16 20:15,-119.8764,39.6682,1539.00,41.00,23.00,48.39,110.00,9.00,0.00,30.12,M,10.00,14.00,CLR,M,M,M,M,M,M,M,M,M,M,M,M,M,M,34.70,KRTS 162015Z AUTO 11009G14KT 10SM CLR 05/M05 A3012 RMK AO2,M
05U,2023-03-16 20:15,-116.0051,39.6042,1811.23,35.60,17.60,47.51,20.00,5.00,0.00,30.14,M,10.00,M,CLR,M,M,M,M,M,M,M,M,M,M,M,M,M,M,30.67,K05U 162015Z AUTO 02005KT 10SM CLR 02/M08 A3014 RMK A01,M
MEV,2023-03-16 20:15,-119.7500,38.9963,1441.42,41.00,24.80,52.17,0.00,0.00,0.00,30.12,M,10.00,M,BKN,M,M,M,3800.00,M,M,M,M,M,M,M,M,M,M,41.00,KMEV 162015Z AUTO 00000KT 10SM BKN038 05/M04 A3012 RMK AO2,M
BAM,2023-03-16 20:15,-116.8743,40.5990,1382.36,41.00,26.60,56.22,200.00,4.00,0.00,30.17,M,10.00,M,CLR,M,M,M,M,M,M,M,M,M,M,M,M,M,M,37.93,KBAM 162015Z AUTO 20004KT 10SM CLR 05/M03 A3017 RMK AO1,M
HTH,2023-03-16 20:15,-118.6315,38.5448,1282.89,42.80,23.00,45.14,M,4.00,0.00,30.13,M,10.00,M,CLR,M,M,M,M,M,M,M,M,M,M,M,M,M,M,40.03,KHTH 162015Z AUTO VRB04KT 10SM CLR 06/M05 A3013 RMK A01,M
TMT,2023-03-16 20:15,-117.1971,39.4643,1749.34,36.50,18.50,47.66,40.00,8.00,0.00,30.12,M,10.00,M,CLR,M,M,M,M,M,M,M,M,M,M,M,M,M,M,29.66,KTMT 162015Z AUTO 04008KT 10SM CLR 03/M07 A3012 RMK AO2 T00251075,M
BVU,2023-03-16 20:35,-114.8611,35.9475,671.00,59.00,21.20,22.95,40.00,15.00,0.00,30.03,M,10.00,M,CLR,M,M,M,M,M,M,M,M,M,M,M,M,M,M,59.00,KBVU 162035Z AUTO 04015KT 10SM CLR 15/M06 A3003 RMK AO2,M
CXP,2023-03-16 20:35,-119.7326,39.1923,1431.00,42.80,23.00,45.14,0.00,0.00,0.00,30.13,M,10.00,10.00,FEW,M,M,M,4100.00,M,M,M,M,M,M,M,M,M,M,42.80,KCXP 162035Z AUTO 00000G10KT 10SM FEW041 06/M05 A3013 RMK AO2,M
RTS,2023-03-16 20:35,-119.8764,39.6682,1539.00,41.00,21.20,44.85,110.00,7.00,0.00,30.11,M,10.00,13.00,CLR,M,M,M,M,M,M,M,M,M,M,M,M,M,M,35.75,KRTS 162035Z AUTO 11007G13KT 10SM CLR 05/M06 A3011 RMK AO2,M
05U,2023-03-16 20:35,-116.0051,39.6042,1811.23,35.60,15.80,43.95,M,3.00,0.00,30.13,M,10.00,M,CLR,M,M,M,M,M,M,M,M,M,M,M,M,M,M,32.80,K05U 162035Z AUTO VRB03KT 10SM CLR 02/M09 A3013 RMK A01,M
MEV,2023-03-16 20:35,-119.7500,38.9963,1441.42,41.00,26.60,56.22,330.00,7.00,0.00,30.11,M,10.00,M,OVC,M,M,M,3800.00,M,M,M,M,M,M,M,M,M,M,35.75,KMEV 162035Z AUTO 33007KT 10SM OVC038 05/M03 A3011 RMK AO2,M
BAM,2023-03-16 20:35,-116.8743,40.5990,1382.36,41.00,24.80,52.17,0.00,0.00,0.00,30.17,M,10.00,M,CLR,M,M,M,M,M,M,M,M,M,M,M,M,M,M,41.00,KBAM 162035Z AUTO 00000KT 10SM CLR 05/M04 A3017 RMK AO1,M
HTH,2023-03-16 20:35,-118.6315,38.5448,1282.89,44.60,23.00,42.14,10.00,4.00,0.00,30.13,M,10.00,M,CLR,M,M,M,M,M,M,M,M,M,M,M,M,M,M,42.13,KHTH 162035Z AUTO 01004KT 10SM CLR 07/M05 A3013 RMK A01,M
TMT,2023-03-16 20:35,-117.1971,39.4643,1749.34,36.50,17.60,45.85,360.00,6.00,0.00,30.11,M,10.00,M,CLR,M,M,M,M,M,M,M,M,M,M,M,M,M,M,30.95,KTMT 162035Z AUTO 36006KT 10SM CLR 03/M08 A3011 RMK AO2 T00251080,M
ELY,2023-03-16 20:53,-114.8453,39.2950,1909.00,34.00,18.00,51.52,20.00,14.00,0.00,30.08,1020.00,10.00,M,CLR,M,M,M,M,M,M,M,M,M,M,M,M,M,M,23.74,KELY 162053Z AUTO 02014KT 10SM CLR 01/M08 A3008 RMK AO2 SLP200 T00111078 58006,M
VGT,2023-03-16 20:53,-115.1933,36.2111,667.00,62.00,19.00,18.72,M,5.00,0.00,30.02,1017.70,10.00,M,CLR,M,M,M,M,M,M,M,M,M,M,M,M,M,M,62.10,KVGT 162053Z VRB05KT 10SM CLR 17/M07 A3002 RMK AO2 SLP177 T01671072 58013,M
LOL,2023-03-16 20:53,-118.5701,40.0684,1192.43,46.00,18.00,32.30,M,4.00,0.00,30.13,1021.20,10.00,M,CLR,M,M,M,M,M,M,M,M,M,M,M,M,M,M,43.77,KLOL 162053Z AUTO VRB04KT 10SM CLR 08/M08 A3013 RMK AO2 SLP212 T00781078 58013,M
P68,2023-03-16 20:53,-116.0056,39.6014,1993.00,35.00,16.00,45.22,0.00,0.00,0.00,30.10,1020.30,M,M,M,M,M,M,M,M,M,M,M,M,M,M,M,M,M,35.10,KP68 162053Z AUTO 00000KT 02/M09 A3010 RMK AO1 SLP203 T00171089 56009,M
DRA,2023-03-16 20:53,-116.0278,36.6206,1009.00,56.00,19.90,24.28,10.00,11.00,0.00,30.03,1015.10,10.00,18.00,CLR,M,M,M,M,M,M,M,M,M,M,M,M,M,M,55.90,KDRA 162053Z AUTO 01011G18KT 10SM CLR 13/M07 A3003 RMK AO2 SLP151 T01331067 58011,M
BVU,2023-03-16 20:55,-114.8611,35.9475,671.00,57.20,21.20,24.49,30.00,9.00,0.00,30.03,M,10.00,19.00,CLR,M,M,M,M,M,M,M,M,M,M,M,M,M,M,57.20,KBVU 162055Z AUTO 03009G19KT 10SM CLR 14/M06 A3003 RMK AO2,M
CXP,2023-03-16 20:55,-119.7326,39.1923,1431.00,42.80,23.00,45.14,0.00,0.00,0.00,30.12,M,10.00,M,CLR,M,M,M,M,M,M,M,M,M,M,M,M,M,M,42.80,KCXP 162055Z AUTO 00000KT 10SM CLR 06/M05 A3012 RMK AO2,M
INS,2023-03-16 20:55,-115.6733,36.5872,955.00,53.60,15.60,21.94,20.00,3.00,0.00,30.05,1016.20,10.00,M,CLR,M,M,M,M,M,M,M,M,M,M,M,M,M,M,53.60,KINS 162055Z AUTO 02003KT 10SM CLR 12/M09 A3005 RMK AO2 SLP162 T01201091 57011 $,M
RNO,2023-03-16 20:55,-119.7711,39.4839,1341.00,46.00,21.90,38.15,M,3.00,0.00,30.10,1019.00,10.00,M,FEW,M,M,M,5000.00,M,M,M,M,M,M,M,M,M,M,44.69,KRNO 162055Z COR VRB03KT 10SM FEW050 08/M06 A3010 RMK AO2 SLP190 T00781056 58011,M
RTS,2023-03-16 20:55,-119.8764,39.6682,1539.00,41.00,23.00,48.39,150.00,7.00,0.00,30.10,M,10.00,14.00,CLR,M,M,M,M,M,M,M,M,M,M,M,M,M,M,35.75,KRTS 162055Z AUTO 15007G14KT 10SM CLR 05/M05 A3010 RMK AO2,M
05U,2023-03-16 20:55,-116.0051,39.6042,1811.23,35.60,15.80,43.95,360.00,6.00,0.00,30.12,M,10.00,M,CLR,M,M,M,M,M,M,M,M,M,M,M,M,M,M,29.87,K05U 162055Z AUTO 36006KT 10SM CLR 02/M09 A3012 RMK A01,M
MEV,2023-03-16 20:55,-119.7500,38.9963,1441.42,41.00,24.80,52.17,0.00,0.00,0.00,30.10,M,10.00,M,BKN,M,M,M,4000.00,M,M,M,M,M,M,M,M,M,M,41.00,KMEV 162055Z AUTO 00000KT 10SM BKN040 05/M04 A3010 RMK AO2,M
BAM,2023-03-16 20:55,-116.8743,40.5990,1382.36,41.00,23.00,48.39,0.00,0.00,0.00,30.16,M,10.00,M,CLR,M,M,M,M,M,M,M,M,M,M,M,M,M,M,41.00,KBAM 162055Z AUTO 00000KT 10SM CLR 05/M05 A3016 RMK AO1,M
HTH,2023-03-16 20:55,-118.6315,38.5448,1282.89,44.60,23.00,42.14,290.00,4.00,0.00,30.12,M,10.00,M,CLR,M,M,M,M,M,M,M,M,M,M,M,M,M,M,42.13,KHTH 162055Z AUTO 29004KT 10SM CLR 07/M05 A3012 RMK A01,M
TMT,2023-03-16 20:55,-117.1971,39.4643,1749.34,37.80,18.30,44.89,10.00,3.00,0.00,30.10,M,10.00,M,CLR,M,M,M,M,M,M,M,M,M,M,M,M,M,M,35.32,KTMT 162055Z AUTO 01003KT 10SM CLR 03/M08 A3010 RMK AO2 T00321076,M
LSV,2023-03-16 20:55,-115.0343,36.2362,570.00,62.80,19.90,18.98,40.00,13.00,0.00,30.00,1015.30,10.00,M,CLR,M,M,M,M,M,M,M,M,M,M,M,M,M,M,62.80,KLSV 162055Z AUTO 04013KT 10SM CLR 17/M07 A3000 RMK AO2 SLP153 T01711067 57013 $,M
WMC,2023-03-16 20:56,-117.8072,40.9019,1315.00,46.00,18.00,32.30,10.00,10.00,0.00,30.13,1020.90,10.00,16.00,CLR,M,M,M,M,M,M,M,M,M,M,M,M,M,M,40.52,KWMC 162056Z AUTO 01010G16KT 10SM CLR 08/M08 A3013 RMK AO2 SLP209 T00781078 58011,M
NFL,2023-03-16 20:56,-118.7010,39.4166,1199.00,46.00,21.00,36.72,M,3.00,0.00,30.12,1016.60,10.00,M,CLR,M,M,M,M,M,M,M,M,M,M,M,M,M,M,44.69,KNFL 162056Z VRB03KT 10SM CLR 08/M06 A3012 RMK AO2 SLP166 T00781061 58013,M
TPH,2023-03-16 20:56,-117.0904,38.0505,1654.00,47.00,7.00,19.21,0.00,0.00,0.00,30.05,1017.10,10.00,M,CLR,M,M,M,M,M,M,M,M,M,M,M,M,M,M,46.90,KTPH 162056Z AUTO 00000KT 10SM CLR 08/M14 A3005 RMK AO2 SLP171 T00831139 58011,M
LAS,2023-03-16 20:56,-115.1634,36.0719,663.00,59.00,19.00,20.90,70.00,11.00,0.00,30.03,1016.20,10.00,18.00,FEW,M,M,M,8000.00,M,M,M,M,M,M,M,M,M,M,59.00,KLAS 162056Z 07011G18KT 10SM FEW080 15/M07 A3003 RMK AO2 SLP162 T01501072 58013,M
EKO,2023-03-16 20:56,-115.7860,40.8242,1367.00,38.00,20.00,47.90,M,M,M,30.14,1022.50,10.00,M,CLR,M,M,M,M,M,M,M,M,M,M,M,M,M,M,M,METAR KEKO 162056Z KT CLR 03/M07 A3014 RMK AO2 SLP225 6//// T00331067 58009 PWINO TSNO PNO $ FIBI,M
HND,2023-03-16 20:56,-115.1344,35.9729,742.79,58.00,23.00,25.76,M,6.00,0.00,30.04,1018.90,10.00,M,CLR,M,M,M,M,M,M,M,M,M,M,M,M,M,M,57.90,KHND 162056Z VRB06KT 10SM CLR 14/M05 A3004 RMK AO2 SLP189 T01441050 58011,M
BVU,2023-03-16 21:15,-114.8611,35.9475,671.00,57.20,19.40,22.68,80.00,10.00,0.00,30.02,M,10.00,19.00,CLR,M,M,M,M,M,M,M,M,M,M,M,M,M,M,57.20,KBVU 162115Z AUTO 08010G19KT 040V100 10SM CLR 14/M07 A3002 RMK AO2,M
CXP,2023-03-16 21:15,-119.7326,39.1923,1431.00,42.80,24.80,48.67,0.00,0.00,0.00,30.11,M,10.00,M,SCT,M,M,M,4300.00,M,M,M,M,M,M,M,M,M,M,42.80,KCXP 162115Z AUTO 00000KT 10SM SCT043 06/M04 A3011 RMK AO2,M
RTS,2023-03-16 21:15,-119.8764,39.6682,1539.00,41.00,21.20,44.85,120.00,8.00,0.00,30.09,M,10.00,14.00,CLR,M,M,M,M,M,M,M,M,M,M,M,M,M,M,35.20,KRTS 162115Z AUTO 12008G14KT 10SM CLR 05/M06 A3009 RMK AO2,M
05U,2023-03-16 21:15,-116.0051,39.6042,1811.23,37.40,17.60,44.25,360.00,3.00,0.00,30.12,M,10.00,M,CLR,M,M,M,M,M,M,M,M,M,M,M,M,M,M,34.86,K05U 162115Z AUTO 36003KT 10SM CLR 03/M08 A3012 RMK A01,M
MEV,2023-03-16 21:15,-119.7500,38.9963,1441.42,42.80,26.60,52.45,110.00,5.00,0.00,30.09,M,10.00,M,FEW,M,M,M,4200.00,M,M,M,M,M,M,M,M,M,M,39.22,KMEV 162115Z AUTO 11005KT 10SM FEW042 06/M03 A3009 RMK AO2,M
BAM,2023-03-16 21:15,-116.8743,40.5990,1382.36,42.80,24.80,48.67,10.00,4.00,0.00,30.15,M,10.00,M,CLR,M,M,M,M,M,M,M,M,M,M,M,M,M,M,40.03,KBAM 162115Z AUTO 01004KT 10SM CLR 06/M04 A3015 RMK AO1,M
HTH,2023-03-16 21:15,-118.6315,38.5448,1282.89,44.60,23.00,42.14,290.00,5.00,0.00,30.11,M,10.00,M,CLR,M,M,M,M,M,M,M,M,M,M,M,M,M,M,41.36,KHTH 162115Z AUTO 29005KT 10SM CLR 07/M05 A3011 RMK A01,M
TMT,2023-03-16 21:15,-117.1971,39.4643,1749.34,38.30,19.90,47.14,50.00,7.00,0.00,30.10,M,10.00,M,CLR,M,M,M,M,M,M,M,M,M,M,M,M,M,M,32.46,KTMT 162115Z AUTO 05007KT 350V070 10SM CLR 04/M07 A3010 RMK AO2 T00351067,M
LAS,2023-03-16 21:18,-115.1634,36.0719,663.00,60.00,19.00,20.09,50.00,9.00,0.00,30.02,M,10.00,M,FEW,M,M,M,8000.00,M,M,M,M,M,M,M,M,M,M,60.10,KLAS 162118Z 05009KT 10SM FEW080 16/M07 A3002 RMK AO2 T01561072,M
HTH,2023-03-16 21:30,-118.6315,38.5448,1282.89,44.60,21.20,39.06,0.00,0.00,0.00,30.10,M,10.00,M,CLR,M,M,M,M,M,M,M,M,M,M,M,M,M,M,44.60,KHTH 162130Z AUTO 00000KT 10SM CLR 07/M06 A3010 RMK A01,M
BVU,2023-03-16 21:35,-114.8611,35.9475,671.00,59.00,21.20,22.95,30.00,12.00,0.00,30.02,M,10.00,M,CLR,M,M,M,M,M,M,M,M,M,M,M,M,M,M,59.00,KBVU 162135Z AUTO 03012KT 10SM CLR 15/M06 A3002 RMK AO2,M
CXP,2023-03-16 21:35,-119.7326,39.1923,1431.00,42.80,23.00,45.14,0.00,0.00,0.00,30.10,M,10.00,10.00,BKN,M,M,M,4400.00,M,M,M,M,M,M,M,M,M,M,42.80,KCXP 162135Z AUTO 00000G10KT 10SM BKN044 06/M05 A3010 RMK AO2,M
RTS,2023-03-16 21:35,-119.8764,39.6682,1539.00,42.80,23.00,45.14,100.00,8.00,0.00,30.09,M,10.00,14.00,CLR,M,M,M,M,M,M,M,M,M,M,M,M,M,M,37.42,KRTS 162135Z AUTO 10008G14KT 060V120 10SM CLR 06/M05 A3009 RMK AO2,M
05U,2023-03-16 21:35,-116.0051,39.6042,1811.23,37.40,17.60,44.25,M,5.00,0.00,30.12,M,10.00,M,CLR,M,M,M,M,M,M,M,M,M,M,M,M,M,M,32.81,K05U 162135Z AUTO VRB05KT 10SM CLR 03/M08 A3012 RMK A01,M
MEV,2023-03-16 21:35,-119.7500,38.9963,1441.42,44.60,26.60,48.96,230.00,5.00,0.00,30.08,M,10.00,M,CLR,M,M,M,M,M,M,M,M,M,M,M,M,M,M,41.36,KMEV 162135Z AUTO 23005KT 10SM CLR 07/M03 A3008 RMK AO2,M
BAM,2023-03-16 21:35,-116.8743,40.5990,1382.36,42.80,24.80,48.67,90.00,4.00,0.00,30.15,M,10.00,M,CLR,M,M,M,M,M,M,M,M,M,M,M,M,M,M,40.03,KBAM 162135Z AUTO 09004KT 10SM CLR 06/M04 A3015 RMK AO1,M
TMT,2023-03-16 21:35,-117.1971,39.4643,1749.34,39.70,20.50,45.79,30.00,5.00,0.00,30.10,M,10.00,M,CLR,M,M,M,M,M,M,M,M,M,M,M,M,M,M,35.54,KTMT 162135Z AUTO 03005KT 10SM CLR 04/M06 A3010 RMK AO2 T00431064,M
P68,2023-03-16 21:53,-116.0056,39.6014,1993.00,36.00,19.00,49.66,M,5.00,0.00,30.09,1020.10,M,M,M,M,M,M,M,M,M,M,M,M,M,M,M,M,M,31.15,KP68 162153Z AUTO VRB05KT 02/M07 A3009 RMK AO1 SLP201 T00221072,M
DRA,2023-03-16 21:53,-116.0278,36.6206,1009.00,57.00,17.10,20.69,10.00,10.00,0.00,30.02,1014.70,10.00,M,CLR,M,M,M,M,M,M,M,M,M,M,M,M,M,M,57.00,KDRA 162153Z AUTO 01010KT 10SM CLR 14/M08 A3002 RMK AO2 SLP147 T01391083,M
ELY,2023-03-16 21:53,-114.8453,39.2950,1909.00,35.00,17.10,47.43,20.00,15.00,0.00,30.08,1019.90,10.00,M,CLR,M,M,M,M,M,M,M,M,M,M,M,M,M,M,24.80,KELY 162153Z AUTO 02015KT 10SM CLR 02/M08 A3008 RMK AO2 SLP199 T00171083,M
VGT,2023-03-16 21:53,-115.1933,36.2111,667.00,63.00,17.10,16.71,M,3.00,0.00,30.01,1017.30,10.00,M,CLR,M,M,M,M,M,M,M,M,M,M,M,M,M,M,63.00,KVGT 162153Z VRB03KT 10SM CLR 17/M08 A3001 RMK AO2 SLP173 T01721083,M
LOL,2023-03-16 21:53,-118.5701,40.0684,1192.43,47.00,18.00,31.22,340.00,5.00,0.00,30.10,1020.60,10.00,15.00,CLR,M,M,M,M,M,M,M,M,M,M,M,M,M,M,44.09,KLOL 162153Z AUTO 34005G15KT 10SM CLR 08/M08 A3010 RMK AO2 SLP206 T00831078,M
BVU,2023-03-16 21:55,-114.8611,35.9475,671.00,57.20,21.20,24.49,40.00,9.00,0.00,30.02,M,10.00,14.00,CLR,M,M,M,M,M,M,M,M,M,M,M,M,M,M,57.20,KBVU 162155Z AUTO 04009G14KT 10SM CLR 14/M06 A3002 RMK AO2,M
CXP,2023-03-16 21:55,-119.7326,39.1923,1431.00,44.60,23.00,42.14,0.00,0.00,0.00,30.09,M,10.00,M,FEW,M,M,M,4400.00,M,M,M,M,M,M,M,M,M,M,44.60,KCXP 162155Z AUTO 00000KT 10SM FEW044 07/M05 A3009 RMK AO2,M
RNO,2023-03-16 21:55,-119.7711,39.4839,1341.00,48.00,21.90,35.38,M,6.00,0.00,30.08,1017.80,10.00,M,FEW,M,M,M,5000.00,M,M,M,M,M,M,M,M,M,M,44.80,KRNO 162155Z VRB06KT 10SM FEW050 09/M06 A3008 RMK AO2 SLP178 T00891056,M
RTS,2023-03-16 21:55,-119.8764,39.6682,1539.00,42.80,23.00,45.14,120.00,7.00,0.00,30.08,M,10.00,13.00,CLR,M,M,M,M,M,M,M,M,M,M,M,M,M,M,37.94,KRTS 162155Z AUTO 12007G13KT 10SM CLR 06/M05 A3008 RMK AO2,M
05U,2023-03-16 21:55,-116.0051,39.6042,1811.23,39.20,19.40,44.55,340.00,4.00,0.00,30.12,M,10.00,M,CLR,M,M,M,M,M,M,M,M,M,M,M,M,M,M,35.83,K05U 162155Z AUTO 34004KT 10SM CLR 04/M07 A3012 RMK A01,M
MEV,2023-03-16 21:55,-119.7500,38.9963,1441.42,44.60,24.80,45.44,M,3.00,0.00,30.08,M,10.00,M,CLR,M,M,M,M,M,M,M,M,M,M,M,M,M,M,43.09,KMEV 162155Z AUTO VRB03KT 10SM CLR 07/M04 A3008 RMK AO2,M
BAM,2023-03-16 21:55,-116.8743,40.5990,1382.36,44.60,26.60,48.96,70.00,3.00,0.00,30.15,M,10.00,M,CLR,M,M,M,M,M,M,M,M,M,M,M,M,M,M,43.09,KBAM 162155Z AUTO 07003KT 10SM CLR 07/M03 A3015 RMK AO1,M
HTH,2023-03-16 21:55,-118.6315,38.5448,1282.89,46.40,23.00,39.36,320.00,6.00,0.00,30.09,M,10.00,M,CLR,M,M,M,M,M,M,M,M,M,M,M,M,M,M,42.87,KHTH 162155Z AUTO 32006KT 10SM CLR 08/M05 A3009 RMK A01,M
TMT,2023-03-16 21:55,-117.1971,39.4643,1749.34,40.30,20.10,43.98,40.00,5.00,0.00,30.09,M,10.00,M,CLR,M,M,M,M,M,M,M,M,M,M,M,M,M,M,36.25,KTMT 162155Z AUTO 04005KT 10SM CLR 05/M07 A3009 RMK AO2 T00461066,M
LSV,2023-03-16 21:55,-115.0343,36.2362,570.00,63.70,20.70,19.03,40.00,10.00,0.00,29.99,1015.00,10.00,15.00,CLR,M,M,M,M,M,M,M,M,M,M,M,M,M,M,63.70,KLSV 162155Z AUTO 04010G15KT 10SM CLR 18/M06 A2999 RMK AO2 SLP150 T01761063 $,M
INS,2023-03-16 21:55,-115.6733,36.5872,955.00,55.00,15.60,20.92,40.00,3.00,0.00,30.03,1015.50,10.00,M,CLR,M,M,M,M,M,M,M,M,M,M,M,M,M,M,54.90,KINS 162155Z AUTO 04003KT 10SM CLR 13/M09 A3003 RMK AO2 SLP155 T01271091 $,M
WMC,2023-03-16 21:56,-117.8072,40.9019,1315.00,47.00,17.10,30.04,40.00,14.00,0.00,30.11,1020.20,10.00,19.00,CLR,M,M,M,M,M,M,M,M,M,M,M,M,M,M,40.37,KWMC 162156Z AUTO 04014G19KT 10SM CLR 08/M08 A3011 RMK AO2 SLP202 T00831083,M
HND,2023-03-16 21:56,-115.1344,35.9729,742.79,57.00,19.00,22.46,M,3.00,0.00,30.04,1018.60,10.00,M,CLR,M,M,M,M,M,M,M,M,M,M,M,M,M,M,57.00,KHND 162156Z VRB03KT 10SM CLR 14/M07 A3004 RMK AO2 SLP186 T01391072,M
LAS,2023-03-16 21:56,-115.1634,36.0719,663.00,59.00,18.00,20.02,130.00,4.00,0.00,30.01,1015.80,10.00,M,FEW,M,M,M,8000.00,M,M,M,M,M,M,M,M,M,M,59.00,KLAS 162156Z 13004KT 10SM FEW080 15/M08 A3001 RMK AO2 SLP158 T01501078,M
EKO,2023-03-16 21:56,-115.7860,40.8242,1367.00,39.00,20.00,46.06,10.00,8.94,M,30.13,1022.40,10.00,M,CLR,M,M,M,M,M,M,M,M,M,M,M,M,M,M,32.25,METAR KEKO 162156Z 01009KT 10SM CLR 04/M07 A3013 RMK AO2 SLP224 T00391067 TSNO FIBI,M
NFL,2023-03-16 21:56,-118.7010,39.4166,1199.00,47.00,19.90,33.87,170.00,4.00,0.00,30.10,1015.90,10.00,M,FEW,M,M,M,5000.00,M,M,M,M,M,M,M,M,M,M,44.82,KNFL 162156Z 17004KT 10SM FEW050 08/M07 A3010 RMK AO2 SLP159 T00831067,M
TPH,2023-03-16 21:56,-117.0904,38.0505,1654.00,47.00,6.00,18.44,0.00,0.00,0.00,30.04,1016.70,10.00,M,CLR,M,M,M,M,M,M,M,M,M,M,M,M,M,M,46.90,KTPH 162156Z AUTO 00000KT 10SM CLR 08/M14 A3004 RMK AO2 SLP167 T00831144,M
BVU,2023-03-16 22:15,-114.8611,35.9475,671.00,59.00,21.20,22.95,50.00,10.00,0.00,30.02,M,10.00,16.00,BKN,M,M,M,8500.00,M,M,M,M,M,M,M,M,M,M,59.00,KBVU 162215Z AUTO 05010G16KT 10SM BKN085 15/M06 A3002 RMK AO2,M
CXP,2023-03-16 22:15,-119.7326,39.1923,1431.00,44.60,23.00,42.14,0.00,0.00,0.00,30.09,M,10.00,M,CLR,M,M,M,M,M,M,M,M,M,M,M,M,M,M,44.60,KCXP 162215Z AUTO 00000KT 10SM CLR 07/M05 A3009 RMK AO2,M
RTS,2023-03-16 22:15,-119.8764,39.6682,1539.00,42.80,23.00,45.14,110.00,10.00,0.00,30.08,M,10.00,M,CLR,M,M,M,M,M,M,M,M,M,M,M,M,M,M,36.51,KRTS 162215Z AUTO 11010KT 10SM CLR 06/M05 A3008 RMK AO2,M
05U,2023-03-16 22:15,-116.0051,39.6042,1811.23,39.20,17.60,41.24,M,5.00,0.00,30.12,M,10.00,M,CLR,M,M,M,M,M,M,M,M,M,M,M,M,M,M,34.95,K05U 162215Z AUTO VRB05KT 10SM CLR 04/M08 A3012 RMK A01,M
MEV,2023-03-16 22:15,-119.7500,38.9963,1441.42,44.60,26.60,48.96,M,4.00,0.00,30.07,M,10.00,M,CLR,M,M,M,M,M,M,M,M,M,M,M,M,M,M,42.13,KMEV 162215Z AUTO VRB04KT 10SM CLR 07/M03 A3007 RMK AO2,M
BAM,2023-03-16 22:15,-116.8743,40.5990,1382.36,44.60,26.60,48.96,330.00,3.00,0.00,30.14,M,10.00,M,CLR,M,M,M,M,M,M,M,M,M,M,M,M,M,M,43.09,KBAM 162215Z AUTO 33003KT 10SM CLR 07/M03 A3014 RMK AO1,M
HTH,2023-03-16 22:15,-118.6315,38.5448,1282.89,46.40,23.00,39.36,320.00,6.00,0.00,30.09,M,10.00,M,CLR,M,M,M,M,M,M,M,M,M,M,M,M,M,M,42.87,KHTH 162215Z AUTO 32006KT 10SM CLR 08/M05 A3009 RMK A01,M
TMT,2023-03-16 22:15,-117.1971,39.4643,1749.34,39.60,18.50,42.20,0.00,0.00,0.00,30.09,M,10.00,M,CLR,M,M,M,M,M,M,M,M,M,M,M,M,M,M,39.60,KTMT 162215Z AUTO 00000KT 10SM CLR 04/M07 A3009 RMK AO2 T00421075,M
BVU,2023-03-16 22:35,-114.8611,35.9475,671.00,59.00,21.20,22.95,M,6.00,0.00,30.01,M,10.00,M,SCT,M,M,M,8500.00,M,M,M,M,M,M,M,M,M,M,59.00,KBVU 162235Z AUTO VRB06KT 360V060 10SM SCT085 15/M06 A3001 RMK AO2,M
CXP,2023-03-16 22:35,-119.7326,39.1923,1431.00,44.60,24.80,45.44,100.00,5.00,0.00,30.08,M,10.00,10.00,CLR,M,M,M,M,M,M,M,M,M,M,M,M,M,M,41.36,KCXP 162235Z AUTO 10005G10KT 10SM CLR 07/M04 A3008 RMK AO2,M
RTS,2023-03-16 22:35,-119.8764,39.6682,1539.00,44.60,23.00,42.14,120.00,11.00,0.00,30.07,M,10.00,16.00,CLR,M,M,M,M,M,M,M,M,M,M,M,M,M,M,38.39,KRTS 162235Z AUTO 12011G16KT 10SM CLR 07/M05 A3007 RMK AO2,M
05U,2023-03-16 22:35,-116.0051,39.6042,1811.23,39.20,17.60,41.24,M,6.00,0.00,30.11,M,10.00,M,CLR,M,M,M,M,M,M,M,M,M,M,M,M,M,M,34.20,K05U 162235Z AUTO VRB06KT 10SM CLR 04/M08 A3011 RMK A01,M
MEV,2023-03-16 22:35,-119.7500,38.9963,1441.42,44.60,24.80,45.44,190.00,4.00,0.00,30.06,M,10.00,M,CLR,M,M,M,M,M,M,M,M,M,M,M,M,M,M,42.13,KMEV 162235Z AUTO 19004KT 10SM CLR 07/M04 A3006 RMK AO2,M
BAM,2023-03-16 22:35,-116.8743,40.5990,1382.36,44.60,26.60,48.96,50.00,10.00,0.00,30.14,M,10.00,M,CLR,M,M,M,M,M,M,M,M,M,M,M,M,M,M,38.77,KBAM 162235Z AUTO 05010KT 10SM CLR 07/M03 A3014 RMK AO1,M
HTH,2023-03-16 22:35,-118.6315,38.5448,1282.89,46.40,21.20,36.48,M,4.00,0.00,30.08,M,10.00,M,CLR,M,M,M,M,M,M,M,M,M,M,M,M,M,M,44.24,KHTH 162235Z AUTO VRB04KT 10SM CLR 08/M06 A3008 RMK A01,M
TMT,2023-03-16 22:35,-117.1971,39.4643,1749.34,40.80,19.60,42.22,320.00,6.00,0.00,30.09,M,10.00,M,CLR,M,M,M,M,M,M,M,M,M,M,M,M,M,M,36.13,KTMT 162235Z AUTO 32006KT 10SM CLR 05/M07 A3009 RMK AO2 T00491069,M
DRA,2023-03-16 22:53,-116.0278,36.6206,1009.00,58.00,17.10,20.03,10.00,5.00,0.00,30.01,1014.30,10.00,M,CLR,M,M,M,M,M,M,M,M,M,M,M,M,M,M,57.90,KDRA 162253Z AUTO 01005KT 10SM CLR 14/M08 A3001 RMK AO2 SLP143 T01441083,M
ELY,2023-03-16 22:53,-114.8453,39.2950,1909.00,36.00,18.00,47.58,20.00,14.00,0.00,30.07,1019.40,10.00,M,CLR,M,M,M,M,M,M,M,M,M,M,M,M,M,M,26.32,KELY 162253Z AUTO 02014KT 10SM CLR 02/M08 A3007 RMK AO2 SLP194 T00221078,M
VGT,2023-03-16 22:53,-115.1933,36.2111,667.00,62.00,12.00,13.80,310.00,5.00,0.00,30.00,1017.00,10.00,M,CLR,M,M,M,M,M,M,M,M,M,M,M,M,M,M,62.10,KVGT 162253Z 31005KT 10SM CLR 17/M11 A3000 RMK AO2 SLP170 T01671111,M
LOL,2023-03-16 22:53,-118.5701,40.0684,1192.43,48.00,18.00,29.96,0.00,0.00,0.00,30.08,1019.80,10.00,M,CLR,M,M,M,M,M,M,M,M,M,M,M,M,M,M,48.00,KLOL 162253Z AUTO 00000KT 10SM CLR 09/M08 A3008 RMK AO2 SLP198 T00891078,M
P68,2023-03-16 22:53,-116.0056,39.6014,1993.00,38.00,19.00,46.08,350.00,4.00,0.00,30.09,1019.70,M,M,M,M,M,M,M,M,M,M,M,M,M,M,M,M,M,34.31,KP68 162253Z AUTO 35004KT 03/M07 A3009 RMK AO1 SLP197 T00331072,M
BVU,2023-03-16 22:55,-114.8611,35.9475,671.00,59.00,19.40,21.26,50.00,8.00,0.00,30.01,M,10.00,14.00,CLR,M,M,M,M,M,M,M,M,M,M,M,M,M,M,59.00,KBVU 162255Z AUTO 05008G14KT 10SM CLR 15/M07 A3001 RMK AO2,M
CXP,2023-03-16 22:55,-119.7326,39.1923,1431.00,46.40,24.80,42.44,M,5.00,0.00,30.08,M,10.00,M,FEW,M,M,M,4600.00,M,M,M,M,M,M,M,M,M,M,43.50,KCXP 162255Z AUTO VRB05KT 10SM FEW046 08/M04 A3008 RMK AO2,M
RNO,2023-03-16 22:55,-119.7711,39.4839,1341.00,49.00,21.00,32.93,100.00,8.00,0.00,30.06,1017.40,10.00,M,FEW,M,M,M,5000.00,M,M,M,M,M,M,M,M,M,M,44.93,KRNO 162255Z 10008KT 10SM FEW050 09/M06 A3006 RMK AO2 SLP174 T00941061,M
RTS,2023-03-16 22:55,-119.8764,39.6682,1539.00,44.60,23.00,42.14,100.00,9.00,0.00,30.07,M,10.00,16.00,CLR,M,M,M,M,M,M,M,M,M,M,M,M,M,M,39.18,KRTS 162255Z AUTO 10009G16KT 10SM CLR 07/M05 A3007 RMK AO2,M
05U,2023-03-16 22:55,-116.0051,39.6042,1811.23,M,M,M,360.00,7.00,0.00,30.11,M,10.00,M,CLR,M,M,M,M,M,M,M,M,M,M,M,M,M,M,M,K05U 162255Z AUTO 36007KT 10SM CLR A3011 RMK A01,M
MEV,2023-03-16 22:55,-119.7500,38.9963,1441.42,44.60,24.80,45.44,0.00,0.00,0.00,30.06,M,10.00,M,CLR,M,M,M,M,M,M,M,M,M,M,M,M,M,M,44.60,KMEV 162255Z AUTO 00000KT 10SM CLR 07/M04 A3006 RMK AO2,M
BAM,2023-03-16 22:55,-116.8743,40.5990,1382.36,44.60,26.60,48.96,70.00,7.00,0.00,30.13,M,10.00,M,CLR,M,M,M,M,M,M,M,M,M,M,M,M,M,M,40.14,KBAM 162255Z AUTO 07007KT 10SM CLR 07/M03 A3013 RMK AO1,M
HTH,2023-03-16 22:55,-118.6315,38.5448,1282.89,46.40,21.20,36.48,0.00,0.00,0.00,30.08,M,10.00,M,CLR,M,M,M,M,M,M,M,M,M,M,M,M,M,M,46.40,KHTH 162255Z AUTO 00000KT 10SM CLR 08/M06 A3008 RMK A01,M
INS,2023-03-16 22:55,-115.6733,36.5872,955.00,57.00,15.10,18.97,10.00,7.00,0.00,30.02,1015.00,10.00,M,CLR,M,M,M,M,M,M,M,M,M,M,M,M,M,M,57.00,KINS 162255Z AUTO 01007KT 10SM CLR 14/M09 A3002 RMK AO2 SLP150 T01391094 $,M
LSV,2023-03-16 22:55,-115.0343,36.2362,570.00,64.00,22.10,19.98,60.00,11.00,0.00,29.98,1014.60,10.00,M,CLR,M,M,M,M,M,M,M,M,M,M,M,M,M,M,64.00,KLSV 162255Z AUTO 06011KT 10SM CLR 18/M05 A2998 RMK AO2 SLP146 T01781055 $,M
TMT,2023-03-16 22:55,-117.1971,39.4643,1749.34,40.80,19.90,42.77,30.00,4.00,0.00,30.09,M,10.00,M,CLR,M,M,M,M,M,M,M,M,M,M,M,M,M,M,37.70,KTMT 162255Z AUTO 03004KT 10SM CLR 05/M07 A3009 RMK AO2 T00491067,M
EKO,2023-03-16 22:56,-115.7860,40.8242,1367.00,39.00,19.90,45.87,60.00,9.00,0.00,30.13,1022.30,10.00,17.00,CLR,M,M,M,M,M,M,M,M,M,M,M,M,M,M,32.22,KEKO 162256Z AUTO 06009G17KT 020V080 10SM CLR 04/M07 A3013 RMK AO2 SLP223 T00391067,M
WMC,2023-03-16 22:56,-117.8072,40.9019,1315.00,48.00,17.10,28.82,30.00,14.00,0.00,30.10,1019.70,10.00,M,CLR,M,M,M,M,M,M,M,M,M,M,M,M,M,M,41.79,KWMC 162256Z AUTO 03014KT 10SM CLR 09/M08 A3010 RMK AO2 SLP197 T00891083,M
NFL,2023-03-16 22:56,-118.7010,39.4166,1199.00,50.00,19.00,29.02,M,5.00,0.00,30.08,1015.40,10.00,M,FEW,M,M,M,5000.00,M,M,M,M,M,M,M,M,M,M,50.00,KNFL 162256Z VRB05KT 10SM FEW050 10/M07 A3008 RMK AO2 SLP154 T01001072,M
HND,2023-03-16 22:56,-115.1344,35.9729,742.79,59.00,19.90,21.72,360.00,7.00,0.00,30.02,1018.20,10.00,M,CLR,M,M,M,M,M,M,M,M,M,M,M,M,M,M,59.00,KHND 162256Z 36007KT 10SM CLR 15/M07 A3002 RMK AO2 SLP182 T01501067,M
TPH,2023-03-16 22:56,-117.0904,38.0505,1654.00,49.00,12.00,22.29,0.00,0.00,0.00,30.02,1016.20,10.00,M,CLR,M,M,M,M,M,M,M,M,M,M,M,M,M,M,48.90,KTPH 162256Z AUTO 00000KT 10SM CLR 09/M11 A3002 RMK AO2 SLP162 T00941111,M
LAS,2023-03-16 22:56,-115.1634,36.0719,663.00,59.00,17.10,19.26,M,5.00,0.00,30.00,1015.40,10.00,M,FEW,M,M,M,8000.00,M,M,M,M,M,M,M,M,M,M,59.00,KLAS 162256Z VRB05KT 10SM FEW080 15/M08 A3000 RMK AO2 SLP154 T01501083,M
05U,2023-03-16 23:10,-116.0051,39.6042,1811.23,39.20,17.60,41.24,360.00,5.00,0.00,30.11,M,10.00,M,CLR,M,M,M,M,M,M,M,M,M,M,M,M,M,M,34.95,K05U 162310Z AUTO 36005KT 10SM CLR 04/M08 A3011 RMK A01,M
BVU,2023-03-16 23:15,-114.8611,35.9475,671.00,59.00,19.40,21.26,70.00,10.00,0.00,30.00,M,10.00,16.00,CLR,M,M,M,M,M,M,M,M,M,M,M,M,M,M,59.00,KBVU 162315Z AUTO 07010G16KT 10SM CLR 15/M07 A3000 RMK AO2,M
CXP,2023-03-16 23:15,-119.7326,39.1923,1431.00,44.60,24.80,45.44,90.00,8.00,0.00,30.07,M,10.00,M,FEW,M,M,M,4600.00,M,M,M,M,M,M,M,M,M,M,39.63,KCXP 162315Z AUTO 09008KT 10SM FEW046 07/M04 A3007 RMK AO2,M
RTS,2023-03-16 23:15,-119.8764,39.6682,1539.00,42.80,21.20,41.84,100.00,8.00,0.00,30.07,M,10.00,15.00,CLR,M,M,M,M,M,M,M,M,M,M,M,M,M,M,37.42,KRTS 162315Z AUTO 10008G15KT 10SM CLR 06/M06 A3007 RMK AO2,M
MEV,2023-03-16 23:15,-119.7500,38.9963,1441.42,44.60,24.80,45.44,M,6.00,0.00,30.06,M,10.00,M,CLR,M,M,M,M,M,M,M,M,M,M,M,M,M,M,40.71,KMEV 162315Z AUTO VRB06KT 10SM CLR 07/M04 A3006 RMK AO2,M
BAM,2023-03-16 23:15,-116.8743,40.5990,1382.36,44.60,24.80,45.44,50.00,9.00,0.00,30.13,M,10.00,M,CLR,M,M,M,M,M,M,M,M,M,M,M,M,M,M,39.18,KBAM 162315Z AUTO 05009KT 360V070 10SM CLR 07/M04 A3013 RMK AO1,M
HTH,2023-03-16 23:15,-118.6315,38.5448,1282.89,48.20,21.20,34.09,330.00,4.00,0.00,30.07,M,10.00,M,CLR,M,M,M,M,M,M,M,M,M,M,M,M,M,M,46.34,KHTH 162315Z AUTO 33004KT 10SM CLR 09/M06 A3007 RMK A01,M
TMT,2023-03-16 23:15,-117.1971,39.4643,1749.34,41.00,18.90,40.66,310.00,3.00,0.00,30.08,M,10.00,M,CLR,M,M,M,M,M,M,M,M,M,M,M,M,M,M,38.98,KTMT 162315Z AUTO 31003KT 10SM CLR 05/M07 A3008 RMK AO2 T00501073,M
BVU,2023-03-16 23:35,-114.8611,35.9475,671.00,59.00,19.40,21.26,60.00,8.00,0.00,30.00,M,10.00,14.00,CLR,M,M,M,M,M,M,M,M,M,M,M,M,M,M,59.00,KBVU 162335Z AUTO 06008G14KT 10SM CLR 15/M07 A3000 RMK AO2,M
CXP,2023-03-16 23:35,-119.7326,39.1923,1431.00,46.40,24.80,42.44,80.00,7.00,0.00,30.07,M,10.00,14.00,CLR,M,M,M,M,M,M,M,M,M,M,M,M,M,M,42.33,KCXP 162335Z AUTO 08007G14KT 10SM CLR 08/M04 A3007 RMK AO2,M
RTS,2023-03-16 23:35,-119.8764,39.6682,1539.00,44.60,21.20,39.06,100.00,10.00,0.00,30.06,M,10.00,M,CLR,M,M,M,M,M,M,M,M,M,M,M,M,M,M,38.77,KRTS 162335Z AUTO 10010KT 10SM CLR 07/M06 A3006 RMK AO2,M
05U,2023-03-16 23:35,-116.0051,39.6042,1811.23,39.20,17.60,41.24,360.00,7.00,0.00,30.11,M,10.00,M,CLR,M,M,M,M,M,M,M,M,M,M,M,M,M,M,33.56,K05U 162335Z AUTO 36007KT 10SM CLR 04/M08 A3011 RMK A01,M
MEV,2023-03-16 23:35,-119.7500,38.9963,1441.42,46.40,26.60,45.73,270.00,8.00,0.00,30.05,M,10.00,M,CLR,M,M,M,M,M,M,M,M,M,M,M,M,M,M,41.85,KMEV 162335Z AUTO 27008KT 10SM CLR 08/M03 A3005 RMK AO2,M
BAM,2023-03-16 23:35,-116.8743,40.5990,1382.36,44.60,26.60,48.96,50.00,12.00,0.00,30.13,M,10.00,15.00,CLR,M,M,M,M,M,M,M,M,M,M,M,M,M,M,38.04,KBAM 162335Z AUTO 05012G15KT 10SM CLR 07/M03 A3013 RMK AO1,M
HTH,2023-03-16 23:35,-118.6315,38.5448,1282.89,46.40,21.20,36.48,0.00,0.00,0.00,30.07,M,10.00,M,CLR,M,M,M,M,M,M,M,M,M,M,M,M,M,M,46.40,KHTH 162335Z AUTO 00000KT 10SM CLR 08/M06 A3007 RMK A01,M
TMT,2023-03-16 23:35,-117.1971,39.4643,1749.34,41.50,19.40,40.74,50.00,4.00,0.00,30.08,M,10.00,M,CLR,M,M,M,M,M,M,M,M,M,M,M,M,M,M,38.51,KTMT 162335Z AUTO 05004KT 10SM CLR 05/M07 A3008 RMK AO2 T00531070,M
05U,2023-03-16 23:50,-116.0051,39.6042,1811.23,39.20,17.60,41.24,360.00,7.00,0.00,30.11,M,10.00,M,CLR,M,M,M,M,M,M,M,M,M,M,M,M,M,M,33.56,K05U 162350Z AUTO 36007KT 10SM CLR 04/M08 A3011 RMK A01,M
P68,2023-03-16 23:53,-116.0056,39.6014,1993.00,38.00,19.00,46.08,350.00,6.00,0.00,30.08,1019.80,M,M,M,M,M,M,M,M,M,M,M,M,M,M,M,M,M,32.64,KP68 162353Z AUTO 35006KT 03/M07 A3008 RMK AO1 SLP198 T00331072 10039 21028 58004,M
VGT,2023-03-16 23:53,-115.1933,36.2111,667.00,61.00,12.90,14.93,0.00,0.00,0.00,29.98,1016.50,10.00,M,CLR,M,M,M,M,M,M,M,M,M,M,M,M,M,M,61.00,KVGT 162353Z 00000KT 10SM CLR 16/M11 A2998 RMK AO2 SLP165 T01611106 10172 20133 58012,M
LOL,2023-03-16 23:53,-118.5701,40.0684,1192.43,50.00,17.10,26.74,360.00,4.00,0.00,30.07,1019.00,10.00,M,CLR,M,M,M,M,M,M,M,M,M,M,M,M,M,M,50.00,KLOL 162353Z AUTO 36004KT 10SM CLR 10/M08 A3007 RMK AO2 SLP190 T01001083 10100 20039 56018,M
DRA,2023-03-16 23:53,-116.0278,36.6206,1009.00,58.00,17.10,20.03,10.00,5.00,0.00,29.98,1013.60,10.00,M,CLR,M,M,M,M,M,M,M,M,M,M,M,M,M,M,57.90,KDRA 162353Z AUTO 01005KT 10SM CLR 14/M08 A2998 RMK AO2 SLP136 T01441083 10144 20100 58014,M
ELY,2023-03-16 23:53,-114.8453,39.2950,1909.00,35.00,18.00,49.31,20.00,14.00,0.00,30.07,1019.50,10.00,M,CLR,M,M,M,M,M,M,M,M,M,M,M,M,M,M,25.16,KELY 162353Z AUTO 02014KT 10SM CLR 02/M08 A3007 RMK AO2 SLP195 T00171078 10022 21011 58004,M
BVU,2023-03-16 23:55,-114.8611,35.9475,671.00,59.00,19.40,21.26,60.00,7.00,0.00,29.99,M,10.00,13.00,CLR,M,M,M,M,M,M,M,M,M,M,M,M,M,M,59.00,KBVU 162355Z AUTO 06007G13KT 10SM CLR 15/M07 A2999 RMK AO2,M
CXP,2023-03-16 23:55,-119.7326,39.1923,1431.00,46.40,24.80,42.44,70.00,7.00,0.00,30.06,M,10.00,M,CLR,M,M,M,M,M,M,M,M,M,M,M,M,M,M,42.33,KCXP 162355Z AUTO 07007KT 050V120 10SM CLR 08/M04 A3006 RMK AO2,M
LSV,2023-03-16 23:55,-115.0343,36.2362,570.00,63.70,21.90,20.02,70.00,13.00,0.00,29.96,1013.80,10.00,M,CLR,M,M,M,M,M,M,M,M,M,M,M,M,M,M,63.70,KLSV 162355Z AUTO 07013KT 10SM CLR 18/M06 A2996 RMK AO2 SLP138 T01761056 10179 20144 57014 $,M
MEV,2023-03-16 23:55,-119.7500,38.9963,1441.42,46.40,26.60,45.73,M,6.00,0.00,30.04,M,10.00,M,CLR,M,M,M,M,M,M,M,M,M,M,M,M,M,M,42.87,KMEV 162355Z AUTO VRB06KT 10SM CLR 08/M03 A3004 RMK AO2,M
RTS,2023-03-16 23:55,-119.8764,39.6682,1539.00,44.60,21.20,39.06,100.00,7.00,0.00,30.06,M,10.00,14.00,CLR,M,M,M,M,M,M,M,M,M,M,M,M,M,M,40.14,KRTS 162355Z AUTO 10007G14KT 10SM CLR 07/M06 A3006 RMK AO2,M
BAM,2023-03-16 23:55,-116.8743,40.5990,1382.36,44.60,24.80,45.44,60.00,11.00,0.00,30.13,M,10.00,M,CLR,M,M,M,M,M,M,M,M,M,M,M,M,M,M,38.39,KBAM 162355Z AUTO 06011KT 10SM CLR 07/M04 A3013 RMK AO1,M
HTH,2023-03-16 23:55,-118.6315,38.5448,1282.89,48.20,21.20,34.09,310.00,6.00,0.00,30.06,M,10.00,M,CLR,M,M,M,M,M,M,M,M,M,M,M,M,M,M,45.04,KHTH 162355Z AUTO 31006KT 10SM CLR 09/M06 A3006 RMK A01,M
TMT,2023-03-16 23:55,-117.1971,39.4643,1749.34,41.20,19.00,40.52,80.00,5.00,0.00,30.07,M,10.00,M,CLR,M,M,M,M,M,M,M,M,M,M,M,M,M,M,37.32,KTMT 162355Z AUTO 08005KT 10SM CLR 05/M07 A3007 RMK AO2 T00511072 10055 20000,M
INS,2023-03-16 23:55,-115.6733,36.5872,955.00,56.00,15.40,20.00,0.00,0.00,0.00,30.00,1014.50,10.00,M,CLR,M,M,M,M,M,M,M,M,M,M,M,M,M,M,55.90,KINS 162355Z AUTO 00000KT 10SM CLR 13/M09 A3000 RMK AO2 SLP145 T01331092 10139 20094 57014 $,M
RNO,2023-03-16 23:55,-119.7711,39.4839,1341.00,49.00,19.90,31.42,120.00,6.00,0.00,30.05,1017.20,10.00,M,FEW,M,M,M,5000.00,M,M,M,M,M,M,M,M,M,M,45.88,KRNO 162355Z 12006KT 10SM FEW050 09/M07 A3005 RMK AO2 SLP172 T00941067 10100 20050 56014,M
EKO,2023-03-16 23:56,-115.7860,40.8242,1367.00,39.00,19.90,45.87,60.00,10.00,0.00,30.12,1022.00,10.00,M,CLR,M,M,M,M,M,M,M,M,M,M,M,M,M,M,31.75,KEKO 162356Z AUTO 06010KT 10SM CLR 04/M07 A3012 RMK AO2 SLP220 6//// T00391067 10039 21006 58004,M
WMC,2023-03-16 23:56,-117.8072,40.9019,1315.00,47.00,17.10,30.04,30.00,15.00,0.00,30.08,1019.00,10.00,22.00,CLR,M,M,M,M,M,M,M,M,M,M,M,M,M,M,40.10,KWMC 162356Z AUTO 03015G22KT 10SM CLR 08/M08 A3008 RMK AO2 SLP190 T00831083 10094 20033 58016,M
NFL,2023-03-16 23:56,-118.7010,39.4166,1199.00,50.00,18.00,27.80,50.00,3.00,0.00,30.06,1014.70,10.00,M,FEW,M,M,M,5000.00,M,M,M,M,M,M,M,M,M,M,50.00,KNFL 162356Z 05003KT 10SM FEW050 10/M08 A3006 RMK AO2 SLP147 T01001078 10100 20039 56019,M
HND,2023-03-16 23:56,-115.1344,35.9729,742.79,59.00,19.00,20.90,30.00,5.00,0.00,30.01,1017.80,10.00,M,CLR,M,M,M,M,M,M,M,M,M,M,M,M,M,M,59.00,KHND 162356Z 03005KT 10SM CLR 15/M07 A3001 RMK AO2 SLP178 T01501072 10156 20117 58010,M
TPH,2023-03-16 23:56,-117.0904,38.0505,1654.00,49.00,10.90,21.23,0.00,0.00,0.00,30.01,1015.80,10.00,M,CLR,M,M,M,M,M,M,M,M,M,M,M,M,M,M,48.90,KTPH 162356Z AUTO 00000KT 10SM CLR 09/M12 A3001 RMK AO2 SLP158 T00941117 10100 20039 56011,M
LAS,2023-03-16 23:56,-115.1634,36.0719,663.00,60.00,18.00,19.25,M,3.00,0.00,29.99,1014.90,10.00,M,FEW,M,M,M,8000.00,M,M,M,M,M,M,M,M,M,M,60.10,KLAS 162356Z VRB03KT 10SM FEW080 16/M08 A2999 RMK AO2 SLP149 T01561078 10156 20122 58012,M
