station,valid,lon,lat,elevation,tmpf,dwpf,relh,drct,sknt,p01i,alti,mslp,vsby,gust,skyc1,skyc2,skyc3,skyc4,skyl1,skyl2,skyl3,skyl4,wxcodes,ice_accretion_1hr,ice_accretion_3hr,ice_accretion_6hr,peak_wind_gust,peak_wind_drct,peak_wind_time,feel,metar,snowdepth
TMT,2021-03-15 00:15,-117.1971,39.4643,1749.34,54.00,4.30,13.00,280.00,7.00,0.00,29.97,M,10.00,M,M,M,M,M,M,M,M,M,M,M,M,M,M,M,M,54.10,KTMT 150015Z AUTO 28007KT 10SM 12/M15 A2997 RMK AO2 T01231154,M
BVU,2021-03-15 00:15,-114.8611,35.9475,671.00,66.20,19.40,16.50,120.00,11.00,0.00,29.96,M,10.00,M,CLR,M,M,M,M,M,M,M,M,M,M,M,M,M,M,66.20,KBVU 150015Z AUTO 12011KT 10SM CLR 19/M07 A2996 RMK AO2,M
BAM,2021-03-15 00:15,-116.8743,40.5990,1382.36,59.00,17.60,19.68,250.00,8.00,0.00,29.95,M,10.00,M,CLR,M,M,M,M,M,M,M,M,M,M,M,M,M,M,59.00,KBAM 150015Z AUTO 25008KT 10SM CLR 15/M08 A2995 RMK AO1,M
BVU,2021-03-15 00:35,-114.8611,35.9475,671.00,66.20,19.40,16.50,130.00,12.00,0.00,29.96,M,10.00,M,CLR,M,M,M,M,M,M,M,M,M,M,M,M,M,M,66.20,KBVU 150035Z AUTO 13012KT 10SM CLR 19/M07 A2996 RMK AO2,M
TMT,2021-03-15 00:35,-117.1971,39.4643,1749.34,52.70,4.00,13.43,290.00,7.00,0.00,29.97,M,10.00,M,M,M,M,M,M,M,M,M,M,M,M,M,M,M,M,52.70,KTMT 150035Z AUTO 29007KT 10SM 12/M16 A2997 RMK AO2 T01151156,M
BAM,2021-03-15 00:35,-116.8743,40.5990,1382.36,57.20,17.60,20.99,250.00,7.00,0.00,29.95,M,10.00,M,CLR,M,M,M,M,M,M,M,M,M,M,M,M,M,M,57.20,KBAM 150035Z AUTO 25007KT 10SM CLR 14/M08 A2995 RMK AO1,M
ELY,2021-03-15 00:53,-114.8453,39.2950,1909.00,52.00,10.90,18.92,300.00,8.00,0.00,29.97,1014.40,M,M,CLR,M,M,M,M,M,M,M,M,M,M,M,M,M,M,52.00,KELY 150053Z AUTO 30008KT CLR 11/M12 A2997 RMK AO2 SLP144 T01111117 $,M
DRA,2021-03-15 00:53,-116.0278,36.6206,1009.00,61.00,17.10,17.94,250.00,8.00,0.00,29.96,1013.30,10.00,M,CLR,M,M,M,M,M,M,M,M,M,M,M,M,M,M,61.00,KDRA 150053Z AUTO 25008KT 10SM CLR 16/M08 A2996 RMK AO2 SLP133 T01611083 $,M
LOL,2021-03-15 00:53,-118.5701,40.0684,1192.43,58.00,15.10,18.37,130.00,4.00,0.00,29.90,1013.20,10.00,M,CLR,M,M,M,M,M,M,M,M,M,M,M,M,M,M,57.90,KLOL 150053Z AUTO 13004KT 10SM CLR 14/M09 A2990 RMK AO2 SLP132 T01441094,M
P68,2021-03-15 00:53,-116.0056,39.6014,1993.00,51.00,25.00,35.89,40.00,7.00,0.00,29.96,1013.80,M,M,M,M,M,M,M,M,M,M,M,M,M,M,M,M,M,51.10,KP68 150053Z AUTO 04007KT 11/M04 A2996 RMK AO1 SLP138 T01061039,M
VGT,2021-03-15 00:53,-115.1933,36.2111,667.00,68.00,19.90,15.84,130.00,8.00,0.00,29.90,1013.70,10.00,M,CLR,M,M,M,M,M,M,M,M,M,M,M,M,M,M,68.00,KVGT 150053Z 13008KT 10SM CLR 20/M07 A2990 RMK AO2 SLP137 T02001067,M
RNO,2021-03-15 00:55,-119.7711,39.4839,1341.00,55.00,4.00,12.35,190.00,18.00,0.00,29.92,1012.00,10.00,M,SCT,SCT,M,M,11000.00,16000.00,M,M,M,M,M,M,M,M,M,55.00,KRNO 150055Z 19018KT 10SM SCT110 SCT160 13/M16 A2992 RMK AO2 SLP120 ACSL ALQDS APRNT ROTOR CLD S T01281156,M
BVU,2021-03-15 00:55,-114.8611,35.9475,671.00,64.40,21.20,18.96,110.00,11.00,0.00,29.96,M,10.00,M,CLR,M,M,M,M,M,M,M,M,M,M,M,M,M,M,64.40,KBVU 150055Z AUTO 11011KT 10SM CLR 18/M06 A2996 RMK AO2,M
TMT,2021-03-15 00:55,-117.1971,39.4643,1749.34,51.40,4.50,14.49,280.00,6.00,0.00,29.97,M,10.00,M,M,M,M,M,M,M,M,M,M,M,M,M,M,M,M,51.40,KTMT 150055Z AUTO 28006KT 10SM 11/M15 A2997 RMK AO2 T01081153,M
BAM,2021-03-15 00:55,-116.8743,40.5990,1382.36,55.40,17.60,22.41,260.00,7.00,0.00,29.95,M,10.00,M,CLR,M,M,M,M,M,M,M,M,M,M,M,M,M,M,55.40,KBAM 150055Z AUTO 26007KT 10SM CLR 13/M08 A2995 RMK AO1,M
EKO,2021-03-15 00:56,-115.7860,40.8242,1367.00,54.00,19.90,26.02,280.00,7.00,0.00,29.94,1014.00,10.00,M,CLR,M,M,M,M,M,M,M,M,M,M,M,M,M,M,54.00,KEKO 150056Z AUTO 28007KT 10SM CLR 12/M07 A2994 RMK AO2 SLP140 T01221067,M
LAS,2021-03-15 00:56,-115.1634,36.0719,663.00,66.00,23.00,19.35,80.00,10.00,0.00,29.94,1013.40,10.00,M,FEW,BKN,M,M,18000.00,25000.00,M,M,M,M,M,M,M,M,M,66.00,KLAS 150056Z 08010KT 10SM FEW180 BKN250 19/M05 A2994 RMK AO2 SLP134 T01891050 $,M
TPH,2021-03-15 00:56,-117.0904,38.0505,1654.00,49.00,30.00,47.85,180.00,4.00,0.00,29.98,1014.80,10.00,M,CLR,M,M,M,M,M,M,M,M,M,M,M,M,M,M,47.16,KTPH 150056Z AUTO 18004KT 10SM CLR 09/M01 A2998 RMK AO2 SLP148 T00941011,M
WMC,2021-03-15 00:56,-117.8072,40.9019,1315.00,56.00,10.90,16.41,240.00,6.00,0.00,29.91,1012.70,10.00,M,CLR,M,M,M,M,M,M,M,M,M,M,M,M,M,M,55.90,KWMC 150056Z AUTO 24006KT 10SM CLR 13/M12 A2991 RMK AO2 SLP127 T01331117,M
NFL,2021-03-15 00:56,-118.7010,39.4166,1199.00,61.00,6.00,11.01,0.00,0.00,0.00,29.90,1009.90,10.00,M,BKN,BKN,M,M,12000.00,16000.00,M,M,M,M,M,M,M,M,M,61.00,KNFL 150056Z 00000KT 10SM BKN120 BKN160 16/M14 A2990 RMK AO2 SLP099 T01611144 $,M
HND,2021-03-15 00:56,-115.1344,35.9729,742.79,66.00,23.00,19.35,60.00,4.00,0.00,29.96,1015.80,10.00,M,CLR,M,M,M,M,M,M,M,M,M,M,M,M,M,M,66.00,KHND 150056Z 06004KT 10SM CLR 19/M05 A2996 RMK AO2 SLP158 T01891050,M
LSV,2021-03-15 00:58,-115.0343,36.2362,570.00,66.00,22.60,19.03,140.00,10.00,0.00,29.93,1013.10,10.00,M,SCT,M,M,M,20000.00,M,M,M,M,M,M,M,M,M,M,66.00,KLSV 150058Z 14010KT 10SM SCT200 19/M05 A2993 RMK AO2A SLP131 T01891052 $,M
INS,2021-03-15 00:58,-115.6733,36.5872,955.00,62.40,15.60,15.99,300.00,9.00,0.00,29.93,1011.90,10.00,M,CLR,M,M,M,M,M,M,M,M,M,M,M,M,M,M,62.40,KINS 150058Z AUTO 30009KT 10SM CLR 17/M09 A2993 RMK AO2 SLP119 T01691091 $,M
BVU,2021-03-15 01:15,-114.8611,35.9475,671.00,64.40,21.20,18.96,110.00,10.00,0.00,29.96,M,10.00,M,CLR,M,M,M,M,M,M,M,M,M,M,M,M,M,M,64.40,KBVU 150115Z AUTO 11010KT 10SM CLR 18/M06 A2996 RMK AO2,M
TMT,2021-03-15 01:15,-117.1971,39.4643,1749.34,50.00,4.00,14.98,280.00,5.00,0.00,29.97,M,10.00,M,M,M,M,M,M,M,M,M,M,M,M,M,M,M,M,50.00,KTMT 150115Z AUTO 28005KT 10SM 10/M15 A2997 RMK AO2 T01001155,M
BAM,2021-03-15 01:15,-116.8743,40.5990,1382.36,55.40,17.60,22.41,250.00,8.00,0.00,29.95,M,10.00,M,CLR,M,M,M,M,M,M,M,M,M,M,M,M,M,M,55.40,KBAM 150115Z AUTO 25008KT 10SM CLR 13/M08 A2995 RMK AO1,M
BAM,2021-03-15 01:35,-116.8743,40.5990,1382.36,53.60,17.60,23.93,250.00,6.00,0.00,29.93,M,10.00,M,CLR,M,M,M,M,M,M,M,M,M,M,M,M,M,M,53.60,KBAM 150135Z AUTO 25006KT 10SM CLR 12/M08 A2993 RMK AO1,M
TMT,2021-03-15 01:35,-117.1971,39.4643,1749.34,47.80,4.80,16.80,0.00,0.00,0.00,29.96,M,10.00,M,M,M,M,M,M,M,M,M,M,M,M,M,M,M,M,47.80,KTMT 150135Z AUTO 00000KT 10SM 09/M15 A2996 RMK AO2 T00881151,M
BVU,2021-03-15 01:35,-114.8611,35.9475,671.00,64.40,21.20,18.96,130.00,7.00,0.00,29.96,M,10.00,M,CLR,M,M,M,M,M,M,M,M,M,M,M,M,M,M,64.40,KBVU 150135Z AUTO 13007KT 10SM CLR 18/M06 A2996 RMK AO2,M
ELY,2021-03-15 01:53,-114.8453,39.2950,1909.00,44.00,12.90,27.81,290.00,7.00,0.00,29.97,1015.30,M,M,CLR,M,M,M,M,M,M,M,M,M,M,M,M,M,M,39.53,KELY 150153Z AUTO 29007KT CLR 07/M11 A2997 RMK AO2 SLP153 T00671106 $,M
VGT,2021-03-15 01:53,-115.1933,36.2111,667.00,65.00,21.00,18.48,110.00,6.00,0.00,29.90,1013.90,10.00,M,CLR,M,M,M,M,M,M,M,M,M,M,M,M,M,M,64.90,KVGT 150153Z 11006KT 10SM CLR 18/M06 A2990 RMK AO2 SLP139 T01831061,M
LOL,2021-03-15 01:53,-118.5701,40.0684,1192.43,55.00,15.10,20.40,0.00,0.00,0.00,29.88,1012.50,10.00,M,CLR,M,M,M,M,M,M,M,M,M,M,M,M,M,M,55.00,KLOL 150153Z AUTO 00000KT 10SM CLR 13/M09 A2988 RMK AO2 SLP125 T01281094,M
P68,2021-03-15 01:53,-116.0056,39.6014,1993.00,46.00,28.00,49.18,60.00,5.00,0.00,29.94,1013.80,M,M,M,M,M,M,M,M,M,M,M,M,M,M,M,M,M,43.02,KP68 150153Z AUTO 06005KT 08/M02 A2994 RMK AO1 SLP138 T00781022,M
DRA,2021-03-15 01:53,-116.0278,36.6206,1009.00,58.00,19.90,22.59,320.00,4.00,0.00,29.94,1012.90,10.00,M,CLR,M,M,M,M,M,M,M,M,M,M,M,M,M,M,57.90,KDRA 150153Z AUTO 32004KT 10SM CLR 14/M07 A2994 RMK AO2 SLP129 T01441067 $,M
RNO,2021-03-15 01:55,-119.7711,39.4839,1341.00,52.00,4.00,13.79,200.00,14.00,0.00,29.90,1011.70,10.00,M,FEW,SCT,SCT,M,6500.00,11000.00,16000.00,M,M,M,M,M,M,M,M,52.00,KRNO 150155Z 20014KT 10SM FEW065 SCT110 SCT160 11/M16 A2990 RMK AO2 SLP117 ACSL ALQDS T01111156,M
BAM,2021-03-15 01:55,-116.8743,40.5990,1382.36,51.80,21.20,29.82,240.00,4.00,0.00,29.93,M,10.00,M,CLR,M,M,M,M,M,M,M,M,M,M,M,M,M,M,51.80,KBAM 150155Z AUTO 24004KT 10SM CLR 11/M06 A2993 RMK AO1,M
BVU,2021-03-15 01:55,-114.8611,35.9475,671.00,62.60,21.20,20.20,120.00,7.00,0.00,29.96,M,10.00,M,CLR,M,M,M,M,M,M,M,M,M,M,M,M,M,M,62.60,KBVU 150155Z AUTO 12007KT 10SM CLR 17/M06 A2996 RMK AO2,M
TMT,2021-03-15 01:55,-117.1971,39.4643,1749.34,48.20,4.00,16.02,0.00,0.00,0.00,29.96,M,10.00,M,M,M,M,M,M,M,M,M,M,M,M,M,M,M,M,48.20,KTMT 150155Z AUTO 00000KT 10SM 09/M15 A2996 RMK AO2 T00901155,M
HND,2021-03-15 01:56,-115.1344,35.9729,742.79,63.00,26.10,24.46,190.00,6.00,0.00,29.96,1016.00,10.00,M,CLR,M,M,M,M,M,M,M,M,M,M,M,M,M,M,63.00,KHND 150156Z 19006KT 10SM CLR 17/M03 A2996 RMK AO2 SLP160 T01721033,M
NFL,2021-03-15 01:56,-118.7010,39.4166,1199.00,57.00,8.10,13.91,90.00,3.00,0.00,29.88,1009.30,10.00,M,CLR,M,M,M,M,M,M,M,M,M,M,M,M,M,M,57.00,KNFL 150156Z AUTO 09003KT 10SM CLR 14/M13 A2988 RMK AO2 SLP093 T01391133 $,M
EKO,2021-03-15 01:56,-115.7860,40.8242,1367.00,49.00,21.90,34.20,0.00,0.00,0.00,29.92,1013.90,10.00,M,CLR,M,M,M,M,M,M,M,M,M,M,M,M,M,M,48.90,KEKO 150156Z AUTO 00000KT 10SM CLR 09/M06 A2992 RMK AO2 SLP139 T00941056,M
WMC,2021-03-15 01:56,-117.8072,40.9019,1315.00,51.00,14.00,22.43,0.00,0.00,0.00,29.88,1012.30,10.00,M,BKN,M,M,M,11000.00,M,M,M,M,M,M,M,M,M,M,51.10,KWMC 150156Z AUTO 00000KT 10SM BKN110 11/M10 A2988 RMK AO2 SLP123 T01061100,M
LAS,2021-03-15 01:56,-115.1634,36.0719,663.00,63.00,23.00,21.49,90.00,8.00,0.00,29.94,1013.40,10.00,M,SCT,BKN,M,M,17000.00,25000.00,M,M,M,M,M,M,M,M,M,63.00,KLAS 150156Z 09008KT 10SM SCT170 BKN250 17/M05 A2994 RMK AO2 SLP134 T01721050 $,M
TPH,2021-03-15 01:56,-117.0904,38.0505,1654.00,48.00,30.00,49.49,140.00,4.00,0.00,29.97,1014.80,10.00,M,SCT,M,M,M,11000.00,M,M,M,M,M,M,M,M,M,M,46.10,KTPH 150156Z AUTO 14004KT 10SM SCT110 09/M01 A2997 RMK AO2 SLP148 T00891011,M
LSV,2021-03-15 01:58,-115.0343,36.2362,570.00,64.00,21.90,19.88,140.00,13.00,0.00,29.92,1012.90,10.00,M,SCT,M,M,M,20000.00,M,M,M,M,M,M,M,M,M,M,63.90,KLSV 150158Z 14013KT 10SM SCT200 18/M06 A2992 RMK AO2A SLP129 T01771056 $,M
INS,2021-03-15 01:58,-115.6733,36.5872,955.00,59.40,17.10,18.99,340.00,4.00,0.00,29.92,1012.20,10.00,M,CLR,M,M,M,M,M,M,M,M,M,M,M,M,M,M,59.40,KINS 150158Z AUTO 34004KT 10SM CLR 15/M08 A2992 RMK AO2 SLP122 T01521083 $,M
BVU,2021-03-15 02:15,-114.8611,35.9475,671.00,60.80,21.20,21.53,110.00,7.00,0.00,29.96,M,10.00,M,CLR,M,M,M,M,M,M,M,M,M,M,M,M,M,M,60.80,KBVU 150215Z AUTO 11007KT 10SM CLR 16/M06 A2996 RMK AO2,M
TMT,2021-03-15 02:15,-117.1971,39.4643,1749.34,46.60,6.60,19.08,300.00,3.00,0.00,29.95,M,10.00,M,M,M,M,M,M,M,M,M,M,M,M,M,M,M,M,45.38,KTMT 150215Z AUTO 30003KT 10SM 08/M14 A2995 RMK AO2 T00811141,M
BAM,2021-03-15 02:15,-116.8743,40.5990,1382.36,50.00,21.20,31.87,240.00,5.00,0.00,29.92,M,10.00,M,CLR,M,M,M,M,M,M,M,M,M,M,M,M,M,M,50.00,KBAM 150215Z AUTO 24005KT 10SM CLR 10/M06 A2992 RMK AO1,M
BAM,2021-03-15 02:35,-116.8743,40.5990,1382.36,50.00,21.20,31.87,250.00,5.00,0.00,29.92,M,10.00,M,CLR,M,M,M,M,M,M,M,M,M,M,M,M,M,M,50.00,KBAM 150235Z AUTO 25005KT 10SM CLR 10/M06 A2992 RMK AO1,M
TMT,2021-03-15 02:35,-117.1971,39.4643,1749.34,43.50,6.80,21.66,0.00,0.00,0.00,29.95,M,10.00,M,M,M,M,M,M,M,M,M,M,M,M,M,M,M,M,43.50,KTMT 150235Z AUTO 00000KT 10SM 06/M14 A2995 RMK AO2 T00641140,M
BVU,2021-03-15 02:35,-114.8611,35.9475,671.00,60.80,21.20,21.53,60.00,4.00,0.00,29.95,M,10.00,M,CLR,M,M,M,M,M,M,M,M,M,M,M,M,M,M,60.80,KBVU 150235Z AUTO 06004KT 10SM CLR 16/M06 A2995 RMK AO2,M
P68,2021-03-15 02:53,-116.0056,39.6014,1993.00,43.00,25.00,48.70,0.00,0.00,0.00,29.94,1013.30,M,M,M,M,M,M,M,M,M,M,M,M,M,M,M,M,M,43.00,KP68 150253Z AUTO 00000KT 06/M04 A2994 RMK AO1 SLP133 T00611039 56008,M
LOL,2021-03-15 02:53,-118.5701,40.0684,1192.43,47.00,17.10,30.04,0.00,0.00,0.00,29.86,1012.40,10.00,M,CLR,M,M,M,M,M,M,M,M,M,M,M,M,M,M,46.90,KLOL 150253Z AUTO 00000KT 10SM CLR 08/M08 A2986 RMK AO2 SLP124 T00831083 56021,M
DRA,2021-03-15 02:53,-116.0278,36.6206,1009.00,56.00,24.10,29.00,30.00,6.00,0.00,29.93,1012.20,10.00,M,CLR,M,M,M,M,M,M,M,M,M,M,M,M,M,M,55.90,KDRA 150253Z AUTO 03006KT 10SM CLR 13/M04 A2993 RMK AO2 SLP122 T01331044 57013 $,M
VGT,2021-03-15 02:53,-115.1933,36.2111,667.00,63.00,21.00,19.75,70.00,3.00,0.00,29.90,1013.80,10.00,M,CLR,M,M,M,M,M,M,M,M,M,M,M,M,M,M,63.00,KVGT 150253Z 07003KT 10SM CLR 17/M06 A2990 RMK AO2 SLP138 T01721061 56003,M
ELY,2021-03-15 02:53,-114.8453,39.2950,1909.00,42.00,12.90,30.03,310.00,6.00,0.00,29.95,1014.60,M,M,CLR,M,M,M,M,M,M,M,M,M,M,M,M,M,M,37.69,KELY 150253Z AUTO 31006KT CLR 06/M11 A2995 RMK AO2 SLP146 T00561106 58005 $,M
RNO,2021-03-15 02:55,-119.7711,39.4839,1341.00,50.00,8.10,17.98,190.00,22.00,0.00,29.87,1010.70,10.00,29.00,FEW,SCT,SCT,M,6500.00,11000.00,16000.00,M,M,M,M,M,29.00,190.00,2021-03-15 02:55,50.00,KRNO 150255Z 19022G29KT 10SM FEW065 SCT110 SCT160 10/M13 A2987 RMK AO2 PK WND 19029/0255 SLP107 ACSL ALQDS T01001133 56025,M
TMT,2021-03-15 02:55,-117.1971,39.4643,1749.34,42.60,8.40,24.10,0.00,0.00,0.00,29.95,M,10.00,M,M,M,M,M,M,M,M,M,M,M,M,M,M,M,M,42.60,KTMT 150255Z AUTO 00000KT 10SM 06/M13 A2995 RMK AO2 T00591131,M
BVU,2021-03-15 02:55,-114.8611,35.9475,671.00,57.20,23.00,26.42,0.00,0.00,0.00,29.95,M,10.00,M,CLR,M,M,M,M,M,M,M,M,M,M,M,M,M,M,57.20,KBVU 150255Z AUTO 00000KT 10SM CLR 14/M05 A2995 RMK AO2,M
BAM,2021-03-15 02:55,-116.8743,40.5990,1382.36,50.00,21.20,31.87,90.00,6.00,0.00,29.91,M,10.00,M,SCT,BKN,M,M,9500.00,11000.00,M,M,M,M,M,M,M,M,M,50.00,KBAM 150255Z AUTO 09006KT 10SM SCT095 BKN110 10/M06 A2991 RMK AO1,M
WMC,2021-03-15 02:56,-117.8072,40.9019,1315.00,45.00,15.10,29.59,230.00,6.00,0.00,29.88,1012.60,10.00,M,CLR,M,M,M,M,M,M,M,M,M,M,M,M,M,M,41.19,KWMC 150256Z AUTO 23006KT 10SM CLR 07/M09 A2988 RMK AO2 SLP126 T00721094 56017,M
LAS,2021-03-15 02:56,-115.1634,36.0719,663.00,62.00,24.10,23.23,110.00,4.00,0.00,29.93,1013.10,10.00,M,SCT,BKN,M,M,17000.00,25000.00,M,M,M,M,M,M,M,M,M,62.10,KLAS 150256Z 11004KT 10SM SCT170 BKN250 17/M04 A2993 RMK AO2 SLP131 T01671044 57004 $,M
TPH,2021-03-15 02:56,-117.0904,38.0505,1654.00,43.00,30.90,62.06,150.00,4.00,0.00,29.96,1014.80,10.00,M,CLR,M,M,M,M,M,M,M,M,M,M,M,M,M,M,40.27,KTPH 150256Z AUTO 15004KT 10SM CLR 06/M01 A2996 RMK AO2 SLP148 T00611006 56008,M
HND,2021-03-15 02:56,-115.1344,35.9729,742.79,59.00,26.10,28.18,180.00,3.00,0.00,29.96,1015.90,10.00,M,CLR,M,M,M,M,M,M,M,M,M,M,M,M,M,M,59.00,KHND 150256Z 18003KT 10SM CLR 15/M03 A2996 RMK AO2 SLP159 T01501033 56004,M
EKO,2021-03-15 02:56,-115.7860,40.8242,1367.00,46.00,23.00,39.96,0.00,0.00,0.00,29.91,1014.10,10.00,M,CLR,M,M,M,M,M,M,M,M,M,M,M,M,M,M,46.00,KEKO 150256Z AUTO 00000KT 10SM CLR 08/M05 A2991 RMK AO2 SLP141 T00781050 56012,M
INS,2021-03-15 02:58,-115.6733,36.5872,955.00,57.20,23.50,26.98,180.00,3.00,0.00,29.93,1012.10,10.00,M,CLR,M,M,M,M,M,M,M,M,M,M,M,M,M,M,57.20,KINS 150258Z AUTO 18003KT 10SM CLR 14/M05 A2993 RMK AO2 SLP121 T01401047 55003 $,M
LSV,2021-03-15 02:58,-115.0343,36.2362,570.00,62.60,23.20,21.98,130.00,11.00,0.00,29.92,1012.80,10.00,M,SCT,M,M,M,17000.00,M,M,M,M,M,M,M,M,M,M,62.60,KLSV 150258Z 13011KT 10SM SCT170 17/M05 A2992 RMK AO2A SLP128 T01701049 57006 $,M
BAM,2021-03-15 03:15,-116.8743,40.5990,1382.36,48.20,21.20,34.09,130.00,6.00,0.00,29.91,M,10.00,M,SCT,SCT,M,M,9500.00,11000.00,M,M,M,M,M,M,M,M,M,45.04,KBAM 150315Z AUTO 13006KT 10SM SCT095 SCT110 09/M06 A2991 RMK AO1,M
TMT,2021-03-15 03:15,-117.1971,39.4643,1749.34,43.50,9.30,24.25,0.00,0.00,0.00,29.94,M,10.00,M,M,M,M,M,M,M,M,M,M,M,M,M,M,M,M,43.50,KTMT 150315Z AUTO 00000KT 10SM 06/M13 A2994 RMK AO2 T00641126,M
BVU,2021-03-15 03:15,-114.8611,35.9475,671.00,57.20,21.20,24.49,0.00,0.00,0.00,29.95,M,10.00,M,CLR,M,M,M,M,M,M,M,M,M,M,M,M,M,M,57.20,KBVU 150315Z AUTO 00000KT 10SM CLR 14/M06 A2995 RMK AO2,M
BAM,2021-03-15 03:35,-116.8743,40.5990,1382.36,46.40,24.80,42.44,150.00,3.00,0.00,29.89,M,10.00,M,CLR,M,M,M,M,M,M,M,M,M,M,M,M,M,M,45.15,KBAM 150335Z AUTO 15003KT 10SM CLR 08/M04 A2989 RMK AO1,M
TMT,2021-03-15 03:35,-117.1971,39.4643,1749.34,39.00,10.40,30.31,120.00,5.00,0.00,29.93,M,10.00,M,M,M,M,M,M,M,M,M,M,M,M,M,M,M,M,34.71,KTMT 150335Z AUTO 12005KT 10SM 04/M12 A2993 RMK AO2 T00391120,M
INS,2021-03-15 03:35,-115.6733,36.5872,955.00,55.40,26.60,32.76,90.00,11.00,0.00,29.89,1010.70,10.00,M,FEW,M,M,M,16000.00,M,M,M,M,M,M,M,M,M,M,55.40,KINS 150335Z AUTO 09011KT 10SM FEW160 13/M03 A2989 RMK AO2 PRESFR SLP107 $,M
BVU,2021-03-15 03:35,-114.8611,35.9475,671.00,60.80,21.20,21.53,160.00,3.00,0.00,29.95,M,10.00,M,CLR,M,M,M,M,M,M,M,M,M,M,M,M,M,M,60.80,KBVU 150335Z AUTO 16003KT 10SM CLR 16/M06 A2995 RMK AO2,M
VGT,2021-03-15 03:53,-115.1933,36.2111,667.00,60.00,24.10,24.93,360.00,4.00,0.00,29.89,1013.40,10.00,M,CLR,M,M,M,M,M,M,M,M,M,M,M,M,M,M,60.10,KVGT 150353Z 36004KT 10SM CLR 16/M04 A2989 RMK AO2 SLP134 T01561044,M
P68,2021-03-15 03:53,-116.0056,39.6014,1993.00,40.00,25.00,54.90,0.00,0.00,0.00,29.93,1011.80,M,M,M,M,M,M,M,M,M,M,M,M,M,M,M,M,M,39.90,KP68 150353Z AUTO 00000KT 04/M04 A2993 RMK AO1 SLP118 T00441039,M
DRA,2021-03-15 03:53,-116.0278,36.6206,1009.00,54.00,23.00,29.67,360.00,5.00,0.00,29.92,1011.40,10.00,M,CLR,M,M,M,M,M,M,M,M,M,M,M,M,M,M,54.00,KDRA 150353Z AUTO 36005KT 10SM CLR 12/M05 A2992 RMK AO2 SLP114 T01221050 $,M
LOL,2021-03-15 03:53,-118.5701,40.0684,1192.43,45.00,16.00,30.77,M,4.00,0.00,29.85,1011.30,10.00,M,OVC,M,M,M,12000.00,M,M,M,M,M,M,M,M,M,M,42.60,KLOL 150353Z AUTO VRB04KT 10SM OVC120 07/M09 A2985 RMK AO2 SLP113 T00721089,M
ELY,2021-03-15 03:53,-114.8453,39.2950,1909.00,32.00,12.90,44.70,170.00,7.00,0.00,29.95,1013.80,M,M,CLR,M,M,M,M,M,M,M,M,M,M,M,M,M,M,24.78,KELY 150353Z AUTO 17007KT CLR 00/M11 A2995 RMK AO2 SLP138 T00001106 $,M
TMT,2021-03-15 03:55,-117.1971,39.4643,1749.34,38.50,13.10,34.84,160.00,6.00,0.00,29.92,M,10.00,M,M,M,M,M,M,M,M,M,M,M,M,M,M,M,M,33.36,KTMT 150355Z AUTO 16006KT 10SM 04/M10 A2992 RMK AO2 T00361105,M
RNO,2021-03-15 03:55,-119.7711,39.4839,1341.00,47.00,16.00,28.64,190.00,30.00,0.00,29.83,1009.30,10.00,40.00,FEW,SCT,SCT,M,6500.00,11000.00,16000.00,M,M,M,M,M,40.00,180.00,2021-03-15 03:48,37.19,KRNO 150355Z 19030G40KT 10SM FEW065 SCT110 SCT160 08/M09 A2983 RMK AO2 PK WND 18040/0348 SLP093 ACSL ALQDS T00831089,M
BAM,2021-03-15 03:55,-116.8743,40.5990,1382.36,44.60,28.40,52.72,140.00,4.00,0.00,29.89,M,10.00,M,CLR,M,M,M,M,M,M,M,M,M,M,M,M,M,M,42.13,KBAM 150355Z AUTO 14004KT 10SM CLR 07/M02 A2989 RMK AO1,M
BVU,2021-03-15 03:55,-114.8611,35.9475,671.00,60.80,21.20,21.53,270.00,3.00,0.00,29.95,M,10.00,M,CLR,M,M,M,M,M,M,M,M,M,M,M,M,M,M,60.80,KBVU 150355Z AUTO 27003KT 10SM CLR 16/M06 A2995 RMK AO2,M
WMC,2021-03-15 03:56,-117.8072,40.9019,1315.00,48.00,16.00,27.48,200.00,8.00,0.00,29.85,1010.50,10.00,M,CLR,M,M,M,M,M,M,M,M,M,M,M,M,M,M,43.82,KWMC 150356Z AUTO 20008KT 10SM CLR 09/M09 A2985 RMK AO2 SLP105 T00891089,M
LAS,2021-03-15 03:56,-115.1634,36.0719,663.00,60.00,27.00,28.13,0.00,0.00,0.00,29.92,1012.70,10.00,M,SCT,BKN,M,M,17000.00,25000.00,M,M,M,M,M,M,M,M,M,60.10,KLAS 150356Z 00000KT 10SM SCT170 BKN250 16/M03 A2992 RMK AO2 SLP127 T01561028 $,M
NFL,2021-03-15 03:56,-118.7010,39.4166,1199.00,52.00,6.00,15.25,0.00,0.00,0.00,29.85,1008.50,10.00,M,BKN,M,M,M,12000.00,M,M,M,M,M,M,M,M,M,M,52.00,KNFL 150356Z AUTO 00000KT 10SM BKN120 11/M14 A2985 RMK AO2 SLP085 T01111144 $,M
EKO,2021-03-15 03:56,-115.7860,40.8242,1367.00,43.00,23.00,44.80,0.00,0.00,0.00,29.89,1012.80,10.00,M,CLR,M,M,M,M,M,M,M,M,M,M,M,M,M,M,43.00,KEKO 150356Z AUTO 00000KT 10SM CLR 06/M05 A2989 RMK AO2 SLP128 T00611050,M
HND,2021-03-15 03:56,-115.1344,35.9729,742.79,57.00,27.00,31.43,170.00,8.00,0.00,29.95,1015.40,10.00,M,CLR,M,M,M,M,M,M,M,M,M,M,M,M,M,M,57.00,KHND 150356Z AUTO 17008KT 10SM CLR 14/M03 A2995 RMK AO2 SLP154 T01391028,M
TPH,2021-03-15 03:56,-117.0904,38.0505,1654.00,43.00,25.00,48.70,190.00,5.00,0.00,29.94,1013.10,10.00,M,CLR,M,M,M,M,M,M,M,M,M,M,M,M,M,M,39.46,KTPH 150356Z AUTO 19005KT 10SM CLR 06/M04 A2994 RMK AO2 SLP131 T00611039,M
INS,2021-03-15 03:58,-115.6733,36.5872,955.00,55.40,25.30,31.04,130.00,4.00,0.00,29.92,1011.50,10.00,M,CLR,M,M,M,M,M,M,M,M,M,M,M,M,M,M,55.40,KINS 150358Z AUTO 13004KT 10SM CLR 13/M04 A2992 RMK AO2 PRESRR SLP115 T01301037 $,M
LSV,2021-03-15 03:58,-115.0343,36.2362,570.00,62.20,23.90,22.95,100.00,3.00,0.00,29.91,1012.20,10.00,M,SCT,BKN,M,M,17000.00,25000.00,M,M,M,M,M,M,M,M,M,62.20,KLSV 150358Z 10003KT 10SM SCT170 BKN250 17/M04 A2991 RMK AO2A SLP122 T01681045 $,M
TMT,2021-03-15 04:15,-117.1971,39.4643,1749.34,36.30,14.90,41.10,160.00,4.00,0.00,29.91,M,10.00,M,M,M,M,M,M,M,M,M,M,M,M,M,M,M,M,32.44,KTMT 150415Z AUTO 16004KT 10SM 02/M09 A2991 RMK AO2 T00241095,M
BVU,2021-03-15 04:15,-114.8611,35.9475,671.00,59.00,23.00,24.76,M,4.00,0.00,29.95,M,10.00,M,CLR,M,M,M,M,M,M,M,M,M,M,M,M,M,M,59.00,KBVU 150415Z AUTO VRB04KT 10SM CLR 15/M05 A2995 RMK AO2,M
BAM,2021-03-15 04:15,-116.8743,40.5990,1382.36,42.80,28.40,56.48,0.00,0.00,0.00,29.88,M,10.00,M,SCT,M,M,M,12000.00,M,M,M,M,M,M,M,M,M,M,42.80,KBAM 150415Z AUTO 00000KT 10SM SCT120 06/M02 A2988 RMK AO1,M
BAM,2021-03-15 04:35,-116.8743,40.5990,1382.36,42.80,26.60,52.45,140.00,5.00,0.00,29.87,M,10.00,M,SCT,M,M,M,12000.00,M,M,M,M,M,M,M,M,M,M,39.22,KBAM 150435Z AUTO 14005KT 10SM SCT120 06/M03 A2987 RMK AO1,M
BVU,2021-03-15 04:35,-114.8611,35.9475,671.00,59.00,23.00,24.76,180.00,5.00,0.00,29.94,M,10.00,M,CLR,M,M,M,M,M,M,M,M,M,M,M,M,M,M,59.00,KBVU 150435Z AUTO 18005KT 10SM CLR 15/M05 A2994 RMK AO2,M
TMT,2021-03-15 04:35,-117.1971,39.4643,1749.34,35.60,14.40,41.35,290.00,3.00,0.00,29.91,M,10.00,M,M,M,M,M,M,M,M,M,M,M,M,M,M,M,M,32.80,KTMT 150435Z AUTO 29003KT 10SM 02/M10 A2991 RMK AO2 T00201098,M
LOL,2021-03-15 04:53,-118.5701,40.0684,1192.43,44.00,18.00,34.72,170.00,5.00,0.00,29.84,1010.50,10.00,M,OVC,M,M,M,12000.00,M,M,M,M,M,M,M,M,M,M,40.77,KLOL 150453Z AUTO 17005KT 10SM OVC120 07/M08 A2984 RMK AO2 SLP105 T00671078,M
VGT,2021-03-15 04:53,-115.1933,36.2111,667.00,59.00,24.10,25.93,40.00,4.00,0.00,29.88,1012.90,10.00,M,CLR,M,M,M,M,M,M,M,M,M,M,M,M,M,M,59.00,KVGT 150453Z 04004KT 10SM CLR 15/M04 A2988 RMK AO2 SLP129 T01501044,M
ELY,2021-03-15 04:53,-114.8453,39.2950,1909.00,30.90,14.00,49.05,180.00,8.00,0.00,29.94,1012.40,M,M,CLR,M,M,M,M,M,M,M,M,M,M,M,M,M,M,22.76,KELY 150453Z AUTO 18008KT CLR M01/M10 A2994 RMK AO2 SLP124 T10061100 $,M
DRA,2021-03-15 04:53,-116.0278,36.6206,1009.00,52.00,23.00,31.93,0.00,0.00,0.00,29.91,1010.80,10.00,M,CLR,M,M,M,M,M,M,M,M,M,M,M,M,M,M,52.00,KDRA 150453Z AUTO 00000KT 10SM CLR 11/M05 A2991 RMK AO2 SLP108 T01111050 $,M
P68,2021-03-15 04:53,-116.0056,39.6014,1993.00,35.00,23.00,60.99,190.00,3.00,0.00,29.90,1010.90,M,M,M,M,M,M,M,M,M,M,M,M,M,M,M,M,M,32.23,KP68 150453Z AUTO 19003KT 02/M05 A2990 RMK AO1 SLP109 T00171050,M
RNO,2021-03-15 04:55,-119.7711,39.4839,1341.00,47.00,19.00,32.59,190.00,25.00,0.00,29.81,1008.50,10.00,31.00,FEW,SCT,SCT,M,6500.00,11000.00,16000.00,M,M,M,M,M,39.00,180.00,2021-03-15 04:01,37.99,KRNO 150455Z 19025G31KT 10SM FEW065 SCT110 SCT160 08/M07 A2981 RMK AO2 PK WND 18039/0401 SLP085 T00831072,M
BAM,2021-03-15 04:55,-116.8743,40.5990,1382.36,41.00,26.60,56.22,130.00,4.00,0.00,29.86,M,10.00,M,SCT,M,M,M,12000.00,M,M,M,M,M,M,M,M,M,M,37.93,KBAM 150455Z AUTO 13004KT 10SM SCT120 05/M03 A2986 RMK AO1,M
BVU,2021-03-15 04:55,-114.8611,35.9475,671.00,59.00,23.00,24.76,210.00,5.00,0.00,29.94,M,10.00,M,FEW,M,M,M,12000.00,M,M,M,M,M,M,M,M,M,M,59.00,KBVU 150455Z AUTO 21005KT 10SM FEW120 15/M05 A2994 RMK AO2,M
TMT,2021-03-15 04:55,-117.1971,39.4643,1749.34,36.00,14.00,39.83,290.00,5.00,0.00,29.90,M,10.00,M,M,M,M,M,M,M,M,M,M,M,M,M,M,M,M,31.26,KTMT 150455Z AUTO 29005KT 10SM 02/M10 A2990 RMK AO2 T00231100,M
WMC,2021-03-15 04:56,-117.8072,40.9019,1315.00,43.00,18.00,36.22,150.00,5.00,0.00,29.83,1009.10,10.00,M,FEW,M,M,M,12000.00,M,M,M,M,M,M,M,M,M,M,39.46,KWMC 150456Z AUTO 15005KT 10SM FEW120 06/M08 A2983 RMK AO2 SLP091 T00611078,M
LAS,2021-03-15 04:56,-115.1634,36.0719,663.00,59.00,27.00,29.25,290.00,5.00,0.00,29.91,1012.30,10.00,M,FEW,OVC,M,M,16000.00,22000.00,M,M,M,M,M,M,M,M,M,59.00,KLAS 150456Z 29005KT 10SM FEW160 OVC220 15/M03 A2991 RMK AO2 SLP123 T01501028 $,M
EKO,2021-03-15 04:56,-115.7860,40.8242,1367.00,41.00,24.10,50.67,0.00,0.00,0.00,29.87,1011.40,10.00,M,BKN,M,M,M,12000.00,M,M,M,M,M,M,M,M,M,M,41.00,KEKO 150456Z AUTO 00000KT 10SM BKN120 05/M04 A2987 RMK AO2 SLP114 T00501044,M
TPH,2021-03-15 04:56,-117.0904,38.0505,1654.00,40.00,26.10,57.47,100.00,4.00,0.00,29.93,1012.90,10.00,M,CLR,M,M,M,M,M,M,M,M,M,M,M,M,M,M,36.65,KTPH 150456Z AUTO 10004KT 10SM CLR 04/M03 A2993 RMK AO2 SLP129 T00441033,M
HND,2021-03-15 04:56,-115.1344,35.9729,742.79,58.00,26.10,29.32,170.00,7.00,0.00,29.93,1014.70,10.00,M,CLR,M,M,M,M,M,M,M,M,M,M,M,M,M,M,57.90,KHND 150456Z AUTO 17007KT 10SM CLR 14/M03 A2993 RMK AO2 SLP147 T01441033,M
NFL,2021-03-15 04:56,-118.7010,39.4166,1199.00,49.00,10.00,20.40,180.00,5.00,0.00,29.84,1008.00,10.00,M,FEW,M,M,M,11000.00,M,M,M,M,M,M,M,M,M,M,46.47,KNFL 150456Z AUTO 18005KT 10SM FEW110 09/M12 A2984 RMK AO2 SLP080 T00941122 $,M
LSV,2021-03-15 04:58,-115.0343,36.2362,570.00,61.20,25.00,24.90,120.00,4.00,0.00,29.91,1012.20,10.00,M,SCT,BKN,M,M,15000.00,21000.00,M,M,M,M,M,M,M,M,M,61.20,KLSV 150458Z 12004KT 10SM SCT150 BKN210 16/M04 A2991 RMK AO2A SLP122 T01621039 $,M
INS,2021-03-15 04:58,-115.6733,36.5872,955.00,52.70,26.40,35.86,120.00,7.00,0.00,29.90,1010.60,10.00,M,CLR,M,M,M,M,M,M,M,M,M,M,M,M,M,M,52.70,KINS 150458Z AUTO 12007KT 10SM CLR 12/M03 A2990 RMK AO2 SLP106 T01151031 $,M
BAM,2021-03-15 05:15,-116.8743,40.5990,1382.36,41.00,26.60,56.22,110.00,6.00,0.00,29.85,M,10.00,M,SCT,M,M,M,12000.00,M,M,M,M,M,M,M,M,M,M,36.37,KBAM 150515Z AUTO 11006KT 10SM SCT120 05/M03 A2985 RMK AO1,M
TMT,2021-03-15 05:15,-117.1971,39.4643,1749.34,36.50,15.10,41.14,230.00,4.00,0.00,29.89,M,10.00,M,M,M,M,M,M,M,M,M,M,M,M,M,M,M,M,32.68,KTMT 150515Z AUTO 23004KT 10SM 03/M09 A2989 RMK AO2 T00251094,M
BVU,2021-03-15 05:15,-114.8611,35.9475,671.00,59.00,23.00,24.76,170.00,4.00,0.00,29.93,M,10.00,M,CLR,M,M,M,M,M,M,M,M,M,M,M,M,M,M,59.00,KBVU 150515Z AUTO 17004KT 10SM CLR 15/M05 A2993 RMK AO2,M
BAM,2021-03-15 05:35,-116.8743,40.5990,1382.36,41.00,24.80,52.17,0.00,0.00,0.00,29.84,M,10.00,M,SCT,M,M,M,12000.00,M,M,M,M,M,M,M,M,M,M,41.00,KBAM 150535Z AUTO 00000KT 10SM SCT120 05/M04 A2984 RMK AO1,M
TMT,2021-03-15 05:35,-117.1971,39.4643,1749.34,36.00,16.70,44.80,210.00,6.00,0.00,29.89,M,10.00,M,M,M,M,M,M,M,M,M,M,M,M,M,M,M,M,30.47,KTMT 150535Z AUTO 21006KT 10SM 02/M08 A2989 RMK AO2 T00231085,M
BVU,2021-03-15 05:35,-114.8611,35.9475,671.00,59.00,23.00,24.76,0.00,0.00,0.00,29.93,M,10.00,M,CLR,M,M,M,M,M,M,M,M,M,M,M,M,M,M,59.00,KBVU 150535Z AUTO 00000KT 10SM CLR 15/M05 A2993 RMK AO2,M
LOL,2021-03-15 05:53,-118.5701,40.0684,1192.43,46.00,14.00,27.15,150.00,9.00,0.00,29.81,1009.20,10.00,M,OVC,M,M,M,11000.00,M,M,M,M,M,M,M,M,M,M,40.92,KLOL 150553Z AUTO 15009KT 10SM OVC110 08/M10 A2981 RMK AO2 SLP092 T00781100 10144 20067 58016,M
ELY,2021-03-15 05:53,-114.8453,39.2950,1909.00,36.00,16.00,43.64,190.00,9.00,0.00,29.92,1010.30,M,M,CLR,M,M,M,M,M,M,M,M,M,M,M,M,M,M,28.49,KELY 150553Z AUTO 19009KT CLR 02/M09 A2992 RMK AO2 SLP103 T00221089 10128 21011 58010 $,M
P68,2021-03-15 05:53,-116.0056,39.6014,1993.00,34.00,21.90,60.83,180.00,3.00,0.00,29.87,1009.10,M,M,M,M,M,M,M,M,M,M,M,M,M,M,M,M,M,30.97,KP68 150553Z AUTO 18003KT 01/M06 A2987 RMK AO1 SLP091 T00111056 10128 20000 58021,M
VGT,2021-03-15 05:53,-115.1933,36.2111,667.00,58.00,25.00,28.01,40.00,5.00,0.00,29.86,1012.20,10.00,M,CLR,M,M,M,M,M,M,M,M,M,M,M,M,M,M,57.90,KVGT 150553Z 04005KT 10SM CLR 14/M04 A2986 RMK AO2 SLP122 T01441039 10206 20144 58012,M
DRA,2021-03-15 05:53,-116.0278,36.6206,1009.00,51.00,21.90,31.52,330.00,4.00,0.00,29.88,1009.80,10.00,M,CLR,M,M,M,M,M,M,M,M,M,M,M,M,M,M,51.10,KDRA 150553Z AUTO 33004KT 10SM CLR 11/M06 A2988 RMK AO2 SLP098 T01061056 10167 20106 58014 $,M
BAM,2021-03-15 05:55,-116.8743,40.5990,1382.36,39.20,24.80,55.95,50.00,3.00,0.00,29.84,M,10.00,M,SCT,M,M,M,12000.00,M,M,M,M,M,M,M,M,M,M,36.92,KBAM 150555Z AUTO 05003KT 10SM SCT120 04/M04 A2984 RMK AO1,M
BVU,2021-03-15 05:55,-114.8611,35.9475,671.00,57.20,24.80,28.48,0.00,0.00,0.00,29.92,M,10.00,M,CLR,M,M,M,M,M,M,M,M,M,M,M,M,M,M,57.20,KBVU 150555Z AUTO 00000KT 10SM CLR 14/M04 A2992 RMK AO2,M
RNO,2021-03-15 05:55,-119.7711,39.4839,1341.00,46.00,19.90,35.04,220.00,8.00,0.00,29.78,1007.00,10.00,18.00,FEW,SCT,SCT,M,6500.00,11000.00,16000.00,M,M,M,M,M,38.00,190.00,2021-03-15 05:04,41.36,KRNO 150555Z 22008G18KT 10SM FEW065 SCT110 SCT160 08/M07 A2978 RMK AO2 PK WND 19038/0504 SLP070 T00781067 10144 20078 56026,M
TMT,2021-03-15 05:55,-117.1971,39.4643,1749.34,33.40,15.30,46.95,0.00,0.00,0.00,29.87,M,10.00,M,M,M,M,M,M,M,M,M,M,M,M,M,M,M,M,33.40,KTMT 150555Z AUTO 00000KT 10SM 01/M09 A2987 RMK AO2 T00081093 10127 20008,M
NFL,2021-03-15 05:56,-118.7010,39.4166,1199.00,53.00,7.00,15.25,200.00,15.00,0.00,29.81,1007.20,10.00,M,OVC,M,M,M,11000.00,M,M,M,M,M,M,M,M,M,M,53.10,KNFL 150556Z AUTO 20015KT 10SM OVC110 12/M14 A2981 RMK AO2 SLP072 T01171139 10167 20089 58020 $,M
WMC,2021-03-15 05:56,-117.8072,40.9019,1315.00,39.00,19.00,44.14,130.00,3.00,0.00,29.81,1008.40,10.00,M,CLR,M,M,M,M,M,M,M,M,M,M,M,M,M,M,36.69,KWMC 150556Z AUTO 13003KT 10SM CLR 04/M07 A2981 RMK AO2 SLP084 T00391072 10144 20033 57020,M
HND,2021-03-15 05:56,-115.1344,35.9729,742.79,56.00,28.00,34.08,170.00,7.00,0.00,29.92,1014.00,10.00,M,CLR,M,M,M,M,M,M,M,M,M,M,M,M,M,M,55.90,KHND 150556Z AUTO 17007KT 10SM CLR 13/M02 A2992 RMK AO2 SLP140 T01331022 10200 20128 58013,M
TPH,2021-03-15 05:56,-117.0904,38.0505,1654.00,37.00,28.00,69.63,0.00,0.00,0.00,29.92,1012.30,10.00,M,CLR,M,M,M,M,M,M,M,M,M,M,M,M,M,M,37.00,KTPH 150556Z AUTO 00000KT 10SM CLR 03/M02 A2992 RMK AO2 SLP123 T00281022 10106 20022 56013,M
LAS,2021-03-15 05:56,-115.1634,36.0719,663.00,58.00,28.00,31.71,240.00,3.00,0.00,29.90,1011.60,10.00,M,BKN,OVC,M,M,17000.00,22000.00,M,M,M,M,M,M,M,M,M,57.90,KLAS 150556Z 24003KT 10SM BKN170 OVC220 14/M02 A2990 RMK AO2 SLP116 T01441022 10200 20139 58012 $,M
EKO,2021-03-15 05:56,-115.7860,40.8242,1367.00,40.00,21.90,48.21,70.00,4.00,0.00,29.85,1009.80,10.00,M,CLR,M,M,M,M,M,M,M,M,M,M,M,M,M,M,36.65,KEKO 150556Z AUTO 07004KT 10SM CLR 04/M06 A2985 RMK AO2 SLP098 T00441056 10133 20033 58019,M
LSV,2021-03-15 05:58,-115.0343,36.2362,570.00,60.30,25.20,25.92,100.00,4.00,0.00,29.89,1011.40,10.00,M,SCT,OVC,M,M,15000.00,22000.00,M,M,M,M,M,M,M,M,M,60.30,KLSV 150558Z 10004KT 10SM SCT150 OVC220 16/M04 A2989 RMK AO2A SLP114 T01571038 10200 20152 58009 $,M
INS,2021-03-15 05:58,-115.6733,36.5872,955.00,49.30,27.10,41.86,0.00,0.00,0.00,29.88,1009.90,10.00,M,CLR,M,M,M,M,M,M,M,M,M,M,M,M,M,M,49.30,KINS 150558Z AUTO 00000KT 10SM CLR 10/M03 A2988 RMK AO2 SLP099 T00961027 10177 20096 57017 $,M
BVU,2021-03-15 06:15,-114.8611,35.9475,671.00,57.20,24.80,28.48,0.00,0.00,0.00,29.91,M,10.00,M,CLR,M,M,M,M,M,M,M,M,M,M,M,M,M,M,57.20,KBVU 150615Z AUTO 00000KT 10SM CLR 14/M04 A2991 RMK AO2,M
BAM,2021-03-15 06:15,-116.8743,40.5990,1382.36,41.00,23.00,48.39,0.00,0.00,0.00,29.83,M,10.00,M,SCT,M,M,M,12000.00,M,M,M,M,M,M,M,M,M,M,41.00,KBAM 150615Z AUTO 00000KT 10SM SCT120 05/M05 A2983 RMK AO1,M
TMT,2021-03-15 06:15,-117.1971,39.4643,1749.34,33.80,16.00,47.63,0.00,0.00,0.00,29.87,M,10.00,M,M,M,M,M,M,M,M,M,M,M,M,M,M,M,M,33.80,KTMT 150615Z AUTO 00000KT 10SM 01/M09 A2987 RMK AO2 T00101089,M
BVU,2021-03-15 06:35,-114.8611,35.9475,671.00,55.40,24.80,30.40,0.00,0.00,0.00,29.91,M,10.00,M,CLR,M,M,M,M,M,M,M,M,M,M,M,M,M,M,55.40,KBVU 150635Z AUTO 00000KT 10SM CLR 13/M04 A2991 RMK AO2,M
TMT,2021-03-15 06:35,-117.1971,39.4643,1749.34,32.70,15.40,48.49,0.00,0.00,0.00,29.86,M,10.00,M,M,M,M,M,M,M,M,M,M,M,M,M,M,M,M,32.70,KTMT 150635Z AUTO 00000KT 10SM 00/M09 A2986 RMK AO2 T00041092,M
BAM,2021-03-15 06:35,-116.8743,40.5990,1382.36,35.60,24.80,64.46,170.00,4.00,0.00,29.83,M,10.00,M,CLR,M,M,M,M,M,M,M,M,M,M,M,M,M,M,31.62,KBAM 150635Z AUTO 17004KT 10SM CLR 02/M04 A2983 RMK AO1,M
LOL,2021-03-15 06:53,-118.5701,40.0684,1192.43,49.00,12.00,22.29,210.00,10.00,0.00,29.79,1007.60,10.00,M,BKN,M,M,M,11000.00,M,M,M,M,M,M,M,M,M,M,44.16,KLOL 150653Z AUTO 21010KT 10SM BKN110 09/M11 A2979 RMK AO2 SLP076 T00941111,M
ELY,2021-03-15 06:53,-114.8453,39.2950,1909.00,30.90,18.00,58.36,180.00,10.00,0.00,29.89,1009.40,M,M,CLR,M,M,M,M,M,M,M,M,M,M,M,M,M,M,21.59,KELY 150653Z AUTO 18010KT CLR M01/M08 A2989 RMK AO2 SLP094 T10061078 $,M
P68,2021-03-15 06:53,-116.0056,39.6014,1993.00,30.00,19.00,63.18,0.00,0.00,0.00,29.84,1008.30,M,M,M,M,M,M,M,M,M,M,M,M,M,M,M,M,M,30.00,KP68 150653Z AUTO 00000KT M01/M07 A2984 RMK AO1 SLP083 T10111072,M
DRA,2021-03-15 06:53,-116.0278,36.6206,1009.00,51.00,23.00,33.01,0.00,0.00,0.00,29.87,1009.20,10.00,M,CLR,M,M,M,M,M,M,M,M,M,M,M,M,M,M,51.10,KDRA 150653Z AUTO 00000KT 10SM CLR 11/M05 A2987 RMK AO2 SLP092 T01061050 $,M
VGT,2021-03-15 06:53,-115.1933,36.2111,667.00,56.00,25.00,30.10,340.00,3.00,0.00,29.85,1011.70,10.00,M,CLR,M,M,M,M,M,M,M,M,M,M,M,M,M,M,55.90,KVGT 150653Z 34003KT 10SM CLR 13/M04 A2985 RMK AO2 SLP117 T01331039,M
BVU,2021-03-15 06:55,-114.8611,35.9475,671.00,55.40,24.80,30.40,0.00,0.00,0.00,29.91,M,10.00,M,CLR,M,M,M,M,M,M,M,M,M,M,M,M,M,M,55.40,KBVU 150655Z AUTO 00000KT 10SM CLR 13/M04 A2991 RMK AO2,M
RNO,2021-03-15 06:55,-119.7711,39.4839,1341.00,44.00,21.00,39.47,M,5.00,0.00,29.77,1006.40,10.00,M,SCT,M,M,M,4000.00,M,M,M,M,M,M,M,M,M,M,40.77,KRNO 150655Z VRB05KT 10SM SCT040 07/M06 A2977 RMK AO2 SLP064 T00671061,M
TMT,2021-03-15 06:55,-117.1971,39.4643,1749.34,30.00,14.70,52.46,210.00,3.00,0.00,29.85,M,10.00,M,M,M,M,M,M,M,M,M,M,M,M,M,M,M,M,26.40,KTMT 150655Z AUTO 21003KT 10SM M01/M10 A2985 RMK AO2 T10111096,M
BAM,2021-03-15 06:55,-116.8743,40.5990,1382.36,35.60,26.60,69.46,0.00,0.00,0.00,29.82,M,10.00,M,SCT,M,M,M,11000.00,M,M,M,M,M,M,M,M,M,M,35.60,KBAM 150655Z AUTO 00000KT 10SM SCT110 02/M03 A2982 RMK AO1,M
HND,2021-03-15 06:56,-115.1344,35.9729,742.79,57.00,26.10,30.28,180.00,8.00,0.00,29.91,1013.50,10.00,M,CLR,M,M,M,M,M,M,M,M,M,M,M,M,M,M,57.00,KHND 150656Z AUTO 18008KT 10SM CLR 14/M03 A2991 RMK AO2 SLP135 T01391033,M
NFL,2021-03-15 06:56,-118.7010,39.4166,1199.00,51.00,10.90,19.56,220.00,15.00,0.00,29.78,1006.30,10.00,M,OVC,M,M,M,10000.00,M,M,M,M,M,M,M,M,M,M,51.10,KNFL 150656Z AUTO 22015KT 10SM OVC100 11/M12 A2978 RMK AO2 SLP063 T01061117 $,M
WMC,2021-03-15 06:56,-117.8072,40.9019,1315.00,33.00,17.10,51.37,0.00,0.00,0.00,29.79,1007.60,10.00,M,CLR,M,M,M,M,M,M,M,M,M,M,M,M,M,M,33.10,KWMC 150656Z AUTO 00000KT 10SM CLR 01/M08 A2979 RMK AO2 SLP076 T00061083,M
TPH,2021-03-15 06:56,-117.0904,38.0505,1654.00,36.00,27.00,69.51,100.00,5.00,0.00,29.89,1011.10,10.00,M,CLR,M,M,M,M,M,M,M,M,M,M,M,M,M,M,31.15,KTPH 150656Z AUTO 10005KT 10SM CLR 02/M03 A2989 RMK AO2 SLP111 T00221028,M
LAS,2021-03-15 06:56,-115.1634,36.0719,663.00,57.00,27.00,31.43,0.00,0.00,0.00,29.89,1011.10,10.00,M,BKN,OVC,M,M,17000.00,22000.00,M,M,M,M,M,M,M,M,M,57.00,KLAS 150656Z 00000KT 10SM BKN170 OVC220 14/M03 A2989 RMK AO2 SLP111 T01391028 $,M
EKO,2021-03-15 06:56,-115.7860,40.8242,1367.00,35.00,21.00,56.05,100.00,4.00,0.00,29.83,1009.10,10.00,M,CLR,M,M,M,M,M,M,M,M,M,M,M,M,M,M,31.04,KEKO 150656Z AUTO 10004KT 10SM CLR 02/M06 A2983 RMK AO2 SLP091 T00171061,M
INS,2021-03-15 06:58,-115.6733,36.5872,955.00,48.60,28.20,44.96,0.00,0.00,0.00,29.86,1009.20,10.00,M,BKN,M,M,M,15000.00,M,M,M,M,M,M,M,M,M,M,48.60,KINS 150658Z AUTO 00000KT 10SM BKN150 09/M02 A2986 RMK AO2 SLP092 T00921021 $,M
LSV,2021-03-15 06:58,-115.0343,36.2362,570.00,58.80,25.70,27.92,90.00,4.00,0.00,29.87,1010.70,10.00,M,SCT,M,M,M,15000.00,M,M,M,M,M,M,M,M,M,M,58.80,KLSV 150658Z AUTO 09004KT 10SM SCT150 15/M03 A2987 RMK AO2 SLP107 T01491035 $,M
BVU,2021-03-15 07:15,-114.8611,35.9475,671.00,57.20,24.80,28.48,0.00,0.00,0.00,29.91,M,10.00,M,CLR,M,M,M,M,M,M,M,M,M,M,M,M,M,M,57.20,KBVU 150715Z AUTO 00000KT 10SM CLR 14/M04 A2991 RMK AO2,M
TMT,2021-03-15 07:15,-117.1971,39.4643,1749.34,30.20,15.30,53.42,250.00,5.00,0.00,29.84,M,10.00,M,M,M,M,M,M,M,M,M,M,M,M,M,M,M,M,24.26,KTMT 150715Z AUTO 25005KT 10SM M01/M09 A2984 RMK AO2 T10101093,M
BAM,2021-03-15 07:15,-116.8743,40.5990,1382.36,33.80,24.80,69.25,0.00,0.00,0.00,29.81,M,10.00,M,CLR,M,M,M,M,M,M,M,M,M,M,M,M,M,M,33.80,KBAM 150715Z AUTO 00000KT 10SM CLR 01/M04 A2981 RMK AO1,M
TMT,2021-03-15 07:35,-117.1971,39.4643,1749.34,30.20,16.50,56.27,240.00,5.00,0.00,29.82,M,10.00,M,M,M,M,M,M,M,M,M,M,M,M,M,M,M,M,24.26,KTMT 150735Z AUTO 24005KT 10SM M01/M09 A2982 RMK AO2 T10101086,M
BAM,2021-03-15 07:35,-116.8743,40.5990,1382.36,32.00,23.00,69.04,130.00,3.00,0.00,29.80,M,10.00,M,CLR,M,M,M,M,M,M,M,M,M,M,M,M,M,M,28.69,KBAM 150735Z AUTO 13003KT 10SM CLR 00/M05 A2980 RMK AO1,M
BVU,2021-03-15 07:35,-114.8611,35.9475,671.00,57.20,24.80,28.48,170.00,5.00,0.00,29.90,M,10.00,M,CLR,M,M,M,M,M,M,M,M,M,M,M,M,M,M,57.20,KBVU 150735Z AUTO 17005KT 10SM CLR 14/M04 A2990 RMK AO2,M
LOL,2021-03-15 07:53,-118.5701,40.0684,1192.43,43.00,15.10,31.94,340.00,5.00,0.00,29.75,1006.80,10.00,M,BKN,M,M,M,11000.00,M,M,M,M,M,M,M,M,M,M,39.46,KLOL 150753Z AUTO 34005KT 10SM BKN110 06/M09 A2975 RMK AO2 SLP068 T00611094 401561078,M
P68,2021-03-15 07:53,-116.0056,39.6014,1993.00,30.00,19.00,63.18,180.00,6.00,0.00,29.82,1007.30,M,M,M,M,M,M,M,M,M,M,M,M,M,M,M,M,M,23.12,KP68 150753Z AUTO 18006KT M01/M07 A2982 RMK AO1 SLP073 T10111072 401441083,M
ELY,2021-03-15 07:53,-114.8453,39.2950,1909.00,27.00,16.00,62.78,200.00,10.00,0.00,29.87,1009.20,M,M,CLR,M,M,M,M,M,M,M,M,M,M,M,M,M,M,16.70,KELY 150753Z AUTO 20010KT CLR M03/M09 A2987 RMK AO2 SLP092 T10281089 401281117 $,M
DRA,2021-03-15 07:53,-116.0278,36.6206,1009.00,50.00,23.00,34.39,80.00,7.00,0.00,29.84,1008.30,10.00,M,CLR,M,M,M,M,M,M,M,M,M,M,M,M,M,M,50.00,KDRA 150753Z AUTO 08007KT 10SM CLR 10/M05 A2984 RMK AO2 SLP083 T01001050 401781028 $,M
VGT,2021-03-15 07:53,-115.1933,36.2111,667.00,55.00,26.10,32.56,40.00,5.00,0.00,29.82,1010.70,10.00,M,CLR,M,M,M,M,M,M,M,M,M,M,M,M,M,M,55.00,KVGT 150753Z 04005KT 10SM CLR 13/M03 A2982 RMK AO2 SLP107 T01281033 402110033,M
BAM,2021-03-15 07:55,-116.8743,40.5990,1382.36,32.00,23.00,69.04,160.00,4.00,0.00,29.79,M,10.00,M,CLR,M,M,M,M,M,M,M,M,M,M,M,M,M,M,27.42,KBAM 150755Z AUTO 16004KT 10SM CLR 00/M05 A2979 RMK AO1,M
BVU,2021-03-15 07:55,-114.8611,35.9475,671.00,57.20,23.00,26.42,200.00,4.00,0.00,29.89,M,10.00,10.00,CLR,M,M,M,M,M,M,M,M,M,M,M,M,M,M,57.20,KBVU 150755Z AUTO 20004G10KT 10SM CLR 14/M05 A2989 RMK AO2,M
RNO,2021-03-15 07:55,-119.7711,39.4839,1341.00,43.00,27.00,52.91,180.00,20.00,0.00,29.74,1005.20,10.00,28.00,SCT,M,M,M,4000.00,M,M,M,M,M,M,M,28.00,170.00,2021-03-15 07:53,33.75,KRNO 150755Z 18020G28KT 10SM SCT040 06/M03 A2974 RMK AO2 PK WND 17028/0753 SLP052 T00611028 401561017,M
TMT,2021-03-15 07:55,-117.1971,39.4643,1749.34,29.70,16.20,56.69,290.00,3.00,0.00,29.82,M,10.00,M,M,M,M,M,M,M,M,M,M,M,M,M,M,M,M,26.06,KTMT 150755Z AUTO 29003KT 10SM M01/M09 A2982 RMK AO2 T10131088 401461129,M
EKO,2021-03-15 07:56,-115.7860,40.8242,1367.00,34.00,21.00,58.56,70.00,5.00,0.00,29.80,1008.10,10.00,M,CLR,M,M,M,M,M,M,M,M,M,M,M,M,M,M,28.77,KEKO 150756Z AUTO 07005KT 10SM CLR 01/M06 A2980 RMK AO2 SLP081 T00111061 401501083,M
NFL,2021-03-15 07:56,-118.7010,39.4166,1199.00,46.00,10.90,23.68,140.00,12.00,0.00,29.74,1005.10,10.00,M,FEW,M,M,M,10000.00,M,M,M,M,M,M,M,M,M,M,39.82,KNFL 150756Z AUTO 14012KT 10SM FEW100 08/M12 A2974 RMK AO2 SLP051 T00781117 401671006 $,M
TPH,2021-03-15 07:56,-117.0904,38.0505,1654.00,34.00,25.00,69.28,0.00,0.00,0.00,29.86,1009.90,10.00,M,CLR,M,M,M,M,M,M,M,M,M,M,M,M,M,M,34.00,KTPH 150756Z AUTO 00000KT 10SM CLR 01/M04 A2986 RMK AO2 SLP099 T00111039 401111044,M
HND,2021-03-15 07:56,-115.1344,35.9729,742.79,54.00,26.10,33.77,190.00,5.00,0.00,29.89,1012.70,10.00,M,CLR,M,M,M,M,M,M,M,M,M,M,M,M,M,M,54.00,KHND 150756Z AUTO 19005KT 10SM CLR 12/M03 A2989 RMK AO2 SLP127 T01221033 402110033,M
LAS,2021-03-15 07:56,-115.1634,36.0719,663.00,58.00,23.00,25.76,150.00,5.00,0.00,29.86,1010.10,10.00,M,BKN,OVC,M,M,16000.00,22000.00,M,M,M,M,M,M,M,M,M,57.90,KLAS 150756Z 15005KT 10SM BKN160 OVC220 14/M05 A2986 RMK AO2 SLP101 T01441050 402000039 $,M
WMC,2021-03-15 07:56,-117.8072,40.9019,1315.00,35.00,18.00,49.31,70.00,4.00,0.00,29.76,1006.30,10.00,M,BKN,M,M,M,11000.00,M,M,M,M,M,M,M,M,M,M,31.04,KWMC 150756Z AUTO 07004KT 10SM BKN110 02/M08 A2976 RMK AO2 SLP063 T00171078 401561089,M
INS,2021-03-15 07:58,-115.6733,36.5872,955.00,48.60,27.70,44.05,0.00,0.00,0.00,29.84,1008.10,10.00,M,OVC,M,M,M,14000.00,M,M,M,M,M,M,M,M,M,M,48.60,KINS 150758Z AUTO 00000KT 10SM OVC140 09/M02 A2984 RMK AO2 SLP081 T00921024 401881008 $,M
LSV,2021-03-15 07:58,-115.0343,36.2362,570.00,56.70,25.50,29.86,40.00,8.00,0.00,29.85,1009.90,10.00,M,FEW,M,M,M,16000.00,M,M,M,M,M,M,M,M,M,M,56.70,KLSV 150758Z AUTO 04008KT 10SM FEW160 14/M04 A2985 RMK AO2 SLP099 T01371036 402050018 $,M
BAM,2021-03-15 08:15,-116.8743,40.5990,1382.36,32.00,23.00,69.04,0.00,0.00,0.00,29.78,M,10.00,M,CLR,M,M,M,M,M,M,M,M,M,M,M,M,M,M,32.00,KBAM 150815Z AUTO 00000KT 10SM CLR 00/M05 A2978 RMK AO1,M
TMT,2021-03-15 08:15,-117.1971,39.4643,1749.34,27.30,13.50,55.59,0.00,0.00,0.00,29.82,M,10.00,M,M,M,M,M,M,M,M,M,M,M,M,M,M,M,M,27.30,KTMT 150815Z AUTO 00000KT 10SM M03/M10 A2982 RMK AO2 T10261103,M
BVU,2021-03-15 08:15,-114.8611,35.9475,671.00,55.40,23.00,28.20,70.00,4.00,0.00,29.89,M,10.00,M,CLR,M,M,M,M,M,M,M,M,M,M,M,M,M,M,55.40,KBVU 150815Z AUTO 07004KT 10SM CLR 13/M05 A2989 RMK AO2,M
BVU,2021-03-15 08:35,-114.8611,35.9475,671.00,57.20,23.00,26.42,150.00,5.00,0.00,29.88,M,10.00,10.00,CLR,M,M,M,M,M,M,M,M,M,M,M,M,M,M,57.20,KBVU 150835Z AUTO 15005G10KT 10SM CLR 14/M05 A2988 RMK AO2,M
BAM,2021-03-15 08:35,-116.8743,40.5990,1382.36,33.80,24.80,69.25,90.00,4.00,0.00,29.78,M,10.00,M,CLR,M,M,M,M,M,M,M,M,M,M,M,M,M,M,29.52,KBAM 150835Z AUTO 09004KT 10SM CLR 01/M04 A2978 RMK AO1,M
TMT,2021-03-15 08:35,-117.1971,39.4643,1749.34,30.00,14.70,52.46,230.00,6.00,0.00,29.81,M,10.00,M,M,M,M,M,M,M,M,M,M,M,M,M,M,M,M,23.12,KTMT 150835Z AUTO 23006KT 10SM M01/M10 A2981 RMK AO2 T10111096,M
P68,2021-03-15 08:53,-116.0056,39.6014,1993.00,27.00,17.10,65.84,270.00,4.00,0.00,29.81,1007.00,M,M,M,M,M,M,M,M,M,M,M,M,M,M,M,M,M,21.58,KP68 150853Z AUTO 27004KT M03/M08 A2981 RMK AO1 SLP070 T10281083 56018,M
DRA,2021-03-15 08:53,-116.0278,36.6206,1009.00,45.00,26.10,47.23,30.00,3.00,0.00,29.83,1008.10,10.00,M,CLR,M,M,M,M,M,M,M,M,M,M,M,M,M,M,43.55,KDRA 150853Z AUTO 03003KT 10SM CLR 07/M03 A2983 RMK AO2 SLP081 T00721033 56016 $,M
ELY,2021-03-15 08:53,-114.8453,39.2950,1909.00,34.00,19.00,53.77,210.00,12.00,0.00,29.85,1007.40,M,M,CLR,M,M,M,M,M,M,M,M,M,M,M,M,M,M,24.55,KELY 150853Z AUTO 21012KT CLR 01/M07 A2985 RMK AO2 SLP074 T00111072 56018 $,M
VGT,2021-03-15 08:53,-115.1933,36.2111,667.00,53.00,26.10,34.90,0.00,0.00,0.00,29.81,1010.30,10.00,M,CLR,M,M,M,M,M,M,M,M,M,M,M,M,M,M,53.10,KVGT 150853Z 00000KT 10SM CLR 12/M03 A2981 RMK AO2 SLP103 T01171033 56014,M
LOL,2021-03-15 08:53,-118.5701,40.0684,1192.43,44.00,16.00,31.85,M,5.00,0.00,29.73,1005.60,10.00,M,OVC,M,M,M,11000.00,M,M,M,M,M,M,M,M,M,M,40.77,KLOL 150853Z AUTO VRB05KT 10SM OVC110 07/M09 A2973 RMK AO2 SLP056 T00671089 56024,M
BVU,2021-03-15 08:55,-114.8611,35.9475,671.00,57.20,23.00,26.42,180.00,6.00,0.00,29.88,M,10.00,14.00,CLR,M,M,M,M,M,M,M,M,M,M,M,M,M,M,57.20,KBVU 150855Z AUTO 18006G14KT 10SM CLR 14/M05 A2988 RMK AO2,M
RNO,2021-03-15 08:55,-119.7711,39.4839,1341.00,43.00,27.00,52.91,150.00,26.00,0.00,29.71,1004.00,10.00,33.00,BKN,M,M,M,4000.00,M,M,M,M,M,M,M,33.00,150.00,2021-03-15 08:55,32.52,KRNO 150855Z 15026G33KT 10SM BKN040 06/M03 A2971 RMK AO2 PK WND 15033/0855 SLP040 MTN WAVE ACT AT AP T00611028 58022,M
TMT,2021-03-15 08:55,-117.1971,39.4643,1749.34,29.50,15.30,54.96,80.00,4.00,0.00,29.80,M,10.00,M,M,M,M,M,M,M,M,M,M,M,M,M,M,M,M,24.50,KTMT 150855Z AUTO 08004KT 10SM M01/M09 A2980 RMK AO2 T10141093,M
BAM,2021-03-15 08:55,-116.8743,40.5990,1382.36,32.00,24.80,74.44,0.00,0.00,0.00,29.77,M,10.00,M,SCT,M,M,M,12000.00,M,M,M,M,M,M,M,M,M,M,32.00,KBAM 150855Z AUTO 00000KT 10SM SCT120 00/M04 A2977 RMK AO1,M
EKO,2021-03-15 08:56,-115.7860,40.8242,1367.00,32.00,21.00,63.45,80.00,4.00,0.00,29.79,1007.60,10.00,M,CLR,M,M,M,M,M,M,M,M,M,M,M,M,M,M,27.42,KEKO 150856Z AUTO 08004KT 10SM CLR 00/M06 A2979 RMK AO2 SLP076 T00001061 56017,M
WMC,2021-03-15 08:56,-117.8072,40.9019,1315.00,38.00,18.00,44.14,80.00,3.00,0.00,29.74,1005.50,10.00,M,BKN,M,M,M,12000.00,M,M,M,M,M,M,M,M,M,M,35.43,KWMC 150856Z AUTO 08003KT 10SM BKN120 03/M08 A2974 RMK AO2 SLP055 T00331078 56021,M
TPH,2021-03-15 08:56,-117.0904,38.0505,1654.00,28.90,25.00,85.14,0.00,0.00,0.00,29.84,1009.70,10.00,M,CLR,M,M,M,M,M,M,M,M,M,M,M,M,M,M,28.90,KTPH 150856Z AUTO 00000KT 10SM CLR M02/M04 A2984 RMK AO2 SLP097 T10171039 56024,M
NFL,2021-03-15 08:56,-118.7010,39.4166,1199.00,46.00,12.00,24.86,260.00,8.00,0.00,29.73,1004.80,10.00,M,SCT,M,M,M,10000.00,M,M,M,M,M,M,M,M,M,M,41.36,KNFL 150856Z AUTO 26008KT 10SM SCT100 08/M11 A2973 RMK AO2 SLP048 T00781111 56024 $,M
LAS,2021-03-15 08:56,-115.1634,36.0719,663.00,57.00,21.90,25.40,160.00,5.00,0.00,29.85,1009.60,10.00,M,BKN,BKN,M,M,14000.00,20000.00,M,M,M,M,M,M,M,M,M,57.00,KLAS 150856Z 16005KT 10SM BKN140 BKN200 14/M06 A2985 RMK AO2 SLP096 T01391056 56014 $,M
HND,2021-03-15 08:56,-115.1344,35.9729,742.79,53.00,24.10,32.11,200.00,7.00,0.00,29.88,1012.50,10.00,M,CLR,M,M,M,M,M,M,M,M,M,M,M,M,M,M,53.10,KHND 150856Z AUTO 20007KT 10SM CLR 12/M04 A2988 RMK AO2 SLP125 T01171044 56012,M
INS,2021-03-15 08:58,-115.6733,36.5872,955.00,42.60,28.00,55.99,300.00,5.00,0.00,29.82,1007.70,10.00,M,CLR,M,M,M,M,M,M,M,M,M,M,M,M,M,M,38.98,KINS 150858Z AUTO 30005KT 10SM CLR 06/M02 A2982 RMK AO2 SLP077 T00591022 57018 $,M
LSV,2021-03-15 08:58,-115.0343,36.2362,570.00,54.70,26.80,33.88,360.00,6.00,0.00,29.85,1009.90,10.00,M,BKN,M,M,M,17000.00,M,M,M,M,M,M,M,M,M,M,54.70,KLSV 150858Z AUTO 36006KT 10SM BKN170 13/M03 A2985 RMK AO2 SLP099 T01261029 57013 $,M
TMT,2021-03-15 09:15,-117.1971,39.4643,1749.34,30.00,16.30,56.24,120.00,3.00,0.00,29.79,M,10.00,M,M,M,M,M,M,M,M,M,M,M,M,M,M,M,M,26.40,KTMT 150915Z AUTO 12003KT 10SM M01/M09 A2979 RMK AO2 T10111087,M
BAM,2021-03-15 09:15,-116.8743,40.5990,1382.36,32.00,26.60,80.22,90.00,4.00,0.00,29.76,M,10.00,M,SCT,M,M,M,12000.00,M,M,M,M,M,M,M,M,M,M,27.42,KBAM 150915Z AUTO 09004KT 10SM SCT120 00/M03 A2976 RMK AO1,M
BVU,2021-03-15 09:15,-114.8611,35.9475,671.00,57.20,24.80,28.48,170.00,13.00,0.00,29.87,M,10.00,M,CLR,M,M,M,M,M,M,M,M,M,M,M,M,M,M,57.20,KBVU 150915Z AUTO 17013KT 10SM CLR 14/M04 A2987 RMK AO2,M
BVU,2021-03-15 09:35,-114.8611,35.9475,671.00,57.20,24.80,28.48,170.00,13.00,0.00,29.86,M,10.00,M,CLR,M,M,M,M,M,M,M,M,M,M,M,M,M,M,57.20,KBVU 150935Z AUTO 17013KT 10SM CLR 14/M04 A2986 RMK AO2,M
TMT,2021-03-15 09:35,-117.1971,39.4643,1749.34,26.40,14.90,61.34,100.00,5.00,0.00,29.77,M,10.00,M,M,M,M,M,M,M,M,M,M,M,M,M,M,M,M,19.74,KTMT 150935Z AUTO 10005KT 10SM M03/M09 A2977 RMK AO2 T10311095,M
BAM,2021-03-15 09:35,-116.8743,40.5990,1382.36,32.00,24.80,74.44,0.00,0.00,0.00,29.75,M,10.00,M,SCT,M,M,M,11000.00,M,M,M,M,M,M,M,M,M,M,32.00,KBAM 150935Z AUTO 00000KT 10SM SCT110 00/M04 A2975 RMK AO1,M
ELY,2021-03-15 09:53,-114.8453,39.2950,1909.00,34.00,19.00,53.77,200.00,15.00,0.00,29.82,1006.00,M,M,CLR,M,M,M,M,M,M,M,M,M,M,M,M,M,M,23.37,KELY 150953Z AUTO 20015KT CLR 01/M07 A2982 RMK AO2 SLP060 T00111072 $,M
P68,2021-03-15 09:53,-116.0056,39.6014,1993.00,28.90,19.00,66.08,240.00,3.00,0.00,29.77,1005.10,M,M,M,M,M,M,M,M,M,M,M,M,M,M,M,M,M,25.14,KP68 150953Z AUTO 24003KT M02/M07 A2977 RMK AO1 SLP051 T10171072,M
VGT,2021-03-15 09:53,-115.1933,36.2111,667.00,53.00,26.10,34.90,20.00,4.00,0.00,29.79,1009.50,10.00,M,CLR,M,M,M,M,M,M,M,M,M,M,M,M,M,M,53.10,KVGT 150953Z 02004KT 10SM CLR 12/M03 A2979 RMK AO2 SLP095 T01171033,M
DRA,2021-03-15 09:53,-116.0278,36.6206,1009.00,42.00,26.10,52.78,10.00,7.00,0.00,29.80,1006.80,10.00,M,CLR,M,M,M,M,M,M,M,M,M,M,M,M,M,M,37.09,KDRA 150953Z AUTO 01007KT 10SM CLR 06/M03 A2980 RMK AO2 SLP068 T00561033 $,M
LOL,2021-03-15 09:53,-118.5701,40.0684,1192.43,41.00,18.00,39.12,330.00,4.00,0.00,29.71,1004.80,10.00,M,BKN,M,M,M,10000.00,M,M,M,M,M,M,M,M,M,M,37.93,KLOL 150953Z AUTO 33004KT 10SM BKN100 05/M08 A2971 RMK AO2 SLP048 T00501078,M
TMT,2021-03-15 09:55,-117.1971,39.4643,1749.34,25.90,14.40,61.27,320.00,3.00,0.00,29.76,M,10.00,M,M,M,M,M,M,M,M,M,M,M,M,M,M,M,M,21.72,KTMT 150955Z AUTO 32003KT 10SM M03/M10 A2976 RMK AO2 T10341098,M
BAM,2021-03-15 09:55,-116.8743,40.5990,1382.36,35.60,23.00,59.79,90.00,6.00,0.00,29.74,M,10.00,M,SCT,M,M,M,12000.00,M,M,M,M,M,M,M,M,M,M,29.87,KBAM 150955Z AUTO 09006KT 10SM SCT120 02/M05 A2974 RMK AO1,M
BVU,2021-03-15 09:55,-114.8611,35.9475,671.00,57.20,24.80,28.48,170.00,9.00,0.00,29.85,M,10.00,16.00,CLR,M,M,M,M,M,M,M,M,M,M,M,M,M,M,57.20,KBVU 150955Z AUTO 17009G16KT 10SM CLR 14/M04 A2985 RMK AO2,M
RNO,2021-03-15 09:55,-119.7711,39.4839,1341.00,41.00,27.00,57.15,180.00,9.00,0.00,29.70,1003.60,10.00,M,SCT,M,M,M,4000.00,M,M,M,M,M,M,M,34.00,160.00,2021-03-15 09:02,34.70,KRNO 150955Z 18009KT 10SM SCT040 05/M03 A2970 RMK AO2 PK WND 16034/0902 SLP036 MTN WAVE ACT AT AP T00501028,M
TPH,2021-03-15 09:56,-117.0904,38.0505,1654.00,28.00,24.10,85.08,0.00,0.00,0.00,29.80,1008.40,10.00,M,CLR,M,M,M,M,M,M,M,M,M,M,M,M,M,M,28.00,KTPH 150956Z AUTO 00000KT 10SM CLR M02/M04 A2980 RMK AO2 SLP084 T10221044,M
HND,2021-03-15 09:56,-115.1344,35.9729,742.79,55.00,18.00,23.13,210.00,13.00,0.00,29.85,1011.40,10.00,M,CLR,M,M,M,M,M,M,M,M,M,M,M,M,M,M,55.00,KHND 150956Z AUTO 21013KT 10SM CLR 13/M08 A2985 RMK AO2 SLP114 T01281078,M
WMC,2021-03-15 09:56,-117.8072,40.9019,1315.00,33.00,18.00,53.40,0.00,0.00,0.00,29.72,1005.00,10.00,M,OVC,M,M,M,11000.00,M,M,M,M,M,M,M,M,M,M,33.10,KWMC 150956Z AUTO 00000KT 10SM OVC110 01/M08 A2972 RMK AO2 SLP050 T00061078,M
NFL,2021-03-15 09:56,-118.7010,39.4166,1199.00,40.00,12.90,32.70,240.00,6.00,0.00,29.71,1004.10,10.00,M,OVC,M,M,M,9500.00,M,M,M,M,M,M,M,M,M,M,35.04,KNFL 150956Z AUTO 24006KT 10SM OVC095 04/M11 A2971 RMK AO2 SLP041 T00441106 $,M
LAS,2021-03-15 09:56,-115.1634,36.0719,663.00,58.00,18.00,20.83,190.00,7.00,0.00,29.83,1008.90,10.00,M,BKN,BKN,M,M,14000.00,20000.00,M,M,M,M,M,M,M,M,M,57.90,KLAS 150956Z 19007KT 10SM BKN140 BKN200 14/M08 A2983 RMK AO2 SLP089 T01441078 $,M
EKO,2021-03-15 09:56,-115.7860,40.8242,1367.00,30.90,19.90,63.31,70.00,5.00,0.00,29.77,1007.00,10.00,M,CLR,M,M,M,M,M,M,M,M,M,M,M,M,M,M,25.09,KEKO 150956Z AUTO 07005KT 10SM CLR M01/M07 A2977 RMK AO2 SLP070 T10061067,M
INS,2021-03-15 09:58,-115.6733,36.5872,955.00,43.30,28.20,54.96,0.00,0.00,0.00,29.79,1006.60,10.00,M,CLR,M,M,M,M,M,M,M,M,M,M,M,M,M,M,43.30,KINS 150958Z AUTO 00000KT 10SM CLR 06/M02 A2979 RMK AO2 SLP066 T00631021 $,M
LSV,2021-03-15 09:58,-115.0343,36.2362,570.00,51.80,27.00,38.00,50.00,4.00,0.00,29.82,1008.90,10.00,M,BKN,M,M,M,15000.00,M,M,M,M,M,M,M,M,M,M,51.80,KLSV 150958Z AUTO 05004KT 10SM BKN150 11/M03 A2982 RMK AO2 SLP089 T01101028 $,M
BVU,2021-03-15 10:15,-114.8611,35.9475,671.00,57.20,24.80,28.48,180.00,6.00,0.00,29.85,M,10.00,M,CLR,M,M,M,M,M,M,M,M,M,M,M,M,M,M,57.20,KBVU 151015Z AUTO 18006KT 10SM CLR 14/M04 A2985 RMK AO2,M
BAM,2021-03-15 10:15,-116.8743,40.5990,1382.36,35.60,23.00,59.79,0.00,0.00,0.00,29.73,M,10.00,M,SCT,M,M,M,12000.00,M,M,M,M,M,M,M,M,M,M,35.60,KBAM 151015Z AUTO 00000KT 10SM SCT120 02/M05 A2973 RMK AO1,M
TMT,2021-03-15 10:15,-117.1971,39.4643,1749.34,22.50,13.10,66.71,40.00,3.00,0.00,29.75,M,10.00,M,M,M,M,M,M,M,M,M,M,M,M,M,M,M,M,17.83,KTMT 151015Z AUTO 04003KT 10SM M05/M10 A2975 RMK AO2 T10531105,M
BAM,2021-03-15 10:35,-116.8743,40.5990,1382.36,35.60,23.00,59.79,0.00,0.00,0.00,29.72,M,10.00,M,CLR,M,M,M,M,M,M,M,M,M,M,M,M,M,M,35.60,KBAM 151035Z AUTO 00000KT 10SM CLR 02/M05 A2972 RMK AO1,M
TMT,2021-03-15 10:35,-117.1971,39.4643,1749.34,22.80,14.20,69.13,0.00,0.00,0.00,29.73,M,10.00,M,M,M,M,M,M,M,M,M,M,M,M,M,M,M,M,22.80,KTMT 151035Z AUTO 00000KT 10SM M05/M10 A2973 RMK AO2 T10511099,M
BVU,2021-03-15 10:35,-114.8611,35.9475,671.00,55.40,24.80,30.40,160.00,8.00,0.00,29.84,M,10.00,M,CLR,M,M,M,M,M,M,M,M,M,M,M,M,M,M,55.40,KBVU 151035Z AUTO 16008KT 10SM CLR 13/M04 A2984 RMK AO2,M
INS,2021-03-15 10:44,-115.6733,36.5872,955.00,44.60,24.80,45.44,120.00,9.00,0.00,29.75,1005.00,10.00,M,CLR,M,M,M,M,M,M,M,M,M,M,M,M,M,M,39.18,KINS 151044Z AUTO 12009KT 10SM CLR 07/M04 A2975 RMK AO2 SLP050 $,M
DRA,2021-03-15 10:53,-116.0278,36.6206,1009.00,45.00,24.10,43.46,M,3.00,0.00,29.76,1005.60,10.00,M,CLR,M,M,M,M,M,M,M,M,M,M,M,M,M,M,43.55,KDRA 151053Z AUTO VRB03KT 10SM CLR 07/M04 A2976 RMK AO2 SLP056 T00721044 $,M
VGT,2021-03-15 10:53,-115.1933,36.2111,667.00,51.00,25.00,35.89,100.00,4.00,0.00,29.77,1008.80,10.00,M,CLR,M,M,M,M,M,M,M,M,M,M,M,M,M,M,51.10,KVGT 151053Z 10004KT 10SM CLR 11/M04 A2977 RMK AO2 SLP088 T01061039,M
LOL,2021-03-15 10:53,-118.5701,40.0684,1192.43,42.00,17.10,36.07,130.00,4.00,0.00,29.68,1003.80,10.00,M,OVC,M,M,M,8500.00,M,M,M,M,M,M,M,M,M,M,39.21,KLOL 151053Z AUTO 13004KT 10SM OVC085 06/M08 A2968 RMK AO2 SLP038 T00561083,M
P68,2021-03-15 10:53,-116.0056,39.6014,1993.00,28.00,19.00,68.57,270.00,3.00,0.00,29.74,1004.10,M,M,M,M,M,M,M,M,M,M,M,M,M,M,M,M,M,24.12,KP68 151053Z AUTO 27003KT M02/M07 A2974 RMK AO1 SLP041 T10221072,M
ELY,2021-03-15 10:53,-114.8453,39.2950,1909.00,34.00,19.90,55.88,210.00,14.00,0.00,29.80,1004.80,M,M,FEW,M,M,M,12000.00,M,M,M,M,M,M,M,M,M,M,23.74,KELY 151053Z AUTO 21014KT FEW120 01/M07 A2980 RMK AO2 SLP048 T00111067 $,M
RNO,2021-03-15 10:55,-119.7711,39.4839,1341.00,37.00,23.00,56.57,M,M,0.00,29.71,1004.10,10.00,M,SCT,SCT,M,M,4000.00,6500.00,M,M,M,M,M,M,M,M,M,M,KRNO 151055Z 10SM SCT040 SCT065 03/M05 A2971 RMK AO2 SLP041 T00281050,M
BVU,2021-03-15 10:55,-114.8611,35.9475,671.00,55.40,24.80,30.40,160.00,11.00,0.00,29.83,M,10.00,M,CLR,M,M,M,M,M,M,M,M,M,M,M,M,M,M,55.40,KBVU 151055Z AUTO 16011KT 10SM CLR 13/M04 A2983 RMK AO2,M
BAM,2021-03-15 10:55,-116.8743,40.5990,1382.36,32.00,23.00,69.04,120.00,4.00,0.00,29.71,M,10.00,M,CLR,M,M,M,M,M,M,M,M,M,M,M,M,M,M,27.42,KBAM 151055Z AUTO 12004KT 10SM CLR 00/M05 A2971 RMK AO1,M
TMT,2021-03-15 10:55,-117.1971,39.4643,1749.34,21.70,13.30,69.61,270.00,4.00,0.00,29.73,M,10.00,M,M,M,M,M,M,M,M,M,M,M,M,M,M,M,M,15.39,KTMT 151055Z AUTO 27004KT 10SM M06/M10 A2973 RMK AO2 T10571104,M
HND,2021-03-15 10:56,-115.1344,35.9729,742.79,53.00,19.00,25.88,200.00,12.00,0.00,29.84,1011.00,10.00,M,CLR,M,M,M,M,M,M,M,M,M,M,M,M,M,M,53.10,KHND 151056Z AUTO 20012KT 10SM CLR 12/M07 A2984 RMK AO2 SLP110 T01171072,M
NFL,2021-03-15 10:56,-118.7010,39.4166,1199.00,40.00,12.00,31.42,0.00,0.00,0.00,29.67,1003.00,10.00,M,BKN,M,M,M,9500.00,M,M,M,M,M,M,M,M,M,M,39.90,KNFL 151056Z AUTO 00000KT 10SM BKN095 04/M11 A2967 RMK AO2 SLP030 T00441111 $,M
WMC,2021-03-15 10:56,-117.8072,40.9019,1315.00,36.00,18.00,47.58,50.00,4.00,0.00,29.69,1003.70,10.00,M,BKN,M,M,M,11000.00,M,M,M,M,M,M,M,M,M,M,32.09,KWMC 151056Z AUTO 05004KT 10SM BKN110 02/M08 A2969 RMK AO2 SLP037 T00221078,M
LAS,2021-03-15 10:56,-115.1634,36.0719,663.00,57.00,19.00,22.46,160.00,9.00,0.00,29.81,1008.30,10.00,M,SCT,BKN,M,M,14000.00,20000.00,M,M,M,M,M,M,M,M,M,57.00,KLAS 151056Z 16009KT 10SM SCT140 BKN200 14/M07 A2981 RMK AO2 SLP083 T01391072 $,M
TPH,2021-03-15 10:56,-117.0904,38.0505,1654.00,28.00,23.00,81.25,70.00,4.00,0.00,29.77,1007.00,10.00,M,CLR,M,M,M,M,M,M,M,M,M,M,M,M,M,M,22.75,KTPH 151056Z AUTO 07004KT 10SM CLR M02/M05 A2977 RMK AO2 SLP070 T10221050,M
EKO,2021-03-15 10:56,-115.7860,40.8242,1367.00,30.90,19.90,63.31,70.00,6.00,0.00,29.74,1006.00,10.00,M,BKN,M,M,M,11000.00,M,M,M,M,M,M,M,M,M,M,24.21,KEKO 151056Z AUTO 07006KT 10SM BKN110 M01/M07 A2974 RMK AO2 SLP060 T10061067,M
INS,2021-03-15 10:58,-115.6733,36.5872,955.00,44.20,26.80,50.12,110.00,9.00,0.00,29.74,1004.90,10.00,M,FEW,M,M,M,12000.00,M,M,M,M,M,M,M,M,M,M,38.68,KINS 151058Z AUTO 11009KT 10SM FEW120 07/M03 A2974 RMK AO2 SLP049 T00681029 $,M
LSV,2021-03-15 10:58,-115.0343,36.2362,570.00,54.00,26.40,34.07,50.00,6.00,0.00,29.81,1008.40,10.00,M,BKN,M,M,M,15000.00,M,M,M,M,M,M,M,M,M,M,54.10,KLSV 151058Z AUTO 05006KT 10SM BKN150 12/M03 A2981 RMK AO2 SLP084 T01231031 $,M
BAM,2021-03-15 11:15,-116.8743,40.5990,1382.36,30.20,21.20,68.83,230.00,4.00,0.00,29.71,M,10.00,M,CLR,M,M,M,M,M,M,M,M,M,M,M,M,M,M,25.32,KBAM 151115Z AUTO 23004KT 10SM CLR M01/M06 A2971 RMK AO1,M
TMT,2021-03-15 11:15,-117.1971,39.4643,1749.34,22.60,13.30,67.02,0.00,0.00,0.00,29.71,M,10.00,M,M,M,M,M,M,M,M,M,M,M,M,M,M,M,M,22.60,KTMT 151115Z AUTO 00000KT 10SM M05/M10 A2971 RMK AO2 T10521104,M
BVU,2021-03-15 11:15,-114.8611,35.9475,671.00,55.40,24.80,30.40,160.00,9.00,0.00,29.84,M,10.00,15.00,CLR,M,M,M,M,M,M,M,M,M,M,M,M,M,M,55.40,KBVU 151115Z AUTO 16009G15KT 10SM CLR 13/M04 A2984 RMK AO2,M
BAM,2021-03-15 11:35,-116.8743,40.5990,1382.36,30.20,21.20,68.83,0.00,0.00,0.00,29.69,M,10.00,M,SCT,M,M,M,12000.00,M,M,M,M,M,M,M,M,M,M,30.20,KBAM 151135Z AUTO 00000KT 10SM SCT120 M01/M06 A2969 RMK AO1,M
TMT,2021-03-15 11:35,-117.1971,39.4643,1749.34,17.60,10.60,73.58,160.00,6.00,0.00,29.70,M,10.00,M,M,M,M,M,M,M,M,M,M,M,M,M,M,M,M,8.19,KTMT 151135Z AUTO 16006KT 10SM M08/M12 A2970 RMK AO2 T10801119,M
BVU,2021-03-15 11:35,-114.8611,35.9475,671.00,55.40,26.60,32.76,160.00,6.00,0.00,29.84,M,10.00,14.00,CLR,M,M,M,M,M,M,M,M,M,M,M,M,M,M,55.40,KBVU 151135Z AUTO 16006G14KT 10SM CLR 13/M03 A2984 RMK AO2,M
ELY,2021-03-15 11:53,-114.8453,39.2950,1909.00,34.00,19.90,55.88,200.00,13.00,0.00,29.78,1004.60,M,M,CLR,M,M,M,M,M,M,M,M,M,M,M,M,M,M,24.13,KELY 151153Z AUTO 20013KT CLR 01/M07 A2978 RMK AO2 SLP046 T00111067 10022 21028 56020 $,M
P68,2021-03-15 11:53,-116.0056,39.6014,1993.00,35.00,21.00,56.05,160.00,11.00,0.00,29.73,1003.10,M,16.00,M,M,M,M,M,M,M,M,M,M,M,M,M,M,M,26.38,KP68 151153Z AUTO 16011G16KT 02/M06 A2973 RMK AO1 SLP031 T00171061 10028 21033 56022,M
DRA,2021-03-15 11:53,-116.0278,36.6206,1009.00,50.00,19.00,29.02,260.00,4.00,0.00,29.76,1005.20,10.00,M,CLR,M,M,M,M,M,M,M,M,M,M,M,M,M,M,50.00,KDRA 151153Z AUTO 26004KT 10SM CLR 10/M07 A2976 RMK AO2 SLP052 T01001072 10122 20050 56023 $,M
LOL,2021-03-15 11:53,-118.5701,40.0684,1192.43,41.00,18.00,39.12,50.00,6.00,0.00,29.65,1002.80,10.00,M,FEW,BKN,OVC,M,7500.00,10000.00,11000.00,M,M,M,M,M,M,M,M,36.37,KLOL 151153Z AUTO 05006KT 10SM FEW075 BKN100 OVC110 05/M08 A2965 RMK AO2 SLP028 T00501078 10094 20044 58025,M
VGT,2021-03-15 11:53,-115.1933,36.2111,667.00,54.00,21.90,28.33,130.00,5.00,0.00,29.76,1008.20,10.00,M,FEW,M,M,M,12000.00,M,M,M,M,M,M,M,M,M,M,54.00,KVGT 151153Z 13005KT 10SM FEW120 12/M06 A2976 RMK AO2 SLP082 T01221056 10144 20100 56018,M
BVU,2021-03-15 11:55,-114.8611,35.9475,671.00,55.40,26.60,32.76,130.00,6.00,0.00,29.83,M,10.00,12.00,CLR,M,M,M,M,M,M,M,M,M,M,M,M,M,M,55.40,KBVU 151155Z AUTO 13006G12KT 10SM CLR 13/M03 A2983 RMK AO2,M
BAM,2021-03-15 11:55,-116.8743,40.5990,1382.36,28.40,21.20,74.08,230.00,4.00,0.00,29.69,M,10.00,M,SCT,M,M,M,12000.00,M,M,M,M,M,M,M,M,M,M,23.22,KBAM 151155Z AUTO 23004KT 10SM SCT120 M02/M06 A2969 RMK AO1,M
TMT,2021-03-15 11:55,-117.1971,39.4643,1749.34,17.20,9.70,71.91,170.00,4.00,0.00,29.70,M,10.00,M,M,M,M,M,M,M,M,M,M,M,M,M,M,M,M,10.14,KTMT 151155Z AUTO 17004KT 10SM M08/M12 A2970 RMK AO2 T10821124 10015 21082,M
RNO,2021-03-15 11:55,-119.7711,39.4839,1341.00,33.00,19.90,57.93,290.00,15.00,0.00,29.72,1004.70,10.00,25.00,SCT,BKN,M,M,4200.00,6500.00,M,M,M,M,M,M,26.00,270.00,2021-03-15 11:35,22.21,KRNO 151155Z 29015G25KT 10SM SCT042 BKN065 01/M07 A2972 RMK AO2 PK WND 27026/1135 SLP047 T00061067 10078 20006 53004,M
NFL,2021-03-15 11:56,-118.7010,39.4166,1199.00,37.00,15.10,40.34,20.00,6.00,0.00,29.66,1002.60,10.00,M,FEW,SCT,M,M,8500.00,12000.00,M,M,M,M,M,M,M,M,M,31.55,KNFL 151156Z AUTO 02006KT 10SM FEW085 SCT120 03/M09 A2966 RMK AO2 SLP026 T00281094 10117 20022 56022 $,M
TPH,2021-03-15 11:56,-117.0904,38.0505,1654.00,28.00,23.00,81.25,150.00,3.00,0.00,29.73,1005.70,10.00,M,CLR,M,M,M,M,M,M,M,M,M,M,M,M,M,M,24.12,KTPH 151156Z AUTO 15003KT 10SM CLR M02/M05 A2973 RMK AO2 SLP057 T10221050 10033 21028 58031,M
LAS,2021-03-15 11:56,-115.1634,36.0719,663.00,56.00,19.90,24.28,200.00,12.00,0.00,29.80,1007.90,10.00,20.00,FEW,BKN,M,M,12000.00,20000.00,M,M,M,M,M,M,M,M,M,55.90,KLAS 151156Z 20012G20KT 10SM FEW120 BKN200 13/M07 A2980 RMK AO2 SLP079 T01331067 10144 20128 56016 $,M
EKO,2021-03-15 11:56,-115.7860,40.8242,1367.00,32.00,19.90,60.55,80.00,8.00,0.00,29.72,1005.50,10.00,M,OVC,M,M,M,11000.00,M,M,M,M,M,M,M,M,M,M,24.11,KEKO 151156Z AUTO 08008KT 10SM OVC110 00/M07 A2972 RMK AO2 SLP055 T00001067 10044 21006 56019,M
HND,2021-03-15 11:56,-115.1344,35.9729,742.79,54.00,21.00,27.27,190.00,16.00,0.00,29.83,1010.60,10.00,M,CLR,M,M,M,M,M,M,M,M,M,M,M,26.00,210.00,2021-03-15 11:25,54.00,KHND 151156Z AUTO 19016KT 10SM CLR 12/M06 A2983 RMK AO2 PK WND 21026/1125 SLP106 T01221061 10144 20106 56017,M
WMC,2021-03-15 11:56,-117.8072,40.9019,1315.00,34.00,18.00,51.52,360.00,5.00,0.00,29.68,1003.70,10.00,M,BKN,BKN,M,M,10000.00,12000.00,M,M,M,M,M,M,M,M,M,28.77,KWMC 151156Z AUTO 36005KT 10SM BKN100 BKN120 01/M08 A2968 RMK AO2 SLP037 T00111078 10039 21017 56018,M
INS,2021-03-15 11:58,-115.6733,36.5872,955.00,49.60,21.00,32.08,140.00,8.00,0.00,29.73,1004.20,10.00,M,CLR,M,M,M,M,M,M,M,M,M,M,M,M,M,M,45.79,KINS 151158Z AUTO 14008KT 10SM CLR 10/M06 A2973 RMK AO2 SLP042 T00981061 10099 20058 57027 $,M
LSV,2021-03-15 11:58,-115.0343,36.2362,570.00,51.80,27.70,39.11,0.00,0.00,0.00,29.80,1008.10,10.00,M,OVC,M,M,M,13000.00,M,M,M,M,M,M,M,M,M,M,51.80,KLSV 151158Z AUTO 00000KT 10SM OVC130 11/M02 A2980 RMK AO2 SLP081 T01101024 10157 20108 57016 $,M
BVU,2021-03-15 12:15,-114.8611,35.9475,671.00,53.60,26.60,34.98,120.00,7.00,0.00,29.83,M,10.00,M,FEW,M,M,M,12000.00,M,M,M,M,M,M,M,M,M,M,53.60,KBVU 151215Z AUTO 12007KT 10SM FEW120 12/M03 A2983 RMK AO2,M
BAM,2021-03-15 12:15,-116.8743,40.5990,1382.36,28.40,21.20,74.08,0.00,0.00,0.00,29.68,M,10.00,M,SCT,M,M,M,12000.00,M,M,M,M,M,M,M,M,M,M,28.40,KBAM 151215Z AUTO 00000KT 10SM SCT120 M02/M06 A2968 RMK AO1,M
TMT,2021-03-15 12:15,-117.1971,39.4643,1749.34,18.90,11.10,71.15,250.00,6.00,0.00,29.70,M,10.00,M,M,M,M,M,M,M,M,M,M,M,M,M,M,M,M,9.75,KTMT 151215Z AUTO 25006KT 10SM M07/M12 A2970 RMK AO2 T10731116,M
BAM,2021-03-15 12:35,-116.8743,40.5990,1382.36,26.60,21.20,79.77,180.00,3.00,0.00,29.67,M,10.00,M,CLR,M,M,M,M,M,M,M,M,M,M,M,M,M,M,22.52,KBAM 151235Z AUTO 18003KT 10SM CLR M03/M06 A2967 RMK AO1,M
BVU,2021-03-15 12:35,-114.8611,35.9475,671.00,53.60,28.40,37.67,90.00,4.00,0.00,29.83,M,10.00,M,CLR,M,M,M,M,M,M,M,M,M,M,M,M,M,M,53.60,KBVU 151235Z AUTO 09004KT 10SM CLR 12/M02 A2983 RMK AO2,M
TMT,2021-03-15 12:35,-117.1971,39.4643,1749.34,19.80,12.60,73.17,220.00,5.00,0.00,29.68,M,10.00,M,M,M,M,M,M,M,M,M,M,M,M,M,M,M,M,11.91,KTMT 151235Z AUTO 22005KT 10SM M07/M11 A2968 RMK AO2 T10681108,M
LOL,2021-03-15 12:53,-118.5701,40.0684,1192.43,41.00,19.00,40.83,0.00,0.00,T,29.65,1002.70,10.00,M,FEW,FEW,OVC,M,5500.00,7500.00,9500.00,M,M,M,M,M,M,M,M,41.00,KLOL 151253Z AUTO 00000KT 10SM FEW055 FEW075 OVC095 05/M07 A2965 RMK AO2 RAB32E42 SLP027 P0000 T00501072,M
ELY,2021-03-15 12:53,-114.8453,39.2950,1909.00,35.00,19.90,53.49,200.00,12.00,0.00,29.76,1003.90,M,M,SCT,M,M,M,12000.00,M,M,M,M,M,M,M,M,M,M,25.95,KELY 151253Z AUTO 20012KT SCT120 02/M07 A2976 RMK AO2 SLP039 T00171067 $,M
DRA,2021-03-15 12:53,-116.0278,36.6206,1009.00,53.00,19.00,25.88,190.00,13.00,0.00,29.74,1004.50,10.00,25.00,CLR,M,M,M,M,M,M,M,M,M,M,M,29.00,210.00,2021-03-15 12:33,53.10,KDRA 151253Z AUTO 19013G25KT 10SM CLR 12/M07 A2974 RMK AO2 PK WND 21029/1233 SLP045 T01171072 $,M
P68,2021-03-15 12:53,-116.0056,39.6014,1993.00,36.00,19.90,51.61,160.00,10.00,0.00,29.70,1002.20,M,M,M,M,M,M,M,M,M,M,M,M,M,M,M,M,M,27.98,KP68 151253Z AUTO 16010KT 02/M07 A2970 RMK AO1 SLP022 T00221067,M
VGT,2021-03-15 12:53,-115.1933,36.2111,667.00,55.00,19.90,25.09,170.00,11.00,0.00,29.74,1007.80,10.00,M,CLR,M,M,M,M,M,M,M,M,M,M,M,M,M,M,55.00,KVGT 151253Z 17011KT 10SM CLR 13/M07 A2974 RMK AO2 SLP078 T01281067,M
TMT,2021-03-15 12:55,-117.1971,39.4643,1749.34,19.20,12.20,73.75,10.00,6.00,0.00,29.68,M,10.00,M,M,M,M,M,M,M,M,M,M,M,M,M,M,M,M,10.11,KTMT 151255Z AUTO 01006KT 10SM M07/M11 A2968 RMK AO2 T10711110,M
BAM,2021-03-15 12:55,-116.8743,40.5990,1382.36,26.60,21.20,79.77,210.00,3.00,0.00,29.67,M,10.00,M,SCT,M,M,M,12000.00,M,M,M,M,M,M,M,M,M,M,22.52,KBAM 151255Z AUTO 21003KT 10SM SCT120 M03/M06 A2967 RMK AO1,M
BVU,2021-03-15 12:55,-114.8611,35.9475,671.00,55.40,24.80,30.40,180.00,9.00,0.00,29.82,M,10.00,16.00,BKN,M,M,M,12000.00,M,M,M,M,M,M,M,M,M,M,55.40,KBVU 151255Z AUTO 18009G16KT 10SM BKN120 13/M04 A2982 RMK AO2,M
RNO,2021-03-15 12:55,-119.7711,39.4839,1341.00,33.00,17.10,51.37,290.00,18.00,0.00,29.74,1005.60,10.00,24.00,BKN,OVC,M,M,4000.00,6000.00,M,M,M,M,M,M,28.00,290.00,2021-03-15 12:31,21.20,KRNO 151255Z 29018G24KT 10SM BKN040 OVC060 01/M08 A2974 RMK AO2 PK WND 29028/1231 SLP056 MTN WAVE ACT AT AP T00061083,M
WMC,2021-03-15 12:56,-117.8072,40.9019,1315.00,32.00,18.00,55.82,290.00,9.00,0.00,29.66,1003.30,10.00,M,BKN,M,M,M,11000.00,M,M,M,M,M,M,M,M,M,M,23.51,KWMC 151256Z AUTO 29009KT 10SM BKN110 00/M08 A2966 RMK AO2 SLP033 T00001078,M
NFL,2021-03-15 12:56,-118.7010,39.4166,1199.00,42.00,25.00,50.42,290.00,10.00,0.00,29.67,1002.90,10.00,M,OVC,M,M,M,10000.00,M,M,M,M,M,M,M,M,M,M,35.63,KNFL 151256Z AUTO 29010KT 10SM OVC100 06/M04 A2967 RMK AO2 SLP029 T00561039 $,M
EKO,2021-03-15 12:56,-115.7860,40.8242,1367.00,32.00,19.90,60.55,100.00,9.00,0.00,29.71,1005.10,10.00,M,OVC,M,M,M,11000.00,M,M,M,M,M,M,M,M,M,M,23.51,KEKO 151256Z AUTO 10009KT 10SM OVC110 00/M07 A2971 RMK AO2 SLP051 T00001067,M
LAS,2021-03-15 12:56,-115.1634,36.0719,663.00,55.00,19.90,25.09,200.00,16.00,0.00,29.78,1007.40,10.00,27.00,FEW,BKN,M,M,12000.00,20000.00,M,M,M,M,M,M,27.00,190.00,2021-03-15 12:52,55.00,KLAS 151256Z 20016G27KT 10SM FEW120 BKN200 13/M07 A2978 RMK AO2 PK WND 19027/1252 SLP074 T01281067 $,M
HND,2021-03-15 12:56,-115.1344,35.9729,742.79,52.00,19.90,28.01,190.00,9.00,0.00,29.83,1010.70,10.00,16.00,SCT,M,M,M,11000.00,M,M,M,M,M,M,M,M,M,M,52.00,KHND 151256Z 19009G16KT 10SM SCT110 11/M07 A2983 RMK AO2 SLP107 T01111067,M
TPH,2021-03-15 12:56,-117.0904,38.0505,1654.00,30.00,24.10,78.40,30.00,3.00,0.00,29.72,1005.20,10.00,M,CLR,M,M,M,M,M,M,M,M,M,M,M,M,M,M,26.40,KTPH 151256Z AUTO 03003KT 10SM CLR M01/M04 A2972 RMK AO2 SLP052 T10111044,M
LSV,2021-03-15 12:58,-115.0343,36.2362,570.00,54.00,20.70,26.92,180.00,13.00,0.00,29.78,1007.50,10.00,16.00,OVC,M,M,M,11000.00,M,M,M,M,M,M,M,M,M,M,54.00,KLSV 151258Z AUTO 18013G16KT 10SM OVC110 12/M06 A2978 RMK AO2 SLP075 T01221063 $,M
INS,2021-03-15 12:58,-115.6733,36.5872,955.00,47.30,22.30,36.94,130.00,8.00,0.00,29.72,1004.00,10.00,M,CLR,M,M,M,M,M,M,M,M,M,M,M,M,M,M,42.96,KINS 151258Z AUTO 13008KT 10SM CLR 09/M05 A2972 RMK AO2 SLP040 T00851054 $,M
TMT,2021-03-15 13:15,-117.1971,39.4643,1749.34,20.70,12.60,70.42,40.00,3.00,0.00,29.67,M,10.00,M,M,M,M,M,M,M,M,M,M,M,M,M,M,M,M,15.77,KTMT 151315Z AUTO 04003KT 10SM M06/M11 A2967 RMK AO2 T10631108,M
BAM,2021-03-15 13:15,-116.8743,40.5990,1382.36,26.60,21.20,79.77,280.00,3.00,0.00,29.66,M,10.00,M,SCT,M,M,M,12000.00,M,M,M,M,M,M,M,M,M,M,22.52,KBAM 151315Z AUTO 28003KT 10SM SCT120 M03/M06 A2966 RMK AO1,M
BVU,2021-03-15 13:15,-114.8611,35.9475,671.00,53.60,23.00,30.11,200.00,6.00,0.00,29.82,M,10.00,M,BKN,M,M,M,12000.00,M,M,M,M,M,M,M,M,M,M,53.60,KBVU 151315Z AUTO 20006KT 10SM BKN120 12/M05 A2982 RMK AO2,M
BVU,2021-03-15 13:35,-114.8611,35.9475,671.00,53.60,21.20,27.91,240.00,11.00,0.00,29.82,M,10.00,M,FEW,M,M,M,12000.00,M,M,M,M,M,M,M,M,M,M,53.60,KBVU 151335Z AUTO 24011KT 10SM FEW120 12/M06 A2982 RMK AO2,M
BAM,2021-03-15 13:35,-116.8743,40.5990,1382.36,26.60,21.20,79.77,0.00,0.00,0.00,29.65,M,10.00,M,SCT,M,M,M,11000.00,M,M,M,M,M,M,M,M,M,M,26.60,KBAM 151335Z AUTO 00000KT 10SM SCT110 M03/M06 A2965 RMK AO1,M
TMT,2021-03-15 13:35,-117.1971,39.4643,1749.34,18.70,12.20,75.35,0.00,0.00,0.00,29.67,M,10.00,M,M,M,M,M,M,M,M,M,M,M,M,M,M,M,M,18.70,KTMT 151335Z AUTO 00000KT 10SM M07/M11 A2967 RMK AO2 T10741110,M
DRA,2021-03-15 13:53,-116.0278,36.6206,1009.00,52.00,24.10,33.44,200.00,15.00,0.00,29.73,1004.40,10.00,31.00,CLR,M,M,M,M,M,M,M,M,M,M,M,37.00,200.00,2021-03-15 13:30,52.00,KDRA 151353Z AUTO 20015G31KT 10SM CLR 11/M04 A2973 RMK AO2 PK WND 20037/1330 SLP044 T01111044 $,M
P68,2021-03-15 13:53,-116.0056,39.6014,1993.00,37.00,19.90,49.61,200.00,6.00,0.00,29.68,1002.10,M,15.00,M,M,M,M,M,M,M,M,M,M,M,M,M,M,M,31.55,KP68 151353Z AUTO 20006G15KT 03/M07 A2968 RMK AO1 SLP021 T00281067,M
ELY,2021-03-15 13:53,-114.8453,39.2950,1909.00,35.00,19.00,51.47,210.00,14.00,0.00,29.75,1004.70,M,M,OVC,M,M,M,11000.00,M,M,M,M,M,M,M,M,M,M,25.16,KELY 151353Z AUTO 21014KT OVC110 02/M07 A2975 RMK AO2 SLP047 T00171072 $,M
LOL,2021-03-15 13:53,-118.5701,40.0684,1192.43,40.00,25.00,54.90,270.00,12.00,0.00,29.64,1002.90,10.00,M,SCT,SCT,M,M,6000.00,12000.00,M,M,M,M,M,M,M,M,M,32.06,KLOL 151353Z AUTO 27012KT 10SM SCT060 SCT120 04/M04 A2964 RMK AO2 SLP029 T00441039,M
VGT,2021-03-15 13:53,-115.1933,36.2111,667.00,55.00,21.00,26.29,170.00,18.00,0.00,29.73,1007.50,10.00,M,CLR,M,M,M,M,M,M,M,M,M,M,M,M,M,M,55.00,KVGT 151353Z 17018KT 10SM CLR 13/M06 A2973 RMK AO2 SLP075 T01281061,M
BAM,2021-03-15 13:55,-116.8743,40.5990,1382.36,30.20,23.00,74.26,0.00,0.00,0.00,29.65,M,10.00,M,CLR,M,M,M,M,M,M,M,M,M,M,M,M,M,M,30.20,KBAM 151355Z AUTO 00000KT 10SM CLR M01/M05 A2965 RMK AO1,M
BVU,2021-03-15 13:55,-114.8611,35.9475,671.00,51.80,24.80,34.69,250.00,8.00,0.00,29.82,M,10.00,M,CLR,M,M,M,M,M,M,M,M,M,M,M,M,M,M,51.80,KBVU 151355Z AUTO 25008KT 10SM CLR 11/M04 A2982 RMK AO2,M
TMT,2021-03-15 13:55,-117.1971,39.4643,1749.34,17.20,10.60,74.86,0.00,0.00,0.00,29.67,M,10.00,M,M,M,M,M,M,M,M,M,M,M,M,M,M,M,M,17.20,KTMT 151355Z AUTO 00000KT 10SM M08/M12 A2967 RMK AO2 T10821119,M
RNO,2021-03-15 13:55,-119.7711,39.4839,1341.00,33.00,12.90,42.77,250.00,8.00,0.00,29.75,1006.20,10.00,M,BKN,BKN,OVC,M,4500.00,8000.00,18000.00,M,M,M,M,M,26.00,280.00,2021-03-15 13:20,25.47,KRNO 151355Z 25008KT 10SM BKN045 BKN080 OVC180 01/M11 A2975 RMK AO2 PK WND 28026/1320 SLP062 MTN WAVE ACT AT AP T00061106 $,M
TPH,2021-03-15 13:56,-117.0904,38.0505,1654.00,32.00,23.00,69.04,140.00,10.00,0.00,29.70,1004.60,10.00,M,CLR,M,M,M,M,M,M,M,M,M,M,M,M,M,M,22.97,KTPH 151356Z AUTO 14010KT 10SM CLR 00/M05 A2970 RMK AO2 SLP046 T00001050,M
EKO,2021-03-15 13:56,-115.7860,40.8242,1367.00,34.00,21.00,58.56,50.00,5.00,0.00,29.68,1004.40,10.00,M,BKN,BKN,M,M,9500.00,12000.00,M,M,M,M,M,M,M,M,M,28.77,KEKO 151356Z AUTO 05005KT 10SM BKN095 BKN120 01/M06 A2968 RMK AO2 SLP044 T00111061,M
HND,2021-03-15 13:56,-115.1344,35.9729,742.79,52.00,23.00,31.93,170.00,13.00,0.00,29.83,1010.80,10.00,M,CLR,M,M,M,M,M,M,M,M,M,M,M,M,M,M,52.00,KHND 151356Z 17013KT 10SM CLR 11/M05 A2983 RMK AO2 SLP108 T01111050,M
LAS,2021-03-15 13:56,-115.1634,36.0719,663.00,54.00,21.90,28.33,190.00,12.00,0.00,29.78,1007.50,10.00,21.00,FEW,FEW,M,M,9000.00,12000.00,M,M,M,M,M,M,M,M,M,54.00,KLAS 151356Z 19012G21KT 10SM FEW090 FEW120 12/M06 A2978 RMK AO2 SLP075 T01221056 $,M
WMC,2021-03-15 13:56,-117.8072,40.9019,1315.00,33.00,18.00,53.40,20.00,4.00,0.00,29.66,1003.60,10.00,M,OVC,M,M,M,11000.00,M,M,M,M,M,M,M,M,M,M,28.70,KWMC 151356Z AUTO 02004KT 10SM OVC110 01/M08 A2966 RMK AO2 SLP036 T00061078,M
NFL,2021-03-15 13:56,-118.7010,39.4166,1199.00,40.00,19.90,44.29,290.00,18.00,T,29.69,1003.70,9.00,22.00,SCT,OVC,M,M,6000.00,8000.00,M,M,M,M,M,M,M,M,M,30.15,KNFL 151356Z 29018G22KT 9SM SCT060 OVC080 04/M07 A2969 RMK SNB34E52 SLP037 P0000 T00441067,M
INS,2021-03-15 13:58,-115.6733,36.5872,955.00,47.70,19.90,32.87,90.00,13.00,0.00,29.72,1004.20,10.00,20.00,CLR,M,M,M,M,M,M,M,M,M,M,M,M,M,M,41.68,KINS 151358Z AUTO 09013G20KT 10SM CLR 09/M07 A2972 RMK AO2 SLP042 T00871067 $,M
LSV,2021-03-15 13:58,-115.0343,36.2362,570.00,55.00,23.20,28.96,190.00,5.00,0.00,29.78,1007.50,10.00,M,CLR,M,M,M,M,M,M,M,M,M,M,M,M,M,M,54.90,KLSV 151358Z AUTO 19005KT 10SM CLR 13/M05 A2978 RMK AO2 SLP075 T01271049 $,M
TMT,2021-03-15 14:15,-117.1971,39.4643,1749.34,19.20,13.60,78.45,0.00,0.00,0.00,29.66,M,10.00,M,M,M,M,M,M,M,M,M,M,M,M,M,M,M,M,19.20,KTMT 151415Z AUTO 00000KT 10SM M07/M10 A2966 RMK AO2 T10711102,M
BAM,2021-03-15 14:15,-116.8743,40.5990,1382.36,28.40,23.00,79.92,240.00,4.00,0.00,29.65,M,10.00,M,CLR,M,M,M,M,M,M,M,M,M,M,M,M,M,M,23.22,KBAM 151415Z AUTO 24004KT 10SM CLR M02/M05 A2965 RMK AO1,M
BVU,2021-03-15 14:15,-114.8611,35.9475,671.00,53.60,24.80,32.46,190.00,13.00,0.00,29.82,M,10.00,M,CLR,M,M,M,M,M,M,M,M,M,M,M,M,M,M,53.60,KBVU 151415Z AUTO 19013KT 10SM CLR 12/M04 A2982 RMK AO2,M
BVU,2021-03-15 14:35,-114.8611,35.9475,671.00,55.40,21.20,26.13,200.00,14.00,0.00,29.82,M,10.00,M,CLR,M,M,M,M,M,M,M,M,M,M,M,M,M,M,55.40,KBVU 151435Z AUTO 20014KT 10SM CLR 13/M06 A2982 RMK AO2,M
BAM,2021-03-15 14:35,-116.8743,40.5990,1382.36,30.20,24.80,80.07,0.00,0.00,0.00,29.64,M,10.00,M,SCT,M,M,M,12000.00,M,M,M,M,M,M,M,M,M,M,30.20,KBAM 151435Z AUTO 00000KT 10SM SCT120 M01/M04 A2964 RMK AO1,M
TMT,2021-03-15 14:35,-117.1971,39.4643,1749.34,18.10,11.70,75.62,0.00,0.00,0.00,29.66,M,10.00,M,M,M,M,M,M,M,M,M,M,M,M,M,M,M,M,18.10,KTMT 151435Z AUTO 00000KT 10SM M08/M11 A2966 RMK AO2 T10771113,M
ELY,2021-03-15 14:53,-114.8453,39.2950,1909.00,34.00,19.00,53.77,210.00,10.00,0.00,29.73,1004.60,M,M,FEW,M,M,M,11000.00,M,M,M,M,M,M,M,M,M,M,25.48,KELY 151453Z AUTO 21010KT FEW110 01/M07 A2973 RMK AO2 SLP046 T00111072 58015 $,M
DRA,2021-03-15 14:53,-116.0278,36.6206,1009.00,52.00,28.00,39.30,200.00,10.00,0.00,29.73,1004.40,10.00,23.00,CLR,M,M,M,M,M,M,M,M,M,M,M,30.00,210.00,2021-03-15 14:33,52.00,KDRA 151453Z AUTO 20010G23KT 10SM CLR 11/M02 A2973 RMK AO2 PK WND 21030/1433 SLP044 T01111022 56008 $,M
LOL,2021-03-15 14:53,-118.5701,40.0684,1192.43,39.00,18.00,42.28,270.00,17.00,0.00,29.69,1005.40,10.00,M,OVC,M,M,M,5000.00,M,M,M,M,M,M,M,M,M,M,29.25,KLOL 151453Z AUTO 27017KT 10SM OVC050 04/M08 A2969 RMK AO2 SLP054 60000 T00391078 53014,M
VGT,2021-03-15 14:53,-115.1933,36.2111,667.00,57.00,28.00,32.75,210.00,20.00,0.00,29.71,1006.70,10.00,28.00,CLR,M,M,M,M,M,M,M,M,M,M,M,29.00,200.00,2021-03-15 14:42,57.00,KVGT 151453Z 21020G28KT 10SM CLR 14/M02 A2971 RMK AO2 PK WND 20029/1442 SLP067 T01391022 58016,M
P68,2021-03-15 14:53,-116.0056,39.6014,1993.00,38.00,21.00,50.18,150.00,16.00,0.00,29.68,1002.20,M,20.00,M,M,M,M,M,M,M,M,M,M,M,M,M,M,M,28.11,KP68 151453Z AUTO 15016G20KT 03/M06 A2968 RMK AO1 SLP022 T00331061 56015,M
TMT,2021-03-15 14:55,-117.1971,39.4643,1749.34,25.30,15.80,66.77,0.00,0.00,0.00,29.65,M,10.00,M,M,M,M,M,M,M,M,M,M,M,M,M,M,M,M,25.30,KTMT 151455Z AUTO 00000KT 10SM M04/M09 A2965 RMK AO2 T10371090,M
BVU,2021-03-15 14:55,-114.8611,35.9475,671.00,55.40,21.20,26.13,160.00,8.00,0.00,29.82,M,10.00,M,CLR,M,M,M,M,M,M,M,M,M,M,M,M,M,M,55.40,KBVU 151455Z AUTO 16008KT 10SM CLR 13/M06 A2982 RMK AO2,M
BAM,2021-03-15 14:55,-116.8743,40.5990,1382.36,30.20,23.00,74.26,200.00,3.00,0.00,29.64,M,10.00,M,BKN,M,M,M,12000.00,M,M,M,M,M,M,M,M,M,M,26.63,KBAM 151455Z AUTO 20003KT 10SM BKN120 M01/M05 A2964 RMK AO1,M
RNO,2021-03-15 14:55,-119.7711,39.4839,1341.00,33.00,7.00,32.85,320.00,8.00,0.00,29.75,1006.40,10.00,M,FEW,BKN,BKN,M,4500.00,9500.00,18000.00,M,M,M,M,M,M,M,M,25.47,KRNO 151455Z 32008KT 10SM FEW045 BKN095 BKN180 01/M14 A2975 RMK AO2 SLP064 VIRGA MTN WAVE ACT AT AP T00061139 51009 $,M
WMC,2021-03-15 14:56,-117.8072,40.9019,1315.00,36.00,19.90,51.61,0.00,0.00,0.00,29.66,1003.70,10.00,M,OVC,M,M,M,9500.00,M,M,M,M,M,M,M,M,M,M,36.00,KWMC 151456Z AUTO 00000KT 10SM OVC095 02/M07 A2966 RMK AO2 SLP037 T00221067 56006,M
LAS,2021-03-15 14:56,-115.1634,36.0719,663.00,55.00,28.90,36.54,190.00,16.00,0.00,29.79,1007.80,10.00,28.00,FEW,FEW,M,M,8000.00,12000.00,M,M,M,M,M,M,31.00,210.00,2021-03-15 14:45,55.00,KLAS 151456Z 19016G28KT 10SM FEW080 FEW120 13/M02 A2979 RMK AO2 PK WND 21031/1445 SLP078 T01281017 55003 $,M
NFL,2021-03-15 14:56,-118.7010,39.4166,1199.00,37.00,21.00,51.99,270.00,18.00,0.00,29.72,1004.50,10.00,26.00,BKN,OVC,M,M,5500.00,7000.00,M,M,M,M,M,M,27.00,270.00,2021-03-15 14:47,26.33,KNFL 151456Z 27018G26KT 10SM BKN055 OVC070 03/M06 A2972 RMK PK WND 27027/1447 SLP045 60000 T00281061 53019,M
HND,2021-03-15 14:56,-115.1344,35.9729,742.79,55.00,26.10,32.56,170.00,13.00,0.00,29.83,1011.00,10.00,21.00,CLR,M,M,M,M,M,M,M,M,M,M,M,M,M,M,55.00,KHND 151456Z 17013G21KT 10SM CLR 13/M03 A2983 RMK AO2 SLP110 T01281033 53001,M
TPH,2021-03-15 14:56,-117.0904,38.0505,1654.00,36.00,21.00,54.08,110.00,8.00,0.00,29.70,1004.50,10.00,M,CLR,M,M,M,M,M,M,M,M,M,M,M,M,M,M,29.04,KTPH 151456Z AUTO 11008KT 10SM CLR 02/M06 A2970 RMK AO2 SLP045 T00221061 56009,M
EKO,2021-03-15 14:56,-115.7860,40.8242,1367.00,37.00,21.90,54.01,80.00,7.00,0.00,29.67,1003.90,10.00,M,OVC,M,M,M,11000.00,M,M,M,M,M,M,M,M,M,M,30.87,KEKO 151456Z AUTO 08007KT 10SM OVC110 03/M06 A2967 RMK AO2 SLP039 T00281056 56016,M
INS,2021-03-15 14:58,-115.6733,36.5872,955.00,49.80,21.20,32.11,90.00,12.00,0.00,29.71,1003.90,10.00,19.00,CLR,M,M,M,M,M,M,M,M,M,M,M,M,M,M,44.66,KINS 151458Z AUTO 09012G19KT 10SM CLR 10/M06 A2971 RMK AO2 SLP039 T00991060 57005 $,M
LSV,2021-03-15 14:58,-115.0343,36.2362,570.00,58.00,25.90,29.08,190.00,21.00,0.00,29.77,1007.10,10.00,26.00,CLR,M,M,M,M,M,M,M,M,M,M,M,26.00,190.00,2021-03-15 14:23,57.90,KLSV 151458Z AUTO 19021G26KT 10SM CLR 14/M03 A2977 RMK AO2 PK WND 19026/23 SLP071 T01441034 55008 $,M
BAM,2021-03-15 15:15,-116.8743,40.5990,1382.36,32.00,26.60,80.22,0.00,0.00,0.00,29.64,M,10.00,M,BKN,M,M,M,11000.00,M,M,M,M,M,M,M,M,M,M,32.00,KBAM 151515Z AUTO 00000KT 10SM BKN110 00/M03 A2964 RMK AO1,M
TMT,2021-03-15 15:15,-117.1971,39.4643,1749.34,28.90,16.70,59.85,0.00,0.00,0.00,29.64,M,10.00,M,M,M,M,M,M,M,M,M,M,M,M,M,M,M,M,28.90,KTMT 151515Z AUTO 00000KT 10SM M02/M08 A2964 RMK AO2 T10171085,M
BVU,2021-03-15 15:15,-114.8611,35.9475,671.00,57.20,23.00,26.42,190.00,10.00,0.00,29.84,M,10.00,M,CLR,M,M,M,M,M,M,M,M,M,M,M,M,M,M,57.20,KBVU 151515Z AUTO 19010KT 10SM CLR 14/M05 A2984 RMK AO2,M
NFL,2021-03-15 15:28,-118.7010,39.4166,1199.00,35.00,21.00,56.05,270.00,20.00,T,29.75,M,3.00,31.00,BKN,OVC,M,M,3000.00,5000.00,M,M,-SN,M,M,M,31.00,260.00,2021-03-15 15:20,23.26,KNFL 151528Z 27020G31KT 3SM -SN BKN030 OVC050 02/M06 A2975 RMK PK WND 26031/1520 SNB08 P0000 T00171061,M
BVU,2021-03-15 15:35,-114.8611,35.9475,671.00,59.00,24.80,26.70,180.00,12.00,0.00,29.83,M,10.00,M,CLR,M,M,M,M,M,M,M,M,M,M,M,M,M,M,59.00,KBVU 151535Z AUTO 18012KT 10SM CLR 15/M04 A2983 RMK AO2,M
RTS,2021-03-15 15:35,-119.8764,39.6682,1539.00,28.40,12.20,50.17,280.00,9.00,0.00,29.76,M,10.00,17.00,FEW,FEW,M,M,7500.00,9000.00,M,M,M,M,M,M,M,M,M,19.04,KRTS 151535Z AUTO 28009G17KT 10SM FEW075 FEW090 M02/M11 A2976 RMK AO2,M
BAM,2021-03-15 15:35,-116.8743,40.5990,1382.36,33.80,26.60,74.63,0.00,0.00,0.00,29.64,M,10.00,M,SCT,M,M,M,12000.00,M,M,M,M,M,M,M,M,M,M,33.80,KBAM 151535Z AUTO 00000KT 10SM SCT120 01/M03 A2964 RMK AO1,M
MEV,2021-03-15 15:35,-119.7500,38.9963,1441.42,30.20,8.60,39.70,180.00,9.00,0.00,29.78,M,10.00,M,CLR,M,M,M,M,M,M,M,M,M,M,M,M,M,M,21.28,KMEV 151535Z AUTO 18009KT 10SM CLR M01/M13 A2978 RMK AO2,M
05U,2021-03-15 15:35,-116.0051,39.6042,1811.23,42.80,19.40,38.75,140.00,10.00,0.00,29.69,M,10.00,M,CLR,M,M,M,M,M,M,M,M,M,M,M,M,M,M,36.51,K05U 151535Z AUTO 14010KT 10SM CLR 06/M07 A2969 RMK A01,M
TMT,2021-03-15 15:35,-117.1971,39.4643,1749.34,31.10,17.40,56.41,320.00,3.00,0.00,29.64,M,10.00,M,M,M,M,M,M,M,M,M,M,M,M,M,M,M,M,27.66,KTMT 151535Z AUTO 32003KT 10SM 00/M08 A2964 RMK AO2 T10051081,M
CXP,2021-03-15 15:50,-119.7326,39.1923,1431.00,32.00,12.20,43.34,200.00,6.00,0.00,29.78,M,10.00,M,CLR,M,M,M,M,M,M,M,M,M,M,M,M,M,M,25.53,KCXP 151550Z AUTO 20006KT 10SM CLR M00/M11 A2978 RMK AO2,M
VGT,2021-03-15 15:53,-115.1933,36.2111,667.00,59.00,30.00,33.08,180.00,16.00,0.00,29.74,1007.80,10.00,M,CLR,M,M,M,M,M,M,M,M,M,M,M,29.00,160.00,2021-03-15 15:36,59.00,KVGT 151553Z 18016KT 10SM CLR 15/M01 A2974 RMK AO2 PK WND 16029/1536 SLP078 T01501011,M
P68,2021-03-15 15:53,-116.0056,39.6014,1993.00,43.00,21.00,41.17,160.00,13.00,0.00,29.66,1001.30,M,20.00,M,M,M,M,M,M,M,M,M,M,M,M,M,M,M,35.66,KP68 151553Z AUTO 16013G20KT 06/M06 A2966 RMK AO1 SLP013 T00611061,M
LOL,2021-03-15 15:53,-118.5701,40.0684,1192.43,35.00,25.00,66.31,250.00,12.00,0.00,29.73,1007.00,10.00,21.00,BKN,OVC,M,M,4600.00,5500.00,M,M,M,M,M,M,27.00,270.00,2021-03-15 15:09,25.95,KLOL 151553Z AUTO 25012G21KT 10SM BKN046 OVC055 02/M04 A2973 RMK AO2 PK WND 27027/1509 SLP070 T00171039,M
ELY,2021-03-15 15:53,-114.8453,39.2950,1909.00,41.00,19.90,42.44,170.00,19.00,0.00,29.73,1004.70,M,M,FEW,M,M,M,7500.00,M,M,M,M,M,M,M,M,M,M,31.34,KELY 151553Z AUTO 17019KT FEW075 05/M07 A2973 RMK AO2 SLP047 T00501067 $,M
DRA,2021-03-15 15:53,-116.0278,36.6206,1009.00,55.00,28.90,36.54,180.00,22.00,0.00,29.73,1004.20,10.00,35.00,CLR,M,M,M,M,M,M,M,M,M,M,M,40.00,210.00,2021-03-15 15:37,55.00,KDRA 151553Z AUTO 18022G35KT 10SM CLR 13/M02 A2973 RMK AO2 PK WND 21040/1537 SLP042 T01281017 $,M
HTH,2021-03-15 15:55,-118.6315,38.5448,1282.89,39.20,21.20,48.10,30.00,22.00,0.00,29.66,M,10.00,M,FEW,OVC,M,M,5500.00,7500.00,M,M,M,M,M,M,M,M,M,28.22,KHTH 151555Z AUTO 03022KT 10SM FEW055 OVC075 04/M06 A2966 RMK A01,M
MEV,2021-03-15 15:55,-119.7500,38.9963,1441.42,30.20,14.00,50.47,180.00,9.00,0.00,29.79,M,10.00,M,CLR,M,M,M,M,M,M,M,M,M,M,M,M,M,M,21.28,KMEV 151555Z AUTO 18009KT 10SM CLR M01/M10 A2979 RMK AO2,M
05U,2021-03-15 15:55,-116.0051,39.6042,1811.23,44.60,19.40,36.18,160.00,12.00,0.00,29.68,M,10.00,M,CLR,M,M,M,M,M,M,M,M,M,M,M,M,M,M,38.04,K05U 151555Z AUTO 16012KT 10SM CLR 07/M07 A2968 RMK A01,M
RTS,2021-03-15 15:55,-119.8764,39.6682,1539.00,30.20,8.60,39.70,250.00,15.00,0.00,29.75,M,10.00,M,CLR,M,M,M,M,M,M,M,M,M,M,M,M,M,M,18.45,KRTS 151555Z AUTO 25015KT 10SM CLR M01/M13 A2975 RMK AO2,M
RNO,2021-03-15 15:55,-119.7711,39.4839,1341.00,33.00,10.00,37.61,280.00,11.00,0.00,29.76,1007.10,10.00,M,FEW,BKN,BKN,M,4500.00,10000.00,18000.00,M,M,M,M,M,M,M,M,23.86,KRNO 151555Z 28011KT 10SM FEW045 BKN100 BKN180 01/M12 A2976 RMK AO2 SLP071 VIRGA MTN WAVE ACT AT AP T00061122 $,M
BVU,2021-03-15 15:55,-114.8611,35.9475,671.00,60.80,26.60,26.98,230.00,12.00,0.00,29.82,M,10.00,M,CLR,M,M,M,M,M,M,M,M,M,M,M,M,M,M,60.80,KBVU 151555Z AUTO 23012KT 10SM CLR 16/M03 A2982 RMK AO2,M
TMT,2021-03-15 15:55,-117.1971,39.4643,1749.34,35.80,18.30,48.58,0.00,0.00,0.00,29.64,M,10.00,M,M,M,M,M,M,M,M,M,M,M,M,M,M,M,M,35.80,KTMT 151555Z AUTO 00000KT 10SM 02/M08 A2964 RMK AO2 T00211076,M
BAM,2021-03-15 15:55,-116.8743,40.5990,1382.36,41.00,28.40,60.54,360.00,6.00,0.00,29.63,M,10.00,M,CLR,M,M,M,M,M,M,M,M,M,M,M,M,M,M,36.37,KBAM 151555Z AUTO 36006KT 10SM CLR 05/M02 A2963 RMK AO1,M
NFL,2021-03-15 15:56,-118.7010,39.4166,1199.00,34.00,25.00,69.28,320.00,7.00,T,29.77,1005.90,3.00,20.00,BKN,BKN,M,M,3000.00,6000.00,M,M,-SN,M,M,M,31.00,260.00,2021-03-15 15:20,27.22,KNFL 151556Z 32007G20KT 3SM -SN BKN030 BKN060 01/M04 A2977 RMK AO2 PK WND 26031/1520 SNB08 SLP059 P0000 T00111039,M
WMC,2021-03-15 15:56,-117.8072,40.9019,1315.00,39.00,26.10,59.52,280.00,15.00,0.00,29.68,1003.90,10.00,20.00,BKN,BKN,M,M,8000.00,9500.00,M,M,M,M,M,M,M,M,M,29.85,KWMC 151556Z AUTO 28015G20KT 10SM BKN080 BKN095 04/M03 A2968 RMK AO2 SLP039 T00391033,M
TPH,2021-03-15 15:56,-117.0904,38.0505,1654.00,39.00,19.90,45.87,180.00,12.00,0.00,29.70,1004.30,10.00,M,CLR,M,M,M,M,M,M,M,M,M,M,M,M,M,M,30.91,KTPH 151556Z AUTO 18012KT 10SM CLR 04/M07 A2970 RMK AO2 SLP043 T00391067,M
EKO,2021-03-15 15:56,-115.7860,40.8242,1367.00,42.00,21.90,44.27,80.00,6.00,0.00,29.66,1003.50,10.00,M,SCT,M,M,M,11000.00,M,M,M,M,M,M,M,M,M,M,37.69,KEKO 151556Z AUTO 08006KT 10SM SCT110 06/M06 A2966 RMK AO2 SLP035 T00561056,M
HND,2021-03-15 15:56,-115.1344,35.9729,742.79,58.00,30.00,34.41,180.00,16.00,0.00,29.82,1010.60,10.00,19.00,BKN,M,M,M,8000.00,M,M,M,M,M,M,M,M,M,M,57.90,KHND 151556Z 18016G19KT 10SM BKN080 14/M01 A2982 RMK AO2 SLP106 T01441011,M
LAS,2021-03-15 15:56,-115.1634,36.0719,663.00,58.00,30.90,35.69,200.00,12.00,0.00,29.78,1007.60,10.00,24.00,FEW,FEW,M,M,8000.00,12000.00,M,M,M,M,M,M,31.00,190.00,2021-03-15 15:28,57.90,KLAS 151556Z 20012G24KT 10SM FEW080 FEW120 14/M01 A2978 RMK AO2 PK WND 19031/1528 SLP076 T01441006 $,M
INS,2021-03-15 15:58,-115.6733,36.5872,955.00,53.60,23.70,31.01,120.00,14.00,0.00,29.72,1004.00,10.00,M,CLR,M,M,M,M,M,M,M,M,M,M,M,M,M,M,53.60,KINS 151558Z AUTO 12014KT 10SM CLR 12/M05 A2972 RMK AO2 SLP040 T01201046 VISNO RWY08 $,M
LSV,2021-03-15 15:58,-115.0343,36.2362,570.00,60.00,29.30,30.91,200.00,26.00,0.00,29.76,1006.70,10.00,30.00,CLR,M,M,M,M,M,M,M,M,M,M,M,35.00,210.00,2021-03-15 15:22,60.10,KLSV 151558Z AUTO 20026G30KT 10SM CLR 16/M01 A2976 RMK AO2 PK WND 21035/22 SLP067 T01561015 $,M
HTH,2021-03-15 16:15,-118.6315,38.5448,1282.89,37.40,21.20,51.61,20.00,21.00,0.00,29.68,M,9.00,27.00,BKN,M,M,M,7500.00,M,M,M,M,M,M,M,M,M,M,26.06,KHTH 151615Z AUTO 02021G27KT 9SM BKN075 03/M06 A2968 RMK A01,M
MEV,2021-03-15 16:15,-119.7500,38.9963,1441.42,32.00,12.20,43.34,200.00,9.00,0.00,29.79,M,10.00,M,CLR,M,M,M,M,M,M,M,M,M,M,M,M,M,M,23.51,KMEV 151615Z AUTO 20009KT 10SM CLR 00/M11 A2979 RMK AO2,M
BVU,2021-03-15 16:15,-114.8611,35.9475,671.00,60.80,28.40,29.06,200.00,12.00,0.00,29.82,M,10.00,18.00,CLR,M,M,M,M,M,M,M,M,M,M,M,M,M,M,60.80,KBVU 151615Z AUTO 20012G18KT 10SM CLR 16/M02 A2982 RMK AO2,M
05U,2021-03-15 16:15,-116.0051,39.6042,1811.23,46.40,17.60,31.28,160.00,13.00,0.00,29.68,M,10.00,M,CLR,M,M,M,M,M,M,M,M,M,M,M,M,M,M,40.02,K05U 151615Z AUTO 16013KT 10SM CLR 08/M08 A2968 RMK A01,M
RTS,2021-03-15 16:15,-119.8764,39.6682,1539.00,28.40,10.40,46.32,260.00,12.00,0.00,29.76,M,10.00,M,CLR,M,M,M,M,M,M,M,M,M,M,M,M,M,M,17.42,KRTS 151615Z AUTO 26012KT 10SM CLR M02/M12 A2976 RMK AO2,M
CXP,2021-03-15 16:15,-119.7326,39.1923,1431.00,32.00,8.60,36.91,220.00,10.00,0.00,29.78,M,10.00,M,CLR,M,M,M,M,M,M,M,M,M,M,M,M,M,M,22.97,KCXP 151615Z AUTO 22010KT 10SM CLR 00/M13 A2978 RMK AO2,M
BAM,2021-03-15 16:15,-116.8743,40.5990,1382.36,41.00,26.60,56.22,340.00,10.00,0.00,29.63,M,10.00,M,CLR,M,M,M,M,M,M,M,M,M,M,M,M,M,M,34.25,KBAM 151615Z AUTO 34010KT 10SM CLR 05/M03 A2963 RMK AO1,M
TMT,2021-03-15 16:15,-117.1971,39.4643,1749.34,38.80,18.50,43.54,350.00,4.00,0.00,29.63,M,10.00,M,M,M,M,M,M,M,M,M,M,M,M,M,M,M,M,35.36,KTMT 151615Z AUTO 35004KT 10SM 04/M07 A2963 RMK AO2 T00381075,M
CXP,2021-03-15 16:30,-119.7326,39.1923,1431.00,32.00,6.80,34.03,210.00,9.00,0.00,29.78,M,10.00,M,CLR,M,M,M,M,M,M,M,M,M,M,M,M,M,M,23.51,KCXP 151630Z AUTO 21009KT 10SM CLR 00/M14 A2978 RMK AO2,M
BAM,2021-03-15 16:35,-116.8743,40.5990,1382.36,44.60,26.60,48.96,340.00,13.00,0.00,29.63,M,10.00,M,CLR,M,M,M,M,M,M,M,M,M,M,M,M,M,M,37.71,KBAM 151635Z AUTO 34013KT 10SM CLR 07/M03 A2963 RMK AO1,M
MEV,2021-03-15 16:35,-119.7500,38.9963,1441.42,33.80,10.40,37.22,190.00,10.00,0.00,29.78,M,10.00,M,CLR,M,M,M,M,M,M,M,M,M,M,M,M,M,M,25.23,KMEV 151635Z AUTO 19010KT 10SM CLR 01/M12 A2978 RMK AO2,M
05U,2021-03-15 16:35,-116.0051,39.6042,1811.23,46.40,17.60,31.28,170.00,15.00,0.00,29.68,M,10.00,M,CLR,M,M,M,M,M,M,M,M,M,M,M,M,M,M,39.45,K05U 151635Z AUTO 17015KT 10SM CLR 08/M08 A2968 RMK A01,M
TMT,2021-03-15 16:35,-117.1971,39.4643,1749.34,40.50,18.50,40.75,0.00,0.00,0.00,29.63,M,10.00,M,M,M,M,M,M,M,M,M,M,M,M,M,M,M,M,40.50,KTMT 151635Z AUTO 00000KT 10SM 05/M07 A2963 RMK AO2 T00471075,M
RTS,2021-03-15 16:35,-119.8764,39.6682,1539.00,30.20,12.20,46.62,280.00,10.00,0.00,29.76,M,10.00,18.00,CLR,M,M,M,M,M,M,M,M,M,M,M,M,M,M,20.71,KRTS 151635Z AUTO 28010G18KT 10SM CLR M01/M11 A2976 RMK AO2,M
BVU,2021-03-15 16:35,-114.8611,35.9475,671.00,60.80,28.40,29.06,160.00,14.00,0.00,29.83,M,10.00,23.00,CLR,M,M,M,M,M,M,M,M,M,M,M,M,M,M,60.80,KBVU 151635Z AUTO 16014G23KT 10SM CLR 16/M02 A2983 RMK AO2,M
HTH,2021-03-15 16:35,-118.6315,38.5448,1282.89,37.40,19.40,47.80,360.00,16.00,0.00,29.69,M,10.00,23.00,FEW,BKN,BKN,M,4800.00,8000.00,9000.00,M,M,M,M,M,M,M,M,27.46,KHTH 151635Z AUTO 36016G23KT 10SM FEW048 BKN080 BKN090 03/M07 A2969 RMK A01,M
P68,2021-03-15 16:53,-116.0056,39.6014,1993.00,46.00,21.00,36.72,160.00,20.00,0.00,29.64,1001.00,M,25.00,M,M,M,M,M,M,M,M,M,M,M,M,M,M,M,37.73,KP68 151653Z AUTO 16020G25KT 08/M06 A2964 RMK AO1 SLP010 T00781061,M
LOL,2021-03-15 16:53,-118.5701,40.0684,1192.43,34.00,25.00,69.28,270.00,13.00,T,29.77,1008.50,5.00,17.00,SCT,OVC,M,M,2500.00,3600.00,M,M,-SN,M,M,M,M,M,M,24.13,KLOL 151653Z AUTO 27013G17KT 5SM -SN SCT025 OVC036 01/M04 A2977 RMK AO2 SNB51 SLP085 P0000 T00111039,M
DRA,2021-03-15 16:53,-116.0278,36.6206,1009.00,56.00,30.90,38.36,200.00,27.00,0.00,29.71,1003.80,10.00,41.00,CLR,M,M,M,M,M,M,M,M,M,M,M,41.00,210.00,2021-03-15 16:35,55.90,KDRA 151653Z AUTO 20027G41KT 10SM CLR 13/M01 A2971 RMK AO2 PK WND 21041/1635 PRESFR SLP038 T01331006,M
VGT,2021-03-15 16:53,-115.1933,36.2111,667.00,61.00,33.00,34.91,170.00,19.00,0.00,29.72,1007.10,10.00,30.00,CLR,M,M,M,M,M,M,M,M,M,M,M,30.00,160.00,2021-03-15 16:47,61.00,KVGT 151653Z 17019G30KT 10SM CLR 16/01 A2972 RMK AO2 PK WND 16030/1647 SLP071 T01610006,M
ELY,2021-03-15 16:53,-114.8453,39.2950,1909.00,45.00,19.00,35.02,160.00,19.00,0.00,29.72,1004.00,M,26.00,CLR,M,M,M,M,M,M,M,M,M,M,M,26.00,180.00,2021-03-15 16:48,36.63,KELY 151653Z AUTO 16019G26KT CLR 07/M07 A2972 RMK AO2 PK WND 18026/1648 SLP040 T00721072 $,M
CXP,2021-03-15 16:55,-119.7326,39.1923,1431.00,33.80,8.60,34.34,M,5.00,0.00,29.78,M,10.00,M,FEW,M,M,M,5000.00,M,M,M,M,M,M,M,M,M,M,28.53,KCXP 151655Z AUTO VRB05KT 10SM FEW050 01/M13 A2978 RMK AO2,M
RNO,2021-03-15 16:55,-119.7711,39.4839,1341.00,34.00,8.10,33.31,280.00,9.00,0.00,29.77,1007.30,10.00,M,FEW,BKN,BKN,M,4500.00,11000.00,19000.00,M,M,M,M,M,M,M,M,26.00,KRNO 151655Z 28009KT 10SM FEW045 BKN110 BKN190 01/M13 A2977 RMK AO2 SLP073 MTN WAVE ACT AT AP T00111133 $,M
HTH,2021-03-15 16:55,-118.6315,38.5448,1282.89,39.20,21.20,48.10,350.00,16.00,0.00,29.70,M,10.00,22.00,BKN,BKN,OVC,M,4800.00,6000.00,8000.00,M,M,M,M,M,M,M,M,29.80,KHTH 151655Z AUTO 35016G22KT 10SM BKN048 BKN060 OVC080 04/M06 A2970 RMK A01,M
BAM,2021-03-15 16:55,-116.8743,40.5990,1382.36,46.40,26.60,45.73,350.00,12.00,0.00,29.63,M,10.00,M,CLR,M,M,M,M,M,M,M,M,M,M,M,M,M,M,40.33,KBAM 151655Z AUTO 35012KT 10SM CLR 08/M03 A2963 RMK AO1,M
BVU,2021-03-15 16:55,-114.8611,35.9475,671.00,60.80,30.20,31.28,210.00,15.00,0.00,29.82,M,10.00,25.00,CLR,M,M,M,M,M,M,M,M,M,M,M,M,M,M,60.80,KBVU 151655Z AUTO 21015G25KT 10SM CLR 16/M01 A2982 RMK AO2,M
TMT,2021-03-15 16:55,-117.1971,39.4643,1749.34,43.00,18.50,37.00,30.00,4.00,0.00,29.62,M,10.00,M,M,M,M,M,M,M,M,M,M,M,M,M,M,M,M,40.27,KTMT 151655Z AUTO 03004KT 10SM 06/M07 A2962 RMK AO2 T00611075,M
MEV,2021-03-15 16:55,-119.7500,38.9963,1441.42,33.80,6.80,31.66,200.00,7.00,0.00,29.78,M,10.00,M,CLR,M,M,M,M,M,M,M,M,M,M,M,M,M,M,26.97,KMEV 151655Z AUTO 20007KT 170V230 10SM CLR 01/M14 A2978 RMK AO2,M
05U,2021-03-15 16:55,-116.0051,39.6042,1811.23,48.20,17.60,29.23,160.00,19.00,0.00,29.67,M,10.00,M,CLR,M,M,M,M,M,M,M,M,M,M,M,M,M,M,40.86,K05U 151655Z AUTO 16019KT 10SM CLR 09/M08 A2967 RMK A01,M
RTS,2021-03-15 16:55,-119.8764,39.6682,1539.00,30.20,10.40,43.04,280.00,12.00,0.00,29.78,M,10.00,M,CLR,M,M,M,M,M,M,M,M,M,M,M,M,M,M,19.71,KRTS 151655Z AUTO 28012KT 10SM CLR M01/M12 A2978 RMK AO2,M
LAS,2021-03-15 16:56,-115.1634,36.0719,663.00,58.00,34.00,40.43,190.00,16.00,0.00,29.79,1007.90,10.00,28.00,FEW,FEW,M,M,8000.00,12000.00,M,M,M,M,M,M,28.00,170.00,2021-03-15 16:51,57.90,KLAS 151656Z 19016G28KT 10SM FEW080 FEW120 14/01 A2979 RMK AO2 PK WND 17028/1651 SLP079 T01440011,M
EKO,2021-03-15 16:56,-115.7860,40.8242,1367.00,48.00,21.90,35.38,50.00,5.00,0.00,29.65,1002.50,10.00,M,CLR,M,M,M,M,M,M,M,M,M,M,M,M,M,M,45.40,KEKO 151656Z AUTO 05005KT 10SM CLR 09/M06 A2965 RMK AO2 SLP025 T00891056,M
WMC,2021-03-15 16:56,-117.8072,40.9019,1315.00,39.00,28.00,64.37,280.00,14.00,0.00,29.68,1004.50,10.00,M,FEW,OVC,M,M,8000.00,9500.00,M,M,M,M,M,M,M,M,M,30.19,KWMC 151656Z AUTO 28014KT 10SM FEW080 OVC095 04/M02 A2968 RMK AO2 SLP045 T00391022,M
NFL,2021-03-15 16:56,-118.7010,39.4166,1199.00,34.00,21.00,58.56,240.00,7.00,T,29.78,1006.30,6.00,15.00,BKN,BKN,M,M,3500.00,7000.00,M,M,HZ,M,M,M,M,M,M,27.22,KNFL 151656Z 24007G15KT 6SM HZ BKN035 BKN070 01/M06 A2978 RMK AO2 SNE02B34E48 SLP063 P0000 T00111061,M
TPH,2021-03-15 16:56,-117.0904,38.0505,1654.00,43.00,21.90,42.77,170.00,16.00,0.00,29.68,1003.40,10.00,M,CLR,M,M,M,M,M,M,M,M,M,M,M,M,M,M,34.76,KTPH 151656Z AUTO 17016KT 10SM CLR 06/M06 A2968 RMK AO2 SLP034 T00611056,M
HND,2021-03-15 16:56,-115.1344,35.9729,742.79,59.00,34.00,38.87,190.00,23.00,0.00,29.82,1010.50,10.00,27.00,FEW,M,M,M,5000.00,M,M,M,M,M,M,M,29.00,200.00,2021-03-15 16:32,59.00,KHND 151656Z 19023G27KT 10SM FEW050 15/01 A2982 RMK AO2 PK WND 20029/1632 SLP105 T01500011,M
LOL,2021-03-15 16:57,-118.5701,40.0684,1192.43,34.00,25.00,69.28,260.00,16.00,T,29.77,M,2.50,20.00,OVC,M,M,M,2700.00,M,M,M,-SN,M,M,M,M,M,M,23.03,KLOL 151657Z AUTO 26016G20KT 2 1/2SM -SN OVC027 01/M04 A2977 RMK AO2 P0000 T00111039,M
INS,2021-03-15 16:58,-115.6733,36.5872,955.00,57.40,28.60,33.09,120.00,11.00,0.00,29.71,1003.70,10.00,M,CLR,M,M,M,M,M,M,M,M,M,M,M,M,M,M,57.40,KINS 151658Z AUTO 12011KT 10SM CLR 14/M02 A2971 RMK AO2 SLP037 T01411019 VISNO RWY08 $,M
LSV,2021-03-15 16:58,-115.0343,36.2362,570.00,61.70,33.80,35.03,200.00,26.00,0.00,29.77,1007.00,10.00,33.00,CLR,M,M,M,M,M,M,M,M,M,M,M,M,M,M,61.70,KLSV 151658Z AUTO 20026G33KT 10SM CLR 17/01 A2977 RMK AO2 SLP070 T01650010 $,M
LOL,2021-03-15 17:10,-118.5701,40.0684,1192.43,33.00,26.10,75.18,250.00,14.00,T,29.78,M,1.00,M,BKN,OVC,M,M,1700.00,2500.00,M,M,-SN,M,M,M,M,M,M,22.58,KLOL 151710Z AUTO 25014KT 1SM -SN BKN017 OVC025 01/M03 A2978 RMK AO2 WSHFT 1650 P0000 T00061033,M
05U,2021-03-15 17:15,-116.0051,39.6042,1811.23,48.20,17.60,29.23,160.00,18.00,0.00,29.67,M,10.00,23.00,CLR,M,M,M,M,M,M,M,M,M,M,M,M,M,M,41.07,K05U 151715Z AUTO 16018G23KT 10SM CLR 09/M08 A2967 RMK A01,M
BVU,2021-03-15 17:15,-114.8611,35.9475,671.00,62.60,30.20,29.35,200.00,13.00,0.00,29.81,M,10.00,22.00,CLR,M,M,M,M,M,M,M,M,M,M,M,M,M,M,62.60,KBVU 151715Z AUTO 20013G22KT 10SM CLR 17/M01 A2981 RMK AO2,M
TMT,2021-03-15 17:15,-117.1971,39.4643,1749.34,45.70,18.30,33.10,0.00,0.00,0.00,29.62,M,10.00,M,M,M,M,M,M,M,M,M,M,M,M,M,M,M,M,45.70,KTMT 151715Z AUTO 00000KT 10SM 08/M08 A2962 RMK AO2 T00761076,M
BAM,2021-03-15 17:15,-116.8743,40.5990,1382.36,50.00,24.80,37.08,340.00,11.00,0.00,29.63,M,10.00,M,CLR,M,M,M,M,M,M,M,M,M,M,M,M,M,M,50.00,KBAM 151715Z AUTO 34011KT 10SM CLR 10/M04 A2963 RMK AO1,M
CXP,2021-03-15 17:15,-119.7326,39.1923,1431.00,35.60,6.80,29.47,190.00,11.00,0.00,29.79,M,10.00,M,FEW,BKN,BKN,M,4300.00,5000.00,5500.00,M,M,M,M,M,M,M,M,27.02,KCXP 151715Z AUTO 19011KT 10SM FEW043 BKN050 BKN055 02/M14 A2979 RMK AO2,M
RTS,2021-03-15 17:15,-119.8764,39.6682,1539.00,32.00,12.20,43.34,300.00,13.00,0.00,29.78,M,10.00,M,FEW,M,M,M,4300.00,M,M,M,M,M,M,M,M,M,M,21.57,KRTS 151715Z AUTO 30013KT 10SM FEW043 M00/M11 A2978 RMK AO2,M
MEV,2021-03-15 17:15,-119.7500,38.9963,1441.42,35.60,6.80,29.47,250.00,6.00,0.00,29.78,M,10.00,M,FEW,FEW,M,M,5500.00,6500.00,M,M,M,M,M,M,M,M,M,29.87,KMEV 151715Z AUTO 25006KT 10SM FEW055 FEW065 02/M14 A2978 RMK AO2,M
HTH,2021-03-15 17:15,-118.6315,38.5448,1282.89,37.40,19.40,47.80,10.00,17.00,0.00,29.73,M,9.00,M,OVC,M,M,M,5000.00,M,M,M,M,M,M,M,M,M,M,27.15,KHTH 151715Z AUTO 01017KT 9SM OVC050 03/M07 A2973 RMK A01,M
LOL,2021-03-15 17:22,-118.5701,40.0684,1192.43,32.00,26.10,78.58,250.00,13.00,T,29.79,M,0.75,M,VV ,M,M,M,1300.00,M,M,M,-SN,M,M,M,M,M,M,21.57,KLOL 151722Z AUTO 25013KT 3/4SM -SN VV013 00/M03 A2979 RMK AO2 WSHFT 1650 P0000 T00001033,M
BAM,2021-03-15 17:35,-116.8743,40.5990,1382.36,50.00,26.60,39.95,340.00,10.00,0.00,29.63,M,10.00,M,SCT,M,M,M,12000.00,M,M,M,M,M,M,M,M,M,M,50.00,KBAM 151735Z AUTO 34010KT 10SM SCT120 10/M03 A2963 RMK AO1,M
HTH,2021-03-15 17:35,-118.6315,38.5448,1282.89,35.60,19.40,51.33,0.00,0.00,0.00,29.74,M,6.00,16.00,FEW,SCT,BKN,M,2500.00,4300.00,5000.00,M,HZ,M,M,M,M,M,M,35.60,KHTH 151735Z AUTO 00000G16KT 6SM HZ FEW025 SCT043 BKN050 02/M07 A2974 RMK A01,M
05U,2021-03-15 17:35,-116.0051,39.6042,1811.23,48.20,17.60,29.23,140.00,19.00,0.00,29.66,M,10.00,24.00,CLR,M,M,M,M,M,M,M,M,M,M,M,M,M,M,40.86,K05U 151735Z AUTO 14019G24KT 10SM CLR 09/M08 A2966 RMK A01,M
TMT,2021-03-15 17:35,-117.1971,39.4643,1749.34,45.50,15.60,29.68,310.00,11.00,0.00,29.62,M,10.00,16.00,M,M,M,M,M,M,M,M,M,M,M,M,M,M,M,39.53,KTMT 151735Z AUTO 31011G16KT 10SM 08/M09 A2962 RMK AO2 T00751091,M
MEV,2021-03-15 17:35,-119.7500,38.9963,1441.42,33.80,1.40,24.70,240.00,11.00,0.00,29.79,M,10.00,22.00,CLR,M,M,M,M,M,M,M,M,M,M,M,M,M,M,24.74,KMEV 151735Z AUTO 24011G22KT 10SM CLR 01/M17 A2979 RMK AO2,M
CXP,2021-03-15 17:35,-119.7326,39.1923,1431.00,35.60,6.80,29.47,240.00,9.00,0.00,29.79,M,10.00,17.00,FEW,BKN,OVC,M,4100.00,6000.00,7000.00,M,M,M,M,M,M,M,M,27.99,KCXP 151735Z AUTO 24009G17KT 210V270 10SM FEW041 BKN060 OVC070 02/M14 A2979 RMK AO2,M
BVU,2021-03-15 17:35,-114.8611,35.9475,671.00,64.40,30.20,27.55,210.00,15.00,0.00,29.80,M,10.00,M,CLR,M,M,M,M,M,M,M,M,M,M,M,M,M,M,64.40,KBVU 151735Z AUTO 21015KT 10SM CLR 18/M01 A2980 RMK AO2,M
RTS,2021-03-15 17:35,-119.8764,39.6682,1539.00,30.20,12.20,46.62,330.00,12.00,0.00,29.78,M,10.00,17.00,FEW,M,M,M,4100.00,M,M,M,M,M,M,M,M,M,M,19.71,KRTS 151735Z AUTO 33012G17KT 10SM FEW041 M01/M11 A2978 RMK AO2,M
INS,2021-03-15 17:44,-115.6733,36.5872,955.00,60.80,21.20,21.53,210.00,15.00,0.00,29.67,1002.10,10.00,19.00,CLR,M,M,M,M,M,M,M,M,M,M,M,M,M,M,60.80,KINS 151744Z AUTO 21015G19KT 10SM CLR 16/M06 A2967 RMK AO2 SLP021 58015 VISNO RWY08 $,M
LOL,2021-03-15 17:46,-118.5701,40.0684,1192.43,30.90,28.00,88.84,260.00,9.00,0.01,29.79,M,0.25,M,VV ,M,M,M,800.00,M,M,M,+SN FZFG,M,M,M,M,M,M,22.15,KLOL 151746Z AUTO 26009KT 1/4SM +SN FZFG VV008 M01/M02 A2979 RMK AO2 WSHFT 1650 P0001 T10061022,M
P68,2021-03-15 17:53,-116.0056,39.6014,1993.00,48.00,21.00,34.05,150.00,13.00,0.00,29.63,1000.50,M,21.00,M,M,M,M,M,M,M,M,M,M,M,M,28.00,140.00,2021-03-15 17:26,42.07,KP68 151753Z AUTO 15013G21KT 09/M06 A2963 RMK AO1 PK WND 14028/1726 SLP005 T00891061 10089 20011 56014,M
DRA,2021-03-15 17:53,-116.0278,36.6206,1009.00,57.00,30.90,36.86,220.00,25.00,0.00,29.69,1003.10,10.00,42.00,CLR,M,M,M,M,M,M,M,M,M,M,M,48.00,210.00,2021-03-15 17:09,57.00,KDRA 151753Z AUTO 22025G42KT 10SM CLR 14/M01 A2969 RMK AO2 PK WND 21048/1709 SLP031 T01391006 10139 20094 58012,M
VGT,2021-03-15 17:53,-115.1933,36.2111,667.00,64.00,34.00,32.56,190.00,20.00,0.00,29.71,1006.80,10.00,M,BKN,BKN,M,M,7000.00,9000.00,M,M,M,M,M,M,33.00,160.00,2021-03-15 16:58,64.00,KVGT 151753Z 19020KT 10SM BKN070 BKN090 18/01 A2971 RMK AO2 PK WND 16033/1658 SLP068 T01780011 10178 20106 50002,M
LOL,2021-03-15 17:53,-118.5701,40.0684,1192.43,30.00,28.90,95.61,260.00,8.00,0.01,29.79,1009.40,0.25,M,VV ,M,M,M,800.00,M,M,M,+SN FZFG,M,M,M,M,M,M,21.65,KLOL 151753Z AUTO 26008KT 1/4SM +SN FZFG VV008 M01/M02 A2979 RMK AO2 WSHFT 1650 SLP094 P0001 60001 T10111017 10061 21011 51028,M
ELY,2021-03-15 17:53,-114.8453,39.2950,1909.00,46.00,19.90,35.04,170.00,17.00,0.00,29.70,1002.40,M,29.00,CLR,M,M,M,M,M,M,M,M,M,M,M,29.00,160.00,2021-03-15 17:50,38.42,KELY 151753Z AUTO 17017G29KT CLR 08/M07 A2970 RMK AO2 PK WND 16029/1750 SLP024 T00781067 10083 20011 58010 $,M
INS,2021-03-15 17:54,-115.6733,36.5872,955.00,60.80,21.20,21.53,170.00,14.00,0.00,29.67,1002.30,10.00,21.00,CLR,M,M,M,M,M,M,M,M,M,M,M,M,M,M,60.80,KINS 151754Z AUTO 17014G21KT 10SM CLR 16/M06 A2967 RMK AO2 WSHFT 46 SLP023 VISNO RWY08 $,M
HTH,2021-03-15 17:55,-118.6315,38.5448,1282.89,35.60,21.20,55.41,120.00,4.00,0.00,29.75,M,9.00,M,FEW,FEW,SCT,M,2400.00,3800.00,4400.00,M,M,M,M,M,M,M,M,31.62,KHTH 151755Z AUTO 12004KT 9SM FEW024 FEW038 SCT044 02/M06 A2975 RMK A01,M
BAM,2021-03-15 17:55,-116.8743,40.5990,1382.36,51.80,24.80,34.69,320.00,9.00,0.00,29.63,M,10.00,M,BKN,M,M,M,12000.00,M,M,M,M,M,M,M,M,M,M,51.80,KBAM 151755Z AUTO 32009KT 10SM BKN120 11/M04 A2963 RMK AO1,M
BVU,2021-03-15 17:55,-114.8611,35.9475,671.00,64.40,30.20,27.55,180.00,14.00,0.00,29.79,M,10.00,20.00,CLR,M,M,M,M,M,M,M,M,M,M,M,M,M,M,64.40,KBVU 151755Z AUTO 18014G20KT 150V210 10SM CLR 18/M01 A2979 RMK AO2,M
CXP,2021-03-15 17:55,-119.7326,39.1923,1431.00,35.60,5.00,27.15,250.00,6.00,0.00,29.80,M,10.00,14.00,FEW,BKN,BKN,M,4200.00,6000.00,7000.00,M,M,M,M,M,M,M,M,29.87,KCXP 151755Z AUTO 25006G14KT 10SM FEW042 BKN060 BKN070 02/M15 A2980 RMK AO2,M
RNO,2021-03-15 17:55,-119.7711,39.4839,1341.00,36.00,6.00,28.10,290.00,12.00,0.00,29.78,1007.60,10.00,M,FEW,BKN,BKN,M,5500.00,12000.00,21000.00,M,M,M,M,M,M,M,M,27.09,KRNO 151755Z 29012KT 10SM FEW055 BKN120 BKN210 02/M14 A2978 RMK AO2 SLP076 MTN WAVE ACT AT AP CLDS TPG MTNS DSNT SW T00221144 10022 20000 51008 $,M
RTS,2021-03-15 17:55,-119.8764,39.6682,1539.00,32.00,12.20,43.34,300.00,12.00,0.00,29.78,M,10.00,M,CLR,M,M,M,M,M,M,M,M,M,M,M,M,M,M,22.00,KRTS 151755Z AUTO 30012KT 10SM CLR M00/M11 A2978 RMK AO2,M
05U,2021-03-15 17:55,-116.0051,39.6042,1811.23,48.20,17.60,29.23,180.00,10.00,0.00,29.66,M,10.00,18.00,CLR,M,M,M,M,M,M,M,M,M,M,M,M,M,M,43.28,K05U 151755Z AUTO 18010G18KT 10SM CLR 09/M08 A2966 RMK A01,M
MEV,2021-03-15 17:55,-119.7500,38.9963,1441.42,33.80,5.00,29.16,260.00,15.00,0.00,29.79,M,10.00,M,BKN,M,M,M,7000.00,M,M,M,M,M,M,M,M,M,M,23.11,KMEV 151755Z AUTO 26015KT 10SM BKN070 01/M15 A2979 RMK AO2,M
TMT,2021-03-15 17:55,-117.1971,39.4643,1749.34,42.40,19.60,39.69,300.00,16.00,0.00,29.63,M,10.00,20.00,M,M,M,M,M,M,M,M,M,M,M,M,M,M,M,33.97,KTMT 151755Z AUTO 30016G20KT 10SM 06/M07 A2963 RMK AO2 T00581069 10088 21091,M
TPH,2021-03-15 17:56,-117.0904,38.0505,1654.00,45.00,28.00,51.08,190.00,20.00,0.00,29.66,1002.90,10.00,25.00,FEW,M,M,M,3400.00,M,M,M,M,M,M,M,26.00,180.00,2021-03-15 17:39,36.41,KTPH 151756Z AUTO 19020G25KT 10SM FEW034 07/M02 A2966 RMK AO2 PK WND 18026/1739 SLP029 T00721022 10072 21028 58011,M
HND,2021-03-15 17:56,-115.1344,35.9729,742.79,61.00,35.00,37.81,210.00,23.00,0.00,29.79,1009.40,10.00,28.00,FEW,M,M,M,5500.00,M,M,M,M,M,M,M,28.00,220.00,2021-03-15 17:52,61.00,KHND 151756Z 21023G28KT 10SM FEW055 16/02 A2979 RMK AO2 PK WND 22028/1752 SLP094 T01610017 10161 20100 58013,M
WMC,2021-03-15 17:56,-117.8072,40.9019,1315.00,42.00,28.00,57.08,280.00,18.00,0.00,29.70,1005.20,10.00,27.00,OVC,M,M,M,9000.00,M,M,M,M,M,M,M,27.00,270.00,2021-03-15 17:43,33.04,KWMC 151756Z AUTO 28018G27KT 10SM OVC090 06/M02 A2970 RMK AO2 PK WND 27027/1743 SLP052 T00561022 10061 21006 52013,M
INS,2021-03-15 17:56,-115.6733,36.5872,955.00,60.80,21.20,21.53,120.00,13.00,0.00,29.66,1001.90,10.00,21.00,CLR,M,M,M,M,M,M,M,M,M,M,M,M,M,M,60.80,KINS 151756Z AUTO 12013G21KT 10SM CLR 16/M06 A2966 RMK AO2 WSHFT 54 SLP019 VISNO RWY08 $,M
EKO,2021-03-15 17:56,-115.7860,40.8242,1367.00,52.00,19.00,26.95,180.00,12.00,0.00,29.63,1001.60,10.00,M,BKN,M,M,M,11000.00,M,M,M,M,M,M,M,M,M,M,52.00,KEKO 151756Z AUTO 18012KT 10SM BKN110 11/M07 A2963 RMK AO2 SLP016 T01111072 10111 20000 58013,M
LAS,2021-03-15 17:56,-115.1634,36.0719,663.00,60.00,34.00,37.37,220.00,9.00,0.00,29.78,1007.60,10.00,22.00,FEW,FEW,M,M,6500.00,11000.00,M,M,M,M,M,M,33.00,210.00,2021-03-15 17:39,60.10,KLAS 151756Z 22009G22KT 10SM FEW065 FEW110 16/01 A2978 RMK AO2 PK WND 21033/1739 SLP076 T01560011 10156 20122,M
NFL,2021-03-15 17:56,-118.7010,39.4166,1199.00,33.00,26.10,75.18,60.00,10.00,0.00,29.79,1006.60,10.00,M,FEW,SCT,BKN,M,1500.00,3000.00,6000.00,M,M,M,M,M,M,M,M,24.35,KNFL 151756Z 06010KT 10SM FEW015 SCT030 BKN060 01/M03 A2979 RMK AO2 WSHFT 1730 SLP066 60000 T00061033 10061 20000 51021,M
LSV,2021-03-15 17:58,-115.0343,36.2362,570.00,63.00,35.00,35.11,190.00,26.00,0.00,29.75,1006.40,10.00,33.00,CLR,M,M,M,M,M,M,M,M,M,M,M,M,M,M,63.10,KLSV 151758Z AUTO 19026G33KT 10SM CLR 17/02 A2975 RMK AO2 SLP064 T01730017 10173 20109 55007 $,M
INS,2021-03-15 17:58,-115.6733,36.5872,955.00,61.30,23.20,23.01,110.00,14.00,0.00,29.66,1001.90,10.00,21.00,CLR,M,M,M,M,M,M,M,M,M,M,M,M,M,M,61.30,KINS 151758Z AUTO 11014G21KT 10SM CLR 16/M05 A2966 RMK AO2 SLP019 T01631049 10163 20079 58015 VISNO RWY08 $,M
INS,2021-03-15 18:00,-115.6733,36.5872,955.00,60.80,24.80,25.04,80.00,11.00,0.00,29.66,1001.90,10.00,21.00,FEW,M,M,M,19000.00,M,M,M,M,M,M,M,M,M,M,60.80,KINS 151800Z AUTO 08011G21KT 10SM FEW190 16/M04 A2966 RMK AO2 WSHFT 1756 SLP019 VISNO RWY08 $,M
LOL,2021-03-15 18:00,-118.5701,40.0684,1192.43,30.90,28.90,92.18,240.00,6.00,T,29.79,M,0.50,M,VV ,M,M,M,1000.00,M,M,M,SN FZFG,M,M,M,M,M,M,24.21,KLOL 151800Z AUTO 24006KT 1/2SM SN FZFG VV010 M01/M02 A2979 RMK AO2 P0000 T10061017,M
LOL,2021-03-15 18:13,-118.5701,40.0684,1192.43,30.90,30.00,96.41,220.00,5.00,0.01,29.79,M,1.50,M,BKN,OVC,M,M,1400.00,3100.00,M,M,-SN BR,M,M,M,M,M,M,25.09,KLOL 151813Z AUTO 22005KT 1 1/2SM -SN BR BKN014 OVC031 M01/M01 A2979 RMK AO2 P0001 T10061011,M
MEV,2021-03-15 18:15,-119.7500,38.9963,1441.42,33.80,5.00,29.16,250.00,10.00,0.00,29.79,M,10.00,20.00,FEW,SCT,M,M,7000.00,8000.00,M,M,M,M,M,M,M,M,M,25.23,KMEV 151815Z AUTO 25010G20KT 10SM FEW070 SCT080 01/M15 A2979 RMK AO2,M
HTH,2021-03-15 18:15,-118.6315,38.5448,1282.89,35.60,23.00,59.79,110.00,7.00,0.00,29.76,M,10.00,M,FEW,SCT,BKN,M,2200.00,2900.00,4400.00,M,M,M,M,M,M,M,M,29.17,KHTH 151815Z AUTO 11007KT 10SM FEW022 SCT029 BKN044 02/M05 A2976 RMK A01,M
05U,2021-03-15 18:15,-116.0051,39.6042,1811.23,50.00,17.60,27.33,160.00,15.00,0.00,29.64,M,10.00,M,CLR,M,M,M,M,M,M,M,M,M,M,M,M,M,M,50.00,K05U 151815Z AUTO 16015KT 140V200 10SM CLR 10/M08 A2964 RMK A01,M
BAM,2021-03-15 18:15,-116.8743,40.5990,1382.36,51.80,23.00,32.17,330.00,5.00,0.00,29.63,M,10.00,M,BKN,M,M,M,11000.00,M,M,M,M,M,M,M,M,M,M,51.80,KBAM 151815Z AUTO 33005KT 10SM BKN110 11/M05 A2963 RMK AO1,M
TMT,2021-03-15 18:15,-117.1971,39.4643,1749.34,40.00,20.70,45.82,300.00,15.00,0.00,29.64,M,10.00,20.00,M,M,M,M,M,M,M,M,M,M,M,M,M,M,M,31.02,KTMT 151815Z AUTO 30015G20KT 10SM 04/M06 A2964 RMK AO2 T00441063,M
BVU,2021-03-15 18:15,-114.8611,35.9475,671.00,64.40,32.00,29.63,200.00,19.00,0.00,29.78,M,10.00,24.00,BKN,M,M,M,6500.00,M,M,M,M,M,M,M,M,M,M,64.40,KBVU 151815Z AUTO 20019G24KT 10SM BKN065 18/M00 A2978 RMK AO2,M
CXP,2021-03-15 18:15,-119.7326,39.1923,1431.00,37.40,3.20,23.28,260.00,8.00,0.00,29.79,M,10.00,15.00,FEW,FEW,M,M,6000.00,7000.00,M,M,M,M,M,M,M,M,M,30.76,KCXP 151815Z AUTO 26008G15KT 10SM FEW060 FEW070 03/M16 A2979 RMK AO2,M
RTS,2021-03-15 18:15,-119.8764,39.6682,1539.00,32.00,14.00,46.92,310.00,14.00,0.00,29.79,M,10.00,M,CLR,M,M,M,M,M,M,M,M,M,M,M,M,M,M,21.16,KRTS 151815Z AUTO 31014KT 10SM CLR 00/M10 A2979 RMK AO2,M
LOL,2021-03-15 18:20,-118.5701,40.0684,1192.43,30.90,28.90,92.18,220.00,5.00,0.01,29.80,M,1.75,M,BKN,OVC,M,M,1800.00,3100.00,M,M,-SN BR,M,M,M,M,M,M,25.09,KLOL 151820Z AUTO 22005KT 1 3/4SM -SN BR BKN018 OVC031 M01/M02 A2980 RMK AO2 P0001 T10061017,M
LOL,2021-03-15 18:34,-118.5701,40.0684,1192.43,30.90,28.90,92.18,220.00,7.00,0.01,29.81,M,0.75,M,VV ,M,M,M,1500.00,M,M,M,-SN BR,M,M,M,M,M,M,23.44,KLOL 151834Z AUTO 22007KT 3/4SM -SN BR VV015 M01/M02 A2981 RMK AO2 P0001 T10061017,M
TMT,2021-03-15 18:35,-117.1971,39.4643,1749.34,39.60,22.30,49.61,310.00,15.00,0.00,29.65,M,10.00,M,M,M,M,M,M,M,M,M,M,M,M,M,M,M,M,30.63,KTMT 151835Z AUTO 31015KT 10SM 04/M05 A2965 RMK AO2 T00421054,M
HTH,2021-03-15 18:35,-118.6315,38.5448,1282.89,37.40,19.40,47.80,20.00,12.00,0.00,29.77,M,10.00,M,SCT,SCT,SCT,M,4000.00,5500.00,7000.00,M,M,M,M,M,M,M,M,28.87,KHTH 151835Z AUTO 02012KT 10SM SCT040 SCT055 SCT070 03/M07 A2977 RMK A01,M
RTS,2021-03-15 18:35,-119.8764,39.6682,1539.00,33.80,12.20,40.32,310.00,13.00,0.00,29.80,M,10.00,19.00,CLR,M,M,M,M,M,M,M,M,M,M,M,M,M,M,23.87,KRTS 151835Z AUTO 31013G19KT 10SM CLR 01/M11 A2980 RMK AO2,M
BVU,2021-03-15 18:35,-114.8611,35.9475,671.00,66.20,32.00,27.83,200.00,19.00,0.00,29.77,M,10.00,26.00,BKN,BKN,M,M,7000.00,8000.00,M,M,M,M,M,M,M,M,M,66.20,KBVU 151835Z AUTO 20019G26KT 10SM BKN070 BKN080 19/M00 A2977 RMK AO2,M
05U,2021-03-15 18:35,-116.0051,39.6042,1811.23,51.80,17.60,25.56,160.00,15.00,0.00,29.63,M,10.00,23.00,CLR,M,M,M,M,M,M,M,M,M,M,M,M,M,M,51.80,K05U 151835Z AUTO 16015G23KT 10SM CLR 11/M08 A2963 RMK A01,M
BAM,2021-03-15 18:35,-116.8743,40.5990,1382.36,51.80,23.00,32.17,300.00,4.00,0.00,29.63,M,10.00,M,SCT,M,M,M,11000.00,M,M,M,M,M,M,M,M,M,M,51.80,KBAM 151835Z AUTO 30004KT 10SM SCT110 11/M05 A2963 RMK AO1,M
CXP,2021-03-15 18:35,-119.7326,39.1923,1431.00,37.40,3.20,23.28,200.00,7.00,0.00,29.80,M,10.00,16.00,CLR,M,M,M,M,M,M,M,M,M,M,M,M,M,M,31.36,KCXP 151835Z AUTO 20007G16KT 160V220 10SM CLR 03/M16 A2980 RMK AO2,M
MEV,2021-03-15 18:35,-119.7500,38.9963,1441.42,37.40,5.00,25.28,280.00,15.00,0.00,29.79,M,10.00,M,FEW,M,M,M,6000.00,M,M,M,M,M,M,M,M,M,M,27.78,KMEV 151835Z AUTO 28015KT 10SM FEW060 03/M15 A2979 RMK AO2,M
INS,2021-03-15 18:36,-115.6733,36.5872,955.00,60.80,21.20,21.53,190.00,30.00,0.00,29.62,1000.60,10.00,40.00,CLR,M,M,M,M,M,M,M,M,M,M,M,M,M,M,60.80,KINS 151836Z AUTO 19030G40KT 10SM CLR 16/M06 A2962 RMK AO2 PRESFR SLP006 VISNO RWY08 $,M
LOL,2021-03-15 18:42,-118.5701,40.0684,1192.43,30.90,28.90,92.18,230.00,5.00,0.01,29.81,M,0.50,M,VV ,M,M,M,1300.00,M,M,M,SN FZFG,M,M,M,M,M,M,25.09,KLOL 151842Z AUTO 23005KT 1/2SM SN FZFG VV013 M01/M02 A2981 RMK AO2 P0001 T10061017,M
DRA,2021-03-15 18:53,-116.0278,36.6206,1009.00,57.00,30.00,35.54,190.00,30.00,0.00,29.66,1001.80,10.00,56.00,CLR,M,M,M,M,M,M,M,M,M,M,M,56.00,210.00,2021-03-15 18:51,57.00,KDRA 151853Z AUTO 19030G56KT 10SM CLR 14/M01 A2966 RMK AO2 PK WND 21056/1851 SLP018 T01391011,M
LOL,2021-03-15 18:53,-118.5701,40.0684,1192.43,30.90,30.00,96.41,230.00,4.00,0.02,29.81,1009.90,0.50,M,VV ,M,M,M,1100.00,M,M,M,SN FZFG,M,M,M,M,M,M,26.14,KLOL 151853Z AUTO 23004KT 1/2SM SN FZFG VV011 M01/M01 A2981 RMK AO2 SLP099 P0002 T10061011,M
VGT,2021-03-15 18:53,-115.1933,36.2111,667.00,66.00,30.00,25.85,210.00,17.00,0.00,29.69,1005.90,10.00,24.00,BKN,M,M,M,7000.00,M,M,M,M,M,M,M,27.00,180.00,2021-03-15 18:06,66.00,KVGT 151853Z 21017G24KT 10SM BKN070 19/M01 A2969 RMK AO2 PK WND 18027/1806 SLP059 T01891011,M
ELY,2021-03-15 18:53,-114.8453,39.2950,1909.00,48.00,19.90,32.50,160.00,23.00,0.00,29.67,1001.60,M,31.00,CLR,M,M,M,M,M,M,M,M,M,M,M,31.00,160.00,2021-03-15 18:53,39.82,KELY 151853Z AUTO 16023G31KT CLR 09/M07 A2967 RMK AO2 PK WND 16031/1853 SLP016 T00891067 $,M
P68,2021-03-15 18:53,-116.0056,39.6014,1993.00,51.00,19.90,28.95,160.00,23.00,0.00,29.60,999.40,M,33.00,M,M,M,M,M,M,M,M,M,M,M,M,33.00,160.00,2021-03-15 18:47,51.10,KP68 151853Z AUTO 16023G33KT 11/M07 A2960 RMK AO1 PK WND 16033/1847 SLP994 T01061067,M
TMT,2021-03-15 18:55,-117.1971,39.4643,1749.34,41.00,21.90,46.19,320.00,12.00,0.00,29.66,M,10.00,15.00,M,M,M,M,M,M,M,M,M,M,M,M,M,M,M,33.46,KTMT 151855Z AUTO 32012G15KT 10SM 05/M06 A2966 RMK AO2 T00501056,M
CXP,2021-03-15 18:55,-119.7326,39.1923,1431.00,39.20,5.00,23.56,M,4.00,0.00,29.79,M,10.00,12.00,FEW,M,M,M,6500.00,M,M,M,M,M,M,M,M,M,M,35.83,KCXP 151855Z AUTO VRB04G12KT 10SM FEW065 04/M15 A2979 RMK AO2,M
05U,2021-03-15 18:55,-116.0051,39.6042,1811.23,51.80,15.80,23.65,160.00,21.00,0.00,29.62,M,10.00,29.00,CLR,M,M,M,M,M,M,M,M,M,M,M,M,M,M,51.80,K05U 151855Z AUTO 16021G29KT 10SM CLR 11/M09 A2962 RMK A01,M
MEV,2021-03-15 18:55,-119.7500,38.9963,1441.42,37.40,3.20,23.28,270.00,11.00,0.00,29.79,M,10.00,21.00,CLR,M,M,M,M,M,M,M,M,M,M,M,M,M,M,29.29,KMEV 151855Z AUTO 27011G21KT 10SM CLR 03/M16 A2979 RMK AO2,M
BAM,2021-03-15 18:55,-116.8743,40.5990,1382.36,53.60,23.00,30.11,290.00,8.00,0.00,29.63,M,10.00,M,BKN,M,M,M,12000.00,M,M,M,M,M,M,M,M,M,M,53.60,KBAM 151855Z AUTO 29008KT 10SM BKN120 12/M05 A2963 RMK AO1,M
BVU,2021-03-15 18:55,-114.8611,35.9475,671.00,64.40,30.20,27.55,220.00,23.00,0.00,29.76,M,10.00,M,BKN,BKN,M,M,7000.00,8000.00,M,M,M,M,M,M,M,M,M,64.40,KBVU 151855Z AUTO 22023KT 10SM BKN070 BKN080 18/M01 A2976 RMK AO2,M
RNO,2021-03-15 18:55,-119.7711,39.4839,1341.00,39.00,12.00,32.54,350.00,14.00,0.00,29.79,1007.70,10.00,M,SCT,BKN,BKN,M,6000.00,12000.00,23000.00,M,M,M,M,M,M,M,M,30.19,KRNO 151855Z 35014KT 10SM SCT060 BKN120 BKN230 04/M11 A2979 RMK AO2 SLP077 MTN WAVE ACT AT AP CLDS TPG MTNS DSNT SW T00391111 $,M
RTS,2021-03-15 18:55,-119.8764,39.6682,1539.00,33.80,10.40,37.22,310.00,11.00,0.00,29.80,M,10.00,17.00,FEW,SCT,M,M,4600.00,5000.00,M,M,M,M,M,M,M,M,M,24.74,KRTS 151855Z AUTO 31011G17KT 10SM FEW046 SCT050 01/M12 A2980 RMK AO2,M
HTH,2021-03-15 18:55,-118.6315,38.5448,1282.89,37.40,15.80,40.93,20.00,13.00,0.00,29.77,M,10.00,18.00,FEW,SCT,BKN,M,4000.00,5000.00,6000.00,M,M,M,M,M,M,M,M,28.49,KHTH 151855Z AUTO 02013G18KT 340V040 10SM FEW040 SCT050 BKN060 03/M09 A2977 RMK A01,M
LAS,2021-03-15 18:56,-115.1634,36.0719,663.00,63.00,33.00,32.53,210.00,10.00,0.00,29.75,1006.50,10.00,20.00,FEW,FEW,M,M,6500.00,8500.00,M,M,M,M,M,M,26.00,200.00,2021-03-15 18:14,63.00,KLAS 151856Z 21010G20KT 10SM FEW065 FEW085 17/01 A2975 RMK AO2 PK WND 20026/1814 SLP065 T01720006,M
HND,2021-03-15 18:56,-115.1344,35.9729,742.79,62.00,32.00,32.13,210.00,21.00,0.00,29.76,1008.30,10.00,29.00,CLR,M,M,M,M,M,M,M,M,M,M,M,30.00,200.00,2021-03-15 18:26,62.10,KHND 151856Z 21021G29KT 10SM CLR 17/00 A2976 RMK AO2 PK WND 20030/1826 SLP083 T01670000,M
EKO,2021-03-15 18:56,-115.7860,40.8242,1367.00,58.00,19.90,22.59,180.00,12.00,0.00,29.61,1001.00,10.00,20.00,BKN,M,M,M,11000.00,M,M,M,M,M,M,M,M,M,M,57.90,KEKO 151856Z AUTO 18012G20KT 10SM BKN110 14/M07 A2961 RMK AO2 SLP010 T01441067,M
NFL,2021-03-15 18:56,-118.7010,39.4166,1199.00,34.00,26.10,72.52,70.00,10.00,0.00,29.81,1007.10,10.00,M,SCT,BKN,BKN,M,3000.00,5000.00,8000.00,M,M,M,M,M,M,M,M,25.48,KNFL 151856Z 07010KT 10SM SCT030 BKN050 BKN080 01/M03 A2981 RMK AO2 SLP071 T00111033,M
WMC,2021-03-15 18:56,-117.8072,40.9019,1315.00,41.00,25.00,52.61,260.00,20.00,0.00,29.73,1006.80,10.00,28.00,FEW,BKN,M,M,2800.00,3800.00,M,M,M,M,M,M,33.00,270.00,2021-03-15 18:22,31.09,KWMC 151856Z AUTO 26020G28KT 10SM FEW028 BKN038 05/M04 A2973 RMK AO2 PK WND 27033/1822 SLP068 T00501039,M
TPH,2021-03-15 18:56,-117.0904,38.0505,1654.00,46.00,28.90,51.03,170.00,18.00,0.00,29.65,1002.50,10.00,M,FEW,SCT,OVC,M,3500.00,4500.00,5500.00,M,M,M,M,M,M,M,M,38.18,KTPH 151856Z AUTO 17018KT 10SM FEW035 SCT045 OVC055 08/M02 A2965 RMK AO2 SLP025 T00781017,M
LSV,2021-03-15 18:58,-115.0343,36.2362,570.00,65.50,32.40,28.98,200.00,25.00,0.00,29.72,1005.20,10.00,34.00,CLR,M,M,M,M,M,M,M,M,M,M,M,38.00,210.00,2021-03-15 18:35,65.50,KLSV 151858Z AUTO 20025G34KT 10SM CLR 19/00 A2972 RMK AO2 PK WND 21038/35 SLP052 T01860002 $,M
INS,2021-03-15 18:58,-115.6733,36.5872,955.00,60.00,22.10,22.93,190.00,20.00,0.00,29.63,1000.90,10.00,35.00,CLR,M,M,M,M,M,M,M,M,M,M,M,42.00,190.00,2021-03-15 18:41,60.10,KINS 151858Z AUTO 19020G35KT 10SM CLR 16/M05 A2963 RMK AO2 PK WND 19042/41 SLP009 T01561055 VISNO RWY08 $,M
RNO,2021-03-15 19:10,-119.7711,39.4839,1341.00,39.00,12.90,33.86,350.00,11.00,0.00,29.79,M,10.00,20.00,SCT,BKN,BKN,M,6500.00,12000.00,23000.00,M,M,M,M,M,M,M,M,31.31,KRNO 151910Z 35011G20KT 10SM SCT065 BKN120 BKN230 04/M11 A2979 RMK AO2 WSHFT 1850 MTN WAVE ACT AT AP CLDS TPG MTNS DSNT SW T00391106 $,M
CXP,2021-03-15 19:10,-119.7326,39.1923,1431.00,37.40,5.00,25.28,M,4.00,0.00,29.79,M,10.00,10.00,SCT,M,M,M,6500.00,M,M,M,M,M,M,M,M,M,M,33.73,KCXP 151910Z AUTO VRB04G10KT 10SM SCT065 03/M15 A2979 RMK AO2,M
RTS,2021-03-15 19:10,-119.8764,39.6682,1539.00,33.80,8.60,34.34,280.00,11.00,0.00,29.80,M,10.00,17.00,FEW,BKN,BKN,M,4300.00,5000.00,5500.00,M,M,M,M,M,M,M,M,24.74,KRTS 151910Z AUTO 28011G17KT 10SM FEW043 BKN050 BKN055 01/M13 A2980 RMK AO2,M
05U,2021-03-15 19:15,-116.0051,39.6042,1811.23,51.80,17.60,25.56,170.00,16.00,0.00,29.61,M,10.00,23.00,CLR,M,M,M,M,M,M,M,M,M,M,M,M,M,M,51.80,K05U 151915Z AUTO 17016G23KT 10SM CLR 11/M08 A2961 RMK A01,M
TMT,2021-03-15 19:15,-117.1971,39.4643,1749.34,42.00,22.80,46.34,320.00,13.00,0.00,29.67,M,10.00,19.00,M,M,M,M,M,M,M,M,M,M,M,M,M,M,M,34.25,KTMT 151915Z AUTO 32013G19KT 10SM 06/M05 A2967 RMK AO2 T00551051,M
HTH,2021-03-15 19:15,-118.6315,38.5448,1282.89,35.60,15.80,43.95,360.00,15.00,0.00,29.78,M,10.00,21.00,BKN,BKN,M,M,5500.00,6500.00,M,M,M,M,M,M,M,M,M,25.45,KHTH 151915Z AUTO 36015G21KT 10SM BKN055 BKN065 02/M09 A2978 RMK A01,M
BVU,2021-03-15 19:15,-114.8611,35.9475,671.00,68.00,32.00,26.15,210.00,19.00,0.00,29.74,M,10.00,24.00,SCT,SCT,M,M,7000.00,8000.00,M,M,M,M,M,M,M,M,M,68.00,KBVU 151915Z AUTO 21019G24KT 10SM SCT070 SCT080 20/M00 A2974 RMK AO2,M
MEV,2021-03-15 19:15,-119.7500,38.9963,1441.42,37.40,5.00,25.28,290.00,11.00,0.00,29.79,M,10.00,19.00,CLR,M,M,M,M,M,M,M,M,M,M,M,M,M,M,29.29,KMEV 151915Z AUTO 29011G19KT 10SM CLR 03/M15 A2979 RMK AO2,M
BAM,2021-03-15 19:15,-116.8743,40.5990,1382.36,51.80,21.20,29.82,310.00,5.00,0.00,29.63,M,10.00,M,BKN,BKN,BKN,M,7500.00,8500.00,12000.00,M,M,M,M,M,M,M,M,51.80,KBAM 151915Z AUTO 31005KT 10SM BKN075 BKN085 BKN120 11/M06 A2963 RMK AO1,M
LOL,2021-03-15 19:34,-118.5701,40.0684,1192.43,30.90,30.00,96.41,250.00,5.00,0.03,29.82,M,0.75,M,FEW,OVC,M,M,500.00,1000.00,M,M,-SN BR,M,M,M,M,M,M,25.09,KLOL 151934Z AUTO 25005KT 3/4SM -SN BR FEW005 OVC010 M01/M01 A2982 RMK AO2 P0003 T10061011,M
HTH,2021-03-15 19:35,-118.6315,38.5448,1282.89,37.40,12.20,34.96,20.00,16.00,0.00,29.78,M,10.00,22.00,SCT,M,M,M,5500.00,M,M,M,M,M,M,M,M,M,M,27.46,KHTH 151935Z AUTO 02016G22KT 10SM SCT055 03/M11 A2978 RMK A01,M
BAM,2021-03-15 19:35,-116.8743,40.5990,1382.36,50.00,23.00,34.39,220.00,12.00,0.00,29.63,M,4.00,M,OVC,M,M,M,7500.00,M,M,M,M,M,M,M,M,M,M,50.00,KBAM 151935Z AUTO 22012KT 4SM OVC075 10/M05 A2963 RMK AO1,M
RTS,2021-03-15 19:35,-119.8764,39.6682,1539.00,33.80,8.60,34.34,310.00,7.00,0.00,29.80,M,10.00,14.00,BKN,BKN,M,M,5000.00,7000.00,M,M,M,M,M,M,M,M,M,26.97,KRTS 151935Z AUTO 31007G14KT 280V340 10SM BKN050 BKN070 01/M13 A2980 RMK AO2,M
TMT,2021-03-15 19:35,-117.1971,39.4643,1749.34,39.60,23.50,52.17,310.00,15.00,0.00,29.68,M,10.00,19.00,M,M,M,M,M,M,M,M,M,M,M,M,M,M,M,30.63,KTMT 151935Z AUTO 31015G19KT 10SM 04/M05 A2968 RMK AO2 T00421047,M
CXP,2021-03-15 19:35,-119.7326,39.1923,1431.00,41.00,1.40,18.60,M,6.00,0.00,29.80,M,10.00,M,BKN,BKN,M,M,6500.00,8000.00,M,M,M,M,M,M,M,M,M,36.37,KCXP 151935Z AUTO VRB06KT 10SM BKN065 BKN080 05/M17 A2980 RMK AO2,M
05U,2021-03-15 19:35,-116.0051,39.6042,1811.23,51.80,17.60,25.56,160.00,16.00,0.00,29.62,M,10.00,29.00,FEW,M,M,M,7000.00,M,M,M,M,M,M,M,M,M,M,51.80,K05U 151935Z AUTO 16016G29KT 10SM FEW070 11/M08 A2962 RMK A01,M
BVU,2021-03-15 19:35,-114.8611,35.9475,671.00,66.20,32.00,27.83,210.00,14.00,0.00,29.74,M,10.00,19.00,BKN,M,M,M,7000.00,M,M,M,M,M,M,M,M,M,M,66.20,KBVU 151935Z AUTO 21014G19KT 170V230 10SM BKN070 19/M00 A2974 RMK AO2,M
MEV,2021-03-15 19:35,-119.7500,38.9963,1441.42,39.20,1.40,19.95,260.00,12.00,0.00,29.80,M,10.00,20.00,CLR,M,M,M,M,M,M,M,M,M,M,M,M,M,M,31.17,KMEV 151935Z AUTO 26012G20KT 10SM CLR 04/M17 A2980 RMK AO2,M
LOL,2021-03-15 19:43,-118.5701,40.0684,1192.43,30.90,28.90,92.18,0.00,0.00,0.03,29.83,M,1.50,M,FEW,BKN,OVC,M,700.00,1600.00,2700.00,M,-SN BR,M,M,M,M,M,M,30.90,KLOL 151943Z AUTO 00000KT 1 1/2SM -SN BR FEW007 BKN016 OVC027 M01/M02 A2983 RMK AO2 VIS 3/4V2 1/2 P0003 T10061017,M
P68,2021-03-15 19:53,-116.0056,39.6014,1993.00,52.00,19.90,28.01,170.00,18.00,0.00,29.60,999.40,M,31.00,M,M,M,M,M,M,M,M,M,M,M,M,31.00,160.00,2021-03-15 19:24,52.00,KP68 151953Z AUTO 17018G31KT 11/M07 A2960 RMK AO1 PK WND 16031/1924 SLP994 T01111067,M
LOL,2021-03-15 19:53,-118.5701,40.0684,1192.43,32.00,28.90,88.17,0.00,0.00,0.03,29.83,1010.80,1.25,M,FEW,OVC,M,M,500.00,1800.00,M,M,-SN BR,M,M,M,M,M,M,32.00,KLOL 151953Z AUTO 00000KT 1 1/4SM -SN BR FEW005 OVC018 00/M02 A2983 RMK AO2 SLP108 P0003 T00001017,M
VGT,2021-03-15 19:53,-115.1933,36.2111,667.00,67.00,30.00,25.05,190.00,24.00,0.00,29.65,1004.60,10.00,32.00,SCT,M,M,M,7500.00,M,M,M,M,M,M,M,36.00,200.00,2021-03-15 19:20,66.90,KVGT 151953Z 19024G32KT 10SM SCT075 19/M01 A2965 RMK AO2 PK WND 20036/1920 SLP046 T01941011,M
ELY,2021-03-15 19:53,-114.8453,39.2950,1909.00,49.00,19.90,31.42,170.00,21.00,0.00,29.65,1001.70,M,31.00,BKN,M,M,M,6500.00,M,M,M,M,M,M,M,31.00,170.00,2021-03-15 19:50,41.39,KELY 151953Z AUTO 17021G31KT BKN065 09/M07 A2965 RMK AO2 PK WND 17031/1950 SLP017 T00941067 $,M
MEV,2021-03-15 19:55,-119.7500,38.9963,1441.42,39.20,1.40,19.95,270.00,11.00,0.00,29.80,M,10.00,M,CLR,M,M,M,M,M,M,M,M,M,M,M,M,M,M,31.57,KMEV 151955Z AUTO 27011KT 10SM CLR 04/M17 A2980 RMK AO2,M
BAM,2021-03-15 19:55,-116.8743,40.5990,1382.36,51.80,24.80,34.69,300.00,9.00,0.00,29.64,M,10.00,M,BKN,OVC,M,M,6500.00,8000.00,M,M,M,M,M,M,M,M,M,51.80,KBAM 151955Z AUTO 30009KT 10SM BKN065 OVC080 11/M04 A2964 RMK AO1,M
RTS,2021-03-15 19:55,-119.8764,39.6682,1539.00,33.80,6.80,31.66,300.00,9.00,0.00,29.80,M,10.00,18.00,SCT,BKN,BKN,M,5500.00,6500.00,8000.00,M,M,M,M,M,M,M,M,25.75,KRTS 151955Z AUTO 30009G18KT 10SM SCT055 BKN065 BKN080 01/M14 A2980 RMK AO2,M
05U,2021-03-15 19:55,-116.0051,39.6042,1811.23,53.60,17.60,23.93,170.00,17.00,0.00,29.62,M,10.00,23.00,BKN,BKN,M,M,6500.00,7500.00,M,M,M,M,M,M,M,M,M,53.60,K05U 151955Z AUTO 17017G23KT 10SM BKN065 BKN075 12/M08 A2962 RMK A01,M
BVU,2021-03-15 19:55,-114.8611,35.9475,671.00,68.00,30.20,24.32,180.00,21.00,0.00,29.72,M,10.00,26.00,BKN,M,M,M,7000.00,M,M,M,M,M,M,M,M,M,M,68.00,KBVU 151955Z AUTO 18021G26KT 10SM BKN070 20/M01 A2972 RMK AO2,M
RNO,2021-03-15 19:55,-119.7711,39.4839,1341.00,39.00,9.00,28.47,290.00,9.00,0.00,29.80,1008.30,10.00,18.00,BKN,BKN,OVC,M,6000.00,12000.00,20000.00,M,M,M,M,M,M,M,M,32.22,KRNO 151955Z 29009G18KT 240V330 10SM BKN060 BKN120 OVC200 04/M13 A2980 RMK AO2 WSHFT 1850 SLP083 SH VC SE THRU W MTNS OBSCD SW THRU W T00391128 $,M
TMT,2021-03-15 19:55,-117.1971,39.4643,1749.34,38.00,22.80,54.14,320.00,13.00,0.00,29.68,M,10.00,M,M,M,M,M,M,M,M,M,M,M,M,M,M,M,M,29.13,KTMT 151955Z AUTO 32013KT 10SM 03/M05 A2968 RMK AO2 T00331051,M
HTH,2021-03-15 19:55,-118.6315,38.5448,1282.89,37.40,6.80,27.45,20.00,16.00,0.00,29.78,M,10.00,M,FEW,M,M,M,7500.00,M,M,M,M,M,M,M,M,M,M,27.46,KHTH 151955Z AUTO 02016KT 10SM FEW075 03/M14 A2978 RMK A01,M
CXP,2021-03-15 19:55,-119.7326,39.1923,1431.00,41.00,1.40,18.60,10.00,6.00,0.00,29.80,M,10.00,M,SCT,OVC,M,M,7000.00,8000.00,M,M,M,M,M,M,M,M,M,36.37,KCXP 151955Z AUTO 01006KT 10SM SCT070 OVC080 05/M17 A2980 RMK AO2,M
WMC,2021-03-15 19:56,-117.8072,40.9019,1315.00,37.00,24.10,59.24,260.00,21.00,0.00,29.74,1007.40,10.00,26.00,OVC,M,M,M,4000.00,M,M,M,M,M,M,M,29.00,260.00,2021-03-15 19:00,25.52,KWMC 151956Z AUTO 26021G26KT 10SM OVC040 03/M04 A2974 RMK AO2 PK WND 26029/1900 SLP074 T00281044,M
HND,2021-03-15 19:56,-115.1344,35.9729,742.79,64.00,33.00,31.41,220.00,20.00,0.00,29.72,1007.10,10.00,23.00,CLR,M,M,M,M,M,M,M,M,M,M,M,30.00,210.00,2021-03-15 19:31,64.00,KHND 151956Z 22020G23KT 10SM CLR 18/01 A2972 RMK AO2 PK WND 21030/1931 SLP071 T01780006,M
LAS,2021-03-15 19:56,-115.1634,36.0719,663.00,63.00,33.00,32.53,240.00,15.00,0.00,29.71,1005.00,10.00,28.00,FEW,SCT,M,M,6500.00,8500.00,M,M,M,M,M,M,29.00,220.00,2021-03-15 19:03,63.00,KLAS 151956Z 24015G28KT 10SM FEW065 SCT085 17/01 A2971 RMK AO2 PK WND 22029/1903 SLP050 T01720006,M
EKO,2021-03-15 19:56,-115.7860,40.8242,1367.00,55.00,18.00,23.13,M,4.00,0.00,29.60,1000.70,10.00,14.00,SCT,M,M,M,12000.00,M,M,M,M,M,M,M,M,M,M,55.00,KEKO 151956Z AUTO VRB04G14KT 10SM SCT120 13/M08 A2960 RMK AO2 SLP007 T01281078,M
TPH,2021-03-15 19:56,-117.0904,38.0505,1654.00,45.00,28.00,51.08,190.00,19.00,0.00,29.62,1001.80,10.00,24.00,SCT,BKN,OVC,M,4700.00,5500.00,7500.00,M,M,M,M,M,27.00,180.00,2021-03-15 19:27,36.63,KTPH 151956Z AUTO 19019G24KT 10SM SCT047 BKN055 OVC075 07/M02 A2962 RMK AO2 PK WND 18027/1927 SLP018 T00721022,M
NFL,2021-03-15 19:56,-118.7010,39.4166,1199.00,36.00,26.10,66.97,60.00,9.00,0.00,29.81,1007.20,10.00,M,SCT,BKN,BKN,M,1500.00,5000.00,8000.00,M,M,M,M,M,M,M,M,28.49,KNFL 151956Z 06009KT 10SM SCT015 BKN050 BKN080 02/M03 A2981 RMK AO2 SLP072 T00221033,M
LSV,2021-03-15 19:58,-115.0343,36.2362,570.00,65.30,33.00,30.02,240.00,19.00,0.00,29.69,1004.30,10.00,30.00,CLR,M,M,M,M,M,M,M,M,M,M,M,37.00,200.00,2021-03-15 18:59,65.30,KLSV 151958Z AUTO 24019G30KT 10SM CLR 19/01 A2969 RMK AO2 PK WND 20037/1859 SLP043 T01850006 $,M
INS,2021-03-15 19:58,-115.6733,36.5872,955.00,60.40,19.20,20.05,210.00,17.00,0.00,29.61,1000.20,10.00,31.00,CLR,M,M,M,M,M,M,M,M,M,M,M,41.00,170.00,2021-03-15 19:21,60.40,KINS 151958Z AUTO 21017G31KT 10SM CLR 16/M07 A2961 RMK AO2 PK WND 17041/21 SLP002 T01581071 VISNO RWY08 $,M
INS,2021-03-15 20:02,-115.6733,36.5872,955.00,60.80,17.60,18.46,210.00,27.00,0.00,29.60,999.90,10.00,44.00,CLR,M,M,M,M,M,M,M,M,M,M,M,M,M,M,60.80,KINS 152002Z AUTO 21027G44KT 10SM CLR 16/M08 A2960 RMK AO2 WSHFT 1947 SLP999 VISNO RWY08 $,M
CXP,2021-03-15 20:10,-119.7326,39.1923,1431.00,39.20,1.40,19.95,250.00,5.00,0.00,29.80,M,10.00,M,BKN,OVC,M,M,7000.00,8500.00,M,M,M,M,M,M,M,M,M,34.95,KCXP 152010Z AUTO 25005KT 10SM BKN070 OVC085 04/M17 A2980 RMK AO2,M
MEV,2021-03-15 20:15,-119.7500,38.9963,1441.42,37.40,-0.40,19.68,220.00,9.00,0.00,29.80,M,10.00,17.00,FEW,M,M,M,10000.00,M,M,M,M,M,M,M,M,M,M,30.23,KMEV 152015Z AUTO 22009G17KT 190V270 10SM FEW100 03/M18 A2980 RMK AO2,M
HTH,2021-03-15 20:15,-118.6315,38.5448,1282.89,39.20,6.80,25.58,360.00,18.00,0.00,29.77,M,10.00,24.00,FEW,FEW,M,M,6000.00,7500.00,M,M,M,M,M,M,M,M,M,29.23,KHTH 152015Z AUTO 36018G24KT 10SM FEW060 FEW075 04/M14 A2977 RMK A01,M
TMT,2021-03-15 20:15,-117.1971,39.4643,1749.34,36.30,22.30,56.46,300.00,13.00,0.00,29.70,M,10.00,17.00,M,M,M,M,M,M,M,M,M,M,M,M,M,M,M,27.08,KTMT 152015Z AUTO 30013G17KT 10SM 02/M05 A2970 RMK AO2 T00241054,M
RTS,2021-03-15 20:15,-119.8764,39.6682,1539.00,35.60,8.60,31.97,300.00,13.00,0.00,29.81,M,10.00,18.00,SCT,BKN,OVC,M,5500.00,6500.00,8000.00,M,M,M,M,M,M,M,M,26.18,KRTS 152015Z AUTO 30013G18KT 10SM SCT055 BKN065 OVC080 02/M13 A2981 RMK AO2,M
BVU,2021-03-15 20:15,-114.8611,35.9475,671.00,64.40,28.40,25.60,160.00,22.00,0.00,29.71,M,10.00,28.00,BKN,BKN,M,M,7000.00,8500.00,M,M,M,M,M,M,M,M,M,64.40,KBVU 152015Z AUTO 16022G28KT 10SM BKN070 BKN085 18/M02 A2971 RMK AO2,M
05U,2021-03-15 20:15,-116.0051,39.6042,1811.23,53.60,17.60,23.93,160.00,21.00,0.00,29.62,M,10.00,27.00,SCT,SCT,M,M,6500.00,7500.00,M,M,M,M,M,M,M,M,M,53.60,K05U 152015Z AUTO 16021G27KT 10SM SCT065 SCT075 12/M08 A2962 RMK A01,M
BAM,2021-03-15 20:15,-116.8743,40.5990,1382.36,53.60,23.00,30.11,330.00,11.00,0.00,29.63,M,10.00,16.00,BKN,BKN,M,M,7000.00,9000.00,M,M,M,M,M,M,M,M,M,53.60,KBAM 152015Z AUTO 33011G16KT 10SM BKN070 BKN090 12/M05 A2963 RMK AO1,M
INS,2021-03-15 20:21,-115.6733,36.5872,955.00,62.60,8.60,11.65,170.00,21.00,0.00,29.60,999.90,10.00,46.00,CLR,M,M,M,M,M,M,M,M,M,M,M,M,M,M,62.60,KINS 152021Z AUTO 17021G46KT 10SM CLR 17/M13 A2960 RMK AO2 WSHFT 13 SLP999 VISNO RWY08 $,M
TPH,2021-03-15 20:22,-117.0904,38.0505,1654.00,37.00,35.00,92.76,260.00,16.00,T,29.63,M,8.00,29.00,BKN,BKN,OVC,M,2500.00,3100.00,5500.00,M,-RA,M,M,M,29.00,240.00,2021-03-15 20:17,26.94,KTPH 152022Z AUTO 26016G29KT 8SM -RA BKN025 BKN031 OVC055 03/02 A2963 RMK AO2 PK WND 24029/2017 WSHFT 2008 RAB08 P0000 T00280017,M
INS,2021-03-15 20:26,-115.6733,36.5872,955.00,62.60,12.20,13.68,200.00,13.00,0.00,29.60,999.90,10.00,46.00,CLR,M,M,M,M,M,M,M,M,M,M,M,M,M,M,62.60,KINS 152026Z AUTO 20013G46KT 10SM CLR 17/M11 A2960 RMK AO2 WSHFT 22 SLP999 VISNO RWY08 $,M
RTS,2021-03-15 20:35,-119.8764,39.6682,1539.00,35.60,10.40,34.65,340.00,14.00,0.00,29.81,M,10.00,19.00,BKN,OVC,M,M,5000.00,6500.00,M,M,M,M,M,M,M,M,M,25.80,KRTS 152035Z AUTO 34014G19KT 10SM BKN050 OVC065 02/M12 A2981 RMK AO2,M
BVU,2021-03-15 20:35,-114.8611,35.9475,671.00,64.40,28.40,25.60,160.00,19.00,0.00,29.70,M,10.00,26.00,BKN,BKN,M,M,7000.00,8500.00,M,M,M,M,M,M,M,M,M,64.40,KBVU 152035Z AUTO 16019G26KT 10SM BKN070 BKN085 18/M02 A2970 RMK AO2,M
05U,2021-03-15 20:35,-116.0051,39.6042,1811.23,53.60,17.60,23.93,200.00,19.00,0.00,29.62,M,10.00,28.00,SCT,SCT,M,M,6500.00,7500.00,M,M,M,M,M,M,M,M,M,53.60,K05U 152035Z AUTO 20019G28KT 10SM SCT065 SCT075 12/M08 A2962 RMK A01,M
BAM,2021-03-15 20:35,-116.8743,40.5990,1382.36,51.80,23.00,32.17,310.00,8.00,0.00,29.64,M,10.00,M,BKN,M,M,M,9000.00,M,M,M,M,M,M,M,M,M,M,51.80,KBAM 152035Z AUTO 31008KT 10SM BKN090 11/M05 A2964 RMK AO1,M
TMT,2021-03-15 20:35,-117.1971,39.4643,1749.34,33.80,22.60,63.16,280.00,14.00,0.00,29.70,M,7.00,18.00,M,M,M,M,M,M,M,M,-SN,M,M,M,M,M,M,23.48,KTMT 152035Z AUTO 28014G18KT 7SM -SN 01/M05 A2970 RMK AO2 T00101052,M
HTH,2021-03-15 20:35,-118.6315,38.5448,1282.89,39.20,6.80,25.58,360.00,18.00,0.00,29.77,M,10.00,M,CLR,M,M,M,M,M,M,M,M,M,M,M,M,M,M,29.23,KHTH 152035Z AUTO 36018KT 10SM CLR 04/M14 A2977 RMK A01,M
MEV,2021-03-15 20:35,-119.7500,38.9963,1441.42,39.20,1.40,19.95,280.00,12.00,0.00,29.80,M,10.00,M,FEW,M,M,M,8000.00,M,M,M,M,M,M,M,M,M,M,31.17,KMEV 152035Z AUTO 28012KT 10SM FEW080 04/M17 A2980 RMK AO2,M
CXP,2021-03-15 20:35,-119.7326,39.1923,1431.00,39.20,6.80,25.58,310.00,18.00,0.00,29.81,M,10.00,M,BKN,OVC,M,M,6500.00,7500.00,M,M,M,M,M,M,M,M,M,29.23,KCXP 152035Z AUTO 31018KT 10SM BKN065 OVC075 04/M14 A2981 RMK AO2,M
TPH,2021-03-15 20:36,-117.0904,38.0505,1654.00,33.00,30.90,91.51,310.00,26.00,0.01,29.64,M,1.50,35.00,FEW,BKN,OVC,M,1600.00,2300.00,3700.00,M,-SN BR,M,M,M,35.00,310.00,2021-03-15 20:36,19.07,KTPH 152036Z AUTO 31026G35KT 1 1/2SM -SN BR FEW016 BKN023 OVC037 01/M01 A2964 RMK AO2 PK WND 31035/2036 WSHFT 2008 RAB08E35SNB35 P0001 T00061006,M
INS,2021-03-15 20:40,-115.6733,36.5872,955.00,60.80,15.80,17.07,250.00,17.00,0.00,29.59,999.70,10.00,35.00,CLR,M,M,M,M,M,M,M,M,M,M,M,M,M,M,60.80,KINS 152040Z AUTO 25017G35KT 10SM CLR 16/M09 A2959 RMK AO2 WSHFT 29 SLP997 VISNO RWY08 $,M
TPH,2021-03-15 20:46,-117.0904,38.0505,1654.00,28.90,27.00,92.49,320.00,22.00,0.01,29.64,M,0.75,33.00,VV ,M,M,M,2000.00,M,M,M,-SN BR,M,M,M,35.00,310.00,2021-03-15 20:36,14.43,KTPH 152046Z AUTO 32022G33KT 3/4SM -SN BR VV020 M02/M03 A2964 RMK AO2 PK WND 31035/2036 WSHFT 2026 RAB08E35SNB35 P0001 T10171028,M
TPH,2021-03-15 20:53,-117.0904,38.0505,1654.00,28.40,26.60,92.86,320.00,22.00,0.01,29.64,M,1.25,36.00,OVC,M,M,M,2100.00,M,M,M,-SN BR,M,M,M,36.00,320.00,2021-03-15 20:51,13.76,KTPH 152053Z AUTO 32022G36KT 1 1/4SM -SN BR OVC021 M02/M03 A2964 RMK AO2 PK WND 32036/2051 WSHFT 2026 RAB08E35SNB35 P0001,M
VGT,2021-03-15 20:53,-115.1933,36.2111,667.00,66.00,30.00,25.85,200.00,22.00,0.00,29.61,1003.40,10.00,28.00,FEW,M,M,M,8000.00,M,M,M,M,M,M,M,38.00,200.00,2021-03-15 20:08,66.00,KVGT 152053Z 20022G28KT 10SM FEW080 19/M01 A2961 RMK AO2 PK WND 20038/2008 SLP034 T01891011 58033,M
LOL,2021-03-15 20:53,-118.5701,40.0684,1192.43,33.00,30.00,88.23,0.00,0.00,T,29.83,1010.60,1.50,M,BKN,BKN,OVC,M,2300.00,3000.00,3400.00,M,-SN BR,M,M,M,M,M,M,33.10,KLOL 152053Z AUTO 00000KT 1 1/2SM -SN BR BKN023 BKN030 OVC034 01/M01 A2983 RMK AO2 SLP106 P0000 60005 T00061011 50004,M
ELY,2021-03-15 20:53,-114.8453,39.2950,1909.00,51.00,19.90,28.95,160.00,21.00,0.00,29.63,999.40,M,28.00,SCT,M,M,M,7000.00,M,M,M,M,M,M,M,30.00,160.00,2021-03-15 20:29,51.10,KELY 152053Z AUTO 16021G28KT SCT070 11/M07 A2963 RMK AO2 PK WND 16030/2029 SLP994 T01061067 56019 $,M
DRA,2021-03-15 20:53,-116.0278,36.6206,1009.00,57.00,33.00,40.28,210.00,26.00,0.00,29.63,1001.30,10.00,43.00,FEW,M,M,M,3100.00,M,M,M,M,M,M,M,54.00,220.00,2021-03-15 20:00,57.00,KDRA 152053Z AUTO 21026G43KT 10SM FEW031 14/01 A2963 RMK AO2 PK WND 22054/2000 SLP013 T01390006 55019,M
P68,2021-03-15 20:53,-116.0056,39.6014,1993.00,50.00,18.00,27.80,180.00,24.00,0.00,29.58,999.30,M,29.00,M,M,M,M,M,M,M,M,M,M,M,M,32.00,210.00,2021-03-15 20:32,50.00,KP68 152053Z AUTO 18024G29KT 10/M08 A2958 RMK AO1 PK WND 21032/2032 SLP993 T01001078 56013,M
CXP,2021-03-15 20:55,-119.7326,39.1923,1431.00,37.40,10.40,32.27,330.00,16.00,0.00,29.82,M,10.00,21.00,FEW,SCT,BKN,M,3900.00,5000.00,6500.00,M,M,M,M,M,M,M,M,27.46,KCXP 152055Z AUTO 33016G21KT 10SM FEW039 SCT050 BKN065 03/M12 A2982 RMK AO2,M
BAM,2021-03-15 20:55,-116.8743,40.5990,1382.36,46.40,26.60,45.73,230.00,24.00,0.00,29.65,M,3.00,29.00,BKN,OVC,M,M,6500.00,8000.00,M,M,M,M,M,M,M,M,M,37.49,KBAM 152055Z AUTO 23024G29KT 3SM BKN065 OVC080 08/M03 A2965 RMK AO1,M
BVU,2021-03-15 20:55,-114.8611,35.9475,671.00,66.20,30.20,25.88,200.00,16.00,0.00,29.68,M,10.00,23.00,BKN,BKN,M,M,7500.00,9000.00,M,M,M,M,M,M,M,M,M,66.20,KBVU 152055Z AUTO 20016G23KT 10SM BKN075 BKN090 19/M01 A2968 RMK AO2,M
RNO,2021-03-15 20:55,-119.7711,39.4839,1341.00,39.00,10.90,30.99,260.00,12.00,0.00,29.80,1008.40,10.00,20.00,SCT,BKN,BKN,M,6500.00,12000.00,19000.00,M,M,M,M,M,M,M,M,30.91,KRNO 152055Z 26012G20KT 10SM SCT065 BKN120 BKN190 04/M12 A2980 RMK AO2 SLP084 CLDS TPG MTNS SW THRU W T00391117 51007 $,M
05U,2021-03-15 20:55,-116.0051,39.6042,1811.23,51.80,15.80,23.65,180.00,18.00,0.00,29.61,M,10.00,25.00,BKN,BKN,M,M,6500.00,7500.00,M,M,M,M,M,M,M,M,M,51.80,K05U 152055Z AUTO 18018G25KT 10SM BKN065 BKN075 11/M09 A2961 RMK A01,M
RTS,2021-03-15 20:55,-119.8764,39.6682,1539.00,35.60,8.60,31.97,340.00,10.00,0.00,29.81,M,10.00,16.00,FEW,BKN,M,M,5000.00,6500.00,M,M,M,M,M,M,M,M,M,27.48,KRTS 152055Z AUTO 34010G16KT 10SM FEW050 BKN065 02/M13 A2981 RMK AO2,M
TMT,2021-03-15 20:55,-117.1971,39.4643,1749.34,32.00,22.50,67.61,250.00,14.00,0.00,29.73,M,7.00,M,M,M,M,M,M,M,M,M,-SN,M,M,M,M,M,M,21.16,KTMT 152055Z AUTO 25014KT 7SM -SN 00/M05 A2973 RMK AO2 T00001053,M
HTH,2021-03-15 20:55,-118.6315,38.5448,1282.89,39.20,5.00,23.56,360.00,18.00,0.00,29.77,M,10.00,24.00,CLR,M,M,M,M,M,M,M,M,M,M,M,M,M,M,29.23,KHTH 152055Z AUTO 36018G24KT 10SM CLR 04/M15 A2977 RMK A01,M
MEV,2021-03-15 20:55,-119.7500,38.9963,1441.42,37.40,5.00,25.28,250.00,11.00,0.00,29.80,M,10.00,M,FEW,FEW,M,M,8000.00,10000.00,M,M,M,M,M,M,M,M,M,29.29,KMEV 152055Z AUTO 25011KT 10SM FEW080 FEW100 03/M15 A2980 RMK AO2,M
HND,2021-03-15 20:56,-115.1344,35.9729,742.79,65.00,33.00,30.44,210.00,17.00,0.00,29.68,1005.50,10.00,28.00,CLR,M,M,M,M,M,M,M,M,M,M,M,29.00,200.00,2021-03-15 20:22,64.90,KHND 152056Z 21017G28KT 10SM CLR 18/01 A2968 RMK AO2 PK WND 20029/2022 SLP055 T01830006 58036,M
TPH,2021-03-15 20:56,-117.0904,38.0505,1654.00,28.00,26.10,92.46,330.00,20.00,0.01,29.64,1004.80,0.75,36.00,VV ,M,M,M,2000.00,M,M,M,-SN BR,M,M,M,36.00,320.00,2021-03-15 20:51,13.83,KTPH 152056Z AUTO 33020G36KT 3/4SM -SN BR VV020 M02/M03 A2964 RMK AO2 PK WND 32036/2051 WSHFT 2026 RAB08E35SNB35 SLP048 P0001 60001 T10221033 56003,M
LAS,2021-03-15 20:56,-115.1634,36.0719,663.00,65.00,32.00,29.12,210.00,9.00,0.00,29.66,1003.00,10.00,23.00,FEW,SCT,M,M,6500.00,8500.00,M,M,M,M,M,M,29.00,190.00,2021-03-15 20:34,64.90,KLAS 152056Z 21009G23KT 10SM FEW065 SCT085 18/00 A2966 RMK AO2 PK WND 19029/2034 SLP030 T01830000 58041,M
EKO,2021-03-15 20:56,-115.7860,40.8242,1367.00,59.00,17.10,19.26,M,5.00,0.00,29.57,999.80,10.00,M,SCT,BKN,M,M,10000.00,12000.00,M,M,M,M,M,M,M,M,M,59.00,KEKO 152056Z AUTO VRB05KT 10SM SCT100 BKN120 15/M08 A2957 RMK AO2 SLP998 T01501083 58016,M
WMC,2021-03-15 20:56,-117.8072,40.9019,1315.00,39.00,26.10,59.52,250.00,18.00,0.00,29.75,1007.10,10.00,28.00,OVC,M,M,M,4200.00,M,M,M,M,M,M,M,29.00,250.00,2021-03-15 20:04,28.96,KWMC 152056Z AUTO 25018G28KT 10SM OVC042 04/M03 A2975 RMK AO2 PK WND 25029/2004 SLP071 T00391033 51014,M
NFL,2021-03-15 20:56,-118.7010,39.4166,1199.00,39.00,25.00,56.86,50.00,11.00,0.00,29.80,1007.00,10.00,15.00,FEW,SCT,BKN,M,2000.00,3000.00,8000.00,M,M,M,M,M,M,M,M,31.31,KNFL 152056Z 05011G15KT 10SM FEW020 SCT030 BKN080 04/M04 A2980 RMK AO2 SLP070 T00391039 50004,M
INS,2021-03-15 20:58,-115.6733,36.5872,955.00,62.40,17.10,17.07,200.00,20.00,0.00,29.59,999.70,10.00,28.00,CLR,M,M,M,M,M,M,M,M,M,M,M,46.00,150.00,2021-03-15 20:19,62.40,KINS 152058Z AUTO 20020G28KT 10SM CLR 17/M08 A2959 RMK AO2 PK WND 15046/19 SLP997 T01691083 57021 VISNO RWY08 $,M
LSV,2021-03-15 20:58,-115.0343,36.2362,570.00,66.60,33.30,28.92,220.00,20.00,0.00,29.63,1002.30,10.00,28.00,CLR,M,M,M,M,M,M,M,M,M,M,M,32.00,230.00,2021-03-15 20:41,66.60,KLSV 152058Z AUTO 22020G28KT 10SM CLR 19/01 A2963 RMK AO2 PK WND 23032/41 SLP023 T01920007 57037 $,M
INS,2021-03-15 20:59,-115.6733,36.5872,955.00,62.60,17.60,17.32,190.00,20.00,0.00,29.59,999.70,10.00,28.00,CLR,M,M,M,M,M,M,M,M,M,M,M,M,M,M,62.60,KINS 152059Z AUTO 19020G28KT 10SM CLR 17/M08 A2959 RMK AO2 WSHFT 53 SLP997 VISNO RWY08 $,M
LOL,2021-03-15 21:08,-118.5701,40.0684,1192.43,33.00,28.90,84.36,0.00,0.00,T,29.82,M,2.00,M,FEW,BKN,OVC,M,800.00,2500.00,4300.00,M,-SN BR,M,M,M,M,M,M,33.10,KLOL 152108Z AUTO 00000KT 2SM -SN BR FEW008 BKN025 OVC043 01/M02 A2982 RMK AO2 P0000 T00061017,M
TMT,2021-03-15 21:15,-117.1971,39.4643,1749.34,27.10,24.80,90.91,230.00,14.00,0.00,29.74,M,0.25,18.00,M,M,M,M,M,M,M,M,SN,M,M,M,M,M,M,14.85,KTMT 152115Z AUTO 23014G18KT 1/4SM SN M03/M04 A2974 RMK AO2 T10271040,M
CXP,2021-03-15 21:15,-119.7326,39.1923,1431.00,35.60,14.00,40.63,310.00,11.00,0.00,29.83,M,10.00,21.00,FEW,BKN,BKN,M,4000.00,7000.00,8000.00,M,M,M,M,M,M,M,M,27.02,KCXP 152115Z AUTO 31011G21KT 10SM FEW040 BKN070 BKN080 02/M10 A2983 RMK AO2,M
RTS,2021-03-15 21:15,-119.8764,39.6682,1539.00,35.60,10.40,34.65,310.00,13.00,0.00,29.82,M,10.00,19.00,FEW,SCT,M,M,5500.00,7000.00,M,M,M,M,M,M,M,M,M,26.18,KRTS 152115Z AUTO 31013G19KT 10SM FEW055 SCT070 02/M12 A2982 RMK AO2,M
MEV,2021-03-15 21:15,-119.7500,38.9963,1441.42,37.40,1.40,21.41,M,4.00,0.00,29.80,M,10.00,M,FEW,FEW,M,M,8000.00,10000.00,M,M,M,M,M,M,M,M,M,33.73,KMEV 152115Z AUTO VRB04KT 10SM FEW080 FEW100 03/M17 A2980 RMK AO2,M
BAM,2021-03-15 21:15,-116.8743,40.5990,1382.36,42.80,26.60,52.45,230.00,22.00,0.00,29.67,M,5.00,31.00,SCT,BKN,OVC,M,4000.00,4900.00,5500.00,M,M,M,M,M,M,M,M,33.04,KBAM 152115Z AUTO 23022G31KT 5SM SCT040 BKN049 OVC055 06/M03 A2967 RMK AO1,M
HTH,2021-03-15 21:15,-118.6315,38.5448,1282.89,41.00,3.20,20.22,350.00,20.00,0.00,29.76,M,10.00,29.00,CLR,M,M,M,M,M,M,M,M,M,M,M,M,M,M,31.09,KHTH 152115Z AUTO 35020G29KT 10SM CLR 05/M16 A2976 RMK A01,M
05U,2021-03-15 21:15,-116.0051,39.6042,1811.23,55.40,14.00,19.16,170.00,16.00,0.00,29.61,M,10.00,22.00,SCT,SCT,BKN,M,6500.00,7500.00,8500.00,M,M,M,M,M,M,M,M,55.40,K05U 152115Z AUTO 17016G22KT 10SM SCT065 SCT075 BKN085 13/M10 A2961 RMK A01,M
BVU,2021-03-15 21:15,-114.8611,35.9475,671.00,64.40,28.40,25.60,160.00,22.00,0.00,29.66,M,10.00,27.00,BKN,OVC,M,M,7500.00,9500.00,M,M,M,M,M,M,M,M,M,64.40,KBVU 152115Z AUTO 16022G27KT 10SM BKN075 OVC095 18/M02 A2966 RMK AO2,M
TPH,2021-03-15 21:18,-117.0904,38.0505,1654.00,28.00,25.00,88.33,320.00,27.00,0.01,29.65,M,0.50,38.00,VV ,M,M,M,1700.00,M,M,M,VCTS -SN FZFG,M,M,M,38.00,340.00,2021-03-15 21:16,11.89,KTPH 152118Z AUTO 32027G38KT 1/2SM VCTS -SN FZFG VV017 M02/M04 A2965 RMK AO2 PK WND 34038/2116 P0001 T10221039,M
LOL,2021-03-15 21:20,-118.5701,40.0684,1192.43,33.00,30.00,88.23,0.00,0.00,T,29.82,M,3.00,M,FEW,BKN,OVC,M,900.00,3100.00,4400.00,M,-SN BR,M,M,M,M,M,M,33.10,KLOL 152120Z AUTO 00000KT 3SM -SN BR FEW009 BKN031 OVC044 01/M01 A2982 RMK AO2 P0000 T00061011,M
WMC,2021-03-15 21:32,-117.8072,40.9019,1315.00,35.00,30.00,81.46,280.00,15.00,T,29.75,M,5.00,M,BKN,OVC,M,M,1600.00,3800.00,M,M,-SN,M,M,M,M,M,M,24.80,KWMC 152132Z AUTO 28015KT 5SM -SN BKN016 OVC038 02/M01 A2975 RMK AO2 SNB20 P0000 T00171011,M
INS,2021-03-15 21:32,-115.6733,36.5872,955.00,60.80,17.60,18.46,220.00,15.00,0.00,29.58,999.40,10.00,32.00,CLR,M,M,M,M,M,M,M,M,M,M,M,M,M,M,60.80,KINS 152132Z AUTO 22015G32KT 10SM CLR 16/M08 A2958 RMK AO2 WSHFT 20 SLP994 VISNO RWY08 $,M
TMT,2021-03-15 21:35,-117.1971,39.4643,1749.34,27.10,25.20,92.43,240.00,11.00,0.01,29.76,M,0.25,M,M,M,M,M,M,M,M,M,SN,M,M,M,M,M,M,16.27,KTMT 152135Z AUTO 24011KT 1/4SM SN M03/M04 A2976 RMK AO2 P0001 T10271038,M
CXP,2021-03-15 21:35,-119.7326,39.1923,1431.00,39.20,12.20,32.58,310.00,8.00,0.00,29.81,M,10.00,M,SCT,BKN,M,M,7000.00,8500.00,M,M,M,M,M,M,M,M,M,32.98,KCXP 152135Z AUTO 31008KT 10SM SCT070 BKN085 04/M11 A2981 RMK AO2,M
MEV,2021-03-15 21:35,-119.7500,38.9963,1441.42,39.20,3.20,21.69,280.00,9.00,0.00,29.79,M,10.00,M,FEW,SCT,M,M,5000.00,7500.00,M,M,M,M,M,M,M,M,M,32.47,KMEV 152135Z AUTO 28009KT 10SM FEW050 SCT075 04/M16 A2979 RMK AO2,M
BAM,2021-03-15 21:35,-116.8743,40.5990,1382.36,42.80,26.60,52.45,240.00,19.00,0.00,29.68,M,10.00,26.00,SCT,OVC,M,M,3800.00,4700.00,M,M,M,M,M,M,M,M,M,33.72,KBAM 152135Z AUTO 24019G26KT 10SM SCT038 OVC047 06/M03 A2968 RMK AO1,M
HTH,2021-03-15 21:35,-118.6315,38.5448,1282.89,41.00,3.20,20.22,350.00,21.00,0.00,29.76,M,10.00,30.00,CLR,M,M,M,M,M,M,M,M,M,M,M,M,M,M,30.86,KHTH 152135Z AUTO 35021G30KT 10SM CLR 05/M16 A2976 RMK A01,M
RTS,2021-03-15 21:35,-119.8764,39.6682,1539.00,35.60,10.40,34.65,340.00,12.00,0.00,29.81,M,10.00,M,BKN,BKN,M,M,6500.00,7500.00,M,M,M,M,M,M,M,M,M,26.58,KRTS 152135Z AUTO 34012KT 10SM BKN065 BKN075 02/M12 A2981 RMK AO2,M
BVU,2021-03-15 21:35,-114.8611,35.9475,671.00,64.40,28.40,25.60,160.00,24.00,0.00,29.65,M,10.00,29.00,BKN,BKN,M,M,7500.00,9000.00,M,M,M,M,M,M,M,M,M,64.40,KBVU 152135Z AUTO 16024G29KT 10SM BKN075 BKN090 18/M02 A2965 RMK AO2,M
TPH,2021-03-15 21:35,-117.0904,38.0505,1654.00,27.00,24.10,88.65,330.00,28.00,0.01,29.65,M,0.75,38.00,OVC,M,M,M,2100.00,M,M,M,-SN BR,M,M,M,38.00,340.00,2021-03-15 21:34,10.28,KTPH 152135Z AUTO 33028G38KT 3/4SM -SN BR OVC021 M03/M04 A2965 RMK AO2 PK WND 34038/2134 P0001 T10281044,M
05U,2021-03-15 21:35,-116.0051,39.6042,1811.23,51.80,17.60,25.56,150.00,14.00,0.00,29.61,M,10.00,21.00,FEW,SCT,M,M,7000.00,9000.00,M,M,M,M,M,M,M,M,M,51.80,K05U 152135Z AUTO 15014G21KT 10SM FEW070 SCT090 11/M08 A2961 RMK A01,M
RNO,2021-03-15 21:37,-119.7711,39.4839,1341.00,40.00,9.00,27.49,350.00,14.00,0.00,29.80,M,10.00,18.00,BKN,BKN,M,M,7000.00,15000.00,M,M,M,M,M,M,M,M,M,31.35,KRNO 152137Z 35014G18KT 10SM BKN070 BKN150 04/M13 A2980 RMK AO2 WSHFT 2118 SH DSNT S THRU SW CLDS TPG MTNS SW THRU W T00441128 $,M
INS,2021-03-15 21:49,-115.6733,36.5872,955.00,60.80,19.40,19.94,260.00,14.00,0.00,29.57,999.20,10.00,24.00,CLR,M,M,M,M,M,M,M,M,M,M,M,M,M,M,60.80,KINS 152149Z AUTO 26014G24KT 10SM CLR 16/M07 A2957 RMK AO2 WSHFT 38 SLP992 VISNO RWY08 $,M
ELY,2021-03-15 21:53,-114.8453,39.2950,1909.00,49.00,19.00,30.24,190.00,13.00,0.00,29.61,999.20,M,21.00,BKN,BKN,M,M,7000.00,8500.00,M,M,M,M,M,M,30.00,160.00,2021-03-15 21:02,43.22,KELY 152153Z AUTO 19013G21KT BKN070 BKN085 09/M07 A2961 RMK AO2 PK WND 16030/2102 SLP992 T00941072 $,M
LOL,2021-03-15 21:53,-118.5701,40.0684,1192.43,33.00,28.90,84.36,160.00,3.00,T,29.82,1010.60,5.00,M,BKN,OVC,M,M,3500.00,4300.00,M,M,-SN BR,M,M,M,M,M,M,29.95,KLOL 152153Z AUTO 16003KT 5SM -SN BR BKN035 OVC043 01/M02 A2982 RMK AO2 SLP106 P0000 T00061017,M
VGT,2021-03-15 21:53,-115.1933,36.2111,667.00,67.00,32.00,27.17,200.00,19.00,0.00,29.58,1002.20,10.00,28.00,CLR,M,M,M,M,M,M,M,M,M,M,M,32.00,210.00,2021-03-15 21:25,66.90,KVGT 152153Z AUTO 20019G28KT 10SM CLR 19/00 A2958 RMK AO2 PK WND 21032/2125 SLP022 T01940000,M
DRA,2021-03-15 21:53,-116.0278,36.6206,1009.00,58.00,32.00,37.31,190.00,20.00,0.00,29.61,1000.70,10.00,39.00,FEW,M,M,M,4900.00,M,M,M,M,M,M,M,42.00,220.00,2021-03-15 21:04,57.90,KDRA 152153Z AUTO 19020G39KT 10SM FEW049 14/00 A2961 RMK AO2 PK WND 22042/2104 SLP007 T01440000,M
P68,2021-03-15 21:53,-116.0056,39.6014,1993.00,49.00,21.00,32.93,130.00,21.00,0.00,29.59,999.50,M,27.00,M,M,M,M,M,M,M,M,M,M,M,M,29.00,150.00,2021-03-15 21:39,41.39,KP68 152153Z AUTO 13021G27KT 09/M06 A2959 RMK AO1 PK WND 15029/2139 SLP995 T00941061,M
BAM,2021-03-15 21:55,-116.8743,40.5990,1382.36,41.00,28.40,60.54,240.00,22.00,0.00,29.68,M,10.00,27.00,OVC,M,M,M,4700.00,M,M,M,M,M,M,M,M,M,M,30.63,KBAM 152155Z AUTO 24022G27KT 10SM OVC047 05/M02 A2968 RMK AO1,M
TMT,2021-03-15 21:55,-117.1971,39.4643,1749.34,27.50,25.20,90.92,240.00,9.00,0.01,29.76,M,0.50,M,M,M,M,M,M,M,M,M,SN,M,M,M,M,M,M,17.92,KTMT 152155Z AUTO 24009KT 1/2SM SN M02/M04 A2976 RMK AO2 P0001 T10251038,M
05U,2021-03-15 21:55,-116.0051,39.6042,1811.23,51.80,19.40,27.62,140.00,20.00,0.00,29.61,M,10.00,25.00,FEW,M,M,M,6500.00,M,M,M,M,M,M,M,M,M,M,51.80,K05U 152155Z AUTO 14020G25KT 10SM FEW065 11/M07 A2961 RMK A01,M
RTS,2021-03-15 21:55,-119.8764,39.6682,1539.00,37.40,10.40,32.27,300.00,12.00,0.00,29.81,M,10.00,M,FEW,M,M,M,7000.00,M,M,M,M,M,M,M,M,M,M,28.87,KRTS 152155Z AUTO 30012KT 10SM FEW070 03/M12 A2981 RMK AO2,M
MEV,2021-03-15 21:55,-119.7500,38.9963,1441.42,37.40,6.80,27.45,330.00,12.00,0.00,29.80,M,10.00,21.00,FEW,SCT,OVC,M,5500.00,7000.00,7500.00,M,M,M,M,M,M,M,M,28.87,KMEV 152155Z AUTO 33012G21KT 10SM FEW055 SCT070 OVC075 03/M14 A2980 RMK AO2,M
RNO,2021-03-15 21:55,-119.7711,39.4839,1341.00,40.00,9.00,27.49,320.00,13.00,0.00,29.80,1008.30,10.00,20.00,BKN,BKN,M,M,7000.00,15000.00,M,M,M,M,M,M,M,M,M,31.69,KRNO 152155Z 32013G20KT 10SM BKN070 BKN150 04/M13 A2980 RMK AO2 WSHFT 2118 SLP083 SH DSNT S THRU SW CLDS TPG MTNS SW THRU W T00441128 $,M
BVU,2021-03-15 21:55,-114.8611,35.9475,671.00,62.60,28.40,27.27,160.00,22.00,0.00,29.64,M,10.00,31.00,BKN,BKN,M,M,8000.00,9000.00,M,M,M,M,M,M,M,M,M,62.60,KBVU 152155Z AUTO 16022G31KT 10SM BKN080 BKN090 17/M02 A2964 RMK AO2,M
CXP,2021-03-15 21:55,-119.7326,39.1923,1431.00,41.00,10.40,28.04,320.00,8.00,0.00,29.82,M,10.00,M,FEW,SCT,M,M,6500.00,8500.00,M,M,M,M,M,M,M,M,M,35.20,KCXP 152155Z AUTO 32008KT 10SM FEW065 SCT085 05/M12 A2982 RMK AO2,M
HTH,2021-03-15 21:55,-118.6315,38.5448,1282.89,39.20,1.40,19.95,330.00,20.00,0.00,29.77,M,10.00,32.00,CLR,M,M,M,M,M,M,M,M,M,M,M,M,M,M,28.70,KHTH 152155Z AUTO 33020G32KT 10SM CLR 04/M17 A2977 RMK A01,M
NFL,2021-03-15 21:56,-118.7010,39.4166,1199.00,37.00,25.00,61.50,20.00,8.00,0.00,29.80,1007.00,10.00,M,SCT,BKN,OVC,M,2000.00,3000.00,5000.00,M,M,M,M,M,M,M,M,30.27,KNFL 152156Z 02008KT 10SM SCT020 BKN030 OVC050 03/M04 A2980 RMK AO2 SLP070 CIG AND VIS LWR N-NE T00281039,M
WMC,2021-03-15 21:56,-117.8072,40.9019,1315.00,37.00,27.00,66.82,250.00,17.00,T,29.74,1007.80,10.00,24.00,BKN,OVC,M,M,1700.00,4000.00,M,M,M,M,M,M,M,M,M,26.63,KWMC 152156Z AUTO 25017G24KT 10SM BKN017 OVC040 03/M03 A2974 RMK AO2 SNB20E47 SLP078 P0000 T00281028,M
LAS,2021-03-15 21:56,-115.1634,36.0719,663.00,63.00,32.00,31.12,200.00,12.00,0.00,29.62,1001.80,10.00,21.00,BKN,BKN,M,M,7500.00,9000.00,M,M,M,M,M,M,M,M,M,63.00,KLAS 152156Z 20012G21KT 10SM BKN075 BKN090 17/00 A2962 RMK AO2 SLP018 VCSH ALQDS T01720000,M
EKO,2021-03-15 21:56,-115.7860,40.8242,1367.00,59.00,17.10,19.26,190.00,11.00,0.00,29.57,999.70,10.00,M,FEW,M,M,M,11000.00,M,M,M,M,M,M,M,M,M,M,59.00,KEKO 152156Z AUTO 19011KT 10SM FEW110 15/M08 A2957 RMK AO2 SLP997 T01501083,M
HND,2021-03-15 21:56,-115.1344,35.9729,742.79,65.00,34.00,31.55,210.00,13.00,0.00,29.64,1004.20,10.00,20.00,FEW,BKN,M,M,7000.00,11000.00,M,M,M,M,M,M,28.00,230.00,2021-03-15 21:18,64.90,KHND 152156Z 21013G20KT 10SM FEW070 BKN110 18/01 A2964 RMK AO2 PK WND 23028/2118 SLP042 T01830011,M
INS,2021-03-15 21:58,-115.6733,36.5872,955.00,59.50,18.30,19.92,260.00,13.00,0.00,29.57,999.20,10.00,M,CLR,M,M,M,M,M,M,M,M,M,M,M,39.00,210.00,2021-03-15 21:05,59.50,KINS 152158Z AUTO 26013KT 10SM CLR 15/M08 A2957 RMK AO2 PK WND 21039/05 SLP992 T01531076 VISNO RWY08 $,M
LSV,2021-03-15 21:58,-115.0343,36.2362,570.00,66.00,33.60,29.89,200.00,18.00,0.00,29.60,1001.40,10.00,M,FEW,FEW,M,M,7500.00,9500.00,M,M,M,M,M,M,30.00,220.00,2021-03-15 21:27,66.00,KLSV 152158Z AUTO 20018KT 10SM FEW075 FEW095 19/01 A2960 RMK AO2 PK WND 22030/27 SLP014 T01890009 $,M
WMC,2021-03-15 22:03,-117.8072,40.9019,1315.00,37.00,27.00,66.82,250.00,18.00,0.01,29.75,M,10.00,25.00,FEW,SCT,OVC,M,1300.00,1700.00,4000.00,M,M,M,M,M,M,M,M,26.33,KWMC 152203Z AUTO 25018G25KT 10SM FEW013 SCT017 OVC040 03/M03 A2975 RMK AO2 P0001 T00281028,M
CXP,2021-03-15 22:10,-119.7326,39.1923,1431.00,39.20,8.60,27.74,330.00,10.00,0.00,29.81,M,10.00,M,FEW,M,M,M,6500.00,M,M,M,M,M,M,M,M,M,M,32.00,KCXP 152210Z AUTO 33010KT 10SM FEW065 04/M13 A2981 RMK AO2,M
HND,2021-03-15 22:11,-115.1344,35.9729,742.79,60.80,39.20,44.76,220.00,17.00,T,29.64,M,10.00,21.00,BKN,BKN,M,M,7500.00,11000.00,M,M,-TSRA,M,M,M,M,M,M,60.80,KHND 152211Z 22017G21KT 10SM -TSRA BKN075 BKN110 16/04 A2964 RMK AO2 TSB05RAB03 P0000,M
LAS,2021-03-15 22:14,-115.1634,36.0719,663.00,64.00,34.00,32.56,200.00,10.00,0.00,29.60,M,10.00,20.00,BKN,BKN,OVC,M,8000.00,9500.00,11000.00,M,VCTS,M,M,M,M,M,M,64.00,KLAS 152214Z 20010G20KT 10SM VCTS BKN080 BKN095 OVC110 18/01 A2960 RMK AO2 LTG DSNT S VCSH ALQDS T01780011,M
MEV,2021-03-15 22:15,-119.7500,38.9963,1441.42,37.40,8.60,29.77,10.00,9.00,0.00,29.81,M,10.00,M,FEW,BKN,M,M,6000.00,7000.00,M,M,M,M,M,M,M,M,M,30.23,KMEV 152215Z AUTO 01009KT 10SM FEW060 BKN070 03/M13 A2981 RMK AO2,M
05U,2021-03-15 22:15,-116.0051,39.6042,1811.23,51.80,19.40,27.62,160.00,20.00,0.00,29.61,M,10.00,25.00,FEW,FEW,M,M,6500.00,11000.00,M,M,M,M,M,M,M,M,M,51.80,K05U 152215Z AUTO 16020G25KT 10SM FEW065 FEW110 11/M07 A2961 RMK A01,M
BVU,2021-03-15 22:15,-114.8611,35.9475,671.00,62.60,28.40,27.27,150.00,23.00,0.00,29.62,M,10.00,M,SCT,BKN,M,M,8000.00,9000.00,M,M,M,M,M,M,M,M,M,62.60,KBVU 152215Z AUTO 15023KT 10SM SCT080 BKN090 17/M02 A2962 RMK AO2 LTG DSNT W,M
TMT,2021-03-15 22:15,-117.1971,39.4643,1749.34,27.10,24.80,90.91,230.00,8.00,0.01,29.76,M,0.25,M,M,M,M,M,M,M,M,M,SN,M,M,M,M,M,M,18.08,KTMT 152215Z AUTO 23008KT 1/4SM SN M03/M04 A2976 RMK AO2 P0001 T10271040,M
BAM,2021-03-15 22:15,-116.8743,40.5990,1382.36,39.20,32.00,75.16,220.00,17.00,0.00,29.69,M,10.00,24.00,SCT,BKN,OVC,M,1400.00,4700.00,7000.00,M,M,M,M,M,M,M,M,29.51,KBAM 152215Z AUTO 22017G24KT 10SM SCT014 BKN047 OVC070 04/00 A2969 RMK AO1,M
HTH,2021-03-15 22:15,-118.6315,38.5448,1282.89,41.00,-0.40,17.10,320.00,20.00,0.00,29.77,M,10.00,30.00,CLR,M,M,M,M,M,M,M,M,M,M,M,M,M,M,31.09,KHTH 152215Z AUTO 32020G30KT 10SM CLR 05/M18 A2977 RMK A01,M
RTS,2021-03-15 22:15,-119.8764,39.6682,1539.00,37.40,10.40,32.27,350.00,15.00,0.00,29.81,M,10.00,M,BKN,BKN,M,M,5500.00,6500.00,M,M,M,M,M,M,M,M,M,27.78,KRTS 152215Z AUTO 35015KT 10SM BKN055 BKN065 03/M12 A2981 RMK AO2,M
P68,2021-03-15 22:29,-116.0056,39.6014,1993.00,44.00,27.00,50.73,200.00,21.00,0.00,29.59,M,M,30.00,M,M,M,M,M,M,M,M,M,M,M,M,30.00,190.00,2021-03-15 22:23,34.99,KP68 152229Z AUTO 20021G30KT 07/M03 A2959 RMK AO1 PK WND 19030/2223 WSHFT 2212 T00671028,M
CXP,2021-03-15 22:30,-119.7326,39.1923,1431.00,39.20,12.20,32.58,290.00,9.00,0.00,29.82,M,10.00,17.00,CLR,M,M,M,M,M,M,M,M,M,M,M,M,M,M,32.47,KCXP 152230Z AUTO 29009G17KT 10SM CLR 04/M11 A2982 RMK AO2,M
LAS,2021-03-15 22:31,-115.1634,36.0719,663.00,65.00,35.00,32.97,190.00,9.00,T,29.60,M,10.00,20.00,FEW,BKN,OVC,M,5000.00,7500.00,10000.00,M,-RA,M,M,M,M,M,M,64.90,KLAS 152231Z 19009G20KT 10SM -RA FEW050 BKN075 OVC100 18/02 A2960 RMK AO2 RAB27 VCSH ALQDS P0000 T01830017,M
HND,2021-03-15 22:32,-115.1344,35.9729,742.79,57.20,42.80,58.52,0.00,0.00,0.06,29.63,M,9.00,M,FEW,OVC,M,M,4900.00,7000.00,M,M,-RA,M,M,M,38.00,230.00,2021-03-15 22:14,57.20,KHND 152232Z 00000KT 9SM -RA FEW049 OVC070 14/06 A2963 RMK AO2 PK WND 23038/2214 TSB05E26RAB03 P0006,M
05U,2021-03-15 22:35,-116.0051,39.6042,1811.23,46.40,24.80,42.44,220.00,10.00,0.00,29.63,M,10.00,26.00,FEW,SCT,M,M,6500.00,10000.00,M,M,M,M,M,M,M,M,M,41.03,K05U 152235Z AUTO 22010G26KT 10SM FEW065 SCT100 08/M04 A2963 RMK A01,M
BVU,2021-03-15 22:35,-114.8611,35.9475,671.00,64.40,28.40,25.60,170.00,18.00,0.00,29.61,M,10.00,30.00,SCT,SCT,M,M,8000.00,9500.00,M,M,M,M,M,M,M,M,M,64.40,KBVU 152235Z AUTO 17018G30KT 10SM SCT080 SCT095 18/M02 A2961 RMK AO2,M
RTS,2021-03-15 22:35,-119.8764,39.6682,1539.00,37.40,12.20,34.96,330.00,14.00,0.00,29.82,M,10.00,24.00,SCT,BKN,BKN,M,5000.00,6000.00,7000.00,M,M,M,M,M,M,M,M,28.12,KRTS 152235Z AUTO 33014G24KT 10SM SCT050 BKN060 BKN070 03/M11 A2982 RMK AO2,M
MEV,2021-03-15 22:35,-119.7500,38.9963,1441.42,35.60,8.60,31.97,M,6.00,0.00,29.81,M,10.00,M,FEW,BKN,M,M,5000.00,6000.00,M,M,M,M,M,M,M,M,M,29.87,KMEV 152235Z AUTO VRB06KT 10SM FEW050 BKN060 02/M13 A2981 RMK AO2,M
BAM,2021-03-15 22:35,-116.8743,40.5990,1382.36,37.40,32.00,80.65,220.00,18.00,0.00,29.71,M,10.00,23.00,OVC,M,M,M,7000.00,M,M,M,M,M,M,M,M,M,M,26.86,KBAM 152235Z AUTO 22018G23KT 10SM OVC070 03/00 A2971 RMK AO1,M
HTH,2021-03-15 22:35,-118.6315,38.5448,1282.89,41.00,-0.40,17.10,310.00,14.00,0.00,29.77,M,10.00,29.00,CLR,M,M,M,M,M,M,M,M,M,M,M,M,M,M,32.76,KHTH 152235Z AUTO 31014G29KT 10SM CLR 05/M18 A2977 RMK A01,M
TMT,2021-03-15 22:35,-117.1971,39.4643,1749.34,28.00,25.50,90.19,220.00,8.00,0.02,29.76,M,0.50,M,M,M,M,M,M,M,M,M,SN,M,M,M,M,M,M,19.19,KTMT 152235Z AUTO 22008KT 1/2SM SN M02/M04 A2976 RMK AO2 P0002 T10221036,M
INS,2021-03-15 22:42,-115.6733,36.5872,955.00,60.80,21.20,21.53,240.00,18.00,0.00,29.53,997.60,10.00,26.00,SCT,M,M,M,10000.00,M,M,M,M,M,M,M,M,M,M,60.80,KINS 152242Z AUTO 24018G26KT 10SM SCT100 16/M06 A2953 RMK AO2 SLP976 VISNO RWY08 $,M
LSV,2021-03-15 22:52,-115.0343,36.2362,570.00,66.20,37.40,34.51,170.00,26.00,0.00,29.59,1000.90,5.00,39.00,FEW,SCT,M,M,4900.00,7500.00,M,M,-SHRA,M,M,M,M,M,M,66.20,KLSV 152252Z 17026G39KT 05SM -SHRA FEW049 SCT075 19/03 A2959 RMK SLP009 $,M
ELY,2021-03-15 22:53,-114.8453,39.2950,1909.00,49.00,19.00,30.24,170.00,20.00,0.00,29.62,999.30,M,28.00,FEW,SCT,M,M,6000.00,10000.00,M,M,M,M,M,M,32.00,160.00,2021-03-15 22:21,41.59,KELY 152253Z AUTO 17020G28KT FEW060 SCT100 09/M07 A2962 RMK AO2 PK WND 16032/2221 SLP993 T00941072 $,M
VGT,2021-03-15 22:53,-115.1933,36.2111,667.00,65.00,33.00,30.44,200.00,17.00,0.00,29.54,1001.20,10.00,22.00,SCT,M,M,M,7500.00,M,M,M,M,M,M,M,28.00,220.00,2021-03-15 21:56,64.90,KVGT 152253Z 20017G22KT 10SM SCT075 18/01 A2954 RMK AO2 PK WND 22028/2156 SLP012 T01830006,M
P68,2021-03-15 22:53,-116.0056,39.6014,1993.00,43.00,28.00,55.14,190.00,15.00,0.00,29.62,1001.40,M,28.00,M,M,M,M,M,M,M,M,M,M,M,M,30.00,190.00,2021-03-15 22:23,35.04,KP68 152253Z AUTO 19015G28KT 06/M02 A2962 RMK AO1 PK WND 19030/2223 WSHFT 2212 SLP014 T00611022,M
LOL,2021-03-15 22:53,-118.5701,40.0684,1192.43,35.00,30.00,81.46,70.00,5.00,T,29.82,1010.20,3.00,M,BKN,OVC,M,M,2600.00,3400.00,M,M,-SN,M,M,M,M,M,M,30.08,KLOL 152253Z AUTO 07005KT 3SM -SN BKN026 OVC034 02/M01 A2982 RMK AO2 SNE24B41 SLP102 P0000 T00171011,M
DRA,2021-03-15 22:53,-116.0278,36.6206,1009.00,53.00,30.90,42.48,220.00,17.00,0.00,29.62,1001.20,10.00,29.00,SCT,OVC,M,M,4800.00,7000.00,M,M,M,M,M,M,41.00,220.00,2021-03-15 22:10,53.10,KDRA 152253Z AUTO 22017G29KT 10SM SCT048 OVC070 12/M01 A2962 RMK AO2 PK WND 22041/2210 SLP012 T01171006,M
LSV,2021-03-15 22:54,-115.0343,36.2362,570.00,64.40,41.00,42.28,170.00,24.00,0.00,29.59,1001.00,10.00,39.00,FEW,SCT,M,M,4900.00,7500.00,M,M,-SHRA,M,M,M,M,M,M,64.40,KLSV 152254Z 17024G39KT 10SM -SHRA FEW049 SCT075 18/05 A2959 RMK AO2A WSHFT 47 SLP010 $,M
RTS,2021-03-15 22:55,-119.8764,39.6682,1539.00,37.40,12.20,34.96,340.00,14.00,0.00,29.81,M,10.00,23.00,SCT,SCT,SCT,M,4900.00,6000.00,7000.00,M,M,M,M,M,M,M,M,28.12,KRTS 152255Z AUTO 34014G23KT 10SM SCT049 SCT060 SCT070 03/M11 A2981 RMK AO2,M
BAM,2021-03-15 22:55,-116.8743,40.5990,1382.36,35.60,33.80,93.08,220.00,15.00,0.00,29.71,M,10.00,24.00,SCT,OVC,M,M,4600.00,5500.00,M,M,M,M,M,M,M,M,M,25.45,KBAM 152255Z AUTO 22015G24KT 10SM SCT046 OVC055 02/01 A2971 RMK AO1,M
LSV,2021-03-15 22:55,-115.0343,36.2362,570.00,64.40,41.00,42.28,170.00,22.00,0.00,29.59,1001.00,10.00,39.00,FEW,SCT,M,M,4900.00,7500.00,M,M,M,M,M,M,M,M,M,64.40,KLSV 152255Z AUTO 17022G39KT 10SM FEW049 SCT075 18/05 A2959 RMK AO2 SLP010 $,M
MEV,2021-03-15 22:55,-119.7500,38.9963,1441.42,37.40,8.60,29.77,330.00,7.00,0.00,29.81,M,10.00,15.00,FEW,SCT,BKN,M,4400.00,5000.00,6000.00,M,M,M,M,M,M,M,M,31.36,KMEV 152255Z AUTO 33007G15KT 10SM FEW044 SCT050 BKN060 03/M13 A2981 RMK AO2,M
CXP,2021-03-15 22:55,-119.7326,39.1923,1431.00,37.40,12.20,34.96,290.00,6.00,0.00,29.82,M,10.00,M,CLR,M,M,M,M,M,M,M,M,M,M,M,M,M,M,32.03,KCXP 152255Z AUTO 29006KT 10SM CLR 03/M11 A2982 RMK AO2,M
HTH,2021-03-15 22:55,-118.6315,38.5448,1282.89,41.00,5.00,21.97,340.00,16.00,0.00,29.77,M,10.00,24.00,CLR,M,M,M,M,M,M,M,M,M,M,M,M,M,M,32.15,KHTH 152255Z AUTO 34016G24KT 10SM CLR 05/M15 A2977 RMK A01,M
05U,2021-03-15 22:55,-116.0051,39.6042,1811.23,44.60,26.60,48.96,190.00,15.00,0.00,29.65,M,10.00,26.00,SCT,BKN,BKN,M,7000.00,8500.00,10000.00,M,M,M,M,M,M,M,M,37.11,K05U 152255Z AUTO 19015G26KT 10SM SCT070 BKN085 BKN100 07/M03 A2965 RMK A01,M
BVU,2021-03-15 22:55,-114.8611,35.9475,671.00,64.40,30.20,27.55,150.00,23.00,0.00,29.60,M,10.00,29.00,FEW,FEW,M,M,7500.00,10000.00,M,M,M,M,M,M,M,M,M,64.40,KBVU 152255Z AUTO 15023G29KT 10SM FEW075 FEW100 18/M01 A2960 RMK AO2,M
RNO,2021-03-15 22:55,-119.7711,39.4839,1341.00,40.00,10.90,29.92,340.00,11.00,0.00,29.81,1008.90,10.00,M,SCT,BKN,BKN,M,6500.00,12000.00,18000.00,M,M,M,M,M,M,M,M,32.45,KRNO 152255Z 34011KT 10SM SCT065 BKN120 BKN180 04/M12 A2981 RMK AO2 SLP089 VIRGA ALQDS SH DSNT SW T00441117 $,M
TMT,2021-03-15 22:55,-117.1971,39.4643,1749.34,28.40,25.50,88.72,210.00,7.00,0.02,29.76,M,0.50,M,M,M,M,M,M,M,M,M,-SN,M,M,M,M,M,M,20.39,KTMT 152255Z AUTO 21007KT 1/2SM -SN M02/M04 A2976 RMK AO2 P0002 T10201036,M
WMC,2021-03-15 22:56,-117.8072,40.9019,1315.00,35.00,26.10,69.41,250.00,12.00,0.01,29.76,1008.20,10.00,M,FEW,OVC,M,M,1700.00,4100.00,M,M,-SN,M,M,M,M,M,M,25.95,KWMC 152256Z AUTO 25012KT 10SM -SN FEW017 OVC041 02/M03 A2976 RMK AO2 SNB34 SLP082 P0001 T00171033,M
TPH,2021-03-15 22:56,-117.0904,38.0505,1654.00,26.10,24.10,92.01,330.00,25.00,T,29.67,1006.40,0.50,35.00,VV ,M,M,M,1200.00,M,M,M,SN FZFG,M,M,M,41.00,340.00,2021-03-15 22:03,9.83,KTPH 152256Z AUTO 33025G35KT 1/2SM SN FZFG VV012 M03/M04 A2967 RMK AO2 PK WND 34041/2203 SLP064 P0000 T10331044,M
NFL,2021-03-15 22:56,-118.7010,39.4166,1199.00,36.00,25.00,63.98,40.00,9.00,0.00,29.82,1007.40,10.00,M,SCT,BKN,OVC,M,2000.00,3000.00,5000.00,M,M,M,M,M,M,M,M,28.49,KNFL 152256Z 04009KT 10SM SCT020 BKN030 OVC050 02/M04 A2982 RMK AO2 SLP074 CIG AND VIS LWR N-NE T00221039,M
EKO,2021-03-15 22:56,-115.7860,40.8242,1367.00,54.00,19.00,25.04,M,M,0.00,29.58,1000.50,10.00,M,FEW,SCT,SCT,M,4200.00,7000.00,10000.00,M,M,M,M,M,26.00,160.00,2021-03-15 22:25,54.00,KEKO 152256Z AUTO 10SM FEW042 SCT070 SCT100 12/M07 A2958 RMK AO2 PK WND 16026/2225 SLP005 T01221072,M
LAS,2021-03-15 22:56,-115.1634,36.0719,663.00,63.00,35.00,35.24,230.00,8.00,T,29.59,1000.80,10.00,M,BKN,M,M,M,7500.00,M,M,M,M,M,M,M,M,M,M,63.00,KLAS 152256Z 23008KT 200V260 10SM BKN075 17/02 A2959 RMK AO2 RAB27E36 SLP008 VCSH ALQDS P0000 T01720017,M
HND,2021-03-15 22:56,-115.1344,35.9729,742.79,60.00,42.00,51.35,220.00,10.00,0.06,29.61,1003.40,10.00,M,FEW,OVC,M,M,2900.00,7500.00,M,M,-RA,M,M,M,38.00,230.00,2021-03-15 22:14,60.10,KHND 152256Z 22010KT 10SM -RA FEW029 OVC075 16/06 A2961 RMK AO2 PK WND 23038/2214 TSB05E26RAB03 SLP034 P0006 T01560056,M
INS,2021-03-15 22:57,-115.6733,36.5872,955.00,60.80,24.80,25.04,230.00,13.00,0.00,29.54,998.20,10.00,22.00,BKN,BKN,M,M,9500.00,19000.00,M,M,M,M,M,M,M,M,M,60.80,KINS 152257Z AUTO 23013G22KT 10SM BKN095 BKN190 16/M04 A2954 RMK AO2 SLP982 VISNO RWY08 $,M
LOL,2021-03-15 22:57,-118.5701,40.0684,1192.43,35.00,30.00,81.46,M,3.00,T,29.81,M,1.75,M,BKN,OVC,M,M,2400.00,3000.00,M,M,-SN,M,M,M,M,M,M,32.23,KLOL 152257Z AUTO VRB03KT 1 3/4SM -SN BKN024 OVC030 02/M01 A2981 RMK AO2 P0000 T00171011,M
INS,2021-03-15 22:58,-115.6733,36.5872,955.00,60.30,25.20,25.92,220.00,13.00,0.00,29.54,998.20,10.00,22.00,BKN,BKN,M,M,9500.00,19000.00,M,M,M,M,M,M,31.00,240.00,2021-03-15 22:04,60.30,KINS 152258Z AUTO 22013G22KT 10SM BKN095 BKN190 16/M04 A2954 RMK AO2 PK WND 24031/04 SLP982 T01571038 VISNO RWY08 $,M
LSV,2021-03-15 22:58,-115.0343,36.2362,570.00,63.00,40.60,43.73,150.00,14.00,0.00,29.58,1000.70,10.00,39.00,FEW,SCT,M,M,4900.00,7000.00,M,M,M,M,M,M,39.00,180.00,2021-03-15 22:49,63.00,KLSV 152258Z AUTO 15014G39KT 10SM FEW049 SCT070 17/05 A2958 RMK AO2 PK WND 18039/49 SLP007 T01720048 $,M
LSV,2021-03-15 23:04,-115.0343,36.2362,570.00,62.60,35.60,36.45,200.00,15.00,0.00,29.58,1000.80,10.00,21.00,SCT,M,M,M,7500.00,M,M,M,M,M,M,M,M,M,M,62.60,KLSV 152304Z AUTO 20015G21KT 10SM SCT075 17/02 A2958 RMK AO2 WSHFT 02 SLP008 $,M
TPH,2021-03-15 23:06,-117.0904,38.0505,1654.00,27.00,23.00,84.66,330.00,25.00,T,29.68,M,1.00,37.00,BKN,BKN,OVC,M,1600.00,3000.00,3500.00,M,-SN BR,M,M,M,37.00,340.00,2021-03-15 22:58,11.04,KTPH 152306Z AUTO 33025G37KT 1SM -SN BR BKN016 BKN030 OVC035 M03/M05 A2968 RMK AO2 PK WND 34037/2258 P0000 T10281050,M
INS,2021-03-15 23:08,-115.6733,36.5872,955.00,59.00,24.80,26.70,230.00,13.00,0.00,29.54,998.20,10.00,M,SCT,SCT,M,M,9500.00,20000.00,M,M,M,M,M,M,M,M,M,59.00,KINS 152308Z AUTO 23013KT 10SM SCT095 SCT200 15/M04 A2954 RMK AO2 SLP982 VISNO RWY08 $,M
CXP,2021-03-15 23:10,-119.7326,39.1923,1431.00,39.20,10.40,30.07,340.00,5.00,0.00,29.82,M,10.00,12.00,FEW,M,M,M,6500.00,M,M,M,M,M,M,M,M,M,M,34.95,KCXP 152310Z AUTO 34005G12KT 10SM FEW065 04/M12 A2982 RMK AO2,M
LOL,2021-03-15 23:10,-118.5701,40.0684,1192.43,35.00,30.00,81.46,100.00,5.00,T,29.81,M,3.00,M,BKN,OVC,M,M,2200.00,3300.00,M,M,-SN,M,M,M,M,M,M,30.08,KLOL 152310Z AUTO 10005KT 3SM -SN BKN022 OVC033 02/M01 A2981 RMK AO2 P0000 T00171011,M
BVU,2021-03-15 23:15,-114.8611,35.9475,671.00,64.40,30.20,27.55,160.00,23.00,0.00,29.58,M,10.00,30.00,SCT,BKN,M,M,7500.00,10000.00,M,M,M,M,M,M,M,M,M,64.40,KBVU 152315Z AUTO 16023G30KT 10SM SCT075 BKN100 18/M01 A2958 RMK AO2,M
05U,2021-03-15 23:15,-116.0051,39.6042,1811.23,42.80,26.60,52.45,230.00,13.00,0.00,29.63,M,10.00,M,SCT,M,M,M,7000.00,M,M,M,M,M,M,M,M,M,M,35.40,K05U 152315Z AUTO 23013KT 10SM SCT070 06/M03 A2963 RMK A01,M
MEV,2021-03-15 23:15,-119.7500,38.9963,1441.42,37.40,10.40,32.27,320.00,8.00,0.00,29.81,M,10.00,M,FEW,FEW,FEW,M,4800.00,5500.00,6500.00,M,M,M,M,M,M,M,M,30.76,KMEV 152315Z AUTO 32008KT 10SM FEW048 FEW055 FEW065 03/M12 A2981 RMK AO2,M
BAM,2021-03-15 23:15,-116.8743,40.5990,1382.36,35.60,35.60,100.00,230.00,17.00,0.00,29.72,M,7.00,20.00,BKN,BKN,OVC,M,500.00,2900.00,4700.00,M,M,M,M,M,M,M,M,24.79,KBAM 152315Z AUTO 23017G20KT 7SM BKN005 BKN029 OVC047 02/02 A2972 RMK AO1,M
HTH,2021-03-15 23:15,-118.6315,38.5448,1282.89,41.00,5.00,21.97,10.00,14.00,0.00,29.77,M,10.00,21.00,CLR,M,M,M,M,M,M,M,M,M,M,M,M,M,M,32.76,KHTH 152315Z AUTO 01014G21KT 10SM CLR 05/M15 A2977 RMK A01,M
RTS,2021-03-15 23:15,-119.8764,39.6682,1539.00,37.40,14.00,37.84,330.00,12.00,0.00,29.81,M,10.00,20.00,FEW,M,M,M,5000.00,M,M,M,M,M,M,M,M,M,M,28.87,KRTS 152315Z AUTO 33012G20KT 10SM FEW050 03/M10 A2981 RMK AO2,M
TMT,2021-03-15 23:15,-117.1971,39.4643,1749.34,28.00,25.70,90.94,200.00,8.00,0.00,29.76,M,0.75,M,M,M,M,M,M,M,M,M,-SN,M,M,M,M,M,M,19.19,KTMT 152315Z AUTO 20008KT 3/4SM -SN M02/M03 A2976 RMK AO2 T10221035,M
INS,2021-03-15 23:18,-115.6733,36.5872,955.00,59.00,26.60,28.77,230.00,21.00,0.00,29.54,998.20,10.00,25.00,BKN,BKN,M,M,9000.00,19000.00,M,M,M,M,M,M,M,M,M,59.00,KINS 152318Z AUTO 23021G25KT 10SM BKN090 BKN190 15/M03 A2954 RMK AO2 SLP982 VISNO RWY08 $,M
LSV,2021-03-15 23:19,-115.0343,36.2362,570.00,64.40,33.80,31.85,170.00,14.00,0.00,29.56,1000.00,10.00,M,SCT,M,M,M,7500.00,M,M,M,M,M,M,M,M,M,M,64.40,KLSV 152319Z AUTO 17014KT 10SM SCT075 18/01 A2956 RMK AO2 WSHFT 05 PRESFR SLP000 $,M
WMC,2021-03-15 23:26,-117.8072,40.9019,1315.00,33.00,28.00,81.30,250.00,10.00,T,29.77,M,2.00,M,BKN,OVC,M,M,1900.00,3400.00,M,M,-SN,M,M,M,M,M,M,24.35,KWMC 152326Z AUTO 25010KT 2SM -SN BKN019 OVC034 01/M02 A2977 RMK AO2 P0000 T00061022,M
LOL,2021-03-15 23:27,-118.5701,40.0684,1192.43,35.00,30.90,84.49,110.00,5.00,T,29.81,M,2.00,M,FEW,SCT,OVC,M,1700.00,2700.00,3700.00,M,-SN BR,M,M,M,M,M,M,30.08,KLOL 152327Z AUTO 11005KT 2SM -SN BR FEW017 SCT027 OVC037 02/M01 A2981 RMK AO2 P0000 T00171006,M
WMC,2021-03-15 23:33,-117.8072,40.9019,1315.00,33.00,28.00,81.30,240.00,7.00,0.01,29.77,M,1.75,M,BKN,OVC,M,M,1900.00,3400.00,M,M,-SN,M,M,M,M,M,M,26.12,KWMC 152333Z AUTO 24007KT 1 3/4SM -SN BKN019 OVC034 01/M02 A2977 RMK AO2 P0001 T00061022,M
MEV,2021-03-15 23:35,-119.7500,38.9963,1441.42,37.40,10.40,32.27,320.00,10.00,0.00,29.82,M,10.00,M,CLR,M,M,M,M,M,M,M,M,M,M,M,M,M,M,29.74,KMEV 152335Z AUTO 32010KT 10SM CLR 03/M12 A2982 RMK AO2,M
05U,2021-03-15 23:35,-116.0051,39.6042,1811.23,44.60,26.60,48.96,200.00,13.00,0.00,29.63,M,10.00,M,FEW,FEW,M,M,8000.00,8500.00,M,M,M,M,M,M,M,M,M,37.71,K05U 152335Z AUTO 20013KT 10SM FEW080 FEW085 07/M03 A2963 RMK A01,M
BVU,2021-03-15 23:35,-114.8611,35.9475,671.00,62.60,32.00,31.56,160.00,22.00,0.00,29.58,M,10.00,29.00,BKN,OVC,M,M,7500.00,9500.00,M,M,M,M,M,M,M,M,M,62.60,KBVU 152335Z AUTO 16022G29KT 10SM BKN075 OVC095 17/00 A2958 RMK AO2,M
TMT,2021-03-15 23:35,-117.1971,39.4643,1749.34,28.40,25.70,89.46,210.00,6.00,0.00,29.76,M,1.00,M,M,M,M,M,M,M,M,M,-SN,M,M,M,M,M,M,21.19,KTMT 152335Z AUTO 21006KT 1SM -SN M02/M03 A2976 RMK AO2 T10201035,M
HTH,2021-03-15 23:35,-118.6315,38.5448,1282.89,39.20,10.40,30.07,360.00,18.00,0.00,29.78,M,10.00,23.00,CLR,M,M,M,M,M,M,M,M,M,M,M,M,M,M,29.23,KHTH 152335Z AUTO 36018G23KT 10SM CLR 04/M12 A2978 RMK A01,M
BAM,2021-03-15 23:35,-116.8743,40.5990,1382.36,35.60,35.60,100.00,230.00,17.00,0.00,29.73,M,10.00,22.00,OVC,M,M,M,500.00,M,M,M,M,M,M,M,M,M,M,24.79,KBAM 152335Z AUTO 23017G22KT 10SM OVC005 02/02 A2973 RMK AO1,M
RTS,2021-03-15 23:35,-119.8764,39.6682,1539.00,37.40,15.80,40.93,330.00,12.00,0.00,29.81,M,10.00,19.00,CLR,M,M,M,M,M,M,M,M,M,M,M,M,M,M,28.87,KRTS 152335Z AUTO 33012G19KT 10SM CLR 03/M09 A2981 RMK AO2,M
CXP,2021-03-15 23:35,-119.7326,39.1923,1431.00,37.40,10.40,32.27,310.00,7.00,0.00,29.82,M,10.00,M,CLR,M,M,M,M,M,M,M,M,M,M,M,M,M,M,31.36,KCXP 152335Z AUTO 31007KT 280V340 10SM CLR 03/M12 A2982 RMK AO2,M
LOL,2021-03-15 23:42,-118.5701,40.0684,1192.43,35.00,30.90,84.49,130.00,6.00,T,29.80,M,5.00,M,FEW,BKN,OVC,M,2700.00,3800.00,5000.00,M,-SN BR,M,M,M,M,M,M,29.26,KLOL 152342Z AUTO 13006KT 5SM -SN BR FEW027 BKN038 OVC050 02/M01 A2980 RMK AO2 P0000 T00171006,M
WMC,2021-03-15 23:43,-117.8072,40.9019,1315.00,33.00,28.00,81.30,250.00,7.00,0.01,29.77,M,2.50,M,OVC,M,M,M,1800.00,M,M,M,-SN,M,M,M,M,M,M,26.12,KWMC 152343Z AUTO 25007KT 2 1/2SM -SN OVC018 01/M02 A2977 RMK AO2 P0001 T00061022,M
LSV,2021-03-15 23:49,-115.0343,36.2362,570.00,66.20,33.80,29.92,170.00,22.00,0.00,29.55,999.70,10.00,29.00,SCT,M,M,M,8000.00,M,M,M,M,M,M,M,M,M,M,66.20,KLSV 152349Z 17022G29KT 10SM SCT080 19/01 A2955 RMK AO2A WSHFT 39 SLP997 $,M
INS,2021-03-15 23:50,-115.6733,36.5872,955.00,55.40,30.20,37.97,270.00,11.00,0.00,29.55,998.50,10.00,M,FEW,BKN,M,M,5500.00,8000.00,M,M,M,M,M,M,M,M,M,55.40,KINS 152350Z AUTO 27011KT 10SM FEW055 BKN080 13/M01 A2955 RMK AO2 WSHFT 35 SLP985 VISNO RWY08 $,M
CXP,2021-03-15 23:50,-119.7326,39.1923,1431.00,39.20,10.40,30.07,310.00,11.00,0.00,29.82,M,10.00,M,FEW,FEW,M,M,5000.00,5500.00,M,M,M,M,M,M,M,M,M,31.57,KCXP 152350Z AUTO 31011KT 10SM FEW050 FEW055 04/M12 A2982 RMK AO2,M
WMC,2021-03-15 23:53,-117.8072,40.9019,1315.00,32.00,28.40,86.39,240.00,8.00,0.01,29.78,M,1.50,M,OVC,M,M,M,1600.00,M,M,M,-SN BR,M,M,M,M,M,M,24.11,KWMC 152353Z AUTO 24008KT 1 1/2SM -SN BR OVC016 00/M02 A2978 RMK AO2 P0001,M
LOL,2021-03-15 23:53,-118.5701,40.0684,1192.43,35.00,30.90,84.49,M,5.00,T,29.80,1009.90,9.00,M,FEW,BKN,OVC,M,1200.00,2600.00,4100.00,M,-SN,M,M,M,M,M,M,30.08,KLOL 152353Z AUTO VRB05KT 9SM -SN FEW012 BKN026 OVC041 02/M01 A2980 RMK AO2 SLP099 P0000 60005 T00171006 10028 21011 58007,M
VGT,2021-03-15 23:53,-115.1933,36.2111,667.00,63.00,32.00,31.12,240.00,13.00,0.00,29.51,1000.00,10.00,23.00,SCT,M,M,M,7500.00,M,M,M,M,M,M,M,M,M,M,63.00,KVGT 152353Z 24013G23KT 10SM SCT075 17/00 A2951 RMK AO2 LTG DSNT E AND SE SLP000 T01720000 10200 20172 56032,M
DRA,2021-03-15 23:53,-116.0278,36.6206,1009.00,44.00,28.00,52.86,210.00,8.00,T,29.65,1002.30,10.00,M,OVC,M,M,M,4100.00,M,M,M,-RA,M,M,M,29.00,230.00,2021-03-15 23:08,39.02,KDRA 152353Z AUTO 21008KT 10SM -RA OVC041 07/M02 A2965 RMK AO2 PK WND 23029/2308 RAB23 SLP023 P0000 60000 T00671022 10150 20067 53005,M
ELY,2021-03-15 23:53,-114.8453,39.2950,1909.00,43.00,21.90,42.77,160.00,19.00,0.00,29.61,1000.10,M,30.00,SCT,OVC,M,M,7000.00,9000.00,M,M,M,M,M,M,31.00,170.00,2021-03-15 23:23,33.98,KELY 152353Z AUTO 16019G30KT SCT070 OVC090 06/M06 A2961 RMK AO2 PK WND 17031/2323 SLP001 T00611056 10111 20061 56003 $,M
P68,2021-03-15 23:53,-116.0056,39.6014,1993.00,43.00,28.00,55.14,220.00,11.00,0.00,29.60,1000.00,M,M,M,M,M,M,M,M,M,M,M,M,M,M,M,M,M,36.37,KP68 152353Z AUTO 22011KT 06/M02 A2960 RMK AO1 SLP000 T00611022 10122 20050 50005,M
TMT,2021-03-15 23:55,-117.1971,39.4643,1749.34,26.80,25.20,93.58,230.00,5.00,0.00,29.76,M,0.25,M,M,M,M,M,M,M,M,M,SN,M,M,M,M,M,M,20.22,KTMT 152355Z AUTO 23005KT 1/4SM SN M03/M04 A2976 RMK AO2 60003 T10291038 10056 21030,M
RNO,2021-03-15 23:55,-119.7711,39.4839,1341.00,40.00,15.10,36.01,350.00,11.00,0.00,29.80,1008.90,10.00,20.00,SCT,BKN,BKN,M,6000.00,10000.00,16000.00,M,M,M,M,M,27.00,290.00,2021-03-15 23:30,32.45,KRNO 152355Z 35011G20KT 10SM SCT060 BKN100 BKN160 04/M09 A2980 RMK AO2 PK WND 29027/2330 SLP089 VIRGA DSNT SE AND S SH TPG MTN DSNT SW T00441094 10050 20022 58002 $,M
BVU,2021-03-15 23:55,-114.8611,35.9475,671.00,59.00,35.60,41.42,220.00,16.00,0.00,29.59,M,10.00,26.00,BKN,OVC,M,M,6500.00,7500.00,M,M,M,M,M,M,M,M,M,59.00,KBVU 152355Z AUTO 22016G26KT 10SM BKN065 OVC075 15/02 A2959 RMK AO2 LTG DSNT ALQDS,M
RTS,2021-03-15 23:55,-119.8764,39.6682,1539.00,37.40,17.60,44.25,310.00,14.00,0.00,29.81,M,10.00,M,SCT,BKN,M,M,4200.00,4800.00,M,M,M,M,M,M,M,M,M,28.12,KRTS 152355Z AUTO 31014KT 10SM SCT042 BKN048 03/M08 A2981 RMK AO2,M
05U,2021-03-15 23:55,-116.0051,39.6042,1811.23,42.80,26.60,52.45,230.00,12.00,0.00,29.62,M,10.00,M,CLR,M,M,M,M,M,M,M,M,M,M,M,M,M,M,35.75,K05U 152355Z AUTO 23012KT 10SM CLR 06/M03 A2962 RMK A01,M
MEV,2021-03-15 23:55,-119.7500,38.9963,1441.42,37.40,10.40,32.27,300.00,10.00,0.00,29.82,M,10.00,15.00,FEW,M,M,M,5500.00,M,M,M,M,M,M,M,M,M,M,29.74,KMEV 152355Z AUTO 30010G15KT 10SM FEW055 03/M12 A2982 RMK AO2,M
BAM,2021-03-15 23:55,-116.8743,40.5990,1382.36,35.60,35.60,100.00,230.00,13.00,0.00,29.73,M,10.00,M,BKN,BKN,OVC,M,700.00,2700.00,4800.00,M,M,M,M,M,M,M,M,26.18,KBAM 152355Z AUTO 23013KT 10SM BKN007 BKN027 OVC048 02/02 A2973 RMK AO1,M
HTH,2021-03-15 23:55,-118.6315,38.5448,1282.89,39.20,12.20,32.58,360.00,15.00,0.00,29.78,M,10.00,M,CLR,M,M,M,M,M,M,M,M,M,M,M,M,M,M,30.11,KHTH 152355Z AUTO 36015KT 10SM CLR 04/M11 A2978 RMK A01,M
LAS,2021-03-15 23:56,-115.1634,36.0719,663.00,59.00,35.00,40.61,230.00,19.00,T,29.56,1000.10,10.00,28.00,SCT,SCT,BKN,M,4400.00,7000.00,8500.00,M,M,M,M,M,31.00,230.00,2021-03-15 23:40,59.00,KLAS 152356Z 23019G28KT 10SM SCT044 SCT070 BKN085 15/02 A2956 RMK AO2 PK WND 23031/2340 LTG DSNT E RAB06E15 SLP001 VCSH ALQDS P0000 60000 T01500017 10189 20150 56029,M
HND,2021-03-15 23:56,-115.1344,35.9729,742.79,58.00,37.00,45.54,250.00,11.00,T,29.60,1003.30,10.00,22.00,FEW,SCT,BKN,M,3800.00,5500.00,7000.00,M,M,M,M,M,29.00,240.00,2021-03-15 23:33,57.90,KHND 152356Z 25011G22KT 10SM FEW038 SCT055 BKN070 14/03 A2960 RMK AO2 PK WND 24029/2333 LTG DSNT NE AND E RAE46 SLP033 P0000 60006 T01440028 10189 20128 56023,M
WMC,2021-03-15 23:56,-117.8072,40.9019,1315.00,32.00,28.90,88.17,240.00,8.00,0.01,29.77,1009.20,1.50,M,OVC,M,M,M,1600.00,M,M,M,-SN BR,M,M,M,M,M,M,24.11,KWMC 152356Z AUTO 24008KT 1 1/2SM -SN BR OVC016 00/M02 A2977 RMK AO2 SLP092 P0001 60002 T00001017 10072 20000 50009,M
EKO,2021-03-15 23:56,-115.7860,40.8242,1367.00,48.00,27.00,43.77,270.00,16.00,0.00,29.64,1003.00,10.00,M,OVC,M,M,M,7000.00,M,M,M,M,M,M,M,30.00,220.00,2021-03-15 23:02,41.27,KEKO 152356Z AUTO 27016KT 10SM OVC070 09/M03 A2964 RMK AO2 PK WND 22030/2302 SLP030 T00891028 10156 20089 53018,M
NFL,2021-03-15 23:56,-118.7010,39.4166,1199.00,36.00,24.10,61.62,30.00,7.00,0.00,29.80,1007.00,10.00,M,SCT,BKN,OVC,M,2000.00,3000.00,5000.00,M,M,M,M,M,M,M,M,29.65,KNFL 152356Z 03007KT 10SM SCT020 BKN030 OVC050 02/M04 A2980 RMK AO2 SLP070 CIG AND VIS LWR N-NE T00221044 10039 20006 50001,M
LSV,2021-03-15 23:58,-115.0343,36.2362,570.00,60.80,42.00,50.08,150.00,22.00,T,29.54,999.50,10.00,31.00,BKN,BKN,M,M,7000.00,8500.00,M,M,M,M,M,M,31.00,150.00,2021-03-15 23:51,60.80,KLSV 152358Z 15022G31KT 10SM BKN070 BKN085 16/06 A2954 RMK AO2A RAB27 PK WND 15031/51 SLP995 P0000 T01600056 10196 20160 57029 $,M
INS,2021-03-15 23:58,-115.6733,36.5872,955.00,54.00,31.50,42.12,270.00,21.00,0.00,29.54,998.20,10.00,M,SCT,OVC,M,M,5500.00,7500.00,M,M,M,M,M,M,27.00,240.00,2021-03-15 23:21,54.00,KINS 152358Z AUTO 27021KT 10SM SCT055 OVC075 12/M00 A2954 RMK AO2 PK WND 24027/21 SLP982 T01221003 10170 20122 56016 VISNO RWY08 $,M
