station,valid,lon,lat,elevation,tmpf,dwpf,relh,drct,sknt,p01i,alti,mslp,vsby,gust,skyc1,skyc2,skyc3,skyc4,skyl1,skyl2,skyl3,skyl4,wxcodes,ice_accretion_1hr,ice_accretion_3hr,ice_accretion_6hr,peak_wind_gust,peak_wind_drct,peak_wind_time,feel,metar,snowdepth
05U,2023-07-01 00:10,-116.0051,39.6042,1811.23,84.20,33.80,16.39,10.00,8.00,0.00,30.22,M,10.00,M,CLR,M,M,M,M,M,M,M,M,M,M,M,M,M,M,81.30,K05U 010010Z AUTO 01008KT 10SM CLR 29/01 A3022 RMK A01,M
BVU,2023-07-01 00:15,-114.8611,35.9475,671.00,100.40,32.00,9.21,M,3.00,0.00,29.85,M,10.00,M,CLR,M,M,M,M,M,M,M,M,M,M,M,M,M,M,94.21,KBVU 010015Z AUTO VRB03KT 10SM CLR 38/M00 A2985 RMK AO2,M
RTS,2023-07-01 00:15,-119.8764,39.6682,1539.00,86.00,32.00,14.40,0.00,0.00,0.00,30.15,M,10.00,M,CLR,M,M,M,M,M,M,M,M,M,M,M,M,M,M,82.64,KRTS 010015Z AUTO 00000KT 10SM CLR 30/00 A3015 RMK AO2,M
MEV,2023-07-01 00:15,-119.7500,38.9963,1441.42,89.60,37.40,15.92,290.00,4.00,0.00,30.11,M,10.00,M,CLR,M,M,M,M,M,M,M,M,M,M,M,M,M,M,85.67,KMEV 010015Z AUTO 29004KT 10SM CLR 32/03 A3011 RMK AO2,M
BAM,2023-07-01 00:15,-116.8743,40.5990,1382.36,89.60,33.80,13.80,340.00,4.00,0.00,30.12,M,10.00,M,CLR,M,M,M,M,M,M,M,M,M,M,M,M,M,M,85.59,KBAM 010015Z AUTO 34004KT 10SM CLR 32/01 A3012 RMK AO1,M
HTH,2023-07-01 00:15,-118.6315,38.5448,1282.89,91.40,30.20,11.28,300.00,9.00,0.00,30.06,M,10.00,M,CLR,M,M,M,M,M,M,M,M,M,M,M,M,M,M,86.71,KHTH 010015Z AUTO 30009KT 10SM CLR 33/M01 A3006 RMK A01,M
TMT,2023-07-01 00:15,-117.1971,39.4643,1749.34,83.50,35.60,18.02,0.00,0.00,0.00,30.19,M,10.00,M,CLR,M,M,M,M,M,M,M,M,M,M,M,M,M,M,80.84,KTMT 010015Z AUTO 00000KT 10SM CLR 29/02 A3019 RMK AO2 T02860020,M
BVU,2023-07-01 00:35,-114.8611,35.9475,671.00,100.40,32.00,9.21,80.00,8.00,0.00,29.84,M,10.00,M,CLR,M,M,M,M,M,M,M,M,M,M,M,M,M,M,94.21,KBVU 010035Z AUTO 08008KT 10SM CLR 38/M00 A2984 RMK AO2,M
RTS,2023-07-01 00:35,-119.8764,39.6682,1539.00,86.00,33.80,15.48,M,3.00,0.00,30.14,M,10.00,M,CLR,M,M,M,M,M,M,M,M,M,M,M,M,M,M,82.66,KRTS 010035Z AUTO VRB03KT 10SM CLR 30/01 A3014 RMK AO2,M
05U,2023-07-01 00:35,-116.0051,39.6042,1811.23,84.20,33.80,16.39,10.00,7.00,0.00,30.21,M,10.00,13.00,CLR,M,M,M,M,M,M,M,M,M,M,M,M,M,M,81.30,K05U 010035Z AUTO 01007G13KT 10SM CLR 29/01 A3021 RMK A01,M
MEV,2023-07-01 00:35,-119.7500,38.9963,1441.42,87.80,39.20,18.09,260.00,7.00,0.00,30.10,M,10.00,M,CLR,M,M,M,M,M,M,M,M,M,M,M,M,M,M,84.22,KMEV 010035Z AUTO 26007KT 10SM CLR 31/04 A3010 RMK AO2,M
BAM,2023-07-01 00:35,-116.8743,40.5990,1382.36,89.60,33.80,13.80,30.00,5.00,0.00,30.11,M,10.00,M,CLR,M,M,M,M,M,M,M,M,M,M,M,M,M,M,85.59,KBAM 010035Z AUTO 03005KT 10SM CLR 32/01 A3011 RMK AO1,M
HTH,2023-07-01 00:35,-118.6315,38.5448,1282.89,91.40,30.20,11.28,310.00,10.00,0.00,30.06,M,10.00,M,CLR,M,M,M,M,M,M,M,M,M,M,M,M,M,M,86.71,KHTH 010035Z AUTO 31010KT 10SM CLR 33/M01 A3006 RMK A01,M
TMT,2023-07-01 00:35,-117.1971,39.4643,1749.34,83.50,35.60,18.02,60.00,5.00,0.00,30.19,M,10.00,M,CLR,M,M,M,M,M,M,M,M,M,M,M,M,M,M,80.84,KTMT 010035Z AUTO 06005KT 10SM CLR 29/02 A3019 RMK AO2 T02860020,M
CXP,2023-07-01 00:50,-119.7326,39.1923,1431.00,M,M,M,M,M,0.00,30.11,M,M,M,M,M,M,M,M,M,M,M,M,M,M,M,M,M,M,M,KCXP 010050Z AUTO A3011 RMK AO2 PWINO,M
P68,2023-07-01 00:53,-116.0056,39.6014,1993.00,84.00,34.00,16.63,340.00,7.00,0.00,30.18,1014.10,M,M,M,M,M,M,M,M,M,M,M,M,M,M,M,M,M,81.16,KP68 010053Z AUTO 34007KT 29/01 A3018 RMK AO1 SLP141 T02890011,M
DRA,2023-07-01 00:53,-116.0278,36.6206,1009.00,99.00,32.00,9.60,M,3.00,0.00,29.92,1007.50,10.00,M,CLR,M,M,M,M,M,M,M,M,M,M,M,M,M,M,93.03,KDRA 010053Z AUTO VRB03KT 10SM CLR 37/00 A2992 RMK AO2 SLP075 T03720000,M
ELY,2023-07-01 00:53,-114.8453,39.2950,1909.00,81.00,37.00,20.65,50.00,9.00,0.00,30.20,1014.30,10.00,16.00,CLR,M,M,M,M,M,M,M,M,M,M,M,M,M,M,79.24,KELY 010053Z AUTO 05009G16KT 10SM CLR 27/03 A3020 RMK AO2 SLP143 T02720028,M
VGT,2023-07-01 00:53,-115.1933,36.2111,667.00,102.00,36.00,10.29,130.00,6.00,0.00,29.84,1009.00,10.00,M,CLR,M,M,M,M,M,M,M,M,M,M,M,M,M,M,96.20,KVGT 010053Z 13006KT 10SM CLR 39/02 A2984 RMK AO2 SLP090 T03890022,M
LOL,2023-07-01 00:53,-118.5701,40.0684,1192.43,92.00,40.00,16.34,180.00,9.00,0.00,30.03,1012.80,10.00,M,CLR,M,M,M,M,M,M,M,M,M,M,M,M,M,M,87.78,KLOL 010053Z AUTO 18009KT 10SM CLR 33/04 A3003 RMK AO2 SLP128 T03330044,M
BVU,2023-07-01 00:55,-114.8611,35.9475,671.00,100.40,32.00,9.21,50.00,9.00,0.00,29.84,M,10.00,M,CLR,M,M,M,M,M,M,M,M,M,M,M,M,M,M,94.21,KBVU 010055Z AUTO 05009KT 10SM CLR 38/M00 A2984 RMK AO2,M
LSV,2023-07-01 00:55,-115.0343,36.2362,570.00,102.40,32.70,8.92,0.00,0.00,0.00,29.79,1006.10,10.00,M,CLR,M,M,M,M,M,M,M,M,M,M,M,M,M,M,96.01,KLSV 010055Z AUTO 00000KT 10SM CLR 39/00 A2979 RMK AO2 SLP061 T03910004 $,M
RTS,2023-07-01 00:55,-119.8764,39.6682,1539.00,86.00,32.00,14.40,0.00,0.00,0.00,30.14,M,10.00,M,CLR,M,M,M,M,M,M,M,M,M,M,M,M,M,M,82.64,KRTS 010055Z AUTO 00000KT 10SM CLR 30/00 A3014 RMK AO2,M
05U,2023-07-01 00:55,-116.0051,39.6042,1811.23,84.20,35.60,17.61,10.00,8.00,0.00,30.21,M,10.00,M,CLR,M,M,M,M,M,M,M,M,M,M,M,M,M,M,81.34,K05U 010055Z AUTO 01008KT 10SM CLR 29/02 A3021 RMK A01,M
MEV,2023-07-01 00:55,-119.7500,38.9963,1441.42,87.80,41.00,19.40,270.00,5.00,0.00,30.10,M,10.00,11.00,CLR,M,M,M,M,M,M,M,M,M,M,M,M,M,M,84.30,KMEV 010055Z AUTO 27005G11KT 10SM CLR 31/05 A3010 RMK AO2,M
BAM,2023-07-01 00:55,-116.8743,40.5990,1382.36,89.60,33.80,13.80,350.00,6.00,0.00,30.11,M,10.00,M,CLR,M,M,M,M,M,M,M,M,M,M,M,M,M,M,85.59,KBAM 010055Z AUTO 35006KT 10SM CLR 32/01 A3011 RMK AO1,M
HTH,2023-07-01 00:55,-118.6315,38.5448,1282.89,91.40,30.20,11.28,310.00,11.00,0.00,30.05,M,10.00,M,CLR,M,M,M,M,M,M,M,M,M,M,M,M,M,M,86.71,KHTH 010055Z AUTO 31011KT 10SM CLR 33/M01 A3005 RMK A01,M
TMT,2023-07-01 00:55,-117.1971,39.4643,1749.34,83.50,37.20,19.19,10.00,5.00,0.00,30.18,M,10.00,M,CLR,M,M,M,M,M,M,M,M,M,M,M,M,M,M,80.88,KTMT 010055Z AUTO 01005KT 10SM CLR 29/03 A3018 RMK AO2 T02860029,M
INS,2023-07-01 00:55,-115.6733,36.5872,955.00,96.80,25.70,7.94,160.00,5.00,0.00,29.91,1007.80,10.00,M,CLR,M,M,M,M,M,M,M,M,M,M,M,M,M,M,90.48,KINS 010055Z AUTO 16005KT 10SM CLR 36/M03 A2991 RMK AO2 SLP078 T03601035 $,M
RNO,2023-07-01 00:55,-119.7711,39.4839,1341.00,92.00,35.00,13.53,60.00,6.00,0.00,30.07,1012.40,10.00,M,FEW,M,M,M,13000.00,M,M,M,M,M,M,M,M,M,M,87.60,KRNO 010055Z 06006KT 10SM FEW130 33/02 A3007 RMK AO2 SLP124 T03330017,M
EKO,2023-07-01 00:56,-115.7860,40.8242,1367.00,85.00,41.00,21.28,150.00,3.00,0.00,30.13,1015.10,10.00,M,CLR,M,M,M,M,M,M,M,M,M,M,M,M,M,M,82.03,KEKO 010056Z AUTO 15003KT 10SM CLR 29/05 A3013 RMK AO2 SLP151 T02940050,M
NFL,2023-07-01 00:56,-118.7010,39.4166,1199.00,93.00,34.00,12.51,340.00,6.00,0.00,30.04,1014.20,10.00,M,CLR,M,M,M,M,M,M,M,M,M,M,M,M,M,M,88.42,KNFL 010056Z 34006KT 10SM CLR 34/01 A3004 RMK AO2 SLP142 T03390011,M
HND,2023-07-01 00:56,-115.1344,35.9729,742.79,100.00,37.00,11.37,20.00,8.00,0.00,29.89,1010.50,10.00,M,CLR,M,M,M,M,M,M,M,M,M,M,M,M,M,M,94.66,KHND 010056Z 02008KT 10SM CLR 38/03 A2989 RMK AO2 SLP105 T03780028,M
TPH,2023-07-01 00:56,-117.0904,38.0505,1654.00,90.00,50.00,25.46,M,6.00,0.00,30.12,1011.70,10.00,16.00,CLR,M,M,M,M,M,M,M,M,M,M,M,M,M,M,87.06,KTPH 010056Z AUTO VRB06G16KT 10SM CLR 32/10 A3012 RMK AO2 SLP117 T03220100,M
LAS,2023-07-01 00:56,-115.1634,36.0719,663.00,100.00,34.00,10.10,M,3.00,0.00,29.85,1007.70,10.00,M,CLR,M,M,M,M,M,M,M,M,M,M,M,M,M,M,94.16,KLAS 010056Z VRB03KT 10SM CLR 38/01 A2985 RMK AO2 SLP077 T03780011,M
WMC,2023-07-01 00:56,-117.8072,40.9019,1315.00,93.00,35.00,13.07,M,3.00,0.00,30.07,1013.70,10.00,M,CLR,M,M,M,M,M,M,M,M,M,M,M,M,M,M,88.56,KWMC 010056Z AUTO VRB03KT 10SM CLR 34/02 A3007 RMK AO2 SLP137 T03390017,M
BVU,2023-07-01 01:15,-114.8611,35.9475,671.00,100.40,32.00,9.21,0.00,0.00,0.00,29.84,M,10.00,M,CLR,M,M,M,M,M,M,M,M,M,M,M,M,M,M,94.21,KBVU 010115Z AUTO 00000KT 10SM CLR 38/M00 A2984 RMK AO2,M
CXP,2023-07-01 01:15,-119.7326,39.1923,1431.00,89.60,33.80,13.80,0.00,0.00,0.00,30.10,M,10.00,M,M,M,M,M,M,M,M,M,M,M,M,M,M,M,M,85.59,KCXP 010115Z AUTO 00000KT 10SM 32/01 A3010 RMK AO2,M
RTS,2023-07-01 01:15,-119.8764,39.6682,1539.00,86.00,35.60,16.63,0.00,0.00,0.00,30.14,M,10.00,M,CLR,M,M,M,M,M,M,M,M,M,M,M,M,M,M,82.69,KRTS 010115Z AUTO 00000KT 10SM CLR 30/02 A3014 RMK AO2,M
05U,2023-07-01 01:15,-116.0051,39.6042,1811.23,82.40,33.80,17.38,20.00,4.00,0.00,30.21,M,10.00,M,CLR,M,M,M,M,M,M,M,M,M,M,M,M,M,M,80.03,K05U 010115Z AUTO 02004KT 10SM CLR 28/01 A3021 RMK A01,M
MEV,2023-07-01 01:15,-119.7500,38.9963,1441.42,87.80,41.00,19.40,260.00,4.00,0.00,30.10,M,10.00,M,CLR,M,M,M,M,M,M,M,M,M,M,M,M,M,M,84.30,KMEV 010115Z AUTO 26004KT 10SM CLR 31/05 A3010 RMK AO2,M
BAM,2023-07-01 01:15,-116.8743,40.5990,1382.36,89.60,33.80,13.80,360.00,4.00,0.00,30.10,M,10.00,M,CLR,M,M,M,M,M,M,M,M,M,M,M,M,M,M,85.59,KBAM 010115Z AUTO 36004KT 10SM CLR 32/01 A3010 RMK AO1,M
HTH,2023-07-01 01:15,-118.6315,38.5448,1282.89,91.40,30.20,11.28,340.00,9.00,0.00,30.05,M,10.00,M,CLR,M,M,M,M,M,M,M,M,M,M,M,M,M,M,86.71,KHTH 010115Z AUTO 34009KT 10SM CLR 33/M01 A3005 RMK A01,M
TMT,2023-07-01 01:15,-117.1971,39.4643,1749.34,83.00,36.00,18.66,0.00,0.00,0.00,30.18,M,10.00,M,CLR,M,M,M,M,M,M,M,M,M,M,M,M,M,M,80.43,KTMT 010115Z AUTO 00000KT 10SM CLR 28/02 A3018 RMK AO2 T02830022,M
BVU,2023-07-01 01:35,-114.8611,35.9475,671.00,100.40,32.00,9.21,40.00,7.00,0.00,29.84,M,10.00,M,CLR,M,M,M,M,M,M,M,M,M,M,M,M,M,M,94.21,KBVU 010135Z AUTO 04007KT 10SM CLR 38/M00 A2984 RMK AO2,M
CXP,2023-07-01 01:35,-119.7326,39.1923,1431.00,89.60,32.00,12.84,0.00,0.00,0.00,30.10,M,10.00,M,CLR,M,M,M,M,M,M,M,M,M,M,M,M,M,M,85.54,KCXP 010135Z AUTO 00000KT 10SM CLR 32/00 A3010 RMK AO2,M
RTS,2023-07-01 01:35,-119.8764,39.6682,1539.00,86.00,35.60,16.63,0.00,0.00,0.00,30.14,M,10.00,M,CLR,M,M,M,M,M,M,M,M,M,M,M,M,M,M,82.69,KRTS 010135Z AUTO 00000KT 10SM CLR 30/02 A3014 RMK AO2,M
05U,2023-07-01 01:35,-116.0051,39.6042,1811.23,82.40,35.60,18.67,M,M,0.00,30.21,M,10.00,M,CLR,M,M,M,M,M,M,M,M,M,M,M,M,M,M,80.08,K05U 010135Z AUTO 10SM CLR 28/02 A3021 RMK A01,M
MEV,2023-07-01 01:35,-119.7500,38.9963,1441.42,86.00,44.60,23.59,260.00,8.00,0.00,30.10,M,10.00,M,CLR,M,M,M,M,M,M,M,M,M,M,M,M,M,M,83.07,KMEV 010135Z AUTO 26008KT 10SM CLR 30/07 A3010 RMK AO2,M
BAM,2023-07-01 01:35,-116.8743,40.5990,1382.36,89.60,33.80,13.80,340.00,5.00,0.00,30.10,M,10.00,M,CLR,M,M,M,M,M,M,M,M,M,M,M,M,M,M,85.59,KBAM 010135Z AUTO 34005KT 10SM CLR 32/01 A3010 RMK AO1,M
HTH,2023-07-01 01:35,-118.6315,38.5448,1282.89,91.40,30.20,11.28,320.00,11.00,0.00,30.05,M,10.00,M,CLR,M,M,M,M,M,M,M,M,M,M,M,M,M,M,86.71,KHTH 010135Z AUTO 32011KT 10SM CLR 33/M01 A3005 RMK A01,M
TMT,2023-07-01 01:35,-117.1971,39.4643,1749.34,83.30,38.50,20.33,40.00,7.00,0.00,30.18,M,10.00,M,CLR,M,M,M,M,M,M,M,M,M,M,M,M,M,M,80.78,KTMT 010135Z AUTO 04007KT 10SM CLR 29/04 A3018 RMK AO2 T02850036,M
DRA,2023-07-01 01:53,-116.0278,36.6206,1009.00,98.00,32.00,9.87,M,3.00,0.00,29.92,1007.40,10.00,M,CLR,M,M,M,M,M,M,M,M,M,M,M,M,M,M,92.27,KDRA 010153Z AUTO VRB03KT 10SM CLR 37/00 A2992 RMK AO2 SLP074 T03670000,M
ELY,2023-07-01 01:53,-114.8453,39.2950,1909.00,79.00,37.00,22.05,30.00,9.00,0.00,30.21,1014.00,10.00,M,CLR,M,M,M,M,M,M,M,M,M,M,M,M,M,M,79.00,KELY 010153Z AUTO 03009KT 10SM CLR 26/03 A3021 RMK AO2 SLP140 T02610028,M
VGT,2023-07-01 01:53,-115.1933,36.2111,667.00,101.00,36.00,10.64,M,6.00,0.00,29.84,1009.10,10.00,M,CLR,M,M,M,M,M,M,M,M,M,M,M,M,M,M,95.25,KVGT 010153Z VRB06KT 10SM CLR 38/02 A2984 RMK AO2 SLP091 T03830022,M
P68,2023-07-01 01:53,-116.0056,39.6014,1993.00,82.00,35.00,18.54,30.00,8.00,0.00,30.18,1013.80,M,M,M,M,M,M,M,M,M,M,M,M,M,M,M,M,M,79.80,KP68 010153Z AUTO 03008KT 28/02 A3018 RMK AO1 SLP138 T02780017,M
LOL,2023-07-01 01:53,-118.5701,40.0684,1192.43,90.00,40.00,17.34,120.00,7.00,0.00,30.02,1012.60,10.00,M,CLR,M,M,M,M,M,M,M,M,M,M,M,M,M,M,86.11,KLOL 010153Z AUTO 12007KT 10SM CLR 32/04 A3002 RMK AO2 SLP126 T03220044,M
BVU,2023-07-01 01:55,-114.8611,35.9475,671.00,100.40,32.00,9.21,50.00,4.00,0.00,29.84,M,10.00,M,CLR,M,M,M,M,M,M,M,M,M,M,M,M,M,M,94.21,KBVU 010155Z AUTO 05004KT 10SM CLR 38/M00 A2984 RMK AO2,M
CXP,2023-07-01 01:55,-119.7326,39.1923,1431.00,87.80,35.60,15.70,M,5.00,0.00,30.10,M,10.00,M,CLR,M,M,M,M,M,M,M,M,M,M,M,M,M,M,84.12,KCXP 010155Z AUTO VRB05KT 10SM CLR 31/02 A3010 RMK AO2,M
RNO,2023-07-01 01:55,-119.7711,39.4839,1341.00,92.00,36.00,14.02,40.00,6.00,0.00,30.06,1012.00,10.00,M,FEW,M,M,M,12000.00,M,M,M,M,M,M,M,M,M,M,87.62,KRNO 010155Z 04006KT 10SM FEW120 33/02 A3006 RMK AO2 SLP120 T03330022,M
RTS,2023-07-01 01:55,-119.8764,39.6682,1539.00,86.00,35.60,16.63,0.00,0.00,0.00,30.13,M,10.00,M,CLR,M,M,M,M,M,M,M,M,M,M,M,M,M,M,82.69,KRTS 010155Z AUTO 00000KT 10SM CLR 30/02 A3013 RMK AO2,M
05U,2023-07-01 01:55,-116.0051,39.6042,1811.23,80.60,35.60,19.79,10.00,8.00,0.00,30.21,M,10.00,M,CLR,M,M,M,M,M,M,M,M,M,M,M,M,M,M,78.94,K05U 010155Z AUTO 01008KT 10SM CLR 27/02 A3021 RMK A01,M
MEV,2023-07-01 01:55,-119.7500,38.9963,1441.42,86.00,44.60,23.59,280.00,7.00,0.00,30.10,M,10.00,12.00,CLR,M,M,M,M,M,M,M,M,M,M,M,M,M,M,83.07,KMEV 010155Z AUTO 28007G12KT 10SM CLR 30/07 A3010 RMK AO2,M
BAM,2023-07-01 01:55,-116.8743,40.5990,1382.36,89.60,32.00,12.84,360.00,4.00,0.00,30.10,M,10.00,M,CLR,M,M,M,M,M,M,M,M,M,M,M,M,M,M,85.54,KBAM 010155Z AUTO 36004KT 10SM CLR 32/00 A3010 RMK AO1,M
HTH,2023-07-01 01:55,-118.6315,38.5448,1282.89,89.60,30.20,11.94,320.00,8.00,0.00,30.05,M,10.00,M,CLR,M,M,M,M,M,M,M,M,M,M,M,M,M,M,85.34,KHTH 010155Z AUTO 32008KT 10SM CLR 32/M01 A3005 RMK A01,M
TMT,2023-07-01 01:55,-117.1971,39.4643,1749.34,82.80,36.70,19.25,20.00,7.00,0.00,30.18,M,10.00,M,CLR,M,M,M,M,M,M,M,M,M,M,M,M,M,M,80.38,KTMT 010155Z AUTO 02007KT 10SM CLR 28/03 A3018 RMK AO2 T02820026,M
INS,2023-07-01 01:55,-115.6733,36.5872,955.00,97.00,25.90,7.95,0.00,0.00,0.00,29.91,1007.50,10.00,M,CLR,M,M,M,M,M,M,M,M,M,M,M,M,M,M,90.67,KINS 010155Z AUTO 00000KT 10SM CLR 36/M03 A2991 RMK AO2 SLP075 T03611034 $,M
LSV,2023-07-01 01:55,-115.0343,36.2362,570.00,100.60,31.50,8.97,70.00,4.00,0.00,29.79,1006.10,10.00,M,CLR,M,M,M,M,M,M,M,M,M,M,M,M,M,M,94.31,KLSV 010155Z AUTO 07004KT 10SM CLR 38/M00 A2979 RMK AO2 SLP061 T03811003 $,M
EKO,2023-07-01 01:56,-115.7860,40.8242,1367.00,84.00,43.00,23.66,220.00,4.00,0.00,30.13,1014.70,10.00,M,CLR,M,M,M,M,M,M,M,M,M,M,M,M,M,M,81.48,KEKO 010156Z AUTO 22004KT 10SM CLR 29/06 A3013 RMK AO2 SLP147 T02890061,M
NFL,2023-07-01 01:56,-118.7010,39.4166,1199.00,91.00,32.00,12.29,0.00,0.00,0.00,30.04,1014.00,10.00,M,CLR,M,M,M,M,M,M,M,M,M,M,M,M,M,M,86.61,KNFL 010156Z 00000KT 10SM CLR 33/00 A3004 RMK AO2 SLP140 T03280000,M
HND,2023-07-01 01:56,-115.1344,35.9729,742.79,100.00,37.00,11.37,M,5.00,0.00,29.89,1010.50,10.00,M,CLR,M,M,M,M,M,M,M,M,M,M,M,M,M,M,94.66,KHND 010156Z VRB05KT 10SM CLR 38/03 A2989 RMK AO2 SLP105 T03780028,M
TPH,2023-07-01 01:56,-117.0904,38.0505,1654.00,88.00,46.00,23.34,290.00,10.00,0.00,30.12,1011.40,10.00,M,CLR,M,M,M,M,M,M,M,M,M,M,M,M,M,M,84.81,KTPH 010156Z AUTO 29010KT 10SM CLR 31/08 A3012 RMK AO2 SLP114 T03110078,M
WMC,2023-07-01 01:56,-117.8072,40.9019,1315.00,90.00,35.00,14.36,M,3.00,0.00,30.07,1013.00,10.00,M,CLR,M,M,M,M,M,M,M,M,M,M,M,M,M,M,85.95,KWMC 010156Z AUTO VRB03KT 10SM CLR 32/02 A3007 RMK AO2 SLP130 T03220017,M
LAS,2023-07-01 01:56,-115.1634,36.0719,663.00,100.00,35.00,10.55,0.00,0.00,0.00,29.85,1007.80,10.00,M,CLR,M,M,M,M,M,M,M,M,M,M,M,M,M,M,94.33,KLAS 010156Z 00000KT 10SM CLR 38/02 A2985 RMK AO2 SLP078 T03780017,M
CXP,2023-07-01 02:10,-119.7326,39.1923,1431.00,87.80,37.40,16.86,260.00,7.00,0.00,30.10,M,10.00,M,CLR,M,M,M,M,M,M,M,M,M,M,M,M,M,M,84.16,KCXP 010210Z AUTO 26007KT 10SM CLR 31/03 A3010 RMK AO2,M
BVU,2023-07-01 02:15,-114.8611,35.9475,671.00,100.40,32.00,9.21,60.00,6.00,0.00,29.85,M,10.00,M,CLR,M,M,M,M,M,M,M,M,M,M,M,M,M,M,94.21,KBVU 010215Z AUTO 06006KT 10SM CLR 38/M00 A2985 RMK AO2,M
RTS,2023-07-01 02:15,-119.8764,39.6682,1539.00,86.00,35.60,16.63,M,4.00,0.00,30.14,M,10.00,M,CLR,M,M,M,M,M,M,M,M,M,M,M,M,M,M,82.69,KRTS 010215Z AUTO VRB04KT 10SM CLR 30/02 A3014 RMK AO2,M
05U,2023-07-01 02:15,-116.0051,39.6042,1811.23,80.60,37.40,21.25,20.00,5.00,0.00,30.22,M,10.00,M,CLR,M,M,M,M,M,M,M,M,M,M,M,M,M,M,79.02,K05U 010215Z AUTO 02005KT 10SM CLR 27/03 A3022 RMK A01,M
MEV,2023-07-01 02:15,-119.7500,38.9963,1441.42,84.20,42.80,23.33,290.00,8.00,0.00,30.10,M,10.00,M,CLR,M,M,M,M,M,M,M,M,M,M,M,M,M,M,81.61,KMEV 010215Z AUTO 29008KT 10SM CLR 29/06 A3010 RMK AO2,M
BAM,2023-07-01 02:15,-116.8743,40.5990,1382.36,87.80,33.80,14.61,350.00,3.00,0.00,30.10,M,10.00,M,CLR,M,M,M,M,M,M,M,M,M,M,M,M,M,M,84.10,KBAM 010215Z AUTO 35003KT 10SM CLR 31/01 A3010 RMK AO1,M
HTH,2023-07-01 02:15,-118.6315,38.5448,1282.89,89.60,32.00,12.84,310.00,10.00,0.00,30.06,M,10.00,M,CLR,M,M,M,M,M,M,M,M,M,M,M,M,M,M,85.54,KHTH 010215Z AUTO 31010KT 10SM CLR 32/M00 A3006 RMK A01,M
TMT,2023-07-01 02:15,-117.1971,39.4643,1749.34,82.20,35.20,18.49,10.00,6.00,0.00,30.19,M,10.00,M,CLR,M,M,M,M,M,M,M,M,M,M,M,M,M,M,79.94,KTMT 010215Z AUTO 01006KT 10SM CLR 28/02 A3019 RMK AO2 T02790018,M
BVU,2023-07-01 02:35,-114.8611,35.9475,671.00,98.60,32.00,9.72,50.00,5.00,0.00,29.85,M,10.00,M,CLR,M,M,M,M,M,M,M,M,M,M,M,M,M,M,92.69,KBVU 010235Z AUTO 05005KT 10SM CLR 37/00 A2985 RMK AO2,M
CXP,2023-07-01 02:35,-119.7326,39.1923,1431.00,86.00,42.80,22.02,290.00,7.00,0.00,30.11,M,10.00,M,CLR,M,M,M,M,M,M,M,M,M,M,M,M,M,M,82.95,KCXP 010235Z AUTO 29007KT 10SM CLR 30/06 A3011 RMK AO2,M
RTS,2023-07-01 02:35,-119.8764,39.6682,1539.00,84.20,41.00,21.76,290.00,4.00,0.00,30.14,M,10.00,M,CLR,M,M,M,M,M,M,M,M,M,M,M,M,M,M,81.52,KRTS 010235Z AUTO 29004KT 10SM CLR 29/05 A3014 RMK AO2,M
05U,2023-07-01 02:35,-116.0051,39.6042,1811.23,78.80,39.20,24.19,10.00,5.00,0.00,30.22,M,10.00,M,CLR,M,M,M,M,M,M,M,M,M,M,M,M,M,M,78.80,K05U 010235Z AUTO 01005KT 10SM CLR 26/04 A3022 RMK A01,M
MEV,2023-07-01 02:35,-119.7500,38.9963,1441.42,82.40,42.80,24.72,280.00,10.00,0.00,30.10,M,10.00,M,CLR,M,M,M,M,M,M,M,M,M,M,M,M,M,M,80.39,KMEV 010235Z AUTO 28010KT 10SM CLR 28/06 A3010 RMK AO2,M
BAM,2023-07-01 02:35,-116.8743,40.5990,1382.36,87.80,33.80,14.61,340.00,3.00,0.00,30.10,M,10.00,M,CLR,M,M,M,M,M,M,M,M,M,M,M,M,M,M,84.10,KBAM 010235Z AUTO 34003KT 10SM CLR 31/01 A3010 RMK AO1,M
HTH,2023-07-01 02:35,-118.6315,38.5448,1282.89,87.80,33.80,14.61,310.00,10.00,0.00,30.06,M,10.00,M,CLR,M,M,M,M,M,M,M,M,M,M,M,M,M,M,84.10,KHTH 010235Z AUTO 31010KT 10SM CLR 31/01 A3006 RMK A01,M
TMT,2023-07-01 02:35,-117.1971,39.4643,1749.34,81.00,36.50,20.18,20.00,6.00,0.00,30.19,M,10.00,M,CLR,M,M,M,M,M,M,M,M,M,M,M,M,M,M,79.28,KTMT 010235Z AUTO 02006KT 10SM CLR 27/03 A3019 RMK AO2 T02730025,M
P68,2023-07-01 02:53,-116.0056,39.6014,1993.00,75.00,41.00,29.43,40.00,6.00,0.00,30.19,1013.90,M,M,M,M,M,M,M,M,M,M,M,M,M,M,M,M,M,75.00,KP68 010253Z AUTO 04006KT 24/05 A3019 RMK AO1 SLP139 T02390050 53000,M
DRA,2023-07-01 02:53,-116.0278,36.6206,1009.00,95.00,32.00,10.85,110.00,6.00,0.00,29.93,1007.60,10.00,M,CLR,M,M,M,M,M,M,M,M,M,M,M,M,M,M,89.71,KDRA 010253Z AUTO 11006KT 10SM CLR 35/00 A2993 RMK AO2 SLP076 T03500000 55003,M
ELY,2023-07-01 02:53,-114.8453,39.2950,1909.00,73.00,39.00,29.12,10.00,7.00,0.00,30.22,1013.80,10.00,M,CLR,M,M,M,M,M,M,M,M,M,M,M,M,M,M,73.00,KELY 010253Z AUTO 01007KT 10SM CLR 23/04 A3022 RMK AO2 SLP138 T02280039 53000,M
VGT,2023-07-01 02:53,-115.1933,36.2111,667.00,100.00,36.00,10.93,130.00,5.00,0.00,29.84,1009.00,10.00,M,CLR,M,M,M,M,M,M,M,M,M,M,M,M,M,M,94.48,KVGT 010253Z 13005KT 10SM CLR 38/02 A2984 RMK AO2 SLP090 T03780022 55003,M
LOL,2023-07-01 02:53,-118.5701,40.0684,1192.43,88.00,42.00,20.11,160.00,4.00,0.00,30.02,1012.30,10.00,M,CLR,M,M,M,M,M,M,M,M,M,M,M,M,M,M,84.52,KLOL 010253Z AUTO 16004KT 10SM CLR 31/06 A3002 RMK AO2 SLP123 T03110056 55005,M
BVU,2023-07-01 02:55,-114.8611,35.9475,671.00,96.80,35.60,11.86,50.00,6.00,0.00,29.85,M,10.00,M,CLR,M,M,M,M,M,M,M,M,M,M,M,M,M,M,91.72,KBVU 010255Z AUTO 05006KT 10SM CLR 36/02 A2985 RMK AO2,M
CXP,2023-07-01 02:55,-119.7326,39.1923,1431.00,84.20,42.80,23.33,290.00,5.00,0.00,30.11,M,10.00,M,CLR,M,M,M,M,M,M,M,M,M,M,M,M,M,M,81.61,KCXP 010255Z AUTO 29005KT 10SM CLR 29/06 A3011 RMK AO2,M
RNO,2023-07-01 02:55,-119.7711,39.4839,1341.00,90.00,36.00,14.88,40.00,5.00,0.00,30.07,1012.10,10.00,M,CLR,M,M,M,M,M,M,M,M,M,M,M,M,M,M,85.97,KRNO 010255Z 04005KT 10SM CLR 32/02 A3007 RMK AO2 SLP121 T03220022 55004,M
LSV,2023-07-01 02:55,-115.0343,36.2362,570.00,98.20,32.40,10.00,80.00,5.00,0.00,29.80,1006.20,10.00,M,CLR,M,M,M,M,M,M,M,M,M,M,M,M,M,M,92.41,KLSV 010255Z AUTO 08005KT 10SM CLR 37/00 A2980 RMK AO2 SLP062 T03680002 55004 $,M
RTS,2023-07-01 02:55,-119.8764,39.6682,1539.00,82.40,44.60,26.49,290.00,5.00,0.00,30.14,M,10.00,M,CLR,M,M,M,M,M,M,M,M,M,M,M,M,M,M,80.50,KRTS 010255Z AUTO 29005KT 10SM CLR 28/07 A3014 RMK AO2,M
05U,2023-07-01 02:55,-116.0051,39.6042,1811.23,75.20,41.00,29.23,360.00,5.00,0.00,30.22,M,10.00,M,CLR,M,M,M,M,M,M,M,M,M,M,M,M,M,M,75.20,K05U 010255Z AUTO 36005KT 10SM CLR 24/05 A3022 RMK A01,M
MEV,2023-07-01 02:55,-119.7500,38.9963,1441.42,80.60,42.80,26.22,280.00,10.00,0.00,30.10,M,10.00,M,CLR,M,M,M,M,M,M,M,M,M,M,M,M,M,M,79.30,KMEV 010255Z AUTO 28010KT 10SM CLR 27/06 A3010 RMK AO2,M
BAM,2023-07-01 02:55,-116.8743,40.5990,1382.36,87.80,35.60,15.70,340.00,4.00,0.00,30.10,M,10.00,M,CLR,M,M,M,M,M,M,M,M,M,M,M,M,M,M,84.12,KBAM 010255Z AUTO 34004KT 10SM CLR 31/02 A3010 RMK AO1,M
HTH,2023-07-01 02:55,-118.6315,38.5448,1282.89,86.00,33.80,15.48,310.00,7.00,0.00,30.06,M,10.00,M,CLR,M,M,M,M,M,M,M,M,M,M,M,M,M,M,82.66,KHTH 010255Z AUTO 31007KT 10SM CLR 30/01 A3006 RMK A01,M
TMT,2023-07-01 02:55,-117.1971,39.4643,1749.34,79.50,36.30,21.10,10.00,6.00,0.00,30.19,M,10.00,M,CLR,M,M,M,M,M,M,M,M,M,M,M,M,M,M,79.50,KTMT 010255Z AUTO 01006KT 10SM CLR 26/02 A3019 RMK AO2 T02640024,M
INS,2023-07-01 02:55,-115.6733,36.5872,955.00,94.80,24.30,7.96,90.00,4.00,0.00,29.91,1007.50,10.00,M,CLR,M,M,M,M,M,M,M,M,M,M,M,M,M,M,88.72,KINS 010255Z AUTO 09004KT 10SM CLR 35/M04 A2991 RMK AO2 SLP075 T03491043 56006 $,M
HND,2023-07-01 02:56,-115.1344,35.9729,742.79,97.00,37.00,12.46,50.00,3.00,0.00,29.90,1010.50,10.00,M,CLR,M,M,M,M,M,M,M,M,M,M,M,M,M,M,92.13,KHND 010256Z 05003KT 10SM CLR 36/03 A2990 RMK AO2 SLP105 T03610028 55003,M
TPH,2023-07-01 02:56,-117.0904,38.0505,1654.00,85.00,46.00,25.77,320.00,9.00,0.00,30.12,1011.30,10.00,M,CLR,M,M,M,M,M,M,M,M,M,M,M,M,M,M,82.35,KTPH 010256Z AUTO 32009KT 10SM CLR 29/08 A3012 RMK AO2 SLP113 T02940078 55002,M
WMC,2023-07-01 02:56,-117.8072,40.9019,1315.00,88.00,35.00,15.29,0.00,0.00,0.00,30.07,1012.80,10.00,M,CLR,M,M,M,M,M,M,M,M,M,M,M,M,M,M,84.28,KWMC 010256Z AUTO 00000KT 10SM CLR 31/02 A3007 RMK AO2 SLP128 T03110017 55004,M
LAS,2023-07-01 02:56,-115.1634,36.0719,663.00,99.00,35.00,10.87,110.00,3.00,0.00,29.85,1007.80,10.00,M,CLR,M,M,M,M,M,M,M,M,M,M,M,M,M,M,93.48,KLAS 010256Z 11003KT 10SM CLR 37/02 A2985 RMK AO2 SLP078 T03720017 55003,M
EKO,2023-07-01 02:56,-115.7860,40.8242,1367.00,80.00,42.00,25.94,130.00,5.00,0.00,30.14,1014.80,10.00,M,CLR,M,M,M,M,M,M,M,M,M,M,M,M,M,M,78.99,KEKO 010256Z AUTO 13005KT 10SM CLR 27/06 A3014 RMK AO2 SLP148 T02670056 55003,M
NFL,2023-07-01 02:56,-118.7010,39.4166,1199.00,89.00,38.00,16.50,20.00,3.00,0.00,30.04,1014.00,10.00,M,CLR,M,M,M,M,M,M,M,M,M,M,M,M,M,M,85.26,KNFL 010256Z 02003KT 10SM CLR 32/03 A3004 RMK AO2 SLP140 T03170033 56006,M
BVU,2023-07-01 03:15,-114.8611,35.9475,671.00,95.00,37.40,13.46,60.00,5.00,0.00,29.85,M,10.00,M,CLR,M,M,M,M,M,M,M,M,M,M,M,M,M,M,90.46,KBVU 010315Z AUTO 06005KT 10SM CLR 35/03 A2985 RMK AO2,M
CXP,2023-07-01 03:15,-119.7326,39.1923,1431.00,82.40,44.60,26.49,0.00,0.00,0.00,30.11,M,10.00,M,CLR,M,M,M,M,M,M,M,M,M,M,M,M,M,M,80.50,KCXP 010315Z AUTO 00000KT 10SM CLR 28/07 A3011 RMK AO2,M
RTS,2023-07-01 03:15,-119.8764,39.6682,1539.00,78.80,44.60,29.79,320.00,7.00,0.00,30.14,M,10.00,M,CLR,M,M,M,M,M,M,M,M,M,M,M,M,M,M,78.80,KRTS 010315Z AUTO 32007KT 10SM CLR 26/07 A3014 RMK AO2,M
05U,2023-07-01 03:15,-116.0051,39.6042,1811.23,71.60,39.20,30.77,M,M,0.00,30.22,M,10.00,M,CLR,M,M,M,M,M,M,M,M,M,M,M,M,M,M,71.60,K05U 010315Z AUTO 10SM CLR 22/04 A3022 RMK A01,M
MEV,2023-07-01 03:15,-119.7500,38.9963,1441.42,78.80,42.80,27.81,300.00,7.00,0.00,30.11,M,10.00,M,CLR,M,M,M,M,M,M,M,M,M,M,M,M,M,M,78.80,KMEV 010315Z AUTO 30007KT 10SM CLR 26/06 A3011 RMK AO2,M
BAM,2023-07-01 03:15,-116.8743,40.5990,1382.36,86.00,35.60,16.63,340.00,3.00,0.00,30.11,M,10.00,M,CLR,M,M,M,M,M,M,M,M,M,M,M,M,M,M,82.69,KBAM 010315Z AUTO 34003KT 10SM CLR 30/02 A3011 RMK AO1,M
HTH,2023-07-01 03:15,-118.6315,38.5448,1282.89,84.20,32.00,15.25,290.00,7.00,0.00,30.06,M,10.00,M,CLR,M,M,M,M,M,M,M,M,M,M,M,M,M,M,81.28,KHTH 010315Z AUTO 29007KT 10SM CLR 29/M00 A3006 RMK A01,M
TMT,2023-07-01 03:15,-117.1971,39.4643,1749.34,75.70,39.20,26.81,360.00,7.00,0.00,30.19,M,10.00,M,CLR,M,M,M,M,M,M,M,M,M,M,M,M,M,M,75.70,KTMT 010315Z AUTO 36007KT 10SM CLR 24/04 A3019 RMK AO2 T02430040,M
BVU,2023-07-01 03:35,-114.8611,35.9475,671.00,91.40,41.00,17.32,50.00,5.00,0.00,29.86,M,10.00,M,CLR,M,M,M,M,M,M,M,M,M,M,M,M,M,M,87.40,KBVU 010335Z AUTO 05005KT 10SM CLR 33/05 A2986 RMK AO2,M
CXP,2023-07-01 03:35,-119.7326,39.1923,1431.00,80.60,44.60,28.08,360.00,4.00,0.00,30.12,M,10.00,M,CLR,M,M,M,M,M,M,M,M,M,M,M,M,M,M,79.42,KCXP 010335Z AUTO 36004KT 10SM CLR 27/07 A3012 RMK AO2,M
RTS,2023-07-01 03:35,-119.8764,39.6682,1539.00,75.20,44.60,33.57,330.00,7.00,0.00,30.15,M,10.00,M,CLR,M,M,M,M,M,M,M,M,M,M,M,M,M,M,75.20,KRTS 010335Z AUTO 33007KT 10SM CLR 24/07 A3015 RMK AO2,M
05U,2023-07-01 03:35,-116.0051,39.6042,1811.23,68.00,42.80,40.00,M,M,0.00,30.22,M,10.00,M,CLR,M,M,M,M,M,M,M,M,M,M,M,M,M,M,68.00,K05U 010335Z AUTO 10SM CLR 20/06 A3022 RMK A01,M
MEV,2023-07-01 03:35,-119.7500,38.9963,1441.42,78.80,42.80,27.81,0.00,0.00,0.00,30.11,M,10.00,M,CLR,M,M,M,M,M,M,M,M,M,M,M,M,M,M,78.80,KMEV 010335Z AUTO 00000KT 10SM CLR 26/06 A3011 RMK AO2,M
BAM,2023-07-01 03:35,-116.8743,40.5990,1382.36,82.40,39.20,21.51,330.00,3.00,0.00,30.11,M,10.00,M,CLR,M,M,M,M,M,M,M,M,M,M,M,M,M,M,80.21,KBAM 010335Z AUTO 33003KT 10SM CLR 28/04 A3011 RMK AO1,M
HTH,2023-07-01 03:35,-118.6315,38.5448,1282.89,82.40,32.00,16.17,290.00,8.00,0.00,30.06,M,10.00,M,CLR,M,M,M,M,M,M,M,M,M,M,M,M,M,M,80.00,KHTH 010335Z AUTO 29008KT 10SM CLR 28/M00 A3006 RMK A01,M
TMT,2023-07-01 03:35,-117.1971,39.4643,1749.34,72.00,39.60,30.73,350.00,6.00,0.00,30.19,M,10.00,M,CLR,M,M,M,M,M,M,M,M,M,M,M,M,M,M,72.10,KTMT 010335Z AUTO 35006KT 10SM CLR 22/04 A3019 RMK AO2 T02230042,M
RTS,2023-07-01 03:45,-119.8764,39.6682,1539.00,73.40,44.60,35.66,320.00,6.00,0.00,30.15,M,10.00,M,CLR,M,M,M,M,M,M,M,M,M,M,M,M,M,M,73.40,KRTS 010345Z AUTO 32006KT 10SM CLR 23/07 A3015 RMK AO2,M
DRA,2023-07-01 03:53,-116.0278,36.6206,1009.00,89.00,30.90,12.48,120.00,7.00,0.00,29.94,1008.20,10.00,M,CLR,M,M,M,M,M,M,M,M,M,M,M,M,M,M,85.04,KDRA 010353Z AUTO 12007KT 10SM CLR 32/M01 A2994 RMK AO2 SLP082 T03171006,M
VGT,2023-07-01 03:53,-115.1933,36.2111,667.00,97.00,37.00,12.46,110.00,3.00,0.00,29.86,1009.50,10.00,M,CLR,M,M,M,M,M,M,M,M,M,M,M,M,M,M,92.13,KVGT 010353Z AUTO 11003KT 10SM CLR 36/03 A2986 RMK AO2 SLP095 T03610028,M
LOL,2023-07-01 03:53,-118.5701,40.0684,1192.43,79.00,42.00,26.89,200.00,6.00,0.00,30.03,1012.50,10.00,M,CLR,M,M,M,M,M,M,M,M,M,M,M,M,M,M,79.00,KLOL 010353Z AUTO 20006KT 10SM CLR 26/06 A3003 RMK AO2 SLP125 T02610056,M
P68,2023-07-01 03:53,-116.0056,39.6014,1993.00,65.00,40.00,39.82,320.00,4.00,0.00,30.20,1015.10,M,M,M,M,M,M,M,M,M,M,M,M,M,M,M,M,M,64.90,KP68 010353Z AUTO 32004KT 18/04 A3020 RMK AO1 SLP151 T01830044,M
ELY,2023-07-01 03:53,-114.8453,39.2950,1909.00,67.00,38.00,34.35,330.00,5.00,0.00,30.23,1014.10,10.00,M,CLR,M,M,M,M,M,M,M,M,M,M,M,M,M,M,66.90,KELY 010353Z AUTO 33005KT 10SM CLR 19/03 A3023 RMK AO2 SLP141 T01940033,M
BVU,2023-07-01 03:55,-114.8611,35.9475,671.00,89.60,41.00,18.33,60.00,5.00,0.00,29.86,M,10.00,M,CLR,M,M,M,M,M,M,M,M,M,M,M,M,M,M,85.82,KBVU 010355Z AUTO 06005KT 10SM CLR 32/05 A2986 RMK AO2,M
CXP,2023-07-01 03:55,-119.7326,39.1923,1431.00,80.60,44.60,28.08,350.00,5.00,0.00,30.12,M,10.00,M,CLR,M,M,M,M,M,M,M,M,M,M,M,M,M,M,79.42,KCXP 010355Z AUTO 35005KT 10SM CLR 27/07 A3012 RMK AO2,M
RNO,2023-07-01 03:55,-119.7711,39.4839,1341.00,86.00,46.00,24.88,280.00,10.00,0.00,30.08,1012.40,10.00,M,CLR,M,M,M,M,M,M,M,M,M,M,M,M,M,M,83.19,KRNO 010355Z 28010KT 10SM CLR 30/08 A3008 RMK AO2 SLP124 T03000078,M
LSV,2023-07-01 03:55,-115.0343,36.2362,570.00,94.00,33.60,11.97,90.00,6.00,0.00,29.81,1006.70,10.00,M,CLR,M,M,M,M,M,M,M,M,M,M,M,M,M,M,89.07,KLSV 010355Z AUTO 09006KT 10SM CLR 34/01 A2981 RMK AO2 SLP067 T03440009 $,M
05U,2023-07-01 03:55,-116.0051,39.6042,1811.23,64.40,41.00,42.28,0.00,0.00,0.00,30.23,M,10.00,M,CLR,M,M,M,M,M,M,M,M,M,M,M,M,M,M,64.40,K05U 010355Z AUTO 00000KT 10SM CLR 18/05 A3023 RMK A01,M
MEV,2023-07-01 03:55,-119.7500,38.9963,1441.42,73.40,44.60,35.66,0.00,0.00,0.00,30.11,M,10.00,M,CLR,M,M,M,M,M,M,M,M,M,M,M,M,M,M,73.40,KMEV 010355Z AUTO 00000KT 10SM CLR 23/07 A3011 RMK AO2,M
BAM,2023-07-01 03:55,-116.8743,40.5990,1382.36,80.60,37.40,21.25,0.00,0.00,0.00,30.11,M,10.00,M,CLR,M,M,M,M,M,M,M,M,M,M,M,M,M,M,79.02,KBAM 010355Z AUTO 00000KT 10SM CLR 27/03 A3011 RMK AO1,M
HTH,2023-07-01 03:55,-118.6315,38.5448,1282.89,82.40,32.00,16.17,260.00,5.00,0.00,30.07,M,10.00,M,CLR,M,M,M,M,M,M,M,M,M,M,M,M,M,M,80.00,KHTH 010355Z AUTO 26005KT 10SM CLR 28/00 A3007 RMK A01,M
INS,2023-07-01 03:55,-115.6733,36.5872,955.00,90.70,26.60,9.95,140.00,5.00,0.00,29.93,1008.10,10.00,M,CLR,M,M,M,M,M,M,M,M,M,M,M,M,M,M,85.84,KINS 010355Z AUTO 14005KT 10SM CLR 33/M03 A2993 RMK AO2 SLP081 T03261030 $,M
TMT,2023-07-01 03:55,-117.1971,39.4643,1749.34,65.70,40.00,38.72,60.00,4.00,0.00,30.20,M,10.00,M,CLR,M,M,M,M,M,M,M,M,M,M,M,M,M,M,65.70,KTMT 010355Z AUTO 06004KT 10SM CLR 19/04 A3020 RMK AO2 T01870044,M
WMC,2023-07-01 03:56,-117.8072,40.9019,1315.00,78.00,39.00,24.56,20.00,3.00,0.00,30.08,1013.30,10.00,M,CLR,M,M,M,M,M,M,M,M,M,M,M,M,M,M,78.10,KWMC 010356Z AUTO 02003KT 10SM CLR 26/04 A3008 RMK AO2 SLP133 T02560039,M
LAS,2023-07-01 03:56,-115.1634,36.0719,663.00,97.00,37.00,12.46,110.00,3.00,0.00,29.87,1008.20,10.00,M,CLR,M,M,M,M,M,M,M,M,M,M,M,M,M,M,92.13,KLAS 010356Z 11003KT 10SM CLR 36/03 A2987 RMK AO2 SLP082 T03610028,M
EKO,2023-07-01 03:56,-115.7860,40.8242,1367.00,75.00,40.00,28.20,50.00,4.00,0.00,30.15,1015.30,10.00,M,CLR,M,M,M,M,M,M,M,M,M,M,M,M,M,M,75.00,KEKO 010356Z AUTO 05004KT 10SM CLR 24/04 A3015 RMK AO2 SLP153 T02390044,M
NFL,2023-07-01 03:56,-118.7010,39.4166,1199.00,81.00,40.00,23.13,0.00,0.00,0.00,30.04,1014.10,10.00,M,CLR,M,M,M,M,M,M,M,M,M,M,M,M,M,M,79.37,KNFL 010356Z 00000KT 10SM CLR 27/04 A3004 RMK AO2 SLP141 T02720044,M
HND,2023-07-01 03:56,-115.1344,35.9729,742.79,92.00,40.00,16.34,120.00,4.00,0.00,29.91,1011.10,10.00,M,CLR,M,M,M,M,M,M,M,M,M,M,M,M,M,M,87.78,KHND 010356Z AUTO 12004KT 10SM CLR 33/04 A2991 RMK AO2 SLP111 T03330044,M
TPH,2023-07-01 03:56,-117.0904,38.0505,1654.00,78.00,38.00,23.53,290.00,8.00,0.00,30.13,1011.90,10.00,M,CLR,M,M,M,M,M,M,M,M,M,M,M,M,M,M,78.10,KTPH 010356Z AUTO 29008KT 10SM CLR 26/03 A3013 RMK AO2 SLP119 T02560033,M
BVU,2023-07-01 04:15,-114.8611,35.9475,671.00,89.60,41.00,18.33,60.00,6.00,0.00,29.87,M,10.00,M,CLR,M,M,M,M,M,M,M,M,M,M,M,M,M,M,85.82,KBVU 010415Z AUTO 06006KT 10SM CLR 32/05 A2987 RMK AO2,M
CXP,2023-07-01 04:15,-119.7326,39.1923,1431.00,80.60,44.60,28.08,0.00,0.00,0.00,30.13,M,10.00,M,CLR,M,M,M,M,M,M,M,M,M,M,M,M,M,M,79.42,KCXP 010415Z AUTO 00000KT 10SM CLR 27/07 A3013 RMK AO2,M
RTS,2023-07-01 04:15,-119.8764,39.6682,1539.00,71.60,46.40,40.57,280.00,5.00,0.00,30.16,M,10.00,M,CLR,M,M,M,M,M,M,M,M,M,M,M,M,M,M,71.60,KRTS 010415Z AUTO 28005KT 10SM CLR 22/08 A3016 RMK AO2,M
05U,2023-07-01 04:15,-116.0051,39.6042,1811.23,64.40,42.80,45.32,0.00,0.00,0.00,30.24,M,10.00,M,CLR,M,M,M,M,M,M,M,M,M,M,M,M,M,M,64.40,K05U 010415Z AUTO 00000KT 10SM CLR 18/06 A3024 RMK A01,M
MEV,2023-07-01 04:15,-119.7500,38.9963,1441.42,66.20,50.00,55.88,100.00,6.00,0.00,30.12,M,10.00,M,CLR,M,M,M,M,M,M,M,M,M,M,M,M,M,M,66.20,KMEV 010415Z AUTO 10006KT 10SM CLR 19/10 A3012 RMK AO2,M
BAM,2023-07-01 04:15,-116.8743,40.5990,1382.36,80.60,35.60,19.79,0.00,0.00,0.00,30.11,M,10.00,M,CLR,M,M,M,M,M,M,M,M,M,M,M,M,M,M,78.94,KBAM 010415Z AUTO 00000KT 10SM CLR 27/02 A3011 RMK AO1,M
HTH,2023-07-01 04:15,-118.6315,38.5448,1282.89,80.60,32.00,17.14,320.00,9.00,0.00,30.08,M,10.00,M,CLR,M,M,M,M,M,M,M,M,M,M,M,M,M,M,78.82,KHTH 010415Z AUTO 32009KT 10SM CLR 27/M00 A3008 RMK A01,M
TMT,2023-07-01 04:15,-117.1971,39.4643,1749.34,69.30,38.70,32.64,0.00,0.00,0.00,30.21,M,10.00,M,CLR,M,M,M,M,M,M,M,M,M,M,M,M,M,M,69.30,KTMT 010415Z AUTO 00000KT 10SM CLR 21/04 A3021 RMK AO2 T02070037,M
BVU,2023-07-01 04:35,-114.8611,35.9475,671.00,89.60,39.20,17.09,80.00,4.00,0.00,29.87,M,10.00,M,CLR,M,M,M,M,M,M,M,M,M,M,M,M,M,M,85.73,KBVU 010435Z AUTO 08004KT 10SM CLR 32/04 A2987 RMK AO2,M
CXP,2023-07-01 04:35,-119.7326,39.1923,1431.00,77.00,46.40,33.85,0.00,0.00,0.00,30.14,M,10.00,M,CLR,M,M,M,M,M,M,M,M,M,M,M,M,M,M,77.00,KCXP 010435Z AUTO 00000KT 10SM CLR 25/08 A3014 RMK AO2,M
RTS,2023-07-01 04:35,-119.8764,39.6682,1539.00,73.40,46.40,38.18,280.00,5.00,0.00,30.17,M,10.00,M,CLR,M,M,M,M,M,M,M,M,M,M,M,M,M,M,73.40,KRTS 010435Z AUTO 28005KT 10SM CLR 23/08 A3017 RMK AO2,M
05U,2023-07-01 04:35,-116.0051,39.6042,1811.23,62.60,41.00,45.04,M,M,0.00,30.25,M,10.00,M,CLR,M,M,M,M,M,M,M,M,M,M,M,M,M,M,62.60,K05U 010435Z AUTO 10SM CLR 17/05 A3025 RMK A01,M
MEV,2023-07-01 04:35,-119.7500,38.9963,1441.42,66.20,46.40,48.83,120.00,7.00,0.00,30.13,M,10.00,M,CLR,M,M,M,M,M,M,M,M,M,M,M,M,M,M,66.20,KMEV 010435Z AUTO 12007KT 10SM CLR 19/08 A3013 RMK AO2,M
BAM,2023-07-01 04:35,-116.8743,40.5990,1382.36,80.60,35.60,19.79,0.00,0.00,0.00,30.12,M,10.00,M,CLR,M,M,M,M,M,M,M,M,M,M,M,M,M,M,78.94,KBAM 010435Z AUTO 00000KT 10SM CLR 27/02 A3012 RMK AO1,M
HTH,2023-07-01 04:35,-118.6315,38.5448,1282.89,80.60,33.80,18.42,330.00,8.00,0.00,30.09,M,10.00,M,CLR,M,M,M,M,M,M,M,M,M,M,M,M,M,M,78.88,KHTH 010435Z AUTO 33008KT 10SM CLR 27/01 A3009 RMK A01,M
TMT,2023-07-01 04:35,-117.1971,39.4643,1749.34,66.20,38.00,35.19,0.00,0.00,0.00,30.22,M,10.00,M,CLR,M,M,M,M,M,M,M,M,M,M,M,M,M,M,66.20,KTMT 010435Z AUTO 00000KT 10SM CLR 19/03 A3022 RMK AO2 T01900033,M
P68,2023-07-01 04:53,-116.0056,39.6014,1993.00,63.00,39.00,41.09,190.00,4.00,0.00,30.22,1015.80,M,M,M,M,M,M,M,M,M,M,M,M,M,M,M,M,M,63.00,KP68 010453Z AUTO 19004KT 17/04 A3022 RMK AO1 SLP158 T01720039,M
DRA,2023-07-01 04:53,-116.0278,36.6206,1009.00,85.00,30.90,14.26,90.00,5.00,0.00,29.96,1008.80,10.00,M,CLR,M,M,M,M,M,M,M,M,M,M,M,M,M,M,81.79,KDRA 010453Z AUTO 09005KT 10SM CLR 29/M01 A2996 RMK AO2 SLP088 T02941006,M
ELY,2023-07-01 04:53,-114.8453,39.2950,1909.00,64.00,37.00,36.68,0.00,0.00,0.00,30.25,1014.50,10.00,M,CLR,M,M,M,M,M,M,M,M,M,M,M,M,M,M,64.00,KELY 010453Z AUTO 00000KT 10SM CLR 18/03 A3025 RMK AO2 SLP145 T01780028,M
VGT,2023-07-01 04:53,-115.1933,36.2111,667.00,97.00,39.00,13.48,240.00,4.00,0.00,29.87,1010.00,10.00,M,CLR,M,M,M,M,M,M,M,M,M,M,M,M,M,M,92.40,KVGT 010453Z AUTO 24004KT 10SM CLR 36/04 A2987 RMK AO2 SLP100 T03610039,M
LOL,2023-07-01 04:53,-118.5701,40.0684,1192.43,77.00,41.00,27.53,290.00,6.00,0.00,30.05,1013.00,10.00,M,CLR,M,M,M,M,M,M,M,M,M,M,M,M,M,M,77.00,KLOL 010453Z AUTO 29006KT 10SM CLR 25/05 A3005 RMK AO2 SLP130 T02500050,M
BVU,2023-07-01 04:55,-114.8611,35.9475,671.00,89.60,39.20,17.09,60.00,6.00,0.00,29.87,M,10.00,M,CLR,M,M,M,M,M,M,M,M,M,M,M,M,M,M,85.73,KBVU 010455Z AUTO 06006KT 10SM CLR 32/04 A2987 RMK AO2,M
CXP,2023-07-01 04:55,-119.7326,39.1923,1431.00,77.00,46.40,33.85,340.00,4.00,0.00,30.14,M,10.00,M,CLR,M,M,M,M,M,M,M,M,M,M,M,M,M,M,77.00,KCXP 010455Z AUTO 34004KT 10SM CLR 25/08 A3014 RMK AO2,M
LSV,2023-07-01 04:55,-115.0343,36.2362,570.00,92.30,32.40,11.99,360.00,6.00,0.00,29.82,1006.90,10.00,M,CLR,M,M,M,M,M,M,M,M,M,M,M,M,M,M,87.66,KLSV 010455Z AUTO 36006KT 10SM CLR 34/00 A2982 RMK AO2 SLP069 T03350002 $,M
RTS,2023-07-01 04:55,-119.8764,39.6682,1539.00,71.60,46.40,40.57,290.00,5.00,0.00,30.17,M,10.00,M,CLR,M,M,M,M,M,M,M,M,M,M,M,M,M,M,71.60,KRTS 010455Z AUTO 29005KT 10SM CLR 22/08 A3017 RMK AO2,M
05U,2023-07-01 04:55,-116.0051,39.6042,1811.23,60.80,39.20,44.76,360.00,4.00,0.00,30.25,M,10.00,M,CLR,M,M,M,M,M,M,M,M,M,M,M,M,M,M,60.80,K05U 010455Z AUTO 36004KT 10SM CLR 16/04 A3025 RMK A01,M
MEV,2023-07-01 04:55,-119.7500,38.9963,1441.42,62.60,48.20,59.26,150.00,7.00,0.00,30.14,M,10.00,M,CLR,M,M,M,M,M,M,M,M,M,M,M,M,M,M,62.60,KMEV 010455Z AUTO 15007KT 10SM CLR 17/09 A3014 RMK AO2,M
BAM,2023-07-01 04:55,-116.8743,40.5990,1382.36,69.80,32.00,24.59,0.00,0.00,0.00,30.13,M,10.00,M,CLR,M,M,M,M,M,M,M,M,M,M,M,M,M,M,69.80,KBAM 010455Z AUTO 00000KT 10SM CLR 21/00 A3013 RMK AO1,M
HTH,2023-07-01 04:55,-118.6315,38.5448,1282.89,77.00,44.60,31.62,340.00,5.00,0.00,30.09,M,10.00,M,CLR,M,M,M,M,M,M,M,M,M,M,M,M,M,M,77.00,KHTH 010455Z AUTO 34005KT 10SM CLR 25/07 A3009 RMK A01,M
INS,2023-07-01 04:55,-115.6733,36.5872,955.00,86.50,29.80,12.96,0.00,0.00,0.00,29.95,1008.90,10.00,M,CLR,M,M,M,M,M,M,M,M,M,M,M,M,M,M,83.02,KINS 010455Z AUTO 00000KT 10SM CLR 30/M01 A2995 RMK AO2 SLP089 T03031012 $,M
TMT,2023-07-01 04:55,-117.1971,39.4643,1749.34,62.00,37.40,40.12,0.00,0.00,0.00,30.22,M,10.00,M,CLR,M,M,M,M,M,M,M,M,M,M,M,M,M,M,61.90,KTMT 010455Z AUTO 00000KT 10SM CLR 17/03 A3022 RMK AO2 T01660030,M
RNO,2023-07-01 04:55,-119.7711,39.4839,1341.00,83.00,49.00,30.65,280.00,10.00,0.00,30.11,1013.30,10.00,M,CLR,M,M,M,M,M,M,M,M,M,M,M,M,M,M,81.20,KRNO 010455Z 28010KT 10SM CLR 28/09 A3011 RMK AO2 SLP133 T02830094,M
WMC,2023-07-01 04:56,-117.8072,40.9019,1315.00,68.00,36.00,30.69,0.00,0.00,0.00,30.10,1014.30,10.00,M,CLR,M,M,M,M,M,M,M,M,M,M,M,M,M,M,68.00,KWMC 010456Z AUTO 00000KT 10SM CLR 20/02 A3010 RMK AO2 SLP143 T02000022,M
HND,2023-07-01 04:56,-115.1344,35.9729,742.79,89.00,39.00,17.22,170.00,6.00,0.00,29.92,1011.60,10.00,M,CLR,M,M,M,M,M,M,M,M,M,M,M,M,M,M,85.30,KHND 010456Z AUTO 17006KT 10SM CLR 32/04 A2992 RMK AO2 SLP116 T03170039,M
TPH,2023-07-01 04:56,-117.0904,38.0505,1654.00,75.00,36.00,24.20,0.00,0.00,0.00,30.15,1012.60,10.00,M,CLR,M,M,M,M,M,M,M,M,M,M,M,M,M,M,75.00,KTPH 010456Z AUTO 00000KT 10SM CLR 24/02 A3015 RMK AO2 SLP126 T02390022,M
LAS,2023-07-01 04:56,-115.1634,36.0719,663.00,95.00,37.00,13.25,210.00,3.00,0.00,29.88,1008.60,10.00,M,CLR,M,M,M,M,M,M,M,M,M,M,M,M,M,M,90.44,KLAS 010456Z 21003KT 10SM CLR 35/03 A2988 RMK AO2 SLP086 T03500028,M
EKO,2023-07-01 04:56,-115.7860,40.8242,1367.00,67.00,44.00,43.67,0.00,0.00,0.00,30.16,1016.10,10.00,M,CLR,M,M,M,M,M,M,M,M,M,M,M,M,M,M,66.90,KEKO 010456Z AUTO 00000KT 10SM CLR 19/07 A3016 RMK AO2 SLP161 T01940067,M
NFL,2023-07-01 04:56,-118.7010,39.4166,1199.00,78.00,40.00,25.44,0.00,0.00,0.00,30.05,1014.50,10.00,M,CLR,M,M,M,M,M,M,M,M,M,M,M,M,M,M,78.10,KNFL 010456Z 00000KT 10SM CLR 26/04 A3005 RMK AO2 SLP145 T02560044,M
BVU,2023-07-01 05:15,-114.8611,35.9475,671.00,86.00,42.80,22.02,40.00,5.00,0.00,29.88,M,10.00,M,CLR,M,M,M,M,M,M,M,M,M,M,M,M,M,M,82.95,KBVU 010515Z AUTO 04005KT 10SM CLR 30/06 A2988 RMK AO2,M
CXP,2023-07-01 05:15,-119.7326,39.1923,1431.00,73.40,46.40,38.18,210.00,3.00,0.00,30.15,M,10.00,M,CLR,M,M,M,M,M,M,M,M,M,M,M,M,M,M,73.40,KCXP 010515Z AUTO 21003KT 10SM CLR 23/08 A3015 RMK AO2,M
RTS,2023-07-01 05:15,-119.8764,39.6682,1539.00,71.60,46.40,40.57,290.00,6.00,0.00,30.18,M,10.00,M,CLR,M,M,M,M,M,M,M,M,M,M,M,M,M,M,71.60,KRTS 010515Z AUTO 29006KT 10SM CLR 22/08 A3018 RMK AO2,M
05U,2023-07-01 05:15,-116.0051,39.6042,1811.23,59.00,39.20,47.72,0.00,0.00,0.00,30.26,M,10.00,M,CLR,M,M,M,M,M,M,M,M,M,M,M,M,M,M,59.00,K05U 010515Z AUTO 00000KT 10SM CLR 15/04 A3026 RMK A01,M
MEV,2023-07-01 05:15,-119.7500,38.9963,1441.42,62.60,48.20,59.26,140.00,7.00,0.00,30.15,M,10.00,M,CLR,M,M,M,M,M,M,M,M,M,M,M,M,M,M,62.60,KMEV 010515Z AUTO 14007KT 10SM CLR 17/09 A3015 RMK AO2,M
BAM,2023-07-01 05:15,-116.8743,40.5990,1382.36,69.80,32.00,24.59,0.00,0.00,0.00,30.13,M,10.00,M,CLR,M,M,M,M,M,M,M,M,M,M,M,M,M,M,69.80,KBAM 010515Z AUTO 00000KT 10SM CLR 21/00 A3013 RMK AO1,M
HTH,2023-07-01 05:15,-118.6315,38.5448,1282.89,77.00,50.00,38.74,0.00,0.00,0.00,30.10,M,10.00,M,M,M,M,M,M,M,M,M,M,M,M,M,M,M,M,77.00,KHTH 010515Z AUTO 00000KT 10SM 25/10 A3010 RMK A01,M
TMT,2023-07-01 05:15,-117.1971,39.4643,1749.34,62.60,42.60,47.91,0.00,0.00,0.00,30.22,M,10.00,M,CLR,M,M,M,M,M,M,M,M,M,M,M,M,M,M,62.60,KTMT 010515Z AUTO 00000KT 10SM CLR 17/06 A3022 RMK AO2 T01700059,M
BVU,2023-07-01 05:35,-114.8611,35.9475,671.00,84.20,37.40,18.91,350.00,4.00,0.00,29.88,M,10.00,M,CLR,M,M,M,M,M,M,M,M,M,M,M,M,M,M,81.38,KBVU 010535Z AUTO 35004KT 10SM CLR 29/03 A2988 RMK AO2,M
CXP,2023-07-01 05:35,-119.7326,39.1923,1431.00,73.40,46.40,38.18,0.00,0.00,0.00,30.16,M,10.00,M,CLR,M,M,M,M,M,M,M,M,M,M,M,M,M,M,73.40,KCXP 010535Z AUTO 00000KT 10SM CLR 23/08 A3016 RMK AO2,M
RTS,2023-07-01 05:35,-119.8764,39.6682,1539.00,71.60,46.40,40.57,280.00,7.00,0.00,30.18,M,10.00,M,CLR,M,M,M,M,M,M,M,M,M,M,M,M,M,M,71.60,KRTS 010535Z AUTO 28007KT 10SM CLR 22/08 A3018 RMK AO2,M
05U,2023-07-01 05:35,-116.0051,39.6042,1811.23,59.00,39.20,47.72,20.00,4.00,0.00,30.26,M,10.00,M,CLR,M,M,M,M,M,M,M,M,M,M,M,M,M,M,59.00,K05U 010535Z AUTO 02004KT 10SM CLR 15/04 A3026 RMK A01,M
MEV,2023-07-01 05:35,-119.7500,38.9963,1441.42,62.60,46.40,55.37,160.00,5.00,0.00,30.15,M,10.00,M,CLR,M,M,M,M,M,M,M,M,M,M,M,M,M,M,62.60,KMEV 010535Z AUTO 16005KT 10SM CLR 17/08 A3015 RMK AO2,M
BAM,2023-07-01 05:35,-116.8743,40.5990,1382.36,68.00,32.00,26.15,160.00,5.00,0.00,30.13,M,10.00,M,CLR,M,M,M,M,M,M,M,M,M,M,M,M,M,M,68.00,KBAM 010535Z AUTO 16005KT 10SM CLR 20/00 A3013 RMK AO1,M
HTH,2023-07-01 05:35,-118.6315,38.5448,1282.89,77.00,48.20,36.22,240.00,3.00,0.00,30.10,M,10.00,M,CLR,M,M,M,M,M,M,M,M,M,M,M,M,M,M,77.00,KHTH 010535Z AUTO 24003KT 10SM CLR 25/09 A3010 RMK A01,M
TMT,2023-07-01 05:35,-117.1971,39.4643,1749.34,60.40,43.70,54.02,0.00,0.00,0.00,30.23,M,10.00,M,CLR,M,M,M,M,M,M,M,M,M,M,M,M,M,M,60.40,KTMT 010535Z AUTO 00000KT 10SM CLR 16/07 A3023 RMK AO2 T01580065,M
CXP,2023-07-01 05:50,-119.7326,39.1923,1431.00,73.40,46.40,38.18,0.00,0.00,0.00,30.16,M,10.00,M,CLR,M,M,M,M,M,M,M,M,M,M,M,M,M,M,73.40,KCXP 010550Z AUTO 00000KT 10SM CLR 23/08 A3016 RMK AO2,M
P68,2023-07-01 05:53,-116.0056,39.6014,1993.00,58.00,39.00,49.26,180.00,3.00,0.00,30.23,1016.10,M,M,M,M,M,M,M,M,M,M,M,M,M,M,M,M,M,57.90,KP68 010553Z AUTO 18003KT 14/04 A3023 RMK AO1 SLP161 T01440039 10294 20144 51013,M
DRA,2023-07-01 05:53,-116.0278,36.6206,1009.00,84.00,30.90,14.68,90.00,8.00,0.00,29.97,1009.00,10.00,M,CLR,M,M,M,M,M,M,M,M,M,M,M,M,M,M,81.12,KDRA 010553Z AUTO 09008KT 10SM CLR 29/M01 A2997 RMK AO2 SLP090 T02891006 10378 20283 51013,M
ELY,2023-07-01 05:53,-114.8453,39.2950,1909.00,56.00,38.00,50.71,180.00,5.00,0.00,30.27,1015.80,10.00,M,CLR,M,M,M,M,M,M,M,M,M,M,M,M,M,M,55.90,KELY 010553Z AUTO 18005KT 10SM CLR 13/03 A3027 RMK AO2 SLP158 T01330033 10283 20128 53015,M
VGT,2023-07-01 05:53,-115.1933,36.2111,667.00,92.00,42.00,17.79,310.00,3.00,0.00,29.88,1010.20,10.00,M,CLR,M,M,M,M,M,M,M,M,M,M,M,M,M,M,87.92,KVGT 010553Z AUTO 31003KT 10SM CLR 33/06 A2988 RMK AO2 SLP102 T03330056 10394 20333 51011,M
LOL,2023-07-01 05:53,-118.5701,40.0684,1192.43,74.00,42.00,31.86,40.00,7.00,0.00,30.06,1013.40,10.00,M,CLR,M,M,M,M,M,M,M,M,M,M,M,M,M,M,73.90,KLOL 010553Z AUTO 04007KT 10SM CLR 23/06 A3006 RMK AO2 SLP134 T02330056 10339 20228 53010,M
BVU,2023-07-01 05:55,-114.8611,35.9475,671.00,86.00,39.20,19.15,0.00,0.00,0.00,29.88,M,10.00,M,CLR,M,M,M,M,M,M,M,M,M,M,M,M,M,M,82.79,KBVU 010555Z AUTO 00000KT 10SM CLR 30/04 A2988 RMK AO2,M
RTS,2023-07-01 05:55,-119.8764,39.6682,1539.00,69.80,48.20,46.16,310.00,4.00,0.00,30.18,M,10.00,M,CLR,M,M,M,M,M,M,M,M,M,M,M,M,M,M,69.80,KRTS 010555Z AUTO 31004KT 10SM CLR 21/09 A3018 RMK AO2,M
05U,2023-07-01 05:55,-116.0051,39.6042,1811.23,57.20,39.20,50.91,0.00,0.00,0.00,30.26,M,10.00,M,CLR,M,M,M,M,M,M,M,M,M,M,M,M,M,M,57.20,K05U 010555Z AUTO 00000KT 10SM CLR 14/04 A3026 RMK A01,M
MEV,2023-07-01 05:55,-119.7500,38.9963,1441.42,60.80,48.20,63.15,140.00,7.00,0.00,30.15,M,10.00,M,FEW,M,M,M,5500.00,M,M,M,M,M,M,M,M,M,M,60.80,KMEV 010555Z AUTO 14007KT 10SM FEW055 16/09 A3015 RMK AO2,M
BAM,2023-07-01 05:55,-116.8743,40.5990,1382.36,66.20,32.00,27.83,150.00,5.00,0.00,30.13,M,10.00,M,CLR,M,M,M,M,M,M,M,M,M,M,M,M,M,M,66.20,KBAM 010555Z AUTO 15005KT 10SM CLR 19/00 A3013 RMK AO1,M
HTH,2023-07-01 05:55,-118.6315,38.5448,1282.89,77.00,39.20,25.67,0.00,0.00,0.00,30.10,M,10.00,M,CLR,M,M,M,M,M,M,M,M,M,M,M,M,M,M,77.00,KHTH 010555Z AUTO 00000KT 10SM CLR 25/04 A3010 RMK A01,M
TMT,2023-07-01 05:55,-117.1971,39.4643,1749.34,55.00,39.00,54.70,0.00,0.00,0.00,30.23,M,10.00,M,CLR,M,M,M,M,M,M,M,M,M,M,M,M,M,M,55.00,KTMT 010555Z AUTO 00000KT 10SM CLR 13/04 A3023 RMK AO2 T01280039 10289 20128,M
INS,2023-07-01 05:55,-115.6733,36.5872,955.00,82.40,28.40,13.96,250.00,4.00,0.00,29.96,1009.20,10.00,M,CLR,M,M,M,M,M,M,M,M,M,M,M,M,M,M,79.94,KINS 010555Z AUTO 25004KT 10SM CLR 28/M02 A2996 RMK AO2 SLP092 T02801020 10363 20280 52014 $,M
LSV,2023-07-01 05:55,-115.0343,36.2362,570.00,89.40,34.00,14.00,310.00,5.00,0.00,29.83,1007.30,10.00,M,CLR,M,M,M,M,M,M,M,M,M,M,M,M,M,M,85.42,KLSV 010555Z AUTO 31005KT 10SM CLR 32/01 A2983 RMK AO2 SLP073 T03190011 10397 20319 52011 $,M
RNO,2023-07-01 05:55,-119.7711,39.4839,1341.00,80.00,49.00,33.58,290.00,5.00,0.00,30.12,1013.60,10.00,M,CLR,M,M,M,M,M,M,M,M,M,M,M,M,M,M,79.50,KRNO 010555Z 29005KT 10SM CLR 27/09 A3012 RMK AO2 SLP136 T02670094 10339 20267 53016,M
NFL,2023-07-01 05:56,-118.7010,39.4166,1199.00,72.00,41.00,32.56,0.00,0.00,0.00,30.06,1014.70,10.00,M,CLR,M,M,M,M,M,M,M,M,M,M,M,M,M,M,72.00,KNFL 010556Z 00000KT 10SM CLR 22/05 A3006 RMK AO2 SLP147 T02220050 10339 20222 53007,M
HND,2023-07-01 05:56,-115.1344,35.9729,742.79,88.00,34.00,14.64,190.00,7.00,0.00,29.93,1011.60,10.00,M,CLR,M,M,M,M,M,M,M,M,M,M,M,M,M,M,84.26,KHND 010556Z AUTO 19007KT 10SM CLR 31/01 A2993 RMK AO2 SLP116 T03110011 10383 20306 51009,M
TPH,2023-07-01 05:56,-117.0904,38.0505,1654.00,74.00,36.00,25.11,350.00,6.00,0.00,30.16,1012.70,10.00,M,CLR,M,M,M,M,M,M,M,M,M,M,M,M,M,M,73.90,KTPH 010556Z AUTO 35006KT 10SM CLR 23/02 A3016 RMK AO2 SLP127 T02330022 10328 20233 51012,M
LAS,2023-07-01 05:56,-115.1634,36.0719,663.00,92.00,36.00,14.02,230.00,3.00,0.00,29.89,1008.90,10.00,M,CLR,M,M,M,M,M,M,M,M,M,M,M,M,M,M,87.62,KLAS 010556Z 23003KT 10SM CLR 33/02 A2989 RMK AO2 SLP089 T03330022 10389 20333 51010,M
EKO,2023-07-01 05:56,-115.7860,40.8242,1367.00,66.00,42.00,41.73,120.00,3.00,0.00,30.17,1015.90,10.00,M,CLR,M,M,M,M,M,M,M,M,M,M,M,M,M,M,66.00,KEKO 010556Z AUTO 12003KT 10SM CLR 19/06 A3017 RMK AO2 SLP159 T01890056 10311 20189 51011,M
WMC,2023-07-01 05:56,-117.8072,40.9019,1315.00,64.00,40.00,41.09,60.00,3.00,0.00,30.10,1014.10,10.00,M,CLR,M,M,M,M,M,M,M,M,M,M,M,M,M,M,64.00,KWMC 010556Z AUTO 06003KT 10SM CLR 18/04 A3010 RMK AO2 SLP141 T01780044 10344 20167 51007,M
BVU,2023-07-01 06:15,-114.8611,35.9475,671.00,84.20,39.20,20.29,0.00,0.00,0.00,29.88,M,10.00,M,CLR,M,M,M,M,M,M,M,M,M,M,M,M,M,M,81.44,KBVU 010615Z AUTO 00000KT 10SM CLR 29/04 A2988 RMK AO2,M
CXP,2023-07-01 06:15,-119.7326,39.1923,1431.00,73.40,44.60,35.66,0.00,0.00,0.00,30.17,M,10.00,M,CLR,M,M,M,M,M,M,M,M,M,M,M,M,M,M,73.40,KCXP 010615Z AUTO 00000KT 10SM CLR 23/07 A3017 RMK AO2,M
RTS,2023-07-01 06:15,-119.8764,39.6682,1539.00,69.80,48.20,46.16,330.00,5.00,0.00,30.18,M,10.00,M,CLR,M,M,M,M,M,M,M,M,M,M,M,M,M,M,69.80,KRTS 010615Z AUTO 33005KT 10SM CLR 21/09 A3018 RMK AO2,M
05U,2023-07-01 06:15,-116.0051,39.6042,1811.23,55.40,39.20,54.34,0.00,0.00,0.00,30.26,M,10.00,M,CLR,M,M,M,M,M,M,M,M,M,M,M,M,M,M,55.40,K05U 010615Z AUTO 00000KT 10SM CLR 13/04 A3026 RMK A01,M
MEV,2023-07-01 06:15,-119.7500,38.9963,1441.42,62.60,48.20,59.26,140.00,5.00,0.00,30.16,M,10.00,M,FEW,SCT,M,M,5000.00,6000.00,M,M,M,M,M,M,M,M,M,62.60,KMEV 010615Z AUTO 14005KT 10SM FEW050 SCT060 17/09 A3016 RMK AO2,M
BAM,2023-07-01 06:15,-116.8743,40.5990,1382.36,64.40,32.00,29.63,160.00,4.00,0.00,30.13,M,10.00,M,CLR,M,M,M,M,M,M,M,M,M,M,M,M,M,M,64.40,KBAM 010615Z AUTO 16004KT 10SM CLR 18/00 A3013 RMK AO1,M
HTH,2023-07-01 06:15,-118.6315,38.5448,1282.89,73.40,37.40,26.98,160.00,5.00,0.00,30.10,M,10.00,M,CLR,M,M,M,M,M,M,M,M,M,M,M,M,M,M,73.40,KHTH 010615Z AUTO 16005KT 10SM CLR 23/03 A3010 RMK A01,M
TMT,2023-07-01 06:15,-117.1971,39.4643,1749.34,54.00,37.40,53.29,220.00,5.00,0.00,30.24,M,10.00,M,CLR,M,M,M,M,M,M,M,M,M,M,M,M,M,M,54.00,KTMT 010615Z AUTO 22005KT 10SM CLR 12/03 A3024 RMK AO2 T01220030,M
BVU,2023-07-01 06:35,-114.8611,35.9475,671.00,82.40,39.20,21.51,0.00,0.00,0.00,29.88,M,10.00,M,CLR,M,M,M,M,M,M,M,M,M,M,M,M,M,M,80.21,KBVU 010635Z AUTO 00000KT 10SM CLR 28/04 A2988 RMK AO2,M
CXP,2023-07-01 06:35,-119.7326,39.1923,1431.00,69.80,46.40,43.13,0.00,0.00,0.00,30.17,M,10.00,M,CLR,M,M,M,M,M,M,M,M,M,M,M,M,M,M,69.80,KCXP 010635Z AUTO 00000KT 10SM CLR 21/08 A3017 RMK AO2,M
RTS,2023-07-01 06:35,-119.8764,39.6682,1539.00,69.80,48.20,46.16,310.00,6.00,0.00,30.19,M,10.00,M,CLR,M,M,M,M,M,M,M,M,M,M,M,M,M,M,69.80,KRTS 010635Z AUTO 31006KT 10SM CLR 21/09 A3019 RMK AO2,M
05U,2023-07-01 06:35,-116.0051,39.6042,1811.23,53.60,37.40,54.07,M,M,0.00,30.26,M,10.00,M,CLR,M,M,M,M,M,M,M,M,M,M,M,M,M,M,53.60,K05U 010635Z AUTO 10SM CLR 12/03 A3026 RMK A01,M
MEV,2023-07-01 06:35,-119.7500,38.9963,1441.42,59.00,48.20,67.33,160.00,4.00,0.00,30.16,M,10.00,M,SCT,SCT,M,M,5500.00,6500.00,M,M,M,M,M,M,M,M,M,59.00,KMEV 010635Z AUTO 16004KT 10SM SCT055 SCT065 15/09 A3016 RMK AO2,M
BAM,2023-07-01 06:35,-116.8743,40.5990,1382.36,62.60,32.00,31.56,160.00,6.00,0.00,30.13,M,10.00,M,CLR,M,M,M,M,M,M,M,M,M,M,M,M,M,M,62.60,KBAM 010635Z AUTO 16006KT 10SM CLR 17/00 A3013 RMK AO1,M
HTH,2023-07-01 06:35,-118.6315,38.5448,1282.89,73.40,37.40,26.98,0.00,0.00,0.00,30.11,M,10.00,M,CLR,M,M,M,M,M,M,M,M,M,M,M,M,M,M,73.40,KHTH 010635Z AUTO 00000KT 10SM CLR 23/03 A3011 RMK A01,M
TMT,2023-07-01 06:35,-117.1971,39.4643,1749.34,52.30,40.50,64.02,220.00,7.00,0.00,30.24,M,10.00,M,CLR,M,M,M,M,M,M,M,M,M,M,M,M,M,M,52.30,KTMT 010635Z AUTO 22007KT 10SM CLR 11/05 A3024 RMK AO2 T01130047,M
05U,2023-07-01 06:50,-116.0051,39.6042,1811.23,53.60,39.20,58.02,360.00,4.00,0.00,30.26,M,10.00,M,CLR,M,M,M,M,M,M,M,M,M,M,M,M,M,M,53.60,K05U 010650Z AUTO 36004KT 10SM CLR 12/04 A3026 RMK A01,M
P68,2023-07-01 06:53,-116.0056,39.6014,1993.00,54.00,39.00,56.74,180.00,5.00,0.00,30.24,1016.40,M,M,M,M,M,M,M,M,M,M,M,M,M,M,M,M,M,54.00,KP68 010653Z AUTO 18005KT 12/04 A3024 RMK AO1 SLP164 T01220039,M
DRA,2023-07-01 06:53,-116.0278,36.6206,1009.00,82.00,30.90,15.66,70.00,4.00,0.00,29.97,1009.20,10.00,M,CLR,M,M,M,M,M,M,M,M,M,M,M,M,M,M,79.70,KDRA 010653Z AUTO 07004KT 10SM CLR 28/M01 A2997 RMK AO2 SLP092 T02781006,M
VGT,2023-07-01 06:53,-115.1933,36.2111,667.00,89.00,39.00,17.22,300.00,5.00,0.00,29.88,1010.30,10.00,M,CLR,M,M,M,M,M,M,M,M,M,M,M,M,M,M,85.30,KVGT 010653Z AUTO 30005KT 10SM CLR 32/04 A2988 RMK AO2 SLP103 T03170039,M
ELY,2023-07-01 06:53,-114.8453,39.2950,1909.00,54.00,38.00,54.34,170.00,8.00,0.00,30.27,1016.00,10.00,M,CLR,M,M,M,M,M,M,M,M,M,M,M,M,M,M,54.00,KELY 010653Z AUTO 17008KT 10SM CLR 12/03 A3027 RMK AO2 SLP160 T01220033,M
LOL,2023-07-01 06:53,-118.5701,40.0684,1192.43,71.00,42.00,35.02,110.00,4.00,0.00,30.06,1013.60,10.00,M,CLR,M,M,M,M,M,M,M,M,M,M,M,M,M,M,71.10,KLOL 010653Z AUTO 11004KT 10SM CLR 22/06 A3006 RMK AO2 SLP136 T02170056,M
BVU,2023-07-01 06:55,-114.8611,35.9475,671.00,84.20,35.60,17.61,260.00,3.00,0.00,29.88,M,10.00,M,CLR,M,M,M,M,M,M,M,M,M,M,M,M,M,M,81.34,KBVU 010655Z AUTO 26003KT 10SM CLR 29/02 A2988 RMK AO2,M
CXP,2023-07-01 06:55,-119.7326,39.1923,1431.00,68.00,46.40,45.88,0.00,0.00,0.00,30.17,M,10.00,M,CLR,M,M,M,M,M,M,M,M,M,M,M,M,M,M,68.00,KCXP 010655Z AUTO 00000KT 10SM CLR 20/08 A3017 RMK AO2,M
RNO,2023-07-01 06:55,-119.7711,39.4839,1341.00,76.00,48.00,37.29,200.00,3.00,0.00,30.13,1014.00,10.00,M,CLR,M,M,M,M,M,M,M,M,M,M,M,M,M,M,75.90,KRNO 010655Z 20003KT 10SM CLR 24/09 A3013 RMK AO2 SLP140 T02440089,M
LSV,2023-07-01 06:55,-115.0343,36.2362,570.00,84.60,33.40,15.93,30.00,3.00,0.00,29.83,1007.40,10.00,M,CLR,M,M,M,M,M,M,M,M,M,M,M,M,M,M,81.59,KLSV 010655Z AUTO 03003KT 10SM CLR 29/01 A2983 RMK AO2 SLP074 T02920008 $,M
RTS,2023-07-01 06:55,-119.8764,39.6682,1539.00,68.00,48.20,49.10,320.00,5.00,0.00,30.19,M,10.00,M,CLR,M,M,M,M,M,M,M,M,M,M,M,M,M,M,68.00,KRTS 010655Z AUTO 32005KT 10SM CLR 20/09 A3019 RMK AO2,M
MEV,2023-07-01 06:55,-119.7500,38.9963,1441.42,60.80,46.40,59.01,M,4.00,0.00,30.16,M,10.00,M,FEW,SCT,M,M,5000.00,6500.00,M,M,M,M,M,M,M,M,M,60.80,KMEV 010655Z AUTO VRB04KT 10SM FEW050 SCT065 16/08 A3016 RMK AO2,M
BAM,2023-07-01 06:55,-116.8743,40.5990,1382.36,62.60,33.80,33.93,190.00,3.00,0.00,30.14,M,10.00,M,CLR,M,M,M,M,M,M,M,M,M,M,M,M,M,M,62.60,KBAM 010655Z AUTO 19003KT 10SM CLR 17/01 A3014 RMK AO1,M
HTH,2023-07-01 06:55,-118.6315,38.5448,1282.89,71.60,37.40,28.68,230.00,4.00,0.00,30.11,M,10.00,M,CLR,M,M,M,M,M,M,M,M,M,M,M,M,M,M,71.60,KHTH 010655Z AUTO 23004KT 10SM CLR 22/03 A3011 RMK A01,M
TMT,2023-07-01 06:55,-117.1971,39.4643,1749.34,53.40,39.60,59.37,200.00,6.00,0.00,30.24,M,10.00,M,CLR,M,M,M,M,M,M,M,M,M,M,M,M,M,M,53.40,KTMT 010655Z AUTO 20006KT 10SM CLR 12/04 A3024 RMK AO2 T01190042,M
INS,2023-07-01 06:55,-115.6733,36.5872,955.00,80.20,33.00,18.01,0.00,0.00,0.00,29.97,1009.60,10.00,M,CLR,M,M,M,M,M,M,M,M,M,M,M,M,M,M,78.77,KINS 010655Z AUTO 00000KT 10SM CLR 27/01 A2997 RMK AO2 SLP096 T02680005 $,M
WMC,2023-07-01 06:56,-117.8072,40.9019,1315.00,63.00,39.00,41.09,150.00,8.00,0.00,30.10,1014.10,10.00,M,CLR,M,M,M,M,M,M,M,M,M,M,M,M,M,M,63.00,KWMC 010656Z AUTO 15008KT 10SM CLR 17/04 A3010 RMK AO2 SLP141 T01720039,M
HND,2023-07-01 06:56,-115.1344,35.9729,742.79,85.00,34.00,16.16,190.00,7.00,0.00,29.93,1011.60,10.00,M,CLR,M,M,M,M,M,M,M,M,M,M,M,M,M,M,81.82,KHND 010656Z AUTO 19007KT 10SM CLR 29/01 A2993 RMK AO2 SLP116 T02940011 403830222,M
LAS,2023-07-01 06:56,-115.1634,36.0719,663.00,90.00,36.00,14.88,260.00,4.00,0.00,29.89,1008.90,10.00,M,CLR,M,M,M,M,M,M,M,M,M,M,M,M,M,M,85.97,KLAS 010656Z 26004KT 10SM CLR 32/02 A2989 RMK AO2 SLP089 T03220022,M
EKO,2023-07-01 06:56,-115.7860,40.8242,1367.00,63.00,42.00,46.34,60.00,4.00,0.00,30.17,1016.30,10.00,M,CLR,M,M,M,M,M,M,M,M,M,M,M,M,M,M,63.00,KEKO 010656Z AUTO 06004KT 10SM CLR 17/06 A3017 RMK AO2 SLP163 T01720056,M
TPH,2023-07-01 06:56,-117.0904,38.0505,1654.00,72.00,35.00,25.83,350.00,6.00,0.00,30.17,1012.90,10.00,M,CLR,M,M,M,M,M,M,M,M,M,M,M,M,M,M,72.00,KTPH 010656Z AUTO 35006KT 10SM CLR 22/02 A3017 RMK AO2 SLP129 T02220017,M
NFL,2023-07-01 06:56,-118.7010,39.4166,1199.00,69.00,40.00,34.43,190.00,4.00,0.00,30.06,1014.80,10.00,M,CLR,M,M,M,M,M,M,M,M,M,M,M,M,M,M,69.10,KNFL 010656Z 19004KT 10SM CLR 21/04 A3006 RMK AO2 SLP148 T02060044,M
BVU,2023-07-01 07:15,-114.8611,35.9475,671.00,84.20,30.20,14.18,330.00,3.00,0.00,29.88,M,10.00,M,CLR,M,M,M,M,M,M,M,M,M,M,M,M,M,M,81.26,KBVU 010715Z AUTO 33003KT 10SM CLR 29/M01 A2988 RMK AO2,M
CXP,2023-07-01 07:15,-119.7326,39.1923,1431.00,66.20,46.40,48.83,0.00,0.00,0.00,30.17,M,10.00,M,CLR,M,M,M,M,M,M,M,M,M,M,M,M,M,M,66.20,KCXP 010715Z AUTO 00000KT 10SM CLR 19/08 A3017 RMK AO2,M
RTS,2023-07-01 07:15,-119.8764,39.6682,1539.00,68.00,46.40,45.88,0.00,0.00,0.00,30.20,M,10.00,M,CLR,M,M,M,M,M,M,M,M,M,M,M,M,M,M,68.00,KRTS 010715Z AUTO 00000KT 10SM CLR 20/08 A3020 RMK AO2,M
05U,2023-07-01 07:15,-116.0051,39.6042,1811.23,53.60,39.20,58.02,10.00,5.00,0.00,30.26,M,10.00,M,CLR,M,M,M,M,M,M,M,M,M,M,M,M,M,M,53.60,K05U 010715Z AUTO 01005KT 10SM CLR 12/04 A3026 RMK A01,M
MEV,2023-07-01 07:15,-119.7500,38.9963,1441.42,59.00,46.40,62.92,110.00,6.00,0.00,30.16,M,10.00,M,FEW,FEW,M,M,5000.00,6500.00,M,M,M,M,M,M,M,M,M,59.00,KMEV 010715Z AUTO 11006KT 10SM FEW050 FEW065 15/08 A3016 RMK AO2,M
BAM,2023-07-01 07:15,-116.8743,40.5990,1382.36,64.40,33.80,31.85,180.00,3.00,0.00,30.14,M,10.00,M,CLR,M,M,M,M,M,M,M,M,M,M,M,M,M,M,64.40,KBAM 010715Z AUTO 18003KT 10SM CLR 18/01 A3014 RMK AO1,M
HTH,2023-07-01 07:15,-118.6315,38.5448,1282.89,71.60,37.40,28.68,230.00,6.00,0.00,30.11,M,10.00,M,CLR,M,M,M,M,M,M,M,M,M,M,M,M,M,M,71.60,KHTH 010715Z AUTO 23006KT 10SM CLR 22/03 A3011 RMK A01,M
TMT,2023-07-01 07:15,-117.1971,39.4643,1749.34,51.40,34.70,52.69,200.00,4.00,0.00,30.24,M,10.00,M,CLR,M,M,M,M,M,M,M,M,M,M,M,M,M,M,51.40,KTMT 010715Z AUTO 20004KT 10SM CLR 11/02 A3024 RMK AO2 T01080015,M
BVU,2023-07-01 07:35,-114.8611,35.9475,671.00,80.60,39.20,22.81,0.00,0.00,0.00,29.88,M,10.00,M,CLR,M,M,M,M,M,M,M,M,M,M,M,M,M,M,79.10,KBVU 010735Z AUTO 00000KT 10SM CLR 27/04 A2988 RMK AO2,M
CXP,2023-07-01 07:35,-119.7326,39.1923,1431.00,66.20,46.40,48.83,0.00,0.00,0.00,30.17,M,10.00,M,CLR,M,M,M,M,M,M,M,M,M,M,M,M,M,M,66.20,KCXP 010735Z AUTO 00000KT 10SM CLR 19/08 A3017 RMK AO2,M
RTS,2023-07-01 07:35,-119.8764,39.6682,1539.00,66.20,46.40,48.83,290.00,4.00,0.00,30.20,M,10.00,M,CLR,M,M,M,M,M,M,M,M,M,M,M,M,M,M,66.20,KRTS 010735Z AUTO 29004KT 10SM CLR 19/08 A3020 RMK AO2,M
HTH,2023-07-01 07:35,-118.6315,38.5448,1282.89,71.60,39.20,30.77,230.00,6.00,0.00,30.10,M,10.00,M,CLR,M,M,M,M,M,M,M,M,M,M,M,M,M,M,71.60,KHTH 010735Z AUTO 23006KT 10SM CLR 22/04 A3010 RMK A01,M
05U,2023-07-01 07:35,-116.0051,39.6042,1811.23,51.80,39.20,61.99,0.00,0.00,0.00,30.26,M,6.00,M,CLR,M,M,M,M,M,M,M,HZ,M,M,M,M,M,M,51.80,K05U 010735Z AUTO 00000KT 6SM HZ CLR 11/04 A3026 RMK A01,M
MEV,2023-07-01 07:35,-119.7500,38.9963,1441.42,57.20,46.40,67.12,130.00,4.00,0.00,30.17,M,10.00,M,FEW,FEW,M,M,5000.00,6000.00,M,M,M,M,M,M,M,M,M,57.20,KMEV 010735Z AUTO 13004KT 10SM FEW050 FEW060 14/08 A3017 RMK AO2,M
BAM,2023-07-01 07:35,-116.8743,40.5990,1382.36,62.60,33.80,33.93,130.00,3.00,0.00,30.13,M,10.00,M,CLR,M,M,M,M,M,M,M,M,M,M,M,M,M,M,62.60,KBAM 010735Z AUTO 13003KT 10SM CLR 17/01 A3013 RMK AO1,M
TMT,2023-07-01 07:35,-117.1971,39.4643,1749.34,52.50,39.40,60.89,240.00,5.00,0.00,30.24,M,10.00,M,CLR,M,M,M,M,M,M,M,M,M,M,M,M,M,M,52.50,KTMT 010735Z AUTO 24005KT 10SM CLR 11/04 A3024 RMK AO2 T01140041,M
CXP,2023-07-01 07:50,-119.7326,39.1923,1431.00,66.20,44.60,45.60,320.00,4.00,0.00,30.18,M,10.00,M,CLR,M,M,M,M,M,M,M,M,M,M,M,M,M,M,66.20,KCXP 010750Z AUTO 32004KT 10SM CLR 19/07 A3018 RMK AO2,M
P68,2023-07-01 07:53,-116.0056,39.6014,1993.00,53.00,39.00,58.64,190.00,6.00,0.00,30.23,1016.00,M,M,M,M,M,M,M,M,M,M,M,M,M,M,M,M,M,53.10,KP68 010753Z AUTO 19006KT 12/04 A3023 RMK AO1 SLP160 T01170039 402940083,M
DRA,2023-07-01 07:53,-116.0278,36.6206,1009.00,76.00,30.00,18.46,90.00,4.00,0.00,29.96,1009.20,10.00,M,CLR,M,M,M,M,M,M,M,M,M,M,M,M,M,M,75.90,KDRA 010753Z AUTO 09004KT 10SM CLR 24/M01 A2996 RMK AO2 SLP092 T02441011 403830228,M
VGT,2023-07-01 07:53,-115.1933,36.2111,667.00,86.00,39.00,19.01,330.00,4.00,0.00,29.88,1010.20,10.00,M,CLR,M,M,M,M,M,M,M,M,M,M,M,M,M,M,82.78,KVGT 010753Z AUTO 33004KT 10SM CLR 30/04 A2988 RMK AO2 SLP102 T03000039 404060261,M
LOL,2023-07-01 07:53,-118.5701,40.0684,1192.43,65.00,41.00,41.55,0.00,0.00,0.00,30.06,1013.70,10.00,M,CLR,M,M,M,M,M,M,M,M,M,M,M,M,M,M,64.90,KLOL 010753Z AUTO 00000KT 10SM CLR 18/05 A3006 RMK AO2 SLP137 T01830050 403390111,M
ELY,2023-07-01 07:53,-114.8453,39.2950,1909.00,51.00,38.00,60.46,190.00,9.00,0.00,30.27,1015.70,10.00,M,CLR,M,M,M,M,M,M,M,M,M,M,M,M,M,M,51.10,KELY 010753Z AUTO 19009KT 10SM CLR 11/03 A3027 RMK AO2 SLP157 T01060033 402830050,M
BVU,2023-07-01 07:55,-114.8611,35.9475,671.00,80.60,39.20,22.81,0.00,0.00,0.00,29.87,M,10.00,M,CLR,M,M,M,M,M,M,M,M,M,M,M,M,M,M,79.10,KBVU 010755Z AUTO 00000KT 10SM CLR 27/04 A2987 RMK AO2,M
LSV,2023-07-01 07:55,-115.0343,36.2362,570.00,81.00,32.20,17.00,350.00,4.00,0.00,29.83,1007.40,10.00,M,CLR,M,M,M,M,M,M,M,M,M,M,M,M,M,M,79.14,KLSV 010755Z AUTO 35004KT 10SM CLR 27/00 A2983 RMK AO2 SLP074 T02730001 404080255 $,M
RTS,2023-07-01 07:55,-119.8764,39.6682,1539.00,62.60,46.40,55.37,310.00,8.00,0.00,30.19,M,10.00,M,CLR,M,M,M,M,M,M,M,M,M,M,M,M,M,M,62.60,KRTS 010755Z AUTO 31008KT 10SM CLR 17/08 A3019 RMK AO2,M
05U,2023-07-01 07:55,-116.0051,39.6042,1811.23,53.60,39.20,58.02,360.00,6.00,0.00,30.26,M,10.00,M,CLR,M,M,M,M,M,M,M,M,M,M,M,M,M,M,53.60,K05U 010755Z AUTO 36006KT 10SM CLR 12/04 A3026 RMK A01,M
MEV,2023-07-01 07:55,-119.7500,38.9963,1441.42,59.00,44.60,58.77,180.00,4.00,0.00,30.17,M,10.00,M,FEW,FEW,FEW,M,4400.00,5500.00,6500.00,M,M,M,M,M,M,M,M,59.00,KMEV 010755Z AUTO 18004KT 10SM FEW044 FEW055 FEW065 15/07 A3017 RMK AO2,M
BAM,2023-07-01 07:55,-116.8743,40.5990,1382.36,60.80,32.00,33.64,0.00,0.00,0.00,30.13,M,10.00,M,CLR,M,M,M,M,M,M,M,M,M,M,M,M,M,M,60.80,KBAM 010755Z AUTO 00000KT 10SM CLR 16/00 A3013 RMK AO1,M
HTH,2023-07-01 07:55,-118.6315,38.5448,1282.89,71.60,39.20,30.77,200.00,4.00,0.00,30.10,M,10.00,M,CLR,M,M,M,M,M,M,M,M,M,M,M,M,M,M,71.60,KHTH 010755Z AUTO 20004KT 10SM CLR 22/04 A3010 RMK A01,M
TMT,2023-07-01 07:55,-117.1971,39.4643,1749.34,51.00,41.70,70.62,250.00,6.00,0.00,30.24,M,10.00,M,CLR,M,M,M,M,M,M,M,M,M,M,M,M,M,M,50.90,KTMT 010755Z AUTO 25006KT 10SM CLR 11/05 A3024 RMK AO2 T01050054 402900027,M
INS,2023-07-01 07:55,-115.6733,36.5872,955.00,77.40,30.60,17.99,0.00,0.00,0.00,29.96,1009.20,10.00,M,CLR,M,M,M,M,M,M,M,M,M,M,M,M,M,M,77.40,KINS 010755Z AUTO 00000KT 10SM CLR 25/M01 A2996 RMK AO2 SLP092 T02521008 403630195 $,M
RNO,2023-07-01 07:55,-119.7711,39.4839,1341.00,76.00,49.00,38.57,250.00,6.00,0.00,30.14,1013.90,10.00,M,CLR,M,M,M,M,M,M,M,M,M,M,M,M,M,M,75.90,KRNO 010755Z 25006KT 10SM CLR 24/09 A3014 RMK AO2 SLP139 T02440094 403440144,M
EKO,2023-07-01 07:56,-115.7860,40.8242,1367.00,62.00,45.00,53.45,0.00,0.00,0.00,30.17,1016.00,10.00,M,CLR,M,M,M,M,M,M,M,M,M,M,M,M,M,M,62.10,KEKO 010756Z AUTO 00000KT 10SM CLR 17/07 A3017 RMK AO2 SLP160 T01670072 403110089,M
NFL,2023-07-01 07:56,-118.7010,39.4166,1199.00,67.00,43.00,41.87,240.00,3.00,0.00,30.06,1014.90,10.00,M,CLR,M,M,M,M,M,M,M,M,M,M,M,M,M,M,66.90,KNFL 010756Z AUTO 24003KT 10SM CLR 19/06 A3006 RMK AO2 SLP149 T01940061 403440128,M
HND,2023-07-01 07:56,-115.1344,35.9729,742.79,84.00,34.00,16.63,170.00,7.00,0.00,29.92,1011.40,10.00,M,CLR,M,M,M,M,M,M,M,M,M,M,M,M,M,M,81.16,KHND 010756Z AUTO 17007KT 10SM CLR 29/01 A2992 RMK AO2 SLP114 T02890011,M
TPH,2023-07-01 07:56,-117.0904,38.0505,1654.00,69.00,34.00,27.29,10.00,11.00,0.00,30.17,1012.80,10.00,M,CLR,M,M,M,M,M,M,M,M,M,M,M,M,M,M,69.10,KTPH 010756Z AUTO 01011KT 10SM CLR 21/01 A3017 RMK AO2 SLP128 T02060011 403280150,M
LAS,2023-07-01 07:56,-115.1634,36.0719,663.00,88.00,37.00,16.49,0.00,0.00,0.00,29.88,1008.70,10.00,M,CLR,M,M,M,M,M,M,M,M,M,M,M,M,M,M,84.32,KLAS 010756Z 00000KT 10SM CLR 31/03 A2988 RMK AO2 SLP087 T03110028 403890261,M
WMC,2023-07-01 07:56,-117.8072,40.9019,1315.00,61.00,38.00,42.24,140.00,5.00,0.00,30.09,1014.00,10.00,M,CLR,M,M,M,M,M,M,M,M,M,M,M,M,M,M,61.00,KWMC 010756Z AUTO 14005KT 10SM CLR 16/03 A3009 RMK AO2 SLP140 T01610033 403440078,M
BVU,2023-07-01 08:15,-114.8611,35.9475,671.00,84.20,35.60,17.61,0.00,0.00,0.00,29.88,M,10.00,M,CLR,M,M,M,M,M,M,M,M,M,M,M,M,M,M,81.34,KBVU 010815Z AUTO 00000KT 10SM CLR 29/02 A2988 RMK AO2,M
CXP,2023-07-01 08:15,-119.7326,39.1923,1431.00,66.20,46.40,48.83,0.00,0.00,0.00,30.17,M,10.00,M,CLR,M,M,M,M,M,M,M,M,M,M,M,M,M,M,66.20,KCXP 010815Z AUTO 00000KT 10SM CLR 19/08 A3017 RMK AO2,M
RTS,2023-07-01 08:15,-119.8764,39.6682,1539.00,64.40,46.40,51.98,320.00,5.00,0.00,30.19,M,10.00,M,CLR,M,M,M,M,M,M,M,M,M,M,M,M,M,M,64.40,KRTS 010815Z AUTO 32005KT 10SM CLR 18/08 A3019 RMK AO2,M
05U,2023-07-01 08:15,-116.0051,39.6042,1811.23,53.60,39.20,58.02,10.00,5.00,0.00,30.26,M,10.00,M,CLR,M,M,M,M,M,M,M,M,M,M,M,M,M,M,53.60,K05U 010815Z AUTO 01005KT 10SM CLR 12/04 A3026 RMK A01,M
MEV,2023-07-01 08:15,-119.7500,38.9963,1441.42,57.20,46.40,67.12,120.00,4.00,0.00,30.16,M,10.00,M,CLR,M,M,M,M,M,M,M,M,M,M,M,M,M,M,57.20,KMEV 010815Z AUTO 12004KT 10SM CLR 14/08 A3016 RMK AO2,M
BAM,2023-07-01 08:15,-116.8743,40.5990,1382.36,62.60,32.00,31.56,0.00,0.00,0.00,30.13,M,10.00,M,CLR,M,M,M,M,M,M,M,M,M,M,M,M,M,M,62.60,KBAM 010815Z AUTO 00000KT 10SM CLR 17/00 A3013 RMK AO1,M
HTH,2023-07-01 08:15,-118.6315,38.5448,1282.89,71.60,39.20,30.77,0.00,0.00,0.00,30.10,M,10.00,M,CLR,M,M,M,M,M,M,M,M,M,M,M,M,M,M,71.60,KHTH 010815Z AUTO 00000KT 10SM CLR 22/04 A3010 RMK A01,M
TMT,2023-07-01 08:15,-117.1971,39.4643,1749.34,51.40,38.70,61.70,260.00,6.00,0.00,30.24,M,10.00,M,CLR,M,M,M,M,M,M,M,M,M,M,M,M,M,M,51.40,KTMT 010815Z AUTO 26006KT 10SM CLR 11/04 A3024 RMK AO2 T01080037,M
BVU,2023-07-01 08:35,-114.8611,35.9475,671.00,80.60,41.00,24.46,0.00,0.00,0.00,29.88,M,10.00,M,CLR,M,M,M,M,M,M,M,M,M,M,M,M,M,M,79.20,KBVU 010835Z AUTO 00000KT 10SM CLR 27/05 A2988 RMK AO2,M
CXP,2023-07-01 08:35,-119.7326,39.1923,1431.00,64.40,46.40,51.98,0.00,0.00,0.00,30.18,M,10.00,M,CLR,M,M,M,M,M,M,M,M,M,M,M,M,M,M,64.40,KCXP 010835Z AUTO 00000KT 10SM CLR 18/08 A3018 RMK AO2,M
RTS,2023-07-01 08:35,-119.8764,39.6682,1539.00,62.60,46.40,55.37,340.00,8.00,0.00,30.19,M,10.00,M,CLR,M,M,M,M,M,M,M,M,M,M,M,M,M,M,62.60,KRTS 010835Z AUTO 34008KT 10SM CLR 17/08 A3019 RMK AO2,M
05U,2023-07-01 08:35,-116.0051,39.6042,1811.23,51.80,39.20,61.99,20.00,5.00,0.00,30.26,M,10.00,M,CLR,M,M,M,M,M,M,M,M,M,M,M,M,M,M,51.80,K05U 010835Z AUTO 02005KT 10SM CLR 11/04 A3026 RMK A01,M
MEV,2023-07-01 08:35,-119.7500,38.9963,1441.42,55.40,46.40,71.64,100.00,5.00,0.00,30.17,M,10.00,M,FEW,FEW,FEW,M,3600.00,4600.00,6000.00,M,M,M,M,M,M,M,M,55.40,KMEV 010835Z AUTO 10005KT 10SM FEW036 FEW046 FEW060 13/08 A3017 RMK AO2,M
BAM,2023-07-01 08:35,-116.8743,40.5990,1382.36,68.00,35.60,30.20,130.00,3.00,0.00,30.13,M,10.00,M,CLR,M,M,M,M,M,M,M,M,M,M,M,M,M,M,68.00,KBAM 010835Z AUTO 13003KT 10SM CLR 20/02 A3013 RMK AO1,M
HTH,2023-07-01 08:35,-118.6315,38.5448,1282.89,69.80,37.40,30.49,170.00,5.00,0.00,30.10,M,10.00,M,CLR,M,M,M,M,M,M,M,M,M,M,M,M,M,M,69.80,KHTH 010835Z AUTO 17005KT 10SM CLR 21/03 A3010 RMK A01,M
TMT,2023-07-01 08:35,-117.1971,39.4643,1749.34,52.30,38.50,59.22,250.00,6.00,0.00,30.24,M,10.00,M,CLR,M,M,M,M,M,M,M,M,M,M,M,M,M,M,52.30,KTMT 010835Z AUTO 25006KT 10SM CLR 11/04 A3024 RMK AO2 T01130036,M
05U,2023-07-01 08:50,-116.0051,39.6042,1811.23,53.60,37.40,54.07,10.00,4.00,0.00,30.25,M,10.00,M,CLR,M,M,M,M,M,M,M,M,M,M,M,M,M,M,53.60,K05U 010850Z AUTO 01004KT 10SM CLR 12/03 A3025 RMK A01,M
DRA,2023-07-01 08:53,-116.0278,36.6206,1009.00,76.00,30.00,18.46,40.00,4.00,0.00,29.97,1009.20,10.00,M,CLR,M,M,M,M,M,M,M,M,M,M,M,M,M,M,75.90,KDRA 010853Z AUTO 04004KT 10SM CLR 24/M01 A2997 RMK AO2 SLP092 T02441011 50000,M
ELY,2023-07-01 08:53,-114.8453,39.2950,1909.00,50.00,37.00,60.79,180.00,7.00,0.00,30.27,1015.80,10.00,M,CLR,M,M,M,M,M,M,M,M,M,M,M,M,M,M,50.00,KELY 010853Z AUTO 18007KT 10SM CLR 10/03 A3027 RMK AO2 SLP158 T01000028 51000,M
LOL,2023-07-01 08:53,-118.5701,40.0684,1192.43,60.00,43.00,53.15,120.00,3.00,0.00,30.06,1013.90,10.00,M,CLR,M,M,M,M,M,M,M,M,M,M,M,M,M,M,60.10,KLOL 010853Z AUTO 12003KT 10SM CLR 16/06 A3006 RMK AO2 SLP139 T01560061 51002,M
P68,2023-07-01 08:53,-116.0056,39.6014,1993.00,53.00,38.00,56.17,180.00,4.00,0.00,30.23,1015.90,M,M,M,M,M,M,M,M,M,M,M,M,M,M,M,M,M,53.10,KP68 010853Z AUTO 18004KT 12/03 A3023 RMK AO1 SLP159 T01170033 58002,M
VGT,2023-07-01 08:53,-115.1933,36.2111,667.00,85.00,38.00,18.86,50.00,3.00,0.00,29.89,1010.60,10.00,M,CLR,M,M,M,M,M,M,M,M,M,M,M,M,M,M,81.91,KVGT 010853Z AUTO 05003KT 10SM CLR 29/03 A2989 RMK AO2 SLP106 T02940033 53003,M
BVU,2023-07-01 08:55,-114.8611,35.9475,671.00,78.80,42.80,27.81,30.00,4.00,0.00,29.88,M,10.00,M,CLR,M,M,M,M,M,M,M,M,M,M,M,M,M,M,78.80,KBVU 010855Z AUTO 03004KT 10SM CLR 26/06 A2988 RMK AO2,M
CXP,2023-07-01 08:55,-119.7326,39.1923,1431.00,64.40,46.40,51.98,0.00,0.00,0.00,30.18,M,10.00,M,CLR,M,M,M,M,M,M,M,M,M,M,M,M,M,M,64.40,KCXP 010855Z AUTO 00000KT 10SM CLR 18/08 A3018 RMK AO2,M
RNO,2023-07-01 08:55,-119.7711,39.4839,1341.00,72.00,48.00,42.51,200.00,4.00,0.00,30.14,1014.30,10.00,M,CLR,M,M,M,M,M,M,M,M,M,M,M,M,M,M,72.00,KRNO 010855Z 20004KT 10SM CLR 22/09 A3014 RMK AO2 SLP143 T02220089 51004,M
LSV,2023-07-01 08:55,-115.0343,36.2362,570.00,80.80,31.80,16.89,20.00,6.00,0.00,29.84,1007.60,10.00,M,CLR,M,M,M,M,M,M,M,M,M,M,M,M,M,M,78.94,KLSV 010855Z AUTO 02006KT 10SM CLR 27/M00 A2984 RMK AO2 SLP076 T02711001 51005 $,M
RTS,2023-07-01 08:55,-119.8764,39.6682,1539.00,62.60,46.40,55.37,340.00,5.00,0.00,30.19,M,10.00,M,CLR,M,M,M,M,M,M,M,M,M,M,M,M,M,M,62.60,KRTS 010855Z AUTO 34005KT 10SM CLR 17/08 A3019 RMK AO2,M
MEV,2023-07-01 08:55,-119.7500,38.9963,1441.42,57.20,46.40,67.12,100.00,6.00,0.00,30.16,M,10.00,M,FEW,SCT,SCT,M,4200.00,6000.00,7000.00,M,M,M,M,M,M,M,M,57.20,KMEV 010855Z AUTO 10006KT 10SM FEW042 SCT060 SCT070 14/08 A3016 RMK AO2,M
BAM,2023-07-01 08:55,-116.8743,40.5990,1382.36,64.40,33.80,31.85,170.00,6.00,0.00,30.13,M,10.00,M,CLR,M,M,M,M,M,M,M,M,M,M,M,M,M,M,64.40,KBAM 010855Z AUTO 17006KT 10SM CLR 18/01 A3013 RMK AO1,M
HTH,2023-07-01 08:55,-118.6315,38.5448,1282.89,68.00,39.20,34.80,220.00,5.00,0.00,30.10,M,10.00,M,CLR,M,M,M,M,M,M,M,M,M,M,M,M,M,M,68.00,KHTH 010855Z AUTO 22005KT 10SM CLR 20/04 A3010 RMK A01,M
INS,2023-07-01 08:55,-115.6733,36.5872,955.00,74.50,29.50,18.95,0.00,0.00,0.00,29.97,1009.70,10.00,M,CLR,M,M,M,M,M,M,M,M,M,M,M,M,M,M,74.50,KINS 010855Z AUTO 00000KT 10SM CLR 24/M01 A2997 RMK AO2 SLP097 T02361014 50003 $,M
TMT,2023-07-01 08:55,-117.1971,39.4643,1749.34,46.00,36.70,70.07,0.00,0.00,0.00,30.24,M,10.00,M,CLR,M,M,M,M,M,M,M,M,M,M,M,M,M,M,45.90,KTMT 010855Z AUTO 00000KT 10SM CLR 08/03 A3024 RMK AO2 T00770026,M
WMC,2023-07-01 08:56,-117.8072,40.9019,1315.00,61.00,36.00,39.19,120.00,7.00,0.00,30.09,1013.90,10.00,M,CLR,M,M,M,M,M,M,M,M,M,M,M,M,M,M,61.00,KWMC 010856Z AUTO 12007KT 10SM CLR 16/02 A3009 RMK AO2 SLP139 T01610022 58001,M
HND,2023-07-01 08:56,-115.1344,35.9729,742.79,81.00,34.00,18.33,0.00,0.00,0.00,29.93,1011.80,10.00,M,CLR,M,M,M,M,M,M,M,M,M,M,M,M,M,M,79.13,KHND 010856Z AUTO 00000KT 10SM CLR 27/01 A2993 RMK AO2 SLP118 T02720011 53002,M
NFL,2023-07-01 08:56,-118.7010,39.4166,1199.00,68.00,44.00,42.04,200.00,6.00,0.00,30.06,1014.90,10.00,M,CLR,M,M,M,M,M,M,M,M,M,M,M,M,M,M,68.00,KNFL 010856Z AUTO 20006KT 10SM CLR 20/07 A3006 RMK AO2 SLP149 T02000067 50002,M
LAS,2023-07-01 08:56,-115.1634,36.0719,663.00,85.00,37.00,18.20,190.00,4.00,0.00,29.89,1009.10,10.00,M,CLR,M,M,M,M,M,M,M,M,M,M,M,M,M,M,81.88,KLAS 010856Z 19004KT 10SM CLR 29/03 A2989 RMK AO2 SLP091 T02940028 53001,M
EKO,2023-07-01 08:56,-115.7860,40.8242,1367.00,60.00,44.00,55.44,70.00,6.00,0.00,30.18,1016.10,10.00,M,CLR,M,M,M,M,M,M,M,M,M,M,M,M,M,M,60.10,KEKO 010856Z AUTO 07006KT 10SM CLR 16/07 A3018 RMK AO2 SLP161 T01560067 51002,M
TPH,2023-07-01 08:56,-117.0904,38.0505,1654.00,67.00,35.00,30.75,360.00,11.00,0.00,30.17,1013.10,10.00,M,CLR,M,M,M,M,M,M,M,M,M,M,M,M,M,M,66.90,KTPH 010856Z AUTO 36011KT 10SM CLR 19/02 A3017 RMK AO2 SLP131 T01940017 51001,M
BVU,2023-07-01 09:15,-114.8611,35.9475,671.00,80.60,39.20,22.81,60.00,4.00,0.00,29.89,M,10.00,M,CLR,M,M,M,M,M,M,M,M,M,M,M,M,M,M,79.10,KBVU 010915Z AUTO 06004KT 10SM CLR 27/04 A2989 RMK AO2,M
CXP,2023-07-01 09:15,-119.7326,39.1923,1431.00,62.60,46.40,55.37,0.00,0.00,0.00,30.17,M,10.00,M,CLR,M,M,M,M,M,M,M,M,M,M,M,M,M,M,62.60,KCXP 010915Z AUTO 00000KT 10SM CLR 17/08 A3017 RMK AO2,M
RTS,2023-07-01 09:15,-119.8764,39.6682,1539.00,60.80,46.40,59.01,340.00,7.00,0.00,30.19,M,10.00,M,CLR,M,M,M,M,M,M,M,M,M,M,M,M,M,M,60.80,KRTS 010915Z AUTO 34007KT 10SM CLR 16/08 A3019 RMK AO2,M
05U,2023-07-01 09:15,-116.0051,39.6042,1811.23,53.60,39.20,58.02,10.00,6.00,0.00,30.25,M,10.00,M,CLR,M,M,M,M,M,M,M,M,M,M,M,M,M,M,53.60,K05U 010915Z AUTO 01006KT 10SM CLR 12/04 A3025 RMK A01,M
MEV,2023-07-01 09:15,-119.7500,38.9963,1441.42,57.20,46.40,67.12,80.00,3.00,0.00,30.16,M,10.00,M,FEW,FEW,M,M,6000.00,7000.00,M,M,M,M,M,M,M,M,M,57.20,KMEV 010915Z AUTO 08003KT 10SM FEW060 FEW070 14/08 A3016 RMK AO2,M
HTH,2023-07-01 09:15,-118.6315,38.5448,1282.89,68.00,39.20,34.80,M,3.00,0.00,30.10,M,10.00,M,CLR,M,M,M,M,M,M,M,M,M,M,M,M,M,M,68.00,KHTH 010915Z AUTO VRB03KT 10SM CLR 20/04 A3010 RMK A01,M
TMT,2023-07-01 09:15,-117.1971,39.4643,1749.34,45.50,36.50,70.58,0.00,0.00,0.00,30.24,M,10.00,M,CLR,M,M,M,M,M,M,M,M,M,M,M,M,M,M,45.50,KTMT 010915Z AUTO 00000KT 10SM CLR 08/03 A3024 RMK AO2 T00750025,M
BAM,2023-07-01 09:20,-116.8743,40.5990,1382.36,59.00,32.00,35.87,200.00,5.00,0.00,30.13,M,10.00,M,CLR,M,M,M,M,M,M,M,M,M,M,M,M,M,M,59.00,KBAM 010920Z AUTO 20005KT 10SM CLR 15/00 A3013 RMK AO1,M
BVU,2023-07-01 09:35,-114.8611,35.9475,671.00,84.20,37.40,18.91,30.00,10.00,0.00,29.88,M,10.00,M,CLR,M,M,M,M,M,M,M,M,M,M,M,M,M,M,81.38,KBVU 010935Z AUTO 03010KT 10SM CLR 29/03 A2988 RMK AO2,M
CXP,2023-07-01 09:35,-119.7326,39.1923,1431.00,60.80,48.20,63.15,0.00,0.00,0.00,30.18,M,10.00,M,CLR,M,M,M,M,M,M,M,M,M,M,M,M,M,M,60.80,KCXP 010935Z AUTO 00000KT 10SM CLR 16/09 A3018 RMK AO2,M
RTS,2023-07-01 09:35,-119.8764,39.6682,1539.00,60.80,46.40,59.01,350.00,7.00,0.00,30.19,M,10.00,M,CLR,M,M,M,M,M,M,M,M,M,M,M,M,M,M,60.80,KRTS 010935Z AUTO 35007KT 10SM CLR 16/08 A3019 RMK AO2,M
05U,2023-07-01 09:35,-116.0051,39.6042,1811.23,51.80,39.20,61.99,360.00,7.00,0.00,30.25,M,10.00,M,CLR,M,M,M,M,M,M,M,M,M,M,M,M,M,M,51.80,K05U 010935Z AUTO 36007KT 10SM CLR 11/04 A3025 RMK A01,M
MEV,2023-07-01 09:35,-119.7500,38.9963,1441.42,55.40,46.40,71.64,0.00,0.00,0.00,30.17,M,10.00,M,FEW,SCT,SCT,M,4900.00,6000.00,7000.00,M,M,M,M,M,M,M,M,55.40,KMEV 010935Z AUTO 00000KT 10SM FEW049 SCT060 SCT070 13/08 A3017 RMK AO2,M
BAM,2023-07-01 09:35,-116.8743,40.5990,1382.36,55.40,32.00,40.84,170.00,3.00,0.00,30.13,M,10.00,M,CLR,M,M,M,M,M,M,M,M,M,M,M,M,M,M,55.40,KBAM 010935Z AUTO 17003KT 10SM CLR 13/00 A3013 RMK AO1,M
HTH,2023-07-01 09:35,-118.6315,38.5448,1282.89,68.00,37.40,32.43,0.00,0.00,0.00,30.10,M,10.00,M,CLR,M,M,M,M,M,M,M,M,M,M,M,M,M,M,68.00,KHTH 010935Z AUTO 00000KT 10SM CLR 20/03 A3010 RMK A01,M
TMT,2023-07-01 09:35,-117.1971,39.4643,1749.34,45.00,34.20,65.66,0.00,0.00,0.00,30.24,M,10.00,M,CLR,M,M,M,M,M,M,M,M,M,M,M,M,M,M,45.00,KTMT 010935Z AUTO 00000KT 10SM CLR 07/01 A3024 RMK AO2 T00720012,M
DRA,2023-07-01 09:53,-116.0278,36.6206,1009.00,75.00,30.90,19.73,110.00,3.00,0.00,29.97,1009.30,10.00,M,CLR,M,M,M,M,M,M,M,M,M,M,M,M,M,M,75.00,KDRA 010953Z AUTO 11003KT 10SM CLR 24/M01 A2997 RMK AO2 SLP093 T02391006,M
ELY,2023-07-01 09:53,-114.8453,39.2950,1909.00,48.00,37.00,65.51,170.00,9.00,0.00,30.27,1016.20,10.00,M,CLR,M,M,M,M,M,M,M,M,M,M,M,M,M,M,43.41,KELY 010953Z AUTO 17009KT 10SM CLR 09/03 A3027 RMK AO2 SLP162 T00890028,M
VGT,2023-07-01 09:53,-115.1933,36.2111,667.00,85.00,36.00,17.50,290.00,6.00,0.00,29.89,1010.60,10.00,M,CLR,M,M,M,M,M,M,M,M,M,M,M,M,M,M,81.86,KVGT 010953Z AUTO 29006KT 10SM CLR 29/02 A2989 RMK AO2 SLP106 T02940022,M
P68,2023-07-01 09:53,-116.0056,39.6014,1993.00,51.00,38.00,60.46,170.00,7.00,0.00,30.23,1016.00,M,M,M,M,M,M,M,M,M,M,M,M,M,M,M,M,M,51.10,KP68 010953Z AUTO 17007KT 11/03 A3023 RMK AO1 SLP160 T01060033,M
LOL,2023-07-01 09:53,-118.5701,40.0684,1192.43,62.00,42.00,47.83,0.00,0.00,0.00,30.06,1013.60,10.00,M,CLR,M,M,M,M,M,M,M,M,M,M,M,M,M,M,62.10,KLOL 010953Z AUTO 00000KT 10SM CLR 17/06 A3006 RMK AO2 SLP136 T01670056,M
BVU,2023-07-01 09:55,-114.8611,35.9475,671.00,84.20,35.60,17.61,20.00,9.00,0.00,29.88,M,10.00,M,CLR,M,M,M,M,M,M,M,M,M,M,M,M,M,M,81.34,KBVU 010955Z AUTO 02009KT 10SM CLR 29/02 A2988 RMK AO2,M
CXP,2023-07-01 09:55,-119.7326,39.1923,1431.00,60.80,48.20,63.15,0.00,0.00,0.00,30.18,M,10.00,M,CLR,M,M,M,M,M,M,M,M,M,M,M,M,M,M,60.80,KCXP 010955Z AUTO 00000KT 10SM CLR 16/09 A3018 RMK AO2,M
LSV,2023-07-01 09:55,-115.0343,36.2362,570.00,84.60,33.40,15.93,40.00,8.00,0.00,29.85,1007.90,10.00,M,CLR,M,M,M,M,M,M,M,M,M,M,M,M,M,M,81.59,KLSV 010955Z AUTO 04008KT 10SM CLR 29/01 A2985 RMK AO2 SLP079 T02920008 $,M
RTS,2023-07-01 09:55,-119.8764,39.6682,1539.00,60.80,46.40,59.01,340.00,7.00,0.00,30.19,M,10.00,M,CLR,M,M,M,M,M,M,M,M,M,M,M,M,M,M,60.80,KRTS 010955Z AUTO 34007KT 10SM CLR 16/08 A3019 RMK AO2,M
05U,2023-07-01 09:55,-116.0051,39.6042,1811.23,51.80,37.40,57.77,20.00,6.00,0.00,30.26,M,10.00,M,CLR,M,M,M,M,M,M,M,M,M,M,M,M,M,M,51.80,K05U 010955Z AUTO 02006KT 10SM CLR 11/03 A3026 RMK A01,M
MEV,2023-07-01 09:55,-119.7500,38.9963,1441.42,55.40,46.40,71.64,80.00,3.00,0.00,30.17,M,10.00,M,CLR,M,M,M,M,M,M,M,M,M,M,M,M,M,M,55.40,KMEV 010955Z AUTO 08003KT 10SM CLR 13/08 A3017 RMK AO2,M
BAM,2023-07-01 09:55,-116.8743,40.5990,1382.36,55.40,32.00,40.84,0.00,0.00,0.00,30.13,M,10.00,M,CLR,M,M,M,M,M,M,M,M,M,M,M,M,M,M,55.40,KBAM 010955Z AUTO 00000KT 10SM CLR 13/00 A3013 RMK AO1,M
HTH,2023-07-01 09:55,-118.6315,38.5448,1282.89,62.60,39.20,42.00,120.00,3.00,0.00,30.10,M,10.00,M,CLR,M,M,M,M,M,M,M,M,M,M,M,M,M,M,62.60,KHTH 010955Z AUTO 12003KT 10SM CLR 17/04 A3010 RMK A01,M
INS,2023-07-01 09:55,-115.6733,36.5872,955.00,74.50,34.20,22.91,0.00,0.00,0.00,29.98,1009.90,10.00,M,CLR,M,M,M,M,M,M,M,M,M,M,M,M,M,M,74.50,KINS 010955Z AUTO 00000KT 10SM CLR 24/01 A2998 RMK AO2 SLP099 T02360012 $,M
RNO,2023-07-01 09:55,-119.7711,39.4839,1341.00,72.00,49.00,43.97,250.00,7.00,0.00,30.14,1014.20,10.00,M,CLR,M,M,M,M,M,M,M,M,M,M,M,M,M,M,72.00,KRNO 010955Z 25007KT 10SM CLR 22/09 A3014 RMK AO2 SLP142 T02220094,M
TMT,2023-07-01 09:55,-117.1971,39.4643,1749.34,42.30,33.00,69.11,0.00,0.00,0.00,30.24,M,10.00,M,CLR,M,M,M,M,M,M,M,M,M,M,M,M,M,M,42.30,KTMT 010955Z AUTO 00000KT 10SM CLR 06/01 A3024 RMK AO2 T00570005,M
NFL,2023-07-01 09:56,-118.7010,39.4166,1199.00,63.00,43.00,47.97,150.00,4.00,0.00,30.07,1015.00,10.00,M,CLR,M,M,M,M,M,M,M,M,M,M,M,M,M,M,63.00,KNFL 010956Z AUTO 15004KT 10SM CLR 17/06 A3007 RMK AO2 SLP150 T01720061,M
LAS,2023-07-01 09:56,-115.1634,36.0719,663.00,84.00,36.00,18.01,80.00,4.00,0.00,29.90,1009.40,10.00,M,CLR,M,M,M,M,M,M,M,M,M,M,M,M,M,M,81.20,KLAS 010956Z 08004KT 10SM CLR 29/02 A2990 RMK AO2 SLP094 T02890022,M
EKO,2023-07-01 09:56,-115.7860,40.8242,1367.00,59.00,42.00,53.40,40.00,4.00,0.00,30.18,1016.60,10.00,M,CLR,M,M,M,M,M,M,M,M,M,M,M,M,M,M,59.00,KEKO 010956Z AUTO 04004KT 10SM CLR 15/06 A3018 RMK AO2 SLP166 T01500056,M
WMC,2023-07-01 09:56,-117.8072,40.9019,1315.00,59.00,38.00,45.36,80.00,5.00,0.00,30.10,1014.20,10.00,M,CLR,M,M,M,M,M,M,M,M,M,M,M,M,M,M,59.00,KWMC 010956Z AUTO 08005KT 10SM CLR 15/03 A3010 RMK AO2 SLP142 T01500033,M
HND,2023-07-01 09:56,-115.1344,35.9729,742.79,80.00,34.00,18.88,180.00,5.00,0.00,29.94,1012.00,10.00,M,CLR,M,M,M,M,M,M,M,M,M,M,M,M,M,M,78.70,KHND 010956Z AUTO 18005KT 10SM CLR 27/01 A2994 RMK AO2 SLP120 T02670011,M
TPH,2023-07-01 09:56,-117.0904,38.0505,1654.00,67.00,35.00,30.75,350.00,9.00,0.00,30.17,1013.20,10.00,M,CLR,M,M,M,M,M,M,M,M,M,M,M,M,M,M,66.90,KTPH 010956Z AUTO 35009KT 10SM CLR 19/02 A3017 RMK AO2 SLP132 T01940017,M
BVU,2023-07-01 10:15,-114.8611,35.9475,671.00,84.20,35.60,17.61,350.00,4.00,0.00,29.89,M,10.00,M,CLR,M,M,M,M,M,M,M,M,M,M,M,M,M,M,81.34,KBVU 011015Z AUTO 35004KT 10SM CLR 29/02 A2989 RMK AO2,M
CXP,2023-07-01 10:15,-119.7326,39.1923,1431.00,60.80,48.20,63.15,0.00,0.00,0.00,30.18,M,10.00,M,CLR,M,M,M,M,M,M,M,M,M,M,M,M,M,M,60.80,KCXP 011015Z AUTO 00000KT 10SM CLR 16/09 A3018 RMK AO2,M
RTS,2023-07-01 10:15,-119.8764,39.6682,1539.00,59.00,46.40,62.92,340.00,7.00,0.00,30.19,M,10.00,M,CLR,M,M,M,M,M,M,M,M,M,M,M,M,M,M,59.00,KRTS 011015Z AUTO 34007KT 10SM CLR 15/08 A3019 RMK AO2,M
05U,2023-07-01 10:15,-116.0051,39.6042,1811.23,53.60,37.40,54.07,20.00,6.00,0.00,30.26,M,10.00,M,CLR,M,M,M,M,M,M,M,M,M,M,M,M,M,M,53.60,K05U 011015Z AUTO 02006KT 10SM CLR 12/03 A3026 RMK A01,M
MEV,2023-07-01 10:15,-119.7500,38.9963,1441.42,51.80,46.40,81.74,90.00,4.00,0.00,30.17,M,10.00,M,FEW,FEW,M,M,3900.00,7500.00,M,M,M,M,M,M,M,M,M,51.80,KMEV 011015Z AUTO 09004KT 10SM FEW039 FEW075 11/08 A3017 RMK AO2,M
BAM,2023-07-01 10:15,-116.8743,40.5990,1382.36,55.40,32.00,40.84,0.00,0.00,0.00,30.13,M,10.00,M,CLR,M,M,M,M,M,M,M,M,M,M,M,M,M,M,55.40,KBAM 011015Z AUTO 00000KT 10SM CLR 13/00 A3013 RMK AO1,M
HTH,2023-07-01 10:15,-118.6315,38.5448,1282.89,62.60,37.40,39.14,140.00,3.00,0.00,30.10,M,10.00,M,CLR,M,M,M,M,M,M,M,M,M,M,M,M,M,M,62.60,KHTH 011015Z AUTO 14003KT 10SM CLR 17/03 A3010 RMK A01,M
TMT,2023-07-01 10:15,-117.1971,39.4643,1749.34,41.20,32.40,70.67,120.00,3.00,0.00,30.24,M,10.00,M,CLR,M,M,M,M,M,M,M,M,M,M,M,M,M,M,39.21,KTMT 011015Z AUTO 12003KT 10SM CLR 05/00 A3024 RMK AO2 T00510002,M
BVU,2023-07-01 10:35,-114.8611,35.9475,671.00,82.40,35.60,18.67,0.00,0.00,0.00,29.89,M,10.00,M,CLR,M,M,M,M,M,M,M,M,M,M,M,M,M,M,80.08,KBVU 011035Z AUTO 00000KT 10SM CLR 28/02 A2989 RMK AO2,M
CXP,2023-07-01 10:35,-119.7326,39.1923,1431.00,59.00,46.40,62.92,0.00,0.00,0.00,30.18,M,10.00,M,CLR,M,M,M,M,M,M,M,M,M,M,M,M,M,M,59.00,KCXP 011035Z AUTO 00000KT 10SM CLR 15/08 A3018 RMK AO2,M
RTS,2023-07-01 10:35,-119.8764,39.6682,1539.00,59.00,46.40,62.92,350.00,8.00,0.00,30.19,M,10.00,M,CLR,M,M,M,M,M,M,M,M,M,M,M,M,M,M,59.00,KRTS 011035Z AUTO 35008KT 10SM CLR 15/08 A3019 RMK AO2,M
05U,2023-07-01 10:35,-116.0051,39.6042,1811.23,50.00,37.40,61.76,10.00,7.00,0.00,30.26,M,10.00,M,CLR,M,M,M,M,M,M,M,M,M,M,M,M,M,M,50.00,K05U 011035Z AUTO 01007KT 10SM CLR 10/03 A3026 RMK A01,M
MEV,2023-07-01 10:35,-119.7500,38.9963,1441.42,51.80,46.40,81.74,90.00,5.00,0.00,30.17,M,10.00,M,CLR,M,M,M,M,M,M,M,M,M,M,M,M,M,M,51.80,KMEV 011035Z AUTO 09005KT 10SM CLR 11/08 A3017 RMK AO2,M
BAM,2023-07-01 10:35,-116.8743,40.5990,1382.36,55.40,32.00,40.84,0.00,0.00,0.00,30.13,M,10.00,M,CLR,M,M,M,M,M,M,M,M,M,M,M,M,M,M,55.40,KBAM 011035Z AUTO 00000KT 10SM CLR 13/00 A3013 RMK AO1,M
HTH,2023-07-01 10:35,-118.6315,38.5448,1282.89,64.40,41.00,42.28,260.00,4.00,0.00,30.11,M,10.00,M,CLR,M,M,M,M,M,M,M,M,M,M,M,M,M,M,64.40,KHTH 011035Z AUTO 26004KT 10SM CLR 18/05 A3011 RMK A01,M
TMT,2023-07-01 10:35,-117.1971,39.4643,1749.34,43.30,34.20,70.06,0.00,0.00,0.00,30.24,M,10.00,M,CLR,M,M,M,M,M,M,M,M,M,M,M,M,M,M,43.30,KTMT 011035Z AUTO 00000KT 10SM CLR 06/01 A3024 RMK AO2 T00630012,M
P68,2023-07-01 10:53,-116.0056,39.6014,1993.00,51.00,39.00,63.12,180.00,7.00,0.00,30.24,1016.20,M,M,M,M,M,M,M,M,M,M,M,M,M,M,M,M,M,51.10,KP68 011053Z AUTO 18007KT 11/04 A3024 RMK AO1 SLP162 T01060039,M
DRA,2023-07-01 10:53,-116.0278,36.6206,1009.00,73.00,30.90,21.10,10.00,3.00,0.00,29.99,1010.10,10.00,M,CLR,M,M,M,M,M,M,M,M,M,M,M,M,M,M,73.00,KDRA 011053Z AUTO 01003KT 10SM CLR 23/M01 A2999 RMK AO2 SLP101 T02281006,M
ELY,2023-07-01 10:53,-114.8453,39.2950,1909.00,46.00,36.00,67.90,180.00,6.00,0.00,30.27,1016.30,10.00,M,CLR,M,M,M,M,M,M,M,M,M,M,M,M,M,M,42.39,KELY 011053Z AUTO 18006KT 10SM CLR 08/02 A3027 RMK AO2 SLP163 T00780022,M
VGT,2023-07-01 10:53,-115.1933,36.2111,667.00,82.00,39.00,21.62,300.00,5.00,0.00,29.90,1011.10,10.00,M,CLR,M,M,M,M,M,M,M,M,M,M,M,M,M,M,79.94,KVGT 011053Z AUTO 30005KT 10SM CLR 28/04 A2990 RMK AO2 SLP111 T02780039,M
LOL,2023-07-01 10:53,-118.5701,40.0684,1192.43,56.00,40.00,54.83,160.00,3.00,0.00,30.07,1014.20,10.00,M,CLR,M,M,M,M,M,M,M,M,M,M,M,M,M,M,55.90,KLOL 011053Z AUTO 16003KT 10SM CLR 13/04 A3007 RMK AO2 SLP142 T01330044,M
BVU,2023-07-01 10:55,-114.8611,35.9475,671.00,78.80,32.00,18.18,340.00,5.00,0.00,29.89,M,10.00,M,CLR,M,M,M,M,M,M,M,M,M,M,M,M,M,M,78.80,KBVU 011055Z AUTO 34005KT 10SM CLR 26/M00 A2989 RMK AO2,M
CXP,2023-07-01 10:55,-119.7326,39.1923,1431.00,60.80,46.40,59.01,0.00,0.00,0.00,30.18,M,10.00,M,CLR,M,M,M,M,M,M,M,M,M,M,M,M,M,M,60.80,KCXP 011055Z AUTO 00000KT 10SM CLR 16/08 A3018 RMK AO2,M
LSV,2023-07-01 10:55,-115.0343,36.2362,570.00,83.00,32.20,16.03,200.00,3.00,0.00,29.86,1008.30,10.00,M,CLR,M,M,M,M,M,M,M,M,M,M,M,M,M,M,80.35,KLSV 011055Z AUTO 20003KT 10SM CLR 28/00 A2986 RMK AO2 SLP083 T02830001 $,M
RTS,2023-07-01 10:55,-119.8764,39.6682,1539.00,59.00,46.40,62.92,350.00,7.00,0.00,30.19,M,10.00,M,CLR,M,M,M,M,M,M,M,M,M,M,M,M,M,M,59.00,KRTS 011055Z AUTO 35007KT 10SM CLR 15/08 A3019 RMK AO2,M
05U,2023-07-01 10:55,-116.0051,39.6042,1811.23,51.80,39.20,61.99,10.00,7.00,0.00,30.26,M,10.00,M,CLR,M,M,M,M,M,M,M,M,M,M,M,M,M,M,51.80,K05U 011055Z AUTO 01007KT 10SM CLR 11/04 A3026 RMK A01,M
MEV,2023-07-01 10:55,-119.7500,38.9963,1441.42,50.00,44.60,81.61,150.00,4.00,0.00,30.17,M,10.00,M,CLR,M,M,M,M,M,M,M,M,M,M,M,M,M,M,50.00,KMEV 011055Z AUTO 15004KT 10SM CLR 10/07 A3017 RMK AO2,M
BAM,2023-07-01 10:55,-116.8743,40.5990,1382.36,51.80,32.00,46.59,0.00,0.00,0.00,30.14,M,10.00,M,CLR,M,M,M,M,M,M,M,M,M,M,M,M,M,M,51.80,KBAM 011055Z AUTO 00000KT 10SM CLR 11/00 A3014 RMK AO1,M
HTH,2023-07-01 10:55,-118.6315,38.5448,1282.89,64.40,39.20,39.43,250.00,4.00,0.00,30.11,M,10.00,M,CLR,M,M,M,M,M,M,M,M,M,M,M,M,M,M,64.40,KHTH 011055Z AUTO 25004KT 10SM CLR 18/04 A3011 RMK A01,M
TMT,2023-07-01 10:55,-117.1971,39.4643,1749.34,45.00,33.80,64.61,0.00,0.00,0.00,30.24,M,10.00,M,CLR,M,M,M,M,M,M,M,M,M,M,M,M,M,M,45.00,KTMT 011055Z AUTO 00000KT 10SM CLR 07/01 A3024 RMK AO2 T00720010,M
INS,2023-07-01 10:55,-115.6733,36.5872,955.00,72.00,32.40,23.11,0.00,0.00,0.00,29.99,1010.40,10.00,M,CLR,M,M,M,M,M,M,M,M,M,M,M,M,M,M,72.10,KINS 011055Z COR AUTO 00000KT 10SM CLR 22/00 A2999 RMK AO2 SLP104 T02230002 $ COR 1102,M
RNO,2023-07-01 10:55,-119.7711,39.4839,1341.00,68.00,49.00,50.40,220.00,3.00,0.00,30.14,1014.40,10.00,M,CLR,M,M,M,M,M,M,M,M,M,M,M,M,M,M,68.00,KRNO 011055Z 22003KT 10SM CLR 20/09 A3014 RMK AO2 SLP144 T02000094,M
WMC,2023-07-01 10:56,-117.8072,40.9019,1315.00,57.00,37.00,47.04,170.00,3.00,0.00,30.10,1014.30,10.00,M,CLR,M,M,M,M,M,M,M,M,M,M,M,M,M,M,57.00,KWMC 011056Z AUTO 17003KT 10SM CLR 14/03 A3010 RMK AO2 SLP143 T01390028 $,M
HND,2023-07-01 10:56,-115.1344,35.9729,742.79,79.00,36.00,21.19,190.00,6.00,0.00,29.95,1012.50,10.00,M,CLR,M,M,M,M,M,M,M,M,M,M,M,M,M,M,79.00,KHND 011056Z AUTO 19006KT 10SM CLR 26/02 A2995 RMK AO2 SLP125 T02610022,M
LAS,2023-07-01 10:56,-115.1634,36.0719,663.00,83.00,39.00,21.00,260.00,5.00,0.00,29.91,1009.70,10.00,M,CLR,M,M,M,M,M,M,M,M,M,M,M,M,M,M,80.53,KLAS 011056Z 26005KT 10SM CLR 28/04 A2991 RMK AO2 SLP097 T02830039,M
EKO,2023-07-01 10:56,-115.7860,40.8242,1367.00,57.00,42.00,57.38,80.00,3.00,0.00,30.19,1016.90,10.00,M,CLR,M,M,M,M,M,M,M,M,M,M,M,M,M,M,57.00,KEKO 011056Z AUTO 08003KT 10SM CLR 14/06 A3019 RMK AO2 SLP169 T01390056,M
TPH,2023-07-01 10:56,-117.0904,38.0505,1654.00,64.00,35.00,34.02,350.00,10.00,0.00,30.18,1013.80,10.00,M,CLR,M,M,M,M,M,M,M,M,M,M,M,M,M,M,64.00,KTPH 011056Z AUTO 35010KT 10SM CLR 18/02 A3018 RMK AO2 SLP138 T01780017,M
NFL,2023-07-01 10:56,-118.7010,39.4166,1199.00,62.00,42.00,47.83,150.00,5.00,0.00,30.08,1015.20,10.00,M,CLR,M,M,M,M,M,M,M,M,M,M,M,M,M,M,62.10,KNFL 011056Z AUTO 15005KT 10SM CLR 17/06 A3008 RMK AO2 SLP152 T01670056,M
05U,2023-07-01 11:10,-116.0051,39.6042,1811.23,51.80,37.40,57.77,20.00,5.00,0.00,30.26,M,10.00,M,CLR,M,M,M,M,M,M,M,M,M,M,M,M,M,M,51.80,K05U 011110Z AUTO 02005KT 10SM CLR 11/03 A3026 RMK A01,M
BVU,2023-07-01 11:15,-114.8611,35.9475,671.00,77.00,35.60,22.28,320.00,5.00,0.00,29.90,M,10.00,M,CLR,M,M,M,M,M,M,M,M,M,M,M,M,M,M,77.00,KBVU 011115Z AUTO 32005KT 10SM CLR 25/02 A2990 RMK AO2,M
CXP,2023-07-01 11:15,-119.7326,39.1923,1431.00,59.00,48.20,67.33,0.00,0.00,0.00,30.18,M,10.00,M,CLR,M,M,M,M,M,M,M,M,M,M,M,M,M,M,59.00,KCXP 011115Z AUTO 00000KT 10SM CLR 15/09 A3018 RMK AO2,M
RTS,2023-07-01 11:15,-119.8764,39.6682,1539.00,60.80,46.40,59.01,350.00,8.00,0.00,30.19,M,10.00,M,CLR,M,M,M,M,M,M,M,M,M,M,M,M,M,M,60.80,KRTS 011115Z AUTO 35008KT 10SM CLR 16/08 A3019 RMK AO2,M
MEV,2023-07-01 11:15,-119.7500,38.9963,1441.42,51.80,44.60,76.34,M,5.00,0.00,30.17,M,10.00,M,CLR,M,M,M,M,M,M,M,M,M,M,M,M,M,M,51.80,KMEV 011115Z AUTO VRB05KT 10SM CLR 11/07 A3017 RMK AO2,M
BAM,2023-07-01 11:15,-116.8743,40.5990,1382.36,55.40,32.00,40.84,0.00,0.00,0.00,30.14,M,10.00,M,CLR,M,M,M,M,M,M,M,M,M,M,M,M,M,M,55.40,KBAM 011115Z AUTO 00000KT 10SM CLR 13/00 A3014 RMK AO1,M
HTH,2023-07-01 11:15,-118.6315,38.5448,1282.89,64.40,39.20,39.43,240.00,5.00,0.00,30.11,M,10.00,M,CLR,M,M,M,M,M,M,M,M,M,M,M,M,M,M,64.40,KHTH 011115Z AUTO 24005KT 10SM CLR 18/04 A3011 RMK A01,M
TMT,2023-07-01 11:15,-117.1971,39.4643,1749.34,43.70,33.80,67.90,0.00,0.00,0.00,30.24,M,10.00,M,CLR,M,M,M,M,M,M,M,M,M,M,M,M,M,M,43.70,KTMT 011115Z AUTO 00000KT 10SM CLR 07/01 A3024 RMK AO2 T00650010,M
CXP,2023-07-01 11:30,-119.7326,39.1923,1431.00,60.80,46.40,59.01,0.00,0.00,0.00,30.18,M,10.00,M,CLR,M,M,M,M,M,M,M,M,M,M,M,M,M,M,60.80,KCXP 011130Z AUTO 00000KT 10SM CLR 16/08 A3018 RMK AO2,M
BVU,2023-07-01 11:35,-114.8611,35.9475,671.00,80.60,30.20,15.94,0.00,0.00,0.00,29.90,M,10.00,M,CLR,M,M,M,M,M,M,M,M,M,M,M,M,M,M,78.77,KBVU 011135Z AUTO 00000KT 10SM CLR 27/M01 A2990 RMK AO2,M
RTS,2023-07-01 11:35,-119.8764,39.6682,1539.00,59.00,46.40,62.92,350.00,8.00,0.00,30.19,M,10.00,M,CLR,M,M,M,M,M,M,M,M,M,M,M,M,M,M,59.00,KRTS 011135Z AUTO 35008KT 10SM CLR 15/08 A3019 RMK AO2,M
05U,2023-07-01 11:35,-116.0051,39.6042,1811.23,51.80,37.40,57.77,10.00,5.00,0.00,30.27,M,10.00,M,CLR,M,M,M,M,M,M,M,M,M,M,M,M,M,M,51.80,K05U 011135Z AUTO 01005KT 10SM CLR 11/03 A3027 RMK A01,M
MEV,2023-07-01 11:35,-119.7500,38.9963,1441.42,53.60,44.60,71.45,0.00,0.00,0.00,30.18,M,10.00,M,CLR,M,M,M,M,M,M,M,M,M,M,M,M,M,M,53.60,KMEV 011135Z AUTO 00000KT 10SM CLR 12/07 A3018 RMK AO2,M
BAM,2023-07-01 11:35,-116.8743,40.5990,1382.36,53.60,32.00,43.61,0.00,0.00,0.00,30.14,M,10.00,M,CLR,M,M,M,M,M,M,M,M,M,M,M,M,M,M,53.60,KBAM 011135Z AUTO 00000KT 10SM CLR 12/00 A3014 RMK AO1,M
HTH,2023-07-01 11:35,-118.6315,38.5448,1282.89,66.20,39.20,37.03,250.00,5.00,0.00,30.12,M,10.00,M,CLR,M,M,M,M,M,M,M,M,M,M,M,M,M,M,66.20,KHTH 011135Z AUTO 25005KT 10SM CLR 19/04 A3012 RMK A01,M
TMT,2023-07-01 11:35,-117.1971,39.4643,1749.34,43.70,33.40,66.82,0.00,0.00,0.00,30.25,M,10.00,M,CLR,M,M,M,M,M,M,M,M,M,M,M,M,M,M,43.70,KTMT 011135Z AUTO 00000KT 10SM CLR 07/01 A3025 RMK AO2 T00650008,M
DRA,2023-07-01 11:53,-116.0278,36.6206,1009.00,73.00,30.90,21.10,0.00,0.00,0.00,30.00,1010.60,10.00,M,CLR,M,M,M,M,M,M,M,M,M,M,M,M,M,M,73.00,KDRA 011153Z AUTO 00000KT 10SM CLR 23/M01 A3000 RMK AO2 SLP106 T02281006 10289 20211 53011,M
ELY,2023-07-01 11:53,-114.8453,39.2950,1909.00,46.00,36.00,67.90,170.00,10.00,0.00,30.29,1016.60,10.00,M,CLR,M,M,M,M,M,M,M,M,M,M,M,M,M,M,40.52,KELY 011153Z AUTO 17010KT 10SM CLR 08/02 A3029 RMK AO2 SLP166 T00780022 10133 20072 53005,M
VGT,2023-07-01 11:53,-115.1933,36.2111,667.00,82.00,41.00,23.37,280.00,4.00,0.00,29.91,1011.40,10.00,M,CLR,M,M,M,M,M,M,M,M,M,M,M,M,M,M,80.04,KVGT 011153Z AUTO 28004KT 10SM CLR 28/05 A2991 RMK AO2 SLP114 T02780050 10333 20272 53008,M
LOL,2023-07-01 11:53,-118.5701,40.0684,1192.43,58.00,41.00,53.24,0.00,0.00,0.00,30.08,1014.50,10.00,M,CLR,M,M,M,M,M,M,M,M,M,M,M,M,M,M,57.90,KLOL 011153Z AUTO 00000KT 10SM CLR 14/05 A3008 RMK AO2 SLP145 T01440050 10233 20128 53004,M
P68,2023-07-01 11:53,-116.0056,39.6014,1993.00,51.00,38.00,60.46,190.00,7.00,0.00,30.24,1016.20,M,M,M,M,M,M,M,M,M,M,M,M,M,M,M,M,M,51.10,KP68 011153Z AUTO 19007KT 11/03 A3024 RMK AO1 SLP162 T01060033 10144 20100 53004,M
BVU,2023-07-01 11:55,-114.8611,35.9475,671.00,77.00,33.80,20.74,0.00,0.00,0.00,29.91,M,10.00,M,CLR,M,M,M,M,M,M,M,M,M,M,M,M,M,M,77.00,KBVU 011155Z AUTO 00000KT 10SM CLR 25/01 A2991 RMK AO2,M
CXP,2023-07-01 11:55,-119.7326,39.1923,1431.00,59.00,48.20,67.33,0.00,0.00,0.00,30.19,M,10.00,M,CLR,M,M,M,M,M,M,M,M,M,M,M,M,M,M,59.00,KCXP 011155Z AUTO 00000KT 10SM CLR 15/09 A3019 RMK AO2,M
RNO,2023-07-01 11:55,-119.7711,39.4839,1341.00,68.00,48.00,48.73,270.00,5.00,0.00,30.15,1014.60,10.00,M,CLR,M,M,M,M,M,M,M,M,M,M,M,M,M,M,68.00,KRNO 011155Z 27005KT 10SM CLR 20/09 A3015 RMK AO2 SLP146 T02000089 10267 20194 53003,M
LSV,2023-07-01 11:55,-115.0343,36.2362,570.00,80.20,34.20,18.97,0.00,0.00,0.00,29.87,1008.70,10.00,M,CLR,M,M,M,M,M,M,M,M,M,M,M,M,M,M,78.81,KLSV 011155Z AUTO 00000KT 10SM CLR 27/01 A2987 RMK AO2 SLP087 T02680012 10319 20268 52010 $,M
RTS,2023-07-01 11:55,-119.8764,39.6682,1539.00,60.80,46.40,59.01,350.00,8.00,0.00,30.19,M,10.00,M,CLR,M,M,M,M,M,M,M,M,M,M,M,M,M,M,60.80,KRTS 011155Z AUTO 35008KT 10SM CLR 16/08 A3019 RMK AO2,M
05U,2023-07-01 11:55,-116.0051,39.6042,1811.23,50.00,37.40,61.76,10.00,8.00,0.00,30.27,M,10.00,M,CLR,M,M,M,M,M,M,M,M,M,M,M,M,M,M,50.00,K05U 011155Z AUTO 01008KT 10SM CLR 10/03 A3027 RMK A01,M
MEV,2023-07-01 11:55,-119.7500,38.9963,1441.42,50.00,44.60,81.61,100.00,5.00,0.00,30.18,M,10.00,M,FEW,M,M,M,4100.00,M,M,M,M,M,M,M,M,M,M,50.00,KMEV 011155Z AUTO 10005KT 10SM FEW041 10/07 A3018 RMK AO2,M
BAM,2023-07-01 11:55,-116.8743,40.5990,1382.36,53.60,33.80,46.88,0.00,0.00,0.00,30.15,M,10.00,M,CLR,M,M,M,M,M,M,M,M,M,M,M,M,M,M,53.60,KBAM 011155Z AUTO 00000KT 10SM CLR 12/01 A3015 RMK AO1,M
HTH,2023-07-01 11:55,-118.6315,38.5448,1282.89,64.40,42.80,45.32,240.00,5.00,0.00,30.12,M,10.00,M,CLR,M,M,M,M,M,M,M,M,M,M,M,M,M,M,64.40,KHTH 011155Z AUTO 24005KT 10SM CLR 18/06 A3012 RMK A01,M
TMT,2023-07-01 11:55,-117.1971,39.4643,1749.34,39.60,31.80,73.40,0.00,0.00,0.00,30.25,M,10.00,M,CLR,M,M,M,M,M,M,M,M,M,M,M,M,M,M,39.60,KTMT 011155Z AUTO 00000KT 10SM CLR 04/00 A3025 RMK AO2 T00421001 10135 20042,M
INS,2023-07-01 11:55,-115.6733,36.5872,955.00,69.80,31.30,23.90,0.00,0.00,0.00,30.00,1010.90,10.00,M,CLR,M,M,M,M,M,M,M,M,M,M,M,M,M,M,69.80,KINS 011155Z AUTO 00000KT 10SM CLR 21/M00 A3000 RMK AO2 SLP109 T02101004 10286 20201 52010 $,M
WMC,2023-07-01 11:56,-117.8072,40.9019,1315.00,51.00,36.00,56.10,0.00,0.00,0.00,30.12,1015.30,10.00,M,CLR,M,M,M,M,M,M,M,M,M,M,M,M,M,M,51.10,KWMC 011156Z AUTO 00000KT 10SM CLR 11/02 A3012 RMK AO2 SLP153 T01060022 10194 20106 53007 $,M
NFL,2023-07-01 11:56,-118.7010,39.4166,1199.00,63.00,41.00,44.41,160.00,6.00,0.00,30.08,1015.50,10.00,M,CLR,M,M,M,M,M,M,M,M,M,M,M,M,M,M,63.00,KNFL 011156Z AUTO 16006KT 10SM CLR 17/05 A3008 RMK AO2 SLP155 T01720050 10233 20150 53006,M
HND,2023-07-01 11:56,-115.1344,35.9729,742.79,76.00,37.00,24.43,160.00,7.00,0.00,29.96,1013.00,10.00,M,CLR,M,M,M,M,M,M,M,M,M,M,M,M,M,M,75.90,KHND 011156Z AUTO 16007KT 10SM CLR 24/03 A2996 RMK AO2 SLP130 T02440028 10311 20244 53010,M
LAS,2023-07-01 11:56,-115.1634,36.0719,663.00,83.00,37.00,19.41,260.00,4.00,0.00,29.92,1010.10,10.00,M,CLR,M,M,M,M,M,M,M,M,M,M,M,M,M,M,80.46,KLAS 011156Z 26004KT 10SM CLR 28/03 A2992 RMK AO2 SLP101 T02830028 10333 20272 52009,M
TPH,2023-07-01 11:56,-117.0904,38.0505,1654.00,63.00,35.00,35.24,350.00,8.00,0.00,30.19,1014.10,10.00,M,CLR,M,M,M,M,M,M,M,M,M,M,M,M,M,M,63.00,KTPH 011156Z AUTO 35008KT 10SM CLR 17/02 A3019 RMK AO2 SLP141 T01720017 10239 20172 53006,M
EKO,2023-07-01 11:56,-115.7860,40.8242,1367.00,51.00,44.00,76.86,0.00,0.00,0.00,30.20,1017.50,10.00,M,CLR,M,M,M,M,M,M,M,M,M,M,M,M,M,M,51.10,KEKO 011156Z AUTO 00000KT 10SM CLR 11/07 A3020 RMK AO2 SLP175 T01060067 10189 20106 51008,M
BVU,2023-07-01 12:15,-114.8611,35.9475,671.00,75.20,39.20,27.26,0.00,0.00,0.00,29.92,M,10.00,M,CLR,M,M,M,M,M,M,M,M,M,M,M,M,M,M,75.20,KBVU 011215Z AUTO 00000KT 10SM CLR 24/04 A2992 RMK AO2,M
CXP,2023-07-01 12:15,-119.7326,39.1923,1431.00,59.00,46.40,62.92,310.00,5.00,0.00,30.19,M,10.00,M,CLR,M,M,M,M,M,M,M,M,M,M,M,M,M,M,59.00,KCXP 011215Z AUTO 31005KT 10SM CLR 15/08 A3019 RMK AO2,M
RTS,2023-07-01 12:15,-119.8764,39.6682,1539.00,59.00,46.40,62.92,350.00,8.00,0.00,30.20,M,10.00,M,CLR,M,M,M,M,M,M,M,M,M,M,M,M,M,M,59.00,KRTS 011215Z AUTO 35008KT 10SM CLR 15/08 A3020 RMK AO2,M
05U,2023-07-01 12:15,-116.0051,39.6042,1811.23,51.80,37.40,57.77,10.00,7.00,0.00,30.28,M,10.00,M,CLR,M,M,M,M,M,M,M,M,M,M,M,M,M,M,51.80,K05U 011215Z AUTO 01007KT 10SM CLR 11/03 A3028 RMK A01,M
MEV,2023-07-01 12:15,-119.7500,38.9963,1441.42,50.00,44.60,81.61,120.00,6.00,0.00,30.18,M,10.00,M,CLR,M,M,M,M,M,M,M,M,M,M,M,M,M,M,50.00,KMEV 011215Z AUTO 12006KT 10SM CLR 10/07 A3018 RMK AO2,M
BAM,2023-07-01 12:15,-116.8743,40.5990,1382.36,55.40,35.60,47.16,10.00,3.00,0.00,30.15,M,10.00,M,CLR,M,M,M,M,M,M,M,M,M,M,M,M,M,M,55.40,KBAM 011215Z AUTO 01003KT 10SM CLR 13/02 A3015 RMK AO1,M
HTH,2023-07-01 12:15,-118.6315,38.5448,1282.89,62.60,42.80,48.28,230.00,5.00,0.00,30.13,M,10.00,M,CLR,M,M,M,M,M,M,M,M,M,M,M,M,M,M,62.60,KHTH 011215Z AUTO 23005KT 10SM CLR 17/06 A3013 RMK A01,M
TMT,2023-07-01 12:15,-117.1971,39.4643,1749.34,39.40,31.80,73.97,0.00,0.00,0.00,30.26,M,10.00,M,CLR,M,M,M,M,M,M,M,M,M,M,M,M,M,M,39.40,KTMT 011215Z AUTO 00000KT 10SM CLR 04/00 A3026 RMK AO2 T00411001,M
BVU,2023-07-01 12:35,-114.8611,35.9475,671.00,75.20,37.40,25.40,0.00,0.00,0.00,29.92,M,10.00,M,CLR,M,M,M,M,M,M,M,M,M,M,M,M,M,M,75.20,KBVU 011235Z AUTO 00000KT 10SM CLR 24/03 A2992 RMK AO2,M
CXP,2023-07-01 12:35,-119.7326,39.1923,1431.00,60.80,44.60,55.12,0.00,0.00,0.00,30.20,M,10.00,M,CLR,M,M,M,M,M,M,M,M,M,M,M,M,M,M,60.80,KCXP 011235Z AUTO 00000KT 10SM CLR 16/07 A3020 RMK AO2,M
RTS,2023-07-01 12:35,-119.8764,39.6682,1539.00,57.20,46.40,67.12,0.00,0.00,0.00,30.20,M,10.00,M,CLR,M,M,M,M,M,M,M,M,M,M,M,M,M,M,57.20,KRTS 011235Z AUTO 00000KT 10SM CLR 14/08 A3020 RMK AO2,M
05U,2023-07-01 12:35,-116.0051,39.6042,1811.23,51.80,37.40,57.77,360.00,7.00,0.00,30.28,M,10.00,M,CLR,M,M,M,M,M,M,M,M,M,M,M,M,M,M,51.80,K05U 011235Z AUTO 36007KT 10SM CLR 11/03 A3028 RMK A01,M
MEV,2023-07-01 12:35,-119.7500,38.9963,1441.42,48.20,44.60,87.28,120.00,4.00,0.00,30.19,M,10.00,M,CLR,M,M,M,M,M,M,M,M,M,M,M,M,M,M,46.34,KMEV 011235Z AUTO 12004KT 10SM CLR 09/07 A3019 RMK AO2,M
BAM,2023-07-01 12:35,-116.8743,40.5990,1382.36,59.00,37.40,44.47,30.00,5.00,0.00,30.16,M,10.00,M,CLR,M,M,M,M,M,M,M,M,M,M,M,M,M,M,59.00,KBAM 011235Z AUTO 03005KT 10SM CLR 15/03 A3016 RMK AO1,M
HTH,2023-07-01 12:35,-118.6315,38.5448,1282.89,64.40,41.00,42.28,0.00,0.00,0.00,30.13,M,10.00,M,CLR,M,M,M,M,M,M,M,M,M,M,M,M,M,M,64.40,KHTH 011235Z AUTO 00000KT 10SM CLR 18/05 A3013 RMK A01,M
TMT,2023-07-01 12:35,-117.1971,39.4643,1749.34,40.30,31.80,71.43,0.00,0.00,0.00,30.26,M,10.00,M,CLR,M,M,M,M,M,M,M,M,M,M,M,M,M,M,40.30,KTMT 011235Z AUTO 00000KT 10SM CLR 05/00 A3026 RMK AO2 T00461001,M
DRA,2023-07-01 12:53,-116.0278,36.6206,1009.00,73.00,30.90,21.10,70.00,6.00,0.00,30.01,1011.00,10.00,M,CLR,M,M,M,M,M,M,M,M,M,M,M,M,M,M,73.00,KDRA 011253Z AUTO 07006KT 10SM CLR 23/M01 A3001 RMK AO2 SLP110 T02281006,M
ELY,2023-07-01 12:53,-114.8453,39.2950,1909.00,46.00,36.00,67.90,180.00,10.00,0.00,30.30,1017.10,10.00,M,CLR,M,M,M,M,M,M,M,M,M,M,M,M,M,M,40.52,KELY 011253Z AUTO 18010KT 10SM CLR 08/02 A3030 RMK AO2 SLP171 T00780022,M
P68,2023-07-01 12:53,-116.0056,39.6014,1993.00,52.00,38.00,58.48,200.00,8.00,0.00,30.25,1016.50,M,M,M,M,M,M,M,M,M,M,M,M,M,M,M,M,M,52.00,KP68 011253Z AUTO 20008KT 11/03 A3025 RMK AO1 SLP165 T01110033,M
LOL,2023-07-01 12:53,-118.5701,40.0684,1192.43,59.00,42.00,53.40,10.00,3.00,0.00,30.09,1014.90,10.00,M,CLR,M,M,M,M,M,M,M,M,M,M,M,M,M,M,59.00,KLOL 011253Z AUTO 01003KT 10SM CLR 15/06 A3009 RMK AO2 SLP149 T01500056,M
VGT,2023-07-01 12:53,-115.1933,36.2111,667.00,83.00,40.00,21.75,280.00,4.00,0.00,29.93,1012.10,10.00,M,CLR,M,M,M,M,M,M,M,M,M,M,M,M,M,M,80.57,KVGT 011253Z AUTO 28004KT 10SM CLR 28/04 A2993 RMK AO2 SLP121 T02830044,M
BVU,2023-07-01 12:55,-114.8611,35.9475,671.00,75.20,41.00,29.23,0.00,0.00,0.00,29.93,M,10.00,M,CLR,M,M,M,M,M,M,M,M,M,M,M,M,M,M,75.20,KBVU 011255Z AUTO 00000KT 10SM CLR 24/05 A2993 RMK AO2,M
CXP,2023-07-01 12:55,-119.7326,39.1923,1431.00,59.00,46.40,62.92,0.00,0.00,0.00,30.20,M,10.00,M,CLR,M,M,M,M,M,M,M,M,M,M,M,M,M,M,59.00,KCXP 011255Z AUTO 00000KT 10SM CLR 15/08 A3020 RMK AO2,M
RNO,2023-07-01 12:55,-119.7711,39.4839,1341.00,67.00,48.00,50.62,290.00,3.00,0.00,30.17,1015.30,10.00,M,CLR,M,M,M,M,M,M,M,M,M,M,M,M,M,M,66.90,KRNO 011255Z 29003KT 10SM CLR 19/09 A3017 RMK AO2 SLP153 T01940089,M
LSV,2023-07-01 12:55,-115.0343,36.2362,570.00,80.20,35.40,19.90,240.00,3.00,0.00,29.89,1009.40,10.00,M,CLR,M,M,M,M,M,M,M,M,M,M,M,M,M,M,78.86,KLSV 011255Z AUTO 24003KT 10SM CLR 27/02 A2989 RMK AO2 SLP094 T02680019 $,M
RTS,2023-07-01 12:55,-119.8764,39.6682,1539.00,57.20,46.40,67.12,0.00,0.00,0.00,30.21,M,10.00,M,CLR,M,M,M,M,M,M,M,M,M,M,M,M,M,M,57.20,KRTS 011255Z AUTO 00000KT 10SM CLR 14/08 A3021 RMK AO2,M
05U,2023-07-01 12:55,-116.0051,39.6042,1811.23,51.80,37.40,57.77,360.00,6.00,0.00,30.28,M,10.00,M,CLR,M,M,M,M,M,M,M,M,M,M,M,M,M,M,51.80,K05U 011255Z AUTO 36006KT 10SM CLR 11/03 A3028 RMK A01,M
MEV,2023-07-01 12:55,-119.7500,38.9963,1441.42,50.00,44.60,81.61,0.00,0.00,0.00,30.19,M,10.00,M,CLR,M,M,M,M,M,M,M,M,M,M,M,M,M,M,50.00,KMEV 011255Z AUTO 00000KT 10SM CLR 10/07 A3019 RMK AO2,M
BAM,2023-07-01 12:55,-116.8743,40.5990,1382.36,50.00,32.00,49.81,130.00,4.00,0.00,30.16,M,10.00,M,CLR,M,M,M,M,M,M,M,M,M,M,M,M,M,M,50.00,KBAM 011255Z AUTO 13004KT 10SM CLR 10/00 A3016 RMK AO1,M
HTH,2023-07-01 12:55,-118.6315,38.5448,1282.89,62.60,39.20,42.00,280.00,5.00,0.00,30.14,M,10.00,M,CLR,M,M,M,M,M,M,M,M,M,M,M,M,M,M,62.60,KHTH 011255Z AUTO 28005KT 10SM CLR 17/04 A3014 RMK A01,M
TMT,2023-07-01 12:55,-117.1971,39.4643,1749.34,41.40,32.70,70.98,200.00,4.00,0.00,30.27,M,10.00,M,CLR,M,M,M,M,M,M,M,M,M,M,M,M,M,M,38.40,KTMT 011255Z AUTO 20004KT 10SM CLR 05/00 A3027 RMK AO2 T00520004,M
INS,2023-07-01 12:55,-115.6733,36.5872,955.00,71.00,35.20,26.92,0.00,0.00,0.00,30.01,1011.10,10.00,M,CLR,M,M,M,M,M,M,M,M,M,M,M,M,M,M,70.90,KINS 011255Z AUTO 00000KT 10SM CLR 22/02 A3001 RMK AO2 SLP111 T02160018 $,M
EKO,2023-07-01 12:56,-115.7860,40.8242,1367.00,55.00,43.00,63.86,0.00,0.00,0.00,30.22,1018.20,10.00,M,CLR,M,M,M,M,M,M,M,M,M,M,M,M,M,M,55.00,KEKO 011256Z AUTO 00000KT 10SM CLR 13/06 A3022 RMK AO2 SLP182 T01280061,M
WMC,2023-07-01 12:56,-117.8072,40.9019,1315.00,53.00,37.00,54.21,130.00,3.00,0.00,30.14,1015.70,10.00,M,CLR,M,M,M,M,M,M,M,M,M,M,M,M,M,M,53.10,KWMC 011256Z AUTO 13003KT 10SM CLR 12/03 A3014 RMK AO2 SLP157 T01170028 $,M
NFL,2023-07-01 12:56,-118.7010,39.4166,1199.00,63.00,39.00,41.09,150.00,6.00,0.00,30.10,1016.00,10.00,M,CLR,M,M,M,M,M,M,M,M,M,M,M,M,M,M,63.00,KNFL 011256Z AUTO 15006KT 10SM CLR 17/04 A3010 RMK AO2 SLP160 T01720039,M
LAS,2023-07-01 12:56,-115.1634,36.0719,663.00,81.00,39.00,22.33,190.00,3.00,0.00,29.94,1010.80,10.00,M,CLR,M,M,M,M,M,M,M,M,M,M,M,M,M,M,79.33,KLAS 011256Z 19003KT 10SM CLR 27/04 A2994 RMK AO2 SLP108 T02720039,M
HND,2023-07-01 12:56,-115.1344,35.9729,742.79,76.00,38.00,25.31,150.00,6.00,0.00,29.98,1013.60,10.00,M,CLR,M,M,M,M,M,M,M,M,M,M,M,M,M,M,75.90,KHND 011256Z 15006KT 10SM CLR 24/03 A2998 RMK AO2 SLP136 T02440033,M
TPH,2023-07-01 12:56,-117.0904,38.0505,1654.00,62.00,35.00,36.37,10.00,9.00,0.00,30.20,1014.50,10.00,M,CLR,M,M,M,M,M,M,M,M,M,M,M,M,M,M,62.10,KTPH 011256Z AUTO 01009KT 10SM CLR 17/02 A3020 RMK AO2 SLP145 T01670017,M
BVU,2023-07-01 13:15,-114.8611,35.9475,671.00,75.20,41.00,29.23,0.00,0.00,0.00,29.93,M,10.00,M,CLR,M,M,M,M,M,M,M,M,M,M,M,M,M,M,75.20,KBVU 011315Z AUTO 00000KT 10SM CLR 24/05 A2993 RMK AO2,M
CXP,2023-07-01 13:15,-119.7326,39.1923,1431.00,60.80,46.40,59.01,0.00,0.00,0.00,30.21,M,10.00,M,CLR,M,M,M,M,M,M,M,M,M,M,M,M,M,M,60.80,KCXP 011315Z AUTO 00000KT 10SM CLR 16/08 A3021 RMK AO2,M
RTS,2023-07-01 13:15,-119.8764,39.6682,1539.00,55.40,46.40,71.64,0.00,0.00,0.00,30.22,M,10.00,M,CLR,M,M,M,M,M,M,M,M,M,M,M,M,M,M,55.40,KRTS 011315Z AUTO 00000KT 10SM CLR 13/08 A3022 RMK AO2,M
05U,2023-07-01 13:15,-116.0051,39.6042,1811.23,55.40,39.20,54.34,10.00,5.00,0.00,30.29,M,10.00,M,CLR,M,M,M,M,M,M,M,M,M,M,M,M,M,M,55.40,K05U 011315Z AUTO 01005KT 10SM CLR 13/04 A3029 RMK A01,M
MEV,2023-07-01 13:15,-119.7500,38.9963,1441.42,51.80,44.60,76.34,0.00,0.00,0.00,30.20,M,10.00,M,CLR,M,M,M,M,M,M,M,M,M,M,M,M,M,M,51.80,KMEV 011315Z AUTO 00000KT 10SM CLR 11/07 A3020 RMK AO2,M
BAM,2023-07-01 13:15,-116.8743,40.5990,1382.36,50.00,32.00,49.81,180.00,3.00,0.00,30.17,M,10.00,M,CLR,M,M,M,M,M,M,M,M,M,M,M,M,M,M,50.00,KBAM 011315Z AUTO 18003KT 10SM CLR 10/00 A3017 RMK AO1,M
HTH,2023-07-01 13:15,-118.6315,38.5448,1282.89,60.80,37.40,41.71,230.00,3.00,0.00,30.15,M,10.00,M,CLR,M,M,M,M,M,M,M,M,M,M,M,M,M,M,60.80,KHTH 011315Z AUTO 23003KT 10SM CLR 16/03 A3015 RMK A01,M
TMT,2023-07-01 13:15,-117.1971,39.4643,1749.34,44.00,35.00,70.43,0.00,0.00,0.00,30.27,M,10.00,M,CLR,M,M,M,M,M,M,M,M,M,M,M,M,M,M,44.10,KTMT 011315Z AUTO 00000KT 10SM CLR 07/02 A3027 RMK AO2 T00670017,M
05U,2023-07-01 13:30,-116.0051,39.6042,1811.23,57.20,41.00,54.60,10.00,5.00,0.00,30.29,M,10.00,M,CLR,M,M,M,M,M,M,M,M,M,M,M,M,M,M,57.20,K05U 011330Z AUTO 01005KT 10SM CLR 14/05 A3029 RMK A01,M
HTH,2023-07-01 13:30,-118.6315,38.5448,1282.89,62.60,39.20,42.00,230.00,4.00,0.00,30.16,M,10.00,M,CLR,M,M,M,M,M,M,M,M,M,M,M,M,M,M,62.60,KHTH 011330Z AUTO 23004KT 10SM CLR 17/04 A3016 RMK A01,M
BVU,2023-07-01 13:35,-114.8611,35.9475,671.00,78.80,37.40,22.54,0.00,0.00,0.00,29.94,M,10.00,M,CLR,M,M,M,M,M,M,M,M,M,M,M,M,M,M,78.80,KBVU 011335Z AUTO 00000KT 10SM CLR 26/03 A2994 RMK AO2,M
CXP,2023-07-01 13:35,-119.7326,39.1923,1431.00,62.60,46.40,55.37,0.00,0.00,0.00,30.21,M,10.00,M,CLR,M,M,M,M,M,M,M,M,M,M,M,M,M,M,62.60,KCXP 011335Z AUTO 00000KT 10SM CLR 17/08 A3021 RMK AO2,M
RTS,2023-07-01 13:35,-119.8764,39.6682,1539.00,57.20,46.40,67.12,350.00,6.00,0.00,30.22,M,10.00,M,CLR,M,M,M,M,M,M,M,M,M,M,M,M,M,M,57.20,KRTS 011335Z AUTO 35006KT 10SM CLR 14/08 A3022 RMK AO2,M
MEV,2023-07-01 13:35,-119.7500,38.9963,1441.42,53.60,46.40,76.50,0.00,0.00,0.00,30.20,M,10.00,M,CLR,M,M,M,M,M,M,M,M,M,M,M,M,M,M,53.60,KMEV 011335Z AUTO 00000KT 10SM CLR 12/08 A3020 RMK AO2,M
BAM,2023-07-01 13:35,-116.8743,40.5990,1382.36,53.60,32.00,43.61,0.00,0.00,0.00,30.17,M,10.00,M,CLR,M,M,M,M,M,M,M,M,M,M,M,M,M,M,53.60,KBAM 011335Z AUTO 00000KT 10SM CLR 12/00 A3017 RMK AO1,M
TMT,2023-07-01 13:35,-117.1971,39.4643,1749.34,46.80,37.00,68.26,220.00,3.00,0.00,30.27,M,10.00,M,CLR,M,M,M,M,M,M,M,M,M,M,M,M,M,M,45.61,KTMT 011335Z AUTO 22003KT 10SM CLR 08/03 A3027 RMK AO2 T00820027,M
P68,2023-07-01 13:53,-116.0056,39.6014,1993.00,60.00,43.00,53.15,200.00,4.00,0.00,30.27,1016.50,M,M,M,M,M,M,M,M,M,M,M,M,M,M,M,M,M,60.10,KP68 011353Z AUTO 20004KT 16/06 A3027 RMK AO1 SLP165 T01560061,M
ELY,2023-07-01 13:53,-114.8453,39.2950,1909.00,52.00,39.00,61.06,180.00,7.00,0.00,30.31,1017.10,10.00,M,CLR,M,M,M,M,M,M,M,M,M,M,M,M,M,M,52.00,KELY 011353Z AUTO 18007KT 10SM CLR 11/04 A3031 RMK AO2 SLP171 T01110039,M
DRA,2023-07-01 13:53,-116.0278,36.6206,1009.00,81.00,33.00,17.68,80.00,8.00,0.00,30.03,1011.20,10.00,M,CLR,M,M,M,M,M,M,M,M,M,M,M,M,M,M,79.10,KDRA 011353Z AUTO 08008KT 10SM CLR 27/01 A3003 RMK AO2 SLP112 T02720006,M
VGT,2023-07-01 13:53,-115.1933,36.2111,667.00,85.00,42.00,22.20,290.00,3.00,0.00,29.95,1012.70,10.00,M,CLR,M,M,M,M,M,M,M,M,M,M,M,M,M,M,82.08,KVGT 011353Z 29003KT 10SM CLR 29/06 A2995 RMK AO2 SLP127 T02940056,M
LOL,2023-07-01 13:53,-118.5701,40.0684,1192.43,62.00,44.00,51.64,70.00,4.00,0.00,30.11,1015.60,10.00,M,CLR,M,M,M,M,M,M,M,M,M,M,M,M,M,M,62.10,KLOL 011353Z AUTO 07004KT 10SM CLR 17/07 A3011 RMK AO2 SLP156 T01670067,M
BVU,2023-07-01 13:55,-114.8611,35.9475,671.00,80.60,30.20,15.94,0.00,0.00,0.00,29.95,M,10.00,M,CLR,M,M,M,M,M,M,M,M,M,M,M,M,M,M,78.77,KBVU 011355Z AUTO 00000KT 10SM CLR 27/M01 A2995 RMK AO2,M
CXP,2023-07-01 13:55,-119.7326,39.1923,1431.00,62.60,48.20,59.26,0.00,0.00,0.00,30.22,M,10.00,M,CLR,M,M,M,M,M,M,M,M,M,M,M,M,M,M,62.60,KCXP 011355Z AUTO 00000KT 10SM CLR 17/09 A3022 RMK AO2,M
RTS,2023-07-01 13:55,-119.8764,39.6682,1539.00,60.80,48.20,63.15,350.00,4.00,0.00,30.22,M,10.00,M,CLR,M,M,M,M,M,M,M,M,M,M,M,M,M,M,60.80,KRTS 011355Z AUTO 35004KT 10SM CLR 16/09 A3022 RMK AO2,M
05U,2023-07-01 13:55,-116.0051,39.6042,1811.23,60.80,42.80,51.45,10.00,5.00,0.00,30.30,M,10.00,M,CLR,M,M,M,M,M,M,M,M,M,M,M,M,M,M,60.80,K05U 011355Z AUTO 01005KT 10SM CLR 16/06 A3030 RMK A01,M
MEV,2023-07-01 13:55,-119.7500,38.9963,1441.42,57.20,48.20,71.83,0.00,0.00,0.00,30.21,M,10.00,M,CLR,M,M,M,M,M,M,M,M,M,M,M,M,M,M,57.20,KMEV 011355Z AUTO 00000KT 10SM CLR 14/09 A3021 RMK AO2,M
BAM,2023-07-01 13:55,-116.8743,40.5990,1382.36,55.40,33.80,43.90,0.00,0.00,0.00,30.18,M,10.00,M,CLR,M,M,M,M,M,M,M,M,M,M,M,M,M,M,55.40,KBAM 011355Z AUTO 00000KT 10SM CLR 13/01 A3018 RMK AO1,M
HTH,2023-07-01 13:55,-118.6315,38.5448,1282.89,68.00,39.20,34.80,240.00,4.00,0.00,30.16,M,10.00,M,CLR,M,M,M,M,M,M,M,M,M,M,M,M,M,M,68.00,KHTH 011355Z AUTO 24004KT 10SM CLR 20/04 A3016 RMK A01,M
INS,2023-07-01 13:55,-115.6733,36.5872,955.00,74.70,34.30,22.85,0.00,0.00,0.00,30.03,1011.60,10.00,M,CLR,M,M,M,M,M,M,M,M,M,M,M,M,M,M,74.70,KINS 011355Z AUTO 00000KT 10SM CLR 24/01 A3003 RMK AO2 SLP116 T02370013 $,M
RNO,2023-07-01 13:55,-119.7711,39.4839,1341.00,68.00,49.00,50.40,200.00,4.00,0.00,30.18,1015.70,10.00,M,CLR,M,M,M,M,M,M,M,M,M,M,M,M,M,M,68.00,KRNO 011355Z 20004KT 10SM CLR 20/09 A3018 RMK AO2 SLP157 T02000094,M
LSV,2023-07-01 13:55,-115.0343,36.2362,570.00,84.20,36.00,17.97,250.00,3.00,0.00,29.92,1010.30,10.00,M,CLR,M,M,M,M,M,M,M,M,M,M,M,M,M,M,81.35,KLSV 011355Z AUTO 25003KT 10SM CLR 29/02 A2992 RMK AO2 SLP103 T02900023 $,M
NFL,2023-07-01 13:56,-118.7010,39.4166,1199.00,70.00,41.00,34.85,150.00,7.00,0.00,30.12,1016.40,10.00,M,CLR,M,M,M,M,M,M,M,M,M,M,M,M,M,M,70.00,KNFL 011356Z AUTO 15007KT 10SM CLR 21/05 A3012 RMK AO2 SLP164 T02110050,M
TPH,2023-07-01 13:56,-117.0904,38.0505,1654.00,67.00,37.00,33.16,360.00,9.00,0.00,30.22,1014.70,10.00,M,CLR,M,M,M,M,M,M,M,M,M,M,M,M,M,M,66.90,KTPH 011356Z AUTO 36009KT 10SM CLR 19/03 A3022 RMK AO2 SLP147 T01940028,M
WMC,2023-07-01 13:56,-117.8072,40.9019,1315.00,63.00,38.00,39.36,0.00,0.00,0.00,30.14,1015.60,10.00,M,CLR,M,M,M,M,M,M,M,M,M,M,M,M,M,M,63.00,KWMC 011356Z AUTO 00000KT 10SM CLR 17/03 A3014 RMK AO2 SLP156 T01720033 $,M
HND,2023-07-01 13:56,-115.1344,35.9729,742.79,81.00,40.00,23.13,160.00,6.00,0.00,30.00,1014.10,10.00,M,CLR,M,M,M,M,M,M,M,M,M,M,M,M,M,M,79.37,KHND 011356Z 16006KT 10SM CLR 27/04 A3000 RMK AO2 SLP141 T02720044,M
LAS,2023-07-01 13:56,-115.1634,36.0719,663.00,84.00,38.00,19.41,190.00,4.00,0.00,29.96,1011.40,10.00,M,CLR,M,M,M,M,M,M,M,M,M,M,M,M,M,M,81.25,KLAS 011356Z 19004KT 10SM CLR 29/03 A2996 RMK AO2 SLP114 T02890033,M
EKO,2023-07-01 13:56,-115.7860,40.8242,1367.00,60.00,44.00,55.44,90.00,3.00,0.00,30.23,1018.30,10.00,M,CLR,M,M,M,M,M,M,M,M,M,M,M,M,M,M,60.10,KEKO 011356Z AUTO 09003KT 10SM CLR 16/07 A3023 RMK AO2 SLP183 T01560067,M
BVU,2023-07-01 14:15,-114.8611,35.9475,671.00,82.40,30.20,15.03,0.00,0.00,0.00,29.96,M,10.00,M,CLR,M,M,M,M,M,M,M,M,M,M,M,M,M,M,79.97,KBVU 011415Z AUTO 00000KT 10SM CLR 28/M01 A2996 RMK AO2,M
CXP,2023-07-01 14:15,-119.7326,39.1923,1431.00,64.40,46.40,51.98,0.00,0.00,0.00,30.22,M,10.00,M,CLR,M,M,M,M,M,M,M,M,M,M,M,M,M,M,64.40,KCXP 011415Z AUTO 00000KT 10SM CLR 18/08 A3022 RMK AO2,M
RTS,2023-07-01 14:15,-119.8764,39.6682,1539.00,64.40,50.00,59.50,0.00,0.00,0.00,30.23,M,10.00,M,CLR,M,M,M,M,M,M,M,M,M,M,M,M,M,M,64.40,KRTS 011415Z AUTO 00000KT 10SM CLR 18/10 A3023 RMK AO2,M
05U,2023-07-01 14:15,-116.0051,39.6042,1811.23,64.40,41.00,42.28,10.00,5.00,0.00,30.30,M,10.00,M,CLR,M,M,M,M,M,M,M,M,M,M,M,M,M,M,64.40,K05U 011415Z AUTO 01005KT 10SM CLR 18/05 A3030 RMK A01,M
MEV,2023-07-01 14:15,-119.7500,38.9963,1441.42,60.80,48.20,63.15,0.00,0.00,0.00,30.21,M,10.00,M,CLR,M,M,M,M,M,M,M,M,M,M,M,M,M,M,60.80,KMEV 011415Z AUTO 00000KT 10SM CLR 16/09 A3021 RMK AO2,M
BAM,2023-07-01 14:15,-116.8743,40.5990,1382.36,60.80,35.60,38.85,0.00,0.00,0.00,30.18,M,10.00,M,CLR,M,M,M,M,M,M,M,M,M,M,M,M,M,M,60.80,KBAM 011415Z AUTO 00000KT 10SM CLR 16/02 A3018 RMK AO1,M
HTH,2023-07-01 14:15,-118.6315,38.5448,1282.89,69.80,42.80,37.61,0.00,0.00,0.00,30.17,M,10.00,M,CLR,M,M,M,M,M,M,M,M,M,M,M,M,M,M,69.80,KHTH 011415Z AUTO 00000KT 10SM CLR 21/06 A3017 RMK A01,M
TMT,2023-07-01 14:15,-117.1971,39.4643,1749.34,53.80,41.20,62.25,270.00,3.00,0.00,30.28,M,10.00,M,CLR,M,M,M,M,M,M,M,M,M,M,M,M,M,M,53.80,KTMT 011415Z AUTO 27003KT 10SM CLR 12/05 A3028 RMK AO2 T01210051,M
BVU,2023-07-01 14:35,-114.8611,35.9475,671.00,84.20,30.20,14.18,0.00,0.00,0.00,29.96,M,10.00,M,CLR,M,M,M,M,M,M,M,M,M,M,M,M,M,M,81.26,KBVU 011435Z AUTO 00000KT 10SM CLR 29/M01 A2996 RMK AO2,M
CXP,2023-07-01 14:35,-119.7326,39.1923,1431.00,66.20,46.40,48.83,0.00,0.00,0.00,30.22,M,10.00,M,CLR,M,M,M,M,M,M,M,M,M,M,M,M,M,M,66.20,KCXP 011435Z AUTO 00000KT 10SM CLR 19/08 A3022 RMK AO2,M
RTS,2023-07-01 14:35,-119.8764,39.6682,1539.00,66.20,48.20,52.25,0.00,0.00,0.00,30.23,M,10.00,M,CLR,M,M,M,M,M,M,M,M,M,M,M,M,M,M,66.20,KRTS 011435Z AUTO 00000KT 10SM CLR 19/09 A3023 RMK AO2,M
05U,2023-07-01 14:35,-116.0051,39.6042,1811.23,66.20,42.80,42.57,0.00,0.00,0.00,30.30,M,10.00,M,CLR,M,M,M,M,M,M,M,M,M,M,M,M,M,M,66.20,K05U 011435Z AUTO 00000KT 10SM CLR 19/06 A3030 RMK A01,M
MEV,2023-07-01 14:35,-119.7500,38.9963,1441.42,62.60,48.20,59.26,0.00,0.00,0.00,30.21,M,10.00,M,CLR,M,M,M,M,M,M,M,M,M,M,M,M,M,M,62.60,KMEV 011435Z AUTO 00000KT 10SM CLR 17/09 A3021 RMK AO2,M
BAM,2023-07-01 14:35,-116.8743,40.5990,1382.36,64.40,37.40,36.74,0.00,0.00,0.00,30.19,M,10.00,M,CLR,M,M,M,M,M,M,M,M,M,M,M,M,M,M,64.40,KBAM 011435Z AUTO 00000KT 10SM CLR 18/03 A3019 RMK AO1,M
HTH,2023-07-01 14:35,-118.6315,38.5448,1282.89,73.40,41.00,31.05,0.00,0.00,0.00,30.17,M,10.00,M,CLR,M,M,M,M,M,M,M,M,M,M,M,M,M,M,73.40,KHTH 011435Z AUTO 00000KT 10SM CLR 23/05 A3017 RMK A01,M
TMT,2023-07-01 14:35,-117.1971,39.4643,1749.34,55.40,39.20,54.34,0.00,0.00,0.00,30.28,M,10.00,M,CLR,M,M,M,M,M,M,M,M,M,M,M,M,M,M,55.40,KTMT 011435Z AUTO 00000KT 10SM CLR 13/04 A3028 RMK AO2 T01300040,M
DRA,2023-07-01 14:53,-116.0278,36.6206,1009.00,88.00,34.00,14.64,50.00,5.00,0.00,30.05,1011.50,10.00,M,CLR,M,M,M,M,M,M,M,M,M,M,M,M,M,M,84.26,KDRA 011453Z AUTO 05005KT 10SM CLR 31/01 A3005 RMK AO2 SLP115 T03110011 53014,M
VGT,2023-07-01 14:53,-115.1933,36.2111,667.00,89.00,41.00,18.62,0.00,0.00,0.00,29.96,1013.20,10.00,M,CLR,M,M,M,M,M,M,M,M,M,M,M,M,M,M,85.39,KVGT 011453Z 00000KT 10SM CLR 32/05 A2996 RMK AO2 SLP132 T03170050 51017,M
LOL,2023-07-01 14:53,-118.5701,40.0684,1192.43,70.00,44.00,39.26,0.00,0.00,0.00,30.13,1015.90,10.00,M,CLR,M,M,M,M,M,M,M,M,M,M,M,M,M,M,70.00,KLOL 011453Z AUTO 00000KT 10SM CLR 21/07 A3013 RMK AO2 SLP159 T02110067 53016,M
P68,2023-07-01 14:53,-116.0056,39.6014,1993.00,67.00,42.00,40.45,M,3.00,0.00,30.28,1016.80,M,M,M,M,M,M,M,M,M,M,M,M,M,M,M,M,M,66.90,KP68 011453Z AUTO VRB03KT 19/06 A3028 RMK AO1 SLP168 T01940056 51010,M
ELY,2023-07-01 14:53,-114.8453,39.2950,1909.00,62.00,42.00,47.83,180.00,6.00,0.00,30.32,1016.80,10.00,M,CLR,M,M,M,M,M,M,M,M,M,M,M,M,M,M,62.10,KELY 011453Z AUTO 18006KT 10SM CLR 17/06 A3032 RMK AO2 SLP168 T01670056 51009,M
BVU,2023-07-01 14:55,-114.8611,35.9475,671.00,86.00,30.20,13.38,0.00,0.00,0.00,29.96,M,10.00,M,CLR,M,M,M,M,M,M,M,M,M,M,M,M,M,M,82.64,KBVU 011455Z AUTO 00000KT 10SM CLR 30/M01 A2996 RMK AO2,M
CXP,2023-07-01 14:55,-119.7326,39.1923,1431.00,68.00,46.40,45.88,0.00,0.00,0.00,30.23,M,10.00,M,CLR,M,M,M,M,M,M,M,M,M,M,M,M,M,M,68.00,KCXP 011455Z AUTO 00000KT 10SM CLR 20/08 A3023 RMK AO2,M
RTS,2023-07-01 14:55,-119.8764,39.6682,1539.00,68.00,50.00,52.51,0.00,0.00,0.00,30.23,M,10.00,M,CLR,M,M,M,M,M,M,M,M,M,M,M,M,M,M,68.00,KRTS 011455Z AUTO 00000KT 10SM CLR 20/10 A3023 RMK AO2,M
05U,2023-07-01 14:55,-116.0051,39.6042,1811.23,69.80,41.00,35.09,0.00,0.00,0.00,30.31,M,10.00,M,CLR,M,M,M,M,M,M,M,M,M,M,M,M,M,M,69.80,K05U 011455Z AUTO 00000KT 10SM CLR 21/05 A3031 RMK A01,M
MEV,2023-07-01 14:55,-119.7500,38.9963,1441.42,66.20,50.00,55.88,0.00,0.00,0.00,30.22,M,10.00,M,CLR,M,M,M,M,M,M,M,M,M,M,M,M,M,M,66.20,KMEV 011455Z AUTO 00000KT 10SM CLR 19/10 A3022 RMK AO2,M
BAM,2023-07-01 14:55,-116.8743,40.5990,1382.36,68.00,39.20,34.80,0.00,0.00,0.00,30.19,M,10.00,M,CLR,M,M,M,M,M,M,M,M,M,M,M,M,M,M,68.00,KBAM 011455Z AUTO 00000KT 10SM CLR 20/04 A3019 RMK AO1,M
HTH,2023-07-01 14:55,-118.6315,38.5448,1282.89,73.40,41.00,31.05,0.00,0.00,0.00,30.18,M,10.00,M,CLR,M,M,M,M,M,M,M,M,M,M,M,M,M,M,73.40,KHTH 011455Z AUTO 00000KT 10SM CLR 23/05 A3018 RMK A01,M
TMT,2023-07-01 14:55,-117.1971,39.4643,1749.34,57.40,39.60,51.34,0.00,0.00,0.00,30.28,M,10.00,M,CLR,M,M,M,M,M,M,M,M,M,M,M,M,M,M,57.40,KTMT 011455Z AUTO 00000KT 10SM CLR 14/04 A3028 RMK AO2 T01410042,M
INS,2023-07-01 14:55,-115.6733,36.5872,955.00,79.00,33.30,19.03,0.00,0.00,0.00,30.05,1012.30,10.00,M,CLR,M,M,M,M,M,M,M,M,M,M,M,M,M,M,79.00,KINS 011455Z AUTO 00000KT 10SM CLR 26/01 A3005 RMK AO2 SLP123 T02610007 52014 $,M
RNO,2023-07-01 14:55,-119.7711,39.4839,1341.00,72.00,49.00,43.97,200.00,3.00,0.00,30.19,1015.90,10.00,M,CLR,M,M,M,M,M,M,M,M,M,M,M,M,M,M,72.00,KRNO 011455Z 20003KT 10SM CLR 22/09 A3019 RMK AO2 SLP159 T02220094 51012,M
LSV,2023-07-01 14:55,-115.0343,36.2362,570.00,91.00,37.00,14.99,0.00,0.00,0.00,29.92,1010.30,10.00,M,CLR,M,M,M,M,M,M,M,M,M,M,M,M,M,M,86.77,KLSV 011455Z AUTO 00000KT 10SM CLR 33/03 A2992 RMK AO2 SLP103 T03270027 52017 $,M
WMC,2023-07-01 14:56,-117.8072,40.9019,1315.00,72.00,41.00,32.56,0.00,0.00,0.00,30.16,1015.60,10.00,M,CLR,M,M,M,M,M,M,M,M,M,M,M,M,M,M,72.00,KWMC 011456Z AUTO 00000KT 10SM CLR 22/05 A3016 RMK AO2 SLP156 T02220050 51013 $,M
TPH,2023-07-01 14:56,-117.0904,38.0505,1654.00,75.00,39.00,27.23,360.00,9.00,0.00,30.23,1014.60,10.00,M,CLR,M,M,M,M,M,M,M,M,M,M,M,M,M,M,75.00,KTPH 011456Z AUTO 36009KT 10SM CLR 24/04 A3023 RMK AO2 SLP146 T02390039 51012,M
EKO,2023-07-01 14:56,-115.7860,40.8242,1367.00,66.00,44.00,45.05,0.00,0.00,0.00,30.24,1018.40,10.00,M,CLR,M,M,M,M,M,M,M,M,M,M,M,M,M,M,66.00,KEKO 011456Z AUTO 00000KT 10SM CLR 19/07 A3024 RMK AO2 SLP184 T01890067 51011,M
NFL,2023-07-01 14:56,-118.7010,39.4166,1199.00,77.00,42.00,28.73,170.00,4.00,0.00,30.13,1016.90,10.00,M,CLR,M,M,M,M,M,M,M,M,M,M,M,M,M,M,77.00,KNFL 011456Z AUTO 17004KT 10SM CLR 25/06 A3013 RMK AO2 SLP169 T02500056 51014,M
LAS,2023-07-01 14:56,-115.1634,36.0719,663.00,90.00,38.00,16.04,0.00,0.00,0.00,29.97,1011.80,10.00,M,CLR,M,M,M,M,M,M,M,M,M,M,M,M,M,M,86.03,KLAS 011456Z 00000KT 10SM CLR 32/03 A2997 RMK AO2 SLP118 T03220033 51016,M
HND,2023-07-01 14:56,-115.1344,35.9729,742.79,89.00,38.00,16.50,180.00,3.00,0.00,30.01,1014.30,10.00,M,CLR,M,M,M,M,M,M,M,M,M,M,M,M,M,M,85.26,KHND 011456Z 18003KT 10SM CLR 32/03 A3001 RMK AO2 SLP143 T03170033 51014,M
CXP,2023-07-01 15:10,-119.7326,39.1923,1431.00,69.80,44.60,40.29,0.00,0.00,0.00,30.23,M,10.00,M,CLR,M,M,M,M,M,M,M,M,M,M,M,M,M,M,69.80,KCXP 011510Z AUTO 00000KT 10SM CLR 21/07 A3023 RMK AO2,M
BVU,2023-07-01 15:15,-114.8611,35.9475,671.00,87.80,30.20,12.64,0.00,0.00,0.00,29.96,M,10.00,M,CLR,M,M,M,M,M,M,M,M,M,M,M,M,M,M,84.01,KBVU 011515Z AUTO 00000KT 10SM CLR 31/M01 A2996 RMK AO2,M
RTS,2023-07-01 15:15,-119.8764,39.6682,1539.00,71.60,48.20,43.42,0.00,0.00,0.00,30.23,M,10.00,M,CLR,M,M,M,M,M,M,M,M,M,M,M,M,M,M,71.60,KRTS 011515Z AUTO 00000KT 10SM CLR 22/09 A3023 RMK AO2,M
05U,2023-07-01 15:15,-116.0051,39.6042,1811.23,71.60,41.00,33.00,360.00,3.00,0.00,30.31,M,10.00,M,CLR,M,M,M,M,M,M,M,M,M,M,M,M,M,M,71.60,K05U 011515Z AUTO 36003KT 10SM CLR 22/05 A3031 RMK A01,M
MEV,2023-07-01 15:15,-119.7500,38.9963,1441.42,68.00,50.00,52.51,0.00,0.00,0.00,30.22,M,10.00,M,CLR,M,M,M,M,M,M,M,M,M,M,M,M,M,M,68.00,KMEV 011515Z AUTO 00000KT 10SM CLR 20/10 A3022 RMK AO2,M
BAM,2023-07-01 15:15,-116.8743,40.5990,1382.36,69.80,39.20,32.72,0.00,0.00,0.00,30.20,M,10.00,M,CLR,M,M,M,M,M,M,M,M,M,M,M,M,M,M,69.80,KBAM 011515Z AUTO 00000KT 10SM CLR 21/04 A3020 RMK AO1,M
HTH,2023-07-01 15:15,-118.6315,38.5448,1282.89,75.20,39.20,27.26,0.00,0.00,0.00,30.18,M,10.00,M,CLR,M,M,M,M,M,M,M,M,M,M,M,M,M,M,75.20,KHTH 011515Z AUTO 00000KT 10SM CLR 24/04 A3018 RMK A01,M
TMT,2023-07-01 15:15,-117.1971,39.4643,1749.34,60.30,40.00,47.19,0.00,0.00,0.00,30.29,M,10.00,M,CLR,M,M,M,M,M,M,M,M,M,M,M,M,M,M,60.30,KTMT 011515Z AUTO 00000KT 10SM CLR 16/05 A3029 RMK AO2 LTG DSNT NE T01570045,M
BVU,2023-07-01 15:35,-114.8611,35.9475,671.00,89.60,30.20,11.94,0.00,0.00,0.00,29.96,M,10.00,M,CLR,M,M,M,M,M,M,M,M,M,M,M,M,M,M,85.34,KBVU 011535Z AUTO 00000KT 10SM CLR 32/M01 A2996 RMK AO2,M
CXP,2023-07-01 15:35,-119.7326,39.1923,1431.00,71.60,46.40,40.57,0.00,0.00,0.00,30.23,M,10.00,M,CLR,M,M,M,M,M,M,M,M,M,M,M,M,M,M,71.60,KCXP 011535Z AUTO 00000KT 10SM CLR 22/08 A3023 RMK AO2,M
RTS,2023-07-01 15:35,-119.8764,39.6682,1539.00,73.40,50.00,43.69,0.00,0.00,0.00,30.24,M,10.00,M,CLR,M,M,M,M,M,M,M,M,M,M,M,M,M,M,73.40,KRTS 011535Z AUTO 00000KT 10SM CLR 23/10 A3024 RMK AO2,M
05U,2023-07-01 15:35,-116.0051,39.6042,1811.23,75.20,41.00,29.23,0.00,0.00,0.00,30.31,M,10.00,M,CLR,M,M,M,M,M,M,M,M,M,M,M,M,M,M,75.20,K05U 011535Z AUTO 00000KT 10SM CLR 24/05 A3031 RMK A01,M
MEV,2023-07-01 15:35,-119.7500,38.9963,1441.42,68.00,48.20,49.10,210.00,3.00,0.00,30.22,M,10.00,M,CLR,M,M,M,M,M,M,M,M,M,M,M,M,M,M,68.00,KMEV 011535Z AUTO 21003KT 10SM CLR 20/09 A3022 RMK AO2,M
BAM,2023-07-01 15:35,-116.8743,40.5990,1382.36,73.40,41.00,31.05,0.00,0.00,0.00,30.20,M,10.00,M,CLR,M,M,M,M,M,M,M,M,M,M,M,M,M,M,73.40,KBAM 011535Z AUTO 00000KT 10SM CLR 23/05 A3020 RMK AO1,M
HTH,2023-07-01 15:35,-118.6315,38.5448,1282.89,77.00,37.40,23.93,0.00,0.00,0.00,30.18,M,10.00,M,CLR,M,M,M,M,M,M,M,M,M,M,M,M,M,M,77.00,KHTH 011535Z AUTO 00000KT 10SM CLR 25/03 A3018 RMK A01,M
TMT,2023-07-01 15:35,-117.1971,39.4643,1749.34,64.20,41.00,42.58,0.00,0.00,0.00,30.29,M,10.00,M,CLR,M,M,M,M,M,M,M,M,M,M,M,M,M,M,64.20,KTMT 011535Z AUTO 00000KT 10SM CLR 18/05 A3029 RMK AO2 T01790050,M
DRA,2023-07-01 15:53,-116.0278,36.6206,1009.00,90.00,34.00,13.74,20.00,6.00,0.00,30.06,1012.00,10.00,M,CLR,M,M,M,M,M,M,M,M,M,M,M,M,M,M,85.93,KDRA 011553Z AUTO 02006KT 10SM CLR 32/01 A3006 RMK AO2 SLP120 T03220011,M
ELY,2023-07-01 15:53,-114.8453,39.2950,1909.00,71.00,41.00,33.57,0.00,0.00,0.00,30.32,1016.60,10.00,M,CLR,M,M,M,M,M,M,M,M,M,M,M,M,M,M,71.10,KELY 011553Z AUTO 00000KT 10SM CLR 22/05 A3032 RMK AO2 SLP166 T02170050,M
LOL,2023-07-01 15:53,-118.5701,40.0684,1192.43,79.00,43.00,27.84,0.00,0.00,0.00,30.13,1015.90,10.00,M,CLR,M,M,M,M,M,M,M,M,M,M,M,M,M,M,79.00,KLOL 011553Z AUTO 00000KT 10SM CLR 26/06 A3013 RMK AO2 SLP159 T02610061,M
P68,2023-07-01 15:53,-116.0056,39.6014,1993.00,74.00,40.00,29.26,0.00,0.00,0.00,30.28,1017.00,M,M,M,M,M,M,M,M,M,M,M,M,M,M,M,M,M,73.90,KP68 011553Z AUTO 00000KT 23/04 A3028 RMK AO1 SLP170 T02330044,M
VGT,2023-07-01 15:53,-115.1933,36.2111,667.00,94.00,38.00,14.20,0.00,0.00,0.00,29.97,1013.40,10.00,M,CLR,M,M,M,M,M,M,M,M,M,M,M,M,M,M,89.48,KVGT 011553Z 00000KT 10SM CLR 34/03 A2997 RMK AO2 SLP134 T03440033,M
BVU,2023-07-01 15:55,-114.8611,35.9475,671.00,93.20,32.00,11.48,0.00,0.00,0.00,29.97,M,10.00,M,CLR,M,M,M,M,M,M,M,M,M,M,M,M,M,M,88.31,KBVU 011555Z AUTO 00000KT 10SM CLR 34/M00 A2997 RMK AO2,M
CXP,2023-07-01 15:55,-119.7326,39.1923,1431.00,73.40,46.40,38.18,0.00,0.00,0.00,30.23,M,10.00,M,CLR,M,M,M,M,M,M,M,M,M,M,M,M,M,M,73.40,KCXP 011555Z AUTO 00000KT 10SM CLR 23/08 A3023 RMK AO2,M
RTS,2023-07-01 15:55,-119.8764,39.6682,1539.00,75.20,48.20,38.46,0.00,0.00,0.00,30.24,M,10.00,M,CLR,M,M,M,M,M,M,M,M,M,M,M,M,M,M,75.20,KRTS 011555Z AUTO 00000KT 10SM CLR 24/09 A3024 RMK AO2,M
05U,2023-07-01 15:55,-116.0051,39.6042,1811.23,77.00,39.20,25.67,0.00,0.00,0.00,30.31,M,10.00,M,CLR,M,M,M,M,M,M,M,M,M,M,M,M,M,M,77.00,K05U 011555Z AUTO 00000KT 10SM CLR 25/04 A3031 RMK A01,M
MEV,2023-07-01 15:55,-119.7500,38.9963,1441.42,69.80,48.20,46.16,0.00,0.00,0.00,30.22,M,10.00,M,CLR,M,M,M,M,M,M,M,M,M,M,M,M,M,M,69.80,KMEV 011555Z AUTO 00000KT 10SM CLR 21/09 A3022 RMK AO2,M
BAM,2023-07-01 15:55,-116.8743,40.5990,1382.36,77.00,41.00,27.53,90.00,3.00,0.00,30.20,M,10.00,M,CLR,M,M,M,M,M,M,M,M,M,M,M,M,M,M,77.00,KBAM 011555Z AUTO 09003KT 10SM CLR 25/05 A3020 RMK AO1,M
HTH,2023-07-01 15:55,-118.6315,38.5448,1282.89,77.00,39.20,25.67,0.00,0.00,0.00,30.18,M,10.00,M,CLR,M,M,M,M,M,M,M,M,M,M,M,M,M,M,77.00,KHTH 011555Z AUTO 00000KT 10SM CLR 25/04 A3018 RMK A01,M
TMT,2023-07-01 15:55,-117.1971,39.4643,1749.34,67.60,41.40,38.43,0.00,0.00,0.00,30.29,M,10.00,M,CLR,M,M,M,M,M,M,M,M,M,M,M,M,M,M,67.60,KTMT 011555Z AUTO 00000KT 10SM CLR 20/05 A3029 RMK AO2 T01980052,M
RNO,2023-07-01 15:55,-119.7711,39.4839,1341.00,75.00,49.00,39.75,0.00,0.00,0.00,30.19,1016.00,10.00,M,CLR,M,M,M,M,M,M,M,M,M,M,M,M,M,M,75.00,KRNO 011555Z 00000KT 10SM CLR 24/09 A3019 RMK AO2 SLP160 T02390094,M
EKO,2023-07-01 15:56,-115.7860,40.8242,1367.00,72.00,45.00,37.96,0.00,0.00,0.00,30.24,1018.30,10.00,M,CLR,M,M,M,M,M,M,M,M,M,M,M,M,M,M,72.00,KEKO 011556Z AUTO 00000KT 10SM CLR 22/07 A3024 RMK AO2 SLP183 T02220072,M
HND,2023-07-01 15:56,-115.1344,35.9729,742.79,93.00,39.00,15.24,30.00,5.00,0.00,30.02,1014.60,10.00,M,CLR,M,M,M,M,M,M,M,M,M,M,M,M,M,M,88.73,KHND 011556Z 03005KT 10SM CLR 34/04 A3002 RMK AO2 SLP146 T03390039,M
TPH,2023-07-01 15:56,-117.0904,38.0505,1654.00,81.00,41.00,24.14,10.00,4.00,0.00,30.24,1015.00,10.00,M,CLR,M,M,M,M,M,M,M,M,M,M,M,M,M,M,79.43,KTPH 011556Z AUTO 01004KT 10SM CLR 27/05 A3024 RMK AO2 SLP150 T02720050,M
LAS,2023-07-01 15:56,-115.1634,36.0719,663.00,93.00,37.00,14.09,90.00,3.00,0.00,29.98,1012.00,10.00,M,CLR,M,M,M,M,M,M,M,M,M,M,M,M,M,M,88.63,KLAS 011556Z 09003KT 10SM CLR 34/03 A2998 RMK AO2 SLP120 T03390028,M
NFL,2023-07-01 15:56,-118.7010,39.4166,1199.00,81.00,47.00,30.24,210.00,5.00,0.00,30.14,1017.00,10.00,M,CLR,M,M,M,M,M,M,M,M,M,M,M,M,M,M,79.83,KNFL 011556Z AUTO 21005KT 10SM CLR 27/08 A3014 RMK AO2 SLP170 T02720083,M
WMC,2023-07-01 15:56,-117.8072,40.9019,1315.00,80.00,40.00,23.82,40.00,3.00,0.00,30.16,1016.00,10.00,M,CLR,M,M,M,M,M,M,M,M,M,M,M,M,M,M,78.93,KWMC 011556Z AUTO 04003KT 10SM CLR 27/04 A3016 RMK AO2 SLP160 T02670044 $,M
BVU,2023-07-01 16:15,-114.8611,35.9475,671.00,95.00,35.60,12.53,40.00,7.00,0.00,29.97,M,10.00,M,CLR,M,M,M,M,M,M,M,M,M,M,M,M,M,M,90.25,KBVU 011615Z AUTO 04007KT 010V070 10SM CLR 35/02 A2997 RMK AO2,M
CXP,2023-07-01 16:15,-119.7326,39.1923,1431.00,75.20,46.40,35.94,0.00,0.00,0.00,30.23,M,10.00,M,CLR,M,M,M,M,M,M,M,M,M,M,M,M,M,M,75.20,KCXP 011615Z AUTO 00000KT 10SM CLR 24/08 A3023 RMK AO2,M
RTS,2023-07-01 16:15,-119.8764,39.6682,1539.00,77.00,46.40,33.85,0.00,0.00,0.00,30.24,M,10.00,M,CLR,M,M,M,M,M,M,M,M,M,M,M,M,M,M,77.00,KRTS 011615Z AUTO 00000KT 10SM CLR 25/08 A3024 RMK AO2,M
05U,2023-07-01 16:15,-116.0051,39.6042,1811.23,78.80,41.00,25.95,0.00,0.00,0.00,30.31,M,10.00,M,CLR,M,M,M,M,M,M,M,M,M,M,M,M,M,M,78.80,K05U 011615Z AUTO 00000KT 10SM CLR 26/05 A3031 RMK A01,M
MEV,2023-07-01 16:15,-119.7500,38.9963,1441.42,71.60,48.20,43.42,0.00,0.00,0.00,30.22,M,10.00,M,CLR,M,M,M,M,M,M,M,M,M,M,M,M,M,M,71.60,KMEV 011615Z AUTO 00000KT 10SM CLR 22/09 A3022 RMK AO2,M
BAM,2023-07-01 16:15,-116.8743,40.5990,1382.36,78.80,41.00,25.95,0.00,0.00,0.00,30.20,M,10.00,M,CLR,M,M,M,M,M,M,M,M,M,M,M,M,M,M,78.80,KBAM 011615Z AUTO 00000KT 10SM CLR 26/05 A3020 RMK AO1,M
HTH,2023-07-01 16:15,-118.6315,38.5448,1282.89,78.80,37.40,22.54,0.00,0.00,0.00,30.18,M,10.00,M,CLR,M,M,M,M,M,M,M,M,M,M,M,M,M,M,78.80,KHTH 011615Z AUTO 00000KT 10SM CLR 26/03 A3018 RMK A01,M
TMT,2023-07-01 16:15,-117.1971,39.4643,1749.34,71.40,42.30,34.93,200.00,4.00,0.00,30.28,M,10.00,M,CLR,M,M,M,M,M,M,M,M,M,M,M,M,M,M,71.40,KTMT 011615Z AUTO 20004KT 10SM CLR 22/06 A3028 RMK AO2 T02190057,M
BVU,2023-07-01 16:35,-114.8611,35.9475,671.00,96.80,35.60,11.86,50.00,6.00,0.00,29.97,M,10.00,M,CLR,M,M,M,M,M,M,M,M,M,M,M,M,M,M,91.72,KBVU 011635Z AUTO 05006KT 10SM CLR 36/02 A2997 RMK AO2,M
CXP,2023-07-01 16:35,-119.7326,39.1923,1431.00,77.00,46.40,33.85,M,3.00,0.00,30.23,M,10.00,M,CLR,M,M,M,M,M,M,M,M,M,M,M,M,M,M,77.00,KCXP 011635Z AUTO VRB03KT 10SM CLR 25/08 A3023 RMK AO2,M
RTS,2023-07-01 16:35,-119.8764,39.6682,1539.00,77.00,44.60,31.62,260.00,3.00,0.00,30.24,M,10.00,M,CLR,M,M,M,M,M,M,M,M,M,M,M,M,M,M,77.00,KRTS 011635Z AUTO 26003KT 10SM CLR 25/07 A3024 RMK AO2,M
05U,2023-07-01 16:35,-116.0051,39.6042,1811.23,80.60,42.80,26.22,0.00,0.00,0.00,30.31,M,10.00,M,CLR,M,M,M,M,M,M,M,M,M,M,M,M,M,M,79.30,K05U 011635Z AUTO 00000KT 10SM CLR 27/06 A3031 RMK A01,M
MEV,2023-07-01 16:35,-119.7500,38.9963,1441.42,75.20,48.20,38.46,0.00,0.00,0.00,30.22,M,10.00,M,CLR,M,M,M,M,M,M,M,M,M,M,M,M,M,M,75.20,KMEV 011635Z AUTO 00000KT 10SM CLR 24/09 A3022 RMK AO2,M
BAM,2023-07-01 16:35,-116.8743,40.5990,1382.36,82.40,41.00,23.07,20.00,3.00,0.00,30.19,M,10.00,M,CLR,M,M,M,M,M,M,M,M,M,M,M,M,M,M,80.29,KBAM 011635Z AUTO 02003KT 10SM CLR 28/05 A3019 RMK AO1,M
HTH,2023-07-01 16:35,-118.6315,38.5448,1282.89,80.60,37.40,21.25,330.00,4.00,0.00,30.18,M,10.00,M,CLR,M,M,M,M,M,M,M,M,M,M,M,M,M,M,79.02,KHTH 011635Z AUTO 33004KT 10SM CLR 27/03 A3018 RMK A01,M
TMT,2023-07-01 16:35,-117.1971,39.4643,1749.34,74.00,41.20,30.77,0.00,0.00,0.00,30.28,M,10.00,M,CLR,M,M,M,M,M,M,M,M,M,M,M,M,M,M,73.90,KTMT 011635Z AUTO 00000KT 10SM CLR 23/05 A3028 RMK AO2 T02330051,M
P68,2023-07-01 16:53,-116.0056,39.6014,1993.00,80.00,41.00,24.86,0.00,0.00,0.00,30.28,1016.80,M,M,M,M,M,M,M,M,M,M,M,M,M,M,M,M,M,78.98,KP68 011653Z AUTO 00000KT 27/05 A3028 RMK AO1 SLP168 T02670050,M
ELY,2023-07-01 16:53,-114.8453,39.2950,1909.00,77.00,41.00,27.53,10.00,5.00,0.00,30.31,1016.00,10.00,M,CLR,M,M,M,M,M,M,M,M,M,M,M,M,M,M,77.00,KELY 011653Z AUTO 01005KT 10SM CLR 25/05 A3031 RMK AO2 SLP160 T02500050,M
VGT,2023-07-01 16:53,-115.1933,36.2111,667.00,96.00,37.00,12.81,0.00,0.00,0.00,29.98,1013.30,10.00,M,CLR,M,M,M,M,M,M,M,M,M,M,M,M,M,M,91.39,KVGT 011653Z 00000KT 10SM CLR 36/03 A2998 RMK AO2 SLP133 T03560028,M
LOL,2023-07-01 16:53,-118.5701,40.0684,1192.43,84.00,41.00,21.90,170.00,3.00,0.00,30.13,1015.60,10.00,M,CLR,M,M,M,M,M,M,M,M,M,M,M,M,M,M,81.37,KLOL 011653Z AUTO 17003KT 10SM CLR 29/05 A3013 RMK AO2 SLP156 T02890050,M
DRA,2023-07-01 16:53,-116.0278,36.6206,1009.00,94.00,35.00,12.71,0.00,0.00,0.00,30.06,1011.90,10.00,M,CLR,M,M,M,M,M,M,M,M,M,M,M,M,M,M,89.29,KDRA 011653Z AUTO 00000KT 10SM CLR 34/02 A3006 RMK AO2 SLP119 T03440017,M
BVU,2023-07-01 16:55,-114.8611,35.9475,671.00,96.80,35.60,11.86,60.00,7.00,0.00,29.97,M,10.00,M,CLR,M,M,M,M,M,M,M,M,M,M,M,M,M,M,91.72,KBVU 011655Z AUTO 06007KT 10SM CLR 36/02 A2997 RMK AO2,M
CXP,2023-07-01 16:55,-119.7326,39.1923,1431.00,78.80,46.40,31.90,M,3.00,0.00,30.22,M,10.00,M,CLR,M,M,M,M,M,M,M,M,M,M,M,M,M,M,78.80,KCXP 011655Z AUTO VRB03KT 10SM CLR 26/08 A3022 RMK AO2,M
RTS,2023-07-01 16:55,-119.8764,39.6682,1539.00,80.60,44.60,28.08,0.00,0.00,0.00,30.24,M,10.00,M,CLR,M,M,M,M,M,M,M,M,M,M,M,M,M,M,79.42,KRTS 011655Z AUTO 00000KT 10SM CLR 27/07 A3024 RMK AO2,M
05U,2023-07-01 16:55,-116.0051,39.6042,1811.23,82.40,41.00,23.07,20.00,4.00,0.00,30.31,M,10.00,M,CLR,M,M,M,M,M,M,M,M,M,M,M,M,M,M,80.29,K05U 011655Z AUTO 02004KT 10SM CLR 28/05 A3031 RMK A01,M
MEV,2023-07-01 16:55,-119.7500,38.9963,1441.42,77.00,48.20,36.22,0.00,0.00,0.00,30.21,M,10.00,M,CLR,M,M,M,M,M,M,M,M,M,M,M,M,M,M,77.00,KMEV 011655Z AUTO 00000KT 10SM CLR 25/09 A3021 RMK AO2,M
BAM,2023-07-01 16:55,-116.8743,40.5990,1382.36,84.20,41.00,21.76,110.00,5.00,0.00,30.19,M,10.00,M,CLR,M,M,M,M,M,M,M,M,M,M,M,M,M,M,81.52,KBAM 011655Z AUTO 11005KT 10SM CLR 29/05 A3019 RMK AO1,M
HTH,2023-07-01 16:55,-118.6315,38.5448,1282.89,82.40,37.40,20.04,0.00,0.00,0.00,30.18,M,10.00,M,CLR,M,M,M,M,M,M,M,M,M,M,M,M,M,M,80.14,KHTH 011655Z AUTO 00000KT 10SM CLR 28/03 A3018 RMK A01,M
TMT,2023-07-01 16:55,-117.1971,39.4643,1749.34,75.40,39.20,27.08,0.00,0.00,0.00,30.28,M,10.00,M,CLR,M,M,M,M,M,M,M,M,M,M,M,M,M,M,75.40,KTMT 011655Z AUTO 00000KT 10SM CLR 24/04 A3028 RMK AO2 T02410040,M
LSV,2023-07-01 16:55,-115.0343,36.2362,570.00,102.00,37.60,10.96,0.00,0.00,0.00,29.93,1010.50,10.00,M,CLR,M,M,M,M,M,M,M,M,M,M,M,M,M,M,96.49,KLSV 011655Z AUTO 00000KT 10SM CLR 39/03 A2993 RMK AO2 SLP105 T03890031 $,M
INS,2023-07-01 16:55,-115.6733,36.5872,955.00,89.40,32.00,12.92,0.00,0.00,0.00,30.05,1012.20,10.00,M,CLR,M,M,M,M,M,M,M,M,M,M,M,M,M,M,85.39,KINS 011655Z AUTO 00000KT 10SM CLR 32/00 A3005 RMK AO2 SLP122 T03190000 $,M
RNO,2023-07-01 16:55,-119.7711,39.4839,1341.00,81.00,49.00,32.60,0.00,0.00,0.00,30.19,1015.80,10.00,M,CLR,M,M,M,M,M,M,M,M,M,M,M,M,M,M,80.01,KRNO 011655Z 00000KT 10SM CLR 27/09 A3019 RMK AO2 SLP158 T02720094,M
EKO,2023-07-01 16:56,-115.7860,40.8242,1367.00,78.00,45.00,30.95,0.00,0.00,0.00,30.24,1018.20,10.00,M,CLR,M,M,M,M,M,M,M,M,M,M,M,M,M,M,78.10,KEKO 011656Z AUTO 00000KT 10SM CLR 26/07 A3024 RMK AO2 SLP182 T02560072,M
WMC,2023-07-01 16:56,-117.8072,40.9019,1315.00,86.00,41.00,20.54,M,4.00,0.00,30.16,1016.00,10.00,M,CLR,M,M,M,M,M,M,M,M,M,M,M,M,M,M,82.86,KWMC 011656Z AUTO VRB04KT 10SM CLR 30/05 A3016 RMK AO2 SLP160 T03000050 $,M
NFL,2023-07-01 16:56,-118.7010,39.4166,1199.00,85.00,48.00,27.79,250.00,5.00,0.00,30.14,1017.10,10.00,M,CLR,M,M,M,M,M,M,M,M,M,M,M,M,M,M,82.53,KNFL 011656Z AUTO 25005KT 10SM CLR 29/09 A3014 RMK AO2 SLP171 T02940089,M
TPH,2023-07-01 16:56,-117.0904,38.0505,1654.00,84.00,43.00,23.66,M,3.00,0.00,30.24,1015.00,10.00,M,CLR,M,M,M,M,M,M,M,M,M,M,M,M,M,M,81.48,KTPH 011656Z AUTO VRB03KT 10SM CLR 29/06 A3024 RMK AO2 SLP150 T02890061,M
HND,2023-07-01 16:56,-115.1344,35.9729,742.79,95.00,40.00,14.84,80.00,7.00,0.00,30.03,1014.80,10.00,M,CLR,M,M,M,M,M,M,M,M,M,M,M,M,M,M,90.61,KHND 011656Z 08007KT 10SM CLR 35/04 A3003 RMK AO2 SLP148 T03500044,M
LAS,2023-07-01 16:56,-115.1634,36.0719,663.00,96.00,38.00,13.27,70.00,6.00,0.00,29.99,1012.10,10.00,M,CLR,M,M,M,M,M,M,M,M,M,M,M,M,M,M,91.49,KLAS 011656Z 07006KT 10SM CLR 36/03 A2999 RMK AO2 SLP121 T03560033,M
BVU,2023-07-01 17:15,-114.8611,35.9475,671.00,98.60,35.60,11.23,70.00,8.00,0.00,29.97,M,10.00,M,CLR,M,M,M,M,M,M,M,M,M,M,M,M,M,M,93.23,KBVU 011715Z AUTO 07008KT 10SM CLR 37/02 A2997 RMK AO2,M
CXP,2023-07-01 17:15,-119.7326,39.1923,1431.00,80.60,44.60,28.08,0.00,0.00,0.00,30.22,M,10.00,M,CLR,M,M,M,M,M,M,M,M,M,M,M,M,M,M,79.42,KCXP 011715Z AUTO 00000KT 10SM CLR 27/07 A3022 RMK AO2,M
RTS,2023-07-01 17:15,-119.8764,39.6682,1539.00,80.60,42.80,26.22,M,3.00,0.00,30.24,M,10.00,M,CLR,M,M,M,M,M,M,M,M,M,M,M,M,M,M,79.30,KRTS 011715Z AUTO VRB03KT 10SM CLR 27/06 A3024 RMK AO2,M
05U,2023-07-01 17:15,-116.0051,39.6042,1811.23,82.40,37.40,20.04,0.00,0.00,0.00,30.31,M,10.00,M,CLR,M,M,M,M,M,M,M,M,M,M,M,M,M,M,80.14,K05U 011715Z AUTO 00000KT 10SM CLR 28/03 A3031 RMK A01,M
MEV,2023-07-01 17:15,-119.7500,38.9963,1441.42,78.80,46.40,31.90,0.00,0.00,0.00,30.21,M,10.00,M,CLR,M,M,M,M,M,M,M,M,M,M,M,M,M,M,78.80,KMEV 011715Z AUTO 00000KT 10SM CLR 26/08 A3021 RMK AO2,M
BAM,2023-07-01 17:15,-116.8743,40.5990,1382.36,86.00,41.00,20.54,0.00,0.00,0.00,30.19,M,10.00,M,CLR,M,M,M,M,M,M,M,M,M,M,M,M,M,M,82.86,KBAM 011715Z AUTO 00000KT 10SM CLR 30/05 A3019 RMK AO1,M
HTH,2023-07-01 17:15,-118.6315,38.5448,1282.89,82.40,39.20,21.51,360.00,6.00,0.00,30.18,M,10.00,M,CLR,M,M,M,M,M,M,M,M,M,M,M,M,M,M,80.21,KHTH 011715Z AUTO 36006KT 10SM CLR 28/04 A3018 RMK A01,M
TMT,2023-07-01 17:15,-117.1971,39.4643,1749.34,78.40,42.40,27.75,0.00,0.00,0.00,30.28,M,10.00,M,CLR,M,M,M,M,M,M,M,M,M,M,M,M,M,M,78.40,KTMT 011715Z AUTO 00000KT 10SM CLR 26/06 A3028 RMK AO2 T02580058,M
BVU,2023-07-01 17:35,-114.8611,35.9475,671.00,98.60,33.80,10.45,40.00,9.00,0.00,29.97,M,10.00,M,CLR,M,M,M,M,M,M,M,M,M,M,M,M,M,M,92.94,KBVU 011735Z AUTO 04009KT 10SM CLR 37/01 A2997 RMK AO2,M
CXP,2023-07-01 17:35,-119.7326,39.1923,1431.00,80.60,44.60,28.08,0.00,0.00,0.00,30.22,M,10.00,M,CLR,M,M,M,M,M,M,M,M,M,M,M,M,M,M,79.42,KCXP 011735Z AUTO 00000KT 10SM CLR 27/07 A3022 RMK AO2,M
RTS,2023-07-01 17:35,-119.8764,39.6682,1539.00,80.60,41.00,24.46,150.00,6.00,0.00,30.24,M,10.00,M,CLR,M,M,M,M,M,M,M,M,M,M,M,M,M,M,79.20,KRTS 011735Z AUTO 15006KT 10SM CLR 27/05 A3024 RMK AO2,M
05U,2023-07-01 17:35,-116.0051,39.6042,1811.23,84.20,33.80,16.39,20.00,3.00,0.00,30.31,M,10.00,M,CLR,M,M,M,M,M,M,M,M,M,M,M,M,M,M,81.30,K05U 011735Z AUTO 02003KT 10SM CLR 29/01 A3031 RMK A01,M
MEV,2023-07-01 17:35,-119.7500,38.9963,1441.42,80.60,46.40,30.07,0.00,0.00,0.00,30.21,M,10.00,M,CLR,M,M,M,M,M,M,M,M,M,M,M,M,M,M,79.56,KMEV 011735Z AUTO 00000KT 10SM CLR 27/08 A3021 RMK AO2,M
BAM,2023-07-01 17:35,-116.8743,40.5990,1382.36,86.00,41.00,20.54,0.00,0.00,0.00,30.19,M,10.00,M,CLR,M,M,M,M,M,M,M,M,M,M,M,M,M,M,82.86,KBAM 011735Z AUTO 00000KT 10SM CLR 30/05 A3019 RMK AO1,M
HTH,2023-07-01 17:35,-118.6315,38.5448,1282.89,84.20,39.20,20.29,M,3.00,0.00,30.18,M,10.00,M,CLR,M,M,M,M,M,M,M,M,M,M,M,M,M,M,81.44,KHTH 011735Z AUTO VRB03KT 10SM CLR 29/04 A3018 RMK A01,M
TMT,2023-07-01 17:35,-117.1971,39.4643,1749.34,80.20,40.30,24.12,340.00,3.00,0.00,30.28,M,10.00,M,CLR,M,M,M,M,M,M,M,M,M,M,M,M,M,M,78.94,KTMT 011735Z AUTO 34003KT 10SM CLR 27/05 A3028 RMK AO2 T02680046,M
P68,2023-07-01 17:53,-116.0056,39.6014,1993.00,83.00,34.00,17.23,M,3.00,0.00,30.28,1016.80,M,M,M,M,M,M,M,M,M,M,M,M,M,M,M,M,M,80.38,KP68 011753Z AUTO VRB03KT 28/01 A3028 RMK AO1 SLP168 T02830011 10283 20106 50000,M
DRA,2023-07-01 17:53,-116.0278,36.6206,1009.00,98.00,34.00,10.70,0.00,0.00,0.00,30.05,1011.70,10.00,M,CLR,M,M,M,M,M,M,M,M,M,M,M,M,M,M,92.55,KDRA 011753Z AUTO 00000KT 10SM CLR 37/01 A3005 RMK AO2 SLP117 T03670011 10372 20200 50001,M
ELY,2023-07-01 17:53,-114.8453,39.2950,1909.00,81.00,39.00,22.33,30.00,8.00,0.00,30.31,1016.30,10.00,M,CLR,M,M,M,M,M,M,M,M,M,M,M,M,M,M,79.33,KELY 011753Z AUTO 03008KT 10SM CLR 27/04 A3031 RMK AO2 SLP163 T02720039 10272 20072 58002,M
VGT,2023-07-01 17:53,-115.1933,36.2111,667.00,100.00,39.00,12.30,M,6.00,0.00,29.97,1013.30,10.00,M,CLR,M,M,M,M,M,M,M,M,M,M,M,M,M,M,95.05,KVGT 011753Z VRB06KT 10SM CLR 38/04 A2997 RMK AO2 SLP133 T03780039 10378 20267 50002,M
LOL,2023-07-01 17:53,-118.5701,40.0684,1192.43,88.00,41.00,19.28,160.00,4.00,0.00,30.13,1015.50,10.00,M,CLR,M,M,M,M,M,M,M,M,M,M,M,M,M,M,84.46,KLOL 011753Z AUTO 16004KT 10SM CLR 31/05 A3013 RMK AO2 SLP155 T03110050 10317 20139 58001,M
BVU,2023-07-01 17:55,-114.8611,35.9475,671.00,100.40,32.00,9.21,40.00,8.00,0.00,29.97,M,10.00,M,CLR,M,M,M,M,M,M,M,M,M,M,M,M,M,M,94.21,KBVU 011755Z AUTO 04008KT 10SM CLR 38/00 A2997 RMK AO2,M
CXP,2023-07-01 17:55,-119.7326,39.1923,1431.00,84.20,46.40,26.76,0.00,0.00,0.00,30.22,M,10.00,M,CLR,M,M,M,M,M,M,M,M,M,M,M,M,M,M,81.87,KCXP 011755Z AUTO 00000KT 10SM CLR 29/08 A3022 RMK AO2,M
RNO,2023-07-01 17:55,-119.7711,39.4839,1341.00,88.00,45.00,22.47,0.00,0.00,0.00,30.18,1015.40,10.00,M,FEW,M,M,M,10000.00,M,M,M,M,M,M,M,M,M,M,84.72,KRNO 011755Z 00000KT 10SM FEW100 31/07 A3018 RMK AO2 SLP154 T03110072 10311 20189 58001,M
RTS,2023-07-01 17:55,-119.8764,39.6682,1539.00,82.40,42.80,24.72,100.00,5.00,0.00,30.24,M,10.00,M,CLR,M,M,M,M,M,M,M,M,M,M,M,M,M,M,80.39,KRTS 011755Z AUTO 10005KT 10SM CLR 28/06 A3024 RMK AO2,M
05U,2023-07-01 17:55,-116.0051,39.6042,1811.23,84.20,33.80,16.39,20.00,5.00,0.00,30.31,M,10.00,M,CLR,M,M,M,M,M,M,M,M,M,M,M,M,M,M,81.30,K05U 011755Z AUTO 02005KT 10SM CLR 29/01 A3031 RMK A01,M
MEV,2023-07-01 17:55,-119.7500,38.9963,1441.42,82.40,46.40,28.36,280.00,3.00,0.00,30.21,M,10.00,M,CLR,M,M,M,M,M,M,M,M,M,M,M,M,M,M,80.64,KMEV 011755Z AUTO 28003KT 10SM CLR 28/08 A3021 RMK AO2,M
BAM,2023-07-01 17:55,-116.8743,40.5990,1382.36,87.80,42.80,20.79,30.00,5.00,0.00,30.19,M,10.00,M,CLR,M,M,M,M,M,M,M,M,M,M,M,M,M,M,84.40,KBAM 011755Z AUTO 03005KT 10SM CLR 31/06 A3019 RMK AO1,M
HTH,2023-07-01 17:55,-118.6315,38.5448,1282.89,86.00,39.20,19.15,M,5.00,0.00,30.17,M,10.00,M,CLR,M,M,M,M,M,M,M,M,M,M,M,M,M,M,82.79,KHTH 011755Z AUTO VRB05KT 10SM CLR 30/04 A3017 RMK A01,M
TMT,2023-07-01 17:55,-117.1971,39.4643,1749.34,82.40,35.60,18.67,40.00,4.00,0.00,30.28,M,10.00,M,CLR,M,M,M,M,M,M,M,M,M,M,M,M,M,M,80.08,KTMT 011755Z AUTO 04004KT 10SM CLR 28/02 A3028 RMK AO2 T02800020 10280 20041,M
LSV,2023-07-01 17:55,-115.0343,36.2362,570.00,104.00,34.00,8.96,20.00,10.00,0.00,29.92,1010.20,10.00,M,CLR,M,M,M,M,M,M,M,M,M,M,M,M,M,M,97.58,KLSV 011755Z AUTO 02010KT 10SM CLR 40/01 A2992 RMK AO2 SLP102 T04000011 10408 20263 58000 $,M
INS,2023-07-01 17:55,-115.6733,36.5872,955.00,95.00,29.80,9.93,0.00,0.00,0.00,30.04,1011.80,10.00,M,CLR,M,M,M,M,M,M,M,M,M,M,M,M,M,M,89.43,KINS 011755Z AUTO 00000KT 10SM CLR 35/M01 A3004 RMK AO2 SLP118 T03501012 10350 20204 58001 $,M
EKO,2023-07-01 17:56,-115.7860,40.8242,1367.00,82.00,48.00,30.51,M,3.00,0.00,30.23,1017.80,10.00,M,CLR,M,M,M,M,M,M,M,M,M,M,M,M,M,M,80.53,KEKO 011756Z AUTO VRB03KT 10SM CLR 28/09 A3023 RMK AO2 SLP178 T02780089 10278 20100 58004,M
TPH,2023-07-01 17:56,-117.0904,38.0505,1654.00,86.00,46.00,24.88,150.00,4.00,0.00,30.24,1015.00,10.00,M,CLR,M,M,M,M,M,M,M,M,M,M,M,M,M,M,83.19,KTPH 011756Z AUTO 15004KT 10SM CLR 30/08 A3024 RMK AO2 SLP150 T03000078 10306 20161 51003,M
WMC,2023-07-01 17:56,-117.8072,40.9019,1315.00,93.00,40.00,15.79,M,4.00,0.00,30.15,1015.60,10.00,M,CLR,M,M,M,M,M,M,M,M,M,M,M,M,M,M,88.78,KWMC 011756Z AUTO VRB04KT 10SM CLR 34/04 A3015 RMK AO2 SLP156 T03390044 10339 20106 58002 $,M
LAS,2023-07-01 17:56,-115.1634,36.0719,663.00,99.00,38.00,12.15,50.00,8.00,0.00,29.98,1012.00,10.00,M,FEW,M,M,M,14000.00,M,M,M,M,M,M,M,M,M,M,93.98,KLAS 011756Z 05008KT 10SM FEW140 37/03 A2998 RMK AO2 SLP120 T03720033 10372 20272 50003,M
NFL,2023-07-01 17:56,-118.7010,39.4166,1199.00,89.00,47.00,23.32,0.00,0.00,0.00,30.14,1017.10,10.00,M,CLR,M,M,M,M,M,M,M,M,M,M,M,M,M,M,85.85,KNFL 011756Z AUTO 00000KT 10SM CLR 32/08 A3014 RMK AO2 SLP171 T03170083 10317 20156 50002,M
HND,2023-07-01 17:56,-115.1344,35.9729,742.79,98.00,40.00,13.50,M,4.00,0.00,30.02,1014.70,10.00,M,CLR,M,M,M,M,M,M,M,M,M,M,M,M,M,M,93.51,KHND 011756Z VRB04KT 10SM CLR 37/04 A3002 RMK AO2 SLP147 T03670044 10367 20239 50004,M
BVU,2023-07-01 18:15,-114.8611,35.9475,671.00,100.40,32.00,9.21,M,5.00,0.00,29.96,M,10.00,11.00,CLR,M,M,M,M,M,M,M,M,M,M,M,M,M,M,94.21,KBVU 011815Z AUTO VRB05G11KT 10SM CLR 38/M00 A2996 RMK AO2,M
CXP,2023-07-01 18:15,-119.7326,39.1923,1431.00,86.00,44.60,23.59,0.00,0.00,0.00,30.22,M,10.00,M,CLR,M,M,M,M,M,M,M,M,M,M,M,M,M,M,83.07,KCXP 011815Z AUTO 00000KT 10SM CLR 30/07 A3022 RMK AO2,M
RTS,2023-07-01 18:15,-119.8764,39.6682,1539.00,84.20,42.80,23.33,100.00,4.00,0.00,30.24,M,10.00,M,CLR,M,M,M,M,M,M,M,M,M,M,M,M,M,M,81.61,KRTS 011815Z AUTO 10004KT 10SM CLR 29/06 A3024 RMK AO2,M
05U,2023-07-01 18:15,-116.0051,39.6042,1811.23,84.20,33.80,16.39,20.00,5.00,0.00,30.31,M,10.00,M,CLR,M,M,M,M,M,M,M,M,M,M,M,M,M,M,81.30,K05U 011815Z AUTO 02005KT 10SM CLR 29/01 A3031 RMK A01,M
MEV,2023-07-01 18:15,-119.7500,38.9963,1441.42,84.20,44.60,24.99,0.00,0.00,0.00,30.21,M,10.00,M,CLR,M,M,M,M,M,M,M,M,M,M,M,M,M,M,81.73,KMEV 011815Z AUTO 00000KT 10SM CLR 29/07 A3021 RMK AO2,M
BAM,2023-07-01 18:15,-116.8743,40.5990,1382.36,87.80,41.00,19.40,0.00,0.00,0.00,30.19,M,10.00,M,CLR,M,M,M,M,M,M,M,M,M,M,M,M,M,M,84.30,KBAM 011815Z AUTO 00000KT 10SM CLR 31/05 A3019 RMK AO1,M
HTH,2023-07-01 18:15,-118.6315,38.5448,1282.89,86.00,39.20,19.15,320.00,5.00,0.00,30.17,M,10.00,M,CLR,M,M,M,M,M,M,M,M,M,M,M,M,M,M,82.79,KHTH 011815Z AUTO 32005KT 10SM CLR 30/04 A3017 RMK A01,M
TMT,2023-07-01 18:15,-117.1971,39.4643,1749.34,81.70,34.20,18.06,0.00,0.00,0.00,30.28,M,10.00,M,CLR,M,M,M,M,M,M,M,M,M,M,M,M,M,M,79.58,KTMT 011815Z AUTO 00000KT 10SM CLR 28/01 A3028 RMK AO2 T02760012,M
BVU,2023-07-01 18:35,-114.8611,35.9475,671.00,100.40,32.00,9.21,50.00,9.00,0.00,29.96,M,10.00,M,CLR,M,M,M,M,M,M,M,M,M,M,M,M,M,M,94.21,KBVU 011835Z AUTO 05009KT 10SM CLR 38/M00 A2996 RMK AO2,M
CXP,2023-07-01 18:35,-119.7326,39.1923,1431.00,87.80,42.80,20.79,M,3.00,0.00,30.21,M,10.00,M,CLR,M,M,M,M,M,M,M,M,M,M,M,M,M,M,84.40,KCXP 011835Z AUTO VRB03KT 10SM CLR 31/06 A3021 RMK AO2,M
RTS,2023-07-01 18:35,-119.8764,39.6682,1539.00,84.20,42.80,23.33,0.00,0.00,0.00,30.23,M,10.00,M,CLR,M,M,M,M,M,M,M,M,M,M,M,M,M,M,81.61,KRTS 011835Z AUTO 00000KT 10SM CLR 29/06 A3023 RMK AO2,M
05U,2023-07-01 18:35,-116.0051,39.6042,1811.23,86.00,33.80,15.48,30.00,6.00,0.00,30.30,M,10.00,13.00,CLR,M,M,M,M,M,M,M,M,M,M,M,M,M,M,82.66,K05U 011835Z AUTO 03006G13KT 10SM CLR 30/01 A3030 RMK A01,M
MEV,2023-07-01 18:35,-119.7500,38.9963,1441.42,86.00,46.40,25.26,0.00,0.00,0.00,30.20,M,10.00,M,CLR,M,M,M,M,M,M,M,M,M,M,M,M,M,M,83.22,KMEV 011835Z AUTO 00000KT 10SM CLR 30/08 A3020 RMK AO2,M
BAM,2023-07-01 18:35,-116.8743,40.5990,1382.36,89.60,41.00,18.33,0.00,0.00,0.00,30.19,M,10.00,M,CLR,M,M,M,M,M,M,M,M,M,M,M,M,M,M,85.82,KBAM 011835Z AUTO 00000KT 10SM CLR 32/05 A3019 RMK AO1,M
HTH,2023-07-01 18:35,-118.6315,38.5448,1282.89,87.80,39.20,18.09,360.00,7.00,0.00,30.17,M,10.00,M,CLR,M,M,M,M,M,M,M,M,M,M,M,M,M,M,84.22,KHTH 011835Z AUTO 36007KT 10SM CLR 31/04 A3017 RMK A01,M
TMT,2023-07-01 18:35,-117.1971,39.4643,1749.34,82.80,35.60,18.43,270.00,3.00,0.00,30.28,M,10.00,M,CLR,M,M,M,M,M,M,M,M,M,M,M,M,M,M,80.35,KTMT 011835Z AUTO 27003KT 10SM CLR 28/02 A3028 RMK AO2 T02820020,M
P68,2023-07-01 18:53,-116.0056,39.6014,1993.00,84.00,32.00,15.35,60.00,7.00,0.00,30.27,1016.90,M,M,M,M,M,M,M,M,M,M,M,M,M,M,M,M,M,81.13,KP68 011853Z AUTO 06007KT 29/00 A3027 RMK AO1 SLP169 T02890000,M
ELY,2023-07-01 18:53,-114.8453,39.2950,1909.00,82.00,37.00,19.99,60.00,5.00,0.00,30.30,1016.20,10.00,M,CLR,M,M,M,M,M,M,M,M,M,M,M,M,M,M,79.86,KELY 011853Z AUTO 06005KT 10SM CLR 28/03 A3030 RMK AO2 SLP162 T02780028,M
VGT,2023-07-01 18:53,-115.1933,36.2111,667.00,102.00,39.00,11.58,M,4.00,0.00,29.96,1012.90,10.00,M,CLR,M,M,M,M,M,M,M,M,M,M,M,M,M,M,96.77,KVGT 011853Z VRB04KT 10SM CLR 39/04 A2996 RMK AO2 SLP129 T03890039,M
DRA,2023-07-01 18:53,-116.0278,36.6206,1009.00,100.00,33.00,9.74,M,4.00,0.00,30.04,1011.40,10.00,M,CLR,M,M,M,M,M,M,M,M,M,M,M,M,M,M,94.03,KDRA 011853Z AUTO VRB04KT 10SM CLR 38/01 A3004 RMK AO2 SLP114 T03780006,M
LOL,2023-07-01 18:53,-118.5701,40.0684,1192.43,93.00,40.00,15.79,210.00,6.00,0.00,30.12,1015.10,10.00,M,CLR,M,M,M,M,M,M,M,M,M,M,M,M,M,M,88.78,KLOL 011853Z AUTO 21006KT 10SM CLR 34/04 A3012 RMK AO2 SLP151 T03390044,M
BVU,2023-07-01 18:55,-114.8611,35.9475,671.00,102.20,32.00,8.72,M,6.00,0.00,29.95,M,10.00,12.00,CLR,M,M,M,M,M,M,M,M,M,M,M,M,M,M,95.74,KBVU 011855Z AUTO VRB06G12KT 10SM CLR 39/00 A2995 RMK AO2,M
CXP,2023-07-01 18:55,-119.7326,39.1923,1431.00,87.80,42.80,20.79,M,4.00,0.00,30.21,M,10.00,M,CLR,M,M,M,M,M,M,M,M,M,M,M,M,M,M,84.40,KCXP 011855Z AUTO VRB04KT 10SM CLR 31/06 A3021 RMK AO2,M
LSV,2023-07-01 18:55,-115.0343,36.2362,570.00,105.80,32.40,7.96,20.00,4.00,0.00,29.91,1009.90,10.00,M,FEW,M,M,M,20000.00,M,M,M,M,M,M,M,M,M,M,98.88,KLSV 011855Z AUTO 02004KT 10SM FEW200 41/00 A2991 RMK AO2 SLP099 T04100002 $,M
RTS,2023-07-01 18:55,-119.8764,39.6682,1539.00,84.20,42.80,23.33,M,3.00,0.00,30.23,M,10.00,M,CLR,M,M,M,M,M,M,M,M,M,M,M,M,M,M,81.61,KRTS 011855Z AUTO VRB03KT 10SM CLR 29/06 A3023 RMK AO2,M
05U,2023-07-01 18:55,-116.0051,39.6042,1811.23,86.00,33.80,15.48,40.00,6.00,0.00,30.30,M,10.00,12.00,CLR,M,M,M,M,M,M,M,M,M,M,M,M,M,M,82.66,K05U 011855Z AUTO 04006G12KT 10SM CLR 30/01 A3030 RMK A01,M
MEV,2023-07-01 18:55,-119.7500,38.9963,1441.42,87.80,46.40,23.85,0.00,0.00,0.00,30.20,M,10.00,M,CLR,M,M,M,M,M,M,M,M,M,M,M,M,M,M,84.68,KMEV 011855Z AUTO 00000KT 10SM CLR 31/08 A3020 RMK AO2,M
BAM,2023-07-01 18:55,-116.8743,40.5990,1382.36,91.40,37.40,15.05,320.00,6.00,0.00,30.18,M,10.00,M,CLR,M,M,M,M,M,M,M,M,M,M,M,M,M,M,87.23,KBAM 011855Z AUTO 32006KT 10SM CLR 33/03 A3018 RMK AO1,M
HTH,2023-07-01 18:55,-118.6315,38.5448,1282.89,87.80,37.40,16.86,320.00,7.00,0.00,30.17,M,10.00,M,CLR,M,M,M,M,M,M,M,M,M,M,M,M,M,M,84.16,KHTH 011855Z AUTO 32007KT 300V360 10SM CLR 31/03 A3017 RMK A01,M
TMT,2023-07-01 18:55,-117.1971,39.4643,1749.34,84.40,35.80,17.64,230.00,6.00,0.00,30.28,M,10.00,M,CLR,M,M,M,M,M,M,M,M,M,M,M,M,M,M,81.49,KTMT 011855Z AUTO 23006KT 10SM CLR 29/02 A3028 RMK AO2 T02910021,M
INS,2023-07-01 18:55,-115.6733,36.5872,955.00,96.80,28.60,8.95,260.00,3.00,0.00,30.03,1011.50,10.00,M,CLR,M,M,M,M,M,M,M,M,M,M,M,M,M,M,90.77,KINS 011855Z AUTO 26003KT 10SM CLR 36/M02 A3003 RMK AO2 SLP115 T03601019 $,M
RNO,2023-07-01 18:55,-119.7711,39.4839,1341.00,90.00,44.00,20.39,M,3.00,0.00,30.17,1015.00,10.00,M,FEW,M,M,M,10000.00,M,M,M,M,M,M,M,M,M,M,86.38,KRNO 011855Z VRB03KT 10SM FEW100 32/07 A3017 RMK AO2 SLP150 T03220067,M
EKO,2023-07-01 18:56,-115.7860,40.8242,1367.00,88.00,39.00,17.83,M,5.00,0.00,30.22,1017.10,10.00,M,CLR,M,M,M,M,M,M,M,M,M,M,M,M,M,M,84.38,KEKO 011856Z AUTO VRB05KT 10SM CLR 31/04 A3022 RMK AO2 SLP171 T03110039,M
HND,2023-07-01 18:56,-115.1344,35.9729,742.79,100.00,39.00,12.30,0.00,0.00,0.00,30.01,1014.30,10.00,M,CLR,M,M,M,M,M,M,M,M,M,M,M,M,M,M,95.05,KHND 011856Z 00000KT 10SM CLR 38/04 A3001 RMK AO2 SLP143 T03780039,M
LAS,2023-07-01 18:56,-115.1634,36.0719,663.00,101.00,37.00,11.07,0.00,0.00,0.00,29.97,1011.40,10.00,M,FEW,M,M,M,14000.00,M,M,M,M,M,M,M,M,M,M,95.43,KLAS 011856Z 00000KT 10SM FEW140 38/03 A2997 RMK AO2 SLP114 T03830028,M
WMC,2023-07-01 18:56,-117.8072,40.9019,1315.00,93.00,35.00,13.07,260.00,7.00,0.00,30.14,1015.40,10.00,M,CLR,M,M,M,M,M,M,M,M,M,M,M,M,M,M,88.56,KWMC 011856Z AUTO 26007KT 10SM CLR 34/02 A3014 RMK AO2 SLP154 T03390017 $,M
NFL,2023-07-01 18:56,-118.7010,39.4166,1199.00,91.00,40.00,16.80,0.00,0.00,0.00,30.13,1016.80,10.00,M,CLR,M,M,M,M,M,M,M,M,M,M,M,M,M,M,86.98,KNFL 011856Z AUTO 00000KT 10SM CLR 33/04 A3013 RMK AO2 SLP168 T03280044,M
TPH,2023-07-01 18:56,-117.0904,38.0505,1654.00,89.00,47.00,23.32,M,M,0.00,30.24,1014.70,10.00,M,CLR,M,M,M,M,M,M,M,M,M,M,M,M,M,M,85.85,KTPH 011856Z AUTO 10SM CLR 32/08 A3024 RMK AO2 SLP147 T03170083,M
05U,2023-07-01 19:10,-116.0051,39.6042,1811.23,86.00,32.00,14.40,50.00,4.00,0.00,30.30,M,10.00,12.00,CLR,M,M,M,M,M,M,M,M,M,M,M,M,M,M,82.64,K05U 011910Z AUTO 05004G12KT 10SM CLR 30/00 A3030 RMK A01,M
BVU,2023-07-01 19:15,-114.8611,35.9475,671.00,102.20,32.00,8.72,40.00,6.00,0.00,29.95,M,10.00,M,CLR,M,M,M,M,M,M,M,M,M,M,M,M,M,M,95.74,KBVU 011915Z AUTO 04006KT 10SM CLR 39/M00 A2995 RMK AO2,M
CXP,2023-07-01 19:15,-119.7326,39.1923,1431.00,89.60,41.00,18.33,0.00,0.00,0.00,30.20,M,10.00,M,CLR,M,M,M,M,M,M,M,M,M,M,M,M,M,M,85.82,KCXP 011915Z AUTO 00000KT 10SM CLR 32/05 A3020 RMK AO2,M
RTS,2023-07-01 19:15,-119.8764,39.6682,1539.00,86.00,41.00,20.54,M,6.00,0.00,30.23,M,10.00,12.00,CLR,M,M,M,M,M,M,M,M,M,M,M,M,M,M,82.86,KRTS 011915Z AUTO VRB06G12KT 10SM CLR 30/05 A3023 RMK AO2,M
MEV,2023-07-01 19:15,-119.7500,38.9963,1441.42,87.80,44.60,22.27,0.00,0.00,0.00,30.20,M,10.00,M,CLR,M,M,M,M,M,M,M,M,M,M,M,M,M,M,84.53,KMEV 011915Z AUTO 00000KT 10SM CLR 31/07 A3020 RMK AO2,M
BAM,2023-07-01 19:15,-116.8743,40.5990,1382.36,91.40,37.40,15.05,350.00,7.00,0.00,30.18,M,10.00,M,CLR,M,M,M,M,M,M,M,M,M,M,M,M,M,M,87.23,KBAM 011915Z AUTO 35007KT 10SM CLR 33/03 A3018 RMK AO1,M
HTH,2023-07-01 19:15,-118.6315,38.5448,1282.89,89.60,37.40,15.92,M,6.00,0.00,30.16,M,10.00,11.00,CLR,M,M,M,M,M,M,M,M,M,M,M,M,M,M,85.67,KHTH 011915Z AUTO VRB06G11KT 10SM CLR 32/03 A3016 RMK A01,M
TMT,2023-07-01 19:15,-117.1971,39.4643,1749.34,84.40,35.40,17.36,0.00,0.00,0.00,30.28,M,10.00,M,CLR,M,M,M,M,M,M,M,M,M,M,M,M,M,M,81.48,KTMT 011915Z AUTO 00000KT 10SM CLR 29/02 A3028 RMK AO2 T02910019,M
BVU,2023-07-01 19:35,-114.8611,35.9475,671.00,102.20,32.00,8.72,60.00,7.00,0.00,29.94,M,10.00,M,CLR,M,M,M,M,M,M,M,M,M,M,M,M,M,M,95.74,KBVU 011935Z AUTO 06007KT 10SM CLR 39/00 A2994 RMK AO2,M
CXP,2023-07-01 19:35,-119.7326,39.1923,1431.00,91.40,39.20,16.15,M,3.00,0.00,30.20,M,10.00,M,CLR,M,M,M,M,M,M,M,M,M,M,M,M,M,M,87.30,KCXP 011935Z AUTO VRB03KT 10SM CLR 33/04 A3020 RMK AO2,M
RTS,2023-07-01 19:35,-119.8764,39.6682,1539.00,86.00,35.60,16.63,60.00,4.00,0.00,30.23,M,10.00,10.00,CLR,M,M,M,M,M,M,M,M,M,M,M,M,M,M,82.69,KRTS 011935Z AUTO 06004G10KT 10SM CLR 30/02 A3023 RMK AO2,M
05U,2023-07-01 19:35,-116.0051,39.6042,1811.23,86.00,33.80,15.48,10.00,8.00,0.00,30.30,M,10.00,M,CLR,M,M,M,M,M,M,M,M,M,M,M,M,M,M,82.66,K05U 011935Z AUTO 01008KT 10SM CLR 30/01 A3030 RMK A01,M
MEV,2023-07-01 19:35,-119.7500,38.9963,1441.42,87.80,41.00,19.40,M,4.00,0.00,30.19,M,10.00,M,CLR,M,M,M,M,M,M,M,M,M,M,M,M,M,M,84.30,KMEV 011935Z AUTO VRB04KT 10SM CLR 31/05 A3019 RMK AO2,M
BAM,2023-07-01 19:35,-116.8743,40.5990,1382.36,93.20,37.40,14.23,10.00,6.00,0.00,30.17,M,10.00,M,CLR,M,M,M,M,M,M,M,M,M,M,M,M,M,M,88.83,KBAM 011935Z AUTO 01006KT 10SM CLR 34/03 A3017 RMK AO1,M
HTH,2023-07-01 19:35,-118.6315,38.5448,1282.89,89.60,37.40,15.92,10.00,8.00,0.00,30.15,M,10.00,M,CLR,M,M,M,M,M,M,M,M,M,M,M,M,M,M,85.67,KHTH 011935Z AUTO 01008KT 330V030 10SM CLR 32/03 A3015 RMK A01,M
TMT,2023-07-01 19:35,-117.1971,39.4643,1749.34,84.60,35.00,16.91,0.00,0.00,0.00,30.28,M,10.00,M,CLR,M,M,M,M,M,M,M,M,M,M,M,M,M,M,81.61,KTMT 011935Z AUTO 00000KT 10SM CLR 29/02 A3028 RMK AO2 T02920016,M
P68,2023-07-01 19:53,-116.0056,39.6014,1993.00,84.00,32.00,15.35,M,3.00,0.00,30.26,1016.50,M,M,M,M,M,M,M,M,M,M,M,M,M,M,M,M,M,81.13,KP68 011953Z AUTO VRB03KT 29/00 A3026 RMK AO1 SLP165 T02890000,M
LOL,2023-07-01 19:53,-118.5701,40.0684,1192.43,94.00,39.00,14.82,190.00,11.00,0.00,30.11,1015.00,10.00,M,CLR,M,M,M,M,M,M,M,M,M,M,M,M,M,M,89.54,KLOL 011953Z AUTO 19011KT 10SM CLR 34/04 A3011 RMK AO2 SLP150 T03440039,M
DRA,2023-07-01 19:53,-116.0278,36.6206,1009.00,102.00,33.00,9.17,230.00,5.00,0.00,30.03,1011.00,10.00,M,CLR,M,M,M,M,M,M,M,M,M,M,M,M,M,M,95.73,KDRA 011953Z AUTO 23005KT 10SM CLR 39/01 A3003 RMK AO2 SLP110 T03890006,M
ELY,2023-07-01 19:53,-114.8453,39.2950,1909.00,84.00,38.00,19.41,350.00,8.00,0.00,30.28,1015.60,10.00,M,CLR,M,M,M,M,M,M,M,M,M,M,M,M,M,M,81.25,KELY 011953Z AUTO 35008KT 10SM CLR 29/03 A3028 RMK AO2 SLP156 T02890033 $,M
VGT,2023-07-01 19:53,-115.1933,36.2111,667.00,104.00,38.00,10.45,M,4.00,0.00,29.94,1012.30,10.00,M,CLR,M,M,M,M,M,M,M,M,M,M,M,M,M,M,98.29,KVGT 011953Z VRB04KT 10SM CLR 40/03 A2994 RMK AO2 SLP123 T04000033,M
BVU,2023-07-01 19:55,-114.8611,35.9475,671.00,102.20,32.00,8.72,M,4.00,0.00,29.94,M,10.00,M,CLR,M,M,M,M,M,M,M,M,M,M,M,M,M,M,95.74,KBVU 011955Z AUTO VRB04KT 10SM CLR 39/M00 A2994 RMK AO2,M
CXP,2023-07-01 19:55,-119.7326,39.1923,1431.00,91.40,37.40,15.05,310.00,5.00,0.00,30.19,M,10.00,11.00,CLR,M,M,M,M,M,M,M,M,M,M,M,M,M,M,87.23,KCXP 011955Z AUTO 31005G11KT 10SM CLR 33/03 A3019 RMK AO2,M
RTS,2023-07-01 19:55,-119.8764,39.6682,1539.00,87.80,35.60,15.70,M,6.00,0.00,30.22,M,10.00,13.00,CLR,M,M,M,M,M,M,M,M,M,M,M,M,M,M,84.12,KRTS 011955Z AUTO VRB06G13KT 10SM CLR 31/02 A3022 RMK AO2,M
05U,2023-07-01 19:55,-116.0051,39.6042,1811.23,86.00,33.80,15.48,30.00,5.00,0.00,30.29,M,10.00,M,CLR,M,M,M,M,M,M,M,M,M,M,M,M,M,M,82.66,K05U 011955Z AUTO 03005KT 10SM CLR 30/01 A3029 RMK A01,M
MEV,2023-07-01 19:55,-119.7500,38.9963,1441.42,89.60,37.40,15.92,100.00,5.00,0.00,30.18,M,10.00,M,CLR,M,M,M,M,M,M,M,M,M,M,M,M,M,M,85.67,KMEV 011955Z AUTO 10005KT 10SM CLR 32/03 A3018 RMK AO2,M
BAM,2023-07-01 19:55,-116.8743,40.5990,1382.36,93.20,37.40,14.23,0.00,0.00,0.00,30.17,M,10.00,M,CLR,M,M,M,M,M,M,M,M,M,M,M,M,M,M,88.83,KBAM 011955Z AUTO 00000KT 10SM CLR 34/03 A3017 RMK AO1,M
HTH,2023-07-01 19:55,-118.6315,38.5448,1282.89,91.40,35.60,14.02,M,6.00,0.00,30.15,M,10.00,M,CLR,M,M,M,M,M,M,M,M,M,M,M,M,M,M,87.17,KHTH 011955Z AUTO VRB06KT 10SM CLR 33/02 A3015 RMK A01,M
LSV,2023-07-01 19:55,-115.0343,36.2362,570.00,109.00,31.50,6.99,240.00,6.00,0.00,29.89,1009.20,10.00,M,FEW,FEW,FEW,M,15000.00,17000.00,20000.00,M,M,M,M,M,M,M,M,101.50,KLSV 011955Z AUTO 24006KT 10SM FEW150 FEW170 FEW200 43/M00 A2989 RMK AO2 SLP092 T04281003 $,M
INS,2023-07-01 19:55,-115.6733,36.5872,955.00,99.00,27.30,7.93,190.00,4.00,0.00,30.02,1011.20,10.00,M,CLR,M,M,M,M,M,M,M,M,M,M,M,M,M,M,92.47,KINS 011955Z AUTO 19004KT 10SM CLR 37/M03 A3002 RMK AO2 SLP112 T03721026 $,M
RNO,2023-07-01 19:55,-119.7711,39.4839,1341.00,94.00,42.00,16.72,160.00,6.00,0.00,30.16,1014.40,10.00,M,FEW,M,M,M,11000.00,M,M,M,M,M,M,M,M,M,M,89.76,KRNO 011955Z 16006KT 10SM FEW110 34/06 A3016 RMK AO2 SLP144 T03440056,M
TMT,2023-07-01 19:55,-117.1971,39.4643,1749.34,85.00,35.00,16.75,30.00,3.00,0.00,30.27,M,10.00,M,CLR,M,M,M,M,M,M,M,M,M,M,M,M,M,M,81.84,KTMT 011955Z AUTO 03003KT 10SM CLR 29/02 A3027 RMK AO2 T02940016,M
EKO,2023-07-01 19:56,-115.7860,40.8242,1367.00,87.00,36.00,16.31,20.00,3.00,0.00,30.21,1016.90,10.00,M,CLR,M,M,M,M,M,M,M,M,M,M,M,M,M,M,83.56,KEKO 011956Z AUTO 02003KT 10SM CLR 31/02 A3021 RMK AO2 SLP169 T03060022,M
NFL,2023-07-01 19:56,-118.7010,39.4166,1199.00,96.00,37.00,12.81,M,M,0.00,30.12,1016.50,10.00,M,CLR,M,M,M,M,M,M,M,M,M,M,M,M,M,M,91.39,KNFL 011956Z AUTO 10SM CLR 36/03 A3012 RMK AO2 SLP165 T03560028,M
HND,2023-07-01 19:56,-115.1344,35.9729,742.79,102.00,39.00,11.58,M,6.00,0.00,29.99,1013.70,10.00,M,CLR,M,M,M,M,M,M,M,M,M,M,M,M,M,M,96.77,KHND 011956Z VRB06KT 10SM CLR 39/04 A2999 RMK AO2 SLP137 T03890039,M
TPH,2023-07-01 19:56,-117.0904,38.0505,1654.00,89.00,48.00,24.31,0.00,0.00,0.00,30.22,1014.60,10.00,M,CLR,M,M,M,M,M,M,M,M,M,M,M,M,M,M,85.97,KTPH 011956Z AUTO 00000KT 10SM CLR 32/09 A3022 RMK AO2 SLP146 T03170089,M
LAS,2023-07-01 19:56,-115.1634,36.0719,663.00,102.00,36.00,10.29,0.00,0.00,0.00,29.95,1011.00,10.00,M,FEW,M,M,M,14000.00,M,M,M,M,M,M,M,M,M,M,96.20,KLAS 011956Z 00000KT 10SM FEW140 39/02 A2995 RMK AO2 SLP110 T03890022,M
WMC,2023-07-01 19:56,-117.8072,40.9019,1315.00,97.00,33.00,10.67,320.00,7.00,0.00,30.13,1015.00,10.00,15.00,CLR,M,M,M,M,M,M,M,M,M,M,M,M,M,M,91.50,KWMC 011956Z AUTO 32007G15KT 10SM CLR 36/01 A3013 RMK AO2 SLP150 T03610006 $,M
BVU,2023-07-01 20:15,-114.8611,35.9475,671.00,102.20,30.20,8.11,40.00,6.00,0.00,29.93,M,10.00,M,CLR,M,M,M,M,M,M,M,M,M,M,M,M,M,M,95.50,KBVU 012015Z AUTO 04006KT 10SM CLR 39/M01 A2993 RMK AO2,M
CXP,2023-07-01 20:15,-119.7326,39.1923,1431.00,91.40,37.40,15.05,0.00,0.00,0.00,30.19,M,10.00,M,CLR,M,M,M,M,M,M,M,M,M,M,M,M,M,M,87.23,KCXP 012015Z AUTO 00000KT 10SM CLR 33/03 A3019 RMK AO2,M
RTS,2023-07-01 20:15,-119.8764,39.6682,1539.00,87.80,35.60,15.70,100.00,8.00,0.00,30.21,M,10.00,M,CLR,M,M,M,M,M,M,M,M,M,M,M,M,M,M,84.12,KRTS 012015Z AUTO 10008KT 10SM CLR 31/02 A3021 RMK AO2,M
05U,2023-07-01 20:15,-116.0051,39.6042,1811.23,87.80,33.80,14.61,20.00,6.00,0.00,30.29,M,10.00,12.00,CLR,M,M,M,M,M,M,M,M,M,M,M,M,M,M,84.10,K05U 012015Z AUTO 02006G12KT 10SM CLR 31/01 A3029 RMK A01,M
MEV,2023-07-01 20:15,-119.7500,38.9963,1441.42,89.60,37.40,15.92,80.00,5.00,0.00,30.18,M,10.00,M,CLR,M,M,M,M,M,M,M,M,M,M,M,M,M,M,85.67,KMEV 012015Z AUTO 08005KT 10SM CLR 32/03 A3018 RMK AO2,M
BAM,2023-07-01 20:15,-116.8743,40.5990,1382.36,93.20,37.40,14.23,10.00,5.00,0.00,30.17,M,10.00,M,CLR,M,M,M,M,M,M,M,M,M,M,M,M,M,M,88.83,KBAM 012015Z AUTO 01005KT 10SM CLR 34/03 A3017 RMK AO1,M
HTH,2023-07-01 20:15,-118.6315,38.5448,1282.89,93.20,33.80,12.34,M,4.00,0.00,30.14,M,10.00,12.00,CLR,M,M,M,M,M,M,M,M,M,M,M,M,M,M,88.55,KHTH 012015Z AUTO VRB04G12KT 10SM CLR 34/01 A3014 RMK A01,M
TMT,2023-07-01 20:15,-117.1971,39.4643,1749.34,85.30,31.80,14.60,0.00,0.00,0.00,30.27,M,10.00,M,CLR,M,M,M,M,M,M,M,M,M,M,M,M,M,M,82.10,KTMT 012015Z AUTO 00000KT 10SM CLR 30/00 A3027 RMK AO2 T02961001,M
HTH,2023-07-01 20:30,-118.6315,38.5448,1282.89,93.20,32.00,11.48,30.00,5.00,0.00,30.14,M,10.00,10.00,CLR,M,M,M,M,M,M,M,M,M,M,M,M,M,M,88.31,KHTH 012030Z AUTO 03005G10KT 10SM CLR 34/M00 A3014 RMK A01,M
BVU,2023-07-01 20:35,-114.8611,35.9475,671.00,104.00,30.20,7.68,70.00,11.00,0.00,29.92,M,10.00,M,CLR,M,M,M,M,M,M,M,M,M,M,M,M,M,M,97.03,KBVU 012035Z AUTO 07011KT 10SM CLR 40/M01 A2992 RMK AO2,M
CXP,2023-07-01 20:35,-119.7326,39.1923,1431.00,93.20,37.40,14.23,M,4.00,0.00,30.18,M,10.00,M,CLR,M,M,M,M,M,M,M,M,M,M,M,M,M,M,88.83,KCXP 012035Z AUTO VRB04KT 10SM CLR 34/03 A3018 RMK AO2,M
RTS,2023-07-01 20:35,-119.8764,39.6682,1539.00,89.60,37.40,15.92,90.00,7.00,0.00,30.21,M,10.00,M,CLR,M,M,M,M,M,M,M,M,M,M,M,M,M,M,85.67,KRTS 012035Z AUTO 09007KT 070V140 10SM CLR 32/03 A3021 RMK AO2,M
05U,2023-07-01 20:35,-116.0051,39.6042,1811.23,89.60,35.60,14.83,10.00,7.00,0.00,30.28,M,10.00,M,CLR,M,M,M,M,M,M,M,M,M,M,M,M,M,M,85.62,K05U 012035Z AUTO 01007KT 10SM CLR 32/02 A3028 RMK A01,M
MEV,2023-07-01 20:35,-119.7500,38.9963,1441.42,89.60,37.40,15.92,100.00,5.00,0.00,30.17,M,10.00,M,CLR,M,M,M,M,M,M,M,M,M,M,M,M,M,M,85.67,KMEV 012035Z AUTO 10005KT 10SM CLR 32/03 A3017 RMK AO2,M
BAM,2023-07-01 20:35,-116.8743,40.5990,1382.36,95.00,37.40,13.46,20.00,6.00,0.00,30.16,M,7.00,16.00,CLR,M,M,M,M,M,M,M,M,M,M,M,M,M,M,90.46,KBAM 012035Z AUTO 02006G16KT 7SM CLR 35/03 A3016 RMK AO1,M
TMT,2023-07-01 20:35,-117.1971,39.4643,1749.34,85.60,32.00,14.58,50.00,3.00,0.00,30.26,M,10.00,M,CLR,M,M,M,M,M,M,M,M,M,M,M,M,M,M,82.33,KTMT 012035Z AUTO 05003KT 10SM CLR 30/00 A3026 RMK AO2 T02980000,M
DRA,2023-07-01 20:53,-116.0278,36.6206,1009.00,102.00,32.00,8.77,230.00,7.00,0.00,30.00,1010.10,10.00,M,CLR,M,M,M,M,M,M,M,M,M,M,M,M,M,M,95.57,KDRA 012053Z AUTO 23007KT 10SM CLR 39/00 A3000 RMK AO2 SLP101 T03890000 58016,M
VGT,2023-07-01 20:53,-115.1933,36.2111,667.00,107.00,37.00,9.20,40.00,4.00,0.00,29.91,1011.20,10.00,M,CLR,M,M,M,M,M,M,M,M,M,M,M,M,M,M,100.82,KVGT 012053Z 04004KT 10SM CLR 42/03 A2991 RMK AO2 SLP112 T04170028 58019,M
P68,2023-07-01 20:53,-116.0056,39.6014,1993.00,87.00,33.00,14.53,100.00,7.00,0.00,30.24,1015.60,M,M,M,M,M,M,M,M,M,M,M,M,M,M,M,M,M,83.52,KP68 012053Z AUTO 10007KT 31/01 A3024 RMK AO1 SLP156 T03060006 58012,M
ELY,2023-07-01 20:53,-114.8453,39.2950,1909.00,85.00,35.00,16.88,0.00,0.00,0.00,30.26,1014.90,10.00,M,CLR,M,M,M,M,M,M,M,M,M,M,M,M,M,M,81.84,KELY 012053Z AUTO 00000KT 10SM CLR 29/02 A3026 RMK AO2 SLP149 T02940017 58013 $,M
LOL,2023-07-01 20:53,-118.5701,40.0684,1192.43,96.00,38.00,13.27,160.00,9.00,0.00,30.09,1014.50,10.00,14.00,CLR,M,M,M,M,M,M,M,M,M,M,M,M,M,M,91.49,KLOL 012053Z AUTO 16009G14KT 10SM CLR 36/03 A3009 RMK AO2 SLP145 T03560033 58012,M
BVU,2023-07-01 20:55,-114.8611,35.9475,671.00,104.00,30.20,7.68,40.00,9.00,0.00,29.91,M,10.00,M,CLR,M,M,M,M,M,M,M,M,M,M,M,M,M,M,97.03,KBVU 012055Z AUTO 04009KT 360V080 10SM CLR 40/M01 A2991 RMK AO2,M
CXP,2023-07-01 20:55,-119.7326,39.1923,1431.00,91.40,35.60,14.02,280.00,4.00,0.00,30.17,M,10.00,M,CLR,M,M,M,M,M,M,M,M,M,M,M,M,M,M,87.17,KCXP 012055Z AUTO 28004KT 10SM CLR 33/02 A3017 RMK AO2,M
LSV,2023-07-01 20:55,-115.0343,36.2362,570.00,108.50,30.90,6.92,220.00,3.00,0.00,29.86,1008.20,10.00,M,CLR,M,M,M,M,M,M,M,M,M,M,M,M,M,M,100.98,KLSV 012055Z AUTO 22003KT 10SM CLR 43/M01 A2986 RMK AO2 SLP082 T04251006 $,M
RTS,2023-07-01 20:55,-119.8764,39.6682,1539.00,89.60,35.60,14.83,90.00,10.00,0.00,30.20,M,10.00,M,CLR,M,M,M,M,M,M,M,M,M,M,M,M,M,M,85.62,KRTS 012055Z AUTO 09010KT 10SM CLR 32/02 A3020 RMK AO2,M
05U,2023-07-01 20:55,-116.0051,39.6042,1811.23,89.60,33.80,13.80,20.00,8.00,0.00,30.27,M,10.00,M,CLR,M,M,M,M,M,M,M,M,M,M,M,M,M,M,85.59,K05U 012055Z AUTO 02008KT 10SM CLR 32/01 A3027 RMK A01,M
MEV,2023-07-01 20:55,-119.7500,38.9963,1441.42,91.40,41.00,17.32,M,5.00,0.00,30.16,M,10.00,M,CLR,M,M,M,M,M,M,M,M,M,M,M,M,M,M,87.40,KMEV 012055Z AUTO VRB05KT 10SM CLR 33/05 A3016 RMK AO2,M
BAM,2023-07-01 20:55,-116.8743,40.5990,1382.36,95.00,35.60,12.53,240.00,8.00,0.00,30.16,M,10.00,M,CLR,M,M,M,M,M,M,M,M,M,M,M,M,M,M,90.25,KBAM 012055Z AUTO 24008KT 10SM CLR 35/02 A3016 RMK AO1,M
HTH,2023-07-01 20:55,-118.6315,38.5448,1282.89,93.20,33.80,12.34,M,4.00,0.00,30.13,M,10.00,M,CLR,M,M,M,M,M,M,M,M,M,M,M,M,M,M,88.55,KHTH 012055Z AUTO VRB04KT 10SM CLR 34/01 A3013 RMK A01,M
TMT,2023-07-01 20:55,-117.1971,39.4643,1749.34,86.70,34.20,15.38,0.00,0.00,0.00,30.25,M,10.00,M,CLR,M,M,M,M,M,M,M,M,M,M,M,M,M,M,83.22,KTMT 012055Z AUTO 00000KT 10SM CLR 30/01 A3025 RMK AO2 T03040012,M
INS,2023-07-01 20:55,-115.6733,36.5872,955.00,100.00,24.80,6.96,40.00,6.00,0.00,29.99,1010.10,10.00,M,CLR,M,M,M,M,M,M,M,M,M,M,M,M,M,M,92.98,KINS 012055Z AUTO 04006KT 10SM CLR 38/M04 A2999 RMK AO2 SLP101 T03771040 $,M
RNO,2023-07-01 20:55,-119.7711,39.4839,1341.00,96.00,42.00,15.62,M,4.00,0.00,30.13,1013.70,10.00,M,FEW,M,M,M,11000.00,M,M,M,M,M,M,M,M,M,M,91.83,KRNO 012055Z VRB04KT 10SM FEW110 36/06 A3013 RMK AO2 SLP137 T03560056 58015,M
WMC,2023-07-01 20:56,-117.8072,40.9019,1315.00,97.00,32.00,10.21,250.00,7.00,0.00,30.11,1014.30,10.00,M,CLR,M,M,M,M,M,M,M,M,M,M,M,M,M,M,91.35,KWMC 012056Z AUTO 25007KT 210V290 10SM CLR 36/00 A3011 RMK AO2 SLP143 T03610000 58011 $,M
TPH,2023-07-01 20:56,-117.0904,38.0505,1654.00,90.00,50.00,25.46,M,3.00,0.00,30.20,1013.90,10.00,M,CLR,M,M,M,M,M,M,M,M,M,M,M,M,M,M,87.06,KTPH 012056Z AUTO VRB03KT 10SM CLR 32/10 A3020 RMK AO2 SLP139 T03220100 58012,M
NFL,2023-07-01 20:56,-118.7010,39.4166,1199.00,97.00,37.00,12.46,M,M,0.00,30.10,1016.00,10.00,M,CLR,M,M,M,M,M,M,M,M,M,M,M,M,M,M,92.13,KNFL 012056Z AUTO 10SM CLR 36/03 A3010 RMK AO2 SLP160 T03610028 58011,M
EKO,2023-07-01 20:56,-115.7860,40.8242,1367.00,90.00,40.00,17.34,M,4.00,0.00,30.19,1016.10,10.00,M,CLR,M,M,M,M,M,M,M,M,M,M,M,M,M,M,86.11,KEKO 012056Z AUTO VRB04KT 10SM CLR 32/04 A3019 RMK AO2 SLP161 T03220044 58013,M
HND,2023-07-01 20:56,-115.1344,35.9729,742.79,103.00,38.00,10.80,M,4.00,0.00,29.97,1012.90,10.00,M,CLR,M,M,M,M,M,M,M,M,M,M,M,M,M,M,97.33,KHND 012056Z VRB04KT 10SM CLR 39/03 A2997 RMK AO2 SLP129 T03940033 58017,M
LAS,2023-07-01 20:56,-115.1634,36.0719,663.00,103.00,35.00,9.67,80.00,9.00,0.00,29.92,1010.10,10.00,M,FEW,M,M,M,14000.00,M,M,M,M,M,M,M,M,M,M,96.82,KLAS 012056Z 08009KT 10SM FEW140 39/02 A2992 RMK AO2 SLP101 T03940017 58018,M
BVU,2023-07-01 21:15,-114.8611,35.9475,671.00,105.80,24.80,5.83,50.00,9.00,0.00,29.90,M,10.00,M,CLR,M,M,M,M,M,M,M,M,M,M,M,M,M,M,97.92,KBVU 012115Z AUTO 05009KT 10SM CLR 41/M04 A2990 RMK AO2,M
CXP,2023-07-01 21:15,-119.7326,39.1923,1431.00,95.00,37.40,13.46,M,4.00,0.00,30.17,M,10.00,10.00,CLR,M,M,M,M,M,M,M,M,M,M,M,M,M,M,90.46,KCXP 012115Z AUTO VRB04G10KT 10SM CLR 35/03 A3017 RMK AO2,M
RTS,2023-07-01 21:15,-119.8764,39.6682,1539.00,89.60,37.40,15.92,110.00,4.00,0.00,30.20,M,10.00,M,CLR,M,M,M,M,M,M,M,M,M,M,M,M,M,M,85.67,KRTS 012115Z AUTO 11004KT 10SM CLR 32/03 A3020 RMK AO2,M
05U,2023-07-01 21:15,-116.0051,39.6042,1811.23,89.60,35.60,14.83,30.00,6.00,0.00,30.26,M,10.00,M,CLR,M,M,M,M,M,M,M,M,M,M,M,M,M,M,85.62,K05U 012115Z AUTO 03006KT 10SM CLR 32/02 A3026 RMK A01,M
MEV,2023-07-01 21:15,-119.7500,38.9963,1441.42,91.40,39.20,16.15,90.00,5.00,0.00,30.16,M,10.00,10.00,CLR,M,M,M,M,M,M,M,M,M,M,M,M,M,M,87.30,KMEV 012115Z AUTO 09005G10KT 10SM CLR 33/04 A3016 RMK AO2,M
BAM,2023-07-01 21:15,-116.8743,40.5990,1382.36,95.00,35.60,12.53,40.00,6.00,0.00,30.14,M,10.00,15.00,CLR,M,M,M,M,M,M,M,M,M,M,M,M,M,M,90.25,KBAM 012115Z AUTO 04006G15KT 340V140 10SM CLR 35/02 A3014 RMK AO1,M
HTH,2023-07-01 21:15,-118.6315,38.5448,1282.89,95.00,33.80,11.67,360.00,10.00,0.00,30.12,M,10.00,M,CLR,M,M,M,M,M,M,M,M,M,M,M,M,M,M,89.97,KHTH 012115Z AUTO 36010KT 10SM CLR 35/01 A3012 RMK A01,M
TMT,2023-07-01 21:15,-117.1971,39.4643,1749.34,87.40,34.30,15.10,0.00,0.00,0.00,30.25,M,10.00,M,CLR,M,M,M,M,M,M,M,M,M,M,M,M,M,M,83.78,KTMT 012115Z AUTO 00000KT 10SM CLR 31/01 A3025 RMK AO2 T03080013,M
BVU,2023-07-01 21:35,-114.8611,35.9475,671.00,105.80,24.80,5.83,120.00,7.00,0.00,29.89,M,10.00,14.00,CLR,M,M,M,M,M,M,M,M,M,M,M,M,M,M,97.92,KBVU 012135Z AUTO 12007G14KT 10SM CLR 41/M04 A2989 RMK AO2,M
CXP,2023-07-01 21:35,-119.7326,39.1923,1431.00,93.20,37.40,14.23,320.00,6.00,0.00,30.16,M,10.00,12.00,CLR,M,M,M,M,M,M,M,M,M,M,M,M,M,M,88.83,KCXP 012135Z AUTO 32006G12KT 10SM CLR 34/03 A3016 RMK AO2,M
RTS,2023-07-01 21:35,-119.8764,39.6682,1539.00,89.60,37.40,15.92,250.00,6.00,0.00,30.19,M,10.00,12.00,CLR,M,M,M,M,M,M,M,M,M,M,M,M,M,M,85.67,KRTS 012135Z AUTO 25006G12KT 10SM CLR 32/03 A3019 RMK AO2,M
05U,2023-07-01 21:35,-116.0051,39.6042,1811.23,89.60,35.60,14.83,20.00,8.00,0.00,30.26,M,10.00,M,CLR,M,M,M,M,M,M,M,M,M,M,M,M,M,M,85.62,K05U 012135Z AUTO 02008KT 10SM CLR 32/02 A3026 RMK A01,M
MEV,2023-07-01 21:35,-119.7500,38.9963,1441.42,91.40,39.20,16.15,M,3.00,0.00,30.15,M,10.00,M,CLR,M,M,M,M,M,M,M,M,M,M,M,M,M,M,87.30,KMEV 012135Z AUTO VRB03KT 10SM CLR 33/04 A3015 RMK AO2,M
BAM,2023-07-01 21:35,-116.8743,40.5990,1382.36,95.00,35.60,12.53,180.00,4.00,0.00,30.14,M,10.00,M,CLR,M,M,M,M,M,M,M,M,M,M,M,M,M,M,90.25,KBAM 012135Z AUTO 18004KT 10SM CLR 35/02 A3014 RMK AO1,M
HTH,2023-07-01 21:35,-118.6315,38.5448,1282.89,95.00,33.80,11.67,330.00,11.00,0.00,30.11,M,10.00,M,CLR,M,M,M,M,M,M,M,M,M,M,M,M,M,M,89.97,KHTH 012135Z AUTO 33011KT 300V360 10SM CLR 35/01 A3011 RMK A01,M
TMT,2023-07-01 21:35,-117.1971,39.4643,1749.34,87.30,35.00,15.51,0.00,0.00,0.00,30.24,M,10.00,M,CLR,M,M,M,M,M,M,M,M,M,M,M,M,M,M,83.71,KTMT 012135Z AUTO 00000KT 10SM CLR 31/02 A3024 RMK AO2 T03070016,M
05U,2023-07-01 21:50,-116.0051,39.6042,1811.23,89.60,33.80,13.80,20.00,6.00,0.00,30.26,M,10.00,M,CLR,M,M,M,M,M,M,M,M,M,M,M,M,M,M,85.59,K05U 012150Z AUTO 02006KT 10SM CLR 32/01 A3026 RMK A01,M
DRA,2023-07-01 21:53,-116.0278,36.6206,1009.00,104.00,32.00,8.27,220.00,9.00,0.00,29.98,1009.20,10.00,M,CLR,M,M,M,M,M,M,M,M,M,M,M,M,M,M,97.28,KDRA 012153Z AUTO 22009KT 10SM CLR 40/00 A2998 RMK AO2 SLP092 T04000000,M
VGT,2023-07-01 21:53,-115.1933,36.2111,667.00,107.00,37.00,9.20,90.00,4.00,0.00,29.89,1010.40,10.00,M,CLR,M,M,M,M,M,M,M,M,M,M,M,M,M,M,100.82,KVGT 012153Z 09004KT 10SM CLR 42/03 A2989 RMK AO2 SLP104 T04170028,M
LOL,2023-07-01 21:53,-118.5701,40.0684,1192.43,95.00,37.00,13.25,170.00,8.00,0.00,30.07,1013.80,10.00,M,CLR,M,M,M,M,M,M,M,M,M,M,M,M,M,M,90.44,KLOL 012153Z AUTO 17008KT 130V190 10SM CLR 35/03 A3007 RMK AO2 SLP138 T03500028,M
P68,2023-07-01 21:53,-116.0056,39.6014,1993.00,86.00,33.00,15.05,150.00,3.00,0.00,30.22,1015.20,M,M,M,M,M,M,M,M,M,M,M,M,M,M,M,M,M,82.65,KP68 012153Z AUTO 15003KT 30/01 A3022 RMK AO1 SLP152 T03000006,M
ELY,2023-07-01 21:53,-114.8453,39.2950,1909.00,87.00,35.00,15.74,250.00,10.00,0.00,30.24,1014.30,10.00,14.00,CLR,M,M,M,M,M,M,M,M,M,M,M,M,M,M,83.55,KELY 012153Z AUTO 25010G14KT 10SM CLR 31/02 A3024 RMK AO2 SLP143 T03060017 $,M
BVU,2023-07-01 21:55,-114.8611,35.9475,671.00,105.80,26.60,6.29,110.00,10.00,0.00,29.89,M,10.00,M,CLR,M,M,M,M,M,M,M,M,M,M,M,M,M,M,98.12,KBVU 012155Z AUTO 11010KT 10SM CLR 41/M03 A2989 RMK AO2,M
CXP,2023-07-01 21:55,-119.7326,39.1923,1431.00,93.20,39.20,15.27,M,5.00,0.00,30.15,M,10.00,13.00,CLR,M,M,M,M,M,M,M,M,M,M,M,M,M,M,88.92,KCXP 012155Z AUTO VRB05G13KT 10SM CLR 34/04 A3015 RMK AO2,M
RNO,2023-07-01 21:55,-119.7711,39.4839,1341.00,97.00,41.00,14.57,360.00,9.00,0.00,30.11,1012.90,10.00,14.00,SCT,M,M,M,11000.00,M,M,M,M,M,M,M,M,M,M,92.58,KRNO 012155Z 36009G14KT 10SM SCT110 36/05 A3011 RMK AO2 SLP129 TCU DSNT W T03610050,M
LSV,2023-07-01 21:55,-115.0343,36.2362,570.00,109.40,31.60,6.94,150.00,5.00,0.00,29.84,1007.40,10.00,M,CLR,M,M,M,M,M,M,M,M,M,M,M,M,M,M,101.87,KLSV 012155Z AUTO 15005KT 10SM CLR 43/M00 A2984 RMK AO2 SLP074 T04301002 $,M
RTS,2023-07-01 21:55,-119.8764,39.6682,1539.00,89.60,35.60,14.83,0.00,0.00,0.00,30.19,M,10.00,M,CLR,M,M,M,M,M,M,M,M,M,M,M,M,M,M,85.62,KRTS 012155Z AUTO 00000KT 10SM CLR 32/02 A3019 RMK AO2,M
MEV,2023-07-01 21:55,-119.7500,38.9963,1441.42,93.20,42.80,17.55,240.00,7.00,0.00,30.15,M,10.00,M,CLR,M,M,M,M,M,M,M,M,M,M,M,M,M,M,89.17,KMEV 012155Z AUTO 24007KT 10SM CLR 34/06 A3015 RMK AO2,M
BAM,2023-07-01 21:55,-116.8743,40.5990,1382.36,96.80,35.60,11.86,150.00,5.00,0.00,30.13,M,10.00,M,CLR,M,M,M,M,M,M,M,M,M,M,M,M,M,M,91.72,KBAM 012155Z AUTO 15005KT 10SM CLR 36/02 A3013 RMK AO1,M
HTH,2023-07-01 21:55,-118.6315,38.5448,1282.89,95.00,32.00,10.85,330.00,10.00,0.00,30.10,M,10.00,M,CLR,M,M,M,M,M,M,M,M,M,M,M,M,M,M,89.71,KHTH 012155Z AUTO 33010KT 10SM CLR 35/00 A3010 RMK A01,M
INS,2023-07-01 21:55,-115.6733,36.5872,955.00,100.20,21.40,5.98,0.00,0.00,0.00,29.97,1009.40,10.00,M,CLR,M,M,M,M,M,M,M,M,M,M,M,M,M,M,92.96,KINS 012155Z AUTO 00000KT 10SM CLR 38/M06 A2997 RMK AO2 SLP094 T03791059 $,M
TMT,2023-07-01 21:55,-117.1971,39.4643,1749.34,87.40,36.00,16.22,250.00,4.00,0.00,30.23,M,10.00,M,CLR,M,M,M,M,M,M,M,M,M,M,M,M,M,M,83.81,KTMT 012155Z AUTO 25004KT 10SM CLR 31/02 A3023 RMK AO2 T03080023,M
EKO,2023-07-01 21:56,-115.7860,40.8242,1367.00,91.00,37.00,15.00,0.00,0.00,0.00,30.17,1015.40,10.00,M,CLR,M,M,M,M,M,M,M,M,M,M,M,M,M,M,86.86,KEKO 012156Z AUTO 00000KT 10SM CLR 33/03 A3017 RMK AO2 SLP154 T03280028,M
WMC,2023-07-01 21:56,-117.8072,40.9019,1315.00,97.00,30.00,9.41,270.00,5.00,0.00,30.10,1013.80,10.00,15.00,CLR,M,M,M,M,M,M,M,M,M,M,M,M,M,M,91.10,KWMC 012156Z AUTO 27005G15KT 10SM CLR 36/M01 A3010 RMK AO2 SLP138 T03611011 $,M
HND,2023-07-01 21:56,-115.1344,35.9729,742.79,106.00,36.00,9.14,100.00,6.00,0.00,29.94,1012.00,10.00,M,CLR,M,M,M,M,M,M,M,M,M,M,M,M,M,M,99.66,KHND 012156Z 10006KT 10SM CLR 41/02 A2994 RMK AO2 SLP120 T04110022,M
NFL,2023-07-01 21:56,-118.7010,39.4166,1199.00,97.00,33.00,10.67,340.00,6.00,0.00,30.08,1015.30,10.00,M,CLR,M,M,M,M,M,M,M,M,M,M,M,M,M,M,91.50,KNFL 012156Z AUTO 34006KT 10SM CLR 36/01 A3008 RMK AO2 SLP153 T03610006,M
TPH,2023-07-01 21:56,-117.0904,38.0505,1654.00,93.00,51.00,24.15,250.00,7.00,0.00,30.18,1012.70,10.00,17.00,CLR,M,M,M,M,M,M,M,M,M,M,M,M,M,M,90.11,KTPH 012156Z AUTO 25007G17KT 210V280 10SM CLR 34/11 A3018 RMK AO2 SLP127 T03390106,M
LAS,2023-07-01 21:56,-115.1634,36.0719,663.00,107.00,35.00,8.54,30.00,11.00,0.00,29.90,1009.20,10.00,M,CLR,M,M,M,M,M,M,M,M,M,M,M,M,M,M,100.46,KLAS 012156Z 03011KT 10SM CLR 42/02 A2990 RMK AO2 SLP092 T04170017,M
BVU,2023-07-01 22:15,-114.8611,35.9475,671.00,105.80,26.60,6.29,220.00,4.00,0.00,29.88,M,10.00,M,CLR,M,M,M,M,M,M,M,M,M,M,M,M,M,M,98.12,KBVU 012215Z AUTO 22004KT 10SM CLR 41/M03 A2988 RMK AO2,M
CXP,2023-07-01 22:15,-119.7326,39.1923,1431.00,95.00,41.00,15.49,270.00,11.00,0.00,30.15,M,10.00,18.00,CLR,M,M,M,M,M,M,M,M,M,M,M,M,M,M,90.70,KCXP 012215Z AUTO 27011G18KT 10SM CLR 35/05 A3015 RMK AO2,M
RTS,2023-07-01 22:15,-119.8764,39.6682,1539.00,89.60,37.40,15.92,M,6.00,0.00,30.18,M,10.00,13.00,SCT,M,M,M,12000.00,M,M,M,M,M,M,M,M,M,M,85.67,KRTS 012215Z AUTO VRB06G13KT 10SM SCT120 32/03 A3018 RMK AO2,M
05U,2023-07-01 22:15,-116.0051,39.6042,1811.23,89.60,35.60,14.83,20.00,5.00,0.00,30.24,M,10.00,M,CLR,M,M,M,M,M,M,M,M,M,M,M,M,M,M,85.62,K05U 012215Z AUTO 02005KT 10SM CLR 32/02 A3024 RMK A01,M
MEV,2023-07-01 22:15,-119.7500,38.9963,1441.42,91.40,42.80,18.56,220.00,5.00,0.00,30.14,M,10.00,M,CLR,M,M,M,M,M,M,M,M,M,M,M,M,M,M,87.52,KMEV 012215Z AUTO 22005KT 10SM CLR 33/06 A3014 RMK AO2,M
BAM,2023-07-01 22:15,-116.8743,40.5990,1382.36,95.00,35.60,12.53,10.00,5.00,0.00,30.13,M,10.00,M,CLR,M,M,M,M,M,M,M,M,M,M,M,M,M,M,90.25,KBAM 012215Z AUTO 01005KT 10SM CLR 35/02 A3013 RMK AO1,M
HTH,2023-07-01 22:15,-118.6315,38.5448,1282.89,95.00,32.00,10.85,330.00,8.00,0.00,30.10,M,10.00,15.00,CLR,M,M,M,M,M,M,M,M,M,M,M,M,M,M,89.71,KHTH 012215Z AUTO 33008G15KT 10SM CLR 35/00 A3010 RMK A01,M
TMT,2023-07-01 22:15,-117.1971,39.4643,1749.34,89.00,35.60,15.16,270.00,3.00,0.00,30.22,M,10.00,M,CLR,M,M,M,M,M,M,M,M,M,M,M,M,M,M,85.03,KTMT 012215Z AUTO 27003KT 10SM CLR 32/02 A3022 RMK AO2 T03160020,M
CXP,2023-07-01 22:30,-119.7326,39.1923,1431.00,93.20,39.20,15.27,310.00,8.00,0.00,30.15,M,10.00,13.00,CLR,M,M,M,M,M,M,M,M,M,M,M,M,M,M,88.92,KCXP 012230Z AUTO 31008G13KT 10SM CLR 34/04 A3015 RMK AO2,M
BVU,2023-07-01 22:35,-114.8611,35.9475,671.00,105.80,28.40,6.77,170.00,6.00,0.00,29.87,M,10.00,M,CLR,M,M,M,M,M,M,M,M,M,M,M,M,M,M,98.33,KBVU 012235Z AUTO 17006KT 10SM CLR 41/M02 A2987 RMK AO2,M
RTS,2023-07-01 22:35,-119.8764,39.6682,1539.00,89.60,41.00,18.33,M,6.00,0.00,30.18,M,10.00,M,FEW,M,M,M,11000.00,M,M,M,M,M,M,M,M,M,M,85.82,KRTS 012235Z AUTO VRB06KT 10SM FEW110 32/05 A3018 RMK AO2,M
05U,2023-07-01 22:35,-116.0051,39.6042,1811.23,89.60,33.80,13.80,0.00,0.00,0.00,30.24,M,10.00,12.00,CLR,M,M,M,M,M,M,M,M,M,M,M,M,M,M,85.59,K05U 012235Z AUTO 00000G12KT 10SM CLR 32/01 A3024 RMK A01,M
MEV,2023-07-01 22:35,-119.7500,38.9963,1441.42,93.20,44.60,18.80,280.00,10.00,0.00,30.14,M,10.00,15.00,CLR,M,M,M,M,M,M,M,M,M,M,M,M,M,M,89.34,KMEV 012235Z AUTO 28010G15KT 260V330 10SM CLR 34/07 A3014 RMK AO2,M
BAM,2023-07-01 22:35,-116.8743,40.5990,1382.36,95.00,37.40,13.46,360.00,7.00,0.00,30.12,M,10.00,M,CLR,M,M,M,M,M,M,M,M,M,M,M,M,M,M,90.46,KBAM 012235Z AUTO 36007KT 10SM CLR 35/03 A3012 RMK AO1,M
HTH,2023-07-01 22:35,-118.6315,38.5448,1282.89,95.00,32.00,10.85,300.00,10.00,0.00,30.09,M,10.00,15.00,CLR,M,M,M,M,M,M,M,M,M,M,M,M,M,M,89.71,KHTH 012235Z AUTO 30010G15KT 10SM CLR 35/M00 A3009 RMK A01,M
TMT,2023-07-01 22:35,-117.1971,39.4643,1749.34,89.00,33.00,13.53,290.00,4.00,0.00,30.22,M,10.00,M,CLR,M,M,M,M,M,M,M,M,M,M,M,M,M,M,85.16,KTMT 012235Z AUTO 29004KT 10SM CLR 32/01 A3022 RMK AO2 T03170005,M
P68,2023-07-01 22:53,-116.0056,39.6014,1993.00,87.00,32.00,13.90,0.00,0.00,0.00,30.20,1014.40,M,M,M,M,M,M,M,M,M,M,M,M,M,M,M,M,M,83.51,KP68 012253Z AUTO 00000KT 31/00 A3020 RMK AO1 SLP144 T03060000,M
DRA,2023-07-01 22:53,-116.0278,36.6206,1009.00,105.00,30.90,7.65,40.00,4.00,0.00,29.96,1008.60,10.00,M,CLR,M,M,M,M,M,M,M,M,M,M,M,M,M,M,98.06,KDRA 012253Z AUTO 04004KT 10SM CLR 41/M01 A2996 RMK AO2 SLP086 T04061006,M
VGT,2023-07-01 22:53,-115.1933,36.2111,667.00,108.00,36.00,8.62,100.00,5.00,0.00,29.86,1009.60,10.00,M,CLR,M,M,M,M,M,M,M,M,M,M,M,M,M,M,101.41,KVGT 012253Z 10005KT 10SM CLR 42/02 A2986 RMK AO2 SLP096 T04220022,M
LOL,2023-07-01 22:53,-118.5701,40.0684,1192.43,97.00,37.00,12.46,120.00,9.00,0.00,30.05,1013.20,10.00,15.00,CLR,M,M,M,M,M,M,M,M,M,M,M,M,M,M,92.13,KLOL 012253Z AUTO 12009G15KT 10SM CLR 36/03 A3005 RMK AO2 SLP132 T03610028,M
ELY,2023-07-01 22:53,-114.8453,39.2950,1909.00,87.00,35.00,15.74,360.00,6.00,0.00,30.23,1013.90,10.00,M,CLR,M,M,M,M,M,M,M,M,M,M,M,M,M,M,83.55,KELY 012253Z AUTO 36006KT 10SM CLR 31/02 A3023 RMK AO2 SLP139 T03060017 $,M
BVU,2023-07-01 22:55,-114.8611,35.9475,671.00,105.80,30.20,7.29,M,5.00,0.00,29.87,M,10.00,M,CLR,M,M,M,M,M,M,M,M,M,M,M,M,M,M,98.56,KBVU 012255Z AUTO VRB05KT 10SM CLR 41/M01 A2987 RMK AO2,M
CXP,2023-07-01 22:55,-119.7326,39.1923,1431.00,93.20,39.20,15.27,260.00,8.00,0.00,30.15,M,10.00,14.00,CLR,M,M,M,M,M,M,M,M,M,M,M,M,M,M,88.92,KCXP 012255Z AUTO 26008G14KT 200V300 10SM CLR 34/04 A3015 RMK AO2,M
LSV,2023-07-01 22:55,-115.0343,36.2362,570.00,110.80,32.70,6.96,0.00,0.00,0.00,29.82,1006.80,10.00,M,CLR,M,M,M,M,M,M,M,M,M,M,M,M,M,M,103.31,KLSV 012255Z AUTO 00000KT 10SM CLR 44/00 A2982 RMK AO2 SLP068 T04380004 $,M
RTS,2023-07-01 22:55,-119.8764,39.6682,1539.00,91.40,39.20,16.15,280.00,6.00,0.00,30.17,M,10.00,14.00,FEW,M,M,M,11000.00,M,M,M,M,M,M,M,M,M,M,87.30,KRTS 012255Z AUTO 28006G14KT 10SM FEW110 33/04 A3017 RMK AO2,M
05U,2023-07-01 22:55,-116.0051,39.6042,1811.23,91.40,33.80,13.05,10.00,7.00,0.00,30.23,M,10.00,13.00,CLR,M,M,M,M,M,M,M,M,M,M,M,M,M,M,87.13,K05U 012255Z AUTO 01007G13KT 10SM CLR 33/01 A3023 RMK A01,M
MEV,2023-07-01 22:55,-119.7500,38.9963,1441.42,91.40,44.60,19.89,290.00,9.00,0.00,30.14,M,10.00,16.00,CLR,M,M,M,M,M,M,M,M,M,M,M,M,M,M,87.68,KMEV 012255Z AUTO 29009G16KT 260V320 10SM CLR 33/07 A3014 RMK AO2,M
BAM,2023-07-01 22:55,-116.8743,40.5990,1382.36,96.80,37.40,12.73,10.00,9.00,0.00,30.11,M,10.00,M,CLR,M,M,M,M,M,M,M,M,M,M,M,M,M,M,92.04,KBAM 012255Z AUTO 01009KT 10SM CLR 36/03 A3011 RMK AO1,M
HTH,2023-07-01 22:55,-118.6315,38.5448,1282.89,96.80,32.00,10.27,350.00,8.00,0.00,30.08,M,10.00,17.00,CLR,M,M,M,M,M,M,M,M,M,M,M,M,M,M,91.19,KHTH 012255Z AUTO 35008G17KT 10SM CLR 36/00 A3008 RMK A01,M
TMT,2023-07-01 22:55,-117.1971,39.4643,1749.34,89.40,33.40,13.67,230.00,5.00,0.00,30.21,M,10.00,M,CLR,M,M,M,M,M,M,M,M,M,M,M,M,M,M,85.42,KTMT 012255Z AUTO 23005KT 10SM CLR 32/01 A3021 RMK AO2 T03190008,M
RNO,2023-07-01 22:55,-119.7711,39.4839,1341.00,97.00,38.00,12.91,M,4.00,0.00,30.10,1012.60,10.00,M,BKN,M,M,M,11000.00,M,M,M,M,M,M,M,M,M,M,92.30,KRNO 012255Z VRB04KT 10SM BKN110 36/03 A3010 RMK AO2 SLP126 T03610033,M
INS,2023-07-01 22:55,-115.6733,36.5872,955.00,101.00,22.10,5.99,0.00,0.00,0.00,29.95,1008.90,10.00,M,CLR,M,M,M,M,M,M,M,M,M,M,M,M,M,M,93.76,KINS 012255Z AUTO 00000KT 10SM CLR 38/M05 A2995 RMK AO2 SLP089 T03841055 $,M
EKO,2023-07-01 22:56,-115.7860,40.8242,1367.00,92.00,39.00,15.77,190.00,6.00,0.00,30.15,1014.60,10.00,M,CLR,M,M,M,M,M,M,M,M,M,M,M,M,M,M,87.74,KEKO 012256Z AUTO 19006KT 10SM CLR 33/04 A3015 RMK AO2 SLP146 T03330039,M
WMC,2023-07-01 22:56,-117.8072,40.9019,1315.00,97.00,34.00,11.06,210.00,8.00,0.00,30.08,1013.30,10.00,M,CLR,M,M,M,M,M,M,M,M,M,M,M,M,M,M,91.64,KWMC 012256Z AUTO 21008KT 10SM CLR 36/01 A3008 RMK AO2 SLP133 T03610011 $,M
NFL,2023-07-01 22:56,-118.7010,39.4166,1199.00,98.00,36.00,11.58,300.00,8.00,0.00,30.06,1014.80,10.00,M,CLR,M,M,M,M,M,M,M,M,M,M,M,M,M,M,92.87,KNFL 012256Z AUTO 30008KT 10SM CLR 37/02 A3006 RMK AO2 SLP148 T03670022,M
HND,2023-07-01 22:56,-115.1344,35.9729,742.79,105.00,37.00,9.76,310.00,4.00,0.00,29.92,1011.20,10.00,M,CLR,M,M,M,M,M,M,M,M,M,M,M,M,M,M,99.07,KHND 012256Z 31004KT 10SM CLR 41/03 A2992 RMK AO2 SLP112 T04060028,M
TPH,2023-07-01 22:56,-117.0904,38.0505,1654.00,93.00,54.00,26.87,M,3.00,0.00,30.16,1012.50,10.00,M,CLR,M,M,M,M,M,M,M,M,M,M,M,M,M,M,90.76,KTPH 012256Z AUTO VRB03KT 10SM CLR 34/12 A3016 RMK AO2 SLP125 T03390122,M
LAS,2023-07-01 22:56,-115.1634,36.0719,663.00,107.00,34.00,8.17,30.00,4.00,0.00,29.88,1008.40,10.00,M,CLR,M,M,M,M,M,M,M,M,M,M,M,M,M,M,100.26,KLAS 012256Z 03004KT 10SM CLR 42/01 A2988 RMK AO2 SLP084 T04170011,M
BVU,2023-07-01 23:15,-114.8611,35.9475,671.00,105.80,30.20,7.29,0.00,0.00,0.00,29.86,M,10.00,M,CLR,M,M,M,M,M,M,M,M,M,M,M,M,M,M,98.56,KBVU 012315Z AUTO 00000KT 10SM CLR 41/M01 A2986 RMK AO2,M
CXP,2023-07-01 23:15,-119.7326,39.1923,1431.00,93.20,39.20,15.27,280.00,9.00,0.00,30.14,M,10.00,15.00,CLR,M,M,M,M,M,M,M,M,M,M,M,M,M,M,88.92,KCXP 012315Z AUTO 28009G15KT 10SM CLR 34/04 A3014 RMK AO2,M
RTS,2023-07-01 23:15,-119.8764,39.6682,1539.00,91.40,41.00,17.32,280.00,7.00,0.00,30.17,M,10.00,19.00,FEW,M,M,M,11000.00,M,M,M,M,M,M,M,M,M,M,87.40,KRTS 012315Z AUTO 28007G19KT 10SM FEW110 33/05 A3017 RMK AO2,M
05U,2023-07-01 23:15,-116.0051,39.6042,1811.23,89.60,33.80,13.80,20.00,6.00,0.00,30.23,M,10.00,M,CLR,M,M,M,M,M,M,M,M,M,M,M,M,M,M,85.59,K05U 012315Z AUTO 02006KT 10SM CLR 32/01 A3023 RMK A01,M
MEV,2023-07-01 23:15,-119.7500,38.9963,1441.42,93.20,44.60,18.80,290.00,9.00,0.00,30.13,M,10.00,M,CLR,M,M,M,M,M,M,M,M,M,M,M,M,M,M,89.34,KMEV 012315Z AUTO 29009KT 10SM CLR 34/07 A3013 RMK AO2,M
BAM,2023-07-01 23:15,-116.8743,40.5990,1382.36,96.80,35.60,11.86,20.00,6.00,0.00,30.11,M,10.00,M,CLR,M,M,M,M,M,M,M,M,M,M,M,M,M,M,91.72,KBAM 012315Z AUTO 02006KT 10SM CLR 36/02 A3011 RMK AO1,M
HTH,2023-07-01 23:15,-118.6315,38.5448,1282.89,96.80,32.00,10.27,340.00,9.00,0.00,30.08,M,10.00,15.00,CLR,M,M,M,M,M,M,M,M,M,M,M,M,M,M,91.19,KHTH 012315Z AUTO 34009G15KT 310V020 10SM CLR 36/M00 A3008 RMK A01,M
TMT,2023-07-01 23:15,-117.1971,39.4643,1749.34,89.40,34.20,14.12,220.00,5.00,0.00,30.21,M,10.00,M,CLR,M,M,M,M,M,M,M,M,M,M,M,M,M,M,85.43,KTMT 012315Z AUTO 22005KT 10SM CLR 32/01 A3021 RMK AO2 T03190012,M
BVU,2023-07-01 23:35,-114.8611,35.9475,671.00,105.80,30.20,7.29,120.00,6.00,0.00,29.85,M,10.00,M,CLR,M,M,M,M,M,M,M,M,M,M,M,M,M,M,98.56,KBVU 012335Z AUTO 12006KT 10SM CLR 41/M01 A2985 RMK AO2,M
CXP,2023-07-01 23:35,-119.7326,39.1923,1431.00,93.20,39.20,15.27,260.00,8.00,0.00,30.14,M,10.00,M,CLR,M,M,M,M,M,M,M,M,M,M,M,M,M,M,88.92,KCXP 012335Z AUTO 26008KT 10SM CLR 34/04 A3014 RMK AO2,M
RTS,2023-07-01 23:35,-119.8764,39.6682,1539.00,89.60,42.80,19.64,300.00,15.00,0.00,30.17,M,10.00,M,CLR,M,M,M,M,M,M,M,M,M,M,M,M,M,M,85.93,KRTS 012335Z AUTO 30015KT 10SM CLR 32/06 A3017 RMK AO2,M
05U,2023-07-01 23:35,-116.0051,39.6042,1811.23,91.40,35.60,14.02,10.00,7.00,0.00,30.22,M,10.00,M,CLR,M,M,M,M,M,M,M,M,M,M,M,M,M,M,87.17,K05U 012335Z AUTO 01007KT 10SM CLR 33/02 A3022 RMK A01,M
MEV,2023-07-01 23:35,-119.7500,38.9963,1441.42,93.20,44.60,18.80,260.00,11.00,0.00,30.13,M,10.00,18.00,CLR,M,M,M,M,M,M,M,M,M,M,M,M,M,M,89.34,KMEV 012335Z AUTO 26011G18KT 10SM CLR 34/07 A3013 RMK AO2,M
BAM,2023-07-01 23:35,-116.8743,40.5990,1382.36,96.80,37.40,12.73,20.00,8.00,0.00,30.10,M,10.00,M,CLR,M,M,M,M,M,M,M,M,M,M,M,M,M,M,92.04,KBAM 012335Z AUTO 02008KT 10SM CLR 36/03 A3010 RMK AO1,M
HTH,2023-07-01 23:35,-118.6315,38.5448,1282.89,95.00,32.00,10.85,350.00,8.00,0.00,30.07,M,10.00,M,CLR,M,M,M,M,M,M,M,M,M,M,M,M,M,M,89.71,KHTH 012335Z AUTO 35008KT 320V020 10SM CLR 35/00 A3007 RMK A01,M
TMT,2023-07-01 23:35,-117.1971,39.4643,1749.34,89.60,35.40,14.71,250.00,6.00,0.00,30.20,M,10.00,M,CLR,M,M,M,M,M,M,M,M,M,M,M,M,M,M,85.62,KTMT 012335Z AUTO 25006KT 10SM CLR 32/02 A3020 RMK AO2 T03200019,M
DRA,2023-07-01 23:53,-116.0278,36.6206,1009.00,104.00,30.90,7.91,250.00,13.00,0.00,29.94,1008.10,10.00,20.00,CLR,M,M,M,M,M,M,M,M,M,M,M,M,M,M,97.12,KDRA 012353Z AUTO 25013G20KT 10SM CLR 40/M01 A2994 RMK AO2 SLP081 T04001006 10411 20356 56018,M
ELY,2023-07-01 23:53,-114.8453,39.2950,1909.00,89.00,37.00,15.92,20.00,4.00,0.00,30.22,1013.40,10.00,M,CLR,M,M,M,M,M,M,M,M,M,M,M,M,M,M,85.23,KELY 012353Z AUTO 02004KT 10SM CLR 32/03 A3022 RMK AO2 SLP134 T03170028 10317 20261 56012 $,M
VGT,2023-07-01 23:53,-115.1933,36.2111,667.00,107.00,36.00,8.85,220.00,7.00,0.00,29.84,1009.00,10.00,M,CLR,M,M,M,M,M,M,M,M,M,M,M,M,M,M,100.62,KVGT 012353Z 22007KT 10SM CLR 42/02 A2984 RMK AO2 SLP090 T04170022 10422 20378 56022,M
P68,2023-07-01 23:53,-116.0056,39.6014,1993.00,90.00,33.00,13.26,10.00,7.00,0.00,30.19,1013.70,M,M,M,M,M,M,M,M,M,M,M,M,M,M,M,M,M,85.92,KP68 012353Z AUTO 01007KT 32/01 A3019 RMK AO1 SLP137 T03220006 10328 20278 56014,M
LOL,2023-07-01 23:53,-118.5701,40.0684,1192.43,97.00,38.00,12.91,140.00,7.00,0.00,30.03,1012.60,10.00,M,CLR,M,M,M,M,M,M,M,M,M,M,M,M,M,M,92.30,KLOL 012353Z AUTO 14007KT 120V180 10SM CLR 36/03 A3003 RMK AO2 SLP126 T03610033 10367 20311 56017,M
BVU,2023-07-01 23:55,-114.8611,35.9475,671.00,105.80,30.20,7.29,60.00,4.00,0.00,29.85,M,10.00,M,CLR,M,M,M,M,M,M,M,M,M,M,M,M,M,M,98.56,KBVU 012355Z AUTO 06004KT 10SM CLR 41/M01 A2985 RMK AO2,M
CXP,2023-07-01 23:55,-119.7326,39.1923,1431.00,93.20,41.00,16.37,280.00,11.00,0.00,30.14,M,10.00,M,CLR,M,M,M,M,M,M,M,M,M,M,M,M,M,M,89.03,KCXP 012355Z AUTO 28011KT 10SM CLR 34/05 A3014 RMK AO2,M
RNO,2023-07-01 23:55,-119.7711,39.4839,1341.00,95.00,41.00,15.49,310.00,7.00,0.00,30.09,1012.50,10.00,M,BKN,M,M,M,13000.00,M,M,M,M,M,M,M,M,M,M,90.70,KRNO 012355Z 31007KT 10SM BKN130 35/05 A3009 RMK AO2 SLP125 T03500050 10372 20306 56013,M
LSV,2023-07-01 23:55,-115.0343,36.2362,570.00,108.00,30.60,6.94,250.00,6.00,0.00,29.80,1006.20,10.00,M,CLR,M,M,M,M,M,M,M,M,M,M,M,M,M,M,100.50,KLSV 012355Z AUTO 25006KT 10SM CLR 42/M01 A2980 RMK AO2 SLP062 T04221008 10440 20398 57021 $,M
RTS,2023-07-01 23:55,-119.8764,39.6682,1539.00,89.60,44.60,21.04,310.00,9.00,0.00,30.17,M,10.00,M,FEW,SCT,M,M,10000.00,12000.00,M,M,M,M,M,M,M,M,M,86.07,KRTS 012355Z AUTO 31009KT 10SM FEW100 SCT120 32/07 A3017 RMK AO2,M
05U,2023-07-01 23:55,-116.0051,39.6042,1811.23,91.40,33.80,13.05,10.00,6.00,0.00,30.22,M,10.00,12.00,CLR,M,M,M,M,M,M,M,M,M,M,M,M,M,M,87.13,K05U 012355Z AUTO 01006G12KT 10SM CLR 33/01 A3022 RMK A01,M
MEV,2023-07-01 23:55,-119.7500,38.9963,1441.42,91.40,42.80,18.56,280.00,12.00,0.00,30.13,M,10.00,M,CLR,M,M,M,M,M,M,M,M,M,M,M,M,M,M,87.52,KMEV 012355Z AUTO 28012KT 10SM CLR 33/06 A3013 RMK AO2,M
BAM,2023-07-01 23:55,-116.8743,40.5990,1382.36,96.80,37.40,12.73,20.00,8.00,0.00,30.10,M,10.00,M,CLR,M,M,M,M,M,M,M,M,M,M,M,M,M,M,92.04,KBAM 012355Z AUTO 02008KT 10SM CLR 36/03 A3010 RMK AO1,M
HTH,2023-07-01 23:55,-118.6315,38.5448,1282.89,96.80,32.00,10.27,320.00,10.00,0.00,30.07,M,10.00,M,CLR,M,M,M,M,M,M,M,M,M,M,M,M,M,M,91.19,KHTH 012355Z AUTO 32010KT 10SM CLR 36/M00 A3007 RMK A01,M
TMT,2023-07-01 23:55,-117.1971,39.4643,1749.34,88.00,34.20,14.75,230.00,5.00,0.00,30.20,M,10.00,M,CLR,M,M,M,M,M,M,M,M,M,M,M,M,M,M,84.26,KTMT 012355Z AUTO 23005KT 10SM CLR 31/01 A3020 RMK AO2 T03110012 10321 20275,M
INS,2023-07-01 23:55,-115.6733,36.5872,955.00,102.40,18.70,4.99,270.00,3.00,0.00,29.93,1008.20,10.00,M,CLR,M,M,M,M,M,M,M,M,M,M,M,M,M,M,94.59,KINS 012355Z AUTO 27003KT 10SM CLR 39/M07 A2993 RMK AO2 SLP082 T03911074 10394 20351 57019 $,M
EKO,2023-07-01 23:56,-115.7860,40.8242,1367.00,91.00,39.00,16.23,M,5.00,0.00,30.14,1014.90,10.00,M,CLR,M,M,M,M,M,M,M,M,M,M,M,M,M,M,86.94,KEKO 012356Z AUTO VRB05KT 10SM CLR 33/04 A3014 RMK AO2 SLP149 T03280039 10344 20278 56015,M
NFL,2023-07-01 23:56,-118.7010,39.4166,1199.00,98.00,37.00,12.05,340.00,7.00,0.00,30.05,1014.40,10.00,M,CLR,M,M,M,M,M,M,M,M,M,M,M,M,M,M,93.05,KNFL 012356Z AUTO 34007KT 10SM CLR 37/03 A3005 RMK AO2 SLP144 T03670028 10372 20317 56016,M
HND,2023-07-01 23:56,-115.1344,35.9729,742.79,106.00,37.00,9.51,M,6.00,0.00,29.90,1010.60,10.00,M,CLR,M,M,M,M,M,M,M,M,M,M,M,M,M,M,99.86,KHND 012356Z VRB06KT 10SM CLR 41/03 A2990 RMK AO2 SLP106 T04110028 10411 20367 56022,M
LAS,2023-07-01 23:56,-115.1634,36.0719,663.00,106.00,34.00,8.44,90.00,5.00,0.00,29.86,1007.80,10.00,M,FEW,M,M,M,14000.00,M,M,M,M,M,M,M,M,M,M,99.31,KLAS 012356Z 09005KT 10SM FEW140 41/01 A2986 RMK AO2 SLP078 T04110011 10417 20372 56022,M
WMC,2023-07-01 23:56,-117.8072,40.9019,1315.00,97.00,35.00,11.56,330.00,7.00,0.00,30.07,1013.20,10.00,M,CLR,M,M,M,M,M,M,M,M,M,M,M,M,M,M,91.81,KWMC 012356Z AUTO 33007KT 10SM CLR 36/02 A3007 RMK AO2 SLP132 T03610017 10372 20328 56014 $,M
TPH,2023-07-01 23:56,-117.0904,38.0505,1654.00,93.00,51.00,24.15,290.00,8.00,0.00,30.15,1012.20,10.00,M,CLR,M,M,M,M,M,M,M,M,M,M,M,M,M,M,90.11,KTPH 012356Z AUTO 29008KT 10SM CLR 34/11 A3015 RMK AO2 SLP122 T03390106 10350 20294 56015,M
