station,valid,lon,lat,elevation,tmpf,dwpf,relh,drct,sknt,p01i,alti,mslp,vsby,gust,skyc1,skyc2,skyc3,skyc4,skyl1,skyl2,skyl3,skyl4,wxcodes,ice_accretion_1hr,ice_accretion_3hr,ice_accretion_6hr,peak_wind_gust,peak_wind_drct,peak_wind_time,feel,metar,snowdepth
05U,2024-04-27 00:10,-116.0051,39.6042,1811.23,M,M,M,160.00,12.00,0.00,29.79,M,10.00,17.00,M,M,M,M,M,M,M,M,M,M,M,M,M,M,M,M,K05U 270010Z AUTO 16012G17KT 10SM A2979 RMK A01,M
BVU,2024-04-27 00:15,-114.8611,35.9475,671.00,57.20,44.60,62.69,0.00,0.00,0.00,29.68,M,10.00,M,CLR,M,M,M,M,M,M,M,M,M,M,M,M,M,M,57.20,KBVU 270015Z AUTO 00000KT 10SM CLR 14/07 A2968 RMK AO2,M
CXP,2024-04-27 00:15,-119.7326,39.1923,1431.00,46.40,35.60,65.83,0.00,0.00,0.00,29.92,M,10.00,M,FEW,SCT,BKN,M,2300.00,6500.00,8000.00,M,M,M,M,M,M,M,M,46.40,KCXP 270015Z AUTO 00000KT 10SM FEW023 SCT065 BKN080 08/02 A2992 RMK AO2,M
RTS,2024-04-27 00:15,-119.8764,39.6682,1539.00,42.80,35.60,75.50,300.00,10.00,0.00,29.93,M,10.00,M,SCT,BKN,BKN,M,5500.00,7000.00,8000.00,M,M,M,M,M,M,M,M,36.51,KRTS 270015Z AUTO 30010KT 10SM SCT055 BKN070 BKN080 06/02 A2993 RMK AO2,M
MEV,2024-04-27 00:15,-119.7500,38.9963,1441.42,48.20,33.80,57.26,M,4.00,0.00,29.91,M,10.00,M,FEW,SCT,BKN,M,2700.00,3800.00,5500.00,M,M,M,M,M,M,M,M,46.34,KMEV 270015Z AUTO VRB04KT 10SM FEW027 SCT038 BKN055 09/01 A2991 RMK AO2 LTG DSNT NE AND E,M
HTH,2024-04-27 00:15,-118.6315,38.5448,1282.89,53.60,30.20,40.54,330.00,15.00,0.00,29.85,M,10.00,M,FEW,M,M,M,11000.00,M,M,M,M,M,M,M,M,M,M,53.60,KHTH 270015Z AUTO 33015KT 10SM FEW110 12/M01 A2985 RMK A01,M
10U,2024-04-27 00:15,-116.1876,41.9532,1637.00,48.20,37.40,66.05,300.00,6.00,0.00,29.76,M,10.00,M,FEW,SCT,BKN,M,2500.00,5000.00,6000.00,M,M,M,M,M,M,M,M,45.04,K10U 270015Z AUTO 30006KT 10SM FEW025 SCT050 BKN060 09/03 A2976 RMK AO2,M
BAM,2024-04-27 00:15,-116.8743,40.5990,1382.36,50.00,39.20,66.27,20.00,11.00,0.00,29.82,M,10.00,M,SCT,BKN,BKN,M,3400.00,4300.00,5500.00,M,M,M,M,M,M,M,M,50.00,KBAM 270015Z AUTO 02011KT 10SM SCT034 BKN043 BKN055 10/04 A2982 RMK AO1,M
TMT,2024-04-27 00:15,-117.1971,39.4643,1749.34,44.00,35.40,71.54,30.00,6.00,0.00,29.83,M,10.00,M,SCT,SCT,BKN,M,4900.00,6500.00,8500.00,M,M,M,M,M,M,M,M,39.98,KTMT 270015Z AUTO 03006KT 10SM SCT049 SCT065 BKN085 07/02 A2983 RMK AO2 T00660019,M
LOL,2024-04-27 00:19,-118.5701,40.0684,1192.43,50.00,38.00,63.23,320.00,17.00,T,29.83,M,8.00,30.00,BKN,BKN,OVC,M,6000.00,8000.00,9000.00,M,RA,M,M,M,36.00,330.00,2024-04-27 00:06,50.00,KLOL 270019Z AUTO 32017G30KT 8SM RA BKN060 BKN080 OVC090 10/03 A2983 RMK AO2 PK WND 33036/0006 LTG DSNT SE RAB13 P0000 T01000033,M
05U,2024-04-27 00:30,-116.0051,39.6042,1811.23,M,M,M,140.00,12.00,0.00,29.80,M,10.00,18.00,M,M,M,M,M,M,M,M,M,M,M,M,M,M,M,M,K05U 270030Z AUTO 14012G18KT 10SM A2980 RMK A01,M
BVU,2024-04-27 00:35,-114.8611,35.9475,671.00,59.00,44.60,58.77,240.00,5.00,0.00,29.68,M,10.00,M,FEW,M,M,M,11000.00,M,M,M,M,M,M,M,M,M,M,59.00,KBVU 270035Z AUTO 24005KT 10SM FEW110 15/07 A2968 RMK AO2 LTG DSNT E AND SE,M
CXP,2024-04-27 00:35,-119.7326,39.1923,1431.00,44.60,37.40,75.68,280.00,4.00,0.00,29.93,M,7.00,M,FEW,SCT,BKN,M,2200.00,3900.00,4500.00,M,-RA,M,M,M,M,M,M,42.13,KCXP 270035Z AUTO 28004KT 7SM -RA FEW022 SCT039 BKN045 07/03 A2993 RMK AO2,M
RTS,2024-04-27 00:35,-119.8764,39.6682,1539.00,42.80,33.80,70.28,300.00,11.00,0.00,29.93,M,10.00,M,BKN,BKN,M,M,6500.00,8000.00,M,M,M,M,M,M,M,M,M,36.11,KRTS 270035Z AUTO 30011KT 10SM BKN065 BKN080 06/01 A2993 RMK AO2,M
MEV,2024-04-27 00:35,-119.7500,38.9963,1441.42,46.40,32.00,57.00,290.00,10.00,0.00,29.91,M,10.00,M,SCT,SCT,BKN,M,4000.00,5500.00,6000.00,M,M,M,M,M,M,M,M,41.03,KMEV 270035Z AUTO 29010KT 10SM SCT040 SCT055 BKN060 08/M00 A2991 RMK AO2,M
HTH,2024-04-27 00:35,-118.6315,38.5448,1282.89,48.20,33.80,57.26,310.00,32.00,0.00,29.87,M,10.00,40.00,FEW,M,M,M,10000.00,M,M,M,M,M,M,M,M,M,M,38.70,KHTH 270035Z AUTO 31032G40KT 10SM FEW100 09/01 A2987 RMK A01,M
BAM,2024-04-27 00:35,-116.8743,40.5990,1382.36,46.40,41.00,81.34,50.00,7.00,0.00,29.83,M,10.00,M,SCT,BKN,OVC,M,3100.00,4100.00,8000.00,M,M,M,M,M,M,M,M,42.33,KBAM 270035Z AUTO 05007KT 10SM SCT031 BKN041 OVC080 08/05 A2983 RMK AO1,M
TMT,2024-04-27 00:35,-117.1971,39.4643,1749.34,45.50,34.30,64.68,360.00,8.00,0.00,29.83,M,10.00,M,SCT,BKN,OVC,M,3700.00,6500.00,8500.00,M,M,M,M,M,M,M,M,40.74,KTMT 270035Z AUTO 36008KT 10SM SCT037 BKN065 OVC085 08/01 A2983 RMK AO2 T00750013,M
10U,2024-04-27 00:35,-116.1876,41.9532,1637.00,50.00,32.00,49.81,310.00,9.00,0.00,29.77,M,10.00,15.00,BKN,OVC,M,M,5000.00,6500.00,M,M,M,M,M,M,M,M,M,50.00,K10U 270035Z AUTO 31009G15KT 10SM BKN050 OVC065 10/00 A2977 RMK AO2,M
05U,2024-04-27 00:50,-116.0051,39.6042,1811.23,M,M,M,140.00,15.00,0.00,29.80,M,10.00,20.00,M,M,M,M,M,M,M,M,M,M,M,M,M,M,M,M,K05U 270050Z AUTO 14015G20KT 10SM A2980 RMK A01,M
P68,2024-04-27 00:53,-116.0056,39.6014,1993.00,47.00,35.00,62.84,330.00,14.00,0.00,29.77,1005.00,M,21.00,M,M,M,M,M,M,M,M,M,M,M,M,M,M,M,40.50,KP68 270053Z AUTO 33014G21KT 08/02 A2977 RMK AO1 SLP050 T00830017,M
DRA,2024-04-27 00:53,-116.0278,36.6206,1009.00,62.00,36.00,37.83,270.00,6.00,0.00,29.66,1001.60,10.00,M,FEW,M,M,M,10000.00,M,M,M,M,M,M,M,M,M,M,62.00,KDRA 270053Z AUTO 27006KT 10SM FEW100 17/02 A2966 RMK AO2 SLP016 T01670022,M
ELY,2024-04-27 00:53,-114.8453,39.2950,1909.00,41.00,36.00,82.22,360.00,8.00,0.00,29.73,1004.10,10.00,M,FEW,BKN,OVC,M,1500.00,3300.00,9500.00,M,M,M,M,M,M,M,M,35.20,KELY 270053Z AUTO 36008KT 10SM FEW015 BKN033 OVC095 05/02 A2973 RMK AO2 SLP041 T00500022,M
VGT,2024-04-27 00:53,-115.1933,36.2111,667.00,61.00,43.00,51.48,190.00,4.00,0.00,29.68,1005.70,10.00,M,CLR,M,M,M,M,M,M,M,M,M,M,M,M,M,M,61.00,KVGT 270053Z 19004KT 10SM CLR 16/06 A2968 RMK AO2 SLP057 T01610061,M
LOL,2024-04-27 00:53,-118.5701,40.0684,1192.43,53.00,35.00,50.27,320.00,13.00,T,29.83,1009.60,10.00,M,FEW,SCT,BKN,M,5500.00,7500.00,10000.00,M,M,M,M,M,36.00,330.00,2024-04-27 00:06,53.00,KLOL 270053Z AUTO 32013KT 10SM FEW055 SCT075 BKN100 12/02 A2983 RMK AO2 PK WND 33036/0006 RAB13E35 SLP096 P0000 T01170017 $,M
BVU,2024-04-27 00:55,-114.8611,35.9475,671.00,59.00,44.60,58.77,M,4.00,0.00,29.68,M,10.00,M,CLR,M,M,M,M,M,M,M,M,M,M,M,M,M,M,59.00,KBVU 270055Z AUTO VRB04KT 10SM CLR 15/07 A2968 RMK AO2 LTG DSNT E AND SE,M
CXP,2024-04-27 00:55,-119.7326,39.1923,1431.00,44.60,35.60,70.48,M,4.00,0.01,29.93,M,5.00,M,FEW,FEW,SCT,M,2200.00,2900.00,3800.00,M,-RA HZ,M,M,M,M,M,M,42.13,KCXP 270055Z AUTO VRB04KT 5SM -RA HZ FEW022 FEW029 SCT038 07/02 A2993 RMK AO2 P0001,M
RNO,2024-04-27 00:55,-119.7711,39.4839,1341.00,51.00,34.00,52.00,300.00,6.00,0.00,29.91,1010.90,10.00,M,SCT,BKN,BKN,M,4500.00,9000.00,20000.00,M,M,M,M,M,M,M,M,51.00,KRNO 270055Z 30006KT 10SM SCT045 BKN090 BKN200 11/01 A2991 RMK AO2 SLP109 T01060011,M
RTS,2024-04-27 00:55,-119.8764,39.6682,1539.00,42.80,33.80,70.28,290.00,11.00,0.00,29.93,M,10.00,16.00,FEW,M,M,M,6000.00,M,M,M,M,M,M,M,M,M,M,36.11,KRTS 270055Z AUTO 29011G16KT 10SM FEW060 06/01 A2993 RMK AO2,M
MEV,2024-04-27 00:55,-119.7500,38.9963,1441.42,46.40,32.00,57.00,280.00,6.00,0.00,29.92,M,10.00,12.00,FEW,SCT,BKN,M,2400.00,4000.00,5000.00,M,M,M,M,M,M,M,M,42.87,KMEV 270055Z AUTO 28006G12KT 10SM FEW024 SCT040 BKN050 08/00 A2992 RMK AO2,M
HTH,2024-04-27 00:55,-118.6315,38.5448,1282.89,44.60,35.60,70.48,240.00,10.00,0.01,29.86,M,5.00,19.00,FEW,SCT,BKN,M,2300.00,2700.00,4700.00,M,HZ,M,M,M,M,M,M,38.77,KHTH 270055Z AUTO 24010G19KT 5SM HZ FEW023 SCT027 BKN047 07/02 A2986 RMK A01 P0001,M
10U,2024-04-27 00:55,-116.1876,41.9532,1637.00,50.00,33.80,53.54,340.00,14.00,0.00,29.77,M,10.00,M,BKN,OVC,M,M,5500.00,7000.00,M,M,M,M,M,M,M,M,M,50.00,K10U 270055Z AUTO 34014KT 10SM BKN055 OVC070 10/01 A2977 RMK AO2,M
INS,2024-04-27 00:55,-115.6733,36.5872,955.00,60.30,39.40,45.92,100.00,6.00,0.00,29.68,1002.20,10.00,M,SCT,M,M,M,15000.00,M,M,M,M,M,M,M,M,M,M,60.30,KINS 270055Z AUTO 10006KT 10SM SCT150 16/04 A2968 RMK AO2 LTG DSNT W SLP022 T01570041 $,M
LSV,2024-04-27 00:55,-115.0343,36.2362,570.00,59.70,45.30,58.86,200.00,5.00,0.00,29.65,1003.10,10.00,M,FEW,M,M,M,12000.00,M,M,M,M,M,M,M,M,M,M,59.70,KLSV 270055Z AUTO 20005KT 10SM FEW120 15/07 A2965 RMK AO2 SLP031 T01540074 $,M
BAM,2024-04-27 00:55,-116.8743,40.5990,1382.36,48.20,41.00,76.01,10.00,8.00,0.00,29.83,M,10.00,M,SCT,SCT,BKN,M,4900.00,7500.00,9000.00,M,M,M,M,M,M,M,M,44.07,KBAM 270055Z AUTO 01008KT 10SM SCT049 SCT075 BKN090 09/05 A2983 RMK AO1,M
TMT,2024-04-27 00:55,-117.1971,39.4643,1749.34,45.30,35.00,67.01,40.00,11.00,0.00,29.83,M,10.00,14.00,BKN,BKN,OVC,M,3800.00,4600.00,8000.00,M,M,M,M,M,M,M,M,39.27,KTMT 270055Z AUTO 04011G14KT 10SM BKN038 BKN046 OVC080 07/02 A2983 RMK AO2 T00740016,M
EKO,2024-04-27 00:56,-115.7860,40.8242,1367.00,49.00,35.00,58.30,270.00,8.00,0.00,29.75,1006.00,10.00,M,BKN,BKN,M,M,8000.00,9000.00,M,M,M,M,M,M,M,M,M,45.05,KEKO 270056Z AUTO 27008KT 10SM BKN080 BKN090 09/02 A2975 RMK AO2 SLP060 T00940017,M
WMC,2024-04-27 00:56,-117.8072,40.9019,1315.00,56.00,34.00,43.30,300.00,9.00,0.00,29.81,1007.50,10.00,M,FEW,SCT,M,M,4900.00,9500.00,M,M,M,M,M,M,M,M,M,56.00,KWMC 270056Z AUTO 30009KT 10SM FEW049 SCT095 13/01 A2981 RMK AO2 LTG DSNT NW SLP075 T01330011,M
NFL,2024-04-27 00:56,-118.7010,39.4166,1199.00,54.00,34.00,46.57,310.00,17.00,T,29.84,1008.20,10.00,26.00,SCT,BKN,BKN,BKN,3000.00,5000.00,10000.00,25000.00,M,M,M,M,35.00,310.00,2024-04-27 00:24,54.00,KNFL 270056Z 31017G26KT 10SM SCT030 BKN050 BKN100 BKN250 12/01 A2984 RMK AO2 PK WND 31035/0024 RAE25 SLP082 CB DSNT E-SE SH VC ALQDS P0000 T01220011,M
HND,2024-04-27 00:56,-115.1344,35.9729,742.79,60.00,41.00,49.39,M,4.00,0.00,29.70,1006.60,10.00,M,CLR,M,M,M,M,M,M,M,M,M,M,M,M,M,M,60.00,KHND 270056Z VRB04KT 10SM CLR 16/05 A2970 RMK AO2 SLP066 T01560050,M
TPH,2024-04-27 00:56,-117.0904,38.0505,1654.00,52.00,23.00,31.93,330.00,22.00,0.00,29.77,1005.10,10.00,34.00,CLR,M,M,M,M,M,M,M,M,M,M,M,39.00,310.00,2024-04-26 23:57,52.00,KTPH 270056Z AUTO 33022G34KT 10SM CLR 11/M05 A2977 RMK AO2 PK WND 31039/2357 SLP051 T01111050,M
LAS,2024-04-27 00:56,-115.1634,36.0719,663.00,59.00,40.00,49.23,0.00,0.00,0.00,29.69,1004.40,10.00,M,FEW,FEW,SCT,BKN,4500.00,11000.00,15000.00,22000.00,M,M,M,M,M,M,M,59.00,KLAS 270056Z 00000KT 10SM FEW045 FEW110 SCT150 BKN220 15/04 A2969 RMK AO2 SLP044 T01500044,M
05U,2024-04-27 01:10,-116.0051,39.6042,1811.23,M,M,M,140.00,9.00,0.00,29.80,M,10.00,18.00,M,M,M,M,M,M,M,M,M,M,M,M,M,M,M,M,K05U 270110Z AUTO 14009G18KT 10SM A2980 RMK A01,M
BVU,2024-04-27 01:15,-114.8611,35.9475,671.00,59.00,42.80,54.86,250.00,4.00,0.00,29.68,M,10.00,M,CLR,M,M,M,M,M,M,M,M,M,M,M,M,M,M,59.00,KBVU 270115Z AUTO 25004KT 10SM CLR 15/06 A2968 RMK AO2,M
CXP,2024-04-27 01:15,-119.7326,39.1923,1431.00,46.40,35.60,65.83,290.00,5.00,0.00,29.92,M,10.00,M,FEW,FEW,M,M,6000.00,7500.00,M,M,M,M,M,M,M,M,M,43.50,KCXP 270115Z AUTO 29005KT 10SM FEW060 FEW075 08/02 A2992 RMK AO2,M
RTS,2024-04-27 01:15,-119.8764,39.6682,1539.00,42.80,33.80,70.28,300.00,11.00,0.00,29.93,M,10.00,M,FEW,M,M,M,10000.00,M,M,M,M,M,M,M,M,M,M,36.11,KRTS 270115Z AUTO 30011KT 10SM FEW100 06/01 A2993 RMK AO2,M
MEV,2024-04-27 01:15,-119.7500,38.9963,1441.42,46.40,32.00,57.00,10.00,11.00,0.00,29.91,M,10.00,M,FEW,FEW,SCT,M,2300.00,3000.00,5000.00,M,M,M,M,M,M,M,M,40.66,KMEV 270115Z AUTO 01011KT 10SM FEW023 FEW030 SCT050 08/00 A2991 RMK AO2,M
BAM,2024-04-27 01:15,-116.8743,40.5990,1382.36,50.00,41.00,71.07,20.00,9.00,0.00,29.82,M,10.00,M,SCT,SCT,SCT,M,4600.00,5500.00,7500.00,M,M,M,M,M,M,M,M,50.00,KBAM 270115Z AUTO 02009KT 10SM SCT046 SCT055 SCT075 10/05 A2982 RMK AO1,M
HTH,2024-04-27 01:15,-118.6315,38.5448,1282.89,48.20,33.80,57.26,230.00,10.00,0.00,29.85,M,10.00,M,FEW,FEW,SCT,M,2400.00,2800.00,6000.00,M,M,M,M,M,M,M,M,43.28,KHTH 270115Z AUTO 23010KT 10SM FEW024 FEW028 SCT060 09/01 A2985 RMK A01,M
10U,2024-04-27 01:15,-116.1876,41.9532,1637.00,50.00,32.00,49.81,330.00,9.00,0.00,29.77,M,10.00,16.00,SCT,BKN,OVC,M,6000.00,6500.00,7500.00,M,M,M,M,M,M,M,M,50.00,K10U 270115Z AUTO 33009G16KT 10SM SCT060 BKN065 OVC075 10/00 A2977 RMK AO2,M
TMT,2024-04-27 01:15,-117.1971,39.4643,1749.34,43.50,33.60,67.88,30.00,6.00,0.00,29.83,M,10.00,M,BKN,BKN,BKN,M,4000.00,4900.00,6000.00,M,M,M,M,M,M,M,M,39.38,KTMT 270115Z AUTO 03006KT 10SM BKN040 BKN049 BKN060 06/01 A2983 RMK AO2 T00640009,M
05U,2024-04-27 01:30,-116.0051,39.6042,1811.23,M,M,M,150.00,13.00,0.00,29.79,M,10.00,M,M,M,M,M,M,M,M,M,M,M,M,M,M,M,M,M,K05U 270130Z AUTO 15013KT 10SM A2979 RMK A01,M
BVU,2024-04-27 01:35,-114.8611,35.9475,671.00,59.00,42.80,54.86,0.00,0.00,0.00,29.68,M,10.00,M,CLR,M,M,M,M,M,M,M,M,M,M,M,M,M,M,59.00,KBVU 270135Z AUTO 00000KT 10SM CLR 15/06 A2968 RMK AO2,M
CXP,2024-04-27 01:35,-119.7326,39.1923,1431.00,46.40,35.60,65.83,230.00,4.00,0.00,29.92,M,10.00,M,CLR,M,M,M,M,M,M,M,M,M,M,M,M,M,M,44.24,KCXP 270135Z AUTO 23004KT 10SM CLR 08/02 A2992 RMK AO2,M
RTS,2024-04-27 01:35,-119.8764,39.6682,1539.00,42.80,33.80,70.28,300.00,11.00,0.00,29.93,M,10.00,17.00,FEW,FEW,SCT,M,2100.00,3800.00,7500.00,M,-DZ,M,M,M,M,M,M,36.11,KRTS 270135Z AUTO 30011G17KT 10SM -DZ FEW021 FEW038 SCT075 06/01 A2993 RMK AO2,M
MEV,2024-04-27 01:35,-119.7500,38.9963,1441.42,46.40,32.00,57.00,10.00,8.00,0.00,29.91,M,10.00,M,FEW,M,M,M,7000.00,M,M,M,M,M,M,M,M,M,M,41.85,KMEV 270135Z AUTO 01008KT 10SM FEW070 08/00 A2991 RMK AO2,M
BAM,2024-04-27 01:35,-116.8743,40.5990,1382.36,50.00,41.00,71.07,150.00,4.00,0.00,29.82,M,10.00,M,SCT,M,M,M,11000.00,M,M,M,M,M,M,M,M,M,M,50.00,KBAM 270135Z AUTO 15004KT 10SM SCT110 10/05 A2982 RMK AO1,M
HTH,2024-04-27 01:35,-118.6315,38.5448,1282.89,50.00,32.00,49.81,M,4.00,0.00,29.85,M,10.00,M,CLR,M,M,M,M,M,M,M,M,M,M,M,M,M,M,50.00,KHTH 270135Z AUTO VRB04KT 10SM CLR 10/00 A2985 RMK A01,M
10U,2024-04-27 01:35,-116.1876,41.9532,1637.00,50.00,30.20,46.31,340.00,14.00,0.00,29.77,M,10.00,20.00,SCT,OVC,M,M,6000.00,7000.00,M,M,M,M,M,M,M,M,M,50.00,K10U 270135Z AUTO 34014G20KT 10SM SCT060 OVC070 10/M01 A2977 RMK AO2,M
TMT,2024-04-27 01:35,-117.1971,39.4643,1749.34,43.00,35.00,73.16,50.00,6.00,0.00,29.83,M,10.00,M,SCT,BKN,BKN,M,4200.00,5000.00,6000.00,M,M,M,M,M,M,M,M,38.78,KTMT 270135Z AUTO 05006KT 10SM SCT042 BKN050 BKN060 06/02 A2983 RMK AO2 T00610017,M
05U,2024-04-27 01:50,-116.0051,39.6042,1811.23,M,M,M,140.00,13.00,0.00,29.80,M,10.00,19.00,M,M,M,M,M,M,M,M,M,M,M,M,M,M,M,M,K05U 270150Z AUTO 14013G19KT 10SM A2980 RMK A01,M
P68,2024-04-27 01:53,-116.0056,39.6014,1993.00,43.00,33.00,67.54,330.00,14.00,0.00,29.77,1005.70,M,23.00,M,M,M,M,M,M,M,M,M,M,M,M,M,M,M,35.34,KP68 270153Z AUTO 33014G23KT 06/01 A2977 RMK AO1 SLP057 T00610006,M
DRA,2024-04-27 01:53,-116.0278,36.6206,1009.00,48.00,40.00,73.67,160.00,17.00,0.50,29.68,1003.00,2.50,M,BKN,OVC,M,M,5000.00,6500.00,M,M,+RA,M,M,M,M,M,M,41.04,KDRA 270153Z AUTO 16017KT 2 1/2SM +RA BKN050 OVC065 09/04 A2968 RMK AO2 RAB45 SLP030 P0050 T00890044,M
ELY,2024-04-27 01:53,-114.8453,39.2950,1909.00,39.00,35.00,85.42,20.00,8.00,0.01,29.73,1004.50,10.00,M,FEW,BKN,OVC,M,2600.00,3500.00,4400.00,M,-RA,M,M,M,M,M,M,32.74,KELY 270153Z AUTO 02008KT 10SM -RA FEW026 BKN035 OVC044 04/02 A2973 RMK AO2 RAB0059E16B43 SLP045 P0001 T00390017,M
VGT,2024-04-27 01:53,-115.1933,36.2111,667.00,61.00,43.00,51.48,120.00,4.00,0.00,29.66,1005.00,10.00,M,CLR,M,M,M,M,M,M,M,M,M,M,M,M,M,M,61.00,KVGT 270153Z 12004KT 10SM CLR 16/06 A2966 RMK AO2 SLP050 T01610061,M
LOL,2024-04-27 01:53,-118.5701,40.0684,1192.43,47.00,M,M,20.00,18.00,0.00,29.85,1010.50,10.00,28.00,FEW,SCT,OVC,M,5000.00,8000.00,10000.00,M,M,M,M,M,31.00,10.00,2024-04-27 01:38,M,KLOL 270153Z AUTO 02018G28KT 10SM FEW050 SCT080 OVC100 08/ A2985 RMK AO2 PK WND 01031/0138 SLP105 T0083 $,M
BVU,2024-04-27 01:55,-114.8611,35.9475,671.00,59.00,42.80,54.86,150.00,3.00,0.00,29.68,M,10.00,M,FEW,M,M,M,11000.00,M,M,M,M,M,M,M,M,M,M,59.00,KBVU 270155Z AUTO 15003KT 10SM FEW110 15/06 A2968 RMK AO2 LTG DSNT E AND SE,M
CXP,2024-04-27 01:55,-119.7326,39.1923,1431.00,46.40,37.40,70.68,200.00,4.00,0.00,29.92,M,10.00,M,CLR,M,M,M,M,M,M,M,M,M,M,M,M,M,M,44.24,KCXP 270155Z AUTO 20004KT 10SM CLR 08/03 A2992 RMK AO2,M
INS,2024-04-27 01:55,-115.6733,36.5872,955.00,57.70,38.70,49.03,120.00,6.00,0.00,29.67,1002.10,10.00,M,CLR,M,M,M,M,M,M,M,M,M,M,M,M,M,M,57.70,KINS 270155Z AUTO 12006KT 10SM CLR 14/04 A2967 RMK AO2 LTG DSNT W SLP021 T01430037 $,M
RNO,2024-04-27 01:55,-119.7711,39.4839,1341.00,50.00,32.00,49.81,290.00,10.00,0.00,29.90,1010.90,10.00,M,SCT,BKN,M,M,4500.00,10000.00,M,M,M,M,M,M,M,M,M,50.00,KRNO 270155Z 29010KT 10SM SCT045 BKN100 10/00 A2990 RMK AO2 SLP109 T01000000,M
RTS,2024-04-27 01:55,-119.8764,39.6682,1539.00,41.00,33.80,75.33,300.00,14.00,0.00,29.93,M,10.00,21.00,SCT,SCT,BKN,M,2000.00,3200.00,4000.00,M,-DZ,M,M,M,M,M,M,32.76,KRTS 270155Z AUTO 30014G21KT 10SM -DZ SCT020 SCT032 BKN040 05/01 A2993 RMK AO2,M
MEV,2024-04-27 01:55,-119.7500,38.9963,1441.42,46.40,32.00,57.00,260.00,6.00,0.00,29.91,M,10.00,M,FEW,FEW,M,M,5000.00,7000.00,M,M,M,M,M,M,M,M,M,42.87,KMEV 270155Z AUTO 26006KT 10SM FEW050 FEW070 08/00 A2991 RMK AO2,M
BAM,2024-04-27 01:55,-116.8743,40.5990,1382.36,48.20,41.00,76.01,200.00,8.00,0.00,29.82,M,10.00,M,CLR,M,M,M,M,M,M,M,M,M,M,M,M,M,M,44.07,KBAM 270155Z AUTO 20008KT 10SM CLR 09/05 A2982 RMK AO1,M
HTH,2024-04-27 01:55,-118.6315,38.5448,1282.89,51.80,32.00,46.59,360.00,13.00,0.00,29.86,M,10.00,19.00,CLR,M,M,M,M,M,M,M,M,M,M,M,M,M,M,51.80,KHTH 270155Z AUTO 36013G19KT 10SM CLR 11/00 A2986 RMK A01,M
10U,2024-04-27 01:55,-116.1876,41.9532,1637.00,50.00,30.20,46.31,330.00,10.00,0.00,29.77,M,10.00,18.00,BKN,OVC,M,M,7000.00,8500.00,M,M,M,M,M,M,M,M,M,50.00,K10U 270155Z AUTO 33010G18KT 10SM BKN070 OVC085 10/M01 A2977 RMK AO2,M
TMT,2024-04-27 01:55,-117.1971,39.4643,1749.34,42.40,36.00,77.90,30.00,9.00,0.00,29.84,M,10.00,M,SCT,SCT,BKN,M,2800.00,3500.00,5000.00,M,M,M,M,M,M,M,M,36.45,KTMT 270155Z AUTO 03009KT 10SM SCT028 SCT035 BKN050 06/02 A2984 RMK AO2 T00580022,M
LSV,2024-04-27 01:55,-115.0343,36.2362,570.00,60.00,44.60,56.71,200.00,5.00,0.00,29.63,1002.30,10.00,M,CLR,M,M,M,M,M,M,M,M,M,M,M,M,M,M,60.00,KLSV 270155Z AUTO 20005KT 10SM CLR 16/07 A2963 RMK AO2 SLP023 T01550070 $,M
EKO,2024-04-27 01:56,-115.7860,40.8242,1367.00,45.00,38.00,76.31,200.00,14.00,0.00,29.76,1006.70,10.00,20.00,FEW,BKN,OVC,M,3900.00,6500.00,8000.00,M,M,M,M,M,M,M,M,37.92,KEKO 270156Z AUTO 20014G20KT 10SM FEW039 BKN065 OVC080 07/03 A2976 RMK AO2 SLP067 T00720033,M
WMC,2024-04-27 01:56,-117.8072,40.9019,1315.00,45.00,38.00,76.31,300.00,16.00,0.05,29.84,1009.80,10.00,28.00,FEW,BKN,OVC,M,3800.00,4500.00,7500.00,M,-RA,M,M,M,28.00,290.00,2024-04-27 01:52,37.36,KWMC 270156Z AUTO 30016G28KT 10SM -RA FEW038 BKN045 OVC075 07/03 A2984 RMK AO2 PK WND 29028/0152 RAB27 SLP098 P0005 T00720033,M
NFL,2024-04-27 01:56,-118.7010,39.4166,1199.00,52.00,34.00,50.12,300.00,14.00,0.00,29.85,1008.50,10.00,M,FEW,SCT,BKN,BKN,3000.00,5000.00,10000.00,25000.00,M,M,M,M,M,M,M,52.00,KNFL 270156Z 30014KT 10SM FEW030 SCT050 BKN100 BKN250 11/01 A2985 RMK AO2 SLP085 CB DSNT NE SH VC ALQDS T01110011,M
HND,2024-04-27 01:56,-115.1344,35.9729,742.79,59.00,41.00,51.18,0.00,0.00,0.00,29.69,1006.00,10.00,M,SCT,M,M,M,7500.00,M,M,M,M,M,M,M,M,M,M,59.00,KHND 270156Z 00000KT 10SM SCT075 15/05 A2969 RMK AO2 SLP060 T01500050,M
TPH,2024-04-27 01:56,-117.0904,38.0505,1654.00,46.00,32.00,57.87,340.00,27.00,T,29.80,1006.90,10.00,40.00,OVC,M,M,M,5500.00,M,M,M,-RA,M,M,M,40.00,320.00,2024-04-27 01:38,36.43,KTPH 270156Z AUTO 34027G40KT 10SM -RA OVC055 08/00 A2980 RMK AO2 PK WND 32040/0138 RAB17E27B44 SLP069 P0000 T00780000,M
LAS,2024-04-27 01:56,-115.1634,36.0719,663.00,59.00,43.00,55.28,100.00,5.00,0.00,29.66,1003.50,10.00,M,FEW,FEW,SCT,BKN,4500.00,11000.00,15000.00,22000.00,M,M,M,M,M,M,M,59.00,KLAS 270156Z 10005KT 10SM FEW045 FEW110 SCT150 BKN220 15/06 A2966 RMK AO2 SLP035 T01500061,M
DRA,2024-04-27 02:00,-116.0278,36.6206,1009.00,48.00,40.00,73.67,160.00,13.00,0.12,29.68,M,3.00,23.00,BKN,BKN,OVC,M,5000.00,6500.00,11000.00,M,+RA,M,M,M,M,M,M,42.07,KDRA 270200Z AUTO 16013G23KT 3SM +RA BKN050 BKN065 OVC110 09/04 A2968 RMK AO2 P0012 T00890044,M
ELY,2024-04-27 02:08,-114.8453,39.2950,1909.00,38.00,35.00,88.83,10.00,9.00,T,29.73,M,8.00,M,BKN,BKN,OVC,M,2000.00,2700.00,4200.00,M,-RA,M,M,M,M,M,M,30.97,KELY 270208Z AUTO 01009KT 8SM -RA BKN020 BKN027 OVC042 03/02 A2973 RMK AO2 P0000 T00330017,M
05U,2024-04-27 02:10,-116.0051,39.6042,1811.23,M,M,M,150.00,10.00,0.00,29.81,M,10.00,17.00,M,M,M,M,M,M,M,M,M,M,M,M,M,M,M,M,K05U 270210Z AUTO 15010G17KT 10SM A2981 RMK A01,M
BVU,2024-04-27 02:15,-114.8611,35.9475,671.00,57.20,48.20,71.83,100.00,8.00,0.00,29.67,M,10.00,M,SCT,M,M,M,11000.00,M,M,M,M,M,M,M,M,M,M,57.20,KBVU 270215Z AUTO 10008KT 10SM SCT110 14/09 A2967 RMK AO2,M
CXP,2024-04-27 02:15,-119.7326,39.1923,1431.00,46.40,35.60,65.83,0.00,0.00,0.00,29.92,M,10.00,M,CLR,M,M,M,M,M,M,M,M,M,M,M,M,M,M,46.40,KCXP 270215Z AUTO 00000KT 10SM CLR 08/02 A2992 RMK AO2,M
RTS,2024-04-27 02:15,-119.8764,39.6682,1539.00,41.00,33.80,75.33,300.00,12.00,0.00,29.93,M,10.00,M,FEW,FEW,FEW,M,1900.00,2400.00,4000.00,M,M,M,M,M,M,M,M,33.46,KRTS 270215Z AUTO 30012KT 10SM FEW019 FEW024 FEW040 05/01 A2993 RMK AO2,M
MEV,2024-04-27 02:15,-119.7500,38.9963,1441.42,46.40,30.20,53.00,0.00,0.00,0.00,29.91,M,10.00,M,BKN,M,M,M,6500.00,M,M,M,M,M,M,M,M,M,M,46.40,KMEV 270215Z AUTO 00000KT 10SM BKN065 08/M01 A2991 RMK AO2,M
BAM,2024-04-27 02:15,-116.8743,40.5990,1382.36,46.40,41.00,81.34,210.00,4.00,0.00,29.83,M,10.00,M,SCT,M,M,M,4300.00,M,M,M,M,M,M,M,M,M,M,44.24,KBAM 270215Z AUTO 21004KT 10SM SCT043 08/05 A2983 RMK AO1,M
HTH,2024-04-27 02:15,-118.6315,38.5448,1282.89,50.00,32.00,49.81,350.00,10.00,0.00,29.87,M,10.00,19.00,FEW,SCT,BKN,M,4800.00,5500.00,6500.00,M,M,M,M,M,M,M,M,50.00,KHTH 270215Z AUTO 35010G19KT 10SM FEW048 SCT055 BKN065 10/M00 A2987 RMK A01,M
10U,2024-04-27 02:15,-116.1876,41.9532,1637.00,48.20,32.00,53.27,320.00,10.00,0.00,29.78,M,10.00,16.00,SCT,BKN,OVC,M,6000.00,8000.00,9500.00,M,M,M,M,M,M,M,M,43.28,K10U 270215Z AUTO 32010G16KT 10SM SCT060 BKN080 OVC095 09/M00 A2978 RMK AO2,M
TMT,2024-04-27 02:15,-117.1971,39.4643,1749.34,39.60,35.20,84.11,350.00,19.00,0.00,29.86,M,10.00,23.00,SCT,BKN,OVC,M,1300.00,2500.00,4300.00,M,-RA,M,M,M,M,M,M,29.49,KTMT 270215Z AUTO 35019G23KT 10SM -RA SCT013 BKN025 OVC043 04/02 A2986 RMK AO2 T00420018,M
05U,2024-04-27 02:30,-116.0051,39.6042,1811.23,M,M,M,130.00,11.00,0.00,29.82,M,10.00,M,M,M,M,M,M,M,M,M,M,M,M,M,M,M,M,M,K05U 270230Z AUTO 13011KT 10SM A2982 RMK A01,M
BVU,2024-04-27 02:35,-114.8611,35.9475,671.00,57.20,48.20,71.83,120.00,5.00,0.00,29.68,M,10.00,M,BKN,M,M,M,11000.00,M,M,M,M,M,M,M,M,M,M,57.20,KBVU 270235Z AUTO 12005KT 10SM BKN110 14/09 A2968 RMK AO2,M
CXP,2024-04-27 02:35,-119.7326,39.1923,1431.00,44.60,35.60,70.48,150.00,4.00,0.00,29.92,M,10.00,M,CLR,M,M,M,M,M,M,M,M,M,M,M,M,M,M,42.13,KCXP 270235Z AUTO 15004KT 10SM CLR 07/02 A2992 RMK AO2,M
RTS,2024-04-27 02:35,-119.8764,39.6682,1539.00,41.00,32.00,70.08,290.00,11.00,0.00,29.94,M,10.00,M,CLR,M,M,M,M,M,M,M,M,M,M,M,M,M,M,33.84,KRTS 270235Z AUTO 29011KT 10SM CLR 05/00 A2994 RMK AO2,M
MEV,2024-04-27 02:35,-119.7500,38.9963,1441.42,44.60,30.20,56.74,0.00,0.00,0.00,29.91,M,10.00,M,FEW,M,M,M,6500.00,M,M,M,M,M,M,M,M,M,M,44.60,KMEV 270235Z AUTO 00000KT 10SM FEW065 07/M01 A2991 RMK AO2,M
HTH,2024-04-27 02:35,-118.6315,38.5448,1282.89,50.00,30.20,46.31,320.00,15.00,0.00,29.87,M,10.00,21.00,FEW,FEW,SCT,M,4800.00,5500.00,6500.00,M,M,M,M,M,M,M,M,50.00,KHTH 270235Z AUTO 32015G21KT 10SM FEW048 FEW055 SCT065 10/M01 A2987 RMK A01,M
10U,2024-04-27 02:35,-116.1876,41.9532,1637.00,48.20,30.20,49.53,320.00,13.00,0.00,29.79,M,10.00,M,BKN,OVC,M,M,6000.00,7500.00,M,M,M,M,M,M,M,M,M,42.32,K10U 270235Z AUTO 32013KT 10SM BKN060 OVC075 09/M01 A2979 RMK AO2,M
BAM,2024-04-27 02:35,-116.8743,40.5990,1382.36,46.40,41.00,81.34,210.00,5.00,0.00,29.83,M,10.00,M,SCT,M,M,M,4300.00,M,M,M,M,M,M,M,M,M,M,43.50,KBAM 270235Z AUTO 21005KT 10SM SCT043 08/05 A2983 RMK AO1,M
TMT,2024-04-27 02:35,-117.1971,39.4643,1749.34,37.40,35.00,90.94,270.00,8.00,0.00,29.86,M,10.00,M,BKN,BKN,OVC,M,1600.00,2200.00,4100.00,M,-RA,M,M,M,M,M,M,30.76,KTMT 270235Z AUTO 27008KT 10SM -RA BKN016 BKN022 OVC041 03/02 A2986 RMK AO2 T00300016,M
ELY,2024-04-27 02:46,-114.8453,39.2950,1909.00,38.00,35.00,88.83,360.00,12.00,0.02,29.75,M,7.00,M,SCT,SCT,OVC,M,900.00,1700.00,2400.00,M,-RA,M,M,M,M,M,M,29.64,KELY 270246Z AUTO 36012KT 7SM -RA SCT009 SCT017 OVC024 03/02 A2975 RMK AO2 P0002 T00330017,M
05U,2024-04-27 02:50,-116.0051,39.6042,1811.23,M,M,M,140.00,16.00,0.00,29.83,M,10.00,21.00,M,M,M,M,M,M,M,M,M,M,M,M,M,M,M,M,K05U 270250Z AUTO 14016G21KT 10SM A2983 RMK A01,M
P68,2024-04-27 02:53,-116.0056,39.6014,1993.00,41.00,34.00,75.94,330.00,16.00,0.00,29.81,1007.00,M,25.00,M,M,M,M,M,M,M,M,M,M,M,M,M,M,M,32.15,KP68 270253Z AUTO 33016G25KT 05/01 A2981 RMK AO1 SLP070 T00500011 53014,M
DRA,2024-04-27 02:53,-116.0278,36.6206,1009.00,49.00,44.00,82.79,70.00,8.00,0.15,29.70,1003.80,10.00,M,BKN,M,M,M,11000.00,M,M,M,M,M,M,M,M,M,M,45.05,KDRA 270253Z AUTO 07008KT 10SM BKN110 09/07 A2970 RMK AO2 RAE17 SLP038 P0015 60065 T00940067 53012,M
ELY,2024-04-27 02:53,-114.8453,39.2950,1909.00,37.00,35.00,92.39,10.00,12.00,0.02,29.75,1005.50,8.00,M,FEW,BKN,OVC,M,900.00,2400.00,3400.00,M,-RA,M,M,M,M,M,M,28.37,KELY 270253Z AUTO 01012KT 8SM -RA FEW009 BKN024 OVC034 03/02 A2975 RMK AO2 SLP055 P0002 60003 T00280017 53006,M
VGT,2024-04-27 02:53,-115.1933,36.2111,667.00,60.00,46.00,59.80,160.00,7.00,0.00,29.67,1005.30,10.00,M,FEW,FEW,M,M,7500.00,9000.00,M,M,M,M,M,M,M,M,M,60.00,KVGT 270253Z 16007KT 10SM FEW075 FEW090 16/08 A2967 RMK AO2 SLP053 T01560078 55001,M
LOL,2024-04-27 02:53,-118.5701,40.0684,1192.43,46.00,M,M,300.00,5.00,T,29.88,1011.60,10.00,M,FEW,FEW,OVC,M,7000.00,9000.00,11000.00,M,M,M,M,M,M,M,M,M,KLOL 270253Z AUTO 30005KT 10SM FEW070 FEW090 OVC110 08/ A2988 RMK AO2 RAB0158E07 SLP116 P0000 60000 T0078 53022 $,M
BVU,2024-04-27 02:55,-114.8611,35.9475,671.00,57.20,48.20,71.83,170.00,6.00,0.00,29.68,M,10.00,M,FEW,SCT,BKN,M,6000.00,8000.00,11000.00,M,M,M,M,M,M,M,M,57.20,KBVU 270255Z AUTO 17006KT 10SM FEW060 SCT080 BKN110 14/09 A2968 RMK AO2,M
CXP,2024-04-27 02:55,-119.7326,39.1923,1431.00,42.80,35.60,75.50,0.00,0.00,0.00,29.94,M,10.00,M,CLR,M,M,M,M,M,M,M,M,M,M,M,M,M,M,42.80,KCXP 270255Z AUTO 00000KT 10SM CLR 06/02 A2994 RMK AO2,M
INS,2024-04-27 02:55,-115.6733,36.5872,955.00,57.00,42.40,58.05,340.00,9.00,0.00,29.71,1003.50,10.00,M,OVC,M,M,M,6000.00,M,M,M,M,M,M,M,M,M,M,57.00,KINS 270255Z AUTO 34009KT 10SM OVC060 14/06 A2971 RMK AO2 SLP035 T01390058 50012 $,M
RNO,2024-04-27 02:55,-119.7711,39.4839,1341.00,48.00,31.00,51.54,330.00,9.00,0.00,29.93,1011.80,10.00,M,FEW,SCT,M,M,5000.00,10000.00,M,M,M,M,M,M,M,M,M,43.41,KRNO 270255Z 33009KT 10SM FEW050 SCT100 09/M01 A2993 RMK AO2 SLP118 T00891006 53006,M
LSV,2024-04-27 02:55,-115.0343,36.2362,570.00,59.00,45.50,60.81,210.00,5.00,0.00,29.65,1002.90,10.00,M,FEW,M,M,M,12000.00,M,M,M,M,M,M,M,M,M,M,59.00,KLSV 270255Z AUTO 21005KT 10SM FEW120 15/08 A2965 RMK AO2 SLP029 T01500075 50002 $,M
RTS,2024-04-27 02:55,-119.8764,39.6682,1539.00,39.20,33.80,80.79,290.00,10.00,0.00,29.95,M,10.00,M,CLR,M,M,M,M,M,M,M,M,M,M,M,M,M,M,32.00,KRTS 270255Z AUTO 29010KT 10SM CLR 04/01 A2995 RMK AO2,M
MEV,2024-04-27 02:55,-119.7500,38.9963,1441.42,41.00,32.00,70.08,80.00,5.00,0.00,29.92,M,10.00,M,CLR,M,M,M,M,M,M,M,M,M,M,M,M,M,M,37.08,KMEV 270255Z AUTO 08005KT 10SM CLR 05/M00 A2992 RMK AO2,M
BAM,2024-04-27 02:55,-116.8743,40.5990,1382.36,46.40,39.20,75.84,230.00,3.00,0.00,29.84,M,10.00,M,CLR,M,M,M,M,M,M,M,M,M,M,M,M,M,M,45.15,KBAM 270255Z AUTO 23003KT 10SM CLR 08/04 A2984 RMK AO1,M
HTH,2024-04-27 02:55,-118.6315,38.5448,1282.89,50.00,32.00,49.81,320.00,11.00,0.00,29.89,M,10.00,16.00,FEW,M,M,M,8000.00,M,M,M,M,M,M,M,M,M,M,50.00,KHTH 270255Z AUTO 32011G16KT 10SM FEW080 10/M00 A2989 RMK A01,M
TMT,2024-04-27 02:55,-117.1971,39.4643,1749.34,37.40,34.70,89.86,240.00,3.00,0.00,29.87,M,10.00,M,SCT,SCT,OVC,M,2000.00,3800.00,7000.00,M,M,M,M,M,M,M,M,34.86,KTMT 270255Z AUTO 24003KT 10SM SCT020 SCT038 OVC070 03/02 A2987 RMK AO2 T00300015,M
10U,2024-04-27 02:55,-116.1876,41.9532,1637.00,48.20,32.00,53.27,330.00,12.00,0.00,29.80,M,10.00,M,FEW,OVC,M,M,6000.00,8000.00,M,M,M,M,M,M,M,M,M,42.62,K10U 270255Z AUTO 33012KT 10SM FEW060 OVC080 09/M00 A2980 RMK AO2,M
INS,2024-04-27 02:56,-115.6733,36.5872,955.00,57.20,44.60,62.69,350.00,10.00,0.00,29.72,1003.80,10.00,M,OVC,M,M,M,6000.00,M,M,M,-RA,M,M,M,M,M,M,57.20,KINS 270256Z AUTO 35010KT 10SM -RA OVC060 14/07 A2972 RMK AO2 RAB56 SLP038 $,M
EKO,2024-04-27 02:56,-115.7860,40.8242,1367.00,46.00,36.00,67.90,M,M,0.00,29.78,1007.10,10.00,M,OVC,M,M,M,9000.00,M,M,M,M,M,M,M,M,M,M,M,KEKO 270256Z AUTO 10SM OVC090 08/02 A2978 RMK AO2 SLP071 T00780022 53009,M
WMC,2024-04-27 02:56,-117.8072,40.9019,1315.00,45.00,37.00,73.37,320.00,6.00,0.02,29.86,1010.60,10.00,16.00,SCT,OVC,M,M,5500.00,7000.00,M,M,M,M,M,M,M,M,M,41.19,KWMC 270256Z AUTO 32006G16KT 10SM SCT055 OVC070 07/03 A2986 RMK AO2 RAE50 SLP106 P0002 60007 T00720028 53021,M
NFL,2024-04-27 02:56,-118.7010,39.4166,1199.00,49.00,36.00,60.66,M,5.00,0.00,29.88,1009.30,10.00,M,FEW,SCT,SCT,BKN,3000.00,5000.00,10000.00,25000.00,M,M,M,M,M,M,M,46.58,KNFL 270256Z VRB05KT 10SM FEW030 SCT050 SCT100 BKN250 09/02 A2988 RMK AO2 SLP093 60000 T00940022 53016,M
HND,2024-04-27 02:56,-115.1344,35.9729,742.79,58.00,46.00,64.24,0.00,0.00,0.00,29.71,1006.60,10.00,M,CLR,M,M,M,M,M,M,M,M,M,M,M,M,M,M,58.00,KHND 270256Z 00000KT 10SM CLR 14/08 A2971 RMK AO2 SLP066 T01440078 53001,M
TPH,2024-04-27 02:56,-117.0904,38.0505,1654.00,44.00,31.00,59.97,320.00,14.00,T,29.82,1007.40,10.00,M,FEW,FEW,M,M,6500.00,8000.00,M,M,M,M,M,M,35.00,340.00,2024-04-27 01:59,36.63,KTPH 270256Z AUTO 32014KT 10SM FEW065 FEW080 07/M01 A2982 RMK AO2 PK WND 34035/0159 RAE09 SLP074 P0000 60000 T00671006 51018,M
LAS,2024-04-27 02:56,-115.1634,36.0719,663.00,57.00,45.00,64.12,100.00,3.00,0.00,29.69,1004.40,10.00,M,SCT,SCT,BKN,BKN,7500.00,9000.00,15000.00,22000.00,M,M,M,M,M,M,M,57.00,KLAS 270256Z 10003KT 10SM SCT075 SCT090 BKN150 BKN220 14/07 A2969 RMK AO2 SLP044 T01390072 53003,M
05U,2024-04-27 03:10,-116.0051,39.6042,1811.23,M,M,M,140.00,9.00,0.00,29.84,M,10.00,17.00,M,M,M,M,M,M,M,M,M,M,M,M,M,M,M,M,K05U 270310Z AUTO 14009G17KT 10SM A2984 RMK A01,M
BVU,2024-04-27 03:15,-114.8611,35.9475,671.00,57.20,48.20,71.83,0.00,0.00,0.00,29.70,M,10.00,M,SCT,BKN,OVC,M,7500.00,9000.00,11000.00,M,M,M,M,M,M,M,M,57.20,KBVU 270315Z AUTO 00000KT 10SM SCT075 BKN090 OVC110 14/09 A2970 RMK AO2,M
CXP,2024-04-27 03:15,-119.7326,39.1923,1431.00,42.80,33.80,70.28,0.00,0.00,0.00,29.95,M,10.00,M,SCT,M,M,M,4300.00,M,M,M,M,M,M,M,M,M,M,42.80,KCXP 270315Z AUTO 00000KT 10SM SCT043 06/01 A2995 RMK AO2,M
RTS,2024-04-27 03:15,-119.8764,39.6682,1539.00,39.20,32.00,75.16,270.00,9.00,0.00,29.95,M,10.00,M,CLR,M,M,M,M,M,M,M,M,M,M,M,M,M,M,32.47,KRTS 270315Z AUTO 27009KT 10SM CLR 04/00 A2995 RMK AO2,M
MEV,2024-04-27 03:15,-119.7500,38.9963,1441.42,39.20,30.20,69.88,100.00,5.00,0.00,29.93,M,10.00,M,CLR,M,M,M,M,M,M,M,M,M,M,M,M,M,M,34.95,KMEV 270315Z AUTO 10005KT 10SM CLR 04/M01 A2993 RMK AO2,M
BAM,2024-04-27 03:15,-116.8743,40.5990,1382.36,44.60,41.00,87.09,230.00,3.00,0.00,29.85,M,10.00,M,BKN,M,M,M,9000.00,M,M,M,M,M,M,M,M,M,M,43.09,KBAM 270315Z AUTO 23003KT 10SM BKN090 07/05 A2985 RMK AO1,M
HTH,2024-04-27 03:15,-118.6315,38.5448,1282.89,48.20,32.00,53.27,340.00,9.00,0.00,29.90,M,10.00,M,SCT,M,M,M,7500.00,M,M,M,M,M,M,M,M,M,M,43.66,KHTH 270315Z AUTO 34009KT 10SM SCT075 09/00 A2990 RMK A01,M
10U,2024-04-27 03:15,-116.1876,41.9532,1637.00,48.20,32.00,53.27,330.00,9.00,0.00,29.81,M,10.00,M,BKN,BKN,OVC,M,6000.00,7500.00,8500.00,M,M,M,M,M,M,M,M,43.66,K10U 270315Z AUTO 33009KT 10SM BKN060 BKN075 OVC085 09/00 A2981 RMK AO2,M
TMT,2024-04-27 03:15,-117.1971,39.4643,1749.34,37.00,35.00,92.39,140.00,5.00,0.00,29.89,M,10.00,M,SCT,BKN,OVC,M,4300.00,7000.00,8000.00,M,M,M,M,M,M,M,M,32.33,KTMT 270315Z AUTO 14005KT 10SM SCT043 BKN070 OVC080 03/02 A2989 RMK AO2 T00270017,M
05U,2024-04-27 03:30,-116.0051,39.6042,1811.23,M,M,M,150.00,9.00,0.00,29.85,M,10.00,14.00,M,M,M,M,M,M,M,M,M,M,M,M,M,M,M,M,K05U 270330Z AUTO 15009G14KT 10SM A2985 RMK A01,M
INS,2024-04-27 03:34,-115.6733,36.5872,955.00,55.40,42.80,62.46,160.00,4.00,0.00,29.74,1004.70,10.00,M,FEW,SCT,BKN,BKN,800.00,4500.00,5000.00,6500.00,M,M,M,M,M,M,M,55.40,KINS 270334Z AUTO 16004KT 10SM FEW008 SCT045 BKN050 BKN065 OVC130 13/06 A2974 RMK AO2 RAB0256E34 SLP047 $,M
BVU,2024-04-27 03:35,-114.8611,35.9475,671.00,55.40,48.20,76.66,170.00,3.00,0.00,29.69,M,10.00,M,SCT,BKN,OVC,M,7500.00,9000.00,11000.00,M,M,M,M,M,M,M,M,55.40,KBVU 270335Z AUTO 17003KT 10SM SCT075 BKN090 OVC110 13/09 A2969 RMK AO2,M
CXP,2024-04-27 03:35,-119.7326,39.1923,1431.00,42.80,35.60,75.50,310.00,3.00,0.00,29.96,M,10.00,M,SCT,BKN,M,M,4200.00,5500.00,M,M,M,M,M,M,M,M,M,41.03,KCXP 270335Z AUTO 31003KT 10SM SCT042 BKN055 06/02 A2996 RMK AO2,M
RTS,2024-04-27 03:35,-119.8764,39.6682,1539.00,39.20,32.00,75.16,280.00,4.00,0.00,29.96,M,10.00,M,CLR,M,M,M,M,M,M,M,M,M,M,M,M,M,M,35.83,KRTS 270335Z AUTO 28004KT 10SM CLR 04/M00 A2996 RMK AO2,M
MEV,2024-04-27 03:35,-119.7500,38.9963,1441.42,42.80,30.20,60.79,0.00,0.00,0.00,29.94,M,10.00,M,CLR,M,M,M,M,M,M,M,M,M,M,M,M,M,M,42.80,KMEV 270335Z AUTO 00000KT 10SM CLR 06/M01 A2994 RMK AO2,M
BAM,2024-04-27 03:35,-116.8743,40.5990,1382.36,44.60,41.00,87.09,300.00,11.00,0.00,29.87,M,10.00,15.00,SCT,SCT,OVC,M,2800.00,3700.00,9000.00,M,M,M,M,M,M,M,M,38.39,KBAM 270335Z AUTO 30011G15KT 10SM SCT028 SCT037 OVC090 07/05 A2987 RMK AO1,M
HTH,2024-04-27 03:35,-118.6315,38.5448,1282.89,48.20,32.00,53.27,340.00,10.00,0.00,29.90,M,10.00,M,SCT,OVC,M,M,6500.00,7500.00,M,M,M,M,M,M,M,M,M,43.28,KHTH 270335Z AUTO 34010KT 10SM SCT065 OVC075 09/00 A2990 RMK A01,M
10U,2024-04-27 03:35,-116.1876,41.9532,1637.00,46.40,33.80,61.28,330.00,8.00,0.00,29.82,M,10.00,M,BKN,OVC,M,M,6000.00,7000.00,M,M,M,M,M,M,M,M,M,41.85,K10U 270335Z AUTO 33008KT 10SM BKN060 OVC070 08/01 A2982 RMK AO2,M
TMT,2024-04-27 03:35,-117.1971,39.4643,1749.34,37.40,35.00,90.94,190.00,4.00,0.00,29.91,M,10.00,M,BKN,BKN,OVC,M,2300.00,4200.00,4900.00,M,M,M,M,M,M,M,M,33.73,KTMT 270335Z AUTO 19004KT 10SM BKN023 BKN042 OVC049 03/02 A2991 RMK AO2 T00300017,M
05U,2024-04-27 03:50,-116.0051,39.6042,1811.23,M,M,M,150.00,7.00,0.00,29.86,M,10.00,M,M,M,M,M,M,M,M,M,M,M,M,M,M,M,M,M,K05U 270350Z AUTO 15007KT 10SM A2986 RMK A01,M
P68,2024-04-27 03:53,-116.0056,39.6014,1993.00,39.00,35.00,85.42,350.00,6.00,0.00,29.83,1008.00,M,M,M,M,M,M,M,M,M,M,M,M,M,M,M,M,M,33.96,KP68 270353Z AUTO 35006KT 04/02 A2983 RMK AO1 SLP080 T00390017,M
DRA,2024-04-27 03:53,-116.0278,36.6206,1009.00,52.00,41.00,66.00,40.00,18.00,0.00,29.74,1004.90,10.00,26.00,BKN,M,M,M,9000.00,M,M,M,M,M,M,M,26.00,40.00,2024-04-27 03:52,52.00,KDRA 270353Z AUTO 04018G26KT 10SM BKN090 11/05 A2974 RMK AO2 PK WND 04026/0352 SLP049 T01110050,M
ELY,2024-04-27 03:53,-114.8453,39.2950,1909.00,37.00,35.00,92.39,340.00,6.00,0.01,29.77,1006.30,10.00,M,FEW,BKN,OVC,M,1600.00,2300.00,4200.00,M,-RA,M,M,M,M,M,M,31.55,KELY 270353Z AUTO 34006KT 10SM -RA FEW016 BKN023 OVC042 03/02 A2977 RMK AO2 SLP063 P0001 T00280017,M
VGT,2024-04-27 03:53,-115.1933,36.2111,667.00,60.00,44.00,55.42,0.00,0.00,T,29.70,1006.40,10.00,M,BKN,OVC,M,M,6000.00,8000.00,M,M,-TSRA,M,M,M,M,M,M,60.00,KVGT 270353Z AUTO 00000KT 10SM -TSRA BKN060 OVC080 16/07 A2970 RMK AO2 RAB37 TSB47 SLP064 P0000 T01560067,M
LOL,2024-04-27 03:53,-118.5701,40.0684,1192.43,45.00,M,M,290.00,4.00,T,29.90,1012.10,10.00,M,FEW,BKN,OVC,M,6000.00,7500.00,9000.00,M,M,M,M,M,M,M,M,M,KLOL 270353Z AUTO 29004KT 10SM FEW060 BKN075 OVC090 07/ A2990 RMK AO2 RAB12E41 SLP121 P0000 T0072 $,M
BVU,2024-04-27 03:55,-114.8611,35.9475,671.00,57.20,48.20,71.83,0.00,0.00,0.00,29.70,M,10.00,M,FEW,BKN,OVC,M,3900.00,6000.00,8000.00,M,M,M,M,M,M,M,M,57.20,KBVU 270355Z AUTO 00000KT 10SM FEW039 BKN060 OVC080 14/09 A2970 RMK AO2,M
CXP,2024-04-27 03:55,-119.7326,39.1923,1431.00,42.80,33.80,70.28,0.00,0.00,0.00,29.96,M,10.00,M,BKN,BKN,M,M,5500.00,6500.00,M,M,M,M,M,M,M,M,M,42.80,KCXP 270355Z AUTO 00000KT 10SM BKN055 BKN065 06/01 A2996 RMK AO2,M
INS,2024-04-27 03:55,-115.6733,36.5872,955.00,54.30,42.80,65.01,170.00,3.00,0.05,29.75,1005.00,10.00,M,FEW,BKN,BKN,BKN,6000.00,8000.00,9000.00,11000.00,M,M,M,M,M,M,M,54.30,KINS 270355Z AUTO 17003KT 10SM FEW060 BKN080 BKN090 BKN110 OVC150 12/06 A2975 RMK AO2 RAB0256E34 SLP050 P0005 T01240060 $,M
RNO,2024-04-27 03:55,-119.7711,39.4839,1341.00,46.00,32.00,57.87,20.00,5.00,0.00,29.95,1012.60,10.00,M,SCT,M,M,M,9000.00,M,M,M,M,M,M,M,M,M,M,43.02,KRNO 270355Z 02005KT 10SM SCT090 08/00 A2995 RMK AO2 SLP126 T00780000,M
LSV,2024-04-27 03:55,-115.0343,36.2362,570.00,60.00,44.20,55.85,310.00,5.00,0.00,29.67,1003.50,10.00,M,OVC,M,M,M,9500.00,M,M,M,M,M,M,M,M,M,M,60.00,KLSV 270355Z AUTO 31005KT 10SM OVC095 16/07 A2967 RMK AO2 SLP035 T01560068 $,M
RTS,2024-04-27 03:55,-119.8764,39.6682,1539.00,37.40,32.00,80.65,300.00,5.00,0.00,29.97,M,10.00,M,CLR,M,M,M,M,M,M,M,M,M,M,M,M,M,M,32.81,KRTS 270355Z AUTO 30005KT 10SM CLR 03/M00 A2997 RMK AO2,M
MEV,2024-04-27 03:55,-119.7500,38.9963,1441.42,39.20,28.40,64.93,100.00,3.00,0.00,29.95,M,10.00,M,CLR,M,M,M,M,M,M,M,M,M,M,M,M,M,M,36.92,KMEV 270355Z AUTO 10003KT 10SM CLR 04/M02 A2995 RMK AO2,M
BAM,2024-04-27 03:55,-116.8743,40.5990,1382.36,44.60,37.40,75.68,320.00,11.00,0.00,29.87,M,10.00,15.00,SCT,BKN,OVC,M,3300.00,3900.00,8000.00,M,M,M,M,M,M,M,M,38.39,KBAM 270355Z AUTO 32011G15KT 10SM SCT033 BKN039 OVC080 07/03 A2987 RMK AO1,M
HTH,2024-04-27 03:55,-118.6315,38.5448,1282.89,48.20,30.20,49.53,330.00,12.00,0.00,29.91,M,10.00,18.00,SCT,BKN,M,M,6500.00,7500.00,M,M,M,M,M,M,M,M,M,42.62,KHTH 270355Z AUTO 33012G18KT 10SM SCT065 BKN075 09/M01 A2991 RMK A01,M
10U,2024-04-27 03:55,-116.1876,41.9532,1637.00,44.60,33.80,65.61,290.00,6.00,0.00,29.83,M,10.00,M,BKN,BKN,OVC,M,5000.00,6500.00,7500.00,M,M,M,M,M,M,M,M,40.71,K10U 270355Z AUTO 29006KT 10SM BKN050 BKN065 OVC075 07/01 A2983 RMK AO2,M
TMT,2024-04-27 03:55,-117.1971,39.4643,1749.34,37.60,34.70,89.16,30.00,3.00,0.00,29.92,M,10.00,M,OVC,M,M,M,1900.00,M,M,M,M,M,M,M,M,M,M,35.09,KTMT 270355Z AUTO 03003KT 10SM OVC019 03/02 A2992 RMK AO2 T00310015,M
EKO,2024-04-27 03:56,-115.7860,40.8242,1367.00,44.00,37.00,76.22,210.00,5.00,0.00,29.80,1008.20,10.00,M,BKN,OVC,M,M,4000.00,5500.00,M,M,M,M,M,M,M,M,M,40.65,KEKO 270356Z AUTO 21005KT 10SM BKN040 OVC055 07/03 A2980 RMK AO2 SLP082 T00670028,M
WMC,2024-04-27 03:56,-117.8072,40.9019,1315.00,43.00,37.00,79.19,270.00,5.00,0.00,29.88,1011.50,10.00,M,BKN,M,M,M,11000.00,M,M,M,M,M,M,M,M,M,M,39.46,KWMC 270356Z AUTO 27005KT 10SM BKN110 06/03 A2988 RMK AO2 SLP115 T00610028,M
NFL,2024-04-27 03:56,-118.7010,39.4166,1199.00,47.00,39.00,73.57,60.00,9.00,0.00,29.92,1010.50,10.00,M,FEW,SCT,BKN,M,5000.00,10000.00,25000.00,M,M,M,M,M,M,M,M,42.17,KNFL 270356Z 06009KT 10SM FEW050 SCT100 BKN250 08/04 A2992 RMK AO2 SLP105 SH DSNT NE-E T00830039,M
HND,2024-04-27 03:56,-115.1344,35.9729,742.79,58.00,40.00,51.03,260.00,8.00,0.00,29.72,1006.70,10.00,M,FEW,M,M,M,5500.00,M,M,M,M,M,M,M,M,M,M,58.00,KHND 270356Z AUTO 26008KT 10SM FEW055 14/04 A2972 RMK AO2 LTG DSNT N AND NW SLP067 T01440044,M
TPH,2024-04-27 03:56,-117.0904,38.0505,1654.00,42.00,32.00,67.42,310.00,23.00,0.00,29.84,1008.30,10.00,31.00,CLR,M,M,M,M,M,M,M,M,M,M,M,33.00,320.00,2024-04-27 03:39,31.76,KTPH 270356Z AUTO 31023G31KT 10SM CLR 06/00 A2984 RMK AO2 PK WND 32033/0339 SLP083 T00560000,M
LAS,2024-04-27 03:56,-115.1634,36.0719,663.00,56.00,41.00,57.02,260.00,7.00,0.00,29.72,1005.20,10.00,18.00,SCT,BKN,BKN,OVC,7500.00,9500.00,15000.00,22000.00,TS,M,M,M,M,M,M,56.00,KLAS 270356Z 26007G18KT 10SM TS SCT075 BKN095CB BKN150 OVC220 13/05 A2972 RMK AO2 LTG DSNT NW TSB51 PRESRR SLP052 OCNL LTGICCG W-N TS W-N MOV SE T01330050,M
05U,2024-04-27 04:10,-116.0051,39.6042,1811.23,M,M,M,140.00,6.00,0.00,29.86,M,10.00,M,M,M,M,M,M,M,M,M,M,M,M,M,M,M,M,M,K05U 270410Z AUTO 14006KT 10SM A2986 RMK A01,M
VGT,2024-04-27 04:12,-115.1933,36.2111,667.00,60.00,48.00,64.49,320.00,6.00,T,29.72,M,10.00,M,FEW,BKN,OVC,M,4100.00,8000.00,11000.00,M,-RA,M,M,M,M,M,M,60.00,KVGT 270412Z AUTO 32006KT 10SM -RA FEW041 BKN080 OVC110 16/09 A2972 RMK AO2 TSE06 P0000 T01560089,M
BVU,2024-04-27 04:15,-114.8611,35.9475,671.00,57.20,48.20,71.83,110.00,4.00,0.00,29.70,M,10.00,M,BKN,OVC,M,M,6500.00,7500.00,M,M,M,M,M,M,M,M,M,57.20,KBVU 270415Z AUTO 11004KT 10SM BKN065 OVC075 14/09 A2970 RMK AO2,M
CXP,2024-04-27 04:15,-119.7326,39.1923,1431.00,41.00,33.80,75.33,170.00,3.00,0.00,29.97,M,10.00,M,SCT,BKN,M,M,6000.00,9500.00,M,M,M,M,M,M,M,M,M,38.98,KCXP 270415Z AUTO 17003KT 10SM SCT060 BKN095 05/01 A2997 RMK AO2,M
RTS,2024-04-27 04:15,-119.8764,39.6682,1539.00,37.40,32.00,80.65,270.00,9.00,0.00,29.97,M,10.00,M,CLR,M,M,M,M,M,M,M,M,M,M,M,M,M,M,30.23,KRTS 270415Z AUTO 27009KT 10SM CLR 03/M00 A2997 RMK AO2,M
MEV,2024-04-27 04:15,-119.7500,38.9963,1441.42,41.00,30.20,65.16,0.00,0.00,0.00,29.96,M,10.00,M,CLR,M,M,M,M,M,M,M,M,M,M,M,M,M,M,41.00,KMEV 270415Z AUTO 00000KT 10SM CLR 05/M01 A2996 RMK AO2,M
BAM,2024-04-27 04:15,-116.8743,40.5990,1382.36,44.60,37.40,75.68,320.00,9.00,0.00,29.88,M,10.00,M,BKN,BKN,BKN,M,3500.00,4100.00,8500.00,M,M,M,M,M,M,M,M,39.18,KBAM 270415Z AUTO 32009KT 10SM BKN035 BKN041 BKN085 07/03 A2988 RMK AO1,M
HTH,2024-04-27 04:15,-118.6315,38.5448,1282.89,48.20,33.80,57.26,350.00,5.00,0.00,29.92,M,10.00,M,SCT,BKN,BKN,M,5000.00,6500.00,7500.00,M,M,M,M,M,M,M,M,45.63,KHTH 270415Z AUTO 35005KT 10SM SCT050 BKN065 BKN075 09/01 A2992 RMK A01,M
10U,2024-04-27 04:15,-116.1876,41.9532,1637.00,44.60,33.80,65.61,310.00,8.00,0.00,29.84,M,10.00,M,BKN,OVC,M,M,5000.00,6500.00,M,M,M,M,M,M,M,M,M,39.63,K10U 270415Z AUTO 31008KT 10SM BKN050 OVC065 07/01 A2984 RMK AO2,M
TMT,2024-04-27 04:15,-117.1971,39.4643,1749.34,37.80,33.30,83.65,210.00,4.00,0.00,29.91,M,10.00,M,BKN,BKN,BKN,M,1900.00,2600.00,4700.00,M,M,M,M,M,M,M,M,34.19,KTMT 270415Z AUTO 21004KT 10SM BKN019 BKN026 BKN047 03/01 A2991 RMK AO2 T00320007,M
ELY,2024-04-27 04:26,-114.8453,39.2950,1909.00,38.00,35.00,88.83,340.00,3.00,T,29.78,M,10.00,M,FEW,SCT,OVC,M,1400.00,2700.00,3300.00,M,-RA,M,M,M,M,M,M,35.55,KELY 270426Z AUTO 34003KT 10SM -RA FEW014 SCT027 OVC033 03/02 A2978 RMK AO2 P0000 T00330017,M
LAS,2024-04-27 04:30,-115.1634,36.0719,663.00,56.00,48.00,74.45,310.00,11.00,0.01,29.74,M,10.00,15.00,SCT,BKN,BKN,OVC,7500.00,9500.00,15000.00,22000.00,-RA,M,M,M,M,M,M,56.00,KLAS 270430Z 31011G15KT 10SM -RA SCT075 BKN095 BKN150 OVC220 13/09 A2974 RMK AO2 RAB14 TSE06B07E30 TS DSIPTD P0001 T01330089,M
05U,2024-04-27 04:30,-116.0051,39.6042,1811.23,M,M,M,0.00,0.00,0.00,29.87,M,10.00,M,M,M,M,M,M,M,M,M,M,M,M,M,M,M,M,M,K05U 270430Z AUTO 00000KT 10SM A2987 RMK A01,M
BVU,2024-04-27 04:35,-114.8611,35.9475,671.00,55.40,48.20,76.66,20.00,7.00,0.00,29.72,M,10.00,M,FEW,BKN,OVC,M,4700.00,6000.00,7000.00,M,M,M,M,M,M,M,M,55.40,KBVU 270435Z AUTO 02007KT 10SM FEW047 BKN060 OVC070 13/09 A2972 RMK AO2,M
CXP,2024-04-27 04:35,-119.7326,39.1923,1431.00,41.00,35.60,80.93,0.00,0.00,0.00,29.98,M,10.00,M,FEW,FEW,M,M,8000.00,9500.00,M,M,M,M,M,M,M,M,M,41.00,KCXP 270435Z AUTO 00000KT 10SM FEW080 FEW095 05/02 A2998 RMK AO2,M
RTS,2024-04-27 04:35,-119.8764,39.6682,1539.00,37.40,32.00,80.65,270.00,10.00,0.00,29.98,M,10.00,M,CLR,M,M,M,M,M,M,M,M,M,M,M,M,M,M,29.74,KRTS 270435Z AUTO 27010KT 10SM CLR 03/00 A2998 RMK AO2,M
MEV,2024-04-27 04:35,-119.7500,38.9963,1441.42,39.20,30.20,69.88,0.00,0.00,0.00,29.97,M,10.00,M,SCT,M,M,M,5500.00,M,M,M,M,M,M,M,M,M,M,39.20,KMEV 270435Z AUTO 00000KT 10SM SCT055 04/M01 A2997 RMK AO2,M
HTH,2024-04-27 04:35,-118.6315,38.5448,1282.89,48.20,32.00,53.27,360.00,10.00,0.00,29.93,M,10.00,M,FEW,BKN,M,M,5000.00,6500.00,M,M,M,M,M,M,M,M,M,43.28,KHTH 270435Z AUTO 36010KT 10SM FEW050 BKN065 09/M00 A2993 RMK A01,M
10U,2024-04-27 04:35,-116.1876,41.9532,1637.00,44.60,33.80,65.61,320.00,12.00,0.00,29.85,M,10.00,M,FEW,OVC,M,M,4600.00,6000.00,M,M,M,M,M,M,M,M,M,38.04,K10U 270435Z AUTO 32012KT 10SM FEW046 OVC060 07/01 A2985 RMK AO2,M
BAM,2024-04-27 04:35,-116.8743,40.5990,1382.36,44.60,37.40,75.68,360.00,6.00,0.00,29.89,M,10.00,M,SCT,SCT,SCT,M,3800.00,4800.00,11000.00,M,M,M,M,M,M,M,M,40.71,KBAM 270435Z AUTO 36006KT 10SM SCT038 SCT048 SCT110 07/03 A2989 RMK AO1,M
TMT,2024-04-27 04:35,-117.1971,39.4643,1749.34,37.80,32.40,80.68,280.00,3.00,0.00,29.92,M,10.00,M,SCT,SCT,M,M,1900.00,4700.00,M,M,M,M,M,M,M,M,M,35.32,KTMT 270435Z AUTO 28003KT 10SM SCT019 SCT047 03/00 A2992 RMK AO2 T00320002,M
VGT,2024-04-27 04:41,-115.1933,36.2111,667.00,58.00,44.00,59.54,260.00,12.00,T,29.72,M,10.00,M,SCT,M,M,M,11000.00,M,M,M,M,M,M,M,M,M,M,58.00,KVGT 270441Z AUTO 26012KT 10SM SCT110 14/07 A2972 RMK AO2 WSHFT 0421 RAE19 TSE06 P0000 T01440067,M
05U,2024-04-27 04:50,-116.0051,39.6042,1811.23,M,M,M,0.00,0.00,0.00,29.87,M,10.00,M,M,M,M,M,M,M,M,M,M,M,M,M,M,M,M,M,K05U 270450Z AUTO 00000KT 10SM A2987 RMK A01,M
P68,2024-04-27 04:53,-116.0056,39.6014,1993.00,39.00,34.00,82.08,M,3.00,0.00,29.85,1008.60,M,M,M,M,M,M,M,M,M,M,M,M,M,M,M,M,M,36.69,KP68 270453Z AUTO VRB03KT 04/01 A2985 RMK AO1 SLP086 T00390011,M
DRA,2024-04-27 04:53,-116.0278,36.6206,1009.00,52.00,40.00,63.48,50.00,8.00,0.00,29.77,1005.70,10.00,M,SCT,BKN,M,M,8500.00,11000.00,M,M,M,M,M,M,M,M,M,52.00,KDRA 270453Z AUTO 05008KT 10SM SCT085 BKN110 11/04 A2977 RMK AO2 SLP057 T01110044,M
ELY,2024-04-27 04:53,-114.8453,39.2950,1909.00,38.00,35.00,88.83,360.00,5.00,T,29.78,1006.10,10.00,M,BKN,OVC,M,M,2500.00,3200.00,M,M,M,M,M,M,M,M,M,33.52,KELY 270453Z AUTO 36005KT 10SM BKN025 OVC032 03/02 A2978 RMK AO2 RAE36 SLP061 P0000 T00330017,M
VGT,2024-04-27 04:53,-115.1933,36.2111,667.00,57.00,43.00,59.40,270.00,8.00,T,29.72,1007.00,10.00,M,FEW,FEW,M,M,8500.00,10000.00,M,M,M,M,M,M,M,M,M,57.00,KVGT 270453Z AUTO 27008KT 10SM FEW085 FEW100 14/06 A2972 RMK AO2 WSHFT 0421 RAE19 TSE06 SLP070 P0000 T01390061,M
LOL,2024-04-27 04:53,-118.5701,40.0684,1192.43,45.00,38.00,76.31,0.00,0.00,0.00,29.92,1012.50,10.00,M,CLR,M,M,M,M,M,M,M,M,M,M,M,M,M,M,45.00,KLOL 270453Z AUTO 00000KT 10SM CLR 07/03 A2992 RMK AO2 SLP125 T00720033,M
BVU,2024-04-27 04:55,-114.8611,35.9475,671.00,55.40,48.20,76.66,0.00,0.00,0.00,29.72,M,6.00,M,FEW,SCT,BKN,M,400.00,3000.00,4700.00,M,-RA,M,M,M,M,M,M,55.40,KBVU 270455Z AUTO 00000KT 6SM -RA FEW004 SCT030 BKN047 13/09 A2972 RMK AO2,M
CXP,2024-04-27 04:55,-119.7326,39.1923,1431.00,39.20,35.60,86.79,0.00,0.00,0.00,29.99,M,10.00,M,CLR,M,M,M,M,M,M,M,M,M,M,M,M,M,M,39.20,KCXP 270455Z AUTO 00000KT 10SM CLR 04/02 A2999 RMK AO2,M
INS,2024-04-27 04:55,-115.6733,36.5872,955.00,53.20,40.60,62.18,360.00,12.00,0.00,29.78,1006.10,10.00,M,SCT,OVC,M,M,5000.00,6000.00,M,M,M,M,M,M,M,M,M,53.20,KINS 270455Z AUTO 36012KT 10SM SCT050 OVC060 12/05 A2978 RMK AO2 SLP061 T01180048 $,M
RNO,2024-04-27 04:55,-119.7711,39.4839,1341.00,46.00,31.00,55.58,10.00,3.00,0.00,29.97,1013.00,10.00,M,SCT,M,M,M,8000.00,M,M,M,M,M,M,M,M,M,M,44.69,KRNO 270455Z 01003KT 10SM SCT080 08/M01 A2997 RMK AO2 SLP130 T00781006,M
RTS,2024-04-27 04:55,-119.8764,39.6682,1539.00,37.40,32.00,80.65,270.00,9.00,0.00,29.98,M,10.00,15.00,FEW,M,M,M,3100.00,M,M,M,M,M,M,M,M,M,M,30.23,KRTS 270455Z AUTO 27009G15KT 10SM FEW031 03/00 A2998 RMK AO2,M
MEV,2024-04-27 04:55,-119.7500,38.9963,1441.42,33.80,28.40,80.36,140.00,6.00,0.00,29.97,M,10.00,M,FEW,M,M,M,5500.00,M,M,M,M,M,M,M,M,M,M,27.70,KMEV 270455Z AUTO 14006KT 10SM FEW055 01/M02 A2997 RMK AO2,M
BAM,2024-04-27 04:55,-116.8743,40.5990,1382.36,42.80,39.20,86.99,20.00,4.00,0.00,29.89,M,10.00,M,SCT,BKN,M,M,5000.00,11000.00,M,M,M,M,M,M,M,M,M,40.03,KBAM 270455Z AUTO 02004KT 10SM SCT050 BKN110 06/04 A2989 RMK AO1,M
HTH,2024-04-27 04:55,-118.6315,38.5448,1282.89,46.40,30.20,53.00,360.00,9.00,0.00,29.93,M,10.00,M,SCT,M,M,M,7000.00,M,M,M,M,M,M,M,M,M,M,41.42,KHTH 270455Z AUTO 36009KT 10SM SCT070 08/M01 A2993 RMK A01,M
10U,2024-04-27 04:55,-116.1876,41.9532,1637.00,42.80,35.60,75.50,320.00,12.00,0.00,29.86,M,10.00,17.00,SCT,BKN,BKN,M,4900.00,6000.00,8000.00,M,M,M,M,M,M,M,M,35.75,K10U 270455Z AUTO 32012G17KT 10SM SCT049 BKN060 BKN080 06/02 A2986 RMK AO2,M
TMT,2024-04-27 04:55,-117.1971,39.4643,1749.34,37.20,33.30,85.65,0.00,0.00,0.00,29.93,M,10.00,M,SCT,SCT,BKN,M,3400.00,4100.00,4700.00,M,M,M,M,M,M,M,M,37.20,KTMT 270455Z AUTO 00000KT 10SM SCT034 SCT041 BKN047 03/01 A2993 RMK AO2 T00290007,M
LSV,2024-04-27 04:55,-115.0343,36.2362,570.00,59.00,47.00,64.36,200.00,6.00,0.00,29.68,1003.90,10.00,M,FEW,M,M,M,12000.00,M,M,M,M,M,M,M,M,M,M,59.00,KLSV 270455Z AUTO 20006KT 10SM FEW120 15/08 A2968 RMK AO2 SLP039 T01490084 $,M
EKO,2024-04-27 04:56,-115.7860,40.8242,1367.00,43.00,37.00,79.19,240.00,5.00,0.00,29.82,1008.60,10.00,M,OVC,M,M,M,7000.00,M,M,M,M,M,M,M,M,M,M,39.46,KEKO 270456Z AUTO 24005KT 10SM OVC070 06/03 A2982 RMK AO2 SLP086 T00610028,M
WMC,2024-04-27 04:56,-117.8072,40.9019,1315.00,42.00,37.00,82.30,0.00,0.00,0.00,29.90,1011.90,10.00,M,SCT,M,M,M,8000.00,M,M,M,M,M,M,M,M,M,M,42.00,KWMC 270456Z AUTO 00000KT 10SM SCT080 06/03 A2990 RMK AO2 SLP119 T00560028,M
NFL,2024-04-27 04:56,-118.7010,39.4166,1199.00,46.00,40.00,79.44,30.00,5.00,0.00,29.94,1011.00,10.00,M,FEW,SCT,BKN,M,5000.00,10000.00,25000.00,M,M,M,M,M,M,M,M,43.02,KNFL 270456Z 03005KT 10SM FEW050 SCT100 BKN250 08/04 A2994 RMK AO2 SLP110 T00780044,M
HND,2024-04-27 04:56,-115.1344,35.9729,742.79,53.00,44.00,71.39,310.00,9.00,T,29.77,1008.60,10.00,22.00,FEW,BKN,OVC,M,5000.00,7500.00,9500.00,M,M,M,M,M,M,M,M,53.00,KHND 270456Z AUTO 31009G22KT 10SM FEW050 BKN075 OVC095 12/07 A2977 RMK AO2 RAB32E56 SLP086 P0000 T01170067,M
TPH,2024-04-27 04:56,-117.0904,38.0505,1654.00,42.00,32.00,67.42,320.00,18.00,0.00,29.85,1008.50,10.00,29.00,CLR,M,M,M,M,M,M,M,M,M,M,M,36.00,300.00,2024-04-27 04:18,32.91,KTPH 270456Z AUTO 32018G29KT 10SM CLR 06/00 A2985 RMK AO2 PK WND 30036/0418 SLP085 T00560000,M
LAS,2024-04-27 04:56,-115.1634,36.0719,663.00,54.00,44.00,68.82,270.00,14.00,0.01,29.73,1005.70,10.00,21.00,SCT,BKN,BKN,OVC,7500.00,9500.00,15000.00,22000.00,M,M,M,M,M,M,M,54.00,KLAS 270456Z 27014G21KT 10SM SCT075 BKN095 BKN150 OVC220 12/07 A2973 RMK AO2 RAB14E46 TSE06B07E30 SLP057 TS DSIPTD P0001 T01220067,M
INS,2024-04-27 05:03,-115.6733,36.5872,955.00,53.60,41.00,62.23,350.00,13.00,0.00,29.78,1006.10,10.00,M,FEW,OVC,M,M,3900.00,5500.00,M,M,-RA,M,M,M,M,M,M,53.60,KINS 270503Z AUTO 35013KT 10SM -RA FEW039 OVC055 12/05 A2978 RMK AO2 RAB03 SLP061 $,M
05U,2024-04-27 05:10,-116.0051,39.6042,1811.23,M,M,M,0.00,0.00,0.00,29.87,M,10.00,M,M,M,M,M,M,M,M,M,M,M,M,M,M,M,M,M,K05U 270510Z AUTO 00000KT 10SM A2987 RMK A01,M
BVU,2024-04-27 05:15,-114.8611,35.9475,671.00,55.40,50.00,81.99,0.00,0.00,0.00,29.72,M,10.00,M,FEW,BKN,OVC,M,600.00,7500.00,11000.00,M,M,M,M,M,M,M,M,55.40,KBVU 270515Z AUTO 00000KT 10SM FEW006 BKN075 OVC110 13/10 A2972 RMK AO2,M
CXP,2024-04-27 05:15,-119.7326,39.1923,1431.00,39.20,33.80,80.79,0.00,0.00,0.00,29.99,M,10.00,M,CLR,M,M,M,M,M,M,M,M,M,M,M,M,M,M,39.20,KCXP 270515Z AUTO 00000KT 10SM CLR 04/01 A2999 RMK AO2,M
RTS,2024-04-27 05:15,-119.8764,39.6682,1539.00,35.60,32.00,86.59,260.00,7.00,0.00,29.98,M,10.00,M,FEW,M,M,M,3000.00,M,M,M,M,M,M,M,M,M,M,29.17,KRTS 270515Z AUTO 26007KT 10SM FEW030 02/00 A2998 RMK AO2,M
MEV,2024-04-27 05:15,-119.7500,38.9963,1441.42,35.60,30.20,80.51,100.00,5.00,0.00,29.98,M,10.00,M,CLR,M,M,M,M,M,M,M,M,M,M,M,M,M,M,30.67,KMEV 270515Z AUTO 10005KT 10SM CLR 02/M01 A2998 RMK AO2,M
HTH,2024-04-27 05:15,-118.6315,38.5448,1282.89,46.40,32.00,57.00,350.00,8.00,0.00,29.94,M,10.00,M,FEW,BKN,M,M,5500.00,7000.00,M,M,M,M,M,M,M,M,M,41.85,KHTH 270515Z AUTO 35008KT 10SM FEW055 BKN070 08/M00 A2994 RMK A01,M
10U,2024-04-27 05:15,-116.1876,41.9532,1637.00,42.80,35.60,75.50,320.00,9.00,0.00,29.86,M,10.00,M,FEW,SCT,OVC,M,5000.00,5500.00,7500.00,M,M,M,M,M,M,M,M,36.94,K10U 270515Z AUTO 32009KT 10SM FEW050 SCT055 OVC075 06/02 A2986 RMK AO2,M
BAM,2024-04-27 05:15,-116.8743,40.5990,1382.36,42.80,39.20,86.99,200.00,4.00,0.00,29.89,M,10.00,M,SCT,BKN,M,M,5000.00,8500.00,M,M,M,M,M,M,M,M,M,40.03,KBAM 270515Z AUTO 20004KT 10SM SCT050 BKN085 06/04 A2989 RMK AO1,M
TMT,2024-04-27 05:15,-117.1971,39.4643,1749.34,37.40,33.00,83.96,230.00,3.00,0.00,29.93,M,10.00,M,SCT,BKN,OVC,M,2800.00,3900.00,4800.00,M,M,M,M,M,M,M,M,34.86,KTMT 270515Z AUTO 23003KT 10SM SCT028 BKN039 OVC048 03/01 A2993 RMK AO2 T00300006,M
05U,2024-04-27 05:30,-116.0051,39.6042,1811.23,M,M,M,0.00,0.00,0.00,29.87,M,10.00,M,M,M,M,M,M,M,M,M,M,M,M,M,M,M,M,M,K05U 270530Z AUTO 00000KT 10SM A2987 RMK A01,M
ELY,2024-04-27 05:32,-114.8453,39.2950,1909.00,37.00,35.00,92.39,360.00,7.00,0.01,29.78,M,10.00,M,BKN,OVC,M,M,800.00,1600.00,M,M,-RA,M,M,M,M,M,M,30.87,KELY 270532Z AUTO 36007KT 10SM -RA BKN008 OVC016 03/02 A2978 RMK AO2 RAB0458 P0001 T00280017,M
BVU,2024-04-27 05:35,-114.8611,35.9475,671.00,55.40,46.40,71.64,M,5.00,0.00,29.71,M,10.00,16.00,BKN,M,M,M,11000.00,M,M,M,M,M,M,M,M,M,M,55.40,KBVU 270535Z AUTO VRB05G16KT 10SM BKN110 13/08 A2971 RMK AO2,M
CXP,2024-04-27 05:35,-119.7326,39.1923,1431.00,39.20,33.80,80.79,0.00,0.00,0.00,29.99,M,10.00,M,CLR,M,M,M,M,M,M,M,M,M,M,M,M,M,M,39.20,KCXP 270535Z AUTO 00000KT 10SM CLR 04/01 A2999 RMK AO2,M
RTS,2024-04-27 05:35,-119.8764,39.6682,1539.00,37.40,32.00,80.65,270.00,6.00,0.00,29.99,M,10.00,M,FEW,M,M,M,3000.00,M,M,M,M,M,M,M,M,M,M,32.03,KRTS 270535Z AUTO 27006KT 10SM FEW030 03/00 A2999 RMK AO2,M
MEV,2024-04-27 05:35,-119.7500,38.9963,1441.42,33.80,30.20,86.49,90.00,6.00,0.00,29.98,M,10.00,M,FEW,FEW,M,M,4300.00,4900.00,M,M,M,M,M,M,M,M,M,27.70,KMEV 270535Z AUTO 09006KT 10SM FEW043 FEW049 01/M01 A2998 RMK AO2,M
BAM,2024-04-27 05:35,-116.8743,40.5990,1382.36,44.60,37.40,75.68,240.00,3.00,0.00,29.89,M,10.00,M,OVC,M,M,M,8500.00,M,M,M,M,M,M,M,M,M,M,43.09,KBAM 270535Z AUTO 24003KT 10SM OVC085 07/03 A2989 RMK AO1,M
HTH,2024-04-27 05:35,-118.6315,38.5448,1282.89,46.40,32.00,57.00,360.00,6.00,0.00,29.94,M,10.00,M,BKN,OVC,M,M,5000.00,7000.00,M,M,M,M,M,M,M,M,M,42.87,KHTH 270535Z AUTO 36006KT 10SM BKN050 OVC070 08/M00 A2994 RMK A01,M
10U,2024-04-27 05:35,-116.1876,41.9532,1637.00,42.80,35.60,75.50,320.00,11.00,0.00,29.86,M,10.00,M,SCT,OVC,M,M,6500.00,7500.00,M,M,M,M,M,M,M,M,M,36.11,K10U 270535Z AUTO 32011KT 10SM SCT065 OVC075 06/02 A2986 RMK AO2,M
TMT,2024-04-27 05:35,-117.1971,39.4643,1749.34,38.00,33.40,83.33,290.00,3.00,0.00,29.93,M,10.00,M,BKN,OVC,M,M,2800.00,3900.00,M,M,M,M,M,M,M,M,M,35.55,KTMT 270535Z AUTO 29003KT 10SM BKN028 OVC039 03/01 A2993 RMK AO2 T00330008,M
ELY,2024-04-27 05:46,-114.8453,39.2950,1909.00,37.00,34.00,88.78,10.00,10.00,0.01,29.79,M,10.00,M,SCT,OVC,M,M,700.00,1400.00,M,M,-RA,M,M,M,M,M,M,29.24,KELY 270546Z AUTO 01010KT 10SM -RA SCT007 OVC014 03/01 A2979 RMK AO2 RAB0458 P0001 T00280011,M
05U,2024-04-27 05:50,-116.0051,39.6042,1811.23,M,M,M,0.00,0.00,0.00,29.87,M,10.00,M,M,M,M,M,M,M,M,M,M,M,M,M,M,M,M,M,K05U 270550Z AUTO 00000KT 10SM A2987 RMK A01,M
P68,2024-04-27 05:53,-116.0056,39.6014,1993.00,39.00,34.00,82.08,0.00,0.00,0.00,29.84,1008.30,M,M,M,M,M,M,M,M,M,M,M,M,M,M,M,M,M,39.00,KP68 270553Z AUTO 00000KT 04/01 A2984 RMK AO1 SLP083 T00390011 10089 20033 50010,M
DRA,2024-04-27 05:53,-116.0278,36.6206,1009.00,52.00,39.00,61.06,0.00,0.00,0.00,29.77,1006.10,10.00,M,BKN,M,M,M,9500.00,M,M,M,M,M,M,M,M,M,M,52.00,KDRA 270553Z AUTO 00000KT 10SM BKN095 11/04 A2977 RMK AO2 SLP061 60065 T01110039 10172 20072 50020,M
ELY,2024-04-27 05:53,-114.8453,39.2950,1909.00,36.00,34.00,92.35,20.00,10.00,0.01,29.79,1006.60,8.00,M,SCT,OVC,M,M,700.00,1300.00,M,M,-RA,M,M,M,M,M,M,27.98,KELY 270553Z AUTO 02010KT 8SM -RA SCT007 OVC013 02/01 A2979 RMK AO2 RAB0458 SLP066 P0001 60005 T00220011 10050 20022 51010,M
VGT,2024-04-27 05:53,-115.1933,36.2111,667.00,59.00,41.00,51.18,310.00,26.00,0.00,29.71,1006.90,10.00,33.00,CLR,M,M,M,M,M,M,M,M,M,M,M,33.00,310.00,2024-04-27 05:48,59.00,KVGT 270553Z AUTO 31026G33KT 10SM CLR 15/05 A2971 RMK AO2 PK WND 31033/0548 SLP069 60000 T01500050 10161 20139 50012,M
LOL,2024-04-27 05:53,-118.5701,40.0684,1192.43,40.00,36.00,85.48,150.00,3.00,0.00,29.93,1012.90,10.00,M,FEW,M,M,M,8000.00,M,M,M,M,M,M,M,M,M,M,37.83,KLOL 270553Z AUTO 15003KT 10SM FEW080 04/02 A2993 RMK AO2 SLP129 60000 T00440022 10133 20044 51013,M
BVU,2024-04-27 05:55,-114.8611,35.9475,671.00,55.40,48.20,76.66,80.00,4.00,0.00,29.72,M,10.00,M,BKN,M,M,M,11000.00,M,M,M,M,M,M,M,M,M,M,55.40,KBVU 270555Z AUTO 08004KT 10SM BKN110 13/09 A2972 RMK AO2,M
CXP,2024-04-27 05:55,-119.7326,39.1923,1431.00,37.40,32.00,80.65,340.00,4.00,0.00,29.99,M,10.00,M,CLR,M,M,M,M,M,M,M,M,M,M,M,M,M,M,33.73,KCXP 270555Z AUTO 34004KT 10SM CLR 03/00 A2999 RMK AO2,M
INS,2024-04-27 05:55,-115.6733,36.5872,955.00,52.00,41.00,66.00,0.00,0.00,0.04,29.77,1005.70,10.00,M,FEW,SCT,M,M,500.00,3800.00,M,M,-RA,M,M,M,M,M,M,52.00,KINS 270555Z AUTO 00000KT 10SM -RA FEW005 SCT038 11/05 A2977 RMK AO2 RAB03 SLP057 P0004 60009 T01120049 10163 20104 50019 $,M
RNO,2024-04-27 05:55,-119.7711,39.4839,1341.00,45.00,32.00,60.11,310.00,6.00,0.00,29.97,1013.00,10.00,M,SCT,M,M,M,8000.00,M,M,M,M,M,M,M,M,M,M,41.19,KRNO 270555Z 31006KT 10SM SCT080 07/00 A2997 RMK AO2 SLP130 T00720000 10106 20072 51013,M
LSV,2024-04-27 05:55,-115.0343,36.2362,570.00,59.70,42.00,51.88,310.00,6.00,0.00,29.68,1004.10,10.00,M,SCT,M,M,M,8000.00,M,M,M,M,M,M,M,M,M,M,59.70,KLSV 270555Z AUTO 31006KT 10SM SCT080 15/06 A2968 RMK AO2 SLP041 T01540056 10158 20144 51012 $,M
RTS,2024-04-27 05:55,-119.8764,39.6682,1539.00,35.60,33.80,93.08,270.00,10.00,0.00,29.99,M,10.00,M,CLR,M,M,M,M,M,M,M,M,M,M,M,M,M,M,27.48,KRTS 270555Z AUTO 27010KT 10SM CLR 02/01 A2999 RMK AO2,M
MEV,2024-04-27 05:55,-119.7500,38.9963,1441.42,33.80,28.40,80.36,0.00,0.00,0.00,29.98,M,10.00,M,FEW,FEW,M,M,4200.00,4800.00,M,M,M,M,M,M,M,M,M,33.80,KMEV 270555Z AUTO 00000KT 10SM FEW042 FEW048 01/M02 A2998 RMK AO2,M
BAM,2024-04-27 05:55,-116.8743,40.5990,1382.36,42.80,37.40,81.07,240.00,3.00,0.00,29.89,M,10.00,M,SCT,OVC,M,M,7500.00,8500.00,M,M,M,M,M,M,M,M,M,41.03,KBAM 270555Z AUTO 24003KT 10SM SCT075 OVC085 06/03 A2989 RMK AO1,M
HTH,2024-04-27 05:55,-118.6315,38.5448,1282.89,46.40,32.00,57.00,360.00,11.00,0.00,29.94,M,10.00,17.00,BKN,BKN,M,M,5500.00,7500.00,M,M,M,M,M,M,M,M,M,40.66,KHTH 270555Z AUTO 36011G17KT 10SM BKN055 BKN075 08/M00 A2994 RMK A01,M
TMT,2024-04-27 05:55,-117.1971,39.4643,1749.34,38.00,34.00,85.35,0.00,0.00,0.00,29.93,M,10.00,M,OVC,M,M,M,2800.00,M,M,M,M,M,M,M,M,M,M,38.00,KTMT 270555Z AUTO 00000KT 10SM OVC028 03/01 A2993 RMK AO2 T00330012 10076 20027,M
10U,2024-04-27 05:55,-116.1876,41.9532,1637.00,42.80,35.60,75.50,320.00,10.00,0.00,29.86,M,10.00,M,FEW,SCT,OVC,M,5000.00,6000.00,7000.00,M,M,M,M,M,M,M,M,36.51,K10U 270555Z AUTO 32010KT 10SM FEW050 SCT060 OVC070 06/02 A2986 RMK AO2,M
EKO,2024-04-27 05:56,-115.7860,40.8242,1367.00,44.00,36.00,73.27,250.00,9.00,0.00,29.82,1009.00,10.00,M,BKN,OVC,M,M,4200.00,6500.00,M,M,M,M,M,M,M,M,M,38.44,KEKO 270556Z AUTO 25009KT 10SM BKN042 OVC065 07/02 A2982 RMK AO2 SLP090 T00670022 10094 20061 51014,M
WMC,2024-04-27 05:56,-117.8072,40.9019,1315.00,43.00,36.00,76.12,340.00,3.00,0.00,29.90,1012.10,10.00,M,OVC,M,M,M,7000.00,M,M,M,M,M,M,M,M,M,M,41.26,KWMC 270556Z AUTO 34003KT 10SM OVC070 06/02 A2990 RMK AO2 SLP121 60007 T00610022 10133 20050 51013,M
NFL,2024-04-27 05:56,-118.7010,39.4166,1199.00,45.00,38.00,76.31,300.00,6.00,0.00,29.93,1011.00,10.00,M,FEW,SCT,BKN,M,5500.00,8000.00,10000.00,M,M,M,M,M,M,M,M,41.19,KNFL 270556Z 30006KT 10SM FEW055 SCT080 BKN100 07/03 A2993 RMK AO2 SLP110 60000 T00720033 10133 20072 50017,M
HND,2024-04-27 05:56,-115.1344,35.9729,742.79,54.00,45.00,71.50,0.00,0.00,T,29.75,1008.00,10.00,M,FEW,M,M,M,7000.00,M,M,M,M,M,M,M,M,M,M,54.00,KHND 270556Z AUTO 00000KT 10SM FEW070 12/07 A2975 RMK AO2 RAB03E14 SLP080 P0000 60000 T01220072 10156 20117 50012,M
TPH,2024-04-27 05:56,-117.0904,38.0505,1654.00,41.00,30.00,64.63,320.00,15.00,0.00,29.87,1009.10,10.00,24.00,CLR,M,M,M,M,M,M,M,M,M,M,M,27.00,320.00,2024-04-27 05:12,32.45,KTPH 270556Z AUTO 32015G24KT 10SM CLR 05/M01 A2987 RMK AO2 PK WND 32027/0512 SLP091 60000 T00501011 10111 20050 51014,M
LAS,2024-04-27 05:56,-115.1634,36.0719,663.00,57.00,42.00,57.16,340.00,10.00,0.00,29.73,1005.60,10.00,M,FEW,BKN,BKN,M,9500.00,15000.00,22000.00,M,M,M,M,M,M,M,M,57.00,KLAS 270556Z 34010KT 10SM FEW095 BKN150 BKN220 14/06 A2973 RMK AO2 SLP056 60001 T01390056 10156 20117 50011,M
05U,2024-04-27 06:10,-116.0051,39.6042,1811.23,M,M,M,0.00,0.00,0.00,29.87,M,10.00,M,M,M,M,M,M,M,M,M,M,M,M,M,M,M,M,M,K05U 270610Z AUTO 00000KT 10SM A2987 RMK A01,M
HTH,2024-04-27 06:10,-118.6315,38.5448,1282.89,46.40,32.00,57.00,350.00,9.00,0.00,29.95,M,10.00,17.00,FEW,BKN,M,M,5500.00,7500.00,M,M,M,M,M,M,M,M,M,41.42,KHTH 270610Z AUTO 35009G17KT 10SM FEW055 BKN075 08/M00 A2995 RMK A01,M
LSV,2024-04-27 06:13,-115.0343,36.2362,570.00,59.00,42.80,54.86,310.00,16.00,0.00,29.69,1004.40,10.00,23.00,FEW,SCT,M,M,5000.00,7500.00,M,M,-RA,M,M,M,M,M,M,59.00,KLSV 270613Z AUTO 31016G23KT 10SM -RA FEW050 SCT075 15/06 A2969 RMK AO2 RAB13 SLP044 $,M
BVU,2024-04-27 06:15,-114.8611,35.9475,671.00,55.40,42.80,62.46,300.00,7.00,0.00,29.72,M,10.00,M,BKN,M,M,M,11000.00,M,M,M,M,M,M,M,M,M,M,55.40,KBVU 270615Z AUTO 30007KT 10SM BKN110 13/06 A2972 RMK AO2,M
CXP,2024-04-27 06:15,-119.7326,39.1923,1431.00,37.40,32.00,80.65,0.00,0.00,0.00,30.00,M,10.00,M,CLR,M,M,M,M,M,M,M,M,M,M,M,M,M,M,37.40,KCXP 270615Z AUTO 00000KT 10SM CLR 03/00 A3000 RMK AO2,M
RTS,2024-04-27 06:15,-119.8764,39.6682,1539.00,35.60,32.00,86.59,260.00,7.00,0.00,29.99,M,10.00,M,FEW,M,M,M,4600.00,M,M,M,M,M,M,M,M,M,M,29.17,KRTS 270615Z AUTO 26007KT 10SM FEW046 02/00 A2999 RMK AO2,M
MEV,2024-04-27 06:15,-119.7500,38.9963,1441.42,32.00,28.40,86.39,170.00,4.00,0.00,29.99,M,10.00,M,FEW,M,M,M,4900.00,M,M,M,M,M,M,M,M,M,M,27.42,KMEV 270615Z AUTO 17004KT 10SM FEW049 00/M02 A2999 RMK AO2,M
BAM,2024-04-27 06:15,-116.8743,40.5990,1382.36,42.80,37.40,81.07,0.00,0.00,0.00,29.89,M,10.00,M,BKN,OVC,M,M,7500.00,8500.00,M,M,M,M,M,M,M,M,M,42.80,KBAM 270615Z AUTO 00000KT 10SM BKN075 OVC085 06/03 A2989 RMK AO1,M
10U,2024-04-27 06:15,-116.1876,41.9532,1637.00,42.80,35.60,75.50,320.00,10.00,0.00,29.86,M,10.00,M,BKN,OVC,M,M,6000.00,7000.00,M,M,M,M,M,M,M,M,M,36.51,K10U 270615Z AUTO 32010KT 10SM BKN060 OVC070 06/02 A2986 RMK AO2,M
TMT,2024-04-27 06:15,-117.1971,39.4643,1749.34,37.00,34.70,91.29,0.00,0.00,0.00,29.93,M,10.00,M,BKN,OVC,M,M,2800.00,5000.00,M,M,M,M,M,M,M,M,M,37.00,KTMT 270615Z AUTO 00000KT 10SM BKN028 OVC050 03/02 A2993 RMK AO2 T00280015,M
LSV,2024-04-27 06:22,-115.0343,36.2362,570.00,59.00,42.80,54.86,310.00,21.00,0.00,29.69,1004.60,10.00,29.00,FEW,M,M,M,7500.00,M,M,M,M,M,M,M,M,M,M,59.00,KLSV 270622Z AUTO 31021G29KT 10SM FEW075 15/06 A2969 RMK AO2 RAB13E22 SLP046 $,M
05U,2024-04-27 06:30,-116.0051,39.6042,1811.23,M,M,M,0.00,0.00,0.00,29.88,M,10.00,12.00,M,M,M,M,M,M,M,M,M,M,M,M,M,M,M,M,K05U 270630Z AUTO 00000G12KT 10SM A2988 RMK A01,M
INS,2024-04-27 06:34,-115.6733,36.5872,955.00,53.60,41.00,62.23,0.00,0.00,0.00,29.77,1006.10,10.00,M,FEW,FEW,OVC,M,3600.00,4600.00,6000.00,M,M,M,M,M,M,M,M,53.60,KINS 270634Z AUTO 00000KT 10SM FEW036 FEW046 OVC060 12/05 A2977 RMK AO2 RAE34 SLP061 $,M
ELY,2024-04-27 06:34,-114.8453,39.2950,1909.00,34.00,33.00,96.08,20.00,15.00,0.02,29.80,M,6.00,M,FEW,BKN,OVC,M,1200.00,1800.00,2800.00,M,-SN BR,M,M,M,M,M,M,23.37,KELY 270634Z AUTO 02015KT 6SM -SN BR FEW012 BKN018 OVC028 01/01 A2980 RMK AO2 RAE34SNB34 P0002 T00110006,M
BVU,2024-04-27 06:35,-114.8611,35.9475,671.00,57.20,42.80,58.52,330.00,19.00,0.00,29.72,M,10.00,M,OVC,M,M,M,12000.00,M,M,M,M,M,M,M,M,M,M,57.20,KBVU 270635Z AUTO 33019KT 10SM OVC120 14/06 A2972 RMK AO2,M
CXP,2024-04-27 06:35,-119.7326,39.1923,1431.00,37.40,32.00,80.65,0.00,0.00,0.00,30.00,M,10.00,M,CLR,M,M,M,M,M,M,M,M,M,M,M,M,M,M,37.40,KCXP 270635Z AUTO 00000KT 10SM CLR 03/00 A3000 RMK AO2,M
RTS,2024-04-27 06:35,-119.8764,39.6682,1539.00,37.40,32.00,80.65,0.00,0.00,0.00,30.00,M,10.00,M,CLR,M,M,M,M,M,M,M,M,M,M,M,M,M,M,37.40,KRTS 270635Z AUTO 00000KT 10SM CLR 03/00 A3000 RMK AO2,M
MEV,2024-04-27 06:35,-119.7500,38.9963,1441.42,32.00,28.40,86.39,110.00,6.00,0.00,29.99,M,10.00,M,FEW,SCT,M,M,4000.00,4900.00,M,M,M,M,M,M,M,M,M,25.53,KMEV 270635Z AUTO 11006KT 10SM FEW040 SCT049 00/M02 A2999 RMK AO2,M
BAM,2024-04-27 06:35,-116.8743,40.5990,1382.36,41.00,37.40,86.89,260.00,4.00,0.00,29.91,M,10.00,M,BKN,BKN,M,M,7500.00,9000.00,M,M,M,M,M,M,M,M,M,37.93,KBAM 270635Z AUTO 26004KT 10SM BKN075 BKN090 05/03 A2991 RMK AO1,M
HTH,2024-04-27 06:35,-118.6315,38.5448,1282.89,46.40,32.00,57.00,360.00,9.00,0.00,29.95,M,10.00,M,BKN,BKN,M,M,5000.00,8000.00,M,M,M,M,M,M,M,M,M,41.42,KHTH 270635Z AUTO 36009KT 10SM BKN050 BKN080 08/00 A2995 RMK A01,M
10U,2024-04-27 06:35,-116.1876,41.9532,1637.00,42.80,35.60,75.50,310.00,7.00,0.00,29.87,M,10.00,M,SCT,BKN,OVC,M,4600.00,6000.00,7500.00,M,M,M,M,M,M,M,M,37.94,K10U 270635Z AUTO 31007KT 10SM SCT046 BKN060 OVC075 06/02 A2987 RMK AO2,M
TMT,2024-04-27 06:35,-117.1971,39.4643,1749.34,37.00,34.70,91.29,0.00,0.00,0.00,29.93,M,10.00,M,SCT,BKN,OVC,M,2500.00,3300.00,5000.00,M,M,M,M,M,M,M,M,37.00,KTMT 270635Z AUTO 00000KT 10SM SCT025 BKN033 OVC050 03/02 A2993 RMK AO2 T00280015,M
05U,2024-04-27 06:50,-116.0051,39.6042,1811.23,M,M,M,140.00,6.00,0.00,29.88,M,10.00,M,M,M,M,M,M,M,M,M,M,M,M,M,M,M,M,M,K05U 270650Z AUTO 14006KT 10SM A2988 RMK A01,M
P68,2024-04-27 06:53,-116.0056,39.6014,1993.00,40.00,35.00,82.15,330.00,6.00,0.00,29.85,1008.80,M,M,M,M,M,M,M,M,M,M,M,M,M,M,M,M,M,35.17,KP68 270653Z AUTO 33006KT 04/02 A2985 RMK AO1 SLP088 T00440017,M
DRA,2024-04-27 06:53,-116.0278,36.6206,1009.00,49.00,43.00,79.68,340.00,7.00,0.00,29.77,1006.30,10.00,M,CLR,M,M,M,M,M,M,M,M,M,M,M,M,M,M,45.50,KDRA 270653Z AUTO 34007KT 10SM CLR 09/06 A2977 RMK AO2 SLP063 T00940061,M
ELY,2024-04-27 06:53,-114.8453,39.2950,1909.00,34.00,32.00,92.29,10.00,12.00,0.03,29.80,1007.50,8.00,M,FEW,BKN,OVC,M,1600.00,2600.00,3000.00,M,-RA,M,M,M,M,M,M,24.55,KELY 270653Z AUTO 01012KT 8SM -RA FEW016 BKN026 OVC030 01/00 A2980 RMK AO2 RAE34B45UPB49E50SNB34E45 SLP075 P0003 T00110000,M
VGT,2024-04-27 06:53,-115.1933,36.2111,667.00,58.00,41.00,53.05,310.00,15.00,0.00,29.73,1007.60,10.00,25.00,FEW,SCT,M,M,10000.00,12000.00,M,M,M,M,M,M,42.00,310.00,2024-04-27 05:59,58.00,KVGT 270653Z AUTO 31015G25KT 10SM FEW100 SCT120 14/05 A2973 RMK AO2 PK WND 31042/0559 SLP076 T01440050,M
LOL,2024-04-27 06:53,-118.5701,40.0684,1192.43,39.00,35.00,85.42,120.00,4.00,0.00,29.93,1013.10,10.00,M,CLR,M,M,M,M,M,M,M,M,M,M,M,M,M,M,35.59,KLOL 270653Z AUTO 12004KT 10SM CLR 04/02 A2993 RMK AO2 SLP131 T00390017,M
BVU,2024-04-27 06:55,-114.8611,35.9475,671.00,57.20,41.00,54.60,310.00,18.00,0.00,29.72,M,10.00,26.00,OVC,M,M,M,11000.00,M,M,M,M,M,M,M,M,M,M,57.20,KBVU 270655Z AUTO 31018G26KT 10SM OVC110 14/05 A2972 RMK AO2,M
CXP,2024-04-27 06:55,-119.7326,39.1923,1431.00,37.40,32.00,80.65,0.00,0.00,0.00,30.01,M,10.00,M,BKN,M,M,M,4300.00,M,M,M,M,M,M,M,M,M,M,37.40,KCXP 270655Z AUTO 00000KT 10SM BKN043 03/00 A3001 RMK AO2,M
INS,2024-04-27 06:55,-115.6733,36.5872,955.00,51.00,44.00,76.85,310.00,5.00,0.02,29.77,1006.10,10.00,M,FEW,OVC,M,M,4300.00,6000.00,M,M,M,M,M,M,M,M,M,51.00,KINS 270655Z AUTO 31005KT 10SM FEW043 OVC060 11/07 A2977 RMK AO2 RAE34 SLP061 P0002 T01060067 $,M
RNO,2024-04-27 06:55,-119.7711,39.4839,1341.00,45.00,32.00,60.11,330.00,4.00,0.00,29.99,1013.70,10.00,M,BKN,M,M,M,5000.00,M,M,M,M,M,M,M,M,M,M,42.60,KRNO 270655Z 33004KT 10SM BKN050 07/00 A2999 RMK AO2 SLP137 T00720000,M
LSV,2024-04-27 06:55,-115.0343,36.2362,570.00,58.50,43.30,56.93,320.00,13.00,T,29.70,1004.90,10.00,M,FEW,SCT,M,M,9000.00,12000.00,M,M,M,M,M,M,31.00,320.00,2024-04-27 06:16,58.50,KLSV 270655Z AUTO 32013KT 10SM FEW090 SCT120 15/06 A2970 RMK AO2 PK WND 32031/16 RAB13E22 SLP049 P0000 T01470063 $,M
RTS,2024-04-27 06:55,-119.8764,39.6682,1539.00,35.60,32.00,86.59,0.00,0.00,0.00,30.01,M,10.00,M,FEW,M,M,M,5500.00,M,M,M,M,M,M,M,M,M,M,35.60,KRTS 270655Z AUTO 00000KT 10SM FEW055 02/M00 A3001 RMK AO2,M
MEV,2024-04-27 06:55,-119.7500,38.9963,1441.42,30.20,28.40,92.92,140.00,7.00,0.00,30.00,M,10.00,M,FEW,M,M,M,4800.00,M,M,M,M,M,M,M,M,M,M,22.59,KMEV 270655Z AUTO 14007KT 10SM FEW048 M01/M02 A3000 RMK AO2,M
BAM,2024-04-27 06:55,-116.8743,40.5990,1382.36,41.00,37.40,86.89,250.00,6.00,0.00,29.91,M,10.00,M,SCT,BKN,M,M,7500.00,9000.00,M,M,M,M,M,M,M,M,M,36.37,KBAM 270655Z AUTO 25006KT 10SM SCT075 BKN090 05/03 A2991 RMK AO1,M
HTH,2024-04-27 06:55,-118.6315,38.5448,1282.89,44.60,32.00,61.03,350.00,8.00,0.00,29.96,M,10.00,M,SCT,M,M,M,5000.00,M,M,M,M,M,M,M,M,M,M,39.63,KHTH 270655Z AUTO 35008KT 10SM SCT050 07/00 A2996 RMK A01,M
10U,2024-04-27 06:55,-116.1876,41.9532,1637.00,41.00,35.60,80.93,310.00,4.00,0.00,29.87,M,10.00,M,BKN,BKN,OVC,M,4900.00,7000.00,8000.00,M,M,M,M,M,M,M,M,37.93,K10U 270655Z AUTO 31004KT 10SM BKN049 BKN070 OVC080 05/02 A2987 RMK AO2,M
TMT,2024-04-27 06:55,-117.1971,39.4643,1749.34,36.70,34.70,92.38,0.00,0.00,0.00,29.94,M,10.00,M,BKN,BKN,M,M,2500.00,3300.00,M,M,M,M,M,M,M,M,M,36.70,KTMT 270655Z AUTO 00000KT 10SM BKN025 BKN033 03/02 A2994 RMK AO2 T00260015,M
EKO,2024-04-27 06:56,-115.7860,40.8242,1367.00,45.00,33.00,62.58,0.00,0.00,0.00,29.83,1009.00,10.00,M,BKN,M,M,M,9500.00,M,M,M,M,M,M,M,M,M,M,45.00,KEKO 270656Z AUTO 00000KT 10SM BKN095 07/01 A2983 RMK AO2 SLP090 T00720006,M
WMC,2024-04-27 06:56,-117.8072,40.9019,1315.00,39.00,35.00,85.42,280.00,5.00,0.00,29.92,1012.50,10.00,M,OVC,M,M,M,8000.00,M,M,M,M,M,M,M,M,M,M,34.71,KWMC 270656Z AUTO 28005KT 10SM OVC080 04/02 A2992 RMK AO2 SLP125 T00390017,M
NFL,2024-04-27 06:56,-118.7010,39.4166,1199.00,44.00,38.00,79.27,0.00,0.00,0.00,29.94,1011.20,10.00,M,CLR,M,M,M,M,M,M,M,M,M,M,M,M,M,M,44.00,KNFL 270656Z AUTO 00000KT 10SM CLR 07/03 A2994 RMK AO2 SLP112 T00670033,M
HND,2024-04-27 06:56,-115.1344,35.9729,742.79,57.00,41.00,54.99,330.00,12.00,0.00,29.76,1008.80,10.00,M,OVC,M,M,M,8000.00,M,M,M,M,M,M,M,M,M,M,57.00,KHND 270656Z AUTO 33012KT 10SM OVC080 14/05 A2976 RMK AO2 SLP088 T01390050 401780100,M
TPH,2024-04-27 06:56,-117.0904,38.0505,1654.00,40.00,31.00,69.97,310.00,17.00,0.00,29.88,1009.20,10.00,M,CLR,M,M,M,M,M,M,M,M,M,M,M,26.00,320.00,2024-04-27 05:59,30.56,KTPH 270656Z AUTO 31017KT 10SM CLR 04/M01 A2988 RMK AO2 PK WND 32026/0559 SLP092 T00441006,M
LAS,2024-04-27 06:56,-115.1634,36.0719,663.00,57.00,40.00,52.90,310.00,18.00,0.00,29.74,1006.30,10.00,26.00,FEW,BKN,BKN,M,9500.00,15000.00,22000.00,M,M,M,M,M,34.00,330.00,2024-04-27 06:12,57.00,KLAS 270656Z 31018G26KT 10SM FEW095 BKN150 BKN220 14/04 A2974 RMK AO2 PK WND 33034/0612 SLP063 T01390044,M
05U,2024-04-27 07:10,-116.0051,39.6042,1811.23,M,M,M,120.00,5.00,0.00,29.88,M,10.00,M,M,M,M,M,M,M,M,M,M,M,M,M,M,M,M,M,K05U 270710Z AUTO 12005KT 10SM A2988 RMK A01,M
BVU,2024-04-27 07:15,-114.8611,35.9475,671.00,55.40,41.00,58.27,320.00,15.00,0.00,29.73,M,10.00,27.00,FEW,SCT,BKN,M,1900.00,6000.00,9000.00,M,-DZ,M,M,M,M,M,M,55.40,KBVU 270715Z AUTO 32015G27KT 10SM -DZ FEW019 SCT060 BKN090 13/05 A2973 RMK AO2,M
CXP,2024-04-27 07:15,-119.7326,39.1923,1431.00,37.40,33.80,86.69,0.00,0.00,0.00,30.01,M,10.00,M,OVC,M,M,M,4200.00,M,M,M,M,M,M,M,M,M,M,37.40,KCXP 270715Z AUTO 00000KT 10SM OVC042 03/01 A3001 RMK AO2,M
RTS,2024-04-27 07:15,-119.8764,39.6682,1539.00,35.60,32.00,86.59,250.00,4.00,0.00,30.01,M,10.00,M,BKN,M,M,M,5000.00,M,M,M,M,M,M,M,M,M,M,31.62,KRTS 270715Z AUTO 25004KT 10SM BKN050 02/00 A3001 RMK AO2,M
MEV,2024-04-27 07:15,-119.7500,38.9963,1441.42,32.00,28.40,86.39,120.00,7.00,0.00,30.00,M,10.00,M,SCT,SCT,M,M,4700.00,6500.00,M,M,M,M,M,M,M,M,M,24.78,KMEV 270715Z AUTO 12007KT 10SM SCT047 SCT065 M00/M02 A3000 RMK AO2,M
HTH,2024-04-27 07:15,-118.6315,38.5448,1282.89,44.60,33.80,65.61,350.00,7.00,0.00,29.96,M,10.00,M,CLR,M,M,M,M,M,M,M,M,M,M,M,M,M,M,40.14,KHTH 270715Z AUTO 35007KT 10SM CLR 07/01 A2996 RMK A01,M
10U,2024-04-27 07:15,-116.1876,41.9532,1637.00,39.20,33.80,80.79,20.00,4.00,0.00,29.88,M,10.00,M,FEW,BKN,M,M,5000.00,7500.00,M,M,M,M,M,M,M,M,M,35.83,K10U 270715Z AUTO 02004KT 10SM FEW050 BKN075 04/01 A2988 RMK AO2,M
BAM,2024-04-27 07:15,-116.8743,40.5990,1382.36,41.00,37.40,86.89,260.00,3.00,0.00,29.91,M,10.00,M,BKN,M,M,M,7500.00,M,M,M,M,M,M,M,M,M,M,38.98,KBAM 270715Z AUTO 26003KT 10SM BKN075 05/03 A2991 RMK AO1,M
TMT,2024-04-27 07:15,-117.1971,39.4643,1749.34,36.00,33.00,88.73,190.00,3.00,0.00,29.94,M,10.00,M,SCT,BKN,M,M,2500.00,3100.00,M,M,M,M,M,M,M,M,M,33.26,KTMT 270715Z AUTO 19003KT 10SM SCT025 BKN031 02/01 A2994 RMK AO2 T00220006,M
ELY,2024-04-27 07:22,-114.8453,39.2950,1909.00,35.00,34.00,96.09,350.00,8.00,T,29.80,M,10.00,M,FEW,SCT,OVC,M,1400.00,3000.00,6000.00,M,M,M,M,M,M,M,M,27.81,KELY 270722Z AUTO 35008KT 10SM FEW014 SCT030 OVC060 02/01 A2980 RMK AO2 RAE02 P0000 T00170011,M
05U,2024-04-27 07:30,-116.0051,39.6042,1811.23,M,M,M,140.00,6.00,0.00,29.88,M,10.00,M,M,M,M,M,M,M,M,M,M,M,M,M,M,M,M,M,K05U 270730Z AUTO 14006KT 10SM A2988 RMK A01,M
BVU,2024-04-27 07:35,-114.8611,35.9475,671.00,57.20,41.00,54.60,320.00,20.00,0.00,29.72,M,10.00,25.00,SCT,BKN,OVC,M,3300.00,6500.00,7500.00,M,M,M,M,M,M,M,M,57.20,KBVU 270735Z AUTO 32020G25KT 10SM SCT033 BKN065 OVC075 14/05 A2972 RMK AO2,M
CXP,2024-04-27 07:35,-119.7326,39.1923,1431.00,37.40,33.80,86.69,340.00,6.00,0.00,30.01,M,10.00,M,OVC,M,M,M,4100.00,M,M,M,M,M,M,M,M,M,M,32.03,KCXP 270735Z AUTO 34006KT 10SM OVC041 03/01 A3001 RMK AO2,M
RTS,2024-04-27 07:35,-119.8764,39.6682,1539.00,37.40,32.00,80.65,230.00,5.00,0.00,30.01,M,10.00,M,BKN,M,M,M,4900.00,M,M,M,M,M,M,M,M,M,M,32.81,KRTS 270735Z AUTO 23005KT 10SM BKN049 03/00 A3001 RMK AO2,M
MEV,2024-04-27 07:35,-119.7500,38.9963,1441.42,32.00,28.40,86.39,120.00,4.00,0.00,30.00,M,10.00,M,FEW,FEW,M,M,4700.00,6500.00,M,M,M,M,M,M,M,M,M,27.42,KMEV 270735Z AUTO 12004KT 10SM FEW047 FEW065 M00/M02 A3000 RMK AO2,M
BAM,2024-04-27 07:35,-116.8743,40.5990,1382.36,41.00,37.40,86.89,260.00,3.00,0.00,29.91,M,10.00,M,SCT,SCT,SCT,M,5000.00,7500.00,8000.00,M,M,M,M,M,M,M,M,38.98,KBAM 270735Z AUTO 26003KT 10SM SCT050 SCT075 SCT080 05/03 A2991 RMK AO1,M
HTH,2024-04-27 07:35,-118.6315,38.5448,1282.89,44.60,33.80,65.61,350.00,5.00,0.00,29.97,M,10.00,M,SCT,M,M,M,4800.00,M,M,M,M,M,M,M,M,M,M,41.36,KHTH 270735Z AUTO 35005KT 10SM SCT048 07/01 A2997 RMK A01,M
TMT,2024-04-27 07:35,-117.1971,39.4643,1749.34,35.60,33.00,90.15,210.00,3.00,0.00,29.94,M,10.00,M,SCT,BKN,M,M,3100.00,6500.00,M,M,M,M,M,M,M,M,M,32.80,KTMT 270735Z AUTO 21003KT 10SM SCT031 BKN065 02/01 A2994 RMK AO2 T00200006,M
10U,2024-04-27 07:35,-116.1876,41.9532,1637.00,37.40,33.80,86.69,0.00,0.00,0.00,29.88,M,10.00,M,BKN,M,M,M,4700.00,M,M,M,M,M,M,M,M,M,M,37.40,K10U 270735Z AUTO 00000KT 10SM BKN047 03/01 A2988 RMK AO2,M
05U,2024-04-27 07:50,-116.0051,39.6042,1811.23,M,M,M,150.00,8.00,0.00,29.89,M,10.00,M,M,M,M,M,M,M,M,M,M,M,M,M,M,M,M,M,K05U 270750Z AUTO 15008KT 10SM A2989 RMK A01,M
P68,2024-04-27 07:53,-116.0056,39.6014,1993.00,40.00,34.00,78.94,340.00,8.00,0.00,29.86,1008.90,M,14.00,M,M,M,M,M,M,M,M,M,M,M,M,M,M,M,33.97,KP68 270753Z AUTO 34008G14KT 04/01 A2986 RMK AO1 SLP089 T00440011 400890028,M
DRA,2024-04-27 07:53,-116.0278,36.6206,1009.00,47.00,41.00,79.52,0.00,0.00,0.00,29.78,1006.60,10.00,M,CLR,M,M,M,M,M,M,M,M,M,M,M,M,M,M,47.00,KDRA 270753Z AUTO 00000KT 10SM CLR 08/05 A2978 RMK AO2 SLP066 T00830050 401720072,M
ELY,2024-04-27 07:53,-114.8453,39.2950,1909.00,36.00,34.00,92.35,330.00,8.00,T,29.80,1007.00,10.00,M,SCT,BKN,OVC,M,3000.00,4000.00,6000.00,M,M,M,M,M,M,M,M,29.04,KELY 270753Z AUTO 33008KT 10SM SCT030 BKN040 OVC060 02/01 A2980 RMK AO2 RAE02 SLP070 P0000 T00220011 400610011,M
VGT,2024-04-27 07:53,-115.1933,36.2111,667.00,58.00,41.00,53.05,320.00,13.00,0.00,29.72,1007.70,10.00,M,SCT,OVC,M,M,8000.00,9500.00,M,M,M,M,M,M,M,M,M,58.00,KVGT 270753Z AUTO 32013KT 10SM SCT080 OVC095 14/05 A2972 RMK AO2 SLP077 T01440050 401940106,M
LOL,2024-04-27 07:53,-118.5701,40.0684,1192.43,39.00,35.00,85.42,0.00,0.00,0.00,29.95,1013.40,10.00,M,CLR,M,M,M,M,M,M,M,M,M,M,M,M,M,M,39.00,KLOL 270753Z AUTO 00000KT 10SM CLR 04/02 A2995 RMK AO2 SLP134 T00390017 401560028,M
BVU,2024-04-27 07:55,-114.8611,35.9475,671.00,53.60,44.60,71.45,320.00,13.00,0.00,29.73,M,7.00,18.00,FEW,SCT,BKN,M,600.00,3300.00,5500.00,M,-RA,M,M,M,M,M,M,53.60,KBVU 270755Z AUTO 32013G18KT 7SM -RA FEW006 SCT033 BKN055 12/07 A2973 RMK AO2,M
CXP,2024-04-27 07:55,-119.7326,39.1923,1431.00,37.40,32.00,80.65,0.00,0.00,0.00,30.01,M,10.00,M,BKN,M,M,M,4300.00,M,M,M,M,M,M,M,M,M,M,37.40,KCXP 270755Z AUTO 00000KT 10SM BKN043 03/00 A3001 RMK AO2,M
INS,2024-04-27 07:55,-115.6733,36.5872,955.00,49.60,45.00,84.10,270.00,4.00,0.00,29.77,1006.10,10.00,M,CLR,M,M,M,M,M,M,M,M,M,M,M,M,M,M,47.97,KINS 270755Z AUTO 27004KT 10SM CLR 10/07 A2977 RMK AO2 SLP061 T00980072 401710098 $,M
RNO,2024-04-27 07:55,-119.7711,39.4839,1341.00,45.00,31.00,57.73,300.00,3.00,0.00,29.99,1013.80,10.00,M,SCT,M,M,M,5000.00,M,M,M,M,M,M,M,M,M,M,43.55,KRNO 270755Z 30003KT 10SM SCT050 07/M01 A2999 RMK AO2 SLP138 T00721006 401220056,M
LSV,2024-04-27 07:55,-115.0343,36.2362,570.00,58.30,44.00,58.90,300.00,6.00,0.00,29.70,1005.00,10.00,M,SCT,SCT,M,M,9000.00,10000.00,M,M,M,M,M,M,M,M,M,58.30,KLSV 270755Z AUTO 30006KT 10SM SCT090 SCT100 15/07 A2970 RMK AO2 SLP050 T01460067 401980109 $,M
RTS,2024-04-27 07:55,-119.8764,39.6682,1539.00,35.60,32.00,86.59,240.00,5.00,0.00,30.02,M,10.00,M,FEW,FEW,M,M,2400.00,4900.00,M,M,M,M,M,M,M,M,M,30.67,KRTS 270755Z AUTO 24005KT 10SM FEW024 FEW049 02/M00 A3002 RMK AO2,M
MEV,2024-04-27 07:55,-119.7500,38.9963,1441.42,30.20,28.40,92.92,0.00,0.00,0.00,30.01,M,10.00,M,BKN,M,M,M,4500.00,M,M,M,M,M,M,M,M,M,M,30.20,KMEV 270755Z AUTO 00000KT 10SM BKN045 M01/M02 A3001 RMK AO2,M
BAM,2024-04-27 07:55,-116.8743,40.5990,1382.36,41.00,37.40,86.89,0.00,0.00,0.00,29.92,M,10.00,M,SCT,BKN,M,M,5000.00,7000.00,M,M,M,M,M,M,M,M,M,41.00,KBAM 270755Z AUTO 00000KT 10SM SCT050 BKN070 05/03 A2992 RMK AO1,M
HTH,2024-04-27 07:55,-118.6315,38.5448,1282.89,44.60,33.80,65.61,0.00,0.00,0.00,29.97,M,10.00,M,SCT,BKN,M,M,4800.00,6000.00,M,M,M,M,M,M,M,M,M,44.60,KHTH 270755Z AUTO 00000KT 10SM SCT048 BKN060 07/01 A2997 RMK A01,M
10U,2024-04-27 07:55,-116.1876,41.9532,1637.00,37.40,33.80,86.69,0.00,0.00,0.00,29.88,M,10.00,M,SCT,SCT,M,M,4700.00,5500.00,M,M,M,M,M,M,M,M,M,37.40,K10U 270755Z AUTO 00000KT 10SM SCT047 SCT055 03/01 A2988 RMK AO2,M
TMT,2024-04-27 07:55,-117.1971,39.4643,1749.34,35.60,33.40,91.60,220.00,3.00,0.00,29.94,M,10.00,M,SCT,BKN,OVC,M,3300.00,4400.00,6000.00,M,M,M,M,M,M,M,M,32.80,KTMT 270755Z AUTO 22003KT 10SM SCT033 BKN044 OVC060 02/01 A2994 RMK AO2 T00200008 400800012,M
EKO,2024-04-27 07:56,-115.7860,40.8242,1367.00,42.00,34.00,73.06,160.00,6.00,0.00,29.84,1009.70,10.00,M,CLR,M,M,M,M,M,M,M,M,M,M,M,M,M,M,37.57,KEKO 270756Z AUTO 16006KT 10SM CLR 06/01 A2984 RMK AO2 SLP097 T00560011 400940044,M
WMC,2024-04-27 07:56,-117.8072,40.9019,1315.00,38.00,34.00,85.35,290.00,6.00,0.00,29.93,1012.70,10.00,M,FEW,M,M,M,7000.00,M,M,M,M,M,M,M,M,M,M,32.76,KWMC 270756Z AUTO 29006KT 10SM FEW070 03/01 A2993 RMK AO2 SLP127 T00330011 401330033,M
NFL,2024-04-27 07:56,-118.7010,39.4166,1199.00,42.00,37.00,82.30,0.00,0.00,0.00,29.96,1011.60,10.00,M,CLR,M,M,M,M,M,M,M,M,M,M,M,M,M,M,42.00,KNFL 270756Z AUTO 00000KT 10SM CLR 06/03 A2996 RMK AO2 SLP116 T00560028 401560044,M
HND,2024-04-27 07:56,-115.1344,35.9729,742.79,58.00,39.00,49.08,330.00,11.00,0.00,29.76,1008.90,10.00,M,BKN,OVC,M,M,7000.00,8500.00,M,M,M,M,M,M,M,M,M,58.00,KHND 270756Z AUTO 33011KT 10SM BKN070 OVC085 14/04 A2976 RMK AO2 SLP089 T01440039,M
TPH,2024-04-27 07:56,-117.0904,38.0505,1654.00,39.00,31.00,72.75,320.00,16.00,0.00,29.89,1009.60,10.00,24.00,CLR,M,M,M,M,M,M,M,M,M,M,M,26.00,310.00,2024-04-27 07:19,29.54,KTPH 270756Z AUTO 32016G24KT 10SM CLR 04/M01 A2989 RMK AO2 PK WND 31026/0719 SLP096 T00391006 401390039,M
LAS,2024-04-27 07:56,-115.1634,36.0719,663.00,57.00,40.00,52.90,310.00,8.00,0.00,29.74,1006.40,10.00,M,FEW,BKN,BKN,M,9500.00,15000.00,22000.00,M,M,M,M,M,M,M,M,57.00,KLAS 270756Z 31008KT 10SM FEW095 BKN150 BKN220 14/04 A2974 RMK AO2 SLP064 T01390044 401830106,M
ELY,2024-04-27 08:05,-114.8453,39.2950,1909.00,36.00,34.00,92.35,320.00,10.00,T,29.80,M,5.00,M,SCT,BKN,OVC,M,1600.00,2900.00,4400.00,M,RA BR,M,M,M,M,M,M,27.98,KELY 270805Z AUTO 32010KT 5SM RA BR SCT016 BKN029 OVC044 02/01 A2980 RMK AO2 RAB01 P0000 T00220011,M
05U,2024-04-27 08:10,-116.0051,39.6042,1811.23,M,M,M,150.00,7.00,0.00,29.89,M,10.00,M,M,M,M,M,M,M,M,M,M,M,M,M,M,M,M,M,K05U 270810Z AUTO 15007KT 10SM A2989 RMK A01,M
BVU,2024-04-27 08:15,-114.8611,35.9475,671.00,55.40,41.00,58.27,320.00,12.00,0.00,29.72,M,10.00,M,FEW,SCT,BKN,M,600.00,4600.00,5500.00,M,M,M,M,M,M,M,M,55.40,KBVU 270815Z AUTO 32012KT 10SM FEW006 SCT046 BKN055 13/05 A2972 RMK AO2,M
CXP,2024-04-27 08:15,-119.7326,39.1923,1431.00,37.40,32.00,80.65,0.00,0.00,0.00,30.02,M,10.00,M,FEW,M,M,M,4300.00,M,M,M,M,M,M,M,M,M,M,37.40,KCXP 270815Z AUTO 00000KT 10SM FEW043 03/00 A3002 RMK AO2,M
RTS,2024-04-27 08:15,-119.8764,39.6682,1539.00,35.60,32.00,86.59,270.00,5.00,0.00,30.01,M,10.00,M,BKN,M,M,M,4600.00,M,M,M,M,M,M,M,M,M,M,30.67,KRTS 270815Z AUTO 27005KT 10SM BKN046 02/M00 A3001 RMK AO2,M
MEV,2024-04-27 08:15,-119.7500,38.9963,1441.42,30.20,28.40,92.92,160.00,4.00,0.00,30.00,M,10.00,M,OVC,M,M,M,4400.00,M,M,M,M,M,M,M,M,M,M,25.32,KMEV 270815Z AUTO 16004KT 10SM OVC044 M01/M02 A3000 RMK AO2,M
BAM,2024-04-27 08:15,-116.8743,40.5990,1382.36,41.00,37.40,86.89,0.00,0.00,0.00,29.92,M,10.00,M,OVC,M,M,M,7000.00,M,M,M,M,M,M,M,M,M,M,41.00,KBAM 270815Z AUTO 00000KT 10SM OVC070 05/03 A2992 RMK AO1,M
HTH,2024-04-27 08:15,-118.6315,38.5448,1282.89,42.80,33.80,70.28,0.00,0.00,0.00,29.97,M,10.00,M,SCT,BKN,M,M,4600.00,6000.00,M,M,M,M,M,M,M,M,M,42.80,KHTH 270815Z AUTO 00000KT 10SM SCT046 BKN060 06/01 A2997 RMK A01,M
10U,2024-04-27 08:15,-116.1876,41.9532,1637.00,37.40,33.80,86.69,0.00,0.00,0.00,29.88,M,10.00,M,BKN,M,M,M,4700.00,M,M,M,M,M,M,M,M,M,M,37.40,K10U 270815Z AUTO 00000KT 10SM BKN047 03/01 A2988 RMK AO2,M
TMT,2024-04-27 08:15,-117.1971,39.4643,1749.34,35.80,33.40,90.88,0.00,0.00,0.00,29.94,M,10.00,M,OVC,M,M,M,4400.00,M,M,M,M,M,M,M,M,M,M,35.80,KTMT 270815Z AUTO 00000KT 10SM OVC044 02/01 A2994 RMK AO2 T00210008,M
05U,2024-04-27 08:30,-116.0051,39.6042,1811.23,M,M,M,140.00,8.00,0.00,29.89,M,10.00,M,M,M,M,M,M,M,M,M,M,M,M,M,M,M,M,M,K05U 270830Z AUTO 14008KT 10SM A2989 RMK A01,M
BVU,2024-04-27 08:35,-114.8611,35.9475,671.00,55.40,42.80,62.46,310.00,11.00,0.00,29.73,M,10.00,17.00,FEW,BKN,OVC,M,3100.00,4400.00,7000.00,M,-DZ,M,M,M,M,M,M,55.40,KBVU 270835Z AUTO 31011G17KT 10SM -DZ FEW031 BKN044 OVC070 13/06 A2973 RMK AO2,M
CXP,2024-04-27 08:35,-119.7326,39.1923,1431.00,37.40,32.00,80.65,0.00,0.00,0.00,30.02,M,10.00,M,FEW,M,M,M,4100.00,M,M,M,M,M,M,M,M,M,M,37.40,KCXP 270835Z AUTO 00000KT 10SM FEW041 03/00 A3002 RMK AO2,M
RTS,2024-04-27 08:35,-119.8764,39.6682,1539.00,35.60,32.00,86.59,300.00,3.00,0.00,30.01,M,10.00,M,OVC,M,M,M,4500.00,M,M,M,M,M,M,M,M,M,M,32.80,KRTS 270835Z AUTO 30003KT 10SM OVC045 02/M00 A3001 RMK AO2,M
MEV,2024-04-27 08:35,-119.7500,38.9963,1441.42,32.00,28.40,86.39,160.00,4.00,0.00,30.01,M,10.00,M,OVC,M,M,M,4400.00,M,M,M,M,M,M,M,M,M,M,27.42,KMEV 270835Z AUTO 16004KT 10SM OVC044 M00/M02 A3001 RMK AO2,M
BAM,2024-04-27 08:35,-116.8743,40.5990,1382.36,39.20,35.60,86.79,0.00,0.00,0.00,29.92,M,10.00,M,BKN,M,M,M,7000.00,M,M,M,M,M,M,M,M,M,M,39.20,KBAM 270835Z AUTO 00000KT 10SM BKN070 04/02 A2992 RMK AO1,M
HTH,2024-04-27 08:35,-118.6315,38.5448,1282.89,44.60,33.80,65.61,0.00,0.00,0.00,29.97,M,10.00,M,BKN,M,M,M,4500.00,M,M,M,M,M,M,M,M,M,M,44.60,KHTH 270835Z AUTO 00000KT 10SM BKN045 07/01 A2997 RMK A01,M
10U,2024-04-27 08:35,-116.1876,41.9532,1637.00,33.80,32.00,93.03,220.00,3.00,0.00,29.89,M,10.00,M,SCT,M,M,M,5000.00,M,M,M,M,M,M,M,M,M,M,30.75,K10U 270835Z AUTO 22003KT 10SM SCT050 01/M00 A2989 RMK AO2,M
TMT,2024-04-27 08:35,-117.1971,39.4643,1749.34,36.00,33.80,91.62,240.00,3.00,0.00,29.94,M,10.00,M,SCT,OVC,M,M,3400.00,4200.00,M,M,M,M,M,M,M,M,M,33.26,KTMT 270835Z AUTO 24003KT 10SM SCT034 OVC042 02/01 A2994 RMK AO2 T00220010,M
05U,2024-04-27 08:50,-116.0051,39.6042,1811.23,M,M,M,120.00,5.00,0.00,29.89,M,10.00,M,M,M,M,M,M,M,M,M,M,M,M,M,M,M,M,M,K05U 270850Z AUTO 12005KT 10SM A2989 RMK A01,M
P68,2024-04-27 08:53,-116.0056,39.6014,1993.00,37.00,33.00,85.29,320.00,5.00,0.00,29.86,1009.20,M,M,M,M,M,M,M,M,M,M,M,M,M,M,M,M,M,32.33,KP68 270853Z AUTO 32005KT 03/01 A2986 RMK AO1 SLP092 T00280006 51006,M
DRA,2024-04-27 08:53,-116.0278,36.6206,1009.00,46.00,41.00,82.58,0.00,0.00,0.00,29.78,1006.40,10.00,M,CLR,M,M,M,M,M,M,M,M,M,M,M,M,M,M,46.00,KDRA 270853Z AUTO 00000KT 10SM CLR 08/05 A2978 RMK AO2 SLP064 T00780050 51004,M
ELY,2024-04-27 08:53,-114.8453,39.2950,1909.00,36.00,35.00,96.11,10.00,8.00,0.02,29.80,1007.00,10.00,M,SCT,OVC,M,M,1700.00,3400.00,M,M,M,M,M,M,M,M,M,29.04,KELY 270853Z AUTO 01008KT 10SM SCT017 OVC034 02/02 A2980 RMK AO2 RAB01E42 SLP070 P0002 60005 T00220017 50003,M
VGT,2024-04-27 08:53,-115.1933,36.2111,667.00,59.00,41.00,51.18,320.00,9.00,0.00,29.72,1007.30,10.00,M,OVC,M,M,M,10000.00,M,M,M,M,M,M,M,M,M,M,59.00,KVGT 270853Z AUTO 32009KT 10SM OVC100 15/05 A2972 RMK AO2 SLP073 T01500050 50002,M
LOL,2024-04-27 08:53,-118.5701,40.0684,1192.43,39.00,35.00,85.42,280.00,3.00,0.00,29.95,1013.50,10.00,M,BKN,M,M,M,5500.00,M,M,M,M,M,M,M,M,M,M,36.69,KLOL 270853Z AUTO 28003KT 10SM BKN055 04/02 A2995 RMK AO2 SLP135 T00390017 51008,M
BVU,2024-04-27 08:55,-114.8611,35.9475,671.00,55.40,42.80,62.46,310.00,8.00,0.00,29.72,M,10.00,M,SCT,BKN,OVC,M,4400.00,6000.00,7000.00,M,M,M,M,M,M,M,M,55.40,KBVU 270855Z AUTO 31008KT 10SM SCT044 BKN060 OVC070 13/06 A2972 RMK AO2,M
CXP,2024-04-27 08:55,-119.7326,39.1923,1431.00,35.60,32.00,86.59,0.00,0.00,0.00,30.02,M,10.00,M,CLR,M,M,M,M,M,M,M,M,M,M,M,M,M,M,35.60,KCXP 270855Z AUTO 00000KT 10SM CLR 02/00 A3002 RMK AO2,M
INS,2024-04-27 08:55,-115.6733,36.5872,955.00,50.00,43.30,77.65,230.00,4.00,0.00,29.77,1005.70,10.00,M,CLR,M,M,M,M,M,M,M,M,M,M,M,M,M,M,50.00,KINS 270855Z AUTO 23004KT 10SM CLR 10/06 A2977 RMK AO2 SLP057 60002 T01000063 55000 $,M
RNO,2024-04-27 08:55,-119.7711,39.4839,1341.00,44.00,32.00,62.44,30.00,3.00,0.00,30.00,1014.30,10.00,M,SCT,M,M,M,4500.00,M,M,M,M,M,M,M,M,M,M,42.41,KRNO 270855Z 03003KT 10SM SCT045 07/00 A3000 RMK AO2 SLP143 T00670000 51007,M
LSV,2024-04-27 08:55,-115.0343,36.2362,570.00,59.00,42.60,54.44,230.00,10.00,0.00,29.68,1004.20,10.00,M,CLR,M,M,M,M,M,M,M,M,M,M,M,M,M,M,59.00,KLSV 270855Z AUTO 23010KT 10SM CLR 15/06 A2968 RMK AO2 SLP042 60000 T01490059 58000 $,M
RTS,2024-04-27 08:55,-119.8764,39.6682,1539.00,33.80,32.00,93.03,320.00,7.00,0.00,30.01,M,10.00,M,BKN,M,M,M,4500.00,M,M,M,M,M,M,M,M,M,M,26.97,KRTS 270855Z AUTO 32007KT 10SM BKN045 01/M00 A3001 RMK AO2,M
MEV,2024-04-27 08:55,-119.7500,38.9963,1441.42,33.80,30.20,86.49,0.00,0.00,0.00,30.01,M,10.00,M,OVC,M,M,M,4400.00,M,M,M,M,M,M,M,M,M,M,33.80,KMEV 270855Z AUTO 00000KT 10SM OVC044 01/M01 A3001 RMK AO2,M
BAM,2024-04-27 08:55,-116.8743,40.5990,1382.36,37.40,35.60,93.14,140.00,3.00,0.00,29.92,M,10.00,M,BKN,M,M,M,7000.00,M,M,M,M,M,M,M,M,M,M,34.86,KBAM 270855Z AUTO 14003KT 10SM BKN070 03/02 A2992 RMK AO1,M
HTH,2024-04-27 08:55,-118.6315,38.5448,1282.89,42.80,33.80,70.28,0.00,0.00,0.00,29.97,M,10.00,M,SCT,M,M,M,4500.00,M,M,M,M,M,M,M,M,M,M,42.80,KHTH 270855Z AUTO 00000KT 10SM SCT045 06/01 A2997 RMK A01,M
10U,2024-04-27 08:55,-116.1876,41.9532,1637.00,33.80,32.00,93.03,270.00,6.00,0.00,29.89,M,10.00,M,CLR,M,M,M,M,M,M,M,M,M,M,M,M,M,M,27.70,K10U 270855Z AUTO 27006KT 10SM CLR 01/00 A2989 RMK AO2,M
TMT,2024-04-27 08:55,-117.1971,39.4643,1749.34,36.00,34.00,92.35,0.00,0.00,0.00,29.94,M,10.00,M,SCT,OVC,M,M,4200.00,4900.00,M,M,M,M,M,M,M,M,M,36.00,KTMT 270855Z AUTO 00000KT 10SM SCT042 OVC049 02/01 A2994 RMK AO2 T00220012,M
EKO,2024-04-27 08:56,-115.7860,40.8242,1367.00,44.00,32.00,62.44,270.00,5.00,0.00,29.84,1009.50,10.00,M,FEW,M,M,M,4800.00,M,M,M,M,M,M,M,M,M,M,40.65,KEKO 270856Z AUTO 27005KT 10SM FEW048 07/00 A2984 RMK AO2 SLP095 T00670000 50004,M
WMC,2024-04-27 08:56,-117.8072,40.9019,1315.00,M,M,M,M,M,0.00,29.94,M,M,M,M,M,M,M,M,M,M,M,M,M,M,M,M,M,M,M,KWMC 270856Z AUTO A2994 RMK AO2 SLPNO 53013 PWINO FZRANO $,M
NFL,2024-04-27 08:56,-118.7010,39.4166,1199.00,40.00,34.00,78.94,0.00,0.00,0.00,29.96,1011.70,10.00,M,CLR,M,M,M,M,M,M,M,M,M,M,M,M,M,M,40.00,KNFL 270856Z AUTO 00000KT 10SM CLR 04/01 A2996 RMK AO2 SLP117 T00440011 51007,M
HND,2024-04-27 08:56,-115.1344,35.9729,742.79,55.00,44.00,66.36,170.00,5.00,0.00,29.75,1008.70,10.00,M,SCT,BKN,OVC,M,7500.00,10000.00,12000.00,M,M,M,M,M,M,M,M,55.00,KHND 270856Z AUTO 17005KT 10SM SCT075 BKN100 OVC120 13/07 A2975 RMK AO2 SLP087 T01280067 50002,M
TPH,2024-04-27 08:56,-117.0904,38.0505,1654.00,39.00,31.00,72.75,320.00,17.00,0.00,29.89,1009.70,10.00,26.00,CLR,M,M,M,M,M,M,M,M,M,M,M,26.00,310.00,2024-04-27 08:52,29.25,KTPH 270856Z AUTO 32017G26KT 10SM CLR 04/M01 A2989 RMK AO2 PK WND 31026/0852 SLP097 T00391006 51007,M
LAS,2024-04-27 08:56,-115.1634,36.0719,663.00,57.00,42.00,57.16,300.00,4.00,0.00,29.73,1006.10,10.00,M,SCT,BKN,M,M,15000.00,22000.00,M,M,M,M,M,M,M,M,M,57.00,KLAS 270856Z 30004KT 10SM SCT150 BKN220 14/06 A2973 RMK AO2 SLP061 T01390056 50002,M
05U,2024-04-27 09:10,-116.0051,39.6042,1811.23,M,M,M,120.00,6.00,0.00,29.89,M,10.00,M,M,M,M,M,M,M,M,M,M,M,M,M,M,M,M,M,K05U 270910Z AUTO 12006KT 10SM A2989 RMK A01,M
BVU,2024-04-27 09:15,-114.8611,35.9475,671.00,55.40,42.80,62.46,310.00,7.00,0.00,29.72,M,10.00,M,FEW,BKN,OVC,M,4300.00,6000.00,7500.00,M,M,M,M,M,M,M,M,55.40,KBVU 270915Z AUTO 31007KT 10SM FEW043 BKN060 OVC075 13/06 A2972 RMK AO2,M
CXP,2024-04-27 09:15,-119.7326,39.1923,1431.00,35.60,32.00,86.59,0.00,0.00,0.00,30.02,M,10.00,M,CLR,M,M,M,M,M,M,M,M,M,M,M,M,M,M,35.60,KCXP 270915Z AUTO 00000KT 10SM CLR 02/M00 A3002 RMK AO2,M
RTS,2024-04-27 09:15,-119.8764,39.6682,1539.00,33.80,30.20,86.49,330.00,7.00,0.00,30.01,M,10.00,M,SCT,M,M,M,4500.00,M,M,M,M,M,M,M,M,M,M,26.97,KRTS 270915Z AUTO 33007KT 10SM SCT045 01/M01 A3001 RMK AO2,M
MEV,2024-04-27 09:15,-119.7500,38.9963,1441.42,32.00,28.40,86.39,140.00,4.00,0.00,30.01,M,10.00,M,OVC,M,M,M,4300.00,M,M,M,M,M,M,M,M,M,M,27.42,KMEV 270915Z AUTO 14004KT 10SM OVC043 00/M02 A3001 RMK AO2,M
BAM,2024-04-27 09:15,-116.8743,40.5990,1382.36,37.40,35.60,93.14,220.00,4.00,0.00,29.92,M,10.00,M,SCT,M,M,M,7000.00,M,M,M,M,M,M,M,M,M,M,33.73,KBAM 270915Z AUTO 22004KT 10SM SCT070 03/02 A2992 RMK AO1,M
HTH,2024-04-27 09:15,-118.6315,38.5448,1282.89,42.80,33.80,70.28,0.00,0.00,0.00,29.97,M,10.00,M,FEW,M,M,M,4600.00,M,M,M,M,M,M,M,M,M,M,42.80,KHTH 270915Z AUTO 00000KT 10SM FEW046 06/01 A2997 RMK A01,M
10U,2024-04-27 09:15,-116.1876,41.9532,1637.00,33.80,32.00,93.03,260.00,6.00,0.00,29.89,M,10.00,M,CLR,M,M,M,M,M,M,M,M,M,M,M,M,M,M,27.70,K10U 270915Z AUTO 26006KT 10SM CLR 01/M00 A2989 RMK AO2,M
TMT,2024-04-27 09:15,-117.1971,39.4643,1749.34,35.60,33.80,93.08,230.00,3.00,0.00,29.94,M,10.00,M,SCT,OVC,M,M,5000.00,7000.00,M,M,M,M,M,M,M,M,M,32.80,KTMT 270915Z AUTO 23003KT 10SM SCT050 OVC070 02/01 A2994 RMK AO2 T00200010,M
05U,2024-04-27 09:30,-116.0051,39.6042,1811.23,M,M,M,140.00,5.00,0.00,29.90,M,10.00,M,M,M,M,M,M,M,M,M,M,M,M,M,M,M,M,M,K05U 270930Z AUTO 14005KT 10SM A2990 RMK A01,M
BVU,2024-04-27 09:35,-114.8611,35.9475,671.00,55.40,44.60,66.91,320.00,5.00,0.00,29.73,M,10.00,M,BKN,OVC,M,M,7000.00,7500.00,M,M,M,M,M,M,M,M,M,55.40,KBVU 270935Z AUTO 32005KT 10SM BKN070 OVC075 13/07 A2973 RMK AO2,M
CXP,2024-04-27 09:35,-119.7326,39.1923,1431.00,33.80,32.00,93.03,0.00,0.00,0.00,30.02,M,10.00,M,CLR,M,M,M,M,M,M,M,M,M,M,M,M,M,M,33.80,KCXP 270935Z AUTO 00000KT 10SM CLR 01/M00 A3002 RMK AO2,M
RTS,2024-04-27 09:35,-119.8764,39.6682,1539.00,33.80,32.00,93.03,330.00,7.00,0.00,30.01,M,10.00,M,BKN,M,M,M,4700.00,M,M,M,M,M,M,M,M,M,M,26.97,KRTS 270935Z AUTO 33007KT 10SM BKN047 01/M00 A3001 RMK AO2,M
MEV,2024-04-27 09:35,-119.7500,38.9963,1441.42,32.00,28.40,86.39,0.00,0.00,0.00,30.01,M,10.00,M,BKN,M,M,M,4300.00,M,M,M,M,M,M,M,M,M,M,32.00,KMEV 270935Z AUTO 00000KT 10SM BKN043 00/M02 A3001 RMK AO2,M
BAM,2024-04-27 09:35,-116.8743,40.5990,1382.36,37.40,35.60,93.14,140.00,3.00,0.00,29.93,M,10.00,M,CLR,M,M,M,M,M,M,M,M,M,M,M,M,M,M,34.86,KBAM 270935Z AUTO 14003KT 10SM CLR 03/02 A2993 RMK AO1,M
HTH,2024-04-27 09:35,-118.6315,38.5448,1282.89,44.60,33.80,65.61,190.00,4.00,0.00,29.98,M,10.00,M,BKN,M,M,M,4800.00,M,M,M,M,M,M,M,M,M,M,42.13,KHTH 270935Z AUTO 19004KT 10SM BKN048 07/01 A2998 RMK A01,M
10U,2024-04-27 09:35,-116.1876,41.9532,1637.00,32.00,30.20,92.97,240.00,4.00,0.00,29.89,M,10.00,M,CLR,M,M,M,M,M,M,M,M,M,M,M,M,M,M,27.42,K10U 270935Z AUTO 24004KT 10SM CLR 00/M01 A2989 RMK AO2,M
TMT,2024-04-27 09:35,-117.1971,39.4643,1749.34,35.40,33.00,90.87,200.00,4.00,0.00,29.94,M,10.00,M,SCT,OVC,M,M,4000.00,7000.00,M,M,M,M,M,M,M,M,M,31.39,KTMT 270935Z AUTO 20004KT 10SM SCT040 OVC070 02/01 A2994 RMK AO2 T00190006,M
05U,2024-04-27 09:50,-116.0051,39.6042,1811.23,M,M,M,0.00,0.00,0.00,29.90,M,10.00,M,M,M,M,M,M,M,M,M,M,M,M,M,M,M,M,M,K05U 270950Z AUTO 00000KT 10SM A2990 RMK A01,M
P68,2024-04-27 09:53,-116.0056,39.6014,1993.00,38.00,33.00,82.00,10.00,4.00,0.00,29.87,1008.90,M,M,M,M,M,M,M,M,M,M,M,M,M,M,M,M,M,34.43,KP68 270953Z AUTO 01004KT 03/01 A2987 RMK AO1 SLP089 T00330006,M
DRA,2024-04-27 09:53,-116.0278,36.6206,1009.00,45.00,41.00,85.77,110.00,4.00,0.00,29.79,1006.80,10.00,M,CLR,M,M,M,M,M,M,M,M,M,M,M,M,M,M,42.60,KDRA 270953Z AUTO 11004KT 10SM CLR 07/05 A2979 RMK AO2 SLP068 T00720050,M
ELY,2024-04-27 09:53,-114.8453,39.2950,1909.00,36.00,34.00,92.35,340.00,7.00,T,29.81,1007.30,10.00,M,BKN,BKN,OVC,M,3600.00,5500.00,7000.00,M,M,M,M,M,M,M,M,29.65,KELY 270953Z AUTO 34007KT 10SM BKN036 BKN055 OVC070 02/01 A2981 RMK AO2 RAB0857E07 SLP073 P0000 T00220011,M
VGT,2024-04-27 09:53,-115.1933,36.2111,667.00,58.00,41.00,53.05,320.00,11.00,0.00,29.73,1007.60,10.00,M,SCT,M,M,M,12000.00,M,M,M,M,M,M,M,M,M,M,58.00,KVGT 270953Z AUTO 32011KT 10SM SCT120 14/05 A2973 RMK AO2 SLP076 T01440050,M
LOL,2024-04-27 09:53,-118.5701,40.0684,1192.43,38.00,34.00,85.35,70.00,4.00,0.00,29.96,1013.60,10.00,M,FEW,M,M,M,6000.00,M,M,M,M,M,M,M,M,M,M,34.43,KLOL 270953Z AUTO 07004KT 10SM FEW060 03/01 A2996 RMK AO2 SLP136 T00330011,M
BVU,2024-04-27 09:55,-114.8611,35.9475,671.00,55.40,44.60,66.91,310.00,3.00,0.00,29.73,M,10.00,M,BKN,OVC,M,M,7500.00,9000.00,M,M,M,M,M,M,M,M,M,55.40,KBVU 270955Z AUTO 31003KT 10SM BKN075 OVC090 13/07 A2973 RMK AO2,M
CXP,2024-04-27 09:55,-119.7326,39.1923,1431.00,33.80,30.20,86.49,0.00,0.00,0.00,30.02,M,10.00,M,FEW,M,M,M,3800.00,M,M,M,M,M,M,M,M,M,M,33.80,KCXP 270955Z AUTO 00000KT 10SM FEW038 01/M01 A3002 RMK AO2,M
INS,2024-04-27 09:55,-115.6733,36.5872,955.00,50.00,39.60,67.31,230.00,12.00,0.00,29.78,1006.10,10.00,M,CLR,M,M,M,M,M,M,M,M,M,M,M,M,M,M,50.00,KINS 270955Z AUTO 23012KT 10SM CLR 10/04 A2978 RMK AO2 SLP061 T01000042 $,M
RNO,2024-04-27 09:55,-119.7711,39.4839,1341.00,42.00,32.00,67.42,30.00,4.00,0.00,30.01,1014.80,10.00,M,SCT,M,M,M,4300.00,M,M,M,M,M,M,M,M,M,M,39.10,KRNO 270955Z 03004KT 10SM SCT043 06/00 A3001 RMK AO2 SLP148 T00560000,M
LSV,2024-04-27 09:55,-115.0343,36.2362,570.00,57.70,46.00,64.94,0.00,0.00,0.00,29.70,1004.90,10.00,M,FEW,M,M,M,12000.00,M,M,M,M,M,M,M,M,M,M,57.70,KLSV 270955Z AUTO 00000KT 10SM FEW120 14/08 A2970 RMK AO2 SLP049 T01430078 $,M
RTS,2024-04-27 09:55,-119.8764,39.6682,1539.00,33.80,30.20,86.49,320.00,7.00,0.00,30.01,M,10.00,M,FEW,M,M,M,4900.00,M,M,M,M,M,M,M,M,M,M,26.97,KRTS 270955Z AUTO 32007KT 10SM FEW049 01/M01 A3001 RMK AO2,M
MEV,2024-04-27 09:55,-119.7500,38.9963,1441.42,30.20,28.40,92.92,0.00,0.00,0.00,30.01,M,10.00,M,SCT,M,M,M,4100.00,M,M,M,M,M,M,M,M,M,M,30.20,KMEV 270955Z AUTO 00000KT 10SM SCT041 M01/M02 A3001 RMK AO2,M
BAM,2024-04-27 09:55,-116.8743,40.5990,1382.36,35.60,33.80,93.08,0.00,0.00,0.00,29.93,M,10.00,M,CLR,M,M,M,M,M,M,M,M,M,M,M,M,M,M,35.60,KBAM 270955Z AUTO 00000KT 10SM CLR 02/01 A2993 RMK AO1,M
HTH,2024-04-27 09:55,-118.6315,38.5448,1282.89,44.60,32.00,61.03,M,4.00,0.00,29.98,M,10.00,M,OVC,M,M,M,4800.00,M,M,M,M,M,M,M,M,M,M,42.13,KHTH 270955Z AUTO VRB04KT 10SM OVC048 07/00 A2998 RMK A01,M
10U,2024-04-27 09:55,-116.1876,41.9532,1637.00,32.00,30.20,92.97,M,4.00,0.00,29.90,M,10.00,M,CLR,M,M,M,M,M,M,M,M,M,M,M,M,M,M,27.42,K10U 270955Z AUTO VRB04KT 10SM CLR 00/M01 A2990 RMK AO2,M
TMT,2024-04-27 09:55,-117.1971,39.4643,1749.34,35.00,33.30,93.44,220.00,3.00,0.00,29.94,M,10.00,M,BKN,OVC,M,M,3800.00,6000.00,M,M,M,M,M,M,M,M,M,32.12,KTMT 270955Z AUTO 22003KT 10SM BKN038 OVC060 02/01 A2994 RMK AO2 T00160007,M
EKO,2024-04-27 09:56,-115.7860,40.8242,1367.00,41.00,32.00,70.08,260.00,4.00,0.00,29.85,1010.10,10.00,M,FEW,M,M,M,3500.00,M,M,M,M,M,M,M,M,M,M,37.93,KEKO 270956Z AUTO 26004KT 10SM FEW035 05/00 A2985 RMK AO2 SLP101 T00500000,M
WMC,2024-04-27 09:56,-117.8072,40.9019,1315.00,M,M,M,M,M,0.00,29.95,M,M,M,M,M,M,M,M,M,M,M,M,M,M,M,M,M,M,M,KWMC 270956Z AUTO A2995 RMK AO2 SLPNO PWINO FZRANO $,M
NFL,2024-04-27 09:56,-118.7010,39.4166,1199.00,40.00,34.00,78.94,290.00,5.00,0.00,29.97,1011.90,10.00,M,CLR,M,M,M,M,M,M,M,M,M,M,M,M,M,M,35.90,KNFL 270956Z AUTO 29005KT 10SM CLR 04/01 A2997 RMK AO2 SLP119 T00440011,M
HND,2024-04-27 09:56,-115.1344,35.9729,742.79,54.00,44.00,68.82,210.00,4.00,0.00,29.76,1008.90,10.00,M,FEW,M,M,M,11000.00,M,M,M,M,M,M,M,M,M,M,54.00,KHND 270956Z AUTO 21004KT 10SM FEW110 12/07 A2976 RMK AO2 SLP089 T01220067,M
TPH,2024-04-27 09:56,-117.0904,38.0505,1654.00,39.00,31.00,72.75,320.00,16.00,0.00,29.90,1010.00,10.00,27.00,CLR,M,M,M,M,M,M,M,M,M,M,M,29.00,320.00,2024-04-27 09:35,29.54,KTPH 270956Z AUTO 32016G27KT 10SM CLR 04/M01 A2990 RMK AO2 PK WND 32029/0935 SLP100 T00391006,M
LAS,2024-04-27 09:56,-115.1634,36.0719,663.00,56.00,41.00,57.02,290.00,8.00,0.00,29.75,1006.60,10.00,M,FEW,SCT,M,M,15000.00,22000.00,M,M,M,M,M,M,M,M,M,56.00,KLAS 270956Z 29008KT 10SM FEW150 SCT220 13/05 A2975 RMK AO2 SLP066 T01330050,M
05U,2024-04-27 10:10,-116.0051,39.6042,1811.23,M,M,M,140.00,4.00,0.00,29.91,M,10.00,M,M,M,M,M,M,M,M,M,M,M,M,M,M,M,M,M,K05U 271010Z AUTO 14004KT 10SM A2991 RMK A01,M
BVU,2024-04-27 10:15,-114.8611,35.9475,671.00,55.40,42.80,62.46,0.00,0.00,0.00,29.74,M,10.00,M,BKN,OVC,M,M,9000.00,11000.00,M,M,M,M,M,M,M,M,M,55.40,KBVU 271015Z AUTO 00000KT 10SM BKN090 OVC110 13/06 A2974 RMK AO2,M
CXP,2024-04-27 10:15,-119.7326,39.1923,1431.00,35.60,30.20,80.51,0.00,0.00,0.00,30.02,M,10.00,M,SCT,M,M,M,3800.00,M,M,M,M,M,M,M,M,M,M,35.60,KCXP 271015Z AUTO 00000KT 10SM SCT038 02/M01 A3002 RMK AO2,M
RTS,2024-04-27 10:15,-119.8764,39.6682,1539.00,33.80,30.20,86.49,300.00,5.00,0.00,30.02,M,10.00,M,FEW,M,M,M,4700.00,M,M,M,M,M,M,M,M,M,M,28.53,KRTS 271015Z AUTO 30005KT 10SM FEW047 01/M01 A3002 RMK AO2,M
MEV,2024-04-27 10:15,-119.7500,38.9963,1441.42,30.20,26.60,86.28,0.00,0.00,0.00,30.01,M,10.00,M,SCT,SCT,M,M,4100.00,5000.00,M,M,M,M,M,M,M,M,M,30.20,KMEV 271015Z AUTO 00000KT 10SM SCT041 SCT050 M01/M03 A3001 RMK AO2,M
HTH,2024-04-27 10:15,-118.6315,38.5448,1282.89,44.60,33.80,65.61,0.00,0.00,0.00,29.98,M,10.00,M,OVC,M,M,M,4900.00,M,M,M,M,M,M,M,M,M,M,44.60,KHTH 271015Z AUTO 00000KT 10SM OVC049 07/01 A2998 RMK A01,M
10U,2024-04-27 10:15,-116.1876,41.9532,1637.00,32.00,30.20,92.97,230.00,5.00,0.00,29.91,M,10.00,M,CLR,M,M,M,M,M,M,M,M,M,M,M,M,M,M,26.40,K10U 271015Z AUTO 23005KT 10SM CLR M00/M01 A2991 RMK AO2,M
BAM,2024-04-27 10:15,-116.8743,40.5990,1382.36,37.40,35.60,93.14,0.00,0.00,0.00,29.93,M,10.00,M,CLR,M,M,M,M,M,M,M,M,M,M,M,M,M,M,37.40,KBAM 271015Z AUTO 00000KT 10SM CLR 03/02 A2993 RMK AO1,M
TMT,2024-04-27 10:15,-117.1971,39.4643,1749.34,35.40,33.30,91.97,220.00,3.00,0.00,29.95,M,10.00,M,OVC,M,M,M,3900.00,M,M,M,M,M,M,M,M,M,M,32.58,KTMT 271015Z AUTO 22003KT 10SM OVC039 02/01 A2995 RMK AO2 T00190007,M
CXP,2024-04-27 10:30,-119.7326,39.1923,1431.00,33.80,30.20,86.49,0.00,0.00,0.00,30.03,M,10.00,M,SCT,M,M,M,3800.00,M,M,M,M,M,M,M,M,M,M,33.80,KCXP 271030Z AUTO 00000KT 10SM SCT038 01/M01 A3003 RMK AO2,M
05U,2024-04-27 10:30,-116.0051,39.6042,1811.23,M,M,M,130.00,7.00,0.00,29.91,M,10.00,M,M,M,M,M,M,M,M,M,M,M,M,M,M,M,M,M,K05U 271030Z AUTO 13007KT 10SM A2991 RMK A01,M
BVU,2024-04-27 10:35,-114.8611,35.9475,671.00,53.60,42.80,66.70,0.00,0.00,0.00,29.74,M,10.00,M,OVC,M,M,M,11000.00,M,M,M,M,M,M,M,M,M,M,53.60,KBVU 271035Z AUTO 00000KT 10SM OVC110 12/06 A2974 RMK AO2,M
RTS,2024-04-27 10:35,-119.8764,39.6682,1539.00,32.00,30.20,92.97,300.00,8.00,0.00,30.02,M,10.00,M,FEW,M,M,M,4900.00,M,M,M,M,M,M,M,M,M,M,24.11,KRTS 271035Z AUTO 30008KT 10SM FEW049 00/M01 A3002 RMK AO2,M
MEV,2024-04-27 10:35,-119.7500,38.9963,1441.42,28.40,26.60,92.86,60.00,3.00,0.00,30.02,M,10.00,M,FEW,M,M,M,4500.00,M,M,M,M,M,M,M,M,M,M,24.57,KMEV 271035Z AUTO 06003KT 10SM FEW045 M02/M03 A3002 RMK AO2,M
HTH,2024-04-27 10:35,-118.6315,38.5448,1282.89,46.40,32.00,57.00,0.00,0.00,0.00,29.99,M,10.00,M,OVC,M,M,M,5000.00,M,M,M,M,M,M,M,M,M,M,46.40,KHTH 271035Z AUTO 00000KT 10SM OVC050 08/M00 A2999 RMK A01,M
10U,2024-04-27 10:35,-116.1876,41.9532,1637.00,33.80,32.00,93.03,220.00,5.00,0.00,29.91,M,10.00,M,BKN,M,M,M,2200.00,M,M,M,M,M,M,M,M,M,M,28.53,K10U 271035Z AUTO 22005KT 10SM BKN022 01/M00 A2991 RMK AO2,M
BAM,2024-04-27 10:35,-116.8743,40.5990,1382.36,35.60,33.80,93.08,0.00,0.00,0.00,29.93,M,10.00,M,CLR,M,M,M,M,M,M,M,M,M,M,M,M,M,M,35.60,KBAM 271035Z AUTO 00000KT 10SM CLR 02/01 A2993 RMK AO1,M
TMT,2024-04-27 10:35,-117.1971,39.4643,1749.34,36.00,33.00,88.73,250.00,3.00,0.00,29.96,M,10.00,M,BKN,OVC,M,M,2900.00,4100.00,M,M,M,M,M,M,M,M,M,33.26,KTMT 271035Z AUTO 25003KT 10SM BKN029 OVC041 02/01 A2996 RMK AO2 T00220006,M
05U,2024-04-27 10:50,-116.0051,39.6042,1811.23,M,M,M,140.00,9.00,0.00,29.91,M,10.00,M,M,M,M,M,M,M,M,M,M,M,M,M,M,M,M,M,K05U 271050Z AUTO 14009KT 10SM A2991 RMK A01,M
P68,2024-04-27 10:53,-116.0056,39.6014,1993.00,38.00,31.00,75.65,330.00,10.00,0.00,29.89,1009.70,M,16.00,M,M,M,M,M,M,M,M,M,M,M,M,M,M,M,30.49,KP68 271053Z AUTO 33010G16KT 03/M01 A2989 RMK AO1 SLP097 T00331006,M
DRA,2024-04-27 10:53,-116.0278,36.6206,1009.00,47.00,38.00,70.74,0.00,0.00,0.00,29.82,1007.50,10.00,M,CLR,M,M,M,M,M,M,M,M,M,M,M,M,M,M,47.00,KDRA 271053Z AUTO 00000KT 10SM CLR 08/03 A2982 RMK AO2 SLP075 T00830033,M
ELY,2024-04-27 10:53,-114.8453,39.2950,1909.00,37.00,34.00,88.78,340.00,4.00,0.00,29.82,1007.10,10.00,M,SCT,OVC,M,M,3600.00,4700.00,M,M,M,M,M,M,M,M,M,33.26,KELY 271053Z AUTO 34004KT 10SM SCT036 OVC047 03/01 A2982 RMK AO2 SLP071 T00280011,M
VGT,2024-04-27 10:53,-115.1933,36.2111,667.00,58.00,40.00,51.03,320.00,12.00,0.00,29.74,1007.90,10.00,M,CLR,M,M,M,M,M,M,M,M,M,M,M,M,M,M,58.00,KVGT 271053Z AUTO 32012KT 10SM CLR 14/04 A2974 RMK AO2 SLP079 T01440044,M
LOL,2024-04-27 10:53,-118.5701,40.0684,1192.43,33.00,31.00,92.25,0.00,0.00,0.00,29.96,1014.20,10.00,M,CLR,M,M,M,M,M,M,M,M,M,M,M,M,M,M,33.00,KLOL 271053Z AUTO 00000KT 10SM CLR 01/M01 A2996 RMK AO2 SLP142 T00061006,M
BVU,2024-04-27 10:55,-114.8611,35.9475,671.00,55.40,42.80,62.46,300.00,8.00,0.00,29.75,M,10.00,M,OVC,M,M,M,11000.00,M,M,M,M,M,M,M,M,M,M,55.40,KBVU 271055Z AUTO 30008KT 10SM OVC110 13/06 A2975 RMK AO2,M
CXP,2024-04-27 10:55,-119.7326,39.1923,1431.00,32.00,30.20,92.97,0.00,0.00,0.00,30.03,M,10.00,M,FEW,M,M,M,4300.00,M,M,M,M,M,M,M,M,M,M,32.00,KCXP 271055Z AUTO 00000KT 10SM FEW043 00/M01 A3003 RMK AO2,M
INS,2024-04-27 10:55,-115.6733,36.5872,955.00,49.00,38.00,65.63,220.00,10.00,0.00,29.80,1006.80,10.00,M,CLR,M,M,M,M,M,M,M,M,M,M,M,M,M,M,44.29,KINS 271055Z AUTO 22010KT 10SM CLR 09/03 A2980 RMK AO2 SLP068 T00940034 $,M
RNO,2024-04-27 10:55,-119.7711,39.4839,1341.00,41.00,32.00,70.08,300.00,3.00,0.00,30.02,1015.00,10.00,M,FEW,M,M,M,4000.00,M,M,M,M,M,M,M,M,M,M,38.98,KRNO 271055Z 30003KT 10SM FEW040 05/00 A3002 RMK AO2 SLP150 T00500000,M
LSV,2024-04-27 10:55,-115.0343,36.2362,570.00,58.60,42.40,54.80,340.00,10.00,0.00,29.71,1005.10,10.00,18.00,CLR,M,M,M,M,M,M,M,M,M,M,M,M,M,M,58.60,KLSV 271055Z AUTO 34010G18KT 10SM CLR 15/06 A2971 RMK AO2 SLP051 T01480058 $,M
RTS,2024-04-27 10:55,-119.8764,39.6682,1539.00,32.00,30.20,92.97,0.00,0.00,0.00,30.03,M,10.00,M,CLR,M,M,M,M,M,M,M,M,M,M,M,M,M,M,32.00,KRTS 271055Z AUTO 00000KT 10SM CLR 00/M01 A3003 RMK AO2,M
MEV,2024-04-27 10:55,-119.7500,38.9963,1441.42,30.20,26.60,86.28,90.00,3.00,0.00,30.02,M,10.00,M,FEW,M,M,M,4400.00,M,M,M,M,M,M,M,M,M,M,26.63,KMEV 271055Z AUTO 09003KT 10SM FEW044 M01/M03 A3002 RMK AO2,M
HTH,2024-04-27 10:55,-118.6315,38.5448,1282.89,46.40,32.00,57.00,M,3.00,0.00,29.99,M,10.00,M,SCT,OVC,M,M,5000.00,5500.00,M,M,M,M,M,M,M,M,M,45.15,KHTH 271055Z AUTO VRB03KT 10SM SCT050 OVC055 08/M00 A2999 RMK A01,M
10U,2024-04-27 10:55,-116.1876,41.9532,1637.00,33.80,32.00,93.03,250.00,5.00,0.00,29.91,M,10.00,M,OVC,M,M,M,2000.00,M,M,M,M,M,M,M,M,M,M,28.53,K10U 271055Z AUTO 25005KT 10SM OVC020 01/M00 A2991 RMK AO2,M
BAM,2024-04-27 10:55,-116.8743,40.5990,1382.36,35.60,33.80,93.08,0.00,0.00,0.00,29.95,M,10.00,M,CLR,M,M,M,M,M,M,M,M,M,M,M,M,M,M,35.60,KBAM 271055Z AUTO 00000KT 10SM CLR 02/01 A2995 RMK AO1,M
TMT,2024-04-27 10:55,-117.1971,39.4643,1749.34,36.50,33.80,89.83,230.00,3.00,0.00,29.96,M,10.00,M,OVC,M,M,M,2900.00,M,M,M,M,M,M,M,M,M,M,33.83,KTMT 271055Z AUTO 23003KT 10SM OVC029 03/01 A2996 RMK AO2 T00250010,M
NFL,2024-04-27 10:56,-118.7010,39.4166,1199.00,39.00,34.00,82.08,280.00,7.00,0.00,29.97,1012.20,10.00,M,CLR,M,M,M,M,M,M,M,M,M,M,M,M,M,M,33.31,KNFL 271056Z AUTO 28007KT 10SM CLR 04/01 A2997 RMK AO2 SLP122 T00390011,M
HND,2024-04-27 10:56,-115.1344,35.9729,742.79,51.00,44.00,76.85,160.00,5.00,0.00,29.78,1009.50,10.00,M,BKN,M,M,M,11000.00,M,M,M,M,M,M,M,M,M,M,51.00,KHND 271056Z AUTO 16005KT 10SM BKN110 11/07 A2978 RMK AO2 SLP095 T01060067,M
EKO,2024-04-27 10:56,-115.7860,40.8242,1367.00,39.00,32.00,75.75,220.00,5.00,0.00,29.87,1011.10,10.00,M,FEW,M,M,M,3300.00,M,M,M,M,M,M,M,M,M,M,34.71,KEKO 271056Z AUTO 22005KT 10SM FEW033 04/00 A2987 RMK AO2 SLP111 T00390000,M
WMC,2024-04-27 10:56,-117.8072,40.9019,1315.00,35.00,30.00,81.78,270.00,5.00,0.00,29.95,1013.80,10.00,M,CLR,M,M,M,M,M,M,M,M,M,M,M,M,M,M,29.96,KWMC 271056Z AUTO 27005KT 10SM CLR 02/M01 A2995 RMK AO2 SLP138 T00171011 $,M
TPH,2024-04-27 10:56,-117.0904,38.0505,1654.00,38.00,32.00,78.77,320.00,19.00,0.00,29.91,1010.60,10.00,28.00,CLR,M,M,M,M,M,M,M,M,M,M,M,31.00,320.00,2024-04-27 10:13,27.37,KTPH 271056Z AUTO 32019G28KT 10SM CLR 03/00 A2991 RMK AO2 PK WND 32031/1013 SLP106 T00330000,M
LAS,2024-04-27 10:56,-115.1634,36.0719,663.00,54.00,42.00,63.74,290.00,5.00,0.00,29.76,1006.90,10.00,M,FEW,SCT,M,M,15000.00,22000.00,M,M,M,M,M,M,M,M,M,54.00,KLAS 271056Z 29005KT 10SM FEW150 SCT220 12/06 A2976 RMK AO2 SLP069 T01220056,M
05U,2024-04-27 11:10,-116.0051,39.6042,1811.23,M,M,M,130.00,9.00,0.00,29.92,M,10.00,M,M,M,M,M,M,M,M,M,M,M,M,M,M,M,M,M,K05U 271110Z AUTO 13009KT 10SM A2992 RMK A01,M
BVU,2024-04-27 11:15,-114.8611,35.9475,671.00,55.40,41.00,58.27,300.00,9.00,0.00,29.75,M,10.00,M,BKN,M,M,M,11000.00,M,M,M,M,M,M,M,M,M,M,55.40,KBVU 271115Z AUTO 30009KT 10SM BKN110 13/05 A2975 RMK AO2,M
CXP,2024-04-27 11:15,-119.7326,39.1923,1431.00,32.00,30.20,92.97,0.00,0.00,0.00,30.04,M,10.00,M,CLR,M,M,M,M,M,M,M,M,M,M,M,M,M,M,32.00,KCXP 271115Z AUTO 00000KT 10SM CLR 00/M01 A3004 RMK AO2,M
RTS,2024-04-27 11:15,-119.8764,39.6682,1539.00,33.80,30.20,86.49,300.00,3.00,0.00,30.03,M,10.00,M,CLR,M,M,M,M,M,M,M,M,M,M,M,M,M,M,30.75,KRTS 271115Z AUTO 30003KT 10SM CLR 01/M01 A3003 RMK AO2,M
MEV,2024-04-27 11:15,-119.7500,38.9963,1441.42,30.20,26.60,86.28,0.00,0.00,0.00,30.02,M,10.00,M,SCT,SCT,SCT,M,3900.00,4400.00,8500.00,M,M,M,M,M,M,M,M,30.20,KMEV 271115Z AUTO 00000KT 10SM SCT039 SCT044 SCT085 M01/M03 A3002 RMK AO2,M
HTH,2024-04-27 11:15,-118.6315,38.5448,1282.89,46.40,32.00,57.00,220.00,4.00,0.00,29.99,M,10.00,M,OVC,M,M,M,5500.00,M,M,M,M,M,M,M,M,M,M,44.24,KHTH 271115Z AUTO 22004KT 10SM OVC055 08/M00 A2999 RMK A01,M
10U,2024-04-27 11:15,-116.1876,41.9532,1637.00,32.00,30.20,92.97,230.00,3.00,0.00,29.92,M,10.00,M,BKN,M,M,M,1900.00,M,M,M,M,M,M,M,M,M,M,28.69,K10U 271115Z AUTO 23003KT 10SM BKN019 00/M01 A2992 RMK AO2,M
BAM,2024-04-27 11:15,-116.8743,40.5990,1382.36,33.80,33.80,100.00,0.00,0.00,0.00,29.95,M,10.00,M,SCT,M,M,M,7000.00,M,M,M,M,M,M,M,M,M,M,33.80,KBAM 271115Z AUTO 00000KT 10SM SCT070 01/01 A2995 RMK AO1,M
TMT,2024-04-27 11:15,-117.1971,39.4643,1749.34,36.00,33.60,90.89,0.00,0.00,0.00,29.96,M,10.00,M,SCT,BKN,OVC,M,2900.00,3800.00,4500.00,M,M,M,M,M,M,M,M,36.00,KTMT 271115Z AUTO 00000KT 10SM SCT029 BKN038 OVC045 02/01 A2996 RMK AO2 T00230009,M
05U,2024-04-27 11:30,-116.0051,39.6042,1811.23,M,M,M,140.00,6.00,0.00,29.92,M,10.00,M,M,M,M,M,M,M,M,M,M,M,M,M,M,M,M,M,K05U 271130Z AUTO 14006KT 10SM A2992 RMK A01,M
BVU,2024-04-27 11:35,-114.8611,35.9475,671.00,55.40,41.00,58.27,310.00,8.00,0.00,29.75,M,10.00,M,FEW,M,M,M,11000.00,M,M,M,M,M,M,M,M,M,M,55.40,KBVU 271135Z AUTO 31008KT 10SM FEW110 13/05 A2975 RMK AO2,M
CXP,2024-04-27 11:35,-119.7326,39.1923,1431.00,30.20,28.40,92.92,0.00,0.00,0.00,30.04,M,10.00,M,CLR,M,M,M,M,M,M,M,M,M,M,M,M,M,M,30.20,KCXP 271135Z AUTO 00000KT 10SM CLR M01/M02 A3004 RMK AO2,M
RTS,2024-04-27 11:35,-119.8764,39.6682,1539.00,32.00,30.20,92.97,M,5.00,0.00,30.03,M,10.00,M,CLR,M,M,M,M,M,M,M,M,M,M,M,M,M,M,26.40,KRTS 271135Z AUTO VRB05KT 10SM CLR 00/M01 A3003 RMK AO2,M
MEV,2024-04-27 11:35,-119.7500,38.9963,1441.42,26.60,24.80,92.80,150.00,3.00,0.00,30.02,M,10.00,M,BKN,BKN,M,M,4000.00,8500.00,M,M,M,M,M,M,M,M,M,22.52,KMEV 271135Z AUTO 15003KT 10SM BKN040 BKN085 M03/M04 A3002 RMK AO2,M
BAM,2024-04-27 11:35,-116.8743,40.5990,1382.36,35.60,33.80,93.08,270.00,5.00,0.00,29.95,M,10.00,M,CLR,M,M,M,M,M,M,M,M,M,M,M,M,M,M,30.67,KBAM 271135Z AUTO 27005KT 10SM CLR 02/01 A2995 RMK AO1,M
HTH,2024-04-27 11:35,-118.6315,38.5448,1282.89,46.40,30.20,53.00,0.00,0.00,0.00,29.99,M,10.00,M,BKN,OVC,M,M,5000.00,5500.00,M,M,M,M,M,M,M,M,M,46.40,KHTH 271135Z AUTO 00000KT 10SM BKN050 OVC055 08/M01 A2999 RMK A01,M
10U,2024-04-27 11:35,-116.1876,41.9532,1637.00,32.00,30.20,92.97,0.00,0.00,0.00,29.91,M,10.00,M,SCT,M,M,M,1900.00,M,M,M,M,M,M,M,M,M,M,32.00,K10U 271135Z AUTO 00000KT 10SM SCT019 M00/M01 A2991 RMK AO2,M
TMT,2024-04-27 11:35,-117.1971,39.4643,1749.34,36.30,33.40,89.10,0.00,0.00,0.00,29.96,M,10.00,M,BKN,OVC,M,M,2900.00,3800.00,M,M,M,M,M,M,M,M,M,36.30,KTMT 271135Z AUTO 00000KT 10SM BKN029 OVC038 02/01 A2996 RMK AO2 T00240008,M
05U,2024-04-27 11:50,-116.0051,39.6042,1811.23,M,M,M,160.00,8.00,0.00,29.93,M,10.00,M,M,M,M,M,M,M,M,M,M,M,M,M,M,M,M,M,K05U 271150Z AUTO 16008KT 10SM A2993 RMK A01,M
P68,2024-04-27 11:53,-116.0056,39.6014,1993.00,37.00,31.00,78.69,360.00,7.00,0.00,29.90,1009.90,M,M,M,M,M,M,M,M,M,M,M,M,M,M,M,M,M,30.87,KP68 271153Z AUTO 36007KT 03/M01 A2990 RMK AO1 SLP099 70017 T00281006 10044 20028 53011,M
DRA,2024-04-27 11:53,-116.0278,36.6206,1009.00,42.00,39.00,89.01,110.00,3.00,0.00,29.83,1008.10,10.00,M,CLR,M,M,M,M,M,M,M,M,M,M,M,M,M,M,40.12,KDRA 271153Z AUTO 11003KT 10SM CLR 06/04 A2983 RMK AO2 SLP081 70069 T00560039 10117 20056 51017,M
ELY,2024-04-27 11:53,-114.8453,39.2950,1909.00,35.00,32.00,88.68,330.00,6.00,0.00,29.83,1008.40,10.00,M,CLR,M,M,M,M,M,M,M,M,M,M,M,M,M,M,29.14,KELY 271153Z AUTO 33006KT 10SM CLR 02/00 A2983 RMK AO2 SLP084 60005 70045 T00170000 10028 20011 53009,M
VGT,2024-04-27 11:53,-115.1933,36.2111,667.00,57.00,39.00,50.88,320.00,13.00,0.00,29.75,1008.50,10.00,M,CLR,M,M,M,M,M,M,M,M,M,M,M,M,M,M,57.00,KVGT 271153Z AUTO 32013KT 10SM CLR 14/04 A2975 RMK AO2 SLP085 70023 T01390039 10150 20139 53012,M
LOL,2024-04-27 11:53,-118.5701,40.0684,1192.43,33.00,32.00,96.06,0.00,0.00,0.00,29.97,1014.90,10.00,M,CLR,M,M,M,M,M,M,M,M,M,M,M,M,M,M,33.00,KLOL 271153Z AUTO 00000KT 10SM CLR 01/00 A2997 RMK AO2 SLP149 T00060000 10044 20006 53007,M
BVU,2024-04-27 11:55,-114.8611,35.9475,671.00,55.40,41.00,58.27,310.00,8.00,0.00,29.76,M,10.00,M,CLR,M,M,M,M,M,M,M,M,M,M,M,M,M,M,55.40,KBVU 271155Z AUTO 31008KT 10SM CLR 13/05 A2976 RMK AO2,M
CXP,2024-04-27 11:55,-119.7326,39.1923,1431.00,32.00,28.40,86.39,0.00,0.00,0.00,30.04,M,10.00,M,CLR,M,M,M,M,M,M,M,M,M,M,M,M,M,M,32.00,KCXP 271155Z AUTO 00000KT 10SM CLR M00/M02 A3004 RMK AO2,M
INS,2024-04-27 11:55,-115.6733,36.5872,955.00,48.70,37.00,63.81,220.00,11.00,0.00,29.82,1007.70,10.00,M,CLR,M,M,M,M,M,M,M,M,M,M,M,M,M,M,43.57,KINS 271155Z AUTO 22011KT 10SM CLR 09/03 A2982 RMK AO2 SLP077 60002 70030 T00930028 10123 20090 52015 $,M
RNO,2024-04-27 11:55,-119.7711,39.4839,1341.00,39.00,31.00,72.75,270.00,3.00,0.00,30.03,1015.70,10.00,M,FEW,M,M,M,4000.00,M,M,M,M,M,M,M,M,M,M,36.69,KRNO 271155Z 27003KT 10SM FEW040 04/M01 A3003 RMK AO2 SLP157 70003 T00391006 10078 20039 51009,M
RTS,2024-04-27 11:55,-119.8764,39.6682,1539.00,30.20,28.40,92.92,0.00,0.00,0.00,30.04,M,10.00,M,CLR,M,M,M,M,M,M,M,M,M,M,M,M,M,M,30.20,KRTS 271155Z AUTO 00000KT 10SM CLR M01/M02 A3004 RMK AO2,M
MEV,2024-04-27 11:55,-119.7500,38.9963,1441.42,26.60,24.80,92.80,M,3.00,0.00,30.03,M,10.00,M,BKN,M,M,M,4000.00,M,M,M,M,M,M,M,M,M,M,22.52,KMEV 271155Z AUTO VRB03KT 10SM BKN040 M03/M04 A3003 RMK AO2,M
HTH,2024-04-27 11:55,-118.6315,38.5448,1282.89,44.60,32.00,61.03,0.00,0.00,0.00,29.99,M,10.00,M,OVC,M,M,M,5000.00,M,M,M,M,M,M,M,M,M,M,44.60,KHTH 271155Z AUTO 00000KT 10SM OVC050 07/00 A2999 RMK A01,M
10U,2024-04-27 11:55,-116.1876,41.9532,1637.00,32.00,30.20,92.97,200.00,4.00,0.00,29.92,M,10.00,M,FEW,FEW,M,M,1600.00,10000.00,M,M,M,M,M,M,M,M,M,27.42,K10U 271155Z AUTO 20004KT 10SM FEW016 FEW100 M00/M01 A2992 RMK AO2,M
BAM,2024-04-27 11:55,-116.8743,40.5990,1382.36,37.40,33.80,86.69,300.00,3.00,0.00,29.95,M,10.00,M,SCT,M,M,M,6000.00,M,M,M,M,M,M,M,M,M,M,34.86,KBAM 271155Z AUTO 30003KT 10SM SCT060 03/01 A2995 RMK AO1,M
TMT,2024-04-27 11:55,-117.1971,39.4643,1749.34,34.70,33.40,94.94,0.00,0.00,0.00,29.96,M,10.00,M,SCT,OVC,M,M,2900.00,3400.00,M,M,M,M,M,M,M,M,M,34.70,KTMT 271155Z AUTO 00000KT 10SM SCT029 OVC034 02/01 A2996 RMK AO2 T00150008 10030 20015,M
LSV,2024-04-27 11:55,-115.0343,36.2362,570.00,55.60,44.00,64.93,30.00,4.00,0.00,29.73,1005.90,10.00,M,CLR,M,M,M,M,M,M,M,M,M,M,M,M,M,M,55.60,KLSV 271155Z AUTO 03004KT 10SM CLR 13/07 A2973 RMK AO2 SLP059 60000 70009 T01310067 10155 20117 52014 $,M
EKO,2024-04-27 11:56,-115.7860,40.8242,1367.00,38.00,32.00,78.77,M,4.00,0.00,29.89,1011.40,10.00,M,CLR,M,M,M,M,M,M,M,M,M,M,M,M,M,M,34.43,KEKO 271156Z AUTO VRB04KT 10SM CLR 03/00 A2989 RMK AO2 SLP114 70014 T00330000 10078 20028 51014,M
WMC,2024-04-27 11:56,-117.8072,40.9019,1315.00,35.00,31.00,85.17,260.00,9.00,0.00,29.96,1013.80,10.00,M,CLR,M,M,M,M,M,M,M,M,M,M,M,M,M,M,27.24,KWMC 271156Z AUTO 26009KT 10SM CLR 02/M01 A2996 RMK AO2 SLP138 70054 T00171006 51005 $,M
NFL,2024-04-27 11:56,-118.7010,39.4166,1199.00,38.00,33.00,82.00,260.00,5.00,0.00,29.98,1012.40,10.00,M,CLR,M,M,M,M,M,M,M,M,M,M,M,M,M,M,33.52,KNFL 271156Z AUTO 26005KT 10SM CLR 03/01 A2998 RMK AO2 SLP124 7//// T00330006 10072 20028 52007,M
HND,2024-04-27 11:56,-115.1344,35.9729,742.79,50.00,44.00,79.76,190.00,5.00,0.00,29.79,1010.00,10.00,M,CLR,M,M,M,M,M,M,M,M,M,M,M,M,M,M,50.00,KHND 271156Z AUTO 19005KT 10SM CLR 10/07 A2979 RMK AO2 SLP100 70032 T01000067 10144 20094 53014,M
TPH,2024-04-27 11:56,-117.0904,38.0505,1654.00,39.00,32.00,75.75,310.00,21.00,0.00,29.91,1010.90,10.00,30.00,CLR,M,M,M,M,M,M,M,M,M,M,M,31.00,320.00,2024-04-27 11:46,28.19,KTPH 271156Z AUTO 31021G30KT 10SM CLR 04/00 A2991 RMK AO2 PK WND 32031/1146 SLP109 T00390000 10050 20033 51006,M
LAS,2024-04-27 11:56,-115.1634,36.0719,663.00,54.00,43.00,66.24,210.00,5.00,0.00,29.77,1007.30,10.00,M,FEW,SCT,M,M,15000.00,22000.00,M,M,M,M,M,M,M,M,M,54.00,KLAS 271156Z 21005KT 10SM FEW150 SCT220 12/06 A2977 RMK AO2 SLP073 70024 T01220061 10144 20117 53013,M
05U,2024-04-27 12:10,-116.0051,39.6042,1811.23,M,M,M,170.00,6.00,0.00,29.94,M,10.00,M,M,M,M,M,M,M,M,M,M,M,M,M,M,M,M,M,K05U 271210Z AUTO 17006KT 10SM A2994 RMK A01,M
BVU,2024-04-27 12:15,-114.8611,35.9475,671.00,55.40,39.20,54.34,310.00,9.00,0.00,29.76,M,10.00,M,CLR,M,M,M,M,M,M,M,M,M,M,M,M,M,M,55.40,KBVU 271215Z AUTO 31009KT 10SM CLR 13/04 A2976 RMK AO2,M
CXP,2024-04-27 12:15,-119.7326,39.1923,1431.00,32.00,30.20,92.97,0.00,0.00,0.00,30.04,M,10.00,M,CLR,M,M,M,M,M,M,M,M,M,M,M,M,M,M,32.00,KCXP 271215Z AUTO 00000KT 10SM CLR M00/M01 A3004 RMK AO2,M
RTS,2024-04-27 12:15,-119.8764,39.6682,1539.00,28.40,26.60,92.86,330.00,7.00,0.00,30.04,M,10.00,M,CLR,M,M,M,M,M,M,M,M,M,M,M,M,M,M,20.39,KRTS 271215Z AUTO 33007KT 10SM CLR M02/M03 A3004 RMK AO2,M
MEV,2024-04-27 12:15,-119.7500,38.9963,1441.42,28.40,26.60,92.86,0.00,0.00,0.00,30.02,M,10.00,M,OVC,M,M,M,3900.00,M,M,M,M,M,M,M,M,M,M,28.40,KMEV 271215Z AUTO 00000KT 10SM OVC039 M02/M03 A3002 RMK AO2,M
BAM,2024-04-27 12:15,-116.8743,40.5990,1382.36,33.80,32.00,93.03,170.00,3.00,0.00,29.96,M,10.00,M,BKN,M,M,M,6000.00,M,M,M,M,M,M,M,M,M,M,30.75,KBAM 271215Z AUTO 17003KT 10SM BKN060 01/00 A2996 RMK AO1,M
HTH,2024-04-27 12:15,-118.6315,38.5448,1282.89,44.60,32.00,61.03,250.00,4.00,0.00,30.00,M,10.00,M,OVC,M,M,M,5500.00,M,M,M,M,M,M,M,M,M,M,42.13,KHTH 271215Z AUTO 25004KT 10SM OVC055 07/00 A3000 RMK A01,M
10U,2024-04-27 12:15,-116.1876,41.9532,1637.00,32.00,30.20,92.97,200.00,4.00,0.00,29.92,M,10.00,M,FEW,M,M,M,1400.00,M,M,M,M,M,M,M,M,M,M,27.42,K10U 271215Z AUTO 20004KT 10SM FEW014 M00/M01 A2992 RMK AO2,M
TMT,2024-04-27 12:15,-117.1971,39.4643,1749.34,35.40,33.40,92.33,0.00,0.00,0.00,29.97,M,10.00,M,OVC,M,M,M,3200.00,M,M,M,M,M,M,M,M,M,M,35.40,KTMT 271215Z AUTO 00000KT 10SM OVC032 02/01 A2997 RMK AO2 T00190008,M
05U,2024-04-27 12:30,-116.0051,39.6042,1811.23,M,M,M,160.00,7.00,0.00,29.94,M,10.00,M,M,M,M,M,M,M,M,M,M,M,M,M,M,M,M,M,K05U 271230Z AUTO 16007KT 10SM A2994 RMK A01,M
BVU,2024-04-27 12:35,-114.8611,35.9475,671.00,55.40,39.20,54.34,320.00,14.00,0.00,29.77,M,10.00,M,CLR,M,M,M,M,M,M,M,M,M,M,M,M,M,M,55.40,KBVU 271235Z AUTO 32014KT 10SM CLR 13/04 A2977 RMK AO2,M
CXP,2024-04-27 12:35,-119.7326,39.1923,1431.00,32.00,30.20,92.97,330.00,5.00,0.00,30.04,M,10.00,M,CLR,M,M,M,M,M,M,M,M,M,M,M,M,M,M,26.40,KCXP 271235Z AUTO 33005KT 10SM CLR M00/M01 A3004 RMK AO2,M
RTS,2024-04-27 12:35,-119.8764,39.6682,1539.00,30.20,28.40,92.92,330.00,7.00,0.00,30.04,M,10.00,M,CLR,M,M,M,M,M,M,M,M,M,M,M,M,M,M,22.59,KRTS 271235Z AUTO 33007KT 10SM CLR M01/M02 A3004 RMK AO2,M
MEV,2024-04-27 12:35,-119.7500,38.9963,1441.42,28.40,26.60,92.86,0.00,0.00,0.00,30.03,M,10.00,M,BKN,M,M,M,3900.00,M,M,M,M,M,M,M,M,M,M,28.40,KMEV 271235Z AUTO 00000KT 10SM BKN039 M02/M03 A3003 RMK AO2,M
BAM,2024-04-27 12:35,-116.8743,40.5990,1382.36,33.80,32.00,93.03,0.00,0.00,0.00,29.96,M,10.00,M,CLR,M,M,M,M,M,M,M,M,M,M,M,M,M,M,33.80,KBAM 271235Z AUTO 00000KT 10SM CLR 01/00 A2996 RMK AO1,M
HTH,2024-04-27 12:35,-118.6315,38.5448,1282.89,42.80,33.80,70.28,200.00,4.00,0.00,30.00,M,10.00,M,OVC,M,M,M,5000.00,M,M,M,M,M,M,M,M,M,M,40.03,KHTH 271235Z AUTO 20004KT 10SM OVC050 06/01 A3000 RMK A01,M
10U,2024-04-27 12:35,-116.1876,41.9532,1637.00,30.20,28.40,92.92,200.00,7.00,0.00,29.93,M,10.00,M,FEW,M,M,M,1400.00,M,M,M,M,M,M,M,M,M,M,22.59,K10U 271235Z AUTO 20007KT 10SM FEW014 M01/M02 A2993 RMK AO2,M
TMT,2024-04-27 12:35,-117.1971,39.4643,1749.34,35.60,33.30,91.24,0.00,0.00,0.00,29.97,M,10.00,M,OVC,M,M,M,3200.00,M,M,M,M,M,M,M,M,M,M,35.60,KTMT 271235Z AUTO 00000KT 10SM OVC032 02/01 A2997 RMK AO2 T00200007,M
05U,2024-04-27 12:50,-116.0051,39.6042,1811.23,M,M,M,160.00,5.00,0.00,29.95,M,10.00,M,M,M,M,M,M,M,M,M,M,M,M,M,M,M,M,M,K05U 271250Z AUTO 16005KT 10SM A2995 RMK A01,M
P68,2024-04-27 12:53,-116.0056,39.6014,1993.00,37.00,32.00,81.93,360.00,6.00,0.00,29.92,1010.70,M,M,M,M,M,M,M,M,M,M,M,M,M,M,M,M,M,31.55,KP68 271253Z AUTO 36006KT 03/00 A2992 RMK AO1 SLP107 T00280000,M
DRA,2024-04-27 12:53,-116.0278,36.6206,1009.00,44.00,37.00,76.22,0.00,0.00,0.00,29.85,1008.70,10.00,M,CLR,M,M,M,M,M,M,M,M,M,M,M,M,M,M,44.00,KDRA 271253Z AUTO 00000KT 10SM CLR 07/03 A2985 RMK AO2 SLP087 T00670028,M
ELY,2024-04-27 12:53,-114.8453,39.2950,1909.00,36.00,31.00,81.86,320.00,10.00,0.00,29.85,1008.50,10.00,18.00,SCT,M,M,M,3300.00,M,M,M,M,M,M,M,M,M,M,27.98,KELY 271253Z AUTO 32010G18KT 10SM SCT033 02/M01 A2985 RMK AO2 SLP085 T00221006,M
VGT,2024-04-27 12:53,-115.1933,36.2111,667.00,56.00,37.00,48.77,330.00,13.00,0.00,29.77,1009.20,10.00,M,CLR,M,M,M,M,M,M,M,M,M,M,M,M,M,M,56.00,KVGT 271253Z 33013KT 10SM CLR 13/03 A2977 RMK AO2 SLP092 T01330028,M
LOL,2024-04-27 12:53,-118.5701,40.0684,1192.43,32.00,30.00,92.22,70.00,7.00,0.00,29.99,1015.60,10.00,M,CLR,M,M,M,M,M,M,M,M,M,M,M,M,M,M,24.78,KLOL 271253Z AUTO 07007KT 10SM CLR 00/M01 A2999 RMK AO2 SLP156 T00001011,M
BVU,2024-04-27 12:55,-114.8611,35.9475,671.00,55.40,39.20,54.34,320.00,11.00,0.00,29.78,M,10.00,16.00,CLR,M,M,M,M,M,M,M,M,M,M,M,M,M,M,55.40,KBVU 271255Z AUTO 32011G16KT 10SM CLR 13/04 A2978 RMK AO2,M
CXP,2024-04-27 12:55,-119.7326,39.1923,1431.00,32.00,30.20,92.97,0.00,0.00,0.00,30.04,M,10.00,M,CLR,M,M,M,M,M,M,M,M,M,M,M,M,M,M,32.00,KCXP 271255Z AUTO 00000KT 10SM CLR 00/M01 A3004 RMK AO2,M
INS,2024-04-27 12:55,-115.6733,36.5872,955.00,48.00,36.00,62.97,240.00,11.00,0.00,29.84,1008.30,10.00,M,CLR,M,M,M,M,M,M,M,M,M,M,M,M,M,M,42.69,KINS 271255Z AUTO 24011KT 10SM CLR 09/02 A2984 RMK AO2 SLP083 T00890022 $,M
RNO,2024-04-27 12:55,-119.7711,39.4839,1341.00,38.00,31.00,75.65,280.00,4.00,0.00,30.04,1015.80,10.00,M,FEW,M,M,M,4000.00,M,M,M,M,M,M,M,M,M,M,34.43,KRNO 271255Z 28004KT 10SM FEW040 03/M01 A3004 RMK AO2 SLP158 T00331006,M
LSV,2024-04-27 12:55,-115.0343,36.2362,570.00,57.40,40.50,53.17,360.00,8.00,0.00,29.75,1006.50,10.00,M,CLR,M,M,M,M,M,M,M,M,M,M,M,M,M,M,57.40,KLSV 271255Z AUTO 36008KT 10SM CLR 14/05 A2975 RMK AO2 SLP065 T01410047 $,M
RTS,2024-04-27 12:55,-119.8764,39.6682,1539.00,28.40,26.60,92.86,340.00,5.00,0.00,30.04,M,10.00,M,CLR,M,M,M,M,M,M,M,M,M,M,M,M,M,M,22.12,KRTS 271255Z AUTO 34005KT 10SM CLR M02/M03 A3004 RMK AO2,M
MEV,2024-04-27 12:55,-119.7500,38.9963,1441.42,28.40,24.80,86.18,0.00,0.00,0.00,30.03,M,10.00,M,CLR,M,M,M,M,M,M,M,M,M,M,M,M,M,M,28.40,KMEV 271255Z AUTO 00000KT 10SM CLR M02/M04 A3003 RMK AO2,M
BAM,2024-04-27 12:55,-116.8743,40.5990,1382.36,35.60,32.00,86.59,0.00,0.00,0.00,29.97,M,10.00,M,CLR,M,M,M,M,M,M,M,M,M,M,M,M,M,M,35.60,KBAM 271255Z AUTO 00000KT 10SM CLR 02/00 A2997 RMK AO1,M
HTH,2024-04-27 12:55,-118.6315,38.5448,1282.89,42.80,33.80,70.28,220.00,5.00,0.00,30.01,M,10.00,M,BKN,OVC,M,M,4900.00,5500.00,M,M,M,M,M,M,M,M,M,39.22,KHTH 271255Z AUTO 22005KT 10SM BKN049 OVC055 06/01 A3001 RMK A01,M
10U,2024-04-27 12:55,-116.1876,41.9532,1637.00,30.20,28.40,92.92,220.00,8.00,0.00,29.93,M,10.00,M,BKN,M,M,M,1300.00,M,M,M,M,M,M,M,M,M,M,21.90,K10U 271255Z AUTO 22008KT 10SM BKN013 M01/M02 A2993 RMK AO2,M
TMT,2024-04-27 12:55,-117.1971,39.4643,1749.34,35.80,33.00,89.44,0.00,0.00,0.00,29.98,M,10.00,M,OVC,M,M,M,3400.00,M,M,M,M,M,M,M,M,M,M,35.80,KTMT 271255Z AUTO 00000KT 10SM OVC034 02/01 A2998 RMK AO2 T00210005,M
EKO,2024-04-27 12:56,-115.7860,40.8242,1367.00,37.00,31.00,78.69,210.00,8.00,0.00,29.90,1012.00,10.00,M,CLR,M,M,M,M,M,M,M,M,M,M,M,M,M,M,30.27,KEKO 271256Z AUTO 21008KT 10SM CLR 03/M01 A2990 RMK AO2 SLP120 T00281006,M
WMC,2024-04-27 12:56,-117.8072,40.9019,1315.00,33.00,29.00,85.04,250.00,6.00,0.00,29.98,1014.20,10.00,M,CLR,M,M,M,M,M,M,M,M,M,M,M,M,M,M,26.73,KWMC 271256Z AUTO 25006KT 10SM CLR 01/M02 A2998 RMK AO2 SLP142 T00061017 $,M
NFL,2024-04-27 12:56,-118.7010,39.4166,1199.00,38.00,33.00,82.00,300.00,3.00,0.00,30.00,1012.80,10.00,M,CLR,M,M,M,M,M,M,M,M,M,M,M,M,M,M,35.55,KNFL 271256Z AUTO 30003KT 10SM CLR 03/01 A3000 RMK AO2 SLP128 T00330006,M
HND,2024-04-27 12:56,-115.1344,35.9729,742.79,50.00,43.00,76.76,210.00,8.00,0.00,29.81,1010.70,10.00,M,FEW,M,M,M,12000.00,M,M,M,M,M,M,M,M,M,M,50.00,KHND 271256Z AUTO 21008KT 10SM FEW120 10/06 A2981 RMK AO2 SLP107 T01000061,M
TPH,2024-04-27 12:56,-117.0904,38.0505,1654.00,38.00,32.00,78.77,320.00,18.00,0.00,29.93,1011.50,10.00,30.00,CLR,M,M,M,M,M,M,M,M,M,M,M,33.00,330.00,2024-04-27 12:07,27.65,KTPH 271256Z AUTO 32018G30KT 10SM CLR 03/00 A2993 RMK AO2 PK WND 33033/1207 SLP115 T00330000,M
LAS,2024-04-27 12:56,-115.1634,36.0719,663.00,55.00,38.00,52.60,280.00,5.00,0.00,29.79,1007.90,10.00,M,FEW,SCT,M,M,13000.00,22000.00,M,M,M,M,M,M,M,M,M,55.00,KLAS 271256Z 28005KT 10SM FEW130 SCT220 13/03 A2979 RMK AO2 SLP079 T01280033,M
05U,2024-04-27 13:10,-116.0051,39.6042,1811.23,M,M,M,170.00,5.00,0.00,29.96,M,10.00,M,M,M,M,M,M,M,M,M,M,M,M,M,M,M,M,M,K05U 271310Z AUTO 17005KT 10SM A2996 RMK A01,M
BVU,2024-04-27 13:15,-114.8611,35.9475,671.00,55.40,39.20,54.34,320.00,11.00,0.00,29.79,M,10.00,M,CLR,M,M,M,M,M,M,M,M,M,M,M,M,M,M,55.40,KBVU 271315Z AUTO 32011KT 10SM CLR 13/04 A2979 RMK AO2,M
CXP,2024-04-27 13:15,-119.7326,39.1923,1431.00,30.20,28.40,92.92,0.00,0.00,0.00,30.05,M,10.00,M,CLR,M,M,M,M,M,M,M,M,M,M,M,M,M,M,30.20,KCXP 271315Z AUTO 00000KT 10SM CLR M01/M02 A3005 RMK AO2,M
RTS,2024-04-27 13:15,-119.8764,39.6682,1539.00,28.40,26.60,92.86,330.00,6.00,0.00,30.04,M,10.00,M,CLR,M,M,M,M,M,M,M,M,M,M,M,M,M,M,21.19,KRTS 271315Z AUTO 33006KT 10SM CLR M02/M03 A3004 RMK AO2,M
MEV,2024-04-27 13:15,-119.7500,38.9963,1441.42,26.60,23.00,86.07,130.00,5.00,0.00,30.03,M,10.00,M,CLR,M,M,M,M,M,M,M,M,M,M,M,M,M,M,19.98,KMEV 271315Z AUTO 13005KT 10SM CLR M03/M05 A3003 RMK AO2,M
HTH,2024-04-27 13:15,-118.6315,38.5448,1282.89,44.60,32.00,61.03,200.00,3.00,0.00,30.01,M,10.00,M,OVC,M,M,M,4900.00,M,M,M,M,M,M,M,M,M,M,43.09,KHTH 271315Z AUTO 20003KT 10SM OVC049 07/00 A3001 RMK A01,M
10U,2024-04-27 13:15,-116.1876,41.9532,1637.00,32.00,30.20,92.97,220.00,7.00,0.00,29.95,M,10.00,M,BKN,M,M,M,1100.00,M,M,M,M,M,M,M,M,M,M,24.78,K10U 271315Z AUTO 22007KT 10SM BKN011 M00/M01 A2995 RMK AO2,M
BAM,2024-04-27 13:15,-116.8743,40.5990,1382.36,33.80,32.00,93.03,160.00,3.00,0.00,29.99,M,10.00,M,SCT,M,M,M,4800.00,M,M,M,M,M,M,M,M,M,M,30.75,KBAM 271315Z AUTO 16003KT 10SM SCT048 01/00 A2999 RMK AO1,M
TMT,2024-04-27 13:15,-117.1971,39.4643,1749.34,35.60,33.40,91.60,150.00,3.00,0.00,29.99,M,10.00,M,BKN,OVC,M,M,3800.00,5000.00,M,M,M,M,M,M,M,M,M,32.80,KTMT 271315Z AUTO 15003KT 10SM BKN038 OVC050 02/01 A2999 RMK AO2 T00200008,M
05U,2024-04-27 13:30,-116.0051,39.6042,1811.23,M,M,M,150.00,8.00,0.00,29.97,M,10.00,M,M,M,M,M,M,M,M,M,M,M,M,M,M,M,M,M,K05U 271330Z AUTO 15008KT 10SM A2997 RMK A01,M
BVU,2024-04-27 13:35,-114.8611,35.9475,671.00,55.40,39.20,54.34,330.00,12.00,0.00,29.79,M,10.00,M,CLR,M,M,M,M,M,M,M,M,M,M,M,M,M,M,55.40,KBVU 271335Z AUTO 33012KT 10SM CLR 13/04 A2979 RMK AO2,M
CXP,2024-04-27 13:35,-119.7326,39.1923,1431.00,30.20,28.40,92.92,0.00,0.00,0.00,30.05,M,10.00,M,CLR,M,M,M,M,M,M,M,M,M,M,M,M,M,M,30.20,KCXP 271335Z AUTO 00000KT 10SM CLR M01/M02 A3005 RMK AO2,M
RTS,2024-04-27 13:35,-119.8764,39.6682,1539.00,28.40,26.60,92.86,330.00,7.00,0.00,30.05,M,10.00,M,CLR,M,M,M,M,M,M,M,M,M,M,M,M,M,M,20.39,KRTS 271335Z AUTO 33007KT 10SM CLR M02/M03 A3005 RMK AO2,M
MEV,2024-04-27 13:35,-119.7500,38.9963,1441.42,26.60,24.80,92.80,0.00,0.00,0.00,30.04,M,10.00,M,CLR,M,M,M,M,M,M,M,M,M,M,M,M,M,M,26.60,KMEV 271335Z AUTO 00000KT 10SM CLR M03/M04 A3004 RMK AO2,M
BAM,2024-04-27 13:35,-116.8743,40.5990,1382.36,33.80,32.00,93.03,0.00,0.00,0.00,29.99,M,10.00,M,BKN,M,M,M,4800.00,M,M,M,M,M,M,M,M,M,M,33.80,KBAM 271335Z AUTO 00000KT 10SM BKN048 01/00 A2999 RMK AO1,M
HTH,2024-04-27 13:35,-118.6315,38.5448,1282.89,46.40,32.00,57.00,0.00,0.00,0.00,30.02,M,10.00,M,OVC,M,M,M,4800.00,M,M,M,M,M,M,M,M,M,M,46.40,KHTH 271335Z AUTO 00000KT 10SM OVC048 08/M00 A3002 RMK A01,M
10U,2024-04-27 13:35,-116.1876,41.9532,1637.00,33.80,32.00,93.03,210.00,4.00,0.00,29.95,M,10.00,M,SCT,OVC,M,M,1000.00,2100.00,M,M,M,M,M,M,M,M,M,29.52,K10U 271335Z AUTO 21004KT 10SM SCT010 OVC021 01/M00 A2995 RMK AO2,M
TMT,2024-04-27 13:35,-117.1971,39.4643,1749.34,36.00,33.80,91.62,0.00,0.00,0.00,29.99,M,10.00,M,BKN,OVC,M,M,3600.00,5000.00,M,M,M,M,M,M,M,M,M,36.00,KTMT 271335Z AUTO 00000KT 10SM BKN036 OVC050 02/01 A2999 RMK AO2 T00220010,M
05U,2024-04-27 13:50,-116.0051,39.6042,1811.23,M,M,M,160.00,6.00,0.00,29.97,M,10.00,M,M,M,M,M,M,M,M,M,M,M,M,M,M,M,M,M,K05U 271350Z AUTO 16006KT 10SM A2997 RMK A01,M
P68,2024-04-27 13:53,-116.0056,39.6014,1993.00,38.00,31.00,75.65,10.00,7.00,0.00,29.95,1011.80,M,M,M,M,M,M,M,M,M,M,M,M,M,M,M,M,M,32.09,KP68 271353Z AUTO 01007KT 03/M01 A2995 RMK AO1 SLP118 T00331006,M
DRA,2024-04-27 13:53,-116.0278,36.6206,1009.00,47.00,39.00,73.57,0.00,0.00,0.00,29.89,1010.50,10.00,M,CLR,M,M,M,M,M,M,M,M,M,M,M,M,M,M,47.00,KDRA 271353Z AUTO 00000KT 10SM CLR 08/04 A2989 RMK AO2 SLP105 T00830039,M
ELY,2024-04-27 13:53,-114.8453,39.2950,1909.00,36.00,31.00,81.86,310.00,13.00,0.00,29.87,1009.50,10.00,M,CLR,M,M,M,M,M,M,M,M,M,M,M,M,M,M,26.69,KELY 271353Z AUTO 31013KT 10SM CLR 02/M01 A2987 RMK AO2 SLP095 T00221006,M
VGT,2024-04-27 13:53,-115.1933,36.2111,667.00,57.00,37.00,47.04,320.00,13.00,0.00,29.81,1010.20,10.00,M,CLR,M,M,M,M,M,M,M,M,M,M,M,M,M,M,57.00,KVGT 271353Z 32013KT 10SM CLR 14/03 A2981 RMK AO2 SLP102 T01390028,M
LOL,2024-04-27 13:53,-118.5701,40.0684,1192.43,35.00,32.00,88.68,0.00,0.00,0.00,30.01,1016.70,10.00,M,CLR,M,M,M,M,M,M,M,M,M,M,M,M,M,M,35.00,KLOL 271353Z AUTO 00000KT 10SM CLR 02/00 A3001 RMK AO2 SLP167 T00170000,M
BVU,2024-04-27 13:55,-114.8611,35.9475,671.00,57.20,39.20,50.91,330.00,10.00,0.00,29.81,M,10.00,M,CLR,M,M,M,M,M,M,M,M,M,M,M,M,M,M,57.20,KBVU 271355Z AUTO 33010KT 10SM CLR 14/04 A2981 RMK AO2,M
CXP,2024-04-27 13:55,-119.7326,39.1923,1431.00,33.80,32.00,93.03,0.00,0.00,0.00,30.06,M,10.00,M,CLR,M,M,M,M,M,M,M,M,M,M,M,M,M,M,33.80,KCXP 271355Z AUTO 00000KT 10SM CLR 01/M00 A3006 RMK AO2,M
INS,2024-04-27 13:55,-115.6733,36.5872,955.00,49.00,37.40,64.10,270.00,11.00,0.00,29.87,1009.40,10.00,M,CLR,M,M,M,M,M,M,M,M,M,M,M,M,M,M,43.95,KINS 271355Z AUTO 27011KT 10SM CLR 10/03 A2987 RMK AO2 SLP094 T00950030 $,M
RNO,2024-04-27 13:55,-119.7711,39.4839,1341.00,40.00,31.00,69.97,M,3.00,0.00,30.05,1016.30,10.00,M,FEW,M,M,M,4000.00,M,M,M,M,M,M,M,M,M,M,37.83,KRNO 271355Z VRB03KT 10SM FEW040 04/M01 A3005 RMK AO2 SLP163 T00441006,M
LSV,2024-04-27 13:55,-115.0343,36.2362,570.00,60.30,34.50,37.85,320.00,15.00,0.00,29.77,1007.10,10.00,21.00,CLR,M,M,M,M,M,M,M,M,M,M,M,M,M,M,60.30,KLSV 271355Z AUTO 32015G21KT 10SM CLR 16/01 A2977 RMK AO2 SLP071 T01570014 $,M
RTS,2024-04-27 13:55,-119.8764,39.6682,1539.00,30.20,28.40,92.92,330.00,6.00,0.00,30.05,M,10.00,M,CLR,M,M,M,M,M,M,M,M,M,M,M,M,M,M,23.36,KRTS 271355Z AUTO 33006KT 10SM CLR M01/M02 A3005 RMK AO2,M
MEV,2024-04-27 13:55,-119.7500,38.9963,1441.42,28.40,26.60,92.86,130.00,3.00,0.00,30.05,M,10.00,M,CLR,M,M,M,M,M,M,M,M,M,M,M,M,M,M,24.57,KMEV 271355Z AUTO 13003KT 10SM CLR M02/M03 A3005 RMK AO2,M
HTH,2024-04-27 13:55,-118.6315,38.5448,1282.89,46.40,32.00,57.00,240.00,4.00,0.00,30.03,M,10.00,M,OVC,M,M,M,4900.00,M,M,M,M,M,M,M,M,M,M,44.24,KHTH 271355Z AUTO 24004KT 10SM OVC049 08/M00 A3003 RMK A01,M
10U,2024-04-27 13:55,-116.1876,41.9532,1637.00,32.00,32.00,100.00,200.00,5.00,0.00,29.96,M,10.00,M,BKN,OVC,M,M,800.00,2000.00,M,M,M,M,M,M,M,M,M,26.40,K10U 271355Z AUTO 20005KT 10SM BKN008 OVC020 00/M00 A2996 RMK AO2,M
BAM,2024-04-27 13:55,-116.8743,40.5990,1382.36,33.80,32.00,93.03,210.00,3.00,0.00,29.99,M,10.00,M,SCT,SCT,M,M,4400.00,5000.00,M,M,M,M,M,M,M,M,M,30.75,KBAM 271355Z AUTO 21003KT 10SM SCT044 SCT050 01/00 A2999 RMK AO1,M
TMT,2024-04-27 13:55,-117.1971,39.4643,1749.34,36.50,34.70,93.11,0.00,0.00,0.00,30.00,M,10.00,M,SCT,BKN,OVC,M,3600.00,4200.00,5000.00,M,M,M,M,M,M,M,M,36.50,KTMT 271355Z AUTO 00000KT 10SM SCT036 BKN042 OVC050 03/02 A3000 RMK AO2 T00250015,M
EKO,2024-04-27 13:56,-115.7860,40.8242,1367.00,38.00,32.00,78.77,190.00,10.00,0.00,29.93,1013.10,10.00,M,SCT,M,M,M,2800.00,M,M,M,M,M,M,M,M,M,M,30.49,KEKO 271356Z AUTO 19010KT 10SM SCT028 03/00 A2993 RMK AO2 SLP131 T00330000,M
WMC,2024-04-27 13:56,-117.8072,40.9019,1315.00,38.00,34.00,85.35,0.00,0.00,0.00,29.99,1015.40,10.00,M,FEW,M,M,M,4700.00,M,M,M,M,M,M,M,M,M,M,38.00,KWMC 271356Z AUTO 00000KT 10SM FEW047 03/01 A2999 RMK AO2 SLP154 T00330011 $,M
NFL,2024-04-27 13:56,-118.7010,39.4166,1199.00,42.00,36.00,79.11,290.00,4.00,0.00,30.01,1013.40,10.00,M,SCT,M,M,M,5500.00,M,M,M,M,M,M,M,M,M,M,39.10,KNFL 271356Z AUTO 29004KT 10SM SCT055 06/02 A3001 RMK AO2 SLP134 T00560022,M
HND,2024-04-27 13:56,-115.1344,35.9729,742.79,53.00,42.00,66.12,200.00,7.00,0.00,29.84,1011.50,10.00,M,BKN,M,M,M,11000.00,M,M,M,M,M,M,M,M,M,M,53.00,KHND 271356Z 20007KT 10SM BKN110 12/06 A2984 RMK AO2 SLP115 T01170056,M
TPH,2024-04-27 13:56,-117.0904,38.0505,1654.00,41.00,31.00,67.30,310.00,18.00,0.00,29.96,1012.90,10.00,25.00,CLR,M,M,M,M,M,M,M,M,M,M,M,27.00,320.00,2024-04-27 13:04,31.60,KTPH 271356Z AUTO 31018G25KT 10SM CLR 05/M01 A2996 RMK AO2 PK WND 32027/1304 SLP129 T00501006,M
LAS,2024-04-27 13:56,-115.1634,36.0719,663.00,57.00,37.00,47.04,290.00,8.00,0.00,29.82,1008.80,10.00,M,FEW,FEW,M,M,12000.00,22000.00,M,M,M,M,M,M,M,M,M,57.00,KLAS 271356Z 29008KT 10SM FEW120 FEW220 14/03 A2982 RMK AO2 SLP088 T01390028,M
05U,2024-04-27 14:10,-116.0051,39.6042,1811.23,M,M,M,200.00,7.00,0.00,29.98,M,10.00,M,M,M,M,M,M,M,M,M,M,M,M,M,M,M,M,M,K05U 271410Z AUTO 20007KT 10SM A2998 RMK A01,M
BVU,2024-04-27 14:15,-114.8611,35.9475,671.00,57.20,37.40,47.44,320.00,13.00,0.00,29.81,M,10.00,M,CLR,M,M,M,M,M,M,M,M,M,M,M,M,M,M,57.20,KBVU 271415Z AUTO 32013KT 10SM CLR 14/03 A2981 RMK AO2,M
CXP,2024-04-27 14:15,-119.7326,39.1923,1431.00,35.60,32.00,86.59,0.00,0.00,0.00,30.07,M,10.00,M,CLR,M,M,M,M,M,M,M,M,M,M,M,M,M,M,35.60,KCXP 271415Z AUTO 00000KT 10SM CLR 02/00 A3007 RMK AO2,M
RTS,2024-04-27 14:15,-119.8764,39.6682,1539.00,33.80,32.00,93.03,310.00,6.00,0.00,30.06,M,10.00,M,CLR,M,M,M,M,M,M,M,M,M,M,M,M,M,M,27.70,KRTS 271415Z AUTO 31006KT 10SM CLR 01/00 A3006 RMK AO2,M
MEV,2024-04-27 14:15,-119.7500,38.9963,1441.42,32.00,28.40,86.39,0.00,0.00,0.00,30.06,M,10.00,M,CLR,M,M,M,M,M,M,M,M,M,M,M,M,M,M,32.00,KMEV 271415Z AUTO 00000KT 10SM CLR 00/M02 A3006 RMK AO2,M
HTH,2024-04-27 14:15,-118.6315,38.5448,1282.89,46.40,32.00,57.00,260.00,4.00,0.00,30.03,M,10.00,M,OVC,M,M,M,4900.00,M,M,M,M,M,M,M,M,M,M,44.24,KHTH 271415Z AUTO 26004KT 10SM OVC049 08/00 A3003 RMK A01,M
10U,2024-04-27 14:15,-116.1876,41.9532,1637.00,33.80,32.00,93.03,220.00,7.00,0.00,29.97,M,10.00,M,OVC,M,M,M,700.00,M,M,M,M,M,M,M,M,M,M,26.97,K10U 271415Z AUTO 22007KT 10SM OVC007 01/00 A2997 RMK AO2,M
BAM,2024-04-27 14:15,-116.8743,40.5990,1382.36,39.20,35.60,86.79,230.00,3.00,0.00,30.00,M,10.00,M,CLR,M,M,M,M,M,M,M,M,M,M,M,M,M,M,36.92,KBAM 271415Z AUTO 23003KT 10SM CLR 04/02 A3000 RMK AO1,M
TMT,2024-04-27 14:15,-117.1971,39.4643,1749.34,37.80,33.40,83.99,300.00,3.00,0.00,30.01,M,10.00,M,SCT,SCT,OVC,M,3300.00,3900.00,4800.00,M,M,M,M,M,M,M,M,35.32,KTMT 271415Z AUTO 30003KT 10SM SCT033 SCT039 OVC048 03/01 A3001 RMK AO2 T00320008,M
05U,2024-04-27 14:30,-116.0051,39.6042,1811.23,M,M,M,200.00,8.00,0.00,29.99,M,10.00,M,M,M,M,M,M,M,M,M,M,M,M,M,M,M,M,M,K05U 271430Z AUTO 20008KT 10SM A2999 RMK A01,M
BVU,2024-04-27 14:35,-114.8611,35.9475,671.00,59.00,37.40,44.47,330.00,12.00,0.00,29.82,M,10.00,19.00,CLR,M,M,M,M,M,M,M,M,M,M,M,M,M,M,59.00,KBVU 271435Z AUTO 33012G19KT 10SM CLR 15/03 A2982 RMK AO2,M
CXP,2024-04-27 14:35,-119.7326,39.1923,1431.00,37.40,32.00,80.65,0.00,0.00,0.00,30.07,M,10.00,M,CLR,M,M,M,M,M,M,M,M,M,M,M,M,M,M,37.40,KCXP 271435Z AUTO 00000KT 10SM CLR 03/00 A3007 RMK AO2,M
RTS,2024-04-27 14:35,-119.8764,39.6682,1539.00,37.40,32.00,80.65,310.00,6.00,0.00,30.07,M,10.00,M,CLR,M,M,M,M,M,M,M,M,M,M,M,M,M,M,32.03,KRTS 271435Z AUTO 31006KT 10SM CLR 03/00 A3007 RMK AO2,M
MEV,2024-04-27 14:35,-119.7500,38.9963,1441.42,35.60,30.20,80.51,0.00,0.00,0.00,30.06,M,10.00,M,CLR,M,M,M,M,M,M,M,M,M,M,M,M,M,M,35.60,KMEV 271435Z AUTO 00000KT 10SM CLR 02/M01 A3006 RMK AO2,M
BAM,2024-04-27 14:35,-116.8743,40.5990,1382.36,42.80,35.60,75.50,0.00,0.00,0.00,30.01,M,10.00,M,CLR,M,M,M,M,M,M,M,M,M,M,M,M,M,M,42.80,KBAM 271435Z AUTO 00000KT 10SM CLR 06/02 A3001 RMK AO1,M
HTH,2024-04-27 14:35,-118.6315,38.5448,1282.89,46.40,32.00,57.00,290.00,3.00,0.00,30.04,M,10.00,M,OVC,M,M,M,5000.00,M,M,M,M,M,M,M,M,M,M,45.15,KHTH 271435Z AUTO 29003KT 10SM OVC050 08/M00 A3004 RMK A01,M
10U,2024-04-27 14:35,-116.1876,41.9532,1637.00,33.80,32.00,93.03,230.00,6.00,0.00,29.97,M,10.00,M,OVC,M,M,M,700.00,M,M,M,M,M,M,M,M,M,M,27.70,K10U 271435Z AUTO 23006KT 10SM OVC007 01/00 A2997 RMK AO2,M
TMT,2024-04-27 14:35,-117.1971,39.4643,1749.34,38.70,32.70,78.83,290.00,5.00,0.00,30.02,M,10.00,M,SCT,OVC,M,M,3000.00,4800.00,M,M,M,M,M,M,M,M,M,34.35,KTMT 271435Z AUTO 29005KT 10SM SCT030 OVC048 04/00 A3002 RMK AO2 T00370004,M
05U,2024-04-27 14:50,-116.0051,39.6042,1811.23,M,M,M,200.00,7.00,0.00,30.00,M,10.00,M,M,M,M,M,M,M,M,M,M,M,M,M,M,M,M,M,K05U 271450Z AUTO 20007KT 10SM A3000 RMK A01,M
P68,2024-04-27 14:53,-116.0056,39.6014,1993.00,38.00,32.00,78.77,30.00,7.00,0.00,29.97,1012.70,M,M,M,M,M,M,M,M,M,M,M,M,M,M,M,M,M,32.09,KP68 271453Z AUTO 03007KT 03/00 A2997 RMK AO1 SLP127 T00330000 52019,M
DRA,2024-04-27 14:53,-116.0278,36.6206,1009.00,53.00,36.00,52.30,0.00,0.00,0.00,29.91,1010.90,10.00,M,CLR,M,M,M,M,M,M,M,M,M,M,M,M,M,M,53.00,KDRA 271453Z AUTO 00000KT 10SM CLR 12/02 A2991 RMK AO2 SLP109 T01170022 51023,M
ELY,2024-04-27 14:53,-114.8453,39.2950,1909.00,37.00,32.00,81.93,320.00,8.00,0.00,29.90,1010.80,10.00,M,SCT,BKN,M,M,2500.00,3200.00,M,M,M,M,M,M,M,M,M,30.27,KELY 271453Z AUTO 32008KT 10SM SCT025 BKN032 03/00 A2990 RMK AO2 SLP108 T00280000 53019,M
VGT,2024-04-27 14:53,-115.1933,36.2111,667.00,61.00,36.00,39.19,330.00,17.00,0.00,29.82,1010.50,10.00,25.00,CLR,M,M,M,M,M,M,M,M,M,M,M,M,M,M,61.00,KVGT 271453Z 33017G25KT 10SM CLR 16/02 A2982 RMK AO2 SLP105 T01610022 51020,M
LOL,2024-04-27 14:53,-118.5701,40.0684,1192.43,43.00,35.00,73.16,80.00,5.00,0.00,30.03,1016.70,10.00,M,CLR,M,M,M,M,M,M,M,M,M,M,M,M,M,M,39.46,KLOL 271453Z AUTO 08005KT 10SM CLR 06/02 A3003 RMK AO2 SLP167 T00610017 53016,M
BVU,2024-04-27 14:55,-114.8611,35.9475,671.00,59.00,37.40,44.47,320.00,11.00,0.00,29.83,M,10.00,18.00,CLR,M,M,M,M,M,M,M,M,M,M,M,M,M,M,59.00,KBVU 271455Z AUTO 32011G18KT 10SM CLR 15/03 A2983 RMK AO2,M
CXP,2024-04-27 14:55,-119.7326,39.1923,1431.00,39.20,32.00,75.16,0.00,0.00,0.00,30.08,M,10.00,M,CLR,M,M,M,M,M,M,M,M,M,M,M,M,M,M,39.20,KCXP 271455Z AUTO 00000KT 10SM CLR 04/00 A3008 RMK AO2,M
INS,2024-04-27 14:55,-115.6733,36.5872,955.00,54.00,37.40,53.29,250.00,11.00,0.00,29.89,1009.90,10.00,M,CLR,M,M,M,M,M,M,M,M,M,M,M,M,M,M,54.00,KINS 271455Z AUTO 25011KT 10SM CLR 12/03 A2989 RMK AO2 SLP099 T01230030 52022 $,M
RNO,2024-04-27 14:55,-119.7711,39.4839,1341.00,42.00,31.00,64.75,0.00,0.00,0.00,30.07,1016.90,10.00,M,FEW,M,M,M,4000.00,M,M,M,M,M,M,M,M,M,M,42.00,KRNO 271455Z 00000KT 10SM FEW040 06/M01 A3007 RMK AO2 SLP169 T00561006 53012,M
LSV,2024-04-27 14:55,-115.0343,36.2362,570.00,62.20,33.40,33.87,310.00,19.00,0.00,29.79,1007.70,10.00,29.00,CLR,M,M,M,M,M,M,M,M,M,M,M,M,M,M,62.20,KLSV 271455Z AUTO 31019G29KT 10SM CLR 17/01 A2979 RMK AO2 SLP077 T01680008 52019 $,M
RTS,2024-04-27 14:55,-119.8764,39.6682,1539.00,39.20,32.00,75.16,320.00,6.00,0.00,30.07,M,10.00,M,CLR,M,M,M,M,M,M,M,M,M,M,M,M,M,M,34.20,KRTS 271455Z AUTO 32006KT 10SM CLR 04/M00 A3007 RMK AO2,M
MEV,2024-04-27 14:55,-119.7500,38.9963,1441.42,37.40,30.20,74.98,0.00,0.00,0.00,30.07,M,10.00,M,CLR,M,M,M,M,M,M,M,M,M,M,M,M,M,M,37.40,KMEV 271455Z AUTO 00000KT 10SM CLR 03/M01 A3007 RMK AO2,M
BAM,2024-04-27 14:55,-116.8743,40.5990,1382.36,42.80,33.80,70.28,0.00,0.00,0.00,30.01,M,10.00,M,CLR,M,M,M,M,M,M,M,M,M,M,M,M,M,M,42.80,KBAM 271455Z AUTO 00000KT 10SM CLR 06/01 A3001 RMK AO1,M
HTH,2024-04-27 14:55,-118.6315,38.5448,1282.89,46.40,33.80,61.28,260.00,5.00,0.00,30.05,M,10.00,M,OVC,M,M,M,4900.00,M,M,M,M,M,M,M,M,M,M,43.50,KHTH 271455Z AUTO 26005KT 10SM OVC049 08/01 A3005 RMK A01,M
10U,2024-04-27 14:55,-116.1876,41.9532,1637.00,35.60,33.80,93.08,200.00,6.00,0.00,29.98,M,10.00,M,BKN,OVC,M,M,800.00,2100.00,M,M,M,M,M,M,M,M,M,29.87,K10U 271455Z AUTO 20006KT 10SM BKN008 OVC021 02/01 A2998 RMK AO2,M
TMT,2024-04-27 14:55,-117.1971,39.4643,1749.34,39.20,32.70,77.31,330.00,3.00,0.00,30.02,M,10.00,M,BKN,BKN,OVC,M,2100.00,2800.00,4600.00,M,M,M,M,M,M,M,M,36.92,KTMT 271455Z AUTO 33003KT 10SM BKN021 BKN028 OVC046 04/00 A3002 RMK AO2 T00400004,M
EKO,2024-04-27 14:56,-115.7860,40.8242,1367.00,43.00,32.00,64.88,240.00,11.00,0.00,29.95,1013.00,10.00,M,CLR,M,M,M,M,M,M,M,M,M,M,M,M,M,M,36.37,KEKO 271456Z AUTO 24011KT 10SM CLR 06/00 A2995 RMK AO2 SLP130 T00610000 51017,M
WMC,2024-04-27 14:56,-117.8072,40.9019,1315.00,44.00,35.00,70.42,270.00,8.00,0.00,30.01,1015.50,10.00,M,CLR,M,M,M,M,M,M,M,M,M,M,M,M,M,M,38.90,KWMC 271456Z AUTO 27008KT 10SM CLR 07/02 A3001 RMK AO2 SLP155 T00670017 53015 $,M
NFL,2024-04-27 14:56,-118.7010,39.4166,1199.00,47.00,37.00,68.02,300.00,5.00,0.00,30.03,1014.00,10.00,M,FEW,M,M,M,5500.00,M,M,M,M,M,M,M,M,M,M,44.21,KNFL 271456Z AUTO 30005KT 10SM FEW055 08/03 A3003 RMK AO2 SLP140 T00830028 53016,M
HND,2024-04-27 14:56,-115.1344,35.9729,742.79,58.00,43.00,57.30,200.00,5.00,0.00,29.87,1012.10,10.00,M,CLR,M,M,M,M,M,M,M,M,M,M,M,M,M,M,58.00,KHND 271456Z 20005KT 10SM CLR 14/06 A2987 RMK AO2 SLP121 T01440061 53022,M
TPH,2024-04-27 14:56,-117.0904,38.0505,1654.00,43.00,32.00,64.88,310.00,16.00,0.00,29.98,1013.50,10.00,26.00,CLR,M,M,M,M,M,M,M,M,M,M,M,28.00,320.00,2024-04-27 14:24,34.76,KTPH 271456Z AUTO 31016G26KT 10SM CLR 06/00 A2998 RMK AO2 PK WND 32028/1424 SLP135 T00610000 53019,M
LAS,2024-04-27 14:56,-115.1634,36.0719,663.00,60.00,36.00,40.61,330.00,12.00,0.00,29.84,1009.50,10.00,17.00,FEW,FEW,M,M,12000.00,22000.00,M,M,M,M,M,M,M,M,M,60.00,KLAS 271456Z 33012G17KT 10SM FEW120 FEW220 16/02 A2984 RMK AO2 SLP095 T01560022 53021,M
ELY,2024-04-27 15:01,-114.8453,39.2950,1909.00,37.00,32.00,81.93,310.00,9.00,0.00,29.90,M,10.00,M,BKN,BKN,M,M,2700.00,3400.00,M,M,M,M,M,M,M,M,M,29.73,KELY 271501Z AUTO 31009KT 10SM BKN027 BKN034 03/00 A2990 RMK AO2 T00280000,M
05U,2024-04-27 15:10,-116.0051,39.6042,1811.23,M,M,M,190.00,7.00,0.00,30.00,M,10.00,M,M,M,M,M,M,M,M,M,M,M,M,M,M,M,M,M,K05U 271510Z AUTO 19007KT 10SM A3000 RMK A01,M
BVU,2024-04-27 15:15,-114.8611,35.9475,671.00,60.80,35.60,38.85,320.00,16.00,0.00,29.83,M,10.00,M,CLR,M,M,M,M,M,M,M,M,M,M,M,M,M,M,60.80,KBVU 271515Z AUTO 32016KT 10SM CLR 16/02 A2983 RMK AO2,M
CXP,2024-04-27 15:15,-119.7326,39.1923,1431.00,41.00,32.00,70.08,200.00,4.00,0.00,30.08,M,10.00,M,CLR,M,M,M,M,M,M,M,M,M,M,M,M,M,M,37.93,KCXP 271515Z AUTO 20004KT 10SM CLR 05/00 A3008 RMK AO2,M
RTS,2024-04-27 15:15,-119.8764,39.6682,1539.00,39.20,32.00,75.16,0.00,0.00,0.00,30.06,M,10.00,M,CLR,M,M,M,M,M,M,M,M,M,M,M,M,M,M,39.20,KRTS 271515Z AUTO 00000KT 10SM CLR 04/M00 A3006 RMK AO2,M
MEV,2024-04-27 15:15,-119.7500,38.9963,1441.42,39.20,32.00,75.16,0.00,0.00,0.00,30.07,M,10.00,M,CLR,M,M,M,M,M,M,M,M,M,M,M,M,M,M,39.20,KMEV 271515Z AUTO 00000KT 10SM CLR 04/M00 A3007 RMK AO2,M
HTH,2024-04-27 15:15,-118.6315,38.5448,1282.89,46.40,32.00,57.00,300.00,4.00,0.00,30.05,M,10.00,M,BKN,BKN,M,M,5000.00,6000.00,M,M,M,M,M,M,M,M,M,44.24,KHTH 271515Z AUTO 30004KT 10SM BKN050 BKN060 08/M00 A3005 RMK A01,M
10U,2024-04-27 15:15,-116.1876,41.9532,1637.00,35.60,33.80,93.08,210.00,4.00,0.00,29.97,M,10.00,M,FEW,SCT,BKN,M,800.00,1200.00,2200.00,M,M,M,M,M,M,M,M,31.62,K10U 271515Z AUTO 21004KT 10SM FEW008 SCT012 BKN022 02/01 A2997 RMK AO2,M
BAM,2024-04-27 15:15,-116.8743,40.5990,1382.36,44.60,33.80,65.61,330.00,3.00,0.00,30.01,M,10.00,M,CLR,M,M,M,M,M,M,M,M,M,M,M,M,M,M,43.09,KBAM 271515Z AUTO 33003KT 10SM CLR 07/01 A3001 RMK AO1,M
TMT,2024-04-27 15:15,-117.1971,39.4643,1749.34,39.70,32.00,73.71,330.00,6.00,0.00,30.02,M,10.00,M,SCT,BKN,OVC,M,2300.00,3000.00,4700.00,M,M,M,M,M,M,M,M,34.80,KTMT 271515Z AUTO 33006KT 10SM SCT023 BKN030 OVC047 04/00 A3002 RMK AO2 T00430000,M
ELY,2024-04-27 15:30,-114.8453,39.2950,1909.00,38.00,32.00,78.77,310.00,7.00,0.00,29.91,M,10.00,M,BKN,OVC,M,M,3000.00,3700.00,M,M,M,M,M,M,M,M,M,32.09,KELY 271530Z AUTO 31007KT 10SM BKN030 OVC037 03/00 A2991 RMK AO2 T00330000,M
05U,2024-04-27 15:30,-116.0051,39.6042,1811.23,M,M,M,200.00,9.00,0.00,30.01,M,10.00,M,M,M,M,M,M,M,M,M,M,M,M,M,M,M,M,M,K05U 271530Z AUTO 20009KT 10SM A3001 RMK A01,M
BVU,2024-04-27 15:35,-114.8611,35.9475,671.00,62.60,35.60,36.45,320.00,16.00,0.00,29.83,M,10.00,M,CLR,M,M,M,M,M,M,M,M,M,M,M,M,M,M,62.60,KBVU 271535Z AUTO 32016KT 10SM CLR 17/02 A2983 RMK AO2,M
CXP,2024-04-27 15:35,-119.7326,39.1923,1431.00,42.80,33.80,70.28,0.00,0.00,0.00,30.07,M,10.00,M,CLR,M,M,M,M,M,M,M,M,M,M,M,M,M,M,42.80,KCXP 271535Z AUTO 00000KT 10SM CLR 06/01 A3007 RMK AO2,M
RTS,2024-04-27 15:35,-119.8764,39.6682,1539.00,39.20,32.00,75.16,0.00,0.00,0.00,30.06,M,10.00,M,CLR,M,M,M,M,M,M,M,M,M,M,M,M,M,M,39.20,KRTS 271535Z AUTO 00000KT 10SM CLR 04/00 A3006 RMK AO2,M
MEV,2024-04-27 15:35,-119.7500,38.9963,1441.42,42.80,32.00,65.38,0.00,0.00,0.00,30.06,M,10.00,M,CLR,M,M,M,M,M,M,M,M,M,M,M,M,M,M,42.80,KMEV 271535Z AUTO 00000KT 10SM CLR 06/M00 A3006 RMK AO2,M
BAM,2024-04-27 15:35,-116.8743,40.5990,1382.36,44.60,33.80,65.61,0.00,0.00,0.00,30.02,M,10.00,M,CLR,M,M,M,M,M,M,M,M,M,M,M,M,M,M,44.60,KBAM 271535Z AUTO 00000KT 10SM CLR 07/01 A3002 RMK AO1,M
HTH,2024-04-27 15:35,-118.6315,38.5448,1282.89,48.20,32.00,53.27,280.00,5.00,0.00,30.06,M,10.00,M,SCT,M,M,M,5000.00,M,M,M,M,M,M,M,M,M,M,45.63,KHTH 271535Z AUTO 28005KT 10SM SCT050 09/M00 A3006 RMK A01,M
10U,2024-04-27 15:35,-116.1876,41.9532,1637.00,37.40,33.80,86.69,230.00,5.00,0.00,29.98,M,10.00,M,BKN,OVC,M,M,1100.00,2400.00,M,M,M,M,M,M,M,M,M,32.81,K10U 271535Z AUTO 23005KT 10SM BKN011 OVC024 03/01 A2998 RMK AO2,M
TMT,2024-04-27 15:35,-117.1971,39.4643,1749.34,40.50,32.00,71.45,340.00,7.00,0.00,30.03,M,10.00,M,SCT,SCT,OVC,M,2600.00,3100.00,4000.00,M,M,M,M,M,M,M,M,35.14,KTMT 271535Z AUTO 34007KT 10SM SCT026 SCT031 OVC040 05/00 A3003 RMK AO2 T00470000,M
05U,2024-04-27 15:50,-116.0051,39.6042,1811.23,M,M,M,190.00,7.00,0.00,30.01,M,10.00,M,M,M,M,M,M,M,M,M,M,M,M,M,M,M,M,M,K05U 271550Z AUTO 19007KT 10SM A3001 RMK A01,M
P68,2024-04-27 15:53,-116.0056,39.6014,1993.00,40.00,32.00,72.85,20.00,6.00,0.00,29.99,1013.30,M,M,M,M,M,M,M,M,M,M,M,M,M,M,M,M,M,35.17,KP68 271553Z AUTO 02006KT 04/00 A2999 RMK AO1 SLP133 T00440000,M
DRA,2024-04-27 15:53,-116.0278,36.6206,1009.00,54.00,36.00,50.42,0.00,0.00,0.00,29.92,1011.00,10.00,M,CLR,M,M,M,M,M,M,M,M,M,M,M,M,M,M,54.00,KDRA 271553Z AUTO 00000KT 10SM CLR 12/02 A2992 RMK AO2 SLP110 T01220022,M
ELY,2024-04-27 15:53,-114.8453,39.2950,1909.00,39.00,32.00,75.75,340.00,5.00,0.00,29.93,1011.40,10.00,M,FEW,OVC,M,M,2300.00,3200.00,M,M,M,M,M,M,M,M,M,34.71,KELY 271553Z AUTO 34005KT 10SM FEW023 OVC032 04/00 A2993 RMK AO2 SLP114 T00390000,M
VGT,2024-04-27 15:53,-115.1933,36.2111,667.00,64.00,36.00,35.26,340.00,16.00,0.00,29.84,1011.10,10.00,29.00,CLR,M,M,M,M,M,M,M,M,M,M,M,29.00,310.00,2024-04-27 15:20,64.00,KVGT 271553Z 34016G29KT 10SM CLR 18/02 A2984 RMK AO2 PK WND 31029/1520 SLP111 T01780022,M
LOL,2024-04-27 15:53,-118.5701,40.0684,1192.43,48.00,34.00,58.16,80.00,3.00,0.00,30.03,1016.60,10.00,M,CLR,M,M,M,M,M,M,M,M,M,M,M,M,M,M,46.98,KLOL 271553Z AUTO 08003KT 10SM CLR 09/01 A3003 RMK AO2 SLP166 T00890011,M
BVU,2024-04-27 15:55,-114.8611,35.9475,671.00,62.60,37.40,39.14,330.00,15.00,0.00,29.84,M,10.00,M,CLR,M,M,M,M,M,M,M,M,M,M,M,M,M,M,62.60,KBVU 271555Z AUTO 33015KT 10SM CLR 17/03 A2984 RMK AO2,M
CXP,2024-04-27 15:55,-119.7326,39.1923,1431.00,44.60,32.00,61.03,0.00,0.00,0.00,30.07,M,10.00,M,CLR,M,M,M,M,M,M,M,M,M,M,M,M,M,M,44.60,KCXP 271555Z AUTO 00000KT 10SM CLR 07/00 A3007 RMK AO2,M
INS,2024-04-27 15:55,-115.6733,36.5872,955.00,57.00,33.60,41.10,260.00,9.00,0.00,29.91,1010.60,10.00,M,CLR,M,M,M,M,M,M,M,M,M,M,M,M,M,M,57.00,KINS 271555Z AUTO 26009KT 10SM CLR 14/01 A2991 RMK AO2 SLP106 T01390009 $,M
RNO,2024-04-27 15:55,-119.7711,39.4839,1341.00,45.00,31.00,57.73,0.00,0.00,0.00,30.06,1016.60,10.00,M,FEW,SCT,M,M,4000.00,25000.00,M,M,M,M,M,M,M,M,M,45.00,KRNO 271555Z 00000KT 10SM FEW040 SCT250 07/M01 A3006 RMK AO2 SLP166 T00721006,M
RTS,2024-04-27 15:55,-119.8764,39.6682,1539.00,41.00,32.00,70.08,0.00,0.00,0.00,30.07,M,10.00,M,CLR,M,M,M,M,M,M,M,M,M,M,M,M,M,M,41.00,KRTS 271555Z AUTO 00000KT 10SM CLR 05/00 A3007 RMK AO2,M
MEV,2024-04-27 15:55,-119.7500,38.9963,1441.42,42.80,32.00,65.38,190.00,3.00,0.00,30.06,M,10.00,M,CLR,M,M,M,M,M,M,M,M,M,M,M,M,M,M,41.03,KMEV 271555Z AUTO 19003KT 10SM CLR 06/00 A3006 RMK AO2,M
BAM,2024-04-27 15:55,-116.8743,40.5990,1382.36,46.40,35.60,65.83,350.00,4.00,0.00,30.03,M,10.00,M,CLR,M,M,M,M,M,M,M,M,M,M,M,M,M,M,44.24,KBAM 271555Z AUTO 35004KT 10SM CLR 08/02 A3003 RMK AO1,M
HTH,2024-04-27 15:55,-118.6315,38.5448,1282.89,50.00,32.00,49.81,290.00,4.00,0.00,30.06,M,10.00,M,FEW,M,M,M,5000.00,M,M,M,M,M,M,M,M,M,M,50.00,KHTH 271555Z AUTO 29004KT 10SM FEW050 10/M00 A3006 RMK A01,M
10U,2024-04-27 15:55,-116.1876,41.9532,1637.00,37.40,33.80,86.69,230.00,8.00,0.00,29.99,M,10.00,M,OVC,M,M,M,1500.00,M,M,M,M,M,M,M,M,M,M,30.76,K10U 271555Z AUTO 23008KT 10SM OVC015 03/01 A2999 RMK AO2,M
LSV,2024-04-27 15:55,-115.0343,36.2362,570.00,64.40,32.40,30.11,310.00,26.00,0.00,29.81,1008.30,10.00,30.00,CLR,M,M,M,M,M,M,M,M,M,M,M,31.00,320.00,2024-04-27 15:28,64.40,KLSV 271555Z AUTO 31026G30KT 10SM CLR 18/00 A2981 RMK AO2 PK WND 32031/28 SLP083 T01800002 $,M
EKO,2024-04-27 15:56,-115.7860,40.8242,1367.00,46.00,31.00,55.58,270.00,10.00,0.00,29.96,1013.50,10.00,M,FEW,M,M,M,3500.00,M,M,M,M,M,M,M,M,M,M,40.52,KEKO 271556Z AUTO 27010KT 10SM FEW035 08/M01 A2996 RMK AO2 SLP135 T00781006,M
WMC,2024-04-27 15:56,-117.8072,40.9019,1315.00,47.00,34.00,60.38,290.00,7.00,0.00,30.02,1015.90,10.00,M,CLR,M,M,M,M,M,M,M,M,M,M,M,M,M,M,43.06,KWMC 271556Z AUTO 29007KT 10SM CLR 08/01 A3002 RMK AO2 SLP159 T00830011 $,M
NFL,2024-04-27 15:56,-118.7010,39.4166,1199.00,49.00,34.00,56.02,290.00,5.00,0.00,30.04,1014.20,10.00,M,FEW,FEW,FEW,M,6000.00,12000.00,25000.00,M,M,M,M,M,M,M,M,46.58,KNFL 271556Z 29005KT 10SM FEW060 FEW120 FEW250 09/01 A3004 RMK AO2 SLP142 T00940011,M
HND,2024-04-27 15:56,-115.1344,35.9729,742.79,62.00,37.00,39.35,210.00,5.00,0.00,29.88,1012.40,10.00,M,CLR,M,M,M,M,M,M,M,M,M,M,M,M,M,M,62.00,KHND 271556Z 21005KT 10SM CLR 17/03 A2988 RMK AO2 SLP124 T01670028,M
TPH,2024-04-27 15:56,-117.0904,38.0505,1654.00,47.00,30.00,51.39,310.00,16.00,0.00,30.00,1013.90,10.00,27.00,CLR,M,M,M,M,M,M,M,M,M,M,M,29.00,320.00,2024-04-27 15:11,39.97,KTPH 271556Z AUTO 31016G27KT 10SM CLR 08/M01 A3000 RMK AO2 PK WND 32029/1511 SLP139 T00831011,M
LAS,2024-04-27 15:56,-115.1634,36.0719,663.00,63.00,36.00,36.52,340.00,16.00,0.00,29.85,1009.90,10.00,25.00,FEW,FEW,M,M,12000.00,22000.00,M,M,M,M,M,M,27.00,340.00,2024-04-27 15:38,63.00,KLAS 271556Z 34016G25KT 10SM FEW120 FEW220 17/02 A2985 RMK AO2 PK WND 34027/1538 SLP099 T01720022 $,M
05U,2024-04-27 16:10,-116.0051,39.6042,1811.23,M,M,M,160.00,6.00,0.00,30.02,M,10.00,M,M,M,M,M,M,M,M,M,M,M,M,M,M,M,M,M,K05U 271610Z AUTO 16006KT 10SM A3002 RMK A01,M
BVU,2024-04-27 16:15,-114.8611,35.9475,671.00,62.60,35.60,36.45,320.00,16.00,0.00,29.85,M,10.00,24.00,CLR,M,M,M,M,M,M,M,M,M,M,M,M,M,M,62.60,KBVU 271615Z AUTO 32016G24KT 10SM CLR 17/02 A2985 RMK AO2,M
CXP,2024-04-27 16:15,-119.7326,39.1923,1431.00,44.60,32.00,61.03,0.00,0.00,0.00,30.08,M,10.00,M,CLR,M,M,M,M,M,M,M,M,M,M,M,M,M,M,44.60,KCXP 271615Z AUTO 00000KT 10SM CLR 07/00 A3008 RMK AO2,M
RTS,2024-04-27 16:15,-119.8764,39.6682,1539.00,42.80,30.20,60.79,0.00,0.00,0.00,30.07,M,10.00,M,CLR,M,M,M,M,M,M,M,M,M,M,M,M,M,M,42.80,KRTS 271615Z AUTO 00000KT 10SM CLR 06/M01 A3007 RMK AO2,M
MEV,2024-04-27 16:15,-119.7500,38.9963,1441.42,44.60,33.80,65.61,230.00,3.00,0.00,30.06,M,10.00,M,CLR,M,M,M,M,M,M,M,M,M,M,M,M,M,M,43.09,KMEV 271615Z AUTO 23003KT 10SM CLR 07/01 A3006 RMK AO2,M
BAM,2024-04-27 16:15,-116.8743,40.5990,1382.36,46.40,35.60,65.83,270.00,3.00,0.00,30.03,M,10.00,M,CLR,M,M,M,M,M,M,M,M,M,M,M,M,M,M,45.15,KBAM 271615Z AUTO 27003KT 10SM CLR 08/02 A3003 RMK AO1,M
HTH,2024-04-27 16:15,-118.6315,38.5448,1282.89,50.00,30.20,46.31,M,M,0.00,30.06,M,10.00,M,CLR,M,M,M,M,M,M,M,M,M,M,M,M,M,M,50.00,KHTH 271615Z AUTO 10SM CLR 10/M01 A3006 RMK A01,M
10U,2024-04-27 16:15,-116.1876,41.9532,1637.00,39.20,33.80,80.79,240.00,8.00,0.00,29.99,M,10.00,13.00,OVC,M,M,M,1400.00,M,M,M,M,M,M,M,M,M,M,32.98,K10U 271615Z AUTO 24008G13KT 10SM OVC014 04/01 A2999 RMK AO2,M
TMT,2024-04-27 16:15,-117.1971,39.4643,1749.34,41.70,31.00,65.51,300.00,7.00,0.00,30.03,M,10.00,M,BKN,OVC,M,M,3000.00,4200.00,M,M,M,M,M,M,M,M,M,36.60,KTMT 271615Z AUTO 30007KT 10SM BKN030 OVC042 05/00 A3003 RMK AO2 T00541005,M
05U,2024-04-27 16:30,-116.0051,39.6042,1811.23,M,M,M,170.00,5.00,0.00,30.02,M,10.00,M,M,M,M,M,M,M,M,M,M,M,M,M,M,M,M,M,K05U 271630Z AUTO 17005KT 10SM A3002 RMK A01,M
ELY,2024-04-27 16:33,-114.8453,39.2950,1909.00,41.00,33.00,72.96,320.00,12.00,0.00,29.94,M,10.00,17.00,BKN,OVC,M,M,2800.00,3600.00,M,M,M,M,M,M,M,M,M,33.46,KELY 271633Z AUTO 32012G17KT 10SM BKN028 OVC036 05/01 A2994 RMK AO2 T00500006,M
BVU,2024-04-27 16:35,-114.8611,35.9475,671.00,64.40,35.60,34.22,330.00,17.00,0.00,29.85,M,10.00,22.00,CLR,M,M,M,M,M,M,M,M,M,M,M,M,M,M,64.40,KBVU 271635Z AUTO 33017G22KT 10SM CLR 18/02 A2985 RMK AO2,M
CXP,2024-04-27 16:35,-119.7326,39.1923,1431.00,46.40,32.00,57.00,0.00,0.00,0.00,30.08,M,10.00,M,CLR,M,M,M,M,M,M,M,M,M,M,M,M,M,M,46.40,KCXP 271635Z AUTO 00000KT 10SM CLR 08/M00 A3008 RMK AO2,M
RTS,2024-04-27 16:35,-119.8764,39.6682,1539.00,44.60,32.00,61.03,240.00,5.00,0.00,30.07,M,10.00,M,CLR,M,M,M,M,M,M,M,M,M,M,M,M,M,M,41.36,KRTS 271635Z AUTO 24005KT 10SM CLR 07/M00 A3007 RMK AO2,M
MEV,2024-04-27 16:35,-119.7500,38.9963,1441.42,46.40,32.00,57.00,220.00,4.00,0.00,30.06,M,10.00,M,CLR,M,M,M,M,M,M,M,M,M,M,M,M,M,M,44.24,KMEV 271635Z AUTO 22004KT 10SM CLR 08/00 A3006 RMK AO2,M
BAM,2024-04-27 16:35,-116.8743,40.5990,1382.36,48.20,35.60,61.52,310.00,3.00,0.00,30.03,M,10.00,M,CLR,M,M,M,M,M,M,M,M,M,M,M,M,M,M,47.21,KBAM 271635Z AUTO 31003KT 10SM CLR 09/02 A3003 RMK AO1,M
HTH,2024-04-27 16:35,-118.6315,38.5448,1282.89,51.80,30.20,43.32,M,M,0.00,30.06,M,10.00,M,SCT,M,M,M,4600.00,M,M,M,M,M,M,M,M,M,M,51.80,KHTH 271635Z AUTO 10SM SCT046 11/M01 A3006 RMK A01,M
10U,2024-04-27 16:35,-116.1876,41.9532,1637.00,39.20,33.80,80.79,240.00,8.00,0.00,29.99,M,10.00,M,BKN,OVC,M,M,1600.00,2100.00,M,M,M,M,M,M,M,M,M,32.98,K10U 271635Z AUTO 24008KT 10SM BKN016 OVC021 04/01 A2999 RMK AO2,M
TMT,2024-04-27 16:35,-117.1971,39.4643,1749.34,42.00,31.00,64.75,330.00,7.00,0.00,30.04,M,10.00,M,SCT,SCT,M,M,3200.00,3800.00,M,M,M,M,M,M,M,M,M,36.97,KTMT 271635Z AUTO 33007KT 10SM SCT032 SCT038 06/00 A3004 RMK AO2 T00551005,M
05U,2024-04-27 16:50,-116.0051,39.6042,1811.23,M,M,M,170.00,7.00,0.00,30.02,M,10.00,M,M,M,M,M,M,M,M,M,M,M,M,M,M,M,M,M,K05U 271650Z AUTO 17007KT 10SM A3002 RMK A01,M
P68,2024-04-27 16:53,-116.0056,39.6014,1993.00,42.00,31.00,64.75,10.00,8.00,0.00,30.00,1013.50,M,17.00,M,M,M,M,M,M,M,M,M,M,M,M,M,M,M,36.43,KP68 271653Z AUTO 01008G17KT 06/M01 A3000 RMK AO1 SLP135 T00561006,M
DRA,2024-04-27 16:53,-116.0278,36.6206,1009.00,60.00,35.00,39.03,320.00,5.00,0.00,29.93,1011.00,10.00,M,CLR,M,M,M,M,M,M,M,M,M,M,M,M,M,M,60.00,KDRA 271653Z AUTO 32005KT 10SM CLR 16/02 A2993 RMK AO2 SLP110 T01560017,M
ELY,2024-04-27 16:53,-114.8453,39.2950,1909.00,42.00,33.00,70.19,340.00,8.00,0.00,29.94,1011.30,10.00,M,BKN,OVC,M,M,2700.00,3300.00,M,M,M,M,M,M,M,M,M,36.43,KELY 271653Z AUTO 34008KT 10SM BKN027 OVC033 06/01 A2994 RMK AO2 SLP113 T00560006,M
VGT,2024-04-27 16:53,-115.1933,36.2111,667.00,67.00,34.00,29.33,330.00,20.00,0.00,29.85,1011.50,10.00,32.00,CLR,M,M,M,M,M,M,M,M,M,M,M,32.00,330.00,2024-04-27 16:37,67.00,KVGT 271653Z 33020G32KT 10SM CLR 19/01 A2985 RMK AO2 PK WND 33032/1637 SLP115 T01940011,M
LOL,2024-04-27 16:53,-118.5701,40.0684,1192.43,49.00,33.00,53.82,0.00,0.00,0.00,30.04,1016.70,10.00,M,CLR,M,M,M,M,M,M,M,M,M,M,M,M,M,M,49.00,KLOL 271653Z AUTO 00000KT 10SM CLR 09/01 A3004 RMK AO2 SLP167 T00940006,M
BVU,2024-04-27 16:55,-114.8611,35.9475,671.00,66.20,35.60,32.14,320.00,16.00,0.00,29.86,M,10.00,M,CLR,M,M,M,M,M,M,M,M,M,M,M,M,M,M,66.20,KBVU 271655Z AUTO 32016KT 10SM CLR 19/02 A2986 RMK AO2,M
CXP,2024-04-27 16:55,-119.7326,39.1923,1431.00,48.20,32.00,53.27,0.00,0.00,0.00,30.07,M,9.00,M,CLR,M,M,M,M,M,M,M,M,M,M,M,M,M,M,48.20,KCXP 271655Z AUTO 00000KT 9SM CLR 09/00 A3007 RMK AO2,M
INS,2024-04-27 16:55,-115.6733,36.5872,955.00,59.50,34.50,38.95,270.00,8.00,0.00,29.92,1010.90,10.00,M,CLR,M,M,M,M,M,M,M,M,M,M,M,M,M,M,59.50,KINS 271655Z AUTO 27008KT 10SM CLR 15/01 A2992 RMK AO2 SLP109 T01530014 $,M
RNO,2024-04-27 16:55,-119.7711,39.4839,1341.00,49.00,31.00,49.65,0.00,0.00,0.00,30.06,1016.30,10.00,M,FEW,SCT,M,M,4000.00,20000.00,M,M,M,M,M,M,M,M,M,49.00,KRNO 271655Z 00000KT 10SM FEW040 SCT200 09/M01 A3006 RMK AO2 SLP163 T00941006,M
LSV,2024-04-27 16:55,-115.0343,36.2362,570.00,67.00,33.60,28.87,300.00,20.00,0.00,29.82,1008.60,10.00,29.00,CLR,M,M,M,M,M,M,M,M,M,M,M,29.00,320.00,2024-04-27 15:56,67.00,KLSV 271655Z AUTO 30020G29KT 10SM CLR 19/01 A2982 RMK AO2 PK WND 32029/1556 SLP086 T01940009 $,M
RTS,2024-04-27 16:55,-119.8764,39.6682,1539.00,44.60,32.00,61.03,280.00,3.00,0.00,30.07,M,10.00,M,CLR,M,M,M,M,M,M,M,M,M,M,M,M,M,M,43.09,KRTS 271655Z AUTO 28003KT 10SM CLR 07/M00 A3007 RMK AO2,M
MEV,2024-04-27 16:55,-119.7500,38.9963,1441.42,48.20,30.20,49.53,0.00,0.00,0.00,30.06,M,10.00,M,CLR,M,M,M,M,M,M,M,M,M,M,M,M,M,M,48.20,KMEV 271655Z AUTO 00000KT 10SM CLR 09/M01 A3006 RMK AO2,M
BAM,2024-04-27 16:55,-116.8743,40.5990,1382.36,48.20,35.60,61.52,280.00,4.00,0.00,30.03,M,10.00,M,SCT,SCT,M,M,3600.00,4200.00,M,M,M,M,M,M,M,M,M,46.34,KBAM 271655Z AUTO 28004KT 10SM SCT036 SCT042 09/02 A3003 RMK AO1,M
HTH,2024-04-27 16:55,-118.6315,38.5448,1282.89,51.80,30.20,43.32,M,3.00,0.00,30.06,M,10.00,M,BKN,M,M,M,4500.00,M,M,M,M,M,M,M,M,M,M,51.80,KHTH 271655Z AUTO VRB03KT 10SM BKN045 11/M01 A3006 RMK A01,M
10U,2024-04-27 16:55,-116.1876,41.9532,1637.00,41.00,33.80,75.33,270.00,9.00,0.00,29.99,M,10.00,M,FEW,SCT,OVC,M,1700.00,2300.00,2900.00,M,M,M,M,M,M,M,M,34.70,K10U 271655Z AUTO 27009KT 10SM FEW017 SCT023 OVC029 05/01 A2999 RMK AO2,M
TMT,2024-04-27 16:55,-117.1971,39.4643,1749.34,44.60,31.00,58.62,330.00,6.00,0.00,30.05,M,10.00,15.00,CLR,M,M,M,M,M,M,M,M,M,M,M,M,M,M,40.71,KTMT 271655Z AUTO 33006G15KT 10SM CLR 07/00 A3005 RMK AO2 T00701005,M
EKO,2024-04-27 16:56,-115.7860,40.8242,1367.00,49.00,31.00,49.65,300.00,11.00,0.00,29.98,1013.90,10.00,17.00,CLR,M,M,M,M,M,M,M,M,M,M,M,M,M,M,43.95,KEKO 271656Z AUTO 30011G17KT 10SM CLR 09/M01 A2998 RMK AO2 SLP139 T00941006,M
WMC,2024-04-27 16:56,-117.8072,40.9019,1315.00,48.00,34.00,58.16,0.00,0.00,0.00,30.02,1015.80,10.00,M,FEW,M,M,M,2900.00,M,M,M,M,M,M,M,M,M,M,48.00,KWMC 271656Z AUTO 00000KT 10SM FEW029 09/01 A3002 RMK AO2 SLP158 T00890011 $,M
NFL,2024-04-27 16:56,-118.7010,39.4166,1199.00,53.00,33.00,46.41,M,5.00,0.00,30.04,1014.10,10.00,M,SCT,SCT,SCT,M,5000.00,12000.00,25000.00,M,M,M,M,M,M,M,M,53.00,KNFL 271656Z VRB05KT 10SM SCT050 SCT120 SCT250 12/01 A3004 RMK AO2 SLP141 T01170006,M
HND,2024-04-27 16:56,-115.1344,35.9729,742.79,66.00,35.00,31.60,350.00,11.00,0.00,29.89,1012.80,10.00,M,CLR,M,M,M,M,M,M,M,M,M,M,M,M,M,M,66.00,KHND 271656Z 35011KT 10SM CLR 19/02 A2989 RMK AO2 SLP128 T01890017,M
TPH,2024-04-27 16:56,-117.0904,38.0505,1654.00,49.00,30.00,47.68,320.00,17.00,0.00,30.01,1014.20,10.00,25.00,CLR,M,M,M,M,M,M,M,M,M,M,M,28.00,320.00,2024-04-27 16:12,42.35,KTPH 271656Z AUTO 32017G25KT 10SM CLR 09/M01 A3001 RMK AO2 PK WND 32028/1612 SLP142 T00941011,M
LAS,2024-04-27 16:56,-115.1634,36.0719,663.00,66.00,34.00,30.37,330.00,15.00,0.00,29.87,1010.40,10.00,31.00,FEW,FEW,M,M,12000.00,22000.00,M,M,M,M,M,M,31.00,330.00,2024-04-27 16:53,66.00,KLAS 271656Z 33015G31KT 10SM FEW120 FEW220 19/01 A2987 RMK AO2 PK WND 33031/1653 SLP104 T01890011 $,M
HND,2024-04-27 17:09,-115.1344,35.9729,742.79,66.20,33.80,29.92,350.00,15.00,0.00,29.89,M,10.00,M,CLR,M,M,M,M,M,M,M,M,M,M,M,M,M,M,66.20,KHND 271709Z 35015KT 10SM CLR 19/01 A2989 RMK AO2 WSHFT 1649,M
05U,2024-04-27 17:10,-116.0051,39.6042,1811.23,M,M,M,170.00,6.00,0.00,30.03,M,10.00,M,M,M,M,M,M,M,M,M,M,M,M,M,M,M,M,M,K05U 271710Z AUTO 17006KT 10SM A3003 RMK A01,M
BVU,2024-04-27 17:15,-114.8611,35.9475,671.00,66.20,35.60,32.14,320.00,15.00,0.00,29.86,M,10.00,22.00,CLR,M,M,M,M,M,M,M,M,M,M,M,M,M,M,66.20,KBVU 271715Z AUTO 32015G22KT 10SM CLR 19/02 A2986 RMK AO2,M
CXP,2024-04-27 17:15,-119.7326,39.1923,1431.00,50.00,32.00,49.81,0.00,0.00,0.00,30.07,M,10.00,M,CLR,M,M,M,M,M,M,M,M,M,M,M,M,M,M,50.00,KCXP 271715Z AUTO 00000KT 10SM CLR 10/00 A3007 RMK AO2,M
RTS,2024-04-27 17:15,-119.8764,39.6682,1539.00,44.60,32.00,61.03,M,3.00,0.00,30.07,M,10.00,M,CLR,M,M,M,M,M,M,M,M,M,M,M,M,M,M,43.09,KRTS 271715Z AUTO VRB03KT 10SM CLR 07/00 A3007 RMK AO2,M
MEV,2024-04-27 17:15,-119.7500,38.9963,1441.42,50.00,32.00,49.81,0.00,0.00,0.00,30.06,M,10.00,M,CLR,M,M,M,M,M,M,M,M,M,M,M,M,M,M,50.00,KMEV 271715Z AUTO 00000KT 10SM CLR 10/M00 A3006 RMK AO2,M
HTH,2024-04-27 17:15,-118.6315,38.5448,1282.89,51.80,30.20,43.32,M,4.00,0.00,30.06,M,10.00,M,FEW,M,M,M,4700.00,M,M,M,M,M,M,M,M,M,M,51.80,KHTH 271715Z AUTO VRB04KT 10SM FEW047 11/M01 A3006 RMK A01,M
10U,2024-04-27 17:15,-116.1876,41.9532,1637.00,42.80,33.80,70.28,260.00,5.00,0.00,30.00,M,10.00,10.00,OVC,M,M,M,2800.00,M,M,M,M,M,M,M,M,M,M,39.22,K10U 271715Z AUTO 26005G10KT 10SM OVC028 06/01 A3000 RMK AO2,M
BAM,2024-04-27 17:15,-116.8743,40.5990,1382.36,50.00,35.60,57.52,0.00,0.00,0.00,30.03,M,10.00,M,SCT,M,M,M,3600.00,M,M,M,M,M,M,M,M,M,M,50.00,KBAM 271715Z AUTO 00000KT 10SM SCT036 10/02 A3003 RMK AO1,M
TMT,2024-04-27 17:15,-117.1971,39.4643,1749.34,44.00,31.60,61.45,350.00,8.00,0.00,30.04,M,10.00,M,SCT,BKN,M,M,3800.00,4600.00,M,M,M,M,M,M,M,M,M,38.90,KTMT 271715Z AUTO 35008KT 10SM SCT038 BKN046 07/00 A3004 RMK AO2 T00671002,M
05U,2024-04-27 17:30,-116.0051,39.6042,1811.23,M,M,M,200.00,8.00,0.00,30.03,M,10.00,13.00,M,M,M,M,M,M,M,M,M,M,M,M,M,M,M,M,K05U 271730Z AUTO 20008G13KT 10SM A3003 RMK A01,M
INS,2024-04-27 17:34,-115.6733,36.5872,955.00,62.60,32.00,31.56,260.00,11.00,0.00,29.92,1010.70,10.00,M,CLR,M,M,M,M,M,M,M,M,M,M,M,M,M,M,62.60,KINS 271734Z AUTO 26011KT 10SM CLR 17/00 A2992 RMK AO2 WSHFT 32 SLP107 $,M
BVU,2024-04-27 17:35,-114.8611,35.9475,671.00,66.20,33.80,29.92,310.00,15.00,0.00,29.87,M,10.00,21.00,CLR,M,M,M,M,M,M,M,M,M,M,M,M,M,M,66.20,KBVU 271735Z AUTO 31015G21KT 10SM CLR 19/01 A2987 RMK AO2,M
CXP,2024-04-27 17:35,-119.7326,39.1923,1431.00,50.00,32.00,49.81,150.00,4.00,0.00,30.07,M,10.00,M,CLR,M,M,M,M,M,M,M,M,M,M,M,M,M,M,50.00,KCXP 271735Z AUTO 15004KT 10SM CLR 10/M00 A3007 RMK AO2,M
RTS,2024-04-27 17:35,-119.8764,39.6682,1539.00,46.40,32.00,57.00,0.00,0.00,0.00,30.08,M,10.00,M,CLR,M,M,M,M,M,M,M,M,M,M,M,M,M,M,46.40,KRTS 271735Z AUTO 00000KT 10SM CLR 08/00 A3008 RMK AO2,M
MEV,2024-04-27 17:35,-119.7500,38.9963,1441.42,50.00,32.00,49.81,0.00,0.00,0.00,30.06,M,10.00,M,CLR,M,M,M,M,M,M,M,M,M,M,M,M,M,M,50.00,KMEV 271735Z AUTO 00000KT 10SM CLR 10/M00 A3006 RMK AO2,M
BAM,2024-04-27 17:35,-116.8743,40.5990,1382.36,50.00,35.60,57.52,0.00,0.00,0.00,30.03,M,10.00,M,BKN,BKN,BKN,M,3600.00,4400.00,5000.00,M,M,M,M,M,M,M,M,50.00,KBAM 271735Z AUTO 00000KT 10SM BKN036 BKN044 BKN050 10/02 A3003 RMK AO1,M
HTH,2024-04-27 17:35,-118.6315,38.5448,1282.89,51.80,30.20,43.32,0.00,0.00,0.00,30.06,M,10.00,10.00,SCT,M,M,M,4700.00,M,M,M,M,M,M,M,M,M,M,51.80,KHTH 271735Z AUTO 00000G10KT 10SM SCT047 11/M01 A3006 RMK A01,M
10U,2024-04-27 17:35,-116.1876,41.9532,1637.00,42.80,33.80,70.28,230.00,5.00,0.00,30.00,M,10.00,10.00,OVC,M,M,M,2900.00,M,M,M,M,M,M,M,M,M,M,39.22,K10U 271735Z AUTO 23005G10KT 10SM OVC029 06/01 A3000 RMK AO2,M
TMT,2024-04-27 17:35,-117.1971,39.4643,1749.34,45.00,30.20,55.89,320.00,6.00,0.00,30.05,M,10.00,M,SCT,BKN,M,M,3900.00,4600.00,M,M,M,M,M,M,M,M,M,41.19,KTMT 271735Z AUTO 32006KT 10SM SCT039 BKN046 07/M01 A3005 RMK AO2 T00731010,M
ELY,2024-04-27 17:39,-114.8453,39.2950,1909.00,44.00,32.00,62.44,320.00,11.00,0.00,29.95,M,10.00,M,SCT,OVC,M,M,3000.00,3800.00,M,M,M,M,M,M,M,M,M,37.63,KELY 271739Z AUTO 32011KT 10SM SCT030 OVC038 07/00 A2995 RMK AO2 T00670000,M
05U,2024-04-27 17:50,-116.0051,39.6042,1811.23,M,M,M,140.00,10.00,0.00,30.03,M,10.00,M,M,M,M,M,M,M,M,M,M,M,M,M,M,M,M,M,K05U 271750Z AUTO 14010KT 10SM A3003 RMK A01,M
P68,2024-04-27 17:53,-116.0056,39.6014,1993.00,47.00,32.00,55.73,360.00,8.00,0.00,30.00,1013.10,M,M,M,M,M,M,M,M,M,M,M,M,M,M,M,M,M,42.59,KP68 271753Z AUTO 36008KT 08/00 A3000 RMK AO1 SLP131 T00830000 10083 20028 51008,M
DRA,2024-04-27 17:53,-116.0278,36.6206,1009.00,61.00,33.00,34.77,M,5.00,0.00,29.93,1010.90,10.00,M,CLR,M,M,M,M,M,M,M,M,M,M,M,M,M,M,61.00,KDRA 271753Z AUTO VRB05KT 10SM CLR 16/01 A2993 RMK AO2 SLP109 T01610006 10167 20056 51007,M
ELY,2024-04-27 17:53,-114.8453,39.2950,1909.00,46.00,32.00,57.87,10.00,9.00,0.00,29.95,1011.50,10.00,M,BKN,OVC,M,M,3700.00,4900.00,M,M,M,M,M,M,M,M,M,40.92,KELY 271753Z AUTO 01009KT 10SM BKN037 OVC049 08/00 A2995 RMK AO2 SLP115 T00780000 10078 20011 51015,M
VGT,2024-04-27 17:53,-115.1933,36.2111,667.00,69.00,34.00,27.38,330.00,23.00,0.00,29.86,1011.80,10.00,31.00,CLR,M,M,M,M,M,M,M,M,M,M,M,34.00,320.00,2024-04-27 17:42,69.00,KVGT 271753Z 33023G31KT 10SM CLR 21/01 A2986 RMK AO2 PK WND 32034/1742 SLP118 T02060011 10206 20133 51013,M
LOL,2024-04-27 17:53,-118.5701,40.0684,1192.43,53.00,33.00,46.41,M,M,0.00,30.04,1016.80,10.00,M,CLR,M,M,M,M,M,M,M,M,M,M,M,M,M,M,53.00,KLOL 271753Z AUTO 10SM CLR 12/01 A3004 RMK AO2 SLP168 T01170006 10117 21011 51003,M
BVU,2024-04-27 17:55,-114.8611,35.9475,671.00,68.00,33.80,28.11,320.00,13.00,0.00,29.87,M,10.00,M,CLR,M,M,M,M,M,M,M,M,M,M,M,M,M,M,68.00,KBVU 271755Z AUTO 32013KT 10SM CLR 20/01 A2987 RMK AO2,M
CXP,2024-04-27 17:55,-119.7326,39.1923,1431.00,51.80,32.00,46.59,M,4.00,0.00,30.07,M,10.00,M,CLR,M,M,M,M,M,M,M,M,M,M,M,M,M,M,51.80,KCXP 271755Z AUTO VRB04KT 10SM CLR 11/M00 A3007 RMK AO2,M
INS,2024-04-27 17:55,-115.6733,36.5872,955.00,62.00,31.00,30.96,250.00,9.00,0.00,29.92,1010.70,10.00,16.00,CLR,M,M,M,M,M,M,M,M,M,M,M,M,M,M,62.00,KINS 271755Z AUTO 25009G16KT 10SM CLR 17/M00 A2992 RMK AO2 SLP107 T01671005 10170 20086 51009 $,M
RNO,2024-04-27 17:55,-119.7711,39.4839,1341.00,52.00,31.00,44.42,0.00,0.00,0.00,30.06,1016.10,10.00,M,FEW,SCT,M,M,4000.00,20000.00,M,M,M,M,M,M,M,M,M,52.00,KRNO 271755Z 00000KT 10SM FEW040 SCT200 11/M01 A3006 RMK AO2 SLP161 T01111006 10111 20033 56001,M
RTS,2024-04-27 17:55,-119.8764,39.6682,1539.00,48.20,30.20,49.53,240.00,6.00,0.00,30.07,M,10.00,M,CLR,M,M,M,M,M,M,M,M,M,M,M,M,M,M,45.04,KRTS 271755Z AUTO 24006KT 10SM CLR 09/M01 A3007 RMK AO2,M
MEV,2024-04-27 17:55,-119.7500,38.9963,1441.42,51.80,32.00,46.59,260.00,5.00,0.00,30.06,M,10.00,M,CLR,M,M,M,M,M,M,M,M,M,M,M,M,M,M,51.80,KMEV 271755Z AUTO 26005KT 10SM CLR 11/M00 A3006 RMK AO2,M
BAM,2024-04-27 17:55,-116.8743,40.5990,1382.36,51.80,35.60,53.81,270.00,4.00,0.00,30.03,M,10.00,M,SCT,BKN,M,M,3600.00,5000.00,M,M,M,M,M,M,M,M,M,51.80,KBAM 271755Z AUTO 27004KT 10SM SCT036 BKN050 11/02 A3003 RMK AO1,M
HTH,2024-04-27 17:55,-118.6315,38.5448,1282.89,53.60,30.20,40.54,330.00,8.00,0.00,30.06,M,10.00,M,FEW,M,M,M,4700.00,M,M,M,M,M,M,M,M,M,M,53.60,KHTH 271755Z AUTO 33008KT 10SM FEW047 12/M01 A3006 RMK A01,M
10U,2024-04-27 17:55,-116.1876,41.9532,1637.00,42.80,33.80,70.28,240.00,8.00,0.00,30.00,M,10.00,13.00,BKN,OVC,M,M,2500.00,3200.00,M,M,M,M,M,M,M,M,M,37.42,K10U 271755Z AUTO 24008G13KT 170V290 10SM BKN025 OVC032 06/01 A3000 RMK AO2,M
TMT,2024-04-27 17:55,-117.1971,39.4643,1749.34,46.20,31.60,56.52,270.00,6.00,0.00,30.05,M,10.00,16.00,SCT,BKN,BKN,M,3900.00,4400.00,5500.00,M,M,M,M,M,M,M,M,42.63,KTMT 271755Z AUTO 27006G16KT 10SM SCT039 BKN044 BKN055 08/00 A3005 RMK AO2 T00791002 10087 20015,M
LSV,2024-04-27 17:55,-115.0343,36.2362,570.00,69.60,33.30,26.08,300.00,15.00,0.00,29.84,1009.20,10.00,22.00,CLR,M,M,M,M,M,M,M,M,M,M,M,27.00,320.00,2024-04-27 17:15,69.60,KLSV 271755Z AUTO 30015G22KT 10SM CLR 21/01 A2984 RMK AO2 PK WND 32027/15 SLP092 T02090007 10210 20121 52018 $,M
EKO,2024-04-27 17:56,-115.7860,40.8242,1367.00,49.00,30.00,47.68,260.00,12.00,0.00,29.98,1013.80,10.00,17.00,BKN,BKN,M,M,4400.00,5000.00,M,M,M,M,M,M,M,M,M,43.64,KEKO 271756Z AUTO 26012G17KT 10SM BKN044 BKN050 09/M01 A2998 RMK AO2 SLP138 T00941011 10106 20028 51009,M
WMC,2024-04-27 17:56,-117.8072,40.9019,1315.00,52.00,33.00,48.15,270.00,7.00,0.00,30.03,1015.70,10.00,M,FEW,M,M,M,3500.00,M,M,M,M,M,M,M,M,M,M,52.00,KWMC 271756Z AUTO 27007KT 10SM FEW035 11/01 A3003 RMK AO2 SLP157 T01110006 10111 20006 51005 $,M
NFL,2024-04-27 17:56,-118.7010,39.4166,1199.00,55.00,32.00,41.44,M,5.00,0.00,30.05,1014.30,10.00,M,SCT,SCT,SCT,M,5000.00,12000.00,25000.00,M,M,M,M,M,M,M,M,55.00,KNFL 271756Z VRB05KT 10SM SCT050 SCT120 SCT250 13/00 A3005 RMK AO2 SLP143 T01280000 10128 20022 53004,M
HND,2024-04-27 17:56,-115.1344,35.9729,742.79,68.00,34.00,28.34,340.00,15.00,0.00,29.90,1013.10,10.00,21.00,CLR,M,M,M,M,M,M,M,M,M,M,M,M,M,M,68.00,KHND 271756Z 34015G21KT 10SM CLR 20/01 A2990 RMK AO2 WSHFT 1649 SLP131 T02000011 10200 20094 51011,M
TPH,2024-04-27 17:56,-117.0904,38.0505,1654.00,53.00,27.00,36.36,330.00,13.00,0.00,30.01,1013.90,10.00,25.00,CLR,M,M,M,M,M,M,M,M,M,M,M,29.00,310.00,2024-04-27 17:45,53.00,KTPH 271756Z AUTO 33013G25KT 10SM CLR 12/M03 A3001 RMK AO2 PK WND 31029/1745 SLP139 T01171028 10117 20033 50009,M
LAS,2024-04-27 17:56,-115.1634,36.0719,663.00,68.00,33.00,27.23,340.00,16.00,0.00,29.88,1010.60,10.00,28.00,FEW,FEW,M,M,8000.00,22000.00,M,M,M,M,M,M,28.00,340.00,2024-04-27 16:58,68.00,KLAS 271756Z 34016G28KT 10SM FEW080 FEW220 20/01 A2988 RMK AO2 PK WND 34028/1658 SLP106 T02000006 10200 20117 $,M
05U,2024-04-27 18:10,-116.0051,39.6042,1811.23,M,M,M,140.00,8.00,0.00,30.03,M,10.00,M,M,M,M,M,M,M,M,M,M,M,M,M,M,M,M,M,K05U 271810Z AUTO 14008KT 120V180 10SM A3003 RMK A01,M
BVU,2024-04-27 18:15,-114.8611,35.9475,671.00,68.00,33.80,28.11,330.00,15.00,0.00,29.88,M,10.00,M,CLR,M,M,M,M,M,M,M,M,M,M,M,M,M,M,68.00,KBVU 271815Z AUTO 33015KT 10SM CLR 20/01 A2988 RMK AO2,M
CXP,2024-04-27 18:15,-119.7326,39.1923,1431.00,53.60,30.20,40.54,0.00,0.00,0.00,30.07,M,10.00,M,CLR,M,M,M,M,M,M,M,M,M,M,M,M,M,M,53.60,KCXP 271815Z AUTO 00000KT 10SM CLR 12/M01 A3007 RMK AO2,M
RTS,2024-04-27 18:15,-119.8764,39.6682,1539.00,50.00,28.40,43.03,0.00,0.00,0.00,30.07,M,10.00,10.00,CLR,M,M,M,M,M,M,M,M,M,M,M,M,M,M,50.00,KRTS 271815Z AUTO 00000G10KT 10SM CLR 10/M02 A3007 RMK AO2,M
MEV,2024-04-27 18:15,-119.7500,38.9963,1441.42,53.60,32.00,43.61,M,5.00,0.00,30.06,M,10.00,M,CLR,M,M,M,M,M,M,M,M,M,M,M,M,M,M,53.60,KMEV 271815Z AUTO VRB05KT 10SM CLR 12/M00 A3006 RMK AO2,M
HTH,2024-04-27 18:15,-118.6315,38.5448,1282.89,55.40,30.20,37.97,320.00,5.00,0.00,30.06,M,10.00,M,CLR,M,M,M,M,M,M,M,M,M,M,M,M,M,M,55.40,KHTH 271815Z AUTO 32005KT 10SM CLR 13/M01 A3006 RMK A01,M
10U,2024-04-27 18:15,-116.1876,41.9532,1637.00,42.80,33.80,70.28,M,3.00,0.00,30.00,M,10.00,M,BKN,BKN,OVC,M,2500.00,3200.00,3800.00,M,M,M,M,M,M,M,M,41.03,K10U 271815Z AUTO VRB03KT 10SM BKN025 BKN032 OVC038 06/01 A3000 RMK AO2,M
BAM,2024-04-27 18:15,-116.8743,40.5990,1382.36,51.80,33.80,50.08,10.00,5.00,0.00,30.03,M,10.00,M,BKN,M,M,M,5000.00,M,M,M,M,M,M,M,M,M,M,51.80,KBAM 271815Z AUTO 01005KT 10SM BKN050 11/01 A3003 RMK AO1,M
TMT,2024-04-27 18:15,-117.1971,39.4643,1749.34,46.00,29.70,52.72,340.00,8.00,0.00,30.05,M,10.00,M,OVC,M,M,M,4500.00,M,M,M,M,M,M,M,M,M,M,41.36,KTMT 271815Z AUTO 34008KT 10SM OVC045 08/M01 A3005 RMK AO2 T00781013,M
05U,2024-04-27 18:30,-116.0051,39.6042,1811.23,M,M,M,160.00,8.00,0.00,30.03,M,10.00,13.00,M,M,M,M,M,M,M,M,M,M,M,M,M,M,M,M,K05U 271830Z AUTO 16008G13KT 10SM A3003 RMK A01,M
BVU,2024-04-27 18:35,-114.8611,35.9475,671.00,69.80,33.80,26.43,340.00,7.00,0.00,29.87,M,10.00,17.00,CLR,M,M,M,M,M,M,M,M,M,M,M,M,M,M,69.80,KBVU 271835Z AUTO 34007G17KT 310V010 10SM CLR 21/01 A2987 RMK AO2,M
CXP,2024-04-27 18:35,-119.7326,39.1923,1431.00,55.40,28.40,35.28,330.00,5.00,0.00,30.07,M,10.00,M,CLR,M,M,M,M,M,M,M,M,M,M,M,M,M,M,55.40,KCXP 271835Z AUTO 33005KT 10SM CLR 13/M02 A3007 RMK AO2,M
RTS,2024-04-27 18:35,-119.8764,39.6682,1539.00,51.80,23.00,32.17,260.00,8.00,0.00,30.06,M,10.00,M,CLR,M,M,M,M,M,M,M,M,M,M,M,M,M,M,51.80,KRTS 271835Z AUTO 26008KT 10SM CLR 11/M05 A3006 RMK AO2,M
MEV,2024-04-27 18:35,-119.7500,38.9963,1441.42,53.60,30.20,40.54,0.00,0.00,0.00,30.05,M,10.00,M,CLR,M,M,M,M,M,M,M,M,M,M,M,M,M,M,53.60,KMEV 271835Z AUTO 00000KT 10SM CLR 12/M01 A3005 RMK AO2,M
BAM,2024-04-27 18:35,-116.8743,40.5990,1382.36,51.80,32.00,46.59,340.00,5.00,0.00,30.03,M,10.00,M,SCT,M,M,M,5000.00,M,M,M,M,M,M,M,M,M,M,51.80,KBAM 271835Z AUTO 34005KT 10SM SCT050 11/00 A3003 RMK AO1,M
HTH,2024-04-27 18:35,-118.6315,38.5448,1282.89,55.40,30.20,37.97,M,6.00,0.00,30.06,M,10.00,M,CLR,M,M,M,M,M,M,M,M,M,M,M,M,M,M,55.40,KHTH 271835Z AUTO VRB06KT 10SM CLR 13/M01 A3006 RMK A01,M
10U,2024-04-27 18:35,-116.1876,41.9532,1637.00,44.60,33.80,65.61,0.00,0.00,0.00,30.00,M,10.00,M,FEW,BKN,OVC,M,2400.00,2900.00,5500.00,M,M,M,M,M,M,M,M,44.60,K10U 271835Z AUTO 00000KT 10SM FEW024 BKN029 OVC055 07/01 A3000 RMK AO2,M
TMT,2024-04-27 18:35,-117.1971,39.4643,1749.34,47.00,30.20,51.81,320.00,7.00,0.00,30.05,M,10.00,M,BKN,BKN,M,M,4700.00,5500.00,M,M,M,M,M,M,M,M,M,43.06,KTMT 271835Z AUTO 32007KT 10SM BKN047 BKN055 08/M01 A3005 RMK AO2 T00841010,M
05U,2024-04-27 18:50,-116.0051,39.6042,1811.23,M,M,M,170.00,7.00,0.00,30.03,M,10.00,13.00,M,M,M,M,M,M,M,M,M,M,M,M,M,M,M,M,K05U 271850Z AUTO 17007G13KT 10SM A3003 RMK A01,M
P68,2024-04-27 18:53,-116.0056,39.6014,1993.00,47.00,31.00,53.52,10.00,8.00,0.00,30.00,1012.90,M,M,M,M,M,M,M,M,M,M,M,M,M,M,M,M,M,42.59,KP68 271853Z AUTO 01008KT 08/M01 A3000 RMK AO1 SLP129 T00831006,M
DRA,2024-04-27 18:53,-116.0278,36.6206,1009.00,66.00,33.00,29.18,260.00,6.00,0.00,29.92,1010.40,10.00,M,CLR,M,M,M,M,M,M,M,M,M,M,M,M,M,M,66.00,KDRA 271853Z AUTO 26006KT 10SM CLR 19/01 A2992 RMK AO2 SLP104 T01890006,M
ELY,2024-04-27 18:53,-114.8453,39.2950,1909.00,47.00,30.00,51.39,330.00,8.00,0.00,29.96,1011.70,10.00,M,SCT,OVC,M,M,4800.00,5500.00,M,M,M,M,M,M,M,M,M,42.59,KELY 271853Z AUTO 33008KT 10SM SCT048 OVC055 08/M01 A2996 RMK AO2 SLP117 T00831011,M
VGT,2024-04-27 18:53,-115.1933,36.2111,667.00,72.00,34.00,24.72,320.00,16.00,0.00,29.87,1011.80,10.00,27.00,CLR,M,M,M,M,M,M,M,M,M,M,M,31.00,320.00,2024-04-27 18:00,72.00,KVGT 271853Z 32016G27KT 10SM CLR 22/01 A2987 RMK AO2 PK WND 32031/1800 SLP118 T02220011,M
LOL,2024-04-27 18:53,-118.5701,40.0684,1192.43,54.00,32.00,42.98,M,5.00,0.00,30.03,1016.40,10.00,M,FEW,M,M,M,5500.00,M,M,M,M,M,M,M,M,M,M,54.00,KLOL 271853Z AUTO VRB05KT 10SM FEW055 12/00 A3003 RMK AO2 SLP164 T01220000,M
BVU,2024-04-27 18:55,-114.8611,35.9475,671.00,69.80,32.00,24.59,300.00,9.00,0.00,29.87,M,10.00,16.00,CLR,M,M,M,M,M,M,M,M,M,M,M,M,M,M,69.80,KBVU 271855Z AUTO 30009G16KT 10SM CLR 21/00 A2987 RMK AO2,M
CXP,2024-04-27 18:55,-119.7326,39.1923,1431.00,55.40,26.60,32.76,40.00,4.00,0.00,30.06,M,10.00,M,CLR,M,M,M,M,M,M,M,M,M,M,M,M,M,M,55.40,KCXP 271855Z AUTO 04004KT 10SM CLR 13/M03 A3006 RMK AO2,M
INS,2024-04-27 18:55,-115.6733,36.5872,955.00,64.80,28.00,24.83,260.00,9.00,0.00,29.92,1010.70,10.00,17.00,SCT,M,M,M,7500.00,M,M,M,M,M,M,M,M,M,M,64.80,KINS 271855Z AUTO 26009G17KT 10SM SCT075 18/M02 A2992 RMK AO2 SLP107 T01821022 $,M
LSV,2024-04-27 18:55,-115.0343,36.2362,570.00,71.00,33.40,24.97,280.00,10.00,0.00,29.84,1009.20,10.00,15.00,CLR,M,M,M,M,M,M,M,M,M,M,M,M,M,M,71.00,KLSV 271855Z AUTO 28010G15KT 10SM CLR 22/01 A2984 RMK AO2 SLP092 T02170008 $,M
RTS,2024-04-27 18:55,-119.8764,39.6682,1539.00,53.60,21.20,27.91,280.00,8.00,0.00,30.07,M,10.00,M,CLR,M,M,M,M,M,M,M,M,M,M,M,M,M,M,53.60,KRTS 271855Z AUTO 28008KT 10SM CLR 12/M06 A3007 RMK AO2,M
MEV,2024-04-27 18:55,-119.7500,38.9963,1441.42,55.40,30.20,37.97,320.00,8.00,0.00,30.05,M,10.00,M,CLR,M,M,M,M,M,M,M,M,M,M,M,M,M,M,55.40,KMEV 271855Z AUTO 32008KT 10SM CLR 13/M01 A3005 RMK AO2,M
BAM,2024-04-27 18:55,-116.8743,40.5990,1382.36,51.80,35.60,53.81,0.00,0.00,0.00,30.03,M,10.00,M,OVC,M,M,M,4800.00,M,M,M,M,M,M,M,M,M,M,51.80,KBAM 271855Z AUTO 00000KT 10SM OVC048 11/02 A3003 RMK AO1,M
HTH,2024-04-27 18:55,-118.6315,38.5448,1282.89,55.40,30.20,37.97,M,4.00,0.00,30.05,M,10.00,M,CLR,M,M,M,M,M,M,M,M,M,M,M,M,M,M,55.40,KHTH 271855Z AUTO VRB04KT 10SM CLR 13/M01 A3005 RMK A01,M
10U,2024-04-27 18:55,-116.1876,41.9532,1637.00,46.40,33.80,61.28,280.00,8.00,0.00,30.00,M,10.00,M,BKN,BKN,OVC,M,3100.00,4300.00,5500.00,M,M,M,M,M,M,M,M,41.85,K10U 271855Z AUTO 28008KT 240V300 10SM BKN031 BKN043 OVC055 08/01 A3000 RMK AO2,M
RNO,2024-04-27 18:55,-119.7711,39.4839,1341.00,57.00,31.00,37.01,M,4.00,0.00,30.04,1015.20,10.00,M,FEW,M,M,M,4000.00,M,M,M,M,M,M,M,M,M,M,57.00,KRNO 271855Z COR VRB04 10SM FEW040 14/M01 A3004 RMK AO2 SLP152 T01391006,M
TMT,2024-04-27 18:55,-117.1971,39.4643,1749.34,47.50,30.20,50.84,320.00,9.00,0.00,30.05,M,10.00,M,OVC,M,M,M,4700.00,M,M,M,M,M,M,M,M,M,M,42.79,KTMT 271855Z AUTO 32009KT 280V340 10SM OVC047 09/M01 A3005 RMK AO2 T00861010,M
EKO,2024-04-27 18:56,-115.7860,40.8242,1367.00,50.00,31.00,47.83,270.00,11.00,0.00,29.98,1013.60,10.00,18.00,BKN,OVC,M,M,4900.00,6000.00,M,M,M,M,M,M,M,M,M,50.00,KEKO 271856Z AUTO 27011G18KT 10SM BKN049 OVC060 10/M01 A2998 RMK AO2 SLP136 T01001006,M
WMC,2024-04-27 18:56,-117.8072,40.9019,1315.00,54.00,32.00,42.98,300.00,8.00,0.00,30.02,1015.40,10.00,M,CLR,M,M,M,M,M,M,M,M,M,M,M,M,M,M,54.00,KWMC 271856Z AUTO 30008KT 10SM CLR 12/00 A3002 RMK AO2 SLP154 T01220000 $,M
NFL,2024-04-27 18:56,-118.7010,39.4166,1199.00,58.00,31.00,35.70,M,5.00,0.00,30.04,1014.20,10.00,M,SCT,SCT,SCT,M,5000.00,12000.00,25000.00,M,M,M,M,M,M,M,M,58.00,KNFL 271856Z VRB05KT 10SM SCT050 SCT120 SCT250 14/M01 A3004 RMK AO2 SLP142 T01441006,M
HND,2024-04-27 18:56,-115.1344,35.9729,742.79,69.00,33.00,26.31,10.00,13.00,0.00,29.90,1012.80,10.00,20.00,CLR,M,M,M,M,M,M,M,M,M,M,M,M,M,M,69.00,KHND 271856Z 01013G20KT 10SM CLR 21/01 A2990 RMK AO2 SLP128 T02060006,M
TPH,2024-04-27 18:56,-117.0904,38.0505,1654.00,55.00,28.00,35.21,320.00,19.00,0.00,30.01,1013.70,10.00,25.00,CLR,M,M,M,M,M,M,M,M,M,M,M,28.00,280.00,2024-04-27 18:21,55.00,KTPH 271856Z AUTO 32019G25KT 10SM CLR 13/M02 A3001 RMK AO2 PK WND 28028/1821 SLP137 T01281022,M
LAS,2024-04-27 18:56,-115.1634,36.0719,663.00,69.00,32.00,25.27,10.00,18.00,0.00,29.88,1010.60,10.00,27.00,FEW,FEW,M,M,8000.00,22000.00,M,M,M,M,M,M,28.00,360.00,2024-04-27 18:22,69.00,KLAS 271856Z 01018G27KT 10SM FEW080 FEW220 21/00 A2988 RMK AO2 PK WND 36028/1822 SLP106 T02060000 $,M
05U,2024-04-27 19:10,-116.0051,39.6042,1811.23,M,M,M,180.00,8.00,0.00,30.03,M,10.00,13.00,M,M,M,M,M,M,M,M,M,M,M,M,M,M,M,M,K05U 271910Z AUTO 18008G13KT 10SM A3003 RMK A01,M
BVU,2024-04-27 19:15,-114.8611,35.9475,671.00,69.80,32.00,24.59,330.00,7.00,0.00,29.87,M,10.00,17.00,CLR,M,M,M,M,M,M,M,M,M,M,M,M,M,M,69.80,KBVU 271915Z AUTO 33007G17KT 10SM CLR 21/00 A2987 RMK AO2,M
CXP,2024-04-27 19:15,-119.7326,39.1923,1431.00,57.20,30.20,35.57,M,5.00,0.00,30.06,M,10.00,M,CLR,M,M,M,M,M,M,M,M,M,M,M,M,M,M,57.20,KCXP 271915Z AUTO VRB05KT 10SM CLR 14/M01 A3006 RMK AO2,M
RTS,2024-04-27 19:15,-119.8764,39.6682,1539.00,53.60,21.20,27.91,290.00,7.00,0.00,30.06,M,10.00,14.00,CLR,M,M,M,M,M,M,M,M,M,M,M,M,M,M,53.60,KRTS 271915Z AUTO 29007G14KT 10SM CLR 12/M06 A3006 RMK AO2,M
MEV,2024-04-27 19:15,-119.7500,38.9963,1441.42,55.40,28.40,35.28,M,6.00,0.00,30.04,M,10.00,M,CLR,M,M,M,M,M,M,M,M,M,M,M,M,M,M,55.40,KMEV 271915Z AUTO VRB06KT 10SM CLR 13/M02 A3004 RMK AO2,M
HTH,2024-04-27 19:15,-118.6315,38.5448,1282.89,55.40,30.20,37.97,10.00,8.00,0.00,30.05,M,10.00,M,CLR,M,M,M,M,M,M,M,M,M,M,M,M,M,M,55.40,KHTH 271915Z AUTO 01008KT 310V040 10SM CLR 13/M01 A3005 RMK A01,M
10U,2024-04-27 19:15,-116.1876,41.9532,1637.00,46.40,32.00,57.00,280.00,7.00,0.00,29.99,M,10.00,M,FEW,SCT,BKN,M,3200.00,3800.00,4600.00,M,M,M,M,M,M,M,M,42.33,K10U 271915Z AUTO 28007KT 260V320 10SM FEW032 SCT038 BKN046 08/00 A2999 RMK AO2,M
BAM,2024-04-27 19:15,-116.8743,40.5990,1382.36,55.40,35.60,47.16,290.00,6.00,0.00,30.02,M,10.00,M,SCT,BKN,M,M,4800.00,6000.00,M,M,M,M,M,M,M,M,M,55.40,KBAM 271915Z AUTO 29006KT 260V320 10SM SCT048 BKN060 13/02 A3002 RMK AO1,M
TMT,2024-04-27 19:15,-117.1971,39.4643,1749.34,47.70,28.00,46.13,310.00,6.00,0.00,30.04,M,10.00,M,BKN,BKN,M,M,4900.00,5500.00,M,M,M,M,M,M,M,M,M,44.44,KTMT 271915Z AUTO 31006KT 10SM BKN049 BKN055 09/M02 A3004 RMK AO2 T00871023,M
LSV,2024-04-27 19:22,-115.0343,36.2362,570.00,71.60,32.00,23.13,260.00,10.00,0.00,29.83,1008.90,10.00,16.00,SCT,SCT,M,M,8000.00,18000.00,M,M,M,M,M,M,M,M,M,71.60,KLSV 271922Z AUTO 26010G16KT 10SM SCT080 SCT180 22/00 A2983 RMK AO2 WSHFT 20 SLP089 $,M
05U,2024-04-27 19:30,-116.0051,39.6042,1811.23,M,M,M,150.00,9.00,0.00,30.03,M,10.00,M,M,M,M,M,M,M,M,M,M,M,M,M,M,M,M,M,K05U 271930Z AUTO 15009KT 10SM A3003 RMK A01,M
BVU,2024-04-27 19:35,-114.8611,35.9475,671.00,69.80,32.00,24.59,330.00,5.00,0.00,29.87,M,10.00,22.00,CLR,M,M,M,M,M,M,M,M,M,M,M,M,M,M,69.80,KBVU 271935Z AUTO 33005G22KT 10SM CLR 21/00 A2987 RMK AO2,M
CXP,2024-04-27 19:35,-119.7326,39.1923,1431.00,57.20,28.40,33.05,M,3.00,0.00,30.05,M,10.00,M,CLR,M,M,M,M,M,M,M,M,M,M,M,M,M,M,57.20,KCXP 271935Z AUTO VRB03KT 10SM CLR 14/M02 A3005 RMK AO2,M
RTS,2024-04-27 19:35,-119.8764,39.6682,1539.00,53.60,24.80,32.46,310.00,12.00,0.00,30.06,M,10.00,M,CLR,M,M,M,M,M,M,M,M,M,M,M,M,M,M,53.60,KRTS 271935Z AUTO 31012KT 10SM CLR 12/M04 A3006 RMK AO2,M
MEV,2024-04-27 19:35,-119.7500,38.9963,1441.42,57.20,28.40,33.05,M,5.00,0.00,30.04,M,10.00,M,CLR,M,M,M,M,M,M,M,M,M,M,M,M,M,M,57.20,KMEV 271935Z AUTO VRB05KT 10SM CLR 14/M02 A3004 RMK AO2,M
HTH,2024-04-27 19:35,-118.6315,38.5448,1282.89,57.20,30.20,35.57,M,6.00,0.00,30.04,M,10.00,11.00,CLR,M,M,M,M,M,M,M,M,M,M,M,M,M,M,57.20,KHTH 271935Z AUTO VRB06G11KT 10SM CLR 14/M01 A3004 RMK A01,M
10U,2024-04-27 19:35,-116.1876,41.9532,1637.00,46.40,32.00,57.00,270.00,7.00,0.00,29.99,M,10.00,M,BKN,BKN,OVC,M,3600.00,4600.00,5500.00,M,M,M,M,M,M,M,M,42.33,K10U 271935Z AUTO 27007KT 10SM BKN036 BKN046 OVC055 08/00 A2999 RMK AO2,M
BAM,2024-04-27 19:35,-116.8743,40.5990,1382.36,53.60,33.80,46.88,290.00,8.00,0.00,30.01,M,10.00,M,BKN,M,M,M,6000.00,M,M,M,M,M,M,M,M,M,M,53.60,KBAM 271935Z AUTO 29008KT 10SM BKN060 12/01 A3001 RMK AO1,M
TMT,2024-04-27 19:35,-117.1971,39.4643,1749.34,48.70,30.20,48.61,260.00,5.00,0.00,30.04,M,10.00,M,OVC,M,M,M,4900.00,M,M,M,M,M,M,M,M,M,M,46.23,KTMT 271935Z AUTO 26005KT 10SM OVC049 09/M01 A3004 RMK AO2 T00931010,M
05U,2024-04-27 19:50,-116.0051,39.6042,1811.23,M,M,M,180.00,10.00,0.00,30.02,M,10.00,M,M,M,M,M,M,M,M,M,M,M,M,M,M,M,M,M,K05U 271950Z AUTO 18010KT 10SM A3002 RMK A01,M
P68,2024-04-27 19:53,-116.0056,39.6014,1993.00,50.00,32.00,49.81,360.00,9.00,0.00,29.99,1012.30,M,M,M,M,M,M,M,M,M,M,M,M,M,M,M,M,M,50.00,KP68 271953Z AUTO 36009KT 10/00 A2999 RMK AO1 SLP123 T01000000,M
DRA,2024-04-27 19:53,-116.0278,36.6206,1009.00,65.00,32.00,29.02,0.00,0.00,0.00,29.91,1010.40,10.00,M,BKN,M,M,M,8500.00,M,M,M,M,M,M,M,M,M,M,65.00,KDRA 271953Z AUTO 00000KT 10SM BKN085 18/00 A2991 RMK AO2 SLP104 T01830000,M
ELY,2024-04-27 19:53,-114.8453,39.2950,1909.00,49.00,31.00,49.65,320.00,10.00,0.00,29.96,1011.00,10.00,15.00,BKN,OVC,M,M,4700.00,6000.00,M,M,M,M,M,M,M,M,M,44.29,KELY 271953Z AUTO 32010G15KT 10SM BKN047 OVC060 09/M01 A2996 RMK AO2 SLP110 T00941006,M
VGT,2024-04-27 19:53,-115.1933,36.2111,667.00,73.00,33.00,22.96,330.00,15.00,0.00,29.86,1011.50,10.00,25.00,CLR,M,M,M,M,M,M,M,M,M,M,M,28.00,310.00,2024-04-27 19:12,73.00,KVGT 271953Z 33015G25KT 10SM CLR 23/01 A2986 RMK AO2 PK WND 31028/1912 SLP115 T02280006,M
LOL,2024-04-27 19:53,-118.5701,40.0684,1192.43,55.00,31.00,39.80,240.00,4.00,0.00,30.01,1015.90,10.00,M,SCT,M,M,M,5500.00,M,M,M,M,M,M,M,M,M,M,55.00,KLOL 271953Z AUTO 24004KT 10SM SCT055 13/M01 A3001 RMK AO2 SLP159 T01281006,M
BVU,2024-04-27 19:55,-114.8611,35.9475,671.00,71.60,32.00,23.13,310.00,9.00,0.00,29.86,M,10.00,M,CLR,M,M,M,M,M,M,M,M,M,M,M,M,M,M,71.60,KBVU 271955Z AUTO 31009KT 10SM CLR 22/00 A2986 RMK AO2,M
CXP,2024-04-27 19:55,-119.7326,39.1923,1431.00,59.00,28.40,30.98,M,3.00,0.00,30.04,M,10.00,M,CLR,M,M,M,M,M,M,M,M,M,M,M,M,M,M,59.00,KCXP 271955Z AUTO VRB03KT 10SM CLR 15/M02 A3004 RMK AO2,M
INS,2024-04-27 19:55,-115.6733,36.5872,955.00,67.00,25.70,20.92,300.00,6.00,0.00,29.91,1010.40,10.00,M,FEW,M,M,M,8000.00,M,M,M,M,M,M,M,M,M,M,67.00,KINS 271955Z AUTO 30006KT 10SM FEW080 19/M03 A2991 RMK AO2 SLP104 T01941035 $,M
RNO,2024-04-27 19:55,-119.7711,39.4839,1341.00,62.00,31.00,30.96,20.00,7.00,0.00,30.02,1014.00,10.00,M,SCT,M,M,M,5000.00,M,M,M,M,M,M,M,M,M,M,62.00,KRNO 271955Z 02007KT 10SM SCT050 17/M01 A3002 RMK AO2 SLP140 T01671006,M
RTS,2024-04-27 19:55,-119.8764,39.6682,1539.00,55.40,21.20,26.13,310.00,8.00,0.00,30.06,M,10.00,16.00,CLR,M,M,M,M,M,M,M,M,M,M,M,M,M,M,55.40,KRTS 271955Z AUTO 31008G16KT 290V350 10SM CLR 13/M06 A3006 RMK AO2,M
MEV,2024-04-27 19:55,-119.7500,38.9963,1441.42,57.20,26.60,30.69,M,4.00,0.00,30.04,M,10.00,11.00,CLR,M,M,M,M,M,M,M,M,M,M,M,M,M,M,57.20,KMEV 271955Z AUTO VRB04G11KT 10SM CLR 14/M03 A3004 RMK AO2,M
HTH,2024-04-27 19:55,-118.6315,38.5448,1282.89,57.20,30.20,35.57,M,6.00,0.00,30.04,M,10.00,12.00,CLR,M,M,M,M,M,M,M,M,M,M,M,M,M,M,57.20,KHTH 271955Z AUTO VRB06G12KT 10SM CLR 14/M01 A3004 RMK A01,M
10U,2024-04-27 19:55,-116.1876,41.9532,1637.00,48.20,32.00,53.27,300.00,7.00,0.00,29.98,M,10.00,13.00,SCT,BKN,OVC,M,3700.00,5000.00,6000.00,M,M,M,M,M,M,M,M,44.53,K10U 271955Z AUTO 30007G13KT 10SM SCT037 BKN050 OVC060 09/00 A2998 RMK AO2,M
BAM,2024-04-27 19:55,-116.8743,40.5990,1382.36,55.40,35.60,47.16,340.00,6.00,0.00,30.01,M,10.00,M,BKN,M,M,M,6000.00,M,M,M,M,M,M,M,M,M,M,55.40,KBAM 271955Z AUTO 34006KT 10SM BKN060 13/02 A3001 RMK AO1,M
TMT,2024-04-27 19:55,-117.1971,39.4643,1749.34,M,M,M,310.00,9.00,0.00,30.04,M,M,M,M,M,M,M,M,M,M,M,M,M,M,M,M,M,M,M,KTMT 271955Z AUTO 31009KT 280V350 A3004 RMK AO2 PWINO,M
LSV,2024-04-27 19:55,-115.0343,36.2362,570.00,73.80,31.50,21.04,280.00,11.00,0.00,29.83,1008.70,10.00,18.00,SCT,SCT,M,M,8000.00,18000.00,M,M,M,M,M,M,M,M,M,73.80,KLSV 271955Z AUTO 28011G18KT 10SM SCT080 SCT180 23/M00 A2983 RMK AO2 SLP087 T02321003 $,M
EKO,2024-04-27 19:56,-115.7860,40.8242,1367.00,53.00,33.00,46.41,260.00,13.00,0.00,29.97,1013.40,10.00,M,BKN,M,M,M,6000.00,M,M,M,M,M,M,M,M,M,M,53.00,KEKO 271956Z AUTO 26013KT 10SM BKN060 12/01 A2997 RMK AO2 SLP134 T01170006,M
WMC,2024-04-27 19:56,-117.8072,40.9019,1315.00,55.00,32.00,41.44,M,3.00,0.00,30.01,1015.00,10.00,16.00,SCT,M,M,M,5000.00,M,M,M,M,M,M,M,M,M,M,55.00,KWMC 271956Z AUTO VRB03G16KT 10SM SCT050 13/00 A3001 RMK AO2 SLP150 T01280000 $,M
NFL,2024-04-27 19:56,-118.7010,39.4166,1199.00,60.00,30.00,31.92,M,5.00,0.00,30.02,1013.40,10.00,M,SCT,SCT,SCT,M,5000.00,12000.00,25000.00,M,M,M,M,M,M,M,M,60.00,KNFL 271956Z VRB05KT 10SM SCT050 SCT120 SCT250 16/M01 A3002 RMK AO2 SLP134 T01561011,M
HND,2024-04-27 19:56,-115.1344,35.9729,742.79,70.00,32.00,24.42,20.00,10.00,0.00,29.89,1012.60,10.00,19.00,FEW,M,M,M,8500.00,M,M,M,M,M,M,M,M,M,M,70.00,KHND 271956Z 02010G19KT 10SM FEW085 21/00 A2989 RMK AO2 SLP126 T02110000,M
TPH,2024-04-27 19:56,-117.0904,38.0505,1654.00,58.00,27.00,30.32,320.00,14.00,0.00,29.99,1012.90,10.00,25.00,CLR,M,M,M,M,M,M,M,M,M,M,M,27.00,310.00,2024-04-27 19:00,58.00,KTPH 271956Z AUTO 32014G25KT 10SM CLR 14/M03 A2999 RMK AO2 PK WND 31027/1900 SLP129 T01441028,M
LAS,2024-04-27 19:56,-115.1634,36.0719,663.00,71.00,31.00,22.67,350.00,11.00,0.00,29.87,1010.30,10.00,23.00,FEW,FEW,M,M,8000.00,22000.00,M,M,M,M,M,M,26.00,360.00,2024-04-27 18:57,71.00,KLAS 271956Z 35011G23KT 10SM FEW080 FEW220 22/M01 A2987 RMK AO2 PK WND 36026/1857 SLP103 T02171006 $,M
LSV,2024-04-27 20:09,-115.0343,36.2362,570.00,73.40,30.20,20.23,270.00,10.00,0.00,29.83,1008.70,10.00,20.00,FEW,M,M,M,8000.00,M,M,M,M,M,M,M,M,M,M,73.40,KLSV 272009Z AUTO 27010G20KT 10SM FEW080 23/M01 A2983 RMK AO2 WSHFT 02 SLP087 $,M
05U,2024-04-27 20:10,-116.0051,39.6042,1811.23,M,M,M,180.00,9.00,0.00,30.02,M,10.00,M,M,M,M,M,M,M,M,M,M,M,M,M,M,M,M,M,K05U 272010Z AUTO 18009KT 10SM A3002 RMK A01,M
LSV,2024-04-27 20:12,-115.0343,36.2362,570.00,73.40,30.20,20.23,310.00,11.00,0.00,29.82,1008.40,10.00,20.00,CLR,M,M,M,M,M,M,M,M,M,M,M,M,M,M,73.40,KLSV 272012Z AUTO 31011G20KT 10SM CLR 23/M01 A2982 RMK AO2 WSHFT 11 SLP084 $,M
BVU,2024-04-27 20:15,-114.8611,35.9475,671.00,71.60,32.00,23.13,M,4.00,0.00,29.87,M,10.00,16.00,CLR,M,M,M,M,M,M,M,M,M,M,M,M,M,M,71.60,KBVU 272015Z AUTO VRB04G16KT 10SM CLR 22/00 A2987 RMK AO2,M
CXP,2024-04-27 20:15,-119.7326,39.1923,1431.00,60.80,28.40,29.06,200.00,7.00,0.00,30.04,M,10.00,M,CLR,M,M,M,M,M,M,M,M,M,M,M,M,M,M,60.80,KCXP 272015Z AUTO 20007KT 10SM CLR 16/M02 A3004 RMK AO2,M
RTS,2024-04-27 20:15,-119.8764,39.6682,1539.00,55.40,21.20,26.13,310.00,10.00,0.00,30.05,M,10.00,15.00,CLR,M,M,M,M,M,M,M,M,M,M,M,M,M,M,55.40,KRTS 272015Z AUTO 31010G15KT 10SM CLR 13/M06 A3005 RMK AO2,M
MEV,2024-04-27 20:15,-119.7500,38.9963,1441.42,57.20,26.60,30.69,0.00,0.00,0.00,30.03,M,10.00,10.00,CLR,M,M,M,M,M,M,M,M,M,M,M,M,M,M,57.20,KMEV 272015Z AUTO 00000G10KT 10SM CLR 14/M03 A3003 RMK AO2,M
BAM,2024-04-27 20:15,-116.8743,40.5990,1382.36,53.60,35.60,50.36,310.00,6.00,0.00,30.01,M,10.00,M,SCT,BKN,M,M,5000.00,6000.00,M,M,M,M,M,M,M,M,M,53.60,KBAM 272015Z AUTO 31006KT 10SM SCT050 BKN060 12/02 A3001 RMK AO1,M
HTH,2024-04-27 20:15,-118.6315,38.5448,1282.89,57.20,28.40,33.05,M,6.00,0.00,30.04,M,10.00,14.00,CLR,M,M,M,M,M,M,M,M,M,M,M,M,M,M,57.20,KHTH 272015Z AUTO VRB06G14KT 10SM CLR 14/M02 A3004 RMK A01,M
10U,2024-04-27 20:15,-116.1876,41.9532,1637.00,48.20,32.00,53.27,300.00,9.00,0.00,29.98,M,10.00,M,SCT,BKN,OVC,M,3900.00,4700.00,5500.00,M,M,M,M,M,M,M,M,43.66,K10U 272015Z AUTO 30009KT 10SM SCT039 BKN047 OVC055 09/00 A2998 RMK AO2,M
TMT,2024-04-27 20:15,-117.1971,39.4643,1749.34,50.40,30.20,45.62,300.00,9.00,0.00,30.04,M,10.00,M,BKN,BKN,M,M,5000.00,6000.00,M,M,M,M,M,M,M,M,M,50.40,KTMT 272015Z AUTO 30009KT 10SM BKN050 BKN060 10/M01 A3004 RMK AO2 T01021010,M
05U,2024-04-27 20:30,-116.0051,39.6042,1811.23,M,M,M,150.00,10.00,0.00,30.02,M,10.00,M,M,M,M,M,M,M,M,M,M,M,M,M,M,M,M,M,K05U 272030Z AUTO 15010KT 10SM A3002 RMK A01,M
BVU,2024-04-27 20:35,-114.8611,35.9475,671.00,71.60,33.80,24.86,360.00,11.00,0.00,29.87,M,10.00,M,CLR,M,M,M,M,M,M,M,M,M,M,M,M,M,M,71.60,KBVU 272035Z AUTO 36011KT 10SM CLR 22/01 A2987 RMK AO2,M
CXP,2024-04-27 20:35,-119.7326,39.1923,1431.00,60.80,26.60,26.98,240.00,9.00,0.00,30.04,M,10.00,M,CLR,M,M,M,M,M,M,M,M,M,M,M,M,M,M,60.80,KCXP 272035Z AUTO 24009KT 210V280 10SM CLR 16/M03 A3004 RMK AO2,M
RTS,2024-04-27 20:35,-119.8764,39.6682,1539.00,57.20,23.00,26.42,290.00,15.00,0.00,30.05,M,10.00,21.00,CLR,M,M,M,M,M,M,M,M,M,M,M,M,M,M,57.20,KRTS 272035Z AUTO 29015G21KT 10SM CLR 14/M05 A3005 RMK AO2,M
MEV,2024-04-27 20:35,-119.7500,38.9963,1441.42,60.80,23.00,23.23,330.00,10.00,0.00,30.03,M,10.00,M,CLR,M,M,M,M,M,M,M,M,M,M,M,M,M,M,60.80,KMEV 272035Z AUTO 33010KT 10SM CLR 16/M05 A3003 RMK AO2,M
HTH,2024-04-27 20:35,-118.6315,38.5448,1282.89,59.00,28.40,30.98,M,6.00,0.00,30.03,M,10.00,12.00,CLR,M,M,M,M,M,M,M,M,M,M,M,M,M,M,59.00,KHTH 272035Z AUTO VRB06G12KT 10SM CLR 15/M02 A3003 RMK A01,M
10U,2024-04-27 20:35,-116.1876,41.9532,1637.00,50.00,32.00,49.81,M,4.00,0.00,29.98,M,10.00,10.00,FEW,BKN,OVC,M,3900.00,5000.00,6000.00,M,M,M,M,M,M,M,M,50.00,K10U 272035Z AUTO VRB04G10KT 10SM FEW039 BKN050 OVC060 10/M00 A2998 RMK AO2,M
BAM,2024-04-27 20:35,-116.8743,40.5990,1382.36,53.60,35.60,50.36,260.00,4.00,0.00,30.01,M,10.00,M,SCT,BKN,M,M,5000.00,6000.00,M,M,M,M,M,M,M,M,M,53.60,KBAM 272035Z AUTO 26004KT 10SM SCT050 BKN060 12/02 A3001 RMK AO1,M
TMT,2024-04-27 20:35,-117.1971,39.4643,1749.34,52.30,30.40,42.87,310.00,5.00,0.00,30.03,M,10.00,M,BKN,M,M,M,5000.00,M,M,M,M,M,M,M,M,M,M,52.30,KTMT 272035Z AUTO 31005KT 10SM BKN050 11/M01 A3003 RMK AO2 T01131009,M
05U,2024-04-27 20:50,-116.0051,39.6042,1811.23,M,M,M,M,6.00,0.00,30.02,M,10.00,13.00,M,M,M,M,M,M,M,M,M,M,M,M,M,M,M,M,K05U 272050Z AUTO VRB06G13KT 10SM A3002 RMK A01,M
P68,2024-04-27 20:53,-116.0056,39.6014,1993.00,52.00,30.00,42.65,360.00,6.00,0.00,29.99,1012.40,M,M,M,M,M,M,M,M,M,M,M,M,M,M,M,M,M,52.00,KP68 272053Z AUTO 36006KT 11/M01 A2999 RMK AO1 SLP124 T01111011 57002,M
DRA,2024-04-27 20:53,-116.0278,36.6206,1009.00,69.00,34.00,27.38,M,5.00,0.00,29.90,1009.80,10.00,M,FEW,M,M,M,9000.00,M,M,M,M,M,M,M,M,M,M,69.00,KDRA 272053Z AUTO VRB05KT 10SM FEW090 21/01 A2990 RMK AO2 SLP098 T02060011 56009,M
ELY,2024-04-27 20:53,-114.8453,39.2950,1909.00,49.00,31.00,49.65,300.00,8.00,0.00,29.97,1011.50,10.00,M,OVC,M,M,M,6500.00,M,M,M,M,M,M,M,M,M,M,45.05,KELY 272053Z AUTO 30008KT 10SM OVC065 09/M01 A2997 RMK AO2 SLP115 T00941006 53005,M
VGT,2024-04-27 20:53,-115.1933,36.2111,667.00,76.00,31.00,19.16,320.00,19.00,0.00,29.86,1011.20,10.00,25.00,CLR,M,M,M,M,M,M,M,M,M,M,M,32.00,310.00,2024-04-27 20:08,76.00,KVGT 272053Z 32019G25KT 10SM CLR 24/M01 A2986 RMK AO2 PK WND 31032/2008 SLP112 T02441006 58001,M
LOL,2024-04-27 20:53,-118.5701,40.0684,1192.43,60.00,32.00,34.61,120.00,12.00,0.00,30.00,1014.90,10.00,M,FEW,M,M,M,6500.00,M,M,M,M,M,M,M,M,M,M,60.00,KLOL 272053Z AUTO 12012KT 10SM FEW065 16/00 A3000 RMK AO2 SLP149 T01560000 58012,M
BVU,2024-04-27 20:55,-114.8611,35.9475,671.00,73.40,32.00,21.76,M,6.00,0.00,29.87,M,10.00,17.00,CLR,M,M,M,M,M,M,M,M,M,M,M,M,M,M,73.40,KBVU 272055Z AUTO VRB06G17KT 10SM CLR 23/M00 A2987 RMK AO2,M
CXP,2024-04-27 20:55,-119.7326,39.1923,1431.00,62.60,26.60,25.32,M,4.00,0.00,30.04,M,10.00,11.00,FEW,M,M,M,6000.00,M,M,M,M,M,M,M,M,M,M,62.60,KCXP 272055Z AUTO VRB04G11KT 10SM FEW060 17/M03 A3004 RMK AO2,M
INS,2024-04-27 20:55,-115.6733,36.5872,955.00,68.40,28.00,21.92,330.00,3.00,0.00,29.90,1009.80,10.00,M,SCT,M,M,M,8000.00,M,M,M,M,M,M,M,M,M,M,68.40,KINS 272055Z AUTO 33003KT 10SM SCT080 20/M02 A2990 RMK AO2 SLP098 T02021022 57006 $,M
RNO,2024-04-27 20:55,-119.7711,39.4839,1341.00,61.00,29.00,29.57,350.00,5.00,0.00,30.01,1013.80,10.00,M,SCT,M,M,M,7000.00,M,M,M,M,M,M,M,M,M,M,61.00,KRNO 272055Z 35005KT 10SM SCT070 16/M02 A3001 RMK AO2 SLP138 T01611017 56014,M
LSV,2024-04-27 20:55,-115.0343,36.2362,570.00,75.00,31.00,19.81,340.00,8.00,0.00,29.82,1008.40,10.00,M,CLR,M,M,M,M,M,M,M,M,M,M,M,M,M,M,75.00,KLSV 272055Z AUTO 34008KT 10SM CLR 24/M00 A2982 RMK AO2 SLP084 T02381005 57005 $,M
RTS,2024-04-27 20:55,-119.8764,39.6682,1539.00,57.20,21.20,24.49,310.00,15.00,0.00,30.05,M,10.00,21.00,CLR,M,M,M,M,M,M,M,M,M,M,M,M,M,M,57.20,KRTS 272055Z AUTO 31015G21KT 10SM CLR 14/M06 A3005 RMK AO2,M
MEV,2024-04-27 20:55,-119.7500,38.9963,1441.42,60.80,24.80,25.04,M,6.00,0.00,30.03,M,10.00,M,CLR,M,M,M,M,M,M,M,M,M,M,M,M,M,M,60.80,KMEV 272055Z AUTO VRB06KT 10SM CLR 16/M04 A3003 RMK AO2,M
HTH,2024-04-27 20:55,-118.6315,38.5448,1282.89,60.80,28.40,29.06,330.00,8.00,0.00,30.02,M,10.00,13.00,CLR,M,M,M,M,M,M,M,M,M,M,M,M,M,M,60.80,KHTH 272055Z AUTO 33008G13KT 10SM CLR 16/M02 A3002 RMK A01,M
10U,2024-04-27 20:55,-116.1876,41.9532,1637.00,50.00,30.20,46.31,280.00,8.00,0.00,29.98,M,10.00,M,FEW,OVC,M,M,4800.00,5500.00,M,M,M,M,M,M,M,M,M,50.00,K10U 272055Z AUTO 28008KT 10SM FEW048 OVC055 10/M01 A2998 RMK AO2,M
BAM,2024-04-27 20:55,-116.8743,40.5990,1382.36,53.60,35.60,50.36,320.00,8.00,0.00,30.01,M,10.00,M,SCT,BKN,M,M,5000.00,6000.00,M,M,M,M,M,M,M,M,M,53.60,KBAM 272055Z AUTO 32008KT 10SM SCT050 BKN060 12/02 A3001 RMK AO1,M
TMT,2024-04-27 20:55,-117.1971,39.4643,1749.34,52.00,30.40,43.35,350.00,8.00,0.00,30.03,M,10.00,M,BKN,M,M,M,5000.00,M,M,M,M,M,M,M,M,M,M,52.00,KTMT 272055Z AUTO 35008KT 10SM BKN050 11/M01 A3003 RMK AO2 6//// T01111009,M
EKO,2024-04-27 20:56,-115.7860,40.8242,1367.00,53.00,32.00,44.58,260.00,13.00,0.00,29.98,1013.50,10.00,20.00,SCT,M,M,M,6000.00,M,M,M,M,M,M,M,M,M,M,53.00,KEKO 272056Z AUTO 26013G20KT 10SM SCT060 12/00 A2998 RMK AO2 SLP135 T01170000 55000,M
WMC,2024-04-27 20:56,-117.8072,40.9019,1315.00,57.00,33.00,40.12,260.00,7.00,0.00,30.00,M,10.00,M,FEW,M,M,M,5000.00,M,M,M,M,M,M,M,M,M,M,57.00,KWMC 272056Z AUTO 26007KT 240V310 10SM FEW050 14/01 A3000 RMK AO2 SLPNO T01390006 56009 $,M
NFL,2024-04-27 20:56,-118.7010,39.4166,1199.00,62.00,30.00,29.73,M,5.00,0.00,30.00,1013.10,10.00,M,SCT,SCT,SCT,M,5000.00,12000.00,25000.00,M,M,M,M,M,M,M,M,62.00,KNFL 272056Z VRB05KT 10SM SCT050 SCT120 SCT250 17/M01 A3000 RMK AO2 SLP131 T01671011 58013,M
HND,2024-04-27 20:56,-115.1344,35.9729,742.79,70.00,32.00,24.42,M,3.00,0.00,29.90,1012.70,10.00,M,SCT,M,M,M,8500.00,M,M,M,M,M,M,M,M,M,M,70.00,KHND 272056Z VRB03KT 10SM SCT085 21/00 A2990 RMK AO2 SLP127 T02110000 55002,M
TPH,2024-04-27 20:56,-117.0904,38.0505,1654.00,60.00,26.00,27.08,320.00,18.00,0.00,29.99,1012.70,10.00,25.00,CLR,M,M,M,M,M,M,M,M,M,M,M,28.00,320.00,2024-04-27 20:31,60.00,KTPH 272056Z AUTO 32018G25KT 10SM CLR 16/M03 A2999 RMK AO2 PK WND 32028/2031 SLP127 T01561033 57006,M
LAS,2024-04-27 20:56,-115.1634,36.0719,663.00,73.00,29.00,19.53,360.00,12.00,0.00,29.88,1010.30,10.00,22.00,FEW,FEW,M,M,8000.00,22000.00,M,M,M,M,M,M,M,M,M,73.00,KLAS 272056Z 36012G22KT 10SM FEW080 FEW220 23/M02 A2988 RMK AO2 SLP103 T02281017 55001 $,M
05U,2024-04-27 21:10,-116.0051,39.6042,1811.23,M,M,M,150.00,8.00,0.00,30.02,M,10.00,16.00,M,M,M,M,M,M,M,M,M,M,M,M,M,M,M,M,K05U 272110Z AUTO 15008G16KT 10SM A3002 RMK A01,M
BVU,2024-04-27 21:15,-114.8611,35.9475,671.00,73.40,32.00,21.76,290.00,7.00,0.00,29.86,M,10.00,14.00,CLR,M,M,M,M,M,M,M,M,M,M,M,M,M,M,73.40,KBVU 272115Z AUTO 29007G14KT 250V330 10SM CLR 23/M00 A2986 RMK AO2,M
CXP,2024-04-27 21:15,-119.7326,39.1923,1431.00,60.80,26.60,26.98,330.00,10.00,0.00,30.04,M,10.00,16.00,CLR,M,M,M,M,M,M,M,M,M,M,M,M,M,M,60.80,KCXP 272115Z AUTO 33010G16KT 10SM CLR 16/M03 A3004 RMK AO2,M
RTS,2024-04-27 21:15,-119.8764,39.6682,1539.00,57.20,24.80,28.48,310.00,15.00,0.00,30.05,M,10.00,M,CLR,M,M,M,M,M,M,M,M,M,M,M,M,M,M,57.20,KRTS 272115Z AUTO 31015KT 10SM CLR 14/M04 A3005 RMK AO2,M
MEV,2024-04-27 21:15,-119.7500,38.9963,1441.42,62.60,21.20,20.20,320.00,9.00,0.00,30.03,M,10.00,16.00,CLR,M,M,M,M,M,M,M,M,M,M,M,M,M,M,62.60,KMEV 272115Z AUTO 32009G16KT 10SM CLR 17/M06 A3003 RMK AO2,M
HTH,2024-04-27 21:15,-118.6315,38.5448,1282.89,60.80,26.60,26.98,310.00,9.00,0.00,30.02,M,10.00,M,CLR,M,M,M,M,M,M,M,M,M,M,M,M,M,M,60.80,KHTH 272115Z AUTO 31009KT 10SM CLR 16/M03 A3002 RMK A01,M
10U,2024-04-27 21:15,-116.1876,41.9532,1637.00,50.00,30.20,46.31,280.00,7.00,0.00,29.98,M,10.00,M,SCT,OVC,M,M,5000.00,5500.00,M,M,M,M,M,M,M,M,M,50.00,K10U 272115Z AUTO 28007KT 250V310 10SM SCT050 OVC055 10/M01 A2998 RMK AO2,M
BAM,2024-04-27 21:15,-116.8743,40.5990,1382.36,53.60,33.80,46.88,340.00,4.00,0.00,30.01,M,10.00,M,OVC,M,M,M,6000.00,M,M,M,M,M,M,M,M,M,M,53.60,KBAM 272115Z AUTO 34004KT 10SM OVC060 12/01 A3001 RMK AO1,M
TMT,2024-04-27 21:15,-117.1971,39.4643,1749.34,52.50,30.00,41.87,330.00,9.00,0.00,30.03,M,10.00,14.00,BKN,M,M,M,5000.00,M,M,M,M,M,M,M,M,M,M,52.50,KTMT 272115Z AUTO 33009G14KT 250V100 10SM BKN050 11/M01 A3003 RMK AO2 T01141012,M
05U,2024-04-27 21:30,-116.0051,39.6042,1811.23,M,M,M,M,3.00,0.00,30.02,M,10.00,10.00,M,M,M,M,M,M,M,M,M,M,M,M,M,M,M,M,K05U 272130Z AUTO VRB03G10KT 10SM A3002 RMK A01,M
BVU,2024-04-27 21:35,-114.8611,35.9475,671.00,73.40,30.20,20.23,330.00,9.00,0.00,29.86,M,10.00,17.00,CLR,M,M,M,M,M,M,M,M,M,M,M,M,M,M,73.40,KBVU 272135Z AUTO 33009G17KT 10SM CLR 23/M01 A2986 RMK AO2,M
CXP,2024-04-27 21:35,-119.7326,39.1923,1431.00,62.60,26.60,25.32,290.00,9.00,0.00,30.04,M,10.00,M,CLR,M,M,M,M,M,M,M,M,M,M,M,M,M,M,62.60,KCXP 272135Z AUTO 29009KT 10SM CLR 17/M03 A3004 RMK AO2,M
RTS,2024-04-27 21:35,-119.8764,39.6682,1539.00,57.20,26.60,30.69,310.00,11.00,0.00,30.05,M,10.00,19.00,CLR,M,M,M,M,M,M,M,M,M,M,M,M,M,M,57.20,KRTS 272135Z AUTO 31011G19KT 10SM CLR 14/M03 A3005 RMK AO2,M
MEV,2024-04-27 21:35,-119.7500,38.9963,1441.42,62.60,24.80,23.50,290.00,12.00,0.00,30.03,M,10.00,18.00,CLR,M,M,M,M,M,M,M,M,M,M,M,M,M,M,62.60,KMEV 272135Z AUTO 29012G18KT 10SM CLR 17/M04 A3003 RMK AO2,M
HTH,2024-04-27 21:35,-118.6315,38.5448,1282.89,62.60,26.60,25.32,320.00,6.00,0.00,30.01,M,10.00,14.00,CLR,M,M,M,M,M,M,M,M,M,M,M,M,M,M,62.60,KHTH 272135Z AUTO 32006G14KT 10SM CLR 17/M03 A3001 RMK A01,M
10U,2024-04-27 21:35,-116.1876,41.9532,1637.00,51.80,30.20,43.32,250.00,7.00,0.00,29.98,M,10.00,13.00,SCT,OVC,M,M,5000.00,6000.00,M,M,M,M,M,M,M,M,M,51.80,K10U 272135Z AUTO 25007G13KT 10SM SCT050 OVC060 11/M01 A2998 RMK AO2,M
BAM,2024-04-27 21:35,-116.8743,40.5990,1382.36,53.60,33.80,46.88,310.00,6.00,0.00,30.01,M,10.00,M,OVC,M,M,M,6000.00,M,M,M,M,M,M,M,M,M,M,53.60,KBAM 272135Z AUTO 31006KT 10SM OVC060 12/01 A3001 RMK AO1,M
TMT,2024-04-27 21:35,-117.1971,39.4643,1749.34,53.40,31.30,42.71,310.00,8.00,0.00,30.03,M,10.00,M,SCT,M,M,M,5000.00,M,M,M,M,M,M,M,M,M,M,53.40,KTMT 272135Z AUTO 31008KT 10SM SCT050 12/00 A3003 RMK AO2 T01191004,M
05U,2024-04-27 21:50,-116.0051,39.6042,1811.23,M,M,M,140.00,9.00,0.00,30.02,M,10.00,M,M,M,M,M,M,M,M,M,M,M,M,M,M,M,M,M,K05U 272150Z AUTO 14009KT 100V180 10SM A3002 RMK A01,M
P68,2024-04-27 21:53,-116.0056,39.6014,1993.00,52.00,30.00,42.65,360.00,10.00,0.00,29.99,1012.20,M,16.00,M,M,M,M,M,M,M,M,M,M,M,M,M,M,M,52.00,KP68 272153Z AUTO 36010G16KT 11/M01 A2999 RMK AO1 SLP122 T01111011,M
DRA,2024-04-27 21:53,-116.0278,36.6206,1009.00,69.00,29.00,22.37,90.00,4.00,0.00,29.88,1009.30,10.00,M,FEW,M,M,M,11000.00,M,M,M,M,M,M,M,M,M,M,69.00,KDRA 272153Z AUTO 09004KT 10SM FEW110 21/M02 A2988 RMK AO2 SLP093 T02061017,M
ELY,2024-04-27 21:53,-114.8453,39.2950,1909.00,50.00,30.00,45.93,320.00,7.00,0.00,29.97,1011.60,10.00,M,OVC,M,M,M,7000.00,M,M,M,M,M,M,M,M,M,M,50.00,KELY 272153Z AUTO 32007KT 10SM OVC070 10/M01 A2997 RMK AO2 SLP116 T01001011,M
VGT,2024-04-27 21:53,-115.1933,36.2111,667.00,76.00,30.00,18.40,320.00,14.00,0.00,29.85,1010.90,10.00,23.00,CLR,M,M,M,M,M,M,M,M,M,M,M,M,M,M,76.00,KVGT 272153Z 32014G23KT 290V360 10SM CLR 24/M01 A2985 RMK AO2 SLP109 T02441011,M
LOL,2024-04-27 21:53,-118.5701,40.0684,1192.43,61.00,30.00,30.80,M,3.00,0.00,29.99,1014.50,10.00,M,CLR,M,M,M,M,M,M,M,M,M,M,M,M,M,M,61.00,KLOL 272153Z AUTO VRB03KT 10SM CLR 16/M01 A2999 RMK AO2 SLP145 T01611011,M
BVU,2024-04-27 21:55,-114.8611,35.9475,671.00,73.40,30.20,20.23,320.00,6.00,0.00,29.85,M,10.00,21.00,CLR,M,M,M,M,M,M,M,M,M,M,M,M,M,M,73.40,KBVU 272155Z AUTO 32006G21KT 10SM CLR 23/M01 A2985 RMK AO2,M
CXP,2024-04-27 21:55,-119.7326,39.1923,1431.00,62.60,28.40,27.27,280.00,14.00,0.00,30.04,M,10.00,19.00,CLR,M,M,M,M,M,M,M,M,M,M,M,M,M,M,62.60,KCXP 272155Z AUTO 28014G19KT 10SM CLR 17/M02 A3004 RMK AO2,M
INS,2024-04-27 21:55,-115.6733,36.5872,955.00,70.00,24.40,17.88,270.00,6.00,0.00,29.88,1009.10,10.00,M,SCT,M,M,M,9500.00,M,M,M,M,M,M,M,M,M,M,70.00,KINS 272155Z AUTO 27006KT 10SM SCT095 21/M04 A2988 RMK AO2 SLP091 T02111042 $,M
RNO,2024-04-27 21:55,-119.7711,39.4839,1341.00,66.00,26.00,21.93,350.00,10.00,0.00,30.00,1013.30,10.00,19.00,SCT,SCT,M,M,6000.00,20000.00,M,M,M,M,M,M,M,M,M,66.00,KRNO 272155Z 35010G19KT 10SM SCT060 SCT200 19/M03 A3000 RMK AO2 SLP133 T01891033,M
LSV,2024-04-27 21:55,-115.0343,36.2362,570.00,75.40,29.00,18.02,210.00,3.00,0.00,29.81,1008.10,10.00,17.00,CLR,M,M,M,M,M,M,M,M,M,M,M,M,M,M,75.40,KLSV 272155Z AUTO 21003G17KT 10SM CLR 24/M02 A2981 RMK AO2 SLP081 T02411017 $,M
RTS,2024-04-27 21:55,-119.8764,39.6682,1539.00,57.20,26.60,30.69,300.00,10.00,0.00,30.04,M,10.00,20.00,CLR,M,M,M,M,M,M,M,M,M,M,M,M,M,M,57.20,KRTS 272155Z AUTO 30010G20KT 10SM CLR 14/M03 A3004 RMK AO2,M
MEV,2024-04-27 21:55,-119.7500,38.9963,1441.42,62.60,26.60,25.32,280.00,13.00,0.00,30.02,M,10.00,19.00,CLR,M,M,M,M,M,M,M,M,M,M,M,M,M,M,62.60,KMEV 272155Z AUTO 28013G19KT 230V310 10SM CLR 17/M03 A3002 RMK AO2,M
HTH,2024-04-27 21:55,-118.6315,38.5448,1282.89,62.60,26.60,25.32,350.00,11.00,0.00,30.00,M,10.00,M,CLR,M,M,M,M,M,M,M,M,M,M,M,M,M,M,62.60,KHTH 272155Z AUTO 35011KT 10SM CLR 17/M03 A3000 RMK A01,M
10U,2024-04-27 21:55,-116.1876,41.9532,1637.00,51.80,30.20,43.32,300.00,7.00,0.00,29.97,M,10.00,12.00,BKN,OVC,M,M,5000.00,6000.00,M,M,M,M,M,M,M,M,M,51.80,K10U 272155Z AUTO 30007G12KT 10SM BKN050 OVC060 11/M01 A2997 RMK AO2,M
BAM,2024-04-27 21:55,-116.8743,40.5990,1382.36,55.40,33.80,43.90,20.00,6.00,0.00,30.00,M,10.00,M,OVC,M,M,M,6000.00,M,M,M,M,M,M,M,M,M,M,55.40,KBAM 272155Z AUTO 02006KT 10SM OVC060 13/01 A3000 RMK AO1,M
TMT,2024-04-27 21:55,-117.1971,39.4643,1749.34,51.30,30.20,44.13,350.00,4.00,0.00,30.03,M,10.00,M,SCT,M,M,M,6000.00,M,M,M,M,M,M,M,M,M,M,51.30,KTMT 272155Z AUTO 35004KT 10SM SCT060 11/M01 A3003 RMK AO2 T01071010,M
EKO,2024-04-27 21:56,-115.7860,40.8242,1367.00,53.00,32.00,44.58,240.00,8.00,0.00,29.98,1013.70,10.00,17.00,FEW,OVC,M,M,5000.00,6000.00,M,M,M,M,M,M,M,M,M,53.00,KEKO 272156Z AUTO 24008G17KT 10SM FEW050 OVC060 12/00 A2998 RMK AO2 SLP137 T01170000,M
WMC,2024-04-27 21:56,-117.8072,40.9019,1315.00,57.00,32.00,38.54,270.00,7.00,0.00,29.99,M,10.00,M,BKN,M,M,M,6000.00,M,M,M,M,M,M,M,M,M,M,57.00,KWMC 272156Z AUTO 27007KT 10SM BKN060 14/00 A2999 RMK AO2 SLPNO T01390000 $,M
NFL,2024-04-27 21:56,-118.7010,39.4166,1199.00,66.00,27.00,22.86,M,5.00,0.00,29.99,1012.60,10.00,M,SCT,SCT,SCT,M,5000.00,12000.00,25000.00,M,M,M,M,M,M,M,M,66.00,KNFL 272156Z VRB05KT 10SM SCT050 SCT120 SCT250 19/M03 A2999 RMK AO2 SLP126 T01891028,M
HND,2024-04-27 21:56,-115.1344,35.9729,742.79,72.00,35.00,25.73,340.00,7.00,0.00,29.89,1012.50,10.00,M,BKN,M,M,M,8500.00,M,M,M,M,M,M,M,M,M,M,72.00,KHND 272156Z 34007KT 10SM BKN085 22/02 A2989 RMK AO2 SLP125 T02220017,M
TPH,2024-04-27 21:56,-117.0904,38.0505,1654.00,62.00,26.00,25.23,320.00,17.00,0.00,29.98,1012.00,10.00,23.00,FEW,M,M,M,7500.00,M,M,M,M,M,M,M,M,M,M,62.00,KTPH 272156Z AUTO 32017G23KT 10SM FEW075 17/M03 A2998 RMK AO2 SLP120 T01671033,M
LAS,2024-04-27 21:56,-115.1634,36.0719,663.00,75.00,30.00,19.02,320.00,12.00,0.00,29.86,1009.50,10.00,21.00,FEW,FEW,M,M,10000.00,22000.00,M,M,M,M,M,M,M,M,M,75.00,KLAS 272156Z 32012G21KT 10SM FEW100 FEW220 24/M01 A2986 RMK AO2 SLP095 T02391011 $,M
LSV,2024-04-27 22:06,-115.0343,36.2362,570.00,77.00,28.40,16.67,240.00,13.00,0.00,29.80,1007.60,10.00,M,CLR,M,M,M,M,M,M,M,M,M,M,M,M,M,M,77.00,KLSV 272206Z AUTO 24013KT 10SM CLR 25/M02 A2980 RMK AO2 WSHFT 02 SLP076 $,M
05U,2024-04-27 22:10,-116.0051,39.6042,1811.23,M,M,M,160.00,8.00,0.00,30.01,M,10.00,M,M,M,M,M,M,M,M,M,M,M,M,M,M,M,M,M,K05U 272210Z AUTO 16008KT 10SM A3001 RMK A01,M
INS,2024-04-27 22:11,-115.6733,36.5872,955.00,71.60,24.80,17.22,290.00,10.00,0.00,29.87,1008.60,10.00,18.00,BKN,M,M,M,10000.00,M,M,M,M,M,M,M,M,M,M,71.60,KINS 272211Z AUTO 29010G18KT 10SM BKN100 22/M04 A2987 RMK AO2 WSHFT 09 SLP086 $,M
BVU,2024-04-27 22:15,-114.8611,35.9475,671.00,73.40,28.40,18.80,M,5.00,0.00,29.84,M,10.00,10.00,CLR,M,M,M,M,M,M,M,M,M,M,M,M,M,M,73.40,KBVU 272215Z AUTO VRB05G10KT 10SM CLR 23/M02 A2984 RMK AO2,M
CXP,2024-04-27 22:15,-119.7326,39.1923,1431.00,62.60,28.40,27.27,300.00,12.00,0.00,30.03,M,10.00,17.00,CLR,M,M,M,M,M,M,M,M,M,M,M,M,M,M,62.60,KCXP 272215Z AUTO 30012G17KT 10SM CLR 17/M02 A3003 RMK AO2,M
RTS,2024-04-27 22:15,-119.8764,39.6682,1539.00,59.00,24.80,26.70,270.00,11.00,0.00,30.03,M,10.00,M,CLR,M,M,M,M,M,M,M,M,M,M,M,M,M,M,59.00,KRTS 272215Z AUTO 27011KT 240V310 10SM CLR 15/M04 A3003 RMK AO2,M
MEV,2024-04-27 22:15,-119.7500,38.9963,1441.42,62.60,26.60,25.32,270.00,9.00,0.00,30.02,M,10.00,21.00,CLR,M,M,M,M,M,M,M,M,M,M,M,M,M,M,62.60,KMEV 272215Z AUTO 27009G21KT 10SM CLR 17/M03 A3002 RMK AO2,M
HTH,2024-04-27 22:15,-118.6315,38.5448,1282.89,62.60,24.80,23.50,320.00,8.00,0.00,30.00,M,10.00,14.00,CLR,M,M,M,M,M,M,M,M,M,M,M,M,M,M,62.60,KHTH 272215Z AUTO 32008G14KT 10SM CLR 17/M04 A3000 RMK A01,M
10U,2024-04-27 22:15,-116.1876,41.9532,1637.00,53.60,30.20,40.54,250.00,9.00,0.00,29.97,M,10.00,14.00,SCT,BKN,M,M,5000.00,6500.00,M,M,M,M,M,M,M,M,M,53.60,K10U 272215Z AUTO 25009G14KT 210V270 10SM SCT050 BKN065 12/M01 A2997 RMK AO2,M
BAM,2024-04-27 22:15,-116.8743,40.5990,1382.36,55.40,32.00,40.84,280.00,8.00,0.00,30.00,M,10.00,M,OVC,M,M,M,6000.00,M,M,M,M,M,M,M,M,M,M,55.40,KBAM 272215Z AUTO 28008KT 10SM OVC060 13/00 A3000 RMK AO1,M
TMT,2024-04-27 22:15,-117.1971,39.4643,1749.34,50.50,29.50,44.18,0.00,0.00,0.00,30.03,M,10.00,M,BKN,M,M,M,5500.00,M,M,M,M,M,M,M,M,M,M,50.50,KTMT 272215Z AUTO 00000KT 10SM BKN055 10/M01 A3003 RMK AO2 T01031014,M
05U,2024-04-27 22:30,-116.0051,39.6042,1811.23,M,M,M,70.00,7.00,0.00,30.01,M,10.00,M,M,M,M,M,M,M,M,M,M,M,M,M,M,M,M,M,K05U 272230Z AUTO 07007KT 10SM A3001 RMK A01,M
BVU,2024-04-27 22:35,-114.8611,35.9475,671.00,75.20,28.40,17.70,340.00,9.00,0.00,29.84,M,10.00,18.00,CLR,M,M,M,M,M,M,M,M,M,M,M,M,M,M,75.20,KBVU 272235Z AUTO 34009G18KT 10SM CLR 24/M02 A2984 RMK AO2,M
CXP,2024-04-27 22:35,-119.7326,39.1923,1431.00,62.60,28.40,27.27,270.00,12.00,0.00,30.03,M,10.00,M,CLR,M,M,M,M,M,M,M,M,M,M,M,M,M,M,62.60,KCXP 272235Z AUTO 27012KT 10SM CLR 17/M02 A3003 RMK AO2,M
RTS,2024-04-27 22:35,-119.8764,39.6682,1539.00,59.00,24.80,26.70,310.00,9.00,0.00,30.03,M,10.00,18.00,CLR,M,M,M,M,M,M,M,M,M,M,M,M,M,M,59.00,KRTS 272235Z AUTO 31009G18KT 10SM CLR 15/M04 A3003 RMK AO2,M
MEV,2024-04-27 22:35,-119.7500,38.9963,1441.42,62.60,24.80,23.50,260.00,9.00,0.00,30.02,M,10.00,18.00,CLR,M,M,M,M,M,M,M,M,M,M,M,M,M,M,62.60,KMEV 272235Z AUTO 26009G18KT 10SM CLR 17/M04 A3002 RMK AO2,M
HTH,2024-04-27 22:35,-118.6315,38.5448,1282.89,64.40,24.80,22.06,340.00,11.00,0.00,29.99,M,10.00,M,CLR,M,M,M,M,M,M,M,M,M,M,M,M,M,M,64.40,KHTH 272235Z AUTO 34011KT 10SM CLR 18/M04 A2999 RMK A01,M
10U,2024-04-27 22:35,-116.1876,41.9532,1637.00,51.80,30.20,43.32,290.00,8.00,0.00,29.97,M,10.00,14.00,BKN,BKN,M,M,6000.00,7000.00,M,M,M,M,M,M,M,M,M,51.80,K10U 272235Z AUTO 29008G14KT 10SM BKN060 BKN070 11/M01 A2997 RMK AO2,M
BAM,2024-04-27 22:35,-116.8743,40.5990,1382.36,59.00,35.60,41.42,270.00,11.00,0.00,30.00,M,10.00,16.00,BKN,M,M,M,6000.00,M,M,M,M,M,M,M,M,M,M,59.00,KBAM 272235Z AUTO 27011G16KT 10SM BKN060 15/02 A3000 RMK AO1,M
TMT,2024-04-27 22:35,-117.1971,39.4643,1749.34,53.20,31.50,43.37,330.00,9.00,0.00,30.03,M,10.00,M,BKN,M,M,M,5500.00,M,M,M,M,M,M,M,M,M,M,53.20,KTMT 272235Z AUTO 33009KT 300V360 10SM BKN055 12/00 A3003 RMK AO2 T01181003,M
05U,2024-04-27 22:50,-116.0051,39.6042,1811.23,M,M,M,M,7.00,0.00,30.01,M,10.00,17.00,M,M,M,M,M,M,M,M,M,M,M,M,M,M,M,M,K05U 272250Z AUTO VRB07G17KT 130V190 10SM A3001 RMK A01,M
P68,2024-04-27 22:53,-116.0056,39.6014,1993.00,55.00,31.00,39.80,340.00,7.00,0.00,29.98,1011.50,M,M,M,M,M,M,M,M,M,M,M,M,M,M,M,M,M,55.00,KP68 272253Z AUTO 34007KT 13/M01 A2998 RMK AO1 SLP115 T01281006,M
DRA,2024-04-27 22:53,-116.0278,36.6206,1009.00,71.00,30.00,21.77,170.00,8.00,0.00,29.87,1008.50,10.00,M,BKN,M,M,M,11000.00,M,M,M,M,M,M,M,M,M,M,71.00,KDRA 272253Z AUTO 17008KT 10SM BKN110 22/M01 A2987 RMK AO2 SLP085 T02171011,M
ELY,2024-04-27 22:53,-114.8453,39.2950,1909.00,54.00,30.00,39.63,290.00,10.00,0.00,29.96,1010.40,10.00,M,OVC,M,M,M,7500.00,M,M,M,M,M,M,M,M,M,M,54.00,KELY 272253Z AUTO 29010KT 10SM OVC075 12/M01 A2996 RMK AO2 SLP104 T01221011,M
VGT,2024-04-27 22:53,-115.1933,36.2111,667.00,77.00,30.00,17.80,340.00,17.00,0.00,29.83,1010.30,10.00,24.00,CLR,M,M,M,M,M,M,M,M,M,M,M,27.00,350.00,2024-04-27 22:23,77.00,KVGT 272253Z 34017G24KT 10SM CLR 25/M01 A2983 RMK AO2 PK WND 35027/2223 SLP103 T02501011,M
LOL,2024-04-27 22:53,-118.5701,40.0684,1192.43,62.00,30.00,29.73,M,M,0.00,29.97,1014.40,10.00,M,FEW,M,M,M,7500.00,M,M,M,M,M,M,M,M,M,M,62.00,KLOL 272253Z AUTO 10SM FEW075 17/M01 A2997 RMK AO2 SLP144 T01671011,M
BVU,2024-04-27 22:55,-114.8611,35.9475,671.00,75.20,28.40,17.70,340.00,9.00,0.00,29.84,M,10.00,18.00,FEW,M,M,M,10000.00,M,M,M,M,M,M,M,M,M,M,75.20,KBVU 272255Z AUTO 34009G18KT 10SM FEW100 24/M02 A2984 RMK AO2,M
CXP,2024-04-27 22:55,-119.7326,39.1923,1431.00,62.60,28.40,27.27,280.00,11.00,0.00,30.03,M,10.00,20.00,CLR,M,M,M,M,M,M,M,M,M,M,M,M,M,M,62.60,KCXP 272255Z AUTO 28011G20KT 10SM CLR 17/M02 A3003 RMK AO2,M
INS,2024-04-27 22:55,-115.6733,36.5872,955.00,71.00,24.00,16.99,280.00,3.00,0.00,29.87,1008.60,10.00,M,SCT,M,M,M,10000.00,M,M,M,M,M,M,M,M,M,M,71.00,KINS 272255Z AUTO 28003KT 10SM SCT100 22/M04 A2987 RMK AO2 SLP086 T02161045 $,M
RNO,2024-04-27 22:55,-119.7711,39.4839,1341.00,65.00,25.00,21.78,M,5.00,0.00,29.99,1012.90,10.00,M,SCT,SCT,BKN,M,6000.00,12000.00,20000.00,M,M,M,M,M,M,M,M,65.00,KRNO 272255Z VRB05KT 10SM SCT060 SCT120 BKN200 18/M04 A2999 RMK AO2 SLP129 ACSL DSNT NW THRU N T01831039,M
LSV,2024-04-27 22:55,-115.0343,36.2362,570.00,77.00,25.70,14.91,270.00,6.00,0.00,29.80,1007.60,10.00,M,CLR,M,M,M,M,M,M,M,M,M,M,M,M,M,M,77.00,KLSV 272255Z AUTO 27006KT 10SM CLR 25/M03 A2980 RMK AO2 SLP076 T02501035 $,M
RTS,2024-04-27 22:55,-119.8764,39.6682,1539.00,59.00,23.00,24.76,310.00,13.00,0.00,30.03,M,10.00,23.00,CLR,M,M,M,M,M,M,M,M,M,M,M,M,M,M,59.00,KRTS 272255Z AUTO 31013G23KT 10SM CLR 15/M05 A3003 RMK AO2,M
MEV,2024-04-27 22:55,-119.7500,38.9963,1441.42,62.60,24.80,23.50,300.00,9.00,0.00,30.02,M,10.00,17.00,CLR,M,M,M,M,M,M,M,M,M,M,M,M,M,M,62.60,KMEV 272255Z AUTO 30009G17KT 10SM CLR 17/M04 A3002 RMK AO2,M
HTH,2024-04-27 22:55,-118.6315,38.5448,1282.89,64.40,24.80,22.06,350.00,11.00,0.00,29.99,M,10.00,16.00,CLR,M,M,M,M,M,M,M,M,M,M,M,M,M,M,64.40,KHTH 272255Z AUTO 35011G16KT 10SM CLR 18/M04 A2999 RMK A01,M
10U,2024-04-27 22:55,-116.1876,41.9532,1637.00,53.60,30.20,40.54,250.00,10.00,0.00,29.97,M,10.00,17.00,SCT,BKN,M,M,6000.00,7000.00,M,M,M,M,M,M,M,M,M,53.60,K10U 272255Z AUTO 25010G17KT 10SM SCT060 BKN070 12/M01 A2997 RMK AO2,M
BAM,2024-04-27 22:55,-116.8743,40.5990,1382.36,59.00,33.80,38.56,270.00,6.00,0.00,30.00,M,10.00,M,SCT,M,M,M,6000.00,M,M,M,M,M,M,M,M,M,M,59.00,KBAM 272255Z AUTO 27006KT 10SM SCT060 15/01 A3000 RMK AO1,M
TMT,2024-04-27 22:55,-117.1971,39.4643,1749.34,52.70,30.40,42.25,300.00,7.00,0.00,30.03,M,10.00,M,BKN,BKN,M,M,5500.00,7000.00,M,M,M,M,M,M,M,M,M,52.70,KTMT 272255Z AUTO 30007KT 10SM BKN055 BKN070 12/M01 A3003 RMK AO2 T01151009,M
EKO,2024-04-27 22:56,-115.7860,40.8242,1367.00,53.00,30.00,41.11,250.00,12.00,0.00,29.97,1013.80,10.00,M,OVC,M,M,M,6000.00,M,M,M,M,M,M,M,M,M,M,53.00,KEKO 272256Z AUTO 25012KT 10SM OVC060 12/M01 A2997 RMK AO2 SLP138 T01171011,M
WMC,2024-04-27 22:56,-117.8072,40.9019,1315.00,60.00,31.00,33.24,270.00,11.00,0.00,29.98,1013.80,10.00,M,CLR,M,M,M,M,M,M,M,M,M,M,M,M,M,M,60.00,KWMC 272256Z AUTO 27011KT 10SM CLR 16/M01 A2998 RMK AO2 SLP138 T01561006 $,M
NFL,2024-04-27 22:56,-118.7010,39.4166,1199.00,66.00,25.00,21.04,M,5.00,0.00,29.97,1012.10,10.00,M,SCT,SCT,SCT,M,5000.00,12000.00,25000.00,M,M,M,M,M,M,M,M,66.00,KNFL 272256Z VRB05KT 10SM SCT050 SCT120 SCT250 19/M04 A2997 RMK AO2 SLP121 T01891039,M
HND,2024-04-27 22:56,-115.1344,35.9729,742.79,73.00,33.00,22.96,260.00,3.00,0.00,29.88,1012.20,10.00,M,FEW,M,M,M,9000.00,M,M,M,M,M,M,M,M,M,M,73.00,KHND 272256Z 26003KT 10SM FEW090 23/01 A2988 RMK AO2 SLP122 T02280006,M
TPH,2024-04-27 22:56,-117.0904,38.0505,1654.00,62.00,26.00,25.23,330.00,15.00,0.00,29.97,1011.80,10.00,25.00,CLR,M,M,M,M,M,M,M,M,M,M,M,28.00,300.00,2024-04-27 22:26,62.00,KTPH 272256Z AUTO 33015G25KT 10SM CLR 17/M03 A2997 RMK AO2 PK WND 30028/2226 SLP118 T01671033,M
LAS,2024-04-27 22:56,-115.1634,36.0719,663.00,73.00,30.00,20.34,240.00,9.00,0.00,29.85,1009.50,10.00,16.00,FEW,FEW,M,M,9000.00,22000.00,M,M,M,M,M,M,M,M,M,73.00,KLAS 272256Z 24009G16KT 10SM FEW090 FEW220 23/M01 A2985 RMK AO2 SLP095 T02281011 $,M
05U,2024-04-27 23:10,-116.0051,39.6042,1811.23,M,M,M,180.00,7.00,0.00,30.01,M,10.00,M,M,M,M,M,M,M,M,M,M,M,M,M,M,M,M,M,K05U 272310Z AUTO 18007KT 10SM A3001 RMK A01,M
BVU,2024-04-27 23:15,-114.8611,35.9475,671.00,75.20,26.60,16.43,300.00,5.00,0.00,29.84,M,10.00,15.00,SCT,M,M,M,10000.00,M,M,M,M,M,M,M,M,M,M,75.20,KBVU 272315Z AUTO 30005G15KT 10SM SCT100 24/M03 A2984 RMK AO2,M
CXP,2024-04-27 23:15,-119.7326,39.1923,1431.00,60.80,28.40,29.06,250.00,9.00,0.00,30.03,M,10.00,22.00,CLR,M,M,M,M,M,M,M,M,M,M,M,M,M,M,60.80,KCXP 272315Z AUTO 25009G22KT 10SM CLR 16/M02 A3003 RMK AO2,M
RTS,2024-04-27 23:15,-119.8764,39.6682,1539.00,59.00,26.60,28.77,290.00,16.00,0.00,30.03,M,10.00,22.00,CLR,M,M,M,M,M,M,M,M,M,M,M,M,M,M,59.00,KRTS 272315Z AUTO 29016G22KT 10SM CLR 15/M03 A3003 RMK AO2,M
MEV,2024-04-27 23:15,-119.7500,38.9963,1441.42,62.60,26.60,25.32,280.00,11.00,0.00,30.02,M,10.00,18.00,CLR,M,M,M,M,M,M,M,M,M,M,M,M,M,M,62.60,KMEV 272315Z AUTO 28011G18KT 240V300 10SM CLR 17/M03 A3002 RMK AO2,M
HTH,2024-04-27 23:15,-118.6315,38.5448,1282.89,64.40,23.00,20.46,340.00,9.00,0.00,29.99,M,10.00,16.00,CLR,M,M,M,M,M,M,M,M,M,M,M,M,M,M,64.40,KHTH 272315Z AUTO 34009G16KT 10SM CLR 18/M05 A2999 RMK A01,M
10U,2024-04-27 23:15,-116.1876,41.9532,1637.00,55.40,30.20,37.97,270.00,13.00,0.00,29.97,M,10.00,21.00,FEW,BKN,M,M,6000.00,7000.00,M,M,M,M,M,M,M,M,M,55.40,K10U 272315Z AUTO 27013G21KT 240V300 10SM FEW060 BKN070 13/M01 A2997 RMK AO2,M
BAM,2024-04-27 23:15,-116.8743,40.5990,1382.36,57.20,32.00,38.26,270.00,4.00,0.00,30.00,M,10.00,M,CLR,M,M,M,M,M,M,M,M,M,M,M,M,M,M,57.20,KBAM 272315Z AUTO 27004KT 10SM CLR 14/00 A3000 RMK AO1,M
TMT,2024-04-27 23:15,-117.1971,39.4643,1749.34,54.70,30.00,38.63,290.00,11.00,0.00,30.03,M,10.00,14.00,BKN,M,M,M,5500.00,M,M,M,M,M,M,M,M,M,M,54.70,KTMT 272315Z AUTO 29011G14KT 10SM BKN055 13/M01 A3003 RMK AO2 T01261012,M
LAS,2024-04-27 23:23,-115.1634,36.0719,663.00,74.00,30.00,19.67,M,4.00,0.00,29.85,M,10.00,M,FEW,FEW,M,M,9000.00,22000.00,M,M,M,M,M,M,M,M,M,74.00,KLAS 272323Z VRB04KT 10SM FEW090 FEW220 23/M01 A2985 RMK AO2 T02331011 $,M
05U,2024-04-27 23:30,-116.0051,39.6042,1811.23,M,M,M,M,5.00,0.00,30.02,M,10.00,M,M,M,M,M,M,M,M,M,M,M,M,M,M,M,M,M,K05U 272330Z AUTO VRB05KT 10SM A3002 RMK A01,M
BVU,2024-04-27 23:35,-114.8611,35.9475,671.00,75.20,26.60,16.43,310.00,8.00,0.00,29.84,M,10.00,M,FEW,M,M,M,10000.00,M,M,M,M,M,M,M,M,M,M,75.20,KBVU 272335Z AUTO 31008KT 10SM FEW100 24/M03 A2984 RMK AO2,M
CXP,2024-04-27 23:35,-119.7326,39.1923,1431.00,60.80,28.40,29.06,260.00,9.00,0.00,30.03,M,10.00,15.00,CLR,M,M,M,M,M,M,M,M,M,M,M,M,M,M,60.80,KCXP 272335Z AUTO 26009G15KT 10SM CLR 16/M02 A3003 RMK AO2,M
RTS,2024-04-27 23:35,-119.8764,39.6682,1539.00,59.00,28.40,30.98,280.00,10.00,0.00,30.03,M,10.00,M,FEW,M,M,M,6500.00,M,M,M,M,M,M,M,M,M,M,59.00,KRTS 272335Z AUTO 28010KT 10SM FEW065 15/M02 A3003 RMK AO2,M
MEV,2024-04-27 23:35,-119.7500,38.9963,1441.42,60.80,23.00,23.23,M,4.00,0.00,30.02,M,10.00,10.00,CLR,M,M,M,M,M,M,M,M,M,M,M,M,M,M,60.80,KMEV 272335Z AUTO VRB04G10KT 10SM CLR 16/M05 A3002 RMK AO2,M
HTH,2024-04-27 23:35,-118.6315,38.5448,1282.89,64.40,23.00,20.46,10.00,8.00,0.00,29.98,M,10.00,15.00,CLR,M,M,M,M,M,M,M,M,M,M,M,M,M,M,64.40,KHTH 272335Z AUTO 01008G15KT 10SM CLR 18/M05 A2998 RMK A01,M
10U,2024-04-27 23:35,-116.1876,41.9532,1637.00,53.60,28.40,37.67,270.00,13.00,0.00,29.97,M,10.00,M,FEW,FEW,M,M,6000.00,7500.00,M,M,M,M,M,M,M,M,M,53.60,K10U 272335Z AUTO 27013KT 10SM FEW060 FEW075 12/M02 A2997 RMK AO2,M
BAM,2024-04-27 23:35,-116.8743,40.5990,1382.36,59.00,33.80,38.56,280.00,11.00,0.00,30.00,M,10.00,M,CLR,M,M,M,M,M,M,M,M,M,M,M,M,M,M,59.00,KBAM 272335Z AUTO 28011KT 10SM CLR 15/01 A3000 RMK AO1,M
TMT,2024-04-27 23:35,-117.1971,39.4643,1749.34,54.00,28.00,36.52,300.00,9.00,0.00,30.03,M,10.00,15.00,SCT,M,M,M,5500.00,M,M,M,M,M,M,M,M,M,M,54.00,KTMT 272335Z AUTO 30009G15KT 10SM SCT055 12/M02 A3003 RMK AO2 T01231023,M
NFL,2024-04-27 23:49,-118.7010,39.4166,1199.00,67.00,26.00,21.18,280.00,10.00,0.00,29.97,M,10.00,M,SCT,SCT,SCT,M,5000.00,12000.00,25000.00,M,M,M,M,M,M,M,M,67.00,KNFL 272349Z 28010KT 10SM SCT050 SCT120 SCT250 19/M03 A2997 RMK AO2 WSHFT 2329 T01941033,M
05U,2024-04-27 23:50,-116.0051,39.6042,1811.23,M,M,M,0.00,0.00,0.00,30.02,M,10.00,M,M,M,M,M,M,M,M,M,M,M,M,M,M,M,M,M,K05U 272350Z AUTO 00000KT 10SM A3002 RMK A01,M
P68,2024-04-27 23:53,-116.0056,39.6014,1993.00,53.00,30.00,41.11,M,5.00,0.00,30.00,1012.50,M,M,M,M,M,M,M,M,M,M,M,M,M,M,M,M,M,53.00,KP68 272353Z AUTO VRB05KT 12/M01 A3000 RMK AO1 SLP125 T01171011 10133 20078 53001,M
DRA,2024-04-27 23:53,-116.0278,36.6206,1009.00,72.00,25.00,17.13,290.00,9.00,0.00,29.86,1008.60,10.00,M,FEW,M,M,M,11000.00,M,M,M,M,M,M,M,M,M,M,72.00,KDRA 272353Z AUTO 29009KT 10SM FEW110 22/M04 A2986 RMK AO2 SLP086 T02221039 10228 20167 56012,M
ELY,2024-04-27 23:53,-114.8453,39.2950,1909.00,53.00,27.00,36.36,300.00,11.00,0.00,29.97,1011.10,10.00,17.00,FEW,M,M,M,6500.00,M,M,M,M,M,M,M,M,M,M,53.00,KELY 272353Z AUTO 30011G17KT 260V350 10SM FEW065 12/M03 A2997 RMK AO2 SLP111 T01171028 10122 20072 55001,M
VGT,2024-04-27 23:53,-115.1933,36.2111,667.00,77.00,29.00,17.08,350.00,14.00,0.00,29.83,1010.30,10.00,21.00,CLR,M,M,M,M,M,M,M,M,M,M,M,M,M,M,77.00,KVGT 272353Z 35014G21KT 10SM CLR 25/M02 A2983 RMK AO2 SLP103 T02501017 10256 20206 56009,M
LOL,2024-04-27 23:53,-118.5701,40.0684,1192.43,63.00,28.00,26.45,350.00,6.00,0.00,29.97,1014.30,10.00,M,FEW,M,M,M,8000.00,M,M,M,M,M,M,M,M,M,M,63.00,KLOL 272353Z AUTO 35006KT 10SM FEW080 17/M02 A2997 RMK AO2 SLP143 T01721022 10178 20111 56008,M
BVU,2024-04-27 23:55,-114.8611,35.9475,671.00,75.20,26.60,16.43,240.00,7.00,0.00,29.84,M,10.00,M,FEW,M,M,M,10000.00,M,M,M,M,M,M,M,M,M,M,75.20,KBVU 272355Z AUTO 24007KT 10SM FEW100 24/M03 A2984 RMK AO2,M
CXP,2024-04-27 23:55,-119.7326,39.1923,1431.00,60.80,28.40,29.06,270.00,9.00,0.00,30.03,M,10.00,15.00,CLR,M,M,M,M,M,M,M,M,M,M,M,M,M,M,60.80,KCXP 272355Z AUTO 27009G15KT 10SM CLR 16/M02 A3003 RMK AO2,M
INS,2024-04-27 23:55,-115.6733,36.5872,955.00,71.00,21.00,14.98,220.00,5.00,0.00,29.86,1008.20,10.00,M,BKN,M,M,M,10000.00,M,M,M,M,M,M,M,M,M,M,71.00,KINS 272355Z AUTO 22005KT 10SM BKN100 22/M06 A2986 RMK AO2 SLP082 T02171061 10230 20170 56012 $,M
RNO,2024-04-27 23:55,-119.7711,39.4839,1341.00,66.00,28.00,23.82,260.00,10.00,0.00,29.99,1013.10,10.00,20.00,SCT,SCT,BKN,BKN,7000.00,10000.00,14000.00,20000.00,M,M,M,M,M,M,M,66.00,KRNO 272355Z 26010G20KT 10SM SCT070 SCT100 BKN140 BKN200 19/M02 A2999 RMK AO2 SLP131 ACSL DSNT ALQDS T01891022 10194 20111 55006,M
RTS,2024-04-27 23:55,-119.8764,39.6682,1539.00,57.20,28.40,33.05,310.00,13.00,0.00,30.04,M,10.00,18.00,FEW,M,M,M,9500.00,M,M,M,M,M,M,M,M,M,M,57.20,KRTS 272355Z AUTO 31013G18KT 10SM FEW095 14/M02 A3004 RMK AO2,M
MEV,2024-04-27 23:55,-119.7500,38.9963,1441.42,62.60,24.80,23.50,280.00,8.00,0.00,30.02,M,10.00,15.00,CLR,M,M,M,M,M,M,M,M,M,M,M,M,M,M,62.60,KMEV 272355Z AUTO 28008G15KT 10SM CLR 17/M04 A3002 RMK AO2,M
HTH,2024-04-27 23:55,-118.6315,38.5448,1282.89,64.40,24.80,22.06,320.00,8.00,0.00,29.98,M,10.00,15.00,CLR,M,M,M,M,M,M,M,M,M,M,M,M,M,M,64.40,KHTH 272355Z AUTO 32008G15KT 290V350 10SM CLR 18/M04 A2998 RMK A01,M
10U,2024-04-27 23:55,-116.1876,41.9532,1637.00,51.80,30.20,43.32,260.00,10.00,0.00,29.98,M,10.00,M,SCT,BKN,M,M,6500.00,7500.00,M,M,M,M,M,M,M,M,M,51.80,K10U 272355Z AUTO 26010KT 10SM SCT065 BKN075 11/M01 A2998 RMK AO2,M
BAM,2024-04-27 23:55,-116.8743,40.5990,1382.36,59.00,33.80,38.56,270.00,10.00,0.00,30.01,M,10.00,M,CLR,M,M,M,M,M,M,M,M,M,M,M,M,M,M,59.00,KBAM 272355Z AUTO 27010KT 10SM CLR 15/01 A3001 RMK AO1,M
TMT,2024-04-27 23:55,-117.1971,39.4643,1749.34,55.00,30.20,38.52,330.00,10.00,0.00,30.03,M,10.00,M,BKN,M,M,M,5500.00,M,M,M,M,M,M,M,M,M,M,55.00,KTMT 272355Z AUTO 33010KT 10SM BKN055 13/M01 A3003 RMK AO2 6//// T01271010,M
LSV,2024-04-27 23:55,-115.0343,36.2362,570.00,78.30,26.80,14.95,20.00,11.00,0.00,29.79,1007.30,10.00,16.00,SCT,M,M,M,10000.00,M,M,M,M,M,M,M,M,M,M,78.30,KLSV 272355Z AUTO 02011G16KT 10SM SCT100 26/M03 A2979 RMK AO2 SLP073 T02571029 10258 20208 57009 $,M
EKO,2024-04-27 23:56,-115.7860,40.8242,1367.00,53.00,31.00,42.81,280.00,9.00,0.00,29.99,1014.40,10.00,M,OVC,M,M,M,7000.00,M,M,M,M,M,M,M,M,M,M,53.00,KEKO 272356Z AUTO 28009KT 10SM OVC070 12/M01 A2999 RMK AO2 SLP144 T01171006 10133 20094 53003,M
WMC,2024-04-27 23:56,-117.8072,40.9019,1315.00,61.00,29.00,29.57,270.00,10.00,0.00,29.98,1013.90,10.00,20.00,CLR,M,M,M,M,M,M,M,M,M,M,M,M,M,M,61.00,KWMC 272356Z AUTO 27010G20KT 10SM CLR 16/M02 A2998 RMK AO2 SLP139 T01611017 10167 20100 55006 $,M
NFL,2024-04-27 23:56,-118.7010,39.4166,1199.00,66.00,25.00,21.04,280.00,10.00,0.00,29.97,1011.90,10.00,M,SCT,SCT,SCT,M,5000.00,12000.00,25000.00,M,M,M,M,M,M,M,M,66.00,KNFL 272356Z 28010KT 10SM SCT050 SCT120 SCT250 19/M04 A2997 RMK AO2 WSHFT 2329 SLP119 T01891039 10200 20128 56012,M
HND,2024-04-27 23:56,-115.1344,35.9729,742.79,75.00,33.00,21.47,300.00,7.00,0.00,29.88,1012.20,10.00,M,FEW,M,M,M,9000.00,M,M,M,M,M,M,M,M,M,M,75.00,KHND 272356Z 30007KT 10SM FEW090 24/01 A2988 RMK AO2 SLP122 T02390006 10239 20200 55005,M
TPH,2024-04-27 23:56,-117.0904,38.0505,1654.00,60.00,25.00,25.98,310.00,15.00,0.00,29.98,1012.30,10.00,24.00,CLR,M,M,M,M,M,M,M,M,M,M,M,26.00,290.00,2024-04-27 23:13,60.00,KTPH 272356Z AUTO 31015G24KT 10SM CLR 16/M04 A2998 RMK AO2 PK WND 29026/2313 SLP123 T01561039 10167 20117 55003,M
LAS,2024-04-27 23:56,-115.1634,36.0719,663.00,73.00,30.00,20.34,250.00,7.00,0.00,29.85,1009.60,10.00,14.00,FEW,FEW,M,M,9000.00,22000.00,M,M,M,M,M,M,M,M,M,73.00,KLAS 272356Z 25007G14KT 210V280 10SM FEW090 FEW220 23/M01 A2985 RMK AO2 SLP096 T02281011 10250 20200 55007 $,M
