station,valid,lon,lat,elevation,tmpf,dwpf,relh,drct,sknt,p01i,alti,mslp,vsby,gust,skyc1,skyc2,skyc3,skyc4,skyl1,skyl2,skyl3,skyl4,wxcodes,ice_accretion_1hr,ice_accretion_3hr,ice_accretion_6hr,peak_wind_gust,peak_wind_drct,peak_wind_time,feel,metar,snowdepth
INS,2023-07-17 00:13,-115.6733,36.5872,955.00,111.20,19.40,3.97,90.00,15.00,0.00,29.90,1006.60,10.00,M,CLR,M,M,M,M,M,M,M,M,M,M,M,M,M,M,102.04,KINS 170013Z AUTO 09015KT 10SM CLR 44/M07 A2990 RMK AO2 WSHFT 11 SLP066 $,M
BVU,2023-07-17 00:15,-114.8611,35.9475,671.00,114.80,32.00,6.03,160.00,10.00,0.00,29.82,M,10.00,M,CLR,M,M,M,M,M,M,M,M,M,M,M,M,M,M,106.57,KBVU 170015Z AUTO 16010KT 140V200 10SM CLR 46/00 A2982 RMK AO2,M
CXP,2023-07-17 00:15,-119.7326,39.1923,1431.00,100.40,33.80,9.90,290.00,12.00,0.00,30.09,M,10.00,17.00,CLR,M,M,M,M,M,M,M,M,M,M,M,M,M,M,94.47,KCXP 170015Z AUTO 29012G17KT 10SM CLR 38/01 A3009 RMK AO2,M
RTS,2023-07-17 00:15,-119.8764,39.6682,1539.00,96.80,30.20,9.55,230.00,12.00,0.00,30.13,M,10.00,20.00,CLR,M,M,M,M,M,M,M,M,M,M,M,M,M,M,90.96,KRTS 170015Z AUTO 23012G20KT 10SM CLR 36/M01 A3013 RMK AO2,M
05U,2023-07-17 00:15,-116.0051,39.6042,1811.23,100.40,30.20,8.56,360.00,5.00,0.00,30.17,M,10.00,M,M,M,M,M,M,M,M,M,M,M,M,M,M,M,M,93.98,K05U 170015Z AUTO 36005KT 10SM 38/M01 A3017 RMK A01,M
MEV,2023-07-17 00:15,-119.7500,38.9963,1441.42,98.60,39.20,12.94,280.00,12.00,0.00,30.08,M,10.00,18.00,CLR,M,M,M,M,M,M,M,M,M,M,M,M,M,M,93.89,KMEV 170015Z AUTO 28012G18KT 10SM CLR 37/04 A3008 RMK AO2,M
BAM,2023-07-17 00:15,-116.8743,40.5990,1382.36,104.00,21.20,5.29,230.00,8.00,0.00,30.05,M,10.00,M,CLR,M,M,M,M,M,M,M,M,M,M,M,M,M,M,96.09,KBAM 170015Z AUTO 23008KT 10SM CLR 40/M06 A3005 RMK AO1,M
HTH,2023-07-17 00:15,-118.6315,38.5448,1282.89,105.80,21.20,5.01,320.00,10.00,0.00,29.99,M,10.00,M,CLR,M,M,M,M,M,M,M,M,M,M,M,M,M,M,97.58,KHTH 170015Z AUTO 32010KT 10SM CLR 41/M06 A2999 RMK A01,M
TMT,2023-07-17 00:15,-117.1971,39.4643,1749.34,99.00,28.00,8.16,260.00,3.00,0.00,30.16,M,10.00,M,CLR,M,M,M,M,M,M,M,M,M,M,M,M,M,M,92.54,KTMT 170015Z AUTO 26003KT 10SM CLR 37/M02 A3016 RMK AO2 T03721022,M
BVU,2023-07-17 00:35,-114.8611,35.9475,671.00,113.00,32.00,6.35,140.00,8.00,0.00,29.81,M,10.00,M,CLR,M,M,M,M,M,M,M,M,M,M,M,M,M,M,105.27,KBVU 170035Z AUTO 14008KT 10SM CLR 45/M00 A2981 RMK AO2,M
CXP,2023-07-17 00:35,-119.7326,39.1923,1431.00,98.60,35.60,11.23,270.00,10.00,0.00,30.09,M,10.00,20.00,CLR,M,M,M,M,M,M,M,M,M,M,M,M,M,M,93.23,KCXP 170035Z AUTO 27010G20KT 230V300 10SM CLR 37/02 A3009 RMK AO2,M
RTS,2023-07-17 00:35,-119.8764,39.6682,1539.00,96.80,32.00,10.27,250.00,12.00,0.00,30.13,M,10.00,M,CLR,M,M,M,M,M,M,M,M,M,M,M,M,M,M,91.19,KRTS 170035Z AUTO 25012KT 10SM CLR 36/M00 A3013 RMK AO2,M
05U,2023-07-17 00:35,-116.0051,39.6042,1811.23,98.60,24.80,7.24,10.00,5.00,0.00,30.17,M,10.00,M,M,M,M,M,M,M,M,M,M,M,M,M,M,M,M,91.90,K05U 170035Z AUTO 01005KT 10SM 37/M04 A3017 RMK A01,M
MEV,2023-07-17 00:35,-119.7500,38.9963,1441.42,96.80,37.40,12.73,280.00,13.00,0.00,30.08,M,10.00,20.00,CLR,M,M,M,M,M,M,M,M,M,M,M,M,M,M,92.04,KMEV 170035Z AUTO 28013G20KT 10SM CLR 36/03 A3008 RMK AO2,M
BAM,2023-07-17 00:35,-116.8743,40.5990,1382.36,102.20,23.00,6.02,250.00,7.00,0.00,30.04,M,10.00,M,CLR,M,M,M,M,M,M,M,M,M,M,M,M,M,M,94.75,KBAM 170035Z AUTO 25007KT 10SM CLR 39/M05 A3004 RMK AO1,M
HTH,2023-07-17 00:35,-118.6315,38.5448,1282.89,105.80,23.00,5.41,340.00,8.00,0.00,29.99,M,10.00,M,CLR,M,M,M,M,M,M,M,M,M,M,M,M,M,M,97.75,KHTH 170035Z AUTO 34008KT 10SM CLR 41/M05 A2999 RMK A01,M
TMT,2023-07-17 00:35,-117.1971,39.4643,1749.34,98.40,29.00,8.66,300.00,8.00,0.00,30.15,M,10.00,M,CLR,M,M,M,M,M,M,M,M,M,M,M,M,M,M,92.15,KTMT 170035Z AUTO 30008KT 10SM CLR 37/M02 A3015 RMK AO2 T03691016,M
ELY,2023-07-17 00:53,-114.8453,39.2950,1909.00,M,M,M,M,M,0.00,30.19,M,M,M,M,M,M,M,M,M,M,M,M,M,M,M,M,M,M,M,KELY 170053Z AUTO A3019 RMK AO2 SLPNO PWINO FZRANO,M
VGT,2023-07-17 00:53,-115.1933,36.2111,667.00,116.00,34.00,6.32,110.00,12.00,0.00,29.80,1007.20,10.00,17.00,CLR,M,M,M,M,M,M,M,M,M,M,M,M,M,M,107.82,KVGT 170053Z 11012G17KT 10SM CLR 47/01 A2980 RMK AO2 SLP072 T04670011,M
LOL,2023-07-17 00:53,-118.5701,40.0684,1192.43,105.00,28.00,6.82,160.00,10.00,0.00,29.96,1009.70,10.00,M,CLR,M,M,M,M,M,M,M,M,M,M,M,M,M,M,97.60,KLOL 170053Z AUTO 16010KT 10SM CLR 41/M02 A2996 RMK AO2 SLP097 T04061022,M
BVU,2023-07-17 00:55,-114.8611,35.9475,671.00,113.00,30.20,5.91,140.00,9.00,0.00,29.81,M,10.00,M,CLR,M,M,M,M,M,M,M,M,M,M,M,M,M,M,104.98,KBVU 170055Z AUTO 14009KT 10SM CLR 45/M01 A2981 RMK AO2,M
CXP,2023-07-17 00:55,-119.7326,39.1923,1431.00,98.60,35.60,11.23,270.00,13.00,0.00,30.09,M,10.00,22.00,CLR,M,M,M,M,M,M,M,M,M,M,M,M,M,M,93.23,KCXP 170055Z AUTO 27013G22KT 10SM CLR 37/02 A3009 RMK AO2,M
INS,2023-07-17 00:55,-115.6733,36.5872,955.00,108.70,17.80,3.98,100.00,11.00,0.00,29.89,1006.40,10.00,M,CLR,M,M,M,M,M,M,M,M,M,M,M,M,M,M,99.71,KINS 170055Z AUTO 10011KT 10SM CLR 43/M08 A2989 RMK AO2 SLP064 T04261079 $,M
RNO,2023-07-17 00:55,-119.7711,39.4839,1341.00,102.00,36.00,10.29,290.00,12.00,0.00,30.04,1010.50,10.00,M,FEW,BKN,M,M,12000.00,20000.00,M,M,M,M,M,M,M,M,M,96.20,KRNO 170055Z 29012KT 10SM FEW120 BKN200 39/02 A3004 RMK AO2 SLP105 T03890022 $,M
LSV,2023-07-17 00:55,-115.0343,36.2362,570.00,114.00,31.00,5.93,90.00,9.00,0.00,29.75,1004.30,10.00,M,CLR,M,M,M,M,M,M,M,M,M,M,M,M,M,M,105.83,KLSV 170055Z AUTO 09009KT 10SM CLR 46/M00 A2975 RMK AO2 SLP043 T04551005 $,M
RTS,2023-07-17 00:55,-119.8764,39.6682,1539.00,96.80,32.00,10.27,270.00,12.00,0.00,30.12,M,10.00,M,CLR,M,M,M,M,M,M,M,M,M,M,M,M,M,M,91.19,KRTS 170055Z AUTO 27012KT 10SM CLR 36/00 A3012 RMK AO2,M
05U,2023-07-17 00:55,-116.0051,39.6042,1811.23,102.20,26.60,7.00,M,6.00,0.00,30.16,M,10.00,M,M,M,M,M,M,M,M,M,M,M,M,M,M,M,M,95.09,K05U 170055Z AUTO VRB06KT 10SM 39/M03 A3016 RMK A01,M
MEV,2023-07-17 00:55,-119.7500,38.9963,1441.42,96.80,39.20,13.66,270.00,13.00,0.00,30.08,M,10.00,22.00,CLR,M,M,M,M,M,M,M,M,M,M,M,M,M,M,92.23,KMEV 170055Z AUTO 27013G22KT 10SM CLR 36/04 A3008 RMK AO2,M
BAM,2023-07-17 00:55,-116.8743,40.5990,1382.36,104.00,23.00,5.71,260.00,11.00,0.00,30.04,M,10.00,15.00,CLR,M,M,M,M,M,M,M,M,M,M,M,M,M,M,96.25,KBAM 170055Z AUTO 26011G15KT 10SM CLR 40/M05 A3004 RMK AO1,M
HTH,2023-07-17 00:55,-118.6315,38.5448,1282.89,105.80,21.20,5.01,330.00,9.00,0.00,29.99,M,10.00,M,CLR,M,M,M,M,M,M,M,M,M,M,M,M,M,M,97.58,KHTH 170055Z AUTO 33009KT 10SM CLR 41/M06 A2999 RMK A01,M
TMT,2023-07-17 00:55,-117.1971,39.4643,1749.34,98.20,28.80,8.64,310.00,9.00,0.00,30.15,M,10.00,M,CLR,M,M,M,M,M,M,M,M,M,M,M,M,M,M,91.96,KTMT 170055Z AUTO 31009KT 10SM CLR 37/M02 A3015 RMK AO2 T03681018,M
EKO,2023-07-17 00:56,-115.7860,40.8242,1367.00,101.00,25.00,6.79,270.00,7.00,0.00,30.07,1011.70,10.00,M,CLR,M,M,M,M,M,M,M,M,M,M,M,M,M,M,93.92,KEKO 170056Z AUTO 27007KT 10SM CLR 38/M04 A3007 RMK AO2 SLP117 T03831039,M
WMC,2023-07-17 00:56,-117.8072,40.9019,1315.00,M,M,M,M,M,0.00,30.00,M,M,M,M,M,M,M,M,M,M,M,M,M,M,M,M,M,M,M,KWMC 170056Z AUTO A3000 RMK AO2 SLPNO PWINO FZRANO $,M
NFL,2023-07-17 00:56,-118.7010,39.4166,1199.00,106.00,30.00,7.18,M,6.00,0.00,29.96,1011.80,10.00,M,CLR,M,M,M,M,M,M,M,M,M,M,M,M,M,M,98.71,KNFL 170056Z AUTO VRB06KT 10SM CLR 41/M01 A2996 RMK AO2 SLP118 T04111011,M
HND,2023-07-17 00:56,-115.1344,35.9729,742.79,113.00,41.00,9.07,90.00,7.00,0.00,29.86,1008.60,10.00,M,CLR,M,M,M,M,M,M,M,M,M,M,M,M,M,M,107.12,KHND 170056Z 09007KT 10SM CLR 45/05 A2986 RMK AO2 SLP086 T04500050,M
TPH,2023-07-17 00:56,-117.0904,38.0505,1654.00,102.00,22.00,5.81,220.00,6.00,0.00,30.11,1009.70,10.00,M,CLR,M,M,M,M,M,M,M,M,M,M,M,M,M,M,94.50,KTPH 170056Z AUTO 22006KT 10SM CLR 39/M06 A3011 RMK AO2 SLP097 T03891056 $,M
LAS,2023-07-17 00:56,-115.1634,36.0719,663.00,114.00,34.00,6.69,80.00,7.00,0.00,29.81,1005.80,10.00,M,FEW,BKN,M,M,12000.00,25000.00,M,M,M,M,M,M,M,M,M,106.36,KLAS 170056Z 08007KT 10SM FEW120 BKN250 46/01 A2981 RMK AO2 SLP058 T04560011,M
05U,2023-07-17 01:10,-116.0051,39.6042,1811.23,100.40,30.20,8.56,30.00,7.00,0.00,30.16,M,10.00,M,M,M,M,M,M,M,M,M,M,M,M,M,M,M,M,93.98,K05U 170110Z AUTO 03007KT 360V060 10SM 38/M01 A3016 RMK A01,M
BVU,2023-07-17 01:15,-114.8611,35.9475,671.00,113.00,30.20,5.91,170.00,10.00,0.00,29.80,M,10.00,M,CLR,M,M,M,M,M,M,M,M,M,M,M,M,M,M,104.98,KBVU 170115Z AUTO 17010KT 10SM CLR 45/M01 A2980 RMK AO2,M
CXP,2023-07-17 01:15,-119.7326,39.1923,1431.00,96.80,37.40,12.73,270.00,13.00,0.00,30.09,M,10.00,20.00,CLR,M,M,M,M,M,M,M,M,M,M,M,M,M,M,92.04,KCXP 170115Z AUTO 27013G20KT 10SM CLR 36/03 A3009 RMK AO2,M
RTS,2023-07-17 01:15,-119.8764,39.6682,1539.00,95.00,32.00,10.85,270.00,18.00,0.00,30.12,M,10.00,M,CLR,M,M,M,M,M,M,M,M,M,M,M,M,M,M,89.71,KRTS 170115Z AUTO 27018KT 10SM CLR 35/00 A3012 RMK AO2,M
MEV,2023-07-17 01:15,-119.7500,38.9963,1441.42,93.20,41.00,16.37,290.00,10.00,0.00,30.08,M,10.00,16.00,CLR,M,M,M,M,M,M,M,M,M,M,M,M,M,M,89.03,KMEV 170115Z AUTO 29010G16KT 10SM CLR 34/05 A3008 RMK AO2,M
BAM,2023-07-17 01:15,-116.8743,40.5990,1382.36,104.00,21.20,5.29,270.00,10.00,0.00,30.04,M,10.00,15.00,CLR,M,M,M,M,M,M,M,M,M,M,M,M,M,M,96.09,KBAM 170115Z AUTO 27010G15KT 10SM CLR 40/M06 A3004 RMK AO1,M
HTH,2023-07-17 01:15,-118.6315,38.5448,1282.89,104.00,23.00,5.71,350.00,7.00,0.00,29.98,M,10.00,M,CLR,M,M,M,M,M,M,M,M,M,M,M,M,M,M,96.25,KHTH 170115Z AUTO 35007KT 10SM CLR 40/M05 A2998 RMK A01,M
TMT,2023-07-17 01:15,-117.1971,39.4643,1749.34,97.50,28.00,8.54,320.00,9.00,0.00,30.15,M,10.00,M,CLR,M,M,M,M,M,M,M,M,M,M,M,M,M,M,91.29,KTMT 170115Z AUTO 32009KT 10SM CLR 36/M02 A3015 RMK AO2 T03641023,M
BVU,2023-07-17 01:35,-114.8611,35.9475,671.00,113.00,32.00,6.35,160.00,12.00,0.00,29.80,M,10.00,M,CLR,M,M,M,M,M,M,M,M,M,M,M,M,M,M,105.27,KBVU 170135Z AUTO 16012KT 10SM CLR 45/00 A2980 RMK AO2,M
CXP,2023-07-17 01:35,-119.7326,39.1923,1431.00,95.00,37.40,13.46,270.00,14.00,0.00,30.09,M,10.00,21.00,CLR,M,M,M,M,M,M,M,M,M,M,M,M,M,M,90.46,KCXP 170135Z AUTO 27014G21KT 10SM CLR 35/03 A3009 RMK AO2,M
RTS,2023-07-17 01:35,-119.8764,39.6682,1539.00,93.20,32.00,11.48,270.00,14.00,0.00,30.13,M,10.00,M,CLR,M,M,M,M,M,M,M,M,M,M,M,M,M,M,88.31,KRTS 170135Z AUTO 27014KT 10SM CLR 34/M00 A3013 RMK AO2,M
05U,2023-07-17 01:35,-116.0051,39.6042,1811.23,96.80,30.20,9.55,360.00,9.00,0.00,30.16,M,10.00,15.00,M,M,M,M,M,M,M,M,M,M,M,M,M,M,M,90.96,K05U 170135Z AUTO 36009G15KT 10SM 36/M01 A3016 RMK A01,M
MEV,2023-07-17 01:35,-119.7500,38.9963,1441.42,93.20,42.80,17.55,280.00,12.00,0.00,30.08,M,10.00,M,CLR,M,M,M,M,M,M,M,M,M,M,M,M,M,M,89.17,KMEV 170135Z AUTO 28012KT 10SM CLR 34/06 A3008 RMK AO2,M
BAM,2023-07-17 01:35,-116.8743,40.5990,1382.36,104.00,23.00,5.71,260.00,8.00,0.00,30.04,M,10.00,M,CLR,M,M,M,M,M,M,M,M,M,M,M,M,M,M,96.25,KBAM 170135Z AUTO 26008KT 10SM CLR 40/M05 A3004 RMK AO1,M
HTH,2023-07-17 01:35,-118.6315,38.5448,1282.89,104.00,23.00,5.71,330.00,7.00,0.00,29.98,M,10.00,M,CLR,M,M,M,M,M,M,M,M,M,M,M,M,M,M,96.25,KHTH 170135Z AUTO 33007KT 10SM CLR 40/M05 A2998 RMK A01,M
TMT,2023-07-17 01:35,-117.1971,39.4643,1749.34,96.80,28.00,8.73,320.00,8.00,0.00,30.15,M,10.00,M,CLR,M,M,M,M,M,M,M,M,M,M,M,M,M,M,90.71,KTMT 170135Z AUTO 32008KT 10SM CLR 36/M02 A3015 RMK AO2 T03601022,M
ELY,2023-07-17 01:53,-114.8453,39.2950,1909.00,M,M,M,M,M,0.00,30.19,M,M,M,M,M,M,M,M,M,M,M,M,M,M,M,M,M,M,M,KELY 170153Z AUTO A3019 RMK AO2 SLPNO PWINO FZRANO,M
VGT,2023-07-17 01:53,-115.1933,36.2111,667.00,114.00,34.00,6.69,120.00,5.00,0.00,29.80,1007.00,10.00,M,CLR,M,M,M,M,M,M,M,M,M,M,M,M,M,M,106.36,KVGT 170153Z 12005KT 10SM CLR 46/01 A2980 RMK AO2 SLP070 T04560011,M
LOL,2023-07-17 01:53,-118.5701,40.0684,1192.43,102.00,28.00,7.46,170.00,6.00,0.00,29.95,1009.30,10.00,M,CLR,M,M,M,M,M,M,M,M,M,M,M,M,M,M,95.07,KLOL 170153Z AUTO 17006KT 10SM CLR 39/M02 A2995 RMK AO2 SLP093 T03891022,M
BVU,2023-07-17 01:55,-114.8611,35.9475,671.00,111.20,33.80,7.19,170.00,12.00,0.00,29.80,M,10.00,M,CLR,M,M,M,M,M,M,M,M,M,M,M,M,M,M,103.88,KBVU 170155Z AUTO 17012KT 10SM CLR 44/01 A2980 RMK AO2,M
CXP,2023-07-17 01:55,-119.7326,39.1923,1431.00,93.20,39.20,15.27,280.00,11.00,0.00,30.09,M,10.00,17.00,CLR,M,M,M,M,M,M,M,M,M,M,M,M,M,M,88.92,KCXP 170155Z AUTO 28011G17KT 10SM CLR 34/04 A3009 RMK AO2,M
INS,2023-07-17 01:55,-115.6733,36.5872,955.00,107.80,22.30,4.95,100.00,14.00,0.00,29.88,1006.00,10.00,M,CLR,M,M,M,M,M,M,M,M,M,M,M,M,M,M,99.35,KINS 170155Z AUTO 10014KT 10SM CLR 42/M05 A2988 RMK AO2 SLP060 T04211054 $,M
RNO,2023-07-17 01:55,-119.7711,39.4839,1341.00,98.00,37.00,12.08,280.00,14.00,0.00,30.05,1010.80,10.00,M,FEW,BKN,M,M,14000.00,20000.00,M,M,M,M,M,M,M,M,M,92.97,KRNO 170155Z 28014KT 10SM FEW140 BKN200 37/03 A3005 RMK AO2 SLP108 T03670028 $,M
LSV,2023-07-17 01:55,-115.0343,36.2362,570.00,112.30,30.00,5.98,90.00,7.00,0.00,29.74,1003.80,10.00,M,CLR,M,M,M,M,M,M,M,M,M,M,M,M,M,M,104.45,KLSV 170155Z AUTO 09007KT 10SM CLR 45/M01 A2974 RMK AO2 SLP038 T04461012 $,M
RTS,2023-07-17 01:55,-119.8764,39.6682,1539.00,91.40,30.20,11.28,270.00,13.00,0.00,30.13,M,10.00,19.00,CLR,M,M,M,M,M,M,M,M,M,M,M,M,M,M,86.71,KRTS 170155Z AUTO 27013G19KT 10SM CLR 33/M01 A3013 RMK AO2,M
05U,2023-07-17 01:55,-116.0051,39.6042,1811.23,96.80,30.20,9.55,360.00,6.00,0.00,30.16,M,10.00,16.00,CLR,M,M,M,M,M,M,M,M,M,M,M,M,M,M,90.96,K05U 170155Z AUTO 36006G16KT 10SM CLR 36/M01 A3016 RMK A01,M
MEV,2023-07-17 01:55,-119.7500,38.9963,1441.42,91.40,41.00,17.32,280.00,12.00,0.00,30.08,M,10.00,M,CLR,M,M,M,M,M,M,M,M,M,M,M,M,M,M,87.40,KMEV 170155Z AUTO 28012KT 10SM CLR 33/05 A3008 RMK AO2,M
BAM,2023-07-17 01:55,-116.8743,40.5990,1382.36,102.20,23.00,6.02,280.00,10.00,0.00,30.04,M,10.00,15.00,CLR,M,M,M,M,M,M,M,M,M,M,M,M,M,M,94.75,KBAM 170155Z AUTO 28010G15KT 10SM CLR 39/M05 A3004 RMK AO1,M
HTH,2023-07-17 01:55,-118.6315,38.5448,1282.89,102.20,23.00,6.02,270.00,5.00,0.00,29.98,M,10.00,M,CLR,M,M,M,M,M,M,M,M,M,M,M,M,M,M,94.75,KHTH 170155Z AUTO 27005KT 10SM CLR 39/M05 A2998 RMK A01,M
TMT,2023-07-17 01:55,-117.1971,39.4643,1749.34,95.50,30.00,9.86,330.00,9.00,0.00,30.15,M,10.00,M,CLR,M,M,M,M,M,M,M,M,M,M,M,M,M,M,89.86,KTMT 170155Z AUTO 33009KT 10SM CLR 35/M01 A3015 RMK AO2 T03531011,M
EKO,2023-07-17 01:56,-115.7860,40.8242,1367.00,92.00,40.00,16.35,260.00,7.00,0.00,30.07,1011.70,10.00,M,CLR,M,M,M,M,M,M,M,M,M,M,M,M,M,M,87.88,KEKO 170156Z AUTO 26007KT 10SM CLR 33/04 A3007 RMK AO2 SLP117 T03330044,M
WMC,2023-07-17 01:56,-117.8072,40.9019,1315.00,M,M,M,M,M,0.00,30.00,M,M,M,M,M,M,M,M,M,M,M,M,M,M,M,M,M,M,M,KWMC 170156Z AUTO A3000 RMK AO2 SLPNO PWINO FZRANO $,M
NFL,2023-07-17 01:56,-118.7010,39.4166,1199.00,105.00,32.00,8.02,360.00,3.00,0.00,29.95,1011.60,10.00,M,CLR,M,M,M,M,M,M,M,M,M,M,M,M,M,M,98.13,KNFL 170156Z AUTO 36003KT 10SM CLR 41/00 A2995 RMK AO2 SLP116 T04060000,M
HND,2023-07-17 01:56,-115.1344,35.9729,742.79,112.00,40.00,8.98,190.00,7.00,0.00,29.85,1008.30,10.00,M,CLR,M,M,M,M,M,M,M,M,M,M,M,M,M,M,106.05,KHND 170156Z 19007KT 10SM CLR 44/04 A2985 RMK AO2 SLP083 T04440044,M
TPH,2023-07-17 01:56,-117.0904,38.0505,1654.00,100.00,23.00,6.43,190.00,10.00,0.00,30.11,1009.20,10.00,17.00,CLR,M,M,M,M,M,M,M,M,M,M,M,M,M,M,92.91,KTPH 170156Z AUTO 19010G17KT 10SM CLR 38/M05 A3011 RMK AO2 SLP092 T03781050 $,M
LAS,2023-07-17 01:56,-115.1634,36.0719,663.00,112.00,38.00,8.30,140.00,7.00,0.00,29.80,1005.60,10.00,M,FEW,BKN,M,M,12000.00,25000.00,M,M,M,M,M,M,M,M,M,105.61,KLAS 170156Z 14007KT 10SM FEW120 BKN250 44/03 A2980 RMK AO2 SLP056 T04440033,M
BVU,2023-07-17 02:15,-114.8611,35.9475,671.00,111.20,39.20,8.90,170.00,9.00,0.00,29.80,M,10.00,M,CLR,M,M,M,M,M,M,M,M,M,M,M,M,M,M,104.98,KBVU 170215Z AUTO 17009KT 10SM CLR 44/04 A2980 RMK AO2,M
CXP,2023-07-17 02:15,-119.7326,39.1923,1431.00,93.20,39.20,15.27,280.00,10.00,0.00,30.09,M,10.00,18.00,CLR,M,M,M,M,M,M,M,M,M,M,M,M,M,M,88.92,KCXP 170215Z AUTO 28010G18KT 10SM CLR 34/04 A3009 RMK AO2,M
RTS,2023-07-17 02:15,-119.8764,39.6682,1539.00,89.60,30.20,11.94,280.00,9.00,0.00,30.13,M,10.00,17.00,CLR,M,M,M,M,M,M,M,M,M,M,M,M,M,M,85.34,KRTS 170215Z AUTO 28009G17KT 10SM CLR 32/M01 A3013 RMK AO2,M
05U,2023-07-17 02:15,-116.0051,39.6042,1811.23,96.80,24.80,7.65,M,M,0.00,30.16,M,10.00,M,CLR,M,M,M,M,M,M,M,M,M,M,M,M,M,M,90.40,K05U 170215Z AUTO 10SM CLR 36/M04 A3016 RMK A01,M
MEV,2023-07-17 02:15,-119.7500,38.9963,1441.42,89.60,41.00,18.33,260.00,8.00,0.00,30.09,M,10.00,14.00,CLR,M,M,M,M,M,M,M,M,M,M,M,M,M,M,85.82,KMEV 170215Z AUTO 26008G14KT 10SM CLR 32/05 A3009 RMK AO2,M
BAM,2023-07-17 02:15,-116.8743,40.5990,1382.36,100.40,23.00,6.36,250.00,6.00,0.00,30.04,M,10.00,M,CLR,M,M,M,M,M,M,M,M,M,M,M,M,M,M,93.25,KBAM 170215Z AUTO 25006KT 10SM CLR 38/M05 A3004 RMK AO1,M
HTH,2023-07-17 02:15,-118.6315,38.5448,1282.89,102.20,26.60,7.00,310.00,8.00,0.00,29.99,M,10.00,M,CLR,M,M,M,M,M,M,M,M,M,M,M,M,M,M,95.09,KHTH 170215Z AUTO 31008KT 10SM CLR 39/M03 A2999 RMK A01,M
TMT,2023-07-17 02:15,-117.1971,39.4643,1749.34,93.00,29.00,10.22,330.00,8.00,0.00,30.15,M,10.00,M,CLR,M,M,M,M,M,M,M,M,M,M,M,M,M,M,87.80,KTMT 170215Z AUTO 33008KT 10SM CLR 34/M02 A3015 RMK AO2 T03391016,M
BVU,2023-07-17 02:35,-114.8611,35.9475,671.00,109.40,41.00,10.06,160.00,8.00,0.00,29.81,M,10.00,M,CLR,M,M,M,M,M,M,M,M,M,M,M,M,M,M,103.77,KBVU 170235Z AUTO 16008KT 10SM CLR 43/05 A2981 RMK AO2,M
CXP,2023-07-17 02:35,-119.7326,39.1923,1431.00,91.40,39.20,16.15,280.00,7.00,0.00,30.10,M,10.00,14.00,CLR,M,M,M,M,M,M,M,M,M,M,M,M,M,M,87.30,KCXP 170235Z AUTO 28007G14KT 10SM CLR 33/04 A3010 RMK AO2,M
RTS,2023-07-17 02:35,-119.8764,39.6682,1539.00,87.80,32.00,13.59,280.00,10.00,0.00,30.13,M,10.00,15.00,CLR,M,M,M,M,M,M,M,M,M,M,M,M,M,M,84.08,KRTS 170235Z AUTO 28010G15KT 10SM CLR 31/00 A3013 RMK AO2,M
05U,2023-07-17 02:35,-116.0051,39.6042,1811.23,95.00,28.40,9.38,10.00,7.00,0.00,30.17,M,10.00,13.00,CLR,M,M,M,M,M,M,M,M,M,M,M,M,M,M,89.27,K05U 170235Z AUTO 01007G13KT 10SM CLR 35/M02 A3017 RMK A01,M
MEV,2023-07-17 02:35,-119.7500,38.9963,1441.42,87.80,41.00,19.40,240.00,9.00,0.00,30.09,M,10.00,M,CLR,M,M,M,M,M,M,M,M,M,M,M,M,M,M,84.30,KMEV 170235Z AUTO 24009KT 10SM CLR 31/05 A3009 RMK AO2,M
BAM,2023-07-17 02:35,-116.8743,40.5990,1382.36,100.40,24.80,6.85,310.00,4.00,0.00,30.04,M,10.00,M,CLR,M,M,M,M,M,M,M,M,M,M,M,M,M,M,93.40,KBAM 170235Z AUTO 31004KT 10SM CLR 38/M04 A3004 RMK AO1,M
HTH,2023-07-17 02:35,-118.6315,38.5448,1282.89,102.20,30.20,8.11,280.00,9.00,0.00,29.99,M,10.00,M,CLR,M,M,M,M,M,M,M,M,M,M,M,M,M,M,95.50,KHTH 170235Z AUTO 28009KT 10SM CLR 39/M01 A2999 RMK A01,M
TMT,2023-07-17 02:35,-117.1971,39.4643,1749.34,91.00,28.40,10.62,340.00,9.00,0.00,30.15,M,10.00,M,CLR,M,M,M,M,M,M,M,M,M,M,M,M,M,M,86.22,KTMT 170235Z AUTO 34009KT 10SM CLR 33/M02 A3015 RMK AO2 T03271020,M
ELY,2023-07-17 02:53,-114.8453,39.2950,1909.00,M,M,M,M,M,0.00,30.19,M,M,M,M,M,M,M,M,M,M,M,M,M,M,M,M,M,M,M,KELY 170253Z AUTO A3019 RMK AO2 SLPNO 56003 PWINO FZRANO,M
VGT,2023-07-17 02:53,-115.1933,36.2111,667.00,112.00,34.00,7.09,110.00,7.00,0.00,29.80,1007.20,10.00,M,CLR,M,M,M,M,M,M,M,M,M,M,M,M,M,M,104.85,KVGT 170253Z 11007KT 10SM CLR 44/01 A2980 RMK AO2 SLP072 T04440011 55004,M
LOL,2023-07-17 02:53,-118.5701,40.0684,1192.43,98.00,32.00,9.90,300.00,14.00,0.00,29.96,1009.10,10.00,17.00,CLR,M,M,M,M,M,M,M,M,M,M,M,M,M,M,92.19,KLOL 170253Z AUTO 30014G17KT 10SM CLR 37/00 A2996 RMK AO2 SLP091 T03670000 55005,M
BVU,2023-07-17 02:55,-114.8611,35.9475,671.00,107.60,42.80,11.37,150.00,6.00,0.00,29.81,M,10.00,M,CLR,M,M,M,M,M,M,M,M,M,M,M,M,M,M,102.63,KBVU 170255Z AUTO 15006KT 10SM CLR 42/06 A2981 RMK AO2,M
CXP,2023-07-17 02:55,-119.7326,39.1923,1431.00,91.40,37.40,15.05,290.00,8.00,0.00,30.10,M,10.00,M,CLR,M,M,M,M,M,M,M,M,M,M,M,M,M,M,87.23,KCXP 170255Z AUTO 29008KT 10SM CLR 33/03 A3010 RMK AO2,M
INS,2023-07-17 02:55,-115.6733,36.5872,955.00,104.40,24.30,5.95,100.00,9.00,0.00,29.89,1006.20,10.00,M,CLR,M,M,M,M,M,M,M,M,M,M,M,M,M,M,96.70,KINS 170255Z AUTO 10009KT 10SM CLR 40/M04 A2989 RMK AO2 SLP062 T04021043 55004 $,M
RNO,2023-07-17 02:55,-119.7711,39.4839,1341.00,95.00,34.00,11.76,280.00,16.00,0.00,30.06,1011.10,10.00,M,FEW,BKN,M,M,14000.00,20000.00,M,M,M,M,M,M,M,M,M,90.00,KRNO 170255Z 28016KT 10SM FEW140 BKN200 35/01 A3006 RMK AO2 SLP111 T03500011 53003 $,M
LSV,2023-07-17 02:55,-115.0343,36.2362,570.00,108.50,34.30,7.94,80.00,7.00,0.00,29.75,1004.20,10.00,M,CLR,M,M,M,M,M,M,M,M,M,M,M,M,M,M,101.53,KLSV 170255Z AUTO 08007KT 10SM CLR 43/01 A2975 RMK AO2 SLP042 T04250013 55004 $,M
RTS,2023-07-17 02:55,-119.8764,39.6682,1539.00,87.80,32.00,13.59,270.00,9.00,0.00,30.13,M,10.00,M,CLR,M,M,M,M,M,M,M,M,M,M,M,M,M,M,84.08,KRTS 170255Z AUTO 27009KT 10SM CLR 31/00 A3013 RMK AO2,M
05U,2023-07-17 02:55,-116.0051,39.6042,1811.23,91.40,30.20,11.28,10.00,5.00,0.00,30.16,M,10.00,10.00,CLR,M,M,M,M,M,M,M,M,M,M,M,M,M,M,86.71,K05U 170255Z AUTO 01005G10KT 10SM CLR 33/M01 A3016 RMK A01,M
MEV,2023-07-17 02:55,-119.7500,38.9963,1441.42,87.80,39.20,18.09,270.00,10.00,0.00,30.09,M,10.00,M,CLR,M,M,M,M,M,M,M,M,M,M,M,M,M,M,84.22,KMEV 170255Z AUTO 27010KT 10SM CLR 31/04 A3009 RMK AO2,M
BAM,2023-07-17 02:55,-116.8743,40.5990,1382.36,98.60,26.60,7.80,320.00,6.00,0.00,30.04,M,10.00,M,CLR,M,M,M,M,M,M,M,M,M,M,M,M,M,M,92.07,KBAM 170255Z AUTO 32006KT 10SM CLR 37/M03 A3004 RMK AO1,M
HTH,2023-07-17 02:55,-118.6315,38.5448,1282.89,100.40,28.40,7.95,310.00,5.00,0.00,29.99,M,10.00,10.00,CLR,M,M,M,M,M,M,M,M,M,M,M,M,M,M,93.77,KHTH 170255Z AUTO 31005G10KT 10SM CLR 38/M02 A2999 RMK A01,M
TMT,2023-07-17 02:55,-117.1971,39.4643,1749.34,89.60,28.00,10.91,360.00,8.00,0.00,30.16,M,10.00,M,CLR,M,M,M,M,M,M,M,M,M,M,M,M,M,M,85.13,KTMT 170255Z AUTO 36008KT 10SM CLR 32/M02 A3016 RMK AO2 T03201023,M
EKO,2023-07-17 02:56,-115.7860,40.8242,1367.00,87.00,38.00,17.70,0.00,0.00,0.00,30.07,1011.50,10.00,M,CLR,M,M,M,M,M,M,M,M,M,M,M,M,M,M,83.53,KEKO 170256Z AUTO 00000KT 10SM CLR 31/03 A3007 RMK AO2 SLP115 T03060033 56008,M
WMC,2023-07-17 02:56,-117.8072,40.9019,1315.00,M,M,M,M,M,0.00,30.00,M,M,M,M,M,M,M,M,M,M,M,M,M,M,M,M,M,M,M,KWMC 170256Z AUTO A3000 RMK AO2 SLPNO 56003 PWINO FZRANO $,M
NFL,2023-07-17 02:56,-118.7010,39.4166,1199.00,98.00,38.00,12.57,290.00,8.00,0.00,29.97,1011.90,10.00,M,CLR,M,M,M,M,M,M,M,M,M,M,M,M,M,M,93.15,KNFL 170256Z AUTO 29008KT 10SM CLR 37/03 A2997 RMK AO2 SLP119 T03670033 55005,M
HND,2023-07-17 02:56,-115.1344,35.9729,742.79,109.00,40.00,9.79,170.00,10.00,0.00,29.86,1008.60,10.00,M,CLR,M,M,M,M,M,M,M,M,M,M,M,M,M,M,103.16,KHND 170256Z 17010KT 10SM CLR 43/04 A2986 RMK AO2 SLP086 T04280044 55004,M
TPH,2023-07-17 02:56,-117.0904,38.0505,1654.00,95.00,23.00,7.49,190.00,9.00,0.00,30.11,1009.20,10.00,M,CLR,M,M,M,M,M,M,M,M,M,M,M,M,M,M,88.76,KTPH 170256Z AUTO 19009KT 10SM CLR 35/M05 A3011 RMK AO2 SLP092 T03501050 55003 $,M
LAS,2023-07-17 02:56,-115.1634,36.0719,663.00,110.00,39.00,9.15,170.00,5.00,0.00,29.81,1005.70,10.00,M,FEW,SCT,M,M,12000.00,25000.00,M,M,M,M,M,M,M,M,M,103.83,KLAS 170256Z 17005KT 10SM FEW120 SCT250 43/04 A2981 RMK AO2 SLP057 T04330039 55004,M
BVU,2023-07-17 03:15,-114.8611,35.9475,671.00,105.80,46.40,13.75,160.00,7.00,0.00,29.81,M,10.00,M,CLR,M,M,M,M,M,M,M,M,M,M,M,M,M,M,101.97,KBVU 170315Z AUTO 16007KT 10SM CLR 41/08 A2981 RMK AO2,M
CXP,2023-07-17 03:15,-119.7326,39.1923,1431.00,89.60,39.20,17.09,0.00,0.00,0.00,30.10,M,10.00,M,CLR,M,M,M,M,M,M,M,M,M,M,M,M,M,M,85.73,KCXP 170315Z AUTO 00000KT 10SM CLR 32/04 A3010 RMK AO2,M
RTS,2023-07-17 03:15,-119.8764,39.6682,1539.00,86.00,32.00,14.40,300.00,6.00,0.00,30.14,M,10.00,M,CLR,M,M,M,M,M,M,M,M,M,M,M,M,M,M,82.64,KRTS 170315Z AUTO 30006KT 10SM CLR 30/M00 A3014 RMK AO2,M
05U,2023-07-17 03:15,-116.0051,39.6042,1811.23,91.40,23.00,8.38,50.00,4.00,0.00,30.16,M,10.00,11.00,CLR,M,M,M,M,M,M,M,M,M,M,M,M,M,M,86.08,K05U 170315Z AUTO 05004G11KT 10SM CLR 33/M05 A3016 RMK A01,M
MEV,2023-07-17 03:15,-119.7500,38.9963,1441.42,86.00,41.00,20.54,250.00,8.00,0.00,30.09,M,10.00,M,CLR,M,M,M,M,M,M,M,M,M,M,M,M,M,M,82.86,KMEV 170315Z AUTO 25008KT 10SM CLR 30/05 A3009 RMK AO2,M
BAM,2023-07-17 03:15,-116.8743,40.5990,1382.36,95.00,26.60,8.71,320.00,4.00,0.00,30.03,M,10.00,M,CLR,M,M,M,M,M,M,M,M,M,M,M,M,M,M,89.08,KBAM 170315Z AUTO 32004KT 10SM CLR 35/M03 A3003 RMK AO1,M
HTH,2023-07-17 03:15,-118.6315,38.5448,1282.89,98.60,33.80,10.45,M,6.00,0.00,30.00,M,10.00,17.00,CLR,M,M,M,M,M,M,M,M,M,M,M,M,M,M,92.94,KHTH 170315Z AUTO VRB06G17KT 10SM CLR 37/01 A3000 RMK A01,M
TMT,2023-07-17 03:15,-117.1971,39.4643,1749.34,86.00,28.40,12.44,350.00,7.00,0.00,30.16,M,10.00,M,CLR,M,M,M,M,M,M,M,M,M,M,M,M,M,M,82.54,KTMT 170315Z AUTO 35007KT 10SM CLR 30/M02 A3016 RMK AO2 T03011020,M
BVU,2023-07-17 03:35,-114.8611,35.9475,671.00,104.00,46.40,14.50,150.00,5.00,0.00,29.82,M,10.00,M,CLR,M,M,M,M,M,M,M,M,M,M,M,M,M,M,100.21,KBVU 170335Z AUTO 15005KT 10SM CLR 40/08 A2982 RMK AO2,M
CXP,2023-07-17 03:35,-119.7326,39.1923,1431.00,87.80,39.20,18.09,0.00,0.00,0.00,30.10,M,10.00,M,CLR,M,M,M,M,M,M,M,M,M,M,M,M,M,M,84.22,KCXP 170335Z AUTO 00000KT 10SM CLR 31/04 A3010 RMK AO2,M
RTS,2023-07-17 03:35,-119.8764,39.6682,1539.00,84.20,30.20,14.18,80.00,5.00,0.00,30.14,M,10.00,M,CLR,M,M,M,M,M,M,M,M,M,M,M,M,M,M,81.26,KRTS 170335Z AUTO 08005KT 10SM CLR 29/M01 A3014 RMK AO2,M
05U,2023-07-17 03:35,-116.0051,39.6042,1811.23,84.20,30.20,14.18,M,M,0.00,30.17,M,10.00,M,CLR,M,M,M,M,M,M,M,M,M,M,M,M,M,M,81.26,K05U 170335Z AUTO 10SM CLR 29/M01 A3017 RMK A01,M
MEV,2023-07-17 03:35,-119.7500,38.9963,1441.42,87.80,41.00,19.40,M,4.00,0.00,30.09,M,10.00,10.00,CLR,M,M,M,M,M,M,M,M,M,M,M,M,M,M,84.30,KMEV 170335Z AUTO VRB04G10KT 10SM CLR 31/05 A3009 RMK AO2,M
BAM,2023-07-17 03:35,-116.8743,40.5990,1382.36,91.40,28.40,10.48,310.00,4.00,0.00,30.03,M,10.00,M,CLR,M,M,M,M,M,M,M,M,M,M,M,M,M,M,86.53,KBAM 170335Z AUTO 31004KT 10SM CLR 33/M02 A3003 RMK AO1,M
HTH,2023-07-17 03:35,-118.6315,38.5448,1282.89,98.60,35.60,11.23,0.00,0.00,0.00,30.00,M,10.00,M,CLR,M,M,M,M,M,M,M,M,M,M,M,M,M,M,93.23,KHTH 170335Z AUTO 00000KT 10SM CLR 37/02 A3000 RMK A01,M
TMT,2023-07-17 03:35,-117.1971,39.4643,1749.34,81.30,30.60,15.83,360.00,4.00,0.00,30.16,M,10.00,M,CLR,M,M,M,M,M,M,M,M,M,M,M,M,M,M,79.23,KTMT 170335Z AUTO 36004KT 10SM CLR 27/M01 A3016 RMK AO2 T02741008,M
ELY,2023-07-17 03:53,-114.8453,39.2950,1909.00,M,M,M,M,M,0.00,30.20,M,M,M,M,M,M,M,M,M,M,M,M,M,M,M,M,M,M,M,KELY 170353Z AUTO A3020 RMK AO2 SLPNO PWINO FZRANO,M
VGT,2023-07-17 03:53,-115.1933,36.2111,667.00,107.00,39.00,9.99,120.00,5.00,0.00,29.82,1007.60,10.00,M,CLR,M,M,M,M,M,M,M,M,M,M,M,M,M,M,101.15,KVGT 170353Z 12005KT 10SM CLR 42/04 A2982 RMK AO2 SLP076 T04170039,M
LOL,2023-07-17 03:53,-118.5701,40.0684,1192.43,94.00,37.00,13.66,290.00,12.00,0.00,29.97,1009.20,10.00,M,CLR,M,M,M,M,M,M,M,M,M,M,M,M,M,M,89.53,KLOL 170353Z AUTO 29012KT 10SM CLR 34/03 A2997 RMK AO2 SLP092 T03440028,M
BVU,2023-07-17 03:55,-114.8611,35.9475,671.00,104.00,46.40,14.50,0.00,0.00,0.00,29.83,M,10.00,M,CLR,M,M,M,M,M,M,M,M,M,M,M,M,M,M,100.21,KBVU 170355Z AUTO 00000KT 10SM CLR 40/08 A2983 RMK AO2,M
CXP,2023-07-17 03:55,-119.7326,39.1923,1431.00,89.60,35.60,14.83,0.00,0.00,0.00,30.10,M,10.00,M,CLR,M,M,M,M,M,M,M,M,M,M,M,M,M,M,85.62,KCXP 170355Z AUTO 00000KT 10SM CLR 32/02 A3010 RMK AO2,M
INS,2023-07-17 03:55,-115.6733,36.5872,955.00,103.00,19.00,4.96,140.00,5.00,0.00,29.91,1006.60,10.00,M,CLR,M,M,M,M,M,M,M,M,M,M,M,M,M,M,95.10,KINS 170355Z AUTO 14005KT 10SM CLR 40/M07 A2991 RMK AO2 SLP066 T03951072 $,M
RNO,2023-07-17 03:55,-119.7711,39.4839,1341.00,92.00,38.00,15.12,290.00,12.00,0.00,30.06,1011.00,10.00,19.00,FEW,BKN,BKN,M,14000.00,18000.00,25000.00,M,M,M,M,M,M,M,M,87.78,KRNO 170355Z 29012G19KT 10SM FEW140 BKN180 BKN250 33/03 A3006 RMK AO2 SLP110 T03330033 $,M
LSV,2023-07-17 03:55,-115.0343,36.2362,570.00,103.30,38.50,10.93,100.00,4.00,0.00,29.77,1004.80,10.00,M,CLR,M,M,M,M,M,M,M,M,M,M,M,M,M,M,97.80,KLSV 170355Z AUTO 10004KT 10SM CLR 40/04 A2977 RMK AO2 SLP048 T03960036 $,M
RTS,2023-07-17 03:55,-119.8764,39.6682,1539.00,84.20,33.80,16.39,50.00,10.00,0.00,30.14,M,10.00,M,CLR,M,M,M,M,M,M,M,M,M,M,M,M,M,M,81.30,KRTS 170355Z AUTO 05010KT 10SM CLR 29/01 A3014 RMK AO2,M
05U,2023-07-17 03:55,-116.0051,39.6042,1811.23,82.40,28.40,13.96,M,M,0.00,30.18,M,10.00,M,CLR,M,M,M,M,M,M,M,M,M,M,M,M,M,M,79.94,K05U 170355Z AUTO 10SM CLR 28/M02 A3018 RMK A01,M
MEV,2023-07-17 03:55,-119.7500,38.9963,1441.42,86.00,41.00,20.54,240.00,4.00,0.00,30.10,M,10.00,M,CLR,M,M,M,M,M,M,M,M,M,M,M,M,M,M,82.86,KMEV 170355Z AUTO 24004KT 10SM CLR 30/05 A3010 RMK AO2,M
BAM,2023-07-17 03:55,-116.8743,40.5990,1382.36,89.60,26.60,10.30,300.00,3.00,0.00,30.04,M,10.00,M,CLR,M,M,M,M,M,M,M,M,M,M,M,M,M,M,85.02,KBAM 170355Z AUTO 30003KT 10SM CLR 32/M03 A3004 RMK AO1,M
HTH,2023-07-17 03:55,-118.6315,38.5448,1282.89,95.00,37.40,13.46,0.00,0.00,0.00,30.02,M,10.00,M,CLR,M,M,M,M,M,M,M,M,M,M,M,M,M,M,90.46,KHTH 170355Z AUTO 00000KT 10SM CLR 35/03 A3002 RMK A01,M
TMT,2023-07-17 03:55,-117.1971,39.4643,1749.34,75.70,30.00,18.58,0.00,0.00,0.00,30.17,M,10.00,M,CLR,M,M,M,M,M,M,M,M,M,M,M,M,M,M,75.70,KTMT 170355Z AUTO 00000KT 10SM CLR 24/M01 A3017 RMK AO2 T02431011,M
EKO,2023-07-17 03:56,-115.7860,40.8242,1367.00,83.00,35.00,17.88,60.00,3.00,0.00,30.08,1012.00,10.00,M,CLR,M,M,M,M,M,M,M,M,M,M,M,M,M,M,80.47,KEKO 170356Z AUTO 06003KT 10SM CLR 28/02 A3008 RMK AO2 SLP120 T02830017,M
WMC,2023-07-17 03:56,-117.8072,40.9019,1315.00,M,M,M,M,M,0.00,30.01,M,M,M,M,M,M,M,M,M,M,M,M,M,M,M,M,M,M,M,KWMC 170356Z AUTO A3001 RMK AO2 SLPNO PWINO FZRANO $,M
NFL,2023-07-17 03:56,-118.7010,39.4166,1199.00,91.00,42.00,18.23,260.00,9.00,0.00,29.98,1012.50,10.00,M,CLR,M,M,M,M,M,M,M,M,M,M,M,M,M,M,87.11,KNFL 170356Z AUTO 26009KT 10SM CLR 33/06 A2998 RMK AO2 SLP125 T03280056,M
HND,2023-07-17 03:56,-115.1344,35.9729,742.79,105.00,40.00,11.01,160.00,8.00,0.00,29.88,1009.00,10.00,M,CLR,M,M,M,M,M,M,M,M,M,M,M,M,M,M,99.61,KHND 170356Z AUTO 16008KT 10SM CLR 41/04 A2988 RMK AO2 SLP090 T04060044,M
TPH,2023-07-17 03:56,-117.0904,38.0505,1654.00,89.00,25.00,9.82,220.00,6.00,0.00,30.13,1009.50,10.00,M,CLR,M,M,M,M,M,M,M,M,M,M,M,M,M,M,84.45,KTPH 170356Z AUTO 22006KT 10SM CLR 32/M04 A3013 RMK AO2 SLP095 T03171039 $,M
LAS,2023-07-17 03:56,-115.1634,36.0719,663.00,107.00,38.00,9.60,170.00,5.00,0.00,29.82,1006.20,10.00,M,FEW,SCT,M,M,12000.00,25000.00,M,M,M,M,M,M,M,M,M,100.94,KLAS 170356Z 17005KT 10SM FEW120 SCT250 42/03 A2982 RMK AO2 SLP062 T04170033,M
BVU,2023-07-17 04:15,-114.8611,35.9475,671.00,100.40,51.80,19.76,0.00,0.00,0.00,29.83,M,10.00,M,CLR,M,M,M,M,M,M,M,M,M,M,M,M,M,M,97.90,KBVU 170415Z AUTO 00000KT 10SM CLR 38/11 A2983 RMK AO2,M
CXP,2023-07-17 04:15,-119.7326,39.1923,1431.00,87.80,37.40,16.86,0.00,0.00,0.00,30.11,M,10.00,M,CLR,M,M,M,M,M,M,M,M,M,M,M,M,M,M,84.16,KCXP 170415Z AUTO 00000KT 10SM CLR 31/03 A3011 RMK AO2,M
RTS,2023-07-17 04:15,-119.8764,39.6682,1539.00,84.20,32.00,15.25,290.00,6.00,0.00,30.14,M,10.00,M,CLR,M,M,M,M,M,M,M,M,M,M,M,M,M,M,81.28,KRTS 170415Z AUTO 29006KT 10SM CLR 29/00 A3014 RMK AO2,M
05U,2023-07-17 04:15,-116.0051,39.6042,1811.23,78.80,30.20,16.90,M,M,0.00,30.20,M,10.00,M,CLR,M,M,M,M,M,M,M,M,M,M,M,M,M,M,78.80,K05U 170415Z AUTO 10SM CLR 26/M01 A3020 RMK A01,M
MEV,2023-07-17 04:15,-119.7500,38.9963,1441.42,84.20,41.00,21.76,250.00,4.00,0.00,30.10,M,10.00,M,CLR,M,M,M,M,M,M,M,M,M,M,M,M,M,M,81.52,KMEV 170415Z AUTO 25004KT 10SM CLR 29/05 A3010 RMK AO2,M
BAM,2023-07-17 04:15,-116.8743,40.5990,1382.36,80.60,26.60,13.75,120.00,7.00,0.00,30.04,M,10.00,M,CLR,M,M,M,M,M,M,M,M,M,M,M,M,M,M,78.68,KBAM 170415Z AUTO 12007KT 10SM CLR 27/M03 A3004 RMK AO1,M
HTH,2023-07-17 04:15,-118.6315,38.5448,1282.89,93.20,42.80,17.55,10.00,7.00,0.00,30.03,M,10.00,M,CLR,M,M,M,M,M,M,M,M,M,M,M,M,M,M,89.17,KHTH 170415Z AUTO 01007KT 10SM CLR 34/06 A3003 RMK A01,M
TMT,2023-07-17 04:15,-117.1971,39.4643,1749.34,72.30,30.20,21.00,160.00,4.00,0.00,30.18,M,10.00,M,CLR,M,M,M,M,M,M,M,M,M,M,M,M,M,M,72.30,KTMT 170415Z AUTO 16004KT 10SM CLR 22/M01 A3018 RMK AO2 T02241010,M
BVU,2023-07-17 04:35,-114.8611,35.9475,671.00,98.60,51.80,20.87,0.00,0.00,0.00,29.84,M,10.00,M,CLR,M,M,M,M,M,M,M,M,M,M,M,M,M,M,96.00,KBVU 170435Z AUTO 00000KT 10SM CLR 37/11 A2984 RMK AO2,M
CXP,2023-07-17 04:35,-119.7326,39.1923,1431.00,87.80,33.80,14.61,270.00,5.00,0.00,30.11,M,10.00,M,CLR,M,M,M,M,M,M,M,M,M,M,M,M,M,M,84.10,KCXP 170435Z AUTO 27005KT 10SM CLR 31/01 A3011 RMK AO2,M
RTS,2023-07-17 04:35,-119.8764,39.6682,1539.00,80.60,35.60,19.79,290.00,4.00,0.00,30.15,M,10.00,M,CLR,M,M,M,M,M,M,M,M,M,M,M,M,M,M,78.94,KRTS 170435Z AUTO 29004KT 10SM CLR 27/02 A3015 RMK AO2,M
05U,2023-07-17 04:35,-116.0051,39.6042,1811.23,78.80,28.40,15.71,M,M,0.00,30.20,M,10.00,M,CLR,M,M,M,M,M,M,M,M,M,M,M,M,M,M,78.80,K05U 170435Z AUTO 10SM CLR 26/M02 A3020 RMK A01,M
MEV,2023-07-17 04:35,-119.7500,38.9963,1441.42,80.60,41.00,24.46,M,4.00,0.00,30.11,M,10.00,M,CLR,M,M,M,M,M,M,M,M,M,M,M,M,M,M,79.20,KMEV 170435Z AUTO VRB04KT 10SM CLR 27/05 A3011 RMK AO2,M
BAM,2023-07-17 04:35,-116.8743,40.5990,1382.36,80.60,28.40,14.81,130.00,4.00,0.00,30.05,M,10.00,M,CLR,M,M,M,M,M,M,M,M,M,M,M,M,M,M,78.72,KBAM 170435Z AUTO 13004KT 10SM CLR 27/M02 A3005 RMK AO1,M
HTH,2023-07-17 04:35,-118.6315,38.5448,1282.89,93.20,39.20,15.27,10.00,5.00,0.00,30.04,M,10.00,11.00,CLR,M,M,M,M,M,M,M,M,M,M,M,M,M,M,88.92,KHTH 170435Z AUTO 01005G11KT 10SM CLR 34/04 A3004 RMK A01,M
TMT,2023-07-17 04:35,-117.1971,39.4643,1749.34,72.30,28.20,19.35,160.00,3.00,0.00,30.19,M,10.00,M,CLR,M,M,M,M,M,M,M,M,M,M,M,M,M,M,72.30,KTMT 170435Z AUTO 16003KT 10SM CLR 22/M02 A3019 RMK AO2 T02241021,M
ELY,2023-07-17 04:53,-114.8453,39.2950,1909.00,M,M,M,M,M,0.00,30.21,M,M,M,M,M,M,M,M,M,M,M,M,M,M,M,M,M,M,M,KELY 170453Z AUTO A3021 RMK AO2 SLPNO PWINO FZRANO,M
VGT,2023-07-17 04:53,-115.1933,36.2111,667.00,106.00,42.00,11.55,290.00,4.00,0.00,29.84,1008.20,10.00,M,CLR,M,M,M,M,M,M,M,M,M,M,M,M,M,M,100.99,KVGT 170453Z AUTO 29004KT 10SM CLR 41/06 A2984 RMK AO2 SLP082 T04110056,M
LOL,2023-07-17 04:53,-118.5701,40.0684,1192.43,93.00,37.00,14.09,290.00,8.00,0.00,29.99,1009.80,10.00,M,CLR,M,M,M,M,M,M,M,M,M,M,M,M,M,M,88.63,KLOL 170453Z AUTO 29008KT 10SM CLR 34/03 A2999 RMK AO2 SLP098 T03390028,M
BVU,2023-07-17 04:55,-114.8611,35.9475,671.00,95.00,55.40,26.58,0.00,0.00,0.00,29.84,M,10.00,M,CLR,M,M,M,M,M,M,M,M,M,M,M,M,M,M,93.22,KBVU 170455Z AUTO 00000KT 10SM CLR 35/13 A2984 RMK AO2,M
CXP,2023-07-17 04:55,-119.7326,39.1923,1431.00,87.80,32.00,13.59,0.00,0.00,0.00,30.11,M,10.00,M,CLR,M,M,M,M,M,M,M,M,M,M,M,M,M,M,84.08,KCXP 170455Z AUTO 00000KT 10SM CLR 31/00 A3011 RMK AO2,M
INS,2023-07-17 04:55,-115.6733,36.5872,955.00,97.30,23.00,6.98,0.00,0.00,0.00,29.93,1007.30,10.00,M,CLR,M,M,M,M,M,M,M,M,M,M,M,M,M,M,90.66,KINS 170455Z AUTO 00000KT 10SM CLR 36/M05 A2993 RMK AO2 SLP073 T03631050 $,M
RNO,2023-07-17 04:55,-119.7711,39.4839,1341.00,91.00,39.00,16.23,290.00,13.00,0.00,30.07,1011.10,10.00,17.00,FEW,BKN,BKN,M,14000.00,18000.00,25000.00,M,M,M,M,M,M,M,M,86.94,KRNO 170455Z 29013G17KT 10SM FEW140 BKN180 BKN250 33/04 A3007 RMK AO2 SLP111 T03280039 $,M
LSV,2023-07-17 04:55,-115.0343,36.2362,570.00,101.00,39.00,11.94,320.00,5.00,0.00,29.78,1005.10,10.00,M,CLR,M,M,M,M,M,M,M,M,M,M,M,M,M,M,95.90,KLSV 170455Z AUTO 32005KT 10SM CLR 38/04 A2978 RMK AO2 SLP051 T03830039 $,M
RTS,2023-07-17 04:55,-119.8764,39.6682,1539.00,80.60,35.60,19.79,290.00,3.00,0.00,30.16,M,10.00,M,CLR,M,M,M,M,M,M,M,M,M,M,M,M,M,M,78.94,KRTS 170455Z AUTO 29003KT 10SM CLR 27/02 A3016 RMK AO2,M
05U,2023-07-17 04:55,-116.0051,39.6042,1811.23,75.20,33.80,22.02,M,M,0.00,30.21,M,10.00,M,CLR,M,M,M,M,M,M,M,M,M,M,M,M,M,M,75.20,K05U 170455Z AUTO 10SM CLR 24/01 A3021 RMK A01,M
MEV,2023-07-17 04:55,-119.7500,38.9963,1441.42,77.00,44.60,31.62,150.00,4.00,0.00,30.11,M,10.00,M,CLR,M,M,M,M,M,M,M,M,M,M,M,M,M,M,77.00,KMEV 170455Z AUTO 15004KT 10SM CLR 25/07 A3011 RMK AO2,M
BAM,2023-07-17 04:55,-116.8743,40.5990,1382.36,77.00,26.60,15.48,140.00,3.00,0.00,30.05,M,10.00,M,CLR,M,M,M,M,M,M,M,M,M,M,M,M,M,M,77.00,KBAM 170455Z AUTO 14003KT 10SM CLR 25/M03 A3005 RMK AO1,M
HTH,2023-07-17 04:55,-118.6315,38.5448,1282.89,93.20,37.40,14.23,320.00,8.00,0.00,30.04,M,10.00,M,CLR,M,M,M,M,M,M,M,M,M,M,M,M,M,M,88.83,KHTH 170455Z AUTO 32008KT 10SM CLR 34/03 A3004 RMK A01,M
TMT,2023-07-17 04:55,-117.1971,39.4643,1749.34,69.80,27.70,20.64,170.00,5.00,0.00,30.19,M,10.00,M,CLR,M,M,M,M,M,M,M,M,M,M,M,M,M,M,69.80,KTMT 170455Z AUTO 17005KT 10SM CLR 21/M02 A3019 RMK AO2 T02101024,M
EKO,2023-07-17 04:56,-115.7860,40.8242,1367.00,77.00,34.00,20.91,0.00,0.00,0.00,30.09,1012.20,10.00,M,CLR,M,M,M,M,M,M,M,M,M,M,M,M,M,M,77.00,KEKO 170456Z AUTO 00000KT 10SM CLR 25/01 A3009 RMK AO2 SLP122 T02500011,M
WMC,2023-07-17 04:56,-117.8072,40.9019,1315.00,M,M,M,M,M,0.00,30.03,M,M,M,M,M,M,M,M,M,M,M,M,M,M,M,M,M,M,M,KWMC 170456Z AUTO A3003 RMK AO2 SLPNO PWINO FZRANO $,M
NFL,2023-07-17 04:56,-118.7010,39.4166,1199.00,89.00,39.00,17.28,80.00,3.00,0.00,30.00,1013.10,10.00,M,CLR,M,M,M,M,M,M,M,M,M,M,M,M,M,M,85.21,KNFL 170456Z AUTO 08003KT 10SM CLR 32/04 A3000 RMK AO2 SLP131 T03170039,M
HND,2023-07-17 04:56,-115.1344,35.9729,742.79,100.00,39.00,12.30,200.00,4.00,0.00,29.89,1009.60,10.00,M,CLR,M,M,M,M,M,M,M,M,M,M,M,M,M,M,95.05,KHND 170456Z AUTO 20004KT 10SM CLR 38/04 A2989 RMK AO2 SLP096 T03780039,M
TPH,2023-07-17 04:56,-117.0904,38.0505,1654.00,85.00,25.00,11.16,240.00,5.00,0.00,30.15,1010.30,10.00,M,CLR,M,M,M,M,M,M,M,M,M,M,M,M,M,M,81.57,KTPH 170456Z AUTO 24005KT 10SM CLR 29/M04 A3015 RMK AO2 SLP103 T02941039 $,M
LAS,2023-07-17 04:56,-115.1634,36.0719,663.00,106.00,38.00,9.89,190.00,5.00,0.00,29.84,1006.60,10.00,M,CLR,M,M,M,M,M,M,M,M,M,M,M,M,M,M,100.06,KLAS 170456Z 19005KT 10SM CLR 41/03 A2984 RMK AO2 SLP066 T04110033,M
BVU,2023-07-17 05:15,-114.8611,35.9475,671.00,95.00,53.60,24.89,90.00,3.00,0.00,29.84,M,10.00,M,CLR,M,M,M,M,M,M,M,M,M,M,M,M,M,M,92.71,KBVU 170515Z AUTO 09003KT 10SM CLR 35/12 A2984 RMK AO2,M
CXP,2023-07-17 05:15,-119.7326,39.1923,1431.00,84.20,37.40,18.91,130.00,3.00,0.00,30.12,M,10.00,M,CLR,M,M,M,M,M,M,M,M,M,M,M,M,M,M,81.38,KCXP 170515Z AUTO 13003KT 10SM CLR 29/03 A3012 RMK AO2,M
RTS,2023-07-17 05:15,-119.8764,39.6682,1539.00,80.60,33.80,18.42,310.00,4.00,0.00,30.15,M,10.00,M,CLR,M,M,M,M,M,M,M,M,M,M,M,M,M,M,78.88,KRTS 170515Z AUTO 31004KT 10SM CLR 27/01 A3015 RMK AO2,M
05U,2023-07-17 05:15,-116.0051,39.6042,1811.23,73.40,30.20,20.23,M,M,0.00,30.22,M,10.00,M,CLR,M,M,M,M,M,M,M,M,M,M,M,M,M,M,73.40,K05U 170515Z AUTO 10SM CLR 23/M01 A3022 RMK A01,M
MEV,2023-07-17 05:15,-119.7500,38.9963,1441.42,73.40,46.40,38.18,100.00,8.00,0.00,30.12,M,10.00,M,CLR,M,M,M,M,M,M,M,M,M,M,M,M,M,M,73.40,KMEV 170515Z AUTO 10008KT 10SM CLR 23/08 A3012 RMK AO2,M
BAM,2023-07-17 05:15,-116.8743,40.5990,1382.36,73.40,24.80,16.20,140.00,8.00,0.00,30.05,M,10.00,M,CLR,M,M,M,M,M,M,M,M,M,M,M,M,M,M,73.40,KBAM 170515Z AUTO 14008KT 10SM CLR 23/M04 A3005 RMK AO1,M
HTH,2023-07-17 05:15,-118.6315,38.5448,1282.89,91.40,41.00,17.32,270.00,6.00,0.00,30.04,M,10.00,M,CLR,M,M,M,M,M,M,M,M,M,M,M,M,M,M,87.40,KHTH 170515Z AUTO 27006KT 10SM CLR 33/05 A3004 RMK A01,M
TMT,2023-07-17 05:15,-117.1971,39.4643,1749.34,67.30,27.00,21.85,180.00,5.00,0.00,30.19,M,10.00,M,CLR,M,M,M,M,M,M,M,M,M,M,M,M,M,M,67.30,KTMT 170515Z AUTO 18005KT 10SM CLR 20/M03 A3019 RMK AO2 T01961027,M
BVU,2023-07-17 05:35,-114.8611,35.9475,671.00,93.20,55.40,28.10,70.00,3.00,0.00,29.84,M,10.00,M,CLR,M,M,M,M,M,M,M,M,M,M,M,M,M,M,91.35,KBVU 170535Z AUTO 07003KT 10SM CLR 34/13 A2984 RMK AO2,M
CXP,2023-07-17 05:35,-119.7326,39.1923,1431.00,84.20,35.60,17.61,0.00,0.00,0.00,30.12,M,10.00,M,CLR,M,M,M,M,M,M,M,M,M,M,M,M,M,M,81.34,KCXP 170535Z AUTO 00000KT 10SM CLR 29/02 A3012 RMK AO2,M
RTS,2023-07-17 05:35,-119.8764,39.6682,1539.00,80.60,32.00,17.14,230.00,3.00,0.00,30.15,M,10.00,M,CLR,M,M,M,M,M,M,M,M,M,M,M,M,M,M,78.82,KRTS 170535Z AUTO 23003KT 10SM CLR 27/00 A3015 RMK AO2,M
05U,2023-07-17 05:35,-116.0051,39.6042,1811.23,69.80,33.80,26.43,M,M,0.00,30.21,M,10.00,M,CLR,M,M,M,M,M,M,M,M,M,M,M,M,M,M,69.80,K05U 170535Z AUTO 10SM CLR 21/01 A3021 RMK A01,M
MEV,2023-07-17 05:35,-119.7500,38.9963,1441.42,75.20,44.60,33.57,110.00,7.00,0.00,30.12,M,10.00,M,CLR,M,M,M,M,M,M,M,M,M,M,M,M,M,M,75.20,KMEV 170535Z AUTO 11007KT 10SM CLR 24/07 A3012 RMK AO2,M
BAM,2023-07-17 05:35,-116.8743,40.5990,1382.36,71.60,23.00,15.97,140.00,5.00,0.00,30.05,M,10.00,M,CLR,M,M,M,M,M,M,M,M,M,M,M,M,M,M,71.60,KBAM 170535Z AUTO 14005KT 10SM CLR 22/M05 A3005 RMK AO1,M
HTH,2023-07-17 05:35,-118.6315,38.5448,1282.89,91.40,42.80,18.56,250.00,4.00,0.00,30.04,M,10.00,M,CLR,M,M,M,M,M,M,M,M,M,M,M,M,M,M,87.52,KHTH 170535Z AUTO 25004KT 10SM CLR 33/06 A3004 RMK A01,M
TMT,2023-07-17 05:35,-117.1971,39.4643,1749.34,67.50,39.00,35.13,230.00,6.00,0.00,30.19,M,10.00,M,CLR,M,M,M,M,M,M,M,M,M,M,M,M,M,M,67.50,KTMT 170535Z AUTO 23006KT 10SM CLR 20/04 A3019 RMK AO2 T01970039,M
ELY,2023-07-17 05:53,-114.8453,39.2950,1909.00,M,M,M,M,M,0.00,30.21,M,M,M,M,M,M,M,M,M,M,M,M,M,M,M,M,M,M,M,KELY 170553Z AUTO A3021 RMK AO2 SLPNO 51006 PWINO FZRANO,M
VGT,2023-07-17 05:53,-115.1933,36.2111,667.00,104.00,41.00,11.79,240.00,5.00,0.00,29.84,1008.20,10.00,M,CLR,M,M,M,M,M,M,M,M,M,M,M,M,M,M,98.97,KVGT 170553Z AUTO 24005KT 10SM CLR 40/05 A2984 RMK AO2 SLP082 T04000050 10467 20394 50010,M
LOL,2023-07-17 05:53,-118.5701,40.0684,1192.43,85.00,38.00,18.87,150.00,5.00,0.00,30.00,1010.10,10.00,M,CLR,M,M,M,M,M,M,M,M,M,M,M,M,M,M,81.99,KLOL 170553Z AUTO 15005KT 10SM CLR 29/03 A3000 RMK AO2 SLP101 T02940033 10411 20289 51011,M
BVU,2023-07-17 05:55,-114.8611,35.9475,671.00,96.80,53.60,23.55,0.00,0.00,0.00,29.84,M,10.00,M,CLR,M,M,M,M,M,M,M,M,M,M,M,M,M,M,94.59,KBVU 170555Z AUTO 00000KT 10SM CLR 36/12 A2984 RMK AO2,M
CXP,2023-07-17 05:55,-119.7326,39.1923,1431.00,84.20,33.80,16.39,0.00,0.00,0.00,30.13,M,10.00,M,CLR,M,M,M,M,M,M,M,M,M,M,M,M,M,M,81.30,KCXP 170555Z AUTO 00000KT 10SM CLR 29/01 A3013 RMK AO2,M
INS,2023-07-17 05:55,-115.6733,36.5872,955.00,95.00,21.40,7.00,0.00,0.00,0.00,29.93,1007.20,10.00,M,CLR,M,M,M,M,M,M,M,M,M,M,M,M,M,M,88.64,KINS 170555Z AUTO 00000KT 10SM CLR 35/M06 A2993 RMK AO2 SLP072 T03511059 10439 20346 52012 $,M
RNO,2023-07-17 05:55,-119.7711,39.4839,1341.00,88.00,39.00,17.83,240.00,3.00,0.00,30.08,1011.10,10.00,M,BKN,BKN,M,M,18000.00,25000.00,M,M,M,M,M,M,M,M,M,84.38,KRNO 170555Z 24003KT 10SM BKN180 BKN250 31/04 A3008 RMK AO2 SLP111 T03110039 10406 20311 53006 $,M
LSV,2023-07-17 05:55,-115.0343,36.2362,570.00,97.30,40.00,13.88,20.00,6.00,0.00,29.79,1005.50,10.00,M,CLR,M,M,M,M,M,M,M,M,M,M,M,M,M,M,92.77,KLSV 170555Z AUTO 02006KT 10SM CLR 36/05 A2979 RMK AO2 SLP055 T03630045 10462 20363 52012 $,M
RTS,2023-07-17 05:55,-119.8764,39.6682,1539.00,80.60,30.20,15.94,230.00,6.00,0.00,30.15,M,10.00,M,CLR,M,M,M,M,M,M,M,M,M,M,M,M,M,M,78.77,KRTS 170555Z AUTO 23006KT 10SM CLR 27/M01 A3015 RMK AO2,M
05U,2023-07-17 05:55,-116.0051,39.6042,1811.23,68.00,28.40,22.59,M,M,0.00,30.22,M,10.00,M,CLR,M,M,M,M,M,M,M,M,M,M,M,M,M,M,68.00,K05U 170555Z AUTO 10SM CLR 20/M02 A3022 RMK A01,M
MEV,2023-07-17 05:55,-119.7500,38.9963,1441.42,71.60,44.60,37.89,120.00,6.00,0.00,30.12,M,10.00,M,CLR,M,M,M,M,M,M,M,M,M,M,M,M,M,M,71.60,KMEV 170555Z AUTO 12006KT 10SM CLR 22/07 A3012 RMK AO2,M
BAM,2023-07-17 05:55,-116.8743,40.5990,1382.36,71.60,23.00,15.97,150.00,6.00,0.00,30.05,M,10.00,M,CLR,M,M,M,M,M,M,M,M,M,M,M,M,M,M,71.60,KBAM 170555Z AUTO 15006KT 10SM CLR 22/M05 A3005 RMK AO1,M
HTH,2023-07-17 05:55,-118.6315,38.5448,1282.89,87.80,41.00,19.40,180.00,5.00,0.00,30.05,M,10.00,M,CLR,M,M,M,M,M,M,M,M,M,M,M,M,M,M,84.30,KHTH 170555Z AUTO 18005KT 10SM CLR 31/05 A3005 RMK A01,M
TMT,2023-07-17 05:55,-117.1971,39.4643,1749.34,66.60,40.30,38.12,330.00,3.00,0.00,30.19,M,10.00,M,CLR,M,M,M,M,M,M,M,M,M,M,M,M,M,M,66.60,KTMT 170555Z AUTO 33003KT 10SM CLR 19/05 A3019 RMK AO2 T01920046 10377 20191,M
EKO,2023-07-17 05:56,-115.7860,40.8242,1367.00,74.00,32.00,21.33,80.00,4.00,0.00,30.10,1012.20,10.00,M,CLR,M,M,M,M,M,M,M,M,M,M,M,M,M,M,74.00,KEKO 170556Z AUTO 08004KT 10SM CLR 23/00 A3010 RMK AO2 SLP122 T02330000 10389 20217 51008,M
WMC,2023-07-17 05:56,-117.8072,40.9019,1315.00,M,M,M,M,M,0.00,30.02,M,M,M,M,M,M,M,M,M,M,M,M,M,M,M,M,M,M,M,KWMC 170556Z AUTO A3002 RMK AO2 SLPNO 50006 PWINO FZRANO $,M
NFL,2023-07-17 05:56,-118.7010,39.4166,1199.00,84.00,41.00,21.90,0.00,0.00,0.00,30.01,1013.40,10.00,M,CLR,M,M,M,M,M,M,M,M,M,M,M,M,M,M,81.37,KNFL 170556Z AUTO 00000KT 10SM CLR 29/05 A3001 RMK AO2 SLP134 T02890050 10417 20289 51015,M
HND,2023-07-17 05:56,-115.1344,35.9729,742.79,100.00,43.00,14.36,230.00,9.00,0.00,29.90,1009.70,10.00,M,CLR,M,M,M,M,M,M,M,M,M,M,M,M,M,M,95.68,KHND 170556Z AUTO 23009KT 10SM CLR 38/06 A2990 RMK AO2 SLP097 T03780061 10461 20378 51012,M
TPH,2023-07-17 05:56,-117.0904,38.0505,1654.00,85.00,26.00,11.63,230.00,5.00,0.00,30.16,1010.10,10.00,M,CLR,M,M,M,M,M,M,M,M,M,M,M,M,M,M,81.64,KTPH 170556Z AUTO 23005KT 10SM CLR 29/M03 A3016 RMK AO2 SLP101 T02941033 10394 20278 51014 $,M
LAS,2023-07-17 05:56,-115.1634,36.0719,663.00,104.00,40.00,11.35,210.00,6.00,0.00,29.84,1006.80,10.00,M,CLR,M,M,M,M,M,M,M,M,M,M,M,M,M,M,98.73,KLAS 170556Z 21006KT 10SM CLR 40/04 A2984 RMK AO2 SLP068 T04000044 10461 20394 51011,M
BVU,2023-07-17 06:15,-114.8611,35.9475,671.00,93.20,55.40,28.10,30.00,3.00,0.00,29.84,M,10.00,M,CLR,M,M,M,M,M,M,M,M,M,M,M,M,M,M,91.35,KBVU 170615Z AUTO 03003KT 10SM CLR 34/13 A2984 RMK AO2,M
CXP,2023-07-17 06:15,-119.7326,39.1923,1431.00,82.40,35.60,18.67,0.00,0.00,0.00,30.12,M,10.00,M,CLR,M,M,M,M,M,M,M,M,M,M,M,M,M,M,80.08,KCXP 170615Z AUTO 00000KT 10SM CLR 28/02 A3012 RMK AO2,M
RTS,2023-07-17 06:15,-119.8764,39.6682,1539.00,80.60,30.20,15.94,250.00,5.00,0.00,30.16,M,10.00,M,CLR,M,M,M,M,M,M,M,M,M,M,M,M,M,M,78.77,KRTS 170615Z AUTO 25005KT 10SM CLR 27/M01 A3016 RMK AO2,M
05U,2023-07-17 06:15,-116.0051,39.6042,1811.23,66.20,26.60,22.33,M,M,0.00,30.21,M,10.00,M,CLR,M,M,M,M,M,M,M,M,M,M,M,M,M,M,66.20,K05U 170615Z AUTO 10SM CLR 19/M03 A3021 RMK A01,M
MEV,2023-07-17 06:15,-119.7500,38.9963,1441.42,69.80,46.40,43.13,70.00,5.00,0.00,30.12,M,10.00,M,CLR,M,M,M,M,M,M,M,M,M,M,M,M,M,M,69.80,KMEV 170615Z AUTO 07005KT 10SM CLR 21/08 A3012 RMK AO2,M
BAM,2023-07-17 06:15,-116.8743,40.5990,1382.36,73.40,23.00,15.03,150.00,5.00,0.00,30.05,M,10.00,M,CLR,M,M,M,M,M,M,M,M,M,M,M,M,M,M,73.40,KBAM 170615Z AUTO 15005KT 10SM CLR 23/M05 A3005 RMK AO1,M
HTH,2023-07-17 06:15,-118.6315,38.5448,1282.89,87.80,41.00,19.40,110.00,6.00,0.00,30.05,M,10.00,M,CLR,M,M,M,M,M,M,M,M,M,M,M,M,M,M,84.30,KHTH 170615Z AUTO 11006KT 10SM CLR 31/05 A3005 RMK A01,M
TMT,2023-07-17 06:15,-117.1971,39.4643,1749.34,66.40,37.00,33.74,0.00,0.00,0.00,30.19,M,10.00,M,CLR,M,M,M,M,M,M,M,M,M,M,M,M,M,M,66.40,KTMT 170615Z AUTO 00000KT 10SM CLR 19/03 A3019 RMK AO2 T01910027,M
BVU,2023-07-17 06:35,-114.8611,35.9475,671.00,93.20,53.60,26.31,0.00,0.00,0.00,29.85,M,10.00,M,CLR,M,M,M,M,M,M,M,M,M,M,M,M,M,M,90.86,KBVU 170635Z AUTO 00000KT 10SM CLR 34/12 A2985 RMK AO2,M
CXP,2023-07-17 06:35,-119.7326,39.1923,1431.00,82.40,35.60,18.67,0.00,0.00,0.00,30.13,M,10.00,M,CLR,M,M,M,M,M,M,M,M,M,M,M,M,M,M,80.08,KCXP 170635Z AUTO 00000KT 10SM CLR 28/02 A3013 RMK AO2,M
RTS,2023-07-17 06:35,-119.8764,39.6682,1539.00,82.40,28.40,13.96,200.00,5.00,0.00,30.16,M,10.00,M,CLR,M,M,M,M,M,M,M,M,M,M,M,M,M,M,79.94,KRTS 170635Z AUTO 20005KT 10SM CLR 28/M02 A3016 RMK AO2,M
05U,2023-07-17 06:35,-116.0051,39.6042,1811.23,66.20,28.40,24.04,M,M,0.00,30.21,M,10.00,M,CLR,M,M,M,M,M,M,M,M,M,M,M,M,M,M,66.20,K05U 170635Z AUTO 10SM CLR 19/M02 A3021 RMK A01,M
MEV,2023-07-17 06:35,-119.7500,38.9963,1441.42,69.80,44.60,40.29,110.00,3.00,0.00,30.12,M,10.00,M,CLR,M,M,M,M,M,M,M,M,M,M,M,M,M,M,69.80,KMEV 170635Z AUTO 11003KT 10SM CLR 21/07 A3012 RMK AO2,M
BAM,2023-07-17 06:35,-116.8743,40.5990,1382.36,73.40,23.00,15.03,150.00,7.00,0.00,30.05,M,10.00,M,CLR,M,M,M,M,M,M,M,M,M,M,M,M,M,M,73.40,KBAM 170635Z AUTO 15007KT 10SM CLR 23/M05 A3005 RMK AO1,M
HTH,2023-07-17 06:35,-118.6315,38.5448,1282.89,87.80,41.00,19.40,130.00,11.00,0.00,30.05,M,10.00,M,CLR,M,M,M,M,M,M,M,M,M,M,M,M,M,M,84.30,KHTH 170635Z AUTO 13011KT 10SM CLR 31/05 A3005 RMK A01,M
TMT,2023-07-17 06:35,-117.1971,39.4643,1749.34,60.80,34.50,37.19,200.00,5.00,0.00,30.19,M,10.00,M,CLR,M,M,M,M,M,M,M,M,M,M,M,M,M,M,60.80,KTMT 170635Z AUTO 20005KT 10SM CLR 16/01 A3019 RMK AO2 T01600014,M
05U,2023-07-17 06:50,-116.0051,39.6042,1811.23,66.20,26.60,22.33,M,M,0.00,30.21,M,10.00,M,CLR,M,M,M,M,M,M,M,M,M,M,M,M,M,M,66.20,K05U 170650Z AUTO 10SM CLR 19/M03 A3021 RMK A01,M
ELY,2023-07-17 06:53,-114.8453,39.2950,1909.00,M,M,M,M,M,0.00,30.23,M,M,M,M,M,M,M,M,M,M,M,M,M,M,M,M,M,M,M,KELY 170653Z AUTO A3023 RMK AO2 SLPNO PWINO FZRANO,M
VGT,2023-07-17 06:53,-115.1933,36.2111,667.00,100.00,42.00,13.82,350.00,5.00,0.00,29.84,1008.20,10.00,M,CLR,M,M,M,M,M,M,M,M,M,M,M,M,M,M,95.54,KVGT 170653Z AUTO 35005KT 10SM CLR 38/06 A2984 RMK AO2 SLP082 T03780056,M
LOL,2023-07-17 06:53,-118.5701,40.0684,1192.43,80.00,43.00,26.94,120.00,6.00,0.00,30.01,1010.60,10.00,M,CLR,M,M,M,M,M,M,M,M,M,M,M,M,M,M,78.97,KLOL 170653Z AUTO 12006KT 10SM CLR 27/06 A3001 RMK AO2 SLP106 T02670061,M
BVU,2023-07-17 06:55,-114.8611,35.9475,671.00,91.40,53.60,27.83,0.00,0.00,0.00,29.85,M,10.00,M,CLR,M,M,M,M,M,M,M,M,M,M,M,M,M,M,89.08,KBVU 170655Z AUTO 00000KT 10SM CLR 33/12 A2985 RMK AO2,M
CXP,2023-07-17 06:55,-119.7326,39.1923,1431.00,78.80,35.60,21.00,0.00,0.00,0.00,30.13,M,10.00,M,CLR,M,M,M,M,M,M,M,M,M,M,M,M,M,M,78.80,KCXP 170655Z AUTO 00000KT 10SM CLR 26/02 A3013 RMK AO2,M
INS,2023-07-17 06:55,-115.6733,36.5872,955.00,91.00,21.40,7.93,20.00,4.00,0.00,29.93,1007.20,10.00,M,CLR,M,M,M,M,M,M,M,M,M,M,M,M,M,M,85.68,KINS 170655Z AUTO 02004KT 10SM CLR 33/M06 A2993 RMK AO2 SLP072 T03271059 $,M
RNO,2023-07-17 06:55,-119.7711,39.4839,1341.00,86.00,40.00,19.76,170.00,4.00,0.00,30.09,1011.40,10.00,M,BKN,BKN,M,M,18000.00,25000.00,M,M,M,M,M,M,M,M,M,82.82,KRNO 170655Z 17004KT 10SM BKN180 BKN250 30/04 A3009 RMK AO2 SLP114 T03000044 $,M
LSV,2023-07-17 06:55,-115.0343,36.2362,570.00,95.00,41.70,15.91,0.00,0.00,0.00,29.78,1005.10,10.00,M,CLR,M,M,M,M,M,M,M,M,M,M,M,M,M,M,90.76,KLSV 170655Z AUTO 00000KT 10SM CLR 35/05 A2978 RMK AO2 SLP051 T03500054 $,M
RTS,2023-07-17 06:55,-119.8764,39.6682,1539.00,80.60,32.00,17.14,220.00,6.00,0.00,30.16,M,10.00,M,CLR,M,M,M,M,M,M,M,M,M,M,M,M,M,M,78.82,KRTS 170655Z AUTO 22006KT 10SM CLR 27/M00 A3016 RMK AO2,M
MEV,2023-07-17 06:55,-119.7500,38.9963,1441.42,71.60,44.60,37.89,90.00,6.00,0.00,30.12,M,10.00,M,CLR,M,M,M,M,M,M,M,M,M,M,M,M,M,M,71.60,KMEV 170655Z AUTO 09006KT 10SM CLR 22/07 A3012 RMK AO2,M
BAM,2023-07-17 06:55,-116.8743,40.5990,1382.36,73.40,23.00,15.03,330.00,7.00,0.00,30.07,M,10.00,M,CLR,M,M,M,M,M,M,M,M,M,M,M,M,M,M,73.40,KBAM 170655Z AUTO 33007KT 10SM CLR 23/M05 A3007 RMK AO1,M
HTH,2023-07-17 06:55,-118.6315,38.5448,1282.89,89.60,41.00,18.33,140.00,7.00,0.00,30.05,M,10.00,M,CLR,M,M,M,M,M,M,M,M,M,M,M,M,M,M,85.82,KHTH 170655Z AUTO 14007KT 10SM CLR 32/05 A3005 RMK A01,M
TMT,2023-07-17 06:55,-117.1971,39.4643,1749.34,63.50,32.00,30.58,220.00,6.00,0.00,30.19,M,10.00,M,CLR,M,M,M,M,M,M,M,M,M,M,M,M,M,M,63.50,KTMT 170655Z AUTO 22006KT 10SM CLR 18/00 A3019 RMK AO2 T01750000,M
EKO,2023-07-17 06:56,-115.7860,40.8242,1367.00,70.00,35.00,27.54,80.00,4.00,0.00,30.09,1011.90,10.00,M,CLR,M,M,M,M,M,M,M,M,M,M,M,M,M,M,70.00,KEKO 170656Z AUTO 08004KT 10SM CLR 21/02 A3009 RMK AO2 SLP119 T02110017,M
WMC,2023-07-17 06:56,-117.8072,40.9019,1315.00,M,M,M,M,M,0.00,30.03,M,M,M,M,M,M,M,M,M,M,M,M,M,M,M,M,M,M,M,KWMC 170656Z AUTO A3003 RMK AO2 SLPNO PWINO FZRANO $,M
NFL,2023-07-17 06:56,-118.7010,39.4166,1199.00,78.00,42.00,27.69,180.00,5.00,0.00,30.03,1013.90,10.00,M,CLR,M,M,M,M,M,M,M,M,M,M,M,M,M,M,78.00,KNFL 170656Z AUTO 18005KT 10SM CLR 26/06 A3003 RMK AO2 SLP139 T02560056,M
HND,2023-07-17 06:56,-115.1344,35.9729,742.79,97.00,46.00,17.64,210.00,8.00,0.00,29.90,1009.70,10.00,M,CLR,M,M,M,M,M,M,M,M,M,M,M,M,M,M,93.19,KHND 170656Z AUTO 21008KT 10SM CLR 36/08 A2990 RMK AO2 SLP097 T03610078 404610278,M
TPH,2023-07-17 06:56,-117.0904,38.0505,1654.00,85.00,27.00,12.12,280.00,4.00,0.00,30.17,1010.20,10.00,M,CLR,M,M,M,M,M,M,M,M,M,M,M,M,M,M,81.72,KTPH 170656Z AUTO 28004KT 10SM CLR 29/M03 A3017 RMK AO2 SLP102 T02941028 $,M
LAS,2023-07-17 06:56,-115.1634,36.0719,663.00,103.00,43.00,13.12,230.00,7.00,0.00,29.84,1006.60,10.00,M,CLR,M,M,M,M,M,M,M,M,M,M,M,M,M,M,98.56,KLAS 170656Z 23007KT 10SM CLR 39/06 A2984 RMK AO2 SLP066 T03940061,M
BVU,2023-07-17 07:15,-114.8611,35.9475,671.00,93.20,53.60,26.31,70.00,5.00,0.00,29.85,M,10.00,M,CLR,M,M,M,M,M,M,M,M,M,M,M,M,M,M,90.86,KBVU 170715Z AUTO 07005KT 10SM CLR 34/12 A2985 RMK AO2,M
CXP,2023-07-17 07:15,-119.7326,39.1923,1431.00,78.80,35.60,21.00,0.00,0.00,0.00,30.13,M,10.00,M,CLR,M,M,M,M,M,M,M,M,M,M,M,M,M,M,78.80,KCXP 170715Z AUTO 00000KT 10SM CLR 26/02 A3013 RMK AO2,M
RTS,2023-07-17 07:15,-119.8764,39.6682,1539.00,80.60,33.80,18.42,210.00,4.00,0.00,30.16,M,10.00,M,CLR,M,M,M,M,M,M,M,M,M,M,M,M,M,M,78.88,KRTS 170715Z AUTO 21004KT 10SM CLR 27/01 A3016 RMK AO2,M
05U,2023-07-17 07:15,-116.0051,39.6042,1811.23,66.20,26.60,22.33,M,M,0.00,30.20,M,10.00,M,CLR,M,M,M,M,M,M,M,M,M,M,M,M,M,M,66.20,K05U 170715Z AUTO 10SM CLR 19/M03 A3020 RMK A01,M
MEV,2023-07-17 07:15,-119.7500,38.9963,1441.42,71.60,44.60,37.89,50.00,5.00,0.00,30.12,M,10.00,M,CLR,M,M,M,M,M,M,M,M,M,M,M,M,M,M,71.60,KMEV 170715Z AUTO 05005KT 10SM CLR 22/07 A3012 RMK AO2,M
BAM,2023-07-17 07:15,-116.8743,40.5990,1382.36,73.40,24.80,16.20,190.00,4.00,0.00,30.07,M,10.00,M,CLR,M,M,M,M,M,M,M,M,M,M,M,M,M,M,73.40,KBAM 170715Z AUTO 19004KT 10SM CLR 23/M04 A3007 RMK AO1,M
HTH,2023-07-17 07:15,-118.6315,38.5448,1282.89,87.80,41.00,19.40,0.00,0.00,0.00,30.05,M,10.00,M,CLR,M,M,M,M,M,M,M,M,M,M,M,M,M,M,84.30,KHTH 170715Z AUTO 00000KT 10SM CLR 31/05 A3005 RMK A01,M
TMT,2023-07-17 07:15,-117.1971,39.4643,1749.34,61.00,37.80,42.07,220.00,7.00,0.00,30.21,M,10.00,M,CLR,M,M,M,M,M,M,M,M,M,M,M,M,M,M,61.00,KTMT 170715Z AUTO 22007KT 10SM CLR 16/03 A3021 RMK AO2 T01620032,M
BVU,2023-07-17 07:35,-114.8611,35.9475,671.00,89.60,53.60,29.45,360.00,5.00,0.00,29.85,M,10.00,M,CLR,M,M,M,M,M,M,M,M,M,M,M,M,M,M,87.36,KBVU 170735Z AUTO 36005KT 10SM CLR 32/12 A2985 RMK AO2,M
CXP,2023-07-17 07:35,-119.7326,39.1923,1431.00,82.40,33.80,17.38,M,3.00,0.00,30.13,M,10.00,M,CLR,M,M,M,M,M,M,M,M,M,M,M,M,M,M,80.03,KCXP 170735Z AUTO VRB03KT 10SM CLR 28/01 A3013 RMK AO2,M
RTS,2023-07-17 07:35,-119.8764,39.6682,1539.00,75.20,32.00,20.49,0.00,0.00,0.00,30.16,M,10.00,M,CLR,M,M,M,M,M,M,M,M,M,M,M,M,M,M,75.20,KRTS 170735Z AUTO 00000KT 10SM CLR 24/00 A3016 RMK AO2,M
05U,2023-07-17 07:35,-116.0051,39.6042,1811.23,62.60,26.60,25.32,M,M,0.00,30.20,M,10.00,M,CLR,M,M,M,M,M,M,M,M,M,M,M,M,M,M,62.60,K05U 170735Z AUTO 10SM CLR 17/M03 A3020 RMK A01,M
MEV,2023-07-17 07:35,-119.7500,38.9963,1441.42,69.80,44.60,40.29,0.00,0.00,0.00,30.12,M,10.00,M,CLR,M,M,M,M,M,M,M,M,M,M,M,M,M,M,69.80,KMEV 170735Z AUTO 00000KT 10SM CLR 21/07 A3012 RMK AO2,M
BAM,2023-07-17 07:35,-116.8743,40.5990,1382.36,75.20,24.80,15.25,0.00,0.00,0.00,30.07,M,10.00,M,CLR,M,M,M,M,M,M,M,M,M,M,M,M,M,M,75.20,KBAM 170735Z AUTO 00000KT 10SM CLR 24/M04 A3007 RMK AO1,M
HTH,2023-07-17 07:35,-118.6315,38.5448,1282.89,86.00,41.00,20.54,10.00,4.00,0.00,30.06,M,10.00,M,CLR,M,M,M,M,M,M,M,M,M,M,M,M,M,M,82.86,KHTH 170735Z AUTO 01004KT 10SM CLR 30/05 A3006 RMK A01,M
TMT,2023-07-17 07:35,-117.1971,39.4643,1749.34,64.00,30.00,27.71,200.00,5.00,0.00,30.21,M,10.00,M,CLR,M,M,M,M,M,M,M,M,M,M,M,M,M,M,64.00,KTMT 170735Z AUTO 20005KT 10SM CLR 18/M01 A3021 RMK AO2 T01781012,M
ELY,2023-07-17 07:53,-114.8453,39.2950,1909.00,M,M,M,M,M,0.00,30.22,M,M,M,M,M,M,M,M,M,M,M,M,M,M,M,M,M,M,M,KELY 170753Z AUTO A3022 RMK AO2 SLPNO PWINO FZRANO,M
VGT,2023-07-17 07:53,-115.1933,36.2111,667.00,98.00,42.00,14.68,0.00,0.00,0.00,29.83,1008.10,10.00,M,CLR,M,M,M,M,M,M,M,M,M,M,M,M,M,M,93.63,KVGT 170753Z AUTO 00000KT 10SM CLR 37/06 A2983 RMK AO2 SLP081 T03670056 404670306,M
LOL,2023-07-17 07:53,-118.5701,40.0684,1192.43,79.00,43.00,27.84,50.00,3.00,0.00,30.01,1010.60,10.00,M,CLR,M,M,M,M,M,M,M,M,M,M,M,M,M,M,79.00,KLOL 170753Z AUTO 05003KT 10SM CLR 26/06 A3001 RMK AO2 SLP106 T02610061 404110122,M
BVU,2023-07-17 07:55,-114.8611,35.9475,671.00,89.60,53.60,29.45,20.00,5.00,0.00,29.85,M,10.00,M,CLR,M,M,M,M,M,M,M,M,M,M,M,M,M,M,87.36,KBVU 170755Z AUTO 02005KT 10SM CLR 32/12 A2985 RMK AO2,M
CXP,2023-07-17 07:55,-119.7326,39.1923,1431.00,80.60,32.00,17.14,0.00,0.00,0.00,30.13,M,10.00,M,CLR,M,M,M,M,M,M,M,M,M,M,M,M,M,M,78.82,KCXP 170755Z AUTO 00000KT 10SM CLR 27/00 A3013 RMK AO2,M
INS,2023-07-17 07:55,-115.6733,36.5872,955.00,93.40,26.00,8.92,40.00,9.00,0.00,29.92,1006.70,10.00,M,CLR,M,M,M,M,M,M,M,M,M,M,M,M,M,M,87.82,KINS 170755Z AUTO 04009KT 10SM CLR 34/M03 A2992 RMK AO2 SLP067 T03411033 404410216 $,M
RNO,2023-07-17 07:55,-119.7711,39.4839,1341.00,85.00,40.00,20.40,230.00,4.00,0.00,30.09,1011.10,10.00,M,BKN,M,M,M,18000.00,M,M,M,M,M,M,M,M,M,M,82.06,KRNO 170755Z 23004KT 10SM BKN180 29/04 A3009 RMK AO2 SLP111 T02940044 404220178 $,M
LSV,2023-07-17 07:55,-115.0343,36.2362,570.00,93.00,48.40,21.84,320.00,4.00,0.00,29.78,1005.00,10.00,M,CLR,M,M,M,M,M,M,M,M,M,M,M,M,M,M,89.64,KLSV 170755Z AUTO 32004KT 10SM CLR 34/09 A2978 RMK AO2 SLP050 T03380091 404620275 $,M
RTS,2023-07-17 07:55,-119.8764,39.6682,1539.00,73.40,33.80,23.39,310.00,4.00,0.00,30.16,M,10.00,M,CLR,M,M,M,M,M,M,M,M,M,M,M,M,M,M,73.40,KRTS 170755Z AUTO 31004KT 10SM CLR 23/01 A3016 RMK AO2,M
05U,2023-07-17 07:55,-116.0051,39.6042,1811.23,64.40,24.80,22.06,M,M,0.00,30.20,M,10.00,M,CLR,M,M,M,M,M,M,M,M,M,M,M,M,M,M,64.40,K05U 170755Z AUTO 10SM CLR 18/M04 A3020 RMK A01,M
MEV,2023-07-17 07:55,-119.7500,38.9963,1441.42,71.60,42.80,35.37,0.00,0.00,0.00,30.12,M,10.00,M,CLR,M,M,M,M,M,M,M,M,M,M,M,M,M,M,71.60,KMEV 170755Z AUTO 00000KT 10SM CLR 22/06 A3012 RMK AO2,M
BAM,2023-07-17 07:55,-116.8743,40.5990,1382.36,68.00,23.00,18.06,190.00,5.00,0.00,30.07,M,10.00,M,CLR,M,M,M,M,M,M,M,M,M,M,M,M,M,M,68.00,KBAM 170755Z AUTO 19005KT 10SM CLR 20/M05 A3007 RMK AO1,M
HTH,2023-07-17 07:55,-118.6315,38.5448,1282.89,84.20,41.00,21.76,180.00,4.00,0.00,30.06,M,10.00,M,FEW,FEW,FEW,M,6500.00,7500.00,12000.00,M,M,M,M,M,M,M,M,81.52,KHTH 170755Z AUTO 18004KT 10SM FEW065 FEW075 FEW120 29/05 A3006 RMK A01,M
TMT,2023-07-17 07:55,-117.1971,39.4643,1749.34,61.00,30.60,31.56,160.00,6.00,0.00,30.21,M,10.00,M,CLR,M,M,M,M,M,M,M,M,M,M,M,M,M,M,61.00,KTMT 170755Z AUTO 16006KT 10SM CLR 16/M01 A3021 RMK AO2 T01611008 403780056,M
EKO,2023-07-17 07:56,-115.7860,40.8242,1367.00,66.00,36.00,32.88,0.00,0.00,0.00,30.09,1012.00,10.00,M,CLR,M,M,M,M,M,M,M,M,M,M,M,M,M,M,66.00,KEKO 170756Z AUTO 00000KT 10SM CLR 19/02 A3009 RMK AO2 SLP120 T01890022 403890111,M
WMC,2023-07-17 07:56,-117.8072,40.9019,1315.00,M,M,M,M,M,0.00,30.03,M,M,M,M,M,M,M,M,M,M,M,M,M,M,M,M,M,M,M,KWMC 170756Z AUTO A3003 RMK AO2 SLPNO PWINO FZRANO $,M
NFL,2023-07-17 07:56,-118.7010,39.4166,1199.00,79.00,42.00,26.79,200.00,3.00,0.00,30.03,1013.80,10.00,M,CLR,M,M,M,M,M,M,M,M,M,M,M,M,M,M,79.00,KNFL 170756Z AUTO 20003KT 10SM CLR 26/06 A3003 RMK AO2 SLP138 T02610056 404170183,M
HND,2023-07-17 07:56,-115.1344,35.9729,742.79,98.00,47.00,17.77,180.00,8.00,0.00,29.89,1009.50,10.00,M,CLR,M,M,M,M,M,M,M,M,M,M,M,M,M,M,94.34,KHND 170756Z AUTO 18008KT 10SM CLR 37/08 A2989 RMK AO2 SLP095 T03670083,M
TPH,2023-07-17 07:56,-117.0904,38.0505,1654.00,81.00,35.00,19.08,270.00,8.00,0.00,30.16,1010.00,10.00,M,CLR,M,M,M,M,M,M,M,M,M,M,M,M,M,M,79.16,KTPH 170756Z AUTO 27008KT 10SM CLR 27/02 A3016 RMK AO2 SLP100 T02720017 404000172 $,M
LAS,2023-07-17 07:56,-115.1634,36.0719,663.00,99.00,44.00,15.38,180.00,4.00,0.00,29.84,1006.70,10.00,M,FEW,M,M,M,25000.00,M,M,M,M,M,M,M,M,M,M,94.85,KLAS 170756Z 18004KT 10SM FEW250 37/07 A2984 RMK AO2 SLP067 T03720067 404670306,M
BVU,2023-07-17 08:15,-114.8611,35.9475,671.00,87.80,55.40,33.29,50.00,4.00,0.00,29.85,M,10.00,M,CLR,M,M,M,M,M,M,M,M,M,M,M,M,M,M,86.11,KBVU 170815Z AUTO 05004KT 10SM CLR 31/13 A2985 RMK AO2,M
CXP,2023-07-17 08:15,-119.7326,39.1923,1431.00,78.80,33.80,19.55,290.00,6.00,0.00,30.13,M,10.00,M,CLR,M,M,M,M,M,M,M,M,M,M,M,M,M,M,78.80,KCXP 170815Z AUTO 29006KT 10SM CLR 26/01 A3013 RMK AO2,M
RTS,2023-07-17 08:15,-119.8764,39.6682,1539.00,73.40,33.80,23.39,310.00,3.00,0.00,30.16,M,10.00,M,CLR,M,M,M,M,M,M,M,M,M,M,M,M,M,M,73.40,KRTS 170815Z AUTO 31003KT 10SM CLR 23/01 A3016 RMK AO2,M
05U,2023-07-17 08:15,-116.0051,39.6042,1811.23,62.60,26.60,25.32,M,M,0.00,30.20,M,10.00,M,CLR,M,M,M,M,M,M,M,M,M,M,M,M,M,M,62.60,K05U 170815Z AUTO 10SM CLR 17/M03 A3020 RMK A01,M
MEV,2023-07-17 08:15,-119.7500,38.9963,1441.42,71.60,42.80,35.37,0.00,0.00,0.00,30.12,M,10.00,M,CLR,M,M,M,M,M,M,M,M,M,M,M,M,M,M,71.60,KMEV 170815Z AUTO 00000KT 10SM CLR 22/06 A3012 RMK AO2,M
BAM,2023-07-17 08:15,-116.8743,40.5990,1382.36,68.00,24.80,19.47,220.00,5.00,0.00,30.07,M,10.00,M,CLR,M,M,M,M,M,M,M,M,M,M,M,M,M,M,68.00,KBAM 170815Z AUTO 22005KT 10SM CLR 20/M04 A3007 RMK AO1,M
HTH,2023-07-17 08:15,-118.6315,38.5448,1282.89,86.00,44.60,23.59,160.00,4.00,0.00,30.06,M,10.00,M,FEW,FEW,FEW,M,4400.00,6000.00,6500.00,M,M,M,M,M,M,M,M,83.07,KHTH 170815Z AUTO 16004KT 10SM FEW044 FEW060 FEW065 30/07 A3006 RMK A01,M
TMT,2023-07-17 08:15,-117.1971,39.4643,1749.34,66.60,28.20,23.52,200.00,7.00,0.00,30.21,M,10.00,M,CLR,M,M,M,M,M,M,M,M,M,M,M,M,M,M,66.60,KTMT 170815Z AUTO 20007KT 10SM CLR 19/M02 A3021 RMK AO2 T01921021,M
BVU,2023-07-17 08:35,-114.8611,35.9475,671.00,93.20,51.80,24.63,0.00,0.00,0.00,29.85,M,10.00,M,CLR,M,M,M,M,M,M,M,M,M,M,M,M,M,M,90.45,KBVU 170835Z AUTO 00000KT 10SM CLR 34/11 A2985 RMK AO2,M
CXP,2023-07-17 08:35,-119.7326,39.1923,1431.00,80.60,33.80,18.42,270.00,4.00,0.00,30.13,M,10.00,M,CLR,M,M,M,M,M,M,M,M,M,M,M,M,M,M,78.88,KCXP 170835Z AUTO 27004KT 10SM CLR 27/01 A3013 RMK AO2,M
RTS,2023-07-17 08:35,-119.8764,39.6682,1539.00,71.60,33.80,24.86,0.00,0.00,0.00,30.16,M,10.00,M,CLR,M,M,M,M,M,M,M,M,M,M,M,M,M,M,71.60,KRTS 170835Z AUTO 00000KT 10SM CLR 22/01 A3016 RMK AO2,M
05U,2023-07-17 08:35,-116.0051,39.6042,1811.23,66.20,24.80,20.72,M,M,0.00,30.20,M,10.00,M,CLR,M,M,M,M,M,M,M,M,M,M,M,M,M,M,66.20,K05U 170835Z AUTO 10SM CLR 19/M04 A3020 RMK A01,M
MEV,2023-07-17 08:35,-119.7500,38.9963,1441.42,69.80,42.80,37.61,0.00,0.00,0.00,30.12,M,10.00,M,CLR,M,M,M,M,M,M,M,M,M,M,M,M,M,M,69.80,KMEV 170835Z AUTO 00000KT 10SM CLR 21/06 A3012 RMK AO2,M
BAM,2023-07-17 08:35,-116.8743,40.5990,1382.36,64.40,24.80,22.06,190.00,5.00,0.00,30.07,M,10.00,M,CLR,M,M,M,M,M,M,M,M,M,M,M,M,M,M,64.40,KBAM 170835Z AUTO 19005KT 10SM CLR 18/M04 A3007 RMK AO1,M
HTH,2023-07-17 08:35,-118.6315,38.5448,1282.89,86.00,46.40,25.26,200.00,4.00,0.00,30.07,M,10.00,M,CLR,M,M,M,M,M,M,M,M,M,M,M,M,M,M,83.22,KHTH 170835Z AUTO 20004KT 10SM CLR 30/08 A3007 RMK A01,M
TMT,2023-07-17 08:35,-117.1971,39.4643,1749.34,59.50,39.00,46.51,310.00,6.00,0.00,30.20,M,10.00,M,CLR,M,M,M,M,M,M,M,M,M,M,M,M,M,M,59.50,KTMT 170835Z AUTO 31006KT 10SM CLR 15/04 A3020 RMK AO2 T01530039,M
P68,2023-07-17 08:53,-116.0056,39.6014,1993.00,69.00,22.00,16.73,180.00,9.00,0.00,30.18,1011.20,M,M,M,M,M,M,M,M,M,M,M,M,M,M,M,M,M,69.00,KP68 170853Z AUTO 18009KT 21/M06 A3018 RMK AO1 SLP112 T02061056 55004,M
ELY,2023-07-17 08:53,-114.8453,39.2950,1909.00,M,M,M,M,M,0.00,30.20,M,M,M,M,M,M,M,M,M,M,M,M,M,M,M,M,M,M,M,KELY 170853Z AUTO A3020 RMK AO2 SLPNO 58003 PWINO FZRANO,M
VGT,2023-07-17 08:53,-115.1933,36.2111,667.00,96.00,44.00,16.86,50.00,5.00,0.00,29.83,1007.90,10.00,M,CLR,M,M,M,M,M,M,M,M,M,M,M,M,M,M,91.95,KVGT 170853Z AUTO 05005KT 10SM CLR 36/07 A2983 RMK AO2 SLP079 T03560067 58002,M
LOL,2023-07-17 08:53,-118.5701,40.0684,1192.43,76.00,43.00,30.75,0.00,0.00,0.00,30.01,1010.60,10.00,M,CLR,M,M,M,M,M,M,M,M,M,M,M,M,M,M,76.00,KLOL 170853Z AUTO 00000KT 10SM CLR 24/06 A3001 RMK AO2 SLP106 T02440061 50004,M
BVU,2023-07-17 08:55,-114.8611,35.9475,671.00,87.80,53.60,31.17,20.00,5.00,0.00,29.84,M,10.00,M,CLR,M,M,M,M,M,M,M,M,M,M,M,M,M,M,85.72,KBVU 170855Z AUTO 02005KT 10SM CLR 31/12 A2984 RMK AO2,M
CXP,2023-07-17 08:55,-119.7326,39.1923,1431.00,77.00,33.80,20.74,0.00,0.00,0.00,30.13,M,10.00,M,CLR,M,M,M,M,M,M,M,M,M,M,M,M,M,M,77.00,KCXP 170855Z AUTO 00000KT 10SM CLR 25/01 A3013 RMK AO2,M
INS,2023-07-17 08:55,-115.6733,36.5872,955.00,87.30,26.20,10.90,0.00,0.00,0.00,29.92,1006.80,10.00,M,CLR,M,M,M,M,M,M,M,M,M,M,M,M,M,M,83.29,KINS 170855Z AUTO 00000KT 10SM CLR 31/M03 A2992 RMK AO2 SLP068 T03071032 56002 $,M
RNO,2023-07-17 08:55,-119.7711,39.4839,1341.00,83.00,38.00,20.13,M,3.00,0.00,30.09,1011.20,10.00,M,BKN,BKN,M,M,18000.00,22000.00,M,M,M,M,M,M,M,M,M,80.56,KRNO 170855Z VRB03KT 10SM BKN180 BKN220 28/03 A3009 RMK AO2 SLP112 T02830033 51004 $,M
LSV,2023-07-17 08:55,-115.0343,36.2362,570.00,93.00,51.00,24.06,330.00,7.00,0.00,29.78,1005.00,10.00,M,CLR,M,M,M,M,M,M,M,M,M,M,M,M,M,M,90.09,KLSV 170855Z AUTO 33007KT 10SM CLR 34/11 A2978 RMK AO2 SLP050 T03390105 57003 $,M
RTS,2023-07-17 08:55,-119.8764,39.6682,1539.00,71.60,32.00,23.13,290.00,4.00,0.00,30.17,M,10.00,M,CLR,M,M,M,M,M,M,M,M,M,M,M,M,M,M,71.60,KRTS 170855Z AUTO 29004KT 10SM CLR 22/00 A3017 RMK AO2,M
05U,2023-07-17 08:55,-116.0051,39.6042,1811.23,68.00,23.00,18.06,M,M,0.00,30.20,M,10.00,M,CLR,M,M,M,M,M,M,M,M,M,M,M,M,M,M,68.00,K05U 170855Z AUTO 10SM CLR 20/M05 A3020 RMK A01,M
MEV,2023-07-17 08:55,-119.7500,38.9963,1441.42,71.60,42.80,35.37,80.00,5.00,0.00,30.12,M,10.00,M,CLR,M,M,M,M,M,M,M,M,M,M,M,M,M,M,71.60,KMEV 170855Z AUTO 08005KT 10SM CLR 22/06 A3012 RMK AO2,M
BAM,2023-07-17 08:55,-116.8743,40.5990,1382.36,68.00,26.60,20.98,220.00,7.00,0.00,30.06,M,10.00,M,CLR,M,M,M,M,M,M,M,M,M,M,M,M,M,M,68.00,KBAM 170855Z AUTO 22007KT 10SM CLR 20/M03 A3006 RMK AO1,M
HTH,2023-07-17 08:55,-118.6315,38.5448,1282.89,87.80,42.80,20.79,0.00,0.00,0.00,30.07,M,10.00,M,CLR,M,M,M,M,M,M,M,M,M,M,M,M,M,M,84.40,KHTH 170855Z AUTO 00000KT 10SM CLR 31/06 A3007 RMK A01,M
TMT,2023-07-17 08:55,-117.1971,39.4643,1749.34,58.30,36.50,44.01,360.00,3.00,0.00,30.21,M,10.00,M,CLR,M,M,M,M,M,M,M,M,M,M,M,M,M,M,58.30,KTMT 170855Z AUTO 36003KT 10SM CLR 15/03 A3021 RMK AO2 T01460025,M
EKO,2023-07-17 08:56,-115.7860,40.8242,1367.00,64.00,34.00,32.56,70.00,4.00,0.00,30.09,1011.80,10.00,M,CLR,M,M,M,M,M,M,M,M,M,M,M,M,M,M,64.00,KEKO 170856Z AUTO 07004KT 10SM CLR 18/01 A3009 RMK AO2 SLP118 T01780011 58001,M
WMC,2023-07-17 08:56,-117.8072,40.9019,1315.00,M,M,M,M,M,0.00,30.03,M,M,M,M,M,M,M,M,M,M,M,M,M,M,M,M,M,M,M,KWMC 170856Z AUTO A3003 RMK AO2 LTG DSNT NW SLPNO 51003 PWINO FZRANO $,M
NFL,2023-07-17 08:56,-118.7010,39.4166,1199.00,83.00,42.00,23.51,280.00,3.00,0.00,30.02,1013.70,10.00,M,CLR,M,M,M,M,M,M,M,M,M,M,M,M,M,M,80.74,KNFL 170856Z AUTO 28003KT 10SM CLR 28/06 A3002 RMK AO2 SLP137 T02830056 50003,M
HND,2023-07-17 08:56,-115.1344,35.9729,742.79,98.00,46.00,17.11,190.00,9.00,0.00,29.89,1009.40,10.00,M,CLR,M,M,M,M,M,M,M,M,M,M,M,M,M,M,94.18,KHND 170856Z AUTO 19009KT 10SM CLR 37/08 A2989 RMK AO2 SLP094 T03670078 58002,M
TPH,2023-07-17 08:56,-117.0904,38.0505,1654.00,83.00,35.00,17.88,0.00,0.00,0.00,30.16,1009.70,10.00,M,CLR,M,M,M,M,M,M,M,M,M,M,M,M,M,M,80.47,KTPH 170856Z AUTO 00000KT 10SM CLR 28/02 A3016 RMK AO2 SLP097 T02830017 58000 $,M
LAS,2023-07-17 08:56,-115.1634,36.0719,663.00,98.00,45.00,16.47,180.00,7.00,0.00,29.83,1006.50,10.00,M,FEW,M,M,M,25000.00,M,M,M,M,M,M,M,M,M,M,94.02,KLAS 170856Z 18007KT 10SM FEW250 37/07 A2983 RMK AO2 SLP065 T03670072 58003,M
BVU,2023-07-17 09:15,-114.8611,35.9475,671.00,91.40,50.00,24.37,M,3.00,0.00,29.85,M,10.00,M,CLR,M,M,M,M,M,M,M,M,M,M,M,M,M,M,88.36,KBVU 170915Z AUTO VRB03KT 10SM CLR 33/10 A2985 RMK AO2,M
CXP,2023-07-17 09:15,-119.7326,39.1923,1431.00,75.20,33.80,22.02,0.00,0.00,0.00,30.13,M,10.00,M,CLR,M,M,M,M,M,M,M,M,M,M,M,M,M,M,75.20,KCXP 170915Z AUTO 00000KT 10SM CLR 24/01 A3013 RMK AO2,M
RTS,2023-07-17 09:15,-119.8764,39.6682,1539.00,69.80,33.80,26.43,300.00,9.00,0.00,30.17,M,10.00,M,CLR,M,M,M,M,M,M,M,M,M,M,M,M,M,M,69.80,KRTS 170915Z AUTO 30009KT 10SM CLR 21/01 A3017 RMK AO2,M
05U,2023-07-17 09:15,-116.0051,39.6042,1811.23,66.20,23.00,19.22,M,M,0.00,30.20,M,10.00,M,CLR,M,M,M,M,M,M,M,M,M,M,M,M,M,M,66.20,K05U 170915Z AUTO 10SM CLR 19/M05 A3020 RMK A01,M
MEV,2023-07-17 09:15,-119.7500,38.9963,1441.42,73.40,39.20,28.96,330.00,4.00,0.00,30.12,M,10.00,M,CLR,M,M,M,M,M,M,M,M,M,M,M,M,M,M,73.40,KMEV 170915Z AUTO 33004KT 10SM CLR 23/04 A3012 RMK AO2,M
HTH,2023-07-17 09:15,-118.6315,38.5448,1282.89,86.00,44.60,23.59,260.00,7.00,0.00,30.06,M,10.00,M,CLR,M,M,M,M,M,M,M,M,M,M,M,M,M,M,83.07,KHTH 170915Z AUTO 26007KT 10SM CLR 30/07 A3006 RMK A01,M
TMT,2023-07-17 09:15,-117.1971,39.4643,1749.34,58.30,34.70,40.98,280.00,4.00,0.00,30.20,M,10.00,M,CLR,M,M,M,M,M,M,M,M,M,M,M,M,M,M,58.30,KTMT 170915Z AUTO 28004KT 10SM CLR 15/02 A3020 RMK AO2 T01460015,M
BAM,2023-07-17 09:20,-116.8743,40.5990,1382.36,69.80,26.60,19.72,200.00,6.00,0.00,30.06,M,10.00,M,CLR,M,M,M,M,M,M,M,M,M,M,M,M,M,M,69.80,KBAM 170920Z AUTO 20006KT 10SM CLR 21/M03 A3006 RMK AO1,M
BVU,2023-07-17 09:35,-114.8611,35.9475,671.00,91.40,50.00,24.37,70.00,4.00,0.00,29.84,M,10.00,M,CLR,M,M,M,M,M,M,M,M,M,M,M,M,M,M,88.36,KBVU 170935Z AUTO 07004KT 10SM CLR 33/10 A2984 RMK AO2,M
CXP,2023-07-17 09:35,-119.7326,39.1923,1431.00,77.00,32.00,19.30,0.00,0.00,0.00,30.13,M,10.00,M,CLR,M,M,M,M,M,M,M,M,M,M,M,M,M,M,77.00,KCXP 170935Z AUTO 00000KT 10SM CLR 25/M00 A3013 RMK AO2,M
RTS,2023-07-17 09:35,-119.8764,39.6682,1539.00,71.60,33.80,24.86,310.00,6.00,0.00,30.17,M,10.00,M,CLR,M,M,M,M,M,M,M,M,M,M,M,M,M,M,71.60,KRTS 170935Z AUTO 31006KT 10SM CLR 22/01 A3017 RMK AO2,M
05U,2023-07-17 09:35,-116.0051,39.6042,1811.23,66.20,23.00,19.22,M,M,0.00,30.20,M,10.00,M,CLR,M,M,M,M,M,M,M,M,M,M,M,M,M,M,66.20,K05U 170935Z AUTO 10SM CLR 19/M05 A3020 RMK A01,M
MEV,2023-07-17 09:35,-119.7500,38.9963,1441.42,68.00,42.80,40.00,80.00,7.00,0.00,30.11,M,10.00,M,CLR,M,M,M,M,M,M,M,M,M,M,M,M,M,M,68.00,KMEV 170935Z AUTO 08007KT 10SM CLR 20/06 A3011 RMK AO2,M
BAM,2023-07-17 09:35,-116.8743,40.5990,1382.36,69.80,26.60,19.72,210.00,5.00,0.00,30.06,M,10.00,M,CLR,M,M,M,M,M,M,M,M,M,M,M,M,M,M,69.80,KBAM 170935Z AUTO 21005KT 10SM CLR 21/M03 A3006 RMK AO1,M
HTH,2023-07-17 09:35,-118.6315,38.5448,1282.89,84.20,46.40,26.76,270.00,8.00,0.00,30.06,M,10.00,M,CLR,M,M,M,M,M,M,M,M,M,M,M,M,M,M,81.87,KHTH 170935Z AUTO 27008KT 10SM CLR 29/08 A3006 RMK A01,M
TMT,2023-07-17 09:35,-117.1971,39.4643,1749.34,57.20,33.40,40.48,0.00,0.00,0.00,30.21,M,10.00,M,CLR,M,M,M,M,M,M,M,M,M,M,M,M,M,M,57.20,KTMT 170935Z AUTO 00000KT 10SM CLR 14/01 A3021 RMK AO2 T01400008,M
P68,2023-07-17 09:53,-116.0056,39.6014,1993.00,68.00,23.00,18.06,210.00,9.00,0.00,30.17,1010.80,M,M,M,M,M,M,M,M,M,M,M,M,M,M,M,M,M,68.00,KP68 170953Z AUTO 21009KT 20/M05 A3017 RMK AO1 SLP108 T02001050,M
ELY,2023-07-17 09:53,-114.8453,39.2950,1909.00,M,M,M,M,M,0.00,30.20,M,M,M,M,M,M,M,M,M,M,M,M,M,M,M,M,M,M,M,KELY 170953Z AUTO A3020 RMK AO2 SLPNO PWINO FZRANO,M
VGT,2023-07-17 09:53,-115.1933,36.2111,667.00,92.00,43.00,18.36,300.00,6.00,0.00,29.83,1008.20,10.00,M,CLR,M,M,M,M,M,M,M,M,M,M,M,M,M,M,88.08,KVGT 170953Z AUTO 30006KT 10SM CLR 33/06 A2983 RMK AO2 SLP082 T03330061,M
LOL,2023-07-17 09:53,-118.5701,40.0684,1192.43,72.00,42.00,33.84,200.00,8.00,0.00,30.04,1011.70,10.00,M,FEW,M,M,M,10000.00,M,M,M,M,M,M,M,M,M,M,72.00,KLOL 170953Z AUTO 20008KT 10SM FEW100 22/06 A3004 RMK AO2 PRESRR SLP117 T02220056,M
BVU,2023-07-17 09:55,-114.8611,35.9475,671.00,87.80,51.80,29.18,10.00,5.00,0.00,29.85,M,10.00,M,CLR,M,M,M,M,M,M,M,M,M,M,M,M,M,M,85.39,KBVU 170955Z AUTO 01005KT 10SM CLR 31/11 A2985 RMK AO2,M
CXP,2023-07-17 09:55,-119.7326,39.1923,1431.00,75.20,33.80,22.02,0.00,0.00,0.00,30.13,M,10.00,M,CLR,M,M,M,M,M,M,M,M,M,M,M,M,M,M,75.20,KCXP 170955Z AUTO 00000KT 10SM CLR 24/01 A3013 RMK AO2,M
INS,2023-07-17 09:55,-115.6733,36.5872,955.00,81.70,24.00,11.91,290.00,3.00,0.00,29.92,1007.00,10.00,M,CLR,M,M,M,M,M,M,M,M,M,M,M,M,M,M,79.27,KINS 170955Z AUTO 29003KT 10SM CLR 28/M04 A2992 RMK AO2 SLP070 T02761044 $,M
RNO,2023-07-17 09:55,-119.7711,39.4839,1341.00,85.00,32.00,14.86,310.00,9.00,0.00,30.10,1011.30,10.00,M,SCT,BKN,M,M,18000.00,22000.00,M,M,M,M,M,M,M,M,M,81.87,KRNO 170955Z 31009KT 10SM SCT180 BKN220 29/00 A3010 RMK AO2 SLP113 T02940000 $,M
LSV,2023-07-17 09:55,-115.0343,36.2362,570.00,92.00,50.00,23.92,340.00,6.00,0.00,29.78,1005.10,10.00,M,CLR,M,M,M,M,M,M,M,M,M,M,M,M,M,M,88.94,KLSV 170955Z AUTO 34006KT 10SM CLR 33/10 A2978 RMK AO2 SLP051 T03330100 $,M
RTS,2023-07-17 09:55,-119.8764,39.6682,1539.00,69.80,35.60,28.39,0.00,0.00,0.00,30.17,M,10.00,M,CLR,M,M,M,M,M,M,M,M,M,M,M,M,M,M,69.80,KRTS 170955Z AUTO 00000KT 10SM CLR 21/02 A3017 RMK AO2,M
05U,2023-07-17 09:55,-116.0051,39.6042,1811.23,68.00,23.00,18.06,M,M,0.00,30.19,M,10.00,M,CLR,M,M,M,M,M,M,M,M,M,M,M,M,M,M,68.00,K05U 170955Z AUTO 10SM CLR 20/M05 A3019 RMK A01,M
MEV,2023-07-17 09:55,-119.7500,38.9963,1441.42,68.00,42.80,40.00,100.00,4.00,0.00,30.12,M,10.00,M,CLR,M,M,M,M,M,M,M,M,M,M,M,M,M,M,68.00,KMEV 170955Z AUTO 10004KT 10SM CLR 20/06 A3012 RMK AO2,M
BAM,2023-07-17 09:55,-116.8743,40.5990,1382.36,66.20,26.60,22.33,210.00,3.00,0.00,30.06,M,10.00,M,CLR,M,M,M,M,M,M,M,M,M,M,M,M,M,M,66.20,KBAM 170955Z AUTO 21003KT 10SM CLR 19/M03 A3006 RMK AO1,M
HTH,2023-07-17 09:55,-118.6315,38.5448,1282.89,84.20,46.40,26.76,0.00,0.00,0.00,30.06,M,10.00,M,CLR,M,M,M,M,M,M,M,M,M,M,M,M,M,M,81.87,KHTH 170955Z AUTO 00000KT 10SM CLR 29/08 A3006 RMK A01,M
TMT,2023-07-17 09:55,-117.1971,39.4643,1749.34,52.00,34.30,50.72,120.00,6.00,0.00,30.20,M,10.00,M,CLR,M,M,M,M,M,M,M,M,M,M,M,M,M,M,52.00,KTMT 170955Z AUTO 12006KT 10SM CLR 11/01 A3020 RMK AO2 T01110013,M
EKO,2023-07-17 09:56,-115.7860,40.8242,1367.00,65.00,39.00,38.31,30.00,6.00,0.00,30.09,1011.90,10.00,M,CLR,M,M,M,M,M,M,M,M,M,M,M,M,M,M,65.00,KEKO 170956Z AUTO 03006KT 10SM CLR 18/04 A3009 RMK AO2 SLP119 T01830039,M
WMC,2023-07-17 09:56,-117.8072,40.9019,1315.00,M,M,M,M,M,0.00,30.03,M,M,M,M,M,M,M,M,M,M,M,M,M,M,M,M,M,M,M,KWMC 170956Z AUTO A3003 RMK AO2 SLPNO PWINO FZRANO $,M
NFL,2023-07-17 09:56,-118.7010,39.4166,1199.00,82.00,51.00,34.12,200.00,3.00,0.00,30.05,1014.40,10.00,M,CLR,M,M,M,M,M,M,M,M,M,M,M,M,M,M,80.84,KNFL 170956Z AUTO 20003KT 10SM CLR 28/11 A3005 RMK AO2 SLP144 T02780106,M
HND,2023-07-17 09:56,-115.1344,35.9729,742.79,92.00,45.00,19.82,190.00,10.00,0.00,29.89,1009.40,10.00,M,CLR,M,M,M,M,M,M,M,M,M,M,M,M,M,M,88.27,KHND 170956Z AUTO 19010KT 10SM CLR 33/07 A2989 RMK AO2 SLP094 T03330072,M
TPH,2023-07-17 09:56,-117.0904,38.0505,1654.00,76.00,29.00,17.66,0.00,0.00,0.00,30.16,1010.30,10.00,M,CLR,M,M,M,M,M,M,M,M,M,M,M,M,M,M,76.00,KTPH 170956Z AUTO 00000KT 10SM CLR 24/M02 A3016 RMK AO2 SLP103 T02441017 $,M
LAS,2023-07-17 09:56,-115.1634,36.0719,663.00,98.00,45.00,16.47,180.00,7.00,0.00,29.83,1006.30,10.00,M,FEW,M,M,M,25000.00,M,M,M,M,M,M,M,M,M,M,94.02,KLAS 170956Z 18007KT 10SM FEW250 37/07 A2983 RMK AO2 SLP063 T03670072,M
BVU,2023-07-17 10:15,-114.8611,35.9475,671.00,89.60,51.80,27.56,0.00,0.00,0.00,29.85,M,10.00,M,CLR,M,M,M,M,M,M,M,M,M,M,M,M,M,M,87.00,KBVU 171015Z AUTO 00000KT 10SM CLR 32/11 A2985 RMK AO2,M
CXP,2023-07-17 10:15,-119.7326,39.1923,1431.00,78.80,32.00,18.18,320.00,4.00,0.00,30.14,M,10.00,M,CLR,M,M,M,M,M,M,M,M,M,M,M,M,M,M,78.80,KCXP 171015Z AUTO 32004KT 10SM CLR 26/M00 A3014 RMK AO2,M
RTS,2023-07-17 10:15,-119.8764,39.6682,1539.00,71.60,33.80,24.86,330.00,4.00,0.00,30.18,M,10.00,M,CLR,M,M,M,M,M,M,M,M,M,M,M,M,M,M,71.60,KRTS 171015Z AUTO 33004KT 10SM CLR 22/01 A3018 RMK AO2,M
05U,2023-07-17 10:15,-116.0051,39.6042,1811.23,66.20,23.00,19.22,M,M,0.00,30.20,M,10.00,M,CLR,M,M,M,M,M,M,M,M,M,M,M,M,M,M,66.20,K05U 171015Z AUTO 10SM CLR 19/M05 A3020 RMK A01,M
MEV,2023-07-17 10:15,-119.7500,38.9963,1441.42,64.40,42.80,45.32,60.00,6.00,0.00,30.12,M,10.00,M,CLR,M,M,M,M,M,M,M,M,M,M,M,M,M,M,64.40,KMEV 171015Z AUTO 06006KT 10SM CLR 18/06 A3012 RMK AO2,M
HTH,2023-07-17 10:15,-118.6315,38.5448,1282.89,82.40,46.40,28.36,0.00,0.00,0.00,30.06,M,10.00,M,CLR,M,M,M,M,M,M,M,M,M,M,M,M,M,M,80.64,KHTH 171015Z AUTO 00000KT 10SM CLR 28/08 A3006 RMK A01,M
TMT,2023-07-17 10:15,-117.1971,39.4643,1749.34,53.40,33.30,46.29,300.00,4.00,0.00,30.21,M,10.00,M,CLR,M,M,M,M,M,M,M,M,M,M,M,M,M,M,53.40,KTMT 171015Z AUTO 30004KT 10SM CLR 12/01 A3021 RMK AO2 T01190007,M
BAM,2023-07-17 10:20,-116.8743,40.5990,1382.36,64.40,26.60,23.77,0.00,0.00,0.00,30.06,M,10.00,M,CLR,M,M,M,M,M,M,M,M,M,M,M,M,M,M,64.40,KBAM 171020Z AUTO 00000KT 10SM CLR 18/M03 A3006 RMK AO1,M
BVU,2023-07-17 10:35,-114.8611,35.9475,671.00,91.40,48.20,22.78,M,4.00,0.00,29.86,M,10.00,M,CLR,M,M,M,M,M,M,M,M,M,M,M,M,M,M,88.09,KBVU 171035Z AUTO VRB04KT 10SM CLR 33/09 A2986 RMK AO2,M
CXP,2023-07-17 10:35,-119.7326,39.1923,1431.00,75.20,32.00,20.49,0.00,0.00,0.00,30.15,M,10.00,M,CLR,M,M,M,M,M,M,M,M,M,M,M,M,M,M,75.20,KCXP 171035Z AUTO 00000KT 10SM CLR 24/00 A3015 RMK AO2,M
RTS,2023-07-17 10:35,-119.8764,39.6682,1539.00,69.80,32.00,24.59,0.00,0.00,0.00,30.18,M,10.00,M,CLR,M,M,M,M,M,M,M,M,M,M,M,M,M,M,69.80,KRTS 171035Z AUTO 00000KT 10SM CLR 21/00 A3018 RMK AO2,M
05U,2023-07-17 10:35,-116.0051,39.6042,1811.23,57.20,26.60,30.69,M,M,0.00,30.21,M,10.00,M,CLR,M,M,M,M,M,M,M,M,M,M,M,M,M,M,57.20,K05U 171035Z AUTO 10SM CLR 14/M03 A3021 RMK A01,M
MEV,2023-07-17 10:35,-119.7500,38.9963,1441.42,66.20,42.80,42.57,20.00,6.00,0.00,30.13,M,10.00,M,CLR,M,M,M,M,M,M,M,M,M,M,M,M,M,M,66.20,KMEV 171035Z AUTO 02006KT 10SM CLR 19/06 A3013 RMK AO2,M
BAM,2023-07-17 10:35,-116.8743,40.5990,1382.36,62.60,24.80,23.50,180.00,3.00,0.00,30.06,M,10.00,M,CLR,M,M,M,M,M,M,M,M,M,M,M,M,M,M,62.60,KBAM 171035Z AUTO 18003KT 10SM CLR 17/M04 A3006 RMK AO1,M
HTH,2023-07-17 10:35,-118.6315,38.5448,1282.89,82.40,46.40,28.36,0.00,0.00,0.00,30.07,M,10.00,M,CLR,M,M,M,M,M,M,M,M,M,M,M,M,M,M,80.64,KHTH 171035Z AUTO 00000KT 10SM CLR 28/08 A3007 RMK A01,M
TMT,2023-07-17 10:35,-117.1971,39.4643,1749.34,55.00,34.00,44.90,260.00,3.00,0.00,30.21,M,10.00,M,CLR,M,M,M,M,M,M,M,M,M,M,M,M,M,M,55.00,KTMT 171035Z AUTO 26003KT 10SM CLR 13/01 A3021 RMK AO2 T01280011,M
P68,2023-07-17 10:53,-116.0056,39.6014,1993.00,58.00,29.00,32.91,0.00,0.00,0.00,30.18,1012.00,M,M,M,M,M,M,M,M,M,M,M,M,M,M,M,M,M,58.00,KP68 171053Z AUTO 00000KT 14/M02 A3018 RMK AO1 SLP120 T01441017,M
ELY,2023-07-17 10:53,-114.8453,39.2950,1909.00,M,M,M,M,M,0.00,30.21,M,M,M,M,M,M,M,M,M,M,M,M,M,M,M,M,M,M,M,KELY 171053Z AUTO A3021 RMK AO2 SLPNO PWINO FZRANO,M
VGT,2023-07-17 10:53,-115.1933,36.2111,667.00,90.00,42.00,18.81,320.00,6.00,0.00,29.84,1008.50,10.00,M,CLR,M,M,M,M,M,M,M,M,M,M,M,M,M,M,86.22,KVGT 171053Z AUTO 32006KT 10SM CLR 32/06 A2984 RMK AO2 SLP085 T03220056,M
LOL,2023-07-17 10:53,-118.5701,40.0684,1192.43,77.00,38.00,24.50,260.00,3.00,0.00,30.04,1011.60,10.00,M,CLR,M,M,M,M,M,M,M,M,M,M,M,M,M,M,77.00,KLOL 171053Z AUTO 26003KT 10SM CLR 25/03 A3004 RMK AO2 SLP116 T02500033,M
BVU,2023-07-17 10:55,-114.8611,35.9475,671.00,87.80,53.60,31.17,70.00,3.00,0.00,29.86,M,10.00,M,CLR,M,M,M,M,M,M,M,M,M,M,M,M,M,M,85.72,KBVU 171055Z AUTO 07003KT 10SM CLR 31/12 A2986 RMK AO2,M
CXP,2023-07-17 10:55,-119.7326,39.1923,1431.00,77.00,32.00,19.30,330.00,6.00,0.00,30.15,M,10.00,M,CLR,M,M,M,M,M,M,M,M,M,M,M,M,M,M,77.00,KCXP 171055Z AUTO 33006KT 10SM CLR 25/00 A3015 RMK AO2,M
INS,2023-07-17 10:55,-115.6733,36.5872,955.00,82.00,26.20,12.92,90.00,6.00,0.00,29.93,1007.30,10.00,M,CLR,M,M,M,M,M,M,M,M,M,M,M,M,M,M,79.63,KINS 171055Z AUTO 09006KT 10SM CLR 28/M03 A2993 RMK AO2 SLP073 T02781032 $,M
RNO,2023-07-17 10:55,-119.7711,39.4839,1341.00,84.00,37.00,18.74,290.00,7.00,0.00,30.11,1011.80,10.00,M,SCT,BKN,M,M,18000.00,22000.00,M,M,M,M,M,M,M,M,M,81.23,KRNO 171055Z 29007KT 10SM SCT180 BKN220 29/03 A3011 RMK AO2 SLP118 T02890028 $,M
LSV,2023-07-17 10:55,-115.0343,36.2362,570.00,91.00,51.30,25.89,320.00,4.00,0.00,29.79,1005.40,10.00,M,CLR,M,M,M,M,M,M,M,M,M,M,M,M,M,M,88.21,KLSV 171055Z AUTO 32004KT 10SM CLR 33/11 A2979 RMK AO2 SLP054 T03270107 $,M
RTS,2023-07-17 10:55,-119.8764,39.6682,1539.00,69.80,32.00,24.59,10.00,6.00,0.00,30.17,M,10.00,M,CLR,M,M,M,M,M,M,M,M,M,M,M,M,M,M,69.80,KRTS 171055Z AUTO 01006KT 10SM CLR 21/M00 A3017 RMK AO2,M
05U,2023-07-17 10:55,-116.0051,39.6042,1811.23,57.20,28.40,33.05,M,M,0.00,30.21,M,10.00,M,CLR,M,M,M,M,M,M,M,M,M,M,M,M,M,M,57.20,K05U 171055Z AUTO 10SM CLR 14/M02 A3021 RMK A01,M
MEV,2023-07-17 10:55,-119.7500,38.9963,1441.42,73.40,41.00,31.05,40.00,9.00,0.00,30.13,M,10.00,M,FEW,FEW,M,M,4300.00,5500.00,M,M,M,M,M,M,M,M,M,73.40,KMEV 171055Z AUTO 04009KT 10SM FEW043 FEW055 23/05 A3013 RMK AO2,M
BAM,2023-07-17 10:55,-116.8743,40.5990,1382.36,64.40,26.60,23.77,90.00,5.00,0.00,30.06,M,10.00,M,CLR,M,M,M,M,M,M,M,M,M,M,M,M,M,M,64.40,KBAM 171055Z AUTO 09005KT 10SM CLR 18/M03 A3006 RMK AO1,M
HTH,2023-07-17 10:55,-118.6315,38.5448,1282.89,78.80,46.40,31.90,130.00,5.00,0.00,30.07,M,10.00,M,CLR,M,M,M,M,M,M,M,M,M,M,M,M,M,M,78.80,KHTH 171055Z AUTO 13005KT 10SM CLR 26/08 A3007 RMK A01,M
TMT,2023-07-17 10:55,-117.1971,39.4643,1749.34,57.00,35.00,43.46,240.00,7.00,0.00,30.21,M,10.00,M,CLR,M,M,M,M,M,M,M,M,M,M,M,M,M,M,57.00,KTMT 171055Z AUTO 24007KT 10SM CLR 14/02 A3021 RMK AO2 LTG DSNT NW T01380017,M
EKO,2023-07-17 10:56,-115.7860,40.8242,1367.00,59.00,37.00,43.78,0.00,0.00,0.00,30.11,1013.00,10.00,M,CLR,M,M,M,M,M,M,M,M,M,M,M,M,M,M,59.00,KEKO 171056Z AUTO 00000KT 10SM CLR 15/03 A3011 RMK AO2 SLP130 T01500028,M
WMC,2023-07-17 10:56,-117.8072,40.9019,1315.00,M,M,M,M,M,0.00,30.05,M,M,M,M,M,M,M,M,M,M,M,M,M,M,M,M,M,M,M,KWMC 171056Z AUTO A3005 RMK AO2 SLPNO PWINO FZRANO $,M
NFL,2023-07-17 10:56,-118.7010,39.4166,1199.00,83.00,41.00,22.62,290.00,7.00,0.00,30.04,1014.10,10.00,M,CLR,M,M,M,M,M,M,M,M,M,M,M,M,M,M,80.69,KNFL 171056Z AUTO 29007KT 10SM CLR 28/05 A3004 RMK AO2 SLP141 T02830050,M
HND,2023-07-17 10:56,-115.1344,35.9729,742.79,95.00,47.00,19.48,210.00,7.00,0.00,29.90,1009.70,10.00,M,CLR,M,M,M,M,M,M,M,M,M,M,M,M,M,M,91.37,KHND 171056Z AUTO 21007KT 10SM CLR 35/08 A2990 RMK AO2 SLP097 T03500083,M
TPH,2023-07-17 10:56,-117.0904,38.0505,1654.00,70.00,30.00,22.52,230.00,3.00,0.00,30.16,1010.80,10.00,M,CLR,M,M,M,M,M,M,M,M,M,M,M,M,M,M,70.00,KTPH 171056Z AUTO 23003KT 10SM CLR 21/M01 A3016 RMK AO2 SLP108 T02111011 $,M
LAS,2023-07-17 10:56,-115.1634,36.0719,663.00,95.00,47.00,19.48,230.00,4.00,0.00,29.85,1007.00,10.00,M,FEW,M,M,M,25000.00,M,M,M,M,M,M,M,M,M,M,91.37,KLAS 171056Z 23004KT 10SM FEW250 35/08 A2985 RMK AO2 SLP070 T03500083,M
BVU,2023-07-17 11:15,-114.8611,35.9475,671.00,86.00,53.60,33.01,50.00,4.00,0.00,29.86,M,10.00,M,CLR,M,M,M,M,M,M,M,M,M,M,M,M,M,M,84.18,KBVU 171115Z AUTO 05004KT 10SM CLR 30/12 A2986 RMK AO2,M
CXP,2023-07-17 11:15,-119.7326,39.1923,1431.00,77.00,33.80,20.74,0.00,0.00,0.00,30.15,M,10.00,M,CLR,M,M,M,M,M,M,M,M,M,M,M,M,M,M,77.00,KCXP 171115Z AUTO 00000KT 10SM CLR 25/01 A3015 RMK AO2,M
RTS,2023-07-17 11:15,-119.8764,39.6682,1539.00,69.80,35.60,28.39,100.00,6.00,0.00,30.18,M,10.00,M,CLR,M,M,M,M,M,M,M,M,M,M,M,M,M,M,69.80,KRTS 171115Z AUTO 10006KT 10SM CLR 21/02 A3018 RMK AO2,M
05U,2023-07-17 11:15,-116.0051,39.6042,1811.23,59.00,24.80,26.70,M,M,0.00,30.21,M,9.00,M,CLR,M,M,M,M,M,M,M,M,M,M,M,M,M,M,59.00,K05U 171115Z AUTO 9SM CLR 15/M04 A3021 RMK A01,M
MEV,2023-07-17 11:15,-119.7500,38.9963,1441.42,71.60,42.80,35.37,60.00,7.00,0.00,30.13,M,10.00,M,CLR,M,M,M,M,M,M,M,M,M,M,M,M,M,M,71.60,KMEV 171115Z AUTO 06007KT 10SM CLR 22/06 A3013 RMK AO2,M
BAM,2023-07-17 11:15,-116.8743,40.5990,1382.36,62.60,24.80,23.50,120.00,6.00,0.00,30.06,M,10.00,M,CLR,M,M,M,M,M,M,M,M,M,M,M,M,M,M,62.60,KBAM 171115Z AUTO 12006KT 10SM CLR 17/M04 A3006 RMK AO1,M
HTH,2023-07-17 11:15,-118.6315,38.5448,1282.89,77.00,42.80,29.51,130.00,5.00,0.00,30.07,M,10.00,M,CLR,M,M,M,M,M,M,M,M,M,M,M,M,M,M,77.00,KHTH 171115Z AUTO 13005KT 10SM CLR 25/06 A3007 RMK A01,M
TMT,2023-07-17 11:15,-117.1971,39.4643,1749.34,55.00,33.00,43.14,0.00,0.00,0.00,30.22,M,10.00,M,CLR,M,M,M,M,M,M,M,M,M,M,M,M,M,M,55.00,KTMT 171115Z AUTO 00000KT 10SM CLR 13/01 A3022 RMK AO2 T01270005,M
BVU,2023-07-17 11:35,-114.8611,35.9475,671.00,87.80,53.60,31.17,90.00,3.00,0.00,29.86,M,10.00,M,CLR,M,M,M,M,M,M,M,M,M,M,M,M,M,M,85.72,KBVU 171135Z AUTO 09003KT 10SM CLR 31/12 A2986 RMK AO2,M
CXP,2023-07-17 11:35,-119.7326,39.1923,1431.00,73.40,37.40,26.98,0.00,0.00,0.00,30.16,M,10.00,M,CLR,M,M,M,M,M,M,M,M,M,M,M,M,M,M,73.40,KCXP 171135Z AUTO 00000KT 10SM CLR 23/03 A3016 RMK AO2,M
RTS,2023-07-17 11:35,-119.8764,39.6682,1539.00,69.80,35.60,28.39,0.00,0.00,0.00,30.19,M,10.00,M,CLR,M,M,M,M,M,M,M,M,M,M,M,M,M,M,69.80,KRTS 171135Z AUTO 00000KT 10SM CLR 21/02 A3019 RMK AO2,M
05U,2023-07-17 11:35,-116.0051,39.6042,1811.23,55.40,26.60,32.76,M,M,0.00,30.21,M,10.00,M,CLR,M,M,M,M,M,M,M,M,M,M,M,M,M,M,55.40,K05U 171135Z AUTO 10SM CLR 13/M03 A3021 RMK A01,M
MEV,2023-07-17 11:35,-119.7500,38.9963,1441.42,73.40,42.80,33.29,10.00,3.00,0.00,30.15,M,10.00,M,CLR,M,M,M,M,M,M,M,M,M,M,M,M,M,M,73.40,KMEV 171135Z AUTO 01003KT 10SM CLR 23/06 A3015 RMK AO2,M
BAM,2023-07-17 11:35,-116.8743,40.5990,1382.36,60.80,26.60,26.98,120.00,4.00,0.00,30.07,M,10.00,M,CLR,M,M,M,M,M,M,M,M,M,M,M,M,M,M,60.80,KBAM 171135Z AUTO 12004KT 10SM CLR 16/M03 A3007 RMK AO1,M
HTH,2023-07-17 11:35,-118.6315,38.5448,1282.89,78.80,44.60,29.79,0.00,0.00,0.00,30.07,M,10.00,M,CLR,M,M,M,M,M,M,M,M,M,M,M,M,M,M,78.80,KHTH 171135Z AUTO 00000KT 10SM CLR 26/07 A3007 RMK A01,M
P68,2023-07-17 11:53,-116.0056,39.6014,1993.00,57.00,28.00,32.75,200.00,4.00,0.00,30.19,1012.50,M,M,M,M,M,M,M,M,M,M,M,M,M,M,M,M,M,57.00,KP68 171153Z AUTO 20004KT 14/M02 A3019 RMK AO1 SLP125 T01391022 10206 20117 53003,M
ELY,2023-07-17 11:53,-114.8453,39.2950,1909.00,M,M,M,M,M,0.00,30.21,M,M,M,M,M,M,M,M,M,M,M,M,M,M,M,M,M,M,M,KELY 171153Z AUTO A3021 RMK AO2 SLPNO 52003 PWINO FZRANO,M
VGT,2023-07-17 11:53,-115.1933,36.2111,667.00,91.00,42.00,18.23,330.00,7.00,0.00,29.85,1008.70,10.00,M,CLR,M,M,M,M,M,M,M,M,M,M,M,M,M,M,87.11,KVGT 171153Z AUTO 33007KT 10SM CLR 33/06 A2985 RMK AO2 SLP087 T03280056 10400 20322 52007,M
LOL,2023-07-17 11:53,-118.5701,40.0684,1192.43,72.00,41.00,32.56,80.00,9.00,0.00,30.05,1012.00,10.00,M,CLR,M,M,M,M,M,M,M,M,M,M,M,M,M,M,72.00,KLOL 171153Z AUTO 08009KT 10SM CLR 22/05 A3005 RMK AO2 SLP120 T02220050 10306 20222 51011,M
BVU,2023-07-17 11:55,-114.8611,35.9475,671.00,87.80,55.40,33.29,0.00,0.00,0.00,29.86,M,10.00,M,CLR,M,M,M,M,M,M,M,M,M,M,M,M,M,M,86.11,KBVU 171155Z AUTO 00000KT 10SM CLR 31/13 A2986 RMK AO2,M
CXP,2023-07-17 11:55,-119.7326,39.1923,1431.00,75.20,37.40,25.40,280.00,4.00,0.00,30.16,M,10.00,M,CLR,M,M,M,M,M,M,M,M,M,M,M,M,M,M,75.20,KCXP 171155Z AUTO 28004KT 10SM CLR 24/03 A3016 RMK AO2,M
INS,2023-07-17 11:55,-115.6733,36.5872,955.00,81.00,29.00,14.98,0.00,0.00,0.00,29.94,1007.80,10.00,M,CLR,M,M,M,M,M,M,M,M,M,M,M,M,M,M,79.00,KINS 171155Z AUTO 00000KT 10SM CLR 27/M02 A2994 RMK AO2 SLP078 T02721017 10353 20269 53005 $,M
RNO,2023-07-17 11:55,-119.7711,39.4839,1341.00,81.00,38.00,21.48,0.00,0.00,0.00,30.13,1012.70,10.00,M,FEW,BKN,M,M,18000.00,20000.00,M,M,M,M,M,M,M,M,M,79.28,KRNO 171155Z 00000KT 10SM FEW180 BKN200 27/03 A3013 RMK AO2 SLP127 T02720033 10317 20261 53011 $,M
RTS,2023-07-17 11:55,-119.8764,39.6682,1539.00,68.00,35.60,30.20,0.00,0.00,0.00,30.19,M,10.00,M,CLR,M,M,M,M,M,M,M,M,M,M,M,M,M,M,68.00,KRTS 171155Z AUTO 00000KT 10SM CLR 20/02 A3019 RMK AO2,M
05U,2023-07-17 11:55,-116.0051,39.6042,1811.23,55.40,28.40,35.28,M,M,0.00,30.21,M,10.00,M,CLR,M,M,M,M,M,M,M,M,M,M,M,M,M,M,55.40,K05U 171155Z AUTO 10SM CLR 13/M02 A3021 RMK A01,M
MEV,2023-07-17 11:55,-119.7500,38.9963,1441.42,68.00,44.60,42.85,10.00,5.00,0.00,30.14,M,10.00,M,FEW,FEW,M,M,4800.00,5500.00,M,M,M,M,M,M,M,M,M,68.00,KMEV 171155Z AUTO 01005KT 10SM FEW048 FEW055 20/07 A3014 RMK AO2,M
BAM,2023-07-17 11:55,-116.8743,40.5990,1382.36,60.80,26.60,26.98,50.00,4.00,0.00,30.08,M,10.00,M,CLR,M,M,M,M,M,M,M,M,M,M,M,M,M,M,60.80,KBAM 171155Z AUTO 05004KT 10SM CLR 16/M03 A3008 RMK AO1,M
HTH,2023-07-17 11:55,-118.6315,38.5448,1282.89,75.20,41.00,29.23,220.00,7.00,0.00,30.08,M,10.00,M,CLR,M,M,M,M,M,M,M,M,M,M,M,M,M,M,75.20,KHTH 171155Z AUTO 22007KT 10SM CLR 24/05 A3008 RMK A01,M
TMT,2023-07-17 11:55,-117.1971,39.4643,1749.34,51.00,32.00,47.99,0.00,0.00,0.00,30.22,M,10.00,M,CLR,M,M,M,M,M,M,M,M,M,M,M,M,M,M,51.00,KTMT 171155Z AUTO 00000KT 10SM CLR 11/00 A3022 RMK AO2 T01051001 10200 20096,M
LSV,2023-07-17 11:55,-115.0343,36.2362,570.00,89.60,51.00,26.76,320.00,4.00,0.00,29.80,1005.80,10.00,M,CLR,M,M,M,M,M,M,M,M,M,M,M,M,M,M,86.86,KLSV 171155Z AUTO 32004KT 10SM CLR 32/11 A2980 RMK AO2 SLP058 T03200106 10362 20319 52008 $,M
EKO,2023-07-17 11:56,-115.7860,40.8242,1367.00,60.00,38.00,43.94,70.00,5.00,0.00,30.10,1012.50,10.00,M,CLR,M,M,M,M,M,M,M,M,M,M,M,M,M,M,60.00,KEKO 171156Z AUTO 07005KT 10SM CLR 16/03 A3010 RMK AO2 SLP125 T01560033 10228 20139 50003,M
WMC,2023-07-17 11:56,-117.8072,40.9019,1315.00,M,M,M,M,M,0.00,30.06,M,M,M,M,M,M,M,M,M,M,M,M,M,M,M,M,M,M,M,KWMC 171156Z AUTO A3006 RMK AO2 SLPNO 53009 PWINO FZRANO $,M
NFL,2023-07-17 11:56,-118.7010,39.4166,1199.00,78.00,39.00,24.65,300.00,4.00,0.00,30.05,1014.40,10.00,M,CLR,M,M,M,M,M,M,M,M,M,M,M,M,M,M,78.00,KNFL 171156Z AUTO 30004KT 10SM CLR 26/04 A3005 RMK AO2 SLP144 T02560039 10300 20250 51007,M
HND,2023-07-17 11:56,-115.1344,35.9729,742.79,92.00,47.00,21.38,220.00,13.00,0.00,29.90,1009.80,10.00,M,CLR,M,M,M,M,M,M,M,M,M,M,M,M,M,M,88.49,KHND 171156Z AUTO 22013KT 10SM CLR 33/08 A2990 RMK AO2 SLP098 T03330083 10378 20333 53004,M
TPH,2023-07-17 11:56,-117.0904,38.0505,1654.00,69.00,31.00,24.27,10.00,8.00,0.00,30.16,1011.00,10.00,M,CLR,M,M,M,M,M,M,M,M,M,M,M,M,M,M,69.00,KTPH 171156Z AUTO 01008KT 10SM CLR 21/M01 A3016 RMK AO2 SLP110 T02061006 10300 20206 50001 $,M
LAS,2023-07-17 11:56,-115.1634,36.0719,663.00,94.00,43.00,17.25,200.00,3.00,0.00,29.86,1007.30,10.00,M,FEW,SCT,M,M,16000.00,25000.00,M,M,M,M,M,M,M,M,M,89.94,KLAS 171156Z 20003KT 10SM FEW160 SCT250 34/06 A2986 RMK AO2 SLP073 T03440061 10400 20339 53007,M
BVU,2023-07-17 12:15,-114.8611,35.9475,671.00,86.00,57.20,37.62,60.00,4.00,0.00,29.87,M,10.00,M,CLR,M,M,M,M,M,M,M,M,M,M,M,M,M,M,84.97,KBVU 171215Z AUTO 06004KT 10SM CLR 30/14 A2987 RMK AO2,M
CXP,2023-07-17 12:15,-119.7326,39.1923,1431.00,77.00,41.00,27.53,220.00,3.00,0.00,30.16,M,10.00,M,CLR,M,M,M,M,M,M,M,M,M,M,M,M,M,M,77.00,KCXP 171215Z AUTO 22003KT 10SM CLR 25/05 A3016 RMK AO2,M
RTS,2023-07-17 12:15,-119.8764,39.6682,1539.00,68.00,35.60,30.20,10.00,4.00,0.00,30.18,M,10.00,M,FEW,FEW,SCT,M,7500.00,9000.00,11000.00,M,M,M,M,M,M,M,M,68.00,KRTS 171215Z AUTO 01004KT 10SM FEW075 FEW090 SCT110 20/02 A3018 RMK AO2,M
05U,2023-07-17 12:15,-116.0051,39.6042,1811.23,59.00,24.80,26.70,M,M,0.00,30.22,M,10.00,M,CLR,M,M,M,M,M,M,M,M,M,M,M,M,M,M,59.00,K05U 171215Z AUTO 10SM CLR 15/M04 A3022 RMK A01,M
MEV,2023-07-17 12:15,-119.7500,38.9963,1441.42,69.80,44.60,40.29,0.00,0.00,0.00,30.14,M,10.00,M,CLR,M,M,M,M,M,M,M,M,M,M,M,M,M,M,69.80,KMEV 171215Z AUTO 00000KT 10SM CLR 21/07 A3014 RMK AO2,M
BAM,2023-07-17 12:15,-116.8743,40.5990,1382.36,60.80,32.00,33.64,110.00,4.00,0.00,30.09,M,10.00,M,CLR,M,M,M,M,M,M,M,M,M,M,M,M,M,M,60.80,KBAM 171215Z AUTO 11004KT 10SM CLR 16/00 A3009 RMK AO1,M
HTH,2023-07-17 12:15,-118.6315,38.5448,1282.89,77.00,42.80,29.51,220.00,6.00,0.00,30.08,M,10.00,M,CLR,M,M,M,M,M,M,M,M,M,M,M,M,M,M,77.00,KHTH 171215Z AUTO 22006KT 10SM CLR 25/06 A3008 RMK A01,M
TMT,2023-07-17 12:15,-117.1971,39.4643,1749.34,51.00,32.00,47.99,0.00,0.00,0.00,30.22,M,10.00,M,CLR,M,M,M,M,M,M,M,M,M,M,M,M,M,M,51.00,KTMT 171215Z AUTO 00000KT 10SM CLR 11/00 A3022 RMK AO2 T01050001,M
05U,2023-07-17 12:30,-116.0051,39.6042,1811.23,59.00,24.80,26.70,M,M,0.00,30.22,M,10.00,M,CLR,M,M,M,M,M,M,M,M,M,M,M,M,M,M,59.00,K05U 171230Z AUTO 10SM CLR 15/M04 A3022 RMK A01,M
BVU,2023-07-17 12:35,-114.8611,35.9475,671.00,86.00,59.00,40.14,70.00,5.00,0.00,29.87,M,10.00,M,CLR,M,M,M,M,M,M,M,M,M,M,M,M,M,M,85.47,KBVU 171235Z AUTO 07005KT 10SM CLR 30/15 A2987 RMK AO2,M
CXP,2023-07-17 12:35,-119.7326,39.1923,1431.00,75.20,41.00,29.23,0.00,0.00,0.00,30.16,M,10.00,M,CLR,M,M,M,M,M,M,M,M,M,M,M,M,M,M,75.20,KCXP 171235Z AUTO 00000KT 10SM CLR 24/05 A3016 RMK AO2,M
RTS,2023-07-17 12:35,-119.8764,39.6682,1539.00,68.00,35.60,30.20,270.00,8.00,0.00,30.18,M,10.00,M,SCT,SCT,BKN,M,4800.00,7000.00,9500.00,M,M,M,M,M,M,M,M,68.00,KRTS 171235Z AUTO 27008KT 240V300 10SM SCT048 SCT070 BKN095 20/02 A3018 RMK AO2,M
MEV,2023-07-17 12:35,-119.7500,38.9963,1441.42,64.40,48.20,55.63,100.00,4.00,0.00,30.15,M,10.00,M,CLR,M,M,M,M,M,M,M,M,M,M,M,M,M,M,64.40,KMEV 171235Z AUTO 10004KT 10SM CLR 18/09 A3015 RMK AO2,M
BAM,2023-07-17 12:35,-116.8743,40.5990,1382.36,60.80,30.20,31.28,140.00,4.00,0.00,30.09,M,10.00,M,CLR,M,M,M,M,M,M,M,M,M,M,M,M,M,M,60.80,KBAM 171235Z AUTO 14004KT 10SM CLR 16/M01 A3009 RMK AO1,M
HTH,2023-07-17 12:35,-118.6315,38.5448,1282.89,77.00,42.80,29.51,0.00,0.00,0.00,30.09,M,10.00,M,CLR,M,M,M,M,M,M,M,M,M,M,M,M,M,M,77.00,KHTH 171235Z AUTO 00000KT 10SM CLR 25/06 A3009 RMK A01,M
TMT,2023-07-17 12:35,-117.1971,39.4643,1749.34,49.50,32.40,51.57,0.00,0.00,0.00,30.22,M,10.00,M,CLR,M,M,M,M,M,M,M,M,M,M,M,M,M,M,49.50,KTMT 171235Z AUTO 00000KT 10SM CLR 10/00 A3022 RMK AO2 T00970002,M
P68,2023-07-17 12:53,-116.0056,39.6014,1993.00,63.00,25.00,23.36,0.00,0.00,0.00,30.20,1012.30,M,M,M,M,M,M,M,M,M,M,M,M,M,M,M,M,M,63.00,KP68 171253Z AUTO 00000KT 17/M04 A3020 RMK AO1 SLP123 T01721039,M
ELY,2023-07-17 12:53,-114.8453,39.2950,1909.00,M,M,M,M,M,0.00,30.21,M,M,M,M,M,M,M,M,M,M,M,M,M,M,M,M,M,M,M,KELY 171253Z AUTO A3021 RMK AO2 SLPNO PWINO FZRANO,M
VGT,2023-07-17 12:53,-115.1933,36.2111,667.00,89.00,43.00,20.17,320.00,4.00,0.00,29.86,1009.20,10.00,M,CLR,M,M,M,M,M,M,M,M,M,M,M,M,M,M,85.42,KVGT 171253Z 32004KT 10SM CLR 32/06 A2986 RMK AO2 SLP092 T03170061,M
LOL,2023-07-17 12:53,-118.5701,40.0684,1192.43,85.00,33.00,15.47,300.00,10.00,0.00,30.06,1012.00,10.00,M,CLR,M,M,M,M,M,M,M,M,M,M,M,M,M,M,81.88,KLOL 171253Z AUTO 30010KT 10SM CLR 29/01 A3006 RMK AO2 SLP120 T02940006,M
BVU,2023-07-17 12:55,-114.8611,35.9475,671.00,89.60,55.40,31.45,M,3.00,0.00,29.89,M,10.00,M,CLR,M,M,M,M,M,M,M,M,M,M,M,M,M,M,87.78,KBVU 171255Z AUTO VRB03KT 10SM CLR 32/13 A2989 RMK AO2,M
CXP,2023-07-17 12:55,-119.7326,39.1923,1431.00,75.20,41.00,29.23,0.00,0.00,0.00,30.16,M,10.00,M,CLR,M,M,M,M,M,M,M,M,M,M,M,M,M,M,75.20,KCXP 171255Z AUTO 00000KT 10SM CLR 24/05 A3016 RMK AO2,M
INS,2023-07-17 12:55,-115.6733,36.5872,955.00,82.20,31.50,15.95,0.00,0.00,0.00,29.95,1008.10,10.00,M,CLR,M,M,M,M,M,M,M,M,M,M,M,M,M,M,79.85,KINS 171255Z AUTO 00000KT 10SM CLR 28/M00 A2995 RMK AO2 SLP081 T02791003 $,M
RNO,2023-07-17 12:55,-119.7711,39.4839,1341.00,78.00,40.00,25.62,190.00,7.00,0.00,30.11,1012.10,10.00,M,SCT,BKN,M,M,10000.00,15000.00,M,M,M,M,M,M,M,M,M,78.00,KRNO 171255Z 19007KT 10SM SCT100 BKN150 26/04 A3011 RMK AO2 SLP121 T02560044 $,M
RTS,2023-07-17 12:55,-119.8764,39.6682,1539.00,71.60,35.60,26.71,90.00,9.00,0.00,30.15,M,10.00,15.00,FEW,BKN,OVC,M,3300.00,7000.00,12000.00,M,M,M,M,M,M,M,M,71.60,KRTS 171255Z AUTO 09009G15KT 10SM FEW033 BKN070 OVC120 22/02 A3015 RMK AO2,M
05U,2023-07-17 12:55,-116.0051,39.6042,1811.23,60.80,24.80,25.04,M,M,0.00,30.22,M,10.00,M,CLR,M,M,M,M,M,M,M,M,M,M,M,M,M,M,60.80,K05U 171255Z AUTO 10SM CLR 16/M04 A3022 RMK A01,M
MEV,2023-07-17 12:55,-119.7500,38.9963,1441.42,66.20,48.20,52.25,170.00,3.00,0.00,30.14,M,10.00,M,CLR,M,M,M,M,M,M,M,M,M,M,M,M,M,M,66.20,KMEV 171255Z AUTO 17003KT 10SM CLR 19/09 A3014 RMK AO2,M
BAM,2023-07-17 12:55,-116.8743,40.5990,1382.36,60.80,26.60,26.98,190.00,5.00,0.00,30.10,M,10.00,M,CLR,M,M,M,M,M,M,M,M,M,M,M,M,M,M,60.80,KBAM 171255Z AUTO 19005KT 10SM CLR 16/M03 A3010 RMK AO1,M
HTH,2023-07-17 12:55,-118.6315,38.5448,1282.89,78.80,42.80,27.81,0.00,0.00,0.00,30.09,M,10.00,M,CLR,M,M,M,M,M,M,M,M,M,M,M,M,M,M,78.80,KHTH 171255Z AUTO 00000KT 10SM CLR 26/06 A3009 RMK A01,M
TMT,2023-07-17 12:55,-117.1971,39.4643,1749.34,49.00,32.00,51.70,0.00,0.00,0.00,30.22,M,10.00,M,CLR,M,M,M,M,M,M,M,M,M,M,M,M,M,M,49.00,KTMT 171255Z AUTO 00000KT 10SM CLR 10/00 A3022 RMK AO2 T00950000,M
LSV,2023-07-17 12:55,-115.0343,36.2362,570.00,86.00,49.30,28.16,0.00,0.00,0.00,29.81,1006.20,10.00,M,SCT,M,M,M,19000.00,M,M,M,M,M,M,M,M,M,M,83.53,KLSV 171255Z AUTO 00000KT 10SM SCT190 30/10 A2981 RMK AO2 SLP062 T03010096 $,M
EKO,2023-07-17 12:56,-115.7860,40.8242,1367.00,54.00,40.00,58.99,180.00,3.00,0.00,30.13,1013.70,10.00,M,CLR,M,M,M,M,M,M,M,M,M,M,M,M,M,M,54.00,KEKO 171256Z AUTO 18003KT 10SM CLR 12/04 A3013 RMK AO2 SLP137 T01220044,M
WMC,2023-07-17 12:56,-117.8072,40.9019,1315.00,M,M,M,M,M,0.00,30.09,M,M,M,M,M,M,M,M,M,M,M,M,M,M,M,M,M,M,M,KWMC 171256Z AUTO A3009 RMK AO2 SLPNO PWINO FZRANO $,M
NFL,2023-07-17 12:56,-118.7010,39.4166,1199.00,79.00,35.00,20.37,290.00,7.00,0.00,30.07,1015.20,10.00,M,CLR,M,M,M,M,M,M,M,M,M,M,M,M,M,M,79.00,KNFL 171256Z AUTO 29007KT 10SM CLR 26/02 A3007 RMK AO2 SLP152 T02610017,M
HND,2023-07-17 12:56,-115.1344,35.9729,742.79,90.00,48.00,23.63,180.00,10.00,0.00,29.91,1010.50,10.00,M,CLR,M,M,M,M,M,M,M,M,M,M,M,M,M,M,86.78,KHND 171256Z 18010KT 10SM CLR 32/09 A2991 RMK AO2 SLP105 T03220089,M
TPH,2023-07-17 12:56,-117.0904,38.0505,1654.00,67.00,31.00,26.00,340.00,6.00,0.00,30.17,1011.60,10.00,M,CLR,M,M,M,M,M,M,M,M,M,M,M,M,M,M,67.00,KTPH 171256Z AUTO 34006KT 10SM CLR 19/M01 A3017 RMK AO2 SLP116 T01941006 $,M
LAS,2023-07-17 12:56,-115.1634,36.0719,663.00,93.00,45.00,19.21,230.00,4.00,0.00,29.87,1007.70,10.00,M,FEW,FEW,M,M,16000.00,25000.00,M,M,M,M,M,M,M,M,M,89.20,KLAS 171256Z 23004KT 10SM FEW160 FEW250 34/07 A2987 RMK AO2 SLP077 ACC DSNT S T03390072,M
BVU,2023-07-17 13:15,-114.8611,35.9475,671.00,91.40,53.60,27.83,120.00,6.00,0.00,29.89,M,10.00,M,CLR,M,M,M,M,M,M,M,M,M,M,M,M,M,M,89.08,KBVU 171315Z AUTO 12006KT 10SM CLR 33/12 A2989 RMK AO2,M
CXP,2023-07-17 13:15,-119.7326,39.1923,1431.00,75.20,41.00,29.23,0.00,0.00,0.00,30.15,M,10.00,M,CLR,M,M,M,M,M,M,M,M,M,M,M,M,M,M,75.20,KCXP 171315Z AUTO 00000KT 10SM CLR 24/05 A3015 RMK AO2,M
RTS,2023-07-17 13:15,-119.8764,39.6682,1539.00,71.60,33.80,24.86,0.00,0.00,0.00,30.15,M,10.00,M,FEW,SCT,BKN,M,7000.00,9500.00,11000.00,M,M,M,M,M,M,M,M,71.60,KRTS 171315Z AUTO 00000KT 10SM FEW070 SCT095 BKN110 22/01 A3015 RMK AO2,M
05U,2023-07-17 13:15,-116.0051,39.6042,1811.23,62.60,26.60,25.32,M,M,0.00,30.22,M,10.00,M,CLR,M,M,M,M,M,M,M,M,M,M,M,M,M,M,62.60,K05U 171315Z AUTO 10SM CLR 17/M03 A3022 RMK A01,M
MEV,2023-07-17 13:15,-119.7500,38.9963,1441.42,66.20,50.00,55.88,120.00,5.00,0.00,30.15,M,10.00,M,CLR,M,M,M,M,M,M,M,M,M,M,M,M,M,M,66.20,KMEV 171315Z AUTO 12005KT 10SM CLR 19/10 A3015 RMK AO2,M
BAM,2023-07-17 13:15,-116.8743,40.5990,1382.36,64.40,28.40,25.60,210.00,5.00,0.00,30.10,M,10.00,M,CLR,M,M,M,M,M,M,M,M,M,M,M,M,M,M,64.40,KBAM 171315Z AUTO 21005KT 10SM CLR 18/M02 A3010 RMK AO1,M
HTH,2023-07-17 13:15,-118.6315,38.5448,1282.89,75.20,42.80,31.34,0.00,0.00,0.00,30.10,M,10.00,M,CLR,M,M,M,M,M,M,M,M,M,M,M,M,M,M,75.20,KHTH 171315Z AUTO 00000KT 10SM CLR 24/06 A3010 RMK A01,M
TMT,2023-07-17 13:15,-117.1971,39.4643,1749.34,49.50,32.00,50.74,0.00,0.00,0.00,30.23,M,10.00,M,CLR,M,M,M,M,M,M,M,M,M,M,M,M,M,M,49.50,KTMT 171315Z AUTO 00000KT 10SM CLR 10/00 A3023 RMK AO2 T00970001,M
BVU,2023-07-17 13:35,-114.8611,35.9475,671.00,93.20,51.80,24.63,140.00,6.00,0.00,29.90,M,10.00,M,CLR,M,M,M,M,M,M,M,M,M,M,M,M,M,M,90.45,KBVU 171335Z AUTO 14006KT 10SM CLR 34/11 A2990 RMK AO2,M
CXP,2023-07-17 13:35,-119.7326,39.1923,1431.00,73.40,42.80,33.29,0.00,0.00,0.00,30.15,M,10.00,M,CLR,M,M,M,M,M,M,M,M,M,M,M,M,M,M,73.40,KCXP 171335Z AUTO 00000KT 10SM CLR 23/06 A3015 RMK AO2,M
RTS,2023-07-17 13:35,-119.8764,39.6682,1539.00,73.40,33.80,23.39,360.00,10.00,0.00,30.16,M,10.00,M,FEW,M,M,M,11000.00,M,M,M,M,M,M,M,M,M,M,73.40,KRTS 171335Z AUTO 36010KT 10SM FEW110 23/01 A3016 RMK AO2,M
05U,2023-07-17 13:35,-116.0051,39.6042,1811.23,66.20,28.40,24.04,M,M,0.00,30.23,M,10.00,M,CLR,M,M,M,M,M,M,M,M,M,M,M,M,M,M,66.20,K05U 171335Z AUTO 10SM CLR 19/M02 A3023 RMK A01,M
MEV,2023-07-17 13:35,-119.7500,38.9963,1441.42,68.00,48.20,49.10,160.00,6.00,0.00,30.14,M,10.00,M,CLR,M,M,M,M,M,M,M,M,M,M,M,M,M,M,68.00,KMEV 171335Z AUTO 16006KT 10SM CLR 20/09 A3014 RMK AO2,M
BAM,2023-07-17 13:35,-116.8743,40.5990,1382.36,66.20,30.20,25.88,0.00,0.00,0.00,30.11,M,10.00,M,CLR,M,M,M,M,M,M,M,M,M,M,M,M,M,M,66.20,KBAM 171335Z AUTO 00000KT 10SM CLR 19/M01 A3011 RMK AO1,M
HTH,2023-07-17 13:35,-118.6315,38.5448,1282.89,77.00,44.60,31.62,0.00,0.00,0.00,30.11,M,10.00,M,CLR,M,M,M,M,M,M,M,M,M,M,M,M,M,M,77.00,KHTH 171335Z AUTO 00000KT 10SM CLR 25/07 A3011 RMK A01,M
TMT,2023-07-17 13:35,-117.1971,39.4643,1749.34,51.60,33.30,49.46,0.00,0.00,0.00,30.24,M,10.00,M,CLR,M,M,M,M,M,M,M,M,M,M,M,M,M,M,51.60,KTMT 171335Z AUTO 00000KT 10SM CLR 11/01 A3024 RMK AO2 T01090007,M
P68,2023-07-17 13:53,-116.0056,39.6014,1993.00,67.00,29.00,23.97,240.00,5.00,0.00,30.21,1012.70,M,M,M,M,M,M,M,M,M,M,M,M,M,M,M,M,M,67.00,KP68 171353Z AUTO 24005KT 19/M02 A3021 RMK AO1 SLP127 T01941017,M
ELY,2023-07-17 13:53,-114.8453,39.2950,1909.00,M,M,M,M,M,0.00,30.22,M,M,M,M,M,M,M,M,M,M,M,M,M,M,M,M,M,M,M,KELY 171353Z AUTO A3022 RMK AO2 SLPNO PWINO FZRANO,M
VGT,2023-07-17 13:53,-115.1933,36.2111,667.00,91.00,45.00,20.45,300.00,3.00,0.00,29.89,1010.10,10.00,M,CLR,M,M,M,M,M,M,M,M,M,M,M,M,M,M,87.35,KVGT 171353Z 30003KT 10SM CLR 33/07 A2989 RMK AO2 SLP101 T03280072,M
LOL,2023-07-17 13:53,-118.5701,40.0684,1192.43,77.00,42.00,28.62,110.00,4.00,0.00,30.08,1012.90,10.00,M,CLR,M,M,M,M,M,M,M,M,M,M,M,M,M,M,77.00,KLOL 171353Z AUTO 11004KT 10SM CLR 25/06 A3008 RMK AO2 SLP129 T02500056,M
BVU,2023-07-17 13:55,-114.8611,35.9475,671.00,93.20,53.60,26.31,160.00,12.00,0.00,29.90,M,10.00,M,CLR,M,M,M,M,M,M,M,M,M,M,M,M,M,M,90.86,KBVU 171355Z AUTO 16012KT 10SM CLR 34/12 A2990 RMK AO2,M
CXP,2023-07-17 13:55,-119.7326,39.1923,1431.00,73.40,44.60,35.66,0.00,0.00,0.00,30.15,M,10.00,M,CLR,M,M,M,M,M,M,M,M,M,M,M,M,M,M,73.40,KCXP 171355Z AUTO 00000KT 10SM CLR 23/07 A3015 RMK AO2,M
INS,2023-07-17 13:55,-115.6733,36.5872,955.00,81.00,30.60,15.99,0.00,0.00,0.00,29.96,1008.50,10.00,M,CLR,M,M,M,M,M,M,M,M,M,M,M,M,M,M,79.03,KINS 171355Z AUTO 00000KT 10SM CLR 27/M01 A2996 RMK AO2 SLP085 T02721008 $,M
RNO,2023-07-17 13:55,-119.7711,39.4839,1341.00,80.00,38.00,22.19,120.00,9.00,T,30.09,1011.70,10.00,M,SCT,BKN,M,M,10000.00,15000.00,M,M,M,M,M,M,M,M,M,78.74,KRNO 171355Z 12009KT 10SM SCT100 BKN150 27/03 A3009 RMK AO2 RAB22E27 SLP117 P0000 T02670033 $,M
LSV,2023-07-17 13:55,-115.0343,36.2362,570.00,91.00,50.40,25.05,0.00,0.00,0.00,29.85,1007.50,10.00,M,CLR,M,M,M,M,M,M,M,M,M,M,M,M,M,M,88.05,KLSV 171355Z AUTO 00000KT 10SM CLR 33/10 A2985 RMK AO2 SLP075 T03280102 $,M
RTS,2023-07-17 13:55,-119.8764,39.6682,1539.00,75.20,32.00,20.49,130.00,4.00,0.00,30.15,M,10.00,10.00,CLR,M,M,M,M,M,M,M,M,M,M,M,M,M,M,75.20,KRTS 171355Z AUTO 13004G10KT 10SM CLR 24/M00 A3015 RMK AO2,M
05U,2023-07-17 13:55,-116.0051,39.6042,1811.23,68.00,30.20,24.32,M,M,0.00,30.24,M,10.00,M,CLR,M,M,M,M,M,M,M,M,M,M,M,M,M,M,68.00,K05U 171355Z AUTO 10SM CLR 20/M01 A3024 RMK A01,M
MEV,2023-07-17 13:55,-119.7500,38.9963,1441.42,68.00,50.00,52.51,220.00,5.00,0.00,30.15,M,9.00,M,CLR,M,M,M,M,M,M,M,M,M,M,M,M,M,M,68.00,KMEV 171355Z AUTO 22005KT 9SM CLR 20/10 A3015 RMK AO2,M
BAM,2023-07-17 13:55,-116.8743,40.5990,1382.36,69.80,32.00,24.59,0.00,0.00,0.00,30.11,M,10.00,M,CLR,M,M,M,M,M,M,M,M,M,M,M,M,M,M,69.80,KBAM 171355Z AUTO 00000KT 10SM CLR 21/00 A3011 RMK AO1,M
HTH,2023-07-17 13:55,-118.6315,38.5448,1282.89,78.80,46.40,31.90,0.00,0.00,0.00,30.12,M,10.00,M,CLR,M,M,M,M,M,M,M,M,M,M,M,M,M,M,78.80,KHTH 171355Z AUTO 00000KT 10SM CLR 26/08 A3012 RMK A01,M
EKO,2023-07-17 13:56,-115.7860,40.8242,1367.00,61.00,36.00,39.19,0.00,0.00,0.00,30.15,1014.50,10.00,M,CLR,M,M,M,M,M,M,M,M,M,M,M,M,M,M,61.00,KEKO 171356Z AUTO 00000KT 10SM CLR 16/02 A3015 RMK AO2 SLP145 T01610022,M
WMC,2023-07-17 13:56,-117.8072,40.9019,1315.00,M,M,M,M,M,0.00,30.11,M,M,M,M,M,M,M,M,M,M,M,M,M,M,M,M,M,M,M,KWMC 171356Z AUTO A3011 RMK AO2 SLPNO PWINO FZRANO $,M
NFL,2023-07-17 13:56,-118.7010,39.4166,1199.00,77.00,39.00,25.47,80.00,5.00,0.00,30.08,1015.30,10.00,M,CLR,M,M,M,M,M,M,M,M,M,M,M,M,M,M,77.00,KNFL 171356Z AUTO 08005KT 10SM CLR 25/04 A3008 RMK AO2 SLP153 T02500039,M
HND,2023-07-17 13:56,-115.1344,35.9729,742.79,94.00,50.00,22.48,200.00,11.00,0.00,29.94,1011.20,10.00,M,CLR,M,M,M,M,M,M,M,M,M,M,M,M,M,M,90.89,KHND 171356Z 20011KT 10SM CLR 34/10 A2994 RMK AO2 SLP112 T03440100,M
TPH,2023-07-17 13:56,-117.0904,38.0505,1654.00,71.00,31.00,22.67,360.00,8.00,0.00,30.18,1011.60,10.00,M,CLR,M,M,M,M,M,M,M,M,M,M,M,M,M,M,71.00,KTPH 171356Z AUTO 36008KT 10SM CLR 22/M01 A3018 RMK AO2 SLP116 T02171006 $,M
LAS,2023-07-17 13:56,-115.1634,36.0719,663.00,94.00,49.00,21.65,0.00,0.00,0.00,29.89,1008.60,10.00,M,FEW,M,M,M,16000.00,M,M,M,M,M,M,M,M,M,M,90.71,KLAS 171356Z 00000KT 10SM FEW160 34/09 A2989 RMK AO2 SLP086 ACC DSNT N AND S-SW T03440094,M
BVU,2023-07-17 14:15,-114.8611,35.9475,671.00,93.20,46.40,20.13,200.00,4.00,0.00,29.91,M,10.00,11.00,CLR,M,M,M,M,M,M,M,M,M,M,M,M,M,M,89.55,KBVU 171415Z AUTO 20004G11KT 10SM CLR 34/08 A2991 RMK AO2,M
CXP,2023-07-17 14:15,-119.7326,39.1923,1431.00,73.40,44.60,35.66,0.00,0.00,0.00,30.16,M,10.00,M,CLR,M,M,M,M,M,M,M,M,M,M,M,M,M,M,73.40,KCXP 171415Z AUTO 00000KT 10SM CLR 23/07 A3016 RMK AO2,M
RTS,2023-07-17 14:15,-119.8764,39.6682,1539.00,73.40,35.60,25.13,0.00,0.00,0.00,30.15,M,10.00,M,CLR,M,M,M,M,M,M,M,M,M,M,M,M,M,M,73.40,KRTS 171415Z AUTO 00000KT 10SM CLR 23/02 A3015 RMK AO2,M
05U,2023-07-17 14:15,-116.0051,39.6042,1811.23,69.80,32.00,24.59,M,M,0.00,30.24,M,10.00,M,CLR,M,M,M,M,M,M,M,M,M,M,M,M,M,M,69.80,K05U 171415Z AUTO 10SM CLR 21/M00 A3024 RMK A01,M
MEV,2023-07-17 14:15,-119.7500,38.9963,1441.42,69.80,48.20,46.16,200.00,5.00,0.00,30.15,M,10.00,M,CLR,M,M,M,M,M,M,M,M,M,M,M,M,M,M,69.80,KMEV 171415Z AUTO 20005KT 10SM CLR 21/09 A3015 RMK AO2,M
BAM,2023-07-17 14:15,-116.8743,40.5990,1382.36,71.60,33.80,24.86,0.00,0.00,0.00,30.12,M,10.00,M,CLR,M,M,M,M,M,M,M,M,M,M,M,M,M,M,71.60,KBAM 171415Z AUTO 00000KT 10SM CLR 22/01 A3012 RMK AO1,M
HTH,2023-07-17 14:15,-118.6315,38.5448,1282.89,80.60,46.40,30.07,300.00,4.00,0.00,30.12,M,10.00,M,CLR,M,M,M,M,M,M,M,M,M,M,M,M,M,M,79.56,KHTH 171415Z AUTO 30004KT 10SM CLR 27/08 A3012 RMK A01,M
BVU,2023-07-17 14:35,-114.8611,35.9475,671.00,93.20,46.40,20.13,0.00,0.00,0.00,29.92,M,10.00,M,CLR,M,M,M,M,M,M,M,M,M,M,M,M,M,M,89.55,KBVU 171435Z AUTO 00000KT 10SM CLR 34/08 A2992 RMK AO2,M
CXP,2023-07-17 14:35,-119.7326,39.1923,1431.00,75.20,46.40,35.94,0.00,0.00,0.00,30.16,M,10.00,M,CLR,M,M,M,M,M,M,M,M,M,M,M,M,M,M,75.20,KCXP 171435Z AUTO 00000KT 10SM CLR 24/08 A3016 RMK AO2,M
RTS,2023-07-17 14:35,-119.8764,39.6682,1539.00,73.40,35.60,25.13,0.00,0.00,0.00,30.16,M,10.00,M,CLR,M,M,M,M,M,M,M,M,M,M,M,M,M,M,73.40,KRTS 171435Z AUTO 00000KT 10SM CLR 23/02 A3016 RMK AO2,M
05U,2023-07-17 14:35,-116.0051,39.6042,1811.23,73.40,28.40,18.80,M,M,0.00,30.25,M,10.00,M,CLR,M,M,M,M,M,M,M,M,M,M,M,M,M,M,73.40,K05U 171435Z AUTO 10SM CLR 23/M02 A3025 RMK A01,M
MEV,2023-07-17 14:35,-119.7500,38.9963,1441.42,71.60,48.20,43.42,0.00,0.00,0.00,30.15,M,10.00,M,CLR,M,M,M,M,M,M,M,M,M,M,M,M,M,M,71.60,KMEV 171435Z AUTO 00000KT 10SM CLR 22/09 A3015 RMK AO2,M
BAM,2023-07-17 14:35,-116.8743,40.5990,1382.36,73.40,37.40,26.98,0.00,0.00,0.00,30.12,M,10.00,M,CLR,M,M,M,M,M,M,M,M,M,M,M,M,M,M,73.40,KBAM 171435Z AUTO 00000KT 10SM CLR 23/03 A3012 RMK AO1,M
HTH,2023-07-17 14:35,-118.6315,38.5448,1282.89,82.40,46.40,28.36,0.00,0.00,0.00,30.12,M,10.00,M,CLR,M,M,M,M,M,M,M,M,M,M,M,M,M,M,80.64,KHTH 171435Z AUTO 00000KT 10SM CLR 28/08 A3012 RMK A01,M
TMT,2023-07-17 14:35,-117.1971,39.4643,1749.34,64.40,36.00,34.77,0.00,0.00,0.00,30.25,M,10.00,M,CLR,M,M,M,M,M,M,M,M,M,M,M,M,M,M,64.40,KTMT 171435Z AUTO 00000KT 10SM CLR 18/02 A3025 RMK AO2 T01800022,M
P68,2023-07-17 14:53,-116.0056,39.6014,1993.00,75.00,28.00,17.53,170.00,3.00,0.00,30.23,1013.10,M,M,M,M,M,M,M,M,M,M,M,M,M,M,M,M,M,75.00,KP68 171453Z AUTO 17003KT 24/M02 A3023 RMK AO1 SLP131 T02391022 53011,M
ELY,2023-07-17 14:53,-114.8453,39.2950,1909.00,M,M,M,M,M,0.00,30.23,M,M,M,M,M,M,M,M,M,M,M,M,M,M,M,M,M,M,M,KELY 171453Z AUTO A3023 RMK AO2 SLPNO 53006 PWINO FZRANO,M
VGT,2023-07-17 14:53,-115.1933,36.2111,667.00,95.00,51.00,22.62,0.00,0.00,0.00,29.91,1011.00,10.00,M,CLR,M,M,M,M,M,M,M,M,M,M,M,M,M,M,92.09,KVGT 171453Z 00000KT 10SM CLR 35/11 A2991 RMK AO2 SLP110 T03500106 53021,M
LOL,2023-07-17 14:53,-118.5701,40.0684,1192.43,85.00,41.00,21.21,90.00,5.00,0.00,30.07,1012.50,10.00,M,FEW,M,M,M,12000.00,M,M,M,M,M,M,M,M,M,M,82.10,KLOL 171453Z AUTO 09005KT 10SM FEW120 29/05 A3007 RMK AO2 SLP125 T02940050 50007,M
BVU,2023-07-17 14:55,-114.8611,35.9475,671.00,95.00,53.60,24.89,0.00,0.00,0.00,29.93,M,10.00,M,CLR,M,M,M,M,M,M,M,M,M,M,M,M,M,M,92.71,KBVU 171455Z AUTO 00000KT 10SM CLR 35/12 A2993 RMK AO2,M
CXP,2023-07-17 14:55,-119.7326,39.1923,1431.00,75.20,44.60,33.57,0.00,0.00,0.00,30.16,M,10.00,M,CLR,M,M,M,M,M,M,M,M,M,M,M,M,M,M,75.20,KCXP 171455Z AUTO 00000KT 10SM CLR 24/07 A3016 RMK AO2,M
INS,2023-07-17 14:55,-115.6733,36.5872,955.00,86.00,31.50,14.11,0.00,0.00,0.00,29.98,1009.20,10.00,M,CLR,M,M,M,M,M,M,M,M,M,M,M,M,M,M,82.64,KINS 171455Z AUTO 00000KT 10SM CLR 30/M00 A2998 RMK AO2 SLP092 T03011003 52013 $,M
RNO,2023-07-17 14:55,-119.7711,39.4839,1341.00,80.00,40.00,23.99,0.00,0.00,0.00,30.11,1012.30,10.00,M,FEW,BKN,M,M,10000.00,16000.00,M,M,M,M,M,M,M,M,M,78.83,KRNO 171455Z 00000KT 10SM FEW100 BKN160 27/04 A3011 RMK AO2 SLP123 VIRGA 60000 T02670044 55007 $,M
LSV,2023-07-17 14:55,-115.0343,36.2362,570.00,98.00,53.80,22.87,30.00,7.00,0.00,29.87,1008.10,10.00,M,CLR,M,M,M,M,M,M,M,M,M,M,M,M,M,M,95.93,KLSV 171455Z AUTO 03007KT 10SM CLR 37/12 A2987 RMK AO2 SLP081 T03670121 52021 $,M
RTS,2023-07-17 14:55,-119.8764,39.6682,1539.00,75.20,37.40,25.40,0.00,0.00,0.00,30.16,M,10.00,M,CLR,M,M,M,M,M,M,M,M,M,M,M,M,M,M,75.20,KRTS 171455Z AUTO 00000KT 10SM CLR 24/03 A3016 RMK AO2,M
05U,2023-07-17 14:55,-116.0051,39.6042,1811.23,77.00,28.40,16.67,M,M,0.00,30.25,M,10.00,M,CLR,M,M,M,M,M,M,M,M,M,M,M,M,M,M,77.00,K05U 171455Z AUTO 10SM CLR 25/M02 A3025 RMK A01,M
MEV,2023-07-17 14:55,-119.7500,38.9963,1441.42,73.40,51.80,46.71,0.00,0.00,0.00,30.15,M,10.00,M,CLR,M,M,M,M,M,M,M,M,M,M,M,M,M,M,73.40,KMEV 171455Z AUTO 00000KT 10SM CLR 23/11 A3015 RMK AO2,M
BAM,2023-07-17 14:55,-116.8743,40.5990,1382.36,77.00,33.80,20.74,180.00,5.00,0.00,30.13,M,10.00,M,CLR,M,M,M,M,M,M,M,M,M,M,M,M,M,M,77.00,KBAM 171455Z AUTO 18005KT 10SM CLR 25/01 A3013 RMK AO1,M
HTH,2023-07-17 14:55,-118.6315,38.5448,1282.89,84.20,46.40,26.76,0.00,0.00,0.00,30.13,M,10.00,M,CLR,M,M,M,M,M,M,M,M,M,M,M,M,M,M,81.87,KHTH 171455Z AUTO 00000KT 10SM CLR 29/08 A3013 RMK A01,M
TMT,2023-07-17 14:55,-117.1971,39.4643,1749.34,67.00,41.00,38.63,0.00,0.00,0.00,30.25,M,10.00,M,CLR,M,M,M,M,M,M,M,M,M,M,M,M,M,M,67.00,KTMT 171455Z AUTO 00000KT 10SM CLR 19/05 A3025 RMK AO2 T01940051,M
EKO,2023-07-17 14:56,-115.7860,40.8242,1367.00,71.00,35.00,26.62,0.00,0.00,0.00,30.16,1014.70,10.00,M,CLR,M,M,M,M,M,M,M,M,M,M,M,M,M,M,71.00,KEKO 171456Z AUTO 00000KT 10SM CLR 22/02 A3016 RMK AO2 SLP147 T02170017 51016,M
WMC,2023-07-17 14:56,-117.8072,40.9019,1315.00,M,M,M,M,M,0.00,30.11,M,M,M,M,M,M,M,M,M,M,M,M,M,M,M,M,M,M,M,KWMC 171456Z AUTO A3011 RMK AO2 SLPNO 51015 PWINO FZRANO $,M
NFL,2023-07-17 14:56,-118.7010,39.4166,1199.00,87.00,36.00,16.36,80.00,4.00,0.00,30.08,1015.30,10.00,M,SCT,SCT,M,M,12000.00,15000.00,M,M,M,M,M,M,M,M,M,83.48,KNFL 171456Z COR 08004KT 10SM SCT120 SCT150 31/02 A3008 RMK AO2 SLP153 T03060022 51009,M
HND,2023-07-17 14:56,-115.1344,35.9729,742.79,98.00,50.00,19.88,210.00,10.00,0.00,29.96,1011.80,10.00,M,CLR,M,M,M,M,M,M,M,M,M,M,M,M,M,M,94.94,KHND 171456Z 21010KT 10SM CLR 37/10 A2996 RMK AO2 SLP118 T03670100 53019,M
TPH,2023-07-17 14:56,-117.0904,38.0505,1654.00,82.00,34.00,17.74,360.00,4.00,0.00,30.19,1011.30,10.00,M,CLR,M,M,M,M,M,M,M,M,M,M,M,M,M,M,79.77,KTPH 171456Z AUTO 36004KT 10SM CLR 28/01 A3019 RMK AO2 SLP113 T02780011 52008 $,M
LAS,2023-07-17 14:56,-115.1634,36.0719,663.00,99.00,50.00,19.28,0.00,0.00,0.00,29.92,1009.40,10.00,M,FEW,M,M,M,16000.00,M,M,M,M,M,M,M,M,M,M,95.97,KLAS 171456Z 00000KT 10SM FEW160 37/10 A2992 RMK AO2 SLP094 ACC DSNT N AND SE-S T03720100 53019,M
BVU,2023-07-17 15:15,-114.8611,35.9475,671.00,98.60,57.20,25.41,150.00,7.00,0.00,29.93,M,10.00,M,CLR,M,M,M,M,M,M,M,M,M,M,M,M,M,M,97.76,KBVU 171515Z AUTO 15007KT 10SM CLR 37/14 A2993 RMK AO2,M
CXP,2023-07-17 15:15,-119.7326,39.1923,1431.00,77.00,44.60,31.62,190.00,7.00,0.00,30.16,M,10.00,M,CLR,M,M,M,M,M,M,M,M,M,M,M,M,M,M,77.00,KCXP 171515Z AUTO 19007KT 10SM CLR 25/07 A3016 RMK AO2,M
RTS,2023-07-17 15:15,-119.8764,39.6682,1539.00,78.80,32.00,18.18,130.00,3.00,0.00,30.16,M,10.00,M,CLR,M,M,M,M,M,M,M,M,M,M,M,M,M,M,78.80,KRTS 171515Z AUTO 13003KT 10SM CLR 26/00 A3016 RMK AO2,M
05U,2023-07-17 15:15,-116.0051,39.6042,1811.23,80.60,28.40,14.81,M,M,0.00,30.26,M,10.00,M,CLR,M,M,M,M,M,M,M,M,M,M,M,M,M,M,78.72,K05U 171515Z AUTO 10SM CLR 27/M02 A3026 RMK A01,M
MEV,2023-07-17 15:15,-119.7500,38.9963,1441.42,75.20,51.80,43.97,140.00,3.00,0.00,30.15,M,7.00,M,CLR,M,M,M,M,M,M,M,M,M,M,M,M,M,M,75.20,KMEV 171515Z AUTO 14003KT 7SM CLR 24/11 A3015 RMK AO2,M
BAM,2023-07-17 15:15,-116.8743,40.5990,1382.36,78.80,33.80,19.55,0.00,0.00,0.00,30.15,M,10.00,M,CLR,M,M,M,M,M,M,M,M,M,M,M,M,M,M,78.80,KBAM 171515Z AUTO 00000KT 10SM CLR 26/01 A3015 RMK AO1,M
HTH,2023-07-17 15:15,-118.6315,38.5448,1282.89,84.20,46.40,26.76,0.00,0.00,0.00,30.13,M,10.00,M,CLR,M,M,M,M,M,M,M,M,M,M,M,M,M,M,81.87,KHTH 171515Z AUTO 00000KT 10SM CLR 29/08 A3013 RMK A01,M
TMT,2023-07-17 15:15,-117.1971,39.4643,1749.34,70.30,39.60,32.67,0.00,0.00,0.00,30.26,M,10.00,M,CLR,M,M,M,M,M,M,M,M,M,M,M,M,M,M,70.30,KTMT 171515Z AUTO 00000KT 10SM CLR 21/04 A3026 RMK AO2 T02130042,M
BVU,2023-07-17 15:35,-114.8611,35.9475,671.00,100.40,57.20,24.06,170.00,11.00,0.00,29.93,M,10.00,M,CLR,M,M,M,M,M,M,M,M,M,M,M,M,M,M,99.77,KBVU 171535Z AUTO 17011KT 10SM CLR 38/14 A2993 RMK AO2,M
CXP,2023-07-17 15:35,-119.7326,39.1923,1431.00,78.80,44.60,29.79,0.00,0.00,0.00,30.16,M,10.00,M,CLR,M,M,M,M,M,M,M,M,M,M,M,M,M,M,78.80,KCXP 171535Z AUTO 00000KT 10SM CLR 26/07 A3016 RMK AO2,M
RTS,2023-07-17 15:35,-119.8764,39.6682,1539.00,78.80,33.80,19.55,0.00,0.00,0.00,30.16,M,10.00,M,CLR,M,M,M,M,M,M,M,M,M,M,M,M,M,M,78.80,KRTS 171535Z AUTO 00000KT 10SM CLR 26/01 A3016 RMK AO2,M
05U,2023-07-17 15:35,-116.0051,39.6042,1811.23,84.20,28.40,13.18,M,M,0.00,30.26,M,10.00,M,CLR,M,M,M,M,M,M,M,M,M,M,M,M,M,M,81.25,K05U 171535Z AUTO 10SM CLR 29/M02 A3026 RMK A01,M
MEV,2023-07-17 15:35,-119.7500,38.9963,1441.42,77.00,50.00,38.74,140.00,3.00,0.00,30.15,M,10.00,M,CLR,M,M,M,M,M,M,M,M,M,M,M,M,M,M,77.00,KMEV 171535Z AUTO 14003KT 10SM CLR 25/10 A3015 RMK AO2,M
BAM,2023-07-17 15:35,-116.8743,40.5990,1382.36,82.40,33.80,17.38,0.00,0.00,0.00,30.15,M,10.00,M,CLR,M,M,M,M,M,M,M,M,M,M,M,M,M,M,80.03,KBAM 171535Z AUTO 00000KT 10SM CLR 28/01 A3015 RMK AO1,M
HTH,2023-07-17 15:35,-118.6315,38.5448,1282.89,87.80,32.00,13.59,320.00,4.00,0.00,30.13,M,10.00,M,CLR,M,M,M,M,M,M,M,M,M,M,M,M,M,M,84.08,KHTH 171535Z AUTO 32004KT 10SM CLR 31/M00 A3013 RMK A01,M
TMT,2023-07-17 15:35,-117.1971,39.4643,1749.34,73.40,41.00,31.05,0.00,0.00,0.00,30.26,M,10.00,M,CLR,M,M,M,M,M,M,M,M,M,M,M,M,M,M,73.40,KTMT 171535Z AUTO 00000KT 10SM CLR 23/05 A3026 RMK AO2 T02300050,M
P68,2023-07-17 15:53,-116.0056,39.6014,1993.00,84.00,28.00,13.04,210.00,5.00,0.00,30.23,1013.00,M,M,M,M,M,M,M,M,M,M,M,M,M,M,M,M,M,81.10,KP68 171553Z AUTO 21005KT 29/M02 A3023 RMK AO1 SLP130 T02891022,M
ELY,2023-07-17 15:53,-114.8453,39.2950,1909.00,M,M,M,M,M,0.00,30.23,M,M,M,M,M,M,M,M,M,M,M,M,M,M,M,M,M,M,M,KELY 171553Z AUTO A3023 RMK AO2 SLPNO PWINO FZRANO,M
VGT,2023-07-17 15:53,-115.1933,36.2111,667.00,101.00,52.00,19.55,70.00,6.00,0.00,29.92,1011.10,10.00,M,CLR,M,M,M,M,M,M,M,M,M,M,M,M,M,M,98.59,KVGT 171553Z 07006KT 10SM CLR 38/11 A2992 RMK AO2 SLP111 T03830111,M
LOL,2023-07-17 15:53,-118.5701,40.0684,1192.43,88.00,45.00,22.47,100.00,4.00,T,30.08,1012.70,10.00,M,CLR,M,M,M,M,M,M,M,M,M,M,M,M,M,M,84.72,KLOL 171553Z AUTO 10004KT 10SM CLR 31/07 A3008 RMK AO2 RAB03E13 SLP127 P0000 T03110072,M
BVU,2023-07-17 15:55,-114.8611,35.9475,671.00,100.40,55.40,22.54,160.00,11.00,0.00,29.93,M,10.00,M,CLR,M,M,M,M,M,M,M,M,M,M,M,M,M,M,99.06,KBVU 171555Z AUTO 16011KT 10SM CLR 38/13 A2993 RMK AO2,M
CXP,2023-07-17 15:55,-119.7326,39.1923,1431.00,78.80,46.40,31.90,120.00,4.00,0.00,30.16,M,10.00,M,CLR,M,M,M,M,M,M,M,M,M,M,M,M,M,M,78.80,KCXP 171555Z AUTO 12004KT 10SM CLR 26/08 A3016 RMK AO2,M
INS,2023-07-17 15:55,-115.6733,36.5872,955.00,94.00,29.00,9.91,0.00,0.00,0.00,30.00,1009.60,10.00,M,CLR,M,M,M,M,M,M,M,M,M,M,M,M,M,M,88.57,KINS 171555Z AUTO 00000KT 10SM CLR 34/M02 A3000 RMK AO2 SLP096 T03441016 $,M
RNO,2023-07-17 15:55,-119.7711,39.4839,1341.00,80.00,41.00,24.94,310.00,3.00,0.00,30.11,1012.60,10.00,M,FEW,BKN,M,M,10000.00,15000.00,M,M,M,M,M,M,M,M,M,78.87,KRNO 171555Z 31003KT 10SM FEW100 BKN150 27/05 A3011 RMK AO2 SLP126 VIRGA T02670050 $,M
LSV,2023-07-17 15:55,-115.0343,36.2362,570.00,104.70,52.70,17.96,280.00,3.00,0.00,29.87,1008.10,10.00,M,CLR,M,M,M,M,M,M,M,M,M,M,M,M,M,M,102.73,KLSV 171555Z AUTO 28003KT 10SM CLR 40/12 A2987 RMK AO2 SLP081 T04040115 $,M
RTS,2023-07-17 15:55,-119.8764,39.6682,1539.00,78.80,37.40,22.54,0.00,0.00,0.00,30.16,M,10.00,M,CLR,M,M,M,M,M,M,M,M,M,M,M,M,M,M,78.80,KRTS 171555Z AUTO 00000KT 10SM CLR 26/03 A3016 RMK AO2,M
05U,2023-07-17 15:55,-116.0051,39.6042,1811.23,87.80,30.20,12.64,M,M,0.00,30.26,M,10.00,M,CLR,M,M,M,M,M,M,M,M,M,M,M,M,M,M,84.01,K05U 171555Z AUTO 10SM CLR 31/M01 A3026 RMK A01,M
MEV,2023-07-17 15:55,-119.7500,38.9963,1441.42,77.00,53.60,44.25,160.00,4.00,0.00,30.15,M,10.00,M,CLR,M,M,M,M,M,M,M,M,M,M,M,M,M,M,77.00,KMEV 171555Z AUTO 16004KT 10SM CLR 25/12 A3015 RMK AO2,M
BAM,2023-07-17 15:55,-116.8743,40.5990,1382.36,86.00,37.40,17.85,360.00,5.00,0.00,30.16,M,10.00,M,CLR,M,M,M,M,M,M,M,M,M,M,M,M,M,M,82.73,KBAM 171555Z AUTO 36005KT 10SM CLR 30/03 A3016 RMK AO1,M
HTH,2023-07-17 15:55,-118.6315,38.5448,1282.89,89.60,30.20,11.94,0.00,0.00,0.00,30.13,M,10.00,M,CLR,M,M,M,M,M,M,M,M,M,M,M,M,M,M,85.34,KHTH 171555Z AUTO 00000KT 10SM CLR 32/M01 A3013 RMK A01,M
TMT,2023-07-17 15:55,-117.1971,39.4643,1749.34,76.50,42.00,29.10,0.00,0.00,0.00,30.26,M,10.00,M,CLR,M,M,M,M,M,M,M,M,M,M,M,M,M,M,76.50,KTMT 171555Z AUTO 00000KT 10SM CLR 25/06 A3026 RMK AO2 T02470056,M
EKO,2023-07-17 15:56,-115.7860,40.8242,1367.00,77.00,40.00,26.49,280.00,3.00,0.00,30.16,1014.60,10.00,M,CLR,M,M,M,M,M,M,M,M,M,M,M,M,M,M,77.00,KEKO 171556Z AUTO 28003KT 10SM CLR 25/04 A3016 RMK AO2 SLP146 T02500044,M
WMC,2023-07-17 15:56,-117.8072,40.9019,1315.00,M,M,M,M,M,0.00,30.10,M,M,M,M,M,M,M,M,M,M,M,M,M,M,M,M,M,M,M,KWMC 171556Z AUTO A3010 RMK AO2 SLPNO PWINO FZRANO $,M
NFL,2023-07-17 15:56,-118.7010,39.4166,1199.00,90.00,40.00,17.41,M,3.00,0.00,30.08,1015.30,10.00,M,FEW,SCT,BKN,BKN,8000.00,12000.00,15000.00,18000.00,M,M,M,M,M,M,M,86.11,KNFL 171556Z VRB03KT 10SM FEW080 SCT120 BKN150 BKN180 32/04 A3008 RMK AO2 SLP153 T03220044,M
HND,2023-07-17 15:56,-115.1344,35.9729,742.79,101.00,51.00,18.84,210.00,11.00,0.00,29.97,1012.20,10.00,M,CLR,M,M,M,M,M,M,M,M,M,M,M,M,M,M,98.30,KHND 171556Z 21011KT 10SM CLR 38/11 A2997 RMK AO2 SLP122 T03830106,M
TPH,2023-07-17 15:56,-117.0904,38.0505,1654.00,86.00,34.00,15.60,0.00,0.00,0.00,30.19,1011.80,10.00,M,CLR,M,M,M,M,M,M,M,M,M,M,M,M,M,M,82.66,KTPH 171556Z AUTO 00000KT 10SM CLR 30/01 A3019 RMK AO2 SLP118 T03000011 $,M
LAS,2023-07-17 15:56,-115.1634,36.0719,663.00,102.00,50.00,17.62,160.00,6.00,0.00,29.92,1009.40,10.00,M,FEW,SCT,M,M,16000.00,25000.00,M,M,M,M,M,M,M,M,M,99.07,KLAS 171556Z 16006KT 10SM FEW160 SCT250 39/10 A2992 RMK AO2 SLP094 T03890100,M
LAS,2023-07-17 16:11,-115.1634,36.0719,663.00,102.00,49.00,16.97,180.00,10.00,0.00,29.91,M,10.00,16.00,FEW,SCT,M,M,16000.00,25000.00,M,M,M,M,M,M,M,M,M,98.82,KLAS 171611Z 18010G16KT 10SM FEW160 SCT250 39/09 A2991 RMK AO2 T03890094,M
BVU,2023-07-17 16:15,-114.8611,35.9475,671.00,100.40,57.20,24.06,140.00,11.00,0.00,29.93,M,10.00,M,CLR,M,M,M,M,M,M,M,M,M,M,M,M,M,M,99.77,KBVU 171615Z AUTO 14011KT 10SM CLR 38/14 A2993 RMK AO2,M
CXP,2023-07-17 16:15,-119.7326,39.1923,1431.00,78.80,46.40,31.90,0.00,0.00,0.00,30.16,M,9.00,M,CLR,M,M,M,M,M,M,M,M,M,M,M,M,M,M,78.80,KCXP 171615Z AUTO 00000KT 9SM CLR 26/08 A3016 RMK AO2,M
RTS,2023-07-17 16:15,-119.8764,39.6682,1539.00,78.80,41.00,25.95,180.00,3.00,0.00,30.17,M,10.00,M,CLR,M,M,M,M,M,M,M,M,M,M,M,M,M,M,78.80,KRTS 171615Z AUTO 18003KT 10SM CLR 26/05 A3017 RMK AO2,M
05U,2023-07-17 16:15,-116.0051,39.6042,1811.23,87.80,32.00,13.59,M,M,0.00,30.26,M,10.00,M,CLR,M,M,M,M,M,M,M,M,M,M,M,M,M,M,84.08,K05U 171615Z AUTO 10SM CLR 31/M00 A3026 RMK A01,M
MEV,2023-07-17 16:15,-119.7500,38.9963,1441.42,82.40,48.20,30.35,0.00,0.00,0.00,30.14,M,10.00,M,CLR,M,M,M,M,M,M,M,M,M,M,M,M,M,M,80.80,KMEV 171615Z AUTO 00000KT 10SM CLR 28/09 A3014 RMK AO2,M
BAM,2023-07-17 16:15,-116.8743,40.5990,1382.36,86.00,46.40,25.26,340.00,10.00,0.00,30.16,M,10.00,M,CLR,M,M,M,M,M,M,M,M,M,M,M,M,M,M,83.22,KBAM 171615Z AUTO 34010KT 10SM CLR 30/08 A3016 RMK AO1,M
HTH,2023-07-17 16:15,-118.6315,38.5448,1282.89,89.60,32.00,12.84,0.00,0.00,0.00,30.12,M,10.00,M,CLR,M,M,M,M,M,M,M,M,M,M,M,M,M,M,85.54,KHTH 171615Z AUTO 00000KT 10SM CLR 32/M00 A3012 RMK A01,M
TMT,2023-07-17 16:15,-117.1971,39.4643,1749.34,80.40,42.80,26.39,0.00,0.00,0.00,30.25,M,10.00,M,CLR,M,M,M,M,M,M,M,M,M,M,M,M,M,M,79.19,KTMT 171615Z AUTO 00000KT 10SM CLR 27/06 A3025 RMK AO2 T02690060,M
BVU,2023-07-17 16:35,-114.8611,35.9475,671.00,102.20,57.20,22.79,140.00,12.00,0.00,29.93,M,10.00,M,CLR,M,M,M,M,M,M,M,M,M,M,M,M,M,M,101.78,KBVU 171635Z AUTO 14012KT 10SM CLR 39/14 A2993 RMK AO2,M
CXP,2023-07-17 16:35,-119.7326,39.1923,1431.00,80.60,46.40,30.07,0.00,0.00,0.00,30.15,M,10.00,M,CLR,M,M,M,M,M,M,M,M,M,M,M,M,M,M,79.56,KCXP 171635Z AUTO 00000KT 10SM CLR 27/08 A3015 RMK AO2,M
RTS,2023-07-17 16:35,-119.8764,39.6682,1539.00,78.80,35.60,21.00,0.00,0.00,0.00,30.17,M,10.00,M,CLR,M,M,M,M,M,M,M,M,M,M,M,M,M,M,78.80,KRTS 171635Z AUTO 00000KT 10SM CLR 26/02 A3017 RMK AO2,M
05U,2023-07-17 16:35,-116.0051,39.6042,1811.23,89.60,32.00,12.84,M,M,0.00,30.25,M,10.00,M,CLR,M,M,M,M,M,M,M,M,M,M,M,M,M,M,85.54,K05U 171635Z AUTO 10SM CLR 32/00 A3025 RMK A01,M
MEV,2023-07-17 16:35,-119.7500,38.9963,1441.42,82.40,48.20,30.35,0.00,0.00,0.00,30.14,M,10.00,M,CLR,M,M,M,M,M,M,M,M,M,M,M,M,M,M,80.80,KMEV 171635Z AUTO 00000KT 10SM CLR 28/09 A3014 RMK AO2,M
BAM,2023-07-17 16:35,-116.8743,40.5990,1382.36,86.00,46.40,25.26,340.00,11.00,0.00,30.16,M,10.00,15.00,CLR,M,M,M,M,M,M,M,M,M,M,M,M,M,M,83.22,KBAM 171635Z AUTO 34011G15KT 10SM CLR 30/08 A3016 RMK AO1,M
HTH,2023-07-17 16:35,-118.6315,38.5448,1282.89,89.60,32.00,12.84,M,M,0.00,30.12,M,10.00,M,CLR,M,M,M,M,M,M,M,M,M,M,M,M,M,M,85.54,KHTH 171635Z AUTO 10SM CLR 32/00 A3012 RMK A01,M
TMT,2023-07-17 16:35,-117.1971,39.4643,1749.34,83.00,38.00,20.13,0.00,0.00,0.00,30.25,M,10.00,M,CLR,M,M,M,M,M,M,M,M,M,M,M,M,M,M,80.56,KTMT 171635Z AUTO 00000KT 10SM CLR 28/03 A3025 RMK AO2 T02840034,M
P68,2023-07-17 16:53,-116.0056,39.6014,1993.00,89.00,31.00,12.57,10.00,5.00,0.00,30.22,1013.00,M,M,M,M,M,M,M,M,M,M,M,M,M,M,M,M,M,84.98,KP68 171653Z AUTO 01005KT 32/M01 A3022 RMK AO1 SLP130 T03171006,M
ELY,2023-07-17 16:53,-114.8453,39.2950,1909.00,M,M,M,M,M,0.00,30.23,M,M,M,M,M,M,M,M,M,M,M,M,M,M,M,M,M,M,M,KELY 171653Z AUTO A3023 RMK AO2 SLPNO PWINO FZRANO,M
VGT,2023-07-17 16:53,-115.1933,36.2111,667.00,104.00,52.00,17.87,120.00,8.00,0.00,29.91,1010.80,10.00,M,CLR,M,M,M,M,M,M,M,M,M,M,M,M,M,M,101.76,KVGT 171653Z 12008KT 10SM CLR 40/11 A2991 RMK AO2 SLP108 T04000111,M
LOL,2023-07-17 16:53,-118.5701,40.0684,1192.43,88.00,43.00,20.82,150.00,4.00,0.00,30.06,1012.20,10.00,M,CLR,M,M,M,M,M,M,M,M,M,M,M,M,M,M,84.58,KLOL 171653Z AUTO 15004KT 10SM CLR 31/06 A3006 RMK AO2 SLP122 T03110061,M
BVU,2023-07-17 16:55,-114.8611,35.9475,671.00,104.00,55.40,20.24,160.00,10.00,0.00,29.93,M,10.00,16.00,CLR,M,M,M,M,M,M,M,M,M,M,M,M,M,M,103.01,KBVU 171655Z AUTO 16010G16KT 10SM CLR 40/13 A2993 RMK AO2,M
CXP,2023-07-17 16:55,-119.7326,39.1923,1431.00,82.40,46.40,28.36,0.00,0.00,0.00,30.15,M,10.00,M,CLR,M,M,M,M,M,M,M,M,M,M,M,M,M,M,80.64,KCXP 171655Z AUTO 00000KT 10SM CLR 28/08 A3015 RMK AO2,M
RNO,2023-07-17 16:55,-119.7711,39.4839,1341.00,80.00,42.00,25.93,350.00,3.00,0.00,30.12,1012.80,10.00,M,BKN,BKN,M,M,16000.00,22000.00,M,M,M,M,M,M,M,M,M,78.92,KRNO 171655Z 35003KT 10SM BKN160 BKN220 27/06 A3012 RMK AO2 SLP128 VIRGA T02670056 $,M
RTS,2023-07-17 16:55,-119.8764,39.6682,1539.00,80.60,35.60,19.79,130.00,5.00,0.00,30.17,M,10.00,M,CLR,M,M,M,M,M,M,M,M,M,M,M,M,M,M,78.94,KRTS 171655Z AUTO 13005KT 10SM CLR 27/02 A3017 RMK AO2,M
05U,2023-07-17 16:55,-116.0051,39.6042,1811.23,89.60,32.00,12.84,360.00,3.00,0.00,30.25,M,10.00,M,CLR,M,M,M,M,M,M,M,M,M,M,M,M,M,M,85.54,K05U 171655Z AUTO 36003KT 10SM CLR 32/00 A3025 RMK A01,M
MEV,2023-07-17 16:55,-119.7500,38.9963,1441.42,82.40,48.20,30.35,0.00,0.00,0.00,30.14,M,9.00,M,CLR,M,M,M,M,M,M,M,M,M,M,M,M,M,M,80.80,KMEV 171655Z AUTO 00000KT 9SM CLR 28/09 A3014 RMK AO2,M
BAM,2023-07-17 16:55,-116.8743,40.5990,1382.36,87.80,46.40,23.85,340.00,9.00,0.00,30.15,M,10.00,M,CLR,M,M,M,M,M,M,M,M,M,M,M,M,M,M,84.68,KBAM 171655Z AUTO 34009KT 10SM CLR 31/08 A3015 RMK AO1,M
HTH,2023-07-17 16:55,-118.6315,38.5448,1282.89,91.40,30.20,11.28,330.00,5.00,0.00,30.11,M,10.00,M,CLR,M,M,M,M,M,M,M,M,M,M,M,M,M,M,86.71,KHTH 171655Z AUTO 33005KT 10SM CLR 33/M01 A3011 RMK A01,M
INS,2023-07-17 16:55,-115.6733,36.5872,955.00,97.70,40.50,13.98,60.00,4.00,0.00,29.99,1009.20,10.00,M,CLR,M,M,M,M,M,M,M,M,M,M,M,M,M,M,93.19,KINS 171655Z AUTO 06004KT 10SM CLR 37/05 A2999 RMK AO2 SLP092 T03650047 $,M
LSV,2023-07-17 16:55,-115.0343,36.2362,570.00,104.00,51.80,17.74,100.00,7.00,0.00,29.87,1008.20,10.00,M,CLR,M,M,M,M,M,M,M,M,M,M,M,M,M,M,101.69,KLSV 171655Z AUTO 10007KT 10SM CLR 40/11 A2987 RMK AO2 SLP082 T03990110 $,M
TMT,2023-07-17 16:55,-117.1971,39.4643,1749.34,84.00,37.20,18.88,0.00,0.00,0.00,30.25,M,10.00,M,CLR,M,M,M,M,M,M,M,M,M,M,M,M,M,M,81.23,KTMT 171655Z AUTO 00000KT 10SM CLR 29/03 A3025 RMK AO2 T02890029,M
EKO,2023-07-17 16:56,-115.7860,40.8242,1367.00,87.00,43.00,21.49,200.00,10.00,0.00,30.16,1014.30,10.00,M,CLR,M,M,M,M,M,M,M,M,M,M,M,M,M,M,83.76,KEKO 171656Z AUTO 20010KT 10SM CLR 31/06 A3016 RMK AO2 SLP143 T03060061,M
WMC,2023-07-17 16:56,-117.8072,40.9019,1315.00,M,M,M,M,M,0.00,30.08,M,M,M,M,M,M,M,M,M,M,M,M,M,M,M,M,M,M,M,KWMC 171656Z AUTO A3008 RMK AO2 SLPNO PWINO FZRANO $,M
NFL,2023-07-17 16:56,-118.7010,39.4166,1199.00,94.00,43.00,17.25,M,3.00,0.00,30.07,1014.90,10.00,M,FEW,SCT,SCT,SCT,8000.00,10000.00,15000.00,18000.00,M,M,M,M,M,M,M,89.94,KNFL 171656Z VRB03KT 10SM FEW080 SCT100 SCT150 SCT180 34/06 A3007 RMK AO2 SLP149 T03440061,M
HND,2023-07-17 16:56,-115.1344,35.9729,742.79,106.00,51.00,16.23,240.00,13.00,0.00,29.96,1012.10,10.00,M,CLR,M,M,M,M,M,M,M,M,M,M,M,M,M,M,103.51,KHND 171656Z 24013KT 10SM CLR 41/11 A2996 RMK AO2 SLP121 T04110106,M
TPH,2023-07-17 16:56,-117.0904,38.0505,1654.00,94.00,36.00,13.13,310.00,9.00,0.00,30.19,1011.30,10.00,14.00,CLR,M,M,M,M,M,M,M,M,M,M,M,M,M,M,89.49,KTPH 171656Z AUTO 31009G14KT 10SM CLR 34/02 A3019 RMK AO2 SLP113 T03440022 $,M
LAS,2023-07-17 16:56,-115.1634,36.0719,663.00,105.00,49.00,15.52,180.00,10.00,0.00,29.91,1009.10,10.00,18.00,SCT,BKN,M,M,16000.00,25000.00,M,M,M,M,M,M,M,M,M,101.87,KLAS 171656Z 18010G18KT 10SM SCT160 BKN250 41/09 A2991 RMK AO2 SLP091 T04060094,M
CXP,2023-07-17 17:15,-119.7326,39.1923,1431.00,84.20,46.40,26.76,0.00,0.00,0.00,30.15,M,10.00,M,CLR,M,M,M,M,M,M,M,M,M,M,M,M,M,M,81.87,KCXP 171715Z AUTO 00000KT 10SM CLR 29/08 A3015 RMK AO2,M
BVU,2023-07-17 17:15,-114.8611,35.9475,671.00,104.00,55.40,20.24,150.00,11.00,0.00,29.93,M,10.00,M,CLR,M,M,M,M,M,M,M,M,M,M,M,M,M,M,103.01,KBVU 171715Z AUTO 15011KT 10SM CLR 40/13 A2993 RMK AO2,M
RTS,2023-07-17 17:15,-119.8764,39.6682,1539.00,80.60,39.20,22.81,150.00,8.00,0.00,30.17,M,10.00,M,CLR,M,M,M,M,M,M,M,M,M,M,M,M,M,M,79.10,KRTS 171715Z AUTO 15008KT 10SM CLR 27/04 A3017 RMK AO2,M
05U,2023-07-17 17:15,-116.0051,39.6042,1811.23,91.40,33.80,13.05,M,M,0.00,30.25,M,10.00,M,CLR,M,M,M,M,M,M,M,M,M,M,M,M,M,M,87.13,K05U 171715Z AUTO 10SM CLR 33/01 A3025 RMK A01,M
MEV,2023-07-17 17:15,-119.7500,38.9963,1441.42,82.40,48.20,30.35,0.00,0.00,0.00,30.14,M,10.00,M,CLR,M,M,M,M,M,M,M,M,M,M,M,M,M,M,80.80,KMEV 171715Z AUTO 00000KT 10SM CLR 28/09 A3014 RMK AO2,M
BAM,2023-07-17 17:15,-116.8743,40.5990,1382.36,89.60,44.60,21.04,340.00,6.00,0.00,30.14,M,10.00,M,CLR,M,M,M,M,M,M,M,M,M,M,M,M,M,M,86.07,KBAM 171715Z AUTO 34006KT 10SM CLR 32/07 A3014 RMK AO1,M
HTH,2023-07-17 17:15,-118.6315,38.5448,1282.89,91.40,32.00,12.14,10.00,4.00,0.00,30.11,M,10.00,M,CLR,M,M,M,M,M,M,M,M,M,M,M,M,M,M,86.91,KHTH 171715Z AUTO 01004KT 10SM CLR 33/M00 A3011 RMK A01,M
TMT,2023-07-17 17:15,-117.1971,39.4643,1749.34,84.70,36.70,18.10,0.00,0.00,0.00,30.24,M,10.00,M,CLR,M,M,M,M,M,M,M,M,M,M,M,M,M,M,81.73,KTMT 171715Z AUTO 00000KT 10SM CLR 29/03 A3024 RMK AO2 T02930026,M
BVU,2023-07-17 17:35,-114.8611,35.9475,671.00,104.00,55.40,20.24,150.00,16.00,0.00,29.93,M,10.00,M,CLR,M,M,M,M,M,M,M,M,M,M,M,M,M,M,103.01,KBVU 171735Z AUTO 15016KT 10SM CLR 40/13 A2993 RMK AO2,M
CXP,2023-07-17 17:35,-119.7326,39.1923,1431.00,86.00,46.40,25.26,0.00,0.00,0.00,30.15,M,10.00,M,CLR,M,M,M,M,M,M,M,M,M,M,M,M,M,M,83.22,KCXP 171735Z AUTO 00000KT 10SM CLR 30/08 A3015 RMK AO2,M
RTS,2023-07-17 17:35,-119.8764,39.6682,1539.00,80.60,42.80,26.22,130.00,9.00,0.00,30.17,M,10.00,M,CLR,M,M,M,M,M,M,M,M,M,M,M,M,M,M,79.30,KRTS 171735Z AUTO 13009KT 10SM CLR 27/06 A3017 RMK AO2,M
05U,2023-07-17 17:35,-116.0051,39.6042,1811.23,91.40,33.80,13.05,M,M,0.00,30.25,M,10.00,M,CLR,M,M,M,M,M,M,M,M,M,M,M,M,M,M,87.13,K05U 171735Z AUTO 10SM CLR 33/01 A3025 RMK A01,M
MEV,2023-07-17 17:35,-119.7500,38.9963,1441.42,86.00,46.40,25.26,30.00,3.00,0.00,30.13,M,10.00,M,CLR,M,M,M,M,M,M,M,M,M,M,M,M,M,M,83.22,KMEV 171735Z AUTO 03003KT 10SM CLR 30/08 A3013 RMK AO2,M
BAM,2023-07-17 17:35,-116.8743,40.5990,1382.36,89.60,46.40,22.53,330.00,4.00,0.00,30.14,M,10.00,M,CLR,M,M,M,M,M,M,M,M,M,M,M,M,M,M,86.24,KBAM 171735Z AUTO 33004KT 10SM CLR 32/08 A3014 RMK AO1,M
HTH,2023-07-17 17:35,-118.6315,38.5448,1282.89,91.40,32.00,12.14,300.00,5.00,0.00,30.11,M,10.00,M,CLR,M,M,M,M,M,M,M,M,M,M,M,M,M,M,86.91,KHTH 171735Z AUTO 30005KT 10SM CLR 33/M00 A3011 RMK A01,M
TMT,2023-07-17 17:35,-117.1971,39.4643,1749.34,86.50,37.20,17.43,120.00,4.00,0.00,30.24,M,10.00,M,CLR,M,M,M,M,M,M,M,M,M,M,M,M,M,M,83.12,KTMT 171735Z AUTO 12004KT 10SM CLR 30/03 A3024 RMK AO2 T03030029,M
P68,2023-07-17 17:53,-116.0056,39.6014,1993.00,91.00,32.00,12.29,20.00,9.00,0.00,30.22,1013.30,M,M,M,M,M,M,M,M,M,M,M,M,M,M,M,M,M,86.61,KP68 171753Z AUTO 02009KT 33/00 A3022 RMK AO1 SLP133 T03280000 10328 20144 58001,M
ELY,2023-07-17 17:53,-114.8453,39.2950,1909.00,M,M,M,M,M,0.00,30.23,M,M,M,M,M,M,M,M,M,M,M,M,M,M,M,M,M,M,M,KELY 171753Z AUTO A3023 RMK AO2 SLPNO 54000 PWINO FZRANO,M
VGT,2023-07-17 17:53,-115.1933,36.2111,667.00,109.00,50.00,14.32,150.00,15.00,0.00,29.90,1010.40,10.00,M,CLR,M,M,M,M,M,M,M,M,M,M,M,M,M,M,106.19,KVGT 171753Z 15015KT 10SM CLR 43/10 A2990 RMK AO2 SLP104 T04280100 10433 20317 58003,M
LOL,2023-07-17 17:53,-118.5701,40.0684,1192.43,89.00,44.00,20.96,110.00,7.00,0.00,30.03,1011.60,10.00,M,FEW,M,M,M,9500.00,M,M,M,M,M,M,M,M,M,M,85.50,KLOL 171753Z AUTO 11007KT 10SM FEW095 32/07 A3003 RMK AO2 PRESFR SLP116 60000 T03170067 10317 20222 58012,M
BVU,2023-07-17 17:55,-114.8611,35.9475,671.00,105.80,55.40,19.19,160.00,14.00,0.00,29.93,M,10.00,19.00,CLR,M,M,M,M,M,M,M,M,M,M,M,M,M,M,104.97,KBVU 171755Z AUTO 16014G19KT 10SM CLR 41/13 A2993 RMK AO2,M
CXP,2023-07-17 17:55,-119.7326,39.1923,1431.00,86.00,44.60,23.59,0.00,0.00,0.00,30.14,M,10.00,M,CLR,M,M,M,M,M,M,M,M,M,M,M,M,M,M,83.07,KCXP 171755Z AUTO 00000KT 10SM CLR 30/07 A3014 RMK AO2,M
INS,2023-07-17 17:55,-115.6733,36.5872,955.00,102.00,39.70,11.90,70.00,5.00,0.00,29.99,1009.20,10.00,M,BKN,M,M,M,20000.00,M,M,M,M,M,M,M,M,M,M,96.92,KINS 171755Z AUTO 07005KT 10SM BKN200 39/04 A2999 RMK AO2 VIS 1 1/8 RWY08 SLP092 T03890043 10389 20259 50001 $,M
RNO,2023-07-17 17:55,-119.7711,39.4839,1341.00,83.00,45.00,26.37,0.00,0.00,0.00,30.12,1012.80,10.00,M,BKN,BKN,M,M,16000.00,22000.00,M,M,M,M,M,M,M,M,M,80.93,KRNO 171755Z 00000KT 10SM BKN160 BKN220 28/07 A3012 RMK AO2 SLP128 VIRGA 60000 T02830072 10283 20250 51002,M
LSV,2023-07-17 17:55,-115.0343,36.2362,570.00,107.20,54.70,17.95,120.00,8.00,0.00,29.86,1007.90,10.00,M,FEW,M,M,M,20000.00,M,M,M,M,M,M,M,M,M,M,106.17,KLSV 171755Z AUTO 12008KT 10SM FEW200 42/13 A2986 RMK AO2 SLP079 T04180126 10429 20301 58002 $,M
RTS,2023-07-17 17:55,-119.8764,39.6682,1539.00,80.60,42.80,26.22,150.00,9.00,0.00,30.17,M,10.00,M,CLR,M,M,M,M,M,M,M,M,M,M,M,M,M,M,79.30,KRTS 171755Z AUTO 15009KT 10SM CLR 27/06 A3017 RMK AO2,M
05U,2023-07-17 17:55,-116.0051,39.6042,1811.23,93.20,33.80,12.34,M,M,0.00,30.25,M,10.00,M,CLR,M,M,M,M,M,M,M,M,M,M,M,M,M,M,88.55,K05U 171755Z AUTO 10SM CLR 34/01 A3025 RMK A01,M
MEV,2023-07-17 17:55,-119.7500,38.9963,1441.42,87.80,44.60,22.27,0.00,0.00,0.00,30.13,M,10.00,M,CLR,M,M,M,M,M,M,M,M,M,M,M,M,M,M,84.53,KMEV 171755Z AUTO 00000KT 10SM CLR 31/07 A3013 RMK AO2,M
BAM,2023-07-17 17:55,-116.8743,40.5990,1382.36,89.60,44.60,21.04,0.00,0.00,0.00,30.14,M,10.00,M,CLR,M,M,M,M,M,M,M,M,M,M,M,M,M,M,86.07,KBAM 171755Z AUTO 00000KT 10SM CLR 32/07 A3014 RMK AO1,M
HTH,2023-07-17 17:55,-118.6315,38.5448,1282.89,93.20,32.00,11.48,0.00,0.00,0.00,30.11,M,10.00,M,CLR,M,M,M,M,M,M,M,M,M,M,M,M,M,M,88.31,KHTH 171755Z AUTO 00000KT 10SM CLR 34/M00 A3011 RMK A01,M
TMT,2023-07-17 17:55,-117.1971,39.4643,1749.34,86.70,36.30,16.71,0.00,0.00,0.00,30.24,M,10.00,M,CLR,M,M,M,M,M,M,M,M,M,M,M,M,M,M,83.25,KTMT 171755Z AUTO 00000KT 10SM CLR 30/02 A3024 RMK AO2 T03040024 10308 20087,M
EKO,2023-07-17 17:56,-115.7860,40.8242,1367.00,92.00,40.00,16.35,340.00,7.00,0.00,30.17,1014.50,10.00,M,CLR,M,M,M,M,M,M,M,M,M,M,M,M,M,M,87.88,KEKO 171756Z AUTO 34007KT 300V010 10SM CLR 33/04 A3017 RMK AO2 SLP145 T03330044 10333 20122 53003,M
WMC,2023-07-17 17:56,-117.8072,40.9019,1315.00,M,M,M,M,M,0.00,30.08,M,M,M,M,M,M,M,M,M,M,M,M,M,M,M,M,M,M,M,KWMC 171756Z AUTO A3008 RMK AO2 SLPNO 56009 PWINO FZRANO $,M
NFL,2023-07-17 17:56,-118.7010,39.4166,1199.00,95.00,40.00,14.90,150.00,7.00,0.00,30.05,1014.60,10.00,M,FEW,SCT,SCT,BKN,8000.00,10000.00,15000.00,18000.00,M,M,M,M,M,M,M,90.62,KNFL 171756Z 15007KT 10SM FEW080 SCT100 SCT150 BKN180 35/04 A3005 RMK AO2 SLP146 T03500044 10356 20228 58007,M
HND,2023-07-17 17:56,-115.1344,35.9729,742.79,107.00,50.00,15.19,240.00,15.00,0.00,29.96,1011.90,10.00,20.00,CLR,M,M,M,M,M,M,M,M,M,M,M,M,M,M,104.19,KHND 171756Z 24015G20KT 10SM CLR 42/10 A2996 RMK AO2 SLP119 T04170100 10422 20322 50000,M
TPH,2023-07-17 17:56,-117.0904,38.0505,1654.00,94.00,35.00,12.62,300.00,8.00,0.00,30.20,1011.50,10.00,M,CLR,M,M,M,M,M,M,M,M,M,M,M,M,M,M,89.36,KTPH 171756Z AUTO 30008KT 10SM CLR 34/02 A3020 RMK AO2 SLP115 T03440017 10356 20194 51003 $,M
LAS,2023-07-17 17:56,-115.1634,36.0719,663.00,108.00,47.00,13.18,170.00,13.00,0.00,29.91,1009.10,10.00,22.00,SCT,BKN,M,M,16000.00,25000.00,M,M,M,M,M,M,M,M,M,104.26,KLAS 171756Z 17013G22KT 10SM SCT160 BKN250 42/08 A2991 RMK AO2 SLP091 T04220083 10422 20333 55001,M
05U,2023-07-17 18:10,-116.0051,39.6042,1811.23,93.20,33.80,12.34,360.00,8.00,0.00,30.25,M,10.00,M,CLR,M,M,M,M,M,M,M,M,M,M,M,M,M,M,88.55,K05U 171810Z AUTO 36008KT 10SM CLR 34/01 A3025 RMK A01,M
BVU,2023-07-17 18:15,-114.8611,35.9475,671.00,105.80,55.40,19.19,150.00,15.00,0.00,29.92,M,10.00,22.00,CLR,M,M,M,M,M,M,M,M,M,M,M,M,M,M,104.97,KBVU 171815Z AUTO 15015G22KT 10SM CLR 41/13 A2992 RMK AO2,M
CXP,2023-07-17 18:15,-119.7326,39.1923,1431.00,87.80,44.60,22.27,0.00,0.00,0.00,30.14,M,10.00,M,CLR,M,M,M,M,M,M,M,M,M,M,M,M,M,M,84.53,KCXP 171815Z AUTO 00000KT 10SM CLR 31/07 A3014 RMK AO2,M
RTS,2023-07-17 18:15,-119.8764,39.6682,1539.00,82.40,42.80,24.72,120.00,7.00,0.00,30.17,M,10.00,M,CLR,M,M,M,M,M,M,M,M,M,M,M,M,M,M,80.39,KRTS 171815Z AUTO 12007KT 100V160 10SM CLR 28/06 A3017 RMK AO2,M
MEV,2023-07-17 18:15,-119.7500,38.9963,1441.42,89.60,46.40,22.53,0.00,0.00,0.00,30.13,M,10.00,M,CLR,M,M,M,M,M,M,M,M,M,M,M,M,M,M,86.24,KMEV 171815Z AUTO 00000KT 10SM CLR 32/08 A3013 RMK AO2,M
BAM,2023-07-17 18:15,-116.8743,40.5990,1382.36,89.60,44.60,21.04,130.00,4.00,0.00,30.14,M,10.00,M,CLR,M,M,M,M,M,M,M,M,M,M,M,M,M,M,86.07,KBAM 171815Z AUTO 13004KT 10SM CLR 32/07 A3014 RMK AO1,M
HTH,2023-07-17 18:15,-118.6315,38.5448,1282.89,93.20,32.00,11.48,0.00,0.00,0.00,30.10,M,10.00,M,CLR,M,M,M,M,M,M,M,M,M,M,M,M,M,M,88.31,KHTH 171815Z AUTO 00000KT 10SM CLR 34/M00 A3010 RMK A01,M
BVU,2023-07-17 18:35,-114.8611,35.9475,671.00,105.80,55.40,19.19,140.00,16.00,0.00,29.92,M,10.00,M,CLR,M,M,M,M,M,M,M,M,M,M,M,M,M,M,104.97,KBVU 171835Z AUTO 14016KT 10SM CLR 41/13 A2992 RMK AO2,M
CXP,2023-07-17 18:35,-119.7326,39.1923,1431.00,87.80,44.60,22.27,0.00,0.00,0.00,30.14,M,10.00,M,CLR,M,M,M,M,M,M,M,M,M,M,M,M,M,M,84.53,KCXP 171835Z AUTO 00000KT 10SM CLR 31/07 A3014 RMK AO2,M
RTS,2023-07-17 18:35,-119.8764,39.6682,1539.00,84.20,42.80,23.33,130.00,7.00,0.00,30.17,M,10.00,M,CLR,M,M,M,M,M,M,M,M,M,M,M,M,M,M,81.61,KRTS 171835Z AUTO 13007KT 10SM CLR 29/06 A3017 RMK AO2,M
05U,2023-07-17 18:35,-116.0051,39.6042,1811.23,93.20,35.60,13.25,M,M,0.00,30.25,M,10.00,M,CLR,M,M,M,M,M,M,M,M,M,M,M,M,M,M,88.76,K05U 171835Z AUTO 10SM CLR 34/02 A3025 RMK A01,M
MEV,2023-07-17 18:35,-119.7500,38.9963,1441.42,89.60,46.40,22.53,0.00,0.00,0.00,30.12,M,10.00,M,CLR,M,M,M,M,M,M,M,M,M,M,M,M,M,M,86.24,KMEV 171835Z AUTO 00000KT 10SM CLR 32/08 A3012 RMK AO2,M
BAM,2023-07-17 18:35,-116.8743,40.5990,1382.36,91.40,42.80,18.56,130.00,4.00,0.00,30.13,M,10.00,M,CLR,M,M,M,M,M,M,M,M,M,M,M,M,M,M,87.52,KBAM 171835Z AUTO 13004KT 10SM CLR 33/06 A3013 RMK AO1,M
HTH,2023-07-17 18:35,-118.6315,38.5448,1282.89,93.20,32.00,11.48,0.00,0.00,0.00,30.09,M,10.00,M,CLR,M,M,M,M,M,M,M,M,M,M,M,M,M,M,88.31,KHTH 171835Z AUTO 00000KT 10SM CLR 34/M00 A3009 RMK A01,M
TMT,2023-07-17 18:35,-117.1971,39.4643,1749.34,89.00,37.60,16.36,0.00,0.00,0.00,30.24,M,10.00,M,CLR,M,M,M,M,M,M,M,M,M,M,M,M,M,M,85.17,KTMT 171835Z AUTO 00000KT 10SM CLR 32/03 A3024 RMK AO2 T03160031,M
P68,2023-07-17 18:53,-116.0056,39.6014,1993.00,93.00,34.00,12.51,50.00,8.00,0.00,30.21,1013.10,M,14.00,M,M,M,M,M,M,M,M,M,M,M,M,M,M,M,88.42,KP68 171853Z AUTO 05008G14KT 34/01 A3021 RMK AO1 SLP131 T03390011,M
ELY,2023-07-17 18:53,-114.8453,39.2950,1909.00,M,M,M,M,M,0.00,30.22,M,M,M,M,M,M,M,M,M,M,M,M,M,M,M,M,M,M,M,KELY 171853Z AUTO A3022 RMK AO2 SLPNO PWINO FZRANO,M
VGT,2023-07-17 18:53,-115.1933,36.2111,667.00,110.00,48.00,12.91,170.00,17.00,0.00,29.89,1010.00,10.00,23.00,CLR,M,M,M,M,M,M,M,M,M,M,M,M,M,M,106.47,KVGT 171853Z 17017G23KT 10SM CLR 43/09 A2989 RMK AO2 SLP100 T04330089,M
LOL,2023-07-17 18:53,-118.5701,40.0684,1192.43,93.00,42.00,17.13,210.00,5.00,0.00,30.04,1012.00,10.00,M,CLR,M,M,M,M,M,M,M,M,M,M,M,M,M,M,88.92,KLOL 171853Z AUTO 21005KT 10SM CLR 34/06 A3004 RMK AO2 SLP120 T03390056,M
BVU,2023-07-17 18:55,-114.8611,35.9475,671.00,107.60,55.40,18.20,150.00,17.00,0.00,29.91,M,10.00,23.00,CLR,M,M,M,M,M,M,M,M,M,M,M,M,M,M,106.91,KBVU 171855Z AUTO 15017G23KT 10SM CLR 42/13 A2991 RMK AO2,M
CXP,2023-07-17 18:55,-119.7326,39.1923,1431.00,89.60,44.60,21.04,0.00,0.00,0.00,30.13,M,10.00,M,CLR,M,M,M,M,M,M,M,M,M,M,M,M,M,M,86.07,KCXP 171855Z AUTO 00000KT 10SM CLR 32/07 A3013 RMK AO2,M
INS,2023-07-17 18:55,-115.6733,36.5872,955.00,103.60,36.30,9.93,40.00,5.00,0.00,29.97,1008.70,10.00,M,OVC,M,M,M,20000.00,M,M,M,M,M,M,M,M,M,M,97.63,KINS 171855Z AUTO 04005KT 10SM OVC200 40/02 A2997 RMK AO2 SLP087 T03980024 $,M
RNO,2023-07-17 18:55,-119.7711,39.4839,1341.00,86.00,45.00,23.95,90.00,3.00,0.00,30.11,1012.60,10.00,M,BKN,M,M,M,17000.00,M,M,M,M,M,M,M,M,M,M,83.10,KRNO 171855Z 09003KT 10SM BKN170 30/07 A3011 RMK AO2 SLP126 T03000072,M
LSV,2023-07-17 18:55,-115.0343,36.2362,570.00,109.80,51.60,14.85,100.00,11.00,0.00,29.85,1007.50,10.00,20.00,CLR,M,M,M,M,M,M,M,M,M,M,M,M,M,M,107.58,KLSV 171855Z AUTO 10011G20KT 10SM CLR 43/11 A2985 RMK AO2 SLP075 T04320109 $,M
RTS,2023-07-17 18:55,-119.8764,39.6682,1539.00,84.20,41.00,21.76,M,4.00,0.00,30.17,M,10.00,M,CLR,M,M,M,M,M,M,M,M,M,M,M,M,M,M,81.52,KRTS 171855Z AUTO VRB04KT 10SM CLR 29/05 A3017 RMK AO2,M
05U,2023-07-17 18:55,-116.0051,39.6042,1811.23,95.00,35.60,12.53,M,M,0.00,30.24,M,10.00,M,CLR,M,M,M,M,M,M,M,M,M,M,M,M,M,M,90.25,K05U 171855Z AUTO 10SM CLR 35/02 A3024 RMK A01,M
MEV,2023-07-17 18:55,-119.7500,38.9963,1441.42,93.20,46.40,20.13,0.00,0.00,0.00,30.12,M,10.00,M,CLR,M,M,M,M,M,M,M,M,M,M,M,M,M,M,89.55,KMEV 171855Z AUTO 00000KT 10SM CLR 34/08 A3012 RMK AO2,M
BAM,2023-07-17 18:55,-116.8743,40.5990,1382.36,93.20,42.80,17.55,150.00,6.00,0.00,30.13,M,10.00,M,CLR,M,M,M,M,M,M,M,M,M,M,M,M,M,M,89.17,KBAM 171855Z AUTO 15006KT 10SM CLR 34/06 A3013 RMK AO1,M
HTH,2023-07-17 18:55,-118.6315,38.5448,1282.89,95.00,32.00,10.85,60.00,6.00,0.00,30.08,M,10.00,M,CLR,M,M,M,M,M,M,M,M,M,M,M,M,M,M,89.71,KHTH 171855Z AUTO 06006KT 10SM CLR 35/M00 A3008 RMK A01,M
TMT,2023-07-17 18:55,-117.1971,39.4643,1749.34,89.60,37.40,15.92,290.00,3.00,0.00,30.23,M,10.00,M,CLR,M,M,M,M,M,M,M,M,M,M,M,M,M,M,85.67,KTMT 171855Z AUTO 29003KT 10SM CLR 32/03 A3023 RMK AO2 T03200030,M
EKO,2023-07-17 18:56,-115.7860,40.8242,1367.00,91.00,40.00,16.87,310.00,7.00,0.00,30.16,1014.40,10.00,M,CLR,M,M,M,M,M,M,M,M,M,M,M,M,M,M,86.99,KEKO 171856Z AUTO 31007KT 10SM CLR 33/04 A3016 RMK AO2 SLP144 T03280044,M
WMC,2023-07-17 18:56,-117.8072,40.9019,1315.00,M,M,M,M,M,0.00,30.06,M,M,M,M,M,M,M,M,M,M,M,M,M,M,M,M,M,M,M,KWMC 171856Z AUTO A3006 RMK AO2 SLPNO PWINO FZRANO $,M
NFL,2023-07-17 18:56,-118.7010,39.4166,1199.00,97.00,37.00,12.46,M,4.00,0.00,30.05,1014.30,10.00,M,FEW,SCT,BKN,BKN,7000.00,10000.00,14000.00,17000.00,M,M,M,M,M,M,M,92.13,KNFL 171856Z VRB04KT 10SM FEW070 SCT100 BKN140 BKN170 36/03 A3005 RMK AO2 SLP143 T03610028,M
HND,2023-07-17 18:56,-115.1344,35.9729,742.79,110.00,50.00,13.91,230.00,11.00,0.00,29.95,1011.50,10.00,20.00,CLR,M,M,M,M,M,M,M,M,M,M,M,M,M,M,107.17,KHND 171856Z 23011G20KT 10SM CLR 43/10 A2995 RMK AO2 SLP115 T04330100,M
TPH,2023-07-17 18:56,-117.0904,38.0505,1654.00,93.00,35.00,13.02,M,3.00,0.00,30.19,1011.30,10.00,M,CLR,M,M,M,M,M,M,M,M,M,M,M,M,M,M,88.56,KTPH 171856Z AUTO VRB03KT 10SM CLR 34/02 A3019 RMK AO2 SLP113 T03390017 $,M
LAS,2023-07-17 18:56,-115.1634,36.0719,663.00,110.00,45.00,11.53,180.00,10.00,0.00,29.90,1008.90,10.00,21.00,FEW,SCT,BKN,M,12000.00,16000.00,25000.00,M,M,M,M,M,M,M,M,105.45,KLAS 171856Z 18010G21KT 10SM FEW120 SCT160 BKN250 43/07 A2990 RMK AO2 SLP089 T04330072,M
BVU,2023-07-17 19:15,-114.8611,35.9475,671.00,107.60,55.40,18.20,150.00,15.00,0.00,29.91,M,10.00,21.00,CLR,M,M,M,M,M,M,M,M,M,M,M,M,M,M,106.91,KBVU 171915Z AUTO 15015G21KT 10SM CLR 42/13 A2991 RMK AO2,M
CXP,2023-07-17 19:15,-119.7326,39.1923,1431.00,93.20,44.60,18.80,0.00,0.00,0.00,30.13,M,10.00,M,CLR,M,M,M,M,M,M,M,M,M,M,M,M,M,M,89.34,KCXP 171915Z AUTO 00000KT 10SM CLR 34/07 A3013 RMK AO2,M
RTS,2023-07-17 19:15,-119.8764,39.6682,1539.00,86.00,41.00,20.54,240.00,8.00,0.00,30.16,M,10.00,14.00,CLR,M,M,M,M,M,M,M,M,M,M,M,M,M,M,82.86,KRTS 171915Z AUTO 24008G14KT 10SM CLR 30/05 A3016 RMK AO2,M
05U,2023-07-17 19:15,-116.0051,39.6042,1811.23,95.00,35.60,12.53,M,M,0.00,30.24,M,10.00,M,CLR,M,M,M,M,M,M,M,M,M,M,M,M,M,M,90.25,K05U 171915Z AUTO 10SM CLR 35/02 A3024 RMK A01,M
MEV,2023-07-17 19:15,-119.7500,38.9963,1441.42,91.40,44.60,19.89,0.00,0.00,0.00,30.11,M,10.00,M,CLR,M,M,M,M,M,M,M,M,M,M,M,M,M,M,87.68,KMEV 171915Z AUTO 00000KT 10SM CLR 33/07 A3011 RMK AO2,M
BAM,2023-07-17 19:15,-116.8743,40.5990,1382.36,95.00,41.00,15.49,170.00,7.00,0.00,30.12,M,10.00,M,CLR,M,M,M,M,M,M,M,M,M,M,M,M,M,M,90.70,KBAM 171915Z AUTO 17007KT 140V200 10SM CLR 35/05 A3012 RMK AO1,M
HTH,2023-07-17 19:15,-118.6315,38.5448,1282.89,95.00,32.00,10.85,30.00,6.00,0.00,30.07,M,10.00,M,CLR,M,M,M,M,M,M,M,M,M,M,M,M,M,M,89.71,KHTH 171915Z AUTO 03006KT 10SM CLR 35/00 A3007 RMK A01,M
TMT,2023-07-17 19:15,-117.1971,39.4643,1749.34,89.20,37.20,16.00,310.00,3.00,0.00,30.22,M,10.00,M,CLR,M,M,M,M,M,M,M,M,M,M,M,M,M,M,85.32,KTMT 171915Z AUTO 31003KT 10SM CLR 32/03 A3022 RMK AO2 T03180029,M
LSV,2023-07-17 19:32,-115.0343,36.2362,570.00,111.20,51.80,14.36,170.00,11.00,0.00,29.84,1007.20,10.00,17.00,FEW,FEW,SCT,SCT,10000.00,14000.00,16000.00,20000.00,M,M,M,M,M,M,M,109.04,KLSV 171932Z AUTO 17011G17KT 10SM FEW100 FEW140 SCT160 SCT200 44/11 A2984 RMK AO2 WSHFT 29 SLP072 $,M
BVU,2023-07-17 19:35,-114.8611,35.9475,671.00,107.60,55.40,18.20,150.00,14.00,0.00,29.90,M,10.00,21.00,CLR,M,M,M,M,M,M,M,M,M,M,M,M,M,M,106.91,KBVU 171935Z AUTO 15014G21KT 10SM CLR 42/13 A2990 RMK AO2,M
CXP,2023-07-17 19:35,-119.7326,39.1923,1431.00,96.80,42.80,15.71,190.00,5.00,0.00,30.13,M,10.00,14.00,CLR,M,M,M,M,M,M,M,M,M,M,M,M,M,M,92.57,KCXP 171935Z AUTO 19005G14KT 10SM CLR 36/06 A3013 RMK AO2,M
RTS,2023-07-17 19:35,-119.8764,39.6682,1539.00,87.80,41.00,19.40,270.00,11.00,0.00,30.16,M,10.00,20.00,CLR,M,M,M,M,M,M,M,M,M,M,M,M,M,M,84.30,KRTS 171935Z AUTO 27011G20KT 10SM CLR 31/05 A3016 RMK AO2,M
05U,2023-07-17 19:35,-116.0051,39.6042,1811.23,95.00,35.60,12.53,M,M,0.00,30.23,M,10.00,M,CLR,M,M,M,M,M,M,M,M,M,M,M,M,M,M,90.25,K05U 171935Z AUTO 10SM CLR 35/02 A3023 RMK A01,M
MEV,2023-07-17 19:35,-119.7500,38.9963,1441.42,93.20,46.40,20.13,M,5.00,0.00,30.11,M,10.00,M,CLR,M,M,M,M,M,M,M,M,M,M,M,M,M,M,89.55,KMEV 171935Z AUTO VRB05KT 10SM CLR 34/08 A3011 RMK AO2,M
BAM,2023-07-17 19:35,-116.8743,40.5990,1382.36,95.00,41.00,15.49,270.00,4.00,0.00,30.13,M,10.00,M,CLR,M,M,M,M,M,M,M,M,M,M,M,M,M,M,90.70,KBAM 171935Z AUTO 27004KT 10SM CLR 35/05 A3013 RMK AO1,M
HTH,2023-07-17 19:35,-118.6315,38.5448,1282.89,96.80,32.00,10.27,320.00,8.00,0.00,30.06,M,10.00,M,CLR,M,M,M,M,M,M,M,M,M,M,M,M,M,M,91.19,KHTH 171935Z AUTO 32008KT 10SM CLR 36/M00 A3006 RMK A01,M
TMT,2023-07-17 19:35,-117.1971,39.4643,1749.34,90.30,38.00,15.95,250.00,4.00,0.00,30.22,M,10.00,M,CLR,M,M,M,M,M,M,M,M,M,M,M,M,M,M,86.29,KTMT 171935Z AUTO 25004KT 10SM CLR 32/03 A3022 RMK AO2 T03240034,M
P68,2023-07-17 19:53,-116.0056,39.6014,1993.00,94.00,35.00,12.62,60.00,7.00,0.00,30.19,1012.40,M,M,M,M,M,M,M,M,M,M,M,M,M,M,M,M,M,89.36,KP68 171953Z AUTO 06007KT 34/02 A3019 RMK AO1 SLP124 T03440017,M
ELY,2023-07-17 19:53,-114.8453,39.2950,1909.00,M,M,M,M,M,0.00,30.21,M,M,M,M,M,M,M,M,M,M,M,M,M,M,M,M,M,M,M,KELY 171953Z AUTO A3021 RMK AO2 SLPNO PWINO FZRANO,M
VGT,2023-07-17 19:53,-115.1933,36.2111,667.00,111.00,45.00,11.20,200.00,11.00,0.00,29.88,1009.80,10.00,24.00,CLR,M,M,M,M,M,M,M,M,M,M,M,26.00,170.00,2023-07-17 19:17,106.37,KVGT 171953Z 20011G24KT 10SM CLR 44/07 A2988 RMK AO2 PK WND 17026/1917 SLP098 T04390072,M
LOL,2023-07-17 19:53,-118.5701,40.0684,1192.43,93.00,42.00,17.13,260.00,6.00,0.00,30.04,1011.90,10.00,M,CLR,M,M,M,M,M,M,M,M,M,M,M,M,M,M,88.92,KLOL 171953Z AUTO 26006KT 10SM CLR 34/06 A3004 RMK AO2 SLP119 T03390056,M
BVU,2023-07-17 19:55,-114.8611,35.9475,671.00,109.40,55.40,17.27,150.00,15.00,0.00,29.89,M,10.00,21.00,CLR,M,M,M,M,M,M,M,M,M,M,M,M,M,M,108.82,KBVU 171955Z AUTO 15015G21KT 10SM CLR 43/13 A2989 RMK AO2,M
CXP,2023-07-17 19:55,-119.7326,39.1923,1431.00,96.80,42.80,15.71,200.00,7.00,0.00,30.12,M,10.00,13.00,CLR,M,M,M,M,M,M,M,M,M,M,M,M,M,M,92.57,KCXP 171955Z AUTO 20007G13KT 160V230 10SM CLR 36/06 A3012 RMK AO2,M
INS,2023-07-17 19:55,-115.6733,36.5872,955.00,104.50,37.00,9.94,320.00,5.00,0.00,29.96,1008.20,10.00,M,FEW,BKN,M,M,15000.00,20000.00,M,M,M,M,M,M,M,M,M,98.55,KINS 171955Z AUTO 32005KT 10SM FEW150 BKN200 40/03 A2996 RMK AO2 SLP082 T04030028 $,M
RNO,2023-07-17 19:55,-119.7711,39.4839,1341.00,89.00,45.00,21.77,90.00,4.00,0.00,30.10,1012.20,10.00,M,FEW,BKN,M,M,10000.00,17000.00,M,M,M,M,M,M,M,M,M,85.58,KRNO 171955Z 09004KT 10SM FEW100 BKN170 32/07 A3010 RMK AO2 SLP122 T03170072,M
LSV,2023-07-17 19:55,-115.0343,36.2362,570.00,112.30,50.00,13.02,90.00,9.00,0.00,29.83,1006.80,10.00,M,FEW,SCT,M,M,12000.00,15000.00,M,M,M,M,M,M,M,M,M,109.38,KLSV 171955Z AUTO 09009KT 10SM FEW120 SCT150 45/10 A2983 RMK AO2 SLP068 T04460099 $,M
RTS,2023-07-17 19:55,-119.8764,39.6682,1539.00,91.40,41.00,17.32,230.00,16.00,0.00,30.15,M,10.00,21.00,CLR,M,M,M,M,M,M,M,M,M,M,M,M,M,M,87.40,KRTS 171955Z AUTO 23016G21KT 10SM CLR 33/05 A3015 RMK AO2,M
05U,2023-07-17 19:55,-116.0051,39.6042,1811.23,95.00,35.60,12.53,360.00,4.00,0.00,30.22,M,10.00,M,CLR,M,M,M,M,M,M,M,M,M,M,M,M,M,M,90.25,K05U 171955Z AUTO 36004KT 10SM CLR 35/02 A3022 RMK A01,M
MEV,2023-07-17 19:55,-119.7500,38.9963,1441.42,95.00,44.60,17.78,M,3.00,0.00,30.11,M,10.00,M,CLR,M,M,M,M,M,M,M,M,M,M,M,M,M,M,91.06,KMEV 171955Z AUTO VRB03KT 10SM CLR 35/07 A3011 RMK AO2,M
BAM,2023-07-17 19:55,-116.8743,40.5990,1382.36,95.00,39.20,14.44,250.00,8.00,0.00,30.13,M,10.00,M,CLR,M,M,M,M,M,M,M,M,M,M,M,M,M,M,90.57,KBAM 171955Z AUTO 25008KT 10SM CLR 35/04 A3013 RMK AO1,M
HTH,2023-07-17 19:55,-118.6315,38.5448,1282.89,96.80,32.00,10.27,320.00,4.00,0.00,30.06,M,10.00,10.00,CLR,M,M,M,M,M,M,M,M,M,M,M,M,M,M,91.19,KHTH 171955Z AUTO 32004G10KT 10SM CLR 36/00 A3006 RMK A01,M
TMT,2023-07-17 19:55,-117.1971,39.4643,1749.34,92.70,39.60,15.75,260.00,6.00,0.00,30.21,M,10.00,M,CLR,M,M,M,M,M,M,M,M,M,M,M,M,M,M,88.49,KTMT 171955Z AUTO 26006KT 10SM CLR 34/04 A3021 RMK AO2 T03370042,M
EKO,2023-07-17 19:56,-115.7860,40.8242,1367.00,90.00,40.00,17.41,230.00,3.00,0.00,30.15,1014.50,10.00,M,CLR,M,M,M,M,M,M,M,M,M,M,M,M,M,M,86.11,KEKO 171956Z AUTO 23003KT 10SM CLR 32/04 A3015 RMK AO2 SLP145 T03220044,M
WMC,2023-07-17 19:56,-117.8072,40.9019,1315.00,M,M,M,M,M,0.00,30.06,M,M,M,M,M,M,M,M,M,M,M,M,M,M,M,M,M,M,M,KWMC 171956Z AUTO A3006 RMK AO2 SLPNO PWINO FZRANO $,M
NFL,2023-07-17 19:56,-118.7010,39.4166,1199.00,97.00,39.00,13.48,180.00,4.00,0.00,30.04,1014.10,10.00,M,SCT,SCT,BKN,BKN,7000.00,10000.00,14000.00,17000.00,M,M,M,M,M,M,M,92.40,KNFL 171956Z 18004KT 10SM SCT070 SCT100 BKN140 BKN170 36/04 A3004 RMK AO2 SLP141 T03610039,M
HND,2023-07-17 19:56,-115.1344,35.9729,742.79,111.00,52.00,14.55,200.00,12.00,0.00,29.94,1011.10,10.00,15.00,CLR,M,M,M,M,M,M,M,M,M,M,M,M,M,M,108.93,KHND 171956Z 20012G15KT 10SM CLR 44/11 A2994 RMK AO2 SLP111 T04390111,M
TPH,2023-07-17 19:56,-117.0904,38.0505,1654.00,97.00,34.00,11.06,M,4.00,0.00,30.18,1010.90,10.00,17.00,CLR,M,M,M,M,M,M,M,M,M,M,M,M,M,M,91.64,KTPH 171956Z AUTO VRB04G17KT 10SM CLR 36/01 A3018 RMK AO2 SLP109 T03610011 $,M
LAS,2023-07-17 19:56,-115.1634,36.0719,663.00,111.00,47.00,12.08,190.00,10.00,0.00,29.89,1008.60,10.00,18.00,FEW,SCT,BKN,M,12000.00,16000.00,25000.00,M,M,M,M,M,M,M,M,107.04,KLAS 171956Z 19010G18KT 10SM FEW120 SCT160 BKN250 44/08 A2989 RMK AO2 SLP086 T04390083,M
BVU,2023-07-17 20:15,-114.8611,35.9475,671.00,109.40,55.40,17.27,140.00,17.00,0.00,29.88,M,10.00,22.00,CLR,M,M,M,M,M,M,M,M,M,M,M,M,M,M,108.82,KBVU 172015Z AUTO 14017G22KT 10SM CLR 43/13 A2988 RMK AO2,M
CXP,2023-07-17 20:15,-119.7326,39.1923,1431.00,96.80,41.00,14.66,M,5.00,0.00,30.12,M,10.00,M,CLR,M,M,M,M,M,M,M,M,M,M,M,M,M,M,92.39,KCXP 172015Z AUTO VRB05KT 10SM CLR 36/05 A3012 RMK AO2,M
RTS,2023-07-17 20:15,-119.8764,39.6682,1539.00,93.20,39.20,15.27,260.00,18.00,0.00,30.15,M,10.00,24.00,CLR,M,M,M,M,M,M,M,M,M,M,M,M,M,M,88.92,KRTS 172015Z AUTO 26018G24KT 10SM CLR 34/04 A3015 RMK AO2,M
05U,2023-07-17 20:15,-116.0051,39.6042,1811.23,95.00,35.60,12.53,360.00,4.00,0.00,30.22,M,10.00,M,CLR,M,M,M,M,M,M,M,M,M,M,M,M,M,M,90.25,K05U 172015Z AUTO 36004KT 10SM CLR 35/02 A3022 RMK A01,M
MEV,2023-07-17 20:15,-119.7500,38.9963,1441.42,95.00,44.60,17.78,230.00,6.00,0.00,30.10,M,10.00,M,CLR,M,M,M,M,M,M,M,M,M,M,M,M,M,M,91.06,KMEV 172015Z AUTO 23006KT 10SM CLR 35/07 A3010 RMK AO2,M
BAM,2023-07-17 20:15,-116.8743,40.5990,1382.36,93.20,39.20,15.27,240.00,4.00,0.00,30.12,M,10.00,14.00,CLR,M,M,M,M,M,M,M,M,M,M,M,M,M,M,88.92,KBAM 172015Z AUTO 24004G14KT 10SM CLR 34/04 A3012 RMK AO1,M
HTH,2023-07-17 20:15,-118.6315,38.5448,1282.89,98.60,32.00,9.72,360.00,5.00,0.00,30.05,M,10.00,M,CLR,M,M,M,M,M,M,M,M,M,M,M,M,M,M,92.69,KHTH 172015Z AUTO 36005KT 10SM CLR 37/00 A3005 RMK A01,M
TMT,2023-07-17 20:15,-117.1971,39.4643,1749.34,92.30,38.00,14.98,280.00,4.00,0.00,30.20,M,10.00,M,CLR,M,M,M,M,M,M,M,M,M,M,M,M,M,M,88.05,KTMT 172015Z AUTO 28004KT 10SM CLR 34/03 A3020 RMK AO2 T03350033,M
LSV,2023-07-17 20:30,-115.0343,36.2362,570.00,111.20,50.00,13.44,170.00,13.00,0.00,29.82,1006.50,10.00,M,FEW,FEW,SCT,SCT,11000.00,13000.00,16000.00,20000.00,M,M,M,M,M,M,M,108.33,KLSV 172030Z AUTO 17013KT 10SM FEW110 FEW130 SCT160 SCT200 44/10 A2982 RMK AO2 WSHFT 21 SLP065 $,M
BVU,2023-07-17 20:35,-114.8611,35.9475,671.00,111.20,55.40,16.39,160.00,17.00,0.00,29.87,M,10.00,M,CLR,M,M,M,M,M,M,M,M,M,M,M,M,M,M,110.70,KBVU 172035Z AUTO 16017KT 10SM CLR 44/13 A2987 RMK AO2,M
CXP,2023-07-17 20:35,-119.7326,39.1923,1431.00,95.00,42.80,16.60,270.00,9.00,0.00,30.11,M,10.00,14.00,CLR,M,M,M,M,M,M,M,M,M,M,M,M,M,M,90.86,KCXP 172035Z AUTO 27009G14KT 190V320 10SM CLR 35/06 A3011 RMK AO2,M
RTS,2023-07-17 20:35,-119.8764,39.6682,1539.00,89.60,41.00,18.33,230.00,12.00,0.00,30.15,M,10.00,20.00,CLR,M,M,M,M,M,M,M,M,M,M,M,M,M,M,85.82,KRTS 172035Z AUTO 23012G20KT 10SM CLR 32/05 A3015 RMK AO2,M
05U,2023-07-17 20:35,-116.0051,39.6042,1811.23,95.00,35.60,12.53,M,M,0.00,30.21,M,10.00,M,CLR,M,M,M,M,M,M,M,M,M,M,M,M,M,M,90.25,K05U 172035Z AUTO 10SM CLR 35/02 A3021 RMK A01,M
MEV,2023-07-17 20:35,-119.7500,38.9963,1441.42,95.00,44.60,17.78,M,4.00,0.00,30.09,M,10.00,12.00,CLR,M,M,M,M,M,M,M,M,M,M,M,M,M,M,91.06,KMEV 172035Z AUTO VRB04G12KT 10SM CLR 35/07 A3009 RMK AO2,M
BAM,2023-07-17 20:35,-116.8743,40.5990,1382.36,93.20,39.20,15.27,0.00,0.00,0.00,30.11,M,10.00,M,CLR,M,M,M,M,M,M,M,M,M,M,M,M,M,M,88.92,KBAM 172035Z AUTO 00000KT 10SM CLR 34/04 A3011 RMK AO1,M
HTH,2023-07-17 20:35,-118.6315,38.5448,1282.89,98.60,33.80,10.45,360.00,6.00,0.00,30.04,M,10.00,11.00,CLR,M,M,M,M,M,M,M,M,M,M,M,M,M,M,92.94,KHTH 172035Z AUTO 36006G11KT 10SM CLR 37/01 A3004 RMK A01,M
TMT,2023-07-17 20:35,-117.1971,39.4643,1749.34,94.00,39.40,15.01,200.00,10.00,0.00,30.19,M,10.00,M,CLR,M,M,M,M,M,M,M,M,M,M,M,M,M,M,89.66,KTMT 172035Z AUTO 20010KT 10SM CLR 34/04 A3019 RMK AO2 T03440041,M
LSV,2023-07-17 20:50,-115.0343,36.2362,570.00,113.00,50.00,12.76,140.00,12.00,0.00,29.81,1006.10,10.00,21.00,CLR,M,M,M,M,M,M,M,M,M,M,M,M,M,M,110.03,KLSV 172050Z AUTO 14012G21KT 10SM CLR 45/10 A2981 RMK AO2 WSHFT 47 SLP061 $,M
P68,2023-07-17 20:53,-116.0056,39.6014,1993.00,97.00,34.00,11.06,350.00,10.00,0.00,30.17,1011.20,M,14.00,M,M,M,M,M,M,M,M,M,M,M,M,M,M,M,91.64,KP68 172053Z AUTO 35010G14KT 36/01 A3017 RMK AO1 SLP112 T03610011 58015,M
ELY,2023-07-17 20:53,-114.8453,39.2950,1909.00,M,M,M,M,M,0.00,30.20,M,M,M,M,M,M,M,M,M,M,M,M,M,M,M,M,M,M,M,KELY 172053Z AUTO A3020 RMK AO2 SLPNO 57008 PWINO FZRANO,M
VGT,2023-07-17 20:53,-115.1933,36.2111,667.00,113.00,45.00,10.57,200.00,10.00,0.00,29.86,1009.10,10.00,18.00,CLR,M,M,M,M,M,M,M,M,M,M,M,M,M,M,108.26,KVGT 172053Z 20010G18KT 10SM CLR 45/07 A2986 RMK AO2 SLP091 T04500072 58014,M
LOL,2023-07-17 20:53,-118.5701,40.0684,1192.43,95.00,41.00,15.49,260.00,9.00,0.00,30.03,1011.70,10.00,M,CLR,M,M,M,M,M,M,M,M,M,M,M,M,M,M,90.70,KLOL 172053Z AUTO 26009KT 10SM CLR 35/05 A3003 RMK AO2 SLP117 T03500050 50000,M
BVU,2023-07-17 20:55,-114.8611,35.9475,671.00,111.20,53.60,15.35,160.00,17.00,0.00,29.86,M,10.00,24.00,CLR,M,M,M,M,M,M,M,M,M,M,M,M,M,M,109.83,KBVU 172055Z AUTO 16017G24KT 10SM CLR 44/12 A2986 RMK AO2,M
CXP,2023-07-17 20:55,-119.7326,39.1923,1431.00,96.80,42.80,15.71,240.00,9.00,0.00,30.11,M,10.00,16.00,CLR,M,M,M,M,M,M,M,M,M,M,M,M,M,M,92.57,KCXP 172055Z AUTO 24009G16KT 200V260 10SM CLR 36/06 A3011 RMK AO2,M
INS,2023-07-17 20:55,-115.6733,36.5872,955.00,106.70,33.00,7.94,30.00,5.00,0.00,29.94,1007.70,10.00,M,SCT,SCT,M,M,19000.00,21000.00,M,M,M,M,M,M,M,M,M,99.75,KINS 172055Z AUTO 03005KT 10SM SCT190 SCT210 42/01 A2994 RMK AO2 SLP077 T04150006 57014 $,M
RNO,2023-07-17 20:55,-119.7711,39.4839,1341.00,94.00,46.00,19.34,90.00,5.00,0.00,30.08,1011.30,10.00,M,FEW,BKN,M,M,11000.00,19000.00,M,M,M,M,M,M,M,M,M,90.27,KRNO 172055Z 09005KT 10SM FEW110 BKN190 34/08 A3008 RMK AO2 SLP113 ACSL ALQDS T03440078 58010,M
LSV,2023-07-17 20:55,-115.0343,36.2362,570.00,113.00,45.70,10.85,130.00,9.00,0.00,29.81,1006.10,10.00,M,CLR,M,M,M,M,M,M,M,M,M,M,M,M,M,M,108.48,KLSV 172055Z AUTO 13009KT 10SM CLR 45/08 A2981 RMK AO2 SLP061 T04490076 57017 $,M
RTS,2023-07-17 20:55,-119.8764,39.6682,1539.00,91.40,41.00,17.32,230.00,14.00,0.00,30.15,M,10.00,22.00,CLR,M,M,M,M,M,M,M,M,M,M,M,M,M,M,87.40,KRTS 172055Z AUTO 23014G22KT 10SM CLR 33/05 A3015 RMK AO2,M
05U,2023-07-17 20:55,-116.0051,39.6042,1811.23,96.80,35.60,11.86,M,M,0.00,30.20,M,10.00,M,CLR,M,M,M,M,M,M,M,M,M,M,M,M,M,M,91.72,K05U 172055Z AUTO 10SM CLR 36/02 A3020 RMK A01,M
MEV,2023-07-17 20:55,-119.7500,38.9963,1441.42,96.80,46.40,18.02,290.00,9.00,0.00,30.09,M,10.00,M,CLR,M,M,M,M,M,M,M,M,M,M,M,M,M,M,93.05,KMEV 172055Z AUTO 29009KT 10SM CLR 36/08 A3009 RMK AO2,M
BAM,2023-07-17 20:55,-116.8743,40.5990,1382.36,95.00,39.20,14.44,210.00,8.00,0.00,30.11,M,10.00,M,CLR,M,M,M,M,M,M,M,M,M,M,M,M,M,M,90.57,KBAM 172055Z AUTO 21008KT 10SM CLR 35/04 A3011 RMK AO1,M
HTH,2023-07-17 20:55,-118.6315,38.5448,1282.89,96.80,33.80,11.04,310.00,9.00,0.00,30.03,M,10.00,M,CLR,M,M,M,M,M,M,M,M,M,M,M,M,M,M,91.44,KHTH 172055Z AUTO 31009KT 10SM CLR 36/01 A3003 RMK A01,M
TMT,2023-07-17 20:55,-117.1971,39.4643,1749.34,93.60,38.30,14.56,160.00,6.00,0.00,30.18,M,10.00,M,CLR,M,M,M,M,M,M,M,M,M,M,M,M,M,M,89.23,KTMT 172055Z AUTO 16006KT 10SM CLR 34/04 A3018 RMK AO2 T03420035,M
EKO,2023-07-17 20:56,-115.7860,40.8242,1367.00,91.00,46.00,21.24,210.00,6.00,0.00,30.14,1014.20,10.00,M,FEW,M,M,M,12000.00,M,M,M,M,M,M,M,M,M,M,87.45,KEKO 172056Z AUTO 21006KT 10SM FEW120 33/08 A3014 RMK AO2 SLP142 T03280078 56007,M
WMC,2023-07-17 20:56,-117.8072,40.9019,1315.00,M,M,M,M,M,0.00,30.04,M,M,M,M,M,M,M,M,M,M,M,M,M,M,M,M,M,M,M,KWMC 172056Z AUTO A3004 RMK AO2 SLPNO 57012 PWINO FZRANO $,M
NFL,2023-07-17 20:56,-118.7010,39.4166,1199.00,97.00,39.00,13.48,0.00,0.00,0.00,30.02,1013.50,10.00,M,SCT,SCT,BKN,BKN,7000.00,10000.00,14000.00,17000.00,M,M,M,M,M,M,M,92.40,KNFL 172056Z 00000KT 10SM SCT070 SCT100 BKN140 BKN170 36/04 A3002 RMK AO2 SLP135 T03610039 58011,M
HND,2023-07-17 20:56,-115.1344,35.9729,742.79,110.00,51.00,14.44,230.00,7.00,0.00,29.92,1010.30,10.00,M,CLR,M,M,M,M,M,M,M,M,M,M,M,M,M,M,107.54,KHND 172056Z 23007KT 10SM CLR 43/11 A2992 RMK AO2 SLP103 T04330106 58014,M
TPH,2023-07-17 20:56,-117.0904,38.0505,1654.00,99.00,33.00,10.00,180.00,16.00,0.00,30.15,1009.70,10.00,22.00,CLR,M,M,M,M,M,M,M,M,M,M,M,M,M,M,93.16,KTPH 172056Z AUTO 18016G22KT 10SM CLR 37/01 A3015 RMK AO2 SLP097 T03720006 58013 $,M
LAS,2023-07-17 20:56,-115.1634,36.0719,663.00,111.00,48.00,12.54,190.00,7.00,0.00,29.87,1007.70,10.00,15.00,FEW,SCT,BKN,M,12000.00,16000.00,25000.00,M,M,M,M,M,M,M,M,107.39,KLAS 172056Z 19007G15KT 130V220 10SM FEW120 SCT160 BKN250 44/09 A2987 RMK AO2 SLP077 TCU SE T04390089 58014,M
LSV,2023-07-17 21:09,-115.0343,36.2362,570.00,113.00,48.20,11.93,160.00,12.00,0.00,29.81,1006.10,10.00,16.00,CLR,M,M,M,M,M,M,M,M,M,M,M,M,M,M,109.34,KLSV 172109Z AUTO 16012G16KT 10SM CLR 45/09 A2981 RMK AO2 WSHFT 06 SLP061 $,M
BVU,2023-07-17 21:15,-114.8611,35.9475,671.00,111.20,53.60,15.35,150.00,20.00,0.00,29.85,M,10.00,M,CLR,M,M,M,M,M,M,M,M,M,M,M,M,M,M,109.83,KBVU 172115Z AUTO 15020KT 10SM CLR 44/12 A2985 RMK AO2,M
CXP,2023-07-17 21:15,-119.7326,39.1923,1431.00,96.80,44.60,16.83,260.00,8.00,0.00,30.10,M,10.00,17.00,CLR,M,M,M,M,M,M,M,M,M,M,M,M,M,M,92.79,KCXP 172115Z AUTO 26008G17KT 10SM CLR 36/07 A3010 RMK AO2,M
RTS,2023-07-17 21:15,-119.8764,39.6682,1539.00,93.20,39.20,15.27,240.00,16.00,0.00,30.14,M,10.00,21.00,CLR,M,M,M,M,M,M,M,M,M,M,M,M,M,M,88.92,KRTS 172115Z AUTO 24016G21KT 10SM CLR 34/04 A3014 RMK AO2,M
05U,2023-07-17 21:15,-116.0051,39.6042,1811.23,96.80,35.60,11.86,M,M,0.00,30.20,M,10.00,M,M,M,M,M,M,M,M,M,M,M,M,M,M,M,M,91.72,K05U 172115Z AUTO 10SM 36/02 A3020 RMK A01,M
MEV,2023-07-17 21:15,-119.7500,38.9963,1441.42,96.80,46.40,18.02,300.00,11.00,0.00,30.09,M,10.00,M,CLR,M,M,M,M,M,M,M,M,M,M,M,M,M,M,93.05,KMEV 172115Z AUTO 30011KT 10SM CLR 36/08 A3009 RMK AO2,M
BAM,2023-07-17 21:15,-116.8743,40.5990,1382.36,95.00,39.20,14.44,220.00,9.00,0.00,30.11,M,10.00,M,CLR,M,M,M,M,M,M,M,M,M,M,M,M,M,M,90.57,KBAM 172115Z AUTO 22009KT 10SM CLR 35/04 A3011 RMK AO1,M
HTH,2023-07-17 21:15,-118.6315,38.5448,1282.89,96.80,33.80,11.04,320.00,7.00,0.00,30.03,M,10.00,M,CLR,M,M,M,M,M,M,M,M,M,M,M,M,M,M,91.44,KHTH 172115Z AUTO 32007KT 10SM CLR 36/01 A3003 RMK A01,M
TMT,2023-07-17 21:15,-117.1971,39.4643,1749.34,92.50,37.80,14.77,160.00,3.00,0.00,30.17,M,10.00,M,CLR,M,M,M,M,M,M,M,M,M,M,M,M,M,M,88.22,KTMT 172115Z AUTO 16003KT 10SM CLR 34/03 A3017 RMK AO2 T03360032,M
LAS,2023-07-17 21:20,-115.1634,36.0719,663.00,113.00,48.00,11.84,210.00,17.00,0.00,29.86,M,10.00,25.00,FEW,SCT,BKN,M,12000.00,16000.00,25000.00,M,TS,M,M,M,M,M,M,109.27,KLAS 172120Z 21017G25KT 180V300 10SM TS FEW120CB SCT160 BKN250 45/09 A2986 RMK AO2 LTG DSNT SE TSB20 OCNL LTGICCG SE TS SE MOV NE T04500089,M
HND,2023-07-17 21:21,-115.1344,35.9729,742.79,111.20,50.00,13.44,240.00,10.00,0.00,29.91,M,10.00,M,CLR,M,M,M,M,M,M,M,VCTS,M,M,M,M,M,M,108.33,KHND 172121Z 24010KT 10SM VCTS CLR 44/10 A2991 RMK AO2 TSB15,M
TPH,2023-07-17 21:25,-117.0904,38.0505,1654.00,98.00,31.00,9.51,210.00,16.00,0.00,30.15,M,10.00,24.00,CLR,M,M,M,M,M,M,M,M,M,M,M,28.00,190.00,2023-07-17 21:07,92.06,KTPH 172125Z AUTO 21016G24KT 10SM CLR 37/M01 A3015 RMK AO2 PK WND 19028/2107 WSHFT 2105 T03671006 $,M
BVU,2023-07-17 21:35,-114.8611,35.9475,671.00,109.40,53.60,16.17,160.00,18.00,0.00,29.85,M,10.00,M,CLR,M,M,M,M,M,M,M,M,M,M,M,M,M,M,108.00,KBVU 172135Z AUTO 16018KT 10SM CLR 43/12 A2985 RMK AO2 LTG DSNT SW AND W,M
CXP,2023-07-17 21:35,-119.7326,39.1923,1431.00,96.80,44.60,16.83,M,6.00,0.00,30.10,M,10.00,15.00,CLR,M,M,M,M,M,M,M,M,M,M,M,M,M,M,92.79,KCXP 172135Z AUTO VRB06G15KT 10SM CLR 36/07 A3010 RMK AO2,M
RTS,2023-07-17 21:35,-119.8764,39.6682,1539.00,93.20,39.20,15.27,220.00,12.00,0.00,30.14,M,10.00,22.00,CLR,M,M,M,M,M,M,M,M,M,M,M,M,M,M,88.92,KRTS 172135Z AUTO 22012G22KT 10SM CLR 34/04 A3014 RMK AO2,M
05U,2023-07-17 21:35,-116.0051,39.6042,1811.23,96.80,35.60,11.86,M,M,0.00,30.19,M,10.00,M,M,M,M,M,M,M,M,M,M,M,M,M,M,M,M,91.72,K05U 172135Z AUTO 10SM 36/02 A3019 RMK A01,M
MEV,2023-07-17 21:35,-119.7500,38.9963,1441.42,96.80,44.60,16.83,280.00,13.00,0.00,30.08,M,10.00,M,CLR,M,M,M,M,M,M,M,M,M,M,M,M,M,M,92.79,KMEV 172135Z AUTO 28013KT 10SM CLR 36/07 A3008 RMK AO2,M
BAM,2023-07-17 21:35,-116.8743,40.5990,1382.36,95.00,39.20,14.44,220.00,7.00,0.00,30.10,M,10.00,M,CLR,M,M,M,M,M,M,M,M,M,M,M,M,M,M,90.57,KBAM 172135Z AUTO 22007KT 10SM CLR 35/04 A3010 RMK AO1,M
HTH,2023-07-17 21:35,-118.6315,38.5448,1282.89,98.60,33.80,10.45,310.00,6.00,0.00,30.02,M,10.00,M,CLR,M,M,M,M,M,M,M,M,M,M,M,M,M,M,92.94,KHTH 172135Z AUTO 31006KT 10SM CLR 37/01 A3002 RMK A01,M
TMT,2023-07-17 21:35,-117.1971,39.4643,1749.34,94.50,38.30,14.16,210.00,7.00,0.00,30.16,M,10.00,M,CLR,M,M,M,M,M,M,M,M,M,M,M,M,M,M,90.05,KTMT 172135Z AUTO 21007KT 10SM CLR 35/04 A3016 RMK AO2 T03470035,M
INS,2023-07-17 21:42,-115.6733,36.5872,955.00,107.60,33.80,7.99,270.00,13.00,0.00,29.91,1006.80,10.00,M,SCT,BKN,BKN,M,15000.00,18000.00,21000.00,M,M,M,M,M,M,M,M,100.66,KINS 172142Z AUTO 27013KT 10SM SCT150 BKN180 BKN210 42/01 A2991 RMK AO2 WSHFT 29 SLP068 $,M
P68,2023-07-17 21:53,-116.0056,39.6014,1993.00,93.00,32.00,11.55,100.00,5.00,0.00,30.15,1010.60,M,M,M,M,M,M,M,M,M,M,M,M,M,M,M,M,M,88.15,KP68 172153Z AUTO 10005KT 34/00 A3015 RMK AO1 SLP106 T03390000,M
DRA,2023-07-17 21:53,-116.0278,36.6206,1009.00,107.00,42.00,11.22,220.00,20.00,0.00,29.95,1007.70,10.00,26.00,CLR,M,M,M,M,M,M,M,M,M,M,M,26.00,230.00,2023-07-17 21:51,101.88,KDRA 172153Z AUTO 22020G26KT 10SM CLR 42/06 A2995 RMK AO2 PK WND 23026/2151 SLP077 T04170056 $,M
ELY,2023-07-17 21:53,-114.8453,39.2950,1909.00,M,M,M,M,M,0.00,30.18,M,M,M,M,M,M,M,M,M,M,M,M,M,M,M,M,M,M,M,KELY 172153Z AUTO A3018 RMK AO2 SLPNO PWINO FZRANO,M
VGT,2023-07-17 21:53,-115.1933,36.2111,667.00,114.00,47.00,11.08,150.00,10.00,0.00,29.84,1008.40,10.00,22.00,CLR,M,M,M,M,M,M,M,M,M,M,M,M,M,M,109.80,KVGT 172153Z 15010G22KT 10SM CLR 46/08 A2984 RMK AO2 LTG DSNT SE AND S SLP084 T04560083,M
LOL,2023-07-17 21:53,-118.5701,40.0684,1192.43,96.00,41.00,15.02,250.00,6.00,0.00,30.01,1011.30,10.00,18.00,CLR,M,M,M,M,M,M,M,M,M,M,M,M,M,M,91.64,KLOL 172153Z AUTO 25006G18KT 10SM CLR 36/05 A3001 RMK AO2 SLP113 T03560050,M
BVU,2023-07-17 21:55,-114.8611,35.9475,671.00,107.60,48.20,13.95,270.00,16.00,0.00,29.85,M,10.00,23.00,CLR,M,M,M,M,M,M,M,M,M,M,M,M,M,M,104.23,KBVU 172155Z AUTO 27016G23KT 220V290 10SM CLR 42/09 A2985 RMK AO2 LTG DSNT SW AND NW,M
CXP,2023-07-17 21:55,-119.7326,39.1923,1431.00,96.80,46.40,18.02,300.00,14.00,0.00,30.10,M,10.00,20.00,CLR,M,M,M,M,M,M,M,M,M,M,M,M,M,M,93.05,KCXP 172155Z AUTO 30014G20KT 10SM CLR 36/08 A3010 RMK AO2,M
INS,2023-07-17 21:55,-115.6733,36.5872,955.00,109.20,31.50,6.95,230.00,11.00,0.00,29.91,1006.80,10.00,M,FEW,FEW,FEW,M,15000.00,18000.00,21000.00,M,M,M,M,M,M,M,M,101.68,KINS 172155Z AUTO 23011KT 10SM FEW150 FEW180 FEW210 43/M00 A2991 RMK AO2 SLP068 T04291003 $,M
RNO,2023-07-17 21:55,-119.7711,39.4839,1341.00,101.00,43.00,13.94,290.00,13.00,0.00,30.06,1010.20,10.00,19.00,FEW,SCT,M,M,11000.00,19000.00,M,M,M,M,M,M,M,M,M,96.64,KRNO 172155Z 29013G19KT 10SM FEW110 SCT190 38/06 A3006 RMK AO2 SLP102 ACSL ALQDS T03830061,M
LSV,2023-07-17 21:55,-115.0343,36.2362,570.00,114.80,49.50,11.89,130.00,13.00,0.00,29.79,1005.40,10.00,19.00,FEW,M,M,M,18000.00,M,M,M,M,M,M,M,M,M,M,111.48,KLSV 172155Z AUTO 13013G19KT 10SM FEW180 46/10 A2979 RMK AO2 SLP054 T04600097 $,M
RTS,2023-07-17 21:55,-119.8764,39.6682,1539.00,93.20,37.40,14.23,230.00,15.00,0.00,30.14,M,10.00,M,CLR,M,M,M,M,M,M,M,M,M,M,M,M,M,M,88.83,KRTS 172155Z AUTO 23015KT 10SM CLR 34/03 A3014 RMK AO2,M
05U,2023-07-17 21:55,-116.0051,39.6042,1811.23,95.00,33.80,11.67,360.00,4.00,0.00,30.18,M,10.00,M,M,M,M,M,M,M,M,M,M,M,M,M,M,M,M,89.97,K05U 172155Z AUTO 36004KT 10SM 35/01 A3018 RMK A01,M
MEV,2023-07-17 21:55,-119.7500,38.9963,1441.42,96.80,48.20,19.28,280.00,15.00,0.00,30.08,M,10.00,M,CLR,M,M,M,M,M,M,M,M,M,M,M,M,M,M,93.36,KMEV 172155Z AUTO 28015KT 10SM CLR 36/09 A3008 RMK AO2,M
BAM,2023-07-17 21:55,-116.8743,40.5990,1382.36,95.00,37.40,13.46,240.00,9.00,0.00,30.10,M,10.00,19.00,SCT,M,M,M,12000.00,M,M,M,M,M,M,M,M,M,M,90.46,KBAM 172155Z AUTO 24009G19KT 10SM SCT120 35/03 A3010 RMK AO1,M
HTH,2023-07-17 21:55,-118.6315,38.5448,1282.89,96.80,35.60,11.86,0.00,0.00,0.00,30.03,M,10.00,M,CLR,M,M,M,M,M,M,M,M,M,M,M,M,M,M,91.72,KHTH 172155Z AUTO 00000KT 10SM CLR 36/02 A3003 RMK A01,M
TMT,2023-07-17 21:55,-117.1971,39.4643,1749.34,94.60,36.50,13.15,320.00,8.00,0.00,30.16,M,10.00,17.00,CLR,M,M,M,M,M,M,M,M,M,M,M,M,M,M,90.05,KTMT 172155Z AUTO 32008G17KT 250V340 10SM CLR 35/03 A3016 RMK AO2 T03480025,M
EKO,2023-07-17 21:56,-115.7860,40.8242,1367.00,93.00,41.00,16.48,240.00,9.00,0.00,30.14,1013.80,10.00,15.00,CLR,M,M,M,M,M,M,M,M,M,M,M,M,M,M,88.85,KEKO 172156Z AUTO 24009G15KT 10SM CLR 34/05 A3014 RMK AO2 SLP138 T03390050,M
WMC,2023-07-17 21:56,-117.8072,40.9019,1315.00,M,M,M,M,M,0.00,30.03,M,M,M,M,M,M,M,M,M,M,M,M,M,M,M,M,M,M,M,KWMC 172156Z AUTO A3003 RMK AO2 SLPNO PWINO FZRANO $,M
NFL,2023-07-17 21:56,-118.7010,39.4166,1199.00,101.00,44.00,14.48,10.00,9.00,0.00,30.00,1012.90,10.00,M,SCT,SCT,BKN,BKN,7000.00,10000.00,14000.00,18000.00,M,M,M,M,M,M,M,96.80,KNFL 172156Z 01009KT 10SM SCT070 SCT100 BKN140 BKN180 38/07 A3000 RMK AO2 SLP129 CB DSNT S MOV NE T03830067,M
HND,2023-07-17 21:56,-115.1344,35.9729,742.79,112.00,51.00,13.63,220.00,10.00,0.00,29.90,1009.90,10.00,15.00,CLR,M,M,M,M,M,M,M,VCTS,M,M,M,M,M,M,109.49,KHND 172156Z 22010G15KT 10SM VCTS CLR 44/11 A2990 RMK AO2 LTG DSNT SE TSB15 SLP099 T04440106,M
TPH,2023-07-17 21:56,-117.0904,38.0505,1654.00,96.00,35.00,11.87,160.00,22.00,0.00,30.15,1010.50,10.00,34.00,CLR,M,M,M,M,M,M,M,M,M,M,M,34.00,160.00,2023-07-17 21:55,90.97,KTPH 172156Z AUTO 16022G34KT 10SM CLR 36/02 A3015 RMK AO2 PK WND 16034/2155 WSHFT 2105 SLP105 T03560017,M
LAS,2023-07-17 21:56,-115.1634,36.0719,663.00,113.00,47.00,11.40,190.00,7.00,0.00,29.85,1006.90,10.00,15.00,FEW,SCT,BKN,M,12000.00,16000.00,25000.00,M,TS,M,M,M,M,M,M,108.91,KLAS 172156Z 19007G15KT 10SM TS FEW120CB SCT160 BKN250 45/08 A2985 RMK AO2 LTG DSNT SE AND S TSB20 SLP069 OCNL LTGICCG E-S TS E-S MOV NE VCSH E-SE T04500083,M
BVU,2023-07-17 22:15,-114.8611,35.9475,671.00,105.80,50.00,15.73,260.00,19.00,0.00,29.85,M,9.00,M,CLR,M,M,M,M,M,M,M,M,M,M,M,M,M,M,102.98,KBVU 172215Z AUTO 26019KT 9SM CLR 41/10 A2985 RMK AO2 LTG DSNT S-NW,M
CXP,2023-07-17 22:15,-119.7326,39.1923,1431.00,95.00,46.40,19.04,290.00,14.00,0.00,30.09,M,10.00,20.00,CLR,M,M,M,M,M,M,M,M,M,M,M,M,M,M,91.29,KCXP 172215Z AUTO 29014G20KT 10SM CLR 35/08 A3009 RMK AO2,M
RTS,2023-07-17 22:15,-119.8764,39.6682,1539.00,93.20,39.20,15.27,240.00,14.00,0.00,30.13,M,10.00,19.00,CLR,M,M,M,M,M,M,M,M,M,M,M,M,M,M,88.92,KRTS 172215Z AUTO 24014G19KT 210V270 10SM CLR 34/04 A3013 RMK AO2,M
05U,2023-07-17 22:15,-116.0051,39.6042,1811.23,93.20,35.60,13.25,M,M,0.00,30.18,M,10.00,M,M,M,M,M,M,M,M,M,M,M,M,M,M,M,M,88.76,K05U 172215Z AUTO 10SM 34/02 A3018 RMK A01,M
MEV,2023-07-17 22:15,-119.7500,38.9963,1441.42,95.00,46.40,19.04,250.00,9.00,0.00,30.07,M,10.00,16.00,CLR,M,M,M,M,M,M,M,M,M,M,M,M,M,M,91.29,KMEV 172215Z AUTO 25009G16KT 10SM CLR 35/08 A3007 RMK AO2,M
BAM,2023-07-17 22:15,-116.8743,40.5990,1382.36,96.80,37.40,12.73,250.00,11.00,0.00,30.08,M,10.00,M,SCT,M,M,M,12000.00,M,M,M,M,M,M,M,M,M,M,92.04,KBAM 172215Z AUTO 25011KT 10SM SCT120 36/03 A3008 RMK AO1,M
HTH,2023-07-17 22:15,-118.6315,38.5448,1282.89,96.80,33.80,11.04,200.00,5.00,0.00,30.02,M,10.00,10.00,CLR,M,M,M,M,M,M,M,M,M,M,M,M,M,M,91.44,KHTH 172215Z AUTO 20005G10KT 10SM CLR 36/01 A3002 RMK A01,M
TMT,2023-07-17 22:15,-117.1971,39.4643,1749.34,94.00,35.80,13.03,250.00,11.00,0.00,30.15,M,10.00,18.00,CLR,M,M,M,M,M,M,M,M,M,M,M,M,M,M,89.48,KTMT 172215Z AUTO 25011G18KT 10SM CLR 35/02 A3015 RMK AO2 T03450021,M
BVU,2023-07-17 22:35,-114.8611,35.9475,671.00,102.20,53.60,20.00,310.00,14.00,0.00,29.85,M,10.00,20.00,CLR,M,M,M,M,M,M,M,M,M,M,M,M,M,M,100.38,KBVU 172235Z AUTO 31014G20KT 10SM CLR 39/12 A2985 RMK AO2 LTG DSNT SW-N,M
CXP,2023-07-17 22:35,-119.7326,39.1923,1431.00,96.80,48.20,19.28,280.00,15.00,0.00,30.09,M,10.00,21.00,CLR,M,M,M,M,M,M,M,M,M,M,M,M,M,M,93.36,KCXP 172235Z AUTO 28015G21KT 10SM CLR 36/09 A3009 RMK AO2,M
HND,2023-07-17 22:35,-115.1344,35.9729,742.79,107.60,53.60,17.04,100.00,17.00,0.00,29.89,M,10.00,27.00,CLR,M,M,M,M,M,M,M,TS,M,M,M,27.00,90.00,2023-07-17 22:33,106.13,KHND 172235Z 10017G27KT 10SM TS CLR 42/12 A2989 RMK AO2 PK WND 09027/2233 WSHFT 2215 LTG DSNT SE,M
RTS,2023-07-17 22:35,-119.8764,39.6682,1539.00,93.20,41.00,16.37,220.00,14.00,0.00,30.12,M,10.00,21.00,CLR,M,M,M,M,M,M,M,M,M,M,M,M,M,M,89.03,KRTS 172235Z AUTO 22014G21KT 10SM CLR 34/05 A3012 RMK AO2,M
05U,2023-07-17 22:35,-116.0051,39.6042,1811.23,93.20,35.60,13.25,M,M,0.00,30.17,M,10.00,M,CLR,M,M,M,M,M,M,M,M,M,M,M,M,M,M,88.76,K05U 172235Z AUTO 10SM CLR 34/02 A3017 RMK A01,M
MEV,2023-07-17 22:35,-119.7500,38.9963,1441.42,93.20,48.20,21.54,280.00,10.00,0.00,30.07,M,10.00,M,CLR,M,M,M,M,M,M,M,M,M,M,M,M,M,M,89.80,KMEV 172235Z AUTO 28010KT 10SM CLR 34/09 A3007 RMK AO2,M
BAM,2023-07-17 22:35,-116.8743,40.5990,1382.36,96.80,35.60,11.86,280.00,19.00,0.00,30.08,M,7.00,25.00,CLR,M,M,M,M,M,M,M,M,M,M,M,M,M,M,91.72,KBAM 172235Z AUTO 28019G25KT 7SM CLR 36/02 A3008 RMK AO1,M
HTH,2023-07-17 22:35,-118.6315,38.5448,1282.89,98.60,35.60,11.23,M,5.00,0.00,30.01,M,10.00,M,CLR,M,M,M,M,M,M,M,M,M,M,M,M,M,M,93.23,KHTH 172235Z AUTO VRB05KT 10SM CLR 37/02 A3001 RMK A01,M
TMT,2023-07-17 22:35,-117.1971,39.4643,1749.34,94.00,36.00,13.13,260.00,11.00,0.00,30.15,M,10.00,15.00,CLR,M,M,M,M,M,M,M,M,M,M,M,M,M,M,89.49,KTMT 172235Z AUTO 26011G15KT 10SM CLR 35/02 A3015 RMK AO2 T03450022,M
VGT,2023-07-17 22:43,-115.1933,36.2111,667.00,114.00,46.00,10.67,140.00,19.00,0.00,29.83,M,10.00,32.00,CLR,M,M,M,M,M,M,M,VCTS,M,M,M,32.00,150.00,2023-07-17 22:39,109.45,KVGT 172243Z 14019G32KT 10SM VCTS CLR 46/08 A2983 RMK AO2 PK WND 15032/2239 LTG DSNT SE AND S T04560078,M
NFL,2023-07-17 22:44,-118.7010,39.4166,1199.00,102.00,43.00,13.52,20.00,8.00,0.00,29.98,M,10.00,M,SCT,SCT,BKN,BKN,7000.00,10000.00,15000.00,18000.00,TS,M,M,M,M,M,M,97.60,KNFL 172244Z 02008KT 10SM TS SCT070CB SCT100 BKN150 BKN180 39/06 A2998 RMK AO2 TSB43 OCNL LTGICCCCG S CB S-SE MOV NE T03890061,M
P68,2023-07-17 22:53,-116.0056,39.6014,1993.00,92.00,35.00,13.43,30.00,12.00,0.00,30.13,1011.10,M,M,M,M,M,M,M,M,M,M,M,M,M,M,M,M,M,87.68,KP68 172253Z AUTO 03012KT 33/02 A3013 RMK AO1 SLP111 T03330017,M
DRA,2023-07-17 22:53,-116.0278,36.6206,1009.00,107.00,43.00,11.66,200.00,17.00,0.00,29.93,1007.20,10.00,24.00,CLR,M,M,M,M,M,M,M,M,M,M,M,26.00,200.00,2023-07-17 21:57,102.15,KDRA 172253Z AUTO 20017G24KT 10SM CLR 42/06 A2993 RMK AO2 PK WND 20026/2157 SLP072 T04170061,M
ELY,2023-07-17 22:53,-114.8453,39.2950,1909.00,M,M,M,M,M,0.00,30.18,M,M,M,M,M,M,M,M,M,M,M,M,M,M,M,M,M,M,M,KELY 172253Z AUTO A3018 RMK AO2 SLPNO PWINO FZRANO,M
VGT,2023-07-17 22:53,-115.1933,36.2111,667.00,114.00,46.00,10.67,140.00,24.00,0.00,29.82,1007.90,9.00,37.00,CLR,M,M,M,M,M,M,M,VCTS,M,M,M,37.00,130.00,2023-07-17 22:46,109.45,KVGT 172253Z 14024G37KT 9SM VCTS CLR 46/08 A2982 RMK AO2 PK WND 13037/2246 WSHFT 2236 LTG DSNT SE SLP079 T04560078,M
LOL,2023-07-17 22:53,-118.5701,40.0684,1192.43,100.00,40.00,12.79,260.00,6.00,0.00,29.98,1009.60,10.00,17.00,CLR,M,M,M,M,M,M,M,M,M,M,M,M,M,M,95.26,KLOL 172253Z AUTO 26006G17KT 10SM CLR 38/04 A2998 RMK AO2 SLP096 T03780044,M
BVU,2023-07-17 22:55,-114.8611,35.9475,671.00,98.60,51.80,20.87,320.00,13.00,0.00,29.84,M,10.00,25.00,CLR,M,M,M,M,M,M,M,M,M,M,M,M,M,M,96.00,KBVU 172255Z AUTO 32013G25KT 10SM CLR 37/11 A2984 RMK AO2 LTG DSNT ALQDS,M
CXP,2023-07-17 22:55,-119.7326,39.1923,1431.00,95.00,48.20,20.38,290.00,16.00,0.00,30.08,M,10.00,M,CLR,M,M,M,M,M,M,M,M,M,M,M,M,M,M,91.56,KCXP 172255Z AUTO 29016KT 10SM CLR 35/09 A3008 RMK AO2 LTG DSNT E,M
INS,2023-07-17 22:55,-115.6733,36.5872,955.00,109.40,31.60,6.94,220.00,14.00,0.00,29.89,1006.10,10.00,24.00,FEW,M,M,M,16000.00,M,M,M,M,M,M,M,26.00,210.00,2023-07-17 22:39,101.87,KINS 172255Z AUTO 22014G24KT 10SM FEW160 43/M00 A2989 RMK AO2 PK WND 21026/39 SLP061 T04301002 $,M
RNO,2023-07-17 22:55,-119.7711,39.4839,1341.00,100.00,44.00,14.92,290.00,16.00,0.00,30.03,1009.40,10.00,M,FEW,FEW,SCT,M,10000.00,16000.00,22000.00,M,M,M,M,M,M,M,M,95.83,KRNO 172255Z 29016KT 10SM FEW100 FEW160 SCT220 38/07 A3003 RMK AO2 SLP094 TCU DSNT E THRU SE ACSL ALQDS T03780067,M
LSV,2023-07-17 22:55,-115.0343,36.2362,570.00,111.60,36.50,7.92,110.00,14.00,0.00,29.78,1005.20,10.00,27.00,FEW,M,M,M,19000.00,M,M,M,TS,M,M,M,29.00,120.00,2023-07-17 22:33,104.79,KLSV 172255Z AUTO 11014G27KT 10SM TS FEW190 44/03 A2978 RMK AO2 PK WND 12029/33 TSB52E54TSB54 SLP052 T04420025 $,M
RTS,2023-07-17 22:55,-119.8764,39.6682,1539.00,93.20,41.00,16.37,230.00,12.00,0.00,30.12,M,10.00,19.00,CLR,M,M,M,M,M,M,M,M,M,M,M,M,M,M,89.03,KRTS 172255Z AUTO 23012G19KT 10SM CLR 34/05 A3012 RMK AO2,M
05U,2023-07-17 22:55,-116.0051,39.6042,1811.23,93.20,35.60,13.25,M,M,0.00,30.16,M,10.00,M,CLR,M,M,M,M,M,M,M,M,M,M,M,M,M,M,88.76,K05U 172255Z AUTO 10SM CLR 34/02 A3016 RMK A01,M
MEV,2023-07-17 22:55,-119.7500,38.9963,1441.42,96.80,50.00,20.62,280.00,11.00,0.00,30.06,M,10.00,18.00,CLR,M,M,M,M,M,M,M,M,M,M,M,M,M,M,93.71,KMEV 172255Z AUTO 28011G18KT 10SM CLR 36/10 A3006 RMK AO2,M
BAM,2023-07-17 22:55,-116.8743,40.5990,1382.36,96.80,35.60,11.86,270.00,15.00,0.00,30.07,M,10.00,23.00,CLR,M,M,M,M,M,M,M,M,M,M,M,M,M,M,91.72,KBAM 172255Z AUTO 27015G23KT 10SM CLR 36/02 A3007 RMK AO1,M
HTH,2023-07-17 22:55,-118.6315,38.5448,1282.89,100.40,35.60,10.63,330.00,4.00,0.00,30.00,M,10.00,11.00,CLR,M,M,M,M,M,M,M,M,M,M,M,M,M,M,94.76,KHTH 172255Z AUTO 33004G11KT 10SM CLR 38/02 A3000 RMK A01,M
TMT,2023-07-17 22:55,-117.1971,39.4643,1749.34,95.00,35.00,12.24,320.00,6.00,0.00,30.15,M,10.00,M,CLR,M,M,M,M,M,M,M,M,M,M,M,M,M,M,90.15,KTMT 172255Z AUTO 32006KT 10SM CLR 35/02 A3015 RMK AO2 T03490017,M
EKO,2023-07-17 22:56,-115.7860,40.8242,1367.00,92.00,39.00,15.73,270.00,16.00,0.00,30.11,1013.40,10.00,26.00,CLR,M,M,M,M,M,M,M,M,M,M,M,26.00,270.00,2023-07-17 22:56,87.83,KEKO 172256Z AUTO 27016G26KT 10SM CLR 33/04 A3011 RMK AO2 PK WND 27026/2256 SLP134 T03330039,M
WMC,2023-07-17 22:56,-117.8072,40.9019,1315.00,M,M,M,M,M,0.00,30.01,M,M,M,M,M,M,M,M,M,M,M,M,M,M,M,M,M,M,M,KWMC 172256Z AUTO A3001 RMK AO2 SLPNO PWINO FZRANO $,M
NFL,2023-07-17 22:56,-118.7010,39.4166,1199.00,101.00,43.00,13.94,360.00,5.00,0.00,29.97,1012.20,10.00,M,SCT,SCT,BKN,BKN,7000.00,10000.00,15000.00,18000.00,TS,M,M,M,M,M,M,96.64,KNFL 172256Z 36005KT 10SM TS SCT070CB SCT100 BKN150 BKN180 38/06 A2997 RMK AO2 TSB43 SLP122 OCNL LTGICCCCG S CB S-E MOV NE T03830061,M
HND,2023-07-17 22:56,-115.1344,35.9729,742.79,106.00,55.00,18.80,100.00,16.00,0.00,29.88,1009.30,10.00,29.00,CLR,M,M,M,M,M,M,M,VCTS,M,M,M,29.00,90.00,2023-07-17 22:50,105.02,KHND 172256Z 10016G29KT 10SM VCTS CLR 41/13 A2988 RMK AO2 PK WND 09029/2250 WSHFT 2215 LTG DSNT N AND NE SLP093 T04110128,M
TPH,2023-07-17 22:56,-117.0904,38.0505,1654.00,96.00,34.00,11.40,210.00,11.00,0.00,30.12,1010.30,10.00,19.00,CLR,M,M,M,M,M,M,M,M,M,M,M,30.00,170.00,2023-07-17 21:57,90.81,KTPH 172256Z AUTO 21011G19KT 10SM CLR 36/01 A3012 RMK AO2 PK WND 17030/2157 SLP103 T03560011,M
LAS,2023-07-17 22:56,-115.1634,36.0719,663.00,109.00,49.00,13.80,110.00,15.00,0.00,29.84,1006.90,10.00,28.00,FEW,SCT,BKN,M,12000.00,16000.00,25000.00,M,TS,M,M,M,32.00,110.00,2023-07-17 22:42,105.85,KLAS 172256Z 11015G28KT 10SM TS FEW120CB SCT160 BKN250 43/09 A2984 RMK AO2 PK WND 11032/2242 LTG DSNT E AND SE SLP069 OCNL LTGICCG E-SE TS E-SE MOV NE VCSH E-SE T04280094,M
LSV,2023-07-17 23:02,-115.0343,36.2362,570.00,109.40,42.80,10.78,120.00,28.00,0.00,29.78,1005.20,7.00,39.00,FEW,M,M,M,20000.00,M,M,M,TS -DZ,M,M,M,M,M,M,104.25,KLSV 172302Z AUTO 12028G39KT 7SM TS -DZ FEW200 43/06 A2978 RMK AO2 DZB02 SLP052 $,M
VGT,2023-07-17 23:04,-115.1933,36.2111,667.00,111.00,49.00,13.02,140.00,23.00,0.00,29.83,M,10.00,31.00,CLR,M,M,M,M,M,M,M,TS,M,M,M,31.00,130.00,2023-07-17 22:55,107.77,KVGT 172304Z 14023G31KT 10SM TS CLR 44/09 A2983 RMK AO2 PK WND 13031/2255 LTG DSNT SE AND NW TSB2258 T04390094,M
LSV,2023-07-17 23:05,-115.0343,36.2362,570.00,109.40,48.20,13.24,150.00,27.00,0.00,29.79,1005.50,6.00,39.00,FEW,M,M,M,20000.00,M,M,M,TS -DZ,M,M,M,M,M,M,105.97,KLSV 172305Z AUTO 15027G39KT 6SM TS -DZ FEW200 43/09 A2979 RMK AO2 WSHFT 2255 DZB02 SLP055 $,M
LSV,2023-07-17 23:11,-115.0343,36.2362,570.00,102.20,59.00,24.32,190.00,12.00,0.00,29.81,1006.40,5.00,31.00,FEW,FEW,M,M,1300.00,20000.00,M,M,-TSRA,M,M,M,M,M,M,102.62,KLSV 172311Z AUTO 19012G31KT 5SM -TSRA FEW013 FEW200 39/15 A2981 RMK AO2 WSHFT 05 DZB02E06RAB06 PRESRR SLP064 $,M
HND,2023-07-17 23:13,-115.1344,35.9729,742.79,109.40,55.40,17.27,70.00,10.00,0.00,29.88,M,10.00,M,CLR,M,M,M,M,M,M,M,M,M,M,M,M,M,M,108.82,KHND 172313Z 07010KT 10SM CLR 43/13 A2988 RMK AO2 LTG DSNT N TSE07,M
BVU,2023-07-17 23:15,-114.8611,35.9475,671.00,102.20,50.00,17.51,340.00,9.00,0.00,29.83,M,10.00,M,CLR,M,M,M,M,M,M,M,M,M,M,M,M,M,M,99.28,KBVU 172315Z AUTO 34009KT 10SM CLR 39/10 A2983 RMK AO2 LTG DSNT NW,M
CXP,2023-07-17 23:15,-119.7326,39.1923,1431.00,95.00,50.00,21.79,280.00,16.00,0.00,30.08,M,10.00,21.00,CLR,M,M,M,M,M,M,M,M,M,M,M,M,M,M,91.89,KCXP 172315Z AUTO 28016G21KT 10SM CLR 35/10 A3008 RMK AO2,M
LSV,2023-07-17 23:15,-115.0343,36.2362,570.00,96.80,57.20,26.84,90.00,11.00,0.00,29.81,1006.60,6.00,31.00,FEW,M,M,M,1300.00,M,M,M,VCTS -RA,M,M,M,M,M,M,95.77,KLSV 172315Z AUTO 09011G31KT 6SM VCTS -RA FEW013 36/14 A2981 RMK AO2 DZB02E06RAB06 TSE15 SLP066 $,M
RTS,2023-07-17 23:15,-119.8764,39.6682,1539.00,93.20,41.00,16.37,230.00,17.00,0.00,30.11,M,10.00,22.00,CLR,M,M,M,M,M,M,M,M,M,M,M,M,M,M,89.03,KRTS 172315Z AUTO 23017G22KT 10SM CLR 34/05 A3011 RMK AO2,M
05U,2023-07-17 23:15,-116.0051,39.6042,1811.23,93.20,35.60,13.25,M,M,0.00,30.16,M,10.00,M,CLR,M,M,M,M,M,M,M,M,M,M,M,M,M,M,88.76,K05U 172315Z AUTO 10SM CLR 34/02 A3016 RMK A01,M
MEV,2023-07-17 23:15,-119.7500,38.9963,1441.42,95.00,50.00,21.79,280.00,14.00,0.00,30.06,M,10.00,M,CLR,M,M,M,M,M,M,M,M,M,M,M,M,M,M,91.89,KMEV 172315Z AUTO 28014KT 10SM CLR 35/10 A3006 RMK AO2,M
BAM,2023-07-17 23:15,-116.8743,40.5990,1382.36,95.00,35.60,12.53,280.00,11.00,0.00,30.05,M,10.00,17.00,CLR,M,M,M,M,M,M,M,M,M,M,M,M,M,M,90.25,KBAM 172315Z AUTO 28011G17KT 10SM CLR 35/02 A3005 RMK AO1,M
HTH,2023-07-17 23:15,-118.6315,38.5448,1282.89,98.60,35.60,11.23,M,3.00,0.00,30.00,M,10.00,M,CLR,M,M,M,M,M,M,M,M,M,M,M,M,M,M,93.23,KHTH 172315Z AUTO VRB03KT 10SM CLR 37/02 A3000 RMK A01,M
TMT,2023-07-17 23:15,-117.1971,39.4643,1749.34,92.70,40.00,16.00,20.00,9.00,0.00,30.13,M,10.00,M,CLR,M,M,M,M,M,M,M,M,M,M,M,M,M,M,88.51,KTMT 172315Z AUTO 02009KT 10SM CLR 34/04 A3013 RMK AO2 T03370044,M
LSV,2023-07-17 23:18,-115.0343,36.2362,570.00,95.00,53.60,24.89,40.00,10.00,0.00,29.81,1006.60,7.00,28.00,FEW,M,M,M,1500.00,M,M,M,VCTS -RA,M,M,M,M,M,M,92.71,KLSV 172318Z AUTO 04010G28KT 7SM VCTS -RA FEW015 35/12 A2981 RMK AO2 WSHFT 15 DZB02E06RAB06 TSE15 SLP066 $,M
VGT,2023-07-17 23:19,-115.1933,36.2111,667.00,108.00,51.00,15.30,130.00,18.00,0.00,29.83,M,10.00,27.00,CLR,M,M,M,M,M,M,M,VCTS,M,M,M,31.00,130.00,2023-07-17 22:55,105.54,KVGT 172319Z 13018G27KT 10SM VCTS CLR 42/11 A2983 RMK AO2 PK WND 13031/2255 LTG DSNT SE TSB2258E13 T04220106,M
HND,2023-07-17 23:23,-115.1344,35.9729,742.79,109.40,53.60,16.17,M,5.00,0.00,29.88,M,10.00,M,CLR,M,M,M,M,M,M,M,VCTS,M,M,M,M,M,M,108.00,KHND 172323Z VRB05KT 10SM VCTS CLR 43/12 A2988 RMK AO2 LTG DSNT N AND NE TSE07B17,M
LSV,2023-07-17 23:26,-115.0343,36.2362,570.00,96.80,57.20,26.84,10.00,4.00,0.00,29.79,1005.90,10.00,23.00,FEW,FEW,M,M,1500.00,18000.00,M,M,M,M,M,M,M,M,M,95.77,KLSV 172326Z AUTO 01004G23KT 10SM FEW015 FEW180 36/14 A2979 RMK AO2 DZB02E06RAB06E26 TSE15 PRESFR SLP059 $,M
BVU,2023-07-17 23:35,-114.8611,35.9475,671.00,105.80,50.00,15.73,20.00,4.00,0.00,29.83,M,10.00,M,CLR,M,M,M,M,M,M,M,M,M,M,M,M,M,M,102.98,KBVU 172335Z AUTO 02004KT 10SM CLR 41/10 A2983 RMK AO2 LTG DSNT W-N,M
CXP,2023-07-17 23:35,-119.7326,39.1923,1431.00,95.00,50.00,21.79,280.00,13.00,0.00,30.08,M,10.00,19.00,CLR,M,M,M,M,M,M,M,M,M,M,M,M,M,M,91.89,KCXP 172335Z AUTO 28013G19KT 10SM CLR 35/10 A3008 RMK AO2,M
RTS,2023-07-17 23:35,-119.8764,39.6682,1539.00,93.20,39.20,15.27,260.00,14.00,0.00,30.11,M,10.00,20.00,CLR,M,M,M,M,M,M,M,M,M,M,M,M,M,M,88.92,KRTS 172335Z AUTO 26014G20KT 10SM CLR 34/04 A3011 RMK AO2,M
05U,2023-07-17 23:35,-116.0051,39.6042,1811.23,91.40,35.60,14.02,M,M,0.00,30.16,M,10.00,M,CLR,M,M,M,M,M,M,M,M,M,M,M,M,M,M,87.17,K05U 172335Z AUTO 10SM CLR 33/02 A3016 RMK A01,M
MEV,2023-07-17 23:35,-119.7500,38.9963,1441.42,93.20,50.00,23.04,280.00,11.00,0.00,30.06,M,10.00,20.00,CLR,M,M,M,M,M,M,M,M,M,M,M,M,M,M,90.10,KMEV 172335Z AUTO 28011G20KT 10SM CLR 34/10 A3006 RMK AO2,M
BAM,2023-07-17 23:35,-116.8743,40.5990,1382.36,95.00,35.60,12.53,270.00,11.00,0.00,30.04,M,10.00,20.00,CLR,M,M,M,M,M,M,M,M,M,M,M,M,M,M,90.25,KBAM 172335Z AUTO 27011G20KT 10SM CLR 35/02 A3004 RMK AO1,M
HTH,2023-07-17 23:35,-118.6315,38.5448,1282.89,96.80,35.60,11.86,240.00,11.00,0.00,30.02,M,8.00,25.00,FEW,FEW,SCT,M,4800.00,6500.00,9000.00,M,M,M,M,M,M,M,M,91.72,KHTH 172335Z AUTO 24011G25KT 200V270 8SM FEW048 FEW065 SCT090 36/02 A3002 RMK A01,M
TMT,2023-07-17 23:35,-117.1971,39.4643,1749.34,92.30,40.50,16.52,60.00,5.00,0.00,30.13,M,10.00,9.00,CLR,M,M,M,M,M,M,M,M,M,M,M,M,M,M,88.18,KTMT 172335Z AUTO 06005G09KT 10SM CLR 34/05 A3013 RMK AO2 T03350047,M
NFL,2023-07-17 23:38,-118.7010,39.4166,1199.00,95.00,45.00,18.06,120.00,18.00,0.00,29.98,M,8.00,32.00,CLR,M,M,M,M,M,M,M,BLDU,M,M,M,32.00,140.00,2023-07-17 23:30,91.10,KNFL 172338Z 12018G32KT 8SM BLDU CLR 35/07 A2998 RMK AO2 PK WND 14032/2330 TSE32 OCNL LTGICCC DSNT E TS DSNT E MOV NE T03500072,M
VGT,2023-07-17 23:39,-115.1933,36.2111,667.00,111.00,49.00,13.02,100.00,15.00,0.00,29.83,M,10.00,M,CLR,M,M,M,M,M,M,M,M,M,M,M,31.00,130.00,2023-07-17 22:55,107.77,KVGT 172339Z 10015KT 10SM CLR 44/09 A2983 RMK AO2 PK WND 13031/2255 LTG DSNT SE TSB2258E13 T04390094,M
LSV,2023-07-17 23:49,-115.0343,36.2362,570.00,105.80,48.20,14.71,90.00,15.00,0.00,29.78,1005.40,10.00,M,FEW,FEW,SCT,M,14000.00,17000.00,19000.00,M,TS,M,M,M,M,M,M,102.45,KLSV 172349Z AUTO 09015KT 10SM TS FEW140 FEW170 SCT190 41/09 A2978 RMK AO2 DZB02E06RAB06E26 TSE15TSB49 SLP054 $,M
05U,2023-07-17 23:50,-116.0051,39.6042,1811.23,91.40,39.20,16.15,M,M,0.00,30.16,M,10.00,M,CLR,M,M,M,M,M,M,M,M,M,M,M,M,M,M,87.30,K05U 172350Z AUTO 10SM CLR 33/04 A3016 RMK A01,M
P68,2023-07-17 23:53,-116.0056,39.6014,1993.00,90.00,37.00,15.48,360.00,10.00,0.00,30.13,1011.20,M,M,M,M,M,M,M,M,M,M,M,M,M,M,M,M,M,86.00,KP68 172353Z AUTO 36010KT 32/03 A3013 RMK AO1 SLP112 T03220028 10361 20322 56011,M
DRA,2023-07-17 23:53,-116.0278,36.6206,1009.00,106.00,44.00,12.47,190.00,16.00,0.00,29.92,1007.00,10.00,24.00,CLR,M,M,M,M,M,M,M,M,M,M,M,28.00,220.00,2023-07-17 23:02,101.53,KDRA 172353Z AUTO 19016G24KT 10SM CLR 41/07 A2992 RMK AO2 PK WND 22028/2302 SLP070 T04110067 10433 20394 56015,M
ELY,2023-07-17 23:53,-114.8453,39.2950,1909.00,M,M,M,M,M,0.00,30.19,M,M,M,M,M,M,M,M,M,M,M,M,M,M,M,M,M,M,M,KELY 172353Z AUTO A3019 RMK AO2 SLPNO 55003 PWINO FZRANO,M
VGT,2023-07-17 23:53,-115.1933,36.2111,667.00,109.00,49.00,13.80,110.00,14.00,0.00,29.83,1008.10,10.00,M,CLR,M,M,M,M,M,M,M,M,M,M,M,31.00,130.00,2023-07-17 22:55,105.85,KVGT 172353Z 11014KT 10SM CLR 43/09 A2983 RMK AO2 PK WND 13031/2255 LTG DSNT E-S TSB2258E13 SLP081 T04280094 10467 20422 55012,M
LOL,2023-07-17 23:53,-118.5701,40.0684,1192.43,99.00,42.00,14.24,260.00,12.00,0.00,29.96,1009.30,10.00,20.00,CLR,M,M,M,M,M,M,M,M,M,M,M,M,M,M,94.59,KLOL 172353Z AUTO 26012G20KT 10SM CLR 37/06 A2996 RMK AO2 SLP093 T03720056 10378 20317 56021,M
BVU,2023-07-17 23:55,-114.8611,35.9475,671.00,105.80,51.80,16.82,20.00,6.00,0.00,29.82,M,10.00,M,CLR,M,M,M,M,M,M,M,M,M,M,M,M,M,M,103.57,KBVU 172355Z AUTO 02006KT 10SM CLR 41/11 A2982 RMK AO2 LTG DSNT N AND NW,M
CXP,2023-07-17 23:55,-119.7326,39.1923,1431.00,93.20,48.20,21.54,270.00,12.00,0.00,30.08,M,10.00,20.00,CLR,M,M,M,M,M,M,M,M,M,M,M,M,M,M,89.80,KCXP 172355Z AUTO 27012G20KT 10SM CLR 34/09 A3008 RMK AO2,M
INS,2023-07-17 23:55,-115.6733,36.5872,955.00,107.80,33.80,7.94,220.00,17.00,0.00,29.88,1005.70,10.00,24.00,CLR,M,M,M,M,M,M,M,M,M,M,M,27.00,220.00,2023-07-17 23:18,100.84,KINS 172355Z AUTO 22017G24KT 10SM CLR 42/01 A2988 RMK AO2 PK WND 22027/18 SLP057 T04210010 10434 20387 57017 $,M
RNO,2023-07-17 23:55,-119.7711,39.4839,1341.00,98.00,46.00,17.11,300.00,18.00,0.00,30.03,1009.40,10.00,24.00,FEW,FEW,SCT,M,12000.00,16000.00,22000.00,M,M,M,M,M,M,M,M,94.18,KRNO 172355Z 30018G24KT 10SM FEW120 FEW160 SCT220 37/08 A3003 RMK AO2 SLP094 TCU DSNT E THRU S ACSL ALQDS T03670078 10383 20283 56016,M
RTS,2023-07-17 23:55,-119.8764,39.6682,1539.00,93.20,37.40,14.23,260.00,16.00,0.00,30.11,M,10.00,21.00,CLR,M,M,M,M,M,M,M,M,M,M,M,M,M,M,88.83,KRTS 172355Z AUTO 26016G21KT 10SM CLR 34/03 A3011 RMK AO2,M
MEV,2023-07-17 23:55,-119.7500,38.9963,1441.42,91.40,48.20,22.78,280.00,13.00,0.00,30.06,M,10.00,M,CLR,M,M,M,M,M,M,M,M,M,M,M,M,M,M,88.09,KMEV 172355Z AUTO 28013KT 10SM CLR 33/09 A3006 RMK AO2,M
BAM,2023-07-17 23:55,-116.8743,40.5990,1382.36,95.00,35.60,12.53,240.00,6.00,0.00,30.03,M,10.00,M,CLR,M,M,M,M,M,M,M,M,M,M,M,M,M,M,90.25,KBAM 172355Z AUTO 24006KT 10SM CLR 35/02 A3003 RMK AO1,M
HTH,2023-07-17 23:55,-118.6315,38.5448,1282.89,93.20,42.80,17.55,240.00,24.00,0.00,30.06,M,6.00,35.00,FEW,SCT,BKN,M,5000.00,8500.00,12000.00,M,HZ,M,M,M,M,M,M,89.17,KHTH 172355Z AUTO 24024G35KT 6SM HZ FEW050 SCT085 BKN120 34/06 A3006 RMK A01,M
TMT,2023-07-17 23:55,-117.1971,39.4643,1749.34,90.30,40.30,17.45,70.00,7.00,0.00,30.13,M,10.00,M,CLR,M,M,M,M,M,M,M,M,M,M,M,M,M,M,86.39,KTMT 172355Z AUTO 07007KT 10SM CLR 32/05 A3013 RMK AO2 T03240046 10356 20303,M
LSV,2023-07-17 23:55,-115.0343,36.2362,570.00,106.00,47.00,13.98,100.00,13.00,0.08,29.78,1005.30,10.00,M,FEW,SCT,SCT,M,14000.00,17000.00,20000.00,M,TS,M,M,M,39.00,110.00,2023-07-17 22:58,102.32,KLSV 172355Z AUTO 10013KT 10SM TS FEW140 SCT170 SCT200 41/08 A2978 RMK AO2 PK WND 11039/2258 DZB02E06RAB06E26 TSE15TSB49 SLP053 P0008 60008 T04120083 10461 20352 56010 $,M
EKO,2023-07-17 23:56,-115.7860,40.8242,1367.00,92.00,35.00,13.43,270.00,23.00,0.00,30.09,1012.40,10.00,33.00,CLR,M,M,M,M,M,M,M,M,M,M,M,35.00,270.00,2023-07-17 23:35,87.68,KEKO 172356Z AUTO 27023G33KT 10SM CLR 33/02 A3009 RMK AO2 PK WND 27035/2335 SLP124 T03330017 10344 20317 58017,M
WMC,2023-07-17 23:56,-117.8072,40.9019,1315.00,M,M,M,M,M,0.00,29.99,M,M,M,M,M,M,M,M,M,M,M,M,M,M,M,M,M,M,M,KWMC 172356Z AUTO A2999 RMK AO2 SLPNO 58015 PWINO FZRANO $,M
NFL,2023-07-17 23:56,-118.7010,39.4166,1199.00,91.00,52.00,26.57,100.00,9.00,T,29.97,1012.10,9.00,19.00,SCT,BKN,BKN,BKN,7000.00,10000.00,15000.00,18000.00,-RA,M,M,M,32.00,140.00,2023-07-17 23:30,88.35,KNFL 172356Z 10009G19KT 9SM -RA SCT070 BKN100 BKN150 BKN180 33/11 A2997 RMK AO2 PK WND 14032/2330 RAB54 TSE32 SLP121 CB DSNT SW-S-E-NE MOV NE P0000 60000 T03280111 10389 20328 56015,M
HND,2023-07-17 23:56,-115.1344,35.9729,742.79,111.00,52.00,14.55,290.00,12.00,0.00,29.87,1008.80,10.00,M,CLR,M,M,M,M,M,M,M,VCTS,M,M,M,M,M,M,108.93,KHND 172356Z 29012KT 10SM VCTS CLR 44/11 A2987 RMK AO2 LTG DSNT NE TSE07B17 SLP088 T04390111 10450 20406 56016,M
TPH,2023-07-17 23:56,-117.0904,38.0505,1654.00,94.00,38.00,14.21,180.00,8.00,0.00,30.12,1010.40,10.00,M,CLR,M,M,M,M,M,M,M,M,M,M,M,M,M,M,89.58,KTPH 172356Z AUTO 18008KT 10SM CLR 34/03 A3012 RMK AO2 SLP104 T03440033 10378 20339 56008,M
LAS,2023-07-17 23:56,-115.1634,36.0719,663.00,107.00,53.00,16.97,90.00,15.00,0.00,29.83,1006.40,10.00,19.00,FEW,SCT,BKN,M,12000.00,16000.00,25000.00,M,TS,M,M,M,30.00,110.00,2023-07-17 22:57,105.26,KLAS 172356Z 09015G19KT 10SM TS FEW120CB SCT160 BKN250 42/12 A2983 RMK AO2 PK WND 11030/2257 LTG DSNT NE-S SLP064 OCNL LTGICCG NE-S TS NE-S MOV NE VCSH NE-E T04170117 10456 20411 56013,M
