station,valid,lon,lat,elevation,tmpf,dwpf,relh,drct,sknt,p01i,alti,mslp,vsby,gust,skyc1,skyc2,skyc3,skyc4,skyl1,skyl2,skyl3,skyl4,wxcodes,ice_accretion_1hr,ice_accretion_3hr,ice_accretion_6hr,peak_wind_gust,peak_wind_drct,peak_wind_time,feel,metar,snowdepth
05U,2023-07-24 00:10,-116.0051,39.6042,1811.23,M,M,M,M,M,0.00,30.17,M,10.00,M,M,M,M,M,M,M,M,M,M,M,M,M,M,M,M,M,K05U 240010Z AUTO 10SM A3017 RMK A01,M
BVU,2023-07-24 00:15,-114.8611,35.9475,671.00,109.40,48.20,13.24,150.00,17.00,0.00,29.83,M,10.00,24.00,CLR,M,M,M,M,M,M,M,M,M,M,M,M,M,M,105.97,KBVU 240015Z AUTO 15017G24KT 10SM CLR 43/09 A2983 RMK AO2,M
CXP,2023-07-24 00:15,-119.7326,39.1923,1431.00,91.40,41.00,17.32,260.00,9.00,0.00,30.07,M,10.00,18.00,CLR,M,M,M,M,M,M,M,M,M,M,M,M,M,M,87.40,KCXP 240015Z AUTO 26009G18KT 10SM CLR 33/05 A3007 RMK AO2,M
RTS,2023-07-24 00:15,-119.8764,39.6682,1539.00,91.40,33.80,13.05,250.00,17.00,0.00,30.10,M,10.00,24.00,CLR,M,M,M,M,M,M,M,M,M,M,M,M,M,M,87.13,KRTS 240015Z AUTO 25017G24KT 10SM CLR 33/01 A3010 RMK AO2,M
MEV,2023-07-24 00:15,-119.7500,38.9963,1441.42,91.40,42.80,18.56,220.00,9.00,0.00,30.07,M,10.00,M,CLR,M,M,M,M,M,M,M,M,M,M,M,M,M,M,87.52,KMEV 240015Z AUTO 22009KT 180V250 10SM CLR 33/06 A3007 RMK AO2,M
HTH,2023-07-24 00:15,-118.6315,38.5448,1282.89,96.80,30.20,9.55,240.00,12.00,0.00,30.00,M,10.00,17.00,CLR,M,M,M,M,M,M,M,M,M,M,M,M,M,M,90.96,KHTH 240015Z AUTO 24012G17KT 10SM CLR 36/M01 A3000 RMK A01,M
10U,2023-07-24 00:15,-116.1876,41.9532,1637.00,96.80,28.40,8.87,240.00,10.00,0.00,30.08,M,10.00,16.00,CLR,M,M,M,M,M,M,M,M,M,M,M,M,M,M,90.75,K10U 240015Z AUTO 24010G16KT 10SM CLR 36/M02 A3008 RMK AO2,M
BAM,2023-07-24 00:15,-116.8743,40.5990,1382.36,98.60,32.00,9.72,280.00,8.00,0.00,30.01,M,10.00,M,CLR,M,M,M,M,M,M,M,M,M,M,M,M,M,M,92.69,KBAM 240015Z AUTO 28008KT 10SM CLR 37/00 A3001 RMK AO1,M
TMT,2023-07-24 00:15,-117.1971,39.4643,1749.34,87.00,44.80,23.02,0.00,0.00,0.00,30.15,M,M,M,CLR,M,M,M,M,M,M,M,M,M,M,M,M,M,M,83.88,KTMT 240015Z AUTO 00000KT CLR 31/07 A3015 RMK AO2 T03060071 PWINO,M
05U,2023-07-24 00:30,-116.0051,39.6042,1811.23,91.40,37.40,15.05,M,M,0.00,30.18,M,10.00,M,M,M,M,M,M,M,M,M,M,M,M,M,M,M,M,87.23,K05U 240030Z AUTO 10SM 33/03 A3018 RMK A01,M
BVU,2023-07-24 00:35,-114.8611,35.9475,671.00,107.60,48.20,13.95,170.00,14.00,0.00,29.83,M,10.00,23.00,CLR,M,M,M,M,M,M,M,M,M,M,M,M,M,M,104.23,KBVU 240035Z AUTO 17014G23KT 10SM CLR 42/09 A2983 RMK AO2,M
CXP,2023-07-24 00:35,-119.7326,39.1923,1431.00,91.40,42.80,18.56,240.00,7.00,0.00,30.08,M,10.00,20.00,CLR,M,M,M,M,M,M,M,M,M,M,M,M,M,M,87.52,KCXP 240035Z AUTO 24007G20KT 210V270 10SM CLR 33/06 A3008 RMK AO2,M
RTS,2023-07-24 00:35,-119.8764,39.6682,1539.00,89.60,32.00,12.84,260.00,15.00,0.00,30.10,M,10.00,20.00,CLR,M,M,M,M,M,M,M,M,M,M,M,M,M,M,85.54,KRTS 240035Z AUTO 26015G20KT 10SM CLR 32/00 A3010 RMK AO2,M
MEV,2023-07-24 00:35,-119.7500,38.9963,1441.42,89.60,44.60,21.04,240.00,6.00,0.00,30.07,M,10.00,11.00,CLR,M,M,M,M,M,M,M,M,M,M,M,M,M,M,86.07,KMEV 240035Z AUTO 24006G11KT 10SM CLR 32/07 A3007 RMK AO2,M
HTH,2023-07-24 00:35,-118.6315,38.5448,1282.89,95.00,32.00,10.85,210.00,15.00,0.00,30.01,M,10.00,M,CLR,M,M,M,M,M,M,M,M,M,M,M,M,M,M,89.71,KHTH 240035Z AUTO 21015KT 10SM CLR 35/00 A3001 RMK A01,M
TMT,2023-07-24 00:35,-117.1971,39.4643,1749.34,84.40,49.60,29.98,150.00,3.00,0.00,30.16,M,M,M,CLR,M,M,M,M,M,M,M,M,M,M,M,M,M,M,82.34,KTMT 240035Z AUTO 15003KT CLR 29/10 A3016 RMK AO2 T02910098 PWINO,M
10U,2023-07-24 00:35,-116.1876,41.9532,1637.00,95.00,26.60,8.71,250.00,11.00,0.00,30.09,M,10.00,18.00,CLR,M,M,M,M,M,M,M,M,M,M,M,M,M,M,89.08,K10U 240035Z AUTO 25011G18KT 10SM CLR 35/M03 A3009 RMK AO2,M
BAM,2023-07-24 00:35,-116.8743,40.5990,1382.36,98.60,33.80,10.45,250.00,6.00,0.00,30.01,M,10.00,M,CLR,M,M,M,M,M,M,M,M,M,M,M,M,M,M,92.94,KBAM 240035Z AUTO 25006KT 10SM CLR 37/01 A3001 RMK AO1,M
05U,2023-07-24 00:50,-116.0051,39.6042,1811.23,91.40,37.40,15.05,M,M,0.00,30.17,M,10.00,M,M,M,M,M,M,M,M,M,M,M,M,M,M,M,M,87.23,K05U 240050Z AUTO 10SM 33/03 A3017 RMK A01,M
P68,2023-07-24 00:53,-116.0056,39.6014,1993.00,90.00,37.00,15.48,260.00,9.00,0.00,30.15,1011.50,M,M,M,M,M,M,M,M,M,M,M,M,M,M,M,M,M,86.00,KP68 240053Z AUTO 26009KT 32/03 A3015 RMK AO1 SLP115 T03220028,M
DRA,2023-07-24 00:53,-116.0278,36.6206,1009.00,102.00,43.00,13.52,240.00,16.00,0.00,29.94,1007.40,10.00,30.00,CLR,M,M,M,M,M,M,M,M,M,M,M,30.00,250.00,2023-07-24 00:50,97.60,KDRA 240053Z AUTO 24016G30KT 10SM CLR 39/06 A2994 RMK AO2 PK WND 25030/0050 SLP074 T03890061,M
ELY,2023-07-24 00:53,-114.8453,39.2950,1909.00,89.00,39.00,17.28,150.00,9.00,0.00,30.20,1011.30,10.00,M,CLR,M,M,M,M,M,M,M,M,M,M,M,M,M,M,85.21,KELY 240053Z AUTO 15009KT 10SM CLR 32/04 A3020 RMK AO2 SLP113 T03170039,M
VGT,2023-07-24 00:53,-115.1933,36.2111,667.00,110.00,49.00,13.40,210.00,11.00,0.00,29.83,1008.10,10.00,M,CLR,M,M,M,M,M,M,M,M,M,M,M,M,M,M,106.81,KVGT 240053Z 21011KT 10SM CLR 43/09 A2983 RMK AO2 SLP081 T04330094,M
LOL,2023-07-24 00:53,-118.5701,40.0684,1192.43,97.00,34.00,11.06,170.00,7.00,0.00,29.94,1009.30,10.00,M,CLR,M,M,M,M,M,M,M,M,M,M,M,M,M,M,91.64,KLOL 240053Z AUTO 17007KT 10SM CLR 36/01 A2994 RMK AO2 SLP093 T03610011,M
BVU,2023-07-24 00:55,-114.8611,35.9475,671.00,107.60,48.20,13.95,150.00,16.00,0.00,29.83,M,10.00,M,CLR,M,M,M,M,M,M,M,M,M,M,M,M,M,M,104.23,KBVU 240055Z AUTO 15016KT 10SM CLR 42/09 A2983 RMK AO2,M
CXP,2023-07-24 00:55,-119.7326,39.1923,1431.00,91.40,39.20,16.15,240.00,10.00,0.00,30.09,M,10.00,15.00,CLR,M,M,M,M,M,M,M,M,M,M,M,M,M,M,87.30,KCXP 240055Z AUTO 24010G15KT 200V260 10SM CLR 33/04 A3009 RMK AO2,M
INS,2023-07-24 00:55,-115.6733,36.5872,955.00,103.00,38.30,10.94,220.00,17.00,0.00,29.91,1007.10,10.00,24.00,FEW,SCT,M,M,13000.00,19000.00,M,M,M,M,M,M,M,M,M,97.50,KINS 240055Z AUTO 22017G24KT 10SM FEW130 SCT190 40/04 A2991 RMK AO2 SLP071 T03950035 $,M
RNO,2023-07-24 00:55,-119.7711,39.4839,1341.00,96.00,35.00,11.87,250.00,13.00,0.00,30.03,1010.30,10.00,M,SCT,BKN,BKN,M,10000.00,15000.00,21000.00,M,M,M,M,M,M,M,M,90.97,KRNO 240055Z 25013KT 10SM SCT100 BKN150 BKN210 36/02 A3003 RMK AO2 SLP103 ACSL DSNT ALQDS T03560017,M
LSV,2023-07-24 00:55,-115.0343,36.2362,570.00,110.30,46.00,11.87,200.00,12.00,0.00,29.77,1004.90,10.00,M,CLR,M,M,M,M,M,M,M,M,M,M,M,M,M,M,106.05,KLSV 240055Z AUTO 20012KT 10SM CLR 44/08 A2977 RMK AO2 SLP049 T04350078 $,M
RTS,2023-07-24 00:55,-119.8764,39.6682,1539.00,89.60,33.80,13.80,240.00,15.00,0.00,30.11,M,10.00,M,CLR,M,M,M,M,M,M,M,M,M,M,M,M,M,M,85.59,KRTS 240055Z AUTO 24015KT 10SM CLR 32/01 A3011 RMK AO2,M
MEV,2023-07-24 00:55,-119.7500,38.9963,1441.42,89.60,41.00,18.33,210.00,7.00,0.00,30.08,M,10.00,M,CLR,M,M,M,M,M,M,M,M,M,M,M,M,M,M,85.82,KMEV 240055Z AUTO 21007KT 10SM CLR 32/05 A3008 RMK AO2,M
HTH,2023-07-24 00:55,-118.6315,38.5448,1282.89,93.20,35.60,13.25,240.00,23.00,0.00,30.03,M,10.00,33.00,FEW,FEW,M,M,8500.00,12000.00,M,M,M,M,M,M,M,M,M,88.76,KHTH 240055Z AUTO 24023G33KT 10SM FEW085 FEW120 34/02 A3003 RMK A01,M
TMT,2023-07-24 00:55,-117.1971,39.4643,1749.34,86.00,40.00,19.76,290.00,3.00,0.00,30.15,M,M,18.00,SCT,M,M,M,11000.00,M,M,M,M,M,M,M,M,M,M,82.82,KTMT 240055Z AUTO 29003G18KT SCT110 30/04 A3015 RMK AO2 T02990044 PWINO,M
BAM,2023-07-24 00:55,-116.8743,40.5990,1382.36,98.60,33.80,10.45,220.00,5.00,0.00,30.01,M,10.00,M,CLR,M,M,M,M,M,M,M,M,M,M,M,M,M,M,92.94,KBAM 240055Z AUTO 22005KT 10SM CLR 37/01 A3001 RMK AO1,M
10U,2023-07-24 00:55,-116.1876,41.9532,1637.00,93.20,28.40,9.91,270.00,17.00,0.00,30.09,M,10.00,25.00,CLR,M,M,M,M,M,M,M,M,M,M,M,M,M,M,87.89,K10U 240055Z AUTO 27017G25KT 10SM CLR 34/M02 A3009 RMK AO2,M
EKO,2023-07-24 00:56,-115.7860,40.8242,1367.00,87.00,51.00,29.06,110.00,6.00,T,30.08,1012.40,10.00,M,CLR,M,M,M,M,M,M,M,M,M,M,M,M,M,M,84.58,KEKO 240056Z AUTO 11006KT 10SM CLR 31/11 A3008 RMK AO2 RAE14 SLP124 P0000 T03060106,M
WMC,2023-07-24 00:56,-117.8072,40.9019,1315.00,100.00,26.00,7.29,260.00,15.00,0.00,29.97,1009.30,10.00,21.00,CLR,M,M,M,M,M,M,M,M,M,M,M,M,M,M,93.18,KWMC 240056Z AUTO 26015G21KT 10SM CLR 38/M03 A2997 RMK AO2 SLP093 T03781033,M
NFL,2023-07-24 00:56,-118.7010,39.4166,1199.00,100.00,32.00,9.32,270.00,3.00,0.00,29.95,1011.50,10.00,M,CLR,M,M,M,M,M,M,M,M,M,M,M,M,M,M,93.87,KNFL 240056Z AUTO 27003KT 10SM CLR 38/00 A2995 RMK AO2 SLP115 T03780000,M
HND,2023-07-24 00:56,-115.1344,35.9729,742.79,106.00,52.00,16.84,190.00,17.00,0.00,29.89,1009.60,10.00,20.00,CLR,M,M,M,M,M,M,M,M,M,M,M,M,M,M,103.85,KHND 240056Z 19017G20KT 10SM CLR 41/11 A2989 RMK AO2 SLP096 T04110111,M
TPH,2023-07-24 00:56,-117.0904,38.0505,1654.00,93.00,46.00,19.95,220.00,16.00,0.00,30.12,1011.00,10.00,27.00,CLR,M,M,M,M,M,M,M,M,M,M,M,27.00,220.00,2023-07-24 00:48,89.31,KTPH 240056Z AUTO 22016G27KT 10SM CLR 34/08 A3012 RMK AO2 PK WND 22027/0048 SLP110 T03390078 $,M
LAS,2023-07-24 00:56,-115.1634,36.0719,663.00,107.00,48.00,14.09,240.00,9.00,0.00,29.84,1006.90,10.00,18.00,FEW,SCT,BKN,M,7000.00,10000.00,20000.00,M,M,M,M,M,M,M,M,103.58,KLAS 240056Z 24009G18KT 10SM FEW070 SCT100 BKN200 42/09 A2984 RMK AO2 SLP069 T04170089,M
05U,2023-07-24 01:10,-116.0051,39.6042,1811.23,91.40,37.40,15.05,M,M,0.00,30.17,M,10.00,M,M,M,M,M,M,M,M,M,M,M,M,M,M,M,M,87.23,K05U 240110Z AUTO 10SM 33/03 A3017 RMK A01,M
BVU,2023-07-24 01:15,-114.8611,35.9475,671.00,107.60,48.20,13.95,150.00,18.00,0.00,29.84,M,10.00,24.00,CLR,M,M,M,M,M,M,M,M,M,M,M,M,M,M,104.23,KBVU 240115Z AUTO 15018G24KT 10SM CLR 42/09 A2984 RMK AO2,M
CXP,2023-07-24 01:15,-119.7326,39.1923,1431.00,89.60,42.80,19.64,M,5.00,0.00,30.09,M,10.00,13.00,CLR,M,M,M,M,M,M,M,M,M,M,M,M,M,M,85.93,KCXP 240115Z AUTO VRB05G13KT 10SM CLR 32/06 A3009 RMK AO2,M
RTS,2023-07-24 01:15,-119.8764,39.6682,1539.00,87.80,33.80,14.61,250.00,12.00,0.00,30.11,M,10.00,18.00,CLR,M,M,M,M,M,M,M,M,M,M,M,M,M,M,84.10,KRTS 240115Z AUTO 25012G18KT 10SM CLR 31/01 A3011 RMK AO2,M
MEV,2023-07-24 01:15,-119.7500,38.9963,1441.42,87.80,42.80,20.79,220.00,4.00,0.00,30.08,M,10.00,M,CLR,M,M,M,M,M,M,M,M,M,M,M,M,M,M,84.40,KMEV 240115Z AUTO 22004KT 10SM CLR 31/06 A3008 RMK AO2,M
HTH,2023-07-24 01:15,-118.6315,38.5448,1282.89,93.20,37.40,14.23,250.00,23.00,0.00,30.04,M,10.00,M,CLR,M,M,M,M,M,M,M,M,M,M,M,M,M,M,88.83,KHTH 240115Z AUTO 25023KT 10SM CLR 34/03 A3004 RMK A01,M
TMT,2023-07-24 01:15,-117.1971,39.4643,1749.34,85.50,41.00,20.87,290.00,7.00,0.00,30.15,M,M,M,BKN,M,M,M,11000.00,M,M,M,M,M,M,M,M,M,M,82.48,KTMT 240115Z AUTO 29007KT BKN110 30/05 A3015 RMK AO2 T02970051 PWINO,M
10U,2023-07-24 01:15,-116.1876,41.9532,1637.00,91.40,28.40,10.48,270.00,14.00,0.00,30.10,M,10.00,M,CLR,M,M,M,M,M,M,M,M,M,M,M,M,M,M,86.53,K10U 240115Z AUTO 27014KT 10SM CLR 33/M02 A3010 RMK AO2,M
BAM,2023-07-24 01:15,-116.8743,40.5990,1382.36,96.80,32.00,10.27,240.00,9.00,0.00,30.02,M,10.00,14.00,CLR,M,M,M,M,M,M,M,M,M,M,M,M,M,M,91.19,KBAM 240115Z AUTO 24009G14KT 10SM CLR 36/00 A3002 RMK AO1,M
LSV,2023-07-24 01:18,-115.0343,36.2362,570.00,109.40,48.20,13.24,150.00,13.00,0.00,29.78,1005.20,10.00,M,CLR,M,M,M,M,M,M,M,M,M,M,M,M,M,M,105.97,KLSV 240118Z AUTO 15013KT 10SM CLR 43/09 A2978 RMK AO2 WSHFT 11 SLP052 $,M
WMC,2023-07-24 01:19,-117.8072,40.9019,1315.00,97.00,29.00,9.04,250.00,9.00,0.00,29.98,M,8.00,37.00,CLR,M,M,M,M,M,M,M,M,M,M,M,37.00,170.00,2023-07-24 01:11,90.98,KWMC 240119Z AUTO 25009G37KT 200V300 8SM CLR 36/M02 A2998 RMK AO2 PK WND 17037/0111 WSHFT 0059 T03611017,M
05U,2023-07-24 01:30,-116.0051,39.6042,1811.23,89.60,35.60,14.83,M,M,0.00,30.18,M,10.00,M,M,M,M,M,M,M,M,M,M,M,M,M,M,M,M,85.62,K05U 240130Z AUTO 10SM 32/02 A3018 RMK A01,M
BVU,2023-07-24 01:35,-114.8611,35.9475,671.00,105.80,48.20,14.71,160.00,15.00,0.00,29.86,M,10.00,23.00,CLR,M,M,M,M,M,M,M,M,M,M,M,M,M,M,102.45,KBVU 240135Z AUTO 16015G23KT 10SM CLR 41/09 A2986 RMK AO2,M
CXP,2023-07-24 01:35,-119.7326,39.1923,1431.00,89.60,41.00,18.33,M,6.00,0.00,30.09,M,10.00,M,CLR,M,M,M,M,M,M,M,M,M,M,M,M,M,M,85.82,KCXP 240135Z AUTO VRB06KT 10SM CLR 32/05 A3009 RMK AO2,M
RTS,2023-07-24 01:35,-119.8764,39.6682,1539.00,86.00,35.60,16.63,240.00,9.00,0.00,30.11,M,10.00,17.00,CLR,M,M,M,M,M,M,M,M,M,M,M,M,M,M,82.69,KRTS 240135Z AUTO 24009G17KT 10SM CLR 30/02 A3011 RMK AO2,M
MEV,2023-07-24 01:35,-119.7500,38.9963,1441.42,87.80,41.00,19.40,210.00,8.00,0.00,30.08,M,10.00,M,CLR,M,M,M,M,M,M,M,M,M,M,M,M,M,M,84.30,KMEV 240135Z AUTO 21008KT 10SM CLR 31/05 A3008 RMK AO2,M
HTH,2023-07-24 01:35,-118.6315,38.5448,1282.89,91.40,37.40,15.05,270.00,17.00,0.00,30.04,M,10.00,26.00,CLR,M,M,M,M,M,M,M,M,M,M,M,M,M,M,87.23,KHTH 240135Z AUTO 27017G26KT 10SM CLR 33/03 A3004 RMK A01,M
TMT,2023-07-24 01:35,-117.1971,39.4643,1749.34,85.60,41.00,20.81,180.00,9.00,0.00,30.15,M,M,M,SCT,SCT,BKN,M,4100.00,7000.00,12000.00,M,M,M,M,M,M,M,M,82.55,KTMT 240135Z AUTO 18009KT 140V210 SCT041 SCT070 BKN120 30/05 A3015 RMK AO2 T02980050 PWINO,M
10U,2023-07-24 01:35,-116.1876,41.9532,1637.00,89.60,30.20,11.94,270.00,9.00,0.00,30.10,M,10.00,23.00,CLR,M,M,M,M,M,M,M,M,M,M,M,M,M,M,85.34,K10U 240135Z AUTO 27009G23KT 10SM CLR 32/M01 A3010 RMK AO2,M
BAM,2023-07-24 01:35,-116.8743,40.5990,1382.36,96.80,33.80,11.04,190.00,14.00,0.00,30.04,M,10.00,31.00,SCT,M,M,M,12000.00,M,M,M,M,M,M,M,M,M,M,91.44,KBAM 240135Z AUTO 19014G31KT 10SM SCT120 36/01 A3004 RMK AO1,M
05U,2023-07-24 01:50,-116.0051,39.6042,1811.23,87.80,37.40,16.86,M,M,0.00,30.18,M,10.00,M,M,M,M,M,M,M,M,M,M,M,M,M,M,M,M,84.16,K05U 240150Z AUTO 10SM 31/03 A3018 RMK A01,M
ELY,2023-07-24 01:51,-114.8453,39.2950,1909.00,86.00,35.60,16.63,240.00,16.00,0.00,30.22,M,10.00,26.00,CLR,M,M,M,M,M,M,M,M,M,M,M,26.00,240.00,2023-07-24 01:50,82.69,KELY 240151Z AUTO 24016G26KT 10SM CLR 30/02 A3022 RMK AO2 PK WND 24026/0150 WSHFT 0131,M
P68,2023-07-24 01:53,-116.0056,39.6014,1993.00,88.00,36.00,15.85,290.00,8.00,0.00,30.16,1011.70,M,19.00,M,M,M,M,M,M,M,M,M,M,M,M,M,M,M,84.29,KP68 240153Z AUTO 29008G19KT 31/02 A3016 RMK AO1 SLP117 T03110022,M
DRA,2023-07-24 01:53,-116.0278,36.6206,1009.00,100.00,43.00,14.36,240.00,17.00,0.00,29.95,1007.90,10.00,28.00,CLR,M,M,M,M,M,M,M,M,M,M,M,29.00,220.00,2023-07-24 01:42,95.68,KDRA 240153Z AUTO 24017G28KT 10SM CLR 38/06 A2995 RMK AO2 PK WND 22029/0142 SLP079 T03780061,M
ELY,2023-07-24 01:53,-114.8453,39.2950,1909.00,86.00,36.00,16.89,250.00,14.00,0.00,30.22,1011.90,10.00,26.00,CLR,M,M,M,M,M,M,M,M,M,M,M,26.00,240.00,2023-07-24 01:50,82.70,KELY 240153Z AUTO 25014G26KT 10SM CLR 30/02 A3022 RMK AO2 PK WND 24026/0150 WSHFT 0131 SLP119 T03000022,M
VGT,2023-07-24 01:53,-115.1933,36.2111,667.00,108.00,49.00,14.21,180.00,8.00,0.00,29.85,1008.90,10.00,M,CLR,M,M,M,M,M,M,M,M,M,M,M,M,M,M,104.87,KVGT 240153Z 18008KT 10SM CLR 42/09 A2985 RMK AO2 SLP089 T04220094,M
LOL,2023-07-24 01:53,-118.5701,40.0684,1192.43,98.00,33.00,10.31,190.00,11.00,0.00,29.94,1008.90,10.00,M,CLR,M,M,M,M,M,M,M,M,M,M,M,M,M,M,92.32,KLOL 240153Z AUTO 19011KT 10SM CLR 37/01 A2994 RMK AO2 SLP089 T03670006,M
BVU,2023-07-24 01:55,-114.8611,35.9475,671.00,105.80,48.20,14.71,160.00,20.00,0.00,29.87,M,10.00,M,CLR,M,M,M,M,M,M,M,M,M,M,M,M,M,M,102.45,KBVU 240155Z AUTO 16020KT 10SM CLR 41/09 A2987 RMK AO2,M
CXP,2023-07-24 01:55,-119.7326,39.1923,1431.00,89.60,41.00,18.33,M,5.00,0.00,30.09,M,10.00,10.00,CLR,M,M,M,M,M,M,M,M,M,M,M,M,M,M,85.82,KCXP 240155Z AUTO VRB05G10KT 10SM CLR 32/05 A3009 RMK AO2,M
INS,2023-07-24 01:55,-115.6733,36.5872,955.00,101.30,37.00,10.94,200.00,15.00,0.00,29.92,1007.40,10.00,M,BKN,BKN,M,M,13000.00,15000.00,M,M,M,M,M,M,M,M,M,95.77,KINS 240155Z AUTO 20015KT 10SM BKN130 BKN150 39/03 A2992 RMK AO2 SLP074 T03850028 $,M
RNO,2023-07-24 01:55,-119.7711,39.4839,1341.00,93.00,39.00,15.24,300.00,7.00,0.00,30.04,1011.00,10.00,M,SCT,BKN,BKN,M,11000.00,15000.00,21000.00,M,M,M,M,M,M,M,M,88.73,KRNO 240155Z 30007KT 10SM SCT110 BKN150 BKN210 34/04 A3004 RMK AO2 SLP110 ACSL DSNT ALQDS T03390039,M
LSV,2023-07-24 01:55,-115.0343,36.2362,570.00,107.40,48.00,13.93,170.00,12.00,0.00,29.80,1006.00,10.00,M,CLR,M,M,M,M,M,M,M,M,M,M,M,M,M,M,103.97,KLSV 240155Z AUTO 17012KT 10SM CLR 42/09 A2980 RMK AO2 SLP060 T04190089 $,M
RTS,2023-07-24 01:55,-119.8764,39.6682,1539.00,86.00,35.60,16.63,250.00,8.00,0.00,30.12,M,10.00,14.00,CLR,M,M,M,M,M,M,M,M,M,M,M,M,M,M,82.69,KRTS 240155Z AUTO 25008G14KT 10SM CLR 30/02 A3012 RMK AO2,M
MEV,2023-07-24 01:55,-119.7500,38.9963,1441.42,86.00,42.80,22.02,210.00,7.00,0.00,30.08,M,10.00,M,CLR,M,M,M,M,M,M,M,M,M,M,M,M,M,M,82.95,KMEV 240155Z AUTO 21007KT 10SM CLR 30/06 A3008 RMK AO2,M
HTH,2023-07-24 01:55,-118.6315,38.5448,1282.89,91.40,37.40,15.05,250.00,11.00,0.00,30.05,M,10.00,M,CLR,M,M,M,M,M,M,M,M,M,M,M,M,M,M,87.23,KHTH 240155Z AUTO 25011KT 10SM CLR 33/03 A3005 RMK A01,M
TMT,2023-07-24 01:55,-117.1971,39.4643,1749.34,86.00,40.30,19.99,230.00,17.00,0.00,30.16,M,M,26.00,SCT,M,M,M,11000.00,M,M,M,M,M,M,M,M,M,M,82.83,KTMT 240155Z AUTO 23017G26KT SCT110 30/05 A3016 RMK AO2 T02990046 PWINO,M
BAM,2023-07-24 01:55,-116.8743,40.5990,1382.36,96.80,32.00,10.27,110.00,5.00,0.00,30.03,M,10.00,M,CLR,M,M,M,M,M,M,M,M,M,M,M,M,M,M,91.19,KBAM 240155Z AUTO 11005KT 10SM CLR 36/00 A3003 RMK AO1,M
10U,2023-07-24 01:55,-116.1876,41.9532,1637.00,89.60,30.20,11.94,260.00,7.00,0.00,30.09,M,10.00,M,CLR,M,M,M,M,M,M,M,M,M,M,M,M,M,M,85.34,K10U 240155Z AUTO 26007KT 10SM CLR 32/M01 A3009 RMK AO2,M
EKO,2023-07-24 01:56,-115.7860,40.8242,1367.00,87.00,45.00,23.20,120.00,7.00,0.00,30.08,1012.50,10.00,M,CLR,M,M,M,M,M,M,M,M,M,M,M,M,M,M,83.90,KEKO 240156Z AUTO 12007KT 10SM CLR 31/07 A3008 RMK AO2 SLP125 T03060072,M
WMC,2023-07-24 01:56,-117.8072,40.9019,1315.00,95.00,30.00,10.01,280.00,12.00,0.00,29.99,1009.70,6.00,29.00,CLR,M,M,M,M,M,M,M,HZ,M,M,M,37.00,170.00,2023-07-24 01:11,89.45,KWMC 240156Z AUTO 28012G29KT 6SM HZ CLR 35/M01 A2999 RMK AO2 PK WND 17037/0111 WSHFT 0059 SLP097 T03501011,M
NFL,2023-07-24 01:56,-118.7010,39.4166,1199.00,98.00,32.00,9.90,270.00,9.00,0.00,29.97,1011.90,10.00,16.00,CLR,M,M,M,M,M,M,M,M,M,M,M,M,M,M,92.19,KNFL 240156Z AUTO 27009G16KT 10SM CLR 37/00 A2997 RMK AO2 SLP119 T03670000,M
HND,2023-07-24 01:56,-115.1344,35.9729,742.79,104.00,52.00,17.87,230.00,8.00,0.00,29.92,1010.70,10.00,M,CLR,M,M,M,M,M,M,M,M,M,M,M,M,M,M,101.76,KHND 240156Z 23008KT 10SM CLR 40/11 A2992 RMK AO2 SLP107 T04000111,M
TPH,2023-07-24 01:56,-117.0904,38.0505,1654.00,91.00,45.00,20.45,240.00,13.00,0.00,30.13,1011.20,10.00,M,CLR,M,M,M,M,M,M,M,M,M,M,M,26.00,240.00,2023-07-24 01:25,87.35,KTPH 240156Z AUTO 24013KT 10SM CLR 33/07 A3013 RMK AO2 PK WND 24026/0125 SLP112 T03280072 $,M
LAS,2023-07-24 01:56,-115.1634,36.0719,663.00,106.00,49.00,15.07,220.00,8.00,0.00,29.86,1007.70,10.00,M,FEW,SCT,BKN,M,7000.00,10000.00,20000.00,M,M,M,M,M,M,M,M,102.88,KLAS 240156Z 22008KT 10SM FEW070 SCT100 BKN200 41/09 A2986 RMK AO2 SLP077 T04110094,M
ELY,2023-07-24 02:00,-114.8453,39.2950,1909.00,85.00,37.00,18.14,260.00,12.00,0.00,30.22,M,10.00,21.00,CLR,M,M,M,M,M,M,M,M,M,M,M,M,M,M,81.96,KELY 240200Z AUTO 26012G21KT 10SM CLR 29/03 A3022 RMK AO2 WSHFT 0140 T02940028,M
05U,2023-07-24 02:10,-116.0051,39.6042,1811.23,87.80,37.40,16.86,M,M,0.00,30.20,M,10.00,M,M,M,M,M,M,M,M,M,M,M,M,M,M,M,M,84.16,K05U 240210Z AUTO 10SM 31/03 A3020 RMK A01,M
LOL,2023-07-24 02:12,-118.5701,40.0684,1192.43,97.00,31.00,9.80,270.00,15.00,0.00,29.94,M,10.00,M,CLR,M,M,M,M,M,M,M,M,M,M,M,M,M,M,91.22,KLOL 240212Z AUTO 27015KT 10SM CLR 36/M01 A2994 RMK AO2 WSHFT 0152 T03611006,M
BVU,2023-07-24 02:15,-114.8611,35.9475,671.00,104.00,48.20,15.52,150.00,15.00,0.00,29.88,M,10.00,23.00,CLR,M,M,M,M,M,M,M,M,M,M,M,M,M,M,100.65,KBVU 240215Z AUTO 15015G23KT 10SM CLR 40/09 A2988 RMK AO2,M
CXP,2023-07-24 02:15,-119.7326,39.1923,1431.00,87.80,39.20,18.09,260.00,6.00,0.00,30.10,M,10.00,11.00,CLR,M,M,M,M,M,M,M,M,M,M,M,M,M,M,84.22,KCXP 240215Z AUTO 26006G11KT 10SM CLR 31/04 A3010 RMK AO2,M
RTS,2023-07-24 02:15,-119.8764,39.6682,1539.00,86.00,35.60,16.63,0.00,0.00,0.00,30.12,M,10.00,12.00,CLR,M,M,M,M,M,M,M,M,M,M,M,M,M,M,82.69,KRTS 240215Z AUTO 00000G12KT 10SM CLR 30/02 A3012 RMK AO2,M
MEV,2023-07-24 02:15,-119.7500,38.9963,1441.42,84.20,42.80,23.33,190.00,7.00,0.00,30.08,M,10.00,M,CLR,M,M,M,M,M,M,M,M,M,M,M,M,M,M,81.61,KMEV 240215Z AUTO 19007KT 10SM CLR 29/06 A3008 RMK AO2,M
HTH,2023-07-24 02:15,-118.6315,38.5448,1282.89,91.40,35.60,14.02,340.00,12.00,0.00,30.06,M,10.00,31.00,FEW,FEW,SCT,M,6500.00,7500.00,9000.00,M,M,M,M,M,M,M,M,87.17,KHTH 240215Z AUTO 34012G31KT 290V020 10SM FEW065 FEW075 SCT090 33/02 A3006 RMK A01,M
TMT,2023-07-24 02:15,-117.1971,39.4643,1749.34,86.00,38.00,18.28,250.00,11.00,0.00,30.16,M,M,26.00,SCT,M,M,M,11000.00,M,M,M,M,M,M,M,M,M,M,82.75,KTMT 240215Z AUTO 25011G26KT SCT110 30/03 A3016 RMK AO2 T03010033 PWINO,M
10U,2023-07-24 02:15,-116.1876,41.9532,1637.00,87.80,32.00,13.59,270.00,4.00,0.00,30.09,M,10.00,M,CLR,M,M,M,M,M,M,M,M,M,M,M,M,M,M,84.08,K10U 240215Z AUTO 27004KT 10SM CLR 31/M00 A3009 RMK AO2,M
BAM,2023-07-24 02:15,-116.8743,40.5990,1382.36,95.00,33.80,11.67,170.00,6.00,0.00,30.03,M,10.00,14.00,CLR,M,M,M,M,M,M,M,M,M,M,M,M,M,M,89.97,KBAM 240215Z AUTO 17006G14KT 10SM CLR 35/01 A3003 RMK AO1,M
05U,2023-07-24 02:30,-116.0051,39.6042,1811.23,86.00,37.40,17.85,M,M,0.00,30.20,M,10.00,M,M,M,M,M,M,M,M,M,M,M,M,M,M,M,M,82.73,K05U 240230Z AUTO 10SM 30/03 A3020 RMK A01,M
HND,2023-07-24 02:33,-115.1344,35.9729,742.79,100.40,60.80,27.37,210.00,25.00,T,29.93,M,9.00,29.00,SCT,M,M,M,12000.00,M,M,M,-TSRA,M,M,M,29.00,210.00,2023-07-24 02:31,101.47,KHND 240233Z 21025G29KT 9SM -TSRA SCT120 38/16 A2993 RMK AO2 PK WND 21029/0231 TSB27RAB30 P0000,M
BVU,2023-07-24 02:35,-114.8611,35.9475,671.00,104.00,48.20,15.52,150.00,16.00,0.00,29.88,M,10.00,21.00,CLR,M,M,M,M,M,M,M,M,M,M,M,M,M,M,100.65,KBVU 240235Z AUTO 15016G21KT 10SM CLR 40/09 A2988 RMK AO2,M
CXP,2023-07-24 02:35,-119.7326,39.1923,1431.00,86.00,39.20,19.15,260.00,5.00,0.00,30.10,M,10.00,12.00,CLR,M,M,M,M,M,M,M,M,M,M,M,M,M,M,82.79,KCXP 240235Z AUTO 26005G12KT 10SM CLR 30/04 A3010 RMK AO2,M
RTS,2023-07-24 02:35,-119.8764,39.6682,1539.00,84.20,35.60,17.61,0.00,0.00,0.00,30.12,M,10.00,M,CLR,M,M,M,M,M,M,M,M,M,M,M,M,M,M,81.34,KRTS 240235Z AUTO 00000KT 10SM CLR 29/02 A3012 RMK AO2,M
MEV,2023-07-24 02:35,-119.7500,38.9963,1441.42,82.40,42.80,24.72,210.00,11.00,0.00,30.09,M,10.00,M,CLR,M,M,M,M,M,M,M,M,M,M,M,M,M,M,80.39,KMEV 240235Z AUTO 21011KT 10SM CLR 28/06 A3009 RMK AO2,M
HTH,2023-07-24 02:35,-118.6315,38.5448,1282.89,91.40,35.60,14.02,260.00,7.00,0.00,30.05,M,10.00,16.00,SCT,BKN,BKN,M,6000.00,7500.00,8500.00,M,M,M,M,M,M,M,M,87.17,KHTH 240235Z AUTO 26007G16KT 210V020 10SM SCT060 BKN075 BKN085 33/02 A3005 RMK A01,M
TMT,2023-07-24 02:35,-117.1971,39.4643,1749.34,83.50,40.00,21.41,280.00,7.00,0.00,30.17,M,M,M,CLR,M,M,M,M,M,M,M,M,M,M,M,M,M,M,80.98,KTMT 240235Z AUTO 28007KT CLR 29/04 A3017 RMK AO2 T02860044 PWINO,M
10U,2023-07-24 02:35,-116.1876,41.9532,1637.00,86.00,32.00,14.40,0.00,0.00,0.00,30.09,M,10.00,M,CLR,M,M,M,M,M,M,M,M,M,M,M,M,M,M,82.64,K10U 240235Z AUTO 00000KT 10SM CLR 30/00 A3009 RMK AO2,M
BAM,2023-07-24 02:35,-116.8743,40.5990,1382.36,93.20,35.60,13.25,180.00,6.00,0.00,30.04,M,10.00,M,CLR,M,M,M,M,M,M,M,M,M,M,M,M,M,M,88.76,KBAM 240235Z AUTO 18006KT 10SM CLR 34/02 A3004 RMK AO1,M
LAS,2023-07-24 02:38,-115.1634,36.0719,663.00,105.00,49.00,15.52,200.00,8.00,0.00,29.88,M,10.00,15.00,FEW,SCT,BKN,M,7000.00,10000.00,20000.00,M,TS,M,M,M,M,M,M,101.87,KLAS 240238Z 20008G15KT 10SM TS FEW070CB SCT100 BKN200 41/09 A2988 RMK AO2 TSE27B32 OCNL LTGCC S TS VC S MOV NW T04060094,M
05U,2023-07-24 02:50,-116.0051,39.6042,1811.23,84.20,39.20,20.29,M,M,0.00,30.22,M,10.00,M,M,M,M,M,M,M,M,M,M,M,M,M,M,M,M,81.44,K05U 240250Z AUTO 10SM 29/04 A3022 RMK A01,M
P68,2023-07-24 02:53,-116.0056,39.6014,1993.00,84.00,39.00,20.27,190.00,8.00,0.00,30.19,1012.10,M,M,M,M,M,M,M,M,M,M,M,M,M,M,26.00,280.00,2023-07-24 02:03,81.29,KP68 240253Z AUTO 19008KT 29/04 A3019 RMK AO1 PK WND 28026/0203 SLP121 T02890039 53013,M
DRA,2023-07-24 02:53,-116.0278,36.6206,1009.00,97.00,43.00,15.73,240.00,16.00,0.00,29.98,1009.00,10.00,25.00,CLR,M,M,M,M,M,M,M,M,M,M,M,M,M,M,92.79,KDRA 240253Z AUTO 24016G25KT 10SM CLR 36/06 A2998 RMK AO2 SLP090 T03610061 53011,M
ELY,2023-07-24 02:53,-114.8453,39.2950,1909.00,82.00,41.00,23.37,260.00,10.00,0.00,30.23,1011.80,10.00,M,FEW,M,M,M,9500.00,M,M,M,M,M,M,M,27.00,260.00,2023-07-24 02:15,80.04,KELY 240253Z AUTO 26010KT 10SM FEW095 28/05 A3023 RMK AO2 PK WND 26027/0215 WSHFT 0140 SLP118 T02780050 51009,M
VGT,2023-07-24 02:53,-115.1933,36.2111,667.00,107.00,50.00,15.19,220.00,8.00,0.00,29.87,1009.60,10.00,M,CLR,M,M,M,M,M,M,M,M,M,M,M,M,M,M,104.19,KVGT 240253Z 22008KT 10SM CLR 42/10 A2987 RMK AO2 LTG DSNT S SLP096 T04170100 53014,M
LOL,2023-07-24 02:53,-118.5701,40.0684,1192.43,94.00,36.00,13.13,290.00,14.00,0.00,29.96,1009.60,10.00,M,CLR,M,M,M,M,M,M,M,M,M,M,M,38.00,290.00,2023-07-24 02:26,89.49,KLOL 240253Z AUTO 29014KT 10SM CLR 34/02 A2996 RMK AO2 PK WND 29038/0226 WSHFT 0152 SLP096 T03440022 53005,M
BVU,2023-07-24 02:55,-114.8611,35.9475,671.00,102.20,48.20,16.37,160.00,15.00,0.00,29.89,M,10.00,M,CLR,M,M,M,M,M,M,M,M,M,M,M,M,M,M,98.83,KBVU 240255Z AUTO 16015KT 10SM CLR 39/09 A2989 RMK AO2 LTG DSNT W,M
CXP,2023-07-24 02:55,-119.7326,39.1923,1431.00,86.00,37.40,17.85,M,4.00,0.00,30.10,M,10.00,13.00,CLR,M,M,M,M,M,M,M,M,M,M,M,M,M,M,82.73,KCXP 240255Z AUTO VRB04G13KT 10SM CLR 30/03 A3010 RMK AO2,M
INS,2023-07-24 02:55,-115.6733,36.5872,955.00,98.80,39.40,12.96,180.00,8.00,0.00,29.94,1008.10,10.00,M,SCT,M,M,M,13000.00,M,M,M,M,M,M,M,M,M,M,94.10,KINS 240255Z AUTO 18008KT 10SM SCT130 37/04 A2994 RMK AO2 SLP081 T03710041 53009 $,M
RNO,2023-07-24 02:55,-119.7711,39.4839,1341.00,91.00,36.00,14.42,150.00,7.00,0.00,30.05,1011.10,10.00,M,SCT,BKN,BKN,BKN,11000.00,14000.00,18000.00,21000.00,M,M,M,M,M,M,M,86.83,KRNO 240255Z 15007KT 10SM SCT110 BKN140 BKN180 BKN210 33/02 A3005 RMK AO2 SLP111 ACSL DSNT ALQDS T03280022 51010,M
LSV,2023-07-24 02:55,-115.0343,36.2362,570.00,104.70,47.70,14.91,150.00,7.00,0.00,29.82,1006.50,10.00,M,FEW,M,M,M,19000.00,M,M,M,M,M,M,M,M,M,M,101.22,KLSV 240255Z AUTO 15007KT 10SM FEW190 40/09 A2982 RMK AO2 SLP065 T04040087 53012 $,M
RTS,2023-07-24 02:55,-119.8764,39.6682,1539.00,84.20,33.80,16.39,310.00,5.00,0.00,30.13,M,10.00,M,CLR,M,M,M,M,M,M,M,M,M,M,M,M,M,M,81.30,KRTS 240255Z AUTO 31005KT 10SM CLR 29/01 A3013 RMK AO2,M
MEV,2023-07-24 02:55,-119.7500,38.9963,1441.42,82.40,37.40,20.04,230.00,11.00,0.00,30.09,M,10.00,M,CLR,M,M,M,M,M,M,M,M,M,M,M,M,M,M,80.14,KMEV 240255Z AUTO 23011KT 10SM CLR 28/03 A3009 RMK AO2,M
HTH,2023-07-24 02:55,-118.6315,38.5448,1282.89,93.20,33.80,12.34,200.00,8.00,0.00,30.05,M,10.00,13.00,FEW,FEW,M,M,7000.00,10000.00,M,M,M,M,M,M,M,M,M,88.55,KHTH 240255Z AUTO 20008G13KT 10SM FEW070 FEW100 34/01 A3005 RMK A01,M
TMT,2023-07-24 02:55,-117.1971,39.4643,1749.34,81.70,41.00,23.60,270.00,6.00,0.00,30.18,M,M,M,SCT,M,M,M,12000.00,M,M,M,M,M,M,M,M,M,M,79.85,KTMT 240255Z AUTO 27006KT SCT120 28/05 A3018 RMK AO2 T02760050 PWINO,M
BAM,2023-07-24 02:55,-116.8743,40.5990,1382.36,91.40,35.60,14.02,130.00,8.00,0.00,30.04,M,10.00,M,CLR,M,M,M,M,M,M,M,M,M,M,M,M,M,M,87.17,KBAM 240255Z AUTO 13008KT 10SM CLR 33/02 A3004 RMK AO1,M
10U,2023-07-24 02:55,-116.1876,41.9532,1637.00,82.40,35.60,18.67,150.00,5.00,0.00,30.10,M,10.00,M,CLR,M,M,M,M,M,M,M,M,M,M,M,M,M,M,80.08,K10U 240255Z AUTO 15005KT 10SM CLR 28/02 A3010 RMK AO2,M
EKO,2023-07-24 02:56,-115.7860,40.8242,1367.00,84.00,46.00,26.52,0.00,0.00,0.00,30.10,1012.70,10.00,M,CLR,M,M,M,M,M,M,M,M,M,M,M,M,M,M,81.69,KEKO 240256Z AUTO 00000KT 10SM CLR 29/08 A3010 RMK AO2 SLP127 60000 T02890078 55004,M
WMC,2023-07-24 02:56,-117.8072,40.9019,1315.00,94.00,30.00,10.32,270.00,5.00,0.00,29.99,1009.20,10.00,M,CLR,M,M,M,M,M,M,M,M,M,M,M,31.00,240.00,2023-07-24 02:28,88.68,KWMC 240256Z AUTO 27005KT 10SM CLR 34/M01 A2999 RMK AO2 PK WND 24031/0228 SLP092 T03441011 53005,M
NFL,2023-07-24 02:56,-118.7010,39.4166,1199.00,92.00,42.00,17.67,240.00,10.00,0.00,30.00,1012.90,10.00,M,CLR,M,M,M,M,M,M,M,M,M,M,M,M,M,M,88.01,KNFL 240256Z AUTO 24010KT 10SM CLR 33/06 A3000 RMK AO2 SLP129 T03330056 53014,M
HND,2023-07-24 02:56,-115.1344,35.9729,742.79,95.00,58.00,29.20,270.00,9.00,T,29.94,1011.90,9.00,M,FEW,M,M,M,12000.00,M,M,M,TS,M,M,M,36.00,200.00,2023-07-24 02:40,94.11,KHND 240256Z 27009KT 9SM TS FEW120 35/14 A2994 RMK AO2 PK WND 20036/0240 LTG DSNT NE TSB27RAB30E52 SLP119 P0000 60000 T03500144 53016,M
TPH,2023-07-24 02:56,-117.0904,38.0505,1654.00,88.00,42.00,20.03,250.00,14.00,0.00,30.15,1011.40,10.00,20.00,CLR,M,M,M,M,M,M,M,M,M,M,M,M,M,M,84.52,KTPH 240256Z AUTO 25014G20KT 10SM CLR 31/06 A3015 RMK AO2 SLP114 T03110056 53009 $,M
LAS,2023-07-24 02:56,-115.1634,36.0719,663.00,99.00,54.00,22.35,200.00,18.00,0.00,29.88,1008.40,10.00,32.00,SCT,BKN,BKN,M,7000.00,10000.00,20000.00,M,TS,M,M,M,33.00,180.00,2023-07-24 02:46,97.06,KLAS 240256Z 20018G32KT 10SM TS SCT070CB BKN100 BKN200 37/12 A2988 RMK AO2 PK WND 18033/0246 TSE27B32 SLP084 OCNL LTGCC S TS VC S MOV NW T03720122 53013,M
VGT,2023-07-24 03:02,-115.1933,36.2111,667.00,106.00,50.00,15.64,200.00,10.00,0.00,29.87,M,10.00,M,CLR,M,M,M,M,M,M,M,VCTS,M,M,M,M,M,M,103.18,KVGT 240302Z 20010KT 10SM VCTS CLR 41/10 A2987 RMK AO2 LTG DSNT E-SW T04110100,M
05U,2023-07-24 03:10,-116.0051,39.6042,1811.23,82.40,41.00,23.07,M,M,0.00,30.19,M,10.00,M,M,M,M,M,M,M,M,M,M,M,M,M,M,M,M,80.29,K05U 240310Z AUTO 10SM 28/05 A3019 RMK A01,M
BVU,2023-07-24 03:15,-114.8611,35.9475,671.00,102.20,50.00,17.51,150.00,15.00,0.00,29.90,M,10.00,M,CLR,M,M,M,M,M,M,M,M,M,M,M,M,M,M,99.28,KBVU 240315Z AUTO 15015KT 10SM CLR 39/10 A2990 RMK AO2 LTG DSNT NW-NE,M
CXP,2023-07-24 03:15,-119.7326,39.1923,1431.00,86.00,37.40,17.85,M,5.00,0.00,30.11,M,10.00,11.00,CLR,M,M,M,M,M,M,M,M,M,M,M,M,M,M,82.73,KCXP 240315Z AUTO VRB05G11KT 10SM CLR 30/03 A3011 RMK AO2,M
RTS,2023-07-24 03:15,-119.8764,39.6682,1539.00,82.40,33.80,17.38,350.00,9.00,0.00,30.13,M,10.00,M,CLR,M,M,M,M,M,M,M,M,M,M,M,M,M,M,80.03,KRTS 240315Z AUTO 35009KT 10SM CLR 28/01 A3013 RMK AO2,M
MEV,2023-07-24 03:15,-119.7500,38.9963,1441.42,82.40,35.60,18.67,210.00,11.00,0.00,30.10,M,10.00,M,CLR,M,M,M,M,M,M,M,M,M,M,M,M,M,M,80.08,KMEV 240315Z AUTO 21011KT 10SM CLR 28/02 A3010 RMK AO2,M
HTH,2023-07-24 03:15,-118.6315,38.5448,1282.89,91.40,35.60,14.02,220.00,7.00,0.00,30.05,M,10.00,M,CLR,M,M,M,M,M,M,M,M,M,M,M,M,M,M,87.17,KHTH 240315Z AUTO 22007KT 10SM CLR 33/02 A3005 RMK A01,M
10U,2023-07-24 03:15,-116.1876,41.9532,1637.00,82.40,33.80,17.38,M,4.00,0.00,30.10,M,10.00,M,CLR,M,M,M,M,M,M,M,M,M,M,M,M,M,M,80.03,K10U 240315Z AUTO VRB04KT 10SM CLR 28/01 A3010 RMK AO2,M
BAM,2023-07-24 03:15,-116.8743,40.5990,1382.36,89.60,35.60,14.83,130.00,4.00,0.00,30.04,M,10.00,M,CLR,M,M,M,M,M,M,M,M,M,M,M,M,M,M,85.62,KBAM 240315Z AUTO 13004KT 10SM CLR 32/02 A3004 RMK AO1,M
TMT,2023-07-24 03:15,-117.1971,39.4643,1749.34,82.80,40.00,21.90,240.00,12.00,0.00,30.20,M,M,19.00,SCT,M,M,M,12000.00,M,M,M,M,M,M,M,M,M,M,80.51,KTMT 240315Z AUTO 24012G19KT SCT120 28/04 A3020 RMK AO2 T02820044 PWINO,M
05U,2023-07-24 03:30,-116.0051,39.6042,1811.23,M,M,M,M,M,0.00,30.21,M,10.00,M,M,M,M,M,M,M,M,M,M,M,M,M,M,M,M,M,K05U 240330Z AUTO 10SM A3021 RMK A01,M
BVU,2023-07-24 03:35,-114.8611,35.9475,671.00,102.20,50.00,17.51,140.00,20.00,0.00,29.91,M,10.00,M,CLR,M,M,M,M,M,M,M,M,M,M,M,M,M,M,99.28,KBVU 240335Z AUTO 14020KT 10SM CLR 39/10 A2991 RMK AO2 LTG DSNT N AND NE,M
CXP,2023-07-24 03:35,-119.7326,39.1923,1431.00,84.20,37.40,18.91,M,4.00,0.00,30.12,M,10.00,13.00,CLR,M,M,M,M,M,M,M,M,M,M,M,M,M,M,81.38,KCXP 240335Z AUTO VRB04G13KT 10SM CLR 29/03 A3012 RMK AO2,M
HND,2023-07-24 03:35,-115.1344,35.9729,742.79,93.20,62.60,36.35,170.00,7.00,0.00,29.96,M,10.00,M,CLR,M,M,M,M,M,M,M,M,M,M,M,M,M,M,94.20,KHND 240335Z AUTO 17007KT 10SM CLR 34/17 A2996 RMK AO2 LTG DSNT NE AND NW TSE29,M
RTS,2023-07-24 03:35,-119.8764,39.6682,1539.00,82.40,33.80,17.38,330.00,10.00,0.00,30.14,M,10.00,M,CLR,M,M,M,M,M,M,M,M,M,M,M,M,M,M,80.03,KRTS 240335Z AUTO 33010KT 10SM CLR 28/01 A3014 RMK AO2,M
MEV,2023-07-24 03:35,-119.7500,38.9963,1441.42,77.00,39.20,25.67,250.00,5.00,0.00,30.10,M,10.00,M,CLR,M,M,M,M,M,M,M,M,M,M,M,M,M,M,77.00,KMEV 240335Z AUTO 25005KT 10SM CLR 25/04 A3010 RMK AO2,M
HTH,2023-07-24 03:35,-118.6315,38.5448,1282.89,89.60,39.20,17.09,240.00,3.00,0.00,30.06,M,10.00,M,FEW,BKN,M,M,9500.00,12000.00,M,M,M,M,M,M,M,M,M,85.73,KHTH 240335Z AUTO 24003KT 10SM FEW095 BKN120 32/04 A3006 RMK A01,M
10U,2023-07-24 03:35,-116.1876,41.9532,1637.00,80.60,35.60,19.79,150.00,6.00,0.00,30.11,M,10.00,M,CLR,M,M,M,M,M,M,M,M,M,M,M,M,M,M,78.94,K10U 240335Z AUTO 15006KT 10SM CLR 27/02 A3011 RMK AO2,M
BAM,2023-07-24 03:35,-116.8743,40.5990,1382.36,89.60,35.60,14.83,150.00,5.00,0.00,30.04,M,10.00,M,CLR,M,M,M,M,M,M,M,M,M,M,M,M,M,M,85.62,KBAM 240335Z AUTO 15005KT 10SM CLR 32/02 A3004 RMK AO1,M
TMT,2023-07-24 03:35,-117.1971,39.4643,1749.34,81.00,41.00,24.14,260.00,10.00,0.00,30.20,M,M,M,CLR,M,M,M,M,M,M,M,M,M,M,M,M,M,M,79.43,KTMT 240335Z AUTO 26010KT CLR 27/05 A3020 RMK AO2 T02720050 PWINO,M
LSV,2023-07-24 03:45,-115.0343,36.2362,570.00,102.20,51.80,18.72,80.00,16.00,0.00,29.87,1008.20,10.00,M,SCT,M,M,M,13000.00,M,M,M,VCTS,M,M,M,M,M,M,99.80,KLSV 240345Z AUTO 08016KT 10SM VCTS SCT130 39/11 A2987 RMK AO2 WSHFT 37 SLP082 $,M
05U,2023-07-24 03:50,-116.0051,39.6042,1811.23,78.80,41.00,25.95,M,M,0.00,30.21,M,10.00,M,M,M,M,M,M,M,M,M,M,M,M,M,M,M,M,78.80,K05U 240350Z AUTO 10SM 26/05 A3021 RMK A01,M
P68,2023-07-24 03:53,-116.0056,39.6014,1993.00,81.00,40.00,23.22,150.00,5.00,0.00,30.19,1011.90,M,19.00,M,M,M,M,M,M,M,M,M,M,M,M,M,M,M,79.38,KP68 240353Z AUTO 15005G19KT 27/04 A3019 RMK AO1 SLP119 T02720044,M
DRA,2023-07-24 03:53,-116.0278,36.6206,1009.00,95.00,40.00,14.90,210.00,12.00,0.00,30.00,1009.70,10.00,M,CLR,M,M,M,M,M,M,M,M,M,M,M,M,M,M,90.62,KDRA 240353Z AUTO 21012KT 10SM CLR 35/04 A3000 RMK AO2 SLP097 T03500044,M
ELY,2023-07-24 03:53,-114.8453,39.2950,1909.00,77.00,41.00,27.53,170.00,3.00,0.00,30.25,1011.90,10.00,M,FEW,M,M,M,12000.00,M,M,M,M,M,M,M,M,M,M,77.00,KELY 240353Z AUTO 17003KT 10SM FEW120 25/05 A3025 RMK AO2 SLP119 T02500050,M
VGT,2023-07-24 03:53,-115.1933,36.2111,667.00,102.00,49.00,16.97,240.00,9.00,0.00,29.89,1010.40,10.00,19.00,CLR,M,M,M,M,M,M,M,M,M,M,M,32.00,180.00,2023-07-24 03:08,98.82,KVGT 240353Z 24009G19KT 10SM CLR 39/09 A2989 RMK AO2 PK WND 18032/0308 LTG DSNT ALQDS SLP104 T03890094,M
LOL,2023-07-24 03:53,-118.5701,40.0684,1192.43,92.00,37.00,14.54,280.00,12.00,0.00,30.00,1010.30,10.00,M,CLR,M,M,M,M,M,M,M,M,M,M,M,M,M,M,87.74,KLOL 240353Z AUTO 28012KT 10SM CLR 33/03 A3000 RMK AO2 SLP103 T03330028,M
BVU,2023-07-24 03:55,-114.8611,35.9475,671.00,100.40,50.00,18.48,110.00,17.00,0.00,29.92,M,9.00,25.00,BKN,M,M,M,12000.00,M,M,M,VCTS,M,M,M,M,M,M,97.42,KBVU 240355Z AUTO 11017G25KT 9SM VCTS BKN120 38/10 A2992 RMK AO2 LTG DSNT N AND NE,M
CXP,2023-07-24 03:55,-119.7326,39.1923,1431.00,82.40,39.20,21.51,0.00,0.00,0.00,30.13,M,10.00,M,CLR,M,M,M,M,M,M,M,M,M,M,M,M,M,M,80.21,KCXP 240355Z AUTO 00000KT 10SM CLR 28/04 A3013 RMK AO2,M
INS,2023-07-24 03:55,-115.6733,36.5872,955.00,95.00,40.30,15.07,230.00,13.00,0.00,29.97,1009.00,10.00,M,FEW,M,M,M,15000.00,M,M,M,M,M,M,M,M,M,M,90.64,KINS 240355Z AUTO 23013KT 10SM FEW150 35/05 A2997 RMK AO2 SLP090 T03510046 $,M
RNO,2023-07-24 03:55,-119.7711,39.4839,1341.00,88.00,37.00,16.49,200.00,6.00,0.00,30.07,1011.90,10.00,M,SCT,BKN,BKN,BKN,11000.00,14000.00,18000.00,21000.00,M,M,M,M,M,M,M,84.32,KRNO 240355Z 20006KT 10SM SCT110 BKN140 BKN180 BKN210 31/03 A3007 RMK AO2 SLP119 VIRGA NW ACSL DSNT ALQDS T03110028,M
LSV,2023-07-24 03:55,-115.0343,36.2362,570.00,101.00,53.80,20.88,50.00,21.00,0.00,29.87,1008.30,10.00,M,BKN,M,M,M,13000.00,M,M,M,M,M,M,M,M,M,M,99.15,KLSV 240355Z COR 05021KT 10SM BKN130 38/12 A2987 RMK AO2A LTG DSNT NE SLP083 T03830121 $ COR 0357,M
RTS,2023-07-24 03:55,-119.8764,39.6682,1539.00,80.60,33.80,18.42,320.00,9.00,0.00,30.15,M,10.00,15.00,CLR,M,M,M,M,M,M,M,M,M,M,M,M,M,M,78.88,KRTS 240355Z AUTO 32009G15KT 10SM CLR 27/01 A3015 RMK AO2,M
MEV,2023-07-24 03:55,-119.7500,38.9963,1441.42,77.00,39.20,25.67,210.00,6.00,0.00,30.11,M,10.00,M,CLR,M,M,M,M,M,M,M,M,M,M,M,M,M,M,77.00,KMEV 240355Z AUTO 21006KT 10SM CLR 25/04 A3011 RMK AO2,M
HTH,2023-07-24 03:55,-118.6315,38.5448,1282.89,87.80,39.20,18.09,0.00,0.00,0.00,30.07,M,10.00,M,SCT,M,M,M,12000.00,M,M,M,M,M,M,M,M,M,M,84.22,KHTH 240355Z AUTO 00000KT 10SM SCT120 31/04 A3007 RMK A01,M
TMT,2023-07-24 03:55,-117.1971,39.4643,1749.34,80.00,41.40,25.33,260.00,9.00,0.00,30.21,M,M,M,CLR,M,M,M,M,M,M,M,M,M,M,M,M,M,M,78.89,KTMT 240355Z AUTO 26009KT CLR 27/05 A3021 RMK AO2 T02670052 PWINO,M
BAM,2023-07-24 03:55,-116.8743,40.5990,1382.36,87.80,35.60,15.70,150.00,7.00,0.00,30.05,M,10.00,M,CLR,M,M,M,M,M,M,M,M,M,M,M,M,M,M,84.12,KBAM 240355Z AUTO 15007KT 10SM CLR 31/02 A3005 RMK AO1,M
10U,2023-07-24 03:55,-116.1876,41.9532,1637.00,80.60,33.80,18.42,140.00,4.00,0.00,30.12,M,10.00,M,CLR,M,M,M,M,M,M,M,M,M,M,M,M,M,M,78.88,K10U 240355Z AUTO 14004KT 10SM CLR 27/01 A3012 RMK AO2,M
EKO,2023-07-24 03:56,-115.7860,40.8242,1367.00,81.00,48.00,31.52,100.00,7.00,0.00,30.10,1012.40,10.00,M,CLR,M,M,M,M,M,M,M,M,M,M,M,M,M,M,79.92,KEKO 240356Z AUTO 10007KT 10SM CLR 27/09 A3010 RMK AO2 SLP124 T02720089,M
WMC,2023-07-24 03:56,-117.8072,40.9019,1315.00,87.00,30.00,12.86,250.00,5.00,0.00,30.01,1009.90,10.00,M,CLR,M,M,M,M,M,M,M,M,M,M,M,M,M,M,83.40,KWMC 240356Z AUTO 25005KT 10SM CLR 31/M01 A3001 RMK AO2 SLP099 T03061011,M
NFL,2023-07-24 03:56,-118.7010,39.4166,1199.00,91.00,41.00,17.54,210.00,7.00,0.00,30.02,1013.60,10.00,M,CLR,M,M,M,M,M,M,M,M,M,M,M,M,M,M,87.04,KNFL 240356Z AUTO 21007KT 10SM CLR 33/05 A3002 RMK AO2 SLP136 T03280050,M
HND,2023-07-24 03:56,-115.1344,35.9729,742.79,94.00,60.00,32.34,0.00,0.00,0.00,29.96,1012.40,10.00,M,CLR,M,M,M,M,M,M,M,M,M,M,M,M,M,M,93.84,KHND 240356Z AUTO 00000KT 10SM CLR 34/16 A2996 RMK AO2 LTG DSNT NW-E TSE29 SLP124 T03440156,M
TPH,2023-07-24 03:56,-117.0904,38.0505,1654.00,86.00,42.00,21.35,250.00,8.00,0.00,30.18,1011.90,10.00,M,CLR,M,M,M,M,M,M,M,M,M,M,M,M,M,M,82.91,KTPH 240356Z AUTO 25008KT 10SM CLR 30/06 A3018 RMK AO2 SLP119 T03000056 $,M
LAS,2023-07-24 03:56,-115.1634,36.0719,663.00,98.00,52.00,21.41,270.00,14.00,0.00,29.91,1009.40,10.00,M,SCT,BKN,BKN,M,7000.00,10000.00,20000.00,M,TS,M,M,M,M,M,M,95.42,KLAS 240356Z 27014KT 10SM TS SCT070CB BKN100 BKN200 37/11 A2991 RMK AO2 SLP094 OCNL LTGCGCC W TS VC W MOV NW T03670111,M
05U,2023-07-24 04:10,-116.0051,39.6042,1811.23,M,M,M,M,M,0.00,30.22,M,10.00,M,M,M,M,M,M,M,M,M,M,M,M,M,M,M,M,M,K05U 240410Z AUTO 10SM A3022 RMK A01,M
BVU,2023-07-24 04:15,-114.8611,35.9475,671.00,95.00,60.80,32.27,100.00,15.00,0.00,29.94,M,9.00,20.00,FEW,SCT,BKN,M,400.00,7500.00,12000.00,M,TS,M,M,M,M,M,M,95.30,KBVU 240415Z AUTO 10015G20KT 9SM TS FEW004 SCT075 BKN120 35/16 A2994 RMK AO2 LTG DSNT NW-NE,M
CXP,2023-07-24 04:15,-119.7326,39.1923,1431.00,82.40,41.00,23.07,M,6.00,0.00,30.13,M,10.00,M,CLR,M,M,M,M,M,M,M,M,M,M,M,M,M,M,80.29,KCXP 240415Z AUTO VRB06KT 10SM CLR 28/05 A3013 RMK AO2,M
RTS,2023-07-24 04:15,-119.8764,39.6682,1539.00,80.60,35.60,19.79,350.00,6.00,0.00,30.15,M,10.00,M,CLR,M,M,M,M,M,M,M,M,M,M,M,M,M,M,78.94,KRTS 240415Z AUTO 35006KT 10SM CLR 27/02 A3015 RMK AO2,M
MEV,2023-07-24 04:15,-119.7500,38.9963,1441.42,78.80,39.20,24.19,M,3.00,0.00,30.12,M,10.00,M,CLR,M,M,M,M,M,M,M,M,M,M,M,M,M,M,78.80,KMEV 240415Z AUTO VRB03KT 10SM CLR 26/04 A3012 RMK AO2,M
HTH,2023-07-24 04:15,-118.6315,38.5448,1282.89,87.80,41.00,19.40,0.00,0.00,0.00,30.08,M,10.00,M,CLR,M,M,M,M,M,M,M,M,M,M,M,M,M,M,84.30,KHTH 240415Z AUTO 00000KT 10SM CLR 31/05 A3008 RMK A01,M
TMT,2023-07-24 04:15,-117.1971,39.4643,1749.34,80.40,41.00,24.62,290.00,10.00,0.00,30.22,M,M,15.00,CLR,M,M,M,M,M,M,M,M,M,M,M,M,M,M,79.09,KTMT 240415Z AUTO 29010G15KT CLR 27/05 A3022 RMK AO2 T02690049 PWINO,M
10U,2023-07-24 04:15,-116.1876,41.9532,1637.00,78.80,35.60,21.00,120.00,8.00,0.00,30.12,M,10.00,M,CLR,M,M,M,M,M,M,M,M,M,M,M,M,M,M,78.80,K10U 240415Z AUTO 12008KT 10SM CLR 26/02 A3012 RMK AO2,M
BAM,2023-07-24 04:15,-116.8743,40.5990,1382.36,86.00,37.40,17.85,130.00,7.00,0.00,30.06,M,10.00,M,CLR,M,M,M,M,M,M,M,M,M,M,M,M,M,M,82.73,KBAM 240415Z AUTO 13007KT 10SM CLR 30/03 A3006 RMK AO1,M
LSV,2023-07-24 04:24,-115.0343,36.2362,570.00,98.60,57.20,25.41,90.00,22.00,0.00,29.90,1009.30,10.00,33.00,SCT,SCT,M,M,12000.00,17000.00,M,M,-RA,M,M,M,M,M,M,97.76,KLSV 240424Z 09022G33KT 10SM -RA SCT120 SCT170 37/14 A2990 RMK AO2A LTG DSNT NW RAB24 PRESRR SLP093 $,M
LAS,2023-07-24 04:30,-115.1634,36.0719,663.00,97.00,54.00,23.75,80.00,3.00,0.00,29.95,M,10.00,M,BKN,M,M,M,12000.00,M,M,M,M,M,M,M,M,M,M,94.92,KLAS 240430Z 08003KT 10SM BKN120 36/12 A2995 RMK AO2 LTG DSNT N-E TSE24 T03610122,M
05U,2023-07-24 04:30,-116.0051,39.6042,1811.23,80.60,39.20,22.81,M,M,0.00,30.22,M,10.00,M,M,M,M,M,M,M,M,M,M,M,M,M,M,M,M,79.10,K05U 240430Z AUTO 10SM 27/04 A3022 RMK A01,M
INS,2023-07-24 04:34,-115.6733,36.5872,955.00,95.00,42.80,16.60,140.00,7.00,0.00,30.01,1010.20,10.00,M,FEW,SCT,BKN,BKN,10000.00,12000.00,14000.00,17000.00,-RA,M,M,M,M,M,M,90.86,KINS 240434Z AUTO 14007KT 10SM -RA FEW100 SCT120 BKN140 BKN170 35/06 A3001 RMK AO2 RAB34 PRESRR SLP102 $,M
BVU,2023-07-24 04:35,-114.8611,35.9475,671.00,95.00,55.40,26.58,100.00,14.00,0.00,29.95,M,10.00,M,CLR,M,M,M,M,M,M,M,M,M,M,M,M,M,M,93.22,KBVU 240435Z AUTO 10014KT 10SM CLR 35/13 A2995 RMK AO2,M
CXP,2023-07-24 04:35,-119.7326,39.1923,1431.00,80.60,41.00,24.46,310.00,4.00,0.00,30.14,M,10.00,M,CLR,M,M,M,M,M,M,M,M,M,M,M,M,M,M,79.20,KCXP 240435Z AUTO 31004KT 10SM CLR 27/05 A3014 RMK AO2,M
LSV,2023-07-24 04:35,-115.0343,36.2362,570.00,95.00,62.60,34.39,90.00,20.00,0.00,29.92,1010.10,10.00,27.00,FEW,SCT,M,M,12000.00,16000.00,M,M,TS -DZ,M,M,M,M,M,M,96.22,KLSV 240435Z 09020G27KT 10SM TS -DZ FEW120 SCT160 35/17 A2992 RMK AO2A RAB24E27DZB27E32RAB32E34DZB34 TSB35 PRESRR SLP101 $,M
RTS,2023-07-24 04:35,-119.8764,39.6682,1539.00,80.60,37.40,21.25,M,6.00,0.00,30.15,M,10.00,14.00,CLR,M,M,M,M,M,M,M,M,M,M,M,M,M,M,79.02,KRTS 240435Z AUTO VRB06G14KT 10SM CLR 27/03 A3015 RMK AO2,M
MEV,2023-07-24 04:35,-119.7500,38.9963,1441.42,77.00,39.20,25.67,0.00,0.00,0.00,30.12,M,10.00,M,CLR,M,M,M,M,M,M,M,M,M,M,M,M,M,M,77.00,KMEV 240435Z AUTO 00000KT 10SM CLR 25/04 A3012 RMK AO2,M
HTH,2023-07-24 04:35,-118.6315,38.5448,1282.89,86.00,41.00,20.54,170.00,5.00,0.00,30.08,M,10.00,M,CLR,M,M,M,M,M,M,M,M,M,M,M,M,M,M,82.86,KHTH 240435Z AUTO 17005KT 10SM CLR 30/05 A3008 RMK A01,M
10U,2023-07-24 04:35,-116.1876,41.9532,1637.00,78.80,35.60,21.00,150.00,5.00,0.00,30.13,M,10.00,M,SCT,M,M,M,11000.00,M,M,M,M,M,M,M,M,M,M,78.80,K10U 240435Z AUTO 15005KT 10SM SCT110 26/02 A3013 RMK AO2,M
BAM,2023-07-24 04:35,-116.8743,40.5990,1382.36,86.00,37.40,17.85,150.00,4.00,0.00,30.07,M,10.00,M,CLR,M,M,M,M,M,M,M,M,M,M,M,M,M,M,82.73,KBAM 240435Z AUTO 15004KT 10SM CLR 30/03 A3007 RMK AO1,M
TMT,2023-07-24 04:35,-117.1971,39.4643,1749.34,77.00,41.70,28.29,190.00,6.00,0.00,30.23,M,M,M,CLR,M,M,M,M,M,M,M,M,M,M,M,M,M,M,77.00,KTMT 240435Z AUTO 19006KT CLR 25/05 A3023 RMK AO2 T02510054 PWINO,M
VGT,2023-07-24 04:36,-115.1933,36.2111,667.00,100.00,55.00,22.49,110.00,14.00,0.00,29.94,M,10.00,25.00,BKN,M,M,M,12000.00,M,M,M,VCTS,M,M,M,26.00,80.00,2023-07-24 04:25,98.48,KVGT 240436Z AUTO 11014G25KT 10SM VCTS BKN120 38/13 A2994 RMK AO2 PK WND 08026/0425 WSHFT 0417 LTG DSNT N AND E T03780128,M
LSV,2023-07-24 04:36,-115.0343,36.2362,570.00,93.20,68.00,43.88,80.00,18.00,0.00,29.92,1010.10,9.00,27.00,FEW,SCT,M,M,12000.00,16000.00,M,M,-TSRA,M,M,M,M,M,M,97.67,KLSV 240436Z 08018G27KT 9SM -TSRA FEW120 SCT160 34/20 A2992 RMK RAB24E27DZB27E32RAB32E34DZB34E35RAB35 TSB35 SLP101 $,M
LAS,2023-07-24 04:47,-115.1634,36.0719,663.00,98.00,54.00,23.04,80.00,15.00,0.00,29.95,M,10.00,20.00,OVC,M,M,M,12000.00,M,M,M,VCTS,M,M,M,M,M,M,95.99,KLAS 240447Z 08015G20KT 10SM VCTS OVC120CB 37/12 A2995 RMK AO2 LTG DSNT NE TSE24E42 OCNL LTGIC VC NW-NE TS VC NW-NE SHRA DSNT NW-N T03670122,M
HND,2023-07-24 04:48,-115.1344,35.9729,742.79,95.00,59.00,30.26,M,3.00,0.00,30.00,M,10.00,M,OVC,M,M,M,12000.00,M,M,M,VCTS,M,M,M,M,M,M,94.51,KHND 240448Z AUTO VRB03KT 10SM VCTS OVC120 35/15 A3000 RMK AO2 LTG DSNT N TSB42,M
LSV,2023-07-24 04:48,-115.0343,36.2362,570.00,89.60,64.40,43.34,60.00,6.00,0.00,29.92,1010.20,10.00,M,FEW,SCT,M,M,8000.00,16000.00,M,M,TS,M,M,M,M,M,M,91.23,KLSV 240448Z AUTO 06006KT 10SM TS FEW080 SCT160 32/18 A2992 RMK AO2 RAB24E27DZB27E32RAB32E34DZB34E35RAB35E45DZB45E48 TSB35 SLP102 $,M
LSV,2023-07-24 04:49,-115.0343,36.2362,570.00,89.60,64.40,43.34,40.00,6.00,0.00,29.92,1010.20,10.00,M,FEW,SCT,M,M,8000.00,16000.00,M,M,-TSRA,M,M,M,M,M,M,91.23,KLSV 240449Z AUTO 04006KT 10SM -TSRA FEW080 SCT160 32/18 A2992 RMK AO2 RAB24E27DZB27E32RAB32E34DZB34E35RAB35E45DZB45E48RAB49 TSB35 SLP102 $,M
LSV,2023-07-24 04:50,-115.0343,36.2362,570.00,89.60,64.40,43.34,40.00,7.00,0.00,29.92,1010.20,10.00,M,FEW,SCT,M,M,8000.00,16000.00,M,M,VCTS -RA,M,M,M,M,M,M,91.23,KLSV 240450Z AUTO 04007KT 10SM VCTS -RA FEW080 SCT160 32/18 A2992 RMK AO2 RAB24E27DZB27E32RAB32E34DZB34E35RAB35E45DZB45E48RAB49 TSB35E50 SLP102 $,M
05U,2023-07-24 04:50,-116.0051,39.6042,1811.23,78.80,39.20,24.19,M,M,0.00,30.22,M,10.00,M,M,M,M,M,M,M,M,M,M,M,M,M,M,M,M,78.80,K05U 240450Z AUTO 10SM 26/04 A3022 RMK A01,M
INS,2023-07-24 04:51,-115.6733,36.5872,955.00,93.20,48.20,21.54,280.00,7.00,0.00,29.99,1009.50,10.00,14.00,FEW,FEW,SCT,BKN,6500.00,12000.00,14000.00,17000.00,M,M,M,M,M,M,M,89.80,KINS 240451Z AUTO 28007G14KT 10SM FEW065 FEW120 SCT140 BKN170 BKN210 34/09 A2999 RMK AO2 RAB34E49DZB49E51 PRESFR SLP095 $,M
P68,2023-07-24 04:53,-116.0056,39.6014,1993.00,82.00,39.00,21.62,190.00,6.00,0.00,30.20,1011.70,M,M,M,M,M,M,M,M,M,M,M,M,M,M,M,M,M,79.94,KP68 240453Z AUTO 19006KT 28/04 A3020 RMK AO1 SLP117 T02780039,M
DRA,2023-07-24 04:53,-116.0278,36.6206,1009.00,93.00,40.00,15.85,230.00,5.00,0.00,30.01,1010.00,10.00,M,CLR,M,M,M,M,M,M,M,M,M,M,M,M,M,M,88.78,KDRA 240453Z AUTO 23005KT 10SM CLR 34/04 A3001 RMK AO2 SLP100 T03390044,M
ELY,2023-07-24 04:53,-114.8453,39.2950,1909.00,71.00,42.00,35.01,170.00,9.00,0.00,30.27,1012.80,10.00,M,CLR,M,M,M,M,M,M,M,M,M,M,M,M,M,M,71.00,KELY 240453Z AUTO 17009KT 10SM CLR 22/06 A3027 RMK AO2 SLP128 T02170056,M
VGT,2023-07-24 04:53,-115.1933,36.2111,667.00,96.00,58.00,28.31,120.00,13.00,0.00,29.95,1012.20,10.00,22.00,BKN,M,M,M,12000.00,M,M,M,VCTS,M,M,M,35.00,120.00,2023-07-24 04:37,95.20,KVGT 240453Z AUTO 12013G22KT 10SM VCTS BKN120 36/14 A2995 RMK AO2 PK WND 12035/0437 WSHFT 0417 LTG DSNT N-SE SLP122 T03560144,M
LOL,2023-07-24 04:53,-118.5701,40.0684,1192.43,89.00,37.00,15.97,290.00,8.00,0.00,30.02,1011.00,10.00,M,CLR,M,M,M,M,M,M,M,M,M,M,M,M,M,M,85.15,KLOL 240453Z AUTO 29008KT 10SM CLR 32/03 A3002 RMK AO2 SLP110 T03170028,M
BVU,2023-07-24 04:55,-114.8611,35.9475,671.00,95.00,53.60,24.89,110.00,13.00,0.00,29.95,M,10.00,M,CLR,M,M,M,M,M,M,M,M,M,M,M,M,M,M,92.71,KBVU 240455Z AUTO 11013KT 10SM CLR 35/12 A2995 RMK AO2,M
CXP,2023-07-24 04:55,-119.7326,39.1923,1431.00,82.40,41.00,23.07,M,4.00,0.00,30.14,M,10.00,M,CLR,M,M,M,M,M,M,M,M,M,M,M,M,M,M,80.29,KCXP 240455Z AUTO VRB04KT 10SM CLR 28/05 A3014 RMK AO2,M
INS,2023-07-24 04:55,-115.6733,36.5872,955.00,92.70,51.60,24.83,270.00,9.00,T,29.99,1009.50,10.00,M,FEW,FEW,SCT,BKN,6500.00,12000.00,15000.00,17000.00,M,M,M,M,M,M,M,89.91,KINS 240455Z AUTO 27009KT 10SM FEW065 FEW120 SCT150 BKN170 BKN210 34/11 A2999 RMK AO2 RAB34E49DZB49E51 SLP095 P0000 T03370109 $,M
RNO,2023-07-24 04:55,-119.7711,39.4839,1341.00,85.00,40.00,20.40,270.00,8.00,0.00,30.09,1012.20,10.00,M,FEW,SCT,BKN,BKN,11000.00,14000.00,18000.00,21000.00,M,M,M,M,M,M,M,82.06,KRNO 240455Z 27008KT 10SM FEW110 SCT140 BKN180 BKN210 29/04 A3009 RMK AO2 SLP122 ACSL DSNT N THRU SE AND NW T02940044,M
LSV,2023-07-24 04:55,-115.0343,36.2362,570.00,89.40,64.00,43.01,40.00,6.00,T,29.92,1010.20,10.00,M,FEW,FEW,M,M,8000.00,14000.00,M,M,VCTS -RA,M,M,M,33.00,80.00,2023-07-24 04:20,90.80,KLSV 240455Z AUTO 04006KT 10SM VCTS -RA FEW080 FEW140 32/18 A2992 RMK AO2 PK WND 08033/20 RAB24E27DZB27E32RAB32E34DZB34E35RAB35E45DZB45E48RAB49 TSB35E50 SLP102 P0000 T03190177 $,M
RTS,2023-07-24 04:55,-119.8764,39.6682,1539.00,80.60,37.40,21.25,360.00,17.00,0.00,30.15,M,10.00,M,CLR,M,M,M,M,M,M,M,M,M,M,M,M,M,M,79.02,KRTS 240455Z AUTO 36017KT 10SM CLR 27/03 A3015 RMK AO2,M
MEV,2023-07-24 04:55,-119.7500,38.9963,1441.42,75.20,41.00,29.23,0.00,0.00,0.00,30.13,M,10.00,10.00,CLR,M,M,M,M,M,M,M,M,M,M,M,M,M,M,75.20,KMEV 240455Z AUTO 00000G10KT 10SM CLR 24/05 A3013 RMK AO2,M
HTH,2023-07-24 04:55,-118.6315,38.5448,1282.89,86.00,41.00,20.54,170.00,7.00,0.00,30.09,M,10.00,M,CLR,M,M,M,M,M,M,M,M,M,M,M,M,M,M,82.86,KHTH 240455Z AUTO 17007KT 10SM CLR 30/05 A3009 RMK A01,M
BAM,2023-07-24 04:55,-116.8743,40.5990,1382.36,82.40,37.40,20.04,250.00,4.00,0.00,30.07,M,10.00,M,SCT,M,M,M,11000.00,M,M,M,M,M,M,M,M,M,M,80.14,KBAM 240455Z AUTO 25004KT 10SM SCT110 28/03 A3007 RMK AO1,M
TMT,2023-07-24 04:55,-117.1971,39.4643,1749.34,80.80,40.00,23.37,250.00,6.00,0.00,30.22,M,M,M,CLR,M,M,M,M,M,M,M,M,M,M,M,M,M,M,79.26,KTMT 240455Z AUTO 25006KT CLR 27/04 A3022 RMK AO2 T02710044 PWINO,M
10U,2023-07-24 04:55,-116.1876,41.9532,1637.00,86.00,32.00,14.40,0.00,0.00,0.00,30.13,M,10.00,M,FEW,SCT,M,M,7500.00,11000.00,M,M,M,M,M,M,M,M,M,82.64,K10U 240455Z AUTO 00000KT 10SM FEW075 SCT110 30/M00 A3013 RMK AO2,M
EKO,2023-07-24 04:56,-115.7860,40.8242,1367.00,81.00,46.00,29.23,340.00,5.00,0.00,30.12,1012.70,10.00,M,CLR,M,M,M,M,M,M,M,M,M,M,M,M,M,M,79.76,KEKO 240456Z AUTO 34005KT 10SM CLR 27/08 A3012 RMK AO2 SLP127 T02720078,M
WMC,2023-07-24 04:56,-117.8072,40.9019,1315.00,85.00,28.00,12.63,270.00,8.00,0.00,30.04,1010.60,10.00,M,CLR,M,M,M,M,M,M,M,M,M,M,M,M,M,M,81.80,KWMC 240456Z AUTO 27008KT 10SM CLR 29/M02 A3004 RMK AO2 SLP106 T02941022,M
NFL,2023-07-24 04:56,-118.7010,39.4166,1199.00,92.00,38.00,15.12,160.00,4.00,0.00,30.03,1013.80,10.00,M,FEW,M,M,M,11000.00,M,M,M,M,M,M,M,38.00,250.00,2023-07-24 04:19,87.78,KNFL 240456Z AUTO 16004KT 10SM FEW110 33/03 A3003 RMK AO2 PK WND 25038/0419 SLP138 T03330033,M
HND,2023-07-24 04:56,-115.1344,35.9729,742.79,96.00,57.00,27.31,320.00,4.00,0.00,30.00,1013.50,10.00,M,OVC,M,M,M,12000.00,M,M,M,VCTS,M,M,M,M,M,M,94.83,KHND 240456Z AUTO 32004KT 10SM VCTS OVC120 36/14 A3000 RMK AO2 LTG DSNT N TSB42 SLP135 T03560139,M
TPH,2023-07-24 04:56,-117.0904,38.0505,1654.00,85.00,41.00,21.21,260.00,8.00,0.00,30.20,1012.00,10.00,M,CLR,M,M,M,M,M,M,M,M,M,M,M,M,M,M,82.10,KTPH 240456Z AUTO 26008KT 10SM CLR 29/05 A3020 RMK AO2 SLP120 T02940050 $,M
LAS,2023-07-24 04:56,-115.1634,36.0719,663.00,97.00,55.00,24.63,100.00,11.00,0.00,29.96,1011.10,10.00,24.00,OVC,M,M,M,12000.00,M,M,M,TS,M,M,M,M,M,M,95.23,KLAS 240456Z 10011G24KT 10SM TS OVC120CB 36/13 A2996 RMK AO2 LTG DSNT N AND NE TSE24E42B51 SLP111 OCNL LTGIC NW-NE TS NW-NE SHRA DSNT NW-N T03610128,M
LSV,2023-07-24 04:59,-115.0343,36.2362,570.00,89.60,64.40,43.34,20.00,5.00,0.00,29.92,1010.20,10.00,M,FEW,FEW,M,M,8000.00,14000.00,M,M,M,M,M,M,M,M,M,91.23,KLSV 240459Z AUTO 02005KT 10SM FEW080 FEW140 32/18 A2992 RMK AO2 LTG DSNT SE AND NW RAE59 SLP102 $,M
INS,2023-07-24 05:10,-115.6733,36.5872,955.00,91.40,50.00,24.37,80.00,15.00,0.00,30.02,1010.60,10.00,22.00,FEW,SCT,M,M,16000.00,21000.00,M,M,M,M,M,M,M,M,M,88.36,KINS 240510Z AUTO 08015G22KT 10SM FEW160 SCT210 33/10 A3002 RMK AO2 WSHFT 05 PRESRR SLP106 $,M
05U,2023-07-24 05:10,-116.0051,39.6042,1811.23,78.80,39.20,24.19,M,M,0.00,30.23,M,10.00,M,M,M,M,M,M,M,M,M,M,M,M,M,M,M,M,78.80,K05U 240510Z AUTO 10SM 26/04 A3023 RMK A01,M
HND,2023-07-24 05:12,-115.1344,35.9729,742.79,95.00,57.20,28.37,30.00,6.00,0.00,30.00,M,10.00,M,FEW,OVC,M,M,8500.00,12000.00,M,M,M,M,M,M,M,M,M,93.82,KHND 240512Z AUTO 03006KT 10SM FEW085 OVC120 35/14 A3000 RMK AO2 LTG DSNT N TSE06,M
LAS,2023-07-24 05:12,-115.1634,36.0719,663.00,91.00,66.00,43.85,60.00,7.00,T,29.96,M,10.00,M,OVC,M,M,M,12000.00,M,M,M,-RA,M,M,M,M,M,M,93.71,KLAS 240512Z 06007KT 10SM -RA OVC120 33/19 A2996 RMK AO2 LTG DSNT N RAB01 TSE06 OCNL LTGIC DSNT E-SE CB DSNT E-SE P0000 T03280189,M
BVU,2023-07-24 05:15,-114.8611,35.9475,671.00,95.00,53.60,24.89,110.00,8.00,0.00,29.95,M,10.00,M,CLR,M,M,M,M,M,M,M,M,M,M,M,M,M,M,92.71,KBVU 240515Z AUTO 11008KT 10SM CLR 35/12 A2995 RMK AO2,M
CXP,2023-07-24 05:15,-119.7326,39.1923,1431.00,77.00,42.80,29.51,0.00,0.00,0.00,30.14,M,10.00,M,CLR,M,M,M,M,M,M,M,M,M,M,M,M,M,M,77.00,KCXP 240515Z AUTO 00000KT 10SM CLR 25/06 A3014 RMK AO2,M
RTS,2023-07-24 05:15,-119.8764,39.6682,1539.00,78.80,39.20,24.19,350.00,11.00,0.00,30.16,M,10.00,23.00,CLR,M,M,M,M,M,M,M,M,M,M,M,M,M,M,78.80,KRTS 240515Z AUTO 35011G23KT 330V040 10SM CLR 26/04 A3016 RMK AO2,M
MEV,2023-07-24 05:15,-119.7500,38.9963,1441.42,77.00,41.00,27.53,140.00,8.00,0.00,30.13,M,10.00,M,CLR,M,M,M,M,M,M,M,M,M,M,M,M,M,M,77.00,KMEV 240515Z AUTO 14008KT 10SM CLR 25/05 A3013 RMK AO2,M
HTH,2023-07-24 05:15,-118.6315,38.5448,1282.89,87.80,41.00,19.40,0.00,0.00,0.00,30.09,M,10.00,M,CLR,M,M,M,M,M,M,M,M,M,M,M,M,M,M,84.30,KHTH 240515Z AUTO 00000KT 10SM CLR 31/05 A3009 RMK A01,M
10U,2023-07-24 05:15,-116.1876,41.9532,1637.00,84.20,32.00,15.25,200.00,6.00,0.00,30.13,M,10.00,12.00,SCT,M,M,M,11000.00,M,M,M,M,M,M,M,M,M,M,81.28,K10U 240515Z AUTO 20006G12KT 10SM SCT110 29/M00 A3013 RMK AO2,M
BAM,2023-07-24 05:15,-116.8743,40.5990,1382.36,82.40,37.40,20.04,250.00,9.00,0.00,30.08,M,10.00,M,CLR,M,M,M,M,M,M,M,M,M,M,M,M,M,M,80.14,KBAM 240515Z AUTO 25009KT 10SM CLR 28/03 A3008 RMK AO1,M
TMT,2023-07-24 05:15,-117.1971,39.4643,1749.34,77.70,41.00,26.90,150.00,4.00,0.00,30.23,M,M,M,SCT,M,M,M,11000.00,M,M,M,M,M,M,M,M,M,M,77.70,KTMT 240515Z AUTO 15004KT SCT110 25/05 A3023 RMK AO2 T02540051 PWINO,M
VGT,2023-07-24 05:27,-115.1933,36.2111,667.00,93.00,63.00,37.10,200.00,14.00,T,29.96,M,10.00,24.00,FEW,FEW,SCT,M,5500.00,9000.00,12000.00,M,-TSRA,M,M,M,M,M,M,94.18,KVGT 240527Z AUTO 20014G24KT 10SM -TSRA FEW055 FEW090 SCT120 34/17 A2996 RMK AO2 WSHFT 0513 LTG DSNT N RAB00E02B24 TSB27 P0000 T03390172,M
05U,2023-07-24 05:30,-116.0051,39.6042,1811.23,78.80,39.20,24.19,M,M,0.00,30.24,M,10.00,M,M,M,M,M,M,M,M,M,M,M,M,M,M,M,M,78.80,K05U 240530Z AUTO 10SM 26/04 A3024 RMK A01,M
LAS,2023-07-24 05:33,-115.1634,36.0719,663.00,95.00,59.00,30.26,90.00,6.00,T,29.96,M,10.00,M,FEW,BKN,OVC,M,5000.00,8000.00,12000.00,M,VCTS,M,M,M,M,M,M,94.51,KLAS 240533Z 09006KT 10SM VCTS FEW050 BKN080CB OVC120 35/15 A2996 RMK AO2 LTG DSNT N AND NW OCNL LTGIC VC E-SE RAB01 TSE06B26 TS VC E-SE P0000 T03500150,M
BVU,2023-07-24 05:35,-114.8611,35.9475,671.00,95.00,51.80,23.30,90.00,5.00,0.00,29.95,M,10.00,M,CLR,M,M,M,M,M,M,M,M,M,M,M,M,M,M,92.26,KBVU 240535Z AUTO 09005KT 10SM CLR 35/11 A2995 RMK AO2,M
CXP,2023-07-24 05:35,-119.7326,39.1923,1431.00,77.00,42.80,29.51,220.00,3.00,0.00,30.14,M,10.00,M,CLR,M,M,M,M,M,M,M,M,M,M,M,M,M,M,77.00,KCXP 240535Z AUTO 22003KT 10SM CLR 25/06 A3014 RMK AO2,M
RTS,2023-07-24 05:35,-119.8764,39.6682,1539.00,80.60,35.60,19.79,330.00,13.00,0.00,30.15,M,10.00,24.00,CLR,M,M,M,M,M,M,M,M,M,M,M,M,M,M,78.94,KRTS 240535Z AUTO 33013G24KT 290V020 10SM CLR 27/02 A3015 RMK AO2,M
MEV,2023-07-24 05:35,-119.7500,38.9963,1441.42,75.20,41.00,29.23,120.00,7.00,0.00,30.13,M,10.00,M,CLR,M,M,M,M,M,M,M,M,M,M,M,M,M,M,75.20,KMEV 240535Z AUTO 12007KT 10SM CLR 24/05 A3013 RMK AO2,M
HTH,2023-07-24 05:35,-118.6315,38.5448,1282.89,86.00,41.00,20.54,170.00,8.00,0.00,30.09,M,10.00,M,FEW,FEW,SCT,M,7500.00,9500.00,11000.00,M,M,M,M,M,M,M,M,82.86,KHTH 240535Z AUTO 17008KT 10SM FEW075 FEW095 SCT110 30/05 A3009 RMK A01,M
10U,2023-07-24 05:35,-116.1876,41.9532,1637.00,82.40,32.00,16.17,180.00,9.00,0.00,30.13,M,10.00,M,SCT,M,M,M,11000.00,M,M,M,M,M,M,M,M,M,M,80.00,K10U 240535Z AUTO 18009KT 10SM SCT110 28/M00 A3013 RMK AO2,M
BAM,2023-07-24 05:35,-116.8743,40.5990,1382.36,86.00,37.40,17.85,240.00,10.00,0.00,30.08,M,10.00,M,CLR,M,M,M,M,M,M,M,M,M,M,M,M,M,M,82.73,KBAM 240535Z AUTO 24010KT 10SM CLR 30/03 A3008 RMK AO1,M
TMT,2023-07-24 05:35,-117.1971,39.4643,1749.34,73.00,42.00,32.71,190.00,6.00,0.00,30.23,M,M,M,SCT,M,M,M,12000.00,M,M,M,M,M,M,M,M,M,M,73.00,KTMT 240535Z AUTO 19006KT SCT120 23/06 A3023 RMK AO2 T02270056 PWINO,M
LAS,2023-07-24 05:48,-115.1634,36.0719,663.00,94.00,60.00,32.34,30.00,8.00,T,29.95,M,10.00,M,FEW,SCT,M,M,5000.00,7000.00,M,M,M,M,M,M,M,M,M,93.84,KLAS 240548Z 03008KT 10SM FEW050 SCT070 34/16 A2995 RMK AO2 LTG DSNT N AND NW OCNL LTGIC DSNT SE AND NE RAB01E40 TSE06B26E44 VCSH CB DSNT SE AND NE P0000 T03440156,M
05U,2023-07-24 05:50,-116.0051,39.6042,1811.23,77.00,39.20,25.67,M,M,0.00,30.24,M,10.00,M,M,M,M,M,M,M,M,M,M,M,M,M,M,M,M,77.00,K05U 240550Z AUTO 10SM 25/04 A3024 RMK A01,M
P68,2023-07-24 05:53,-116.0056,39.6014,1993.00,78.00,39.00,24.65,270.00,3.00,0.00,30.21,1012.40,M,M,M,M,M,M,M,M,M,M,M,M,M,M,M,M,M,78.00,KP68 240553Z AUTO 27003KT 26/04 A3021 RMK AO1 SLP124 T02560039 10339 20250 53007,M
DRA,2023-07-24 05:53,-116.0278,36.6206,1009.00,93.00,41.00,16.48,170.00,9.00,0.00,30.03,1010.50,10.00,M,SCT,M,M,M,11000.00,M,M,M,M,M,M,M,M,M,M,88.85,KDRA 240553Z AUTO 17009KT 10SM SCT110 34/05 A3003 RMK AO2 SLP105 T03390050 10411 20333 51016,M
ELY,2023-07-24 05:53,-114.8453,39.2950,1909.00,68.00,41.00,37.32,0.00,0.00,0.00,30.27,1012.90,10.00,M,CLR,M,M,M,M,M,M,M,M,M,M,M,M,M,M,68.00,KELY 240553Z AUTO 00000KT 10SM CLR 20/05 A3027 RMK AO2 SLP129 T02000050 10317 20194 51011,M
VGT,2023-07-24 05:53,-115.1933,36.2111,667.00,95.00,58.00,29.20,50.00,4.00,T,29.96,1012.60,10.00,M,CLR,M,M,M,M,M,M,M,VCTS,M,M,M,M,M,M,94.11,KVGT 240553Z AUTO 05004KT 10SM VCTS CLR 35/14 A2996 RMK AO2 WSHFT 0513 RAB00E02B24E36 TSB27E49 SLP126 P0000 60000 T03500144 10439 20339 51027,M
LOL,2023-07-24 05:53,-118.5701,40.0684,1192.43,87.00,34.00,15.11,250.00,5.00,0.00,30.02,1011.00,10.00,M,CLR,M,M,M,M,M,M,M,M,M,M,M,M,M,M,83.45,KLOL 240553Z AUTO 25005KT 10SM CLR 31/01 A3002 RMK AO2 SLP110 T03060011 10372 20306 51018,M
BVU,2023-07-24 05:55,-114.8611,35.9475,671.00,91.40,53.60,27.83,70.00,7.00,0.00,29.95,M,10.00,M,CLR,M,M,M,M,M,M,M,M,M,M,M,M,M,M,89.08,KBVU 240555Z AUTO 07007KT 10SM CLR 33/12 A2995 RMK AO2,M
CXP,2023-07-24 05:55,-119.7326,39.1923,1431.00,75.20,42.80,31.34,0.00,0.00,0.00,30.14,M,10.00,M,CLR,M,M,M,M,M,M,M,M,M,M,M,M,M,M,75.20,KCXP 240555Z AUTO 00000KT 10SM CLR 24/06 A3014 RMK AO2,M
INS,2023-07-24 05:55,-115.6733,36.5872,955.00,90.70,51.00,25.85,90.00,19.00,0.00,30.04,1011.10,10.00,24.00,FEW,M,M,M,23000.00,M,M,M,M,M,M,M,31.00,100.00,2023-07-24 05:10,87.88,KINS 240555Z AUTO 09019G24KT 10SM FEW230 33/11 A3004 RMK AO2 PK WND 10031/10 SLP111 60000 T03260106 10396 20326 $,M
RNO,2023-07-24 05:55,-119.7711,39.4839,1341.00,83.00,40.00,21.76,270.00,5.00,0.00,30.10,1012.20,10.00,M,FEW,FEW,SCT,BKN,11000.00,14000.00,18000.00,21000.00,M,M,M,M,M,M,M,80.64,KRNO 240555Z 27005KT 10SM FEW110 FEW140 SCT180 BKN210 28/04 A3010 RMK AO2 SLP122 T02830044 10372 20283 51014,M
LSV,2023-07-24 05:55,-115.0343,36.2362,570.00,91.20,64.20,40.93,0.00,0.00,T,29.91,1009.70,10.00,M,CLR,M,M,M,M,M,M,M,M,M,M,M,M,M,M,92.85,KLSV 240555Z AUTO 00000KT 10SM CLR 33/18 A2991 RMK AO2 LTG DSNT W RAE0459 SLP097 P0000 60000 T03290179 10440 20318 $,M
RTS,2023-07-24 05:55,-119.8764,39.6682,1539.00,77.00,37.40,23.93,330.00,10.00,0.00,30.16,M,10.00,17.00,CLR,M,M,M,M,M,M,M,M,M,M,M,M,M,M,77.00,KRTS 240555Z AUTO 33010G17KT 10SM CLR 25/03 A3016 RMK AO2,M
MEV,2023-07-24 05:55,-119.7500,38.9963,1441.42,77.00,39.20,25.67,M,6.00,0.00,30.12,M,10.00,M,CLR,M,M,M,M,M,M,M,M,M,M,M,M,M,M,77.00,KMEV 240555Z AUTO VRB06KT 10SM CLR 25/04 A3012 RMK AO2,M
HTH,2023-07-24 05:55,-118.6315,38.5448,1282.89,87.80,39.20,18.09,190.00,12.00,0.00,30.09,M,10.00,M,SCT,M,M,M,11000.00,M,M,M,M,M,M,M,M,M,M,84.22,KHTH 240555Z AUTO 19012KT 10SM SCT110 31/04 A3009 RMK A01,M
TMT,2023-07-24 05:55,-117.1971,39.4643,1749.34,71.00,41.70,34.60,180.00,7.00,0.00,30.23,M,M,M,CLR,M,M,M,M,M,M,M,M,M,M,M,M,M,M,71.00,KTMT 240555Z AUTO 18007KT CLR 22/05 A3023 RMK AO2 T02170054 10307 20217 PWINO,M
BAM,2023-07-24 05:55,-116.8743,40.5990,1382.36,84.20,37.40,18.91,230.00,6.00,0.00,30.09,M,10.00,M,CLR,M,M,M,M,M,M,M,M,M,M,M,M,M,M,81.38,KBAM 240555Z AUTO 23006KT 10SM CLR 29/03 A3009 RMK AO1,M
10U,2023-07-24 05:55,-116.1876,41.9532,1637.00,80.60,32.00,17.14,210.00,4.00,0.00,30.13,M,10.00,M,FEW,BKN,M,M,7500.00,11000.00,M,M,M,M,M,M,M,M,M,78.82,K10U 240555Z AUTO 21004KT 10SM FEW075 BKN110 27/00 A3013 RMK AO2,M
EKO,2023-07-24 05:56,-115.7860,40.8242,1367.00,82.00,44.00,26.23,280.00,5.00,0.00,30.13,1012.60,10.00,M,CLR,M,M,M,M,M,M,M,M,M,M,M,M,M,M,80.21,KEKO 240556Z AUTO 28005KT 10SM CLR 28/07 A3013 RMK AO2 SLP126 60000 T02780067 10322 20256 53010,M
WMC,2023-07-24 05:56,-117.8072,40.9019,1315.00,87.00,29.00,12.35,M,3.00,0.00,30.05,1010.60,10.00,M,CLR,M,M,M,M,M,M,M,M,M,M,M,M,M,M,83.31,KWMC 240556Z AUTO VRB03KT 10SM CLR 31/M02 A3005 RMK AO2 SLP106 T03061017 10378 20283 51018,M
NFL,2023-07-24 05:56,-118.7010,39.4166,1199.00,84.00,41.00,21.90,140.00,3.00,0.00,30.04,1014.20,10.00,M,CLR,M,M,M,M,M,M,M,M,M,M,M,M,M,M,81.37,KNFL 240556Z AUTO 14003KT 10SM CLR 29/05 A3004 RMK AO2 SLP142 T02890050 10389 20289 51013,M
HND,2023-07-24 05:56,-115.1344,35.9729,742.79,94.00,58.00,30.11,0.00,0.00,0.00,30.00,1013.50,10.00,M,CLR,M,M,M,M,M,M,M,M,M,M,M,M,M,M,93.04,KHND 240556Z AUTO 00000KT 10SM CLR 34/14 A3000 RMK AO2 LTG DSNT N AND NW TSE06 SLP135 60000 T03440144 10422 20339 50018,M
TPH,2023-07-24 05:56,-117.0904,38.0505,1654.00,83.00,41.00,22.62,240.00,12.00,0.00,30.20,1011.90,10.00,M,CLR,M,M,M,M,M,M,M,M,M,M,M,M,M,M,80.69,KTPH 240556Z AUTO 24012KT 10SM CLR 28/05 A3020 RMK AO2 SLP119 T02830050 10356 20283 51014 $,M
LAS,2023-07-24 05:56,-115.1634,36.0719,663.00,94.00,58.00,30.11,20.00,8.00,T,29.95,1010.70,10.00,M,FEW,SCT,M,M,5000.00,7000.00,M,M,M,M,M,M,M,M,M,93.04,KLAS 240556Z 02008KT 10SM FEW050 SCT070 34/14 A2995 RMK AO2 LTG DSNT NW SLP107 RAB01E40 TSE06B26E44 CB DSNT SE AND NE P0000 60000 T03440144 10428 20328 50022,M
VGT,2023-07-24 06:08,-115.1933,36.2111,667.00,96.00,56.00,26.34,330.00,6.00,0.00,29.95,M,10.00,M,CLR,M,M,M,M,M,M,M,M,M,M,M,M,M,M,94.48,KVGT 240608Z AUTO 33006KT 10SM CLR 36/13 A2995 RMK AO2 T03560133,M
05U,2023-07-24 06:10,-116.0051,39.6042,1811.23,77.00,39.20,25.67,M,M,0.00,30.25,M,10.00,M,M,M,M,M,M,M,M,M,M,M,M,M,M,M,M,77.00,K05U 240610Z AUTO 10SM 25/04 A3025 RMK A01,M
DRA,2023-07-24 06:12,-116.0278,36.6206,1009.00,92.00,50.00,23.92,120.00,14.00,0.00,30.05,M,10.00,20.00,SCT,M,M,M,11000.00,M,M,M,M,M,M,M,M,M,M,88.94,KDRA 240612Z AUTO 12014G20KT 10SM SCT110 33/10 A3005 RMK AO2 WSHFT 0555 T03330100,M
BVU,2023-07-24 06:15,-114.8611,35.9475,671.00,95.00,51.80,23.30,110.00,8.00,0.00,29.95,M,10.00,M,CLR,M,M,M,M,M,M,M,M,M,M,M,M,M,M,92.26,KBVU 240615Z AUTO 11008KT 10SM CLR 35/11 A2995 RMK AO2,M
CXP,2023-07-24 06:15,-119.7326,39.1923,1431.00,75.20,42.80,31.34,0.00,0.00,0.00,30.14,M,10.00,M,CLR,M,M,M,M,M,M,M,M,M,M,M,M,M,M,75.20,KCXP 240615Z AUTO 00000KT 10SM CLR 24/06 A3014 RMK AO2,M
RTS,2023-07-24 06:15,-119.8764,39.6682,1539.00,78.80,37.40,22.54,330.00,7.00,0.00,30.16,M,10.00,M,CLR,M,M,M,M,M,M,M,M,M,M,M,M,M,M,78.80,KRTS 240615Z AUTO 33007KT 270V010 10SM CLR 26/03 A3016 RMK AO2,M
MEV,2023-07-24 06:15,-119.7500,38.9963,1441.42,75.20,41.00,29.23,0.00,0.00,0.00,30.13,M,10.00,M,CLR,M,M,M,M,M,M,M,M,M,M,M,M,M,M,75.20,KMEV 240615Z AUTO 00000KT 10SM CLR 24/05 A3013 RMK AO2,M
HTH,2023-07-24 06:15,-118.6315,38.5448,1282.89,87.80,41.00,19.40,170.00,13.00,0.00,30.10,M,10.00,M,FEW,BKN,M,M,9500.00,12000.00,M,M,M,M,M,M,M,M,M,84.30,KHTH 240615Z AUTO 17013KT 10SM FEW095 BKN120 31/05 A3010 RMK A01,M
TMT,2023-07-24 06:15,-117.1971,39.4643,1749.34,70.00,42.00,36.22,190.00,7.00,0.00,30.24,M,M,M,CLR,M,M,M,M,M,M,M,M,M,M,M,M,M,M,70.00,KTMT 240615Z AUTO 19007KT CLR 21/06 A3024 RMK AO2 T02110055 PWINO,M
10U,2023-07-24 06:15,-116.1876,41.9532,1637.00,78.80,32.00,18.18,180.00,9.00,0.00,30.13,M,10.00,M,BKN,M,M,M,12000.00,M,M,M,M,M,M,M,M,M,M,78.80,K10U 240615Z AUTO 18009KT 10SM BKN120 26/M00 A3013 RMK AO2,M
BAM,2023-07-24 06:15,-116.8743,40.5990,1382.36,82.40,35.60,18.67,250.00,4.00,0.00,30.09,M,10.00,M,CLR,M,M,M,M,M,M,M,M,M,M,M,M,M,M,80.08,KBAM 240615Z AUTO 25004KT 10SM CLR 28/02 A3009 RMK AO1,M
05U,2023-07-24 06:30,-116.0051,39.6042,1811.23,77.00,39.20,25.67,M,M,0.00,30.25,M,10.00,M,M,M,M,M,M,M,M,M,M,M,M,M,M,M,M,77.00,K05U 240630Z AUTO 10SM 25/04 A3025 RMK A01,M
BVU,2023-07-24 06:35,-114.8611,35.9475,671.00,93.20,51.80,24.63,120.00,7.00,0.00,29.94,M,10.00,M,CLR,M,M,M,M,M,M,M,M,M,M,M,M,M,M,90.45,KBVU 240635Z AUTO 12007KT 10SM CLR 34/11 A2994 RMK AO2,M
CXP,2023-07-24 06:35,-119.7326,39.1923,1431.00,73.40,42.80,33.29,0.00,0.00,0.00,30.15,M,10.00,M,CLR,M,M,M,M,M,M,M,M,M,M,M,M,M,M,73.40,KCXP 240635Z AUTO 00000KT 10SM CLR 23/06 A3015 RMK AO2,M
RTS,2023-07-24 06:35,-119.8764,39.6682,1539.00,78.80,37.40,22.54,260.00,9.00,0.00,30.17,M,10.00,M,CLR,M,M,M,M,M,M,M,M,M,M,M,M,M,M,78.80,KRTS 240635Z AUTO 26009KT 240V300 10SM CLR 26/03 A3017 RMK AO2,M
MEV,2023-07-24 06:35,-119.7500,38.9963,1441.42,78.80,39.20,24.19,140.00,7.00,0.00,30.13,M,10.00,13.00,CLR,M,M,M,M,M,M,M,M,M,M,M,M,M,M,78.80,KMEV 240635Z AUTO 14007G13KT 10SM CLR 26/04 A3013 RMK AO2,M
HTH,2023-07-24 06:35,-118.6315,38.5448,1282.89,86.00,41.00,20.54,140.00,10.00,0.00,30.10,M,10.00,M,FEW,SCT,BKN,M,6500.00,8000.00,12000.00,M,M,M,M,M,M,M,M,82.86,KHTH 240635Z AUTO 14010KT 10SM FEW065 SCT080 BKN120 30/05 A3010 RMK A01,M
10U,2023-07-24 06:35,-116.1876,41.9532,1637.00,82.40,30.20,15.03,190.00,7.00,0.00,30.14,M,10.00,M,SCT,M,M,M,12000.00,M,M,M,M,M,M,M,M,M,M,79.97,K10U 240635Z AUTO 19007KT 10SM SCT120 28/M01 A3014 RMK AO2,M
BAM,2023-07-24 06:35,-116.8743,40.5990,1382.36,84.20,35.60,17.61,250.00,5.00,0.00,30.09,M,10.00,M,CLR,M,M,M,M,M,M,M,M,M,M,M,M,M,M,81.34,KBAM 240635Z AUTO 25005KT 10SM CLR 29/02 A3009 RMK AO1,M
TMT,2023-07-24 06:35,-117.1971,39.4643,1749.34,72.50,41.00,32.01,200.00,10.00,0.00,30.24,M,M,M,SCT,M,M,M,12000.00,M,M,M,M,M,M,M,M,M,M,72.50,KTMT 240635Z AUTO 20010KT SCT120 23/05 A3024 RMK AO2 T02250049 PWINO,M
05U,2023-07-24 06:50,-116.0051,39.6042,1811.23,78.80,39.20,24.19,M,M,0.00,30.27,M,10.00,M,M,M,M,M,M,M,M,M,M,M,M,M,M,M,M,78.80,K05U 240650Z AUTO 10SM 26/04 A3027 RMK A01,M
P68,2023-07-24 06:53,-116.0056,39.6014,1993.00,80.00,39.00,23.08,160.00,8.00,0.00,30.24,1012.90,M,M,M,M,M,M,M,M,M,M,M,M,M,M,M,M,M,78.78,KP68 240653Z AUTO 16008KT 27/04 A3024 RMK AO1 SLP129 T02670039,M
DRA,2023-07-24 06:53,-116.0278,36.6206,1009.00,91.00,53.00,27.57,70.00,8.00,0.00,30.03,1010.20,10.00,M,CLR,M,M,M,M,M,M,M,M,M,M,M,M,M,M,88.55,KDRA 240653Z AUTO 07008KT 10SM CLR 33/12 A3003 RMK AO2 WSHFT 0555 SLP102 T03280117,M
ELY,2023-07-24 06:53,-114.8453,39.2950,1909.00,66.00,42.00,41.57,180.00,17.00,0.00,30.30,1013.80,10.00,21.00,SCT,M,M,M,12000.00,M,M,M,M,M,M,M,M,M,M,66.00,KELY 240653Z AUTO 18017G21KT 10SM SCT120 19/06 A3030 RMK AO2 LTG DSNT SE SLP138 T01890056,M
VGT,2023-07-24 06:53,-115.1933,36.2111,667.00,93.00,60.00,33.36,290.00,6.00,0.00,29.95,1012.40,10.00,M,CLR,M,M,M,M,M,M,M,M,M,M,M,M,M,M,92.76,KVGT 240653Z AUTO 29006KT 10SM CLR 34/16 A2995 RMK AO2 SLP124 T03390156,M
LOL,2023-07-24 06:53,-118.5701,40.0684,1192.43,81.00,35.00,19.08,220.00,6.00,0.00,30.03,1011.40,10.00,M,CLR,M,M,M,M,M,M,M,M,M,M,M,M,M,M,79.16,KLOL 240653Z AUTO 22006KT 10SM CLR 27/02 A3003 RMK AO2 SLP114 T02720017,M
BVU,2023-07-24 06:55,-114.8611,35.9475,671.00,93.20,51.80,24.63,140.00,5.00,0.00,29.94,M,10.00,M,CLR,M,M,M,M,M,M,M,M,M,M,M,M,M,M,90.45,KBVU 240655Z AUTO 14005KT 10SM CLR 34/11 A2994 RMK AO2,M
CXP,2023-07-24 06:55,-119.7326,39.1923,1431.00,73.40,42.80,33.29,0.00,0.00,0.00,30.15,M,10.00,M,CLR,M,M,M,M,M,M,M,M,M,M,M,M,M,M,73.40,KCXP 240655Z AUTO 00000KT 10SM CLR 23/06 A3015 RMK AO2,M
INS,2023-07-24 06:55,-115.6733,36.5872,955.00,88.30,52.00,28.93,60.00,8.00,0.00,30.02,1010.60,10.00,M,SCT,M,M,M,16000.00,M,M,M,M,M,M,M,M,M,M,85.86,KINS 240655Z AUTO 06008KT 10SM SCT160 31/11 A3002 RMK AO2 SLP106 T03130111 $,M
RNO,2023-07-24 06:55,-119.7711,39.4839,1341.00,81.00,41.00,24.14,260.00,5.00,0.00,30.11,1012.30,10.00,M,SCT,BKN,M,M,11000.00,18000.00,M,M,M,M,M,M,M,M,M,79.43,KRNO 240655Z 26005KT 10SM SCT110 BKN180 27/05 A3011 RMK AO2 SLP123 T02720050,M
LSV,2023-07-24 06:55,-115.0343,36.2362,570.00,92.00,59.50,33.81,0.00,0.00,0.00,29.90,1009.40,10.00,M,CLR,M,M,M,M,M,M,M,M,M,M,M,M,M,M,91.49,KLSV 240655Z AUTO 00000KT 10SM CLR 33/15 A2990 RMK AO2 SLP094 T03330153 $,M
RTS,2023-07-24 06:55,-119.8764,39.6682,1539.00,80.60,35.60,19.79,200.00,12.00,0.00,30.17,M,10.00,22.00,CLR,M,M,M,M,M,M,M,M,M,M,M,M,M,M,78.94,KRTS 240655Z AUTO 20012G22KT 10SM CLR 27/02 A3017 RMK AO2,M
MEV,2023-07-24 06:55,-119.7500,38.9963,1441.42,77.00,39.20,25.67,170.00,8.00,0.00,30.13,M,10.00,M,CLR,M,M,M,M,M,M,M,M,M,M,M,M,M,M,77.00,KMEV 240655Z AUTO 17008KT 10SM CLR 25/04 A3013 RMK AO2,M
HTH,2023-07-24 06:55,-118.6315,38.5448,1282.89,87.80,39.20,18.09,150.00,10.00,0.00,30.10,M,10.00,M,FEW,SCT,M,M,8000.00,11000.00,M,M,M,M,M,M,M,M,M,84.22,KHTH 240655Z AUTO 15010KT 10SM FEW080 SCT110 31/04 A3010 RMK A01,M
TMT,2023-07-24 06:55,-117.1971,39.4643,1749.34,73.40,41.00,31.05,200.00,7.00,0.00,30.24,M,M,M,SCT,M,M,M,12000.00,M,M,M,M,M,M,M,M,M,M,73.40,KTMT 240655Z AUTO 20007KT SCT120 23/05 A3024 RMK AO2 T02300051 PWINO,M
BAM,2023-07-24 06:55,-116.8743,40.5990,1382.36,84.20,35.60,17.61,210.00,5.00,0.00,30.09,M,10.00,M,CLR,M,M,M,M,M,M,M,M,M,M,M,M,M,M,81.34,KBAM 240655Z AUTO 21005KT 10SM CLR 29/02 A3009 RMK AO1,M
10U,2023-07-24 06:55,-116.1876,41.9532,1637.00,78.80,32.00,18.18,200.00,6.00,0.00,30.14,M,10.00,M,FEW,M,M,M,12000.00,M,M,M,M,M,M,M,M,M,M,78.80,K10U 240655Z AUTO 20006KT 10SM FEW120 26/M00 A3014 RMK AO2,M
EKO,2023-07-24 06:56,-115.7860,40.8242,1367.00,77.00,48.00,35.95,0.00,0.00,0.00,30.14,1012.90,10.00,M,CLR,M,M,M,M,M,M,M,M,M,M,M,M,M,M,77.00,KEKO 240656Z AUTO 00000KT 10SM CLR 25/09 A3014 RMK AO2 SLP129 T02500089,M
WMC,2023-07-24 06:56,-117.8072,40.9019,1315.00,86.00,30.00,13.28,280.00,10.00,0.00,30.05,1010.80,10.00,M,CLR,M,M,M,M,M,M,M,M,M,M,M,M,M,M,82.64,KWMC 240656Z AUTO 28010KT 10SM CLR 30/M01 A3005 RMK AO2 SLP108 T03001011,M
NFL,2023-07-24 06:56,-118.7010,39.4166,1199.00,83.00,42.00,23.51,330.00,5.00,0.00,30.05,1014.50,10.00,M,CLR,M,M,M,M,M,M,M,M,M,M,M,M,M,M,80.74,KNFL 240656Z AUTO 33005KT 10SM CLR 28/06 A3005 RMK AO2 SLP145 T02830056,M
HND,2023-07-24 06:56,-115.1344,35.9729,742.79,89.00,66.00,46.70,190.00,6.00,0.00,30.00,1013.60,10.00,M,CLR,M,M,M,M,M,M,M,M,M,M,M,M,M,M,91.49,KHND 240656Z AUTO 19006KT 10SM CLR 32/19 A3000 RMK AO2 SLP136 T03170189 404330317,M
TPH,2023-07-24 06:56,-117.0904,38.0505,1654.00,82.00,42.00,24.29,300.00,8.00,0.00,30.21,1012.10,10.00,M,BKN,M,M,M,12000.00,M,M,M,M,M,M,M,M,M,M,80.09,KTPH 240656Z AUTO 30008KT 10SM BKN120 28/06 A3021 RMK AO2 LTG DSNT SW SLP121 T02780056 $,M
LAS,2023-07-24 06:56,-115.1634,36.0719,663.00,91.00,61.00,36.80,290.00,5.00,0.00,29.95,1010.70,10.00,M,FEW,FEW,M,M,7000.00,14000.00,M,M,M,M,M,M,M,M,M,91.06,KLAS 240656Z 29005KT 10SM FEW070 FEW140 33/16 A2995 RMK AO2 SLP107 T03280161,M
05U,2023-07-24 07:10,-116.0051,39.6042,1811.23,78.80,41.00,25.95,M,M,0.00,30.26,M,10.00,M,M,M,M,M,M,M,M,M,M,M,M,M,M,M,M,78.80,K05U 240710Z AUTO 10SM 26/05 A3026 RMK A01,M
BVU,2023-07-24 07:15,-114.8611,35.9475,671.00,93.20,51.80,24.63,160.00,6.00,0.00,29.94,M,10.00,M,CLR,M,M,M,M,M,M,M,M,M,M,M,M,M,M,90.45,KBVU 240715Z AUTO 16006KT 10SM CLR 34/11 A2994 RMK AO2,M
CXP,2023-07-24 07:15,-119.7326,39.1923,1431.00,73.40,41.00,31.05,50.00,4.00,0.00,30.15,M,10.00,M,CLR,M,M,M,M,M,M,M,M,M,M,M,M,M,M,73.40,KCXP 240715Z AUTO 05004KT 10SM CLR 23/05 A3015 RMK AO2,M
RTS,2023-07-24 07:15,-119.8764,39.6682,1539.00,78.80,35.60,21.00,280.00,8.00,0.00,30.16,M,10.00,20.00,CLR,M,M,M,M,M,M,M,M,M,M,M,M,M,M,78.80,KRTS 240715Z AUTO 28008G20KT 250V310 10SM CLR 26/02 A3016 RMK AO2,M
MEV,2023-07-24 07:15,-119.7500,38.9963,1441.42,77.00,41.00,27.53,210.00,4.00,0.00,30.14,M,10.00,M,CLR,M,M,M,M,M,M,M,M,M,M,M,M,M,M,77.00,KMEV 240715Z AUTO 21004KT 10SM CLR 25/05 A3014 RMK AO2,M
HTH,2023-07-24 07:15,-118.6315,38.5448,1282.89,86.00,41.00,20.54,170.00,11.00,0.00,30.09,M,10.00,M,FEW,M,M,M,11000.00,M,M,M,M,M,M,M,M,M,M,82.86,KHTH 240715Z AUTO 17011KT 10SM FEW110 30/05 A3009 RMK A01,M
TMT,2023-07-24 07:15,-117.1971,39.4643,1749.34,73.60,41.00,30.85,220.00,5.00,0.00,30.24,M,M,M,SCT,M,M,M,12000.00,M,M,M,M,M,M,M,M,M,M,73.60,KTMT 240715Z AUTO 22005KT SCT120 23/05 A3024 RMK AO2 T02310051 PWINO,M
10U,2023-07-24 07:15,-116.1876,41.9532,1637.00,78.80,32.00,18.18,170.00,5.00,0.00,30.14,M,10.00,M,FEW,M,M,M,12000.00,M,M,M,M,M,M,M,M,M,M,78.80,K10U 240715Z AUTO 17005KT 10SM FEW120 26/M00 A3014 RMK AO2,M
BAM,2023-07-24 07:15,-116.8743,40.5990,1382.36,80.60,37.40,21.25,0.00,0.00,0.00,30.09,M,10.00,M,CLR,M,M,M,M,M,M,M,M,M,M,M,M,M,M,79.02,KBAM 240715Z AUTO 00000KT 10SM CLR 27/03 A3009 RMK AO1,M
05U,2023-07-24 07:30,-116.0051,39.6042,1811.23,78.80,41.00,25.95,M,M,0.00,30.26,M,10.00,M,M,M,M,M,M,M,M,M,M,M,M,M,M,M,M,78.80,K05U 240730Z AUTO 10SM 26/05 A3026 RMK A01,M
BVU,2023-07-24 07:35,-114.8611,35.9475,671.00,93.20,51.80,24.63,170.00,8.00,0.00,29.94,M,10.00,M,CLR,M,M,M,M,M,M,M,M,M,M,M,M,M,M,90.45,KBVU 240735Z AUTO 17008KT 10SM CLR 34/11 A2994 RMK AO2,M
CXP,2023-07-24 07:35,-119.7326,39.1923,1431.00,75.20,41.00,29.23,70.00,3.00,0.00,30.15,M,10.00,M,CLR,M,M,M,M,M,M,M,M,M,M,M,M,M,M,75.20,KCXP 240735Z AUTO 07003KT 10SM CLR 24/05 A3015 RMK AO2,M
RTS,2023-07-24 07:35,-119.8764,39.6682,1539.00,77.00,37.40,23.93,330.00,10.00,0.00,30.17,M,10.00,16.00,CLR,M,M,M,M,M,M,M,M,M,M,M,M,M,M,77.00,KRTS 240735Z AUTO 33010G16KT 10SM CLR 25/03 A3017 RMK AO2,M
MEV,2023-07-24 07:35,-119.7500,38.9963,1441.42,75.20,41.00,29.23,0.00,0.00,0.00,30.14,M,10.00,M,CLR,M,M,M,M,M,M,M,M,M,M,M,M,M,M,75.20,KMEV 240735Z AUTO 00000KT 10SM CLR 24/05 A3014 RMK AO2,M
HTH,2023-07-24 07:35,-118.6315,38.5448,1282.89,86.00,41.00,20.54,160.00,11.00,0.00,30.09,M,10.00,M,SCT,M,M,M,11000.00,M,M,M,M,M,M,M,M,M,M,82.86,KHTH 240735Z AUTO 16011KT 10SM SCT110 30/05 A3009 RMK A01,M
TMT,2023-07-24 07:35,-117.1971,39.4643,1749.34,69.00,46.80,45.01,0.00,0.00,0.00,30.24,M,M,M,SCT,M,M,M,11000.00,M,M,M,M,M,M,M,M,M,M,69.00,KTMT 240735Z AUTO 00000KT SCT110 21/08 A3024 RMK AO2 T02050082 PWINO,M
10U,2023-07-24 07:35,-116.1876,41.9532,1637.00,78.80,32.00,18.18,180.00,5.00,0.00,30.14,M,10.00,M,CLR,M,M,M,M,M,M,M,M,M,M,M,M,M,M,78.80,K10U 240735Z AUTO 18005KT 10SM CLR 26/00 A3014 RMK AO2,M
BAM,2023-07-24 07:35,-116.8743,40.5990,1382.36,82.40,37.40,20.04,0.00,0.00,0.00,30.09,M,10.00,M,CLR,M,M,M,M,M,M,M,M,M,M,M,M,M,M,80.14,KBAM 240735Z AUTO 00000KT 10SM CLR 28/03 A3009 RMK AO1,M
05U,2023-07-24 07:50,-116.0051,39.6042,1811.23,78.80,41.00,25.95,M,M,0.00,30.26,M,10.00,M,M,M,M,M,M,M,M,M,M,M,M,M,M,M,M,78.80,K05U 240750Z AUTO 10SM 26/05 A3026 RMK A01,M
P68,2023-07-24 07:53,-116.0056,39.6014,1993.00,80.00,40.00,23.99,170.00,11.00,0.00,30.24,1012.70,M,M,M,M,M,M,M,M,M,M,M,M,M,M,M,M,M,78.83,KP68 240753Z AUTO 17011KT 27/04 A3024 RMK AO1 SLP127 T02670044 403720144,M
DRA,2023-07-24 07:53,-116.0278,36.6206,1009.00,89.00,53.00,29.36,190.00,5.00,0.00,30.02,1009.90,10.00,M,CLR,M,M,M,M,M,M,M,M,M,M,M,M,M,M,86.68,KDRA 240753Z AUTO 19005KT 10SM CLR 32/12 A3002 RMK AO2 SLP099 T03170117 404330289,M
ELY,2023-07-24 07:53,-114.8453,39.2950,1909.00,70.00,44.00,39.11,0.00,0.00,T,30.29,1013.00,10.00,M,CLR,M,M,M,M,M,M,M,M,M,M,M,M,M,M,70.00,KELY 240753Z AUTO 00000KT 10SM CLR 21/07 A3029 RMK AO2 RAB15E24 SLP130 P0000 T02110067 403560144,M
VGT,2023-07-24 07:53,-115.1933,36.2111,667.00,93.00,60.00,33.36,280.00,5.00,0.00,29.94,1011.80,10.00,M,CLR,M,M,M,M,M,M,M,M,M,M,M,M,M,M,92.76,KVGT 240753Z AUTO 28005KT 10SM CLR 34/16 A2994 RMK AO2 SLP118 T03390156 404500317,M
LOL,2023-07-24 07:53,-118.5701,40.0684,1192.43,75.00,39.00,27.23,170.00,9.00,0.00,30.04,1012.00,10.00,M,CLR,M,M,M,M,M,M,M,M,M,M,M,M,M,M,75.00,KLOL 240753Z AUTO 17009KT 10SM CLR 24/04 A3004 RMK AO2 SLP120 T02390039 403830161,M
BVU,2023-07-24 07:55,-114.8611,35.9475,671.00,93.20,51.80,24.63,160.00,7.00,0.00,29.94,M,10.00,M,CLR,M,M,M,M,M,M,M,M,M,M,M,M,M,M,90.45,KBVU 240755Z AUTO 16007KT 10SM CLR 34/11 A2994 RMK AO2,M
CXP,2023-07-24 07:55,-119.7326,39.1923,1431.00,71.60,42.80,35.37,0.00,0.00,0.00,30.15,M,10.00,M,CLR,M,M,M,M,M,M,M,M,M,M,M,M,M,M,71.60,KCXP 240755Z AUTO 00000KT 10SM CLR 22/06 A3015 RMK AO2,M
INS,2023-07-24 07:55,-115.6733,36.5872,955.00,86.70,51.60,29.99,40.00,7.00,0.00,30.00,1009.90,10.00,M,FEW,M,M,M,14000.00,M,M,M,M,M,M,M,M,M,M,84.42,KINS 240755Z AUTO 04007KT 10SM FEW140 30/11 A3000 RMK AO2 SLP099 T03040109 404140244 $,M
RNO,2023-07-24 07:55,-119.7711,39.4839,1341.00,80.00,40.00,23.99,M,3.00,0.00,30.10,1012.10,10.00,M,SCT,BKN,M,M,11000.00,18000.00,M,M,M,M,M,M,M,M,M,78.83,KRNO 240755Z VRB03KT 10SM SCT110 BKN180 27/04 A3010 RMK AO2 SLP121 T02670044 404000183,M
RTS,2023-07-24 07:55,-119.8764,39.6682,1539.00,77.00,37.40,23.93,350.00,12.00,0.00,30.16,M,10.00,M,CLR,M,M,M,M,M,M,M,M,M,M,M,M,M,M,77.00,KRTS 240755Z AUTO 35012KT 10SM CLR 25/03 A3016 RMK AO2,M
MEV,2023-07-24 07:55,-119.7500,38.9963,1441.42,69.80,41.00,35.09,0.00,0.00,0.00,30.14,M,10.00,M,CLR,M,M,M,M,M,M,M,M,M,M,M,M,M,M,69.80,KMEV 240755Z AUTO 00000KT 10SM CLR 21/05 A3014 RMK AO2,M
HTH,2023-07-24 07:55,-118.6315,38.5448,1282.89,86.00,41.00,20.54,150.00,8.00,0.00,30.09,M,10.00,M,FEW,M,M,M,11000.00,M,M,M,M,M,M,M,M,M,M,82.86,KHTH 240755Z AUTO 15008KT 10SM FEW110 30/05 A3009 RMK A01,M
TMT,2023-07-24 07:55,-117.1971,39.4643,1749.34,68.40,46.60,45.60,0.00,0.00,0.00,30.24,M,M,M,BKN,M,M,M,12000.00,M,M,M,M,M,M,M,M,M,M,68.40,KTMT 240755Z AUTO 00000KT BKN120 20/08 A3024 RMK AO2 T02020081 403470081 PWINO,M
BAM,2023-07-24 07:55,-116.8743,40.5990,1382.36,82.40,37.40,20.04,0.00,0.00,0.00,30.09,M,10.00,M,CLR,M,M,M,M,M,M,M,M,M,M,M,M,M,M,80.14,KBAM 240755Z AUTO 00000KT 10SM CLR 28/03 A3009 RMK AO1,M
10U,2023-07-24 07:55,-116.1876,41.9532,1637.00,78.80,32.00,18.18,190.00,7.00,0.00,30.14,M,10.00,M,CLR,M,M,M,M,M,M,M,M,M,M,M,M,M,M,78.80,K10U 240755Z AUTO 19007KT 10SM CLR 26/00 A3014 RMK AO2,M
LSV,2023-07-24 07:55,-115.0343,36.2362,570.00,90.30,59.00,35.03,0.00,0.00,0.00,29.89,1009.00,10.00,M,CLR,M,M,M,M,M,M,M,M,M,M,M,M,M,M,89.56,KLSV 240755Z AUTO 00000KT 10SM CLR 32/15 A2989 RMK AO2 SLP090 T03240149 404470318 $,M
EKO,2023-07-24 07:56,-115.7860,40.8242,1367.00,76.00,47.00,35.80,0.00,0.00,0.00,30.14,1012.90,10.00,M,FEW,M,M,M,12000.00,M,M,M,M,M,M,M,M,M,M,76.00,KEKO 240756Z AUTO 00000KT 10SM FEW120 24/08 A3014 RMK AO2 SLP129 T02440083 403940156,M
WMC,2023-07-24 07:56,-117.8072,40.9019,1315.00,80.00,31.00,16.79,0.00,0.00,0.00,30.07,1011.40,10.00,M,CLR,M,M,M,M,M,M,M,M,M,M,M,M,M,M,78.49,KWMC 240756Z AUTO 00000KT 10SM CLR 27/M01 A3007 RMK AO2 SLP114 T02671006 403890128,M
NFL,2023-07-24 07:56,-118.7010,39.4166,1199.00,82.00,44.00,26.23,310.00,6.00,0.00,30.05,1014.40,10.00,M,CLR,M,M,M,M,M,M,M,M,M,M,M,M,M,M,80.21,KNFL 240756Z AUTO 31006KT 10SM CLR 28/07 A3005 RMK AO2 SLP144 T02780067 403940183,M
HND,2023-07-24 07:56,-115.1344,35.9729,742.79,89.00,61.00,39.18,150.00,5.00,0.00,29.99,1013.40,10.00,M,CLR,M,M,M,M,M,M,M,M,M,M,M,M,M,M,89.01,KHND 240756Z AUTO 15005KT 10SM CLR 32/16 A2999 RMK AO2 SLP134 T03170161,M
TPH,2023-07-24 07:56,-117.0904,38.0505,1654.00,80.00,44.00,27.99,260.00,7.00,0.00,30.24,1013.30,10.00,M,OVC,M,M,M,11000.00,M,M,M,M,M,M,M,M,M,M,79.06,KTPH 240756Z AUTO 26007KT 10SM OVC110 27/07 A3024 RMK AO2 SLP133 T02670067 403720172 $,M
LAS,2023-07-24 07:56,-115.1634,36.0719,663.00,92.00,57.00,30.91,220.00,4.00,0.00,29.94,1010.40,10.00,M,FEW,BKN,M,M,14000.00,25000.00,M,M,M,M,M,M,M,M,M,90.60,KLAS 240756Z 22004KT 10SM FEW140 BKN250 33/14 A2994 RMK AO2 SLP104 T03330139 404330328,M
05U,2023-07-24 08:10,-116.0051,39.6042,1811.23,78.80,41.00,25.95,M,M,0.00,30.27,M,10.00,M,M,M,M,M,M,M,M,M,M,M,M,M,M,M,M,78.80,K05U 240810Z AUTO 10SM 26/05 A3027 RMK A01,M
BVU,2023-07-24 08:15,-114.8611,35.9475,671.00,91.40,51.80,26.05,160.00,7.00,0.00,29.94,M,10.00,M,CLR,M,M,M,M,M,M,M,M,M,M,M,M,M,M,88.69,KBVU 240815Z AUTO 16007KT 10SM CLR 33/11 A2994 RMK AO2,M
CXP,2023-07-24 08:15,-119.7326,39.1923,1431.00,71.60,41.00,33.00,0.00,0.00,0.00,30.14,M,10.00,M,CLR,M,M,M,M,M,M,M,M,M,M,M,M,M,M,71.60,KCXP 240815Z AUTO 00000KT 10SM CLR 22/05 A3014 RMK AO2,M
RTS,2023-07-24 08:15,-119.8764,39.6682,1539.00,78.80,37.40,22.54,300.00,17.00,0.00,30.16,M,10.00,27.00,CLR,M,M,M,M,M,M,M,M,M,M,M,M,M,M,78.80,KRTS 240815Z AUTO 30017G27KT 250V320 10SM CLR 26/03 A3016 RMK AO2,M
MEV,2023-07-24 08:15,-119.7500,38.9963,1441.42,69.80,41.00,35.09,150.00,3.00,0.00,30.14,M,10.00,M,CLR,M,M,M,M,M,M,M,M,M,M,M,M,M,M,69.80,KMEV 240815Z AUTO 15003KT 10SM CLR 21/05 A3014 RMK AO2,M
HTH,2023-07-24 08:15,-118.6315,38.5448,1282.89,84.20,41.00,21.76,130.00,11.00,0.00,30.09,M,10.00,M,FEW,M,M,M,11000.00,M,M,M,M,M,M,M,M,M,M,81.52,KHTH 240815Z AUTO 13011KT 10SM FEW110 29/05 A3009 RMK A01,M
TMT,2023-07-24 08:15,-117.1971,39.4643,1749.34,68.50,44.20,41.48,230.00,3.00,0.00,30.24,M,M,M,BKN,M,M,M,12000.00,M,M,M,M,M,M,M,M,M,M,68.50,KTMT 240815Z AUTO 23003KT BKN120 20/07 A3024 RMK AO2 T02030068 PWINO,M
10U,2023-07-24 08:15,-116.1876,41.9532,1637.00,77.00,33.80,20.74,170.00,7.00,0.00,30.13,M,10.00,M,CLR,M,M,M,M,M,M,M,M,M,M,M,M,M,M,77.00,K10U 240815Z AUTO 17007KT 10SM CLR 25/01 A3013 RMK AO2,M
BAM,2023-07-24 08:15,-116.8743,40.5990,1382.36,82.40,37.40,20.04,0.00,0.00,0.00,30.09,M,10.00,M,CLR,M,M,M,M,M,M,M,M,M,M,M,M,M,M,80.14,KBAM 240815Z AUTO 00000KT 10SM CLR 28/03 A3009 RMK AO1,M
05U,2023-07-24 08:30,-116.0051,39.6042,1811.23,77.00,41.00,27.53,M,M,0.00,30.27,M,10.00,M,M,M,M,M,M,M,M,M,M,M,M,M,M,M,M,77.00,K05U 240830Z AUTO 10SM 25/05 A3027 RMK A01,M
BVU,2023-07-24 08:35,-114.8611,35.9475,671.00,93.20,51.80,24.63,150.00,8.00,0.00,29.94,M,10.00,M,CLR,M,M,M,M,M,M,M,M,M,M,M,M,M,M,90.45,KBVU 240835Z AUTO 15008KT 10SM CLR 34/11 A2994 RMK AO2,M
CXP,2023-07-24 08:35,-119.7326,39.1923,1431.00,71.60,42.80,35.37,0.00,0.00,0.00,30.14,M,10.00,M,CLR,M,M,M,M,M,M,M,M,M,M,M,M,M,M,71.60,KCXP 240835Z AUTO 00000KT 10SM CLR 22/06 A3014 RMK AO2,M
RTS,2023-07-24 08:35,-119.8764,39.6682,1539.00,75.20,37.40,25.40,320.00,14.00,0.00,30.16,M,10.00,M,CLR,M,M,M,M,M,M,M,M,M,M,M,M,M,M,75.20,KRTS 240835Z AUTO 32014KT 10SM CLR 24/03 A3016 RMK AO2,M
MEV,2023-07-24 08:35,-119.7500,38.9963,1441.42,64.40,42.80,45.32,160.00,3.00,0.00,30.13,M,10.00,M,CLR,M,M,M,M,M,M,M,M,M,M,M,M,M,M,64.40,KMEV 240835Z AUTO 16003KT 10SM CLR 18/06 A3013 RMK AO2,M
HTH,2023-07-24 08:35,-118.6315,38.5448,1282.89,84.20,41.00,21.76,150.00,9.00,0.00,30.08,M,10.00,M,FEW,M,M,M,12000.00,M,M,M,M,M,M,M,M,M,M,81.52,KHTH 240835Z AUTO 15009KT 10SM FEW120 29/05 A3008 RMK A01,M
10U,2023-07-24 08:35,-116.1876,41.9532,1637.00,78.80,32.00,18.18,170.00,8.00,0.00,30.13,M,10.00,M,CLR,M,M,M,M,M,M,M,M,M,M,M,M,M,M,78.80,K10U 240835Z AUTO 17008KT 10SM CLR 26/00 A3013 RMK AO2,M
BAM,2023-07-24 08:35,-116.8743,40.5990,1382.36,80.60,37.40,21.25,280.00,4.00,0.00,30.09,M,10.00,M,CLR,M,M,M,M,M,M,M,M,M,M,M,M,M,M,79.02,KBAM 240835Z AUTO 28004KT 10SM CLR 27/03 A3009 RMK AO1,M
TMT,2023-07-24 08:35,-117.1971,39.4643,1749.34,67.30,45.70,45.77,0.00,0.00,0.00,30.24,M,M,M,SCT,M,M,M,12000.00,M,M,M,M,M,M,M,M,M,M,67.30,KTMT 240835Z AUTO 00000KT SCT120 20/08 A3024 RMK AO2 T01960076 PWINO,M
05U,2023-07-24 08:50,-116.0051,39.6042,1811.23,75.20,41.00,29.23,M,M,0.00,30.26,M,10.00,M,M,M,M,M,M,M,M,M,M,M,M,M,M,M,M,75.20,K05U 240850Z AUTO 10SM 24/05 A3026 RMK A01,M
P68,2023-07-24 08:53,-116.0056,39.6014,1993.00,76.00,42.00,29.59,220.00,3.00,0.00,30.23,1012.80,M,M,M,M,M,M,M,M,M,M,M,M,M,M,M,M,M,76.00,KP68 240853Z AUTO 22003KT 24/06 A3023 RMK AO1 SLP128 T02440056 50005,M
DRA,2023-07-24 08:53,-116.0278,36.6206,1009.00,88.00,52.00,29.21,0.00,0.00,0.00,30.02,1010.00,10.00,M,CLR,M,M,M,M,M,M,M,M,M,M,M,M,M,M,85.60,KDRA 240853Z AUTO 00000KT 10SM CLR 31/11 A3002 RMK AO2 SLP100 T03110111 55004,M
ELY,2023-07-24 08:53,-114.8453,39.2950,1909.00,70.00,43.00,37.64,200.00,8.00,0.00,30.29,1013.00,10.00,M,CLR,M,M,M,M,M,M,M,M,M,M,M,M,M,M,70.00,KELY 240853Z AUTO 20008KT 10SM CLR 21/06 A3029 RMK AO2 SLP130 60000 T02110061 51005,M
VGT,2023-07-24 08:53,-115.1933,36.2111,667.00,92.00,61.00,35.66,0.00,0.00,0.00,29.94,1011.90,10.00,M,CLR,M,M,M,M,M,M,M,M,M,M,M,M,M,M,92.12,KVGT 240853Z AUTO 00000KT 10SM CLR 33/16 A2994 RMK AO2 SLP119 T03330161 55005,M
LOL,2023-07-24 08:53,-118.5701,40.0684,1192.43,77.00,38.00,24.50,0.00,0.00,0.00,30.04,1011.60,10.00,M,CLR,M,M,M,M,M,M,M,M,M,M,M,M,M,M,77.00,KLOL 240853Z AUTO 00000KT 10SM CLR 25/03 A3004 RMK AO2 SLP116 T02500033 50004,M
BVU,2023-07-24 08:55,-114.8611,35.9475,671.00,91.40,51.80,26.05,160.00,7.00,0.00,29.94,M,10.00,M,CLR,M,M,M,M,M,M,M,M,M,M,M,M,M,M,88.69,KBVU 240855Z AUTO 16007KT 10SM CLR 33/11 A2994 RMK AO2,M
CXP,2023-07-24 08:55,-119.7326,39.1923,1431.00,68.00,44.60,42.85,0.00,0.00,0.00,30.13,M,10.00,M,CLR,M,M,M,M,M,M,M,M,M,M,M,M,M,M,68.00,KCXP 240855Z AUTO 00000KT 10SM CLR 20/07 A3013 RMK AO2,M
INS,2023-07-24 08:55,-115.6733,36.5872,955.00,85.60,51.40,30.84,140.00,6.00,0.00,30.01,1010.20,10.00,M,CLR,M,M,M,M,M,M,M,M,M,M,M,M,M,M,83.49,KINS 240855Z AUTO 14006KT 10SM CLR 30/11 A3001 RMK AO2 SLP102 T02980108 55008 $,M
RNO,2023-07-24 08:55,-119.7711,39.4839,1341.00,79.00,39.00,23.85,0.00,0.00,0.00,30.10,1011.70,10.00,M,SCT,BKN,M,M,10000.00,18000.00,M,M,M,M,M,M,M,M,M,79.00,KRNO 240855Z 00000KT 10SM SCT100 BKN180 26/04 A3010 RMK AO2 SLP117 T02610039 58001,M
RTS,2023-07-24 08:55,-119.8764,39.6682,1539.00,73.40,37.40,26.98,340.00,12.00,0.00,30.15,M,10.00,M,CLR,M,M,M,M,M,M,M,M,M,M,M,M,M,M,73.40,KRTS 240855Z AUTO 34012KT 10SM CLR 23/03 A3015 RMK AO2,M
MEV,2023-07-24 08:55,-119.7500,38.9963,1441.42,64.40,42.80,45.32,130.00,3.00,0.00,30.13,M,10.00,M,CLR,M,M,M,M,M,M,M,M,M,M,M,M,M,M,64.40,KMEV 240855Z AUTO 13003KT 10SM CLR 18/06 A3013 RMK AO2,M
BAM,2023-07-24 08:55,-116.8743,40.5990,1382.36,78.80,39.20,24.19,250.00,3.00,0.00,30.09,M,10.00,M,CLR,M,M,M,M,M,M,M,M,M,M,M,M,M,M,78.80,KBAM 240855Z AUTO 25003KT 10SM CLR 26/04 A3009 RMK AO1,M
HTH,2023-07-24 08:55,-118.6315,38.5448,1282.89,82.40,42.80,24.72,170.00,5.00,0.00,30.08,M,10.00,M,SCT,M,M,M,11000.00,M,M,M,M,M,M,M,M,M,M,80.39,KHTH 240855Z AUTO 17005KT 10SM SCT110 28/06 A3008 RMK A01,M
TMT,2023-07-24 08:55,-117.1971,39.4643,1749.34,66.40,44.40,44.94,210.00,5.00,0.00,30.24,M,M,M,SCT,M,M,M,12000.00,M,M,M,M,M,M,M,M,M,M,66.40,KTMT 240855Z AUTO 21005KT SCT120 19/07 A3024 RMK AO2 T01910069 PWINO,M
10U,2023-07-24 08:55,-116.1876,41.9532,1637.00,78.80,33.80,19.55,180.00,8.00,0.00,30.13,M,10.00,M,CLR,M,M,M,M,M,M,M,M,M,M,M,M,M,M,78.80,K10U 240855Z AUTO 18008KT 10SM CLR 26/01 A3013 RMK AO2,M
LSV,2023-07-24 08:55,-115.0343,36.2362,570.00,89.20,59.00,36.26,130.00,3.00,0.00,29.90,1009.30,10.00,M,CLR,M,M,M,M,M,M,M,M,M,M,M,M,M,M,88.47,KLSV 240855Z AUTO 13003KT 10SM CLR 32/15 A2990 RMK AO2 SLP093 T03180149 55004 $,M
EKO,2023-07-24 08:56,-115.7860,40.8242,1367.00,78.00,45.00,31.06,0.00,0.00,0.00,30.13,1012.30,10.00,M,SCT,M,M,M,12000.00,M,M,M,M,M,M,M,M,M,M,78.00,KEKO 240856Z AUTO 00000KT 10SM SCT120 26/07 A3013 RMK AO2 SLP123 T02560072 58001,M
WMC,2023-07-24 08:56,-117.8072,40.9019,1315.00,82.00,32.00,16.38,300.00,9.00,0.00,30.05,1010.70,10.00,M,FEW,M,M,M,11000.00,M,M,M,M,M,M,M,M,M,M,79.73,KWMC 240856Z AUTO 30009KT 10SM FEW110 28/00 A3005 RMK AO2 SLP107 T02780000 50001,M
NFL,2023-07-24 08:56,-118.7010,39.4166,1199.00,80.00,45.00,29.08,330.00,5.00,0.00,30.04,1014.20,10.00,M,CLR,M,M,M,M,M,M,M,M,M,M,M,M,M,M,79.13,KNFL 240856Z AUTO 33005KT 10SM CLR 27/07 A3004 RMK AO2 SLP142 T02670072 50000,M
HND,2023-07-24 08:56,-115.1344,35.9729,742.79,88.00,63.00,43.40,200.00,3.00,0.00,29.99,1013.30,10.00,M,CLR,M,M,M,M,M,M,M,M,M,M,M,M,M,M,88.86,KHND 240856Z AUTO 20003KT 10SM CLR 31/17 A2999 RMK AO2 SLP133 T03110172 58003,M
TPH,2023-07-24 08:56,-117.0904,38.0505,1654.00,75.00,49.00,39.90,290.00,6.00,T,30.25,1014.00,10.00,M,SCT,M,M,M,11000.00,M,M,M,M,M,M,M,27.00,210.00,2023-07-24 08:15,75.00,KTPH 240856Z AUTO 29006KT 10SM SCT110 24/09 A3025 RMK AO2 PK WND 21027/0815 RAB00E36 SLP140 P0000 60000 T02390094 51014 $,M
LAS,2023-07-24 08:56,-115.1634,36.0719,663.00,91.00,57.00,31.89,200.00,4.00,0.00,29.94,1010.30,10.00,M,OVC,M,M,M,25000.00,M,M,M,M,M,M,M,M,M,M,89.59,KLAS 240856Z 20004KT 10SM OVC250 33/14 A2994 RMK AO2 SLP103 T03280139 58003,M
05U,2023-07-24 09:10,-116.0051,39.6042,1811.23,73.40,42.80,33.29,M,M,0.00,30.25,M,10.00,M,M,M,M,M,M,M,M,M,M,M,M,M,M,M,M,73.40,K05U 240910Z AUTO 10SM 23/06 A3025 RMK A01,M
BVU,2023-07-24 09:15,-114.8611,35.9475,671.00,91.40,51.80,26.05,150.00,9.00,0.00,29.94,M,10.00,M,CLR,M,M,M,M,M,M,M,M,M,M,M,M,M,M,88.69,KBVU 240915Z AUTO 15009KT 10SM CLR 33/11 A2994 RMK AO2,M
CXP,2023-07-24 09:15,-119.7326,39.1923,1431.00,68.00,42.80,40.00,0.00,0.00,0.00,30.14,M,10.00,M,CLR,M,M,M,M,M,M,M,M,M,M,M,M,M,M,68.00,KCXP 240915Z AUTO 00000KT 10SM CLR 20/06 A3014 RMK AO2,M
RTS,2023-07-24 09:15,-119.8764,39.6682,1539.00,73.40,37.40,26.98,340.00,13.00,0.00,30.15,M,10.00,M,CLR,M,M,M,M,M,M,M,M,M,M,M,M,M,M,73.40,KRTS 240915Z AUTO 34013KT 10SM CLR 23/03 A3015 RMK AO2,M
MEV,2023-07-24 09:15,-119.7500,38.9963,1441.42,62.60,42.80,48.28,130.00,3.00,0.00,30.13,M,10.00,M,CLR,M,M,M,M,M,M,M,M,M,M,M,M,M,M,62.60,KMEV 240915Z AUTO 13003KT 10SM CLR 17/06 A3013 RMK AO2,M
HTH,2023-07-24 09:15,-118.6315,38.5448,1282.89,82.40,41.00,23.07,160.00,9.00,0.00,30.09,M,10.00,M,BKN,M,M,M,12000.00,M,M,M,M,M,M,M,M,M,M,80.29,KHTH 240915Z AUTO 16009KT 10SM BKN120 28/05 A3009 RMK A01,M
TMT,2023-07-24 09:15,-117.1971,39.4643,1749.34,66.70,43.00,42.16,130.00,5.00,0.00,30.23,M,M,M,SCT,M,M,M,12000.00,M,M,M,M,M,M,M,M,M,M,66.70,KTMT 240915Z AUTO 13005KT SCT120 19/06 A3023 RMK AO2 T01930062 PWINO,M
10U,2023-07-24 09:15,-116.1876,41.9532,1637.00,75.20,33.80,22.02,210.00,4.00,0.00,30.13,M,10.00,M,CLR,M,M,M,M,M,M,M,M,M,M,M,M,M,M,75.20,K10U 240915Z AUTO 21004KT 10SM CLR 24/01 A3013 RMK AO2,M
BAM,2023-07-24 09:15,-116.8743,40.5990,1382.36,80.60,37.40,21.25,230.00,6.00,0.00,30.10,M,10.00,M,CLR,M,M,M,M,M,M,M,M,M,M,M,M,M,M,79.02,KBAM 240915Z AUTO 23006KT 10SM CLR 27/03 A3010 RMK AO1,M
05U,2023-07-24 09:30,-116.0051,39.6042,1811.23,69.80,44.60,40.29,M,M,0.00,30.24,M,10.00,M,M,M,M,M,M,M,M,M,M,M,M,M,M,M,M,69.80,K05U 240930Z AUTO 10SM 21/07 A3024 RMK A01,M
BVU,2023-07-24 09:35,-114.8611,35.9475,671.00,91.40,51.80,26.05,170.00,4.00,0.00,29.95,M,10.00,M,CLR,M,M,M,M,M,M,M,M,M,M,M,M,M,M,88.69,KBVU 240935Z AUTO 17004KT 10SM CLR 33/11 A2995 RMK AO2,M
CXP,2023-07-24 09:35,-119.7326,39.1923,1431.00,69.80,42.80,37.61,0.00,0.00,0.00,30.14,M,10.00,M,CLR,M,M,M,M,M,M,M,M,M,M,M,M,M,M,69.80,KCXP 240935Z AUTO 00000KT 10SM CLR 21/06 A3014 RMK AO2,M
RTS,2023-07-24 09:35,-119.8764,39.6682,1539.00,75.20,37.40,25.40,340.00,13.00,0.00,30.15,M,10.00,M,CLR,M,M,M,M,M,M,M,M,M,M,M,M,M,M,75.20,KRTS 240935Z AUTO 34013KT 10SM CLR 24/03 A3015 RMK AO2,M
MEV,2023-07-24 09:35,-119.7500,38.9963,1441.42,64.40,42.80,45.32,0.00,0.00,0.00,30.13,M,10.00,M,CLR,M,M,M,M,M,M,M,M,M,M,M,M,M,M,64.40,KMEV 240935Z AUTO 00000KT 10SM CLR 18/06 A3013 RMK AO2,M
HTH,2023-07-24 09:35,-118.6315,38.5448,1282.89,86.00,41.00,20.54,170.00,12.00,0.00,30.09,M,10.00,M,BKN,M,M,M,12000.00,M,M,M,M,M,M,M,M,M,M,82.86,KHTH 240935Z AUTO 17012KT 10SM BKN120 30/05 A3009 RMK A01,M
TMT,2023-07-24 09:35,-117.1971,39.4643,1749.34,66.40,43.70,43.76,170.00,4.00,0.00,30.24,M,M,M,CLR,M,M,M,M,M,M,M,M,M,M,M,M,M,M,66.40,KTMT 240935Z AUTO 17004KT CLR 19/07 A3024 RMK AO2 T01910065 PWINO,M
10U,2023-07-24 09:35,-116.1876,41.9532,1637.00,73.40,33.80,23.39,210.00,7.00,0.00,30.14,M,10.00,M,SCT,M,M,M,12000.00,M,M,M,M,M,M,M,M,M,M,73.40,K10U 240935Z AUTO 21007KT 10SM SCT120 23/01 A3014 RMK AO2,M
BAM,2023-07-24 09:35,-116.8743,40.5990,1382.36,82.40,37.40,20.04,240.00,4.00,0.00,30.09,M,10.00,M,CLR,M,M,M,M,M,M,M,M,M,M,M,M,M,M,80.14,KBAM 240935Z AUTO 24004KT 10SM CLR 28/03 A3009 RMK AO1,M
05U,2023-07-24 09:50,-116.0051,39.6042,1811.23,69.80,46.40,43.13,M,M,0.00,30.24,M,10.00,M,M,M,M,M,M,M,M,M,M,M,M,M,M,M,M,69.80,K05U 240950Z AUTO 10SM 21/08 A3024 RMK A01,M
P68,2023-07-24 09:53,-116.0056,39.6014,1993.00,68.00,46.00,45.19,130.00,8.00,0.00,30.22,1013.10,M,M,M,M,M,M,M,M,M,M,M,M,M,M,M,M,M,68.00,KP68 240953Z AUTO 13008KT 20/08 A3022 RMK AO1 SLP131 T02000078,M
DRA,2023-07-24 09:53,-116.0278,36.6206,1009.00,83.00,49.00,30.67,80.00,3.00,0.00,30.02,1010.40,10.00,M,CLR,M,M,M,M,M,M,M,M,M,M,M,M,M,M,81.28,KDRA 240953Z AUTO 08003KT 10SM CLR 28/09 A3002 RMK AO2 SLP104 T02830094,M
ELY,2023-07-24 09:53,-114.8453,39.2950,1909.00,69.00,44.00,40.47,200.00,12.00,0.00,30.30,1013.50,10.00,M,BKN,M,M,M,10000.00,M,M,M,VCTS,M,M,M,M,M,M,69.00,KELY 240953Z AUTO 20012KT 10SM VCTS BKN100 21/07 A3030 RMK AO2 LTG DSNT E AND SE SLP135 T02060067,M
VGT,2023-07-24 09:53,-115.1933,36.2111,667.00,91.00,59.00,34.27,150.00,5.00,0.00,29.94,1012.10,10.00,M,CLR,M,M,M,M,M,M,M,M,M,M,M,M,M,M,90.27,KVGT 240953Z AUTO 15005KT 10SM CLR 33/15 A2994 RMK AO2 SLP121 T03280150,M
LOL,2023-07-24 09:53,-118.5701,40.0684,1192.43,72.00,39.00,30.12,190.00,6.00,0.00,30.04,1012.00,10.00,M,CLR,M,M,M,M,M,M,M,M,M,M,M,M,M,M,72.00,KLOL 240953Z AUTO 19006KT 10SM CLR 22/04 A3004 RMK AO2 SLP120 T02220039,M
BVU,2023-07-24 09:55,-114.8611,35.9475,671.00,91.40,51.80,26.05,0.00,0.00,0.00,29.95,M,10.00,M,CLR,M,M,M,M,M,M,M,M,M,M,M,M,M,M,88.69,KBVU 240955Z AUTO 00000KT 10SM CLR 33/11 A2995 RMK AO2,M
CXP,2023-07-24 09:55,-119.7326,39.1923,1431.00,71.60,41.00,33.00,0.00,0.00,0.00,30.13,M,10.00,M,CLR,M,M,M,M,M,M,M,M,M,M,M,M,M,M,71.60,KCXP 240955Z AUTO 00000KT 10SM CLR 22/05 A3013 RMK AO2,M
INS,2023-07-24 09:55,-115.6733,36.5872,955.00,85.00,49.00,28.75,100.00,8.00,0.00,30.01,1010.40,10.00,M,CLR,M,M,M,M,M,M,M,M,M,M,M,M,M,M,82.71,KINS 240955Z AUTO 10008KT 10SM CLR 29/10 A3001 RMK AO2 SLP104 T02940095 $,M
RNO,2023-07-24 09:55,-119.7711,39.4839,1341.00,78.00,40.00,25.62,0.00,0.00,0.00,30.09,1011.50,10.00,M,FEW,BKN,M,M,10000.00,18000.00,M,M,M,M,M,M,M,M,M,78.00,KRNO 240955Z 00000KT 10SM FEW100 BKN180 26/04 A3009 RMK AO2 SLP115 T02560044,M
LSV,2023-07-24 09:55,-115.0343,36.2362,570.00,87.60,58.00,36.80,10.00,4.00,0.00,29.90,1009.30,10.00,M,CLR,M,M,M,M,M,M,M,M,M,M,M,M,M,M,86.62,KLSV 240955Z AUTO 01004KT 10SM CLR 31/15 A2990 RMK AO2 SLP093 T03090145 $,M
RTS,2023-07-24 09:55,-119.8764,39.6682,1539.00,75.20,37.40,25.40,320.00,13.00,0.00,30.15,M,10.00,M,CLR,M,M,M,M,M,M,M,M,M,M,M,M,M,M,75.20,KRTS 240955Z AUTO 32013KT 10SM CLR 24/03 A3015 RMK AO2,M
MEV,2023-07-24 09:55,-119.7500,38.9963,1441.42,62.60,42.80,48.28,120.00,4.00,0.00,30.12,M,10.00,M,CLR,M,M,M,M,M,M,M,M,M,M,M,M,M,M,62.60,KMEV 240955Z AUTO 12004KT 10SM CLR 17/06 A3012 RMK AO2,M
HTH,2023-07-24 09:55,-118.6315,38.5448,1282.89,84.20,42.80,23.33,140.00,9.00,0.00,30.11,M,10.00,17.00,FEW,M,M,M,12000.00,M,M,M,M,M,M,M,M,M,M,81.61,KHTH 240955Z AUTO 14009G17KT 10SM FEW120 29/06 A3011 RMK A01,M
BAM,2023-07-24 09:55,-116.8743,40.5990,1382.36,80.60,37.40,21.25,270.00,3.00,0.00,30.09,M,10.00,M,CLR,M,M,M,M,M,M,M,M,M,M,M,M,M,M,79.02,KBAM 240955Z AUTO 27003KT 10SM CLR 27/03 A3009 RMK AO1,M
TMT,2023-07-24 09:55,-117.1971,39.4643,1749.34,65.30,44.00,45.99,160.00,4.00,0.00,30.24,M,M,M,SCT,M,M,M,12000.00,M,M,M,M,M,M,M,M,M,M,65.30,KTMT 240955Z AUTO 16004KT SCT120 19/07 A3024 RMK AO2 T01850066 PWINO,M
10U,2023-07-24 09:55,-116.1876,41.9532,1637.00,73.40,33.80,23.39,200.00,7.00,0.00,30.14,M,10.00,M,BKN,M,M,M,12000.00,M,M,M,M,M,M,M,M,M,M,73.40,K10U 240955Z AUTO 20007KT 10SM BKN120 23/01 A3014 RMK AO2,M
EKO,2023-07-24 09:56,-115.7860,40.8242,1367.00,77.00,46.00,33.34,0.00,0.00,0.00,30.14,1013.10,10.00,M,FEW,OVC,M,M,9500.00,12000.00,M,M,M,M,M,M,M,M,M,77.00,KEKO 240956Z AUTO 00000KT 10SM FEW095 OVC120 25/08 A3014 RMK AO2 SLP131 T02500078,M
WMC,2023-07-24 09:56,-117.8072,40.9019,1315.00,79.00,32.00,18.06,280.00,8.00,0.00,30.06,1011.20,10.00,M,CLR,M,M,M,M,M,M,M,M,M,M,M,M,M,M,79.00,KWMC 240956Z AUTO 28008KT 10SM CLR 26/00 A3006 RMK AO2 SLP112 T02610000,M
NFL,2023-07-24 09:56,-118.7010,39.4166,1199.00,82.00,43.00,25.24,280.00,6.00,0.00,30.05,1014.40,10.00,M,CLR,M,M,M,M,M,M,M,M,M,M,M,M,M,M,80.15,KNFL 240956Z AUTO 28006KT 10SM CLR 28/06 A3005 RMK AO2 SLP144 T02780061,M
HND,2023-07-24 09:56,-115.1344,35.9729,742.79,89.00,56.00,32.75,180.00,5.00,0.00,29.99,1013.40,10.00,M,CLR,M,M,M,M,M,M,M,M,M,M,M,M,M,M,87.37,KHND 240956Z AUTO 18005KT 10SM CLR 32/13 A2999 RMK AO2 SLP134 T03170133,M
TPH,2023-07-24 09:56,-117.0904,38.0505,1654.00,73.00,54.00,51.33,310.00,3.00,T,30.23,1013.60,10.00,M,FEW,BKN,OVC,M,5000.00,9500.00,12000.00,M,-RA,M,M,M,M,M,M,73.00,KTPH 240956Z AUTO 31003KT 10SM -RA FEW050 BKN095 OVC120 23/12 A3023 RMK AO2 RAB05E18B42 SLP136 P0000 T02280122 $,M
LAS,2023-07-24 09:56,-115.1634,36.0719,663.00,90.00,58.00,34.11,190.00,3.00,0.00,29.95,1010.80,10.00,M,BKN,M,M,M,25000.00,M,M,M,M,M,M,M,M,M,M,88.92,KLAS 240956Z 19003KT 10SM BKN250 32/14 A2995 RMK AO2 SLP108 T03220144,M
05U,2023-07-24 10:10,-116.0051,39.6042,1811.23,69.80,42.80,37.61,M,M,0.00,30.24,M,10.00,M,M,M,M,M,M,M,M,M,M,M,M,M,M,M,M,69.80,K05U 241010Z AUTO 10SM 21/06 A3024 RMK A01,M
BVU,2023-07-24 10:15,-114.8611,35.9475,671.00,89.60,51.80,27.56,180.00,4.00,0.00,29.96,M,10.00,M,CLR,M,M,M,M,M,M,M,M,M,M,M,M,M,M,87.00,KBVU 241015Z AUTO 18004KT 10SM CLR 32/11 A2996 RMK AO2,M
CXP,2023-07-24 10:15,-119.7326,39.1923,1431.00,73.40,41.00,31.05,50.00,5.00,0.00,30.13,M,10.00,M,CLR,M,M,M,M,M,M,M,M,M,M,M,M,M,M,73.40,KCXP 241015Z AUTO 05005KT 10SM CLR 23/05 A3013 RMK AO2,M
RTS,2023-07-24 10:15,-119.8764,39.6682,1539.00,78.80,35.60,21.00,0.00,0.00,0.00,30.15,M,10.00,12.00,CLR,M,M,M,M,M,M,M,M,M,M,M,M,M,M,78.80,KRTS 241015Z AUTO 00000G12KT 10SM CLR 26/02 A3015 RMK AO2,M
MEV,2023-07-24 10:15,-119.7500,38.9963,1441.42,66.20,44.60,45.60,120.00,3.00,0.00,30.12,M,10.00,M,CLR,M,M,M,M,M,M,M,M,M,M,M,M,M,M,66.20,KMEV 241015Z AUTO 12003KT 10SM CLR 19/07 A3012 RMK AO2,M
HTH,2023-07-24 10:15,-118.6315,38.5448,1282.89,84.20,44.60,24.99,140.00,14.00,0.00,30.12,M,10.00,20.00,FEW,M,M,M,12000.00,M,M,M,M,M,M,M,M,M,M,81.73,KHTH 241015Z AUTO 14014G20KT 10SM FEW120 29/07 A3012 RMK A01,M
TMT,2023-07-24 10:15,-117.1971,39.4643,1749.34,65.30,43.00,44.26,190.00,5.00,0.00,30.24,M,M,M,SCT,M,M,M,12000.00,M,M,M,M,M,M,M,M,M,M,65.30,KTMT 241015Z AUTO 19005KT SCT120 19/06 A3024 RMK AO2 T01850062 PWINO,M
10U,2023-07-24 10:15,-116.1876,41.9532,1637.00,73.40,33.80,23.39,300.00,5.00,0.00,30.14,M,10.00,M,BKN,M,M,M,12000.00,M,M,M,M,M,M,M,M,M,M,73.40,K10U 241015Z AUTO 30005KT 10SM BKN120 23/01 A3014 RMK AO2,M
BAM,2023-07-24 10:15,-116.8743,40.5990,1382.36,78.80,39.20,24.19,0.00,0.00,0.00,30.10,M,10.00,M,CLR,M,M,M,M,M,M,M,M,M,M,M,M,M,M,78.80,KBAM 241015Z AUTO 00000KT 10SM CLR 26/04 A3010 RMK AO1,M
ELY,2023-07-24 10:21,-114.8453,39.2950,1909.00,71.00,47.00,42.35,110.00,6.00,T,30.29,M,10.00,18.00,SCT,OVC,M,M,7000.00,10000.00,M,M,M,M,M,M,28.00,150.00,2023-07-24 10:01,71.00,KELY 241021Z AUTO 11006G18KT 10SM SCT070 OVC100 22/08 A3029 RMK AO2 PK WND 15028/1001 RAB0957E07 P0000 T02170083,M
05U,2023-07-24 10:30,-116.0051,39.6042,1811.23,71.60,41.00,33.00,M,M,0.00,30.25,M,10.00,M,M,M,M,M,M,M,M,M,M,M,M,M,M,M,M,71.60,K05U 241030Z AUTO 10SM 22/05 A3025 RMK A01,M
BVU,2023-07-24 10:35,-114.8611,35.9475,671.00,91.40,51.80,26.05,170.00,6.00,0.00,29.96,M,10.00,M,CLR,M,M,M,M,M,M,M,M,M,M,M,M,M,M,88.69,KBVU 241035Z AUTO 17006KT 10SM CLR 33/11 A2996 RMK AO2,M
CXP,2023-07-24 10:35,-119.7326,39.1923,1431.00,71.60,42.80,35.37,90.00,5.00,0.00,30.13,M,10.00,M,CLR,M,M,M,M,M,M,M,M,M,M,M,M,M,M,71.60,KCXP 241035Z AUTO 09005KT 10SM CLR 22/06 A3013 RMK AO2,M
RTS,2023-07-24 10:35,-119.8764,39.6682,1539.00,71.60,37.40,28.68,330.00,8.00,0.00,30.15,M,10.00,13.00,CLR,M,M,M,M,M,M,M,M,M,M,M,M,M,M,71.60,KRTS 241035Z AUTO 33008G13KT 260V340 10SM CLR 22/03 A3015 RMK AO2,M
MEV,2023-07-24 10:35,-119.7500,38.9963,1441.42,66.20,44.60,45.60,120.00,8.00,0.00,30.12,M,10.00,M,CLR,M,M,M,M,M,M,M,M,M,M,M,M,M,M,66.20,KMEV 241035Z AUTO 12008KT 10SM CLR 19/07 A3012 RMK AO2,M
HTH,2023-07-24 10:35,-118.6315,38.5448,1282.89,82.40,46.40,28.36,120.00,15.00,0.00,30.12,M,10.00,M,SCT,M,M,M,12000.00,M,M,M,M,M,M,M,M,M,M,80.64,KHTH 241035Z AUTO 12015KT 10SM SCT120 28/08 A3012 RMK A01,M
TMT,2023-07-24 10:35,-117.1971,39.4643,1749.34,66.20,43.50,43.73,220.00,5.00,0.00,30.24,M,M,M,BKN,M,M,M,11000.00,M,M,M,M,M,M,M,M,M,M,66.20,KTMT 241035Z AUTO 22005KT BKN110 19/06 A3024 RMK AO2 T01900064 PWINO,M
10U,2023-07-24 10:35,-116.1876,41.9532,1637.00,69.80,35.60,28.39,240.00,5.00,0.00,30.14,M,10.00,M,SCT,M,M,M,12000.00,M,M,M,M,M,M,M,M,M,M,69.80,K10U 241035Z AUTO 24005KT 10SM SCT120 21/02 A3014 RMK AO2,M
BAM,2023-07-24 10:35,-116.8743,40.5990,1382.36,82.40,39.20,21.51,90.00,3.00,0.00,30.11,M,10.00,M,CLR,M,M,M,M,M,M,M,M,M,M,M,M,M,M,80.21,KBAM 241035Z AUTO 09003KT 10SM CLR 28/04 A3011 RMK AO1,M
05U,2023-07-24 10:50,-116.0051,39.6042,1811.23,69.80,41.00,35.09,M,M,0.00,30.25,M,10.00,M,M,M,M,M,M,M,M,M,M,M,M,M,M,M,M,69.80,K05U 241050Z AUTO 10SM 21/05 A3025 RMK A01,M
P68,2023-07-24 10:53,-116.0056,39.6014,1993.00,68.00,42.00,38.79,200.00,3.00,0.00,30.23,1013.70,M,M,M,M,M,M,M,M,M,M,M,M,M,M,M,M,M,68.00,KP68 241053Z AUTO 20003KT 20/06 A3023 RMK AO1 SLP137 T02000056,M
DRA,2023-07-24 10:53,-116.0278,36.6206,1009.00,81.00,48.00,31.52,330.00,5.00,0.00,30.03,1010.60,10.00,M,CLR,M,M,M,M,M,M,M,M,M,M,M,M,M,M,79.92,KDRA 241053Z AUTO 33005KT 10SM CLR 27/09 A3003 RMK AO2 SLP106 T02720089,M
ELY,2023-07-24 10:53,-114.8453,39.2950,1909.00,68.00,48.00,48.73,210.00,5.00,T,30.27,1012.50,10.00,M,BKN,M,M,M,12000.00,M,M,M,M,M,M,M,28.00,150.00,2023-07-24 10:01,68.00,KELY 241053Z AUTO 21005KT 10SM BKN120 20/09 A3027 RMK AO2 PK WND 15028/1001 RAB0957E07 SLP125 P0000 T02000089,M
VGT,2023-07-24 10:53,-115.1933,36.2111,667.00,90.00,58.00,34.11,0.00,0.00,0.00,29.95,1012.30,10.00,M,CLR,M,M,M,M,M,M,M,M,M,M,M,M,M,M,88.92,KVGT 241053Z AUTO 00000KT 10SM CLR 32/14 A2995 RMK AO2 SLP123 T03220144,M
LOL,2023-07-24 10:53,-118.5701,40.0684,1192.43,72.00,39.00,30.12,110.00,7.00,0.00,30.04,1011.90,10.00,M,CLR,M,M,M,M,M,M,M,M,M,M,M,M,M,M,72.00,KLOL 241053Z AUTO 11007KT 10SM CLR 22/04 A3004 RMK AO2 SLP119 T02220039,M
BVU,2023-07-24 10:55,-114.8611,35.9475,671.00,89.60,51.80,27.56,170.00,5.00,0.00,29.96,M,10.00,M,CLR,M,M,M,M,M,M,M,M,M,M,M,M,M,M,87.00,KBVU 241055Z AUTO 17005KT 10SM CLR 32/11 A2996 RMK AO2,M
CXP,2023-07-24 10:55,-119.7326,39.1923,1431.00,75.20,41.00,29.23,M,3.00,0.00,30.14,M,10.00,M,CLR,M,M,M,M,M,M,M,M,M,M,M,M,M,M,75.20,KCXP 241055Z AUTO VRB03KT 10SM CLR 24/05 A3014 RMK AO2,M
INS,2023-07-24 10:55,-115.6733,36.5872,955.00,81.50,49.60,32.93,220.00,3.00,0.00,30.02,1010.70,10.00,M,CLR,M,M,M,M,M,M,M,M,M,M,M,M,M,M,80.37,KINS 241055Z AUTO 22003KT 10SM CLR 28/10 A3002 RMK AO2 SLP107 T02750098 $,M
RNO,2023-07-24 10:55,-119.7711,39.4839,1341.00,76.00,40.00,27.38,M,3.00,0.00,30.10,1011.90,10.00,M,SCT,BKN,M,M,10000.00,18000.00,M,M,M,M,M,M,M,M,M,76.00,KRNO 241055Z VRB03KT 10SM SCT100 BKN180 24/04 A3010 RMK AO2 SLP119 T02440044,M
RTS,2023-07-24 10:55,-119.8764,39.6682,1539.00,71.60,37.40,28.68,350.00,9.00,0.00,30.15,M,10.00,M,CLR,M,M,M,M,M,M,M,M,M,M,M,M,M,M,71.60,KRTS 241055Z AUTO 35009KT 10SM CLR 22/03 A3015 RMK AO2,M
MEV,2023-07-24 10:55,-119.7500,38.9963,1441.42,68.00,42.80,40.00,140.00,8.00,0.00,30.12,M,10.00,M,CLR,M,M,M,M,M,M,M,M,M,M,M,M,M,M,68.00,KMEV 241055Z AUTO 14008KT 10SM CLR 20/06 A3012 RMK AO2,M
HTH,2023-07-24 10:55,-118.6315,38.5448,1282.89,80.60,46.40,30.07,150.00,17.00,0.00,30.12,M,10.00,M,FEW,M,M,M,12000.00,M,M,M,M,M,M,M,M,M,M,79.56,KHTH 241055Z AUTO 15017KT 10SM FEW120 27/08 A3012 RMK A01,M
TMT,2023-07-24 10:55,-117.1971,39.4643,1749.34,67.30,45.30,45.08,220.00,12.00,0.00,30.25,M,M,M,OVC,M,M,M,11000.00,M,M,M,M,M,M,M,M,M,M,67.30,KTMT 241055Z AUTO 22012KT OVC110 20/07 A3025 RMK AO2 T01960074 PWINO,M
BAM,2023-07-24 10:55,-116.8743,40.5990,1382.36,80.60,41.00,24.46,0.00,0.00,0.00,30.11,M,10.00,M,CLR,M,M,M,M,M,M,M,M,M,M,M,M,M,M,79.20,KBAM 241055Z AUTO 00000KT 10SM CLR 27/05 A3011 RMK AO1,M
10U,2023-07-24 10:55,-116.1876,41.9532,1637.00,69.80,35.60,28.39,240.00,7.00,0.00,30.15,M,10.00,M,SCT,M,M,M,12000.00,M,M,M,M,M,M,M,M,M,M,69.80,K10U 241055Z AUTO 24007KT 10SM SCT120 21/02 A3015 RMK AO2,M
LSV,2023-07-24 10:55,-115.0343,36.2362,570.00,85.60,56.30,36.89,360.00,6.00,0.00,29.91,1009.70,10.00,M,CLR,M,M,M,M,M,M,M,M,M,M,M,M,M,M,84.41,KLSV 241055Z AUTO 36006KT 10SM CLR 30/14 A2991 RMK AO2 SLP097 T02980135 $,M
EKO,2023-07-24 10:56,-115.7860,40.8242,1367.00,79.00,43.00,27.84,M,3.00,0.00,30.12,1012.40,10.00,M,FEW,M,M,M,12000.00,M,M,M,M,M,M,M,M,M,M,79.00,KEKO 241056Z AUTO VRB03KT 10SM FEW120 26/06 A3012 RMK AO2 SLP124 T02610061,M
WMC,2023-07-24 10:56,-117.8072,40.9019,1315.00,81.00,32.00,16.92,M,3.00,0.00,30.07,1011.40,10.00,M,CLR,M,M,M,M,M,M,M,M,M,M,M,M,M,M,79.07,KWMC 241056Z AUTO VRB03KT 10SM CLR 27/00 A3007 RMK AO2 SLP114 T02720000,M
NFL,2023-07-24 10:56,-118.7010,39.4166,1199.00,79.00,44.00,28.93,180.00,4.00,0.00,30.06,1014.70,10.00,M,CLR,M,M,M,M,M,M,M,M,M,M,M,M,M,M,79.00,KNFL 241056Z AUTO 18004KT 10SM CLR 26/07 A3006 RMK AO2 SLP147 T02610067,M
HND,2023-07-24 10:56,-115.1344,35.9729,742.79,86.00,56.00,36.03,210.00,5.00,0.00,30.00,1013.80,10.00,M,CLR,M,M,M,M,M,M,M,M,M,M,M,M,M,M,84.68,KHND 241056Z AUTO 21005KT 10SM CLR 30/13 A3000 RMK AO2 SLP138 T03000133,M
TPH,2023-07-24 10:56,-117.0904,38.0505,1654.00,75.00,49.00,39.90,350.00,6.00,T,30.22,1013.10,10.00,M,BKN,M,M,M,11000.00,M,M,M,M,M,M,M,M,M,M,75.00,KTPH 241056Z AUTO 35006KT 10SM BKN110 24/09 A3022 RMK AO2 RAE03 SLP131 P0000 T02390094 $,M
LAS,2023-07-24 10:56,-115.1634,36.0719,663.00,90.00,55.00,30.61,200.00,4.00,0.00,29.95,1010.90,10.00,M,FEW,M,M,M,25000.00,M,M,M,M,M,M,M,M,M,M,88.06,KLAS 241056Z 20004KT 10SM FEW250 32/13 A2995 RMK AO2 SLP109 T03220128,M
05U,2023-07-24 11:10,-116.0051,39.6042,1811.23,68.00,42.80,40.00,M,M,0.00,30.25,M,10.00,M,M,M,M,M,M,M,M,M,M,M,M,M,M,M,M,68.00,K05U 241110Z AUTO 10SM 20/06 A3025 RMK A01,M
BVU,2023-07-24 11:15,-114.8611,35.9475,671.00,86.00,55.40,35.25,360.00,4.00,0.00,29.96,M,10.00,M,CLR,M,M,M,M,M,M,M,M,M,M,M,M,M,M,84.54,KBVU 241115Z AUTO 36004KT 10SM CLR 30/13 A2996 RMK AO2,M
CXP,2023-07-24 11:15,-119.7326,39.1923,1431.00,77.00,41.00,27.53,130.00,4.00,0.00,30.14,M,10.00,M,CLR,M,M,M,M,M,M,M,M,M,M,M,M,M,M,77.00,KCXP 241115Z AUTO 13004KT 10SM CLR 25/05 A3014 RMK AO2,M
RTS,2023-07-24 11:15,-119.8764,39.6682,1539.00,71.60,37.40,28.68,10.00,6.00,0.00,30.15,M,10.00,M,CLR,M,M,M,M,M,M,M,M,M,M,M,M,M,M,71.60,KRTS 241115Z AUTO 01006KT 10SM CLR 22/03 A3015 RMK AO2,M
MEV,2023-07-24 11:15,-119.7500,38.9963,1441.42,68.00,44.60,42.85,0.00,0.00,0.00,30.13,M,10.00,M,CLR,M,M,M,M,M,M,M,M,M,M,M,M,M,M,68.00,KMEV 241115Z AUTO 00000KT 10SM CLR 20/07 A3013 RMK AO2,M
HTH,2023-07-24 11:15,-118.6315,38.5448,1282.89,78.80,48.20,34.13,150.00,16.00,0.00,30.13,M,10.00,M,CLR,M,M,M,M,M,M,M,M,M,M,M,M,M,M,78.80,KHTH 241115Z AUTO 15016KT 10SM CLR 26/09 A3013 RMK A01,M
TMT,2023-07-24 11:15,-117.1971,39.4643,1749.34,71.00,44.00,37.80,230.00,11.00,0.00,30.25,M,M,M,BKN,M,M,M,10000.00,M,M,M,M,M,M,M,M,M,M,71.00,KTMT 241115Z AUTO 23011KT BKN100 22/07 A3025 RMK AO2 T02160066 PWINO,M
10U,2023-07-24 11:15,-116.1876,41.9532,1637.00,69.80,35.60,28.39,210.00,7.00,0.00,30.15,M,10.00,M,SCT,M,M,M,12000.00,M,M,M,M,M,M,M,M,M,M,69.80,K10U 241115Z AUTO 21007KT 10SM SCT120 21/02 A3015 RMK AO2,M
BAM,2023-07-24 11:15,-116.8743,40.5990,1382.36,78.80,41.00,25.95,0.00,0.00,0.00,30.12,M,10.00,M,SCT,BKN,M,M,10000.00,12000.00,M,M,M,M,M,M,M,M,M,78.80,KBAM 241115Z AUTO 00000KT 10SM SCT100 BKN120 26/05 A3012 RMK AO1,M
05U,2023-07-24 11:30,-116.0051,39.6042,1811.23,66.20,42.80,42.57,M,M,0.00,30.26,M,10.00,M,M,M,M,M,M,M,M,M,M,M,M,M,M,M,M,66.20,K05U 241130Z AUTO 10SM 19/06 A3026 RMK A01,M
BVU,2023-07-24 11:35,-114.8611,35.9475,671.00,89.60,51.80,27.56,120.00,4.00,0.00,29.97,M,10.00,M,CLR,M,M,M,M,M,M,M,M,M,M,M,M,M,M,87.00,KBVU 241135Z AUTO 12004KT 10SM CLR 32/11 A2997 RMK AO2,M
CXP,2023-07-24 11:35,-119.7326,39.1923,1431.00,75.20,41.00,29.23,110.00,6.00,0.00,30.14,M,10.00,M,CLR,M,M,M,M,M,M,M,M,M,M,M,M,M,M,75.20,KCXP 241135Z AUTO 11006KT 10SM CLR 24/05 A3014 RMK AO2,M
RTS,2023-07-24 11:35,-119.8764,39.6682,1539.00,73.40,37.40,26.98,310.00,5.00,0.00,30.16,M,10.00,M,CLR,M,M,M,M,M,M,M,M,M,M,M,M,M,M,73.40,KRTS 241135Z AUTO 31005KT 10SM CLR 23/03 A3016 RMK AO2,M
MEV,2023-07-24 11:35,-119.7500,38.9963,1441.42,66.20,44.60,45.60,0.00,0.00,0.00,30.13,M,10.00,M,CLR,M,M,M,M,M,M,M,M,M,M,M,M,M,M,66.20,KMEV 241135Z AUTO 00000KT 10SM CLR 19/07 A3013 RMK AO2,M
HTH,2023-07-24 11:35,-118.6315,38.5448,1282.89,78.80,48.20,34.13,140.00,18.00,0.00,30.13,M,10.00,M,CLR,M,M,M,M,M,M,M,M,M,M,M,M,M,M,78.80,KHTH 241135Z AUTO 14018KT 10SM CLR 26/09 A3013 RMK A01,M
TMT,2023-07-24 11:35,-117.1971,39.4643,1749.34,72.70,44.60,36.51,240.00,11.00,0.00,30.25,M,M,17.00,BKN,M,M,M,11000.00,M,M,M,M,M,M,M,M,M,M,72.70,KTMT 241135Z AUTO 24011G17KT BKN110 23/07 A3025 RMK AO2 T02260070 PWINO,M
BAM,2023-07-24 11:35,-116.8743,40.5990,1382.36,78.80,42.80,27.81,100.00,3.00,0.00,30.12,M,10.00,M,OVC,M,M,M,11000.00,M,M,M,M,M,M,M,M,M,M,78.80,KBAM 241135Z AUTO 10003KT 10SM OVC110 26/06 A3012 RMK AO1,M
10U,2023-07-24 11:35,-116.1876,41.9532,1637.00,73.40,33.80,23.39,220.00,6.00,0.00,30.15,M,10.00,M,BKN,M,M,M,11000.00,M,M,M,M,M,M,M,M,M,M,73.40,K10U 241135Z AUTO 22006KT 10SM BKN110 23/01 A3015 RMK AO2,M
05U,2023-07-24 11:50,-116.0051,39.6042,1811.23,66.20,42.80,42.57,M,M,0.00,30.26,M,10.00,M,M,M,M,M,M,M,M,M,M,M,M,M,M,M,M,66.20,K05U 241150Z AUTO 10SM 19/06 A3026 RMK A01,M
P68,2023-07-24 11:53,-116.0056,39.6014,1993.00,66.00,44.00,44.88,140.00,5.00,0.00,30.23,1013.80,M,M,M,M,M,M,M,M,M,M,M,M,M,M,M,M,M,66.00,KP68 241153Z AUTO 14005KT 19/07 A3023 RMK AO1 SLP138 T01890067 10267 20189 55000,M
DRA,2023-07-24 11:53,-116.0278,36.6206,1009.00,82.00,50.00,32.88,0.00,0.00,0.00,30.03,1010.90,10.00,M,CLR,M,M,M,M,M,M,M,M,M,M,M,M,M,M,80.73,KDRA 241153Z AUTO 00000KT 10SM CLR 28/10 A3003 RMK AO2 SLP109 T02780100 10339 20267 51005,M
ELY,2023-07-24 11:53,-114.8453,39.2950,1909.00,66.00,47.00,50.29,130.00,8.00,0.00,30.28,1013.60,10.00,M,CLR,M,M,M,M,M,M,M,M,M,M,M,M,M,M,66.00,KELY 241153Z AUTO 13008KT 10SM CLR 19/08 A3028 RMK AO2 SLP136 60000 T01890083 10228 20172 58003,M
VGT,2023-07-24 11:53,-115.1933,36.2111,667.00,90.00,59.00,35.36,0.00,0.00,0.00,29.97,1012.80,10.00,M,CLR,M,M,M,M,M,M,M,M,M,M,M,M,M,M,89.26,KVGT 241153Z AUTO 00000KT 10SM CLR 32/15 A2997 RMK AO2 SLP128 T03220150 10356 20311 53008,M
LOL,2023-07-24 11:53,-118.5701,40.0684,1192.43,72.00,42.00,33.84,0.00,0.00,0.00,30.05,1012.30,10.00,M,CLR,M,M,M,M,M,M,M,M,M,M,M,M,M,M,72.00,KLOL 241153Z AUTO 00000KT 10SM CLR 22/06 A3005 RMK AO2 SLP123 T02220056 10306 20217 53004,M
BVU,2023-07-24 11:55,-114.8611,35.9475,671.00,87.80,53.60,31.17,100.00,6.00,0.00,29.97,M,10.00,M,CLR,M,M,M,M,M,M,M,M,M,M,M,M,M,M,85.72,KBVU 241155Z AUTO 10006KT 10SM CLR 31/12 A2997 RMK AO2,M
CXP,2023-07-24 11:55,-119.7326,39.1923,1431.00,73.40,41.00,31.05,0.00,0.00,0.00,30.14,M,10.00,M,CLR,M,M,M,M,M,M,M,M,M,M,M,M,M,M,73.40,KCXP 241155Z AUTO 00000KT 10SM CLR 23/05 A3014 RMK AO2,M
INS,2023-07-24 11:55,-115.6733,36.5872,955.00,80.20,51.00,36.19,0.00,0.00,0.00,30.03,1011.20,10.00,M,CLR,M,M,M,M,M,M,M,M,M,M,M,M,M,M,79.76,KINS 241155Z AUTO 00000KT 10SM CLR 27/11 A3003 RMK AO2 SLP112 T02680105 10325 20261 52006 $,M
RNO,2023-07-24 11:55,-119.7711,39.4839,1341.00,73.00,42.00,32.71,0.00,0.00,0.00,30.11,1012.70,10.00,M,SCT,BKN,M,M,10000.00,18000.00,M,M,M,M,M,M,M,M,M,73.00,KRNO 241155Z 00000KT 10SM SCT100 BKN180 23/06 A3011 RMK AO2 SLP127 T02280056 10283 20222 53004,M
LSV,2023-07-24 11:55,-115.0343,36.2362,570.00,86.50,55.60,34.95,10.00,5.00,0.00,29.92,1010.10,10.00,M,CLR,M,M,M,M,M,M,M,M,M,M,M,M,M,M,85.02,KLSV 241155Z AUTO 01005KT 10SM CLR 30/13 A2992 RMK AO2 SLP101 T03030131 10337 20296 52008 $,M
RTS,2023-07-24 11:55,-119.8764,39.6682,1539.00,71.60,37.40,28.68,0.00,0.00,0.00,30.16,M,10.00,M,CLR,M,M,M,M,M,M,M,M,M,M,M,M,M,M,71.60,KRTS 241155Z AUTO 00000KT 10SM CLR 22/03 A3016 RMK AO2,M
MEV,2023-07-24 11:55,-119.7500,38.9963,1441.42,62.60,44.60,51.72,0.00,0.00,0.00,30.14,M,10.00,M,CLR,M,M,M,M,M,M,M,M,M,M,M,M,M,M,62.60,KMEV 241155Z AUTO 00000KT 10SM CLR 17/07 A3014 RMK AO2,M
BAM,2023-07-24 11:55,-116.8743,40.5990,1382.36,78.80,42.80,27.81,0.00,0.00,0.00,30.12,M,10.00,M,BKN,M,M,M,12000.00,M,M,M,M,M,M,M,M,M,M,78.80,KBAM 241155Z AUTO 00000KT 10SM BKN120 26/06 A3012 RMK AO1,M
HTH,2023-07-24 11:55,-118.6315,38.5448,1282.89,77.00,48.20,36.22,110.00,14.00,0.00,30.13,M,10.00,M,CLR,M,M,M,M,M,M,M,M,M,M,M,M,M,M,77.00,KHTH 241155Z AUTO 11014KT 10SM CLR 25/09 A3013 RMK A01,M
TMT,2023-07-24 11:55,-117.1971,39.4643,1749.34,72.00,46.00,39.42,230.00,13.00,0.00,30.28,M,M,17.00,OVC,M,M,M,10000.00,M,M,M,M,M,M,M,M,M,M,72.00,KTMT 241155Z AUTO 23013G17KT OVC100 22/08 A3028 RMK AO2 70002 T02220077 10231 20181 PWINO,M
EKO,2023-07-24 11:56,-115.7860,40.8242,1367.00,73.00,43.00,34.00,0.00,0.00,0.00,30.14,1014.00,10.00,M,CLR,M,M,M,M,M,M,M,M,M,M,M,M,M,M,73.00,KEKO 241156Z AUTO 00000KT 10SM CLR 23/06 A3014 RMK AO2 SLP140 T02280061 10283 20228 53003,M
WMC,2023-07-24 11:56,-117.8072,40.9019,1315.00,75.00,41.00,29.43,310.00,8.00,T,30.08,1011.80,10.00,M,FEW,SCT,BKN,M,5500.00,7000.00,10000.00,M,-RA,M,M,M,M,M,M,75.00,KWMC 241156Z AUTO 31008KT 10SM -RA FEW055 SCT070 BKN100 24/05 A3008 RMK AO2 RAB44 SLP118 P0000 60000 T02390050 10306 20239 53007,M
NFL,2023-07-24 11:56,-118.7010,39.4166,1199.00,81.00,48.00,31.52,160.00,17.00,0.00,30.07,1015.20,10.00,24.00,CLR,M,M,M,M,M,M,M,M,M,M,M,M,M,M,79.92,KNFL 241156Z AUTO 16017G24KT 10SM CLR 27/09 A3007 RMK AO2 SLP152 T02720089 10300 20244 53010,M
HND,2023-07-24 11:56,-115.1344,35.9729,742.79,84.00,57.00,39.83,200.00,6.00,0.00,30.02,1014.40,10.00,M,CLR,M,M,M,M,M,M,M,M,M,M,M,M,M,M,83.26,KHND 241156Z AUTO 20006KT 10SM CLR 29/14 A3002 RMK AO2 SLP144 T02890139 10344 20289 53009,M
TPH,2023-07-24 11:56,-117.0904,38.0505,1654.00,75.00,47.00,37.01,360.00,8.00,0.00,30.23,1013.30,10.00,M,FEW,M,M,M,9500.00,M,M,M,M,M,M,M,M,M,M,75.00,KTPH 241156Z AUTO 36008KT 10SM FEW095 24/08 A3023 RMK AO2 SLP133 60000 T02390083 10283 20228 55006 $,M
LAS,2023-07-24 11:56,-115.1634,36.0719,663.00,88.00,56.00,33.81,180.00,3.00,0.00,29.97,1011.50,10.00,M,SCT,M,M,M,25000.00,M,M,M,M,M,M,M,M,M,M,86.44,KLAS 241156Z 18003KT 10SM SCT250 31/13 A2997 RMK AO2 SLP115 T03110133 10344 20311 53010,M
05U,2023-07-24 12:10,-116.0051,39.6042,1811.23,66.20,42.80,42.57,M,M,0.00,30.26,M,10.00,M,M,M,M,M,M,M,M,M,M,M,M,M,M,M,M,66.20,K05U 241210Z AUTO 10SM 19/06 A3026 RMK A01,M
BVU,2023-07-24 12:15,-114.8611,35.9475,671.00,89.60,53.60,29.45,110.00,8.00,0.00,29.98,M,10.00,M,CLR,M,M,M,M,M,M,M,M,M,M,M,M,M,M,87.36,KBVU 241215Z AUTO 11008KT 10SM CLR 32/12 A2998 RMK AO2,M
CXP,2023-07-24 12:15,-119.7326,39.1923,1431.00,71.60,41.00,33.00,90.00,3.00,0.00,30.14,M,10.00,M,CLR,M,M,M,M,M,M,M,M,M,M,M,M,M,M,71.60,KCXP 241215Z AUTO 09003KT 10SM CLR 22/05 A3014 RMK AO2,M
RTS,2023-07-24 12:15,-119.8764,39.6682,1539.00,71.60,39.20,30.77,320.00,4.00,0.00,30.16,M,10.00,M,CLR,M,M,M,M,M,M,M,M,M,M,M,M,M,M,71.60,KRTS 241215Z AUTO 32004KT 10SM CLR 22/04 A3016 RMK AO2,M
MEV,2023-07-24 12:15,-119.7500,38.9963,1441.42,60.80,42.80,51.45,0.00,0.00,0.00,30.14,M,10.00,M,CLR,M,M,M,M,M,M,M,M,M,M,M,M,M,M,60.80,KMEV 241215Z AUTO 00000KT 10SM CLR 16/06 A3014 RMK AO2,M
HTH,2023-07-24 12:15,-118.6315,38.5448,1282.89,75.20,51.80,43.97,120.00,11.00,0.00,30.13,M,10.00,19.00,CLR,M,M,M,M,M,M,M,M,M,M,M,M,M,M,75.20,KHTH 241215Z AUTO 12011G19KT 10SM CLR 24/11 A3013 RMK A01,M
TMT,2023-07-24 12:15,-117.1971,39.4643,1749.34,70.00,49.00,47.24,210.00,13.00,0.00,30.29,M,M,17.00,SCT,OVC,M,M,7500.00,10000.00,M,M,M,M,M,M,M,M,M,70.00,KTMT 241215Z AUTO 21013G17KT SCT075 OVC100 21/09 A3029 RMK AO2 T02110094 PWINO,M
10U,2023-07-24 12:15,-116.1876,41.9532,1637.00,73.40,35.60,25.13,220.00,5.00,0.00,30.15,M,10.00,M,BKN,M,M,M,12000.00,M,M,M,M,M,M,M,M,M,M,73.40,K10U 241215Z AUTO 22005KT 10SM BKN120 23/02 A3015 RMK AO2,M
BAM,2023-07-24 12:15,-116.8743,40.5990,1382.36,78.80,42.80,27.81,0.00,0.00,0.00,30.12,M,10.00,M,OVC,M,M,M,11000.00,M,M,M,M,M,M,M,M,M,M,78.80,KBAM 241215Z AUTO 00000KT 10SM OVC110 26/06 A3012 RMK AO1,M
05U,2023-07-24 12:30,-116.0051,39.6042,1811.23,66.20,41.00,39.72,M,M,0.00,30.26,M,10.00,M,M,M,M,M,M,M,M,M,M,M,M,M,M,M,M,66.20,K05U 241230Z AUTO 10SM 19/05 A3026 RMK A01,M
BVU,2023-07-24 12:35,-114.8611,35.9475,671.00,89.60,53.60,29.45,110.00,7.00,0.00,29.98,M,10.00,M,CLR,M,M,M,M,M,M,M,M,M,M,M,M,M,M,87.36,KBVU 241235Z AUTO 11007KT 10SM CLR 32/12 A2998 RMK AO2,M
CXP,2023-07-24 12:35,-119.7326,39.1923,1431.00,69.80,42.80,37.61,0.00,0.00,0.00,30.15,M,10.00,M,CLR,M,M,M,M,M,M,M,M,M,M,M,M,M,M,69.80,KCXP 241235Z AUTO 00000KT 10SM CLR 21/06 A3015 RMK AO2,M
RTS,2023-07-24 12:35,-119.8764,39.6682,1539.00,71.60,37.40,28.68,0.00,0.00,0.00,30.16,M,10.00,M,CLR,M,M,M,M,M,M,M,M,M,M,M,M,M,M,71.60,KRTS 241235Z AUTO 00000KT 10SM CLR 22/03 A3016 RMK AO2,M
MEV,2023-07-24 12:35,-119.7500,38.9963,1441.42,62.60,44.60,51.72,0.00,0.00,0.00,30.14,M,10.00,M,CLR,M,M,M,M,M,M,M,M,M,M,M,M,M,M,62.60,KMEV 241235Z AUTO 00000KT 10SM CLR 17/07 A3014 RMK AO2,M
HTH,2023-07-24 12:35,-118.6315,38.5448,1282.89,75.20,51.80,43.97,90.00,16.00,0.00,30.13,M,10.00,M,CLR,M,M,M,M,M,M,M,M,M,M,M,M,M,M,75.20,KHTH 241235Z AUTO 09016KT 10SM CLR 24/11 A3013 RMK A01,M
TMT,2023-07-24 12:35,-117.1971,39.4643,1749.34,67.30,51.80,57.50,210.00,15.00,0.00,30.31,M,M,22.00,SCT,OVC,M,M,8000.00,11000.00,M,M,M,M,M,M,M,M,M,67.30,KTMT 241235Z AUTO 21015G22KT SCT080 OVC110 20/11 A3031 RMK AO2 T01960110 PWINO,M
10U,2023-07-24 12:35,-116.1876,41.9532,1637.00,71.60,35.60,26.71,210.00,5.00,0.00,30.15,M,10.00,M,BKN,M,M,M,11000.00,M,M,M,M,M,M,M,M,M,M,71.60,K10U 241235Z AUTO 21005KT 10SM BKN110 22/02 A3015 RMK AO2,M
BAM,2023-07-24 12:35,-116.8743,40.5990,1382.36,77.00,41.00,27.53,250.00,5.00,0.00,30.12,M,10.00,M,SCT,M,M,M,11000.00,M,M,M,M,M,M,M,M,M,M,77.00,KBAM 241235Z AUTO 25005KT 10SM SCT110 25/05 A3012 RMK AO1,M
05U,2023-07-24 12:50,-116.0051,39.6042,1811.23,66.20,42.80,42.57,M,M,0.00,30.27,M,10.00,M,M,M,M,M,M,M,M,M,M,M,M,M,M,M,M,66.20,K05U 241250Z AUTO 10SM 19/06 A3027 RMK A01,M
P68,2023-07-24 12:53,-116.0056,39.6014,1993.00,67.00,43.00,41.72,M,5.00,0.00,30.24,1014.30,M,M,M,M,M,M,M,M,M,M,M,M,M,M,M,M,M,67.00,KP68 241253Z AUTO VRB05KT 19/06 A3024 RMK AO1 SLP143 T01940061,M
DRA,2023-07-24 12:53,-116.0278,36.6206,1009.00,81.00,51.00,35.25,120.00,4.00,0.00,30.05,1011.60,10.00,M,CLR,M,M,M,M,M,M,M,M,M,M,M,M,M,M,80.22,KDRA 241253Z AUTO 12004KT 10SM CLR 27/11 A3005 RMK AO2 SLP116 T02720106,M
ELY,2023-07-24 12:53,-114.8453,39.2950,1909.00,65.00,47.00,52.07,210.00,13.00,0.00,30.29,1014.00,10.00,M,CLR,M,M,M,M,M,M,M,M,M,M,M,M,M,M,65.00,KELY 241253Z AUTO 21013KT 10SM CLR 18/08 A3029 RMK AO2 SLP140 T01830083,M
VGT,2023-07-24 12:53,-115.1933,36.2111,667.00,88.00,58.00,36.34,90.00,4.00,0.00,29.99,1013.60,10.00,M,CLR,M,M,M,M,M,M,M,M,M,M,M,M,M,M,86.99,KVGT 241253Z 09004KT 10SM CLR 31/14 A2999 RMK AO2 SLP136 T03110144,M
LOL,2023-07-24 12:53,-118.5701,40.0684,1192.43,70.00,42.00,36.22,110.00,3.00,0.00,30.08,1013.60,10.00,M,CLR,M,M,M,M,M,M,M,M,M,M,M,M,M,M,70.00,KLOL 241253Z AUTO 11003KT 10SM CLR 21/06 A3008 RMK AO2 SLP136 T02110056,M
BVU,2023-07-24 12:55,-114.8611,35.9475,671.00,87.80,53.60,31.17,110.00,8.00,0.00,29.99,M,10.00,M,CLR,M,M,M,M,M,M,M,M,M,M,M,M,M,M,85.72,KBVU 241255Z AUTO 11008KT 10SM CLR 31/12 A2999 RMK AO2,M
CXP,2023-07-24 12:55,-119.7326,39.1923,1431.00,68.00,42.80,40.00,0.00,0.00,0.00,30.16,M,10.00,M,CLR,M,M,M,M,M,M,M,M,M,M,M,M,M,M,68.00,KCXP 241255Z AUTO 00000KT 10SM CLR 20/06 A3016 RMK AO2,M
INS,2023-07-24 12:55,-115.6733,36.5872,955.00,78.60,48.00,34.10,0.00,0.00,0.00,30.04,1011.50,10.00,M,CLR,M,M,M,M,M,M,M,M,M,M,M,M,M,M,78.60,KINS 241255Z AUTO 00000KT 10SM CLR 26/09 A3004 RMK AO2 SLP115 T02590088 $,M
RNO,2023-07-24 12:55,-119.7711,39.4839,1341.00,70.00,42.00,36.22,0.00,0.00,0.00,30.12,1013.20,10.00,M,SCT,SCT,M,M,10000.00,18000.00,M,M,M,M,M,M,M,M,M,70.00,KRNO 241255Z 00000KT 10SM SCT100 SCT180 21/06 A3012 RMK AO2 SLP132 T02110056,M
RTS,2023-07-24 12:55,-119.8764,39.6682,1539.00,69.80,39.20,32.72,M,5.00,0.00,30.16,M,10.00,10.00,CLR,M,M,M,M,M,M,M,M,M,M,M,M,M,M,69.80,KRTS 241255Z AUTO VRB05G10KT 10SM CLR 21/04 A3016 RMK AO2,M
MEV,2023-07-24 12:55,-119.7500,38.9963,1441.42,64.40,44.60,48.55,0.00,0.00,0.00,30.14,M,10.00,M,CLR,M,M,M,M,M,M,M,M,M,M,M,M,M,M,64.40,KMEV 241255Z AUTO 00000KT 10SM CLR 18/07 A3014 RMK AO2,M
HTH,2023-07-24 12:55,-118.6315,38.5448,1282.89,73.40,51.80,46.71,100.00,16.00,0.00,30.14,M,10.00,M,CLR,M,M,M,M,M,M,M,M,M,M,M,M,M,M,73.40,KHTH 241255Z AUTO 10016KT 10SM CLR 23/11 A3014 RMK A01,M
10U,2023-07-24 12:55,-116.1876,41.9532,1637.00,75.20,35.60,23.66,190.00,7.00,0.00,30.15,M,10.00,M,FEW,M,M,M,11000.00,M,M,M,M,M,M,M,M,M,M,75.20,K10U 241255Z AUTO 19007KT 10SM FEW110 24/02 A3015 RMK AO2,M
BAM,2023-07-24 12:55,-116.8743,40.5990,1382.36,77.00,41.00,27.53,270.00,8.00,0.00,30.13,M,10.00,M,SCT,M,M,M,12000.00,M,M,M,M,M,M,M,M,M,M,77.00,KBAM 241255Z AUTO 27008KT 10SM SCT120 25/05 A3013 RMK AO1,M
TMT,2023-07-24 12:55,-117.1971,39.4643,1749.34,61.50,56.00,82.12,200.00,6.00,0.01,30.30,M,10.00,M,SCT,BKN,OVC,M,5500.00,8500.00,12000.00,M,-RA,M,M,M,M,M,M,61.50,KTMT 241255Z AUTO 20006KT 10SM -RA SCT055 BKN085 OVC120 16/13 A3030 RMK AO2 P0001 T01640134,M
LSV,2023-07-24 12:55,-115.0343,36.2362,570.00,85.00,54.30,34.97,0.00,0.00,0.00,29.94,1010.80,10.00,M,CLR,M,M,M,M,M,M,M,M,M,M,M,M,M,M,83.50,KLSV 241255Z AUTO 00000KT 10SM CLR 30/12 A2994 RMK AO2 SLP108 T02950124 $,M
EKO,2023-07-24 12:56,-115.7860,40.8242,1367.00,73.00,42.00,32.71,290.00,3.00,0.00,30.15,1014.30,10.00,M,BKN,M,M,M,12000.00,M,M,M,M,M,M,M,M,M,M,73.00,KEKO 241256Z AUTO 29003KT 10SM BKN120 23/06 A3015 RMK AO2 SLP143 T02280056,M
WMC,2023-07-24 12:56,-117.8072,40.9019,1315.00,72.00,41.00,32.56,280.00,3.00,T,30.09,1012.70,10.00,M,CLR,M,M,M,M,M,M,M,M,M,M,M,M,M,M,72.00,KWMC 241256Z AUTO 28003KT 10SM CLR 22/05 A3009 RMK AO2 RAE08 SLP127 P0000 T02220050,M
NFL,2023-07-24 12:56,-118.7010,39.4166,1199.00,79.00,52.00,39.06,170.00,10.00,0.00,30.09,1015.70,10.00,M,CLR,M,M,M,M,M,M,M,M,M,M,M,M,M,M,79.00,KNFL 241256Z AUTO 17010KT 10SM CLR 26/11 A3009 RMK AO2 SLP157 T02610111,M
HND,2023-07-24 12:56,-115.1344,35.9729,742.79,85.00,57.00,38.57,210.00,7.00,0.00,30.03,1015.00,10.00,M,CLR,M,M,M,M,M,M,M,M,M,M,M,M,M,M,84.08,KHND 241256Z AUTO 21007KT 10SM CLR 29/14 A3003 RMK AO2 SLP150 T02940139,M
LAS,2023-07-24 12:56,-115.1634,36.0719,663.00,87.00,55.00,33.65,0.00,0.00,0.00,29.99,1012.30,10.00,M,FEW,BKN,M,M,18000.00,25000.00,M,M,M,M,M,M,M,M,M,85.31,KLAS 241256Z 00000KT 10SM FEW180 BKN250 31/13 A2999 RMK AO2 SLP123 T03060128,M
05U,2023-07-24 13:10,-116.0051,39.6042,1811.23,68.00,42.80,40.00,M,M,0.00,30.27,M,10.00,M,M,M,M,M,M,M,M,M,M,M,M,M,M,M,M,68.00,K05U 241310Z AUTO 10SM 20/06 A3027 RMK A01,M
BVU,2023-07-24 13:15,-114.8611,35.9475,671.00,87.80,53.60,31.17,0.00,0.00,0.00,30.00,M,10.00,10.00,CLR,M,M,M,M,M,M,M,M,M,M,M,M,M,M,85.72,KBVU 241315Z AUTO 00000G10KT 10SM CLR 31/12 A3000 RMK AO2,M
CXP,2023-07-24 13:15,-119.7326,39.1923,1431.00,68.00,42.80,40.00,M,3.00,0.00,30.16,M,9.00,M,CLR,M,M,M,M,M,M,M,M,M,M,M,M,M,M,68.00,KCXP 241315Z AUTO VRB03KT 9SM CLR 20/06 A3016 RMK AO2,M
RTS,2023-07-24 13:15,-119.8764,39.6682,1539.00,71.60,39.20,30.77,100.00,5.00,0.00,30.17,M,10.00,M,CLR,M,M,M,M,M,M,M,M,M,M,M,M,M,M,71.60,KRTS 241315Z AUTO 10005KT 10SM CLR 22/04 A3017 RMK AO2,M
MEV,2023-07-24 13:15,-119.7500,38.9963,1441.42,60.80,44.60,55.12,120.00,3.00,0.00,30.14,M,10.00,M,CLR,M,M,M,M,M,M,M,M,M,M,M,M,M,M,60.80,KMEV 241315Z AUTO 12003KT 10SM CLR 16/07 A3014 RMK AO2,M
HTH,2023-07-24 13:15,-118.6315,38.5448,1282.89,73.40,51.80,46.71,110.00,13.00,0.00,30.14,M,10.00,18.00,CLR,M,M,M,M,M,M,M,M,M,M,M,M,M,M,73.40,KHTH 241315Z AUTO 11013G18KT 10SM CLR 23/11 A3014 RMK A01,M
TMT,2023-07-24 13:15,-117.1971,39.4643,1749.34,61.00,56.70,85.73,0.00,0.00,0.00,30.31,M,10.00,M,SCT,SCT,OVC,M,5500.00,7500.00,11000.00,M,M,M,M,M,M,M,M,61.00,KTMT 241315Z AUTO 00000KT 10SM SCT055 SCT075 OVC110 16/14 A3031 RMK AO2 T01610137,M
10U,2023-07-24 13:15,-116.1876,41.9532,1637.00,73.40,35.60,25.13,230.00,7.00,0.00,30.16,M,10.00,M,CLR,M,M,M,M,M,M,M,M,M,M,M,M,M,M,73.40,K10U 241315Z AUTO 23007KT 10SM CLR 23/02 A3016 RMK AO2,M
BAM,2023-07-24 13:15,-116.8743,40.5990,1382.36,80.60,41.00,24.46,230.00,9.00,0.00,30.14,M,10.00,16.00,SCT,M,M,M,12000.00,M,M,M,M,M,M,M,M,M,M,79.20,KBAM 241315Z AUTO 23009G16KT 10SM SCT120 27/05 A3014 RMK AO1,M
05U,2023-07-24 13:30,-116.0051,39.6042,1811.23,71.60,42.80,35.37,M,M,0.00,30.27,M,10.00,M,M,M,M,M,M,M,M,M,M,M,M,M,M,M,M,71.60,K05U 241330Z AUTO 10SM 22/06 A3027 RMK A01,M
BVU,2023-07-24 13:35,-114.8611,35.9475,671.00,89.60,53.60,29.45,0.00,0.00,0.00,30.00,M,10.00,M,CLR,M,M,M,M,M,M,M,M,M,M,M,M,M,M,87.36,KBVU 241335Z AUTO 00000KT 10SM CLR 32/12 A3000 RMK AO2,M
CXP,2023-07-24 13:35,-119.7326,39.1923,1431.00,69.80,42.80,37.61,0.00,0.00,0.00,30.16,M,10.00,M,CLR,M,M,M,M,M,M,M,M,M,M,M,M,M,M,69.80,KCXP 241335Z AUTO 00000KT 10SM CLR 21/06 A3016 RMK AO2,M
RTS,2023-07-24 13:35,-119.8764,39.6682,1539.00,71.60,39.20,30.77,0.00,0.00,0.00,30.18,M,10.00,M,CLR,M,M,M,M,M,M,M,M,M,M,M,M,M,M,71.60,KRTS 241335Z AUTO 00000KT 10SM CLR 22/04 A3018 RMK AO2,M
MEV,2023-07-24 13:35,-119.7500,38.9963,1441.42,62.60,46.40,55.37,0.00,0.00,0.00,30.15,M,10.00,M,CLR,M,M,M,M,M,M,M,M,M,M,M,M,M,M,62.60,KMEV 241335Z AUTO 00000KT 10SM CLR 17/08 A3015 RMK AO2,M
HTH,2023-07-24 13:35,-118.6315,38.5448,1282.89,73.40,51.80,46.71,100.00,13.00,0.00,30.14,M,10.00,M,CLR,M,M,M,M,M,M,M,M,M,M,M,M,M,M,73.40,KHTH 241335Z AUTO 10013KT 10SM CLR 23/11 A3014 RMK A01,M
10U,2023-07-24 13:35,-116.1876,41.9532,1637.00,75.20,37.40,25.40,200.00,6.00,0.00,30.16,M,10.00,M,CLR,M,M,M,M,M,M,M,M,M,M,M,M,M,M,75.20,K10U 241335Z AUTO 20006KT 10SM CLR 24/03 A3016 RMK AO2,M
BAM,2023-07-24 13:35,-116.8743,40.5990,1382.36,80.60,44.60,28.08,220.00,14.00,0.00,30.15,M,10.00,20.00,BKN,M,M,M,12000.00,M,M,M,M,M,M,M,M,M,M,79.42,KBAM 241335Z AUTO 22014G20KT 10SM BKN120 27/07 A3015 RMK AO1,M
TMT,2023-07-24 13:35,-117.1971,39.4643,1749.34,61.70,55.60,80.37,170.00,4.00,0.00,30.30,M,10.00,M,BKN,M,M,M,10000.00,M,M,M,M,M,M,M,M,M,M,61.70,KTMT 241335Z AUTO 17004KT 10SM BKN100 17/13 A3030 RMK AO2 T01650131,M
05U,2023-07-24 13:50,-116.0051,39.6042,1811.23,69.80,44.60,40.29,M,M,0.00,30.28,M,10.00,M,M,M,M,M,M,M,M,M,M,M,M,M,M,M,M,69.80,K05U 241350Z AUTO 10SM 21/07 A3028 RMK A01,M
P68,2023-07-24 13:53,-116.0056,39.6014,1993.00,70.00,44.00,39.11,210.00,3.00,0.00,30.25,1014.60,M,M,M,M,M,M,M,M,M,M,M,M,M,M,M,M,M,70.00,KP68 241353Z AUTO 21003KT 21/07 A3025 RMK AO1 SLP146 T02110067,M
DRA,2023-07-24 13:53,-116.0278,36.6206,1009.00,85.00,51.00,30.97,40.00,4.00,0.00,30.07,1012.00,10.00,M,CLR,M,M,M,M,M,M,M,M,M,M,M,M,M,M,82.97,KDRA 241353Z AUTO 04004KT 10SM CLR 29/11 A3007 RMK AO2 SLP120 T02940106,M
ELY,2023-07-24 13:53,-114.8453,39.2950,1909.00,65.00,48.00,54.07,220.00,12.00,0.00,30.30,1014.50,10.00,M,CLR,M,M,M,M,M,M,M,M,M,M,M,M,M,M,65.00,KELY 241353Z AUTO 22012KT 10SM CLR 18/09 A3030 RMK AO2 SLP145 T01830089,M
VGT,2023-07-24 13:53,-115.1933,36.2111,667.00,90.00,56.00,31.74,0.00,0.00,0.00,30.00,1014.10,10.00,M,CLR,M,M,M,M,M,M,M,M,M,M,M,M,M,M,88.32,KVGT 241353Z 00000KT 10SM CLR 32/13 A3000 RMK AO2 SLP141 T03220133,M
LOL,2023-07-24 13:53,-118.5701,40.0684,1192.43,72.00,42.00,33.84,250.00,4.00,0.00,30.09,1013.90,10.00,M,CLR,M,M,M,M,M,M,M,M,M,M,M,M,M,M,72.00,KLOL 241353Z AUTO 25004KT 10SM CLR 22/06 A3009 RMK AO2 SLP139 T02220056,M
BVU,2023-07-24 13:55,-114.8611,35.9475,671.00,87.80,57.20,35.53,60.00,3.00,0.00,30.01,M,10.00,M,CLR,M,M,M,M,M,M,M,M,M,M,M,M,M,M,86.58,KBVU 241355Z AUTO 06003KT 10SM CLR 31/14 A3001 RMK AO2,M
CXP,2023-07-24 13:55,-119.7326,39.1923,1431.00,71.60,41.00,33.00,50.00,4.00,0.00,30.16,M,10.00,M,CLR,M,M,M,M,M,M,M,M,M,M,M,M,M,M,71.60,KCXP 241355Z AUTO 05004KT 10SM CLR 22/05 A3016 RMK AO2,M
INS,2023-07-24 13:55,-115.6733,36.5872,955.00,80.40,48.60,32.88,30.00,4.00,0.00,30.06,1012.20,10.00,M,CLR,M,M,M,M,M,M,M,M,M,M,M,M,M,M,79.64,KINS 241355Z AUTO 03004KT 10SM CLR 27/09 A3006 RMK AO2 SLP122 T02690092 $,M
RNO,2023-07-24 13:55,-119.7711,39.4839,1341.00,71.00,43.00,36.38,10.00,3.00,0.00,30.13,1013.70,10.00,M,SCT,BKN,M,M,10000.00,18000.00,M,M,M,M,M,M,M,M,M,71.00,KRNO 241355Z 01003KT 10SM SCT100 BKN180 22/06 A3013 RMK AO2 SLP137 T02170061,M
LSV,2023-07-24 13:55,-115.0343,36.2362,570.00,90.00,55.40,31.05,350.00,3.00,0.00,29.95,1011.10,10.00,M,CLR,M,M,M,M,M,M,M,M,M,M,M,M,M,M,88.16,KLSV 241355Z AUTO 35003KT 10SM CLR 32/13 A2995 RMK AO2 SLP111 T03230130 $,M
RTS,2023-07-24 13:55,-119.8764,39.6682,1539.00,71.60,41.00,33.00,0.00,0.00,0.00,30.18,M,10.00,M,CLR,M,M,M,M,M,M,M,M,M,M,M,M,M,M,71.60,KRTS 241355Z AUTO 00000KT 10SM CLR 22/05 A3018 RMK AO2,M
MEV,2023-07-24 13:55,-119.7500,38.9963,1441.42,66.20,46.40,48.83,0.00,0.00,0.00,30.15,M,10.00,M,CLR,M,M,M,M,M,M,M,M,M,M,M,M,M,M,66.20,KMEV 241355Z AUTO 00000KT 10SM CLR 19/08 A3015 RMK AO2,M
HTH,2023-07-24 13:55,-118.6315,38.5448,1282.89,75.20,50.00,41.14,110.00,10.00,0.00,30.15,M,10.00,17.00,CLR,M,M,M,M,M,M,M,M,M,M,M,M,M,M,75.20,KHTH 241355Z AUTO 11010G17KT 10SM CLR 24/10 A3015 RMK A01,M
BAM,2023-07-24 13:55,-116.8743,40.5990,1382.36,80.60,44.60,28.08,220.00,17.00,0.00,30.17,M,10.00,23.00,OVC,M,M,M,12000.00,M,M,M,M,M,M,M,M,M,M,79.42,KBAM 241355Z AUTO 22017G23KT 10SM OVC120 27/07 A3017 RMK AO1,M
TMT,2023-07-24 13:55,-117.1971,39.4643,1749.34,62.60,56.50,80.44,200.00,6.00,0.00,30.32,M,10.00,M,BKN,M,M,M,11000.00,M,M,M,M,M,M,M,M,M,M,62.60,KTMT 241355Z AUTO 20006KT 10SM BKN110 17/14 A3032 RMK AO2 T01700136,M
10U,2023-07-24 13:55,-116.1876,41.9532,1637.00,77.00,37.40,23.93,190.00,7.00,0.00,30.17,M,10.00,M,CLR,M,M,M,M,M,M,M,M,M,M,M,M,M,M,77.00,K10U 241355Z AUTO 19007KT 10SM CLR 25/03 A3017 RMK AO2,M
EKO,2023-07-24 13:56,-115.7860,40.8242,1367.00,76.00,44.00,31.95,280.00,6.00,0.00,30.17,1014.70,10.00,M,BKN,M,M,M,12000.00,M,M,M,M,M,M,M,M,M,M,76.00,KEKO 241356Z AUTO 28006KT 10SM BKN120 24/07 A3017 RMK AO2 SLP147 T02440067,M
WMC,2023-07-24 13:56,-117.8072,40.9019,1315.00,76.00,39.00,26.34,120.00,6.00,0.00,30.11,1013.50,10.00,M,CLR,M,M,M,M,M,M,M,M,M,M,M,M,M,M,76.00,KWMC 241356Z AUTO 12006KT 10SM CLR 24/04 A3011 RMK AO2 SLP135 T02440039,M
NFL,2023-07-24 13:56,-118.7010,39.4166,1199.00,79.00,50.00,36.27,130.00,12.00,0.00,30.10,1016.00,9.00,M,CLR,M,M,M,M,M,M,M,M,M,M,M,M,M,M,79.00,KNFL 241356Z AUTO 13012KT 9SM CLR 26/10 A3010 RMK AO2 SLP160 T02610100,M
HND,2023-07-24 13:56,-115.1344,35.9729,742.79,88.00,55.00,32.60,220.00,9.00,0.00,30.04,1015.30,10.00,M,CLR,M,M,M,M,M,M,M,M,M,M,M,M,M,M,86.20,KHND 241356Z 22009KT 10SM CLR 31/13 A3004 RMK AO2 SLP153 T03110128,M
TPH,2023-07-24 13:56,-117.0904,38.0505,1654.00,75.00,51.00,42.98,300.00,10.00,T,30.27,1015.30,10.00,M,FEW,M,M,M,10000.00,M,M,M,M,M,M,M,M,M,M,75.00,KTPH 241356Z AUTO 30010KT 10SM FEW100 24/11 A3027 RMK AO2 RAB20E34 SLP153 P0000 T02390106 $,M
LAS,2023-07-24 13:56,-115.1634,36.0719,663.00,89.00,55.00,31.59,0.00,0.00,0.00,30.00,1012.60,10.00,M,FEW,SCT,M,M,18000.00,25000.00,M,M,M,M,M,M,M,M,M,87.12,KLAS 241356Z 00000KT 10SM FEW180 SCT250 32/13 A3000 RMK AO2 SLP126 T03170128,M
05U,2023-07-24 14:10,-116.0051,39.6042,1811.23,71.60,44.60,37.89,M,M,0.00,30.30,M,10.00,M,M,M,M,M,M,M,M,M,M,M,M,M,M,M,M,71.60,K05U 241410Z AUTO 10SM 22/07 A3030 RMK A01,M
BVU,2023-07-24 14:15,-114.8611,35.9475,671.00,89.60,55.40,31.45,50.00,3.00,0.00,30.01,M,10.00,M,CLR,M,M,M,M,M,M,M,M,M,M,M,M,M,M,87.78,KBVU 241415Z AUTO 05003KT 10SM CLR 32/13 A3001 RMK AO2,M
CXP,2023-07-24 14:15,-119.7326,39.1923,1431.00,71.60,44.60,37.89,100.00,4.00,0.00,30.17,M,10.00,M,CLR,M,M,M,M,M,M,M,M,M,M,M,M,M,M,71.60,KCXP 241415Z AUTO 10004KT 10SM CLR 22/07 A3017 RMK AO2,M
RTS,2023-07-24 14:15,-119.8764,39.6682,1539.00,73.40,39.20,28.96,0.00,0.00,0.00,30.18,M,10.00,M,CLR,M,M,M,M,M,M,M,M,M,M,M,M,M,M,73.40,KRTS 241415Z AUTO 00000KT 10SM CLR 23/04 A3018 RMK AO2,M
MEV,2023-07-24 14:15,-119.7500,38.9963,1441.42,73.40,46.40,38.18,0.00,0.00,0.00,30.16,M,10.00,M,CLR,M,M,M,M,M,M,M,M,M,M,M,M,M,M,73.40,KMEV 241415Z AUTO 00000KT 10SM CLR 23/08 A3016 RMK AO2,M
HTH,2023-07-24 14:15,-118.6315,38.5448,1282.89,78.80,50.00,36.51,120.00,8.00,0.00,30.16,M,10.00,16.00,CLR,M,M,M,M,M,M,M,M,M,M,M,M,M,M,78.80,KHTH 241415Z AUTO 12008G16KT 10SM CLR 26/10 A3016 RMK A01,M
10U,2023-07-24 14:15,-116.1876,41.9532,1637.00,78.80,37.40,22.54,220.00,7.00,0.00,30.18,M,10.00,M,FEW,FEW,SCT,M,6500.00,8000.00,9500.00,M,M,M,M,M,M,M,M,78.80,K10U 241415Z AUTO 22007KT 10SM FEW065 FEW080 SCT095 26/03 A3018 RMK AO2,M
BAM,2023-07-24 14:15,-116.8743,40.5990,1382.36,78.80,50.00,36.51,220.00,19.00,0.00,30.19,M,7.00,27.00,SCT,SCT,OVC,M,7000.00,8000.00,11000.00,M,M,M,M,M,M,M,M,78.80,KBAM 241415Z AUTO 22019G27KT 7SM SCT070 SCT080 OVC110 26/10 A3019 RMK AO1,M
TMT,2023-07-24 14:15,-117.1971,39.4643,1749.34,63.00,56.00,77.89,210.00,7.00,0.00,30.32,M,M,M,BKN,M,M,M,11000.00,M,M,M,M,M,M,M,M,M,M,63.00,KTMT 241415Z AUTO 21007KT BKN110 17/13 A3032 RMK AO2 T01720133 PWINO,M
05U,2023-07-24 14:30,-116.0051,39.6042,1811.23,71.60,46.40,40.57,M,M,0.00,30.30,M,10.00,M,M,M,M,M,M,M,M,M,M,M,M,M,M,M,M,71.60,K05U 241430Z AUTO 10SM 22/08 A3030 RMK A01,M
BVU,2023-07-24 14:35,-114.8611,35.9475,671.00,91.40,53.60,27.83,100.00,5.00,0.00,30.02,M,10.00,M,CLR,M,M,M,M,M,M,M,M,M,M,M,M,M,M,89.08,KBVU 241435Z AUTO 10005KT 10SM CLR 33/12 A3002 RMK AO2,M
CXP,2023-07-24 14:35,-119.7326,39.1923,1431.00,75.20,44.60,33.57,0.00,0.00,0.00,30.18,M,10.00,M,CLR,M,M,M,M,M,M,M,M,M,M,M,M,M,M,75.20,KCXP 241435Z AUTO 00000KT 10SM CLR 24/07 A3018 RMK AO2,M
RTS,2023-07-24 14:35,-119.8764,39.6682,1539.00,75.20,42.80,31.34,160.00,4.00,0.00,30.19,M,10.00,M,CLR,M,M,M,M,M,M,M,M,M,M,M,M,M,M,75.20,KRTS 241435Z AUTO 16004KT 10SM CLR 24/06 A3019 RMK AO2,M
MEV,2023-07-24 14:35,-119.7500,38.9963,1441.42,77.00,46.40,33.85,0.00,0.00,0.00,30.16,M,10.00,M,CLR,M,M,M,M,M,M,M,M,M,M,M,M,M,M,77.00,KMEV 241435Z AUTO 00000KT 10SM CLR 25/08 A3016 RMK AO2,M
HTH,2023-07-24 14:35,-118.6315,38.5448,1282.89,77.00,50.00,38.74,140.00,11.00,0.00,30.16,M,10.00,M,CLR,M,M,M,M,M,M,M,M,M,M,M,M,M,M,77.00,KHTH 241435Z AUTO 14011KT 10SM CLR 25/10 A3016 RMK A01,M
TMT,2023-07-24 14:35,-117.1971,39.4643,1749.34,62.20,57.00,83.07,190.00,4.00,0.00,30.32,M,M,M,SCT,BKN,OVC,M,4700.00,10000.00,11000.00,M,M,M,M,M,M,M,M,62.20,KTMT 241435Z AUTO 19004KT SCT047 BKN100 OVC110 17/14 A3032 RMK AO2 T01680138 PWINO,M
10U,2023-07-24 14:35,-116.1876,41.9532,1637.00,78.80,39.20,24.19,230.00,6.00,0.00,30.18,M,10.00,M,FEW,FEW,BKN,M,6500.00,7500.00,11000.00,M,M,M,M,M,M,M,M,78.80,K10U 241435Z AUTO 23006KT 10SM FEW065 FEW075 BKN110 26/04 A3018 RMK AO2,M
BAM,2023-07-24 14:35,-116.8743,40.5990,1382.36,78.80,50.00,36.51,220.00,20.00,0.00,30.20,M,10.00,27.00,OVC,M,M,M,11000.00,M,M,M,M,M,M,M,M,M,M,78.80,KBAM 241435Z AUTO 22020G27KT 10SM OVC110 26/10 A3020 RMK AO1,M
05U,2023-07-24 14:50,-116.0051,39.6042,1811.23,77.00,44.60,31.62,M,M,0.00,30.30,M,10.00,M,M,M,M,M,M,M,M,M,M,M,M,M,M,M,M,77.00,K05U 241450Z AUTO 10SM 25/07 A3030 RMK A01,M
P68,2023-07-24 14:53,-116.0056,39.6014,1993.00,75.00,44.00,33.03,220.00,4.00,0.00,30.27,1015.10,M,M,M,M,M,M,M,M,M,M,M,M,M,M,M,M,M,75.00,KP68 241453Z AUTO 22004KT 24/07 A3027 RMK AO1 SLP151 T02390067 53011,M
DRA,2023-07-24 14:53,-116.0278,36.6206,1009.00,89.00,49.00,25.32,230.00,8.00,0.00,30.09,1013.00,10.00,M,CLR,M,M,M,M,M,M,M,M,M,M,M,M,M,M,86.01,KDRA 241453Z AUTO 23008KT 10SM CLR 32/09 A3009 RMK AO2 SLP130 T03170094 53018,M
ELY,2023-07-24 14:53,-114.8453,39.2950,1909.00,73.00,47.00,39.58,200.00,12.00,0.00,30.31,1014.50,10.00,M,CLR,M,M,M,M,M,M,M,M,M,M,M,M,M,M,73.00,KELY 241453Z AUTO 20012KT 10SM CLR 23/08 A3031 RMK AO2 SLP145 T02280083 51008,M
VGT,2023-07-24 14:53,-115.1933,36.2111,667.00,93.00,55.00,27.87,110.00,4.00,0.00,30.02,1014.70,10.00,M,CLR,M,M,M,M,M,M,M,M,M,M,M,M,M,M,91.03,KVGT 241453Z 11004KT 10SM CLR 34/13 A3002 RMK AO2 SLP147 T03390128 52017,M
LOL,2023-07-24 14:53,-118.5701,40.0684,1192.43,77.00,45.00,32.10,0.00,0.00,0.00,30.11,1014.40,10.00,M,CLR,M,M,M,M,M,M,M,M,M,M,M,M,M,M,77.00,KLOL 241453Z AUTO 00000KT 10SM CLR 25/07 A3011 RMK AO2 SLP144 T02500072 51019,M
BVU,2023-07-24 14:55,-114.8611,35.9475,671.00,93.20,53.60,26.31,190.00,5.00,0.00,30.03,M,10.00,M,CLR,M,M,M,M,M,M,M,M,M,M,M,M,M,M,90.86,KBVU 241455Z AUTO 19005KT 10SM CLR 34/12 A3003 RMK AO2,M
CXP,2023-07-24 14:55,-119.7326,39.1923,1431.00,78.80,46.40,31.90,130.00,3.00,0.00,30.18,M,10.00,M,CLR,M,M,M,M,M,M,M,M,M,M,M,M,M,M,78.80,KCXP 241455Z AUTO 13003KT 10SM CLR 26/08 A3018 RMK AO2,M
INS,2023-07-24 14:55,-115.6733,36.5872,955.00,85.00,49.30,29.08,0.00,0.00,0.00,30.08,1012.80,10.00,M,CLR,M,M,M,M,M,M,M,M,M,M,M,M,M,M,82.75,KINS 241455Z AUTO 00000KT 10SM CLR 30/10 A3008 RMK AO2 SLP128 T02950096 52014 $,M
RNO,2023-07-24 14:55,-119.7711,39.4839,1341.00,78.00,44.00,29.90,0.00,0.00,0.00,30.14,1013.80,10.00,M,SCT,BKN,M,M,10000.00,18000.00,M,M,M,M,M,M,M,M,M,78.00,KRNO 241455Z 00000KT 10SM SCT100 BKN180 26/07 A3014 RMK AO2 SLP138 T02560067 53009,M
LSV,2023-07-24 14:55,-115.0343,36.2362,570.00,96.00,55.60,25.96,230.00,4.00,0.00,29.98,1012.00,10.00,M,CLR,M,M,M,M,M,M,M,M,M,M,M,M,M,M,94.35,KLSV 241455Z AUTO 23004KT 10SM CLR 36/13 A2998 RMK AO2 SLP120 T03560131 52019 $,M
RTS,2023-07-24 14:55,-119.8764,39.6682,1539.00,77.00,41.00,27.53,230.00,6.00,0.00,30.19,M,10.00,M,CLR,M,M,M,M,M,M,M,M,M,M,M,M,M,M,77.00,KRTS 241455Z AUTO 23006KT 10SM CLR 25/05 A3019 RMK AO2,M
MEV,2023-07-24 14:55,-119.7500,38.9963,1441.42,78.80,44.60,29.79,0.00,0.00,0.00,30.17,M,10.00,M,CLR,M,M,M,M,M,M,M,M,M,M,M,M,M,M,78.80,KMEV 241455Z AUTO 00000KT 10SM CLR 26/07 A3017 RMK AO2,M
HTH,2023-07-24 14:55,-118.6315,38.5448,1282.89,78.80,50.00,36.51,0.00,0.00,0.00,30.17,M,10.00,M,CLR,M,M,M,M,M,M,M,M,M,M,M,M,M,M,78.80,KHTH 241455Z AUTO 00000KT 10SM CLR 26/10 A3017 RMK A01,M
BAM,2023-07-24 14:55,-116.8743,40.5990,1382.36,77.00,51.80,41.42,250.00,12.00,0.00,30.21,M,10.00,19.00,SCT,SCT,OVC,M,6500.00,7000.00,11000.00,M,M,M,M,M,M,M,M,77.00,KBAM 241455Z AUTO 25012G19KT 10SM SCT065 SCT070 OVC110 25/11 A3021 RMK AO1,M
TMT,2023-07-24 14:55,-117.1971,39.4643,1749.34,62.00,58.00,86.72,150.00,3.00,0.00,30.32,M,M,M,M,M,M,M,M,M,M,M,M,M,M,M,M,M,M,62.00,KTMT 241455Z AUTO 15003KT 17/15 A3032 RMK AO2 60001 T01660145 PWINO,M
10U,2023-07-24 14:55,-116.1876,41.9532,1637.00,77.00,39.20,25.67,0.00,0.00,0.00,30.19,M,10.00,M,BKN,M,M,M,11000.00,M,M,M,M,M,M,M,M,M,M,77.00,K10U 241455Z AUTO 00000KT 10SM BKN110 25/04 A3019 RMK AO2,M
EKO,2023-07-24 14:56,-115.7860,40.8242,1367.00,78.00,49.00,36.11,230.00,7.00,0.00,30.19,1015.40,10.00,M,FEW,M,M,M,12000.00,M,M,M,M,M,M,M,M,M,M,78.00,KEKO 241456Z AUTO 23007KT 10SM FEW120 26/09 A3019 RMK AO2 SLP154 T02560094 53015,M
WMC,2023-07-24 14:56,-117.8072,40.9019,1315.00,78.00,48.00,34.78,170.00,28.00,0.00,30.14,1014.20,5.00,38.00,FEW,M,M,M,11000.00,M,M,M,HZ,M,M,M,38.00,160.00,2023-07-24 14:43,78.00,KWMC 241456Z AUTO 17028G38KT 5SM HZ FEW110 26/09 A3014 RMK AO2 PK WND 16038/1443 SLP142 60000 T02560089 53018,M
HND,2023-07-24 14:56,-115.1344,35.9729,742.79,92.00,53.00,26.72,200.00,10.00,0.00,30.06,1016.10,10.00,M,CLR,M,M,M,M,M,M,M,M,M,M,M,M,M,M,89.53,KHND 241456Z 20010KT 10SM CLR 33/12 A3006 RMK AO2 SLP161 T03330117 53015,M
TPH,2023-07-24 14:56,-117.0904,38.0505,1654.00,72.00,52.00,49.33,M,M,0.00,30.31,1017.40,10.00,M,FEW,OVC,M,M,7500.00,8500.00,M,M,M,M,M,M,M,M,M,72.00,KTPH 241456Z AUTO 10SM FEW075 OVC085 22/11 A3031 RMK AO2 SLP174 60000 T02220111 53024 $,M
LAS,2023-07-24 14:56,-115.1634,36.0719,663.00,93.00,53.00,25.90,170.00,5.00,0.00,30.02,1013.40,10.00,M,FEW,SCT,M,M,18000.00,25000.00,M,M,M,M,M,M,M,M,M,90.52,KLAS 241456Z 17005KT 10SM FEW180 SCT250 34/12 A3002 RMK AO2 SLP134 T03390117 53016,M
NFL,2023-07-24 14:56,-118.7010,39.4166,1199.00,82.00,51.00,34.12,140.00,10.00,0.00,30.11,1016.30,10.00,18.00,SCT,SCT,M,M,10000.00,18000.00,M,M,M,M,M,M,M,M,M,80.84,KNFL 241456Z COR 14010G18KT 10SM SCT100 SCT180 28/11 A3011 RMK AO2 SLP163 T02780106 51011,M
05U,2023-07-24 15:10,-116.0051,39.6042,1811.23,75.20,44.60,33.57,M,M,0.00,30.30,M,10.00,M,M,M,M,M,M,M,M,M,M,M,M,M,M,M,M,75.20,K05U 241510Z AUTO 10SM 24/07 A3030 RMK A01,M
BVU,2023-07-24 15:15,-114.8611,35.9475,671.00,95.00,53.60,24.89,M,5.00,0.00,30.03,M,10.00,11.00,CLR,M,M,M,M,M,M,M,M,M,M,M,M,M,M,92.71,KBVU 241515Z AUTO VRB05G11KT 10SM CLR 35/12 A3003 RMK AO2,M
CXP,2023-07-24 15:15,-119.7326,39.1923,1431.00,78.80,44.60,29.79,0.00,0.00,0.00,30.18,M,10.00,M,CLR,M,M,M,M,M,M,M,M,M,M,M,M,M,M,78.80,KCXP 241515Z AUTO 00000KT 10SM CLR 26/07 A3018 RMK AO2,M
RTS,2023-07-24 15:15,-119.8764,39.6682,1539.00,77.00,41.00,27.53,210.00,4.00,0.00,30.19,M,10.00,M,CLR,M,M,M,M,M,M,M,M,M,M,M,M,M,M,77.00,KRTS 241515Z AUTO 21004KT 10SM CLR 25/05 A3019 RMK AO2,M
MEV,2023-07-24 15:15,-119.7500,38.9963,1441.42,80.60,46.40,30.07,0.00,0.00,0.00,30.17,M,10.00,M,CLR,M,M,M,M,M,M,M,M,M,M,M,M,M,M,79.56,KMEV 241515Z AUTO 00000KT 10SM CLR 27/08 A3017 RMK AO2,M
HTH,2023-07-24 15:15,-118.6315,38.5448,1282.89,82.40,48.20,30.35,160.00,11.00,0.00,30.17,M,10.00,16.00,CLR,M,M,M,M,M,M,M,M,M,M,M,M,M,M,80.80,KHTH 241515Z AUTO 16011G16KT 10SM CLR 28/09 A3017 RMK A01,M
TMT,2023-07-24 15:15,-117.1971,39.4643,1749.34,62.60,59.00,88.00,160.00,6.00,0.00,30.34,M,M,M,M,M,M,M,M,M,M,M,M,M,M,M,M,M,M,62.60,KTMT 241515Z AUTO 16006KT 17/15 A3034 RMK AO2 T01700149 PWINO,M
BAM,2023-07-24 15:15,-116.8743,40.5990,1382.36,77.00,51.80,41.42,250.00,17.00,0.00,30.22,M,10.00,23.00,SCT,SCT,BKN,M,6000.00,8000.00,11000.00,M,M,M,M,M,M,M,M,77.00,KBAM 241515Z AUTO 25017G23KT 10SM SCT060 SCT080 BKN110 25/11 A3022 RMK AO1,M
10U,2023-07-24 15:15,-116.1876,41.9532,1637.00,77.00,39.20,25.67,0.00,0.00,0.00,30.20,M,10.00,M,OVC,M,M,M,11000.00,M,M,M,M,M,M,M,M,M,M,77.00,K10U 241515Z AUTO 00000KT 10SM OVC110 25/04 A3020 RMK AO2,M
05U,2023-07-24 15:30,-116.0051,39.6042,1811.23,73.40,46.40,38.18,M,M,0.00,30.31,M,10.00,M,M,M,M,M,M,M,M,M,M,M,M,M,M,M,M,73.40,K05U 241530Z AUTO 10SM 23/08 A3031 RMK A01,M
HTH,2023-07-24 15:30,-118.6315,38.5448,1282.89,78.80,53.60,41.69,100.00,10.00,0.00,30.17,M,10.00,M,CLR,M,M,M,M,M,M,M,M,M,M,M,M,M,M,78.80,KHTH 241530Z AUTO 10010KT 10SM CLR 26/12 A3017 RMK A01,M
BVU,2023-07-24 15:35,-114.8611,35.9475,671.00,95.00,53.60,24.89,170.00,5.00,0.00,30.03,M,10.00,M,CLR,M,M,M,M,M,M,M,M,M,M,M,M,M,M,92.71,KBVU 241535Z AUTO 17005KT 10SM CLR 35/12 A3003 RMK AO2,M
CXP,2023-07-24 15:35,-119.7326,39.1923,1431.00,78.80,44.60,29.79,200.00,3.00,0.00,30.18,M,10.00,M,CLR,M,M,M,M,M,M,M,M,M,M,M,M,M,M,78.80,KCXP 241535Z AUTO 20003KT 10SM CLR 26/07 A3018 RMK AO2,M
RTS,2023-07-24 15:35,-119.8764,39.6682,1539.00,78.80,39.20,24.19,220.00,6.00,0.00,30.20,M,10.00,16.00,CLR,M,M,M,M,M,M,M,M,M,M,M,M,M,M,78.80,KRTS 241535Z AUTO 22006G16KT 10SM CLR 26/04 A3020 RMK AO2,M
MEV,2023-07-24 15:35,-119.7500,38.9963,1441.42,80.60,46.40,30.07,220.00,8.00,0.00,30.17,M,10.00,M,CLR,M,M,M,M,M,M,M,M,M,M,M,M,M,M,79.56,KMEV 241535Z AUTO 22008KT 10SM CLR 27/08 A3017 RMK AO2,M
TMT,2023-07-24 15:35,-117.1971,39.4643,1749.34,62.20,59.00,89.25,210.00,4.00,0.00,30.35,M,M,M,M,M,M,M,M,M,M,M,M,M,M,M,M,M,M,62.20,KTMT 241535Z AUTO 21004KT 17/15 A3035 RMK AO2 T01680150 PWINO,M
10U,2023-07-24 15:35,-116.1876,41.9532,1637.00,75.20,44.60,33.57,0.00,0.00,0.00,30.22,M,10.00,M,FEW,BKN,M,M,8000.00,11000.00,M,M,M,M,M,M,M,M,M,75.20,K10U 241535Z AUTO 00000KT 10SM FEW080 BKN110 24/07 A3022 RMK AO2,M
BAM,2023-07-24 15:35,-116.8743,40.5990,1382.36,73.40,53.60,49.90,240.00,11.00,0.00,30.23,M,10.00,20.00,BKN,M,M,M,11000.00,M,M,M,M,M,M,M,M,M,M,73.40,KBAM 241535Z AUTO 24011G20KT 10SM BKN110 23/12 A3023 RMK AO1,M
05U,2023-07-24 15:50,-116.0051,39.6042,1811.23,75.20,46.40,35.94,M,M,0.00,30.31,M,10.00,M,M,M,M,M,M,M,M,M,M,M,M,M,M,M,M,75.20,K05U 241550Z AUTO 10SM 24/08 A3031 RMK A01,M
P68,2023-07-24 15:53,-116.0056,39.6014,1993.00,75.00,47.00,37.01,330.00,6.00,0.00,30.29,1016.00,M,M,M,M,M,M,M,M,M,M,M,M,M,M,M,M,M,75.00,KP68 241553Z AUTO 33006KT 24/08 A3029 RMK AO1 SLP160 T02390083,M
DRA,2023-07-24 15:53,-116.0278,36.6206,1009.00,90.00,47.00,22.76,220.00,5.00,0.00,30.11,1013.70,10.00,M,BKN,M,M,M,10000.00,M,M,M,M,M,M,M,M,M,M,86.66,KDRA 241553Z AUTO 22005KT 10SM BKN100 32/08 A3011 RMK AO2 SLP137 T03220083,M
ELY,2023-07-24 15:53,-114.8453,39.2950,1909.00,79.00,49.00,34.94,200.00,8.00,0.00,30.31,1014.50,10.00,18.00,FEW,M,M,M,10000.00,M,M,M,M,M,M,M,M,M,M,79.00,KELY 241553Z AUTO 20008G18KT 10SM FEW100 26/09 A3031 RMK AO2 SLP145 T02610094,M
VGT,2023-07-24 15:53,-115.1933,36.2111,667.00,96.00,53.00,23.61,160.00,6.00,0.00,30.03,1015.10,10.00,M,CLR,M,M,M,M,M,M,M,M,M,M,M,M,M,M,93.59,KVGT 241553Z 16006KT 10SM CLR 36/12 A3003 RMK AO2 SLP151 T03560117,M
LOL,2023-07-24 15:53,-118.5701,40.0684,1192.43,84.00,49.00,29.69,200.00,7.00,0.00,30.12,1014.40,10.00,M,CLR,M,M,M,M,M,M,M,M,M,M,M,M,M,M,81.98,KLOL 241553Z AUTO 20007KT 10SM CLR 29/09 A3012 RMK AO2 SLP144 T02890094,M
BVU,2023-07-24 15:55,-114.8611,35.9475,671.00,96.80,51.80,22.04,160.00,10.00,0.00,30.03,M,10.00,M,CLR,M,M,M,M,M,M,M,M,M,M,M,M,M,M,94.12,KBVU 241555Z AUTO 16010KT 140V200 10SM CLR 36/11 A3003 RMK AO2,M
CXP,2023-07-24 15:55,-119.7326,39.1923,1431.00,80.60,44.60,28.08,200.00,4.00,0.00,30.18,M,10.00,M,CLR,M,M,M,M,M,M,M,M,M,M,M,M,M,M,79.42,KCXP 241555Z AUTO 20004KT 10SM CLR 27/07 A3018 RMK AO2,M
INS,2023-07-24 15:55,-115.6733,36.5872,955.00,92.00,50.00,23.92,110.00,10.00,0.00,30.08,1012.80,10.00,M,CLR,M,M,M,M,M,M,M,M,M,M,M,M,M,M,88.94,KINS 241555Z AUTO 11010KT 10SM CLR 33/10 A3008 RMK AO2 SLP128 T03340100 $,M
RNO,2023-07-24 15:55,-119.7711,39.4839,1341.00,82.00,44.00,26.23,60.00,5.00,0.00,30.14,1013.90,10.00,M,FEW,BKN,M,M,15000.00,23000.00,M,M,M,M,M,M,M,M,M,80.21,KRNO 241555Z 06005KT 10SM FEW150 BKN230 28/07 A3014 RMK AO2 SLP139 T02780067,M
RTS,2023-07-24 15:55,-119.8764,39.6682,1539.00,78.80,39.20,24.19,230.00,12.00,0.00,30.20,M,10.00,17.00,CLR,M,M,M,M,M,M,M,M,M,M,M,M,M,M,78.80,KRTS 241555Z AUTO 23012G17KT 10SM CLR 26/04 A3020 RMK AO2,M
MEV,2023-07-24 15:55,-119.7500,38.9963,1441.42,80.60,46.40,30.07,M,3.00,0.00,30.17,M,10.00,M,CLR,M,M,M,M,M,M,M,M,M,M,M,M,M,M,79.56,KMEV 241555Z AUTO VRB03KT 10SM CLR 27/08 A3017 RMK AO2,M
HTH,2023-07-24 15:55,-118.6315,38.5448,1282.89,82.40,48.20,30.35,130.00,14.00,0.00,30.17,M,10.00,21.00,CLR,M,M,M,M,M,M,M,M,M,M,M,M,M,M,80.80,KHTH 241555Z AUTO 13014G21KT 10SM CLR 28/09 A3017 RMK A01,M
TMT,2023-07-24 15:55,-117.1971,39.4643,1749.34,62.80,60.00,90.56,270.00,3.00,0.01,30.34,M,M,M,M,M,M,M,M,M,M,M,M,M,M,M,M,M,M,62.80,KTMT 241555Z AUTO 27003KT 17/16 A3034 RMK AO2 P0001 T01710156 PWINO,M
BAM,2023-07-24 15:55,-116.8743,40.5990,1382.36,73.40,53.60,49.90,230.00,10.00,0.00,30.24,M,10.00,15.00,SCT,OVC,M,M,8500.00,10000.00,M,M,M,M,M,M,M,M,M,73.40,KBAM 241555Z AUTO 23010G15KT 10SM SCT085 OVC100 23/12 A3024 RMK AO1,M
10U,2023-07-24 15:55,-116.1876,41.9532,1637.00,75.20,44.60,33.57,10.00,4.00,0.00,30.22,M,10.00,M,FEW,SCT,M,M,7000.00,10000.00,M,M,M,M,M,M,M,M,M,75.20,K10U 241555Z AUTO 01004KT 10SM FEW070 SCT100 24/07 A3022 RMK AO2,M
LSV,2023-07-24 15:55,-115.0343,36.2362,570.00,99.00,54.70,22.93,0.00,0.00,0.00,29.99,1012.40,10.00,M,CLR,M,M,M,M,M,M,M,M,M,M,M,M,M,M,97.29,KLSV 241555Z AUTO 00000KT 10SM CLR 37/13 A2999 RMK AO2 SLP124 T03730126 $,M
EKO,2023-07-24 15:56,-115.7860,40.8242,1367.00,80.00,50.00,35.10,230.00,15.00,0.00,30.20,1016.00,10.00,22.00,CLR,M,M,M,M,M,M,M,M,M,M,M,M,M,M,79.55,KEKO 241556Z AUTO 23015G22KT 10SM CLR 27/10 A3020 RMK AO2 SLP160 T02670100,M
WMC,2023-07-24 15:56,-117.8072,40.9019,1315.00,77.00,50.00,38.74,180.00,18.00,0.00,30.14,1014.80,10.00,30.00,CLR,M,M,M,M,M,M,M,M,M,M,M,37.00,180.00,2023-07-24 15:03,77.00,KWMC 241556Z AUTO 18018G30KT 10SM CLR 25/10 A3014 RMK AO2 PK WND 18037/1503 SLP148 T02500100,M
NFL,2023-07-24 15:56,-118.7010,39.4166,1199.00,85.00,52.00,32.14,180.00,13.00,0.00,30.12,1016.50,10.00,M,SCT,SCT,M,M,11000.00,18000.00,M,M,M,M,M,M,M,M,M,83.11,KNFL 241556Z 18013KT 10SM SCT110 SCT180 29/11 A3012 RMK AO2 SLP165 T02940111,M
HND,2023-07-24 15:56,-115.1344,35.9729,742.79,96.00,53.00,23.61,180.00,8.00,0.00,30.08,1016.40,10.00,M,CLR,M,M,M,M,M,M,M,M,M,M,M,M,M,M,93.59,KHND 241556Z 18008KT 10SM CLR 36/12 A3008 RMK AO2 SLP164 T03560117,M
TPH,2023-07-24 15:56,-117.0904,38.0505,1654.00,65.00,58.00,78.06,290.00,14.00,T,30.32,1018.50,7.00,21.00,FEW,FEW,OVC,M,4500.00,7000.00,8500.00,M,RA,M,M,M,M,M,M,65.00,KTPH 241556Z AUTO 29014G21KT 7SM RA FEW045 FEW070 OVC085 18/14 A3032 RMK AO2 RAB01E14B30 SLP185 P0000 T01830144,M
LAS,2023-07-24 15:56,-115.1634,36.0719,663.00,96.00,50.00,21.13,170.00,9.00,0.00,30.03,1013.60,10.00,M,FEW,SCT,M,M,14000.00,25000.00,M,M,M,M,M,M,M,M,M,92.89,KLAS 241556Z 17009KT 10SM FEW140 SCT250 36/10 A3003 RMK AO2 SLP136 T03560100,M
05U,2023-07-24 16:10,-116.0051,39.6042,1811.23,75.20,46.40,35.94,M,M,0.00,30.31,M,10.00,M,M,M,M,M,M,M,M,M,M,M,M,M,M,M,M,75.20,K05U 241610Z AUTO 10SM 24/08 A3031 RMK A01,M
BVU,2023-07-24 16:15,-114.8611,35.9475,671.00,96.80,53.60,23.55,160.00,7.00,0.00,30.03,M,10.00,14.00,CLR,M,M,M,M,M,M,M,M,M,M,M,M,M,M,94.59,KBVU 241615Z AUTO 16007G14KT 10SM CLR 36/12 A3003 RMK AO2,M
CXP,2023-07-24 16:15,-119.7326,39.1923,1431.00,84.20,44.60,24.99,210.00,4.00,0.00,30.18,M,10.00,10.00,CLR,M,M,M,M,M,M,M,M,M,M,M,M,M,M,81.73,KCXP 241615Z AUTO 21004G10KT 10SM CLR 29/07 A3018 RMK AO2,M
RTS,2023-07-24 16:15,-119.8764,39.6682,1539.00,78.80,41.00,25.95,230.00,9.00,0.00,30.21,M,10.00,17.00,CLR,M,M,M,M,M,M,M,M,M,M,M,M,M,M,78.80,KRTS 241615Z AUTO 23009G17KT 10SM CLR 26/05 A3021 RMK AO2,M
MEV,2023-07-24 16:15,-119.7500,38.9963,1441.42,84.20,46.40,26.76,230.00,7.00,0.00,30.17,M,10.00,15.00,CLR,M,M,M,M,M,M,M,M,M,M,M,M,M,M,81.87,KMEV 241615Z AUTO 23007G15KT 160V250 10SM CLR 29/08 A3017 RMK AO2,M
HTH,2023-07-24 16:15,-118.6315,38.5448,1282.89,82.40,48.20,30.35,150.00,17.00,0.00,30.16,M,10.00,M,CLR,M,M,M,M,M,M,M,M,M,M,M,M,M,M,80.80,KHTH 241615Z AUTO 15017KT 10SM CLR 28/09 A3016 RMK A01,M
BAM,2023-07-24 16:15,-116.8743,40.5990,1382.36,73.40,55.40,53.29,230.00,5.00,0.00,30.23,M,10.00,M,SCT,OVC,M,M,6500.00,10000.00,M,M,M,M,M,M,M,M,M,73.40,KBAM 241615Z AUTO 23005KT 10SM SCT065 OVC100 23/13 A3023 RMK AO1,M
10U,2023-07-24 16:15,-116.1876,41.9532,1637.00,75.20,44.60,33.57,260.00,18.00,0.00,30.24,M,10.00,24.00,FEW,SCT,BKN,M,5500.00,7000.00,10000.00,M,M,M,M,M,M,M,M,75.20,K10U 241615Z AUTO 26018G24KT 10SM FEW055 SCT070 BKN100 24/07 A3024 RMK AO2,M
TMT,2023-07-24 16:15,-117.1971,39.4643,1749.34,63.00,60.30,90.89,0.00,0.00,0.01,30.34,M,M,M,M,M,M,M,M,M,M,M,M,M,M,M,M,M,M,63.00,KTMT 241615Z AUTO 00000KT 17/16 A3034 RMK AO2 P0001 T01720157 PWINO,M
05U,2023-07-24 16:30,-116.0051,39.6042,1811.23,78.80,48.20,34.13,M,M,0.00,30.32,M,10.00,M,M,M,M,M,M,M,M,M,M,M,M,M,M,M,M,78.80,K05U 241630Z AUTO 10SM 26/09 A3032 RMK A01,M
BVU,2023-07-24 16:35,-114.8611,35.9475,671.00,96.80,51.80,22.04,170.00,9.00,0.00,30.03,M,10.00,M,CLR,M,M,M,M,M,M,M,M,M,M,M,M,M,M,94.12,KBVU 241635Z AUTO 17009KT 10SM CLR 36/11 A3003 RMK AO2,M
CXP,2023-07-24 16:35,-119.7326,39.1923,1431.00,84.20,41.00,21.76,M,5.00,0.00,30.18,M,10.00,11.00,CLR,M,M,M,M,M,M,M,M,M,M,M,M,M,M,81.52,KCXP 241635Z AUTO VRB05G11KT 10SM CLR 29/05 A3018 RMK AO2,M
RTS,2023-07-24 16:35,-119.8764,39.6682,1539.00,80.60,41.00,24.46,230.00,12.00,0.00,30.21,M,10.00,20.00,CLR,M,M,M,M,M,M,M,M,M,M,M,M,M,M,79.20,KRTS 241635Z AUTO 23012G20KT 10SM CLR 27/05 A3021 RMK AO2,M
MEV,2023-07-24 16:35,-119.7500,38.9963,1441.42,82.40,41.00,23.07,190.00,10.00,0.00,30.17,M,10.00,M,CLR,M,M,M,M,M,M,M,M,M,M,M,M,M,M,80.29,KMEV 241635Z AUTO 19010KT 10SM CLR 28/05 A3017 RMK AO2,M
HTH,2023-07-24 16:35,-118.6315,38.5448,1282.89,86.00,48.20,27.03,130.00,15.00,0.00,30.15,M,10.00,21.00,CLR,M,M,M,M,M,M,M,M,M,M,M,M,M,M,83.40,KHTH 241635Z AUTO 13015G21KT 10SM CLR 30/09 A3015 RMK A01,M
10U,2023-07-24 16:35,-116.1876,41.9532,1637.00,71.60,50.00,46.43,290.00,7.00,0.00,30.25,M,9.00,13.00,FEW,FEW,SCT,M,6000.00,7000.00,10000.00,M,-RA,M,M,M,M,M,M,71.60,K10U 241635Z AUTO 29007G13KT 9SM -RA FEW060 FEW070 SCT100 22/10 A3025 RMK AO2,M
BAM,2023-07-24 16:35,-116.8743,40.5990,1382.36,73.40,55.40,53.29,220.00,4.00,0.00,30.21,M,10.00,M,SCT,BKN,OVC,M,5000.00,9000.00,11000.00,M,M,M,M,M,M,M,M,73.40,KBAM 241635Z AUTO 22004KT 10SM SCT050 BKN090 OVC110 23/13 A3021 RMK AO1,M
TMT,2023-07-24 16:35,-117.1971,39.4643,1749.34,63.30,57.60,81.66,210.00,7.00,0.01,30.33,M,M,M,SCT,SCT,BKN,M,3800.00,5000.00,8000.00,M,M,M,M,M,M,M,M,63.30,KTMT 241635Z AUTO 21007KT SCT038 SCT050 BKN080 17/14 A3033 RMK AO2 P0001 T01740142 PWINO,M
05U,2023-07-24 16:50,-116.0051,39.6042,1811.23,80.60,44.60,28.08,M,M,0.00,30.32,M,10.00,M,M,M,M,M,M,M,M,M,M,M,M,M,M,M,M,79.42,K05U 241650Z AUTO 10SM 27/07 A3032 RMK A01,M
P68,2023-07-24 16:53,-116.0056,39.6014,1993.00,79.00,44.00,28.93,280.00,4.00,0.00,30.29,1015.70,M,M,M,M,M,M,M,M,M,M,M,M,M,M,M,M,M,79.00,KP68 241653Z AUTO 28004KT 26/07 A3029 RMK AO1 SLP157 T02610067,M
DRA,2023-07-24 16:53,-116.0278,36.6206,1009.00,94.00,45.00,18.62,240.00,12.00,0.00,30.11,1013.50,10.00,19.00,CLR,M,M,M,M,M,M,M,M,M,M,M,M,M,M,90.15,KDRA 241653Z AUTO 24012G19KT 10SM CLR 34/07 A3011 RMK AO2 SLP135 T03440072,M
ELY,2023-07-24 16:53,-114.8453,39.2950,1909.00,81.00,47.00,30.36,170.00,15.00,0.00,30.31,1014.80,10.00,22.00,BKN,M,M,M,11000.00,M,M,M,M,M,M,M,M,M,M,79.84,KELY 241653Z AUTO 17015G22KT 10SM BKN110 27/08 A3031 RMK AO2 SLP148 T02720083,M
VGT,2023-07-24 16:53,-115.1933,36.2111,667.00,98.00,53.00,22.21,120.00,7.00,0.00,30.03,1015.10,10.00,M,CLR,M,M,M,M,M,M,M,M,M,M,M,M,M,M,95.69,KVGT 241653Z 12007KT 10SM CLR 37/12 A3003 RMK AO2 SLP151 T03670117,M
LOL,2023-07-24 16:53,-118.5701,40.0684,1192.43,88.00,50.00,27.12,200.00,13.00,0.00,30.10,1013.90,10.00,19.00,CLR,M,M,M,M,M,M,M,M,M,M,M,M,M,M,85.28,KLOL 241653Z AUTO 20013G19KT 10SM CLR 31/10 A3010 RMK AO2 SLP139 T03110100,M
BVU,2023-07-24 16:55,-114.8611,35.9475,671.00,98.60,51.80,20.87,170.00,11.00,0.00,30.03,M,10.00,M,CLR,M,M,M,M,M,M,M,M,M,M,M,M,M,M,96.00,KBVU 241655Z AUTO 17011KT 10SM CLR 37/11 A3003 RMK AO2,M
CXP,2023-07-24 16:55,-119.7326,39.1923,1431.00,82.40,41.00,23.07,260.00,7.00,0.00,30.19,M,10.00,M,CLR,M,M,M,M,M,M,M,M,M,M,M,M,M,M,80.29,KCXP 241655Z AUTO 26007KT 230V290 10SM CLR 28/05 A3019 RMK AO2,M
INS,2023-07-24 16:55,-115.6733,36.5872,955.00,94.50,48.40,20.85,300.00,8.00,0.00,30.09,1013.10,10.00,M,CLR,M,M,M,M,M,M,M,M,M,M,M,M,M,M,91.10,KINS 241655Z AUTO 30008KT 10SM CLR 35/09 A3009 RMK AO2 SLP131 T03470091 $,M
RNO,2023-07-24 16:55,-119.7711,39.4839,1341.00,87.00,44.00,22.33,260.00,10.00,0.00,30.14,1013.80,10.00,M,FEW,BKN,M,M,15000.00,23000.00,M,M,M,M,M,M,M,M,M,83.82,KRNO 241655Z 26010KT 10SM FEW150 BKN230 31/07 A3014 RMK AO2 SLP138 T03060067,M
RTS,2023-07-24 16:55,-119.8764,39.6682,1539.00,80.60,41.00,24.46,190.00,17.00,0.00,30.21,M,10.00,M,CLR,M,M,M,M,M,M,M,M,M,M,M,M,M,M,79.20,KRTS 241655Z AUTO 19017KT 10SM CLR 27/05 A3021 RMK AO2,M
MEV,2023-07-24 16:55,-119.7500,38.9963,1441.42,82.40,42.80,24.72,210.00,8.00,0.00,30.17,M,10.00,M,CLR,M,M,M,M,M,M,M,M,M,M,M,M,M,M,80.39,KMEV 241655Z AUTO 21008KT 10SM CLR 28/06 A3017 RMK AO2,M
HTH,2023-07-24 16:55,-118.6315,38.5448,1282.89,87.80,48.20,25.52,140.00,15.00,0.00,30.15,M,10.00,M,CLR,M,M,M,M,M,M,M,M,M,M,M,M,M,M,84.87,KHTH 241655Z AUTO 14015KT 10SM CLR 31/09 A3015 RMK A01,M
BAM,2023-07-24 16:55,-116.8743,40.5990,1382.36,75.20,55.40,50.17,220.00,7.00,0.00,30.21,M,10.00,M,SCT,SCT,BKN,M,4000.00,4900.00,11000.00,M,M,M,M,M,M,M,M,75.20,KBAM 241655Z AUTO 22007KT 10SM SCT040 SCT049 BKN110 24/13 A3021 RMK AO1,M
10U,2023-07-24 16:55,-116.1876,41.9532,1637.00,73.40,50.00,43.69,250.00,3.00,0.00,30.24,M,10.00,M,BKN,M,M,M,10000.00,M,M,M,-RA,M,M,M,M,M,M,73.40,K10U 241655Z AUTO 25003KT 10SM -RA BKN100 23/10 A3024 RMK AO2,M
LSV,2023-07-24 16:55,-115.0343,36.2362,570.00,103.30,55.60,20.82,310.00,3.00,0.00,29.98,1012.20,10.00,M,CLR,M,M,M,M,M,M,M,M,M,M,M,M,M,M,102.33,KLSV 241655Z AUTO 31003KT 10SM CLR 40/13 A2998 RMK AO2 SLP122 T03960131 $,M
EKO,2023-07-24 16:56,-115.7860,40.8242,1367.00,82.00,47.00,29.39,250.00,21.00,0.00,30.22,1016.30,10.00,31.00,FEW,M,M,M,12000.00,M,M,M,M,M,M,M,34.00,250.00,2023-07-24 16:42,80.44,KEKO 241656Z AUTO 25021G31KT 10SM FEW120 28/08 A3022 RMK AO2 PK WND 25034/1642 SLP163 T02780083,M
WMC,2023-07-24 16:56,-117.8072,40.9019,1315.00,87.00,48.00,25.98,160.00,15.00,0.00,30.13,1014.00,10.00,22.00,CLR,M,M,M,M,M,M,M,M,M,M,M,27.00,180.00,2023-07-24 16:09,84.18,KWMC 241656Z AUTO 16015G22KT 10SM CLR 31/09 A3013 RMK AO2 PK WND 18027/1609 SLP140 T03060089,M
NFL,2023-07-24 16:56,-118.7010,39.4166,1199.00,88.00,52.00,29.21,160.00,14.00,0.00,30.11,1016.40,10.00,21.00,SCT,SCT,SCT,M,11000.00,18000.00,22000.00,M,M,M,M,M,M,M,M,85.60,KNFL 241656Z 16014G21KT 10SM SCT110 SCT180 SCT220 31/11 A3011 RMK AO2 SLP164 T03110111,M
HND,2023-07-24 16:56,-115.1344,35.9729,742.79,99.00,52.00,20.77,M,5.00,0.00,30.07,1016.00,10.00,M,CLR,M,M,M,M,M,M,M,M,M,M,M,M,M,M,96.47,KHND 241656Z VRB05KT 10SM CLR 37/11 A3007 RMK AO2 SLP160 T03720111,M
TPH,2023-07-24 16:56,-117.0904,38.0505,1654.00,69.00,58.00,67.97,50.00,10.00,T,30.30,1017.80,10.00,M,SCT,BKN,M,M,9000.00,11000.00,M,M,M,M,M,M,M,M,M,69.00,KTPH 241656Z AUTO 05010KT 10SM SCT090 BKN110 21/14 A3030 RMK AO2 RAE14B38E49 SLP178 P0000 T02060144,M
LAS,2023-07-24 16:56,-115.1634,36.0719,663.00,99.00,50.00,19.28,170.00,9.00,0.00,30.03,1013.50,10.00,M,FEW,SCT,M,M,14000.00,25000.00,M,M,M,M,M,M,M,M,M,95.97,KLAS 241656Z 17009KT 10SM FEW140 SCT250 37/10 A3003 RMK AO2 SLP135 T03720100,M
05U,2023-07-24 17:10,-116.0051,39.6042,1811.23,82.40,46.40,28.36,M,M,0.00,30.32,M,10.00,M,M,M,M,M,M,M,M,M,M,M,M,M,M,M,M,80.64,K05U 241710Z AUTO 10SM 28/08 A3032 RMK A01,M
BVU,2023-07-24 17:15,-114.8611,35.9475,671.00,100.40,51.80,19.76,160.00,9.00,0.00,30.03,M,10.00,17.00,CLR,M,M,M,M,M,M,M,M,M,M,M,M,M,M,97.90,KBVU 241715Z AUTO 16009G17KT 10SM CLR 38/11 A3003 RMK AO2,M
CXP,2023-07-24 17:15,-119.7326,39.1923,1431.00,84.20,41.00,21.76,260.00,5.00,0.00,30.19,M,10.00,10.00,CLR,M,M,M,M,M,M,M,M,M,M,M,M,M,M,81.52,KCXP 241715Z AUTO 26005G10KT 10SM CLR 29/05 A3019 RMK AO2,M
RTS,2023-07-24 17:15,-119.8764,39.6682,1539.00,82.40,41.00,23.07,200.00,14.00,0.00,30.21,M,10.00,M,CLR,M,M,M,M,M,M,M,M,M,M,M,M,M,M,80.29,KRTS 241715Z AUTO 20014KT 10SM CLR 28/05 A3021 RMK AO2,M
MEV,2023-07-24 17:15,-119.7500,38.9963,1441.42,82.40,37.40,20.04,210.00,8.00,0.00,30.18,M,10.00,M,CLR,M,M,M,M,M,M,M,M,M,M,M,M,M,M,80.14,KMEV 241715Z AUTO 21008KT 10SM CLR 28/03 A3018 RMK AO2,M
HTH,2023-07-24 17:15,-118.6315,38.5448,1282.89,87.80,46.40,23.85,150.00,14.00,0.00,30.15,M,10.00,21.00,CLR,M,M,M,M,M,M,M,M,M,M,M,M,M,M,84.68,KHTH 241715Z AUTO 15014G21KT 10SM CLR 31/08 A3015 RMK A01,M
TMT,2023-07-24 17:15,-117.1971,39.4643,1749.34,61.70,58.60,89.55,210.00,5.00,0.03,30.34,M,M,M,M,M,M,M,M,M,M,M,M,M,M,M,M,M,M,61.70,KTMT 241715Z AUTO 21005KT 17/15 A3034 RMK AO2 P0003 T01650148 PWINO,M
10U,2023-07-24 17:15,-116.1876,41.9532,1637.00,73.40,50.00,43.69,250.00,17.00,0.00,30.26,M,10.00,24.00,FEW,FEW,SCT,M,5500.00,7000.00,10000.00,M,-RA,M,M,M,M,M,M,73.40,K10U 241715Z AUTO 25017G24KT 10SM -RA FEW055 FEW070 SCT100 23/10 A3026 RMK AO2,M
BAM,2023-07-24 17:15,-116.8743,40.5990,1382.36,77.00,53.60,44.25,180.00,5.00,0.00,30.22,M,10.00,M,CLR,M,M,M,M,M,M,M,M,M,M,M,M,M,M,77.00,KBAM 241715Z AUTO 18005KT 10SM CLR 25/12 A3022 RMK AO1,M
05U,2023-07-24 17:30,-116.0051,39.6042,1811.23,84.20,48.20,28.63,M,M,0.00,30.31,M,10.00,M,M,M,M,M,M,M,M,M,M,M,M,M,M,M,M,82.04,K05U 241730Z AUTO 10SM 29/09 A3031 RMK A01,M
BVU,2023-07-24 17:35,-114.8611,35.9475,671.00,100.40,51.80,19.76,170.00,6.00,0.00,30.03,M,10.00,12.00,CLR,M,M,M,M,M,M,M,M,M,M,M,M,M,M,97.90,KBVU 241735Z AUTO 17006G12KT 10SM CLR 38/11 A3003 RMK AO2,M
CXP,2023-07-24 17:35,-119.7326,39.1923,1431.00,86.00,35.60,16.63,210.00,7.00,0.00,30.19,M,10.00,16.00,CLR,M,M,M,M,M,M,M,M,M,M,M,M,M,M,82.69,KCXP 241735Z AUTO 21007G16KT 190V270 10SM CLR 30/02 A3019 RMK AO2,M
RTS,2023-07-24 17:35,-119.8764,39.6682,1539.00,84.20,35.60,17.61,200.00,17.00,0.00,30.21,M,10.00,M,CLR,M,M,M,M,M,M,M,M,M,M,M,M,M,M,81.34,KRTS 241735Z AUTO 20017KT 10SM CLR 29/02 A3021 RMK AO2,M
MEV,2023-07-24 17:35,-119.7500,38.9963,1441.42,84.20,37.40,18.91,170.00,13.00,0.00,30.18,M,10.00,18.00,CLR,M,M,M,M,M,M,M,M,M,M,M,M,M,M,81.38,KMEV 241735Z AUTO 17013G18KT 10SM CLR 29/03 A3018 RMK AO2,M
HTH,2023-07-24 17:35,-118.6315,38.5448,1282.89,89.60,46.40,22.53,150.00,17.00,0.00,30.14,M,10.00,M,CLR,M,M,M,M,M,M,M,M,M,M,M,M,M,M,86.24,KHTH 241735Z AUTO 15017KT 10SM CLR 32/08 A3014 RMK A01,M
TMT,2023-07-24 17:35,-117.1971,39.4643,1749.34,60.60,56.00,84.79,160.00,8.00,0.06,30.34,M,M,M,SCT,BKN,OVC,M,4800.00,7000.00,9000.00,M,M,M,M,M,M,M,M,60.60,KTMT 241735Z AUTO 16008KT SCT048 BKN070 OVC090 16/13 A3034 RMK AO2 P0006 T01590134 PWINO,M
10U,2023-07-24 17:35,-116.1876,41.9532,1637.00,75.20,46.40,35.94,230.00,11.00,0.00,30.26,M,10.00,17.00,CLR,M,M,M,M,M,M,M,M,M,M,M,M,M,M,75.20,K10U 241735Z AUTO 23011G17KT 10SM CLR 24/08 A3026 RMK AO2,M
BAM,2023-07-24 17:35,-116.8743,40.5990,1382.36,77.00,53.60,44.25,220.00,5.00,0.00,30.21,M,10.00,M,CLR,M,M,M,M,M,M,M,M,M,M,M,M,M,M,77.00,KBAM 241735Z AUTO 22005KT 10SM CLR 25/12 A3021 RMK AO1,M
05U,2023-07-24 17:50,-116.0051,39.6042,1811.23,86.00,46.40,25.26,M,M,0.00,30.31,M,10.00,M,M,M,M,M,M,M,M,M,M,M,M,M,M,M,M,83.22,K05U 241750Z AUTO 10SM 30/08 A3031 RMK A01,M
P68,2023-07-24 17:53,-116.0056,39.6014,1993.00,83.00,47.00,28.45,290.00,6.00,0.00,30.28,1015.30,M,17.00,M,M,M,M,M,M,M,M,M,M,M,M,M,M,M,81.09,KP68 241753Z AUTO 29006G17KT 28/08 A3028 RMK AO1 SLP153 T02830083 10283 20172 50003,M
DRA,2023-07-24 17:53,-116.0278,36.6206,1009.00,97.00,45.00,16.98,190.00,9.00,0.00,30.12,1013.60,10.00,15.00,CLR,M,M,M,M,M,M,M,M,M,M,M,M,M,M,93.04,KDRA 241753Z AUTO 19009G15KT 10SM CLR 36/07 A3012 RMK AO2 SLP136 T03610072 10361 20261 51007,M
ELY,2023-07-24 17:53,-114.8453,39.2950,1909.00,84.00,47.00,27.55,220.00,14.00,0.00,30.31,1014.70,10.00,M,CLR,M,M,M,M,M,M,M,M,M,M,M,M,M,M,81.78,KELY 241753Z AUTO 22014KT 10SM CLR 29/08 A3031 RMK AO2 SLP147 T02890083 10289 20172 58001,M
VGT,2023-07-24 17:53,-115.1933,36.2111,667.00,101.00,51.00,18.84,100.00,4.00,0.00,30.02,1014.70,10.00,M,CLR,M,M,M,M,M,M,M,M,M,M,M,M,M,M,98.30,KVGT 241753Z 10004KT 10SM CLR 38/11 A3002 RMK AO2 SLP147 T03830106 10389 20306 58001,M
LOL,2023-07-24 17:53,-118.5701,40.0684,1192.43,89.00,50.00,26.28,200.00,10.00,0.00,30.10,1013.90,10.00,22.00,CLR,M,M,M,M,M,M,M,M,M,M,M,M,M,M,86.16,KLOL 241753Z AUTO 20010G22KT 10SM CLR 32/10 A3010 RMK AO2 SLP139 T03170100 10322 20200 58003,M
BVU,2023-07-24 17:55,-114.8611,35.9475,671.00,102.20,51.80,18.72,150.00,9.00,0.00,30.02,M,10.00,14.00,CLR,M,M,M,M,M,M,M,M,M,M,M,M,M,M,99.80,KBVU 241755Z AUTO 15009G14KT 10SM CLR 39/11 A3002 RMK AO2,M
CXP,2023-07-24 17:55,-119.7326,39.1923,1431.00,87.80,33.80,14.61,200.00,7.00,0.00,30.19,M,10.00,15.00,CLR,M,M,M,M,M,M,M,M,M,M,M,M,M,M,84.10,KCXP 241755Z AUTO 20007G15KT 10SM CLR 31/01 A3019 RMK AO2,M
INS,2023-07-24 17:55,-115.6733,36.5872,955.00,96.00,45.70,17.98,20.00,3.00,0.00,30.09,1013.10,10.00,M,FEW,M,M,M,11000.00,M,M,M,M,M,M,M,M,M,M,92.16,KINS 241755Z AUTO 02003KT 10SM FEW110 36/08 A3009 RMK AO2 SLP131 T03560076 10357 20247 52005 $,M
RNO,2023-07-24 17:55,-119.7711,39.4839,1341.00,91.00,41.00,17.54,180.00,14.00,0.00,30.14,1013.70,10.00,21.00,FEW,BKN,M,M,15000.00,23000.00,M,M,M,M,M,M,M,M,M,87.04,KRNO 241755Z 18014G21KT 10SM FEW150 BKN230 33/05 A3014 RMK AO2 SLP137 ACSL DSNT N AND NE T03280050 10328 20206 51001,M
RTS,2023-07-24 17:55,-119.8764,39.6682,1539.00,84.20,35.60,17.61,210.00,13.00,0.00,30.21,M,10.00,21.00,CLR,M,M,M,M,M,M,M,M,M,M,M,M,M,M,81.34,KRTS 241755Z AUTO 21013G21KT 10SM CLR 29/02 A3021 RMK AO2,M
MEV,2023-07-24 17:55,-119.7500,38.9963,1441.42,82.40,39.20,21.51,170.00,15.00,0.00,30.18,M,10.00,21.00,CLR,M,M,M,M,M,M,M,M,M,M,M,M,M,M,80.21,KMEV 241755Z AUTO 17015G21KT 10SM CLR 28/04 A3018 RMK AO2,M
HTH,2023-07-24 17:55,-118.6315,38.5448,1282.89,89.60,44.60,21.04,140.00,19.00,0.00,30.14,M,10.00,27.00,CLR,M,M,M,M,M,M,M,M,M,M,M,M,M,M,86.07,KHTH 241755Z AUTO 14019G27KT 10SM CLR 32/07 A3014 RMK A01,M
BAM,2023-07-24 17:55,-116.8743,40.5990,1382.36,77.00,53.60,44.25,0.00,0.00,0.00,30.21,M,10.00,M,CLR,M,M,M,M,M,M,M,M,M,M,M,M,M,M,77.00,KBAM 241755Z AUTO 00000KT 10SM CLR 25/12 A3021 RMK AO1,M
TMT,2023-07-24 17:55,-117.1971,39.4643,1749.34,60.30,55.40,83.85,150.00,12.00,0.08,30.32,M,M,M,SCT,BKN,OVC,M,5000.00,7500.00,9000.00,M,M,M,M,M,M,M,M,60.30,KTMT 241755Z AUTO 15012KT SCT050 BKN075 OVC090 16/13 A3032 RMK AO2 P0008 60012 T01570130 10220 20155 PWINO,M
10U,2023-07-24 17:55,-116.1876,41.9532,1637.00,71.60,50.00,46.43,220.00,11.00,0.00,30.27,M,10.00,20.00,FEW,SCT,M,M,6500.00,10000.00,M,M,M,M,M,M,M,M,M,71.60,K10U 241755Z AUTO 22011G20KT 10SM FEW065 SCT100 22/10 A3027 RMK AO2,M
LSV,2023-07-24 17:55,-115.0343,36.2362,570.00,107.20,53.00,16.87,270.00,4.00,0.00,29.98,1012.10,10.00,M,CLR,M,M,M,M,M,M,M,M,M,M,M,M,M,M,105.47,KLSV 241755Z AUTO 27004KT 10SM CLR 42/12 A2998 RMK AO2 SLP121 T04180117 10418 20294 58002 $,M
EKO,2023-07-24 17:56,-115.7860,40.8242,1367.00,86.00,50.00,28.90,260.00,16.00,0.00,30.23,1016.50,10.00,23.00,FEW,M,M,M,12000.00,M,M,M,M,M,M,M,32.00,250.00,2023-07-24 17:08,83.62,KEKO 241756Z AUTO 26016G23KT 10SM FEW120 30/10 A3023 RMK AO2 PK WND 25032/1708 SLP165 T03000100 10300 20211 51012,M
WMC,2023-07-24 17:56,-117.8072,40.9019,1315.00,90.00,47.00,22.76,140.00,11.00,0.00,30.12,1013.40,10.00,19.00,CLR,M,M,M,M,M,M,M,M,M,M,M,M,M,M,86.66,KWMC 241756Z AUTO 14011G19KT 10SM CLR 32/08 A3012 RMK AO2 SLP134 60000 T03220083 10322 20222 58004,M
NFL,2023-07-24 17:56,-118.7010,39.4166,1199.00,90.00,52.00,27.42,170.00,11.00,0.00,30.11,1016.20,10.00,20.00,SCT,SCT,BKN,M,11000.00,18000.00,22000.00,M,M,M,M,M,M,M,M,87.40,KNFL 241756Z COR 17011G20KT 10SM SCT110 SCT180 BKN220 32/11 A3011 RMK AO2 SLP162 T03220111 10322 20256 58001,M
HND,2023-07-24 17:56,-115.1344,35.9729,742.79,101.00,50.00,18.15,220.00,12.00,0.00,30.06,1015.80,10.00,16.00,CLR,M,M,M,M,M,M,M,M,M,M,M,M,M,M,98.04,KHND 241756Z 22012G16KT 10SM CLR 38/10 A3006 RMK AO2 SLP158 T03830100 10389 20283 58001,M
TPH,2023-07-24 17:56,-117.0904,38.0505,1654.00,75.00,M,M,M,M,0.00,30.31,1017.60,10.00,M,CLR,M,M,M,M,M,M,M,M,M,M,M,M,M,M,M,KTPH 241756Z AUTO 10SM CLR 24/ A3031 RMK AO2 SLP176 60000 T0239 10244 20178 50000 $,M
LAS,2023-07-24 17:56,-115.1634,36.0719,663.00,101.00,49.00,17.49,190.00,7.00,0.00,30.02,1013.10,10.00,16.00,FEW,SCT,M,M,14000.00,25000.00,M,M,M,M,M,M,M,M,M,97.79,KLAS 241756Z 19007G16KT 10SM FEW140 SCT250 38/09 A3002 RMK AO2 SLP131 T03830094 10389 20306 58001,M
05U,2023-07-24 18:10,-116.0051,39.6042,1811.23,80.60,46.40,30.07,M,M,0.00,30.31,M,10.00,M,M,M,M,M,M,M,M,M,M,M,M,M,M,M,M,79.56,K05U 241810Z AUTO 10SM 27/08 A3031 RMK A01,M
BVU,2023-07-24 18:15,-114.8611,35.9475,671.00,100.40,50.00,18.48,0.00,0.00,0.00,30.01,M,10.00,12.00,CLR,M,M,M,M,M,M,M,M,M,M,M,M,M,M,97.42,KBVU 241815Z AUTO 00000G12KT 10SM CLR 38/10 A3001 RMK AO2,M
CXP,2023-07-24 18:15,-119.7326,39.1923,1431.00,87.80,35.60,15.70,190.00,7.00,0.00,30.19,M,10.00,13.00,CLR,M,M,M,M,M,M,M,M,M,M,M,M,M,M,84.12,KCXP 241815Z AUTO 19007G13KT 10SM CLR 31/02 A3019 RMK AO2,M
RTS,2023-07-24 18:15,-119.8764,39.6682,1539.00,84.20,33.80,16.39,200.00,12.00,0.00,30.21,M,10.00,17.00,CLR,M,M,M,M,M,M,M,M,M,M,M,M,M,M,81.30,KRTS 241815Z AUTO 20012G17KT 10SM CLR 29/01 A3021 RMK AO2,M
MEV,2023-07-24 18:15,-119.7500,38.9963,1441.42,84.20,39.20,20.29,170.00,15.00,0.00,30.18,M,10.00,23.00,CLR,M,M,M,M,M,M,M,M,M,M,M,M,M,M,81.44,KMEV 241815Z AUTO 17015G23KT 10SM CLR 29/04 A3018 RMK AO2,M
HTH,2023-07-24 18:15,-118.6315,38.5448,1282.89,91.40,44.60,19.89,140.00,12.00,0.00,30.13,M,10.00,21.00,CLR,M,M,M,M,M,M,M,M,M,M,M,M,M,M,87.68,KHTH 241815Z AUTO 14012G21KT 10SM CLR 33/07 A3013 RMK A01,M
TMT,2023-07-24 18:15,-117.1971,39.4643,1749.34,62.00,56.50,82.16,120.00,9.00,0.00,30.31,M,M,M,SCT,SCT,OVC,M,4200.00,6500.00,11000.00,M,M,M,M,M,M,M,M,62.00,KTMT 241815Z AUTO 12009KT SCT042 SCT065 OVC110 17/14 A3031 RMK AO2 T01660136 PWINO,M
10U,2023-07-24 18:15,-116.1876,41.9532,1637.00,71.60,50.00,46.43,200.00,8.00,0.00,30.27,M,10.00,M,BKN,M,M,M,10000.00,M,M,M,M,M,M,M,M,M,M,71.60,K10U 241815Z AUTO 20008KT 10SM BKN100 22/10 A3027 RMK AO2,M
BAM,2023-07-24 18:15,-116.8743,40.5990,1382.36,78.80,53.60,41.69,0.00,0.00,0.00,30.20,M,10.00,M,CLR,M,M,M,M,M,M,M,M,M,M,M,M,M,M,78.80,KBAM 241815Z AUTO 00000KT 10SM CLR 26/12 A3020 RMK AO1,M
05U,2023-07-24 18:30,-116.0051,39.6042,1811.23,80.60,46.40,30.07,M,M,0.00,30.31,M,10.00,M,M,M,M,M,M,M,M,M,M,M,M,M,M,M,M,79.56,K05U 241830Z AUTO 10SM 27/08 A3031 RMK A01,M
HTH,2023-07-24 18:30,-118.6315,38.5448,1282.89,93.20,42.80,17.55,130.00,10.00,0.00,30.13,M,10.00,M,CLR,M,M,M,M,M,M,M,M,M,M,M,M,M,M,89.17,KHTH 241830Z AUTO 13010KT 100V160 10SM CLR 34/06 A3013 RMK A01,M
BVU,2023-07-24 18:35,-114.8611,35.9475,671.00,102.20,50.00,17.51,M,3.00,0.00,30.01,M,10.00,13.00,CLR,M,M,M,M,M,M,M,M,M,M,M,M,M,M,99.28,KBVU 241835Z AUTO VRB03G13KT 10SM CLR 39/10 A3001 RMK AO2,M
CXP,2023-07-24 18:35,-119.7326,39.1923,1431.00,89.60,35.60,14.83,200.00,9.00,0.00,30.19,M,10.00,16.00,CLR,M,M,M,M,M,M,M,M,M,M,M,M,M,M,85.62,KCXP 241835Z AUTO 20009G16KT 160V240 10SM CLR 32/02 A3019 RMK AO2,M
RTS,2023-07-24 18:35,-119.8764,39.6682,1539.00,84.20,33.80,16.39,240.00,11.00,0.00,30.22,M,10.00,18.00,CLR,M,M,M,M,M,M,M,M,M,M,M,M,M,M,81.30,KRTS 241835Z AUTO 24011G18KT 10SM CLR 29/01 A3022 RMK AO2,M
MEV,2023-07-24 18:35,-119.7500,38.9963,1441.42,84.20,39.20,20.29,170.00,19.00,0.00,30.18,M,10.00,24.00,CLR,M,M,M,M,M,M,M,M,M,M,M,M,M,M,81.44,KMEV 241835Z AUTO 17019G24KT 10SM CLR 29/04 A3018 RMK AO2,M
TMT,2023-07-24 18:35,-117.1971,39.4643,1749.34,64.00,56.30,76.03,40.00,3.00,0.00,30.32,M,M,M,SCT,M,M,M,11000.00,M,M,M,M,M,M,M,M,M,M,64.00,KTMT 241835Z AUTO 04003KT SCT110 18/14 A3032 RMK AO2 T01780135 PWINO,M
10U,2023-07-24 18:35,-116.1876,41.9532,1637.00,71.60,50.00,46.43,M,4.00,0.00,30.28,M,10.00,11.00,OVC,M,M,M,10000.00,M,M,M,M,M,M,M,M,M,M,71.60,K10U 241835Z AUTO VRB04G11KT 10SM OVC100 22/10 A3028 RMK AO2,M
BAM,2023-07-24 18:35,-116.8743,40.5990,1382.36,80.60,53.60,39.30,0.00,0.00,0.00,30.20,M,10.00,M,CLR,M,M,M,M,M,M,M,M,M,M,M,M,M,M,80.29,KBAM 241835Z AUTO 00000KT 10SM CLR 27/12 A3020 RMK AO1,M
05U,2023-07-24 18:50,-116.0051,39.6042,1811.23,80.60,46.40,30.07,M,M,0.00,30.31,M,10.00,M,M,M,M,M,M,M,M,M,M,M,M,M,M,M,M,79.56,K05U 241850Z AUTO 10SM 27/08 A3031 RMK A01,M
P68,2023-07-24 18:53,-116.0056,39.6014,1993.00,79.00,46.00,31.21,250.00,21.00,0.00,30.29,1015.60,M,29.00,M,M,M,M,M,M,M,M,M,M,M,M,29.00,240.00,2023-07-24 18:53,79.00,KP68 241853Z AUTO 25021G29KT 26/08 A3029 RMK AO1 PK WND 24029/1853 SLP156 T02610078,M
DRA,2023-07-24 18:53,-116.0278,36.6206,1009.00,98.00,45.00,16.47,240.00,6.00,0.00,30.11,1013.40,10.00,22.00,CLR,M,M,M,M,M,M,M,M,M,M,M,M,M,M,94.02,KDRA 241853Z AUTO 24006G22KT 10SM CLR 37/07 A3011 RMK AO2 SLP134 T03670072,M
ELY,2023-07-24 18:53,-114.8453,39.2950,1909.00,86.00,46.00,24.88,220.00,19.00,0.00,30.29,1014.30,10.00,29.00,CLR,M,M,M,M,M,M,M,M,M,M,M,30.00,210.00,2023-07-24 18:36,83.19,KELY 241853Z AUTO 22019G29KT 10SM CLR 30/08 A3029 RMK AO2 PK WND 21030/1836 SLP143 T03000078,M
VGT,2023-07-24 18:53,-115.1933,36.2111,667.00,105.00,50.00,16.11,160.00,13.00,0.00,30.00,1014.10,10.00,19.00,CLR,M,M,M,M,M,M,M,M,M,M,M,M,M,M,102.16,KVGT 241853Z 16013G19KT 10SM CLR 41/10 A3000 RMK AO2 SLP141 T04060100,M
LOL,2023-07-24 18:53,-118.5701,40.0684,1192.43,93.00,49.00,22.34,190.00,17.00,0.00,30.09,1013.70,10.00,23.00,CLR,M,M,M,M,M,M,M,M,M,M,M,M,M,M,89.73,KLOL 241853Z AUTO 19017G23KT 10SM CLR 34/09 A3009 RMK AO2 SLP137 T03390094,M
BVU,2023-07-24 18:55,-114.8611,35.9475,671.00,102.20,50.00,17.51,150.00,7.00,0.00,30.01,M,10.00,M,CLR,M,M,M,M,M,M,M,M,M,M,M,M,M,M,99.28,KBVU 241855Z AUTO 15007KT 10SM CLR 39/10 A3001 RMK AO2,M
CXP,2023-07-24 18:55,-119.7326,39.1923,1431.00,89.60,33.80,13.80,210.00,13.00,0.00,30.19,M,10.00,M,CLR,M,M,M,M,M,M,M,M,M,M,M,M,M,M,85.59,KCXP 241855Z AUTO 21013KT 10SM CLR 32/01 A3019 RMK AO2,M
INS,2023-07-24 18:55,-115.6733,36.5872,955.00,97.50,43.70,15.92,0.00,0.00,0.00,30.08,1012.80,10.00,M,CLR,M,M,M,M,M,M,M,M,M,M,M,M,M,M,93.36,KINS 241855Z AUTO 00000KT 10SM CLR 36/07 A3008 RMK AO2 SLP128 T03640065 $,M
RNO,2023-07-24 18:55,-119.7711,39.4839,1341.00,93.00,32.00,11.55,180.00,19.00,0.00,30.15,1013.80,10.00,27.00,FEW,BKN,M,M,15000.00,23000.00,M,M,M,M,M,M,30.00,170.00,2023-07-24 18:34,88.15,KRNO 241855Z 18019G27KT 10SM FEW150 BKN230 34/00 A3015 RMK AO2 PK WND 17030/1834 SLP138 ACSL DSNT N T03390000,M
LSV,2023-07-24 18:55,-115.0343,36.2362,570.00,106.30,49.00,14.94,110.00,10.00,0.00,29.96,1011.40,10.00,16.00,CLR,M,M,M,M,M,M,M,M,M,M,M,M,M,M,103.18,KLSV 241855Z AUTO 11010G16KT 10SM CLR 41/09 A2996 RMK AO2 SLP114 T04130094 $,M
RTS,2023-07-24 18:55,-119.8764,39.6682,1539.00,84.20,32.00,15.25,270.00,16.00,0.00,30.22,M,10.00,23.00,CLR,M,M,M,M,M,M,M,M,M,M,M,M,M,M,81.28,KRTS 241855Z AUTO 27016G23KT 10SM CLR 29/00 A3022 RMK AO2,M
MEV,2023-07-24 18:55,-119.7500,38.9963,1441.42,86.00,39.20,19.15,180.00,16.00,0.00,30.18,M,10.00,22.00,CLR,M,M,M,M,M,M,M,M,M,M,M,M,M,M,82.79,KMEV 241855Z AUTO 18016G22KT 10SM CLR 30/04 A3018 RMK AO2,M
HTH,2023-07-24 18:55,-118.6315,38.5448,1282.89,93.20,44.60,18.80,130.00,15.00,0.00,30.12,M,10.00,23.00,FEW,M,M,M,11000.00,M,M,M,M,M,M,M,M,M,M,89.34,KHTH 241855Z AUTO 13015G23KT 10SM FEW110 34/07 A3012 RMK A01,M
BAM,2023-07-24 18:55,-116.8743,40.5990,1382.36,80.60,51.80,36.79,220.00,7.00,0.00,30.20,M,10.00,M,CLR,M,M,M,M,M,M,M,M,M,M,M,M,M,M,80.08,KBAM 241855Z AUTO 22007KT 10SM CLR 27/11 A3020 RMK AO1,M
TMT,2023-07-24 18:55,-117.1971,39.4643,1749.34,68.00,57.00,67.86,330.00,5.00,0.00,30.31,M,M,M,CLR,M,M,M,M,M,M,M,M,M,M,M,M,M,M,68.00,KTMT 241855Z AUTO 33005KT CLR 20/14 A3031 RMK AO2 T01990139 PWINO,M
10U,2023-07-24 18:55,-116.1876,41.9532,1637.00,73.40,48.20,40.85,210.00,5.00,0.00,30.27,M,10.00,M,FEW,SCT,OVC,M,6000.00,7000.00,10000.00,M,M,M,M,M,M,M,M,73.40,K10U 241855Z AUTO 21005KT 10SM FEW060 SCT070 OVC100 23/09 A3027 RMK AO2,M
EKO,2023-07-24 18:56,-115.7860,40.8242,1367.00,86.00,49.00,27.85,260.00,13.00,0.00,30.23,1016.50,10.00,M,CLR,M,M,M,M,M,M,M,M,M,M,M,27.00,280.00,2023-07-24 18:09,83.49,KEKO 241856Z AUTO 26013KT 10SM CLR 30/09 A3023 RMK AO2 PK WND 28027/1809 SLP165 T03000094,M
WMC,2023-07-24 18:56,-117.8072,40.9019,1315.00,92.00,47.00,21.38,160.00,18.00,0.00,30.11,1012.90,10.00,26.00,FEW,M,M,M,10000.00,M,M,M,M,M,M,M,27.00,140.00,2023-07-24 18:35,88.49,KWMC 241856Z AUTO 16018G26KT 10SM FEW100 33/08 A3011 RMK AO2 PK WND 14027/1835 SLP129 T03330083,M
NFL,2023-07-24 18:56,-118.7010,39.4166,1199.00,94.00,49.00,21.65,170.00,13.00,0.00,30.10,1016.00,10.00,M,SCT,SCT,SCT,M,11000.00,18000.00,22000.00,M,M,M,M,M,26.00,170.00,2023-07-24 18:09,90.71,KNFL 241856Z 17013KT 10SM SCT110 SCT180 SCT220 34/09 A3010 RMK AO2 PK WND 17026/1809 SLP160 T03440094,M
HND,2023-07-24 18:56,-115.1344,35.9729,742.79,104.00,50.00,16.59,270.00,11.00,0.00,30.06,1015.60,10.00,17.00,CLR,M,M,M,M,M,M,M,M,M,M,M,M,M,M,101.14,KHND 241856Z 27011G17KT 10SM CLR 40/10 A3006 RMK AO2 SLP156 T04000100,M
TPH,2023-07-24 18:56,-117.0904,38.0505,1654.00,80.00,52.00,37.79,0.00,0.00,0.00,30.29,1016.70,10.00,M,CLR,M,M,M,M,M,M,M,M,M,M,M,M,M,M,79.75,KTPH 241856Z AUTO 00000KT 10SM CLR 27/11 A3029 RMK AO2 SLP167 T02670111,M
LAS,2023-07-24 18:56,-115.1634,36.0719,663.00,104.00,48.00,15.40,170.00,10.00,0.00,30.01,1012.80,10.00,20.00,FEW,FEW,SCT,M,14000.00,20000.00,25000.00,M,M,M,M,M,M,M,M,100.60,KLAS 241856Z 17010G20KT 10SM FEW140 FEW200 SCT250 40/09 A3001 RMK AO2 SLP128 T04000089,M
05U,2023-07-24 19:10,-116.0051,39.6042,1811.23,78.80,48.20,34.13,M,M,0.00,30.32,M,10.00,M,M,M,M,M,M,M,M,M,M,M,M,M,M,M,M,78.80,K05U 241910Z AUTO 10SM 26/09 A3032 RMK A01,M
BVU,2023-07-24 19:15,-114.8611,35.9475,671.00,104.00,48.20,15.52,210.00,8.00,0.00,30.00,M,10.00,20.00,CLR,M,M,M,M,M,M,M,M,M,M,M,M,M,M,100.65,KBVU 241915Z AUTO 21008G20KT 180V250 10SM CLR 40/09 A3000 RMK AO2,M
CXP,2023-07-24 19:15,-119.7326,39.1923,1431.00,89.60,33.80,13.80,190.00,11.00,0.00,30.19,M,10.00,20.00,CLR,M,M,M,M,M,M,M,M,M,M,M,M,M,M,85.59,KCXP 241915Z AUTO 19011G20KT 10SM CLR 32/01 A3019 RMK AO2,M
RTS,2023-07-24 19:15,-119.8764,39.6682,1539.00,84.20,28.40,13.18,260.00,15.00,0.00,30.22,M,10.00,21.00,CLR,M,M,M,M,M,M,M,M,M,M,M,M,M,M,81.25,KRTS 241915Z AUTO 26015G21KT 10SM CLR 29/M02 A3022 RMK AO2,M
MEV,2023-07-24 19:15,-119.7500,38.9963,1441.42,87.80,39.20,18.09,170.00,17.00,0.00,30.18,M,10.00,25.00,CLR,M,M,M,M,M,M,M,M,M,M,M,M,M,M,84.22,KMEV 241915Z AUTO 17017G25KT 10SM CLR 31/04 A3018 RMK AO2,M
HTH,2023-07-24 19:15,-118.6315,38.5448,1282.89,93.20,44.60,18.80,160.00,16.00,0.00,30.11,M,10.00,22.00,SCT,M,M,M,11000.00,M,M,M,M,M,M,M,M,M,M,89.34,KHTH 241915Z AUTO 16016G22KT 10SM SCT110 34/07 A3011 RMK A01,M
10U,2023-07-24 19:15,-116.1876,41.9532,1637.00,73.40,48.20,40.85,120.00,6.00,0.00,30.25,M,10.00,M,BKN,BKN,BKN,M,6500.00,8000.00,10000.00,M,M,M,M,M,M,M,M,73.40,K10U 241915Z AUTO 12006KT 10SM BKN065 BKN080 BKN100 23/09 A3025 RMK AO2,M
BAM,2023-07-24 19:15,-116.8743,40.5990,1382.36,82.40,51.80,34.69,180.00,7.00,0.00,30.20,M,10.00,M,CLR,M,M,M,M,M,M,M,M,M,M,M,M,M,M,81.20,KBAM 241915Z AUTO 18007KT 10SM CLR 28/11 A3020 RMK AO1,M
TMT,2023-07-24 19:15,-117.1971,39.4643,1749.34,70.00,55.80,60.67,0.00,0.00,0.00,30.31,M,M,M,CLR,M,M,M,M,M,M,M,M,M,M,M,M,M,M,70.00,KTMT 241915Z AUTO 00000KT CLR 21/13 A3031 RMK AO2 T02110132 PWINO,M
LSV,2023-07-24 19:28,-115.0343,36.2362,570.00,109.40,46.40,12.37,170.00,17.00,0.00,29.94,1010.70,10.00,M,CLR,M,M,M,M,M,M,M,M,M,M,M,M,M,M,105.36,KLSV 241928Z AUTO 17017KT 10SM CLR 43/08 A2994 RMK AO2 WSHFT 20 SLP107 $,M
05U,2023-07-24 19:30,-116.0051,39.6042,1811.23,75.20,50.00,41.14,M,M,0.00,30.34,M,10.00,M,M,M,M,M,M,M,M,M,M,M,M,M,M,M,M,75.20,K05U 241930Z AUTO 10SM 24/10 A3034 RMK A01,M
BVU,2023-07-24 19:35,-114.8611,35.9475,671.00,104.00,48.20,15.52,220.00,10.00,0.00,29.99,M,10.00,16.00,CLR,M,M,M,M,M,M,M,M,M,M,M,M,M,M,100.65,KBVU 241935Z AUTO 22010G16KT 10SM CLR 40/09 A2999 RMK AO2,M
CXP,2023-07-24 19:35,-119.7326,39.1923,1431.00,89.60,28.40,11.09,210.00,8.00,0.00,30.19,M,10.00,23.00,CLR,M,M,M,M,M,M,M,M,M,M,M,M,M,M,85.17,KCXP 241935Z AUTO 21008G23KT 180V250 10SM CLR 32/M02 A3019 RMK AO2,M
RTS,2023-07-24 19:35,-119.8764,39.6682,1539.00,86.00,26.60,11.55,260.00,16.00,0.00,30.22,M,10.00,24.00,CLR,M,M,M,M,M,M,M,M,M,M,M,M,M,M,82.39,KRTS 241935Z AUTO 26016G24KT 10SM CLR 30/M03 A3022 RMK AO2,M
MEV,2023-07-24 19:35,-119.7500,38.9963,1441.42,87.80,37.40,16.86,180.00,18.00,0.00,30.18,M,10.00,M,CLR,M,M,M,M,M,M,M,M,M,M,M,M,M,M,84.16,KMEV 241935Z AUTO 18018KT 10SM CLR 31/03 A3018 RMK AO2,M
HTH,2023-07-24 19:35,-118.6315,38.5448,1282.89,95.00,42.80,16.60,180.00,16.00,0.00,30.11,M,10.00,25.00,FEW,M,M,M,12000.00,M,M,M,M,M,M,M,M,M,M,90.86,KHTH 241935Z AUTO 18016G25KT 10SM FEW120 35/06 A3011 RMK A01,M
TMT,2023-07-24 19:35,-117.1971,39.4643,1749.34,70.70,56.00,59.67,20.00,3.00,0.00,30.31,M,M,M,CLR,M,M,M,M,M,M,M,M,M,M,M,M,M,M,70.70,KTMT 241935Z AUTO 02003KT CLR 22/13 A3031 RMK AO2 T02150134 PWINO,M
10U,2023-07-24 19:35,-116.1876,41.9532,1637.00,73.40,50.00,43.69,120.00,9.00,0.00,30.24,M,10.00,M,FEW,BKN,M,M,6500.00,11000.00,M,M,M,M,M,M,M,M,M,73.40,K10U 241935Z AUTO 12009KT 10SM FEW065 BKN110 23/10 A3024 RMK AO2,M
BAM,2023-07-24 19:35,-116.8743,40.5990,1382.36,82.40,53.60,37.07,180.00,6.00,0.00,30.20,M,10.00,M,CLR,M,M,M,M,M,M,M,M,M,M,M,M,M,M,81.46,KBAM 241935Z AUTO 18006KT 10SM CLR 28/12 A3020 RMK AO1,M
05U,2023-07-24 19:50,-116.0051,39.6042,1811.23,71.60,51.80,49.64,M,M,0.00,30.34,M,10.00,M,M,M,M,M,M,M,M,M,M,M,M,M,M,M,M,71.60,K05U 241950Z AUTO 10SM 22/11 A3034 RMK A01,M
P68,2023-07-24 19:53,-116.0056,39.6014,1993.00,70.00,51.00,50.89,250.00,16.00,0.00,30.31,1017.40,M,27.00,M,M,M,M,M,M,M,M,M,M,M,M,35.00,260.00,2023-07-24 19:16,70.00,KP68 241953Z AUTO 25016G27KT 21/11 A3031 RMK AO1 PK WND 26035/1916 SLP174 T02110106,M
DRA,2023-07-24 19:53,-116.0278,36.6206,1009.00,101.00,45.00,15.04,210.00,10.00,0.00,30.10,1013.00,10.00,22.00,CLR,M,M,M,M,M,M,M,M,M,M,M,M,M,M,96.97,KDRA 241953Z AUTO 21010G22KT 10SM CLR 38/07 A3010 RMK AO2 SLP130 T03830072,M
ELY,2023-07-24 19:53,-114.8453,39.2950,1909.00,89.00,47.00,23.49,200.00,15.00,0.00,30.27,1012.80,10.00,29.00,CLR,M,M,M,M,M,M,M,M,M,M,M,29.00,180.00,2023-07-24 19:47,85.77,KELY 241953Z AUTO 20015G29KT 10SM CLR 32/08 A3027 RMK AO2 PK WND 18029/1947 SLP128 T03170083,M
VGT,2023-07-24 19:53,-115.1933,36.2111,667.00,105.00,48.00,14.95,240.00,6.00,0.00,29.98,1013.50,10.00,19.00,CLR,M,M,M,M,M,M,M,M,M,M,M,M,M,M,101.60,KVGT 241953Z 24006G19KT 10SM CLR 41/09 A2998 RMK AO2 SLP135 T04060089,M
LOL,2023-07-24 19:53,-118.5701,40.0684,1192.43,92.00,45.00,19.82,190.00,7.00,0.00,30.08,1013.60,10.00,20.00,CLR,M,M,M,M,M,M,M,M,M,M,M,M,M,M,88.27,KLOL 241953Z AUTO 19007G20KT 170V230 10SM CLR 33/07 A3008 RMK AO2 SLP136 T03330072,M
BVU,2023-07-24 19:55,-114.8611,35.9475,671.00,105.80,48.20,14.71,150.00,12.00,0.00,29.98,M,10.00,21.00,CLR,M,M,M,M,M,M,M,M,M,M,M,M,M,M,102.45,KBVU 241955Z AUTO 15012G21KT 10SM CLR 41/09 A2998 RMK AO2,M
CXP,2023-07-24 19:55,-119.7326,39.1923,1431.00,91.40,30.20,11.28,210.00,11.00,0.00,30.20,M,10.00,17.00,CLR,M,M,M,M,M,M,M,M,M,M,M,M,M,M,86.71,KCXP 241955Z AUTO 21011G17KT 10SM CLR 33/M01 A3020 RMK AO2,M
INS,2023-07-24 19:55,-115.6733,36.5872,955.00,99.30,45.00,15.83,190.00,6.00,0.00,30.06,1012.10,10.00,M,CLR,M,M,M,M,M,M,M,M,M,M,M,M,M,M,95.30,KINS 241955Z AUTO 19006KT 10SM CLR 37/07 A3006 RMK AO2 SLP121 T03740073 $,M
RNO,2023-07-24 19:55,-119.7711,39.4839,1341.00,93.00,31.00,11.09,190.00,16.00,0.00,30.15,1013.80,10.00,25.00,FEW,BKN,M,M,15000.00,23000.00,M,M,M,M,M,M,27.00,180.00,2023-07-24 19:25,88.03,KRNO 241955Z 19016G25KT 10SM FEW150 BKN230 34/M01 A3015 RMK AO2 PK WND 18027/1925 SLP138 ACSL DSNT NE T03391006,M
LSV,2023-07-24 19:55,-115.0343,36.2362,570.00,108.70,44.80,11.88,190.00,17.00,0.00,29.93,1010.30,10.00,21.00,FEW,M,M,M,20000.00,M,M,M,M,M,M,M,M,M,M,104.20,KLSV 241955Z AUTO 19017G21KT 10SM FEW200 43/07 A2993 RMK AO2 SLP103 T04260071 $,M
RTS,2023-07-24 19:55,-119.8764,39.6682,1539.00,84.20,28.40,13.18,250.00,18.00,0.00,30.22,M,10.00,M,CLR,M,M,M,M,M,M,M,M,M,M,M,M,M,M,81.25,KRTS 241955Z AUTO 25018KT 10SM CLR 29/M02 A3022 RMK AO2,M
MEV,2023-07-24 19:55,-119.7500,38.9963,1441.42,86.00,37.40,17.85,170.00,15.00,0.00,30.19,M,10.00,23.00,CLR,M,M,M,M,M,M,M,M,M,M,M,M,M,M,82.73,KMEV 241955Z AUTO 17015G23KT 10SM CLR 30/03 A3019 RMK AO2,M
HTH,2023-07-24 19:55,-118.6315,38.5448,1282.89,93.20,41.00,16.37,240.00,10.00,0.00,30.11,M,10.00,19.00,FEW,M,M,M,12000.00,M,M,M,M,M,M,M,M,M,M,89.03,KHTH 241955Z AUTO 24010G19KT 10SM FEW120 34/05 A3011 RMK A01,M
BAM,2023-07-24 19:55,-116.8743,40.5990,1382.36,82.40,51.80,34.69,170.00,11.00,0.00,30.19,M,10.00,17.00,CLR,M,M,M,M,M,M,M,M,M,M,M,M,M,M,81.20,KBAM 241955Z AUTO 17011G17KT 140V260 10SM CLR 28/11 A3019 RMK AO1,M
10U,2023-07-24 19:55,-116.1876,41.9532,1637.00,78.80,48.20,34.13,110.00,10.00,0.00,30.24,M,10.00,M,FEW,M,M,M,12000.00,M,M,M,M,M,M,M,M,M,M,78.80,K10U 241955Z AUTO 11010KT 080V140 10SM FEW120 26/09 A3024 RMK AO2,M
EKO,2023-07-24 19:56,-115.7860,40.8242,1367.00,85.00,49.00,28.75,240.00,11.00,0.00,30.21,1016.20,10.00,M,FEW,M,M,M,11000.00,M,M,M,M,M,M,M,M,M,M,82.71,KEKO 241956Z AUTO 24011KT 10SM FEW110 29/09 A3021 RMK AO2 SLP162 T02940094,M
WMC,2023-07-24 19:56,-117.8072,40.9019,1315.00,91.00,47.00,22.05,150.00,16.00,0.00,30.09,1012.80,10.00,27.00,SCT,M,M,M,10000.00,M,M,M,M,M,M,M,29.00,160.00,2023-07-24 19:44,87.57,KWMC 241956Z AUTO 15016G27KT 10SM SCT100 33/08 A3009 RMK AO2 PK WND 16029/1944 SLP128 T03280083,M
NFL,2023-07-24 19:56,-118.7010,39.4166,1199.00,95.00,46.00,18.76,160.00,10.00,0.00,30.09,1015.60,10.00,18.00,SCT,SCT,BKN,BKN,8000.00,12000.00,18000.00,22000.00,M,M,M,M,M,M,M,91.23,KNFL 241956Z 16010G18KT 10SM SCT080 SCT120 BKN180 BKN220 35/08 A3009 RMK AO2 SLP156 T03500078,M
HND,2023-07-24 19:56,-115.1344,35.9729,742.79,105.00,50.00,16.11,250.00,12.00,0.00,30.04,1014.90,10.00,17.00,CLR,M,M,M,M,M,M,M,M,M,M,M,M,M,M,102.16,KHND 241956Z 25012G17KT 10SM CLR 41/10 A3004 RMK AO2 SLP149 T04060100,M
TPH,2023-07-24 19:56,-117.0904,38.0505,1654.00,84.00,49.00,29.69,M,M,0.00,30.28,1015.90,10.00,M,CLR,M,M,M,M,M,M,M,M,M,M,M,M,M,M,81.98,KTPH 241956Z AUTO 10SM CLR 29/09 A3028 RMK AO2 SLP159 T02890094 $,M
LAS,2023-07-24 19:56,-115.1634,36.0719,663.00,105.00,47.00,14.40,170.00,11.00,0.00,29.98,1011.90,10.00,17.00,FEW,FEW,SCT,M,14000.00,20000.00,25000.00,M,M,M,M,M,M,M,M,101.34,KLAS 241956Z 17011G17KT 120V220 10SM FEW140 FEW200 SCT250 41/08 A2998 RMK AO2 SLP119 T04060083,M
05U,2023-07-24 20:10,-116.0051,39.6042,1811.23,69.80,51.80,52.77,M,M,0.00,30.34,M,10.00,M,M,M,M,M,M,M,M,M,M,M,M,M,M,M,M,69.80,K05U 242010Z AUTO 10SM 21/11 A3034 RMK A01,M
BVU,2023-07-24 20:15,-114.8611,35.9475,671.00,105.80,48.20,14.71,160.00,19.00,0.00,29.96,M,10.00,29.00,CLR,M,M,M,M,M,M,M,M,M,M,M,M,M,M,102.45,KBVU 242015Z AUTO 16019G29KT 10SM CLR 41/09 A2996 RMK AO2,M
CXP,2023-07-24 20:15,-119.7326,39.1923,1431.00,87.80,33.80,14.61,230.00,9.00,0.00,30.20,M,10.00,16.00,CLR,M,M,M,M,M,M,M,M,M,M,M,M,M,M,84.10,KCXP 242015Z AUTO 23009G16KT 210V270 10SM CLR 31/01 A3020 RMK AO2,M
RTS,2023-07-24 20:15,-119.8764,39.6682,1539.00,86.00,24.80,10.72,240.00,16.00,0.00,30.22,M,10.00,23.00,CLR,M,M,M,M,M,M,M,M,M,M,M,M,M,M,82.26,KRTS 242015Z AUTO 24016G23KT 10SM CLR 30/M04 A3022 RMK AO2,M
MEV,2023-07-24 20:15,-119.7500,38.9963,1441.42,87.80,35.60,15.70,180.00,10.00,0.00,30.20,M,10.00,18.00,CLR,M,M,M,M,M,M,M,M,M,M,M,M,M,M,84.12,KMEV 242015Z AUTO 18010G18KT 10SM CLR 31/02 A3020 RMK AO2,M
HTH,2023-07-24 20:15,-118.6315,38.5448,1282.89,95.00,37.40,13.46,230.00,10.00,0.00,30.11,M,10.00,15.00,FEW,M,M,M,12000.00,M,M,M,M,M,M,M,M,M,M,90.46,KHTH 242015Z AUTO 23010G15KT 10SM FEW120 35/03 A3011 RMK A01,M
TMT,2023-07-24 20:15,-117.1971,39.4643,1749.34,73.60,54.50,51.23,0.00,0.00,0.00,30.29,M,M,M,CLR,M,M,M,M,M,M,M,M,M,M,M,M,M,M,73.60,KTMT 242015Z AUTO 00000KT CLR 23/13 A3029 RMK AO2 T02310125 PWINO,M
10U,2023-07-24 20:15,-116.1876,41.9532,1637.00,80.60,48.20,32.18,120.00,9.00,0.00,30.23,M,10.00,16.00,CLR,M,M,M,M,M,M,M,M,M,M,M,M,M,M,79.71,K10U 242015Z AUTO 12009G16KT 10SM CLR 27/09 A3023 RMK AO2,M
BAM,2023-07-24 20:15,-116.8743,40.5990,1382.36,84.20,51.80,32.73,120.00,8.00,0.00,30.19,M,10.00,M,CLR,M,M,M,M,M,M,M,M,M,M,M,M,M,M,82.48,KBAM 242015Z AUTO 12008KT 10SM CLR 29/11 A3019 RMK AO1,M
LSV,2023-07-24 20:29,-115.0343,36.2362,570.00,109.40,44.60,11.55,210.00,12.00,0.00,29.92,1010.10,10.00,21.00,CLR,M,M,M,M,M,M,M,M,M,M,M,M,M,M,104.78,KLSV 242029Z AUTO 21012G21KT 10SM CLR 43/07 A2992 RMK AO2 WSHFT 17 SLP101 $,M
05U,2023-07-24 20:30,-116.0051,39.6042,1811.23,68.00,53.60,59.97,M,M,0.00,30.35,M,6.00,M,M,M,M,M,M,M,M,M,HZ,M,M,M,M,M,M,68.00,K05U 242030Z AUTO 6SM HZ 20/12 A3035 RMK A01,M
BVU,2023-07-24 20:35,-114.8611,35.9475,671.00,105.80,48.20,14.71,150.00,14.00,0.00,29.96,M,10.00,M,FEW,M,M,M,12000.00,M,M,M,M,M,M,M,M,M,M,102.45,KBVU 242035Z AUTO 15014KT 120V180 10SM FEW120 41/09 A2996 RMK AO2,M
CXP,2023-07-24 20:35,-119.7326,39.1923,1431.00,89.60,28.40,11.09,240.00,8.00,0.00,30.20,M,10.00,15.00,CLR,M,M,M,M,M,M,M,M,M,M,M,M,M,M,85.17,KCXP 242035Z AUTO 24008G15KT 210V280 10SM CLR 32/M02 A3020 RMK AO2,M
RTS,2023-07-24 20:35,-119.8764,39.6682,1539.00,86.00,21.20,9.21,250.00,19.00,0.00,30.23,M,10.00,25.00,CLR,M,M,M,M,M,M,M,M,M,M,M,M,M,M,82.04,KRTS 242035Z AUTO 25019G25KT 10SM CLR 30/M06 A3023 RMK AO2,M
MEV,2023-07-24 20:35,-119.7500,38.9963,1441.42,87.80,30.20,12.64,210.00,9.00,0.00,30.19,M,10.00,15.00,CLR,M,M,M,M,M,M,M,M,M,M,M,M,M,M,84.01,KMEV 242035Z AUTO 21009G15KT 180V240 10SM CLR 31/M01 A3019 RMK AO2,M
HTH,2023-07-24 20:35,-118.6315,38.5448,1282.89,93.20,39.20,15.27,M,5.00,0.00,30.11,M,10.00,12.00,FEW,M,M,M,12000.00,M,M,M,M,M,M,M,M,M,M,88.92,KHTH 242035Z AUTO VRB05G12KT 10SM FEW120 34/04 A3011 RMK A01,M
10U,2023-07-24 20:35,-116.1876,41.9532,1637.00,82.40,46.40,28.36,150.00,11.00,0.00,30.22,M,10.00,21.00,CLR,M,M,M,M,M,M,M,M,M,M,M,M,M,M,80.64,K10U 242035Z AUTO 15011G21KT 10SM CLR 28/08 A3022 RMK AO2,M
BAM,2023-07-24 20:35,-116.8743,40.5990,1382.36,86.00,51.80,30.90,120.00,5.00,0.00,30.19,M,10.00,M,CLR,M,M,M,M,M,M,M,M,M,M,M,M,M,M,83.87,KBAM 242035Z AUTO 12005KT 10SM CLR 30/11 A3019 RMK AO1,M
TMT,2023-07-24 20:35,-117.1971,39.4643,1749.34,76.30,56.50,50.33,0.00,0.00,0.00,30.29,M,M,M,CLR,M,M,M,M,M,M,M,M,M,M,M,M,M,M,76.30,KTMT 242035Z AUTO 00000KT CLR 25/14 A3029 RMK AO2 T02460136 PWINO,M
LSV,2023-07-24 20:36,-115.0343,36.2362,570.00,109.40,44.60,11.55,170.00,10.00,0.00,29.92,1010.10,10.00,18.00,CLR,M,M,M,M,M,M,M,M,M,M,M,M,M,M,104.78,KLSV 242036Z AUTO 17010G18KT 10SM CLR 43/07 A2992 RMK AO2 WSHFT 29 SLP101 $,M
WMC,2023-07-24 20:37,-117.8072,40.9019,1315.00,93.00,45.00,19.21,200.00,11.00,0.00,30.10,M,10.00,28.00,BKN,M,M,M,10000.00,M,M,M,M,M,M,M,28.00,210.00,2023-07-24 20:29,89.20,KWMC 242037Z AUTO 20011G28KT 10SM BKN100 34/07 A3010 RMK AO2 PK WND 21028/2029 WSHFT 2017 T03390072,M
LSV,2023-07-24 20:41,-115.0343,36.2362,570.00,109.40,44.60,11.55,210.00,13.00,0.00,29.91,1009.70,10.00,18.00,CLR,M,M,M,M,M,M,M,M,M,M,M,M,M,M,104.78,KLSV 242041Z AUTO 21013G18KT 10SM CLR 43/07 A2991 RMK AO2 WSHFT 37 SLP097 $,M
LSV,2023-07-24 20:47,-115.0343,36.2362,570.00,109.40,42.80,10.78,170.00,11.00,0.00,29.91,1009.70,10.00,19.00,CLR,M,M,M,M,M,M,M,M,M,M,M,M,M,M,104.25,KLSV 242047Z AUTO 17011G19KT 10SM CLR 43/06 A2991 RMK AO2 WSHFT 41 SLP097 $,M
05U,2023-07-24 20:50,-116.0051,39.6042,1811.23,69.80,53.60,56.38,M,M,0.00,30.34,M,9.00,M,M,M,M,M,M,M,M,M,M,M,M,M,M,M,M,69.80,K05U 242050Z AUTO 9SM 21/12 A3034 RMK A01,M
P68,2023-07-24 20:53,-116.0056,39.6014,1993.00,70.00,53.00,54.78,0.00,0.00,0.00,30.31,1017.70,M,M,M,M,M,M,M,M,M,M,M,M,M,M,M,M,M,70.00,KP68 242053Z AUTO 00000KT 21/12 A3031 RMK AO1 SLP177 T02110117 51009,M
DRA,2023-07-24 20:53,-116.0278,36.6206,1009.00,102.00,44.00,14.05,230.00,13.00,0.00,30.08,1012.20,10.00,19.00,CLR,M,M,M,M,M,M,M,M,M,M,M,M,M,M,97.77,KDRA 242053Z AUTO 23013G19KT 10SM CLR 39/07 A3008 RMK AO2 SLP122 T03890067 58013,M
ELY,2023-07-24 20:53,-114.8453,39.2950,1909.00,89.00,46.00,22.61,200.00,13.00,0.00,30.26,1012.40,10.00,33.00,CLR,M,M,M,M,M,M,M,M,M,M,M,33.00,210.00,2023-07-24 20:18,85.67,KELY 242053Z AUTO 20013G33KT 10SM CLR 32/08 A3026 RMK AO2 PK WND 21033/2018 LTG DSNT N AND NW SLP124 T03170078 58013,M
VGT,2023-07-24 20:53,-115.1933,36.2111,667.00,107.00,46.00,13.07,190.00,7.00,0.00,29.96,1012.70,10.00,19.00,CLR,M,M,M,M,M,M,M,M,M,M,M,M,M,M,103.03,KVGT 242053Z 19007G19KT 10SM CLR 42/08 A2996 RMK AO2 SLP127 T04170078 58018,M
LOL,2023-07-24 20:53,-118.5701,40.0684,1192.43,95.00,40.00,14.90,220.00,16.00,T,30.07,1013.00,10.00,22.00,FEW,M,M,M,11000.00,M,M,M,M,M,M,M,M,M,M,90.62,KLOL 242053Z AUTO 22016G22KT 10SM FEW110 35/04 A3007 RMK AO2 RAB00E09 SLP130 P0000 60000 T03500044 56009,M
BVU,2023-07-24 20:55,-114.8611,35.9475,671.00,107.60,48.20,13.95,180.00,11.00,0.00,29.96,M,10.00,M,FEW,M,M,M,12000.00,M,M,M,M,M,M,M,M,M,M,104.23,KBVU 242055Z AUTO 18011KT 160V220 10SM FEW120 42/09 A2996 RMK AO2,M
CXP,2023-07-24 20:55,-119.7326,39.1923,1431.00,89.60,30.20,11.94,220.00,11.00,0.00,30.20,M,10.00,19.00,CLR,M,M,M,M,M,M,M,M,M,M,M,M,M,M,85.34,KCXP 242055Z AUTO 22011G19KT 10SM CLR 32/M01 A3020 RMK AO2,M
INS,2023-07-24 20:55,-115.6733,36.5872,955.00,102.20,40.00,11.97,220.00,9.00,0.00,30.04,1011.40,10.00,17.00,SCT,M,M,M,12000.00,M,M,M,M,M,M,M,M,M,M,97.16,KINS 242055Z AUTO 22009G17KT 10SM SCT120 39/04 A3004 RMK AO2 SLP114 T03900044 57017 $,M
RNO,2023-07-24 20:55,-119.7711,39.4839,1341.00,94.00,28.00,9.51,220.00,14.00,0.00,30.15,1014.00,10.00,27.00,FEW,BKN,M,M,12000.00,23000.00,M,M,M,M,M,M,27.00,190.00,2023-07-24 20:51,88.46,KRNO 242055Z 22014G27KT 10SM FEW120 BKN230 34/M02 A3015 RMK AO2 PK WND 19027/2051 SLP140 T03441022 53002,M
LSV,2023-07-24 20:55,-115.0343,36.2362,570.00,109.60,43.30,10.93,180.00,16.00,0.00,29.91,1009.70,10.00,21.00,CLR,M,M,M,M,M,M,M,M,M,M,M,M,M,M,104.57,KLSV 242055Z AUTO 18016G21KT 10SM CLR 43/06 A2991 RMK AO2 SLP097 T04310063 57021 $,M
RTS,2023-07-24 20:55,-119.8764,39.6682,1539.00,86.00,23.00,9.94,220.00,12.00,0.00,30.23,M,10.00,20.00,CLR,M,M,M,M,M,M,M,M,M,M,M,M,M,M,82.14,KRTS 242055Z AUTO 22012G20KT 10SM CLR 30/M05 A3023 RMK AO2,M
MEV,2023-07-24 20:55,-119.7500,38.9963,1441.42,87.80,30.20,12.64,180.00,9.00,0.00,30.20,M,10.00,15.00,CLR,M,M,M,M,M,M,M,M,M,M,M,M,M,M,84.01,KMEV 242055Z AUTO 18009G15KT 10SM CLR 31/M01 A3020 RMK AO2,M
HTH,2023-07-24 20:55,-118.6315,38.5448,1282.89,93.20,35.60,13.25,260.00,10.00,0.00,30.11,M,10.00,M,FEW,M,M,M,12000.00,M,M,M,M,M,M,M,M,M,M,88.76,KHTH 242055Z AUTO 26010KT 10SM FEW120 34/02 A3011 RMK A01,M
TMT,2023-07-24 20:55,-117.1971,39.4643,1749.34,77.50,54.70,45.31,0.00,0.00,0.00,30.29,M,M,M,CLR,M,M,M,M,M,M,M,M,M,M,M,M,M,M,77.50,KTMT 242055Z AUTO 00000KT CLR 25/13 A3029 RMK AO2 T02530126 PWINO,M
10U,2023-07-24 20:55,-116.1876,41.9532,1637.00,84.20,48.20,28.63,150.00,13.00,0.00,30.21,M,10.00,21.00,CLR,M,M,M,M,M,M,M,M,M,M,M,M,M,M,82.04,K10U 242055Z AUTO 15013G21KT 110V180 10SM CLR 29/09 A3021 RMK AO2,M
BAM,2023-07-24 20:55,-116.8743,40.5990,1382.36,87.80,50.00,27.29,190.00,3.00,0.00,30.19,M,10.00,M,CLR,M,M,M,M,M,M,M,M,M,M,M,M,M,M,85.11,KBAM 242055Z AUTO 19003KT 10SM CLR 31/10 A3019 RMK AO1,M
EKO,2023-07-24 20:56,-115.7860,40.8242,1367.00,78.00,48.00,34.78,260.00,25.00,0.00,30.25,1017.80,10.00,31.00,OVC,M,M,M,10000.00,M,M,M,M,M,M,M,31.00,240.00,2023-07-24 20:51,78.00,KEKO 242056Z AUTO 26025G31KT 10SM OVC100 26/09 A3025 RMK AO2 PK WND 24031/2051 SLP178 T02560089 53004,M
WMC,2023-07-24 20:56,-117.8072,40.9019,1315.00,92.00,44.00,19.08,200.00,10.00,0.00,30.09,1012.70,10.00,M,BKN,M,M,M,10000.00,M,M,M,M,M,M,M,28.00,210.00,2023-07-24 20:29,88.17,KWMC 242056Z AUTO 20010KT 10SM BKN100 33/07 A3009 RMK AO2 PK WND 21028/2029 WSHFT 2017 SLP127 T03330067 56008,M
NFL,2023-07-24 20:56,-118.7010,39.4166,1199.00,97.00,29.00,9.04,230.00,14.00,0.00,30.09,1015.60,10.00,23.00,SCT,SCT,BKN,M,8000.00,15000.00,22000.00,M,M,M,M,M,M,M,M,90.98,KNFL 242056Z 23014G23KT 10SM SCT080 SCT150 BKN220 36/M02 A3009 RMK AO2 SLP156 T03611017 56006,M
HND,2023-07-24 20:56,-115.1344,35.9729,742.79,107.00,48.00,14.09,240.00,13.00,0.00,30.01,1013.90,10.00,18.00,CLR,M,M,M,M,M,M,M,M,M,M,M,M,M,M,103.58,KHND 242056Z 24013G18KT 10SM CLR 42/09 A3001 RMK AO2 SLP139 T04170089 58017,M
TPH,2023-07-24 20:56,-117.0904,38.0505,1654.00,86.00,47.00,25.83,M,M,0.00,30.27,1015.70,10.00,M,CLR,M,M,M,M,M,M,M,M,M,M,M,M,M,M,83.28,KTPH 242056Z AUTO 10SM CLR 30/08 A3027 RMK AO2 SLP157 T03000083 56013 $,M
LAS,2023-07-24 20:56,-115.1634,36.0719,663.00,106.00,46.00,13.46,190.00,11.00,0.00,29.96,1011.20,10.00,19.00,FEW,FEW,SCT,M,12000.00,20000.00,25000.00,M,M,M,M,M,M,M,M,102.07,KLAS 242056Z 19011G19KT 10SM FEW120 FEW200 SCT250 41/08 A2996 RMK AO2 SLP112 CB DSNT E T04110078 58018,M
05U,2023-07-24 21:10,-116.0051,39.6042,1811.23,75.20,51.80,43.97,M,M,0.00,30.33,M,10.00,M,M,M,M,M,M,M,M,M,M,M,M,M,M,M,M,75.20,K05U 242110Z AUTO 10SM 24/11 A3033 RMK A01,M
BVU,2023-07-24 21:15,-114.8611,35.9475,671.00,107.60,41.00,10.60,220.00,10.00,0.00,29.95,M,10.00,16.00,CLR,M,M,M,M,M,M,M,M,M,M,M,M,M,M,102.16,KBVU 242115Z AUTO 22010G16KT 10SM CLR 42/05 A2995 RMK AO2,M
CXP,2023-07-24 21:15,-119.7326,39.1923,1431.00,89.60,30.20,11.94,230.00,9.00,0.00,30.20,M,10.00,20.00,CLR,M,M,M,M,M,M,M,M,M,M,M,M,M,M,85.34,KCXP 242115Z AUTO 23009G20KT 190V260 10SM CLR 32/M01 A3020 RMK AO2,M
RTS,2023-07-24 21:15,-119.8764,39.6682,1539.00,86.00,21.20,9.21,240.00,17.00,0.00,30.23,M,10.00,26.00,CLR,M,M,M,M,M,M,M,M,M,M,M,M,M,M,82.04,KRTS 242115Z AUTO 24017G26KT 10SM CLR 30/M06 A3023 RMK AO2,M
MEV,2023-07-24 21:15,-119.7500,38.9963,1441.42,87.80,30.20,12.64,190.00,9.00,0.00,30.19,M,10.00,15.00,CLR,M,M,M,M,M,M,M,M,M,M,M,M,M,M,84.01,KMEV 242115Z AUTO 19009G15KT 10SM CLR 31/M01 A3019 RMK AO2,M
HTH,2023-07-24 21:15,-118.6315,38.5448,1282.89,95.00,35.60,12.53,320.00,7.00,0.00,30.11,M,10.00,18.00,CLR,M,M,M,M,M,M,M,M,M,M,M,M,M,M,90.25,KHTH 242115Z AUTO 32007G18KT 10SM CLR 35/02 A3011 RMK A01,M
TMT,2023-07-24 21:15,-117.1971,39.4643,1749.34,79.50,54.50,42.11,140.00,3.00,0.00,30.28,M,M,M,CLR,M,M,M,M,M,M,M,M,M,M,M,M,M,M,79.50,KTMT 242115Z AUTO 14003KT CLR 26/13 A3028 RMK AO2 T02640125 PWINO,M
10U,2023-07-24 21:15,-116.1876,41.9532,1637.00,84.20,44.60,24.99,190.00,14.00,0.00,30.21,M,10.00,20.00,CLR,M,M,M,M,M,M,M,M,M,M,M,M,M,M,81.73,K10U 242115Z AUTO 19014G20KT 10SM CLR 29/07 A3021 RMK AO2,M
BAM,2023-07-24 21:15,-116.8743,40.5990,1382.36,87.80,50.00,27.29,0.00,0.00,0.00,30.19,M,10.00,M,CLR,M,M,M,M,M,M,M,M,M,M,M,M,M,M,85.11,KBAM 242115Z AUTO 00000KT 10SM CLR 31/10 A3019 RMK AO1,M
WMC,2023-07-24 21:25,-117.8072,40.9019,1315.00,97.00,42.00,15.14,200.00,15.00,0.00,30.09,M,10.00,28.00,SCT,M,M,M,11000.00,M,M,M,TS,M,M,M,28.00,220.00,2023-07-24 21:23,92.68,KWMC 242125Z AUTO 20015G28KT 10SM TS SCT110 36/06 A3009 RMK AO2 PK WND 22028/2123 TSB19 T03610056,M
05U,2023-07-24 21:30,-116.0051,39.6042,1811.23,77.00,50.00,38.74,M,M,0.00,30.32,M,10.00,M,M,M,M,M,M,M,M,M,M,M,M,M,M,M,M,77.00,K05U 242130Z AUTO 10SM 25/10 A3032 RMK A01,M
BVU,2023-07-24 21:35,-114.8611,35.9475,671.00,109.40,41.00,10.06,200.00,8.00,0.00,29.94,M,10.00,16.00,CLR,M,M,M,M,M,M,M,M,M,M,M,M,M,M,103.77,KBVU 242135Z AUTO 20008G16KT 170V230 10SM CLR 43/05 A2994 RMK AO2,M
CXP,2023-07-24 21:35,-119.7326,39.1923,1431.00,87.80,28.40,11.74,220.00,8.00,0.00,30.20,M,10.00,18.00,CLR,M,M,M,M,M,M,M,M,M,M,M,M,M,M,83.84,KCXP 242135Z AUTO 22008G18KT 190V260 10SM CLR 31/M02 A3020 RMK AO2,M
RTS,2023-07-24 21:35,-119.8764,39.6682,1539.00,84.20,17.60,8.37,220.00,16.00,0.00,30.23,M,10.00,23.00,CLR,M,M,M,M,M,M,M,M,M,M,M,M,M,M,80.59,KRTS 242135Z AUTO 22016G23KT 10SM CLR 29/M08 A3023 RMK AO2,M
MEV,2023-07-24 21:35,-119.7500,38.9963,1441.42,86.00,24.80,10.72,220.00,5.00,0.00,30.19,M,10.00,11.00,CLR,M,M,M,M,M,M,M,M,M,M,M,M,M,M,82.26,KMEV 242135Z AUTO 22005G11KT 10SM CLR 30/M04 A3019 RMK AO2,M
HTH,2023-07-24 21:35,-118.6315,38.5448,1282.89,95.00,35.60,12.53,310.00,5.00,0.00,30.11,M,10.00,14.00,CLR,M,M,M,M,M,M,M,M,M,M,M,M,M,M,90.25,KHTH 242135Z AUTO 31005G14KT 10SM CLR 35/02 A3011 RMK A01,M
TMT,2023-07-24 21:35,-117.1971,39.4643,1749.34,81.00,54.00,39.37,190.00,4.00,0.00,30.27,M,M,M,CLR,M,M,M,M,M,M,M,M,M,M,M,M,M,M,80.59,KTMT 242135Z AUTO 19004KT CLR 27/12 A3027 RMK AO2 T02720122 PWINO,M
10U,2023-07-24 21:35,-116.1876,41.9532,1637.00,86.00,44.60,23.59,180.00,14.00,0.00,30.20,M,10.00,21.00,CLR,M,M,M,M,M,M,M,M,M,M,M,M,M,M,83.07,K10U 242135Z AUTO 18014G21KT 10SM CLR 30/07 A3020 RMK AO2,M
BAM,2023-07-24 21:35,-116.8743,40.5990,1382.36,87.80,48.20,25.52,90.00,5.00,0.00,30.17,M,10.00,M,CLR,M,M,M,M,M,M,M,M,M,M,M,M,M,M,84.87,KBAM 242135Z AUTO 09005KT 10SM CLR 31/09 A3017 RMK AO1,M
WMC,2023-07-24 21:40,-117.8072,40.9019,1315.00,96.00,39.00,13.90,240.00,15.00,0.00,30.08,M,10.00,28.00,FEW,M,M,M,11000.00,M,M,M,M,M,M,M,28.00,220.00,2023-07-24 21:23,91.48,KWMC 242140Z AUTO 24015G28KT 10SM FEW110 36/04 A3008 RMK AO2 PK WND 22028/2123 LTG DSNT NE TSB19E34 T03560039,M
05U,2023-07-24 21:50,-116.0051,39.6042,1811.23,80.60,51.80,36.79,M,M,0.00,30.31,M,10.00,M,M,M,M,M,M,M,M,M,M,M,M,M,M,M,M,80.08,K05U 242150Z AUTO 10SM 27/11 A3031 RMK A01,M
P68,2023-07-24 21:53,-116.0056,39.6014,1993.00,79.00,52.00,39.06,10.00,7.00,0.00,30.28,1016.30,M,M,M,M,M,M,M,M,M,M,M,M,M,M,M,M,M,79.00,KP68 242153Z AUTO 01007KT 26/11 A3028 RMK AO1 SLP163 T02610111,M
DRA,2023-07-24 21:53,-116.0278,36.6206,1009.00,103.00,43.00,13.12,210.00,10.00,0.00,30.06,1011.70,10.00,21.00,CLR,M,M,M,M,M,M,M,M,M,M,M,26.00,260.00,2023-07-24 21:18,98.56,KDRA 242153Z AUTO 21010G21KT 190V250 10SM CLR 39/06 A3006 RMK AO2 PK WND 26026/2118 SLP117 T03940061,M
ELY,2023-07-24 21:53,-114.8453,39.2950,1909.00,84.00,49.00,29.69,280.00,20.00,0.00,30.26,1013.10,10.00,28.00,CLR,M,M,M,M,M,M,M,M,M,M,M,31.00,230.00,2023-07-24 21:17,81.98,KELY 242153Z AUTO 28020G28KT 10SM CLR 29/09 A3026 RMK AO2 PK WND 23031/2117 SLP131 T02890094,M
VGT,2023-07-24 21:53,-115.1933,36.2111,667.00,110.00,46.00,11.97,200.00,14.00,0.00,29.93,1011.70,10.00,25.00,CLR,M,M,M,M,M,M,M,M,M,M,M,M,M,M,105.77,KVGT 242153Z 20014G25KT 10SM CLR 43/08 A2993 RMK AO2 SLP117 T04330078,M
LOL,2023-07-24 21:53,-118.5701,40.0684,1192.43,97.00,30.00,9.41,220.00,13.00,0.00,30.06,1012.70,10.00,22.00,CLR,M,M,M,M,M,M,M,M,M,M,M,26.00,210.00,2023-07-24 21:42,91.10,KLOL 242153Z AUTO 22013G22KT 10SM CLR 36/M01 A3006 RMK AO2 PK WND 21026/2142 SLP127 T03611011,M
BVU,2023-07-24 21:55,-114.8611,35.9475,671.00,109.40,39.20,9.38,220.00,11.00,0.00,29.93,M,10.00,19.00,CLR,M,M,M,M,M,M,M,M,M,M,M,M,M,M,103.33,KBVU 242155Z AUTO 22011G19KT 190V260 10SM CLR 43/04 A2993 RMK AO2,M
CXP,2023-07-24 21:55,-119.7326,39.1923,1431.00,87.80,28.40,11.74,260.00,11.00,0.00,30.20,M,10.00,17.00,CLR,M,M,M,M,M,M,M,M,M,M,M,M,M,M,83.84,KCXP 242155Z AUTO 26011G17KT 10SM CLR 31/M02 A3020 RMK AO2,M
INS,2023-07-24 21:55,-115.6733,36.5872,955.00,102.20,37.80,10.99,270.00,15.00,0.00,30.02,1010.70,10.00,21.00,CLR,M,M,M,M,M,M,M,M,M,M,M,M,M,M,96.70,KINS 242155Z AUTO 27015G21KT 10SM CLR 39/03 A3002 RMK AO2 SLP107 T03900032 $,M
RNO,2023-07-24 21:55,-119.7711,39.4839,1341.00,91.00,29.00,10.88,210.00,14.00,0.00,30.15,1014.30,10.00,19.00,BKN,M,M,M,23000.00,M,M,M,M,M,M,M,M,M,M,86.28,KRNO 242155Z 21014G19KT 10SM BKN230 33/M02 A3015 RMK AO2 SLP143 T03281017,M
LSV,2023-07-24 21:55,-115.0343,36.2362,570.00,111.00,42.00,9.98,220.00,13.00,0.00,29.89,1009.10,10.00,M,CLR,M,M,M,M,M,M,M,M,M,M,M,M,M,M,105.50,KLSV 242155Z AUTO 22013KT 10SM CLR 44/06 A2989 RMK AO2 SLP091 T04390055 RVRNO $,M
RTS,2023-07-24 21:55,-119.8764,39.6682,1539.00,84.20,15.80,7.74,250.00,14.00,0.00,30.23,M,10.00,21.00,CLR,M,M,M,M,M,M,M,M,M,M,M,M,M,M,80.51,KRTS 242155Z AUTO 25014G21KT 10SM CLR 29/M09 A3023 RMK AO2,M
MEV,2023-07-24 21:55,-119.7500,38.9963,1441.42,87.80,26.60,10.91,250.00,10.00,0.00,30.19,M,10.00,M,CLR,M,M,M,M,M,M,M,M,M,M,M,M,M,M,83.69,KMEV 242155Z AUTO 25010KT 10SM CLR 31/M03 A3019 RMK AO2,M
HTH,2023-07-24 21:55,-118.6315,38.5448,1282.89,95.00,33.80,11.67,250.00,13.00,0.00,30.11,M,10.00,19.00,CLR,M,M,M,M,M,M,M,M,M,M,M,M,M,M,89.97,KHTH 242155Z AUTO 25013G19KT 10SM CLR 35/01 A3011 RMK A01,M
TMT,2023-07-24 21:55,-117.1971,39.4643,1749.34,81.70,53.80,38.20,60.00,3.00,0.00,30.26,M,M,M,CLR,M,M,M,M,M,M,M,M,M,M,M,M,M,M,81.01,KTMT 242155Z AUTO 06003KT CLR 28/12 A3026 RMK AO2 T02760121 PWINO,M
BAM,2023-07-24 21:55,-116.8743,40.5990,1382.36,89.60,46.40,22.53,150.00,4.00,0.00,30.16,M,10.00,M,CLR,M,M,M,M,M,M,M,M,M,M,M,M,M,M,86.24,KBAM 242155Z AUTO 15004KT 10SM CLR 32/08 A3016 RMK AO1,M
10U,2023-07-24 21:55,-116.1876,41.9532,1637.00,84.20,44.60,24.99,200.00,15.00,0.00,30.19,M,10.00,23.00,CLR,M,M,M,M,M,M,M,M,M,M,M,M,M,M,81.73,K10U 242155Z AUTO 20015G23KT 10SM CLR 29/07 A3019 RMK AO2,M
EKO,2023-07-24 21:56,-115.7860,40.8242,1367.00,67.00,59.00,75.48,220.00,4.00,T,30.26,1019.30,10.00,M,OVC,M,M,M,9000.00,M,M,M,-RA,M,M,M,38.00,250.00,2023-07-24 20:58,67.00,KEKO 242156Z AUTO 22004KT 10SM -RA OVC090 19/15 A3026 RMK AO2 PK WND 25038/2058 RAB00E22B39 SLP193 P0000 T01940150,M
WMC,2023-07-24 21:56,-117.8072,40.9019,1315.00,98.00,38.00,12.57,270.00,15.00,0.00,30.07,1011.70,9.00,26.00,CLR,M,M,M,M,M,M,M,M,M,M,M,28.00,220.00,2023-07-24 21:23,93.15,KWMC 242156Z AUTO 27015G26KT 9SM CLR 37/03 A3007 RMK AO2 PK WND 22028/2123 LTG DSNT NE AND E TSB19E34 SLP117 T03670033,M
NFL,2023-07-24 21:56,-118.7010,39.4166,1199.00,99.00,25.00,7.21,230.00,15.00,0.00,30.08,1015.50,10.00,23.00,SCT,SCT,BKN,M,8000.00,15000.00,22000.00,M,M,M,M,M,28.00,250.00,2023-07-24 21:29,92.25,KNFL 242156Z 23015G23KT 10SM SCT080 SCT150 BKN220 37/M04 A3008 RMK AO2 PK WND 25028/2129 SLP155 T03721039,M
HND,2023-07-24 21:56,-115.1344,35.9729,742.79,107.00,48.00,14.09,190.00,11.00,0.00,30.00,1013.40,10.00,16.00,CLR,M,M,M,M,M,M,M,M,M,M,M,M,M,M,103.58,KHND 242156Z 19011G16KT 10SM CLR 42/09 A3000 RMK AO2 SLP134 T04170089,M
TPH,2023-07-24 21:56,-117.0904,38.0505,1654.00,89.00,47.00,23.49,300.00,4.00,0.00,30.24,1014.60,10.00,M,CLR,M,M,M,M,M,M,M,M,M,M,M,M,M,M,85.77,KTPH 242156Z AUTO 30004KT 10SM CLR 32/08 A3024 RMK AO2 SLP146 T03170083 $,M
LAS,2023-07-24 21:56,-115.1634,36.0719,663.00,107.00,45.00,12.58,180.00,10.00,0.00,29.94,1010.50,10.00,M,FEW,FEW,SCT,M,12000.00,20000.00,25000.00,M,M,M,M,M,M,M,M,102.73,KLAS 242156Z 18010KT 10SM FEW120 FEW200 SCT250 42/07 A2994 RMK AO2 SLP105 CB DSNT E T04170072,M
LSV,2023-07-24 21:58,-115.0343,36.2362,570.00,111.20,42.80,10.24,180.00,11.00,0.00,29.89,1009.10,10.00,M,CLR,M,M,M,M,M,M,M,M,M,M,M,M,M,M,105.91,KLSV 242158Z AUTO 18011KT 10SM CLR 44/06 A2989 RMK AO2 WSHFT 55 SLP091 RVRNO $,M
ELY,2023-07-24 22:00,-114.8453,39.2950,1909.00,85.00,49.00,28.75,250.00,14.00,0.00,30.27,M,10.00,30.00,CLR,M,M,M,M,M,M,M,M,M,M,M,30.00,290.00,2023-07-24 21:55,82.71,KELY 242200Z AUTO 25014G30KT 10SM CLR 29/09 A3027 RMK AO2 PK WND 29030/2155 WSHFT 2140 T02940094,M
05U,2023-07-24 22:10,-116.0051,39.6042,1811.23,80.60,51.80,36.79,M,M,0.00,30.30,M,10.00,M,M,M,M,M,M,M,M,M,M,M,M,M,M,M,M,80.08,K05U 242210Z AUTO 10SM 27/11 A3030 RMK A01,M
BVU,2023-07-24 22:15,-114.8611,35.9475,671.00,109.40,39.20,9.38,210.00,13.00,0.00,29.93,M,10.00,18.00,CLR,M,M,M,M,M,M,M,M,M,M,M,M,M,M,103.33,KBVU 242215Z AUTO 21013G18KT 180V240 10SM CLR 43/04 A2993 RMK AO2,M
CXP,2023-07-24 22:15,-119.7326,39.1923,1431.00,87.80,28.40,11.74,240.00,9.00,0.00,30.21,M,10.00,17.00,CLR,M,M,M,M,M,M,M,M,M,M,M,M,M,M,83.84,KCXP 242215Z AUTO 24009G17KT 210V270 10SM CLR 31/M02 A3021 RMK AO2,M
RTS,2023-07-24 22:15,-119.8764,39.6682,1539.00,84.20,15.80,7.74,240.00,15.00,0.00,30.23,M,10.00,22.00,CLR,M,M,M,M,M,M,M,M,M,M,M,M,M,M,80.51,KRTS 242215Z AUTO 24015G22KT 10SM CLR 29/M09 A3023 RMK AO2,M
MEV,2023-07-24 22:15,-119.7500,38.9963,1441.42,87.80,28.40,11.74,200.00,11.00,0.00,30.19,M,10.00,M,CLR,M,M,M,M,M,M,M,M,M,M,M,M,M,M,83.84,KMEV 242215Z AUTO 20011KT 10SM CLR 31/M02 A3019 RMK AO2,M
HTH,2023-07-24 22:15,-118.6315,38.5448,1282.89,96.80,32.00,10.27,300.00,12.00,0.00,30.10,M,10.00,20.00,CLR,M,M,M,M,M,M,M,M,M,M,M,M,M,M,91.19,KHTH 242215Z AUTO 30012G20KT 240V320 10SM CLR 36/00 A3010 RMK A01,M
TMT,2023-07-24 22:15,-117.1971,39.4643,1749.34,83.50,48.40,29.51,180.00,3.00,0.00,30.25,M,M,M,CLR,M,M,M,M,M,M,M,M,M,M,M,M,M,M,81.56,KTMT 242215Z AUTO 18003KT CLR 29/09 A3025 RMK AO2 T02860091 PWINO,M
10U,2023-07-24 22:15,-116.1876,41.9532,1637.00,86.00,44.60,23.59,190.00,21.00,0.00,30.19,M,10.00,M,CLR,M,M,M,M,M,M,M,M,M,M,M,M,M,M,83.07,K10U 242215Z AUTO 19021KT 10SM CLR 30/07 A3019 RMK AO2,M
BAM,2023-07-24 22:15,-116.8743,40.5990,1382.36,91.40,46.40,21.29,210.00,9.00,0.00,30.15,M,10.00,17.00,CLR,M,M,M,M,M,M,M,M,M,M,M,M,M,M,87.86,KBAM 242215Z AUTO 21009G17KT 10SM CLR 33/08 A3015 RMK AO1,M
INS,2023-07-24 22:29,-115.6733,36.5872,955.00,102.20,37.40,10.81,250.00,17.00,0.00,30.01,1010.40,10.00,20.00,CLR,M,M,M,M,M,M,M,M,M,M,M,M,M,M,96.63,KINS 242229Z AUTO 25017G20KT 10SM CLR 39/03 A3001 RMK AO2 WSHFT 27 SLP104 $,M
05U,2023-07-24 22:30,-116.0051,39.6042,1811.23,82.40,51.80,34.69,M,M,0.00,30.29,M,10.00,M,M,M,M,M,M,M,M,M,M,M,M,M,M,M,M,81.20,K05U 242230Z AUTO 10SM 28/11 A3029 RMK A01,M
BVU,2023-07-24 22:35,-114.8611,35.9475,671.00,109.40,39.20,9.38,220.00,8.00,0.00,29.92,M,10.00,19.00,CLR,M,M,M,M,M,M,M,M,M,M,M,M,M,M,103.33,KBVU 242235Z AUTO 22008G19KT 10SM CLR 43/04 A2992 RMK AO2,M
CXP,2023-07-24 22:35,-119.7326,39.1923,1431.00,87.80,26.60,10.91,240.00,9.00,0.00,30.20,M,10.00,16.00,CLR,M,M,M,M,M,M,M,M,M,M,M,M,M,M,83.69,KCXP 242235Z AUTO 24009G16KT 220V280 10SM CLR 31/M03 A3020 RMK AO2,M
RTS,2023-07-24 22:35,-119.8764,39.6682,1539.00,84.20,15.80,7.74,240.00,14.00,0.00,30.22,M,10.00,22.00,CLR,M,M,M,M,M,M,M,M,M,M,M,M,M,M,80.51,KRTS 242235Z AUTO 24014G22KT 10SM CLR 29/M09 A3022 RMK AO2,M
MEV,2023-07-24 22:35,-119.7500,38.9963,1441.42,87.80,28.40,11.74,210.00,11.00,0.00,30.19,M,10.00,19.00,CLR,M,M,M,M,M,M,M,M,M,M,M,M,M,M,83.84,KMEV 242235Z AUTO 21011G19KT 10SM CLR 31/M02 A3019 RMK AO2,M
HTH,2023-07-24 22:35,-118.6315,38.5448,1282.89,95.00,30.20,10.09,270.00,19.00,0.00,30.11,M,10.00,25.00,CLR,M,M,M,M,M,M,M,M,M,M,M,M,M,M,89.48,KHTH 242235Z AUTO 27019G25KT 10SM CLR 35/M01 A3011 RMK A01,M
TMT,2023-07-24 22:35,-117.1971,39.4643,1749.34,85.60,48.00,27.17,200.00,5.00,0.00,30.24,M,M,M,SCT,M,M,M,10000.00,M,M,M,M,M,M,M,M,M,M,83.06,KTMT 242235Z AUTO 20005KT SCT100 30/09 A3024 RMK AO2 T02980089 PWINO,M
10U,2023-07-24 22:35,-116.1876,41.9532,1637.00,84.20,42.80,23.33,210.00,17.00,0.00,30.18,M,10.00,23.00,CLR,M,M,M,M,M,M,M,M,M,M,M,M,M,M,81.61,K10U 242235Z AUTO 21017G23KT 10SM CLR 29/06 A3018 RMK AO2,M
BAM,2023-07-24 22:35,-116.8743,40.5990,1382.36,91.40,46.40,21.29,210.00,11.00,0.00,30.14,M,10.00,16.00,CLR,M,M,M,M,M,M,M,M,M,M,M,M,M,M,87.86,KBAM 242235Z AUTO 21011G16KT 10SM CLR 33/08 A3014 RMK AO1,M
INS,2023-07-24 22:42,-115.6733,36.5872,955.00,102.20,37.40,10.81,220.00,14.00,0.00,30.00,1010.20,10.00,M,CLR,M,M,M,M,M,M,M,M,M,M,M,M,M,M,96.63,KINS 242242Z AUTO 22014KT 10SM CLR 39/03 A3000 RMK AO2 WSHFT 38 SLP102 $,M
INS,2023-07-24 22:46,-115.6733,36.5872,955.00,102.20,37.40,10.81,270.00,13.00,0.00,30.00,1010.20,10.00,18.00,CLR,M,M,M,M,M,M,M,M,M,M,M,M,M,M,96.63,KINS 242246Z AUTO 27013G18KT 10SM CLR 39/03 A3000 RMK AO2 WSHFT 43 SLP102 $,M
05U,2023-07-24 22:50,-116.0051,39.6042,1811.23,84.20,51.80,32.73,M,M,0.00,30.28,M,10.00,M,M,M,M,M,M,M,M,M,M,M,M,M,M,M,M,82.48,K05U 242250Z AUTO 10SM 29/11 A3028 RMK A01,M
P68,2023-07-24 22:53,-116.0056,39.6014,1993.00,83.00,50.00,31.83,260.00,8.00,0.00,30.25,1015.10,M,M,M,M,M,M,M,M,M,M,M,M,M,M,M,M,M,81.39,KP68 242253Z AUTO 26008KT 28/10 A3025 RMK AO1 SLP151 T02830100,M
DRA,2023-07-24 22:53,-116.0278,36.6206,1009.00,103.00,42.00,12.63,M,M,0.00,30.03,1011.00,10.00,M,CLR,M,M,M,M,M,M,M,M,M,M,M,M,M,M,98.33,KDRA 242253Z AUTO 10SM CLR 39/06 A3003 RMK AO2 SLP110 T03940056,M
ELY,2023-07-24 22:53,-114.8453,39.2950,1909.00,88.00,48.00,25.17,260.00,17.00,0.00,30.26,1012.60,10.00,26.00,CLR,M,M,M,M,M,M,M,M,M,M,M,30.00,290.00,2023-07-24 21:55,85.02,KELY 242253Z AUTO 26017G26KT 10SM CLR 31/09 A3026 RMK AO2 PK WND 29030/2155 WSHFT 2140 SLP126 T03110089,M
VGT,2023-07-24 22:53,-115.1933,36.2111,667.00,110.00,46.00,11.97,290.00,8.00,0.00,29.91,1011.00,10.00,19.00,CLR,M,M,M,M,M,M,M,M,M,M,M,M,M,M,105.77,KVGT 242253Z 29008G19KT 250V340 10SM CLR 43/08 A2991 RMK AO2 SLP110 T04330078,M
LOL,2023-07-24 22:53,-118.5701,40.0684,1192.43,97.00,31.00,9.80,230.00,13.00,0.00,30.05,1012.30,10.00,M,CLR,M,M,M,M,M,M,M,M,M,M,M,26.00,240.00,2023-07-24 22:06,91.22,KLOL 242253Z AUTO 23013KT 10SM CLR 36/M01 A3005 RMK AO2 PK WND 24026/2206 WSHFT 2236 SLP123 T03611006,M
BVU,2023-07-24 22:55,-114.8611,35.9475,671.00,109.40,39.20,9.38,240.00,11.00,0.00,29.91,M,10.00,20.00,CLR,M,M,M,M,M,M,M,M,M,M,M,M,M,M,103.33,KBVU 242255Z AUTO 24011G20KT 10SM CLR 43/04 A2991 RMK AO2,M
CXP,2023-07-24 22:55,-119.7326,39.1923,1431.00,87.80,24.80,10.12,240.00,8.00,0.00,30.20,M,9.00,23.00,CLR,M,M,M,M,M,M,M,M,M,M,M,M,M,M,83.56,KCXP 242255Z AUTO 24008G23KT 210V270 9SM CLR 31/M04 A3020 RMK AO2,M
INS,2023-07-24 22:55,-115.6733,36.5872,955.00,102.60,38.00,10.94,240.00,13.00,0.00,30.00,1010.20,10.00,18.00,CLR,M,M,M,M,M,M,M,M,M,M,M,M,M,M,97.09,KINS 242255Z AUTO 24013G18KT 10SM CLR 39/03 A3000 RMK AO2 SLP102 T03920033 $,M
RNO,2023-07-24 22:55,-119.7711,39.4839,1341.00,91.00,24.00,8.85,250.00,10.00,0.00,30.15,1014.30,10.00,16.00,BKN,M,M,M,25000.00,M,M,M,M,M,M,M,M,M,M,85.86,KRNO 242255Z 25010G16KT 10SM BKN250 33/M04 A3015 RMK AO2 SLP143 T03281044,M
RTS,2023-07-24 22:55,-119.8764,39.6682,1539.00,82.40,14.00,7.58,230.00,18.00,0.00,30.22,M,10.00,M,CLR,M,M,M,M,M,M,M,M,M,M,M,M,M,M,79.20,KRTS 242255Z AUTO 23018KT 10SM CLR 28/M10 A3022 RMK AO2,M
MEV,2023-07-24 22:55,-119.7500,38.9963,1441.42,86.00,26.60,11.55,240.00,6.00,0.00,30.19,M,10.00,16.00,CLR,M,M,M,M,M,M,M,M,M,M,M,M,M,M,82.39,KMEV 242255Z AUTO 24006G16KT 10SM CLR 30/M03 A3019 RMK AO2,M
HTH,2023-07-24 22:55,-118.6315,38.5448,1282.89,95.00,30.20,10.09,240.00,11.00,0.00,30.11,M,10.00,19.00,CLR,M,M,M,M,M,M,M,M,M,M,M,M,M,M,89.48,KHTH 242255Z AUTO 24011G19KT 10SM CLR 35/M01 A3011 RMK A01,M
BAM,2023-07-24 22:55,-116.8743,40.5990,1382.36,93.20,46.40,20.13,220.00,9.00,0.00,30.13,M,10.00,20.00,CLR,M,M,M,M,M,M,M,M,M,M,M,M,M,M,89.55,KBAM 242255Z AUTO 22009G20KT 10SM CLR 34/08 A3013 RMK AO1,M
TMT,2023-07-24 22:55,-117.1971,39.4643,1749.34,85.00,45.00,24.73,160.00,4.00,0.00,30.22,M,M,M,SCT,M,M,M,11000.00,M,M,M,M,M,M,M,M,M,M,82.34,KTMT 242255Z AUTO 16004KT SCT110 30/07 A3022 RMK AO2 LTG DSNT W T02950072 PWINO,M
10U,2023-07-24 22:55,-116.1876,41.9532,1637.00,82.40,44.60,26.49,170.00,18.00,0.00,30.17,M,10.00,23.00,CLR,M,M,M,M,M,M,M,M,M,M,M,M,M,M,80.50,K10U 242255Z AUTO 17018G23KT 10SM CLR 28/07 A3017 RMK AO2,M
LSV,2023-07-24 22:55,-115.0343,36.2362,570.00,110.00,41.00,9.89,160.00,8.00,0.00,29.86,1008.10,10.00,15.00,CLR,M,M,M,M,M,M,M,M,M,M,M,M,M,M,104.31,KLSV 242255Z AUTO 16008G15KT 10SM CLR 43/05 A2986 RMK AO2 SLP081 T04340051 $,M
EKO,2023-07-24 22:56,-115.7860,40.8242,1367.00,76.00,53.00,44.75,100.00,5.00,T,30.22,1016.80,10.00,M,CLR,M,M,M,M,M,M,M,M,M,M,M,M,M,M,76.00,KEKO 242256Z AUTO 10005KT 10SM CLR 24/12 A3022 RMK AO2 RAE04 SLP168 P0000 T02440117,M
WMC,2023-07-24 22:56,-117.8072,40.9019,1315.00,97.00,40.00,14.01,220.00,11.00,0.00,30.06,1011.30,10.00,20.00,CLR,M,M,M,M,M,M,M,M,M,M,M,29.00,240.00,2023-07-24 22:03,92.49,KWMC 242256Z AUTO 22011G20KT 10SM CLR 36/04 A3006 RMK AO2 PK WND 24029/2203 SLP113 T03610044,M
NFL,2023-07-24 22:56,-118.7010,39.4166,1199.00,98.00,27.00,8.07,260.00,14.00,0.00,30.08,1015.30,10.00,22.00,SCT,SCT,BKN,BKN,8000.00,15000.00,18000.00,25000.00,M,M,M,M,30.00,230.00,2023-07-24 22:14,91.60,KNFL 242256Z 26014G22KT 10SM SCT080 SCT150 BKN180 BKN250 37/M03 A3008 RMK AO2 PK WND 23030/2214 SLP153 CB DSNT E-SE T03671028,M
HND,2023-07-24 22:56,-115.1344,35.9729,742.79,108.00,46.00,12.69,250.00,12.00,0.00,29.97,1012.70,10.00,20.00,CLR,M,M,M,M,M,M,M,M,M,M,M,M,M,M,103.95,KHND 242256Z 25012G20KT 10SM CLR 42/08 A2997 RMK AO2 SLP127 T04220078,M
TPH,2023-07-24 22:56,-117.0904,38.0505,1654.00,93.00,48.00,21.51,M,M,0.00,30.21,1013.10,10.00,M,CLR,M,M,M,M,M,M,M,M,M,M,M,M,M,M,89.58,KTPH 242256Z AUTO 10SM CLR 34/09 A3021 RMK AO2 SLP131 T03390089 $,M
LAS,2023-07-24 22:56,-115.1634,36.0719,663.00,108.00,42.00,10.89,230.00,14.00,0.00,29.92,1009.80,10.00,24.00,FEW,FEW,SCT,M,12000.00,20000.00,25000.00,M,M,M,M,M,M,M,M,102.77,KLAS 242256Z 23014G24KT 10SM FEW120 FEW200 SCT250 42/06 A2992 RMK AO2 SLP098 CB DSNT E T04220056,M
LOL,2023-07-24 23:00,-118.5701,40.0684,1192.43,97.00,30.00,9.41,260.00,15.00,0.00,30.05,M,10.00,24.00,CLR,M,M,M,M,M,M,M,M,M,M,M,M,M,M,91.10,KLOL 242300Z AUTO 26015G24KT 10SM CLR 36/M01 A3005 RMK AO2 WSHFT 2240 T03611011,M
INS,2023-07-24 23:02,-115.6733,36.5872,955.00,102.20,37.40,10.81,210.00,14.00,0.00,30.00,1010.20,10.00,21.00,CLR,M,M,M,M,M,M,M,M,M,M,M,M,M,M,96.63,KINS 242302Z AUTO 21014G21KT 10SM CLR 39/03 A3000 RMK AO2 WSHFT 2257 SLP102 $,M
INS,2023-07-24 23:06,-115.6733,36.5872,955.00,102.20,37.40,10.81,260.00,15.00,0.00,30.00,1010.20,10.00,21.00,CLR,M,M,M,M,M,M,M,M,M,M,M,M,M,M,96.63,KINS 242306Z AUTO 26015G21KT 10SM CLR 39/03 A3000 RMK AO2 WSHFT 04 SLP102 $,M
05U,2023-07-24 23:10,-116.0051,39.6042,1811.23,84.20,51.80,32.73,M,M,0.00,30.28,M,10.00,M,M,M,M,M,M,M,M,M,M,M,M,M,M,M,M,82.48,K05U 242310Z AUTO 10SM 29/11 A3028 RMK A01,M
BVU,2023-07-24 23:15,-114.8611,35.9475,671.00,109.40,37.40,8.74,190.00,11.00,0.00,29.91,M,10.00,M,CLR,M,M,M,M,M,M,M,M,M,M,M,M,M,M,102.93,KBVU 242315Z AUTO 19011KT 160V220 10SM CLR 43/03 A2991 RMK AO2,M
CXP,2023-07-24 23:15,-119.7326,39.1923,1431.00,87.80,23.00,9.39,240.00,11.00,0.00,30.20,M,10.00,16.00,CLR,M,M,M,M,M,M,M,M,M,M,M,M,M,M,83.43,KCXP 242315Z AUTO 24011G16KT 10SM CLR 31/M05 A3020 RMK AO2,M
RTS,2023-07-24 23:15,-119.8764,39.6682,1539.00,82.40,15.80,8.20,240.00,16.00,0.00,30.22,M,10.00,22.00,CLR,M,M,M,M,M,M,M,M,M,M,M,M,M,M,79.28,KRTS 242315Z AUTO 24016G22KT 10SM CLR 28/M09 A3022 RMK AO2,M
MEV,2023-07-24 23:15,-119.7500,38.9963,1441.42,87.80,23.00,9.39,230.00,11.00,0.00,30.19,M,10.00,16.00,CLR,M,M,M,M,M,M,M,M,M,M,M,M,M,M,83.43,KMEV 242315Z AUTO 23011G16KT 10SM CLR 31/M05 A3019 RMK AO2,M
HTH,2023-07-24 23:15,-118.6315,38.5448,1282.89,93.20,30.20,10.67,220.00,12.00,0.00,30.12,M,10.00,18.00,CLR,M,M,M,M,M,M,M,M,M,M,M,M,M,M,88.09,KHTH 242315Z AUTO 22012G18KT 10SM CLR 34/M01 A3012 RMK A01,M
10U,2023-07-24 23:15,-116.1876,41.9532,1637.00,82.40,46.40,28.36,190.00,18.00,0.00,30.17,M,10.00,24.00,CLR,M,M,M,M,M,M,M,M,M,M,M,M,M,M,80.64,K10U 242315Z AUTO 19018G24KT 10SM CLR 28/08 A3017 RMK AO2,M
BAM,2023-07-24 23:15,-116.8743,40.5990,1382.36,91.40,44.60,19.89,220.00,4.00,0.00,30.12,M,10.00,20.00,CLR,M,M,M,M,M,M,M,M,M,M,M,M,M,M,87.68,KBAM 242315Z AUTO 22004G20KT 10SM CLR 33/07 A3012 RMK AO1,M
TMT,2023-07-24 23:15,-117.1971,39.4643,1749.34,83.00,47.00,28.45,250.00,10.00,0.00,30.24,M,M,M,BKN,M,M,M,11000.00,M,M,M,M,M,M,M,M,M,M,81.09,KTMT 242315Z AUTO 25010KT BKN110 28/08 A3024 RMK AO2 LTG DSNT SW AND W T02840083 PWINO,M
INS,2023-07-24 23:20,-115.6733,36.5872,955.00,102.20,35.60,10.07,230.00,15.00,0.00,30.00,1010.20,10.00,21.00,CLR,M,M,M,M,M,M,M,M,M,M,M,M,M,M,96.30,KINS 242320Z AUTO 23015G21KT 10SM CLR 39/02 A3000 RMK AO2 WSHFT 15 SLP102 $,M
05U,2023-07-24 23:30,-116.0051,39.6042,1811.23,84.20,50.00,30.62,M,M,0.00,30.27,M,10.00,M,M,M,M,M,M,M,M,M,M,M,M,M,M,M,M,82.24,K05U 242330Z AUTO 10SM 29/10 A3027 RMK A01,M
BVU,2023-07-24 23:35,-114.8611,35.9475,671.00,109.40,39.20,9.38,230.00,9.00,0.00,29.91,M,10.00,17.00,CLR,M,M,M,M,M,M,M,M,M,M,M,M,M,M,103.33,KBVU 242335Z AUTO 23009G17KT 200V280 10SM CLR 43/04 A2991 RMK AO2,M
CXP,2023-07-24 23:35,-119.7326,39.1923,1431.00,87.80,26.60,10.91,270.00,8.00,0.00,30.20,M,10.00,17.00,CLR,M,M,M,M,M,M,M,M,M,M,M,M,M,M,83.69,KCXP 242335Z AUTO 27008G17KT 10SM CLR 31/M03 A3020 RMK AO2,M
RTS,2023-07-24 23:35,-119.8764,39.6682,1539.00,84.20,15.80,7.74,230.00,15.00,0.00,30.22,M,10.00,21.00,CLR,M,M,M,M,M,M,M,M,M,M,M,M,M,M,80.51,KRTS 242335Z AUTO 23015G21KT 10SM CLR 29/M09 A3022 RMK AO2,M
MEV,2023-07-24 23:35,-119.7500,38.9963,1441.42,87.80,23.00,9.39,220.00,11.00,0.00,30.18,M,10.00,M,CLR,M,M,M,M,M,M,M,M,M,M,M,M,M,M,83.43,KMEV 242335Z AUTO 22011KT 10SM CLR 31/M05 A3018 RMK AO2,M
HTH,2023-07-24 23:35,-118.6315,38.5448,1282.89,93.20,32.00,11.48,M,5.00,0.00,30.12,M,10.00,12.00,CLR,M,M,M,M,M,M,M,M,M,M,M,M,M,M,88.31,KHTH 242335Z AUTO VRB05G12KT 10SM CLR 34/M00 A3012 RMK A01,M
TMT,2023-07-24 23:35,-117.1971,39.4643,1749.34,82.00,45.00,27.24,260.00,18.00,0.00,30.26,M,M,35.00,OVC,M,M,M,10000.00,M,M,M,M,M,M,M,M,M,M,80.28,KTMT 242335Z AUTO 26018G35KT OVC100 28/07 A3026 RMK AO2 LTG DSNT SW THRU NW T02780072 PWINO,M
10U,2023-07-24 23:35,-116.1876,41.9532,1637.00,82.40,44.60,26.49,190.00,21.00,0.00,30.17,M,10.00,26.00,CLR,M,M,M,M,M,M,M,M,M,M,M,M,M,M,80.50,K10U 242335Z AUTO 19021G26KT 10SM CLR 28/07 A3017 RMK AO2,M
BAM,2023-07-24 23:35,-116.8743,40.5990,1382.36,91.40,44.60,19.89,210.00,7.00,0.00,30.12,M,10.00,M,CLR,M,M,M,M,M,M,M,M,M,M,M,M,M,M,87.68,KBAM 242335Z AUTO 21007KT 10SM CLR 33/07 A3012 RMK AO1,M
05U,2023-07-24 23:50,-116.0051,39.6042,1811.23,86.00,44.60,23.59,M,M,0.00,30.26,M,10.00,M,M,M,M,M,M,M,M,M,M,M,M,M,M,M,M,83.07,K05U 242350Z AUTO 10SM 30/07 A3026 RMK A01,M
P68,2023-07-24 23:53,-116.0056,39.6014,1993.00,85.00,43.00,22.91,250.00,12.00,0.00,30.24,1014.60,M,21.00,M,M,M,M,M,M,M,M,M,M,M,M,M,M,M,82.21,KP68 242353Z AUTO 25012G21KT 29/06 A3024 RMK AO1 SLP146 T02940061 10294 20200 56022,M
DRA,2023-07-24 23:53,-116.0278,36.6206,1009.00,103.00,41.00,12.15,250.00,8.00,0.00,30.02,1010.40,10.00,16.00,CLR,M,M,M,M,M,M,M,M,M,M,M,M,M,M,98.09,KDRA 242353Z AUTO 25008G16KT 10SM CLR 39/05 A3002 RMK AO2 SLP104 T03940050 10400 20356 56017,M
ELY,2023-07-24 23:53,-114.8453,39.2950,1909.00,87.00,43.00,21.49,270.00,12.00,0.00,30.25,1012.50,10.00,21.00,CLR,M,M,M,M,M,M,M,M,M,M,M,30.00,270.00,2023-07-24 23:31,83.76,KELY 242353Z AUTO 27012G21KT 10SM CLR 31/06 A3025 RMK AO2 PK WND 27030/2331 SLP125 T03060061 10322 20283 58004,M
VGT,2023-07-24 23:53,-115.1933,36.2111,667.00,110.00,45.00,11.53,230.00,15.00,0.00,29.90,1010.60,10.00,27.00,CLR,M,M,M,M,M,M,M,M,M,M,M,27.00,240.00,2023-07-24 23:51,105.45,KVGT 242353Z 23015G27KT 10SM CLR 43/07 A2990 RMK AO2 PK WND 24027/2351 SLP106 T04330072 10439 20383 56019,M
LOL,2023-07-24 23:53,-118.5701,40.0684,1192.43,98.00,22.00,6.55,240.00,18.00,0.00,30.05,1012.50,10.00,25.00,CLR,M,M,M,M,M,M,M,M,M,M,M,29.00,230.00,2023-07-24 23:26,91.17,KLOL 242353Z AUTO 24018G25KT 10SM CLR 37/M06 A3005 RMK AO2 PK WND 23029/2326 WSHFT 2240 SLP125 60000 T03671056 10367 20317 55005,M
BVU,2023-07-24 23:55,-114.8611,35.9475,671.00,109.40,39.20,9.38,250.00,9.00,0.00,29.90,M,10.00,18.00,CLR,M,M,M,M,M,M,M,M,M,M,M,M,M,M,103.33,KBVU 242355Z AUTO 25009G18KT 10SM CLR 43/04 A2990 RMK AO2,M
CXP,2023-07-24 23:55,-119.7326,39.1923,1431.00,89.60,24.80,9.56,250.00,10.00,0.00,30.19,M,10.00,16.00,CLR,M,M,M,M,M,M,M,M,M,M,M,M,M,M,84.88,KCXP 242355Z AUTO 25010G16KT 10SM CLR 32/M04 A3019 RMK AO2,M
INS,2023-07-24 23:55,-115.6733,36.5872,955.00,102.60,35.60,9.95,220.00,8.00,0.00,29.99,1009.80,10.00,19.00,CLR,M,M,M,M,M,M,M,M,M,M,M,M,M,M,96.65,KINS 242355Z AUTO 22008G19KT 10SM CLR 39/02 A2999 RMK AO2 SLP098 T03920020 10396 20355 57014 $,M
RNO,2023-07-24 23:55,-119.7711,39.4839,1341.00,91.00,23.00,8.49,270.00,15.00,0.00,30.15,1014.50,10.00,22.00,BKN,M,M,M,25000.00,M,M,M,M,M,M,M,M,M,M,85.79,KRNO 242355Z 27015G22KT 10SM BKN250 33/M05 A3015 RMK AO2 SLP145 T03281050 10350 20317 58001,M
RTS,2023-07-24 23:55,-119.8764,39.6682,1539.00,84.20,17.60,8.37,230.00,13.00,0.00,30.22,M,10.00,M,CLR,M,M,M,M,M,M,M,M,M,M,M,M,M,M,80.59,KRTS 242355Z AUTO 23013KT 10SM CLR 29/M08 A3022 RMK AO2,M
MEV,2023-07-24 23:55,-119.7500,38.9963,1441.42,89.60,21.20,8.22,230.00,12.00,0.00,30.18,M,10.00,24.00,CLR,M,M,M,M,M,M,M,M,M,M,M,M,M,M,84.64,KMEV 242355Z AUTO 23012G24KT 10SM CLR 32/M06 A3018 RMK AO2,M
HTH,2023-07-24 23:55,-118.6315,38.5448,1282.89,93.20,32.00,11.48,250.00,12.00,0.00,30.11,M,10.00,18.00,CLR,M,M,M,M,M,M,M,M,M,M,M,M,M,M,88.31,KHTH 242355Z AUTO 25012G18KT 220V280 10SM CLR 34/M00 A3011 RMK A01,M
BAM,2023-07-24 23:55,-116.8743,40.5990,1382.36,91.40,46.40,21.29,270.00,9.00,0.00,30.11,M,10.00,15.00,SCT,M,M,M,10000.00,M,M,M,M,M,M,M,M,M,M,87.86,KBAM 242355Z AUTO 27009G15KT 10SM SCT100 33/08 A3011 RMK AO1,M
TMT,2023-07-24 23:55,-117.1971,39.4643,1749.34,73.40,46.00,37.60,300.00,25.00,0.00,30.29,M,M,38.00,OVC,M,M,M,10000.00,M,M,M,VCTS,M,M,M,M,M,M,73.40,KTMT 242355Z AUTO 30025G38KT VCTS OVC100 23/08 A3029 RMK AO2 LTG DSNT NW T02300077 10298 20159,M
10U,2023-07-24 23:55,-116.1876,41.9532,1637.00,82.40,46.40,28.36,200.00,17.00,0.00,30.17,M,10.00,24.00,CLR,M,M,M,M,M,M,M,M,M,M,M,M,M,M,80.64,K10U 242355Z AUTO 20017G24KT 10SM CLR 28/08 A3017 RMK AO2,M
LSV,2023-07-24 23:55,-115.0343,36.2362,570.00,109.00,40.50,9.98,150.00,11.00,0.00,29.85,1007.70,10.00,21.00,CLR,M,M,M,M,M,M,M,M,M,M,M,M,M,M,103.28,KLSV 242355Z AUTO 15011G21KT 10SM CLR 43/05 A2985 RMK AO2 SLP077 T04280047 10441 20408 57020 $,M
EKO,2023-07-24 23:56,-115.7860,40.8242,1367.00,83.00,51.00,33.04,0.00,0.00,0.00,30.20,1016.20,10.00,M,CLR,M,M,M,M,M,M,M,M,M,M,M,M,M,M,81.51,KEKO 242356Z AUTO 00000KT 10SM CLR 28/11 A3020 RMK AO2 SLP162 60000 T02830106 10300 20194 58014,M
WMC,2023-07-24 23:56,-117.8072,40.9019,1315.00,99.00,28.00,8.16,260.00,15.00,0.00,30.05,1011.40,6.00,27.00,CLR,M,M,M,M,M,M,M,HZ,M,M,M,30.00,210.00,2023-07-24 23:05,92.54,KWMC 242356Z AUTO 26015G27KT 6SM HZ CLR 37/M02 A3005 RMK AO2 PK WND 21030/2305 SLP114 T03721022 10372 20317 56011,M
NFL,2023-07-24 23:56,-118.7010,39.4166,1199.00,96.00,26.00,8.24,260.00,14.00,0.00,30.09,1015.50,10.00,M,SCT,SCT,BKN,BKN,8000.00,15000.00,18000.00,25000.00,M,M,M,M,27.00,230.00,2023-07-24 23:09,89.85,KNFL 242356Z 26014KT 10SM SCT080 SCT150 BKN180 BKN250 36/M03 A3009 RMK AO2 PK WND 23027/2309 SLP155 CB DSNT E-SE T03561033 10372 20322 55000,M
HND,2023-07-24 23:56,-115.1344,35.9729,742.79,108.00,46.00,12.69,230.00,13.00,0.00,29.96,1012.50,10.00,17.00,CLR,M,M,M,M,M,M,M,M,M,M,M,M,M,M,103.95,KHND 242356Z 23013G17KT 10SM CLR 42/08 A2996 RMK AO2 SLP125 T04220078 10428 20389 56015,M
TPH,2023-07-24 23:56,-117.0904,38.0505,1654.00,90.00,46.00,21.91,210.00,8.00,0.00,30.20,1012.90,10.00,M,FEW,M,M,M,10000.00,M,M,M,M,M,M,M,M,M,M,86.55,KTPH 242356Z AUTO 21008KT 10SM FEW100 32/08 A3020 RMK AO2 LTG DSNT SW-NW SLP129 T03220078 10339 20239 56019 $,M
LAS,2023-07-24 23:56,-115.1634,36.0719,663.00,107.00,41.00,10.79,220.00,9.00,0.00,29.91,1009.50,10.00,21.00,FEW,FEW,SCT,M,12000.00,20000.00,25000.00,M,M,M,M,M,M,M,M,101.62,KLAS 242356Z 22009G21KT 10SM FEW120 FEW200 SCT250 42/05 A2991 RMK AO2 SLP095 T04170050 10428 20383 56015,M
