station,valid,lon,lat,elevation,tmpf,dwpf,relh,drct,sknt,p01i,alti,mslp,vsby,gust,skyc1,skyc2,skyc3,skyc4,skyl1,skyl2,skyl3,skyl4,wxcodes,ice_accretion_1hr,ice_accretion_3hr,ice_accretion_6hr,peak_wind_gust,peak_wind_drct,peak_wind_time,feel,metar,snowdepth
RTS,2021-09-09 00:15,-119.8764,39.6682,1539.00,91.40,30.20,11.28,330.00,10.00,0.00,30.11,M,10.00,M,CLR,M,M,M,M,M,M,M,M,M,M,M,M,M,M,86.71,KRTS 090015Z AUTO 33010KT 10SM CLR 33/M01 A3011 RMK AO2,M
BVU,2021-09-09 00:15,-114.8611,35.9475,671.00,105.80,39.20,10.43,140.00,10.00,0.00,29.84,M,10.00,M,CLR,M,M,M,M,M,M,M,M,M,M,M,M,M,M,100.14,KBVU 090015Z AUTO 14010KT 10SM CLR 41/04 A2984 RMK AO2,M
BAM,2021-09-09 00:15,-116.8743,40.5990,1382.36,96.80,23.00,7.09,30.00,4.00,0.00,30.07,M,10.00,M,CLR,M,M,M,M,M,M,M,M,M,M,M,M,M,M,90.25,KBAM 090015Z AUTO 03004KT 10SM CLR 36/M05 A3007 RMK AO1,M
MEV,2021-09-09 00:15,-119.7500,38.9963,1441.42,91.40,33.80,13.05,300.00,12.00,0.00,30.09,M,10.00,M,CLR,M,M,M,M,M,M,M,M,M,M,M,M,M,M,87.13,KMEV 090015Z AUTO 30012KT 10SM CLR 33/01 A3009 RMK AO2,M
HTH,2021-09-09 00:15,-118.6315,38.5448,1282.89,96.80,24.80,7.65,320.00,12.00,0.00,30.02,M,10.00,M,CLR,M,M,M,M,M,M,M,M,M,M,M,M,M,M,90.40,KHTH 090015Z AUTO 32012KT 10SM CLR 36/M04 A3002 RMK A01,M
CXP,2021-09-09 00:15,-119.7326,39.1923,1431.00,93.20,30.20,10.67,270.00,7.00,0.00,30.09,M,10.00,15.00,CLR,M,M,M,M,M,M,M,M,M,M,M,M,M,M,88.09,KCXP 090015Z AUTO 27007G15KT 10SM CLR 34/M01 A3009 RMK AO2,M
TMT,2021-09-09 00:15,-117.1971,39.4643,1749.34,92.00,25.50,9.10,0.00,0.00,0.00,30.16,M,10.00,M,CLR,M,M,M,M,M,M,M,M,M,M,M,M,M,M,86.79,KTMT 090015Z AUTO 00000KT 10SM CLR 33/M04 A3016 RMK AO2 T03341036,M
RTS,2021-09-09 00:35,-119.8764,39.6682,1539.00,91.40,30.20,11.28,240.00,12.00,0.00,30.11,M,10.00,M,CLR,M,M,M,M,M,M,M,M,M,M,M,M,M,M,86.71,KRTS 090035Z AUTO 24012KT 10SM CLR 33/M01 A3011 RMK AO2,M
MEV,2021-09-09 00:35,-119.7500,38.9963,1441.42,91.40,32.00,12.14,280.00,8.00,0.00,30.09,M,10.00,14.00,CLR,M,M,M,M,M,M,M,M,M,M,M,M,M,M,86.91,KMEV 090035Z AUTO 28008G14KT 10SM CLR 33/00 A3009 RMK AO2,M
CXP,2021-09-09 00:35,-119.7326,39.1923,1431.00,91.40,30.20,11.28,270.00,11.00,0.00,30.09,M,10.00,18.00,CLR,M,M,M,M,M,M,M,M,M,M,M,M,M,M,86.71,KCXP 090035Z AUTO 27011G18KT 10SM CLR 33/M01 A3009 RMK AO2,M
BVU,2021-09-09 00:35,-114.8611,35.9475,671.00,105.80,37.40,9.72,130.00,6.00,0.00,29.85,M,10.00,13.00,CLR,M,M,M,M,M,M,M,M,M,M,M,M,M,M,99.76,KBVU 090035Z AUTO 13006G13KT 10SM CLR 41/03 A2985 RMK AO2,M
TMT,2021-09-09 00:35,-117.1971,39.4643,1749.34,91.60,26.80,9.76,0.00,0.00,0.00,30.15,M,10.00,M,CLR,M,M,M,M,M,M,M,M,M,M,M,M,M,M,86.53,KTMT 090035Z AUTO 00000KT 10SM CLR 33/M03 A3015 RMK AO2 T03311029,M
BAM,2021-09-09 00:35,-116.8743,40.5990,1382.36,96.80,23.00,7.09,360.00,3.00,0.00,30.06,M,10.00,M,CLR,M,M,M,M,M,M,M,M,M,M,M,M,M,M,90.25,KBAM 090035Z AUTO 36003KT 10SM CLR 36/M05 A3006 RMK AO1,M
HTH,2021-09-09 00:35,-118.6315,38.5448,1282.89,95.00,24.80,8.08,320.00,11.00,0.00,30.02,M,10.00,M,CLR,M,M,M,M,M,M,M,M,M,M,M,M,M,M,88.91,KHTH 090035Z AUTO 32011KT 10SM CLR 35/M04 A3002 RMK A01,M
ELY,2021-09-09 00:53,-114.8453,39.2950,1909.00,90.00,14.00,5.95,240.00,4.00,0.00,30.19,1012.30,10.00,M,CLR,M,M,M,M,M,M,M,M,M,M,M,M,M,M,84.59,KELY 090053Z AUTO 24004KT 10SM CLR 32/M10 A3019 RMK AO2 SLP123 T03221100,M
VGT,2021-09-09 00:53,-115.1933,36.2111,667.00,107.00,36.00,8.85,0.00,0.00,0.00,29.84,1008.70,10.00,M,CLR,M,M,M,M,M,M,M,M,M,M,M,M,M,M,100.62,KVGT 090053Z 00000KT 10SM CLR 42/02 A2984 RMK AO2 SLP087 T04170022,M
P68,2021-09-09 00:53,-116.0056,39.6014,1993.00,93.00,19.00,6.73,20.00,7.00,0.00,30.14,1011.30,M,M,M,M,M,M,M,M,M,M,M,M,M,M,M,M,M,87.01,KP68 090053Z AUTO 02007KT 34/M07 A3014 RMK AO1 SLP113 T03391072,M
DRA,2021-09-09 00:53,-116.0278,36.6206,1009.00,103.00,21.90,5.63,230.00,7.00,0.00,29.93,1007.60,10.00,M,CLR,M,M,M,M,M,M,M,M,M,M,M,M,M,M,95.24,KDRA 090053Z AUTO 23007KT 10SM CLR 39/M06 A2993 RMK AO2 SLP076 T03941056,M
LOL,2021-09-09 00:53,-118.5701,40.0684,1192.43,97.00,28.00,8.67,150.00,6.00,0.00,30.00,1011.90,10.00,M,CLR,M,M,M,M,M,M,M,M,M,M,M,M,M,M,90.87,KLOL 090053Z AUTO 15006KT 10SM CLR 36/M02 A3000 RMK AO2 SLP119 T03611022,M
RNO,2021-09-09 00:55,-119.7711,39.4839,1341.00,94.00,34.00,12.17,270.00,11.00,0.00,30.04,1011.10,10.00,M,SCT,M,M,M,8000.00,M,M,M,M,M,M,M,M,M,M,89.13,KRNO 090055Z 27011KT 10SM SCT080 34/01 A3004 RMK AO2 SLP111 FU HZ ALQDS T03440011,M
RTS,2021-09-09 00:55,-119.8764,39.6682,1539.00,91.40,30.20,11.28,280.00,15.00,0.00,30.12,M,10.00,M,CLR,M,M,M,M,M,M,M,M,M,M,M,M,M,M,86.71,KRTS 090055Z AUTO 28015KT 10SM CLR 33/M01 A3012 RMK AO2,M
MEV,2021-09-09 00:55,-119.7500,38.9963,1441.42,89.60,33.80,13.80,M,5.00,0.00,30.09,M,10.00,11.00,CLR,M,M,M,M,M,M,M,M,M,M,M,M,M,M,85.59,KMEV 090055Z AUTO VRB05G11KT 10SM CLR 32/01 A3009 RMK AO2,M
HTH,2021-09-09 00:55,-118.6315,38.5448,1282.89,95.00,26.60,8.71,330.00,9.00,0.00,30.02,M,10.00,M,CLR,M,M,M,M,M,M,M,M,M,M,M,M,M,M,89.08,KHTH 090055Z AUTO 33009KT 10SM CLR 35/M03 A3002 RMK A01,M
BAM,2021-09-09 00:55,-116.8743,40.5990,1382.36,96.80,23.00,7.09,350.00,6.00,0.00,30.06,M,10.00,M,CLR,M,M,M,M,M,M,M,M,M,M,M,M,M,M,90.25,KBAM 090055Z AUTO 35006KT 10SM CLR 36/M05 A3006 RMK AO1,M
TMT,2021-09-09 00:55,-117.1971,39.4643,1749.34,91.00,27.00,10.02,10.00,8.00,0.00,30.16,M,10.00,M,CLR,M,M,M,M,M,M,M,M,M,M,M,M,M,M,86.10,KTMT 090055Z AUTO 01008KT 10SM CLR 33/M03 A3016 RMK AO2 T03281028,M
CXP,2021-09-09 00:55,-119.7326,39.1923,1431.00,91.40,30.20,11.28,270.00,8.00,0.00,30.09,M,10.00,17.00,CLR,M,M,M,M,M,M,M,M,M,M,M,M,M,M,86.71,KCXP 090055Z AUTO 27008G17KT 240V300 10SM CLR 33/M01 A3009 RMK AO2,M
BVU,2021-09-09 00:55,-114.8611,35.9475,671.00,105.80,42.80,11.98,120.00,10.00,0.00,29.85,M,10.00,M,CLR,M,M,M,M,M,M,M,M,M,M,M,M,M,M,101.02,KBVU 090055Z AUTO 12010KT 10SM CLR 41/06 A2985 RMK AO2,M
NFL,2021-09-09 00:56,-118.7010,39.4166,1199.00,97.00,27.00,8.32,20.00,8.00,0.00,30.00,1013.10,10.00,M,FEW,M,M,M,12000.00,M,M,M,M,M,M,M,M,M,M,90.77,KNFL 090056Z 02008KT 10SM FEW120 36/M03 A3000 RMK AO2 SLP131 T03611028,M
WMC,2021-09-09 00:56,-117.8072,40.9019,1315.00,96.00,27.00,8.56,280.00,9.00,0.00,30.03,1012.30,10.00,M,CLR,M,M,M,M,M,M,M,M,M,M,M,M,M,M,90.03,KWMC 090056Z AUTO 28009KT 10SM CLR 36/M03 A3003 RMK AO2 SLP123 T03561028,M
EKO,2021-09-09 00:56,-115.7860,40.8242,1367.00,93.00,21.90,7.61,310.00,6.00,0.00,30.09,1013.20,10.00,M,FEW,M,M,M,11000.00,M,M,M,M,M,M,M,M,M,M,87.19,KEKO 090056Z AUTO 31006KT 10SM FEW110 34/M06 A3009 RMK AO2 SLP132 T03391056,M
TPH,2021-09-09 00:56,-117.0904,38.0505,1654.00,93.00,21.90,7.61,300.00,5.00,0.00,30.13,1011.90,10.00,M,CLR,M,M,M,M,M,M,M,M,M,M,M,M,M,M,87.19,KTPH 090056Z AUTO 30005KT 10SM CLR 34/M06 A3013 RMK AO2 SLP119 T03391056,M
HND,2021-09-09 00:56,-115.1344,35.9729,742.79,106.00,37.00,9.51,70.00,6.00,0.00,29.89,1010.10,10.00,M,CLR,M,M,M,M,M,M,M,M,M,M,M,M,M,M,99.86,KHND 090056Z 07006KT 10SM CLR 41/03 A2989 RMK AO2 SLP101 T04110028,M
LAS,2021-09-09 00:56,-115.1634,36.0719,663.00,105.00,39.00,10.56,100.00,6.00,0.00,29.85,1007.60,10.00,M,FEW,FEW,M,M,14000.00,22000.00,M,M,M,M,M,M,M,M,M,99.48,KLAS 090056Z 10006KT 10SM FEW140 FEW220 41/04 A2985 RMK AO2 SLP076 CB DSNT E-SE T04060039,M
LSV,2021-09-09 00:58,-115.0343,36.2362,570.00,106.00,32.50,7.95,0.00,0.00,0.00,29.81,1006.70,10.00,M,CLR,M,M,M,M,M,M,M,M,M,M,M,M,M,M,99.07,KLSV 090058Z AUTO 00000KT 10SM CLR 41/00 A2981 RMK AO2 SLP067 T04110003 $,M
INS,2021-09-09 00:58,-115.6733,36.5872,955.00,101.30,17.80,4.96,130.00,8.00,0.00,29.92,1007.80,10.00,M,CLR,M,M,M,M,M,M,M,M,M,M,M,M,M,M,93.62,KINS 090058Z AUTO 13008KT 10SM CLR 39/M08 A2992 RMK AO2 SLP078 T03851079 $,M
RTS,2021-09-09 01:15,-119.8764,39.6682,1539.00,89.60,30.20,11.94,270.00,13.00,0.00,30.12,M,10.00,19.00,CLR,M,M,M,M,M,M,M,M,M,M,M,M,M,M,85.34,KRTS 090115Z AUTO 27013G19KT 10SM CLR 32/M01 A3012 RMK AO2,M
BVU,2021-09-09 01:15,-114.8611,35.9475,671.00,104.00,42.80,12.64,130.00,8.00,0.00,29.85,M,10.00,M,CLR,M,M,M,M,M,M,M,M,M,M,M,M,M,M,99.42,KBVU 090115Z AUTO 13008KT 10SM CLR 40/06 A2985 RMK AO2,M
CXP,2021-09-09 01:15,-119.7326,39.1923,1431.00,91.40,30.20,11.28,270.00,9.00,0.00,30.09,M,10.00,16.00,CLR,M,M,M,M,M,M,M,M,M,M,M,M,M,M,86.71,KCXP 090115Z AUTO 27009G16KT 10SM CLR 33/M01 A3009 RMK AO2,M
MEV,2021-09-09 01:15,-119.7500,38.9963,1441.42,87.80,35.60,15.70,300.00,7.00,0.00,30.09,M,10.00,M,CLR,M,M,M,M,M,M,M,M,M,M,M,M,M,M,84.12,KMEV 090115Z AUTO 30007KT 10SM CLR 31/02 A3009 RMK AO2,M
TMT,2021-09-09 01:15,-117.1971,39.4643,1749.34,88.50,27.50,11.07,350.00,12.00,0.00,30.16,M,7.00,M,CLR,M,M,M,M,M,M,M,M,M,M,M,M,M,M,84.28,KTMT 090115Z AUTO 35012KT 7SM CLR 31/M02 A3016 RMK AO2 T03141025,M
BAM,2021-09-09 01:15,-116.8743,40.5990,1382.36,95.00,24.80,8.08,10.00,5.00,0.00,30.05,M,10.00,M,CLR,M,M,M,M,M,M,M,M,M,M,M,M,M,M,88.91,KBAM 090115Z AUTO 01005KT 10SM CLR 35/M04 A3005 RMK AO1,M
HTH,2021-09-09 01:15,-118.6315,38.5448,1282.89,95.00,24.80,8.08,330.00,9.00,0.00,30.02,M,10.00,M,CLR,M,M,M,M,M,M,M,M,M,M,M,M,M,M,88.91,KHTH 090115Z AUTO 33009KT 10SM CLR 35/M04 A3002 RMK A01,M
TMT,2021-09-09 01:35,-117.1971,39.4643,1749.34,86.40,27.50,11.83,350.00,10.00,0.00,30.16,M,10.00,M,CLR,M,M,M,M,M,M,M,M,M,M,M,M,M,M,82.75,KTMT 090135Z AUTO 35010KT 10SM CLR 30/M02 A3016 RMK AO2 T03021025,M
CXP,2021-09-09 01:35,-119.7326,39.1923,1431.00,89.60,30.20,11.94,260.00,7.00,0.00,30.09,M,10.00,17.00,CLR,M,M,M,M,M,M,M,M,M,M,M,M,M,M,85.34,KCXP 090135Z AUTO 26007G17KT 10SM CLR 32/M01 A3009 RMK AO2,M
HTH,2021-09-09 01:35,-118.6315,38.5448,1282.89,93.20,26.60,9.21,320.00,7.00,0.00,30.02,M,10.00,M,CLR,M,M,M,M,M,M,M,M,M,M,M,M,M,M,87.72,KHTH 090135Z AUTO 32007KT 10SM CLR 34/M03 A3002 RMK A01,M
BVU,2021-09-09 01:35,-114.8611,35.9475,671.00,104.00,42.80,12.64,150.00,8.00,0.00,29.85,M,10.00,M,CLR,M,M,M,M,M,M,M,M,M,M,M,M,M,M,99.42,KBVU 090135Z AUTO 15008KT 10SM CLR 40/06 A2985 RMK AO2,M
BAM,2021-09-09 01:35,-116.8743,40.5990,1382.36,91.40,24.80,9.04,350.00,4.00,0.00,30.05,M,10.00,M,CLR,M,M,M,M,M,M,M,M,M,M,M,M,M,M,86.21,KBAM 090135Z AUTO 35004KT 10SM CLR 33/M04 A3005 RMK AO1,M
MEV,2021-09-09 01:35,-119.7500,38.9963,1441.42,87.80,33.80,14.61,0.00,0.00,0.00,30.10,M,10.00,M,CLR,M,M,M,M,M,M,M,M,M,M,M,M,M,M,84.10,KMEV 090135Z AUTO 00000KT 10SM CLR 31/01 A3010 RMK AO2,M
RTS,2021-09-09 01:35,-119.8764,39.6682,1539.00,87.80,30.20,12.64,290.00,12.00,0.00,30.12,M,10.00,18.00,CLR,M,M,M,M,M,M,M,M,M,M,M,M,M,M,84.01,KRTS 090135Z AUTO 29012G18KT 10SM CLR 31/M01 A3012 RMK AO2,M
LOL,2021-09-09 01:53,-118.5701,40.0684,1192.43,90.00,34.00,13.74,80.00,5.00,0.00,30.00,1012.20,10.00,M,CLR,M,M,M,M,M,M,M,M,M,M,M,M,M,M,85.93,KLOL 090153Z AUTO 08005KT 10SM CLR 32/01 A3000 RMK AO2 SLP122 T03220011,M
ELY,2021-09-09 01:53,-114.8453,39.2950,1909.00,79.00,12.00,7.76,220.00,6.00,0.00,30.19,1013.80,10.00,M,CLR,M,M,M,M,M,M,M,M,M,M,M,M,M,M,79.00,KELY 090153Z AUTO 22006KT 10SM CLR 26/M11 A3019 RMK AO2 SLP138 T02611111,M
DRA,2021-09-09 01:53,-116.0278,36.6206,1009.00,98.00,21.00,6.26,220.00,6.00,0.00,29.93,1008.30,10.00,M,CLR,M,M,M,M,M,M,M,M,M,M,M,M,M,M,91.18,KDRA 090153Z AUTO 22006KT 10SM CLR 37/M06 A2993 RMK AO2 SLP083 T03671061,M
VGT,2021-09-09 01:53,-115.1933,36.2111,667.00,105.00,36.00,9.39,90.00,3.00,0.00,29.84,1008.90,10.00,M,CLR,M,M,M,M,M,M,M,M,M,M,M,M,M,M,98.88,KVGT 090153Z 09003KT 10SM CLR 41/02 A2984 RMK AO2 SLP089 T04060022,M
P68,2021-09-09 01:53,-116.0056,39.6014,1993.00,86.00,19.90,8.72,180.00,7.00,0.00,30.14,1012.40,M,M,M,M,M,M,M,M,M,M,M,M,M,M,M,M,M,81.97,KP68 090153Z AUTO 18007KT 30/M07 A3014 RMK AO1 SLP124 T03001067,M
HTH,2021-09-09 01:55,-118.6315,38.5448,1282.89,89.60,28.40,11.09,320.00,6.00,0.00,30.02,M,10.00,M,CLR,M,M,M,M,M,M,M,M,M,M,M,M,M,M,85.17,KHTH 090155Z AUTO 32006KT 10SM CLR 32/M02 A3002 RMK A01,M
RNO,2021-09-09 01:55,-119.7711,39.4839,1341.00,91.00,34.00,13.32,290.00,12.00,0.00,30.05,1011.60,10.00,M,SCT,M,M,M,8000.00,M,M,M,M,M,M,M,M,M,M,86.79,KRNO 090155Z 29012KT 10SM SCT080 33/01 A3005 RMK AO2 SLP116 FU HZ ALQDS T03280011,M
RTS,2021-09-09 01:55,-119.8764,39.6682,1539.00,86.00,30.20,13.38,310.00,12.00,0.00,30.13,M,10.00,M,CLR,M,M,M,M,M,M,M,M,M,M,M,M,M,M,82.64,KRTS 090155Z AUTO 31012KT 10SM CLR 30/M01 A3013 RMK AO2,M
MEV,2021-09-09 01:55,-119.7500,38.9963,1441.42,86.00,33.80,15.48,0.00,0.00,0.00,30.10,M,10.00,M,CLR,M,M,M,M,M,M,M,M,M,M,M,M,M,M,82.66,KMEV 090155Z AUTO 00000KT 10SM CLR 30/01 A3010 RMK AO2,M
TMT,2021-09-09 01:55,-117.1971,39.4643,1749.34,83.30,27.50,13.07,340.00,6.00,0.00,30.17,M,10.00,M,CLR,M,M,M,M,M,M,M,M,M,M,M,M,M,M,80.58,KTMT 090155Z AUTO 34006KT 10SM CLR 29/M02 A3017 RMK AO2 T02851025,M
BAM,2021-09-09 01:55,-116.8743,40.5990,1382.36,89.60,26.60,10.30,350.00,4.00,0.00,30.05,M,10.00,M,CLR,M,M,M,M,M,M,M,M,M,M,M,M,M,M,85.02,KBAM 090155Z AUTO 35004KT 10SM CLR 32/M03 A3005 RMK AO1,M
BVU,2021-09-09 01:55,-114.8611,35.9475,671.00,100.40,48.20,17.28,160.00,10.00,0.00,29.85,M,10.00,M,CLR,M,M,M,M,M,M,M,M,M,M,M,M,M,M,97.00,KBVU 090155Z AUTO 16010KT 10SM CLR 38/09 A2985 RMK AO2,M
CXP,2021-09-09 01:55,-119.7326,39.1923,1431.00,89.60,30.20,11.94,270.00,11.00,0.00,30.10,M,10.00,16.00,CLR,M,M,M,M,M,M,M,M,M,M,M,M,M,M,85.34,KCXP 090155Z AUTO 27011G16KT 10SM CLR 32/M01 A3010 RMK AO2,M
EKO,2021-09-09 01:56,-115.7860,40.8242,1367.00,84.00,21.90,10.12,M,3.00,0.00,30.09,1014.10,10.00,M,CLR,M,M,M,M,M,M,M,M,M,M,M,M,M,M,80.68,KEKO 090156Z AUTO VRB03KT 10SM CLR 29/M06 A3009 RMK AO2 SLP141 T02891056,M
HND,2021-09-09 01:56,-115.1344,35.9729,742.79,102.00,43.00,13.52,110.00,5.00,0.00,29.89,1010.50,10.00,M,CLR,M,M,M,M,M,M,M,M,M,M,M,M,M,M,97.60,KHND 090156Z 11005KT 10SM CLR 39/06 A2989 RMK AO2 SLP105 T03890061,M
LAS,2021-09-09 01:56,-115.1634,36.0719,663.00,103.00,40.00,11.68,100.00,4.00,0.00,29.85,1007.80,10.00,M,FEW,SCT,M,M,14000.00,22000.00,M,M,M,M,M,M,M,M,M,97.75,KLAS 090156Z 10004KT 10SM FEW140 SCT220 39/04 A2985 RMK AO2 SLP078 CB DSNT NE-SE T03940044,M
NFL,2021-09-09 01:56,-118.7010,39.4166,1199.00,94.00,28.00,9.54,M,5.00,0.00,30.00,1013.00,6.00,M,FEW,M,M,M,12000.00,M,M,M,HZ,M,M,M,M,M,M,88.39,KNFL 090156Z VRB05KT 6SM HZ FEW120 34/M02 A3000 RMK AO2 SLP130 T03441022,M
TPH,2021-09-09 01:56,-117.0904,38.0505,1654.00,92.00,21.90,7.88,0.00,0.00,0.00,30.13,1012.00,10.00,M,CLR,M,M,M,M,M,M,M,M,M,M,M,M,M,M,86.38,KTPH 090156Z AUTO 00000KT 10SM CLR 33/M06 A3013 RMK AO2 SLP120 T03331056,M
WMC,2021-09-09 01:56,-117.8072,40.9019,1315.00,89.00,28.00,11.09,270.00,5.00,0.00,30.03,1012.50,10.00,M,CLR,M,M,M,M,M,M,M,M,M,M,M,M,M,M,84.76,KWMC 090156Z AUTO 27005KT 10SM CLR 32/M02 A3003 RMK AO2 SLP125 T03171022,M
LSV,2021-09-09 01:58,-115.0343,36.2362,570.00,103.30,33.40,8.93,50.00,5.00,0.00,29.81,1006.80,10.00,M,CLR,M,M,M,M,M,M,M,M,M,M,M,M,M,M,96.89,KLSV 090158Z AUTO 05005KT 10SM CLR 40/01 A2981 RMK AO2 SLP068 T03960008 $,M
INS,2021-09-09 01:58,-115.6733,36.5872,955.00,96.80,18.90,5.96,130.00,8.00,0.00,29.92,1008.20,10.00,M,CLR,M,M,M,M,M,M,M,M,M,M,M,M,M,M,89.96,KINS 090158Z AUTO 13008KT 10SM CLR 36/M07 A2992 RMK AO2 SLP082 T03601073 $,M
CXP,2021-09-09 02:15,-119.7326,39.1923,1431.00,87.80,30.20,12.64,270.00,10.00,0.00,30.10,M,10.00,16.00,CLR,M,M,M,M,M,M,M,M,M,M,M,M,M,M,84.01,KCXP 090215Z AUTO 27010G16KT 240V300 10SM CLR 31/M01 A3010 RMK AO2,M
MEV,2021-09-09 02:15,-119.7500,38.9963,1441.42,84.20,33.80,16.39,0.00,0.00,0.00,30.10,M,10.00,M,CLR,M,M,M,M,M,M,M,M,M,M,M,M,M,M,81.30,KMEV 090215Z AUTO 00000KT 10SM CLR 29/01 A3010 RMK AO2,M
HTH,2021-09-09 02:15,-118.6315,38.5448,1282.89,87.80,26.60,10.91,300.00,6.00,0.00,30.02,M,10.00,M,CLR,M,M,M,M,M,M,M,M,M,M,M,M,M,M,83.69,KHTH 090215Z AUTO 30006KT 10SM CLR 31/M03 A3002 RMK A01,M
TMT,2021-09-09 02:15,-117.1971,39.4643,1749.34,79.00,27.00,14.73,350.00,5.00,0.00,30.18,M,10.00,M,CLR,M,M,M,M,M,M,M,M,M,M,M,M,M,M,79.00,KTMT 090215Z AUTO 35005KT 10SM CLR 26/M03 A3018 RMK AO2 T02611028,M
BAM,2021-09-09 02:15,-116.8743,40.5990,1382.36,86.00,26.60,11.55,0.00,0.00,0.00,30.05,M,10.00,M,CLR,M,M,M,M,M,M,M,M,M,M,M,M,M,M,82.39,KBAM 090215Z AUTO 00000KT 10SM CLR 30/M03 A3005 RMK AO1,M
BVU,2021-09-09 02:15,-114.8611,35.9475,671.00,100.40,51.80,19.76,160.00,8.00,0.00,29.86,M,10.00,M,CLR,M,M,M,M,M,M,M,M,M,M,M,M,M,M,97.90,KBVU 090215Z AUTO 16008KT 10SM CLR 38/11 A2986 RMK AO2,M
RTS,2021-09-09 02:15,-119.8764,39.6682,1539.00,84.20,28.40,13.18,310.00,12.00,0.00,30.13,M,10.00,18.00,CLR,M,M,M,M,M,M,M,M,M,M,M,M,M,M,81.25,KRTS 090215Z AUTO 31012G18KT 10SM CLR 29/M02 A3013 RMK AO2,M
BVU,2021-09-09 02:35,-114.8611,35.9475,671.00,98.60,53.60,22.29,150.00,9.00,0.00,29.87,M,10.00,M,CLR,M,M,M,M,M,M,M,M,M,M,M,M,M,M,96.51,KBVU 090235Z AUTO 15009KT 10SM CLR 37/12 A2987 RMK AO2,M
RTS,2021-09-09 02:35,-119.8764,39.6682,1539.00,82.40,28.40,13.96,310.00,11.00,0.00,30.14,M,10.00,M,CLR,M,M,M,M,M,M,M,M,M,M,M,M,M,M,79.94,KRTS 090235Z AUTO 31011KT 10SM CLR 28/M02 A3014 RMK AO2,M
MEV,2021-09-09 02:35,-119.7500,38.9963,1441.42,82.40,33.80,17.38,190.00,4.00,0.00,30.10,M,10.00,M,CLR,M,M,M,M,M,M,M,M,M,M,M,M,M,M,80.03,KMEV 090235Z AUTO 19004KT 10SM CLR 28/01 A3010 RMK AO2,M
BAM,2021-09-09 02:35,-116.8743,40.5990,1382.36,80.60,24.80,12.76,320.00,4.00,0.00,30.06,M,10.00,M,CLR,M,M,M,M,M,M,M,M,M,M,M,M,M,M,78.94,KBAM 090235Z AUTO 32004KT 10SM CLR 27/M04 A3006 RMK AO1,M
HTH,2021-09-09 02:35,-118.6315,38.5448,1282.89,87.80,24.80,10.12,300.00,7.00,0.00,30.02,M,10.00,M,CLR,M,M,M,M,M,M,M,M,M,M,M,M,M,M,83.56,KHTH 090235Z AUTO 30007KT 10SM CLR 31/M04 A3002 RMK A01,M
TMT,2021-09-09 02:35,-117.1971,39.4643,1749.34,76.30,26.60,15.84,10.00,4.00,0.00,30.18,M,10.00,M,CLR,M,M,M,M,M,M,M,M,M,M,M,M,M,M,76.30,KTMT 090235Z AUTO 01004KT 10SM CLR 25/M03 A3018 RMK AO2 T02461030,M
CXP,2021-09-09 02:35,-119.7326,39.1923,1431.00,87.80,30.20,12.64,280.00,7.00,0.00,30.10,M,10.00,12.00,CLR,M,M,M,M,M,M,M,M,M,M,M,M,M,M,84.01,KCXP 090235Z AUTO 28007G12KT 10SM CLR 31/M01 A3010 RMK AO2,M
LOL,2021-09-09 02:53,-118.5701,40.0684,1192.43,79.00,35.00,20.45,0.00,0.00,0.00,30.00,1012.40,10.00,M,CLR,M,M,M,M,M,M,M,M,M,M,M,M,M,M,79.00,KLOL 090253Z AUTO 00000KT 10SM CLR 26/02 A3000 RMK AO2 SLP124 T02610017 55003,M
DRA,2021-09-09 02:53,-116.0278,36.6206,1009.00,91.00,21.00,7.80,0.00,0.00,0.00,29.94,1008.50,10.00,M,CLR,M,M,M,M,M,M,M,M,M,M,M,M,M,M,85.66,KDRA 090253Z AUTO 00000KT 10SM CLR 33/M06 A2994 RMK AO2 SLP085 T03281061 53006,M
P68,2021-09-09 02:53,-116.0056,39.6014,1993.00,79.00,19.00,10.53,0.00,0.00,0.00,30.17,1012.90,M,M,M,M,M,M,M,M,M,M,M,M,M,M,M,M,M,79.00,KP68 090253Z AUTO 00000KT 26/M07 A3017 RMK AO1 SLP129 T02611072 53009,M
VGT,2021-09-09 02:53,-115.1933,36.2111,667.00,101.00,39.00,11.97,0.00,0.00,0.00,29.85,1009.30,10.00,M,CLR,M,M,M,M,M,M,M,M,M,M,M,M,M,M,95.82,KVGT 090253Z 00000KT 10SM CLR 38/04 A2985 RMK AO2 SLP093 T03830039 53005,M
ELY,2021-09-09 02:53,-114.8453,39.2950,1909.00,71.00,16.00,12.04,190.00,8.00,0.00,30.20,1014.00,10.00,M,CLR,M,M,M,M,M,M,M,M,M,M,M,M,M,M,71.10,KELY 090253Z AUTO 19008KT 10SM CLR 22/M09 A3020 RMK AO2 SLP140 T02171089 53005,M
CXP,2021-09-09 02:55,-119.7326,39.1923,1431.00,86.00,28.40,12.44,300.00,6.00,0.00,30.10,M,10.00,M,FEW,M,M,M,3900.00,M,M,M,M,M,M,M,M,M,M,82.54,KCXP 090255Z AUTO 30006KT 10SM FEW039 30/M02 A3010 RMK AO2,M
TMT,2021-09-09 02:55,-117.1971,39.4643,1749.34,72.50,25.30,17.05,0.00,0.00,0.00,30.18,M,10.00,M,CLR,M,M,M,M,M,M,M,M,M,M,M,M,M,M,72.50,KTMT 090255Z AUTO 00000KT 10SM CLR 23/M04 A3018 RMK AO2 T02251037,M
BVU,2021-09-09 02:55,-114.8611,35.9475,671.00,98.60,57.20,25.41,150.00,11.00,0.00,29.88,M,10.00,M,CLR,M,M,M,M,M,M,M,M,M,M,M,M,M,M,97.76,KBVU 090255Z AUTO 15011KT 10SM CLR 37/14 A2988 RMK AO2,M
BAM,2021-09-09 02:55,-116.8743,40.5990,1382.36,78.80,24.80,13.54,300.00,6.00,0.00,30.06,M,10.00,M,CLR,M,M,M,M,M,M,M,M,M,M,M,M,M,M,78.80,KBAM 090255Z AUTO 30006KT 10SM CLR 26/M04 A3006 RMK AO1,M
HTH,2021-09-09 02:55,-118.6315,38.5448,1282.89,86.00,24.80,10.72,300.00,4.00,0.00,30.03,M,10.00,M,CLR,M,M,M,M,M,M,M,M,M,M,M,M,M,M,82.26,KHTH 090255Z AUTO 30004KT 10SM CLR 30/M04 A3003 RMK A01,M
MEV,2021-09-09 02:55,-119.7500,38.9963,1441.42,82.40,32.00,16.17,0.00,0.00,0.00,30.10,M,10.00,M,CLR,M,M,M,M,M,M,M,M,M,M,M,M,M,M,80.00,KMEV 090255Z AUTO 00000KT 10SM CLR 28/00 A3010 RMK AO2,M
RTS,2021-09-09 02:55,-119.8764,39.6682,1539.00,82.40,28.40,13.96,310.00,12.00,0.00,30.14,M,10.00,M,CLR,M,M,M,M,M,M,M,M,M,M,M,M,M,M,79.94,KRTS 090255Z AUTO 31012KT 10SM CLR 28/M02 A3014 RMK AO2,M
RNO,2021-09-09 02:55,-119.7711,39.4839,1341.00,88.00,32.00,13.51,290.00,16.00,0.00,30.06,1011.90,10.00,M,SCT,M,M,M,8000.00,M,M,M,M,M,M,M,M,M,M,84.24,KRNO 090255Z 29016KT 10SM SCT080 31/00 A3006 RMK AO2 SLP119 FU HZ ALQDS T03110000 53005,M
WMC,2021-09-09 02:56,-117.8072,40.9019,1315.00,77.00,27.00,15.74,M,M,0.00,30.04,1013.20,10.00,M,CLR,M,M,M,M,M,M,M,M,M,M,M,M,M,M,77.00,KWMC 090256Z AUTO 10SM CLR 25/M03 A3004 RMK AO2 SLP132 T02501028 53001,M
TPH,2021-09-09 02:56,-117.0904,38.0505,1654.00,79.00,18.00,10.08,320.00,6.00,0.00,30.13,1012.80,10.00,M,CLR,M,M,M,M,M,M,M,M,M,M,M,M,M,M,79.00,KTPH 090256Z AUTO 32006KT 10SM CLR 26/M08 A3013 RMK AO2 SLP128 T02611078 55001,M
NFL,2021-09-09 02:56,-118.7010,39.4166,1199.00,85.00,28.90,13.15,M,5.00,0.00,30.00,1013.00,6.00,M,FEW,M,M,M,12000.00,M,M,M,HZ,M,M,M,M,M,M,81.78,KNFL 090256Z VRB05KT 6SM HZ FEW120 29/M02 A3000 RMK AO2 SLP130 T02941017 56003,M
EKO,2021-09-09 02:56,-115.7860,40.8242,1367.00,80.00,19.90,10.55,M,3.00,0.00,30.10,1013.90,10.00,M,CLR,M,M,M,M,M,M,M,M,M,M,M,M,M,M,78.09,KEKO 090256Z AUTO VRB03KT 10SM CLR 27/M07 A3010 RMK AO2 SLP139 T02671067 55001,M
LAS,2021-09-09 02:56,-115.1634,36.0719,663.00,100.00,44.00,14.98,M,3.00,0.00,29.86,1008.10,10.00,M,FEW,SCT,M,M,14000.00,22000.00,M,M,M,M,M,M,M,M,M,95.84,KLAS 090256Z VRB03KT 10SM FEW140 SCT220 38/07 A2986 RMK AO2 SLP081 T03780067 53004,M
HND,2021-09-09 02:56,-115.1344,35.9729,742.79,99.00,56.00,23.95,160.00,12.00,0.00,29.90,1010.70,10.00,M,CLR,M,M,M,M,M,M,M,M,M,M,M,M,M,M,97.71,KHND 090256Z 16012KT 10SM CLR 37/13 A2990 RMK AO2 SLP107 T03720133 53006,M
INS,2021-09-09 02:58,-115.6733,36.5872,955.00,91.40,24.60,8.96,150.00,6.00,0.00,29.93,1008.50,10.00,M,CLR,M,M,M,M,M,M,M,M,M,M,M,M,M,M,86.20,KINS 090258Z AUTO 15006KT 10SM CLR 33/M04 A2993 RMK AO2 SLP085 T03301041 52005 $,M
LSV,2021-09-09 02:58,-115.0343,36.2362,570.00,M,M,M,M,M,0.00,M,M,M,M,M,M,M,M,M,M,M,M,M,M,M,M,M,M,M,M,KLSV 090258Z AUTO M M M M M M RMK AO2 SLPNO RVRNO $,M
BVU,2021-09-09 03:15,-114.8611,35.9475,671.00,96.80,57.20,26.84,160.00,8.00,0.00,29.89,M,10.00,M,CLR,M,M,M,M,M,M,M,M,M,M,M,M,M,M,95.77,KBVU 090315Z AUTO 16008KT 10SM CLR 36/14 A2989 RMK AO2,M
TMT,2021-09-09 03:15,-117.1971,39.4643,1749.34,67.60,23.00,18.31,160.00,4.00,0.00,30.19,M,10.00,M,CLR,M,M,M,M,M,M,M,M,M,M,M,M,M,M,67.60,KTMT 090315Z AUTO 16004KT 10SM CLR 20/M05 A3019 RMK AO2 T01981050,M
HTH,2021-09-09 03:15,-118.6315,38.5448,1282.89,84.20,24.80,11.35,0.00,0.00,0.00,30.03,M,10.00,M,CLR,M,M,M,M,M,M,M,M,M,M,M,M,M,M,81.00,KHTH 090315Z AUTO 00000KT 10SM CLR 29/M04 A3003 RMK A01,M
BAM,2021-09-09 03:15,-116.8743,40.5990,1382.36,78.80,24.80,13.54,320.00,3.00,0.00,30.07,M,10.00,M,CLR,M,M,M,M,M,M,M,M,M,M,M,M,M,M,78.80,KBAM 090315Z AUTO 32003KT 10SM CLR 26/M04 A3007 RMK AO1,M
MEV,2021-09-09 03:15,-119.7500,38.9963,1441.42,80.60,32.00,17.14,0.00,0.00,0.00,30.11,M,10.00,M,FEW,FEW,FEW,M,4500.00,5000.00,6000.00,M,M,M,M,M,M,M,M,78.82,KMEV 090315Z AUTO 00000KT 10SM FEW045 FEW050 FEW060 27/M00 A3011 RMK AO2,M
RTS,2021-09-09 03:15,-119.8764,39.6682,1539.00,82.40,28.40,13.96,290.00,12.00,0.00,30.14,M,10.00,17.00,CLR,M,M,M,M,M,M,M,M,M,M,M,M,M,M,79.94,KRTS 090315Z AUTO 29012G17KT 10SM CLR 28/M02 A3014 RMK AO2,M
CXP,2021-09-09 03:15,-119.7326,39.1923,1431.00,86.00,28.40,12.44,280.00,7.00,0.00,30.10,M,10.00,13.00,FEW,FEW,M,M,4100.00,5500.00,M,M,M,M,M,M,M,M,M,82.54,KCXP 090315Z AUTO 28007G13KT 10SM FEW041 FEW055 30/M02 A3010 RMK AO2,M
BAM,2021-09-09 03:35,-116.8743,40.5990,1382.36,71.60,21.20,14.80,100.00,4.00,0.00,30.08,M,10.00,M,CLR,M,M,M,M,M,M,M,M,M,M,M,M,M,M,71.60,KBAM 090335Z AUTO 10004KT 10SM CLR 22/M06 A3008 RMK AO1,M
HTH,2021-09-09 03:35,-118.6315,38.5448,1282.89,82.40,24.80,12.03,0.00,0.00,0.00,30.04,M,10.00,M,CLR,M,M,M,M,M,M,M,M,M,M,M,M,M,M,79.79,KHTH 090335Z AUTO 00000KT 10SM CLR 28/M04 A3004 RMK A01,M
CXP,2021-09-09 03:35,-119.7326,39.1923,1431.00,86.00,28.40,12.44,0.00,0.00,0.00,30.11,M,10.00,M,FEW,SCT,SCT,M,3600.00,4200.00,5500.00,M,M,M,M,M,M,M,M,82.54,KCXP 090335Z AUTO 00000KT 10SM FEW036 SCT042 SCT055 30/M02 A3011 RMK AO2,M
BVU,2021-09-09 03:35,-114.8611,35.9475,671.00,96.80,57.20,26.84,210.00,4.00,0.00,29.89,M,10.00,M,CLR,M,M,M,M,M,M,M,M,M,M,M,M,M,M,95.77,KBVU 090335Z AUTO 21004KT 10SM CLR 36/14 A2989 RMK AO2,M
TMT,2021-09-09 03:35,-117.1971,39.4643,1749.34,65.30,23.40,20.16,160.00,6.00,0.00,30.20,M,10.00,M,CLR,M,M,M,M,M,M,M,M,M,M,M,M,M,M,65.30,KTMT 090335Z AUTO 16006KT 10SM CLR 19/M05 A3020 RMK AO2 T01851048,M
RTS,2021-09-09 03:35,-119.8764,39.6682,1539.00,82.40,28.40,13.96,280.00,12.00,0.00,30.14,M,10.00,M,CLR,M,M,M,M,M,M,M,M,M,M,M,M,M,M,79.94,KRTS 090335Z AUTO 28012KT 10SM CLR 28/M02 A3014 RMK AO2,M
MEV,2021-09-09 03:35,-119.7500,38.9963,1441.42,80.60,32.00,17.14,0.00,0.00,0.00,30.11,M,10.00,M,CLR,M,M,M,M,M,M,M,M,M,M,M,M,M,M,78.82,KMEV 090335Z AUTO 00000KT 10SM CLR 27/M00 A3011 RMK AO2,M
VGT,2021-09-09 03:53,-115.1933,36.2111,667.00,98.00,43.00,15.21,150.00,6.00,0.00,29.87,1010.00,10.00,M,CLR,M,M,M,M,M,M,M,M,M,M,M,M,M,M,93.85,KVGT 090353Z 15006KT 10SM CLR 37/06 A2987 RMK AO2 SLP100 T03670061,M
LOL,2021-09-09 03:53,-118.5701,40.0684,1192.43,75.00,27.00,16.82,330.00,6.00,0.00,30.01,1012.40,10.00,M,CLR,M,M,M,M,M,M,M,M,M,M,M,M,M,M,75.00,KLOL 090353Z AUTO 33006KT 10SM CLR 24/M03 A3001 RMK AO2 SLP124 T02391028,M
ELY,2021-09-09 03:53,-114.8453,39.2950,1909.00,70.00,17.10,13.11,190.00,12.00,0.00,30.22,1013.40,10.00,M,CLR,M,M,M,M,M,M,M,M,M,M,M,M,M,M,70.00,KELY 090353Z AUTO 19012KT 10SM CLR 21/M08 A3022 RMK AO2 SLP134 T02111083,M
P68,2021-09-09 03:53,-116.0056,39.6014,1993.00,83.00,17.10,8.54,0.00,0.00,0.00,30.17,1012.10,M,M,M,M,M,M,M,M,M,M,M,M,M,M,M,M,M,79.67,KP68 090353Z AUTO 00000KT 28/M08 A3017 RMK AO1 SLP121 T02831083,M
DRA,2021-09-09 03:53,-116.0278,36.6206,1009.00,88.00,21.00,8.57,100.00,7.00,0.00,29.96,1008.90,10.00,M,CLR,M,M,M,M,M,M,M,M,M,M,M,M,M,M,83.46,KDRA 090353Z AUTO 10007KT 10SM CLR 31/M06 A2996 RMK AO2 SLP089 T03111061,M
MEV,2021-09-09 03:55,-119.7500,38.9963,1441.42,69.80,33.80,26.43,120.00,4.00,0.00,30.12,M,10.00,M,FEW,FEW,M,M,4300.00,5000.00,M,M,M,M,M,M,M,M,M,69.80,KMEV 090355Z AUTO 12004KT 10SM FEW043 FEW050 21/01 A3012 RMK AO2,M
BVU,2021-09-09 03:55,-114.8611,35.9475,671.00,95.00,55.40,26.58,180.00,9.00,0.00,29.90,M,10.00,M,CLR,M,M,M,M,M,M,M,M,M,M,M,M,M,M,93.22,KBVU 090355Z AUTO 18009KT 10SM CLR 35/13 A2990 RMK AO2,M
CXP,2021-09-09 03:55,-119.7326,39.1923,1431.00,78.80,32.00,18.18,110.00,3.00,0.00,30.12,M,10.00,M,FEW,SCT,BKN,M,2700.00,3600.00,4300.00,M,M,M,M,M,M,M,M,78.80,KCXP 090355Z AUTO 11003KT 10SM FEW027 SCT036 BKN043 26/M00 A3012 RMK AO2,M
HTH,2021-09-09 03:55,-118.6315,38.5448,1282.89,84.20,30.20,14.18,320.00,5.00,0.00,30.04,M,10.00,M,CLR,M,M,M,M,M,M,M,M,M,M,M,M,M,M,81.26,KHTH 090355Z AUTO 32005KT 10SM CLR 29/M01 A3004 RMK A01,M
TMT,2021-09-09 03:55,-117.1971,39.4643,1749.34,62.40,20.70,19.92,150.00,4.00,0.00,30.20,M,10.00,M,CLR,M,M,M,M,M,M,M,M,M,M,M,M,M,M,62.40,KTMT 090355Z AUTO 15004KT 10SM CLR 17/M06 A3020 RMK AO2 T01691063,M
BAM,2021-09-09 03:55,-116.8743,40.5990,1382.36,71.60,21.20,14.80,0.00,0.00,0.00,30.08,M,10.00,M,CLR,M,M,M,M,M,M,M,M,M,M,M,M,M,M,71.60,KBAM 090355Z AUTO 00000KT 10SM CLR 22/M06 A3008 RMK AO1,M
RTS,2021-09-09 03:55,-119.8764,39.6682,1539.00,80.60,28.40,14.81,280.00,9.00,0.00,30.15,M,10.00,M,CLR,M,M,M,M,M,M,M,M,M,M,M,M,M,M,78.72,KRTS 090355Z AUTO 28009KT 10SM CLR 27/M02 A3015 RMK AO2,M
RNO,2021-09-09 03:55,-119.7711,39.4839,1341.00,85.00,32.00,14.91,330.00,8.00,0.00,30.09,1012.70,10.00,M,FEW,M,M,M,8000.00,M,M,M,M,M,M,M,M,M,M,81.80,KRNO 090355Z 33008KT 10SM FEW080 29/00 A3009 RMK AO2 SLP127 T02940000,M
LAS,2021-09-09 03:56,-115.1634,36.0719,663.00,99.00,53.00,21.62,180.00,5.00,0.00,29.89,1008.70,10.00,M,FEW,SCT,M,M,14000.00,22000.00,M,M,M,M,M,M,M,M,M,96.79,KLAS 090356Z 18005KT 10SM FEW140 SCT220 37/12 A2989 RMK AO2 SLP087 T03720117,M
WMC,2021-09-09 03:56,-117.8072,40.9019,1315.00,72.00,26.10,17.93,290.00,3.00,0.00,30.05,1013.10,10.00,M,CLR,M,M,M,M,M,M,M,M,M,M,M,M,M,M,72.00,KWMC 090356Z AUTO 29003KT 10SM CLR 22/M03 A3005 RMK AO2 SLP131 T02221033,M
HND,2021-09-09 03:56,-115.1344,35.9729,742.79,96.00,54.00,24.42,160.00,10.00,0.00,29.93,1011.40,10.00,M,CLR,M,M,M,M,M,M,M,M,M,M,M,M,M,M,93.97,KHND 090356Z AUTO 16010KT 10SM CLR 36/12 A2993 RMK AO2 SLP114 T03560122,M
TPH,2021-09-09 03:56,-117.0904,38.0505,1654.00,75.00,19.00,12.02,20.00,5.00,0.00,30.15,1012.90,10.00,M,CLR,M,M,M,M,M,M,M,M,M,M,M,M,M,M,75.00,KTPH 090356Z AUTO 02005KT 10SM CLR 24/M07 A3015 RMK AO2 SLP129 T02391072,M
NFL,2021-09-09 03:56,-118.7010,39.4166,1199.00,77.00,33.00,20.17,M,5.00,0.00,30.02,1013.50,6.00,M,FEW,M,M,M,12000.00,M,M,M,HZ,M,M,M,M,M,M,77.00,KNFL 090356Z VRB05KT 6SM HZ FEW120 25/01 A3002 RMK AO2 SLP135 T02500006,M
EKO,2021-09-09 03:56,-115.7860,40.8242,1367.00,68.00,28.00,22.23,0.00,0.00,0.00,30.10,1014.70,10.00,M,CLR,M,M,M,M,M,M,M,M,M,M,M,M,M,M,68.00,KEKO 090356Z AUTO 00000KT 10SM CLR 20/M02 A3010 RMK AO2 SLP147 T02001022,M
INS,2021-09-09 03:58,-115.6733,36.5872,955.00,89.00,19.90,7.95,280.00,6.00,0.00,29.96,1009.20,10.00,M,CLR,M,M,M,M,M,M,M,M,M,M,M,M,M,M,84.05,KINS 090358Z AUTO 28006KT 10SM CLR 32/M07 A2996 RMK AO2 SLP092 T03161067 $,M
LSV,2021-09-09 03:58,-115.0343,36.2362,570.00,99.30,50.20,19.25,140.00,4.00,0.00,29.87,M,10.00,M,CLR,M,M,M,M,M,M,M,M,M,M,M,M,M,M,96.33,KLSV 090358Z 14004KT 10SM CLR 37/10 A2987 RMK AO2A SLPNO WND DATA ESTMD ALSTG/SLP ESTMD T03740101 $,M
CXP,2021-09-09 04:15,-119.7326,39.1923,1431.00,80.60,30.20,15.94,130.00,4.00,0.00,30.12,M,10.00,M,FEW,SCT,BKN,M,2900.00,3600.00,4200.00,M,M,M,M,M,M,M,M,78.77,KCXP 090415Z AUTO 13004KT 10SM FEW029 SCT036 BKN042 27/M01 A3012 RMK AO2,M
MEV,2021-09-09 04:15,-119.7500,38.9963,1441.42,66.20,33.80,29.92,130.00,7.00,0.00,30.12,M,10.00,M,FEW,FEW,M,M,4500.00,5500.00,M,M,M,M,M,M,M,M,M,66.20,KMEV 090415Z AUTO 13007KT 10SM FEW045 FEW055 19/01 A3012 RMK AO2,M
TMT,2021-09-09 04:15,-117.1971,39.4643,1749.34,63.00,20.70,19.43,220.00,5.00,0.00,30.20,M,10.00,M,CLR,M,M,M,M,M,M,M,M,M,M,M,M,M,M,63.10,KTMT 090415Z AUTO 22005KT 10SM CLR 17/M06 A3020 RMK AO2 T01731063,M
BAM,2021-09-09 04:15,-116.8743,40.5990,1382.36,69.80,21.20,15.73,220.00,4.00,0.00,30.08,M,10.00,M,CLR,M,M,M,M,M,M,M,M,M,M,M,M,M,M,69.80,KBAM 090415Z AUTO 22004KT 10SM CLR 21/M06 A3008 RMK AO1,M
BVU,2021-09-09 04:15,-114.8611,35.9475,671.00,95.00,57.20,28.37,200.00,8.00,0.00,29.91,M,10.00,M,CLR,M,M,M,M,M,M,M,M,M,M,M,M,M,M,93.82,KBVU 090415Z AUTO 20008KT 10SM CLR 35/14 A2991 RMK AO2,M
RTS,2021-09-09 04:15,-119.8764,39.6682,1539.00,78.80,28.40,15.71,280.00,6.00,0.00,30.16,M,10.00,M,CLR,M,M,M,M,M,M,M,M,M,M,M,M,M,M,78.80,KRTS 090415Z AUTO 28006KT 10SM CLR 26/M02 A3016 RMK AO2,M
HTH,2021-09-09 04:15,-118.6315,38.5448,1282.89,82.40,41.00,23.07,330.00,7.00,0.00,30.05,M,10.00,M,CLR,M,M,M,M,M,M,M,M,M,M,M,M,M,M,80.29,KHTH 090415Z AUTO 33007KT 10SM CLR 28/05 A3005 RMK A01,M
BVU,2021-09-09 04:35,-114.8611,35.9475,671.00,95.00,55.40,26.58,210.00,6.00,0.00,29.91,M,10.00,M,CLR,M,M,M,M,M,M,M,M,M,M,M,M,M,M,93.22,KBVU 090435Z AUTO 21006KT 10SM CLR 35/13 A2991 RMK AO2,M
BAM,2021-09-09 04:35,-116.8743,40.5990,1382.36,69.80,21.20,15.73,0.00,0.00,0.00,30.08,M,10.00,M,CLR,M,M,M,M,M,M,M,M,M,M,M,M,M,M,69.80,KBAM 090435Z AUTO 00000KT 10SM CLR 21/M06 A3008 RMK AO1,M
MEV,2021-09-09 04:35,-119.7500,38.9963,1441.42,66.20,33.80,29.92,130.00,9.00,0.00,30.12,M,10.00,M,SCT,BKN,M,M,4700.00,5500.00,M,M,M,M,M,M,M,M,M,66.20,KMEV 090435Z AUTO 13009KT 10SM SCT047 BKN055 19/01 A3012 RMK AO2,M
RTS,2021-09-09 04:35,-119.8764,39.6682,1539.00,77.00,33.80,20.74,130.00,6.00,0.00,30.16,M,10.00,M,CLR,M,M,M,M,M,M,M,M,M,M,M,M,M,M,77.00,KRTS 090435Z AUTO 13006KT 10SM CLR 25/01 A3016 RMK AO2,M
HTH,2021-09-09 04:35,-118.6315,38.5448,1282.89,80.60,41.00,24.46,0.00,0.00,0.00,30.05,M,10.00,M,CLR,M,M,M,M,M,M,M,M,M,M,M,M,M,M,79.20,KHTH 090435Z AUTO 00000KT 10SM CLR 27/05 A3005 RMK A01,M
TMT,2021-09-09 04:35,-117.1971,39.4643,1749.34,61.70,23.20,22.69,240.00,6.00,0.00,30.21,M,10.00,M,CLR,M,M,M,M,M,M,M,M,M,M,M,M,M,M,61.70,KTMT 090435Z AUTO 24006KT 10SM CLR 17/M05 A3021 RMK AO2 T01651049,M
CXP,2021-09-09 04:35,-119.7326,39.1923,1431.00,78.80,32.00,18.18,80.00,8.00,0.00,30.13,M,10.00,M,FEW,FEW,M,M,3900.00,4900.00,M,M,M,M,M,M,M,M,M,78.80,KCXP 090435Z AUTO 08008KT 10SM FEW039 FEW049 26/M00 A3013 RMK AO2,M
VGT,2021-09-09 04:53,-115.1933,36.2111,667.00,96.00,52.00,22.69,150.00,6.00,0.00,29.88,1010.30,10.00,M,CLR,M,M,M,M,M,M,M,M,M,M,M,M,M,M,93.44,KVGT 090453Z AUTO 15006KT 10SM CLR 36/11 A2988 RMK AO2 SLP103 T03560111,M
ELY,2021-09-09 04:53,-114.8453,39.2950,1909.00,64.00,18.00,16.77,190.00,11.00,0.00,30.23,1013.00,10.00,M,CLR,M,M,M,M,M,M,M,M,M,M,M,M,M,M,64.00,KELY 090453Z AUTO 19011KT 10SM CLR 18/M08 A3023 RMK AO2 SLP130 T01781078,M
DRA,2021-09-09 04:53,-116.0278,36.6206,1009.00,85.00,21.00,9.46,120.00,5.00,0.00,29.97,1008.90,10.00,M,CLR,M,M,M,M,M,M,M,M,M,M,M,M,M,M,81.25,KDRA 090453Z AUTO 12005KT 10SM CLR 29/M06 A2997 RMK AO2 SLP089 T02941061,M
P68,2021-09-09 04:53,-116.0056,39.6014,1993.00,73.00,16.00,11.29,360.00,4.00,0.00,30.19,1012.80,M,M,M,M,M,M,M,M,M,M,M,M,M,M,M,M,M,73.00,KP68 090453Z AUTO 36004KT 23/M09 A3019 RMK AO1 SLP128 T02281089,M
LOL,2021-09-09 04:53,-118.5701,40.0684,1192.43,68.00,33.00,27.34,160.00,7.00,0.00,30.03,1012.90,10.00,M,CLR,M,M,M,M,M,M,M,M,M,M,M,M,M,M,68.00,KLOL 090453Z AUTO 16007KT 10SM CLR 20/01 A3003 RMK AO2 SLP129 T02000006,M
HTH,2021-09-09 04:55,-118.6315,38.5448,1282.89,82.40,35.60,18.67,0.00,0.00,0.00,30.05,M,10.00,M,CLR,M,M,M,M,M,M,M,M,M,M,M,M,M,M,80.08,KHTH 090455Z AUTO 00000KT 10SM CLR 28/02 A3005 RMK A01,M
RTS,2021-09-09 04:55,-119.8764,39.6682,1539.00,80.60,28.40,14.81,0.00,0.00,0.00,30.16,M,10.00,M,CLR,M,M,M,M,M,M,M,M,M,M,M,M,M,M,78.72,KRTS 090455Z AUTO 00000KT 10SM CLR 27/M02 A3016 RMK AO2,M
BVU,2021-09-09 04:55,-114.8611,35.9475,671.00,95.00,53.60,24.89,200.00,9.00,0.00,29.91,M,10.00,M,CLR,M,M,M,M,M,M,M,M,M,M,M,M,M,M,92.71,KBVU 090455Z AUTO 20009KT 10SM CLR 35/12 A2991 RMK AO2,M
TMT,2021-09-09 04:55,-117.1971,39.4643,1749.34,61.00,24.10,24.15,240.00,5.00,0.00,30.21,M,10.00,M,CLR,M,M,M,M,M,M,M,M,M,M,M,M,M,M,61.00,KTMT 090455Z AUTO 24005KT 10SM CLR 16/M04 A3021 RMK AO2 T01611044,M
CXP,2021-09-09 04:55,-119.7326,39.1923,1431.00,77.00,30.20,17.94,80.00,4.00,0.00,30.13,M,10.00,M,FEW,M,M,M,4900.00,M,M,M,M,M,M,M,M,M,M,77.00,KCXP 090455Z AUTO 08004KT 10SM FEW049 25/M01 A3013 RMK AO2,M
MEV,2021-09-09 04:55,-119.7500,38.9963,1441.42,64.40,32.00,29.63,130.00,9.00,0.00,30.13,M,10.00,M,FEW,BKN,BKN,M,4100.00,4800.00,5500.00,M,M,M,M,M,M,M,M,64.40,KMEV 090455Z AUTO 13009KT 10SM FEW041 BKN048 BKN055 18/M00 A3013 RMK AO2,M
BAM,2021-09-09 04:55,-116.8743,40.5990,1382.36,64.40,17.60,16.26,140.00,7.00,0.00,30.09,M,7.00,M,CLR,M,M,M,M,M,M,M,M,M,M,M,M,M,M,64.40,KBAM 090455Z AUTO 14007KT 7SM CLR 18/M08 A3009 RMK AO1,M
RNO,2021-09-09 04:55,-119.7711,39.4839,1341.00,82.00,33.00,17.12,50.00,7.00,0.00,30.10,1013.10,10.00,M,FEW,M,M,M,10000.00,M,M,M,M,M,M,M,M,M,M,79.75,KRNO 090455Z 05007KT 10SM FEW100 28/01 A3010 RMK AO2 SLP131 T02780006,M
NFL,2021-09-09 04:56,-118.7010,39.4166,1199.00,78.00,36.00,21.83,M,5.00,0.00,30.02,1013.50,10.00,M,FEW,M,M,M,12000.00,M,M,M,M,M,M,M,M,M,M,78.10,KNFL 090456Z VRB05KT 10SM FEW120 26/02 A3002 RMK AO2 SLP135 T02560022,M
EKO,2021-09-09 04:56,-115.7860,40.8242,1367.00,64.00,28.90,26.50,0.00,0.00,0.00,30.11,1014.40,10.00,M,CLR,M,M,M,M,M,M,M,M,M,M,M,M,M,M,64.00,KEKO 090456Z AUTO 00000KT 10SM CLR 18/M02 A3011 RMK AO2 SLP144 T01781017,M
HND,2021-09-09 04:56,-115.1344,35.9729,742.79,95.00,54.00,25.26,200.00,12.00,0.00,29.94,1011.80,10.00,M,CLR,M,M,M,M,M,M,M,M,M,M,M,M,M,M,92.82,KHND 090456Z AUTO 20012KT 10SM CLR 35/12 A2994 RMK AO2 SLP118 T03500122,M
LAS,2021-09-09 04:56,-115.1634,36.0719,663.00,96.00,52.00,22.69,210.00,4.00,0.00,29.90,1009.40,10.00,M,FEW,SCT,M,M,14000.00,22000.00,M,M,M,M,M,M,M,M,M,93.44,KLAS 090456Z 21004KT 10SM FEW140 SCT220 36/11 A2990 RMK AO2 SLP094 T03560111,M
TPH,2021-09-09 04:56,-117.0904,38.0505,1654.00,71.00,18.00,13.13,340.00,4.00,0.00,30.16,1013.20,10.00,M,CLR,M,M,M,M,M,M,M,M,M,M,M,M,M,M,71.10,KTPH 090456Z AUTO 34004KT 10SM CLR 22/M08 A3016 RMK AO2 SLP132 T02171078,M
WMC,2021-09-09 04:56,-117.8072,40.9019,1315.00,68.00,28.00,22.23,120.00,3.00,0.00,30.05,1012.70,10.00,M,CLR,M,M,M,M,M,M,M,M,M,M,M,M,M,M,68.00,KWMC 090456Z AUTO 12003KT 10SM CLR 20/M02 A3005 RMK AO2 SLP127 T02001022 $,M
INS,2021-09-09 04:58,-115.6733,36.5872,955.00,85.80,17.60,7.95,0.00,0.00,0.00,29.96,1009.20,10.00,M,CLR,M,M,M,M,M,M,M,M,M,M,M,M,M,M,81.71,KINS 090458Z AUTO 00000KT 10SM CLR 30/M08 A2996 RMK AO2 SLP092 T02991080 $,M
LSV,2021-09-09 04:58,-115.0343,36.2362,570.00,96.80,50.40,20.93,110.00,4.00,0.00,29.88,M,10.00,M,CLR,M,M,M,M,M,M,M,M,M,M,M,M,M,M,93.79,KLSV 090458Z 11004KT 10SM CLR 36/10 A2988 RMK AO2A SLPNO WND DATA ESTMD ALSTG/SLP ESTMD T03600102 $,M
HTH,2021-09-09 05:15,-118.6315,38.5448,1282.89,84.20,30.20,14.18,0.00,0.00,0.00,30.05,M,10.00,M,CLR,M,M,M,M,M,M,M,M,M,M,M,M,M,M,81.26,KHTH 090515Z AUTO 00000KT 10SM CLR 29/M01 A3005 RMK A01,M
BVU,2021-09-09 05:15,-114.8611,35.9475,671.00,93.20,53.60,26.31,260.00,5.00,0.00,29.91,M,10.00,M,CLR,M,M,M,M,M,M,M,M,M,M,M,M,M,M,90.86,KBVU 090515Z AUTO 26005KT 10SM CLR 34/12 A2991 RMK AO2,M
BAM,2021-09-09 05:15,-116.8743,40.5990,1382.36,64.40,17.60,16.26,160.00,4.00,0.00,30.09,M,10.00,M,CLR,M,M,M,M,M,M,M,M,M,M,M,M,M,M,64.40,KBAM 090515Z AUTO 16004KT 10SM CLR 18/M08 A3009 RMK AO1,M
TMT,2021-09-09 05:15,-117.1971,39.4643,1749.34,57.20,21.90,25.22,260.00,6.00,0.00,30.21,M,10.00,M,CLR,M,M,M,M,M,M,M,M,M,M,M,M,M,M,57.20,KTMT 090515Z AUTO 26006KT 10SM CLR 14/M06 A3021 RMK AO2 T01401056,M
MEV,2021-09-09 05:15,-119.7500,38.9963,1441.42,66.20,32.00,27.83,110.00,9.00,0.00,30.12,M,10.00,M,FEW,BKN,OVC,M,3300.00,4200.00,5000.00,M,M,M,M,M,M,M,M,66.20,KMEV 090515Z AUTO 11009KT 10SM FEW033 BKN042 OVC050 19/M00 A3012 RMK AO2,M
RTS,2021-09-09 05:15,-119.8764,39.6682,1539.00,78.80,28.40,15.71,0.00,0.00,0.00,30.17,M,10.00,M,CLR,M,M,M,M,M,M,M,M,M,M,M,M,M,M,78.80,KRTS 090515Z AUTO 00000KT 10SM CLR 26/M02 A3017 RMK AO2,M
CXP,2021-09-09 05:15,-119.7326,39.1923,1431.00,77.00,30.20,17.94,80.00,7.00,0.00,30.14,M,10.00,M,FEW,SCT,M,M,5000.00,6000.00,M,M,M,M,M,M,M,M,M,77.00,KCXP 090515Z AUTO 08007KT 10SM FEW050 SCT060 25/M01 A3014 RMK AO2,M
BAM,2021-09-09 05:35,-116.8743,40.5990,1382.36,64.40,17.60,16.26,170.00,4.00,0.00,30.09,M,10.00,M,CLR,M,M,M,M,M,M,M,M,M,M,M,M,M,M,64.40,KBAM 090535Z AUTO 17004KT 10SM CLR 18/M08 A3009 RMK AO1,M
TMT,2021-09-09 05:35,-117.1971,39.4643,1749.34,55.00,21.40,26.74,0.00,0.00,0.00,30.21,M,10.00,M,CLR,M,M,M,M,M,M,M,M,M,M,M,M,M,M,55.00,KTMT 090535Z AUTO 00000KT 10SM CLR 13/M06 A3021 RMK AO2 T01281059,M
CXP,2021-09-09 05:35,-119.7326,39.1923,1431.00,75.20,30.20,19.05,0.00,0.00,0.00,30.14,M,10.00,M,FEW,FEW,M,M,5000.00,6000.00,M,M,M,M,M,M,M,M,M,75.20,KCXP 090535Z AUTO 00000KT 10SM FEW050 FEW060 24/M01 A3014 RMK AO2,M
BVU,2021-09-09 05:35,-114.8611,35.9475,671.00,93.20,53.60,26.31,230.00,4.00,0.00,29.92,M,10.00,13.00,CLR,M,M,M,M,M,M,M,M,M,M,M,M,M,M,90.86,KBVU 090535Z AUTO 23004G13KT 10SM CLR 34/12 A2992 RMK AO2,M
HTH,2021-09-09 05:35,-118.6315,38.5448,1282.89,82.40,28.40,13.96,0.00,0.00,0.00,30.06,M,10.00,M,CLR,M,M,M,M,M,M,M,M,M,M,M,M,M,M,79.94,KHTH 090535Z AUTO 00000KT 10SM CLR 28/M02 A3006 RMK A01,M
RTS,2021-09-09 05:35,-119.8764,39.6682,1539.00,73.40,28.40,18.80,250.00,6.00,0.00,30.16,M,10.00,M,CLR,M,M,M,M,M,M,M,M,M,M,M,M,M,M,73.40,KRTS 090535Z AUTO 25006KT 10SM CLR 23/M02 A3016 RMK AO2,M
MEV,2021-09-09 05:35,-119.7500,38.9963,1441.42,66.20,32.00,27.83,120.00,8.00,0.00,30.13,M,10.00,M,SCT,OVC,M,M,3300.00,4000.00,M,M,M,M,M,M,M,M,M,66.20,KMEV 090535Z AUTO 12008KT 10SM SCT033 OVC040 19/M00 A3013 RMK AO2,M
VGT,2021-09-09 05:53,-115.1933,36.2111,667.00,93.00,49.00,22.25,0.00,0.00,0.00,29.89,1010.60,10.00,M,CLR,M,M,M,M,M,M,M,M,M,M,M,M,M,M,89.72,KVGT 090553Z AUTO 00000KT 10SM CLR 34/09 A2989 RMK AO2 SLP106 T03390094 10422 20339 51014,M
DRA,2021-09-09 05:53,-116.0278,36.6206,1009.00,89.00,40.00,17.84,0.00,0.00,0.00,29.98,1008.90,10.00,M,CLR,M,M,M,M,M,M,M,M,M,M,M,M,M,M,85.34,KDRA 090553Z AUTO 00000KT 10SM CLR 32/04 A2998 RMK AO2 SLP089 T03170044 10406 20267 51011,M
P68,2021-09-09 05:53,-116.0056,39.6014,1993.00,66.00,21.00,17.78,190.00,7.00,0.00,30.20,1013.40,M,M,M,M,M,M,M,M,M,M,M,M,M,M,M,M,M,66.00,KP68 090553Z AUTO 19007KT 19/M06 A3020 RMK AO1 SLP134 T01891061 10350 20172 53009,M
ELY,2021-09-09 05:53,-114.8453,39.2950,1909.00,68.00,15.10,12.88,190.00,13.00,0.00,30.23,1011.80,10.00,M,CLR,M,M,M,M,M,M,M,M,M,M,M,M,M,M,68.00,KELY 090553Z AUTO 19013KT 10SM CLR 20/M09 A3023 RMK AO2 SLP118 T02001094 10333 20167 51007,M
LOL,2021-09-09 05:53,-118.5701,40.0684,1192.43,66.00,30.00,25.85,80.00,3.00,0.00,30.03,1012.50,10.00,M,CLR,M,M,M,M,M,M,M,M,M,M,M,M,M,M,66.00,KLOL 090553Z AUTO 08003KT 10SM CLR 19/M01 A3003 RMK AO2 SLP125 T01891011 10367 20189 50008,M
MEV,2021-09-09 05:55,-119.7500,38.9963,1441.42,64.40,32.00,29.63,120.00,10.00,0.00,30.13,M,10.00,M,BKN,OVC,M,M,3600.00,4100.00,M,M,M,M,M,M,M,M,M,64.40,KMEV 090555Z AUTO 12010KT 10SM BKN036 OVC041 18/M00 A3013 RMK AO2,M
HTH,2021-09-09 05:55,-118.6315,38.5448,1282.89,80.60,32.00,17.14,0.00,0.00,0.00,30.07,M,10.00,M,CLR,M,M,M,M,M,M,M,M,M,M,M,M,M,M,78.82,KHTH 090555Z AUTO 00000KT 10SM CLR 27/00 A3007 RMK A01,M
RTS,2021-09-09 05:55,-119.8764,39.6682,1539.00,73.40,30.20,20.23,0.00,0.00,0.00,30.17,M,10.00,M,CLR,M,M,M,M,M,M,M,M,M,M,M,M,M,M,73.40,KRTS 090555Z AUTO 00000KT 10SM CLR 23/M01 A3017 RMK AO2,M
BVU,2021-09-09 05:55,-114.8611,35.9475,671.00,91.40,53.60,27.83,230.00,5.00,0.00,29.92,M,10.00,M,CLR,M,M,M,M,M,M,M,M,M,M,M,M,M,M,89.08,KBVU 090555Z AUTO 23005KT 10SM CLR 33/12 A2992 RMK AO2,M
CXP,2021-09-09 05:55,-119.7326,39.1923,1431.00,77.00,30.20,17.94,0.00,0.00,0.00,30.14,M,10.00,M,FEW,M,M,M,5000.00,M,M,M,M,M,M,M,M,M,M,77.00,KCXP 090555Z AUTO 00000KT 10SM FEW050 25/M01 A3014 RMK AO2,M
RNO,2021-09-09 05:55,-119.7711,39.4839,1341.00,78.00,33.00,19.45,M,3.00,0.00,30.11,1013.20,10.00,M,FEW,M,M,M,10000.00,M,M,M,M,M,M,M,M,M,M,78.10,KRNO 090555Z VRB03KT 10SM FEW100 26/01 A3011 RMK AO2 SLP132 T02560006 10361 20256 51015,M
TMT,2021-09-09 05:55,-117.1971,39.4643,1749.34,53.60,21.90,28.75,0.00,0.00,0.00,30.21,M,10.00,M,CLR,M,M,M,M,M,M,M,M,M,M,M,M,M,M,53.60,KTMT 090555Z AUTO 00000KT 10SM CLR 12/M06 A3021 RMK AO2 T01201056 10337 20119,M
BAM,2021-09-09 05:55,-116.8743,40.5990,1382.36,64.40,17.60,16.26,140.00,8.00,0.00,30.09,M,10.00,M,CLR,M,M,M,M,M,M,M,M,M,M,M,M,M,M,64.40,KBAM 090555Z AUTO 14008KT 10SM CLR 18/M08 A3009 RMK AO1,M
WMC,2021-09-09 05:56,-117.8072,40.9019,1315.00,66.00,28.00,23.82,160.00,8.00,0.00,30.06,1012.70,10.00,M,CLR,M,M,M,M,M,M,M,M,M,M,M,M,M,M,66.00,KWMC 090556Z AUTO 16008KT 10SM CLR 19/M02 A3006 RMK AO2 SLP127 T01891022 10367 20178 51006 $,M
EKO,2021-09-09 05:56,-115.7860,40.8242,1367.00,63.00,24.10,22.50,60.00,6.00,0.00,30.13,1014.80,10.00,M,CLR,M,M,M,M,M,M,M,M,M,M,M,M,M,M,63.00,KEKO 090556Z AUTO 06006KT 10SM CLR 17/M04 A3013 RMK AO2 SLP148 T01721044 10356 20167 53011,M
HND,2021-09-09 05:56,-115.1344,35.9729,742.79,92.00,56.00,29.80,220.00,8.00,0.00,29.95,1012.10,10.00,M,CLR,M,M,M,M,M,M,M,M,M,M,M,M,M,M,90.17,KHND 090556Z AUTO 22008KT 10SM CLR 33/13 A2995 RMK AO2 SLP121 T03330133 10417 20328 51016,M
TPH,2021-09-09 05:56,-117.0904,38.0505,1654.00,68.00,17.10,14.04,10.00,7.00,0.00,30.18,1013.50,10.00,M,CLR,M,M,M,M,M,M,M,M,M,M,M,M,M,M,68.00,KTPH 090556Z AUTO 01007KT 10SM CLR 20/M08 A3018 RMK AO2 SLP135 T02001083 10350 20200 53014,M
LAS,2021-09-09 05:56,-115.1634,36.0719,663.00,94.00,55.00,27.10,180.00,6.00,0.00,29.91,1009.60,10.00,M,FEW,M,M,M,20000.00,M,M,M,M,M,M,M,M,M,M,91.95,KLAS 090556Z 18006KT 10SM FEW200 34/13 A2991 RMK AO2 SLP096 T03440128 10417 20344 51015,M
NFL,2021-09-09 05:56,-118.7010,39.4166,1199.00,72.00,36.00,26.77,320.00,6.00,0.00,30.03,1013.90,10.00,M,FEW,M,M,M,12000.00,M,M,M,M,M,M,M,M,M,M,72.00,KNFL 090556Z 32006KT 10SM FEW120 22/02 A3003 RMK AO2 SLP139 T02220022 10372 20222 52009,M
INS,2021-09-09 05:58,-115.6733,36.5872,955.00,86.50,18.10,7.94,110.00,7.00,0.00,29.98,1009.60,10.00,M,CLR,M,M,M,M,M,M,M,M,M,M,M,M,M,M,82.23,KINS 090558Z AUTO 11007KT 10SM CLR 30/M08 A2998 RMK AO2 SLP096 T03031077 10396 20289 52013 $,M
LSV,2021-09-09 05:58,-115.0343,36.2362,570.00,95.40,51.60,22.84,130.00,4.00,0.00,29.90,M,10.00,M,CLR,M,M,M,M,M,M,M,M,M,M,M,M,M,M,92.63,KLSV 090558Z 13004KT 10SM CLR 35/11 A2990 RMK AO2A SLPNO WND DATA ESTMD ALSTG/SLP ESTMD T03520109 10431 20376 51017 $,M
CXP,2021-09-09 06:10,-119.7326,39.1923,1431.00,73.40,28.40,18.80,0.00,0.00,0.00,30.14,M,10.00,M,SCT,M,M,M,5000.00,M,M,M,M,M,M,M,M,M,M,73.40,KCXP 090610Z AUTO 00000KT 10SM SCT050 23/M02 A3014 RMK AO2,M
BVU,2021-09-09 06:15,-114.8611,35.9475,671.00,91.40,53.60,27.83,240.00,4.00,0.00,29.93,M,10.00,M,CLR,M,M,M,M,M,M,M,M,M,M,M,M,M,M,89.08,KBVU 090615Z AUTO 24004KT 10SM CLR 33/12 A2993 RMK AO2,M
HTH,2021-09-09 06:15,-118.6315,38.5448,1282.89,78.80,32.00,18.18,180.00,4.00,0.00,30.07,M,10.00,M,CLR,M,M,M,M,M,M,M,M,M,M,M,M,M,M,78.80,KHTH 090615Z AUTO 18004KT 10SM CLR 26/00 A3007 RMK A01,M
BAM,2021-09-09 06:15,-116.8743,40.5990,1382.36,64.40,17.60,16.26,140.00,7.00,0.00,30.09,M,10.00,M,CLR,M,M,M,M,M,M,M,M,M,M,M,M,M,M,64.40,KBAM 090615Z AUTO 14007KT 10SM CLR 18/M08 A3009 RMK AO1,M
TMT,2021-09-09 06:15,-117.1971,39.4643,1749.34,55.80,24.30,29.34,220.00,6.00,0.00,30.22,M,10.00,M,CLR,M,M,M,M,M,M,M,M,M,M,M,M,M,M,55.80,KTMT 090615Z AUTO 22006KT 10SM CLR 13/M04 A3022 RMK AO2 T01321043,M
MEV,2021-09-09 06:15,-119.7500,38.9963,1441.42,68.00,33.80,28.11,280.00,7.00,0.00,30.14,M,10.00,M,BKN,OVC,M,M,3200.00,3800.00,M,M,M,M,M,M,M,M,M,68.00,KMEV 090615Z AUTO 28007KT 10SM BKN032 OVC038 20/01 A3014 RMK AO2,M
RTS,2021-09-09 06:15,-119.8764,39.6682,1539.00,75.20,28.40,17.70,0.00,0.00,0.00,30.17,M,10.00,M,CLR,M,M,M,M,M,M,M,M,M,M,M,M,M,M,75.20,KRTS 090615Z AUTO 00000KT 10SM CLR 24/M02 A3017 RMK AO2,M
CXP,2021-09-09 06:30,-119.7326,39.1923,1431.00,71.60,30.20,21.50,300.00,3.00,0.00,30.14,M,10.00,M,FEW,M,M,M,5000.00,M,M,M,M,M,M,M,M,M,M,71.60,KCXP 090630Z AUTO 30003KT 10SM FEW050 22/M01 A3014 RMK AO2,M
TMT,2021-09-09 06:35,-117.1971,39.4643,1749.34,52.30,23.70,32.52,210.00,5.00,0.00,30.22,M,10.00,M,CLR,M,M,M,M,M,M,M,M,M,M,M,M,M,M,52.30,KTMT 090635Z AUTO 21005KT 10SM CLR 11/M05 A3022 RMK AO2 T01131046,M
HTH,2021-09-09 06:35,-118.6315,38.5448,1282.89,80.60,32.00,17.14,0.00,0.00,0.00,30.08,M,10.00,M,CLR,M,M,M,M,M,M,M,M,M,M,M,M,M,M,78.82,KHTH 090635Z AUTO 00000KT 10SM CLR 27/M00 A3008 RMK A01,M
BVU,2021-09-09 06:35,-114.8611,35.9475,671.00,89.60,53.60,29.45,260.00,3.00,0.00,29.93,M,10.00,M,CLR,M,M,M,M,M,M,M,M,M,M,M,M,M,M,87.36,KBVU 090635Z AUTO 26003KT 10SM CLR 32/12 A2993 RMK AO2,M
RTS,2021-09-09 06:35,-119.8764,39.6682,1539.00,68.00,26.60,20.98,320.00,4.00,0.00,30.17,M,10.00,M,CLR,M,M,M,M,M,M,M,M,M,M,M,M,M,M,68.00,KRTS 090635Z AUTO 32004KT 10SM CLR 20/M03 A3017 RMK AO2,M
MEV,2021-09-09 06:35,-119.7500,38.9963,1441.42,64.40,33.80,31.85,220.00,8.00,0.00,30.14,M,10.00,M,OVC,M,M,M,3100.00,M,M,M,M,M,M,M,M,M,M,64.40,KMEV 090635Z AUTO 22008KT 10SM OVC031 18/01 A3014 RMK AO2,M
BAM,2021-09-09 06:35,-116.8743,40.5990,1382.36,64.40,19.40,17.56,220.00,5.00,0.00,30.09,M,10.00,M,CLR,M,M,M,M,M,M,M,M,M,M,M,M,M,M,64.40,KBAM 090635Z AUTO 22005KT 10SM CLR 18/M07 A3009 RMK AO1,M
VGT,2021-09-09 06:53,-115.1933,36.2111,667.00,91.00,46.00,21.24,310.00,3.00,0.00,29.91,1011.10,10.00,M,CLR,M,M,M,M,M,M,M,M,M,M,M,M,M,M,87.45,KVGT 090653Z AUTO 31003KT 10SM CLR 33/08 A2991 RMK AO2 SLP111 T03280078,M
ELY,2021-09-09 06:53,-114.8453,39.2950,1909.00,60.00,15.10,16.98,190.00,12.00,0.00,30.24,1012.70,10.00,M,CLR,M,M,M,M,M,M,M,M,M,M,M,M,M,M,60.10,KELY 090653Z AUTO 19012KT 10SM CLR 16/M09 A3024 RMK AO2 SLP127 T01561094,M
LOL,2021-09-09 06:53,-118.5701,40.0684,1192.43,68.00,32.00,26.15,M,6.00,0.00,30.05,1012.80,10.00,M,CLR,M,M,M,M,M,M,M,M,M,M,M,M,M,M,68.00,KLOL 090653Z AUTO VRB06KT 10SM CLR 20/00 A3005 RMK AO2 SLP128 T02000000,M
DRA,2021-09-09 06:53,-116.0278,36.6206,1009.00,91.00,47.00,21.97,0.00,0.00,0.00,29.99,1009.20,10.00,M,CLR,M,M,M,M,M,M,M,M,M,M,M,M,M,M,87.55,KDRA 090653Z AUTO 00000KT 10SM CLR 33/08 A2999 RMK AO2 SLP092 T03280083,M
P68,2021-09-09 06:53,-116.0056,39.6014,1993.00,63.00,19.00,18.14,190.00,8.00,0.00,30.20,1013.20,M,M,M,M,M,M,M,M,M,M,M,M,M,M,M,M,M,63.00,KP68 090653Z AUTO 19008KT 17/M07 A3020 RMK AO1 SLP132 T01721072,M
HTH,2021-09-09 06:55,-118.6315,38.5448,1282.89,78.80,32.00,18.18,230.00,6.00,0.00,30.09,M,10.00,M,CLR,M,M,M,M,M,M,M,M,M,M,M,M,M,M,78.80,KHTH 090655Z AUTO 23006KT 10SM CLR 26/M00 A3009 RMK A01,M
RTS,2021-09-09 06:55,-119.8764,39.6682,1539.00,64.40,26.60,23.77,340.00,5.00,0.00,30.17,M,10.00,M,CLR,M,M,M,M,M,M,M,M,M,M,M,M,M,M,64.40,KRTS 090655Z AUTO 34005KT 10SM CLR 18/M03 A3017 RMK AO2,M
MEV,2021-09-09 06:55,-119.7500,38.9963,1441.42,62.60,33.80,33.93,140.00,6.00,0.00,30.14,M,10.00,M,BKN,OVC,M,M,3400.00,4100.00,M,M,M,M,M,M,M,M,M,62.60,KMEV 090655Z AUTO 14006KT 10SM BKN034 OVC041 17/01 A3014 RMK AO2,M
TMT,2021-09-09 06:55,-117.1971,39.4643,1749.34,51.40,23.20,32.92,210.00,6.00,0.00,30.22,M,10.00,M,CLR,M,M,M,M,M,M,M,M,M,M,M,M,M,M,51.40,KTMT 090655Z AUTO 21006KT 10SM CLR 11/M05 A3022 RMK AO2 T01081049,M
BAM,2021-09-09 06:55,-116.8743,40.5990,1382.36,64.40,21.20,18.96,0.00,0.00,0.00,30.10,M,10.00,M,CLR,M,M,M,M,M,M,M,M,M,M,M,M,M,M,64.40,KBAM 090655Z AUTO 00000KT 10SM CLR 18/M06 A3010 RMK AO1,M
RNO,2021-09-09 06:55,-119.7711,39.4839,1341.00,75.00,35.00,23.35,190.00,3.00,0.00,30.11,1013.10,10.00,M,FEW,M,M,M,12000.00,M,M,M,M,M,M,M,M,M,M,75.00,KRNO 090655Z 19003KT 10SM FEW120 24/02 A3011 RMK AO2 SLP131 T02390017,M
BVU,2021-09-09 06:55,-114.8611,35.9475,671.00,87.80,57.20,35.53,0.00,0.00,0.00,29.93,M,10.00,M,CLR,M,M,M,M,M,M,M,M,M,M,M,M,M,M,86.58,KBVU 090655Z AUTO 00000KT 10SM CLR 31/14 A2993 RMK AO2,M
CXP,2021-09-09 06:55,-119.7326,39.1923,1431.00,69.80,32.00,24.59,0.00,0.00,0.00,30.14,M,10.00,M,FEW,M,M,M,5000.00,M,M,M,M,M,M,M,M,M,M,69.80,KCXP 090655Z AUTO 00000KT 10SM FEW050 21/M00 A3014 RMK AO2,M
TPH,2021-09-09 06:56,-117.0904,38.0505,1654.00,66.00,18.00,15.64,10.00,6.00,0.00,30.19,1013.30,10.00,M,CLR,M,M,M,M,M,M,M,M,M,M,M,M,M,M,66.00,KTPH 090656Z AUTO 01006KT 10SM CLR 19/M08 A3019 RMK AO2 SLP133 T01891078,M
HND,2021-09-09 06:56,-115.1344,35.9729,742.79,89.00,54.00,30.36,210.00,4.00,0.00,29.96,1012.50,10.00,M,CLR,M,M,M,M,M,M,M,M,M,M,M,M,M,M,86.98,KHND 090656Z AUTO 21004KT 10SM CLR 32/12 A2996 RMK AO2 SLP125 T03170122 404170244,M
LAS,2021-09-09 06:56,-115.1634,36.0719,663.00,93.00,57.00,29.96,0.00,0.00,0.00,29.93,1010.10,10.00,M,FEW,M,M,M,20000.00,M,M,M,M,M,M,M,M,M,M,91.64,KLAS 090656Z 00000KT 10SM FEW200 34/14 A2993 RMK AO2 SLP101 T03390139,M
NFL,2021-09-09 06:56,-118.7010,39.4166,1199.00,69.00,36.00,29.55,M,5.00,0.00,30.05,1014.60,10.00,M,FEW,M,M,M,12000.00,M,M,M,M,M,M,M,M,M,M,69.10,KNFL 090656Z VRB05KT 10SM FEW120 21/02 A3005 RMK AO2 SLP146 T02060022,M
WMC,2021-09-09 06:56,-117.8072,40.9019,1315.00,60.00,28.90,30.41,150.00,4.00,0.00,30.07,1013.20,10.00,M,CLR,M,M,M,M,M,M,M,M,M,M,M,M,M,M,60.10,KWMC 090656Z AUTO 15004KT 10SM CLR 16/M02 A3007 RMK AO2 SLP132 T01561017 $,M
EKO,2021-09-09 06:56,-115.7860,40.8242,1367.00,64.00,25.00,22.56,40.00,3.00,0.00,30.13,1014.30,10.00,M,CLR,M,M,M,M,M,M,M,M,M,M,M,M,M,M,64.00,KEKO 090656Z AUTO 04003KT 10SM CLR 18/M04 A3013 RMK AO2 SLP143 T01781039,M
LSV,2021-09-09 06:58,-115.0343,36.2362,570.00,91.60,53.80,27.86,0.00,0.00,0.00,29.90,1009.50,10.00,M,M,M,M,M,M,M,M,M,M,M,M,M,M,M,M,89.32,KLSV 090658Z AUTO 00000KT 10SM M 33/12 A2990 RMK AO2 SLP095 T03310121 $,M
INS,2021-09-09 06:58,-115.6733,36.5872,955.00,81.70,22.10,10.99,250.00,4.00,0.00,29.99,1009.80,10.00,M,FEW,M,M,M,17000.00,M,M,M,M,M,M,M,M,M,M,79.15,KINS 090658Z AUTO 25004KT 10SM FEW170 28/M05 A2999 RMK AO2 SLP098 T02761055 $,M
BVU,2021-09-09 07:15,-114.8611,35.9475,671.00,89.60,55.40,31.45,200.00,6.00,0.00,29.93,M,10.00,M,CLR,M,M,M,M,M,M,M,M,M,M,M,M,M,M,87.78,KBVU 090715Z AUTO 20006KT 10SM CLR 32/13 A2993 RMK AO2,M
HTH,2021-09-09 07:15,-118.6315,38.5448,1282.89,78.80,30.20,16.90,220.00,5.00,0.00,30.09,M,M,M,M,M,M,M,M,M,M,M,M,M,M,M,M,M,M,78.80,KHTH 090715Z AUTO 22005KT 26/M01 A3009 RMK A01,M
RTS,2021-09-09 07:15,-119.8764,39.6682,1539.00,64.40,26.60,23.77,360.00,6.00,0.00,30.17,M,10.00,M,CLR,M,M,M,M,M,M,M,M,M,M,M,M,M,M,64.40,KRTS 090715Z AUTO 36006KT 10SM CLR 18/M03 A3017 RMK AO2,M
MEV,2021-09-09 07:15,-119.7500,38.9963,1441.42,62.60,32.00,31.56,100.00,6.00,0.00,30.13,M,10.00,M,BKN,M,M,M,3800.00,M,M,M,M,M,M,M,M,M,M,62.60,KMEV 090715Z AUTO 10006KT 10SM BKN038 17/00 A3013 RMK AO2,M
BAM,2021-09-09 07:15,-116.8743,40.5990,1382.36,62.60,19.40,18.71,0.00,0.00,0.00,30.10,M,10.00,M,CLR,M,M,M,M,M,M,M,M,M,M,M,M,M,M,62.60,KBAM 090715Z AUTO 00000KT 10SM CLR 17/M07 A3010 RMK AO1,M
CXP,2021-09-09 07:15,-119.7326,39.1923,1431.00,68.00,30.20,24.32,0.00,0.00,0.00,30.15,M,10.00,M,SCT,M,M,M,5000.00,M,M,M,M,M,M,M,M,M,M,68.00,KCXP 090715Z AUTO 00000KT 10SM SCT050 20/M01 A3015 RMK AO2,M
TMT,2021-09-09 07:15,-117.1971,39.4643,1749.34,49.30,21.90,33.70,0.00,0.00,0.00,30.22,M,10.00,M,CLR,M,M,M,M,M,M,M,M,M,M,M,M,M,M,49.30,KTMT 090715Z AUTO 00000KT 10SM CLR 10/M06 A3022 RMK AO2 T00961056,M
TMT,2021-09-09 07:35,-117.1971,39.4643,1749.34,49.30,21.20,32.71,310.00,3.00,0.00,30.22,M,10.00,M,CLR,M,M,M,M,M,M,M,M,M,M,M,M,M,M,48.47,KTMT 090735Z AUTO 31003KT 10SM CLR 10/M06 A3022 RMK AO2 T00961060,M
BVU,2021-09-09 07:35,-114.8611,35.9475,671.00,91.40,55.40,29.72,170.00,6.00,0.00,29.93,M,10.00,M,CLR,M,M,M,M,M,M,M,M,M,M,M,M,M,M,89.53,KBVU 090735Z AUTO 17006KT 10SM CLR 33/13 A2993 RMK AO2,M
CXP,2021-09-09 07:35,-119.7326,39.1923,1431.00,66.20,32.00,27.83,0.00,0.00,0.00,30.15,M,10.00,M,SCT,SCT,M,M,4900.00,5500.00,M,M,M,M,M,M,M,M,M,66.20,KCXP 090735Z AUTO 00000KT 10SM SCT049 SCT055 19/M00 A3015 RMK AO2,M
RTS,2021-09-09 07:35,-119.8764,39.6682,1539.00,62.60,26.60,25.32,360.00,5.00,0.00,30.17,M,10.00,M,CLR,M,M,M,M,M,M,M,M,M,M,M,M,M,M,62.60,KRTS 090735Z AUTO 36005KT 10SM CLR 17/M03 A3017 RMK AO2,M
MEV,2021-09-09 07:35,-119.7500,38.9963,1441.42,62.60,33.80,33.93,0.00,0.00,0.00,30.14,M,10.00,M,SCT,M,M,M,3500.00,M,M,M,M,M,M,M,M,M,M,62.60,KMEV 090735Z AUTO 00000KT 10SM SCT035 17/01 A3014 RMK AO2,M
BAM,2021-09-09 07:35,-116.8743,40.5990,1382.36,59.00,17.60,19.68,170.00,5.00,0.00,30.11,M,10.00,M,CLR,M,M,M,M,M,M,M,M,M,M,M,M,M,M,59.00,KBAM 090735Z AUTO 17005KT 10SM CLR 15/M08 A3011 RMK AO1,M
HTH,2021-09-09 07:35,-118.6315,38.5448,1282.89,77.00,30.20,17.94,230.00,4.00,0.00,30.09,M,M,M,M,M,M,M,M,M,M,M,M,M,M,M,M,M,M,77.00,KHTH 090735Z AUTO 23004KT 25/M01 A3009 RMK A01,M
DRA,2021-09-09 07:53,-116.0278,36.6206,1009.00,87.00,49.00,26.79,0.00,0.00,0.00,29.99,1009.40,10.00,M,CLR,M,M,M,M,M,M,M,M,M,M,M,M,M,M,84.37,KDRA 090753Z AUTO 00000KT 10SM CLR 31/09 A2999 RMK AO2 SLP094 T03060094 404220200,M
P68,2021-09-09 07:53,-116.0056,39.6014,1993.00,60.00,19.90,20.88,180.00,5.00,0.00,30.21,1013.70,M,M,M,M,M,M,M,M,M,M,M,M,M,M,M,M,M,60.10,KP68 090753Z AUTO 18005KT 16/M07 A3021 RMK AO1 SLP137 T01561067 403560106,M
ELY,2021-09-09 07:53,-114.8453,39.2950,1909.00,58.00,18.00,20.83,190.00,10.00,0.00,30.25,1013.00,10.00,M,CLR,M,M,M,M,M,M,M,M,M,M,M,M,M,M,57.90,KELY 090753Z AUTO 19010KT 10SM CLR 14/M08 A3025 RMK AO2 SLP130 T01441078 403440061,M
LOL,2021-09-09 07:53,-118.5701,40.0684,1192.43,65.00,33.00,30.44,M,5.00,0.00,30.05,1013.00,10.00,M,CLR,M,M,M,M,M,M,M,M,M,M,M,M,M,M,64.90,KLOL 090753Z AUTO VRB05KT 10SM CLR 18/01 A3005 RMK AO2 SLP130 T01830006 403780089,M
VGT,2021-09-09 07:53,-115.1933,36.2111,667.00,90.00,45.00,21.10,0.00,0.00,0.00,29.91,1011.10,10.00,M,CLR,M,M,M,M,M,M,M,M,M,M,M,M,M,M,86.45,KVGT 090753Z AUTO 00000KT 10SM CLR 32/07 A2991 RMK AO2 SLP111 T03220072 404220267,M
BAM,2021-09-09 07:55,-116.8743,40.5990,1382.36,59.00,19.40,21.26,180.00,5.00,0.00,30.11,M,10.00,M,CLR,M,M,M,M,M,M,M,M,M,M,M,M,M,M,59.00,KBAM 090755Z AUTO 18005KT 10SM CLR 15/M07 A3011 RMK AO1,M
TMT,2021-09-09 07:55,-117.1971,39.4643,1749.34,49.00,21.70,33.92,0.00,0.00,0.00,30.22,M,10.00,M,CLR,M,M,M,M,M,M,M,M,M,M,M,M,M,M,48.90,KTMT 090755Z AUTO 00000KT 10SM CLR 09/M06 A3022 RMK AO2 T00941057 403450016,M
RNO,2021-09-09 07:55,-119.7711,39.4839,1341.00,71.00,36.00,27.60,180.00,6.00,0.00,30.11,1013.00,10.00,M,SCT,M,M,M,17000.00,M,M,M,M,M,M,M,M,M,M,71.10,KRNO 090755Z 18006KT 10SM SCT170 22/02 A3011 RMK AO2 SLP130 T02170022 403670150,M
HTH,2021-09-09 07:55,-118.6315,38.5448,1282.89,M,M,M,M,M,0.00,30.10,M,M,M,M,M,M,M,M,M,M,M,M,M,M,M,M,M,M,M,KHTH 090755Z AUTO A3010 RMK A01,M
CXP,2021-09-09 07:55,-119.7326,39.1923,1431.00,68.00,32.00,26.15,0.00,0.00,0.00,30.15,M,10.00,M,BKN,BKN,M,M,5000.00,5500.00,M,M,M,M,M,M,M,M,M,68.00,KCXP 090755Z AUTO 00000KT 10SM BKN050 BKN055 20/M00 A3015 RMK AO2,M
BVU,2021-09-09 07:55,-114.8611,35.9475,671.00,89.60,55.40,31.45,140.00,4.00,0.00,29.93,M,10.00,M,CLR,M,M,M,M,M,M,M,M,M,M,M,M,M,M,87.78,KBVU 090755Z AUTO 14004KT 10SM CLR 32/13 A2993 RMK AO2,M
RTS,2021-09-09 07:55,-119.8764,39.6682,1539.00,68.00,28.40,22.59,360.00,5.00,0.00,30.16,M,10.00,M,CLR,M,M,M,M,M,M,M,M,M,M,M,M,M,M,68.00,KRTS 090755Z AUTO 36005KT 10SM CLR 20/M02 A3016 RMK AO2,M
MEV,2021-09-09 07:55,-119.7500,38.9963,1441.42,60.80,33.80,36.16,190.00,5.00,0.00,30.14,M,10.00,M,FEW,FEW,M,M,3300.00,4000.00,M,M,M,M,M,M,M,M,M,60.80,KMEV 090755Z AUTO 19005KT 10SM FEW033 FEW040 16/01 A3014 RMK AO2,M
WMC,2021-09-09 07:56,-117.8072,40.9019,1315.00,63.00,28.00,26.45,120.00,7.00,0.00,30.08,1013.00,10.00,M,CLR,M,M,M,M,M,M,M,M,M,M,M,M,M,M,63.00,KWMC 090756Z AUTO 12007KT 10SM CLR 17/M02 A3008 RMK AO2 SLP130 T01721022 403720072 $,M
HND,2021-09-09 07:56,-115.1344,35.9729,742.79,89.00,56.00,32.53,180.00,6.00,0.00,29.97,1012.70,10.00,M,CLR,M,M,M,M,M,M,M,M,M,M,M,M,M,M,87.44,KHND 090756Z AUTO 18006KT 10SM CLR 32/13 A2997 RMK AO2 SLP127 T03170133,M
EKO,2021-09-09 07:56,-115.7860,40.8242,1367.00,55.00,24.10,29.96,0.00,0.00,0.00,30.14,1014.70,10.00,M,CLR,M,M,M,M,M,M,M,M,M,M,M,M,M,M,55.00,KEKO 090756Z AUTO 00000KT 10SM CLR 13/M04 A3014 RMK AO2 SLP147 T01281044 403610083,M
LAS,2021-09-09 07:56,-115.1634,36.0719,663.00,91.00,57.00,31.89,180.00,4.00,0.00,29.93,1010.20,10.00,M,FEW,M,M,M,20000.00,M,M,M,M,M,M,M,M,M,M,89.59,KLAS 090756Z 18004KT 10SM FEW200 33/14 A2993 RMK AO2 SLP102 T03280139 404170272,M
NFL,2021-09-09 07:56,-118.7010,39.4166,1199.00,72.00,33.00,23.85,100.00,3.00,0.00,30.06,1014.70,10.00,M,CLR,M,M,M,M,M,M,M,M,M,M,M,M,M,M,72.00,KNFL 090756Z AUTO 10003KT 10SM CLR 22/01 A3006 RMK AO2 SLP147 T02220006 403720139,M
TPH,2021-09-09 07:56,-117.0904,38.0505,1654.00,64.00,18.00,16.77,360.00,8.00,0.00,30.19,1013.70,10.00,M,CLR,M,M,M,M,M,M,M,M,M,M,M,M,M,M,64.00,KTPH 090756Z AUTO 36008KT 10SM CLR 18/M08 A3019 RMK AO2 SLP137 T01781078 403560139,M
LSV,2021-09-09 07:58,-115.0343,36.2362,570.00,92.70,54.70,27.82,130.00,5.00,0.00,29.89,1009.10,10.00,M,CLR,M,M,M,M,M,M,M,M,M,M,M,M,M,M,90.64,KLSV 090758Z AUTO 13005KT 10SM CLR 34/13 A2989 RMK AO2 SLP091 T03370126 404200234 $,M
INS,2021-09-09 07:58,-115.6733,36.5872,955.00,79.30,22.30,11.99,0.00,0.00,0.00,29.99,1009.90,10.00,M,CLR,M,M,M,M,M,M,M,M,M,M,M,M,M,M,79.30,KINS 090758Z AUTO 00000KT 10SM CLR 26/M05 A2999 RMK AO2 SLP099 T02631054 404020197 $,M
HTH,2021-09-09 08:05,-118.6315,38.5448,1282.89,M,M,M,M,M,0.00,30.09,M,M,M,M,M,M,M,M,M,M,M,M,M,M,M,M,M,M,M,KHTH 090805Z AUTO A3009 RMK A01,M
RTS,2021-09-09 08:15,-119.8764,39.6682,1539.00,62.60,28.40,27.27,0.00,0.00,0.00,30.17,M,10.00,M,CLR,M,M,M,M,M,M,M,M,M,M,M,M,M,M,62.60,KRTS 090815Z AUTO 00000KT 10SM CLR 17/M02 A3017 RMK AO2,M
CXP,2021-09-09 08:15,-119.7326,39.1923,1431.00,68.00,30.20,24.32,0.00,0.00,0.00,30.15,M,10.00,M,OVC,M,M,M,5000.00,M,M,M,M,M,M,M,M,M,M,68.00,KCXP 090815Z AUTO 00000KT 10SM OVC050 20/M01 A3015 RMK AO2,M
MEV,2021-09-09 08:15,-119.7500,38.9963,1441.42,60.80,35.60,38.85,140.00,7.00,0.00,30.14,M,10.00,M,FEW,FEW,M,M,3500.00,4300.00,M,M,M,M,M,M,M,M,M,60.80,KMEV 090815Z AUTO 14007KT 10SM FEW035 FEW043 16/02 A3014 RMK AO2,M
BVU,2021-09-09 08:15,-114.8611,35.9475,671.00,87.80,55.40,33.29,0.00,0.00,0.00,29.93,M,10.00,M,CLR,M,M,M,M,M,M,M,M,M,M,M,M,M,M,86.11,KBVU 090815Z AUTO 00000KT 10SM CLR 31/13 A2993 RMK AO2,M
BAM,2021-09-09 08:15,-116.8743,40.5990,1382.36,62.60,21.20,20.20,0.00,0.00,0.00,30.10,M,10.00,M,CLR,M,M,M,M,M,M,M,M,M,M,M,M,M,M,62.60,KBAM 090815Z AUTO 00000KT 10SM CLR 17/M06 A3010 RMK AO1,M
TMT,2021-09-09 08:15,-117.1971,39.4643,1749.34,49.30,20.50,31.76,0.00,0.00,0.00,30.22,M,10.00,M,CLR,M,M,M,M,M,M,M,M,M,M,M,M,M,M,49.30,KTMT 090815Z AUTO 00000KT 10SM CLR 10/M06 A3022 RMK AO2 T00961064,M
MEV,2021-09-09 08:35,-119.7500,38.9963,1441.42,60.80,37.40,41.71,190.00,5.00,0.00,30.14,M,10.00,M,FEW,FEW,M,M,3500.00,4200.00,M,M,M,M,M,M,M,M,M,60.80,KMEV 090835Z AUTO 19005KT 10SM FEW035 FEW042 16/03 A3014 RMK AO2,M
CXP,2021-09-09 08:35,-119.7326,39.1923,1431.00,69.80,30.20,22.86,0.00,0.00,0.00,30.15,M,10.00,M,OVC,M,M,M,5000.00,M,M,M,M,M,M,M,M,M,M,69.80,KCXP 090835Z AUTO 00000KT 10SM OVC050 21/M01 A3015 RMK AO2,M
BAM,2021-09-09 08:35,-116.8743,40.5990,1382.36,59.00,19.40,21.26,170.00,4.00,0.00,30.10,M,10.00,M,CLR,M,M,M,M,M,M,M,M,M,M,M,M,M,M,59.00,KBAM 090835Z AUTO 17004KT 10SM CLR 15/M07 A3010 RMK AO1,M
RTS,2021-09-09 08:35,-119.8764,39.6682,1539.00,62.60,26.60,25.32,340.00,3.00,0.00,30.17,M,10.00,M,CLR,M,M,M,M,M,M,M,M,M,M,M,M,M,M,62.60,KRTS 090835Z AUTO 34003KT 10SM CLR 17/M03 A3017 RMK AO2,M
BVU,2021-09-09 08:35,-114.8611,35.9475,671.00,84.20,57.20,39.86,10.00,4.00,0.00,29.93,M,10.00,M,CLR,M,M,M,M,M,M,M,M,M,M,M,M,M,M,83.47,KBVU 090835Z AUTO 01004KT 10SM CLR 29/14 A2993 RMK AO2,M
TMT,2021-09-09 08:35,-117.1971,39.4643,1749.34,43.30,16.70,33.85,150.00,4.00,0.00,30.22,M,10.00,M,CLR,M,M,M,M,M,M,M,M,M,M,M,M,M,M,40.62,KTMT 090835Z AUTO 15004KT 10SM CLR 06/M08 A3022 RMK AO2 T00631085,M
P68,2021-09-09 08:53,-116.0056,39.6014,1993.00,58.00,18.00,20.83,180.00,7.00,0.00,30.20,1013.40,M,M,M,M,M,M,M,M,M,M,M,M,M,M,M,M,M,57.90,KP68 090853Z AUTO 18007KT 14/M08 A3020 RMK AO1 SLP134 T01441078 58000,M
VGT,2021-09-09 08:53,-115.1933,36.2111,667.00,87.00,48.00,25.90,340.00,3.00,0.00,29.91,1011.10,10.00,M,CLR,M,M,M,M,M,M,M,M,M,M,M,M,M,M,84.27,KVGT 090853Z AUTO 34003KT 10SM CLR 31/09 A2991 RMK AO2 SLP111 T03060089 51005,M
ELY,2021-09-09 08:53,-114.8453,39.2950,1909.00,59.00,17.10,19.26,180.00,8.00,0.00,30.25,1012.90,10.00,M,CLR,M,M,M,M,M,M,M,M,M,M,M,M,M,M,59.00,KELY 090853Z AUTO 18008KT 10SM CLR 15/M08 A3025 RMK AO2 SLP129 T01501083 51006,M
LOL,2021-09-09 08:53,-118.5701,40.0684,1192.43,72.00,33.00,23.85,40.00,7.00,0.00,30.05,1012.60,10.00,M,CLR,M,M,M,M,M,M,M,M,M,M,M,M,M,M,72.00,KLOL 090853Z AUTO 04007KT 10SM CLR 22/01 A3005 RMK AO2 SLP126 T02220006 50007,M
DRA,2021-09-09 08:53,-116.0278,36.6206,1009.00,81.00,46.00,29.23,80.00,4.00,0.00,30.00,1009.60,10.00,M,CLR,M,M,M,M,M,M,M,M,M,M,M,M,M,M,79.76,KDRA 090853Z AUTO 08004KT 10SM CLR 27/08 A3000 RMK AO2 SLP096 T02720078 51006,M
BVU,2021-09-09 08:55,-114.8611,35.9475,671.00,84.20,57.20,39.86,0.00,0.00,0.00,29.93,M,10.00,M,CLR,M,M,M,M,M,M,M,M,M,M,M,M,M,M,83.47,KBVU 090855Z AUTO 00000KT 10SM CLR 29/14 A2993 RMK AO2,M
TMT,2021-09-09 08:55,-117.1971,39.4643,1749.34,43.30,18.00,35.80,0.00,0.00,0.00,30.22,M,10.00,M,CLR,M,M,M,M,M,M,M,M,M,M,M,M,M,M,43.30,KTMT 090855Z AUTO 00000KT 10SM CLR 06/M08 A3022 RMK AO2 T00631078,M
BAM,2021-09-09 08:55,-116.8743,40.5990,1382.36,59.00,21.20,22.95,0.00,0.00,0.00,30.10,M,10.00,M,CLR,M,M,M,M,M,M,M,M,M,M,M,M,M,M,59.00,KBAM 090855Z AUTO 00000KT 10SM CLR 15/M06 A3010 RMK AO1,M
MEV,2021-09-09 08:55,-119.7500,38.9963,1441.42,59.00,35.60,41.42,0.00,0.00,0.00,30.14,M,10.00,M,FEW,SCT,M,M,3000.00,3800.00,M,M,M,M,M,M,M,M,M,59.00,KMEV 090855Z AUTO 00000KT 10SM FEW030 SCT038 15/02 A3014 RMK AO2,M
RTS,2021-09-09 08:55,-119.8764,39.6682,1539.00,60.80,26.60,26.98,0.00,0.00,0.00,30.17,M,10.00,M,CLR,M,M,M,M,M,M,M,M,M,M,M,M,M,M,60.80,KRTS 090855Z AUTO 00000KT 10SM CLR 16/M03 A3017 RMK AO2,M
RNO,2021-09-09 08:55,-119.7711,39.4839,1341.00,70.00,37.00,29.81,210.00,3.00,0.00,30.11,1013.20,10.00,M,SCT,M,M,M,18000.00,M,M,M,M,M,M,M,M,M,M,70.00,KRNO 090855Z 21003KT 10SM SCT180 21/03 A3011 RMK AO2 SLP132 T02110028 53001,M
CXP,2021-09-09 08:55,-119.7326,39.1923,1431.00,69.80,32.00,24.59,0.00,0.00,0.00,30.15,M,10.00,M,OVC,M,M,M,5000.00,M,M,M,M,M,M,M,M,M,M,69.80,KCXP 090855Z AUTO 00000KT 10SM OVC050 21/M00 A3015 RMK AO2,M
EKO,2021-09-09 08:56,-115.7860,40.8242,1367.00,54.00,23.00,29.67,0.00,0.00,0.00,30.15,1014.90,10.00,M,CLR,M,M,M,M,M,M,M,M,M,M,M,M,M,M,54.00,KEKO 090856Z AUTO 00000KT 10SM CLR 12/M05 A3015 RMK AO2 SLP149 T01221050 53005,M
WMC,2021-09-09 08:56,-117.8072,40.9019,1315.00,58.00,25.00,28.01,M,3.00,0.00,30.08,1013.10,10.00,M,CLR,M,M,M,M,M,M,M,M,M,M,M,M,M,M,57.90,KWMC 090856Z AUTO VRB03KT 10SM CLR 14/M04 A3008 RMK AO2 SLP131 T01441039 51005 $,M
LAS,2021-09-09 08:56,-115.1634,36.0719,663.00,90.00,56.00,31.62,200.00,5.00,0.00,29.93,1010.10,10.00,M,FEW,M,M,M,20000.00,M,M,M,M,M,M,M,M,M,M,88.29,KLAS 090856Z 20005KT 10SM FEW200 32/13 A2993 RMK AO2 SLP101 T03220133 51006,M
HND,2021-09-09 08:56,-115.1344,35.9729,742.79,84.00,54.00,35.72,200.00,4.00,0.00,29.97,1012.80,10.00,M,CLR,M,M,M,M,M,M,M,M,M,M,M,M,M,M,82.67,KHND 090856Z AUTO 20004KT 10SM CLR 29/12 A2997 RMK AO2 SLP128 T02890122 50005,M
NFL,2021-09-09 08:56,-118.7010,39.4166,1199.00,70.00,33.00,25.53,220.00,5.00,0.00,30.06,1014.80,10.00,M,CLR,M,M,M,M,M,M,M,M,M,M,M,M,M,M,70.00,KNFL 090856Z AUTO 22005KT 10SM CLR 21/01 A3006 RMK AO2 SLP148 T02110006 51008,M
TPH,2021-09-09 08:56,-117.0904,38.0505,1654.00,61.00,18.00,18.64,350.00,10.00,0.00,30.19,1013.50,10.00,M,CLR,M,M,M,M,M,M,M,M,M,M,M,M,M,M,61.00,KTPH 090856Z AUTO 35010KT 10SM CLR 16/M08 A3019 RMK AO2 SLP135 T01611078 50003,M
LSV,2021-09-09 08:58,-115.0343,36.2362,570.00,89.00,55.20,31.92,10.00,5.00,0.00,29.90,1009.50,10.00,M,CLR,M,M,M,M,M,M,M,M,M,M,M,M,M,M,87.07,KLSV 090858Z AUTO 01005KT 10SM CLR 32/13 A2990 RMK AO2 SLP095 T03160129 $,M
INS,2021-09-09 08:58,-115.6733,36.5872,955.00,74.50,25.30,15.94,330.00,4.00,0.00,29.99,1009.90,10.00,M,CLR,M,M,M,M,M,M,M,M,M,M,M,M,M,M,74.50,KINS 090858Z AUTO 33004KT 10SM CLR 24/M04 A2999 RMK AO2 SLP099 T02361037 52005 $,M
BAM,2021-09-09 09:15,-116.8743,40.5990,1382.36,59.00,21.20,22.95,240.00,3.00,0.00,30.10,M,10.00,M,CLR,M,M,M,M,M,M,M,M,M,M,M,M,M,M,59.00,KBAM 090915Z AUTO 24003KT 10SM CLR 15/M06 A3010 RMK AO1,M
MEV,2021-09-09 09:15,-119.7500,38.9963,1441.42,59.00,33.80,38.56,0.00,0.00,0.00,30.14,M,10.00,M,SCT,BKN,M,M,2800.00,3500.00,M,M,M,M,M,M,M,M,M,59.00,KMEV 090915Z AUTO 00000KT 10SM SCT028 BKN035 15/01 A3014 RMK AO2,M
BVU,2021-09-09 09:15,-114.8611,35.9475,671.00,84.20,59.00,42.52,0.00,0.00,0.00,29.93,M,10.00,M,CLR,M,M,M,M,M,M,M,M,M,M,M,M,M,M,83.92,KBVU 090915Z AUTO 00000KT 10SM CLR 29/15 A2993 RMK AO2,M
CXP,2021-09-09 09:15,-119.7326,39.1923,1431.00,68.00,32.00,26.15,0.00,0.00,0.00,30.15,M,10.00,M,OVC,M,M,M,4800.00,M,M,M,M,M,M,M,M,M,M,68.00,KCXP 090915Z AUTO 00000KT 10SM OVC048 20/00 A3015 RMK AO2,M
TMT,2021-09-09 09:15,-117.1971,39.4643,1749.34,47.80,21.60,35.19,210.00,5.00,0.00,30.22,M,10.00,M,CLR,M,M,M,M,M,M,M,M,M,M,M,M,M,M,45.16,KTMT 090915Z AUTO 21005KT 10SM CLR 09/M06 A3022 RMK AO2 T00881058,M
RTS,2021-09-09 09:15,-119.8764,39.6682,1539.00,64.40,28.40,25.60,20.00,4.00,0.00,30.16,M,10.00,M,CLR,M,M,M,M,M,M,M,M,M,M,M,M,M,M,64.40,KRTS 090915Z AUTO 02004KT 10SM CLR 18/M02 A3016 RMK AO2,M
TMT,2021-09-09 09:35,-117.1971,39.4643,1749.34,47.70,20.50,33.72,0.00,0.00,0.00,30.22,M,10.00,M,CLR,M,M,M,M,M,M,M,M,M,M,M,M,M,M,47.70,KTMT 090935Z AUTO 00000KT 10SM CLR 09/M06 A3022 RMK AO2 T00871064,M
MEV,2021-09-09 09:35,-119.7500,38.9963,1441.42,60.80,35.60,38.85,0.00,0.00,0.00,30.14,M,10.00,M,FEW,M,M,M,3500.00,M,M,M,M,M,M,M,M,M,M,60.80,KMEV 090935Z AUTO 00000KT 10SM FEW035 16/02 A3014 RMK AO2,M
RTS,2021-09-09 09:35,-119.8764,39.6682,1539.00,60.80,28.40,29.06,300.00,3.00,0.00,30.16,M,10.00,M,CLR,M,M,M,M,M,M,M,M,M,M,M,M,M,M,60.80,KRTS 090935Z AUTO 30003KT 10SM CLR 16/M02 A3016 RMK AO2,M
CXP,2021-09-09 09:35,-119.7326,39.1923,1431.00,66.20,32.00,27.83,0.00,0.00,0.00,30.14,M,10.00,M,OVC,M,M,M,4600.00,M,M,M,M,M,M,M,M,M,M,66.20,KCXP 090935Z AUTO 00000KT 10SM OVC046 19/00 A3014 RMK AO2,M
BVU,2021-09-09 09:35,-114.8611,35.9475,671.00,82.40,59.00,45.07,0.00,0.00,0.00,29.94,M,10.00,M,CLR,M,M,M,M,M,M,M,M,M,M,M,M,M,M,82.46,KBVU 090935Z AUTO 00000KT 10SM CLR 28/15 A2994 RMK AO2,M
BAM,2021-09-09 09:35,-116.8743,40.5990,1382.36,60.80,21.20,21.53,240.00,3.00,0.00,30.10,M,10.00,M,CLR,M,M,M,M,M,M,M,M,M,M,M,M,M,M,60.80,KBAM 090935Z AUTO 24003KT 10SM CLR 16/M06 A3010 RMK AO1,M
CXP,2021-09-09 09:50,-119.7326,39.1923,1431.00,66.20,33.80,29.92,0.00,0.00,0.00,30.14,M,10.00,M,OVC,M,M,M,4800.00,M,M,M,M,M,M,M,M,M,M,66.20,KCXP 090950Z AUTO 00000KT 10SM OVC048 19/01 A3014 RMK AO2,M
P68,2021-09-09 09:53,-116.0056,39.6014,1993.00,56.00,19.00,23.37,190.00,9.00,0.00,30.20,1013.40,M,M,M,M,M,M,M,M,M,M,M,M,M,M,M,M,M,55.90,KP68 090953Z AUTO 19009KT 13/M07 A3020 RMK AO1 SLP134 T01331072,M
ELY,2021-09-09 09:53,-114.8453,39.2950,1909.00,54.00,18.00,23.99,170.00,8.00,0.00,30.26,1013.50,10.00,M,CLR,M,M,M,M,M,M,M,M,M,M,M,M,M,M,54.00,KELY 090953Z AUTO 17008KT 10SM CLR 12/M08 A3026 RMK AO2 SLP135 T01221078,M
DRA,2021-09-09 09:53,-116.0278,36.6206,1009.00,78.00,44.00,29.91,60.00,5.00,0.00,30.01,1009.90,10.00,M,CLR,M,M,M,M,M,M,M,M,M,M,M,M,M,M,78.10,KDRA 090953Z AUTO 06005KT 10SM CLR 26/07 A3001 RMK AO2 SLP099 T02560067,M
LOL,2021-09-09 09:53,-118.5701,40.0684,1192.43,62.00,30.90,30.73,0.00,0.00,0.00,30.05,1013.10,10.00,M,CLR,M,M,M,M,M,M,M,M,M,M,M,M,M,M,62.10,KLOL 090953Z AUTO 00000KT 10SM CLR 17/M01 A3005 RMK AO2 SLP131 T01671006,M
VGT,2021-09-09 09:53,-115.1933,36.2111,667.00,87.00,51.00,29.07,280.00,6.00,0.00,29.92,1011.50,10.00,M,CLR,M,M,M,M,M,M,M,M,M,M,M,M,M,M,84.67,KVGT 090953Z AUTO 28006KT 10SM CLR 31/11 A2992 RMK AO2 SLP115 T03060106,M
TMT,2021-09-09 09:55,-117.1971,39.4643,1749.34,46.60,20.70,35.44,160.00,3.00,0.00,30.22,M,10.00,M,CLR,M,M,M,M,M,M,M,M,M,M,M,M,M,M,45.38,KTMT 090955Z AUTO 16003KT 10SM CLR 08/M06 A3022 RMK AO2 T00811063,M
MEV,2021-09-09 09:55,-119.7500,38.9963,1441.42,57.20,39.20,50.91,120.00,3.00,0.00,30.13,M,10.00,M,CLR,M,M,M,M,M,M,M,M,M,M,M,M,M,M,57.20,KMEV 090955Z AUTO 12003KT 10SM CLR 14/04 A3013 RMK AO2,M
RNO,2021-09-09 09:55,-119.7711,39.4839,1341.00,68.00,37.00,31.92,180.00,3.00,0.00,30.11,1013.10,10.00,M,FEW,SCT,M,M,15000.00,18000.00,M,M,M,M,M,M,M,M,M,68.00,KRNO 090955Z 18003KT 10SM FEW150 SCT180 20/03 A3011 RMK AO2 SLP131 T02000028,M
RTS,2021-09-09 09:55,-119.8764,39.6682,1539.00,60.80,28.40,29.06,0.00,0.00,0.00,30.16,M,10.00,M,CLR,M,M,M,M,M,M,M,M,M,M,M,M,M,M,60.80,KRTS 090955Z AUTO 00000KT 10SM CLR 16/M02 A3016 RMK AO2,M
BVU,2021-09-09 09:55,-114.8611,35.9475,671.00,82.40,57.20,42.25,0.00,0.00,0.00,29.94,M,10.00,M,CLR,M,M,M,M,M,M,M,M,M,M,M,M,M,M,82.08,KBVU 090955Z AUTO 00000KT 10SM CLR 28/14 A2994 RMK AO2,M
BAM,2021-09-09 09:55,-116.8743,40.5990,1382.36,55.40,19.40,24.21,100.00,4.00,0.00,30.11,M,10.00,M,CLR,M,M,M,M,M,M,M,M,M,M,M,M,M,M,55.40,KBAM 090955Z AUTO 10004KT 10SM CLR 13/M07 A3011 RMK AO1,M
WMC,2021-09-09 09:56,-117.8072,40.9019,1315.00,61.00,27.00,27.24,10.00,3.00,0.00,30.09,1013.30,10.00,M,CLR,M,M,M,M,M,M,M,M,M,M,M,M,M,M,61.00,KWMC 090956Z AUTO 01003KT 10SM CLR 16/M03 A3009 RMK AO2 SLP133 T01611028 $,M
HND,2021-09-09 09:56,-115.1344,35.9729,742.79,83.00,55.00,38.38,160.00,4.00,0.00,29.97,1012.90,10.00,M,CLR,M,M,M,M,M,M,M,M,M,M,M,M,M,M,82.03,KHND 090956Z AUTO 16004KT 10SM CLR 28/13 A2997 RMK AO2 SLP129 T02830128,M
TPH,2021-09-09 09:56,-117.0904,38.0505,1654.00,63.00,19.90,18.85,360.00,9.00,0.00,30.19,1013.50,10.00,M,CLR,M,M,M,M,M,M,M,M,M,M,M,M,M,M,63.00,KTPH 090956Z AUTO 36009KT 10SM CLR 17/M07 A3019 RMK AO2 SLP135 T01721067,M
LAS,2021-09-09 09:56,-115.1634,36.0719,663.00,89.00,56.00,32.53,190.00,3.00,0.00,29.94,1010.40,10.00,M,FEW,M,M,M,20000.00,M,M,M,M,M,M,M,M,M,M,87.44,KLAS 090956Z 19003KT 10SM FEW200 32/13 A2994 RMK AO2 SLP104 T03170133,M
EKO,2021-09-09 09:56,-115.7860,40.8242,1367.00,55.00,24.10,29.96,70.00,5.00,0.00,30.14,1014.60,10.00,M,CLR,M,M,M,M,M,M,M,M,M,M,M,M,M,M,55.00,KEKO 090956Z AUTO 07005KT 10SM CLR 13/M04 A3014 RMK AO2 SLP146 T01281044,M
NFL,2021-09-09 09:56,-118.7010,39.4166,1199.00,66.00,33.00,29.29,180.00,4.00,0.00,30.05,1014.50,10.00,M,CLR,M,M,M,M,M,M,M,M,M,M,M,M,M,M,66.00,KNFL 090956Z AUTO 18004KT 10SM CLR 19/01 A3005 RMK AO2 SLP145 T01890006,M
LSV,2021-09-09 09:58,-115.0343,36.2362,570.00,88.00,55.20,32.84,10.00,6.00,0.00,29.90,1009.50,10.00,M,CLR,M,M,M,M,M,M,M,M,M,M,M,M,M,M,86.25,KLSV 090958Z AUTO 01006KT 10SM CLR 31/13 A2990 RMK AO2 SLP095 T03110129 $,M
INS,2021-09-09 09:58,-115.6733,36.5872,955.00,74.00,26.40,17.03,260.00,6.00,0.00,30.00,1010.40,10.00,M,CLR,M,M,M,M,M,M,M,M,M,M,M,M,M,M,73.90,KINS 090958Z AUTO 26006KT 10SM CLR 23/M03 A3000 RMK AO2 SLP104 T02331031 $,M
BAM,2021-09-09 10:15,-116.8743,40.5990,1382.36,57.20,21.20,24.49,0.00,0.00,0.00,30.11,M,10.00,M,CLR,M,M,M,M,M,M,M,M,M,M,M,M,M,M,57.20,KBAM 091015Z AUTO 00000KT 10SM CLR 14/M06 A3011 RMK AO1,M
BVU,2021-09-09 10:15,-114.8611,35.9475,671.00,80.60,59.00,47.79,330.00,3.00,0.00,29.94,M,10.00,M,CLR,M,M,M,M,M,M,M,M,M,M,M,M,M,M,81.11,KBVU 091015Z AUTO 33003KT 10SM CLR 27/15 A2994 RMK AO2,M
RTS,2021-09-09 10:15,-119.8764,39.6682,1539.00,62.60,28.40,27.27,0.00,0.00,0.00,30.16,M,10.00,M,CLR,M,M,M,M,M,M,M,M,M,M,M,M,M,M,62.60,KRTS 091015Z AUTO 00000KT 10SM CLR 17/M02 A3016 RMK AO2,M
CXP,2021-09-09 10:15,-119.7326,39.1923,1431.00,64.40,33.80,31.85,0.00,0.00,0.00,30.15,M,10.00,M,BKN,OVC,M,M,3600.00,4700.00,M,M,M,M,M,M,M,M,M,64.40,KCXP 091015Z AUTO 00000KT 10SM BKN036 OVC047 18/01 A3015 RMK AO2,M
MEV,2021-09-09 10:15,-119.7500,38.9963,1441.42,57.20,35.60,44.19,0.00,0.00,0.00,30.14,M,10.00,M,CLR,M,M,M,M,M,M,M,M,M,M,M,M,M,M,57.20,KMEV 091015Z AUTO 00000KT 10SM CLR 14/02 A3014 RMK AO2,M
TMT,2021-09-09 10:15,-117.1971,39.4643,1749.34,45.50,20.30,36.33,0.00,0.00,0.00,30.23,M,10.00,M,CLR,M,M,M,M,M,M,M,M,M,M,M,M,M,M,45.50,KTMT 091015Z AUTO 00000KT 10SM CLR 08/M06 A3023 RMK AO2 T00751065,M
BVU,2021-09-09 10:35,-114.8611,35.9475,671.00,82.40,57.20,42.25,360.00,3.00,0.00,29.95,M,10.00,M,CLR,M,M,M,M,M,M,M,M,M,M,M,M,M,M,82.08,KBVU 091035Z AUTO 36003KT 10SM CLR 28/14 A2995 RMK AO2,M
MEV,2021-09-09 10:35,-119.7500,38.9963,1441.42,57.20,35.60,44.19,0.00,0.00,0.00,30.14,M,10.00,M,CLR,M,M,M,M,M,M,M,M,M,M,M,M,M,M,57.20,KMEV 091035Z AUTO 00000KT 10SM CLR 14/02 A3014 RMK AO2,M
RTS,2021-09-09 10:35,-119.8764,39.6682,1539.00,62.60,28.40,27.27,340.00,5.00,0.00,30.16,M,10.00,M,CLR,M,M,M,M,M,M,M,M,M,M,M,M,M,M,62.60,KRTS 091035Z AUTO 34005KT 10SM CLR 17/M02 A3016 RMK AO2,M
CXP,2021-09-09 10:35,-119.7326,39.1923,1431.00,62.60,33.80,33.93,0.00,0.00,0.00,30.14,M,10.00,M,OVC,M,M,M,3600.00,M,M,M,M,M,M,M,M,M,M,62.60,KCXP 091035Z AUTO 00000KT 10SM OVC036 17/01 A3014 RMK AO2,M
BAM,2021-09-09 10:35,-116.8743,40.5990,1382.36,55.40,19.40,24.21,190.00,7.00,0.00,30.12,M,10.00,M,CLR,M,M,M,M,M,M,M,M,M,M,M,M,M,M,55.40,KBAM 091035Z AUTO 19007KT 10SM CLR 13/M07 A3012 RMK AO1,M
TMT,2021-09-09 10:35,-117.1971,39.4643,1749.34,42.80,21.20,41.84,0.00,0.00,0.00,30.23,M,10.00,M,CLR,M,M,M,M,M,M,M,M,M,M,M,M,M,M,42.80,KTMT 091035Z AUTO 00000KT 10SM CLR 06/M06 A3023 RMK AO2 T00601060,M
P68,2021-09-09 10:53,-116.0056,39.6014,1993.00,56.00,18.00,22.39,220.00,8.00,0.00,30.22,1013.80,M,M,M,M,M,M,M,M,M,M,M,M,M,M,M,M,M,55.90,KP68 091053Z AUTO 22008KT 13/M08 A3022 RMK AO1 SLP138 T01331078,M
LOL,2021-09-09 10:53,-118.5701,40.0684,1192.43,59.00,35.00,40.61,210.00,3.00,0.00,30.06,1013.40,10.00,M,CLR,M,M,M,M,M,M,M,M,M,M,M,M,M,M,59.00,KLOL 091053Z AUTO 21003KT 10SM CLR 15/02 A3006 RMK AO2 SLP134 T01500017,M
ELY,2021-09-09 10:53,-114.8453,39.2950,1909.00,52.00,18.00,25.82,180.00,11.00,0.00,30.26,1013.90,10.00,M,CLR,M,M,M,M,M,M,M,M,M,M,M,M,M,M,52.00,KELY 091053Z AUTO 18011KT 10SM CLR 11/M08 A3026 RMK AO2 SLP139 T01111078,M
DRA,2021-09-09 10:53,-116.0278,36.6206,1009.00,77.00,43.00,29.74,M,3.00,0.00,30.02,1010.40,10.00,M,CLR,M,M,M,M,M,M,M,M,M,M,M,M,M,M,77.00,KDRA 091053Z AUTO VRB03KT 10SM CLR 25/06 A3002 RMK AO2 SLP104 T02500061,M
VGT,2021-09-09 10:53,-115.1933,36.2111,667.00,85.00,51.00,31.19,360.00,3.00,0.00,29.93,1011.80,10.00,M,CLR,M,M,M,M,M,M,M,M,M,M,M,M,M,M,82.90,KVGT 091053Z AUTO 36003KT 10SM CLR 29/11 A2993 RMK AO2 SLP118 T02940106,M
CXP,2021-09-09 10:55,-119.7326,39.1923,1431.00,64.40,33.80,31.85,0.00,0.00,0.00,30.14,M,10.00,M,OVC,M,M,M,3800.00,M,M,M,M,M,M,M,M,M,M,64.40,KCXP 091055Z AUTO 00000KT 10SM OVC038 18/01 A3014 RMK AO2,M
BAM,2021-09-09 10:55,-116.8743,40.5990,1382.36,59.00,21.20,22.95,150.00,4.00,0.00,30.12,M,10.00,M,CLR,M,M,M,M,M,M,M,M,M,M,M,M,M,M,59.00,KBAM 091055Z AUTO 15004KT 10SM CLR 15/M06 A3012 RMK AO1,M
TMT,2021-09-09 10:55,-117.1971,39.4643,1749.34,42.80,20.30,40.27,280.00,6.00,0.00,30.23,M,10.00,M,CLR,M,M,M,M,M,M,M,M,M,M,M,M,M,M,38.54,KTMT 091055Z AUTO 28006KT 10SM CLR 06/M06 A3023 RMK AO2 T00601065,M
RNO,2021-09-09 10:55,-119.7711,39.4839,1341.00,68.00,40.00,35.76,0.00,0.00,0.00,30.11,1013.00,10.00,M,FEW,SCT,M,M,15000.00,17000.00,M,M,M,M,M,M,M,M,M,68.00,KRNO 091055Z 00000KT 10SM FEW150 SCT170 20/04 A3011 RMK AO2 SLP130 T02000044,M
MEV,2021-09-09 10:55,-119.7500,38.9963,1441.42,57.20,37.40,47.44,10.00,5.00,0.00,30.12,M,10.00,M,SCT,M,M,M,12000.00,M,M,M,M,M,M,M,M,M,M,57.20,KMEV 091055Z AUTO 01005KT 10SM SCT120 14/03 A3012 RMK AO2,M
RTS,2021-09-09 10:55,-119.8764,39.6682,1539.00,62.60,28.40,27.27,0.00,0.00,0.00,30.16,M,10.00,M,FEW,M,M,M,11000.00,M,M,M,M,M,M,M,M,M,M,62.60,KRTS 091055Z AUTO 00000KT 10SM FEW110 17/M02 A3016 RMK AO2,M
BVU,2021-09-09 10:55,-114.8611,35.9475,671.00,80.60,59.00,47.79,10.00,4.00,0.00,29.94,M,10.00,M,CLR,M,M,M,M,M,M,M,M,M,M,M,M,M,M,81.11,KBVU 091055Z AUTO 01004KT 10SM CLR 27/15 A2994 RMK AO2,M
NFL,2021-09-09 10:56,-118.7010,39.4166,1199.00,65.00,38.00,36.82,170.00,5.00,0.00,30.06,1014.70,10.00,M,CLR,M,M,M,M,M,M,M,M,M,M,M,M,M,M,64.90,KNFL 091056Z AUTO 17005KT 10SM CLR 18/03 A3006 RMK AO2 SLP147 T01830033,M
EKO,2021-09-09 10:56,-115.7860,40.8242,1367.00,50.00,25.00,37.39,0.00,0.00,0.00,30.15,1015.40,10.00,M,CLR,M,M,M,M,M,M,M,M,M,M,M,M,M,M,50.00,KEKO 091056Z AUTO 00000KT 10SM CLR 10/M04 A3015 RMK AO2 SLP154 T01001039,M
WMC,2021-09-09 10:56,-117.8072,40.9019,1315.00,54.00,26.10,33.77,140.00,6.00,0.00,30.10,1013.90,10.00,M,CLR,M,M,M,M,M,M,M,M,M,M,M,M,M,M,54.00,KWMC 091056Z AUTO 14006KT 10SM CLR 12/M03 A3010 RMK AO2 SLP139 T01221033 $,M
HND,2021-09-09 10:56,-115.1344,35.9729,742.79,82.00,55.00,39.52,210.00,6.00,0.00,29.98,1013.10,10.00,M,CLR,M,M,M,M,M,M,M,M,M,M,M,M,M,M,81.40,KHND 091056Z AUTO 21006KT 10SM CLR 28/13 A2998 RMK AO2 SLP131 T02780128,M
TPH,2021-09-09 10:56,-117.0904,38.0505,1654.00,61.00,19.90,20.23,360.00,9.00,0.00,30.20,1013.80,10.00,M,CLR,M,M,M,M,M,M,M,M,M,M,M,M,M,M,61.00,KTPH 091056Z AUTO 36009KT 10SM CLR 16/M07 A3020 RMK AO2 SLP138 T01611067,M
LAS,2021-09-09 10:56,-115.1634,36.0719,663.00,87.00,56.00,34.66,270.00,3.00,0.00,29.94,1010.70,10.00,M,FEW,M,M,M,20000.00,M,M,M,M,M,M,M,M,M,M,85.61,KLAS 091056Z 27003KT 10SM FEW200 31/13 A2994 RMK AO2 SLP107 T03060133,M
INS,2021-09-09 10:58,-115.6733,36.5872,955.00,73.00,29.70,20.09,0.00,0.00,0.00,30.01,1010.80,10.00,M,CLR,M,M,M,M,M,M,M,M,M,M,M,M,M,M,73.00,KINS 091058Z AUTO 00000KT 10SM CLR 23/M01 A3001 RMK AO2 SLP108 T02281013 $,M
LSV,2021-09-09 10:58,-115.0343,36.2362,570.00,87.00,56.80,35.81,M,M,0.00,29.91,1009.80,10.00,M,CLR,M,M,M,M,M,M,M,M,M,M,M,M,M,M,85.83,KLSV 091058Z AUTO M 10SM CLR 31/14 A2991 RMK AO2 SLP098 T03060138 $,M
BVU,2021-09-09 11:15,-114.8611,35.9475,671.00,80.60,59.00,47.79,M,3.00,0.00,29.94,M,10.00,M,CLR,M,M,M,M,M,M,M,M,M,M,M,M,M,M,81.11,KBVU 091115Z AUTO VRB03KT 10SM CLR 27/15 A2994 RMK AO2,M
BAM,2021-09-09 11:15,-116.8743,40.5990,1382.36,59.00,21.20,22.95,220.00,3.00,0.00,30.12,M,10.00,M,CLR,M,M,M,M,M,M,M,M,M,M,M,M,M,M,59.00,KBAM 091115Z AUTO 22003KT 10SM CLR 15/M06 A3012 RMK AO1,M
CXP,2021-09-09 11:15,-119.7326,39.1923,1431.00,64.40,33.80,31.85,0.00,0.00,0.00,30.14,M,10.00,M,OVC,M,M,M,3700.00,M,M,M,M,M,M,M,M,M,M,64.40,KCXP 091115Z AUTO 00000KT 10SM OVC037 18/01 A3014 RMK AO2,M
TMT,2021-09-09 11:15,-117.1971,39.4643,1749.34,47.70,21.00,34.44,0.00,0.00,0.00,30.23,M,10.00,M,CLR,M,M,M,M,M,M,M,M,M,M,M,M,M,M,47.70,KTMT 091115Z AUTO 00000KT 10SM CLR 09/M06 A3023 RMK AO2 T00871061,M
MEV,2021-09-09 11:15,-119.7500,38.9963,1441.42,57.20,35.60,44.19,0.00,0.00,0.00,30.13,M,10.00,M,FEW,M,M,M,12000.00,M,M,M,M,M,M,M,M,M,M,57.20,KMEV 091115Z AUTO 00000KT 10SM FEW120 14/02 A3013 RMK AO2,M
RTS,2021-09-09 11:15,-119.8764,39.6682,1539.00,62.60,28.40,27.27,140.00,5.00,0.00,30.16,M,10.00,M,FEW,FEW,FEW,M,6000.00,7500.00,11000.00,M,M,M,M,M,M,M,M,62.60,KRTS 091115Z AUTO 14005KT 10SM FEW060 FEW075 FEW110 17/M02 A3016 RMK AO2,M
BVU,2021-09-09 11:35,-114.8611,35.9475,671.00,80.60,59.00,47.79,0.00,0.00,0.00,29.95,M,10.00,M,CLR,M,M,M,M,M,M,M,M,M,M,M,M,M,M,81.11,KBVU 091135Z AUTO 00000KT 10SM CLR 27/15 A2995 RMK AO2,M
BAM,2021-09-09 11:35,-116.8743,40.5990,1382.36,53.60,21.20,27.91,200.00,7.00,0.00,30.12,M,10.00,M,CLR,M,M,M,M,M,M,M,M,M,M,M,M,M,M,53.60,KBAM 091135Z AUTO 20007KT 10SM CLR 12/M06 A3012 RMK AO1,M
MEV,2021-09-09 11:35,-119.7500,38.9963,1441.42,55.40,37.40,50.64,90.00,5.00,0.00,30.13,M,10.00,M,CLR,M,M,M,M,M,M,M,M,M,M,M,M,M,M,55.40,KMEV 091135Z AUTO 09005KT 10SM CLR 13/03 A3013 RMK AO2,M
TMT,2021-09-09 11:35,-117.1971,39.4643,1749.34,42.00,18.90,38.97,150.00,5.00,0.00,30.22,M,10.00,M,CLR,M,M,M,M,M,M,M,M,M,M,M,M,M,M,38.39,KTMT 091135Z AUTO 15005KT 10SM CLR 06/M07 A3022 RMK AO2 T00561073,M
RTS,2021-09-09 11:35,-119.8764,39.6682,1539.00,64.40,32.00,29.63,0.00,0.00,0.00,30.16,M,10.00,M,FEW,FEW,SCT,M,3000.00,4700.00,9000.00,M,M,M,M,M,M,M,M,64.40,KRTS 091135Z AUTO 00000KT 10SM FEW030 FEW047 SCT090 18/M00 A3016 RMK AO2,M
CXP,2021-09-09 11:35,-119.7326,39.1923,1431.00,62.60,35.60,36.45,0.00,0.00,0.00,30.14,M,10.00,M,OVC,M,M,M,3900.00,M,M,M,M,M,M,M,M,M,M,62.60,KCXP 091135Z AUTO 00000KT 10SM OVC039 17/02 A3014 RMK AO2,M
DRA,2021-09-09 11:53,-116.0278,36.6206,1009.00,76.00,46.00,34.58,0.00,0.00,0.00,30.02,1010.50,10.00,M,CLR,M,M,M,M,M,M,M,M,M,M,M,M,M,M,75.90,KDRA 091153Z AUTO 00000KT 10SM CLR 24/08 A3002 RMK AO2 SLP105 T02440078 10328 20239 51006,M
VGT,2021-09-09 11:53,-115.1933,36.2111,667.00,84.00,54.00,35.72,280.00,5.00,0.00,29.93,1012.00,10.00,M,CLR,M,M,M,M,M,M,M,M,M,M,M,M,M,M,82.67,KVGT 091153Z AUTO 28005KT 10SM CLR 29/12 A2993 RMK AO2 SLP120 T02890122 10339 20289 51007,M
P68,2021-09-09 11:53,-116.0056,39.6014,1993.00,57.00,19.00,22.46,200.00,9.00,0.00,30.22,1013.90,M,M,M,M,M,M,M,M,M,M,M,M,M,M,M,M,M,57.00,KP68 091153Z AUTO 20009KT 14/M07 A3022 RMK AO1 SLP139 T01391072 10189 20117 53006,M
ELY,2021-09-09 11:53,-114.8453,39.2950,1909.00,50.00,19.90,30.16,200.00,5.00,0.00,30.26,1014.10,10.00,M,CLR,M,M,M,M,M,M,M,M,M,M,M,M,M,M,50.00,KELY 091153Z AUTO 20005KT 10SM CLR 10/M07 A3026 RMK AO2 SLP141 T01001067 10194 20100 51002,M
LOL,2021-09-09 11:53,-118.5701,40.0684,1192.43,57.00,32.00,38.54,0.00,0.00,0.00,30.06,1013.60,10.00,M,CLR,M,M,M,M,M,M,M,M,M,M,M,M,M,M,57.00,KLOL 091153Z AUTO 00000KT 10SM CLR 14/00 A3006 RMK AO2 SLP136 T01390000 10239 20133 51003,M
BVU,2021-09-09 11:55,-114.8611,35.9475,671.00,82.40,59.00,45.07,0.00,0.00,0.00,29.95,M,10.00,M,CLR,M,M,M,M,M,M,M,M,M,M,M,M,M,M,82.46,KBVU 091155Z AUTO 00000KT 10SM CLR 28/15 A2995 RMK AO2,M
CXP,2021-09-09 11:55,-119.7326,39.1923,1431.00,64.40,33.80,31.85,350.00,4.00,0.00,30.14,M,10.00,M,OVC,M,M,M,4300.00,M,M,M,M,M,M,M,M,M,M,64.40,KCXP 091155Z AUTO 35004KT 10SM OVC043 18/01 A3014 RMK AO2,M
RTS,2021-09-09 11:55,-119.8764,39.6682,1539.00,64.40,30.20,27.55,0.00,0.00,0.00,30.15,M,10.00,M,FEW,FEW,SCT,M,4700.00,8500.00,11000.00,M,M,M,M,M,M,M,M,64.40,KRTS 091155Z AUTO 00000KT 10SM FEW047 FEW085 SCT110 18/M01 A3015 RMK AO2,M
MEV,2021-09-09 11:55,-119.7500,38.9963,1441.42,55.40,37.40,50.64,0.00,0.00,0.00,30.13,M,10.00,M,CLR,M,M,M,M,M,M,M,M,M,M,M,M,M,M,55.40,KMEV 091155Z AUTO 00000KT 10SM CLR 13/03 A3013 RMK AO2,M
RNO,2021-09-09 11:55,-119.7711,39.4839,1341.00,69.00,38.00,31.85,320.00,5.00,0.00,30.09,1012.60,10.00,M,SCT,M,M,M,15000.00,M,M,M,M,M,M,M,M,M,M,69.10,KRNO 091155Z 32005KT 10SM SCT150 21/03 A3009 RMK AO2 SLP126 T02060033 10272 20189 58005,M
BAM,2021-09-09 11:55,-116.8743,40.5990,1382.36,53.60,21.20,27.91,240.00,3.00,0.00,30.12,M,10.00,M,CLR,M,M,M,M,M,M,M,M,M,M,M,M,M,M,53.60,KBAM 091155Z AUTO 24003KT 10SM CLR 12/M06 A3012 RMK AO1,M
TMT,2021-09-09 11:55,-117.1971,39.4643,1749.34,40.50,20.30,44.01,0.00,0.00,0.00,30.22,M,10.00,M,CLR,M,M,M,M,M,M,M,M,M,M,M,M,M,M,40.50,KTMT 091155Z AUTO 00000KT 10SM CLR 05/M06 A3022 RMK AO2 T00471065 10134 20045,M
EKO,2021-09-09 11:56,-115.7860,40.8242,1367.00,52.00,23.00,31.93,0.00,0.00,0.00,30.16,1015.60,10.00,M,CLR,M,M,M,M,M,M,M,M,M,M,M,M,M,M,52.00,KEKO 091156Z AUTO 00000KT 10SM CLR 11/M05 A3016 RMK AO2 SLP156 T01111050 10183 20089 53005,M
WMC,2021-09-09 11:56,-117.8072,40.9019,1315.00,51.00,28.00,40.63,160.00,5.00,0.00,30.09,1013.80,10.00,M,CLR,M,M,M,M,M,M,M,M,M,M,M,M,M,M,51.10,KWMC 091156Z AUTO 16005KT 10SM CLR 11/M02 A3009 RMK AO2 SLP138 T01061022 10189 20100 50003 $,M
LAS,2021-09-09 11:56,-115.1634,36.0719,663.00,86.00,54.00,33.50,280.00,3.00,0.00,29.95,1011.00,10.00,M,FEW,M,M,M,20000.00,M,M,M,M,M,M,M,M,M,M,84.26,KLAS 091156Z 28003KT 10SM FEW200 30/12 A2995 RMK AO2 SLP110 T03000122 10344 20283 51007,M
TPH,2021-09-09 11:56,-117.0904,38.0505,1654.00,58.00,19.90,22.59,350.00,7.00,0.00,30.20,1014.50,10.00,M,CLR,M,M,M,M,M,M,M,M,M,M,M,M,M,M,57.90,KTPH 091156Z AUTO 35007KT 10SM CLR 14/M07 A3020 RMK AO2 SLP145 T01441067 10206 20144 53004,M
NFL,2021-09-09 11:56,-118.7010,39.4166,1199.00,64.00,32.00,30.05,180.00,5.00,0.00,30.05,1014.50,10.00,M,CLR,M,M,M,M,M,M,M,M,M,M,M,M,M,M,64.00,KNFL 091156Z AUTO 18005KT 10SM CLR 18/00 A3005 RMK AO2 SLP145 7//// T01780000 10233 20178 56002,M
HND,2021-09-09 11:56,-115.1344,35.9729,742.79,81.00,54.00,39.37,180.00,6.00,0.00,29.99,1013.50,10.00,M,CLR,M,M,M,M,M,M,M,M,M,M,M,M,M,M,80.59,KHND 091156Z AUTO 18006KT 10SM CLR 27/12 A2999 RMK AO2 SLP135 T02720122 10333 20272 53006,M
INS,2021-09-09 11:58,-115.6733,36.5872,955.00,72.50,31.50,21.98,260.00,3.00,0.00,30.02,1011.10,10.00,M,CLR,M,M,M,M,M,M,M,M,M,M,M,M,M,M,72.50,KINS 091158Z AUTO 26003KT 10SM CLR 23/M00 A3002 RMK AO2 SLP111 T02251003 10301 20223 52009 $,M
LSV,2021-09-09 11:58,-115.0343,36.2362,570.00,85.60,56.30,36.89,30.00,3.00,0.00,29.92,1010.20,10.00,M,CLR,M,M,M,M,M,M,M,M,M,M,M,M,M,M,84.41,KLSV 091158Z AUTO 03003KT 10SM CLR 30/14 A2992 RMK AO2 SLP102 T02980135 10353 20295 52006 $,M
BAM,2021-09-09 12:15,-116.8743,40.5990,1382.36,50.00,17.60,27.33,120.00,6.00,0.00,30.13,M,10.00,M,CLR,M,M,M,M,M,M,M,M,M,M,M,M,M,M,50.00,KBAM 091215Z AUTO 12006KT 10SM CLR 10/M08 A3013 RMK AO1,M
TMT,2021-09-09 12:15,-117.1971,39.4643,1749.34,41.20,19.40,41.22,180.00,3.00,0.00,30.22,M,10.00,M,CLR,M,M,M,M,M,M,M,M,M,M,M,M,M,M,39.21,KTMT 091215Z AUTO 18003KT 10SM CLR 05/M07 A3022 RMK AO2 T00511070,M
MEV,2021-09-09 12:15,-119.7500,38.9963,1441.42,53.60,39.20,58.02,150.00,4.00,0.00,30.13,M,10.00,M,CLR,M,M,M,M,M,M,M,M,M,M,M,M,M,M,53.60,KMEV 091215Z AUTO 15004KT 10SM CLR 12/04 A3013 RMK AO2,M
RTS,2021-09-09 12:15,-119.8764,39.6682,1539.00,62.60,30.20,29.35,0.00,0.00,0.00,30.16,M,10.00,M,FEW,M,M,M,11000.00,M,M,M,M,M,M,M,M,M,M,62.60,KRTS 091215Z AUTO 00000KT 10SM FEW110 17/M01 A3016 RMK AO2,M
BVU,2021-09-09 12:15,-114.8611,35.9475,671.00,80.60,59.00,47.79,20.00,3.00,0.00,29.95,M,10.00,M,CLR,M,M,M,M,M,M,M,M,M,M,M,M,M,M,81.11,KBVU 091215Z AUTO 02003KT 10SM CLR 27/15 A2995 RMK AO2,M
CXP,2021-09-09 12:15,-119.7326,39.1923,1431.00,64.40,35.60,34.22,0.00,0.00,0.00,30.14,M,10.00,M,OVC,M,M,M,4400.00,M,M,M,M,M,M,M,M,M,M,64.40,KCXP 091215Z AUTO 00000KT 10SM OVC044 18/02 A3014 RMK AO2,M
RTS,2021-09-09 12:35,-119.8764,39.6682,1539.00,62.60,30.20,29.35,360.00,3.00,0.00,30.15,M,10.00,M,CLR,M,M,M,M,M,M,M,M,M,M,M,M,M,M,62.60,KRTS 091235Z AUTO 36003KT 10SM CLR 17/M01 A3015 RMK AO2,M
BAM,2021-09-09 12:35,-116.8743,40.5990,1382.36,51.80,19.40,27.62,120.00,3.00,0.00,30.13,M,10.00,M,CLR,M,M,M,M,M,M,M,M,M,M,M,M,M,M,51.80,KBAM 091235Z AUTO 12003KT 10SM CLR 11/M07 A3013 RMK AO1,M
TMT,2021-09-09 12:35,-117.1971,39.4643,1749.34,40.80,20.50,43.87,180.00,3.00,0.00,30.22,M,10.00,M,CLR,M,M,M,M,M,M,M,M,M,M,M,M,M,M,38.75,KTMT 091235Z AUTO 18003KT 10SM CLR 05/M06 A3022 RMK AO2 T00491064,M
BVU,2021-09-09 12:35,-114.8611,35.9475,671.00,80.60,59.00,47.79,30.00,3.00,0.00,29.96,M,10.00,M,CLR,M,M,M,M,M,M,M,M,M,M,M,M,M,M,81.11,KBVU 091235Z AUTO 03003KT 10SM CLR 27/15 A2996 RMK AO2,M
MEV,2021-09-09 12:35,-119.7500,38.9963,1441.42,53.60,37.40,54.07,210.00,3.00,0.00,30.13,M,10.00,M,FEW,M,M,M,2900.00,M,M,M,M,M,M,M,M,M,M,53.60,KMEV 091235Z AUTO 21003KT 10SM FEW029 12/03 A3013 RMK AO2,M
CXP,2021-09-09 12:35,-119.7326,39.1923,1431.00,60.80,37.40,41.71,0.00,0.00,0.00,30.13,M,10.00,M,BKN,BKN,OVC,M,3000.00,3400.00,4500.00,M,M,M,M,M,M,M,M,60.80,KCXP 091235Z AUTO 00000KT 10SM BKN030 BKN034 OVC045 16/03 A3013 RMK AO2,M
LOL,2021-09-09 12:53,-118.5701,40.0684,1192.43,57.00,33.00,40.28,360.00,4.00,0.00,30.05,1013.40,10.00,M,CLR,M,M,M,M,M,M,M,M,M,M,M,M,M,M,57.00,KLOL 091253Z AUTO 36004KT 10SM CLR 14/01 A3005 RMK AO2 SLP134 T01390006,M
DRA,2021-09-09 12:53,-116.0278,36.6206,1009.00,75.00,43.00,31.79,100.00,6.00,0.00,30.03,1011.20,10.00,M,CLR,M,M,M,M,M,M,M,M,M,M,M,M,M,M,75.00,KDRA 091253Z AUTO 10006KT 10SM CLR 24/06 A3003 RMK AO2 SLP112 T02390061,M
ELY,2021-09-09 12:53,-114.8453,39.2950,1909.00,48.00,18.00,29.96,160.00,8.00,0.00,30.26,1014.60,10.00,M,CLR,M,M,M,M,M,M,M,M,M,M,M,M,M,M,43.82,KELY 091253Z AUTO 16008KT 10SM CLR 09/M08 A3026 RMK AO2 SLP146 T00891078,M
VGT,2021-09-09 12:53,-115.1933,36.2111,667.00,84.00,55.00,37.05,300.00,4.00,0.00,29.94,1012.30,10.00,M,CLR,M,M,M,M,M,M,M,M,M,M,M,M,M,M,82.85,KVGT 091253Z 30004KT 10SM CLR 29/13 A2994 RMK AO2 SLP123 T02890128,M
P68,2021-09-09 12:53,-116.0056,39.6014,1993.00,54.00,19.00,25.04,200.00,8.00,0.00,30.22,1014.40,M,M,M,M,M,M,M,M,M,M,M,M,M,M,M,M,M,54.00,KP68 091253Z AUTO 20008KT 12/M07 A3022 RMK AO1 SLP144 T01221072,M
BAM,2021-09-09 12:55,-116.8743,40.5990,1382.36,51.80,21.20,29.82,80.00,5.00,0.00,30.12,M,10.00,M,CLR,M,M,M,M,M,M,M,M,M,M,M,M,M,M,51.80,KBAM 091255Z AUTO 08005KT 10SM CLR 11/M06 A3012 RMK AO1,M
MEV,2021-09-09 12:55,-119.7500,38.9963,1441.42,55.40,37.40,50.64,140.00,4.00,0.00,30.12,M,10.00,M,SCT,M,M,M,3000.00,M,M,M,M,M,M,M,M,M,M,55.40,KMEV 091255Z AUTO 14004KT 10SM SCT030 13/03 A3012 RMK AO2,M
CXP,2021-09-09 12:55,-119.7326,39.1923,1431.00,60.80,37.40,41.71,0.00,0.00,0.00,30.13,M,10.00,M,BKN,M,M,M,3300.00,M,M,M,M,M,M,M,M,M,M,60.80,KCXP 091255Z AUTO 00000KT 10SM BKN033 16/03 A3013 RMK AO2,M
RNO,2021-09-09 12:55,-119.7711,39.4839,1341.00,66.00,39.00,37.00,170.00,5.00,0.00,30.10,1013.00,10.00,M,SCT,SCT,M,M,9000.00,15000.00,M,M,M,M,M,M,M,M,M,66.00,KRNO 091255Z 17005KT 10SM SCT090 SCT150 19/04 A3010 RMK AO2 SLP130 T01890039,M
BVU,2021-09-09 12:55,-114.8611,35.9475,671.00,80.60,57.20,44.80,360.00,3.00,0.00,29.96,M,10.00,M,CLR,M,M,M,M,M,M,M,M,M,M,M,M,M,M,80.81,KBVU 091255Z AUTO 36003KT 10SM CLR 27/14 A2996 RMK AO2,M
RTS,2021-09-09 12:55,-119.8764,39.6682,1539.00,62.60,33.80,33.93,140.00,3.00,0.00,30.15,M,10.00,M,CLR,M,M,M,M,M,M,M,M,M,M,M,M,M,M,62.60,KRTS 091255Z AUTO 14003KT 10SM CLR 17/01 A3015 RMK AO2,M
TMT,2021-09-09 12:55,-117.1971,39.4643,1749.34,38.70,18.00,42.78,150.00,3.00,0.00,30.22,M,10.00,M,CLR,M,M,M,M,M,M,M,M,M,M,M,M,M,M,36.35,KTMT 091255Z AUTO 15003KT 10SM CLR 04/M08 A3022 RMK AO2 T00371078,M
EKO,2021-09-09 12:56,-115.7860,40.8242,1367.00,49.00,23.00,35.83,20.00,3.00,0.00,30.16,1016.10,10.00,M,CLR,M,M,M,M,M,M,M,M,M,M,M,M,M,M,48.01,KEKO 091256Z AUTO 02003KT 10SM CLR 09/M05 A3016 RMK AO2 SLP161 T00941050,M
WMC,2021-09-09 12:56,-117.8072,40.9019,1315.00,54.00,27.00,35.05,170.00,7.00,0.00,30.09,1013.90,10.00,M,CLR,M,M,M,M,M,M,M,M,M,M,M,M,M,M,54.00,KWMC 091256Z AUTO 17007KT 10SM CLR 12/M03 A3009 RMK AO2 SLP139 T01221028 $,M
TPH,2021-09-09 12:56,-117.0904,38.0505,1654.00,59.00,21.00,22.76,350.00,9.00,0.00,30.21,1014.60,10.00,M,CLR,M,M,M,M,M,M,M,M,M,M,M,M,M,M,59.00,KTPH 091256Z AUTO 35009KT 10SM CLR 15/M06 A3021 RMK AO2 SLP146 T01501061,M
NFL,2021-09-09 12:56,-118.7010,39.4166,1199.00,62.00,30.90,30.73,110.00,4.00,0.00,30.05,1014.30,10.00,M,CLR,M,M,M,M,M,M,M,M,M,M,M,M,M,M,62.10,KNFL 091256Z AUTO 11004KT 10SM CLR 17/M01 A3005 RMK AO2 SLP143 T01671006,M
LAS,2021-09-09 12:56,-115.1634,36.0719,663.00,85.00,53.00,33.57,280.00,4.00,0.00,29.96,1011.30,8.00,M,BKN,M,M,M,16000.00,M,M,M,M,M,M,M,M,M,M,83.21,KLAS 091256Z 28004KT 8SM BKN160 29/12 A2996 RMK AO2 SLP113 T02940117,M
HND,2021-09-09 12:56,-115.1344,35.9729,742.79,81.00,53.00,38.09,160.00,6.00,0.00,29.99,1013.70,10.00,M,CLR,M,M,M,M,M,M,M,M,M,M,M,M,M,M,80.47,KHND 091256Z AUTO 16006KT 10SM CLR 27/12 A2999 RMK AO2 SLP137 T02720117,M
INS,2021-09-09 12:58,-115.6733,36.5872,955.00,70.30,31.80,23.98,250.00,7.00,0.00,30.03,1011.60,10.00,M,SCT,M,M,M,16000.00,M,M,M,M,M,M,M,M,M,M,70.30,KINS 091258Z AUTO 25007KT 10SM SCT160 21/M00 A3003 RMK AO2 SLP116 T02131001 $,M
LSV,2021-09-09 12:58,-115.0343,36.2362,570.00,83.80,56.00,38.80,30.00,5.00,0.00,29.92,1010.30,10.00,M,SCT,M,M,M,16000.00,M,M,M,M,M,M,M,M,M,M,82.92,KLSV 091258Z AUTO 03005KT 10SM SCT160 29/13 A2992 RMK AO2 SLP103 T02880134 $,M
CXP,2021-09-09 13:15,-119.7326,39.1923,1431.00,60.80,37.40,41.71,0.00,0.00,0.00,30.14,M,10.00,M,SCT,M,M,M,3500.00,M,M,M,M,M,M,M,M,M,M,60.80,KCXP 091315Z AUTO 00000KT 10SM SCT035 16/03 A3014 RMK AO2,M
BAM,2021-09-09 13:15,-116.8743,40.5990,1382.36,50.00,21.20,31.87,50.00,5.00,0.00,30.12,M,10.00,M,CLR,M,M,M,M,M,M,M,M,M,M,M,M,M,M,50.00,KBAM 091315Z AUTO 05005KT 10SM CLR 10/M06 A3012 RMK AO1,M
MEV,2021-09-09 13:15,-119.7500,38.9963,1441.42,53.60,33.80,46.88,130.00,3.00,0.00,30.13,M,10.00,M,FEW,M,M,M,3000.00,M,M,M,M,M,M,M,M,M,M,53.60,KMEV 091315Z AUTO 13003KT 10SM FEW030 12/01 A3013 RMK AO2,M
BVU,2021-09-09 13:15,-114.8611,35.9475,671.00,80.60,57.20,44.80,340.00,4.00,0.00,29.96,M,10.00,M,CLR,M,M,M,M,M,M,M,M,M,M,M,M,M,M,80.81,KBVU 091315Z AUTO 34004KT 10SM CLR 27/14 A2996 RMK AO2,M
RTS,2021-09-09 13:15,-119.8764,39.6682,1539.00,59.00,33.80,38.56,0.00,0.00,0.00,30.15,M,10.00,M,CLR,M,M,M,M,M,M,M,M,M,M,M,M,M,M,59.00,KRTS 091315Z AUTO 00000KT 10SM CLR 15/01 A3015 RMK AO2,M
TMT,2021-09-09 13:15,-117.1971,39.4643,1749.34,37.80,19.80,47.87,170.00,5.00,0.00,30.22,M,10.00,M,CLR,M,M,M,M,M,M,M,M,M,M,M,M,M,M,33.28,KTMT 091315Z AUTO 17005KT 10SM CLR 03/M07 A3022 RMK AO2 T00321068,M
BAM,2021-09-09 13:35,-116.8743,40.5990,1382.36,50.00,23.00,34.39,50.00,3.00,0.00,30.12,M,10.00,M,CLR,M,M,M,M,M,M,M,M,M,M,M,M,M,M,50.00,KBAM 091335Z AUTO 05003KT 10SM CLR 10/M05 A3012 RMK AO1,M
RTS,2021-09-09 13:35,-119.8764,39.6682,1539.00,59.00,33.80,38.56,350.00,3.00,0.00,30.15,M,10.00,M,CLR,M,M,M,M,M,M,M,M,M,M,M,M,M,M,59.00,KRTS 091335Z AUTO 35003KT 10SM CLR 15/01 A3015 RMK AO2,M
CXP,2021-09-09 13:35,-119.7326,39.1923,1431.00,60.80,37.40,41.71,0.00,0.00,0.00,30.14,M,10.00,M,SCT,M,M,M,3600.00,M,M,M,M,M,M,M,M,M,M,60.80,KCXP 091335Z AUTO 00000KT 10SM SCT036 16/03 A3014 RMK AO2,M
BVU,2021-09-09 13:35,-114.8611,35.9475,671.00,80.60,57.20,44.80,0.00,0.00,0.00,29.97,M,10.00,M,CLR,M,M,M,M,M,M,M,M,M,M,M,M,M,M,80.81,KBVU 091335Z AUTO 00000KT 10SM CLR 27/14 A2997 RMK AO2,M
TMT,2021-09-09 13:35,-117.1971,39.4643,1749.34,40.50,21.40,46.11,220.00,6.00,0.00,30.23,M,10.00,M,CLR,M,M,M,M,M,M,M,M,M,M,M,M,M,M,35.77,KTMT 091335Z AUTO 22006KT 10SM CLR 05/M06 A3023 RMK AO2 T00471059,M
MEV,2021-09-09 13:35,-119.7500,38.9963,1441.42,51.80,35.60,53.81,140.00,4.00,0.00,30.13,M,10.00,M,CLR,M,M,M,M,M,M,M,M,M,M,M,M,M,M,51.80,KMEV 091335Z AUTO 14004KT 10SM CLR 11/02 A3013 RMK AO2,M
LOL,2021-09-09 13:53,-118.5701,40.0684,1192.43,56.00,32.00,40.10,80.00,3.00,0.00,30.06,1014.00,10.00,M,CLR,M,M,M,M,M,M,M,M,M,M,M,M,M,M,55.90,KLOL 091353Z AUTO 08003KT 10SM CLR 13/00 A3006 RMK AO2 SLP140 T01330000,M
P68,2021-09-09 13:53,-116.0056,39.6014,1993.00,50.00,21.00,31.60,180.00,5.00,0.00,30.23,1015.80,M,M,M,M,M,M,M,M,M,M,M,M,M,M,M,M,M,50.00,KP68 091353Z AUTO 18005KT 10/M06 A3023 RMK AO1 SLP158 T01001061,M
ELY,2021-09-09 13:53,-114.8453,39.2950,1909.00,51.00,19.90,28.95,180.00,11.00,0.00,30.28,1016.10,10.00,M,CLR,M,M,M,M,M,M,M,M,M,M,M,M,M,M,51.10,KELY 091353Z AUTO 18011KT 10SM CLR 11/M07 A3028 RMK AO2 SLP161 T01061067,M
VGT,2021-09-09 13:53,-115.1933,36.2111,667.00,84.00,55.00,37.05,290.00,4.00,0.00,29.96,1013.00,10.00,M,CLR,M,M,M,M,M,M,M,M,M,M,M,M,M,M,82.85,KVGT 091353Z 29004KT 10SM CLR 29/13 A2996 RMK AO2 SLP130 T02890128,M
DRA,2021-09-09 13:53,-116.0278,36.6206,1009.00,75.00,44.00,33.16,0.00,0.00,0.00,30.05,1012.00,10.00,M,CLR,M,M,M,M,M,M,M,M,M,M,M,M,M,M,75.00,KDRA 091353Z AUTO 00000KT 10SM CLR 24/07 A3005 RMK AO2 SLP120 T02390067,M
MEV,2021-09-09 13:55,-119.7500,38.9963,1441.42,51.80,35.60,53.81,0.00,0.00,0.00,30.14,M,10.00,M,CLR,M,M,M,M,M,M,M,M,M,M,M,M,M,M,51.80,KMEV 091355Z AUTO 00000KT 10SM CLR 11/02 A3014 RMK AO2,M
CXP,2021-09-09 13:55,-119.7326,39.1923,1431.00,59.00,37.40,44.47,200.00,3.00,0.00,30.15,M,10.00,M,CLR,M,M,M,M,M,M,M,M,M,M,M,M,M,M,59.00,KCXP 091355Z AUTO 20003KT 10SM CLR 15/03 A3015 RMK AO2,M
BVU,2021-09-09 13:55,-114.8611,35.9475,671.00,80.60,57.20,44.80,0.00,0.00,0.00,29.97,M,10.00,M,CLR,M,M,M,M,M,M,M,M,M,M,M,M,M,M,80.81,KBVU 091355Z AUTO 00000KT 10SM CLR 27/14 A2997 RMK AO2,M
TMT,2021-09-09 13:55,-117.1971,39.4643,1749.34,41.20,19.80,41.93,0.00,0.00,0.00,30.23,M,10.00,M,CLR,M,M,M,M,M,M,M,M,M,M,M,M,M,M,41.20,KTMT 091355Z AUTO 00000KT 10SM CLR 05/M07 A3023 RMK AO2 T00511068,M
RNO,2021-09-09 13:55,-119.7711,39.4839,1341.00,65.00,38.00,36.82,190.00,3.00,0.00,30.11,1013.50,10.00,M,FEW,SCT,M,M,9000.00,15000.00,M,M,M,M,M,M,M,M,M,64.90,KRNO 091355Z 19003KT 10SM FEW090 SCT150 18/03 A3011 RMK AO2 SLP135 VIRGA FU ALF ALQDS T01830033,M
BAM,2021-09-09 13:55,-116.8743,40.5990,1382.36,50.00,23.00,34.39,0.00,0.00,0.00,30.13,M,10.00,M,CLR,M,M,M,M,M,M,M,M,M,M,M,M,M,M,50.00,KBAM 091355Z AUTO 00000KT 10SM CLR 10/M05 A3013 RMK AO1,M
RTS,2021-09-09 13:55,-119.8764,39.6682,1539.00,59.00,30.20,33.35,340.00,3.00,0.00,30.15,M,10.00,M,CLR,M,M,M,M,M,M,M,M,M,M,M,M,M,M,59.00,KRTS 091355Z AUTO 34003KT 10SM CLR 15/M01 A3015 RMK AO2,M
WMC,2021-09-09 13:56,-117.8072,40.9019,1315.00,56.00,32.00,40.10,50.00,3.00,0.00,30.10,1014.60,10.00,M,CLR,M,M,M,M,M,M,M,M,M,M,M,M,M,M,55.90,KWMC 091356Z AUTO 05003KT 10SM CLR 13/00 A3010 RMK AO2 SLP146 T01330000 $,M
EKO,2021-09-09 13:56,-115.7860,40.8242,1367.00,50.00,21.90,32.83,60.00,5.00,0.00,30.18,1017.30,10.00,M,CLR,M,M,M,M,M,M,M,M,M,M,M,M,M,M,50.00,KEKO 091356Z AUTO 06005KT 10SM CLR 10/M06 A3018 RMK AO2 SLP173 T01001056,M
TPH,2021-09-09 13:56,-117.0904,38.0505,1654.00,59.00,21.90,23.64,360.00,7.00,0.00,30.22,1015.20,10.00,M,CLR,M,M,M,M,M,M,M,M,M,M,M,M,M,M,59.00,KTPH 091356Z AUTO 36007KT 10SM CLR 15/M06 A3022 RMK AO2 SLP152 T01501056,M
LAS,2021-09-09 13:56,-115.1634,36.0719,663.00,86.00,54.00,33.50,0.00,0.00,0.00,29.97,1011.80,10.00,M,FEW,M,M,M,16000.00,M,M,M,M,M,M,M,M,M,M,84.26,KLAS 091356Z 00000KT 10SM FEW160 30/12 A2997 RMK AO2 SLP118 T03000122,M
HND,2021-09-09 13:56,-115.1344,35.9729,742.79,82.00,54.00,38.11,180.00,8.00,0.00,30.01,1014.30,10.00,M,CLR,M,M,M,M,M,M,M,M,M,M,M,M,M,M,81.24,KHND 091356Z 18008KT 10SM CLR 28/12 A3001 RMK AO2 SLP143 T02780122,M
NFL,2021-09-09 13:56,-118.7010,39.4166,1199.00,61.00,30.90,31.95,0.00,0.00,0.00,30.06,1014.70,10.00,M,CLR,M,M,M,M,M,M,M,M,M,M,M,M,M,M,61.00,KNFL 091356Z AUTO 00000KT 10SM CLR 16/M01 A3006 RMK AO2 SLP147 T01611006,M
LSV,2021-09-09 13:58,-115.0343,36.2362,570.00,82.80,56.00,39.79,0.00,0.00,0.00,29.94,1011.10,10.00,M,CLR,M,M,M,M,M,M,M,M,M,M,M,M,M,M,82.12,KLSV 091358Z AUTO 00000KT 10SM CLR 28/13 A2994 RMK AO2 SLP111 T02820133 $,M
INS,2021-09-09 13:58,-115.6733,36.5872,955.00,71.80,32.00,22.97,280.00,5.00,0.00,30.04,1012.10,10.00,M,FEW,M,M,M,16000.00,M,M,M,M,M,M,M,M,M,M,71.80,KINS 091358Z AUTO 28005KT 10SM FEW160 22/00 A3004 RMK AO2 SLP121 T02210000 $,M
CXP,2021-09-09 14:15,-119.7326,39.1923,1431.00,62.60,35.60,36.45,330.00,4.00,0.00,30.15,M,10.00,M,CLR,M,M,M,M,M,M,M,M,M,M,M,M,M,M,62.60,KCXP 091415Z AUTO 33004KT 10SM CLR 17/02 A3015 RMK AO2,M
RTS,2021-09-09 14:15,-119.8764,39.6682,1539.00,59.00,30.20,33.35,20.00,3.00,0.00,30.16,M,10.00,M,CLR,M,M,M,M,M,M,M,M,M,M,M,M,M,M,59.00,KRTS 091415Z AUTO 02003KT 10SM CLR 15/M01 A3016 RMK AO2,M
TMT,2021-09-09 14:15,-117.1971,39.4643,1749.34,41.70,21.60,44.39,0.00,0.00,0.00,30.24,M,10.00,M,CLR,M,M,M,M,M,M,M,M,M,M,M,M,M,M,41.70,KTMT 091415Z AUTO 00000KT 10SM CLR 05/M06 A3024 RMK AO2 T00541058,M
BAM,2021-09-09 14:15,-116.8743,40.5990,1382.36,53.60,23.00,30.11,0.00,0.00,0.00,30.13,M,10.00,M,CLR,M,M,M,M,M,M,M,M,M,M,M,M,M,M,53.60,KBAM 091415Z AUTO 00000KT 10SM CLR 12/M05 A3013 RMK AO1,M
BVU,2021-09-09 14:15,-114.8611,35.9475,671.00,84.20,55.40,37.35,0.00,0.00,0.00,29.98,M,10.00,M,CLR,M,M,M,M,M,M,M,M,M,M,M,M,M,M,83.09,KBVU 091415Z AUTO 00000KT 10SM CLR 29/13 A2998 RMK AO2,M
MEV,2021-09-09 14:15,-119.7500,38.9963,1441.42,55.40,35.60,47.16,100.00,5.00,0.00,30.14,M,10.00,M,CLR,M,M,M,M,M,M,M,M,M,M,M,M,M,M,55.40,KMEV 091415Z AUTO 10005KT 10SM CLR 13/02 A3014 RMK AO2,M
RTS,2021-09-09 14:35,-119.8764,39.6682,1539.00,60.80,30.20,31.28,0.00,0.00,0.00,30.16,M,10.00,M,CLR,M,M,M,M,M,M,M,M,M,M,M,M,M,M,60.80,KRTS 091435Z AUTO 00000KT 10SM CLR 16/M01 A3016 RMK AO2,M
BVU,2021-09-09 14:35,-114.8611,35.9475,671.00,86.00,57.20,37.62,0.00,0.00,0.00,29.98,M,10.00,M,CLR,M,M,M,M,M,M,M,M,M,M,M,M,M,M,84.97,KBVU 091435Z AUTO 00000KT 10SM CLR 30/14 A2998 RMK AO2,M
MEV,2021-09-09 14:35,-119.7500,38.9963,1441.42,59.00,37.40,44.47,0.00,0.00,0.00,30.14,M,10.00,M,CLR,M,M,M,M,M,M,M,M,M,M,M,M,M,M,59.00,KMEV 091435Z AUTO 00000KT 10SM CLR 15/03 A3014 RMK AO2,M
TMT,2021-09-09 14:35,-117.1971,39.4643,1749.34,46.40,21.90,37.57,0.00,0.00,0.00,30.24,M,10.00,M,CLR,M,M,M,M,M,M,M,M,M,M,M,M,M,M,46.40,KTMT 091435Z AUTO 00000KT 10SM CLR 08/M06 A3024 RMK AO2 T00801056,M
BAM,2021-09-09 14:35,-116.8743,40.5990,1382.36,57.20,23.00,26.42,0.00,0.00,0.00,30.13,M,10.00,M,CLR,M,M,M,M,M,M,M,M,M,M,M,M,M,M,57.20,KBAM 091435Z AUTO 00000KT 10SM CLR 14/M05 A3013 RMK AO1,M
CXP,2021-09-09 14:35,-119.7326,39.1923,1431.00,64.40,35.60,34.22,290.00,4.00,0.00,30.15,M,10.00,M,CLR,M,M,M,M,M,M,M,M,M,M,M,M,M,M,64.40,KCXP 091435Z AUTO 29004KT 10SM CLR 18/02 A3015 RMK AO2,M
NFL,2021-09-09 14:37,-118.7010,39.4166,1199.00,65.00,32.00,29.12,0.00,0.00,0.00,30.07,M,7.00,M,FEW,SCT,M,M,7000.00,12000.00,M,M,M,M,M,M,M,M,M,64.90,KNFL 091437Z 00000KT 7SM FEW070 SCT120 18/00 A3007 RMK AO2 T01830000,M
VGT,2021-09-09 14:53,-115.1933,36.2111,667.00,89.00,57.00,33.85,20.00,3.00,0.00,29.97,1013.20,10.00,M,CLR,M,M,M,M,M,M,M,M,M,M,M,M,M,M,87.74,KVGT 091453Z 02003KT 10SM CLR 32/14 A2997 RMK AO2 SLP132 T03170139 52010,M
ELY,2021-09-09 14:53,-114.8453,39.2950,1909.00,64.00,24.10,21.73,160.00,7.00,0.00,30.28,1015.70,10.00,M,CLR,M,M,M,M,M,M,M,M,M,M,M,M,M,M,64.00,KELY 091453Z AUTO 16007KT 10SM CLR 18/M04 A3028 RMK AO2 SLP157 T01781044 53006,M
P68,2021-09-09 14:53,-116.0056,39.6014,1993.00,61.00,21.90,22.02,200.00,4.00,0.00,30.24,1015.60,M,M,M,M,M,M,M,M,M,M,M,M,M,M,M,M,M,61.00,KP68 091453Z AUTO 20004KT 16/M06 A3024 RMK AO1 SLP156 T01611056 52005,M
DRA,2021-09-09 14:53,-116.0278,36.6206,1009.00,81.00,43.00,26.08,180.00,3.00,0.00,30.06,1012.50,10.00,M,CLR,M,M,M,M,M,M,M,M,M,M,M,M,M,M,79.54,KDRA 091453Z AUTO 18003KT 10SM CLR 27/06 A3006 RMK AO2 SLP125 T02720061 51013,M
LOL,2021-09-09 14:53,-118.5701,40.0684,1192.43,64.00,38.00,38.00,100.00,4.00,0.00,30.06,1014.20,10.00,M,CLR,M,M,M,M,M,M,M,M,M,M,M,M,M,M,64.00,KLOL 091453Z AUTO 10004KT 10SM CLR 18/03 A3006 RMK AO2 SLP142 T01780033 55000,M
TMT,2021-09-09 14:55,-117.1971,39.4643,1749.34,50.50,22.80,33.47,0.00,0.00,0.00,30.24,M,10.00,M,CLR,M,M,M,M,M,M,M,M,M,M,M,M,M,M,50.50,KTMT 091455Z AUTO 00000KT 10SM CLR 10/M05 A3024 RMK AO2 T01031051,M
MEV,2021-09-09 14:55,-119.7500,38.9963,1441.42,62.60,33.80,33.93,0.00,0.00,0.00,30.15,M,10.00,M,CLR,M,M,M,M,M,M,M,M,M,M,M,M,M,M,62.60,KMEV 091455Z AUTO 00000KT 10SM CLR 17/01 A3015 RMK AO2,M
BVU,2021-09-09 14:55,-114.8611,35.9475,671.00,87.80,55.40,33.29,0.00,0.00,0.00,29.98,M,10.00,M,CLR,M,M,M,M,M,M,M,M,M,M,M,M,M,M,86.11,KBVU 091455Z AUTO 00000KT 10SM CLR 31/13 A2998 RMK AO2,M
CXP,2021-09-09 14:55,-119.7326,39.1923,1431.00,64.40,37.40,36.74,0.00,0.00,0.00,30.15,M,10.00,M,CLR,M,M,M,M,M,M,M,M,M,M,M,M,M,M,64.40,KCXP 091455Z AUTO 00000KT 10SM CLR 18/03 A3015 RMK AO2,M
RTS,2021-09-09 14:55,-119.8764,39.6682,1539.00,62.60,30.20,29.35,0.00,0.00,0.00,30.16,M,10.00,M,CLR,M,M,M,M,M,M,M,M,M,M,M,M,M,M,62.60,KRTS 091455Z AUTO 00000KT 10SM CLR 17/M01 A3016 RMK AO2,M
RNO,2021-09-09 14:55,-119.7711,39.4839,1341.00,67.00,39.00,35.86,0.00,0.00,0.00,30.11,1013.70,10.00,M,SCT,M,M,M,11000.00,M,M,M,M,M,M,M,M,M,M,66.90,KRNO 091455Z 00000KT 10SM SCT110 19/04 A3011 RMK AO2 SLP137 VIRGA FU ALF ALQDS T01940039 52006,M
BAM,2021-09-09 14:55,-116.8743,40.5990,1382.36,62.60,24.80,23.50,0.00,0.00,0.00,30.14,M,10.00,M,CLR,M,M,M,M,M,M,M,M,M,M,M,M,M,M,62.60,KBAM 091455Z AUTO 00000KT 10SM CLR 17/M04 A3014 RMK AO1,M
NFL,2021-09-09 14:56,-118.7010,39.4166,1199.00,67.00,35.00,30.75,180.00,4.00,0.00,30.07,1015.10,10.00,M,FEW,SCT,M,M,7000.00,12000.00,M,M,M,M,M,M,M,M,M,66.90,KNFL 091456Z 18004KT 10SM FEW070 SCT120 19/02 A3007 RMK AO2 SLP151 T01940017 53005,M
HND,2021-09-09 14:56,-115.1344,35.9729,742.79,87.00,56.00,34.66,190.00,7.00,0.00,30.01,1014.50,10.00,M,CLR,M,M,M,M,M,M,M,M,M,M,M,M,M,M,85.61,KHND 091456Z 19007KT 10SM CLR 31/13 A3001 RMK AO2 SLP145 T03060133 51008,M
TPH,2021-09-09 14:56,-117.0904,38.0505,1654.00,66.00,23.00,19.35,360.00,8.00,0.00,30.23,1016.10,10.00,M,CLR,M,M,M,M,M,M,M,M,M,M,M,M,M,M,66.00,KTPH 091456Z AUTO 36008KT 10SM CLR 19/M05 A3023 RMK AO2 SLP161 T01891050 53008,M
WMC,2021-09-09 14:56,-117.8072,40.9019,1315.00,66.00,32.00,28.03,0.00,0.00,0.00,30.11,1014.90,10.00,M,CLR,M,M,M,M,M,M,M,M,M,M,M,M,M,M,66.00,KWMC 091456Z AUTO 00000KT 10SM CLR 19/00 A3011 RMK AO2 SLP149 T01890000 52006,M
EKO,2021-09-09 14:56,-115.7860,40.8242,1367.00,55.00,19.90,25.09,80.00,6.00,0.00,30.20,1017.70,10.00,M,CLR,M,M,M,M,M,M,M,M,M,M,M,M,M,M,55.00,KEKO 091456Z AUTO 08006KT 10SM CLR 13/M07 A3020 RMK AO2 SLP177 T01281067 53009,M
LAS,2021-09-09 14:56,-115.1634,36.0719,663.00,89.00,52.00,28.21,0.00,0.00,0.00,29.98,1012.10,10.00,M,FEW,M,M,M,16000.00,M,M,M,M,M,M,M,M,M,M,86.58,KLAS 091456Z 00000KT 10SM FEW160 32/11 A2998 RMK AO2 SLP121 T03170111 53009,M
LSV,2021-09-09 14:58,-115.0343,36.2362,570.00,85.00,55.80,37.05,0.00,0.00,0.00,29.95,M,10.00,M,CLR,M,M,M,M,M,M,M,M,M,M,M,M,M,M,83.72,KLSV 091458Z AUTO 00000KT 10SM CLR 29/13 A2995 RMK AO2 SLPNO T02940132 52012 $,M
INS,2021-09-09 14:58,-115.6733,36.5872,955.00,77.70,37.00,22.92,0.00,0.00,0.00,30.05,1012.50,10.00,M,CLR,M,M,M,M,M,M,M,M,M,M,M,M,M,M,77.70,KINS 091458Z AUTO 00000KT 10SM CLR 25/03 A3005 RMK AO2 SLP125 T02540027 52010 $,M
RTS,2021-09-09 15:15,-119.8764,39.6682,1539.00,64.40,30.20,27.55,0.00,0.00,0.00,30.16,M,10.00,M,CLR,M,M,M,M,M,M,M,M,M,M,M,M,M,M,64.40,KRTS 091515Z AUTO 00000KT 10SM CLR 18/M01 A3016 RMK AO2,M
BVU,2021-09-09 15:15,-114.8611,35.9475,671.00,89.60,55.40,31.45,0.00,0.00,0.00,29.99,M,10.00,M,CLR,M,M,M,M,M,M,M,M,M,M,M,M,M,M,87.78,KBVU 091515Z AUTO 00000KT 10SM CLR 32/13 A2999 RMK AO2,M
BAM,2021-09-09 15:15,-116.8743,40.5990,1382.36,64.40,24.80,22.06,0.00,0.00,0.00,30.15,M,10.00,M,CLR,M,M,M,M,M,M,M,M,M,M,M,M,M,M,64.40,KBAM 091515Z AUTO 00000KT 10SM CLR 18/M04 A3015 RMK AO1,M
TMT,2021-09-09 15:15,-117.1971,39.4643,1749.34,56.70,25.30,29.61,0.00,0.00,0.00,30.24,M,10.00,M,CLR,M,M,M,M,M,M,M,M,M,M,M,M,M,M,56.70,KTMT 091515Z AUTO 00000KT 10SM CLR 14/M04 A3024 RMK AO2 T01371037,M
MEV,2021-09-09 15:15,-119.7500,38.9963,1441.42,64.40,35.60,34.22,0.00,0.00,0.00,30.15,M,5.00,M,CLR,M,M,M,M,M,M,M,HZ,M,M,M,M,M,M,64.40,KMEV 091515Z AUTO 00000KT 5SM HZ CLR 18/02 A3015 RMK AO2,M
CXP,2021-09-09 15:15,-119.7326,39.1923,1431.00,62.60,37.40,39.14,0.00,0.00,0.00,30.16,M,9.00,M,CLR,M,M,M,M,M,M,M,M,M,M,M,M,M,M,62.60,KCXP 091515Z AUTO 00000KT 9SM CLR 17/03 A3016 RMK AO2,M
MEV,2021-09-09 15:35,-119.7500,38.9963,1441.42,64.40,39.20,39.43,0.00,0.00,0.00,30.14,M,9.00,M,CLR,M,M,M,M,M,M,M,M,M,M,M,M,M,M,64.40,KMEV 091535Z AUTO 00000KT 9SM CLR 18/04 A3014 RMK AO2,M
TMT,2021-09-09 15:35,-117.1971,39.4643,1749.34,60.80,26.40,26.76,0.00,0.00,0.00,30.24,M,10.00,M,CLR,M,M,M,M,M,M,M,M,M,M,M,M,M,M,60.80,KTMT 091535Z AUTO 00000KT 10SM CLR 16/M03 A3024 RMK AO2 T01601031,M
BVU,2021-09-09 15:35,-114.8611,35.9475,671.00,91.40,55.40,29.72,0.00,0.00,0.00,29.99,M,10.00,M,CLR,M,M,M,M,M,M,M,M,M,M,M,M,M,M,89.53,KBVU 091535Z AUTO 00000KT 10SM CLR 33/13 A2999 RMK AO2,M
RTS,2021-09-09 15:35,-119.8764,39.6682,1539.00,64.40,37.40,36.74,0.00,0.00,0.00,30.17,M,10.00,M,CLR,M,M,M,M,M,M,M,M,M,M,M,M,M,M,64.40,KRTS 091535Z AUTO 00000KT 10SM CLR 18/03 A3017 RMK AO2,M
BAM,2021-09-09 15:35,-116.8743,40.5990,1382.36,69.80,23.00,16.98,50.00,7.00,0.00,30.14,M,10.00,M,CLR,M,M,M,M,M,M,M,M,M,M,M,M,M,M,69.80,KBAM 091535Z AUTO 05007KT 10SM CLR 21/M05 A3014 RMK AO1,M
CXP,2021-09-09 15:35,-119.7326,39.1923,1431.00,66.20,37.40,34.51,0.00,0.00,0.00,30.16,M,10.00,M,CLR,M,M,M,M,M,M,M,M,M,M,M,M,M,M,66.20,KCXP 091535Z AUTO 00000KT 10SM CLR 19/03 A3016 RMK AO2,M
LOL,2021-09-09 15:53,-118.5701,40.0684,1192.43,72.00,38.00,28.85,0.00,0.00,0.00,30.07,1014.50,10.00,M,CLR,M,M,M,M,M,M,M,M,M,M,M,M,M,M,72.00,KLOL 091553Z AUTO 00000KT 10SM CLR 22/03 A3007 RMK AO2 SLP145 T02220033,M
DRA,2021-09-09 15:53,-116.0278,36.6206,1009.00,88.00,49.00,26.03,0.00,0.00,0.00,30.06,1012.20,10.00,M,CLR,M,M,M,M,M,M,M,M,M,M,M,M,M,M,85.13,KDRA 091553Z AUTO 00000KT 10SM CLR 31/09 A3006 RMK AO2 SLP122 T03110094,M
VGT,2021-09-09 15:53,-115.1933,36.2111,667.00,92.00,57.00,31.00,100.00,3.00,0.00,29.98,1013.50,10.00,M,CLR,M,M,M,M,M,M,M,M,M,M,M,M,M,M,90.50,KVGT 091553Z 10003KT 10SM CLR 33/14 A2998 RMK AO2 SLP135 T03330139,M
P68,2021-09-09 15:53,-116.0056,39.6014,1993.00,73.00,23.00,15.23,220.00,4.00,0.00,30.24,1014.20,M,M,M,M,M,M,M,M,M,M,M,M,M,M,M,M,M,73.00,KP68 091553Z AUTO 22004KT 23/M05 A3024 RMK AO1 SLP142 T02281050,M
ELY,2021-09-09 15:53,-114.8453,39.2950,1909.00,78.00,24.10,13.45,210.00,10.00,0.00,30.28,1014.40,10.00,M,CLR,M,M,M,M,M,M,M,M,M,M,M,M,M,M,78.10,KELY 091553Z AUTO 21010KT 10SM CLR 26/M04 A3028 RMK AO2 SLP144 T02561044,M
RTS,2021-09-09 15:55,-119.8764,39.6682,1539.00,69.80,33.80,26.43,0.00,0.00,0.00,30.16,M,10.00,M,CLR,M,M,M,M,M,M,M,M,M,M,M,M,M,M,69.80,KRTS 091555Z AUTO 00000KT 10SM CLR 21/01 A3016 RMK AO2,M
BVU,2021-09-09 15:55,-114.8611,35.9475,671.00,91.40,55.40,29.72,0.00,0.00,0.00,29.99,M,10.00,M,CLR,M,M,M,M,M,M,M,M,M,M,M,M,M,M,89.53,KBVU 091555Z AUTO 00000KT 10SM CLR 33/13 A2999 RMK AO2,M
BAM,2021-09-09 15:55,-116.8743,40.5990,1382.36,69.80,24.80,18.30,80.00,4.00,0.00,30.14,M,1.00,M,VV ,M,M,M,700.00,M,M,M,M,M,M,M,M,M,M,69.80,KBAM 091555Z AUTO 08004KT 1SM VV007 21/M04 A3014 RMK AO1,M
TMT,2021-09-09 15:55,-117.1971,39.4643,1749.34,65.50,28.00,24.23,0.00,0.00,0.00,30.24,M,10.00,M,CLR,M,M,M,M,M,M,M,M,M,M,M,M,M,M,65.50,KTMT 091555Z AUTO 00000KT 10SM CLR 19/M02 A3024 RMK AO2 T01861022,M
MEV,2021-09-09 15:55,-119.7500,38.9963,1441.42,68.00,37.40,32.43,0.00,0.00,0.00,30.14,M,10.00,M,CLR,M,M,M,M,M,M,M,M,M,M,M,M,M,M,68.00,KMEV 091555Z AUTO 00000KT 10SM CLR 20/03 A3014 RMK AO2,M
RNO,2021-09-09 15:55,-119.7711,39.4839,1341.00,73.00,39.00,29.12,0.00,0.00,0.00,30.12,1013.80,10.00,M,SCT,M,M,M,11000.00,M,M,M,M,M,M,M,M,M,M,73.00,KRNO 091555Z 00000KT 10SM SCT110 23/04 A3012 RMK AO2 SLP138 VIRGA HZ ALQDS T02280039,M
CXP,2021-09-09 15:55,-119.7326,39.1923,1431.00,69.80,33.80,26.43,0.00,0.00,0.00,30.15,M,10.00,M,CLR,M,M,M,M,M,M,M,M,M,M,M,M,M,M,69.80,KCXP 091555Z AUTO 00000KT 10SM CLR 21/01 A3015 RMK AO2,M
WMC,2021-09-09 15:56,-117.8072,40.9019,1315.00,73.00,34.00,23.90,70.00,6.00,0.00,30.10,1014.30,10.00,M,CLR,M,M,M,M,M,M,M,M,M,M,M,M,M,M,73.00,KWMC 091556Z AUTO 07006KT 10SM CLR 23/01 A3010 RMK AO2 SLP143 T02280011,M
HND,2021-09-09 15:56,-115.1344,35.9729,742.79,92.00,58.00,32.03,220.00,4.00,0.00,30.02,1014.70,10.00,M,CLR,M,M,M,M,M,M,M,M,M,M,M,M,M,M,90.80,KHND 091556Z 22004KT 10SM CLR 33/14 A3002 RMK AO2 SLP147 T03330144,M
NFL,2021-09-09 15:56,-118.7010,39.4166,1199.00,79.00,32.00,18.06,170.00,3.00,0.00,30.07,1015.10,10.00,M,FEW,FEW,M,M,7000.00,12000.00,M,M,M,M,M,M,M,M,M,79.00,KNFL 091556Z 17003KT 10SM FEW070 FEW120 26/00 A3007 RMK AO2 SLP151 T02610000,M
TPH,2021-09-09 15:56,-117.0904,38.0505,1654.00,76.00,33.00,20.92,0.00,0.00,0.00,30.23,1015.60,10.00,M,CLR,M,M,M,M,M,M,M,M,M,M,M,M,M,M,75.90,KTPH 091556Z AUTO 00000KT 10SM CLR 24/01 A3023 RMK AO2 SLP156 T02440006,M
LAS,2021-09-09 15:56,-115.1634,36.0719,663.00,92.00,56.00,29.80,0.00,0.00,0.00,30.00,1012.40,10.00,M,SCT,M,M,M,16000.00,M,M,M,M,M,M,M,M,M,M,90.17,KLAS 091556Z 00000KT 10SM SCT160 33/13 A3000 RMK AO2 SLP124 T03330133,M
LSV,2021-09-09 15:56,-115.0343,36.2362,570.00,91.20,56.30,30.90,0.00,0.00,0.00,29.96,M,10.00,M,CLR,M,M,M,M,M,M,M,M,M,M,M,M,M,M,89.58,KLSV 091556Z AUTO 00000KT 10SM CLR 33/14 A2996 RMK AO2 SLPNO T03290135 $,M
EKO,2021-09-09 15:56,-115.7860,40.8242,1367.00,63.00,21.90,20.52,M,3.00,0.00,30.19,1017.80,10.00,M,CLR,M,M,M,M,M,M,M,M,M,M,M,M,M,M,63.00,KEKO 091556Z AUTO VRB03KT 10SM CLR 17/M06 A3019 RMK AO2 SLP178 T01721056,M
CXP,2021-09-09 16:15,-119.7326,39.1923,1431.00,73.40,32.00,21.76,0.00,0.00,0.00,30.15,M,10.00,M,CLR,M,M,M,M,M,M,M,M,M,M,M,M,M,M,73.40,KCXP 091615Z AUTO 00000KT 10SM CLR 23/M00 A3015 RMK AO2,M
BAM,2021-09-09 16:15,-116.8743,40.5990,1382.36,73.40,26.60,17.46,70.00,4.00,0.00,30.14,M,0.50,M,VV ,M,M,M,500.00,M,M,M,M,M,M,M,M,M,M,73.40,KBAM 091615Z AUTO 07004KT 1/2SM VV005 23/M03 A3014 RMK AO1,M
RTS,2021-09-09 16:15,-119.8764,39.6682,1539.00,73.40,33.80,23.39,0.00,0.00,0.00,30.16,M,10.00,M,CLR,M,M,M,M,M,M,M,M,M,M,M,M,M,M,73.40,KRTS 091615Z AUTO 00000KT 10SM CLR 23/01 A3016 RMK AO2,M
MEV,2021-09-09 16:15,-119.7500,38.9963,1441.42,71.60,37.40,28.68,0.00,0.00,0.00,30.14,M,10.00,M,CLR,M,M,M,M,M,M,M,M,M,M,M,M,M,M,71.60,KMEV 091615Z AUTO 00000KT 10SM CLR 22/03 A3014 RMK AO2,M
TMT,2021-09-09 16:15,-117.1971,39.4643,1749.34,69.00,29.10,22.54,0.00,0.00,0.00,30.24,M,10.00,M,CLR,M,M,M,M,M,M,M,M,M,M,M,M,M,M,68.90,KTMT 091615Z AUTO 00000KT 10SM CLR 21/M02 A3024 RMK AO2 T02051016,M
BVU,2021-09-09 16:15,-114.8611,35.9475,671.00,91.40,55.40,29.72,0.00,0.00,0.00,29.99,M,10.00,M,CLR,M,M,M,M,M,M,M,M,M,M,M,M,M,M,89.53,KBVU 091615Z AUTO 00000KT 10SM CLR 33/13 A2999 RMK AO2,M
TMT,2021-09-09 16:35,-117.1971,39.4643,1749.34,74.00,30.90,20.33,0.00,0.00,0.00,30.24,M,10.00,M,CLR,M,M,M,M,M,M,M,M,M,M,M,M,M,M,74.10,KTMT 091635Z AUTO 00000KT 10SM CLR 23/M01 A3024 RMK AO2 T02341006,M
BVU,2021-09-09 16:35,-114.8611,35.9475,671.00,93.20,57.20,29.99,0.00,0.00,0.00,29.99,M,10.00,M,CLR,M,M,M,M,M,M,M,M,M,M,M,M,M,M,91.91,KBVU 091635Z AUTO 00000KT 10SM CLR 34/14 A2999 RMK AO2,M
CXP,2021-09-09 16:35,-119.7326,39.1923,1431.00,75.20,32.00,20.49,0.00,0.00,0.00,30.14,M,10.00,M,CLR,M,M,M,M,M,M,M,M,M,M,M,M,M,M,75.20,KCXP 091635Z AUTO 00000KT 10SM CLR 24/M00 A3014 RMK AO2,M
MEV,2021-09-09 16:35,-119.7500,38.9963,1441.42,73.40,37.40,26.98,0.00,0.00,0.00,30.13,M,10.00,M,CLR,M,M,M,M,M,M,M,M,M,M,M,M,M,M,73.40,KMEV 091635Z AUTO 00000KT 10SM CLR 23/03 A3013 RMK AO2,M
RTS,2021-09-09 16:35,-119.8764,39.6682,1539.00,78.80,30.20,16.90,0.00,0.00,0.00,30.16,M,10.00,M,CLR,M,M,M,M,M,M,M,M,M,M,M,M,M,M,78.80,KRTS 091635Z AUTO 00000KT 10SM CLR 26/M01 A3016 RMK AO2,M
BAM,2021-09-09 16:35,-116.8743,40.5990,1382.36,77.00,26.60,15.48,60.00,3.00,0.00,30.15,M,0.50,M,VV ,M,M,M,500.00,M,M,M,M,M,M,M,M,M,M,77.00,KBAM 091635Z AUTO 06003KT 1/2SM VV005 25/M03 A3015 RMK AO1,M
CXP,2021-09-09 16:50,-119.7326,39.1923,1431.00,77.00,32.00,19.30,0.00,0.00,0.00,30.14,M,10.00,M,CLR,M,M,M,M,M,M,M,M,M,M,M,M,M,M,77.00,KCXP 091650Z AUTO 00000KT 10SM CLR 25/M00 A3014 RMK AO2,M
VGT,2021-09-09 16:53,-115.1933,36.2111,667.00,95.00,57.00,28.16,150.00,4.00,0.00,29.98,1013.50,10.00,M,CLR,M,M,M,M,M,M,M,M,M,M,M,M,M,M,93.75,KVGT 091653Z 15004KT 10SM CLR 35/14 A2998 RMK AO2 SLP135 T03500139,M
LOL,2021-09-09 16:53,-118.5701,40.0684,1192.43,81.00,37.00,20.65,250.00,4.00,0.00,30.07,1014.20,10.00,M,CLR,M,M,M,M,M,M,M,M,M,M,M,M,M,M,79.24,KLOL 091653Z AUTO 25004KT 10SM CLR 27/03 A3007 RMK AO2 SLP142 T02720028,M
DRA,2021-09-09 16:53,-116.0278,36.6206,1009.00,94.00,51.00,23.48,200.00,6.00,0.00,30.06,1012.00,10.00,M,CLR,M,M,M,M,M,M,M,M,M,M,M,M,M,M,91.00,KDRA 091653Z AUTO 20006KT 10SM CLR 34/11 A3006 RMK AO2 SLP120 T03440106,M
P68,2021-09-09 16:53,-116.0056,39.6014,1993.00,82.00,26.10,12.87,80.00,3.00,0.00,30.23,1014.00,M,M,M,M,M,M,M,M,M,M,M,M,M,M,M,M,M,79.62,KP68 091653Z AUTO 08003KT 28/M03 A3023 RMK AO1 SLP140 T02781033,M
ELY,2021-09-09 16:53,-114.8453,39.2950,1909.00,84.00,25.00,11.52,190.00,8.00,0.00,30.29,1014.50,10.00,M,CLR,M,M,M,M,M,M,M,M,M,M,M,M,M,M,80.88,KELY 091653Z AUTO 19008KT 10SM CLR 29/M04 A3029 RMK AO2 SLP145 T02891039,M
TMT,2021-09-09 16:55,-117.1971,39.4643,1749.34,78.00,30.40,17.56,130.00,4.00,0.00,30.24,M,10.00,M,CLR,M,M,M,M,M,M,M,M,M,M,M,M,M,M,77.90,KTMT 091655Z AUTO 13004KT 10SM CLR 26/M01 A3024 RMK AO2 T02551009,M
RNO,2021-09-09 16:55,-119.7711,39.4839,1341.00,78.00,37.00,22.71,0.00,0.00,0.00,30.10,1013.10,10.00,M,SCT,M,M,M,11000.00,M,M,M,M,M,M,M,M,M,M,78.10,KRNO 091655Z 00000KT 10SM SCT110 26/03 A3010 RMK AO2 SLP131 HZ ALQDS T02560028,M
BVU,2021-09-09 16:55,-114.8611,35.9475,671.00,95.00,57.20,28.37,0.00,0.00,0.00,29.99,M,10.00,M,CLR,M,M,M,M,M,M,M,M,M,M,M,M,M,M,93.82,KBVU 091655Z AUTO 00000KT 10SM CLR 35/14 A2999 RMK AO2,M
MEV,2021-09-09 16:55,-119.7500,38.9963,1441.42,77.00,37.40,23.93,0.00,0.00,0.00,30.12,M,10.00,M,CLR,M,M,M,M,M,M,M,M,M,M,M,M,M,M,77.00,KMEV 091655Z AUTO 00000KT 10SM CLR 25/03 A3012 RMK AO2,M
RTS,2021-09-09 16:55,-119.8764,39.6682,1539.00,80.60,32.00,17.14,110.00,4.00,0.00,30.15,M,10.00,M,CLR,M,M,M,M,M,M,M,M,M,M,M,M,M,M,78.82,KRTS 091655Z AUTO 11004KT 10SM CLR 27/M00 A3015 RMK AO2,M
BAM,2021-09-09 16:55,-116.8743,40.5990,1382.36,80.60,24.80,12.76,50.00,6.00,0.00,30.14,M,0.75,M,VV ,M,M,M,500.00,M,M,M,M,M,M,M,M,M,M,78.94,KBAM 091655Z AUTO 05006KT 3/4SM VV005 27/M04 A3014 RMK AO1,M
HND,2021-09-09 16:56,-115.1344,35.9729,742.79,95.00,58.00,29.09,0.00,0.00,0.00,30.03,1014.80,10.00,M,CLR,M,M,M,M,M,M,M,M,M,M,M,M,M,M,94.08,KHND 091656Z 00000KT 10SM CLR 35/14 A3003 RMK AO2 SLP148 T03500144,M
WMC,2021-09-09 16:56,-117.8072,40.9019,1315.00,82.00,32.00,16.38,60.00,5.00,0.00,30.10,1014.10,10.00,M,CLR,M,M,M,M,M,M,M,M,M,M,M,M,M,M,79.73,KWMC 091656Z AUTO 06005KT 10SM CLR 28/00 A3010 RMK AO2 SLP141 T02780000,M
TPH,2021-09-09 16:56,-117.0904,38.0505,1654.00,80.00,44.00,28.01,140.00,7.00,0.00,30.23,1015.60,10.00,M,CLR,M,M,M,M,M,M,M,M,M,M,M,M,M,M,79.12,KTPH 091656Z AUTO 14007KT 10SM CLR 27/07 A3023 RMK AO2 SLP156 T02670067,M
NFL,2021-09-09 16:56,-118.7010,39.4166,1199.00,85.00,33.00,15.59,M,3.00,0.00,30.06,1014.80,10.00,M,FEW,FEW,M,M,7000.00,18000.00,M,M,M,M,M,M,M,M,M,81.81,KNFL 091656Z VRB03KT 10SM FEW070 FEW180 29/01 A3006 RMK AO2 SLP148 T02940006,M
LSV,2021-09-09 16:56,-115.0343,36.2362,570.00,96.00,56.70,26.93,0.00,0.00,0.00,29.96,M,10.00,M,FEW,FEW,M,M,15000.00,20000.00,M,M,M,M,M,M,M,M,M,94.83,KLSV 091656Z AUTO 00000KT 10SM FEW150 FEW200 36/14 A2996 RMK AO2 SLPNO T03560137 $,M
LAS,2021-09-09 16:56,-115.1634,36.0719,663.00,94.00,57.00,29.14,M,4.00,0.00,30.00,1012.50,10.00,M,BKN,M,M,M,16000.00,M,M,M,M,M,M,M,M,M,M,92.58,KLAS 091656Z VRB04KT 10SM BKN160 34/14 A3000 RMK AO2 SLP125 T03440139,M
EKO,2021-09-09 16:56,-115.7860,40.8242,1367.00,73.00,26.10,17.33,M,4.00,0.00,30.18,1016.90,10.00,M,CLR,M,M,M,M,M,M,M,M,M,M,M,M,M,M,73.00,KEKO 091656Z AUTO VRB04KT 10SM CLR 23/M03 A3018 RMK AO2 SLP169 T02281033,M
CXP,2021-09-09 17:15,-119.7326,39.1923,1431.00,80.60,32.00,17.14,0.00,0.00,0.00,30.13,M,10.00,M,CLR,M,M,M,M,M,M,M,M,M,M,M,M,M,M,78.82,KCXP 091715Z AUTO 00000KT 10SM CLR 27/00 A3013 RMK AO2,M
MEV,2021-09-09 17:15,-119.7500,38.9963,1441.42,78.80,37.40,22.54,0.00,0.00,0.00,30.12,M,10.00,M,CLR,M,M,M,M,M,M,M,M,M,M,M,M,M,M,78.80,KMEV 091715Z AUTO 00000KT 10SM CLR 26/03 A3012 RMK AO2,M
BAM,2021-09-09 17:15,-116.8743,40.5990,1382.36,82.40,26.60,12.97,30.00,6.00,0.00,30.13,M,1.75,M,VV ,M,M,M,700.00,M,M,M,M,M,M,M,M,M,M,79.92,KBAM 091715Z AUTO 03006KT 1 3/4SM VV007 28/M03 A3013 RMK AO1 VIS 1V3,M
TMT,2021-09-09 17:15,-117.1971,39.4643,1749.34,81.00,31.60,16.65,140.00,3.00,0.00,30.22,M,10.00,M,CLR,M,M,M,M,M,M,M,M,M,M,M,M,M,M,79.06,KTMT 091715Z AUTO 14003KT 10SM CLR 27/00 A3022 RMK AO2 T02721002,M
RTS,2021-09-09 17:15,-119.8764,39.6682,1539.00,80.60,30.20,15.94,90.00,5.00,0.00,30.15,M,10.00,M,CLR,M,M,M,M,M,M,M,M,M,M,M,M,M,M,78.77,KRTS 091715Z AUTO 09005KT 10SM CLR 27/M01 A3015 RMK AO2,M
BVU,2021-09-09 17:15,-114.8611,35.9475,671.00,96.80,55.40,25.15,M,4.00,0.00,29.99,M,10.00,M,CLR,M,M,M,M,M,M,M,M,M,M,M,M,M,M,95.14,KBVU 091715Z AUTO VRB04KT 10SM CLR 36/13 A2999 RMK AO2,M
RTS,2021-09-09 17:35,-119.8764,39.6682,1539.00,82.40,30.20,15.03,130.00,5.00,0.00,30.14,M,10.00,M,CLR,M,M,M,M,M,M,M,M,M,M,M,M,M,M,79.97,KRTS 091735Z AUTO 13005KT 10SM CLR 28/M01 A3014 RMK AO2,M
MEV,2021-09-09 17:35,-119.7500,38.9963,1441.42,80.60,37.40,21.25,0.00,0.00,0.00,30.11,M,9.00,M,CLR,M,M,M,M,M,M,M,M,M,M,M,M,M,M,79.02,KMEV 091735Z AUTO 00000KT 9SM CLR 27/03 A3011 RMK AO2,M
BAM,2021-09-09 17:35,-116.8743,40.5990,1382.36,86.00,26.60,11.55,60.00,4.00,0.00,30.13,M,1.25,M,VV ,M,M,M,700.00,M,M,M,M,M,M,M,M,M,M,82.39,KBAM 091735Z AUTO 06004KT 1 1/4SM VV007 30/M03 A3013 RMK AO1 VIS 1/2V5,M
TMT,2021-09-09 17:35,-117.1971,39.4643,1749.34,82.00,31.50,16.10,0.00,0.00,0.00,30.22,M,10.00,M,CLR,M,M,M,M,M,M,M,M,M,M,M,M,M,M,79.65,KTMT 091735Z AUTO 00000KT 10SM CLR 28/00 A3022 RMK AO2 T02771003,M
CXP,2021-09-09 17:35,-119.7326,39.1923,1431.00,82.40,32.00,16.17,0.00,0.00,0.00,30.12,M,10.00,M,CLR,M,M,M,M,M,M,M,M,M,M,M,M,M,M,80.00,KCXP 091735Z AUTO 00000KT 10SM CLR 28/00 A3012 RMK AO2,M
BVU,2021-09-09 17:35,-114.8611,35.9475,671.00,96.80,53.60,23.55,150.00,4.00,0.00,29.99,M,10.00,M,CLR,M,M,M,M,M,M,M,M,M,M,M,M,M,M,94.59,KBVU 091735Z AUTO 15004KT 10SM CLR 36/12 A2999 RMK AO2,M
DRA,2021-09-09 17:53,-116.0278,36.6206,1009.00,98.00,42.00,14.70,220.00,13.00,0.00,30.05,1011.50,10.00,22.00,CLR,M,M,M,M,M,M,M,M,M,M,M,M,M,M,93.74,KDRA 091753Z AUTO 22013G22KT 10SM CLR 37/06 A3005 RMK AO2 SLP115 T03670056 10367 20233 58001,M
VGT,2021-09-09 17:53,-115.1933,36.2111,667.00,98.00,57.00,25.61,M,6.00,0.00,29.97,1013.40,10.00,M,CLR,M,M,M,M,M,M,M,M,M,M,M,M,M,M,97.13,KVGT 091753Z VRB06KT 10SM CLR 37/14 A2997 RMK AO2 SLP134 T03670139 10367 20283 50003,M
ELY,2021-09-09 17:53,-114.8453,39.2950,1909.00,86.00,24.10,10.41,130.00,5.00,0.00,30.28,1013.60,10.00,M,CLR,M,M,M,M,M,M,M,M,M,M,M,M,M,M,82.21,KELY 091753Z AUTO 13005KT 10SM CLR 30/M04 A3028 RMK AO2 SLP136 T03001044 10300 20089 58001,M
LOL,2021-09-09 17:53,-118.5701,40.0684,1192.43,88.00,37.00,16.49,270.00,3.00,0.00,30.06,1013.50,10.00,M,CLR,M,M,M,M,M,M,M,M,M,M,M,M,M,M,84.32,KLOL 091753Z AUTO 27003KT 10SM CLR 31/03 A3006 RMK AO2 SLP135 T03110028 10311 20128 58001,M
P68,2021-09-09 17:53,-116.0056,39.6014,1993.00,87.00,26.10,10.92,M,3.00,0.00,30.22,1013.70,M,M,M,M,M,M,M,M,M,M,M,M,M,M,M,M,M,83.14,KP68 091753Z AUTO VRB03KT 31/M03 A3022 RMK AO1 SLP137 T03061033 10306 20094 58006,M
BVU,2021-09-09 17:55,-114.8611,35.9475,671.00,98.60,51.80,20.87,M,3.00,0.00,29.99,M,10.00,M,CLR,M,M,M,M,M,M,M,M,M,M,M,M,M,M,96.00,KBVU 091755Z AUTO VRB03KT 10SM CLR 37/11 A2999 RMK AO2,M
CXP,2021-09-09 17:55,-119.7326,39.1923,1431.00,84.20,32.00,15.25,0.00,0.00,0.00,30.11,M,10.00,M,CLR,M,M,M,M,M,M,M,M,M,M,M,M,M,M,81.28,KCXP 091755Z AUTO 00000KT 10SM CLR 29/00 A3011 RMK AO2,M
RTS,2021-09-09 17:55,-119.8764,39.6682,1539.00,84.20,30.20,14.18,160.00,7.00,0.00,30.14,M,10.00,M,CLR,M,M,M,M,M,M,M,M,M,M,M,M,M,M,81.26,KRTS 091755Z AUTO 16007KT 10SM CLR 29/M01 A3014 RMK AO2,M
MEV,2021-09-09 17:55,-119.7500,38.9963,1441.42,82.40,37.40,20.04,0.00,0.00,0.00,30.10,M,9.00,M,CLR,M,M,M,M,M,M,M,M,M,M,M,M,M,M,80.14,KMEV 091755Z AUTO 00000KT 9SM CLR 28/03 A3010 RMK AO2,M
BAM,2021-09-09 17:55,-116.8743,40.5990,1382.36,87.80,26.60,10.91,30.00,3.00,0.00,30.13,M,7.00,M,CLR,M,M,M,M,M,M,M,M,M,M,M,M,M,M,83.69,KBAM 091755Z AUTO 03003KT 7SM CLR 31/M03 A3013 RMK AO1,M
TMT,2021-09-09 17:55,-117.1971,39.4643,1749.34,84.40,31.60,14.91,160.00,4.00,0.00,30.21,M,10.00,M,CLR,M,M,M,M,M,M,M,M,M,M,M,M,M,M,81.42,KTMT 091755Z AUTO 16004KT 10SM CLR 29/00 A3021 RMK AO2 T02911002 10291 20028,M
RNO,2021-09-09 17:55,-119.7711,39.4839,1341.00,83.00,38.00,20.11,0.00,0.00,0.00,30.08,1012.20,10.00,M,FEW,M,M,M,10000.00,M,M,M,M,M,M,M,M,M,M,80.49,KRNO 091755Z 00000KT 10SM FEW100 28/03 A3008 RMK AO2 SLP122 HZ ALQDS T02830033 10283 20178 58010,M
WMC,2021-09-09 17:56,-117.8072,40.9019,1315.00,88.00,35.00,15.29,50.00,3.00,0.00,30.08,1013.50,10.00,M,CLR,M,M,M,M,M,M,M,M,M,M,M,M,M,M,84.28,KWMC 091756Z AUTO 05003KT 10SM CLR 31/02 A3008 RMK AO2 SLP135 T03110017 10311 20111 57007,M
HND,2021-09-09 17:56,-115.1344,35.9729,742.79,99.00,50.00,19.28,220.00,5.00,0.00,30.02,1014.60,10.00,M,CLR,M,M,M,M,M,M,M,M,M,M,M,M,M,M,95.97,KHND 091756Z 22005KT 10SM CLR 37/10 A3002 RMK AO2 SLP146 T03720100 10372 20267 50003,M
LAS,2021-09-09 17:56,-115.1634,36.0719,663.00,96.00,56.00,26.16,M,3.00,0.00,29.99,1012.50,10.00,M,FEW,FEW,M,M,16000.00,25000.00,M,M,M,M,M,M,M,M,M,94.55,KLAS 091756Z VRB03KT 10SM FEW160 FEW250 36/13 A2999 RMK AO2 SLP125 T03560133 10361 20289 50004,M
TPH,2021-09-09 17:56,-117.0904,38.0505,1654.00,83.00,48.00,29.64,180.00,9.00,0.00,30.23,1015.40,10.00,M,CLR,M,M,M,M,M,M,M,M,M,M,M,M,M,M,81.11,KTPH 091756Z AUTO 18009KT 10SM CLR 28/09 A3023 RMK AO2 SLP154 T02830089 10283 20144 58001,M
NFL,2021-09-09 17:56,-118.7010,39.4166,1199.00,88.00,32.00,13.51,160.00,4.00,0.00,30.05,1014.60,10.00,M,SCT,SCT,M,M,7000.00,18000.00,M,M,M,M,M,M,M,M,M,84.24,KNFL 091756Z 16004KT 10SM SCT070 SCT180 31/00 A3005 RMK AO2 SLP146 T03110000 10317 20150 58005,M
EKO,2021-09-09 17:56,-115.7860,40.8242,1367.00,82.00,26.10,12.87,M,3.00,0.00,30.16,1015.70,10.00,M,CLR,M,M,M,M,M,M,M,M,M,M,M,M,M,M,79.62,KEKO 091756Z AUTO VRB03KT 10SM CLR 28/M03 A3016 RMK AO2 SLP157 T02781033 10278 20072 58010,M
LSV,2021-09-09 17:56,-115.0343,36.2362,570.00,99.30,55.00,22.89,0.00,0.00,0.00,29.96,M,10.00,M,CLR,M,M,M,M,M,M,M,M,M,M,M,M,M,M,97.68,KLSV 091756Z AUTO 00000KT 10SM CLR 37/13 A2996 RMK AO2 SLPNO T03740127 10374 20274 50002 $,M
INS,2021-09-09 18:09,-115.6733,36.5872,955.00,89.60,43.20,19.95,0.00,0.00,0.00,30.06,1012.50,10.00,M,FEW,M,M,M,21000.00,M,M,M,M,M,M,M,M,M,M,85.96,KINS 091809Z AUTO 00000KT 10SM FEW210 32/06 A3006 RMK AO2 SLP125 T03200062 10320 20211 50001 $,M
RTS,2021-09-09 18:15,-119.8764,39.6682,1539.00,86.00,28.40,12.44,150.00,7.00,0.00,30.13,M,10.00,13.00,CLR,M,M,M,M,M,M,M,M,M,M,M,M,M,M,82.54,KRTS 091815Z AUTO 15007G13KT 10SM CLR 30/M02 A3013 RMK AO2,M
MEV,2021-09-09 18:15,-119.7500,38.9963,1441.42,86.00,37.40,17.85,M,3.00,0.00,30.09,M,9.00,M,CLR,M,M,M,M,M,M,M,M,M,M,M,M,M,M,82.73,KMEV 091815Z AUTO VRB03KT 9SM CLR 30/03 A3009 RMK AO2,M
BAM,2021-09-09 18:15,-116.8743,40.5990,1382.36,87.80,26.60,10.91,0.00,0.00,0.00,30.12,M,10.00,M,CLR,M,M,M,M,M,M,M,M,M,M,M,M,M,M,83.69,KBAM 091815Z AUTO 00000KT 10SM CLR 31/M03 A3012 RMK AO1,M
TMT,2021-09-09 18:15,-117.1971,39.4643,1749.34,85.30,31.10,14.20,230.00,3.00,0.00,30.21,M,10.00,M,CLR,M,M,M,M,M,M,M,M,M,M,M,M,M,M,82.10,KTMT 091815Z AUTO 23003KT 10SM CLR 30/00 A3021 RMK AO2 T02961005,M
BVU,2021-09-09 18:15,-114.8611,35.9475,671.00,98.60,53.60,22.29,0.00,0.00,0.00,29.98,M,10.00,M,CLR,M,M,M,M,M,M,M,M,M,M,M,M,M,M,96.51,KBVU 091815Z AUTO 00000KT 10SM CLR 37/12 A2998 RMK AO2,M
CXP,2021-09-09 18:15,-119.7326,39.1923,1431.00,87.80,32.00,13.59,0.00,0.00,0.00,30.10,M,10.00,M,CLR,M,M,M,M,M,M,M,M,M,M,M,M,M,M,84.08,KCXP 091815Z AUTO 00000KT 10SM CLR 31/M00 A3010 RMK AO2,M
RTS,2021-09-09 18:35,-119.8764,39.6682,1539.00,87.80,28.40,11.74,140.00,9.00,0.00,30.12,M,10.00,M,CLR,M,M,M,M,M,M,M,M,M,M,M,M,M,M,83.84,KRTS 091835Z AUTO 14009KT 10SM CLR 31/M02 A3012 RMK AO2,M
BVU,2021-09-09 18:35,-114.8611,35.9475,671.00,100.40,51.80,19.76,M,4.00,0.00,29.97,M,10.00,M,CLR,M,M,M,M,M,M,M,M,M,M,M,M,M,M,97.90,KBVU 091835Z AUTO VRB04KT 10SM CLR 38/11 A2997 RMK AO2,M
CXP,2021-09-09 18:35,-119.7326,39.1923,1431.00,89.60,30.20,11.94,0.00,0.00,0.00,30.09,M,10.00,M,CLR,M,M,M,M,M,M,M,M,M,M,M,M,M,M,85.34,KCXP 091835Z AUTO 00000KT 10SM CLR 32/M01 A3009 RMK AO2,M
BAM,2021-09-09 18:35,-116.8743,40.5990,1382.36,89.60,28.40,11.09,0.00,0.00,0.00,30.12,M,5.00,M,CLR,M,M,M,M,M,M,M,M,M,M,M,M,M,M,85.17,KBAM 091835Z AUTO 00000KT 5SM CLR 32/M02 A3012 RMK AO1,M
TMT,2021-09-09 18:35,-117.1971,39.4643,1749.34,87.40,31.80,13.66,300.00,3.00,0.00,30.20,M,10.00,M,CLR,M,M,M,M,M,M,M,M,M,M,M,M,M,M,83.75,KTMT 091835Z AUTO 30003KT 10SM CLR 31/00 A3020 RMK AO2 T03081001,M
MEV,2021-09-09 18:35,-119.7500,38.9963,1441.42,87.80,33.80,14.61,M,3.00,0.00,30.08,M,9.00,M,CLR,M,M,M,M,M,M,M,M,M,M,M,M,M,M,84.10,KMEV 091835Z AUTO VRB03KT 9SM CLR 31/01 A3008 RMK AO2,M
P68,2021-09-09 18:53,-116.0056,39.6014,1993.00,92.00,26.10,9.39,170.00,12.00,0.00,30.19,1012.70,M,M,M,M,M,M,M,M,M,M,M,M,M,M,M,M,M,86.69,KP68 091853Z AUTO 17012KT 33/M03 A3019 RMK AO1 SLP127 T03331033,M
ELY,2021-09-09 18:53,-114.8453,39.2950,1909.00,90.00,21.00,8.05,220.00,15.00,0.00,30.26,1013.40,10.00,20.00,CLR,M,M,M,M,M,M,M,M,M,M,M,M,M,M,84.92,KELY 091853Z AUTO 22015G20KT 10SM CLR 32/M06 A3026 RMK AO2 SLP134 T03221061,M
DRA,2021-09-09 18:53,-116.0278,36.6206,1009.00,100.00,38.00,11.78,210.00,12.00,0.00,30.04,1011.00,10.00,23.00,CLR,M,M,M,M,M,M,M,M,M,M,M,M,M,M,94.83,KDRA 091853Z AUTO 21012G23KT 10SM CLR 38/03 A3004 RMK AO2 SLP110 T03780033,M
LOL,2021-09-09 18:53,-118.5701,40.0684,1192.43,93.00,37.00,14.09,170.00,4.00,0.00,30.03,1012.00,10.00,M,CLR,M,M,M,M,M,M,M,M,M,M,M,M,M,M,88.63,KLOL 091853Z AUTO 17004KT 10SM CLR 34/03 A3003 RMK AO2 SLP120 T03390028,M
VGT,2021-09-09 18:53,-115.1933,36.2111,667.00,102.00,52.00,18.97,120.00,6.00,0.00,29.95,1012.50,10.00,M,CLR,M,M,M,M,M,M,M,M,M,M,M,M,M,M,99.65,KVGT 091853Z 12006KT 10SM CLR 39/11 A2995 RMK AO2 SLP125 T03890111,M
BVU,2021-09-09 18:55,-114.8611,35.9475,671.00,102.20,50.00,17.51,M,6.00,0.00,29.96,M,10.00,M,CLR,M,M,M,M,M,M,M,M,M,M,M,M,M,M,99.28,KBVU 091855Z AUTO VRB06KT 10SM CLR 39/10 A2996 RMK AO2,M
RNO,2021-09-09 18:55,-119.7711,39.4839,1341.00,90.00,35.00,14.36,0.00,0.00,0.00,30.04,1010.70,9.00,M,SCT,SCT,M,M,11000.00,25000.00,M,M,M,M,M,M,M,M,M,85.95,KRNO 091855Z 00000KT 9SM SCT110 SCT250 32/02 A3004 RMK AO2 SLP107 HZ ALQDS T03220017,M
MEV,2021-09-09 18:55,-119.7500,38.9963,1441.42,87.80,33.80,14.61,290.00,4.00,0.00,30.07,M,7.00,M,CLR,M,M,M,M,M,M,M,M,M,M,M,M,M,M,84.10,KMEV 091855Z AUTO 29004KT 7SM CLR 31/01 A3007 RMK AO2,M
BAM,2021-09-09 18:55,-116.8743,40.5990,1382.36,91.40,30.20,11.28,10.00,4.00,0.00,30.10,M,7.00,M,CLR,M,M,M,M,M,M,M,M,M,M,M,M,M,M,86.71,KBAM 091855Z AUTO 01004KT 7SM CLR 33/M01 A3010 RMK AO1,M
TMT,2021-09-09 18:55,-117.1971,39.4643,1749.34,89.00,31.80,13.02,270.00,5.00,0.00,30.19,M,10.00,M,CLR,M,M,M,M,M,M,M,M,M,M,M,M,M,M,84.99,KTMT 091855Z AUTO 27005KT 10SM CLR 32/00 A3019 RMK AO2 T03161001,M
RTS,2021-09-09 18:55,-119.8764,39.6682,1539.00,87.80,28.40,11.74,M,7.00,0.00,30.11,M,10.00,M,CLR,M,M,M,M,M,M,M,M,M,M,M,M,M,M,83.84,KRTS 091855Z AUTO VRB07KT 130V190 10SM CLR 31/M02 A3011 RMK AO2,M
CXP,2021-09-09 18:55,-119.7326,39.1923,1431.00,93.20,30.20,10.67,0.00,0.00,0.00,30.08,M,10.00,M,CLR,M,M,M,M,M,M,M,M,M,M,M,M,M,M,88.09,KCXP 091855Z AUTO 00000KT 10SM CLR 34/M01 A3008 RMK AO2,M
EKO,2021-09-09 18:56,-115.7860,40.8242,1367.00,89.00,27.00,10.64,M,5.00,0.00,30.14,1014.30,10.00,M,CLR,M,M,M,M,M,M,M,M,M,M,M,M,M,M,84.68,KEKO 091856Z AUTO VRB05KT 10SM CLR 32/M03 A3014 RMK AO2 SLP143 T03171028,M
LSV,2021-09-09 18:56,-115.0343,36.2362,570.00,101.30,51.30,18.88,40.00,4.00,0.00,29.94,1010.90,10.00,M,FEW,M,M,M,20000.00,M,M,M,M,M,M,M,M,M,M,98.70,KLSV 091856Z AUTO 04004KT 10SM FEW200 39/11 A2994 RMK AO2 SLP109 T03850107 $,M
WMC,2021-09-09 18:56,-117.8072,40.9019,1315.00,93.00,35.00,13.07,60.00,6.00,0.00,30.06,1012.60,10.00,M,CLR,M,M,M,M,M,M,M,M,M,M,M,M,M,M,88.56,KWMC 091856Z AUTO 06006KT 10SM CLR 34/02 A3006 RMK AO2 SLP126 T03390017,M
LAS,2021-09-09 18:56,-115.1634,36.0719,663.00,101.00,51.00,18.97,100.00,7.00,0.00,29.97,1011.50,10.00,M,FEW,FEW,M,M,16000.00,25000.00,M,M,M,M,M,M,M,M,M,98.23,KLAS 091856Z 10007KT 10SM FEW160 FEW250 38/11 A2997 RMK AO2 SLP115 T03830106,M
NFL,2021-09-09 18:56,-118.7010,39.4166,1199.00,93.00,32.00,11.55,M,3.00,0.00,30.03,1013.70,10.00,M,SCT,SCT,M,M,7000.00,18000.00,M,M,M,M,M,M,M,M,M,88.15,KNFL 091856Z VRB03KT 10SM SCT070 SCT180 34/00 A3003 RMK AO2 SLP137 T03390000,M
TPH,2021-09-09 18:56,-117.0904,38.0505,1654.00,87.00,47.00,24.85,180.00,9.00,0.00,30.20,1014.30,10.00,M,CLR,M,M,M,M,M,M,M,M,M,M,M,M,M,M,84.15,KTPH 091856Z AUTO 18009KT 10SM CLR 31/08 A3020 RMK AO2 SLP143 T03060083,M
HND,2021-09-09 18:56,-115.1344,35.9729,742.79,101.00,48.00,16.90,190.00,6.00,0.00,30.00,1013.80,10.00,M,CLR,M,M,M,M,M,M,M,M,M,M,M,M,M,M,97.46,KHND 091856Z 19006KT 10SM CLR 38/09 A3000 RMK AO2 SLP138 T03830089,M
INS,2021-09-09 19:12,-115.6733,36.5872,955.00,95.40,42.00,15.96,70.00,7.00,0.00,30.03,1011.50,10.00,M,FEW,FEW,M,M,16000.00,20000.00,M,M,M,M,M,M,M,M,M,91.17,KINS 091912Z 07007KT 10SM FEW160 FEW200 35/06 A3003 RMK AO2 SLP115 T03520056 $,M
TMT,2021-09-09 19:15,-117.1971,39.4643,1749.34,91.60,31.80,11.96,260.00,11.00,0.00,30.18,M,10.00,16.00,CLR,M,M,M,M,M,M,M,M,M,M,M,M,M,M,87.04,KTMT 091915Z AUTO 26011G16KT 10SM CLR 33/00 A3018 RMK AO2 T03311001,M
BAM,2021-09-09 19:15,-116.8743,40.5990,1382.36,93.20,30.20,10.67,360.00,3.00,0.00,30.09,M,2.00,M,CLR,M,M,M,M,M,M,M,M,M,M,M,M,M,M,88.09,KBAM 091915Z AUTO 36003KT 2SM CLR 34/M01 A3009 RMK AO1,M
BVU,2021-09-09 19:15,-114.8611,35.9475,671.00,102.20,53.60,20.00,M,5.00,0.00,29.95,M,10.00,M,CLR,M,M,M,M,M,M,M,M,M,M,M,M,M,M,100.38,KBVU 091915Z AUTO VRB05KT 10SM CLR 39/12 A2995 RMK AO2,M
CXP,2021-09-09 19:15,-119.7326,39.1923,1431.00,93.20,28.40,9.91,80.00,8.00,0.00,30.07,M,10.00,M,CLR,M,M,M,M,M,M,M,M,M,M,M,M,M,M,87.89,KCXP 091915Z AUTO 08008KT 10SM CLR 34/M02 A3007 RMK AO2,M
RTS,2021-09-09 19:15,-119.8764,39.6682,1539.00,87.80,28.40,11.74,150.00,6.00,0.00,30.11,M,10.00,M,CLR,M,M,M,M,M,M,M,M,M,M,M,M,M,M,83.84,KRTS 091915Z AUTO 15006KT 10SM CLR 31/M02 A3011 RMK AO2,M
MEV,2021-09-09 19:15,-119.7500,38.9963,1441.42,87.80,32.00,13.59,310.00,6.00,0.00,30.06,M,10.00,M,CLR,M,M,M,M,M,M,M,M,M,M,M,M,M,M,84.08,KMEV 091915Z AUTO 31006KT 10SM CLR 31/M00 A3006 RMK AO2,M
CXP,2021-09-09 19:30,-119.7326,39.1923,1431.00,91.40,28.40,10.48,70.00,5.00,0.00,30.06,M,10.00,M,CLR,M,M,M,M,M,M,M,M,M,M,M,M,M,M,86.53,KCXP 091930Z AUTO 07005KT 10SM CLR 33/M02 A3006 RMK AO2,M
BVU,2021-09-09 19:35,-114.8611,35.9475,671.00,102.20,53.60,20.00,240.00,4.00,0.00,29.94,M,10.00,M,CLR,M,M,M,M,M,M,M,M,M,M,M,M,M,M,100.38,KBVU 091935Z AUTO 24004KT 10SM CLR 39/12 A2994 RMK AO2,M
RTS,2021-09-09 19:35,-119.8764,39.6682,1539.00,87.80,30.20,12.64,150.00,8.00,0.00,30.10,M,10.00,M,CLR,M,M,M,M,M,M,M,M,M,M,M,M,M,M,84.01,KRTS 091935Z AUTO 15008KT 10SM CLR 31/M01 A3010 RMK AO2,M
MEV,2021-09-09 19:35,-119.7500,38.9963,1441.42,89.60,33.80,13.80,280.00,7.00,0.00,30.05,M,10.00,M,CLR,M,M,M,M,M,M,M,M,M,M,M,M,M,M,85.59,KMEV 091935Z AUTO 28007KT 10SM CLR 32/01 A3005 RMK AO2,M
TMT,2021-09-09 19:35,-117.1971,39.4643,1749.34,88.30,31.10,12.90,0.00,0.00,0.00,30.17,M,10.00,M,CLR,M,M,M,M,M,M,M,M,M,M,M,M,M,M,84.47,KTMT 091935Z AUTO 00000KT 10SM CLR 31/00 A3017 RMK AO2 T03131005,M
BAM,2021-09-09 19:35,-116.8743,40.5990,1382.36,93.20,28.40,9.91,0.00,0.00,0.00,30.08,M,7.00,M,CLR,M,M,M,M,M,M,M,M,M,M,M,M,M,M,87.89,KBAM 091935Z AUTO 00000KT 7SM CLR 34/M02 A3008 RMK AO1,M
VGT,2021-09-09 19:53,-115.1933,36.2111,667.00,104.00,50.00,16.59,160.00,7.00,0.00,29.92,1011.50,10.00,M,CLR,M,M,M,M,M,M,M,M,M,M,M,M,M,M,101.14,KVGT 091953Z 16007KT 10SM CLR 40/10 A2992 RMK AO2 SLP115 T04000100,M
P68,2021-09-09 19:53,-116.0056,39.6014,1993.00,89.00,28.90,11.50,180.00,18.00,0.00,30.18,1012.60,M,21.00,M,M,M,M,M,M,M,M,M,M,M,M,M,M,M,84.84,KP68 091953Z AUTO 18018G21KT 32/M02 A3018 RMK AO1 SLP126 T03171017,M
LOL,2021-09-09 19:53,-118.5701,40.0684,1192.43,96.00,35.00,11.88,170.00,10.00,0.00,30.00,1011.10,10.00,M,CLR,M,M,M,M,M,M,M,M,M,M,M,M,M,M,91.07,KLOL 091953Z AUTO 17010KT 10SM CLR 36/02 A3000 RMK AO2 SLP111 T03560017,M
ELY,2021-09-09 19:53,-114.8453,39.2950,1909.00,88.00,23.00,9.33,200.00,12.00,0.00,30.24,1013.20,10.00,21.00,CLR,M,M,M,M,M,M,M,M,M,M,M,M,M,M,83.58,KELY 091953Z AUTO 20012G21KT 10SM CLR 31/M05 A3024 RMK AO2 SLP132 T03111050,M
DRA,2021-09-09 19:53,-116.0278,36.6206,1009.00,100.00,39.00,12.30,210.00,8.00,0.00,30.02,1010.30,10.00,22.00,CLR,M,M,M,M,M,M,M,M,M,M,M,M,M,M,95.05,KDRA 091953Z AUTO 21008G22KT 10SM CLR 38/04 A3002 RMK AO2 SLP103 T03780039,M
BAM,2021-09-09 19:55,-116.8743,40.5990,1382.36,95.00,28.40,9.38,0.00,0.00,0.00,30.07,M,10.00,M,CLR,M,M,M,M,M,M,M,M,M,M,M,M,M,M,89.27,KBAM 091955Z AUTO 00000KT 10SM CLR 35/M02 A3007 RMK AO1,M
RNO,2021-09-09 19:55,-119.7711,39.4839,1341.00,94.00,34.00,12.17,0.00,0.00,0.00,30.01,1009.50,10.00,M,SCT,M,M,M,11000.00,M,M,M,M,M,M,M,M,M,M,89.13,KRNO 091955Z 00000KT 10SM SCT110 34/01 A3001 RMK AO2 SLP095 HZ ALQDS T03440011,M
RTS,2021-09-09 19:55,-119.8764,39.6682,1539.00,87.80,28.40,11.74,200.00,5.00,0.00,30.09,M,10.00,M,CLR,M,M,M,M,M,M,M,M,M,M,M,M,M,M,83.84,KRTS 091955Z AUTO 20005KT 10SM CLR 31/M02 A3009 RMK AO2,M
TMT,2021-09-09 19:55,-117.1971,39.4643,1749.34,90.50,32.00,12.48,230.00,12.00,0.00,30.16,M,10.00,17.00,CLR,M,M,M,M,M,M,M,M,M,M,M,M,M,M,86.22,KTMT 091955Z AUTO 23012G17KT 10SM CLR 33/00 A3016 RMK AO2 T03250000,M
MEV,2021-09-09 19:55,-119.7500,38.9963,1441.42,91.40,32.00,12.14,300.00,5.00,0.00,30.04,M,10.00,M,CLR,M,M,M,M,M,M,M,M,M,M,M,M,M,M,86.91,KMEV 091955Z AUTO 30005KT 10SM CLR 33/00 A3004 RMK AO2,M
BVU,2021-09-09 19:55,-114.8611,35.9475,671.00,102.20,53.60,20.00,M,6.00,0.00,29.93,M,10.00,11.00,CLR,M,M,M,M,M,M,M,M,M,M,M,M,M,M,100.38,KBVU 091955Z AUTO VRB06G11KT 10SM CLR 39/12 A2993 RMK AO2,M
CXP,2021-09-09 19:55,-119.7326,39.1923,1431.00,95.00,28.40,9.38,300.00,5.00,0.00,30.05,M,10.00,M,CLR,M,M,M,M,M,M,M,M,M,M,M,M,M,M,89.27,KCXP 091955Z AUTO 30005KT 10SM CLR 35/M02 A3005 RMK AO2,M
LAS,2021-09-09 19:56,-115.1634,36.0719,663.00,104.00,46.00,14.28,210.00,8.00,0.00,29.94,1010.40,10.00,M,FEW,FEW,M,M,16000.00,25000.00,M,M,M,M,M,M,M,M,M,100.12,KLAS 091956Z 21008KT 160V230 10SM FEW160 FEW250 40/08 A2994 RMK AO2 SLP104 T04000078,M
NFL,2021-09-09 19:56,-118.7010,39.4166,1199.00,96.00,30.00,9.68,0.00,0.00,0.00,29.99,1012.60,10.00,M,SCT,SCT,BKN,M,7000.00,12000.00,18000.00,M,M,M,M,M,M,M,M,90.35,KNFL 091956Z 00000KT 10SM SCT070 SCT120 BKN180 36/M01 A2999 RMK SLP126 T03561011,M
EKO,2021-09-09 19:56,-115.7860,40.8242,1367.00,92.00,26.10,9.39,M,3.00,0.00,30.11,1013.70,10.00,M,CLR,M,M,M,M,M,M,M,M,M,M,M,M,M,M,86.69,KEKO 091956Z AUTO VRB03KT 10SM CLR 33/M03 A3011 RMK AO2 SLP137 T03331033,M
WMC,2021-09-09 19:56,-117.8072,40.9019,1315.00,97.00,34.00,11.06,60.00,7.00,0.00,30.02,1011.00,10.00,M,CLR,M,M,M,M,M,M,M,M,M,M,M,M,M,M,91.64,KWMC 091956Z AUTO 06007KT 10SM CLR 36/01 A3002 RMK AO2 SLP110 T03610011 PNO $,M
TPH,2021-09-09 19:56,-117.0904,38.0505,1654.00,90.00,41.00,18.10,170.00,10.00,0.00,30.17,1013.30,10.00,23.00,CLR,M,M,M,M,M,M,M,M,M,M,M,26.00,220.00,2021-09-09 19:42,86.16,KTPH 091956Z AUTO 17010G23KT 10SM CLR 32/05 A3017 RMK AO2 PK WND 22026/1942 SLP133 T03220050,M
HND,2021-09-09 19:56,-115.1344,35.9729,742.79,103.00,50.00,17.15,M,5.00,0.00,29.97,1012.80,10.00,M,CLR,M,M,M,M,M,M,M,M,M,M,M,M,M,M,100.01,KHND 091956Z VRB05KT 10SM CLR 39/10 A2997 RMK AO2 SLP128 T03940100,M
LSV,2021-09-09 19:56,-115.0343,36.2362,570.00,103.00,46.40,14.89,210.00,6.00,0.00,29.91,1009.80,10.00,M,CLR,M,M,M,M,M,M,M,M,M,M,M,M,M,M,99.32,KLSV 091956Z AUTO 21006KT 10SM CLR 40/08 A2991 RMK AO2 SLP098 T03950080 $,M
CXP,2021-09-09 20:10,-119.7326,39.1923,1431.00,93.20,28.40,9.91,260.00,5.00,0.00,30.04,M,10.00,M,CLR,M,M,M,M,M,M,M,M,M,M,M,M,M,M,87.89,KCXP 092010Z AUTO 26005KT 10SM CLR 34/M02 A3004 RMK AO2,M
TMT,2021-09-09 20:15,-117.1971,39.4643,1749.34,90.30,32.20,12.66,240.00,10.00,0.00,30.15,M,10.00,21.00,CLR,M,M,M,M,M,M,M,M,M,M,M,M,M,M,86.09,KTMT 092015Z AUTO 24010G21KT 10SM CLR 32/00 A3015 RMK AO2 T03240001,M
RTS,2021-09-09 20:15,-119.8764,39.6682,1539.00,87.80,28.40,11.74,160.00,4.00,0.00,30.08,M,10.00,M,CLR,M,M,M,M,M,M,M,M,M,M,M,M,M,M,83.84,KRTS 092015Z AUTO 16004KT 10SM CLR 31/M02 A3008 RMK AO2,M
BVU,2021-09-09 20:15,-114.8611,35.9475,671.00,102.20,51.80,18.72,0.00,0.00,0.00,29.93,M,10.00,M,CLR,M,M,M,M,M,M,M,M,M,M,M,M,M,M,99.80,KBVU 092015Z AUTO 00000KT 10SM CLR 39/11 A2993 RMK AO2,M
BAM,2021-09-09 20:15,-116.8743,40.5990,1382.36,96.80,28.40,8.87,70.00,4.00,0.00,30.06,M,10.00,M,CLR,M,M,M,M,M,M,M,M,M,M,M,M,M,M,90.75,KBAM 092015Z AUTO 07004KT 10SM CLR 36/M02 A3006 RMK AO1,M
MEV,2021-09-09 20:15,-119.7500,38.9963,1441.42,93.20,32.00,11.48,280.00,7.00,0.00,30.03,M,9.00,M,CLR,M,M,M,M,M,M,M,M,M,M,M,M,M,M,88.31,KMEV 092015Z AUTO 28007KT 9SM CLR 34/00 A3003 RMK AO2,M
INS,2021-09-09 20:29,-115.6733,36.5872,955.00,98.60,41.20,13.98,0.00,0.00,0.00,30.00,1010.30,10.00,M,CLR,M,M,M,M,M,M,M,M,M,M,M,M,M,M,94.11,KINS 092029Z COR 00000KT 10SM CLR 37/05 A3000 RMK AO2 SLP103 T03700051 $,M
CXP,2021-09-09 20:35,-119.7326,39.1923,1431.00,95.00,28.40,9.38,270.00,8.00,0.00,30.04,M,10.00,18.00,CLR,M,M,M,M,M,M,M,M,M,M,M,M,M,M,89.27,KCXP 092035Z AUTO 27008G18KT 10SM CLR 35/M02 A3004 RMK AO2,M
BAM,2021-09-09 20:35,-116.8743,40.5990,1382.36,96.80,28.40,8.87,0.00,0.00,0.00,30.05,M,7.00,M,CLR,M,M,M,M,M,M,M,M,M,M,M,M,M,M,90.75,KBAM 092035Z AUTO 00000KT 7SM CLR 36/M02 A3005 RMK AO1,M
TMT,2021-09-09 20:35,-117.1971,39.4643,1749.34,91.40,33.60,12.94,170.00,19.00,0.00,30.15,M,10.00,24.00,CLR,M,M,M,M,M,M,M,M,M,M,M,M,M,M,87.11,KTMT 092035Z AUTO 17019G24KT 10SM CLR 33/01 A3015 RMK AO2 LTG DSNT S T03300009,M
MEV,2021-09-09 20:35,-119.7500,38.9963,1441.42,93.20,32.00,11.48,180.00,4.00,0.00,30.03,M,10.00,M,CLR,M,M,M,M,M,M,M,M,M,M,M,M,M,M,88.31,KMEV 092035Z AUTO 18004KT 10SM CLR 34/M00 A3003 RMK AO2,M
RTS,2021-09-09 20:35,-119.8764,39.6682,1539.00,87.80,28.40,11.74,170.00,6.00,0.00,30.07,M,10.00,M,CLR,M,M,M,M,M,M,M,M,M,M,M,M,M,M,83.84,KRTS 092035Z AUTO 17006KT 10SM CLR 31/M02 A3007 RMK AO2,M
BVU,2021-09-09 20:35,-114.8611,35.9475,671.00,104.00,51.80,17.74,M,5.00,0.00,29.91,M,10.00,M,CLR,M,M,M,M,M,M,M,M,M,M,M,M,M,M,101.69,KBVU 092035Z AUTO VRB05KT 10SM CLR 40/11 A2991 RMK AO2,M
CXP,2021-09-09 20:50,-119.7326,39.1923,1431.00,93.20,28.40,9.91,280.00,5.00,0.00,30.04,M,10.00,M,CLR,M,M,M,M,M,M,M,M,M,M,M,M,M,M,87.89,KCXP 092050Z AUTO 28005KT 10SM CLR 34/M02 A3004 RMK AO2,M
P68,2021-09-09 20:53,-116.0056,39.6014,1993.00,89.00,30.00,12.03,220.00,7.00,0.00,30.17,1012.60,M,17.00,M,M,M,M,M,M,M,M,M,M,M,M,29.00,220.00,2021-09-09 20:42,84.95,KP68 092053Z AUTO 22007G17KT 180V240 32/M01 A3017 RMK AO1 PK WND 22029/2042 SLP126 T03171011 56013,M
VGT,2021-09-09 20:53,-115.1933,36.2111,667.00,106.00,47.00,13.93,180.00,11.00,0.00,29.90,1010.60,10.00,17.00,CLR,M,M,M,M,M,M,M,M,M,M,M,M,M,M,102.30,KVGT 092053Z 18011G17KT 10SM CLR 41/08 A2990 RMK AO2 SLP106 T04110083 58025,M
ELY,2021-09-09 20:53,-114.8453,39.2950,1909.00,91.00,25.00,9.23,230.00,13.00,0.00,30.23,1012.10,10.00,23.00,CLR,M,M,M,M,M,M,M,M,M,M,M,M,M,M,85.93,KELY 092053Z AUTO 23013G23KT 10SM CLR 33/M04 A3023 RMK AO2 SLP121 T03281039 57015,M
DRA,2021-09-09 20:53,-116.0278,36.6206,1009.00,102.00,41.00,12.52,200.00,16.00,0.00,29.99,1009.40,10.00,27.00,CLR,M,M,M,M,M,M,M,M,M,M,M,27.00,210.00,2021-09-09 20:51,97.21,KDRA 092053Z AUTO 20016G27KT 10SM CLR 39/05 A2999 RMK AO2 PK WND 21027/2051 SLP094 T03890050 58020,M
LOL,2021-09-09 20:53,-118.5701,40.0684,1192.43,98.00,33.00,10.32,150.00,9.00,0.00,29.97,1009.60,10.00,M,CLR,M,M,M,M,M,M,M,M,M,M,M,M,M,M,92.42,KLOL 092053Z AUTO 15009KT 10SM CLR 37/01 A2997 RMK AO2 SLP096 T03670006 56026,M
BVU,2021-09-09 20:55,-114.8611,35.9475,671.00,105.80,46.40,13.75,180.00,11.00,0.00,29.90,M,10.00,23.00,CLR,M,M,M,M,M,M,M,M,M,M,M,M,M,M,101.97,KBVU 092055Z AUTO 18011G23KT 10SM CLR 41/08 A2990 RMK AO2,M
RTS,2021-09-09 20:55,-119.8764,39.6682,1539.00,87.80,33.80,14.61,M,4.00,0.00,30.06,M,9.00,17.00,CLR,M,M,M,M,M,M,M,-DZ,M,M,M,M,M,M,84.10,KRTS 092055Z AUTO VRB04G17KT 9SM -DZ CLR 31/01 A3006 RMK AO2,M
MEV,2021-09-09 20:55,-119.7500,38.9963,1441.42,91.40,32.00,12.14,290.00,5.00,0.00,30.02,M,10.00,M,CLR,M,M,M,M,M,M,M,M,M,M,M,M,M,M,86.91,KMEV 092055Z AUTO 29005KT 10SM CLR 33/00 A3002 RMK AO2,M
RNO,2021-09-09 20:55,-119.7711,39.4839,1341.00,96.00,34.00,11.37,210.00,10.00,T,29.99,1008.90,10.00,M,BKN,BKN,M,M,9500.00,20000.00,M,M,M,M,M,M,42.00,160.00,2021-09-09 20:27,90.89,KRNO 092055Z 21010KT 10SM BKN095 BKN200 36/01 A2999 RMK AO2 PK WND 16042/2027 RAB29E38 SLP089 HZ ALQDS P0000 60000 T03560011 56026,M
BAM,2021-09-09 20:55,-116.8743,40.5990,1382.36,96.80,28.40,8.87,220.00,5.00,0.00,30.04,M,7.00,M,CLR,M,M,M,M,M,M,M,M,M,M,M,M,M,M,90.75,KBAM 092055Z AUTO 22005KT 7SM CLR 36/M02 A3004 RMK AO1,M
TMT,2021-09-09 20:55,-117.1971,39.4643,1749.34,90.00,32.00,12.68,200.00,11.00,0.00,30.15,M,10.00,21.00,CLR,M,M,M,M,M,M,M,M,M,M,M,M,M,M,85.84,KTMT 092055Z AUTO 20011G21KT 10SM CLR 32/00 A3015 RMK AO2 T03220000,M
WMC,2021-09-09 20:56,-117.8072,40.9019,1315.00,97.00,32.00,10.21,M,4.00,0.00,29.99,1010.20,10.00,M,CLR,M,M,M,M,M,M,M,M,M,M,M,M,M,M,91.35,KWMC 092056Z AUTO VRB04KT 10SM CLR 36/00 A2999 RMK AO2 SLP102 6//// T03610000 58027 PNO $,M
LAS,2021-09-09 20:56,-115.1634,36.0719,663.00,103.00,48.00,15.91,M,5.00,0.00,29.92,1009.70,10.00,M,FEW,FEW,M,M,16000.00,25000.00,M,M,M,M,M,M,M,M,M,99.49,KLAS 092056Z VRB05KT 10SM FEW160 FEW250 39/09 A2992 RMK AO2 SLP097 T03940089 56025,M
TPH,2021-09-09 20:56,-117.0904,38.0505,1654.00,93.00,39.00,15.24,170.00,19.00,0.00,30.15,1012.30,10.00,25.00,CLR,M,M,M,M,M,M,M,M,M,M,M,M,M,M,88.73,KTPH 092056Z AUTO 17019G25KT 10SM CLR 34/04 A3015 RMK AO2 SLP123 T03390039 57024,M
EKO,2021-09-09 20:56,-115.7860,40.8242,1367.00,94.00,26.10,8.82,250.00,12.00,0.00,30.08,1012.60,10.00,M,CLR,M,M,M,M,M,M,M,M,M,M,M,M,M,M,88.20,KEKO 092056Z AUTO 25012KT 10SM CLR 34/M03 A3008 RMK AO2 SLP126 T03441033 58024,M
LSV,2021-09-09 20:56,-115.0343,36.2362,570.00,103.80,50.40,16.94,230.00,3.00,0.00,29.88,1008.80,10.00,M,CLR,M,M,M,M,M,M,M,M,M,M,M,M,M,M,101.05,KLSV 092056Z AUTO 23003KT 10SM CLR 40/10 A2988 RMK AO2 SLP088 T03990102 57024 $,M
HND,2021-09-09 20:56,-115.1344,35.9729,742.79,102.00,52.00,18.97,0.00,0.00,0.00,29.95,1012.20,10.00,M,FEW,M,M,M,12000.00,M,M,M,M,M,M,M,M,M,M,99.65,KHND 092056Z 00000KT 10SM FEW120 39/11 A2995 RMK AO2 SLP122 T03890111 57024,M
NFL,2021-09-09 20:56,-118.7010,39.4166,1199.00,98.00,28.00,8.39,M,4.00,0.00,29.95,1011.40,10.00,M,CLR,M,M,M,M,M,M,M,M,M,M,M,M,M,M,91.79,KNFL 092056Z VRB04KT 10SM CLR 37/M02 A2995 RMK AO2 SLP114 T03671022 58031,M
LAS,2021-09-09 20:59,-115.1634,36.0719,663.00,103.00,49.00,16.46,120.00,4.00,0.00,29.91,M,10.00,M,FEW,FEW,M,M,16000.00,25000.00,M,M,M,M,M,M,M,M,M,99.71,KLAS 092059Z 12004KT 10SM FEW160 FEW250 39/09 A2991 RMK AO2 T03940094,M
INS,2021-09-09 21:02,-115.6733,36.5872,955.00,99.70,40.00,12.96,30.00,3.00,0.00,29.97,1009.40,10.00,M,CLR,M,M,M,M,M,M,M,M,M,M,M,M,M,M,95.02,KINS 092102Z 03003KT 10SM CLR 38/05 A2997 RMK AO2 PRESFR SLP094 T03760045 57025 $,M
RTS,2021-09-09 21:15,-119.8764,39.6682,1539.00,89.60,30.20,11.94,130.00,14.00,0.00,30.05,M,10.00,M,CLR,M,M,M,M,M,M,M,M,M,M,M,M,M,M,85.34,KRTS 092115Z AUTO 13014KT 10SM CLR 32/M01 A3005 RMK AO2,M
BVU,2021-09-09 21:15,-114.8611,35.9475,671.00,104.00,48.20,15.52,140.00,7.00,0.00,29.89,M,10.00,13.00,CLR,M,M,M,M,M,M,M,M,M,M,M,M,M,M,100.65,KBVU 092115Z AUTO 14007G13KT 110V170 10SM CLR 40/09 A2989 RMK AO2,M
CXP,2021-09-09 21:15,-119.7326,39.1923,1431.00,93.20,32.00,11.48,M,3.00,0.00,30.03,M,7.00,M,CLR,M,M,M,M,M,M,M,M,M,M,M,M,M,M,88.31,KCXP 092115Z AUTO VRB03KT 7SM CLR 34/00 A3003 RMK AO2,M
MEV,2021-09-09 21:15,-119.7500,38.9963,1441.42,91.40,33.80,13.05,320.00,6.00,0.00,30.01,M,10.00,M,CLR,M,M,M,M,M,M,M,M,M,M,M,M,M,M,87.13,KMEV 092115Z AUTO 32006KT 10SM CLR 33/01 A3001 RMK AO2,M
TMT,2021-09-09 21:15,-117.1971,39.4643,1749.34,88.50,33.40,14.07,330.00,5.00,0.00,30.14,M,10.00,26.00,CLR,M,M,M,M,M,M,M,M,M,M,M,M,M,M,84.67,KTMT 092115Z AUTO 33005G26KT 10SM CLR 31/01 A3014 RMK AO2 T03140008,M
BAM,2021-09-09 21:15,-116.8743,40.5990,1382.36,98.60,28.40,8.40,260.00,9.00,0.00,30.03,M,10.00,15.00,CLR,M,M,M,M,M,M,M,M,M,M,M,M,M,M,92.25,KBAM 092115Z AUTO 26009G15KT 10SM CLR 37/M02 A3003 RMK AO1,M
CXP,2021-09-09 21:35,-119.7326,39.1923,1431.00,91.40,30.20,11.28,M,6.00,0.00,30.02,M,10.00,M,CLR,M,M,M,M,M,M,M,M,M,M,M,M,M,M,86.71,KCXP 092135Z AUTO VRB06KT 10SM CLR 33/M01 A3002 RMK AO2,M
RTS,2021-09-09 21:35,-119.8764,39.6682,1539.00,91.40,30.20,11.28,150.00,8.00,0.00,30.04,M,10.00,M,CLR,M,M,M,M,M,M,M,M,M,M,M,M,M,M,86.71,KRTS 092135Z AUTO 15008KT 10SM CLR 33/M01 A3004 RMK AO2,M
MEV,2021-09-09 21:35,-119.7500,38.9963,1441.42,93.20,32.00,11.48,330.00,4.00,0.00,30.01,M,8.00,M,CLR,M,M,M,M,M,M,M,M,M,M,M,M,M,M,88.31,KMEV 092135Z AUTO 33004KT 8SM CLR 34/00 A3001 RMK AO2,M
BAM,2021-09-09 21:35,-116.8743,40.5990,1382.36,98.60,28.40,8.40,220.00,4.00,0.00,30.02,M,10.00,M,CLR,M,M,M,M,M,M,M,M,M,M,M,M,M,M,92.25,KBAM 092135Z AUTO 22004KT 10SM CLR 37/M02 A3002 RMK AO1,M
BVU,2021-09-09 21:35,-114.8611,35.9475,671.00,105.80,46.40,13.75,170.00,12.00,0.00,29.88,M,10.00,M,CLR,M,M,M,M,M,M,M,M,M,M,M,M,M,M,101.97,KBVU 092135Z AUTO 17012KT 10SM CLR 41/08 A2988 RMK AO2,M
TMT,2021-09-09 21:35,-117.1971,39.4643,1749.34,86.00,37.20,17.71,240.00,12.00,0.00,30.14,M,10.00,24.00,CLR,M,M,M,M,M,M,M,-RA,M,M,M,M,M,M,82.72,KTMT 092135Z AUTO 24012G24KT 200V280 10SM -RA CLR 30/03 A3014 RMK AO2 T03000029,M
LOL,2021-09-09 21:53,-118.5701,40.0684,1192.43,99.00,32.00,9.60,130.00,9.00,0.00,29.93,1008.80,10.00,M,CLR,M,M,M,M,M,M,M,M,M,M,M,M,M,M,93.03,KLOL 092153Z AUTO 13009KT 10SM CLR 37/00 A2993 RMK AO2 SLP088 T03720000,M
ELY,2021-09-09 21:53,-114.8453,39.2950,1909.00,90.00,26.10,9.96,210.00,11.00,0.00,30.20,1011.80,10.00,25.00,CLR,M,M,M,M,M,M,M,M,M,M,M,26.00,230.00,2021-09-09 21:17,85.27,KELY 092153Z AUTO 21011G25KT 10SM CLR 32/M03 A3020 RMK AO2 PK WND 23026/2117 SLP118 T03221033,M
VGT,2021-09-09 21:53,-115.1933,36.2111,667.00,107.00,49.00,14.53,M,6.00,0.00,29.86,1009.50,10.00,M,CLR,M,M,M,M,M,M,M,M,M,M,M,M,M,M,103.95,KVGT 092153Z AUTO VRB06KT 10SM CLR 42/09 A2986 RMK AO2 SLP095 T04170094,M
DRA,2021-09-09 21:53,-116.0278,36.6206,1009.00,103.00,39.00,11.28,220.00,13.00,0.00,29.96,1008.40,10.00,27.00,CLR,M,M,M,M,M,M,M,M,M,M,M,31.00,220.00,2021-09-09 21:41,97.55,KDRA 092153Z AUTO 22013G27KT 10SM CLR 39/04 A2996 RMK AO2 PK WND 22031/2141 SLP084 T03940039,M
P68,2021-09-09 21:53,-116.0056,39.6014,1993.00,88.00,30.90,12.92,210.00,11.00,0.00,30.16,1012.50,M,20.00,M,M,M,M,M,M,M,M,M,M,M,M,28.00,230.00,2021-09-09 21:17,84.22,KP68 092153Z AUTO 21011G20KT 31/M01 A3016 RMK AO1 PK WND 23028/2117 SLP125 T03111006,M
CXP,2021-09-09 21:55,-119.7326,39.1923,1431.00,91.40,30.20,11.28,0.00,0.00,0.00,30.02,M,10.00,M,CLR,M,M,M,M,M,M,M,M,M,M,M,M,M,M,86.71,KCXP 092155Z AUTO 00000KT 10SM CLR 33/M01 A3002 RMK AO2,M
RTS,2021-09-09 21:55,-119.8764,39.6682,1539.00,91.40,28.40,10.48,130.00,11.00,0.00,30.04,M,10.00,M,CLR,M,M,M,M,M,M,M,M,M,M,M,M,M,M,86.53,KRTS 092155Z AUTO 13011KT 10SM CLR 33/M02 A3004 RMK AO2,M
MEV,2021-09-09 21:55,-119.7500,38.9963,1441.42,93.20,32.00,11.48,M,4.00,0.00,30.01,M,10.00,M,CLR,M,M,M,M,M,M,M,M,M,M,M,M,M,M,88.31,KMEV 092155Z AUTO VRB04KT 10SM CLR 34/00 A3001 RMK AO2,M
TMT,2021-09-09 21:55,-117.1971,39.4643,1749.34,89.00,33.80,14.02,220.00,7.00,0.00,30.12,M,10.00,M,CLR,M,M,M,M,M,M,M,M,M,M,M,M,M,M,85.17,KTMT 092155Z AUTO 22007KT 170V240 10SM CLR 32/01 A3012 RMK AO2 T03170010,M
BVU,2021-09-09 21:55,-114.8611,35.9475,671.00,104.00,44.60,13.54,210.00,4.00,0.00,29.87,M,8.00,15.00,CLR,M,M,M,M,M,M,M,M,M,M,M,M,M,M,99.82,KBVU 092155Z AUTO 21004G15KT 8SM CLR 40/07 A2987 RMK AO2,M
BAM,2021-09-09 21:55,-116.8743,40.5990,1382.36,98.60,28.40,8.40,0.00,0.00,0.00,30.01,M,10.00,M,CLR,M,M,M,M,M,M,M,M,M,M,M,M,M,M,92.25,KBAM 092155Z AUTO 00000KT 10SM CLR 37/M02 A3001 RMK AO1,M
RNO,2021-09-09 21:55,-119.7711,39.4839,1341.00,95.00,34.00,11.76,140.00,22.00,0.00,29.97,1008.20,10.00,28.00,BKN,BKN,M,M,9500.00,15000.00,M,M,M,M,M,M,28.00,130.00,2021-09-09 21:54,90.00,KRNO 092155Z 14022G28KT 10SM BKN095 BKN150 35/01 A2997 RMK AO2 PK WND 13028/2154 LTG DSNT S SLP082 HZ AND FU ALQDS T03500011,M
EKO,2021-09-09 21:56,-115.7860,40.8242,1367.00,95.00,27.00,8.85,200.00,4.00,0.00,30.06,1011.60,10.00,M,CLR,M,M,M,M,M,M,M,M,M,M,M,M,M,M,89.12,KEKO 092156Z AUTO 20004KT 10SM CLR 35/M03 A3006 RMK AO2 SLP116 T03501028,M
NFL,2021-09-09 21:56,-118.7010,39.4166,1199.00,100.00,27.00,7.60,210.00,9.00,0.00,29.91,1010.40,10.00,M,BKN,BKN,BKN,M,7000.00,12000.00,18000.00,M,M,M,M,M,M,M,M,93.28,KNFL 092156Z 21009KT 10SM BKN070 BKN120 BKN180 38/M03 A2991 RMK AO2 SLP104 CB DSNT N T03781028,M
LSV,2021-09-09 21:56,-115.0343,36.2362,570.00,104.40,49.00,15.86,0.00,0.00,0.00,29.84,1007.50,10.00,M,M,M,M,M,M,M,M,M,M,M,M,M,M,M,M,101.29,KLSV 092156Z AUTO 00000KT 10SM M 40/10 A2984 RMK AO2 SLP075 T04020095 $,M
HND,2021-09-09 21:56,-115.1344,35.9729,742.79,104.00,51.00,17.29,40.00,6.00,0.00,29.91,1010.80,10.00,16.00,CLR,M,M,M,M,M,M,M,M,M,M,M,M,M,M,101.47,KHND 092156Z 04006G16KT 10SM CLR 40/11 A2991 RMK AO2 SLP108 T04000106,M
TPH,2021-09-09 21:56,-117.0904,38.0505,1654.00,93.00,34.00,12.51,200.00,21.00,0.00,30.13,1011.40,10.00,29.00,CLR,M,M,M,M,M,M,M,M,M,M,M,32.00,190.00,2021-09-09 21:21,88.42,KTPH 092156Z AUTO 20021G29KT 10SM CLR 34/01 A3013 RMK AO2 PK WND 19032/2121 SLP114 T03390011,M
LAS,2021-09-09 21:56,-115.1634,36.0719,663.00,104.00,50.00,16.59,110.00,4.00,0.00,29.88,1008.50,10.00,M,FEW,FEW,M,M,16000.00,25000.00,M,M,M,M,M,M,M,M,M,101.14,KLAS 092156Z 11004KT 10SM FEW160 FEW250 40/10 A2988 RMK AO2 SLP085 CB DSNT NE-SE T04000100,M
WMC,2021-09-09 21:56,-117.8072,40.9019,1315.00,96.00,32.00,10.49,250.00,5.00,0.00,29.97,1009.20,10.00,M,CLR,M,M,M,M,M,M,M,M,M,M,M,M,M,M,90.61,KWMC 092156Z AUTO 25005KT 10SM CLR 36/00 A2997 RMK AO2 SLP092 T03560000,M
INS,2021-09-09 22:11,-115.6733,36.5872,955.00,100.00,40.30,12.94,100.00,7.00,0.00,29.93,1008.00,10.00,19.00,CLR,M,M,M,M,M,M,M,M,M,M,M,M,M,M,95.32,KINS 092211Z 10007G19KT 10SM CLR 38/05 A2993 RMK AO2 SLP080 T03780046 $,M
TMT,2021-09-09 22:15,-117.1971,39.4643,1749.34,90.00,34.20,13.85,220.00,11.00,0.00,30.11,M,10.00,16.00,CLR,M,M,M,M,M,M,M,M,M,M,M,M,M,M,85.94,KTMT 092215Z AUTO 22011G16KT 10SM CLR 32/01 A3011 RMK AO2 T03220012,M
BAM,2021-09-09 22:15,-116.8743,40.5990,1382.36,98.60,28.40,8.40,150.00,3.00,0.00,30.00,M,10.00,M,CLR,M,M,M,M,M,M,M,M,M,M,M,M,M,M,92.25,KBAM 092215Z AUTO 15003KT 10SM CLR 37/M02 A3000 RMK AO1,M
MEV,2021-09-09 22:15,-119.7500,38.9963,1441.42,89.60,39.20,17.09,140.00,12.00,0.00,30.02,M,6.00,M,CLR,M,M,M,M,M,M,M,HZ,M,M,M,M,M,M,85.73,KMEV 092215Z AUTO 14012KT 6SM HZ CLR 32/04 A3002 RMK AO2,M
CXP,2021-09-09 22:15,-119.7326,39.1923,1431.00,91.40,30.20,11.28,M,4.00,0.00,30.02,M,10.00,M,CLR,M,M,M,M,M,M,M,M,M,M,M,M,M,M,86.71,KCXP 092215Z AUTO VRB04KT 10SM CLR 33/M01 A3002 RMK AO2,M
BVU,2021-09-09 22:15,-114.8611,35.9475,671.00,107.60,41.00,10.60,190.00,14.00,0.00,29.86,M,10.00,M,CLR,M,M,M,M,M,M,M,M,M,M,M,M,M,M,102.16,KBVU 092215Z AUTO 19014KT 10SM CLR 42/05 A2986 RMK AO2 LTG DSNT SE,M
RTS,2021-09-09 22:15,-119.8764,39.6682,1539.00,91.40,28.40,10.48,130.00,8.00,0.00,30.03,M,10.00,M,CLR,M,M,M,M,M,M,M,M,M,M,M,M,M,M,86.53,KRTS 092215Z AUTO 13008KT 10SM CLR 33/M02 A3003 RMK AO2,M
INS,2021-09-09 22:24,-115.6733,36.5872,955.00,100.40,41.00,13.14,150.00,19.00,0.00,29.92,1007.70,10.00,30.00,CLR,M,M,M,M,M,M,M,M,M,M,M,M,M,M,95.79,KINS 092224Z AUTO 15019G30KT 10SM CLR 38/05 A2992 RMK AO2 WSHFT 19 SLP077 $,M
INS,2021-09-09 22:25,-115.6733,36.5872,955.00,100.40,41.00,13.14,200.00,14.00,0.00,29.92,1007.80,10.00,30.00,CLR,M,M,M,M,M,M,M,M,M,M,M,M,M,M,95.79,KINS 092225Z AUTO 20014G30KT 10SM CLR 38/05 A2992 RMK AO2 WSHFT 24 SLP078 $,M
NFL,2021-09-09 22:34,-118.7010,39.4166,1199.00,95.00,34.00,11.76,270.00,14.00,0.00,29.91,M,9.00,22.00,BKN,BKN,BKN,M,7000.00,12000.00,25000.00,M,M,M,M,M,M,M,M,90.00,KNFL 092234Z 27014G22KT 9SM BKN070 BKN120 BKN250 35/01 A2991 RMK AO2 WSHFT 2214 CB DSNT S-SW T03500011,M
TMT,2021-09-09 22:35,-117.1971,39.4643,1749.34,90.00,33.30,13.32,200.00,11.00,0.00,30.11,M,10.00,25.00,CLR,M,M,M,M,M,M,M,M,M,M,M,M,M,M,86.01,KTMT 092235Z AUTO 20011G25KT 10SM CLR 32/01 A3011 RMK AO2 LTG DSNT E T03230007,M
P68,2021-09-09 22:35,-116.0056,39.6014,1993.00,79.00,38.00,22.84,120.00,19.00,0.00,30.20,M,M,35.00,M,M,M,M,M,M,M,M,M,M,M,M,38.00,180.00,2021-09-09 22:16,79.00,KP68 092235Z AUTO 12019G35KT 26/03 A3020 RMK AO1 PK WND 18038/2216 WSHFT 2218 T02610033,M
RTS,2021-09-09 22:35,-119.8764,39.6682,1539.00,89.60,32.00,12.84,140.00,15.00,0.00,30.03,M,9.00,M,CLR,M,M,M,M,M,M,M,M,M,M,M,M,M,M,85.54,KRTS 092235Z AUTO 14015KT 9SM CLR 32/M00 A3003 RMK AO2,M
BAM,2021-09-09 22:35,-116.8743,40.5990,1382.36,96.80,28.40,8.87,220.00,4.00,0.00,30.00,M,10.00,M,CLR,M,M,M,M,M,M,M,M,M,M,M,M,M,M,90.75,KBAM 092235Z AUTO 22004KT 10SM CLR 36/M02 A3000 RMK AO1,M
MEV,2021-09-09 22:35,-119.7500,38.9963,1441.42,87.80,41.00,19.40,90.00,16.00,0.00,30.01,M,8.00,29.00,CLR,M,M,M,M,M,M,M,M,M,M,M,M,M,M,84.30,KMEV 092235Z AUTO 09016G29KT 8SM CLR 31/05 A3001 RMK AO2,M
BVU,2021-09-09 22:35,-114.8611,35.9475,671.00,105.80,42.80,11.98,150.00,16.00,0.00,29.86,M,10.00,21.00,CLR,M,M,M,M,M,M,M,M,M,M,M,M,M,M,101.02,KBVU 092235Z AUTO 15016G21KT 10SM CLR 41/06 A2986 RMK AO2,M
CXP,2021-09-09 22:35,-119.7326,39.1923,1431.00,89.60,33.80,13.80,110.00,9.00,0.00,30.03,M,9.00,15.00,BKN,M,M,M,12000.00,M,M,M,M,M,M,M,M,M,M,85.59,KCXP 092235Z AUTO 11009G15KT 9SM BKN120 32/01 A3003 RMK AO2 LTG DSNT N AND SE,M
INS,2021-09-09 22:48,-115.6733,36.5872,955.00,100.40,39.20,12.25,240.00,12.00,0.00,29.92,1007.70,10.00,17.00,CLR,M,M,M,M,M,M,M,M,M,M,M,M,M,M,95.43,KINS 092248Z AUTO 24012G17KT 10SM CLR 38/04 A2992 RMK AO2 WSHFT 47 SLP077 $,M
CXP,2021-09-09 22:50,-119.7326,39.1923,1431.00,87.80,39.20,18.09,100.00,12.00,0.00,30.03,M,9.00,18.00,SCT,M,M,M,12000.00,M,M,M,M,M,M,M,M,M,M,84.22,KCXP 092250Z AUTO 10012G18KT 9SM SCT120 31/04 A3003 RMK AO2 LTG DSNT S-NW,M
LOL,2021-09-09 22:53,-118.5701,40.0684,1192.43,100.00,32.00,9.32,220.00,6.00,0.00,29.90,1007.80,10.00,M,CLR,M,M,M,M,M,M,M,M,M,M,M,M,M,M,93.87,KLOL 092253Z AUTO 22006KT 10SM CLR 38/00 A2990 RMK AO2 SLP078 T03780000,M
ELY,2021-09-09 22:53,-114.8453,39.2950,1909.00,86.00,28.90,12.69,150.00,18.00,0.00,30.20,1012.40,6.00,37.00,FEW,M,M,M,11000.00,M,M,M,HZ,M,M,M,37.00,170.00,2021-09-09 22:49,82.58,KELY 092253Z AUTO 15018G37KT 6SM HZ FEW110 30/M02 A3020 RMK AO2 PK WND 17037/2249 WSHFT 2237 SLP124 T03001017,M
P68,2021-09-09 22:53,-116.0056,39.6014,1993.00,80.00,36.00,20.44,140.00,10.00,0.00,30.21,1014.90,M,21.00,M,M,M,M,M,M,M,M,M,M,M,M,38.00,180.00,2021-09-09 22:16,78.77,KP68 092253Z AUTO 14010G21KT 27/02 A3021 RMK AO1 PK WND 18038/2216 WSHFT 2218 SLP149 T02670022,M
VGT,2021-09-09 22:53,-115.1933,36.2111,667.00,106.00,49.00,15.01,150.00,7.00,0.00,29.84,1008.90,10.00,M,CLR,M,M,M,M,M,M,M,M,M,M,M,M,M,M,102.85,KVGT 092253Z 15007KT 10SM CLR 41/09 A2984 RMK AO2 SLP089 T04110094,M
DRA,2021-09-09 22:53,-116.0278,36.6206,1009.00,102.00,39.00,11.58,240.00,14.00,0.00,29.93,1007.60,10.00,25.00,CLR,M,M,M,M,M,M,M,M,M,M,M,31.00,230.00,2021-09-09 22:40,96.77,KDRA 092253Z AUTO 24014G25KT 10SM CLR 39/04 A2993 RMK AO2 PK WND 23031/2240 SLP076 T03890039,M
RTS,2021-09-09 22:55,-119.8764,39.6682,1539.00,87.80,32.00,13.59,120.00,9.00,0.00,30.03,M,10.00,M,CLR,M,M,M,M,M,M,M,M,M,M,M,M,M,M,84.08,KRTS 092255Z AUTO 12009KT 10SM CLR 31/00 A3003 RMK AO2,M
BAM,2021-09-09 22:55,-116.8743,40.5990,1382.36,96.80,28.40,8.87,190.00,10.00,0.00,30.00,M,3.00,M,CLR,M,M,M,M,M,M,M,M,M,M,M,M,M,M,90.75,KBAM 092255Z AUTO 19010KT 3SM CLR 36/M02 A3000 RMK AO1,M
TMT,2021-09-09 22:55,-117.1971,39.4643,1749.34,88.70,33.40,13.98,210.00,11.00,0.00,30.10,M,10.00,18.00,CLR,M,M,M,M,M,M,M,M,M,M,M,M,M,M,84.83,KTMT 092255Z AUTO 21011G18KT 10SM CLR 32/01 A3010 RMK AO2 T03150008,M
MEV,2021-09-09 22:55,-119.7500,38.9963,1441.42,87.80,37.40,16.86,70.00,12.00,0.00,30.00,M,10.00,20.00,CLR,M,M,M,M,M,M,M,M,M,M,M,M,M,M,84.16,KMEV 092255Z AUTO 07012G20KT 10SM CLR 31/03 A3000 RMK AO2,M
BVU,2021-09-09 22:55,-114.8611,35.9475,671.00,104.00,44.60,13.54,110.00,10.00,0.00,29.86,M,10.00,17.00,CLR,M,M,M,M,M,M,M,M,M,M,M,M,M,M,99.82,KBVU 092255Z AUTO 11010G17KT 10SM CLR 40/07 A2986 RMK AO2,M
RNO,2021-09-09 22:55,-119.7711,39.4839,1341.00,93.00,34.00,12.51,150.00,13.00,0.00,29.96,1007.80,10.00,M,BKN,BKN,M,M,9500.00,15000.00,M,M,M,M,M,M,M,M,M,88.42,KRNO 092255Z 15013KT 10SM BKN095 BKN150 34/01 A2996 RMK AO2 SLP078 HZ AND FU ALQDS T03390011,M
TPH,2021-09-09 22:56,-117.0904,38.0505,1654.00,92.00,30.90,11.43,190.00,17.00,0.00,30.11,1011.10,10.00,23.00,CLR,M,M,M,M,M,M,M,M,M,M,M,32.00,180.00,2021-09-09 22:25,87.17,KTPH 092256Z AUTO 19017G23KT 10SM CLR 33/M01 A3011 RMK AO2 PK WND 18032/2225 SLP111 T03331006,M
LAS,2021-09-09 22:56,-115.1634,36.0719,663.00,103.00,48.00,15.91,M,M,0.00,29.86,1007.80,10.00,M,SCT,SCT,M,M,14000.00,25000.00,M,M,M,M,M,M,M,M,M,99.49,KLAS 092256Z 10SM SCT140 SCT250 39/09 A2986 RMK AO2 SLP078 CB DSNT NE-SE T03940089,M
WMC,2021-09-09 22:56,-117.8072,40.9019,1315.00,100.00,28.90,8.22,210.00,12.00,0.00,29.94,1008.60,10.00,18.00,CLR,M,M,M,M,M,M,M,M,M,M,M,26.00,280.00,2021-09-09 22:41,93.48,KWMC 092256Z AUTO 21012G18KT 10SM CLR 38/M02 A2994 RMK AO2 PK WND 28026/2241 SLP086 T03781017,M
EKO,2021-09-09 22:56,-115.7860,40.8242,1367.00,92.00,28.00,10.15,230.00,11.00,0.00,30.05,1011.80,10.00,21.00,CLR,M,M,M,M,M,M,M,M,M,M,M,M,M,M,86.87,KEKO 092256Z AUTO 23011G21KT 10SM CLR 33/M02 A3005 RMK AO2 SLP118 T03331022,M
HND,2021-09-09 22:56,-115.1344,35.9729,742.79,106.00,45.00,12.96,160.00,7.00,0.00,29.90,1010.30,10.00,22.00,CLR,M,M,M,M,M,M,M,M,M,M,M,M,M,M,101.83,KHND 092256Z 16007G22KT 10SM CLR 41/07 A2990 RMK AO2 SLP103 T04110072,M
NFL,2021-09-09 22:56,-118.7010,39.4166,1199.00,94.00,33.00,11.74,270.00,20.00,0.00,29.92,1010.50,9.00,26.00,BKN,BKN,BKN,M,7000.00,12000.00,25000.00,M,M,M,M,M,26.00,260.00,2021-09-09 22:56,89.00,KNFL 092256Z 27020G26KT 9SM BKN070 BKN120 BKN250 34/01 A2992 RMK AO2 PK WND 26026/2256 WSHFT 2214 SLP105 CB DSNT S-SW T03440006,M
LSV,2021-09-09 22:58,-115.0343,36.2362,570.00,105.60,50.20,15.94,80.00,4.00,0.00,29.82,1006.80,10.00,M,FEW,M,M,M,13000.00,M,M,M,M,M,M,M,M,M,M,102.84,KLSV 092258Z AUTO 08004KT 10SM FEW130 41/10 A2982 RMK AO2 SLP068 T04090101 $,M
LAS,2021-09-09 22:58,-115.1634,36.0719,663.00,104.00,48.00,15.40,0.00,0.00,0.00,29.86,M,10.00,M,SCT,SCT,M,M,14000.00,25000.00,M,M,M,M,M,M,M,M,M,100.60,KLAS 092258Z 00000KT 10SM SCT140 SCT250 40/09 A2986 RMK AO2 CB DSNT NE-SE T04000089,M
INS,2021-09-09 22:58,-115.6733,36.5872,955.00,101.70,39.60,11.96,210.00,3.00,0.00,29.91,1007.30,9.00,17.00,CLR,M,M,M,M,M,M,M,M,M,M,M,30.00,120.00,2021-09-09 22:21,96.64,KINS 092258Z AUTO 21003G17KT 9SM CLR 39/04 A2991 RMK AO2 PK WND 12030/21 SLP073 T03870042 $,M
ELY,2021-09-09 23:00,-114.8453,39.2950,1909.00,84.00,32.00,15.35,120.00,8.00,0.00,30.19,M,9.00,33.00,FEW,FEW,M,M,10000.00,12000.00,M,M,M,M,M,M,33.00,150.00,2021-09-09 22:54,81.13,KELY 092300Z AUTO 12008G33KT 9SM FEW100 FEW120 29/00 A3019 RMK AO2 PK WND 15033/2254 WSHFT 2240 T02890000,M
P68,2021-09-09 23:12,-116.0056,39.6014,1993.00,79.00,37.00,22.05,230.00,19.00,0.00,30.22,M,M,29.00,M,M,M,M,M,M,M,M,M,M,M,M,29.00,240.00,2021-09-09 23:08,79.00,KP68 092312Z AUTO 23019G29KT 26/03 A3022 RMK AO1 PK WND 24029/2308 WSHFT 2255 T02610028,M
CXP,2021-09-09 23:15,-119.7326,39.1923,1431.00,84.20,41.00,21.76,40.00,7.00,0.00,30.04,M,10.00,15.00,FEW,M,M,M,12000.00,M,M,M,VCTS,M,M,M,M,M,M,81.52,KCXP 092315Z AUTO 04007G15KT 10SM VCTS FEW120 29/05 A3004 RMK AO2 LTG DSNT NW,M
RTS,2021-09-09 23:15,-119.8764,39.6682,1539.00,87.80,32.00,13.59,120.00,11.00,0.00,30.02,M,10.00,16.00,CLR,M,M,M,M,M,M,M,M,M,M,M,M,M,M,84.08,KRTS 092315Z AUTO 12011G16KT 10SM CLR 31/M00 A3002 RMK AO2,M
MEV,2021-09-09 23:15,-119.7500,38.9963,1441.42,89.60,35.60,14.83,70.00,4.00,0.00,30.00,M,10.00,10.00,CLR,M,M,M,M,M,M,M,M,M,M,M,M,M,M,85.62,KMEV 092315Z AUTO 07004G10KT 10SM CLR 32/02 A3000 RMK AO2 LTG DSNT NW,M
BAM,2021-09-09 23:15,-116.8743,40.5990,1382.36,95.00,30.20,10.09,110.00,12.00,0.00,30.00,M,10.00,M,CLR,M,M,M,M,M,M,M,M,M,M,M,M,M,M,89.48,KBAM 092315Z AUTO 11012KT 10SM CLR 35/M01 A3000 RMK AO1,M
TMT,2021-09-09 23:15,-117.1971,39.4643,1749.34,87.30,39.70,18.74,130.00,19.00,0.00,30.09,M,10.00,27.00,CLR,M,M,M,M,M,M,M,M,M,M,M,M,M,M,83.83,KTMT 092315Z AUTO 13019G27KT 10SM CLR 31/04 A3009 RMK AO2 T03070043,M
BVU,2021-09-09 23:15,-114.8611,35.9475,671.00,104.00,46.40,14.50,130.00,16.00,0.00,29.86,M,10.00,21.00,CLR,M,M,M,M,M,M,M,M,M,M,M,M,M,M,100.21,KBVU 092315Z AUTO 13016G21KT 10SM CLR 40/08 A2986 RMK AO2 LTG DSNT NE AND E,M
RNO,2021-09-09 23:32,-119.7711,39.4839,1341.00,86.00,47.00,25.74,160.00,20.00,T,29.99,M,7.00,M,BKN,BKN,M,M,9500.00,15000.00,M,M,-TSRA,M,M,M,37.00,150.00,2021-09-09 23:08,83.27,KRNO 092332Z 16020KT 7SM -TSRA BKN095 BKN150 30/08 A2999 RMK AO2 PK WND 15037/2308 LTG DSNT S AND SW RAB30 TSB27 PRESRR OCNL LTG OHD TS OHD MOV N FU AND HZ ALQDS P0000 T03000083,M
RTS,2021-09-09 23:35,-119.8764,39.6682,1539.00,86.00,35.60,16.63,150.00,23.00,0.00,30.03,M,6.00,36.00,BKN,M,M,M,12000.00,M,M,M,HZ,M,M,M,M,M,M,82.69,KRTS 092335Z AUTO 15023G36KT 6SM HZ BKN120 30/02 A3003 RMK AO2,M
BVU,2021-09-09 23:35,-114.8611,35.9475,671.00,104.00,44.60,13.54,140.00,15.00,0.00,29.85,M,10.00,M,CLR,M,M,M,M,M,M,M,M,M,M,M,M,M,M,99.82,KBVU 092335Z AUTO 14015KT 10SM CLR 40/07 A2985 RMK AO2,M
CXP,2021-09-09 23:35,-119.7326,39.1923,1431.00,84.20,37.40,18.91,0.00,0.00,0.00,30.03,M,10.00,10.00,CLR,M,M,M,M,M,M,M,M,M,M,M,M,M,M,81.38,KCXP 092335Z AUTO 00000G10KT 10SM CLR 29/03 A3003 RMK AO2 LTG DSNT N AND NW,M
MEV,2021-09-09 23:35,-119.7500,38.9963,1441.42,87.80,41.00,19.40,300.00,10.00,0.00,30.00,M,10.00,15.00,CLR,M,M,M,M,M,M,M,M,M,M,M,M,M,M,84.30,KMEV 092335Z AUTO 30010G15KT 10SM CLR 31/05 A3000 RMK AO2,M
BAM,2021-09-09 23:35,-116.8743,40.5990,1382.36,95.00,30.20,10.09,150.00,5.00,0.00,29.99,M,10.00,M,CLR,M,M,M,M,M,M,M,M,M,M,M,M,M,M,89.48,KBAM 092335Z AUTO 15005KT 10SM CLR 35/M01 A2999 RMK AO1,M
TMT,2021-09-09 23:35,-117.1971,39.4643,1749.34,84.20,40.80,21.60,150.00,21.00,0.00,30.09,M,7.00,27.00,CLR,M,M,M,M,M,M,M,M,M,M,M,M,M,M,81.51,KTMT 092335Z AUTO 15021G27KT 7SM CLR 29/05 A3009 RMK AO2 T02900049,M
INS,2021-09-09 23:42,-115.6733,36.5872,955.00,98.60,41.00,13.87,100.00,16.00,0.00,29.91,1007.50,10.00,22.00,FEW,FEW,M,M,7000.00,14000.00,M,M,-DZ,M,M,M,M,M,M,94.09,KINS 092342Z AUTO 10016G22KT 10SM -DZ FEW070 FEW140 37/05 A2991 RMK AO2 LTG DSNT W DZB42 SLP075 $,M
ELY,2021-09-09 23:42,-114.8453,39.2950,1909.00,87.00,36.00,16.31,190.00,22.00,0.00,30.19,M,7.00,35.00,BKN,M,M,M,11000.00,M,M,M,TS,M,M,M,35.00,210.00,2021-09-09 23:40,83.56,KELY 092342Z AUTO 19022G35KT 7SM TS BKN110 31/02 A3019 RMK AO2 PK WND 21035/2340 WSHFT 2240 TSB42 T03060022,M
INS,2021-09-09 23:43,-115.6733,36.5872,955.00,98.60,42.80,14.87,100.00,19.00,0.00,29.91,1007.50,10.00,24.00,FEW,SCT,M,M,7500.00,14000.00,M,M,TS -DZ,M,M,M,M,M,M,94.30,KINS 092343Z AUTO 10019G24KT 10SM TS -DZ FEW075 SCT140 37/06 A2991 RMK AO2 DZB42 TSB43 SLP075 $,M
INS,2021-09-09 23:49,-115.6733,36.5872,955.00,96.80,44.60,16.83,80.00,20.00,0.00,29.94,1008.70,8.00,37.00,FEW,SCT,M,M,2700.00,7500.00,M,M,-TSRA,M,M,M,M,M,M,92.79,KINS 092349Z AUTO 08020G37KT 8SM -TSRA FEW027 SCT075 36/07 A2994 RMK AO2 WSHFT 46 DZB42E48RAB48 TSB43 PRESRR SLP087 $,M
P68,2021-09-09 23:53,-116.0056,39.6014,1993.00,78.00,38.00,23.53,280.00,15.00,0.00,30.21,1014.90,M,22.00,M,M,M,M,M,M,M,M,M,M,M,M,29.00,240.00,2021-09-09 23:08,78.10,KP68 092353Z AUTO 28015G22KT 26/03 A3021 RMK AO1 PK WND 24029/2308 WSHFT 2255 SLP149 T02560033 10339 20250 53010,M
DRA,2021-09-09 23:53,-116.0278,36.6206,1009.00,101.00,38.00,11.47,250.00,13.00,0.00,29.92,1007.30,10.00,19.00,CLR,M,M,M,M,M,M,M,M,M,M,M,31.00,220.00,2021-09-09 23:10,95.60,KDRA 092353Z AUTO 25013G19KT 10SM CLR 38/03 A2992 RMK AO2 PK WND 22031/2310 SLP073 T03830033 10400 20367 56021,M
LOL,2021-09-09 23:53,-118.5701,40.0684,1192.43,97.00,32.00,10.21,230.00,11.00,0.00,29.89,1007.80,10.00,M,CLR,M,M,M,M,M,M,M,M,M,M,M,M,M,M,91.35,KLOL 092353Z AUTO 23011KT 10SM CLR 36/00 A2989 RMK AO2 SLP078 T03610000 10378 20311 56024,M
ELY,2021-09-09 23:53,-114.8453,39.2950,1909.00,78.00,42.00,27.70,140.00,29.00,T,30.22,1014.40,5.00,40.00,OVC,M,M,M,11000.00,M,M,M,-TSRA,M,M,M,40.00,150.00,2021-09-09 23:51,78.10,KELY 092353Z AUTO 14029G40KT 5SM -TSRA OVC110 26/06 A3022 RMK AO2 PK WND 15040/2351 WSHFT 2240 RAB51 TSB42 PRESRR SLP144 P0000 60000 T02560056 10333 20256 55001,M
VGT,2021-09-09 23:53,-115.1933,36.2111,667.00,106.00,43.00,12.01,160.00,14.00,0.00,29.82,1008.10,10.00,M,CLR,M,M,M,M,M,M,M,M,M,M,M,M,M,M,101.25,KVGT 092353Z 16014KT 10SM CLR 41/06 A2982 RMK AO2 LTG DSNT SW SLP081 T04110061 10417 20367 56025,M
MEV,2021-09-09 23:55,-119.7500,38.9963,1441.42,87.80,39.20,18.09,360.00,19.00,0.00,30.00,M,9.00,M,CLR,M,M,M,M,M,M,M,M,M,M,M,M,M,M,84.22,KMEV 092355Z AUTO 36019KT 9SM CLR 31/04 A3000 RMK AO2,M
RTS,2021-09-09 23:55,-119.8764,39.6682,1539.00,84.20,37.40,18.91,160.00,28.00,0.00,30.03,M,8.00,M,BKN,M,M,M,12000.00,M,M,M,M,M,M,M,M,M,M,81.38,KRTS 092355Z AUTO 16028KT 8SM BKN120 29/03 A3003 RMK AO2,M
BAM,2021-09-09 23:55,-116.8743,40.5990,1382.36,95.00,30.20,10.09,210.00,12.00,0.00,29.99,M,10.00,M,CLR,M,M,M,M,M,M,M,M,M,M,M,M,M,M,89.48,KBAM 092355Z AUTO 21012KT 10SM CLR 35/M01 A2999 RMK AO1,M
TMT,2021-09-09 23:55,-117.1971,39.4643,1749.34,86.20,37.60,17.88,150.00,18.00,0.00,30.10,M,10.00,25.00,CLR,M,M,M,M,M,M,M,M,M,M,M,M,M,M,82.89,KTMT 092355Z AUTO 15018G25KT 10SM CLR 30/03 A3010 RMK AO2 T03010031 10339 20286,M
RNO,2021-09-09 23:55,-119.7711,39.4839,1341.00,80.00,49.00,33.58,160.00,27.00,0.01,30.03,1011.10,8.00,48.00,BKN,BKN,M,M,9500.00,15000.00,M,M,-TSRA,M,M,M,48.00,180.00,2021-09-09 23:52,79.50,KRNO 092355Z 16027G48KT 8SM -TSRA BKN095CB BKN150 27/09 A3003 RMK AO2 PK WND 18048/2352 RAB30 TSB27 PRESRR SLP111 OCNL LTG OHD TS OHD MOV N P0001 60001 T02670094 10367 20261 53010,M
BVU,2021-09-09 23:55,-114.8611,35.9475,671.00,104.00,46.40,14.50,140.00,17.00,0.00,29.85,M,10.00,M,CLR,M,M,M,M,M,M,M,M,M,M,M,M,M,M,100.21,KBVU 092355Z AUTO 14017KT 10SM CLR 40/08 A2985 RMK AO2,M
CXP,2021-09-09 23:55,-119.7326,39.1923,1431.00,82.40,44.60,26.49,360.00,10.00,0.00,30.02,M,10.00,18.00,CLR,M,M,M,M,M,M,M,M,M,M,M,M,M,M,80.50,KCXP 092355Z AUTO 36010G18KT 10SM CLR 28/07 A3002 RMK AO2,M
EKO,2021-09-09 23:56,-115.7860,40.8242,1367.00,90.00,32.00,12.68,180.00,8.00,0.00,30.06,1012.20,10.00,M,CLR,M,M,M,M,M,M,M,M,M,M,M,45.00,230.00,2021-09-09 23:11,85.84,KEKO 092356Z AUTO 18008KT 10SM CLR 32/00 A3006 RMK AO2 PK WND 23045/2311 SLP122 T03220000 10361 20278 55007,M
TPH,2021-09-09 23:56,-117.0904,38.0505,1654.00,90.00,28.00,10.78,190.00,21.00,0.00,30.10,1011.20,10.00,28.00,CLR,M,M,M,M,M,M,M,M,M,M,M,31.00,180.00,2021-09-09 23:43,85.43,KTPH 092356Z AUTO 19021G28KT 10SM CLR 32/M02 A3010 RMK AO2 PK WND 18031/2343 SLP112 T03221022 10344 20283 56015,M
LAS,2021-09-09 23:56,-115.1634,36.0719,663.00,105.00,42.00,11.91,0.00,0.00,0.00,29.84,1007.20,10.00,M,SCT,SCT,M,M,14000.00,22000.00,M,M,M,M,M,M,M,M,M,100.21,KLAS 092356Z 00000KT 10SM SCT140 SCT220 41/06 A2984 RMK AO2 LTG DSNT W SLP072 CB DSNT E-SE AND NW-N T04060056 10411 20361 56023,M
HND,2021-09-09 23:56,-115.1344,35.9729,742.79,105.00,45.00,13.31,140.00,12.00,0.00,29.88,1009.90,10.00,M,CLR,M,M,M,M,M,M,M,M,M,M,M,M,M,M,100.97,KHND 092356Z 14012KT 10SM CLR 41/07 A2988 RMK AO2 LTG DSNT W SLP099 T04060072 10417 20372 56021,M
WMC,2021-09-09 23:56,-117.8072,40.9019,1315.00,99.00,26.10,7.55,220.00,13.00,0.00,29.92,1008.00,10.00,19.00,CLR,M,M,M,M,M,M,M,M,M,M,M,M,M,M,92.35,KWMC 092356Z AUTO 22013G19KT 10SM CLR 37/M03 A2992 RMK AO2 SLP080 6//// T03721033 10383 20311 56022 $,M
ELY,2021-09-09 23:57,-114.8453,39.2950,1909.00,74.00,45.00,35.60,90.00,21.00,T,30.21,M,3.00,40.00,OVC,M,M,M,11000.00,M,M,M,RA,M,M,M,35.00,110.00,2021-09-09 23:54,73.90,KELY 092357Z AUTO 09021G40KT 3SM RA OVC110 23/07 A3021 RMK AO2 PK WND 11035/2354 WSHFT 2341 TSE57 P0000 T02330072,M
INS,2021-09-09 23:58,-115.6733,36.5872,955.00,93.00,46.00,19.95,70.00,12.00,T,29.91,1007.80,7.00,37.00,FEW,SCT,SCT,M,2100.00,7000.00,13000.00,M,-TSRA,M,M,M,37.00,110.00,2021-09-09 23:47,89.31,KINS 092358Z AUTO 07012G37KT 7SM -TSRA FEW021 SCT070 SCT130 34/08 A2991 RMK AO2 PK WND 11037/47 DZB42E48RAB48 TSB43 PRESFR SLP078 P0000 60000 T03390078 10388 20338 $,M
LSV,2021-09-09 23:58,-115.0343,36.2362,570.00,106.00,42.80,11.91,170.00,16.00,0.00,29.80,1006.20,10.00,20.00,FEW,M,M,M,14000.00,M,M,M,M,M,M,M,M,M,M,101.20,KLSV 092358Z AUTO 17016G20KT 10SM FEW140 41/06 A2980 RMK AO2 SLP062 T04110060 10411 20402 $,M
INS,2021-09-09 23:59,-115.6733,36.5872,955.00,93.20,44.60,18.80,40.00,13.00,0.00,29.92,1008.20,8.00,30.00,FEW,SCT,SCT,M,2100.00,7000.00,13000.00,M,-RA,M,M,M,M,M,M,89.34,KINS 092359Z AUTO 04013G30KT 8SM -RA FEW021 SCT070 SCT130 34/07 A2992 RMK AO2 WSHFT 50 LTG DSNT N TSE59 SLP082 $,M
