station,valid,lon,lat,elevation,tmpf,dwpf,relh,drct,sknt,p01i,alti,mslp,vsby,gust,skyc1,skyc2,skyc3,skyc4,skyl1,skyl2,skyl3,skyl4,wxcodes,ice_accretion_1hr,ice_accretion_3hr,ice_accretion_6hr,peak_wind_gust,peak_wind_drct,peak_wind_time,feel,metar,snowdepth
05U,2023-09-10 00:10,-116.0051,39.6042,1811.23,75.20,41.00,29.23,M,3.00,0.00,30.29,M,10.00,M,CLR,M,M,M,M,M,M,M,M,M,M,M,M,M,M,75.20,K05U 100010Z AUTO VRB03KT 10SM CLR 24/05 A3029 RMK A01,M
BVU,2023-09-10 00:15,-114.8611,35.9475,671.00,100.40,44.60,15.08,30.00,8.00,0.00,29.91,M,10.00,M,CLR,M,M,M,M,M,M,M,M,M,M,M,M,M,M,96.31,KBVU 100015Z AUTO 03008KT 10SM CLR 38/07 A2991 RMK AO2,M
CXP,2023-09-10 00:15,-119.7326,39.1923,1431.00,82.40,37.40,20.04,230.00,7.00,0.00,30.18,M,10.00,15.00,CLR,M,M,M,M,M,M,M,M,M,M,M,M,M,M,80.14,KCXP 100015Z AUTO 23007G15KT 10SM CLR 28/03 A3018 RMK AO2,M
RTS,2023-09-10 00:15,-119.8764,39.6682,1539.00,80.60,37.40,21.25,250.00,17.00,0.00,30.19,M,10.00,M,CLR,M,M,M,M,M,M,M,M,M,M,M,M,M,M,79.02,KRTS 100015Z AUTO 25017KT 10SM CLR 27/03 A3019 RMK AO2,M
MEV,2023-09-10 00:15,-119.7500,38.9963,1441.42,80.60,44.60,28.08,170.00,18.00,0.00,30.17,M,10.00,26.00,CLR,M,M,M,M,M,M,M,M,M,M,M,M,M,M,79.42,KMEV 100015Z AUTO 17018G26KT 10SM CLR 27/07 A3017 RMK AO2,M
BAM,2023-09-10 00:15,-116.8743,40.5990,1382.36,86.00,37.40,17.85,260.00,12.00,0.00,30.15,M,10.00,16.00,CLR,M,M,M,M,M,M,M,M,M,M,M,M,M,M,82.73,KBAM 100015Z AUTO 26012G16KT 10SM CLR 30/03 A3015 RMK AO1,M
HTH,2023-09-10 00:15,-118.6315,38.5448,1282.89,80.60,44.60,28.08,0.00,0.00,0.00,30.16,M,10.00,M,FEW,M,M,M,11000.00,M,M,M,M,M,M,M,M,M,M,79.42,KHTH 100015Z AUTO 00000KT 10SM FEW110 27/07 A3016 RMK A01,M
10U,2023-09-10 00:15,-116.1876,41.9532,1637.00,80.60,24.80,12.76,280.00,7.00,0.00,30.21,M,10.00,14.00,CLR,M,M,M,M,M,M,M,M,M,M,M,M,M,M,78.94,K10U 100015Z AUTO 28007G14KT 10SM CLR 27/M04 A3021 RMK AO2,M
TMT,2023-09-10 00:15,-117.1971,39.4643,1749.34,73.40,39.70,29.53,210.00,17.00,0.00,30.28,M,M,22.00,CLR,M,M,M,M,M,M,M,M,M,M,M,M,M,M,73.40,KTMT 100015Z AUTO 21017G22KT CLR 23/04 A3028 RMK AO2 LTG DSNT S T02300043 PWINO,M
05U,2023-09-10 00:30,-116.0051,39.6042,1811.23,75.20,37.40,25.40,10.00,10.00,0.00,30.29,M,10.00,M,CLR,M,M,M,M,M,M,M,M,M,M,M,M,M,M,75.20,K05U 100030Z AUTO 01010KT 10SM CLR 24/03 A3029 RMK A01,M
BVU,2023-09-10 00:35,-114.8611,35.9475,671.00,100.40,42.80,14.08,30.00,9.00,0.00,29.91,M,10.00,M,CLR,M,M,M,M,M,M,M,M,M,M,M,M,M,M,96.04,KBVU 100035Z AUTO 03009KT 10SM CLR 38/06 A2991 RMK AO2,M
CXP,2023-09-10 00:35,-119.7326,39.1923,1431.00,82.40,39.20,21.51,240.00,10.00,0.00,30.17,M,10.00,20.00,CLR,M,M,M,M,M,M,M,M,M,M,M,M,M,M,80.21,KCXP 100035Z AUTO 24010G20KT 10SM CLR 28/04 A3017 RMK AO2,M
RTS,2023-09-10 00:35,-119.8764,39.6682,1539.00,80.60,35.60,19.79,260.00,14.00,0.00,30.19,M,10.00,23.00,CLR,M,M,M,M,M,M,M,M,M,M,M,M,M,M,78.94,KRTS 100035Z AUTO 26014G23KT 10SM CLR 27/02 A3019 RMK AO2,M
MEV,2023-09-10 00:35,-119.7500,38.9963,1441.42,80.60,44.60,28.08,170.00,10.00,0.00,30.16,M,10.00,19.00,CLR,M,M,M,M,M,M,M,M,M,M,M,M,M,M,79.42,KMEV 100035Z AUTO 17010G19KT 10SM CLR 27/07 A3016 RMK AO2 LTG DSNT E-SW,M
BAM,2023-09-10 00:35,-116.8743,40.5990,1382.36,84.20,37.40,18.91,240.00,7.00,0.00,30.15,M,10.00,M,CLR,M,M,M,M,M,M,M,M,M,M,M,M,M,M,81.38,KBAM 100035Z AUTO 24007KT 10SM CLR 29/03 A3015 RMK AO1,M
HTH,2023-09-10 00:35,-118.6315,38.5448,1282.89,78.80,46.40,31.90,50.00,6.00,0.00,30.16,M,10.00,M,BKN,M,M,M,10000.00,M,M,M,M,M,M,M,M,M,M,78.80,KHTH 100035Z AUTO 05006KT 10SM BKN100 26/08 A3016 RMK A01,M
10U,2023-09-10 00:35,-116.1876,41.9532,1637.00,78.80,26.60,14.59,240.00,7.00,0.00,30.21,M,10.00,M,CLR,M,M,M,M,M,M,M,M,M,M,M,M,M,M,78.80,K10U 100035Z AUTO 24007KT 210V270 10SM CLR 26/M03 A3021 RMK AO2,M
TMT,2023-09-10 00:35,-117.1971,39.4643,1749.34,72.50,41.00,32.01,210.00,16.00,0.00,30.28,M,M,23.00,CLR,M,M,M,M,M,M,M,M,M,M,M,M,M,M,72.50,KTMT 100035Z AUTO 21016G23KT CLR 23/05 A3028 RMK AO2 LTG DSNT W T02250049 PWINO,M
05U,2023-09-10 00:50,-116.0051,39.6042,1811.23,75.20,37.40,25.40,10.00,12.00,0.00,30.29,M,10.00,M,CLR,M,M,M,M,M,M,M,M,M,M,M,M,M,M,75.20,K05U 100050Z AUTO 01012KT 10SM CLR 24/03 A3029 RMK A01,M
P68,2023-09-10 00:53,-116.0056,39.6014,1993.00,74.00,37.00,26.03,200.00,11.00,0.00,30.26,1018.50,M,M,M,M,M,M,M,M,M,M,M,M,M,M,M,M,M,74.00,KP68 100053Z AUTO 20011KT 23/03 A3026 RMK AO1 SLP185 T02330028,M
DRA,2023-09-10 00:53,-116.0278,36.6206,1009.00,96.00,47.00,18.89,260.00,9.00,0.00,30.02,1011.30,10.00,M,CLR,M,M,M,M,M,M,M,M,M,M,M,M,M,M,92.36,KDRA 100053Z AUTO 26009KT 10SM CLR 36/08 A3002 RMK AO2 SLP113 T03560083,M
ELY,2023-09-10 00:53,-114.8453,39.2950,1909.00,68.00,49.00,50.59,10.00,11.00,0.00,30.33,1019.70,10.00,M,CLR,M,M,M,M,M,M,M,M,M,M,M,M,M,M,68.00,KELY 100053Z AUTO 01011KT 10SM CLR 20/09 A3033 RMK AO2 SLP197 T02000094,M
VGT,2023-09-10 00:53,-115.1933,36.2111,667.00,102.00,47.00,15.74,130.00,6.00,0.00,29.91,1011.60,10.00,M,CLR,M,M,M,M,M,M,M,M,M,M,M,M,M,M,98.36,KVGT 100053Z 13006KT 10SM CLR 39/08 A2991 RMK AO2 SLP116 T03890083,M
LOL,2023-09-10 00:53,-118.5701,40.0684,1192.43,86.00,43.00,22.19,170.00,6.00,0.00,30.07,1015.20,10.00,M,FEW,M,M,M,11000.00,M,M,M,M,M,M,M,M,M,M,82.97,KLOL 100053Z AUTO 17006KT 10SM FEW110 30/06 A3007 RMK AO2 SLP152 T03000061,M
BVU,2023-09-10 00:55,-114.8611,35.9475,671.00,100.40,42.80,14.08,40.00,8.00,0.00,29.91,M,10.00,M,CLR,M,M,M,M,M,M,M,M,M,M,M,M,M,M,96.04,KBVU 100055Z AUTO 04008KT 10SM CLR 38/06 A2991 RMK AO2,M
CXP,2023-09-10 00:55,-119.7326,39.1923,1431.00,80.60,41.00,24.46,260.00,10.00,0.00,30.17,M,10.00,M,CLR,M,M,M,M,M,M,M,M,M,M,M,M,M,M,79.20,KCXP 100055Z AUTO 26010KT 10SM CLR 27/05 A3017 RMK AO2 LTG DSNT S,M
RNO,2023-09-10 00:55,-119.7711,39.4839,1341.00,84.00,43.00,23.66,240.00,13.00,0.00,30.13,1015.40,10.00,M,FEW,FEW,M,M,10000.00,13000.00,M,M,M,M,M,M,M,M,M,81.48,KRNO 100055Z 24013KT 10SM FEW100 FEW130 29/06 A3013 RMK AO2 SLP154 T02890061,M
LSV,2023-09-10 00:55,-115.0343,36.2362,570.00,103.00,44.60,13.95,30.00,5.00,0.00,29.87,1008.90,10.00,M,CLR,M,M,M,M,M,M,M,M,M,M,M,M,M,M,98.85,KLSV 100055Z AUTO 03005KT 10SM CLR 40/07 A2987 RMK AO2 SLP089 T03950070 $,M
RTS,2023-09-10 00:55,-119.8764,39.6682,1539.00,78.80,32.00,18.18,250.00,17.00,0.00,30.19,M,10.00,M,CLR,M,M,M,M,M,M,M,M,M,M,M,M,M,M,78.80,KRTS 100055Z AUTO 25017KT 10SM CLR 26/00 A3019 RMK AO2,M
MEV,2023-09-10 00:55,-119.7500,38.9963,1441.42,78.80,44.60,29.79,180.00,11.00,0.00,30.16,M,10.00,M,CLR,M,M,M,M,M,M,M,M,M,M,M,M,M,M,78.80,KMEV 100055Z AUTO 18011KT 10SM CLR 26/07 A3016 RMK AO2 LTG DSNT SE AND S,M
HTH,2023-09-10 00:55,-118.6315,38.5448,1282.89,73.40,51.80,46.71,190.00,9.00,0.06,30.18,M,5.00,14.00,FEW,SCT,BKN,M,300.00,3900.00,6000.00,M,HZ,M,M,M,M,M,M,73.40,KHTH 100055Z AUTO 19009G14KT 160V220 5SM HZ FEW003 SCT039 BKN060 23/11 A3018 RMK A01 P0006,M
BAM,2023-09-10 00:55,-116.8743,40.5990,1382.36,84.20,37.40,18.91,240.00,7.00,0.00,30.15,M,10.00,M,CLR,M,M,M,M,M,M,M,M,M,M,M,M,M,M,81.38,KBAM 100055Z AUTO 24007KT 10SM CLR 29/03 A3015 RMK AO1,M
TMT,2023-09-10 00:55,-117.1971,39.4643,1749.34,72.00,40.00,31.32,200.00,10.00,0.00,30.27,M,M,20.00,CLR,M,M,M,M,M,M,M,M,M,M,M,M,M,M,72.00,KTMT 100055Z AUTO 20010G20KT CLR 22/04 A3027 RMK AO2 LTG DSNT S T02220044 PWINO,M
10U,2023-09-10 00:55,-116.1876,41.9532,1637.00,78.80,28.40,15.71,250.00,7.00,0.00,30.21,M,10.00,M,CLR,M,M,M,M,M,M,M,M,M,M,M,M,M,M,78.80,K10U 100055Z AUTO 25007KT 10SM CLR 26/M02 A3021 RMK AO2,M
INS,2023-09-10 00:55,-115.6733,36.5872,955.00,96.00,39.20,14.00,90.00,7.00,0.00,30.00,1010.90,10.00,M,CLR,M,M,M,M,M,M,M,M,M,M,M,M,M,M,91.49,KINS 100055Z AUTO 09007KT 10SM CLR 36/04 A3000 RMK AO2 SLP109 T03560040 $,M
EKO,2023-09-10 00:56,-115.7860,40.8242,1367.00,76.00,44.00,31.95,170.00,16.00,0.00,30.19,1018.30,10.00,27.00,FEW,M,M,M,11000.00,M,M,M,M,M,M,M,27.00,170.00,2023-09-10 00:48,76.00,KEKO 100056Z AUTO 17016G27KT 10SM FEW110 24/07 A3019 RMK AO2 PK WND 17027/0048 SLP183 T02440067,M
WMC,2023-09-10 00:56,-117.8072,40.9019,1315.00,86.00,32.00,14.40,210.00,7.00,0.00,30.11,1016.00,10.00,M,CLR,M,M,M,M,M,M,M,M,M,M,M,M,M,M,82.64,KWMC 100056Z AUTO 21007KT 160V250 10SM CLR 30/00 A3011 RMK AO2 SLP160 T03000000,M
NFL,2023-09-10 00:56,-118.7010,39.4166,1199.00,85.00,41.00,21.21,210.00,11.00,0.00,30.08,1015.50,10.00,M,FEW,M,M,M,11000.00,M,M,M,M,M,M,M,M,M,M,82.10,KNFL 100056Z AUTO 21011KT 10SM FEW110 29/05 A3008 RMK AO2 SLP155 T02940050,M
HND,2023-09-10 00:56,-115.1344,35.9729,742.79,101.00,48.00,16.85,280.00,7.00,0.00,29.97,1013.00,10.00,M,CLR,M,M,M,M,M,M,M,M,M,M,M,M,M,M,97.57,KHND 100056Z 28007KT 10SM CLR 38/09 A2997 RMK AO2 SLP130 T03830089,M
LAS,2023-09-10 00:56,-115.1634,36.0719,663.00,101.00,45.00,15.04,M,4.00,0.00,29.92,1010.20,10.00,M,FEW,FEW,M,M,10000.00,20000.00,M,M,M,M,M,M,M,M,M,96.97,KLAS 100056Z VRB04KT 10SM FEW100 FEW200 38/07 A2992 RMK AO2 SLP102 T03830072 $,M
LOL,2023-09-10 01:06,-118.5701,40.0684,1192.43,85.00,43.00,22.91,170.00,7.00,0.00,30.06,M,10.00,M,FEW,M,M,M,11000.00,M,M,M,VCTS,M,M,M,M,M,M,82.21,KLOL 100106Z AUTO 17007KT 10SM VCTS FEW110 29/06 A3006 RMK AO2 LTG DSNT S AND SW T02940061,M
05U,2023-09-10 01:10,-116.0051,39.6042,1811.23,73.40,37.40,26.98,350.00,10.00,0.00,30.29,M,10.00,M,CLR,M,M,M,M,M,M,M,M,M,M,M,M,M,M,73.40,K05U 100110Z AUTO 35010KT 10SM CLR 23/03 A3029 RMK A01,M
BVU,2023-09-10 01:15,-114.8611,35.9475,671.00,98.60,44.60,15.93,30.00,7.00,0.00,29.91,M,10.00,M,CLR,M,M,M,M,M,M,M,M,M,M,M,M,M,M,94.55,KBVU 100115Z AUTO 03007KT 10SM CLR 37/07 A2991 RMK AO2,M
CXP,2023-09-10 01:15,-119.7326,39.1923,1431.00,80.60,41.00,24.46,260.00,8.00,0.00,30.18,M,10.00,M,CLR,M,M,M,M,M,M,M,VCTS,M,M,M,M,M,M,79.20,KCXP 100115Z AUTO 26008KT 10SM VCTS CLR 27/05 A3018 RMK AO2 LTG DSNT SE,M
RTS,2023-09-10 01:15,-119.8764,39.6682,1539.00,77.00,32.00,19.30,260.00,15.00,0.00,30.20,M,10.00,M,CLR,M,M,M,M,M,M,M,M,M,M,M,M,M,M,77.00,KRTS 100115Z AUTO 26015KT 10SM CLR 25/00 A3020 RMK AO2,M
MEV,2023-09-10 01:15,-119.7500,38.9963,1441.42,78.80,44.60,29.79,190.00,10.00,0.00,30.16,M,10.00,15.00,CLR,M,M,M,M,M,M,M,VCTS,M,M,M,M,M,M,78.80,KMEV 100115Z AUTO 19010G15KT 10SM VCTS CLR 26/07 A3016 RMK AO2 LTG DSNT E AND SE,M
HTH,2023-09-10 01:15,-118.6315,38.5448,1282.89,69.80,53.60,56.38,310.00,18.00,0.00,30.16,M,M,M,SCT,BKN,OVC,M,3900.00,7500.00,10000.00,M,M,M,M,M,M,M,M,69.80,KHTH 100115Z AUTO 31018KT SCT039 BKN075 OVC100 21/12 A3016 RMK A01,M
10U,2023-09-10 01:15,-116.1876,41.9532,1637.00,77.00,28.40,16.67,270.00,6.00,0.00,30.21,M,10.00,M,CLR,M,M,M,M,M,M,M,M,M,M,M,M,M,M,77.00,K10U 100115Z AUTO 27006KT 10SM CLR 25/M02 A3021 RMK AO2,M
BAM,2023-09-10 01:15,-116.8743,40.5990,1382.36,84.20,37.40,18.91,240.00,7.00,0.00,30.15,M,10.00,M,CLR,M,M,M,M,M,M,M,M,M,M,M,M,M,M,81.38,KBAM 100115Z AUTO 24007KT 10SM CLR 29/03 A3015 RMK AO1,M
TMT,2023-09-10 01:15,-117.1971,39.4643,1749.34,71.40,40.00,31.96,200.00,7.00,0.00,30.27,M,M,M,CLR,M,M,M,M,M,M,M,VCTS,M,M,M,M,M,M,71.40,KTMT 100115Z AUTO 20007KT VCTS CLR 22/04 A3027 RMK AO2 LTG DSNT E AND SW T02190044,M
05U,2023-09-10 01:30,-116.0051,39.6042,1811.23,71.60,37.40,28.68,360.00,10.00,0.00,30.30,M,10.00,M,CLR,M,M,M,M,M,M,M,M,M,M,M,M,M,M,71.60,K05U 100130Z AUTO 36010KT 10SM CLR 22/03 A3030 RMK A01,M
RTS,2023-09-10 01:35,-119.8764,39.6682,1539.00,75.20,33.80,22.02,260.00,13.00,0.00,30.20,M,10.00,19.00,CLR,M,M,M,M,M,M,M,M,M,M,M,M,M,M,75.20,KRTS 100135Z AUTO 26013G19KT 10SM CLR 24/01 A3020 RMK AO2,M
MEV,2023-09-10 01:35,-119.7500,38.9963,1441.42,77.00,44.60,31.62,210.00,12.00,0.00,30.17,M,10.00,M,CLR,M,M,M,M,M,M,M,M,M,M,M,M,M,M,77.00,KMEV 100135Z AUTO 21012KT 10SM CLR 25/07 A3017 RMK AO2,M
HTH,2023-09-10 01:35,-118.6315,38.5448,1282.89,68.00,55.40,64.04,130.00,13.00,0.00,30.19,M,10.00,21.00,FEW,SCT,BKN,M,3700.00,9500.00,12000.00,M,M,M,M,M,M,M,M,68.00,KHTH 100135Z AUTO 13013G21KT 10SM FEW037 SCT095 BKN120 20/13 A3019 RMK A01,M
10U,2023-09-10 01:35,-116.1876,41.9532,1637.00,75.20,30.20,19.05,250.00,6.00,0.00,30.22,M,10.00,M,CLR,M,M,M,M,M,M,M,M,M,M,M,M,M,M,75.20,K10U 100135Z AUTO 25006KT 10SM CLR 24/M01 A3022 RMK AO2,M
BVU,2023-09-10 01:35,-114.8611,35.9475,671.00,96.80,44.60,16.83,40.00,6.00,0.00,29.91,M,10.00,M,CLR,M,M,M,M,M,M,M,M,M,M,M,M,M,M,92.79,KBVU 100135Z AUTO 04006KT 10SM CLR 36/07 A2991 RMK AO2,M
CXP,2023-09-10 01:35,-119.7326,39.1923,1431.00,78.80,42.80,27.81,250.00,7.00,0.00,30.18,M,10.00,M,CLR,M,M,M,M,M,M,M,M,M,M,M,M,M,M,78.80,KCXP 100135Z AUTO 25007KT 10SM CLR 26/06 A3018 RMK AO2,M
BAM,2023-09-10 01:35,-116.8743,40.5990,1382.36,80.60,41.00,24.46,240.00,6.00,0.00,30.15,M,10.00,M,CLR,M,M,M,M,M,M,M,M,M,M,M,M,M,M,79.20,KBAM 100135Z AUTO 24006KT 10SM CLR 27/05 A3015 RMK AO1,M
TMT,2023-09-10 01:35,-117.1971,39.4643,1749.34,70.50,40.60,33.73,120.00,3.00,0.00,30.25,M,M,M,CLR,M,M,M,M,M,M,M,M,M,M,M,M,M,M,70.50,KTMT 100135Z AUTO 12003KT CLR 21/05 A3025 RMK AO2 LTG DSNT SW T02140048 PWINO,M
LOL,2023-09-10 01:44,-118.5701,40.0684,1192.43,78.00,47.00,33.50,140.00,13.00,0.00,30.07,M,10.00,M,SCT,M,M,M,11000.00,M,M,M,VCTS,M,M,M,28.00,160.00,2023-09-10 01:32,78.00,KLOL 100144Z AUTO 14013KT 10SM VCTS SCT110 26/08 A3007 RMK AO2 PK WND 16028/0132 WSHFT 0124 LTG DSNT E AND SE T02560083,M
05U,2023-09-10 01:50,-116.0051,39.6042,1811.23,69.80,37.40,30.49,360.00,7.00,0.00,30.31,M,10.00,M,CLR,M,M,M,M,M,M,M,M,M,M,M,M,M,M,69.80,K05U 100150Z AUTO 36007KT 10SM CLR 21/03 A3031 RMK A01,M
HTH,2023-09-10 01:50,-118.6315,38.5448,1282.89,68.00,55.40,64.04,130.00,11.00,0.00,30.18,M,10.00,M,BKN,M,M,M,11000.00,M,M,M,M,M,M,M,M,M,M,68.00,KHTH 100150Z AUTO 13011KT 10SM BKN110 20/13 A3018 RMK A01,M
P68,2023-09-10 01:53,-116.0056,39.6014,1993.00,70.00,38.00,31.00,200.00,8.00,0.00,30.28,1019.50,M,M,M,M,M,M,M,M,M,M,M,M,M,M,M,M,M,70.00,KP68 100153Z AUTO 20008KT 21/03 A3028 RMK AO1 SLP195 T02110033,M
DRA,2023-09-10 01:53,-116.0278,36.6206,1009.00,91.00,46.00,21.24,280.00,6.00,0.00,30.03,1012.00,10.00,M,CLR,M,M,M,M,M,M,M,M,M,M,M,M,M,M,87.45,KDRA 100153Z AUTO 28006KT 10SM CLR 33/08 A3003 RMK AO2 SLP120 T03280078,M
ELY,2023-09-10 01:53,-114.8453,39.2950,1909.00,63.00,51.00,64.85,350.00,3.00,0.00,30.33,1020.30,10.00,M,CLR,M,M,M,M,M,M,M,M,M,M,M,M,M,M,63.00,KELY 100153Z AUTO 35003KT 10SM CLR 17/11 A3033 RMK AO2 SLP203 T01720106,M
VGT,2023-09-10 01:53,-115.1933,36.2111,667.00,101.00,47.00,16.22,0.00,0.00,0.00,29.92,1011.70,10.00,M,CLR,M,M,M,M,M,M,M,M,M,M,M,M,M,M,97.35,KVGT 100153Z 00000KT 10SM CLR 38/08 A2992 RMK AO2 SLP117 T03830083,M
LOL,2023-09-10 01:53,-118.5701,40.0684,1192.43,77.00,47.00,34.63,120.00,10.00,0.00,30.07,1015.90,10.00,M,FEW,M,M,M,11000.00,M,M,M,M,M,M,M,28.00,160.00,2023-09-10 01:32,77.00,KLOL 100153Z AUTO 12010KT 10SM FEW110 25/08 A3007 RMK AO2 PK WND 16028/0132 WSHFT 0124 LTG DSNT E SLP159 T02500083,M
MEV,2023-09-10 01:55,-119.7500,38.9963,1441.42,75.20,42.80,31.34,230.00,7.00,0.00,30.18,M,10.00,14.00,CLR,M,M,M,M,M,M,M,M,M,M,M,M,M,M,75.20,KMEV 100155Z AUTO 23007G14KT 10SM CLR 24/06 A3018 RMK AO2,M
BVU,2023-09-10 01:55,-114.8611,35.9475,671.00,96.80,44.60,16.83,60.00,6.00,0.00,29.92,M,10.00,M,CLR,M,M,M,M,M,M,M,M,M,M,M,M,M,M,92.79,KBVU 100155Z AUTO 06006KT 10SM CLR 36/07 A2992 RMK AO2,M
CXP,2023-09-10 01:55,-119.7326,39.1923,1431.00,77.00,42.80,29.51,240.00,3.00,0.00,30.18,M,10.00,M,CLR,M,M,M,M,M,M,M,M,M,M,M,M,M,M,77.00,KCXP 100155Z AUTO 24003KT 10SM CLR 25/06 A3018 RMK AO2,M
RNO,2023-09-10 01:55,-119.7711,39.4839,1341.00,81.00,41.00,24.14,260.00,9.00,0.00,30.14,1016.10,10.00,M,FEW,FEW,M,M,10000.00,13000.00,M,M,M,M,M,M,M,M,M,79.43,KRNO 100155Z 26009KT 10SM FEW100 FEW130 27/05 A3014 RMK AO2 SLP161 T02720050,M
RTS,2023-09-10 01:55,-119.8764,39.6682,1539.00,75.20,33.80,22.02,260.00,8.00,0.00,30.21,M,10.00,M,CLR,M,M,M,M,M,M,M,M,M,M,M,M,M,M,75.20,KRTS 100155Z AUTO 26008KT 10SM CLR 24/01 A3021 RMK AO2,M
BAM,2023-09-10 01:55,-116.8743,40.5990,1382.36,78.80,42.80,27.81,240.00,5.00,0.00,30.15,M,10.00,M,CLR,M,M,M,M,M,M,M,M,M,M,M,M,M,M,78.80,KBAM 100155Z AUTO 24005KT 10SM CLR 26/06 A3015 RMK AO1,M
TMT,2023-09-10 01:55,-117.1971,39.4643,1749.34,69.00,42.30,37.92,0.00,0.00,0.00,30.26,M,M,M,CLR,M,M,M,M,M,M,M,M,M,M,M,M,M,M,69.00,KTMT 100155Z AUTO 00000KT CLR 21/06 A3026 RMK AO2 T02050057 PWINO,M
10U,2023-09-10 01:55,-116.1876,41.9532,1637.00,71.60,33.80,24.86,250.00,5.00,0.00,30.22,M,10.00,M,CLR,M,M,M,M,M,M,M,M,M,M,M,M,M,M,71.60,K10U 100155Z AUTO 25005KT 10SM CLR 22/01 A3022 RMK AO2,M
INS,2023-09-10 01:55,-115.6733,36.5872,955.00,93.40,39.00,15.06,0.00,0.00,0.00,30.01,1011.40,10.00,M,CLR,M,M,M,M,M,M,M,M,M,M,M,M,M,M,89.09,KINS 100155Z AUTO 00000KT 10SM CLR 34/04 A3001 RMK AO2 SLP114 T03410038 $,M
LSV,2023-09-10 01:55,-115.0343,36.2362,570.00,98.40,47.50,17.89,0.00,0.00,0.00,29.87,1008.90,10.00,M,CLR,M,M,M,M,M,M,M,M,M,M,M,M,M,M,94.84,KLSV 100155Z AUTO 00000KT 10SM CLR 37/09 A2987 RMK AO2 SLP089 T03690086 $,M
LAS,2023-09-10 01:56,-115.1634,36.0719,663.00,99.00,46.00,16.60,270.00,9.00,0.00,29.93,1010.50,10.00,M,FEW,FEW,M,M,10000.00,20000.00,M,M,M,M,M,M,M,M,M,95.17,KLAS 100156Z 27009KT 10SM FEW100 FEW200 37/08 A2993 RMK AO2 SLP105 T03720078 $,M
EKO,2023-09-10 01:56,-115.7860,40.8242,1367.00,73.00,45.00,36.70,190.00,13.00,0.00,30.20,1019.00,10.00,24.00,FEW,M,M,M,11000.00,M,M,M,M,M,M,M,31.00,170.00,2023-09-10 01:13,73.00,KEKO 100156Z AUTO 19013G24KT 10SM FEW110 23/07 A3020 RMK AO2 PK WND 17031/0113 SLP190 T02280072,M
WMC,2023-09-10 01:56,-117.8072,40.9019,1315.00,80.00,36.00,20.51,200.00,3.00,0.00,30.11,1016.40,10.00,M,CLR,M,M,M,M,M,M,M,M,M,M,M,M,M,M,78.66,KWMC 100156Z AUTO 20003KT 10SM CLR 27/02 A3011 RMK AO2 SLP164 T02670022,M
NFL,2023-09-10 01:56,-118.7010,39.4166,1199.00,82.00,41.00,23.37,220.00,13.00,0.00,30.09,1015.60,10.00,M,CLR,M,M,M,M,M,M,M,M,M,M,M,M,M,M,80.04,KNFL 100156Z AUTO 22013KT 10SM CLR 28/05 A3009 RMK AO2 SLP156 T02780050,M
HND,2023-09-10 01:56,-115.1344,35.9729,742.79,98.00,48.00,18.45,270.00,7.00,0.00,29.97,1013.20,10.00,M,CLR,M,M,M,M,M,M,M,M,M,M,M,M,M,M,94.53,KHND 100156Z 27007KT 10SM CLR 37/09 A2997 RMK AO2 SLP132 T03670089,M
05U,2023-09-10 02:10,-116.0051,39.6042,1811.23,69.80,39.20,32.72,320.00,5.00,0.00,30.31,M,10.00,M,SCT,M,M,M,9000.00,M,M,M,M,M,M,M,M,M,M,69.80,K05U 100210Z AUTO 32005KT 10SM SCT090 21/04 A3031 RMK A01,M
BVU,2023-09-10 02:15,-114.8611,35.9475,671.00,95.00,46.40,19.04,50.00,6.00,0.00,29.92,M,10.00,M,CLR,M,M,M,M,M,M,M,M,M,M,M,M,M,M,91.29,KBVU 100215Z AUTO 05006KT 10SM CLR 35/08 A2992 RMK AO2,M
CXP,2023-09-10 02:15,-119.7326,39.1923,1431.00,75.20,42.80,31.34,250.00,6.00,0.00,30.18,M,10.00,M,CLR,M,M,M,M,M,M,M,M,M,M,M,M,M,M,75.20,KCXP 100215Z AUTO 25006KT 10SM CLR 24/06 A3018 RMK AO2,M
RTS,2023-09-10 02:15,-119.8764,39.6682,1539.00,71.60,35.60,26.71,270.00,9.00,0.00,30.21,M,10.00,M,CLR,M,M,M,M,M,M,M,M,M,M,M,M,M,M,71.60,KRTS 100215Z AUTO 27009KT 10SM CLR 22/02 A3021 RMK AO2,M
MEV,2023-09-10 02:15,-119.7500,38.9963,1441.42,73.40,42.80,33.29,270.00,4.00,0.00,30.17,M,10.00,M,CLR,M,M,M,M,M,M,M,M,M,M,M,M,M,M,73.40,KMEV 100215Z AUTO 27004KT 10SM CLR 23/06 A3017 RMK AO2,M
BAM,2023-09-10 02:15,-116.8743,40.5990,1382.36,75.20,44.60,33.57,260.00,7.00,0.00,30.15,M,10.00,M,CLR,M,M,M,M,M,M,M,M,M,M,M,M,M,M,75.20,KBAM 100215Z AUTO 26007KT 10SM CLR 24/07 A3015 RMK AO1,M
HTH,2023-09-10 02:15,-118.6315,38.5448,1282.89,71.60,51.80,49.64,150.00,15.00,0.00,30.18,M,10.00,21.00,SCT,M,M,M,11000.00,M,M,M,M,M,M,M,M,M,M,71.60,KHTH 100215Z AUTO 15015G21KT 10SM SCT110 22/11 A3018 RMK A01,M
10U,2023-09-10 02:15,-116.1876,41.9532,1637.00,66.20,35.60,32.14,230.00,6.00,0.00,30.22,M,10.00,M,CLR,M,M,M,M,M,M,M,M,M,M,M,M,M,M,66.20,K10U 100215Z AUTO 23006KT 10SM CLR 19/02 A3022 RMK AO2,M
TMT,2023-09-10 02:15,-117.1971,39.4643,1749.34,63.50,45.00,50.88,260.00,6.00,0.00,30.27,M,M,M,CLR,M,M,M,M,M,M,M,M,M,M,M,M,M,M,63.50,KTMT 100215Z AUTO 26006KT CLR 18/07 A3027 RMK AO2 LTG DSNT S AND SW T01750072 PWINO,M
05U,2023-09-10 02:30,-116.0051,39.6042,1811.23,66.20,39.20,37.03,270.00,8.00,0.00,30.30,M,10.00,M,SCT,M,M,M,9000.00,M,M,M,M,M,M,M,M,M,M,66.20,K05U 100230Z AUTO 27008KT 10SM SCT090 19/04 A3030 RMK A01,M
BVU,2023-09-10 02:35,-114.8611,35.9475,671.00,93.20,46.40,20.13,60.00,5.00,0.00,29.92,M,10.00,M,CLR,M,M,M,M,M,M,M,M,M,M,M,M,M,M,89.55,KBVU 100235Z AUTO 06005KT 10SM CLR 34/08 A2992 RMK AO2,M
CXP,2023-09-10 02:35,-119.7326,39.1923,1431.00,75.20,46.40,35.94,280.00,6.00,0.00,30.19,M,10.00,M,CLR,M,M,M,M,M,M,M,M,M,M,M,M,M,M,75.20,KCXP 100235Z AUTO 28006KT 10SM CLR 24/08 A3019 RMK AO2,M
MEV,2023-09-10 02:35,-119.7500,38.9963,1441.42,69.80,42.80,37.61,0.00,0.00,0.00,30.17,M,10.00,M,CLR,M,M,M,M,M,M,M,M,M,M,M,M,M,M,69.80,KMEV 100235Z AUTO 00000KT 10SM CLR 21/06 A3017 RMK AO2,M
HTH,2023-09-10 02:35,-118.6315,38.5448,1282.89,69.80,53.60,56.38,170.00,14.00,0.00,30.18,M,10.00,19.00,FEW,M,M,M,10000.00,M,M,M,M,M,M,M,M,M,M,69.80,KHTH 100235Z AUTO 17014G19KT 10SM FEW100 21/12 A3018 RMK A01,M
10U,2023-09-10 02:35,-116.1876,41.9532,1637.00,62.60,35.60,36.45,230.00,6.00,0.00,30.22,M,10.00,M,CLR,M,M,M,M,M,M,M,M,M,M,M,M,M,M,62.60,K10U 100235Z AUTO 23006KT 10SM CLR 17/02 A3022 RMK AO2,M
BAM,2023-09-10 02:35,-116.8743,40.5990,1382.36,73.40,44.60,35.66,260.00,6.00,0.00,30.15,M,10.00,M,CLR,M,M,M,M,M,M,M,M,M,M,M,M,M,M,73.40,KBAM 100235Z AUTO 26006KT 10SM CLR 23/07 A3015 RMK AO1,M
TMT,2023-09-10 02:35,-117.1971,39.4643,1749.34,65.00,42.60,44.04,220.00,10.00,0.00,30.28,M,M,14.00,CLR,M,M,M,M,M,M,M,M,M,M,M,M,M,M,65.00,KTMT 100235Z AUTO 22010G14KT CLR 18/06 A3028 RMK AO2 T01830059 PWINO,M
RTS,2023-09-10 02:35,-119.8764,39.6682,1539.00,69.80,37.40,30.49,270.00,10.00,0.00,30.21,M,10.00,M,CLR,M,M,M,M,M,M,M,M,M,M,M,M,M,M,69.80,KRTS 100235Z AUTO 27010KT 10SM CLR 21/03 A3021 RMK AO2,M
05U,2023-09-10 02:50,-116.0051,39.6042,1811.23,66.20,39.20,37.03,310.00,7.00,0.00,30.31,M,10.00,M,CLR,M,M,M,M,M,M,M,M,M,M,M,M,M,M,66.20,K05U 100250Z AUTO 31007KT 10SM CLR 19/04 A3031 RMK A01,M
P68,2023-09-10 02:53,-116.0056,39.6014,1993.00,67.00,39.00,35.74,140.00,9.00,0.00,30.28,1018.70,M,M,M,M,M,M,M,M,M,M,M,M,M,M,M,M,M,67.00,KP68 100253Z AUTO 14009KT 19/04 A3028 RMK AO1 SLP187 T01940039 53004,M
DRA,2023-09-10 02:53,-116.0278,36.6206,1009.00,87.00,49.00,26.97,30.00,14.00,0.00,30.05,1012.60,10.00,M,CLR,M,M,M,M,M,M,M,M,M,M,M,M,M,M,84.30,KDRA 100253Z AUTO 03014KT 10SM CLR 31/09 A3005 RMK AO2 SLP126 T03060094 53007,M
ELY,2023-09-10 02:53,-114.8453,39.2950,1909.00,58.00,50.00,74.64,310.00,5.00,0.00,30.35,1020.10,10.00,M,FEW,M,M,M,11000.00,M,M,M,M,M,M,M,M,M,M,58.00,KELY 100253Z AUTO 31005KT 10SM FEW110 14/10 A3035 RMK AO2 SLP201 T01440100 53006,M
VGT,2023-09-10 02:53,-115.1933,36.2111,667.00,98.00,48.00,18.45,0.00,0.00,0.00,29.93,1012.10,10.00,M,CLR,M,M,M,M,M,M,M,M,M,M,M,M,M,M,94.53,KVGT 100253Z 00000KT 10SM CLR 37/09 A2993 RMK AO2 SLP121 T03670089 53001,M
LOL,2023-09-10 02:53,-118.5701,40.0684,1192.43,74.00,48.00,39.74,340.00,4.00,0.00,30.08,1016.20,10.00,M,FEW,M,M,M,11000.00,M,M,M,M,M,M,M,M,M,M,74.00,KLOL 100253Z AUTO 34004KT 10SM FEW110 23/09 A3008 RMK AO2 SLP162 T02330089 55001,M
BVU,2023-09-10 02:55,-114.8611,35.9475,671.00,91.40,50.00,24.37,30.00,6.00,0.00,29.93,M,10.00,M,CLR,M,M,M,M,M,M,M,M,M,M,M,M,M,M,88.36,KBVU 100255Z AUTO 03006KT 10SM CLR 33/10 A2993 RMK AO2,M
CXP,2023-09-10 02:55,-119.7326,39.1923,1431.00,73.40,50.00,43.69,300.00,5.00,0.00,30.19,M,10.00,M,CLR,M,M,M,M,M,M,M,M,M,M,M,M,M,M,73.40,KCXP 100255Z AUTO 30005KT 10SM CLR 23/10 A3019 RMK AO2,M
RNO,2023-09-10 02:55,-119.7711,39.4839,1341.00,77.00,44.00,30.90,280.00,5.00,0.00,30.15,1016.50,10.00,M,FEW,M,M,M,12000.00,M,M,M,M,M,M,M,M,M,M,77.00,KRNO 100255Z 28005KT 10SM FEW120 25/07 A3015 RMK AO2 SLP165 T02500067 53006,M
RTS,2023-09-10 02:55,-119.8764,39.6682,1539.00,68.00,37.40,32.43,260.00,8.00,0.00,30.22,M,10.00,M,CLR,M,M,M,M,M,M,M,M,M,M,M,M,M,M,68.00,KRTS 100255Z AUTO 26008KT 10SM CLR 20/03 A3022 RMK AO2,M
MEV,2023-09-10 02:55,-119.7500,38.9963,1441.42,68.00,44.60,42.85,0.00,0.00,0.00,30.18,M,10.00,M,CLR,M,M,M,M,M,M,M,M,M,M,M,M,M,M,68.00,KMEV 100255Z AUTO 00000KT 10SM CLR 20/07 A3018 RMK AO2,M
HTH,2023-09-10 02:55,-118.6315,38.5448,1282.89,69.80,51.80,52.77,150.00,15.00,0.00,30.18,M,10.00,21.00,CLR,M,M,M,M,M,M,M,M,M,M,M,M,M,M,69.80,KHTH 100255Z AUTO 15015G21KT 10SM CLR 21/11 A3018 RMK A01,M
BAM,2023-09-10 02:55,-116.8743,40.5990,1382.36,71.60,46.40,40.57,180.00,5.00,0.00,30.15,M,10.00,M,CLR,M,M,M,M,M,M,M,M,M,M,M,M,M,M,71.60,KBAM 100255Z AUTO 18005KT 10SM CLR 22/08 A3015 RMK AO1,M
TMT,2023-09-10 02:55,-117.1971,39.4643,1749.34,66.00,42.00,41.57,200.00,8.00,0.00,30.29,M,M,M,CLR,M,M,M,M,M,M,M,M,M,M,M,M,M,M,66.00,KTMT 100255Z AUTO 20008KT CLR 19/06 A3029 RMK AO2 LTG DSNT S T01890055 PWINO,M
10U,2023-09-10 02:55,-116.1876,41.9532,1637.00,60.80,37.40,41.71,240.00,5.00,0.00,30.22,M,10.00,M,CLR,M,M,M,M,M,M,M,M,M,M,M,M,M,M,60.80,K10U 100255Z AUTO 24005KT 10SM CLR 16/03 A3022 RMK AO2,M
INS,2023-09-10 02:55,-115.6733,36.5872,955.00,89.00,45.00,21.77,330.00,10.00,0.00,30.03,1012.10,10.00,M,FEW,M,M,M,14000.00,M,M,M,M,M,M,M,M,M,M,85.58,KINS 100255Z AUTO 33010KT 10SM FEW140 32/07 A3003 RMK AO2 SLP121 T03170073 53009 $,M
LSV,2023-09-10 02:55,-115.0343,36.2362,570.00,93.00,48.40,21.84,40.00,4.00,0.00,29.88,1009.20,10.00,M,CLR,M,M,M,M,M,M,M,M,M,M,M,M,M,M,89.64,KLSV 100255Z AUTO 04004KT 10SM CLR 34/09 A2988 RMK AO2 SLP092 T03380091 55000 $,M
EKO,2023-09-10 02:56,-115.7860,40.8242,1367.00,72.00,44.00,36.54,170.00,14.00,0.00,30.20,1018.60,10.00,25.00,FEW,M,M,M,11000.00,M,M,M,M,M,M,M,M,M,M,72.00,KEKO 100256Z AUTO 17014G25KT 10SM FEW110 22/07 A3020 RMK AO2 SLP186 T02220067 51007,M
WMC,2023-09-10 02:56,-117.8072,40.9019,1315.00,68.00,40.00,35.90,M,3.00,0.00,30.12,1016.60,10.00,M,SCT,M,M,M,12000.00,M,M,M,M,M,M,M,M,M,M,68.00,KWMC 100256Z AUTO VRB03KT 10SM SCT120 20/04 A3012 RMK AO2 SLP166 T02000044 55001,M
NFL,2023-09-10 02:56,-118.7010,39.4166,1199.00,75.00,43.00,31.79,140.00,8.00,0.00,30.10,1016.00,10.00,M,CLR,M,M,M,M,M,M,M,M,M,M,M,M,M,M,75.00,KNFL 100256Z AUTO 14008KT 10SM CLR 24/06 A3010 RMK AO2 SLP160 T02390061 53005,M
HND,2023-09-10 02:56,-115.1344,35.9729,742.79,96.00,50.00,21.13,280.00,5.00,0.00,29.98,1013.50,10.00,M,CLR,M,M,M,M,M,M,M,M,M,M,M,M,M,M,92.89,KHND 100256Z 28005KT 10SM CLR 36/10 A2998 RMK AO2 SLP135 T03560100 53004,M
LAS,2023-09-10 02:56,-115.1634,36.0719,663.00,97.00,48.00,19.02,270.00,8.00,0.00,29.94,1010.70,10.00,M,FEW,M,M,M,10000.00,M,M,M,M,M,M,M,M,M,M,93.52,KLAS 100256Z 27008KT 10SM FEW100 36/09 A2994 RMK AO2 SLP107 T03610089 53003 $,M
05U,2023-09-10 03:10,-116.0051,39.6042,1811.23,66.20,37.40,34.51,330.00,5.00,0.00,30.31,M,10.00,M,CLR,M,M,M,M,M,M,M,M,M,M,M,M,M,M,66.20,K05U 100310Z AUTO 33005KT 10SM CLR 19/03 A3031 RMK A01,M
TMT,2023-09-10 03:15,-117.1971,39.4643,1749.34,67.60,41.50,38.58,200.00,12.00,0.00,30.28,M,M,M,CLR,M,M,M,M,M,M,M,M,M,M,M,M,M,M,67.60,KTMT 100315Z AUTO 20012KT CLR 20/05 A3028 RMK AO2 T01980053 PWINO,M
BVU,2023-09-10 03:15,-114.8611,35.9475,671.00,91.40,50.00,24.37,360.00,6.00,0.00,29.93,M,10.00,M,CLR,M,M,M,M,M,M,M,M,M,M,M,M,M,M,88.36,KBVU 100315Z AUTO 36006KT 10SM CLR 33/10 A2993 RMK AO2,M
CXP,2023-09-10 03:15,-119.7326,39.1923,1431.00,71.60,48.20,43.42,0.00,0.00,0.00,30.20,M,10.00,M,CLR,M,M,M,M,M,M,M,M,M,M,M,M,M,M,71.60,KCXP 100315Z AUTO 00000KT 10SM CLR 22/09 A3020 RMK AO2,M
RTS,2023-09-10 03:15,-119.8764,39.6682,1539.00,66.20,39.20,37.03,270.00,7.00,0.00,30.23,M,10.00,M,CLR,M,M,M,M,M,M,M,M,M,M,M,M,M,M,66.20,KRTS 100315Z AUTO 27007KT 10SM CLR 19/04 A3023 RMK AO2,M
MEV,2023-09-10 03:15,-119.7500,38.9963,1441.42,68.00,42.80,40.00,0.00,0.00,0.00,30.19,M,10.00,M,CLR,M,M,M,M,M,M,M,M,M,M,M,M,M,M,68.00,KMEV 100315Z AUTO 00000KT 10SM CLR 20/06 A3019 RMK AO2,M
BAM,2023-09-10 03:15,-116.8743,40.5990,1382.36,68.00,46.40,45.88,170.00,5.00,0.00,30.16,M,10.00,M,CLR,M,M,M,M,M,M,M,M,M,M,M,M,M,M,68.00,KBAM 100315Z AUTO 17005KT 10SM CLR 20/08 A3016 RMK AO1,M
HTH,2023-09-10 03:15,-118.6315,38.5448,1282.89,68.00,55.40,64.04,120.00,9.00,0.00,30.19,M,10.00,16.00,FEW,M,M,M,10000.00,M,M,M,M,M,M,M,M,M,M,68.00,KHTH 100315Z AUTO 12009G16KT 10SM FEW100 20/13 A3019 RMK A01,M
10U,2023-09-10 03:15,-116.1876,41.9532,1637.00,59.00,39.20,47.72,210.00,4.00,0.00,30.23,M,10.00,M,CLR,M,M,M,M,M,M,M,M,M,M,M,M,M,M,59.00,K10U 100315Z AUTO 21004KT 10SM CLR 15/04 A3023 RMK AO2,M
05U,2023-09-10 03:30,-116.0051,39.6042,1811.23,64.40,37.40,36.74,0.00,0.00,0.00,30.32,M,10.00,M,CLR,M,M,M,M,M,M,M,M,M,M,M,M,M,M,64.40,K05U 100330Z AUTO 00000KT 10SM CLR 18/03 A3032 RMK A01,M
BVU,2023-09-10 03:35,-114.8611,35.9475,671.00,91.40,50.00,24.37,340.00,5.00,0.00,29.93,M,10.00,M,CLR,M,M,M,M,M,M,M,M,M,M,M,M,M,M,88.36,KBVU 100335Z AUTO 34005KT 10SM CLR 33/10 A2993 RMK AO2,M
CXP,2023-09-10 03:35,-119.7326,39.1923,1431.00,69.80,50.00,49.37,0.00,0.00,0.00,30.21,M,10.00,M,CLR,M,M,M,M,M,M,M,M,M,M,M,M,M,M,69.80,KCXP 100335Z AUTO 00000KT 10SM CLR 21/10 A3021 RMK AO2 LTG DSNT S,M
BAM,2023-09-10 03:35,-116.8743,40.5990,1382.36,71.60,46.40,40.57,230.00,6.00,0.00,30.17,M,10.00,M,BKN,M,M,M,12000.00,M,M,M,M,M,M,M,M,M,M,71.60,KBAM 100335Z AUTO 23006KT 10SM BKN120 22/08 A3017 RMK AO1,M
TMT,2023-09-10 03:35,-117.1971,39.4643,1749.34,69.00,41.00,36.06,210.00,13.00,0.00,30.28,M,M,18.00,SCT,M,M,M,12000.00,M,M,M,M,M,M,M,M,M,M,69.00,KTMT 100335Z AUTO 21013G18KT SCT120 21/05 A3028 RMK AO2 T02050049 PWINO,M
RTS,2023-09-10 03:35,-119.8764,39.6682,1539.00,66.20,39.20,37.03,280.00,6.00,0.00,30.23,M,10.00,M,CLR,M,M,M,M,M,M,M,M,M,M,M,M,M,M,66.20,KRTS 100335Z AUTO 28006KT 10SM CLR 19/04 A3023 RMK AO2,M
MEV,2023-09-10 03:35,-119.7500,38.9963,1441.42,66.20,42.80,42.57,0.00,0.00,0.00,30.19,M,10.00,M,CLR,M,M,M,M,M,M,M,M,M,M,M,M,M,M,66.20,KMEV 100335Z AUTO 00000KT 10SM CLR 19/06 A3019 RMK AO2 LTG DSNT S,M
HTH,2023-09-10 03:35,-118.6315,38.5448,1282.89,68.00,51.80,56.13,130.00,12.00,0.00,30.19,M,10.00,M,CLR,M,M,M,M,M,M,M,M,M,M,M,M,M,M,68.00,KHTH 100335Z AUTO 13012KT 10SM CLR 20/11 A3019 RMK A01,M
10U,2023-09-10 03:35,-116.1876,41.9532,1637.00,57.20,41.00,54.60,130.00,7.00,0.00,30.23,M,10.00,M,CLR,M,M,M,M,M,M,M,M,M,M,M,M,M,M,57.20,K10U 100335Z AUTO 13007KT 10SM CLR 14/05 A3023 RMK AO2,M
05U,2023-09-10 03:50,-116.0051,39.6042,1811.23,62.60,39.20,42.00,20.00,4.00,0.00,30.32,M,10.00,M,CLR,M,M,M,M,M,M,M,M,M,M,M,M,M,M,62.60,K05U 100350Z AUTO 02004KT 10SM CLR 17/04 A3032 RMK A01,M
P68,2023-09-10 03:53,-116.0056,39.6014,1993.00,64.00,39.00,39.67,220.00,6.00,0.00,30.30,1018.70,M,M,M,M,M,M,M,M,M,M,M,M,M,M,M,M,M,64.00,KP68 100353Z AUTO 22006KT 18/04 A3030 RMK AO1 SLP187 T01780039,M
DRA,2023-09-10 03:53,-116.0278,36.6206,1009.00,84.00,48.00,28.60,40.00,12.00,0.00,30.07,1013.00,10.00,M,CLR,M,M,M,M,M,M,M,M,M,M,M,M,M,M,81.87,KDRA 100353Z AUTO 04012KT 10SM CLR 29/09 A3007 RMK AO2 SLP130 T02890089,M
ELY,2023-09-10 03:53,-114.8453,39.2950,1909.00,55.00,49.00,80.15,0.00,0.00,0.00,30.34,1019.20,10.00,M,CLR,M,M,M,M,M,M,M,M,M,M,M,M,M,M,55.00,KELY 100353Z AUTO 00000KT 10SM CLR 13/09 A3034 RMK AO2 SLP192 T01280094,M
VGT,2023-09-10 03:53,-115.1933,36.2111,667.00,97.00,50.00,20.49,290.00,3.00,0.00,29.94,1012.50,10.00,M,CLR,M,M,M,M,M,M,M,M,M,M,M,M,M,M,93.91,KVGT 100353Z 29003KT 10SM CLR 36/10 A2994 RMK AO2 SLP125 T03610100,M
LOL,2023-09-10 03:53,-118.5701,40.0684,1192.43,71.00,48.00,43.98,30.00,5.00,0.00,30.09,1016.10,10.00,M,CLR,M,M,M,M,M,M,M,M,M,M,M,M,M,M,71.00,KLOL 100353Z AUTO 03005KT 10SM CLR 22/09 A3009 RMK AO2 LTG DSNT NE SLP161 T02170089,M
BVU,2023-09-10 03:55,-114.8611,35.9475,671.00,89.60,50.00,25.79,320.00,5.00,0.00,29.94,M,10.00,M,CLR,M,M,M,M,M,M,M,M,M,M,M,M,M,M,86.70,KBVU 100355Z AUTO 32005KT 10SM CLR 32/10 A2994 RMK AO2,M
CXP,2023-09-10 03:55,-119.7326,39.1923,1431.00,69.80,48.20,46.16,0.00,0.00,0.00,30.21,M,10.00,M,CLR,M,M,M,M,M,M,M,M,M,M,M,M,M,M,69.80,KCXP 100355Z AUTO 00000KT 10SM CLR 21/09 A3021 RMK AO2 LTG DSNT S,M
RNO,2023-09-10 03:55,-119.7711,39.4839,1341.00,74.00,46.00,36.85,240.00,8.00,0.00,30.18,1017.20,10.00,M,CLR,M,M,M,M,M,M,M,M,M,M,M,M,M,M,74.00,KRNO 100355Z 24008KT 10SM CLR 23/08 A3018 RMK AO2 SLP172 T02330078,M
RTS,2023-09-10 03:55,-119.8764,39.6682,1539.00,64.40,37.40,36.74,290.00,8.00,0.00,30.24,M,10.00,M,CLR,M,M,M,M,M,M,M,M,M,M,M,M,M,M,64.40,KRTS 100355Z AUTO 29008KT 10SM CLR 18/03 A3024 RMK AO2,M
MEV,2023-09-10 03:55,-119.7500,38.9963,1441.42,64.40,42.80,45.32,M,3.00,0.00,30.19,M,10.00,M,CLR,M,M,M,M,M,M,M,M,M,M,M,M,M,M,64.40,KMEV 100355Z AUTO VRB03KT 10SM CLR 18/06 A3019 RMK AO2 LTG DSNT S,M
HTH,2023-09-10 03:55,-118.6315,38.5448,1282.89,68.00,53.60,59.97,150.00,11.00,0.00,30.19,M,10.00,M,CLR,M,M,M,M,M,M,M,M,M,M,M,M,M,M,68.00,KHTH 100355Z AUTO 15011KT 10SM CLR 20/12 A3019 RMK A01,M
BAM,2023-09-10 03:55,-116.8743,40.5990,1382.36,73.40,46.40,38.18,240.00,6.00,0.00,30.17,M,10.00,M,SCT,M,M,M,12000.00,M,M,M,M,M,M,M,M,M,M,73.40,KBAM 100355Z AUTO 24006KT 10SM SCT120 23/08 A3017 RMK AO1,M
TMT,2023-09-10 03:55,-117.1971,39.4643,1749.34,67.00,40.50,37.89,200.00,12.00,0.00,30.29,M,M,18.00,SCT,M,M,M,12000.00,M,M,M,M,M,M,M,M,M,M,67.00,KTMT 100355Z AUTO 20012G18KT SCT120 19/05 A3029 RMK AO2 T01940047 PWINO,M
10U,2023-09-10 03:55,-116.1876,41.9532,1637.00,57.20,39.20,50.91,130.00,5.00,0.00,30.23,M,10.00,M,CLR,M,M,M,M,M,M,M,M,M,M,M,M,M,M,57.20,K10U 100355Z AUTO 13005KT 10SM CLR 14/04 A3023 RMK AO2,M
INS,2023-09-10 03:55,-115.6733,36.5872,955.00,86.50,46.60,25.04,280.00,5.00,0.00,30.05,1012.70,10.00,M,CLR,M,M,M,M,M,M,M,M,M,M,M,M,M,M,83.63,KINS 100355Z AUTO 28005KT 10SM CLR 30/08 A3005 RMK AO2 SLP127 T03030081 $,M
LSV,2023-09-10 03:55,-115.0343,36.2362,570.00,89.80,51.30,26.89,20.00,5.00,0.00,29.90,1009.90,10.00,M,CLR,M,M,M,M,M,M,M,M,M,M,M,M,M,M,87.09,KLSV 100355Z AUTO 02005KT 10SM CLR 32/11 A2990 RMK AO2 SLP099 T03210107 $,M
EKO,2023-09-10 03:56,-115.7860,40.8242,1367.00,69.00,45.00,42.04,0.00,0.00,0.00,30.21,1018.70,10.00,M,CLR,M,M,M,M,M,M,M,M,M,M,M,M,M,M,69.00,KEKO 100356Z AUTO 00000KT 10SM CLR 21/07 A3021 RMK AO2 SLP187 T02060072,M
WMC,2023-09-10 03:56,-117.8072,40.9019,1315.00,66.00,38.00,35.58,0.00,0.00,0.00,30.13,1016.40,10.00,M,CLR,M,M,M,M,M,M,M,M,M,M,M,M,M,M,66.00,KWMC 100356Z AUTO 00000KT 10SM CLR 19/03 A3013 RMK AO2 LTG DSNT S AND SW SLP164 T01890033,M
NFL,2023-09-10 03:56,-118.7010,39.4166,1199.00,77.00,46.00,33.34,190.00,9.00,0.00,30.13,1016.80,10.00,M,CLR,M,M,M,M,M,M,M,M,M,M,M,M,M,M,77.00,KNFL 100356Z AUTO 19009KT 10SM CLR 25/08 A3013 RMK AO2 SLP168 T02500078,M
HND,2023-09-10 03:56,-115.1344,35.9729,742.79,91.00,50.00,24.68,180.00,8.00,0.00,30.00,1014.20,10.00,M,CLR,M,M,M,M,M,M,M,M,M,M,M,M,M,M,87.99,KHND 100356Z AUTO 18008KT 10SM CLR 33/10 A3000 RMK AO2 SLP142 T03280100,M
LAS,2023-09-10 03:56,-115.1634,36.0719,663.00,94.00,51.00,23.33,220.00,5.00,0.00,29.95,1011.20,10.00,M,CLR,M,M,M,M,M,M,M,M,M,M,M,M,M,M,91.08,KLAS 100356Z 22005KT 10SM CLR 34/11 A2995 RMK AO2 SLP112 T03440106 $,M
05U,2023-09-10 04:10,-116.0051,39.6042,1811.23,60.80,41.00,48.00,350.00,3.00,0.00,30.33,M,10.00,M,CLR,M,M,M,M,M,M,M,M,M,M,M,M,M,M,60.80,K05U 100410Z AUTO 35003KT 10SM CLR 16/05 A3033 RMK A01,M
BVU,2023-09-10 04:15,-114.8611,35.9475,671.00,89.60,48.20,24.11,300.00,3.00,0.00,29.95,M,10.00,M,CLR,M,M,M,M,M,M,M,M,M,M,M,M,M,M,86.44,KBVU 100415Z AUTO 30003KT 10SM CLR 32/09 A2995 RMK AO2,M
CXP,2023-09-10 04:15,-119.7326,39.1923,1431.00,68.00,48.20,49.10,350.00,4.00,0.00,30.22,M,10.00,M,CLR,M,M,M,M,M,M,M,M,M,M,M,M,M,M,68.00,KCXP 100415Z AUTO 35004KT 10SM CLR 20/09 A3022 RMK AO2 LTG DSNT SE AND S,M
RTS,2023-09-10 04:15,-119.8764,39.6682,1539.00,64.40,39.20,39.43,270.00,11.00,0.00,30.24,M,10.00,M,CLR,M,M,M,M,M,M,M,M,M,M,M,M,M,M,64.40,KRTS 100415Z AUTO 27011KT 10SM CLR 18/04 A3024 RMK AO2,M
MEV,2023-09-10 04:15,-119.7500,38.9963,1441.42,68.00,42.80,40.00,0.00,0.00,0.00,30.20,M,10.00,M,CLR,M,M,M,M,M,M,M,M,M,M,M,M,M,M,68.00,KMEV 100415Z AUTO 00000KT 10SM CLR 20/06 A3020 RMK AO2 LTG DSNT SE,M
HTH,2023-09-10 04:15,-118.6315,38.5448,1282.89,68.00,53.60,59.97,150.00,14.00,0.00,30.20,M,10.00,M,CLR,M,M,M,M,M,M,M,M,M,M,M,M,M,M,68.00,KHTH 100415Z AUTO 15014KT 10SM CLR 20/12 A3020 RMK A01,M
10U,2023-09-10 04:15,-116.1876,41.9532,1637.00,57.20,37.40,47.44,120.00,5.00,0.00,30.23,M,10.00,M,CLR,M,M,M,M,M,M,M,M,M,M,M,M,M,M,57.20,K10U 100415Z AUTO 12005KT 10SM CLR 14/03 A3023 RMK AO2,M
BAM,2023-09-10 04:15,-116.8743,40.5990,1382.36,69.80,48.20,46.16,210.00,4.00,0.00,30.17,M,10.00,M,SCT,M,M,M,12000.00,M,M,M,M,M,M,M,M,M,M,69.80,KBAM 100415Z AUTO 21004KT 10SM SCT120 21/09 A3017 RMK AO1,M
TMT,2023-09-10 04:15,-117.1971,39.4643,1749.34,65.30,41.70,42.10,200.00,11.00,0.00,30.29,M,M,M,SCT,M,M,M,12000.00,M,M,M,M,M,M,M,M,M,M,65.30,KTMT 100415Z AUTO 20011KT SCT120 19/05 A3029 RMK AO2 LTG DSNT SW AND W T01850054 PWINO,M
05U,2023-09-10 04:30,-116.0051,39.6042,1811.23,62.60,42.80,48.28,0.00,0.00,0.00,30.33,M,10.00,M,CLR,M,M,M,M,M,M,M,M,M,M,M,M,M,M,62.60,K05U 100430Z AUTO 00000KT 10SM CLR 17/06 A3033 RMK A01,M
BVU,2023-09-10 04:35,-114.8611,35.9475,671.00,89.60,48.20,24.11,310.00,5.00,0.00,29.95,M,10.00,M,CLR,M,M,M,M,M,M,M,M,M,M,M,M,M,M,86.44,KBVU 100435Z AUTO 31005KT 10SM CLR 32/09 A2995 RMK AO2,M
CXP,2023-09-10 04:35,-119.7326,39.1923,1431.00,68.00,50.00,52.51,0.00,0.00,0.00,30.22,M,10.00,M,CLR,M,M,M,M,M,M,M,M,M,M,M,M,M,M,68.00,KCXP 100435Z AUTO 00000KT 10SM CLR 20/10 A3022 RMK AO2 LTG DSNT E AND SE,M
RTS,2023-09-10 04:35,-119.8764,39.6682,1539.00,62.60,39.20,42.00,280.00,9.00,0.00,30.24,M,10.00,M,CLR,M,M,M,M,M,M,M,M,M,M,M,M,M,M,62.60,KRTS 100435Z AUTO 28009KT 10SM CLR 17/04 A3024 RMK AO2,M
MEV,2023-09-10 04:35,-119.7500,38.9963,1441.42,62.60,42.80,48.28,140.00,6.00,0.00,30.20,M,10.00,M,FEW,M,M,M,5500.00,M,M,M,M,M,M,M,M,M,M,62.60,KMEV 100435Z AUTO 14006KT 10SM FEW055 17/06 A3020 RMK AO2 LTG DSNT E AND SE,M
HTH,2023-09-10 04:35,-118.6315,38.5448,1282.89,68.00,53.60,59.97,170.00,5.00,0.00,30.20,M,10.00,M,CLR,M,M,M,M,M,M,M,M,M,M,M,M,M,M,68.00,KHTH 100435Z AUTO 17005KT 10SM CLR 20/12 A3020 RMK A01,M
10U,2023-09-10 04:35,-116.1876,41.9532,1637.00,55.40,37.40,50.64,130.00,5.00,0.00,30.23,M,10.00,M,CLR,M,M,M,M,M,M,M,M,M,M,M,M,M,M,55.40,K10U 100435Z AUTO 13005KT 10SM CLR 13/03 A3023 RMK AO2,M
BAM,2023-09-10 04:35,-116.8743,40.5990,1382.36,69.80,48.20,46.16,190.00,3.00,0.00,30.17,M,10.00,M,SCT,M,M,M,12000.00,M,M,M,M,M,M,M,M,M,M,69.80,KBAM 100435Z AUTO 19003KT 10SM SCT120 21/09 A3017 RMK AO1,M
TMT,2023-09-10 04:35,-117.1971,39.4643,1749.34,63.70,42.80,46.45,220.00,12.00,0.00,30.29,M,M,M,SCT,M,M,M,12000.00,M,M,M,VCTS,M,M,M,M,M,M,63.70,KTMT 100435Z AUTO 22012KT VCTS SCT120 18/06 A3029 RMK AO2 LTG DSNT SW T01760060,M
WMC,2023-09-10 04:40,-117.8072,40.9019,1315.00,64.00,39.00,39.67,170.00,12.00,0.00,30.15,M,10.00,20.00,SCT,M,M,M,11000.00,M,M,M,VCTS,M,M,M,M,M,M,64.00,KWMC 100440Z AUTO 17012G20KT 10SM VCTS SCT110 18/04 A3015 RMK AO2 LTG DSNT SE-SW PRESRR T01780039,M
05U,2023-09-10 04:50,-116.0051,39.6042,1811.23,62.60,42.80,48.28,20.00,4.00,0.00,30.33,M,10.00,M,CLR,M,M,M,M,M,M,M,M,M,M,M,M,M,M,62.60,K05U 100450Z AUTO 02004KT 10SM CLR 17/06 A3033 RMK A01,M
P68,2023-09-10 04:53,-116.0056,39.6014,1993.00,64.00,43.00,46.32,210.00,4.00,0.00,30.30,1018.00,M,M,M,M,M,M,M,M,M,M,M,M,M,M,M,M,M,64.00,KP68 100453Z AUTO 21004KT 18/06 A3030 RMK AO1 SLP180 T01780061,M
DRA,2023-09-10 04:53,-116.0278,36.6206,1009.00,83.00,48.00,29.54,30.00,13.00,0.00,30.07,1012.90,10.00,M,CLR,M,M,M,M,M,M,M,M,M,M,M,M,M,M,81.18,KDRA 100453Z AUTO 03013KT 10SM CLR 28/09 A3007 RMK AO2 SLP129 T02830089,M
ELY,2023-09-10 04:53,-114.8453,39.2950,1909.00,51.00,46.00,82.93,170.00,8.00,0.00,30.35,1019.40,10.00,M,CLR,M,M,M,M,M,M,M,M,M,M,M,M,M,M,51.00,KELY 100453Z AUTO 17008KT 10SM CLR 11/08 A3035 RMK AO2 SLP194 T01060078,M
VGT,2023-09-10 04:53,-115.1933,36.2111,667.00,94.00,50.00,22.48,330.00,7.00,0.00,29.96,1013.00,10.00,M,CLR,M,M,M,M,M,M,M,M,M,M,M,M,M,M,90.89,KVGT 100453Z AUTO 33007KT 10SM CLR 34/10 A2996 RMK AO2 SLP130 T03440100,M
LOL,2023-09-10 04:53,-118.5701,40.0684,1192.43,67.00,45.00,45.04,180.00,5.00,0.00,30.12,1016.70,10.00,M,CLR,M,M,M,M,M,M,M,M,M,M,M,M,M,M,67.00,KLOL 100453Z AUTO 18005KT 10SM CLR 19/07 A3012 RMK AO2 SLP167 T01940072,M
BVU,2023-09-10 04:55,-114.8611,35.9475,671.00,89.60,46.40,22.53,0.00,0.00,0.00,29.96,M,10.00,M,CLR,M,M,M,M,M,M,M,M,M,M,M,M,M,M,86.24,KBVU 100455Z AUTO 00000KT 10SM CLR 32/08 A2996 RMK AO2,M
CXP,2023-09-10 04:55,-119.7326,39.1923,1431.00,66.20,48.20,52.25,0.00,0.00,0.00,30.22,M,10.00,M,CLR,M,M,M,M,M,M,M,M,M,M,M,M,M,M,66.20,KCXP 100455Z AUTO 00000KT 10SM CLR 19/09 A3022 RMK AO2,M
RNO,2023-09-10 04:55,-119.7711,39.4839,1341.00,73.00,46.00,38.11,290.00,6.00,0.00,30.19,1017.20,10.00,M,CLR,M,M,M,M,M,M,M,M,M,M,M,M,M,M,73.00,KRNO 100455Z 29006KT 10SM CLR 23/08 A3019 RMK AO2 SLP172 T02280078,M
RTS,2023-09-10 04:55,-119.8764,39.6682,1539.00,64.40,39.20,39.43,M,5.00,0.00,30.24,M,10.00,M,CLR,M,M,M,M,M,M,M,M,M,M,M,M,M,M,64.40,KRTS 100455Z AUTO VRB05KT 10SM CLR 18/04 A3024 RMK AO2,M
MEV,2023-09-10 04:55,-119.7500,38.9963,1441.42,64.40,42.80,45.32,140.00,11.00,0.00,30.20,M,10.00,M,FEW,M,M,M,5500.00,M,M,M,M,M,M,M,M,M,M,64.40,KMEV 100455Z AUTO 14011KT 10SM FEW055 18/06 A3020 RMK AO2,M
HTH,2023-09-10 04:55,-118.6315,38.5448,1282.89,68.00,53.60,59.97,150.00,5.00,0.00,30.21,M,10.00,10.00,CLR,M,M,M,M,M,M,M,M,M,M,M,M,M,M,68.00,KHTH 100455Z AUTO 15005G10KT 10SM CLR 20/12 A3021 RMK A01,M
BAM,2023-09-10 04:55,-116.8743,40.5990,1382.36,69.80,46.40,43.13,250.00,3.00,0.00,30.17,M,10.00,M,SCT,M,M,M,12000.00,M,M,M,M,M,M,M,M,M,M,69.80,KBAM 100455Z AUTO 25003KT 10SM SCT120 21/08 A3017 RMK AO1,M
TMT,2023-09-10 04:55,-117.1971,39.4643,1749.34,64.00,42.30,45.09,230.00,12.00,0.00,30.29,M,M,M,SCT,M,M,M,12000.00,M,M,M,M,M,M,M,M,M,M,64.00,KTMT 100455Z AUTO 23012KT SCT120 18/06 A3029 RMK AO2 LTG DSNT SW T01780057 PWINO,M
10U,2023-09-10 04:55,-116.1876,41.9532,1637.00,55.40,37.40,50.64,130.00,7.00,0.00,30.23,M,10.00,M,CLR,M,M,M,M,M,M,M,M,M,M,M,M,M,M,55.40,K10U 100455Z AUTO 13007KT 10SM CLR 13/03 A3023 RMK AO2,M
INS,2023-09-10 04:55,-115.6733,36.5872,955.00,84.00,47.30,27.86,0.00,0.00,0.00,30.06,1012.80,10.00,M,CLR,M,M,M,M,M,M,M,M,M,M,M,M,M,M,81.80,KINS 100455Z AUTO 00000KT 10SM CLR 29/09 A3006 RMK AO2 SLP128 T02880085 $,M
LSV,2023-09-10 04:55,-115.0343,36.2362,570.00,88.70,49.30,25.84,30.00,6.00,0.00,29.92,1010.40,10.00,M,CLR,M,M,M,M,M,M,M,M,M,M,M,M,M,M,85.79,KLSV 100455Z AUTO 03006KT 10SM CLR 32/10 A2992 RMK AO2 SLP104 T03150096 $,M
EKO,2023-09-10 04:56,-115.7860,40.8242,1367.00,67.00,45.00,45.04,260.00,6.00,0.00,30.22,1018.50,10.00,M,CLR,M,M,M,M,M,M,M,M,M,M,M,M,M,M,67.00,KEKO 100456Z AUTO 26006KT 10SM CLR 19/07 A3022 RMK AO2 SLP185 T01940072,M
WMC,2023-09-10 04:56,-117.8072,40.9019,1315.00,75.00,42.00,30.59,190.00,13.00,0.00,30.15,1016.10,10.00,M,BKN,M,M,M,11000.00,M,M,M,M,M,M,M,M,M,M,75.00,KWMC 100456Z AUTO 19013KT 10SM BKN110 24/06 A3015 RMK AO2 LTG DSNT SE AND S SLP161 T02390056,M
LAS,2023-09-10 04:56,-115.1634,36.0719,663.00,93.00,49.00,22.34,210.00,5.00,0.00,29.97,1011.60,10.00,M,FEW,M,M,M,13000.00,M,M,M,M,M,M,M,M,M,M,89.73,KLAS 100456Z 21005KT 10SM FEW130 34/09 A2997 RMK AO2 SLP116 T03390094 $,M
NFL,2023-09-10 04:56,-118.7010,39.4166,1199.00,74.00,49.00,41.26,170.00,3.00,0.00,30.15,1017.30,10.00,M,CLR,M,M,M,M,M,M,M,M,M,M,M,M,M,M,74.00,KNFL 100456Z AUTO 17003KT 10SM CLR 23/09 A3015 RMK AO2 SLP173 T02330094,M
HND,2023-09-10 04:56,-115.1344,35.9729,742.79,88.00,51.00,28.15,180.00,6.00,0.00,30.01,1014.50,10.00,M,CLR,M,M,M,M,M,M,M,M,M,M,M,M,M,M,85.43,KHND 100456Z AUTO 18006KT 10SM CLR 31/11 A3001 RMK AO2 SLP145 T03110106,M
05U,2023-09-10 05:10,-116.0051,39.6042,1811.23,60.80,42.80,51.45,320.00,5.00,0.00,30.32,M,10.00,M,FEW,M,M,M,11000.00,M,M,M,M,M,M,M,M,M,M,60.80,K05U 100510Z AUTO 32005KT 10SM FEW110 16/06 A3032 RMK A01,M
WMC,2023-09-10 05:12,-117.8072,40.9019,1315.00,73.00,44.00,35.32,180.00,10.00,0.00,30.16,M,10.00,20.00,BKN,M,M,M,11000.00,M,M,M,VCTS,M,M,M,M,M,M,73.00,KWMC 100512Z AUTO 18010G20KT 10SM VCTS BKN110 23/07 A3016 RMK AO2 LTG DSNT SE-SW T02280067,M
10U,2023-09-10 05:15,-116.1876,41.9532,1637.00,53.60,37.40,54.07,140.00,6.00,0.00,30.23,M,10.00,M,CLR,M,M,M,M,M,M,M,M,M,M,M,M,M,M,53.60,K10U 100515Z AUTO 14006KT 10SM CLR 12/03 A3023 RMK AO2,M
BAM,2023-09-10 05:15,-116.8743,40.5990,1382.36,69.80,50.00,49.37,270.00,4.00,0.00,30.18,M,10.00,M,SCT,M,M,M,12000.00,M,M,M,M,M,M,M,M,M,M,69.80,KBAM 100515Z AUTO 27004KT 10SM SCT120 21/10 A3018 RMK AO1,M
TMT,2023-09-10 05:15,-117.1971,39.4643,1749.34,60.80,43.30,52.45,200.00,5.00,0.00,30.29,M,M,M,CLR,M,M,M,M,M,M,M,VCTS,M,M,M,M,M,M,60.80,KTMT 100515Z AUTO 20005KT VCTS CLR 16/06 A3029 RMK AO2 T01600063,M
BVU,2023-09-10 05:15,-114.8611,35.9475,671.00,87.80,51.80,29.18,0.00,0.00,0.00,29.96,M,10.00,M,CLR,M,M,M,M,M,M,M,M,M,M,M,M,M,M,85.39,KBVU 100515Z AUTO 00000KT 10SM CLR 31/11 A2996 RMK AO2,M
CXP,2023-09-10 05:15,-119.7326,39.1923,1431.00,66.20,48.20,52.25,0.00,0.00,0.00,30.23,M,10.00,M,CLR,M,M,M,M,M,M,M,M,M,M,M,M,M,M,66.20,KCXP 100515Z AUTO 00000KT 10SM CLR 19/09 A3023 RMK AO2 LTG DSNT SE AND S,M
RTS,2023-09-10 05:15,-119.8764,39.6682,1539.00,64.40,39.20,39.43,290.00,7.00,0.00,30.24,M,10.00,M,CLR,M,M,M,M,M,M,M,M,M,M,M,M,M,M,64.40,KRTS 100515Z AUTO 29007KT 10SM CLR 18/04 A3024 RMK AO2,M
MEV,2023-09-10 05:15,-119.7500,38.9963,1441.42,62.60,44.60,51.72,M,3.00,0.00,30.21,M,10.00,M,FEW,M,M,M,5000.00,M,M,M,M,M,M,M,M,M,M,62.60,KMEV 100515Z AUTO VRB03KT 10SM FEW050 17/07 A3021 RMK AO2 LTG DSNT SE AND S,M
HTH,2023-09-10 05:15,-118.6315,38.5448,1282.89,68.00,53.60,59.97,170.00,6.00,0.00,30.20,M,10.00,M,SCT,M,M,M,11000.00,M,M,M,M,M,M,M,M,M,M,68.00,KHTH 100515Z AUTO 17006KT 10SM SCT110 20/12 A3020 RMK A01,M
WMC,2023-09-10 05:27,-117.8072,40.9019,1315.00,70.00,48.00,45.50,170.00,11.00,0.00,30.16,M,10.00,M,BKN,M,M,M,11000.00,M,M,M,M,M,M,M,M,M,M,70.00,KWMC 100527Z AUTO 17011KT 10SM BKN110 21/09 A3016 RMK AO2 LTG DSNT SE T02110089,M
05U,2023-09-10 05:30,-116.0051,39.6042,1811.23,62.60,41.00,45.04,320.00,4.00,0.00,30.32,M,10.00,M,CLR,M,M,M,M,M,M,M,M,M,M,M,M,M,M,62.60,K05U 100530Z AUTO 32004KT 10SM CLR 17/05 A3032 RMK A01,M
BVU,2023-09-10 05:35,-114.8611,35.9475,671.00,86.00,53.60,33.01,60.00,4.00,0.00,29.96,M,10.00,M,CLR,M,M,M,M,M,M,M,M,M,M,M,M,M,M,84.18,KBVU 100535Z AUTO 06004KT 10SM CLR 30/12 A2996 RMK AO2,M
CXP,2023-09-10 05:35,-119.7326,39.1923,1431.00,64.40,48.20,55.63,0.00,0.00,0.00,30.23,M,10.00,M,CLR,M,M,M,M,M,M,M,VCTS,M,M,M,M,M,M,64.40,KCXP 100535Z AUTO 00000KT 10SM VCTS CLR 18/09 A3023 RMK AO2 LTG DSNT E-S,M
WMC,2023-09-10 05:35,-117.8072,40.9019,1315.00,72.00,46.00,39.42,170.00,13.00,0.00,30.16,M,10.00,M,BKN,M,M,M,11000.00,M,M,M,VCTS,M,M,M,M,M,M,72.00,KWMC 100535Z AUTO 17013KT 10SM VCTS BKN110 22/08 A3016 RMK AO2 LTG DSNT SE T02220078,M
RTS,2023-09-10 05:35,-119.8764,39.6682,1539.00,64.40,41.00,42.28,290.00,5.00,0.00,30.24,M,10.00,M,CLR,M,M,M,M,M,M,M,M,M,M,M,M,M,M,64.40,KRTS 100535Z AUTO 29005KT 10SM CLR 18/05 A3024 RMK AO2,M
MEV,2023-09-10 05:35,-119.7500,38.9963,1441.42,64.40,44.60,48.55,150.00,7.00,0.00,30.21,M,10.00,M,FEW,FEW,FEW,M,4600.00,5000.00,9500.00,M,M,M,M,M,M,M,M,64.40,KMEV 100535Z AUTO 15007KT 10SM FEW046 FEW050 FEW095 18/07 A3021 RMK AO2 LTG DSNT E-S,M
HTH,2023-09-10 05:35,-118.6315,38.5448,1282.89,68.00,53.60,59.97,310.00,5.00,0.00,30.24,M,10.00,M,FEW,FEW,BKN,M,4800.00,7500.00,10000.00,M,M,M,M,M,M,M,M,68.00,KHTH 100535Z AUTO 31005KT 10SM FEW048 FEW075 BKN100 20/12 A3024 RMK A01,M
10U,2023-09-10 05:35,-116.1876,41.9532,1637.00,53.60,37.40,54.07,140.00,4.00,0.00,30.23,M,10.00,M,CLR,M,M,M,M,M,M,M,M,M,M,M,M,M,M,53.60,K10U 100535Z AUTO 14004KT 10SM CLR 12/03 A3023 RMK AO2,M
BAM,2023-09-10 05:35,-116.8743,40.5990,1382.36,69.80,50.00,49.37,240.00,8.00,0.00,30.17,M,10.00,M,SCT,BKN,M,M,10000.00,12000.00,M,M,M,M,M,M,M,M,M,69.80,KBAM 100535Z AUTO 24008KT 10SM SCT100 BKN120 21/10 A3017 RMK AO1,M
TMT,2023-09-10 05:35,-117.1971,39.4643,1749.34,58.30,44.00,58.90,150.00,4.00,0.00,30.29,M,M,M,SCT,M,M,M,12000.00,M,M,M,VCTS,M,M,M,M,M,M,58.30,KTMT 100535Z AUTO 15004KT VCTS SCT120 15/07 A3029 RMK AO2 LTG DSNT SW T01460066,M
05U,2023-09-10 05:50,-116.0051,39.6042,1811.23,60.80,42.80,51.45,0.00,0.00,0.00,30.32,M,10.00,M,CLR,M,M,M,M,M,M,M,M,M,M,M,M,M,M,60.80,K05U 100550Z AUTO 00000KT 10SM CLR 16/06 A3032 RMK A01,M
LOL,2023-09-10 05:53,-118.5701,40.0684,1192.43,69.00,41.00,36.06,350.00,3.00,0.00,30.14,1016.70,10.00,M,CLR,M,M,M,M,M,M,M,M,M,M,M,M,M,M,69.00,KLOL 100553Z AUTO 35003KT 10SM CLR 21/05 A3014 RMK AO2 SLP167 T02060050 10306 20178 53016,M
P68,2023-09-10 05:53,-116.0056,39.6014,1993.00,61.00,43.00,51.48,190.00,3.00,0.00,30.29,1017.80,M,M,M,M,M,M,M,M,M,M,M,M,M,M,M,M,M,61.00,KP68 100553Z AUTO 19003KT 16/06 A3029 RMK AO1 SLP178 T01610061 10244 20156 50002,M
DRA,2023-09-10 05:53,-116.0278,36.6206,1009.00,82.00,48.00,30.51,40.00,13.00,0.00,30.09,1013.50,10.00,M,CLR,M,M,M,M,M,M,M,M,M,M,M,M,M,M,80.53,KDRA 100553Z AUTO 04013KT 10SM CLR 28/09 A3009 RMK AO2 SLP135 T02780089 10361 20278 53012,M
ELY,2023-09-10 05:53,-114.8453,39.2950,1909.00,50.00,46.00,86.06,160.00,8.00,0.00,30.34,1018.90,10.00,M,CLR,M,M,M,M,M,M,M,M,M,M,M,M,M,M,50.00,KELY 100553Z AUTO 16008KT 10SM CLR 10/08 A3034 RMK AO2 SLP189 T01000078 10222 20100 58001,M
VGT,2023-09-10 05:53,-115.1933,36.2111,667.00,93.00,49.00,22.34,340.00,7.00,0.00,29.96,1013.10,10.00,M,CLR,M,M,M,M,M,M,M,M,M,M,M,M,M,M,89.73,KVGT 100553Z AUTO 34007KT 10SM CLR 34/09 A2996 RMK AO2 SLP131 T03390094 10394 20339 51012,M
RTS,2023-09-10 05:55,-119.8764,39.6682,1539.00,64.40,41.00,42.28,0.00,0.00,0.00,30.25,M,10.00,M,CLR,M,M,M,M,M,M,M,M,M,M,M,M,M,M,64.40,KRTS 100555Z AUTO 00000KT 10SM CLR 18/05 A3025 RMK AO2,M
MEV,2023-09-10 05:55,-119.7500,38.9963,1441.42,64.40,44.60,48.55,150.00,9.00,0.00,30.21,M,10.00,M,FEW,M,M,M,5000.00,M,M,M,M,M,M,M,M,M,M,64.40,KMEV 100555Z AUTO 15009KT 10SM FEW050 18/07 A3021 RMK AO2 LTG DSNT E-S,M
HTH,2023-09-10 05:55,-118.6315,38.5448,1282.89,68.00,50.00,52.51,20.00,14.00,0.00,30.24,M,10.00,M,FEW,SCT,BKN,M,3600.00,6500.00,8000.00,M,M,M,M,M,M,M,M,68.00,KHTH 100555Z AUTO 02014KT 10SM FEW036 SCT065 BKN080 20/10 A3024 RMK A01,M
BVU,2023-09-10 05:55,-114.8611,35.9475,671.00,86.00,53.60,33.01,40.00,3.00,0.00,29.96,M,10.00,M,CLR,M,M,M,M,M,M,M,M,M,M,M,M,M,M,84.18,KBVU 100555Z AUTO 04003KT 10SM CLR 30/12 A2996 RMK AO2,M
CXP,2023-09-10 05:55,-119.7326,39.1923,1431.00,62.60,48.20,59.26,0.00,0.00,0.00,30.23,M,10.00,M,CLR,M,M,M,M,M,M,M,M,M,M,M,M,M,M,62.60,KCXP 100555Z AUTO 00000KT 10SM CLR 17/09 A3023 RMK AO2 LTG DSNT E-S,M
RNO,2023-09-10 05:55,-119.7711,39.4839,1341.00,71.00,47.00,42.35,0.00,0.00,0.00,30.20,1017.50,10.00,M,CLR,M,M,M,M,M,M,M,M,M,M,M,M,M,M,71.00,KRNO 100555Z 00000KT 10SM CLR 22/08 A3020 RMK AO2 SLP175 T02170083 10300 20217 51014,M
BAM,2023-09-10 05:55,-116.8743,40.5990,1382.36,69.80,46.40,43.13,250.00,4.00,0.00,30.18,M,10.00,M,SCT,SCT,M,M,10000.00,12000.00,M,M,M,M,M,M,M,M,M,69.80,KBAM 100555Z AUTO 25004KT 10SM SCT100 SCT120 21/08 A3018 RMK AO1,M
10U,2023-09-10 05:55,-116.1876,41.9532,1637.00,53.60,39.20,58.02,160.00,7.00,0.00,30.23,M,10.00,M,CLR,M,M,M,M,M,M,M,M,M,M,M,M,M,M,53.60,K10U 100555Z AUTO 16007KT 10SM CLR 12/04 A3023 RMK AO2,M
INS,2023-09-10 05:55,-115.6733,36.5872,955.00,83.70,46.00,26.78,0.00,0.00,0.00,30.07,1013.00,10.00,M,BKN,M,M,M,13000.00,M,M,M,M,M,M,M,M,M,M,81.48,KINS 100555Z AUTO 00000KT 10SM BKN130 29/08 A3007 RMK AO2 SLP130 T02870078 10360 20284 52012 $,M
LSV,2023-09-10 05:55,-115.0343,36.2362,570.00,88.30,50.00,26.87,0.00,0.00,0.00,29.93,1010.70,10.00,M,CLR,M,M,M,M,M,M,M,M,M,M,M,M,M,M,85.54,KLSV 100555Z AUTO 00000KT 10SM CLR 31/10 A2993 RMK AO2 SLP107 T03130100 10409 20309 52017 $,M
NFL,2023-09-10 05:56,-118.7010,39.4166,1199.00,72.00,49.00,44.13,200.00,4.00,0.00,30.16,1017.70,10.00,M,CLR,M,M,M,M,M,M,M,M,M,M,M,M,M,M,72.00,KNFL 100556Z AUTO 20004KT 10SM CLR 22/09 A3016 RMK AO2 SLP177 T02220094 10300 20222 51017,M
HND,2023-09-10 05:56,-115.1344,35.9729,742.79,89.00,49.00,25.32,210.00,5.00,0.00,30.02,1014.70,10.00,M,CLR,M,M,M,M,M,M,M,M,M,M,M,M,M,M,86.01,KHND 100556Z AUTO 21005KT 10SM CLR 32/09 A3002 RMK AO2 SLP147 T03170094 10389 20311 51011,M
LAS,2023-09-10 05:56,-115.1634,36.0719,663.00,92.00,50.00,23.92,60.00,4.00,0.00,29.98,1012.00,10.00,M,FEW,M,M,M,13000.00,M,M,M,M,M,M,M,M,M,M,88.94,KLAS 100556Z 06004KT 10SM FEW130 33/10 A2998 RMK AO2 SLP120 T03330100 10394 20333 51013 $,M
EKO,2023-09-10 05:56,-115.7860,40.8242,1367.00,63.00,45.00,51.78,0.00,0.00,0.00,30.22,1018.40,10.00,M,CLR,M,M,M,M,M,M,M,M,M,M,M,M,M,M,63.00,KEKO 100556Z AUTO 00000KT 10SM CLR 17/07 A3022 RMK AO2 SLP184 T01720072 10289 20167 51005,M
WMC,2023-09-10 05:56,-117.8072,40.9019,1315.00,71.00,45.00,39.27,160.00,10.00,T,30.14,1016.00,10.00,M,FEW,SCT,M,M,4400.00,11000.00,M,M,M,M,M,M,26.00,190.00,2023-09-10 05:42,71.00,KWMC 100556Z AUTO 16010KT 10SM FEW044 SCT110 22/07 A3014 RMK AO2 PK WND 19026/0542 RAB40E54 SLP160 P0000 60000 T02170072 10300 20172 50005,M
05U,2023-09-10 06:10,-116.0051,39.6042,1811.23,59.00,42.80,54.86,310.00,4.00,0.00,30.32,M,10.00,M,CLR,M,M,M,M,M,M,M,M,M,M,M,M,M,M,59.00,K05U 100610Z AUTO 31004KT 10SM CLR 15/06 A3032 RMK A01,M
BVU,2023-09-10 06:15,-114.8611,35.9475,671.00,87.80,51.80,29.18,0.00,0.00,0.00,29.97,M,10.00,M,CLR,M,M,M,M,M,M,M,M,M,M,M,M,M,M,85.39,KBVU 100615Z AUTO 00000KT 10SM CLR 31/11 A2997 RMK AO2,M
CXP,2023-09-10 06:15,-119.7326,39.1923,1431.00,60.80,48.20,63.15,0.00,0.00,0.00,30.23,M,10.00,M,CLR,M,M,M,M,M,M,M,M,M,M,M,M,M,M,60.80,KCXP 100615Z AUTO 00000KT 10SM CLR 16/09 A3023 RMK AO2 LTG DSNT SE,M
RTS,2023-09-10 06:15,-119.8764,39.6682,1539.00,64.40,41.00,42.28,250.00,4.00,0.00,30.24,M,10.00,M,CLR,M,M,M,M,M,M,M,M,M,M,M,M,M,M,64.40,KRTS 100615Z AUTO 25004KT 10SM CLR 18/05 A3024 RMK AO2,M
MEV,2023-09-10 06:15,-119.7500,38.9963,1441.42,64.40,44.60,48.55,180.00,6.00,0.00,30.21,M,10.00,M,FEW,M,M,M,5000.00,M,M,M,M,M,M,M,M,M,M,64.40,KMEV 100615Z AUTO 18006KT 10SM FEW050 18/07 A3021 RMK AO2 LTG DSNT SE,M
BAM,2023-09-10 06:15,-116.8743,40.5990,1382.36,69.80,48.20,46.16,280.00,8.00,0.00,30.19,M,10.00,M,BKN,M,M,M,11000.00,M,M,M,M,M,M,M,M,M,M,69.80,KBAM 100615Z AUTO 28008KT 10SM BKN110 21/09 A3019 RMK AO1,M
HTH,2023-09-10 06:15,-118.6315,38.5448,1282.89,66.20,51.80,59.74,40.00,6.00,0.00,30.23,M,10.00,12.00,FEW,SCT,BKN,M,3300.00,8000.00,11000.00,M,M,M,M,M,M,M,M,66.20,KHTH 100615Z AUTO 04006G12KT 10SM FEW033 SCT080 BKN110 19/11 A3023 RMK A01,M
10U,2023-09-10 06:15,-116.1876,41.9532,1637.00,51.80,37.40,57.77,0.00,0.00,0.00,30.23,M,10.00,M,CLR,M,M,M,M,M,M,M,M,M,M,M,M,M,M,51.80,K10U 100615Z AUTO 00000KT 10SM CLR 11/03 A3023 RMK AO2,M
TMT,2023-09-10 06:15,-117.1971,39.4643,1749.34,60.30,44.00,54.84,220.00,5.00,0.00,30.29,M,M,M,CLR,M,M,M,M,M,M,M,M,M,M,M,M,M,M,60.30,KTMT 100615Z AUTO 22005KT CLR 16/07 A3029 RMK AO2 LTG DSNT S THRU W T01570066 PWINO,M
05U,2023-09-10 06:30,-116.0051,39.6042,1811.23,57.20,41.00,54.60,340.00,5.00,0.00,30.31,M,10.00,M,CLR,M,M,M,M,M,M,M,M,M,M,M,M,M,M,57.20,K05U 100630Z AUTO 34005KT 10SM CLR 14/05 A3031 RMK A01,M
BVU,2023-09-10 06:35,-114.8611,35.9475,671.00,86.00,53.60,33.01,330.00,3.00,0.00,29.96,M,10.00,M,CLR,M,M,M,M,M,M,M,M,M,M,M,M,M,M,84.18,KBVU 100635Z AUTO 33003KT 10SM CLR 30/12 A2996 RMK AO2,M
CXP,2023-09-10 06:35,-119.7326,39.1923,1431.00,60.80,48.20,63.15,0.00,0.00,0.00,30.23,M,10.00,M,CLR,M,M,M,M,M,M,M,M,M,M,M,M,M,M,60.80,KCXP 100635Z AUTO 00000KT 10SM CLR 16/09 A3023 RMK AO2 LTG DSNT SE,M
RTS,2023-09-10 06:35,-119.8764,39.6682,1539.00,62.60,41.00,45.04,0.00,0.00,0.00,30.25,M,10.00,M,CLR,M,M,M,M,M,M,M,M,M,M,M,M,M,M,62.60,KRTS 100635Z AUTO 00000KT 10SM CLR 17/05 A3025 RMK AO2,M
MEV,2023-09-10 06:35,-119.7500,38.9963,1441.42,62.60,44.60,51.72,160.00,6.00,0.00,30.21,M,10.00,M,FEW,FEW,M,M,5500.00,7000.00,M,M,M,M,M,M,M,M,M,62.60,KMEV 100635Z AUTO 16006KT 10SM FEW055 FEW070 17/07 A3021 RMK AO2 LTG DSNT E AND SE,M
HTH,2023-09-10 06:35,-118.6315,38.5448,1282.89,64.40,53.60,67.95,210.00,8.00,0.00,30.23,M,10.00,M,FEW,M,M,M,11000.00,M,M,M,M,M,M,M,M,M,M,64.40,KHTH 100635Z AUTO 21008KT 10SM FEW110 18/12 A3023 RMK A01,M
10U,2023-09-10 06:35,-116.1876,41.9532,1637.00,50.00,37.40,61.76,100.00,5.00,0.00,30.23,M,10.00,M,CLR,M,M,M,M,M,M,M,M,M,M,M,M,M,M,50.00,K10U 100635Z AUTO 10005KT 10SM CLR 10/03 A3023 RMK AO2,M
BAM,2023-09-10 06:35,-116.8743,40.5990,1382.36,71.60,46.40,40.57,340.00,6.00,0.00,30.20,M,10.00,M,OVC,M,M,M,10000.00,M,M,M,M,M,M,M,M,M,M,71.60,KBAM 100635Z AUTO 34006KT 10SM OVC100 22/08 A3020 RMK AO1,M
TMT,2023-09-10 06:35,-117.1971,39.4643,1749.34,60.00,44.60,56.71,240.00,8.00,0.00,30.29,M,M,M,CLR,M,M,M,M,M,M,M,M,M,M,M,M,M,M,60.00,KTMT 100635Z AUTO 24008KT CLR 16/07 A3029 RMK AO2 LTG DSNT SW AND W T01550070 PWINO,M
05U,2023-09-10 06:50,-116.0051,39.6042,1811.23,57.20,41.00,54.60,340.00,6.00,0.00,30.32,M,10.00,M,CLR,M,M,M,M,M,M,M,M,M,M,M,M,M,M,57.20,K05U 100650Z AUTO 34006KT 10SM CLR 14/05 A3032 RMK A01,M
P68,2023-09-10 06:53,-116.0056,39.6014,1993.00,57.00,42.00,57.16,180.00,6.00,0.00,30.29,1017.80,M,M,M,M,M,M,M,M,M,M,M,M,M,M,M,M,M,57.00,KP68 100653Z AUTO 18006KT 14/06 A3029 RMK AO1 SLP178 T01390056,M
DRA,2023-09-10 06:53,-116.0278,36.6206,1009.00,81.00,49.00,32.73,50.00,15.00,0.00,30.08,1013.10,10.00,21.00,CLR,M,M,M,M,M,M,M,M,M,M,M,26.00,40.00,2023-09-10 06:40,80.02,KDRA 100653Z AUTO 05015G21KT 10SM CLR 27/09 A3008 RMK AO2 PK WND 04026/0640 SLP131 T02720094,M
ELY,2023-09-10 06:53,-114.8453,39.2950,1909.00,56.00,46.00,69.05,220.00,10.00,0.00,30.34,1018.10,10.00,M,CLR,M,M,M,M,M,M,M,M,M,M,M,M,M,M,56.00,KELY 100653Z AUTO 22010KT 10SM CLR 13/08 A3034 RMK AO2 SLP181 T01330078,M
VGT,2023-09-10 06:53,-115.1933,36.2111,667.00,92.00,49.00,23.04,330.00,8.00,0.00,29.97,1013.30,10.00,M,CLR,M,M,M,M,M,M,M,M,M,M,M,M,M,M,88.77,KVGT 100653Z AUTO 33008KT 10SM CLR 33/09 A2997 RMK AO2 SLP133 T03330094,M
LOL,2023-09-10 06:53,-118.5701,40.0684,1192.43,61.00,45.00,55.57,130.00,5.00,0.00,30.15,1017.30,10.00,M,CLR,M,M,M,M,M,M,M,M,M,M,M,M,M,M,61.00,KLOL 100653Z AUTO 13005KT 10SM CLR 16/07 A3015 RMK AO2 SLP173 T01610072,M
BVU,2023-09-10 06:55,-114.8611,35.9475,671.00,89.60,48.20,24.11,340.00,4.00,0.00,29.96,M,10.00,M,CLR,M,M,M,M,M,M,M,M,M,M,M,M,M,M,86.44,KBVU 100655Z AUTO 34004KT 10SM CLR 32/09 A2996 RMK AO2,M
CXP,2023-09-10 06:55,-119.7326,39.1923,1431.00,60.80,48.20,63.15,0.00,0.00,0.00,30.23,M,10.00,M,CLR,M,M,M,M,M,M,M,M,M,M,M,M,M,M,60.80,KCXP 100655Z AUTO 00000KT 10SM CLR 16/09 A3023 RMK AO2 LTG DSNT SE,M
RNO,2023-09-10 06:55,-119.7711,39.4839,1341.00,68.00,47.00,46.93,260.00,3.00,0.00,30.20,1017.40,10.00,M,FEW,M,M,M,8000.00,M,M,M,M,M,M,M,M,M,M,68.00,KRNO 100655Z 26003KT 10SM FEW080 20/08 A3020 RMK AO2 SLP174 OCNL LTGIC DSNT E AND SE CB DSNT E AND SE T02000083,M
LSV,2023-09-10 06:55,-115.0343,36.2362,570.00,88.30,49.00,25.88,40.00,7.00,0.00,29.94,1011.00,10.00,M,CLR,M,M,M,M,M,M,M,M,M,M,M,M,M,M,85.40,KLSV 100655Z AUTO 04007KT 10SM CLR 31/10 A2994 RMK AO2 SLP110 T03130095 $,M
RTS,2023-09-10 06:55,-119.8764,39.6682,1539.00,60.80,41.00,48.00,0.00,0.00,0.00,30.25,M,10.00,M,CLR,M,M,M,M,M,M,M,M,M,M,M,M,M,M,60.80,KRTS 100655Z AUTO 00000KT 10SM CLR 16/05 A3025 RMK AO2,M
MEV,2023-09-10 06:55,-119.7500,38.9963,1441.42,60.80,44.60,55.12,320.00,4.00,0.00,30.21,M,10.00,M,FEW,FEW,M,M,6000.00,7000.00,M,M,M,M,M,M,M,M,M,60.80,KMEV 100655Z AUTO 32004KT 10SM FEW060 FEW070 16/07 A3021 RMK AO2 LTG DSNT E AND SE,M
HTH,2023-09-10 06:55,-118.6315,38.5448,1282.89,64.40,50.00,59.50,220.00,6.00,0.00,30.24,M,10.00,M,CLR,M,M,M,M,M,M,M,M,M,M,M,M,M,M,64.40,KHTH 100655Z AUTO 22006KT 10SM CLR 18/10 A3024 RMK A01,M
BAM,2023-09-10 06:55,-116.8743,40.5990,1382.36,69.80,48.20,46.16,340.00,9.00,0.00,30.20,M,10.00,M,BKN,BKN,M,M,10000.00,12000.00,M,M,M,M,M,M,M,M,M,69.80,KBAM 100655Z AUTO 34009KT 10SM BKN100 BKN120 21/09 A3020 RMK AO1,M
TMT,2023-09-10 06:55,-117.1971,39.4643,1749.34,60.60,44.00,54.25,200.00,10.00,0.00,30.30,M,M,M,SCT,M,M,M,12000.00,M,M,M,M,M,M,M,M,M,M,60.60,KTMT 100655Z AUTO 20010KT SCT120 16/07 A3030 RMK AO2 LTG DSNT SW T01590067 PWINO,M
10U,2023-09-10 06:55,-116.1876,41.9532,1637.00,46.40,39.20,75.84,100.00,5.00,0.00,30.24,M,10.00,M,CLR,M,M,M,M,M,M,M,M,M,M,M,M,M,M,43.50,K10U 100655Z AUTO 10005KT 10SM CLR 08/04 A3024 RMK AO2,M
INS,2023-09-10 06:55,-115.6733,36.5872,955.00,81.70,46.20,28.79,340.00,9.00,0.00,30.08,1013.20,10.00,16.00,FEW,BKN,M,M,13000.00,16000.00,M,M,M,M,M,M,M,M,M,80.19,KINS 100655Z AUTO 34009G16KT 10SM FEW130 BKN160 28/08 A3008 RMK AO2 SLP132 T02760079 $,M
EKO,2023-09-10 06:56,-115.7860,40.8242,1367.00,59.00,45.00,59.67,0.00,0.00,0.00,30.23,1018.50,10.00,M,CLR,M,M,M,M,M,M,M,M,M,M,M,M,M,M,59.00,KEKO 100656Z AUTO 00000KT 10SM CLR 15/07 A3023 RMK AO2 LTG DSNT W SLP185 T01500072,M
WMC,2023-09-10 06:56,-117.8072,40.9019,1315.00,66.00,44.00,44.88,220.00,8.00,0.00,30.15,1016.30,10.00,M,CLR,M,M,M,M,M,M,M,M,M,M,M,M,M,M,66.00,KWMC 100656Z AUTO 22008KT 10SM CLR 19/07 A3015 RMK AO2 SLP163 T01890067,M
NFL,2023-09-10 06:56,-118.7010,39.4166,1199.00,71.00,49.00,45.66,190.00,6.00,0.00,30.17,1018.00,10.00,M,CLR,M,M,M,M,M,M,M,M,M,M,M,M,M,M,71.00,KNFL 100656Z AUTO 19006KT 10SM CLR 22/09 A3017 RMK AO2 SLP180 T02170094,M
HND,2023-09-10 06:56,-115.1344,35.9729,742.79,88.00,51.00,28.15,60.00,5.00,0.00,30.02,1014.70,10.00,M,CLR,M,M,M,M,M,M,M,M,M,M,M,M,M,M,85.43,KHND 100656Z AUTO 06005KT 10SM CLR 31/11 A3002 RMK AO2 SLP147 T03110106 403940250,M
LAS,2023-09-10 06:56,-115.1634,36.0719,663.00,90.00,50.00,25.46,40.00,6.00,0.00,29.98,1012.10,10.00,M,SCT,BKN,M,M,13000.00,22000.00,M,M,M,M,M,M,M,M,M,87.06,KLAS 100656Z 04006KT 10SM SCT130 BKN220 32/10 A2998 RMK AO2 SLP121 T03220100 $,M
05U,2023-09-10 07:10,-116.0051,39.6042,1811.23,57.20,41.00,54.60,350.00,7.00,0.00,30.31,M,10.00,M,CLR,M,M,M,M,M,M,M,M,M,M,M,M,M,M,57.20,K05U 100710Z AUTO 35007KT 10SM CLR 14/05 A3031 RMK A01,M
BVU,2023-09-10 07:15,-114.8611,35.9475,671.00,87.80,48.20,25.52,30.00,8.00,0.00,29.96,M,10.00,M,CLR,M,M,M,M,M,M,M,M,M,M,M,M,M,M,84.87,KBVU 100715Z AUTO 03008KT 10SM CLR 31/09 A2996 RMK AO2,M
CXP,2023-09-10 07:15,-119.7326,39.1923,1431.00,59.00,48.20,67.33,0.00,0.00,0.00,30.23,M,10.00,M,CLR,M,M,M,M,M,M,M,M,M,M,M,M,M,M,59.00,KCXP 100715Z AUTO 00000KT 10SM CLR 15/09 A3023 RMK AO2 LTG DSNT E,M
RTS,2023-09-10 07:15,-119.8764,39.6682,1539.00,60.80,42.80,51.45,340.00,4.00,0.00,30.24,M,10.00,M,CLR,M,M,M,M,M,M,M,M,M,M,M,M,M,M,60.80,KRTS 100715Z AUTO 34004KT 10SM CLR 16/06 A3024 RMK AO2,M
MEV,2023-09-10 07:15,-119.7500,38.9963,1441.42,60.80,44.60,55.12,350.00,4.00,0.00,30.21,M,10.00,M,BKN,M,M,M,6000.00,M,M,M,M,M,M,M,M,M,M,60.80,KMEV 100715Z AUTO 35004KT 10SM BKN060 16/07 A3021 RMK AO2 LTG DSNT E,M
HTH,2023-09-10 07:15,-118.6315,38.5448,1282.89,64.40,50.00,59.50,200.00,7.00,0.00,30.23,M,10.00,M,BKN,M,M,M,11000.00,M,M,M,M,M,M,M,M,M,M,64.40,KHTH 100715Z AUTO 20007KT 10SM BKN110 18/10 A3023 RMK A01,M
10U,2023-09-10 07:15,-116.1876,41.9532,1637.00,50.00,37.40,61.76,110.00,7.00,0.00,30.23,M,10.00,M,CLR,M,M,M,M,M,M,M,M,M,M,M,M,M,M,50.00,K10U 100715Z AUTO 11007KT 10SM CLR 10/03 A3023 RMK AO2,M
BAM,2023-09-10 07:15,-116.8743,40.5990,1382.36,69.80,46.40,43.13,270.00,5.00,0.00,30.19,M,10.00,M,SCT,M,M,M,10000.00,M,M,M,M,M,M,M,M,M,M,69.80,KBAM 100715Z AUTO 27005KT 10SM SCT100 21/08 A3019 RMK AO1,M
TMT,2023-09-10 07:15,-117.1971,39.4643,1749.34,60.00,44.60,56.71,190.00,9.00,0.00,30.31,M,M,M,BKN,M,M,M,12000.00,M,M,M,M,M,M,M,M,M,M,60.00,KTMT 100715Z AUTO 19009KT BKN120 16/07 A3031 RMK AO2 LTG DSNT S AND SW T01550070 PWINO,M
05U,2023-09-10 07:30,-116.0051,39.6042,1811.23,55.40,39.20,54.34,10.00,7.00,0.00,30.32,M,10.00,M,CLR,M,M,M,M,M,M,M,M,M,M,M,M,M,M,55.40,K05U 100730Z AUTO 01007KT 10SM CLR 13/04 A3032 RMK A01,M
RTS,2023-09-10 07:35,-119.8764,39.6682,1539.00,59.00,42.80,54.86,0.00,0.00,0.00,30.24,M,10.00,M,CLR,M,M,M,M,M,M,M,M,M,M,M,M,M,M,59.00,KRTS 100735Z AUTO 00000KT 10SM CLR 15/06 A3024 RMK AO2,M
MEV,2023-09-10 07:35,-119.7500,38.9963,1441.42,59.00,44.60,58.77,0.00,0.00,0.00,30.21,M,10.00,M,BKN,M,M,M,6000.00,M,M,M,M,M,M,M,M,M,M,59.00,KMEV 100735Z AUTO 00000KT 10SM BKN060 15/07 A3021 RMK AO2,M
HTH,2023-09-10 07:35,-118.6315,38.5448,1282.89,66.20,51.80,59.74,0.00,0.00,0.00,30.24,M,10.00,M,OVC,M,M,M,11000.00,M,M,M,M,M,M,M,M,M,M,66.20,KHTH 100735Z AUTO 00000KT 10SM OVC110 19/11 A3024 RMK A01,M
10U,2023-09-10 07:35,-116.1876,41.9532,1637.00,53.60,37.40,54.07,120.00,10.00,0.00,30.23,M,10.00,M,SCT,M,M,M,11000.00,M,M,M,M,M,M,M,M,M,M,53.60,K10U 100735Z AUTO 12010KT 10SM SCT110 12/03 A3023 RMK AO2,M
BAM,2023-09-10 07:35,-116.8743,40.5990,1382.36,68.00,48.20,49.10,290.00,3.00,0.00,30.20,M,10.00,M,CLR,M,M,M,M,M,M,M,M,M,M,M,M,M,M,68.00,KBAM 100735Z AUTO 29003KT 10SM CLR 20/09 A3020 RMK AO1,M
BVU,2023-09-10 07:35,-114.8611,35.9475,671.00,87.80,48.20,25.52,340.00,10.00,0.00,29.96,M,10.00,15.00,CLR,M,M,M,M,M,M,M,M,M,M,M,M,M,M,84.87,KBVU 100735Z AUTO 34010G15KT 10SM CLR 31/09 A2996 RMK AO2,M
CXP,2023-09-10 07:35,-119.7326,39.1923,1431.00,60.80,48.20,63.15,0.00,0.00,0.00,30.23,M,10.00,M,CLR,M,M,M,M,M,M,M,M,M,M,M,M,M,M,60.80,KCXP 100735Z AUTO 00000KT 10SM CLR 16/09 A3023 RMK AO2,M
05U,2023-09-10 07:50,-116.0051,39.6042,1811.23,59.00,41.00,51.18,360.00,7.00,0.00,30.33,M,10.00,M,CLR,M,M,M,M,M,M,M,M,M,M,M,M,M,M,59.00,K05U 100750Z AUTO 36007KT 10SM CLR 15/05 A3033 RMK A01,M
LOL,2023-09-10 07:53,-118.5701,40.0684,1192.43,62.00,43.00,49.69,130.00,3.00,0.00,30.16,1017.70,10.00,M,CLR,M,M,M,M,M,M,M,M,M,M,M,M,M,M,62.00,KLOL 100753Z AUTO 13003KT 10SM CLR 17/06 A3016 RMK AO2 SLP177 T01670061 403110067,M
P68,2023-09-10 07:53,-116.0056,39.6014,1993.00,59.00,41.00,51.18,200.00,8.00,0.00,30.30,1018.60,M,M,M,M,M,M,M,M,M,M,M,M,M,M,M,M,M,59.00,KP68 100753Z AUTO 20008KT 15/05 A3030 RMK AO1 SLP186 T01500050 402610072,M
DRA,2023-09-10 07:53,-116.0278,36.6206,1009.00,79.00,50.00,36.27,40.00,14.00,0.00,30.09,1013.30,10.00,M,CLR,M,M,M,M,M,M,M,M,M,M,M,26.00,30.00,2023-09-10 07:13,79.00,KDRA 100753Z AUTO 04014KT 10SM CLR 26/10 A3009 RMK AO2 PK WND 03026/0713 SLP133 T02610100 403670206,M
ELY,2023-09-10 07:53,-114.8453,39.2950,1909.00,55.00,46.00,71.60,310.00,4.00,0.00,30.34,1019.50,10.00,M,CLR,M,M,M,M,M,M,M,M,M,M,M,M,M,M,55.00,KELY 100753Z AUTO 31004KT 10SM CLR 13/08 A3034 RMK AO2 SLP195 T01280078 402610072,M
VGT,2023-09-10 07:53,-115.1933,36.2111,667.00,90.00,50.00,25.46,330.00,7.00,0.00,29.98,1013.50,10.00,M,CLR,M,M,M,M,M,M,M,M,M,M,M,M,M,M,87.06,KVGT 100753Z AUTO 33007KT 10SM CLR 32/10 A2998 RMK AO2 SLP135 T03220100 404000261,M
EKO,2023-09-10 07:54,-115.7860,40.8242,1367.00,57.20,46.40,67.12,180.00,5.05,M,30.24,M,10.00,M,BKN,M,M,M,10000.00,M,M,M,TS,M,M,M,M,M,M,57.20,SPECI KEKO 100754Z 18005KT 10SM TS BKN100 14/08 A3024 RMK AO2 TSB53 FIBI,M
RNO,2023-09-10 07:55,-119.7711,39.4839,1341.00,66.00,46.00,48.43,280.00,3.00,0.00,30.20,1017.30,10.00,M,CLR,M,M,M,M,M,M,M,M,M,M,M,M,M,M,66.00,KRNO 100755Z 28003KT 10SM CLR 19/08 A3020 RMK AO2 SLP173 T01890078 403220122,M
RTS,2023-09-10 07:55,-119.8764,39.6682,1539.00,57.20,41.00,54.60,100.00,4.00,0.00,30.24,M,10.00,M,CLR,M,M,M,M,M,M,M,M,M,M,M,M,M,M,57.20,KRTS 100755Z AUTO 10004KT 10SM CLR 14/05 A3024 RMK AO2,M
MEV,2023-09-10 07:55,-119.7500,38.9963,1441.42,57.20,44.60,62.69,60.00,3.00,0.00,30.21,M,10.00,M,FEW,FEW,M,M,4900.00,5500.00,M,M,M,M,M,M,M,M,M,57.20,KMEV 100755Z AUTO 06003KT 10SM FEW049 FEW055 14/07 A3021 RMK AO2,M
HTH,2023-09-10 07:55,-118.6315,38.5448,1282.89,62.60,53.60,72.38,110.00,4.00,0.00,30.24,M,10.00,M,OVC,M,M,M,11000.00,M,M,M,M,M,M,M,M,M,M,62.60,KHTH 100755Z AUTO 11004KT 10SM OVC110 17/12 A3024 RMK A01,M
BVU,2023-09-10 07:55,-114.8611,35.9475,671.00,87.80,46.40,23.85,350.00,14.00,0.00,29.96,M,10.00,M,CLR,M,M,M,M,M,M,M,M,M,M,M,M,M,M,84.68,KBVU 100755Z AUTO 35014KT 10SM CLR 31/08 A2996 RMK AO2,M
CXP,2023-09-10 07:55,-119.7326,39.1923,1431.00,59.00,48.20,67.33,0.00,0.00,0.00,30.23,M,10.00,M,CLR,M,M,M,M,M,M,M,M,M,M,M,M,M,M,59.00,KCXP 100755Z AUTO 00000KT 10SM CLR 15/09 A3023 RMK AO2,M
BAM,2023-09-10 07:55,-116.8743,40.5990,1382.36,62.60,48.20,59.26,180.00,6.00,0.00,30.20,M,10.00,M,CLR,M,M,M,M,M,M,M,M,M,M,M,M,M,M,62.60,KBAM 100755Z AUTO 18006KT 10SM CLR 17/09 A3020 RMK AO1,M
TMT,2023-09-10 07:55,-117.1971,39.4643,1749.34,62.80,45.00,52.14,240.00,17.00,0.00,30.34,M,M,22.00,SCT,M,M,M,12000.00,M,M,M,M,M,M,M,M,M,M,62.80,KTMT 100755Z AUTO 24017G22KT SCT120 17/07 A3034 RMK AO2 LTG DSNT SE AND S T01710072 402780022 PWINO,M
10U,2023-09-10 07:55,-116.1876,41.9532,1637.00,53.60,37.40,54.07,110.00,10.00,0.00,30.23,M,10.00,M,FEW,M,M,M,11000.00,M,M,M,M,M,M,M,M,M,M,53.60,K10U 100755Z AUTO 11010KT 10SM FEW110 12/03 A3023 RMK AO2,M
INS,2023-09-10 07:55,-115.6733,36.5872,955.00,79.30,47.00,32.10,320.00,4.00,0.00,30.08,1013.20,10.00,M,CLR,M,M,M,M,M,M,M,M,M,M,M,M,M,M,79.30,KINS 100755Z AUTO 32004KT 10SM CLR 26/08 A3008 RMK AO2 SLP132 T02630083 403640190 $,M
LSV,2023-09-10 07:55,-115.0343,36.2362,570.00,86.00,49.00,27.85,350.00,5.00,0.00,29.94,1011.00,10.00,M,CLR,M,M,M,M,M,M,M,M,M,M,M,M,M,M,83.49,KLSV 100755Z AUTO 35005KT 10SM CLR 30/10 A2994 RMK AO2 SLP110 T03000095 404240229 $,M
WMC,2023-09-10 07:56,-117.8072,40.9019,1315.00,61.00,46.00,57.72,0.00,0.00,0.00,30.17,1017.20,10.00,M,FEW,M,M,M,11000.00,M,M,M,M,M,M,M,M,M,M,61.00,KWMC 100756Z AUTO 00000KT 10SM FEW110 16/08 A3017 RMK AO2 SLP172 T01610078 403170056,M
NFL,2023-09-10 07:56,-118.7010,39.4166,1199.00,66.00,49.00,54.21,150.00,7.00,0.00,30.17,1018.00,10.00,M,CLR,M,M,M,M,M,M,M,M,M,M,M,M,M,M,66.00,KNFL 100756Z AUTO 15007KT 10SM CLR 19/09 A3017 RMK AO2 SLP180 T01890094,M
HND,2023-09-10 07:56,-115.1344,35.9729,742.79,87.00,50.00,28.00,50.00,6.00,0.00,30.02,1014.80,10.00,M,CLR,M,M,M,M,M,M,M,M,M,M,M,M,M,M,84.43,KHND 100756Z AUTO 05006KT 10SM CLR 31/10 A3002 RMK AO2 SLP148 T03060100,M
LAS,2023-09-10 07:56,-115.1634,36.0719,663.00,88.00,49.00,26.13,50.00,8.00,0.00,29.99,1012.30,10.00,M,SCT,BKN,M,M,13000.00,22000.00,M,M,M,M,M,M,M,M,M,85.14,KLAS 100756Z 05008KT 10SM SCT130 BKN220 31/09 A2999 RMK AO2 SLP123 T03110094 403940261 $,M
EKO,2023-09-10 07:56,-115.7860,40.8242,1367.00,58.00,46.00,64.24,190.00,4.00,0.00,30.24,1019.00,10.00,M,BKN,M,M,M,10000.00,M,M,M,TS,M,M,M,M,M,M,58.00,KEKO 100756Z AUTO 19004KT 10SM TS BKN100 14/08 A3024 RMK AO2 TSB53 SLP190 T01440078 403000072,M
05U,2023-09-10 08:10,-116.0051,39.6042,1811.23,59.00,41.00,51.18,350.00,6.00,0.00,30.34,M,10.00,M,SCT,M,M,M,12000.00,M,M,M,M,M,M,M,M,M,M,59.00,K05U 100810Z AUTO 35006KT 10SM SCT120 15/05 A3034 RMK A01,M
BAM,2023-09-10 08:15,-116.8743,40.5990,1382.36,60.80,50.00,67.54,140.00,5.00,0.00,30.20,M,10.00,M,CLR,M,M,M,M,M,M,M,M,M,M,M,M,M,M,60.80,KBAM 100815Z AUTO 14005KT 10SM CLR 16/10 A3020 RMK AO1,M
TMT,2023-09-10 08:15,-117.1971,39.4643,1749.34,63.00,46.20,54.19,220.00,17.00,0.00,30.35,M,M,29.00,SCT,BKN,M,M,8500.00,11000.00,M,M,M,M,M,M,M,M,M,63.00,KTMT 100815Z AUTO 22017G29KT SCT085 BKN110 17/08 A3035 RMK AO2 T01720079 PWINO,M
BVU,2023-09-10 08:15,-114.8611,35.9475,671.00,87.80,48.20,25.52,50.00,4.00,0.00,29.96,M,10.00,11.00,CLR,M,M,M,M,M,M,M,M,M,M,M,M,M,M,84.87,KBVU 100815Z AUTO 05004G11KT 10SM CLR 31/09 A2996 RMK AO2,M
CXP,2023-09-10 08:15,-119.7326,39.1923,1431.00,57.20,48.20,71.83,0.00,0.00,0.00,30.23,M,10.00,M,CLR,M,M,M,M,M,M,M,M,M,M,M,M,M,M,57.20,KCXP 100815Z AUTO 00000KT 10SM CLR 14/09 A3023 RMK AO2,M
RTS,2023-09-10 08:15,-119.8764,39.6682,1539.00,59.00,44.60,58.77,0.00,0.00,0.00,30.24,M,10.00,M,CLR,M,M,M,M,M,M,M,M,M,M,M,M,M,M,59.00,KRTS 100815Z AUTO 00000KT 10SM CLR 15/07 A3024 RMK AO2,M
MEV,2023-09-10 08:15,-119.7500,38.9963,1441.42,57.20,44.60,62.69,110.00,6.00,0.00,30.21,M,10.00,M,CLR,M,M,M,M,M,M,M,M,M,M,M,M,M,M,57.20,KMEV 100815Z AUTO 11006KT 10SM CLR 14/07 A3021 RMK AO2,M
HTH,2023-09-10 08:15,-118.6315,38.5448,1282.89,62.60,53.60,72.38,180.00,8.00,0.00,30.23,M,10.00,M,OVC,M,M,M,11000.00,M,M,M,M,M,M,M,M,M,M,62.60,KHTH 100815Z AUTO 18008KT 10SM OVC110 17/12 A3023 RMK A01,M
10U,2023-09-10 08:15,-116.1876,41.9532,1637.00,55.40,35.60,47.16,100.00,6.00,0.00,30.23,M,10.00,M,BKN,M,M,M,11000.00,M,M,M,M,M,M,M,M,M,M,55.40,K10U 100815Z AUTO 10006KT 10SM BKN110 13/02 A3023 RMK AO2,M
05U,2023-09-10 08:30,-116.0051,39.6042,1811.23,60.80,41.00,48.00,30.00,7.00,0.00,30.34,M,10.00,M,BKN,OVC,M,M,9000.00,11000.00,M,M,M,M,M,M,M,M,M,60.80,K05U 100830Z AUTO 03007KT 10SM BKN090 OVC110 16/05 A3034 RMK A01,M
EKO,2023-09-10 08:33,-115.7860,40.8242,1367.00,59.00,52.00,77.55,80.00,4.00,0.04,30.25,M,10.00,M,FEW,BKN,OVC,M,5500.00,9000.00,11000.00,M,M,M,M,M,M,M,M,59.00,KEKO 100833Z AUTO 08004KT 10SM FEW055 BKN090 OVC110 15/11 A3025 RMK AO2 LTG DSNT E RAB02E32 TSE27 P0004 T01500111,M
BVU,2023-09-10 08:35,-114.8611,35.9475,671.00,86.00,48.20,27.03,0.00,0.00,0.00,29.97,M,10.00,M,CLR,M,M,M,M,M,M,M,M,M,M,M,M,M,M,83.40,KBVU 100835Z AUTO 00000KT 10SM CLR 30/09 A2997 RMK AO2,M
CXP,2023-09-10 08:35,-119.7326,39.1923,1431.00,57.20,48.20,71.83,0.00,0.00,0.00,30.23,M,10.00,M,CLR,M,M,M,M,M,M,M,M,M,M,M,M,M,M,57.20,KCXP 100835Z AUTO 00000KT 10SM CLR 14/09 A3023 RMK AO2,M
TMT,2023-09-10 08:35,-117.1971,39.4643,1749.34,59.00,47.70,66.08,190.00,21.00,0.00,30.33,M,M,32.00,SCT,BKN,OVC,M,3500.00,7500.00,11000.00,M,M,M,M,M,M,M,M,59.00,KTMT 100835Z AUTO 19021G32KT SCT035 BKN075 OVC110 15/09 A3033 RMK AO2 LTG DSNT SW T01500087 PWINO,M
RTS,2023-09-10 08:35,-119.8764,39.6682,1539.00,57.20,41.00,54.60,20.00,3.00,0.00,30.24,M,10.00,M,CLR,M,M,M,M,M,M,M,M,M,M,M,M,M,M,57.20,KRTS 100835Z AUTO 02003KT 10SM CLR 14/05 A3024 RMK AO2,M
MEV,2023-09-10 08:35,-119.7500,38.9963,1441.42,55.40,42.80,62.46,100.00,8.00,0.00,30.21,M,10.00,M,FEW,M,M,M,7000.00,M,M,M,M,M,M,M,M,M,M,55.40,KMEV 100835Z AUTO 10008KT 10SM FEW070 13/06 A3021 RMK AO2,M
BAM,2023-09-10 08:35,-116.8743,40.5990,1382.36,59.00,50.00,72.01,80.00,3.00,0.00,30.21,M,10.00,M,CLR,M,M,M,M,M,M,M,M,M,M,M,M,M,M,59.00,KBAM 100835Z AUTO 08003KT 10SM CLR 15/10 A3021 RMK AO1,M
HTH,2023-09-10 08:35,-118.6315,38.5448,1282.89,64.40,53.60,67.95,150.00,8.00,0.00,30.22,M,10.00,M,OVC,M,M,M,11000.00,M,M,M,M,M,M,M,M,M,M,64.40,KHTH 100835Z AUTO 15008KT 10SM OVC110 18/12 A3022 RMK A01,M
10U,2023-09-10 08:35,-116.1876,41.9532,1637.00,57.20,35.60,44.19,110.00,10.00,0.00,30.23,M,10.00,M,OVC,M,M,M,11000.00,M,M,M,M,M,M,M,M,M,M,57.20,K10U 100835Z AUTO 11010KT 10SM OVC110 14/02 A3023 RMK AO2,M
05U,2023-09-10 08:50,-116.0051,39.6042,1811.23,60.80,39.20,44.76,50.00,8.00,0.00,30.34,M,10.00,M,FEW,OVC,M,M,7500.00,9000.00,M,M,M,M,M,M,M,M,M,60.80,K05U 100850Z AUTO 05008KT 10SM FEW075 OVC090 16/04 A3034 RMK A01,M
P68,2023-09-10 08:53,-116.0056,39.6014,1993.00,62.00,40.00,44.25,250.00,7.00,0.00,30.31,1018.60,M,M,M,M,M,M,M,M,M,M,M,M,M,M,M,M,M,62.00,KP68 100853Z AUTO 25007KT 17/04 A3031 RMK AO1 SLP186 T01670044 53006,M
DRA,2023-09-10 08:53,-116.0278,36.6206,1009.00,78.00,51.00,38.90,50.00,11.00,0.00,30.09,1013.30,10.00,M,CLR,M,M,M,M,M,M,M,M,M,M,M,M,M,M,78.00,KDRA 100853Z AUTO 05011KT 10SM CLR 26/11 A3009 RMK AO2 SLP133 T02560106 56000,M
ELY,2023-09-10 08:53,-114.8453,39.2950,1909.00,55.00,46.00,71.60,200.00,9.00,0.00,30.35,1020.70,10.00,M,CLR,M,M,M,M,M,M,M,M,M,M,M,M,M,M,55.00,KELY 100853Z AUTO 20009KT 10SM CLR 13/08 A3035 RMK AO2 SLP207 T01280078 53002,M
VGT,2023-09-10 08:53,-115.1933,36.2111,667.00,89.00,49.00,25.32,340.00,8.00,0.00,29.98,1013.60,10.00,M,CLR,M,M,M,M,M,M,M,M,M,M,M,M,M,M,86.01,KVGT 100853Z AUTO 34008KT 10SM CLR 32/09 A2998 RMK AO2 SLP136 T03170094 51004,M
LOL,2023-09-10 08:53,-118.5701,40.0684,1192.43,61.00,42.00,49.54,250.00,3.00,0.00,30.16,1017.70,10.00,M,CLR,M,M,M,M,M,M,M,M,M,M,M,M,M,M,61.00,KLOL 100853Z AUTO 25003KT 10SM CLR 16/06 A3016 RMK AO2 SLP177 T01610056 51008,M
BVU,2023-09-10 08:55,-114.8611,35.9475,671.00,86.00,48.20,27.03,350.00,12.00,0.00,29.97,M,10.00,M,CLR,M,M,M,M,M,M,M,M,M,M,M,M,M,M,83.40,KBVU 100855Z AUTO 35012KT 10SM CLR 30/09 A2997 RMK AO2,M
CXP,2023-09-10 08:55,-119.7326,39.1923,1431.00,55.40,48.20,76.66,0.00,0.00,0.00,30.23,M,10.00,M,CLR,M,M,M,M,M,M,M,M,M,M,M,M,M,M,55.40,KCXP 100855Z AUTO 00000KT 10SM CLR 13/09 A3023 RMK AO2,M
RTS,2023-09-10 08:55,-119.8764,39.6682,1539.00,57.20,42.80,58.52,280.00,3.00,0.00,30.24,M,10.00,M,CLR,M,M,M,M,M,M,M,M,M,M,M,M,M,M,57.20,KRTS 100855Z AUTO 28003KT 10SM CLR 14/06 A3024 RMK AO2,M
MEV,2023-09-10 08:55,-119.7500,38.9963,1441.42,53.60,42.80,66.70,100.00,7.00,0.00,30.21,M,10.00,M,FEW,SCT,M,M,5000.00,7000.00,M,M,M,M,M,M,M,M,M,53.60,KMEV 100855Z AUTO 10007KT 10SM FEW050 SCT070 12/06 A3021 RMK AO2,M
HTH,2023-09-10 08:55,-118.6315,38.5448,1282.89,66.20,50.00,55.88,150.00,10.00,0.00,30.22,M,10.00,M,SCT,M,M,M,11000.00,M,M,M,M,M,M,M,M,M,M,66.20,KHTH 100855Z AUTO 15010KT 10SM SCT110 19/10 A3022 RMK A01,M
RNO,2023-09-10 08:55,-119.7711,39.4839,1341.00,63.00,47.00,55.85,0.00,0.00,0.00,30.21,1017.20,10.00,M,CLR,M,M,M,M,M,M,M,M,M,M,M,M,M,M,63.00,KRNO 100855Z 00000KT 10SM CLR 17/08 A3021 RMK AO2 SLP172 T01720083 53001,M
BAM,2023-09-10 08:55,-116.8743,40.5990,1382.36,60.80,50.00,67.54,0.00,0.00,0.00,30.21,M,10.00,M,CLR,M,M,M,M,M,M,M,M,M,M,M,M,M,M,60.80,KBAM 100855Z AUTO 00000KT 10SM CLR 16/10 A3021 RMK AO1,M
TMT,2023-09-10 08:55,-117.1971,39.4643,1749.34,60.30,45.00,56.97,180.00,16.00,0.00,30.31,M,M,M,SCT,BKN,OVC,M,3500.00,8000.00,10000.00,M,M,M,M,M,M,M,M,60.30,KTMT 100855Z AUTO 18016KT SCT035 BKN080 OVC100 16/07 A3031 RMK AO2 LTG DSNT SE T01570073 PWINO,M
10U,2023-09-10 08:55,-116.1876,41.9532,1637.00,57.20,35.60,44.19,0.00,0.00,0.00,30.23,M,10.00,M,BKN,M,M,M,11000.00,M,M,M,M,M,M,M,M,M,M,57.20,K10U 100855Z AUTO 00000KT 10SM BKN110 14/02 A3023 RMK AO2,M
INS,2023-09-10 08:55,-115.6733,36.5872,955.00,81.30,45.00,27.87,0.00,0.00,0.00,30.08,1013.20,10.00,M,CLR,M,M,M,M,M,M,M,M,M,M,M,M,M,M,79.86,KINS 100855Z AUTO 00000KT 10SM CLR 27/07 A3008 RMK AO2 SLP132 T02740073 50002 $,M
LSV,2023-09-10 08:55,-115.0343,36.2362,570.00,87.30,49.00,26.72,290.00,6.00,0.00,29.94,1010.90,10.00,M,CLR,M,M,M,M,M,M,M,M,M,M,M,M,M,M,84.55,KLSV 100855Z AUTO 29006KT 10SM CLR 31/10 A2994 RMK AO2 SLP109 T03070095 51003 $,M
EKO,2023-09-10 08:56,-115.7860,40.8242,1367.00,60.00,53.00,77.64,0.00,0.00,0.04,30.23,1018.40,10.00,M,FEW,M,M,M,9000.00,M,M,M,M,M,M,M,M,M,M,60.00,KEKO 100856Z AUTO 00000KT 10SM FEW090 16/12 A3023 RMK AO2 RAB02E32 TSE27 SLP184 P0004 60004 T01560117 50004,M
LAS,2023-09-10 08:56,-115.1634,36.0719,663.00,88.00,49.00,26.13,10.00,7.00,0.00,29.99,1012.50,10.00,M,SCT,BKN,M,M,13000.00,22000.00,M,M,M,M,M,M,M,M,M,85.14,KLAS 100856Z 01007KT 10SM SCT130 BKN220 31/09 A2999 RMK AO2 SLP125 T03110094 53005 $,M
WMC,2023-09-10 08:56,-117.8072,40.9019,1315.00,61.00,47.00,59.94,110.00,4.00,0.00,30.18,1017.10,10.00,M,CLR,M,M,M,M,M,M,M,M,M,M,M,M,M,M,61.00,KWMC 100856Z AUTO 11004KT 10SM CLR 16/08 A3018 RMK AO2 SLP171 T01610083 51009,M
NFL,2023-09-10 08:56,-118.7010,39.4166,1199.00,66.00,47.00,50.29,130.00,4.00,0.00,30.17,1018.00,10.00,M,CLR,M,M,M,M,M,M,M,M,M,M,M,M,M,M,66.00,KNFL 100856Z AUTO 13004KT 10SM CLR 19/08 A3017 RMK AO2 SLP180 T01890083 50003,M
HND,2023-09-10 08:56,-115.1344,35.9729,742.79,85.00,50.00,29.85,50.00,4.00,0.00,30.03,1015.10,10.00,M,CLR,M,M,M,M,M,M,M,M,M,M,M,M,M,M,82.83,KHND 100856Z AUTO 05004KT 10SM CLR 29/10 A3003 RMK AO2 SLP151 T02940100 53005,M
05U,2023-09-10 09:10,-116.0051,39.6042,1811.23,59.00,41.00,51.18,60.00,4.00,0.00,30.34,M,10.00,M,FEW,BKN,BKN,M,4700.00,9000.00,12000.00,M,M,M,M,M,M,M,M,59.00,K05U 100910Z AUTO 06004KT 10SM FEW047 BKN090 BKN120 15/05 A3034 RMK A01,M
BVU,2023-09-10 09:15,-114.8611,35.9475,671.00,86.00,48.20,27.03,340.00,12.00,0.00,29.97,M,10.00,18.00,CLR,M,M,M,M,M,M,M,M,M,M,M,M,M,M,83.40,KBVU 100915Z AUTO 34012G18KT 10SM CLR 30/09 A2997 RMK AO2,M
CXP,2023-09-10 09:15,-119.7326,39.1923,1431.00,57.20,48.20,71.83,0.00,0.00,0.00,30.23,M,9.00,M,CLR,M,M,M,M,M,M,M,M,M,M,M,M,M,M,57.20,KCXP 100915Z AUTO 00000KT 9SM CLR 14/09 A3023 RMK AO2,M
RTS,2023-09-10 09:15,-119.8764,39.6682,1539.00,57.20,42.80,58.52,0.00,0.00,0.00,30.24,M,10.00,M,CLR,M,M,M,M,M,M,M,M,M,M,M,M,M,M,57.20,KRTS 100915Z AUTO 00000KT 10SM CLR 14/06 A3024 RMK AO2,M
MEV,2023-09-10 09:15,-119.7500,38.9963,1441.42,55.40,42.80,62.46,100.00,7.00,0.00,30.21,M,10.00,M,FEW,BKN,M,M,5000.00,7000.00,M,M,M,M,M,M,M,M,M,55.40,KMEV 100915Z AUTO 10007KT 10SM FEW050 BKN070 13/06 A3021 RMK AO2,M
HTH,2023-09-10 09:15,-118.6315,38.5448,1282.89,62.60,51.80,67.75,140.00,10.00,0.00,30.22,M,10.00,M,CLR,M,M,M,M,M,M,M,M,M,M,M,M,M,M,62.60,KHTH 100915Z AUTO 14010KT 10SM CLR 17/11 A3022 RMK A01,M
10U,2023-09-10 09:15,-116.1876,41.9532,1637.00,53.60,37.40,54.07,0.00,0.00,0.00,30.23,M,10.00,M,BKN,M,M,M,10000.00,M,M,M,M,M,M,M,M,M,M,53.60,K10U 100915Z AUTO 00000KT 10SM BKN100 12/03 A3023 RMK AO2,M
BAM,2023-09-10 09:15,-116.8743,40.5990,1382.36,62.60,50.00,63.38,0.00,0.00,0.00,30.21,M,10.00,M,CLR,M,M,M,M,M,M,M,M,M,M,M,M,M,M,62.60,KBAM 100915Z AUTO 00000KT 10SM CLR 17/10 A3021 RMK AO1,M
TMT,2023-09-10 09:15,-117.1971,39.4643,1749.34,60.40,44.60,55.91,190.00,9.00,0.00,30.32,M,M,M,SCT,SCT,M,M,8000.00,10000.00,M,M,M,M,M,M,M,M,M,60.40,KTMT 100915Z AUTO 19009KT SCT080 SCT100 16/07 A3032 RMK AO2 LTG DSNT SW T01580070 PWINO,M
05U,2023-09-10 09:30,-116.0051,39.6042,1811.23,57.20,42.80,58.52,290.00,4.00,0.00,30.34,M,10.00,M,SCT,M,M,M,9500.00,M,M,M,M,M,M,M,M,M,M,57.20,K05U 100930Z AUTO 29004KT 10SM SCT095 14/06 A3034 RMK A01,M
BVU,2023-09-10 09:35,-114.8611,35.9475,671.00,86.00,48.20,27.03,350.00,12.00,0.00,29.96,M,10.00,M,CLR,M,M,M,M,M,M,M,M,M,M,M,M,M,M,83.40,KBVU 100935Z AUTO 35012KT 10SM CLR 30/09 A2996 RMK AO2,M
CXP,2023-09-10 09:35,-119.7326,39.1923,1431.00,55.40,48.20,76.66,0.00,0.00,0.00,30.23,M,7.00,M,CLR,M,M,M,M,M,M,M,M,M,M,M,M,M,M,55.40,KCXP 100935Z AUTO 00000KT 7SM CLR 13/09 A3023 RMK AO2,M
RTS,2023-09-10 09:35,-119.8764,39.6682,1539.00,55.40,41.00,58.27,350.00,3.00,0.00,30.24,M,10.00,M,CLR,M,M,M,M,M,M,M,M,M,M,M,M,M,M,55.40,KRTS 100935Z AUTO 35003KT 10SM CLR 13/05 A3024 RMK AO2,M
MEV,2023-09-10 09:35,-119.7500,38.9963,1441.42,55.40,42.80,62.46,250.00,5.00,0.00,30.22,M,10.00,M,FEW,M,M,M,7000.00,M,M,M,M,M,M,M,M,M,M,55.40,KMEV 100935Z AUTO 25005KT 10SM FEW070 13/06 A3022 RMK AO2,M
HTH,2023-09-10 09:35,-118.6315,38.5448,1282.89,62.60,51.80,67.75,140.00,10.00,0.00,30.21,M,10.00,M,CLR,M,M,M,M,M,M,M,M,M,M,M,M,M,M,62.60,KHTH 100935Z AUTO 14010KT 10SM CLR 17/11 A3021 RMK A01,M
10U,2023-09-10 09:35,-116.1876,41.9532,1637.00,50.00,39.20,66.27,0.00,0.00,0.00,30.24,M,10.00,M,BKN,M,M,M,10000.00,M,M,M,M,M,M,M,M,M,M,50.00,K10U 100935Z AUTO 00000KT 10SM BKN100 10/04 A3024 RMK AO2,M
BAM,2023-09-10 09:35,-116.8743,40.5990,1382.36,60.80,48.20,63.15,0.00,0.00,0.00,30.21,M,10.00,M,CLR,M,M,M,M,M,M,M,M,M,M,M,M,M,M,60.80,KBAM 100935Z AUTO 00000KT 10SM CLR 16/09 A3021 RMK AO1,M
TMT,2023-09-10 09:35,-117.1971,39.4643,1749.34,59.00,46.00,61.98,200.00,16.00,0.00,30.33,M,M,M,SCT,M,M,M,11000.00,M,M,M,M,M,M,M,M,M,M,59.00,KTMT 100935Z AUTO 20016KT SCT110 15/08 A3033 RMK AO2 LTG DSNT SE AND W T01510077 PWINO,M
05U,2023-09-10 09:50,-116.0051,39.6042,1811.23,57.20,42.80,58.52,0.00,0.00,0.00,30.34,M,10.00,M,FEW,M,M,M,11000.00,M,M,M,M,M,M,M,M,M,M,57.20,K05U 100950Z AUTO 00000KT 10SM FEW110 14/06 A3034 RMK A01,M
P68,2023-09-10 09:53,-116.0056,39.6014,1993.00,57.00,43.00,59.40,160.00,3.00,0.00,30.32,1018.90,M,M,M,M,M,M,M,M,M,M,M,M,M,M,M,M,M,57.00,KP68 100953Z AUTO 16003KT 14/06 A3032 RMK AO1 SLP189 T01390061,M
DRA,2023-09-10 09:53,-116.0278,36.6206,1009.00,77.00,51.00,40.21,40.00,12.00,0.00,30.08,1013.00,10.00,M,CLR,M,M,M,M,M,M,M,M,M,M,M,M,M,M,77.00,KDRA 100953Z AUTO 04012KT 10SM CLR 25/11 A3008 RMK AO2 SLP130 T02500106,M
ELY,2023-09-10 09:53,-114.8453,39.2950,1909.00,55.00,47.00,74.36,110.00,6.00,0.00,30.35,1020.10,10.00,M,CLR,M,M,M,M,M,M,M,M,M,M,M,M,M,M,55.00,KELY 100953Z AUTO 11006KT 10SM CLR 13/08 A3035 RMK AO2 SLP201 T01280083,M
VGT,2023-09-10 09:53,-115.1933,36.2111,667.00,88.00,50.00,27.12,340.00,9.00,0.00,29.99,1013.90,10.00,M,CLR,M,M,M,M,M,M,M,M,M,M,M,M,M,M,85.28,KVGT 100953Z AUTO 34009KT 10SM CLR 31/10 A2999 RMK AO2 SLP139 T03110100,M
LOL,2023-09-10 09:53,-118.5701,40.0684,1192.43,58.00,44.00,59.54,80.00,7.00,0.00,30.16,1017.60,10.00,M,CLR,M,M,M,M,M,M,M,M,M,M,M,M,M,M,58.00,KLOL 100953Z AUTO 08007KT 10SM CLR 14/07 A3016 RMK AO2 SLP176 T01440067,M
MEV,2023-09-10 09:55,-119.7500,38.9963,1441.42,53.60,46.40,76.50,0.00,0.00,0.00,30.21,M,10.00,M,FEW,M,M,M,7000.00,M,M,M,M,M,M,M,M,M,M,53.60,KMEV 100955Z AUTO 00000KT 10SM FEW070 12/08 A3021 RMK AO2 LTG DSNT S,M
BVU,2023-09-10 09:55,-114.8611,35.9475,671.00,86.00,48.20,27.03,350.00,15.00,0.00,29.97,M,10.00,M,CLR,M,M,M,M,M,M,M,M,M,M,M,M,M,M,83.40,KBVU 100955Z AUTO 35015KT 10SM CLR 30/09 A2997 RMK AO2,M
CXP,2023-09-10 09:55,-119.7326,39.1923,1431.00,55.40,48.20,76.66,0.00,0.00,0.00,30.23,M,7.00,M,CLR,M,M,M,M,M,M,M,M,M,M,M,M,M,M,55.40,KCXP 100955Z AUTO 00000KT 7SM CLR 13/09 A3023 RMK AO2 LTG DSNT SE,M
RNO,2023-09-10 09:55,-119.7711,39.4839,1341.00,62.00,46.00,55.71,270.00,3.00,0.00,30.20,1017.30,10.00,M,CLR,M,M,M,M,M,M,M,M,M,M,M,M,M,M,62.00,KRNO 100955Z 27003KT 10SM CLR 17/08 A3020 RMK AO2 SLP173 T01670078,M
LSV,2023-09-10 09:55,-115.0343,36.2362,570.00,85.00,49.00,28.75,350.00,12.00,0.00,29.95,1011.30,10.00,M,FEW,M,M,M,17000.00,M,M,M,M,M,M,M,M,M,M,82.71,KLSV 100955Z AUTO 35012KT 10SM FEW170 29/10 A2995 RMK AO2 SLP113 T02940095 $,M
RTS,2023-09-10 09:55,-119.8764,39.6682,1539.00,57.20,42.80,58.52,0.00,0.00,0.00,30.24,M,10.00,M,CLR,M,M,M,M,M,M,M,M,M,M,M,M,M,M,57.20,KRTS 100955Z AUTO 00000KT 10SM CLR 14/06 A3024 RMK AO2,M
BAM,2023-09-10 09:55,-116.8743,40.5990,1382.36,59.00,50.00,72.01,0.00,0.00,0.00,30.21,M,10.00,M,CLR,M,M,M,M,M,M,M,M,M,M,M,M,M,M,59.00,KBAM 100955Z AUTO 00000KT 10SM CLR 15/10 A3021 RMK AO1,M
TMT,2023-09-10 09:55,-117.1971,39.4643,1749.34,59.00,46.00,61.98,180.00,11.00,0.00,30.30,M,M,M,SCT,M,M,M,11000.00,M,M,M,M,M,M,M,M,M,M,59.00,KTMT 100955Z AUTO 18011KT SCT110 15/08 A3030 RMK AO2 LTG DSNT S T01500077 PWINO,M
HTH,2023-09-10 09:55,-118.6315,38.5448,1282.89,62.60,51.80,67.75,140.00,12.00,0.00,30.21,M,10.00,M,CLR,M,M,M,M,M,M,M,M,M,M,M,M,M,M,62.60,KHTH 100955Z AUTO 14012KT 10SM CLR 17/11 A3021 RMK A01,M
10U,2023-09-10 09:55,-116.1876,41.9532,1637.00,48.20,39.20,70.88,70.00,6.00,0.00,30.24,M,10.00,M,BKN,M,M,M,10000.00,M,M,M,M,M,M,M,M,M,M,45.04,K10U 100955Z AUTO 07006KT 10SM BKN100 09/04 A3024 RMK AO2,M
INS,2023-09-10 09:55,-115.6733,36.5872,955.00,80.60,45.30,28.84,0.00,0.00,0.00,30.07,1012.70,10.00,M,OVC,M,M,M,14000.00,M,M,M,M,M,M,M,M,M,M,79.48,KINS 100955Z AUTO 00000KT 10SM OVC140 27/07 A3007 RMK AO2 SLP127 T02700074 $,M
EKO,2023-09-10 09:56,-115.7860,40.8242,1367.00,55.00,52.00,89.59,200.00,3.00,0.00,30.24,1018.90,10.00,M,CLR,M,M,M,M,M,M,M,M,M,M,M,M,M,M,55.00,KEKO 100956Z AUTO 20003KT 10SM CLR 13/11 A3024 RMK AO2 SLP189 T01280111,M
WMC,2023-09-10 09:56,-117.8072,40.9019,1315.00,55.00,46.00,71.60,140.00,5.00,0.00,30.18,1017.50,10.00,M,CLR,M,M,M,M,M,M,M,M,M,M,M,M,M,M,55.00,KWMC 100956Z AUTO 14005KT 10SM CLR 13/08 A3018 RMK AO2 SLP175 T01280078,M
NFL,2023-09-10 09:56,-118.7010,39.4166,1199.00,65.00,50.00,58.26,160.00,7.00,0.00,30.17,1018.00,10.00,M,CLR,M,M,M,M,M,M,M,M,M,M,M,M,M,M,65.00,KNFL 100956Z AUTO 16007KT 10SM CLR 18/10 A3017 RMK AO2 SLP180 T01830100,M
HND,2023-09-10 09:56,-115.1344,35.9729,742.79,84.00,50.00,30.82,60.00,7.00,0.00,30.03,1015.00,10.00,M,CLR,M,M,M,M,M,M,M,M,M,M,M,M,M,M,82.09,KHND 100956Z AUTO 06007KT 10SM CLR 29/10 A3003 RMK AO2 SLP150 T02890100,M
LAS,2023-09-10 09:56,-115.1634,36.0719,663.00,85.00,49.00,28.75,80.00,6.00,0.00,29.99,1012.60,10.00,M,BKN,BKN,M,M,13000.00,22000.00,M,M,M,M,M,M,M,M,M,82.71,KLAS 100956Z 08006KT 10SM BKN130 BKN220 29/09 A2999 RMK AO2 SLP126 T02940094 $,M
05U,2023-09-10 10:10,-116.0051,39.6042,1811.23,55.40,42.80,62.46,210.00,3.00,0.00,30.34,M,10.00,M,FEW,SCT,BKN,M,4900.00,8000.00,9500.00,M,M,M,M,M,M,M,M,55.40,K05U 101010Z AUTO 21003KT 10SM FEW049 SCT080 BKN095 13/06 A3034 RMK A01,M
BVU,2023-09-10 10:15,-114.8611,35.9475,671.00,86.00,48.20,27.03,360.00,13.00,0.00,29.97,M,10.00,M,CLR,M,M,M,M,M,M,M,M,M,M,M,M,M,M,83.40,KBVU 101015Z AUTO 36013KT 10SM CLR 30/09 A2997 RMK AO2,M
CXP,2023-09-10 10:15,-119.7326,39.1923,1431.00,55.40,46.40,71.64,0.00,0.00,0.00,30.23,M,10.00,M,CLR,M,M,M,M,M,M,M,M,M,M,M,M,M,M,55.40,KCXP 101015Z AUTO 00000KT 10SM CLR 13/08 A3023 RMK AO2,M
RTS,2023-09-10 10:15,-119.8764,39.6682,1539.00,50.00,39.20,66.27,0.00,0.00,0.00,30.24,M,10.00,M,CLR,M,M,M,M,M,M,M,M,M,M,M,M,M,M,50.00,KRTS 101015Z AUTO 00000KT 10SM CLR 10/04 A3024 RMK AO2,M
MEV,2023-09-10 10:15,-119.7500,38.9963,1441.42,51.80,44.60,76.34,0.00,0.00,0.00,30.21,M,10.00,M,FEW,M,M,M,6500.00,M,M,M,M,M,M,M,M,M,M,51.80,KMEV 101015Z AUTO 00000KT 10SM FEW065 11/07 A3021 RMK AO2,M
HTH,2023-09-10 10:15,-118.6315,38.5448,1282.89,62.60,51.80,67.75,140.00,12.00,0.00,30.21,M,10.00,M,CLR,M,M,M,M,M,M,M,M,M,M,M,M,M,M,62.60,KHTH 101015Z AUTO 14012KT 10SM CLR 17/11 A3021 RMK A01,M
BAM,2023-09-10 10:15,-116.8743,40.5990,1382.36,59.00,50.00,72.01,0.00,0.00,0.00,30.21,M,10.00,M,CLR,M,M,M,M,M,M,M,M,M,M,M,M,M,M,59.00,KBAM 101015Z AUTO 00000KT 10SM CLR 15/10 A3021 RMK AO1,M
TMT,2023-09-10 10:15,-117.1971,39.4643,1749.34,58.60,44.60,59.62,0.00,0.00,0.00,30.29,M,M,M,CLR,M,M,M,M,M,M,M,M,M,M,M,M,M,M,58.60,KTMT 101015Z AUTO 00000KT CLR 15/07 A3029 RMK AO2 LTG DSNT SW AND W T01480070 PWINO,M
10U,2023-09-10 10:15,-116.1876,41.9532,1637.00,50.00,37.40,61.76,90.00,8.00,0.00,30.24,M,10.00,M,FEW,M,M,M,11000.00,M,M,M,M,M,M,M,M,M,M,50.00,K10U 101015Z AUTO 09008KT 10SM FEW110 10/03 A3024 RMK AO2,M
05U,2023-09-10 10:30,-116.0051,39.6042,1811.23,55.40,44.60,66.91,240.00,6.00,0.00,30.33,M,10.00,M,FEW,SCT,OVC,M,5000.00,7000.00,11000.00,M,M,M,M,M,M,M,M,55.40,K05U 101030Z AUTO 24006KT 10SM FEW050 SCT070 OVC110 13/07 A3033 RMK A01,M
BVU,2023-09-10 10:35,-114.8611,35.9475,671.00,84.20,48.20,28.63,350.00,16.00,0.00,29.97,M,10.00,M,CLR,M,M,M,M,M,M,M,M,M,M,M,M,M,M,82.04,KBVU 101035Z AUTO 35016KT 10SM CLR 29/09 A2997 RMK AO2,M
CXP,2023-09-10 10:35,-119.7326,39.1923,1431.00,55.40,48.20,76.66,0.00,0.00,0.00,30.23,M,9.00,M,CLR,M,M,M,M,M,M,M,M,M,M,M,M,M,M,55.40,KCXP 101035Z AUTO 00000KT 9SM CLR 13/09 A3023 RMK AO2 LTG DSNT E AND SE,M
RTS,2023-09-10 10:35,-119.8764,39.6682,1539.00,53.60,41.00,62.23,0.00,0.00,0.00,30.24,M,10.00,M,CLR,M,M,M,M,M,M,M,M,M,M,M,M,M,M,53.60,KRTS 101035Z AUTO 00000KT 10SM CLR 12/05 A3024 RMK AO2,M
MEV,2023-09-10 10:35,-119.7500,38.9963,1441.42,48.20,42.80,81.47,0.00,0.00,0.00,30.22,M,10.00,M,SCT,SCT,M,M,7000.00,8000.00,M,M,M,M,M,M,M,M,M,48.20,KMEV 101035Z AUTO 00000KT 10SM SCT070 SCT080 09/06 A3022 RMK AO2,M
HTH,2023-09-10 10:35,-118.6315,38.5448,1282.89,64.40,50.00,59.50,190.00,9.00,0.00,30.21,M,10.00,M,CLR,M,M,M,M,M,M,M,M,M,M,M,M,M,M,64.40,KHTH 101035Z AUTO 19009KT 10SM CLR 18/10 A3021 RMK A01,M
10U,2023-09-10 10:35,-116.1876,41.9532,1637.00,50.00,37.40,61.76,120.00,5.00,0.00,30.24,M,10.00,M,CLR,M,M,M,M,M,M,M,M,M,M,M,M,M,M,50.00,K10U 101035Z AUTO 12005KT 10SM CLR 10/03 A3024 RMK AO2,M
BAM,2023-09-10 10:35,-116.8743,40.5990,1382.36,60.80,48.20,63.15,250.00,5.00,0.00,30.21,M,10.00,M,CLR,M,M,M,M,M,M,M,M,M,M,M,M,M,M,60.80,KBAM 101035Z AUTO 25005KT 10SM CLR 16/09 A3021 RMK AO1,M
TMT,2023-09-10 10:35,-117.1971,39.4643,1749.34,57.00,47.00,69.16,240.00,9.00,0.00,30.31,M,M,14.00,SCT,M,M,M,12000.00,M,M,M,M,M,M,M,M,M,M,57.00,KTMT 101035Z AUTO 24009G14KT SCT120 14/08 A3031 RMK AO2 LTG DSNT S THRU W T01380083 PWINO,M
05U,2023-09-10 10:50,-116.0051,39.6042,1811.23,55.40,44.60,66.91,0.00,0.00,0.00,30.33,M,10.00,M,FEW,SCT,BKN,M,4700.00,7000.00,9000.00,M,M,M,M,M,M,M,M,55.40,K05U 101050Z AUTO 00000KT 10SM FEW047 SCT070 BKN090 13/07 A3033 RMK A01,M
P68,2023-09-10 10:53,-116.0056,39.6014,1993.00,56.00,45.00,66.48,0.00,0.00,0.00,30.30,1019.30,M,M,M,M,M,M,M,M,M,M,M,M,M,M,M,M,M,56.00,KP68 101053Z AUTO 00000KT 13/07 A3030 RMK AO1 SLP193 T01330072,M
DRA,2023-09-10 10:53,-116.0278,36.6206,1009.00,77.00,51.00,40.21,40.00,14.00,0.00,30.08,1013.10,10.00,M,CLR,M,M,M,M,M,M,M,M,M,M,M,M,M,M,77.00,KDRA 101053Z AUTO 04014KT 10SM CLR 25/11 A3008 RMK AO2 SLP131 T02500106,M
ELY,2023-09-10 10:53,-114.8453,39.2950,1909.00,51.00,45.00,79.84,90.00,8.00,0.00,30.33,1019.60,10.00,M,CLR,M,M,M,M,M,M,M,M,M,M,M,M,M,M,51.00,KELY 101053Z AUTO 09008KT 10SM CLR 11/07 A3033 RMK AO2 SLP196 T01060072,M
VGT,2023-09-10 10:53,-115.1933,36.2111,667.00,87.00,50.00,28.00,330.00,9.00,0.00,29.99,1013.90,10.00,M,CLR,M,M,M,M,M,M,M,M,M,M,M,M,M,M,84.43,KVGT 101053Z AUTO 33009KT 10SM CLR 31/10 A2999 RMK AO2 SLP139 T03060100,M
LOL,2023-09-10 10:53,-118.5701,40.0684,1192.43,55.00,43.00,63.86,350.00,3.00,0.00,30.17,1018.00,10.00,M,CLR,M,M,M,M,M,M,M,M,M,M,M,M,M,M,55.00,KLOL 101053Z AUTO 35003KT 10SM CLR 13/06 A3017 RMK AO2 SLP180 T01280061,M
RTS,2023-09-10 10:55,-119.8764,39.6682,1539.00,48.20,39.20,70.88,340.00,4.00,0.00,30.24,M,10.00,M,CLR,M,M,M,M,M,M,M,M,M,M,M,M,M,M,46.34,KRTS 101055Z AUTO 34004KT 10SM CLR 09/04 A3024 RMK AO2,M
MEV,2023-09-10 10:55,-119.7500,38.9963,1441.42,48.20,41.00,76.01,0.00,0.00,0.00,30.21,M,10.00,M,BKN,M,M,M,7000.00,M,M,M,M,M,M,M,M,M,M,48.20,KMEV 101055Z AUTO 00000KT 10SM BKN070 09/05 A3021 RMK AO2,M
HTH,2023-09-10 10:55,-118.6315,38.5448,1282.89,64.40,50.00,59.50,180.00,7.00,0.00,30.21,M,10.00,M,CLR,M,M,M,M,M,M,M,M,M,M,M,M,M,M,64.40,KHTH 101055Z AUTO 18007KT 10SM CLR 18/10 A3021 RMK A01,M
BVU,2023-09-10 10:55,-114.8611,35.9475,671.00,84.20,48.20,28.63,340.00,17.00,0.00,29.97,M,10.00,M,CLR,M,M,M,M,M,M,M,M,M,M,M,M,M,M,82.04,KBVU 101055Z AUTO 34017KT 10SM CLR 29/09 A2997 RMK AO2,M
CXP,2023-09-10 10:55,-119.7326,39.1923,1431.00,55.40,46.40,71.64,0.00,0.00,0.00,30.23,M,10.00,M,CLR,M,M,M,M,M,M,M,M,M,M,M,M,M,M,55.40,KCXP 101055Z AUTO 00000KT 10SM CLR 13/08 A3023 RMK AO2,M
RNO,2023-09-10 10:55,-119.7711,39.4839,1341.00,61.00,46.00,57.72,260.00,3.00,0.00,30.20,1017.40,10.00,M,CLR,M,M,M,M,M,M,M,M,M,M,M,M,M,M,61.00,KRNO 101055Z 26003KT 10SM CLR 16/08 A3020 RMK AO2 SLP174 T01610078,M
BAM,2023-09-10 10:55,-116.8743,40.5990,1382.36,62.60,46.40,55.37,230.00,4.00,0.00,30.21,M,10.00,M,CLR,M,M,M,M,M,M,M,M,M,M,M,M,M,M,62.60,KBAM 101055Z AUTO 23004KT 10SM CLR 17/08 A3021 RMK AO1,M
TMT,2023-09-10 10:55,-117.1971,39.4643,1749.34,56.30,47.30,71.74,180.00,7.00,0.00,30.31,M,M,M,BKN,M,M,M,12000.00,M,M,M,VCTS,M,M,M,M,M,M,56.30,KTMT 101055Z AUTO 18007KT VCTS BKN120 14/09 A3031 RMK AO2 LTG DSNT S THRU W T01350085,M
10U,2023-09-10 10:55,-116.1876,41.9532,1637.00,50.00,37.40,61.76,130.00,5.00,0.00,30.24,M,10.00,M,FEW,M,M,M,10000.00,M,M,M,M,M,M,M,M,M,M,50.00,K10U 101055Z AUTO 13005KT 10SM FEW100 10/03 A3024 RMK AO2,M
INS,2023-09-10 10:55,-115.6733,36.5872,955.00,80.00,46.00,30.20,200.00,4.00,0.00,30.06,1012.40,10.00,M,OVC,M,M,M,15000.00,M,M,M,M,M,M,M,M,M,M,79.20,KINS 101055Z AUTO 20004KT 10SM OVC150 27/08 A3006 RMK AO2 SLP124 T02670077 $,M
LSV,2023-09-10 10:55,-115.0343,36.2362,570.00,86.00,50.00,28.90,360.00,8.00,0.00,29.95,1011.20,10.00,M,CLR,M,M,M,M,M,M,M,M,M,M,M,M,M,M,83.62,KLSV 101055Z AUTO 36008KT 10SM CLR 30/10 A2995 RMK AO2 SLP112 T02990099 $,M
LAS,2023-09-10 10:56,-115.1634,36.0719,663.00,85.00,50.00,29.85,70.00,7.00,0.00,30.00,1012.70,10.00,M,BKN,BKN,M,M,13000.00,22000.00,M,M,M,M,M,M,M,M,M,82.83,KLAS 101056Z 07007KT 10SM BKN130 BKN220 29/10 A3000 RMK AO2 SLP127 T02940100 $,M
EKO,2023-09-10 10:56,-115.7860,40.8242,1367.00,55.00,52.00,89.59,0.00,0.00,0.00,30.24,1018.90,10.00,M,CLR,M,M,M,M,M,M,M,M,M,M,M,M,M,M,55.00,KEKO 101056Z AUTO 00000KT 10SM CLR 13/11 A3024 RMK AO2 SLP189 T01280111,M
WMC,2023-09-10 10:56,-117.8072,40.9019,1315.00,55.00,46.00,71.60,180.00,6.00,0.00,30.18,1017.40,10.00,M,CLR,M,M,M,M,M,M,M,M,M,M,M,M,M,M,55.00,KWMC 101056Z AUTO 18006KT 10SM CLR 13/08 A3018 RMK AO2 SLP174 T01280078,M
NFL,2023-09-10 10:56,-118.7010,39.4166,1199.00,66.00,51.00,58.40,170.00,4.00,0.00,30.17,1018.00,10.00,M,CLR,M,M,M,M,M,M,M,M,M,M,M,M,M,M,66.00,KNFL 101056Z AUTO 17004KT 10SM CLR 19/11 A3017 RMK AO2 SLP180 T01890106,M
HND,2023-09-10 10:56,-115.1344,35.9729,742.79,83.00,50.00,31.83,60.00,5.00,0.00,30.04,1015.20,10.00,M,CLR,M,M,M,M,M,M,M,M,M,M,M,M,M,M,81.39,KHND 101056Z AUTO 06005KT 10SM CLR 28/10 A3004 RMK AO2 SLP152 T02830100,M
05U,2023-09-10 11:10,-116.0051,39.6042,1811.23,55.40,44.60,66.91,0.00,0.00,0.00,30.32,M,10.00,M,FEW,FEW,SCT,M,7000.00,9000.00,11000.00,M,M,M,M,M,M,M,M,55.40,K05U 101110Z AUTO 00000KT 10SM FEW070 FEW090 SCT110 13/07 A3032 RMK A01,M
BVU,2023-09-10 11:15,-114.8611,35.9475,671.00,84.20,48.20,28.63,350.00,14.00,0.00,29.97,M,10.00,M,CLR,M,M,M,M,M,M,M,M,M,M,M,M,M,M,82.04,KBVU 101115Z AUTO 35014KT 10SM CLR 29/09 A2997 RMK AO2,M
CXP,2023-09-10 11:15,-119.7326,39.1923,1431.00,55.40,46.40,71.64,0.00,0.00,0.00,30.23,M,10.00,M,CLR,M,M,M,M,M,M,M,M,M,M,M,M,M,M,55.40,KCXP 101115Z AUTO 00000KT 10SM CLR 13/08 A3023 RMK AO2 LTG DSNT E,M
RTS,2023-09-10 11:15,-119.8764,39.6682,1539.00,48.20,41.00,76.01,310.00,3.00,0.00,30.24,M,10.00,M,CLR,M,M,M,M,M,M,M,M,M,M,M,M,M,M,47.21,KRTS 101115Z AUTO 31003KT 10SM CLR 09/05 A3024 RMK AO2,M
MEV,2023-09-10 11:15,-119.7500,38.9963,1441.42,48.20,42.80,81.47,0.00,0.00,0.00,30.22,M,10.00,M,BKN,M,M,M,7000.00,M,M,M,M,M,M,M,M,M,M,48.20,KMEV 101115Z AUTO 00000KT 10SM BKN070 09/06 A3022 RMK AO2,M
HTH,2023-09-10 11:15,-118.6315,38.5448,1282.89,62.60,51.80,67.75,170.00,6.00,0.00,30.21,M,10.00,M,SCT,M,M,M,11000.00,M,M,M,M,M,M,M,M,M,M,62.60,KHTH 101115Z AUTO 17006KT 10SM SCT110 17/11 A3021 RMK A01,M
10U,2023-09-10 11:15,-116.1876,41.9532,1637.00,51.80,37.40,57.77,150.00,5.00,0.00,30.24,M,10.00,M,CLR,M,M,M,M,M,M,M,M,M,M,M,M,M,M,51.80,K10U 101115Z AUTO 15005KT 10SM CLR 11/03 A3024 RMK AO2,M
BAM,2023-09-10 11:15,-116.8743,40.5990,1382.36,60.80,46.40,59.01,180.00,3.00,0.00,30.21,M,10.00,M,CLR,M,M,M,M,M,M,M,M,M,M,M,M,M,M,60.80,KBAM 101115Z AUTO 18003KT 10SM CLR 16/08 A3021 RMK AO1,M
TMT,2023-09-10 11:15,-117.1971,39.4643,1749.34,56.00,47.30,72.52,160.00,5.00,0.00,30.30,M,M,M,SCT,M,M,M,12000.00,M,M,M,VCTS,M,M,M,M,M,M,56.00,KTMT 101115Z AUTO 16005KT VCTS SCT120 13/09 A3030 RMK AO2 LTG DSNT S T01340085,M
05U,2023-09-10 11:30,-116.0051,39.6042,1811.23,55.40,44.60,66.91,230.00,3.00,0.00,30.30,M,10.00,M,FEW,M,M,M,12000.00,M,M,M,M,M,M,M,M,M,M,55.40,K05U 101130Z AUTO 23003KT 10SM FEW120 13/07 A3030 RMK A01,M
BVU,2023-09-10 11:35,-114.8611,35.9475,671.00,84.20,48.20,28.63,350.00,12.00,0.00,29.97,M,10.00,M,CLR,M,M,M,M,M,M,M,M,M,M,M,M,M,M,82.04,KBVU 101135Z AUTO 35012KT 10SM CLR 29/09 A2997 RMK AO2,M
CXP,2023-09-10 11:35,-119.7326,39.1923,1431.00,53.60,46.40,76.50,0.00,0.00,0.00,30.23,M,10.00,M,CLR,M,M,M,M,M,M,M,M,M,M,M,M,M,M,53.60,KCXP 101135Z AUTO 00000KT 10SM CLR 12/08 A3023 RMK AO2,M
RTS,2023-09-10 11:35,-119.8764,39.6682,1539.00,50.00,41.00,71.07,340.00,3.00,0.00,30.24,M,10.00,M,CLR,M,M,M,M,M,M,M,M,M,M,M,M,M,M,50.00,KRTS 101135Z AUTO 34003KT 10SM CLR 10/05 A3024 RMK AO2,M
MEV,2023-09-10 11:35,-119.7500,38.9963,1441.42,48.20,41.00,76.01,120.00,4.00,0.00,30.22,M,10.00,M,BKN,BKN,M,M,7000.00,8000.00,M,M,M,M,M,M,M,M,M,46.34,KMEV 101135Z AUTO 12004KT 10SM BKN070 BKN080 09/05 A3022 RMK AO2,M
HTH,2023-09-10 11:35,-118.6315,38.5448,1282.89,62.60,51.80,67.75,20.00,4.00,0.00,30.20,M,10.00,M,BKN,M,M,M,11000.00,M,M,M,M,M,M,M,M,M,M,62.60,KHTH 101135Z AUTO 02004KT 10SM BKN110 17/11 A3020 RMK A01,M
10U,2023-09-10 11:35,-116.1876,41.9532,1637.00,48.20,39.20,70.88,200.00,3.00,0.00,30.24,M,10.00,M,CLR,M,M,M,M,M,M,M,M,M,M,M,M,M,M,47.21,K10U 101135Z AUTO 20003KT 10SM CLR 09/04 A3024 RMK AO2,M
BAM,2023-09-10 11:35,-116.8743,40.5990,1382.36,60.80,46.40,59.01,200.00,3.00,0.00,30.21,M,10.00,M,CLR,M,M,M,M,M,M,M,M,M,M,M,M,M,M,60.80,KBAM 101135Z AUTO 20003KT 10SM CLR 16/08 A3021 RMK AO1,M
TMT,2023-09-10 11:35,-117.1971,39.4643,1749.34,56.00,47.30,72.52,240.00,5.00,0.00,30.30,M,M,M,SCT,M,M,M,12000.00,M,M,M,M,M,M,M,M,M,M,56.00,KTMT 101135Z AUTO 24005KT SCT120 13/09 A3030 RMK AO2 LTG DSNT SE T01340085 PWINO,M
05U,2023-09-10 11:50,-116.0051,39.6042,1811.23,53.60,42.80,66.70,80.00,5.00,0.00,30.32,M,10.00,M,FEW,M,M,M,11000.00,M,M,M,M,M,M,M,M,M,M,53.60,K05U 101150Z AUTO 08005KT 10SM FEW110 12/06 A3032 RMK A01,M
P68,2023-09-10 11:53,-116.0056,39.6014,1993.00,53.00,43.00,68.71,290.00,6.00,0.00,30.30,1019.00,M,M,M,M,M,M,M,M,M,M,M,M,M,M,M,M,M,53.00,KP68 101153Z AUTO 29006KT 12/06 A3030 RMK AO1 SLP190 T01170061 10167 20111 58004,M
DRA,2023-09-10 11:53,-116.0278,36.6206,1009.00,75.00,52.00,44.59,50.00,13.00,0.00,30.07,1013.00,10.00,M,CLR,M,M,M,M,M,M,M,M,M,M,M,M,M,M,75.00,KDRA 101153Z AUTO 05013KT 10SM CLR 24/11 A3007 RMK AO2 SLP130 T02390111 10278 20239 57004,M
ELY,2023-09-10 11:53,-114.8453,39.2950,1909.00,47.00,43.00,85.89,200.00,7.00,0.00,30.32,1018.70,10.00,M,CLR,M,M,M,M,M,M,M,M,M,M,M,M,M,M,43.06,KELY 101153Z AUTO 20007KT 10SM CLR 08/06 A3032 RMK AO2 SLP187 70002 T00830061 10139 20083 58009,M
VGT,2023-09-10 11:53,-115.1933,36.2111,667.00,85.00,50.00,29.85,330.00,6.00,0.00,29.98,1013.70,10.00,M,CLR,M,M,M,M,M,M,M,M,M,M,M,M,M,M,82.83,KVGT 101153Z AUTO 33006KT 10SM CLR 29/10 A2998 RMK AO2 SLP137 T02940100 10339 20294 50001,M
LOL,2023-09-10 11:53,-118.5701,40.0684,1192.43,54.00,42.00,63.74,150.00,3.00,0.00,30.16,1018.00,10.00,M,CLR,M,M,M,M,M,M,M,M,M,M,M,M,M,M,54.00,KLOL 101153Z AUTO 15003KT 10SM CLR 12/06 A3016 RMK AO2 SLP180 T01220056 10200 20117 58001,M
BVU,2023-09-10 11:55,-114.8611,35.9475,671.00,84.20,48.20,28.63,340.00,9.00,0.00,29.97,M,10.00,14.00,CLR,M,M,M,M,M,M,M,M,M,M,M,M,M,M,82.04,KBVU 101155Z AUTO 34009G14KT 10SM CLR 29/09 A2997 RMK AO2,M
CXP,2023-09-10 11:55,-119.7326,39.1923,1431.00,53.60,46.40,76.50,0.00,0.00,0.00,30.22,M,10.00,M,CLR,M,M,M,M,M,M,M,M,M,M,M,M,M,M,53.60,KCXP 101155Z AUTO 00000KT 10SM CLR 12/08 A3022 RMK AO2,M
RNO,2023-09-10 11:55,-119.7711,39.4839,1341.00,59.00,46.00,61.98,270.00,4.00,0.00,30.20,1017.30,10.00,M,CLR,M,M,M,M,M,M,M,M,M,M,M,M,M,M,59.00,KRNO 101155Z 27004KT 10SM CLR 15/08 A3020 RMK AO2 SLP173 T01500078 10217 20150 58002,M
BAM,2023-09-10 11:55,-116.8743,40.5990,1382.36,59.00,46.40,62.92,0.00,0.00,0.00,30.21,M,10.00,M,CLR,M,M,M,M,M,M,M,M,M,M,M,M,M,M,59.00,KBAM 101155Z AUTO 00000KT 10SM CLR 15/08 A3021 RMK AO1,M
TMT,2023-09-10 11:55,-117.1971,39.4643,1749.34,56.50,47.30,71.22,200.00,7.00,0.00,30.31,M,M,M,SCT,M,M,M,11000.00,M,M,M,M,M,M,M,M,M,M,56.50,KTMT 101155Z AUTO 20007KT SCT110 14/09 A3031 RMK AO2 LTG DSNT SE THRU SW T01360085 10175 20130 PWINO,M
RTS,2023-09-10 11:55,-119.8764,39.6682,1539.00,50.00,41.00,71.07,0.00,0.00,0.00,30.23,M,10.00,M,CLR,M,M,M,M,M,M,M,M,M,M,M,M,M,M,50.00,KRTS 101155Z AUTO 00000KT 10SM CLR 10/05 A3023 RMK AO2,M
MEV,2023-09-10 11:55,-119.7500,38.9963,1441.42,48.20,41.00,76.01,60.00,3.00,0.00,30.21,M,10.00,M,BKN,BKN,M,M,6500.00,7500.00,M,M,M,M,M,M,M,M,M,47.21,KMEV 101155Z AUTO 06003KT 10SM BKN065 BKN075 09/05 A3021 RMK AO2,M
HTH,2023-09-10 11:55,-118.6315,38.5448,1282.89,60.80,51.80,72.20,150.00,3.00,0.00,30.20,M,10.00,M,BKN,M,M,M,12000.00,M,M,M,M,M,M,M,M,M,M,60.80,KHTH 101155Z AUTO 15003KT 10SM BKN120 16/11 A3020 RMK A01,M
10U,2023-09-10 11:55,-116.1876,41.9532,1637.00,46.40,39.20,75.84,160.00,6.00,0.00,30.24,M,10.00,M,FEW,M,M,M,11000.00,M,M,M,M,M,M,M,M,M,M,42.87,K10U 101155Z AUTO 16006KT 10SM FEW110 08/04 A3024 RMK AO2,M
INS,2023-09-10 11:55,-115.6733,36.5872,955.00,77.40,47.50,34.82,240.00,4.00,0.00,30.06,1012.70,10.00,M,BKN,M,M,M,15000.00,M,M,M,M,M,M,M,M,M,M,77.40,KINS 101155Z AUTO 24004KT 10SM BKN150 25/09 A3006 RMK AO2 SLP127 T02520086 10286 20252 57005 $,M
LSV,2023-09-10 11:55,-115.0343,36.2362,570.00,83.30,49.50,30.94,10.00,5.00,0.00,29.94,1010.90,10.00,M,FEW,M,M,M,16000.00,M,M,M,M,M,M,M,M,M,M,81.54,KLSV 101155Z AUTO 01005KT 10SM FEW160 29/10 A2994 RMK AO2 SLP109 T02850097 10319 20285 58001 $,M
EKO,2023-09-10 11:56,-115.7860,40.8242,1367.00,56.00,51.00,83.26,100.00,5.00,0.00,30.24,1018.90,10.00,M,CLR,M,M,M,M,M,M,M,M,M,M,M,M,M,M,56.00,KEKO 101156Z AUTO 10005KT 10SM CLR 13/11 A3024 RMK AO2 SLP189 60004 70004 T01330106 10172 20122 50002,M
WMC,2023-09-10 11:56,-117.8072,40.9019,1315.00,51.00,46.00,82.93,270.00,3.00,0.00,30.18,1017.70,10.00,M,CLR,M,M,M,M,M,M,M,M,M,M,M,M,M,M,51.00,KWMC 101156Z AUTO 27003KT 10SM CLR 11/08 A3018 RMK AO2 SLP177 T01060078 10217 20106 53001,M
NFL,2023-09-10 11:56,-118.7010,39.4166,1199.00,66.00,51.00,58.40,210.00,7.00,0.00,30.16,1017.90,10.00,M,CLR,M,M,M,M,M,M,M,M,M,M,M,M,M,M,66.00,KNFL 101156Z AUTO 21007KT 10SM CLR 19/11 A3016 RMK AO2 SLP179 7//// T01890106 10228 20178 58000,M
HND,2023-09-10 11:56,-115.1344,35.9729,742.79,82.00,51.00,34.12,60.00,4.00,0.00,30.03,1015.00,10.00,M,CLR,M,M,M,M,M,M,M,M,M,M,M,M,M,M,80.84,KHND 101156Z AUTO 06004KT 10SM CLR 28/11 A3003 RMK AO2 SLP150 T02780106 10317 20278 58001,M
LAS,2023-09-10 11:56,-115.1634,36.0719,663.00,85.00,50.00,29.85,70.00,6.00,0.00,29.99,1012.40,10.00,M,BKN,BKN,M,M,13000.00,22000.00,M,M,M,M,M,M,M,M,M,82.83,KLAS 101156Z 07006KT 10SM BKN130 BKN220 29/10 A2999 RMK AO2 SLP124 T02940100 10333 20294 50000 $,M
05U,2023-09-10 12:10,-116.0051,39.6042,1811.23,53.60,42.80,66.70,350.00,5.00,0.00,30.32,M,10.00,M,FEW,M,M,M,11000.00,M,M,M,M,M,M,M,M,M,M,53.60,K05U 101210Z AUTO 35005KT 10SM FEW110 12/06 A3032 RMK A01,M
TMT,2023-09-10 12:15,-117.1971,39.4643,1749.34,56.50,47.50,71.76,160.00,11.00,0.00,30.29,M,M,M,SCT,BKN,M,M,10000.00,12000.00,M,M,M,M,M,M,M,M,M,56.50,KTMT 101215Z AUTO 16011KT SCT100 BKN120 14/09 A3029 RMK AO2 LTG DSNT SE THRU W T01360086 PWINO,M
BVU,2023-09-10 12:15,-114.8611,35.9475,671.00,82.40,50.00,32.46,340.00,8.00,0.00,29.97,M,10.00,M,CLR,M,M,M,M,M,M,M,M,M,M,M,M,M,M,80.99,KBVU 101215Z AUTO 34008KT 10SM CLR 28/10 A2997 RMK AO2 LTG DSNT N AND NW,M
CXP,2023-09-10 12:15,-119.7326,39.1923,1431.00,51.80,46.40,81.74,0.00,0.00,0.00,30.22,M,9.00,M,CLR,M,M,M,M,M,M,M,M,M,M,M,M,M,M,51.80,KCXP 101215Z AUTO 00000KT 9SM CLR 11/08 A3022 RMK AO2,M
RTS,2023-09-10 12:15,-119.8764,39.6682,1539.00,48.20,41.00,76.01,0.00,0.00,0.00,30.24,M,10.00,M,CLR,M,M,M,M,M,M,M,M,M,M,M,M,M,M,48.20,KRTS 101215Z AUTO 00000KT 10SM CLR 09/05 A3024 RMK AO2,M
MEV,2023-09-10 12:15,-119.7500,38.9963,1441.42,50.00,42.80,76.18,0.00,0.00,0.00,30.21,M,10.00,M,FEW,BKN,BKN,M,3800.00,6500.00,11000.00,M,M,M,M,M,M,M,M,50.00,KMEV 101215Z AUTO 00000KT 10SM FEW038 BKN065 BKN110 10/06 A3021 RMK AO2,M
BAM,2023-09-10 12:15,-116.8743,40.5990,1382.36,59.00,46.40,62.92,180.00,4.00,0.00,30.21,M,10.00,M,CLR,M,M,M,M,M,M,M,M,M,M,M,M,M,M,59.00,KBAM 101215Z AUTO 18004KT 10SM CLR 15/08 A3021 RMK AO1,M
HTH,2023-09-10 12:15,-118.6315,38.5448,1282.89,60.80,51.80,72.20,0.00,0.00,0.00,30.20,M,10.00,M,FEW,BKN,M,M,9000.00,12000.00,M,M,M,M,M,M,M,M,M,60.80,KHTH 101215Z AUTO 00000KT 10SM FEW090 BKN120 16/11 A3020 RMK A01,M
10U,2023-09-10 12:15,-116.1876,41.9532,1637.00,48.20,39.20,70.88,170.00,5.00,0.00,30.24,M,10.00,M,CLR,M,M,M,M,M,M,M,M,M,M,M,M,M,M,45.63,K10U 101215Z AUTO 17005KT 10SM CLR 09/04 A3024 RMK AO2,M
05U,2023-09-10 12:30,-116.0051,39.6042,1811.23,51.80,42.80,71.26,340.00,5.00,0.00,30.32,M,10.00,M,CLR,M,M,M,M,M,M,M,M,M,M,M,M,M,M,51.80,K05U 101230Z AUTO 34005KT 10SM CLR 11/06 A3032 RMK A01,M
BVU,2023-09-10 12:35,-114.8611,35.9475,671.00,82.40,50.00,32.46,340.00,10.00,0.00,29.97,M,10.00,M,CLR,M,M,M,M,M,M,M,M,M,M,M,M,M,M,80.99,KBVU 101235Z AUTO 34010KT 10SM CLR 28/10 A2997 RMK AO2,M
CXP,2023-09-10 12:35,-119.7326,39.1923,1431.00,51.80,46.40,81.74,0.00,0.00,0.00,30.22,M,10.00,M,CLR,M,M,M,M,M,M,M,M,M,M,M,M,M,M,51.80,KCXP 101235Z AUTO 00000KT 10SM CLR 11/08 A3022 RMK AO2,M
RTS,2023-09-10 12:35,-119.8764,39.6682,1539.00,48.20,41.00,76.01,0.00,0.00,0.00,30.23,M,10.00,M,CLR,M,M,M,M,M,M,M,M,M,M,M,M,M,M,48.20,KRTS 101235Z AUTO 00000KT 10SM CLR 09/05 A3023 RMK AO2,M
MEV,2023-09-10 12:35,-119.7500,38.9963,1441.42,46.40,41.00,81.34,0.00,0.00,0.00,30.21,M,10.00,M,FEW,FEW,BKN,M,3200.00,4200.00,6000.00,M,M,M,M,M,M,M,M,46.40,KMEV 101235Z AUTO 00000KT 10SM FEW032 FEW042 BKN060 08/05 A3021 RMK AO2,M
HTH,2023-09-10 12:35,-118.6315,38.5448,1282.89,60.80,51.80,72.20,0.00,0.00,0.00,30.20,M,10.00,M,BKN,M,M,M,11000.00,M,M,M,M,M,M,M,M,M,M,60.80,KHTH 101235Z AUTO 00000KT 10SM BKN110 16/11 A3020 RMK A01,M
10U,2023-09-10 12:35,-116.1876,41.9532,1637.00,48.20,39.20,70.88,160.00,7.00,0.00,30.24,M,10.00,M,CLR,M,M,M,M,M,M,M,M,M,M,M,M,M,M,44.53,K10U 101235Z AUTO 16007KT 10SM CLR 09/04 A3024 RMK AO2,M
BAM,2023-09-10 12:35,-116.8743,40.5990,1382.36,59.00,46.40,62.92,190.00,6.00,0.00,30.21,M,10.00,M,CLR,M,M,M,M,M,M,M,M,M,M,M,M,M,M,59.00,KBAM 101235Z AUTO 19006KT 10SM CLR 15/08 A3021 RMK AO1,M
TMT,2023-09-10 12:35,-117.1971,39.4643,1749.34,57.20,48.00,71.29,280.00,4.00,0.00,30.29,M,M,M,SCT,SCT,M,M,9000.00,12000.00,M,M,M,M,M,M,M,M,M,57.20,KTMT 101235Z AUTO 28004KT SCT090 SCT120 14/09 A3029 RMK AO2 T01400088 PWINO,M
05U,2023-09-10 12:50,-116.0051,39.6042,1811.23,51.80,42.80,71.26,320.00,6.00,0.00,30.32,M,10.00,M,SCT,M,M,M,11000.00,M,M,M,M,M,M,M,M,M,M,51.80,K05U 101250Z AUTO 32006KT 10SM SCT110 11/06 A3032 RMK A01,M
P68,2023-09-10 12:53,-116.0056,39.6014,1993.00,52.00,43.00,71.28,170.00,7.00,0.00,30.30,1019.10,M,M,M,M,M,M,M,M,M,M,M,M,M,M,M,M,M,52.00,KP68 101253Z AUTO 17007KT 11/06 A3030 RMK AO1 SLP191 T01110061,M
DRA,2023-09-10 12:53,-116.0278,36.6206,1009.00,75.00,52.00,44.59,50.00,14.00,0.00,30.08,1013.20,10.00,M,CLR,M,M,M,M,M,M,M,M,M,M,M,M,M,M,75.00,KDRA 101253Z AUTO 05014KT 10SM CLR 24/11 A3008 RMK AO2 SLP132 T02390111,M
ELY,2023-09-10 12:53,-114.8453,39.2950,1909.00,46.00,43.00,89.20,140.00,6.00,0.00,30.31,1019.40,10.00,M,CLR,M,M,M,M,M,M,M,M,M,M,M,M,M,M,42.39,KELY 101253Z AUTO 14006KT 10SM CLR 08/06 A3031 RMK AO2 SLP194 T00780061,M
VGT,2023-09-10 12:53,-115.1933,36.2111,667.00,85.00,51.00,30.97,300.00,9.00,0.00,29.98,1013.70,10.00,M,CLR,M,M,M,M,M,M,M,M,M,M,M,M,M,M,82.97,KVGT 101253Z AUTO 30009KT 10SM CLR 29/11 A2998 RMK AO2 SLP137 T02940106,M
LOL,2023-09-10 12:53,-118.5701,40.0684,1192.43,53.00,43.00,68.71,60.00,3.00,0.00,30.16,1018.00,10.00,M,CLR,M,M,M,M,M,M,M,M,M,M,M,M,M,M,53.00,KLOL 101253Z AUTO 06003KT 10SM CLR 12/06 A3016 RMK AO2 SLP180 T01170061,M
BVU,2023-09-10 12:55,-114.8611,35.9475,671.00,82.40,50.00,32.46,330.00,9.00,0.00,29.97,M,10.00,M,CLR,M,M,M,M,M,M,M,M,M,M,M,M,M,M,80.99,KBVU 101255Z AUTO 33009KT 10SM CLR 28/10 A2997 RMK AO2,M
CXP,2023-09-10 12:55,-119.7326,39.1923,1431.00,51.80,46.40,81.74,0.00,0.00,0.00,30.22,M,9.00,M,CLR,M,M,M,M,M,M,M,M,M,M,M,M,M,M,51.80,KCXP 101255Z AUTO 00000KT 9SM CLR 11/08 A3022 RMK AO2,M
RNO,2023-09-10 12:55,-119.7711,39.4839,1341.00,58.00,45.00,61.85,260.00,4.00,0.00,30.20,1017.60,10.00,M,CLR,M,M,M,M,M,M,M,M,M,M,M,M,M,M,58.00,KRNO 101255Z 26004KT 10SM CLR 14/07 A3020 RMK AO2 SLP176 T01440072,M
RTS,2023-09-10 12:55,-119.8764,39.6682,1539.00,46.40,39.20,75.84,0.00,0.00,0.00,30.23,M,10.00,M,CLR,M,M,M,M,M,M,M,M,M,M,M,M,M,M,46.40,KRTS 101255Z AUTO 00000KT 10SM CLR 08/04 A3023 RMK AO2,M
MEV,2023-09-10 12:55,-119.7500,38.9963,1441.42,46.40,39.20,75.84,100.00,3.00,0.00,30.21,M,10.00,M,FEW,FEW,BKN,M,3300.00,3900.00,6000.00,M,M,M,M,M,M,M,M,45.15,KMEV 101255Z AUTO 10003KT 10SM FEW033 FEW039 BKN060 08/04 A3021 RMK AO2,M
HTH,2023-09-10 12:55,-118.6315,38.5448,1282.89,59.00,51.80,76.98,120.00,5.00,0.00,30.20,M,10.00,M,CLR,M,M,M,M,M,M,M,M,M,M,M,M,M,M,59.00,KHTH 101255Z AUTO 12005KT 10SM CLR 15/11 A3020 RMK A01,M
BAM,2023-09-10 12:55,-116.8743,40.5990,1382.36,57.20,46.40,67.12,200.00,6.00,0.00,30.22,M,10.00,M,CLR,M,M,M,M,M,M,M,M,M,M,M,M,M,M,57.20,KBAM 101255Z AUTO 20006KT 10SM CLR 14/08 A3022 RMK AO1,M
TMT,2023-09-10 12:55,-117.1971,39.4643,1749.34,56.50,47.30,71.22,250.00,8.00,0.00,30.29,M,M,M,CLR,M,M,M,M,M,M,M,VCTS,M,M,M,M,M,M,56.50,KTMT 101255Z AUTO 25008KT VCTS CLR 14/09 A3029 RMK AO2 LTG DSNT S AND W T01360085,M
10U,2023-09-10 12:55,-116.1876,41.9532,1637.00,48.20,41.00,76.01,150.00,7.00,0.00,30.24,M,10.00,M,CLR,M,M,M,M,M,M,M,M,M,M,M,M,M,M,44.53,K10U 101255Z AUTO 15007KT 10SM CLR 09/05 A3024 RMK AO2,M
INS,2023-09-10 12:55,-115.6733,36.5872,955.00,75.20,49.30,40.08,280.00,5.00,0.00,30.07,1013.00,10.00,M,OVC,M,M,M,14000.00,M,M,M,M,M,M,M,M,M,M,75.20,KINS 101255Z AUTO 28005KT 10SM OVC140 24/10 A3007 RMK AO2 SLP130 T02400096 $,M
LSV,2023-09-10 12:55,-115.0343,36.2362,570.00,82.00,51.40,34.63,0.00,0.00,0.00,29.94,1011.00,10.00,M,SCT,M,M,M,16000.00,M,M,M,M,M,M,M,M,M,M,80.89,KLSV 101255Z AUTO 00000KT 10SM SCT160 28/11 A2994 RMK AO2 SLP110 T02770108 $,M
EKO,2023-09-10 12:56,-115.7860,40.8242,1367.00,55.00,51.00,86.34,0.00,0.00,0.00,30.24,1019.40,10.00,M,CLR,M,M,M,M,M,M,M,M,M,M,M,M,M,M,55.00,KEKO 101256Z AUTO 00000KT 10SM CLR 13/11 A3024 RMK AO2 SLP194 T01280106,M
WMC,2023-09-10 12:56,-117.8072,40.9019,1315.00,51.00,45.00,79.84,160.00,5.00,0.00,30.18,1017.90,10.00,M,CLR,M,M,M,M,M,M,M,M,M,M,M,M,M,M,51.00,KWMC 101256Z AUTO 16005KT 10SM CLR 11/07 A3018 RMK AO2 SLP179 T01060072,M
NFL,2023-09-10 12:56,-118.7010,39.4166,1199.00,63.00,52.00,67.29,180.00,9.00,0.00,30.16,1017.60,10.00,M,CLR,M,M,M,M,M,M,M,M,M,M,M,M,M,M,63.00,KNFL 101256Z AUTO 18009KT 10SM CLR 17/11 A3016 RMK AO2 SLP176 T01720111,M
HND,2023-09-10 12:56,-115.1344,35.9729,742.79,80.00,51.00,36.42,120.00,4.00,0.00,30.03,1015.00,10.00,M,CLR,M,M,M,M,M,M,M,M,M,M,M,M,M,M,79.65,KHND 101256Z 12004KT 10SM CLR 27/11 A3003 RMK AO2 SLP150 T02670106,M
LAS,2023-09-10 12:56,-115.1634,36.0719,663.00,83.00,52.00,34.28,290.00,4.00,0.00,29.99,1012.50,10.00,M,BKN,BKN,M,M,13000.00,22000.00,M,M,M,M,M,M,M,M,M,81.64,KLAS 101256Z 29004KT 10SM BKN130 BKN220 28/11 A2999 RMK AO2 SLP125 T02830111 $,M
05U,2023-09-10 13:10,-116.0051,39.6042,1811.23,51.80,42.80,71.26,0.00,0.00,0.00,30.32,M,10.00,M,BKN,M,M,M,11000.00,M,M,M,M,M,M,M,M,M,M,51.80,K05U 101310Z AUTO 00000KT 10SM BKN110 11/06 A3032 RMK A01,M
BVU,2023-09-10 13:15,-114.8611,35.9475,671.00,82.40,50.00,32.46,320.00,10.00,0.00,29.97,M,10.00,M,CLR,M,M,M,M,M,M,M,M,M,M,M,M,M,M,80.99,KBVU 101315Z AUTO 32010KT 10SM CLR 28/10 A2997 RMK AO2,M
CXP,2023-09-10 13:15,-119.7326,39.1923,1431.00,51.80,46.40,81.74,290.00,3.00,0.00,30.22,M,10.00,M,CLR,M,M,M,M,M,M,M,M,M,M,M,M,M,M,51.80,KCXP 101315Z AUTO 29003KT 10SM CLR 11/08 A3022 RMK AO2 LTG DSNT E,M
RTS,2023-09-10 13:15,-119.8764,39.6682,1539.00,46.40,39.20,75.84,0.00,0.00,0.00,30.23,M,10.00,M,CLR,M,M,M,M,M,M,M,M,M,M,M,M,M,M,46.40,KRTS 101315Z AUTO 00000KT 10SM CLR 08/04 A3023 RMK AO2,M
MEV,2023-09-10 13:15,-119.7500,38.9963,1441.42,46.40,41.00,81.34,0.00,0.00,0.00,30.20,M,10.00,M,FEW,BKN,M,M,3500.00,6000.00,M,M,M,M,M,M,M,M,M,46.40,KMEV 101315Z AUTO 00000KT 10SM FEW035 BKN060 08/05 A3020 RMK AO2 LTG DSNT E,M
HTH,2023-09-10 13:15,-118.6315,38.5448,1282.89,57.20,53.60,87.74,140.00,9.00,0.00,30.20,M,10.00,M,CLR,M,M,M,M,M,M,M,M,M,M,M,M,M,M,57.20,KHTH 101315Z AUTO 14009KT 10SM CLR 14/12 A3020 RMK A01,M
10U,2023-09-10 13:15,-116.1876,41.9532,1637.00,48.20,41.00,76.01,140.00,8.00,0.00,30.24,M,10.00,M,CLR,M,M,M,M,M,M,M,M,M,M,M,M,M,M,44.07,K10U 101315Z AUTO 14008KT 10SM CLR 09/05 A3024 RMK AO2,M
BAM,2023-09-10 13:15,-116.8743,40.5990,1382.36,53.60,46.40,76.50,0.00,0.00,0.00,30.22,M,10.00,M,CLR,M,M,M,M,M,M,M,M,M,M,M,M,M,M,53.60,KBAM 101315Z AUTO 00000KT 10SM CLR 12/08 A3022 RMK AO1,M
TMT,2023-09-10 13:15,-117.1971,39.4643,1749.34,55.60,47.00,72.75,280.00,8.00,0.00,30.29,M,M,M,SCT,M,M,M,11000.00,M,M,M,TS,M,M,M,M,M,M,55.60,KTMT 101315Z AUTO 28008KT TS SCT110 13/08 A3029 RMK AO2 LTG DSNT S THRU W T01310084,M
05U,2023-09-10 13:30,-116.0051,39.6042,1811.23,51.80,42.80,71.26,350.00,3.00,0.00,30.32,M,10.00,M,FEW,M,M,M,12000.00,M,M,M,M,M,M,M,M,M,M,51.80,K05U 101330Z AUTO 35003KT 10SM FEW120 11/06 A3032 RMK A01,M
10U,2023-09-10 13:35,-116.1876,41.9532,1637.00,50.00,41.00,71.07,140.00,8.00,0.00,30.24,M,10.00,M,CLR,M,M,M,M,M,M,M,M,M,M,M,M,M,M,50.00,K10U 101335Z AUTO 14008KT 10SM CLR 10/05 A3024 RMK AO2,M
RTS,2023-09-10 13:35,-119.8764,39.6682,1539.00,44.60,37.40,75.68,350.00,6.00,0.00,30.23,M,10.00,M,CLR,M,M,M,M,M,M,M,M,M,M,M,M,M,M,40.71,KRTS 101335Z AUTO 35006KT 10SM CLR 07/03 A3023 RMK AO2,M
MEV,2023-09-10 13:35,-119.7500,38.9963,1441.42,46.40,41.00,81.34,0.00,0.00,0.00,30.21,M,10.00,M,CLR,M,M,M,M,M,M,M,M,M,M,M,M,M,M,46.40,KMEV 101335Z AUTO 00000KT 10SM CLR 08/05 A3021 RMK AO2,M
HTH,2023-09-10 13:35,-118.6315,38.5448,1282.89,59.00,51.80,76.98,160.00,8.00,0.00,30.21,M,10.00,M,BKN,M,M,M,11000.00,M,M,M,M,M,M,M,M,M,M,59.00,KHTH 101335Z AUTO 16008KT 10SM BKN110 15/11 A3021 RMK A01,M
BVU,2023-09-10 13:35,-114.8611,35.9475,671.00,82.40,50.00,32.46,330.00,9.00,0.00,29.98,M,10.00,M,CLR,M,M,M,M,M,M,M,M,M,M,M,M,M,M,80.99,KBVU 101335Z AUTO 33009KT 10SM CLR 28/10 A2998 RMK AO2,M
CXP,2023-09-10 13:35,-119.7326,39.1923,1431.00,51.80,46.40,81.74,0.00,0.00,0.00,30.22,M,10.00,M,CLR,M,M,M,M,M,M,M,M,M,M,M,M,M,M,51.80,KCXP 101335Z AUTO 00000KT 10SM CLR 11/08 A3022 RMK AO2,M
BAM,2023-09-10 13:35,-116.8743,40.5990,1382.36,53.60,46.40,76.50,0.00,0.00,0.00,30.22,M,10.00,M,CLR,M,M,M,M,M,M,M,M,M,M,M,M,M,M,53.60,KBAM 101335Z AUTO 00000KT 10SM CLR 12/08 A3022 RMK AO1,M
TMT,2023-09-10 13:35,-117.1971,39.4643,1749.34,53.00,46.60,78.80,70.00,4.00,0.00,30.29,M,M,M,SCT,M,M,M,11000.00,M,M,M,VCTS,M,M,M,M,M,M,53.00,KTMT 101335Z AUTO 07004KT VCTS SCT110 12/08 A3029 RMK AO2 LTG DSNT SE THRU W T01170081,M
05U,2023-09-10 13:50,-116.0051,39.6042,1811.23,51.80,44.60,76.34,320.00,4.00,0.00,30.32,M,10.00,M,SCT,M,M,M,10000.00,M,M,M,M,M,M,M,M,M,M,51.80,K05U 101350Z AUTO 32004KT 10SM SCT100 11/07 A3032 RMK A01,M
CXP,2023-09-10 13:50,-119.7326,39.1923,1431.00,51.80,46.40,81.74,0.00,0.00,0.00,30.22,M,10.00,M,CLR,M,M,M,M,M,M,M,M,M,M,M,M,M,M,51.80,KCXP 101350Z AUTO 00000KT 10SM CLR 11/08 A3022 RMK AO2,M
P68,2023-09-10 13:53,-116.0056,39.6014,1993.00,54.00,44.00,68.82,150.00,4.00,0.00,30.30,1019.30,M,M,M,M,M,M,M,M,M,M,M,M,M,M,M,M,M,54.00,KP68 101353Z AUTO 15004KT 12/07 A3030 RMK AO1 SLP193 T01220067,M
DRA,2023-09-10 13:53,-116.0278,36.6206,1009.00,75.00,51.00,42.98,40.00,12.00,0.00,30.10,1014.10,10.00,M,CLR,M,M,M,M,M,M,M,M,M,M,M,M,M,M,75.00,KDRA 101353Z AUTO 04012KT 10SM CLR 24/11 A3010 RMK AO2 SLP141 T02390106,M
ELY,2023-09-10 13:53,-114.8453,39.2950,1909.00,47.00,42.00,82.65,0.00,0.00,0.00,30.33,1020.40,10.00,M,CLR,M,M,M,M,M,M,M,M,M,M,M,M,M,M,47.00,KELY 101353Z AUTO 00000KT 10SM CLR 08/06 A3033 RMK AO2 SLP204 T00830056,M
VGT,2023-09-10 13:53,-115.1933,36.2111,667.00,85.00,51.00,30.97,330.00,7.00,0.00,30.00,1014.40,10.00,M,CLR,M,M,M,M,M,M,M,M,M,M,M,M,M,M,82.97,KVGT 101353Z 33007KT 10SM CLR 29/11 A3000 RMK AO2 SLP144 T02940106,M
LOL,2023-09-10 13:53,-118.5701,40.0684,1192.43,55.00,41.00,59.13,40.00,4.00,0.00,30.17,1018.70,10.00,M,CLR,M,M,M,M,M,M,M,M,M,M,M,M,M,M,55.00,KLOL 101353Z AUTO 04004KT 10SM CLR 13/05 A3017 RMK AO2 SLP187 T01280050,M
BVU,2023-09-10 13:55,-114.8611,35.9475,671.00,82.40,50.00,32.46,320.00,8.00,0.00,29.99,M,10.00,M,CLR,M,M,M,M,M,M,M,M,M,M,M,M,M,M,80.99,KBVU 101355Z AUTO 32008KT 10SM CLR 28/10 A2999 RMK AO2,M
RNO,2023-09-10 13:55,-119.7711,39.4839,1341.00,57.00,45.00,64.12,290.00,3.00,0.00,30.20,1017.80,10.00,M,FEW,M,M,M,7000.00,M,M,M,M,M,M,M,M,M,M,57.00,KRNO 101355Z 29003KT 10SM FEW070 14/07 A3020 RMK AO2 SLP178 FU ALF DSNT S THRU SW T01390072,M
RTS,2023-09-10 13:55,-119.8764,39.6682,1539.00,44.60,37.40,75.68,0.00,0.00,0.00,30.23,M,10.00,M,CLR,M,M,M,M,M,M,M,M,M,M,M,M,M,M,44.60,KRTS 101355Z AUTO 00000KT 10SM CLR 07/03 A3023 RMK AO2,M
MEV,2023-09-10 13:55,-119.7500,38.9963,1441.42,44.60,39.20,81.20,0.00,0.00,0.00,30.21,M,10.00,M,CLR,M,M,M,M,M,M,M,M,M,M,M,M,M,M,44.60,KMEV 101355Z AUTO 00000KT 10SM CLR 07/04 A3021 RMK AO2,M
HTH,2023-09-10 13:55,-118.6315,38.5448,1282.89,60.80,51.80,72.20,170.00,8.00,0.00,30.21,M,10.00,M,BKN,M,M,M,11000.00,M,M,M,M,M,M,M,M,M,M,60.80,KHTH 101355Z AUTO 17008KT 10SM BKN110 16/11 A3021 RMK A01,M
BAM,2023-09-10 13:55,-116.8743,40.5990,1382.36,53.60,46.40,76.50,0.00,0.00,0.00,30.22,M,10.00,M,CLR,M,M,M,M,M,M,M,M,M,M,M,M,M,M,53.60,KBAM 101355Z AUTO 00000KT 10SM CLR 12/08 A3022 RMK AO1,M
TMT,2023-09-10 13:55,-117.1971,39.4643,1749.34,55.40,47.00,73.28,0.00,0.00,0.00,30.31,M,M,M,SCT,M,M,M,11000.00,M,M,M,M,M,M,M,M,M,M,55.40,KTMT 101355Z AUTO 00000KT SCT110 13/08 A3031 RMK AO2 LTG DSNT SW T01300083 PWINO,M
10U,2023-09-10 13:55,-116.1876,41.9532,1637.00,51.80,41.00,66.48,130.00,7.00,0.00,30.25,M,10.00,M,CLR,M,M,M,M,M,M,M,M,M,M,M,M,M,M,51.80,K10U 101355Z AUTO 13007KT 10SM CLR 11/05 A3025 RMK AO2,M
INS,2023-09-10 13:55,-115.6733,36.5872,955.00,76.00,48.00,37.17,0.00,0.00,0.00,30.09,1013.70,10.00,M,OVC,M,M,M,14000.00,M,M,M,M,M,M,M,M,M,M,76.00,KINS 101355Z AUTO 00000KT 10SM OVC140 25/09 A3009 RMK AO2 SLP137 T02450088 $,M
LSV,2023-09-10 13:55,-115.0343,36.2362,570.00,80.80,52.00,36.82,150.00,4.00,0.00,29.96,1011.90,10.00,M,BKN,M,M,M,15000.00,M,M,M,M,M,M,M,M,M,M,80.22,KLSV 101355Z AUTO 15004KT 10SM BKN150 27/11 A2996 RMK AO2 SLP119 T02710111 $,M
EKO,2023-09-10 13:56,-115.7860,40.8242,1367.00,53.00,50.00,89.51,0.00,0.00,0.00,30.24,1020.00,10.00,M,FEW,M,M,M,12000.00,M,M,M,M,M,M,M,M,M,M,53.00,KEKO 101356Z AUTO 00000KT 10SM FEW120 12/10 A3024 RMK AO2 SLP200 T01170100,M
WMC,2023-09-10 13:56,-117.8072,40.9019,1315.00,50.00,46.00,86.06,140.00,7.00,0.00,30.18,1018.50,10.00,M,CLR,M,M,M,M,M,M,M,M,M,M,M,M,M,M,50.00,KWMC 101356Z AUTO 14007KT 10SM CLR 10/08 A3018 RMK AO2 SLP185 T01000078,M
NFL,2023-09-10 13:56,-118.7010,39.4166,1199.00,62.00,53.00,72.32,150.00,3.00,0.00,30.16,1017.80,10.00,M,CLR,M,M,M,M,M,M,M,M,M,M,M,M,M,M,62.00,KNFL 101356Z AUTO 15003KT 10SM CLR 17/12 A3016 RMK AO2 SLP178 T01670117,M
HND,2023-09-10 13:56,-115.1344,35.9729,742.79,79.00,53.00,40.52,160.00,3.00,0.00,30.04,1015.60,10.00,M,CLR,M,M,M,M,M,M,M,M,M,M,M,M,M,M,79.00,KHND 101356Z 16003KT 10SM CLR 26/12 A3004 RMK AO2 SLP156 T02610117,M
LAS,2023-09-10 13:56,-115.1634,36.0719,663.00,83.00,51.00,33.04,0.00,0.00,0.00,30.00,1013.00,10.00,M,SCT,BKN,M,M,13000.00,20000.00,M,M,M,M,M,M,M,M,M,81.51,KLAS 101356Z 00000KT 10SM SCT130 BKN200 28/11 A3000 RMK AO2 SLP130 T02830106 $,M
05U,2023-09-10 14:10,-116.0051,39.6042,1811.23,55.40,44.60,66.91,280.00,5.00,0.00,30.32,M,10.00,M,FEW,M,M,M,10000.00,M,M,M,M,M,M,M,M,M,M,55.40,K05U 101410Z AUTO 28005KT 10SM FEW100 13/07 A3032 RMK A01,M
BVU,2023-09-10 14:15,-114.8611,35.9475,671.00,84.20,50.00,30.62,340.00,9.00,0.00,29.99,M,10.00,M,CLR,M,M,M,M,M,M,M,M,M,M,M,M,M,M,82.24,KBVU 101415Z AUTO 34009KT 10SM CLR 29/10 A2999 RMK AO2,M
CXP,2023-09-10 14:15,-119.7326,39.1923,1431.00,51.80,46.40,81.74,0.00,0.00,0.00,30.23,M,10.00,M,CLR,M,M,M,M,M,M,M,M,M,M,M,M,M,M,51.80,KCXP 101415Z AUTO 00000KT 10SM CLR 11/08 A3023 RMK AO2,M
RTS,2023-09-10 14:15,-119.8764,39.6682,1539.00,46.40,39.20,75.84,340.00,4.00,0.00,30.23,M,10.00,M,CLR,M,M,M,M,M,M,M,M,M,M,M,M,M,M,44.24,KRTS 101415Z AUTO 34004KT 10SM CLR 08/04 A3023 RMK AO2,M
MEV,2023-09-10 14:15,-119.7500,38.9963,1441.42,48.20,42.80,81.47,0.00,0.00,0.00,30.21,M,10.00,M,CLR,M,M,M,M,M,M,M,M,M,M,M,M,M,M,48.20,KMEV 101415Z AUTO 00000KT 10SM CLR 09/06 A3021 RMK AO2,M
HTH,2023-09-10 14:15,-118.6315,38.5448,1282.89,59.00,51.80,76.98,120.00,8.00,0.00,30.21,M,10.00,M,FEW,M,M,M,11000.00,M,M,M,M,M,M,M,M,M,M,59.00,KHTH 101415Z AUTO 12008KT 10SM FEW110 15/11 A3021 RMK A01,M
10U,2023-09-10 14:15,-116.1876,41.9532,1637.00,55.40,42.80,62.46,150.00,5.00,0.00,30.25,M,10.00,M,CLR,M,M,M,M,M,M,M,M,M,M,M,M,M,M,55.40,K10U 101415Z AUTO 15005KT 10SM CLR 13/06 A3025 RMK AO2 LTG DSNT SW,M
BAM,2023-09-10 14:15,-116.8743,40.5990,1382.36,55.40,48.20,76.66,160.00,3.00,0.00,30.22,M,10.00,M,CLR,M,M,M,M,M,M,M,M,M,M,M,M,M,M,55.40,KBAM 101415Z AUTO 16003KT 10SM CLR 13/09 A3022 RMK AO1,M
TMT,2023-09-10 14:15,-117.1971,39.4643,1749.34,55.80,48.00,74.99,150.00,5.00,0.00,30.31,M,M,M,SCT,M,M,M,11000.00,M,M,M,TS,M,M,M,M,M,M,55.80,KTMT 101415Z AUTO 15005KT TS SCT110 13/09 A3031 RMK AO2 LTG DSNT SW T01320088,M
05U,2023-09-10 14:30,-116.0051,39.6042,1811.23,55.40,46.40,71.64,0.00,0.00,0.00,30.33,M,10.00,M,CLR,M,M,M,M,M,M,M,M,M,M,M,M,M,M,55.40,K05U 101430Z AUTO 00000KT 10SM CLR 13/08 A3033 RMK A01,M
HTH,2023-09-10 14:30,-118.6315,38.5448,1282.89,62.60,51.80,67.75,120.00,5.00,0.00,30.21,M,10.00,M,FEW,M,M,M,11000.00,M,M,M,M,M,M,M,M,M,M,62.60,KHTH 101430Z AUTO 12005KT 10SM FEW110 17/11 A3021 RMK A01,M
BVU,2023-09-10 14:35,-114.8611,35.9475,671.00,84.20,48.20,28.63,340.00,8.00,0.00,29.99,M,10.00,M,CLR,M,M,M,M,M,M,M,M,M,M,M,M,M,M,82.04,KBVU 101435Z AUTO 34008KT 10SM CLR 29/09 A2999 RMK AO2 LTG DSNT N AND NW,M
CXP,2023-09-10 14:35,-119.7326,39.1923,1431.00,53.60,46.40,76.50,0.00,0.00,0.00,30.23,M,10.00,M,CLR,M,M,M,M,M,M,M,M,M,M,M,M,M,M,53.60,KCXP 101435Z AUTO 00000KT 10SM CLR 12/08 A3023 RMK AO2,M
RTS,2023-09-10 14:35,-119.8764,39.6682,1539.00,50.00,41.00,71.07,0.00,0.00,0.00,30.24,M,10.00,M,CLR,M,M,M,M,M,M,M,M,M,M,M,M,M,M,50.00,KRTS 101435Z AUTO 00000KT 10SM CLR 10/05 A3024 RMK AO2,M
MEV,2023-09-10 14:35,-119.7500,38.9963,1441.42,51.80,44.60,76.34,0.00,0.00,0.00,30.21,M,10.00,M,CLR,M,M,M,M,M,M,M,M,M,M,M,M,M,M,51.80,KMEV 101435Z AUTO 00000KT 10SM CLR 11/07 A3021 RMK AO2,M
10U,2023-09-10 14:35,-116.1876,41.9532,1637.00,59.00,42.80,54.86,140.00,5.00,0.00,30.25,M,10.00,M,CLR,M,M,M,M,M,M,M,M,M,M,M,M,M,M,59.00,K10U 101435Z AUTO 14005KT 10SM CLR 15/06 A3025 RMK AO2,M
BAM,2023-09-10 14:35,-116.8743,40.5990,1382.36,59.00,50.00,72.01,140.00,3.00,0.00,30.22,M,10.00,M,CLR,M,M,M,M,M,M,M,M,M,M,M,M,M,M,59.00,KBAM 101435Z AUTO 14003KT 10SM CLR 15/10 A3022 RMK AO1,M
TMT,2023-09-10 14:35,-117.1971,39.4643,1749.34,57.20,48.00,71.29,110.00,7.00,0.00,30.29,M,M,M,BKN,M,M,M,10000.00,M,M,M,M,M,M,M,M,M,M,57.20,KTMT 101435Z AUTO 11007KT BKN100 14/09 A3029 RMK AO2 LTG DSNT S T01400089 PWINO,M
05U,2023-09-10 14:50,-116.0051,39.6042,1811.23,62.60,44.60,51.72,350.00,4.00,0.00,30.32,M,10.00,M,CLR,M,M,M,M,M,M,M,M,M,M,M,M,M,M,62.60,K05U 101450Z AUTO 35004KT 10SM CLR 17/07 A3032 RMK A01,M
LOL,2023-09-10 14:53,-118.5701,40.0684,1192.43,60.00,43.00,53.34,0.00,0.00,0.00,30.17,1018.60,10.00,M,CLR,M,M,M,M,M,M,M,M,M,M,M,M,M,M,60.00,KLOL 101453Z AUTO 00000KT 10SM CLR 16/06 A3017 RMK AO2 SLP186 T01560061 52002,M
P68,2023-09-10 14:53,-116.0056,39.6014,1993.00,61.00,44.00,53.49,190.00,4.00,0.00,30.30,1018.90,M,M,M,M,M,M,M,M,M,M,M,M,M,M,M,M,M,61.00,KP68 101453Z AUTO 19004KT 16/07 A3030 RMK AO1 SLP189 T01610067 56001,M
DRA,2023-09-10 14:53,-116.0278,36.6206,1009.00,76.00,51.00,41.57,40.00,11.00,0.00,30.11,1014.70,10.00,M,CLR,M,M,M,M,M,M,M,M,M,M,M,M,M,M,76.00,KDRA 101453Z AUTO 04011KT 10SM CLR 24/11 A3011 RMK AO2 SLP147 T02440106 53013,M
ELY,2023-09-10 14:53,-114.8453,39.2950,1909.00,54.00,46.00,74.26,170.00,10.00,0.00,30.33,1020.40,10.00,M,BKN,M,M,M,11000.00,M,M,M,M,M,M,M,M,M,M,54.00,KELY 101453Z AUTO 17010KT 10SM BKN110 12/08 A3033 RMK AO2 SLP204 T01220078 53004,M
VGT,2023-09-10 14:53,-115.1933,36.2111,667.00,85.00,52.00,32.14,340.00,12.00,0.00,30.00,1014.40,10.00,19.00,CLR,M,M,M,M,M,M,M,M,M,M,M,M,M,M,83.11,KVGT 101453Z 34012G19KT 10SM CLR 29/11 A3000 RMK AO2 SLP144 T02940111 53006,M
RNO,2023-09-10 14:55,-119.7711,39.4839,1341.00,59.00,47.00,64.36,0.00,0.00,0.00,30.20,1018.20,10.00,M,CLR,M,M,M,M,M,M,M,M,M,M,M,M,M,M,59.00,KRNO 101455Z 00000KT 10SM CLR 15/08 A3020 RMK AO2 SLP182 T01500083 53001,M
LSV,2023-09-10 14:55,-115.0343,36.2362,570.00,82.20,51.80,34.92,110.00,4.00,0.00,29.96,1012.00,10.00,M,SCT,M,M,M,15000.00,M,M,M,M,M,M,M,M,M,M,81.07,KLSV 101455Z AUTO 11004KT 10SM SCT150 28/11 A2996 RMK AO2 SLP120 T02790110 52009 $,M
RTS,2023-09-10 14:55,-119.8764,39.6682,1539.00,53.60,42.80,66.70,0.00,0.00,0.00,30.24,M,10.00,M,CLR,M,M,M,M,M,M,M,M,M,M,M,M,M,M,53.60,KRTS 101455Z AUTO 00000KT 10SM CLR 12/06 A3024 RMK AO2,M
MEV,2023-09-10 14:55,-119.7500,38.9963,1441.42,55.40,44.60,66.91,0.00,0.00,0.00,30.21,M,10.00,M,CLR,M,M,M,M,M,M,M,M,M,M,M,M,M,M,55.40,KMEV 101455Z AUTO 00000KT 10SM CLR 13/07 A3021 RMK AO2,M
HTH,2023-09-10 14:55,-118.6315,38.5448,1282.89,66.20,51.80,59.74,0.00,0.00,0.00,30.21,M,10.00,M,CLR,M,M,M,M,M,M,M,M,M,M,M,M,M,M,66.20,KHTH 101455Z AUTO 00000KT 10SM CLR 19/11 A3021 RMK A01,M
BVU,2023-09-10 14:55,-114.8611,35.9475,671.00,84.20,50.00,30.62,310.00,8.00,0.00,30.00,M,10.00,13.00,CLR,M,M,M,M,M,M,M,M,M,M,M,M,M,M,82.24,KBVU 101455Z AUTO 31008G13KT 10SM CLR 29/10 A3000 RMK AO2,M
CXP,2023-09-10 14:55,-119.7326,39.1923,1431.00,57.20,46.40,67.12,0.00,0.00,0.00,30.23,M,10.00,M,CLR,M,M,M,M,M,M,M,M,M,M,M,M,M,M,57.20,KCXP 101455Z AUTO 00000KT 10SM CLR 14/08 A3023 RMK AO2,M
BAM,2023-09-10 14:55,-116.8743,40.5990,1382.36,60.80,50.00,67.54,0.00,0.00,0.00,30.22,M,10.00,M,CLR,M,M,M,M,M,M,M,M,M,M,M,M,M,M,60.80,KBAM 101455Z AUTO 00000KT 10SM CLR 16/10 A3022 RMK AO1,M
TMT,2023-09-10 14:55,-117.1971,39.4643,1749.34,59.00,47.30,65.09,0.00,0.00,0.00,30.29,M,M,M,SCT,SCT,M,M,9000.00,11000.00,M,M,M,M,M,M,M,M,M,59.00,KTMT 101455Z AUTO 00000KT SCT090 SCT110 15/09 A3029 RMK AO2 T01490085 PWINO,M
10U,2023-09-10 14:55,-116.1876,41.9532,1637.00,62.60,42.80,48.28,120.00,7.00,0.00,30.24,M,10.00,M,CLR,M,M,M,M,M,M,M,M,M,M,M,M,M,M,62.60,K10U 101455Z AUTO 12007KT 10SM CLR 17/06 A3024 RMK AO2,M
INS,2023-09-10 14:55,-115.6733,36.5872,955.00,76.60,48.40,36.98,0.00,0.00,0.00,30.10,1014.40,10.00,M,FEW,M,M,M,15000.00,M,M,M,M,M,M,M,M,M,M,76.60,KINS 101455Z AUTO 00000KT 10SM FEW150 25/09 A3010 RMK AO2 LTG DSNT N SLP144 T02480091 52012 $,M
WMC,2023-09-10 14:56,-117.8072,40.9019,1315.00,61.00,47.00,59.94,120.00,5.00,0.00,30.19,1018.70,10.00,M,CLR,M,M,M,M,M,M,M,M,M,M,M,M,M,M,61.00,KWMC 101456Z AUTO 12005KT 10SM CLR 16/08 A3019 RMK AO2 SLP187 T01610083 53002,M
NFL,2023-09-10 14:56,-118.7010,39.4166,1199.00,68.00,53.00,58.67,140.00,4.00,0.00,30.17,1018.00,10.00,M,CLR,M,M,M,M,M,M,M,M,M,M,M,M,M,M,68.00,KNFL 101456Z AUTO 14004KT 10SM CLR 20/12 A3017 RMK AO2 SLP180 T02000117 53001 $,M
HND,2023-09-10 14:56,-115.1344,35.9729,742.79,82.00,53.00,36.74,60.00,4.00,0.00,30.05,1015.90,10.00,M,CLR,M,M,M,M,M,M,M,M,M,M,M,M,M,M,81.10,KHND 101456Z 06004KT 10SM CLR 28/12 A3005 RMK AO2 SLP159 T02780117 53007,M
LAS,2023-09-10 14:56,-115.1634,36.0719,663.00,84.00,52.00,33.19,300.00,3.00,0.00,30.02,1013.40,10.00,M,SCT,BKN,M,M,13000.00,20000.00,M,M,M,M,M,M,M,M,M,82.36,KLAS 101456Z 30003KT 10SM SCT130 BKN200 29/11 A3002 RMK AO2 SLP134 T02890111 53007 $,M
EKO,2023-09-10 14:56,-115.7860,40.8242,1367.00,57.00,51.00,80.31,230.00,3.00,0.00,30.24,1019.80,10.00,M,CLR,M,M,M,M,M,M,M,M,M,M,M,M,M,M,57.00,KEKO 101456Z AUTO 23003KT 10SM CLR 14/11 A3024 RMK AO2 SLP198 T01390106 53001,M
05U,2023-09-10 15:10,-116.0051,39.6042,1811.23,62.60,42.80,48.28,360.00,4.00,0.00,30.33,M,10.00,M,CLR,M,M,M,M,M,M,M,M,M,M,M,M,M,M,62.60,K05U 101510Z AUTO 36004KT 10SM CLR 17/06 A3033 RMK A01,M
BVU,2023-09-10 15:15,-114.8611,35.9475,671.00,86.00,50.00,28.90,320.00,10.00,0.00,30.00,M,10.00,M,CLR,M,M,M,M,M,M,M,M,M,M,M,M,M,M,83.62,KBVU 101515Z AUTO 32010KT 10SM CLR 30/10 A3000 RMK AO2,M
CXP,2023-09-10 15:15,-119.7326,39.1923,1431.00,59.00,48.20,67.33,0.00,0.00,0.00,30.22,M,10.00,M,CLR,M,M,M,M,M,M,M,M,M,M,M,M,M,M,59.00,KCXP 101515Z AUTO 00000KT 10SM CLR 15/09 A3022 RMK AO2,M
RTS,2023-09-10 15:15,-119.8764,39.6682,1539.00,57.20,44.60,62.69,0.00,0.00,0.00,30.24,M,10.00,M,CLR,M,M,M,M,M,M,M,M,M,M,M,M,M,M,57.20,KRTS 101515Z AUTO 00000KT 10SM CLR 14/07 A3024 RMK AO2,M
MEV,2023-09-10 15:15,-119.7500,38.9963,1441.42,57.20,46.40,67.12,0.00,0.00,0.00,30.21,M,10.00,M,CLR,M,M,M,M,M,M,M,M,M,M,M,M,M,M,57.20,KMEV 101515Z AUTO 00000KT 10SM CLR 14/08 A3021 RMK AO2,M
HTH,2023-09-10 15:15,-118.6315,38.5448,1282.89,66.20,50.00,55.88,0.00,0.00,0.00,30.21,M,10.00,M,FEW,M,M,M,11000.00,M,M,M,M,M,M,M,M,M,M,66.20,KHTH 101515Z AUTO 00000KT 10SM FEW110 19/10 A3021 RMK A01,M
10U,2023-09-10 15:15,-116.1876,41.9532,1637.00,64.40,42.80,45.32,130.00,7.00,0.00,30.24,M,10.00,M,CLR,M,M,M,M,M,M,M,M,M,M,M,M,M,M,64.40,K10U 101515Z AUTO 13007KT 10SM CLR 18/06 A3024 RMK AO2,M
BAM,2023-09-10 15:15,-116.8743,40.5990,1382.36,68.00,50.00,52.51,0.00,0.00,0.00,30.22,M,10.00,M,CLR,M,M,M,M,M,M,M,M,M,M,M,M,M,M,68.00,KBAM 101515Z AUTO 00000KT 10SM CLR 20/10 A3022 RMK AO1,M
TMT,2023-09-10 15:15,-117.1971,39.4643,1749.34,62.00,48.60,61.44,290.00,5.00,0.00,30.29,M,M,M,CLR,M,M,M,M,M,M,M,M,M,M,M,M,M,M,62.00,KTMT 101515Z AUTO 29005KT CLR 17/09 A3029 RMK AO2 LTG DSNT SE T01670092 PWINO,M
05U,2023-09-10 15:30,-116.0051,39.6042,1811.23,66.20,42.80,42.57,350.00,5.00,0.00,30.33,M,10.00,M,CLR,M,M,M,M,M,M,M,M,M,M,M,M,M,M,66.20,K05U 101530Z AUTO 35005KT 10SM CLR 19/06 A3033 RMK A01,M
RTS,2023-09-10 15:35,-119.8764,39.6682,1539.00,60.80,44.60,55.12,0.00,0.00,0.00,30.23,M,10.00,M,CLR,M,M,M,M,M,M,M,M,M,M,M,M,M,M,60.80,KRTS 101535Z AUTO 00000KT 10SM CLR 16/07 A3023 RMK AO2,M
MEV,2023-09-10 15:35,-119.7500,38.9963,1441.42,60.80,46.40,59.01,0.00,0.00,0.00,30.21,M,10.00,M,CLR,M,M,M,M,M,M,M,M,M,M,M,M,M,M,60.80,KMEV 101535Z AUTO 00000KT 10SM CLR 16/08 A3021 RMK AO2,M
HTH,2023-09-10 15:35,-118.6315,38.5448,1282.89,68.00,50.00,52.51,0.00,0.00,0.00,30.21,M,10.00,M,BKN,M,M,M,12000.00,M,M,M,M,M,M,M,M,M,M,68.00,KHTH 101535Z AUTO 00000KT 10SM BKN120 20/10 A3021 RMK A01,M
10U,2023-09-10 15:35,-116.1876,41.9532,1637.00,66.20,44.60,45.60,130.00,6.00,0.00,30.24,M,10.00,M,CLR,M,M,M,M,M,M,M,M,M,M,M,M,M,M,66.20,K10U 101535Z AUTO 13006KT 10SM CLR 19/07 A3024 RMK AO2,M
BVU,2023-09-10 15:35,-114.8611,35.9475,671.00,86.00,50.00,28.90,340.00,11.00,0.00,29.99,M,10.00,M,CLR,M,M,M,M,M,M,M,M,M,M,M,M,M,M,83.62,KBVU 101535Z AUTO 34011KT 10SM CLR 30/10 A2999 RMK AO2,M
CXP,2023-09-10 15:35,-119.7326,39.1923,1431.00,62.60,48.20,59.26,0.00,0.00,0.00,30.22,M,10.00,M,CLR,M,M,M,M,M,M,M,M,M,M,M,M,M,M,62.60,KCXP 101535Z AUTO 00000KT 10SM CLR 17/09 A3022 RMK AO2,M
BAM,2023-09-10 15:35,-116.8743,40.5990,1382.36,69.80,48.20,46.16,210.00,4.00,0.00,30.22,M,10.00,M,CLR,M,M,M,M,M,M,M,M,M,M,M,M,M,M,69.80,KBAM 101535Z AUTO 21004KT 10SM CLR 21/09 A3022 RMK AO1,M
TMT,2023-09-10 15:35,-117.1971,39.4643,1749.34,63.00,48.70,59.53,300.00,5.00,0.00,30.29,M,M,M,CLR,M,M,M,M,M,M,M,M,M,M,M,M,M,M,63.00,KTMT 101535Z AUTO 30005KT CLR 17/09 A3029 RMK AO2 T01730093 PWINO,M
LAS,2023-09-10 15:40,-115.1634,36.0719,663.00,86.00,51.00,30.00,20.00,7.00,0.00,30.03,M,10.00,M,SCT,BKN,M,M,13000.00,20000.00,M,M,M,M,M,M,M,M,M,83.75,KLAS 101540Z 02007KT 10SM SCT130 BKN200 30/11 A3003 RMK AO2 T03000106 $,M
05U,2023-09-10 15:50,-116.0051,39.6042,1811.23,66.20,42.80,42.57,0.00,0.00,0.00,30.32,M,10.00,M,CLR,M,M,M,M,M,M,M,M,M,M,M,M,M,M,66.20,K05U 101550Z AUTO 00000KT 10SM CLR 19/06 A3032 RMK A01,M
P68,2023-09-10 15:53,-116.0056,39.6014,1993.00,64.00,43.00,46.32,180.00,3.00,0.00,30.29,1018.80,M,M,M,M,M,M,M,M,M,M,M,M,M,M,M,M,M,64.00,KP68 101553Z AUTO 18003KT 18/06 A3029 RMK AO1 SLP188 T01780061,M
DRA,2023-09-10 15:53,-116.0278,36.6206,1009.00,78.00,52.00,40.36,50.00,15.00,0.00,30.12,1015.10,10.00,25.00,CLR,M,M,M,M,M,M,M,M,M,M,M,M,M,M,78.00,KDRA 101553Z AUTO 05015G25KT 10SM CLR 26/11 A3012 RMK AO2 SLP151 T02560111,M
ELY,2023-09-10 15:53,-114.8453,39.2950,1909.00,62.00,47.00,57.85,170.00,9.00,0.00,30.32,1019.30,10.00,M,FEW,M,M,M,10000.00,M,M,M,M,M,M,M,M,M,M,62.00,KELY 101553Z AUTO 17009KT 10SM FEW100 17/08 A3032 RMK AO2 SLP193 T01670083,M
VGT,2023-09-10 15:53,-115.1933,36.2111,667.00,87.00,52.00,30.15,330.00,10.00,0.00,30.01,1015.00,10.00,M,CLR,M,M,M,M,M,M,M,M,M,M,M,M,M,M,84.73,KVGT 101553Z 33010KT 10SM CLR 31/11 A3001 RMK AO2 SLP150 T03060111,M
LOL,2023-09-10 15:53,-118.5701,40.0684,1192.43,68.00,45.00,43.51,0.00,0.00,0.00,30.17,1018.30,10.00,M,CLR,M,M,M,M,M,M,M,M,M,M,M,M,M,M,68.00,KLOL 101553Z AUTO 00000KT 10SM CLR 20/07 A3017 RMK AO2 SLP183 T02000072,M
RTS,2023-09-10 15:55,-119.8764,39.6682,1539.00,62.60,46.40,55.37,0.00,0.00,0.00,30.23,M,10.00,M,CLR,M,M,M,M,M,M,M,M,M,M,M,M,M,M,62.60,KRTS 101555Z AUTO 00000KT 10SM CLR 17/08 A3023 RMK AO2,M
MEV,2023-09-10 15:55,-119.7500,38.9963,1441.42,62.60,46.40,55.37,0.00,0.00,0.00,30.20,M,10.00,M,CLR,M,M,M,M,M,M,M,M,M,M,M,M,M,M,62.60,KMEV 101555Z AUTO 00000KT 10SM CLR 17/08 A3020 RMK AO2,M
HTH,2023-09-10 15:55,-118.6315,38.5448,1282.89,68.00,50.00,52.51,0.00,0.00,0.00,30.21,M,10.00,M,FEW,M,M,M,11000.00,M,M,M,M,M,M,M,M,M,M,68.00,KHTH 101555Z AUTO 00000KT 10SM FEW110 20/10 A3021 RMK A01,M
BVU,2023-09-10 15:55,-114.8611,35.9475,671.00,86.00,50.00,28.90,340.00,12.00,0.00,30.00,M,10.00,20.00,CLR,M,M,M,M,M,M,M,M,M,M,M,M,M,M,83.62,KBVU 101555Z AUTO 34012G20KT 10SM CLR 30/10 A3000 RMK AO2,M
CXP,2023-09-10 15:55,-119.7326,39.1923,1431.00,64.40,48.20,55.63,0.00,0.00,0.00,30.22,M,10.00,M,CLR,M,M,M,M,M,M,M,M,M,M,M,M,M,M,64.40,KCXP 101555Z AUTO 00000KT 10SM CLR 18/09 A3022 RMK AO2,M
RNO,2023-09-10 15:55,-119.7711,39.4839,1341.00,65.00,46.00,50.14,0.00,0.00,0.00,30.20,1017.80,10.00,M,CLR,M,M,M,M,M,M,M,M,M,M,M,M,M,M,65.00,KRNO 101555Z 00000KT 10SM CLR 18/08 A3020 RMK AO2 SLP178 T01830078,M
BAM,2023-09-10 15:55,-116.8743,40.5990,1382.36,71.60,48.20,43.42,190.00,3.00,0.00,30.22,M,10.00,M,CLR,M,M,M,M,M,M,M,M,M,M,M,M,M,M,71.60,KBAM 101555Z AUTO 19003KT 10SM CLR 22/09 A3022 RMK AO1,M
TMT,2023-09-10 15:55,-117.1971,39.4643,1749.34,63.50,48.00,56.98,0.00,0.00,0.00,30.30,M,M,M,CLR,M,M,M,M,M,M,M,M,M,M,M,M,M,M,63.50,KTMT 101555Z AUTO 00000KT CLR 18/09 A3030 RMK AO2 T01750089 PWINO,M
10U,2023-09-10 15:55,-116.1876,41.9532,1637.00,68.00,42.80,40.00,130.00,6.00,0.00,30.24,M,10.00,M,CLR,M,M,M,M,M,M,M,M,M,M,M,M,M,M,68.00,K10U 101555Z AUTO 13006KT 10SM CLR 20/06 A3024 RMK AO2,M
INS,2023-09-10 15:55,-115.6733,36.5872,955.00,80.00,48.20,32.81,300.00,8.00,0.00,30.11,1014.60,10.00,M,BKN,OVC,M,M,13000.00,19000.00,M,M,M,M,M,M,M,M,M,79.38,KINS 101555Z AUTO 30008KT 10SM BKN130 OVC190 27/09 A3011 RMK AO2 SLP146 T02660090 $,M
LSV,2023-09-10 15:55,-115.0343,36.2362,570.00,85.50,52.00,31.63,210.00,7.00,0.00,29.98,1012.70,10.00,M,SCT,M,M,M,15000.00,M,M,M,M,M,M,M,M,M,M,83.50,KLSV 101555Z AUTO 21007KT 10SM SCT150 30/11 A2998 RMK AO2 SLP127 T02970112 $,M
LAS,2023-09-10 15:56,-115.1634,36.0719,663.00,86.00,51.00,30.00,20.00,12.00,0.00,30.03,1013.80,10.00,M,FEW,BKN,OVC,M,13000.00,18000.00,25000.00,M,M,M,M,M,M,M,M,83.75,KLAS 101556Z 02012KT 10SM FEW130 BKN180 OVC250 30/11 A3003 RMK AO2 SLP138 T03000106 $,M
EKO,2023-09-10 15:56,-115.7860,40.8242,1367.00,65.00,51.00,60.47,0.00,0.00,0.00,30.24,1019.50,10.00,M,CLR,M,M,M,M,M,M,M,M,M,M,M,M,M,M,65.00,KEKO 101556Z AUTO 00000KT 10SM CLR 18/11 A3024 RMK AO2 SLP195 T01830106,M
WMC,2023-09-10 15:56,-117.8072,40.9019,1315.00,72.00,46.00,39.42,190.00,8.00,0.00,30.19,1018.10,10.00,M,CLR,M,M,M,M,M,M,M,M,M,M,M,M,M,M,72.00,KWMC 101556Z AUTO 19008KT 10SM CLR 22/08 A3019 RMK AO2 SLP181 T02220078,M
NFL,2023-09-10 15:56,-118.7010,39.4166,1199.00,73.00,49.00,42.67,160.00,7.00,0.00,30.16,1017.90,10.00,M,CLR,M,M,M,M,M,M,M,M,M,M,M,M,M,M,73.00,KNFL 101556Z AUTO 16007KT 10SM CLR 23/09 A3016 RMK AO2 SLP179 T02280094 $,M
HND,2023-09-10 15:56,-115.1344,35.9729,742.79,84.00,53.00,34.43,20.00,8.00,0.00,30.06,1016.30,10.00,M,CLR,M,M,M,M,M,M,M,M,M,M,M,M,M,M,82.51,KHND 101556Z 02008KT 10SM CLR 29/12 A3006 RMK AO2 SLP163 T02890117,M
05U,2023-09-10 16:10,-116.0051,39.6042,1811.23,66.20,44.60,45.60,0.00,0.00,0.00,30.32,M,10.00,M,CLR,M,M,M,M,M,M,M,M,M,M,M,M,M,M,66.20,K05U 101610Z AUTO 00000KT 10SM CLR 19/07 A3032 RMK A01,M
BVU,2023-09-10 16:15,-114.8611,35.9475,671.00,86.00,50.00,28.90,350.00,14.00,0.00,30.01,M,10.00,21.00,CLR,M,M,M,M,M,M,M,M,M,M,M,M,M,M,83.62,KBVU 101615Z AUTO 35014G21KT 10SM CLR 30/10 A3001 RMK AO2,M
CXP,2023-09-10 16:15,-119.7326,39.1923,1431.00,68.00,46.40,45.88,0.00,0.00,0.00,30.22,M,10.00,M,CLR,M,M,M,M,M,M,M,M,M,M,M,M,M,M,68.00,KCXP 101615Z AUTO 00000KT 10SM CLR 20/08 A3022 RMK AO2,M
RTS,2023-09-10 16:15,-119.8764,39.6682,1539.00,64.40,46.40,51.98,0.00,0.00,0.00,30.23,M,10.00,M,CLR,M,M,M,M,M,M,M,M,M,M,M,M,M,M,64.40,KRTS 101615Z AUTO 00000KT 10SM CLR 18/08 A3023 RMK AO2,M
MEV,2023-09-10 16:15,-119.7500,38.9963,1441.42,66.20,46.40,48.83,M,3.00,0.00,30.20,M,10.00,M,CLR,M,M,M,M,M,M,M,M,M,M,M,M,M,M,66.20,KMEV 101615Z AUTO VRB03KT 10SM CLR 19/08 A3020 RMK AO2,M
BAM,2023-09-10 16:15,-116.8743,40.5990,1382.36,73.40,46.40,38.18,190.00,7.00,0.00,30.21,M,10.00,M,CLR,M,M,M,M,M,M,M,M,M,M,M,M,M,M,73.40,KBAM 101615Z AUTO 19007KT 10SM CLR 23/08 A3021 RMK AO1,M
HTH,2023-09-10 16:15,-118.6315,38.5448,1282.89,69.80,50.00,49.37,M,4.00,0.00,30.21,M,10.00,M,SCT,M,M,M,11000.00,M,M,M,M,M,M,M,M,M,M,69.80,KHTH 101615Z AUTO VRB04KT 10SM SCT110 21/10 A3021 RMK A01,M
10U,2023-09-10 16:15,-116.1876,41.9532,1637.00,69.80,42.80,37.61,180.00,3.00,0.00,30.24,M,10.00,M,CLR,M,M,M,M,M,M,M,M,M,M,M,M,M,M,69.80,K10U 101615Z AUTO 18003KT 10SM CLR 21/06 A3024 RMK AO2,M
TMT,2023-09-10 16:15,-117.1971,39.4643,1749.34,65.30,49.30,56.17,0.00,0.00,0.00,30.30,M,M,M,CLR,M,M,M,M,M,M,M,M,M,M,M,M,M,M,65.30,KTMT 101615Z AUTO 00000KT CLR 19/10 A3030 RMK AO2 T01850096 PWINO,M
INS,2023-09-10 16:19,-115.6733,36.5872,955.00,80.60,50.00,34.41,310.00,13.00,0.00,30.12,1015.10,10.00,M,SCT,OVC,M,M,13000.00,18000.00,M,M,M,M,M,M,M,M,M,79.88,KINS 101619Z AUTO 31013KT 10SM SCT130 OVC180 27/10 A3012 RMK AO2 WSHFT 17 SLP151 $,M
INS,2023-09-10 16:24,-115.6733,36.5872,955.00,78.80,50.00,36.51,340.00,14.00,0.00,30.13,1015.60,10.00,M,SCT,OVC,M,M,13000.00,18000.00,M,M,M,M,M,M,M,M,M,78.80,KINS 101624Z AUTO 34014KT 10SM SCT130 OVC180 26/10 A3013 RMK AO2 WSHFT 20 SLP156 $,M
05U,2023-09-10 16:30,-116.0051,39.6042,1811.23,69.80,44.60,40.29,0.00,0.00,0.00,30.32,M,10.00,M,CLR,M,M,M,M,M,M,M,M,M,M,M,M,M,M,69.80,K05U 101630Z AUTO 00000KT 10SM CLR 21/07 A3032 RMK A01,M
BAM,2023-09-10 16:35,-116.8743,40.5990,1382.36,73.40,46.40,38.18,200.00,4.00,0.00,30.22,M,10.00,M,CLR,M,M,M,M,M,M,M,M,M,M,M,M,M,M,73.40,KBAM 101635Z AUTO 20004KT 10SM CLR 23/08 A3022 RMK AO1,M
TMT,2023-09-10 16:35,-117.1971,39.4643,1749.34,66.20,49.60,55.06,230.00,3.00,0.00,30.30,M,M,M,CLR,M,M,M,M,M,M,M,M,M,M,M,M,M,M,66.20,KTMT 101635Z AUTO 23003KT CLR 19/10 A3030 RMK AO2 T01900098 PWINO,M
BVU,2023-09-10 16:35,-114.8611,35.9475,671.00,86.00,50.00,28.90,360.00,13.00,0.00,30.01,M,10.00,18.00,CLR,M,M,M,M,M,M,M,M,M,M,M,M,M,M,83.62,KBVU 101635Z AUTO 36013G18KT 10SM CLR 30/10 A3001 RMK AO2,M
CXP,2023-09-10 16:35,-119.7326,39.1923,1431.00,69.80,46.40,43.13,0.00,0.00,0.00,30.22,M,10.00,M,CLR,M,M,M,M,M,M,M,M,M,M,M,M,M,M,69.80,KCXP 101635Z AUTO 00000KT 10SM CLR 21/08 A3022 RMK AO2,M
RTS,2023-09-10 16:35,-119.8764,39.6682,1539.00,66.20,44.60,45.60,0.00,0.00,0.00,30.24,M,10.00,M,CLR,M,M,M,M,M,M,M,M,M,M,M,M,M,M,66.20,KRTS 101635Z AUTO 00000KT 10SM CLR 19/07 A3024 RMK AO2,M
MEV,2023-09-10 16:35,-119.7500,38.9963,1441.42,66.20,46.40,48.83,0.00,0.00,0.00,30.20,M,10.00,M,CLR,M,M,M,M,M,M,M,M,M,M,M,M,M,M,66.20,KMEV 101635Z AUTO 00000KT 10SM CLR 19/08 A3020 RMK AO2,M
HTH,2023-09-10 16:35,-118.6315,38.5448,1282.89,69.80,50.00,49.37,100.00,10.00,0.00,30.21,M,10.00,M,SCT,M,M,M,12000.00,M,M,M,M,M,M,M,M,M,M,69.80,KHTH 101635Z AUTO 10010KT 10SM SCT120 21/10 A3021 RMK A01,M
10U,2023-09-10 16:35,-116.1876,41.9532,1637.00,71.60,42.80,35.37,M,5.00,0.00,30.24,M,10.00,M,CLR,M,M,M,M,M,M,M,M,M,M,M,M,M,M,71.60,K10U 101635Z AUTO VRB05KT 10SM CLR 22/06 A3024 RMK AO2,M
05U,2023-09-10 16:50,-116.0051,39.6042,1811.23,71.60,41.00,33.00,0.00,0.00,0.00,30.32,M,10.00,M,CLR,M,M,M,M,M,M,M,M,M,M,M,M,M,M,71.60,K05U 101650Z AUTO 00000KT 10SM CLR 22/05 A3032 RMK A01,M
P68,2023-09-10 16:53,-116.0056,39.6014,1993.00,69.00,42.00,37.48,100.00,4.00,0.00,30.29,1018.10,M,M,M,M,M,M,M,M,M,M,M,M,M,M,M,M,M,69.00,KP68 101653Z AUTO 10004KT 21/06 A3029 RMK AO1 SLP181 T02060056,M
DRA,2023-09-10 16:53,-116.0278,36.6206,1009.00,79.00,53.00,40.52,40.00,13.00,0.00,30.14,1015.70,10.00,M,FEW,M,M,M,11000.00,M,M,M,M,M,M,M,30.00,50.00,2023-09-10 16:17,79.00,KDRA 101653Z AUTO 04013KT 10SM FEW110 26/12 A3014 RMK AO2 PK WND 05030/1617 SLP157 T02610117,M
ELY,2023-09-10 16:53,-114.8453,39.2950,1909.00,65.00,46.00,50.14,180.00,7.00,0.00,30.33,1019.60,10.00,M,CLR,M,M,M,M,M,M,M,M,M,M,M,M,M,M,65.00,KELY 101653Z AUTO 18007KT 10SM CLR 18/08 A3033 RMK AO2 SLP196 T01830078,M
VGT,2023-09-10 16:53,-115.1933,36.2111,667.00,87.00,52.00,30.15,320.00,20.00,0.00,30.04,1015.90,10.00,28.00,CLR,M,M,M,M,M,M,M,M,M,M,M,28.00,310.00,2023-09-10 16:53,84.73,KVGT 101653Z 32020G28KT 10SM CLR 31/11 A3004 RMK AO2 PK WND 31028/1653 SLP159 T03060111,M
LOL,2023-09-10 16:53,-118.5701,40.0684,1192.43,72.00,47.00,40.94,M,3.00,0.00,30.17,1018.30,10.00,M,CLR,M,M,M,M,M,M,M,M,M,M,M,M,M,M,72.00,KLOL 101653Z AUTO VRB03KT 10SM CLR 22/08 A3017 RMK AO2 SLP183 T02220083,M
BVU,2023-09-10 16:55,-114.8611,35.9475,671.00,86.00,50.00,28.90,340.00,10.00,0.00,30.03,M,10.00,M,CLR,M,M,M,M,M,M,M,M,M,M,M,M,M,M,83.62,KBVU 101655Z AUTO 34010KT 10SM CLR 30/10 A3003 RMK AO2,M
CXP,2023-09-10 16:55,-119.7326,39.1923,1431.00,69.80,48.20,46.16,0.00,0.00,0.00,30.22,M,10.00,M,CLR,M,M,M,M,M,M,M,M,M,M,M,M,M,M,69.80,KCXP 101655Z AUTO 00000KT 10SM CLR 21/09 A3022 RMK AO2,M
RNO,2023-09-10 16:55,-119.7711,39.4839,1341.00,69.00,46.00,43.67,0.00,0.00,0.00,30.20,1017.60,10.00,M,CLR,M,M,M,M,M,M,M,M,M,M,M,M,M,M,69.00,KRNO 101655Z 00000KT 10SM CLR 21/08 A3020 RMK AO2 SLP176 T02060078,M
RTS,2023-09-10 16:55,-119.8764,39.6682,1539.00,69.80,44.60,40.29,0.00,0.00,0.00,30.24,M,10.00,M,CLR,M,M,M,M,M,M,M,M,M,M,M,M,M,M,69.80,KRTS 101655Z AUTO 00000KT 10SM CLR 21/07 A3024 RMK AO2,M
MEV,2023-09-10 16:55,-119.7500,38.9963,1441.42,68.00,48.20,49.10,0.00,0.00,0.00,30.20,M,10.00,M,CLR,M,M,M,M,M,M,M,M,M,M,M,M,M,M,68.00,KMEV 101655Z AUTO 00000KT 10SM CLR 20/09 A3020 RMK AO2,M
BAM,2023-09-10 16:55,-116.8743,40.5990,1382.36,75.20,46.40,35.94,220.00,6.00,0.00,30.23,M,10.00,M,CLR,M,M,M,M,M,M,M,M,M,M,M,M,M,M,75.20,KBAM 101655Z AUTO 22006KT 10SM CLR 24/08 A3023 RMK AO1,M
HTH,2023-09-10 16:55,-118.6315,38.5448,1282.89,71.60,50.00,46.43,90.00,11.00,0.00,30.20,M,10.00,M,FEW,M,M,M,12000.00,M,M,M,M,M,M,M,M,M,M,71.60,KHTH 101655Z AUTO 09011KT 10SM FEW120 22/10 A3020 RMK A01,M
TMT,2023-09-10 16:55,-117.1971,39.4643,1749.34,67.50,48.00,49.58,0.00,0.00,0.00,30.29,M,M,M,CLR,M,M,M,M,M,M,M,M,M,M,M,M,M,M,67.50,KTMT 101655Z AUTO 00000KT CLR 20/09 A3029 RMK AO2 T01970089 PWINO,M
10U,2023-09-10 16:55,-116.1876,41.9532,1637.00,73.40,42.80,33.29,210.00,12.00,0.00,30.24,M,10.00,M,CLR,M,M,M,M,M,M,M,M,M,M,M,M,M,M,73.40,K10U 101655Z AUTO 21012KT 10SM CLR 23/06 A3024 RMK AO2,M
INS,2023-09-10 16:55,-115.6733,36.5872,955.00,79.00,49.00,34.94,10.00,9.00,0.00,30.14,1015.90,10.00,M,FEW,OVC,M,M,14000.00,16000.00,M,M,M,M,M,M,M,M,M,79.00,KINS 101655Z AUTO 01009KT 10SM FEW140 OVC160 26/10 A3014 RMK AO2 SLP159 T02620095 $,M
LSV,2023-09-10 16:55,-115.0343,36.2362,570.00,87.00,51.60,29.71,240.00,4.00,0.00,30.01,1013.70,10.00,M,SCT,M,M,M,15000.00,M,M,M,M,M,M,M,M,M,M,84.67,KLSV 101655Z AUTO 24004KT 10SM SCT150 31/11 A3001 RMK AO2 SLP137 T03050109 $,M
EKO,2023-09-10 16:56,-115.7860,40.8242,1367.00,71.00,49.00,45.66,0.00,0.00,0.00,30.24,1019.00,10.00,M,CLR,M,M,M,M,M,M,M,M,M,M,M,M,M,M,71.00,KEKO 101656Z AUTO 00000KT 10SM CLR 22/09 A3024 RMK AO2 SLP190 T02170094,M
WMC,2023-09-10 16:56,-117.8072,40.9019,1315.00,77.00,45.00,32.10,170.00,7.00,0.00,30.18,1017.10,10.00,M,CLR,M,M,M,M,M,M,M,M,M,M,M,M,M,M,77.00,KWMC 101656Z AUTO 17007KT 10SM CLR 25/07 A3018 RMK AO2 SLP171 T02500072,M
NFL,2023-09-10 16:56,-118.7010,39.4166,1199.00,77.00,49.00,37.33,170.00,12.00,0.00,30.16,1017.80,10.00,M,CLR,M,M,M,M,M,M,M,M,M,M,M,M,M,M,77.00,KNFL 101656Z AUTO 17012KT 10SM CLR 25/09 A3016 RMK AO2 SLP178 T02500094 $,M
HND,2023-09-10 16:56,-115.1344,35.9729,742.79,84.00,52.00,33.19,30.00,10.00,0.00,30.08,1017.30,10.00,M,CLR,M,M,M,M,M,M,M,M,M,M,M,M,M,M,82.36,KHND 101656Z 03010KT 10SM CLR 29/11 A3008 RMK AO2 SLP173 T02890111,M
LAS,2023-09-10 16:56,-115.1634,36.0719,663.00,86.00,51.00,30.00,20.00,13.00,0.00,30.05,1014.60,10.00,M,FEW,BKN,OVC,M,13000.00,18000.00,25000.00,M,M,M,M,M,M,M,M,83.75,KLAS 101656Z 02013KT 10SM FEW130 BKN180 OVC250 30/11 A3005 RMK AO2 SLP146 T03000106 $,M
05U,2023-09-10 17:10,-116.0051,39.6042,1811.23,73.40,41.00,31.05,0.00,0.00,0.00,30.32,M,10.00,M,CLR,M,M,M,M,M,M,M,M,M,M,M,M,M,M,73.40,K05U 101710Z AUTO 00000KT 10SM CLR 23/05 A3032 RMK A01,M
TMT,2023-09-10 17:15,-117.1971,39.4643,1749.34,69.80,48.40,46.51,0.00,0.00,0.00,30.29,M,M,M,CLR,M,M,M,M,M,M,M,M,M,M,M,M,M,M,69.80,KTMT 101715Z AUTO 00000KT CLR 21/09 A3029 RMK AO2 T02100091 PWINO,M
BVU,2023-09-10 17:15,-114.8611,35.9475,671.00,86.00,50.00,28.90,350.00,13.00,0.00,30.02,M,10.00,M,CLR,M,M,M,M,M,M,M,M,M,M,M,M,M,M,83.62,KBVU 101715Z AUTO 35013KT 10SM CLR 30/10 A3002 RMK AO2,M
CXP,2023-09-10 17:15,-119.7326,39.1923,1431.00,73.40,48.20,40.85,110.00,4.00,0.00,30.21,M,10.00,M,CLR,M,M,M,M,M,M,M,M,M,M,M,M,M,M,73.40,KCXP 101715Z AUTO 11004KT 10SM CLR 23/09 A3021 RMK AO2,M
RTS,2023-09-10 17:15,-119.8764,39.6682,1539.00,71.60,44.60,37.89,150.00,3.00,0.00,30.24,M,10.00,M,CLR,M,M,M,M,M,M,M,M,M,M,M,M,M,M,71.60,KRTS 101715Z AUTO 15003KT 10SM CLR 22/07 A3024 RMK AO2,M
MEV,2023-09-10 17:15,-119.7500,38.9963,1441.42,69.80,50.00,49.37,M,3.00,0.00,30.20,M,10.00,M,CLR,M,M,M,M,M,M,M,M,M,M,M,M,M,M,69.80,KMEV 101715Z AUTO VRB03KT 10SM CLR 21/10 A3020 RMK AO2,M
BAM,2023-09-10 17:15,-116.8743,40.5990,1382.36,75.20,46.40,35.94,210.00,4.00,0.00,30.22,M,10.00,M,CLR,M,M,M,M,M,M,M,M,M,M,M,M,M,M,75.20,KBAM 101715Z AUTO 21004KT 10SM CLR 24/08 A3022 RMK AO1,M
HTH,2023-09-10 17:15,-118.6315,38.5448,1282.89,73.40,50.00,43.69,90.00,15.00,0.00,30.20,M,10.00,M,CLR,M,M,M,M,M,M,M,M,M,M,M,M,M,M,73.40,KHTH 101715Z AUTO 09015KT 10SM CLR 23/10 A3020 RMK A01,M
10U,2023-09-10 17:15,-116.1876,41.9532,1637.00,73.40,42.80,33.29,230.00,6.00,0.00,30.25,M,10.00,12.00,CLR,M,M,M,M,M,M,M,M,M,M,M,M,M,M,73.40,K10U 101715Z AUTO 23006G12KT 10SM CLR 23/06 A3025 RMK AO2,M
05U,2023-09-10 17:30,-116.0051,39.6042,1811.23,75.20,41.00,29.23,0.00,0.00,0.00,30.31,M,10.00,M,CLR,M,M,M,M,M,M,M,M,M,M,M,M,M,M,75.20,K05U 101730Z AUTO 00000KT 10SM CLR 24/05 A3031 RMK A01,M
BVU,2023-09-10 17:35,-114.8611,35.9475,671.00,86.00,50.00,28.90,350.00,17.00,0.00,30.03,M,10.00,23.00,CLR,M,M,M,M,M,M,M,M,M,M,M,M,M,M,83.62,KBVU 101735Z AUTO 35017G23KT 10SM CLR 30/10 A3003 RMK AO2,M
CXP,2023-09-10 17:35,-119.7326,39.1923,1431.00,75.20,48.20,38.46,M,3.00,0.00,30.21,M,10.00,M,CLR,M,M,M,M,M,M,M,M,M,M,M,M,M,M,75.20,KCXP 101735Z AUTO VRB03KT 10SM CLR 24/09 A3021 RMK AO2,M
RTS,2023-09-10 17:35,-119.8764,39.6682,1539.00,71.60,44.60,37.89,100.00,3.00,0.00,30.24,M,10.00,M,CLR,M,M,M,M,M,M,M,M,M,M,M,M,M,M,71.60,KRTS 101735Z AUTO 10003KT 10SM CLR 22/07 A3024 RMK AO2,M
MEV,2023-09-10 17:35,-119.7500,38.9963,1441.42,73.40,48.20,40.85,M,3.00,0.00,30.20,M,10.00,M,CLR,M,M,M,M,M,M,M,M,M,M,M,M,M,M,73.40,KMEV 101735Z AUTO VRB03KT 10SM CLR 23/09 A3020 RMK AO2,M
HTH,2023-09-10 17:35,-118.6315,38.5448,1282.89,75.20,50.00,41.14,100.00,10.00,0.00,30.20,M,10.00,17.00,CLR,M,M,M,M,M,M,M,M,M,M,M,M,M,M,75.20,KHTH 101735Z AUTO 10010G17KT 10SM CLR 24/10 A3020 RMK A01,M
10U,2023-09-10 17:35,-116.1876,41.9532,1637.00,73.40,42.80,33.29,220.00,7.00,0.00,30.25,M,10.00,M,CLR,M,M,M,M,M,M,M,M,M,M,M,M,M,M,73.40,K10U 101735Z AUTO 22007KT 200V260 10SM CLR 23/06 A3025 RMK AO2,M
BAM,2023-09-10 17:35,-116.8743,40.5990,1382.36,78.80,46.40,31.90,190.00,3.00,0.00,30.21,M,10.00,M,CLR,M,M,M,M,M,M,M,M,M,M,M,M,M,M,78.80,KBAM 101735Z AUTO 19003KT 10SM CLR 26/08 A3021 RMK AO1,M
TMT,2023-09-10 17:35,-117.1971,39.4643,1749.34,71.00,47.50,43.16,220.00,3.00,0.00,30.29,M,M,M,CLR,M,M,M,M,M,M,M,M,M,M,M,M,M,M,71.00,KTMT 101735Z AUTO 22003KT CLR 22/09 A3029 RMK AO2 T02170086 PWINO,M
05U,2023-09-10 17:50,-116.0051,39.6042,1811.23,75.20,41.00,29.23,250.00,5.00,0.00,30.31,M,10.00,M,CLR,M,M,M,M,M,M,M,M,M,M,M,M,M,M,75.20,K05U 101750Z AUTO 25005KT 10SM CLR 24/05 A3031 RMK A01,M
P68,2023-09-10 17:53,-116.0056,39.6014,1993.00,73.00,41.00,31.47,80.00,3.00,0.00,30.28,1017.60,M,M,M,M,M,M,M,M,M,M,M,M,M,M,M,M,M,73.00,KP68 101753Z AUTO 08003KT 23/05 A3028 RMK AO1 SLP176 T02280050 10228 20100 58005,M
DRA,2023-09-10 17:53,-116.0278,36.6206,1009.00,79.00,52.00,39.06,30.00,14.00,0.00,30.14,1015.80,10.00,M,SCT,M,M,M,12000.00,M,M,M,M,M,M,M,M,M,M,79.00,KDRA 101753Z AUTO 03014KT 10SM SCT120 26/11 A3014 RMK AO2 SLP158 T02610111 10267 20239 52008,M
ELY,2023-09-10 17:53,-114.8453,39.2950,1909.00,68.00,46.00,45.19,160.00,6.00,0.00,30.31,1018.90,10.00,M,CLR,M,M,M,M,M,M,M,M,M,M,M,M,M,M,68.00,KELY 101753Z AUTO 16006KT 10SM CLR 20/08 A3031 RMK AO2 SLP189 T02000078 10211 20072 58005,M
VGT,2023-09-10 17:53,-115.1933,36.2111,667.00,87.00,52.00,30.15,340.00,12.00,0.00,30.06,1016.70,10.00,24.00,BKN,M,M,M,11000.00,M,M,M,M,M,M,M,27.00,330.00,2023-09-10 17:03,84.73,KVGT 101753Z 34012G24KT 10SM BKN110 31/11 A3006 RMK AO2 PK WND 33027/1703 PRESRR SLP167 T03060111 10311 20294 53020,M
LOL,2023-09-10 17:53,-118.5701,40.0684,1192.43,76.00,47.00,35.80,M,4.00,0.00,30.17,1017.80,10.00,M,CLR,M,M,M,M,M,M,M,M,M,M,M,M,M,M,76.00,KLOL 101753Z AUTO VRB04KT 10SM CLR 24/08 A3017 RMK AO2 SLP178 T02440083 10250 20111 58000,M
BVU,2023-09-10 17:55,-114.8611,35.9475,671.00,86.00,50.00,28.90,360.00,13.00,0.00,30.04,M,10.00,20.00,FEW,SCT,M,M,9500.00,12000.00,M,M,M,M,M,M,M,M,M,83.62,KBVU 101755Z AUTO 36013G20KT 10SM FEW095 SCT120 30/10 A3004 RMK AO2,M
CXP,2023-09-10 17:55,-119.7326,39.1923,1431.00,77.00,48.20,36.22,80.00,6.00,0.00,30.21,M,10.00,M,CLR,M,M,M,M,M,M,M,M,M,M,M,M,M,M,77.00,KCXP 101755Z AUTO 08006KT 10SM CLR 25/09 A3021 RMK AO2,M
RNO,2023-09-10 17:55,-119.7711,39.4839,1341.00,75.00,47.00,37.01,0.00,0.00,0.00,30.19,1017.10,10.00,M,CLR,M,M,M,M,M,M,M,M,M,M,M,M,M,M,75.00,KRNO 101755Z 00000KT 10SM CLR 24/08 A3019 RMK AO2 SLP171 T02390083 10244 20133 58003,M
LSV,2023-09-10 17:55,-115.0343,36.2362,570.00,89.40,52.00,27.94,360.00,17.00,0.00,30.01,1013.60,10.00,M,FEW,M,M,M,13000.00,M,M,M,M,M,M,M,M,M,M,86.85,KLSV 101755Z AUTO 36017KT 10SM FEW130 32/11 A3001 RMK AO2 SLP136 T03190111 10319 20270 50013 $,M
RTS,2023-09-10 17:55,-119.8764,39.6682,1539.00,73.40,41.00,31.05,0.00,0.00,0.00,30.23,M,10.00,M,CLR,M,M,M,M,M,M,M,M,M,M,M,M,M,M,73.40,KRTS 101755Z AUTO 00000KT 10SM CLR 23/05 A3023 RMK AO2,M
MEV,2023-09-10 17:55,-119.7500,38.9963,1441.42,75.20,48.20,38.46,300.00,5.00,0.00,30.19,M,10.00,M,CLR,M,M,M,M,M,M,M,M,M,M,M,M,M,M,75.20,KMEV 101755Z AUTO 30005KT 10SM CLR 24/09 A3019 RMK AO2,M
HTH,2023-09-10 17:55,-118.6315,38.5448,1282.89,77.00,50.00,38.74,90.00,12.00,0.00,30.19,M,10.00,M,CLR,M,M,M,M,M,M,M,M,M,M,M,M,M,M,77.00,KHTH 101755Z AUTO 09012KT 10SM CLR 25/10 A3019 RMK A01,M
10U,2023-09-10 17:55,-116.1876,41.9532,1637.00,75.20,41.00,29.23,240.00,10.00,0.00,30.25,M,10.00,M,CLR,M,M,M,M,M,M,M,M,M,M,M,M,M,M,75.20,K10U 101755Z AUTO 24010KT 10SM CLR 24/05 A3025 RMK AO2,M
BAM,2023-09-10 17:55,-116.8743,40.5990,1382.36,78.80,46.40,31.90,170.00,5.00,0.00,30.21,M,10.00,M,CLR,M,M,M,M,M,M,M,M,M,M,M,M,M,M,78.80,KBAM 101755Z AUTO 17005KT 10SM CLR 26/08 A3021 RMK AO1,M
TMT,2023-09-10 17:55,-117.1971,39.4643,1749.34,73.60,48.40,40.89,120.00,3.00,0.00,30.28,M,M,M,CLR,M,M,M,M,M,M,M,M,M,M,M,M,M,M,73.60,KTMT 101755Z AUTO 12003KT CLR 23/09 A3028 RMK AO2 T02310091 10232 20115 PWINO,M
INS,2023-09-10 17:55,-115.6733,36.5872,955.00,80.40,49.50,34.00,350.00,5.00,0.00,30.14,1015.80,10.00,M,BKN,BKN,OVC,M,12000.00,14000.00,16000.00,M,M,M,M,M,M,M,M,79.72,KINS 101755Z AUTO 35005KT 10SM BKN120 BKN140 OVC160 27/10 A3014 RMK AO2 SLP158 T02690097 10269 20240 51012 $,M
EKO,2023-09-10 17:56,-115.7860,40.8242,1367.00,76.00,47.00,35.80,M,4.00,0.00,30.23,1018.50,10.00,M,CLR,M,M,M,M,M,M,M,M,M,M,M,M,M,M,76.00,KEKO 101756Z AUTO VRB04KT 10SM CLR 24/08 A3023 RMK AO2 SLP185 T02440083 10244 20100 58004,M
WMC,2023-09-10 17:56,-117.8072,40.9019,1315.00,79.00,46.00,31.21,220.00,6.00,0.00,30.18,1016.90,10.00,M,CLR,M,M,M,M,M,M,M,M,M,M,M,M,M,M,79.00,KWMC 101756Z AUTO 22006KT 10SM CLR 26/08 A3018 RMK AO2 SLP169 T02610078 10267 20094 58003,M
NFL,2023-09-10 17:56,-118.7010,39.4166,1199.00,80.00,49.00,33.81,180.00,10.00,0.00,30.16,1017.60,10.00,M,CLR,M,M,M,M,M,M,M,M,M,M,M,M,M,M,79.46,KNFL 101756Z AUTO 18010KT 10SM CLR 27/09 A3016 RMK AO2 SLP176 T02670094 10267 20167 58004 $,M
HND,2023-09-10 17:56,-115.1344,35.9729,742.79,85.00,52.00,32.14,10.00,8.00,0.00,30.11,1018.30,10.00,M,FEW,SCT,BKN,M,4800.00,6500.00,9500.00,M,M,M,M,M,M,M,M,83.11,KHND 101756Z 01008KT 10SM FEW048 SCT065 BKN095 29/11 A3011 RMK AO2 LTG DSNT SE SLP183 T02940111 10294 20261 53020,M
LAS,2023-09-10 17:56,-115.1634,36.0719,663.00,87.00,51.00,29.06,M,M,0.00,30.08,1015.70,10.00,M,SCT,M,M,M,11000.00,M,M,M,M,M,M,M,M,M,M,84.58,KLAS 101756Z 10SM SCT110 31/11 A3008 RMK AO2 LTG DSNT SE SLP157 T03060106 10306 20278 53021 $,M
LAS,2023-09-10 18:05,-115.1634,36.0719,663.00,87.00,51.00,29.06,M,M,0.00,30.08,M,10.00,M,FEW,BKN,OVC,M,10000.00,18000.00,25000.00,M,M,M,M,M,M,M,M,84.58,KLAS 101805Z 10SM FEW100 BKN180 OVC250 31/11 A3008 RMK AO2 LTG DSNT SE T03060106 $,M
NFL,2023-09-10 18:08,-118.7010,39.4166,1199.00,80.00,49.00,33.81,200.00,9.00,0.00,30.15,M,10.00,M,FEW,FEW,M,M,9000.00,14000.00,M,M,M,M,M,M,M,M,M,79.46,KNFL 101808Z 20009KT 10SM FEW090 FEW140 27/09 A3015 RMK AO2 TCU DSNT SW T02670094 $,M
LAS,2023-09-10 18:08,-115.1634,36.0719,663.00,87.00,51.00,29.06,330.00,11.00,0.00,30.08,M,10.00,16.00,FEW,BKN,OVC,M,10000.00,18000.00,25000.00,M,M,M,M,M,M,M,M,84.58,KLAS 101808Z 33011G16KT 10SM FEW100 BKN180 OVC250 31/11 A3008 RMK AO2 LTG DSNT SE T03060106 $,M
05U,2023-09-10 18:10,-116.0051,39.6042,1811.23,75.20,39.20,27.26,M,4.00,0.00,30.30,M,10.00,M,CLR,M,M,M,M,M,M,M,M,M,M,M,M,M,M,75.20,K05U 101810Z AUTO VRB04KT 10SM CLR 24/04 A3030 RMK A01,M
TMT,2023-09-10 18:15,-117.1971,39.4643,1749.34,73.80,46.00,37.10,250.00,5.00,0.00,30.28,M,M,M,CLR,M,M,M,M,M,M,M,M,M,M,M,M,M,M,73.80,KTMT 101815Z AUTO 25005KT CLR 23/08 A3028 RMK AO2 T02320078 PWINO,M
BVU,2023-09-10 18:15,-114.8611,35.9475,671.00,86.00,50.00,28.90,330.00,10.00,0.00,30.07,M,10.00,M,SCT,M,M,M,12000.00,M,M,M,M,M,M,M,M,M,M,83.62,KBVU 101815Z AUTO 33010KT 10SM SCT120 30/10 A3007 RMK AO2,M
CXP,2023-09-10 18:15,-119.7326,39.1923,1431.00,77.00,48.20,36.22,M,6.00,0.00,30.20,M,10.00,M,CLR,M,M,M,M,M,M,M,M,M,M,M,M,M,M,77.00,KCXP 101815Z AUTO VRB06KT 10SM CLR 25/09 A3020 RMK AO2,M
RTS,2023-09-10 18:15,-119.8764,39.6682,1539.00,75.20,37.40,25.40,110.00,7.00,0.00,30.23,M,10.00,M,CLR,M,M,M,M,M,M,M,M,M,M,M,M,M,M,75.20,KRTS 101815Z AUTO 11007KT 10SM CLR 24/03 A3023 RMK AO2,M
MEV,2023-09-10 18:15,-119.7500,38.9963,1441.42,77.00,48.20,36.22,M,5.00,0.00,30.19,M,10.00,M,CLR,M,M,M,M,M,M,M,M,M,M,M,M,M,M,77.00,KMEV 101815Z AUTO VRB05KT 10SM CLR 25/09 A3019 RMK AO2,M
BAM,2023-09-10 18:15,-116.8743,40.5990,1382.36,78.80,46.40,31.90,210.00,4.00,0.00,30.21,M,10.00,M,CLR,M,M,M,M,M,M,M,M,M,M,M,M,M,M,78.80,KBAM 101815Z AUTO 21004KT 10SM CLR 26/08 A3021 RMK AO1,M
HTH,2023-09-10 18:15,-118.6315,38.5448,1282.89,78.80,50.00,36.51,70.00,13.00,0.00,30.19,M,10.00,M,CLR,M,M,M,M,M,M,M,M,M,M,M,M,M,M,78.80,KHTH 101815Z AUTO 07013KT 10SM CLR 26/10 A3019 RMK A01,M
10U,2023-09-10 18:15,-116.1876,41.9532,1637.00,75.20,39.20,27.26,220.00,6.00,0.00,30.25,M,10.00,M,CLR,M,M,M,M,M,M,M,M,M,M,M,M,M,M,75.20,K10U 101815Z AUTO 22006KT 10SM CLR 24/04 A3025 RMK AO2,M
05U,2023-09-10 18:30,-116.0051,39.6042,1811.23,77.00,39.20,25.67,M,4.00,0.00,30.30,M,10.00,M,CLR,M,M,M,M,M,M,M,M,M,M,M,M,M,M,77.00,K05U 101830Z AUTO VRB04KT 10SM CLR 25/04 A3030 RMK A01,M
BVU,2023-09-10 18:35,-114.8611,35.9475,671.00,86.00,51.80,30.90,350.00,5.00,0.00,30.08,M,10.00,M,SCT,M,M,M,12000.00,M,M,M,M,M,M,M,M,M,M,83.87,KBVU 101835Z AUTO 35005KT 10SM SCT120 30/11 A3008 RMK AO2,M
CXP,2023-09-10 18:35,-119.7326,39.1923,1431.00,78.80,44.60,29.79,0.00,0.00,0.00,30.20,M,10.00,M,CLR,M,M,M,M,M,M,M,M,M,M,M,M,M,M,78.80,KCXP 101835Z AUTO 00000KT 10SM CLR 26/07 A3020 RMK AO2,M
RTS,2023-09-10 18:35,-119.8764,39.6682,1539.00,77.00,37.40,23.93,120.00,5.00,0.00,30.23,M,10.00,M,CLR,M,M,M,M,M,M,M,M,M,M,M,M,M,M,77.00,KRTS 101835Z AUTO 12005KT 10SM CLR 25/03 A3023 RMK AO2,M
MEV,2023-09-10 18:35,-119.7500,38.9963,1441.42,78.80,48.20,34.13,M,4.00,0.00,30.18,M,8.00,M,CLR,M,M,M,M,M,M,M,M,M,M,M,M,M,M,78.80,KMEV 101835Z AUTO VRB04KT 8SM CLR 26/09 A3018 RMK AO2,M
HTH,2023-09-10 18:35,-118.6315,38.5448,1282.89,78.80,50.00,36.51,70.00,13.00,0.00,30.18,M,10.00,M,CLR,M,M,M,M,M,M,M,M,M,M,M,M,M,M,78.80,KHTH 101835Z AUTO 07013KT 10SM CLR 26/10 A3018 RMK A01,M
10U,2023-09-10 18:35,-116.1876,41.9532,1637.00,75.20,39.20,27.26,M,6.00,0.00,30.25,M,10.00,14.00,CLR,M,M,M,M,M,M,M,M,M,M,M,M,M,M,75.20,K10U 101835Z AUTO VRB06G14KT 10SM CLR 24/04 A3025 RMK AO2,M
BAM,2023-09-10 18:35,-116.8743,40.5990,1382.36,80.60,46.40,30.07,210.00,3.00,0.00,30.20,M,10.00,M,CLR,M,M,M,M,M,M,M,M,M,M,M,M,M,M,79.56,KBAM 101835Z AUTO 21003KT 10SM CLR 27/08 A3020 RMK AO1,M
TMT,2023-09-10 18:35,-117.1971,39.4643,1749.34,75.20,45.00,34.08,290.00,5.00,0.00,30.28,M,M,M,CLR,M,M,M,M,M,M,M,M,M,M,M,M,M,M,75.20,KTMT 101835Z AUTO 29005KT CLR 24/07 A3028 RMK AO2 T02400073 PWINO,M
INS,2023-09-10 18:37,-115.6733,36.5872,955.00,80.60,50.00,34.41,320.00,5.00,0.00,30.14,1015.90,10.00,M,BKN,OVC,M,M,11000.00,13000.00,M,M,-DZ,M,M,M,M,M,M,79.88,KINS 101837Z AUTO 32005KT 10SM -DZ BKN110 OVC130 27/10 A3014 RMK AO2 DZB37 SLP159 $,M
05U,2023-09-10 18:50,-116.0051,39.6042,1811.23,77.00,39.20,25.67,210.00,5.00,0.00,30.29,M,10.00,M,CLR,M,M,M,M,M,M,M,M,M,M,M,M,M,M,77.00,K05U 101850Z AUTO 21005KT 10SM CLR 25/04 A3029 RMK A01,M
INS,2023-09-10 18:50,-115.6733,36.5872,955.00,80.60,50.00,34.41,320.00,4.00,0.00,30.14,1015.90,10.00,M,OVC,M,M,M,11000.00,M,M,M,M,M,M,M,M,M,M,79.88,KINS 101850Z AUTO 32004KT 10SM OVC110 27/10 A3014 RMK AO2 DZB37E50 SLP159 $,M
P68,2023-09-10 18:53,-116.0056,39.6014,1993.00,76.00,39.00,26.34,M,5.00,0.00,30.26,1017.00,M,M,M,M,M,M,M,M,M,M,M,M,M,M,M,M,M,76.00,KP68 101853Z AUTO VRB05KT 24/04 A3026 RMK AO1 SLP170 T02440039,M
DRA,2023-09-10 18:53,-116.0278,36.6206,1009.00,80.00,54.00,40.67,10.00,7.00,0.00,30.15,1016.20,10.00,M,FEW,SCT,BKN,M,5000.00,9000.00,11000.00,M,M,M,M,M,M,M,M,79.98,KDRA 101853Z AUTO 01007KT 10SM FEW050 SCT090 BKN110 27/12 A3015 RMK AO2 SLP162 T02670122,M
ELY,2023-09-10 18:53,-114.8453,39.2950,1909.00,72.00,46.00,39.42,0.00,0.00,0.00,30.29,1016.90,10.00,M,CLR,M,M,M,M,M,M,M,M,M,M,M,M,M,M,72.00,KELY 101853Z AUTO 00000KT 10SM CLR 22/08 A3029 RMK AO2 SLP169 T02220078,M
VGT,2023-09-10 18:53,-115.1933,36.2111,667.00,88.00,53.00,30.30,340.00,8.00,0.00,30.07,1017.10,10.00,M,CLR,M,M,M,M,M,M,M,M,M,M,M,M,M,M,85.78,KVGT 101853Z 34008KT 10SM CLR 31/12 A3007 RMK AO2 SLP171 T03110117,M
LOL,2023-09-10 18:53,-118.5701,40.0684,1192.43,79.00,47.00,32.41,200.00,9.00,0.00,30.15,1017.70,10.00,M,CLR,M,M,M,M,M,M,M,M,M,M,M,M,M,M,79.00,KLOL 101853Z AUTO 20009KT 10SM CLR 26/08 A3015 RMK AO2 SLP177 T02610083,M
BVU,2023-09-10 18:55,-114.8611,35.9475,671.00,86.00,50.00,28.90,300.00,4.00,0.00,30.09,M,10.00,M,SCT,M,M,M,12000.00,M,M,M,VCTS,M,M,M,M,M,M,83.62,KBVU 101855Z AUTO 30004KT 10SM VCTS SCT120 30/10 A3009 RMK AO2 LTG DSNT NE AND E,M
CXP,2023-09-10 18:55,-119.7326,39.1923,1431.00,78.80,44.60,29.79,M,4.00,0.00,30.19,M,10.00,10.00,CLR,M,M,M,M,M,M,M,M,M,M,M,M,M,M,78.80,KCXP 101855Z AUTO VRB04G10KT 10SM CLR 26/07 A3019 RMK AO2,M
RTS,2023-09-10 18:55,-119.8764,39.6682,1539.00,77.00,37.40,23.93,120.00,7.00,0.00,30.22,M,10.00,M,CLR,M,M,M,M,M,M,M,M,M,M,M,M,M,M,77.00,KRTS 101855Z AUTO 12007KT 070V140 10SM CLR 25/03 A3022 RMK AO2,M
MEV,2023-09-10 18:55,-119.7500,38.9963,1441.42,78.80,46.40,31.90,0.00,0.00,0.00,30.18,M,9.00,M,CLR,M,M,M,M,M,M,M,M,M,M,M,M,M,M,78.80,KMEV 101855Z AUTO 00000KT 9SM CLR 26/08 A3018 RMK AO2,M
HTH,2023-09-10 18:55,-118.6315,38.5448,1282.89,80.60,50.00,34.41,M,5.00,0.00,30.17,M,10.00,14.00,CLR,M,M,M,M,M,M,M,M,M,M,M,M,M,M,79.88,KHTH 101855Z AUTO VRB05G14KT 10SM CLR 27/10 A3017 RMK A01,M
RNO,2023-09-10 18:55,-119.7711,39.4839,1341.00,81.00,46.00,29.23,M,3.00,0.00,30.17,1016.20,10.00,M,FEW,M,M,M,10000.00,M,M,M,M,M,M,M,M,M,M,79.76,KRNO 101855Z VRB03KT 10SM FEW100 27/08 A3017 RMK AO2 SLP162 T02720078,M
LSV,2023-09-10 18:55,-115.0343,36.2362,570.00,88.70,51.40,27.94,0.00,0.00,0.00,30.03,1014.30,10.00,M,FEW,M,M,M,15000.00,M,M,M,M,M,M,M,M,M,M,86.11,KLSV 101855Z AUTO 00000KT 10SM FEW150 32/11 A3003 RMK AO2 SLP143 T03150108 $,M
BAM,2023-09-10 18:55,-116.8743,40.5990,1382.36,82.40,50.00,32.46,60.00,3.00,0.00,30.20,M,10.00,M,CLR,M,M,M,M,M,M,M,M,M,M,M,M,M,M,80.99,KBAM 101855Z AUTO 06003KT 10SM CLR 28/10 A3020 RMK AO1,M
TMT,2023-09-10 18:55,-117.1971,39.4643,1749.34,75.70,44.20,32.51,250.00,5.00,0.00,30.28,M,M,M,CLR,M,M,M,M,M,M,M,M,M,M,M,M,M,M,75.70,KTMT 101855Z AUTO 25005KT CLR 24/07 A3028 RMK AO2 T02430068 PWINO,M
10U,2023-09-10 18:55,-116.1876,41.9532,1637.00,77.00,39.20,25.67,280.00,8.00,0.00,30.24,M,10.00,M,CLR,M,M,M,M,M,M,M,M,M,M,M,M,M,M,77.00,K10U 101855Z AUTO 28008KT 210V310 10SM CLR 25/04 A3024 RMK AO2,M
INS,2023-09-10 18:55,-115.6733,36.5872,955.00,80.20,49.30,33.97,0.00,0.00,T,30.14,1015.90,10.00,M,OVC,M,M,M,11000.00,M,M,M,M,M,M,M,M,M,M,79.59,KINS 101855Z AUTO 00000KT 10SM OVC110 27/10 A3014 RMK AO2 DZB37E50 SLP159 P0000 T02680096 $,M
LAS,2023-09-10 18:56,-115.1634,36.0719,663.00,87.00,51.00,29.06,40.00,5.00,0.00,30.09,1016.10,10.00,M,SCT,BKN,OVC,M,10000.00,18000.00,25000.00,M,M,M,M,M,M,M,M,84.58,KLAS 101856Z 04005KT 10SM SCT100 BKN180 OVC250 31/11 A3009 RMK AO2 SLP161 TS DSNT NE MOV E T03060106 $,M
EKO,2023-09-10 18:56,-115.7860,40.8242,1367.00,79.00,47.00,32.41,210.00,7.00,0.00,30.22,1018.10,10.00,M,CLR,M,M,M,M,M,M,M,M,M,M,M,M,M,M,79.00,KEKO 101856Z AUTO 21007KT 190V260 10SM CLR 26/08 A3022 RMK AO2 SLP181 T02610083,M
WMC,2023-09-10 18:56,-117.8072,40.9019,1315.00,82.00,45.00,27.24,M,3.00,0.00,30.17,1016.70,10.00,M,CLR,M,M,M,M,M,M,M,M,M,M,M,M,M,M,80.28,KWMC 101856Z AUTO VRB03KT 10SM CLR 28/07 A3017 RMK AO2 SLP167 T02780072,M
NFL,2023-09-10 18:56,-118.7010,39.4166,1199.00,83.00,48.00,29.54,190.00,8.00,0.00,30.14,1017.10,10.00,M,FEW,FEW,M,M,9000.00,14000.00,M,M,M,M,M,M,M,M,M,81.18,KNFL 101856Z 19008KT 10SM FEW090 FEW140 28/09 A3014 RMK AO2 SLP171 TCU DSNT SW T02830089 $,M
HND,2023-09-10 18:56,-115.1344,35.9729,742.79,85.00,54.00,34.59,100.00,5.00,0.00,30.13,1018.90,10.00,M,FEW,SCT,OVC,M,4600.00,6500.00,11000.00,M,M,M,M,M,M,M,M,83.45,KHND 101856Z 10005KT 10SM FEW046 SCT065 OVC110 29/12 A3013 RMK AO2 SLP189 T02940122,M
05U,2023-09-10 19:10,-116.0051,39.6042,1811.23,77.00,39.20,25.67,M,5.00,0.00,30.29,M,10.00,M,CLR,M,M,M,M,M,M,M,M,M,M,M,M,M,M,77.00,K05U 101910Z AUTO VRB05KT 10SM CLR 25/04 A3029 RMK A01,M
INS,2023-09-10 19:11,-115.6733,36.5872,955.00,80.60,50.00,34.41,110.00,4.00,0.00,30.14,1015.90,10.00,M,OVC,M,M,M,11000.00,M,M,M,-DZ,M,M,M,M,M,M,79.88,KINS 101911Z AUTO 11004KT 10SM -DZ OVC110 27/10 A3014 RMK AO2 DZB11 SLP159 $,M
BVU,2023-09-10 19:15,-114.8611,35.9475,671.00,86.00,50.00,28.90,320.00,4.00,0.00,30.09,M,10.00,M,SCT,BKN,M,M,10000.00,12000.00,M,M,M,M,M,M,M,M,M,83.62,KBVU 101915Z AUTO 32004KT 10SM SCT100 BKN120 30/10 A3009 RMK AO2,M
CXP,2023-09-10 19:15,-119.7326,39.1923,1431.00,80.60,42.80,26.22,0.00,0.00,0.00,30.19,M,10.00,M,CLR,M,M,M,M,M,M,M,M,M,M,M,M,M,M,79.30,KCXP 101915Z AUTO 00000KT 10SM CLR 27/06 A3019 RMK AO2,M
RTS,2023-09-10 19:15,-119.8764,39.6682,1539.00,77.00,35.60,22.28,M,6.00,0.00,30.21,M,10.00,M,CLR,M,M,M,M,M,M,M,M,M,M,M,M,M,M,77.00,KRTS 101915Z AUTO VRB06KT 10SM CLR 25/02 A3021 RMK AO2,M
MEV,2023-09-10 19:15,-119.7500,38.9963,1441.42,80.60,46.40,30.07,180.00,6.00,0.00,30.17,M,9.00,M,CLR,M,M,M,M,M,M,M,M,M,M,M,M,M,M,79.56,KMEV 101915Z AUTO 18006KT 9SM CLR 27/08 A3017 RMK AO2,M
BAM,2023-09-10 19:15,-116.8743,40.5990,1382.36,80.60,44.60,28.08,0.00,0.00,0.00,30.19,M,10.00,M,CLR,M,M,M,M,M,M,M,M,M,M,M,M,M,M,79.42,KBAM 101915Z AUTO 00000KT 10SM CLR 27/07 A3019 RMK AO1,M
HTH,2023-09-10 19:15,-118.6315,38.5448,1282.89,82.40,50.00,32.46,90.00,9.00,0.00,30.16,M,10.00,M,CLR,M,M,M,M,M,M,M,M,M,M,M,M,M,M,80.99,KHTH 101915Z AUTO 09009KT 10SM CLR 28/10 A3016 RMK A01,M
10U,2023-09-10 19:15,-116.1876,41.9532,1637.00,77.00,37.40,23.93,240.00,9.00,0.00,30.24,M,10.00,M,CLR,M,M,M,M,M,M,M,M,M,M,M,M,M,M,77.00,K10U 101915Z AUTO 24009KT 10SM CLR 25/03 A3024 RMK AO2,M
TMT,2023-09-10 19:15,-117.1971,39.4643,1749.34,76.50,45.30,33.01,220.00,4.00,0.00,30.27,M,M,M,CLR,M,M,M,M,M,M,M,M,M,M,M,M,M,M,76.50,KTMT 101915Z AUTO 22004KT CLR 25/07 A3027 RMK AO2 T02470074 PWINO,M
INS,2023-09-10 19:24,-115.6733,36.5872,955.00,80.60,50.00,34.41,100.00,4.00,0.00,30.14,1015.90,10.00,M,BKN,BKN,M,M,11000.00,15000.00,M,M,M,M,M,M,M,M,M,79.88,KINS 101924Z AUTO 10004KT 10SM BKN110 BKN150 27/10 A3014 RMK AO2 DZB11E24 SLP159 $,M
05U,2023-09-10 19:30,-116.0051,39.6042,1811.23,78.80,39.20,24.19,230.00,7.00,0.00,30.28,M,10.00,M,CLR,M,M,M,M,M,M,M,M,M,M,M,M,M,M,78.80,K05U 101930Z AUTO 23007KT 10SM CLR 26/04 A3028 RMK A01,M
INS,2023-09-10 19:33,-115.6733,36.5872,955.00,80.60,50.00,34.41,0.00,0.00,0.00,30.14,1015.90,10.00,M,SCT,BKN,OVC,M,9000.00,11000.00,14000.00,M,-DZ,M,M,M,M,M,M,79.88,KINS 101933Z AUTO 00000KT 10SM -DZ SCT090 BKN110 OVC140 27/10 A3014 RMK AO2 DZB11E24DZB33 SLP159 $,M
MEV,2023-09-10 19:35,-119.7500,38.9963,1441.42,82.40,42.80,24.72,210.00,4.00,0.00,30.16,M,7.00,M,CLR,M,M,M,M,M,M,M,M,M,M,M,M,M,M,80.39,KMEV 101935Z AUTO 21004KT 7SM CLR 28/06 A3016 RMK AO2,M
HTH,2023-09-10 19:35,-118.6315,38.5448,1282.89,84.20,48.20,28.63,80.00,8.00,0.00,30.15,M,10.00,M,CLR,M,M,M,M,M,M,M,M,M,M,M,M,M,M,82.04,KHTH 101935Z AUTO 08008KT 10SM CLR 29/09 A3015 RMK A01,M
10U,2023-09-10 19:35,-116.1876,41.9532,1637.00,78.80,37.40,22.54,M,6.00,0.00,30.24,M,10.00,13.00,CLR,M,M,M,M,M,M,M,M,M,M,M,M,M,M,78.80,K10U 101935Z AUTO VRB06G13KT 10SM CLR 26/03 A3024 RMK AO2,M
BVU,2023-09-10 19:35,-114.8611,35.9475,671.00,86.00,51.80,30.90,30.00,6.00,0.00,30.08,M,10.00,M,FEW,SCT,BKN,M,3700.00,6500.00,10000.00,M,M,M,M,M,M,M,M,83.87,KBVU 101935Z AUTO 03006KT 10SM FEW037 SCT065 BKN100 30/11 A3008 RMK AO2,M
CXP,2023-09-10 19:35,-119.7326,39.1923,1431.00,84.20,41.00,21.76,M,5.00,0.00,30.18,M,9.00,11.00,CLR,M,M,M,M,M,M,M,M,M,M,M,M,M,M,81.52,KCXP 101935Z AUTO VRB05G11KT 9SM CLR 29/05 A3018 RMK AO2,M
RTS,2023-09-10 19:35,-119.8764,39.6682,1539.00,78.80,35.60,21.00,0.00,0.00,0.00,30.20,M,10.00,M,CLR,M,M,M,M,M,M,M,M,M,M,M,M,M,M,78.80,KRTS 101935Z AUTO 00000KT 10SM CLR 26/02 A3020 RMK AO2,M
BAM,2023-09-10 19:35,-116.8743,40.5990,1382.36,82.40,46.40,28.36,190.00,6.00,0.00,30.19,M,10.00,M,CLR,M,M,M,M,M,M,M,M,M,M,M,M,M,M,80.64,KBAM 101935Z AUTO 19006KT 10SM CLR 28/08 A3019 RMK AO1,M
TMT,2023-09-10 19:35,-117.1971,39.4643,1749.34,76.50,44.40,31.90,340.00,3.00,0.00,30.26,M,M,M,CLR,M,M,M,M,M,M,M,M,M,M,M,M,M,M,76.50,KTMT 101935Z AUTO 34003KT CLR 25/07 A3026 RMK AO2 T02470069 PWINO,M
INS,2023-09-10 19:44,-115.6733,36.5872,955.00,80.60,50.00,34.41,0.00,0.00,0.00,30.14,1015.90,10.00,M,BKN,BKN,M,M,12000.00,15000.00,M,M,M,M,M,M,M,M,M,79.88,KINS 101944Z AUTO 00000KT 10SM BKN120 BKN150 27/10 A3014 RMK AO2 DZB11E24DZB33E44 SLP159 $,M
05U,2023-09-10 19:50,-116.0051,39.6042,1811.23,78.80,39.20,24.19,M,4.00,0.00,30.28,M,10.00,M,CLR,M,M,M,M,M,M,M,M,M,M,M,M,M,M,78.80,K05U 101950Z AUTO VRB04KT 10SM CLR 26/04 A3028 RMK A01,M
P68,2023-09-10 19:53,-116.0056,39.6014,1993.00,79.00,39.00,23.85,M,5.00,0.00,30.24,1015.90,M,M,M,M,M,M,M,M,M,M,M,M,M,M,M,M,M,79.00,KP68 101953Z AUTO VRB05KT 26/04 A3024 RMK AO1 SLP159 T02610039,M
DRA,2023-09-10 19:53,-116.0278,36.6206,1009.00,82.00,53.00,36.74,20.00,12.00,0.00,30.15,1016.00,10.00,M,SCT,M,M,M,12000.00,M,M,M,M,M,M,M,M,M,M,81.10,KDRA 101953Z AUTO 02012KT 10SM SCT120 28/12 A3015 RMK AO2 SLP160 T02780117,M
ELY,2023-09-10 19:53,-114.8453,39.2950,1909.00,76.00,43.00,30.75,230.00,3.00,0.00,30.27,1015.70,10.00,M,CLR,M,M,M,M,M,M,M,M,M,M,M,M,M,M,76.00,KELY 101953Z AUTO 23003KT 10SM CLR 24/06 A3027 RMK AO2 SLP157 T02440061,M
VGT,2023-09-10 19:53,-115.1933,36.2111,667.00,88.00,54.00,31.43,340.00,11.00,0.00,30.08,1017.40,10.00,M,BKN,M,M,M,10000.00,M,M,M,M,M,M,M,M,M,M,85.98,KVGT 101953Z 34011KT 10SM BKN100 31/12 A3008 RMK AO2 SLP174 T03110122,M
LOL,2023-09-10 19:53,-118.5701,40.0684,1192.43,82.00,48.00,30.51,170.00,8.00,0.00,30.13,1016.60,10.00,M,CLR,M,M,M,M,M,M,M,M,M,M,M,M,M,M,80.53,KLOL 101953Z AUTO 17008KT 10SM CLR 28/09 A3013 RMK AO2 SLP166 T02780089,M
BVU,2023-09-10 19:55,-114.8611,35.9475,671.00,87.80,50.00,27.29,10.00,6.00,0.00,30.07,M,10.00,M,CLR,M,M,M,M,M,M,M,M,M,M,M,M,M,M,85.11,KBVU 101955Z AUTO 01006KT 10SM CLR 31/10 A3007 RMK AO2,M
CXP,2023-09-10 19:55,-119.7326,39.1923,1431.00,82.40,41.00,23.07,0.00,0.00,0.00,30.17,M,9.00,M,FEW,M,M,M,9000.00,M,M,M,M,M,M,M,M,M,M,80.29,KCXP 101955Z AUTO 00000KT 9SM FEW090 28/05 A3017 RMK AO2,M
RNO,2023-09-10 19:55,-119.7711,39.4839,1341.00,83.00,41.00,22.62,180.00,5.00,0.00,30.15,1015.60,10.00,M,FEW,M,M,M,10000.00,M,M,M,M,M,M,M,M,M,M,80.69,KRNO 101955Z 18005KT 10SM FEW100 28/05 A3015 RMK AO2 SLP156 T02830050,M
LSV,2023-09-10 19:55,-115.0343,36.2362,570.00,89.00,52.50,28.82,20.00,8.00,0.00,30.04,1014.70,10.00,M,FEW,M,M,M,12000.00,M,M,M,M,M,M,M,M,M,M,86.58,KLSV 101955Z AUTO 02008KT 10SM FEW120 32/11 A3004 RMK AO2 SLP147 T03160114 $,M
RTS,2023-09-10 19:55,-119.8764,39.6682,1539.00,78.80,37.40,22.54,M,4.00,0.00,30.20,M,10.00,M,CLR,M,M,M,M,M,M,M,M,M,M,M,M,M,M,78.80,KRTS 101955Z AUTO VRB04KT 10SM CLR 26/03 A3020 RMK AO2,M
MEV,2023-09-10 19:55,-119.7500,38.9963,1441.42,82.40,42.80,24.72,M,3.00,0.00,30.16,M,6.00,M,CLR,M,M,M,M,M,M,M,HZ,M,M,M,M,M,M,80.39,KMEV 101955Z AUTO VRB03KT 6SM HZ CLR 28/06 A3016 RMK AO2,M
BAM,2023-09-10 19:55,-116.8743,40.5990,1382.36,82.40,46.40,28.36,220.00,4.00,0.00,30.18,M,10.00,M,CLR,M,M,M,M,M,M,M,M,M,M,M,M,M,M,80.64,KBAM 101955Z AUTO 22004KT 10SM CLR 28/08 A3018 RMK AO1,M
HTH,2023-09-10 19:55,-118.6315,38.5448,1282.89,84.20,48.20,28.63,60.00,8.00,0.00,30.14,M,10.00,M,CLR,M,M,M,M,M,M,M,M,M,M,M,M,M,M,82.04,KHTH 101955Z AUTO 06008KT 10SM CLR 29/09 A3014 RMK A01,M
TMT,2023-09-10 19:55,-117.1971,39.4643,1749.34,77.70,38.70,24.60,0.00,0.00,0.00,30.25,M,M,M,CLR,M,M,M,M,M,M,M,M,M,M,M,M,M,M,77.70,KTMT 101955Z AUTO 00000KT CLR 25/04 A3025 RMK AO2 T02540037 PWINO,M
10U,2023-09-10 19:55,-116.1876,41.9532,1637.00,78.80,37.40,22.54,260.00,7.00,0.00,30.23,M,10.00,M,CLR,M,M,M,M,M,M,M,M,M,M,M,M,M,M,78.80,K10U 101955Z AUTO 26007KT 10SM CLR 26/03 A3023 RMK AO2,M
INS,2023-09-10 19:55,-115.6733,36.5872,955.00,81.30,49.50,33.02,350.00,5.00,T,30.14,1015.90,10.00,M,BKN,M,M,M,11000.00,M,M,M,M,M,M,M,M,M,M,80.24,KINS 101955Z AUTO 35005KT 10SM BKN110 27/10 A3014 RMK AO2 DZB11E24DZB33E44 SLP159 P0000 T02740097 $,M
EKO,2023-09-10 19:56,-115.7860,40.8242,1367.00,81.00,43.00,26.08,240.00,9.00,0.00,30.20,1017.40,10.00,14.00,CLR,M,M,M,M,M,M,M,M,M,M,M,M,M,M,79.54,KEKO 101956Z AUTO 24009G14KT 10SM CLR 27/06 A3020 RMK AO2 SLP174 T02720061,M
WMC,2023-09-10 19:56,-117.8072,40.9019,1315.00,82.00,44.00,26.23,230.00,3.00,0.00,30.15,1016.50,10.00,M,SCT,M,M,M,8500.00,M,M,M,M,M,M,M,M,M,M,80.21,KWMC 101956Z AUTO 23003KT 10SM SCT085 28/07 A3015 RMK AO2 SLP165 T02780067,M
HND,2023-09-10 19:56,-115.1344,35.9729,742.79,86.00,53.00,32.29,60.00,6.00,0.00,30.13,1018.70,10.00,M,FEW,SCT,M,M,9500.00,11000.00,M,M,M,M,M,M,M,M,M,84.07,KHND 101956Z 06006KT 10SM FEW095 SCT110 30/12 A3013 RMK AO2 SLP187 T03000117,M
LAS,2023-09-10 19:56,-115.1634,36.0719,663.00,86.00,51.00,30.00,100.00,5.00,0.00,30.09,1016.30,10.00,M,SCT,BKN,OVC,M,7000.00,9000.00,12000.00,M,M,M,M,M,M,M,M,83.75,KLAS 101956Z 10005KT 10SM SCT070 BKN090 OVC120 30/11 A3009 RMK AO2 SLP163 T03000106 $,M
NFL,2023-09-10 19:56,-118.7010,39.4166,1199.00,85.00,49.00,28.75,200.00,9.00,0.00,30.12,1016.50,10.00,M,FEW,M,M,M,9000.00,M,M,M,M,M,M,M,M,M,M,82.71,KNFL 101956Z 20009KT 10SM FEW090 29/09 A3012 RMK AO2 SLP165 TCU DSNT SW T02940094 $,M
05U,2023-09-10 20:10,-116.0051,39.6042,1811.23,80.60,37.40,21.25,0.00,0.00,0.00,30.26,M,10.00,M,CLR,M,M,M,M,M,M,M,M,M,M,M,M,M,M,79.02,K05U 102010Z AUTO 00000KT 10SM CLR 27/03 A3026 RMK A01,M
BVU,2023-09-10 20:15,-114.8611,35.9475,671.00,87.80,50.00,27.29,50.00,6.00,0.00,30.07,M,10.00,M,FEW,M,M,M,10000.00,M,M,M,M,M,M,M,M,M,M,85.11,KBVU 102015Z AUTO 05006KT 10SM FEW100 31/10 A3007 RMK AO2,M
CXP,2023-09-10 20:15,-119.7326,39.1923,1431.00,84.20,42.80,23.33,M,4.00,0.00,30.17,M,10.00,M,CLR,M,M,M,M,M,M,M,M,M,M,M,M,M,M,81.61,KCXP 102015Z AUTO VRB04KT 10SM CLR 29/06 A3017 RMK AO2,M
RTS,2023-09-10 20:15,-119.8764,39.6682,1539.00,78.80,35.60,21.00,M,6.00,0.00,30.20,M,10.00,M,CLR,M,M,M,M,M,M,M,M,M,M,M,M,M,M,78.80,KRTS 102015Z AUTO VRB06KT 10SM CLR 26/02 A3020 RMK AO2,M
MEV,2023-09-10 20:15,-119.7500,38.9963,1441.42,84.20,42.80,23.33,0.00,0.00,0.00,30.15,M,9.00,M,CLR,M,M,M,M,M,M,M,M,M,M,M,M,M,M,81.61,KMEV 102015Z AUTO 00000KT 9SM CLR 29/06 A3015 RMK AO2,M
BAM,2023-09-10 20:15,-116.8743,40.5990,1382.36,84.20,46.40,26.76,280.00,6.00,0.00,30.17,M,10.00,M,CLR,M,M,M,M,M,M,M,M,M,M,M,M,M,M,81.87,KBAM 102015Z AUTO 28006KT 10SM CLR 29/08 A3017 RMK AO1,M
HTH,2023-09-10 20:15,-118.6315,38.5448,1282.89,84.20,48.20,28.63,70.00,11.00,0.00,30.14,M,10.00,M,CLR,M,M,M,M,M,M,M,M,M,M,M,M,M,M,82.04,KHTH 102015Z AUTO 07011KT 10SM CLR 29/09 A3014 RMK A01,M
10U,2023-09-10 20:15,-116.1876,41.9532,1637.00,78.80,37.40,22.54,0.00,0.00,0.00,30.23,M,10.00,M,CLR,M,M,M,M,M,M,M,M,M,M,M,M,M,M,78.80,K10U 102015Z AUTO 00000KT 10SM CLR 26/03 A3023 RMK AO2,M
TMT,2023-09-10 20:15,-117.1971,39.4643,1749.34,78.00,40.60,26.23,300.00,4.00,0.00,30.24,M,M,M,CLR,M,M,M,M,M,M,M,M,M,M,M,M,M,M,78.00,KTMT 102015Z AUTO 30004KT CLR 26/05 A3024 RMK AO2 T02550048 PWINO,M
05U,2023-09-10 20:30,-116.0051,39.6042,1811.23,80.60,39.20,22.81,240.00,8.00,0.00,30.26,M,10.00,M,FEW,M,M,M,10000.00,M,M,M,M,M,M,M,M,M,M,79.10,K05U 102030Z AUTO 24008KT 10SM FEW100 27/04 A3026 RMK A01,M
LSV,2023-09-10 20:34,-115.0343,36.2362,570.00,87.80,53.60,31.17,40.00,9.00,0.00,30.04,1014.70,10.00,M,FEW,M,M,M,12000.00,M,M,M,-DZ,M,M,M,M,M,M,85.72,KLSV 102034Z AUTO 04009KT 10SM -DZ FEW120 31/12 A3004 RMK AO2 DZB34 SLP147 $,M
BVU,2023-09-10 20:35,-114.8611,35.9475,671.00,87.80,50.00,27.29,0.00,0.00,0.00,30.07,M,10.00,M,FEW,M,M,M,10000.00,M,M,M,M,M,M,M,M,M,M,85.11,KBVU 102035Z AUTO 00000KT 10SM FEW100 31/10 A3007 RMK AO2,M
CXP,2023-09-10 20:35,-119.7326,39.1923,1431.00,82.40,41.00,23.07,M,4.00,0.00,30.16,M,10.00,M,CLR,M,M,M,M,M,M,M,M,M,M,M,M,M,M,80.29,KCXP 102035Z AUTO VRB04KT 10SM CLR 28/05 A3016 RMK AO2,M
RTS,2023-09-10 20:35,-119.8764,39.6682,1539.00,80.60,37.40,21.25,340.00,7.00,0.00,30.19,M,10.00,13.00,CLR,M,M,M,M,M,M,M,M,M,M,M,M,M,M,79.02,KRTS 102035Z AUTO 34007G13KT 310V010 10SM CLR 27/03 A3019 RMK AO2,M
MEV,2023-09-10 20:35,-119.7500,38.9963,1441.42,84.20,42.80,23.33,210.00,5.00,0.00,30.15,M,7.00,M,CLR,M,M,M,M,M,M,M,M,M,M,M,M,M,M,81.61,KMEV 102035Z AUTO 21005KT 7SM CLR 29/06 A3015 RMK AO2,M
HTH,2023-09-10 20:35,-118.6315,38.5448,1282.89,84.20,48.20,28.63,50.00,8.00,0.00,30.13,M,10.00,14.00,CLR,M,M,M,M,M,M,M,M,M,M,M,M,M,M,82.04,KHTH 102035Z AUTO 05008G14KT 10SM CLR 29/09 A3013 RMK A01,M
10U,2023-09-10 20:35,-116.1876,41.9532,1637.00,78.80,33.80,19.55,M,6.00,0.00,30.22,M,10.00,12.00,CLR,M,M,M,M,M,M,M,M,M,M,M,M,M,M,78.80,K10U 102035Z AUTO VRB06G12KT 10SM CLR 26/01 A3022 RMK AO2,M
BAM,2023-09-10 20:35,-116.8743,40.5990,1382.36,84.20,46.40,26.76,230.00,5.00,0.00,30.16,M,10.00,M,CLR,M,M,M,M,M,M,M,M,M,M,M,M,M,M,81.87,KBAM 102035Z AUTO 23005KT 10SM CLR 29/08 A3016 RMK AO1,M
TMT,2023-09-10 20:35,-117.1971,39.4643,1749.34,77.50,41.40,27.50,330.00,3.00,0.00,30.24,M,M,M,SCT,M,M,M,12000.00,M,M,M,M,M,M,M,M,M,M,77.50,KTMT 102035Z AUTO 33003KT SCT120 25/05 A3024 RMK AO2 T02530052 PWINO,M
LSV,2023-09-10 20:43,-115.0343,36.2362,570.00,87.80,53.60,31.17,40.00,9.00,0.00,30.04,1014.70,10.00,M,FEW,M,M,M,12000.00,M,M,M,M,M,M,M,M,M,M,85.72,KLSV 102043Z AUTO 04009KT 10SM FEW120 31/12 A3004 RMK AO2 DZB34E43 SLP147 $,M
05U,2023-09-10 20:50,-116.0051,39.6042,1811.23,80.60,37.40,21.25,150.00,12.00,0.00,30.26,M,10.00,M,BKN,M,M,M,10000.00,M,M,M,M,M,M,M,M,M,M,79.02,K05U 102050Z AUTO 15012KT 10SM BKN100 27/03 A3026 RMK A01,M
P68,2023-09-10 20:53,-116.0056,39.6014,1993.00,77.00,37.00,23.55,340.00,15.00,0.00,30.22,1015.10,M,25.00,M,M,M,M,M,M,M,M,M,M,M,M,M,M,M,77.00,KP68 102053Z AUTO 34015G25KT 25/03 A3022 RMK AO1 SLP151 T02500028 58016,M
DRA,2023-09-10 20:53,-116.0278,36.6206,1009.00,81.00,53.00,37.95,30.00,15.00,0.00,30.13,1015.70,10.00,M,OVC,M,M,M,11000.00,M,M,M,M,M,M,M,M,M,M,80.46,KDRA 102053Z AUTO 03015KT 10SM OVC110 27/12 A3013 RMK AO2 SLP157 T02720117 58001,M
ELY,2023-09-10 20:53,-114.8453,39.2950,1909.00,77.00,40.00,26.49,220.00,4.00,0.00,30.25,1015.10,10.00,M,CLR,M,M,M,M,M,M,M,M,M,M,M,M,M,M,77.00,KELY 102053Z AUTO 22004KT 10SM CLR 25/04 A3025 RMK AO2 SLP151 T02500044 56017,M
VGT,2023-09-10 20:53,-115.1933,36.2111,667.00,87.00,56.00,34.90,340.00,8.00,0.00,30.08,1017.40,10.00,M,FEW,M,M,M,11000.00,M,M,M,M,M,M,M,M,M,M,85.54,KVGT 102053Z 34008KT 10SM FEW110 31/13 A3008 RMK AO2 SLP174 T03060133 50005,M
LOL,2023-09-10 20:53,-118.5701,40.0684,1192.43,85.00,46.00,25.69,210.00,9.00,0.00,30.11,1015.80,10.00,15.00,CLR,M,M,M,M,M,M,M,M,M,M,M,M,M,M,82.42,KLOL 102053Z AUTO 21009G15KT 10SM CLR 29/08 A3011 RMK AO2 SLP158 T02940078 58017,M
BVU,2023-09-10 20:55,-114.8611,35.9475,671.00,87.80,51.80,29.18,320.00,7.00,0.00,30.07,M,10.00,M,CLR,M,M,M,M,M,M,M,M,M,M,M,M,M,M,85.39,KBVU 102055Z AUTO 32007KT 10SM CLR 31/11 A3007 RMK AO2,M
CXP,2023-09-10 20:55,-119.7326,39.1923,1431.00,84.20,37.40,18.91,230.00,8.00,0.00,30.16,M,10.00,M,CLR,M,M,M,M,M,M,M,M,M,M,M,M,M,M,81.38,KCXP 102055Z AUTO 23008KT 10SM CLR 29/03 A3016 RMK AO2,M
RNO,2023-09-10 20:55,-119.7711,39.4839,1341.00,84.00,39.00,20.27,50.00,6.00,0.00,30.13,1015.00,10.00,M,FEW,M,M,M,10000.00,M,M,M,M,M,M,M,M,M,M,81.29,KRNO 102055Z 05006KT 10SM FEW100 29/04 A3013 RMK AO2 SLP150 T02890039 58017,M
RTS,2023-09-10 20:55,-119.8764,39.6682,1539.00,80.60,37.40,21.25,M,5.00,0.00,30.19,M,10.00,12.00,CLR,M,M,M,M,M,M,M,M,M,M,M,M,M,M,79.02,KRTS 102055Z AUTO VRB05G12KT 10SM CLR 27/03 A3019 RMK AO2,M
MEV,2023-09-10 20:55,-119.7500,38.9963,1441.42,84.20,41.00,21.76,M,4.00,0.00,30.14,M,9.00,M,CLR,M,M,M,M,M,M,M,M,M,M,M,M,M,M,81.52,KMEV 102055Z AUTO VRB04KT 9SM CLR 29/05 A3014 RMK AO2,M
HTH,2023-09-10 20:55,-118.6315,38.5448,1282.89,82.40,46.40,28.36,M,6.00,0.00,30.12,M,10.00,13.00,CLR,M,M,M,M,M,M,M,M,M,M,M,M,M,M,80.64,KHTH 102055Z AUTO VRB06G13KT 10SM CLR 28/08 A3012 RMK A01,M
BAM,2023-09-10 20:55,-116.8743,40.5990,1382.36,86.00,41.00,20.54,220.00,9.00,0.00,30.15,M,10.00,M,CLR,M,M,M,M,M,M,M,M,M,M,M,M,M,M,82.86,KBAM 102055Z AUTO 22009KT 170V240 10SM CLR 30/05 A3015 RMK AO1,M
TMT,2023-09-10 20:55,-117.1971,39.4643,1749.34,76.60,42.00,29.00,270.00,3.00,0.00,30.24,M,M,M,SCT,M,M,M,12000.00,M,M,M,M,M,M,M,M,M,M,76.60,KTMT 102055Z AUTO 27003KT SCT120 25/06 A3024 RMK AO2 LTG DSNT SW AND W T02480055 PWINO,M
10U,2023-09-10 20:55,-116.1876,41.9532,1637.00,78.80,35.60,21.00,200.00,7.00,0.00,30.21,M,10.00,M,CLR,M,M,M,M,M,M,M,M,M,M,M,M,M,M,78.80,K10U 102055Z AUTO 20007KT 10SM CLR 26/02 A3021 RMK AO2,M
INS,2023-09-10 20:55,-115.6733,36.5872,955.00,80.60,51.00,35.72,60.00,10.00,0.00,30.13,1015.60,10.00,M,SCT,OVC,M,M,8000.00,10000.00,M,M,M,M,M,M,M,M,M,79.99,KINS 102055Z AUTO 06010KT 10SM SCT080 OVC100 27/11 A3013 RMK AO2 SLP156 60000 T02700106 58001 $,M
LSV,2023-09-10 20:55,-115.0343,36.2362,570.00,87.60,53.20,30.91,20.00,7.00,T,30.04,1014.70,10.00,M,FEW,M,M,M,11000.00,M,M,M,M,M,M,M,M,M,M,85.47,KLSV 102055Z AUTO 02007KT 10SM FEW110 31/12 A3004 RMK AO2 DZB34E43 SLP147 P0000 60000 T03090118 50011 $,M
EKO,2023-09-10 20:56,-115.7860,40.8242,1367.00,83.00,37.00,19.35,M,6.00,0.00,30.18,1016.30,10.00,15.00,CLR,M,M,M,M,M,M,M,M,M,M,M,M,M,M,80.53,KEKO 102056Z AUTO VRB06G15KT 10SM CLR 28/03 A3018 RMK AO2 SLP163 T02830028 58016,M
WMC,2023-09-10 20:56,-117.8072,40.9019,1315.00,86.00,39.00,19.01,230.00,6.00,0.00,30.14,1015.70,10.00,17.00,CLR,M,M,M,M,M,M,M,M,M,M,M,M,M,M,82.78,KWMC 102056Z AUTO 23006G17KT 10SM CLR 30/04 A3014 RMK AO2 SLP157 T03000039 58012,M
NFL,2023-09-10 20:56,-118.7010,39.4166,1199.00,86.00,47.00,25.83,M,5.00,0.00,30.09,1015.80,10.00,M,SCT,M,M,M,9000.00,M,M,M,M,M,M,M,M,M,M,83.28,KNFL 102056Z VRB05KT 10SM SCT090 30/08 A3009 RMK AO2 SLP158 CB DSNT SW T03000083 58018 $,M
HND,2023-09-10 20:56,-115.1344,35.9729,742.79,85.00,54.00,34.59,70.00,5.00,T,30.12,1018.70,10.00,M,SCT,SCT,OVC,M,7000.00,9000.00,11000.00,M,-RA,M,M,M,M,M,M,83.45,KHND 102056Z 07005KT 10SM -RA SCT070 SCT090 OVC110 29/12 A3012 RMK AO2 RAB44 SLP187 P0000 60000 T02940122 50002,M
LAS,2023-09-10 20:56,-115.1634,36.0719,663.00,86.00,53.00,32.29,110.00,5.00,0.00,30.08,1016.00,10.00,M,FEW,BKN,OVC,M,4400.00,9500.00,12000.00,M,M,M,M,M,M,M,M,84.07,KLAS 102056Z 11005KT 10SM FEW044 BKN095 OVC120 30/12 A3008 RMK AO2 SLP160 T03000117 50000 $,M
05U,2023-09-10 21:10,-116.0051,39.6042,1811.23,71.60,41.00,33.00,170.00,13.00,0.00,30.26,M,7.00,22.00,FEW,BKN,M,M,7000.00,9500.00,M,M,M,M,M,M,M,M,M,71.60,K05U 102110Z AUTO 17013G22KT 7SM FEW070 BKN095 22/05 A3026 RMK A01,M
BVU,2023-09-10 21:15,-114.8611,35.9475,671.00,86.00,51.80,30.90,320.00,8.00,0.00,30.07,M,10.00,M,CLR,M,M,M,M,M,M,M,M,M,M,M,M,M,M,83.87,KBVU 102115Z AUTO 32008KT 10SM CLR 30/11 A3007 RMK AO2,M
CXP,2023-09-10 21:15,-119.7326,39.1923,1431.00,86.00,37.40,17.85,230.00,7.00,0.00,30.15,M,10.00,12.00,CLR,M,M,M,M,M,M,M,M,M,M,M,M,M,M,82.73,KCXP 102115Z AUTO 23007G12KT 10SM CLR 30/03 A3015 RMK AO2 LTG DSNT SE,M
RTS,2023-09-10 21:15,-119.8764,39.6682,1539.00,80.60,37.40,21.25,M,4.00,0.00,30.18,M,10.00,14.00,CLR,M,M,M,M,M,M,M,M,M,M,M,M,M,M,79.02,KRTS 102115Z AUTO VRB04G14KT 10SM CLR 27/03 A3018 RMK AO2,M
MEV,2023-09-10 21:15,-119.7500,38.9963,1441.42,84.20,41.00,21.76,30.00,6.00,0.00,30.14,M,9.00,11.00,SCT,M,M,M,9000.00,M,M,M,M,M,M,M,M,M,M,81.52,KMEV 102115Z AUTO 03006G11KT 9SM SCT090 29/05 A3014 RMK AO2 LTG DSNT SE,M
BAM,2023-09-10 21:15,-116.8743,40.5990,1382.36,86.00,41.00,20.54,320.00,6.00,0.00,30.15,M,10.00,14.00,SCT,M,M,M,10000.00,M,M,M,M,M,M,M,M,M,M,82.86,KBAM 102115Z AUTO 32006G14KT 280V340 10SM SCT100 30/05 A3015 RMK AO1,M
HTH,2023-09-10 21:15,-118.6315,38.5448,1282.89,82.40,46.40,28.36,90.00,5.00,0.00,30.12,M,10.00,12.00,FEW,FEW,SCT,M,4900.00,6000.00,10000.00,M,M,M,M,M,M,M,M,80.64,KHTH 102115Z AUTO 09005G12KT 10SM FEW049 FEW060 SCT100 28/08 A3012 RMK A01,M
10U,2023-09-10 21:15,-116.1876,41.9532,1637.00,78.80,32.00,18.18,M,4.00,0.00,30.21,M,10.00,10.00,CLR,M,M,M,M,M,M,M,M,M,M,M,M,M,M,78.80,K10U 102115Z AUTO VRB04G10KT 10SM CLR 26/M00 A3021 RMK AO2,M
TMT,2023-09-10 21:15,-117.1971,39.4643,1749.34,77.00,40.60,27.11,290.00,4.00,0.00,30.23,M,M,M,BKN,M,M,M,8500.00,M,M,M,M,M,M,M,M,M,M,77.00,KTMT 102115Z AUTO 29004KT BKN085 25/05 A3023 RMK AO2 LTG DSNT S AND SW T02490048 PWINO,M
05U,2023-09-10 21:30,-116.0051,39.6042,1811.23,78.80,35.60,21.00,160.00,7.00,0.00,30.25,M,10.00,13.00,BKN,M,M,M,10000.00,M,M,M,M,M,M,M,M,M,M,78.80,K05U 102130Z AUTO 16007G13KT 10SM BKN100 26/02 A3025 RMK A01,M
MEV,2023-09-10 21:35,-119.7500,38.9963,1441.42,84.20,41.00,21.76,M,4.00,0.00,30.13,M,10.00,14.00,FEW,M,M,M,9000.00,M,M,M,M,M,M,M,M,M,M,81.52,KMEV 102135Z AUTO VRB04G14KT 10SM FEW090 29/05 A3013 RMK AO2,M
BVU,2023-09-10 21:35,-114.8611,35.9475,671.00,86.00,51.80,30.90,350.00,7.00,0.00,30.05,M,10.00,M,CLR,M,M,M,M,M,M,M,M,M,M,M,M,M,M,83.87,KBVU 102135Z AUTO 35007KT 10SM CLR 30/11 A3005 RMK AO2,M
CXP,2023-09-10 21:35,-119.7326,39.1923,1431.00,86.00,37.40,17.85,210.00,8.00,0.00,30.15,M,10.00,14.00,CLR,M,M,M,M,M,M,M,M,M,M,M,M,M,M,82.73,KCXP 102135Z AUTO 21008G14KT 180V250 10SM CLR 30/03 A3015 RMK AO2,M
RTS,2023-09-10 21:35,-119.8764,39.6682,1539.00,82.40,37.40,20.04,0.00,0.00,0.00,30.17,M,10.00,12.00,CLR,M,M,M,M,M,M,M,M,M,M,M,M,M,M,80.14,KRTS 102135Z AUTO 00000G12KT 10SM CLR 28/03 A3017 RMK AO2,M
BAM,2023-09-10 21:35,-116.8743,40.5990,1382.36,84.20,46.40,26.76,350.00,5.00,0.00,30.14,M,10.00,M,SCT,M,M,M,10000.00,M,M,M,M,M,M,M,M,M,M,81.87,KBAM 102135Z AUTO 35005KT 10SM SCT100 29/08 A3014 RMK AO1,M
TMT,2023-09-10 21:35,-117.1971,39.4643,1749.34,76.30,42.00,29.29,30.00,7.00,0.00,30.22,M,M,M,BKN,OVC,M,M,8500.00,10000.00,M,M,M,M,M,M,M,M,M,76.30,KTMT 102135Z AUTO 03007KT BKN085 OVC100 25/06 A3022 RMK AO2 LTG DSNT SW T02460056 PWINO,M
HTH,2023-09-10 21:35,-118.6315,38.5448,1282.89,73.40,55.40,53.29,210.00,18.00,0.00,30.14,M,5.00,28.00,FEW,FEW,OVC,M,400.00,4700.00,8500.00,M,HZ,M,M,M,M,M,M,73.40,KHTH 102135Z AUTO 21018G28KT 5SM HZ FEW004 FEW047 OVC085 23/13 A3014 RMK A01,M
10U,2023-09-10 21:35,-116.1876,41.9532,1637.00,78.80,33.80,19.55,180.00,8.00,0.00,30.20,M,10.00,M,CLR,M,M,M,M,M,M,M,M,M,M,M,M,M,M,78.80,K10U 102135Z AUTO 18008KT 10SM CLR 26/01 A3020 RMK AO2,M
05U,2023-09-10 21:50,-116.0051,39.6042,1811.23,82.40,39.20,21.51,170.00,5.00,0.00,30.24,M,10.00,11.00,SCT,M,M,M,11000.00,M,M,M,M,M,M,M,M,M,M,80.21,K05U 102150Z AUTO 17005G11KT 10SM SCT110 28/04 A3024 RMK A01,M
P68,2023-09-10 21:53,-116.0056,39.6014,1993.00,80.00,39.00,23.08,340.00,8.00,0.00,30.21,1014.80,M,M,M,M,M,M,M,M,M,M,M,M,M,M,37.00,350.00,2023-09-10 21:01,78.78,KP68 102153Z AUTO 34008KT 27/04 A3021 RMK AO1 PK WND 35037/2101 SLP148 T02670039,M
DRA,2023-09-10 21:53,-116.0278,36.6206,1009.00,80.00,54.00,40.67,30.00,14.00,0.00,30.12,1015.40,10.00,M,OVC,M,M,M,9500.00,M,M,M,M,M,M,M,M,M,M,79.98,KDRA 102153Z AUTO 03014KT 10SM OVC095 27/12 A3012 RMK AO2 SLP154 T02670122,M
ELY,2023-09-10 21:53,-114.8453,39.2950,1909.00,78.00,40.00,25.62,310.00,7.00,0.00,30.23,1013.90,10.00,M,CLR,M,M,M,M,M,M,M,M,M,M,M,M,M,M,78.00,KELY 102153Z AUTO 31007KT 10SM CLR 26/04 A3023 RMK AO2 SLP139 T02560044,M
VGT,2023-09-10 21:53,-115.1933,36.2111,667.00,88.00,55.00,32.60,10.00,7.00,0.00,30.04,1016.10,10.00,M,BKN,M,M,M,12000.00,M,M,M,M,M,M,M,M,M,M,86.20,KVGT 102153Z 01007KT 10SM BKN120 31/13 A3004 RMK AO2 SLP161 T03110128,M
LOL,2023-09-10 21:53,-118.5701,40.0684,1192.43,86.00,46.00,24.88,10.00,4.00,0.00,30.08,1014.90,10.00,M,CLR,M,M,M,M,M,M,M,M,M,M,M,M,M,M,83.19,KLOL 102153Z AUTO 01004KT 10SM CLR 30/08 A3008 RMK AO2 SLP149 T03000078,M
BVU,2023-09-10 21:55,-114.8611,35.9475,671.00,86.00,53.60,33.01,20.00,11.00,0.00,30.03,M,10.00,M,FEW,M,M,M,12000.00,M,M,M,M,M,M,M,M,M,M,84.18,KBVU 102155Z AUTO 02011KT 10SM FEW120 30/12 A3003 RMK AO2,M
CXP,2023-09-10 21:55,-119.7326,39.1923,1431.00,86.00,39.20,19.15,M,6.00,0.00,30.14,M,10.00,13.00,CLR,M,M,M,M,M,M,M,M,M,M,M,M,M,M,82.79,KCXP 102155Z AUTO VRB06G13KT 220V290 10SM CLR 30/04 A3014 RMK AO2,M
RNO,2023-09-10 21:55,-119.7711,39.4839,1341.00,87.00,39.00,18.41,170.00,9.00,0.00,30.11,1013.90,10.00,17.00,SCT,M,M,M,10000.00,M,M,M,M,M,M,M,M,M,M,83.57,KRNO 102155Z 17009G17KT 10SM SCT100 31/04 A3011 RMK AO2 SLP139 T03060039,M
BAM,2023-09-10 21:55,-116.8743,40.5990,1382.36,86.00,44.60,23.59,360.00,6.00,0.00,30.13,M,10.00,M,SCT,M,M,M,10000.00,M,M,M,M,M,M,M,M,M,M,83.07,KBAM 102155Z AUTO 36006KT 10SM SCT100 30/07 A3013 RMK AO1,M
TMT,2023-09-10 21:55,-117.1971,39.4643,1749.34,78.80,41.40,26.35,20.00,4.00,0.00,30.22,M,M,M,SCT,M,M,M,9500.00,M,M,M,M,M,M,M,M,M,M,78.80,KTMT 102155Z AUTO 02004KT SCT095 26/05 A3022 RMK AO2 T02600052 PWINO,M
RTS,2023-09-10 21:55,-119.8764,39.6682,1539.00,80.60,37.40,21.25,M,6.00,0.00,30.17,M,10.00,16.00,CLR,M,M,M,M,M,M,M,M,M,M,M,M,M,M,79.02,KRTS 102155Z AUTO VRB06G16KT 10SM CLR 27/03 A3017 RMK AO2,M
MEV,2023-09-10 21:55,-119.7500,38.9963,1441.42,84.20,41.00,21.76,300.00,11.00,0.00,30.13,M,7.00,M,CLR,M,M,M,M,M,M,M,M,M,M,M,M,M,M,81.52,KMEV 102155Z AUTO 30011KT 7SM CLR 29/05 A3013 RMK AO2,M
HTH,2023-09-10 21:55,-118.6315,38.5448,1282.89,68.00,53.60,59.97,200.00,20.00,0.05,30.15,M,M,26.00,SCT,SCT,OVC,M,300.00,3600.00,8000.00,M,M,M,M,M,M,M,M,68.00,KHTH 102155Z AUTO 20020G26KT SCT003 SCT036 OVC080 20/12 A3015 RMK A01 P0005,M
10U,2023-09-10 21:55,-116.1876,41.9532,1637.00,80.60,32.00,17.14,270.00,8.00,0.00,30.19,M,10.00,14.00,CLR,M,M,M,M,M,M,M,M,M,M,M,M,M,M,78.82,K10U 102155Z AUTO 27008G14KT 230V300 10SM CLR 27/M00 A3019 RMK AO2,M
INS,2023-09-10 21:55,-115.6733,36.5872,955.00,80.80,51.30,35.88,80.00,7.00,0.00,30.11,1014.90,10.00,16.00,OVC,M,M,M,11000.00,M,M,M,M,M,M,M,M,M,M,80.14,KINS 102155Z AUTO 08007G16KT 10SM OVC110 27/11 A3011 RMK AO2 SLP149 T02710107 $,M
LSV,2023-09-10 21:55,-115.0343,36.2362,570.00,88.00,53.60,30.98,20.00,11.00,0.00,30.00,1013.40,10.00,M,FEW,M,M,M,11000.00,M,M,M,M,M,M,M,M,M,M,85.90,KLSV 102155Z AUTO 02011KT 10SM FEW110 31/12 A3000 RMK AO2 SLP134 T03120120 $,M
EKO,2023-09-10 21:56,-115.7860,40.8242,1367.00,84.00,34.00,16.63,280.00,8.00,0.00,30.16,1015.90,10.00,M,CLR,M,M,M,M,M,M,M,M,M,M,M,M,M,M,81.16,KEKO 102156Z AUTO 28008KT 270V330 10SM CLR 29/01 A3016 RMK AO2 SLP159 T02890011,M
WMC,2023-09-10 21:56,-117.8072,40.9019,1315.00,86.00,38.00,18.28,M,5.00,0.00,30.12,1015.30,10.00,15.00,CLR,M,M,M,M,M,M,M,M,M,M,M,M,M,M,82.75,KWMC 102156Z AUTO VRB05G15KT 10SM CLR 30/03 A3012 RMK AO2 SLP153 T03000033,M
NFL,2023-09-10 21:56,-118.7010,39.4166,1199.00,87.00,45.00,23.20,M,4.00,0.00,30.07,1015.00,10.00,M,SCT,SCT,M,M,9000.00,15000.00,M,M,M,M,M,M,M,M,M,83.90,KNFL 102156Z VRB04KT 10SM SCT090 SCT150 31/07 A3007 RMK AO2 SLP150 CB DSNT SW T03060072 $,M
HND,2023-09-10 21:56,-115.1344,35.9729,742.79,84.00,55.00,37.05,70.00,6.00,T,30.08,1017.40,10.00,M,FEW,OVC,M,M,7500.00,10000.00,M,M,-RA,M,M,M,M,M,M,82.85,KHND 102156Z 07006KT 10SM -RA FEW075 OVC100 29/13 A3008 RMK AO2 RAE2057B17E31B50 SLP174 P0000 T02890128,M
LAS,2023-09-10 21:56,-115.1634,36.0719,663.00,86.00,53.00,32.29,30.00,7.00,0.00,30.05,1014.70,10.00,M,OVC,M,M,M,11000.00,M,M,M,M,M,M,M,M,M,M,84.07,KLAS 102156Z AUTO 03007KT 10SM OVC110 30/12 A3005 RMK AO2 SLP147 T03000117 $,M
05U,2023-09-10 22:10,-116.0051,39.6042,1811.23,82.40,39.20,21.51,150.00,9.00,0.00,30.24,M,10.00,15.00,CLR,M,M,M,M,M,M,M,M,M,M,M,M,M,M,80.21,K05U 102210Z AUTO 15009G15KT 10SM CLR 28/04 A3024 RMK A01,M
BVU,2023-09-10 22:15,-114.8611,35.9475,671.00,86.00,53.60,33.01,30.00,8.00,0.00,30.03,M,10.00,M,SCT,M,M,M,11000.00,M,M,M,M,M,M,M,M,M,M,84.18,KBVU 102215Z AUTO 03008KT 10SM SCT110 30/12 A3003 RMK AO2,M
CXP,2023-09-10 22:15,-119.7326,39.1923,1431.00,84.20,39.20,20.29,290.00,12.00,0.00,30.14,M,10.00,M,CLR,M,M,M,M,M,M,M,M,M,M,M,M,M,M,81.44,KCXP 102215Z AUTO 29012KT 10SM CLR 29/04 A3014 RMK AO2,M
BAM,2023-09-10 22:15,-116.8743,40.5990,1382.36,86.00,44.60,23.59,20.00,5.00,0.00,30.13,M,10.00,M,SCT,M,M,M,9500.00,M,M,M,M,M,M,M,M,M,M,83.07,KBAM 102215Z AUTO 02005KT 10SM SCT095 30/07 A3013 RMK AO1,M
TMT,2023-09-10 22:15,-117.1971,39.4643,1749.34,78.00,39.20,24.84,300.00,6.00,0.00,30.22,M,M,M,CLR,M,M,M,M,M,M,M,M,M,M,M,M,M,M,78.00,KTMT 102215Z AUTO 30006KT CLR 26/04 A3022 RMK AO2 T02560040 PWINO,M
RTS,2023-09-10 22:15,-119.8764,39.6682,1539.00,82.40,35.60,18.67,250.00,9.00,0.00,30.17,M,10.00,15.00,CLR,M,M,M,M,M,M,M,M,M,M,M,M,M,M,80.08,KRTS 102215Z AUTO 25009G15KT 10SM CLR 28/02 A3017 RMK AO2,M
10U,2023-09-10 22:15,-116.1876,41.9532,1637.00,78.80,33.80,19.55,M,4.00,0.00,30.19,M,10.00,12.00,CLR,M,M,M,M,M,M,M,M,M,M,M,M,M,M,78.80,K10U 102215Z AUTO VRB04G12KT 10SM CLR 26/01 A3019 RMK AO2,M
05U,2023-09-10 22:30,-116.0051,39.6042,1811.23,80.60,37.40,21.25,150.00,7.00,0.00,30.23,M,10.00,13.00,CLR,M,M,M,M,M,M,M,M,M,M,M,M,M,M,79.02,K05U 102230Z AUTO 15007G13KT 130V190 10SM CLR 27/03 A3023 RMK A01,M
BVU,2023-09-10 22:35,-114.8611,35.9475,671.00,86.00,53.60,33.01,10.00,9.00,0.00,30.03,M,10.00,M,BKN,M,M,M,10000.00,M,M,M,M,M,M,M,M,M,M,84.18,KBVU 102235Z AUTO 01009KT 10SM BKN100 30/12 A3003 RMK AO2,M
CXP,2023-09-10 22:35,-119.7326,39.1923,1431.00,84.20,41.00,21.76,290.00,11.00,0.00,30.13,M,10.00,M,CLR,M,M,M,M,M,M,M,M,M,M,M,M,M,M,81.52,KCXP 102235Z AUTO 29011KT 10SM CLR 29/05 A3013 RMK AO2,M
RTS,2023-09-10 22:35,-119.8764,39.6682,1539.00,84.20,32.00,15.25,240.00,9.00,0.00,30.16,M,10.00,15.00,BKN,M,M,M,9500.00,M,M,M,M,M,M,M,M,M,M,81.28,KRTS 102235Z AUTO 24009G15KT 10SM BKN095 29/00 A3016 RMK AO2,M
MEV,2023-09-10 22:35,-119.7500,38.9963,1441.42,84.20,41.00,21.76,280.00,12.00,0.00,30.12,M,10.00,17.00,CLR,M,M,M,M,M,M,M,M,M,M,M,M,M,M,81.52,KMEV 102235Z AUTO 28012G17KT 10SM CLR 29/05 A3012 RMK AO2,M
BAM,2023-09-10 22:35,-116.8743,40.5990,1382.36,86.00,42.80,22.02,360.00,8.00,0.00,30.13,M,10.00,M,SCT,M,M,M,9500.00,M,M,M,M,M,M,M,M,M,M,82.95,KBAM 102235Z AUTO 36008KT 10SM SCT095 30/06 A3013 RMK AO1,M
HTH,2023-09-10 22:35,-118.6315,38.5448,1282.89,68.00,53.60,59.97,240.00,17.00,0.00,30.13,M,9.00,M,FEW,SCT,BKN,M,300.00,5500.00,8000.00,M,M,M,M,M,M,M,M,68.00,KHTH 102235Z AUTO 24017KT 9SM FEW003 SCT055 BKN080 20/12 A3013 RMK A01,M
10U,2023-09-10 22:35,-116.1876,41.9532,1637.00,80.60,32.00,17.14,0.00,0.00,0.00,30.19,M,10.00,10.00,CLR,M,M,M,M,M,M,M,M,M,M,M,M,M,M,78.82,K10U 102235Z AUTO 00000G10KT 10SM CLR 27/M00 A3019 RMK AO2,M
TMT,2023-09-10 22:35,-117.1971,39.4643,1749.34,78.60,37.00,22.34,0.00,0.00,0.00,30.21,M,M,M,CLR,M,M,M,M,M,M,M,M,M,M,M,M,M,M,78.60,KTMT 102235Z AUTO 00000KT CLR 26/03 A3021 RMK AO2 T02590027 PWINO,M
05U,2023-09-10 22:50,-116.0051,39.6042,1811.23,82.40,35.60,18.67,150.00,5.00,0.00,30.22,M,10.00,M,CLR,M,M,M,M,M,M,M,M,M,M,M,M,M,M,80.08,K05U 102250Z AUTO 15005KT 10SM CLR 28/02 A3022 RMK A01,M
P68,2023-09-10 22:53,-116.0056,39.6014,1993.00,81.00,35.00,19.08,340.00,6.00,0.00,30.19,1014.20,M,M,M,M,M,M,M,M,M,M,M,M,M,M,M,M,M,79.16,KP68 102253Z AUTO 34006KT 27/02 A3019 RMK AO1 SLP142 T02720017,M
DRA,2023-09-10 22:53,-116.0278,36.6206,1009.00,80.00,53.00,39.21,30.00,9.00,0.00,30.11,1014.90,10.00,M,BKN,OVC,M,M,8500.00,10000.00,M,M,M,M,M,M,M,M,M,79.87,KDRA 102253Z AUTO 03009KT 10SM BKN085 OVC100 27/12 A3011 RMK AO2 SLP149 T02670117,M
ELY,2023-09-10 22:53,-114.8453,39.2950,1909.00,77.00,39.00,25.47,250.00,6.00,0.00,30.21,1014.10,10.00,M,FEW,BKN,M,M,10000.00,12000.00,M,M,M,M,M,M,M,M,M,77.00,KELY 102253Z AUTO 25006KT 10SM FEW100 BKN120 25/04 A3021 RMK AO2 SLP141 T02500039,M
VGT,2023-09-10 22:53,-115.1933,36.2111,667.00,87.00,55.00,33.65,0.00,0.00,0.00,30.03,1015.90,10.00,M,OVC,M,M,M,11000.00,M,M,M,M,M,M,M,M,M,M,85.31,KVGT 102253Z 00000KT 10SM OVC110 31/13 A3003 RMK AO2 SLP159 T03060128,M
LOL,2023-09-10 22:53,-118.5701,40.0684,1192.43,86.00,46.00,24.88,M,5.00,0.00,30.06,1014.30,10.00,M,CLR,M,M,M,M,M,M,M,M,M,M,M,M,M,M,83.19,KLOL 102253Z AUTO VRB05KT 10SM CLR 30/08 A3006 RMK AO2 SLP143 T03000078,M
BVU,2023-09-10 22:55,-114.8611,35.9475,671.00,84.20,53.60,34.97,40.00,9.00,0.00,30.03,M,10.00,M,OVC,M,M,M,9500.00,M,M,M,M,M,M,M,M,M,M,82.76,KBVU 102255Z AUTO 04009KT 10SM OVC095 29/12 A3003 RMK AO2,M
CXP,2023-09-10 22:55,-119.7326,39.1923,1431.00,84.20,41.00,21.76,270.00,11.00,0.00,30.13,M,10.00,17.00,CLR,M,M,M,M,M,M,M,M,M,M,M,M,M,M,81.52,KCXP 102255Z AUTO 27011G17KT 10SM CLR 29/05 A3013 RMK AO2,M
RNO,2023-09-10 22:55,-119.7711,39.4839,1341.00,87.00,39.00,18.41,270.00,10.00,0.00,30.09,1013.50,10.00,22.00,SCT,M,M,M,10000.00,M,M,M,M,M,M,M,M,M,M,83.57,KRNO 102255Z 27010G22KT 10SM SCT100 31/04 A3009 RMK AO2 SLP135 T03060039,M
RTS,2023-09-10 22:55,-119.8764,39.6682,1539.00,84.20,35.60,17.61,290.00,11.00,0.00,30.16,M,10.00,M,BKN,M,M,M,9500.00,M,M,M,M,M,M,M,M,M,M,81.34,KRTS 102255Z AUTO 29011KT 10SM BKN095 29/02 A3016 RMK AO2,M
MEV,2023-09-10 22:55,-119.7500,38.9963,1441.42,84.20,42.80,23.33,270.00,13.00,0.00,30.12,M,10.00,M,CLR,M,M,M,M,M,M,M,M,M,M,M,M,M,M,81.61,KMEV 102255Z AUTO 27013KT 10SM CLR 29/06 A3012 RMK AO2,M
HTH,2023-09-10 22:55,-118.6315,38.5448,1282.89,69.80,55.40,60.21,170.00,7.00,0.07,30.14,M,10.00,19.00,FEW,M,M,M,11000.00,M,M,M,M,M,M,M,M,M,M,69.80,KHTH 102255Z AUTO 17007G19KT 10SM FEW110 21/13 A3014 RMK A01 P0007,M
BAM,2023-09-10 22:55,-116.8743,40.5990,1382.36,86.00,42.80,22.02,350.00,7.00,0.00,30.12,M,10.00,M,CLR,M,M,M,M,M,M,M,M,M,M,M,M,M,M,82.95,KBAM 102255Z AUTO 35007KT 10SM CLR 30/06 A3012 RMK AO1,M
TMT,2023-09-10 22:55,-117.1971,39.4643,1749.34,78.80,37.20,22.37,230.00,4.00,0.00,30.21,M,M,M,CLR,M,M,M,M,M,M,M,M,M,M,M,M,M,M,78.80,KTMT 102255Z AUTO 23004KT CLR 26/03 A3021 RMK AO2 LTG DSNT SW T02600029 PWINO,M
10U,2023-09-10 22:55,-116.1876,41.9532,1637.00,80.60,30.20,15.94,240.00,9.00,0.00,30.18,M,10.00,M,CLR,M,M,M,M,M,M,M,M,M,M,M,M,M,M,78.77,K10U 102255Z AUTO 24009KT 10SM CLR 27/M01 A3018 RMK AO2,M
INS,2023-09-10 22:55,-115.6733,36.5872,955.00,80.20,51.60,37.00,100.00,5.00,0.00,30.10,1014.50,10.00,M,OVC,M,M,M,10000.00,M,M,M,M,M,M,M,M,M,M,79.82,KINS 102255Z AUTO 10005KT 10SM OVC100 27/11 A3010 RMK AO2 SLP145 T02680109 $,M
LSV,2023-09-10 22:55,-115.0343,36.2362,570.00,87.60,54.00,31.83,30.00,12.00,0.00,29.99,1013.10,10.00,M,SCT,M,M,M,12000.00,M,M,M,M,M,M,M,M,M,M,85.63,KLSV 102255Z AUTO 03012KT 10SM SCT120 31/12 A2999 RMK AO2 SLP131 T03090123 $,M
EKO,2023-09-10 22:56,-115.7860,40.8242,1367.00,83.00,35.00,17.88,260.00,9.00,0.00,30.15,1015.60,10.00,18.00,CLR,M,M,M,M,M,M,M,M,M,M,M,M,M,M,80.47,KEKO 102256Z AUTO 26009G18KT 10SM CLR 28/02 A3015 RMK AO2 SLP156 T02830017,M
WMC,2023-09-10 22:56,-117.8072,40.9019,1315.00,86.00,37.00,17.57,260.00,9.00,0.00,30.09,1014.50,10.00,15.00,CLR,M,M,M,M,M,M,M,M,M,M,M,M,M,M,82.72,KWMC 102256Z AUTO 26009G15KT 10SM CLR 30/03 A3009 RMK AO2 SLP145 T03000028,M
NFL,2023-09-10 22:56,-118.7010,39.4166,1199.00,87.00,45.00,23.20,300.00,6.00,0.00,30.06,1014.70,10.00,M,SCT,BKN,M,M,9000.00,12000.00,M,M,M,M,M,M,M,M,M,83.90,KNFL 102256Z 30006KT 10SM SCT090 BKN120 31/07 A3006 RMK AO2 SLP147 CB DSNT S-SW T03060072 $,M
HND,2023-09-10 22:56,-115.1344,35.9729,742.79,84.00,55.00,37.05,90.00,4.00,T,30.07,1017.10,10.00,M,OVC,M,M,M,8500.00,M,M,M,M,M,M,M,M,M,M,82.85,KHND 102256Z 09004KT 10SM OVC085 29/13 A3007 RMK AO2 RAE03 SLP171 P0000 T02890128,M
LAS,2023-09-10 22:56,-115.1634,36.0719,663.00,86.00,53.00,32.29,40.00,8.00,0.00,30.04,1014.40,10.00,M,OVC,M,M,M,9000.00,M,M,M,M,M,M,M,M,M,M,84.07,KLAS 102256Z AUTO 04008KT 10SM OVC090 30/12 A3004 RMK AO2 SLP144 T03000117 $,M
05U,2023-09-10 23:10,-116.0051,39.6042,1811.23,80.60,33.80,18.42,0.00,0.00,0.00,30.22,M,10.00,10.00,CLR,M,M,M,M,M,M,M,M,M,M,M,M,M,M,78.88,K05U 102310Z AUTO 00000G10KT 10SM CLR 27/01 A3022 RMK A01,M
BVU,2023-09-10 23:15,-114.8611,35.9475,671.00,84.20,55.40,37.35,30.00,5.00,0.00,30.02,M,10.00,13.00,FEW,SCT,BKN,M,5000.00,6500.00,8000.00,M,-DZ,M,M,M,M,M,M,83.09,KBVU 102315Z AUTO 03005G13KT 10SM -DZ FEW050 SCT065 BKN080 29/13 A3002 RMK AO2,M
CXP,2023-09-10 23:15,-119.7326,39.1923,1431.00,84.20,42.80,23.33,270.00,11.00,0.00,30.13,M,10.00,19.00,CLR,M,M,M,M,M,M,M,M,M,M,M,M,M,M,81.61,KCXP 102315Z AUTO 27011G19KT 10SM CLR 29/06 A3013 RMK AO2,M
RTS,2023-09-10 23:15,-119.8764,39.6682,1539.00,82.40,33.80,17.38,270.00,12.00,0.00,30.16,M,10.00,M,SCT,M,M,M,10000.00,M,M,M,M,M,M,M,M,M,M,80.03,KRTS 102315Z AUTO 27012KT 10SM SCT100 28/01 A3016 RMK AO2,M
MEV,2023-09-10 23:15,-119.7500,38.9963,1441.42,84.20,41.00,21.76,260.00,11.00,0.00,30.11,M,10.00,16.00,CLR,M,M,M,M,M,M,M,M,M,M,M,M,M,M,81.52,KMEV 102315Z AUTO 26011G16KT 10SM CLR 29/05 A3011 RMK AO2,M
HTH,2023-09-10 23:15,-118.6315,38.5448,1282.89,75.20,55.40,50.17,200.00,6.00,0.00,30.14,M,10.00,M,CLR,M,M,M,M,M,M,M,M,M,M,M,M,M,M,75.20,KHTH 102315Z AUTO 20006KT 10SM CLR 24/13 A3014 RMK A01,M
10U,2023-09-10 23:15,-116.1876,41.9532,1637.00,80.60,26.60,13.75,M,5.00,0.00,30.18,M,10.00,14.00,CLR,M,M,M,M,M,M,M,M,M,M,M,M,M,M,78.68,K10U 102315Z AUTO VRB05G14KT 10SM CLR 27/M03 A3018 RMK AO2,M
BAM,2023-09-10 23:15,-116.8743,40.5990,1382.36,86.00,42.80,22.02,360.00,5.00,0.00,30.12,M,10.00,M,SCT,M,M,M,12000.00,M,M,M,M,M,M,M,M,M,M,82.95,KBAM 102315Z AUTO 36005KT 10SM SCT120 30/06 A3012 RMK AO1,M
TMT,2023-09-10 23:15,-117.1971,39.4643,1749.34,79.00,37.00,22.05,200.00,4.00,0.00,30.20,M,M,M,CLR,M,M,M,M,M,M,M,M,M,M,M,M,M,M,79.00,KTMT 102315Z AUTO 20004KT CLR 26/03 A3020 RMK AO2 LTG DSNT SE T02610028 PWINO,M
05U,2023-09-10 23:30,-116.0051,39.6042,1811.23,80.60,33.80,18.42,140.00,5.00,0.00,30.22,M,10.00,M,CLR,M,M,M,M,M,M,M,M,M,M,M,M,M,M,78.88,K05U 102330Z AUTO 14005KT 10SM CLR 27/01 A3022 RMK A01,M
TMT,2023-09-10 23:35,-117.1971,39.4643,1749.34,79.00,37.60,22.57,240.00,5.00,0.00,30.20,M,M,M,CLR,M,M,M,M,M,M,M,M,M,M,M,M,M,M,79.00,KTMT 102335Z AUTO 24005KT CLR 26/03 A3020 RMK AO2 T02610031 PWINO,M
BVU,2023-09-10 23:35,-114.8611,35.9475,671.00,84.20,53.60,34.97,60.00,8.00,0.00,30.01,M,10.00,M,FEW,FEW,OVC,M,5500.00,8000.00,9000.00,M,M,M,M,M,M,M,M,82.76,KBVU 102335Z AUTO 06008KT 10SM FEW055 FEW080 OVC090 29/12 A3001 RMK AO2,M
CXP,2023-09-10 23:35,-119.7326,39.1923,1431.00,82.40,42.80,24.72,270.00,14.00,0.00,30.13,M,10.00,M,CLR,M,M,M,M,M,M,M,M,M,M,M,M,M,M,80.39,KCXP 102335Z AUTO 27014KT 10SM CLR 28/06 A3013 RMK AO2,M
RTS,2023-09-10 23:35,-119.8764,39.6682,1539.00,82.40,32.00,16.17,240.00,13.00,0.00,30.15,M,10.00,M,FEW,M,M,M,10000.00,M,M,M,M,M,M,M,M,M,M,80.00,KRTS 102335Z AUTO 24013KT 10SM FEW100 28/M00 A3015 RMK AO2,M
MEV,2023-09-10 23:35,-119.7500,38.9963,1441.42,84.20,42.80,23.33,290.00,11.00,0.00,30.11,M,10.00,17.00,CLR,M,M,M,M,M,M,M,M,M,M,M,M,M,M,81.61,KMEV 102335Z AUTO 29011G17KT 10SM CLR 29/06 A3011 RMK AO2,M
BAM,2023-09-10 23:35,-116.8743,40.5990,1382.36,82.40,42.80,24.72,310.00,7.00,0.00,30.12,M,10.00,M,CLR,M,M,M,M,M,M,M,M,M,M,M,M,M,M,80.39,KBAM 102335Z AUTO 31007KT 10SM CLR 28/06 A3012 RMK AO1,M
HTH,2023-09-10 23:35,-118.6315,38.5448,1282.89,77.00,51.80,41.42,160.00,7.00,0.00,30.14,M,10.00,M,CLR,M,M,M,M,M,M,M,M,M,M,M,M,M,M,77.00,KHTH 102335Z AUTO 16007KT 10SM CLR 25/11 A3014 RMK A01,M
10U,2023-09-10 23:35,-116.1876,41.9532,1637.00,78.80,26.60,14.59,M,6.00,0.00,30.17,M,10.00,M,CLR,M,M,M,M,M,M,M,M,M,M,M,M,M,M,78.80,K10U 102335Z AUTO VRB06KT 10SM CLR 26/M03 A3017 RMK AO2,M
05U,2023-09-10 23:50,-116.0051,39.6042,1811.23,78.80,35.60,21.00,250.00,3.00,0.00,30.22,M,10.00,M,CLR,M,M,M,M,M,M,M,M,M,M,M,M,M,M,78.80,K05U 102350Z AUTO 25003KT 10SM CLR 26/02 A3022 RMK A01,M
LOL,2023-09-10 23:53,-118.5701,40.0684,1192.43,86.00,44.00,23.05,240.00,5.00,0.00,30.05,1014.10,10.00,M,CLR,M,M,M,M,M,M,M,M,M,M,M,M,M,M,83.03,KLOL 102353Z AUTO 24005KT 10SM CLR 30/07 A3005 RMK AO2 SLP141 T03000067 10306 20244 56019,M
P68,2023-09-10 23:53,-116.0056,39.6014,1993.00,78.00,35.00,21.05,0.00,0.00,0.00,30.19,1014.60,M,M,M,M,M,M,M,M,M,M,M,M,M,M,M,M,M,78.00,KP68 102353Z AUTO 00000KT 26/02 A3019 RMK AO1 SLP146 T02560017 10272 20217 56010,M
DRA,2023-09-10 23:53,-116.0278,36.6206,1009.00,81.00,53.00,37.95,20.00,10.00,0.00,30.09,1014.50,10.00,M,OVC,M,M,M,10000.00,M,M,M,M,M,M,M,M,M,M,80.46,KDRA 102353Z AUTO 02010KT 10SM OVC100 27/12 A3009 RMK AO2 SLP145 T02720117 10289 20261 58013,M
ELY,2023-09-10 23:53,-114.8453,39.2950,1909.00,72.00,45.00,37.96,110.00,3.00,T,30.21,1015.00,10.00,M,FEW,SCT,M,M,4300.00,11000.00,M,M,M,M,M,M,M,M,M,72.00,KELY 102353Z AUTO 11003KT 10SM FEW043 SCT110 22/07 A3021 RMK AO2 RAB10E45 SLP150 P0000 60000 T02220072 10267 20200 56012,M
VGT,2023-09-10 23:53,-115.1933,36.2111,667.00,87.00,54.00,32.45,50.00,9.00,0.00,30.02,1015.50,10.00,M,OVC,M,M,M,10000.00,M,M,M,M,M,M,M,M,M,M,85.10,KVGT 102353Z 05009KT 10SM OVC100 31/12 A3002 RMK AO2 SLP155 T03060122 10317 20300 56019,M
RNO,2023-09-10 23:55,-119.7711,39.4839,1341.00,86.00,39.00,19.01,290.00,13.00,0.00,30.09,1013.50,10.00,24.00,SCT,M,M,M,10000.00,M,M,M,M,M,M,M,M,M,M,82.78,KRNO 102355Z 29013G24KT 10SM SCT100 30/04 A3009 RMK AO2 SLP135 T03000039 10317 20239 56014,M
LSV,2023-09-10 23:55,-115.0343,36.2362,570.00,87.40,54.00,32.04,360.00,12.00,0.00,29.98,1012.80,10.00,M,BKN,M,M,M,11000.00,M,M,M,M,M,M,M,M,M,M,85.45,KLSV 102355Z AUTO 36012KT 10SM BKN110 31/12 A2998 RMK AO2 SLP128 60000 T03080122 10322 20307 57020 $,M
RTS,2023-09-10 23:55,-119.8764,39.6682,1539.00,82.40,30.20,15.03,240.00,9.00,0.00,30.15,M,10.00,18.00,FEW,M,M,M,10000.00,M,M,M,M,M,M,M,M,M,M,79.97,KRTS 102355Z AUTO 24009G18KT 10SM FEW100 28/M01 A3015 RMK AO2,M
MEV,2023-09-10 23:55,-119.7500,38.9963,1441.42,82.40,42.80,24.72,290.00,15.00,0.00,30.11,M,10.00,M,CLR,M,M,M,M,M,M,M,M,M,M,M,M,M,M,80.39,KMEV 102355Z AUTO 29015KT 10SM CLR 28/06 A3011 RMK AO2,M
BAM,2023-09-10 23:55,-116.8743,40.5990,1382.36,82.40,42.80,24.72,330.00,5.00,0.00,30.12,M,10.00,M,CLR,M,M,M,M,M,M,M,M,M,M,M,M,M,M,80.39,KBAM 102355Z AUTO 33005KT 10SM CLR 28/06 A3012 RMK AO1,M
HTH,2023-09-10 23:55,-118.6315,38.5448,1282.89,73.40,53.60,49.90,140.00,11.00,0.00,30.13,M,10.00,M,FEW,M,M,M,12000.00,M,M,M,M,M,M,M,M,M,M,73.40,KHTH 102355Z AUTO 14011KT 10SM FEW120 23/12 A3013 RMK A01,M
BVU,2023-09-10 23:55,-114.8611,35.9475,671.00,84.20,53.60,34.97,50.00,8.00,0.00,30.00,M,10.00,M,BKN,OVC,M,M,10000.00,12000.00,M,M,M,M,M,M,M,M,M,82.76,KBVU 102355Z AUTO 05008KT 10SM BKN100 OVC120 29/12 A3000 RMK AO2,M
CXP,2023-09-10 23:55,-119.7326,39.1923,1431.00,82.40,42.80,24.72,290.00,12.00,0.00,30.13,M,10.00,M,CLR,M,M,M,M,M,M,M,M,M,M,M,M,M,M,80.39,KCXP 102355Z AUTO 29012KT 10SM CLR 28/06 A3013 RMK AO2,M
TMT,2023-09-10 23:55,-117.1971,39.4643,1749.34,78.30,37.60,23.10,0.00,0.00,0.00,30.19,M,M,M,CLR,M,M,M,M,M,M,M,M,M,M,M,M,M,M,78.30,KTMT 102355Z AUTO 00000KT CLR 26/03 A3019 RMK AO2 T02570031 10264 20230 PWINO,M
10U,2023-09-10 23:55,-116.1876,41.9532,1637.00,80.60,24.80,12.76,200.00,7.00,0.00,30.17,M,10.00,13.00,CLR,M,M,M,M,M,M,M,M,M,M,M,M,M,M,78.94,K10U 102355Z AUTO 20007G13KT 10SM CLR 27/M04 A3017 RMK AO2,M
INS,2023-09-10 23:55,-115.6733,36.5872,955.00,80.40,51.00,35.95,120.00,4.00,0.00,30.08,1014.00,10.00,M,OVC,M,M,M,10000.00,M,M,M,M,M,M,M,M,M,M,79.87,KINS 102355Z AUTO 12004KT 10SM OVC100 27/11 A3008 RMK AO2 SLP140 60000 T02690105 10276 20266 57016 $,M
WMC,2023-09-10 23:56,-117.8072,40.9019,1315.00,86.00,35.00,16.23,250.00,11.00,0.00,30.08,1014.50,10.00,18.00,CLR,M,M,M,M,M,M,M,M,M,M,M,M,M,M,82.68,KWMC 102356Z AUTO 25011G18KT 10SM CLR 30/02 A3008 RMK AO2 SLP145 T03000017 10311 20261 56016,M
NFL,2023-09-10 23:56,-118.7010,39.4166,1199.00,87.00,44.00,22.33,160.00,4.00,0.00,30.05,1014.30,10.00,M,CLR,M,M,M,M,M,M,M,M,M,M,M,M,M,M,83.82,KNFL 102356Z AUTO 16004KT 10SM CLR 31/07 A3005 RMK AO2 SLP143 T03060067 10322 20267 56015 $,M
HND,2023-09-10 23:56,-115.1344,35.9729,742.79,85.00,54.00,34.59,70.00,4.00,0.00,30.05,1016.40,10.00,M,BKN,M,M,M,9000.00,M,M,M,M,M,M,M,M,M,M,83.45,KHND 102356Z 07004KT 10SM BKN090 29/12 A3005 RMK AO2 SLP164 60000 T02940122 10300 20289 56022,M
LAS,2023-09-10 23:56,-115.1634,36.0719,663.00,87.00,54.00,32.45,30.00,10.00,0.00,30.02,1013.90,10.00,M,OVC,M,M,M,10000.00,M,M,M,M,M,M,M,M,M,M,85.10,KLAS 102356Z AUTO 03010KT 10SM OVC100 31/12 A3002 RMK AO2 SLP139 T03060122 10311 20300 56019 $,M
EKO,2023-09-10 23:56,-115.7860,40.8242,1367.00,83.00,34.00,17.18,260.00,10.00,0.00,30.14,1015.20,10.00,14.00,CLR,M,M,M,M,M,M,M,M,M,M,M,M,M,M,80.45,KEKO 102356Z AUTO 26010G14KT 10SM CLR 28/01 A3014 RMK AO2 SLP152 T02830011 10289 20244 56012,M
