station,valid,lon,lat,elevation,tmpf,dwpf,relh,drct,sknt,p01i,alti,mslp,vsby,gust,skyc1,skyc2,skyc3,skyc4,skyl1,skyl2,skyl3,skyl4,wxcodes,ice_accretion_1hr,ice_accretion_3hr,ice_accretion_6hr,peak_wind_gust,peak_wind_drct,peak_wind_time,feel,metar,snowdepth
05U,2023-05-22 00:10,-116.0051,39.6042,1811.23,80.60,32.00,17.14,M,6.00,0.00,30.08,M,10.00,M,CLR,M,M,M,M,M,M,M,M,M,M,M,M,M,M,78.82,K05U 220010Z AUTO VRB06KT 10SM CLR 27/00 A3008 RMK A01,M
BVU,2023-05-22 00:15,-114.8611,35.9475,671.00,93.20,33.80,12.34,0.00,0.00,0.00,29.85,M,10.00,M,CLR,M,M,M,M,M,M,M,M,M,M,M,M,M,M,88.55,KBVU 220015Z AUTO 00000KT 10SM CLR 34/01 A2985 RMK AO2,M
CXP,2023-05-22 00:15,-119.7326,39.1923,1431.00,71.60,41.00,33.00,M,5.00,0.00,30.10,M,10.00,17.00,CLR,M,M,M,M,M,M,M,VCTS,M,M,M,M,M,M,71.60,KCXP 220015Z AUTO VRB05G17KT 10SM VCTS CLR 22/05 A3010 RMK AO2 LTG DSNT ALQDS,M
RTS,2023-05-22 00:15,-119.8764,39.6682,1539.00,71.60,48.20,43.42,140.00,13.00,0.00,30.08,M,10.00,20.00,BKN,M,M,M,9000.00,M,M,M,M,M,M,M,M,M,M,71.60,KRTS 220015Z AUTO 14013G20KT 10SM BKN090 22/09 A3008 RMK AO2,M
MEV,2023-05-22 00:15,-119.7500,38.9963,1441.42,68.00,42.80,40.00,180.00,16.00,0.00,30.09,M,10.00,22.00,CLR,M,M,M,M,M,M,M,M,M,M,M,M,M,M,68.00,KMEV 220015Z AUTO 18016G22KT 10SM CLR 20/06 A3009 RMK AO2 LTG DSNT ALQDS,M
BAM,2023-05-22 00:15,-116.8743,40.5990,1382.36,82.40,35.60,18.67,270.00,8.00,0.00,29.98,M,10.00,17.00,CLR,M,M,M,M,M,M,M,M,M,M,M,M,M,M,80.08,KBAM 220015Z AUTO 27008G17KT 10SM CLR 28/02 A2998 RMK AO1,M
HTH,2023-05-22 00:15,-118.6315,38.5448,1282.89,80.60,35.60,19.79,260.00,17.00,0.00,30.02,M,10.00,26.00,FEW,M,M,M,10000.00,M,M,M,M,M,M,M,M,M,M,78.94,KHTH 220015Z AUTO 26017G26KT 10SM FEW100 27/02 A3002 RMK A01,M
TMT,2023-05-22 00:15,-117.1971,39.4643,1749.34,69.80,38.50,31.83,230.00,5.00,0.00,30.11,M,10.00,M,OVC,M,M,M,12000.00,M,M,M,M,M,M,M,M,M,M,69.80,KTMT 220015Z AUTO 23005KT 10SM OVC120 21/04 A3011 RMK AO2 T02100036,M
10U,2023-05-22 00:15,-116.1876,41.9532,1637.00,73.40,41.00,31.05,10.00,6.00,0.00,30.04,M,10.00,M,FEW,M,M,M,11000.00,M,M,M,M,M,M,M,M,M,M,73.40,K10U 220015Z AUTO 01006KT 10SM FEW110 23/05 A3004 RMK AO2,M
INS,2023-05-22 00:29,-115.6733,36.5872,955.00,89.60,33.80,13.80,240.00,12.00,0.00,29.89,1007.70,10.00,M,BKN,M,M,M,12000.00,M,M,M,M,M,M,M,M,M,M,85.59,KINS 220029Z AUTO 24012KT 10SM BKN120 32/01 A2989 RMK AO2 WSHFT 25 SLP077 $,M
05U,2023-05-22 00:30,-116.0051,39.6042,1811.23,77.00,30.20,17.94,0.00,0.00,0.00,30.08,M,10.00,M,CLR,M,M,M,M,M,M,M,M,M,M,M,M,M,M,77.00,K05U 220030Z AUTO 00000KT 10SM CLR 25/M01 A3008 RMK A01,M
RNO,2023-05-22 00:31,-119.7711,39.4839,1341.00,71.00,46.00,40.65,160.00,12.00,T,30.05,M,10.00,M,BKN,BKN,M,M,6000.00,17000.00,M,M,M,M,M,M,M,M,M,71.10,KRNO 220031Z 16012KT 10SM BKN060CB BKN170 22/08 A3005 RMK AO2 LTG DSNT SE RAB03E29 TSE29 TS MOVD E CB ALQDS P0000 T02170078,M
BVU,2023-05-22 00:35,-114.8611,35.9475,671.00,93.20,32.00,11.48,160.00,6.00,0.00,29.84,M,10.00,M,CLR,M,M,M,M,M,M,M,M,M,M,M,M,M,M,88.31,KBVU 220035Z AUTO 16006KT 10SM CLR 34/M00 A2984 RMK AO2 LTG DSNT W,M
CXP,2023-05-22 00:35,-119.7326,39.1923,1431.00,71.60,41.00,33.00,180.00,9.00,0.00,30.11,M,10.00,20.00,CLR,M,M,M,M,M,M,M,M,M,M,M,M,M,M,71.60,KCXP 220035Z AUTO 18009G20KT 10SM CLR 22/05 A3011 RMK AO2 LTG DSNT N-SE,M
RTS,2023-05-22 00:35,-119.8764,39.6682,1539.00,71.60,48.20,43.42,150.00,13.00,0.00,30.09,M,10.00,M,SCT,BKN,M,M,9000.00,11000.00,M,M,M,M,M,M,M,M,M,71.60,KRTS 220035Z AUTO 15013KT 10SM SCT090 BKN110 22/09 A3009 RMK AO2,M
MEV,2023-05-22 00:35,-119.7500,38.9963,1441.42,66.20,42.80,42.57,190.00,19.00,0.00,30.10,M,9.00,25.00,CLR,M,M,M,M,M,M,M,M,M,M,M,M,M,M,66.20,KMEV 220035Z AUTO 19019G25KT 9SM CLR 19/06 A3010 RMK AO2,M
BAM,2023-05-22 00:35,-116.8743,40.5990,1382.36,82.40,35.60,18.67,260.00,9.00,0.00,29.98,M,10.00,M,CLR,M,M,M,M,M,M,M,M,M,M,M,M,M,M,80.08,KBAM 220035Z AUTO 26009KT 10SM CLR 28/02 A2998 RMK AO1,M
HTH,2023-05-22 00:35,-118.6315,38.5448,1282.89,80.60,35.60,19.79,290.00,13.00,0.00,30.03,M,10.00,24.00,CLR,M,M,M,M,M,M,M,M,M,M,M,M,M,M,78.94,KHTH 220035Z AUTO 29013G24KT 260V020 10SM CLR 27/02 A3003 RMK A01,M
TMT,2023-05-22 00:35,-117.1971,39.4643,1749.34,71.00,37.00,28.91,230.00,7.00,0.00,30.10,M,10.00,M,SCT,M,M,M,12000.00,M,M,M,M,M,M,M,M,M,M,70.90,KTMT 220035Z AUTO 23007KT 10SM SCT120 22/03 A3010 RMK AO2 LTG DSNT N AND W T02160028,M
10U,2023-05-22 00:35,-116.1876,41.9532,1637.00,75.20,41.00,29.23,30.00,9.00,0.00,30.03,M,10.00,M,FEW,M,M,M,12000.00,M,M,M,M,M,M,M,M,M,M,75.20,K10U 220035Z AUTO 03009KT 10SM FEW120 24/05 A3003 RMK AO2,M
LOL,2023-05-22 00:40,-118.5701,40.0684,1192.43,77.00,39.00,25.47,270.00,33.00,T,29.95,M,1.75,49.00,FEW,BKN,BKN,M,5000.00,10000.00,12000.00,M,VCTS -RA,M,M,M,49.00,260.00,2023-05-22 00:38,77.00,KLOL 220040Z AUTO 27033G49KT 1 3/4SM VCTS -RA FEW050 BKN100 BKN120 25/04 A2995 RMK AO2 PK WND 26049/0038 LTG DSNT ALQDS RAB10E21B39 P0000 T02500039,M
LOL,2023-05-22 00:50,-118.5701,40.0684,1192.43,75.20,41.00,29.23,280.00,29.00,T,29.97,M,3.00,40.00,FEW,BKN,BKN,M,8000.00,9500.00,12000.00,M,VCTS -RA,M,M,M,49.00,260.00,2023-05-22 00:38,75.20,KLOL 220050Z AUTO 28029G40KT 3SM VCTS -RA FEW080 BKN095 BKN120 24/05 A2997 RMK AO2 PK WND 26049/0038 LTG DSNT ALQDS RAB10E21B39 P0000,M
05U,2023-05-22 00:50,-116.0051,39.6042,1811.23,75.20,35.60,23.66,330.00,17.00,0.00,30.08,M,10.00,24.00,SCT,M,M,M,11000.00,M,M,M,M,M,M,M,M,M,M,75.20,K05U 220050Z AUTO 33017G24KT 270V010 10SM SCT110 24/02 A3008 RMK A01,M
VGT,2023-05-22 00:53,-115.1933,36.2111,667.00,95.00,37.00,13.25,0.00,0.00,0.00,29.83,1009.20,10.00,M,CLR,M,M,M,M,M,M,M,M,M,M,M,M,M,M,90.44,KVGT 220053Z 00000KT 10SM CLR 35/03 A2983 RMK AO2 SLP092 T03500028 $,M
LOL,2023-05-22 00:53,-118.5701,40.0684,1192.43,75.00,41.00,29.43,280.00,30.00,T,29.97,1011.70,5.00,40.00,FEW,BKN,OVC,M,5500.00,9500.00,12000.00,M,VCTS HZ,M,M,M,49.00,260.00,2023-05-22 00:38,75.00,KLOL 220053Z AUTO 28030G40KT 5SM VCTS HZ FEW055 BKN095 OVC120 24/05 A2997 RMK AO2 PK WND 26049/0038 LTG DSNT ALQDS RAB10E21B39E53 SLP117 P0000 T02390050,M
P68,2023-05-22 00:53,-116.0056,39.6014,1993.00,73.00,35.00,24.97,250.00,16.00,0.00,30.05,1011.20,M,27.00,M,M,M,M,M,M,M,M,M,M,M,M,27.00,260.00,2023-05-22 00:47,73.00,KP68 220053Z AUTO 25016G27KT 23/02 A3005 RMK AO1 PK WND 26027/0047 SLP112 T02280017,M
ELY,2023-05-22 00:53,-114.8453,39.2950,1909.00,70.00,33.00,25.53,220.00,13.00,0.00,30.10,1012.00,10.00,M,CLR,M,M,M,M,M,M,M,M,M,M,M,M,M,M,70.00,KELY 220053Z AUTO 22013KT 10SM CLR 21/01 A3010 RMK AO2 SLP120 T02110006,M
DRA,2023-05-22 00:53,-116.0278,36.6206,1009.00,87.00,42.00,20.70,180.00,13.00,0.00,29.90,1008.40,10.00,25.00,BKN,M,M,M,12000.00,M,M,M,M,M,M,M,26.00,200.00,2023-05-22 00:43,83.79,KDRA 220053Z AUTO 18013G25KT 10SM BKN120 31/06 A2990 RMK AO2 PK WND 20026/0043 SLP084 T03060056,M
BVU,2023-05-22 00:55,-114.8611,35.9475,671.00,93.20,32.00,11.48,160.00,5.00,0.00,29.84,M,10.00,M,CLR,M,M,M,M,M,M,M,M,M,M,M,M,M,M,88.31,KBVU 220055Z AUTO 16005KT 10SM CLR 34/M00 A2984 RMK AO2,M
CXP,2023-05-22 00:55,-119.7326,39.1923,1431.00,69.80,42.80,37.61,180.00,12.00,0.00,30.12,M,10.00,21.00,CLR,M,M,M,M,M,M,M,M,M,M,M,M,M,M,69.80,KCXP 220055Z AUTO 18012G21KT 10SM CLR 21/06 A3012 RMK AO2,M
RNO,2023-05-22 00:55,-119.7711,39.4839,1341.00,72.00,45.00,37.96,160.00,13.00,T,30.05,1013.30,10.00,M,BKN,BKN,M,M,6000.00,17000.00,M,M,M,M,M,M,M,M,M,72.00,KRNO 220055Z 16013KT 10SM BKN060CB BKN170 22/07 A3005 RMK AO2 LTG DSNT SE RAB03E29 TSE29 SLP133 TS MOVD E CB ALQDS P0000 T02220072,M
RTS,2023-05-22 00:55,-119.8764,39.6682,1539.00,69.80,46.40,43.13,170.00,14.00,0.00,30.08,M,10.00,20.00,FEW,FEW,M,M,9000.00,11000.00,M,M,M,M,M,M,M,M,M,69.80,KRTS 220055Z AUTO 17014G20KT 10SM FEW090 FEW110 21/08 A3008 RMK AO2,M
MEV,2023-05-22 00:55,-119.7500,38.9963,1441.42,66.20,42.80,42.57,180.00,16.00,0.00,30.11,M,10.00,24.00,CLR,M,M,M,M,M,M,M,M,M,M,M,M,M,M,66.20,KMEV 220055Z AUTO 18016G24KT 10SM CLR 19/06 A3011 RMK AO2,M
BAM,2023-05-22 00:55,-116.8743,40.5990,1382.36,80.60,35.60,19.79,250.00,7.00,0.00,29.99,M,10.00,M,CLR,M,M,M,M,M,M,M,M,M,M,M,M,M,M,78.94,KBAM 220055Z AUTO 25007KT 10SM CLR 27/02 A2999 RMK AO1,M
HTH,2023-05-22 00:55,-118.6315,38.5448,1282.89,78.80,37.40,22.54,20.00,15.00,0.00,30.04,M,10.00,M,FEW,M,M,M,9500.00,M,M,M,M,M,M,M,M,M,M,78.80,KHTH 220055Z AUTO 02015KT 10SM FEW095 26/03 A3004 RMK A01,M
TMT,2023-05-22 00:55,-117.1971,39.4643,1749.34,71.60,36.50,27.68,220.00,8.00,0.00,30.10,M,10.00,M,CLR,M,M,M,M,M,M,M,M,M,M,M,M,M,M,71.60,KTMT 220055Z AUTO 22008KT 10SM CLR 22/03 A3010 RMK AO2 LTG DSNT SE T02200025,M
10U,2023-05-22 00:55,-116.1876,41.9532,1637.00,75.20,39.20,27.26,30.00,4.00,0.00,30.03,M,10.00,M,CLR,M,M,M,M,M,M,M,M,M,M,M,M,M,M,75.20,K10U 220055Z AUTO 03004KT 10SM CLR 24/04 A3003 RMK AO2,M
LSV,2023-05-22 00:55,-115.0343,36.2362,570.00,94.00,35.80,12.99,180.00,3.00,0.00,29.79,1006.50,10.00,M,CLR,M,M,M,M,M,M,M,M,M,M,M,M,M,M,89.57,KLSV 220055Z AUTO 18003KT 10SM CLR 35/02 A2979 RMK AO2 SLP065 T03450021 $,M
INS,2023-05-22 00:55,-115.6733,36.5872,955.00,89.00,37.00,15.92,230.00,13.00,0.00,29.89,1007.80,10.00,M,BKN,M,M,M,12000.00,M,M,M,M,M,M,M,M,M,M,85.23,KINS 220055Z AUTO 23013KT 10SM BKN120 32/03 A2989 RMK AO2 SLP078 T03170028 $,M
EKO,2023-05-22 00:56,-115.7860,40.8242,1367.00,82.00,30.90,15.66,100.00,7.00,0.00,29.98,1010.50,10.00,M,CLR,M,M,M,M,M,M,M,M,M,M,M,M,M,M,79.70,KEKO 220056Z AUTO 10007KT 10SM CLR 28/M01 A2998 RMK AO2 SLP105 T02781006,M
WMC,2023-05-22 00:56,-117.8072,40.9019,1315.00,75.00,39.00,27.23,160.00,14.00,0.00,29.98,1011.80,10.00,M,BKN,M,M,M,11000.00,M,M,M,M,M,M,M,29.00,180.00,2023-05-22 00:24,75.00,KWMC 220056Z AUTO 16014KT 10SM BKN110 24/04 A2998 RMK AO2 PK WND 18029/0024 LTG DSNT W AND NW SLP118 T02390039,M
HND,2023-05-22 00:56,-115.1344,35.9729,742.79,92.00,46.00,20.65,240.00,13.00,0.00,29.88,1010.60,10.00,20.00,SCT,M,M,M,12000.00,M,M,M,M,M,M,M,M,M,M,88.28,KHND 220056Z 24013G20KT 10SM SCT120 33/08 A2988 RMK AO2 SLP106 T03330078,M
TPH,2023-05-22 00:56,-117.0904,38.0505,1654.00,M,M,M,M,M,0.00,30.13,M,M,M,M,M,M,M,M,M,M,M,M,M,M,M,M,M,M,M,KTPH 220056Z AUTO A3013 RMK AO2 SLPNO PWINO $,M
LAS,2023-05-22 00:56,-115.1634,36.0719,663.00,93.00,37.00,14.09,90.00,5.00,0.00,29.84,1007.80,10.00,M,FEW,FEW,M,M,10000.00,25000.00,M,M,M,M,M,M,M,M,M,88.63,KLAS 220056Z 09005KT 10SM FEW100 FEW250 34/03 A2984 RMK AO2 SLP078 CB DSNT E TCU DSNT N T03390028,M
NFL,2023-05-22 00:56,-118.7010,39.4166,1199.00,73.00,47.00,39.43,140.00,10.00,0.00,30.06,1014.60,10.00,18.00,OVC,M,M,M,10000.00,M,M,M,M,M,M,M,32.00,220.00,2023-05-22 00:03,73.00,KNFL 220056Z AUTO 14010G18KT 10SM OVC100 23/08 A3006 RMK AO2 PK WND 22032/0003 PRESRR SLP146 T02280083,M
05U,2023-05-22 01:10,-116.0051,39.6042,1811.23,73.40,35.60,25.13,320.00,11.00,0.00,30.08,M,10.00,17.00,FEW,M,M,M,11000.00,M,M,M,M,M,M,M,M,M,M,73.40,K05U 220110Z AUTO 32011G17KT 250V010 10SM FEW110 23/02 A3008 RMK A01,M
WMC,2023-05-22 01:11,-117.8072,40.9019,1315.00,75.00,40.00,28.20,140.00,12.00,0.00,29.98,M,10.00,18.00,BKN,M,M,M,11000.00,M,M,M,M,M,M,M,M,M,M,75.00,KWMC 220111Z AUTO 14012G18KT 10SM BKN110 24/04 A2998 RMK AO2 WSHFT 0051 LTG DSNT N AND NW T02390044,M
LAS,2023-05-22 01:14,-115.1634,36.0719,663.00,91.00,44.00,19.76,220.00,8.00,0.00,29.84,M,10.00,15.00,FEW,FEW,M,M,10000.00,25000.00,M,M,M,M,M,M,M,M,M,87.27,KLAS 220114Z 22008G15KT 10SM FEW100 FEW250 33/07 A2984 RMK AO2 CB DSNT E TCU DSNT N T03280067,M
BVU,2023-05-22 01:15,-114.8611,35.9475,671.00,93.20,32.00,11.48,150.00,5.00,0.00,29.84,M,10.00,M,CLR,M,M,M,M,M,M,M,M,M,M,M,M,M,M,88.31,KBVU 220115Z AUTO 15005KT 10SM CLR 34/M00 A2984 RMK AO2,M
CXP,2023-05-22 01:15,-119.7326,39.1923,1431.00,69.80,42.80,37.61,170.00,10.00,0.00,30.11,M,10.00,19.00,FEW,M,M,M,8000.00,M,M,M,M,M,M,M,M,M,M,69.80,KCXP 220115Z AUTO 17010G19KT 10SM FEW080 21/06 A3011 RMK AO2,M
RTS,2023-05-22 01:15,-119.8764,39.6682,1539.00,69.80,44.60,40.29,170.00,15.00,0.00,30.08,M,10.00,M,CLR,M,M,M,M,M,M,M,M,M,M,M,M,M,M,69.80,KRTS 220115Z AUTO 17015KT 10SM CLR 21/07 A3008 RMK AO2,M
MEV,2023-05-22 01:15,-119.7500,38.9963,1441.42,66.20,44.60,45.60,180.00,13.00,0.00,30.10,M,10.00,20.00,CLR,M,M,M,M,M,M,M,M,M,M,M,M,M,M,66.20,KMEV 220115Z AUTO 18013G20KT 10SM CLR 19/07 A3010 RMK AO2,M
BAM,2023-05-22 01:15,-116.8743,40.5990,1382.36,80.60,33.80,18.42,250.00,11.00,0.00,29.99,M,10.00,14.00,CLR,M,M,M,M,M,M,M,M,M,M,M,M,M,M,78.88,KBAM 220115Z AUTO 25011G14KT 10SM CLR 27/01 A2999 RMK AO1,M
HTH,2023-05-22 01:15,-118.6315,38.5448,1282.89,77.00,37.40,23.93,350.00,15.00,0.00,30.04,M,10.00,21.00,CLR,M,M,M,M,M,M,M,M,M,M,M,M,M,M,77.00,KHTH 220115Z AUTO 35015G21KT 10SM CLR 25/03 A3004 RMK A01,M
TMT,2023-05-22 01:15,-117.1971,39.4643,1749.34,70.30,39.00,31.91,280.00,3.00,0.00,30.09,M,10.00,M,CLR,M,M,M,M,M,M,M,M,M,M,M,M,M,M,70.30,KTMT 220115Z AUTO 28003KT 10SM CLR 21/04 A3009 RMK AO2 LTG DSNT N T02130039,M
10U,2023-05-22 01:15,-116.1876,41.9532,1637.00,75.20,39.20,27.26,50.00,6.00,0.00,30.03,M,10.00,M,CLR,M,M,M,M,M,M,M,M,M,M,M,M,M,M,75.20,K10U 220115Z AUTO 05006KT 10SM CLR 24/04 A3003 RMK AO2,M
WMC,2023-05-22 01:18,-117.8072,40.9019,1315.00,74.00,40.00,29.26,180.00,5.00,0.00,29.99,M,10.00,17.00,BKN,BKN,M,M,10000.00,12000.00,M,M,TS,M,M,M,M,M,M,73.90,KWMC 220118Z AUTO 18005G17KT 10SM TS BKN100 BKN120 23/04 A2999 RMK AO2 WSHFT 0051 LTG DSNT N TSB12 T02330044,M
LOL,2023-05-22 01:26,-118.5701,40.0684,1192.43,71.00,44.00,37.81,350.00,19.00,T,29.99,M,4.00,52.00,FEW,SCT,OVC,M,3300.00,6000.00,8500.00,M,-RA,M,M,M,52.00,300.00,2023-05-22 01:18,71.10,KLOL 220126Z AUTO 35019G52KT 4SM -RA FEW033 SCT060 OVC085 22/07 A2999 RMK AO2 PK WND 30052/0118 WSHFT 0111 LTG DSNT N AND SE AND NW RAB07 P0000 T02170067,M
05U,2023-05-22 01:30,-116.0051,39.6042,1811.23,73.40,35.60,25.13,360.00,9.00,0.00,30.08,M,10.00,M,CLR,M,M,M,M,M,M,M,M,M,M,M,M,M,M,73.40,K05U 220130Z AUTO 36009KT 10SM CLR 23/02 A3008 RMK A01,M
WMC,2023-05-22 01:33,-117.8072,40.9019,1315.00,75.00,40.00,28.20,320.00,11.00,0.00,30.00,M,10.00,M,BKN,OVC,M,M,10000.00,12000.00,M,M,M,M,M,M,M,M,M,75.00,KWMC 220133Z AUTO 32011KT 10SM BKN100 OVC120 24/04 A3000 RMK AO2 WSHFT 0051 LTG DSNT NW TSB12E27 T02390044,M
BVU,2023-05-22 01:35,-114.8611,35.9475,671.00,93.20,37.40,14.23,160.00,18.00,0.00,29.84,M,10.00,M,CLR,M,M,M,M,M,M,M,M,M,M,M,M,M,M,88.83,KBVU 220135Z AUTO 16018KT 10SM CLR 34/03 A2984 RMK AO2,M
CXP,2023-05-22 01:35,-119.7326,39.1923,1431.00,68.00,42.80,40.00,200.00,6.00,0.00,30.11,M,10.00,13.00,FEW,M,M,M,8000.00,M,M,M,M,M,M,M,M,M,M,68.00,KCXP 220135Z AUTO 20006G13KT 10SM FEW080 20/06 A3011 RMK AO2,M
RTS,2023-05-22 01:35,-119.8764,39.6682,1539.00,69.80,42.80,37.61,160.00,16.00,0.00,30.08,M,10.00,M,CLR,M,M,M,M,M,M,M,M,M,M,M,M,M,M,69.80,KRTS 220135Z AUTO 16016KT 10SM CLR 21/06 A3008 RMK AO2,M
MEV,2023-05-22 01:35,-119.7500,38.9963,1441.42,64.40,44.60,48.55,170.00,13.00,0.00,30.10,M,10.00,19.00,CLR,M,M,M,M,M,M,M,M,M,M,M,M,M,M,64.40,KMEV 220135Z AUTO 17013G19KT 10SM CLR 18/07 A3010 RMK AO2,M
BAM,2023-05-22 01:35,-116.8743,40.5990,1382.36,78.80,35.60,21.00,220.00,10.00,0.00,29.99,M,10.00,M,CLR,M,M,M,M,M,M,M,M,M,M,M,M,M,M,78.80,KBAM 220135Z AUTO 22010KT 10SM CLR 26/02 A2999 RMK AO1,M
HTH,2023-05-22 01:35,-118.6315,38.5448,1282.89,77.00,37.40,23.93,270.00,10.00,0.00,30.06,M,10.00,M,CLR,M,M,M,M,M,M,M,M,M,M,M,M,M,M,77.00,KHTH 220135Z AUTO 27010KT 10SM CLR 25/03 A3006 RMK A01,M
TMT,2023-05-22 01:35,-117.1971,39.4643,1749.34,70.00,40.30,33.91,260.00,3.00,0.00,30.09,M,10.00,M,CLR,M,M,M,M,M,M,M,M,M,M,M,M,M,M,70.00,KTMT 220135Z AUTO 26003KT 10SM CLR 21/05 A3009 RMK AO2 T02110046,M
10U,2023-05-22 01:35,-116.1876,41.9532,1637.00,73.40,42.80,33.29,340.00,7.00,0.00,30.03,M,10.00,M,FEW,M,M,M,11000.00,M,M,M,M,M,M,M,M,M,M,73.40,K10U 220135Z AUTO 34007KT 10SM FEW110 23/06 A3003 RMK AO2,M
LOL,2023-05-22 01:43,-118.5701,40.0684,1192.43,69.00,47.00,45.02,140.00,15.00,T,30.04,M,6.00,23.00,FEW,SCT,OVC,M,2300.00,8000.00,11000.00,M,HZ,M,M,M,52.00,300.00,2023-05-22 01:18,69.10,KLOL 220143Z AUTO 14015G23KT 6SM HZ FEW023 SCT080 OVC110 21/08 A3004 RMK AO2 PK WND 30052/0118 WSHFT 0129 LTG DSNT N AND NW RAB07E41 PRESRR P0000 T02060083,M
05U,2023-05-22 01:50,-116.0051,39.6042,1811.23,71.60,37.40,28.68,350.00,13.00,0.00,30.08,M,10.00,21.00,CLR,M,M,M,M,M,M,M,M,M,M,M,M,M,M,71.60,K05U 220150Z AUTO 35013G21KT 310V010 10SM CLR 22/03 A3008 RMK A01,M
P68,2023-05-22 01:53,-116.0056,39.6014,1993.00,71.00,37.00,28.71,240.00,15.00,0.00,30.06,1011.10,M,22.00,M,M,M,M,M,M,M,M,M,M,M,M,M,M,M,71.10,KP68 220153Z AUTO 24015G22KT 22/03 A3006 RMK AO1 SLP111 T02170028,M
DRA,2023-05-22 01:53,-116.0278,36.6206,1009.00,84.00,41.00,21.90,240.00,10.00,0.00,29.91,1008.70,10.00,M,SCT,M,M,M,11000.00,M,M,M,M,M,M,M,29.00,220.00,2023-05-22 01:26,81.37,KDRA 220153Z AUTO 24010KT 10SM SCT110 29/05 A2991 RMK AO2 PK WND 22029/0126 SLP087 T02890050,M
ELY,2023-05-22 01:53,-114.8453,39.2950,1909.00,69.00,37.00,30.74,160.00,6.00,0.00,30.10,1011.60,10.00,M,CLR,M,M,M,M,M,M,M,M,M,M,M,M,M,M,69.10,KELY 220153Z AUTO 16006KT 10SM CLR 21/03 A3010 RMK AO2 SLP116 T02060028,M
VGT,2023-05-22 01:53,-115.1933,36.2111,667.00,93.00,37.00,14.09,120.00,7.00,0.00,29.83,1009.30,10.00,M,CLR,M,M,M,M,M,M,M,M,M,M,M,M,M,M,88.63,KVGT 220153Z 12007KT 10SM CLR 34/03 A2983 RMK AO2 SLP093 T03390028 $,M
LOL,2023-05-22 01:53,-118.5701,40.0684,1192.43,65.00,49.00,56.12,140.00,23.00,T,30.04,1014.80,7.00,28.00,FEW,FEW,OVC,M,1100.00,3200.00,10000.00,M,-RA,M,M,M,52.00,300.00,2023-05-22 01:18,64.90,KLOL 220153Z AUTO 14023G28KT 7SM -RA FEW011 FEW032 OVC100 18/09 A3004 RMK AO2 PK WND 30052/0118 WSHFT 0133 LTG DSNT N RAB07E41B52 SLP148 P0000 T01830094,M
BVU,2023-05-22 01:55,-114.8611,35.9475,671.00,91.40,42.80,18.56,180.00,18.00,0.00,29.86,M,10.00,24.00,CLR,M,M,M,M,M,M,M,M,M,M,M,M,M,M,87.52,KBVU 220155Z AUTO 18018G24KT 10SM CLR 33/06 A2986 RMK AO2 LTG DSNT W,M
CXP,2023-05-22 01:55,-119.7326,39.1923,1431.00,68.00,42.80,40.00,M,4.00,0.00,30.12,M,10.00,12.00,CLR,M,M,M,M,M,M,M,M,M,M,M,M,M,M,68.00,KCXP 220155Z AUTO VRB04G12KT 10SM CLR 20/06 A3012 RMK AO2 LTG DSNT SE,M
RTS,2023-05-22 01:55,-119.8764,39.6682,1539.00,68.00,42.80,40.00,160.00,16.00,0.00,30.08,M,10.00,22.00,CLR,M,M,M,M,M,M,M,M,M,M,M,M,M,M,68.00,KRTS 220155Z AUTO 16016G22KT 10SM CLR 20/06 A3008 RMK AO2,M
MEV,2023-05-22 01:55,-119.7500,38.9963,1441.42,64.40,44.60,48.55,160.00,12.00,0.00,30.10,M,10.00,M,CLR,M,M,M,M,M,M,M,M,M,M,M,M,M,M,64.40,KMEV 220155Z AUTO 16012KT 10SM CLR 18/07 A3010 RMK AO2 LTG DSNT SE,M
BAM,2023-05-22 01:55,-116.8743,40.5990,1382.36,78.80,35.60,21.00,220.00,8.00,0.00,29.99,M,10.00,M,CLR,M,M,M,M,M,M,M,M,M,M,M,M,M,M,78.80,KBAM 220155Z AUTO 22008KT 10SM CLR 26/02 A2999 RMK AO1,M
HTH,2023-05-22 01:55,-118.6315,38.5448,1282.89,75.20,41.00,29.23,320.00,11.00,0.00,30.07,M,10.00,17.00,BKN,M,M,M,10000.00,M,M,M,M,M,M,M,M,M,M,75.20,KHTH 220155Z AUTO 32011G17KT 10SM BKN100 24/05 A3007 RMK A01,M
TMT,2023-05-22 01:55,-117.1971,39.4643,1749.34,70.00,39.00,32.24,230.00,5.00,0.00,30.10,M,10.00,M,BKN,M,M,M,12000.00,M,M,M,M,M,M,M,M,M,M,70.00,KTMT 220155Z AUTO 23005KT 10SM BKN120 21/04 A3010 RMK AO2 LTG DSNT SW AND NW T02110039,M
10U,2023-05-22 01:55,-116.1876,41.9532,1637.00,69.80,48.20,46.16,330.00,5.00,0.00,30.03,M,10.00,M,FEW,M,M,M,11000.00,M,M,M,M,M,M,M,M,M,M,69.80,K10U 220155Z AUTO 33005KT 10SM FEW110 21/09 A3003 RMK AO2,M
INS,2023-05-22 01:55,-115.6733,36.5872,955.00,86.20,37.80,18.02,240.00,8.00,0.00,29.90,1008.00,10.00,M,CLR,M,M,M,M,M,M,M,M,M,M,M,M,M,M,82.90,KINS 220155Z AUTO 24008KT 10SM CLR 30/03 A2990 RMK AO2 SLP080 T03010032 $,M
LSV,2023-05-22 01:55,-115.0343,36.2362,570.00,92.50,34.50,12.96,90.00,5.00,0.00,29.79,1006.30,10.00,M,CLR,M,M,M,M,M,M,M,M,M,M,M,M,M,M,88.10,KLSV 220155Z AUTO 09005KT 10SM CLR 34/01 A2979 RMK AO2 SLP063 T03360014 $,M
RNO,2023-05-22 01:55,-119.7711,39.4839,1341.00,72.00,42.00,33.97,170.00,22.00,0.00,30.04,1012.90,10.00,25.00,SCT,BKN,BKN,M,4000.00,7000.00,17000.00,M,M,M,M,M,26.00,170.00,2023-05-22 01:54,72.00,KRNO 220155Z 17022G25KT 10SM SCT040 BKN070 BKN170 22/06 A3004 RMK AO2 PK WND 17026/0154 SLP129 T02220056,M
EKO,2023-05-22 01:56,-115.7860,40.8242,1367.00,80.00,32.00,17.42,120.00,4.00,0.00,29.98,1010.20,10.00,M,CLR,M,M,M,M,M,M,M,M,M,M,M,M,M,M,78.63,KEKO 220156Z AUTO 12004KT 10SM CLR 27/00 A2998 RMK AO2 SLP102 T02670000,M
TPH,2023-05-22 01:56,-117.0904,38.0505,1654.00,M,M,M,M,M,0.00,30.10,M,M,M,M,M,M,M,M,M,M,M,M,M,M,M,M,M,M,M,KTPH 220156Z AUTO A3010 RMK AO2 LTG DSNT S SLPNO PWINO $,M
LAS,2023-05-22 01:56,-115.1634,36.0719,663.00,91.00,45.00,20.45,220.00,11.00,0.00,29.85,1008.20,10.00,M,FEW,FEW,M,M,10000.00,25000.00,M,M,M,M,M,M,M,M,M,87.35,KLAS 220156Z 22011KT 10SM FEW100 FEW250 33/07 A2985 RMK AO2 SLP082 CB DSNT N AND E T03280072,M
WMC,2023-05-22 01:56,-117.8072,40.9019,1315.00,70.00,49.00,47.06,350.00,4.00,0.02,30.01,1012.50,10.00,M,OVC,M,M,M,10000.00,M,M,M,-RA,M,M,M,M,M,M,70.00,KWMC 220156Z AUTO 35004KT 10SM -RA OVC100 21/09 A3001 RMK AO2 WSHFT 0051 LTG DSNT N AND NW RAB40 TSB12E27 SLP125 P0002 T02110094,M
NFL,2023-05-22 01:56,-118.7010,39.4166,1199.00,64.00,53.00,67.66,140.00,13.00,0.02,30.10,1015.90,7.00,M,OVC,M,M,M,8500.00,M,M,M,-RA,M,M,M,M,M,M,64.00,KNFL 220156Z AUTO 14013KT 7SM -RA OVC085 18/12 A3010 RMK AO2 RAB15 SLP159 P0002 T01780117,M
HND,2023-05-22 01:56,-115.1344,35.9729,742.79,89.00,46.00,22.54,240.00,12.00,0.00,29.89,1010.90,10.00,M,CLR,M,M,M,M,M,M,M,M,M,M,M,M,M,M,85.76,KHND 220156Z 24012KT 10SM CLR 32/08 A2989 RMK AO2 SLP109 T03170078,M
LOL,2023-05-22 01:57,-118.5701,40.0684,1192.43,64.00,51.00,62.85,150.00,20.00,T,30.05,M,8.00,28.00,FEW,BKN,OVC,M,900.00,9000.00,11000.00,M,-RA,M,M,M,26.00,140.00,2023-05-22 01:54,64.00,KLOL 220157Z AUTO 15020G28KT 8SM -RA FEW009 BKN090 OVC110 18/11 A3005 RMK AO2 PK WND 14026/0154 WSHFT 0140 LTG DSNT N P0000 T01780106,M
05U,2023-05-22 02:10,-116.0051,39.6042,1811.23,69.80,37.40,30.49,350.00,12.00,0.00,30.09,M,10.00,17.00,CLR,M,M,M,M,M,M,M,M,M,M,M,M,M,M,69.80,K05U 220210Z AUTO 35012G17KT 310V010 10SM CLR 21/03 A3009 RMK A01,M
BVU,2023-05-22 02:15,-114.8611,35.9475,671.00,87.80,42.80,20.79,180.00,16.00,0.00,29.87,M,10.00,22.00,CLR,M,M,M,M,M,M,M,M,M,M,M,M,M,M,84.40,KBVU 220215Z AUTO 18016G22KT 10SM CLR 31/06 A2987 RMK AO2 LTG DSNT E,M
CXP,2023-05-22 02:15,-119.7326,39.1923,1431.00,68.00,44.60,42.85,M,5.00,0.00,30.12,M,10.00,M,CLR,M,M,M,M,M,M,M,M,M,M,M,M,M,M,68.00,KCXP 220215Z AUTO VRB05KT 10SM CLR 20/07 A3012 RMK AO2,M
RTS,2023-05-22 02:15,-119.8764,39.6682,1539.00,68.00,42.80,40.00,160.00,12.00,0.00,30.09,M,10.00,17.00,CLR,M,M,M,M,M,M,M,M,M,M,M,M,M,M,68.00,KRTS 220215Z AUTO 16012G17KT 10SM CLR 20/06 A3009 RMK AO2,M
MEV,2023-05-22 02:15,-119.7500,38.9963,1441.42,64.40,44.60,48.55,160.00,10.00,0.00,30.09,M,10.00,M,CLR,M,M,M,M,M,M,M,M,M,M,M,M,M,M,64.40,KMEV 220215Z AUTO 16010KT 10SM CLR 18/07 A3009 RMK AO2,M
BAM,2023-05-22 02:15,-116.8743,40.5990,1382.36,77.00,35.60,22.28,260.00,7.00,0.00,29.99,M,10.00,M,CLR,M,M,M,M,M,M,M,M,M,M,M,M,M,M,77.00,KBAM 220215Z AUTO 26007KT 10SM CLR 25/02 A2999 RMK AO1,M
HTH,2023-05-22 02:15,-118.6315,38.5448,1282.89,73.40,41.00,31.05,320.00,9.00,0.00,30.08,M,10.00,16.00,OVC,M,M,M,11000.00,M,M,M,M,M,M,M,M,M,M,73.40,KHTH 220215Z AUTO 32009G16KT 10SM OVC110 23/05 A3008 RMK A01,M
TMT,2023-05-22 02:15,-117.1971,39.4643,1749.34,69.00,42.40,38.19,220.00,6.00,0.00,30.10,M,10.00,M,OVC,M,M,M,12000.00,M,M,M,M,M,M,M,M,M,M,68.90,KTMT 220215Z AUTO 22006KT 10SM OVC120 21/06 A3010 RMK AO2 T02050058,M
10U,2023-05-22 02:15,-116.1876,41.9532,1637.00,69.80,48.20,46.16,330.00,8.00,0.00,30.04,M,10.00,M,CLR,M,M,M,M,M,M,M,M,M,M,M,M,M,M,69.80,K10U 220215Z AUTO 33008KT 10SM CLR 21/09 A3004 RMK AO2,M
WMC,2023-05-22 02:20,-117.8072,40.9019,1315.00,69.00,52.00,54.45,300.00,8.00,T,30.02,M,10.00,M,FEW,BKN,OVC,M,6500.00,10000.00,12000.00,M,VCTS -RA,M,M,M,M,M,M,69.10,KWMC 220220Z AUTO 30008KT 10SM VCTS -RA FEW065 BKN100 OVC120 21/11 A3002 RMK AO2 LTG DSNT N AND SW RAE0157B20 P0000 T02060111,M
05U,2023-05-22 02:30,-116.0051,39.6042,1811.23,68.00,37.40,32.43,360.00,11.00,0.00,30.10,M,10.00,M,CLR,M,M,M,M,M,M,M,M,M,M,M,M,M,M,68.00,K05U 220230Z AUTO 36011KT 10SM CLR 20/03 A3010 RMK A01,M
BVU,2023-05-22 02:35,-114.8611,35.9475,671.00,87.80,42.80,20.79,190.00,14.00,0.00,29.88,M,10.00,M,CLR,M,M,M,M,M,M,M,M,M,M,M,M,M,M,84.40,KBVU 220235Z AUTO 19014KT 10SM CLR 31/06 A2988 RMK AO2,M
CXP,2023-05-22 02:35,-119.7326,39.1923,1431.00,68.00,42.80,40.00,120.00,5.00,0.00,30.12,M,10.00,M,CLR,M,M,M,M,M,M,M,M,M,M,M,M,M,M,68.00,KCXP 220235Z AUTO 12005KT 10SM CLR 20/06 A3012 RMK AO2,M
WMC,2023-05-22 02:35,-117.8072,40.9019,1315.00,68.00,48.00,48.73,330.00,14.00,T,30.05,M,10.00,22.00,FEW,BKN,OVC,M,6500.00,10000.00,11000.00,M,-RA,M,M,M,M,M,M,68.00,KWMC 220235Z AUTO 33014G22KT 10SM -RA FEW065 BKN100 OVC110 20/09 A3005 RMK AO2 RAE0157B20 PRESRR P0000 T02000089,M
RTS,2023-05-22 02:35,-119.8764,39.6682,1539.00,68.00,42.80,40.00,150.00,12.00,0.00,30.09,M,10.00,M,CLR,M,M,M,M,M,M,M,M,M,M,M,M,M,M,68.00,KRTS 220235Z AUTO 15012KT 10SM CLR 20/06 A3009 RMK AO2,M
MEV,2023-05-22 02:35,-119.7500,38.9963,1441.42,64.40,44.60,48.55,140.00,8.00,0.00,30.10,M,10.00,M,CLR,M,M,M,M,M,M,M,M,M,M,M,M,M,M,64.40,KMEV 220235Z AUTO 14008KT 10SM CLR 18/07 A3010 RMK AO2,M
BAM,2023-05-22 02:35,-116.8743,40.5990,1382.36,77.00,35.60,22.28,240.00,5.00,0.00,30.00,M,10.00,M,CLR,M,M,M,M,M,M,M,M,M,M,M,M,M,M,77.00,KBAM 220235Z AUTO 24005KT 10SM CLR 25/02 A3000 RMK AO1,M
HTH,2023-05-22 02:35,-118.6315,38.5448,1282.89,73.40,41.00,31.05,260.00,6.00,0.00,30.09,M,10.00,M,OVC,M,M,M,11000.00,M,M,M,M,M,M,M,M,M,M,73.40,KHTH 220235Z AUTO 26006KT 10SM OVC110 23/05 A3009 RMK A01,M
10U,2023-05-22 02:35,-116.1876,41.9532,1637.00,66.20,42.80,42.57,320.00,19.00,0.00,30.07,M,10.00,31.00,BKN,BKN,M,M,10000.00,12000.00,M,M,M,M,M,M,M,M,M,66.20,K10U 220235Z AUTO 32019G31KT 10SM BKN100 BKN120 19/06 A3007 RMK AO2,M
05U,2023-05-22 02:50,-116.0051,39.6042,1811.23,66.20,37.40,34.51,10.00,7.00,0.00,30.11,M,10.00,13.00,BKN,M,M,M,11000.00,M,M,M,M,M,M,M,M,M,M,66.20,K05U 220250Z AUTO 01007G13KT 10SM BKN110 19/03 A3011 RMK A01,M
DRA,2023-05-22 02:53,-116.0278,36.6206,1009.00,83.00,43.00,24.51,280.00,6.00,0.00,29.93,1008.80,10.00,M,SCT,M,M,M,11000.00,M,M,M,M,M,M,M,M,M,M,80.73,KDRA 220253Z AUTO 28006KT 10SM SCT110 28/06 A2993 RMK AO2 SLP088 T02830061 53007,M
VGT,2023-05-22 02:53,-115.1933,36.2111,667.00,91.00,44.00,19.76,230.00,9.00,0.00,29.85,1009.70,10.00,M,CLR,M,M,M,M,M,M,M,M,M,M,M,M,M,M,87.27,KVGT 220253Z 23009KT 10SM CLR 33/07 A2985 RMK AO2 SLP097 T03280067 53001 $,M
LOL,2023-05-22 02:53,-118.5701,40.0684,1192.43,63.00,51.00,65.09,140.00,12.00,T,30.08,1015.80,10.00,M,FEW,BKN,OVC,M,5000.00,9500.00,11000.00,M,M,M,M,M,26.00,150.00,2023-05-22 01:58,63.00,KLOL 220253Z AUTO 14012KT 10SM FEW050 BKN095 OVC110 17/11 A3008 RMK AO2 PK WND 15026/0158 WSHFT 0140 RAE21B38E50 SLP158 P0000 60000 T01720106 53035,M
P68,2023-05-22 02:53,-116.0056,39.6014,1993.00,67.00,37.00,33.16,230.00,7.00,0.00,30.09,1011.50,M,M,M,M,M,M,M,M,M,M,M,M,M,M,M,M,M,66.90,KP68 220253Z AUTO 23007KT 19/03 A3009 RMK AO1 SLP115 T01940028 53009,M
ELY,2023-05-22 02:53,-114.8453,39.2950,1909.00,65.00,35.00,32.97,180.00,5.00,0.00,30.14,1012.20,10.00,M,CLR,M,M,M,M,M,M,M,M,M,M,M,M,M,M,64.90,KELY 220253Z AUTO 18005KT 10SM CLR 18/02 A3014 RMK AO2 SLP122 T01830017 53006,M
BVU,2023-05-22 02:55,-114.8611,35.9475,671.00,86.00,42.80,22.02,180.00,14.00,0.00,29.89,M,10.00,M,SCT,M,M,M,12000.00,M,M,M,M,M,M,M,M,M,M,82.95,KBVU 220255Z AUTO 18014KT 10SM SCT120 30/06 A2989 RMK AO2,M
CXP,2023-05-22 02:55,-119.7326,39.1923,1431.00,66.20,44.60,45.60,180.00,5.00,0.00,30.12,M,10.00,M,CLR,M,M,M,M,M,M,M,M,M,M,M,M,M,M,66.20,KCXP 220255Z AUTO 18005KT 10SM CLR 19/07 A3012 RMK AO2,M
RNO,2023-05-22 02:55,-119.7711,39.4839,1341.00,71.00,43.00,36.25,180.00,21.00,0.00,30.05,1012.90,10.00,M,FEW,BKN,M,M,7000.00,16000.00,M,M,M,M,M,M,26.00,170.00,2023-05-22 02:03,71.10,KRNO 220255Z 18021KT 10SM FEW070 BKN160 22/06 A3005 RMK AO2 PK WND 17026/0203 SLP129 60000 T02170061 51005,M
RTS,2023-05-22 02:55,-119.8764,39.6682,1539.00,66.20,42.80,42.57,140.00,11.00,0.00,30.10,M,10.00,M,CLR,M,M,M,M,M,M,M,M,M,M,M,M,M,M,66.20,KRTS 220255Z AUTO 14011KT 10SM CLR 19/06 A3010 RMK AO2,M
MEV,2023-05-22 02:55,-119.7500,38.9963,1441.42,64.40,44.60,48.55,130.00,6.00,0.00,30.10,M,10.00,M,CLR,M,M,M,M,M,M,M,M,M,M,M,M,M,M,64.40,KMEV 220255Z AUTO 13006KT 10SM CLR 18/07 A3010 RMK AO2,M
BAM,2023-05-22 02:55,-116.8743,40.5990,1382.36,75.20,35.60,23.66,0.00,0.00,0.00,30.01,M,10.00,M,CLR,M,M,M,M,M,M,M,M,M,M,M,M,M,M,75.20,KBAM 220255Z AUTO 00000KT 10SM CLR 24/02 A3001 RMK AO1,M
HTH,2023-05-22 02:55,-118.6315,38.5448,1282.89,73.40,39.20,28.96,0.00,0.00,0.00,30.09,M,10.00,M,OVC,M,M,M,11000.00,M,M,M,M,M,M,M,M,M,M,73.40,KHTH 220255Z AUTO 00000KT 10SM OVC110 23/04 A3009 RMK A01,M
TMT,2023-05-22 02:55,-117.1971,39.4643,1749.34,66.00,41.40,40.62,240.00,7.00,0.00,30.13,M,10.00,M,OVC,M,M,M,12000.00,M,M,M,M,M,M,M,M,M,M,66.00,KTMT 220255Z AUTO 24007KT 10SM OVC120 19/05 A3013 RMK AO2 T01890052,M
10U,2023-05-22 02:55,-116.1876,41.9532,1637.00,62.60,42.80,48.28,340.00,14.00,0.00,30.09,M,10.00,21.00,SCT,SCT,OVC,M,4800.00,7500.00,10000.00,M,-RA,M,M,M,M,M,M,62.60,K10U 220255Z AUTO 34014G21KT 10SM -RA SCT048 SCT075 OVC100 17/06 A3009 RMK AO2,M
LSV,2023-05-22 02:55,-115.0343,36.2362,570.00,90.00,43.50,19.92,100.00,17.00,0.00,29.81,1007.00,10.00,23.00,SCT,M,M,M,14000.00,M,M,M,M,M,M,M,M,M,M,86.33,KLSV 220255Z AUTO 10017G23KT 10SM SCT140 32/06 A2981 RMK AO2 SLP070 T03220064 53004 $,M
INS,2023-05-22 02:55,-115.6733,36.5872,955.00,83.50,38.00,19.88,280.00,8.00,0.00,29.91,1008.30,10.00,M,CLR,M,M,M,M,M,M,M,M,M,M,M,M,M,M,80.91,KINS 220255Z AUTO 28008KT 10SM CLR 29/03 A2991 RMK AO2 SLP083 T02860034 53005 $,M
NFL,2023-05-22 02:56,-118.7010,39.4166,1199.00,65.00,50.00,58.47,100.00,13.00,0.04,30.06,1014.80,6.00,20.00,SCT,BKN,OVC,M,6500.00,8000.00,9500.00,M,RA,M,M,M,M,M,M,64.90,KNFL 220256Z AUTO 10013G20KT 6SM RA SCT065 BKN080 OVC095 18/10 A3006 RMK AO2 PRESFR SLP148 P0004 60006 T01830100 50025,M
HND,2023-05-22 02:56,-115.1344,35.9729,742.79,87.00,45.00,23.12,210.00,12.00,0.00,29.91,1011.60,10.00,M,CLR,M,M,M,M,M,M,M,M,M,M,M,M,M,M,83.98,KHND 220256Z 21012KT 10SM CLR 31/07 A2991 RMK AO2 SLP116 T03060072 53006,M
TPH,2023-05-22 02:56,-117.0904,38.0505,1654.00,M,M,M,M,M,0.00,30.10,M,M,M,M,M,M,M,M,M,M,M,M,M,M,M,M,M,M,M,KTPH 220256Z AUTO A3010 RMK AO2 SLPNO 58006 PWINO $,M
EKO,2023-05-22 02:56,-115.7860,40.8242,1367.00,73.00,40.00,30.16,340.00,6.00,0.00,29.99,1010.70,10.00,M,CLR,M,M,M,M,M,M,M,M,M,M,M,M,M,M,73.00,KEKO 220256Z AUTO 34006KT 10SM CLR 23/04 A2999 RMK AO2 SLP107 T02280044 53000,M
WMC,2023-05-22 02:56,-117.8072,40.9019,1315.00,65.00,51.00,60.90,350.00,15.00,T,30.06,1014.30,10.00,24.00,OVC,M,M,M,9000.00,M,M,M,M,M,M,M,M,M,M,64.90,KWMC 220256Z AUTO 35015G24KT 10SM OVC090 18/11 A3006 RMK AO2 RAE0157B20E54 SLP143 P0000 60002 T01830106 53021,M
LAS,2023-05-22 02:56,-115.1634,36.0719,663.00,89.00,44.00,20.97,210.00,10.00,0.00,29.87,1008.80,10.00,16.00,FEW,SCT,SCT,M,10000.00,14000.00,25000.00,M,M,M,M,M,M,M,M,85.59,KLAS 220256Z 21010G16KT 10SM FEW100 SCT140 SCT250 32/07 A2987 RMK AO2 SLP088 CB DSNT SE SH DSNT NW AND N T03170067 53005,M
05U,2023-05-22 03:10,-116.0051,39.6042,1811.23,66.20,37.40,34.51,M,4.00,0.00,30.12,M,10.00,M,SCT,M,M,M,11000.00,M,M,M,M,M,M,M,M,M,M,66.20,K05U 220310Z AUTO VRB04KT 10SM SCT110 19/03 A3012 RMK A01,M
NFL,2023-05-22 03:13,-118.7010,39.4166,1199.00,63.00,52.00,67.29,100.00,11.00,T,30.05,M,10.00,22.00,FEW,BKN,OVC,M,6500.00,9000.00,11000.00,M,M,M,M,M,M,M,M,63.00,KNFL 220313Z AUTO 10011G22KT 10SM FEW065 BKN090 OVC110 17/11 A3005 RMK AO2 WSHFT 0253 RAE12 P0000 T01720111,M
BVU,2023-05-22 03:15,-114.8611,35.9475,671.00,86.00,44.60,23.59,200.00,10.00,0.00,29.90,M,10.00,M,CLR,M,M,M,M,M,M,M,M,M,M,M,M,M,M,83.07,KBVU 220315Z AUTO 20010KT 10SM CLR 30/07 A2990 RMK AO2,M
CXP,2023-05-22 03:15,-119.7326,39.1923,1431.00,66.20,44.60,45.60,270.00,3.00,0.00,30.13,M,10.00,M,CLR,M,M,M,M,M,M,M,M,M,M,M,M,M,M,66.20,KCXP 220315Z AUTO 27003KT 10SM CLR 19/07 A3013 RMK AO2,M
RTS,2023-05-22 03:15,-119.8764,39.6682,1539.00,66.20,44.60,45.60,100.00,6.00,0.00,30.11,M,10.00,M,CLR,M,M,M,M,M,M,M,M,M,M,M,M,M,M,66.20,KRTS 220315Z AUTO 10006KT 10SM CLR 19/07 A3011 RMK AO2,M
MEV,2023-05-22 03:15,-119.7500,38.9963,1441.42,62.60,44.60,51.72,0.00,0.00,0.00,30.11,M,10.00,M,CLR,M,M,M,M,M,M,M,M,M,M,M,M,M,M,62.60,KMEV 220315Z AUTO 00000KT 10SM CLR 17/07 A3011 RMK AO2,M
BAM,2023-05-22 03:15,-116.8743,40.5990,1382.36,73.40,35.60,25.13,190.00,5.00,0.00,30.03,M,10.00,M,CLR,M,M,M,M,M,M,M,M,M,M,M,M,M,M,73.40,KBAM 220315Z AUTO 19005KT 10SM CLR 23/02 A3003 RMK AO1,M
HTH,2023-05-22 03:15,-118.6315,38.5448,1282.89,73.40,41.00,31.05,90.00,7.00,0.00,30.09,M,10.00,M,BKN,M,M,M,11000.00,M,M,M,M,M,M,M,M,M,M,73.40,KHTH 220315Z AUTO 09007KT 10SM BKN110 23/05 A3009 RMK A01,M
TMT,2023-05-22 03:15,-117.1971,39.4643,1749.34,66.20,40.30,38.65,240.00,11.00,0.00,30.15,M,10.00,M,OVC,M,M,M,11000.00,M,M,M,M,M,M,M,M,M,M,66.20,KTMT 220315Z AUTO 24011KT 10SM OVC110 19/05 A3015 RMK AO2 T01900046,M
10U,2023-05-22 03:15,-116.1876,41.9532,1637.00,62.60,44.60,51.72,360.00,7.00,0.00,30.12,M,10.00,M,FEW,SCT,OVC,M,2400.00,4700.00,7500.00,M,M,M,M,M,M,M,M,62.60,K10U 220315Z AUTO 36007KT 10SM FEW024 SCT047 OVC075 17/07 A3012 RMK AO2,M
05U,2023-05-22 03:30,-116.0051,39.6042,1811.23,66.20,35.60,32.14,360.00,7.00,0.00,30.13,M,10.00,M,SCT,M,M,M,11000.00,M,M,M,M,M,M,M,M,M,M,66.20,K05U 220330Z AUTO 36007KT 10SM SCT110 19/02 A3013 RMK A01,M
BVU,2023-05-22 03:35,-114.8611,35.9475,671.00,84.20,46.40,26.76,200.00,4.00,0.00,29.91,M,10.00,M,CLR,M,M,M,M,M,M,M,M,M,M,M,M,M,M,81.87,KBVU 220335Z AUTO 20004KT 10SM CLR 29/08 A2991 RMK AO2,M
CXP,2023-05-22 03:35,-119.7326,39.1923,1431.00,66.20,42.80,42.57,0.00,0.00,0.00,30.12,M,10.00,M,CLR,M,M,M,M,M,M,M,M,M,M,M,M,M,M,66.20,KCXP 220335Z AUTO 00000KT 10SM CLR 19/06 A3012 RMK AO2,M
RTS,2023-05-22 03:35,-119.8764,39.6682,1539.00,64.40,46.40,51.98,70.00,3.00,0.00,30.11,M,10.00,M,CLR,M,M,M,M,M,M,M,M,M,M,M,M,M,M,64.40,KRTS 220335Z AUTO 07003KT 10SM CLR 18/08 A3011 RMK AO2,M
MEV,2023-05-22 03:35,-119.7500,38.9963,1441.42,60.80,42.80,51.45,250.00,5.00,0.00,30.11,M,10.00,M,CLR,M,M,M,M,M,M,M,M,M,M,M,M,M,M,60.80,KMEV 220335Z AUTO 25005KT 10SM CLR 16/06 A3011 RMK AO2,M
BAM,2023-05-22 03:35,-116.8743,40.5990,1382.36,71.60,37.40,28.68,90.00,3.00,0.00,30.04,M,10.00,M,CLR,M,M,M,M,M,M,M,M,M,M,M,M,M,M,71.60,KBAM 220335Z AUTO 09003KT 10SM CLR 22/03 A3004 RMK AO1,M
HTH,2023-05-22 03:35,-118.6315,38.5448,1282.89,71.60,42.80,35.37,70.00,8.00,0.00,30.08,M,10.00,M,FEW,M,M,M,12000.00,M,M,M,M,M,M,M,M,M,M,71.60,KHTH 220335Z AUTO 07008KT 10SM FEW120 22/06 A3008 RMK A01,M
TMT,2023-05-22 03:35,-117.1971,39.4643,1749.34,64.60,40.30,40.87,310.00,8.00,0.00,30.16,M,10.00,M,BKN,OVC,M,M,9000.00,10000.00,M,M,M,M,M,M,M,M,M,64.60,KTMT 220335Z AUTO 31008KT 10SM BKN090 OVC100 18/05 A3016 RMK AO2 T01810046,M
10U,2023-05-22 03:35,-116.1876,41.9532,1637.00,62.60,44.60,51.72,350.00,14.00,0.00,30.11,M,10.00,M,FEW,SCT,BKN,M,2200.00,4700.00,6000.00,M,M,M,M,M,M,M,M,62.60,K10U 220335Z AUTO 35014KT 10SM FEW022 SCT047 BKN060 17/07 A3011 RMK AO2,M
05U,2023-05-22 03:50,-116.0051,39.6042,1811.23,66.20,35.60,32.14,300.00,8.00,0.00,30.13,M,10.00,M,BKN,M,M,M,10000.00,M,M,M,M,M,M,M,M,M,M,66.20,K05U 220350Z AUTO 30008KT 230V010 10SM BKN100 19/02 A3013 RMK A01,M
P68,2023-05-22 03:53,-116.0056,39.6014,1993.00,67.00,36.00,31.87,M,6.00,0.00,30.10,1011.50,M,14.00,M,M,M,M,M,M,M,M,M,M,M,M,M,M,M,66.90,KP68 220353Z AUTO VRB06G14KT 19/02 A3010 RMK AO1 SLP115 T01940022,M
LOL,2023-05-22 03:53,-118.5701,40.0684,1192.43,65.00,46.00,50.32,140.00,11.00,T,30.06,1014.40,10.00,M,CLR,M,M,M,M,M,M,M,M,M,M,M,M,M,M,64.90,KLOL 220353Z AUTO 14011KT 10SM CLR 18/08 A3006 RMK AO2 RAB02E14 SLP144 P0000 T01830078,M
DRA,2023-05-22 03:53,-116.0278,36.6206,1009.00,81.00,44.00,27.20,220.00,7.00,0.00,29.95,1009.50,10.00,M,CLR,M,M,M,M,M,M,M,M,M,M,M,M,M,M,79.62,KDRA 220353Z AUTO 22007KT 10SM CLR 27/07 A2995 RMK AO2 SLP095 T02720067,M
VGT,2023-05-22 03:53,-115.1933,36.2111,667.00,89.00,45.00,21.70,200.00,11.00,0.00,29.88,1010.60,10.00,M,CLR,M,M,M,M,M,M,M,M,M,M,M,M,M,M,85.66,KVGT 220353Z AUTO 20011KT 10SM CLR 32/07 A2988 RMK AO2 SLP106 T03170072 $,M
ELY,2023-05-22 03:53,-114.8453,39.2950,1909.00,58.00,38.00,47.18,160.00,8.00,0.00,30.14,1012.40,10.00,M,CLR,M,M,M,M,M,M,M,M,M,M,M,M,M,M,57.90,KELY 220353Z AUTO 16008KT 10SM CLR 14/03 A3014 RMK AO2 SLP124 T01440033,M
BVU,2023-05-22 03:55,-114.8611,35.9475,671.00,84.20,46.40,26.76,140.00,4.00,0.00,29.91,M,10.00,M,CLR,M,M,M,M,M,M,M,M,M,M,M,M,M,M,81.87,KBVU 220355Z AUTO 14004KT 10SM CLR 29/08 A2991 RMK AO2,M
CXP,2023-05-22 03:55,-119.7326,39.1923,1431.00,64.40,42.80,45.32,40.00,3.00,0.00,30.12,M,10.00,M,CLR,M,M,M,M,M,M,M,M,M,M,M,M,M,M,64.40,KCXP 220355Z AUTO 04003KT 10SM CLR 18/06 A3012 RMK AO2,M
RTS,2023-05-22 03:55,-119.8764,39.6682,1539.00,60.80,46.40,59.01,60.00,5.00,0.00,30.12,M,10.00,M,CLR,M,M,M,M,M,M,M,M,M,M,M,M,M,M,60.80,KRTS 220355Z AUTO 06005KT 10SM CLR 16/08 A3012 RMK AO2,M
MEV,2023-05-22 03:55,-119.7500,38.9963,1441.42,60.80,44.60,55.12,270.00,3.00,0.00,30.10,M,10.00,M,CLR,M,M,M,M,M,M,M,M,M,M,M,M,M,M,60.80,KMEV 220355Z AUTO 27003KT 10SM CLR 16/07 A3010 RMK AO2,M
BAM,2023-05-22 03:55,-116.8743,40.5990,1382.36,73.40,41.00,31.05,340.00,16.00,0.00,30.07,M,10.00,24.00,SCT,M,M,M,12000.00,M,M,M,M,M,M,M,M,M,M,73.40,KBAM 220355Z AUTO 34016G24KT 10SM SCT120 23/05 A3007 RMK AO1,M
HTH,2023-05-22 03:55,-118.6315,38.5448,1282.89,71.60,42.80,35.37,310.00,12.00,0.00,30.08,M,10.00,M,FEW,M,M,M,12000.00,M,M,M,M,M,M,M,M,M,M,71.60,KHTH 220355Z AUTO 31012KT 10SM FEW120 22/06 A3008 RMK A01,M
TMT,2023-05-22 03:55,-117.1971,39.4643,1749.34,63.50,40.80,43.30,300.00,4.00,0.00,30.18,M,10.00,M,OVC,M,M,M,9000.00,M,M,M,M,M,M,M,M,M,M,63.50,KTMT 220355Z AUTO 30004KT 10SM OVC090 18/05 A3018 RMK AO2 T01750049,M
10U,2023-05-22 03:55,-116.1876,41.9532,1637.00,62.60,44.60,51.72,M,4.00,0.00,30.15,M,10.00,13.00,SCT,BKN,OVC,M,2800.00,4700.00,5500.00,M,M,M,M,M,M,M,M,62.60,K10U 220355Z AUTO VRB04G13KT 10SM SCT028 BKN047 OVC055 17/07 A3015 RMK AO2,M
INS,2023-05-22 03:55,-115.6733,36.5872,955.00,82.00,38.30,21.04,140.00,8.00,0.00,29.94,1009.20,10.00,M,BKN,BKN,M,M,10000.00,12000.00,M,M,VCTS,M,M,M,M,M,M,79.91,KINS 220355Z AUTO 14008KT 10SM VCTS BKN100 BKN120 28/04 A2994 RMK AO2 SLP092 T02780035 $,M
LSV,2023-05-22 03:55,-115.0343,36.2362,570.00,86.70,44.40,22.89,80.00,17.00,0.00,29.84,1008.10,10.00,22.00,SCT,M,M,M,11000.00,M,M,M,M,M,M,M,M,M,M,83.61,KLSV 220355Z AUTO 08017G22KT 10SM SCT110 30/07 A2984 RMK AO2 SLP081 T03040069 $,M
RNO,2023-05-22 03:55,-119.7711,39.4839,1341.00,69.00,44.00,40.48,180.00,15.00,0.00,30.07,1013.30,10.00,M,FEW,BKN,M,M,7000.00,16000.00,M,M,M,M,M,M,M,M,M,69.10,KRNO 220355Z 18015KT 10SM FEW070 BKN160 21/07 A3007 RMK AO2 SLP133 T02060067,M
WMC,2023-05-22 03:56,-117.8072,40.9019,1315.00,64.00,50.00,60.34,150.00,11.00,T,30.10,1015.20,10.00,M,FEW,BKN,OVC,M,6000.00,7000.00,8500.00,M,-RA,M,M,M,M,M,M,64.00,KWMC 220356Z AUTO 15011KT 10SM -RA FEW060 BKN070 OVC085 18/10 A3010 RMK AO2 LTG DSNT NW RAB08 SLP152 P0000 T01780100,M
TPH,2023-05-22 03:56,-117.0904,38.0505,1654.00,M,M,M,M,M,0.00,30.12,M,M,M,M,M,M,M,M,M,M,M,M,M,M,M,M,M,M,M,KTPH 220356Z AUTO A3012 RMK AO2 SLPNO PWINO $,M
EKO,2023-05-22 03:56,-115.7860,40.8242,1367.00,68.00,40.00,35.76,240.00,8.00,0.00,30.03,1011.80,10.00,M,CLR,M,M,M,M,M,M,M,M,M,M,M,M,M,M,68.00,KEKO 220356Z AUTO 24008KT 10SM CLR 20/04 A3003 RMK AO2 SLP118 T02000044,M
NFL,2023-05-22 03:56,-118.7010,39.4166,1199.00,65.00,49.00,56.12,50.00,6.00,T,30.05,1014.40,10.00,M,CLR,M,M,M,M,M,M,M,M,M,M,M,M,M,M,64.90,KNFL 220356Z AUTO 05006KT 10SM CLR 18/09 A3005 RMK AO2 WSHFT 0253 RAE12 SLP144 P0000 T01830094,M
HND,2023-05-22 03:56,-115.1344,35.9729,742.79,83.00,47.00,28.43,170.00,12.00,0.00,29.93,1012.50,10.00,M,CLR,M,M,M,M,M,M,M,M,M,M,M,M,M,M,81.01,KHND 220356Z AUTO 17012KT 10SM CLR 28/08 A2993 RMK AO2 SLP125 T02830083,M
LAS,2023-05-22 03:56,-115.1634,36.0719,663.00,87.00,44.00,22.34,190.00,11.00,0.00,29.89,1009.70,10.00,17.00,FEW,SCT,SCT,M,10000.00,14000.00,25000.00,M,M,M,M,M,M,M,M,83.91,KLAS 220356Z 19011G17KT 10SM FEW100 SCT140 SCT250 31/07 A2989 RMK AO2 SLP097 T03060067,M
05U,2023-05-22 04:10,-116.0051,39.6042,1811.23,64.40,39.20,39.43,20.00,7.00,0.00,30.14,M,10.00,M,BKN,M,M,M,11000.00,M,M,M,M,M,M,M,M,M,M,64.40,K05U 220410Z AUTO 02007KT 360V090 10SM BKN110 18/04 A3014 RMK A01,M
BVU,2023-05-22 04:15,-114.8611,35.9475,671.00,82.40,48.20,30.35,0.00,0.00,0.00,29.91,M,10.00,M,CLR,M,M,M,M,M,M,M,M,M,M,M,M,M,M,80.80,KBVU 220415Z AUTO 00000KT 10SM CLR 28/09 A2991 RMK AO2,M
CXP,2023-05-22 04:15,-119.7326,39.1923,1431.00,64.40,42.80,45.32,0.00,0.00,0.00,30.12,M,10.00,M,CLR,M,M,M,M,M,M,M,M,M,M,M,M,M,M,64.40,KCXP 220415Z AUTO 00000KT 10SM CLR 18/06 A3012 RMK AO2,M
RTS,2023-05-22 04:15,-119.8764,39.6682,1539.00,60.80,46.40,59.01,60.00,11.00,0.00,30.12,M,10.00,M,CLR,M,M,M,M,M,M,M,M,M,M,M,M,M,M,60.80,KRTS 220415Z AUTO 06011KT 10SM CLR 16/08 A3012 RMK AO2,M
MEV,2023-05-22 04:15,-119.7500,38.9963,1441.42,57.20,46.40,67.12,100.00,4.00,0.00,30.11,M,10.00,M,FEW,FEW,M,M,5000.00,6000.00,M,M,M,M,M,M,M,M,M,57.20,KMEV 220415Z AUTO 10004KT 10SM FEW050 FEW060 14/08 A3011 RMK AO2,M
BAM,2023-05-22 04:15,-116.8743,40.5990,1382.36,71.60,46.40,40.57,330.00,15.00,0.00,30.09,M,10.00,M,BKN,M,M,M,11000.00,M,M,M,M,M,M,M,M,M,M,71.60,KBAM 220415Z AUTO 33015KT 10SM BKN110 22/08 A3009 RMK AO1,M
HTH,2023-05-22 04:15,-118.6315,38.5448,1282.89,69.80,42.80,37.61,310.00,11.00,0.00,30.08,M,10.00,M,CLR,M,M,M,M,M,M,M,M,M,M,M,M,M,M,69.80,KHTH 220415Z AUTO 31011KT 10SM CLR 21/06 A3008 RMK A01,M
10U,2023-05-22 04:15,-116.1876,41.9532,1637.00,62.60,44.60,51.72,300.00,8.00,0.00,30.16,M,10.00,M,FEW,SCT,OVC,M,2800.00,5000.00,7500.00,M,M,M,M,M,M,M,M,62.60,K10U 220415Z AUTO 30008KT 10SM FEW028 SCT050 OVC075 17/07 A3016 RMK AO2,M
TMT,2023-05-22 04:15,-117.1971,39.4643,1749.34,62.00,40.80,45.81,220.00,7.00,0.00,30.19,M,10.00,M,OVC,M,M,M,9000.00,M,M,M,M,M,M,M,M,M,M,61.90,KTMT 220415Z AUTO 22007KT 10SM OVC090 17/05 A3019 RMK AO2 T01660049,M
INS,2023-05-22 04:16,-115.6733,36.5872,955.00,80.60,39.20,22.81,60.00,20.00,0.00,29.96,1009.90,10.00,M,OVC,M,M,M,10000.00,M,M,M,-RA,M,M,M,M,M,M,79.10,KINS 220416Z AUTO 06020KT 10SM -RA OVC100 27/04 A2996 RMK AO2 RAB16 SLP099 $,M
INS,2023-05-22 04:27,-115.6733,36.5872,955.00,78.80,42.80,27.81,80.00,12.00,0.00,29.96,1009.90,10.00,M,BKN,OVC,M,M,10000.00,13000.00,M,M,M,M,M,M,M,M,M,78.80,KINS 220427Z AUTO 08012KT 10SM BKN100 OVC130 26/06 A2996 RMK AO2 RAB16E27 SLP099 $,M
05U,2023-05-22 04:30,-116.0051,39.6042,1811.23,60.80,39.20,44.76,M,5.00,0.00,30.14,M,10.00,M,FEW,M,M,M,11000.00,M,M,M,M,M,M,M,M,M,M,60.80,K05U 220430Z AUTO VRB05KT 10SM FEW110 16/04 A3014 RMK A01,M
INS,2023-05-22 04:31,-115.6733,36.5872,955.00,78.80,42.80,27.81,100.00,14.00,0.00,29.97,1010.20,10.00,M,BKN,OVC,M,M,10000.00,13000.00,M,M,TS,M,M,M,M,M,M,78.80,KINS 220431Z AUTO 10014KT 10SM TS BKN100 OVC130 26/06 A2997 RMK AO2 RAB16E27 TSB31 SLP102 $,M
INS,2023-05-22 04:32,-115.6733,36.5872,955.00,78.80,42.80,27.81,100.00,15.00,0.00,29.97,1010.20,10.00,M,BKN,OVC,M,M,10000.00,13000.00,M,M,-TSRA,M,M,M,M,M,M,78.80,KINS 220432Z AUTO 10015KT 10SM -TSRA BKN100 OVC130 26/06 A2997 RMK AO2 RAB16E27RAB31 TSB31 SLP102 $,M
BVU,2023-05-22 04:35,-114.8611,35.9475,671.00,80.60,48.20,32.18,80.00,3.00,0.00,29.92,M,10.00,M,CLR,M,M,M,M,M,M,M,M,M,M,M,M,M,M,79.71,KBVU 220435Z AUTO 08003KT 10SM CLR 27/09 A2992 RMK AO2,M
CXP,2023-05-22 04:35,-119.7326,39.1923,1431.00,62.60,44.60,51.72,0.00,0.00,0.00,30.12,M,10.00,M,CLR,M,M,M,M,M,M,M,M,M,M,M,M,M,M,62.60,KCXP 220435Z AUTO 00000KT 10SM CLR 17/07 A3012 RMK AO2,M
RTS,2023-05-22 04:35,-119.8764,39.6682,1539.00,60.80,46.40,59.01,80.00,5.00,0.00,30.14,M,10.00,M,CLR,M,M,M,M,M,M,M,M,M,M,M,M,M,M,60.80,KRTS 220435Z AUTO 08005KT 10SM CLR 16/08 A3014 RMK AO2,M
MEV,2023-05-22 04:35,-119.7500,38.9963,1441.42,59.00,44.60,58.77,0.00,0.00,0.00,30.12,M,10.00,M,FEW,M,M,M,4700.00,M,M,M,M,M,M,M,M,M,M,59.00,KMEV 220435Z AUTO 00000KT 10SM FEW047 15/07 A3012 RMK AO2,M
BAM,2023-05-22 04:35,-116.8743,40.5990,1382.36,69.80,46.40,43.13,340.00,15.00,0.00,30.11,M,10.00,21.00,SCT,OVC,M,M,9000.00,11000.00,M,M,M,M,M,M,M,M,M,69.80,KBAM 220435Z AUTO 34015G21KT 10SM SCT090 OVC110 21/08 A3011 RMK AO1,M
HTH,2023-05-22 04:35,-118.6315,38.5448,1282.89,69.80,44.60,40.29,320.00,11.00,0.00,30.09,M,10.00,M,CLR,M,M,M,M,M,M,M,M,M,M,M,M,M,M,69.80,KHTH 220435Z AUTO 32011KT 10SM CLR 21/07 A3009 RMK A01,M
TMT,2023-05-22 04:35,-117.1971,39.4643,1749.34,62.00,41.20,46.20,240.00,6.00,0.00,30.20,M,10.00,M,SCT,M,M,M,8000.00,M,M,M,M,M,M,M,M,M,M,62.10,KTMT 220435Z AUTO 24006KT 10SM SCT080 17/05 A3020 RMK AO2 T01670051,M
10U,2023-05-22 04:35,-116.1876,41.9532,1637.00,59.00,48.20,67.33,M,5.00,0.00,30.17,M,10.00,M,FEW,SCT,BKN,M,2500.00,4200.00,7500.00,M,-RA,M,M,M,M,M,M,59.00,K10U 220435Z AUTO VRB05KT 10SM -RA FEW025 SCT042 BKN075 15/09 A3017 RMK AO2,M
INS,2023-05-22 04:46,-115.6733,36.5872,955.00,77.00,50.00,38.74,70.00,15.00,0.00,29.99,1011.10,10.00,M,SCT,BKN,OVC,M,5000.00,8500.00,11000.00,M,-RA,M,M,M,M,M,M,77.00,KINS 220446Z AUTO 07015KT 10SM -RA SCT050 BKN085 OVC110 25/10 A2999 RMK AO2 RAB16E27RAB31E32DZB32E34RAB34 TSB31E46 PRESRR SLP111 $,M
05U,2023-05-22 04:50,-116.0051,39.6042,1811.23,60.80,37.40,41.71,M,4.00,0.00,30.15,M,10.00,M,BKN,M,M,M,11000.00,M,M,M,M,M,M,M,M,M,M,60.80,K05U 220450Z AUTO VRB04KT 10SM BKN110 16/03 A3015 RMK A01,M
DRA,2023-05-22 04:53,-116.0278,36.6206,1009.00,79.00,45.00,30.05,220.00,11.00,0.00,29.98,1010.50,10.00,M,FEW,M,M,M,12000.00,M,M,M,M,M,M,M,M,M,M,79.00,KDRA 220453Z AUTO 22011KT 10SM FEW120 26/07 A2998 RMK AO2 SLP105 T02610072,M
VGT,2023-05-22 04:53,-115.1933,36.2111,667.00,87.00,45.00,23.12,200.00,8.00,0.00,29.89,1011.30,10.00,M,CLR,M,M,M,M,M,M,M,M,M,M,M,M,M,M,83.98,KVGT 220453Z AUTO 20008KT 10SM CLR 31/07 A2989 RMK AO2 SLP113 T03060072 $,M
P68,2023-05-22 04:53,-116.0056,39.6014,1993.00,61.00,38.00,42.24,230.00,4.00,0.00,30.12,1012.40,M,M,M,M,M,M,M,M,M,M,M,M,M,M,M,M,M,61.00,KP68 220453Z AUTO 23004KT 16/03 A3012 RMK AO1 SLP124 T01610033,M
ELY,2023-05-22 04:53,-114.8453,39.2950,1909.00,58.00,38.00,47.18,210.00,7.00,0.00,30.14,1011.70,10.00,M,BKN,M,M,M,11000.00,M,M,M,M,M,M,M,M,M,M,57.90,KELY 220453Z AUTO 21007KT 10SM BKN110 14/03 A3014 RMK AO2 SLP117 T01440033,M
LOL,2023-05-22 04:53,-118.5701,40.0684,1192.43,65.00,47.00,52.06,280.00,4.00,0.00,30.06,1014.30,10.00,M,CLR,M,M,M,M,M,M,M,M,M,M,M,M,M,M,64.90,KLOL 220453Z AUTO 28004KT 10SM CLR 18/08 A3006 RMK AO2 SLP143 T01830083,M
BVU,2023-05-22 04:55,-114.8611,35.9475,671.00,80.60,46.40,30.07,0.00,0.00,0.00,29.91,M,10.00,M,CLR,M,M,M,M,M,M,M,M,M,M,M,M,M,M,79.56,KBVU 220455Z AUTO 00000KT 10SM CLR 27/08 A2991 RMK AO2,M
CXP,2023-05-22 04:55,-119.7326,39.1923,1431.00,62.60,44.60,51.72,0.00,0.00,0.00,30.12,M,10.00,M,CLR,M,M,M,M,M,M,M,M,M,M,M,M,M,M,62.60,KCXP 220455Z AUTO 00000KT 10SM CLR 17/07 A3012 RMK AO2,M
RNO,2023-05-22 04:55,-119.7711,39.4839,1341.00,68.00,43.00,40.31,0.00,0.00,0.00,30.09,1014.00,10.00,M,FEW,SCT,M,M,7000.00,16000.00,M,M,M,M,M,M,M,M,M,68.00,KRNO 220455Z 00000KT 10SM FEW070 SCT160 20/06 A3009 RMK AO2 SLP140 T02000061,M
RTS,2023-05-22 04:55,-119.8764,39.6682,1539.00,62.60,44.60,51.72,M,3.00,0.00,30.13,M,10.00,M,CLR,M,M,M,M,M,M,M,M,M,M,M,M,M,M,62.60,KRTS 220455Z AUTO VRB03KT 10SM CLR 17/07 A3013 RMK AO2,M
MEV,2023-05-22 04:55,-119.7500,38.9963,1441.42,55.40,44.60,66.91,120.00,7.00,0.00,30.11,M,10.00,M,SCT,SCT,SCT,M,4300.00,4900.00,7000.00,M,M,M,M,M,M,M,M,55.40,KMEV 220455Z AUTO 12007KT 10SM SCT043 SCT049 SCT070 13/07 A3011 RMK AO2,M
BAM,2023-05-22 04:55,-116.8743,40.5990,1382.36,69.80,48.20,46.16,340.00,12.00,0.00,30.13,M,10.00,20.00,BKN,OVC,M,M,9000.00,11000.00,M,M,M,M,M,M,M,M,M,69.80,KBAM 220455Z AUTO 34012G20KT 10SM BKN090 OVC110 21/09 A3013 RMK AO1,M
HTH,2023-05-22 04:55,-118.6315,38.5448,1282.89,68.00,44.60,42.85,330.00,9.00,0.00,30.10,M,10.00,M,CLR,M,M,M,M,M,M,M,M,M,M,M,M,M,M,68.00,KHTH 220455Z AUTO 33009KT 10SM CLR 20/07 A3010 RMK A01,M
TMT,2023-05-22 04:55,-117.1971,39.4643,1749.34,61.20,41.40,48.06,250.00,4.00,0.00,30.20,M,10.00,M,SCT,M,M,M,12000.00,M,M,M,M,M,M,M,M,M,M,61.20,KTMT 220455Z AUTO 25004KT 10SM SCT120 16/05 A3020 RMK AO2 T01620052,M
10U,2023-05-22 04:55,-116.1876,41.9532,1637.00,57.20,48.20,71.83,210.00,9.00,0.00,30.20,M,10.00,M,FEW,SCT,BKN,M,4700.00,6500.00,7500.00,M,M,M,M,M,M,M,M,57.20,K10U 220455Z AUTO 21009KT 10SM FEW047 SCT065 BKN075 14/09 A3020 RMK AO2,M
INS,2023-05-22 04:55,-115.6733,36.5872,955.00,74.80,47.50,37.97,70.00,15.00,T,29.98,1010.80,10.00,M,FEW,BKN,BKN,OVC,3600.00,5000.00,8500.00,11000.00,-RA,M,M,M,M,M,M,74.80,KINS 220455Z AUTO 07015KT 10SM -RA FEW036 BKN050 BKN085 OVC110 24/09 A2998 RMK AO2 RAB16E27RAB31E32DZB32E34RAB34 TSB31E46 SLP108 P0000 T02380086 $,M
LSV,2023-05-22 04:55,-115.0343,36.2362,570.00,84.60,43.70,23.84,110.00,10.00,0.00,29.86,1008.60,10.00,M,CLR,M,M,M,M,M,M,M,M,M,M,M,M,M,M,81.96,KLSV 220455Z AUTO 11010KT 10SM CLR 29/07 A2986 RMK AO2 SLP086 T02920065 $,M
EKO,2023-05-22 04:56,-115.7860,40.8242,1367.00,70.00,39.00,32.24,280.00,7.00,0.00,30.05,1012.00,10.00,M,FEW,M,M,M,12000.00,M,M,M,M,M,M,M,M,M,M,70.00,KEKO 220456Z AUTO 28007KT 10SM FEW120 21/04 A3005 RMK AO2 SLP120 T02110039,M
WMC,2023-05-22 04:56,-117.8072,40.9019,1315.00,60.00,50.00,69.24,150.00,13.00,T,30.10,1014.90,10.00,M,BKN,OVC,M,M,7500.00,9500.00,M,M,-RA,M,M,M,26.00,140.00,2023-05-22 04:05,60.10,KWMC 220456Z AUTO 15013KT 10SM -RA BKN075 OVC095 16/10 A3010 RMK AO2 PK WND 14026/0405 SLP149 P0000 T01560100,M
HND,2023-05-22 04:56,-115.1344,35.9729,742.79,82.00,45.00,27.24,210.00,8.00,0.00,29.95,1013.10,10.00,M,CLR,M,M,M,M,M,M,M,M,M,M,M,M,M,M,80.28,KHND 220456Z AUTO 21008KT 10SM CLR 28/07 A2995 RMK AO2 SLP131 T02780072,M
TPH,2023-05-22 04:56,-117.0904,38.0505,1654.00,M,M,M,M,M,0.00,30.12,M,M,M,M,M,M,M,M,M,M,M,M,M,M,M,M,M,M,M,KTPH 220456Z AUTO A3012 RMK AO2 SLPNO PWINO $,M
LAS,2023-05-22 04:56,-115.1634,36.0719,663.00,84.00,45.00,25.54,210.00,7.00,0.00,29.91,1010.40,10.00,M,FEW,SCT,M,M,10000.00,14000.00,M,M,M,M,M,M,M,M,M,81.61,KLAS 220456Z 21007KT 10SM FEW100 SCT140 29/07 A2991 RMK AO2 SLP104 T02890072,M
NFL,2023-05-22 04:56,-118.7010,39.4166,1199.00,64.00,51.00,62.85,170.00,5.00,0.00,30.05,1014.50,10.00,M,CLR,M,M,M,M,M,M,M,M,M,M,M,M,M,M,64.00,KNFL 220456Z AUTO 17005KT 10SM CLR 18/11 A3005 RMK AO2 SLP145 T01780106,M
WMC,2023-05-22 05:07,-117.8072,40.9019,1315.00,61.00,50.00,67.06,M,6.00,T,30.10,M,10.00,M,BKN,OVC,M,M,8000.00,10000.00,M,M,-RA,M,M,M,M,M,M,61.00,KWMC 220507Z AUTO VRB06KT 10SM -RA BKN080 OVC100 16/10 A3010 RMK AO2 WSHFT 0447 P0000 T01610100,M
05U,2023-05-22 05:10,-116.0051,39.6042,1811.23,64.40,37.40,36.74,10.00,12.00,0.00,30.16,M,10.00,M,BKN,M,M,M,11000.00,M,M,M,M,M,M,M,M,M,M,64.40,K05U 220510Z AUTO 01012KT 10SM BKN110 18/03 A3016 RMK A01,M
BVU,2023-05-22 05:15,-114.8611,35.9475,671.00,78.80,48.20,34.13,0.00,0.00,0.00,29.91,M,10.00,M,CLR,M,M,M,M,M,M,M,M,M,M,M,M,M,M,78.80,KBVU 220515Z AUTO 00000KT 10SM CLR 26/09 A2991 RMK AO2,M
CXP,2023-05-22 05:15,-119.7326,39.1923,1431.00,60.80,44.60,55.12,0.00,0.00,0.00,30.13,M,10.00,M,CLR,M,M,M,M,M,M,M,M,M,M,M,M,M,M,60.80,KCXP 220515Z AUTO 00000KT 10SM CLR 16/07 A3013 RMK AO2,M
RTS,2023-05-22 05:15,-119.8764,39.6682,1539.00,60.80,46.40,59.01,210.00,5.00,0.00,30.14,M,10.00,M,CLR,M,M,M,M,M,M,M,M,M,M,M,M,M,M,60.80,KRTS 220515Z AUTO 21005KT 10SM CLR 16/08 A3014 RMK AO2,M
MEV,2023-05-22 05:15,-119.7500,38.9963,1441.42,55.40,44.60,66.91,70.00,7.00,0.00,30.12,M,10.00,M,SCT,SCT,M,M,4200.00,4900.00,M,M,M,M,M,M,M,M,M,55.40,KMEV 220515Z AUTO 07007KT 10SM SCT042 SCT049 13/07 A3012 RMK AO2,M
BAM,2023-05-22 05:15,-116.8743,40.5990,1382.36,68.00,48.20,49.10,350.00,16.00,0.00,30.13,M,10.00,21.00,SCT,OVC,M,M,7500.00,9000.00,M,M,M,M,M,M,M,M,M,68.00,KBAM 220515Z AUTO 35016G21KT 10SM SCT075 OVC090 20/09 A3013 RMK AO1,M
HTH,2023-05-22 05:15,-118.6315,38.5448,1282.89,68.00,44.60,42.85,330.00,8.00,0.00,30.09,M,10.00,M,CLR,M,M,M,M,M,M,M,M,M,M,M,M,M,M,68.00,KHTH 220515Z AUTO 33008KT 10SM CLR 20/07 A3009 RMK A01,M
10U,2023-05-22 05:15,-116.1876,41.9532,1637.00,53.60,51.80,93.60,190.00,7.00,0.00,30.19,M,7.00,M,FEW,BKN,OVC,M,1800.00,5000.00,6500.00,M,-RA,M,M,M,M,M,M,53.60,K10U 220515Z AUTO 19007KT 7SM -RA FEW018 BKN050 OVC065 12/11 A3019 RMK AO2,M
TMT,2023-05-22 05:15,-117.1971,39.4643,1749.34,60.00,41.40,49.98,0.00,0.00,0.00,30.19,M,10.00,M,CLR,M,M,M,M,M,M,M,M,M,M,M,M,M,M,60.10,KTMT 220515Z AUTO 00000KT 10SM CLR 16/05 A3019 RMK AO2 T01560052,M
INS,2023-05-22 05:18,-115.6733,36.5872,955.00,78.80,37.40,22.54,220.00,6.00,0.00,29.96,1009.70,10.00,17.00,SCT,SCT,OVC,M,3800.00,4800.00,6000.00,M,M,M,M,M,M,M,M,78.80,KINS 220518Z AUTO 22006G17KT 10SM SCT038 SCT048 OVC060 26/03 A2996 RMK AO2 RAE18 SLP097 $,M
P68,2023-05-22 05:18,-116.0056,39.6014,1993.00,65.00,39.00,38.44,310.00,8.00,0.00,30.14,M,M,21.00,M,M,M,M,M,M,M,M,M,M,M,M,M,M,M,64.90,KP68 220518Z AUTO 31008G21KT 18/04 A3014 RMK AO1 WSHFT 0501 T01830039,M
INS,2023-05-22 05:26,-115.6733,36.5872,955.00,78.80,39.20,24.19,270.00,9.00,0.00,29.97,1010.10,10.00,M,FEW,SCT,BKN,OVC,3400.00,4400.00,5500.00,10000.00,-DZ,M,M,M,M,M,M,78.80,KINS 220526Z AUTO 27009KT 10SM -DZ FEW034 SCT044 BKN055 OVC100 26/04 A2997 RMK AO2 RAE18DZB26 SLP101 $,M
05U,2023-05-22 05:30,-116.0051,39.6042,1811.23,64.40,39.20,39.43,10.00,7.00,0.00,30.16,M,10.00,M,SCT,M,M,M,11000.00,M,M,M,M,M,M,M,M,M,M,64.40,K05U 220530Z AUTO 01007KT 10SM SCT110 18/04 A3016 RMK A01,M
BVU,2023-05-22 05:35,-114.8611,35.9475,671.00,78.80,46.40,31.90,330.00,3.00,0.00,29.91,M,10.00,M,CLR,M,M,M,M,M,M,M,M,M,M,M,M,M,M,78.80,KBVU 220535Z AUTO 33003KT 10SM CLR 26/08 A2991 RMK AO2,M
CXP,2023-05-22 05:35,-119.7326,39.1923,1431.00,59.00,44.60,58.77,70.00,6.00,0.00,30.13,M,10.00,M,CLR,M,M,M,M,M,M,M,M,M,M,M,M,M,M,59.00,KCXP 220535Z AUTO 07006KT 10SM CLR 15/07 A3013 RMK AO2,M
RTS,2023-05-22 05:35,-119.8764,39.6682,1539.00,57.20,48.20,71.83,280.00,7.00,0.00,30.14,M,10.00,M,CLR,M,M,M,M,M,M,M,M,M,M,M,M,M,M,57.20,KRTS 220535Z AUTO 28007KT 10SM CLR 14/09 A3014 RMK AO2,M
MEV,2023-05-22 05:35,-119.7500,38.9963,1441.42,55.40,44.60,66.91,180.00,6.00,0.00,30.11,M,10.00,M,SCT,BKN,M,M,3900.00,4800.00,M,M,M,M,M,M,M,M,M,55.40,KMEV 220535Z AUTO 18006KT 10SM SCT039 BKN048 13/07 A3011 RMK AO2,M
BAM,2023-05-22 05:35,-116.8743,40.5990,1382.36,68.00,48.20,49.10,340.00,9.00,0.00,30.12,M,10.00,M,SCT,BKN,M,M,7500.00,10000.00,M,M,M,M,M,M,M,M,M,68.00,KBAM 220535Z AUTO 34009KT 10SM SCT075 BKN100 20/09 A3012 RMK AO1,M
HTH,2023-05-22 05:35,-118.6315,38.5448,1282.89,66.20,46.40,48.83,320.00,6.00,0.00,30.09,M,10.00,M,CLR,M,M,M,M,M,M,M,M,M,M,M,M,M,M,66.20,KHTH 220535Z AUTO 32006KT 10SM CLR 19/08 A3009 RMK A01,M
TMT,2023-05-22 05:35,-117.1971,39.4643,1749.34,58.00,41.00,52.86,140.00,4.00,0.00,30.19,M,10.00,M,BKN,M,M,M,11000.00,M,M,M,M,M,M,M,M,M,M,58.10,KTMT 220535Z AUTO 14004KT 10SM BKN110 15/05 A3019 RMK AO2 T01450050,M
10U,2023-05-22 05:35,-116.1876,41.9532,1637.00,53.60,50.00,87.56,0.00,0.00,0.00,30.17,M,10.00,M,FEW,BKN,OVC,M,3900.00,5000.00,6500.00,M,-RA,M,M,M,M,M,M,53.60,K10U 220535Z AUTO 00000KT 10SM -RA FEW039 BKN050 OVC065 12/10 A3017 RMK AO2,M
EKO,2023-05-22 05:48,-115.7860,40.8242,1367.00,65.00,44.00,46.81,340.00,15.00,0.00,30.10,M,10.00,27.00,FEW,M,M,M,10000.00,M,M,M,M,M,M,M,29.00,280.00,2023-05-22 05:19,64.90,KEKO 220548Z AUTO 34015G27KT 10SM FEW100 18/07 A3010 RMK AO2 PK WND 28029/0519 WSHFT 0528 T01830067,M
05U,2023-05-22 05:50,-116.0051,39.6042,1811.23,64.40,39.20,39.43,10.00,11.00,0.00,30.17,M,10.00,M,FEW,M,M,M,11000.00,M,M,M,M,M,M,M,M,M,M,64.40,K05U 220550Z AUTO 01011KT 10SM FEW110 18/04 A3017 RMK A01,M
VGT,2023-05-22 05:53,-115.1933,36.2111,667.00,85.00,45.00,24.81,220.00,15.00,0.00,29.89,1011.00,10.00,22.00,CLR,M,M,M,M,M,M,M,M,M,M,M,M,M,M,82.27,KVGT 220553Z AUTO 22015G22KT 10SM CLR 29/07 A2989 RMK AO2 SLP110 T02940072 10350 20294 50013 $,M
LOL,2023-05-22 05:53,-118.5701,40.0684,1192.43,61.00,48.00,62.23,320.00,3.00,0.00,30.04,1013.70,10.00,M,CLR,M,M,M,M,M,M,M,M,M,M,M,M,M,M,61.00,KLOL 220553Z AUTO 32003KT 10SM CLR 16/09 A3004 RMK AO2 SLP137 60000 T01610089 10261 20161 56012,M
P68,2023-05-22 05:53,-116.0056,39.6014,1993.00,64.00,40.00,41.09,320.00,11.00,0.00,30.14,1012.30,M,M,M,M,M,M,M,M,M,M,M,M,M,M,M,M,M,64.00,KP68 220553Z AUTO 32011KT 18/04 A3014 RMK AO1 WSHFT 0501 SLP123 T01780044 10261 20150 51015,M
ELY,2023-05-22 05:53,-114.8453,39.2950,1909.00,57.00,40.00,52.70,210.00,11.00,T,30.14,1011.40,10.00,M,FEW,BKN,OVC,M,6500.00,8500.00,11000.00,M,-RA,M,M,M,M,M,M,57.00,KELY 220553Z AUTO 21011KT 10SM -RA FEW065 BKN085 OVC110 14/04 A3014 RMK AO2 RAB41 SLP114 P0000 60000 T01390044 10228 20133 50001,M
DRA,2023-05-22 05:53,-116.0278,36.6206,1009.00,76.00,47.00,35.78,150.00,10.00,0.00,29.99,1010.80,10.00,23.00,SCT,M,M,M,11000.00,M,M,M,M,M,M,M,28.00,130.00,2023-05-22 05:20,75.90,KDRA 220553Z AUTO 15010G23KT 10SM SCT110 24/08 A2999 RMK AO2 PK WND 13028/0520 SLP108 T02440083 10328 20244 51018,M
BVU,2023-05-22 05:55,-114.8611,35.9475,671.00,77.00,48.20,36.22,0.00,0.00,0.00,29.91,M,10.00,M,CLR,M,M,M,M,M,M,M,M,M,M,M,M,M,M,77.00,KBVU 220555Z AUTO 00000KT 10SM CLR 25/09 A2991 RMK AO2,M
CXP,2023-05-22 05:55,-119.7326,39.1923,1431.00,59.00,44.60,58.77,90.00,5.00,0.00,30.13,M,10.00,M,CLR,M,M,M,M,M,M,M,M,M,M,M,M,M,M,59.00,KCXP 220555Z AUTO 09005KT 10SM CLR 15/07 A3013 RMK AO2,M
RNO,2023-05-22 05:55,-119.7711,39.4839,1341.00,65.00,45.00,48.44,0.00,0.00,0.00,30.09,1013.80,10.00,M,FEW,SCT,M,M,7000.00,16000.00,M,M,M,M,M,M,M,M,M,64.90,KRNO 220555Z 00000KT 10SM FEW070 SCT160 18/07 A3009 RMK AO2 SLP138 60000 T01830072 10239 20183 51012,M
RTS,2023-05-22 05:55,-119.8764,39.6682,1539.00,57.20,48.20,71.83,50.00,5.00,0.00,30.14,M,10.00,M,CLR,M,M,M,M,M,M,M,M,M,M,M,M,M,M,57.20,KRTS 220555Z AUTO 05005KT 10SM CLR 14/09 A3014 RMK AO2,M
MEV,2023-05-22 05:55,-119.7500,38.9963,1441.42,55.40,44.60,66.91,0.00,0.00,0.00,30.12,M,10.00,M,FEW,SCT,SCT,M,4000.00,4800.00,10000.00,M,M,M,M,M,M,M,M,55.40,KMEV 220555Z AUTO 00000KT 10SM FEW040 SCT048 SCT100 13/07 A3012 RMK AO2,M
BAM,2023-05-22 05:55,-116.8743,40.5990,1382.36,68.00,46.40,45.88,350.00,8.00,0.00,30.12,M,10.00,M,BKN,M,M,M,12000.00,M,M,M,M,M,M,M,M,M,M,68.00,KBAM 220555Z AUTO 35008KT 10SM BKN120 20/08 A3012 RMK AO1,M
HTH,2023-05-22 05:55,-118.6315,38.5448,1282.89,66.20,48.20,52.25,350.00,3.00,0.00,30.09,M,10.00,M,CLR,M,M,M,M,M,M,M,M,M,M,M,M,M,M,66.20,KHTH 220555Z AUTO 35003KT 10SM CLR 19/09 A3009 RMK A01,M
TMT,2023-05-22 05:55,-117.1971,39.4643,1749.34,57.40,41.50,55.26,170.00,5.00,0.00,30.18,M,10.00,M,BKN,M,M,M,11000.00,M,M,M,M,M,M,M,M,M,M,57.40,KTMT 220555Z AUTO 17005KT 10SM BKN110 14/05 A3018 RMK AO2 T01410053 10220 20141,M
10U,2023-05-22 05:55,-116.1876,41.9532,1637.00,53.60,51.80,93.60,120.00,8.00,0.00,30.17,M,10.00,M,FEW,SCT,OVC,M,3600.00,5500.00,6500.00,M,M,M,M,M,M,M,M,53.60,K10U 220555Z AUTO 12008KT 10SM FEW036 SCT055 OVC065 12/11 A3017 RMK AO2,M
INS,2023-05-22 05:55,-115.6733,36.5872,955.00,74.80,45.30,34.94,280.00,17.00,T,29.98,1010.60,10.00,22.00,SCT,OVC,M,M,6000.00,9000.00,M,M,-RA,M,M,M,M,M,M,74.80,KINS 220555Z AUTO 28017G22KT 10SM -RA SCT060 OVC090 24/07 A2998 RMK AO2 RAE18DZB26E32RAB32E42DZB42E45RAB45 SLP106 P0000 60000 T02380074 10321 20234 50020 $,M
LSV,2023-05-22 05:55,-115.0343,36.2362,570.00,83.80,44.20,24.93,160.00,9.00,0.00,29.85,1008.20,10.00,M,CLR,M,M,M,M,M,M,M,M,M,M,M,M,M,M,81.42,KLSV 220555Z AUTO 16009KT 10SM CLR 29/07 A2985 RMK AO2 SLP082 T02880068 10350 20288 50011 $,M
HND,2023-05-22 05:56,-115.1344,35.9729,742.79,81.00,45.00,28.15,220.00,7.00,0.00,29.95,1013.00,10.00,M,CLR,M,M,M,M,M,M,M,M,M,M,M,M,M,M,79.68,KHND 220556Z AUTO 22007KT 10SM CLR 27/07 A2995 RMK AO2 SLP130 T02720072 10344 20272 51013,M
TPH,2023-05-22 05:56,-117.0904,38.0505,1654.00,M,M,M,M,M,0.00,30.12,M,M,M,M,M,M,M,M,M,M,M,M,M,M,M,M,M,M,M,KTPH 220556Z AUTO A3012 RMK AO2 SLPNO 51006 PWINO $,M
LAS,2023-05-22 05:56,-115.1634,36.0719,663.00,83.00,45.00,26.46,230.00,7.00,0.00,29.91,1010.10,10.00,M,SCT,M,M,M,22000.00,M,M,M,M,M,M,M,M,M,M,80.86,KLAS 220556Z 23007KT 10SM SCT220 28/07 A2991 RMK AO2 SLP101 T02830072 10344 20283 50013,M
WMC,2023-05-22 05:56,-117.8072,40.9019,1315.00,63.00,49.00,59.98,50.00,4.00,T,30.06,1013.30,10.00,M,FEW,M,M,M,12000.00,M,M,M,M,M,M,M,M,M,M,63.00,KWMC 220556Z AUTO 05004KT 10SM FEW120 17/09 A3006 RMK AO2 WSHFT 0447 RAE09 SLP133 P0000 60002 T01720094 10250 20150 58000,M
NFL,2023-05-22 05:56,-118.7010,39.4166,1199.00,61.00,53.00,75.20,300.00,6.00,0.00,30.05,1014.40,10.00,M,CLR,M,M,M,M,M,M,M,M,M,M,M,M,M,M,61.00,KNFL 220556Z AUTO 30006KT 10SM CLR 16/12 A3005 RMK AO2 SLP144 60006 T01610117 10244 20161 56003,M
EKO,2023-05-22 05:56,-115.7860,40.8242,1367.00,65.00,44.00,46.81,340.00,15.00,0.00,30.11,1014.00,10.00,25.00,SCT,M,M,M,9500.00,M,M,M,M,M,M,M,29.00,280.00,2023-05-22 05:19,64.90,KEKO 220556Z AUTO 34015G25KT 10SM SCT095 18/07 A3011 RMK AO2 PK WND 28029/0519 WSHFT 0528 SLP140 T01830067 10294 20183 53034,M
INS,2023-05-22 06:00,-115.6733,36.5872,955.00,75.20,42.80,31.34,310.00,17.00,0.00,29.99,1010.90,10.00,27.00,SCT,BKN,BKN,OVC,5000.00,7000.00,8000.00,10000.00,-RA,M,M,M,M,M,M,75.20,KINS 220600Z AUTO 31017G27KT 10SM -RA SCT050 BKN070 BKN080 OVC100 24/06 A2999 RMK AO2 WSHFT 0557 SLP109 $,M
INS,2023-05-22 06:07,-115.6733,36.5872,955.00,75.20,42.80,31.34,310.00,14.00,0.00,29.99,1010.90,10.00,M,SCT,SCT,OVC,M,6000.00,8000.00,10000.00,M,M,M,M,M,M,M,M,75.20,KINS 220607Z AUTO 31014KT 10SM SCT060 SCT080 OVC100 24/06 A2999 RMK AO2 RAE07 SLP109 $,M
05U,2023-05-22 06:10,-116.0051,39.6042,1811.23,64.40,41.00,42.28,20.00,5.00,0.00,30.18,M,10.00,11.00,BKN,BKN,M,M,9500.00,11000.00,M,M,M,M,M,M,M,M,M,64.40,K05U 220610Z AUTO 02005G11KT 10SM BKN095 BKN110 18/05 A3018 RMK A01,M
BVU,2023-05-22 06:15,-114.8611,35.9475,671.00,77.00,50.00,38.74,0.00,0.00,0.00,29.91,M,10.00,M,CLR,M,M,M,M,M,M,M,M,M,M,M,M,M,M,77.00,KBVU 220615Z AUTO 00000KT 10SM CLR 25/10 A2991 RMK AO2,M
CXP,2023-05-22 06:15,-119.7326,39.1923,1431.00,60.80,44.60,55.12,0.00,0.00,0.00,30.13,M,10.00,M,CLR,M,M,M,M,M,M,M,M,M,M,M,M,M,M,60.80,KCXP 220615Z AUTO 00000KT 10SM CLR 16/07 A3013 RMK AO2,M
RTS,2023-05-22 06:15,-119.8764,39.6682,1539.00,59.00,46.40,62.92,0.00,0.00,0.00,30.13,M,10.00,M,CLR,M,M,M,M,M,M,M,M,M,M,M,M,M,M,59.00,KRTS 220615Z AUTO 00000KT 10SM CLR 15/08 A3013 RMK AO2,M
MEV,2023-05-22 06:15,-119.7500,38.9963,1441.42,50.00,42.80,76.18,120.00,5.00,0.00,30.12,M,10.00,M,FEW,FEW,SCT,M,3100.00,3800.00,4500.00,M,M,M,M,M,M,M,M,50.00,KMEV 220615Z AUTO 12005KT 10SM FEW031 FEW038 SCT045 10/06 A3012 RMK AO2,M
BAM,2023-05-22 06:15,-116.8743,40.5990,1382.36,66.20,46.40,48.83,40.00,4.00,0.00,30.12,M,10.00,M,BKN,M,M,M,12000.00,M,M,M,M,M,M,M,M,M,M,66.20,KBAM 220615Z AUTO 04004KT 10SM BKN120 19/08 A3012 RMK AO1,M
HTH,2023-05-22 06:15,-118.6315,38.5448,1282.89,66.20,48.20,52.25,0.00,0.00,0.00,30.09,M,10.00,M,CLR,M,M,M,M,M,M,M,M,M,M,M,M,M,M,66.20,KHTH 220615Z AUTO 00000KT 10SM CLR 19/09 A3009 RMK A01,M
TMT,2023-05-22 06:15,-117.1971,39.4643,1749.34,58.80,41.20,51.95,220.00,3.00,0.00,30.18,M,10.00,M,BKN,M,M,M,11000.00,M,M,M,M,M,M,M,M,M,M,58.80,KTMT 220615Z AUTO 22003KT 10SM BKN110 15/05 A3018 RMK AO2 T01490051,M
10U,2023-05-22 06:15,-116.1876,41.9532,1637.00,53.60,50.00,87.56,110.00,9.00,0.00,30.16,M,10.00,M,OVC,M,M,M,6500.00,M,M,M,M,M,M,M,M,M,M,53.60,K10U 220615Z AUTO 11009KT 10SM OVC065 12/10 A3016 RMK AO2,M
CXP,2023-05-22 06:30,-119.7326,39.1923,1431.00,59.00,44.60,58.77,0.00,0.00,0.00,30.13,M,10.00,M,CLR,M,M,M,M,M,M,M,M,M,M,M,M,M,M,59.00,KCXP 220630Z AUTO 00000KT 10SM CLR 15/07 A3013 RMK AO2,M
05U,2023-05-22 06:30,-116.0051,39.6042,1811.23,62.60,41.00,45.04,M,3.00,0.00,30.20,M,10.00,M,BKN,OVC,M,M,8000.00,9000.00,M,M,M,M,M,M,M,M,M,62.60,K05U 220630Z AUTO VRB03KT 10SM BKN080 OVC090 17/05 A3020 RMK A01,M
BVU,2023-05-22 06:35,-114.8611,35.9475,671.00,77.00,48.20,36.22,0.00,0.00,0.00,29.91,M,10.00,M,CLR,M,M,M,M,M,M,M,M,M,M,M,M,M,M,77.00,KBVU 220635Z AUTO 00000KT 10SM CLR 25/09 A2991 RMK AO2,M
RTS,2023-05-22 06:35,-119.8764,39.6682,1539.00,57.20,44.60,62.69,300.00,6.00,0.00,30.13,M,10.00,M,CLR,M,M,M,M,M,M,M,M,M,M,M,M,M,M,57.20,KRTS 220635Z AUTO 30006KT 10SM CLR 14/07 A3013 RMK AO2,M
MEV,2023-05-22 06:35,-119.7500,38.9963,1441.42,51.80,44.60,76.34,110.00,8.00,0.00,30.12,M,10.00,M,FEW,SCT,SCT,M,3200.00,3900.00,4800.00,M,M,M,M,M,M,M,M,51.80,KMEV 220635Z AUTO 11008KT 10SM FEW032 SCT039 SCT048 11/07 A3012 RMK AO2,M
BAM,2023-05-22 06:35,-116.8743,40.5990,1382.36,64.40,46.40,51.98,0.00,0.00,0.00,30.12,M,10.00,M,OVC,M,M,M,12000.00,M,M,M,M,M,M,M,M,M,M,64.40,KBAM 220635Z AUTO 00000KT 10SM OVC120 18/08 A3012 RMK AO1,M
HTH,2023-05-22 06:35,-118.6315,38.5448,1282.89,66.20,46.40,48.83,0.00,0.00,0.00,30.09,M,10.00,M,CLR,M,M,M,M,M,M,M,M,M,M,M,M,M,M,66.20,KHTH 220635Z AUTO 00000KT 10SM CLR 19/08 A3009 RMK A01,M
TMT,2023-05-22 06:35,-117.1971,39.4643,1749.34,58.00,41.50,54.28,0.00,0.00,0.00,30.17,M,10.00,M,BKN,M,M,M,11000.00,M,M,M,M,M,M,M,M,M,M,57.90,KTMT 220635Z AUTO 00000KT 10SM BKN110 14/05 A3017 RMK AO2 T01440053,M
10U,2023-05-22 06:35,-116.1876,41.9532,1637.00,53.60,50.00,87.56,110.00,8.00,0.00,30.14,M,10.00,M,FEW,BKN,OVC,M,3200.00,7000.00,11000.00,M,M,M,M,M,M,M,M,53.60,K10U 220635Z AUTO 11008KT 10SM FEW032 BKN070 OVC110 12/10 A3014 RMK AO2,M
05U,2023-05-22 06:50,-116.0051,39.6042,1811.23,59.00,44.60,58.77,360.00,9.00,0.00,30.20,M,10.00,M,BKN,OVC,M,M,8000.00,9500.00,M,M,M,M,M,M,M,M,M,59.00,K05U 220650Z AUTO 36009KT 10SM BKN080 OVC095 15/07 A3020 RMK A01,M
P68,2023-05-22 06:53,-116.0056,39.6014,1993.00,59.00,45.00,59.67,360.00,11.00,0.00,30.17,1013.70,M,17.00,M,M,M,M,M,M,M,M,M,M,M,M,M,M,M,59.00,KP68 220653Z AUTO 36011G17KT 15/07 A3017 RMK AO1 SLP137 T01500072,M
VGT,2023-05-22 06:53,-115.1933,36.2111,667.00,85.00,43.00,22.98,300.00,9.00,0.00,29.90,1011.30,10.00,M,CLR,M,M,M,M,M,M,M,M,M,M,M,M,M,M,82.13,KVGT 220653Z AUTO 30009KT 10SM CLR 29/06 A2990 RMK AO2 SLP113 T02940061 $,M
LOL,2023-05-22 06:53,-118.5701,40.0684,1192.43,54.00,48.00,80.07,180.00,5.00,0.00,30.04,1014.10,10.00,M,CLR,M,M,M,M,M,M,M,M,M,M,M,M,M,M,54.00,KLOL 220653Z AUTO 18005KT 10SM CLR 12/09 A3004 RMK AO2 SLP141 T01220089,M
ELY,2023-05-22 06:53,-114.8453,39.2950,1909.00,61.00,40.00,45.67,M,4.00,0.01,30.14,1010.80,10.00,M,BKN,M,M,M,11000.00,M,M,M,M,M,M,M,M,M,M,61.00,KELY 220653Z AUTO VRB04KT 10SM BKN110 16/04 A3014 RMK AO2 RAE30 SLP108 P0001 T01610044,M
DRA,2023-05-22 06:53,-116.0278,36.6206,1009.00,76.00,44.00,32.17,210.00,7.00,0.00,29.98,1010.40,10.00,M,OVC,M,M,M,11000.00,M,M,M,M,M,M,M,M,M,M,75.90,KDRA 220653Z AUTO 21007KT 10SM OVC110 24/07 A2998 RMK AO2 SLP104 T02440067,M
BVU,2023-05-22 06:55,-114.8611,35.9475,671.00,77.00,50.00,38.74,0.00,0.00,0.00,29.91,M,10.00,M,CLR,M,M,M,M,M,M,M,M,M,M,M,M,M,M,77.00,KBVU 220655Z AUTO 00000KT 10SM CLR 25/10 A2991 RMK AO2,M
CXP,2023-05-22 06:55,-119.7326,39.1923,1431.00,57.20,44.60,62.69,0.00,0.00,0.00,30.13,M,10.00,M,CLR,M,M,M,M,M,M,M,M,M,M,M,M,M,M,57.20,KCXP 220655Z AUTO 00000KT 10SM CLR 14/07 A3013 RMK AO2,M
RNO,2023-05-22 06:55,-119.7711,39.4839,1341.00,63.00,45.00,51.78,0.00,0.00,0.00,30.10,1013.90,10.00,M,SCT,M,M,M,18000.00,M,M,M,M,M,M,M,M,M,M,63.00,KRNO 220655Z 00000KT 10SM SCT180 17/07 A3010 RMK AO2 SLP139 T01720072,M
RTS,2023-05-22 06:55,-119.8764,39.6682,1539.00,57.20,46.40,67.12,M,4.00,0.00,30.13,M,10.00,M,CLR,M,M,M,M,M,M,M,M,M,M,M,M,M,M,57.20,KRTS 220655Z AUTO VRB04KT 10SM CLR 14/08 A3013 RMK AO2,M
MEV,2023-05-22 06:55,-119.7500,38.9963,1441.42,50.00,42.80,76.18,120.00,7.00,0.00,30.12,M,10.00,M,SCT,BKN,BKN,M,3300.00,4300.00,5000.00,M,M,M,M,M,M,M,M,50.00,KMEV 220655Z AUTO 12007KT 10SM SCT033 BKN043 BKN050 10/06 A3012 RMK AO2,M
BAM,2023-05-22 06:55,-116.8743,40.5990,1382.36,64.40,46.40,51.98,260.00,3.00,0.00,30.12,M,10.00,M,BKN,OVC,M,M,10000.00,12000.00,M,M,M,M,M,M,M,M,M,64.40,KBAM 220655Z AUTO 26003KT 10SM BKN100 OVC120 18/08 A3012 RMK AO1,M
HTH,2023-05-22 06:55,-118.6315,38.5448,1282.89,64.40,46.40,51.98,140.00,5.00,0.00,30.08,M,10.00,M,CLR,M,M,M,M,M,M,M,M,M,M,M,M,M,M,64.40,KHTH 220655Z AUTO 14005KT 10SM CLR 18/08 A3008 RMK A01,M
TMT,2023-05-22 06:55,-117.1971,39.4643,1749.34,55.40,41.50,59.41,120.00,3.00,0.00,30.16,M,10.00,M,SCT,M,M,M,11000.00,M,M,M,M,M,M,M,M,M,M,55.40,KTMT 220655Z AUTO 12003KT 10SM SCT110 13/05 A3016 RMK AO2 T01300053,M
10U,2023-05-22 06:55,-116.1876,41.9532,1637.00,53.60,50.00,87.56,120.00,13.00,0.00,30.09,M,10.00,M,FEW,SCT,OVC,M,5000.00,7500.00,9500.00,M,M,M,M,M,M,M,M,53.60,K10U 220655Z AUTO 12013KT 10SM FEW050 SCT075 OVC095 12/10 A3009 RMK AO2,M
INS,2023-05-22 06:55,-115.6733,36.5872,955.00,76.30,40.80,27.96,230.00,5.00,T,29.99,1010.80,10.00,M,SCT,OVC,M,M,9500.00,13000.00,M,M,M,M,M,M,27.00,270.00,2023-05-22 05:55,76.30,KINS 220655Z AUTO 23005KT 10SM SCT095 OVC130 25/05 A2999 RMK AO2 PK WND 27027/0555 RAE07 SLP108 P0000 T02460049 $,M
LSV,2023-05-22 06:55,-115.0343,36.2362,570.00,82.60,44.20,25.92,160.00,9.00,0.00,29.85,1008.20,10.00,M,CLR,M,M,M,M,M,M,M,M,M,M,M,M,M,M,80.61,KLSV 220655Z AUTO 16009KT 10SM CLR 28/07 A2985 RMK AO2 SLP082 T02810068 $,M
WMC,2023-05-22 06:56,-117.8072,40.9019,1315.00,59.00,50.00,72.01,M,M,0.00,30.05,1012.80,10.00,M,CLR,M,M,M,M,M,M,M,M,M,M,M,M,M,M,59.00,KWMC 220656Z AUTO 10SM CLR 15/10 A3005 RMK AO2 SLP128 T01500100,M
NFL,2023-05-22 06:56,-118.7010,39.4166,1199.00,60.00,52.00,74.57,140.00,3.00,0.00,30.05,1014.40,10.00,M,CLR,M,M,M,M,M,M,M,M,M,M,M,M,M,M,60.10,KNFL 220656Z AUTO 14003KT 10SM CLR 16/11 A3005 RMK AO2 SLP144 T01560111,M
HND,2023-05-22 06:56,-115.1344,35.9729,742.79,79.00,45.00,30.05,190.00,9.00,0.00,29.95,1012.90,10.00,M,CLR,M,M,M,M,M,M,M,M,M,M,M,M,M,M,79.00,KHND 220656Z AUTO 19009KT 10SM CLR 26/07 A2995 RMK AO2 SLP129 T02610072 403440194,M
TPH,2023-05-22 06:56,-117.0904,38.0505,1654.00,M,M,M,M,M,0.00,30.13,M,M,M,M,M,M,M,M,M,M,M,M,M,M,M,M,M,M,M,KTPH 220656Z AUTO A3013 RMK AO2 SLPNO PWINO $,M
LAS,2023-05-22 06:56,-115.1634,36.0719,663.00,82.00,45.00,27.24,170.00,5.00,0.00,29.91,1010.10,10.00,M,SCT,M,M,M,22000.00,M,M,M,M,M,M,M,M,M,M,80.28,KLAS 220656Z 17005KT 10SM SCT220 28/07 A2991 RMK AO2 SLP101 T02780072,M
EKO,2023-05-22 06:56,-115.7860,40.8242,1367.00,64.00,44.00,48.31,110.00,5.00,0.00,30.12,1014.30,10.00,M,SCT,M,M,M,8000.00,M,M,M,M,M,M,M,M,M,M,64.00,KEKO 220656Z AUTO 11005KT 10SM SCT080 18/07 A3012 RMK AO2 SLP143 T01780067,M
INS,2023-05-22 07:06,-115.6733,36.5872,955.00,77.00,39.20,25.67,310.00,3.00,0.00,29.98,1010.40,10.00,M,FEW,BKN,OVC,M,4000.00,9500.00,12000.00,M,-DZ,M,M,M,M,M,M,77.00,KINS 220706Z AUTO 31003KT 10SM -DZ FEW040 BKN095 OVC120 25/04 A2998 RMK AO2 DZB06 SLP104 $,M
05U,2023-05-22 07:10,-116.0051,39.6042,1811.23,59.00,44.60,58.77,M,M,0.00,30.20,M,10.00,M,SCT,M,M,M,9500.00,M,M,M,M,M,M,M,M,M,M,59.00,K05U 220710Z AUTO 10SM SCT095 15/07 A3020 RMK A01,M
BVU,2023-05-22 07:15,-114.8611,35.9475,671.00,75.20,48.20,38.46,0.00,0.00,0.00,29.91,M,10.00,M,CLR,M,M,M,M,M,M,M,M,M,M,M,M,M,M,75.20,KBVU 220715Z AUTO 00000KT 10SM CLR 24/09 A2991 RMK AO2,M
CXP,2023-05-22 07:15,-119.7326,39.1923,1431.00,57.20,44.60,62.69,0.00,0.00,0.00,30.13,M,10.00,M,CLR,M,M,M,M,M,M,M,M,M,M,M,M,M,M,57.20,KCXP 220715Z AUTO 00000KT 10SM CLR 14/07 A3013 RMK AO2,M
RTS,2023-05-22 07:15,-119.8764,39.6682,1539.00,55.40,46.40,71.64,20.00,3.00,0.00,30.13,M,10.00,M,CLR,M,M,M,M,M,M,M,M,M,M,M,M,M,M,55.40,KRTS 220715Z AUTO 02003KT 10SM CLR 13/08 A3013 RMK AO2,M
MEV,2023-05-22 07:15,-119.7500,38.9963,1441.42,48.20,42.80,81.47,130.00,6.00,0.00,30.12,M,10.00,M,BKN,BKN,BKN,M,3300.00,3900.00,4600.00,M,M,M,M,M,M,M,M,45.04,KMEV 220715Z AUTO 13006KT 10SM BKN033 BKN039 BKN046 09/06 A3012 RMK AO2,M
BAM,2023-05-22 07:15,-116.8743,40.5990,1382.36,64.40,46.40,51.98,130.00,3.00,0.00,30.10,M,10.00,M,BKN,OVC,M,M,10000.00,11000.00,M,M,M,M,M,M,M,M,M,64.40,KBAM 220715Z AUTO 13003KT 10SM BKN100 OVC110 18/08 A3010 RMK AO1,M
HTH,2023-05-22 07:15,-118.6315,38.5448,1282.89,62.60,41.00,45.04,150.00,6.00,0.00,30.07,M,10.00,M,CLR,M,M,M,M,M,M,M,M,M,M,M,M,M,M,62.60,KHTH 220715Z AUTO 15006KT 10SM CLR 17/05 A3007 RMK A01,M
TMT,2023-05-22 07:15,-117.1971,39.4643,1749.34,54.30,41.40,61.60,0.00,0.00,0.00,30.15,M,10.00,M,SCT,M,M,M,12000.00,M,M,M,M,M,M,M,M,M,M,54.30,KTMT 220715Z AUTO 00000KT 10SM SCT120 12/05 A3015 RMK AO2 T01240052,M
10U,2023-05-22 07:15,-116.1876,41.9532,1637.00,53.60,48.20,81.87,130.00,12.00,0.00,30.09,M,10.00,M,FEW,BKN,BKN,M,4800.00,9500.00,12000.00,M,M,M,M,M,M,M,M,53.60,K10U 220715Z AUTO 13012KT 10SM FEW048 BKN095 BKN120 12/09 A3009 RMK AO2,M
INS,2023-05-22 07:18,-115.6733,36.5872,955.00,77.00,41.00,27.53,0.00,0.00,0.00,29.98,1010.30,10.00,M,OVC,M,M,M,8500.00,M,M,M,M,M,M,M,M,M,M,77.00,KINS 220718Z AUTO 00000KT 10SM OVC085 25/05 A2998 RMK AO2 DZB06E18 SLP103 $,M
05U,2023-05-22 07:30,-116.0051,39.6042,1811.23,55.40,42.80,62.46,0.00,0.00,0.00,30.20,M,10.00,M,FEW,M,M,M,10000.00,M,M,M,M,M,M,M,M,M,M,55.40,K05U 220730Z AUTO 00000KT 10SM FEW100 13/06 A3020 RMK A01,M
BVU,2023-05-22 07:35,-114.8611,35.9475,671.00,75.20,48.20,38.46,0.00,0.00,0.00,29.91,M,10.00,M,CLR,M,M,M,M,M,M,M,M,M,M,M,M,M,M,75.20,KBVU 220735Z AUTO 00000KT 10SM CLR 24/09 A2991 RMK AO2,M
CXP,2023-05-22 07:35,-119.7326,39.1923,1431.00,55.40,44.60,66.91,0.00,0.00,0.00,30.12,M,10.00,M,CLR,M,M,M,M,M,M,M,M,M,M,M,M,M,M,55.40,KCXP 220735Z AUTO 00000KT 10SM CLR 13/07 A3012 RMK AO2,M
RTS,2023-05-22 07:35,-119.8764,39.6682,1539.00,57.20,44.60,62.69,340.00,3.00,0.00,30.12,M,10.00,M,CLR,M,M,M,M,M,M,M,M,M,M,M,M,M,M,57.20,KRTS 220735Z AUTO 34003KT 10SM CLR 14/07 A3012 RMK AO2,M
MEV,2023-05-22 07:35,-119.7500,38.9963,1441.42,50.00,42.80,76.18,100.00,6.00,0.00,30.11,M,10.00,M,FEW,SCT,BKN,M,3400.00,4700.00,5500.00,M,M,M,M,M,M,M,M,50.00,KMEV 220735Z AUTO 10006KT 10SM FEW034 SCT047 BKN055 10/06 A3011 RMK AO2,M
BAM,2023-05-22 07:35,-116.8743,40.5990,1382.36,60.80,46.40,59.01,110.00,5.00,0.00,30.08,M,10.00,M,SCT,SCT,M,M,9500.00,11000.00,M,M,M,M,M,M,M,M,M,60.80,KBAM 220735Z AUTO 11005KT 10SM SCT095 SCT110 16/08 A3008 RMK AO1,M
HTH,2023-05-22 07:35,-118.6315,38.5448,1282.89,62.60,41.00,45.04,150.00,8.00,0.00,30.07,M,10.00,M,CLR,M,M,M,M,M,M,M,M,M,M,M,M,M,M,62.60,KHTH 220735Z AUTO 15008KT 10SM CLR 17/05 A3007 RMK A01,M
10U,2023-05-22 07:35,-116.1876,41.9532,1637.00,53.60,48.20,81.87,130.00,10.00,0.00,30.09,M,10.00,M,FEW,SCT,BKN,M,4800.00,9000.00,11000.00,M,M,M,M,M,M,M,M,53.60,K10U 220735Z AUTO 13010KT 10SM FEW048 SCT090 BKN110 12/09 A3009 RMK AO2,M
05U,2023-05-22 07:50,-116.0051,39.6042,1811.23,53.60,42.80,66.70,20.00,4.00,0.00,30.19,M,10.00,M,CLR,M,M,M,M,M,M,M,M,M,M,M,M,M,M,53.60,K05U 220750Z AUTO 02004KT 10SM CLR 12/06 A3019 RMK A01,M
LOL,2023-05-22 07:53,-118.5701,40.0684,1192.43,54.00,48.00,80.07,300.00,7.00,0.00,30.03,1013.60,10.00,M,CLR,M,M,M,M,M,M,M,M,M,M,M,M,M,M,54.00,KLOL 220753Z AUTO 30007KT 10SM CLR 12/09 A3003 RMK AO2 SLP136 T01220089 403110117,M
P68,2023-05-22 07:53,-116.0056,39.6014,1993.00,54.00,42.00,63.98,330.00,4.00,0.00,30.17,1013.80,M,M,M,M,M,M,M,M,M,M,M,M,M,M,M,M,M,54.00,KP68 220753Z AUTO 33004KT 12/06 A3017 RMK AO1 SLP138 T01220056 402780067,M
DRA,2023-05-22 07:53,-116.0278,36.6206,1009.00,76.00,44.00,32.17,360.00,8.00,0.00,29.99,1010.30,10.00,M,CLR,M,M,M,M,M,M,M,M,M,M,M,M,M,M,75.90,KDRA 220753Z AUTO 36008KT 10SM CLR 24/07 A2999 RMK AO2 SLP103 T02440067 403330139,M
ELY,2023-05-22 07:53,-114.8453,39.2950,1909.00,58.00,44.00,59.98,310.00,5.00,0.04,30.16,1011.40,10.00,M,FEW,BKN,OVC,M,5000.00,7000.00,10000.00,M,-RA,M,M,M,M,M,M,57.90,KELY 220753Z AUTO 31005KT 10SM -RA FEW050 BKN070 OVC100 14/07 A3016 RMK AO2 RAB10 SLP114 P0004 T01440067 402560044,M
VGT,2023-05-22 07:53,-115.1933,36.2111,667.00,83.00,44.00,25.57,300.00,15.00,0.00,29.88,1010.90,10.00,M,CLR,M,M,M,M,M,M,M,M,M,M,M,M,M,M,80.80,KVGT 220753Z AUTO 30015KT 10SM CLR 28/07 A2988 RMK AO2 SLP109 T02830067 403500222 $,M
BVU,2023-05-22 07:55,-114.8611,35.9475,671.00,75.20,48.20,38.46,0.00,0.00,0.00,29.91,M,10.00,M,CLR,M,M,M,M,M,M,M,M,M,M,M,M,M,M,75.20,KBVU 220755Z AUTO 00000KT 10SM CLR 24/09 A2991 RMK AO2,M
CXP,2023-05-22 07:55,-119.7326,39.1923,1431.00,57.20,42.80,58.52,320.00,3.00,0.00,30.12,M,10.00,M,CLR,M,M,M,M,M,M,M,M,M,M,M,M,M,M,57.20,KCXP 220755Z AUTO 32003KT 10SM CLR 14/06 A3012 RMK AO2,M
RNO,2023-05-22 07:55,-119.7711,39.4839,1341.00,61.00,46.00,57.72,0.00,0.00,0.00,30.08,1013.40,10.00,M,SCT,M,M,M,18000.00,M,M,M,M,M,M,M,M,M,M,61.00,KRNO 220755Z 00000KT 10SM SCT180 16/08 A3008 RMK AO2 SLP134 T01610078 402940144,M
RTS,2023-05-22 07:55,-119.8764,39.6682,1539.00,51.80,44.60,76.34,0.00,0.00,0.00,30.12,M,10.00,M,CLR,M,M,M,M,M,M,M,M,M,M,M,M,M,M,51.80,KRTS 220755Z AUTO 00000KT 10SM CLR 11/07 A3012 RMK AO2,M
MEV,2023-05-22 07:55,-119.7500,38.9963,1441.42,48.20,42.80,81.47,110.00,4.00,0.00,30.11,M,10.00,M,FEW,SCT,BKN,M,4100.00,4800.00,5500.00,M,M,M,M,M,M,M,M,46.34,KMEV 220755Z AUTO 11004KT 10SM FEW041 SCT048 BKN055 09/06 A3011 RMK AO2,M
BAM,2023-05-22 07:55,-116.8743,40.5990,1382.36,60.80,50.00,67.54,120.00,6.00,0.00,30.07,M,10.00,M,SCT,M,M,M,12000.00,M,M,M,M,M,M,M,M,M,M,60.80,KBAM 220755Z AUTO 12006KT 10SM SCT120 16/10 A3007 RMK AO1,M
HTH,2023-05-22 07:55,-118.6315,38.5448,1282.89,60.80,41.00,48.00,130.00,8.00,0.00,30.06,M,10.00,M,CLR,M,M,M,M,M,M,M,M,M,M,M,M,M,M,60.80,KHTH 220755Z AUTO 13008KT 10SM CLR 16/05 A3006 RMK A01,M
10U,2023-05-22 07:55,-116.1876,41.9532,1637.00,53.60,48.20,81.87,120.00,8.00,0.00,30.08,M,10.00,M,FEW,FEW,BKN,M,4100.00,6000.00,11000.00,M,M,M,M,M,M,M,M,53.60,K10U 220755Z AUTO 12008KT 10SM FEW041 FEW060 BKN110 12/09 A3008 RMK AO2,M
INS,2023-05-22 07:55,-115.6733,36.5872,955.00,75.60,41.00,28.85,0.00,0.00,T,29.97,1010.10,10.00,M,OVC,M,M,M,14000.00,M,M,M,M,M,M,M,M,M,M,75.60,KINS 220755Z AUTO 00000KT 10SM OVC140 24/05 A2997 RMK AO2 DZB06E18 SLP101 P0000 T02420050 403270155 $,M
LSV,2023-05-22 07:55,-115.0343,36.2362,570.00,80.60,44.40,27.87,170.00,8.00,0.00,29.85,1008.20,10.00,M,CLR,M,M,M,M,M,M,M,M,M,M,M,M,M,M,79.41,KLSV 220755Z AUTO 17008KT 10SM CLR 27/07 A2985 RMK AO2 SLP082 T02700069 403710208 $,M
TMT,2023-05-22 07:55,-117.1971,39.4643,1749.34,52.70,42.00,66.59,310.00,6.00,0.00,30.14,M,10.00,M,SCT,M,M,M,12000.00,M,M,M,M,M,M,M,M,M,M,52.70,KTMT 220755Z AUTO 31006KT 10SM SCT120 12/06 A3014 RMK AO2 T01150055 402750055,M
WMC,2023-05-22 07:56,-117.8072,40.9019,1315.00,57.00,48.00,71.81,190.00,8.00,0.00,30.04,1012.60,10.00,M,CLR,M,M,M,M,M,M,M,M,M,M,M,M,M,M,57.00,KWMC 220756Z AUTO 19008KT 10SM CLR 14/09 A3004 RMK AO2 SLP126 T01390089 403170094,M
NFL,2023-05-22 07:56,-118.7010,39.4166,1199.00,58.00,54.00,86.82,140.00,5.00,0.00,30.04,1014.10,10.00,M,FEW,M,M,M,9000.00,M,M,M,M,M,M,M,M,M,M,57.90,KNFL 220756Z AUTO 14005KT 10SM FEW090 14/12 A3004 RMK AO2 SLP141 T01440122 403220144,M
HND,2023-05-22 07:56,-115.1344,35.9729,742.79,78.00,45.00,30.95,190.00,9.00,0.00,29.94,1012.60,10.00,M,CLR,M,M,M,M,M,M,M,M,M,M,M,M,M,M,78.10,KHND 220756Z AUTO 19009KT 10SM CLR 26/07 A2994 RMK AO2 SLP126 T02560072,M
TPH,2023-05-22 07:56,-117.0904,38.0505,1654.00,M,M,M,M,M,0.00,30.12,M,M,M,M,M,M,M,M,M,M,M,M,M,M,M,M,M,M,M,KTPH 220756Z AUTO A3012 RMK AO2 SLPNO PWINO $,M
LAS,2023-05-22 07:56,-115.1634,36.0719,663.00,80.00,45.00,28.99,190.00,5.00,0.00,29.91,1010.10,10.00,M,SCT,M,M,M,22000.00,M,M,M,M,M,M,M,M,M,M,79.18,KLAS 220756Z 19005KT 10SM SCT220 27/07 A2991 RMK AO2 SLP101 T02670072 403500228,M
EKO,2023-05-22 07:56,-115.7860,40.8242,1367.00,62.00,46.00,55.51,0.00,0.00,0.00,30.11,1014.10,10.00,M,OVC,M,M,M,10000.00,M,M,M,M,M,M,M,M,M,M,62.10,KEKO 220756Z AUTO 00000KT 10SM OVC100 17/08 A3011 RMK AO2 SLP141 T01670078 402940067,M
05U,2023-05-22 08:10,-116.0051,39.6042,1811.23,53.60,42.80,66.70,10.00,5.00,0.00,30.19,M,10.00,M,CLR,M,M,M,M,M,M,M,M,M,M,M,M,M,M,53.60,K05U 220810Z AUTO 01005KT 10SM CLR 12/06 A3019 RMK A01,M
BVU,2023-05-22 08:15,-114.8611,35.9475,671.00,75.20,48.20,38.46,0.00,0.00,0.00,29.91,M,10.00,M,CLR,M,M,M,M,M,M,M,M,M,M,M,M,M,M,75.20,KBVU 220815Z AUTO 00000KT 10SM CLR 24/09 A2991 RMK AO2,M
CXP,2023-05-22 08:15,-119.7326,39.1923,1431.00,57.20,42.80,58.52,280.00,3.00,0.00,30.12,M,10.00,M,CLR,M,M,M,M,M,M,M,M,M,M,M,M,M,M,57.20,KCXP 220815Z AUTO 28003KT 10SM CLR 14/06 A3012 RMK AO2,M
RTS,2023-05-22 08:15,-119.8764,39.6682,1539.00,51.80,44.60,76.34,350.00,3.00,0.00,30.11,M,10.00,M,CLR,M,M,M,M,M,M,M,M,M,M,M,M,M,M,51.80,KRTS 220815Z AUTO 35003KT 10SM CLR 11/07 A3011 RMK AO2,M
MEV,2023-05-22 08:15,-119.7500,38.9963,1441.42,48.20,42.80,81.47,0.00,0.00,0.00,30.11,M,10.00,M,FEW,SCT,SCT,M,4200.00,4900.00,6000.00,M,M,M,M,M,M,M,M,48.20,KMEV 220815Z AUTO 00000KT 10SM FEW042 SCT049 SCT060 09/06 A3011 RMK AO2,M
BAM,2023-05-22 08:15,-116.8743,40.5990,1382.36,62.60,46.40,55.37,0.00,0.00,0.00,30.08,M,10.00,M,SCT,M,M,M,12000.00,M,M,M,M,M,M,M,M,M,M,62.60,KBAM 220815Z AUTO 00000KT 10SM SCT120 17/08 A3008 RMK AO1,M
HTH,2023-05-22 08:15,-118.6315,38.5448,1282.89,60.80,41.00,48.00,160.00,6.00,0.00,30.06,M,10.00,M,CLR,M,M,M,M,M,M,M,M,M,M,M,M,M,M,60.80,KHTH 220815Z AUTO 16006KT 10SM CLR 16/05 A3006 RMK A01,M
TMT,2023-05-22 08:15,-117.1971,39.4643,1749.34,52.20,42.30,68.88,290.00,4.00,0.00,30.15,M,10.00,M,CLR,M,M,M,M,M,M,M,M,M,M,M,M,M,M,52.20,KTMT 220815Z AUTO 29004KT 10SM CLR 11/06 A3015 RMK AO2 T01120057,M
10U,2023-05-22 08:15,-116.1876,41.9532,1637.00,53.60,48.20,81.87,130.00,6.00,0.00,30.08,M,10.00,M,FEW,SCT,M,M,5500.00,11000.00,M,M,M,M,M,M,M,M,M,53.60,K10U 220815Z AUTO 13006KT 10SM FEW055 SCT110 12/09 A3008 RMK AO2,M
05U,2023-05-22 08:30,-116.0051,39.6042,1811.23,53.60,42.80,66.70,10.00,5.00,0.00,30.18,M,10.00,M,CLR,M,M,M,M,M,M,M,M,M,M,M,M,M,M,53.60,K05U 220830Z AUTO 01005KT 10SM CLR 12/06 A3018 RMK A01,M
BVU,2023-05-22 08:35,-114.8611,35.9475,671.00,73.40,50.00,43.69,30.00,3.00,0.00,29.91,M,10.00,M,CLR,M,M,M,M,M,M,M,M,M,M,M,M,M,M,73.40,KBVU 220835Z AUTO 03003KT 10SM CLR 23/10 A2991 RMK AO2,M
CXP,2023-05-22 08:35,-119.7326,39.1923,1431.00,57.20,42.80,58.52,0.00,0.00,0.00,30.12,M,10.00,M,CLR,M,M,M,M,M,M,M,M,M,M,M,M,M,M,57.20,KCXP 220835Z AUTO 00000KT 10SM CLR 14/06 A3012 RMK AO2,M
RTS,2023-05-22 08:35,-119.8764,39.6682,1539.00,53.60,44.60,71.45,0.00,0.00,0.00,30.11,M,10.00,M,CLR,M,M,M,M,M,M,M,M,M,M,M,M,M,M,53.60,KRTS 220835Z AUTO 00000KT 10SM CLR 12/07 A3011 RMK AO2,M
MEV,2023-05-22 08:35,-119.7500,38.9963,1441.42,46.40,41.00,81.34,130.00,4.00,0.00,30.11,M,10.00,M,SCT,BKN,M,M,4400.00,5000.00,M,M,M,M,M,M,M,M,M,44.24,KMEV 220835Z AUTO 13004KT 10SM SCT044 BKN050 08/05 A3011 RMK AO2,M
BAM,2023-05-22 08:35,-116.8743,40.5990,1382.36,60.80,48.20,63.15,310.00,3.00,0.00,30.08,M,10.00,M,CLR,M,M,M,M,M,M,M,M,M,M,M,M,M,M,60.80,KBAM 220835Z AUTO 31003KT 10SM CLR 16/09 A3008 RMK AO1,M
HTH,2023-05-22 08:35,-118.6315,38.5448,1282.89,59.00,42.80,54.86,0.00,0.00,0.00,30.06,M,10.00,M,CLR,M,M,M,M,M,M,M,M,M,M,M,M,M,M,59.00,KHTH 220835Z AUTO 00000KT 10SM CLR 15/06 A3006 RMK A01,M
10U,2023-05-22 08:35,-116.1876,41.9532,1637.00,53.60,46.40,76.50,150.00,8.00,0.00,30.08,M,10.00,M,CLR,M,M,M,M,M,M,M,M,M,M,M,M,M,M,53.60,K10U 220835Z AUTO 15008KT 10SM CLR 12/08 A3008 RMK AO2,M
TMT,2023-05-22 08:35,-117.1971,39.4643,1749.34,49.00,41.00,74.05,130.00,7.00,0.00,30.15,M,10.00,M,CLR,M,M,M,M,M,M,M,M,M,M,M,M,M,M,45.38,KTMT 220835Z AUTO 13007KT 10SM CLR 09/05 A3015 RMK AO2 T00940050,M
05U,2023-05-22 08:50,-116.0051,39.6042,1811.23,50.00,41.00,71.07,0.00,0.00,0.00,30.17,M,10.00,M,CLR,M,M,M,M,M,M,M,M,M,M,M,M,M,M,50.00,K05U 220850Z AUTO 00000KT 10SM CLR 10/05 A3017 RMK A01,M
CXP,2023-05-22 08:50,-119.7326,39.1923,1431.00,55.40,42.80,62.46,0.00,0.00,0.00,30.11,M,10.00,M,CLR,M,M,M,M,M,M,M,M,M,M,M,M,M,M,55.40,KCXP 220850Z AUTO 00000KT 10SM CLR 13/06 A3011 RMK AO2,M
ELY,2023-05-22 08:53,-114.8453,39.2950,1909.00,54.00,45.00,71.50,60.00,7.00,T,30.16,1012.30,10.00,M,FEW,M,M,M,10000.00,M,M,M,M,M,M,M,M,M,M,54.00,KELY 220853Z AUTO 06007KT 10SM FEW100 12/07 A3016 RMK AO2 RAE27 SLP123 P0000 60005 T01220072 53005,M
DRA,2023-05-22 08:53,-116.0278,36.6206,1009.00,73.00,47.00,39.43,50.00,12.00,0.00,29.99,1010.50,10.00,M,CLR,M,M,M,M,M,M,M,M,M,M,M,M,M,M,73.00,KDRA 220853Z AUTO 05012KT 10SM CLR 23/08 A2999 RMK AO2 SLP105 T02280083 56001,M
LOL,2023-05-22 08:53,-118.5701,40.0684,1192.43,57.00,47.00,68.90,320.00,8.00,0.00,30.04,1013.40,10.00,M,CLR,M,M,M,M,M,M,M,M,M,M,M,M,M,M,57.00,KLOL 220853Z AUTO 32008KT 10SM CLR 14/08 A3004 RMK AO2 SLP134 T01390083 58002,M
P68,2023-05-22 08:53,-116.0056,39.6014,1993.00,51.00,42.00,71.19,0.00,0.00,0.00,30.14,1013.30,M,M,M,M,M,M,M,M,M,M,M,M,M,M,M,M,M,51.10,KP68 220853Z AUTO 00000KT 11/06 A3014 RMK AO1 SLP133 T01060056 50001,M
VGT,2023-05-22 08:53,-115.1933,36.2111,667.00,83.00,44.00,25.57,360.00,7.00,0.00,29.90,1011.40,10.00,M,CLR,M,M,M,M,M,M,M,M,M,M,M,M,M,M,80.80,KVGT 220853Z AUTO 36007KT 10SM CLR 28/07 A2990 RMK AO2 SLP114 T02830067 53004 $,M
BVU,2023-05-22 08:55,-114.8611,35.9475,671.00,73.40,48.20,40.85,20.00,4.00,0.00,29.91,M,10.00,M,CLR,M,M,M,M,M,M,M,M,M,M,M,M,M,M,73.40,KBVU 220855Z AUTO 02004KT 10SM CLR 23/09 A2991 RMK AO2,M
RNO,2023-05-22 08:55,-119.7711,39.4839,1341.00,59.00,46.00,61.98,0.00,0.00,0.00,30.07,1013.40,10.00,M,SCT,M,M,M,18000.00,M,M,M,M,M,M,M,M,M,M,59.00,KRNO 220855Z 00000KT 10SM SCT180 15/08 A3007 RMK AO2 SLP134 T01500078 58005,M
RTS,2023-05-22 08:55,-119.8764,39.6682,1539.00,53.60,44.60,71.45,340.00,5.00,0.00,30.11,M,10.00,M,CLR,M,M,M,M,M,M,M,M,M,M,M,M,M,M,53.60,KRTS 220855Z AUTO 34005KT 10SM CLR 12/07 A3011 RMK AO2,M
MEV,2023-05-22 08:55,-119.7500,38.9963,1441.42,46.40,41.00,81.34,120.00,5.00,0.00,30.11,M,10.00,M,FEW,SCT,BKN,M,3900.00,4500.00,5000.00,M,M,M,M,M,M,M,M,43.50,KMEV 220855Z AUTO 12005KT 10SM FEW039 SCT045 BKN050 08/05 A3011 RMK AO2,M
BAM,2023-05-22 08:55,-116.8743,40.5990,1382.36,60.80,48.20,63.15,30.00,6.00,0.00,30.07,M,10.00,M,CLR,M,M,M,M,M,M,M,M,M,M,M,M,M,M,60.80,KBAM 220855Z AUTO 03006KT 10SM CLR 16/09 A3007 RMK AO1,M
HTH,2023-05-22 08:55,-118.6315,38.5448,1282.89,59.00,42.80,54.86,170.00,5.00,0.00,30.06,M,10.00,M,CLR,M,M,M,M,M,M,M,M,M,M,M,M,M,M,59.00,KHTH 220855Z AUTO 17005KT 10SM CLR 15/06 A3006 RMK A01,M
TMT,2023-05-22 08:55,-117.1971,39.4643,1749.34,48.20,40.30,73.98,140.00,7.00,0.00,30.14,M,10.00,M,CLR,M,M,M,M,M,M,M,M,M,M,M,M,M,M,44.53,KTMT 220855Z AUTO 14007KT 10SM CLR 09/05 A3014 RMK AO2 T00900046,M
10U,2023-05-22 08:55,-116.1876,41.9532,1637.00,55.40,46.40,71.64,150.00,3.00,0.00,30.08,M,10.00,M,FEW,FEW,M,M,4900.00,11000.00,M,M,M,M,M,M,M,M,M,55.40,K10U 220855Z AUTO 15003KT 10SM FEW049 FEW110 13/08 A3008 RMK AO2,M
INS,2023-05-22 08:55,-115.6733,36.5872,955.00,73.00,43.50,34.77,310.00,13.00,0.00,29.99,1010.80,10.00,M,BKN,M,M,M,15000.00,M,M,M,M,M,M,M,M,M,M,72.90,KINS 220855Z AUTO 31013KT 10SM BKN150 23/06 A2999 RMK AO2 SLP108 60000 T02270064 50003 $,M
LSV,2023-05-22 08:55,-115.0343,36.2362,570.00,79.00,42.00,26.89,30.00,7.00,0.00,29.86,1008.60,10.00,M,BKN,M,M,M,14000.00,M,M,M,M,M,M,M,M,M,M,79.00,KLSV 220855Z AUTO 03007KT 10SM BKN140 26/06 A2986 RMK AO2 SLP086 T02610056 53002 $,M
EKO,2023-05-22 08:56,-115.7860,40.8242,1367.00,62.00,45.00,53.45,0.00,0.00,0.00,30.09,1013.20,10.00,M,CLR,M,M,M,M,M,M,M,M,M,M,M,M,M,M,62.10,KEKO 220856Z AUTO 00000KT 10SM CLR 17/07 A3009 RMK AO2 SLP132 T01670072 58006,M
WMC,2023-05-22 08:56,-117.8072,40.9019,1315.00,54.00,48.00,80.07,270.00,4.00,0.00,30.05,1013.10,10.00,M,CLR,M,M,M,M,M,M,M,M,M,M,M,M,M,M,54.00,KWMC 220856Z AUTO 27004KT 10SM CLR 12/09 A3005 RMK AO2 SLP131 T01220089 55004,M
NFL,2023-05-22 08:56,-118.7010,39.4166,1199.00,59.00,52.00,77.55,0.00,0.00,0.00,30.03,1013.90,10.00,M,CLR,M,M,M,M,M,M,M,M,M,M,M,M,M,M,59.00,KNFL 220856Z AUTO 00000KT 10SM CLR 15/11 A3003 RMK AO2 SLP139 T01500111 58005,M
HND,2023-05-22 08:56,-115.1344,35.9729,742.79,76.00,45.00,33.30,210.00,9.00,0.00,29.94,1012.70,10.00,M,CLR,M,M,M,M,M,M,M,M,M,M,M,M,M,M,75.90,KHND 220856Z AUTO 21009KT 10SM CLR 24/07 A2994 RMK AO2 SLP127 T02440072 58002,M
TPH,2023-05-22 08:56,-117.0904,38.0505,1654.00,M,M,M,M,M,0.00,30.12,M,M,M,M,M,M,M,M,M,M,M,M,M,M,M,M,M,M,M,KTPH 220856Z AUTO A3012 RMK AO2 SLPNO 50000 PWINO $,M
LAS,2023-05-22 08:56,-115.1634,36.0719,663.00,79.00,45.00,30.05,200.00,4.00,0.00,29.91,1010.10,10.00,M,SCT,M,M,M,22000.00,M,M,M,M,M,M,M,M,M,M,79.00,KLAS 220856Z 20004KT 10SM SCT220 26/07 A2991 RMK AO2 SLP101 T02610072 53001,M
05U,2023-05-22 09:10,-116.0051,39.6042,1811.23,50.00,41.00,71.07,0.00,0.00,0.00,30.16,M,10.00,M,CLR,M,M,M,M,M,M,M,M,M,M,M,M,M,M,50.00,K05U 220910Z AUTO 00000KT 10SM CLR 10/05 A3016 RMK A01,M
BVU,2023-05-22 09:15,-114.8611,35.9475,671.00,73.40,46.40,38.18,0.00,0.00,0.00,29.91,M,10.00,M,CLR,M,M,M,M,M,M,M,M,M,M,M,M,M,M,73.40,KBVU 220915Z AUTO 00000KT 10SM CLR 23/08 A2991 RMK AO2,M
CXP,2023-05-22 09:15,-119.7326,39.1923,1431.00,55.40,42.80,62.46,310.00,3.00,0.00,30.11,M,10.00,M,CLR,M,M,M,M,M,M,M,M,M,M,M,M,M,M,55.40,KCXP 220915Z AUTO 31003KT 10SM CLR 13/06 A3011 RMK AO2,M
RTS,2023-05-22 09:15,-119.8764,39.6682,1539.00,50.00,44.60,81.61,350.00,5.00,0.00,30.11,M,10.00,M,CLR,M,M,M,M,M,M,M,M,M,M,M,M,M,M,50.00,KRTS 220915Z AUTO 35005KT 10SM CLR 10/07 A3011 RMK AO2,M
MEV,2023-05-22 09:15,-119.7500,38.9963,1441.42,44.60,41.00,87.09,120.00,7.00,0.00,30.10,M,10.00,M,FEW,SCT,SCT,M,3800.00,4400.00,5000.00,M,M,M,M,M,M,M,M,40.14,KMEV 220915Z AUTO 12007KT 10SM FEW038 SCT044 SCT050 07/05 A3010 RMK AO2,M
BAM,2023-05-22 09:15,-116.8743,40.5990,1382.36,60.80,46.40,59.01,80.00,4.00,0.00,30.07,M,10.00,M,SCT,M,M,M,12000.00,M,M,M,M,M,M,M,M,M,M,60.80,KBAM 220915Z AUTO 08004KT 10SM SCT120 16/08 A3007 RMK AO1,M
HTH,2023-05-22 09:15,-118.6315,38.5448,1282.89,59.00,42.80,54.86,170.00,4.00,0.00,30.06,M,10.00,M,CLR,M,M,M,M,M,M,M,M,M,M,M,M,M,M,59.00,KHTH 220915Z AUTO 17004KT 10SM CLR 15/06 A3006 RMK A01,M
TMT,2023-05-22 09:15,-117.1971,39.4643,1749.34,46.20,39.70,77.92,140.00,5.00,0.00,30.13,M,10.00,M,CLR,M,M,M,M,M,M,M,M,M,M,M,M,M,M,43.26,KTMT 220915Z AUTO 14005KT 10SM CLR 08/04 A3013 RMK AO2 T00790043,M
10U,2023-05-22 09:15,-116.1876,41.9532,1637.00,55.40,46.40,71.64,0.00,0.00,0.00,30.08,M,10.00,M,BKN,M,M,M,10000.00,M,M,M,M,M,M,M,M,M,M,55.40,K10U 220915Z AUTO 00000KT 10SM BKN100 13/08 A3008 RMK AO2,M
05U,2023-05-22 09:30,-116.0051,39.6042,1811.23,48.20,41.00,76.01,360.00,3.00,0.00,30.16,M,10.00,M,CLR,M,M,M,M,M,M,M,M,M,M,M,M,M,M,47.21,K05U 220930Z AUTO 36003KT 10SM CLR 09/05 A3016 RMK A01,M
BVU,2023-05-22 09:35,-114.8611,35.9475,671.00,71.60,48.20,43.42,30.00,4.00,0.00,29.91,M,10.00,M,CLR,M,M,M,M,M,M,M,M,M,M,M,M,M,M,71.60,KBVU 220935Z AUTO 03004KT 10SM CLR 22/09 A2991 RMK AO2,M
CXP,2023-05-22 09:35,-119.7326,39.1923,1431.00,55.40,42.80,62.46,290.00,3.00,0.00,30.11,M,10.00,M,CLR,M,M,M,M,M,M,M,M,M,M,M,M,M,M,55.40,KCXP 220935Z AUTO 29003KT 10SM CLR 13/06 A3011 RMK AO2,M
RTS,2023-05-22 09:35,-119.8764,39.6682,1539.00,51.80,44.60,76.34,350.00,8.00,0.00,30.11,M,10.00,M,CLR,M,M,M,M,M,M,M,M,M,M,M,M,M,M,51.80,KRTS 220935Z AUTO 35008KT 10SM CLR 11/07 A3011 RMK AO2,M
MEV,2023-05-22 09:35,-119.7500,38.9963,1441.42,46.40,41.00,81.34,100.00,4.00,0.00,30.10,M,10.00,M,FEW,FEW,SCT,M,4100.00,4800.00,5500.00,M,M,M,M,M,M,M,M,44.24,KMEV 220935Z AUTO 10004KT 10SM FEW041 FEW048 SCT055 08/05 A3010 RMK AO2,M
BAM,2023-05-22 09:35,-116.8743,40.5990,1382.36,59.00,46.40,62.92,130.00,5.00,0.00,30.07,M,10.00,M,BKN,M,M,M,12000.00,M,M,M,M,M,M,M,M,M,M,59.00,KBAM 220935Z AUTO 13005KT 10SM BKN120 15/08 A3007 RMK AO1,M
HTH,2023-05-22 09:35,-118.6315,38.5448,1282.89,57.20,41.00,54.60,170.00,4.00,0.00,30.06,M,10.00,M,CLR,M,M,M,M,M,M,M,M,M,M,M,M,M,M,57.20,KHTH 220935Z AUTO 17004KT 10SM CLR 14/05 A3006 RMK A01,M
10U,2023-05-22 09:35,-116.1876,41.9532,1637.00,53.60,46.40,76.50,160.00,4.00,0.00,30.08,M,10.00,M,OVC,M,M,M,10000.00,M,M,M,M,M,M,M,M,M,M,53.60,K10U 220935Z AUTO 16004KT 10SM OVC100 12/08 A3008 RMK AO2,M
TMT,2023-05-22 09:35,-117.1971,39.4643,1749.34,47.00,39.40,74.45,250.00,5.00,0.00,30.14,M,10.00,M,CLR,M,M,M,M,M,M,M,M,M,M,M,M,M,M,44.33,KTMT 220935Z AUTO 25005KT 10SM CLR 08/04 A3014 RMK AO2 T00840041,M
05U,2023-05-22 09:50,-116.0051,39.6042,1811.23,48.20,41.00,76.01,10.00,4.00,0.00,30.15,M,10.00,M,CLR,M,M,M,M,M,M,M,M,M,M,M,M,M,M,46.34,K05U 220950Z AUTO 01004KT 10SM CLR 09/05 A3015 RMK A01,M
P68,2023-05-22 09:53,-116.0056,39.6014,1993.00,50.00,41.00,71.07,180.00,4.00,0.00,30.13,1012.60,M,M,M,M,M,M,M,M,M,M,M,M,M,M,M,M,M,50.00,KP68 220953Z AUTO 18004KT 10/05 A3013 RMK AO1 SLP126 T01000050,M
ELY,2023-05-22 09:53,-114.8453,39.2950,1909.00,50.00,43.00,76.76,230.00,3.00,0.00,30.14,1011.50,10.00,M,CLR,M,M,M,M,M,M,M,M,M,M,M,M,M,M,50.00,KELY 220953Z AUTO 23003KT 10SM CLR 10/06 A3014 RMK AO2 SLP115 T01000061,M
LOL,2023-05-22 09:53,-118.5701,40.0684,1192.43,52.00,48.00,86.17,160.00,4.00,0.00,30.03,1013.40,10.00,M,CLR,M,M,M,M,M,M,M,M,M,M,M,M,M,M,52.00,KLOL 220953Z AUTO 16004KT 10SM CLR 11/09 A3003 RMK AO2 SLP134 T01110089,M
DRA,2023-05-22 09:53,-116.0278,36.6206,1009.00,71.00,49.00,45.33,50.00,14.00,0.00,29.98,1010.40,10.00,22.00,CLR,M,M,M,M,M,M,M,M,M,M,M,26.00,50.00,2023-05-22 09:28,71.10,KDRA 220953Z AUTO 05014G22KT 10SM CLR 22/09 A2998 RMK AO2 PK WND 05026/0928 SLP104 T02170094,M
VGT,2023-05-22 09:53,-115.1933,36.2111,667.00,80.00,44.00,28.01,360.00,5.00,0.00,29.90,1011.20,10.00,M,CLR,M,M,M,M,M,M,M,M,M,M,M,M,M,M,79.12,KVGT 220953Z AUTO 36005KT 10SM CLR 27/07 A2990 RMK AO2 SLP112 T02670067 $,M
BVU,2023-05-22 09:55,-114.8611,35.9475,671.00,71.60,48.20,43.42,30.00,4.00,0.00,29.91,M,10.00,M,CLR,M,M,M,M,M,M,M,M,M,M,M,M,M,M,71.60,KBVU 220955Z AUTO 03004KT 10SM CLR 22/09 A2991 RMK AO2,M
CXP,2023-05-22 09:55,-119.7326,39.1923,1431.00,53.60,42.80,66.70,0.00,0.00,0.00,30.11,M,10.00,M,CLR,M,M,M,M,M,M,M,M,M,M,M,M,M,M,53.60,KCXP 220955Z AUTO 00000KT 10SM CLR 12/06 A3011 RMK AO2,M
RTS,2023-05-22 09:55,-119.8764,39.6682,1539.00,50.00,44.60,81.61,350.00,6.00,0.00,30.11,M,10.00,M,CLR,M,M,M,M,M,M,M,M,M,M,M,M,M,M,50.00,KRTS 220955Z AUTO 35006KT 10SM CLR 10/07 A3011 RMK AO2,M
MEV,2023-05-22 09:55,-119.7500,38.9963,1441.42,46.40,41.00,81.34,120.00,6.00,0.00,30.09,M,10.00,M,SCT,SCT,SCT,M,3900.00,4700.00,5500.00,M,M,M,M,M,M,M,M,42.87,KMEV 220955Z AUTO 12006KT 10SM SCT039 SCT047 SCT055 08/05 A3009 RMK AO2,M
BAM,2023-05-22 09:55,-116.8743,40.5990,1382.36,57.20,46.40,67.12,150.00,5.00,0.00,30.06,M,10.00,M,SCT,M,M,M,12000.00,M,M,M,M,M,M,M,M,M,M,57.20,KBAM 220955Z AUTO 15005KT 10SM SCT120 14/08 A3006 RMK AO1,M
HTH,2023-05-22 09:55,-118.6315,38.5448,1282.89,59.00,41.00,51.18,180.00,5.00,0.00,30.05,M,10.00,M,CLR,M,M,M,M,M,M,M,M,M,M,M,M,M,M,59.00,KHTH 220955Z AUTO 18005KT 10SM CLR 15/05 A3005 RMK A01,M
TMT,2023-05-22 09:55,-117.1971,39.4643,1749.34,47.00,40.30,77.68,0.00,0.00,0.00,30.14,M,10.00,M,CLR,M,M,M,M,M,M,M,M,M,M,M,M,M,M,46.90,KTMT 220955Z AUTO 00000KT 10SM CLR 08/05 A3014 RMK AO2 T00830046,M
10U,2023-05-22 09:55,-116.1876,41.9532,1637.00,51.80,46.40,81.74,140.00,5.00,0.00,30.07,M,10.00,M,SCT,SCT,M,M,10000.00,12000.00,M,M,M,M,M,M,M,M,M,51.80,K10U 220955Z AUTO 14005KT 10SM SCT100 SCT120 11/08 A3007 RMK AO2,M
INS,2023-05-22 09:55,-115.6733,36.5872,955.00,69.80,46.20,42.81,0.00,0.00,0.00,30.00,1011.10,10.00,M,CLR,M,M,M,M,M,M,M,M,M,M,M,M,M,M,69.80,KINS 220955Z AUTO 00000KT 10SM CLR 21/08 A3000 RMK AO2 SLP111 T02100079 $,M
RNO,2023-05-22 09:55,-119.7711,39.4839,1341.00,57.00,47.00,68.90,30.00,3.00,0.00,30.07,1013.40,10.00,M,FEW,M,M,M,18000.00,M,M,M,M,M,M,M,M,M,M,57.00,KRNO 220955Z 03003KT 10SM FEW180 14/08 A3007 RMK AO2 SLP134 T01390083,M
LSV,2023-05-22 09:55,-115.0343,36.2362,570.00,76.00,44.00,31.96,360.00,6.00,0.00,29.86,1008.60,10.00,M,CLR,M,M,M,M,M,M,M,M,M,M,M,M,M,M,76.10,KLSV 220955Z AUTO 36006KT 10SM CLR 25/07 A2986 RMK AO2 SLP086 T02450067 $,M
EKO,2023-05-22 09:56,-115.7860,40.8242,1367.00,61.00,45.00,55.57,30.00,4.00,0.00,30.07,1012.50,10.00,M,BKN,M,M,M,11000.00,M,M,M,M,M,M,M,M,M,M,61.00,KEKO 220956Z AUTO 03004KT 10SM BKN110 16/07 A3007 RMK AO2 SLP125 T01610072,M
WMC,2023-05-22 09:56,-117.8072,40.9019,1315.00,50.00,46.00,86.06,200.00,5.00,0.00,30.03,1012.40,10.00,M,CLR,M,M,M,M,M,M,M,M,M,M,M,M,M,M,50.00,KWMC 220956Z AUTO 20005KT 10SM CLR 10/08 A3003 RMK AO2 SLP124 T01000078,M
HND,2023-05-22 09:56,-115.1344,35.9729,742.79,74.00,45.00,35.60,210.00,8.00,0.00,29.94,1012.70,10.00,M,CLR,M,M,M,M,M,M,M,M,M,M,M,M,M,M,73.90,KHND 220956Z AUTO 21008KT 10SM CLR 23/07 A2994 RMK AO2 SLP127 T02330072,M
TPH,2023-05-22 09:56,-117.0904,38.0505,1654.00,M,M,M,M,M,0.00,30.12,M,M,M,M,M,M,M,M,M,M,M,M,M,M,M,M,M,M,M,KTPH 220956Z AUTO A3012 RMK AO2 SLPNO PWINO $,M
LAS,2023-05-22 09:56,-115.1634,36.0719,663.00,79.00,45.00,30.05,0.00,0.00,0.00,29.90,1009.90,10.00,M,FEW,SCT,M,M,15000.00,20000.00,M,M,M,M,M,M,M,M,M,79.00,KLAS 220956Z 00000KT 10SM FEW150 SCT200 26/07 A2990 RMK AO2 SLP099 T02610072,M
NFL,2023-05-22 09:56,-118.7010,39.4166,1199.00,58.00,51.00,78.03,180.00,4.00,0.00,30.02,1013.70,10.00,M,CLR,M,M,M,M,M,M,M,M,M,M,M,M,M,M,57.90,KNFL 220956Z AUTO 18004KT 10SM CLR 14/11 A3002 RMK AO2 SLP137 T01440106,M
05U,2023-05-22 10:10,-116.0051,39.6042,1811.23,46.40,41.00,81.34,360.00,5.00,0.00,30.15,M,10.00,M,CLR,M,M,M,M,M,M,M,M,M,M,M,M,M,M,43.50,K05U 221010Z AUTO 36005KT 10SM CLR 08/05 A3015 RMK A01,M
BVU,2023-05-22 10:15,-114.8611,35.9475,671.00,71.60,48.20,43.42,0.00,0.00,0.00,29.90,M,10.00,M,CLR,M,M,M,M,M,M,M,M,M,M,M,M,M,M,71.60,KBVU 221015Z AUTO 00000KT 10SM CLR 22/09 A2990 RMK AO2,M
CXP,2023-05-22 10:15,-119.7326,39.1923,1431.00,55.40,42.80,62.46,0.00,0.00,0.00,30.10,M,10.00,M,CLR,M,M,M,M,M,M,M,M,M,M,M,M,M,M,55.40,KCXP 221015Z AUTO 00000KT 10SM CLR 13/06 A3010 RMK AO2,M
RTS,2023-05-22 10:15,-119.8764,39.6682,1539.00,50.00,42.80,76.18,360.00,6.00,0.00,30.11,M,10.00,M,CLR,M,M,M,M,M,M,M,M,M,M,M,M,M,M,50.00,KRTS 221015Z AUTO 36006KT 10SM CLR 10/06 A3011 RMK AO2,M
MEV,2023-05-22 10:15,-119.7500,38.9963,1441.42,46.40,41.00,81.34,100.00,3.00,0.00,30.09,M,10.00,M,FEW,SCT,SCT,M,3600.00,4200.00,5000.00,M,M,M,M,M,M,M,M,45.15,KMEV 221015Z AUTO 10003KT 10SM FEW036 SCT042 SCT050 08/05 A3009 RMK AO2,M
BAM,2023-05-22 10:15,-116.8743,40.5990,1382.36,57.20,46.40,67.12,190.00,4.00,0.00,30.05,M,10.00,M,BKN,M,M,M,11000.00,M,M,M,M,M,M,M,M,M,M,57.20,KBAM 221015Z AUTO 19004KT 10SM BKN110 14/08 A3005 RMK AO1,M
HTH,2023-05-22 10:15,-118.6315,38.5448,1282.89,59.00,41.00,51.18,240.00,5.00,0.00,30.05,M,10.00,M,CLR,M,M,M,M,M,M,M,M,M,M,M,M,M,M,59.00,KHTH 221015Z AUTO 24005KT 10SM CLR 15/05 A3005 RMK A01,M
TMT,2023-05-22 10:15,-117.1971,39.4643,1749.34,46.40,39.20,75.84,350.00,4.00,0.00,30.14,M,10.00,M,CLR,M,M,M,M,M,M,M,M,M,M,M,M,M,M,44.24,KTMT 221015Z AUTO 35004KT 10SM CLR 08/04 A3014 RMK AO2 T00800040,M
10U,2023-05-22 10:15,-116.1876,41.9532,1637.00,51.80,46.40,81.74,200.00,4.00,0.00,30.08,M,10.00,M,CLR,M,M,M,M,M,M,M,M,M,M,M,M,M,M,51.80,K10U 221015Z AUTO 20004KT 10SM CLR 11/08 A3008 RMK AO2,M
05U,2023-05-22 10:30,-116.0051,39.6042,1811.23,46.40,39.20,75.84,M,3.00,0.00,30.15,M,10.00,M,CLR,M,M,M,M,M,M,M,M,M,M,M,M,M,M,45.15,K05U 221030Z AUTO VRB03KT 10SM CLR 08/04 A3015 RMK A01,M
BVU,2023-05-22 10:35,-114.8611,35.9475,671.00,71.60,50.00,46.43,0.00,0.00,0.00,29.90,M,10.00,M,CLR,M,M,M,M,M,M,M,M,M,M,M,M,M,M,71.60,KBVU 221035Z AUTO 00000KT 10SM CLR 22/10 A2990 RMK AO2,M
CXP,2023-05-22 10:35,-119.7326,39.1923,1431.00,53.60,42.80,66.70,300.00,3.00,0.00,30.10,M,10.00,M,CLR,M,M,M,M,M,M,M,M,M,M,M,M,M,M,53.60,KCXP 221035Z AUTO 30003KT 10SM CLR 12/06 A3010 RMK AO2,M
RTS,2023-05-22 10:35,-119.8764,39.6682,1539.00,50.00,42.80,76.18,320.00,6.00,0.00,30.10,M,10.00,M,CLR,M,M,M,M,M,M,M,M,M,M,M,M,M,M,50.00,KRTS 221035Z AUTO 32006KT 10SM CLR 10/06 A3010 RMK AO2,M
MEV,2023-05-22 10:35,-119.7500,38.9963,1441.42,44.60,41.00,87.09,140.00,4.00,0.00,30.09,M,10.00,M,FEW,FEW,SCT,M,4400.00,5000.00,5500.00,M,M,M,M,M,M,M,M,42.13,KMEV 221035Z AUTO 14004KT 10SM FEW044 FEW050 SCT055 07/05 A3009 RMK AO2,M
BAM,2023-05-22 10:35,-116.8743,40.5990,1382.36,57.20,46.40,67.12,220.00,4.00,0.00,30.05,M,10.00,M,BKN,M,M,M,12000.00,M,M,M,M,M,M,M,M,M,M,57.20,KBAM 221035Z AUTO 22004KT 10SM BKN120 14/08 A3005 RMK AO1,M
HTH,2023-05-22 10:35,-118.6315,38.5448,1282.89,59.00,42.80,54.86,260.00,6.00,0.00,30.05,M,10.00,M,CLR,M,M,M,M,M,M,M,M,M,M,M,M,M,M,59.00,KHTH 221035Z AUTO 26006KT 10SM CLR 15/06 A3005 RMK A01,M
TMT,2023-05-22 10:35,-117.1971,39.4643,1749.34,41.20,36.30,82.56,130.00,3.00,0.00,30.14,M,10.00,M,CLR,M,M,M,M,M,M,M,M,M,M,M,M,M,M,39.21,KTMT 221035Z AUTO 13003KT 10SM CLR 05/02 A3014 RMK AO2 T00510024,M
10U,2023-05-22 10:35,-116.1876,41.9532,1637.00,48.20,46.40,93.45,200.00,6.00,0.00,30.08,M,10.00,M,CLR,M,M,M,M,M,M,M,M,M,M,M,M,M,M,45.04,K10U 221035Z AUTO 20006KT 10SM CLR 09/08 A3008 RMK AO2,M
05U,2023-05-22 10:50,-116.0051,39.6042,1811.23,46.40,41.00,81.34,M,M,0.00,30.15,M,10.00,M,CLR,M,M,M,M,M,M,M,M,M,M,M,M,M,M,M,K05U 221050Z AUTO 10SM CLR 08/05 A3015 RMK A01,M
P68,2023-05-22 10:53,-116.0056,39.6014,1993.00,48.00,41.00,76.58,0.00,0.00,0.00,30.13,1013.10,M,M,M,M,M,M,M,M,M,M,M,M,M,M,M,M,M,48.00,KP68 221053Z AUTO 00000KT 09/05 A3013 RMK AO1 SLP131 T00890050,M
DRA,2023-05-22 10:53,-116.0278,36.6206,1009.00,70.00,48.00,45.50,90.00,7.00,0.00,29.97,1010.00,10.00,M,CLR,M,M,M,M,M,M,M,M,M,M,M,M,M,M,70.00,KDRA 221053Z AUTO 09007KT 10SM CLR 21/09 A2997 RMK AO2 SLP100 T02110089,M
ELY,2023-05-22 10:53,-114.8453,39.2950,1909.00,49.00,43.00,79.98,110.00,4.00,0.00,30.13,1011.90,10.00,M,CLR,M,M,M,M,M,M,M,M,M,M,M,M,M,M,47.16,KELY 221053Z AUTO 11004KT 10SM CLR 09/06 A3013 RMK AO2 SLP119 T00940061,M
VGT,2023-05-22 10:53,-115.1933,36.2111,667.00,79.00,46.00,31.21,330.00,11.00,0.00,29.90,1011.20,10.00,M,CLR,M,M,M,M,M,M,M,M,M,M,M,M,M,M,79.00,KVGT 221053Z AUTO 33011KT 10SM CLR 26/08 A2990 RMK AO2 SLP112 T02610078 $,M
LOL,2023-05-22 10:53,-118.5701,40.0684,1192.43,50.00,46.00,86.06,10.00,4.00,0.00,30.02,1013.60,10.00,M,CLR,M,M,M,M,M,M,M,M,M,M,M,M,M,M,50.00,KLOL 221053Z AUTO 01004KT 10SM CLR 10/08 A3002 RMK AO2 SLP136 T01000078,M
BVU,2023-05-22 10:55,-114.8611,35.9475,671.00,69.80,48.20,46.16,0.00,0.00,0.00,29.90,M,10.00,M,CLR,M,M,M,M,M,M,M,M,M,M,M,M,M,M,69.80,KBVU 221055Z AUTO 00000KT 10SM CLR 21/09 A2990 RMK AO2,M
CXP,2023-05-22 10:55,-119.7326,39.1923,1431.00,51.80,42.80,71.26,0.00,0.00,0.00,30.10,M,10.00,M,CLR,M,M,M,M,M,M,M,M,M,M,M,M,M,M,51.80,KCXP 221055Z AUTO 00000KT 10SM CLR 11/06 A3010 RMK AO2,M
RTS,2023-05-22 10:55,-119.8764,39.6682,1539.00,48.20,42.80,81.47,350.00,8.00,0.00,30.10,M,10.00,M,CLR,M,M,M,M,M,M,M,M,M,M,M,M,M,M,44.07,KRTS 221055Z AUTO 35008KT 10SM CLR 09/06 A3010 RMK AO2,M
MEV,2023-05-22 10:55,-119.7500,38.9963,1441.42,44.60,39.20,81.20,0.00,0.00,0.00,30.09,M,10.00,M,FEW,SCT,M,M,4700.00,5500.00,M,M,M,M,M,M,M,M,M,44.60,KMEV 221055Z AUTO 00000KT 10SM FEW047 SCT055 07/04 A3009 RMK AO2,M
BAM,2023-05-22 10:55,-116.8743,40.5990,1382.36,55.40,46.40,71.64,0.00,0.00,0.00,30.05,M,10.00,M,SCT,M,M,M,12000.00,M,M,M,M,M,M,M,M,M,M,55.40,KBAM 221055Z AUTO 00000KT 10SM SCT120 13/08 A3005 RMK AO1,M
HTH,2023-05-22 10:55,-118.6315,38.5448,1282.89,57.20,42.80,58.52,300.00,5.00,0.00,30.06,M,10.00,M,CLR,M,M,M,M,M,M,M,M,M,M,M,M,M,M,57.20,KHTH 221055Z AUTO 30005KT 10SM CLR 14/06 A3006 RMK A01,M
TMT,2023-05-22 10:55,-117.1971,39.4643,1749.34,42.30,37.80,83.95,150.00,7.00,0.00,30.14,M,10.00,M,CLR,M,M,M,M,M,M,M,M,M,M,M,M,M,M,37.33,KTMT 221055Z AUTO 15007KT 10SM CLR 06/03 A3014 RMK AO2 T00570032,M
10U,2023-05-22 10:55,-116.1876,41.9532,1637.00,48.20,44.60,87.28,210.00,6.00,0.00,30.07,M,10.00,M,FEW,M,M,M,5000.00,M,M,M,M,M,M,M,M,M,M,45.04,K10U 221055Z AUTO 21006KT 10SM FEW050 09/07 A3007 RMK AO2,M
INS,2023-05-22 10:55,-115.6733,36.5872,955.00,70.50,45.00,39.94,170.00,4.00,0.00,29.98,1010.60,10.00,M,FEW,M,M,M,23000.00,M,M,M,M,M,M,M,M,M,M,70.50,KINS 221055Z AUTO 17004KT 10SM FEW230 21/07 A2998 RMK AO2 SLP106 T02140072 $,M
LSV,2023-05-22 10:55,-115.0343,36.2362,570.00,74.50,43.50,32.95,270.00,4.00,0.00,29.86,1008.60,10.00,M,CLR,M,M,M,M,M,M,M,M,M,M,M,M,M,M,74.50,KLSV 221055Z AUTO 27004KT 10SM CLR 24/06 A2986 RMK AO2 SLP086 T02360064 $,M
RNO,2023-05-22 10:55,-119.7711,39.4839,1341.00,56.00,46.00,69.30,0.00,0.00,0.00,30.07,1014.10,10.00,M,FEW,M,M,M,18000.00,M,M,M,M,M,M,M,M,M,M,55.90,KRNO 221055Z 00000KT 10SM FEW180 13/08 A3007 RMK AO2 SLP141 T01330078,M
EKO,2023-05-22 10:56,-115.7860,40.8242,1367.00,56.00,46.00,69.30,170.00,4.00,0.00,30.07,1012.80,10.00,M,BKN,M,M,M,11000.00,M,M,M,M,M,M,M,M,M,M,55.90,KEKO 221056Z AUTO 17004KT 10SM BKN110 13/08 A3007 RMK AO2 SLP128 T01330078,M
NFL,2023-05-22 10:56,-118.7010,39.4166,1199.00,56.00,50.00,80.52,0.00,0.00,0.00,30.02,1013.70,10.00,M,CLR,M,M,M,M,M,M,M,M,M,M,M,M,M,M,55.90,KNFL 221056Z AUTO 00000KT 10SM CLR 13/10 A3002 RMK AO2 SLP137 T01330100,M
HND,2023-05-22 10:56,-115.1344,35.9729,742.79,73.00,46.00,38.11,200.00,8.00,0.00,29.94,1012.60,10.00,M,CLR,M,M,M,M,M,M,M,M,M,M,M,M,M,M,73.00,KHND 221056Z AUTO 20008KT 10SM CLR 23/08 A2994 RMK AO2 SLP126 T02280078,M
TPH,2023-05-22 10:56,-117.0904,38.0505,1654.00,M,M,M,M,M,0.00,30.11,M,M,M,M,M,M,M,M,M,M,M,M,M,M,M,M,M,M,M,KTPH 221056Z AUTO A3011 RMK AO2 SLPNO PWINO $,M
LAS,2023-05-22 10:56,-115.1634,36.0719,663.00,77.00,45.00,32.10,190.00,4.00,0.00,29.91,1010.00,10.00,M,FEW,SCT,M,M,15000.00,20000.00,M,M,M,M,M,M,M,M,M,77.00,KLAS 221056Z 19004KT 10SM FEW150 SCT200 25/07 A2991 RMK AO2 SLP100 T02500072,M
WMC,2023-05-22 10:56,-117.8072,40.9019,1315.00,51.00,47.00,85.48,0.00,0.00,0.00,30.03,1012.40,10.00,M,CLR,M,M,M,M,M,M,M,M,M,M,M,M,M,M,51.10,KWMC 221056Z AUTO 00000KT 10SM CLR 11/08 A3003 RMK AO2 SLP124 T01060083,M
05U,2023-05-22 11:10,-116.0051,39.6042,1811.23,48.20,41.00,76.01,360.00,5.00,0.00,30.14,M,10.00,M,BKN,M,M,M,11000.00,M,M,M,M,M,M,M,M,M,M,45.63,K05U 221110Z AUTO 36005KT 10SM BKN110 09/05 A3014 RMK A01,M
BVU,2023-05-22 11:15,-114.8611,35.9475,671.00,69.80,46.40,43.13,0.00,0.00,0.00,29.90,M,10.00,M,CLR,M,M,M,M,M,M,M,M,M,M,M,M,M,M,69.80,KBVU 221115Z AUTO 00000KT 10SM CLR 21/08 A2990 RMK AO2,M
CXP,2023-05-22 11:15,-119.7326,39.1923,1431.00,51.80,42.80,71.26,0.00,0.00,0.00,30.10,M,10.00,M,CLR,M,M,M,M,M,M,M,M,M,M,M,M,M,M,51.80,KCXP 221115Z AUTO 00000KT 10SM CLR 11/06 A3010 RMK AO2,M
RTS,2023-05-22 11:15,-119.8764,39.6682,1539.00,46.40,41.00,81.34,350.00,7.00,0.00,30.10,M,10.00,M,CLR,M,M,M,M,M,M,M,M,M,M,M,M,M,M,42.33,KRTS 221115Z AUTO 35007KT 10SM CLR 08/05 A3010 RMK AO2,M
MEV,2023-05-22 11:15,-119.7500,38.9963,1441.42,42.80,39.20,86.99,120.00,3.00,0.00,30.09,M,10.00,M,FEW,FEW,M,M,4800.00,5500.00,M,M,M,M,M,M,M,M,M,41.03,KMEV 221115Z AUTO 12003KT 10SM FEW048 FEW055 06/04 A3009 RMK AO2,M
BAM,2023-05-22 11:15,-116.8743,40.5990,1382.36,55.40,46.40,71.64,0.00,0.00,0.00,30.05,M,10.00,M,CLR,M,M,M,M,M,M,M,M,M,M,M,M,M,M,55.40,KBAM 221115Z AUTO 00000KT 10SM CLR 13/08 A3005 RMK AO1,M
HTH,2023-05-22 11:15,-118.6315,38.5448,1282.89,55.40,42.80,62.46,260.00,4.00,0.00,30.06,M,10.00,M,CLR,M,M,M,M,M,M,M,M,M,M,M,M,M,M,55.40,KHTH 221115Z AUTO 26004KT 10SM CLR 13/06 A3006 RMK A01,M
TMT,2023-05-22 11:15,-117.1971,39.4643,1749.34,42.40,37.80,83.63,170.00,6.00,0.00,30.14,M,10.00,M,CLR,M,M,M,M,M,M,M,M,M,M,M,M,M,M,38.06,KTMT 221115Z AUTO 17006KT 10SM CLR 06/03 A3014 RMK AO2 T00580032,M
10U,2023-05-22 11:15,-116.1876,41.9532,1637.00,48.20,44.60,87.28,150.00,5.00,0.00,30.08,M,10.00,M,FEW,SCT,SCT,M,4700.00,6000.00,7000.00,M,M,M,M,M,M,M,M,45.63,K10U 221115Z AUTO 15005KT 10SM FEW047 SCT060 SCT070 09/07 A3008 RMK AO2,M
05U,2023-05-22 11:30,-116.0051,39.6042,1811.23,48.20,41.00,76.01,10.00,4.00,0.00,30.14,M,10.00,M,OVC,M,M,M,11000.00,M,M,M,M,M,M,M,M,M,M,46.34,K05U 221130Z AUTO 01004KT 10SM OVC110 09/05 A3014 RMK A01,M
BVU,2023-05-22 11:35,-114.8611,35.9475,671.00,69.80,48.20,46.16,0.00,0.00,0.00,29.90,M,10.00,M,CLR,M,M,M,M,M,M,M,M,M,M,M,M,M,M,69.80,KBVU 221135Z AUTO 00000KT 10SM CLR 21/09 A2990 RMK AO2,M
CXP,2023-05-22 11:35,-119.7326,39.1923,1431.00,50.00,41.00,71.07,0.00,0.00,0.00,30.10,M,10.00,M,CLR,M,M,M,M,M,M,M,M,M,M,M,M,M,M,50.00,KCXP 221135Z AUTO 00000KT 10SM CLR 10/05 A3010 RMK AO2,M
RTS,2023-05-22 11:35,-119.8764,39.6682,1539.00,46.40,41.00,81.34,330.00,4.00,0.00,30.10,M,10.00,M,CLR,M,M,M,M,M,M,M,M,M,M,M,M,M,M,44.24,KRTS 221135Z AUTO 33004KT 10SM CLR 08/05 A3010 RMK AO2,M
MEV,2023-05-22 11:35,-119.7500,38.9963,1441.42,42.80,39.20,86.99,0.00,0.00,0.00,30.09,M,10.00,M,FEW,FEW,SCT,M,3700.00,4500.00,5000.00,M,M,M,M,M,M,M,M,42.80,KMEV 221135Z AUTO 00000KT 10SM FEW037 FEW045 SCT050 06/04 A3009 RMK AO2,M
BAM,2023-05-22 11:35,-116.8743,40.5990,1382.36,51.80,44.60,76.34,110.00,3.00,0.00,30.05,M,10.00,M,CLR,M,M,M,M,M,M,M,M,M,M,M,M,M,M,51.80,KBAM 221135Z AUTO 11003KT 10SM CLR 11/07 A3005 RMK AO1,M
HTH,2023-05-22 11:35,-118.6315,38.5448,1282.89,53.60,42.80,66.70,0.00,0.00,0.00,30.05,M,10.00,M,CLR,M,M,M,M,M,M,M,M,M,M,M,M,M,M,53.60,KHTH 221135Z AUTO 00000KT 10SM CLR 12/06 A3005 RMK A01,M
10U,2023-05-22 11:35,-116.1876,41.9532,1637.00,48.20,44.60,87.28,150.00,4.00,0.00,30.07,M,10.00,M,FEW,SCT,SCT,M,4700.00,6000.00,7000.00,M,M,M,M,M,M,M,M,46.34,K10U 221135Z AUTO 15004KT 10SM FEW047 SCT060 SCT070 09/07 A3007 RMK AO2,M
TMT,2023-05-22 11:35,-117.1971,39.4643,1749.34,42.80,38.00,83.33,150.00,5.00,0.00,30.13,M,10.00,M,CLR,M,M,M,M,M,M,M,M,M,M,M,M,M,M,39.22,KTMT 221135Z AUTO 15005KT 10SM CLR 06/03 A3013 RMK AO2 T00600034,M
05U,2023-05-22 11:50,-116.0051,39.6042,1811.23,50.00,41.00,71.07,0.00,0.00,0.00,30.14,M,10.00,M,FEW,OVC,M,M,9500.00,11000.00,M,M,M,M,M,M,M,M,M,50.00,K05U 221150Z AUTO 00000KT 10SM FEW095 OVC110 10/05 A3014 RMK A01,M
DRA,2023-05-22 11:53,-116.0278,36.6206,1009.00,71.00,45.00,39.13,100.00,11.00,0.00,29.94,1009.20,10.00,M,CLR,M,M,M,M,M,M,M,M,M,M,M,M,M,M,71.10,KDRA 221153Z AUTO 10011KT 10SM CLR 22/07 A2994 RMK AO2 SLP092 T02170072 10256 20211 58013,M
VGT,2023-05-22 11:53,-115.1933,36.2111,667.00,77.00,46.00,33.34,330.00,8.00,0.00,29.89,1011.10,10.00,M,CLR,M,M,M,M,M,M,M,M,M,M,M,M,M,M,77.00,KVGT 221153Z AUTO 33008KT 10SM CLR 25/08 A2989 RMK AO2 SLP111 T02500078 10294 20250 58003 $,M
P68,2023-05-22 11:53,-116.0056,39.6014,1993.00,50.00,42.00,74.15,190.00,3.00,0.00,30.11,1012.20,M,M,M,M,M,M,M,M,M,M,M,M,M,M,M,M,M,50.00,KP68 221153Z AUTO 19003KT 10/06 A3011 RMK AO1 SLP122 T01000056 10178 20083 57009,M
ELY,2023-05-22 11:53,-114.8453,39.2950,1909.00,47.00,40.00,76.48,180.00,9.00,0.00,30.14,1012.40,10.00,M,CLR,M,M,M,M,M,M,M,M,M,M,M,M,M,M,42.04,KELY 221153Z AUTO 18009KT 10SM CLR 08/04 A3014 RMK AO2 SLP124 60005 70005 T00830044 10172 20078 55007,M
LOL,2023-05-22 11:53,-118.5701,40.0684,1192.43,49.00,44.00,83.42,70.00,3.00,0.00,30.02,1014.00,10.00,M,CLR,M,M,M,M,M,M,M,M,M,M,M,M,M,M,48.01,KLOL 221153Z AUTO 07003KT 10SM CLR 09/07 A3002 RMK AO2 SLP140 T00940067 10161 20094 56006,M
BVU,2023-05-22 11:55,-114.8611,35.9475,671.00,71.60,44.60,37.89,280.00,3.00,0.00,29.90,M,10.00,M,CLR,M,M,M,M,M,M,M,M,M,M,M,M,M,M,71.60,KBVU 221155Z AUTO 28003KT 10SM CLR 22/07 A2990 RMK AO2,M
CXP,2023-05-22 11:55,-119.7326,39.1923,1431.00,50.00,42.80,76.18,0.00,0.00,0.00,30.10,M,10.00,M,CLR,M,M,M,M,M,M,M,M,M,M,M,M,M,M,50.00,KCXP 221155Z AUTO 00000KT 10SM CLR 10/06 A3010 RMK AO2,M
RNO,2023-05-22 11:55,-119.7711,39.4839,1341.00,55.00,45.00,68.93,0.00,0.00,0.00,30.07,1013.90,10.00,M,CLR,M,M,M,M,M,M,M,M,M,M,M,M,M,M,55.00,KRNO 221155Z 00000KT 10SM CLR 13/07 A3007 RMK AO2 SLP139 70005 T01280072 10189 20128 58002,M
RTS,2023-05-22 11:55,-119.8764,39.6682,1539.00,44.60,41.00,87.09,340.00,7.00,0.00,30.10,M,10.00,M,CLR,M,M,M,M,M,M,M,M,M,M,M,M,M,M,40.14,KRTS 221155Z AUTO 34007KT 10SM CLR 07/05 A3010 RMK AO2,M
MEV,2023-05-22 11:55,-119.7500,38.9963,1441.42,42.80,39.20,86.99,130.00,5.00,0.00,30.08,M,10.00,M,FEW,SCT,BKN,M,3900.00,5000.00,6000.00,M,M,M,M,M,M,M,M,39.22,KMEV 221155Z AUTO 13005KT 10SM FEW039 SCT050 BKN060 06/04 A3008 RMK AO2,M
BAM,2023-05-22 11:55,-116.8743,40.5990,1382.36,51.80,44.60,76.34,100.00,6.00,0.00,30.05,M,10.00,M,CLR,M,M,M,M,M,M,M,M,M,M,M,M,M,M,51.80,KBAM 221155Z AUTO 10006KT 10SM CLR 11/07 A3005 RMK AO1,M
HTH,2023-05-22 11:55,-118.6315,38.5448,1282.89,53.60,42.80,66.70,0.00,0.00,0.00,30.05,M,10.00,M,CLR,M,M,M,M,M,M,M,M,M,M,M,M,M,M,53.60,KHTH 221155Z AUTO 00000KT 10SM CLR 12/06 A3005 RMK A01,M
TMT,2023-05-22 11:55,-117.1971,39.4643,1749.34,42.30,37.40,82.64,230.00,4.00,0.00,30.13,M,10.00,M,CLR,M,M,M,M,M,M,M,M,M,M,M,M,M,M,39.45,KTMT 221155Z AUTO 23004KT 10SM CLR 06/03 A3013 RMK AO2 T00570030 10150 20047,M
10U,2023-05-22 11:55,-116.1876,41.9532,1637.00,46.40,42.80,87.19,0.00,0.00,0.00,30.07,M,10.00,M,FEW,FEW,M,M,5500.00,7000.00,M,M,M,M,M,M,M,M,M,46.40,K10U 221155Z AUTO 00000KT 10SM FEW055 FEW070 08/06 A3007 RMK AO2,M
LSV,2023-05-22 11:55,-115.0343,36.2362,570.00,71.60,43.20,35.92,40.00,5.00,0.00,29.85,1008.40,10.00,M,CLR,M,M,M,M,M,M,M,M,M,M,M,M,M,M,71.60,KLSV 221155Z AUTO 04005KT 10SM CLR 22/06 A2985 RMK AO2 SLP084 T02200062 10287 20220 58002 $,M
INS,2023-05-22 11:55,-115.6733,36.5872,955.00,66.70,44.00,43.97,240.00,6.00,0.00,29.96,1009.90,10.00,M,FEW,M,M,M,19000.00,M,M,M,M,M,M,M,M,M,M,66.70,KINS 221155Z AUTO 24006KT 10SM FEW190 19/07 A2996 RMK AO2 SLP099 60000 T01930067 10252 20193 58009 $,M
EKO,2023-05-22 11:56,-115.7860,40.8242,1367.00,58.00,45.00,62.07,90.00,4.00,0.00,30.06,1012.20,10.00,M,SCT,M,M,M,10000.00,M,M,M,M,M,M,M,M,M,M,57.90,KEKO 221156Z AUTO 09004KT 10SM SCT100 14/07 A3006 RMK AO2 SLP122 T01440072 10183 20133 56008,M
WMC,2023-05-22 11:56,-117.8072,40.9019,1315.00,49.00,45.00,86.33,0.00,0.00,0.00,30.03,1013.40,10.00,M,CLR,M,M,M,M,M,M,M,M,M,M,M,M,M,M,48.90,KWMC 221156Z AUTO 00000KT 10SM CLR 09/07 A3003 RMK AO2 SLP134 70002 T00940072 10172 20089 55005,M
HND,2023-05-22 11:56,-115.1344,35.9729,742.79,71.00,45.00,39.13,170.00,7.00,0.00,29.93,1012.60,10.00,M,CLR,M,M,M,M,M,M,M,M,M,M,M,M,M,M,71.10,KHND 221156Z AUTO 17007KT 10SM CLR 22/07 A2993 RMK AO2 SLP126 T02170072 10272 20217 58002,M
TPH,2023-05-22 11:56,-117.0904,38.0505,1654.00,M,M,M,M,M,0.00,30.11,M,M,M,M,M,M,M,M,M,M,M,M,M,M,M,M,M,M,M,KTPH 221156Z AUTO A3011 RMK AO2 SLPNO 57003 PWINO $,M
NFL,2023-05-22 11:56,-118.7010,39.4166,1199.00,57.00,51.00,80.60,170.00,3.00,0.00,30.02,1013.50,10.00,M,CLR,M,M,M,M,M,M,M,M,M,M,M,M,M,M,57.00,KNFL 221156Z AUTO 17003KT 10SM CLR 14/11 A3002 RMK AO2 SLP135 70006 T01390106 10167 20122 56004,M
LAS,2023-05-22 11:56,-115.1634,36.0719,663.00,76.00,45.00,33.30,220.00,4.00,0.00,29.90,1009.70,10.00,M,FEW,SCT,M,M,15000.00,20000.00,M,M,M,M,M,M,M,M,M,75.90,KLAS 221156Z 22004KT 10SM FEW150 SCT200 24/07 A2990 RMK AO2 SLP097 T02440072 10283 20239 58003,M
05U,2023-05-22 12:10,-116.0051,39.6042,1811.23,51.80,42.80,71.26,M,4.00,0.00,30.14,M,10.00,M,SCT,OVC,M,M,10000.00,12000.00,M,M,M,M,M,M,M,M,M,51.80,K05U 221210Z AUTO VRB04KT 10SM SCT100 OVC120 11/06 A3014 RMK A01,M
BVU,2023-05-22 12:15,-114.8611,35.9475,671.00,73.40,42.80,33.29,320.00,5.00,0.00,29.90,M,10.00,M,CLR,M,M,M,M,M,M,M,M,M,M,M,M,M,M,73.40,KBVU 221215Z AUTO 32005KT 10SM CLR 23/06 A2990 RMK AO2,M
CXP,2023-05-22 12:15,-119.7326,39.1923,1431.00,50.00,41.00,71.07,0.00,0.00,0.00,30.09,M,10.00,M,CLR,M,M,M,M,M,M,M,M,M,M,M,M,M,M,50.00,KCXP 221215Z AUTO 00000KT 10SM CLR 10/05 A3009 RMK AO2,M
RTS,2023-05-22 12:15,-119.8764,39.6682,1539.00,46.40,41.00,81.34,350.00,6.00,0.00,30.09,M,10.00,M,CLR,M,M,M,M,M,M,M,M,M,M,M,M,M,M,42.87,KRTS 221215Z AUTO 35006KT 10SM CLR 08/05 A3009 RMK AO2,M
MEV,2023-05-22 12:15,-119.7500,38.9963,1441.42,41.00,37.40,86.89,0.00,0.00,0.00,30.08,M,10.00,M,FEW,FEW,M,M,5000.00,6000.00,M,M,M,M,M,M,M,M,M,41.00,KMEV 221215Z AUTO 00000KT 10SM FEW050 FEW060 05/03 A3008 RMK AO2,M
BAM,2023-05-22 12:15,-116.8743,40.5990,1382.36,51.80,44.60,76.34,140.00,5.00,0.00,30.05,M,10.00,M,CLR,M,M,M,M,M,M,M,M,M,M,M,M,M,M,51.80,KBAM 221215Z AUTO 14005KT 10SM CLR 11/07 A3005 RMK AO1,M
HTH,2023-05-22 12:15,-118.6315,38.5448,1282.89,51.80,42.80,71.26,0.00,0.00,0.00,30.06,M,10.00,M,CLR,M,M,M,M,M,M,M,M,M,M,M,M,M,M,51.80,KHTH 221215Z AUTO 00000KT 10SM CLR 11/06 A3006 RMK A01,M
10U,2023-05-22 12:15,-116.1876,41.9532,1637.00,44.60,42.80,93.35,0.00,0.00,0.00,30.08,M,10.00,M,CLR,M,M,M,M,M,M,M,M,M,M,M,M,M,M,44.60,K10U 221215Z AUTO 00000KT 10SM CLR 07/06 A3008 RMK AO2,M
TMT,2023-05-22 12:15,-117.1971,39.4643,1749.34,42.00,38.00,84.93,340.00,4.00,0.00,30.13,M,10.00,M,CLR,M,M,M,M,M,M,M,M,M,M,M,M,M,M,39.21,KTMT 221215Z AUTO 34004KT 10SM CLR 06/03 A3013 RMK AO2 T00560033,M
05U,2023-05-22 12:30,-116.0051,39.6042,1811.23,51.80,42.80,71.26,M,5.00,0.00,30.14,M,10.00,M,FEW,OVC,M,M,9000.00,12000.00,M,M,M,M,M,M,M,M,M,51.80,K05U 221230Z AUTO VRB05KT 10SM FEW090 OVC120 11/06 A3014 RMK A01,M
BVU,2023-05-22 12:35,-114.8611,35.9475,671.00,75.20,42.80,31.34,0.00,0.00,0.00,29.90,M,10.00,M,CLR,M,M,M,M,M,M,M,M,M,M,M,M,M,M,75.20,KBVU 221235Z AUTO 00000KT 10SM CLR 24/06 A2990 RMK AO2,M
CXP,2023-05-22 12:35,-119.7326,39.1923,1431.00,48.20,41.00,76.01,0.00,0.00,0.00,30.09,M,10.00,M,CLR,M,M,M,M,M,M,M,M,M,M,M,M,M,M,48.20,KCXP 221235Z AUTO 00000KT 10SM CLR 09/05 A3009 RMK AO2,M
RTS,2023-05-22 12:35,-119.8764,39.6682,1539.00,46.40,41.00,81.34,320.00,4.00,0.00,30.10,M,10.00,M,CLR,M,M,M,M,M,M,M,M,M,M,M,M,M,M,44.24,KRTS 221235Z AUTO 32004KT 10SM CLR 08/05 A3010 RMK AO2,M
MEV,2023-05-22 12:35,-119.7500,38.9963,1441.42,42.80,39.20,86.99,120.00,6.00,0.00,30.08,M,10.00,M,CLR,M,M,M,M,M,M,M,M,M,M,M,M,M,M,38.54,KMEV 221235Z AUTO 12006KT 10SM CLR 06/04 A3008 RMK AO2,M
BAM,2023-05-22 12:35,-116.8743,40.5990,1382.36,51.80,44.60,76.34,90.00,4.00,0.00,30.05,M,10.00,M,CLR,M,M,M,M,M,M,M,M,M,M,M,M,M,M,51.80,KBAM 221235Z AUTO 09004KT 10SM CLR 11/07 A3005 RMK AO1,M
HTH,2023-05-22 12:35,-118.6315,38.5448,1282.89,53.60,42.80,66.70,0.00,0.00,0.00,30.06,M,10.00,M,CLR,M,M,M,M,M,M,M,M,M,M,M,M,M,M,53.60,KHTH 221235Z AUTO 00000KT 10SM CLR 12/06 A3006 RMK A01,M
TMT,2023-05-22 12:35,-117.1971,39.4643,1749.34,41.50,37.60,85.90,0.00,0.00,0.00,30.13,M,10.00,M,CLR,M,M,M,M,M,M,M,M,M,M,M,M,M,M,41.50,KTMT 221235Z AUTO 00000KT 10SM CLR 05/03 A3013 RMK AO2 T00530031,M
10U,2023-05-22 12:35,-116.1876,41.9532,1637.00,46.40,42.80,87.19,0.00,0.00,0.00,30.08,M,10.00,M,CLR,M,M,M,M,M,M,M,M,M,M,M,M,M,M,46.40,K10U 221235Z AUTO 00000KT 10SM CLR 08/06 A3008 RMK AO2,M
05U,2023-05-22 12:50,-116.0051,39.6042,1811.23,51.80,42.80,71.26,10.00,6.00,0.00,30.14,M,10.00,M,FEW,BKN,M,M,9000.00,12000.00,M,M,M,M,M,M,M,M,M,51.80,K05U 221250Z AUTO 01006KT 10SM FEW090 BKN120 11/06 A3014 RMK A01,M
P68,2023-05-22 12:53,-116.0056,39.6014,1993.00,53.00,43.00,68.46,190.00,6.00,0.00,30.11,1012.70,M,M,M,M,M,M,M,M,M,M,M,M,M,M,M,M,M,53.10,KP68 221253Z AUTO 19006KT 12/06 A3011 RMK AO1 SLP127 T01170061,M
DRA,2023-05-22 12:53,-116.0278,36.6206,1009.00,68.00,46.00,45.19,330.00,5.00,0.00,29.96,1009.80,10.00,M,CLR,M,M,M,M,M,M,M,M,M,M,M,M,M,M,68.00,KDRA 221253Z AUTO 33005KT 10SM CLR 20/08 A2996 RMK AO2 SLP098 T02000078,M
ELY,2023-05-22 12:53,-114.8453,39.2950,1909.00,48.00,41.00,76.58,220.00,7.00,0.00,30.14,1012.90,10.00,M,CLR,M,M,M,M,M,M,M,M,M,M,M,M,M,M,44.28,KELY 221253Z AUTO 22007KT 10SM CLR 09/05 A3014 RMK AO2 SLP129 T00890050,M
VGT,2023-05-22 12:53,-115.1933,36.2111,667.00,77.00,46.00,33.34,340.00,6.00,0.00,29.89,1011.30,10.00,M,CLR,M,M,M,M,M,M,M,M,M,M,M,M,M,M,77.00,KVGT 221253Z 34006KT 10SM CLR 25/08 A2989 RMK AO2 SLP113 T02500078 $,M
LOL,2023-05-22 12:53,-118.5701,40.0684,1192.43,45.00,44.00,96.63,0.00,0.00,0.00,30.02,1014.40,10.00,M,CLR,M,M,M,M,M,M,M,M,M,M,M,M,M,M,45.00,KLOL 221253Z AUTO 00000KT 10SM CLR 07/07 A3002 RMK AO2 SLP144 T00720067,M
BVU,2023-05-22 12:55,-114.8611,35.9475,671.00,73.40,44.60,35.66,0.00,0.00,0.00,29.90,M,10.00,M,CLR,M,M,M,M,M,M,M,M,M,M,M,M,M,M,73.40,KBVU 221255Z AUTO 00000KT 10SM CLR 23/07 A2990 RMK AO2,M
CXP,2023-05-22 12:55,-119.7326,39.1923,1431.00,48.20,42.80,81.47,0.00,0.00,0.00,30.09,M,10.00,M,CLR,M,M,M,M,M,M,M,M,M,M,M,M,M,M,48.20,KCXP 221255Z AUTO 00000KT 10SM CLR 09/06 A3009 RMK AO2,M
RNO,2023-05-22 12:55,-119.7711,39.4839,1341.00,54.00,45.00,71.50,200.00,3.00,0.00,30.07,1014.10,10.00,M,FEW,M,M,M,20000.00,M,M,M,M,M,M,M,M,M,M,54.00,KRNO 221255Z 20003KT 10SM FEW200 12/07 A3007 RMK AO2 SLP141 T01220072,M
RTS,2023-05-22 12:55,-119.8764,39.6682,1539.00,46.40,41.00,81.34,350.00,5.00,0.00,30.10,M,10.00,M,CLR,M,M,M,M,M,M,M,M,M,M,M,M,M,M,43.50,KRTS 221255Z AUTO 35005KT 10SM CLR 08/05 A3010 RMK AO2,M
MEV,2023-05-22 12:55,-119.7500,38.9963,1441.42,41.00,37.40,86.89,0.00,0.00,0.00,30.08,M,10.00,M,CLR,M,M,M,M,M,M,M,M,M,M,M,M,M,M,41.00,KMEV 221255Z AUTO 00000KT 10SM CLR 05/03 A3008 RMK AO2,M
BAM,2023-05-22 12:55,-116.8743,40.5990,1382.36,51.80,44.60,76.34,80.00,4.00,0.00,30.06,M,10.00,M,CLR,M,M,M,M,M,M,M,M,M,M,M,M,M,M,51.80,KBAM 221255Z AUTO 08004KT 10SM CLR 11/07 A3006 RMK AO1,M
HTH,2023-05-22 12:55,-118.6315,38.5448,1282.89,53.60,42.80,66.70,0.00,0.00,0.00,30.06,M,10.00,M,CLR,M,M,M,M,M,M,M,M,M,M,M,M,M,M,53.60,KHTH 221255Z AUTO 00000KT 10SM CLR 12/06 A3006 RMK A01,M
TMT,2023-05-22 12:55,-117.1971,39.4643,1749.34,39.20,36.00,88.18,0.00,0.00,0.00,30.14,M,10.00,M,CLR,M,M,M,M,M,M,M,M,M,M,M,M,M,M,39.20,KTMT 221255Z AUTO 00000KT 10SM CLR 04/02 A3014 RMK AO2 T00400022,M
10U,2023-05-22 12:55,-116.1876,41.9532,1637.00,48.20,44.60,87.28,160.00,4.00,0.00,30.08,M,10.00,M,CLR,M,M,M,M,M,M,M,M,M,M,M,M,M,M,46.34,K10U 221255Z AUTO 16004KT 10SM CLR 09/07 A3008 RMK AO2,M
INS,2023-05-22 12:55,-115.6733,36.5872,955.00,65.70,45.50,48.02,320.00,3.00,0.00,29.96,1010.10,10.00,M,CLR,M,M,M,M,M,M,M,M,M,M,M,M,M,M,65.70,KINS 221255Z AUTO 32003KT 10SM CLR 19/08 A2996 RMK AO2 SLP101 T01870075 $,M
LSV,2023-05-22 12:55,-115.0343,36.2362,570.00,73.60,43.50,33.96,50.00,3.00,0.00,29.87,1009.10,10.00,M,CLR,M,M,M,M,M,M,M,M,M,M,M,M,M,M,73.60,KLSV 221255Z AUTO 05003KT 10SM CLR 23/06 A2987 RMK AO2 SLP091 T02310064 $,M
WMC,2023-05-22 12:56,-117.8072,40.9019,1315.00,46.00,43.00,89.20,190.00,3.00,0.00,30.04,1013.90,10.00,M,CLR,M,M,M,M,M,M,M,M,M,M,M,M,M,M,44.69,KWMC 221256Z AUTO 19003KT 10SM CLR 08/06 A3004 RMK AO2 SLP139 T00780061,M
HND,2023-05-22 12:56,-115.1344,35.9729,742.79,71.00,46.00,40.65,210.00,7.00,0.00,29.94,1012.70,10.00,M,CLR,M,M,M,M,M,M,M,M,M,M,M,M,M,M,71.10,KHND 221256Z 21007KT 10SM CLR 22/08 A2994 RMK AO2 SLP127 T02170078,M
TPH,2023-05-22 12:56,-117.0904,38.0505,1654.00,M,M,M,M,M,0.00,30.11,M,M,M,M,M,M,M,M,M,M,M,M,M,M,M,M,M,M,M,KTPH 221256Z AUTO A3011 RMK AO2 SLPNO PWINO $,M
LAS,2023-05-22 12:56,-115.1634,36.0719,663.00,75.00,45.00,34.31,270.00,3.00,0.00,29.91,1010.20,10.00,M,FEW,SCT,M,M,15000.00,22000.00,M,M,M,M,M,M,M,M,M,75.00,KLAS 221256Z 27003KT 10SM FEW150 SCT220 24/07 A2991 RMK AO2 SLP102 T02390072,M
EKO,2023-05-22 12:56,-115.7860,40.8242,1367.00,55.00,47.00,74.08,220.00,4.00,0.00,30.07,1013.00,10.00,M,CLR,M,M,M,M,M,M,M,M,M,M,M,M,M,M,55.00,KEKO 221256Z AUTO 22004KT 10SM CLR 13/08 A3007 RMK AO2 SLP130 T01280083,M
NFL,2023-05-22 12:56,-118.7010,39.4166,1199.00,54.00,51.00,89.88,160.00,6.00,0.00,30.02,1013.60,10.00,M,CLR,M,M,M,M,M,M,M,M,M,M,M,M,M,M,54.00,KNFL 221256Z AUTO 16006KT 10SM CLR 12/11 A3002 RMK AO2 SLP136 T01220106,M
05U,2023-05-22 13:10,-116.0051,39.6042,1811.23,51.80,42.80,71.26,10.00,5.00,0.00,30.14,M,10.00,M,FEW,FEW,M,M,9000.00,12000.00,M,M,M,M,M,M,M,M,M,51.80,K05U 221310Z AUTO 01005KT 10SM FEW090 FEW120 11/06 A3014 RMK A01,M
BVU,2023-05-22 13:15,-114.8611,35.9475,671.00,71.60,44.60,37.89,0.00,0.00,0.00,29.91,M,10.00,M,CLR,M,M,M,M,M,M,M,M,M,M,M,M,M,M,71.60,KBVU 221315Z AUTO 00000KT 10SM CLR 22/07 A2991 RMK AO2,M
CXP,2023-05-22 13:15,-119.7326,39.1923,1431.00,48.20,41.00,76.01,0.00,0.00,0.00,30.10,M,10.00,M,CLR,M,M,M,M,M,M,M,M,M,M,M,M,M,M,48.20,KCXP 221315Z AUTO 00000KT 10SM CLR 09/05 A3010 RMK AO2,M
RTS,2023-05-22 13:15,-119.8764,39.6682,1539.00,48.20,41.00,76.01,330.00,3.00,0.00,30.10,M,10.00,M,CLR,M,M,M,M,M,M,M,M,M,M,M,M,M,M,47.21,KRTS 221315Z AUTO 33003KT 10SM CLR 09/05 A3010 RMK AO2,M
MEV,2023-05-22 13:15,-119.7500,38.9963,1441.42,42.80,39.20,86.99,70.00,3.00,0.00,30.08,M,10.00,M,CLR,M,M,M,M,M,M,M,M,M,M,M,M,M,M,41.03,KMEV 221315Z AUTO 07003KT 10SM CLR 06/04 A3008 RMK AO2,M
BAM,2023-05-22 13:15,-116.8743,40.5990,1382.36,51.80,44.60,76.34,90.00,4.00,0.00,30.06,M,10.00,M,CLR,M,M,M,M,M,M,M,M,M,M,M,M,M,M,51.80,KBAM 221315Z AUTO 09004KT 10SM CLR 11/07 A3006 RMK AO1,M
HTH,2023-05-22 13:15,-118.6315,38.5448,1282.89,55.40,42.80,62.46,230.00,4.00,0.00,30.06,M,10.00,M,CLR,M,M,M,M,M,M,M,M,M,M,M,M,M,M,55.40,KHTH 221315Z AUTO 23004KT 10SM CLR 13/06 A3006 RMK A01,M
TMT,2023-05-22 13:15,-117.1971,39.4643,1749.34,41.40,37.20,84.89,0.00,0.00,0.00,30.14,M,10.00,M,CLR,M,M,M,M,M,M,M,M,M,M,M,M,M,M,41.40,KTMT 221315Z AUTO 00000KT 10SM CLR 05/03 A3014 RMK AO2 T00520029,M
10U,2023-05-22 13:15,-116.1876,41.9532,1637.00,51.80,46.40,81.74,160.00,5.00,0.00,30.08,M,10.00,M,CLR,M,M,M,M,M,M,M,M,M,M,M,M,M,M,51.80,K10U 221315Z AUTO 16005KT 10SM CLR 11/08 A3008 RMK AO2,M
05U,2023-05-22 13:30,-116.0051,39.6042,1811.23,51.80,42.80,71.26,0.00,0.00,0.00,30.15,M,10.00,M,CLR,M,M,M,M,M,M,M,M,M,M,M,M,M,M,51.80,K05U 221330Z AUTO 00000KT 10SM CLR 11/06 A3015 RMK A01,M
BVU,2023-05-22 13:35,-114.8611,35.9475,671.00,71.60,44.60,37.89,0.00,0.00,0.00,29.91,M,10.00,M,CLR,M,M,M,M,M,M,M,M,M,M,M,M,M,M,71.60,KBVU 221335Z AUTO 00000KT 10SM CLR 22/07 A2991 RMK AO2,M
CXP,2023-05-22 13:35,-119.7326,39.1923,1431.00,50.00,42.80,76.18,0.00,0.00,0.00,30.10,M,10.00,M,CLR,M,M,M,M,M,M,M,M,M,M,M,M,M,M,50.00,KCXP 221335Z AUTO 00000KT 10SM CLR 10/06 A3010 RMK AO2,M
RTS,2023-05-22 13:35,-119.8764,39.6682,1539.00,48.20,42.80,81.47,0.00,0.00,0.00,30.10,M,10.00,M,CLR,M,M,M,M,M,M,M,M,M,M,M,M,M,M,48.20,KRTS 221335Z AUTO 00000KT 10SM CLR 09/06 A3010 RMK AO2,M
MEV,2023-05-22 13:35,-119.7500,38.9963,1441.42,46.40,41.00,81.34,0.00,0.00,0.00,30.08,M,10.00,M,CLR,M,M,M,M,M,M,M,M,M,M,M,M,M,M,46.40,KMEV 221335Z AUTO 00000KT 10SM CLR 08/05 A3008 RMK AO2,M
BAM,2023-05-22 13:35,-116.8743,40.5990,1382.36,53.60,46.40,76.50,0.00,0.00,0.00,30.07,M,10.00,M,CLR,M,M,M,M,M,M,M,M,M,M,M,M,M,M,53.60,KBAM 221335Z AUTO 00000KT 10SM CLR 12/08 A3007 RMK AO1,M
HTH,2023-05-22 13:35,-118.6315,38.5448,1282.89,57.20,44.60,62.69,0.00,0.00,0.00,30.07,M,10.00,M,CLR,M,M,M,M,M,M,M,M,M,M,M,M,M,M,57.20,KHTH 221335Z AUTO 00000KT 10SM CLR 14/07 A3007 RMK A01,M
10U,2023-05-22 13:35,-116.1876,41.9532,1637.00,51.80,46.40,81.74,160.00,5.00,0.00,30.09,M,10.00,M,CLR,M,M,M,M,M,M,M,M,M,M,M,M,M,M,51.80,K10U 221335Z AUTO 16005KT 10SM CLR 11/08 A3009 RMK AO2,M
TMT,2023-05-22 13:35,-117.1971,39.4643,1749.34,44.00,38.30,80.52,0.00,0.00,0.00,30.14,M,10.00,M,CLR,M,M,M,M,M,M,M,M,M,M,M,M,M,M,43.90,KTMT 221335Z AUTO 00000KT 10SM CLR 07/04 A3014 RMK AO2 T00660035,M
05U,2023-05-22 13:50,-116.0051,39.6042,1811.23,53.60,44.60,71.45,10.00,4.00,0.00,30.15,M,10.00,M,CLR,M,M,M,M,M,M,M,M,M,M,M,M,M,M,53.60,K05U 221350Z AUTO 01004KT 10SM CLR 12/07 A3015 RMK A01,M
DRA,2023-05-22 13:53,-116.0278,36.6206,1009.00,71.00,48.00,43.83,50.00,6.00,0.00,29.97,1010.10,10.00,M,CLR,M,M,M,M,M,M,M,M,M,M,M,M,M,M,71.10,KDRA 221353Z AUTO 05006KT 10SM CLR 22/09 A2997 RMK AO2 SLP101 T02170089,M
LOL,2023-05-22 13:53,-118.5701,40.0684,1192.43,52.00,46.00,79.92,260.00,3.00,0.00,30.03,1014.90,10.00,M,CLR,M,M,M,M,M,M,M,M,M,M,M,M,M,M,52.00,KLOL 221353Z AUTO 26003KT 10SM CLR 11/08 A3003 RMK AO2 SLP149 T01110078,M
ELY,2023-05-22 13:53,-114.8453,39.2950,1909.00,50.00,42.00,74.15,200.00,4.00,0.00,30.15,1012.70,10.00,M,CLR,M,M,M,M,M,M,M,M,M,M,M,M,M,M,50.00,KELY 221353Z AUTO 20004KT 10SM CLR 10/06 A3015 RMK AO2 SLP127 T01000056,M
VGT,2023-05-22 13:53,-115.1933,36.2111,667.00,80.00,47.00,31.15,360.00,5.00,0.00,29.91,1011.60,10.00,M,CLR,M,M,M,M,M,M,M,M,M,M,M,M,M,M,79.33,KVGT 221353Z 36005KT 10SM CLR 27/08 A2991 RMK AO2 SLP116 T02670083 $,M
BVU,2023-05-22 13:55,-114.8611,35.9475,671.00,73.40,44.60,35.66,0.00,0.00,0.00,29.92,M,10.00,M,CLR,M,M,M,M,M,M,M,M,M,M,M,M,M,M,73.40,KBVU 221355Z AUTO 00000KT 10SM CLR 23/07 A2992 RMK AO2,M
CXP,2023-05-22 13:55,-119.7326,39.1923,1431.00,53.60,42.80,66.70,0.00,0.00,0.00,30.10,M,10.00,M,CLR,M,M,M,M,M,M,M,M,M,M,M,M,M,M,53.60,KCXP 221355Z AUTO 00000KT 10SM CLR 12/06 A3010 RMK AO2,M
RNO,2023-05-22 13:55,-119.7711,39.4839,1341.00,57.00,45.00,64.12,0.00,0.00,0.00,30.07,1014.00,10.00,M,FEW,M,M,M,20000.00,M,M,M,M,M,M,M,M,M,M,57.00,KRNO 221355Z 00000KT 10SM FEW200 14/07 A3007 RMK AO2 SLP140 T01390072,M
RTS,2023-05-22 13:55,-119.8764,39.6682,1539.00,51.80,42.80,71.26,0.00,0.00,0.00,30.10,M,10.00,M,CLR,M,M,M,M,M,M,M,M,M,M,M,M,M,M,51.80,KRTS 221355Z AUTO 00000KT 10SM CLR 11/06 A3010 RMK AO2,M
MEV,2023-05-22 13:55,-119.7500,38.9963,1441.42,48.20,41.00,76.01,0.00,0.00,0.00,30.08,M,10.00,M,CLR,M,M,M,M,M,M,M,M,M,M,M,M,M,M,48.20,KMEV 221355Z AUTO 00000KT 10SM CLR 09/05 A3008 RMK AO2,M
BAM,2023-05-22 13:55,-116.8743,40.5990,1382.36,57.20,46.40,67.12,0.00,0.00,0.00,30.07,M,10.00,M,CLR,M,M,M,M,M,M,M,M,M,M,M,M,M,M,57.20,KBAM 221355Z AUTO 00000KT 10SM CLR 14/08 A3007 RMK AO1,M
HTH,2023-05-22 13:55,-118.6315,38.5448,1282.89,59.00,44.60,58.77,0.00,0.00,0.00,30.07,M,10.00,M,CLR,M,M,M,M,M,M,M,M,M,M,M,M,M,M,59.00,KHTH 221355Z AUTO 00000KT 10SM CLR 15/07 A3007 RMK A01,M
TMT,2023-05-22 13:55,-117.1971,39.4643,1749.34,47.00,39.70,75.32,0.00,0.00,0.00,30.14,M,10.00,M,CLR,M,M,M,M,M,M,M,M,M,M,M,M,M,M,47.10,KTMT 221355Z AUTO 00000KT 10SM CLR 08/04 A3014 RMK AO2 T00840043,M
10U,2023-05-22 13:55,-116.1876,41.9532,1637.00,55.40,46.40,71.64,110.00,4.00,0.00,30.09,M,10.00,M,CLR,M,M,M,M,M,M,M,M,M,M,M,M,M,M,55.40,K10U 221355Z AUTO 11004KT 10SM CLR 13/08 A3009 RMK AO2,M
INS,2023-05-22 13:55,-115.6733,36.5872,955.00,66.40,45.00,45.98,0.00,0.00,0.00,29.97,1010.40,10.00,M,CLR,M,M,M,M,M,M,M,M,M,M,M,M,M,M,66.40,KINS 221355Z AUTO 00000KT 10SM CLR 19/07 A2997 RMK AO2 SLP104 T01910072 $,M
LSV,2023-05-22 13:55,-115.0343,36.2362,570.00,76.60,43.70,30.96,40.00,6.00,0.00,29.88,1009.40,10.00,M,CLR,M,M,M,M,M,M,M,M,M,M,M,M,M,M,76.60,KLSV 221355Z AUTO 04006KT 10SM CLR 25/07 A2988 RMK AO2 SLP094 T02480065 $,M
NFL,2023-05-22 13:56,-118.7010,39.4166,1199.00,58.00,52.00,80.67,150.00,4.00,0.00,30.03,1013.90,10.00,M,CLR,M,M,M,M,M,M,M,M,M,M,M,M,M,M,57.90,KNFL 221356Z AUTO 15004KT 10SM CLR 14/11 A3003 RMK AO2 SLP139 T01440111,M
HND,2023-05-22 13:56,-115.1344,35.9729,742.79,74.00,46.00,36.98,180.00,7.00,0.00,29.95,1013.10,10.00,M,CLR,M,M,M,M,M,M,M,M,M,M,M,M,M,M,73.90,KHND 221356Z 18007KT 10SM CLR 23/08 A2995 RMK AO2 SLP131 T02330078,M
TPH,2023-05-22 13:56,-117.0904,38.0505,1654.00,M,M,M,M,M,0.00,30.11,M,M,M,M,M,M,M,M,M,M,M,M,M,M,M,M,M,M,M,KTPH 221356Z AUTO A3011 RMK AO2 SLPNO PWINO $,M
LAS,2023-05-22 13:56,-115.1634,36.0719,663.00,78.00,45.00,30.95,0.00,0.00,0.00,29.92,1010.60,10.00,M,FEW,FEW,M,M,15000.00,25000.00,M,M,M,M,M,M,M,M,M,78.10,KLAS 221356Z 00000KT 10SM FEW150 FEW250 26/07 A2992 RMK AO2 SLP106 T02560072,M
EKO,2023-05-22 13:56,-115.7860,40.8242,1367.00,58.00,47.00,66.70,230.00,4.00,0.00,30.08,1013.30,10.00,M,CLR,M,M,M,M,M,M,M,M,M,M,M,M,M,M,57.90,KEKO 221356Z AUTO 23004KT 10SM CLR 14/08 A3008 RMK AO2 SLP133 T01440083,M
WMC,2023-05-22 13:56,-117.8072,40.9019,1315.00,53.00,47.00,79.40,0.00,0.00,0.00,30.04,1014.10,10.00,M,CLR,M,M,M,M,M,M,M,M,M,M,M,M,M,M,53.10,KWMC 221356Z AUTO 00000KT 10SM CLR 12/08 A3004 RMK AO2 SLP141 T01170083,M
05U,2023-05-22 14:10,-116.0051,39.6042,1811.23,55.40,44.60,66.91,0.00,0.00,0.00,30.15,M,10.00,M,CLR,M,M,M,M,M,M,M,M,M,M,M,M,M,M,55.40,K05U 221410Z AUTO 00000KT 10SM CLR 13/07 A3015 RMK A01,M
BVU,2023-05-22 14:15,-114.8611,35.9475,671.00,75.20,44.60,33.57,320.00,4.00,0.00,29.92,M,10.00,M,CLR,M,M,M,M,M,M,M,M,M,M,M,M,M,M,75.20,KBVU 221415Z AUTO 32004KT 10SM CLR 24/07 A2992 RMK AO2,M
CXP,2023-05-22 14:15,-119.7326,39.1923,1431.00,55.40,42.80,62.46,0.00,0.00,0.00,30.10,M,10.00,M,CLR,M,M,M,M,M,M,M,M,M,M,M,M,M,M,55.40,KCXP 221415Z AUTO 00000KT 10SM CLR 13/06 A3010 RMK AO2,M
RTS,2023-05-22 14:15,-119.8764,39.6682,1539.00,53.60,44.60,71.45,0.00,0.00,0.00,30.11,M,10.00,M,CLR,M,M,M,M,M,M,M,M,M,M,M,M,M,M,53.60,KRTS 221415Z AUTO 00000KT 10SM CLR 12/07 A3011 RMK AO2,M
MEV,2023-05-22 14:15,-119.7500,38.9963,1441.42,50.00,42.80,76.18,0.00,0.00,0.00,30.08,M,10.00,M,CLR,M,M,M,M,M,M,M,M,M,M,M,M,M,M,50.00,KMEV 221415Z AUTO 00000KT 10SM CLR 10/06 A3008 RMK AO2,M
BAM,2023-05-22 14:15,-116.8743,40.5990,1382.36,59.00,48.20,67.33,0.00,0.00,0.00,30.07,M,10.00,M,CLR,M,M,M,M,M,M,M,M,M,M,M,M,M,M,59.00,KBAM 221415Z AUTO 00000KT 10SM CLR 15/09 A3007 RMK AO1,M
HTH,2023-05-22 14:15,-118.6315,38.5448,1282.89,60.80,44.60,55.12,0.00,0.00,0.00,30.08,M,10.00,M,CLR,M,M,M,M,M,M,M,M,M,M,M,M,M,M,60.80,KHTH 221415Z AUTO 00000KT 10SM CLR 16/07 A3008 RMK A01,M
TMT,2023-05-22 14:15,-117.1971,39.4643,1749.34,50.20,40.30,68.65,0.00,0.00,0.00,30.14,M,10.00,M,CLR,M,M,M,M,M,M,M,M,M,M,M,M,M,M,50.20,KTMT 221415Z AUTO 00000KT 10SM CLR 10/05 A3014 RMK AO2 T01010046,M
10U,2023-05-22 14:15,-116.1876,41.9532,1637.00,57.20,46.40,67.12,170.00,4.00,0.00,30.09,M,10.00,M,CLR,M,M,M,M,M,M,M,M,M,M,M,M,M,M,57.20,K10U 221415Z AUTO 17004KT 10SM CLR 14/08 A3009 RMK AO2,M
05U,2023-05-22 14:30,-116.0051,39.6042,1811.23,59.00,44.60,58.77,0.00,0.00,0.00,30.15,M,10.00,M,CLR,M,M,M,M,M,M,M,M,M,M,M,M,M,M,59.00,K05U 221430Z AUTO 00000KT 10SM CLR 15/07 A3015 RMK A01,M
BVU,2023-05-22 14:35,-114.8611,35.9475,671.00,77.00,44.60,31.62,0.00,0.00,0.00,29.92,M,10.00,M,CLR,M,M,M,M,M,M,M,M,M,M,M,M,M,M,77.00,KBVU 221435Z AUTO 00000KT 10SM CLR 25/07 A2992 RMK AO2,M
CXP,2023-05-22 14:35,-119.7326,39.1923,1431.00,57.20,42.80,58.52,0.00,0.00,0.00,30.10,M,10.00,M,CLR,M,M,M,M,M,M,M,M,M,M,M,M,M,M,57.20,KCXP 221435Z AUTO 00000KT 10SM CLR 14/06 A3010 RMK AO2,M
RTS,2023-05-22 14:35,-119.8764,39.6682,1539.00,55.40,44.60,66.91,0.00,0.00,0.00,30.11,M,10.00,M,CLR,M,M,M,M,M,M,M,M,M,M,M,M,M,M,55.40,KRTS 221435Z AUTO 00000KT 10SM CLR 13/07 A3011 RMK AO2,M
MEV,2023-05-22 14:35,-119.7500,38.9963,1441.42,53.60,44.60,71.45,0.00,0.00,0.00,30.08,M,10.00,M,CLR,M,M,M,M,M,M,M,M,M,M,M,M,M,M,53.60,KMEV 221435Z AUTO 00000KT 10SM CLR 12/07 A3008 RMK AO2,M
BAM,2023-05-22 14:35,-116.8743,40.5990,1382.36,62.60,48.20,59.26,0.00,0.00,0.00,30.07,M,10.00,M,CLR,M,M,M,M,M,M,M,M,M,M,M,M,M,M,62.60,KBAM 221435Z AUTO 00000KT 10SM CLR 17/09 A3007 RMK AO1,M
HTH,2023-05-22 14:35,-118.6315,38.5448,1282.89,62.60,42.80,48.28,240.00,4.00,0.00,30.07,M,10.00,M,CLR,M,M,M,M,M,M,M,M,M,M,M,M,M,M,62.60,KHTH 221435Z AUTO 24004KT 10SM CLR 17/06 A3007 RMK A01,M
TMT,2023-05-22 14:35,-117.1971,39.4643,1749.34,53.00,40.80,63.35,0.00,0.00,0.00,30.14,M,10.00,M,CLR,M,M,M,M,M,M,M,M,M,M,M,M,M,M,52.90,KTMT 221435Z AUTO 00000KT 10SM CLR 12/05 A3014 RMK AO2 T01160049,M
10U,2023-05-22 14:35,-116.1876,41.9532,1637.00,59.00,46.40,62.92,210.00,5.00,0.00,30.09,M,10.00,M,CLR,M,M,M,M,M,M,M,M,M,M,M,M,M,M,59.00,K10U 221435Z AUTO 21005KT 10SM CLR 15/08 A3009 RMK AO2,M
05U,2023-05-22 14:50,-116.0051,39.6042,1811.23,60.80,44.60,55.12,0.00,0.00,0.00,30.15,M,10.00,M,CLR,M,M,M,M,M,M,M,M,M,M,M,M,M,M,60.80,K05U 221450Z AUTO 00000KT 10SM CLR 16/07 A3015 RMK A01,M
VGT,2023-05-22 14:53,-115.1933,36.2111,667.00,82.00,46.00,28.30,0.00,0.00,0.00,29.91,1011.90,10.00,M,CLR,M,M,M,M,M,M,M,M,M,M,M,M,M,M,80.36,KVGT 221453Z 00000KT 10SM CLR 28/08 A2991 RMK AO2 SLP119 T02780078 53008 $,M
DRA,2023-05-22 14:53,-116.0278,36.6206,1009.00,74.00,47.00,38.26,0.00,0.00,0.00,29.97,1010.30,10.00,M,CLR,M,M,M,M,M,M,M,M,M,M,M,M,M,M,73.90,KDRA 221453Z AUTO 00000KT 10SM CLR 23/08 A2997 RMK AO2 SLP103 T02330083 51009,M
ELY,2023-05-22 14:53,-114.8453,39.2950,1909.00,53.00,44.00,71.40,180.00,6.00,0.00,30.14,1013.00,10.00,M,CLR,M,M,M,M,M,M,M,M,M,M,M,M,M,M,53.10,KELY 221453Z AUTO 18006KT 10SM CLR 12/07 A3014 RMK AO2 SLP130 T01170067 50002,M
LOL,2023-05-22 14:53,-118.5701,40.0684,1192.43,60.00,49.00,66.46,0.00,0.00,0.00,30.04,1014.70,10.00,M,CLR,M,M,M,M,M,M,M,M,M,M,M,M,M,M,60.10,KLOL 221453Z AUTO 00000KT 10SM CLR 16/09 A3004 RMK AO2 SLP147 T01560094 51006,M
BVU,2023-05-22 14:55,-114.8611,35.9475,671.00,78.80,44.60,29.79,220.00,3.00,0.00,29.92,M,10.00,M,CLR,M,M,M,M,M,M,M,M,M,M,M,M,M,M,78.80,KBVU 221455Z AUTO 22003KT 10SM CLR 26/07 A2992 RMK AO2,M
CXP,2023-05-22 14:55,-119.7326,39.1923,1431.00,59.00,42.80,54.86,0.00,0.00,0.00,30.10,M,10.00,M,CLR,M,M,M,M,M,M,M,M,M,M,M,M,M,M,59.00,KCXP 221455Z AUTO 00000KT 10SM CLR 15/06 A3010 RMK AO2,M
RNO,2023-05-22 14:55,-119.7711,39.4839,1341.00,61.00,45.00,55.57,0.00,0.00,0.00,30.08,1014.00,10.00,M,CLR,M,M,M,M,M,M,M,M,M,M,M,M,M,M,61.00,KRNO 221455Z 00000KT 10SM CLR 16/07 A3008 RMK AO2 SLP140 T01610072 53003,M
RTS,2023-05-22 14:55,-119.8764,39.6682,1539.00,57.20,44.60,62.69,0.00,0.00,0.00,30.11,M,10.00,M,CLR,M,M,M,M,M,M,M,M,M,M,M,M,M,M,57.20,KRTS 221455Z AUTO 00000KT 10SM CLR 14/07 A3011 RMK AO2,M
MEV,2023-05-22 14:55,-119.7500,38.9963,1441.42,55.40,44.60,66.91,0.00,0.00,0.00,30.08,M,10.00,M,CLR,M,M,M,M,M,M,M,M,M,M,M,M,M,M,55.40,KMEV 221455Z AUTO 00000KT 10SM CLR 13/07 A3008 RMK AO2,M
BAM,2023-05-22 14:55,-116.8743,40.5990,1382.36,62.60,46.40,55.37,0.00,0.00,0.00,30.07,M,10.00,M,CLR,M,M,M,M,M,M,M,M,M,M,M,M,M,M,62.60,KBAM 221455Z AUTO 00000KT 10SM CLR 17/08 A3007 RMK AO1,M
HTH,2023-05-22 14:55,-118.6315,38.5448,1282.89,62.60,44.60,51.72,270.00,3.00,0.00,30.07,M,10.00,M,CLR,M,M,M,M,M,M,M,M,M,M,M,M,M,M,62.60,KHTH 221455Z AUTO 27003KT 10SM CLR 17/07 A3007 RMK A01,M
TMT,2023-05-22 14:55,-117.1971,39.4643,1749.34,55.20,41.70,60.31,0.00,0.00,0.00,30.13,M,10.00,M,CLR,M,M,M,M,M,M,M,M,M,M,M,M,M,M,55.20,KTMT 221455Z AUTO 00000KT 10SM CLR 13/05 A3013 RMK AO2 T01290054,M
10U,2023-05-22 14:55,-116.1876,41.9532,1637.00,59.00,46.40,62.92,220.00,7.00,0.00,30.09,M,10.00,M,CLR,M,M,M,M,M,M,M,M,M,M,M,M,M,M,59.00,K10U 221455Z AUTO 22007KT 10SM CLR 15/08 A3009 RMK AO2,M
INS,2023-05-22 14:55,-115.6733,36.5872,955.00,71.60,46.00,39.96,0.00,0.00,0.00,29.97,1010.40,10.00,M,SCT,M,M,M,16000.00,M,M,M,M,M,M,M,M,M,M,71.60,KINS 221455Z AUTO 00000KT 10SM SCT160 22/08 A2997 RMK AO2 SLP104 T02200078 53004 $,M
LSV,2023-05-22 14:55,-115.0343,36.2362,570.00,81.30,44.00,26.93,30.00,10.00,0.00,29.88,1009.30,10.00,M,CLR,M,M,M,M,M,M,M,M,M,M,M,M,M,M,79.79,KLSV 221455Z AUTO 03010KT 10SM CLR 27/07 A2988 RMK AO2 SLP093 T02740067 50008 $,M
EKO,2023-05-22 14:56,-115.7860,40.8242,1367.00,62.00,48.00,59.86,210.00,3.00,0.00,30.08,1013.50,10.00,M,BKN,M,M,M,11000.00,M,M,M,M,M,M,M,M,M,M,62.10,KEKO 221456Z AUTO 21003KT 10SM BKN110 17/09 A3008 RMK AO2 SLP135 T01670089 50006,M
WMC,2023-05-22 14:56,-117.8072,40.9019,1315.00,61.00,50.00,67.06,190.00,3.00,0.00,30.04,1013.90,10.00,M,CLR,M,M,M,M,M,M,M,M,M,M,M,M,M,M,61.00,KWMC 221456Z AUTO 19003KT 10SM CLR 16/10 A3004 RMK AO2 SLP139 T01610100 51004,M
NFL,2023-05-22 14:56,-118.7010,39.4166,1199.00,64.00,52.00,64.97,0.00,0.00,0.00,30.04,1014.10,10.00,M,CLR,M,M,M,M,M,M,M,M,M,M,M,M,M,M,64.00,KNFL 221456Z 00000KT 10SM CLR 18/11 A3004 RMK AO2 SLP141 T01780111 53006,M
HND,2023-05-22 14:56,-115.1344,35.9729,742.79,79.00,46.00,31.21,230.00,4.00,0.00,29.96,1013.30,10.00,M,CLR,M,M,M,M,M,M,M,M,M,M,M,M,M,M,79.00,KHND 221456Z 23004KT 10SM CLR 26/08 A2996 RMK AO2 SLP133 T02610078 53008,M
TPH,2023-05-22 14:56,-117.0904,38.0505,1654.00,M,M,M,M,M,0.00,30.11,M,M,M,M,M,M,M,M,M,M,M,M,M,M,M,M,M,M,M,KTPH 221456Z AUTO A3011 RMK AO2 SLPNO 54000 PWINO $,M
LAS,2023-05-22 14:56,-115.1634,36.0719,663.00,80.00,45.00,28.99,0.00,0.00,0.00,29.93,1010.80,10.00,M,FEW,FEW,M,M,10000.00,15000.00,M,M,M,M,M,M,M,M,M,79.18,KLAS 221456Z 00000KT 10SM FEW100 FEW150 27/07 A2993 RMK AO2 SLP108 T02670072 51010,M
05U,2023-05-22 15:10,-116.0051,39.6042,1811.23,62.60,44.60,51.72,0.00,0.00,0.00,30.15,M,10.00,M,CLR,M,M,M,M,M,M,M,M,M,M,M,M,M,M,62.60,K05U 221510Z AUTO 00000KT 10SM CLR 17/07 A3015 RMK A01,M
BVU,2023-05-22 15:15,-114.8611,35.9475,671.00,80.60,44.60,28.08,0.00,0.00,0.00,29.92,M,10.00,M,CLR,M,M,M,M,M,M,M,M,M,M,M,M,M,M,79.42,KBVU 221515Z AUTO 00000KT 10SM CLR 27/07 A2992 RMK AO2,M
CXP,2023-05-22 15:15,-119.7326,39.1923,1431.00,59.00,44.60,58.77,0.00,0.00,0.00,30.10,M,10.00,M,CLR,M,M,M,M,M,M,M,M,M,M,M,M,M,M,59.00,KCXP 221515Z AUTO 00000KT 10SM CLR 15/07 A3010 RMK AO2,M
RTS,2023-05-22 15:15,-119.8764,39.6682,1539.00,59.00,42.80,54.86,0.00,0.00,0.00,30.11,M,10.00,M,CLR,M,M,M,M,M,M,M,M,M,M,M,M,M,M,59.00,KRTS 221515Z AUTO 00000KT 10SM CLR 15/06 A3011 RMK AO2,M
MEV,2023-05-22 15:15,-119.7500,38.9963,1441.42,57.20,44.60,62.69,0.00,0.00,0.00,30.08,M,10.00,M,CLR,M,M,M,M,M,M,M,M,M,M,M,M,M,M,57.20,KMEV 221515Z AUTO 00000KT 10SM CLR 14/07 A3008 RMK AO2,M
BAM,2023-05-22 15:15,-116.8743,40.5990,1382.36,64.40,48.20,55.63,0.00,0.00,0.00,30.07,M,10.00,M,CLR,M,M,M,M,M,M,M,M,M,M,M,M,M,M,64.40,KBAM 221515Z AUTO 00000KT 10SM CLR 18/09 A3007 RMK AO1,M
HTH,2023-05-22 15:15,-118.6315,38.5448,1282.89,64.40,44.60,48.55,0.00,0.00,0.00,30.07,M,10.00,M,M,M,M,M,M,M,M,M,M,M,M,M,M,M,M,64.40,KHTH 221515Z AUTO 00000KT 10SM 18/07 A3007 RMK A01,M
TMT,2023-05-22 15:15,-117.1971,39.4643,1749.34,56.80,43.00,59.83,0.00,0.00,0.00,30.14,M,10.00,M,CLR,M,M,M,M,M,M,M,M,M,M,M,M,M,M,56.80,KTMT 221515Z AUTO 00000KT 10SM CLR 14/06 A3014 RMK AO2 T01380061,M
10U,2023-05-22 15:15,-116.1876,41.9532,1637.00,60.80,46.40,59.01,220.00,7.00,0.00,30.08,M,10.00,M,CLR,M,M,M,M,M,M,M,M,M,M,M,M,M,M,60.80,K10U 221515Z AUTO 22007KT 10SM CLR 16/08 A3008 RMK AO2,M
05U,2023-05-22 15:30,-116.0051,39.6042,1811.23,64.40,44.60,48.55,0.00,0.00,0.00,30.15,M,10.00,M,CLR,M,M,M,M,M,M,M,M,M,M,M,M,M,M,64.40,K05U 221530Z AUTO 00000KT 10SM CLR 18/07 A3015 RMK A01,M
CXP,2023-05-22 15:35,-119.7326,39.1923,1431.00,60.80,44.60,55.12,0.00,0.00,0.00,30.10,M,10.00,M,CLR,M,M,M,M,M,M,M,M,M,M,M,M,M,M,60.80,KCXP 221535Z AUTO 00000KT 10SM CLR 16/07 A3010 RMK AO2,M
RTS,2023-05-22 15:35,-119.8764,39.6682,1539.00,60.80,42.80,51.45,0.00,0.00,0.00,30.11,M,10.00,M,CLR,M,M,M,M,M,M,M,M,M,M,M,M,M,M,60.80,KRTS 221535Z AUTO 00000KT 10SM CLR 16/06 A3011 RMK AO2,M
MEV,2023-05-22 15:35,-119.7500,38.9963,1441.42,59.00,44.60,58.77,0.00,0.00,0.00,30.09,M,10.00,M,CLR,M,M,M,M,M,M,M,M,M,M,M,M,M,M,59.00,KMEV 221535Z AUTO 00000KT 10SM CLR 15/07 A3009 RMK AO2,M
BAM,2023-05-22 15:35,-116.8743,40.5990,1382.36,66.20,46.40,48.83,0.00,0.00,0.00,30.06,M,10.00,M,CLR,M,M,M,M,M,M,M,M,M,M,M,M,M,M,66.20,KBAM 221535Z AUTO 00000KT 10SM CLR 19/08 A3006 RMK AO1,M
HTH,2023-05-22 15:35,-118.6315,38.5448,1282.89,64.40,42.80,45.32,M,3.00,0.00,30.07,M,10.00,M,M,M,M,M,M,M,M,M,M,M,M,M,M,M,M,64.40,KHTH 221535Z AUTO VRB03KT 10SM 18/06 A3007 RMK A01,M
TMT,2023-05-22 15:35,-117.1971,39.4643,1749.34,61.50,41.50,47.74,210.00,3.00,0.00,30.13,M,10.00,M,CLR,M,M,M,M,M,M,M,M,M,M,M,M,M,M,61.50,KTMT 221535Z AUTO 21003KT 10SM CLR 16/05 A3013 RMK AO2 T01640053,M
10U,2023-05-22 15:35,-116.1876,41.9532,1637.00,62.60,46.40,55.37,220.00,5.00,0.00,30.08,M,10.00,M,CLR,M,M,M,M,M,M,M,M,M,M,M,M,M,M,62.60,K10U 221535Z AUTO 22005KT 10SM CLR 17/08 A3008 RMK AO2,M
BVU,2023-05-22 15:35,-114.8611,35.9475,671.00,80.60,44.60,28.08,230.00,3.00,0.00,29.92,M,10.00,M,CLR,M,M,M,M,M,M,M,M,M,M,M,M,M,M,79.42,KBVU 221535Z AUTO 23003KT 10SM CLR 27/07 A2992 RMK AO2,M
05U,2023-05-22 15:50,-116.0051,39.6042,1811.23,66.20,46.40,48.83,0.00,0.00,0.00,30.14,M,10.00,M,CLR,M,M,M,M,M,M,M,M,M,M,M,M,M,M,66.20,K05U 221550Z AUTO 00000KT 10SM CLR 19/08 A3014 RMK A01,M
VGT,2023-05-22 15:53,-115.1933,36.2111,667.00,84.00,46.00,26.52,M,5.00,0.00,29.92,1012.00,10.00,M,CLR,M,M,M,M,M,M,M,M,M,M,M,M,M,M,81.69,KVGT 221553Z VRB05KT 10SM CLR 29/08 A2992 RMK AO2 SLP120 T02890078,M
LOL,2023-05-22 15:53,-118.5701,40.0684,1192.43,65.00,52.00,62.96,90.00,4.00,0.00,30.03,1014.30,10.00,M,CLR,M,M,M,M,M,M,M,M,M,M,M,M,M,M,64.90,KLOL 221553Z AUTO 09004KT 10SM CLR 18/11 A3003 RMK AO2 SLP143 T01830111,M
DRA,2023-05-22 15:53,-116.0278,36.6206,1009.00,78.00,47.00,33.26,0.00,0.00,0.00,29.98,1010.50,10.00,M,CLR,M,M,M,M,M,M,M,M,M,M,M,M,M,M,78.10,KDRA 221553Z AUTO 00000KT 10SM CLR 26/08 A2998 RMK AO2 SLP105 T02560083,M
ELY,2023-05-22 15:53,-114.8453,39.2950,1909.00,62.00,44.00,51.64,160.00,5.00,0.00,30.13,1012.30,10.00,M,CLR,M,M,M,M,M,M,M,M,M,M,M,M,M,M,62.10,KELY 221553Z AUTO 16005KT 10SM CLR 17/07 A3013 RMK AO2 SLP123 T01670067,M
CXP,2023-05-22 15:55,-119.7326,39.1923,1431.00,62.60,44.60,51.72,0.00,0.00,0.00,30.10,M,10.00,M,CLR,M,M,M,M,M,M,M,M,M,M,M,M,M,M,62.60,KCXP 221555Z AUTO 00000KT 10SM CLR 17/07 A3010 RMK AO2,M
RTS,2023-05-22 15:55,-119.8764,39.6682,1539.00,60.80,44.60,55.12,0.00,0.00,0.00,30.11,M,10.00,M,CLR,M,M,M,M,M,M,M,M,M,M,M,M,M,M,60.80,KRTS 221555Z AUTO 00000KT 10SM CLR 16/07 A3011 RMK AO2,M
MEV,2023-05-22 15:55,-119.7500,38.9963,1441.42,60.80,46.40,59.01,0.00,0.00,0.00,30.09,M,10.00,M,CLR,M,M,M,M,M,M,M,M,M,M,M,M,M,M,60.80,KMEV 221555Z AUTO 00000KT 10SM CLR 16/08 A3009 RMK AO2,M
BAM,2023-05-22 15:55,-116.8743,40.5990,1382.36,68.00,46.40,45.88,250.00,3.00,0.00,30.06,M,10.00,M,CLR,M,M,M,M,M,M,M,M,M,M,M,M,M,M,68.00,KBAM 221555Z AUTO 25003KT 10SM CLR 20/08 A3006 RMK AO1,M
HTH,2023-05-22 15:55,-118.6315,38.5448,1282.89,66.20,42.80,42.57,0.00,0.00,0.00,30.07,M,10.00,M,CLR,M,M,M,M,M,M,M,M,M,M,M,M,M,M,66.20,KHTH 221555Z AUTO 00000KT 10SM CLR 19/06 A3007 RMK A01,M
10U,2023-05-22 15:55,-116.1876,41.9532,1637.00,62.60,46.40,55.37,200.00,5.00,0.00,30.09,M,10.00,M,CLR,M,M,M,M,M,M,M,M,M,M,M,M,M,M,62.60,K10U 221555Z AUTO 20005KT 10SM CLR 17/08 A3009 RMK AO2,M
INS,2023-05-22 15:55,-115.6733,36.5872,955.00,72.50,45.50,38.04,300.00,4.00,0.00,29.97,1010.40,10.00,M,OVC,M,M,M,15000.00,M,M,M,M,M,M,M,M,M,M,72.50,KINS 221555Z AUTO 30004KT 10SM OVC150 23/08 A2997 RMK AO2 SLP104 T02250075 $,M
LSV,2023-05-22 15:55,-115.0343,36.2362,570.00,86.20,44.00,23.00,40.00,6.00,0.00,29.88,1009.30,10.00,M,CLR,M,M,M,M,M,M,M,M,M,M,M,M,M,M,83.19,KLSV 221555Z AUTO 04006KT 10SM CLR 30/07 A2988 RMK AO2 SLP093 T03010067 $,M
RNO,2023-05-22 15:55,-119.7711,39.4839,1341.00,65.00,44.00,46.81,0.00,0.00,0.00,30.07,1013.80,10.00,M,CLR,M,M,M,M,M,M,M,M,M,M,M,M,M,M,64.90,KRNO 221555Z 00000KT 10SM CLR 18/07 A3007 RMK AO2 SLP138 T01830067,M
TMT,2023-05-22 15:55,-117.1971,39.4643,1749.34,63.00,42.00,46.18,210.00,4.00,0.00,30.13,M,10.00,M,CLR,M,M,M,M,M,M,M,M,M,M,M,M,M,M,63.10,KTMT 221555Z AUTO 21004KT 10SM CLR 17/06 A3013 RMK AO2 T01730056,M
HND,2023-05-22 15:56,-115.1344,35.9729,742.79,83.00,45.00,26.46,M,3.00,0.00,29.96,1013.30,10.00,M,CLR,M,M,M,M,M,M,M,M,M,M,M,M,M,M,80.86,KHND 221556Z VRB03KT 10SM CLR 28/07 A2996 RMK AO2 SLP133 T02830072,M
TPH,2023-05-22 15:56,-117.0904,38.0505,1654.00,M,M,M,M,M,0.00,30.11,M,M,M,M,M,M,M,M,M,M,M,M,M,M,M,M,M,M,M,KTPH 221556Z AUTO A3011 RMK AO2 SLPNO PWINO $,M
LAS,2023-05-22 15:56,-115.1634,36.0719,663.00,84.00,44.00,24.68,M,4.00,0.00,29.93,1010.70,10.00,M,FEW,FEW,M,M,10000.00,15000.00,M,M,M,M,M,M,M,M,M,81.55,KLAS 221556Z VRB04KT 10SM FEW100 FEW150 29/07 A2993 RMK AO2 SLP107 T02890067,M
EKO,2023-05-22 15:56,-115.7860,40.8242,1367.00,67.00,47.00,48.56,160.00,4.00,0.00,30.07,1013.30,10.00,M,CLR,M,M,M,M,M,M,M,M,M,M,M,M,M,M,66.90,KEKO 221556Z AUTO 16004KT 10SM CLR 19/08 A3007 RMK AO2 SLP133 T01940083,M
WMC,2023-05-22 15:56,-117.8072,40.9019,1315.00,67.00,49.00,52.35,300.00,3.00,0.00,30.04,1013.50,10.00,M,CLR,M,M,M,M,M,M,M,M,M,M,M,M,M,M,66.90,KWMC 221556Z AUTO 30003KT 10SM CLR 19/09 A3004 RMK AO2 SLP135 T01940094,M
NFL,2023-05-22 15:56,-118.7010,39.4166,1199.00,69.00,51.00,52.67,210.00,4.00,0.00,30.04,1014.20,10.00,M,SCT,M,M,M,22000.00,M,M,M,M,M,M,M,M,M,M,69.10,KNFL 221556Z 21004KT 10SM SCT220 21/11 A3004 RMK AO2 SLP142 T02060106,M
05U,2023-05-22 16:10,-116.0051,39.6042,1811.23,68.00,44.60,42.85,10.00,4.00,0.00,30.14,M,10.00,M,CLR,M,M,M,M,M,M,M,M,M,M,M,M,M,M,68.00,K05U 221610Z AUTO 01004KT 10SM CLR 20/07 A3014 RMK A01,M
BVU,2023-05-22 16:15,-114.8611,35.9475,671.00,82.40,44.60,26.49,0.00,0.00,0.00,29.92,M,10.00,M,CLR,M,M,M,M,M,M,M,M,M,M,M,M,M,M,80.50,KBVU 221615Z AUTO 00000KT 10SM CLR 28/07 A2992 RMK AO2,M
CXP,2023-05-22 16:15,-119.7326,39.1923,1431.00,66.20,44.60,45.60,0.00,0.00,0.00,30.09,M,10.00,M,CLR,M,M,M,M,M,M,M,M,M,M,M,M,M,M,66.20,KCXP 221615Z AUTO 00000KT 10SM CLR 19/07 A3009 RMK AO2,M
RTS,2023-05-22 16:15,-119.8764,39.6682,1539.00,62.60,44.60,51.72,140.00,4.00,0.00,30.11,M,10.00,M,CLR,M,M,M,M,M,M,M,M,M,M,M,M,M,M,62.60,KRTS 221615Z AUTO 14004KT 10SM CLR 17/07 A3011 RMK AO2,M
MEV,2023-05-22 16:15,-119.7500,38.9963,1441.42,62.60,46.40,55.37,0.00,0.00,0.00,30.08,M,10.00,M,CLR,M,M,M,M,M,M,M,M,M,M,M,M,M,M,62.60,KMEV 221615Z AUTO 00000KT 10SM CLR 17/08 A3008 RMK AO2,M
BAM,2023-05-22 16:15,-116.8743,40.5990,1382.36,69.80,46.40,43.13,200.00,5.00,0.00,30.06,M,10.00,M,CLR,M,M,M,M,M,M,M,M,M,M,M,M,M,M,69.80,KBAM 221615Z AUTO 20005KT 10SM CLR 21/08 A3006 RMK AO1,M
HTH,2023-05-22 16:15,-118.6315,38.5448,1282.89,68.00,42.80,40.00,0.00,0.00,0.00,30.07,M,10.00,M,CLR,M,M,M,M,M,M,M,M,M,M,M,M,M,M,68.00,KHTH 221615Z AUTO 00000KT 10SM CLR 20/06 A3007 RMK A01,M
10U,2023-05-22 16:15,-116.1876,41.9532,1637.00,64.40,44.60,48.55,220.00,7.00,0.00,30.08,M,10.00,M,CLR,M,M,M,M,M,M,M,M,M,M,M,M,M,M,64.40,K10U 221615Z AUTO 22007KT 10SM CLR 18/07 A3008 RMK AO2,M
TMT,2023-05-22 16:15,-117.1971,39.4643,1749.34,65.00,40.30,40.44,0.00,0.00,0.00,30.13,M,10.00,M,CLR,M,M,M,M,M,M,M,M,M,M,M,M,M,M,64.90,KTMT 221615Z AUTO 00000KT 10SM CLR 18/05 A3013 RMK AO2 T01830046,M
05U,2023-05-22 16:30,-116.0051,39.6042,1811.23,68.00,44.60,42.85,0.00,0.00,0.00,30.13,M,10.00,M,CLR,M,M,M,M,M,M,M,M,M,M,M,M,M,M,68.00,K05U 221630Z AUTO 00000KT 10SM CLR 20/07 A3013 RMK A01,M
CXP,2023-05-22 16:35,-119.7326,39.1923,1431.00,68.00,46.40,45.88,0.00,0.00,0.00,30.08,M,10.00,M,CLR,M,M,M,M,M,M,M,M,M,M,M,M,M,M,68.00,KCXP 221635Z AUTO 00000KT 10SM CLR 20/08 A3008 RMK AO2,M
RTS,2023-05-22 16:35,-119.8764,39.6682,1539.00,62.60,41.00,45.04,0.00,0.00,0.00,30.10,M,10.00,M,CLR,M,M,M,M,M,M,M,M,M,M,M,M,M,M,62.60,KRTS 221635Z AUTO 00000KT 10SM CLR 17/05 A3010 RMK AO2,M
MEV,2023-05-22 16:35,-119.7500,38.9963,1441.42,64.40,46.40,51.98,0.00,0.00,0.00,30.08,M,10.00,M,CLR,M,M,M,M,M,M,M,M,M,M,M,M,M,M,64.40,KMEV 221635Z AUTO 00000KT 10SM CLR 18/08 A3008 RMK AO2,M
BAM,2023-05-22 16:35,-116.8743,40.5990,1382.36,71.60,46.40,40.57,240.00,3.00,0.00,30.05,M,10.00,M,CLR,M,M,M,M,M,M,M,M,M,M,M,M,M,M,71.60,KBAM 221635Z AUTO 24003KT 10SM CLR 22/08 A3005 RMK AO1,M
HTH,2023-05-22 16:35,-118.6315,38.5448,1282.89,68.00,42.80,40.00,0.00,0.00,0.00,30.06,M,10.00,M,CLR,M,M,M,M,M,M,M,M,M,M,M,M,M,M,68.00,KHTH 221635Z AUTO 00000KT 10SM CLR 20/06 A3006 RMK A01,M
TMT,2023-05-22 16:35,-117.1971,39.4643,1749.34,66.40,38.80,36.21,0.00,0.00,0.00,30.12,M,10.00,M,CLR,M,M,M,M,M,M,M,M,M,M,M,M,M,M,66.40,KTMT 221635Z AUTO 00000KT 10SM CLR 19/04 A3012 RMK AO2 T01910038,M
10U,2023-05-22 16:35,-116.1876,41.9532,1637.00,64.40,44.60,48.55,230.00,7.00,0.00,30.08,M,10.00,12.00,CLR,M,M,M,M,M,M,M,M,M,M,M,M,M,M,64.40,K10U 221635Z AUTO 23007G12KT 10SM CLR 18/07 A3008 RMK AO2,M
BVU,2023-05-22 16:35,-114.8611,35.9475,671.00,84.20,42.80,23.33,M,4.00,0.00,29.92,M,10.00,M,CLR,M,M,M,M,M,M,M,M,M,M,M,M,M,M,81.61,KBVU 221635Z AUTO VRB04KT 10SM CLR 29/06 A2992 RMK AO2,M
05U,2023-05-22 16:50,-116.0051,39.6042,1811.23,69.80,44.60,40.29,M,3.00,0.00,30.13,M,10.00,M,CLR,M,M,M,M,M,M,M,M,M,M,M,M,M,M,69.80,K05U 221650Z AUTO VRB03KT 10SM CLR 21/07 A3013 RMK A01,M
DRA,2023-05-22 16:53,-116.0278,36.6206,1009.00,80.00,46.00,30.11,250.00,6.00,0.00,29.98,1010.30,10.00,M,CLR,M,M,M,M,M,M,M,M,M,M,M,M,M,M,79.26,KDRA 221653Z AUTO 25006KT 10SM CLR 27/08 A2998 RMK AO2 SLP103 T02670078,M
VGT,2023-05-22 16:53,-115.1933,36.2111,667.00,87.00,45.00,23.12,M,3.00,0.00,29.91,1011.70,10.00,M,CLR,M,M,M,M,M,M,M,M,M,M,M,M,M,M,83.98,KVGT 221653Z VRB03KT 10SM CLR 31/07 A2991 RMK AO2 SLP117 T03060072,M
ELY,2023-05-22 16:53,-114.8453,39.2950,1909.00,66.00,42.00,41.73,160.00,3.00,0.00,30.12,1011.40,10.00,M,FEW,M,M,M,12000.00,M,M,M,M,M,M,M,M,M,M,66.00,KELY 221653Z AUTO 16003KT 10SM FEW120 19/06 A3012 RMK AO2 SLP114 T01890056,M
LOL,2023-05-22 16:53,-118.5701,40.0684,1192.43,70.00,51.00,51.07,60.00,4.00,0.00,30.02,1013.40,10.00,M,CLR,M,M,M,M,M,M,M,M,M,M,M,M,M,M,70.00,KLOL 221653Z AUTO 06004KT 10SM CLR 21/11 A3002 RMK AO2 SLP134 T02110106,M
CXP,2023-05-22 16:55,-119.7326,39.1923,1431.00,69.80,44.60,40.29,0.00,0.00,0.00,30.08,M,10.00,M,CLR,M,M,M,M,M,M,M,M,M,M,M,M,M,M,69.80,KCXP 221655Z AUTO 00000KT 10SM CLR 21/07 A3008 RMK AO2,M
RTS,2023-05-22 16:55,-119.8764,39.6682,1539.00,64.40,42.80,45.32,140.00,5.00,0.00,30.09,M,10.00,M,CLR,M,M,M,M,M,M,M,M,M,M,M,M,M,M,64.40,KRTS 221655Z AUTO 14005KT 10SM CLR 18/06 A3009 RMK AO2,M
MEV,2023-05-22 16:55,-119.7500,38.9963,1441.42,66.20,44.60,45.60,0.00,0.00,0.00,30.07,M,10.00,M,CLR,M,M,M,M,M,M,M,M,M,M,M,M,M,M,66.20,KMEV 221655Z AUTO 00000KT 10SM CLR 19/07 A3007 RMK AO2,M
BAM,2023-05-22 16:55,-116.8743,40.5990,1382.36,71.60,46.40,40.57,220.00,4.00,0.00,30.05,M,10.00,M,CLR,M,M,M,M,M,M,M,M,M,M,M,M,M,M,71.60,KBAM 221655Z AUTO 22004KT 10SM CLR 22/08 A3005 RMK AO1,M
HTH,2023-05-22 16:55,-118.6315,38.5448,1282.89,69.80,42.80,37.61,310.00,3.00,0.00,30.05,M,10.00,M,CLR,M,M,M,M,M,M,M,M,M,M,M,M,M,M,69.80,KHTH 221655Z AUTO 31003KT 10SM CLR 21/06 A3005 RMK A01,M
TMT,2023-05-22 16:55,-117.1971,39.4643,1749.34,67.30,38.50,34.69,230.00,3.00,0.00,30.11,M,10.00,M,CLR,M,M,M,M,M,M,M,M,M,M,M,M,M,M,67.30,KTMT 221655Z AUTO 23003KT 10SM CLR 20/04 A3011 RMK AO2 T01960036,M
10U,2023-05-22 16:55,-116.1876,41.9532,1637.00,66.20,46.40,48.83,240.00,10.00,0.00,30.07,M,10.00,M,CLR,M,M,M,M,M,M,M,M,M,M,M,M,M,M,66.20,K10U 221655Z AUTO 24010KT 180V260 10SM CLR 19/08 A3007 RMK AO2,M
INS,2023-05-22 16:55,-115.6733,36.5872,955.00,77.20,43.30,29.89,270.00,3.00,0.00,29.97,1010.60,10.00,M,OVC,M,M,M,15000.00,M,M,M,M,M,M,M,M,M,M,77.20,KINS 221655Z AUTO 27003KT 10SM OVC150 25/06 A2997 RMK AO2 SLP106 T02510063 $,M
LSV,2023-05-22 16:55,-115.0343,36.2362,570.00,90.00,45.00,21.03,0.00,0.00,0.00,29.87,1008.90,10.00,M,CLR,M,M,M,M,M,M,M,M,M,M,M,M,M,M,86.54,KLSV 221655Z AUTO 00000KT 10SM CLR 32/07 A2987 RMK AO2 SLP089 T03230072 $,M
RNO,2023-05-22 16:55,-119.7711,39.4839,1341.00,70.00,42.00,36.36,M,3.00,0.00,30.06,1013.00,10.00,M,CLR,M,M,M,M,M,M,M,M,M,M,M,M,M,M,70.00,KRNO 221655Z VRB03KT 10SM CLR 21/06 A3006 RMK AO2 SLP130 T02110056,M
EKO,2023-05-22 16:56,-115.7860,40.8242,1367.00,70.00,46.00,42.20,260.00,6.00,0.00,30.06,1012.40,10.00,M,CLR,M,M,M,M,M,M,M,M,M,M,M,M,M,M,70.00,KEKO 221656Z AUTO 26006KT 10SM CLR 21/08 A3006 RMK AO2 SLP124 T02110078,M
HND,2023-05-22 16:56,-115.1344,35.9729,742.79,83.00,45.00,26.46,0.00,0.00,0.00,29.95,1013.10,10.00,M,CLR,M,M,M,M,M,M,M,M,M,M,M,M,M,M,80.86,KHND 221656Z 00000KT 10SM CLR 28/07 A2995 RMK AO2 SLP131 T02830072,M
TPH,2023-05-22 16:56,-117.0904,38.0505,1654.00,M,M,M,M,M,0.00,30.10,M,M,M,M,M,M,M,M,M,M,M,M,M,M,M,M,M,M,M,KTPH 221656Z AUTO A3010 RMK AO2 SLPNO PWINO $,M
NFL,2023-05-22 16:56,-118.7010,39.4166,1199.00,72.00,47.00,40.79,290.00,4.00,0.00,30.02,1013.70,10.00,M,SCT,M,M,M,22000.00,M,M,M,M,M,M,M,M,M,M,72.00,KNFL 221656Z 29004KT 10SM SCT220 22/08 A3002 RMK AO2 SLP137 T02220083,M
LAS,2023-05-22 16:56,-115.1634,36.0719,663.00,86.00,44.00,23.14,360.00,4.00,0.00,29.92,1010.60,10.00,M,FEW,FEW,M,M,10000.00,15000.00,M,M,M,M,M,M,M,M,M,83.04,KLAS 221656Z 36004KT 10SM FEW100 FEW150 30/07 A2992 RMK AO2 SLP106 T03000067,M
WMC,2023-05-22 16:56,-117.8072,40.9019,1315.00,71.00,49.00,45.33,0.00,0.00,0.00,30.03,1013.10,10.00,M,CLR,M,M,M,M,M,M,M,M,M,M,M,M,M,M,71.10,KWMC 221656Z AUTO 00000KT 10SM CLR 22/09 A3003 RMK AO2 SLP131 T02170094,M
05U,2023-05-22 17:10,-116.0051,39.6042,1811.23,71.60,42.80,35.37,40.00,6.00,0.00,30.12,M,10.00,M,CLR,M,M,M,M,M,M,M,M,M,M,M,M,M,M,71.60,K05U 221710Z AUTO 04006KT 10SM CLR 22/06 A3012 RMK A01,M
BVU,2023-05-22 17:15,-114.8611,35.9475,671.00,86.00,42.80,22.02,0.00,0.00,0.00,29.91,M,10.00,M,CLR,M,M,M,M,M,M,M,M,M,M,M,M,M,M,82.95,KBVU 221715Z AUTO 00000KT 10SM CLR 30/06 A2991 RMK AO2,M
CXP,2023-05-22 17:15,-119.7326,39.1923,1431.00,71.60,42.80,35.37,0.00,0.00,0.00,30.07,M,9.00,M,CLR,M,M,M,M,M,M,M,M,M,M,M,M,M,M,71.60,KCXP 221715Z AUTO 00000KT 9SM CLR 22/06 A3007 RMK AO2,M
RTS,2023-05-22 17:15,-119.8764,39.6682,1539.00,66.20,42.80,42.57,120.00,5.00,0.00,30.09,M,10.00,M,CLR,M,M,M,M,M,M,M,M,M,M,M,M,M,M,66.20,KRTS 221715Z AUTO 12005KT 10SM CLR 19/06 A3009 RMK AO2,M
MEV,2023-05-22 17:15,-119.7500,38.9963,1441.42,68.00,44.60,42.85,0.00,0.00,0.00,30.06,M,10.00,M,CLR,M,M,M,M,M,M,M,M,M,M,M,M,M,M,68.00,KMEV 221715Z AUTO 00000KT 10SM CLR 20/07 A3006 RMK AO2,M
BAM,2023-05-22 17:15,-116.8743,40.5990,1382.36,73.40,44.60,35.66,200.00,5.00,0.00,30.04,M,10.00,M,CLR,M,M,M,M,M,M,M,M,M,M,M,M,M,M,73.40,KBAM 221715Z AUTO 20005KT 10SM CLR 23/07 A3004 RMK AO1,M
HTH,2023-05-22 17:15,-118.6315,38.5448,1282.89,71.60,42.80,35.37,0.00,0.00,0.00,30.05,M,10.00,M,CLR,M,M,M,M,M,M,M,M,M,M,M,M,M,M,71.60,KHTH 221715Z AUTO 00000KT 10SM CLR 22/06 A3005 RMK A01,M
TMT,2023-05-22 17:15,-117.1971,39.4643,1749.34,68.20,37.80,32.72,0.00,0.00,0.00,30.11,M,10.00,M,CLR,M,M,M,M,M,M,M,M,M,M,M,M,M,M,68.20,KTMT 221715Z AUTO 00000KT 10SM CLR 20/03 A3011 RMK AO2 T02010032,M
10U,2023-05-22 17:15,-116.1876,41.9532,1637.00,66.20,46.40,48.83,M,6.00,0.00,30.07,M,10.00,M,CLR,M,M,M,M,M,M,M,M,M,M,M,M,M,M,66.20,K10U 221715Z AUTO VRB06KT 10SM CLR 19/08 A3007 RMK AO2,M
05U,2023-05-22 17:30,-116.0051,39.6042,1811.23,73.40,42.80,33.29,M,3.00,0.00,30.12,M,10.00,M,CLR,M,M,M,M,M,M,M,M,M,M,M,M,M,M,73.40,K05U 221730Z AUTO VRB03KT 10SM CLR 23/06 A3012 RMK A01,M
BVU,2023-05-22 17:35,-114.8611,35.9475,671.00,87.80,42.80,20.79,90.00,4.00,0.00,29.91,M,10.00,M,CLR,M,M,M,M,M,M,M,M,M,M,M,M,M,M,84.40,KBVU 221735Z AUTO 09004KT 10SM CLR 31/06 A2991 RMK AO2,M
CXP,2023-05-22 17:35,-119.7326,39.1923,1431.00,71.60,41.00,33.00,0.00,0.00,0.00,30.07,M,10.00,M,CLR,M,M,M,M,M,M,M,M,M,M,M,M,M,M,71.60,KCXP 221735Z AUTO 00000KT 10SM CLR 22/05 A3007 RMK AO2,M
RTS,2023-05-22 17:35,-119.8764,39.6682,1539.00,68.00,42.80,40.00,100.00,5.00,0.00,30.09,M,10.00,M,CLR,M,M,M,M,M,M,M,M,M,M,M,M,M,M,68.00,KRTS 221735Z AUTO 10005KT 10SM CLR 20/06 A3009 RMK AO2,M
MEV,2023-05-22 17:35,-119.7500,38.9963,1441.42,69.80,46.40,43.13,M,3.00,0.00,30.06,M,10.00,M,CLR,M,M,M,M,M,M,M,M,M,M,M,M,M,M,69.80,KMEV 221735Z AUTO VRB03KT 10SM CLR 21/08 A3006 RMK AO2,M
BAM,2023-05-22 17:35,-116.8743,40.5990,1382.36,75.20,42.80,31.34,240.00,6.00,0.00,30.04,M,10.00,M,CLR,M,M,M,M,M,M,M,M,M,M,M,M,M,M,75.20,KBAM 221735Z AUTO 24006KT 10SM CLR 24/06 A3004 RMK AO1,M
HTH,2023-05-22 17:35,-118.6315,38.5448,1282.89,73.40,41.00,31.05,0.00,0.00,0.00,30.04,M,10.00,M,CLR,M,M,M,M,M,M,M,M,M,M,M,M,M,M,73.40,KHTH 221735Z AUTO 00000KT 10SM CLR 23/05 A3004 RMK A01,M
TMT,2023-05-22 17:35,-117.1971,39.4643,1749.34,70.00,38.70,31.86,340.00,4.00,0.00,30.10,M,10.00,M,CLR,M,M,M,M,M,M,M,M,M,M,M,M,M,M,70.00,KTMT 221735Z AUTO 34004KT 10SM CLR 21/04 A3010 RMK AO2 T02110037,M
10U,2023-05-22 17:35,-116.1876,41.9532,1637.00,66.20,44.60,45.60,230.00,7.00,0.00,30.07,M,10.00,14.00,CLR,M,M,M,M,M,M,M,M,M,M,M,M,M,M,66.20,K10U 221735Z AUTO 23007G14KT 10SM CLR 19/07 A3007 RMK AO2,M
05U,2023-05-22 17:50,-116.0051,39.6042,1811.23,73.40,41.00,31.05,0.00,0.00,0.00,30.12,M,10.00,M,CLR,M,M,M,M,M,M,M,M,M,M,M,M,M,M,73.40,K05U 221750Z AUTO 00000KT 10SM CLR 23/05 A3012 RMK A01,M
DRA,2023-05-22 17:53,-116.0278,36.6206,1009.00,84.00,45.00,25.54,230.00,7.00,0.00,29.97,1010.10,10.00,M,CLR,M,M,M,M,M,M,M,M,M,M,M,M,M,M,81.61,KDRA 221753Z AUTO 23007KT 190V260 10SM CLR 29/07 A2997 RMK AO2 SLP101 T02890072 10289 20194 58001,M
ELY,2023-05-22 17:53,-114.8453,39.2950,1909.00,68.00,39.00,34.53,0.00,0.00,0.00,30.12,1011.00,10.00,M,OVC,M,M,M,11000.00,M,M,M,M,M,M,M,M,M,M,68.00,KELY 221753Z AUTO 00000KT 10SM OVC110 20/04 A3012 RMK AO2 SLP110 T02000039 10200 20083 56007,M
VGT,2023-05-22 17:53,-115.1933,36.2111,667.00,88.00,46.00,23.34,0.00,0.00,0.00,29.90,1011.50,10.00,M,CLR,M,M,M,M,M,M,M,M,M,M,M,M,M,M,84.81,KVGT 221753Z 00000KT 10SM CLR 31/08 A2990 RMK AO2 LTG DSNT W SLP115 T03110078 10317 20250 58004,M
LOL,2023-05-22 17:53,-118.5701,40.0684,1192.43,75.00,46.00,35.64,50.00,6.00,0.00,30.01,1013.00,10.00,M,CLR,M,M,M,M,M,M,M,M,M,M,M,M,M,M,75.00,KLOL 221753Z AUTO 05006KT 10SM CLR 24/08 A3001 RMK AO2 SLP130 T02390078 10239 20067 58008,M
BVU,2023-05-22 17:55,-114.8611,35.9475,671.00,87.80,41.00,19.40,M,4.00,0.00,29.91,M,10.00,M,CLR,M,M,M,M,M,M,M,M,M,M,M,M,M,M,84.30,KBVU 221755Z AUTO VRB04KT 10SM CLR 31/05 A2991 RMK AO2,M
CXP,2023-05-22 17:55,-119.7326,39.1923,1431.00,73.40,42.80,33.29,M,4.00,0.00,30.06,M,10.00,M,CLR,M,M,M,M,M,M,M,M,M,M,M,M,M,M,73.40,KCXP 221755Z AUTO VRB04KT 10SM CLR 23/06 A3006 RMK AO2,M
RNO,2023-05-22 17:55,-119.7711,39.4839,1341.00,74.00,43.00,32.98,M,3.00,0.00,30.04,1012.30,10.00,M,FEW,FEW,M,M,6000.00,25000.00,M,M,M,M,M,M,M,M,M,73.90,KRNO 221755Z VRB03KT 10SM FEW060 FEW250 23/06 A3004 RMK AO2 SLP123 T02330061 10239 20106 58011,M
RTS,2023-05-22 17:55,-119.8764,39.6682,1539.00,68.00,42.80,40.00,0.00,0.00,0.00,30.08,M,10.00,M,CLR,M,M,M,M,M,M,M,M,M,M,M,M,M,M,68.00,KRTS 221755Z AUTO 00000KT 10SM CLR 20/06 A3008 RMK AO2,M
MEV,2023-05-22 17:55,-119.7500,38.9963,1441.42,71.60,46.40,40.57,120.00,3.00,0.00,30.06,M,10.00,M,CLR,M,M,M,M,M,M,M,M,M,M,M,M,M,M,71.60,KMEV 221755Z AUTO 12003KT 10SM CLR 22/08 A3006 RMK AO2,M
BAM,2023-05-22 17:55,-116.8743,40.5990,1382.36,77.00,42.80,29.51,200.00,7.00,0.00,30.04,M,10.00,M,CLR,M,M,M,M,M,M,M,M,M,M,M,M,M,M,77.00,KBAM 221755Z AUTO 20007KT 10SM CLR 25/06 A3004 RMK AO1,M
HTH,2023-05-22 17:55,-118.6315,38.5448,1282.89,73.40,41.00,31.05,0.00,0.00,0.00,30.04,M,10.00,M,CLR,M,M,M,M,M,M,M,M,M,M,M,M,M,M,73.40,KHTH 221755Z AUTO 00000KT 10SM CLR 23/05 A3004 RMK A01,M
TMT,2023-05-22 17:55,-117.1971,39.4643,1749.34,70.50,38.50,31.08,240.00,3.00,0.00,30.10,M,10.00,M,CLR,M,M,M,M,M,M,M,M,M,M,M,M,M,M,70.50,KTMT 221755Z AUTO 24003KT 10SM CLR 21/04 A3010 RMK AO2 LTG DSNT SE T02140036 10214 20040,M
10U,2023-05-22 17:55,-116.1876,41.9532,1637.00,66.20,46.40,48.83,240.00,4.00,0.00,30.07,M,10.00,11.00,CLR,M,M,M,M,M,M,M,M,M,M,M,M,M,M,66.20,K10U 221755Z AUTO 24004G11KT 10SM CLR 19/08 A3007 RMK AO2,M
INS,2023-05-22 17:55,-115.6733,36.5872,955.00,80.20,42.30,26.06,0.00,0.00,0.00,29.97,1010.40,10.00,M,OVC,M,M,M,15000.00,M,M,M,M,M,M,M,M,M,M,79.05,KINS 221755Z AUTO 00000KT 10SM OVC150 27/06 A2997 RMK AO2 LTG DSNT S SLP104 T02680057 10268 20182 58000 $,M
LSV,2023-05-22 17:55,-115.0343,36.2362,570.00,92.50,44.20,18.92,330.00,4.00,0.00,29.87,1008.90,10.00,M,CLR,M,M,M,M,M,M,M,M,M,M,M,M,M,M,88.65,KLSV 221755Z AUTO 33004KT 10SM CLR 34/07 A2987 RMK AO2 SLP089 T03360068 10336 20219 58004 $,M
EKO,2023-05-22 17:56,-115.7860,40.8242,1367.00,73.00,46.00,38.11,200.00,8.00,0.00,30.05,1012.20,10.00,M,CLR,M,M,M,M,M,M,M,M,M,M,M,M,M,M,73.00,KEKO 221756Z AUTO 20008KT 10SM CLR 23/08 A3005 RMK AO2 SLP122 T02280078 10233 20117 58009,M
WMC,2023-05-22 17:56,-117.8072,40.9019,1315.00,75.00,46.00,35.64,260.00,9.00,0.00,30.02,1012.30,10.00,M,CLR,M,M,M,M,M,M,M,M,M,M,M,M,M,M,75.00,KWMC 221756Z AUTO 26009KT 10SM CLR 24/08 A3002 RMK AO2 SLP123 T02390078 10239 20078 58006,M
TPH,2023-05-22 17:56,-117.0904,38.0505,1654.00,M,M,M,M,M,0.00,30.09,M,M,M,M,M,M,M,M,M,M,M,M,M,M,M,M,M,M,M,KTPH 221756Z AUTO A3009 RMK AO2 SLPNO 58006 PWINO $,M
NFL,2023-05-22 17:56,-118.7010,39.4166,1199.00,75.00,44.00,33.16,M,4.00,0.00,30.02,1013.50,10.00,M,SCT,M,M,M,22000.00,M,M,M,M,M,M,M,M,M,M,75.00,KNFL 221756Z VRB04KT 10SM SCT220 24/07 A3002 RMK AO2 SLP135 T02390067 10239 20122 58006,M
LAS,2023-05-22 17:56,-115.1634,36.0719,663.00,88.00,44.00,21.72,0.00,0.00,0.00,29.91,1010.20,10.00,M,FEW,FEW,M,M,10000.00,15000.00,M,M,M,M,M,M,M,M,M,84.65,KLAS 221756Z 00000KT 10SM FEW100 FEW150 31/07 A2991 RMK AO2 LTG DSNT NW SLP102 CB DSNT N AND NW T03110067 10311 20233 58005,M
HND,2023-05-22 17:56,-115.1344,35.9729,742.79,87.00,44.00,22.34,0.00,0.00,0.00,29.94,1012.60,10.00,M,CLR,M,M,M,M,M,M,M,M,M,M,M,M,M,M,83.91,KHND 221756Z 00000KT 10SM CLR 31/07 A2994 RMK AO2 SLP126 T03060067 10311 20211 58006,M
05U,2023-05-22 18:10,-116.0051,39.6042,1811.23,73.40,41.00,31.05,M,5.00,0.00,30.11,M,10.00,M,CLR,M,M,M,M,M,M,M,M,M,M,M,M,M,M,73.40,K05U 221810Z AUTO VRB05KT 10SM CLR 23/05 A3011 RMK A01,M
BVU,2023-05-22 18:15,-114.8611,35.9475,671.00,89.60,41.00,18.33,170.00,4.00,0.00,29.90,M,10.00,M,CLR,M,M,M,M,M,M,M,M,M,M,M,M,M,M,85.82,KBVU 221815Z AUTO 17004KT 10SM CLR 32/05 A2990 RMK AO2 LTG DSNT E,M
CXP,2023-05-22 18:15,-119.7326,39.1923,1431.00,75.20,41.00,29.23,80.00,6.00,0.00,30.06,M,10.00,M,CLR,M,M,M,M,M,M,M,M,M,M,M,M,M,M,75.20,KCXP 221815Z AUTO 08006KT 10SM CLR 24/05 A3006 RMK AO2,M
RTS,2023-05-22 18:15,-119.8764,39.6682,1539.00,69.80,44.60,40.29,110.00,6.00,0.00,30.08,M,10.00,M,CLR,M,M,M,M,M,M,M,M,M,M,M,M,M,M,69.80,KRTS 221815Z AUTO 11006KT 10SM CLR 21/07 A3008 RMK AO2,M
MEV,2023-05-22 18:15,-119.7500,38.9963,1441.42,73.40,42.80,33.29,0.00,0.00,0.00,30.05,M,10.00,M,CLR,M,M,M,M,M,M,M,M,M,M,M,M,M,M,73.40,KMEV 221815Z AUTO 00000KT 10SM CLR 23/06 A3005 RMK AO2,M
BAM,2023-05-22 18:15,-116.8743,40.5990,1382.36,78.80,42.80,27.81,170.00,4.00,0.00,30.03,M,10.00,M,CLR,M,M,M,M,M,M,M,M,M,M,M,M,M,M,78.80,KBAM 221815Z AUTO 17004KT 10SM CLR 26/06 A3003 RMK AO1,M
HTH,2023-05-22 18:15,-118.6315,38.5448,1282.89,75.20,41.00,29.23,330.00,6.00,0.00,30.03,M,10.00,M,CLR,M,M,M,M,M,M,M,M,M,M,M,M,M,M,75.20,KHTH 221815Z AUTO 33006KT 10SM CLR 24/05 A3003 RMK A01,M
TMT,2023-05-22 18:15,-117.1971,39.4643,1749.34,71.20,39.60,31.68,0.00,0.00,0.00,30.10,M,10.00,M,CLR,M,M,M,M,M,M,M,M,M,M,M,M,M,M,71.20,KTMT 221815Z AUTO 00000KT 10SM CLR 22/04 A3010 RMK AO2 T02180042,M
10U,2023-05-22 18:15,-116.1876,41.9532,1637.00,66.20,48.20,52.25,M,6.00,0.00,30.08,M,10.00,12.00,CLR,M,M,M,M,M,M,M,M,M,M,M,M,M,M,66.20,K10U 221815Z AUTO VRB06G12KT 10SM CLR 19/09 A3008 RMK AO2,M
05U,2023-05-22 18:30,-116.0051,39.6042,1811.23,75.20,41.00,29.23,0.00,0.00,0.00,30.11,M,10.00,M,CLR,M,M,M,M,M,M,M,M,M,M,M,M,M,M,75.20,K05U 221830Z AUTO 00000KT 10SM CLR 24/05 A3011 RMK A01,M
BVU,2023-05-22 18:35,-114.8611,35.9475,671.00,91.40,39.20,16.15,M,5.00,0.00,29.90,M,10.00,M,CLR,M,M,M,M,M,M,M,M,M,M,M,M,M,M,87.30,KBVU 221835Z AUTO VRB05KT 10SM CLR 33/04 A2990 RMK AO2,M
CXP,2023-05-22 18:35,-119.7326,39.1923,1431.00,77.00,41.00,27.53,150.00,6.00,0.00,30.05,M,10.00,M,CLR,M,M,M,M,M,M,M,M,M,M,M,M,M,M,77.00,KCXP 221835Z AUTO 15006KT 10SM CLR 25/05 A3005 RMK AO2,M
RTS,2023-05-22 18:35,-119.8764,39.6682,1539.00,69.80,42.80,37.61,90.00,5.00,0.00,30.07,M,10.00,11.00,CLR,M,M,M,M,M,M,M,M,M,M,M,M,M,M,69.80,KRTS 221835Z AUTO 09005G11KT 10SM CLR 21/06 A3007 RMK AO2,M
MEV,2023-05-22 18:35,-119.7500,38.9963,1441.42,73.40,39.20,28.96,M,3.00,0.00,30.04,M,10.00,M,CLR,M,M,M,M,M,M,M,M,M,M,M,M,M,M,73.40,KMEV 221835Z AUTO VRB03KT 10SM CLR 23/04 A3004 RMK AO2,M
BAM,2023-05-22 18:35,-116.8743,40.5990,1382.36,78.80,41.00,25.95,230.00,6.00,0.00,30.03,M,10.00,M,CLR,M,M,M,M,M,M,M,M,M,M,M,M,M,M,78.80,KBAM 221835Z AUTO 23006KT 10SM CLR 26/05 A3003 RMK AO1,M
HTH,2023-05-22 18:35,-118.6315,38.5448,1282.89,77.00,42.80,29.51,M,4.00,0.00,30.02,M,10.00,M,CLR,M,M,M,M,M,M,M,M,M,M,M,M,M,M,77.00,KHTH 221835Z AUTO VRB04KT 10SM CLR 25/06 A3002 RMK A01,M
TMT,2023-05-22 18:35,-117.1971,39.4643,1749.34,71.80,39.20,30.56,0.00,0.00,0.00,30.10,M,10.00,M,CLR,M,M,M,M,M,M,M,M,M,M,M,M,M,M,71.80,KTMT 221835Z AUTO 00000KT 10SM CLR 22/04 A3010 RMK AO2 T02210040,M
10U,2023-05-22 18:35,-116.1876,41.9532,1637.00,68.00,48.20,49.10,260.00,8.00,0.00,30.08,M,10.00,M,CLR,M,M,M,M,M,M,M,M,M,M,M,M,M,M,68.00,K10U 221835Z AUTO 26008KT 230V300 10SM CLR 20/09 A3008 RMK AO2,M
05U,2023-05-22 18:50,-116.0051,39.6042,1811.23,75.20,41.00,29.23,M,6.00,0.00,30.10,M,10.00,12.00,CLR,M,M,M,M,M,M,M,M,M,M,M,M,M,M,75.20,K05U 221850Z AUTO VRB06G12KT 10SM CLR 24/05 A3010 RMK A01,M
HTH,2023-05-22 18:50,-118.6315,38.5448,1282.89,77.00,41.00,27.53,0.00,0.00,0.00,30.02,M,10.00,13.00,CLR,M,M,M,M,M,M,M,M,M,M,M,M,M,M,77.00,KHTH 221850Z AUTO 00000G13KT 10SM CLR 25/05 A3002 RMK A01,M
DRA,2023-05-22 18:53,-116.0278,36.6206,1009.00,85.00,45.00,24.81,0.00,0.00,0.00,29.96,1009.60,10.00,M,CLR,M,M,M,M,M,M,M,M,M,M,M,M,M,M,82.27,KDRA 221853Z AUTO 00000KT 10SM CLR 29/07 A2996 RMK AO2 SLP096 T02940072,M
LOL,2023-05-22 18:53,-118.5701,40.0684,1192.43,77.00,45.00,32.10,100.00,8.00,0.00,29.99,1012.60,10.00,M,CLR,M,M,M,M,M,M,M,M,M,M,M,M,M,M,77.00,KLOL 221853Z AUTO 10008KT 10SM CLR 25/07 A2999 RMK AO2 SLP126 T02500072,M
ELY,2023-05-22 18:53,-114.8453,39.2950,1909.00,70.00,38.00,30.88,M,M,0.00,30.09,1009.50,10.00,M,SCT,M,M,M,10000.00,M,M,M,M,M,M,M,M,M,M,70.00,KELY 221853Z AUTO 10SM SCT100 21/03 A3009 RMK AO2 LTG DSNT NE SLP095 T02110033,M
VGT,2023-05-22 18:53,-115.1933,36.2111,667.00,92.00,44.00,19.21,140.00,3.00,0.00,29.89,1010.80,10.00,15.00,CLR,M,M,M,M,M,M,M,M,M,M,M,M,M,M,88.09,KVGT 221853Z 14003G15KT 10SM CLR 33/07 A2989 RMK AO2 LTG DSNT W AND NW SLP108 T03330067,M
BVU,2023-05-22 18:55,-114.8611,35.9475,671.00,89.60,37.40,15.92,M,4.00,0.00,29.89,M,10.00,11.00,CLR,M,M,M,M,M,M,M,M,M,M,M,M,M,M,85.67,KBVU 221855Z AUTO VRB04G11KT 10SM CLR 32/03 A2989 RMK AO2,M
CXP,2023-05-22 18:55,-119.7326,39.1923,1431.00,77.00,41.00,27.53,M,3.00,0.00,30.05,M,10.00,M,CLR,M,M,M,M,M,M,M,M,M,M,M,M,M,M,77.00,KCXP 221855Z AUTO VRB03KT 10SM CLR 25/05 A3005 RMK AO2,M
RNO,2023-05-22 18:55,-119.7711,39.4839,1341.00,78.00,43.00,28.68,M,3.00,0.00,30.02,1011.40,10.00,M,FEW,FEW,M,M,6500.00,25000.00,M,M,M,M,M,M,M,M,M,78.10,KRNO 221855Z VRB03KT 10SM FEW065 FEW250 26/06 A3002 RMK AO2 SLP114 T02560061,M
RTS,2023-05-22 18:55,-119.8764,39.6682,1539.00,71.60,42.80,35.37,0.00,0.00,0.00,30.06,M,10.00,10.00,CLR,M,M,M,M,M,M,M,M,M,M,M,M,M,M,71.60,KRTS 221855Z AUTO 00000G10KT 10SM CLR 22/06 A3006 RMK AO2,M
MEV,2023-05-22 18:55,-119.7500,38.9963,1441.42,75.20,41.00,29.23,M,3.00,0.00,30.04,M,10.00,M,CLR,M,M,M,M,M,M,M,M,M,M,M,M,M,M,75.20,KMEV 221855Z AUTO VRB03KT 10SM CLR 24/05 A3004 RMK AO2,M
BAM,2023-05-22 18:55,-116.8743,40.5990,1382.36,80.60,41.00,24.46,260.00,7.00,0.00,30.01,M,10.00,M,CLR,M,M,M,M,M,M,M,M,M,M,M,M,M,M,79.20,KBAM 221855Z AUTO 26007KT 10SM CLR 27/05 A3001 RMK AO1,M
TMT,2023-05-22 18:55,-117.1971,39.4643,1749.34,72.30,38.80,29.58,0.00,0.00,0.00,30.09,M,10.00,M,SCT,M,M,M,7500.00,M,M,M,M,M,M,M,M,M,M,72.30,KTMT 221855Z AUTO 00000KT 10SM SCT075 22/04 A3009 RMK AO2 T02240038,M
10U,2023-05-22 18:55,-116.1876,41.9532,1637.00,68.00,48.20,49.10,310.00,8.00,0.00,30.07,M,10.00,M,SCT,SCT,M,M,4600.00,5500.00,M,M,M,M,M,M,M,M,M,68.00,K10U 221855Z AUTO 31008KT 10SM SCT046 SCT055 20/09 A3007 RMK AO2,M
INS,2023-05-22 18:55,-115.6733,36.5872,955.00,85.00,41.70,21.86,340.00,3.00,0.00,29.95,1009.40,10.00,M,OVC,M,M,M,15000.00,M,M,M,M,M,M,M,M,M,M,82.06,KINS 221855Z AUTO 34003KT 10SM OVC150 29/05 A2995 RMK AO2 LTG DSNT SE SLP094 T02940054 $,M
LSV,2023-05-22 18:55,-115.0343,36.2362,570.00,95.20,42.00,15.94,130.00,8.00,0.00,29.85,1008.10,10.00,M,CLR,M,M,M,M,M,M,M,M,M,M,M,M,M,M,90.96,KLSV 221855Z AUTO 13008KT 10SM CLR 35/06 A2985 RMK AO2 SLP081 T03510055 $,M
TPH,2023-05-22 18:56,-117.0904,38.0505,1654.00,M,M,M,M,M,0.00,30.07,M,M,M,M,M,M,M,M,M,M,M,M,M,M,M,M,M,M,M,KTPH 221856Z AUTO A3007 RMK AO2 SLPNO PWINO $,M
EKO,2023-05-22 18:56,-115.7860,40.8242,1367.00,76.00,44.00,32.17,210.00,9.00,0.00,30.03,1011.50,10.00,16.00,FEW,M,M,M,7000.00,M,M,M,M,M,M,M,M,M,M,75.90,KEKO 221856Z AUTO 21009G16KT 10SM FEW070 24/07 A3003 RMK AO2 SLP115 T02440067,M
WMC,2023-05-22 18:56,-117.8072,40.9019,1315.00,78.00,38.00,23.53,250.00,12.00,0.00,30.00,1011.70,10.00,17.00,CLR,M,M,M,M,M,M,M,M,M,M,M,M,M,M,78.10,KWMC 221856Z AUTO 25012G17KT 10SM CLR 26/03 A3000 RMK AO2 SLP117 T02560033,M
NFL,2023-05-22 18:56,-118.7010,39.4166,1199.00,78.00,44.00,29.91,0.00,0.00,0.00,30.00,1013.00,10.00,M,SCT,SCT,M,M,6000.00,22000.00,M,M,M,M,M,M,M,M,M,78.10,KNFL 221856Z 00000KT 10SM SCT060 SCT220 26/07 A3000 RMK AO2 SLP130 T02560067,M
HND,2023-05-22 18:56,-115.1344,35.9729,742.79,92.00,40.00,16.34,190.00,10.00,0.00,29.92,1011.80,10.00,19.00,FEW,M,M,M,11000.00,M,M,M,M,M,M,M,M,M,M,87.78,KHND 221856Z 19010G19KT 10SM FEW110 33/04 A2992 RMK AO2 LTG DSNT NW SLP118 T03330044,M
LAS,2023-05-22 18:56,-115.1634,36.0719,663.00,92.00,40.00,16.34,150.00,7.00,0.00,29.89,1009.50,10.00,M,FEW,FEW,SCT,M,10000.00,15000.00,25000.00,M,M,M,M,M,M,M,M,87.78,KLAS 221856Z 15007KT 10SM FEW100 FEW150 SCT250 33/04 A2989 RMK AO2 SLP095 CB DSNT N AND NW T03330044,M
05U,2023-05-22 19:10,-116.0051,39.6042,1811.23,77.00,39.20,25.67,M,5.00,0.00,30.09,M,10.00,M,CLR,M,M,M,M,M,M,M,M,M,M,M,M,M,M,77.00,K05U 221910Z AUTO VRB05KT 10SM CLR 25/04 A3009 RMK A01,M
BVU,2023-05-22 19:15,-114.8611,35.9475,671.00,91.40,39.20,16.15,220.00,3.00,0.00,29.89,M,10.00,13.00,CLR,M,M,M,M,M,M,M,M,M,M,M,M,M,M,87.30,KBVU 221915Z AUTO 22003G13KT 10SM CLR 33/04 A2989 RMK AO2,M
CXP,2023-05-22 19:15,-119.7326,39.1923,1431.00,78.80,39.20,24.19,M,6.00,0.00,30.04,M,10.00,12.00,CLR,M,M,M,M,M,M,M,M,M,M,M,M,M,M,78.80,KCXP 221915Z AUTO VRB06G12KT 10SM CLR 26/04 A3004 RMK AO2,M
RTS,2023-05-22 19:15,-119.8764,39.6682,1539.00,73.40,41.00,31.05,130.00,9.00,0.00,30.06,M,10.00,M,CLR,M,M,M,M,M,M,M,M,M,M,M,M,M,M,73.40,KRTS 221915Z AUTO 13009KT 10SM CLR 23/05 A3006 RMK AO2,M
MEV,2023-05-22 19:15,-119.7500,38.9963,1441.42,77.00,41.00,27.53,160.00,6.00,0.00,30.03,M,10.00,M,CLR,M,M,M,M,M,M,M,M,M,M,M,M,M,M,77.00,KMEV 221915Z AUTO 16006KT 10SM CLR 25/05 A3003 RMK AO2,M
BAM,2023-05-22 19:15,-116.8743,40.5990,1382.36,80.60,41.00,24.46,250.00,9.00,0.00,30.01,M,10.00,14.00,CLR,M,M,M,M,M,M,M,M,M,M,M,M,M,M,79.20,KBAM 221915Z AUTO 25009G14KT 10SM CLR 27/05 A3001 RMK AO1,M
HTH,2023-05-22 19:15,-118.6315,38.5448,1282.89,77.00,39.20,25.67,M,6.00,0.00,30.01,M,10.00,15.00,CLR,M,M,M,M,M,M,M,M,M,M,M,M,M,M,77.00,KHTH 221915Z AUTO VRB06G15KT 330V030 10SM CLR 25/04 A3001 RMK A01,M
TMT,2023-05-22 19:15,-117.1971,39.4643,1749.34,73.00,38.50,28.56,290.00,7.00,0.00,30.08,M,10.00,M,BKN,M,M,M,9000.00,M,M,M,M,M,M,M,M,M,M,73.00,KTMT 221915Z AUTO 29007KT 10SM BKN090 23/04 A3008 RMK AO2 LTG DSNT SE T02280036,M
10U,2023-05-22 19:15,-116.1876,41.9532,1637.00,68.00,46.40,45.88,M,5.00,0.00,30.06,M,10.00,M,SCT,BKN,M,M,4600.00,5500.00,M,M,M,M,M,M,M,M,M,68.00,K10U 221915Z AUTO VRB05KT 10SM SCT046 BKN055 20/08 A3006 RMK AO2,M
05U,2023-05-22 19:30,-116.0051,39.6042,1811.23,77.00,39.20,25.67,M,4.00,0.00,30.08,M,10.00,11.00,CLR,M,M,M,M,M,M,M,M,M,M,M,M,M,M,77.00,K05U 221930Z AUTO VRB04G11KT 10SM CLR 25/04 A3008 RMK A01,M
BVU,2023-05-22 19:35,-114.8611,35.9475,671.00,93.20,39.20,15.27,250.00,11.00,0.00,29.88,M,10.00,M,CLR,M,M,M,M,M,M,M,M,M,M,M,M,M,M,88.92,KBVU 221935Z AUTO 25011KT 10SM CLR 34/04 A2988 RMK AO2 LTG DSNT NE AND E,M
CXP,2023-05-22 19:35,-119.7326,39.1923,1431.00,77.00,39.20,25.67,M,3.00,0.00,30.03,M,10.00,11.00,CLR,M,M,M,M,M,M,M,M,M,M,M,M,M,M,77.00,KCXP 221935Z AUTO VRB03G11KT 10SM CLR 25/04 A3003 RMK AO2,M
RTS,2023-05-22 19:35,-119.8764,39.6682,1539.00,73.40,41.00,31.05,M,3.00,0.00,30.05,M,10.00,10.00,CLR,M,M,M,M,M,M,M,M,M,M,M,M,M,M,73.40,KRTS 221935Z AUTO VRB03G10KT 10SM CLR 23/05 A3005 RMK AO2,M
MEV,2023-05-22 19:35,-119.7500,38.9963,1441.42,77.00,41.00,27.53,150.00,4.00,0.00,30.03,M,10.00,M,CLR,M,M,M,M,M,M,M,M,M,M,M,M,M,M,77.00,KMEV 221935Z AUTO 15004KT 10SM CLR 25/05 A3003 RMK AO2,M
BAM,2023-05-22 19:35,-116.8743,40.5990,1382.36,82.40,37.40,20.04,230.00,12.00,0.00,30.00,M,10.00,17.00,CLR,M,M,M,M,M,M,M,M,M,M,M,M,M,M,80.14,KBAM 221935Z AUTO 23012G17KT 10SM CLR 28/03 A3000 RMK AO1,M
HTH,2023-05-22 19:35,-118.6315,38.5448,1282.89,78.80,39.20,24.19,M,5.00,0.00,30.00,M,10.00,M,CLR,M,M,M,M,M,M,M,M,M,M,M,M,M,M,78.80,KHTH 221935Z AUTO VRB05KT 10SM CLR 26/04 A3000 RMK A01,M
TMT,2023-05-22 19:35,-117.1971,39.4643,1749.34,74.70,37.60,26.04,270.00,9.00,0.00,30.08,M,10.00,15.00,SCT,M,M,M,8000.00,M,M,M,M,M,M,M,M,M,M,74.70,KTMT 221935Z AUTO 27009G15KT 10SM SCT080 24/03 A3008 RMK AO2 LTG DSNT SE T02370031,M
10U,2023-05-22 19:35,-116.1876,41.9532,1637.00,69.80,48.20,46.16,320.00,9.00,0.00,30.06,M,10.00,M,SCT,SCT,M,M,4600.00,5500.00,M,M,M,M,M,M,M,M,M,69.80,K10U 221935Z AUTO 32009KT 10SM SCT046 SCT055 21/09 A3006 RMK AO2,M
INS,2023-05-22 19:46,-115.6733,36.5872,955.00,87.80,39.20,18.09,150.00,14.00,0.00,29.93,1008.50,10.00,18.00,M,M,M,M,M,M,M,M,M,M,M,M,M,M,M,84.22,KINS 221946Z AUTO 15014G18KT 10SM M 31/04 A2993 RMK AO2 WSHFT 45 SLP085 $,M
05U,2023-05-22 19:50,-116.0051,39.6042,1811.23,77.00,37.40,23.93,M,4.00,0.00,30.07,M,10.00,M,FEW,M,M,M,9000.00,M,M,M,M,M,M,M,M,M,M,77.00,K05U 221950Z AUTO VRB04KT 10SM FEW090 25/03 A3007 RMK A01,M
DRA,2023-05-22 19:53,-116.0278,36.6206,1009.00,89.00,43.00,20.11,210.00,13.00,0.00,29.94,1008.50,10.00,21.00,CLR,M,M,M,M,M,M,M,M,M,M,M,M,M,M,85.51,KDRA 221953Z AUTO 21013G21KT 10SM CLR 32/06 A2994 RMK AO2 SLP085 T03170061,M
ELY,2023-05-22 19:53,-114.8453,39.2950,1909.00,71.00,36.00,27.60,M,M,0.00,30.08,1009.10,10.00,M,SCT,BKN,M,M,9000.00,11000.00,M,M,M,M,M,M,M,M,M,71.10,KELY 221953Z AUTO 10SM SCT090 BKN110 22/02 A3008 RMK AO2 LTG DSNT SW SLP091 T02170022,M
LOL,2023-05-22 19:53,-118.5701,40.0684,1192.43,80.00,41.00,24.86,M,M,0.00,29.97,1011.60,10.00,M,FEW,M,M,M,8000.00,M,M,M,M,M,M,M,M,M,M,78.98,KLOL 221953Z AUTO 10SM FEW080 27/05 A2997 RMK AO2 SLP116 T02670050,M
VGT,2023-05-22 19:53,-115.1933,36.2111,667.00,94.00,38.00,14.20,170.00,7.00,0.00,29.86,1009.90,10.00,M,CLR,M,M,M,M,M,M,M,M,M,M,M,M,M,M,89.48,KVGT 221953Z 17007KT 130V200 10SM CLR 34/03 A2986 RMK AO2 LTG DSNT SE SLP099 T03440033,M
BVU,2023-05-22 19:55,-114.8611,35.9475,671.00,93.20,39.20,15.27,200.00,18.00,0.00,29.88,M,10.00,25.00,CLR,M,M,M,M,M,M,M,M,M,M,M,M,M,M,88.92,KBVU 221955Z AUTO 20018G25KT 10SM CLR 34/04 A2988 RMK AO2 LTG DSNT S,M
CXP,2023-05-22 19:55,-119.7326,39.1923,1431.00,78.80,37.40,22.54,0.00,0.00,0.00,30.03,M,10.00,M,CLR,M,M,M,M,M,M,M,M,M,M,M,M,M,M,78.80,KCXP 221955Z AUTO 00000KT 10SM CLR 26/03 A3003 RMK AO2,M
RTS,2023-05-22 19:55,-119.8764,39.6682,1539.00,73.40,41.00,31.05,80.00,8.00,0.00,30.04,M,10.00,M,CLR,M,M,M,M,M,M,M,M,M,M,M,M,M,M,73.40,KRTS 221955Z AUTO 08008KT 10SM CLR 23/05 A3004 RMK AO2,M
MEV,2023-05-22 19:55,-119.7500,38.9963,1441.42,77.00,42.80,29.51,230.00,6.00,0.00,30.02,M,10.00,M,CLR,M,M,M,M,M,M,M,M,M,M,M,M,M,M,77.00,KMEV 221955Z AUTO 23006KT 10SM CLR 25/06 A3002 RMK AO2,M
BAM,2023-05-22 19:55,-116.8743,40.5990,1382.36,82.40,35.60,18.67,240.00,11.00,0.00,30.00,M,10.00,18.00,CLR,M,M,M,M,M,M,M,M,M,M,M,M,M,M,80.08,KBAM 221955Z AUTO 24011G18KT 10SM CLR 28/02 A3000 RMK AO1,M
HTH,2023-05-22 19:55,-118.6315,38.5448,1282.89,80.60,39.20,22.81,340.00,5.00,0.00,29.99,M,10.00,M,CLR,M,M,M,M,M,M,M,M,M,M,M,M,M,M,79.10,KHTH 221955Z AUTO 34005KT 10SM CLR 27/04 A2999 RMK A01,M
TMT,2023-05-22 19:55,-117.1971,39.4643,1749.34,75.00,37.60,25.78,160.00,5.00,0.00,30.07,M,10.00,M,CLR,M,M,M,M,M,M,M,M,M,M,M,M,M,M,75.00,KTMT 221955Z AUTO 16005KT 10SM CLR 24/03 A3007 RMK AO2 T02390031,M
10U,2023-05-22 19:55,-116.1876,41.9532,1637.00,69.80,46.40,43.13,310.00,8.00,0.00,30.06,M,10.00,14.00,FEW,M,M,M,4600.00,M,M,M,M,M,M,M,M,M,M,69.80,K10U 221955Z AUTO 31008G14KT 280V340 10SM FEW046 21/08 A3006 RMK AO2,M
INS,2023-05-22 19:55,-115.6733,36.5872,955.00,87.60,38.80,17.92,140.00,14.00,0.00,29.92,1008.20,10.00,18.00,CLR,M,M,M,M,M,M,M,M,M,M,M,M,M,M,84.04,KINS 221955Z AUTO 14014G18KT 10SM CLR 31/04 A2992 RMK AO2 SLP082 T03090038 $,M
LSV,2023-05-22 19:55,-115.0343,36.2362,570.00,96.60,39.60,13.96,150.00,11.00,0.00,29.83,1007.40,10.00,17.00,CLR,M,M,M,M,M,M,M,M,M,M,M,M,M,M,92.08,KLSV 221955Z AUTO 15011G17KT 10SM CLR 36/04 A2983 RMK AO2 SLP074 T03590042 $,M
RNO,2023-05-22 19:55,-119.7711,39.4839,1341.00,80.00,42.00,25.94,50.00,3.00,0.00,29.99,1010.50,10.00,M,FEW,FEW,M,M,8000.00,25000.00,M,M,M,M,M,M,M,M,M,78.99,KRNO 221955Z 05003KT 10SM FEW080 FEW250 27/06 A2999 RMK AO2 SLP105 T02670056,M
EKO,2023-05-22 19:56,-115.7860,40.8242,1367.00,78.00,45.00,30.95,230.00,6.00,0.00,30.01,1010.70,10.00,M,SCT,M,M,M,7000.00,M,M,M,M,M,M,M,M,M,M,78.10,KEKO 221956Z AUTO 23006KT 10SM SCT070 26/07 A3001 RMK AO2 SLP107 T02560072,M
WMC,2023-05-22 19:56,-117.8072,40.9019,1315.00,80.00,37.00,21.27,250.00,8.00,0.00,29.98,1011.00,10.00,M,CLR,M,M,M,M,M,M,M,M,M,M,M,M,M,M,78.81,KWMC 221956Z AUTO 25008KT 10SM CLR 27/03 A2998 RMK AO2 SLP110 T02670028,M
NFL,2023-05-22 19:56,-118.7010,39.4166,1199.00,79.00,43.00,27.84,0.00,0.00,0.00,29.98,1012.30,10.00,M,SCT,SCT,M,M,7000.00,22000.00,M,M,M,M,M,M,M,M,M,79.00,KNFL 221956Z 00000KT 10SM SCT070 SCT220 26/06 A2998 RMK AO2 SLP123 T02610061,M
TPH,2023-05-22 19:56,-117.0904,38.0505,1654.00,M,M,M,M,M,0.00,30.05,M,M,M,M,M,M,M,M,M,M,M,M,M,M,M,M,M,M,M,KTPH 221956Z AUTO A3005 RMK AO2 SLPNO PWINO $,M
LAS,2023-05-22 19:56,-115.1634,36.0719,663.00,93.00,36.00,13.55,M,3.00,0.00,29.87,1008.80,10.00,M,FEW,SCT,SCT,M,10000.00,15000.00,25000.00,M,M,M,M,M,M,M,M,88.59,KLAS 221956Z VRB03KT 10SM FEW100 SCT150 SCT250 34/02 A2987 RMK AO2 SLP088 CB DSNT N AND SE AND NW T03390022,M
HND,2023-05-22 19:56,-115.1344,35.9729,742.79,91.00,40.00,16.80,180.00,12.00,0.00,29.91,1011.20,10.00,19.00,BKN,M,M,M,11000.00,M,M,M,M,M,M,M,M,M,M,86.98,KHND 221956Z 18012G19KT 10SM BKN110 33/04 A2991 RMK AO2 LTG DSNT SE SLP112 T03280044,M
05U,2023-05-22 20:10,-116.0051,39.6042,1811.23,78.80,26.60,14.59,M,5.00,0.00,30.06,M,10.00,14.00,FEW,M,M,M,9000.00,M,M,M,M,M,M,M,M,M,M,78.80,K05U 222010Z AUTO VRB05G14KT 10SM FEW090 26/M03 A3006 RMK A01,M
INS,2023-05-22 20:13,-115.6733,36.5872,955.00,89.60,35.60,14.83,150.00,15.00,0.00,29.92,1008.40,10.00,19.00,CLR,M,M,M,M,M,M,M,M,M,M,M,M,M,M,85.62,KINS 222013Z AUTO 15015G19KT 10SM CLR 32/02 A2992 RMK AO2 WSHFT 08 SLP084 $,M
BVU,2023-05-22 20:15,-114.8611,35.9475,671.00,91.40,42.80,18.56,200.00,24.00,0.00,29.88,M,9.00,32.00,SCT,M,M,M,11000.00,M,M,M,M,M,M,M,M,M,M,87.52,KBVU 222015Z AUTO 20024G32KT 9SM SCT110 33/06 A2988 RMK AO2,M
CXP,2023-05-22 20:15,-119.7326,39.1923,1431.00,82.40,37.40,20.04,M,4.00,0.00,30.02,M,10.00,15.00,FEW,M,M,M,8500.00,M,M,M,M,M,M,M,M,M,M,80.14,KCXP 222015Z AUTO VRB04G15KT 10SM FEW085 28/03 A3002 RMK AO2,M
RTS,2023-05-22 20:15,-119.8764,39.6682,1539.00,75.20,33.80,22.02,M,5.00,0.00,30.03,M,10.00,M,CLR,M,M,M,M,M,M,M,M,M,M,M,M,M,M,75.20,KRTS 222015Z AUTO VRB05KT 10SM CLR 24/01 A3003 RMK AO2,M
MEV,2023-05-22 20:15,-119.7500,38.9963,1441.42,78.80,41.00,25.95,0.00,0.00,0.00,30.01,M,10.00,M,CLR,M,M,M,M,M,M,M,M,M,M,M,M,M,M,78.80,KMEV 222015Z AUTO 00000KT 10SM CLR 26/05 A3001 RMK AO2,M
BAM,2023-05-22 20:15,-116.8743,40.5990,1382.36,82.40,33.80,17.38,240.00,13.00,0.00,29.99,M,10.00,18.00,CLR,M,M,M,M,M,M,M,M,M,M,M,M,M,M,80.03,KBAM 222015Z AUTO 24013G18KT 10SM CLR 28/01 A2999 RMK AO1,M
HTH,2023-05-22 20:15,-118.6315,38.5448,1282.89,80.60,39.20,22.81,M,4.00,0.00,29.98,M,10.00,10.00,CLR,M,M,M,M,M,M,M,M,M,M,M,M,M,M,79.10,KHTH 222015Z AUTO VRB04G10KT 10SM CLR 27/04 A2998 RMK A01,M
TMT,2023-05-22 20:15,-117.1971,39.4643,1749.34,77.40,35.40,21.82,270.00,9.00,0.00,30.06,M,10.00,14.00,CLR,M,M,M,M,M,M,M,M,M,M,M,M,M,M,77.40,KTMT 222015Z AUTO 27009G14KT 10SM CLR 25/02 A3006 RMK AO2 T02520019,M
10U,2023-05-22 20:15,-116.1876,41.9532,1637.00,69.80,44.60,40.29,M,5.00,0.00,30.05,M,10.00,12.00,CLR,M,M,M,M,M,M,M,M,M,M,M,M,M,M,69.80,K10U 222015Z AUTO VRB05G12KT 10SM CLR 21/07 A3005 RMK AO2,M
05U,2023-05-22 20:30,-116.0051,39.6042,1811.23,78.80,33.80,19.55,M,7.00,0.00,30.05,M,10.00,M,FEW,M,M,M,9500.00,M,M,M,M,M,M,M,M,M,M,78.80,K05U 222030Z AUTO VRB07KT 10SM FEW095 26/01 A3005 RMK A01,M
BVU,2023-05-22 20:35,-114.8611,35.9475,671.00,89.60,42.80,19.64,190.00,23.00,0.00,29.88,M,10.00,29.00,CLR,M,M,M,M,M,M,M,M,M,M,M,M,M,M,85.93,KBVU 222035Z AUTO 19023G29KT 10SM CLR 32/06 A2988 RMK AO2 LTG DSNT N-E,M
CXP,2023-05-22 20:35,-119.7326,39.1923,1431.00,80.60,37.40,21.25,260.00,7.00,0.00,30.01,M,10.00,14.00,SCT,M,M,M,8500.00,M,M,M,M,M,M,M,M,M,M,79.02,KCXP 222035Z AUTO 26007G14KT 10SM SCT085 27/03 A3001 RMK AO2,M
RTS,2023-05-22 20:35,-119.8764,39.6682,1539.00,77.00,30.20,17.94,250.00,10.00,0.00,30.02,M,10.00,15.00,CLR,M,M,M,M,M,M,M,M,M,M,M,M,M,M,77.00,KRTS 222035Z AUTO 25010G15KT 10SM CLR 25/M01 A3002 RMK AO2,M
MEV,2023-05-22 20:35,-119.7500,38.9963,1441.42,78.80,41.00,25.95,M,4.00,0.00,30.01,M,10.00,M,CLR,M,M,M,M,M,M,M,M,M,M,M,M,M,M,78.80,KMEV 222035Z AUTO VRB04KT 10SM CLR 26/05 A3001 RMK AO2,M
BAM,2023-05-22 20:35,-116.8743,40.5990,1382.36,82.40,32.00,16.17,230.00,14.00,0.00,29.99,M,10.00,19.00,CLR,M,M,M,M,M,M,M,M,M,M,M,M,M,M,80.00,KBAM 222035Z AUTO 23014G19KT 10SM CLR 28/00 A2999 RMK AO1,M
HTH,2023-05-22 20:35,-118.6315,38.5448,1282.89,82.40,37.40,20.04,340.00,9.00,0.00,29.96,M,10.00,M,CLR,M,M,M,M,M,M,M,M,M,M,M,M,M,M,80.14,KHTH 222035Z AUTO 34009KT 10SM CLR 28/03 A2996 RMK A01,M
10U,2023-05-22 20:35,-116.1876,41.9532,1637.00,69.80,44.60,40.29,290.00,9.00,0.00,30.05,M,10.00,M,CLR,M,M,M,M,M,M,M,M,M,M,M,M,M,M,69.80,K10U 222035Z AUTO 29009KT 10SM CLR 21/07 A3005 RMK AO2,M
TMT,2023-05-22 20:35,-117.1971,39.4643,1749.34,76.50,35.00,22.21,260.00,8.00,0.00,30.05,M,10.00,M,SCT,M,M,M,9000.00,M,M,M,VCTS,M,M,M,M,M,M,76.50,KTMT 222035Z AUTO 26008KT 10SM VCTS SCT090 25/02 A3005 RMK AO2 LTG DSNT E T02470017,M
05U,2023-05-22 20:50,-116.0051,39.6042,1811.23,80.60,35.60,19.79,0.00,0.00,0.00,30.05,M,10.00,13.00,FEW,M,M,M,10000.00,M,M,M,M,M,M,M,M,M,M,78.94,K05U 222050Z AUTO 00000G13KT 10SM FEW100 27/02 A3005 RMK A01,M
LSV,2023-05-22 20:51,-115.0343,36.2362,570.00,98.60,35.60,11.23,130.00,15.00,0.00,29.79,1006.10,10.00,M,FEW,FEW,M,M,15000.00,18000.00,M,M,M,M,M,M,M,M,M,93.23,KLSV 222051Z AUTO 13015KT 10SM FEW150 FEW180 37/02 A2979 RMK AO2 WSHFT 49 SLP061 $,M
ELY,2023-05-22 20:53,-114.8453,39.2950,1909.00,69.00,39.00,33.25,260.00,9.00,0.00,30.07,1009.80,10.00,M,BKN,M,M,M,10000.00,M,M,M,M,M,M,M,M,M,M,69.10,KELY 222053Z AUTO 26009KT 10SM BKN100 21/04 A3007 RMK AO2 LTG DSNT SE AND NW SLP098 T02060039 56012,M
VGT,2023-05-22 20:53,-115.1933,36.2111,667.00,95.00,36.00,12.73,150.00,7.00,0.00,29.83,1008.80,10.00,M,CLR,M,M,M,M,M,M,M,M,M,M,M,M,M,M,90.32,KVGT 222053Z 15007KT 10SM CLR 35/02 A2983 RMK AO2 SLP088 T03500022 58023,M
LOL,2023-05-22 20:53,-118.5701,40.0684,1192.43,81.00,40.00,23.13,240.00,8.00,0.00,29.95,1010.60,10.00,M,CLR,M,M,M,M,M,M,M,M,M,M,M,M,M,M,79.37,KLOL 222053Z AUTO 24008KT 10SM CLR 27/04 A2995 RMK AO2 SLP106 T02720044 58019,M
P68,2023-05-22 20:53,-116.0056,39.6014,1993.00,76.00,35.00,22.66,0.00,0.00,0.00,30.02,1009.30,M,M,M,M,M,M,M,M,M,M,M,M,M,M,M,M,M,75.90,KP68 222053Z AUTO 00000KT 24/02 A3002 RMK AO1 SLP093 T02440017 56019,M
DRA,2023-05-22 20:53,-116.0278,36.6206,1009.00,89.00,42.00,19.42,200.00,9.00,0.00,29.92,1008.10,10.00,14.00,CLR,M,M,M,M,M,M,M,M,M,M,M,M,M,M,85.45,KDRA 222053Z AUTO 20009G14KT 10SM CLR 32/06 A2992 RMK AO2 SLP081 T03170056 58017,M
BVU,2023-05-22 20:55,-114.8611,35.9475,671.00,91.40,37.40,15.05,210.00,17.00,0.00,29.86,M,10.00,24.00,CLR,M,M,M,M,M,M,M,M,M,M,M,M,M,M,87.23,KBVU 222055Z AUTO 21017G24KT 10SM CLR 33/03 A2986 RMK AO2,M
CXP,2023-05-22 20:55,-119.7326,39.1923,1431.00,80.60,37.40,21.25,240.00,9.00,0.00,30.01,M,10.00,18.00,CLR,M,M,M,M,M,M,M,M,M,M,M,M,M,M,79.02,KCXP 222055Z AUTO 24009G18KT 10SM CLR 27/03 A3001 RMK AO2,M
RTS,2023-05-22 20:55,-119.8764,39.6682,1539.00,78.80,26.60,14.59,210.00,12.00,0.00,30.02,M,10.00,17.00,CLR,M,M,M,M,M,M,M,M,M,M,M,M,M,M,78.80,KRTS 222055Z AUTO 21012G17KT 10SM CLR 26/M03 A3002 RMK AO2,M
MEV,2023-05-22 20:55,-119.7500,38.9963,1441.42,80.60,39.20,22.81,260.00,9.00,0.00,30.00,M,10.00,M,CLR,M,M,M,M,M,M,M,M,M,M,M,M,M,M,79.10,KMEV 222055Z AUTO 26009KT 10SM CLR 27/04 A3000 RMK AO2,M
BAM,2023-05-22 20:55,-116.8743,40.5990,1382.36,84.20,35.60,17.61,250.00,10.00,0.00,29.98,M,10.00,21.00,CLR,M,M,M,M,M,M,M,M,M,M,M,M,M,M,81.34,KBAM 222055Z AUTO 25010G21KT 10SM CLR 29/02 A2998 RMK AO1,M
HTH,2023-05-22 20:55,-118.6315,38.5448,1282.89,82.40,35.60,18.67,M,4.00,0.00,29.96,M,10.00,10.00,CLR,M,M,M,M,M,M,M,M,M,M,M,M,M,M,80.08,KHTH 222055Z AUTO VRB04G10KT 10SM CLR 28/02 A2996 RMK A01,M
TMT,2023-05-22 20:55,-117.1971,39.4643,1749.34,75.60,39.40,27.11,290.00,12.00,0.00,30.05,M,10.00,16.00,SCT,M,M,M,9000.00,M,M,M,M,M,M,M,M,M,M,75.60,KTMT 222055Z AUTO 29012G16KT 10SM SCT090 24/04 A3005 RMK AO2 LTG DSNT NE T02420041,M
10U,2023-05-22 20:55,-116.1876,41.9532,1637.00,71.60,44.60,37.89,M,4.00,0.00,30.04,M,10.00,12.00,CLR,M,M,M,M,M,M,M,M,M,M,M,M,M,M,71.60,K10U 222055Z AUTO VRB04G12KT 10SM CLR 22/07 A3004 RMK AO2,M
LSV,2023-05-22 20:55,-115.0343,36.2362,570.00,98.00,38.70,12.96,130.00,10.00,0.00,29.79,1006.10,10.00,17.00,FEW,FEW,M,M,12000.00,18000.00,M,M,M,M,M,M,M,M,M,93.20,KLSV 222055Z AUTO 13010G17KT 10SM FEW120 FEW180 37/04 A2979 RMK AO2 SLP061 T03660037 57024 $,M
RNO,2023-05-22 20:55,-119.7711,39.4839,1341.00,84.00,40.00,20.99,270.00,8.00,0.00,29.97,1009.50,10.00,M,FEW,FEW,M,M,8000.00,25000.00,M,M,M,M,M,M,M,M,M,81.33,KRNO 222055Z 27008KT 10SM FEW080 FEW250 29/04 A2997 RMK AO2 SLP095 T02890044 58021,M
INS,2023-05-22 20:55,-115.6733,36.5872,955.00,88.00,36.00,15.91,110.00,5.00,0.00,29.91,1008.00,10.00,17.00,CLR,M,M,M,M,M,M,M,M,M,M,M,M,M,M,84.30,KINS 222055Z AUTO 11005G17KT 10SM CLR 31/02 A2991 RMK AO2 SLP080 T03110023 57018 $,M
WMC,2023-05-22 20:56,-117.8072,40.9019,1315.00,82.00,43.00,25.24,300.00,11.00,0.00,29.97,1010.60,10.00,M,FEW,M,M,M,9000.00,M,M,M,M,M,M,M,26.00,210.00,2023-05-22 20:16,80.15,KWMC 222056Z AUTO 30011KT 10SM FEW090 28/06 A2997 RMK AO2 PK WND 21026/2016 SLP106 T02780061 57017,M
TPH,2023-05-22 20:56,-117.0904,38.0505,1654.00,M,M,M,M,M,0.00,30.03,M,M,M,M,M,M,M,M,M,M,M,M,M,M,M,M,M,M,M,KTPH 222056Z AUTO A3003 RMK AO2 SLPNO 57017 PWINO $,M
NFL,2023-05-22 20:56,-118.7010,39.4166,1199.00,81.00,40.00,23.13,M,5.00,0.00,29.95,1011.60,10.00,M,SCT,SCT,M,M,7000.00,22000.00,M,M,M,M,M,M,M,M,M,79.37,KNFL 222056Z VRB05KT 10SM SCT070 SCT220 27/04 A2995 RMK AO2 SLP116 T02720044 58019,M
HND,2023-05-22 20:56,-115.1344,35.9729,742.79,91.00,38.00,15.54,110.00,8.00,0.00,29.88,1010.40,10.00,M,CLR,M,M,M,M,M,M,M,M,M,M,M,M,M,M,86.90,KHND 222056Z 11008KT 10SM CLR 33/03 A2988 RMK AO2 SLP104 T03280033 58020,M
EKO,2023-05-22 20:56,-115.7860,40.8242,1367.00,80.00,44.00,28.01,260.00,7.00,0.00,29.99,1009.90,10.00,15.00,SCT,M,M,M,7500.00,M,M,M,M,M,M,M,M,M,M,79.12,KEKO 222056Z AUTO 26007G15KT 210V280 10SM SCT075 27/07 A2999 RMK AO2 SLP099 T02670067 58017,M
LAS,2023-05-22 20:56,-115.1634,36.0719,663.00,94.00,38.00,14.20,160.00,7.00,0.00,29.85,1007.90,10.00,17.00,SCT,SCT,BKN,M,11000.00,15000.00,25000.00,M,M,M,M,M,M,M,M,89.48,KLAS 222056Z 16007G17KT 10SM SCT110 SCT150 BKN250 34/03 A2985 RMK AO2 SLP079 VIRGA E T03440033 58021,M
05U,2023-05-22 21:10,-116.0051,39.6042,1811.23,77.00,37.40,23.93,10.00,6.00,0.00,30.04,M,10.00,11.00,CLR,M,M,M,M,M,M,M,M,M,M,M,M,M,M,77.00,K05U 222110Z AUTO 01006G11KT 10SM CLR 25/03 A3004 RMK A01,M
LSV,2023-05-22 21:14,-115.0343,36.2362,570.00,96.80,39.20,13.66,140.00,16.00,0.00,29.78,1005.80,10.00,20.00,FEW,M,M,M,12000.00,M,M,M,M,M,M,M,M,M,M,92.23,KLSV 222114Z AUTO 14016G20KT 10SM FEW120 36/04 A2978 RMK AO2 WSHFT 08 SLP058 $,M
BVU,2023-05-22 21:15,-114.8611,35.9475,671.00,93.20,35.60,13.25,210.00,21.00,0.00,29.86,M,9.00,30.00,CLR,M,M,M,M,M,M,M,M,M,M,M,M,M,M,88.76,KBVU 222115Z AUTO 21021G30KT 9SM CLR 34/02 A2986 RMK AO2 LTG DSNT NE,M
CXP,2023-05-22 21:15,-119.7326,39.1923,1431.00,80.60,37.40,21.25,230.00,8.00,0.00,30.00,M,10.00,17.00,CLR,M,M,M,M,M,M,M,M,M,M,M,M,M,M,79.02,KCXP 222115Z AUTO 23008G17KT 10SM CLR 27/03 A3000 RMK AO2,M
RTS,2023-05-22 21:15,-119.8764,39.6682,1539.00,78.80,26.60,14.59,210.00,11.00,0.00,30.02,M,10.00,17.00,CLR,M,M,M,M,M,M,M,M,M,M,M,M,M,M,78.80,KRTS 222115Z AUTO 21011G17KT 10SM CLR 26/M03 A3002 RMK AO2,M
MEV,2023-05-22 21:15,-119.7500,38.9963,1441.42,80.60,37.40,21.25,270.00,5.00,0.00,29.99,M,10.00,10.00,CLR,M,M,M,M,M,M,M,M,M,M,M,M,M,M,79.02,KMEV 222115Z AUTO 27005G10KT 10SM CLR 27/03 A2999 RMK AO2 LTG DSNT NE AND E,M
BAM,2023-05-22 21:15,-116.8743,40.5990,1382.36,84.20,33.80,16.39,270.00,12.00,0.00,29.97,M,10.00,20.00,CLR,M,M,M,M,M,M,M,M,M,M,M,M,M,M,81.30,KBAM 222115Z AUTO 27012G20KT 10SM CLR 29/01 A2997 RMK AO1,M
HTH,2023-05-22 21:15,-118.6315,38.5448,1282.89,82.40,37.40,20.04,30.00,8.00,0.00,29.95,M,10.00,M,CLR,M,M,M,M,M,M,M,M,M,M,M,M,M,M,80.14,KHTH 222115Z AUTO 03008KT 10SM CLR 28/03 A2995 RMK A01,M
10U,2023-05-22 21:15,-116.1876,41.9532,1637.00,69.80,41.00,35.09,M,4.00,0.00,30.04,M,10.00,M,CLR,M,M,M,M,M,M,M,M,M,M,M,M,M,M,69.80,K10U 222115Z AUTO VRB04KT 10SM CLR 21/05 A3004 RMK AO2,M
TMT,2023-05-22 21:15,-117.1971,39.4643,1749.34,77.00,40.00,26.59,220.00,4.00,0.00,30.05,M,10.00,14.00,CLR,M,M,M,M,M,M,M,TS,M,M,M,M,M,M,77.00,KTMT 222115Z AUTO 22004G14KT 160V270 10SM TS CLR 25/05 A3005 RMK AO2 LTG DSNT SE AND S T02500045,M
05U,2023-05-22 21:30,-116.0051,39.6042,1811.23,77.00,37.40,23.93,10.00,8.00,0.00,30.04,M,10.00,M,SCT,M,M,M,8500.00,M,M,M,M,M,M,M,M,M,M,77.00,K05U 222130Z AUTO 01008KT 10SM SCT085 25/03 A3004 RMK A01,M
BVU,2023-05-22 21:35,-114.8611,35.9475,671.00,89.60,33.80,13.80,M,3.00,0.00,29.84,M,10.00,13.00,CLR,M,M,M,M,M,M,M,M,M,M,M,M,M,M,85.59,KBVU 222135Z AUTO VRB03G13KT 10SM CLR 32/01 A2984 RMK AO2,M
CXP,2023-05-22 21:35,-119.7326,39.1923,1431.00,82.40,37.40,20.04,220.00,11.00,0.00,29.99,M,10.00,17.00,CLR,M,M,M,M,M,M,M,M,M,M,M,M,M,M,80.14,KCXP 222135Z AUTO 22011G17KT 200V290 10SM CLR 28/03 A2999 RMK AO2,M
RTS,2023-05-22 21:35,-119.8764,39.6682,1539.00,78.80,28.40,15.71,210.00,9.00,0.00,30.01,M,10.00,15.00,CLR,M,M,M,M,M,M,M,M,M,M,M,M,M,M,78.80,KRTS 222135Z AUTO 21009G15KT 10SM CLR 26/M02 A3001 RMK AO2,M
MEV,2023-05-22 21:35,-119.7500,38.9963,1441.42,80.60,35.60,19.79,210.00,7.00,0.00,29.98,M,10.00,13.00,CLR,M,M,M,M,M,M,M,M,M,M,M,M,M,M,78.94,KMEV 222135Z AUTO 21007G13KT 10SM CLR 27/02 A2998 RMK AO2 LTG DSNT E,M
BAM,2023-05-22 21:35,-116.8743,40.5990,1382.36,86.00,33.80,15.48,230.00,11.00,0.00,29.96,M,10.00,17.00,CLR,M,M,M,M,M,M,M,M,M,M,M,M,M,M,82.66,KBAM 222135Z AUTO 23011G17KT 10SM CLR 30/01 A2996 RMK AO1,M
HTH,2023-05-22 21:35,-118.6315,38.5448,1282.89,84.20,37.40,18.91,M,6.00,0.00,29.94,M,10.00,13.00,CLR,M,M,M,M,M,M,M,M,M,M,M,M,M,M,81.38,KHTH 222135Z AUTO VRB06G13KT 10SM CLR 29/03 A2994 RMK A01,M
10U,2023-05-22 21:35,-116.1876,41.9532,1637.00,69.80,42.80,37.61,M,6.00,0.00,30.03,M,10.00,M,FEW,M,M,M,6500.00,M,M,M,M,M,M,M,M,M,M,69.80,K10U 222135Z AUTO VRB06KT 10SM FEW065 21/06 A3003 RMK AO2,M
TMT,2023-05-22 21:35,-117.1971,39.4643,1749.34,76.00,36.50,23.95,260.00,8.00,0.00,30.03,M,10.00,M,SCT,M,M,M,8500.00,M,M,M,VCTS,M,M,M,M,M,M,75.90,KTMT 222135Z AUTO 26008KT 10SM VCTS SCT085 24/03 A3003 RMK AO2 LTG DSNT SE AND S T02440025,M
05U,2023-05-22 21:50,-116.0051,39.6042,1811.23,77.00,39.20,25.67,30.00,10.00,0.00,30.04,M,10.00,M,FEW,M,M,M,8500.00,M,M,M,M,M,M,M,M,M,M,77.00,K05U 222150Z AUTO 03010KT 10SM FEW085 25/04 A3004 RMK A01,M
P68,2023-05-22 21:53,-116.0056,39.6014,1993.00,77.00,39.00,25.47,20.00,10.00,0.00,30.01,1008.90,M,M,M,M,M,M,M,M,M,M,M,M,M,M,M,M,M,77.00,KP68 222153Z AUTO 02010KT 25/04 A3001 RMK AO1 SLP089 T02500039,M
ELY,2023-05-22 21:53,-114.8453,39.2950,1909.00,70.00,39.00,32.24,110.00,9.00,0.00,30.06,1009.60,10.00,M,FEW,SCT,M,M,9500.00,11000.00,M,M,M,M,M,M,M,M,M,70.00,KELY 222153Z AUTO 11009KT 10SM FEW095 SCT110 21/04 A3006 RMK AO2 LTG DSNT NW SLP096 T02110039,M
DRA,2023-05-22 21:53,-116.0278,36.6206,1009.00,88.00,40.00,18.47,210.00,5.00,0.00,29.89,1007.30,10.00,M,CLR,M,M,M,M,M,M,M,M,M,M,M,M,M,M,84.41,KDRA 222153Z AUTO 21005KT 10SM CLR 31/04 A2989 RMK AO2 SLP073 T03110044,M
LOL,2023-05-22 21:53,-118.5701,40.0684,1192.43,83.00,39.00,21.00,M,3.00,0.00,29.92,1009.80,10.00,M,CLR,M,M,M,M,M,M,M,M,M,M,M,M,M,M,80.53,KLOL 222153Z AUTO VRB03KT 10SM CLR 28/04 A2992 RMK AO2 SLP098 T02830039,M
VGT,2023-05-22 21:53,-115.1933,36.2111,667.00,94.00,38.00,14.20,150.00,13.00,0.00,29.81,1008.30,10.00,19.00,CLR,M,M,M,M,M,M,M,M,M,M,M,27.00,140.00,2023-05-22 21:28,89.48,KVGT 222153Z 15013G19KT 10SM CLR 34/03 A2981 RMK AO2 PK WND 14027/2128 SLP083 T03440033,M
BVU,2023-05-22 21:55,-114.8611,35.9475,671.00,91.40,32.00,12.14,M,6.00,0.00,29.83,M,10.00,M,CLR,M,M,M,M,M,M,M,M,M,M,M,M,M,M,86.91,KBVU 222155Z AUTO VRB06KT 10SM CLR 33/00 A2983 RMK AO2,M
CXP,2023-05-22 21:55,-119.7326,39.1923,1431.00,80.60,37.40,21.25,250.00,7.00,0.00,29.99,M,10.00,19.00,CLR,M,M,M,M,M,M,M,M,M,M,M,M,M,M,79.02,KCXP 222155Z AUTO 25007G19KT 200V330 10SM CLR 27/03 A2999 RMK AO2,M
RNO,2023-05-22 21:55,-119.7711,39.4839,1341.00,86.00,32.00,14.40,280.00,12.00,0.00,29.95,1008.70,10.00,18.00,FEW,FEW,M,M,9500.00,25000.00,M,M,M,M,M,M,M,M,M,82.64,KRNO 222155Z 28012G18KT 10SM FEW095 FEW250 30/00 A2995 RMK AO2 SLP087 T03000000,M
RTS,2023-05-22 21:55,-119.8764,39.6682,1539.00,78.80,24.80,13.54,220.00,11.00,0.00,30.00,M,10.00,M,CLR,M,M,M,M,M,M,M,M,M,M,M,M,M,M,78.80,KRTS 222155Z AUTO 22011KT 10SM CLR 26/M04 A3000 RMK AO2,M
MEV,2023-05-22 21:55,-119.7500,38.9963,1441.42,80.60,39.20,22.81,310.00,5.00,0.00,29.98,M,10.00,19.00,CLR,M,M,M,M,M,M,M,M,M,M,M,M,M,M,79.10,KMEV 222155Z AUTO 31005G19KT 10SM CLR 27/04 A2998 RMK AO2,M
BAM,2023-05-22 21:55,-116.8743,40.5990,1382.36,84.20,33.80,16.39,250.00,12.00,0.00,29.96,M,10.00,17.00,CLR,M,M,M,M,M,M,M,M,M,M,M,M,M,M,81.30,KBAM 222155Z AUTO 25012G17KT 10SM CLR 29/01 A2996 RMK AO1,M
HTH,2023-05-22 21:55,-118.6315,38.5448,1282.89,84.20,35.60,17.61,M,3.00,0.00,29.93,M,10.00,M,CLR,M,M,M,M,M,M,M,M,M,M,M,M,M,M,81.34,KHTH 222155Z AUTO VRB03KT 10SM CLR 29/02 A2993 RMK A01,M
TMT,2023-05-22 21:55,-117.1971,39.4643,1749.34,76.80,35.20,22.08,290.00,11.00,0.00,30.03,M,10.00,14.00,SCT,M,M,M,8500.00,M,M,M,M,M,M,M,M,M,M,76.80,KTMT 222155Z AUTO 29011G14KT 10SM SCT085 25/02 A3003 RMK AO2 LTG DSNT N AND SE T02490018,M
10U,2023-05-22 21:55,-116.1876,41.9532,1637.00,71.60,42.80,35.37,270.00,6.00,0.00,30.03,M,10.00,14.00,FEW,FEW,M,M,6500.00,7500.00,M,M,M,M,M,M,M,M,M,71.60,K10U 222155Z AUTO 27006G14KT 10SM FEW065 FEW075 22/06 A3003 RMK AO2,M
INS,2023-05-22 21:55,-115.6733,36.5872,955.00,88.00,32.70,13.89,0.00,0.00,0.00,29.88,1007.10,10.00,M,CLR,M,M,M,M,M,M,M,M,M,M,M,M,M,M,84.25,KINS 222155Z AUTO 00000KT 10SM CLR 31/00 A2988 RMK AO2 SLP071 T03110004 $,M
LSV,2023-05-22 21:55,-115.0343,36.2362,570.00,96.00,35.00,11.95,160.00,12.00,0.00,29.77,1005.60,10.00,M,FEW,FEW,M,M,13000.00,19000.00,M,M,M,M,M,M,M,M,M,90.90,KLSV 222155Z AUTO 16012KT 10SM FEW130 FEW190 36/02 A2977 RMK AO2 SLP056 T03550017 $,M
WMC,2023-05-22 21:56,-117.8072,40.9019,1315.00,81.00,39.00,22.33,M,M,0.00,29.94,1010.00,10.00,M,SCT,M,M,M,9000.00,M,M,M,M,M,M,M,M,M,M,79.33,KWMC 222156Z AUTO 10SM SCT090 27/04 A2994 RMK AO2 SLP100 T02720039,M
TPH,2023-05-22 21:56,-117.0904,38.0505,1654.00,M,M,M,M,M,0.00,30.00,M,M,M,M,M,M,M,M,M,M,M,M,M,M,M,M,M,M,M,KTPH 222156Z AUTO A3000 RMK AO2 SLPNO PWINO $,M
LAS,2023-05-22 21:56,-115.1634,36.0719,663.00,94.00,37.00,13.71,90.00,10.00,0.00,29.82,1007.00,10.00,24.00,SCT,SCT,BKN,M,11000.00,15000.00,25000.00,M,M,M,M,M,26.00,100.00,2023-05-22 21:13,89.44,KLAS 222156Z 09010G24KT 10SM SCT110 SCT150 BKN250 34/03 A2982 RMK AO2 PK WND 10026/2113 SLP070 T03440028,M
EKO,2023-05-22 21:56,-115.7860,40.8242,1367.00,79.00,38.00,22.84,300.00,8.00,0.00,29.96,1009.10,10.00,M,SCT,M,M,M,9000.00,M,M,M,M,M,M,M,M,M,M,79.00,KEKO 222156Z AUTO 30008KT 230V360 10SM SCT090 26/03 A2996 RMK AO2 SLP091 T02610033,M
HND,2023-05-22 21:56,-115.1344,35.9729,742.79,93.00,33.00,12.07,220.00,7.00,0.00,29.85,1009.50,10.00,15.00,CLR,M,M,M,M,M,M,M,M,M,M,M,M,M,M,88.29,KHND 222156Z 22007G15KT 190V260 10SM CLR 34/01 A2985 RMK AO2 SLP095 T03390006,M
NFL,2023-05-22 21:56,-118.7010,39.4166,1199.00,85.00,39.00,19.69,M,5.00,0.00,29.92,1010.60,10.00,M,SCT,SCT,M,M,7000.00,25000.00,M,M,M,M,M,M,M,M,M,81.95,KNFL 222156Z VRB05KT 10SM SCT070 SCT250 29/04 A2992 RMK AO2 SLP106 CB DSNT E-SE T02940039,M
05U,2023-05-22 22:10,-116.0051,39.6042,1811.23,77.00,37.40,23.93,50.00,7.00,0.00,30.03,M,10.00,M,FEW,M,M,M,9500.00,M,M,M,M,M,M,M,M,M,M,77.00,K05U 222210Z AUTO 05007KT 10SM FEW095 25/03 A3003 RMK A01,M
BVU,2023-05-22 22:15,-114.8611,35.9475,671.00,91.40,32.00,12.14,190.00,5.00,0.00,29.82,M,10.00,11.00,CLR,M,M,M,M,M,M,M,M,M,M,M,M,M,M,86.91,KBVU 222215Z AUTO 19005G11KT 10SM CLR 33/00 A2982 RMK AO2,M
CXP,2023-05-22 22:15,-119.7326,39.1923,1431.00,80.60,37.40,21.25,270.00,11.00,0.00,29.99,M,10.00,19.00,CLR,M,M,M,M,M,M,M,M,M,M,M,M,M,M,79.02,KCXP 222215Z AUTO 27011G19KT 240V300 10SM CLR 27/03 A2999 RMK AO2,M
RTS,2023-05-22 22:15,-119.8764,39.6682,1539.00,78.80,26.60,14.59,240.00,13.00,0.00,30.00,M,10.00,19.00,CLR,M,M,M,M,M,M,M,M,M,M,M,M,M,M,78.80,KRTS 222215Z AUTO 24013G19KT 10SM CLR 26/M03 A3000 RMK AO2,M
MEV,2023-05-22 22:15,-119.7500,38.9963,1441.42,80.60,41.00,24.46,260.00,8.00,0.00,29.98,M,10.00,13.00,CLR,M,M,M,M,M,M,M,M,M,M,M,M,M,M,79.20,KMEV 222215Z AUTO 26008G13KT 10SM CLR 27/05 A2998 RMK AO2,M
BAM,2023-05-22 22:15,-116.8743,40.5990,1382.36,86.00,32.00,14.40,280.00,9.00,0.00,29.95,M,10.00,15.00,SCT,M,M,M,10000.00,M,M,M,M,M,M,M,M,M,M,82.64,KBAM 222215Z AUTO 28009G15KT 10SM SCT100 30/00 A2995 RMK AO1,M
HTH,2023-05-22 22:15,-118.6315,38.5448,1282.89,86.00,35.60,16.63,40.00,6.00,0.00,29.91,M,10.00,M,CLR,M,M,M,M,M,M,M,M,M,M,M,M,M,M,82.69,KHTH 222215Z AUTO 04006KT 10SM CLR 30/02 A2991 RMK A01,M
10U,2023-05-22 22:15,-116.1876,41.9532,1637.00,71.60,42.80,35.37,300.00,7.00,0.00,30.02,M,10.00,13.00,CLR,M,M,M,M,M,M,M,M,M,M,M,M,M,M,71.60,K10U 222215Z AUTO 30007G13KT 280V350 10SM CLR 22/06 A3002 RMK AO2,M
TMT,2023-05-22 22:15,-117.1971,39.4643,1749.34,77.40,35.00,21.56,300.00,5.00,0.00,30.02,M,10.00,15.00,CLR,M,M,M,M,M,M,M,M,M,M,M,M,M,M,77.40,KTMT 222215Z AUTO 30005G15KT 10SM CLR 25/02 A3002 RMK AO2 T02520017,M
LSV,2023-05-22 22:19,-115.0343,36.2362,570.00,96.80,35.60,11.86,120.00,12.00,0.00,29.76,1005.20,10.00,M,CLR,M,M,M,M,M,M,M,M,M,M,M,M,M,M,91.72,KLSV 222219Z AUTO 12012KT 10SM CLR 36/02 A2976 RMK AO2 WSHFT 14 SLP052 $,M
LAS,2023-05-22 22:29,-115.1634,36.0719,663.00,94.00,33.00,11.74,180.00,4.00,0.00,29.80,M,10.00,M,SCT,SCT,BKN,M,11000.00,15000.00,25000.00,M,M,M,M,M,M,M,M,89.00,KLAS 222229Z 18004KT 10SM SCT110 SCT150 BKN250 34/01 A2980 RMK AO2 T03440006,M
05U,2023-05-22 22:30,-116.0051,39.6042,1811.23,75.20,39.20,27.26,360.00,8.00,0.00,30.04,M,10.00,M,BKN,M,M,M,9000.00,M,M,M,M,M,M,M,M,M,M,75.20,K05U 222230Z AUTO 36008KT 10SM BKN090 24/04 A3004 RMK A01,M
HTH,2023-05-22 22:30,-118.6315,38.5448,1282.89,84.20,35.60,17.61,340.00,10.00,0.00,29.91,M,10.00,M,CLR,M,M,M,M,M,M,M,M,M,M,M,M,M,M,81.34,KHTH 222230Z AUTO 34010KT 10SM CLR 29/02 A2991 RMK A01,M
BVU,2023-05-22 22:35,-114.8611,35.9475,671.00,95.00,32.00,10.85,190.00,10.00,0.00,29.81,M,10.00,M,CLR,M,M,M,M,M,M,M,M,M,M,M,M,M,M,89.71,KBVU 222235Z AUTO 19010KT 10SM CLR 35/M00 A2981 RMK AO2,M
CXP,2023-05-22 22:35,-119.7326,39.1923,1431.00,80.60,37.40,21.25,260.00,11.00,0.00,29.98,M,10.00,16.00,CLR,M,M,M,M,M,M,M,M,M,M,M,M,M,M,79.02,KCXP 222235Z AUTO 26011G16KT 10SM CLR 27/03 A2998 RMK AO2,M
RTS,2023-05-22 22:35,-119.8764,39.6682,1539.00,78.80,32.00,18.18,220.00,12.00,0.00,30.00,M,10.00,18.00,CLR,M,M,M,M,M,M,M,M,M,M,M,M,M,M,78.80,KRTS 222235Z AUTO 22012G18KT 10SM CLR 26/00 A3000 RMK AO2,M
MEV,2023-05-22 22:35,-119.7500,38.9963,1441.42,80.60,41.00,24.46,270.00,11.00,0.00,29.97,M,10.00,M,CLR,M,M,M,M,M,M,M,M,M,M,M,M,M,M,79.20,KMEV 222235Z AUTO 27011KT 10SM CLR 27/05 A2997 RMK AO2,M
BAM,2023-05-22 22:35,-116.8743,40.5990,1382.36,82.40,30.20,15.03,260.00,6.00,0.00,29.94,M,10.00,17.00,SCT,M,M,M,11000.00,M,M,M,M,M,M,M,M,M,M,79.97,KBAM 222235Z AUTO 26006G17KT 10SM SCT110 28/M01 A2994 RMK AO1,M
10U,2023-05-22 22:35,-116.1876,41.9532,1637.00,71.60,44.60,37.89,330.00,5.00,0.00,30.01,M,10.00,11.00,CLR,M,M,M,M,M,M,M,M,M,M,M,M,M,M,71.60,K10U 222235Z AUTO 33005G11KT 10SM CLR 22/07 A3001 RMK AO2,M
TMT,2023-05-22 22:35,-117.1971,39.4643,1749.34,78.60,35.00,20.72,290.00,5.00,0.00,30.01,M,10.00,18.00,SCT,M,M,M,9500.00,M,M,M,M,M,M,M,M,M,M,78.60,KTMT 222235Z AUTO 29005G18KT 10SM SCT095 26/02 A3001 RMK AO2 T02590017,M
05U,2023-05-22 22:50,-116.0051,39.6042,1811.23,75.20,39.20,27.26,50.00,9.00,0.00,30.03,M,10.00,M,BKN,M,M,M,9000.00,M,M,M,M,M,M,M,M,M,M,75.20,K05U 222250Z AUTO 05009KT 10SM BKN090 24/04 A3003 RMK A01,M
P68,2023-05-22 22:53,-116.0056,39.6014,1993.00,75.00,39.00,27.23,60.00,10.00,0.00,30.01,1009.20,M,M,M,M,M,M,M,M,M,M,M,M,M,M,M,M,M,75.00,KP68 222253Z AUTO 06010KT 24/04 A3001 RMK AO1 SLP092 T02390039,M
DRA,2023-05-22 22:53,-116.0278,36.6206,1009.00,87.00,39.00,18.35,220.00,7.00,0.00,29.87,1006.70,10.00,15.00,CLR,M,M,M,M,M,M,M,M,M,M,M,M,M,M,83.65,KDRA 222253Z AUTO 22007G15KT 10SM CLR 31/04 A2987 RMK AO2 SLP067 T03060039,M
LOL,2023-05-22 22:53,-118.5701,40.0684,1192.43,84.00,37.00,18.74,250.00,12.00,0.00,29.89,1008.90,10.00,15.00,CLR,M,M,M,M,M,M,M,M,M,M,M,M,M,M,81.23,KLOL 222253Z AUTO 25012G15KT 10SM CLR 29/03 A2989 RMK AO2 SLP089 T02890028,M
VGT,2023-05-22 22:53,-115.1933,36.2111,667.00,95.00,38.00,13.73,220.00,7.00,0.00,29.79,1007.70,10.00,18.00,CLR,M,M,M,M,M,M,M,M,M,M,M,M,M,M,90.48,KVGT 222253Z 22007G18KT 10SM CLR 35/03 A2979 RMK AO2 SLP077 T03500033,M
ELY,2023-05-22 22:53,-114.8453,39.2950,1909.00,60.00,40.00,47.15,320.00,16.00,T,30.08,1011.90,6.00,37.00,FEW,BKN,OVC,M,6000.00,8000.00,11000.00,M,VCTS -RA,M,M,M,37.00,330.00,2023-05-22 22:50,60.10,KELY 222253Z AUTO 32016G37KT 6SM VCTS -RA FEW060 BKN080 OVC110 16/04 A3008 RMK AO2 PK WND 33037/2250 LTG DSNT SW RAB50 PRESRR SLP119 P0000 T01560044,M
BVU,2023-05-22 22:55,-114.8611,35.9475,671.00,93.20,30.20,10.67,M,4.00,0.00,29.81,M,10.00,15.00,CLR,M,M,M,M,M,M,M,M,M,M,M,M,M,M,88.09,KBVU 222255Z AUTO VRB04G15KT 10SM CLR 34/M01 A2981 RMK AO2,M
CXP,2023-05-22 22:55,-119.7326,39.1923,1431.00,80.60,37.40,21.25,280.00,14.00,0.00,29.98,M,10.00,M,CLR,M,M,M,M,M,M,M,M,M,M,M,M,M,M,79.02,KCXP 222255Z AUTO 28014KT 10SM CLR 27/03 A2998 RMK AO2,M
RNO,2023-05-22 22:55,-119.7711,39.4839,1341.00,85.00,28.90,13.15,280.00,16.00,0.00,29.93,1008.20,10.00,21.00,FEW,SCT,M,M,11000.00,25000.00,M,M,M,M,M,M,M,M,M,81.78,KRNO 222255Z 28016G21KT 10SM FEW110 SCT250 29/M02 A2993 RMK AO2 SLP082 T02941017 $,M
RTS,2023-05-22 22:55,-119.8764,39.6682,1539.00,78.80,33.80,19.55,280.00,14.00,0.00,29.99,M,10.00,M,CLR,M,M,M,M,M,M,M,M,M,M,M,M,M,M,78.80,KRTS 222255Z AUTO 28014KT 10SM CLR 26/01 A2999 RMK AO2,M
MEV,2023-05-22 22:55,-119.7500,38.9963,1441.42,80.60,39.20,22.81,270.00,10.00,0.00,29.96,M,10.00,M,CLR,M,M,M,M,M,M,M,M,M,M,M,M,M,M,79.10,KMEV 222255Z AUTO 27010KT 210V320 10SM CLR 27/04 A2996 RMK AO2,M
BAM,2023-05-22 22:55,-116.8743,40.5990,1382.36,86.00,32.00,14.40,270.00,7.00,0.00,29.93,M,10.00,15.00,SCT,M,M,M,11000.00,M,M,M,M,M,M,M,M,M,M,82.64,KBAM 222255Z AUTO 27007G15KT 10SM SCT110 30/00 A2993 RMK AO1,M
HTH,2023-05-22 22:55,-118.6315,38.5448,1282.89,84.20,35.60,17.61,330.00,13.00,0.00,29.89,M,10.00,M,CLR,M,M,M,M,M,M,M,M,M,M,M,M,M,M,81.34,KHTH 222255Z AUTO 33013KT 10SM CLR 29/02 A2989 RMK A01,M
TMT,2023-05-22 22:55,-117.1971,39.4643,1749.34,78.00,34.00,20.30,280.00,11.00,0.00,30.01,M,10.00,16.00,SCT,M,M,M,9500.00,M,M,M,M,M,M,M,M,M,M,77.90,KTMT 222255Z AUTO 28011G16KT 10SM SCT095 26/01 A3001 RMK AO2 LTG DSNT S T02550011,M
10U,2023-05-22 22:55,-116.1876,41.9532,1637.00,71.60,44.60,37.89,310.00,5.00,0.00,30.01,M,10.00,12.00,SCT,SCT,M,M,7000.00,8500.00,M,M,M,M,M,M,M,M,M,71.60,K10U 222255Z AUTO 31005G12KT 10SM SCT070 SCT085 22/07 A3001 RMK AO2,M
INS,2023-05-22 22:55,-115.6733,36.5872,955.00,90.30,32.70,12.92,330.00,5.00,0.00,29.86,1006.30,10.00,M,FEW,M,M,M,19000.00,M,M,M,M,M,M,M,M,M,M,86.15,KINS 222255Z AUTO 33005KT 10SM FEW190 32/00 A2986 RMK AO2 SLP063 T03240004 $,M
LSV,2023-05-22 22:55,-115.0343,36.2362,570.00,94.60,34.20,12.00,150.00,9.00,0.00,29.75,1005.00,10.00,M,BKN,M,M,M,15000.00,M,M,M,M,M,M,M,M,M,M,89.71,KLSV 222255Z AUTO 15009KT 10SM BKN150 35/01 A2975 RMK AO2 SLP050 T03480012 $,M
EKO,2023-05-22 22:56,-115.7860,40.8242,1367.00,80.00,37.00,21.27,M,M,0.00,29.94,1008.60,10.00,M,SCT,M,M,M,10000.00,M,M,M,M,M,M,M,M,M,M,78.81,KEKO 222256Z AUTO 10SM SCT100 27/03 A2994 RMK AO2 SLP086 T02670028,M
WMC,2023-05-22 22:56,-117.8072,40.9019,1315.00,82.00,32.00,16.38,0.00,0.00,0.00,29.92,1009.10,10.00,M,CLR,M,M,M,M,M,M,M,M,M,M,M,M,M,M,79.73,KWMC 222256Z AUTO 00000KT 10SM CLR 28/00 A2992 RMK AO2 SLP091 T02780000,M
HND,2023-05-22 22:56,-115.1344,35.9729,742.79,95.00,34.00,11.76,210.00,16.00,0.00,29.83,1008.90,10.00,19.00,CLR,M,M,M,M,M,M,M,M,M,M,M,M,M,M,90.00,KHND 222256Z 21016G19KT 10SM CLR 35/01 A2983 RMK AO2 SLP089 T03500011,M
TPH,2023-05-22 22:56,-117.0904,38.0505,1654.00,M,M,M,M,M,0.00,29.97,M,M,M,M,M,M,M,M,M,M,M,M,M,M,M,M,M,M,M,KTPH 222256Z AUTO A2997 RMK AO2 LTG DSNT SE SLPNO PWINO $,M
LAS,2023-05-22 22:56,-115.1634,36.0719,663.00,93.00,33.00,12.07,230.00,4.00,0.00,29.80,1006.50,10.00,15.00,FEW,FEW,SCT,M,11000.00,15000.00,25000.00,M,M,M,M,M,M,M,M,88.29,KLAS 222256Z 23004G15KT 10SM FEW110 FEW150 SCT250 34/01 A2980 RMK AO2 SLP065 T03390006,M
NFL,2023-05-22 22:56,-118.7010,39.4166,1199.00,85.00,39.00,19.69,M,5.00,0.00,29.89,1009.60,10.00,M,SCT,SCT,M,M,7000.00,25000.00,M,M,M,M,M,M,M,M,M,81.95,KNFL 222256Z VRB05KT 10SM SCT070 SCT250 29/04 A2989 RMK AO2 SLP096 CB DSNT E-SE T02940039,M
ELY,2023-05-22 23:04,-114.8453,39.2950,1909.00,56.00,43.00,61.81,300.00,13.00,0.02,30.08,M,6.00,25.00,FEW,BKN,OVC,M,6000.00,8000.00,11000.00,M,-TSRA,M,M,M,M,M,M,55.90,KELY 222304Z AUTO 30013G25KT 6SM -TSRA FEW060 BKN080 OVC110 13/06 A3008 RMK AO2 LTG DSNT SW TSB2258 P0002 T01330061,M
05U,2023-05-22 23:10,-116.0051,39.6042,1811.23,73.40,41.00,31.05,130.00,8.00,0.00,30.04,M,10.00,M,FEW,M,M,M,9000.00,M,M,M,M,M,M,M,M,M,M,73.40,K05U 222310Z AUTO 13008KT 360V140 10SM FEW090 23/05 A3004 RMK A01,M
BVU,2023-05-22 23:15,-114.8611,35.9475,671.00,95.00,30.20,10.09,150.00,8.00,0.00,29.80,M,10.00,16.00,CLR,M,M,M,M,M,M,M,M,M,M,M,M,M,M,89.48,KBVU 222315Z AUTO 15008G16KT 10SM CLR 35/M01 A2980 RMK AO2,M
CXP,2023-05-22 23:15,-119.7326,39.1923,1431.00,80.60,37.40,21.25,280.00,14.00,0.00,29.97,M,10.00,25.00,CLR,M,M,M,M,M,M,M,M,M,M,M,M,M,M,79.02,KCXP 222315Z AUTO 28014G25KT 10SM CLR 27/03 A2997 RMK AO2,M
RTS,2023-05-22 23:15,-119.8764,39.6682,1539.00,77.00,32.00,19.30,270.00,14.00,0.00,29.99,M,10.00,M,CLR,M,M,M,M,M,M,M,M,M,M,M,M,M,M,77.00,KRTS 222315Z AUTO 27014KT 240V300 10SM CLR 25/M00 A2999 RMK AO2,M
MEV,2023-05-22 23:15,-119.7500,38.9963,1441.42,80.60,33.80,18.42,230.00,11.00,0.00,29.96,M,10.00,M,CLR,M,M,M,M,M,M,M,M,M,M,M,M,M,M,78.88,KMEV 222315Z AUTO 23011KT 10SM CLR 27/01 A2996 RMK AO2,M
BAM,2023-05-22 23:15,-116.8743,40.5990,1382.36,86.00,32.00,14.40,260.00,15.00,0.00,29.92,M,10.00,18.00,CLR,M,M,M,M,M,M,M,M,M,M,M,M,M,M,82.64,KBAM 222315Z AUTO 26015G18KT 10SM CLR 30/00 A2992 RMK AO1,M
HTH,2023-05-22 23:15,-118.6315,38.5448,1282.89,86.00,35.60,16.63,340.00,7.00,0.00,29.89,M,10.00,13.00,CLR,M,M,M,M,M,M,M,M,M,M,M,M,M,M,82.69,KHTH 222315Z AUTO 34007G13KT 10SM CLR 30/02 A2989 RMK A01,M
TMT,2023-05-22 23:15,-117.1971,39.4643,1749.34,75.70,33.80,21.66,0.00,0.00,0.00,30.00,M,10.00,M,CLR,M,M,M,M,M,M,M,M,M,M,M,M,M,M,75.70,KTMT 222315Z AUTO 00000KT 10SM CLR 24/01 A3000 RMK AO2 T02430010,M
10U,2023-05-22 23:15,-116.1876,41.9532,1637.00,71.60,42.80,35.37,330.00,8.00,0.00,30.00,M,10.00,13.00,FEW,M,M,M,7000.00,M,M,M,M,M,M,M,M,M,M,71.60,K10U 222315Z AUTO 33008G13KT 290V010 10SM FEW070 22/06 A3000 RMK AO2,M
ELY,2023-05-22 23:17,-114.8453,39.2950,1909.00,57.00,45.00,64.12,120.00,4.00,0.04,30.07,M,2.50,M,SCT,BKN,OVC,M,5500.00,7500.00,11000.00,M,-RA,M,M,M,M,M,M,57.00,KELY 222317Z AUTO 12004KT 2 1/2SM -RA SCT055 BKN075 OVC110 14/07 A3007 RMK AO2 VIS 1 3/4V5 LTG DSNT SW TSB2258E13 P0004 T01390072,M
ELY,2023-05-22 23:25,-114.8453,39.2950,1909.00,59.00,46.00,61.98,70.00,7.00,0.07,30.06,M,4.00,M,SCT,BKN,BKN,M,4800.00,7500.00,9000.00,M,-RA,M,M,M,M,M,M,59.00,KELY 222325Z AUTO 07007KT 4SM -RA SCT048 BKN075 BKN090 15/08 A3006 RMK AO2 TSB2258E13 P0007 T01500078,M
05U,2023-05-22 23:30,-116.0051,39.6042,1811.23,69.80,46.40,43.13,20.00,10.00,0.00,30.04,M,9.00,M,CLR,M,M,M,M,M,M,M,M,M,M,M,M,M,M,69.80,K05U 222330Z AUTO 02010KT 360V110 9SM CLR 21/08 A3004 RMK A01,M
BVU,2023-05-22 23:35,-114.8611,35.9475,671.00,95.00,30.20,10.09,220.00,12.00,0.00,29.79,M,10.00,17.00,CLR,M,M,M,M,M,M,M,M,M,M,M,M,M,M,89.48,KBVU 222335Z AUTO 22012G17KT 180V240 10SM CLR 35/M01 A2979 RMK AO2,M
CXP,2023-05-22 23:35,-119.7326,39.1923,1431.00,80.60,35.60,19.79,250.00,12.00,0.00,29.98,M,10.00,23.00,CLR,M,M,M,M,M,M,M,M,M,M,M,M,M,M,78.94,KCXP 222335Z AUTO 25012G23KT 230V290 10SM CLR 27/02 A2998 RMK AO2,M
RTS,2023-05-22 23:35,-119.8764,39.6682,1539.00,77.00,30.20,17.94,270.00,13.00,0.00,29.99,M,10.00,21.00,CLR,M,M,M,M,M,M,M,M,M,M,M,M,M,M,77.00,KRTS 222335Z AUTO 27013G21KT 10SM CLR 25/M01 A2999 RMK AO2,M
MEV,2023-05-22 23:35,-119.7500,38.9963,1441.42,80.60,39.20,22.81,250.00,12.00,0.00,29.96,M,10.00,M,CLR,M,M,M,M,M,M,M,M,M,M,M,M,M,M,79.10,KMEV 222335Z AUTO 25012KT 10SM CLR 27/04 A2996 RMK AO2,M
BAM,2023-05-22 23:35,-116.8743,40.5990,1382.36,84.20,30.20,14.18,230.00,10.00,0.00,29.92,M,10.00,20.00,CLR,M,M,M,M,M,M,M,M,M,M,M,M,M,M,81.26,KBAM 222335Z AUTO 23010G20KT 10SM CLR 29/M01 A2992 RMK AO1,M
HTH,2023-05-22 23:35,-118.6315,38.5448,1282.89,86.00,33.80,15.48,340.00,11.00,0.00,29.88,M,10.00,19.00,CLR,M,M,M,M,M,M,M,M,M,M,M,M,M,M,82.66,KHTH 222335Z AUTO 34011G19KT 10SM CLR 30/01 A2988 RMK A01,M
TMT,2023-05-22 23:35,-117.1971,39.4643,1749.34,78.80,33.60,19.39,310.00,9.00,0.00,29.99,M,10.00,14.00,CLR,M,M,M,M,M,M,M,M,M,M,M,M,M,M,78.80,KTMT 222335Z AUTO 31009G14KT 10SM CLR 26/01 A2999 RMK AO2 LTG DSNT E T02600009,M
10U,2023-05-22 23:35,-116.1876,41.9532,1637.00,71.60,42.80,35.37,360.00,10.00,0.00,30.00,M,10.00,M,SCT,M,M,M,7000.00,M,M,M,M,M,M,M,M,M,M,71.60,K10U 222335Z AUTO 36010KT 10SM SCT070 22/06 A3000 RMK AO2,M
05U,2023-05-22 23:50,-116.0051,39.6042,1811.23,66.20,51.80,59.74,50.00,8.00,0.00,30.04,M,9.00,M,CLR,M,M,M,M,M,M,M,M,M,M,M,M,M,M,66.20,K05U 222350Z AUTO 05008KT 020V100 9SM CLR 19/11 A3004 RMK A01,M
P68,2023-05-22 23:53,-116.0056,39.6014,1993.00,67.00,50.00,54.54,140.00,9.00,0.00,30.01,1010.10,M,M,M,M,M,M,M,M,M,M,M,M,M,M,M,M,M,66.90,KP68 222353Z AUTO 14009KT 19/10 A3001 RMK AO1 SLP101 T01940100 10267 20194 55002,M
DRA,2023-05-22 23:53,-116.0278,36.6206,1009.00,88.00,40.00,18.47,270.00,9.00,0.00,29.86,1006.20,10.00,17.00,CLR,M,M,M,M,M,M,M,M,M,M,M,M,M,M,84.41,KDRA 222353Z AUTO 27009G17KT 10SM CLR 31/04 A2986 RMK AO2 SLP062 T03110044 10333 20283 56018,M
ELY,2023-05-22 23:53,-114.8453,39.2950,1909.00,59.00,51.00,75.02,220.00,7.00,0.07,30.06,1011.70,10.00,M,FEW,M,M,M,12000.00,M,M,M,M,M,M,M,M,M,M,59.00,KELY 222353Z AUTO 22007KT 10SM FEW120 15/11 A3006 RMK AO2 LTG DSNT S RAE32 TSB2258E13 SLP117 P0007 60007 T01500106 10228 20128 58004,M
LOL,2023-05-22 23:53,-118.5701,40.0684,1192.43,84.00,35.00,17.38,200.00,9.00,0.00,29.87,1008.20,10.00,M,CLR,M,M,M,M,M,M,M,M,M,M,M,M,M,M,81.18,KLOL 222353Z AUTO 20009KT 10SM CLR 29/02 A2987 RMK AO2 SLP082 T02890017 10294 20239 56024,M
VGT,2023-05-22 23:53,-115.1933,36.2111,667.00,96.00,38.00,13.27,M,M,0.00,29.78,1007.20,10.00,M,CLR,M,M,M,M,M,M,M,M,M,M,M,M,M,M,91.49,KVGT 222353Z 10SM CLR 36/03 A2978 RMK AO2 SLP072 T03560033 10361 20311 56017,M
BVU,2023-05-22 23:55,-114.8611,35.9475,671.00,95.00,30.20,10.09,M,6.00,0.00,29.79,M,10.00,14.00,CLR,M,M,M,M,M,M,M,M,M,M,M,M,M,M,89.48,KBVU 222355Z AUTO VRB06G14KT 10SM CLR 35/M01 A2979 RMK AO2,M
CXP,2023-05-22 23:55,-119.7326,39.1923,1431.00,80.60,35.60,19.79,260.00,10.00,0.00,29.97,M,10.00,22.00,CLR,M,M,M,M,M,M,M,M,M,M,M,M,M,M,78.94,KCXP 222355Z AUTO 26010G22KT 220V290 10SM CLR 27/02 A2997 RMK AO2,M
RNO,2023-05-22 23:55,-119.7711,39.4839,1341.00,83.00,28.90,14.02,290.00,16.00,0.00,29.92,1008.30,10.00,23.00,FEW,BKN,M,M,11000.00,25000.00,M,M,M,M,M,M,M,M,M,80.30,KRNO 222355Z 29016G23KT 10SM FEW110 BKN250 28/M02 A2992 RMK AO2 SLP083 T02831017 10306 20233 56013 $,M
RTS,2023-05-22 23:55,-119.8764,39.6682,1539.00,77.00,26.60,15.48,250.00,17.00,0.00,29.99,M,10.00,M,CLR,M,M,M,M,M,M,M,M,M,M,M,M,M,M,77.00,KRTS 222355Z AUTO 25017KT 10SM CLR 25/M03 A2999 RMK AO2,M
MEV,2023-05-22 23:55,-119.7500,38.9963,1441.42,80.60,41.00,24.46,250.00,10.00,0.00,29.96,M,10.00,15.00,CLR,M,M,M,M,M,M,M,M,M,M,M,M,M,M,79.20,KMEV 222355Z AUTO 25010G15KT 10SM CLR 27/05 A2996 RMK AO2,M
BAM,2023-05-22 23:55,-116.8743,40.5990,1382.36,86.00,30.20,13.38,240.00,9.00,0.00,29.92,M,10.00,14.00,CLR,M,M,M,M,M,M,M,M,M,M,M,M,M,M,82.64,KBAM 222355Z AUTO 24009G14KT 10SM CLR 30/M01 A2992 RMK AO1,M
HTH,2023-05-22 23:55,-118.6315,38.5448,1282.89,86.00,33.80,15.48,330.00,10.00,0.00,29.88,M,10.00,M,CLR,M,M,M,M,M,M,M,M,M,M,M,M,M,M,82.66,KHTH 222355Z AUTO 33010KT 10SM CLR 30/01 A2988 RMK A01,M
TMT,2023-05-22 23:55,-117.1971,39.4643,1749.34,79.00,34.50,19.97,240.00,9.00,0.00,29.99,M,10.00,M,CLR,M,M,M,M,M,M,M,M,M,M,M,M,M,M,79.00,KTMT 222355Z AUTO 24009KT 10SM CLR 26/01 A2999 RMK AO2 LTG DSNT S T02610014 10262 20210,M
10U,2023-05-22 23:55,-116.1876,41.9532,1637.00,71.60,44.60,37.89,360.00,10.00,0.00,30.00,M,10.00,M,BKN,BKN,M,M,6500.00,7500.00,M,M,M,M,M,M,M,M,M,71.60,K10U 222355Z AUTO 36010KT 10SM BKN065 BKN075 22/07 A3000 RMK AO2,M
INS,2023-05-22 23:55,-115.6733,36.5872,955.00,89.40,35.60,14.92,210.00,11.00,0.00,29.85,1006.10,10.00,M,SCT,BKN,M,M,11000.00,15000.00,M,M,M,M,M,M,M,M,M,85.45,KINS 222355Z AUTO 21011KT 10SM SCT110 BKN150 32/02 A2985 RMK AO2 SLP061 T03190020 10325 20268 57019 $,M
LSV,2023-05-22 23:55,-115.0343,36.2362,570.00,95.20,32.40,10.96,0.00,0.00,0.00,29.74,1004.70,10.00,M,CLR,M,M,M,M,M,M,M,M,M,M,M,M,M,M,89.93,KLSV 222355Z AUTO 00000KT 10SM CLR 35/00 A2974 RMK AO2 SLP047 T03510002 10371 20337 57017 $,M
EKO,2023-05-22 23:56,-115.7860,40.8242,1367.00,82.00,34.00,17.74,330.00,10.00,0.00,29.93,1008.00,10.00,M,FEW,M,M,M,10000.00,M,M,M,M,M,M,M,M,M,M,79.77,KEKO 222356Z AUTO 33010KT 10SM FEW100 28/01 A2993 RMK AO2 SLP080 T02780011 10278 20228 56017,M
WMC,2023-05-22 23:56,-117.8072,40.9019,1315.00,83.00,37.00,19.41,M,M,0.00,29.91,1008.70,10.00,M,CLR,M,M,M,M,M,M,M,M,M,M,M,M,M,M,80.46,KWMC 222356Z AUTO 10SM CLR 28/03 A2991 RMK AO2 SLP087 T02830028 10289 20239 56018,M
HND,2023-05-22 23:56,-115.1344,35.9729,742.79,95.00,36.00,12.73,250.00,10.00,0.00,29.83,1008.60,10.00,M,CLR,M,M,M,M,M,M,M,M,M,M,M,M,M,M,90.32,KHND 222356Z 25010KT 10SM CLR 35/02 A2983 RMK AO2 SLP086 T03500022 10356 20306 56017,M
TPH,2023-05-22 23:56,-117.0904,38.0505,1654.00,M,M,M,M,M,0.00,29.97,M,M,M,M,M,M,M,M,M,M,M,M,M,M,M,M,M,M,M,KTPH 222356Z AUTO A2997 RMK AO2 LTG DSNT NE SLPNO 56017 PWINO $,M
LAS,2023-05-22 23:56,-115.1634,36.0719,663.00,95.00,32.00,10.85,190.00,8.00,0.00,29.79,1005.90,10.00,17.00,FEW,FEW,SCT,M,11000.00,15000.00,25000.00,M,M,M,M,M,M,M,M,89.71,KLAS 222356Z 19008G17KT 10SM FEW110 FEW150 SCT250 35/00 A2979 RMK AO2 SLP059 T03500000 10356 20311 56018,M
NFL,2023-05-22 23:56,-118.7010,39.4166,1199.00,86.00,40.00,19.68,M,5.00,0.00,29.87,1009.00,10.00,M,SCT,SCT,SCT,M,7000.00,12000.00,25000.00,M,M,M,M,M,M,M,M,82.81,KNFL 222356Z VRB05KT 10SM SCT070 SCT120 SCT250 30/04 A2987 RMK AO2 SLP090 CB DSNT E-SE T03000044 10300 20239 56026,M
