station,valid,lon,lat,elevation,tmpf,dwpf,relh,drct,sknt,p01i,alti,mslp,vsby,gust,skyc1,skyc2,skyc3,skyc4,skyl1,skyl2,skyl3,skyl4,wxcodes,ice_accretion_1hr,ice_accretion_3hr,ice_accretion_6hr,peak_wind_gust,peak_wind_drct,peak_wind_time,feel,metar,snowdepth
CXP,2022-08-15 00:10,-119.7326,39.1923,1431.00,89.60,24.80,9.56,260.00,10.00,0.00,30.08,M,10.00,16.00,CLR,M,M,M,M,M,M,M,M,M,M,M,M,M,M,84.88,KCXP 150010Z AUTO 26010G16KT 10SM CLR 32/M04 A3008 RMK AO2,M
TMT,2022-08-15 00:10,-117.1971,39.4643,1749.34,M,M,M,70.00,6.00,0.00,30.14,M,10.00,M,SCT,M,M,M,11000.00,M,M,M,M,M,M,M,M,M,M,M,KTMT 150010Z AUTO 07006KT 10SM SCT110 A3014 RMK AO2,M
EKO,2022-08-15 00:11,-115.7860,40.8242,1367.00,79.00,45.00,30.05,40.00,11.00,0.00,30.07,M,10.00,M,SCT,M,M,M,12000.00,M,M,M,VCTS,M,M,M,M,M,M,79.00,KEKO 150011Z AUTO 04011KT 10SM VCTS SCT120 26/07 A3007 RMK AO2 T02610072,M
BAM,2022-08-15 00:15,-116.8743,40.5990,1382.36,96.80,30.20,9.55,270.00,5.00,0.00,30.03,M,10.00,M,CLR,M,M,M,M,M,M,M,M,M,M,M,M,M,M,90.96,KBAM 150015Z AUTO 27005KT 10SM CLR 36/M01 A3003 RMK AO1,M
MEV,2022-08-15 00:15,-119.7500,38.9963,1441.42,89.60,28.40,11.09,260.00,15.00,0.00,30.06,M,10.00,22.00,CLR,M,M,M,M,M,M,M,M,M,M,M,M,M,M,85.17,KMEV 150015Z AUTO 26015G22KT 10SM CLR 32/M02 A3006 RMK AO2,M
HTH,2022-08-15 00:15,-118.6315,38.5448,1282.89,95.00,24.80,8.08,320.00,15.00,0.00,29.98,M,10.00,M,CLR,M,M,M,M,M,M,M,M,M,M,M,M,M,M,88.91,KHTH 150015Z AUTO 32015KT 10SM CLR 35/M04 A2998 RMK A01,M
RTS,2022-08-15 00:15,-119.8764,39.6682,1539.00,89.60,12.20,5.57,230.00,14.00,0.00,30.11,M,10.00,M,CLR,M,M,M,M,M,M,M,M,M,M,M,M,M,M,84.23,KRTS 150015Z AUTO 23014KT 10SM CLR 32/M11 A3011 RMK AO2,M
BVU,2022-08-15 00:15,-114.8611,35.9475,671.00,93.20,59.00,31.99,220.00,6.00,0.00,29.90,M,M,M,M,M,M,M,M,M,M,M,M,M,M,M,M,M,M,92.57,KBVU 150015Z AUTO 22006KT 34/15 A2990 RMK AO2 PWINO TSNO,M
EKO,2022-08-15 00:26,-115.7860,40.8242,1367.00,79.00,44.00,29.04,40.00,13.00,0.00,30.07,M,10.00,M,FEW,M,M,M,12000.00,M,M,M,M,M,M,M,M,M,M,79.00,KEKO 150026Z AUTO 04013KT 10SM FEW120 26/07 A3007 RMK AO2 LTG DSNT NE T02610067,M
CXP,2022-08-15 00:30,-119.7326,39.1923,1431.00,89.60,24.80,9.56,270.00,11.00,0.00,30.08,M,10.00,16.00,CLR,M,M,M,M,M,M,M,M,M,M,M,M,M,M,84.88,KCXP 150030Z AUTO 27011G16KT 10SM CLR 32/M04 A3008 RMK AO2,M
MEV,2022-08-15 00:35,-119.7500,38.9963,1441.42,89.60,28.40,11.09,290.00,14.00,0.00,30.06,M,10.00,20.00,CLR,M,M,M,M,M,M,M,M,M,M,M,M,M,M,85.17,KMEV 150035Z AUTO 29014G20KT 10SM CLR 32/M02 A3006 RMK AO2,M
BVU,2022-08-15 00:35,-114.8611,35.9475,671.00,93.20,59.00,31.99,210.00,5.00,0.00,29.90,M,M,M,M,M,M,M,M,M,M,M,M,M,M,M,M,M,M,92.57,KBVU 150035Z AUTO 21005KT 34/15 A2990 RMK AO2 PWINO TSNO,M
HTH,2022-08-15 00:35,-118.6315,38.5448,1282.89,95.00,24.80,8.08,330.00,13.00,0.00,29.97,M,10.00,M,CLR,M,M,M,M,M,M,M,M,M,M,M,M,M,M,88.91,KHTH 150035Z AUTO 33013KT 10SM CLR 35/M04 A2997 RMK A01,M
TMT,2022-08-15 00:35,-117.1971,39.4643,1749.34,M,M,M,10.00,6.00,0.00,30.14,M,10.00,M,CLR,M,M,M,M,M,M,M,M,M,M,M,M,M,M,M,KTMT 150035Z AUTO 01006KT 10SM CLR A3014 RMK AO2,M
BAM,2022-08-15 00:35,-116.8743,40.5990,1382.36,95.00,28.40,9.38,330.00,9.00,0.00,30.03,M,10.00,M,CLR,M,M,M,M,M,M,M,M,M,M,M,M,M,M,89.27,KBAM 150035Z AUTO 33009KT 10SM CLR 35/M02 A3003 RMK AO1,M
RTS,2022-08-15 00:35,-119.8764,39.6682,1539.00,87.80,12.20,5.89,250.00,11.00,0.00,30.11,M,10.00,18.00,CLR,M,M,M,M,M,M,M,M,M,M,M,M,M,M,82.93,KRTS 150035Z AUTO 25011G18KT 10SM CLR 31/M11 A3011 RMK AO2,M
CXP,2022-08-15 00:50,-119.7326,39.1923,1431.00,89.60,24.80,9.56,270.00,10.00,0.00,30.08,M,10.00,16.00,CLR,M,M,M,M,M,M,M,M,M,M,M,M,M,M,84.88,KCXP 150050Z AUTO 27010G16KT 10SM CLR 32/M04 A3008 RMK AO2,M
ELY,2022-08-15 00:53,-114.8453,39.2950,1909.00,74.00,49.00,41.24,200.00,6.00,0.00,30.20,1014.00,10.00,M,BKN,M,M,M,10000.00,M,M,M,M,M,M,M,M,M,M,73.90,KELY 150053Z AUTO 20006KT 10SM BKN100 23/09 A3020 RMK AO2 SLP140 T02330094 $,M
P68,2022-08-15 00:53,-116.0056,39.6014,1993.00,77.00,44.00,31.02,190.00,7.00,0.00,30.18,1014.20,M,M,M,M,M,M,M,M,M,M,M,M,M,M,M,M,M,77.00,KP68 150053Z AUTO 19007KT 25/07 A3018 RMK AO1 SLP142 T02500067,M
DRA,2022-08-15 00:53,-116.0278,36.6206,1009.00,92.00,52.00,25.84,50.00,17.00,0.00,29.95,1008.80,10.00,M,CLR,M,M,M,M,M,M,M,M,M,M,M,37.00,30.00,2022-08-15 00:24,89.21,KDRA 150053Z AUTO 05017KT 10SM CLR 33/11 A2995 RMK AO2 PK WND 03037/0024 SLP088 T03330111,M
VGT,2022-08-15 00:53,-115.1933,36.2111,667.00,96.00,59.00,29.25,180.00,8.00,0.00,29.87,1010.30,10.00,M,CLR,M,M,M,M,M,M,M,M,M,M,M,M,M,M,95.72,KVGT 150053Z 18008KT 10SM CLR 36/15 A2987 RMK AO2 LTG DSNT W AND NW SLP103 T03560150,M
LOL,2022-08-15 00:53,-118.5701,40.0684,1192.43,96.00,17.10,5.63,300.00,12.00,0.00,29.97,1011.00,10.00,17.00,CLR,M,M,M,M,M,M,M,M,M,M,M,M,M,M,89.27,KLOL 150053Z AUTO 30012G17KT 10SM CLR 36/M08 A2997 RMK AO2 SLP110 T03561083,M
BVU,2022-08-15 00:55,-114.8611,35.9475,671.00,93.20,62.60,36.35,240.00,7.00,0.00,29.89,M,M,M,M,M,M,M,M,M,M,M,M,M,M,M,M,M,M,94.20,KBVU 150055Z AUTO 24007KT 34/17 A2989 RMK AO2 PWINO TSNO,M
RNO,2022-08-15 00:55,-119.7711,39.4839,1341.00,92.00,26.10,9.39,300.00,17.00,0.00,30.03,1011.00,10.00,22.00,CLR,M,M,M,M,M,M,M,M,M,M,M,M,M,M,86.69,KRNO 150055Z 30017G22KT 10SM CLR 33/M03 A3003 RMK AO2 SLP110 FU ALF VC SE THRU S T03331033,M
BAM,2022-08-15 00:55,-116.8743,40.5990,1382.36,95.00,28.40,9.38,300.00,6.00,0.00,30.03,M,10.00,M,CLR,M,M,M,M,M,M,M,M,M,M,M,M,M,M,89.27,KBAM 150055Z AUTO 30006KT 10SM CLR 35/M02 A3003 RMK AO1,M
HTH,2022-08-15 00:55,-118.6315,38.5448,1282.89,95.00,23.00,7.49,330.00,12.00,0.00,29.97,M,10.00,M,CLR,M,M,M,M,M,M,M,M,M,M,M,M,M,M,88.76,KHTH 150055Z AUTO 33012KT 10SM CLR 35/M05 A2997 RMK A01,M
MEV,2022-08-15 00:55,-119.7500,38.9963,1441.42,87.80,28.40,11.74,290.00,15.00,0.00,30.06,M,10.00,M,CLR,M,M,M,M,M,M,M,M,M,M,M,M,M,M,83.84,KMEV 150055Z AUTO 29015KT 10SM CLR 31/M02 A3006 RMK AO2,M
TMT,2022-08-15 00:55,-117.1971,39.4643,1749.34,M,M,M,10.00,8.00,0.00,30.14,M,10.00,M,CLR,M,M,M,M,M,M,M,M,M,M,M,M,M,M,M,KTMT 150055Z AUTO 01008KT 10SM CLR A3014 RMK AO2,M
RTS,2022-08-15 00:55,-119.8764,39.6682,1539.00,87.80,10.40,5.44,290.00,13.00,0.00,30.11,M,10.00,19.00,CLR,M,M,M,M,M,M,M,M,M,M,M,M,M,M,82.88,KRTS 150055Z AUTO 29013G19KT 10SM CLR 31/M12 A3011 RMK AO2,M
LAS,2022-08-15 00:56,-115.1634,36.0719,663.00,93.00,61.00,34.57,180.00,8.00,0.00,29.89,1009.30,10.00,M,FEW,SCT,BKN,M,13000.00,17000.00,22000.00,M,M,M,M,M,M,M,M,93.20,KLAS 150056Z 18008KT 10SM FEW130 SCT170 BKN220 34/16 A2989 RMK AO2 LTG DSNT NW SLP093 CB DSNT NE T03390161,M
NFL,2022-08-15 00:56,-118.7010,39.4166,1199.00,97.00,23.00,7.05,60.00,5.00,0.00,29.97,1012.00,10.00,M,CLR,M,M,M,M,M,M,M,M,M,M,M,M,M,M,90.41,KNFL 150056Z 06005KT 10SM CLR 36/M05 A2997 RMK AO2 SLP120 T03611050,M
HND,2022-08-15 00:56,-115.1344,35.9729,742.79,91.00,65.00,42.21,190.00,8.00,0.00,29.93,1012.10,10.00,M,CLR,M,M,M,M,M,M,M,M,M,M,M,M,M,M,93.03,KHND 150056Z 19008KT 10SM CLR 33/18 A2993 RMK AO2 SLP121 T03280183,M
TPH,2022-08-15 00:56,-117.0904,38.0505,1654.00,92.00,38.00,15.11,80.00,4.00,0.00,30.09,1010.20,10.00,M,CLR,M,M,M,M,M,M,M,M,M,M,M,M,M,M,87.69,KTPH 150056Z AUTO 08004KT 10SM CLR 33/03 A3009 RMK AO2 SLP102 T03330033 $,M
WMC,2022-08-15 00:56,-117.8072,40.9019,1315.00,96.00,21.90,6.92,260.00,5.00,0.00,30.01,1011.40,10.00,M,CLR,M,M,M,M,M,M,M,M,M,M,M,M,M,M,89.58,KWMC 150056Z AUTO 26005KT 10SM CLR 36/M06 A3001 RMK AO2 SLP114 T03561056 $,M
EKO,2022-08-15 00:56,-115.7860,40.8242,1367.00,77.00,44.00,31.02,60.00,13.00,0.00,30.08,1013.80,10.00,M,SCT,M,M,M,12000.00,M,M,M,M,M,M,M,29.00,40.00,2022-08-15 00:43,77.00,KEKO 150056Z AUTO 06013KT 10SM SCT120 25/07 A3008 RMK AO2 PK WND 04029/0043 SLP138 T02500067,M
LSV,2022-08-15 00:58,-115.0343,36.2362,570.00,96.40,59.00,28.99,160.00,4.00,0.00,29.84,M,10.00,M,SCT,BKN,M,M,12000.00,16000.00,M,M,M,M,M,M,M,M,M,96.05,KLSV 150058Z 16004KT 10SM SCT120 BKN160 36/15 A2984 RMK SLPNO T03580150 $,M
CXP,2022-08-15 01:10,-119.7326,39.1923,1431.00,87.80,24.80,10.12,270.00,11.00,0.00,30.08,M,10.00,16.00,CLR,M,M,M,M,M,M,M,M,M,M,M,M,M,M,83.56,KCXP 150110Z AUTO 27011G16KT 10SM CLR 31/M04 A3008 RMK AO2,M
HTH,2022-08-15 01:15,-118.6315,38.5448,1282.89,95.00,23.00,7.49,330.00,13.00,0.00,29.97,M,10.00,M,CLR,M,M,M,M,M,M,M,M,M,M,M,M,M,M,88.76,KHTH 150115Z AUTO 33013KT 10SM CLR 35/M05 A2997 RMK A01,M
BVU,2022-08-15 01:15,-114.8611,35.9475,671.00,91.40,62.60,38.45,230.00,6.00,0.00,29.89,M,M,M,M,M,M,M,M,M,M,M,M,M,M,M,M,M,M,92.23,KBVU 150115Z AUTO 23006KT 33/17 A2989 RMK AO2 PWINO TSNO,M
RTS,2022-08-15 01:15,-119.8764,39.6682,1539.00,86.00,15.80,7.31,290.00,14.00,0.00,30.11,M,10.00,M,CLR,M,M,M,M,M,M,M,M,M,M,M,M,M,M,81.78,KRTS 150115Z AUTO 29014KT 10SM CLR 30/M09 A3011 RMK AO2,M
MEV,2022-08-15 01:15,-119.7500,38.9963,1441.42,87.80,28.40,11.74,290.00,13.00,0.00,30.06,M,10.00,21.00,CLR,M,M,M,M,M,M,M,M,M,M,M,M,M,M,83.84,KMEV 150115Z AUTO 29013G21KT 10SM CLR 31/M02 A3006 RMK AO2,M
BAM,2022-08-15 01:15,-116.8743,40.5990,1382.36,95.00,28.40,9.38,350.00,8.00,0.00,30.03,M,10.00,M,CLR,M,M,M,M,M,M,M,M,M,M,M,M,M,M,89.27,KBAM 150115Z AUTO 35008KT 10SM CLR 35/M02 A3003 RMK AO1,M
TMT,2022-08-15 01:15,-117.1971,39.4643,1749.34,M,M,M,350.00,7.00,0.00,30.14,M,10.00,M,CLR,M,M,M,M,M,M,M,M,M,M,M,M,M,M,M,KTMT 150115Z AUTO 35007KT 10SM CLR A3014 RMK AO2,M
ELY,2022-08-15 01:28,-114.8453,39.2950,1909.00,73.00,48.00,41.10,40.00,15.00,0.00,30.22,M,10.00,30.00,SCT,M,M,M,10000.00,M,M,M,M,M,M,M,30.00,10.00,2022-08-15 01:19,73.00,KELY 150128Z AUTO 04015G30KT 10SM SCT100 23/09 A3022 RMK AO2 PK WND 01030/0119 WSHFT 0108 LTG DSNT NE T02280089 $,M
CXP,2022-08-15 01:30,-119.7326,39.1923,1431.00,87.80,23.00,9.39,290.00,11.00,0.00,30.07,M,10.00,M,CLR,M,M,M,M,M,M,M,M,M,M,M,M,M,M,83.43,KCXP 150130Z AUTO 29011KT 10SM CLR 31/M05 A3007 RMK AO2,M
MEV,2022-08-15 01:35,-119.7500,38.9963,1441.42,86.00,26.60,11.55,290.00,12.00,0.00,30.06,M,10.00,18.00,CLR,M,M,M,M,M,M,M,M,M,M,M,M,M,M,82.39,KMEV 150135Z AUTO 29012G18KT 10SM CLR 30/M03 A3006 RMK AO2,M
BAM,2022-08-15 01:35,-116.8743,40.5990,1382.36,95.00,28.40,9.38,350.00,5.00,0.00,30.02,M,10.00,M,CLR,M,M,M,M,M,M,M,M,M,M,M,M,M,M,89.27,KBAM 150135Z AUTO 35005KT 10SM CLR 35/M02 A3002 RMK AO1,M
BVU,2022-08-15 01:35,-114.8611,35.9475,671.00,91.40,62.60,38.45,210.00,7.00,0.00,29.88,M,M,M,M,M,M,M,M,M,M,M,M,M,M,M,M,M,M,92.23,KBVU 150135Z AUTO 21007KT 33/17 A2988 RMK AO2 PWINO TSNO,M
RTS,2022-08-15 01:35,-119.8764,39.6682,1539.00,86.00,15.80,7.31,300.00,12.00,0.00,30.11,M,10.00,19.00,CLR,M,M,M,M,M,M,M,M,M,M,M,M,M,M,81.78,KRTS 150135Z AUTO 30012G19KT 10SM CLR 30/M09 A3011 RMK AO2,M
HTH,2022-08-15 01:35,-118.6315,38.5448,1282.89,95.00,23.00,7.49,310.00,13.00,0.00,29.97,M,10.00,M,CLR,M,M,M,M,M,M,M,M,M,M,M,M,M,M,88.76,KHTH 150135Z AUTO 31013KT 10SM CLR 35/M05 A2997 RMK A01,M
TMT,2022-08-15 01:35,-117.1971,39.4643,1749.34,M,M,M,40.00,3.00,0.00,30.13,M,10.00,M,CLR,M,M,M,M,M,M,M,M,M,M,M,M,M,M,M,KTMT 150135Z AUTO 04003KT 10SM CLR A3013 RMK AO2,M
CXP,2022-08-15 01:50,-119.7326,39.1923,1431.00,86.00,24.80,10.72,290.00,9.00,0.00,30.08,M,10.00,M,CLR,M,M,M,M,M,M,M,M,M,M,M,M,M,M,82.26,KCXP 150150Z AUTO 29009KT 10SM CLR 30/M04 A3008 RMK AO2,M
ELY,2022-08-15 01:53,-114.8453,39.2950,1909.00,73.00,51.00,46.13,360.00,10.00,0.00,30.22,1014.70,10.00,M,CLR,M,M,M,M,M,M,M,M,M,M,M,30.00,10.00,2022-08-15 01:19,73.00,KELY 150153Z AUTO 36010KT 10SM CLR 23/11 A3022 RMK AO2 PK WND 01030/0119 WSHFT 0108 SLP147 T02280106 $,M
LOL,2022-08-15 01:53,-118.5701,40.0684,1192.43,94.00,14.00,5.27,310.00,9.00,0.00,29.97,1010.90,10.00,M,CLR,M,M,M,M,M,M,M,M,M,M,M,M,M,M,87.41,KLOL 150153Z AUTO 31009KT 10SM CLR 34/M10 A2997 RMK AO2 SLP109 T03441100,M
P68,2022-08-15 01:53,-116.0056,39.6014,1993.00,76.00,45.00,33.30,130.00,6.00,0.00,30.16,1013.50,M,M,M,M,M,M,M,M,M,M,M,M,M,M,M,M,M,75.90,KP68 150153Z AUTO 13006KT 24/07 A3016 RMK AO1 SLP135 T02440072,M
DRA,2022-08-15 01:53,-116.0278,36.6206,1009.00,95.00,50.00,21.79,110.00,12.00,0.00,29.94,1008.10,10.00,16.00,CLR,M,M,M,M,M,M,M,M,M,M,M,M,M,M,91.89,KDRA 150153Z AUTO 11012G16KT 10SM CLR 35/10 A2994 RMK AO2 SLP081 T03500100,M
VGT,2022-08-15 01:53,-115.1933,36.2111,667.00,95.00,58.00,29.09,190.00,5.00,0.00,29.86,1009.90,10.00,M,CLR,M,M,M,M,M,M,M,M,M,M,M,M,M,M,94.08,KVGT 150153Z 19005KT 10SM CLR 35/14 A2986 RMK AO2 SLP099 T03500144,M
BVU,2022-08-15 01:55,-114.8611,35.9475,671.00,89.60,62.60,40.69,140.00,5.00,0.00,29.89,M,M,M,M,M,M,M,M,M,M,M,M,M,M,M,M,M,M,90.32,KBVU 150155Z AUTO 14005KT 32/17 A2989 RMK AO2 PWINO TSNO,M
TMT,2022-08-15 01:55,-117.1971,39.4643,1749.34,M,M,M,50.00,4.00,0.00,30.13,M,10.00,M,CLR,M,M,M,M,M,M,M,M,M,M,M,M,M,M,M,KTMT 150155Z AUTO 05004KT 10SM CLR A3013 RMK AO2,M
HTH,2022-08-15 01:55,-118.6315,38.5448,1282.89,95.00,23.00,7.49,330.00,10.00,0.00,29.97,M,10.00,M,CLR,M,M,M,M,M,M,M,M,M,M,M,M,M,M,88.76,KHTH 150155Z AUTO 33010KT 10SM CLR 35/M05 A2997 RMK A01,M
BAM,2022-08-15 01:55,-116.8743,40.5990,1382.36,93.20,30.20,10.67,340.00,6.00,0.00,30.03,M,10.00,M,CLR,M,M,M,M,M,M,M,M,M,M,M,M,M,M,88.09,KBAM 150155Z AUTO 34006KT 10SM CLR 34/M01 A3003 RMK AO1,M
MEV,2022-08-15 01:55,-119.7500,38.9963,1441.42,84.20,26.60,12.23,290.00,8.00,0.00,30.07,M,10.00,16.00,CLR,M,M,M,M,M,M,M,M,M,M,M,M,M,M,81.13,KMEV 150155Z AUTO 29008G16KT 10SM CLR 29/M03 A3007 RMK AO2,M
RTS,2022-08-15 01:55,-119.8764,39.6682,1539.00,84.20,14.00,7.16,310.00,15.00,0.00,30.12,M,10.00,M,CLR,M,M,M,M,M,M,M,M,M,M,M,M,M,M,80.44,KRTS 150155Z AUTO 31015KT 10SM CLR 29/M10 A3012 RMK AO2,M
RNO,2022-08-15 01:55,-119.7711,39.4839,1341.00,89.00,24.10,9.43,280.00,15.00,0.00,30.04,1011.40,10.00,23.00,CLR,M,M,M,M,M,M,M,M,M,M,M,M,M,M,84.46,KRNO 150155Z 28015G23KT 10SM CLR 32/M04 A3004 RMK AO2 SLP114 T03171044,M
NFL,2022-08-15 01:56,-118.7010,39.4166,1199.00,95.00,24.10,7.85,0.00,0.00,0.00,29.96,1011.90,10.00,M,CLR,M,M,M,M,M,M,M,M,M,M,M,M,M,M,88.85,KNFL 150156Z 00000KT 10SM CLR 35/M04 A2996 RMK AO2 SLP119 T03501044,M
EKO,2022-08-15 01:56,-115.7860,40.8242,1367.00,74.00,46.00,36.98,100.00,4.00,0.00,30.10,1014.30,10.00,M,SCT,M,M,M,12000.00,M,M,M,M,M,M,M,M,M,M,73.90,KEKO 150156Z AUTO 10004KT 10SM SCT120 23/08 A3010 RMK AO2 SLP143 T02330078,M
WMC,2022-08-15 01:56,-117.8072,40.9019,1315.00,93.00,21.90,7.61,350.00,8.00,0.00,30.01,1011.30,10.00,M,CLR,M,M,M,M,M,M,M,M,M,M,M,M,M,M,87.19,KWMC 150156Z AUTO 35008KT 10SM CLR 34/M06 A3001 RMK AO2 SLP113 T03391056 $,M
HND,2022-08-15 01:56,-115.1344,35.9729,742.79,91.00,63.00,39.49,180.00,9.00,0.00,29.92,1011.60,10.00,M,CLR,M,M,M,M,M,M,M,M,M,M,M,M,M,M,92.00,KHND 150156Z 18009KT 10SM CLR 33/17 A2992 RMK AO2 SLP116 T03280172,M
LAS,2022-08-15 01:56,-115.1634,36.0719,663.00,92.00,62.00,37.19,190.00,6.00,0.00,29.88,1008.90,10.00,M,FEW,SCT,BKN,M,13000.00,17000.00,22000.00,M,M,M,M,M,M,M,M,92.52,KLAS 150156Z 19006KT 10SM FEW130 SCT170 BKN220 33/17 A2988 RMK AO2 SLP089 T03330167,M
TPH,2022-08-15 01:56,-117.0904,38.0505,1654.00,89.00,40.00,17.84,120.00,4.00,0.00,30.08,1010.00,10.00,M,CLR,M,M,M,M,M,M,M,M,M,M,M,M,M,M,85.34,KTPH 150156Z AUTO 12004KT 10SM CLR 32/04 A3008 RMK AO2 LTG DSNT E SLP100 T03170044 $,M
LSV,2022-08-15 01:58,-115.0343,36.2362,570.00,95.20,61.50,32.87,180.00,10.00,0.00,29.84,M,10.00,M,FEW,SCT,BKN,M,12000.00,14000.00,16000.00,M,M,M,M,M,M,M,M,95.87,KLSV 150158Z 18010KT 10SM FEW120 SCT140 BKN160 35/16 A2984 RMK SLPNO T03510164 58004 $,M
BAM,2022-08-15 02:15,-116.8743,40.5990,1382.36,91.40,30.20,11.28,340.00,8.00,0.00,30.03,M,10.00,M,CLR,M,M,M,M,M,M,M,M,M,M,M,M,M,M,86.71,KBAM 150215Z AUTO 34008KT 10SM CLR 33/M01 A3003 RMK AO1,M
MEV,2022-08-15 02:15,-119.7500,38.9963,1441.42,82.40,28.40,13.96,300.00,7.00,0.00,30.07,M,10.00,14.00,CLR,M,M,M,M,M,M,M,M,M,M,M,M,M,M,79.94,KMEV 150215Z AUTO 30007G14KT 250V320 10SM CLR 28/M02 A3007 RMK AO2,M
RTS,2022-08-15 02:15,-119.8764,39.6682,1539.00,82.40,14.00,7.58,320.00,13.00,0.00,30.12,M,10.00,M,CLR,M,M,M,M,M,M,M,M,M,M,M,M,M,M,79.20,KRTS 150215Z AUTO 32013KT 10SM CLR 28/M10 A3012 RMK AO2,M
TMT,2022-08-15 02:15,-117.1971,39.4643,1749.34,M,M,M,80.00,5.00,0.00,30.14,M,10.00,M,CLR,M,M,M,M,M,M,M,M,M,M,M,M,M,M,M,KTMT 150215Z AUTO 08005KT 10SM CLR A3014 RMK AO2,M
HTH,2022-08-15 02:15,-118.6315,38.5448,1282.89,93.20,23.00,7.92,340.00,11.00,0.00,29.98,M,10.00,M,CLR,M,M,M,M,M,M,M,M,M,M,M,M,M,M,87.42,KHTH 150215Z AUTO 34011KT 10SM CLR 34/M05 A2998 RMK A01,M
CXP,2022-08-15 02:15,-119.7326,39.1923,1431.00,84.20,24.80,11.35,280.00,8.00,0.00,30.08,M,10.00,M,CLR,M,M,M,M,M,M,M,M,M,M,M,M,M,M,81.00,KCXP 150215Z AUTO 28008KT 10SM CLR 29/M04 A3008 RMK AO2,M
BVU,2022-08-15 02:15,-114.8611,35.9475,671.00,87.80,62.60,43.07,160.00,9.00,0.00,29.90,M,M,M,M,M,M,M,M,M,M,M,M,M,M,M,M,M,M,88.48,KBVU 150215Z AUTO 16009KT 31/17 A2990 RMK AO2 PWINO TSNO,M
INS,2022-08-15 02:27,-115.6733,36.5872,955.00,91.40,48.20,22.78,200.00,13.00,0.00,29.92,M,10.00,M,BKN,BKN,M,M,16000.00,18000.00,M,M,M,M,M,M,M,M,M,88.09,KINS 150227Z 20013KT 10SM BKN160 BKN180 33/09 A2992,M
TMT,2022-08-15 02:35,-117.1971,39.4643,1749.34,M,M,M,10.00,5.00,0.00,30.14,M,10.00,M,CLR,M,M,M,M,M,M,M,M,M,M,M,M,M,M,M,KTMT 150235Z AUTO 01005KT 10SM CLR A3014 RMK AO2,M
BVU,2022-08-15 02:35,-114.8611,35.9475,671.00,87.80,62.60,43.07,140.00,7.00,0.00,29.91,M,M,M,M,M,M,M,M,M,M,M,M,M,M,M,M,M,M,88.48,KBVU 150235Z AUTO 14007KT 31/17 A2991 RMK AO2 PWINO TSNO,M
CXP,2022-08-15 02:35,-119.7326,39.1923,1431.00,82.40,23.00,11.16,M,3.00,0.00,30.09,M,10.00,M,CLR,M,M,M,M,M,M,M,M,M,M,M,M,M,M,79.67,KCXP 150235Z AUTO VRB03KT 10SM CLR 28/M05 A3009 RMK AO2,M
RTS,2022-08-15 02:35,-119.8764,39.6682,1539.00,80.60,14.00,8.04,320.00,11.00,0.00,30.13,M,10.00,M,CLR,M,M,M,M,M,M,M,M,M,M,M,M,M,M,78.25,KRTS 150235Z AUTO 32011KT 10SM CLR 27/M10 A3013 RMK AO2,M
MEV,2022-08-15 02:35,-119.7500,38.9963,1441.42,80.60,28.40,14.81,280.00,7.00,0.00,30.07,M,10.00,13.00,CLR,M,M,M,M,M,M,M,M,M,M,M,M,M,M,78.72,KMEV 150235Z AUTO 28007G13KT 10SM CLR 27/M02 A3007 RMK AO2,M
BAM,2022-08-15 02:35,-116.8743,40.5990,1382.36,89.60,30.20,11.94,340.00,7.00,0.00,30.03,M,10.00,M,CLR,M,M,M,M,M,M,M,M,M,M,M,M,M,M,85.34,KBAM 150235Z AUTO 34007KT 10SM CLR 32/M01 A3003 RMK AO1,M
HTH,2022-08-15 02:35,-118.6315,38.5448,1282.89,91.40,24.80,9.04,320.00,9.00,0.00,29.98,M,10.00,M,CLR,M,M,M,M,M,M,M,M,M,M,M,M,M,M,86.21,KHTH 150235Z AUTO 32009KT 10SM CLR 33/M04 A2998 RMK A01,M
P68,2022-08-15 02:53,-116.0056,39.6014,1993.00,73.00,44.00,35.46,140.00,9.00,0.00,30.16,1013.00,M,M,M,M,M,M,M,M,M,M,M,M,M,M,M,M,M,73.00,KP68 150253Z AUTO 14009KT 23/07 A3016 RMK AO1 SLP130 T02280067 58003,M
ELY,2022-08-15 02:53,-114.8453,39.2950,1909.00,69.00,49.00,48.53,10.00,13.00,0.00,30.25,1015.30,10.00,M,CLR,M,M,M,M,M,M,M,M,M,M,M,M,M,M,69.10,KELY 150253Z AUTO 01013KT 10SM CLR 21/09 A3025 RMK AO2 SLP153 T02060094 53011 $,M
LOL,2022-08-15 02:53,-118.5701,40.0684,1192.43,83.00,15.10,7.83,290.00,7.00,0.00,29.98,1011.20,10.00,M,CLR,M,M,M,M,M,M,M,M,M,M,M,M,M,M,79.59,KLOL 150253Z AUTO 29007KT 10SM CLR 28/M09 A2998 RMK AO2 SLP112 T02831094 55000,M
VGT,2022-08-15 02:53,-115.1933,36.2111,667.00,93.00,61.00,34.57,150.00,8.00,0.00,29.87,1010.20,10.00,M,CLR,M,M,M,M,M,M,M,M,M,M,M,M,M,M,93.20,KVGT 150253Z 15008KT 10SM CLR 34/16 A2987 RMK AO2 SLP102 T03390161 55002,M
DRA,2022-08-15 02:53,-116.0278,36.6206,1009.00,91.00,51.00,25.70,130.00,10.00,0.00,29.94,1008.00,10.00,M,CLR,M,M,M,M,M,M,M,M,M,M,M,M,M,M,88.18,KDRA 150253Z AUTO 13010KT 10SM CLR 33/11 A2994 RMK AO2 SLP080 T03280106 55008,M
CXP,2022-08-15 02:55,-119.7326,39.1923,1431.00,80.60,24.80,12.76,0.00,0.00,0.00,30.09,M,10.00,M,CLR,M,M,M,M,M,M,M,M,M,M,M,M,M,M,78.94,KCXP 150255Z AUTO 00000KT 10SM CLR 27/M04 A3009 RMK AO2,M
BVU,2022-08-15 02:55,-114.8611,35.9475,671.00,87.80,62.60,43.07,170.00,6.00,0.00,29.91,M,M,M,M,M,M,M,M,M,M,M,M,M,M,M,M,M,M,88.48,KBVU 150255Z AUTO 17006KT 31/17 A2991 RMK AO2 PWINO TSNO,M
TMT,2022-08-15 02:55,-117.1971,39.4643,1749.34,M,M,M,0.00,0.00,0.00,30.15,M,10.00,M,CLR,M,M,M,M,M,M,M,M,M,M,M,M,M,M,M,KTMT 150255Z AUTO 00000KT 10SM CLR A3015 RMK AO2,M
RTS,2022-08-15 02:55,-119.8764,39.6682,1539.00,77.00,15.80,9.79,330.00,10.00,0.00,30.13,M,10.00,M,CLR,M,M,M,M,M,M,M,M,M,M,M,M,M,M,77.00,KRTS 150255Z AUTO 33010KT 10SM CLR 25/M09 A3013 RMK AO2,M
MEV,2022-08-15 02:55,-119.7500,38.9963,1441.42,78.80,28.40,15.71,290.00,7.00,0.00,30.08,M,10.00,M,CLR,M,M,M,M,M,M,M,M,M,M,M,M,M,M,78.80,KMEV 150255Z AUTO 29007KT 10SM CLR 26/M02 A3008 RMK AO2,M
BAM,2022-08-15 02:55,-116.8743,40.5990,1382.36,86.00,30.20,13.38,320.00,6.00,0.00,30.04,M,10.00,M,CLR,M,M,M,M,M,M,M,M,M,M,M,M,M,M,82.64,KBAM 150255Z AUTO 32006KT 10SM CLR 30/M01 A3004 RMK AO1,M
RNO,2022-08-15 02:55,-119.7711,39.4839,1341.00,85.00,23.00,10.30,310.00,10.00,0.00,30.06,1012.20,10.00,M,CLR,M,M,M,M,M,M,M,M,M,M,M,M,M,M,81.37,KRNO 150255Z 31010KT 10SM CLR 29/M05 A3006 RMK AO2 SLP122 T02941050 53008,M
HTH,2022-08-15 02:55,-118.6315,38.5448,1282.89,87.80,24.80,10.12,310.00,8.00,0.00,29.99,M,10.00,M,CLR,M,M,M,M,M,M,M,M,M,M,M,M,M,M,83.56,KHTH 150255Z AUTO 31008KT 10SM CLR 31/M04 A2999 RMK A01,M
WMC,2022-08-15 02:56,-117.8072,40.9019,1315.00,82.00,25.00,12.29,320.00,6.00,0.00,30.02,1011.60,10.00,M,CLR,M,M,M,M,M,M,M,M,M,M,M,M,M,M,79.54,KWMC 150256Z AUTO 32006KT 10SM CLR 28/M04 A3002 RMK AO2 SLP116 T02781039 55000 $,M
HND,2022-08-15 02:56,-115.1344,35.9729,742.79,89.00,63.00,41.92,190.00,7.00,0.00,29.93,1012.20,10.00,M,CLR,M,M,M,M,M,M,M,M,M,M,M,M,M,M,89.99,KHND 150256Z 19007KT 10SM CLR 32/17 A2993 RMK AO2 SLP122 T03170172 53001,M
EKO,2022-08-15 02:56,-115.7860,40.8242,1367.00,74.00,46.00,36.98,20.00,6.00,0.00,30.10,1013.90,10.00,M,FEW,M,M,M,12000.00,M,M,M,M,M,M,M,M,M,M,73.90,KEKO 150256Z AUTO 02006KT 10SM FEW120 23/08 A3010 RMK AO2 SLP139 T02330078 50006,M
NFL,2022-08-15 02:56,-118.7010,39.4166,1199.00,86.00,35.00,16.30,40.00,5.00,0.00,29.97,1012.10,10.00,M,CLR,M,M,M,M,M,M,M,M,M,M,M,M,M,M,82.68,KNFL 150256Z 04005KT 10SM CLR 30/02 A2997 RMK AO2 SLP121 T03000017 55003,M
TPH,2022-08-15 02:56,-117.0904,38.0505,1654.00,82.00,46.00,28.30,150.00,12.00,0.00,30.09,1010.70,10.00,M,CLR,M,M,M,M,M,M,M,M,M,M,M,M,M,M,80.36,KTPH 150256Z AUTO 15012KT 10SM CLR 28/08 A3009 RMK AO2 SLP107 T02780078 53000 $,M
LAS,2022-08-15 02:56,-115.1634,36.0719,663.00,91.00,61.00,36.80,180.00,5.00,0.00,29.89,1009.40,10.00,M,FEW,FEW,BKN,M,13000.00,17000.00,22000.00,M,M,M,M,M,M,M,M,91.06,KLAS 150256Z 18005KT 10SM FEW130 FEW170 BKN220 33/16 A2989 RMK AO2 SLP094 T03280161 55001,M
LSV,2022-08-15 02:58,-115.0343,36.2362,570.00,89.60,64.40,43.34,170.00,8.00,0.00,29.86,M,10.00,M,FEW,BKN,M,M,12000.00,15000.00,M,M,M,M,M,M,M,M,M,91.23,KLSV 150258Z 17008KT 10SM FEW120 BKN150 32/18 A2986 RMK SLPNO WND DATA ESTMD $,M
CXP,2022-08-15 03:15,-119.7326,39.1923,1431.00,78.80,24.80,13.54,0.00,0.00,0.00,30.10,M,10.00,M,CLR,M,M,M,M,M,M,M,M,M,M,M,M,M,M,78.80,KCXP 150315Z AUTO 00000KT 10SM CLR 26/M04 A3010 RMK AO2,M
RTS,2022-08-15 03:15,-119.8764,39.6682,1539.00,75.20,15.80,10.40,320.00,9.00,0.00,30.14,M,10.00,M,CLR,M,M,M,M,M,M,M,M,M,M,M,M,M,M,75.20,KRTS 150315Z AUTO 32009KT 10SM CLR 24/M09 A3014 RMK AO2,M
HTH,2022-08-15 03:15,-118.6315,38.5448,1282.89,87.80,24.80,10.12,320.00,9.00,0.00,29.99,M,10.00,M,CLR,M,M,M,M,M,M,M,M,M,M,M,M,M,M,83.56,KHTH 150315Z AUTO 32009KT 10SM CLR 31/M04 A2999 RMK A01,M
MEV,2022-08-15 03:15,-119.7500,38.9963,1441.42,77.00,28.40,16.67,330.00,5.00,0.00,30.09,M,10.00,M,CLR,M,M,M,M,M,M,M,M,M,M,M,M,M,M,77.00,KMEV 150315Z AUTO 33005KT 10SM CLR 25/M02 A3009 RMK AO2,M
BAM,2022-08-15 03:15,-116.8743,40.5990,1382.36,82.40,30.20,15.03,330.00,7.00,0.00,30.04,M,10.00,M,CLR,M,M,M,M,M,M,M,M,M,M,M,M,M,M,79.97,KBAM 150315Z AUTO 33007KT 10SM CLR 28/M01 A3004 RMK AO1,M
BVU,2022-08-15 03:15,-114.8611,35.9475,671.00,87.80,62.60,43.07,170.00,5.00,0.00,29.92,M,M,M,M,M,M,M,M,M,M,M,M,M,M,M,M,M,M,88.48,KBVU 150315Z AUTO 17005KT 31/17 A2992 RMK AO2 PWINO TSNO,M
TMT,2022-08-15 03:15,-117.1971,39.4643,1749.34,M,M,M,130.00,4.00,0.00,30.15,M,10.00,M,CLR,M,M,M,M,M,M,M,M,M,M,M,M,M,M,M,KTMT 150315Z AUTO 13004KT 10SM CLR A3015 RMK AO2,M
BVU,2022-08-15 03:35,-114.8611,35.9475,671.00,87.80,60.80,40.41,100.00,5.00,0.00,29.92,M,M,M,M,M,M,M,M,M,M,M,M,M,M,M,M,M,M,87.75,KBVU 150335Z AUTO 10005KT 31/16 A2992 RMK AO2 PWINO TSNO,M
CXP,2022-08-15 03:35,-119.7326,39.1923,1431.00,78.80,23.00,12.55,340.00,4.00,0.00,30.10,M,10.00,M,CLR,M,M,M,M,M,M,M,M,M,M,M,M,M,M,78.80,KCXP 150335Z AUTO 34004KT 10SM CLR 26/M05 A3010 RMK AO2,M
RTS,2022-08-15 03:35,-119.8764,39.6682,1539.00,75.20,19.40,12.14,300.00,12.00,0.00,30.14,M,10.00,M,CLR,M,M,M,M,M,M,M,M,M,M,M,M,M,M,75.20,KRTS 150335Z AUTO 30012KT 10SM CLR 24/M07 A3014 RMK AO2,M
MEV,2022-08-15 03:35,-119.7500,38.9963,1441.42,78.80,26.60,14.59,M,3.00,0.00,30.10,M,10.00,M,CLR,M,M,M,M,M,M,M,M,M,M,M,M,M,M,78.80,KMEV 150335Z AUTO VRB03KT 10SM CLR 26/M03 A3010 RMK AO2,M
BAM,2022-08-15 03:35,-116.8743,40.5990,1382.36,82.40,30.20,15.03,300.00,8.00,0.00,30.05,M,10.00,M,CLR,M,M,M,M,M,M,M,M,M,M,M,M,M,M,79.97,KBAM 150335Z AUTO 30008KT 10SM CLR 28/M01 A3005 RMK AO1,M
HTH,2022-08-15 03:35,-118.6315,38.5448,1282.89,86.00,28.40,12.44,320.00,10.00,0.00,30.00,M,10.00,M,CLR,M,M,M,M,M,M,M,M,M,M,M,M,M,M,82.54,KHTH 150335Z AUTO 32010KT 10SM CLR 30/M02 A3000 RMK A01,M
TMT,2022-08-15 03:35,-117.1971,39.4643,1749.34,M,M,M,90.00,6.00,0.00,30.16,M,10.00,M,CLR,M,M,M,M,M,M,M,M,M,M,M,M,M,M,M,KTMT 150335Z AUTO 09006KT 10SM CLR A3016 RMK AO2,M
CXP,2022-08-15 03:50,-119.7326,39.1923,1431.00,77.00,23.00,13.32,340.00,5.00,0.00,30.11,M,10.00,M,CLR,M,M,M,M,M,M,M,M,M,M,M,M,M,M,77.00,KCXP 150350Z AUTO 34005KT 10SM CLR 25/M05 A3011 RMK AO2,M
VGT,2022-08-15 03:53,-115.1933,36.2111,667.00,90.00,63.00,40.75,90.00,18.00,0.00,29.92,1012.00,10.00,32.00,SCT,M,M,M,11000.00,M,M,M,M,M,M,M,32.00,60.00,2022-08-15 03:44,90.93,KVGT 150353Z 09018G32KT 10SM SCT110 32/17 A2992 RMK AO2 PK WND 06032/0344 SLP120 T03220172,M
DRA,2022-08-15 03:53,-116.0278,36.6206,1009.00,87.00,52.00,30.05,30.00,15.00,0.00,29.96,1009.00,10.00,M,CLR,M,M,M,M,M,M,M,M,M,M,M,M,M,M,84.82,KDRA 150353Z AUTO 03015KT 10SM CLR 31/11 A2996 RMK AO2 SLP090 T03060111,M
P68,2022-08-15 03:53,-116.0056,39.6014,1993.00,71.00,45.00,39.13,190.00,7.00,0.00,30.18,1013.20,M,M,M,M,M,M,M,M,M,M,M,M,M,M,M,M,M,71.10,KP68 150353Z AUTO 19007KT 22/07 A3018 RMK AO1 SLP132 T02170072,M
ELY,2022-08-15 03:53,-114.8453,39.2950,1909.00,63.00,50.00,62.49,290.00,4.00,0.00,30.25,1015.50,10.00,M,CLR,M,M,M,M,M,M,M,M,M,M,M,M,M,M,63.00,KELY 150353Z AUTO 29004KT 10SM CLR 17/10 A3025 RMK AO2 SLP155 T01720100 $,M
LOL,2022-08-15 03:53,-118.5701,40.0684,1192.43,78.00,17.10,9.99,320.00,7.00,0.00,29.99,1011.30,10.00,M,CLR,M,M,M,M,M,M,M,M,M,M,M,M,M,M,78.10,KLOL 150353Z AUTO 32007KT 10SM CLR 26/M08 A2999 RMK AO2 SLP113 T02561083,M
BVU,2022-08-15 03:55,-114.8611,35.9475,671.00,86.00,62.60,45.61,50.00,14.00,0.00,29.96,M,M,22.00,M,M,M,M,M,M,M,M,M,M,M,M,M,M,M,86.72,KBVU 150355Z AUTO 05014G22KT 30/17 A2996 RMK AO2 PWINO TSNO,M
MEV,2022-08-15 03:55,-119.7500,38.9963,1441.42,75.20,28.40,17.70,250.00,4.00,0.00,30.10,M,10.00,M,CLR,M,M,M,M,M,M,M,M,M,M,M,M,M,M,75.20,KMEV 150355Z AUTO 25004KT 10SM CLR 24/M02 A3010 RMK AO2,M
BAM,2022-08-15 03:55,-116.8743,40.5990,1382.36,80.60,28.40,14.81,320.00,6.00,0.00,30.05,M,10.00,M,CLR,M,M,M,M,M,M,M,M,M,M,M,M,M,M,78.72,KBAM 150355Z AUTO 32006KT 10SM CLR 27/M02 A3005 RMK AO1,M
RNO,2022-08-15 03:55,-119.7711,39.4839,1341.00,83.00,23.00,10.98,310.00,10.00,0.00,30.08,1012.60,10.00,20.00,CLR,M,M,M,M,M,M,M,M,M,M,M,26.00,360.00,2022-08-15 03:20,80.00,KRNO 150355Z 31010G20KT 10SM CLR 28/M05 A3008 RMK AO2 PK WND 36026/0320 SLP126 T02831050,M
INS,2022-08-15 03:55,-115.6733,36.5872,955.00,89.60,51.80,27.56,70.00,7.00,0.00,29.97,1009.60,10.00,M,OVC,M,M,M,14000.00,M,M,M,M,M,M,M,M,M,M,87.00,KINS 150355Z 07007KT 10SM OVC140 32/11 A2997 RMK SLP096,M
HTH,2022-08-15 03:55,-118.6315,38.5448,1282.89,86.00,33.80,15.48,340.00,11.00,0.00,30.01,M,10.00,M,CLR,M,M,M,M,M,M,M,M,M,M,M,M,M,M,82.66,KHTH 150355Z AUTO 34011KT 10SM CLR 30/01 A3001 RMK A01,M
TMT,2022-08-15 03:55,-117.1971,39.4643,1749.34,M,M,M,90.00,3.00,0.00,30.16,M,10.00,M,CLR,M,M,M,M,M,M,M,M,M,M,M,M,M,M,M,KTMT 150355Z AUTO 09003KT 10SM CLR A3016 RMK AO2,M
RTS,2022-08-15 03:55,-119.8764,39.6682,1539.00,75.20,21.20,13.11,290.00,16.00,0.00,30.14,M,10.00,M,CLR,M,M,M,M,M,M,M,M,M,M,M,M,M,M,75.20,KRTS 150355Z AUTO 29016KT 10SM CLR 24/M06 A3014 RMK AO2,M
WMC,2022-08-15 03:56,-117.8072,40.9019,1315.00,71.00,25.00,17.66,0.00,0.00,0.00,30.04,1012.30,10.00,M,CLR,M,M,M,M,M,M,M,M,M,M,M,M,M,M,71.10,KWMC 150356Z AUTO 00000KT 10SM CLR 22/M04 A3004 RMK AO2 SLP123 T02171039 $,M
EKO,2022-08-15 03:56,-115.7860,40.8242,1367.00,71.00,47.00,42.05,100.00,6.00,0.00,30.13,1014.90,10.00,M,CLR,M,M,M,M,M,M,M,M,M,M,M,M,M,M,71.10,KEKO 150356Z AUTO 10006KT 10SM CLR 22/08 A3013 RMK AO2 SLP149 T02170083,M
LAS,2022-08-15 03:56,-115.1634,36.0719,663.00,90.00,61.00,37.97,90.00,10.00,0.00,29.94,1011.00,10.00,M,FEW,FEW,BKN,M,13000.00,17000.00,22000.00,M,M,M,M,M,M,M,M,90.03,KLAS 150356Z 09010KT 10SM FEW130 FEW170 BKN220 32/16 A2994 RMK AO2 PRESRR SLP110 T03220161,M
HND,2022-08-15 03:56,-115.1344,35.9729,742.79,87.00,62.00,43.27,190.00,5.00,0.00,29.96,1013.10,10.00,M,CLR,M,M,M,M,M,M,M,M,M,M,M,M,M,M,87.58,KHND 150356Z AUTO 19005KT 10SM CLR 31/17 A2996 RMK AO2 SLP131 T03060167,M
NFL,2022-08-15 03:56,-118.7010,39.4166,1199.00,82.00,30.90,15.66,330.00,7.00,0.00,30.00,1012.90,10.00,M,CLR,M,M,M,M,M,M,M,M,M,M,M,M,M,M,79.70,KNFL 150356Z 33007KT 10SM CLR 28/M01 A3000 RMK AO2 SLP129 T02781006,M
TPH,2022-08-15 03:56,-117.0904,38.0505,1654.00,79.00,48.00,33.66,110.00,14.00,0.00,30.14,1012.20,10.00,M,CLR,M,M,M,M,M,M,M,M,M,M,M,M,M,M,79.00,KTPH 150356Z AUTO 11014KT 10SM CLR 26/09 A3014 RMK AO2 LTG DSNT E SLP122 T02610089 $,M
LSV,2022-08-15 03:58,-115.0343,36.2362,570.00,87.80,60.80,40.41,70.00,13.00,0.00,29.95,M,10.00,M,SCT,BKN,M,M,14000.00,16000.00,M,M,M,M,M,M,35.00,90.00,2022-08-15 03:32,87.75,KLSV 150358Z 07013KT 10SM SCT140 BKN160 31/16 A2995 RMK PK WND 09035/0332 SLPN0 WND DATA ESTMD $,M
RTS,2022-08-15 04:10,-119.8764,39.6682,1539.00,73.40,23.00,15.03,260.00,11.00,0.00,30.15,M,10.00,M,CLR,M,M,M,M,M,M,M,M,M,M,M,M,M,M,73.40,KRTS 150410Z AUTO 26011KT 10SM CLR 23/M05 A3015 RMK AO2,M
HTH,2022-08-15 04:15,-118.6315,38.5448,1282.89,84.20,24.80,11.35,340.00,7.00,0.00,30.02,M,10.00,M,CLR,M,M,M,M,M,M,M,M,M,M,M,M,M,M,81.00,KHTH 150415Z AUTO 34007KT 10SM CLR 29/M04 A3002 RMK A01,M
BVU,2022-08-15 04:15,-114.8611,35.9475,671.00,82.40,64.40,54.55,30.00,14.00,0.00,29.96,M,M,25.00,M,M,M,M,M,M,M,M,M,M,M,M,M,M,M,83.98,KBVU 150415Z AUTO 03014G25KT 28/18 A2996 RMK AO2 PWINO TSNO,M
MEV,2022-08-15 04:15,-119.7500,38.9963,1441.42,66.20,30.20,25.88,100.00,6.00,0.00,30.10,M,10.00,M,CLR,M,M,M,M,M,M,M,M,M,M,M,M,M,M,66.20,KMEV 150415Z AUTO 10006KT 10SM CLR 19/M01 A3010 RMK AO2,M
TMT,2022-08-15 04:15,-117.1971,39.4643,1749.34,M,M,M,0.00,0.00,0.00,30.17,M,10.00,M,CLR,M,M,M,M,M,M,M,M,M,M,M,M,M,M,M,KTMT 150415Z AUTO 00000KT 10SM CLR A3017 RMK AO2,M
CXP,2022-08-15 04:15,-119.7326,39.1923,1431.00,75.20,23.00,14.15,360.00,3.00,0.00,30.12,M,10.00,M,CLR,M,M,M,M,M,M,M,M,M,M,M,M,M,M,75.20,KCXP 150415Z AUTO 36003KT 10SM CLR 24/M05 A3012 RMK AO2,M
BAM,2022-08-15 04:15,-116.8743,40.5990,1382.36,78.80,28.40,15.71,300.00,8.00,0.00,30.06,M,10.00,M,CLR,M,M,M,M,M,M,M,M,M,M,M,M,M,M,78.80,KBAM 150415Z AUTO 30008KT 10SM CLR 26/M02 A3006 RMK AO1,M
TMT,2022-08-15 04:35,-117.1971,39.4643,1749.34,M,M,M,0.00,0.00,0.00,30.18,M,10.00,M,CLR,M,M,M,M,M,M,M,M,M,M,M,M,M,M,M,KTMT 150435Z AUTO 00000KT 10SM CLR A3018 RMK AO2,M
BVU,2022-08-15 04:35,-114.8611,35.9475,671.00,82.40,64.40,54.55,40.00,13.00,0.00,29.97,M,M,18.00,M,M,M,M,M,M,M,M,M,M,M,M,M,M,M,83.98,KBVU 150435Z AUTO 04013G18KT 28/18 A2997 RMK AO2 PWINO TSNO,M
CXP,2022-08-15 04:35,-119.7326,39.1923,1431.00,75.20,24.80,15.25,330.00,5.00,0.00,30.12,M,10.00,M,CLR,M,M,M,M,M,M,M,M,M,M,M,M,M,M,75.20,KCXP 150435Z AUTO 33005KT 10SM CLR 24/M04 A3012 RMK AO2,M
RTS,2022-08-15 04:35,-119.8764,39.6682,1539.00,71.60,24.80,17.22,260.00,9.00,0.00,30.16,M,10.00,M,CLR,M,M,M,M,M,M,M,M,M,M,M,M,M,M,71.60,KRTS 150435Z AUTO 26009KT 10SM CLR 22/M04 A3016 RMK AO2,M
MEV,2022-08-15 04:35,-119.7500,38.9963,1441.42,60.80,30.20,31.28,M,3.00,0.00,30.11,M,10.00,M,CLR,M,M,M,M,M,M,M,M,M,M,M,M,M,M,60.80,KMEV 150435Z AUTO VRB03KT 10SM CLR 16/M01 A3011 RMK AO2,M
BAM,2022-08-15 04:35,-116.8743,40.5990,1382.36,78.80,28.40,15.71,40.00,6.00,0.00,30.07,M,10.00,M,CLR,M,M,M,M,M,M,M,M,M,M,M,M,M,M,78.80,KBAM 150435Z AUTO 04006KT 010V090 10SM CLR 26/M02 A3007 RMK AO1,M
HTH,2022-08-15 04:35,-118.6315,38.5448,1282.89,82.40,37.40,20.04,350.00,8.00,0.00,30.03,M,10.00,M,CLR,M,M,M,M,M,M,M,M,M,M,M,M,M,M,80.14,KHTH 150435Z AUTO 35008KT 10SM CLR 28/03 A3003 RMK A01,M
ELY,2022-08-15 04:53,-114.8453,39.2950,1909.00,60.00,52.00,74.57,160.00,7.00,0.00,30.25,1015.30,10.00,M,CLR,M,M,M,M,M,M,M,M,M,M,M,M,M,M,60.10,KELY 150453Z AUTO 16007KT 10SM CLR 16/11 A3025 RMK AO2 SLP153 T01560111 $,M
DRA,2022-08-15 04:53,-116.0278,36.6206,1009.00,87.00,54.00,32.34,40.00,7.00,0.00,29.98,1009.50,10.00,M,BKN,M,M,M,12000.00,M,M,M,M,M,M,M,M,M,M,85.19,KDRA 150453Z AUTO 04007KT 10SM BKN120 31/12 A2998 RMK AO2 SLP095 T03060122,M
P68,2022-08-15 04:53,-116.0056,39.6014,1993.00,70.00,45.00,40.63,190.00,5.00,0.00,30.19,1013.20,M,M,M,M,M,M,M,M,M,M,M,M,M,M,M,M,M,70.00,KP68 150453Z AUTO 19005KT 21/07 A3019 RMK AO1 SLP132 T02110072,M
VGT,2022-08-15 04:53,-115.1933,36.2111,667.00,86.00,60.00,41.74,100.00,11.00,0.00,29.97,1013.50,10.00,M,CLR,M,M,M,M,M,M,M,M,M,M,M,M,M,M,85.81,KVGT 150453Z AUTO 10011KT 10SM CLR 30/16 A2997 RMK AO2 SLP135 T03000156,M
LOL,2022-08-15 04:53,-118.5701,40.0684,1192.43,79.00,15.10,8.89,20.00,7.00,0.00,30.02,1011.70,10.00,M,CLR,M,M,M,M,M,M,M,M,M,M,M,M,M,M,79.00,KLOL 150453Z AUTO 02007KT 10SM CLR 26/M09 A3002 RMK AO2 SLP117 T02611094,M
RNO,2022-08-15 04:55,-119.7711,39.4839,1341.00,79.00,26.10,14.19,310.00,6.00,0.00,30.10,1013.40,10.00,M,CLR,M,M,M,M,M,M,M,M,M,M,M,M,M,M,79.00,KRNO 150455Z 31006KT 10SM CLR 26/M03 A3010 RMK AO2 SLP134 T02611033,M
CXP,2022-08-15 04:55,-119.7326,39.1923,1431.00,75.20,24.80,15.25,340.00,7.00,0.00,30.13,M,10.00,M,CLR,M,M,M,M,M,M,M,M,M,M,M,M,M,M,75.20,KCXP 150455Z AUTO 34007KT 10SM CLR 24/M04 A3013 RMK AO2,M
TMT,2022-08-15 04:55,-117.1971,39.4643,1749.34,M,M,M,140.00,4.00,0.00,30.17,M,10.00,M,CLR,M,M,M,M,M,M,M,M,M,M,M,M,M,M,M,KTMT 150455Z AUTO 14004KT 10SM CLR A3017 RMK AO2,M
BVU,2022-08-15 04:55,-114.8611,35.9475,671.00,82.40,64.40,54.55,90.00,7.00,0.00,29.98,M,M,M,M,M,M,M,M,M,M,M,M,M,M,M,M,M,M,83.98,KBVU 150455Z AUTO 09007KT 28/18 A2998 RMK AO2 PWINO TSNO,M
HTH,2022-08-15 04:55,-118.6315,38.5448,1282.89,84.20,32.00,15.25,340.00,11.00,0.00,30.03,M,10.00,17.00,CLR,M,M,M,M,M,M,M,M,M,M,M,M,M,M,81.28,KHTH 150455Z AUTO 34011G17KT 10SM CLR 29/M00 A3003 RMK A01,M
BAM,2022-08-15 04:55,-116.8743,40.5990,1382.36,75.20,28.40,17.70,30.00,5.00,0.00,30.07,M,10.00,M,CLR,M,M,M,M,M,M,M,M,M,M,M,M,M,M,75.20,KBAM 150455Z AUTO 03005KT 10SM CLR 24/M02 A3007 RMK AO1,M
MEV,2022-08-15 04:55,-119.7500,38.9963,1441.42,60.80,32.00,33.64,120.00,4.00,0.00,30.11,M,10.00,M,CLR,M,M,M,M,M,M,M,M,M,M,M,M,M,M,60.80,KMEV 150455Z AUTO 12004KT 10SM CLR 16/M00 A3011 RMK AO2,M
RTS,2022-08-15 04:55,-119.8764,39.6682,1539.00,69.80,24.80,18.30,10.00,4.00,0.00,30.17,M,10.00,M,CLR,M,M,M,M,M,M,M,M,M,M,M,M,M,M,69.80,KRTS 150455Z AUTO 01004KT 10SM CLR 21/M04 A3017 RMK AO2,M
TPH,2022-08-15 04:56,-117.0904,38.0505,1654.00,75.00,49.00,39.75,100.00,16.00,0.00,30.16,1012.90,10.00,M,CLR,M,M,M,M,M,M,M,M,M,M,M,29.00,90.00,2022-08-15 04:18,75.00,KTPH 150456Z AUTO 10016KT 10SM CLR 24/09 A3016 RMK AO2 PK WND 09029/0418 SLP129 T02390094 $,M
WMC,2022-08-15 04:56,-117.8072,40.9019,1315.00,70.00,23.00,16.86,290.00,7.00,0.00,30.05,1012.60,10.00,M,CLR,M,M,M,M,M,M,M,M,M,M,M,M,M,M,70.00,KWMC 150456Z AUTO 29007KT 10SM CLR 21/M05 A3005 RMK AO2 SLP126 T02111050 $,M
HND,2022-08-15 04:56,-115.1344,35.9729,742.79,83.00,63.00,51.10,60.00,9.00,0.00,30.00,1014.60,10.00,M,CLR,M,M,M,M,M,M,M,M,M,M,M,M,M,M,83.98,KHND 150456Z AUTO 06009KT 10SM CLR 28/17 A3000 RMK AO2 SLP146 T02830172,M
LAS,2022-08-15 04:56,-115.1634,36.0719,663.00,81.00,61.00,50.65,70.00,16.00,0.00,29.98,1012.50,10.00,M,BKN,BKN,M,M,18000.00,22000.00,M,M,M,M,M,M,33.00,80.00,2022-08-15 04:17,81.81,KLAS 150456Z 07016KT 10SM BKN180 BKN220 27/16 A2998 RMK AO2 PK WND 08033/0417 SLP125 T02720161,M
LSV,2022-08-15 04:56,-115.0343,36.2362,570.00,M,M,M,M,M,0.00,M,M,M,M,M,M,M,M,M,M,M,M,M,M,M,M,M,M,M,M,KLSV 150456Z AUTO M M M M M M RMK AO2 SLPNO RVRNO $,M
NFL,2022-08-15 04:56,-118.7010,39.4166,1199.00,76.00,30.90,19.14,290.00,6.00,0.00,30.01,1013.40,10.00,M,CLR,M,M,M,M,M,M,M,M,M,M,M,M,M,M,75.90,KNFL 150456Z AUTO 29006KT 10SM CLR 24/M01 A3001 RMK AO2 SLP134 T02441006,M
INS,2022-08-15 04:56,-115.6733,36.5872,955.00,86.00,56.70,36.95,120.00,12.00,0.00,29.98,1009.90,10.00,20.00,SCT,M,M,M,13000.00,M,M,M,M,M,M,M,26.00,120.00,2022-08-15 04:35,84.85,KINS 150456Z AUTO 12012G20KT 10SM SCT130 30/14 A2998 RMK AO2 PK WND 12026/35 SLP099 T03000137,M
EKO,2022-08-15 04:56,-115.7860,40.8242,1367.00,66.00,47.00,50.10,100.00,7.00,0.00,30.13,1014.80,10.00,M,CLR,M,M,M,M,M,M,M,M,M,M,M,M,M,M,66.00,KEKO 150456Z AUTO 10007KT 10SM CLR 19/08 A3013 RMK AO2 SLP148 T01890083,M
LSV,2022-08-15 04:58,-115.0343,36.2362,570.00,86.00,57.20,37.62,100.00,9.00,0.00,29.97,M,10.00,M,SCT,BKN,M,M,15000.00,20000.00,M,M,M,M,M,M,M,M,M,84.97,KLSV 150458Z COR 10009KT 10SM SCT150 BKN200 30/14 A2997 RMK AO2A SLPNO WND DATA ESTMD $ COR 0518,M
BVU,2022-08-15 05:15,-114.8611,35.9475,671.00,82.40,62.60,51.21,110.00,13.00,0.00,29.98,M,M,19.00,M,M,M,M,M,M,M,M,M,M,M,M,M,M,M,83.41,KBVU 150515Z AUTO 11013G19KT 28/17 A2998 RMK AO2 PWINO TSNO,M
BAM,2022-08-15 05:15,-116.8743,40.5990,1382.36,73.40,32.00,21.76,70.00,5.00,0.00,30.07,M,10.00,M,CLR,M,M,M,M,M,M,M,M,M,M,M,M,M,M,73.40,KBAM 150515Z AUTO 07005KT 10SM CLR 23/00 A3007 RMK AO1,M
TMT,2022-08-15 05:15,-117.1971,39.4643,1749.34,M,M,M,340.00,4.00,0.00,30.17,M,10.00,M,CLR,M,M,M,M,M,M,M,M,M,M,M,M,M,M,M,KTMT 150515Z AUTO 34004KT 10SM CLR A3017 RMK AO2,M
CXP,2022-08-15 05:15,-119.7326,39.1923,1431.00,75.20,24.80,15.25,0.00,0.00,0.00,30.13,M,10.00,M,CLR,M,M,M,M,M,M,M,M,M,M,M,M,M,M,75.20,KCXP 150515Z AUTO 00000KT 10SM CLR 24/M04 A3013 RMK AO2,M
RTS,2022-08-15 05:15,-119.8764,39.6682,1539.00,71.60,24.80,17.22,0.00,0.00,0.00,30.17,M,10.00,M,CLR,M,M,M,M,M,M,M,M,M,M,M,M,M,M,71.60,KRTS 150515Z AUTO 00000KT 10SM CLR 22/M04 A3017 RMK AO2,M
MEV,2022-08-15 05:15,-119.7500,38.9963,1441.42,60.80,32.00,33.64,30.00,4.00,0.00,30.11,M,10.00,M,CLR,M,M,M,M,M,M,M,M,M,M,M,M,M,M,60.80,KMEV 150515Z AUTO 03004KT 10SM CLR 16/00 A3011 RMK AO2,M
HTH,2022-08-15 05:15,-118.6315,38.5448,1282.89,84.20,23.00,10.53,360.00,15.00,0.00,30.04,M,10.00,M,CLR,M,M,M,M,M,M,M,M,M,M,M,M,M,M,80.88,KHTH 150515Z AUTO 36015KT 10SM CLR 29/M05 A3004 RMK A01,M
BVU,2022-08-15 05:35,-114.8611,35.9475,671.00,78.80,64.40,61.36,140.00,8.00,0.00,29.99,M,M,M,M,M,M,M,M,M,M,M,M,M,M,M,M,M,M,78.80,KBVU 150535Z AUTO 14008KT 26/18 A2999 RMK AO2 PWINO TSNO,M
RTS,2022-08-15 05:35,-119.8764,39.6682,1539.00,68.00,24.80,19.47,310.00,6.00,0.00,30.17,M,10.00,M,CLR,M,M,M,M,M,M,M,M,M,M,M,M,M,M,68.00,KRTS 150535Z AUTO 31006KT 10SM CLR 20/M04 A3017 RMK AO2,M
HTH,2022-08-15 05:35,-118.6315,38.5448,1282.89,84.20,19.40,9.04,360.00,17.00,0.00,30.04,M,10.00,M,CLR,M,M,M,M,M,M,M,M,M,M,M,M,M,M,80.68,KHTH 150535Z AUTO 36017KT 10SM CLR 29/M07 A3004 RMK A01,M
CXP,2022-08-15 05:35,-119.7326,39.1923,1431.00,73.40,24.80,16.20,0.00,0.00,0.00,30.14,M,10.00,M,CLR,M,M,M,M,M,M,M,M,M,M,M,M,M,M,73.40,KCXP 150535Z AUTO 00000KT 10SM CLR 23/M04 A3014 RMK AO2,M
MEV,2022-08-15 05:35,-119.7500,38.9963,1441.42,60.80,30.20,31.28,0.00,0.00,0.00,30.12,M,10.00,M,CLR,M,M,M,M,M,M,M,M,M,M,M,M,M,M,60.80,KMEV 150535Z AUTO 00000KT 10SM CLR 16/M01 A3012 RMK AO2,M
TMT,2022-08-15 05:35,-117.1971,39.4643,1749.34,M,M,M,310.00,6.00,0.00,30.18,M,10.00,M,CLR,M,M,M,M,M,M,M,M,M,M,M,M,M,M,M,KTMT 150535Z AUTO 31006KT 10SM CLR A3018 RMK AO2,M
BAM,2022-08-15 05:35,-116.8743,40.5990,1382.36,68.00,28.40,22.59,260.00,3.00,0.00,30.08,M,10.00,M,CLR,M,M,M,M,M,M,M,M,M,M,M,M,M,M,68.00,KBAM 150535Z AUTO 26003KT 10SM CLR 20/M02 A3008 RMK AO1,M
ELY,2022-08-15 05:53,-114.8453,39.2950,1909.00,59.00,52.00,77.55,0.00,0.00,0.00,30.26,1015.00,10.00,M,CLR,M,M,M,M,M,M,M,M,M,M,M,M,M,M,59.00,KELY 150553Z AUTO 00000KT 10SM CLR 15/11 A3026 RMK AO2 SLP150 T01500111 10261 20144 51002 $,M
VGT,2022-08-15 05:53,-115.1933,36.2111,667.00,85.00,60.00,43.24,110.00,4.00,0.00,29.98,1014.00,10.00,M,CLR,M,M,M,M,M,M,M,M,M,M,M,M,M,M,84.83,KVGT 150553Z AUTO 11004KT 10SM CLR 29/16 A2998 RMK AO2 SLP140 T02940156 10361 20294 51034,M
DRA,2022-08-15 05:53,-116.0278,36.6206,1009.00,86.00,53.00,32.41,0.00,0.00,0.00,29.98,1009.30,10.00,M,CLR,M,M,M,M,M,M,M,M,M,M,M,M,M,M,84.09,KDRA 150553Z AUTO 00000KT 10SM CLR 30/12 A2998 RMK AO2 SLP093 T03000117 10350 20300 50013,M
P68,2022-08-15 05:53,-116.0056,39.6014,1993.00,68.00,45.00,43.51,180.00,5.00,0.00,30.20,1013.50,M,M,M,M,M,M,M,M,M,M,M,M,M,M,M,M,M,68.00,KP68 150553Z AUTO 18005KT 20/07 A3020 RMK AO1 SLP135 T02000072 10278 20189 51010,M
LOL,2022-08-15 05:53,-118.5701,40.0684,1192.43,73.00,16.00,11.29,40.00,8.00,0.00,30.02,1012.00,10.00,M,CLR,M,M,M,M,M,M,M,M,M,M,M,M,M,M,73.00,KLOL 150553Z AUTO 04008KT 10SM CLR 23/M09 A3002 RMK AO2 SLP120 T02281089 10367 20211 51013,M
MEV,2022-08-15 05:55,-119.7500,38.9963,1441.42,59.00,33.80,38.56,50.00,4.00,0.00,30.12,M,10.00,M,CLR,M,M,M,M,M,M,M,M,M,M,M,M,M,M,59.00,KMEV 150555Z AUTO 05004KT 10SM CLR 15/01 A3012 RMK AO2,M
RTS,2022-08-15 05:55,-119.8764,39.6682,1539.00,66.20,24.80,20.72,320.00,8.00,0.00,30.17,M,10.00,M,CLR,M,M,M,M,M,M,M,M,M,M,M,M,M,M,66.20,KRTS 150555Z AUTO 32008KT 10SM CLR 19/M04 A3017 RMK AO2,M
BVU,2022-08-15 05:55,-114.8611,35.9475,671.00,78.80,64.40,61.36,180.00,6.00,0.00,30.00,M,M,M,M,M,M,M,M,M,M,M,M,M,M,M,M,M,M,78.80,KBVU 150555Z AUTO 18006KT 26/18 A3000 RMK AO2 PWINO TSNO,M
BAM,2022-08-15 05:55,-116.8743,40.5990,1382.36,71.60,33.80,24.86,340.00,6.00,0.00,30.08,M,10.00,M,CLR,M,M,M,M,M,M,M,M,M,M,M,M,M,M,71.60,KBAM 150555Z AUTO 34006KT 10SM CLR 22/01 A3008 RMK AO1,M
RNO,2022-08-15 05:55,-119.7711,39.4839,1341.00,76.00,28.90,17.65,M,3.00,0.00,30.11,1013.60,10.00,M,CLR,M,M,M,M,M,M,M,M,M,M,M,M,M,M,75.90,KRNO 150555Z VRB03KT 10SM CLR 24/M02 A3011 RMK AO2 SLP136 T02441017 10350 20244 51016,M
CXP,2022-08-15 05:55,-119.7326,39.1923,1431.00,75.20,24.80,15.25,M,4.00,0.00,30.14,M,10.00,M,CLR,M,M,M,M,M,M,M,M,M,M,M,M,M,M,75.20,KCXP 150555Z AUTO VRB04KT 10SM CLR 24/M04 A3014 RMK AO2,M
TMT,2022-08-15 05:55,-117.1971,39.4643,1749.34,64.20,44.00,47.97,290.00,4.00,0.00,30.18,M,10.00,M,CLR,M,M,M,M,M,M,M,M,M,M,M,M,M,M,64.20,KTMT 150555Z AUTO 29004KT 10SM CLR 18/07 A3018 RMK AO2 T01790067,M
HTH,2022-08-15 05:55,-118.6315,38.5448,1282.89,84.20,17.60,8.37,10.00,15.00,0.00,30.05,M,10.00,M,CLR,M,M,M,M,M,M,M,M,M,M,M,M,M,M,80.59,KHTH 150555Z AUTO 01015KT 10SM CLR 29/M08 A3005 RMK A01,M
NFL,2022-08-15 05:56,-118.7010,39.4166,1199.00,75.00,25.00,15.48,M,5.00,0.00,30.03,1013.70,10.00,M,CLR,M,M,M,M,M,M,M,M,M,M,M,M,M,M,75.00,KNFL 150556Z AUTO VRB05KT 10SM CLR 24/M04 A3003 RMK AO2 SLP137 T02391039 10361 20239 51017,M
INS,2022-08-15 05:56,-115.6733,36.5872,955.00,82.60,57.70,42.74,100.00,18.00,0.00,29.98,1009.90,10.00,M,CLR,M,M,M,M,M,M,M,M,M,M,M,26.00,130.00,2022-08-15 05:09,82.33,KINS 150556Z AUTO 10018KT 10SM CLR 28/14 A2998 RMK AO2 PK WND 13026/09 SLP099 T02810143 10353 20281 50016,M
LSV,2022-08-15 05:56,-115.0343,36.2362,570.00,M,M,M,M,M,0.00,M,M,M,M,M,M,M,M,M,M,M,M,M,M,M,M,M,M,M,M,KLSV 150556Z AUTO M M M M M M RMK AO2 SLPNO 10362 20342 RVRNO $,M
HND,2022-08-15 05:56,-115.1344,35.9729,742.79,83.00,63.00,51.10,0.00,0.00,0.00,30.02,1015.00,10.00,M,CLR,M,M,M,M,M,M,M,M,M,M,M,M,M,M,83.98,KHND 150556Z AUTO 00000KT 10SM CLR 28/17 A3002 RMK AO2 SLP150 T02830172 10339 20278 51027,M
WMC,2022-08-15 05:56,-117.8072,40.9019,1315.00,64.00,25.00,22.56,100.00,3.00,0.00,30.05,1012.60,10.00,M,CLR,M,M,M,M,M,M,M,M,M,M,M,M,M,M,64.00,KWMC 150556Z AUTO 10003KT 10SM CLR 18/M04 A3005 RMK AO2 SLP126 T01781039 10361 20178 50010 $,M
EKO,2022-08-15 05:56,-115.7860,40.8242,1367.00,64.00,47.00,53.72,100.00,4.00,0.00,30.13,1014.80,10.00,M,CLR,M,M,M,M,M,M,M,M,M,M,M,M,M,M,64.00,KEKO 150556Z AUTO 10004KT 10SM CLR 18/08 A3013 RMK AO2 SLP148 T01780083 10283 20172 51010,M
TPH,2022-08-15 05:56,-117.0904,38.0505,1654.00,73.00,49.00,42.51,110.00,12.00,0.00,30.16,1012.90,10.00,M,CLR,M,M,M,M,M,M,M,M,M,M,M,M,M,M,73.00,KTPH 150556Z AUTO 11012KT 10SM CLR 23/09 A3016 RMK AO2 SLP129 T02280094 10333 20228 51020 $,M
LAS,2022-08-15 05:56,-115.1634,36.0719,663.00,81.00,62.00,52.66,20.00,6.00,0.00,29.99,1012.80,10.00,M,BKN,BKN,M,M,15000.00,22000.00,M,M,M,M,M,M,M,M,M,82.06,KLAS 150556Z 02006KT 10SM BKN150 BKN220 27/17 A2999 RMK AO2 SLP128 T02720167 10344 20272 51031,M
LSV,2022-08-15 05:58,-115.0343,36.2362,570.00,84.20,55.40,37.35,100.00,8.00,0.00,29.96,M,10.00,M,SCT,BKN,M,M,17000.00,22000.00,M,M,M,M,M,M,M,M,M,83.09,KLSV 150558Z 10008KT 10SM SCT170 BKN220 29/13 A2996 RMK SLPNO WND DATA ESTMD $,M
BVU,2022-08-15 06:15,-114.8611,35.9475,671.00,80.60,62.60,54.30,120.00,4.00,0.00,30.01,M,M,M,M,M,M,M,M,M,M,M,M,M,M,M,M,M,M,81.84,KBVU 150615Z AUTO 12004KT 27/17 A3001 RMK AO2 PWINO TSNO,M
HTH,2022-08-15 06:15,-118.6315,38.5448,1282.89,82.40,26.60,12.97,M,3.00,0.00,30.07,M,10.00,13.00,CLR,M,M,M,M,M,M,M,M,M,M,M,M,M,M,79.92,KHTH 150615Z AUTO VRB03G13KT 10SM CLR 28/M03 A3007 RMK A01,M
RTS,2022-08-15 06:15,-119.8764,39.6682,1539.00,66.20,24.80,20.72,290.00,9.00,0.00,30.17,M,10.00,M,CLR,M,M,M,M,M,M,M,M,M,M,M,M,M,M,66.20,KRTS 150615Z AUTO 29009KT 10SM CLR 19/M04 A3017 RMK AO2,M
BAM,2022-08-15 06:15,-116.8743,40.5990,1382.36,69.80,35.60,28.39,360.00,6.00,0.00,30.08,M,10.00,M,CLR,M,M,M,M,M,M,M,M,M,M,M,M,M,M,69.80,KBAM 150615Z AUTO 36006KT 10SM CLR 21/02 A3008 RMK AO1,M
CXP,2022-08-15 06:15,-119.7326,39.1923,1431.00,71.60,24.80,17.22,0.00,0.00,0.00,30.14,M,10.00,M,CLR,M,M,M,M,M,M,M,M,M,M,M,M,M,M,71.60,KCXP 150615Z AUTO 00000KT 10SM CLR 22/M04 A3014 RMK AO2,M
MEV,2022-08-15 06:15,-119.7500,38.9963,1441.42,55.40,32.00,40.84,0.00,0.00,0.00,30.13,M,10.00,M,CLR,M,M,M,M,M,M,M,M,M,M,M,M,M,M,55.40,KMEV 150615Z AUTO 00000KT 10SM CLR 13/00 A3013 RMK AO2,M
TMT,2022-08-15 06:15,-117.1971,39.4643,1749.34,60.80,43.70,53.26,310.00,7.00,0.00,30.18,M,10.00,M,CLR,M,M,M,M,M,M,M,M,M,M,M,M,M,M,60.80,KTMT 150615Z AUTO 31007KT 10SM CLR 16/07 A3018 RMK AO2 T01600065,M
RTS,2022-08-15 06:35,-119.8764,39.6682,1539.00,64.40,23.00,20.46,320.00,5.00,0.00,30.17,M,10.00,10.00,CLR,M,M,M,M,M,M,M,M,M,M,M,M,M,M,64.40,KRTS 150635Z AUTO 32005G10KT 10SM CLR 18/M05 A3017 RMK AO2,M
CXP,2022-08-15 06:35,-119.7326,39.1923,1431.00,69.80,24.80,18.30,350.00,3.00,0.00,30.14,M,10.00,M,CLR,M,M,M,M,M,M,M,M,M,M,M,M,M,M,69.80,KCXP 150635Z AUTO 35003KT 10SM CLR 21/M04 A3014 RMK AO2,M
BAM,2022-08-15 06:35,-116.8743,40.5990,1382.36,73.40,41.00,31.05,40.00,8.00,0.00,30.08,M,10.00,M,CLR,M,M,M,M,M,M,M,M,M,M,M,M,M,M,73.40,KBAM 150635Z AUTO 04008KT 10SM CLR 23/05 A3008 RMK AO1,M
TMT,2022-08-15 06:35,-117.1971,39.4643,1749.34,61.50,43.00,50.58,320.00,6.00,0.00,30.18,M,10.00,M,CLR,M,M,M,M,M,M,M,M,M,M,M,M,M,M,61.50,KTMT 150635Z AUTO 32006KT 10SM CLR 16/06 A3018 RMK AO2 T01640061,M
MEV,2022-08-15 06:35,-119.7500,38.9963,1441.42,55.40,33.80,43.90,200.00,4.00,0.00,30.14,M,10.00,M,CLR,M,M,M,M,M,M,M,M,M,M,M,M,M,M,55.40,KMEV 150635Z AUTO 20004KT 10SM CLR 13/01 A3014 RMK AO2,M
HTH,2022-08-15 06:35,-118.6315,38.5448,1282.89,80.60,30.20,15.94,0.00,0.00,0.00,30.08,M,10.00,M,CLR,M,M,M,M,M,M,M,M,M,M,M,M,M,M,78.77,KHTH 150635Z AUTO 00000KT 10SM CLR 27/M01 A3008 RMK A01,M
BVU,2022-08-15 06:35,-114.8611,35.9475,671.00,80.60,62.60,54.30,0.00,0.00,0.00,30.01,M,M,M,M,M,M,M,M,M,M,M,M,M,M,M,M,M,M,81.84,KBVU 150635Z AUTO 00000KT 27/17 A3001 RMK AO2 PWINO TSNO,M
P68,2022-08-15 06:53,-116.0056,39.6014,1993.00,68.00,45.00,43.51,160.00,10.00,0.00,30.20,1013.40,M,M,M,M,M,M,M,M,M,M,M,M,M,M,M,M,M,68.00,KP68 150653Z AUTO 16010KT 20/07 A3020 RMK AO1 SLP134 T02000072,M
LOL,2022-08-15 06:53,-118.5701,40.0684,1192.43,76.00,10.90,8.19,30.00,6.00,0.00,30.03,1011.80,10.00,M,CLR,M,M,M,M,M,M,M,M,M,M,M,M,M,M,75.90,KLOL 150653Z AUTO 03006KT 10SM CLR 24/M12 A3003 RMK AO2 SLP118 T02441117,M
VGT,2022-08-15 06:53,-115.1933,36.2111,667.00,84.00,62.00,47.78,180.00,6.00,0.00,29.97,1013.80,10.00,M,CLR,M,M,M,M,M,M,M,M,M,M,M,M,M,M,84.67,KVGT 150653Z AUTO 18006KT 10SM CLR 29/17 A2997 RMK AO2 SLP138 T02890167,M
ELY,2022-08-15 06:53,-114.8453,39.2950,1909.00,59.00,51.00,75.02,0.00,0.00,0.00,30.26,1014.60,10.00,M,CLR,M,M,M,M,M,M,M,M,M,M,M,M,M,M,59.00,KELY 150653Z AUTO 00000KT 10SM CLR 15/11 A3026 RMK AO2 SLP146 T01500106 402890106 $,M
DRA,2022-08-15 06:53,-116.0278,36.6206,1009.00,81.00,55.00,40.83,200.00,3.00,0.00,30.00,1010.10,10.00,M,CLR,M,M,M,M,M,M,M,M,M,M,M,M,M,M,80.73,KDRA 150653Z AUTO 20003KT 10SM CLR 27/13 A3000 RMK AO2 SLP101 T02720128,M
BAM,2022-08-15 06:55,-116.8743,40.5990,1382.36,71.60,42.80,35.37,60.00,4.00,0.00,30.08,M,10.00,M,CLR,M,M,M,M,M,M,M,M,M,M,M,M,M,M,71.60,KBAM 150655Z AUTO 06004KT 10SM CLR 22/06 A3008 RMK AO1,M
BVU,2022-08-15 06:55,-114.8611,35.9475,671.00,78.80,64.40,61.36,0.00,0.00,0.00,30.00,M,M,M,M,M,M,M,M,M,M,M,M,M,M,M,M,M,M,78.80,KBVU 150655Z AUTO 00000KT 26/18 A3000 RMK AO2 PWINO TSNO,M
TMT,2022-08-15 06:55,-117.1971,39.4643,1749.34,M,M,M,260.00,3.00,0.00,30.18,M,10.00,M,CLR,M,M,M,M,M,M,M,M,M,M,M,M,M,M,M,KTMT 150655Z AUTO 26003KT 10SM CLR A3018 RMK AO2,M
HTH,2022-08-15 06:55,-118.6315,38.5448,1282.89,78.80,28.40,15.71,0.00,0.00,0.00,30.09,M,10.00,M,M,M,M,M,M,M,M,M,M,M,M,M,M,M,M,78.80,KHTH 150655Z AUTO 00000KT 10SM 26/M02 A3009 RMK A01,M
MEV,2022-08-15 06:55,-119.7500,38.9963,1441.42,51.80,30.20,43.32,170.00,6.00,0.00,30.14,M,10.00,M,CLR,M,M,M,M,M,M,M,M,M,M,M,M,M,M,51.80,KMEV 150655Z AUTO 17006KT 10SM CLR 11/M01 A3014 RMK AO2,M
RTS,2022-08-15 06:55,-119.8764,39.6682,1539.00,59.00,23.00,24.76,330.00,8.00,0.00,30.17,M,10.00,M,CLR,M,M,M,M,M,M,M,M,M,M,M,M,M,M,59.00,KRTS 150655Z AUTO 33008KT 10SM CLR 15/M05 A3017 RMK AO2,M
RNO,2022-08-15 06:55,-119.7711,39.4839,1341.00,73.00,30.00,20.34,290.00,4.00,0.00,30.12,1013.70,10.00,M,CLR,M,M,M,M,M,M,M,M,M,M,M,M,M,M,73.00,KRNO 150655Z 29004KT 10SM CLR 23/M01 A3012 RMK AO2 SLP137 T02281011,M
CXP,2022-08-15 06:55,-119.7326,39.1923,1431.00,71.60,23.00,15.97,350.00,5.00,0.00,30.14,M,10.00,M,CLR,M,M,M,M,M,M,M,M,M,M,M,M,M,M,71.60,KCXP 150655Z AUTO 35005KT 10SM CLR 22/M05 A3014 RMK AO2,M
INS,2022-08-15 06:56,-115.6733,36.5872,955.00,82.60,57.70,42.74,140.00,18.00,0.00,29.99,1010.20,10.00,M,FEW,M,M,M,16000.00,M,M,M,M,M,M,M,26.00,110.00,2022-08-15 06:15,82.33,KINS 150656Z AUTO 14018KT 10SM FEW160 28/14 A2999 RMK AO2 PK WND 11026/15 SLP102 T02810143,M
LAS,2022-08-15 06:56,-115.1634,36.0719,663.00,81.00,62.00,52.66,100.00,5.00,0.00,29.99,1012.80,10.00,M,SCT,BKN,M,M,15000.00,22000.00,M,M,M,M,M,M,M,M,M,82.06,KLAS 150656Z 10005KT 10SM SCT150 BKN220 27/17 A2999 RMK AO2 SLP128 T02720167,M
HND,2022-08-15 06:56,-115.1344,35.9729,742.79,80.00,64.00,57.98,260.00,5.00,0.00,30.03,1015.50,10.00,M,CLR,M,M,M,M,M,M,M,M,M,M,M,M,M,M,81.71,KHND 150656Z AUTO 26005KT 10SM CLR 27/18 A3003 RMK AO2 SLP155 T02670178 403440250,M
TPH,2022-08-15 06:56,-117.0904,38.0505,1654.00,72.00,49.00,43.97,190.00,6.00,0.00,30.18,1013.20,10.00,M,CLR,M,M,M,M,M,M,M,M,M,M,M,M,M,M,72.00,KTPH 150656Z AUTO 19006KT 10SM CLR 22/09 A3018 RMK AO2 SLP132 T02220094 $,M
WMC,2022-08-15 06:56,-117.8072,40.9019,1315.00,60.00,25.00,25.89,M,4.00,0.00,30.06,1012.90,10.00,M,M,M,M,M,M,M,M,M,M,M,M,M,M,M,M,60.10,KWMC 150656Z AUTO VRB04KT 10SM 16/M04 A3006 RMK AO2 SLP129 T01561039 $,M
LSV,2022-08-15 06:56,-115.0343,36.2362,570.00,M,M,M,M,M,0.00,M,M,M,M,M,M,M,M,M,M,M,M,M,M,M,M,M,M,M,M,KLSV 150656Z AUTO M M M M M M RMK AO2 SLPNO RVRNO $,M
EKO,2022-08-15 06:56,-115.7860,40.8242,1367.00,63.00,47.00,55.64,90.00,4.00,0.00,30.14,1015.10,10.00,M,CLR,M,M,M,M,M,M,M,M,M,M,M,M,M,M,63.00,KEKO 150656Z AUTO 09004KT 10SM CLR 17/08 A3014 RMK AO2 SLP151 T01720083,M
NFL,2022-08-15 06:56,-118.7010,39.4166,1199.00,71.00,32.00,23.52,280.00,5.00,0.00,30.04,1014.30,10.00,M,CLR,M,M,M,M,M,M,M,M,M,M,M,M,M,M,71.10,KNFL 150656Z AUTO 28005KT 10SM CLR 22/00 A3004 RMK AO2 SLP143 T02170000,M
LSV,2022-08-15 06:58,-115.0343,36.2362,570.00,82.40,59.00,45.07,0.00,0.00,0.00,29.97,M,10.00,M,SCT,BKN,M,M,15000.00,20000.00,M,M,M,M,M,M,M,M,M,82.46,KLSV 150658Z 00000KT 10SM SCT150 BKN200 28/15 A2997 RMK SLPNO WND DATA ESTMD $,M
BVU,2022-08-15 07:15,-114.8611,35.9475,671.00,78.80,66.20,65.33,240.00,8.00,0.00,29.97,M,M,M,M,M,M,M,M,M,M,M,M,M,M,M,M,M,M,78.80,KBVU 150715Z AUTO 24008KT 26/19 A2997 RMK AO2 PWINO TSNO,M
CXP,2022-08-15 07:15,-119.7326,39.1923,1431.00,68.00,24.80,19.47,180.00,3.00,0.00,30.14,M,10.00,M,CLR,M,M,M,M,M,M,M,M,M,M,M,M,M,M,68.00,KCXP 150715Z AUTO 18003KT 10SM CLR 20/M04 A3014 RMK AO2,M
BAM,2022-08-15 07:15,-116.8743,40.5990,1382.36,66.20,39.20,37.03,90.00,7.00,0.00,30.08,M,10.00,M,CLR,M,M,M,M,M,M,M,M,M,M,M,M,M,M,66.20,KBAM 150715Z AUTO 09007KT 10SM CLR 19/04 A3008 RMK AO1,M
MEV,2022-08-15 07:15,-119.7500,38.9963,1441.42,53.60,32.00,43.61,130.00,6.00,0.00,30.14,M,10.00,M,CLR,M,M,M,M,M,M,M,M,M,M,M,M,M,M,53.60,KMEV 150715Z AUTO 13006KT 10SM CLR 12/M00 A3014 RMK AO2,M
RTS,2022-08-15 07:15,-119.8764,39.6682,1539.00,59.00,23.00,24.76,340.00,7.00,0.00,30.17,M,10.00,M,CLR,M,M,M,M,M,M,M,M,M,M,M,M,M,M,59.00,KRTS 150715Z AUTO 34007KT 10SM CLR 15/M05 A3017 RMK AO2,M
HTH,2022-08-15 07:15,-118.6315,38.5448,1282.89,80.60,23.00,11.83,250.00,6.00,0.00,30.09,M,10.00,M,CLR,M,M,M,M,M,M,M,M,M,M,M,M,M,M,78.80,KHTH 150715Z AUTO 25006KT 10SM CLR 27/M05 A3009 RMK A01,M
TMT,2022-08-15 07:15,-117.1971,39.4643,1749.34,57.20,42.30,57.41,140.00,4.00,0.00,30.18,M,10.00,M,CLR,M,M,M,M,M,M,M,M,M,M,M,M,M,M,57.20,KTMT 150715Z AUTO 14004KT 10SM CLR 14/06 A3018 RMK AO2 T01400057,M
MEV,2022-08-15 07:35,-119.7500,38.9963,1441.42,53.60,28.40,37.67,130.00,8.00,0.00,30.14,M,10.00,M,CLR,M,M,M,M,M,M,M,M,M,M,M,M,M,M,53.60,KMEV 150735Z AUTO 13008KT 10SM CLR 12/M02 A3014 RMK AO2,M
BVU,2022-08-15 07:35,-114.8611,35.9475,671.00,78.80,66.20,65.33,0.00,0.00,0.00,29.98,M,M,M,M,M,M,M,M,M,M,M,M,M,M,M,M,M,M,78.80,KBVU 150735Z AUTO 00000KT 26/19 A2998 RMK AO2 PWINO TSNO,M
CXP,2022-08-15 07:35,-119.7326,39.1923,1431.00,64.40,26.60,23.77,0.00,0.00,0.00,30.14,M,10.00,M,CLR,M,M,M,M,M,M,M,M,M,M,M,M,M,M,64.40,KCXP 150735Z AUTO 00000KT 10SM CLR 18/M03 A3014 RMK AO2,M
RTS,2022-08-15 07:35,-119.8764,39.6682,1539.00,59.00,23.00,24.76,350.00,7.00,0.00,30.17,M,10.00,M,CLR,M,M,M,M,M,M,M,M,M,M,M,M,M,M,59.00,KRTS 150735Z AUTO 35007KT 10SM CLR 15/M05 A3017 RMK AO2,M
BAM,2022-08-15 07:35,-116.8743,40.5990,1382.36,62.60,37.40,39.14,110.00,4.00,0.00,30.08,M,10.00,M,CLR,M,M,M,M,M,M,M,M,M,M,M,M,M,M,62.60,KBAM 150735Z AUTO 11004KT 10SM CLR 17/03 A3008 RMK AO1,M
HTH,2022-08-15 07:35,-118.6315,38.5448,1282.89,75.20,30.20,19.05,260.00,7.00,0.00,30.08,M,10.00,M,CLR,M,M,M,M,M,M,M,M,M,M,M,M,M,M,75.20,KHTH 150735Z AUTO 26007KT 10SM CLR 24/M01 A3008 RMK A01,M
TMT,2022-08-15 07:35,-117.1971,39.4643,1749.34,58.60,42.80,55.65,220.00,6.00,0.00,30.18,M,10.00,M,CLR,M,M,M,M,M,M,M,M,M,M,M,M,M,M,58.60,KTMT 150735Z AUTO 22006KT 10SM CLR 15/06 A3018 RMK AO2 T01480060,M
VGT,2022-08-15 07:53,-115.1933,36.2111,667.00,83.00,62.00,49.51,0.00,0.00,0.00,29.97,1013.70,10.00,M,CLR,M,M,M,M,M,M,M,M,M,M,M,M,M,M,83.70,KVGT 150753Z AUTO 00000KT 10SM CLR 28/17 A2997 RMK AO2 SLP137 T02830167 403610278,M
DRA,2022-08-15 07:53,-116.0278,36.6206,1009.00,80.00,57.00,45.21,320.00,3.00,0.00,30.01,1010.50,10.00,M,CLR,M,M,M,M,M,M,M,M,M,M,M,M,M,M,80.45,KDRA 150753Z AUTO 32003KT 10SM CLR 27/14 A3001 RMK AO2 SLP105 T02670139 403720250,M
P68,2022-08-15 07:53,-116.0056,39.6014,1993.00,64.00,46.00,51.93,170.00,6.00,0.00,30.20,1013.50,M,M,M,M,M,M,M,M,M,M,M,M,M,M,M,M,M,64.00,KP68 150753Z AUTO 17006KT 18/08 A3020 RMK AO1 SLP135 T01780078 403000122,M
LOL,2022-08-15 07:53,-118.5701,40.0684,1192.43,57.00,19.00,22.46,180.00,6.00,0.00,30.03,1012.90,10.00,M,CLR,M,M,M,M,M,M,M,M,M,M,M,M,M,M,57.00,KLOL 150753Z AUTO 18006KT 10SM CLR 14/M07 A3003 RMK AO2 SLP129 T01391072 403670089,M
ELY,2022-08-15 07:53,-114.8453,39.2950,1909.00,55.00,51.00,86.66,170.00,7.00,0.00,30.25,1014.30,10.00,M,CLR,M,M,M,M,M,M,M,M,M,M,M,M,M,M,55.00,KELY 150753Z AUTO 17007KT 10SM CLR 13/11 A3025 RMK AO2 SLP143 T01280106 $,M
RTS,2022-08-15 07:55,-119.8764,39.6682,1539.00,60.80,23.00,23.23,340.00,7.00,0.00,30.17,M,10.00,M,CLR,M,M,M,M,M,M,M,M,M,M,M,M,M,M,60.80,KRTS 150755Z AUTO 34007KT 10SM CLR 16/M05 A3017 RMK AO2,M
RNO,2022-08-15 07:55,-119.7711,39.4839,1341.00,70.00,28.90,21.53,260.00,5.00,0.00,30.12,1013.60,10.00,M,CLR,M,M,M,M,M,M,M,M,M,M,M,M,M,M,70.00,KRNO 150755Z 26005KT 10SM CLR 21/M02 A3012 RMK AO2 SLP136 T02111017 403610156,M
CXP,2022-08-15 07:55,-119.7326,39.1923,1431.00,62.60,28.40,27.27,0.00,0.00,0.00,30.14,M,10.00,M,CLR,M,M,M,M,M,M,M,M,M,M,M,M,M,M,62.60,KCXP 150755Z AUTO 00000KT 10SM CLR 17/M02 A3014 RMK AO2,M
BVU,2022-08-15 07:55,-114.8611,35.9475,671.00,77.00,66.20,69.33,330.00,6.00,0.00,29.97,M,M,M,M,M,M,M,M,M,M,M,M,M,M,M,M,M,M,77.00,KBVU 150755Z AUTO 33006KT 25/19 A2997 RMK AO2 PWINO TSNO,M
TMT,2022-08-15 07:55,-117.1971,39.4643,1749.34,56.30,44.40,64.27,240.00,7.00,0.00,30.18,M,10.00,M,CLR,M,M,M,M,M,M,M,M,M,M,M,M,M,M,56.30,KTMT 150755Z AUTO 24007KT 10SM CLR 14/07 A3018 RMK AO2 T01350069,M
HTH,2022-08-15 07:55,-118.6315,38.5448,1282.89,75.20,26.60,16.43,280.00,7.00,0.00,30.08,M,10.00,M,CLR,M,M,M,M,M,M,M,M,M,M,M,M,M,M,75.20,KHTH 150755Z AUTO 28007KT 10SM CLR 24/M03 A3008 RMK A01,M
BAM,2022-08-15 07:55,-116.8743,40.5990,1382.36,62.60,35.60,36.45,70.00,6.00,0.00,30.08,M,10.00,M,CLR,M,M,M,M,M,M,M,M,M,M,M,M,M,M,62.60,KBAM 150755Z AUTO 07006KT 10SM CLR 17/02 A3008 RMK AO1,M
MEV,2022-08-15 07:55,-119.7500,38.9963,1441.42,53.60,26.60,34.98,110.00,9.00,0.00,30.13,M,10.00,M,CLR,M,M,M,M,M,M,M,M,M,M,M,M,M,M,53.60,KMEV 150755Z AUTO 11009KT 10SM CLR 12/M03 A3013 RMK AO2,M
INS,2022-08-15 07:56,-115.6733,36.5872,955.00,80.00,57.40,45.86,90.00,16.00,0.00,30.00,1010.60,10.00,M,CLR,M,M,M,M,M,M,M,M,M,M,M,M,M,M,80.50,KINS 150756Z AUTO 09016KT 10SM CLR 27/14 A3000 RMK AO2 SLP106 T02670141 403530243,M
EKO,2022-08-15 07:56,-115.7860,40.8242,1367.00,61.00,48.00,62.23,70.00,4.00,0.00,30.14,1014.90,10.00,M,CLR,M,M,M,M,M,M,M,M,M,M,M,M,M,M,61.00,KEKO 150756Z AUTO 07004KT 10SM CLR 16/09 A3014 RMK AO2 SLP149 T01610089 403500128,M
WMC,2022-08-15 07:56,-117.8072,40.9019,1315.00,61.00,26.10,26.25,M,4.00,0.00,30.07,1012.90,10.00,15.00,CLR,M,M,M,M,M,M,M,M,M,M,M,M,M,M,61.00,KWMC 150756Z AUTO VRB04G15KT 10SM CLR 16/M03 A3007 RMK AO2 SLP129 T01611033 403610083 $,M
HND,2022-08-15 07:56,-115.1344,35.9729,742.79,80.00,63.00,55.98,290.00,4.00,0.00,30.00,1014.60,10.00,M,CLR,M,M,M,M,M,M,M,M,M,M,M,M,M,M,81.50,KHND 150756Z AUTO 29004KT 10SM CLR 27/17 A3000 RMK AO2 SLP146 T02670172,M
LAS,2022-08-15 07:56,-115.1634,36.0719,663.00,81.00,63.00,54.36,320.00,4.00,0.00,29.97,1012.30,10.00,M,BKN,BKN,M,M,17000.00,22000.00,M,M,M,M,M,M,M,M,M,82.28,KLAS 150756Z 32004KT 10SM BKN170 BKN220 27/17 A2997 RMK AO2 SLP123 T02720172 403500272,M
LSV,2022-08-15 07:56,-115.0343,36.2362,570.00,M,M,M,M,M,0.00,29.94,M,M,M,M,M,M,M,M,M,M,M,M,M,M,M,M,M,M,M,KLSV 150756Z AUTO M M M M M A2994 RMK AO2 SLPNO ALSTG ESTMD 403910279 RVRNO $,M
NFL,2022-08-15 07:56,-118.7010,39.4166,1199.00,68.00,33.00,27.34,270.00,9.00,0.00,30.05,1014.30,10.00,M,CLR,M,M,M,M,M,M,M,M,M,M,M,M,M,M,68.00,KNFL 150756Z AUTO 27009KT 10SM CLR 20/01 A3005 RMK AO2 SLP143 T02000006 403610150,M
TPH,2022-08-15 07:56,-117.0904,38.0505,1654.00,70.00,53.00,54.98,220.00,4.00,0.00,30.18,1012.90,10.00,M,CLR,M,M,M,M,M,M,M,M,M,M,M,M,M,M,70.00,KTPH 150756Z AUTO 22004KT 10SM CLR 21/12 A3018 RMK AO2 SLP129 T02110117 403330161 $,M
LSV,2022-08-15 07:58,-115.0343,36.2362,570.00,80.60,62.60,54.30,210.00,3.00,0.00,29.94,M,10.00,M,SCT,BKN,M,M,15000.00,20000.00,M,M,M,M,M,M,M,M,M,81.84,KLSV 150758Z 21003KT 10SM SCT150 BKN200 27/17 A2994 RMK SLPNO WND DATA ESTMD ALSTG/SLP ESTMD $,M
BVU,2022-08-15 08:15,-114.8611,35.9475,671.00,77.00,66.20,69.33,350.00,4.00,0.00,29.97,M,M,M,M,M,M,M,M,M,M,M,M,M,M,M,M,M,M,77.00,KBVU 150815Z AUTO 35004KT 25/19 A2997 RMK AO2 PWINO TSNO,M
TMT,2022-08-15 08:15,-117.1971,39.4643,1749.34,56.30,45.50,67.02,230.00,5.00,0.00,30.18,M,10.00,M,CLR,M,M,M,M,M,M,M,M,M,M,M,M,M,M,56.30,KTMT 150815Z AUTO 23005KT 10SM CLR 14/08 A3018 RMK AO2 T01350075,M
HTH,2022-08-15 08:15,-118.6315,38.5448,1282.89,75.20,23.00,14.15,290.00,6.00,0.00,30.08,M,10.00,M,CLR,M,M,M,M,M,M,M,M,M,M,M,M,M,M,75.20,KHTH 150815Z AUTO 29006KT 10SM CLR 24/M05 A3008 RMK A01,M
BAM,2022-08-15 08:15,-116.8743,40.5990,1382.36,60.80,37.40,41.71,70.00,5.00,0.00,30.08,M,10.00,M,CLR,M,M,M,M,M,M,M,M,M,M,M,M,M,M,60.80,KBAM 150815Z AUTO 07005KT 10SM CLR 16/03 A3008 RMK AO1,M
MEV,2022-08-15 08:15,-119.7500,38.9963,1441.42,53.60,28.40,37.67,160.00,4.00,0.00,30.13,M,10.00,M,CLR,M,M,M,M,M,M,M,M,M,M,M,M,M,M,53.60,KMEV 150815Z AUTO 16004KT 10SM CLR 12/M02 A3013 RMK AO2,M
RTS,2022-08-15 08:15,-119.8764,39.6682,1539.00,59.00,21.20,22.95,330.00,8.00,0.00,30.16,M,10.00,M,CLR,M,M,M,M,M,M,M,M,M,M,M,M,M,M,59.00,KRTS 150815Z AUTO 33008KT 10SM CLR 15/M06 A3016 RMK AO2,M
CXP,2022-08-15 08:15,-119.7326,39.1923,1431.00,62.60,30.20,29.35,0.00,0.00,0.00,30.14,M,10.00,M,CLR,M,M,M,M,M,M,M,M,M,M,M,M,M,M,62.60,KCXP 150815Z AUTO 00000KT 10SM CLR 17/M01 A3014 RMK AO2,M
CXP,2022-08-15 08:30,-119.7326,39.1923,1431.00,62.60,28.40,27.27,0.00,0.00,0.00,30.14,M,10.00,M,CLR,M,M,M,M,M,M,M,M,M,M,M,M,M,M,62.60,KCXP 150830Z AUTO 00000KT 10SM CLR 17/M02 A3014 RMK AO2,M
HTH,2022-08-15 08:35,-118.6315,38.5448,1282.89,75.20,21.20,13.11,310.00,4.00,0.00,30.07,M,10.00,M,CLR,M,M,M,M,M,M,M,M,M,M,M,M,M,M,75.20,KHTH 150835Z AUTO 31004KT 10SM CLR 24/M06 A3007 RMK A01,M
BAM,2022-08-15 08:35,-116.8743,40.5990,1382.36,62.60,41.00,45.04,60.00,4.00,0.00,30.08,M,10.00,M,CLR,M,M,M,M,M,M,M,M,M,M,M,M,M,M,62.60,KBAM 150835Z AUTO 06004KT 10SM CLR 17/05 A3008 RMK AO1,M
TMT,2022-08-15 08:35,-117.1971,39.4643,1749.34,53.00,44.40,72.22,180.00,5.00,0.00,30.18,M,10.00,M,CLR,M,M,M,M,M,M,M,M,M,M,M,M,M,M,53.10,KTMT 150835Z AUTO 18005KT 10SM CLR 12/07 A3018 RMK AO2 T01170069,M
BVU,2022-08-15 08:35,-114.8611,35.9475,671.00,77.00,64.40,65.12,310.00,4.00,0.00,29.96,M,M,M,M,M,M,M,M,M,M,M,M,M,M,M,M,M,M,77.00,KBVU 150835Z AUTO 31004KT 25/18 A2996 RMK AO2 PWINO TSNO,M
RTS,2022-08-15 08:35,-119.8764,39.6682,1539.00,59.00,23.00,24.76,340.00,9.00,0.00,30.16,M,10.00,M,CLR,M,M,M,M,M,M,M,M,M,M,M,M,M,M,59.00,KRTS 150835Z AUTO 34009KT 10SM CLR 15/M05 A3016 RMK AO2,M
MEV,2022-08-15 08:35,-119.7500,38.9963,1441.42,55.40,28.40,35.28,170.00,5.00,0.00,30.13,M,10.00,M,CLR,M,M,M,M,M,M,M,M,M,M,M,M,M,M,55.40,KMEV 150835Z AUTO 17005KT 10SM CLR 13/M02 A3013 RMK AO2,M
VGT,2022-08-15 08:53,-115.1933,36.2111,667.00,83.00,62.00,49.51,0.00,0.00,0.00,29.94,1012.50,10.00,M,CLR,M,M,M,M,M,M,M,M,M,M,M,M,M,M,83.70,KVGT 150853Z AUTO 00000KT 10SM CLR 28/17 A2994 RMK AO2 SLP125 T02830167 58014,M
ELY,2022-08-15 08:53,-114.8453,39.2950,1909.00,55.00,50.00,83.20,0.00,0.00,0.00,30.25,1013.90,10.00,M,CLR,M,M,M,M,M,M,M,M,M,M,M,M,M,M,55.00,KELY 150853Z AUTO 00000KT 10SM CLR 13/10 A3025 RMK AO2 SLP139 T01280100 58003 $,M
DRA,2022-08-15 08:53,-116.0278,36.6206,1009.00,81.00,59.00,47.17,140.00,6.00,0.00,30.00,1010.20,10.00,M,CLR,M,M,M,M,M,M,M,M,M,M,M,M,M,M,81.40,KDRA 150853Z AUTO 14006KT 10SM CLR 27/15 A3000 RMK AO2 SLP102 T02720150 50007,M
P68,2022-08-15 08:53,-116.0056,39.6014,1993.00,63.00,45.00,51.78,190.00,5.00,0.00,30.19,1013.30,M,M,M,M,M,M,M,M,M,M,M,M,M,M,M,M,M,63.00,KP68 150853Z AUTO 19005KT 17/07 A3019 RMK AO1 SLP133 T01720072 58004,M
LOL,2022-08-15 08:53,-118.5701,40.0684,1192.43,58.00,18.00,20.83,320.00,5.00,0.00,30.03,1012.80,10.00,M,CLR,M,M,M,M,M,M,M,M,M,M,M,M,M,M,57.90,KLOL 150853Z AUTO 32005KT 10SM CLR 14/M08 A3003 RMK AO2 SLP128 T01441078 50002,M
CXP,2022-08-15 08:55,-119.7326,39.1923,1431.00,60.80,26.60,26.98,0.00,0.00,0.00,30.14,M,10.00,M,CLR,M,M,M,M,M,M,M,M,M,M,M,M,M,M,60.80,KCXP 150855Z AUTO 00000KT 10SM CLR 16/M03 A3014 RMK AO2,M
RNO,2022-08-15 08:55,-119.7711,39.4839,1341.00,68.00,28.00,22.23,250.00,6.00,0.00,30.11,1013.30,10.00,M,CLR,M,M,M,M,M,M,M,M,M,M,M,M,M,M,68.00,KRNO 150855Z 25006KT 10SM CLR 20/M02 A3011 RMK AO2 SLP133 T02001022 58000,M
HTH,2022-08-15 08:55,-118.6315,38.5448,1282.89,71.60,24.80,17.22,120.00,7.00,0.00,30.07,M,10.00,M,CLR,M,M,M,M,M,M,M,M,M,M,M,M,M,M,71.60,KHTH 150855Z AUTO 12007KT 10SM CLR 22/M04 A3007 RMK A01,M
BAM,2022-08-15 08:55,-116.8743,40.5990,1382.36,64.40,42.80,45.32,70.00,3.00,0.00,30.08,M,10.00,M,CLR,M,M,M,M,M,M,M,M,M,M,M,M,M,M,64.40,KBAM 150855Z AUTO 07003KT 10SM CLR 18/06 A3008 RMK AO1,M
MEV,2022-08-15 08:55,-119.7500,38.9963,1441.42,53.60,30.20,40.54,150.00,4.00,0.00,30.13,M,10.00,M,CLR,M,M,M,M,M,M,M,M,M,M,M,M,M,M,53.60,KMEV 150855Z AUTO 15004KT 10SM CLR 12/M01 A3013 RMK AO2,M
RTS,2022-08-15 08:55,-119.8764,39.6682,1539.00,57.20,23.00,26.42,360.00,6.00,0.00,30.16,M,10.00,M,CLR,M,M,M,M,M,M,M,M,M,M,M,M,M,M,57.20,KRTS 150855Z AUTO 36006KT 10SM CLR 14/M05 A3016 RMK AO2,M
TMT,2022-08-15 08:55,-117.1971,39.4643,1749.34,53.40,44.00,70.62,0.00,0.00,0.00,30.18,M,10.00,M,CLR,M,M,M,M,M,M,M,M,M,M,M,M,M,M,53.40,KTMT 150855Z AUTO 00000KT 10SM CLR 12/07 A3018 RMK AO2 T01190067,M
BVU,2022-08-15 08:55,-114.8611,35.9475,671.00,77.00,64.40,65.12,320.00,5.00,0.00,29.95,M,M,M,M,M,M,M,M,M,M,M,M,M,M,M,M,M,M,77.00,KBVU 150855Z AUTO 32005KT 25/18 A2995 RMK AO2 PWINO TSNO,M
TPH,2022-08-15 08:56,-117.0904,38.0505,1654.00,70.00,51.00,51.07,200.00,9.00,0.00,30.18,1012.70,10.00,M,CLR,M,M,M,M,M,M,M,M,M,M,M,M,M,M,70.00,KTPH 150856Z AUTO 20009KT 10SM CLR 21/11 A3018 RMK AO2 SLP127 T02110106 51004 $,M
LSV,2022-08-15 08:56,-115.0343,36.2362,570.00,80.60,62.60,54.30,0.00,0.00,0.00,29.95,M,10.00,M,SCT,BKN,M,M,15000.00,20000.00,M,M,M,M,M,M,M,M,M,81.84,KLSV 150856Z COR 00000KT 10SM SCT150 BKN200 27/17 A2995 RMK AO2 SLPNO RVRNO WND DATA ESTMD ALSTG/SLP ESTMD $ COR 0920,M
WMC,2022-08-15 08:56,-117.8072,40.9019,1315.00,56.00,25.00,30.10,0.00,0.00,0.00,30.05,1012.60,10.00,M,CLR,M,M,M,M,M,M,M,M,M,M,M,M,M,M,55.90,KWMC 150856Z AUTO 00000KT 10SM CLR 13/M04 A3005 RMK AO2 SLP126 T01331039 50000 $,M
HND,2022-08-15 08:56,-115.1344,35.9729,742.79,78.00,63.00,59.78,0.00,0.00,0.00,29.99,1014.10,10.00,M,CLR,M,M,M,M,M,M,M,M,M,M,M,M,M,M,78.10,KHND 150856Z AUTO 00000KT 10SM CLR 26/17 A2999 RMK AO2 SLP141 T02560172 58010,M
INS,2022-08-15 08:56,-115.6733,36.5872,955.00,77.70,58.60,51.82,110.00,12.00,0.00,29.99,1010.40,10.00,M,FEW,M,M,M,13000.00,M,M,M,M,M,M,M,M,M,M,77.70,KINS 150856Z AUTO 11012KT 10SM FEW130 25/15 A2999 RMK AO2 SLP104 T02540148 50003,M
LAS,2022-08-15 08:56,-115.1634,36.0719,663.00,81.00,62.00,52.66,0.00,0.00,0.00,29.95,1011.20,10.00,M,SCT,BKN,M,M,17000.00,22000.00,M,M,M,M,M,M,M,M,M,82.06,KLAS 150856Z 00000KT 10SM SCT170 BKN220 27/17 A2995 RMK AO2 SLP112 T02720167 58014,M
NFL,2022-08-15 08:56,-118.7010,39.4166,1199.00,67.00,28.90,23.95,280.00,6.00,0.00,30.04,1014.00,10.00,M,CLR,M,M,M,M,M,M,M,M,M,M,M,M,M,M,66.90,KNFL 150856Z AUTO 28006KT 10SM CLR 19/M02 A3004 RMK AO2 SLP140 T01941017 50003,M
EKO,2022-08-15 08:56,-115.7860,40.8242,1367.00,58.00,47.00,66.70,40.00,5.00,0.00,30.13,1014.80,10.00,M,CLR,M,M,M,M,M,M,M,M,M,M,M,M,M,M,57.90,KEKO 150856Z AUTO 04005KT 10SM CLR 14/08 A3013 RMK AO2 SLP148 T01440083 50001,M
BVU,2022-08-15 09:15,-114.8611,35.9475,671.00,77.00,64.40,65.12,0.00,0.00,0.00,29.95,M,M,M,M,M,M,M,M,M,M,M,M,M,M,M,M,M,M,77.00,KBVU 150915Z AUTO 00000KT 25/18 A2995 RMK AO2 PWINO TSNO,M
BAM,2022-08-15 09:15,-116.8743,40.5990,1382.36,62.60,42.80,48.28,100.00,5.00,0.00,30.08,M,10.00,M,CLR,M,M,M,M,M,M,M,M,M,M,M,M,M,M,62.60,KBAM 150915Z AUTO 10005KT 10SM CLR 17/06 A3008 RMK AO1,M
RTS,2022-08-15 09:15,-119.8764,39.6682,1539.00,55.40,21.20,26.13,340.00,7.00,0.00,30.15,M,10.00,M,CLR,M,M,M,M,M,M,M,M,M,M,M,M,M,M,55.40,KRTS 150915Z AUTO 34007KT 10SM CLR 13/M06 A3015 RMK AO2,M
HTH,2022-08-15 09:15,-118.6315,38.5448,1282.89,73.40,23.00,15.03,0.00,0.00,0.00,30.07,M,10.00,M,CLR,M,M,M,M,M,M,M,M,M,M,M,M,M,M,73.40,KHTH 150915Z AUTO 00000KT 10SM CLR 23/M05 A3007 RMK A01,M
CXP,2022-08-15 09:15,-119.7326,39.1923,1431.00,60.80,28.40,29.06,0.00,0.00,0.00,30.14,M,10.00,M,CLR,M,M,M,M,M,M,M,M,M,M,M,M,M,M,60.80,KCXP 150915Z AUTO 00000KT 10SM CLR 16/M02 A3014 RMK AO2,M
TMT,2022-08-15 09:15,-117.1971,39.4643,1749.34,53.00,43.50,70.30,40.00,3.00,0.00,30.18,M,10.00,M,CLR,M,M,M,M,M,M,M,M,M,M,M,M,M,M,52.90,KTMT 150915Z AUTO 04003KT 10SM CLR 12/06 A3018 RMK AO2 T01160064,M
MEV,2022-08-15 09:15,-119.7500,38.9963,1441.42,50.00,30.20,46.31,0.00,0.00,0.00,30.14,M,10.00,M,CLR,M,M,M,M,M,M,M,M,M,M,M,M,M,M,50.00,KMEV 150915Z AUTO 00000KT 10SM CLR 10/M01 A3014 RMK AO2,M
CXP,2022-08-15 09:35,-119.7326,39.1923,1431.00,60.80,28.40,29.06,0.00,0.00,0.00,30.14,M,10.00,M,CLR,M,M,M,M,M,M,M,M,M,M,M,M,M,M,60.80,KCXP 150935Z AUTO 00000KT 10SM CLR 16/M02 A3014 RMK AO2,M
BVU,2022-08-15 09:35,-114.8611,35.9475,671.00,77.00,64.40,65.12,70.00,6.00,0.00,29.95,M,M,M,M,M,M,M,M,M,M,M,M,M,M,M,M,M,M,77.00,KBVU 150935Z AUTO 07006KT 25/18 A2995 RMK AO2 PWINO TSNO,M
HTH,2022-08-15 09:35,-118.6315,38.5448,1282.89,73.40,24.80,16.20,230.00,3.00,0.00,30.07,M,10.00,M,CLR,M,M,M,M,M,M,M,M,M,M,M,M,M,M,73.40,KHTH 150935Z AUTO 23003KT 10SM CLR 23/M04 A3007 RMK A01,M
RTS,2022-08-15 09:35,-119.8764,39.6682,1539.00,55.40,21.20,26.13,350.00,7.00,0.00,30.16,M,10.00,M,CLR,M,M,M,M,M,M,M,M,M,M,M,M,M,M,55.40,KRTS 150935Z AUTO 35007KT 10SM CLR 13/M06 A3016 RMK AO2,M
MEV,2022-08-15 09:35,-119.7500,38.9963,1441.42,50.00,33.80,53.54,0.00,0.00,0.00,30.13,M,10.00,M,CLR,M,M,M,M,M,M,M,M,M,M,M,M,M,M,50.00,KMEV 150935Z AUTO 00000KT 10SM CLR 10/01 A3013 RMK AO2,M
TMT,2022-08-15 09:35,-117.1971,39.4643,1749.34,54.30,43.50,66.78,0.00,0.00,0.00,30.18,M,10.00,M,CLR,M,M,M,M,M,M,M,M,M,M,M,M,M,M,54.30,KTMT 150935Z AUTO 00000KT 10SM CLR 12/06 A3018 RMK AO2 T01240064,M
BAM,2022-08-15 09:35,-116.8743,40.5990,1382.36,59.00,41.00,51.18,0.00,0.00,0.00,30.08,M,10.00,M,CLR,M,M,M,M,M,M,M,M,M,M,M,M,M,M,59.00,KBAM 150935Z AUTO 00000KT 10SM CLR 15/05 A3008 RMK AO1,M
DRA,2022-08-15 09:53,-116.0278,36.6206,1009.00,79.00,59.00,50.36,110.00,9.00,0.00,29.99,1009.90,10.00,M,CLR,M,M,M,M,M,M,M,M,M,M,M,M,M,M,79.00,KDRA 150953Z AUTO 11009KT 10SM CLR 26/15 A2999 RMK AO2 SLP099 T02610150,M
ELY,2022-08-15 09:53,-114.8453,39.2950,1909.00,52.00,49.00,89.13,170.00,7.00,0.00,30.24,1014.60,10.00,M,CLR,M,M,M,M,M,M,M,M,M,M,M,M,M,M,52.00,KELY 150953Z AUTO 17007KT 10SM CLR 11/09 A3024 RMK AO2 SLP146 T01110094 $,M
P68,2022-08-15 09:53,-116.0056,39.6014,1993.00,57.00,47.00,68.90,180.00,7.00,0.00,30.19,1014.20,M,M,M,M,M,M,M,M,M,M,M,M,M,M,M,M,M,57.00,KP68 150953Z AUTO 18007KT 14/08 A3019 RMK AO1 SLP142 T01390083,M
LOL,2022-08-15 09:53,-118.5701,40.0684,1192.43,54.00,14.00,20.16,0.00,0.00,0.00,30.03,1012.80,10.00,M,CLR,M,M,M,M,M,M,M,M,M,M,M,M,M,M,54.00,KLOL 150953Z AUTO 00000KT 10SM CLR 12/M10 A3003 RMK AO2 SLP128 T01221100,M
VGT,2022-08-15 09:53,-115.1933,36.2111,667.00,81.00,63.00,54.36,80.00,5.00,0.00,29.93,1012.40,10.00,M,CLR,M,M,M,M,M,M,M,M,M,M,M,M,M,M,82.28,KVGT 150953Z AUTO 08005KT 10SM CLR 27/17 A2993 RMK AO2 SLP124 T02720172,M
RNO,2022-08-15 09:55,-119.7711,39.4839,1341.00,64.00,32.00,30.05,200.00,4.00,0.00,30.11,1013.50,10.00,M,CLR,M,M,M,M,M,M,M,M,M,M,M,M,M,M,64.00,KRNO 150955Z 20004KT 10SM CLR 18/00 A3011 RMK AO2 SLP135 T01780000,M
LSV,2022-08-15 09:55,-115.0343,36.2362,570.00,80.60,62.60,54.30,50.00,8.00,0.00,29.93,M,10.00,M,SCT,BKN,M,M,15000.00,20000.00,M,M,M,M,M,M,M,M,M,81.84,KLSV 150955Z COR 05008KT 10SM SCT150 BKN200 27/17 A2993 RMK SLPNO WND DATA ESTMD ALSTG ESTMD $ COR 1014,M
TMT,2022-08-15 09:55,-117.1971,39.4643,1749.34,55.00,43.50,65.34,0.00,0.00,0.00,30.18,M,10.00,M,CLR,M,M,M,M,M,M,M,M,M,M,M,M,M,M,54.90,KTMT 150955Z AUTO 00000KT 10SM CLR 13/06 A3018 RMK AO2 T01270064,M
HTH,2022-08-15 09:55,-118.6315,38.5448,1282.89,71.60,23.00,15.97,190.00,4.00,0.00,30.07,M,10.00,M,CLR,M,M,M,M,M,M,M,M,M,M,M,M,M,M,71.60,KHTH 150955Z AUTO 19004KT 10SM CLR 22/M05 A3007 RMK A01,M
BAM,2022-08-15 09:55,-116.8743,40.5990,1382.36,60.80,41.00,48.00,20.00,3.00,0.00,30.08,M,10.00,M,CLR,M,M,M,M,M,M,M,M,M,M,M,M,M,M,60.80,KBAM 150955Z AUTO 02003KT 10SM CLR 16/05 A3008 RMK AO1,M
MEV,2022-08-15 09:55,-119.7500,38.9963,1441.42,48.20,32.00,53.27,80.00,6.00,0.00,30.13,M,10.00,M,CLR,M,M,M,M,M,M,M,M,M,M,M,M,M,M,45.04,KMEV 150955Z AUTO 08006KT 10SM CLR 09/M00 A3013 RMK AO2,M
RTS,2022-08-15 09:55,-119.8764,39.6682,1539.00,53.60,21.20,27.91,350.00,6.00,0.00,30.15,M,10.00,M,CLR,M,M,M,M,M,M,M,M,M,M,M,M,M,M,53.60,KRTS 150955Z AUTO 35006KT 10SM CLR 12/M06 A3015 RMK AO2,M
BVU,2022-08-15 09:55,-114.8611,35.9475,671.00,77.00,64.40,65.12,40.00,8.00,0.00,29.95,M,M,M,M,M,M,M,M,M,M,M,M,M,M,M,M,M,M,77.00,KBVU 150955Z AUTO 04008KT 25/18 A2995 RMK AO2 PWINO TSNO,M
CXP,2022-08-15 09:55,-119.7326,39.1923,1431.00,59.00,28.40,30.98,0.00,0.00,0.00,30.14,M,10.00,M,CLR,M,M,M,M,M,M,M,M,M,M,M,M,M,M,59.00,KCXP 150955Z AUTO 00000KT 10SM CLR 15/M02 A3014 RMK AO2,M
TPH,2022-08-15 09:56,-117.0904,38.0505,1654.00,67.00,54.00,63.21,80.00,8.00,0.00,30.16,1012.00,10.00,M,CLR,M,M,M,M,M,M,M,M,M,M,M,M,M,M,66.90,KTPH 150956Z AUTO 08008KT 10SM CLR 19/12 A3016 RMK AO2 SLP120 T01940122 $,M
LAS,2022-08-15 09:56,-115.1634,36.0719,663.00,81.00,63.00,54.36,0.00,0.00,0.00,29.94,1011.10,10.00,M,BKN,BKN,M,M,15000.00,20000.00,M,M,M,M,M,M,M,M,M,82.28,KLAS 150956Z 00000KT 10SM BKN150 BKN200 27/17 A2994 RMK AO2 SLP111 T02720172,M
LSV,2022-08-15 09:56,-115.0343,36.2362,570.00,80.60,62.60,54.30,50.00,8.00,0.00,29.92,M,10.00,M,SCT,BKN,M,M,15000.00,20000.00,M,M,M,M,M,M,M,M,M,81.84,KLSV 150956Z COR 05008KT 10SM SCT150 BKN200 27/17 A2992 RMK AO2 SLPNO WND DATA ESTMD ALSTG/SLP ESTMD $ COR 1017,M
EKO,2022-08-15 09:56,-115.7860,40.8242,1367.00,57.00,48.00,71.81,90.00,5.00,0.00,30.13,1014.10,10.00,M,CLR,M,M,M,M,M,M,M,M,M,M,M,M,M,M,57.00,KEKO 150956Z AUTO 09005KT 10SM CLR 14/09 A3013 RMK AO2 SLP141 T01390089,M
INS,2022-08-15 09:56,-115.6733,36.5872,955.00,76.00,58.60,54.64,120.00,4.00,0.00,30.00,1010.60,10.00,M,CLR,M,M,M,M,M,M,M,M,M,M,M,M,M,M,76.10,KINS 150956Z AUTO 12004KT 10SM CLR 25/15 A3000 RMK AO2 SLP106 T02450148,M
WMC,2022-08-15 09:56,-117.8072,40.9019,1315.00,51.00,28.90,42.16,150.00,6.00,0.00,30.06,1012.90,10.00,M,CLR,M,M,M,M,M,M,M,M,M,M,M,M,M,M,51.10,KWMC 150956Z AUTO 15006KT 10SM CLR 11/M02 A3006 RMK AO2 SLP129 T01061017 $,M
NFL,2022-08-15 09:56,-118.7010,39.4166,1199.00,62.00,33.00,33.58,160.00,6.00,0.00,30.03,1014.00,10.00,M,CLR,M,M,M,M,M,M,M,M,M,M,M,M,M,M,62.10,KNFL 150956Z AUTO 16006KT 10SM CLR 17/01 A3003 RMK AO2 SLP140 T01670006,M
HND,2022-08-15 09:56,-115.1344,35.9729,742.79,77.00,63.00,62.00,150.00,5.00,0.00,29.98,1013.80,10.00,M,CLR,M,M,M,M,M,M,M,M,M,M,M,M,M,M,77.00,KHND 150956Z AUTO 15005KT 10SM CLR 25/17 A2998 RMK AO2 SLP138 T02500172,M
TMT,2022-08-15 10:15,-117.1971,39.4643,1749.34,50.40,42.80,75.05,100.00,3.00,0.00,30.18,M,10.00,M,CLR,M,M,M,M,M,M,M,M,M,M,M,M,M,M,50.40,KTMT 151015Z AUTO 10003KT 10SM CLR 10/06 A3018 RMK AO2 T01020060,M
BVU,2022-08-15 10:15,-114.8611,35.9475,671.00,77.00,64.40,65.12,50.00,6.00,0.00,29.95,M,M,M,M,M,M,M,M,M,M,M,M,M,M,M,M,M,M,77.00,KBVU 151015Z AUTO 05006KT 25/18 A2995 RMK AO2 PWINO TSNO,M
CXP,2022-08-15 10:15,-119.7326,39.1923,1431.00,57.20,30.20,35.57,0.00,0.00,0.00,30.14,M,10.00,M,CLR,M,M,M,M,M,M,M,M,M,M,M,M,M,M,57.20,KCXP 151015Z AUTO 00000KT 10SM CLR 14/M01 A3014 RMK AO2,M
RTS,2022-08-15 10:15,-119.8764,39.6682,1539.00,55.40,21.20,26.13,360.00,7.00,0.00,30.16,M,10.00,M,CLR,M,M,M,M,M,M,M,M,M,M,M,M,M,M,55.40,KRTS 151015Z AUTO 36007KT 10SM CLR 13/M06 A3016 RMK AO2,M
MEV,2022-08-15 10:15,-119.7500,38.9963,1441.42,50.00,30.20,46.31,80.00,7.00,0.00,30.12,M,10.00,M,CLR,M,M,M,M,M,M,M,M,M,M,M,M,M,M,50.00,KMEV 151015Z AUTO 08007KT 10SM CLR 10/M01 A3012 RMK AO2,M
BAM,2022-08-15 10:15,-116.8743,40.5990,1382.36,57.20,41.00,54.60,110.00,4.00,0.00,30.09,M,10.00,M,CLR,M,M,M,M,M,M,M,M,M,M,M,M,M,M,57.20,KBAM 151015Z AUTO 11004KT 10SM CLR 14/05 A3009 RMK AO1,M
HTH,2022-08-15 10:15,-118.6315,38.5448,1282.89,69.80,24.80,18.30,190.00,3.00,0.00,30.07,M,10.00,M,CLR,M,M,M,M,M,M,M,M,M,M,M,M,M,M,69.80,KHTH 151015Z AUTO 19003KT 10SM CLR 21/M04 A3007 RMK A01,M
BAM,2022-08-15 10:35,-116.8743,40.5990,1382.36,55.40,33.80,43.90,110.00,3.00,0.00,30.08,M,10.00,M,CLR,M,M,M,M,M,M,M,M,M,M,M,M,M,M,55.40,KBAM 151035Z AUTO 11003KT 10SM CLR 13/01 A3008 RMK AO1,M
BVU,2022-08-15 10:35,-114.8611,35.9475,671.00,77.00,64.40,65.12,30.00,4.00,0.00,29.95,M,M,M,M,M,M,M,M,M,M,M,M,M,M,M,M,M,M,77.00,KBVU 151035Z AUTO 03004KT 25/18 A2995 RMK AO2 PWINO TSNO,M
CXP,2022-08-15 10:35,-119.7326,39.1923,1431.00,57.20,26.60,30.69,0.00,0.00,0.00,30.14,M,10.00,M,CLR,M,M,M,M,M,M,M,M,M,M,M,M,M,M,57.20,KCXP 151035Z AUTO 00000KT 10SM CLR 14/M03 A3014 RMK AO2,M
RTS,2022-08-15 10:35,-119.8764,39.6682,1539.00,53.60,21.20,27.91,360.00,5.00,0.00,30.15,M,10.00,M,CLR,M,M,M,M,M,M,M,M,M,M,M,M,M,M,53.60,KRTS 151035Z AUTO 36005KT 10SM CLR 12/M06 A3015 RMK AO2,M
MEV,2022-08-15 10:35,-119.7500,38.9963,1441.42,48.20,32.00,53.27,0.00,0.00,0.00,30.13,M,10.00,M,CLR,M,M,M,M,M,M,M,M,M,M,M,M,M,M,48.20,KMEV 151035Z AUTO 00000KT 10SM CLR 09/M00 A3013 RMK AO2,M
HTH,2022-08-15 10:35,-118.6315,38.5448,1282.89,69.80,24.80,18.30,160.00,3.00,0.00,30.07,M,10.00,M,CLR,M,M,M,M,M,M,M,M,M,M,M,M,M,M,69.80,KHTH 151035Z AUTO 16003KT 10SM CLR 21/M04 A3007 RMK A01,M
TMT,2022-08-15 10:35,-117.1971,39.4643,1749.34,51.60,42.80,71.79,0.00,0.00,0.00,30.18,M,10.00,M,CLR,M,M,M,M,M,M,M,M,M,M,M,M,M,M,51.60,KTMT 151035Z AUTO 00000KT 10SM CLR 11/06 A3018 RMK AO2 T01090060,M
ELY,2022-08-15 10:53,-114.8453,39.2950,1909.00,52.00,49.00,89.13,180.00,7.00,0.00,30.24,1014.70,10.00,M,CLR,M,M,M,M,M,M,M,M,M,M,M,M,M,M,52.00,KELY 151053Z AUTO 18007KT 10SM CLR 11/09 A3024 RMK AO2 SLP147 T01110094 $,M
VGT,2022-08-15 10:53,-115.1933,36.2111,667.00,80.00,62.00,54.23,100.00,5.00,0.00,29.93,1012.30,10.00,M,CLR,M,M,M,M,M,M,M,M,M,M,M,M,M,M,81.31,KVGT 151053Z AUTO 10005KT 10SM CLR 27/17 A2993 RMK AO2 SLP123 T02670167,M
LOL,2022-08-15 10:53,-118.5701,40.0684,1192.43,50.00,17.10,26.74,90.00,8.00,0.00,30.03,1013.00,10.00,M,CLR,M,M,M,M,M,M,M,M,M,M,M,M,M,M,50.00,KLOL 151053Z AUTO 09008KT 10SM CLR 10/M08 A3003 RMK AO2 SLP130 T01001083,M
DRA,2022-08-15 10:53,-116.0278,36.6206,1009.00,77.00,59.00,53.80,80.00,5.00,0.00,29.98,1009.60,10.00,M,CLR,M,M,M,M,M,M,M,M,M,M,M,M,M,M,77.00,KDRA 151053Z AUTO 08005KT 10SM CLR 25/15 A2998 RMK AO2 SLP096 T02500150,M
P68,2022-08-15 10:53,-116.0056,39.6014,1993.00,58.00,46.00,64.47,220.00,5.00,0.00,30.18,1013.60,M,M,M,M,M,M,M,M,M,M,M,M,M,M,M,M,M,57.90,KP68 151053Z AUTO 22005KT 14/08 A3018 RMK AO1 SLP136 T01440078,M
CXP,2022-08-15 10:55,-119.7326,39.1923,1431.00,55.40,26.60,32.76,0.00,0.00,0.00,30.13,M,10.00,M,CLR,M,M,M,M,M,M,M,M,M,M,M,M,M,M,55.40,KCXP 151055Z AUTO 00000KT 10SM CLR 13/M03 A3013 RMK AO2,M
BVU,2022-08-15 10:55,-114.8611,35.9475,671.00,77.00,64.40,65.12,40.00,6.00,0.00,29.94,M,M,M,M,M,M,M,M,M,M,M,M,M,M,M,M,M,M,77.00,KBVU 151055Z AUTO 04006KT 25/18 A2994 RMK AO2 PWINO TSNO,M
RNO,2022-08-15 10:55,-119.7711,39.4839,1341.00,65.00,27.00,23.75,240.00,6.00,0.00,30.11,1013.10,10.00,M,CLR,M,M,M,M,M,M,M,M,M,M,M,M,M,M,64.90,KRNO 151055Z 24006KT 10SM CLR 18/M03 A3011 RMK AO2 SLP131 T01831028,M
RTS,2022-08-15 10:55,-119.8764,39.6682,1539.00,51.80,21.20,29.82,330.00,7.00,0.00,30.15,M,10.00,M,CLR,M,M,M,M,M,M,M,M,M,M,M,M,M,M,51.80,KRTS 151055Z AUTO 33007KT 10SM CLR 11/M06 A3015 RMK AO2,M
MEV,2022-08-15 10:55,-119.7500,38.9963,1441.42,48.20,32.00,53.27,0.00,0.00,0.00,30.12,M,10.00,M,CLR,M,M,M,M,M,M,M,M,M,M,M,M,M,M,48.20,KMEV 151055Z AUTO 00000KT 10SM CLR 09/M00 A3012 RMK AO2,M
HTH,2022-08-15 10:55,-118.6315,38.5448,1282.89,69.80,24.80,18.30,170.00,4.00,0.00,30.07,M,10.00,M,CLR,M,M,M,M,M,M,M,M,M,M,M,M,M,M,69.80,KHTH 151055Z AUTO 17004KT 10SM CLR 21/M04 A3007 RMK A01,M
TMT,2022-08-15 10:55,-117.1971,39.4643,1749.34,53.20,44.00,71.14,0.00,0.00,0.00,30.18,M,10.00,M,CLR,M,M,M,M,M,M,M,M,M,M,M,M,M,M,53.20,KTMT 151055Z AUTO 00000KT 10SM CLR 12/07 A3018 RMK AO2 T01180067,M
BAM,2022-08-15 10:55,-116.8743,40.5990,1382.36,53.60,32.00,43.61,200.00,4.00,0.00,30.08,M,10.00,M,CLR,M,M,M,M,M,M,M,M,M,M,M,M,M,M,53.60,KBAM 151055Z AUTO 20004KT 10SM CLR 12/00 A3008 RMK AO1,M
INS,2022-08-15 10:56,-115.6733,36.5872,955.00,75.20,58.80,56.71,0.00,0.00,0.00,29.99,1010.40,10.00,M,CLR,M,M,M,M,M,M,M,M,M,M,M,M,M,M,75.20,KINS 151056Z AUTO 00000KT 10SM CLR 24/15 A2999 RMK AO2 SLP104 T02400149,M
TPH,2022-08-15 10:56,-117.0904,38.0505,1654.00,66.00,53.00,63.10,360.00,5.00,0.00,30.15,1012.40,10.00,M,CLR,M,M,M,M,M,M,M,M,M,M,M,M,M,M,66.00,KTPH 151056Z AUTO 36005KT 10SM CLR 19/12 A3015 RMK AO2 SLP124 T01890117 $,M
EKO,2022-08-15 10:56,-115.7860,40.8242,1367.00,55.00,47.00,74.08,70.00,6.00,0.00,30.13,1014.80,10.00,M,CLR,M,M,M,M,M,M,M,M,M,M,M,M,M,M,55.00,KEKO 151056Z AUTO 07006KT 10SM CLR 13/08 A3013 RMK AO2 SLP148 T01280083,M
WMC,2022-08-15 10:56,-117.8072,40.9019,1315.00,50.00,27.00,40.62,150.00,3.00,0.00,30.06,1013.10,10.00,M,CLR,M,M,M,M,M,M,M,M,M,M,M,M,M,M,50.00,KWMC 151056Z AUTO 15003KT 10SM CLR 10/M03 A3006 RMK AO2 SLP131 T01001028 $,M
LSV,2022-08-15 10:56,-115.0343,36.2362,570.00,80.60,62.60,54.30,20.00,6.00,0.00,29.93,M,10.00,M,SCT,BKN,M,M,15000.00,20000.00,M,M,M,M,M,M,M,M,M,81.84,KLSV 151056Z 02006KT 10SM SCT150 BKN200 27/17 A2993 RMK SLPNO WND DATA ESTMD ALSTG ESTMD $,M
HND,2022-08-15 10:56,-115.1344,35.9729,742.79,78.00,63.00,59.78,110.00,3.00,0.00,29.97,1013.60,10.00,M,CLR,M,M,M,M,M,M,M,M,M,M,M,M,M,M,78.10,KHND 151056Z AUTO 11003KT 10SM CLR 26/17 A2997 RMK AO2 SLP136 T02560172,M
LAS,2022-08-15 10:56,-115.1634,36.0719,663.00,80.00,63.00,55.98,90.00,5.00,0.00,29.94,1011.00,10.00,M,BKN,BKN,M,M,15000.00,20000.00,M,M,M,M,M,M,M,M,M,81.50,KLAS 151056Z 09005KT 10SM BKN150 BKN200 27/17 A2994 RMK AO2 SLP110 T02670172,M
NFL,2022-08-15 10:56,-118.7010,39.4166,1199.00,62.00,32.00,32.13,160.00,5.00,0.00,30.02,1013.60,10.00,M,CLR,M,M,M,M,M,M,M,M,M,M,M,M,M,M,62.10,KNFL 151056Z AUTO 16005KT 10SM CLR 17/00 A3002 RMK AO2 SLP136 T01670000,M
INS,2022-08-15 11:06,-115.6733,36.5872,955.00,75.20,59.00,57.12,0.00,0.00,0.00,29.99,1010.40,4.00,M,CLR,M,M,M,M,M,M,M,HZ,M,M,M,M,M,M,75.20,KINS 151106Z AUTO 00000KT 4SM HZ CLR 24/15 A2999 RMK AO2 SLP104,M
INS,2022-08-15 11:11,-115.6733,36.5872,955.00,75.20,59.00,57.12,80.00,3.00,0.00,29.99,1010.40,8.00,M,CLR,M,M,M,M,M,M,M,M,M,M,M,M,M,M,75.20,KINS 151111Z AUTO 08003KT 8SM CLR 24/15 A2999 RMK AO2 SLP104,M
MEV,2022-08-15 11:15,-119.7500,38.9963,1441.42,46.40,28.40,49.24,120.00,5.00,0.00,30.12,M,10.00,M,CLR,M,M,M,M,M,M,M,M,M,M,M,M,M,M,43.50,KMEV 151115Z AUTO 12005KT 10SM CLR 08/M02 A3012 RMK AO2,M
BAM,2022-08-15 11:15,-116.8743,40.5990,1382.36,53.60,32.00,43.61,300.00,3.00,0.00,30.08,M,10.00,M,CLR,M,M,M,M,M,M,M,M,M,M,M,M,M,M,53.60,KBAM 151115Z AUTO 30003KT 10SM CLR 12/00 A3008 RMK AO1,M
HTH,2022-08-15 11:15,-118.6315,38.5448,1282.89,68.00,24.80,19.47,230.00,4.00,0.00,30.07,M,10.00,M,CLR,M,M,M,M,M,M,M,M,M,M,M,M,M,M,68.00,KHTH 151115Z AUTO 23004KT 10SM CLR 20/M04 A3007 RMK A01,M
CXP,2022-08-15 11:15,-119.7326,39.1923,1431.00,53.60,30.20,40.54,0.00,0.00,0.00,30.13,M,10.00,M,CLR,M,M,M,M,M,M,M,M,M,M,M,M,M,M,53.60,KCXP 151115Z AUTO 00000KT 10SM CLR 12/M01 A3013 RMK AO2,M
BVU,2022-08-15 11:15,-114.8611,35.9475,671.00,77.00,64.40,65.12,60.00,6.00,0.00,29.94,M,M,M,M,M,M,M,M,M,M,M,M,M,M,M,M,M,M,77.00,KBVU 151115Z AUTO 06006KT 25/18 A2994 RMK AO2 PWINO TSNO,M
TMT,2022-08-15 11:15,-117.1971,39.4643,1749.34,51.00,44.00,76.86,0.00,0.00,0.00,30.18,M,10.00,M,CLR,M,M,M,M,M,M,M,M,M,M,M,M,M,M,51.10,KTMT 151115Z AUTO 00000KT 10SM CLR 11/07 A3018 RMK AO2 T01060067,M
RTS,2022-08-15 11:15,-119.8764,39.6682,1539.00,53.60,21.20,27.91,330.00,4.00,0.00,30.15,M,10.00,M,CLR,M,M,M,M,M,M,M,M,M,M,M,M,M,M,53.60,KRTS 151115Z AUTO 33004KT 10SM CLR 12/M06 A3015 RMK AO2,M
TMT,2022-08-15 11:35,-117.1971,39.4643,1749.34,51.40,44.00,75.44,0.00,0.00,0.00,30.18,M,10.00,M,CLR,M,M,M,M,M,M,M,M,M,M,M,M,M,M,51.40,KTMT 151135Z AUTO 00000KT 10SM CLR 11/07 A3018 RMK AO2 T01080066,M
BVU,2022-08-15 11:35,-114.8611,35.9475,671.00,77.00,64.40,65.12,40.00,6.00,0.00,29.94,M,M,M,M,M,M,M,M,M,M,M,M,M,M,M,M,M,M,77.00,KBVU 151135Z AUTO 04006KT 25/18 A2994 RMK AO2 PWINO TSNO,M
CXP,2022-08-15 11:35,-119.7326,39.1923,1431.00,55.40,30.20,37.97,0.00,0.00,0.00,30.13,M,10.00,M,CLR,M,M,M,M,M,M,M,M,M,M,M,M,M,M,55.40,KCXP 151135Z AUTO 00000KT 10SM CLR 13/M01 A3013 RMK AO2,M
RTS,2022-08-15 11:35,-119.8764,39.6682,1539.00,50.00,21.20,31.87,0.00,0.00,0.00,30.15,M,10.00,M,CLR,M,M,M,M,M,M,M,M,M,M,M,M,M,M,50.00,KRTS 151135Z AUTO 00000KT 10SM CLR 10/M06 A3015 RMK AO2,M
MEV,2022-08-15 11:35,-119.7500,38.9963,1441.42,46.40,28.40,49.24,160.00,4.00,0.00,30.12,M,10.00,M,FEW,FEW,M,M,4300.00,5000.00,M,M,M,M,M,M,M,M,M,44.24,KMEV 151135Z AUTO 16004KT 10SM FEW043 FEW050 08/M02 A3012 RMK AO2,M
BAM,2022-08-15 11:35,-116.8743,40.5990,1382.36,51.80,32.00,46.59,0.00,0.00,0.00,30.08,M,10.00,M,CLR,M,M,M,M,M,M,M,M,M,M,M,M,M,M,51.80,KBAM 151135Z AUTO 00000KT 10SM CLR 11/00 A3008 RMK AO1,M
HTH,2022-08-15 11:35,-118.6315,38.5448,1282.89,68.00,23.00,18.06,270.00,3.00,0.00,30.07,M,10.00,M,CLR,M,M,M,M,M,M,M,M,M,M,M,M,M,M,68.00,KHTH 151135Z AUTO 27003KT 10SM CLR 20/M05 A3007 RMK A01,M
DRA,2022-08-15 11:53,-116.0278,36.6206,1009.00,75.00,60.00,59.81,190.00,4.00,0.00,29.99,1010.30,10.00,M,CLR,M,M,M,M,M,M,M,M,M,M,M,M,M,M,75.00,KDRA 151153Z AUTO 19004KT 10SM CLR 24/16 A2999 RMK AO2 SLP103 T02390156 10300 20233 55003,M
LOL,2022-08-15 11:53,-118.5701,40.0684,1192.43,50.00,17.10,26.74,80.00,3.00,0.00,30.03,1013.00,10.00,M,CLR,M,M,M,M,M,M,M,M,M,M,M,M,M,M,50.00,KLOL 151153Z AUTO 08003KT 10SM CLR 10/M08 A3003 RMK AO2 SLP130 T01001083 10244 20089 56001,M
ELY,2022-08-15 11:53,-114.8453,39.2950,1909.00,51.00,49.00,92.14,170.00,9.00,0.00,30.24,1014.60,10.00,M,CLR,M,M,M,M,M,M,M,M,M,M,M,M,M,M,51.10,KELY 151153Z AUTO 17009KT 10SM CLR 11/09 A3024 RMK AO2 SLP146 T01060094 10156 20100 56003 $,M
VGT,2022-08-15 11:53,-115.1933,36.2111,667.00,81.00,63.00,54.36,0.00,0.00,0.00,29.92,1012.00,10.00,M,CLR,M,M,M,M,M,M,M,M,M,M,M,M,M,M,82.28,KVGT 151153Z AUTO 00000KT 10SM CLR 27/17 A2992 RMK AO2 SLP120 T02720172 10294 20267 58004,M
P68,2022-08-15 11:53,-116.0056,39.6014,1993.00,53.00,46.00,76.75,0.00,0.00,0.00,30.19,1014.20,M,M,M,M,M,M,M,M,M,M,M,M,M,M,M,M,M,53.10,KP68 151153Z AUTO 00000KT 12/08 A3019 RMK AO1 SLP142 70001 T01170078 10206 20117 55000,M
LSV,2022-08-15 11:55,-115.0343,36.2362,570.00,80.60,62.60,54.30,20.00,5.00,0.00,29.90,M,10.00,M,SCT,SCT,M,M,15000.00,20000.00,M,M,M,M,M,M,M,M,M,81.84,KLSV 151155Z 02005KT 10SM SCT150 SCT200 27/17 A2990 RMK SLPNO 5//// WND DATA ESTMD ALSTG/SLP ESTMD $,M
RTS,2022-08-15 11:55,-119.8764,39.6682,1539.00,50.00,21.20,31.87,360.00,6.00,0.00,30.15,M,10.00,M,CLR,M,M,M,M,M,M,M,M,M,M,M,M,M,M,50.00,KRTS 151155Z AUTO 36006KT 10SM CLR 10/M06 A3015 RMK AO2,M
CXP,2022-08-15 11:55,-119.7326,39.1923,1431.00,53.60,30.20,40.54,0.00,0.00,0.00,30.13,M,10.00,M,CLR,M,M,M,M,M,M,M,M,M,M,M,M,M,M,53.60,KCXP 151155Z AUTO 00000KT 10SM CLR 12/M01 A3013 RMK AO2,M
TMT,2022-08-15 11:55,-117.1971,39.4643,1749.34,47.70,42.00,80.19,0.00,0.00,0.00,30.18,M,10.00,M,CLR,M,M,M,M,M,M,M,M,M,M,M,M,M,M,47.70,KTMT 151155Z AUTO 00000KT 10SM CLR 09/06 A3018 RMK AO2 T00870055,M
MEV,2022-08-15 11:55,-119.7500,38.9963,1441.42,46.40,28.40,49.24,40.00,4.00,0.00,30.12,M,10.00,M,FEW,M,M,M,4300.00,M,M,M,M,M,M,M,M,M,M,44.24,KMEV 151155Z AUTO 04004KT 10SM FEW043 08/M02 A3012 RMK AO2,M
HTH,2022-08-15 11:55,-118.6315,38.5448,1282.89,68.00,26.60,20.98,230.00,3.00,0.00,30.07,M,10.00,M,CLR,M,M,M,M,M,M,M,M,M,M,M,M,M,M,68.00,KHTH 151155Z AUTO 23003KT 10SM CLR 20/M03 A3007 RMK A01,M
RNO,2022-08-15 11:55,-119.7711,39.4839,1341.00,62.00,27.00,26.20,290.00,4.00,0.00,30.11,1013.30,10.00,M,CLR,M,M,M,M,M,M,M,M,M,M,M,M,M,M,62.10,KRNO 151155Z 29004KT 10SM CLR 17/M03 A3011 RMK AO2 SLP133 T01671028 10244 20161 58002,M
BVU,2022-08-15 11:55,-114.8611,35.9475,671.00,77.00,62.60,61.13,50.00,6.00,0.00,29.94,M,M,M,M,M,M,M,M,M,M,M,M,M,M,M,M,M,M,77.00,KBVU 151155Z AUTO 05006KT 25/17 A2994 RMK AO2 PWINO TSNO,M
BAM,2022-08-15 11:55,-116.8743,40.5990,1382.36,51.80,32.00,46.59,190.00,3.00,0.00,30.08,M,10.00,M,CLR,M,M,M,M,M,M,M,M,M,M,M,M,M,M,51.80,KBAM 151155Z AUTO 19003KT 10SM CLR 11/00 A3008 RMK AO1,M
NFL,2022-08-15 11:56,-118.7010,39.4166,1199.00,63.00,27.00,25.38,160.00,5.00,0.00,30.03,1014.00,10.00,M,CLR,M,M,M,M,M,M,M,M,M,M,M,M,M,M,63.00,KNFL 151156Z AUTO 16005KT 10SM CLR 17/M03 A3003 RMK AO2 SLP140 T01721028 10239 20156 55001,M
INS,2022-08-15 11:56,-115.6733,36.5872,955.00,74.00,59.20,60.09,60.00,3.00,0.00,29.99,1010.40,10.00,M,CLR,M,M,M,M,M,M,M,M,M,M,M,M,M,M,73.90,KINS 151156Z AUTO 06003KT 10SM CLR 23/15 A2999 RMK AO2 SLP104 T02330151 10283 20230 58001,M
EKO,2022-08-15 11:56,-115.7860,40.8242,1367.00,52.00,46.00,79.92,60.00,5.00,0.00,30.14,1015.60,10.00,M,CLR,M,M,M,M,M,M,M,M,M,M,M,M,M,M,52.00,KEKO 151156Z AUTO 06005KT 10SM CLR 11/08 A3014 RMK AO2 SLP156 T01110078 10206 20111 53002,M
HND,2022-08-15 11:56,-115.1344,35.9729,742.79,77.00,62.00,60.06,0.00,0.00,0.00,29.97,1013.40,10.00,M,CLR,M,M,M,M,M,M,M,M,M,M,M,M,M,M,77.00,KHND 151156Z AUTO 00000KT 10SM CLR 25/17 A2997 RMK AO2 SLP134 T02500167 10278 20250 56006,M
LAS,2022-08-15 11:56,-115.1634,36.0719,663.00,79.00,62.00,56.23,60.00,6.00,0.00,29.94,1010.90,10.00,M,BKN,BKN,M,M,17000.00,22000.00,M,M,M,M,M,M,M,M,M,79.00,KLAS 151156Z 06006KT 10SM BKN170 BKN220 26/17 A2994 RMK AO2 SLP109 T02610167 10278 20261 56003,M
WMC,2022-08-15 11:56,-117.8072,40.9019,1315.00,49.00,28.00,44.10,140.00,6.00,0.00,30.06,1013.20,10.00,M,CLR,M,M,M,M,M,M,M,M,M,M,M,M,M,M,45.88,KWMC 151156Z AUTO 14006KT 10SM CLR 09/M02 A3006 RMK AO2 SLP132 T00941022 10189 20089 51003 $,M
TPH,2022-08-15 11:56,-117.0904,38.0505,1654.00,65.00,52.00,62.96,360.00,7.00,0.00,30.15,1012.30,10.00,M,CLR,M,M,M,M,M,M,M,M,M,M,M,M,M,M,64.90,KTPH 151156Z AUTO 36007KT 10SM CLR 18/11 A3015 RMK AO2 SLP123 T01830111 10233 20178 56007 $,M
LSV,2022-08-15 11:56,-115.0343,36.2362,570.00,80.60,62.60,54.30,20.00,5.00,0.00,29.90,M,10.00,M,SCT,SCT,M,M,15000.00,20000.00,M,M,M,M,M,M,M,M,M,81.84,KLSV 151156Z COR 02005KT 10SM SCT150 SCT200 27/17 A2990 RMK AO2 SLPNO ALSTG ESTMD 10289 20265 RVRNO $ COR 1211,M
CXP,2022-08-15 12:15,-119.7326,39.1923,1431.00,53.60,28.40,37.67,0.00,0.00,0.00,30.13,M,10.00,M,CLR,M,M,M,M,M,M,M,M,M,M,M,M,M,M,53.60,KCXP 151215Z AUTO 00000KT 10SM CLR 12/M02 A3013 RMK AO2,M
TMT,2022-08-15 12:15,-117.1971,39.4643,1749.34,49.50,41.70,74.39,0.00,0.00,0.00,30.18,M,10.00,M,CLR,M,M,M,M,M,M,M,M,M,M,M,M,M,M,49.50,KTMT 151215Z AUTO 00000KT 10SM CLR 10/05 A3018 RMK AO2 T00970054,M
BAM,2022-08-15 12:15,-116.8743,40.5990,1382.36,51.80,32.00,46.59,0.00,0.00,0.00,30.09,M,10.00,M,CLR,M,M,M,M,M,M,M,M,M,M,M,M,M,M,51.80,KBAM 151215Z AUTO 00000KT 10SM CLR 11/00 A3009 RMK AO1,M
HTH,2022-08-15 12:15,-118.6315,38.5448,1282.89,68.00,26.60,20.98,220.00,4.00,0.00,30.07,M,10.00,M,CLR,M,M,M,M,M,M,M,M,M,M,M,M,M,M,68.00,KHTH 151215Z AUTO 22004KT 10SM CLR 20/M03 A3007 RMK A01,M
MEV,2022-08-15 12:15,-119.7500,38.9963,1441.42,42.80,30.20,60.79,0.00,0.00,0.00,30.12,M,10.00,M,FEW,FEW,M,M,4000.00,4700.00,M,M,M,M,M,M,M,M,M,42.80,KMEV 151215Z AUTO 00000KT 10SM FEW040 FEW047 06/M01 A3012 RMK AO2,M
RTS,2022-08-15 12:15,-119.8764,39.6682,1539.00,50.00,21.20,31.87,350.00,6.00,0.00,30.15,M,10.00,M,CLR,M,M,M,M,M,M,M,M,M,M,M,M,M,M,50.00,KRTS 151215Z AUTO 35006KT 10SM CLR 10/M06 A3015 RMK AO2,M
BVU,2022-08-15 12:15,-114.8611,35.9475,671.00,77.00,64.40,65.12,40.00,6.00,0.00,29.93,M,M,M,M,M,M,M,M,M,M,M,M,M,M,M,M,M,M,77.00,KBVU 151215Z AUTO 04006KT 25/18 A2993 RMK AO2 PWINO TSNO,M
CXP,2022-08-15 12:35,-119.7326,39.1923,1431.00,53.60,26.60,34.98,0.00,0.00,0.00,30.13,M,10.00,M,CLR,M,M,M,M,M,M,M,M,M,M,M,M,M,M,53.60,KCXP 151235Z AUTO 00000KT 10SM CLR 12/M03 A3013 RMK AO2,M
TMT,2022-08-15 12:35,-117.1971,39.4643,1749.34,49.80,41.20,72.16,0.00,0.00,0.00,30.19,M,10.00,M,CLR,M,M,M,M,M,M,M,M,M,M,M,M,M,M,49.80,KTMT 151235Z AUTO 00000KT 10SM CLR 10/05 A3019 RMK AO2 T00990051,M
MEV,2022-08-15 12:35,-119.7500,38.9963,1441.42,44.60,30.20,56.74,70.00,4.00,0.00,30.12,M,10.00,M,CLR,M,M,M,M,M,M,M,M,M,M,M,M,M,M,42.13,KMEV 151235Z AUTO 07004KT 10SM CLR 07/M01 A3012 RMK AO2,M
BAM,2022-08-15 12:35,-116.8743,40.5990,1382.36,50.00,32.00,49.81,0.00,0.00,0.00,30.10,M,10.00,M,CLR,M,M,M,M,M,M,M,M,M,M,M,M,M,M,50.00,KBAM 151235Z AUTO 00000KT 10SM CLR 10/00 A3010 RMK AO1,M
BVU,2022-08-15 12:35,-114.8611,35.9475,671.00,77.00,64.40,65.12,50.00,5.00,0.00,29.94,M,M,M,M,M,M,M,M,M,M,M,M,M,M,M,M,M,M,77.00,KBVU 151235Z AUTO 05005KT 25/18 A2994 RMK AO2 PWINO TSNO,M
RTS,2022-08-15 12:35,-119.8764,39.6682,1539.00,48.20,21.20,34.09,320.00,4.00,0.00,30.15,M,10.00,M,CLR,M,M,M,M,M,M,M,M,M,M,M,M,M,M,46.34,KRTS 151235Z AUTO 32004KT 10SM CLR 09/M06 A3015 RMK AO2,M
HTH,2022-08-15 12:35,-118.6315,38.5448,1282.89,66.20,26.60,22.33,220.00,3.00,0.00,30.08,M,10.00,M,CLR,M,M,M,M,M,M,M,M,M,M,M,M,M,M,66.20,KHTH 151235Z AUTO 22003KT 10SM CLR 19/M03 A3008 RMK A01,M
P68,2022-08-15 12:53,-116.0056,39.6014,1993.00,55.00,46.00,71.60,200.00,8.00,0.00,30.19,1014.70,M,M,M,M,M,M,M,M,M,M,M,M,M,M,M,M,M,55.00,KP68 151253Z AUTO 20008KT 13/08 A3019 RMK AO1 SLP147 T01280078,M
VGT,2022-08-15 12:53,-115.1933,36.2111,667.00,81.00,62.00,52.66,0.00,0.00,0.00,29.93,1012.30,10.00,M,CLR,M,M,M,M,M,M,M,M,M,M,M,M,M,M,82.06,KVGT 151253Z 00000KT 10SM CLR 27/17 A2993 RMK AO2 SLP123 T02720167,M
DRA,2022-08-15 12:53,-116.0278,36.6206,1009.00,74.00,59.00,59.66,M,3.00,0.00,29.99,1010.50,10.00,M,CLR,M,M,M,M,M,M,M,M,M,M,M,M,M,M,73.90,KDRA 151253Z AUTO VRB03KT 10SM CLR 23/15 A2999 RMK AO2 SLP105 T02330150,M
ELY,2022-08-15 12:53,-114.8453,39.2950,1909.00,50.00,48.00,92.80,190.00,8.00,0.00,30.24,1015.40,10.00,M,CLR,M,M,M,M,M,M,M,M,M,M,M,M,M,M,50.00,KELY 151253Z AUTO 19008KT 10SM CLR 10/09 A3024 RMK AO2 SLP154 T01000089 $,M
LOL,2022-08-15 12:53,-118.5701,40.0684,1192.43,50.00,17.10,26.74,0.00,0.00,0.00,30.04,1013.40,10.00,M,CLR,M,M,M,M,M,M,M,M,M,M,M,M,M,M,50.00,KLOL 151253Z AUTO 00000KT 10SM CLR 10/M08 A3004 RMK AO2 SLP134 T01001083,M
CXP,2022-08-15 12:55,-119.7326,39.1923,1431.00,53.60,26.60,34.98,0.00,0.00,0.00,30.13,M,10.00,M,CLR,M,M,M,M,M,M,M,M,M,M,M,M,M,M,53.60,KCXP 151255Z AUTO 00000KT 10SM CLR 12/M03 A3013 RMK AO2,M
TMT,2022-08-15 12:55,-117.1971,39.4643,1749.34,46.60,40.80,80.10,0.00,0.00,0.00,30.19,M,10.00,M,CLR,M,M,M,M,M,M,M,M,M,M,M,M,M,M,46.60,KTMT 151255Z AUTO 00000KT 10SM CLR 08/05 A3019 RMK AO2 T00810049,M
RNO,2022-08-15 12:55,-119.7711,39.4839,1341.00,61.00,28.90,29.45,M,4.00,0.00,30.11,1013.80,10.00,M,CLR,M,M,M,M,M,M,M,M,M,M,M,M,M,M,61.00,KRNO 151255Z VRB04KT 10SM CLR 16/M02 A3011 RMK AO2 SLP138 T01611017,M
RTS,2022-08-15 12:55,-119.8764,39.6682,1539.00,48.20,21.20,34.09,330.00,6.00,0.00,30.15,M,10.00,M,CLR,M,M,M,M,M,M,M,M,M,M,M,M,M,M,45.04,KRTS 151255Z AUTO 33006KT 10SM CLR 09/M06 A3015 RMK AO2,M
MEV,2022-08-15 12:55,-119.7500,38.9963,1441.42,42.80,30.20,60.79,0.00,0.00,0.00,30.13,M,10.00,M,CLR,M,M,M,M,M,M,M,M,M,M,M,M,M,M,42.80,KMEV 151255Z AUTO 00000KT 10SM CLR 06/M01 A3013 RMK AO2,M
BAM,2022-08-15 12:55,-116.8743,40.5990,1382.36,50.00,32.00,49.81,240.00,5.00,0.00,30.10,M,10.00,M,CLR,M,M,M,M,M,M,M,M,M,M,M,M,M,M,50.00,KBAM 151255Z AUTO 24005KT 10SM CLR 10/00 A3010 RMK AO1,M
BVU,2022-08-15 12:55,-114.8611,35.9475,671.00,78.80,64.40,61.36,60.00,4.00,0.00,29.94,M,M,M,M,M,M,M,M,M,M,M,M,M,M,M,M,M,M,78.80,KBVU 151255Z AUTO 06004KT 26/18 A2994 RMK AO2 PWINO TSNO,M
HTH,2022-08-15 12:55,-118.6315,38.5448,1282.89,66.20,30.20,25.88,0.00,0.00,0.00,30.08,M,10.00,M,CLR,M,M,M,M,M,M,M,M,M,M,M,M,M,M,66.20,KHTH 151255Z AUTO 00000KT 10SM CLR 19/M01 A3008 RMK A01,M
WMC,2022-08-15 12:56,-117.8072,40.9019,1315.00,49.00,28.00,44.10,0.00,0.00,0.00,30.08,1013.80,10.00,M,CLR,M,M,M,M,M,M,M,M,M,M,M,M,M,M,48.90,KWMC 151256Z AUTO 00000KT 10SM CLR 09/M02 A3008 RMK AO2 SLP138 T00941022 $,M
LAS,2022-08-15 12:56,-115.1634,36.0719,663.00,79.00,62.00,56.23,90.00,5.00,0.00,29.94,1011.20,10.00,M,BKN,BKN,M,M,15000.00,22000.00,M,M,M,M,M,M,M,M,M,79.00,KLAS 151256Z 09005KT 10SM BKN150 BKN220 26/17 A2994 RMK AO2 SLP112 T02610167,M
EKO,2022-08-15 12:56,-115.7860,40.8242,1367.00,52.00,47.00,82.68,40.00,5.00,0.00,30.15,1016.50,10.00,M,CLR,M,M,M,M,M,M,M,M,M,M,M,M,M,M,52.00,KEKO 151256Z AUTO 04005KT 10SM CLR 11/08 A3015 RMK AO2 SLP165 T01110083,M
LSV,2022-08-15 12:56,-115.0343,36.2362,570.00,78.80,62.60,57.60,30.00,3.00,0.00,29.90,M,10.00,M,SCT,SCT,M,M,15000.00,20000.00,M,M,M,M,M,M,M,M,M,78.80,KLSV 151256Z 03003KT 10SM SCT150 SCT200 26/17 A2990 RMK SLPNO WND DATA ESTMD ALSTG ESTMD $,M
TPH,2022-08-15 12:56,-117.0904,38.0505,1654.00,64.00,50.00,60.34,360.00,8.00,0.00,30.16,1012.50,10.00,M,CLR,M,M,M,M,M,M,M,M,M,M,M,M,M,M,64.00,KTPH 151256Z AUTO 36008KT 10SM CLR 18/10 A3016 RMK AO2 SLP125 T01780100 $,M
INS,2022-08-15 12:56,-115.6733,36.5872,955.00,73.40,59.20,61.11,0.00,0.00,0.00,30.00,1010.80,10.00,M,CLR,M,M,M,M,M,M,M,M,M,M,M,M,M,M,73.40,KINS 151256Z AUTO 00000KT 10SM CLR 23/15 A3000 RMK AO2 SLP108 T02300151,M
HND,2022-08-15 12:56,-115.1344,35.9729,742.79,76.00,64.00,66.60,90.00,3.00,0.00,29.98,1013.90,10.00,M,CLR,M,M,M,M,M,M,M,M,M,M,M,M,M,M,75.90,KHND 151256Z AUTO 09003KT 10SM CLR 24/18 A2998 RMK AO2 SLP139 T02440178,M
HTH,2022-08-15 13:15,-118.6315,38.5448,1282.89,64.40,28.40,25.60,0.00,0.00,0.00,30.08,M,10.00,M,CLR,M,M,M,M,M,M,M,M,M,M,M,M,M,M,64.40,KHTH 151315Z AUTO 00000KT 10SM CLR 18/M02 A3008 RMK A01,M
BAM,2022-08-15 13:15,-116.8743,40.5990,1382.36,51.80,33.80,50.08,280.00,4.00,0.00,30.11,M,10.00,M,CLR,M,M,M,M,M,M,M,M,M,M,M,M,M,M,51.80,KBAM 151315Z AUTO 28004KT 10SM CLR 11/01 A3011 RMK AO1,M
MEV,2022-08-15 13:15,-119.7500,38.9963,1441.42,44.60,32.00,61.03,0.00,0.00,0.00,30.13,M,10.00,M,CLR,M,M,M,M,M,M,M,M,M,M,M,M,M,M,44.60,KMEV 151315Z AUTO 00000KT 10SM CLR 07/00 A3013 RMK AO2,M
RTS,2022-08-15 13:15,-119.8764,39.6682,1539.00,50.00,21.20,31.87,0.00,0.00,0.00,30.15,M,10.00,M,CLR,M,M,M,M,M,M,M,M,M,M,M,M,M,M,50.00,KRTS 151315Z AUTO 00000KT 10SM CLR 10/M06 A3015 RMK AO2,M
CXP,2022-08-15 13:15,-119.7326,39.1923,1431.00,53.60,28.40,37.67,0.00,0.00,0.00,30.14,M,10.00,M,CLR,M,M,M,M,M,M,M,M,M,M,M,M,M,M,53.60,KCXP 151315Z AUTO 00000KT 10SM CLR 12/M02 A3014 RMK AO2,M
BVU,2022-08-15 13:15,-114.8611,35.9475,671.00,78.80,64.40,61.36,0.00,0.00,0.00,29.94,M,M,M,M,M,M,M,M,M,M,M,M,M,M,M,M,M,M,78.80,KBVU 151315Z AUTO 00000KT 26/18 A2994 RMK AO2 PWINO TSNO,M
TMT,2022-08-15 13:15,-117.1971,39.4643,1749.34,46.00,39.60,78.51,0.00,0.00,0.00,30.19,M,10.00,M,CLR,M,M,M,M,M,M,M,M,M,M,M,M,M,M,45.90,KTMT 151315Z AUTO 00000KT 10SM CLR 08/04 A3019 RMK AO2 T00770042,M
MEV,2022-08-15 13:35,-119.7500,38.9963,1441.42,42.80,30.20,60.79,140.00,3.00,0.00,30.13,M,10.00,M,CLR,M,M,M,M,M,M,M,M,M,M,M,M,M,M,41.03,KMEV 151335Z AUTO 14003KT 10SM CLR 06/M01 A3013 RMK AO2,M
RTS,2022-08-15 13:35,-119.8764,39.6682,1539.00,51.80,24.80,34.69,0.00,0.00,0.00,30.15,M,10.00,M,CLR,M,M,M,M,M,M,M,M,M,M,M,M,M,M,51.80,KRTS 151335Z AUTO 00000KT 10SM CLR 11/M04 A3015 RMK AO2,M
CXP,2022-08-15 13:35,-119.7326,39.1923,1431.00,53.60,28.40,37.67,0.00,0.00,0.00,30.14,M,10.00,M,CLR,M,M,M,M,M,M,M,M,M,M,M,M,M,M,53.60,KCXP 151335Z AUTO 00000KT 10SM CLR 12/M02 A3014 RMK AO2,M
BVU,2022-08-15 13:35,-114.8611,35.9475,671.00,77.00,66.20,69.33,0.00,0.00,0.00,29.95,M,M,M,M,M,M,M,M,M,M,M,M,M,M,M,M,M,M,77.00,KBVU 151335Z AUTO 00000KT 25/19 A2995 RMK AO2 PWINO TSNO,M
TMT,2022-08-15 13:35,-117.1971,39.4643,1749.34,48.00,41.70,78.68,0.00,0.00,0.00,30.20,M,10.00,M,CLR,M,M,M,M,M,M,M,M,M,M,M,M,M,M,48.00,KTMT 151335Z AUTO 00000KT 10SM CLR 09/05 A3020 RMK AO2 T00890054,M
HTH,2022-08-15 13:35,-118.6315,38.5448,1282.89,66.20,32.00,27.83,220.00,4.00,0.00,30.08,M,10.00,M,CLR,M,M,M,M,M,M,M,M,M,M,M,M,M,M,66.20,KHTH 151335Z AUTO 22004KT 10SM CLR 19/M00 A3008 RMK A01,M
BAM,2022-08-15 13:35,-116.8743,40.5990,1382.36,51.80,32.00,46.59,170.00,4.00,0.00,30.12,M,10.00,M,CLR,M,M,M,M,M,M,M,M,M,M,M,M,M,M,51.80,KBAM 151335Z AUTO 17004KT 10SM CLR 11/00 A3012 RMK AO1,M
VGT,2022-08-15 13:53,-115.1933,36.2111,667.00,81.00,62.00,52.66,0.00,0.00,0.00,29.94,1012.70,10.00,M,CLR,M,M,M,M,M,M,M,M,M,M,M,M,M,M,82.06,KVGT 151353Z 00000KT 10SM CLR 27/17 A2994 RMK AO2 SLP127 T02720167,M
ELY,2022-08-15 13:53,-114.8453,39.2950,1909.00,52.00,49.00,89.13,170.00,6.00,0.00,30.25,1015.60,10.00,M,CLR,M,M,M,M,M,M,M,M,M,M,M,M,M,M,52.00,KELY 151353Z AUTO 17006KT 10SM CLR 11/09 A3025 RMK AO2 SLP156 T01110094 $,M
LOL,2022-08-15 13:53,-118.5701,40.0684,1192.43,50.00,18.00,27.80,300.00,5.00,0.00,30.05,1014.00,10.00,M,CLR,M,M,M,M,M,M,M,M,M,M,M,M,M,M,50.00,KLOL 151353Z AUTO 30005KT 10SM CLR 10/M08 A3005 RMK AO2 SLP140 T01001078,M
DRA,2022-08-15 13:53,-116.0278,36.6206,1009.00,76.00,60.00,58.04,80.00,5.00,0.00,30.01,1010.70,10.00,M,CLR,M,M,M,M,M,M,M,M,M,M,M,M,M,M,75.90,KDRA 151353Z AUTO 08005KT 10SM CLR 24/16 A3001 RMK AO2 SLP107 T02440156,M
P68,2022-08-15 13:53,-116.0056,39.6014,1993.00,57.00,47.00,68.90,180.00,4.00,0.00,30.21,1015.20,M,M,M,M,M,M,M,M,M,M,M,M,M,M,M,M,M,57.00,KP68 151353Z AUTO 18004KT 14/08 A3021 RMK AO1 SLP152 T01390083,M
TMT,2022-08-15 13:55,-117.1971,39.4643,1749.34,53.60,44.20,70.37,0.00,0.00,0.00,30.20,M,10.00,M,CLR,M,M,M,M,M,M,M,M,M,M,M,M,M,M,53.60,KTMT 151355Z AUTO 00000KT 10SM CLR 12/07 A3020 RMK AO2 T01200068,M
HTH,2022-08-15 13:55,-118.6315,38.5448,1282.89,66.20,32.00,27.83,0.00,0.00,0.00,30.09,M,10.00,M,CLR,M,M,M,M,M,M,M,M,M,M,M,M,M,M,66.20,KHTH 151355Z AUTO 00000KT 10SM CLR 19/00 A3009 RMK A01,M
BAM,2022-08-15 13:55,-116.8743,40.5990,1382.36,51.80,32.00,46.59,0.00,0.00,0.00,30.12,M,10.00,M,CLR,M,M,M,M,M,M,M,M,M,M,M,M,M,M,51.80,KBAM 151355Z AUTO 00000KT 10SM CLR 11/00 A3012 RMK AO1,M
MEV,2022-08-15 13:55,-119.7500,38.9963,1441.42,46.40,32.00,57.00,0.00,0.00,0.00,30.14,M,10.00,M,CLR,M,M,M,M,M,M,M,M,M,M,M,M,M,M,46.40,KMEV 151355Z AUTO 00000KT 10SM CLR 08/00 A3014 RMK AO2,M
RTS,2022-08-15 13:55,-119.8764,39.6682,1539.00,53.60,26.60,34.98,0.00,0.00,0.00,30.16,M,10.00,M,CLR,M,M,M,M,M,M,M,M,M,M,M,M,M,M,53.60,KRTS 151355Z AUTO 00000KT 10SM CLR 12/M03 A3016 RMK AO2,M
RNO,2022-08-15 13:55,-119.7711,39.4839,1341.00,62.00,28.90,28.33,270.00,3.00,0.00,30.12,1014.20,10.00,M,CLR,M,M,M,M,M,M,M,M,M,M,M,M,M,M,62.10,KRNO 151355Z 27003KT 10SM CLR 17/M02 A3012 RMK AO2 SLP142 T01671017,M
CXP,2022-08-15 13:55,-119.7326,39.1923,1431.00,53.60,30.20,40.54,0.00,0.00,0.00,30.15,M,10.00,M,CLR,M,M,M,M,M,M,M,M,M,M,M,M,M,M,53.60,KCXP 151355Z AUTO 00000KT 10SM CLR 12/M01 A3015 RMK AO2,M
BVU,2022-08-15 13:55,-114.8611,35.9475,671.00,78.80,64.40,61.36,0.00,0.00,0.00,29.95,M,M,M,M,M,M,M,M,M,M,M,M,M,M,M,M,M,M,78.80,KBVU 151355Z AUTO 00000KT 26/18 A2995 RMK AO2 PWINO TSNO,M
INS,2022-08-15 13:56,-115.6733,36.5872,955.00,73.80,59.00,59.86,0.00,0.00,0.00,30.00,1010.90,10.00,M,CLR,M,M,M,M,M,M,M,M,M,M,M,M,M,M,73.80,KINS 151356Z AUTO 00000KT 10SM CLR 23/15 A3000 RMK AO2 SLP109 T02320150,M
EKO,2022-08-15 13:56,-115.7860,40.8242,1367.00,56.00,47.00,71.69,70.00,3.00,0.00,30.16,1016.90,10.00,M,CLR,M,M,M,M,M,M,M,M,M,M,M,M,M,M,55.90,KEKO 151356Z AUTO 07003KT 10SM CLR 13/08 A3016 RMK AO2 SLP169 T01330083,M
HND,2022-08-15 13:56,-115.1344,35.9729,742.79,77.00,64.00,64.21,0.00,0.00,0.00,29.98,1014.00,10.00,M,CLR,M,M,M,M,M,M,M,M,M,M,M,M,M,M,77.00,KHND 151356Z 00000KT 10SM CLR 25/18 A2998 RMK AO2 SLP140 T02500178,M
LSV,2022-08-15 13:56,-115.0343,36.2362,570.00,80.60,62.60,54.30,70.00,4.00,0.00,29.92,M,10.00,M,SCT,M,M,M,15000.00,M,M,M,M,M,M,M,M,M,M,81.84,KLSV 151356Z 07004KT 10SM SCT150 27/17 A2992 RMK SLPNO WND DATA ESTMD ALSTG/SLP ESTMD $,M
LAS,2022-08-15 13:56,-115.1634,36.0719,663.00,79.00,62.00,56.23,0.00,0.00,0.00,29.95,1011.60,10.00,M,FEW,BKN,M,M,12000.00,17000.00,M,M,M,M,M,M,M,M,M,79.00,KLAS 151356Z 00000KT 10SM FEW120 BKN170 26/17 A2995 RMK AO2 SLP116 T02610167,M
WMC,2022-08-15 13:56,-117.8072,40.9019,1315.00,55.00,28.00,35.21,120.00,4.00,0.00,30.10,1014.20,10.00,M,CLR,M,M,M,M,M,M,M,M,M,M,M,M,M,M,55.00,KWMC 151356Z AUTO 12004KT 10SM CLR 13/M02 A3010 RMK AO2 SLP142 T01281022 $,M
TPH,2022-08-15 13:56,-117.0904,38.0505,1654.00,66.00,49.00,54.01,10.00,11.00,0.00,30.17,1012.80,10.00,M,CLR,M,M,M,M,M,M,M,M,M,M,M,M,M,M,66.00,KTPH 151356Z AUTO 01011KT 10SM CLR 19/09 A3017 RMK AO2 SLP128 T01890094 $,M
BVU,2022-08-15 14:15,-114.8611,35.9475,671.00,78.80,64.40,61.36,310.00,4.00,0.00,29.95,M,M,M,M,M,M,M,M,M,M,M,M,M,M,M,M,M,M,78.80,KBVU 151415Z AUTO 31004KT 26/18 A2995 RMK AO2 PWINO TSNO,M
HTH,2022-08-15 14:15,-118.6315,38.5448,1282.89,69.80,28.40,21.24,260.00,4.00,0.00,30.09,M,10.00,M,CLR,M,M,M,M,M,M,M,M,M,M,M,M,M,M,69.80,KHTH 151415Z AUTO 26004KT 10SM CLR 21/M02 A3009 RMK A01,M
BAM,2022-08-15 14:15,-116.8743,40.5990,1382.36,55.40,32.00,40.84,0.00,0.00,0.00,30.12,M,10.00,M,CLR,M,M,M,M,M,M,M,M,M,M,M,M,M,M,55.40,KBAM 151415Z AUTO 00000KT 10SM CLR 13/00 A3012 RMK AO1,M
MEV,2022-08-15 14:15,-119.7500,38.9963,1441.42,53.60,32.00,43.61,0.00,0.00,0.00,30.14,M,10.00,M,CLR,M,M,M,M,M,M,M,M,M,M,M,M,M,M,53.60,KMEV 151415Z AUTO 00000KT 10SM CLR 12/M00 A3014 RMK AO2,M
RTS,2022-08-15 14:15,-119.8764,39.6682,1539.00,55.40,26.60,32.76,0.00,0.00,0.00,30.16,M,10.00,M,CLR,M,M,M,M,M,M,M,M,M,M,M,M,M,M,55.40,KRTS 151415Z AUTO 00000KT 10SM CLR 13/M03 A3016 RMK AO2,M
CXP,2022-08-15 14:15,-119.7326,39.1923,1431.00,57.20,30.20,35.57,0.00,0.00,0.00,30.15,M,10.00,M,CLR,M,M,M,M,M,M,M,M,M,M,M,M,M,M,57.20,KCXP 151415Z AUTO 00000KT 10SM CLR 14/M01 A3015 RMK AO2,M
TMT,2022-08-15 14:15,-117.1971,39.4643,1749.34,57.70,45.50,63.72,0.00,0.00,0.00,30.21,M,10.00,M,CLR,M,M,M,M,M,M,M,M,M,M,M,M,M,M,57.70,KTMT 151415Z AUTO 00000KT 10SM CLR 14/08 A3021 RMK AO2 T01430075,M
MEV,2022-08-15 14:35,-119.7500,38.9963,1441.42,55.40,33.80,43.90,0.00,0.00,0.00,30.14,M,10.00,M,CLR,M,M,M,M,M,M,M,M,M,M,M,M,M,M,55.40,KMEV 151435Z AUTO 00000KT 10SM CLR 13/01 A3014 RMK AO2,M
BVU,2022-08-15 14:35,-114.8611,35.9475,671.00,78.80,64.40,61.36,0.00,0.00,0.00,29.95,M,M,M,M,M,M,M,M,M,M,M,M,M,M,M,M,M,M,78.80,KBVU 151435Z AUTO 00000KT 26/18 A2995 RMK AO2 PWINO TSNO,M
CXP,2022-08-15 14:35,-119.7326,39.1923,1431.00,60.80,28.40,29.06,0.00,0.00,0.00,30.15,M,10.00,M,CLR,M,M,M,M,M,M,M,M,M,M,M,M,M,M,60.80,KCXP 151435Z AUTO 00000KT 10SM CLR 16/M02 A3015 RMK AO2,M
RTS,2022-08-15 14:35,-119.8764,39.6682,1539.00,57.20,23.00,26.42,0.00,0.00,0.00,30.16,M,10.00,M,CLR,M,M,M,M,M,M,M,M,M,M,M,M,M,M,57.20,KRTS 151435Z AUTO 00000KT 10SM CLR 14/M05 A3016 RMK AO2,M
BAM,2022-08-15 14:35,-116.8743,40.5990,1382.36,60.80,33.80,36.16,0.00,0.00,0.00,30.13,M,10.00,M,CLR,M,M,M,M,M,M,M,M,M,M,M,M,M,M,60.80,KBAM 151435Z AUTO 00000KT 10SM CLR 16/01 A3013 RMK AO1,M
HTH,2022-08-15 14:35,-118.6315,38.5448,1282.89,69.80,28.40,21.24,280.00,3.00,0.00,30.10,M,10.00,M,CLR,M,M,M,M,M,M,M,M,M,M,M,M,M,M,69.80,KHTH 151435Z AUTO 28003KT 10SM CLR 21/M02 A3010 RMK A01,M
TMT,2022-08-15 14:35,-117.1971,39.4643,1749.34,60.00,46.00,59.59,0.00,0.00,0.00,30.21,M,10.00,M,CLR,M,M,M,M,M,M,M,M,M,M,M,M,M,M,60.10,KTMT 151435Z AUTO 00000KT 10SM CLR 16/08 A3021 RMK AO2 T01560078,M
VGT,2022-08-15 14:53,-115.1933,36.2111,667.00,82.00,63.00,52.62,0.00,0.00,0.00,29.94,1012.80,10.00,M,CLR,M,M,M,M,M,M,M,M,M,M,M,M,M,M,83.17,KVGT 151453Z 00000KT 10SM CLR 28/17 A2994 RMK AO2 SLP128 T02780172 51006,M
LOL,2022-08-15 14:53,-118.5701,40.0684,1192.43,61.00,21.00,21.19,40.00,3.00,0.00,30.06,1014.30,10.00,M,CLR,M,M,M,M,M,M,M,M,M,M,M,M,M,M,61.00,KLOL 151453Z AUTO 04003KT 10SM CLR 16/M06 A3006 RMK AO2 SLP143 T01611061 51010,M
ELY,2022-08-15 14:53,-114.8453,39.2950,1909.00,61.00,51.00,69.86,0.00,0.00,0.00,30.25,1015.20,10.00,M,CLR,M,M,M,M,M,M,M,M,M,M,M,M,M,M,61.00,KELY 151453Z AUTO 00000KT 10SM CLR 16/11 A3025 RMK AO2 SLP152 T01610106 53004 $,M
DRA,2022-08-15 14:53,-116.0278,36.6206,1009.00,80.00,60.00,50.52,10.00,6.00,0.00,30.01,1010.80,10.00,M,CLR,M,M,M,M,M,M,M,M,M,M,M,M,M,M,80.94,KDRA 151453Z AUTO 01006KT 10SM CLR 27/16 A3001 RMK AO2 SLP108 T02670156 52006,M
RTS,2022-08-15 14:55,-119.8764,39.6682,1539.00,59.00,28.40,30.98,0.00,0.00,0.00,30.16,M,10.00,M,CLR,M,M,M,M,M,M,M,M,M,M,M,M,M,M,59.00,KRTS 151455Z AUTO 00000KT 10SM CLR 15/M02 A3016 RMK AO2,M
MEV,2022-08-15 14:55,-119.7500,38.9963,1441.42,59.00,32.00,35.87,0.00,0.00,0.00,30.14,M,10.00,M,CLR,M,M,M,M,M,M,M,M,M,M,M,M,M,M,59.00,KMEV 151455Z AUTO 00000KT 10SM CLR 15/00 A3014 RMK AO2,M
BAM,2022-08-15 14:55,-116.8743,40.5990,1382.36,64.40,37.40,36.74,0.00,0.00,0.00,30.13,M,10.00,M,CLR,M,M,M,M,M,M,M,M,M,M,M,M,M,M,64.40,KBAM 151455Z AUTO 00000KT 10SM CLR 18/03 A3013 RMK AO1,M
CXP,2022-08-15 14:55,-119.7326,39.1923,1431.00,62.60,28.40,27.27,0.00,0.00,0.00,30.15,M,10.00,M,CLR,M,M,M,M,M,M,M,M,M,M,M,M,M,M,62.60,KCXP 151455Z AUTO 00000KT 10SM CLR 17/M02 A3015 RMK AO2,M
HTH,2022-08-15 14:55,-118.6315,38.5448,1282.89,71.60,24.80,17.22,240.00,4.00,0.00,30.10,M,10.00,M,CLR,M,M,M,M,M,M,M,M,M,M,M,M,M,M,71.60,KHTH 151455Z AUTO 24004KT 10SM CLR 22/M04 A3010 RMK A01,M
TMT,2022-08-15 14:55,-117.1971,39.4643,1749.34,62.80,46.80,55.82,0.00,0.00,0.00,30.21,M,10.00,M,CLR,M,M,M,M,M,M,M,M,M,M,M,M,M,M,62.80,KTMT 151455Z AUTO 00000KT 10SM CLR 17/08 A3021 RMK AO2 T01710082,M
BVU,2022-08-15 14:55,-114.8611,35.9475,671.00,80.60,64.40,57.84,0.00,0.00,0.00,29.95,M,M,M,M,M,M,M,M,M,M,M,M,M,M,M,M,M,M,82.27,KBVU 151455Z AUTO 00000KT 27/18 A2995 RMK AO2 PWINO TSNO,M
RNO,2022-08-15 14:55,-119.7711,39.4839,1341.00,64.00,32.00,30.05,0.00,0.00,0.00,30.12,1014.50,10.00,M,CLR,M,M,M,M,M,M,M,M,M,M,M,M,M,M,64.00,KRNO 151455Z 00000KT 10SM CLR 18/00 A3012 RMK AO2 SLP145 T01780000 52006,M
LSV,2022-08-15 14:56,-115.0343,36.2362,570.00,79.70,61.50,53.80,90.00,3.00,0.00,29.92,M,10.00,M,CLR,M,M,M,M,M,M,M,M,M,M,M,M,M,M,79.70,KLSV 151456Z AUTO 09003KT 10SM CLR 27/16 A2992 RMK AO2 SLPNO T02650164 $,M
NFL,2022-08-15 14:56,-118.7010,39.4166,1199.00,71.00,28.00,19.99,160.00,7.00,0.00,30.06,1014.70,10.00,M,FEW,M,M,M,10000.00,M,M,M,M,M,M,M,M,M,M,71.10,KNFL 151456Z 16007KT 10SM FEW100 22/M02 A3006 RMK SLP147 T02171022,M
LAS,2022-08-15 14:56,-115.1634,36.0719,663.00,81.00,61.00,50.65,120.00,3.00,0.00,29.95,1011.60,10.00,M,FEW,SCT,M,M,12000.00,17000.00,M,M,M,M,M,M,M,M,M,81.81,KLAS 151456Z 12003KT 10SM FEW120 SCT170 27/16 A2995 RMK AO2 SLP116 T02720161 51006,M
TPH,2022-08-15 14:56,-117.0904,38.0505,1654.00,73.00,50.00,44.29,30.00,8.00,0.00,30.17,1012.80,10.00,M,CLR,M,M,M,M,M,M,M,M,M,M,M,M,M,M,73.00,KTPH 151456Z AUTO 03008KT 10SM CLR 23/10 A3017 RMK AO2 SLP128 T02280100 51005 $,M
HND,2022-08-15 14:56,-115.1344,35.9729,742.79,80.00,64.00,57.98,0.00,0.00,0.00,29.99,1014.20,10.00,M,CLR,M,M,M,M,M,M,M,M,M,M,M,M,M,M,81.71,KHND 151456Z 00000KT 10SM CLR 27/18 A2999 RMK AO2 SLP142 T02670178 51007,M
INS,2022-08-15 14:56,-115.6733,36.5872,955.00,77.50,59.00,52.92,0.00,0.00,0.00,30.01,1011.10,10.00,M,CLR,M,M,M,M,M,M,M,M,M,M,M,M,M,M,77.50,KINS 151456Z AUTO 00000KT 10SM CLR 25/15 A3001 RMK AO2 SLP111 T02530150 52007,M
WMC,2022-08-15 14:56,-117.8072,40.9019,1315.00,66.00,28.90,24.71,0.00,0.00,0.00,30.09,1014.20,10.00,M,CLR,M,M,M,M,M,M,M,M,M,M,M,M,M,M,66.00,KWMC 151456Z AUTO 00000KT 10SM CLR 19/M02 A3009 RMK AO2 SLP142 T01891017 50009 $,M
EKO,2022-08-15 14:56,-115.7860,40.8242,1367.00,60.00,48.00,64.26,80.00,6.00,0.00,30.17,1016.80,10.00,M,CLR,M,M,M,M,M,M,M,M,M,M,M,M,M,M,60.10,KEKO 151456Z AUTO 08006KT 10SM CLR 16/09 A3017 RMK AO2 SLP168 T01560089 51009,M
TMT,2022-08-15 15:15,-117.1971,39.4643,1749.34,M,M,M,0.00,0.00,0.00,30.21,M,10.00,M,CLR,M,M,M,M,M,M,M,M,M,M,M,M,M,M,M,KTMT 151515Z AUTO 00000KT 10SM CLR A3021 RMK AO2,M
CXP,2022-08-15 15:15,-119.7326,39.1923,1431.00,64.40,30.20,27.55,0.00,0.00,0.00,30.15,M,10.00,M,CLR,M,M,M,M,M,M,M,M,M,M,M,M,M,M,64.40,KCXP 151515Z AUTO 00000KT 10SM CLR 18/M01 A3015 RMK AO2,M
BVU,2022-08-15 15:15,-114.8611,35.9475,671.00,80.60,62.60,54.30,0.00,0.00,0.00,29.96,M,M,M,M,M,M,M,M,M,M,M,M,M,M,M,M,M,M,81.84,KBVU 151515Z AUTO 00000KT 27/17 A2996 RMK AO2 PWINO TSNO,M
RTS,2022-08-15 15:15,-119.8764,39.6682,1539.00,62.60,24.80,23.50,0.00,0.00,0.00,30.16,M,10.00,M,CLR,M,M,M,M,M,M,M,M,M,M,M,M,M,M,62.60,KRTS 151515Z AUTO 00000KT 10SM CLR 17/M04 A3016 RMK AO2,M
MEV,2022-08-15 15:15,-119.7500,38.9963,1441.42,60.80,33.80,36.16,0.00,0.00,0.00,30.14,M,3.00,M,CLR,M,M,M,M,M,M,M,HZ,M,M,M,M,M,M,60.80,KMEV 151515Z AUTO 00000KT 3SM HZ CLR 16/01 A3014 RMK AO2,M
BAM,2022-08-15 15:15,-116.8743,40.5990,1382.36,68.00,37.40,32.43,0.00,0.00,0.00,30.12,M,10.00,M,CLR,M,M,M,M,M,M,M,M,M,M,M,M,M,M,68.00,KBAM 151515Z AUTO 00000KT 10SM CLR 20/03 A3012 RMK AO1,M
HTH,2022-08-15 15:15,-118.6315,38.5448,1282.89,73.40,26.60,17.46,250.00,5.00,0.00,30.10,M,10.00,M,CLR,M,M,M,M,M,M,M,M,M,M,M,M,M,M,73.40,KHTH 151515Z AUTO 25005KT 10SM CLR 23/M03 A3010 RMK A01,M
MEV,2022-08-15 15:35,-119.7500,38.9963,1441.42,64.40,32.00,29.63,0.00,0.00,0.00,30.14,M,8.00,M,CLR,M,M,M,M,M,M,M,M,M,M,M,M,M,M,64.40,KMEV 151535Z AUTO 00000KT 8SM CLR 18/00 A3014 RMK AO2,M
RTS,2022-08-15 15:35,-119.8764,39.6682,1539.00,64.40,26.60,23.77,0.00,0.00,0.00,30.16,M,10.00,M,CLR,M,M,M,M,M,M,M,M,M,M,M,M,M,M,64.40,KRTS 151535Z AUTO 00000KT 10SM CLR 18/M03 A3016 RMK AO2,M
CXP,2022-08-15 15:35,-119.7326,39.1923,1431.00,66.20,28.40,24.04,0.00,0.00,0.00,30.15,M,10.00,M,CLR,M,M,M,M,M,M,M,M,M,M,M,M,M,M,66.20,KCXP 151535Z AUTO 00000KT 10SM CLR 19/M02 A3015 RMK AO2,M
BAM,2022-08-15 15:35,-116.8743,40.5990,1382.36,73.40,37.40,26.98,0.00,0.00,0.00,30.12,M,10.00,M,CLR,M,M,M,M,M,M,M,M,M,M,M,M,M,M,73.40,KBAM 151535Z AUTO 00000KT 10SM CLR 23/03 A3012 RMK AO1,M
HTH,2022-08-15 15:35,-118.6315,38.5448,1282.89,75.20,24.80,15.25,0.00,0.00,0.00,30.10,M,10.00,M,CLR,M,M,M,M,M,M,M,M,M,M,M,M,M,M,75.20,KHTH 151535Z AUTO 00000KT 10SM CLR 24/M04 A3010 RMK A01,M
BVU,2022-08-15 15:35,-114.8611,35.9475,671.00,80.60,62.60,54.30,0.00,0.00,0.00,29.96,M,M,M,M,M,M,M,M,M,M,M,M,M,M,M,M,M,M,81.84,KBVU 151535Z AUTO 00000KT 27/17 A2996 RMK AO2 PWINO TSNO,M
TMT,2022-08-15 15:35,-117.1971,39.4643,1749.34,M,M,M,0.00,0.00,0.00,30.20,M,10.00,M,CLR,M,M,M,M,M,M,M,M,M,M,M,M,M,M,M,KTMT 151535Z AUTO 00000KT 10SM CLR A3020 RMK AO2,M
DRA,2022-08-15 15:53,-116.0278,36.6206,1009.00,84.00,59.00,42.80,M,3.00,0.00,30.01,1010.90,10.00,M,CLR,M,M,M,M,M,M,M,M,M,M,M,M,M,M,83.75,KDRA 151553Z AUTO VRB03KT 10SM CLR 29/15 A3001 RMK AO2 SLP109 T02890150,M
LOL,2022-08-15 15:53,-118.5701,40.0684,1192.43,75.00,19.00,12.02,50.00,4.00,0.00,30.07,1013.80,10.00,M,CLR,M,M,M,M,M,M,M,M,M,M,M,M,M,M,75.00,KLOL 151553Z AUTO 05004KT 10SM CLR 24/M07 A3007 RMK AO2 SLP138 T02391072,M
VGT,2022-08-15 15:53,-115.1933,36.2111,667.00,86.00,63.00,46.25,0.00,0.00,0.00,29.94,1012.80,10.00,M,CLR,M,M,M,M,M,M,M,M,M,M,M,M,M,M,86.88,KVGT 151553Z 00000KT 10SM CLR 30/17 A2994 RMK AO2 SLP128 T03000172,M
ELY,2022-08-15 15:53,-114.8453,39.2950,1909.00,M,M,M,M,M,0.00,30.24,M,M,M,M,M,M,M,M,M,M,M,M,M,M,M,M,M,M,M,KELY 151553Z AUTO A3024 RMK AO2 SLPNO PWINO FZRANO,M
MEV,2022-08-15 15:55,-119.7500,38.9963,1441.42,68.00,33.80,28.11,200.00,4.00,0.00,30.14,M,10.00,M,CLR,M,M,M,M,M,M,M,M,M,M,M,M,M,M,68.00,KMEV 151555Z AUTO 20004KT 10SM CLR 20/01 A3014 RMK AO2,M
BAM,2022-08-15 15:55,-116.8743,40.5990,1382.36,73.40,37.40,26.98,0.00,0.00,0.00,30.12,M,10.00,M,CLR,M,M,M,M,M,M,M,M,M,M,M,M,M,M,73.40,KBAM 151555Z AUTO 00000KT 10SM CLR 23/03 A3012 RMK AO1,M
CXP,2022-08-15 15:55,-119.7326,39.1923,1431.00,68.00,30.20,24.32,0.00,0.00,0.00,30.15,M,10.00,M,CLR,M,M,M,M,M,M,M,M,M,M,M,M,M,M,68.00,KCXP 151555Z AUTO 00000KT 10SM CLR 20/M01 A3015 RMK AO2,M
BVU,2022-08-15 15:55,-114.8611,35.9475,671.00,82.40,62.60,51.21,0.00,0.00,0.00,29.96,M,M,M,M,M,M,M,M,M,M,M,M,M,M,M,M,M,M,83.41,KBVU 151555Z AUTO 00000KT 28/17 A2996 RMK AO2 PWINO TSNO,M
HTH,2022-08-15 15:55,-118.6315,38.5448,1282.89,77.00,24.80,14.37,0.00,0.00,0.00,30.10,M,10.00,M,CLR,M,M,M,M,M,M,M,M,M,M,M,M,M,M,77.00,KHTH 151555Z AUTO 00000KT 10SM CLR 25/M04 A3010 RMK A01,M
RNO,2022-08-15 15:55,-119.7711,39.4839,1341.00,69.00,30.90,24.09,0.00,0.00,0.00,30.12,1014.30,10.00,M,CLR,M,M,M,M,M,M,M,M,M,M,M,M,M,M,69.10,KRNO 151555Z 00000KT 10SM CLR 21/M01 A3012 RMK AO2 SLP143 T02061006,M
TMT,2022-08-15 15:55,-117.1971,39.4643,1749.34,M,M,M,0.00,0.00,0.00,30.20,M,10.00,M,CLR,M,M,M,M,M,M,M,M,M,M,M,M,M,M,M,KTMT 151555Z AUTO 00000KT 10SM CLR A3020 RMK AO2,M
RTS,2022-08-15 15:55,-119.8764,39.6682,1539.00,68.00,21.20,16.74,0.00,0.00,0.00,30.16,M,10.00,M,CLR,M,M,M,M,M,M,M,M,M,M,M,M,M,M,68.00,KRTS 151555Z AUTO 00000KT 10SM CLR 20/M06 A3016 RMK AO2,M
TPH,2022-08-15 15:56,-117.0904,38.0505,1654.00,76.00,49.00,38.57,140.00,3.00,0.00,30.17,1013.10,10.00,M,CLR,M,M,M,M,M,M,M,M,M,M,M,M,M,M,75.90,KTPH 151556Z AUTO 14003KT 10SM CLR 24/09 A3017 RMK AO2 SLP131 T02440094 $,M
EKO,2022-08-15 15:56,-115.7860,40.8242,1367.00,68.00,49.00,50.40,60.00,5.00,0.00,30.16,1016.10,10.00,M,CLR,M,M,M,M,M,M,M,M,M,M,M,M,M,M,68.00,KEKO 151556Z AUTO 06005KT 10SM CLR 20/09 A3016 RMK AO2 SLP161 T02000094,M
HND,2022-08-15 15:56,-115.1344,35.9729,742.79,82.00,63.00,52.62,M,3.00,0.00,29.99,1014.20,10.00,M,CLR,M,M,M,M,M,M,M,M,M,M,M,M,M,M,83.17,KHND 151556Z VRB03KT 10SM CLR 28/17 A2999 RMK AO2 SLP142 T02780172,M
LAS,2022-08-15 15:56,-115.1634,36.0719,663.00,83.00,62.00,49.51,80.00,5.00,0.00,29.96,1011.80,10.00,M,FEW,SCT,M,M,12000.00,17000.00,M,M,M,M,M,M,M,M,M,83.70,KLAS 151556Z 08005KT 10SM FEW120 SCT170 28/17 A2996 RMK AO2 SLP118 T02830167,M
WMC,2022-08-15 15:56,-117.8072,40.9019,1315.00,75.00,38.00,26.08,60.00,4.00,0.00,30.09,1014.30,10.00,M,CLR,M,M,M,M,M,M,M,M,M,M,M,M,M,M,75.00,KWMC 151556Z AUTO 06004KT 10SM CLR 24/03 A3009 RMK AO2 SLP143 T02390033,M
NFL,2022-08-15 15:56,-118.7010,39.4166,1199.00,78.00,25.00,13.97,220.00,4.00,0.00,30.06,1014.90,10.00,M,FEW,FEW,M,M,9000.00,12000.00,M,M,M,M,M,M,M,M,M,78.10,KNFL 151556Z 22004KT 10SM FEW090 FEW120 26/M04 A3006 RMK SLP149 T02561039,M
INS,2022-08-15 15:58,-115.6733,36.5872,955.00,80.60,58.50,46.94,140.00,3.00,0.00,30.01,1011.10,10.00,M,CLR,M,M,M,M,M,M,M,M,M,M,M,M,M,M,81.02,KINS 151558Z AUTO 14003KT 10SM CLR 27/15 A3001 RMK AO2 SLP111 T02700147,M
LSV,2022-08-15 15:58,-115.0343,36.2362,570.00,83.70,62.00,47.91,80.00,3.00,0.00,29.93,M,10.00,M,CLR,M,M,M,M,M,M,M,M,M,M,M,M,M,M,84.34,KLSV 151558Z AUTO 08003KT 10SM CLR 29/17 A2993 RMK AO2 SLPNO T02870166 $,M
BAM,2022-08-15 16:15,-116.8743,40.5990,1382.36,78.80,42.80,27.81,40.00,3.00,0.00,30.12,M,10.00,M,CLR,M,M,M,M,M,M,M,M,M,M,M,M,M,M,78.80,KBAM 151615Z AUTO 04003KT 10SM CLR 26/06 A3012 RMK AO1,M
BVU,2022-08-15 16:15,-114.8611,35.9475,671.00,82.40,62.60,51.21,0.00,0.00,0.00,29.96,M,M,M,M,M,M,M,M,M,M,M,M,M,M,M,M,M,M,83.41,KBVU 151615Z AUTO 00000KT 28/17 A2996 RMK AO2 PWINO TSNO,M
CXP,2022-08-15 16:15,-119.7326,39.1923,1431.00,71.60,28.40,19.98,M,3.00,0.00,30.15,M,10.00,M,CLR,M,M,M,M,M,M,M,M,M,M,M,M,M,M,71.60,KCXP 151615Z AUTO VRB03KT 10SM CLR 22/M02 A3015 RMK AO2,M
RTS,2022-08-15 16:15,-119.8764,39.6682,1539.00,69.80,23.00,16.98,0.00,0.00,0.00,30.16,M,10.00,M,CLR,M,M,M,M,M,M,M,M,M,M,M,M,M,M,69.80,KRTS 151615Z AUTO 00000KT 10SM CLR 21/M05 A3016 RMK AO2,M
MEV,2022-08-15 16:15,-119.7500,38.9963,1441.42,68.00,35.60,30.20,0.00,0.00,0.00,30.14,M,9.00,M,CLR,M,M,M,M,M,M,M,M,M,M,M,M,M,M,68.00,KMEV 151615Z AUTO 00000KT 9SM CLR 20/02 A3014 RMK AO2,M
TMT,2022-08-15 16:15,-117.1971,39.4643,1749.34,M,M,M,0.00,0.00,0.00,30.19,M,10.00,M,CLR,M,M,M,M,M,M,M,M,M,M,M,M,M,M,M,KTMT 151615Z AUTO 00000KT 10SM CLR A3019 RMK AO2,M
HTH,2022-08-15 16:15,-118.6315,38.5448,1282.89,77.00,28.40,16.67,320.00,4.00,0.00,30.10,M,10.00,M,CLR,M,M,M,M,M,M,M,M,M,M,M,M,M,M,77.00,KHTH 151615Z AUTO 32004KT 10SM CLR 25/M02 A3010 RMK A01,M
HTH,2022-08-15 16:35,-118.6315,38.5448,1282.89,78.80,24.80,13.54,340.00,5.00,0.00,30.10,M,10.00,M,CLR,M,M,M,M,M,M,M,M,M,M,M,M,M,M,78.80,KHTH 151635Z AUTO 34005KT 10SM CLR 26/M04 A3010 RMK A01,M
BVU,2022-08-15 16:35,-114.8611,35.9475,671.00,82.40,64.40,54.55,70.00,5.00,0.00,29.96,M,M,M,M,M,M,M,M,M,M,M,M,M,M,M,M,M,M,83.98,KBVU 151635Z AUTO 07005KT 28/18 A2996 RMK AO2 PWINO TSNO,M
CXP,2022-08-15 16:35,-119.7326,39.1923,1431.00,73.40,30.20,20.23,220.00,4.00,0.00,30.15,M,10.00,M,CLR,M,M,M,M,M,M,M,M,M,M,M,M,M,M,73.40,KCXP 151635Z AUTO 22004KT 10SM CLR 23/M01 A3015 RMK AO2,M
RTS,2022-08-15 16:35,-119.8764,39.6682,1539.00,73.40,21.20,13.93,0.00,0.00,0.00,30.16,M,10.00,M,CLR,M,M,M,M,M,M,M,M,M,M,M,M,M,M,73.40,KRTS 151635Z AUTO 00000KT 10SM CLR 23/M06 A3016 RMK AO2,M
MEV,2022-08-15 16:35,-119.7500,38.9963,1441.42,71.60,33.80,24.86,0.00,0.00,0.00,30.13,M,10.00,M,CLR,M,M,M,M,M,M,M,M,M,M,M,M,M,M,71.60,KMEV 151635Z AUTO 00000KT 10SM CLR 22/01 A3013 RMK AO2,M
BAM,2022-08-15 16:35,-116.8743,40.5990,1382.36,80.60,46.40,30.07,60.00,3.00,0.00,30.12,M,10.00,M,CLR,M,M,M,M,M,M,M,M,M,M,M,M,M,M,79.56,KBAM 151635Z AUTO 06003KT 10SM CLR 27/08 A3012 RMK AO1,M
TMT,2022-08-15 16:35,-117.1971,39.4643,1749.34,M,M,M,220.00,4.00,0.00,30.20,M,10.00,M,CLR,M,M,M,M,M,M,M,M,M,M,M,M,M,M,M,KTMT 151635Z AUTO 22004KT 10SM CLR A3020 RMK AO2,M
LOL,2022-08-15 16:53,-118.5701,40.0684,1192.43,82.00,26.10,12.87,60.00,7.00,0.00,30.06,1013.20,10.00,M,CLR,M,M,M,M,M,M,M,M,M,M,M,M,M,M,79.62,KLOL 151653Z AUTO 06007KT 10SM CLR 28/M03 A3006 RMK AO2 SLP132 T02781033,M
VGT,2022-08-15 16:53,-115.1933,36.2111,667.00,87.00,62.00,43.27,M,3.00,0.00,29.95,1013.00,10.00,M,CLR,M,M,M,M,M,M,M,M,M,M,M,M,M,M,87.58,KVGT 151653Z VRB03KT 10SM CLR 31/17 A2995 RMK AO2 SLP130 T03060167,M
DRA,2022-08-15 16:53,-116.0278,36.6206,1009.00,89.00,59.00,36.37,120.00,10.00,0.00,30.01,1010.40,10.00,M,CLR,M,M,M,M,M,M,M,M,M,M,M,M,M,M,88.37,KDRA 151653Z AUTO 12010KT 10SM CLR 32/15 A3001 RMK AO2 SLP104 T03170150,M
HTH,2022-08-15 16:55,-118.6315,38.5448,1282.89,80.60,23.00,11.83,20.00,5.00,0.00,30.10,M,10.00,M,CLR,M,M,M,M,M,M,M,M,M,M,M,M,M,M,78.80,KHTH 151655Z AUTO 02005KT 10SM CLR 27/M05 A3010 RMK A01,M
CXP,2022-08-15 16:55,-119.7326,39.1923,1431.00,75.20,30.20,19.05,0.00,0.00,0.00,30.14,M,10.00,M,CLR,M,M,M,M,M,M,M,M,M,M,M,M,M,M,75.20,KCXP 151655Z AUTO 00000KT 10SM CLR 24/M01 A3014 RMK AO2,M
BVU,2022-08-15 16:55,-114.8611,35.9475,671.00,82.40,62.60,51.21,50.00,3.00,0.00,29.97,M,M,M,M,M,M,M,M,M,M,M,M,M,M,M,M,M,M,83.41,KBVU 151655Z AUTO 05003KT 28/17 A2997 RMK AO2 PWINO TSNO,M
BAM,2022-08-15 16:55,-116.8743,40.5990,1382.36,82.40,44.60,26.49,20.00,4.00,0.00,30.12,M,10.00,M,CLR,M,M,M,M,M,M,M,M,M,M,M,M,M,M,80.50,KBAM 151655Z AUTO 02004KT 10SM CLR 28/07 A3012 RMK AO1,M
RTS,2022-08-15 16:55,-119.8764,39.6682,1539.00,75.20,23.00,14.15,M,3.00,0.00,30.16,M,10.00,M,CLR,M,M,M,M,M,M,M,M,M,M,M,M,M,M,75.20,KRTS 151655Z AUTO VRB03KT 10SM CLR 24/M05 A3016 RMK AO2,M
MEV,2022-08-15 16:55,-119.7500,38.9963,1441.42,73.40,33.80,23.39,0.00,0.00,0.00,30.13,M,10.00,M,CLR,M,M,M,M,M,M,M,M,M,M,M,M,M,M,73.40,KMEV 151655Z AUTO 00000KT 10SM CLR 23/01 A3013 RMK AO2,M
RNO,2022-08-15 16:55,-119.7711,39.4839,1341.00,74.00,30.90,20.47,0.00,0.00,0.00,30.11,1013.90,10.00,M,CLR,M,M,M,M,M,M,M,M,M,M,M,M,M,M,73.90,KRNO 151655Z 00000KT 10SM CLR 23/M01 A3011 RMK AO2 SLP139 T02331006,M
TMT,2022-08-15 16:55,-117.1971,39.4643,1749.34,M,M,M,0.00,0.00,0.00,30.20,M,10.00,M,CLR,M,M,M,M,M,M,M,M,M,M,M,M,M,M,M,KTMT 151655Z AUTO 00000KT 10SM CLR A3020 RMK AO2,M
WMC,2022-08-15 16:56,-117.8072,40.9019,1315.00,82.00,39.00,21.62,80.00,5.00,0.00,30.09,1013.80,10.00,M,CLR,M,M,M,M,M,M,M,M,M,M,M,M,M,M,79.94,KWMC 151656Z AUTO 08005KT 10SM CLR 28/04 A3009 RMK AO2 SLP138 T02780039 $,M
LAS,2022-08-15 16:56,-115.1634,36.0719,663.00,85.00,62.00,46.42,0.00,0.00,0.00,29.96,1012.10,10.00,M,FEW,BKN,M,M,12000.00,17000.00,M,M,M,M,M,M,M,M,M,85.49,KLAS 151656Z 00000KT 10SM FEW120 BKN170 29/17 A2996 RMK AO2 SLP121 T02940167,M
TPH,2022-08-15 16:56,-117.0904,38.0505,1654.00,79.00,51.00,37.78,170.00,7.00,0.00,30.17,1013.30,10.00,M,CLR,M,M,M,M,M,M,M,M,M,M,M,M,M,M,79.00,KTPH 151656Z AUTO 17007KT 10SM CLR 26/11 A3017 RMK AO2 SLP133 T02610106,M
EKO,2022-08-15 16:56,-115.7860,40.8242,1367.00,73.00,47.00,39.43,40.00,6.00,0.00,30.16,1015.90,10.00,M,CLR,M,M,M,M,M,M,M,M,M,M,M,M,M,M,73.00,KEKO 151656Z AUTO 04006KT 10SM CLR 23/08 A3016 RMK AO2 SLP159 T02280083,M
HND,2022-08-15 16:56,-115.1344,35.9729,742.79,86.00,63.00,46.25,360.00,5.00,0.00,29.99,1014.20,10.00,M,CLR,M,M,M,M,M,M,M,M,M,M,M,M,M,M,86.88,KHND 151656Z 36005KT 10SM CLR 30/17 A2999 RMK AO2 SLP142 T03000172,M
NFL,2022-08-15 16:56,-118.7010,39.4166,1199.00,81.00,28.00,14.38,250.00,7.00,0.00,30.07,1015.00,10.00,M,FEW,FEW,M,M,9000.00,12000.00,M,M,M,M,M,M,M,M,M,78.98,KNFL 151656Z 25007KT 10SM FEW090 FEW120 27/M02 A3007 RMK SLP150 T02721022,M
INS,2022-08-15 16:58,-115.6733,36.5872,955.00,84.20,57.20,39.86,0.00,0.00,0.00,30.00,M,10.00,M,CLR,M,M,M,M,M,M,M,M,M,M,M,M,M,M,83.47,KINS 151658Z AUTO 00000KT 10SM CLR 29/14 A3000 RMK AO2 SLPNO T02900140,M
LSV,2022-08-15 16:58,-115.0343,36.2362,570.00,86.40,62.40,44.71,0.00,0.00,0.00,29.93,M,10.00,M,FEW,M,M,M,19000.00,M,M,M,M,M,M,M,M,M,M,87.02,KLSV 151658Z AUTO 00000KT 10SM FEW190 30/17 A2993 RMK AO2 SLPNO T03020169 $,M
BVU,2022-08-15 17:15,-114.8611,35.9475,671.00,84.20,60.80,45.34,90.00,5.00,0.00,29.97,M,M,M,M,M,M,M,M,M,M,M,M,M,M,M,M,M,M,84.43,KBVU 151715Z AUTO 09005KT 29/16 A2997 RMK AO2 PWINO TSNO,M
TMT,2022-08-15 17:15,-117.1971,39.4643,1749.34,M,M,M,0.00,0.00,0.00,30.20,M,10.00,M,CLR,M,M,M,M,M,M,M,M,M,M,M,M,M,M,M,KTMT 151715Z AUTO 00000KT 10SM CLR A3020 RMK AO2,M
MEV,2022-08-15 17:15,-119.7500,38.9963,1441.42,75.20,33.80,22.02,0.00,0.00,0.00,30.13,M,10.00,M,CLR,M,M,M,M,M,M,M,M,M,M,M,M,M,M,75.20,KMEV 151715Z AUTO 00000KT 10SM CLR 24/01 A3013 RMK AO2,M
RTS,2022-08-15 17:15,-119.8764,39.6682,1539.00,77.00,23.00,13.32,0.00,0.00,0.00,30.16,M,10.00,M,CLR,M,M,M,M,M,M,M,M,M,M,M,M,M,M,77.00,KRTS 151715Z AUTO 00000KT 10SM CLR 25/M05 A3016 RMK AO2,M
CXP,2022-08-15 17:15,-119.7326,39.1923,1431.00,77.00,28.40,16.67,0.00,0.00,0.00,30.14,M,10.00,M,CLR,M,M,M,M,M,M,M,M,M,M,M,M,M,M,77.00,KCXP 151715Z AUTO 00000KT 10SM CLR 25/M02 A3014 RMK AO2,M
HTH,2022-08-15 17:15,-118.6315,38.5448,1282.89,80.60,23.00,11.83,M,5.00,0.00,30.10,M,10.00,M,CLR,M,M,M,M,M,M,M,M,M,M,M,M,M,M,78.80,KHTH 151715Z AUTO VRB05KT 10SM CLR 27/M05 A3010 RMK A01,M
BAM,2022-08-15 17:15,-116.8743,40.5990,1382.36,84.20,44.60,24.99,0.00,0.00,0.00,30.11,M,10.00,M,CLR,M,M,M,M,M,M,M,M,M,M,M,M,M,M,81.73,KBAM 151715Z AUTO 00000KT 10SM CLR 29/07 A3011 RMK AO1,M
TMT,2022-08-15 17:35,-117.1971,39.4643,1749.34,M,M,M,290.00,3.00,0.00,30.19,M,10.00,M,CLR,M,M,M,M,M,M,M,M,M,M,M,M,M,M,M,KTMT 151735Z AUTO 29003KT 10SM CLR A3019 RMK AO2,M
BVU,2022-08-15 17:35,-114.8611,35.9475,671.00,84.20,60.80,45.34,100.00,6.00,0.00,29.97,M,M,M,M,M,M,M,M,M,M,M,M,M,M,M,M,M,M,84.43,KBVU 151735Z AUTO 10006KT 29/16 A2997 RMK AO2 PWINO TSNO,M
CXP,2022-08-15 17:35,-119.7326,39.1923,1431.00,80.60,30.20,15.94,210.00,4.00,0.00,30.13,M,10.00,M,CLR,M,M,M,M,M,M,M,M,M,M,M,M,M,M,78.77,KCXP 151735Z AUTO 21004KT 10SM CLR 27/M01 A3013 RMK AO2,M
RTS,2022-08-15 17:35,-119.8764,39.6682,1539.00,78.80,23.00,12.55,180.00,3.00,0.00,30.16,M,10.00,M,CLR,M,M,M,M,M,M,M,M,M,M,M,M,M,M,78.80,KRTS 151735Z AUTO 18003KT 10SM CLR 26/M05 A3016 RMK AO2,M
MEV,2022-08-15 17:35,-119.7500,38.9963,1441.42,77.00,30.20,17.94,0.00,0.00,0.00,30.12,M,10.00,M,CLR,M,M,M,M,M,M,M,M,M,M,M,M,M,M,77.00,KMEV 151735Z AUTO 00000KT 10SM CLR 25/M01 A3012 RMK AO2,M
BAM,2022-08-15 17:35,-116.8743,40.5990,1382.36,86.00,42.80,22.02,90.00,3.00,0.00,30.11,M,10.00,M,CLR,M,M,M,M,M,M,M,M,M,M,M,M,M,M,82.95,KBAM 151735Z AUTO 09003KT 10SM CLR 30/06 A3011 RMK AO1,M
HTH,2022-08-15 17:35,-118.6315,38.5448,1282.89,82.40,21.20,10.34,M,5.00,0.00,30.09,M,10.00,M,CLR,M,M,M,M,M,M,M,M,M,M,M,M,M,M,79.55,KHTH 151735Z AUTO VRB05KT 10SM CLR 28/M06 A3009 RMK A01,M
VGT,2022-08-15 17:53,-115.1933,36.2111,667.00,88.00,60.00,39.17,100.00,8.00,0.00,29.94,1012.90,10.00,M,CLR,M,M,M,M,M,M,M,M,M,M,M,M,M,M,87.69,KVGT 151753Z 10008KT 10SM CLR 31/16 A2994 RMK AO2 SLP129 T03110156 10322 20267 50000,M
LOL,2022-08-15 17:53,-118.5701,40.0684,1192.43,89.00,21.00,8.28,M,5.00,0.00,30.05,1012.90,10.00,M,CLR,M,M,M,M,M,M,M,M,M,M,M,M,M,M,84.26,KLOL 151753Z AUTO VRB05KT 10SM CLR 32/M06 A3005 RMK AO2 SLP129 T03171061 10317 20061 58003,M
DRA,2022-08-15 17:53,-116.0278,36.6206,1009.00,92.00,58.00,32.03,M,3.00,0.00,30.00,1010.10,10.00,16.00,CLR,M,M,M,M,M,M,M,M,M,M,M,M,M,M,90.80,KDRA 151753Z AUTO VRB03G16KT 10SM CLR 33/14 A3000 RMK AO2 SLP101 T03330144 10333 20228 58003,M
BVU,2022-08-15 17:55,-114.8611,35.9475,671.00,84.20,62.60,48.32,120.00,7.00,0.00,29.97,M,M,M,M,M,M,M,M,M,M,M,M,M,M,M,M,M,M,85.03,KBVU 151755Z AUTO 12007KT 29/17 A2997 RMK AO2 PWINO TSNO,M
CXP,2022-08-15 17:55,-119.7326,39.1923,1431.00,82.40,28.40,13.96,M,4.00,0.00,30.12,M,10.00,M,CLR,M,M,M,M,M,M,M,M,M,M,M,M,M,M,79.94,KCXP 151755Z AUTO VRB04KT 10SM CLR 28/M02 A3012 RMK AO2,M
RNO,2022-08-15 17:55,-119.7711,39.4839,1341.00,82.00,30.00,15.10,M,3.00,0.00,30.10,1013.20,10.00,M,CLR,M,M,M,M,M,M,M,M,M,M,M,M,M,M,79.69,KRNO 151755Z VRB03KT 10SM CLR 28/M01 A3010 RMK AO2 SLP132 T02781011 10278 20156 58007,M
HTH,2022-08-15 17:55,-118.6315,38.5448,1282.89,84.20,21.20,9.76,M,4.00,0.00,30.09,M,10.00,M,CLR,M,M,M,M,M,M,M,M,M,M,M,M,M,M,80.77,KHTH 151755Z AUTO VRB04KT 10SM CLR 29/M06 A3009 RMK A01,M
RTS,2022-08-15 17:55,-119.8764,39.6682,1539.00,78.80,19.40,10.78,130.00,5.00,0.00,30.15,M,10.00,M,CLR,M,M,M,M,M,M,M,M,M,M,M,M,M,M,78.80,KRTS 151755Z AUTO 13005KT 10SM CLR 26/M07 A3015 RMK AO2,M
BAM,2022-08-15 17:55,-116.8743,40.5990,1382.36,87.80,42.80,20.79,40.00,5.00,0.00,30.11,M,10.00,M,CLR,M,M,M,M,M,M,M,M,M,M,M,M,M,M,84.40,KBAM 151755Z AUTO 04005KT 10SM CLR 31/06 A3011 RMK AO1,M
TMT,2022-08-15 17:55,-117.1971,39.4643,1749.34,M,M,M,320.00,5.00,0.00,30.19,M,10.00,M,CLR,M,M,M,M,M,M,M,M,M,M,M,M,M,M,M,KTMT 151755Z AUTO 32005KT 10SM CLR A3019 RMK AO2,M
MEV,2022-08-15 17:55,-119.7500,38.9963,1441.42,78.80,28.40,15.71,0.00,0.00,0.00,30.12,M,10.00,M,CLR,M,M,M,M,M,M,M,M,M,M,M,M,M,M,78.80,KMEV 151755Z AUTO 00000KT 10SM CLR 26/M02 A3012 RMK AO2,M
TPH,2022-08-15 17:56,-117.0904,38.0505,1654.00,82.00,49.00,31.56,M,M,0.00,30.17,1012.90,10.00,M,CLR,M,M,M,M,M,M,M,M,M,M,M,M,M,M,80.61,KTPH 151756Z AUTO 10SM CLR 28/09 A3017 RMK AO2 SLP129 T02780094 10278 20178 50000,M
LAS,2022-08-15 17:56,-115.1634,36.0719,663.00,86.00,62.00,44.81,90.00,8.00,0.00,29.96,1012.00,10.00,M,FEW,FEW,BKN,M,10000.00,12000.00,17000.00,M,M,M,M,M,M,M,M,86.52,KLAS 151756Z 09008KT 10SM FEW100 FEW120 BKN170 30/17 A2996 RMK AO2 SLP120 T03000167 10311 20261 51003,M
HND,2022-08-15 17:56,-115.1344,35.9729,742.79,87.00,63.00,44.66,60.00,6.00,0.00,29.99,1014.10,10.00,M,CLR,M,M,M,M,M,M,M,M,M,M,M,M,M,M,87.96,KHND 151756Z 06006KT 10SM CLR 31/17 A2999 RMK AO2 SLP141 T03060172 10311 20244 57001,M
NFL,2022-08-15 17:56,-118.7010,39.4166,1199.00,85.00,28.00,12.67,M,4.00,0.00,30.06,1014.80,10.00,M,FEW,M,M,M,9000.00,M,M,M,M,M,M,M,M,M,M,81.73,KNFL 151756Z VRB04KT 10SM FEW090 29/M02 A3006 RMK SLP148 T02941022 10294 20150 50001,M
EKO,2022-08-15 17:56,-115.7860,40.8242,1367.00,78.00,47.00,33.26,M,3.00,0.00,30.15,1015.30,10.00,M,CLR,M,M,M,M,M,M,M,M,M,M,M,M,M,M,78.10,KEKO 151756Z AUTO VRB03KT 10SM CLR 26/08 A3015 RMK AO2 SLP153 T02560083 10256 20106 58007,M
WMC,2022-08-15 17:56,-117.8072,40.9019,1315.00,86.00,37.00,17.57,30.00,3.00,0.00,30.08,1013.60,10.00,M,CLR,M,M,M,M,M,M,M,M,M,M,M,M,M,M,82.72,KWMC 151756Z AUTO 03003KT 10SM CLR 30/03 A3008 RMK AO2 SLP136 T03000028 10300 20078 58004 $,M
INS,2022-08-15 17:58,-115.6733,36.5872,955.00,87.40,55.60,33.96,0.00,0.00,0.00,30.00,M,10.00,M,CLR,M,M,M,M,M,M,M,M,M,M,M,M,M,M,85.80,KINS 151758Z AUTO 00000KT 10SM CLR 31/13 A3000 RMK AO2 SLPNO T03080131 10308 20260,M
LSV,2022-08-15 17:58,-115.0343,36.2362,570.00,88.50,61.00,39.81,100.00,5.00,0.00,29.92,M,10.00,M,FEW,SCT,BKN,M,12000.00,17000.00,20000.00,M,M,M,M,M,M,M,M,88.51,KLSV 151758Z 10005KT 10SM FEW120 SCT170 BKN200 31/16 A2992 RMK AO2A SLPNO T03140161 10314 20269 $,M
BVU,2022-08-15 18:15,-114.8611,35.9475,671.00,84.20,62.60,48.32,110.00,6.00,0.00,29.97,M,M,M,M,M,M,M,M,M,M,M,M,M,M,M,M,M,M,85.03,KBVU 151815Z AUTO 11006KT 29/17 A2997 RMK AO2 PWINO TSNO,M
CXP,2022-08-15 18:15,-119.7326,39.1923,1431.00,84.20,24.80,11.35,0.00,0.00,0.00,30.12,M,10.00,M,CLR,M,M,M,M,M,M,M,M,M,M,M,M,M,M,81.00,KCXP 151815Z AUTO 00000KT 10SM CLR 29/M04 A3012 RMK AO2,M
RTS,2022-08-15 18:15,-119.8764,39.6682,1539.00,82.40,24.80,12.03,120.00,3.00,0.00,30.15,M,10.00,M,CLR,M,M,M,M,M,M,M,M,M,M,M,M,M,M,79.79,KRTS 151815Z AUTO 12003KT 10SM CLR 28/M04 A3015 RMK AO2,M
MEV,2022-08-15 18:15,-119.7500,38.9963,1441.42,82.40,28.40,13.96,M,3.00,0.00,30.11,M,10.00,M,CLR,M,M,M,M,M,M,M,M,M,M,M,M,M,M,79.94,KMEV 151815Z AUTO VRB03KT 10SM CLR 28/M02 A3011 RMK AO2,M
BAM,2022-08-15 18:15,-116.8743,40.5990,1382.36,87.80,41.00,19.40,0.00,0.00,0.00,30.11,M,10.00,M,CLR,M,M,M,M,M,M,M,M,M,M,M,M,M,M,84.30,KBAM 151815Z AUTO 00000KT 10SM CLR 31/05 A3011 RMK AO1,M
HTH,2022-08-15 18:15,-118.6315,38.5448,1282.89,86.00,23.00,9.94,320.00,5.00,0.00,30.08,M,10.00,M,CLR,M,M,M,M,M,M,M,M,M,M,M,M,M,M,82.14,KHTH 151815Z AUTO 32005KT 10SM CLR 30/M05 A3008 RMK A01,M
TMT,2022-08-15 18:15,-117.1971,39.4643,1749.34,M,M,M,320.00,5.00,0.00,30.19,M,10.00,M,CLR,M,M,M,M,M,M,M,M,M,M,M,M,M,M,M,KTMT 151815Z AUTO 32005KT 10SM CLR A3019 RMK AO2,M
BVU,2022-08-15 18:35,-114.8611,35.9475,671.00,86.00,60.80,42.80,100.00,7.00,0.00,29.96,M,M,M,M,M,M,M,M,M,M,M,M,M,M,M,M,M,M,86.05,KBVU 151835Z AUTO 10007KT 30/16 A2996 RMK AO2 PWINO TSNO,M
CXP,2022-08-15 18:35,-119.7326,39.1923,1431.00,86.00,21.20,9.21,0.00,0.00,0.00,30.12,M,10.00,M,CLR,M,M,M,M,M,M,M,M,M,M,M,M,M,M,82.04,KCXP 151835Z AUTO 00000KT 10SM CLR 30/M06 A3012 RMK AO2,M
RTS,2022-08-15 18:35,-119.8764,39.6682,1539.00,82.40,23.00,11.16,120.00,5.00,0.00,30.14,M,10.00,M,CLR,M,M,M,M,M,M,M,M,M,M,M,M,M,M,79.67,KRTS 151835Z AUTO 12005KT 10SM CLR 28/M05 A3014 RMK AO2,M
MEV,2022-08-15 18:35,-119.7500,38.9963,1441.42,84.20,28.40,13.18,M,4.00,0.00,30.10,M,9.00,M,CLR,M,M,M,M,M,M,M,M,M,M,M,M,M,M,81.25,KMEV 151835Z AUTO VRB04KT 9SM CLR 29/M02 A3010 RMK AO2,M
BAM,2022-08-15 18:35,-116.8743,40.5990,1382.36,89.60,41.00,18.33,0.00,0.00,0.00,30.10,M,10.00,M,CLR,M,M,M,M,M,M,M,M,M,M,M,M,M,M,85.82,KBAM 151835Z AUTO 00000KT 10SM CLR 32/05 A3010 RMK AO1,M
HTH,2022-08-15 18:35,-118.6315,38.5448,1282.89,86.00,19.40,8.53,310.00,6.00,0.00,30.08,M,10.00,M,CLR,M,M,M,M,M,M,M,M,M,M,M,M,M,M,81.94,KHTH 151835Z AUTO 31006KT 10SM CLR 30/M07 A3008 RMK A01,M
TMT,2022-08-15 18:35,-117.1971,39.4643,1749.34,M,M,M,350.00,3.00,0.00,30.18,M,10.00,M,CLR,M,M,M,M,M,M,M,M,M,M,M,M,M,M,M,KTMT 151835Z AUTO 35003KT 10SM CLR A3018 RMK AO2,M
DRA,2022-08-15 18:53,-116.0278,36.6206,1009.00,92.00,57.00,31.00,300.00,4.00,0.00,29.99,1009.80,10.00,M,CLR,M,M,M,M,M,M,M,M,M,M,M,M,M,M,90.50,KDRA 151853Z AUTO 30004KT 10SM CLR 33/14 A2999 RMK AO2 SLP098 T03330139,M
VGT,2022-08-15 18:53,-115.1933,36.2111,667.00,91.00,61.00,36.80,M,5.00,0.00,29.94,1012.60,10.00,M,CLR,M,M,M,M,M,M,M,M,M,M,M,M,M,M,91.06,KVGT 151853Z VRB05KT 10SM CLR 33/16 A2994 RMK AO2 SLP126 T03280161,M
LOL,2022-08-15 18:53,-118.5701,40.0684,1192.43,91.00,16.00,6.29,M,5.00,0.00,30.04,1012.30,10.00,M,CLR,M,M,M,M,M,M,M,M,M,M,M,M,M,M,85.40,KLOL 151853Z AUTO VRB05KT 10SM CLR 33/M09 A3004 RMK AO2 SLP123 T03281089,M
TMT,2022-08-15 18:55,-117.1971,39.4643,1749.34,M,M,M,10.00,4.00,0.00,30.18,M,10.00,M,CLR,M,M,M,M,M,M,M,M,M,M,M,M,M,M,M,KTMT 151855Z AUTO 01004KT 10SM CLR A3018 RMK AO2,M
BVU,2022-08-15 18:55,-114.8611,35.9475,671.00,86.00,60.80,42.80,130.00,7.00,0.00,29.96,M,M,M,M,M,M,M,M,M,M,M,M,M,M,M,M,M,M,86.05,KBVU 151855Z AUTO 13007KT 30/16 A2996 RMK AO2 PWINO TSNO,M
CXP,2022-08-15 18:55,-119.7326,39.1923,1431.00,86.00,23.00,9.94,M,4.00,0.00,30.11,M,10.00,M,CLR,M,M,M,M,M,M,M,M,M,M,M,M,M,M,82.14,KCXP 151855Z AUTO VRB04KT 10SM CLR 30/M05 A3011 RMK AO2,M
RNO,2022-08-15 18:55,-119.7711,39.4839,1341.00,88.00,30.00,12.46,0.00,0.00,0.00,30.08,1012.20,10.00,M,CLR,M,M,M,M,M,M,M,M,M,M,M,M,M,M,84.13,KRNO 151855Z 00000KT 10SM CLR 31/M01 A3008 RMK AO2 SLP122 T03111011,M
RTS,2022-08-15 18:55,-119.8764,39.6682,1539.00,84.20,19.40,9.04,M,5.00,0.00,30.14,M,10.00,10.00,CLR,M,M,M,M,M,M,M,M,M,M,M,M,M,M,80.68,KRTS 151855Z AUTO VRB05G10KT 10SM CLR 29/M07 A3014 RMK AO2,M
MEV,2022-08-15 18:55,-119.7500,38.9963,1441.42,84.20,26.60,12.23,290.00,6.00,0.00,30.10,M,1.75,M,CLR,M,M,M,M,M,M,M,-RA HZ,M,M,M,M,M,M,81.13,KMEV 151855Z AUTO 29006KT 1 3/4SM -RA HZ CLR 29/M03 A3010 RMK AO2 VIS 1/4V5,M
BAM,2022-08-15 18:55,-116.8743,40.5990,1382.36,89.60,41.00,18.33,350.00,3.00,0.00,30.09,M,10.00,M,CLR,M,M,M,M,M,M,M,M,M,M,M,M,M,M,85.82,KBAM 151855Z AUTO 35003KT 10SM CLR 32/05 A3009 RMK AO1,M
HTH,2022-08-15 18:55,-118.6315,38.5448,1282.89,87.80,19.40,8.06,0.00,0.00,0.00,30.07,M,10.00,M,CLR,M,M,M,M,M,M,M,M,M,M,M,M,M,M,83.23,KHTH 151855Z AUTO 00000KT 10SM CLR 31/M07 A3007 RMK A01,M
NFL,2022-08-15 18:56,-118.7010,39.4166,1199.00,89.00,19.90,7.90,310.00,5.00,0.00,30.05,1014.40,10.00,M,SCT,SCT,M,M,8000.00,15000.00,M,M,M,M,M,M,M,M,M,84.20,KNFL 151856Z 31005KT 10SM SCT080 SCT150 32/M07 A3005 RMK SLP144 T03171067,M
LAS,2022-08-15 18:56,-115.1634,36.0719,663.00,89.00,60.00,37.83,90.00,6.00,0.00,29.96,1011.70,10.00,M,FEW,FEW,BKN,M,10000.00,12000.00,17000.00,M,M,M,M,M,M,M,M,88.76,KLAS 151856Z 09006KT 10SM FEW100 FEW120 BKN170 32/16 A2996 RMK AO2 SLP117 T03170156,M
TPH,2022-08-15 18:56,-117.0904,38.0505,1654.00,85.00,47.00,26.66,190.00,5.00,0.00,30.15,1012.20,10.00,M,CLR,M,M,M,M,M,M,M,M,M,M,M,M,M,M,82.42,KTPH 151856Z AUTO 19005KT 10SM CLR 29/08 A3015 RMK AO2 LTG DSNT NE SLP122 T02940083,M
HND,2022-08-15 18:56,-115.1344,35.9729,742.79,89.00,62.00,40.61,M,4.00,0.00,29.98,1013.90,10.00,M,CLR,M,M,M,M,M,M,M,M,M,M,M,M,M,M,89.58,KHND 151856Z VRB04KT 10SM CLR 32/17 A2998 RMK AO2 SLP139 T03170167,M
WMC,2022-08-15 18:56,-117.8072,40.9019,1315.00,91.00,35.00,13.91,0.00,0.00,0.00,30.07,1013.10,10.00,M,CLR,M,M,M,M,M,M,M,M,M,M,M,M,M,M,86.81,KWMC 151856Z AUTO 00000KT 10SM CLR 33/02 A3007 RMK AO2 SLP131 T03280017 $,M
EKO,2022-08-15 18:56,-115.7860,40.8242,1367.00,83.00,46.00,27.48,30.00,4.00,0.00,30.13,1014.60,10.00,M,CLR,M,M,M,M,M,M,M,M,M,M,M,M,M,M,80.94,KEKO 151856Z AUTO 03004KT 10SM CLR 28/08 A3013 RMK AO2 SLP146 T02830078,M
LSV,2022-08-15 18:58,-115.0343,36.2362,570.00,89.60,60.60,37.91,90.00,4.00,0.00,29.92,M,10.00,M,FEW,BKN,BKN,M,13000.00,18000.00,20000.00,M,M,M,M,M,M,M,M,89.46,KLSV 151858Z AUTO 09004KT 10SM FEW130 BKN180 BKN200 32/16 A2992 RMK AO2 SLPNO T03200159 $,M
INS,2022-08-15 18:58,-115.6733,36.5872,955.00,91.80,55.00,28.82,0.00,0.00,0.00,29.98,M,10.00,M,CLR,M,M,M,M,M,M,M,M,M,M,M,M,M,M,89.79,KINS 151858Z AUTO 00000KT 10SM CLR 33/13 A2998 RMK AO2 SLPNO T03320127,M
HTH,2022-08-15 19:15,-118.6315,38.5448,1282.89,87.80,19.40,8.06,M,3.00,0.00,30.06,M,10.00,M,CLR,M,M,M,M,M,M,M,M,M,M,M,M,M,M,83.23,KHTH 151915Z AUTO VRB03KT 10SM CLR 31/M07 A3006 RMK A01,M
BVU,2022-08-15 19:15,-114.8611,35.9475,671.00,86.00,59.00,40.14,170.00,6.00,0.00,29.96,M,M,M,M,M,M,M,M,M,M,M,M,M,M,M,M,M,M,85.47,KBVU 151915Z AUTO 17006KT 30/15 A2996 RMK AO2 PWINO TSNO,M
CXP,2022-08-15 19:15,-119.7326,39.1923,1431.00,87.80,21.20,8.70,M,4.00,0.00,30.10,M,10.00,M,CLR,M,M,M,M,M,M,M,M,M,M,M,M,M,M,83.33,KCXP 151915Z AUTO VRB04KT 10SM CLR 31/M06 A3010 RMK AO2,M
RTS,2022-08-15 19:15,-119.8764,39.6682,1539.00,86.00,19.40,8.53,M,4.00,0.00,30.13,M,10.00,10.00,CLR,M,M,M,M,M,M,M,M,M,M,M,M,M,M,81.94,KRTS 151915Z AUTO VRB04G10KT 10SM CLR 30/M07 A3013 RMK AO2,M
MEV,2022-08-15 19:15,-119.7500,38.9963,1441.42,86.00,24.80,10.72,M,4.00,0.00,30.09,M,8.00,M,CLR,M,M,M,M,M,M,M,M,M,M,M,M,M,M,82.26,KMEV 151915Z AUTO VRB04KT 8SM CLR 30/M04 A3009 RMK AO2,M
BAM,2022-08-15 19:15,-116.8743,40.5990,1382.36,91.40,39.20,16.15,0.00,0.00,0.00,30.08,M,10.00,M,CLR,M,M,M,M,M,M,M,M,M,M,M,M,M,M,87.30,KBAM 151915Z AUTO 00000KT 10SM CLR 33/04 A3008 RMK AO1,M
TMT,2022-08-15 19:15,-117.1971,39.4643,1749.34,M,M,M,0.00,0.00,0.00,30.17,M,10.00,M,CLR,M,M,M,M,M,M,M,M,M,M,M,M,M,M,M,KTMT 151915Z AUTO 00000KT 10SM CLR A3017 RMK AO2,M
TMT,2022-08-15 19:30,-117.1971,39.4643,1749.34,M,M,M,0.00,0.00,0.00,30.16,M,10.00,M,CLR,M,M,M,M,M,M,M,M,M,M,M,M,M,M,M,KTMT 151930Z AUTO 00000KT 10SM CLR A3016 RMK AO2,M
CXP,2022-08-15 19:30,-119.7326,39.1923,1431.00,89.60,21.20,8.22,M,4.00,0.00,30.09,M,9.00,M,CLR,M,M,M,M,M,M,M,M,M,M,M,M,M,M,84.64,KCXP 151930Z AUTO VRB04KT 9SM CLR 32/M06 A3009 RMK AO2,M
BAM,2022-08-15 19:35,-116.8743,40.5990,1382.36,95.00,37.40,13.46,200.00,3.00,0.00,30.08,M,10.00,M,CLR,M,M,M,M,M,M,M,M,M,M,M,M,M,M,90.46,KBAM 151935Z AUTO 20003KT 10SM CLR 35/03 A3008 RMK AO1,M
BVU,2022-08-15 19:35,-114.8611,35.9475,671.00,87.80,59.00,37.90,0.00,0.00,0.00,29.95,M,M,M,M,M,M,M,M,M,M,M,M,M,M,M,M,M,M,87.12,KBVU 151935Z AUTO 00000KT 31/15 A2995 RMK AO2 PWINO TSNO,M
RTS,2022-08-15 19:35,-119.8764,39.6682,1539.00,87.80,15.80,6.90,130.00,6.00,0.00,30.12,M,10.00,13.00,CLR,M,M,M,M,M,M,M,M,M,M,M,M,M,M,83.07,KRTS 151935Z AUTO 13006G13KT 10SM CLR 31/M09 A3012 RMK AO2,M
MEV,2022-08-15 19:35,-119.7500,38.9963,1441.42,87.80,26.60,10.91,M,5.00,0.00,30.08,M,5.00,M,CLR,M,M,M,M,M,M,M,HZ,M,M,M,M,M,M,83.69,KMEV 151935Z AUTO VRB05KT 5SM HZ CLR 31/M03 A3008 RMK AO2,M
HTH,2022-08-15 19:35,-118.6315,38.5448,1282.89,89.60,19.40,7.61,330.00,6.00,0.00,30.05,M,10.00,M,CLR,M,M,M,M,M,M,M,M,M,M,M,M,M,M,84.54,KHTH 151935Z AUTO 33006KT 10SM CLR 32/M07 A3005 RMK A01,M
VGT,2022-08-15 19:53,-115.1933,36.2111,667.00,91.00,60.00,35.64,150.00,8.00,0.00,29.92,1012.10,10.00,M,CLR,M,M,M,M,M,M,M,M,M,M,M,M,M,M,90.69,KVGT 151953Z 15008KT 10SM CLR 33/16 A2992 RMK AO2 LTG DSNT W SLP121 T03280156,M
LOL,2022-08-15 19:53,-118.5701,40.0684,1192.43,93.00,19.90,6.99,M,3.00,0.00,30.02,1012.40,10.00,M,CLR,M,M,M,M,M,M,M,M,M,M,M,M,M,M,87.06,KLOL 151953Z AUTO VRB03KT 10SM CLR 34/M07 A3002 RMK AO2 SLP124 T03391067,M
BVU,2022-08-15 19:55,-114.8611,35.9475,671.00,87.80,57.20,35.53,M,4.00,0.00,29.94,M,M,M,M,M,M,M,M,M,M,M,M,M,M,M,M,M,M,86.58,KBVU 151955Z AUTO VRB04KT 31/14 A2994 RMK AO2 PWINO TSNO,M
CXP,2022-08-15 19:55,-119.7326,39.1923,1431.00,91.40,21.20,7.77,0.00,0.00,0.00,30.08,M,10.00,M,CLR,M,M,M,M,M,M,M,M,M,M,M,M,M,M,85.96,KCXP 151955Z AUTO 00000KT 10SM CLR 33/M06 A3008 RMK AO2,M
RNO,2022-08-15 19:55,-119.7711,39.4839,1341.00,92.00,27.00,9.75,100.00,4.00,0.00,30.05,1011.20,10.00,M,CLR,M,M,M,M,M,M,M,M,M,M,M,M,M,M,86.77,KRNO 151955Z 10004KT 10SM CLR 33/M03 A3005 RMK AO2 SLP112 T03331028,M
RTS,2022-08-15 19:55,-119.8764,39.6682,1539.00,87.80,17.60,7.46,130.00,8.00,0.00,30.12,M,10.00,M,CLR,M,M,M,M,M,M,M,M,M,M,M,M,M,M,83.14,KRTS 151955Z AUTO 13008KT 10SM CLR 31/M08 A3012 RMK AO2,M
MEV,2022-08-15 19:55,-119.7500,38.9963,1441.42,89.60,26.60,10.30,M,4.00,0.00,30.07,M,10.00,M,CLR,M,M,M,M,M,M,M,M,M,M,M,M,M,M,85.02,KMEV 151955Z AUTO VRB04KT 10SM CLR 32/M03 A3007 RMK AO2,M
BAM,2022-08-15 19:55,-116.8743,40.5990,1382.36,93.20,35.60,13.25,0.00,0.00,0.00,30.07,M,10.00,M,CLR,M,M,M,M,M,M,M,M,M,M,M,M,M,M,88.76,KBAM 151955Z AUTO 00000KT 10SM CLR 34/02 A3007 RMK AO1,M
HTH,2022-08-15 19:55,-118.6315,38.5448,1282.89,91.40,17.60,6.66,320.00,7.00,0.00,30.04,M,10.00,M,CLR,M,M,M,M,M,M,M,M,M,M,M,M,M,M,85.76,KHTH 151955Z AUTO 32007KT 10SM CLR 33/M08 A3004 RMK A01,M
TMT,2022-08-15 19:55,-117.1971,39.4643,1749.34,M,M,M,260.00,5.00,0.00,30.15,M,10.00,M,SCT,M,M,M,10000.00,M,M,M,M,M,M,M,M,M,M,M,KTMT 151955Z AUTO 26005KT 10SM SCT100 A3015 RMK AO2,M
TPH,2022-08-15 19:56,-117.0904,38.0505,1654.00,89.00,40.00,17.84,90.00,6.00,0.00,30.13,1011.20,10.00,M,CLR,M,M,M,M,M,M,M,M,M,M,M,M,M,M,85.34,KTPH 151956Z AUTO 09006KT 10SM CLR 32/04 A3013 RMK AO2 SLP112 T03170044,M
LAS,2022-08-15 19:56,-115.1634,36.0719,663.00,92.00,59.00,33.31,70.00,9.00,0.00,29.93,1010.90,10.00,M,FEW,FEW,BKN,M,10000.00,12000.00,17000.00,M,M,M,M,M,M,M,M,91.20,KLAS 151956Z 07009KT 10SM FEW100 FEW120 BKN170 33/15 A2993 RMK AO2 SLP109 TCU DSNT W T03330150,M
HND,2022-08-15 19:56,-115.1344,35.9729,742.79,92.00,63.00,38.39,M,6.00,0.00,29.96,1013.00,10.00,M,CLR,M,M,M,M,M,M,M,M,M,M,M,M,M,M,92.97,KHND 151956Z VRB06KT 10SM CLR 33/17 A2996 RMK AO2 SLP130 T03330172,M
WMC,2022-08-15 19:56,-117.8072,40.9019,1315.00,94.00,34.00,12.17,M,4.00,0.00,30.05,1012.10,10.00,M,CLR,M,M,M,M,M,M,M,M,M,M,M,M,M,M,89.13,KWMC 151956Z AUTO VRB04KT 10SM CLR 34/01 A3005 RMK AO2 SLP121 T03440011 $,M
EKO,2022-08-15 19:56,-115.7860,40.8242,1367.00,85.00,41.00,21.28,50.00,5.00,0.00,30.11,1013.80,10.00,M,CLR,M,M,M,M,M,M,M,M,M,M,M,M,M,M,82.03,KEKO 151956Z AUTO 05005KT 10SM CLR 29/05 A3011 RMK AO2 SLP138 T02940050,M
NFL,2022-08-15 19:56,-118.7010,39.4166,1199.00,89.80,27.00,10.02,M,3.00,0.00,30.02,1013.60,10.00,M,SCT,SCT,M,M,8000.00,12000.00,M,M,M,M,M,M,M,M,M,86.10,KNFL 151956Z VRB03KT 10SM SCT080 SCT120 33/M03 A3002 RMK SLP136 T03211028,M
LSV,2022-08-15 19:58,-115.0343,36.2362,570.00,92.00,59.50,33.92,150.00,7.00,0.00,29.90,M,10.00,M,FEW,SCT,BKN,M,12000.00,15000.00,19000.00,M,M,M,M,M,M,M,M,91.39,KLSV 151958Z COR AUTO 15007KT 10SM FEW120 SCT150 BKN190 33/15 A2990 RMK AO2 SLPNO T03330153 $ COR 1959,M
INS,2022-08-15 19:58,-115.6733,36.5872,955.00,94.00,51.60,23.92,360.00,3.00,0.00,29.95,M,10.00,M,FEW,M,M,M,19000.00,M,M,M,M,M,M,M,M,M,M,91.11,KINS 151958Z AUTO 36003KT 10SM FEW190 34/11 A2995 RMK AO2 SLPNO T03440109,M
MEV,2022-08-15 20:15,-119.7500,38.9963,1441.42,89.60,24.80,9.56,300.00,4.00,0.00,30.06,M,10.00,10.00,CLR,M,M,M,M,M,M,M,M,M,M,M,M,M,M,84.88,KMEV 152015Z AUTO 30004G10KT 10SM CLR 32/M04 A3006 RMK AO2,M
BVU,2022-08-15 20:15,-114.8611,35.9475,671.00,87.80,57.20,35.53,180.00,3.00,0.00,29.94,M,M,M,M,M,M,M,M,M,M,M,M,M,M,M,M,M,M,86.58,KBVU 152015Z AUTO 18003KT 31/14 A2994 RMK AO2 PWINO TSNO,M
CXP,2022-08-15 20:15,-119.7326,39.1923,1431.00,91.40,21.20,7.77,40.00,4.00,0.00,30.08,M,9.00,M,CLR,M,M,M,M,M,M,M,M,M,M,M,M,M,M,85.96,KCXP 152015Z AUTO 04004KT 9SM CLR 33/M06 A3008 RMK AO2,M
RTS,2022-08-15 20:15,-119.8764,39.6682,1539.00,89.60,17.60,7.05,170.00,11.00,0.00,30.11,M,10.00,16.00,CLR,M,M,M,M,M,M,M,M,M,M,M,M,M,M,84.45,KRTS 152015Z AUTO 17011G16KT 10SM CLR 32/M08 A3011 RMK AO2,M
BAM,2022-08-15 20:15,-116.8743,40.5990,1382.36,96.80,32.00,10.27,210.00,6.00,0.00,30.07,M,10.00,M,CLR,M,M,M,M,M,M,M,M,M,M,M,M,M,M,91.19,KBAM 152015Z AUTO 21006KT 10SM CLR 36/00 A3007 RMK AO1,M
HTH,2022-08-15 20:15,-118.6315,38.5448,1282.89,91.40,21.20,7.77,330.00,7.00,0.00,30.03,M,10.00,M,CLR,M,M,M,M,M,M,M,M,M,M,M,M,M,M,85.96,KHTH 152015Z AUTO 33007KT 10SM CLR 33/M06 A3003 RMK A01,M
TMT,2022-08-15 20:15,-117.1971,39.4643,1749.34,M,M,M,0.00,0.00,0.00,30.15,M,10.00,M,SCT,M,M,M,10000.00,M,M,M,M,M,M,M,M,M,M,M,KTMT 152015Z AUTO 00000KT 10SM SCT100 A3015 RMK AO2 LTG DSNT S,M
HTH,2022-08-15 20:35,-118.6315,38.5448,1282.89,91.40,21.20,7.77,360.00,8.00,0.00,30.02,M,10.00,M,CLR,M,M,M,M,M,M,M,M,M,M,M,M,M,M,85.96,KHTH 152035Z AUTO 36008KT 10SM CLR 33/M06 A3002 RMK A01,M
BVU,2022-08-15 20:35,-114.8611,35.9475,671.00,89.60,57.20,33.56,0.00,0.00,0.00,29.92,M,M,M,M,M,M,M,M,M,M,M,M,M,M,M,M,M,M,88.28,KBVU 152035Z AUTO 00000KT 32/14 A2992 RMK AO2 PWINO TSNO,M
CXP,2022-08-15 20:35,-119.7326,39.1923,1431.00,93.20,21.20,7.34,M,4.00,0.00,30.07,M,10.00,M,CLR,M,M,M,M,M,M,M,M,M,M,M,M,M,M,87.29,KCXP 152035Z AUTO VRB04KT 10SM CLR 34/M06 A3007 RMK AO2,M
RTS,2022-08-15 20:35,-119.8764,39.6682,1539.00,89.60,17.60,7.05,M,6.00,0.00,30.10,M,10.00,13.00,CLR,M,M,M,M,M,M,M,M,M,M,M,M,M,M,84.45,KRTS 152035Z AUTO VRB06G13KT 10SM CLR 32/M08 A3010 RMK AO2,M
MEV,2022-08-15 20:35,-119.7500,38.9963,1441.42,91.40,24.80,9.04,290.00,8.00,0.00,30.05,M,10.00,M,CLR,M,M,M,M,M,M,M,M,M,M,M,M,M,M,86.21,KMEV 152035Z AUTO 29008KT 10SM CLR 33/M04 A3005 RMK AO2,M
TMT,2022-08-15 20:35,-117.1971,39.4643,1749.34,M,M,M,0.00,0.00,0.00,30.14,M,10.00,M,CLR,M,M,M,M,M,M,M,M,M,M,M,M,M,M,M,KTMT 152035Z AUTO 00000KT 10SM CLR A3014 RMK AO2 LTG DSNT S,M
BAM,2022-08-15 20:35,-116.8743,40.5990,1382.36,95.00,35.60,12.53,70.00,6.00,0.00,30.06,M,10.00,M,CLR,M,M,M,M,M,M,M,M,M,M,M,M,M,M,90.25,KBAM 152035Z AUTO 07006KT 10SM CLR 35/02 A3006 RMK AO1,M
P68,2022-08-15 20:43,-116.0056,39.6014,1993.00,81.00,39.00,22.33,190.00,10.00,0.00,30.17,M,M,24.00,M,M,M,M,M,M,M,M,M,M,M,M,M,M,M,79.33,KP68 152043Z AUTO 19010G24KT 27/04 A3017 RMK AO1 WSHFT 2026 T02720039,M
ELY,2022-08-15 20:53,-114.8453,39.2950,1909.00,M,M,M,M,M,0.00,30.18,M,M,M,M,M,M,M,M,M,M,M,M,M,M,M,M,M,M,M,KELY 152053Z AUTO A3018 RMK AO2 SLPNO 6//// PWINO FZRANO PNO $,M
P68,2022-08-15 20:53,-116.0056,39.6014,1993.00,82.00,39.00,21.62,180.00,13.00,0.00,30.16,1012.40,M,18.00,M,M,M,M,M,M,M,M,M,M,M,M,M,M,M,79.94,KP68 152053Z AUTO 18013G18KT 28/04 A3016 RMK AO1 WSHFT 2026 SLP124 T02780039 56009,M
VGT,2022-08-15 20:53,-115.1933,36.2111,667.00,94.00,59.00,31.31,110.00,9.00,0.00,29.89,1010.90,10.00,M,CLR,M,M,M,M,M,M,M,M,M,M,M,M,M,M,93.32,KVGT 152053Z 11009KT 10SM CLR 34/15 A2989 RMK AO2 LTG DSNT W SLP109 T03440150 58017,M
LOL,2022-08-15 20:53,-118.5701,40.0684,1192.43,94.00,25.00,8.43,0.00,0.00,0.00,30.00,1011.60,10.00,M,CLR,M,M,M,M,M,M,M,M,M,M,M,M,M,M,88.10,KLOL 152053Z AUTO 00000KT 10SM CLR 34/M04 A3000 RMK AO2 SLP116 T03441039 58017,M
DRA,2022-08-15 20:53,-116.0278,36.6206,1009.00,97.00,51.00,21.35,90.00,7.00,0.00,29.93,1007.80,10.00,16.00,CLR,M,M,M,M,M,M,M,M,M,M,M,M,M,M,94.16,KDRA 152053Z AUTO 09007G16KT 10SM CLR 36/11 A2993 RMK AO2 SLP078 T03610106 58020,M
HTH,2022-08-15 20:55,-118.6315,38.5448,1282.89,93.20,23.00,7.92,300.00,4.00,0.00,30.01,M,10.00,10.00,CLR,M,M,M,M,M,M,M,M,M,M,M,M,M,M,87.42,KHTH 152055Z AUTO 30004G10KT 10SM CLR 34/M05 A3001 RMK A01,M
TMT,2022-08-15 20:55,-117.1971,39.4643,1749.34,M,M,M,280.00,4.00,0.00,30.14,M,10.00,M,CLR,M,M,M,M,M,M,M,M,M,M,M,M,M,M,M,KTMT 152055Z AUTO 28004KT 10SM CLR A3014 RMK AO2,M
BAM,2022-08-15 20:55,-116.8743,40.5990,1382.36,95.00,35.60,12.53,130.00,6.00,0.00,30.05,M,10.00,M,CLR,M,M,M,M,M,M,M,M,M,M,M,M,M,M,90.25,KBAM 152055Z AUTO 13006KT 10SM CLR 35/02 A3005 RMK AO1,M
MEV,2022-08-15 20:55,-119.7500,38.9963,1441.42,93.20,24.80,8.54,290.00,7.00,0.00,30.05,M,10.00,M,CLR,M,M,M,M,M,M,M,M,M,M,M,M,M,M,87.56,KMEV 152055Z AUTO 29007KT 10SM CLR 34/M04 A3005 RMK AO2,M
RTS,2022-08-15 20:55,-119.8764,39.6682,1539.00,89.60,17.60,7.05,130.00,9.00,0.00,30.10,M,10.00,15.00,CLR,M,M,M,M,M,M,M,M,M,M,M,M,M,M,84.45,KRTS 152055Z AUTO 13009G15KT 10SM CLR 32/M08 A3010 RMK AO2,M
RNO,2022-08-15 20:55,-119.7711,39.4839,1341.00,95.00,26.10,8.53,M,5.00,0.00,30.03,1010.20,10.00,M,FEW,M,M,M,9000.00,M,M,M,M,M,M,M,M,M,M,89.03,KRNO 152055Z VRB05KT 10SM FEW090 35/M03 A3003 RMK AO2 SLP102 T03501033 58022,M
CXP,2022-08-15 20:55,-119.7326,39.1923,1431.00,95.00,23.00,7.49,M,4.00,0.00,30.06,M,10.00,12.00,CLR,M,M,M,M,M,M,M,M,M,M,M,M,M,M,88.76,KCXP 152055Z AUTO VRB04G12KT 10SM CLR 35/M05 A3006 RMK AO2,M
BVU,2022-08-15 20:55,-114.8611,35.9475,671.00,89.60,57.20,33.56,140.00,5.00,0.00,29.91,M,M,M,M,M,M,M,M,M,M,M,M,M,M,M,M,M,M,88.28,KBVU 152055Z AUTO 14005KT 32/14 A2991 RMK AO2 PWINO TSNO,M
LAS,2022-08-15 20:56,-115.1634,36.0719,663.00,93.00,60.00,33.48,70.00,9.00,0.00,29.90,1009.80,10.00,M,FEW,FEW,BKN,M,10000.00,12000.00,17000.00,M,M,M,M,M,M,M,M,92.80,KLAS 152056Z 07009KT 10SM FEW100 FEW120 BKN170 34/16 A2990 RMK AO2 LTG DSNT W SLP098 CB DSNT S AND W T03390156 58019,M
NFL,2022-08-15 20:56,-118.7010,39.4166,1199.00,95.00,28.90,9.57,M,4.00,0.00,30.00,1012.80,10.00,M,SCT,SCT,M,M,8000.00,12000.00,M,M,M,M,M,M,M,M,M,89.32,KNFL 152056Z VRB04KT 10SM SCT080 SCT120 35/M02 A3000 RMK AO2 SLP128 T03501017 58019,M
EKO,2022-08-15 20:56,-115.7860,40.8242,1367.00,87.00,33.00,14.53,M,4.00,0.00,30.10,1013.30,10.00,M,CLR,M,M,M,M,M,M,M,M,M,M,M,M,M,M,83.52,KEKO 152056Z AUTO VRB04KT 10SM CLR 31/01 A3010 RMK AO2 SLP133 T03060006 58015,M
TPH,2022-08-15 20:56,-117.0904,38.0505,1654.00,92.00,38.00,15.11,90.00,9.00,0.00,30.12,1010.40,10.00,14.00,CLR,M,M,M,M,M,M,M,M,M,M,M,M,M,M,87.69,KTPH 152056Z AUTO 09009G14KT 10SM CLR 33/03 A3012 RMK AO2 LTG DSNT SE SLP104 T03330033 58015,M
WMC,2022-08-15 20:56,-117.8072,40.9019,1315.00,97.00,32.00,10.21,M,3.00,0.00,30.02,1011.40,10.00,M,CLR,M,M,M,M,M,M,M,M,M,M,M,M,M,M,91.35,KWMC 152056Z AUTO VRB03KT 10SM CLR 36/00 A3002 RMK AO2 SLP114 T03610000 58017 $,M
HND,2022-08-15 20:56,-115.1344,35.9729,742.79,93.00,62.00,35.94,40.00,8.00,0.00,29.93,1012.20,10.00,M,CLR,M,M,M,M,M,M,M,M,M,M,M,M,M,M,93.72,KHND 152056Z 04008KT 10SM CLR 34/17 A2993 RMK AO2 LTG DSNT W SLP122 T03390167 58018,M
LSV,2022-08-15 20:58,-115.0343,36.2362,570.00,97.30,58.60,27.80,0.00,0.00,0.00,29.86,M,10.00,M,FEW,SCT,M,M,14000.00,18000.00,M,M,M,M,M,M,M,M,M,96.89,KLSV 152058Z COR AUTO 00000KT 10SM FEW140 SCT180 36/15 A2986 RMK AO2 SLPNO T03630148 57019 $ COR 2105,M
INS,2022-08-15 20:58,-115.6733,36.5872,955.00,96.00,49.60,20.88,90.00,4.00,0.00,29.93,M,10.00,M,CLR,M,M,M,M,M,M,M,M,M,M,M,M,M,M,92.71,KINS 152058Z AUTO 09004KT 10SM CLR 36/10 A2993 RMK AO2 SLPNO T03550098 57021,M
HTH,2022-08-15 21:15,-118.6315,38.5448,1282.89,93.20,23.00,7.92,0.00,0.00,0.00,30.00,M,10.00,14.00,CLR,M,M,M,M,M,M,M,M,M,M,M,M,M,M,87.42,KHTH 152115Z AUTO 00000G14KT 10SM CLR 34/M05 A3000 RMK A01,M
TMT,2022-08-15 21:15,-117.1971,39.4643,1749.34,M,M,M,350.00,6.00,0.00,30.13,M,10.00,M,CLR,M,M,M,M,M,M,M,M,M,M,M,M,M,M,M,KTMT 152115Z AUTO 35006KT 10SM CLR A3013 RMK AO2,M
BAM,2022-08-15 21:15,-116.8743,40.5990,1382.36,96.80,35.60,11.86,50.00,6.00,0.00,30.04,M,10.00,M,CLR,M,M,M,M,M,M,M,M,M,M,M,M,M,M,91.72,KBAM 152115Z AUTO 05006KT 10SM CLR 36/02 A3004 RMK AO1,M
MEV,2022-08-15 21:15,-119.7500,38.9963,1441.42,93.20,24.80,8.54,230.00,5.00,0.00,30.04,M,10.00,M,CLR,M,M,M,M,M,M,M,M,M,M,M,M,M,M,87.56,KMEV 152115Z AUTO 23005KT 10SM CLR 34/M04 A3004 RMK AO2,M
RTS,2022-08-15 21:15,-119.8764,39.6682,1539.00,91.40,17.60,6.66,140.00,12.00,0.00,30.09,M,10.00,17.00,CLR,M,M,M,M,M,M,M,M,M,M,M,M,M,M,85.76,KRTS 152115Z AUTO 14012G17KT 10SM CLR 33/M08 A3009 RMK AO2,M
CXP,2022-08-15 21:15,-119.7326,39.1923,1431.00,93.20,23.00,7.92,0.00,0.00,0.00,30.06,M,10.00,M,CLR,M,M,M,M,M,M,M,M,M,M,M,M,M,M,87.42,KCXP 152115Z AUTO 00000KT 10SM CLR 34/M05 A3006 RMK AO2,M
BVU,2022-08-15 21:15,-114.8611,35.9475,671.00,91.40,57.20,31.72,230.00,5.00,0.00,29.90,M,M,M,M,M,M,M,M,M,M,M,M,M,M,M,M,M,M,90.06,KBVU 152115Z AUTO 23005KT 33/14 A2990 RMK AO2 PWINO TSNO,M
HTH,2022-08-15 21:35,-118.6315,38.5448,1282.89,93.20,24.80,8.54,20.00,9.00,0.00,29.99,M,10.00,M,CLR,M,M,M,M,M,M,M,M,M,M,M,M,M,M,87.56,KHTH 152135Z AUTO 02009KT 350V050 10SM CLR 34/M04 A2999 RMK A01,M
TMT,2022-08-15 21:35,-117.1971,39.4643,1749.34,M,M,M,270.00,6.00,0.00,30.13,M,10.00,M,CLR,M,M,M,M,M,M,M,M,M,M,M,M,M,M,M,KTMT 152135Z AUTO 27006KT 10SM CLR A3013 RMK AO2 LTG DSNT SE AND S,M
MEV,2022-08-15 21:35,-119.7500,38.9963,1441.42,93.20,24.80,8.54,320.00,9.00,0.00,30.03,M,10.00,M,CLR,M,M,M,M,M,M,M,M,M,M,M,M,M,M,87.56,KMEV 152135Z AUTO 32009KT 10SM CLR 34/M04 A3003 RMK AO2,M
RTS,2022-08-15 21:35,-119.8764,39.6682,1539.00,91.40,19.40,7.19,130.00,10.00,0.00,30.08,M,10.00,M,CLR,M,M,M,M,M,M,M,M,M,M,M,M,M,M,85.86,KRTS 152135Z AUTO 13010KT 10SM CLR 33/M07 A3008 RMK AO2,M
CXP,2022-08-15 21:35,-119.7326,39.1923,1431.00,95.00,23.00,7.49,0.00,0.00,0.00,30.05,M,10.00,13.00,CLR,M,M,M,M,M,M,M,M,M,M,M,M,M,M,88.76,KCXP 152135Z AUTO 00000G13KT 10SM CLR 35/M05 A3005 RMK AO2,M
BVU,2022-08-15 21:35,-114.8611,35.9475,671.00,93.20,57.20,29.99,150.00,7.00,0.00,29.89,M,M,M,M,M,M,M,M,M,M,M,M,M,M,M,M,M,M,91.91,KBVU 152135Z AUTO 15007KT 34/14 A2989 RMK AO2 PWINO TSNO,M
BAM,2022-08-15 21:35,-116.8743,40.5990,1382.36,96.80,33.80,11.04,20.00,4.00,0.00,30.04,M,10.00,M,CLR,M,M,M,M,M,M,M,M,M,M,M,M,M,M,91.44,KBAM 152135Z AUTO 02004KT 10SM CLR 36/01 A3004 RMK AO1,M
DRA,2022-08-15 21:53,-116.0278,36.6206,1009.00,99.00,44.00,15.44,190.00,7.00,0.00,29.91,1007.00,10.00,M,CLR,M,M,M,M,M,M,M,M,M,M,M,M,M,M,94.87,KDRA 152153Z AUTO 19007KT 130V210 10SM CLR 37/07 A2991 RMK AO2 SLP070 T03720067,M
ELY,2022-08-15 21:53,-114.8453,39.2950,1909.00,M,M,M,M,M,0.00,30.17,M,M,M,M,M,M,M,M,M,M,M,M,M,M,M,M,M,M,M,KELY 152153Z AUTO A3017 RMK AO2 SLPNO PWINO FZRANO $,M
P68,2022-08-15 21:53,-116.0056,39.6014,1993.00,85.00,35.00,16.88,M,M,0.00,30.13,1011.70,M,M,M,M,M,M,M,M,M,M,M,M,M,M,M,M,M,81.84,KP68 152153Z AUTO 29/02 A3013 RMK AO1 SLP117 T02940017,M
LOL,2022-08-15 21:53,-118.5701,40.0684,1192.43,97.00,24.10,7.38,M,M,0.00,29.98,1010.90,10.00,M,CLR,M,M,M,M,M,M,M,M,M,M,M,M,M,M,90.50,KLOL 152153Z AUTO 10SM CLR 36/M04 A2998 RMK AO2 SLP109 T03611044,M
VGT,2022-08-15 21:53,-115.1933,36.2111,667.00,95.00,57.00,28.16,M,4.00,0.00,29.86,1009.90,10.00,M,CLR,M,M,M,M,M,M,M,M,M,M,M,M,M,M,93.75,KVGT 152153Z VRB04KT 10SM CLR 35/14 A2986 RMK AO2 SLP099 T03500139,M
RNO,2022-08-15 21:55,-119.7711,39.4839,1341.00,97.00,27.00,8.32,M,3.00,0.00,30.01,1009.60,10.00,M,FEW,M,M,M,9000.00,M,M,M,M,M,M,M,M,M,M,90.77,KRNO 152155Z VRB03KT 10SM FEW090 36/M03 A3001 RMK AO2 SLP096 T03611028,M
RTS,2022-08-15 21:55,-119.8764,39.6682,1539.00,91.40,19.40,7.19,M,6.00,0.00,30.08,M,10.00,M,CLR,M,M,M,M,M,M,M,M,M,M,M,M,M,M,85.86,KRTS 152155Z AUTO VRB06KT 10SM CLR 33/M07 A3008 RMK AO2,M
BAM,2022-08-15 21:55,-116.8743,40.5990,1382.36,95.00,33.80,11.67,60.00,7.00,0.00,30.04,M,10.00,M,CLR,M,M,M,M,M,M,M,M,M,M,M,M,M,M,89.97,KBAM 152155Z AUTO 06007KT 10SM CLR 35/01 A3004 RMK AO1,M
HTH,2022-08-15 21:55,-118.6315,38.5448,1282.89,95.00,24.80,8.08,320.00,8.00,0.00,29.98,M,10.00,M,CLR,M,M,M,M,M,M,M,M,M,M,M,M,M,M,88.91,KHTH 152155Z AUTO 32008KT 10SM CLR 35/M04 A2998 RMK A01,M
TMT,2022-08-15 21:55,-117.1971,39.4643,1749.34,M,M,M,240.00,7.00,0.00,30.13,M,10.00,M,CLR,M,M,M,M,M,M,M,M,M,M,M,M,M,M,M,KTMT 152155Z AUTO 24007KT 10SM CLR A3013 RMK AO2 LTG DSNT SE,M
CXP,2022-08-15 21:55,-119.7326,39.1923,1431.00,95.00,23.00,7.49,300.00,7.00,0.00,30.04,M,10.00,12.00,CLR,M,M,M,M,M,M,M,M,M,M,M,M,M,M,88.76,KCXP 152155Z AUTO 30007G12KT 10SM CLR 35/M05 A3004 RMK AO2,M
BVU,2022-08-15 21:55,-114.8611,35.9475,671.00,93.20,55.40,28.10,220.00,6.00,0.00,29.87,M,M,M,M,M,M,M,M,M,M,M,M,M,M,M,M,M,M,91.35,KBVU 152155Z AUTO 22006KT 34/13 A2987 RMK AO2 PWINO TSNO,M
MEV,2022-08-15 21:55,-119.7500,38.9963,1441.42,93.20,26.60,9.21,300.00,7.00,0.00,30.03,M,10.00,M,CLR,M,M,M,M,M,M,M,M,M,M,M,M,M,M,87.72,KMEV 152155Z AUTO 30007KT 10SM CLR 34/M03 A3003 RMK AO2,M
TPH,2022-08-15 21:56,-117.0904,38.0505,1654.00,92.00,37.00,14.58,M,M,0.00,30.10,1009.90,10.00,M,CLR,M,M,M,M,M,M,M,M,M,M,M,M,M,M,87.65,KTPH 152156Z AUTO 10SM CLR 33/03 A3010 RMK AO2 LTG DSNT S SLP099 T03330028,M
LAS,2022-08-15 21:56,-115.1634,36.0719,663.00,95.00,57.00,28.16,70.00,8.00,0.00,29.87,1008.60,10.00,M,FEW,FEW,BKN,M,10000.00,12000.00,17000.00,M,M,M,M,M,M,M,M,93.75,KLAS 152156Z 07008KT 10SM FEW100 FEW120 BKN170 35/14 A2987 RMK AO2 SLP086 CB DSNT S AND W T03500139,M
EKO,2022-08-15 21:56,-115.7860,40.8242,1367.00,87.00,33.00,14.53,0.00,0.00,0.00,30.07,1012.70,10.00,M,CLR,M,M,M,M,M,M,M,M,M,M,M,M,M,M,83.52,KEKO 152156Z AUTO 00000KT 10SM CLR 31/01 A3007 RMK AO2 SLP127 T03060006,M
HND,2022-08-15 21:56,-115.1344,35.9729,742.79,96.00,56.00,26.16,M,5.00,0.00,29.90,1010.90,10.00,M,CLR,M,M,M,M,M,M,M,M,M,M,M,M,M,M,94.55,KHND 152156Z VRB05KT 10SM CLR 36/13 A2990 RMK AO2 SLP109 T03560133,M
WMC,2022-08-15 21:56,-117.8072,40.9019,1315.00,98.00,32.00,9.87,M,3.00,0.00,30.00,1010.90,10.00,M,CLR,M,M,M,M,M,M,M,M,M,M,M,M,M,M,92.27,KWMC 152156Z AUTO VRB03KT 10SM CLR 37/00 A3000 RMK AO2 SLP109 T03670000 $,M
NFL,2022-08-15 21:56,-118.7010,39.4166,1199.00,97.00,30.90,9.76,M,4.00,0.00,29.98,1012.20,10.00,M,SCT,SCT,M,M,8000.00,12000.00,M,M,M,M,M,M,M,M,M,91.21,KNFL 152156Z VRB04KT 10SM SCT080 SCT120 36/M01 A2998 RMK AO2 SLP122 T03611006,M
INS,2022-08-15 21:58,-115.6733,36.5872,955.00,96.60,47.50,18.90,130.00,5.00,0.00,29.90,M,10.00,M,CLR,M,M,M,M,M,M,M,M,M,M,M,M,M,M,93.03,KINS 152158Z AUTO 13005KT 10SM CLR 36/09 A2990 RMK AO2 SLPNO T03590086,M
LSV,2022-08-15 21:58,-115.0343,36.2362,570.00,97.30,58.60,27.80,320.00,3.00,0.00,29.83,M,10.00,M,SCT,BKN,M,M,15000.00,20000.00,M,M,M,M,M,M,M,M,M,96.89,KLSV 152158Z COR AUTO 32003KT 10SM SCT150 BKN200 36/15 A2983 RMK AO2 SLPNO T03630148 $ COR 2200,M
BVU,2022-08-15 22:15,-114.8611,35.9475,671.00,93.20,55.40,28.10,0.00,0.00,0.00,29.86,M,M,M,M,M,M,M,M,M,M,M,M,M,M,M,M,M,M,91.35,KBVU 152215Z AUTO 00000KT 34/13 A2986 RMK AO2 PWINO TSNO,M
CXP,2022-08-15 22:15,-119.7326,39.1923,1431.00,95.00,23.00,7.49,290.00,8.00,0.00,30.04,M,10.00,M,CLR,M,M,M,M,M,M,M,M,M,M,M,M,M,M,88.76,KCXP 152215Z AUTO 29008KT 10SM CLR 35/M05 A3004 RMK AO2,M
RTS,2022-08-15 22:15,-119.8764,39.6682,1539.00,91.40,19.40,7.19,150.00,11.00,0.00,30.07,M,10.00,M,CLR,M,M,M,M,M,M,M,M,M,M,M,M,M,M,85.86,KRTS 152215Z AUTO 15011KT 10SM CLR 33/M07 A3007 RMK AO2,M
MEV,2022-08-15 22:15,-119.7500,38.9963,1441.42,93.20,24.80,8.54,0.00,0.00,0.00,30.03,M,10.00,M,CLR,M,M,M,M,M,M,M,M,M,M,M,M,M,M,87.56,KMEV 152215Z AUTO 00000KT 10SM CLR 34/M04 A3003 RMK AO2,M
BAM,2022-08-15 22:15,-116.8743,40.5990,1382.36,96.80,35.60,11.86,10.00,4.00,0.00,30.03,M,10.00,M,CLR,M,M,M,M,M,M,M,M,M,M,M,M,M,M,91.72,KBAM 152215Z AUTO 01004KT 10SM CLR 36/02 A3003 RMK AO1,M
HTH,2022-08-15 22:15,-118.6315,38.5448,1282.89,95.00,24.80,8.08,320.00,6.00,0.00,29.98,M,10.00,M,CLR,M,M,M,M,M,M,M,M,M,M,M,M,M,M,88.91,KHTH 152215Z AUTO 32006KT 10SM CLR 35/M04 A2998 RMK A01,M
TMT,2022-08-15 22:15,-117.1971,39.4643,1749.34,83.00,45.00,26.29,200.00,18.00,0.00,30.14,M,10.00,24.00,SCT,M,M,M,12000.00,M,M,M,M,M,M,M,M,M,M,80.99,KTMT 152215Z AUTO 20018G24KT 10SM SCT120 28/07 A3014 RMK AO2 T02840072,M
CXP,2022-08-15 22:35,-119.7326,39.1923,1431.00,95.00,23.00,7.49,280.00,8.00,0.00,30.03,M,10.00,13.00,CLR,M,M,M,M,M,M,M,M,M,M,M,M,M,M,88.76,KCXP 152235Z AUTO 28008G13KT 10SM CLR 35/M05 A3003 RMK AO2,M
BVU,2022-08-15 22:35,-114.8611,35.9475,671.00,93.20,55.40,28.10,0.00,0.00,0.00,29.86,M,M,M,M,M,M,M,M,M,M,M,M,M,M,M,M,M,M,91.35,KBVU 152235Z AUTO 00000KT 34/13 A2986 RMK AO2 PWINO TSNO,M
RTS,2022-08-15 22:35,-119.8764,39.6682,1539.00,91.40,17.60,6.66,160.00,9.00,0.00,30.06,M,10.00,M,CLR,M,M,M,M,M,M,M,M,M,M,M,M,M,M,85.76,KRTS 152235Z AUTO 16009KT 120V180 10SM CLR 33/M08 A3006 RMK AO2,M
MEV,2022-08-15 22:35,-119.7500,38.9963,1441.42,93.20,26.60,9.21,340.00,6.00,0.00,30.02,M,10.00,M,CLR,M,M,M,M,M,M,M,M,M,M,M,M,M,M,87.72,KMEV 152235Z AUTO 34006KT 10SM CLR 34/M03 A3002 RMK AO2,M
BAM,2022-08-15 22:35,-116.8743,40.5990,1382.36,95.00,33.80,11.67,10.00,5.00,0.00,30.02,M,10.00,M,CLR,M,M,M,M,M,M,M,M,M,M,M,M,M,M,89.97,KBAM 152235Z AUTO 01005KT 10SM CLR 35/01 A3002 RMK AO1,M
HTH,2022-08-15 22:35,-118.6315,38.5448,1282.89,96.80,24.80,7.65,320.00,10.00,0.00,29.97,M,10.00,M,CLR,M,M,M,M,M,M,M,M,M,M,M,M,M,M,90.40,KHTH 152235Z AUTO 32010KT 10SM CLR 36/M04 A2997 RMK A01,M
TMT,2022-08-15 22:35,-117.1971,39.4643,1749.34,81.30,46.00,28.95,210.00,15.00,0.00,30.16,M,10.00,24.00,BKN,M,M,M,12000.00,M,M,M,M,M,M,M,M,M,M,79.93,KTMT 152235Z AUTO 21015G24KT 10SM BKN120 27/08 A3016 RMK AO2 LTG DSNT N AND SE T02740078,M
P68,2022-08-15 22:53,-116.0056,39.6014,1993.00,87.00,33.00,14.53,220.00,6.00,0.00,30.12,1010.80,M,M,M,M,M,M,M,M,M,M,M,M,M,M,M,M,M,83.52,KP68 152253Z AUTO 22006KT 31/01 A3012 RMK AO1 SLP108 T03060006,M
VGT,2022-08-15 22:53,-115.1933,36.2111,667.00,95.00,57.00,28.16,0.00,0.00,0.00,29.84,1009.20,10.00,M,CLR,M,M,M,M,M,M,M,M,M,M,M,M,M,M,93.75,KVGT 152253Z 00000KT 10SM CLR 35/14 A2984 RMK AO2 SLP092 T03500139,M
DRA,2022-08-15 22:53,-116.0278,36.6206,1009.00,96.00,47.00,18.76,310.00,9.00,0.00,29.91,1007.10,10.00,M,BKN,M,M,M,11000.00,M,M,M,M,M,M,M,M,M,M,92.44,KDRA 152253Z AUTO 31009KT 10SM BKN110 36/08 A2991 RMK AO2 SLP071 T03560083,M
LOL,2022-08-15 22:53,-118.5701,40.0684,1192.43,98.00,18.00,5.51,M,5.00,0.00,29.95,1010.30,10.00,M,CLR,M,M,M,M,M,M,M,M,M,M,M,M,M,M,90.98,KLOL 152253Z AUTO VRB05KT 10SM CLR 37/M08 A2995 RMK AO2 SLP103 T03671078,M
TPH,2022-08-15 22:54,-117.0904,38.0505,1654.00,82.40,46.40,28.36,210.00,21.00,0.00,30.12,M,8.00,27.00,BKN,M,M,M,11000.00,M,M,M,M,M,M,M,27.00,210.00,2022-08-15 22:53,80.64,KTPH 152254Z AUTO 21021G27KT 8SM BKN110 28/08 A3012 RMK AO2 PK WND 21027/2253 WSHFT 2234 LTG DSNT SW AND NW,M
TMT,2022-08-15 22:55,-117.1971,39.4643,1749.34,M,M,M,230.00,10.00,0.00,30.18,M,10.00,18.00,OVC,M,M,M,11000.00,M,M,M,M,M,M,M,M,M,M,M,KTMT 152255Z AUTO 23010G18KT 10SM OVC110 A3018 RMK AO2,M
RNO,2022-08-15 22:55,-119.7711,39.4839,1341.00,95.00,27.00,8.85,0.00,0.00,0.00,29.99,1009.20,10.00,M,FEW,M,M,M,13000.00,M,M,M,M,M,M,M,M,M,M,89.12,KRNO 152255Z 00000KT 10SM FEW130 35/M03 A2999 RMK AO2 SLP092 T03501028,M
BVU,2022-08-15 22:55,-114.8611,35.9475,671.00,95.00,55.40,26.58,0.00,0.00,0.00,29.85,M,M,M,M,M,M,M,M,M,M,M,M,M,M,M,M,M,M,93.22,KBVU 152255Z AUTO 00000KT 35/13 A2985 RMK AO2 PWINO TSNO,M
RTS,2022-08-15 22:55,-119.8764,39.6682,1539.00,91.40,17.60,6.66,120.00,8.00,0.00,30.06,M,10.00,M,CLR,M,M,M,M,M,M,M,M,M,M,M,M,M,M,85.76,KRTS 152255Z AUTO 12008KT 10SM CLR 33/M08 A3006 RMK AO2,M
CXP,2022-08-15 22:55,-119.7326,39.1923,1431.00,95.00,24.80,8.08,300.00,10.00,0.00,30.02,M,10.00,16.00,CLR,M,M,M,M,M,M,M,M,M,M,M,M,M,M,88.91,KCXP 152255Z AUTO 30010G16KT 10SM CLR 35/M04 A3002 RMK AO2,M
MEV,2022-08-15 22:55,-119.7500,38.9963,1441.42,95.00,26.60,8.71,330.00,6.00,0.00,30.01,M,10.00,M,CLR,M,M,M,M,M,M,M,M,M,M,M,M,M,M,89.08,KMEV 152255Z AUTO 33006KT 10SM CLR 35/M03 A3001 RMK AO2,M
HTH,2022-08-15 22:55,-118.6315,38.5448,1282.89,96.80,24.80,7.65,270.00,6.00,0.00,29.96,M,10.00,M,CLR,M,M,M,M,M,M,M,M,M,M,M,M,M,M,90.40,KHTH 152255Z AUTO 27006KT 10SM CLR 36/M04 A2996 RMK A01,M
BAM,2022-08-15 22:55,-116.8743,40.5990,1382.36,98.60,33.80,10.45,40.00,8.00,0.00,30.01,M,10.00,M,CLR,M,M,M,M,M,M,M,M,M,M,M,M,M,M,92.94,KBAM 152255Z AUTO 04008KT 10SM CLR 37/01 A3001 RMK AO1,M
TPH,2022-08-15 22:56,-117.0904,38.0505,1654.00,83.00,47.00,28.43,200.00,21.00,0.00,30.12,1011.70,7.00,27.00,BKN,M,M,M,11000.00,M,M,M,M,M,M,M,27.00,210.00,2022-08-15 22:53,81.01,KTPH 152256Z AUTO 20021G27KT 7SM BKN110 28/08 A3012 RMK AO2 PK WND 21027/2253 WSHFT 2234 LTG DSNT SW AND NW SLP117 T02830083,M
HND,2022-08-15 22:56,-115.1344,35.9729,742.79,96.00,59.00,29.25,40.00,9.00,0.00,29.88,1010.30,10.00,M,CLR,M,M,M,M,M,M,M,M,M,M,M,M,M,M,95.72,KHND 152256Z 04009KT 10SM CLR 36/15 A2988 RMK AO2 SLP103 T03560150,M
LAS,2022-08-15 22:56,-115.1634,36.0719,663.00,94.00,55.00,27.10,M,3.00,0.00,29.85,1008.00,10.00,M,FEW,FEW,BKN,M,10000.00,12000.00,17000.00,M,M,M,M,M,M,M,M,91.95,KLAS 152256Z VRB03KT 10SM FEW100 FEW120 BKN170 34/13 A2985 RMK AO2 SLP080 CB DSNT S AND W T03440128,M
EKO,2022-08-15 22:56,-115.7860,40.8242,1367.00,86.00,30.90,13.77,0.00,0.00,0.00,30.06,1012.10,10.00,M,CLR,M,M,M,M,M,M,M,M,M,M,M,M,M,M,82.64,KEKO 152256Z AUTO 00000KT 10SM CLR 30/M01 A3006 RMK AO2 SLP121 T03001006,M
WMC,2022-08-15 22:56,-117.8072,40.9019,1315.00,98.00,30.00,9.10,M,M,0.00,29.98,1010.40,10.00,M,CLR,M,M,M,M,M,M,M,M,M,M,M,M,M,M,92.02,KWMC 152256Z AUTO 10SM CLR 37/M01 A2998 RMK AO2 SLP104 T03671011 $,M
NFL,2022-08-15 22:56,-118.7010,39.4166,1199.00,96.00,28.90,9.25,M,3.00,0.00,29.96,1011.60,10.00,M,FEW,FEW,M,M,8000.00,14000.00,M,M,M,M,M,M,M,M,M,90.23,KNFL 152256Z VRB03KT 10SM FEW080 FEW140 36/M02 A2996 RMK AO2 SLP116 CB DSNT E T03561017,M
LSV,2022-08-15 22:58,-115.0343,36.2362,570.00,103.30,58.00,22.78,0.00,0.00,0.00,29.81,M,10.00,M,SCT,BKN,M,M,14000.00,18000.00,M,M,M,M,M,M,M,M,M,103.43,KLSV 152258Z COR AUTO 00000KT 10SM SCT140 BKN180 40/15 A2981 RMK AO2 SLPNO T03960145 $ COR 2300,M
INS,2022-08-15 22:58,-115.6733,36.5872,955.00,96.00,47.00,18.90,100.00,5.00,0.00,29.89,M,10.00,M,BKN,M,M,M,17000.00,M,M,M,M,M,M,M,M,M,M,92.47,KINS 152258Z AUTO 10005KT 10SM BKN170 36/08 A2989 RMK AO2 SLPNO T03560084,M
TPH,2022-08-15 23:03,-117.0904,38.0505,1654.00,82.00,47.00,29.28,200.00,20.00,0.00,30.12,M,8.00,29.00,BKN,M,M,M,11000.00,M,M,M,M,M,M,M,29.00,210.00,2022-08-15 23:01,80.43,KTPH 152303Z AUTO 20020G29KT 8SM BKN110 28/08 A3012 RMK AO2 PK WND 21029/2301 WSHFT 2243 LTG DSNT SW T02780083,M
CXP,2022-08-15 23:15,-119.7326,39.1923,1431.00,95.00,26.60,8.71,320.00,10.00,0.00,30.02,M,10.00,17.00,CLR,M,M,M,M,M,M,M,M,M,M,M,M,M,M,89.08,KCXP 152315Z AUTO 32010G17KT 10SM CLR 35/M03 A3002 RMK AO2,M
TMT,2022-08-15 23:15,-117.1971,39.4643,1749.34,M,M,M,140.00,12.00,0.00,30.18,M,7.00,18.00,SCT,BKN,OVC,M,1200.00,7000.00,10000.00,M,RA,M,M,M,M,M,M,M,KTMT 152315Z AUTO 14012G18KT 7SM RA SCT012 BKN070 OVC100 A3018 RMK AO2,M
HTH,2022-08-15 23:15,-118.6315,38.5448,1282.89,96.80,24.80,7.65,M,6.00,0.00,29.95,M,10.00,16.00,CLR,M,M,M,M,M,M,M,M,M,M,M,M,M,M,90.40,KHTH 152315Z AUTO VRB06G16KT 10SM CLR 36/M04 A2995 RMK A01,M
BAM,2022-08-15 23:15,-116.8743,40.5990,1382.36,98.60,33.80,10.45,90.00,7.00,0.00,30.01,M,10.00,M,CLR,M,M,M,M,M,M,M,M,M,M,M,M,M,M,92.94,KBAM 152315Z AUTO 09007KT 10SM CLR 37/01 A3001 RMK AO1,M
MEV,2022-08-15 23:15,-119.7500,38.9963,1441.42,95.00,30.20,10.09,320.00,12.00,0.00,30.01,M,10.00,18.00,CLR,M,M,M,M,M,M,M,M,M,M,M,M,M,M,89.48,KMEV 152315Z AUTO 32012G18KT 10SM CLR 35/M01 A3001 RMK AO2,M
RTS,2022-08-15 23:15,-119.8764,39.6682,1539.00,93.20,19.40,6.80,110.00,6.00,0.00,30.05,M,10.00,11.00,CLR,M,M,M,M,M,M,M,M,M,M,M,M,M,M,87.18,KRTS 152315Z AUTO 11006G11KT 10SM CLR 34/M07 A3005 RMK AO2,M
BVU,2022-08-15 23:15,-114.8611,35.9475,671.00,95.00,55.40,26.58,M,3.00,0.00,29.85,M,M,M,M,M,M,M,M,M,M,M,M,M,M,M,M,M,M,93.22,KBVU 152315Z AUTO VRB03KT 35/13 A2985 RMK AO2 PWINO TSNO,M
BVU,2022-08-15 23:35,-114.8611,35.9475,671.00,96.80,55.40,25.15,M,5.00,0.00,29.84,M,M,M,M,M,M,M,M,M,M,M,M,M,M,M,M,M,M,95.14,KBVU 152335Z AUTO VRB05KT 36/13 A2984 RMK AO2 PWINO TSNO,M
HTH,2022-08-15 23:35,-118.6315,38.5448,1282.89,96.80,24.80,7.65,310.00,10.00,0.00,29.95,M,10.00,M,CLR,M,M,M,M,M,M,M,M,M,M,M,M,M,M,90.40,KHTH 152335Z AUTO 31010KT 10SM CLR 36/M04 A2995 RMK A01,M
TMT,2022-08-15 23:35,-117.1971,39.4643,1749.34,75.00,48.70,39.45,310.00,13.00,0.00,30.16,M,10.00,23.00,SCT,BKN,OVC,M,1300.00,4800.00,10000.00,M,-DZ,M,M,M,M,M,M,75.00,KTMT 152335Z AUTO 31013G23KT 10SM -DZ SCT013 BKN048 OVC100 24/09 A3016 RMK AO2 T02390093,M
RTS,2022-08-15 23:35,-119.8764,39.6682,1539.00,93.20,19.40,6.80,30.00,9.00,0.00,30.05,M,10.00,M,CLR,M,M,M,M,M,M,M,M,M,M,M,M,M,M,87.18,KRTS 152335Z AUTO 03009KT 360V080 10SM CLR 34/M07 A3005 RMK AO2,M
MEV,2022-08-15 23:35,-119.7500,38.9963,1441.42,95.00,30.20,10.09,290.00,12.00,0.00,30.01,M,10.00,M,CLR,M,M,M,M,M,M,M,M,M,M,M,M,M,M,89.48,KMEV 152335Z AUTO 29012KT 10SM CLR 35/M01 A3001 RMK AO2,M
BAM,2022-08-15 23:35,-116.8743,40.5990,1382.36,98.60,33.80,10.45,120.00,6.00,0.00,30.01,M,10.00,M,CLR,M,M,M,M,M,M,M,M,M,M,M,M,M,M,92.94,KBAM 152335Z AUTO 12006KT 10SM CLR 37/01 A3001 RMK AO1,M
CXP,2022-08-15 23:35,-119.7326,39.1923,1431.00,95.00,26.60,8.71,270.00,8.00,0.00,30.02,M,10.00,16.00,CLR,M,M,M,M,M,M,M,M,M,M,M,M,M,M,89.08,KCXP 152335Z AUTO 27008G16KT 10SM CLR 35/M03 A3002 RMK AO2,M
VGT,2022-08-15 23:53,-115.1933,36.2111,667.00,97.00,56.00,25.45,120.00,3.00,0.00,29.82,1008.60,10.00,M,CLR,M,M,M,M,M,M,M,M,M,M,M,M,M,M,95.53,KVGT 152353Z 12003KT 10SM CLR 36/13 A2982 RMK AO2 SLP086 T03610133 10361 20311 56021,M
P68,2022-08-15 23:53,-116.0056,39.6014,1993.00,87.00,32.00,13.90,250.00,4.00,0.00,30.11,1011.20,M,M,M,M,M,M,M,M,M,M,M,M,M,M,M,M,M,83.51,KP68 152353Z AUTO 25004KT 31/00 A3011 RMK AO1 SLP112 T03060000 10317 20267 56013,M
DRA,2022-08-15 23:53,-116.0278,36.6206,1009.00,91.00,50.00,24.68,200.00,14.00,0.00,29.92,1008.00,10.00,22.00,BKN,M,M,M,11000.00,M,M,M,M,M,M,M,M,M,M,87.99,KDRA 152353Z AUTO 20014G22KT 10SM BKN110 33/10 A2992 RMK AO2 SLP080 T03280100 10378 20322 55004,M
LOL,2022-08-15 23:53,-118.5701,40.0684,1192.43,98.00,19.90,5.98,210.00,7.00,0.00,29.94,1009.90,10.00,M,CLR,M,M,M,M,M,M,M,M,M,M,M,M,M,M,91.10,KLOL 152353Z AUTO 21007KT 10SM CLR 37/M07 A2994 RMK AO2 SLP099 T03671067 10378 20311 56016,M
RNO,2022-08-15 23:55,-119.7711,39.4839,1341.00,98.00,27.00,8.05,340.00,8.00,0.00,29.98,1008.80,10.00,M,FEW,M,M,M,13000.00,M,M,M,M,M,M,M,M,M,M,91.69,KRNO 152355Z 34008KT 290V010 10SM FEW130 37/M03 A2998 RMK AO2 SLP088 T03671028 10367 20272 56014,M
RTS,2022-08-15 23:55,-119.8764,39.6682,1539.00,91.40,21.20,7.77,320.00,9.00,0.00,30.05,M,10.00,M,CLR,M,M,M,M,M,M,M,M,M,M,M,M,M,M,85.96,KRTS 152355Z AUTO 32009KT 10SM CLR 33/M06 A3005 RMK AO2,M
MEV,2022-08-15 23:55,-119.7500,38.9963,1441.42,93.20,30.20,10.67,280.00,13.00,0.00,30.01,M,10.00,M,CLR,M,M,M,M,M,M,M,M,M,M,M,M,M,M,88.09,KMEV 152355Z AUTO 28013KT 10SM CLR 34/M01 A3001 RMK AO2,M
BAM,2022-08-15 23:55,-116.8743,40.5990,1382.36,96.80,32.00,10.27,30.00,3.00,0.00,30.00,M,10.00,M,CLR,M,M,M,M,M,M,M,M,M,M,M,M,M,M,91.19,KBAM 152355Z AUTO 03003KT 10SM CLR 36/00 A3000 RMK AO1,M
HTH,2022-08-15 23:55,-118.6315,38.5448,1282.89,96.80,23.00,7.09,340.00,10.00,0.00,29.94,M,10.00,M,CLR,M,M,M,M,M,M,M,M,M,M,M,M,M,M,90.25,KHTH 152355Z AUTO 34010KT 10SM CLR 36/M05 A2994 RMK A01,M
BVU,2022-08-15 23:55,-114.8611,35.9475,671.00,95.00,55.40,26.58,90.00,4.00,0.00,29.84,M,M,M,M,M,M,M,M,M,M,M,M,M,M,M,M,M,M,93.22,KBVU 152355Z AUTO 09004KT 35/13 A2984 RMK AO2 PWINO TSNO,M
CXP,2022-08-15 23:55,-119.7326,39.1923,1431.00,95.00,28.40,9.38,250.00,8.00,0.00,30.02,M,10.00,15.00,CLR,M,M,M,M,M,M,M,M,M,M,M,M,M,M,89.27,KCXP 152355Z AUTO 25008G15KT 210V290 10SM CLR 35/M02 A3002 RMK AO2,M
EKO,2022-08-15 23:56,-115.7860,40.8242,1367.00,88.00,33.00,14.12,0.00,0.00,0.00,30.05,1011.90,10.00,M,CLR,M,M,M,M,M,M,M,M,M,M,M,M,M,M,84.25,KEKO 152356Z AUTO 00000KT 10SM CLR 31/01 A3005 RMK AO2 SLP119 T03110006 10317 20256 56015,M
NFL,2022-08-15 23:56,-118.7010,39.4166,1199.00,98.00,27.00,8.05,360.00,5.00,0.00,29.95,1011.30,10.00,M,FEW,FEW,M,M,10000.00,14000.00,M,M,M,M,M,M,M,M,M,91.69,KNFL 152356Z 36005KT 10SM FEW100 FEW140 37/M03 A2995 RMK AO2 SLP113 TCU DSNT SE T03671028 10372 20289 56015,M
HND,2022-08-15 23:56,-115.1344,35.9729,742.79,94.00,58.00,30.10,340.00,3.00,0.00,29.87,1010.10,10.00,M,CLR,M,M,M,M,M,M,M,M,M,M,M,M,M,M,92.90,KHND 152356Z 34003KT 10SM CLR 34/14 A2987 RMK AO2 SLP101 T03440144 10367 20300 56019,M
LAS,2022-08-15 23:56,-115.1634,36.0719,663.00,95.00,56.00,27.06,110.00,3.00,0.00,29.84,1007.50,10.00,M,FEW,BKN,BKN,BKN,10000.00,12000.00,17000.00,25000.00,M,M,M,M,M,M,M,93.38,KLAS 152356Z 11003KT 10SM FEW100 BKN120 BKN170 BKN250 35/13 A2984 RMK AO2 SLP075 VIRGA SE CB DSNT ALQDS T03500133 10356 20300 56021,M
WMC,2022-08-15 23:56,-117.8072,40.9019,1315.00,99.00,33.00,10.04,M,3.00,0.00,29.97,1010.00,10.00,M,CLR,M,M,M,M,M,M,M,M,M,M,M,M,M,M,93.18,KWMC 152356Z AUTO VRB03KT 10SM CLR 37/01 A2997 RMK AO2 SLP100 T03720006 10378 20300 56015 $,M
TPH,2022-08-15 23:56,-117.0904,38.0505,1654.00,84.00,45.00,25.54,10.00,13.00,0.00,30.14,1012.40,10.00,18.00,BKN,OVC,M,M,10000.00,12000.00,M,M,M,M,M,M,29.00,210.00,2022-08-15 23:01,81.61,KTPH 152356Z AUTO 01013G18KT 10SM BKN100 OVC120 29/07 A3014 RMK AO2 PK WND 21029/2301 WSHFT 2243 SLP124 T02890072 10333 20272 52012,M
LSV,2022-08-15 23:58,-115.0343,36.2362,570.00,99.50,58.50,25.91,0.00,0.00,0.00,29.79,M,10.00,M,SCT,BKN,M,M,15000.00,19000.00,M,M,M,M,M,M,M,M,M,99.31,KLSV 152358Z 00000KT 10SM SCT150 BKN190 38/15 A2979 RMK AO2A SLPNO T03750147 10401 20314 57022 $,M
INS,2022-08-15 23:58,-115.6733,36.5872,955.00,95.00,47.70,20.00,120.00,7.00,0.00,29.88,M,10.00,M,FEW,M,M,M,18000.00,M,M,M,M,M,M,M,M,M,M,91.48,KINS 152358Z AUTO 12007KT 10SM FEW180 35/09 A2988 RMK AO2 SLPNO T03500087 10364 20308 57015,M
DRA,2022-08-15 23:58,-116.0278,36.6206,1009.00,91.00,51.00,25.70,200.00,14.00,0.00,29.92,M,10.00,22.00,SCT,M,M,M,11000.00,M,M,M,M,M,M,M,M,M,M,88.18,KDRA 152358Z AUTO 20014G22KT 10SM SCT110 33/11 A2992 RMK AO2 WSHFT 2341 T03280106,M
