station,valid,lon,lat,elevation,tmpf,dwpf,relh,drct,sknt,p01i,alti,mslp,vsby,gust,skyc1,skyc2,skyc3,skyc4,skyl1,skyl2,skyl3,skyl4,wxcodes,ice_accretion_1hr,ice_accretion_3hr,ice_accretion_6hr,peak_wind_gust,peak_wind_drct,peak_wind_time,feel,metar,snowdepth
BVU,2023-11-16 00:15,-114.8611,35.9475,671.00,68.00,42.80,40.00,220.00,5.00,0.00,29.96,M,9.00,M,FEW,BKN,OVC,M,4100.00,6500.00,10000.00,M,M,M,M,M,M,M,M,68.00,KBVU 160015Z AUTO 22005KT 9SM FEW041 BKN065 OVC100 20/06 A2996 RMK AO2,M
CXP,2023-11-16 00:15,-119.7326,39.1923,1431.00,55.40,17.60,22.41,0.00,0.00,0.00,29.92,M,10.00,M,SCT,OVC,M,M,7500.00,9000.00,M,M,M,M,M,M,M,M,M,55.40,KCXP 160015Z AUTO 00000KT 10SM SCT075 OVC090 13/M08 A2992 RMK AO2,M
RTS,2023-11-16 00:15,-119.8764,39.6682,1539.00,53.60,15.80,22.13,140.00,6.00,0.00,29.93,M,10.00,M,FEW,SCT,M,M,9500.00,12000.00,M,M,M,M,M,M,M,M,M,53.60,KRTS 160015Z AUTO 14006KT 10SM FEW095 SCT120 12/M09 A2993 RMK AO2,M
05U,2023-11-16 00:15,-116.0051,39.6042,1811.23,53.60,17.60,23.93,330.00,15.00,0.00,30.03,M,10.00,M,M,M,M,M,M,M,M,M,M,M,M,M,M,M,M,53.60,K05U 160015Z AUTO 33015KT 10SM 12/M08 A3003 RMK A01,M
MEV,2023-11-16 00:15,-119.7500,38.9963,1441.42,50.00,24.80,37.08,170.00,6.00,0.00,29.91,M,10.00,M,OVC,M,M,M,9000.00,M,M,M,M,M,M,M,M,M,M,50.00,KMEV 160015Z AUTO 17006KT 10SM OVC090 10/M04 A2991 RMK AO2,M
BAM,2023-11-16 00:15,-116.8743,40.5990,1382.36,59.00,23.00,24.76,0.00,0.00,0.00,29.95,M,10.00,M,SCT,SCT,M,M,10000.00,12000.00,M,M,M,M,M,M,M,M,M,59.00,KBAM 160015Z AUTO 00000KT 10SM SCT100 SCT120 15/M05 A2995 RMK AO1,M
HTH,2023-11-16 00:15,-118.6315,38.5448,1282.89,60.80,17.60,18.46,150.00,13.00,0.00,29.91,M,10.00,18.00,BKN,M,M,M,8500.00,M,M,M,M,M,M,M,M,M,M,60.80,KHTH 160015Z AUTO 15013G18KT 10SM BKN085 16/M08 A2991 RMK A01,M
TMT,2023-11-16 00:15,-117.1971,39.4643,1749.34,51.40,17.80,26.17,0.00,0.00,0.00,29.97,M,10.00,M,CLR,M,M,M,M,M,M,M,M,M,M,M,M,M,M,51.40,KTMT 160015Z AUTO 00000KT 10SM CLR 11/M08 A2997 RMK AO2 T01081079,M
BVU,2023-11-16 00:35,-114.8611,35.9475,671.00,66.20,44.60,45.60,0.00,0.00,0.00,29.96,M,10.00,M,FEW,SCT,BKN,M,3400.00,6000.00,8000.00,M,M,M,M,M,M,M,M,66.20,KBVU 160035Z AUTO 00000KT 10SM FEW034 SCT060 BKN080 19/07 A2996 RMK AO2,M
CXP,2023-11-16 00:35,-119.7326,39.1923,1431.00,53.60,19.40,25.85,0.00,0.00,0.00,29.93,M,10.00,M,FEW,BKN,BKN,M,7000.00,8500.00,12000.00,M,M,M,M,M,M,M,M,53.60,KCXP 160035Z AUTO 00000KT 10SM FEW070 BKN085 BKN120 12/M07 A2993 RMK AO2,M
RTS,2023-11-16 00:35,-119.8764,39.6682,1539.00,51.80,19.40,27.62,50.00,4.00,0.00,29.92,M,10.00,M,SCT,BKN,BKN,M,6500.00,7500.00,9000.00,M,M,M,M,M,M,M,M,51.80,KRTS 160035Z AUTO 05004KT 10SM SCT065 BKN075 BKN090 11/M07 A2992 RMK AO2,M
05U,2023-11-16 00:35,-116.0051,39.6042,1811.23,53.60,17.60,23.93,320.00,13.00,0.00,30.02,M,10.00,M,M,M,M,M,M,M,M,M,M,M,M,M,M,M,M,53.60,K05U 160035Z AUTO 32013KT 10SM 12/M08 A3002 RMK A01,M
MEV,2023-11-16 00:35,-119.7500,38.9963,1441.42,50.00,24.80,37.08,190.00,5.00,0.00,29.92,M,10.00,M,FEW,BKN,OVC,M,4400.00,6500.00,9000.00,M,M,M,M,M,M,M,M,50.00,KMEV 160035Z AUTO 19005KT 10SM FEW044 BKN065 OVC090 10/M04 A2992 RMK AO2,M
BAM,2023-11-16 00:35,-116.8743,40.5990,1382.36,55.40,23.00,28.20,0.00,0.00,0.00,29.95,M,10.00,M,BKN,M,M,M,10000.00,M,M,M,M,M,M,M,M,M,M,55.40,KBAM 160035Z AUTO 00000KT 10SM BKN100 13/M05 A2995 RMK AO1,M
HTH,2023-11-16 00:35,-118.6315,38.5448,1282.89,59.00,17.60,19.68,160.00,10.00,0.00,29.91,M,10.00,M,SCT,OVC,M,M,7000.00,9000.00,M,M,M,M,M,M,M,M,M,59.00,KHTH 160035Z AUTO 16010KT 10SM SCT070 OVC090 15/M08 A2991 RMK A01,M
TMT,2023-11-16 00:35,-117.1971,39.4643,1749.34,50.50,16.70,25.80,0.00,0.00,0.00,29.97,M,10.00,M,CLR,M,M,M,M,M,M,M,M,M,M,M,M,M,M,50.50,KTMT 160035Z AUTO 00000KT 10SM CLR 10/M08 A2997 RMK AO2 T01031085,M
INS,2023-11-16 00:50,-115.6733,36.5872,955.00,62.60,23.00,21.79,130.00,4.00,0.00,29.97,1013.00,6.00,M,FEW,FEW,BKN,OVC,6000.00,8000.00,10000.00,11000.00,-RA,M,M,M,M,M,M,62.60,KINS 160050Z AUTO 13004KT 6SM -RA FEW060 FEW080 BKN100 OVC110 17/M05 A2997 RMK AO2 RAB50 SLP130 $,M
INS,2023-11-16 00:51,-115.6733,36.5872,955.00,62.60,23.00,21.79,140.00,5.00,0.00,29.97,1013.00,6.00,M,FEW,BKN,BKN,M,8000.00,10000.00,11000.00,M,HZ,M,M,M,M,M,M,62.60,KINS 160051Z AUTO 14005KT 6SM HZ FEW080 BKN100 BKN110 17/M05 A2997 RMK AO2 RAB50 SLP130 $,M
INS,2023-11-16 00:52,-115.6733,36.5872,955.00,62.60,23.00,21.79,140.00,6.00,0.00,29.97,1013.00,6.00,M,BKN,OVC,M,M,8500.00,11000.00,M,M,-DZ,M,M,M,M,M,M,62.60,KINS 160052Z AUTO 14006KT 6SM -DZ BKN085 OVC110 17/M05 A2997 RMK AO2 RAB50E51DZB51 SLP130 $,M
P68,2023-11-16 00:53,-116.0056,39.6014,1993.00,52.00,18.00,25.82,170.00,13.00,0.00,30.00,1014.10,M,M,M,M,M,M,M,M,M,M,M,M,M,M,M,M,M,52.00,KP68 160053Z AUTO 17013KT 11/M08 A3000 RMK AO1 SLP141 T01111078,M
DRA,2023-11-16 00:53,-116.0278,36.6206,1009.00,63.00,28.00,26.45,0.00,0.00,0.00,29.95,1012.40,10.00,M,BKN,M,M,M,11000.00,M,M,M,M,M,M,M,M,M,M,63.00,KDRA 160053Z AUTO 00000KT 10SM BKN110 17/M02 A2995 RMK AO2 SLP124 T01721022,M
ELY,2023-11-16 00:53,-114.8453,39.2950,1909.00,50.00,29.00,44.10,180.00,7.00,0.00,30.05,1015.50,10.00,M,SCT,OVC,M,M,7000.00,8500.00,M,M,M,M,M,M,M,M,M,50.00,KELY 160053Z AUTO 18007KT 10SM SCT070 OVC085 10/M02 A3005 RMK AO2 SLP155 T01001017,M
VGT,2023-11-16 00:53,-115.1933,36.2111,667.00,67.00,43.00,41.72,140.00,6.00,T,29.96,1015.50,10.00,M,FEW,SCT,BKN,M,4100.00,7500.00,9000.00,M,-RA,M,M,M,M,M,M,67.00,KVGT 160053Z 14006KT 10SM -RA FEW041 SCT075 BKN090 19/06 A2996 RMK AO2 RAB40 SLP155 P0000 T01940061,M
LOL,2023-11-16 00:53,-118.5701,40.0684,1192.43,55.00,18.00,23.13,0.00,0.00,0.00,29.90,1012.60,10.00,M,CLR,M,M,M,M,M,M,M,M,M,M,M,M,M,M,55.00,KLOL 160053Z AUTO 00000KT 10SM CLR 13/M08 A2990 RMK AO2 SLP126 T01281078,M
BVU,2023-11-16 00:55,-114.8611,35.9475,671.00,66.20,39.20,37.03,0.00,0.00,0.00,29.97,M,10.00,M,FEW,SCT,BKN,M,4700.00,6500.00,8000.00,M,M,M,M,M,M,M,M,66.20,KBVU 160055Z AUTO 00000KT 10SM FEW047 SCT065 BKN080 19/04 A2997 RMK AO2,M
CXP,2023-11-16 00:55,-119.7326,39.1923,1431.00,51.80,19.40,27.62,70.00,4.00,0.00,29.92,M,10.00,M,SCT,BKN,OVC,M,6500.00,7500.00,9000.00,M,M,M,M,M,M,M,M,51.80,KCXP 160055Z AUTO 07004KT 10SM SCT065 BKN075 OVC090 11/M07 A2992 RMK AO2,M
RNO,2023-11-16 00:55,-119.7711,39.4839,1341.00,57.00,19.00,22.46,0.00,0.00,0.00,29.90,1010.80,10.00,M,BKN,BKN,M,M,9000.00,20000.00,M,M,M,M,M,M,M,M,M,57.00,KRNO 160055Z 00000KT 10SM BKN090 BKN200 14/M07 A2990 RMK AO2 SLP108 T01391072,M
RTS,2023-11-16 00:55,-119.8764,39.6682,1539.00,50.00,15.80,25.28,60.00,6.00,0.00,29.93,M,10.00,M,SCT,BKN,BKN,M,6500.00,9000.00,11000.00,M,M,M,M,M,M,M,M,50.00,KRTS 160055Z AUTO 06006KT 10SM SCT065 BKN090 BKN110 10/M09 A2993 RMK AO2,M
05U,2023-11-16 00:55,-116.0051,39.6042,1811.23,51.80,17.60,25.56,320.00,12.00,0.00,30.03,M,10.00,M,M,M,M,M,M,M,M,M,M,M,M,M,M,M,M,51.80,K05U 160055Z AUTO 32012KT 10SM 11/M08 A3003 RMK A01,M
MEV,2023-11-16 00:55,-119.7500,38.9963,1441.42,50.00,23.00,34.39,190.00,8.00,0.00,29.94,M,10.00,M,FEW,BKN,OVC,M,5000.00,6500.00,7500.00,M,M,M,M,M,M,M,M,50.00,KMEV 160055Z AUTO 19008KT 10SM FEW050 BKN065 OVC075 10/M05 A2994 RMK AO2,M
BAM,2023-11-16 00:55,-116.8743,40.5990,1382.36,55.40,23.00,28.20,340.00,4.00,0.00,29.95,M,10.00,M,OVC,M,M,M,10000.00,M,M,M,M,M,M,M,M,M,M,55.40,KBAM 160055Z AUTO 34004KT 10SM OVC100 13/M05 A2995 RMK AO1,M
HTH,2023-11-16 00:55,-118.6315,38.5448,1282.89,59.00,17.60,19.68,170.00,7.00,0.00,29.92,M,10.00,M,FEW,FEW,BKN,M,7000.00,8500.00,12000.00,M,M,M,M,M,M,M,M,59.00,KHTH 160055Z AUTO 17007KT 10SM FEW070 FEW085 BKN120 15/M08 A2992 RMK A01,M
TMT,2023-11-16 00:55,-117.1971,39.4643,1749.34,47.30,15.80,27.97,0.00,0.00,0.00,29.98,M,10.00,M,CLR,M,M,M,M,M,M,M,M,M,M,M,M,M,M,47.30,KTMT 160055Z AUTO 00000KT 10SM CLR 09/M09 A2998 RMK AO2 T00851090,M
INS,2023-11-16 00:55,-115.6733,36.5872,955.00,62.60,23.00,21.79,150.00,6.00,T,29.96,1012.70,5.00,M,FEW,SCT,BKN,OVC,6000.00,8000.00,10000.00,12000.00,-DZ,M,M,M,M,M,M,62.60,KINS 160055Z AUTO 15006KT 5SM -DZ FEW060 SCT080 BKN100 OVC120 17/M05 A2996 RMK AO2 RAB50E51DZB51 SLP127 P0000 T01701049 $,M
LSV,2023-11-16 00:55,-115.0343,36.2362,570.00,66.40,35.60,31.92,0.00,0.00,0.00,29.93,1012.90,10.00,M,CLR,M,M,M,M,M,M,M,M,M,M,M,M,M,M,66.40,KLSV 160055Z AUTO 00000KT 10SM CLR 19/02 A2993 RMK AO2 SLP129 T01910020,M
EKO,2023-11-16 00:56,-115.7860,40.8242,1367.00,58.00,23.00,25.67,170.00,14.00,0.00,29.96,1013.80,10.00,21.00,BKN,BKN,M,M,9000.00,11000.00,M,M,M,M,M,M,M,M,M,58.00,KEKO 160056Z AUTO 17014G21KT 10SM BKN090 BKN110 14/M05 A2996 RMK AO2 SLP138 T01441050,M
HND,2023-11-16 00:56,-115.1344,35.9729,742.79,65.00,37.00,35.42,0.00,0.00,T,30.00,1016.70,10.00,M,BKN,M,M,M,11000.00,M,M,M,-RA,M,M,M,M,M,M,65.00,KHND 160056Z 00000KT 10SM -RA BKN110 18/03 A3000 RMK AO2 RAB55 SLP167 P0000 T01830028,M
TPH,2023-11-16 00:56,-117.0904,38.0505,1654.00,54.00,19.00,25.04,170.00,15.00,T,30.02,1015.10,10.00,23.00,OVC,M,M,M,6000.00,M,M,M,-RA,M,M,M,M,M,M,54.00,KTPH 160056Z AUTO 17015G23KT 10SM -RA OVC060 12/M07 A3002 RMK AO2 RAB33 SLP151 P0000 T01221072,M
LAS,2023-11-16 00:56,-115.1634,36.0719,663.00,68.00,38.00,33.20,0.00,0.00,0.00,29.97,1013.80,10.00,M,FEW,BKN,BKN,OVC,5000.00,11000.00,15000.00,20000.00,M,M,M,M,M,M,M,68.00,KLAS 160056Z 00000KT 10SM FEW050 BKN110 BKN150 OVC200 20/03 A2997 RMK AO2 SLP138 VCSH T02000033,M
NFL,2023-11-16 00:56,-118.7010,39.4166,1199.00,54.00,23.00,29.67,30.00,6.00,0.00,29.90,1009.90,10.00,M,SCT,BKN,BKN,M,10000.00,15000.00,20000.00,M,M,M,M,M,M,M,M,54.00,KNFL 160056Z 03006KT 10SM SCT100 BKN150 BKN200 12/M05 A2990 RMK SLP099 T01221050,M
INS,2023-11-16 01:02,-115.6733,36.5872,955.00,62.60,24.80,23.50,130.00,4.00,0.00,29.97,1013.00,4.00,M,FEW,BKN,M,M,6000.00,9500.00,M,M,HZ,M,M,M,M,M,M,62.60,KINS 160102Z AUTO 13004KT 4SM HZ FEW060 BKN095 17/M04 A2997 RMK AO2 DZE02 SLP130 $,M
INS,2023-11-16 01:09,-115.6733,36.5872,955.00,62.60,26.60,25.32,160.00,5.00,0.00,29.97,1013.20,5.00,M,FEW,BKN,M,M,6000.00,9000.00,M,M,-DZ,M,M,M,M,M,M,62.60,KINS 160109Z AUTO 16005KT 5SM -DZ FEW060 BKN090 17/M03 A2997 RMK AO2 DZE02DZB09 SLP132 $,M
INS,2023-11-16 01:10,-115.6733,36.5872,955.00,62.60,24.80,23.50,160.00,5.00,0.00,29.97,1013.00,5.00,M,FEW,BKN,M,M,6000.00,9000.00,M,M,HZ,M,M,M,M,M,M,62.60,KINS 160110Z AUTO 16005KT 5SM HZ FEW060 BKN090 17/M04 A2997 RMK AO2 DZE02DZB09 SLP130 $,M
INS,2023-11-16 01:11,-115.6733,36.5872,955.00,62.60,24.80,23.50,150.00,5.00,0.00,29.97,1013.00,5.00,M,FEW,BKN,M,M,6000.00,8500.00,M,M,-DZ,M,M,M,M,M,M,62.60,KINS 160111Z AUTO 15005KT 5SM -DZ FEW060 BKN085 17/M04 A2997 RMK AO2 DZE02DZB09 SLP130 $,M
BVU,2023-11-16 01:15,-114.8611,35.9475,671.00,64.40,48.20,55.63,0.00,0.00,0.00,29.97,M,10.00,M,FEW,SCT,BKN,M,5000.00,6500.00,7500.00,M,M,M,M,M,M,M,M,64.40,KBVU 160115Z AUTO 00000KT 10SM FEW050 SCT065 BKN075 18/09 A2997 RMK AO2,M
CXP,2023-11-16 01:15,-119.7326,39.1923,1431.00,51.80,19.40,27.62,160.00,5.00,0.00,29.96,M,10.00,M,FEW,BKN,OVC,M,5000.00,6500.00,10000.00,M,M,M,M,M,M,M,M,51.80,KCXP 160115Z AUTO 16005KT 10SM FEW050 BKN065 OVC100 11/M07 A2996 RMK AO2,M
RTS,2023-11-16 01:15,-119.8764,39.6682,1539.00,48.20,15.80,27.04,40.00,7.00,0.00,29.92,M,10.00,M,BKN,OVC,M,M,9000.00,11000.00,M,M,M,M,M,M,M,M,M,44.53,KRTS 160115Z AUTO 04007KT 10SM BKN090 OVC110 09/M09 A2992 RMK AO2,M
05U,2023-11-16 01:15,-116.0051,39.6042,1811.23,51.80,17.60,25.56,320.00,10.00,0.00,30.03,M,10.00,M,M,M,M,M,M,M,M,M,M,M,M,M,M,M,M,51.80,K05U 160115Z AUTO 32010KT 10SM 11/M08 A3003 RMK A01,M
MEV,2023-11-16 01:15,-119.7500,38.9963,1441.42,48.20,24.80,39.66,190.00,10.00,0.00,29.98,M,10.00,M,FEW,SCT,BKN,M,1100.00,3400.00,4700.00,M,M,M,M,M,M,M,M,43.28,KMEV 160115Z AUTO 19010KT 10SM FEW011 SCT034 BKN047 09/M04 A2998 RMK AO2,M
BAM,2023-11-16 01:15,-116.8743,40.5990,1382.36,55.40,23.00,28.20,340.00,5.00,0.00,29.94,M,10.00,M,OVC,M,M,M,10000.00,M,M,M,M,M,M,M,M,M,M,55.40,KBAM 160115Z AUTO 34005KT 10SM OVC100 13/M05 A2994 RMK AO1,M
HTH,2023-11-16 01:15,-118.6315,38.5448,1282.89,57.20,17.60,20.99,170.00,9.00,0.00,29.92,M,10.00,M,BKN,OVC,M,M,10000.00,12000.00,M,M,M,M,M,M,M,M,M,57.20,KHTH 160115Z AUTO 17009KT 10SM BKN100 OVC120 14/M08 A2992 RMK A01,M
TMT,2023-11-16 01:15,-117.1971,39.4643,1749.34,42.80,16.00,33.47,0.00,0.00,0.00,29.98,M,10.00,M,SCT,M,M,M,8000.00,M,M,M,M,M,M,M,M,M,M,42.80,KTMT 160115Z AUTO 00000KT 10SM SCT080 06/M09 A2998 RMK AO2 T00601088,M
INS,2023-11-16 01:22,-115.6733,36.5872,955.00,62.60,26.60,25.32,120.00,3.00,0.00,29.95,1012.50,8.00,M,FEW,BKN,BKN,OVC,6000.00,9000.00,11000.00,13000.00,M,M,M,M,M,M,M,62.60,KINS 160122Z AUTO 12003KT 8SM FEW060 BKN090 BKN110 OVC130 17/M03 A2995 RMK AO2 DZE02DZB09E22 PRESFR SLP125 $,M
INS,2023-11-16 01:31,-115.6733,36.5872,955.00,60.80,24.80,25.04,70.00,6.00,0.00,29.95,1012.50,8.00,M,FEW,BKN,OVC,M,6000.00,9000.00,11000.00,M,-DZ,M,M,M,M,M,M,60.80,KINS 160131Z AUTO 07006KT 8SM -DZ FEW060 BKN090 OVC110 16/M04 A2995 RMK AO2 DZE02DZB09E22DZB31 SLP125 $,M
BVU,2023-11-16 01:35,-114.8611,35.9475,671.00,62.60,46.40,55.37,70.00,3.00,0.00,29.97,M,10.00,M,FEW,OVC,M,M,5500.00,7000.00,M,M,M,M,M,M,M,M,M,62.60,KBVU 160135Z AUTO 07003KT 10SM FEW055 OVC070 17/08 A2997 RMK AO2,M
CXP,2023-11-16 01:35,-119.7326,39.1923,1431.00,50.00,33.80,53.54,230.00,8.00,0.00,30.01,M,7.00,19.00,SCT,BKN,OVC,M,3500.00,4400.00,6000.00,M,-RA,M,M,M,M,M,M,50.00,KCXP 160135Z AUTO 23008G19KT 210V270 7SM -RA SCT035 BKN044 OVC060 10/01 A3001 RMK AO2,M
RTS,2023-11-16 01:35,-119.8764,39.6682,1539.00,48.20,17.60,29.23,160.00,5.00,0.00,29.95,M,10.00,M,SCT,BKN,M,M,7500.00,10000.00,M,M,M,M,M,M,M,M,M,45.63,KRTS 160135Z AUTO 16005KT 10SM SCT075 BKN100 09/M08 A2995 RMK AO2,M
05U,2023-11-16 01:35,-116.0051,39.6042,1811.23,50.00,17.60,27.33,330.00,11.00,0.00,30.04,M,10.00,M,M,M,M,M,M,M,M,M,M,M,M,M,M,M,M,50.00,K05U 160135Z AUTO 33011KT 10SM 10/M08 A3004 RMK A01,M
MEV,2023-11-16 01:35,-119.7500,38.9963,1441.42,46.40,33.80,61.28,230.00,8.00,0.00,30.00,M,8.00,16.00,SCT,BKN,OVC,M,1100.00,2900.00,3700.00,M,-RA,M,M,M,M,M,M,41.85,KMEV 160135Z AUTO 23008G16KT 8SM -RA SCT011 BKN029 OVC037 08/01 A3000 RMK AO2,M
BAM,2023-11-16 01:35,-116.8743,40.5990,1382.36,53.60,23.00,30.11,330.00,3.00,0.00,29.94,M,10.00,M,OVC,M,M,M,9000.00,M,M,M,M,M,M,M,M,M,M,53.60,KBAM 160135Z AUTO 33003KT 10SM OVC090 12/M05 A2994 RMK AO1,M
HTH,2023-11-16 01:35,-118.6315,38.5448,1282.89,57.20,17.60,20.99,160.00,8.00,0.00,29.92,M,10.00,M,OVC,M,M,M,10000.00,M,M,M,M,M,M,M,M,M,M,57.20,KHTH 160135Z AUTO 16008KT 10SM OVC100 14/M08 A2992 RMK A01,M
TMT,2023-11-16 01:35,-117.1971,39.4643,1749.34,42.30,16.00,34.12,200.00,3.00,0.00,29.99,M,10.00,M,SCT,M,M,M,8000.00,M,M,M,M,M,M,M,M,M,M,40.46,KTMT 160135Z AUTO 20003KT 10SM SCT080 06/M09 A2999 RMK AO2 T00571088,M
LSV,2023-11-16 01:36,-115.0343,36.2362,570.00,64.40,37.40,36.74,360.00,5.00,0.00,29.94,1013.20,10.00,M,CLR,M,M,M,M,M,M,M,-RA,M,M,M,M,M,M,64.40,KLSV 160136Z AUTO 36005KT 10SM -RA CLR 18/03 A2994 RMK AO2 RAB36 SLP132,M
INS,2023-11-16 01:40,-115.6733,36.5872,955.00,60.80,26.60,26.98,100.00,7.00,0.00,29.95,1012.50,7.00,M,OVC,M,M,M,10000.00,M,M,M,M,M,M,M,M,M,M,60.80,KINS 160140Z AUTO 10007KT 7SM OVC100 16/M03 A2995 RMK AO2 DZE02DZB09E22DZB31E40 SLP125 $,M
LSV,2023-11-16 01:46,-115.0343,36.2362,570.00,64.40,41.00,42.28,340.00,5.00,0.00,29.93,1012.90,10.00,M,CLR,M,M,M,M,M,M,M,M,M,M,M,M,M,M,64.40,KLSV 160146Z AUTO 34005KT 10SM CLR 18/05 A2993 RMK AO2 RAB36E37DZB37E46 SLP129,M
P68,2023-11-16 01:53,-116.0056,39.6014,1993.00,51.00,20.00,29.18,160.00,13.00,0.00,30.01,1014.50,M,M,M,M,M,M,M,M,M,M,M,M,M,M,M,M,M,51.00,KP68 160153Z AUTO 16013KT 11/M07 A3001 RMK AO1 SLP145 T01061067,M
DRA,2023-11-16 01:53,-116.0278,36.6206,1009.00,60.00,35.00,39.03,270.00,6.00,T,29.97,1013.10,10.00,M,OVC,M,M,M,8000.00,M,M,M,M,M,M,M,M,M,M,60.00,KDRA 160153Z AUTO 27006KT 10SM OVC080 16/02 A2997 RMK AO2 RAB27E38 SLP131 P0000 T01560017,M
ELY,2023-11-16 01:53,-114.8453,39.2950,1909.00,47.00,28.00,47.36,0.00,0.00,0.00,30.06,1016.40,10.00,M,OVC,M,M,M,8000.00,M,M,M,M,M,M,M,M,M,M,47.00,KELY 160153Z AUTO 00000KT 10SM OVC080 08/M02 A3006 RMK AO2 SLP164 T00831022,M
VGT,2023-11-16 01:53,-115.1933,36.2111,667.00,66.00,43.00,43.20,70.00,4.00,T,29.96,1015.50,10.00,M,FEW,BKN,M,M,4900.00,11000.00,M,M,M,M,M,M,M,M,M,66.00,KVGT 160153Z 07004KT 10SM FEW049 BKN110 19/06 A2996 RMK AO2 RAE0057B42E52 SLP155 P0000 T01890061,M
LOL,2023-11-16 01:53,-118.5701,40.0684,1192.43,50.00,24.00,35.86,70.00,6.00,0.00,29.90,1013.30,10.00,M,FEW,M,M,M,12000.00,M,M,M,M,M,M,M,M,M,M,50.00,KLOL 160153Z AUTO 07006KT 10SM FEW120 10/M04 A2990 RMK AO2 SLP133 T01001044,M
BVU,2023-11-16 01:55,-114.8611,35.9475,671.00,62.60,44.60,51.72,70.00,5.00,0.00,29.97,M,10.00,M,FEW,BKN,OVC,M,4800.00,7000.00,10000.00,M,M,M,M,M,M,M,M,62.60,KBVU 160155Z AUTO 07005KT 10SM FEW048 BKN070 OVC100 17/07 A2997 RMK AO2,M
CXP,2023-11-16 01:55,-119.7326,39.1923,1431.00,48.20,33.80,57.26,160.00,5.00,0.00,30.00,M,10.00,11.00,SCT,BKN,OVC,M,3800.00,4400.00,5000.00,M,M,M,M,M,M,M,M,45.63,KCXP 160155Z AUTO 16005G11KT 10SM SCT038 BKN044 OVC050 09/01 A3000 RMK AO2,M
RNO,2023-11-16 01:55,-119.7711,39.4839,1341.00,55.00,30.00,38.21,190.00,10.00,T,29.97,1013.70,10.00,22.00,BKN,BKN,M,M,7000.00,12000.00,M,M,-RA,M,M,M,M,M,M,55.00,KRNO 160155Z COR 19010G22KT 10SM -RA BKN070 BKN120 13/M01 A2997 RMK AO2 RAB51 PRESRR SLP137 P0000 T01281011,M
RTS,2023-11-16 01:55,-119.8764,39.6682,1539.00,50.00,17.60,27.33,0.00,0.00,0.00,29.97,M,10.00,M,FEW,SCT,BKN,M,3000.00,4200.00,6000.00,M,M,M,M,M,M,M,M,50.00,KRTS 160155Z AUTO 00000KT 10SM FEW030 SCT042 BKN060 10/M08 A2997 RMK AO2,M
05U,2023-11-16 01:55,-116.0051,39.6042,1811.23,51.80,19.40,27.62,320.00,11.00,0.00,30.03,M,10.00,M,M,M,M,M,M,M,M,M,M,M,M,M,M,M,M,51.80,K05U 160155Z AUTO 32011KT 10SM 11/M07 A3003 RMK A01,M
MEV,2023-11-16 01:55,-119.7500,38.9963,1441.42,42.80,37.40,81.07,230.00,11.00,0.00,29.99,M,10.00,M,FEW,SCT,BKN,M,1400.00,3200.00,4200.00,M,-RA,M,M,M,M,M,M,36.11,KMEV 160155Z AUTO 23011KT 10SM -RA FEW014 SCT032 BKN042 06/03 A2999 RMK AO2,M
BAM,2023-11-16 01:55,-116.8743,40.5990,1382.36,51.80,23.00,32.17,0.00,0.00,0.00,29.94,M,10.00,M,BKN,M,M,M,9000.00,M,M,M,M,M,M,M,M,M,M,51.80,KBAM 160155Z AUTO 00000KT 10SM BKN090 11/M05 A2994 RMK AO1,M
HTH,2023-11-16 01:55,-118.6315,38.5448,1282.89,59.00,17.60,19.68,160.00,11.00,0.00,29.93,M,10.00,M,BKN,OVC,M,M,7500.00,10000.00,M,M,M,M,M,M,M,M,M,59.00,KHTH 160155Z AUTO 16011KT 10SM BKN075 OVC100 15/M08 A2993 RMK A01,M
TMT,2023-11-16 01:55,-117.1971,39.4643,1749.34,41.50,17.80,38.04,300.00,5.00,0.00,29.99,M,10.00,M,CLR,M,M,M,M,M,M,M,M,M,M,M,M,M,M,37.68,KTMT 160155Z AUTO 30005KT 10SM CLR 05/M08 A2999 RMK AO2 T00531079,M
INS,2023-11-16 01:55,-115.6733,36.5872,955.00,61.00,26.00,26.14,130.00,9.00,T,29.96,1013.10,10.00,M,BKN,OVC,M,M,8500.00,10000.00,M,M,M,M,M,M,M,M,M,61.00,KINS 160155Z AUTO 13009KT 10SM BKN085 OVC100 16/M03 A2996 RMK AO2 DZE02DZB09E22DZB31E40 SLP131 P0000 T01621033 $,M
LSV,2023-11-16 01:55,-115.0343,36.2362,570.00,64.60,39.00,38.85,50.00,5.00,T,29.93,1012.90,10.00,M,CLR,M,M,M,M,M,M,M,M,M,M,M,M,M,M,64.60,KLSV 160155Z AUTO 05005KT 10SM CLR 18/04 A2993 RMK AO2 RAB36E37DZB37E46 SLP129 P0000 T01810039,M
EKO,2023-11-16 01:56,-115.7860,40.8242,1367.00,55.00,24.00,29.83,220.00,4.00,0.00,29.95,1013.80,10.00,M,OVC,M,M,M,8000.00,M,M,M,M,M,M,M,M,M,M,55.00,KEKO 160156Z AUTO 22004KT 10SM OVC080 13/M04 A2995 RMK AO2 SLP138 T01281044,M
HND,2023-11-16 01:56,-115.1344,35.9729,742.79,63.00,42.00,46.16,50.00,3.00,T,29.98,1016.30,10.00,M,BKN,M,M,M,10000.00,M,M,M,M,M,M,M,M,M,M,63.00,KHND 160156Z 05003KT 10SM BKN100 17/06 A2998 RMK AO2 RAE22 SLP163 P0000 T01720056,M
TPH,2023-11-16 01:56,-117.0904,38.0505,1654.00,43.00,38.00,82.37,160.00,5.00,0.04,30.04,1017.30,10.00,M,FEW,OVC,M,M,4500.00,5000.00,M,M,-RA,M,M,M,30.00,190.00,2023-11-16 01:21,39.46,KTPH 160156Z AUTO 16005KT 10SM -RA FEW045 OVC050 06/03 A3004 RMK AO2 PK WND 19030/0121 SLP173 P0004 T00610033,M
LAS,2023-11-16 01:56,-115.1634,36.0719,663.00,67.00,39.00,35.74,0.00,0.00,0.00,29.96,1013.70,10.00,M,FEW,SCT,BKN,OVC,5000.00,10000.00,15000.00,18000.00,M,M,M,M,M,M,M,67.00,KLAS 160156Z 00000KT 10SM FEW050 SCT100 BKN150 OVC180 19/04 A2996 RMK AO2 SLP137 VCSH T01940039,M
NFL,2023-11-16 01:56,-118.7010,39.4166,1199.00,52.00,25.00,34.72,310.00,6.00,0.00,29.91,1010.10,10.00,M,SCT,BKN,BKN,M,10000.00,15000.00,25000.00,M,M,M,M,M,M,M,M,52.00,KNFL 160156Z 31006KT 10SM SCT100 BKN150 BKN250 11/M04 A2991 RMK SLP101 SH DSNT S-SW T01111039,M
HTH,2023-11-16 02:10,-118.6315,38.5448,1282.89,57.20,19.40,22.68,170.00,10.00,0.00,29.93,M,10.00,17.00,BKN,OVC,M,M,7500.00,8500.00,M,M,M,M,M,M,M,M,M,57.20,KHTH 160210Z AUTO 17010G17KT 10SM BKN075 OVC085 14/M07 A2993 RMK A01,M
BVU,2023-11-16 02:15,-114.8611,35.9475,671.00,62.60,46.40,55.37,50.00,6.00,0.00,29.97,M,10.00,M,FEW,SCT,BKN,M,4300.00,5000.00,6000.00,M,-DZ,M,M,M,M,M,M,62.60,KBVU 160215Z AUTO 05006KT 10SM -DZ FEW043 SCT050 BKN060 17/08 A2997 RMK AO2,M
CXP,2023-11-16 02:15,-119.7326,39.1923,1431.00,48.20,33.80,57.26,270.00,5.00,0.00,29.99,M,10.00,M,SCT,BKN,OVC,M,3500.00,4900.00,8500.00,M,-RA,M,M,M,M,M,M,45.63,KCXP 160215Z AUTO 27005KT 10SM -RA SCT035 BKN049 OVC085 09/01 A2999 RMK AO2,M
RTS,2023-11-16 02:15,-119.8764,39.6682,1539.00,50.00,26.60,39.95,140.00,21.00,0.00,29.98,M,10.00,29.00,FEW,SCT,BKN,M,1100.00,2900.00,4100.00,M,M,M,M,M,M,M,M,50.00,KRTS 160215Z AUTO 14021G29KT 10SM FEW011 SCT029 BKN041 10/M03 A2998 RMK AO2,M
05U,2023-11-16 02:15,-116.0051,39.6042,1811.23,50.00,19.40,29.52,330.00,10.00,0.00,30.04,M,10.00,M,M,M,M,M,M,M,M,M,M,M,M,M,M,M,M,50.00,K05U 160215Z AUTO 33010KT 10SM 10/M07 A3004 RMK A01,M
MEV,2023-11-16 02:15,-119.7500,38.9963,1441.42,42.80,35.60,75.50,230.00,8.00,0.00,29.98,M,10.00,M,FEW,FEW,OVC,M,4300.00,5500.00,7000.00,M,M,M,M,M,M,M,M,37.42,KMEV 160215Z AUTO 23008KT 10SM FEW043 FEW055 OVC070 06/02 A2998 RMK AO2,M
BAM,2023-11-16 02:15,-116.8743,40.5990,1382.36,48.20,21.20,34.09,160.00,3.00,0.00,29.93,M,10.00,M,OVC,M,M,M,9000.00,M,M,M,M,M,M,M,M,M,M,47.21,KBAM 160215Z AUTO 16003KT 10SM OVC090 09/M06 A2993 RMK AO1,M
TMT,2023-11-16 02:15,-117.1971,39.4643,1749.34,41.40,16.50,36.10,0.00,0.00,0.00,29.98,M,10.00,M,CLR,M,M,M,M,M,M,M,M,M,M,M,M,M,M,41.40,KTMT 160215Z AUTO 00000KT 10SM CLR 05/M09 A2998 RMK AO2 T00521086,M
BVU,2023-11-16 02:35,-114.8611,35.9475,671.00,66.20,41.00,39.72,90.00,4.00,0.00,29.97,M,10.00,M,SCT,BKN,OVC,M,4500.00,5500.00,7000.00,M,M,M,M,M,M,M,M,66.20,KBVU 160235Z AUTO 09004KT 10SM SCT045 BKN055 OVC070 19/05 A2997 RMK AO2,M
CXP,2023-11-16 02:35,-119.7326,39.1923,1431.00,44.60,35.60,70.48,320.00,4.00,0.00,29.99,M,10.00,M,BKN,OVC,M,M,7500.00,8500.00,M,M,M,M,M,M,M,M,M,42.13,KCXP 160235Z AUTO 32004KT 10SM BKN075 OVC085 07/02 A2999 RMK AO2,M
RTS,2023-11-16 02:35,-119.8764,39.6682,1539.00,44.60,33.80,65.61,160.00,13.00,0.00,29.98,M,6.00,22.00,BKN,BKN,OVC,M,2400.00,3400.00,4100.00,M,-RA,M,M,M,M,M,M,37.71,KRTS 160235Z AUTO 16013G22KT 6SM -RA BKN024 BKN034 OVC041 07/01 A2998 RMK AO2,M
05U,2023-11-16 02:35,-116.0051,39.6042,1811.23,50.00,19.40,29.52,320.00,12.00,0.00,30.04,M,10.00,M,M,M,M,M,M,M,M,M,M,M,M,M,M,M,M,50.00,K05U 160235Z AUTO 32012KT 10SM 10/M07 A3004 RMK A01,M
MEV,2023-11-16 02:35,-119.7500,38.9963,1441.42,42.80,37.40,81.07,230.00,3.00,0.00,29.98,M,10.00,M,FEW,SCT,BKN,M,4300.00,5000.00,6000.00,M,M,M,M,M,M,M,M,41.03,KMEV 160235Z AUTO 23003KT 10SM FEW043 SCT050 BKN060 06/03 A2998 RMK AO2,M
BAM,2023-11-16 02:35,-116.8743,40.5990,1382.36,46.40,23.00,39.36,0.00,0.00,0.00,29.93,M,10.00,M,BKN,M,M,M,9000.00,M,M,M,M,M,M,M,M,M,M,46.40,KBAM 160235Z AUTO 00000KT 10SM BKN090 08/M05 A2993 RMK AO1,M
HTH,2023-11-16 02:35,-118.6315,38.5448,1282.89,57.20,21.20,24.49,160.00,8.00,0.00,29.92,M,10.00,M,FEW,BKN,BKN,M,7500.00,9000.00,11000.00,M,M,M,M,M,M,M,M,57.20,KHTH 160235Z AUTO 16008KT 10SM FEW075 BKN090 BKN110 14/M06 A2992 RMK A01,M
TMT,2023-11-16 02:35,-117.1971,39.4643,1749.34,37.00,15.00,40.16,0.00,0.00,0.00,29.98,M,10.00,M,CLR,M,M,M,M,M,M,M,M,M,M,M,M,M,M,37.00,KTMT 160235Z AUTO 00000KT 10SM CLR 03/M09 A2998 RMK AO2 T00281095,M
INS,2023-11-16 02:44,-115.6733,36.5872,955.00,60.80,26.60,26.98,150.00,3.00,0.00,29.97,1013.20,10.00,M,BKN,OVC,M,M,7500.00,9500.00,M,M,-DZ,M,M,M,M,M,M,60.80,KINS 160244Z AUTO 15003KT 10SM -DZ BKN075 OVC095 16/M03 A2997 RMK AO2 DZB44 SLP132 $,M
P68,2023-11-16 02:53,-116.0056,39.6014,1993.00,50.00,20.00,30.29,170.00,11.00,0.00,30.02,1014.90,M,M,M,M,M,M,M,M,M,M,M,M,M,M,M,M,M,50.00,KP68 160253Z AUTO 17011KT 10/M07 A3002 RMK AO1 SLP149 T01001067 53002,M
DRA,2023-11-16 02:53,-116.0278,36.6206,1009.00,59.00,33.00,37.34,20.00,6.00,0.00,29.97,1013.10,10.00,M,BKN,OVC,M,M,6500.00,8000.00,M,M,M,M,M,M,M,M,M,59.00,KDRA 160253Z AUTO 02006KT 10SM BKN065 OVC080 15/01 A2997 RMK AO2 SLP131 60000 T01500006 53000,M
ELY,2023-11-16 02:53,-114.8453,39.2950,1909.00,47.00,29.00,49.34,240.00,6.00,0.00,30.06,1015.70,10.00,M,BKN,OVC,M,M,7000.00,8500.00,M,M,M,M,M,M,M,M,M,43.60,KELY 160253Z AUTO 24006KT 10SM BKN070 OVC085 08/M02 A3006 RMK AO2 SLP157 T00831017 56002,M
VGT,2023-11-16 02:53,-115.1933,36.2111,667.00,66.00,41.00,39.99,0.00,0.00,T,29.98,1016.10,10.00,M,FEW,OVC,M,M,5500.00,10000.00,M,M,-RA,M,M,M,M,M,M,66.00,KVGT 160253Z 00000KT 10SM -RA FEW055 OVC100 19/05 A2998 RMK AO2 RAB44 SLP161 P0000 60000 T01890050 53007,M
LOL,2023-11-16 02:53,-118.5701,40.0684,1192.43,49.00,20.00,31.44,290.00,5.00,0.00,29.91,1014.00,10.00,M,FEW,BKN,OVC,M,7000.00,9000.00,11000.00,M,M,M,M,M,M,M,M,46.58,KLOL 160253Z AUTO 29005KT 10SM FEW070 BKN090 OVC110 09/M07 A2991 RMK AO2 SLP140 T00941067 53004,M
BVU,2023-11-16 02:55,-114.8611,35.9475,671.00,64.40,42.80,45.32,110.00,7.00,0.00,29.98,M,10.00,M,SCT,BKN,OVC,M,4700.00,5500.00,11000.00,M,M,M,M,M,M,M,M,64.40,KBVU 160255Z AUTO 11007KT 10SM SCT047 BKN055 OVC110 18/06 A2998 RMK AO2,M
CXP,2023-11-16 02:55,-119.7326,39.1923,1431.00,46.40,35.60,65.83,320.00,4.00,0.00,29.98,M,10.00,M,OVC,M,M,M,7000.00,M,M,M,M,M,M,M,M,M,M,44.24,KCXP 160255Z AUTO 32004KT 10SM OVC070 08/02 A2998 RMK AO2,M
RNO,2023-11-16 02:55,-119.7711,39.4839,1341.00,47.00,39.00,73.57,180.00,4.00,0.01,29.96,1014.10,10.00,M,BKN,OVC,M,M,4000.00,9000.00,M,M,M,M,M,M,31.00,160.00,2023-11-16 01:59,44.94,KRNO 160255Z 18004KT 10SM BKN040 OVC090 08/04 A2996 RMK AO2 PK WND 16031/0159 RAE37 SLP141 P0001 60001 T00830039 50017,M
RTS,2023-11-16 02:55,-119.8764,39.6682,1539.00,42.80,35.60,75.50,200.00,9.00,0.00,29.97,M,10.00,M,FEW,SCT,OVC,M,2400.00,3800.00,8500.00,M,M,M,M,M,M,M,M,36.94,KRTS 160255Z AUTO 20009KT 10SM FEW024 SCT038 OVC085 06/02 A2997 RMK AO2,M
05U,2023-11-16 02:55,-116.0051,39.6042,1811.23,50.00,19.40,29.52,330.00,9.00,0.00,30.04,M,10.00,M,M,M,M,M,M,M,M,M,M,M,M,M,M,M,M,50.00,K05U 160255Z AUTO 33009KT 10SM 10/M07 A3004 RMK A01,M
MEV,2023-11-16 02:55,-119.7500,38.9963,1441.42,42.80,37.40,81.07,0.00,0.00,0.00,29.97,M,10.00,M,FEW,SCT,OVC,M,4200.00,4800.00,6000.00,M,M,M,M,M,M,M,M,42.80,KMEV 160255Z AUTO 00000KT 10SM FEW042 SCT048 OVC060 06/03 A2997 RMK AO2,M
BAM,2023-11-16 02:55,-116.8743,40.5990,1382.36,46.40,23.00,39.36,0.00,0.00,0.00,29.93,M,10.00,M,SCT,M,M,M,9000.00,M,M,M,M,M,M,M,M,M,M,46.40,KBAM 160255Z AUTO 00000KT 10SM SCT090 08/M05 A2993 RMK AO1,M
HTH,2023-11-16 02:55,-118.6315,38.5448,1282.89,57.20,19.40,22.68,170.00,9.00,0.00,29.94,M,10.00,M,BKN,BKN,OVC,M,7500.00,9000.00,11000.00,M,M,M,M,M,M,M,M,57.20,KHTH 160255Z AUTO 17009KT 10SM BKN075 BKN090 OVC110 14/M07 A2994 RMK A01,M
TMT,2023-11-16 02:55,-117.1971,39.4643,1749.34,37.00,16.50,42.87,0.00,0.00,0.00,29.99,M,10.00,M,CLR,M,M,M,M,M,M,M,M,M,M,M,M,M,M,37.00,KTMT 160255Z AUTO 00000KT 10SM CLR 03/M09 A2999 RMK AO2 T00271086,M
INS,2023-11-16 02:55,-115.6733,36.5872,955.00,61.50,26.20,25.89,80.00,7.00,T,29.97,1013.20,10.00,M,FEW,SCT,BKN,OVC,300.00,7500.00,9000.00,12000.00,RA,M,M,M,M,M,M,61.50,KINS 160255Z AUTO 08007KT 10SM RA FEW003 SCT075 BKN090 OVC120 16/M03 A2997 RMK AO2 DZB44E51RAB51 SLP132 P0000 60000 T01641032 53002 $,M
LSV,2023-11-16 02:55,-115.0343,36.2362,570.00,63.50,39.40,41.01,60.00,6.00,0.00,29.94,1013.20,10.00,M,CLR,M,M,M,M,M,M,M,M,M,M,M,M,M,M,63.50,KLSV 160255Z AUTO 06006KT 10SM CLR 18/04 A2994 RMK AO2 SLP132 60000 T01750041 50007,M
EKO,2023-11-16 02:56,-115.7860,40.8242,1367.00,53.00,22.00,29.51,290.00,4.00,0.00,29.95,1014.20,10.00,M,OVC,M,M,M,8000.00,M,M,M,M,M,M,M,M,M,M,53.00,KEKO 160256Z AUTO 29004KT 10SM OVC080 12/M06 A2995 RMK AO2 SLP142 T01171056 55002,M
HND,2023-11-16 02:56,-115.1344,35.9729,742.79,64.00,39.00,39.67,270.00,5.00,0.00,30.00,1017.00,10.00,M,OVC,M,M,M,10000.00,M,M,M,M,M,M,M,M,M,M,64.00,KHND 160256Z 27005KT 10SM OVC100 18/04 A3000 RMK AO2 SLP170 60000 T01780039 53007,M
TPH,2023-11-16 02:56,-117.0904,38.0505,1654.00,43.00,40.00,89.06,30.00,4.00,0.02,30.05,1017.50,10.00,M,BKN,BKN,OVC,M,3800.00,4800.00,5500.00,M,-RA,M,M,M,M,M,M,40.27,KTPH 160256Z AUTO 03004KT 10SM -RA BKN038 BKN048 OVC055 06/04 A3005 RMK AO2 SLP175 P0002 60006 T00610044 51010,M
LAS,2023-11-16 02:56,-115.1634,36.0719,663.00,66.00,40.00,38.47,0.00,0.00,0.00,29.99,1014.30,10.00,M,FEW,SCT,BKN,OVC,5000.00,10000.00,15000.00,18000.00,M,M,M,M,M,M,M,66.00,KLAS 160256Z 00000KT 10SM FEW050 SCT100 BKN150 OVC180 19/04 A2999 RMK AO2 SLP143 VCSH T01890044 53008,M
NFL,2023-11-16 02:56,-118.7010,39.4166,1199.00,50.00,24.00,35.86,20.00,5.00,0.00,29.91,1010.10,10.00,M,SCT,BKN,BKN,M,10000.00,15000.00,25000.00,M,M,M,M,M,M,M,M,50.00,KNFL 160256Z 02005KT 10SM SCT100 BKN150 BKN250 10/M04 A2991 RMK SLP101 SH VC W T01001044 50006,M
INS,2023-11-16 03:10,-115.6733,36.5872,955.00,59.00,26.60,28.77,150.00,7.00,0.00,29.96,1013.10,10.00,M,FEW,BKN,OVC,M,7500.00,9000.00,11000.00,M,M,M,M,M,M,M,M,59.00,KINS 160310Z AUTO 15007KT 10SM FEW075 BKN090 OVC110 15/M03 A2996 RMK AO2 RAE04DZB04E10 SLP131 $,M
BVU,2023-11-16 03:15,-114.8611,35.9475,671.00,66.20,41.00,39.72,170.00,7.00,0.00,29.98,M,10.00,M,SCT,BKN,OVC,M,5000.00,6500.00,7500.00,M,M,M,M,M,M,M,M,66.20,KBVU 160315Z AUTO 17007KT 10SM SCT050 BKN065 OVC075 19/05 A2998 RMK AO2,M
CXP,2023-11-16 03:15,-119.7326,39.1923,1431.00,44.60,35.60,70.48,0.00,0.00,0.00,29.98,M,10.00,M,OVC,M,M,M,7000.00,M,M,M,M,M,M,M,M,M,M,44.60,KCXP 160315Z AUTO 00000KT 10SM OVC070 07/02 A2998 RMK AO2,M
RTS,2023-11-16 03:15,-119.8764,39.6682,1539.00,42.80,35.60,75.50,200.00,3.00,0.00,29.96,M,10.00,M,BKN,OVC,M,M,8500.00,11000.00,M,M,M,M,M,M,M,M,M,41.03,KRTS 160315Z AUTO 20003KT 10SM BKN085 OVC110 06/02 A2996 RMK AO2,M
05U,2023-11-16 03:15,-116.0051,39.6042,1811.23,51.80,19.40,27.62,350.00,10.00,0.00,30.04,M,10.00,M,M,M,M,M,M,M,M,M,M,M,M,M,M,M,M,51.80,K05U 160315Z AUTO 35010KT 10SM 11/M07 A3004 RMK A01,M
MEV,2023-11-16 03:15,-119.7500,38.9963,1441.42,41.00,37.40,86.89,130.00,5.00,0.00,29.97,M,10.00,M,FEW,SCT,BKN,M,3400.00,4200.00,5000.00,M,-RA,M,M,M,M,M,M,37.08,KMEV 160315Z AUTO 13005KT 10SM -RA FEW034 SCT042 BKN050 05/03 A2997 RMK AO2,M
BAM,2023-11-16 03:15,-116.8743,40.5990,1382.36,44.60,23.00,42.14,260.00,4.00,0.00,29.93,M,10.00,M,CLR,M,M,M,M,M,M,M,M,M,M,M,M,M,M,42.13,KBAM 160315Z AUTO 26004KT 10SM CLR 07/M05 A2993 RMK AO1,M
HTH,2023-11-16 03:15,-118.6315,38.5448,1282.89,55.40,32.00,40.84,180.00,11.00,0.00,29.94,M,10.00,23.00,FEW,BKN,OVC,M,3300.00,6500.00,7500.00,M,M,M,M,M,M,M,M,55.40,KHTH 160315Z AUTO 18011G23KT 10SM FEW033 BKN065 OVC075 13/00 A2994 RMK A01,M
TMT,2023-11-16 03:15,-117.1971,39.4643,1749.34,41.40,17.00,36.89,300.00,4.00,0.00,29.98,M,10.00,M,SCT,M,M,M,11000.00,M,M,M,M,M,M,M,M,M,M,38.40,KTMT 160315Z AUTO 30004KT 10SM SCT110 05/M08 A2998 RMK AO2 T00521084,M
INS,2023-11-16 03:20,-115.6733,36.5872,955.00,59.00,26.60,28.77,170.00,4.00,0.00,29.97,1013.50,10.00,M,FEW,OVC,M,M,3000.00,9000.00,M,M,-DZ,M,M,M,M,M,M,59.00,KINS 160320Z AUTO 17004KT 10SM -DZ FEW030 OVC090 15/M03 A2997 RMK AO2 RAE04DZB04E10DZB20 SLP135 $,M
INS,2023-11-16 03:31,-115.6733,36.5872,955.00,60.80,26.60,26.98,120.00,5.00,0.00,29.96,1012.90,10.00,M,BKN,BKN,M,M,7500.00,10000.00,M,M,M,M,M,M,M,M,M,60.80,KINS 160331Z AUTO 12005KT 10SM BKN075 BKN100 16/M03 A2996 RMK AO2 RAE04DZB04E10DZB20E31 SLP129 $,M
BVU,2023-11-16 03:35,-114.8611,35.9475,671.00,64.40,42.80,45.32,130.00,5.00,0.00,29.98,M,10.00,M,FEW,SCT,OVC,M,4800.00,6000.00,7000.00,M,M,M,M,M,M,M,M,64.40,KBVU 160335Z AUTO 13005KT 10SM FEW048 SCT060 OVC070 18/06 A2998 RMK AO2,M
CXP,2023-11-16 03:35,-119.7326,39.1923,1431.00,44.60,35.60,70.48,0.00,0.00,0.00,29.98,M,10.00,M,FEW,OVC,M,M,5500.00,6500.00,M,M,M,M,M,M,M,M,M,44.60,KCXP 160335Z AUTO 00000KT 10SM FEW055 OVC065 07/02 A2998 RMK AO2,M
RTS,2023-11-16 03:35,-119.8764,39.6682,1539.00,42.80,37.40,81.07,20.00,4.00,0.00,29.96,M,10.00,M,SCT,BKN,OVC,M,4300.00,6500.00,8000.00,M,M,M,M,M,M,M,M,40.03,KRTS 160335Z AUTO 02004KT 10SM SCT043 BKN065 OVC080 06/03 A2996 RMK AO2,M
05U,2023-11-16 03:35,-116.0051,39.6042,1811.23,51.80,21.20,29.82,350.00,7.00,0.00,30.05,M,10.00,M,M,M,M,M,M,M,M,M,M,M,M,M,M,M,M,51.80,K05U 160335Z AUTO 35007KT 10SM 11/M06 A3005 RMK A01,M
MEV,2023-11-16 03:35,-119.7500,38.9963,1441.42,41.00,39.20,93.24,120.00,4.00,0.00,29.97,M,9.00,M,FEW,BKN,OVC,M,3500.00,4300.00,5000.00,M,-RA,M,M,M,M,M,M,37.93,KMEV 160335Z AUTO 12004KT 9SM -RA FEW035 BKN043 OVC050 05/04 A2997 RMK AO2,M
BAM,2023-11-16 03:35,-116.8743,40.5990,1382.36,42.80,23.00,45.14,0.00,0.00,0.00,29.94,M,10.00,M,CLR,M,M,M,M,M,M,M,M,M,M,M,M,M,M,42.80,KBAM 160335Z AUTO 00000KT 10SM CLR 06/M05 A2994 RMK AO1,M
HTH,2023-11-16 03:35,-118.6315,38.5448,1282.89,50.00,39.20,66.27,130.00,17.00,0.00,29.96,M,8.00,M,FEW,BKN,OVC,M,3500.00,5500.00,6500.00,M,M,M,M,M,M,M,M,50.00,KHTH 160335Z AUTO 13017KT 8SM FEW035 BKN055 OVC065 10/04 A2996 RMK A01,M
TMT,2023-11-16 03:35,-117.1971,39.4643,1749.34,37.20,17.60,44.60,0.00,0.00,0.00,29.98,M,10.00,M,SCT,BKN,OVC,M,7500.00,10000.00,12000.00,M,M,M,M,M,M,M,M,37.20,KTMT 160335Z AUTO 00000KT 10SM SCT075 BKN100 OVC120 03/M08 A2998 RMK AO2 T00291080,M
LSV,2023-11-16 03:42,-115.0343,36.2362,570.00,64.40,39.20,39.43,60.00,7.00,0.00,29.95,1013.50,10.00,M,CLR,M,M,M,M,M,M,M,-RA,M,M,M,M,M,M,64.40,KLSV 160342Z AUTO 06007KT 10SM -RA CLR 18/04 A2995 RMK AO2 RAB42 SLP135,M
P68,2023-11-16 03:53,-116.0056,39.6014,1993.00,52.00,23.00,31.93,190.00,23.00,0.00,30.03,1013.20,M,30.00,M,M,M,M,M,M,M,M,M,M,M,M,30.00,180.00,2023-11-16 03:53,52.00,KP68 160353Z AUTO 19023G30KT 11/M05 A3003 RMK AO1 PK WND 18030/0353 SLP132 T01111050,M
DRA,2023-11-16 03:53,-116.0278,36.6206,1009.00,57.00,33.00,40.12,210.00,4.00,0.00,29.98,1013.10,10.00,M,SCT,BKN,OVC,M,6000.00,8000.00,12000.00,M,M,M,M,M,M,M,M,57.00,KDRA 160353Z AUTO 21004KT 10SM SCT060 BKN080 OVC120 14/01 A2998 RMK AO2 SLP131 T01390006,M
ELY,2023-11-16 03:53,-114.8453,39.2950,1909.00,49.00,28.00,43.93,210.00,6.00,0.00,30.05,1013.10,10.00,16.00,BKN,M,M,M,11000.00,M,M,M,M,M,M,M,M,M,M,46.00,KELY 160353Z AUTO 21006G16KT 10SM BKN110 09/M02 A3005 RMK AO2 SLP131 T00941022,M
VGT,2023-11-16 03:53,-115.1933,36.2111,667.00,63.00,50.00,62.49,310.00,7.00,T,29.98,1016.40,10.00,M,OVC,M,M,M,9000.00,M,M,M,-RA,M,M,M,M,M,M,63.00,KVGT 160353Z 31007KT 10SM -RA OVC090 17/10 A2998 RMK AO2 SLP164 P0000 T01720100,M
LSV,2023-11-16 03:53,-115.0343,36.2362,570.00,64.40,41.00,42.28,60.00,8.00,0.00,29.95,1013.50,10.00,M,CLR,M,M,M,M,M,M,M,M,M,M,M,M,M,M,64.40,KLSV 160353Z AUTO 06008KT 10SM CLR 18/05 A2995 RMK AO2 RAB42E53 SLP135,M
LOL,2023-11-16 03:53,-118.5701,40.0684,1192.43,48.00,18.00,29.96,50.00,4.00,0.00,29.89,1013.00,10.00,M,CLR,M,M,M,M,M,M,M,M,M,M,M,M,M,M,46.10,KLOL 160353Z AUTO 05004KT 10SM CLR 09/M08 A2989 RMK AO2 SLP130 T00891078,M
BVU,2023-11-16 03:55,-114.8611,35.9475,671.00,64.40,44.60,48.55,150.00,4.00,0.00,29.99,M,10.00,M,FEW,SCT,BKN,M,3700.00,5500.00,7000.00,M,M,M,M,M,M,M,M,64.40,KBVU 160355Z AUTO 15004KT 10SM FEW037 SCT055 BKN070 18/07 A2999 RMK AO2,M
CXP,2023-11-16 03:55,-119.7326,39.1923,1431.00,44.60,33.80,65.61,200.00,3.00,0.00,29.98,M,10.00,M,OVC,M,M,M,6500.00,M,M,M,M,M,M,M,M,M,M,43.09,KCXP 160355Z AUTO 20003KT 10SM OVC065 07/01 A2998 RMK AO2,M
RNO,2023-11-16 03:55,-119.7711,39.4839,1341.00,47.00,37.00,68.02,140.00,9.00,0.00,29.94,1013.30,10.00,M,SCT,BKN,M,M,6000.00,9000.00,M,M,M,M,M,M,M,M,M,42.17,KRNO 160355Z 14009KT 10SM SCT060 BKN090 08/03 A2994 RMK AO2 SLP133 T00830028,M
LSV,2023-11-16 03:55,-115.0343,36.2362,570.00,64.20,40.00,40.96,70.00,8.00,T,29.95,1013.50,10.00,M,CLR,M,M,M,M,M,M,M,M,M,M,M,M,M,M,64.20,KLSV 160355Z AUTO 07008KT 10SM CLR 18/05 A2995 RMK AO2 RAB42E53 SLP135 P0000 T01790045,M
RTS,2023-11-16 03:55,-119.8764,39.6682,1539.00,42.80,35.60,75.50,40.00,4.00,0.00,29.96,M,10.00,M,FEW,SCT,BKN,M,2400.00,4400.00,5500.00,M,M,M,M,M,M,M,M,40.03,KRTS 160355Z AUTO 04004KT 10SM FEW024 SCT044 BKN055 06/02 A2996 RMK AO2,M
05U,2023-11-16 03:55,-116.0051,39.6042,1811.23,51.80,24.80,34.69,360.00,17.00,0.00,30.06,M,10.00,24.00,M,M,M,M,M,M,M,M,M,M,M,M,M,M,M,51.80,K05U 160355Z AUTO 36017G24KT 10SM 11/M04 A3006 RMK A01,M
MEV,2023-11-16 03:55,-119.7500,38.9963,1441.42,41.00,39.20,93.24,130.00,5.00,0.00,29.98,M,10.00,M,BKN,BKN,OVC,M,3800.00,4300.00,4900.00,M,-RA,M,M,M,M,M,M,37.08,KMEV 160355Z AUTO 13005KT 10SM -RA BKN038 BKN043 OVC049 05/04 A2998 RMK AO2,M
BAM,2023-11-16 03:55,-116.8743,40.5990,1382.36,42.80,23.00,45.14,10.00,3.00,0.00,29.94,M,10.00,M,CLR,M,M,M,M,M,M,M,M,M,M,M,M,M,M,41.03,KBAM 160355Z AUTO 01003KT 10SM CLR 06/M05 A2994 RMK AO1,M
HTH,2023-11-16 03:55,-118.6315,38.5448,1282.89,50.00,39.20,66.27,140.00,13.00,0.00,29.96,M,10.00,M,SCT,BKN,OVC,M,5500.00,6000.00,7500.00,M,M,M,M,M,M,M,M,50.00,KHTH 160355Z AUTO 14013KT 10SM SCT055 BKN060 OVC075 10/04 A2996 RMK A01,M
TMT,2023-11-16 03:55,-117.1971,39.4643,1749.34,38.00,16.50,41.21,0.00,0.00,0.00,29.98,M,10.00,M,SCT,OVC,M,M,7500.00,8500.00,M,M,M,M,M,M,M,M,M,38.00,KTMT 160355Z AUTO 00000KT 10SM SCT075 OVC085 03/M09 A2998 RMK AO2 T00341086,M
INS,2023-11-16 03:55,-115.6733,36.5872,955.00,61.50,27.00,26.76,250.00,6.00,T,29.97,1013.00,10.00,M,OVC,M,M,M,7500.00,M,M,M,M,M,M,M,M,M,M,61.50,KINS 160355Z AUTO 25006KT 10SM OVC075 16/M03 A2997 RMK AO2 RAE04DZB04E10DZB20E31 SLP130 P0000 T01641027 $,M
EKO,2023-11-16 03:56,-115.7860,40.8242,1367.00,53.00,22.00,29.51,240.00,5.00,0.00,29.95,1013.70,10.00,M,OVC,M,M,M,9000.00,M,M,M,M,M,M,M,M,M,M,53.00,KEKO 160356Z AUTO 24005KT 10SM OVC090 12/M06 A2995 RMK AO2 SLP137 T01171056,M
NFL,2023-11-16 03:56,-118.7010,39.4166,1199.00,47.00,30.00,51.39,180.00,6.00,T,29.92,1010.60,10.00,M,BKN,OVC,M,M,7000.00,10000.00,M,M,M,M,M,M,M,M,M,43.60,KNFL 160356Z 18006KT 10SM BKN070 OVC100 08/M01 A2992 RMK AO2 RAB47E56 SLP106 WR// P0000 T00831011,M
HND,2023-11-16 03:56,-115.1344,35.9729,742.79,62.00,46.00,55.71,0.00,0.00,T,30.02,1017.20,10.00,M,OVC,M,M,M,9000.00,M,M,M,-RA,M,M,M,M,M,M,62.00,KHND 160356Z 00000KT 10SM -RA OVC090 17/08 A3002 RMK AO2 RAB42 SLP172 P0000 T01670078,M
TPH,2023-11-16 03:56,-117.0904,38.0505,1654.00,42.00,40.00,92.55,10.00,4.00,T,30.05,1016.90,10.00,M,BKN,OVC,M,M,4000.00,4900.00,M,M,-RA,M,M,M,M,M,M,39.10,KTPH 160356Z AUTO 01004KT 10SM -RA BKN040 OVC049 06/04 A3005 RMK AO2 RAE26B49 SLP169 P0000 T00560044,M
LAS,2023-11-16 03:56,-115.1634,36.0719,663.00,65.00,45.00,48.28,70.00,4.00,T,29.99,1014.30,10.00,M,FEW,BKN,BKN,OVC,6500.00,9500.00,15000.00,18000.00,M,M,M,M,M,M,M,65.00,KLAS 160356Z 07004KT 10SM FEW065 BKN095 BKN150 OVC180 18/07 A2999 RMK AO2 RAB20E35 SLP143 P0000 T01830072,M
BVU,2023-11-16 04:15,-114.8611,35.9475,671.00,62.60,48.20,59.26,160.00,4.00,0.00,30.01,M,10.00,M,FEW,SCT,BKN,M,3800.00,5000.00,6500.00,M,-RA,M,M,M,M,M,M,62.60,KBVU 160415Z AUTO 16004KT 10SM -RA FEW038 SCT050 BKN065 17/09 A3001 RMK AO2,M
CXP,2023-11-16 04:15,-119.7326,39.1923,1431.00,44.60,33.80,65.61,190.00,5.00,0.00,29.99,M,10.00,M,BKN,OVC,M,M,5500.00,6500.00,M,M,M,M,M,M,M,M,M,41.36,KCXP 160415Z AUTO 19005KT 10SM BKN055 OVC065 07/01 A2999 RMK AO2,M
RTS,2023-11-16 04:15,-119.8764,39.6682,1539.00,42.80,37.40,81.07,90.00,4.00,0.00,29.96,M,10.00,M,FEW,SCT,OVC,M,3200.00,4500.00,6000.00,M,M,M,M,M,M,M,M,40.03,KRTS 160415Z AUTO 09004KT 10SM FEW032 SCT045 OVC060 06/03 A2996 RMK AO2,M
05U,2023-11-16 04:15,-116.0051,39.6042,1811.23,50.00,32.00,49.81,340.00,17.00,0.00,30.08,M,9.00,M,M,M,M,M,M,M,M,M,M,M,M,M,M,M,M,50.00,K05U 160415Z AUTO 34017KT 9SM 10/00 A3008 RMK A01,M
MEV,2023-11-16 04:15,-119.7500,38.9963,1441.42,41.00,39.20,93.24,130.00,4.00,0.00,29.98,M,8.00,M,FEW,OVC,M,M,3300.00,4100.00,M,M,-RA,M,M,M,M,M,M,37.93,KMEV 160415Z AUTO 13004KT 8SM -RA FEW033 OVC041 05/04 A2998 RMK AO2,M
BAM,2023-11-16 04:15,-116.8743,40.5990,1382.36,39.20,21.20,48.10,0.00,0.00,0.00,29.94,M,10.00,M,CLR,M,M,M,M,M,M,M,M,M,M,M,M,M,M,39.20,KBAM 160415Z AUTO 00000KT 10SM CLR 04/M06 A2994 RMK AO1,M
HTH,2023-11-16 04:15,-118.6315,38.5448,1282.89,50.00,37.40,61.76,180.00,14.00,0.00,29.97,M,10.00,20.00,BKN,OVC,M,M,5500.00,7500.00,M,M,M,M,M,M,M,M,M,50.00,KHTH 160415Z AUTO 18014G20KT 10SM BKN055 OVC075 10/03 A2997 RMK A01,M
TMT,2023-11-16 04:15,-117.1971,39.4643,1749.34,38.30,18.00,43.46,0.00,0.00,0.00,29.99,M,10.00,M,BKN,OVC,M,M,6500.00,8500.00,M,M,M,M,M,M,M,M,M,38.30,KTMT 160415Z AUTO 00000KT 10SM BKN065 OVC085 04/M08 A2999 RMK AO2 T00351077,M
LSV,2023-11-16 04:21,-115.0343,36.2362,570.00,64.40,42.80,45.32,120.00,5.00,0.00,29.96,1013.60,10.00,M,CLR,M,M,M,M,M,M,M,-DZ,M,M,M,M,M,M,64.40,KLSV 160421Z AUTO 12005KT 10SM -DZ CLR 18/06 A2996 RMK AO2 DZB21 SLP136,M
LSV,2023-11-16 04:29,-115.0343,36.2362,570.00,64.40,44.60,48.55,120.00,7.00,0.00,29.96,1013.60,10.00,M,CLR,M,M,M,M,M,M,M,M,M,M,M,M,M,M,64.40,KLSV 160429Z AUTO 12007KT 10SM CLR 18/07 A2996 RMK AO2 DZB21E29 SLP136,M
05U,2023-11-16 04:30,-116.0051,39.6042,1811.23,44.60,37.40,75.68,30.00,6.00,0.00,30.08,M,6.00,11.00,M,M,M,M,M,M,M,M,HZ,M,M,M,M,M,M,40.71,K05U 160430Z AUTO 03006G11KT 6SM HZ 07/03 A3008 RMK A01,M
BVU,2023-11-16 04:35,-114.8611,35.9475,671.00,60.80,48.20,63.15,210.00,5.00,0.00,30.02,M,10.00,M,FEW,SCT,BKN,M,300.00,3700.00,6500.00,M,-RA,M,M,M,M,M,M,60.80,KBVU 160435Z AUTO 21005KT 10SM -RA FEW003 SCT037 BKN065 16/09 A3002 RMK AO2,M
CXP,2023-11-16 04:35,-119.7326,39.1923,1431.00,44.60,35.60,70.48,200.00,7.00,0.00,29.99,M,10.00,M,SCT,OVC,M,M,4500.00,5000.00,M,M,-RA,M,M,M,M,M,M,40.14,KCXP 160435Z AUTO 20007KT 10SM -RA SCT045 OVC050 07/02 A2999 RMK AO2,M
RTS,2023-11-16 04:35,-119.8764,39.6682,1539.00,42.80,37.40,81.07,110.00,5.00,0.00,29.96,M,10.00,M,FEW,OVC,M,M,4500.00,6000.00,M,M,M,M,M,M,M,M,M,39.22,KRTS 160435Z AUTO 11005KT 10SM FEW045 OVC060 06/03 A2996 RMK AO2,M
MEV,2023-11-16 04:35,-119.7500,38.9963,1441.42,41.00,39.20,93.24,0.00,0.00,0.00,29.99,M,10.00,M,FEW,SCT,BKN,M,3000.00,4000.00,4600.00,M,-RA,M,M,M,M,M,M,41.00,KMEV 160435Z AUTO 00000KT 10SM -RA FEW030 SCT040 BKN046 05/04 A2999 RMK AO2,M
BAM,2023-11-16 04:35,-116.8743,40.5990,1382.36,39.20,21.20,48.10,200.00,4.00,0.00,29.95,M,10.00,M,CLR,M,M,M,M,M,M,M,M,M,M,M,M,M,M,35.83,KBAM 160435Z AUTO 20004KT 10SM CLR 04/M06 A2995 RMK AO1,M
HTH,2023-11-16 04:35,-118.6315,38.5448,1282.89,48.20,39.20,70.88,140.00,9.00,0.00,29.97,M,9.00,15.00,SCT,SCT,OVC,M,4000.00,4800.00,5500.00,M,M,M,M,M,M,M,M,43.66,KHTH 160435Z AUTO 14009G15KT 9SM SCT040 SCT048 OVC055 09/04 A2997 RMK A01,M
TMT,2023-11-16 04:35,-117.1971,39.4643,1749.34,39.60,20.00,45.00,0.00,0.00,0.00,30.00,M,10.00,M,OVC,M,M,M,6000.00,M,M,M,-RA,M,M,M,M,M,M,39.60,KTMT 160435Z AUTO 00000KT 10SM -RA OVC060 04/M07 A3000 RMK AO2 T00421066,M
LSV,2023-11-16 04:39,-115.0343,36.2362,570.00,64.40,42.80,45.32,180.00,8.00,0.00,29.97,1013.90,10.00,M,CLR,M,M,M,M,M,M,M,-RA,M,M,M,M,M,M,64.40,KLSV 160439Z AUTO 18008KT 10SM -RA CLR 18/06 A2997 RMK AO2 DZB21E29RAB39 SLP139,M
P68,2023-11-16 04:53,-116.0056,39.6014,1993.00,42.00,39.00,89.01,0.00,0.00,0.02,30.05,1014.00,M,M,M,M,M,M,M,M,M,M,M,M,M,M,28.00,180.00,2023-11-16 03:54,42.00,KP68 160453Z AUTO 00000KT 06/04 A3005 RMK AO1 PK WND 18028/0354 SLP140 P0002 T00560039,M
DRA,2023-11-16 04:53,-116.0278,36.6206,1009.00,56.00,38.00,50.73,40.00,6.00,T,29.99,1013.20,10.00,M,OVC,M,M,M,4800.00,M,M,M,M,M,M,M,M,M,M,56.00,KDRA 160453Z AUTO 04006KT 10SM OVC048 13/03 A2999 RMK AO2 RAB07E18 SLP132 P0000 T01330033,M
ELY,2023-11-16 04:53,-114.8453,39.2950,1909.00,50.00,30.00,45.93,160.00,12.00,0.00,30.05,1012.30,10.00,21.00,SCT,OVC,M,M,8000.00,11000.00,M,M,M,M,M,M,M,M,M,50.00,KELY 160453Z AUTO 16012G21KT 10SM SCT080 OVC110 10/M01 A3005 RMK AO2 SLP123 T01001011,M
VGT,2023-11-16 04:53,-115.1933,36.2111,667.00,62.00,50.00,64.73,290.00,3.00,0.01,30.01,1017.00,10.00,M,BKN,OVC,M,M,5500.00,9500.00,M,M,-RA,M,M,M,M,M,M,62.00,KVGT 160453Z AUTO 29003KT 10SM -RA BKN055 OVC095 17/10 A3001 RMK AO2 SLP170 P0001 T01670100,M
LOL,2023-11-16 04:53,-118.5701,40.0684,1192.43,45.00,22.00,39.79,0.00,0.00,0.00,29.92,1013.40,10.00,M,FEW,OVC,M,M,8500.00,11000.00,M,M,M,M,M,M,M,M,M,45.00,KLOL 160453Z AUTO 00000KT 10SM FEW085 OVC110 07/M06 A2992 RMK AO2 SLP134 T00721056,M
BVU,2023-11-16 04:55,-114.8611,35.9475,671.00,59.00,48.20,67.33,170.00,3.00,0.00,30.02,M,5.00,M,SCT,BKN,OVC,M,2600.00,6000.00,7000.00,M,-RA,M,M,M,M,M,M,59.00,KBVU 160455Z AUTO 17003KT 5SM -RA SCT026 BKN060 OVC070 15/09 A3002 RMK AO2,M
CXP,2023-11-16 04:55,-119.7326,39.1923,1431.00,42.80,37.40,81.07,190.00,7.00,0.00,30.01,M,10.00,M,BKN,BKN,OVC,M,4700.00,5500.00,7500.00,M,M,M,M,M,M,M,M,37.94,KCXP 160455Z AUTO 19007KT 10SM BKN047 BKN055 OVC075 06/03 A3001 RMK AO2,M
RNO,2023-11-16 04:55,-119.7711,39.4839,1341.00,47.00,38.00,70.74,180.00,12.00,T,29.96,1013.10,9.00,M,BKN,OVC,M,M,6500.00,9000.00,M,M,RA,M,M,M,M,M,M,41.09,KRNO 160455Z 18012KT 9SM RA BKN065 OVC090 08/03 A2996 RMK AO2 RAB51 SLP131 P0000 T00830033,M
RTS,2023-11-16 04:55,-119.8764,39.6682,1539.00,42.80,35.60,75.50,120.00,5.00,0.00,29.96,M,10.00,M,BKN,OVC,M,M,5500.00,6500.00,M,M,M,M,M,M,M,M,M,39.22,KRTS 160455Z AUTO 12005KT 10SM BKN055 OVC065 06/02 A2996 RMK AO2,M
05U,2023-11-16 04:55,-116.0051,39.6042,1811.23,42.80,39.20,86.99,0.00,0.00,0.01,30.08,M,7.00,M,M,M,M,M,M,M,M,M,M,M,M,M,M,M,M,42.80,K05U 160455Z AUTO 00000KT 7SM 06/04 A3008 RMK A01 P0001,M
MEV,2023-11-16 04:55,-119.7500,38.9963,1441.42,41.00,39.20,93.24,0.00,0.00,0.02,29.98,M,4.00,M,FEW,SCT,BKN,M,900.00,3300.00,4400.00,M,-RA BR,M,M,M,M,M,M,41.00,KMEV 160455Z AUTO 00000KT 4SM -RA BR FEW009 SCT033 BKN044 05/04 A2998 RMK AO2 P0002,M
BAM,2023-11-16 04:55,-116.8743,40.5990,1382.36,39.20,21.20,48.10,250.00,4.00,0.00,29.95,M,10.00,M,CLR,M,M,M,M,M,M,M,M,M,M,M,M,M,M,35.83,KBAM 160455Z AUTO 25004KT 10SM CLR 04/M06 A2995 RMK AO1,M
HTH,2023-11-16 04:55,-118.6315,38.5448,1282.89,48.20,39.20,70.88,170.00,20.00,0.00,29.99,M,10.00,26.00,SCT,SCT,OVC,M,4400.00,5000.00,5500.00,M,M,M,M,M,M,M,M,40.66,KHTH 160455Z AUTO 17020G26KT 10SM SCT044 SCT050 OVC055 09/04 A2999 RMK A01,M
TMT,2023-11-16 04:55,-117.1971,39.4643,1749.34,39.20,27.30,62.06,130.00,4.00,0.00,30.00,M,10.00,M,OVC,M,M,M,5000.00,M,M,M,-RA,M,M,M,M,M,M,35.83,KTMT 160455Z AUTO 13004KT 10SM -RA OVC050 04/M03 A3000 RMK AO2 T00401026,M
INS,2023-11-16 04:55,-115.6733,36.5872,955.00,60.40,24.40,24.98,130.00,3.00,0.00,29.97,1012.80,10.00,M,FEW,BKN,BKN,BKN,6500.00,11000.00,14000.00,16000.00,M,M,M,M,M,M,M,60.40,KINS 160455Z AUTO 13003KT 10SM FEW065 BKN110 BKN140 BKN160 16/M04 A2997 RMK AO2 SLP128 T01581042 $,M
LSV,2023-11-16 04:55,-115.0343,36.2362,570.00,64.00,42.60,45.61,210.00,9.00,T,29.99,1014.60,10.00,M,BKN,OVC,M,M,11000.00,15000.00,M,M,-RA,M,M,M,M,M,M,64.00,KLSV 160455Z COR AUTO 21009KT 10SM -RA BKN110 OVC150 18/06 A2999 RMK AO2 DZB21E29RAB39E40DZB40E42RAB42 PRESRR SLP146 P0000 T01770059 COR 0457,M
EKO,2023-11-16 04:56,-115.7860,40.8242,1367.00,53.00,20.00,27.11,220.00,9.00,0.00,29.96,1013.30,10.00,M,FEW,M,M,M,9000.00,M,M,M,M,M,M,M,M,M,M,53.00,KEKO 160456Z AUTO 22009KT 10SM FEW090 12/M07 A2996 RMK AO2 SLP133 T01171067,M
NFL,2023-11-16 04:56,-118.7010,39.4166,1199.00,51.00,36.00,56.31,220.00,7.00,T,29.95,1011.50,7.00,M,BKN,OVC,M,M,5000.00,7000.00,M,M,RA,M,M,M,M,M,M,51.00,KNFL 160456Z 22007KT 7SM RA BKN050 OVC070 11/02 A2995 RMK AO2 RAB52 SLP115 P0000 T01060022,M
HND,2023-11-16 04:56,-115.1344,35.9729,742.79,56.00,51.00,83.26,160.00,5.00,0.07,30.05,1018.30,7.00,M,FEW,BKN,OVC,M,5000.00,7500.00,9000.00,M,-RA,M,M,M,M,M,M,56.00,KHND 160456Z 16005KT 7SM -RA FEW050 BKN075 OVC090 13/11 A3005 RMK AO2 SLP183 P0007 T01330106,M
TPH,2023-11-16 04:56,-117.0904,38.0505,1654.00,42.00,39.00,89.01,20.00,6.00,0.02,30.04,1015.40,10.00,M,BKN,BKN,OVC,M,4000.00,4900.00,8500.00,M,M,M,M,M,M,M,M,37.57,KTPH 160456Z AUTO 02006KT 10SM BKN040 BKN049 OVC085 06/04 A3004 RMK AO2 RAE15 SLP154 P0002 T00560039,M
LAS,2023-11-16 04:56,-115.1634,36.0719,663.00,61.00,52.00,72.22,240.00,3.00,0.01,30.03,1015.70,6.00,M,FEW,BKN,BKN,OVC,6000.00,7500.00,9000.00,16000.00,-RA,M,M,M,M,M,M,61.00,KLAS 160456Z 24003KT 6SM -RA FEW060 BKN075 BKN090 OVC160 16/11 A3003 RMK AO2 RAB05 SLP157 P0001 T01610111,M
BVU,2023-11-16 05:15,-114.8611,35.9475,671.00,57.20,50.00,76.82,M,5.00,0.00,30.04,M,9.00,M,SCT,SCT,OVC,M,2800.00,5500.00,7000.00,M,-RA,M,M,M,M,M,M,57.20,KBVU 160515Z AUTO VRB05KT 9SM -RA SCT028 SCT055 OVC070 14/10 A3004 RMK AO2,M
CXP,2023-11-16 05:15,-119.7326,39.1923,1431.00,42.80,39.20,86.99,200.00,6.00,0.00,30.00,M,9.00,M,FEW,BKN,OVC,M,3400.00,4700.00,5500.00,M,-RA,M,M,M,M,M,M,38.54,KCXP 160515Z AUTO 20006KT 9SM -RA FEW034 BKN047 OVC055 06/04 A3000 RMK AO2,M
RTS,2023-11-16 05:15,-119.8764,39.6682,1539.00,42.80,37.40,81.07,110.00,6.00,0.00,29.97,M,10.00,M,FEW,OVC,M,M,4900.00,5500.00,M,M,M,M,M,M,M,M,M,38.54,KRTS 160515Z AUTO 11006KT 10SM FEW049 OVC055 06/03 A2997 RMK AO2,M
05U,2023-11-16 05:15,-116.0051,39.6042,1811.23,42.80,39.20,86.99,70.00,4.00,0.00,30.07,M,8.00,M,M,M,M,M,M,M,M,M,M,M,M,M,M,M,M,40.03,K05U 160515Z AUTO 07004KT 8SM 06/04 A3007 RMK A01,M
MEV,2023-11-16 05:15,-119.7500,38.9963,1441.42,41.00,41.00,100.00,0.00,0.00,0.00,29.98,M,5.00,M,FEW,SCT,BKN,M,500.00,2600.00,4300.00,M,-RA BR,M,M,M,M,M,M,41.00,KMEV 160515Z AUTO 00000KT 5SM -RA BR FEW005 SCT026 BKN043 05/05 A2998 RMK AO2,M
BAM,2023-11-16 05:15,-116.8743,40.5990,1382.36,41.00,21.20,44.85,230.00,4.00,0.00,29.96,M,10.00,M,CLR,M,M,M,M,M,M,M,M,M,M,M,M,M,M,37.93,KBAM 160515Z AUTO 23004KT 10SM CLR 05/M06 A2996 RMK AO1,M
HTH,2023-11-16 05:15,-118.6315,38.5448,1282.89,46.40,41.00,81.34,140.00,11.00,0.00,29.97,M,5.00,23.00,FEW,SCT,BKN,M,3100.00,4400.00,5500.00,M,HZ,M,M,M,M,M,M,40.66,KHTH 160515Z AUTO 14011G23KT 5SM HZ FEW031 SCT044 BKN055 08/05 A2997 RMK A01,M
TMT,2023-11-16 05:15,-117.1971,39.4643,1749.34,40.00,31.30,70.82,320.00,6.00,0.00,30.01,M,10.00,M,OVC,M,M,M,5000.00,M,M,M,-RA,M,M,M,M,M,M,35.17,KTMT 160515Z AUTO 32006KT 10SM -RA OVC050 04/00 A3001 RMK AO2 T00441004,M
BVU,2023-11-16 05:35,-114.8611,35.9475,671.00,57.20,48.20,71.83,0.00,0.00,0.00,30.04,M,4.00,M,BKN,BKN,OVC,M,2500.00,3600.00,7000.00,M,-RA,M,M,M,M,M,M,57.20,KBVU 160535Z AUTO 00000KT 4SM -RA BKN025 BKN036 OVC070 14/09 A3004 RMK AO2,M
CXP,2023-11-16 05:35,-119.7326,39.1923,1431.00,42.80,39.20,86.99,200.00,5.00,0.00,29.99,M,9.00,M,FEW,BKN,OVC,M,3500.00,4800.00,5500.00,M,-RA,M,M,M,M,M,M,39.22,KCXP 160535Z AUTO 20005KT 9SM -RA FEW035 BKN048 OVC055 06/04 A2999 RMK AO2,M
RTS,2023-11-16 05:35,-119.8764,39.6682,1539.00,42.80,35.60,75.50,120.00,5.00,0.00,29.98,M,8.00,M,FEW,SCT,OVC,M,3000.00,4800.00,5500.00,M,-DZ,M,M,M,M,M,M,39.22,KRTS 160535Z AUTO 12005KT 8SM -DZ FEW030 SCT048 OVC055 06/02 A2998 RMK AO2,M
05U,2023-11-16 05:35,-116.0051,39.6042,1811.23,42.80,39.20,86.99,0.00,0.00,0.00,30.07,M,10.00,M,M,M,M,M,M,M,M,M,M,M,M,M,M,M,M,42.80,K05U 160535Z AUTO 00000KT 10SM 06/04 A3007 RMK A01,M
MEV,2023-11-16 05:35,-119.7500,38.9963,1441.42,41.00,39.20,93.24,0.00,0.00,0.00,29.98,M,10.00,M,FEW,SCT,OVC,M,2500.00,4200.00,6000.00,M,M,M,M,M,M,M,M,41.00,KMEV 160535Z AUTO 00000KT 10SM FEW025 SCT042 OVC060 05/04 A2998 RMK AO2,M
BAM,2023-11-16 05:35,-116.8743,40.5990,1382.36,41.00,21.20,44.85,250.00,3.00,0.00,29.95,M,10.00,M,CLR,M,M,M,M,M,M,M,M,M,M,M,M,M,M,38.98,KBAM 160535Z AUTO 25003KT 10SM CLR 05/M06 A2995 RMK AO1,M
HTH,2023-11-16 05:35,-118.6315,38.5448,1282.89,46.40,41.00,81.34,150.00,8.00,0.00,29.98,M,10.00,16.00,FEW,FEW,SCT,M,4800.00,9000.00,11000.00,M,M,M,M,M,M,M,M,41.85,KHTH 160535Z AUTO 15008G16KT 10SM FEW048 FEW090 SCT110 08/05 A2998 RMK A01,M
TMT,2023-11-16 05:35,-117.1971,39.4643,1749.34,40.50,32.00,71.45,0.00,0.00,0.00,30.01,M,10.00,M,OVC,M,M,M,4700.00,M,M,M,M,M,M,M,M,M,M,40.50,KTMT 160535Z AUTO 00000KT 10SM OVC047 05/00 A3001 RMK AO2 T00471001,M
INS,2023-11-16 05:36,-115.6733,36.5872,955.00,60.80,24.80,25.04,0.00,0.00,0.00,29.99,1013.10,10.00,M,FEW,OVC,M,M,4700.00,6500.00,M,M,-DZ,M,M,M,M,M,M,60.80,KINS 160536Z AUTO 00000KT 10SM -DZ FEW047 OVC065 16/M04 A2999 RMK AO2 DZB36 SLP131 $,M
P68,2023-11-16 05:53,-116.0056,39.6014,1993.00,43.00,39.00,85.66,0.00,0.00,0.00,30.04,1013.10,M,M,M,M,M,M,M,M,M,M,M,M,M,M,M,M,M,43.00,KP68 160553Z AUTO 00000KT 06/04 A3004 RMK AO1 SLP131 60002 T00610039 10122 20056 50006,M
DRA,2023-11-16 05:53,-116.0278,36.6206,1009.00,54.00,43.00,66.24,260.00,3.00,T,30.01,1013.80,10.00,M,BKN,OVC,M,M,4500.00,7500.00,M,M,-RA,M,M,M,M,M,M,54.00,KDRA 160553Z AUTO 26003KT 10SM -RA BKN045 OVC075 12/06 A3001 RMK AO2 RAB37 SLP138 P0000 60000 T01220061 10178 20122 53013,M
ELY,2023-11-16 05:53,-114.8453,39.2950,1909.00,49.00,28.00,43.93,200.00,10.00,0.00,30.05,1011.50,10.00,M,BKN,OVC,M,M,6000.00,8000.00,M,M,M,M,M,M,M,M,M,44.29,KELY 160553Z AUTO 20010KT 10SM BKN060 OVC080 09/M02 A3005 RMK AO2 SLP115 T00941022 10117 20078 58003,M
VGT,2023-11-16 05:53,-115.1933,36.2111,667.00,59.00,52.00,77.55,90.00,7.00,0.03,30.01,1017.20,10.00,M,BKN,OVC,M,M,9000.00,11000.00,M,M,M,M,M,M,M,M,M,59.00,KVGT 160553Z AUTO 09007KT 10SM BKN090 OVC110 15/11 A3001 RMK AO2 RAE47 SLP172 P0003 60004 T01500111 10211 20150 51012,M
LOL,2023-11-16 05:53,-118.5701,40.0684,1192.43,45.00,23.00,41.50,240.00,3.00,0.00,29.94,1013.40,10.00,M,FEW,SCT,OVC,M,7000.00,8000.00,10000.00,M,M,M,M,M,M,M,M,43.55,KLOL 160553Z AUTO 24003KT 10SM FEW070 SCT080 OVC100 07/M05 A2994 RMK AO2 SLP134 T00721050 10161 20039 53008,M
BVU,2023-11-16 05:55,-114.8611,35.9475,671.00,57.20,50.00,76.82,100.00,7.00,0.00,30.02,M,6.00,M,BKN,OVC,M,M,2400.00,3400.00,M,M,-RA,M,M,M,M,M,M,57.20,KBVU 160555Z AUTO 10007KT 6SM -RA BKN024 OVC034 14/10 A3002 RMK AO2,M
CXP,2023-11-16 05:55,-119.7326,39.1923,1431.00,42.80,39.20,86.99,0.00,0.00,0.00,29.99,M,10.00,M,FEW,BKN,BKN,M,4600.00,6000.00,9000.00,M,M,M,M,M,M,M,M,42.80,KCXP 160555Z AUTO 00000KT 10SM FEW046 BKN060 BKN090 06/04 A2999 RMK AO2,M
RNO,2023-11-16 05:55,-119.7711,39.4839,1341.00,46.00,38.00,73.47,180.00,10.00,T,29.97,1013.30,10.00,M,BKN,OVC,M,M,6500.00,10000.00,M,M,-RA,M,M,M,M,M,M,40.52,KRNO 160555Z 18010KT 10SM -RA BKN065 OVC100 08/03 A2997 RMK AO2 RAE09B55 SLP133 P0000 60001 T00780033 10150 20078 53002,M
RTS,2023-11-16 05:55,-119.8764,39.6682,1539.00,42.80,35.60,75.50,140.00,4.00,0.00,29.99,M,10.00,M,FEW,SCT,OVC,M,3000.00,4100.00,5000.00,M,M,M,M,M,M,M,M,40.03,KRTS 160555Z AUTO 14004KT 10SM FEW030 SCT041 OVC050 06/02 A2999 RMK AO2,M
05U,2023-11-16 05:55,-116.0051,39.6042,1811.23,42.80,39.20,86.99,0.00,0.00,0.01,30.06,M,10.00,M,M,M,M,M,M,M,M,M,M,M,M,M,M,M,M,42.80,K05U 160555Z AUTO 00000KT 10SM 06/04 A3006 RMK A01 P0001,M
MEV,2023-11-16 05:55,-119.7500,38.9963,1441.42,41.00,39.20,93.24,80.00,4.00,0.01,29.98,M,9.00,M,SCT,BKN,OVC,M,4300.00,5000.00,6000.00,M,-RA,M,M,M,M,M,M,37.93,KMEV 160555Z AUTO 08004KT 9SM -RA SCT043 BKN050 OVC060 05/04 A2998 RMK AO2 P0001,M
BAM,2023-11-16 05:55,-116.8743,40.5990,1382.36,41.00,23.00,48.39,80.00,3.00,0.00,29.95,M,10.00,M,SCT,M,M,M,11000.00,M,M,M,M,M,M,M,M,M,M,38.98,KBAM 160555Z AUTO 08003KT 10SM SCT110 05/M05 A2995 RMK AO1,M
HTH,2023-11-16 05:55,-118.6315,38.5448,1282.89,46.40,41.00,81.34,M,6.00,0.03,29.97,M,10.00,13.00,CLR,M,M,M,M,M,M,M,M,M,M,M,M,M,M,42.87,KHTH 160555Z AUTO VRB06G13KT 040V100 10SM CLR 08/05 A2997 RMK A01 P0003,M
TMT,2023-11-16 05:55,-117.1971,39.4643,1749.34,40.60,34.00,77.12,350.00,3.00,0.01,30.01,M,7.00,M,BKN,OVC,M,M,4200.00,4900.00,M,M,-RA,M,M,M,M,M,M,38.52,KTMT 160555Z AUTO 35003KT 7SM -RA BKN042 OVC049 05/01 A3001 RMK AO2 P0001 60001 T00480012 10122 20017,M
INS,2023-11-16 05:55,-115.6733,36.5872,955.00,58.60,25.70,28.12,0.00,0.00,T,29.98,1012.80,10.00,M,SCT,BKN,M,M,6500.00,8500.00,M,M,-DZ,M,M,M,M,M,M,58.60,KINS 160555Z AUTO 00000KT 10SM -DZ SCT065 BKN085 15/M03 A2998 RMK AO2 DZB36E41RAB41E51DZB51 SLP128 P0000 60000 T01481035 10189 20143 52006 $,M
LSV,2023-11-16 05:55,-115.0343,36.2362,570.00,58.00,49.60,73.54,50.00,8.00,0.07,29.99,1014.60,10.00,M,BKN,OVC,M,M,8000.00,10000.00,M,M,M,M,M,M,M,M,M,58.00,KLSV 160555Z 05008KT 10SM BKN080 OVC100 14/10 A2999 RMK AO2A RAE02RAB05E33RAB36E47 SLP146 P0007 60007 T01440098 10197 20144 51017,M
EKO,2023-11-16 05:56,-115.7860,40.8242,1367.00,55.00,23.00,28.61,190.00,14.00,0.00,29.98,1012.80,9.00,26.00,FEW,OVC,M,M,8000.00,9000.00,M,M,M,M,M,M,26.00,170.00,2023-11-16 05:56,55.00,KEKO 160556Z AUTO 19014G26KT 9SM FEW080 OVC090 13/M05 A2998 RMK AO2 PK WND 17026/0556 SLP128 T01281050 10150 20106 53007,M
NFL,2023-11-16 05:56,-118.7010,39.4166,1199.00,48.00,42.00,79.60,190.00,7.00,0.05,29.96,1011.70,10.00,M,BKN,OVC,M,M,5000.00,7000.00,M,M,M,M,M,M,M,M,M,44.28,KNFL 160556Z 19007KT 10SM BKN050 OVC070 09/06 A2996 RMK AO2 RAE55 SLP117 WR// P0005 60005 T00890056 10144 20083 51016,M
HND,2023-11-16 05:56,-115.1344,35.9729,742.79,56.00,53.00,89.64,20.00,4.00,0.06,30.03,1017.60,10.00,M,OVC,M,M,M,8500.00,M,M,M,-RA,M,M,M,M,M,M,56.00,KHND 160556Z 02004KT 10SM -RA OVC085 13/12 A3003 RMK AO2 SLP176 P0006 60013 T01330117 10189 20133 50009,M
TPH,2023-11-16 05:56,-117.0904,38.0505,1654.00,43.00,38.00,82.37,M,3.00,0.00,30.05,1015.20,10.00,M,BKN,OVC,M,M,4200.00,5000.00,M,M,M,M,M,M,M,M,M,41.26,KTPH 160556Z AUTO VRB03KT 10SM BKN042 OVC050 06/03 A3005 RMK AO2 SLP152 60008 T00610033 10128 20056 55000,M
LAS,2023-11-16 05:56,-115.1634,36.0719,663.00,58.00,53.00,83.39,0.00,0.00,0.05,30.02,1015.60,10.00,M,OVC,M,M,M,9000.00,M,M,M,-RA,M,M,M,M,M,M,58.00,KLAS 160556Z 00000KT 10SM -RA OVC090 14/12 A3002 RMK AO2 SLP156 P0005 60006 T01440117 10200 20144 50012,M
INS,2023-11-16 06:05,-115.6733,36.5872,955.00,57.20,24.80,28.48,110.00,8.00,0.00,29.98,1013.00,10.00,M,FEW,SCT,OVC,M,3300.00,7000.00,9000.00,M,M,M,M,M,M,M,M,57.20,KINS 160605Z AUTO 11008KT 10SM FEW033 SCT070 OVC090 14/M04 A2998 RMK AO2 DZE05 SLP130 $,M
05U,2023-11-16 06:10,-116.0051,39.6042,1811.23,42.80,39.20,86.99,0.00,0.00,0.00,30.06,M,10.00,M,M,M,M,M,M,M,M,M,M,M,M,M,M,M,M,42.80,K05U 160610Z AUTO 00000KT 10SM 06/04 A3006 RMK A01,M
BVU,2023-11-16 06:15,-114.8611,35.9475,671.00,55.40,50.00,81.99,100.00,9.00,0.00,30.02,M,8.00,M,SCT,BKN,OVC,M,2500.00,3300.00,9000.00,M,-RA,M,M,M,M,M,M,55.40,KBVU 160615Z AUTO 10009KT 8SM -RA SCT025 BKN033 OVC090 13/10 A3002 RMK AO2,M
CXP,2023-11-16 06:15,-119.7326,39.1923,1431.00,41.00,39.20,93.24,0.00,0.00,0.00,29.99,M,10.00,M,FEW,BKN,OVC,M,4400.00,5500.00,6500.00,M,M,M,M,M,M,M,M,41.00,KCXP 160615Z AUTO 00000KT 10SM FEW044 BKN055 OVC065 05/04 A2999 RMK AO2,M
RTS,2023-11-16 06:15,-119.8764,39.6682,1539.00,42.80,37.40,81.07,130.00,7.00,0.00,29.97,M,10.00,M,FEW,SCT,BKN,M,2400.00,3000.00,4000.00,M,-DZ,M,M,M,M,M,M,37.94,KRTS 160615Z AUTO 13007KT 10SM -DZ FEW024 SCT030 BKN040 06/03 A2997 RMK AO2,M
MEV,2023-11-16 06:15,-119.7500,38.9963,1441.42,41.00,39.20,93.24,80.00,5.00,0.00,29.97,M,10.00,M,FEW,BKN,OVC,M,4000.00,5000.00,6000.00,M,UP,M,M,M,M,M,M,37.08,KMEV 160615Z AUTO 08005KT 10SM UP FEW040 BKN050 OVC060 05/04 A2997 RMK AO2,M
BAM,2023-11-16 06:15,-116.8743,40.5990,1382.36,41.00,23.00,48.39,0.00,0.00,0.00,29.96,M,10.00,M,OVC,M,M,M,11000.00,M,M,M,M,M,M,M,M,M,M,41.00,KBAM 160615Z AUTO 00000KT 10SM OVC110 05/M05 A2996 RMK AO1,M
HTH,2023-11-16 06:15,-118.6315,38.5448,1282.89,46.40,39.20,75.84,M,4.00,0.00,29.97,M,10.00,M,SCT,M,M,M,6000.00,M,M,M,M,M,M,M,M,M,M,44.24,KHTH 160615Z AUTO VRB04KT 10SM SCT060 08/04 A2997 RMK A01,M
TMT,2023-11-16 06:15,-117.1971,39.4643,1749.34,39.00,34.70,84.40,340.00,4.00,0.00,30.02,M,10.00,M,OVC,M,M,M,4200.00,M,M,M,M,M,M,M,M,M,M,35.59,KTMT 160615Z AUTO 34004KT 10SM OVC042 04/02 A3002 RMK AO2 T00380015,M
DRA,2023-11-16 06:27,-116.0278,36.6206,1009.00,50.00,43.00,76.76,230.00,4.00,0.01,30.03,M,10.00,M,SCT,BKN,OVC,M,2300.00,2800.00,5500.00,M,M,M,M,M,M,M,M,50.00,KDRA 160627Z AUTO 23004KT 10SM SCT023 BKN028 OVC055 10/06 A3003 RMK AO2 RAE12 P0001 T01000061,M
BVU,2023-11-16 06:35,-114.8611,35.9475,671.00,55.40,50.00,81.99,50.00,4.00,0.00,30.01,M,10.00,M,SCT,BKN,OVC,M,4300.00,6500.00,8500.00,M,M,M,M,M,M,M,M,55.40,KBVU 160635Z AUTO 05004KT 10SM SCT043 BKN065 OVC085 13/10 A3001 RMK AO2,M
CXP,2023-11-16 06:35,-119.7326,39.1923,1431.00,41.00,37.40,86.89,0.00,0.00,0.00,29.98,M,10.00,M,FEW,SCT,BKN,M,3000.00,4200.00,4900.00,M,UP,M,M,M,M,M,M,41.00,KCXP 160635Z AUTO 00000KT 10SM UP FEW030 SCT042 BKN049 05/03 A2998 RMK AO2,M
RTS,2023-11-16 06:35,-119.8764,39.6682,1539.00,41.00,37.40,86.89,10.00,4.00,0.00,29.97,M,10.00,M,FEW,SCT,BKN,M,2500.00,6000.00,7500.00,M,M,M,M,M,M,M,M,37.93,KRTS 160635Z AUTO 01004KT 10SM FEW025 SCT060 BKN075 05/03 A2997 RMK AO2,M
05U,2023-11-16 06:35,-116.0051,39.6042,1811.23,42.80,39.20,86.99,260.00,5.00,0.00,30.05,M,10.00,M,M,M,M,M,M,M,M,M,M,M,M,M,M,M,M,39.22,K05U 160635Z AUTO 26005KT 10SM 06/04 A3005 RMK A01,M
MEV,2023-11-16 06:35,-119.7500,38.9963,1441.42,41.00,39.20,93.24,0.00,0.00,0.00,29.97,M,10.00,M,BKN,OVC,M,M,5000.00,6000.00,M,M,-RA,M,M,M,M,M,M,41.00,KMEV 160635Z AUTO 00000KT 10SM -RA BKN050 OVC060 05/04 A2997 RMK AO2,M
BAM,2023-11-16 06:35,-116.8743,40.5990,1382.36,42.80,23.00,45.14,0.00,0.00,0.00,29.95,M,10.00,M,OVC,M,M,M,11000.00,M,M,M,M,M,M,M,M,M,M,42.80,KBAM 160635Z AUTO 00000KT 10SM OVC110 06/M05 A2995 RMK AO1,M
HTH,2023-11-16 06:35,-118.6315,38.5448,1282.89,46.40,39.20,75.84,0.00,0.00,0.00,29.98,M,10.00,M,BKN,M,M,M,5500.00,M,M,M,M,M,M,M,M,M,M,46.40,KHTH 160635Z AUTO 00000KT 10SM BKN055 08/04 A2998 RMK A01,M
TMT,2023-11-16 06:35,-117.1971,39.4643,1749.34,39.60,35.20,84.11,0.00,0.00,0.00,30.01,M,10.00,M,OVC,M,M,M,4600.00,M,M,M,-RA,M,M,M,M,M,M,39.60,KTMT 160635Z AUTO 00000KT 10SM -RA OVC046 04/02 A3001 RMK AO2 T00420018,M
TPH,2023-11-16 06:41,-117.0904,38.0505,1654.00,44.00,37.00,76.22,140.00,4.00,T,30.05,M,10.00,M,BKN,OVC,M,M,2700.00,3300.00,M,M,M,M,M,M,M,M,M,41.43,KTPH 160641Z AUTO 14004KT 10SM BKN027 OVC033 07/03 A3005 RMK AO2 RAB15E28 P0000 T00670028,M
P68,2023-11-16 06:53,-116.0056,39.6014,1993.00,41.00,39.00,92.52,170.00,4.00,0.00,30.03,1013.20,M,M,M,M,M,M,M,M,M,M,M,M,M,M,M,M,M,37.93,KP68 160653Z AUTO 17004KT 05/04 A3003 RMK AO1 SLP132 T00500039,M
DRA,2023-11-16 06:53,-116.0278,36.6206,1009.00,50.00,45.00,82.86,130.00,4.00,0.01,30.04,1014.70,10.00,M,OVC,M,M,M,2200.00,M,M,M,M,M,M,M,M,M,M,50.00,KDRA 160653Z AUTO 13004KT 10SM OVC022 10/07 A3004 RMK AO2 RAE12 SLP147 P0001 T01000072,M
ELY,2023-11-16 06:53,-114.8453,39.2950,1909.00,46.00,33.00,60.25,180.00,14.00,T,30.05,1011.80,10.00,24.00,BKN,OVC,M,M,4700.00,6000.00,M,M,-RA,M,M,M,28.00,170.00,2023-11-16 06:43,39.21,KELY 160653Z AUTO 18014G24KT 10SM -RA BKN047 OVC060 08/01 A3005 RMK AO2 PK WND 17028/0643 RAB46 SLP118 P0000 T00780006,M
VGT,2023-11-16 06:53,-115.1933,36.2111,667.00,57.00,52.00,83.33,90.00,6.00,T,30.01,1017.00,10.00,M,BKN,OVC,M,M,8000.00,10000.00,M,M,-RA,M,M,M,M,M,M,57.00,KVGT 160653Z AUTO 09006KT 10SM -RA BKN080 OVC100 14/11 A3001 RMK AO2 RAB08 SLP170 P0000 T01390111,M
LOL,2023-11-16 06:53,-118.5701,40.0684,1192.43,45.00,41.00,85.77,190.00,6.00,T,29.97,1014.10,7.00,M,BKN,OVC,M,M,5000.00,6500.00,M,M,-RA,M,M,M,M,M,M,41.19,KLOL 160653Z AUTO 19006KT 7SM -RA BKN050 OVC065 07/05 A2997 RMK AO2 RAB12 SLP141 P0000 T00720050,M
BVU,2023-11-16 06:55,-114.8611,35.9475,671.00,55.40,50.00,81.99,30.00,4.00,0.00,30.02,M,10.00,M,SCT,SCT,OVC,M,4400.00,7000.00,7500.00,M,M,M,M,M,M,M,M,55.40,KBVU 160655Z AUTO 03004KT 10SM SCT044 SCT070 OVC075 13/10 A3002 RMK AO2,M
CXP,2023-11-16 06:55,-119.7326,39.1923,1431.00,41.00,37.40,86.89,0.00,0.00,0.00,29.99,M,10.00,M,FEW,BKN,OVC,M,4200.00,4900.00,6000.00,M,M,M,M,M,M,M,M,41.00,KCXP 160655Z AUTO 00000KT 10SM FEW042 BKN049 OVC060 05/03 A2999 RMK AO2,M
RNO,2023-11-16 06:55,-119.7711,39.4839,1341.00,45.00,39.00,79.36,0.00,0.00,T,29.96,1013.00,10.00,M,SCT,BKN,M,M,7000.00,10000.00,M,M,M,M,M,M,M,M,M,45.00,KRNO 160655Z 00000KT 10SM SCT070 BKN100 07/04 A2996 RMK AO2 RAE07 SLP130 P0000 T00720039,M
RTS,2023-11-16 06:55,-119.8764,39.6682,1539.00,41.00,37.40,86.89,0.00,0.00,0.00,29.98,M,10.00,M,FEW,BKN,OVC,M,4500.00,5500.00,7000.00,M,M,M,M,M,M,M,M,41.00,KRTS 160655Z AUTO 00000KT 10SM FEW045 BKN055 OVC070 05/03 A2998 RMK AO2,M
05U,2023-11-16 06:55,-116.0051,39.6042,1811.23,41.00,39.20,93.24,340.00,3.00,0.00,30.06,M,10.00,M,M,M,M,M,M,M,M,M,M,M,M,M,M,M,M,38.98,K05U 160655Z AUTO 34003KT 10SM 05/04 A3006 RMK A01,M
MEV,2023-11-16 06:55,-119.7500,38.9963,1441.42,39.20,39.20,100.00,0.00,0.00,0.01,29.97,M,10.00,M,FEW,SCT,OVC,M,4000.00,5000.00,6000.00,M,M,M,M,M,M,M,M,39.20,KMEV 160655Z AUTO 00000KT 10SM FEW040 SCT050 OVC060 04/04 A2997 RMK AO2 P0001,M
BAM,2023-11-16 06:55,-116.8743,40.5990,1382.36,42.80,23.00,45.14,0.00,0.00,0.00,29.95,M,10.00,M,SCT,OVC,M,M,8500.00,11000.00,M,M,M,M,M,M,M,M,M,42.80,KBAM 160655Z AUTO 00000KT 10SM SCT085 OVC110 06/M05 A2995 RMK AO1,M
HTH,2023-11-16 06:55,-118.6315,38.5448,1282.89,46.40,39.20,75.84,150.00,10.00,0.00,29.97,M,10.00,M,FEW,M,M,M,5500.00,M,M,M,M,M,M,M,M,M,M,41.03,KHTH 160655Z AUTO 15010KT 10SM FEW055 08/04 A2997 RMK A01,M
TMT,2023-11-16 06:55,-117.1971,39.4643,1749.34,39.00,36.30,89.93,330.00,4.00,0.00,30.02,M,10.00,M,OVC,M,M,M,4800.00,M,M,M,-RA,M,M,M,M,M,M,35.59,KTMT 160655Z AUTO 33004KT 10SM -RA OVC048 04/02 A3002 RMK AO2 T00380024,M
INS,2023-11-16 06:55,-115.6733,36.5872,955.00,57.20,25.00,28.72,230.00,12.00,T,30.00,1013.30,10.00,M,BKN,OVC,M,M,7000.00,8500.00,M,M,M,M,M,M,M,M,M,57.20,KINS 160655Z AUTO 23012KT 10SM BKN070 OVC085 14/M04 A3000 RMK AO2 DZE05 SLP133 P0000 T01401038 $,M
EKO,2023-11-16 06:56,-115.7860,40.8242,1367.00,45.00,40.00,82.51,170.00,15.00,0.03,29.99,1013.70,9.00,29.00,OVC,M,M,M,4800.00,M,M,M,-RA,M,M,M,41.00,180.00,2023-11-16 06:11,37.63,KEKO 160656Z AUTO 17015G29KT 9SM -RA OVC048 07/04 A2999 RMK AO2 PK WND 18041/0611 RAB21 SLP137 P0003 T00720044,M
NFL,2023-11-16 06:56,-118.7010,39.4166,1199.00,46.00,40.00,79.44,150.00,7.00,0.00,29.95,1011.30,10.00,M,BKN,OVC,M,M,5000.00,7000.00,M,M,M,M,M,M,M,M,M,41.84,KNFL 160656Z 15007KT 10SM BKN050 OVC070 08/04 A2995 RMK AO2 SLP113 T00780044,M
HND,2023-11-16 06:56,-115.1344,35.9729,742.79,56.00,54.00,92.98,0.00,0.00,0.01,30.03,1017.60,10.00,M,FEW,OVC,M,M,6000.00,8000.00,M,M,-RA,M,M,M,M,M,M,56.00,KHND 160656Z 00000KT 10SM -RA FEW060 OVC080 13/12 A3003 RMK AO2 SLP176 P0001 T01330122 402000083,M
TPH,2023-11-16 06:56,-117.0904,38.0505,1654.00,43.00,39.00,85.66,130.00,3.00,T,30.06,1014.90,10.00,M,BKN,OVC,M,M,2500.00,3300.00,M,M,M,M,M,M,M,M,M,41.26,KTPH 160656Z AUTO 13003KT 10SM BKN025 OVC033 06/04 A3006 RMK AO2 RAB15E28 SLP149 P0000 T00610039,M
LAS,2023-11-16 06:56,-115.1634,36.0719,663.00,58.00,53.00,83.39,80.00,7.00,0.01,30.02,1015.40,10.00,M,BKN,OVC,M,M,7500.00,9000.00,M,M,-RA,M,M,M,M,M,M,58.00,KLAS 160656Z 08007KT 10SM -RA BKN075 OVC090 14/12 A3002 RMK AO2 SLP154 P0001 T01440117,M
LSV,2023-11-16 07:00,-115.0343,36.2362,570.00,56.30,49.50,77.90,70.00,6.00,0.01,29.98,1014.00,10.00,M,BKN,OVC,M,M,8000.00,10000.00,M,M,-DZ,M,M,M,M,M,M,56.30,KLSV 160700Z 07006KT 10SM -DZ BKN80 OVC100 14/10 A2998 RMK DZB0601E0610RAB0614E0628DZB0652 SLP140 P0001 T01350097 402270072,M
INS,2023-11-16 07:05,-115.6733,36.5872,955.00,57.20,24.80,28.48,240.00,19.00,0.00,30.02,1014.00,10.00,M,OVC,M,M,M,7000.00,M,M,M,-DZ,M,M,M,M,M,M,57.20,KINS 160705Z AUTO 24019KT 10SM -DZ OVC070 14/M04 A3002 RMK AO2 DZB05 PRESRR SLP140 $,M
05U,2023-11-16 07:10,-116.0051,39.6042,1811.23,41.00,39.20,93.24,0.00,0.00,0.00,30.05,M,10.00,M,M,M,M,M,M,M,M,M,M,M,M,M,M,M,M,41.00,K05U 160710Z AUTO 00000KT 10SM 05/04 A3005 RMK A01,M
MEV,2023-11-16 07:15,-119.7500,38.9963,1441.42,39.20,37.40,93.19,240.00,5.00,0.00,29.98,M,10.00,M,FEW,SCT,OVC,M,3900.00,4900.00,6000.00,M,M,M,M,M,M,M,M,34.95,KMEV 160715Z AUTO 24005KT 10SM FEW039 SCT049 OVC060 04/03 A2998 RMK AO2,M
BAM,2023-11-16 07:15,-116.8743,40.5990,1382.36,42.80,23.00,45.14,80.00,5.00,0.00,29.95,M,10.00,M,OVC,M,M,M,9000.00,M,M,M,M,M,M,M,M,M,M,39.22,KBAM 160715Z AUTO 08005KT 10SM OVC090 06/M05 A2995 RMK AO1,M
HTH,2023-11-16 07:15,-118.6315,38.5448,1282.89,44.60,39.20,81.20,210.00,4.00,0.00,29.97,M,10.00,M,CLR,M,M,M,M,M,M,M,M,M,M,M,M,M,M,42.13,KHTH 160715Z AUTO 21004KT 10SM CLR 07/04 A2997 RMK A01,M
BVU,2023-11-16 07:15,-114.8611,35.9475,671.00,55.40,50.00,81.99,40.00,4.00,0.00,30.02,M,10.00,M,FEW,BKN,OVC,M,3800.00,6000.00,7000.00,M,-DZ,M,M,M,M,M,M,55.40,KBVU 160715Z AUTO 04004KT 10SM -DZ FEW038 BKN060 OVC070 13/10 A3002 RMK AO2,M
CXP,2023-11-16 07:15,-119.7326,39.1923,1431.00,41.00,39.20,93.24,0.00,0.00,0.00,29.99,M,7.00,M,FEW,SCT,BKN,M,3300.00,4200.00,4700.00,M,-RA,M,M,M,M,M,M,41.00,KCXP 160715Z AUTO 00000KT 7SM -RA FEW033 SCT042 BKN047 05/04 A2999 RMK AO2,M
RTS,2023-11-16 07:15,-119.8764,39.6682,1539.00,39.20,37.40,93.19,350.00,4.00,0.00,29.98,M,10.00,M,SCT,OVC,M,M,4200.00,5500.00,M,M,M,M,M,M,M,M,M,35.83,KRTS 160715Z AUTO 35004KT 10SM SCT042 OVC055 04/03 A2998 RMK AO2,M
TMT,2023-11-16 07:15,-117.1971,39.4643,1749.34,39.70,38.00,93.57,0.00,0.00,0.01,30.03,M,10.00,M,SCT,OVC,M,M,3300.00,4600.00,M,M,-RA,M,M,M,M,M,M,39.70,KTMT 160715Z AUTO 00000KT 10SM -RA SCT033 OVC046 04/03 A3003 RMK AO2 P0001 T00430034,M
05U,2023-11-16 07:30,-116.0051,39.6042,1811.23,41.00,39.20,93.24,0.00,0.00,0.00,30.05,M,10.00,M,M,M,M,M,M,M,M,M,M,M,M,M,M,M,M,41.00,K05U 160730Z AUTO 00000KT 10SM 05/04 A3005 RMK A01,M
HTH,2023-11-16 07:30,-118.6315,38.5448,1282.89,42.80,37.40,81.07,0.00,0.00,0.00,29.97,M,10.00,M,CLR,M,M,M,M,M,M,M,M,M,M,M,M,M,M,42.80,KHTH 160730Z AUTO 00000KT 10SM CLR 06/03 A2997 RMK A01,M
BVU,2023-11-16 07:35,-114.8611,35.9475,671.00,55.40,50.00,81.99,70.00,7.00,0.00,30.01,M,10.00,M,OVC,M,M,M,5500.00,M,M,M,M,M,M,M,M,M,M,55.40,KBVU 160735Z AUTO 07007KT 10SM OVC055 13/10 A3001 RMK AO2,M
CXP,2023-11-16 07:35,-119.7326,39.1923,1431.00,41.00,39.20,93.24,0.00,0.00,0.00,30.00,M,10.00,M,FEW,BKN,OVC,M,3300.00,4600.00,7000.00,M,M,M,M,M,M,M,M,41.00,KCXP 160735Z AUTO 00000KT 10SM FEW033 BKN046 OVC070 05/04 A3000 RMK AO2,M
RTS,2023-11-16 07:35,-119.8764,39.6682,1539.00,39.20,35.60,86.79,350.00,3.00,0.00,29.99,M,10.00,M,FEW,SCT,BKN,M,2400.00,4200.00,5500.00,M,M,M,M,M,M,M,M,36.92,KRTS 160735Z AUTO 35003KT 10SM FEW024 SCT042 BKN055 04/02 A2999 RMK AO2,M
MEV,2023-11-16 07:35,-119.7500,38.9963,1441.42,37.40,37.40,100.00,0.00,0.00,0.00,29.98,M,10.00,M,FEW,FEW,OVC,M,1900.00,3700.00,5500.00,M,M,M,M,M,M,M,M,37.40,KMEV 160735Z AUTO 00000KT 10SM FEW019 FEW037 OVC055 03/03 A2998 RMK AO2,M
TMT,2023-11-16 07:35,-117.1971,39.4643,1749.34,40.60,38.50,92.14,0.00,0.00,0.04,30.03,M,5.00,M,BKN,OVC,M,M,3100.00,3700.00,M,M,RA,M,M,M,M,M,M,40.60,KTMT 160735Z AUTO 00000KT 5SM RA BKN031 OVC037 05/04 A3003 RMK AO2 P0004 T00480036,M
DRA,2023-11-16 07:44,-116.0278,36.6206,1009.00,49.00,47.00,92.77,350.00,4.00,0.01,30.02,M,8.00,M,FEW,SCT,OVC,M,1300.00,1900.00,4200.00,M,M,M,M,M,M,M,M,47.27,KDRA 160744Z AUTO 35004KT 8SM FEW013 SCT019 OVC042 09/08 A3002 RMK AO2 RAB0654E43 P0001 T00940083,M
INS,2023-11-16 07:46,-115.6733,36.5872,955.00,51.80,23.00,32.17,270.00,10.00,0.00,30.00,1013.50,10.00,M,FEW,BKN,M,M,400.00,6000.00,M,M,M,M,M,M,M,M,M,51.80,KINS 160746Z AUTO 27010KT 10SM FEW004 BKN060 11/M05 A3000 RMK AO2 DZB05E12RAB12E44DZB44E46 SLP135 $,M
P68,2023-11-16 07:53,-116.0056,39.6014,1993.00,40.00,39.00,96.18,0.00,0.00,0.00,30.01,1012.30,M,M,M,M,M,M,M,M,M,M,M,M,M,M,M,M,M,40.00,KP68 160753Z AUTO 00000KT 04/04 A3001 RMK AO1 SLP123 T00440039 401441044,M
DRA,2023-11-16 07:53,-116.0278,36.6206,1009.00,49.00,47.00,92.77,340.00,7.00,0.01,30.02,1013.90,9.00,M,SCT,OVC,M,M,1600.00,4200.00,M,M,M,M,M,M,M,M,M,45.50,KDRA 160753Z AUTO 34007KT 9SM SCT016 OVC042 09/08 A3002 RMK AO2 RAB0654E43 SLP139 P0001 T00940083 402000028,M
ELY,2023-11-16 07:53,-114.8453,39.2950,1909.00,44.00,34.00,67.66,210.00,11.00,T,30.02,1010.90,10.00,22.00,OVC,M,M,M,4100.00,M,M,M,M,M,M,M,27.00,160.00,2023-11-16 07:15,37.63,KELY 160753Z AUTO 21011G22KT 10SM OVC041 07/01 A3002 RMK AO2 PK WND 16027/0715 RAE01 SLP109 P0000 T00670011 401501033,M
VGT,2023-11-16 07:53,-115.1933,36.2111,667.00,57.00,53.00,86.45,0.00,0.00,0.01,30.01,1017.00,10.00,M,SCT,BKN,OVC,M,2100.00,2600.00,5500.00,M,-RA,M,M,M,M,M,M,57.00,KVGT 160753Z AUTO 00000KT 10SM -RA SCT021 BKN026 OVC055 14/12 A3001 RMK AO2 SLP170 P0001 T01390117 402110100,M
LOL,2023-11-16 07:53,-118.5701,40.0684,1192.43,43.00,40.00,89.06,50.00,4.00,T,29.97,1013.90,10.00,M,CLR,M,M,M,M,M,M,M,M,M,M,M,M,M,M,40.27,KLOL 160753Z AUTO 05004KT 10SM CLR 06/04 A2997 RMK AO2 RAE02 SLP139 P0000 T00610044 401671056,M
INS,2023-11-16 07:54,-115.6733,36.5872,955.00,51.80,23.00,32.17,210.00,12.00,0.00,30.01,1013.80,10.00,M,BKN,BKN,BKN,M,6000.00,8000.00,9500.00,M,-RA,M,M,M,M,M,M,51.80,KINS 160754Z AUTO 21012KT 10SM -RA BKN060 BKN080 BKN095 11/M05 A3001 RMK AO2 DZB05E12RAB12E44DZB44E46RAB54 SLP138 $,M
BVU,2023-11-16 07:55,-114.8611,35.9475,671.00,57.20,48.20,71.83,100.00,7.00,0.00,30.01,M,8.00,13.00,BKN,OVC,M,M,5000.00,5500.00,M,M,M,M,M,M,M,M,M,57.20,KBVU 160755Z AUTO 10007G13KT 8SM BKN050 OVC055 14/09 A3001 RMK AO2,M
CXP,2023-11-16 07:55,-119.7326,39.1923,1431.00,41.00,39.20,93.24,0.00,0.00,0.00,30.01,M,7.00,M,BKN,OVC,M,M,4100.00,4600.00,M,M,-RA,M,M,M,M,M,M,41.00,KCXP 160755Z AUTO 00000KT 7SM -RA BKN041 OVC046 05/04 A3001 RMK AO2,M
RNO,2023-11-16 07:55,-119.7711,39.4839,1341.00,44.00,38.00,79.27,0.00,0.00,0.00,29.98,1013.20,10.00,M,BKN,BKN,M,M,5000.00,8000.00,M,M,M,M,M,M,M,M,M,44.00,KRNO 160755Z 00000KT 10SM BKN050 BKN080 07/03 A2998 RMK AO2 SLP132 T00670033 401560000,M
RTS,2023-11-16 07:55,-119.8764,39.6682,1539.00,39.20,35.60,86.79,40.00,3.00,0.00,29.99,M,10.00,M,FEW,BKN,BKN,M,3000.00,5000.00,7000.00,M,M,M,M,M,M,M,M,36.92,KRTS 160755Z AUTO 04003KT 10SM FEW030 BKN050 BKN070 04/02 A2999 RMK AO2,M
05U,2023-11-16 07:55,-116.0051,39.6042,1811.23,41.00,39.20,93.24,0.00,0.00,0.00,30.03,M,10.00,M,M,M,M,M,M,M,M,M,M,M,M,M,M,M,M,41.00,K05U 160755Z AUTO 00000KT 10SM 05/04 A3003 RMK A01,M
MEV,2023-11-16 07:55,-119.7500,38.9963,1441.42,37.40,37.40,100.00,70.00,4.00,0.00,29.98,M,9.00,M,FEW,SCT,OVC,M,2300.00,3800.00,6000.00,M,M,M,M,M,M,M,M,33.73,KMEV 160755Z AUTO 07004KT 9SM FEW023 SCT038 OVC060 03/03 A2998 RMK AO2,M
BAM,2023-11-16 07:55,-116.8743,40.5990,1382.36,42.80,23.00,45.14,180.00,4.00,0.00,29.97,M,10.00,M,BKN,OVC,M,M,8000.00,9000.00,M,M,M,M,M,M,M,M,M,40.03,KBAM 160755Z AUTO 18004KT 10SM BKN080 OVC090 06/M05 A2997 RMK AO1,M
HTH,2023-11-16 07:55,-118.6315,38.5448,1282.89,44.60,37.40,75.68,20.00,4.00,0.00,29.98,M,10.00,M,CLR,M,M,M,M,M,M,M,M,M,M,M,M,M,M,42.13,KHTH 160755Z AUTO 02004KT 10SM CLR 07/03 A2998 RMK A01,M
TMT,2023-11-16 07:55,-117.1971,39.4643,1749.34,39.00,38.00,96.16,70.00,4.00,0.05,30.01,M,10.00,M,SCT,SCT,BKN,M,3000.00,3900.00,6000.00,M,-RA,M,M,M,M,M,M,35.59,KTMT 160755Z AUTO 07004KT 10SM -RA SCT030 SCT039 BKN060 04/03 A3001 RMK AO2 P0005 T00390034 401371110,M
INS,2023-11-16 07:55,-115.6733,36.5872,955.00,51.80,23.00,32.17,210.00,12.00,0.02,30.01,1013.80,10.00,M,BKN,BKN,BKN,M,6500.00,8000.00,9500.00,M,-RA,M,M,M,M,M,M,51.80,KINS 160755Z AUTO 21012KT 10SM -RA BKN065 BKN080 BKN095 11/M05 A3001 RMK AO2 DZB05E12RAB12E44DZB44E46RAB54 SLP138 P0002 T01101051 402070025 $,M
EKO,2023-11-16 07:56,-115.7860,40.8242,1367.00,44.00,42.00,92.61,M,3.00,0.14,30.00,1013.50,3.00,M,OVC,M,M,M,4200.00,M,M,M,RA BR,M,M,M,M,M,M,42.41,KEKO 160756Z AUTO VRB03KT 3SM RA BR OVC042 07/06 A3000 RMK AO2 SLP135 P0014 T00670056 401671033,M
NFL,2023-11-16 07:56,-118.7010,39.4166,1199.00,44.00,39.00,82.44,0.00,0.00,0.00,29.96,1011.80,10.00,M,BKN,M,M,M,10000.00,M,M,M,M,M,M,M,M,M,M,44.00,KNFL 160756Z AUTO 00000KT 10SM BKN100 07/04 A2996 RMK AO2 SLP118 T00670039 401611017,M
HND,2023-11-16 07:56,-115.1344,35.9729,742.79,56.00,53.00,89.64,340.00,4.00,T,30.03,1017.40,10.00,M,BKN,OVC,M,M,4000.00,4800.00,M,M,M,M,M,M,M,M,M,56.00,KHND 160756Z 34004KT 10SM BKN040 OVC048 13/12 A3003 RMK AO2 RAE49 SLP174 P0000 T01330117,M
TPH,2023-11-16 07:56,-117.0904,38.0505,1654.00,43.00,39.00,85.66,120.00,7.00,0.00,30.04,1014.40,10.00,M,OVC,M,M,M,2200.00,M,M,M,M,M,M,M,M,M,M,38.19,KTPH 160756Z AUTO 12007KT 10SM OVC022 06/04 A3004 RMK AO2 SLP144 T00610039 401441022,M
LAS,2023-11-16 07:56,-115.1634,36.0719,663.00,57.00,51.00,80.31,80.00,5.00,0.01,30.01,1015.20,10.00,M,OVC,M,M,M,5500.00,M,M,M,M,M,M,M,M,M,M,57.00,KLAS 160756Z 08005KT 10SM OVC055 14/11 A3001 RMK AO2 RAE41 SLP152 VCSH TOPS OF MTNS OBSCURED DSNT W-NW P0001 T01390106 402060111,M
LSV,2023-11-16 07:56,-115.0343,36.2362,570.00,56.00,51.00,83.26,70.00,6.00,T,29.98,1014.00,10.00,M,BKN,OVC,M,M,3000.00,6000.00,M,M,-RA,M,M,M,M,M,M,56.00,KLSV 160756Z 07006KT 10SM -RA BKN030 OVC060 13/11 A2998 RMK DZE04RAB40E55 SLP140 P0000 T01330106 402270072,M
VGT,2023-11-16 08:03,-115.1933,36.2111,667.00,57.00,52.00,83.33,0.00,0.00,T,30.01,M,10.00,M,FEW,SCT,OVC,M,2100.00,2600.00,4700.00,M,M,M,M,M,M,M,M,57.00,KVGT 160803Z AUTO 00000KT 10SM FEW021 SCT026 OVC047 14/11 A3001 RMK AO2 RAE0756 P0000 T01390111,M
DRA,2023-11-16 08:07,-116.0278,36.6206,1009.00,49.00,48.00,96.32,330.00,4.00,0.00,30.01,M,10.00,M,BKN,BKN,OVC,M,1500.00,3300.00,4300.00,M,M,M,M,M,M,M,M,47.27,KDRA 160807Z AUTO 33004KT 10SM BKN015 BKN033 OVC043 09/09 A3001 RMK AO2 T00940089,M
DRA,2023-11-16 08:14,-116.0278,36.6206,1009.00,49.00,48.00,96.32,320.00,6.00,0.01,30.01,M,10.00,M,BKN,OVC,M,M,1400.00,4300.00,M,M,M,M,M,M,M,M,M,46.00,KDRA 160814Z AUTO 32006KT 10SM BKN014 OVC043 09/09 A3001 RMK AO2 P0001 T00940089,M
BVU,2023-11-16 08:15,-114.8611,35.9475,671.00,57.20,50.00,76.82,170.00,3.00,0.00,30.02,M,10.00,M,OVC,M,M,M,4900.00,M,M,M,M,M,M,M,M,M,M,57.20,KBVU 160815Z AUTO 17003KT 10SM OVC049 14/10 A3002 RMK AO2,M
CXP,2023-11-16 08:15,-119.7326,39.1923,1431.00,41.00,39.20,93.24,10.00,3.00,0.00,30.00,M,6.00,M,BKN,OVC,M,M,4000.00,5500.00,M,M,-RA BR,M,M,M,M,M,M,38.98,KCXP 160815Z AUTO 01003KT 6SM -RA BR BKN040 OVC055 05/04 A3000 RMK AO2,M
RTS,2023-11-16 08:15,-119.8764,39.6682,1539.00,37.40,33.80,86.69,340.00,3.00,0.00,30.00,M,10.00,M,SCT,OVC,M,M,4300.00,5000.00,M,M,M,M,M,M,M,M,M,34.86,KRTS 160815Z AUTO 34003KT 10SM SCT043 OVC050 03/01 A3000 RMK AO2,M
05U,2023-11-16 08:15,-116.0051,39.6042,1811.23,41.00,39.20,93.24,30.00,3.00,0.00,30.04,M,10.00,M,M,M,M,M,M,M,M,M,M,M,M,M,M,M,M,38.98,K05U 160815Z AUTO 03003KT 10SM 05/04 A3004 RMK A01,M
MEV,2023-11-16 08:15,-119.7500,38.9963,1441.42,35.60,35.60,100.00,90.00,5.00,0.00,29.98,M,10.00,M,FEW,SCT,BKN,M,2300.00,3800.00,5000.00,M,M,M,M,M,M,M,M,30.67,KMEV 160815Z AUTO 09005KT 10SM FEW023 SCT038 BKN050 02/02 A2998 RMK AO2,M
BAM,2023-11-16 08:15,-116.8743,40.5990,1382.36,42.80,23.00,45.14,210.00,6.00,0.00,29.97,M,10.00,M,BKN,OVC,M,M,7500.00,9000.00,M,M,M,M,M,M,M,M,M,38.54,KBAM 160815Z AUTO 21006KT 10SM BKN075 OVC090 06/M05 A2997 RMK AO1,M
HTH,2023-11-16 08:15,-118.6315,38.5448,1282.89,41.00,37.40,86.89,160.00,5.00,0.00,29.98,M,10.00,M,CLR,M,M,M,M,M,M,M,M,M,M,M,M,M,M,37.08,KHTH 160815Z AUTO 16005KT 10SM CLR 05/03 A2998 RMK A01,M
TMT,2023-11-16 08:15,-117.1971,39.4643,1749.34,37.40,37.00,98.44,60.00,4.00,0.00,30.02,M,10.00,M,CLR,M,M,M,M,M,M,M,M,M,M,M,M,M,M,33.73,KTMT 160815Z AUTO 06004KT 10SM CLR 03/03 A3002 RMK AO2 T00300027,M
INS,2023-11-16 08:20,-115.6733,36.5872,955.00,51.80,23.00,32.17,230.00,6.00,0.00,30.00,1013.30,10.00,M,BKN,BKN,M,M,4400.00,7000.00,M,M,M,M,M,M,M,M,M,51.80,KINS 160820Z AUTO 23006KT 10SM BKN044 BKN070 11/M05 A3000 RMK AO2 RAE16DZB16E20 SLP133 $,M
BVU,2023-11-16 08:35,-114.8611,35.9475,671.00,57.20,50.00,76.82,130.00,5.00,0.00,30.02,M,10.00,M,OVC,M,M,M,4700.00,M,M,M,M,M,M,M,M,M,M,57.20,KBVU 160835Z AUTO 13005KT 10SM OVC047 14/10 A3002 RMK AO2,M
CXP,2023-11-16 08:35,-119.7326,39.1923,1431.00,39.20,37.40,93.19,0.00,0.00,0.00,30.00,M,10.00,M,BKN,BKN,M,M,6000.00,7000.00,M,M,M,M,M,M,M,M,M,39.20,KCXP 160835Z AUTO 00000KT 10SM BKN060 BKN070 04/03 A3000 RMK AO2,M
RTS,2023-11-16 08:35,-119.8764,39.6682,1539.00,37.40,35.60,93.14,0.00,0.00,0.00,30.00,M,10.00,M,BKN,BKN,OVC,M,4100.00,4600.00,5000.00,M,M,M,M,M,M,M,M,37.40,KRTS 160835Z AUTO 00000KT 10SM BKN041 BKN046 OVC050 03/02 A3000 RMK AO2,M
05U,2023-11-16 08:35,-116.0051,39.6042,1811.23,41.00,39.20,93.24,330.00,4.00,0.00,30.03,M,10.00,M,M,M,M,M,M,M,M,M,M,M,M,M,M,M,M,37.93,K05U 160835Z AUTO 33004KT 10SM 05/04 A3003 RMK A01,M
MEV,2023-11-16 08:35,-119.7500,38.9963,1441.42,37.40,35.60,93.14,0.00,0.00,0.00,29.99,M,10.00,M,FEW,FEW,BKN,M,2500.00,3900.00,5000.00,M,M,M,M,M,M,M,M,37.40,KMEV 160835Z AUTO 00000KT 10SM FEW025 FEW039 BKN050 03/02 A2999 RMK AO2,M
BAM,2023-11-16 08:35,-116.8743,40.5990,1382.36,50.00,28.40,43.03,250.00,15.00,0.00,29.97,M,10.00,19.00,SCT,BKN,OVC,M,6000.00,7500.00,9000.00,M,M,M,M,M,M,M,M,50.00,KBAM 160835Z AUTO 25015G19KT 10SM SCT060 BKN075 OVC090 10/M02 A2997 RMK AO1,M
HTH,2023-11-16 08:35,-118.6315,38.5448,1282.89,41.00,37.40,86.89,160.00,4.00,0.00,29.99,M,10.00,M,CLR,M,M,M,M,M,M,M,M,M,M,M,M,M,M,37.93,KHTH 160835Z AUTO 16004KT 10SM CLR 05/03 A2999 RMK A01,M
TMT,2023-11-16 08:35,-117.1971,39.4643,1749.34,36.00,35.40,97.65,0.00,0.00,0.00,30.02,M,10.00,M,SCT,M,M,M,2300.00,M,M,M,M,M,M,M,M,M,M,36.00,KTMT 160835Z AUTO 00000KT 10SM SCT023 02/02 A3002 RMK AO2 T00230019,M
RTS,2023-11-16 08:40,-119.8764,39.6682,1539.00,37.40,35.60,93.14,0.00,0.00,0.00,30.00,M,10.00,M,BKN,OVC,M,M,4100.00,4900.00,M,M,M,M,M,M,M,M,M,37.40,KRTS 160840Z AUTO 00000KT 10SM BKN041 OVC049 03/02 A3000 RMK AO2,M
LSV,2023-11-16 08:48,-115.0343,36.2362,570.00,57.20,53.60,87.74,50.00,8.00,0.00,29.97,1013.70,10.00,M,CLR,M,M,M,M,M,M,M,M,M,M,M,M,M,M,57.20,KLSV 160848Z 05008KT 10SM CLR 14/12 A2997 RMK AO2A RAE0756 SLP137,M
HTH,2023-11-16 08:50,-118.6315,38.5448,1282.89,41.00,37.40,86.89,150.00,4.00,0.00,29.98,M,10.00,M,CLR,M,M,M,M,M,M,M,M,M,M,M,M,M,M,37.93,KHTH 160850Z AUTO 15004KT 10SM CLR 05/03 A2998 RMK A01,M
P68,2023-11-16 08:53,-116.0056,39.6014,1993.00,39.00,38.00,96.16,0.00,0.00,0.00,30.01,1012.40,M,M,M,M,M,M,M,M,M,M,M,M,M,M,M,M,M,39.00,KP68 160853Z AUTO 00000KT 04/03 A3001 RMK AO1 SLP124 T00390033 55007,M
DRA,2023-11-16 08:53,-116.0278,36.6206,1009.00,50.00,48.00,92.80,350.00,5.00,0.01,30.01,1013.70,8.00,M,OVC,M,M,M,1200.00,M,M,M,M,M,M,M,M,M,M,50.00,KDRA 160853Z AUTO 35005KT 8SM OVC012 10/09 A3001 RMK AO2 SLP137 P0001 60003 T01000089 50000,M
ELY,2023-11-16 08:53,-114.8453,39.2950,1909.00,42.00,37.00,82.30,200.00,12.00,0.04,30.09,1013.70,5.00,M,SCT,OVC,M,M,2800.00,3400.00,M,M,RA,M,M,M,M,M,M,34.73,KELY 160853Z AUTO 20012KT 5SM RA SCT028 OVC034 06/03 A3009 RMK AO2 RAB11 SLP137 P0004 60004 T00560028 53014,M
VGT,2023-11-16 08:53,-115.1933,36.2111,667.00,58.00,52.00,80.38,0.00,0.00,T,30.01,1016.90,10.00,M,SCT,BKN,OVC,M,1900.00,3600.00,4900.00,M,M,M,M,M,M,M,M,58.00,KVGT 160853Z AUTO 00000KT 10SM SCT019 BKN036 OVC049 14/11 A3001 RMK AO2 RAE0756 SLP169 P0000 60001 T01440111 56001,M
LOL,2023-11-16 08:53,-118.5701,40.0684,1192.43,43.00,40.00,89.06,20.00,4.00,0.00,29.98,1013.90,10.00,M,SCT,BKN,M,M,8000.00,10000.00,M,M,M,M,M,M,M,M,M,40.27,KLOL 160853Z AUTO 02004KT 10SM SCT080 BKN100 06/04 A2998 RMK AO2 SLP139 60000 T00610044 51011,M
BVU,2023-11-16 08:55,-114.8611,35.9475,671.00,57.20,50.00,76.82,140.00,10.00,0.00,30.02,M,10.00,M,OVC,M,M,M,4500.00,M,M,M,M,M,M,M,M,M,M,57.20,KBVU 160855Z AUTO 14010KT 10SM OVC045 14/10 A3002 RMK AO2,M
CXP,2023-11-16 08:55,-119.7326,39.1923,1431.00,39.20,39.20,100.00,0.00,0.00,0.02,30.01,M,8.00,M,OVC,M,M,M,6000.00,M,M,M,M,M,M,M,M,M,M,39.20,KCXP 160855Z AUTO 00000KT 8SM OVC060 04/04 A3001 RMK AO2 P0002,M
RNO,2023-11-16 08:55,-119.7711,39.4839,1341.00,44.00,39.00,82.44,250.00,4.00,0.00,30.00,1013.60,10.00,M,SCT,BKN,M,M,5000.00,8000.00,M,M,M,M,M,M,M,M,M,41.43,KRNO 160855Z 25004KT 10SM SCT050 BKN080 07/04 A3000 RMK AO2 SLP136 60000 T00670039 53009,M
05U,2023-11-16 08:55,-116.0051,39.6042,1811.23,39.20,39.20,100.00,0.00,0.00,0.00,30.04,M,10.00,M,M,M,M,M,M,M,M,M,M,M,M,M,M,M,M,39.20,K05U 160855Z AUTO 00000KT 10SM 04/04 A3004 RMK A01,M
MEV,2023-11-16 08:55,-119.7500,38.9963,1441.42,35.60,35.60,100.00,130.00,3.00,0.00,30.00,M,8.00,M,FEW,BKN,BKN,M,5000.00,6000.00,7000.00,M,M,M,M,M,M,M,M,32.80,KMEV 160855Z AUTO 13003KT 8SM FEW050 BKN060 BKN070 02/02 A3000 RMK AO2,M
BAM,2023-11-16 08:55,-116.8743,40.5990,1382.36,50.00,32.00,49.81,260.00,12.00,0.00,29.99,M,10.00,M,BKN,BKN,OVC,M,6000.00,7500.00,9000.00,M,M,M,M,M,M,M,M,50.00,KBAM 160855Z AUTO 26012KT 10SM BKN060 BKN075 OVC090 10/00 A2999 RMK AO1,M
TMT,2023-11-16 08:55,-117.1971,39.4643,1749.34,35.40,35.00,98.42,0.00,0.00,0.00,30.02,M,10.00,M,CLR,M,M,M,M,M,M,M,M,M,M,M,M,M,M,35.40,KTMT 160855Z AUTO 00000KT 10SM CLR 02/02 A3002 RMK AO2 60005 T00190016,M
INS,2023-11-16 08:55,-115.6733,36.5872,955.00,50.70,22.60,32.95,230.00,8.00,T,30.01,1013.60,10.00,M,CLR,M,M,M,M,M,M,M,M,M,M,M,M,M,M,50.70,KINS 160855Z AUTO 23008KT 10SM CLR 10/M05 A3001 RMK AO2 RAE16DZB16E20 SLP136 P0000 60002 T01041052 51009 $,M
LSV,2023-11-16 08:55,-115.0343,36.2362,570.00,56.50,54.50,92.99,50.00,6.00,T,29.98,1014.00,10.00,M,CLR,M,M,M,M,M,M,M,M,M,M,M,M,M,M,56.50,KLSV 160855Z 05006KT 10SM CLR 14/13 A2998 RMK AO2A RAE0756 SLP140 P0000 60001 T01360125 56004,M
EKO,2023-11-16 08:56,-115.7860,40.8242,1367.00,45.00,42.00,89.15,0.00,0.00,0.09,29.97,1012.50,10.00,M,BKN,OVC,M,M,4200.00,4900.00,M,M,-RA,M,M,M,M,M,M,45.00,KEKO 160856Z AUTO 00000KT 10SM -RA BKN042 OVC049 07/06 A2997 RMK AO2 SLP125 P0009 60026 T00720056 58001,M
NFL,2023-11-16 08:56,-118.7010,39.4166,1199.00,44.00,39.00,82.44,0.00,0.00,0.00,29.97,1012.10,10.00,M,BKN,M,M,M,9000.00,M,M,M,M,M,M,M,M,M,M,44.00,KNFL 160856Z AUTO 00000KT 10SM BKN090 07/04 A2997 RMK AO2 SLP121 T00670039 53004,M
HND,2023-11-16 08:56,-115.1344,35.9729,742.79,55.00,53.00,92.95,270.00,3.00,0.00,30.03,1017.50,10.00,M,SCT,OVC,M,M,3700.00,4600.00,M,M,M,M,M,M,M,M,M,55.00,KHND 160856Z 27003KT 10SM SCT037 OVC046 13/12 A3003 RMK AO2 SLP175 60001 T01280117 55001,M
TPH,2023-11-16 08:56,-117.0904,38.0505,1654.00,43.00,40.00,89.06,0.00,0.00,0.00,30.04,1014.30,10.00,M,BKN,BKN,OVC,M,1700.00,2500.00,3300.00,M,M,M,M,M,M,M,M,43.00,KTPH 160856Z AUTO 00000KT 10SM BKN017 BKN025 OVC033 06/04 A3004 RMK AO2 SLP143 60000 T00610044 58002,M
LAS,2023-11-16 08:56,-115.1634,36.0719,663.00,57.00,51.00,80.31,80.00,4.00,0.00,30.01,1015.20,10.00,M,BKN,OVC,M,M,3800.00,4600.00,M,M,M,M,M,M,M,M,M,57.00,KLAS 160856Z 08004KT 10SM BKN038 OVC046 14/11 A3001 RMK AO2 SLP152 TOPS OF MTNS OBSCURED DSNT W-N 60002 T01390106 55002,M
BVU,2023-11-16 09:15,-114.8611,35.9475,671.00,57.20,50.00,76.82,130.00,7.00,0.00,30.02,M,10.00,M,SCT,BKN,OVC,M,4200.00,4900.00,5500.00,M,M,M,M,M,M,M,M,57.20,KBVU 160915Z AUTO 13007KT 10SM SCT042 BKN049 OVC055 14/10 A3002 RMK AO2,M
CXP,2023-11-16 09:15,-119.7326,39.1923,1431.00,39.20,39.20,100.00,340.00,3.00,0.00,30.02,M,9.00,M,BKN,OVC,M,M,5500.00,6500.00,M,M,M,M,M,M,M,M,M,36.92,KCXP 160915Z AUTO 34003KT 9SM BKN055 OVC065 04/04 A3002 RMK AO2,M
RTS,2023-11-16 09:15,-119.8764,39.6682,1539.00,37.40,35.60,93.14,0.00,0.00,0.00,30.01,M,10.00,M,BKN,OVC,M,M,3500.00,4600.00,M,M,M,M,M,M,M,M,M,37.40,KRTS 160915Z AUTO 00000KT 10SM BKN035 OVC046 03/02 A3001 RMK AO2,M
05U,2023-11-16 09:15,-116.0051,39.6042,1811.23,39.20,39.20,100.00,0.00,0.00,0.00,30.04,M,10.00,M,M,M,M,M,M,M,M,M,M,M,M,M,M,M,M,39.20,K05U 160915Z AUTO 00000KT 10SM 04/04 A3004 RMK A01,M
MEV,2023-11-16 09:15,-119.7500,38.9963,1441.42,33.80,33.80,100.00,0.00,0.00,0.00,30.00,M,7.00,M,OVC,M,M,M,6000.00,M,M,M,M,M,M,M,M,M,M,33.80,KMEV 160915Z AUTO 00000KT 7SM OVC060 01/01 A3000 RMK AO2,M
BAM,2023-11-16 09:15,-116.8743,40.5990,1382.36,50.00,33.80,53.54,270.00,10.00,0.00,30.00,M,10.00,M,OVC,M,M,M,6000.00,M,M,M,M,M,M,M,M,M,M,50.00,KBAM 160915Z AUTO 27010KT 10SM OVC060 10/01 A3000 RMK AO1,M
HTH,2023-11-16 09:15,-118.6315,38.5448,1282.89,39.20,37.40,93.19,150.00,4.00,0.00,29.99,M,10.00,M,CLR,M,M,M,M,M,M,M,M,M,M,M,M,M,M,35.83,KHTH 160915Z AUTO 15004KT 10SM CLR 04/03 A2999 RMK A01,M
TMT,2023-11-16 09:15,-117.1971,39.4643,1749.34,34.70,34.50,99.21,170.00,4.00,0.00,30.03,M,10.00,M,CLR,M,M,M,M,M,M,M,M,M,M,M,M,M,M,30.57,KTMT 160915Z AUTO 17004KT 10SM CLR 02/01 A3003 RMK AO2 T00150014,M
DRA,2023-11-16 09:16,-116.0278,36.6206,1009.00,50.00,49.00,96.34,330.00,5.00,0.00,30.01,M,10.00,M,OVC,M,M,M,900.00,M,M,M,M,M,M,M,M,M,M,50.00,KDRA 160916Z AUTO 33005KT 10SM OVC009 10/09 A3001 RMK AO2 T01000094,M
VGT,2023-11-16 09:20,-115.1933,36.2111,667.00,58.00,51.00,77.47,0.00,0.00,0.00,30.01,M,10.00,M,SCT,BKN,OVC,M,1900.00,2900.00,3400.00,M,M,M,M,M,M,M,M,58.00,KVGT 160920Z AUTO 00000KT 10SM SCT019 BKN029 OVC034 14/11 A3001 RMK AO2 T01440106,M
VGT,2023-11-16 09:30,-115.1933,36.2111,667.00,58.00,51.00,77.47,0.00,0.00,0.00,30.01,M,10.00,M,FEW,BKN,OVC,M,1900.00,3200.00,4200.00,M,M,M,M,M,M,M,M,58.00,KVGT 160930Z AUTO 00000KT 10SM FEW019 BKN032 OVC042 14/11 A3001 RMK AO2 T01440106,M
BVU,2023-11-16 09:35,-114.8611,35.9475,671.00,55.40,50.00,81.99,120.00,9.00,0.00,30.02,M,10.00,M,BKN,BKN,M,M,5000.00,5500.00,M,M,M,M,M,M,M,M,M,55.40,KBVU 160935Z AUTO 12009KT 10SM BKN050 BKN055 13/10 A3002 RMK AO2,M
CXP,2023-11-16 09:35,-119.7326,39.1923,1431.00,39.20,39.20,100.00,0.00,0.00,0.00,30.02,M,10.00,M,FEW,OVC,M,M,4600.00,6000.00,M,M,M,M,M,M,M,M,M,39.20,KCXP 160935Z AUTO 00000KT 10SM FEW046 OVC060 04/04 A3002 RMK AO2,M
RTS,2023-11-16 09:35,-119.8764,39.6682,1539.00,37.40,35.60,93.14,0.00,0.00,0.00,30.01,M,10.00,M,FEW,SCT,BKN,M,3600.00,4400.00,4900.00,M,M,M,M,M,M,M,M,37.40,KRTS 160935Z AUTO 00000KT 10SM FEW036 SCT044 BKN049 03/02 A3001 RMK AO2,M
05U,2023-11-16 09:35,-116.0051,39.6042,1811.23,39.20,39.20,100.00,0.00,0.00,0.00,30.05,M,10.00,M,M,M,M,M,M,M,M,M,M,M,M,M,M,M,M,39.20,K05U 160935Z AUTO 00000KT 10SM 04/04 A3005 RMK A01,M
MEV,2023-11-16 09:35,-119.7500,38.9963,1441.42,33.80,33.80,100.00,0.00,0.00,0.00,30.00,M,8.00,M,FEW,OVC,M,M,300.00,6000.00,M,M,M,M,M,M,M,M,M,33.80,KMEV 160935Z AUTO 00000KT 8SM FEW003 OVC060 01/01 A3000 RMK AO2,M
BAM,2023-11-16 09:35,-116.8743,40.5990,1382.36,50.00,35.60,57.52,270.00,7.00,0.00,29.99,M,10.00,M,BKN,OVC,M,M,6000.00,7500.00,M,M,M,M,M,M,M,M,M,50.00,KBAM 160935Z AUTO 27007KT 10SM BKN060 OVC075 10/02 A2999 RMK AO1,M
HTH,2023-11-16 09:35,-118.6315,38.5448,1282.89,41.00,37.40,86.89,0.00,0.00,0.00,29.99,M,10.00,M,CLR,M,M,M,M,M,M,M,M,M,M,M,M,M,M,41.00,KHTH 160935Z AUTO 00000KT 10SM CLR 05/03 A2999 RMK A01,M
TMT,2023-11-16 09:35,-117.1971,39.4643,1749.34,34.00,33.80,99.20,220.00,5.00,0.00,30.03,M,5.00,M,CLR,M,M,M,M,M,M,M,BR,M,M,M,M,M,M,28.77,KTMT 160935Z AUTO 22005KT 5SM BR CLR 01/01 A3003 RMK AO2 T00110010,M
TPH,2023-11-16 09:45,-117.0904,38.0505,1654.00,43.00,40.00,89.06,100.00,4.00,0.00,30.05,M,10.00,M,OVC,M,M,M,1300.00,M,M,M,M,M,M,M,M,M,M,40.27,KTPH 160945Z AUTO 10004KT 10SM OVC013 06/04 A3005 RMK AO2 T00610044,M
P68,2023-11-16 09:53,-116.0056,39.6014,1993.00,41.00,38.00,88.97,0.00,0.00,0.00,30.03,1012.80,M,M,M,M,M,M,M,M,M,M,M,M,M,M,M,M,M,41.00,KP68 160953Z AUTO 00000KT 05/03 A3003 RMK AO1 SLP128 T00500033,M
DRA,2023-11-16 09:53,-116.0278,36.6206,1009.00,51.00,49.00,92.83,30.00,3.00,0.00,30.01,1013.60,10.00,M,OVC,M,M,M,900.00,M,M,M,M,M,M,M,M,M,M,51.00,KDRA 160953Z AUTO 03003KT 10SM OVC009 11/09 A3001 RMK AO2 SLP136 T01060094,M
ELY,2023-11-16 09:53,-114.8453,39.2950,1909.00,39.00,37.00,92.45,140.00,6.00,0.07,30.03,1011.70,10.00,M,SCT,BKN,OVC,M,2400.00,2800.00,3800.00,M,-RA,M,M,M,M,M,M,33.96,KELY 160953Z AUTO 14006KT 10SM -RA SCT024 BKN028 OVC038 04/03 A3003 RMK AO2 PRESFR SLP117 P0007 T00390028,M
VGT,2023-11-16 09:53,-115.1933,36.2111,667.00,58.00,51.00,77.47,0.00,0.00,0.00,30.00,1016.70,10.00,M,SCT,OVC,M,M,3000.00,4000.00,M,M,M,M,M,M,M,M,M,58.00,KVGT 160953Z AUTO 00000KT 10SM SCT030 OVC040 14/11 A3000 RMK AO2 SLP167 T01440106,M
LOL,2023-11-16 09:53,-118.5701,40.0684,1192.43,40.00,37.00,88.92,110.00,6.00,T,29.99,1014.50,10.00,M,FEW,BKN,M,M,3400.00,7000.00,M,M,-RA,M,M,M,M,M,M,35.17,KLOL 160953Z AUTO 11006KT 10SM -RA FEW034 BKN070 04/03 A2999 RMK AO2 RAB46 SLP145 P0000 T00440028,M
BVU,2023-11-16 09:55,-114.8611,35.9475,671.00,55.40,50.00,81.99,110.00,7.00,0.00,30.01,M,10.00,M,BKN,M,M,M,5000.00,M,M,M,M,M,M,M,M,M,M,55.40,KBVU 160955Z AUTO 11007KT 10SM BKN050 13/10 A3001 RMK AO2,M
CXP,2023-11-16 09:55,-119.7326,39.1923,1431.00,41.00,41.00,100.00,0.00,0.00,0.00,30.02,M,10.00,M,FEW,SCT,BKN,M,3900.00,4600.00,6000.00,M,-RA,M,M,M,M,M,M,41.00,KCXP 160955Z AUTO 00000KT 10SM -RA FEW039 SCT046 BKN060 05/05 A3002 RMK AO2,M
RNO,2023-11-16 09:55,-119.7711,39.4839,1341.00,41.00,37.00,85.54,180.00,4.00,0.00,30.01,1014.00,10.00,M,SCT,BKN,M,M,5000.00,8000.00,M,M,M,M,M,M,M,M,M,37.93,KRNO 160955Z 18004KT 10SM SCT050 BKN080 05/03 A3001 RMK AO2 SLP140 T00500028,M
RTS,2023-11-16 09:55,-119.8764,39.6682,1539.00,35.60,33.80,93.08,310.00,4.00,0.00,30.02,M,10.00,M,BKN,BKN,OVC,M,4800.00,6000.00,7500.00,M,M,M,M,M,M,M,M,31.62,KRTS 160955Z AUTO 31004KT 10SM BKN048 BKN060 OVC075 02/01 A3002 RMK AO2,M
05U,2023-11-16 09:55,-116.0051,39.6042,1811.23,41.00,39.20,93.24,0.00,0.00,0.00,30.05,M,10.00,M,M,M,M,M,M,M,M,M,M,M,M,M,M,M,M,41.00,K05U 160955Z AUTO 00000KT 10SM 05/04 A3005 RMK A01,M
MEV,2023-11-16 09:55,-119.7500,38.9963,1441.42,33.80,32.00,93.03,140.00,6.00,0.00,30.01,M,7.00,M,BKN,BKN,BKN,M,6000.00,8000.00,9000.00,M,M,M,M,M,M,M,M,27.70,KMEV 160955Z AUTO 14006KT 7SM BKN060 BKN080 BKN090 01/00 A3001 RMK AO2,M
BAM,2023-11-16 09:55,-116.8743,40.5990,1382.36,48.20,35.60,61.52,0.00,0.00,0.00,29.99,M,10.00,M,BKN,OVC,M,M,5000.00,6000.00,M,M,M,M,M,M,M,M,M,48.20,KBAM 160955Z AUTO 00000KT 10SM BKN050 OVC060 09/02 A2999 RMK AO1,M
HTH,2023-11-16 09:55,-118.6315,38.5448,1282.89,39.20,37.40,93.19,100.00,3.00,0.00,29.99,M,10.00,M,FEW,M,M,M,3100.00,M,M,M,M,M,M,M,M,M,M,36.92,KHTH 160955Z AUTO 10003KT 10SM FEW031 04/03 A2999 RMK A01,M
TMT,2023-11-16 09:55,-117.1971,39.4643,1749.34,32.70,32.50,99.20,260.00,4.00,0.00,30.03,M,10.00,M,CLR,M,M,M,M,M,M,M,M,M,M,M,M,M,M,28.24,KTMT 160955Z AUTO 26004KT 10SM CLR 00/00 A3003 RMK AO2 T00040003,M
INS,2023-11-16 09:55,-115.6733,36.5872,955.00,50.40,23.00,33.88,220.00,4.00,0.00,30.01,1013.60,10.00,M,FEW,BKN,M,M,2800.00,4200.00,M,M,M,M,M,M,M,M,M,50.40,KINS 160955Z AUTO 22004KT 10SM FEW028 BKN042 10/M05 A3001 RMK AO2 SLP136 T01021050 $,M
LSV,2023-11-16 09:55,-115.0343,36.2362,570.00,56.70,56.00,97.50,100.00,8.00,0.00,29.98,1014.00,10.00,M,FEW,OVC,M,M,4300.00,5500.00,M,M,M,M,M,M,M,M,M,56.70,KLSV 160955Z 10008KT 10SM FEW043 OVC055 14/13 A2998 RMK AO2A SLP140 T01370134,M
EKO,2023-11-16 09:56,-115.7860,40.8242,1367.00,44.00,42.00,92.61,240.00,3.00,T,29.99,1013.10,10.00,M,BKN,OVC,M,M,3500.00,8000.00,M,M,M,M,M,M,M,M,M,42.41,KEKO 160956Z AUTO 24003KT 10SM BKN035 OVC080 07/06 A2999 RMK AO2 RAE12 SLP131 P0000 T00670056,M
NFL,2023-11-16 09:56,-118.7010,39.4166,1199.00,41.00,37.00,85.54,110.00,4.00,0.00,29.99,1012.60,10.00,M,BKN,M,M,M,8000.00,M,M,M,M,M,M,M,M,M,M,37.93,KNFL 160956Z AUTO 11004KT 10SM BKN080 05/03 A2999 RMK AO2 SLP126 T00500028,M
HND,2023-11-16 09:56,-115.1344,35.9729,742.79,56.00,53.00,89.64,260.00,5.00,0.00,30.02,1017.30,10.00,M,OVC,M,M,M,4200.00,M,M,M,M,M,M,M,M,M,M,56.00,KHND 160956Z 26005KT 10SM OVC042 13/12 A3002 RMK AO2 SLP173 T01330117,M
TPH,2023-11-16 09:56,-117.0904,38.0505,1654.00,43.00,40.00,89.06,140.00,5.00,0.00,30.04,1014.20,10.00,M,OVC,M,M,M,1300.00,M,M,M,M,M,M,M,M,M,M,39.46,KTPH 160956Z AUTO 14005KT 10SM OVC013 06/04 A3004 RMK AO2 SLP142 T00610044,M
LAS,2023-11-16 09:56,-115.1634,36.0719,663.00,57.00,51.00,80.31,360.00,3.00,0.00,30.01,1014.90,10.00,M,SCT,SCT,OVC,M,4000.00,4900.00,6000.00,M,M,M,M,M,M,M,M,57.00,KLAS 160956Z 36003KT 10SM SCT040 SCT049 OVC060 14/11 A3001 RMK AO2 SLP149 TOPS OF MTNS OBSCURED DSNT W-N T01390106,M
05U,2023-11-16 10:10,-116.0051,39.6042,1811.23,41.00,39.20,93.24,50.00,4.00,0.00,30.05,M,10.00,M,M,M,M,M,M,M,M,M,M,M,M,M,M,M,M,37.93,K05U 161010Z AUTO 05004KT 10SM 05/04 A3005 RMK A01,M
BVU,2023-11-16 10:15,-114.8611,35.9475,671.00,55.40,50.00,81.99,30.00,3.00,0.00,30.00,M,10.00,M,BKN,BKN,M,M,4900.00,5500.00,M,M,M,M,M,M,M,M,M,55.40,KBVU 161015Z AUTO 03003KT 10SM BKN049 BKN055 13/10 A3000 RMK AO2,M
CXP,2023-11-16 10:15,-119.7326,39.1923,1431.00,37.40,37.40,100.00,90.00,3.00,0.00,30.01,M,6.00,M,FEW,M,M,M,6500.00,M,M,M,BR,M,M,M,M,M,M,34.86,KCXP 161015Z AUTO 09003KT 6SM BR FEW065 03/03 A3001 RMK AO2,M
RTS,2023-11-16 10:15,-119.8764,39.6682,1539.00,35.60,35.60,100.00,350.00,5.00,0.00,30.01,M,10.00,M,FEW,SCT,OVC,M,3400.00,4100.00,4800.00,M,M,M,M,M,M,M,M,30.67,KRTS 161015Z AUTO 35005KT 10SM FEW034 SCT041 OVC048 02/02 A3001 RMK AO2,M
MEV,2023-11-16 10:15,-119.7500,38.9963,1441.42,33.80,33.80,100.00,160.00,3.00,0.00,30.01,M,10.00,M,FEW,BKN,BKN,M,600.00,6000.00,8000.00,M,M,M,M,M,M,M,M,30.75,KMEV 161015Z AUTO 16003KT 10SM FEW006 BKN060 BKN080 01/01 A3001 RMK AO2,M
BAM,2023-11-16 10:15,-116.8743,40.5990,1382.36,46.40,35.60,65.83,240.00,4.00,0.00,30.01,M,10.00,M,BKN,OVC,M,M,4500.00,5000.00,M,M,M,M,M,M,M,M,M,44.24,KBAM 161015Z AUTO 24004KT 10SM BKN045 OVC050 08/02 A3001 RMK AO1,M
HTH,2023-11-16 10:15,-118.6315,38.5448,1282.89,41.00,37.40,86.89,180.00,4.00,0.00,30.00,M,10.00,M,FEW,FEW,M,M,3100.00,3900.00,M,M,M,M,M,M,M,M,M,37.93,KHTH 161015Z AUTO 18004KT 10SM FEW031 FEW039 05/03 A3000 RMK A01,M
TMT,2023-11-16 10:15,-117.1971,39.4643,1749.34,32.00,32.00,100.00,80.00,4.00,0.00,30.03,M,1.00,M,BKN,OVC,M,M,100.00,4800.00,M,M,BR,M,M,M,M,M,M,27.42,KTMT 161015Z AUTO 08004KT 1SM BR BKN001 OVC048 00/00 A3003 RMK AO2 VIS 1/2V4 T00000000,M
DRA,2023-11-16 10:16,-116.0278,36.6206,1009.00,51.00,49.00,92.83,300.00,7.00,0.00,30.01,M,10.00,M,SCT,BKN,OVC,M,900.00,1300.00,3700.00,M,M,M,M,M,M,M,M,51.00,KDRA 161016Z AUTO 30007KT 10SM SCT009 BKN013 OVC037 11/09 A3001 RMK AO2 T01060094,M
DRA,2023-11-16 10:20,-116.0278,36.6206,1009.00,51.00,49.00,92.83,320.00,5.00,0.00,30.01,M,10.00,M,FEW,BKN,OVC,M,900.00,1500.00,3700.00,M,M,M,M,M,M,M,M,51.00,KDRA 161020Z AUTO 32005KT 10SM FEW009 BKN015 OVC037 11/09 A3001 RMK AO2 T01060094,M
ELY,2023-11-16 10:23,-114.8453,39.2950,1909.00,40.00,37.00,88.92,200.00,9.00,T,30.04,M,10.00,M,SCT,BKN,OVC,M,2800.00,5500.00,7000.00,M,M,M,M,M,M,M,M,33.46,KELY 161023Z AUTO 20009KT 10SM SCT028 BKN055 OVC070 04/03 A3004 RMK AO2 RAE03 P0000 T00440028,M
DRA,2023-11-16 10:30,-116.0278,36.6206,1009.00,51.00,49.00,92.83,310.00,6.00,0.00,30.02,M,10.00,M,FEW,BKN,OVC,M,900.00,1400.00,3900.00,M,M,M,M,M,M,M,M,51.00,KDRA 161030Z AUTO 31006KT 10SM FEW009 BKN014 OVC039 11/09 A3002 RMK AO2 T01060094,M
EKO,2023-11-16 10:33,-115.7860,40.8242,1367.00,44.00,42.00,92.61,220.00,10.00,0.01,30.01,M,8.00,16.00,FEW,BKN,OVC,M,2000.00,2900.00,4500.00,M,-RA,M,M,M,M,M,M,38.02,KEKO 161033Z AUTO 22010G16KT 8SM -RA FEW020 BKN029 OVC045 07/06 A3001 RMK AO2 RAB24 P0001 T00670056,M
BVU,2023-11-16 10:35,-114.8611,35.9475,671.00,53.60,50.00,87.56,60.00,6.00,0.00,30.00,M,10.00,M,SCT,BKN,M,M,5000.00,5500.00,M,M,M,M,M,M,M,M,M,53.60,KBVU 161035Z AUTO 06006KT 10SM SCT050 BKN055 12/10 A3000 RMK AO2,M
CXP,2023-11-16 10:35,-119.7326,39.1923,1431.00,37.40,37.40,100.00,0.00,0.00,0.00,30.03,M,6.00,M,SCT,M,M,M,600.00,M,M,M,BR,M,M,M,M,M,M,37.40,KCXP 161035Z AUTO 00000KT 6SM BR SCT006 03/03 A3003 RMK AO2,M
RTS,2023-11-16 10:35,-119.8764,39.6682,1539.00,35.60,35.60,100.00,10.00,5.00,0.00,30.02,M,10.00,M,FEW,BKN,BKN,M,4100.00,4800.00,6000.00,M,M,M,M,M,M,M,M,30.67,KRTS 161035Z AUTO 01005KT 10SM FEW041 BKN048 BKN060 02/02 A3002 RMK AO2,M
05U,2023-11-16 10:35,-116.0051,39.6042,1811.23,39.20,37.40,93.19,270.00,5.00,0.00,30.06,M,10.00,M,M,M,M,M,M,M,M,M,M,M,M,M,M,M,M,34.95,K05U 161035Z AUTO 27005KT 10SM 04/03 A3006 RMK A01,M
MEV,2023-11-16 10:35,-119.7500,38.9963,1441.42,33.80,32.00,93.03,210.00,3.00,0.00,30.01,M,0.50,M,SCT,BKN,OVC,M,300.00,700.00,6000.00,M,BR,M,M,M,M,M,M,30.75,KMEV 161035Z AUTO 21003KT 1/2SM BR SCT003 BKN007 OVC060 01/00 A3001 RMK AO2,M
HTH,2023-11-16 10:35,-118.6315,38.5448,1282.89,39.20,35.60,86.79,220.00,5.00,0.00,30.01,M,10.00,M,FEW,M,M,M,4200.00,M,M,M,M,M,M,M,M,M,M,34.95,KHTH 161035Z AUTO 22005KT 10SM FEW042 04/02 A3001 RMK A01,M
TMT,2023-11-16 10:35,-117.1971,39.4643,1749.34,32.00,32.00,100.00,140.00,3.00,0.00,30.04,M,10.00,M,BKN,BKN,M,M,100.00,4700.00,M,M,M,M,M,M,M,M,M,28.69,KTMT 161035Z AUTO 14003KT 10SM BKN001 BKN047 00/00 A3004 RMK AO2 T00000000,M
BAM,2023-11-16 10:35,-116.8743,40.5990,1382.36,46.40,35.60,65.83,200.00,6.00,0.00,30.02,M,10.00,M,OVC,M,M,M,4500.00,M,M,M,M,M,M,M,M,M,M,42.87,KBAM 161035Z AUTO 20006KT 10SM OVC045 08/02 A3002 RMK AO1,M
DRA,2023-11-16 10:51,-116.0278,36.6206,1009.00,51.80,50.00,93.55,280.00,3.00,0.00,30.02,M,10.00,M,BKN,OVC,M,M,900.00,1600.00,M,M,M,M,M,M,M,M,M,51.80,KDRA 161051Z AUTO 28003KT 10SM BKN009 OVC016 11/10 A3002 RMK AO2,M
P68,2023-11-16 10:53,-116.0056,39.6014,1993.00,37.00,35.00,92.39,150.00,4.00,0.00,30.03,1013.60,M,M,M,M,M,M,M,M,M,M,M,M,M,M,M,M,M,33.26,KP68 161053Z AUTO 15004KT 03/02 A3003 RMK AO1 SLP136 T00280017,M
DRA,2023-11-16 10:53,-116.0278,36.6206,1009.00,51.00,50.00,96.36,M,3.00,0.00,30.02,1013.70,10.00,M,BKN,OVC,M,M,900.00,1600.00,M,M,M,M,M,M,M,M,M,51.00,KDRA 161053Z AUTO VRB03KT 10SM BKN009 OVC016 11/10 A3002 RMK AO2 SLP137 T01060100,M
ELY,2023-11-16 10:53,-114.8453,39.2950,1909.00,40.00,37.00,88.92,220.00,9.00,T,30.05,1012.70,10.00,M,BKN,OVC,M,M,3900.00,4900.00,M,M,M,M,M,M,M,M,M,33.46,KELY 161053Z AUTO 22009KT 10SM BKN039 OVC049 04/03 A3005 RMK AO2 RAE03 SLP127 P0000 T00440028,M
VGT,2023-11-16 10:53,-115.1933,36.2111,667.00,57.00,51.00,80.31,60.00,7.00,0.00,30.00,1016.40,10.00,M,SCT,OVC,M,M,3400.00,4400.00,M,M,M,M,M,M,M,M,M,57.00,KVGT 161053Z AUTO 06007KT 10SM SCT034 OVC044 14/11 A3000 RMK AO2 SLP164 T01390106,M
LOL,2023-11-16 10:53,-118.5701,40.0684,1192.43,38.00,35.00,88.83,320.00,4.00,T,30.00,1015.00,10.00,M,OVC,M,M,M,6500.00,M,M,M,M,M,M,M,M,M,M,34.43,KLOL 161053Z AUTO 32004KT 10SM OVC065 03/02 A3000 RMK AO2 RAE0955 SLP150 P0000 T00330017,M
BVU,2023-11-16 10:55,-114.8611,35.9475,671.00,53.60,50.00,87.56,70.00,7.00,0.00,30.01,M,10.00,M,OVC,M,M,M,6000.00,M,M,M,M,M,M,M,M,M,M,53.60,KBVU 161055Z AUTO 07007KT 10SM OVC060 12/10 A3001 RMK AO2,M
CXP,2023-11-16 10:55,-119.7326,39.1923,1431.00,37.40,35.60,93.14,0.00,0.00,0.00,30.03,M,7.00,M,SCT,SCT,SCT,M,600.00,6000.00,7500.00,M,M,M,M,M,M,M,M,37.40,KCXP 161055Z AUTO 00000KT 7SM SCT006 SCT060 SCT075 03/02 A3003 RMK AO2,M
RNO,2023-11-16 10:55,-119.7711,39.4839,1341.00,40.00,37.00,88.92,0.00,0.00,0.00,30.01,1014.30,10.00,M,SCT,M,M,M,5000.00,M,M,M,M,M,M,M,M,M,M,40.00,KRNO 161055Z 00000KT 10SM SCT050 04/03 A3001 RMK AO2 SLP143 T00440028,M
RTS,2023-11-16 10:55,-119.8764,39.6682,1539.00,37.40,35.60,93.14,360.00,5.00,0.00,30.01,M,10.00,M,SCT,BKN,SCT,M,4700.00,6000.00,7000.00,M,M,M,M,M,M,M,M,32.81,KRTS 161055Z AUTO 36005KT 10SM SCT047 BKN060 SCT070 03/02 A3001 RMK AO2,M
05U,2023-11-16 10:55,-116.0051,39.6042,1811.23,37.40,35.60,93.14,300.00,3.00,0.00,30.06,M,10.00,M,M,M,M,M,M,M,M,M,M,M,M,M,M,M,M,34.86,K05U 161055Z AUTO 30003KT 10SM 03/02 A3006 RMK A01,M
MEV,2023-11-16 10:55,-119.7500,38.9963,1441.42,33.80,32.00,93.03,0.00,0.00,0.00,30.02,M,0.25,M,OVC,M,M,M,200.00,M,M,M,FG,M,M,M,M,M,M,33.80,KMEV 161055Z AUTO 00000KT M1/4SM FG OVC002 01/00 A3002 RMK AO2,M
HTH,2023-11-16 10:55,-118.6315,38.5448,1282.89,39.20,35.60,86.79,210.00,5.00,0.00,30.01,M,10.00,M,CLR,M,M,M,M,M,M,M,M,M,M,M,M,M,M,34.95,KHTH 161055Z AUTO 21005KT 10SM CLR 04/02 A3001 RMK A01,M
TMT,2023-11-16 10:55,-117.1971,39.4643,1749.34,32.00,32.00,100.00,0.00,0.00,0.00,30.05,M,10.00,M,SCT,M,M,M,100.00,M,M,M,M,M,M,M,M,M,M,32.00,KTMT 161055Z AUTO 00000KT 10SM SCT001 00/00 A3005 RMK AO2 T00001001,M
INS,2023-11-16 10:55,-115.6733,36.5872,955.00,50.00,23.00,34.39,250.00,7.00,0.00,30.02,1014.00,10.00,M,SCT,M,M,M,4300.00,M,M,M,M,M,M,M,M,M,M,50.00,KINS 161055Z AUTO 25007KT 10SM SCT043 10/M05 A3002 RMK AO2 SLP140 T01011051 $,M
LSV,2023-11-16 10:55,-115.0343,36.2362,570.00,56.50,56.00,98.21,50.00,6.00,0.00,29.98,1014.10,10.00,M,SCT,BKN,M,M,4200.00,5000.00,M,M,M,M,M,M,M,M,M,56.50,KLSV 161055Z 05006KT 10SM SCT042 BKN050 14/13 A2998 RMK AO2A SLP141 T01360133,M
EKO,2023-11-16 10:56,-115.7860,40.8242,1367.00,43.00,39.00,85.66,250.00,5.00,0.04,30.02,1014.20,10.00,M,BKN,OVC,M,M,3000.00,3900.00,M,M,-RA,M,M,M,M,M,M,39.46,KEKO 161056Z AUTO 25005KT 10SM -RA BKN030 OVC039 06/04 A3002 RMK AO2 RAB24 SLP142 P0004 T00610039,M
NFL,2023-11-16 10:56,-118.7010,39.4166,1199.00,37.00,35.00,92.39,120.00,3.00,0.00,29.99,1012.70,10.00,M,CLR,M,M,M,M,M,M,M,M,M,M,M,M,M,M,34.40,KNFL 161056Z AUTO 12003KT 10SM CLR 03/02 A2999 RMK AO2 SLP127 T00280017,M
HND,2023-11-16 10:56,-115.1344,35.9729,742.79,55.00,52.00,89.59,350.00,3.00,0.00,30.02,1017.20,10.00,M,OVC,M,M,M,5000.00,M,M,M,M,M,M,M,M,M,M,55.00,KHND 161056Z 35003KT 10SM OVC050 13/11 A3002 RMK AO2 SLP172 T01280111,M
TPH,2023-11-16 10:56,-117.0904,38.0505,1654.00,43.00,40.00,89.06,0.00,0.00,0.00,30.06,1015.00,10.00,M,OVC,M,M,M,1100.00,M,M,M,M,M,M,M,M,M,M,43.00,KTPH 161056Z AUTO 00000KT 10SM OVC011 06/04 A3006 RMK AO2 SLP150 T00610044,M
LAS,2023-11-16 10:56,-115.1634,36.0719,663.00,57.00,51.00,80.31,40.00,7.00,0.00,30.01,1015.00,10.00,M,BKN,OVC,M,M,3600.00,5000.00,M,M,M,M,M,M,M,M,M,57.00,KLAS 161056Z 04007KT 10SM BKN036 OVC050 14/11 A3001 RMK AO2 SLP150 TOPS OF MTNS OBSCURED DSNT W-N T01390106,M
DRA,2023-11-16 11:00,-116.0278,36.6206,1009.00,51.00,50.00,96.36,0.00,0.00,0.00,30.02,M,10.00,M,OVC,M,M,M,1000.00,M,M,M,M,M,M,M,M,M,M,51.00,KDRA 161100Z AUTO 00000KT 10SM OVC010 11/10 A3002 RMK AO2 CIG 008V013 T01060100,M
BVU,2023-11-16 11:15,-114.8611,35.9475,671.00,53.60,50.00,87.56,60.00,6.00,0.00,30.01,M,10.00,M,OVC,M,M,M,6000.00,M,M,M,M,M,M,M,M,M,M,53.60,KBVU 161115Z AUTO 06006KT 10SM OVC060 12/10 A3001 RMK AO2,M
CXP,2023-11-16 11:15,-119.7326,39.1923,1431.00,35.60,35.60,100.00,0.00,0.00,0.00,30.03,M,4.00,M,SCT,BKN,M,M,400.00,6000.00,M,M,BR,M,M,M,M,M,M,35.60,KCXP 161115Z AUTO 00000KT 4SM BR SCT004 BKN060 02/02 A3003 RMK AO2,M
RTS,2023-11-16 11:15,-119.8764,39.6682,1539.00,37.40,35.60,93.14,0.00,0.00,0.00,30.02,M,10.00,M,CLR,M,M,M,M,M,M,M,M,M,M,M,M,M,M,37.40,KRTS 161115Z AUTO 00000KT 10SM CLR 03/02 A3002 RMK AO2,M
05U,2023-11-16 11:15,-116.0051,39.6042,1811.23,33.80,33.80,100.00,M,5.00,0.00,30.05,M,10.00,M,M,M,M,M,M,M,M,M,M,M,M,M,M,M,M,28.53,K05U 161115Z AUTO VRB05KT 10SM 01/01 A3005 RMK A01,M
MEV,2023-11-16 11:15,-119.7500,38.9963,1441.42,33.80,33.80,100.00,0.00,0.00,0.00,30.01,M,0.25,M,OVC,M,M,M,200.00,M,M,M,FG,M,M,M,M,M,M,33.80,KMEV 161115Z AUTO 00000KT M1/4SM FG OVC002 01/01 A3001 RMK AO2,M
BAM,2023-11-16 11:15,-116.8743,40.5990,1382.36,44.60,41.00,87.09,0.00,0.00,0.00,30.04,M,10.00,M,BKN,OVC,M,M,4500.00,5000.00,M,M,M,M,M,M,M,M,M,44.60,KBAM 161115Z AUTO 00000KT 10SM BKN045 OVC050 07/05 A3004 RMK AO1,M
HTH,2023-11-16 11:15,-118.6315,38.5448,1282.89,39.20,35.60,86.79,230.00,6.00,0.00,30.02,M,10.00,M,CLR,M,M,M,M,M,M,M,M,M,M,M,M,M,M,34.20,KHTH 161115Z AUTO 23006KT 10SM CLR 04/02 A3002 RMK A01,M
TMT,2023-11-16 11:15,-117.1971,39.4643,1749.34,31.60,31.30,98.79,150.00,3.00,0.00,30.05,M,10.00,M,CLR,M,M,M,M,M,M,M,M,M,M,M,M,M,M,28.23,KTMT 161115Z AUTO 15003KT 10SM CLR 00/00 A3005 RMK AO2 T10021004,M
DRA,2023-11-16 11:17,-116.0278,36.6206,1009.00,51.00,50.00,96.36,0.00,0.00,0.00,30.01,M,10.00,M,OVC,M,M,M,900.00,M,M,M,M,M,M,M,M,M,M,51.00,KDRA 161117Z AUTO 00000KT 10SM OVC009 11/10 A3001 RMK AO2 CIG 007V013 T01060100,M
TPH,2023-11-16 11:28,-117.0904,38.0505,1654.00,43.00,41.00,92.58,0.00,0.00,T,30.06,M,7.00,M,OVC,M,M,M,800.00,M,M,M,-RA,M,M,M,M,M,M,43.00,KTPH 161128Z AUTO 00000KT 7SM -RA OVC008 06/05 A3006 RMK AO2 RAB20 CIG 007V011 P0000 T00610050,M
BVU,2023-11-16 11:35,-114.8611,35.9475,671.00,53.60,50.00,87.56,50.00,5.00,0.00,30.01,M,10.00,M,FEW,BKN,BKN,M,3200.00,5000.00,6000.00,M,M,M,M,M,M,M,M,53.60,KBVU 161135Z AUTO 05005KT 10SM FEW032 BKN050 BKN060 12/10 A3001 RMK AO2,M
CXP,2023-11-16 11:35,-119.7326,39.1923,1431.00,37.40,37.40,100.00,0.00,0.00,0.00,30.03,M,5.00,M,SCT,SCT,SCT,M,500.00,5500.00,6500.00,M,BR,M,M,M,M,M,M,37.40,KCXP 161135Z AUTO 00000KT 5SM BR SCT005 SCT055 SCT065 03/03 A3003 RMK AO2,M
RTS,2023-11-16 11:35,-119.8764,39.6682,1539.00,35.60,33.80,93.08,310.00,4.00,0.00,30.02,M,10.00,M,FEW,BKN,BKN,M,3400.00,4600.00,5000.00,M,M,M,M,M,M,M,M,31.62,KRTS 161135Z AUTO 31004KT 10SM FEW034 BKN046 BKN050 02/01 A3002 RMK AO2,M
05U,2023-11-16 11:35,-116.0051,39.6042,1811.23,32.00,32.00,100.00,90.00,3.00,0.00,30.06,M,10.00,M,M,M,M,M,M,M,M,M,M,M,M,M,M,M,M,28.69,K05U 161135Z AUTO 09003KT 10SM 00/M00 A3006 RMK A01,M
MEV,2023-11-16 11:35,-119.7500,38.9963,1441.42,32.00,32.00,100.00,80.00,3.00,0.00,30.02,M,0.25,M,OVC,M,M,M,200.00,M,M,M,FG,M,M,M,M,M,M,28.69,KMEV 161135Z AUTO 08003KT M1/4SM FG OVC002 00/00 A3002 RMK AO2,M
BAM,2023-11-16 11:35,-116.8743,40.5990,1382.36,44.60,41.00,87.09,0.00,0.00,0.00,30.04,M,10.00,M,OVC,M,M,M,4300.00,M,M,M,M,M,M,M,M,M,M,44.60,KBAM 161135Z AUTO 00000KT 10SM OVC043 07/05 A3004 RMK AO1,M
HTH,2023-11-16 11:35,-118.6315,38.5448,1282.89,39.20,35.60,86.79,0.00,0.00,0.00,30.02,M,10.00,M,CLR,M,M,M,M,M,M,M,M,M,M,M,M,M,M,39.20,KHTH 161135Z AUTO 00000KT 10SM CLR 04/02 A3002 RMK A01,M
TMT,2023-11-16 11:35,-117.1971,39.4643,1749.34,31.30,31.00,98.79,180.00,4.00,0.00,30.04,M,10.00,M,CLR,M,M,M,M,M,M,M,M,M,M,M,M,M,M,26.60,KTMT 161135Z AUTO 18004KT 10SM CLR 00/M01 A3004 RMK AO2 T10041006,M
INS,2023-11-16 11:40,-115.6733,36.5872,955.00,50.00,23.00,34.39,260.00,6.00,0.00,30.02,1014.00,10.00,M,BKN,OVC,M,M,2200.00,3200.00,M,M,M,M,M,M,M,M,M,50.00,KINS 161140Z AUTO 26006KT 10SM BKN022 OVC032 10/M05 A3002 RMK AO2 SLP140 $,M
CXP,2023-11-16 11:50,-119.7326,39.1923,1431.00,35.60,35.60,100.00,0.00,0.00,0.00,30.04,M,1.75,M,SCT,BKN,OVC,M,700.00,5000.00,5500.00,M,BR,M,M,M,M,M,M,35.60,KCXP 161150Z AUTO 00000KT 1 3/4SM BR SCT007 BKN050 OVC055 02/02 A3004 RMK AO2 VIS 3/4V5,M
P68,2023-11-16 11:53,-116.0056,39.6014,1993.00,32.00,31.00,96.04,0.00,0.00,0.00,30.04,1014.50,M,M,M,M,M,M,M,M,M,M,M,M,M,M,M,M,M,32.00,KP68 161153Z AUTO 00000KT 00/M01 A3004 RMK AO1 SLP145 70002 T00001006 10061 21011 51008,M
DRA,2023-11-16 11:53,-116.0278,36.6206,1009.00,52.00,50.00,92.86,50.00,3.00,0.00,30.01,1013.60,10.00,M,BKN,OVC,M,M,600.00,1600.00,M,M,M,M,M,M,M,M,M,52.00,KDRA 161153Z AUTO 05003KT 10SM BKN006 OVC016 11/10 A3001 RMK AO2 CIG 006V010 SLP136 60003 70003 T01110100 10117 20094 58001,M
ELY,2023-11-16 11:53,-114.8453,39.2950,1909.00,38.00,35.00,88.83,290.00,4.00,0.00,30.06,1013.60,10.00,M,BKN,M,M,M,4800.00,M,M,M,M,M,M,M,M,M,M,34.43,KELY 161153Z AUTO 29004KT 10SM BKN048 03/02 A3006 RMK AO2 SLP136 60011 70011 T00330017 10094 20033 55010,M
VGT,2023-11-16 11:53,-115.1933,36.2111,667.00,56.00,51.00,83.26,80.00,4.00,0.00,30.00,1016.50,10.00,M,SCT,M,M,M,3700.00,M,M,M,M,M,M,M,M,M,M,56.00,KVGT 161153Z AUTO 08004KT 10SM SCT037 13/11 A3000 RMK AO2 SLP165 60001 70005 T01330106 10150 20133 56005,M
LOL,2023-11-16 11:53,-118.5701,40.0684,1192.43,37.00,34.00,88.78,290.00,3.00,0.00,30.01,1015.40,10.00,M,CLR,M,M,M,M,M,M,M,M,M,M,M,M,M,M,34.40,KLOL 161153Z AUTO 29003KT 10SM CLR 03/01 A3001 RMK AO2 SLP154 60000 T00280011 10100 20017 51009,M
TPH,2023-11-16 11:53,-117.0904,38.0505,1654.00,42.80,41.00,93.30,160.00,3.00,T,30.06,M,10.00,M,OVC,M,M,M,1000.00,M,M,M,M,M,M,M,M,M,M,41.03,KTPH 161153Z AUTO 16003KT 10SM OVC010 06/05 A3006 RMK AO2 RAB20E38 CIG 007V014 P0000,M
BVU,2023-11-16 11:55,-114.8611,35.9475,671.00,53.60,50.00,87.56,50.00,6.00,0.00,30.00,M,10.00,M,BKN,OVC,M,M,3100.00,5000.00,M,M,M,M,M,M,M,M,M,53.60,KBVU 161155Z AUTO 05006KT 10SM BKN031 OVC050 12/10 A3000 RMK AO2,M
RNO,2023-11-16 11:55,-119.7711,39.4839,1341.00,39.00,36.00,88.87,170.00,4.00,0.00,30.02,1014.70,10.00,M,SCT,BKN,M,M,5000.00,8000.00,M,M,M,M,M,M,M,M,M,35.59,KRNO 161155Z 17004KT 10SM SCT050 BKN080 04/02 A3002 RMK AO2 SLP147 60000 70001 T00390022 10078 20039 51006,M
RTS,2023-11-16 11:55,-119.8764,39.6682,1539.00,35.60,33.80,93.08,0.00,0.00,0.00,30.03,M,10.00,M,FEW,FEW,SCT,M,3400.00,4500.00,8000.00,M,M,M,M,M,M,M,M,35.60,KRTS 161155Z AUTO 00000KT 10SM FEW034 FEW045 SCT080 02/01 A3003 RMK AO2,M
05U,2023-11-16 11:55,-116.0051,39.6042,1811.23,32.00,32.00,100.00,0.00,0.00,0.00,30.06,M,10.00,M,M,M,M,M,M,M,M,M,M,M,M,M,M,M,M,32.00,K05U 161155Z AUTO 00000KT 10SM M00/M00 A3006 RMK A01,M
MEV,2023-11-16 11:55,-119.7500,38.9963,1441.42,33.80,33.80,100.00,M,4.00,0.00,30.02,M,0.25,M,OVC,M,M,M,200.00,M,M,M,FG,M,M,M,M,M,M,29.52,KMEV 161155Z AUTO VRB04KT M1/4SM FG OVC002 01/01 A3002 RMK AO2,M
BAM,2023-11-16 11:55,-116.8743,40.5990,1382.36,44.60,41.00,87.09,150.00,3.00,0.00,30.04,M,10.00,M,OVC,M,M,M,4100.00,M,M,M,M,M,M,M,M,M,M,43.09,KBAM 161155Z AUTO 15003KT 10SM OVC041 07/05 A3004 RMK AO1,M
HTH,2023-11-16 11:55,-118.6315,38.5448,1282.89,35.60,33.80,93.08,170.00,4.00,0.00,30.02,M,10.00,M,CLR,M,M,M,M,M,M,M,M,M,M,M,M,M,M,31.62,KHTH 161155Z AUTO 17004KT 10SM CLR 02/01 A3002 RMK A01,M
TMT,2023-11-16 11:55,-117.1971,39.4643,1749.34,30.00,29.50,97.98,240.00,4.00,0.00,30.05,M,10.00,M,CLR,M,M,M,M,M,M,M,M,M,M,M,M,M,M,25.08,KTMT 161155Z AUTO 24004KT 10SM CLR M01/M01 A3005 RMK AO2 60005 70006 T10111014 10049 21011,M
INS,2023-11-16 11:55,-115.6733,36.5872,955.00,50.00,22.60,33.81,240.00,7.00,0.00,30.02,1014.20,10.00,M,OVC,M,M,M,2200.00,M,M,M,M,M,M,M,M,M,M,50.00,KINS 161155Z AUTO 24007KT 10SM OVC022 10/M05 A3002 RMK AO2 OVC V BKN SLP142 60002 70002 T01001052 10147 20090 53001 $,M
LSV,2023-11-16 11:55,-115.0343,36.2362,570.00,56.00,55.80,99.28,30.00,5.00,0.00,29.97,1013.90,10.00,M,SCT,BKN,M,M,4900.00,6000.00,M,M,M,M,M,M,M,M,M,56.00,KLSV 161155Z 03005KT 10SM SCT049 BKN060 13/13 A2997 RMK AO2A SLP139 60001 70008 T01340132 10143 20132 56002,M
EKO,2023-11-16 11:56,-115.7860,40.8242,1367.00,41.00,38.00,88.97,220.00,4.00,0.10,30.02,1014.50,10.00,M,SCT,OVC,M,M,2700.00,3100.00,M,M,-RA,M,M,M,M,M,M,37.93,KEKO 161156Z AUTO 22004KT 10SM -RA SCT027 OVC031 05/03 A3002 RMK AO2 SLP145 P0010 60040 70040 T00500033 10078 20050 51014,M
NFL,2023-11-16 11:56,-118.7010,39.4166,1199.00,35.00,33.00,92.32,10.00,3.00,0.00,30.01,1013.10,9.00,M,CLR,M,M,M,M,M,M,M,M,M,M,M,M,M,M,32.12,KNFL 161156Z AUTO 01003KT 9SM CLR 02/01 A3001 RMK AO2 SLP131 70005 T00170006 10089 20017 51010,M
HND,2023-11-16 11:56,-115.1344,35.9729,742.79,54.00,52.00,92.92,0.00,0.00,0.00,30.02,1017.20,10.00,M,OVC,M,M,M,7000.00,M,M,M,M,M,M,M,M,M,M,54.00,KHND 161156Z 00000KT 10SM OVC070 12/11 A3002 RMK AO2 SLP172 60001 70014 T01220111 10139 20122 56004,M
TPH,2023-11-16 11:56,-117.0904,38.0505,1654.00,43.00,41.00,92.58,0.00,0.00,T,30.06,1015.30,10.00,M,BKN,OVC,M,M,1000.00,2800.00,M,M,M,M,M,M,M,M,M,43.00,KTPH 161156Z AUTO 00000KT 10SM BKN010 OVC028 06/05 A3006 RMK AO2 RAB20E38 SLP153 P0000 60000 70008 T00610050 10067 20056 51006,M
LAS,2023-11-16 11:56,-115.1634,36.0719,663.00,56.00,51.00,83.26,90.00,6.00,0.00,30.01,1015.00,10.00,M,FEW,BKN,OVC,M,3000.00,4800.00,6000.00,M,M,M,M,M,M,M,M,56.00,KLAS 161156Z 09006KT 10SM FEW030 BKN048 OVC060 13/11 A3001 RMK AO2 SLP150 OVC V BKN TOPS OF MTNS OBSCURED DSNT SW-NW 60002 70008 T01330106 10144 20133 56003,M
DRA,2023-11-16 12:08,-116.0278,36.6206,1009.00,52.00,50.00,92.86,10.00,3.00,0.00,30.00,M,10.00,M,SCT,OVC,M,M,600.00,1600.00,M,M,M,M,M,M,M,M,M,52.00,KDRA 161208Z AUTO 01003KT 10SM SCT006 OVC016 11/10 A3000 RMK AO2 T01110100,M
BVU,2023-11-16 12:15,-114.8611,35.9475,671.00,53.60,50.00,87.56,60.00,5.00,0.00,30.00,M,10.00,M,OVC,M,M,M,2900.00,M,M,M,M,M,M,M,M,M,M,53.60,KBVU 161215Z AUTO 06005KT 10SM OVC029 12/10 A3000 RMK AO2,M
CXP,2023-11-16 12:15,-119.7326,39.1923,1431.00,35.60,35.60,100.00,0.00,0.00,0.00,30.04,M,3.00,M,BKN,OVC,M,M,300.00,5000.00,M,M,BR,M,M,M,M,M,M,35.60,KCXP 161215Z AUTO 00000KT 3SM BR BKN003 OVC050 02/02 A3004 RMK AO2,M
RTS,2023-11-16 12:15,-119.8764,39.6682,1539.00,35.60,33.80,93.08,0.00,0.00,0.00,30.03,M,10.00,M,SCT,SCT,BKN,M,3900.00,4600.00,6500.00,M,M,M,M,M,M,M,M,35.60,KRTS 161215Z AUTO 00000KT 10SM SCT039 SCT046 BKN065 02/01 A3003 RMK AO2,M
05U,2023-11-16 12:15,-116.0051,39.6042,1811.23,30.20,30.20,100.00,0.00,0.00,0.00,30.06,M,10.00,M,M,M,M,M,M,M,M,M,M,M,M,M,M,M,M,30.20,K05U 161215Z AUTO 00000KT 10SM M01/M01 A3006 RMK A01,M
MEV,2023-11-16 12:15,-119.7500,38.9963,1441.42,33.80,32.00,93.03,0.00,0.00,0.00,30.03,M,0.25,M,OVC,M,M,M,200.00,M,M,M,FG,M,M,M,M,M,M,33.80,KMEV 161215Z AUTO 00000KT M1/4SM FG OVC002 01/00 A3003 RMK AO2,M
BAM,2023-11-16 12:15,-116.8743,40.5990,1382.36,42.80,41.00,93.30,0.00,0.00,0.00,30.04,M,10.00,M,BKN,OVC,M,M,4300.00,5500.00,M,M,M,M,M,M,M,M,M,42.80,KBAM 161215Z AUTO 00000KT 10SM BKN043 OVC055 06/05 A3004 RMK AO1,M
HTH,2023-11-16 12:15,-118.6315,38.5448,1282.89,37.40,35.60,93.14,220.00,6.00,0.00,30.03,M,10.00,M,CLR,M,M,M,M,M,M,M,M,M,M,M,M,M,M,32.03,KHTH 161215Z AUTO 22006KT 10SM CLR 03/02 A3003 RMK A01,M
TMT,2023-11-16 12:15,-117.1971,39.4643,1749.34,28.00,27.70,98.77,0.00,0.00,0.00,30.05,M,0.50,M,OVC,M,M,M,100.00,M,M,M,FZFG,M,M,M,M,M,M,28.00,KTMT 161215Z AUTO 00000KT 1/2SM FZFG OVC001 M02/M02 A3005 RMK AO2 T10221024,M
DRA,2023-11-16 12:17,-116.0278,36.6206,1009.00,52.00,51.00,96.37,0.00,0.00,0.00,30.00,M,10.00,M,BKN,OVC,M,M,600.00,1800.00,M,M,M,M,M,M,M,M,M,52.00,KDRA 161217Z AUTO 00000KT 10SM BKN006 OVC018 11/11 A3000 RMK AO2 T01110106,M
BVU,2023-11-16 12:35,-114.8611,35.9475,671.00,53.60,50.00,87.56,50.00,6.00,0.00,29.99,M,10.00,M,SCT,M,M,M,2900.00,M,M,M,M,M,M,M,M,M,M,53.60,KBVU 161235Z AUTO 05006KT 10SM SCT029 12/10 A2999 RMK AO2,M
CXP,2023-11-16 12:35,-119.7326,39.1923,1431.00,37.40,37.40,100.00,0.00,0.00,0.00,30.04,M,0.25,M,OVC,M,M,M,200.00,M,M,M,FG,M,M,M,M,M,M,37.40,KCXP 161235Z AUTO 00000KT 1/4SM FG OVC002 03/03 A3004 RMK AO2,M
RTS,2023-11-16 12:35,-119.8764,39.6682,1539.00,35.60,35.60,100.00,0.00,0.00,0.00,30.03,M,10.00,M,SCT,BKN,OVC,M,3800.00,4500.00,6500.00,M,M,M,M,M,M,M,M,35.60,KRTS 161235Z AUTO 00000KT 10SM SCT038 BKN045 OVC065 02/02 A3003 RMK AO2,M
05U,2023-11-16 12:35,-116.0051,39.6042,1811.23,32.00,32.00,100.00,350.00,3.00,0.00,30.07,M,10.00,M,M,M,M,M,M,M,M,M,M,M,M,M,M,M,M,28.69,K05U 161235Z AUTO 35003KT 10SM 00/M00 A3007 RMK A01,M
MEV,2023-11-16 12:35,-119.7500,38.9963,1441.42,33.80,33.80,100.00,280.00,6.00,0.00,30.03,M,0.25,M,OVC,M,M,M,200.00,M,M,M,FG,M,M,M,M,M,M,27.70,KMEV 161235Z AUTO 28006KT 1/4SM FG OVC002 01/01 A3003 RMK AO2,M
BAM,2023-11-16 12:35,-116.8743,40.5990,1382.36,42.80,41.00,93.30,0.00,0.00,0.00,30.04,M,10.00,M,SCT,BKN,OVC,M,3800.00,4600.00,5500.00,M,M,M,M,M,M,M,M,42.80,KBAM 161235Z AUTO 00000KT 10SM SCT038 BKN046 OVC055 06/05 A3004 RMK AO1,M
HTH,2023-11-16 12:35,-118.6315,38.5448,1282.89,37.40,35.60,93.14,230.00,5.00,0.00,30.03,M,10.00,M,CLR,M,M,M,M,M,M,M,M,M,M,M,M,M,M,32.81,KHTH 161235Z AUTO 23005KT 10SM CLR 03/02 A3003 RMK A01,M
TMT,2023-11-16 12:35,-117.1971,39.4643,1749.34,27.30,27.00,98.77,0.00,0.00,0.00,30.06,M,0.50,M,OVC,M,M,M,100.00,M,M,M,FZFG,M,M,M,M,M,M,27.30,KTMT 161235Z AUTO 00000KT 1/2SM FZFG OVC001 M03/M03 A3006 RMK AO2 T10261027,M
TPH,2023-11-16 12:36,-117.0904,38.0505,1654.00,43.00,41.00,92.58,0.00,0.00,0.00,30.06,M,10.00,M,SCT,OVC,M,M,1100.00,3000.00,M,M,M,M,M,M,M,M,M,43.00,KTPH 161236Z AUTO 00000KT 10SM SCT011 OVC030 06/05 A3006 RMK AO2 T00610050,M
DRA,2023-11-16 12:38,-116.0278,36.6206,1009.00,52.00,49.00,89.46,0.00,0.00,0.00,30.00,M,10.00,M,SCT,BKN,OVC,M,600.00,1100.00,3800.00,M,M,M,M,M,M,M,M,52.00,KDRA 161238Z AUTO 00000KT 10SM SCT006 BKN011 OVC038 11/09 A3000 RMK AO2 T01110094,M
LOL,2023-11-16 12:49,-118.5701,40.0684,1192.43,30.20,30.20,100.00,80.00,3.00,0.00,30.03,M,2.00,M,FEW,M,M,M,6000.00,M,M,M,BR,M,M,M,M,M,M,26.63,KLOL 161249Z AUTO 08003KT 2SM BR FEW060 M01/M01 A3003 RMK AO2,M
P68,2023-11-16 12:53,-116.0056,39.6014,1993.00,33.00,32.00,96.06,200.00,4.00,0.00,30.04,1014.70,M,M,M,M,M,M,M,M,M,M,M,M,M,M,M,M,M,28.59,KP68 161253Z AUTO 20004KT 01/00 A3004 RMK AO1 SLP147 T00060000,M
DRA,2023-11-16 12:53,-116.0278,36.6206,1009.00,52.00,49.00,89.46,0.00,0.00,0.00,30.01,1013.70,10.00,M,FEW,BKN,OVC,M,800.00,2400.00,3800.00,M,M,M,M,M,M,M,M,52.00,KDRA 161253Z AUTO 00000KT 10SM FEW008 BKN024 OVC038 11/09 A3001 RMK AO2 SLP137 T01110094,M
ELY,2023-11-16 12:53,-114.8453,39.2950,1909.00,37.00,35.00,92.39,110.00,6.00,0.00,30.05,1014.10,10.00,M,FEW,M,M,M,4700.00,M,M,M,M,M,M,M,M,M,M,31.55,KELY 161253Z AUTO 11006KT 10SM FEW047 03/02 A3005 RMK AO2 SLP141 T00280017,M
VGT,2023-11-16 12:53,-115.1933,36.2111,667.00,54.00,51.00,89.55,340.00,4.00,0.00,30.01,1017.20,10.00,M,BKN,M,M,M,2600.00,M,M,M,M,M,M,M,M,M,M,54.00,KVGT 161253Z AUTO 34004KT 10SM BKN026 12/11 A3001 RMK AO2 SLP172 T01220106,M
LOL,2023-11-16 12:53,-118.5701,40.0684,1192.43,32.00,30.00,92.22,70.00,5.00,0.00,30.03,1016.80,4.00,M,FEW,M,M,M,6000.00,M,M,M,BR,M,M,M,M,M,M,26.40,KLOL 161253Z AUTO 07005KT 4SM BR FEW060 00/M01 A3003 RMK AO2 SLP168 T00001011,M
BVU,2023-11-16 12:55,-114.8611,35.9475,671.00,53.60,50.00,87.56,30.00,6.00,0.00,30.00,M,10.00,M,BKN,M,M,M,3000.00,M,M,M,M,M,M,M,M,M,M,53.60,KBVU 161255Z AUTO 03006KT 10SM BKN030 12/10 A3000 RMK AO2,M
CXP,2023-11-16 12:55,-119.7326,39.1923,1431.00,37.40,37.40,100.00,0.00,0.00,0.00,30.05,M,0.25,M,OVC,M,M,M,300.00,M,M,M,FG,M,M,M,M,M,M,37.40,KCXP 161255Z AUTO 00000KT 1/4SM FG OVC003 03/03 A3005 RMK AO2,M
RNO,2023-11-16 12:55,-119.7711,39.4839,1341.00,40.00,38.00,92.49,0.00,0.00,0.00,30.04,1015.30,10.00,M,BKN,OVC,M,M,5000.00,9000.00,M,M,M,M,M,M,M,M,M,40.00,KRNO 161255Z 00000KT 10SM BKN050 OVC090 04/03 A3004 RMK AO2 SLP153 T00440033,M
RTS,2023-11-16 12:55,-119.8764,39.6682,1539.00,37.40,35.60,93.14,0.00,0.00,0.00,30.04,M,10.00,M,BKN,OVC,M,M,3500.00,4400.00,M,M,M,M,M,M,M,M,M,37.40,KRTS 161255Z AUTO 00000KT 10SM BKN035 OVC044 03/02 A3004 RMK AO2,M
05U,2023-11-16 12:55,-116.0051,39.6042,1811.23,32.00,32.00,100.00,0.00,0.00,0.00,30.07,M,4.00,M,M,M,M,M,M,M,M,M,BR,M,M,M,M,M,M,32.00,K05U 161255Z AUTO 00000KT 4SM BR 00/M00 A3007 RMK A01,M
MEV,2023-11-16 12:55,-119.7500,38.9963,1441.42,33.80,33.80,100.00,240.00,5.00,0.00,30.03,M,0.25,M,OVC,M,M,M,200.00,M,M,M,FG,M,M,M,M,M,M,28.53,KMEV 161255Z AUTO 24005KT M1/4SM FG OVC002 01/01 A3003 RMK AO2,M
BAM,2023-11-16 12:55,-116.8743,40.5990,1382.36,42.80,41.00,93.30,360.00,5.00,0.00,30.05,M,10.00,M,SCT,SCT,OVC,M,3800.00,4600.00,5500.00,M,M,M,M,M,M,M,M,39.22,KBAM 161255Z AUTO 36005KT 10SM SCT038 SCT046 OVC055 06/05 A3005 RMK AO1,M
HTH,2023-11-16 12:55,-118.6315,38.5448,1282.89,37.40,35.60,93.14,190.00,5.00,0.00,30.03,M,10.00,M,CLR,M,M,M,M,M,M,M,M,M,M,M,M,M,M,32.81,KHTH 161255Z AUTO 19005KT 10SM CLR 03/02 A3003 RMK A01,M
TMT,2023-11-16 12:55,-117.1971,39.4643,1749.34,28.80,28.60,99.18,0.00,0.00,0.00,30.06,M,0.25,M,OVC,M,M,M,100.00,M,M,M,FZFG,M,M,M,M,M,M,28.80,KTMT 161255Z AUTO 00000KT M1/4SM FZFG OVC001 M02/M02 A3006 RMK AO2 T10181019,M
INS,2023-11-16 12:55,-115.6733,36.5872,955.00,51.00,24.40,35.14,100.00,3.00,0.00,30.02,1014.20,10.00,M,OVC,M,M,M,2000.00,M,M,M,M,M,M,M,M,M,M,51.00,KINS 161255Z AUTO 10003KT 10SM OVC020 11/M04 A3002 RMK AO2 SLP142 T01061042 $,M
LSV,2023-11-16 12:55,-115.0343,36.2362,570.00,55.20,55.00,99.28,70.00,8.00,0.00,29.99,1014.60,10.00,M,SCT,SCT,M,M,5500.00,7000.00,M,M,M,M,M,M,M,M,M,55.20,KLSV 161255Z 07008KT 10SM SCT055 SCT070 13/13 A2999 RMK AO2A SLP146 T01290127,M
EKO,2023-11-16 12:56,-115.7860,40.8242,1367.00,41.00,38.00,88.97,180.00,4.00,0.04,30.03,1015.30,7.00,M,OVC,M,M,M,3000.00,M,M,M,-RA,M,M,M,M,M,M,37.93,KEKO 161256Z AUTO 18004KT 7SM -RA OVC030 05/03 A3003 RMK AO2 SLP153 P0004 T00500033,M
NFL,2023-11-16 12:56,-118.7010,39.4166,1199.00,34.00,32.00,92.29,0.00,0.00,0.00,30.02,1013.60,10.00,M,FEW,M,M,M,8000.00,M,M,M,M,M,M,M,M,M,M,34.00,KNFL 161256Z AUTO 00000KT 10SM FEW080 01/00 A3002 RMK AO2 SLP136 T00110000,M
HND,2023-11-16 12:56,-115.1344,35.9729,742.79,54.00,51.00,89.55,320.00,4.00,0.00,30.03,1017.60,10.00,M,OVC,M,M,M,3500.00,M,M,M,M,M,M,M,M,M,M,54.00,KHND 161256Z 32004KT 10SM OVC035 12/11 A3003 RMK AO2 SLP176 T01220106,M
TPH,2023-11-16 12:56,-117.0904,38.0505,1654.00,43.00,42.00,96.23,0.00,0.00,0.00,30.06,1015.20,10.00,M,OVC,M,M,M,2800.00,M,M,M,M,M,M,M,M,M,M,43.00,KTPH 161256Z AUTO 00000KT 10SM OVC028 06/06 A3006 RMK AO2 SLP152 T00610056,M
LAS,2023-11-16 12:56,-115.1634,36.0719,663.00,56.00,51.00,83.26,0.00,0.00,0.00,30.01,1015.20,10.00,M,FEW,OVC,M,M,2500.00,4200.00,M,M,M,M,M,M,M,M,M,56.00,KLAS 161256Z 00000KT 10SM FEW025 OVC042 13/11 A3001 RMK AO2 SLP152 MTNS OBSCURED DSNT SW-NW T01330106,M
LOL,2023-11-16 13:00,-118.5701,40.0684,1192.43,32.00,31.00,96.04,110.00,3.00,0.00,30.03,M,4.00,M,FEW,M,M,M,200.00,M,M,M,BR,M,M,M,M,M,M,28.69,KLOL 161300Z AUTO 11003KT 4SM BR FEW002 00/M01 A3003 RMK AO2 T00001006,M
BVU,2023-11-16 13:15,-114.8611,35.9475,671.00,53.60,50.00,87.56,50.00,7.00,0.00,30.00,M,10.00,M,BKN,M,M,M,3000.00,M,M,M,M,M,M,M,M,M,M,53.60,KBVU 161315Z AUTO 05007KT 10SM BKN030 12/10 A3000 RMK AO2,M
CXP,2023-11-16 13:15,-119.7326,39.1923,1431.00,35.60,35.60,100.00,150.00,4.00,0.00,30.05,M,2.50,M,BKN,BKN,BKN,M,5500.00,6500.00,8000.00,M,BR,M,M,M,M,M,M,31.62,KCXP 161315Z AUTO 15004KT 2 1/2SM BR BKN055 BKN065 BKN080 02/02 A3005 RMK AO2 VIS 1 3/4V4,M
RTS,2023-11-16 13:15,-119.8764,39.6682,1539.00,37.40,37.40,100.00,0.00,0.00,0.00,30.05,M,10.00,M,OVC,M,M,M,3400.00,M,M,M,M,M,M,M,M,M,M,37.40,KRTS 161315Z AUTO 00000KT 10SM OVC034 03/03 A3005 RMK AO2,M
05U,2023-11-16 13:15,-116.0051,39.6042,1811.23,28.40,28.40,100.00,0.00,0.00,0.00,30.08,M,10.00,M,M,M,M,M,M,M,M,M,M,M,M,M,M,M,M,28.40,K05U 161315Z AUTO 00000KT 10SM M02/M02 A3008 RMK A01,M
MEV,2023-11-16 13:15,-119.7500,38.9963,1441.42,33.80,33.80,100.00,0.00,0.00,0.00,30.04,M,0.25,M,OVC,M,M,M,200.00,M,M,M,FG,M,M,M,M,M,M,33.80,KMEV 161315Z AUTO 00000KT M1/4SM FG OVC002 01/01 A3004 RMK AO2,M
BAM,2023-11-16 13:15,-116.8743,40.5990,1382.36,42.80,39.20,86.99,0.00,0.00,0.00,30.04,M,10.00,M,BKN,OVC,M,M,5000.00,6500.00,M,M,M,M,M,M,M,M,M,42.80,KBAM 161315Z AUTO 00000KT 10SM BKN050 OVC065 06/04 A3004 RMK AO1,M
HTH,2023-11-16 13:15,-118.6315,38.5448,1282.89,39.20,37.40,93.19,0.00,0.00,0.00,30.03,M,10.00,M,CLR,M,M,M,M,M,M,M,M,M,M,M,M,M,M,39.20,KHTH 161315Z AUTO 00000KT 10SM CLR 04/03 A3003 RMK A01,M
TMT,2023-11-16 13:15,-117.1971,39.4643,1749.34,30.00,30.00,100.00,0.00,0.00,0.00,30.07,M,0.25,M,OVC,M,M,M,100.00,M,M,M,FZFG,M,M,M,M,M,M,30.00,KTMT 161315Z AUTO 00000KT M1/4SM FZFG OVC001 M01/M01 A3007 RMK AO2 T10111011,M
LOL,2023-11-16 13:28,-118.5701,40.0684,1192.43,30.00,28.00,92.15,0.00,0.00,0.00,30.04,M,2.00,M,BKN,M,M,M,5500.00,M,M,M,BR,M,M,M,M,M,M,30.00,KLOL 161328Z AUTO 00000KT 2SM BR BKN055 M01/M02 A3004 RMK AO2 T10111022,M
BVU,2023-11-16 13:35,-114.8611,35.9475,671.00,53.60,50.00,87.56,40.00,4.00,0.00,30.01,M,10.00,M,OVC,M,M,M,3000.00,M,M,M,M,M,M,M,M,M,M,53.60,KBVU 161335Z AUTO 04004KT 10SM OVC030 12/10 A3001 RMK AO2,M
CXP,2023-11-16 13:35,-119.7326,39.1923,1431.00,35.60,35.60,100.00,0.00,0.00,0.00,30.06,M,0.25,M,OVC,M,M,M,200.00,M,M,M,FG,M,M,M,M,M,M,35.60,KCXP 161335Z AUTO 00000KT M1/4SM FG OVC002 02/02 A3006 RMK AO2,M
RTS,2023-11-16 13:35,-119.8764,39.6682,1539.00,37.40,37.40,100.00,0.00,0.00,0.00,30.05,M,3.00,M,OVC,M,M,M,3300.00,M,M,M,-DZ,M,M,M,M,M,M,37.40,KRTS 161335Z AUTO 00000KT 3SM -DZ OVC033 03/03 A3005 RMK AO2,M
05U,2023-11-16 13:35,-116.0051,39.6042,1811.23,28.40,28.40,100.00,10.00,3.00,0.00,30.09,M,10.00,M,M,M,M,M,M,M,M,M,M,M,M,M,M,M,M,24.57,K05U 161335Z AUTO 01003KT 10SM M02/M02 A3009 RMK A01,M
MEV,2023-11-16 13:35,-119.7500,38.9963,1441.42,33.80,33.80,100.00,0.00,0.00,0.00,30.04,M,0.25,M,OVC,M,M,M,200.00,M,M,M,FG,M,M,M,M,M,M,33.80,KMEV 161335Z AUTO 00000KT M1/4SM FG OVC002 01/01 A3004 RMK AO2,M
BAM,2023-11-16 13:35,-116.8743,40.5990,1382.36,41.00,37.40,86.89,0.00,0.00,0.00,30.06,M,10.00,M,SCT,BKN,OVC,M,4700.00,6500.00,8000.00,M,M,M,M,M,M,M,M,41.00,KBAM 161335Z AUTO 00000KT 10SM SCT047 BKN065 OVC080 05/03 A3006 RMK AO1,M
HTH,2023-11-16 13:35,-118.6315,38.5448,1282.89,37.40,35.60,93.14,230.00,4.00,0.00,30.04,M,10.00,M,CLR,M,M,M,M,M,M,M,M,M,M,M,M,M,M,33.73,KHTH 161335Z AUTO 23004KT 10SM CLR 03/02 A3004 RMK A01,M
TMT,2023-11-16 13:35,-117.1971,39.4643,1749.34,29.00,29.00,100.00,0.00,0.00,0.00,30.07,M,1.50,M,SCT,SCT,OVC,M,100.00,4100.00,4900.00,M,BR,M,M,M,M,M,M,29.00,KTMT 161335Z AUTO 00000KT 1 1/2SM BR SCT001 SCT041 OVC049 M02/M02 A3007 RMK AO2 T10161017,M
LOL,2023-11-16 13:37,-118.5701,40.0684,1192.43,30.00,29.00,96.00,0.00,0.00,0.00,30.04,M,10.00,M,BKN,M,M,M,5500.00,M,M,M,M,M,M,M,M,M,M,30.00,KLOL 161337Z AUTO 00000KT 10SM BKN055 M01/M02 A3004 RMK AO2 T10111017,M
P68,2023-11-16 13:53,-116.0056,39.6014,1993.00,30.00,29.00,96.00,190.00,6.00,0.00,30.07,1016.10,M,M,M,M,M,M,M,M,M,M,M,M,M,M,M,M,M,23.12,KP68 161353Z AUTO 19006KT M01/M02 A3007 RMK AO1 SLP161 T10111017,M
DRA,2023-11-16 13:53,-116.0278,36.6206,1009.00,51.00,49.00,92.83,0.00,0.00,0.00,30.02,1014.30,10.00,M,OVC,M,M,M,2400.00,M,M,M,M,M,M,M,M,M,M,51.00,KDRA 161353Z AUTO 00000KT 10SM OVC024 11/09 A3002 RMK AO2 SLP143 T01060094,M
ELY,2023-11-16 13:53,-114.8453,39.2950,1909.00,34.00,31.00,88.63,60.00,4.00,0.00,30.07,1015.60,10.00,M,CLR,M,M,M,M,M,M,M,M,M,M,M,M,M,M,29.76,KELY 161353Z AUTO 06004KT 10SM CLR 01/M01 A3007 RMK AO2 SLP156 T00111006,M
VGT,2023-11-16 13:53,-115.1933,36.2111,667.00,56.00,51.00,83.26,70.00,3.00,0.00,30.02,1017.50,10.00,M,OVC,M,M,M,2600.00,M,M,M,M,M,M,M,M,M,M,56.00,KVGT 161353Z 07003KT 10SM OVC026 13/11 A3002 RMK AO2 SLP175 T01330106,M
LOL,2023-11-16 13:53,-118.5701,40.0684,1192.43,28.00,26.00,92.08,0.00,0.00,0.00,30.04,1018.10,4.00,M,SCT,M,M,M,5500.00,M,M,M,BR,M,M,M,M,M,M,28.00,KLOL 161353Z AUTO 00000KT 4SM BR SCT055 M02/M03 A3004 RMK AO2 SLP181 T10221033,M
BVU,2023-11-16 13:55,-114.8611,35.9475,671.00,55.40,50.00,81.99,40.00,3.00,0.00,30.01,M,10.00,M,OVC,M,M,M,3100.00,M,M,M,M,M,M,M,M,M,M,55.40,KBVU 161355Z AUTO 04003KT 10SM OVC031 13/10 A3001 RMK AO2,M
CXP,2023-11-16 13:55,-119.7326,39.1923,1431.00,35.60,35.60,100.00,340.00,5.00,0.00,30.06,M,0.25,M,OVC,M,M,M,200.00,M,M,M,FG,M,M,M,M,M,M,30.67,KCXP 161355Z AUTO 34005KT M1/4SM FG OVC002 02/02 A3006 RMK AO2,M
RNO,2023-11-16 13:55,-119.7711,39.4839,1341.00,40.00,37.00,88.92,150.00,4.00,0.00,30.04,1015.50,10.00,M,SCT,BKN,M,M,5000.00,9000.00,M,M,M,M,M,M,M,M,M,36.76,KRNO 161355Z 15004KT 10SM SCT050 BKN090 04/03 A3004 RMK AO2 SLP155 T00440028,M
RTS,2023-11-16 13:55,-119.8764,39.6682,1539.00,37.40,35.60,93.14,320.00,6.00,0.00,30.05,M,9.00,M,FEW,BKN,OVC,M,3100.00,4500.00,6000.00,M,M,M,M,M,M,M,M,32.03,KRTS 161355Z AUTO 32006KT 9SM FEW031 BKN045 OVC060 03/02 A3005 RMK AO2,M
05U,2023-11-16 13:55,-116.0051,39.6042,1811.23,30.20,30.20,100.00,350.00,5.00,0.00,30.09,M,10.00,M,M,M,M,M,M,M,M,M,M,M,M,M,M,M,M,24.26,K05U 161355Z AUTO 35005KT 10SM M01/M01 A3009 RMK A01,M
MEV,2023-11-16 13:55,-119.7500,38.9963,1441.42,33.80,33.80,100.00,130.00,3.00,0.00,30.05,M,0.25,M,OVC,M,M,M,200.00,M,M,M,FG,M,M,M,M,M,M,30.75,KMEV 161355Z AUTO 13003KT M1/4SM FG OVC002 01/01 A3005 RMK AO2,M
BAM,2023-11-16 13:55,-116.8743,40.5990,1382.36,41.00,37.40,86.89,0.00,0.00,0.00,30.07,M,10.00,M,SCT,SCT,BKN,M,3600.00,4900.00,6500.00,M,M,M,M,M,M,M,M,41.00,KBAM 161355Z AUTO 00000KT 10SM SCT036 SCT049 BKN065 05/03 A3007 RMK AO1,M
HTH,2023-11-16 13:55,-118.6315,38.5448,1282.89,37.40,35.60,93.14,220.00,7.00,0.00,30.04,M,10.00,M,CLR,M,M,M,M,M,M,M,M,M,M,M,M,M,M,31.36,KHTH 161355Z AUTO 22007KT 10SM CLR 03/02 A3004 RMK A01,M
TMT,2023-11-16 13:55,-117.1971,39.4643,1749.34,30.00,30.00,100.00,0.00,0.00,0.00,30.08,M,5.00,M,SCT,BKN,OVC,M,100.00,4700.00,6000.00,M,BR,M,M,M,M,M,M,30.00,KTMT 161355Z AUTO 00000KT 5SM BR SCT001 BKN047 OVC060 M01/M01 A3008 RMK AO2 T10111011,M
INS,2023-11-16 13:55,-115.6733,36.5872,955.00,52.00,25.00,34.72,0.00,0.00,0.00,30.03,1014.50,10.00,M,OVC,M,M,M,1800.00,M,M,M,M,M,M,M,M,M,M,52.00,KINS 161355Z AUTO 00000KT 10SM OVC018 11/M04 A3003 RMK AO2 SLP145 T01111038 $,M
LSV,2023-11-16 13:55,-115.0343,36.2362,570.00,55.40,55.00,98.56,60.00,13.00,0.00,30.00,1014.90,10.00,M,BKN,BKN,M,M,3200.00,4600.00,M,M,M,M,M,M,M,M,M,55.40,KLSV 161355Z 06013KT 10SM BKN032 BKN046 13/13 A3000 RMK AO2A SLP149 T01300128,M
EKO,2023-11-16 13:56,-115.7860,40.8242,1367.00,41.00,39.00,92.52,220.00,4.00,0.02,30.05,1016.10,10.00,M,OVC,M,M,M,3900.00,M,M,M,M,M,M,M,M,M,M,37.93,KEKO 161356Z AUTO 22004KT 10SM OVC039 05/04 A3005 RMK AO2 RAE20 SLP161 P0002 T00500039,M
NFL,2023-11-16 13:56,-118.7010,39.4166,1199.00,37.00,35.00,92.39,20.00,4.00,0.00,30.03,1014.00,9.00,M,OVC,M,M,M,7000.00,M,M,M,M,M,M,M,M,M,M,33.26,KNFL 161356Z AUTO 02004KT 9SM OVC070 03/02 A3003 RMK AO2 SLP140 T00280017,M
HND,2023-11-16 13:56,-115.1344,35.9729,742.79,53.00,51.00,92.89,0.00,0.00,0.00,30.04,1018.30,10.00,M,BKN,BKN,M,M,1700.00,3300.00,M,M,M,M,M,M,M,M,M,53.00,KHND 161356Z 00000KT 10SM BKN017 BKN033 12/11 A3004 RMK AO2 SLP183 T01170106,M
TPH,2023-11-16 13:56,-117.0904,38.0505,1654.00,42.00,41.00,96.21,310.00,3.00,0.00,30.07,1016.80,10.00,M,FEW,OVC,M,M,500.00,2900.00,M,M,M,M,M,M,M,M,M,40.12,KTPH 161356Z AUTO 31003KT 10SM FEW005 OVC029 06/05 A3007 RMK AO2 SLP168 T00560050,M
LAS,2023-11-16 13:56,-115.1634,36.0719,663.00,57.00,51.00,80.31,0.00,0.00,0.00,30.03,1015.90,10.00,M,FEW,BKN,BKN,M,1500.00,4600.00,6500.00,M,M,M,M,M,M,M,M,57.00,KLAS 161356Z 00000KT 10SM FEW015 BKN046 BKN065 14/11 A3003 RMK AO2 SLP159 T01390106,M
TPH,2023-11-16 14:03,-117.0904,38.0505,1654.00,43.00,41.00,92.58,310.00,3.00,0.00,30.07,M,10.00,M,SCT,OVC,M,M,500.00,3000.00,M,M,M,M,M,M,M,M,M,41.26,KTPH 161403Z AUTO 31003KT 10SM SCT005 OVC030 06/05 A3007 RMK AO2 T00610050,M
LSV,2023-11-16 14:05,-115.0343,36.2362,570.00,55.40,55.40,100.00,60.00,9.00,0.00,30.00,1015.10,10.00,M,CLR,M,M,M,M,M,M,M,M,M,M,M,M,M,M,55.40,KLSV 161405Z AUTO 06009KT 10SM CLR 13/13 A3000 RMK AO2 SLP151,M
TPH,2023-11-16 14:13,-117.0904,38.0505,1654.00,43.00,41.00,92.58,0.00,0.00,0.00,30.07,M,10.00,M,BKN,OVC,M,M,500.00,3000.00,M,M,M,M,M,M,M,M,M,43.00,KTPH 161413Z AUTO 00000KT 10SM BKN005 OVC030 06/05 A3007 RMK AO2 T00610050,M
BVU,2023-11-16 14:15,-114.8611,35.9475,671.00,55.40,50.00,81.99,60.00,5.00,0.00,30.02,M,10.00,M,OVC,M,M,M,3200.00,M,M,M,M,M,M,M,M,M,M,55.40,KBVU 161415Z AUTO 06005KT 10SM OVC032 13/10 A3002 RMK AO2,M
CXP,2023-11-16 14:15,-119.7326,39.1923,1431.00,35.60,35.60,100.00,0.00,0.00,0.00,30.06,M,1.00,M,OVC,M,M,M,200.00,M,M,M,BR,M,M,M,M,M,M,35.60,KCXP 161415Z AUTO 00000KT 1SM BR OVC002 02/02 A3006 RMK AO2,M
RTS,2023-11-16 14:15,-119.8764,39.6682,1539.00,37.40,37.40,100.00,20.00,3.00,0.00,30.05,M,10.00,M,FEW,SCT,OVC,M,3400.00,4400.00,5000.00,M,-DZ,M,M,M,M,M,M,34.86,KRTS 161415Z AUTO 02003KT 10SM -DZ FEW034 SCT044 OVC050 03/03 A3005 RMK AO2,M
05U,2023-11-16 14:15,-116.0051,39.6042,1811.23,32.00,30.20,92.97,0.00,0.00,0.00,30.10,M,10.00,M,M,M,M,M,M,M,M,M,M,M,M,M,M,M,M,32.00,K05U 161415Z AUTO 00000KT 10SM M00/M01 A3010 RMK A01,M
MEV,2023-11-16 14:15,-119.7500,38.9963,1441.42,33.80,33.80,100.00,0.00,0.00,0.00,30.06,M,0.25,M,OVC,M,M,M,200.00,M,M,M,FG,M,M,M,M,M,M,33.80,KMEV 161415Z AUTO 00000KT M1/4SM FG OVC002 01/01 A3006 RMK AO2,M
BAM,2023-11-16 14:15,-116.8743,40.5990,1382.36,41.00,37.40,86.89,40.00,3.00,0.00,30.07,M,10.00,M,SCT,OVC,M,M,3600.00,6500.00,M,M,M,M,M,M,M,M,M,38.98,KBAM 161415Z AUTO 04003KT 10SM SCT036 OVC065 05/03 A3007 RMK AO1,M
HTH,2023-11-16 14:15,-118.6315,38.5448,1282.89,37.40,35.60,93.14,220.00,3.00,0.00,30.05,M,10.00,M,CLR,M,M,M,M,M,M,M,M,M,M,M,M,M,M,34.86,KHTH 161415Z AUTO 22003KT 10SM CLR 03/02 A3005 RMK A01,M
TMT,2023-11-16 14:15,-117.1971,39.4643,1749.34,28.60,28.40,99.18,340.00,5.00,0.00,30.09,M,0.75,M,OVC,M,M,M,100.00,M,M,M,BR,M,M,M,M,M,M,22.36,KTMT 161415Z AUTO 34005KT 3/4SM BR OVC001 M02/M02 A3009 RMK AO2 T10191020,M
LSV,2023-11-16 14:19,-115.0343,36.2362,570.00,55.40,55.40,100.00,60.00,10.00,0.00,30.00,1015.10,10.00,M,OVC,M,M,M,3200.00,M,M,M,M,M,M,M,M,M,M,55.40,KLSV 161419Z 06010KT 10SM OVC032 13/13 A3000 RMK SLP151,M
RTS,2023-11-16 14:35,-119.8764,39.6682,1539.00,37.40,37.40,100.00,0.00,0.00,0.00,30.06,M,10.00,M,BKN,OVC,M,M,4000.00,5000.00,M,M,M,M,M,M,M,M,M,37.40,KRTS 161435Z AUTO 00000KT 10SM BKN040 OVC050 03/03 A3006 RMK AO2,M
BVU,2023-11-16 14:35,-114.8611,35.9475,671.00,55.40,50.00,81.99,60.00,4.00,0.00,30.03,M,10.00,M,BKN,OVC,M,M,3400.00,4100.00,M,M,M,M,M,M,M,M,M,55.40,KBVU 161435Z AUTO 06004KT 10SM BKN034 OVC041 13/10 A3003 RMK AO2,M
CXP,2023-11-16 14:35,-119.7326,39.1923,1431.00,35.60,37.40,M,0.00,0.00,0.00,30.07,M,0.25,M,OVC,M,M,M,200.00,M,M,M,FG,M,M,M,M,M,M,M,KCXP 161435Z AUTO 00000KT M1/4SM FG OVC002 02/03 A3007 RMK AO2,M
05U,2023-11-16 14:35,-116.0051,39.6042,1811.23,32.00,32.00,100.00,330.00,5.00,0.00,30.11,M,10.00,M,M,M,M,M,M,M,M,M,M,M,M,M,M,M,M,26.40,K05U 161435Z AUTO 33005KT 10SM 00/M00 A3011 RMK A01,M
MEV,2023-11-16 14:35,-119.7500,38.9963,1441.42,35.60,33.80,93.08,0.00,0.00,0.00,30.07,M,9.00,M,OVC,M,M,M,300.00,M,M,M,M,M,M,M,M,M,M,35.60,KMEV 161435Z AUTO 00000KT 9SM OVC003 02/01 A3007 RMK AO2,M
BAM,2023-11-16 14:35,-116.8743,40.5990,1382.36,41.00,39.20,93.24,0.00,0.00,0.00,30.07,M,10.00,M,OVC,M,M,M,6500.00,M,M,M,M,M,M,M,M,M,M,41.00,KBAM 161435Z AUTO 00000KT 10SM OVC065 05/04 A3007 RMK AO1,M
HTH,2023-11-16 14:35,-118.6315,38.5448,1282.89,37.40,35.60,93.14,0.00,0.00,0.00,30.06,M,10.00,M,CLR,M,M,M,M,M,M,M,M,M,M,M,M,M,M,37.40,KHTH 161435Z AUTO 00000KT 10SM CLR 03/02 A3006 RMK A01,M
TMT,2023-11-16 14:35,-117.1971,39.4643,1749.34,28.40,28.40,100.00,310.00,3.00,0.00,30.08,M,0.25,M,OVC,M,M,M,100.00,M,M,M,FZFG,M,M,M,M,M,M,24.57,KTMT 161435Z AUTO 31003KT M1/4SM FZFG OVC001 M02/M02 A3008 RMK AO2 T10201020,M
NFL,2023-11-16 14:41,-118.7010,39.4166,1199.00,36.00,34.00,92.35,0.00,0.00,0.00,30.04,M,9.00,M,SCT,SCT,SCT,M,6000.00,10000.00,15000.00,M,M,M,M,M,M,M,M,36.00,KNFL 161441Z 00000KT 9SM SCT060 SCT100 SCT150 02/01 A3004 RMK AO2 T00220011,M
P68,2023-11-16 14:53,-116.0056,39.6014,1993.00,33.00,33.00,100.00,180.00,5.00,0.00,30.08,1016.30,M,M,M,M,M,M,M,M,M,M,M,M,M,M,M,M,M,27.58,KP68 161453Z AUTO 18005KT 01/01 A3008 RMK AO1 SLP163 T00060006 53012,M
DRA,2023-11-16 14:53,-116.0278,36.6206,1009.00,52.00,50.00,92.86,210.00,3.00,0.00,30.05,1015.10,10.00,M,OVC,M,M,M,2600.00,M,M,M,M,M,M,M,M,M,M,52.00,KDRA 161453Z AUTO 21003KT 10SM OVC026 11/10 A3005 RMK AO2 SLP151 T01110100 53012,M
ELY,2023-11-16 14:53,-114.8453,39.2950,1909.00,33.00,31.00,92.25,0.00,0.00,0.00,30.09,1016.60,10.00,M,CLR,M,M,M,M,M,M,M,M,M,M,M,M,M,M,33.00,KELY 161453Z AUTO 00000KT 10SM CLR 01/M01 A3009 RMK AO2 SLP166 T00061006 53010,M
VGT,2023-11-16 14:53,-115.1933,36.2111,667.00,57.00,51.00,80.31,180.00,3.00,0.00,30.04,1017.80,10.00,M,OVC,M,M,M,2500.00,M,M,M,M,M,M,M,M,M,M,57.00,KVGT 161453Z 18003KT 10SM OVC025 14/11 A3004 RMK AO2 SLP178 T01390106 51013,M
LOL,2023-11-16 14:53,-118.5701,40.0684,1192.43,30.00,29.00,96.00,0.00,0.00,0.00,30.05,1018.30,10.00,M,FEW,M,M,M,200.00,M,M,M,M,M,M,M,M,M,M,30.00,KLOL 161453Z AUTO 00000KT 10SM FEW002 M01/M02 A3005 RMK AO2 SLP183 T10111017 51007,M
BVU,2023-11-16 14:55,-114.8611,35.9475,671.00,55.40,51.80,87.65,0.00,0.00,0.00,30.03,M,10.00,M,OVC,M,M,M,3400.00,M,M,M,M,M,M,M,M,M,M,55.40,KBVU 161455Z AUTO 00000KT 10SM OVC034 13/11 A3003 RMK AO2,M
CXP,2023-11-16 14:55,-119.7326,39.1923,1431.00,35.60,35.60,100.00,170.00,3.00,0.00,30.08,M,0.25,M,OVC,M,M,M,200.00,M,M,M,FG,M,M,M,M,M,M,32.80,KCXP 161455Z AUTO 17003KT M1/4SM FG OVC002 02/02 A3008 RMK AO2,M
RNO,2023-11-16 14:55,-119.7711,39.4839,1341.00,41.00,38.00,88.97,0.00,0.00,0.00,30.06,1016.90,10.00,M,BKN,BKN,M,M,5000.00,8000.00,M,M,M,M,M,M,M,M,M,41.00,KRNO 161455Z 00000KT 10SM BKN050 BKN080 05/03 A3006 RMK AO2 SLP169 T00500033 53013,M
RTS,2023-11-16 14:55,-119.8764,39.6682,1539.00,39.20,37.40,93.19,250.00,3.00,0.00,30.07,M,10.00,M,OVC,M,M,M,3800.00,M,M,M,M,M,M,M,M,M,M,36.92,KRTS 161455Z AUTO 25003KT 10SM OVC038 04/03 A3007 RMK AO2,M
05U,2023-11-16 14:55,-116.0051,39.6042,1811.23,33.80,33.80,100.00,340.00,5.00,0.00,30.11,M,10.00,M,M,M,M,M,M,M,M,M,M,M,M,M,M,M,M,28.53,K05U 161455Z AUTO 34005KT 10SM 01/01 A3011 RMK A01,M
MEV,2023-11-16 14:55,-119.7500,38.9963,1441.42,35.60,35.60,100.00,90.00,3.00,0.00,30.07,M,7.00,M,OVC,M,M,M,300.00,M,M,M,M,M,M,M,M,M,M,32.80,KMEV 161455Z AUTO 09003KT 7SM OVC003 02/02 A3007 RMK AO2,M
BAM,2023-11-16 14:55,-116.8743,40.5990,1382.36,41.00,39.20,93.24,60.00,3.00,0.00,30.08,M,10.00,M,BKN,M,M,M,6500.00,M,M,M,M,M,M,M,M,M,M,38.98,KBAM 161455Z AUTO 06003KT 10SM BKN065 05/04 A3008 RMK AO1,M
HTH,2023-11-16 14:55,-118.6315,38.5448,1282.89,33.80,32.00,93.03,0.00,0.00,0.00,30.07,M,10.00,M,CLR,M,M,M,M,M,M,M,M,M,M,M,M,M,M,33.80,KHTH 161455Z AUTO 00000KT 10SM CLR 01/00 A3007 RMK A01,M
TMT,2023-11-16 14:55,-117.1971,39.4643,1749.34,28.20,28.00,99.18,260.00,4.00,0.00,30.09,M,0.75,M,OVC,M,M,M,100.00,M,M,M,BR,M,M,M,M,M,M,22.98,KTMT 161455Z AUTO 26004KT 3/4SM BR OVC001 M02/M02 A3009 RMK AO2 T10211022,M
INS,2023-11-16 14:55,-115.6733,36.5872,955.00,52.00,25.30,35.15,0.00,0.00,0.00,30.05,1015.20,10.00,M,OVC,M,M,M,1600.00,M,M,M,M,M,M,M,M,M,M,52.00,KINS 161455Z AUTO 00000KT 10SM OVC016 11/M04 A3005 RMK AO2 SLP152 T01121037 53009 $,M
LSV,2023-11-16 14:55,-115.0343,36.2362,570.00,56.00,55.60,98.56,70.00,7.00,0.00,30.01,1015.40,10.00,M,FEW,OVC,M,M,2800.00,3400.00,M,M,M,M,M,M,M,M,M,56.00,KLSV 161455Z 07007KT 10SM FEW028 OVC034 13/13 A3001 RMK AO2A SLP154 T01330131 52012,M
EKO,2023-11-16 14:56,-115.7860,40.8242,1367.00,41.00,38.00,88.97,0.00,0.00,0.00,30.06,1016.80,10.00,M,BKN,OVC,M,M,3300.00,5500.00,M,M,M,M,M,M,M,M,M,41.00,KEKO 161456Z AUTO 00000KT 10SM BKN033 OVC055 05/03 A3006 RMK AO2 SLP168 60006 T00500033 53013,M
NFL,2023-11-16 14:56,-118.7010,39.4166,1199.00,35.00,33.00,92.32,210.00,4.00,0.00,30.04,1014.20,7.00,M,SCT,SCT,SCT,M,6000.00,10000.00,15000.00,M,M,M,M,M,M,M,M,30.92,KNFL 161456Z 21004KT 7SM SCT060 SCT100 SCT150 02/01 A3004 RMK AO2 SLP142 T00170006 51011,M
HND,2023-11-16 14:56,-115.1344,35.9729,742.79,54.00,52.00,92.92,0.00,0.00,0.00,30.06,1018.90,10.00,M,OVC,M,M,M,1500.00,M,M,M,M,M,M,M,M,M,M,54.00,KHND 161456Z 00000KT 10SM OVC015 12/11 A3006 RMK AO2 SLP189 T01220111 53015,M
TPH,2023-11-16 14:56,-117.0904,38.0505,1654.00,43.00,42.00,96.23,10.00,3.00,0.00,30.08,1017.40,10.00,M,BKN,OVC,M,M,600.00,2800.00,M,M,M,M,M,M,M,M,M,41.26,KTPH 161456Z AUTO 01003KT 10SM BKN006 OVC028 06/06 A3008 RMK AO2 SLP174 T00610056 53006,M
LAS,2023-11-16 14:56,-115.1634,36.0719,663.00,57.00,51.00,80.31,360.00,5.00,0.00,30.05,1016.40,10.00,M,SCT,OVC,M,M,2300.00,4500.00,M,M,M,M,M,M,M,M,M,57.00,KLAS 161456Z 36005KT 10SM SCT023 OVC045 14/11 A3005 RMK AO2 SLP164 T01390106 53013,M
LOL,2023-11-16 15:04,-118.5701,40.0684,1192.43,28.00,27.00,95.97,0.00,0.00,0.00,30.05,M,2.00,M,FEW,M,M,M,200.00,M,M,M,BR,M,M,M,M,M,M,28.00,KLOL 161504Z AUTO 00000KT 2SM BR FEW002 M02/M03 A3005 RMK AO2 T10221028,M
LOL,2023-11-16 15:13,-118.5701,40.0684,1192.43,29.00,27.00,92.12,200.00,3.00,0.00,30.06,M,10.00,M,FEW,M,M,M,200.00,M,M,M,M,M,M,M,M,M,M,25.26,KLOL 161513Z AUTO 20003KT 10SM FEW002 M02/M03 A3006 RMK AO2 T10171028,M
BVU,2023-11-16 15:15,-114.8611,35.9475,671.00,55.40,51.80,87.65,0.00,0.00,0.00,30.04,M,10.00,M,OVC,M,M,M,3200.00,M,M,M,M,M,M,M,M,M,M,55.40,KBVU 161515Z AUTO 00000KT 10SM OVC032 13/11 A3004 RMK AO2,M
CXP,2023-11-16 15:15,-119.7326,39.1923,1431.00,35.60,37.40,M,0.00,0.00,0.00,30.09,M,0.25,M,OVC,M,M,M,200.00,M,M,M,FG,M,M,M,M,M,M,M,KCXP 161515Z AUTO 00000KT M1/4SM FG OVC002 02/03 A3009 RMK AO2,M
RTS,2023-11-16 15:15,-119.8764,39.6682,1539.00,37.40,37.40,100.00,0.00,0.00,0.00,30.08,M,8.00,M,FEW,BKN,OVC,M,2100.00,3800.00,4700.00,M,-DZ,M,M,M,M,M,M,37.40,KRTS 161515Z AUTO 00000KT 8SM -DZ FEW021 BKN038 OVC047 03/03 A3008 RMK AO2,M
05U,2023-11-16 15:15,-116.0051,39.6042,1811.23,35.60,35.60,100.00,360.00,5.00,0.00,30.11,M,10.00,M,M,M,M,M,M,M,M,M,M,M,M,M,M,M,M,30.67,K05U 161515Z AUTO 36005KT 10SM 02/02 A3011 RMK A01,M
MEV,2023-11-16 15:15,-119.7500,38.9963,1441.42,33.80,33.80,100.00,0.00,0.00,0.00,30.08,M,10.00,M,OVC,M,M,M,300.00,M,M,M,M,M,M,M,M,M,M,33.80,KMEV 161515Z AUTO 00000KT 10SM OVC003 01/01 A3008 RMK AO2,M
BAM,2023-11-16 15:15,-116.8743,40.5990,1382.36,37.40,35.60,93.14,150.00,3.00,0.00,30.08,M,10.00,M,SCT,M,M,M,6500.00,M,M,M,M,M,M,M,M,M,M,34.86,KBAM 161515Z AUTO 15003KT 10SM SCT065 03/02 A3008 RMK AO1,M
HTH,2023-11-16 15:15,-118.6315,38.5448,1282.89,37.40,37.40,100.00,0.00,0.00,0.00,30.08,M,10.00,M,CLR,M,M,M,M,M,M,M,M,M,M,M,M,M,M,37.40,KHTH 161515Z AUTO 00000KT 10SM CLR 03/03 A3008 RMK A01,M
TMT,2023-11-16 15:15,-117.1971,39.4643,1749.34,27.30,27.00,98.77,140.00,5.00,0.00,30.11,M,0.75,M,OVC,M,M,M,100.00,M,M,M,BR,M,M,M,M,M,M,20.81,KTMT 161515Z AUTO 14005KT 3/4SM BR OVC001 M03/M03 A3011 RMK AO2 T10261027,M
LAS,2023-11-16 15:24,-115.1634,36.0719,663.00,57.00,51.00,80.31,40.00,3.00,0.00,30.05,M,10.00,M,BKN,OVC,M,M,2300.00,4500.00,M,M,M,M,M,M,M,M,M,57.00,KLAS 161524Z 04003KT 10SM BKN023 OVC045 14/11 A3005 RMK AO2 T01390106,M
LSV,2023-11-16 15:25,-115.0343,36.2362,570.00,57.20,55.40,93.69,90.00,6.00,0.00,30.02,1015.60,10.00,M,BKN,OVC,M,M,2800.00,3500.00,M,M,M,M,M,M,M,M,M,57.20,KLSV 161525Z AUTO 09006KT 10SM BKN028 OVC035 14/13 A3002 RMK AO2 CIG 028V035 BKN V SCT SLP156,M
TPH,2023-11-16 15:29,-117.0904,38.0505,1654.00,44.00,42.00,92.61,0.00,0.00,0.00,30.10,M,10.00,M,SCT,SCT,OVC,M,600.00,1300.00,2900.00,M,M,M,M,M,M,M,M,44.00,KTPH 161529Z AUTO 00000KT 10SM SCT006 SCT013 OVC029 07/06 A3010 RMK AO2 T00670056,M
HTH,2023-11-16 15:30,-118.6315,38.5448,1282.89,39.20,37.40,93.19,0.00,0.00,0.00,30.09,M,10.00,M,CLR,M,M,M,M,M,M,M,M,M,M,M,M,M,M,39.20,KHTH 161530Z AUTO 00000KT 10SM CLR 04/03 A3009 RMK A01,M
BVU,2023-11-16 15:35,-114.8611,35.9475,671.00,55.40,51.80,87.65,0.00,0.00,0.00,30.05,M,10.00,M,FEW,OVC,M,M,2600.00,3400.00,M,M,M,M,M,M,M,M,M,55.40,KBVU 161535Z AUTO 00000KT 10SM FEW026 OVC034 13/11 A3005 RMK AO2,M
CXP,2023-11-16 15:35,-119.7326,39.1923,1431.00,37.40,37.40,100.00,220.00,4.00,0.00,30.10,M,0.25,M,OVC,M,M,M,200.00,M,M,M,FG,M,M,M,M,M,M,33.73,KCXP 161535Z AUTO 22004KT M1/4SM FG OVC002 03/03 A3010 RMK AO2,M
RTS,2023-11-16 15:35,-119.8764,39.6682,1539.00,39.20,37.40,93.19,0.00,0.00,0.00,30.08,M,10.00,M,FEW,FEW,OVC,M,2100.00,3600.00,4400.00,M,M,M,M,M,M,M,M,39.20,KRTS 161535Z AUTO 00000KT 10SM FEW021 FEW036 OVC044 04/03 A3008 RMK AO2,M
05U,2023-11-16 15:35,-116.0051,39.6042,1811.23,39.20,39.20,100.00,0.00,0.00,0.00,30.12,M,10.00,M,M,M,M,M,M,M,M,M,M,M,M,M,M,M,M,39.20,K05U 161535Z AUTO 00000KT 10SM 04/04 A3012 RMK A01,M
MEV,2023-11-16 15:35,-119.7500,38.9963,1441.42,35.60,35.60,100.00,0.00,0.00,0.00,30.08,M,10.00,M,BKN,OVC,M,M,400.00,900.00,M,M,M,M,M,M,M,M,M,35.60,KMEV 161535Z AUTO 00000KT 10SM BKN004 OVC009 02/02 A3008 RMK AO2,M
BAM,2023-11-16 15:35,-116.8743,40.5990,1382.36,41.00,39.20,93.24,160.00,3.00,0.00,30.09,M,10.00,M,SCT,M,M,M,4700.00,M,M,M,M,M,M,M,M,M,M,38.98,KBAM 161535Z AUTO 16003KT 10SM SCT047 05/04 A3009 RMK AO1,M
TMT,2023-11-16 15:35,-117.1971,39.4643,1749.34,28.40,28.20,99.18,0.00,0.00,0.00,30.11,M,10.00,M,SCT,BKN,M,M,100.00,3700.00,M,M,M,M,M,M,M,M,M,28.40,KTMT 161535Z AUTO 00000KT 10SM SCT001 BKN037 M02/M02 A3011 RMK AO2 T10201021,M
LOL,2023-11-16 15:38,-118.5701,40.0684,1192.43,31.00,30.00,96.02,120.00,3.00,0.00,30.07,M,1.25,M,SCT,M,M,M,200.00,M,M,M,BR,M,M,M,M,M,M,27.55,KLOL 161538Z AUTO 12003KT 1 1/4SM BR SCT002 M01/M01 A3007 RMK AO2 VIS 1/2V5 T10061011,M
LOL,2023-11-16 15:42,-118.5701,40.0684,1192.43,32.00,30.00,92.22,90.00,3.00,0.00,30.07,M,2.00,M,BKN,M,M,M,200.00,M,M,M,BR,M,M,M,M,M,M,28.69,KLOL 161542Z AUTO 09003KT 2SM BR BKN002 00/M01 A3007 RMK AO2 VIS 3/4V5 T00001011,M
LOL,2023-11-16 15:50,-118.5701,40.0684,1192.43,33.80,32.00,93.03,140.00,3.00,0.00,30.07,M,5.00,M,SCT,M,M,M,200.00,M,M,M,BR,M,M,M,M,M,M,30.75,KLOL 161550Z AUTO 14003KT 5SM BR SCT002 01/00 A3007 RMK AO2,M
05U,2023-11-16 15:50,-116.0051,39.6042,1811.23,41.00,39.20,93.24,330.00,4.00,0.00,30.12,M,10.00,M,M,M,M,M,M,M,M,M,M,M,M,M,M,M,M,37.93,K05U 161550Z AUTO 33004KT 10SM 05/04 A3012 RMK A01,M
EKO,2023-11-16 15:53,-115.7860,40.8242,1367.00,42.80,39.20,86.99,0.00,0.00,0.00,30.08,M,10.00,M,OVC,M,M,M,2800.00,M,M,M,M,M,M,M,M,M,M,42.80,KEKO 161553Z AUTO 00000KT 10SM OVC028 06/04 A3008 RMK AO2,M
P68,2023-11-16 15:53,-116.0056,39.6014,1993.00,40.00,38.00,92.49,170.00,6.00,0.00,30.09,1015.80,M,M,M,M,M,M,M,M,M,M,M,M,M,M,M,M,M,35.17,KP68 161553Z AUTO 17006KT 04/03 A3009 RMK AO1 SLP158 T00440033,M
DRA,2023-11-16 15:53,-116.0278,36.6206,1009.00,52.00,48.00,86.17,110.00,5.00,0.00,30.06,1015.70,10.00,M,SCT,OVC,M,M,2100.00,4100.00,M,M,M,M,M,M,M,M,M,52.00,KDRA 161553Z AUTO 11005KT 10SM SCT021 OVC041 11/09 A3006 RMK AO2 SLP157 T01110089,M
ELY,2023-11-16 15:53,-114.8453,39.2950,1909.00,39.00,36.00,88.87,0.00,0.00,0.00,30.11,1016.00,10.00,M,CLR,M,M,M,M,M,M,M,M,M,M,M,M,M,M,39.00,KELY 161553Z AUTO 00000KT 10SM CLR 04/02 A3011 RMK AO2 SLP160 T00390022,M
VGT,2023-11-16 15:53,-115.1933,36.2111,667.00,57.00,51.00,80.31,150.00,3.00,0.00,30.06,1018.70,10.00,M,OVC,M,M,M,2600.00,M,M,M,M,M,M,M,M,M,M,57.00,KVGT 161553Z 15003KT 10SM OVC026 14/11 A3006 RMK AO2 SLP187 T01390106,M
LOL,2023-11-16 15:53,-118.5701,40.0684,1192.43,34.00,32.00,92.29,160.00,4.00,0.00,30.08,1018.90,10.00,M,SCT,M,M,M,200.00,M,M,M,M,M,M,M,M,M,M,29.76,KLOL 161553Z AUTO 16004KT 10SM SCT002 01/00 A3008 RMK AO2 SLP189 T00110000,M
BVU,2023-11-16 15:55,-114.8611,35.9475,671.00,57.20,51.80,82.12,0.00,0.00,0.00,30.05,M,10.00,M,BKN,OVC,M,M,3600.00,4700.00,M,M,M,M,M,M,M,M,M,57.20,KBVU 161555Z AUTO 00000KT 10SM BKN036 OVC047 14/11 A3005 RMK AO2,M
CXP,2023-11-16 15:55,-119.7326,39.1923,1431.00,37.40,37.40,100.00,0.00,0.00,0.00,30.11,M,0.25,M,OVC,M,M,M,200.00,M,M,M,FG,M,M,M,M,M,M,37.40,KCXP 161555Z AUTO 00000KT M1/4SM FG OVC002 03/03 A3011 RMK AO2,M
RNO,2023-11-16 15:55,-119.7711,39.4839,1341.00,43.00,38.00,82.37,0.00,0.00,0.00,30.08,1017.40,10.00,M,FEW,BKN,M,M,3500.00,7000.00,M,M,M,M,M,M,M,M,M,43.00,KRNO 161555Z 00000KT 10SM FEW035 BKN070 06/03 A3008 RMK AO2 SLP174 T00610033,M
RTS,2023-11-16 15:55,-119.8764,39.6682,1539.00,39.20,39.20,100.00,350.00,4.00,0.00,30.09,M,10.00,M,FEW,OVC,M,M,3400.00,4400.00,M,M,M,M,M,M,M,M,M,35.83,KRTS 161555Z AUTO 35004KT 10SM FEW034 OVC044 04/04 A3009 RMK AO2,M
MEV,2023-11-16 15:55,-119.7500,38.9963,1441.42,35.60,35.60,100.00,0.00,0.00,0.00,30.08,M,9.00,M,BKN,BKN,OVC,M,300.00,600.00,4400.00,M,M,M,M,M,M,M,M,35.60,KMEV 161555Z AUTO 00000KT 9SM BKN003 BKN006 OVC044 02/02 A3008 RMK AO2,M
BAM,2023-11-16 15:55,-116.8743,40.5990,1382.36,42.80,41.00,93.30,0.00,0.00,0.00,30.09,M,10.00,M,SCT,M,M,M,4700.00,M,M,M,M,M,M,M,M,M,M,42.80,KBAM 161555Z AUTO 00000KT 10SM SCT047 06/05 A3009 RMK AO1,M
HTH,2023-11-16 15:55,-118.6315,38.5448,1282.89,42.80,39.20,86.99,0.00,0.00,0.00,30.10,M,10.00,M,CLR,M,M,M,M,M,M,M,M,M,M,M,M,M,M,42.80,KHTH 161555Z AUTO 00000KT 10SM CLR 06/04 A3010 RMK A01,M
TMT,2023-11-16 15:55,-117.1971,39.4643,1749.34,29.00,29.00,100.00,0.00,0.00,0.00,30.11,M,10.00,M,SCT,M,M,M,3700.00,M,M,M,M,M,M,M,M,M,M,29.00,KTMT 161555Z AUTO 00000KT 10SM SCT037 M02/M02 A3011 RMK AO2 T10161017,M
INS,2023-11-16 15:55,-115.6733,36.5872,955.00,53.00,26.00,34.88,0.00,0.00,0.00,30.07,1015.90,10.00,M,OVC,M,M,M,1700.00,M,M,M,M,M,M,M,M,M,M,53.00,KINS 161555Z AUTO 00000KT 10SM OVC017 12/M03 A3007 RMK AO2 SLP159 T01171033 $,M
LSV,2023-11-16 15:55,-115.0343,36.2362,570.00,57.00,56.50,98.21,90.00,7.00,0.00,30.04,1016.30,10.00,M,OVC,M,M,M,2700.00,M,M,M,M,M,M,M,M,M,M,57.00,KLSV 161555Z AUTO 09007KT 10SM OVC027 14/14 A3004 RMK AO2 SLP163 T01380136,M
EKO,2023-11-16 15:56,-115.7860,40.8242,1367.00,42.00,40.00,92.55,0.00,0.00,0.00,30.08,1017.20,10.00,M,OVC,M,M,M,2800.00,M,M,M,M,M,M,M,M,M,M,42.00,KEKO 161556Z AUTO 00000KT 10SM OVC028 06/04 A3008 RMK AO2 SLP172 T00560044,M
NFL,2023-11-16 15:56,-118.7010,39.4166,1199.00,41.00,38.00,88.97,40.00,3.00,0.00,30.07,1015.20,7.00,M,SCT,SCT,SCT,M,7000.00,10000.00,15000.00,M,M,M,M,M,M,M,M,38.98,KNFL 161556Z 04003KT 7SM SCT070 SCT100 SCT150 05/03 A3007 RMK AO2 SLP152 T00500033,M
HND,2023-11-16 15:56,-115.1344,35.9729,742.79,54.00,52.00,92.92,0.00,0.00,0.00,30.08,1019.50,10.00,M,OVC,M,M,M,1700.00,M,M,M,M,M,M,M,M,M,M,54.00,KHND 161556Z 00000KT 10SM OVC017 12/11 A3008 RMK AO2 SLP195 T01220111,M
TPH,2023-11-16 15:56,-117.0904,38.0505,1654.00,44.00,42.00,92.61,0.00,0.00,0.00,30.11,1018.50,10.00,M,SCT,OVC,M,M,1300.00,2700.00,M,M,M,M,M,M,M,M,M,44.00,KTPH 161556Z AUTO 00000KT 10SM SCT013 OVC027 07/06 A3011 RMK AO2 SLP185 T00670056,M
LAS,2023-11-16 15:56,-115.1634,36.0719,663.00,58.00,51.00,77.47,0.00,0.00,0.00,30.07,1017.10,10.00,M,BKN,OVC,M,M,2300.00,4500.00,M,M,M,M,M,M,M,M,M,58.00,KLAS 161556Z 00000KT 10SM BKN023 OVC045 14/11 A3007 RMK AO2 SLP171 BKN V SCT T01440106,M
10U,2023-11-16 16:00,-116.1876,41.9532,1637.00,39.20,37.40,93.19,190.00,8.00,0.00,30.06,M,10.00,M,FEW,SCT,OVC,M,2700.00,4800.00,9500.00,M,M,M,M,M,M,M,M,32.98,K10U 161600Z AUTO 19008KT 10SM FEW027 SCT048 OVC095 04/03 A3006 RMK AO2,M
TPH,2023-11-16 16:13,-117.0904,38.0505,1654.00,44.00,42.00,92.61,0.00,0.00,0.00,30.12,M,10.00,M,FEW,BKN,OVC,M,800.00,1500.00,2800.00,M,M,M,M,M,M,M,M,44.00,KTPH 161613Z AUTO 00000KT 10SM FEW008 BKN015 OVC028 07/06 A3012 RMK AO2 T00670056,M
BVU,2023-11-16 16:15,-114.8611,35.9475,671.00,55.40,51.80,87.65,200.00,3.00,0.00,30.07,M,10.00,M,BKN,OVC,M,M,3600.00,4900.00,M,M,M,M,M,M,M,M,M,55.40,KBVU 161615Z AUTO 20003KT 10SM BKN036 OVC049 13/11 A3007 RMK AO2,M
CXP,2023-11-16 16:15,-119.7326,39.1923,1431.00,37.40,37.40,100.00,0.00,0.00,0.00,30.11,M,0.25,M,OVC,M,M,M,200.00,M,M,M,FG,M,M,M,M,M,M,37.40,KCXP 161615Z AUTO 00000KT 1/4SM FG OVC002 03/03 A3011 RMK AO2,M
RTS,2023-11-16 16:15,-119.8764,39.6682,1539.00,41.00,39.20,93.24,350.00,5.00,0.00,30.09,M,10.00,M,OVC,M,M,M,4300.00,M,M,M,M,M,M,M,M,M,M,37.08,KRTS 161615Z AUTO 35005KT 10SM OVC043 05/04 A3009 RMK AO2,M
05U,2023-11-16 16:15,-116.0051,39.6042,1811.23,42.80,39.20,86.99,330.00,6.00,0.00,30.13,M,10.00,M,M,M,M,M,M,M,M,M,M,M,M,M,M,M,M,38.54,K05U 161615Z AUTO 33006KT 10SM 06/04 A3013 RMK A01,M
MEV,2023-11-16 16:15,-119.7500,38.9963,1441.42,37.40,37.40,100.00,0.00,0.00,0.00,30.10,M,10.00,M,SCT,BKN,M,M,500.00,4500.00,M,M,M,M,M,M,M,M,M,37.40,KMEV 161615Z AUTO 00000KT 10SM SCT005 BKN045 03/03 A3010 RMK AO2,M
BAM,2023-11-16 16:15,-116.8743,40.5990,1382.36,44.60,42.80,93.35,50.00,3.00,0.00,30.10,M,10.00,M,CLR,M,M,M,M,M,M,M,M,M,M,M,M,M,M,43.09,KBAM 161615Z AUTO 05003KT 10SM CLR 07/06 A3010 RMK AO1,M
HTH,2023-11-16 16:15,-118.6315,38.5448,1282.89,44.60,39.20,81.20,0.00,0.00,0.00,30.10,M,10.00,M,CLR,M,M,M,M,M,M,M,M,M,M,M,M,M,M,44.60,KHTH 161615Z AUTO 00000KT 10SM CLR 07/04 A3010 RMK A01,M
TMT,2023-11-16 16:15,-117.1971,39.4643,1749.34,31.00,31.00,100.00,0.00,0.00,0.00,30.12,M,10.00,M,CLR,M,M,M,M,M,M,M,M,M,M,M,M,M,M,31.00,KTMT 161615Z AUTO 00000KT 10SM CLR 00/M01 A3012 RMK AO2 T10051006,M
10U,2023-11-16 16:20,-116.1876,41.9532,1637.00,39.20,37.40,93.19,170.00,7.00,0.00,30.07,M,10.00,M,FEW,OVC,M,M,4700.00,10000.00,M,M,M,M,M,M,M,M,M,33.56,K10U 161620Z AUTO 17007KT 10SM FEW047 OVC100 04/03 A3007 RMK AO2,M
BVU,2023-11-16 16:35,-114.8611,35.9475,671.00,55.40,51.80,87.65,0.00,0.00,0.00,30.07,M,10.00,M,SCT,OVC,M,M,2900.00,3600.00,M,M,M,M,M,M,M,M,M,55.40,KBVU 161635Z AUTO 00000KT 10SM SCT029 OVC036 13/11 A3007 RMK AO2,M
CXP,2023-11-16 16:35,-119.7326,39.1923,1431.00,37.40,37.40,100.00,0.00,0.00,0.00,30.12,M,1.25,M,OVC,M,M,M,200.00,M,M,M,BR,M,M,M,M,M,M,37.40,KCXP 161635Z AUTO 00000KT 1 1/4SM BR OVC002 03/03 A3012 RMK AO2,M
LSV,2023-11-16 16:35,-115.0343,36.2362,570.00,57.20,57.20,100.00,90.00,4.00,0.00,30.05,1016.70,10.00,M,BKN,OVC,M,M,3100.00,3800.00,M,M,M,M,M,M,M,M,M,57.20,KLSV 161635Z AUTO 09004KT 10SM BKN031 OVC038 14/14 A3005 RMK AO2 SLP167,M
RTS,2023-11-16 16:35,-119.8764,39.6682,1539.00,41.00,39.20,93.24,0.00,0.00,0.00,30.10,M,10.00,M,BKN,BKN,M,M,4000.00,5000.00,M,M,M,M,M,M,M,M,M,41.00,KRTS 161635Z AUTO 00000KT 10SM BKN040 BKN050 05/04 A3010 RMK AO2,M
05U,2023-11-16 16:35,-116.0051,39.6042,1811.23,44.60,39.20,81.20,360.00,6.00,0.00,30.13,M,10.00,M,M,M,M,M,M,M,M,M,M,M,M,M,M,M,M,40.71,K05U 161635Z AUTO 36006KT 10SM 07/04 A3013 RMK A01,M
MEV,2023-11-16 16:35,-119.7500,38.9963,1441.42,37.40,37.40,100.00,300.00,3.00,0.00,30.10,M,1.25,M,OVC,M,M,M,400.00,M,M,M,BR,M,M,M,M,M,M,34.86,KMEV 161635Z AUTO 30003KT 1 1/4SM BR OVC004 03/03 A3010 RMK AO2 VIS 1/4V5,M
BAM,2023-11-16 16:35,-116.8743,40.5990,1382.36,46.40,41.00,81.34,0.00,0.00,0.00,30.10,M,10.00,M,CLR,M,M,M,M,M,M,M,M,M,M,M,M,M,M,46.40,KBAM 161635Z AUTO 00000KT 10SM CLR 08/05 A3010 RMK AO1,M
HTH,2023-11-16 16:35,-118.6315,38.5448,1282.89,44.60,41.00,87.09,0.00,0.00,0.00,30.11,M,10.00,M,CLR,M,M,M,M,M,M,M,M,M,M,M,M,M,M,44.60,KHTH 161635Z AUTO 00000KT 10SM CLR 07/05 A3011 RMK A01,M
TMT,2023-11-16 16:35,-117.1971,39.4643,1749.34,32.50,32.50,100.00,0.00,0.00,0.00,30.12,M,10.00,M,BKN,M,M,M,4900.00,M,M,M,M,M,M,M,M,M,M,32.50,KTMT 161635Z AUTO 00000KT 10SM BKN049 00/00 A3012 RMK AO2 T00030003,M
10U,2023-11-16 16:40,-116.1876,41.9532,1637.00,39.20,37.40,93.19,190.00,8.00,0.00,30.08,M,10.00,M,BKN,OVC,M,M,10000.00,12000.00,M,M,M,M,M,M,M,M,M,32.98,K10U 161640Z AUTO 19008KT 10SM BKN100 OVC120 04/03 A3008 RMK AO2,M
DRA,2023-11-16 16:41,-116.0278,36.6206,1009.00,54.00,48.00,80.07,100.00,9.00,0.00,30.06,M,10.00,M,BKN,OVC,M,M,2100.00,4500.00,M,M,M,M,M,M,M,M,M,54.00,KDRA 161641Z AUTO 10009KT 10SM BKN021 OVC045 12/09 A3006 RMK AO2 T01220089,M
HND,2023-11-16 16:49,-115.1344,35.9729,742.79,57.20,51.80,82.12,0.00,0.00,0.00,30.10,M,10.00,M,SCT,OVC,M,M,2300.00,3100.00,M,M,M,M,M,M,M,M,M,57.20,KHND 161649Z 00000KT 10SM SCT023 OVC031 14/11 A3010 RMK AO2,M
05U,2023-11-16 16:50,-116.0051,39.6042,1811.23,46.40,39.20,75.84,360.00,6.00,0.00,30.13,M,10.00,M,M,M,M,M,M,M,M,M,M,M,M,M,M,M,M,42.87,K05U 161650Z AUTO 36006KT 10SM 08/04 A3013 RMK A01,M
P68,2023-11-16 16:53,-116.0056,39.6014,1993.00,45.00,39.00,79.36,210.00,7.00,0.00,30.10,1016.50,M,M,M,M,M,M,M,M,M,M,M,M,M,M,M,M,M,40.63,KP68 161653Z AUTO 21007KT 07/04 A3010 RMK AO1 SLP165 T00720039,M
DRA,2023-11-16 16:53,-116.0278,36.6206,1009.00,55.00,48.00,77.21,120.00,11.00,0.00,30.06,1015.50,10.00,M,SCT,OVC,M,M,2100.00,4300.00,M,M,M,M,M,M,M,M,M,55.00,KDRA 161653Z AUTO 12011KT 10SM SCT021 OVC043 13/09 A3006 RMK AO2 SLP155 T01280089,M
ELY,2023-11-16 16:53,-114.8453,39.2950,1909.00,44.00,40.00,85.71,0.00,0.00,0.00,30.13,1015.90,10.00,M,BKN,M,M,M,4600.00,M,M,M,M,M,M,M,M,M,M,44.00,KELY 161653Z AUTO 00000KT 10SM BKN046 07/04 A3013 RMK AO2 SLP159 T00670044,M
VGT,2023-11-16 16:53,-115.1933,36.2111,667.00,58.00,51.00,77.47,150.00,4.00,0.00,30.07,1019.20,10.00,M,BKN,OVC,M,M,2600.00,3300.00,M,M,M,M,M,M,M,M,M,58.00,KVGT 161653Z 15004KT 10SM BKN026 OVC033 14/11 A3007 RMK AO2 SLP192 T01440106,M
LOL,2023-11-16 16:53,-118.5701,40.0684,1192.43,43.00,39.00,85.66,110.00,3.00,0.00,30.09,1018.90,10.00,M,FEW,FEW,M,M,6000.00,8000.00,M,M,M,M,M,M,M,M,M,41.26,KLOL 161653Z AUTO 11003KT 10SM FEW060 FEW080 06/04 A3009 RMK AO2 SLP189 T00610039,M
BVU,2023-11-16 16:55,-114.8611,35.9475,671.00,57.20,51.80,82.12,0.00,0.00,0.00,30.07,M,10.00,M,FEW,SCT,OVC,M,3000.00,3700.00,4300.00,M,M,M,M,M,M,M,M,57.20,KBVU 161655Z AUTO 00000KT 10SM FEW030 SCT037 OVC043 14/11 A3007 RMK AO2,M
CXP,2023-11-16 16:55,-119.7326,39.1923,1431.00,37.40,37.40,100.00,0.00,0.00,0.00,30.12,M,0.50,M,OVC,M,M,M,200.00,M,M,M,BR,M,M,M,M,M,M,37.40,KCXP 161655Z AUTO 00000KT 1/2SM BR OVC002 03/03 A3012 RMK AO2,M
RNO,2023-11-16 16:55,-119.7711,39.4839,1341.00,44.00,38.00,79.27,0.00,0.00,0.00,30.10,1017.90,10.00,M,FEW,FEW,BKN,M,1000.00,3500.00,7000.00,M,M,M,M,M,M,M,M,44.00,KRNO 161655Z 00000KT 10SM FEW010 FEW035 BKN070 07/03 A3010 RMK AO2 SLP179 T00670033,M
RTS,2023-11-16 16:55,-119.8764,39.6682,1539.00,42.80,41.00,93.30,0.00,0.00,0.00,30.10,M,10.00,M,BKN,BKN,OVC,M,3200.00,3900.00,7500.00,M,M,M,M,M,M,M,M,42.80,KRTS 161655Z AUTO 00000KT 10SM BKN032 BKN039 OVC075 06/05 A3010 RMK AO2,M
MEV,2023-11-16 16:55,-119.7500,38.9963,1441.42,39.20,39.20,100.00,340.00,4.00,0.00,30.10,M,0.25,M,OVC,M,M,M,300.00,M,M,M,FG,M,M,M,M,M,M,35.83,KMEV 161655Z AUTO 34004KT M1/4SM FG OVC003 04/04 A3010 RMK AO2,M
BAM,2023-11-16 16:55,-116.8743,40.5990,1382.36,46.40,41.00,81.34,80.00,3.00,0.00,30.11,M,10.00,M,CLR,M,M,M,M,M,M,M,M,M,M,M,M,M,M,45.15,KBAM 161655Z AUTO 08003KT 10SM CLR 08/05 A3011 RMK AO1,M
HTH,2023-11-16 16:55,-118.6315,38.5448,1282.89,46.40,41.00,81.34,0.00,0.00,0.00,30.11,M,10.00,M,CLR,M,M,M,M,M,M,M,M,M,M,M,M,M,M,46.40,KHTH 161655Z AUTO 00000KT 10SM CLR 08/05 A3011 RMK A01,M
TMT,2023-11-16 16:55,-117.1971,39.4643,1749.34,33.00,33.00,100.00,0.00,0.00,0.00,30.13,M,10.00,M,SCT,OVC,M,M,3800.00,4900.00,M,M,M,M,M,M,M,M,M,33.00,KTMT 161655Z AUTO 00000KT 10SM SCT038 OVC049 01/01 A3013 RMK AO2 T00060005,M
INS,2023-11-16 16:55,-115.6733,36.5872,955.00,55.40,27.50,34.00,0.00,0.00,0.00,30.08,1016.20,10.00,M,BKN,BKN,M,M,2000.00,2500.00,M,M,M,M,M,M,M,M,M,55.40,KINS 161655Z AUTO 00000KT 10SM BKN020 BKN025 13/M02 A3008 RMK AO2 BKN020 V OVC SLP162 T01301025 $,M
LSV,2023-11-16 16:55,-115.0343,36.2362,570.00,58.30,58.00,98.93,0.00,0.00,0.00,30.05,1016.70,10.00,M,OVC,M,M,M,3800.00,M,M,M,M,M,M,M,M,M,M,58.30,KLSV 161655Z AUTO 00000KT 10SM OVC038 15/14 A3005 RMK AO2 SLP167 T01460144,M
EKO,2023-11-16 16:56,-115.7860,40.8242,1367.00,45.00,40.00,82.51,250.00,3.00,0.00,30.09,1017.40,10.00,M,OVC,M,M,M,2900.00,M,M,M,M,M,M,M,M,M,M,43.55,KEKO 161656Z AUTO 25003KT 10SM OVC029 07/04 A3009 RMK AO2 SLP174 T00720044,M
NFL,2023-11-16 16:56,-118.7010,39.4166,1199.00,45.00,40.00,82.51,0.00,0.00,0.00,30.09,1015.80,10.00,M,SCT,SCT,M,M,7000.00,15000.00,M,M,M,M,M,M,M,M,M,45.00,KNFL 161656Z 00000KT 10SM SCT070 SCT150 07/04 A3009 RMK AO2 SLP158 T00720044,M
HND,2023-11-16 16:56,-115.1344,35.9729,742.79,57.00,51.00,80.31,0.00,0.00,0.00,30.10,1020.30,10.00,M,FEW,OVC,M,M,2300.00,3100.00,M,M,M,M,M,M,M,M,M,57.00,KHND 161656Z 00000KT 10SM FEW023 OVC031 14/11 A3010 RMK AO2 SLP203 T01390106,M
TPH,2023-11-16 16:56,-117.0904,38.0505,1654.00,45.00,42.00,89.15,30.00,4.00,0.00,30.13,1018.70,10.00,M,OVC,M,M,M,2900.00,M,M,M,M,M,M,M,M,M,M,42.60,KTPH 161656Z AUTO 03004KT 10SM OVC029 07/06 A3013 RMK AO2 SLP187 T00720056,M
LAS,2023-11-16 16:56,-115.1634,36.0719,663.00,58.00,51.00,77.47,0.00,0.00,0.00,30.08,1017.70,10.00,M,FEW,BKN,OVC,M,1500.00,2300.00,4500.00,M,M,M,M,M,M,M,M,58.00,KLAS 161656Z 00000KT 10SM FEW015 BKN023 OVC045 14/11 A3008 RMK AO2 SLP177 T01440106,M
10U,2023-11-16 17:00,-116.1876,41.9532,1637.00,41.00,37.40,86.89,170.00,6.00,0.00,30.08,M,10.00,M,SCT,BKN,BKN,M,3200.00,10000.00,12000.00,M,M,M,M,M,M,M,M,36.37,K10U 161700Z AUTO 17006KT 10SM SCT032 BKN100 BKN120 05/03 A3008 RMK AO2,M
TPH,2023-11-16 17:04,-117.0904,38.0505,1654.00,46.00,42.00,85.83,20.00,3.00,0.00,30.13,M,10.00,M,OVC,M,M,M,3000.00,M,M,M,M,M,M,M,M,M,M,44.69,KTPH 161704Z AUTO 02003KT 10SM OVC030 08/06 A3013 RMK AO2 T00780056,M
INS,2023-11-16 17:05,-115.6733,36.5872,955.00,55.40,28.40,35.28,0.00,0.00,0.00,30.07,1015.90,10.00,M,SCT,M,M,M,2000.00,M,M,M,M,M,M,M,M,M,M,55.40,KINS 161705Z AUTO 00000KT 10SM SCT020 13/M02 A3007 RMK AO2 SLP159 $,M
BVU,2023-11-16 17:15,-114.8611,35.9475,671.00,57.20,51.80,82.12,0.00,0.00,0.00,30.08,M,10.00,19.00,OVC,M,M,M,4300.00,M,M,M,M,M,M,M,M,M,M,57.20,KBVU 161715Z AUTO 00000G19KT 10SM OVC043 14/11 A3008 RMK AO2,M
CXP,2023-11-16 17:15,-119.7326,39.1923,1431.00,39.20,39.20,100.00,0.00,0.00,0.00,30.12,M,1.00,M,OVC,M,M,M,200.00,M,M,M,BR,M,M,M,M,M,M,39.20,KCXP 161715Z AUTO 00000KT 1SM BR OVC002 04/04 A3012 RMK AO2 VIS 3/4V2,M
VGT,2023-11-16 17:15,-115.1933,36.2111,667.00,59.00,51.00,74.74,0.00,0.00,0.00,30.07,M,10.00,M,OVC,M,M,M,3500.00,M,M,M,M,M,M,M,M,M,M,59.00,KVGT 161715Z 00000KT 10SM OVC035 15/11 A3007 RMK AO2 T01500106,M
RTS,2023-11-16 17:15,-119.8764,39.6682,1539.00,42.80,41.00,93.30,0.00,0.00,0.00,30.11,M,10.00,M,BKN,OVC,M,M,3300.00,5500.00,M,M,M,M,M,M,M,M,M,42.80,KRTS 161715Z AUTO 00000KT 10SM BKN033 OVC055 06/05 A3011 RMK AO2,M
05U,2023-11-16 17:15,-116.0051,39.6042,1811.23,48.20,39.20,70.88,30.00,4.00,0.00,30.13,M,10.00,M,M,M,M,M,M,M,M,M,M,M,M,M,M,M,M,46.34,K05U 161715Z AUTO 03004KT 10SM 09/04 A3013 RMK A01,M
MEV,2023-11-16 17:15,-119.7500,38.9963,1441.42,39.20,39.20,100.00,0.00,0.00,0.00,30.11,M,0.50,M,OVC,M,M,M,300.00,M,M,M,FG,M,M,M,M,M,M,39.20,KMEV 161715Z AUTO 00000KT 1/2SM FG OVC003 04/04 A3011 RMK AO2,M
BAM,2023-11-16 17:15,-116.8743,40.5990,1382.36,48.20,41.00,76.01,80.00,3.00,0.00,30.11,M,10.00,M,CLR,M,M,M,M,M,M,M,M,M,M,M,M,M,M,47.21,KBAM 161715Z AUTO 08003KT 10SM CLR 09/05 A3011 RMK AO1,M
HTH,2023-11-16 17:15,-118.6315,38.5448,1282.89,48.20,41.00,76.01,0.00,0.00,0.00,30.10,M,10.00,M,CLR,M,M,M,M,M,M,M,M,M,M,M,M,M,M,48.20,KHTH 161715Z AUTO 00000KT 10SM CLR 09/05 A3010 RMK A01,M
TMT,2023-11-16 17:15,-117.1971,39.4643,1749.34,35.00,35.00,100.00,0.00,0.00,0.00,30.14,M,10.00,M,SCT,SCT,M,M,3800.00,5000.00,M,M,M,M,M,M,M,M,M,35.00,KTMT 161715Z AUTO 00000KT 10SM SCT038 SCT050 02/02 A3014 RMK AO2 T00170017,M
10U,2023-11-16 17:20,-116.1876,41.9532,1637.00,41.00,37.40,86.89,200.00,9.00,0.00,30.09,M,10.00,M,OVC,M,M,M,2800.00,M,M,M,M,M,M,M,M,M,M,34.70,K10U 161720Z AUTO 20009KT 10SM OVC028 05/03 A3009 RMK AO2,M
EKO,2023-11-16 17:24,-115.7860,40.8242,1367.00,47.00,42.00,82.65,220.00,3.00,0.00,30.09,M,10.00,M,SCT,M,M,M,2900.00,M,M,M,M,M,M,M,M,M,M,45.84,KEKO 161724Z AUTO 22003KT 10SM SCT029 08/06 A3009 RMK AO2 T00830056,M
BVU,2023-11-16 17:35,-114.8611,35.9475,671.00,59.00,51.80,76.98,0.00,0.00,0.00,30.08,M,10.00,M,OVC,M,M,M,4500.00,M,M,M,M,M,M,M,M,M,M,59.00,KBVU 161735Z AUTO 00000KT 10SM OVC045 15/11 A3008 RMK AO2,M
CXP,2023-11-16 17:35,-119.7326,39.1923,1431.00,39.20,39.20,100.00,0.00,0.00,0.00,30.12,M,1.50,M,OVC,M,M,M,200.00,M,M,M,BR,M,M,M,M,M,M,39.20,KCXP 161735Z AUTO 00000KT 1 1/2SM BR OVC002 04/04 A3012 RMK AO2,M
RTS,2023-11-16 17:35,-119.8764,39.6682,1539.00,44.60,41.00,87.09,0.00,0.00,0.00,30.11,M,10.00,M,BKN,BKN,OVC,M,3400.00,4200.00,8000.00,M,M,M,M,M,M,M,M,44.60,KRTS 161735Z AUTO 00000KT 10SM BKN034 BKN042 OVC080 07/05 A3011 RMK AO2,M
05U,2023-11-16 17:35,-116.0051,39.6042,1811.23,48.20,37.40,66.05,M,4.00,0.00,30.14,M,10.00,M,M,M,M,M,M,M,M,M,M,M,M,M,M,M,M,46.34,K05U 161735Z AUTO VRB04KT 10SM 09/03 A3014 RMK A01,M
MEV,2023-11-16 17:35,-119.7500,38.9963,1441.42,39.20,39.20,100.00,0.00,0.00,0.00,30.11,M,8.00,M,OVC,M,M,M,300.00,M,M,M,M,M,M,M,M,M,M,39.20,KMEV 161735Z AUTO 00000KT 8SM OVC003 04/04 A3011 RMK AO2,M
BAM,2023-11-16 17:35,-116.8743,40.5990,1382.36,50.00,41.00,71.07,0.00,0.00,0.00,30.11,M,10.00,M,CLR,M,M,M,M,M,M,M,M,M,M,M,M,M,M,50.00,KBAM 161735Z AUTO 00000KT 10SM CLR 10/05 A3011 RMK AO1,M
HTH,2023-11-16 17:35,-118.6315,38.5448,1282.89,50.00,41.00,71.07,0.00,0.00,0.00,30.11,M,10.00,M,CLR,M,M,M,M,M,M,M,M,M,M,M,M,M,M,50.00,KHTH 161735Z AUTO 00000KT 10SM CLR 10/05 A3011 RMK A01,M
TMT,2023-11-16 17:35,-117.1971,39.4643,1749.34,38.00,36.50,94.27,0.00,0.00,0.00,30.13,M,10.00,M,CLR,M,M,M,M,M,M,M,M,M,M,M,M,M,M,38.00,KTMT 161735Z AUTO 00000KT 10SM CLR 03/03 A3013 RMK AO2 T00330025,M
10U,2023-11-16 17:40,-116.1876,41.9532,1637.00,42.80,39.20,86.99,190.00,8.00,0.00,30.09,M,10.00,M,OVC,M,M,M,2700.00,M,M,M,M,M,M,M,M,M,M,37.42,K10U 161740Z AUTO 19008KT 10SM OVC027 06/04 A3009 RMK AO2,M
LAS,2023-11-16 17:51,-115.1634,36.0719,663.00,59.00,51.80,76.98,230.00,3.00,0.00,30.09,M,10.00,M,SCT,BKN,M,M,2500.00,3400.00,M,M,M,M,M,M,M,M,M,59.00,KLAS 161751Z 23003KT 10SM SCT025 BKN034 15/11 A3009 RMK AO2,M
P68,2023-11-16 17:53,-116.0056,39.6014,1993.00,48.00,39.00,70.85,190.00,4.00,0.00,30.11,1016.50,M,M,M,M,M,M,M,M,M,M,M,M,M,M,M,M,M,46.10,KP68 161753Z AUTO 19004KT 09/04 A3011 RMK AO1 SLP165 T00890039 10089 21022 51009,M
DRA,2023-11-16 17:53,-116.0278,36.6206,1009.00,58.00,48.00,69.27,110.00,8.00,0.00,30.07,1016.10,10.00,M,FEW,BKN,OVC,M,2000.00,3700.00,4600.00,M,M,M,M,M,M,M,M,58.00,KDRA 161753Z AUTO 11008KT 10SM FEW020 BKN037 OVC046 14/09 A3007 RMK AO2 SLP161 T01440089 10144 20106 53008,M
ELY,2023-11-16 17:53,-114.8453,39.2950,1909.00,47.00,40.00,76.49,30.00,3.00,0.00,30.13,1015.70,10.00,M,OVC,M,M,M,5000.00,M,M,M,M,M,M,M,M,M,M,45.84,KELY 161753Z AUTO 03003KT 10SM OVC050 08/04 A3013 RMK AO2 SLP157 T00830044 10089 20000 51012,M
VGT,2023-11-16 17:53,-115.1933,36.2111,667.00,59.00,52.00,77.55,170.00,3.00,0.00,30.08,1019.70,10.00,M,OVC,M,M,M,3900.00,M,M,M,M,M,M,M,M,M,M,59.00,KVGT 161753Z 17003KT 10SM OVC039 15/11 A3008 RMK AO2 SLP197 T01500111 10150 20122 51015,M
LOL,2023-11-16 17:53,-118.5701,40.0684,1192.43,48.00,41.00,76.58,0.00,0.00,0.00,30.10,1018.90,10.00,M,FEW,M,M,M,6000.00,M,M,M,M,M,M,M,M,M,M,48.00,KLOL 161753Z AUTO 00000KT 10SM FEW060 09/05 A3010 RMK AO2 SLP189 T00890050 10089 21022 53008,M
BVU,2023-11-16 17:55,-114.8611,35.9475,671.00,59.00,51.80,76.98,0.00,0.00,0.00,30.08,M,10.00,M,SCT,BKN,BKN,M,2500.00,4600.00,5000.00,M,M,M,M,M,M,M,M,59.00,KBVU 161755Z AUTO 00000KT 10SM SCT025 BKN046 BKN050 15/11 A3008 RMK AO2,M
CXP,2023-11-16 17:55,-119.7326,39.1923,1431.00,39.20,39.20,100.00,0.00,0.00,0.00,30.13,M,2.50,M,OVC,M,M,M,200.00,M,M,M,BR,M,M,M,M,M,M,39.20,KCXP 161755Z AUTO 00000KT 2 1/2SM BR OVC002 04/04 A3013 RMK AO2,M
RNO,2023-11-16 17:55,-119.7711,39.4839,1341.00,48.00,40.00,73.67,0.00,0.00,0.00,30.10,1017.90,10.00,M,FEW,BKN,M,M,1500.00,5000.00,M,M,M,M,M,M,M,M,M,48.00,KRNO 161755Z 00000KT 10SM FEW015 BKN050 09/04 A3010 RMK AO2 SLP179 T00890044 10089 20039 51012,M
RTS,2023-11-16 17:55,-119.8764,39.6682,1539.00,46.40,39.20,75.84,0.00,0.00,0.00,30.11,M,10.00,M,BKN,BKN,OVC,M,3900.00,4500.00,8000.00,M,M,M,M,M,M,M,M,46.40,KRTS 161755Z AUTO 00000KT 10SM BKN039 BKN045 OVC080 08/04 A3011 RMK AO2,M
05U,2023-11-16 17:55,-116.0051,39.6042,1811.23,50.00,39.20,66.27,M,3.00,0.00,30.14,M,10.00,M,M,M,M,M,M,M,M,M,M,M,M,M,M,M,M,50.00,K05U 161755Z AUTO VRB03KT 10SM 10/04 A3014 RMK A01,M
MEV,2023-11-16 17:55,-119.7500,38.9963,1441.42,41.00,41.00,100.00,0.00,0.00,0.00,30.11,M,9.00,M,BKN,OVC,M,M,400.00,5000.00,M,M,M,M,M,M,M,M,M,41.00,KMEV 161755Z AUTO 00000KT 9SM BKN004 OVC050 05/05 A3011 RMK AO2,M
BAM,2023-11-16 17:55,-116.8743,40.5990,1382.36,51.80,41.00,66.48,0.00,0.00,0.00,30.11,M,10.00,M,CLR,M,M,M,M,M,M,M,M,M,M,M,M,M,M,51.80,KBAM 161755Z AUTO 00000KT 10SM CLR 11/05 A3011 RMK AO1,M
HTH,2023-11-16 17:55,-118.6315,38.5448,1282.89,51.80,39.20,61.99,0.00,0.00,0.00,30.11,M,10.00,M,CLR,M,M,M,M,M,M,M,M,M,M,M,M,M,M,51.80,KHTH 161755Z AUTO 00000KT 10SM CLR 11/04 A3011 RMK A01,M
TMT,2023-11-16 17:55,-117.1971,39.4643,1749.34,40.60,37.60,88.95,0.00,0.00,0.00,30.14,M,10.00,M,CLR,M,M,M,M,M,M,M,M,M,M,M,M,M,M,40.60,KTMT 161755Z AUTO 00000KT 10SM CLR 05/03 A3014 RMK AO2 T00480031 10048 21028,M
INS,2023-11-16 17:55,-115.6733,36.5872,955.00,58.00,29.00,32.91,80.00,3.00,0.00,30.09,1016.40,10.00,M,CLR,M,M,M,M,M,M,M,M,M,M,M,M,M,M,58.00,KINS 161755Z AUTO 08003KT 10SM CLR 15/M02 A3009 RMK AO2 SLP164 T01451016 10145 20099 52012 $,M
LSV,2023-11-16 17:55,-115.0343,36.2362,570.00,62.00,61.50,98.25,0.00,0.00,0.00,30.06,1017.00,10.00,M,OVC,M,M,M,4900.00,M,M,M,M,M,M,M,M,M,M,62.00,KLSV 161755Z AUTO 00000KT 10SM OVC049 17/16 A3006 RMK AO2 SLP170 T01670164 10167 20128 52014,M
EKO,2023-11-16 17:56,-115.7860,40.8242,1367.00,49.00,41.00,73.77,260.00,3.00,0.00,30.10,1017.00,10.00,M,FEW,M,M,M,2900.00,M,M,M,M,M,M,M,M,M,M,48.12,KEKO 161756Z AUTO 26003KT 10SM FEW029 09/05 A3010 RMK AO2 SLP170 60006 T00940050 10094 20050 53005,M
NFL,2023-11-16 17:56,-118.7010,39.4166,1199.00,50.00,42.00,73.87,0.00,0.00,0.00,30.10,1015.90,10.00,M,SCT,SCT,M,M,7000.00,10000.00,M,M,M,M,M,M,M,M,M,50.00,KNFL 161756Z 00000KT 10SM SCT070 SCT100 10/06 A3010 RMK AO2 SLP159 T01000056 10100 20006 51017,M
HND,2023-11-16 17:56,-115.1344,35.9729,742.79,58.00,51.00,77.47,0.00,0.00,0.00,30.12,1020.80,10.00,M,BKN,OVC,M,M,1700.00,3500.00,M,M,M,M,M,M,M,M,M,58.00,KHND 161756Z 00000KT 10SM BKN017 OVC035 14/11 A3012 RMK AO2 SLP208 T01440106 10150 20117 52016,M
TPH,2023-11-16 17:56,-117.0904,38.0505,1654.00,48.00,42.00,79.60,10.00,3.00,0.00,30.13,1018.50,10.00,M,SCT,OVC,M,M,1600.00,3500.00,M,M,M,M,M,M,M,M,M,46.98,KTPH 161756Z AUTO 01003KT 10SM SCT016 OVC035 09/06 A3013 RMK AO2 SLP185 T00890056 10094 20056 51015,M
LAS,2023-11-16 17:56,-115.1634,36.0719,663.00,60.00,52.00,74.83,M,3.00,0.00,30.10,1018.30,10.00,M,SCT,BKN,M,M,2500.00,3400.00,M,M,M,M,M,M,M,M,M,60.00,KLAS 161756Z VRB03KT 10SM SCT025 BKN034 16/11 A3010 RMK AO2 SLP183 T01560111 10156 20128 51009,M
10U,2023-11-16 18:00,-116.1876,41.9532,1637.00,42.80,39.20,86.99,210.00,6.00,0.00,30.09,M,10.00,M,BKN,BKN,BKN,M,2600.00,3300.00,3900.00,M,M,M,M,M,M,M,M,38.54,K10U 161800Z AUTO 21006KT 10SM BKN026 BKN033 BKN039 06/04 A3009 RMK AO2,M
BVU,2023-11-16 18:15,-114.8611,35.9475,671.00,59.00,53.60,82.25,220.00,4.00,0.00,30.08,M,10.00,M,FEW,BKN,BKN,M,2500.00,4600.00,5000.00,M,M,M,M,M,M,M,M,59.00,KBVU 161815Z AUTO 22004KT 10SM FEW025 BKN046 BKN050 15/12 A3008 RMK AO2,M
CXP,2023-11-16 18:15,-119.7326,39.1923,1431.00,41.00,41.00,100.00,0.00,0.00,0.00,30.13,M,4.00,M,OVC,M,M,M,300.00,M,M,M,BR,M,M,M,M,M,M,41.00,KCXP 161815Z AUTO 00000KT 4SM BR OVC003 05/05 A3013 RMK AO2,M
LSV,2023-11-16 18:15,-115.0343,36.2362,570.00,64.40,62.60,93.88,0.00,0.00,0.00,30.06,1017.00,10.00,M,BKN,M,M,M,5000.00,M,M,M,M,M,M,M,M,M,M,64.40,KLSV 161815Z AUTO 00000KT 10SM BKN050 18/17 A3006 RMK AO2 SLP170,M
RTS,2023-11-16 18:15,-119.8764,39.6682,1539.00,46.40,41.00,81.34,140.00,5.00,0.00,30.12,M,10.00,M,BKN,BKN,BKN,M,3700.00,4400.00,5500.00,M,M,M,M,M,M,M,M,43.50,KRTS 161815Z AUTO 14005KT 10SM BKN037 BKN044 BKN055 08/05 A3012 RMK AO2,M
05U,2023-11-16 18:15,-116.0051,39.6042,1811.23,50.00,37.40,61.76,0.00,0.00,0.00,30.14,M,10.00,M,M,M,M,M,M,M,M,M,M,M,M,M,M,M,M,50.00,K05U 161815Z AUTO 00000KT 10SM 10/03 A3014 RMK A01,M
MEV,2023-11-16 18:15,-119.7500,38.9963,1441.42,42.80,41.00,93.30,0.00,0.00,0.00,30.11,M,10.00,M,FEW,SCT,BKN,M,400.00,5000.00,6500.00,M,M,M,M,M,M,M,M,42.80,KMEV 161815Z AUTO 00000KT 10SM FEW004 SCT050 BKN065 06/05 A3011 RMK AO2,M
BAM,2023-11-16 18:15,-116.8743,40.5990,1382.36,51.80,41.00,66.48,0.00,0.00,0.00,30.11,M,10.00,M,CLR,M,M,M,M,M,M,M,M,M,M,M,M,M,M,51.80,KBAM 161815Z AUTO 00000KT 10SM CLR 11/05 A3011 RMK AO1,M
HTH,2023-11-16 18:15,-118.6315,38.5448,1282.89,51.80,39.20,61.99,M,3.00,0.00,30.11,M,10.00,M,CLR,M,M,M,M,M,M,M,M,M,M,M,M,M,M,51.80,KHTH 161815Z AUTO VRB03KT 10SM CLR 11/04 A3011 RMK A01,M
TMT,2023-11-16 18:15,-117.1971,39.4643,1749.34,42.80,37.80,82.35,0.00,0.00,0.00,30.13,M,10.00,M,CLR,M,M,M,M,M,M,M,M,M,M,M,M,M,M,42.80,KTMT 161815Z AUTO 00000KT 10SM CLR 06/03 A3013 RMK AO2 T00600032,M
10U,2023-11-16 18:20,-116.1876,41.9532,1637.00,44.60,39.20,81.20,200.00,7.00,0.00,30.10,M,10.00,M,FEW,BKN,M,M,2500.00,3600.00,M,M,M,M,M,M,M,M,M,40.14,K10U 161820Z AUTO 20007KT 10SM FEW025 BKN036 07/04 A3010 RMK AO2,M
BVU,2023-11-16 18:35,-114.8611,35.9475,671.00,59.00,53.60,82.25,0.00,0.00,0.00,30.08,M,10.00,M,FEW,OVC,M,M,2600.00,4800.00,M,M,M,M,M,M,M,M,M,59.00,KBVU 161835Z AUTO 00000KT 10SM FEW026 OVC048 15/12 A3008 RMK AO2,M
CXP,2023-11-16 18:35,-119.7326,39.1923,1431.00,41.00,41.00,100.00,0.00,0.00,0.00,30.13,M,5.00,M,OVC,M,M,M,400.00,M,M,M,BR,M,M,M,M,M,M,41.00,KCXP 161835Z AUTO 00000KT 5SM BR OVC004 05/05 A3013 RMK AO2,M
RTS,2023-11-16 18:35,-119.8764,39.6682,1539.00,48.20,41.00,76.01,M,3.00,0.00,30.11,M,10.00,M,BKN,BKN,OVC,M,4100.00,5000.00,5500.00,M,M,M,M,M,M,M,M,47.21,KRTS 161835Z AUTO VRB03KT 10SM BKN041 BKN050 OVC055 09/05 A3011 RMK AO2,M
05U,2023-11-16 18:35,-116.0051,39.6042,1811.23,53.60,39.20,58.02,150.00,7.00,0.00,30.15,M,10.00,M,M,M,M,M,M,M,M,M,M,M,M,M,M,M,M,53.60,K05U 161835Z AUTO 15007KT 10SM 12/04 A3015 RMK A01,M
MEV,2023-11-16 18:35,-119.7500,38.9963,1441.42,42.80,41.00,93.30,0.00,0.00,0.00,30.11,M,10.00,M,FEW,FEW,BKN,M,600.00,4200.00,6000.00,M,M,M,M,M,M,M,M,42.80,KMEV 161835Z AUTO 00000KT 10SM FEW006 FEW042 BKN060 06/05 A3011 RMK AO2,M
BAM,2023-11-16 18:35,-116.8743,40.5990,1382.36,53.60,41.00,62.23,0.00,0.00,0.00,30.11,M,10.00,M,CLR,M,M,M,M,M,M,M,M,M,M,M,M,M,M,53.60,KBAM 161835Z AUTO 00000KT 10SM CLR 12/05 A3011 RMK AO1,M
HTH,2023-11-16 18:35,-118.6315,38.5448,1282.89,51.80,41.00,66.48,280.00,5.00,0.00,30.10,M,10.00,M,CLR,M,M,M,M,M,M,M,M,M,M,M,M,M,M,51.80,KHTH 161835Z AUTO 28005KT 10SM CLR 11/05 A3010 RMK A01,M
TMT,2023-11-16 18:35,-117.1971,39.4643,1749.34,45.00,39.20,79.98,0.00,0.00,0.00,30.14,M,10.00,M,CLR,M,M,M,M,M,M,M,M,M,M,M,M,M,M,45.00,KTMT 161835Z AUTO 00000KT 10SM CLR 07/04 A3014 RMK AO2 T00720040,M
10U,2023-11-16 18:40,-116.1876,41.9532,1637.00,46.40,39.20,75.84,200.00,6.00,0.00,30.10,M,10.00,11.00,FEW,FEW,BKN,M,2500.00,3500.00,11000.00,M,M,M,M,M,M,M,M,42.87,K10U 161840Z AUTO 20006G11KT 10SM FEW025 FEW035 BKN110 08/04 A3010 RMK AO2,M
INS,2023-11-16 18:40,-115.6733,36.5872,955.00,60.80,30.20,31.28,90.00,4.00,0.00,30.09,1016.40,10.00,M,BKN,BKN,M,M,2200.00,4500.00,M,M,M,M,M,M,M,M,M,60.80,KINS 161840Z AUTO 09004KT 10SM BKN022 BKN045 16/M01 A3009 RMK AO2 SLP164 $,M
HND,2023-11-16 18:40,-115.1344,35.9729,742.79,59.00,51.80,76.98,0.00,0.00,0.00,30.11,M,10.00,M,SCT,OVC,M,M,2100.00,3700.00,M,M,M,M,M,M,M,M,M,59.00,KHND 161840Z 00000KT 10SM SCT021 OVC037 15/11 A3011 RMK AO2,M
TPH,2023-11-16 18:42,-117.0904,38.0505,1654.00,50.00,41.00,71.07,170.00,6.00,0.00,30.12,M,10.00,M,FEW,BKN,BKN,M,2000.00,2900.00,3500.00,M,M,M,M,M,M,M,M,50.00,KTPH 161842Z AUTO 17006KT 10SM FEW020 BKN029 BKN035 10/05 A3012 RMK AO2 T01000050,M
DRA,2023-11-16 18:43,-116.0278,36.6206,1009.00,56.00,50.00,80.23,230.00,10.00,0.00,30.10,M,10.00,M,BKN,OVC,M,M,2200.00,5000.00,M,M,M,M,M,M,M,M,M,56.00,KDRA 161843Z AUTO 23010KT 10SM BKN022 OVC050 13/10 A3010 RMK AO2 T01330100,M
P68,2023-11-16 18:53,-116.0056,39.6014,1993.00,51.00,39.00,63.36,10.00,6.00,0.00,30.12,1016.60,M,M,M,M,M,M,M,M,M,M,M,M,M,M,M,M,M,51.00,KP68 161853Z AUTO 01006KT 11/04 A3012 RMK AO1 SLP166 T01060039,M
DRA,2023-11-16 18:53,-116.0278,36.6206,1009.00,55.00,50.00,83.20,220.00,7.00,0.00,30.10,1017.10,10.00,M,BKN,OVC,M,M,2200.00,5000.00,M,M,M,M,M,M,M,M,M,55.00,KDRA 161853Z AUTO 22007KT 10SM BKN022 OVC050 13/10 A3010 RMK AO2 SLP171 T01280100,M
ELY,2023-11-16 18:53,-114.8453,39.2950,1909.00,49.00,39.00,68.25,120.00,4.00,0.00,30.13,1015.60,10.00,M,SCT,M,M,M,5000.00,M,M,M,M,M,M,M,M,M,M,47.27,KELY 161853Z AUTO 12004KT 10SM SCT050 09/04 A3013 RMK AO2 SLP156 T00940039,M
VGT,2023-11-16 18:53,-115.1933,36.2111,667.00,62.00,52.00,69.71,0.00,0.00,0.00,30.08,1019.60,10.00,M,OVC,M,M,M,4500.00,M,M,M,M,M,M,M,M,M,M,62.00,KVGT 161853Z 00000KT 10SM OVC045 17/11 A3008 RMK AO2 SLP196 T01670111,M
LOL,2023-11-16 18:53,-118.5701,40.0684,1192.43,50.00,41.00,71.07,0.00,0.00,0.00,30.10,1019.00,10.00,M,M,M,M,M,M,M,M,M,M,M,M,M,M,M,M,50.00,KLOL 161853Z AUTO 00000KT 10SM 10/05 A3010 RMK AO2 SLP190 T01000050 PNO $,M
BVU,2023-11-16 18:55,-114.8611,35.9475,671.00,59.00,51.80,76.98,0.00,0.00,0.00,30.08,M,10.00,M,SCT,BKN,M,M,2500.00,4900.00,M,M,M,M,M,M,M,M,M,59.00,KBVU 161855Z AUTO 00000KT 10SM SCT025 BKN049 15/11 A3008 RMK AO2,M
CXP,2023-11-16 18:55,-119.7326,39.1923,1431.00,44.60,44.60,100.00,0.00,0.00,0.00,30.12,M,10.00,M,SCT,BKN,M,M,400.00,6000.00,M,M,M,M,M,M,M,M,M,44.60,KCXP 161855Z AUTO 00000KT 10SM SCT004 BKN060 07/07 A3012 RMK AO2,M
RNO,2023-11-16 18:55,-119.7711,39.4839,1341.00,50.00,40.00,68.37,0.00,0.00,0.00,30.10,1017.60,10.00,M,FEW,BKN,M,M,2000.00,5500.00,M,M,M,M,M,M,M,M,M,50.00,KRNO 161855Z 00000KT 10SM FEW020 BKN055 10/04 A3010 RMK AO2 SLP176 T01000044,M
RTS,2023-11-16 18:55,-119.8764,39.6682,1539.00,50.00,39.20,66.27,0.00,0.00,0.00,30.11,M,10.00,M,FEW,BKN,OVC,M,4500.00,5000.00,6500.00,M,M,M,M,M,M,M,M,50.00,KRTS 161855Z AUTO 00000KT 10SM FEW045 BKN050 OVC065 10/04 A3011 RMK AO2,M
05U,2023-11-16 18:55,-116.0051,39.6042,1811.23,51.80,39.20,61.99,180.00,6.00,0.00,30.14,M,10.00,M,M,M,M,M,M,M,M,M,M,M,M,M,M,M,M,51.80,K05U 161855Z AUTO 18006KT 10SM 11/04 A3014 RMK A01,M
MEV,2023-11-16 18:55,-119.7500,38.9963,1441.42,44.60,41.00,87.09,0.00,0.00,0.00,30.11,M,10.00,M,BKN,M,M,M,7000.00,M,M,M,M,M,M,M,M,M,M,44.60,KMEV 161855Z AUTO 00000KT 10SM BKN070 07/05 A3011 RMK AO2,M
BAM,2023-11-16 18:55,-116.8743,40.5990,1382.36,53.60,41.00,62.23,240.00,4.00,0.00,30.11,M,10.00,M,CLR,M,M,M,M,M,M,M,M,M,M,M,M,M,M,53.60,KBAM 161855Z AUTO 24004KT 10SM CLR 12/05 A3011 RMK AO1,M
HTH,2023-11-16 18:55,-118.6315,38.5448,1282.89,53.60,39.20,58.02,0.00,0.00,0.00,30.09,M,10.00,M,CLR,M,M,M,M,M,M,M,M,M,M,M,M,M,M,53.60,KHTH 161855Z AUTO 00000KT 10SM CLR 12/04 A3009 RMK A01,M
TMT,2023-11-16 18:55,-117.1971,39.4643,1749.34,46.60,39.20,75.27,0.00,0.00,0.00,30.13,M,10.00,M,CLR,M,M,M,M,M,M,M,M,M,M,M,M,M,M,46.60,KTMT 161855Z AUTO 00000KT 10SM CLR 08/04 A3013 RMK AO2 T00810040,M
INS,2023-11-16 18:55,-115.6733,36.5872,955.00,61.00,30.20,31.05,110.00,3.00,0.00,30.10,1016.70,10.00,M,BKN,BKN,M,M,2300.00,4600.00,M,M,M,M,M,M,M,M,M,61.00,KINS 161855Z AUTO 11003KT 10SM BKN023 BKN046 16/M01 A3010 RMK AO2 SLP167 T01621010 $,M
LSV,2023-11-16 18:55,-115.0343,36.2362,570.00,64.40,54.00,68.95,0.00,0.00,0.00,30.06,1017.00,10.00,M,FEW,BKN,M,M,4500.00,5000.00,M,M,M,M,M,M,M,M,M,64.40,KLSV 161855Z AUTO 00000KT 10SM FEW045 BKN050 18/12 A3006 RMK AO2 SLP170 T01800122,M
EKO,2023-11-16 18:56,-115.7860,40.8242,1367.00,51.00,42.00,71.18,250.00,6.00,0.00,30.10,1017.70,10.00,M,FEW,OVC,M,M,2000.00,3700.00,M,M,M,M,M,M,M,M,M,51.00,KEKO 161856Z AUTO 25006KT 10SM FEW020 OVC037 11/06 A3010 RMK AO2 SLP177 T01060056,M
NFL,2023-11-16 18:56,-118.7010,39.4166,1199.00,54.00,42.00,63.74,0.00,0.00,0.00,30.09,1015.80,10.00,M,SCT,SCT,SCT,M,7000.00,15000.00,22000.00,M,M,M,M,M,M,M,M,54.00,KNFL 161856Z 00000KT 10SM SCT070 SCT150 SCT220 12/06 A3009 RMK AO2 SLP158 T01220056,M
HND,2023-11-16 18:56,-115.1344,35.9729,742.79,59.00,51.00,74.74,0.00,0.00,0.00,30.11,1020.70,10.00,M,OVC,M,M,M,3400.00,M,M,M,M,M,M,M,M,M,M,59.00,KHND 161856Z 00000KT 10SM OVC034 15/11 A3011 RMK AO2 SLP207 T01500106,M
TPH,2023-11-16 18:56,-117.0904,38.0505,1654.00,50.00,40.00,68.37,160.00,6.00,0.00,30.12,1017.90,10.00,M,FEW,SCT,BKN,M,2000.00,2500.00,3000.00,M,M,M,M,M,M,M,M,50.00,KTPH 161856Z AUTO 16006KT 10SM FEW020 SCT025 BKN030 10/04 A3012 RMK AO2 SLP179 T01000044,M
LAS,2023-11-16 18:56,-115.1634,36.0719,663.00,61.00,52.00,72.22,M,3.00,0.00,30.09,1018.20,10.00,M,FEW,BKN,M,M,2500.00,4200.00,M,M,M,M,M,M,M,M,M,61.00,KLAS 161856Z VRB03KT 10SM FEW025 BKN042 16/11 A3009 RMK AO2 SLP182 T01610111,M
10U,2023-11-16 19:00,-116.1876,41.9532,1637.00,48.20,39.20,70.88,M,6.00,0.00,30.10,M,10.00,12.00,SCT,BKN,M,M,2200.00,11000.00,M,M,M,M,M,M,M,M,M,45.04,K10U 161900Z AUTO VRB06G12KT 10SM SCT022 BKN110 09/04 A3010 RMK AO2,M
INS,2023-11-16 19:05,-115.6733,36.5872,955.00,60.80,30.20,31.28,80.00,5.00,0.00,30.09,1016.40,10.00,M,SCT,OVC,M,M,2300.00,4800.00,M,M,M,M,M,M,M,M,M,60.80,KINS 161905Z AUTO 08005KT 10SM SCT023 OVC048 16/M01 A3009 RMK AO2 SLP164 $,M
DRA,2023-11-16 19:07,-116.0278,36.6206,1009.00,56.00,50.00,80.23,220.00,8.00,0.00,30.09,M,10.00,M,FEW,BKN,OVC,M,900.00,2200.00,5000.00,M,M,M,M,M,M,M,M,56.00,KDRA 161907Z AUTO 22008KT 10SM FEW009 BKN022 OVC050 13/10 A3009 RMK AO2 T01330100,M
BVU,2023-11-16 19:15,-114.8611,35.9475,671.00,60.80,51.80,72.20,0.00,0.00,0.00,30.08,M,10.00,M,BKN,OVC,M,M,2100.00,2500.00,M,M,M,M,M,M,M,M,M,60.80,KBVU 161915Z AUTO 00000KT 10SM BKN021 OVC025 16/11 A3008 RMK AO2,M
CXP,2023-11-16 19:15,-119.7326,39.1923,1431.00,44.60,44.60,100.00,300.00,3.00,0.00,30.11,M,10.00,M,BKN,BKN,M,M,6000.00,7000.00,M,M,M,M,M,M,M,M,M,43.09,KCXP 161915Z AUTO 30003KT 10SM BKN060 BKN070 07/07 A3011 RMK AO2,M
RTS,2023-11-16 19:15,-119.8764,39.6682,1539.00,48.20,39.20,70.88,150.00,4.00,0.00,30.11,M,10.00,M,BKN,OVC,M,M,5000.00,6000.00,M,M,M,M,M,M,M,M,M,46.34,KRTS 161915Z AUTO 15004KT 10SM BKN050 OVC060 09/04 A3011 RMK AO2,M
05U,2023-11-16 19:15,-116.0051,39.6042,1811.23,51.80,37.40,57.77,160.00,6.00,0.00,30.14,M,10.00,M,M,M,M,M,M,M,M,M,M,M,M,M,M,M,M,51.80,K05U 161915Z AUTO 16006KT 10SM 11/03 A3014 RMK A01,M
MEV,2023-11-16 19:15,-119.7500,38.9963,1441.42,46.40,41.00,81.34,0.00,0.00,0.00,30.10,M,10.00,M,OVC,M,M,M,7000.00,M,M,M,M,M,M,M,M,M,M,46.40,KMEV 161915Z AUTO 00000KT 10SM OVC070 08/05 A3010 RMK AO2,M
BAM,2023-11-16 19:15,-116.8743,40.5990,1382.36,55.40,41.00,58.27,0.00,0.00,0.00,30.10,M,10.00,M,CLR,M,M,M,M,M,M,M,M,M,M,M,M,M,M,55.40,KBAM 161915Z AUTO 00000KT 10SM CLR 13/05 A3010 RMK AO1,M
HTH,2023-11-16 19:15,-118.6315,38.5448,1282.89,53.60,39.20,58.02,M,3.00,0.00,30.09,M,10.00,M,CLR,M,M,M,M,M,M,M,M,M,M,M,M,M,M,53.60,KHTH 161915Z AUTO VRB03KT 10SM CLR 12/04 A3009 RMK A01,M
TMT,2023-11-16 19:15,-117.1971,39.4643,1749.34,47.50,38.70,71.36,0.00,0.00,0.00,30.12,M,10.00,M,CLR,M,M,M,M,M,M,M,M,M,M,M,M,M,M,47.50,KTMT 161915Z AUTO 00000KT 10SM CLR 09/04 A3012 RMK AO2 T00860037,M
DRA,2023-11-16 19:18,-116.0278,36.6206,1009.00,56.00,50.00,80.23,220.00,8.00,0.00,30.09,M,10.00,M,FEW,BKN,OVC,M,800.00,4000.00,5000.00,M,M,M,M,M,M,M,M,56.00,KDRA 161918Z AUTO 22008KT 10SM FEW008 BKN040 OVC050 13/10 A3009 RMK AO2 T01330100,M
10U,2023-11-16 19:20,-116.1876,41.9532,1637.00,48.20,37.40,66.05,210.00,7.00,0.00,30.09,M,10.00,12.00,BKN,M,M,M,2300.00,M,M,M,M,M,M,M,M,M,M,44.53,K10U 161920Z AUTO 21007G12KT 10SM BKN023 09/03 A3009 RMK AO2,M
LSV,2023-11-16 19:27,-115.0343,36.2362,570.00,68.00,57.20,68.35,0.00,0.00,0.00,30.05,1016.50,10.00,M,FEW,SCT,M,M,3000.00,5000.00,M,M,M,M,M,M,M,M,M,68.00,KLSV 161927Z 00000KT 10SM FEW030 SCT050 20/14 A3005 RMK A02A SLP165,M
BVU,2023-11-16 19:35,-114.8611,35.9475,671.00,60.80,51.80,72.20,0.00,0.00,0.00,30.07,M,10.00,M,BKN,OVC,M,M,2200.00,2700.00,M,M,M,M,M,M,M,M,M,60.80,KBVU 161935Z AUTO 00000KT 10SM BKN022 OVC027 16/11 A3007 RMK AO2,M
CXP,2023-11-16 19:35,-119.7326,39.1923,1431.00,46.40,41.00,81.34,0.00,0.00,0.00,30.11,M,10.00,M,SCT,SCT,M,M,6000.00,7000.00,M,M,M,M,M,M,M,M,M,46.40,KCXP 161935Z AUTO 00000KT 10SM SCT060 SCT070 08/05 A3011 RMK AO2,M
RTS,2023-11-16 19:35,-119.8764,39.6682,1539.00,50.00,37.40,61.76,120.00,4.00,0.00,30.10,M,10.00,M,FEW,SCT,OVC,M,3900.00,5000.00,6500.00,M,M,M,M,M,M,M,M,50.00,KRTS 161935Z AUTO 12004KT 10SM FEW039 SCT050 OVC065 10/03 A3010 RMK AO2,M
05U,2023-11-16 19:35,-116.0051,39.6042,1811.23,50.00,37.40,61.76,160.00,6.00,0.00,30.13,M,10.00,M,M,M,M,M,M,M,M,M,M,M,M,M,M,M,M,50.00,K05U 161935Z AUTO 16006KT 10SM 10/03 A3013 RMK A01,M
BAM,2023-11-16 19:35,-116.8743,40.5990,1382.36,55.40,41.00,58.27,0.00,0.00,0.00,30.09,M,10.00,M,CLR,M,M,M,M,M,M,M,M,M,M,M,M,M,M,55.40,KBAM 161935Z AUTO 00000KT 10SM CLR 13/05 A3009 RMK AO1,M
TMT,2023-11-16 19:35,-117.1971,39.4643,1749.34,48.70,39.00,69.02,60.00,3.00,0.00,30.11,M,10.00,M,CLR,M,M,M,M,M,M,M,M,M,M,M,M,M,M,47.78,KTMT 161935Z AUTO 06003KT 10SM CLR 09/04 A3011 RMK AO2 T00930039,M
10U,2023-11-16 19:40,-116.1876,41.9532,1637.00,50.00,39.20,66.27,210.00,8.00,0.00,30.09,M,10.00,M,BKN,M,M,M,2300.00,M,M,M,M,M,M,M,M,M,M,50.00,K10U 161940Z AUTO 21008KT 190V270 10SM BKN023 10/04 A3009 RMK AO2,M
P68,2023-11-16 19:53,-116.0056,39.6014,1993.00,50.00,37.00,60.79,330.00,4.00,0.00,30.10,1016.20,M,M,M,M,M,M,M,M,M,M,M,M,M,M,M,M,M,50.00,KP68 161953Z AUTO 33004KT 10/03 A3010 RMK AO1 SLP162 T01000028,M
DRA,2023-11-16 19:53,-116.0278,36.6206,1009.00,58.00,50.00,74.64,200.00,6.00,0.00,30.08,1016.50,10.00,M,FEW,FEW,M,M,4100.00,6000.00,M,M,M,M,M,M,M,M,M,58.00,KDRA 161953Z AUTO 20006KT 10SM FEW041 FEW060 14/10 A3008 RMK AO2 SLP165 T01440100,M
ELY,2023-11-16 19:53,-114.8453,39.2950,1909.00,53.00,36.00,52.30,300.00,3.00,0.00,30.11,1014.50,10.00,M,CLR,M,M,M,M,M,M,M,M,M,M,M,M,M,M,53.00,KELY 161953Z AUTO 30003KT 10SM CLR 12/02 A3011 RMK AO2 SLP145 T01170022,M
VGT,2023-11-16 19:53,-115.1933,36.2111,667.00,64.00,52.00,64.97,110.00,4.00,0.00,30.06,1018.60,10.00,M,CLR,M,M,M,M,M,M,M,M,M,M,M,M,M,M,64.00,KVGT 161953Z 11004KT 10SM CLR 18/11 A3006 RMK AO2 SLP186 T01780111,M
LOL,2023-11-16 19:53,-118.5701,40.0684,1192.43,53.00,41.00,63.61,190.00,5.00,0.00,30.08,1018.10,M,M,M,M,M,M,M,M,M,M,M,M,M,M,M,M,M,53.00,KLOL 161953Z AUTO 19005KT 12/05 A3008 RMK AO2 SLP181 T01170050 PWINO PNO $,M
BVU,2023-11-16 19:55,-114.8611,35.9475,671.00,62.60,53.60,72.38,0.00,0.00,0.00,30.06,M,10.00,M,FEW,FEW,SCT,M,2200.00,2700.00,3500.00,M,M,M,M,M,M,M,M,62.60,KBVU 161955Z AUTO 00000KT 10SM FEW022 FEW027 SCT035 17/12 A3006 RMK AO2,M
CXP,2023-11-16 19:55,-119.7326,39.1923,1431.00,48.20,41.00,76.01,0.00,0.00,0.00,30.10,M,10.00,M,FEW,M,M,M,7000.00,M,M,M,M,M,M,M,M,M,M,48.20,KCXP 161955Z AUTO 00000KT 10SM FEW070 09/05 A3010 RMK AO2,M
RNO,2023-11-16 19:55,-119.7711,39.4839,1341.00,55.00,39.00,54.70,M,3.00,0.00,30.08,1016.50,10.00,M,SCT,SCT,SCT,M,4000.00,9000.00,20000.00,M,M,M,M,M,M,M,M,55.00,KRNO 161955Z VRB03KT 10SM SCT040 SCT090 SCT200 13/04 A3008 RMK AO2 SLP165 T01280039,M
RTS,2023-11-16 19:55,-119.8764,39.6682,1539.00,50.00,37.40,61.76,0.00,0.00,0.00,30.09,M,10.00,M,SCT,BKN,OVC,M,4000.00,4800.00,6500.00,M,M,M,M,M,M,M,M,50.00,KRTS 161955Z AUTO 00000KT 10SM SCT040 BKN048 OVC065 10/03 A3009 RMK AO2,M
05U,2023-11-16 19:55,-116.0051,39.6042,1811.23,50.00,37.40,61.76,110.00,4.00,0.00,30.12,M,10.00,M,M,M,M,M,M,M,M,M,M,M,M,M,M,M,M,50.00,K05U 161955Z AUTO 11004KT 10SM 10/03 A3012 RMK A01,M
MEV,2023-11-16 19:55,-119.7500,38.9963,1441.42,48.20,42.80,81.47,0.00,0.00,0.00,30.09,M,10.00,M,FEW,BKN,M,M,1100.00,7000.00,M,M,M,M,M,M,M,M,M,48.20,KMEV 161955Z AUTO 00000KT 10SM FEW011 BKN070 09/06 A3009 RMK AO2,M
BAM,2023-11-16 19:55,-116.8743,40.5990,1382.36,55.40,39.20,54.34,210.00,3.00,0.00,30.09,M,10.00,M,CLR,M,M,M,M,M,M,M,M,M,M,M,M,M,M,55.40,KBAM 161955Z AUTO 21003KT 10SM CLR 13/04 A3009 RMK AO1,M
HTH,2023-11-16 19:55,-118.6315,38.5448,1282.89,55.40,41.00,58.27,330.00,6.00,0.00,30.08,M,10.00,M,CLR,M,M,M,M,M,M,M,M,M,M,M,M,M,M,55.40,KHTH 161955Z AUTO 33006KT 10SM CLR 13/05 A3008 RMK A01,M
TMT,2023-11-16 19:55,-117.1971,39.4643,1749.34,51.80,39.00,61.51,0.00,0.00,0.00,30.10,M,10.00,M,CLR,M,M,M,M,M,M,M,M,M,M,M,M,M,M,51.80,KTMT 161955Z AUTO 00000KT 10SM CLR 11/04 A3010 RMK AO2 T01100038,M
INS,2023-11-16 19:55,-115.6733,36.5872,955.00,62.00,30.00,29.73,110.00,7.00,0.00,30.07,1015.90,10.00,M,FEW,M,M,M,2800.00,M,M,M,M,M,M,M,M,M,M,62.00,KINS 161955Z AUTO 11007KT 10SM FEW028 17/M01 A3007 RMK AO2 SLP159 T01661011 $,M
LSV,2023-11-16 19:55,-115.0343,36.2362,570.00,67.00,52.30,59.18,100.00,5.00,0.00,30.03,1015.80,10.00,M,CLR,M,M,M,M,M,M,M,M,M,M,M,M,M,M,67.00,KLSV 161955Z AUTO 10005KT 10SM CLR 20/11 A3003 RMK AO2 SLP158 T01950113,M
EKO,2023-11-16 19:56,-115.7860,40.8242,1367.00,51.00,40.00,65.87,250.00,5.00,0.00,30.08,1017.30,10.00,M,FEW,BKN,M,M,3400.00,4300.00,M,M,M,M,M,M,M,M,M,51.00,KEKO 161956Z AUTO 25005KT 10SM FEW034 BKN043 11/04 A3008 RMK AO2 SLP173 T01060044,M
NFL,2023-11-16 19:56,-118.7010,39.4166,1199.00,56.00,41.00,57.02,110.00,4.00,0.00,30.07,1015.10,10.00,M,SCT,SCT,SCT,M,7000.00,15000.00,22000.00,M,M,M,M,M,M,M,M,56.00,KNFL 161956Z 11004KT 10SM SCT070 SCT150 SCT220 13/05 A3007 RMK AO2 SLP151 T01330050,M
HND,2023-11-16 19:56,-115.1344,35.9729,742.79,62.00,51.00,67.18,0.00,0.00,0.00,30.09,1019.80,10.00,M,FEW,M,M,M,3400.00,M,M,M,M,M,M,M,M,M,M,62.00,KHND 161956Z 00000KT 10SM FEW034 17/11 A3009 RMK AO2 SLP198 T01670106,M
TPH,2023-11-16 19:56,-117.0904,38.0505,1654.00,50.00,41.00,71.07,190.00,8.00,0.00,30.11,1017.40,10.00,M,OVC,M,M,M,3800.00,M,M,M,M,M,M,M,M,M,M,50.00,KTPH 161956Z AUTO 19008KT 10SM OVC038 10/05 A3011 RMK AO2 SLP174 T01000050,M
LAS,2023-11-16 19:56,-115.1634,36.0719,663.00,64.00,52.00,64.97,50.00,4.00,0.00,30.07,1017.30,10.00,M,FEW,SCT,M,M,4400.00,7000.00,M,M,M,M,M,M,M,M,M,64.00,KLAS 161956Z 05004KT 10SM FEW044 SCT070 18/11 A3007 RMK AO2 SLP173 T01780111,M
10U,2023-11-16 20:00,-116.1876,41.9532,1637.00,50.00,37.40,61.76,200.00,10.00,0.00,30.09,M,10.00,M,BKN,OVC,M,M,2400.00,11000.00,M,M,M,M,M,M,M,M,M,50.00,K10U 162000Z AUTO 20010KT 10SM BKN024 OVC110 10/03 A3009 RMK AO2,M
BVU,2023-11-16 20:15,-114.8611,35.9475,671.00,64.40,51.80,63.60,0.00,0.00,0.00,30.06,M,10.00,M,CLR,M,M,M,M,M,M,M,M,M,M,M,M,M,M,64.40,KBVU 162015Z AUTO 00000KT 10SM CLR 18/11 A3006 RMK AO2,M
CXP,2023-11-16 20:15,-119.7326,39.1923,1431.00,50.00,39.20,66.27,0.00,0.00,0.00,30.09,M,10.00,M,FEW,FEW,M,M,4500.00,7000.00,M,M,M,M,M,M,M,M,M,50.00,KCXP 162015Z AUTO 00000KT 10SM FEW045 FEW070 10/04 A3009 RMK AO2,M
RTS,2023-11-16 20:15,-119.8764,39.6682,1539.00,50.00,37.40,61.76,M,4.00,0.00,30.09,M,10.00,M,BKN,OVC,M,M,4200.00,4900.00,M,M,M,M,M,M,M,M,M,50.00,KRTS 162015Z AUTO VRB04KT 10SM BKN042 OVC049 10/03 A3009 RMK AO2,M
05U,2023-11-16 20:15,-116.0051,39.6042,1811.23,53.60,35.60,50.36,0.00,0.00,0.00,30.11,M,10.00,M,M,M,M,M,M,M,M,M,M,M,M,M,M,M,M,53.60,K05U 162015Z AUTO 00000KT 10SM 12/02 A3011 RMK A01,M
MEV,2023-11-16 20:15,-119.7500,38.9963,1441.42,46.40,41.00,81.34,0.00,0.00,0.00,30.07,M,10.00,M,FEW,M,M,M,7000.00,M,M,M,M,M,M,M,M,M,M,46.40,KMEV 162015Z AUTO 00000KT 10SM FEW070 08/05 A3007 RMK AO2,M
BAM,2023-11-16 20:15,-116.8743,40.5990,1382.36,57.20,37.40,47.44,240.00,4.00,0.00,30.09,M,10.00,M,CLR,M,M,M,M,M,M,M,M,M,M,M,M,M,M,57.20,KBAM 162015Z AUTO 24004KT 10SM CLR 14/03 A3009 RMK AO1,M
HTH,2023-11-16 20:15,-118.6315,38.5448,1282.89,55.40,41.00,58.27,330.00,7.00,0.00,30.07,M,10.00,M,CLR,M,M,M,M,M,M,M,M,M,M,M,M,M,M,55.40,KHTH 162015Z AUTO 33007KT 10SM CLR 13/05 A3007 RMK A01,M
TMT,2023-11-16 20:15,-117.1971,39.4643,1749.34,52.00,38.00,58.71,0.00,0.00,0.00,30.10,M,10.00,M,CLR,M,M,M,M,M,M,M,M,M,M,M,M,M,M,52.00,KTMT 162015Z AUTO 00000KT 10SM CLR 11/03 A3010 RMK AO2 T01110034,M
10U,2023-11-16 20:20,-116.1876,41.9532,1637.00,48.20,37.40,66.05,220.00,9.00,0.00,30.09,M,10.00,15.00,BKN,BKN,OVC,M,2500.00,3000.00,11000.00,M,M,M,M,M,M,M,M,43.66,K10U 162020Z AUTO 22009G15KT 10SM BKN025 BKN030 OVC110 09/03 A3009 RMK AO2,M
CXP,2023-11-16 20:30,-119.7326,39.1923,1431.00,50.00,39.20,66.27,0.00,0.00,0.00,30.08,M,10.00,M,SCT,SCT,BKN,M,5000.00,5500.00,7500.00,M,M,M,M,M,M,M,M,50.00,KCXP 162030Z AUTO 00000KT 10SM SCT050 SCT055 BKN075 10/04 A3008 RMK AO2,M
05U,2023-11-16 20:30,-116.0051,39.6042,1811.23,55.40,35.60,47.16,M,3.00,0.00,30.11,M,10.00,M,M,M,M,M,M,M,M,M,M,M,M,M,M,M,M,55.40,K05U 162030Z AUTO VRB03KT 10SM 13/02 A3011 RMK A01,M
HTH,2023-11-16 20:30,-118.6315,38.5448,1282.89,55.40,41.00,58.27,320.00,6.00,0.00,30.06,M,10.00,M,CLR,M,M,M,M,M,M,M,M,M,M,M,M,M,M,55.40,KHTH 162030Z AUTO 32006KT 10SM CLR 13/05 A3006 RMK A01,M
BVU,2023-11-16 20:35,-114.8611,35.9475,671.00,64.40,51.80,63.60,10.00,3.00,0.00,30.04,M,10.00,M,CLR,M,M,M,M,M,M,M,M,M,M,M,M,M,M,64.40,KBVU 162035Z AUTO 01003KT 10SM CLR 18/11 A3004 RMK AO2,M
RTS,2023-11-16 20:35,-119.8764,39.6682,1539.00,51.80,37.40,57.77,0.00,0.00,0.00,30.08,M,10.00,M,SCT,BKN,OVC,M,4400.00,5000.00,6000.00,M,M,M,M,M,M,M,M,51.80,KRTS 162035Z AUTO 00000KT 10SM SCT044 BKN050 OVC060 11/03 A3008 RMK AO2,M
MEV,2023-11-16 20:35,-119.7500,38.9963,1441.42,48.20,41.00,76.01,0.00,0.00,0.00,30.07,M,10.00,M,FEW,FEW,M,M,6000.00,7500.00,M,M,M,M,M,M,M,M,M,48.20,KMEV 162035Z AUTO 00000KT 10SM FEW060 FEW075 09/05 A3007 RMK AO2,M
BAM,2023-11-16 20:35,-116.8743,40.5990,1382.36,59.00,35.60,41.42,210.00,3.00,0.00,30.08,M,10.00,M,CLR,M,M,M,M,M,M,M,M,M,M,M,M,M,M,59.00,KBAM 162035Z AUTO 21003KT 10SM CLR 15/02 A3008 RMK AO1,M
TMT,2023-11-16 20:35,-117.1971,39.4643,1749.34,51.80,37.60,58.23,0.00,0.00,0.00,30.09,M,10.00,M,CLR,M,M,M,M,M,M,M,M,M,M,M,M,M,M,51.80,KTMT 162035Z AUTO 00000KT 10SM CLR 11/03 A3009 RMK AO2 T01100031,M
10U,2023-11-16 20:35,-116.1876,41.9532,1637.00,48.20,37.40,66.05,220.00,8.00,0.00,30.09,M,10.00,13.00,SCT,BKN,OVC,M,2500.00,3200.00,11000.00,M,M,M,M,M,M,M,M,44.07,K10U 162035Z AUTO 22008G13KT 10SM SCT025 BKN032 OVC110 09/03 A3009 RMK AO2,M
P68,2023-11-16 20:53,-116.0056,39.6014,1993.00,53.00,35.00,50.27,170.00,4.00,0.00,30.07,1015.10,M,M,M,M,M,M,M,M,M,M,M,M,M,M,M,M,M,53.00,KP68 162053Z AUTO 17004KT 12/02 A3007 RMK AO1 SLP151 T01170017 58011,M
DRA,2023-11-16 20:53,-116.0278,36.6206,1009.00,60.00,49.00,66.95,250.00,6.00,0.00,30.06,1015.60,10.00,M,CLR,M,M,M,M,M,M,M,M,M,M,M,M,M,M,60.00,KDRA 162053Z AUTO 25006KT 10SM CLR 16/09 A3006 RMK AO2 SLP156 T01560094 58006,M
ELY,2023-11-16 20:53,-114.8453,39.2950,1909.00,53.00,35.00,50.27,220.00,3.00,0.00,30.09,1014.30,10.00,M,FEW,SCT,M,M,4900.00,6000.00,M,M,M,M,M,M,M,M,M,53.00,KELY 162053Z AUTO 22003KT 10SM FEW049 SCT060 12/02 A3009 RMK AO2 SLP143 T01170017 58011,M
VGT,2023-11-16 20:53,-115.1933,36.2111,667.00,65.00,51.00,60.47,130.00,4.00,0.00,30.04,1017.90,10.00,M,CLR,M,M,M,M,M,M,M,M,M,M,M,M,M,M,65.00,KVGT 162053Z 13004KT 10SM CLR 18/11 A3004 RMK AO2 SLP179 T01830106 58015,M
LOL,2023-11-16 20:53,-118.5701,40.0684,1192.43,56.00,41.00,57.02,10.00,4.00,0.00,30.06,1017.10,10.00,M,CLR,M,M,M,M,M,M,M,M,M,M,M,M,M,M,56.00,KLOL 162053Z AUTO 01004KT 10SM CLR 13/05 A3006 RMK AO2 SLP171 6//// T01330050 58012,M
BVU,2023-11-16 20:55,-114.8611,35.9475,671.00,64.40,51.80,63.60,30.00,4.00,0.00,30.03,M,10.00,M,CLR,M,M,M,M,M,M,M,M,M,M,M,M,M,M,64.40,KBVU 162055Z AUTO 03004KT 10SM CLR 18/11 A3003 RMK AO2,M
CXP,2023-11-16 20:55,-119.7326,39.1923,1431.00,51.80,39.20,61.99,0.00,0.00,0.00,30.08,M,10.00,M,FEW,FEW,BKN,M,4800.00,5500.00,7000.00,M,M,M,M,M,M,M,M,51.80,KCXP 162055Z AUTO 00000KT 10SM FEW048 FEW055 BKN070 11/04 A3008 RMK AO2,M
RNO,2023-11-16 20:55,-119.7711,39.4839,1341.00,56.00,39.00,52.75,0.00,0.00,0.00,30.05,1015.70,10.00,M,SCT,BKN,M,M,4000.00,9000.00,M,M,M,M,M,M,M,M,M,56.00,KRNO 162055Z 00000KT 10SM SCT040 BKN090 13/04 A3005 RMK AO2 SLP157 T01330039 58015,M
RTS,2023-11-16 20:55,-119.8764,39.6682,1539.00,51.80,37.40,57.77,M,5.00,0.00,30.07,M,10.00,M,FEW,SCT,OVC,M,4200.00,4800.00,6500.00,M,M,M,M,M,M,M,M,51.80,KRTS 162055Z AUTO VRB05KT 10SM FEW042 SCT048 OVC065 11/03 A3007 RMK AO2,M
05U,2023-11-16 20:55,-116.0051,39.6042,1811.23,55.40,35.60,47.16,0.00,0.00,0.00,30.10,M,10.00,M,M,M,M,M,M,M,M,M,M,M,M,M,M,M,M,55.40,K05U 162055Z AUTO 00000KT 10SM 13/02 A3010 RMK A01,M
MEV,2023-11-16 20:55,-119.7500,38.9963,1441.42,50.00,41.00,71.07,0.00,0.00,0.00,30.06,M,10.00,M,FEW,M,M,M,6000.00,M,M,M,M,M,M,M,M,M,M,50.00,KMEV 162055Z AUTO 00000KT 10SM FEW060 10/05 A3006 RMK AO2,M
BAM,2023-11-16 20:55,-116.8743,40.5990,1382.36,59.00,35.60,41.42,250.00,7.00,0.00,30.07,M,10.00,M,CLR,M,M,M,M,M,M,M,M,M,M,M,M,M,M,59.00,KBAM 162055Z AUTO 25007KT 10SM CLR 15/02 A3007 RMK AO1,M
HTH,2023-11-16 20:55,-118.6315,38.5448,1282.89,55.40,41.00,58.27,340.00,5.00,0.00,30.05,M,10.00,M,CLR,M,M,M,M,M,M,M,M,M,M,M,M,M,M,55.40,KHTH 162055Z AUTO 34005KT 10SM CLR 13/05 A3005 RMK A01,M
TMT,2023-11-16 20:55,-117.1971,39.4643,1749.34,52.50,37.00,55.42,0.00,0.00,0.00,30.08,M,10.00,M,CLR,M,M,M,M,M,M,M,M,M,M,M,M,M,M,52.50,KTMT 162055Z AUTO 00000KT 10SM CLR 11/03 A3008 RMK AO2 T01140027,M
EKO,2023-11-16 20:56,-115.7860,40.8242,1367.00,55.00,38.00,52.60,250.00,5.00,0.00,30.07,1016.50,10.00,M,SCT,SCT,M,M,3800.00,5000.00,M,M,M,M,M,M,M,M,M,55.00,KEKO 162056Z AUTO 25005KT 10SM SCT038 SCT050 13/03 A3007 RMK AO2 SLP165 T01280033 58008,M
NFL,2023-11-16 20:56,-118.7010,39.4166,1199.00,57.00,40.00,52.90,0.00,0.00,0.00,30.05,1014.40,10.00,M,SCT,SCT,BKN,M,7000.00,15000.00,22000.00,M,M,M,M,M,M,M,M,57.00,KNFL 162056Z 00000KT 10SM SCT070 SCT150 BKN220 14/04 A3005 RMK AO2 SLP144 T01390044 58016,M
HND,2023-11-16 20:56,-115.1344,35.9729,742.79,64.00,51.00,62.62,0.00,0.00,0.00,30.06,1018.60,10.00,M,CLR,M,M,M,M,M,M,M,M,M,M,M,M,M,M,64.00,KHND 162056Z 00000KT 10SM CLR 18/11 A3006 RMK AO2 SLP186 T01780106 58018,M
TPH,2023-11-16 20:56,-117.0904,38.0505,1654.00,53.00,39.00,58.85,150.00,7.00,0.00,30.09,1016.40,10.00,M,OVC,M,M,M,4200.00,M,M,M,M,M,M,M,M,M,M,53.00,KTPH 162056Z AUTO 15007KT 10SM OVC042 12/04 A3009 RMK AO2 SLP164 T01170039 58014,M
LAS,2023-11-16 20:56,-115.1634,36.0719,663.00,66.00,51.00,58.40,M,3.00,0.00,30.04,1016.20,10.00,M,FEW,FEW,M,M,4500.00,25000.00,M,M,M,M,M,M,M,M,M,66.00,KLAS 162056Z VRB03KT 10SM FEW045 FEW250 19/11 A3004 RMK AO2 SLP162 T01890106 58018,M
BVU,2023-11-16 21:15,-114.8611,35.9475,671.00,64.40,51.80,63.60,0.00,0.00,0.00,30.02,M,10.00,M,CLR,M,M,M,M,M,M,M,M,M,M,M,M,M,M,64.40,KBVU 162115Z AUTO 00000KT 10SM CLR 18/11 A3002 RMK AO2,M
CXP,2023-11-16 21:15,-119.7326,39.1923,1431.00,51.80,39.20,61.99,M,3.00,0.00,30.07,M,10.00,M,CLR,M,M,M,M,M,M,M,M,M,M,M,M,M,M,51.80,KCXP 162115Z AUTO VRB03KT 10SM CLR 11/04 A3007 RMK AO2,M
RTS,2023-11-16 21:15,-119.8764,39.6682,1539.00,51.80,35.60,53.81,130.00,5.00,0.00,30.07,M,10.00,M,FEW,FEW,BKN,M,4000.00,4600.00,7000.00,M,M,M,M,M,M,M,M,51.80,KRTS 162115Z AUTO 13005KT 10SM FEW040 FEW046 BKN070 11/02 A3007 RMK AO2,M
05U,2023-11-16 21:15,-116.0051,39.6042,1811.23,55.40,33.80,43.90,0.00,0.00,0.00,30.10,M,10.00,M,M,M,M,M,M,M,M,M,M,M,M,M,M,M,M,55.40,K05U 162115Z AUTO 00000KT 10SM 13/01 A3010 RMK A01,M
MEV,2023-11-16 21:15,-119.7500,38.9963,1441.42,50.00,41.00,71.07,290.00,4.00,0.00,30.06,M,10.00,M,CLR,M,M,M,M,M,M,M,M,M,M,M,M,M,M,50.00,KMEV 162115Z AUTO 29004KT 10SM CLR 10/05 A3006 RMK AO2,M
BAM,2023-11-16 21:15,-116.8743,40.5990,1382.36,59.00,35.60,41.42,240.00,5.00,0.00,30.07,M,10.00,M,CLR,M,M,M,M,M,M,M,M,M,M,M,M,M,M,59.00,KBAM 162115Z AUTO 24005KT 10SM CLR 15/02 A3007 RMK AO1,M
HTH,2023-11-16 21:15,-118.6315,38.5448,1282.89,55.40,39.20,54.34,0.00,0.00,0.00,30.04,M,10.00,M,CLR,M,M,M,M,M,M,M,M,M,M,M,M,M,M,55.40,KHTH 162115Z AUTO 00000KT 10SM CLR 13/04 A3004 RMK A01,M
TMT,2023-11-16 21:15,-117.1971,39.4643,1749.34,53.60,36.30,51.78,50.00,3.00,0.00,30.08,M,10.00,M,CLR,M,M,M,M,M,M,M,M,M,M,M,M,M,M,53.60,KTMT 162115Z AUTO 05003KT 10SM CLR 12/02 A3008 RMK AO2 T01200024,M
10U,2023-11-16 21:20,-116.1876,41.9532,1637.00,50.00,37.40,61.76,200.00,9.00,0.00,30.09,M,10.00,M,SCT,BKN,OVC,M,2700.00,3600.00,4200.00,M,M,M,M,M,M,M,M,50.00,K10U 162120Z AUTO 20009KT 10SM SCT027 BKN036 OVC042 10/03 A3009 RMK AO2,M
05U,2023-11-16 21:30,-116.0051,39.6042,1811.23,55.40,32.00,40.84,0.00,0.00,0.00,30.10,M,10.00,M,M,M,M,M,M,M,M,M,M,M,M,M,M,M,M,55.40,K05U 162130Z AUTO 00000KT 10SM 13/00 A3010 RMK A01,M
BVU,2023-11-16 21:35,-114.8611,35.9475,671.00,66.20,53.60,63.82,30.00,8.00,0.00,30.02,M,10.00,M,SCT,M,M,M,3100.00,M,M,M,M,M,M,M,M,M,M,66.20,KBVU 162135Z AUTO 03008KT 10SM SCT031 19/12 A3002 RMK AO2,M
CXP,2023-11-16 21:35,-119.7326,39.1923,1431.00,51.80,39.20,61.99,0.00,0.00,0.00,30.07,M,10.00,M,CLR,M,M,M,M,M,M,M,M,M,M,M,M,M,M,51.80,KCXP 162135Z AUTO 00000KT 10SM CLR 11/04 A3007 RMK AO2,M
RTS,2023-11-16 21:35,-119.8764,39.6682,1539.00,51.80,35.60,53.81,0.00,0.00,0.00,30.07,M,10.00,M,FEW,BKN,M,M,4000.00,7000.00,M,M,M,M,M,M,M,M,M,51.80,KRTS 162135Z AUTO 00000KT 10SM FEW040 BKN070 11/02 A3007 RMK AO2,M
MEV,2023-11-16 21:35,-119.7500,38.9963,1441.42,50.00,41.00,71.07,0.00,0.00,0.00,30.05,M,10.00,M,CLR,M,M,M,M,M,M,M,M,M,M,M,M,M,M,50.00,KMEV 162135Z AUTO 00000KT 10SM CLR 10/05 A3005 RMK AO2,M
BAM,2023-11-16 21:35,-116.8743,40.5990,1382.36,59.00,35.60,41.42,280.00,4.00,0.00,30.08,M,10.00,M,CLR,M,M,M,M,M,M,M,M,M,M,M,M,M,M,59.00,KBAM 162135Z AUTO 28004KT 10SM CLR 15/02 A3008 RMK AO1,M
HTH,2023-11-16 21:35,-118.6315,38.5448,1282.89,55.40,39.20,54.34,0.00,0.00,0.00,30.04,M,10.00,M,CLR,M,M,M,M,M,M,M,M,M,M,M,M,M,M,55.40,KHTH 162135Z AUTO 00000KT 10SM CLR 13/04 A3004 RMK A01,M
TMT,2023-11-16 21:35,-117.1971,39.4643,1749.34,54.00,36.00,50.42,20.00,6.00,0.00,30.08,M,10.00,M,SCT,M,M,M,4600.00,M,M,M,M,M,M,M,M,M,M,54.00,KTMT 162135Z AUTO 02006KT 10SM SCT046 12/02 A3008 RMK AO2 T01230022,M
10U,2023-11-16 21:40,-116.1876,41.9532,1637.00,51.80,39.20,61.99,190.00,8.00,0.00,30.09,M,10.00,M,FEW,SCT,M,M,2800.00,3900.00,M,M,M,M,M,M,M,M,M,51.80,K10U 162140Z AUTO 19008KT 10SM FEW028 SCT039 11/04 A3009 RMK AO2,M
P68,2023-11-16 21:53,-116.0056,39.6014,1993.00,55.00,34.00,44.90,200.00,6.00,0.00,30.07,1014.60,M,M,M,M,M,M,M,M,M,M,M,M,M,M,M,M,M,55.00,KP68 162153Z AUTO 20006KT 13/01 A3007 RMK AO1 SLP146 T01280011,M
DRA,2023-11-16 21:53,-116.0278,36.6206,1009.00,60.00,49.00,66.95,230.00,6.00,0.00,30.03,1014.70,10.00,M,SCT,BKN,M,M,4700.00,5500.00,M,M,M,M,M,M,M,M,M,60.00,KDRA 162153Z AUTO 23006KT 10SM SCT047 BKN055 16/09 A3003 RMK AO2 SLP147 T01560094,M
ELY,2023-11-16 21:53,-114.8453,39.2950,1909.00,52.00,33.00,48.15,0.00,0.00,0.00,30.09,1014.70,10.00,M,CLR,M,M,M,M,M,M,M,M,M,M,M,M,M,M,52.00,KELY 162153Z AUTO 00000KT 10SM CLR 11/01 A3009 RMK AO2 SLP147 T01110006,M
VGT,2023-11-16 21:53,-115.1933,36.2111,667.00,66.00,51.00,58.40,M,3.00,0.00,30.01,1017.00,10.00,M,CLR,M,M,M,M,M,M,M,M,M,M,M,M,M,M,66.00,KVGT 162153Z VRB03KT 10SM CLR 19/11 A3001 RMK AO2 SLP170 T01890106,M
LOL,2023-11-16 21:53,-118.5701,40.0684,1192.43,57.00,39.00,50.88,M,3.00,0.00,30.05,1017.00,10.00,M,CLR,M,M,M,M,M,M,M,M,M,M,M,M,M,M,57.00,KLOL 162153Z AUTO VRB03KT 10SM CLR 14/04 A3005 RMK AO2 SLP170 T01390039,M
BVU,2023-11-16 21:55,-114.8611,35.9475,671.00,64.40,53.60,67.95,30.00,6.00,0.00,30.01,M,10.00,M,FEW,M,M,M,3200.00,M,M,M,M,M,M,M,M,M,M,64.40,KBVU 162155Z AUTO 03006KT 10SM FEW032 18/12 A3001 RMK AO2,M
CXP,2023-11-16 21:55,-119.7326,39.1923,1431.00,53.60,37.40,54.07,0.00,0.00,0.00,30.07,M,10.00,M,SCT,SCT,M,M,6500.00,7500.00,M,M,M,M,M,M,M,M,M,53.60,KCXP 162155Z AUTO 00000KT 10SM SCT065 SCT075 12/03 A3007 RMK AO2,M
RNO,2023-11-16 21:55,-119.7711,39.4839,1341.00,58.00,38.00,47.20,M,3.00,0.00,30.04,1015.30,10.00,M,SCT,BKN,M,M,4500.00,8000.00,M,M,M,M,M,M,M,M,M,58.00,KRNO 162155Z VRB03KT 10SM SCT045 BKN080 14/03 A3004 RMK AO2 SLP153 SH DSNT W T01440033,M
RTS,2023-11-16 21:55,-119.8764,39.6682,1539.00,53.60,35.60,50.36,130.00,3.00,0.00,30.06,M,10.00,M,BKN,OVC,M,M,4000.00,7000.00,M,M,M,M,M,M,M,M,M,53.60,KRTS 162155Z AUTO 13003KT 10SM BKN040 OVC070 12/02 A3006 RMK AO2,M
05U,2023-11-16 21:55,-116.0051,39.6042,1811.23,57.20,32.00,38.26,10.00,5.00,0.00,30.10,M,10.00,M,M,M,M,M,M,M,M,M,M,M,M,M,M,M,M,57.20,K05U 162155Z AUTO 01005KT 10SM 14/00 A3010 RMK A01,M
MEV,2023-11-16 21:55,-119.7500,38.9963,1441.42,51.80,41.00,66.48,M,3.00,0.00,30.05,M,10.00,M,CLR,M,M,M,M,M,M,M,M,M,M,M,M,M,M,51.80,KMEV 162155Z AUTO VRB03KT 10SM CLR 11/05 A3005 RMK AO2,M
BAM,2023-11-16 21:55,-116.8743,40.5990,1382.36,59.00,35.60,41.42,0.00,0.00,0.00,30.07,M,10.00,M,SCT,M,M,M,4900.00,M,M,M,M,M,M,M,M,M,M,59.00,KBAM 162155Z AUTO 00000KT 10SM SCT049 15/02 A3007 RMK AO1,M
HTH,2023-11-16 21:55,-118.6315,38.5448,1282.89,55.40,39.20,54.34,0.00,0.00,0.00,30.05,M,10.00,M,FEW,M,M,M,6000.00,M,M,M,M,M,M,M,M,M,M,55.40,KHTH 162155Z AUTO 00000KT 10SM FEW060 13/04 A3005 RMK A01,M
TMT,2023-11-16 21:55,-117.1971,39.4643,1749.34,53.00,36.70,53.77,360.00,6.00,0.00,30.07,M,10.00,M,SCT,M,M,M,4600.00,M,M,M,M,M,M,M,M,M,M,53.00,KTMT 162155Z AUTO 36006KT 10SM SCT046 12/03 A3007 RMK AO2 T01160026,M
INS,2023-11-16 21:55,-115.6733,36.5872,955.00,64.40,31.50,29.04,130.00,4.00,0.00,30.03,1014.50,10.00,M,BKN,BKN,M,M,3500.00,4400.00,M,M,M,M,M,M,M,M,M,64.40,KINS 162155Z 13004KT 10SM BKN035 BKN044 18/M00 A3003 RMK AO2A SLP145 T01801003 $,M
LSV,2023-11-16 21:55,-115.0343,36.2362,570.00,70.00,52.00,52.80,0.00,0.00,0.00,29.99,1014.50,10.00,M,CLR,M,M,M,M,M,M,M,M,M,M,M,M,M,M,70.00,KLSV 162155Z AUTO 00000KT 10SM CLR 21/11 A2999 RMK AO2 SLP145 T02120112,M
EKO,2023-11-16 21:56,-115.7860,40.8242,1367.00,55.00,39.00,54.70,260.00,6.00,0.00,30.07,1016.30,10.00,M,CLR,M,M,M,M,M,M,M,M,M,M,M,M,M,M,55.00,KEKO 162156Z AUTO 26006KT 10SM CLR 13/04 A3007 RMK AO2 SLP163 T01280039,M
NFL,2023-11-16 21:56,-118.7010,39.4166,1199.00,59.00,40.00,49.23,340.00,3.00,0.00,30.03,1013.90,10.00,M,SCT,SCT,BKN,M,7000.00,15000.00,22000.00,M,M,M,M,M,M,M,M,59.00,KNFL 162156Z 34003KT 10SM SCT070 SCT150 BKN220 15/04 A3003 RMK AO2 SLP139 T01500044,M
HND,2023-11-16 21:56,-115.1344,35.9729,742.79,66.00,51.00,58.40,M,4.00,0.00,30.04,1017.80,10.00,M,CLR,M,M,M,M,M,M,M,M,M,M,M,M,M,M,66.00,KHND 162156Z VRB04KT 10SM CLR 19/11 A3004 RMK AO2 SLP178 T01890106,M
TPH,2023-11-16 21:56,-117.0904,38.0505,1654.00,52.00,39.00,61.06,190.00,9.00,0.00,30.09,1016.60,10.00,M,FEW,OVC,M,M,3500.00,4700.00,M,M,M,M,M,M,M,M,M,52.00,KTPH 162156Z AUTO 19009KT 10SM FEW035 OVC047 11/04 A3009 RMK AO2 SLP166 T01110039,M
LAS,2023-11-16 21:56,-115.1634,36.0719,663.00,67.00,50.00,54.35,40.00,3.00,0.00,30.02,1015.50,10.00,M,FEW,FEW,M,M,5000.00,25000.00,M,M,M,M,M,M,M,M,M,67.00,KLAS 162156Z 04003KT 10SM FEW050 FEW250 19/10 A3002 RMK AO2 SLP155 T01940100,M
10U,2023-11-16 22:00,-116.1876,41.9532,1637.00,51.80,37.40,57.77,180.00,8.00,0.00,30.09,M,10.00,M,CLR,M,M,M,M,M,M,M,M,M,M,M,M,M,M,51.80,K10U 162200Z AUTO 18008KT 160V220 10SM CLR 11/03 A3009 RMK AO2,M
BVU,2023-11-16 22:15,-114.8611,35.9475,671.00,66.20,51.80,59.74,30.00,4.00,0.00,30.00,M,10.00,M,CLR,M,M,M,M,M,M,M,M,M,M,M,M,M,M,66.20,KBVU 162215Z AUTO 03004KT 10SM CLR 19/11 A3000 RMK AO2,M
CXP,2023-11-16 22:15,-119.7326,39.1923,1431.00,53.60,39.20,58.02,0.00,0.00,0.00,30.06,M,10.00,M,BKN,M,M,M,7000.00,M,M,M,M,M,M,M,M,M,M,53.60,KCXP 162215Z AUTO 00000KT 10SM BKN070 12/04 A3006 RMK AO2,M
RTS,2023-11-16 22:15,-119.8764,39.6682,1539.00,53.60,35.60,50.36,120.00,4.00,0.00,30.06,M,10.00,M,BKN,OVC,M,M,3800.00,4300.00,M,M,M,M,M,M,M,M,M,53.60,KRTS 162215Z AUTO 12004KT 10SM BKN038 OVC043 12/02 A3006 RMK AO2,M
05U,2023-11-16 22:15,-116.0051,39.6042,1811.23,55.40,32.00,40.84,0.00,0.00,0.00,30.09,M,10.00,M,M,M,M,M,M,M,M,M,M,M,M,M,M,M,M,55.40,K05U 162215Z AUTO 00000KT 10SM 13/00 A3009 RMK A01,M
MEV,2023-11-16 22:15,-119.7500,38.9963,1441.42,51.80,39.20,61.99,350.00,6.00,0.00,30.05,M,10.00,M,CLR,M,M,M,M,M,M,M,M,M,M,M,M,M,M,51.80,KMEV 162215Z AUTO 35006KT 10SM CLR 11/04 A3005 RMK AO2,M
BAM,2023-11-16 22:15,-116.8743,40.5990,1382.36,59.00,35.60,41.42,0.00,0.00,0.00,30.07,M,10.00,M,SCT,SCT,M,M,4900.00,8000.00,M,M,M,M,M,M,M,M,M,59.00,KBAM 162215Z AUTO 00000KT 10SM SCT049 SCT080 15/02 A3007 RMK AO1,M
HTH,2023-11-16 22:15,-118.6315,38.5448,1282.89,55.40,39.20,54.34,0.00,0.00,0.00,30.05,M,10.00,M,BKN,M,M,M,5500.00,M,M,M,M,M,M,M,M,M,M,55.40,KHTH 162215Z AUTO 00000KT 10SM BKN055 13/04 A3005 RMK A01,M
TMT,2023-11-16 22:15,-117.1971,39.4643,1749.34,53.00,35.80,51.89,350.00,5.00,0.00,30.07,M,10.00,M,CLR,M,M,M,M,M,M,M,M,M,M,M,M,M,M,53.00,KTMT 162215Z AUTO 35005KT 10SM CLR 12/02 A3007 RMK AO2 T01160021,M
10U,2023-11-16 22:20,-116.1876,41.9532,1637.00,50.00,37.40,61.76,210.00,7.00,0.00,30.09,M,10.00,M,CLR,M,M,M,M,M,M,M,M,M,M,M,M,M,M,50.00,K10U 162220Z AUTO 21007KT 10SM CLR 10/03 A3009 RMK AO2,M
HTH,2023-11-16 22:30,-118.6315,38.5448,1282.89,57.20,39.20,50.91,0.00,0.00,0.00,30.04,M,10.00,M,BKN,M,M,M,5500.00,M,M,M,M,M,M,M,M,M,M,57.20,KHTH 162230Z AUTO 00000KT 10SM BKN055 14/04 A3004 RMK A01,M
BVU,2023-11-16 22:35,-114.8611,35.9475,671.00,66.20,51.80,59.74,M,3.00,0.00,30.00,M,10.00,M,CLR,M,M,M,M,M,M,M,M,M,M,M,M,M,M,66.20,KBVU 162235Z AUTO VRB03KT 10SM CLR 19/11 A3000 RMK AO2,M
CXP,2023-11-16 22:35,-119.7326,39.1923,1431.00,53.60,37.40,54.07,0.00,0.00,0.00,30.06,M,10.00,M,SCT,M,M,M,7000.00,M,M,M,M,M,M,M,M,M,M,53.60,KCXP 162235Z AUTO 00000KT 10SM SCT070 12/03 A3006 RMK AO2,M
RTS,2023-11-16 22:35,-119.8764,39.6682,1539.00,51.80,35.60,53.81,120.00,5.00,0.00,30.06,M,10.00,M,OVC,M,M,M,3800.00,M,M,M,M,M,M,M,M,M,M,51.80,KRTS 162235Z AUTO 12005KT 10SM OVC038 11/02 A3006 RMK AO2,M
05U,2023-11-16 22:35,-116.0051,39.6042,1811.23,55.40,32.00,40.84,0.00,0.00,0.00,30.09,M,10.00,M,M,M,M,M,M,M,M,M,M,M,M,M,M,M,M,55.40,K05U 162235Z AUTO 00000KT 10SM 13/00 A3009 RMK A01,M
MEV,2023-11-16 22:35,-119.7500,38.9963,1441.42,53.60,39.20,58.02,360.00,4.00,0.00,30.05,M,10.00,M,CLR,M,M,M,M,M,M,M,M,M,M,M,M,M,M,53.60,KMEV 162235Z AUTO 36004KT 10SM CLR 12/04 A3005 RMK AO2,M
BAM,2023-11-16 22:35,-116.8743,40.5990,1382.36,60.80,35.60,38.85,210.00,3.00,0.00,30.07,M,10.00,M,SCT,SCT,BKN,M,4900.00,6000.00,8000.00,M,M,M,M,M,M,M,M,60.80,KBAM 162235Z AUTO 21003KT 10SM SCT049 SCT060 BKN080 16/02 A3007 RMK AO1,M
TMT,2023-11-16 22:35,-117.1971,39.4643,1749.34,52.70,35.60,52.05,20.00,6.00,0.00,30.07,M,10.00,M,CLR,M,M,M,M,M,M,M,M,M,M,M,M,M,M,52.70,KTMT 162235Z AUTO 02006KT 10SM CLR 12/02 A3007 RMK AO2 T01150020,M
10U,2023-11-16 22:40,-116.1876,41.9532,1637.00,51.80,39.20,61.99,210.00,11.00,0.00,30.09,M,10.00,M,FEW,FEW,M,M,2800.00,12000.00,M,M,M,M,M,M,M,M,M,51.80,K10U 162240Z AUTO 21011KT 10SM FEW028 FEW120 11/04 A3009 RMK AO2,M
P68,2023-11-16 22:53,-116.0056,39.6014,1993.00,54.00,33.00,44.74,M,M,0.00,30.07,1014.90,M,M,M,M,M,M,M,M,M,M,M,M,M,M,M,M,M,54.00,KP68 162253Z AUTO 12/01 A3007 RMK AO1 SLP149 T01220006 $,M
DRA,2023-11-16 22:53,-116.0278,36.6206,1009.00,61.00,47.00,59.94,220.00,6.00,0.00,30.03,1014.40,10.00,M,CLR,M,M,M,M,M,M,M,M,M,M,M,M,M,M,61.00,KDRA 162253Z AUTO 22006KT 10SM CLR 16/08 A3003 RMK AO2 SLP144 T01610083,M
ELY,2023-11-16 22:53,-114.8453,39.2950,1909.00,54.00,32.00,42.98,260.00,4.00,0.00,30.07,1013.90,10.00,M,CLR,M,M,M,M,M,M,M,M,M,M,M,M,M,M,54.00,KELY 162253Z AUTO 26004KT 10SM CLR 12/00 A3007 RMK AO2 SLP139 T01220000,M
VGT,2023-11-16 22:53,-115.1933,36.2111,667.00,66.00,51.00,58.40,0.00,0.00,0.00,30.01,1016.90,10.00,M,CLR,M,M,M,M,M,M,M,M,M,M,M,M,M,M,66.00,KVGT 162253Z 00000KT 10SM CLR 19/11 A3001 RMK AO2 SLP169 T01890106,M
LOL,2023-11-16 22:53,-118.5701,40.0684,1192.43,58.00,39.00,49.08,0.00,0.00,0.00,30.04,1016.70,10.00,M,CLR,M,M,M,M,M,M,M,M,M,M,M,M,M,M,58.00,KLOL 162253Z AUTO 00000KT 10SM CLR 14/04 A3004 RMK AO2 SLP167 T01440039,M
BVU,2023-11-16 22:55,-114.8611,35.9475,671.00,66.20,51.80,59.74,0.00,0.00,0.00,30.01,M,10.00,M,CLR,M,M,M,M,M,M,M,M,M,M,M,M,M,M,66.20,KBVU 162255Z AUTO 00000KT 10SM CLR 19/11 A3001 RMK AO2,M
CXP,2023-11-16 22:55,-119.7326,39.1923,1431.00,53.60,37.40,54.07,90.00,4.00,0.00,30.06,M,10.00,M,SCT,M,M,M,8000.00,M,M,M,M,M,M,M,M,M,M,53.60,KCXP 162255Z AUTO 09004KT 10SM SCT080 12/03 A3006 RMK AO2,M
RNO,2023-11-16 22:55,-119.7711,39.4839,1341.00,58.00,38.00,47.20,270.00,5.00,0.00,30.04,1015.40,10.00,M,SCT,BKN,BKN,M,4500.00,8000.00,20000.00,M,M,M,M,M,M,M,M,58.00,KRNO 162255Z 27005KT 10SM SCT045 BKN080 BKN200 14/03 A3004 RMK AO2 SLP154 SH DSNT NW T01440033,M
RTS,2023-11-16 22:55,-119.8764,39.6682,1539.00,51.80,35.60,53.81,80.00,4.00,0.00,30.07,M,10.00,M,OVC,M,M,M,3800.00,M,M,M,M,M,M,M,M,M,M,51.80,KRTS 162255Z AUTO 08004KT 10SM OVC038 11/02 A3007 RMK AO2,M
05U,2023-11-16 22:55,-116.0051,39.6042,1811.23,53.60,32.00,43.61,150.00,4.00,0.00,30.09,M,10.00,M,M,M,M,M,M,M,M,M,M,M,M,M,M,M,M,53.60,K05U 162255Z AUTO 15004KT 10SM 12/00 A3009 RMK A01,M
MEV,2023-11-16 22:55,-119.7500,38.9963,1441.42,53.60,37.40,54.07,340.00,5.00,0.00,30.04,M,10.00,M,BKN,M,M,M,8500.00,M,M,M,M,M,M,M,M,M,M,53.60,KMEV 162255Z AUTO 34005KT 10SM BKN085 12/03 A3004 RMK AO2,M
BAM,2023-11-16 22:55,-116.8743,40.5990,1382.36,59.00,35.60,41.42,320.00,4.00,0.00,30.07,M,10.00,M,SCT,SCT,SCT,M,4900.00,6000.00,7000.00,M,M,M,M,M,M,M,M,59.00,KBAM 162255Z AUTO 32004KT 10SM SCT049 SCT060 SCT070 15/02 A3007 RMK AO1,M
HTH,2023-11-16 22:55,-118.6315,38.5448,1282.89,59.00,37.40,44.47,0.00,0.00,0.00,30.04,M,10.00,M,SCT,OVC,M,M,5500.00,7000.00,M,M,M,M,M,M,M,M,M,59.00,KHTH 162255Z AUTO 00000KT 10SM SCT055 OVC070 15/03 A3004 RMK A01,M
TMT,2023-11-16 22:55,-117.1971,39.4643,1749.34,52.70,36.00,52.88,10.00,6.00,0.00,30.07,M,10.00,M,CLR,M,M,M,M,M,M,M,M,M,M,M,M,M,M,52.70,KTMT 162255Z AUTO 01006KT 10SM CLR 12/02 A3007 RMK AO2 T01150023,M
INS,2023-11-16 22:55,-115.6733,36.5872,955.00,64.40,31.50,29.04,110.00,3.00,0.00,30.02,1014.20,10.00,M,CLR,M,M,M,M,M,M,M,M,M,M,M,M,M,M,64.40,KINS 162255Z AUTO 11003KT 10SM CLR 18/M00 A3002 RMK AO2 SLP142 T01801003 VISNO RWY26 $,M
LSV,2023-11-16 22:55,-115.0343,36.2362,570.00,69.80,52.30,53.75,110.00,4.00,0.00,29.98,1014.10,10.00,M,CLR,M,M,M,M,M,M,M,M,M,M,M,M,M,M,69.80,KLSV 162255Z AUTO 11004KT 10SM CLR 21/11 A2998 RMK AO2 SLP141 T02100113,M
EKO,2023-11-16 22:56,-115.7860,40.8242,1367.00,53.00,36.00,52.30,250.00,7.00,0.00,30.07,1016.70,10.00,M,CLR,M,M,M,M,M,M,M,M,M,M,M,M,M,M,53.00,KEKO 162256Z AUTO 25007KT 10SM CLR 12/02 A3007 RMK AO2 SLP167 T01170022,M
NFL,2023-11-16 22:56,-118.7010,39.4166,1199.00,58.00,41.00,53.05,30.00,6.00,0.00,30.04,1014.00,10.00,M,SCT,SCT,BKN,M,7000.00,15000.00,25000.00,M,M,M,M,M,M,M,M,58.00,KNFL 162256Z 03006KT 10SM SCT070 SCT150 BKN250 14/05 A3004 RMK AO2 SLP140 T01440050,M
HND,2023-11-16 22:56,-115.1344,35.9729,742.79,65.00,50.00,58.26,50.00,3.00,0.00,30.04,1017.80,10.00,M,CLR,M,M,M,M,M,M,M,M,M,M,M,M,M,M,65.00,KHND 162256Z 05003KT 10SM CLR 18/10 A3004 RMK AO2 SLP178 T01830100,M
TPH,2023-11-16 22:56,-117.0904,38.0505,1654.00,51.00,37.00,58.58,200.00,8.00,0.00,30.08,1016.40,10.00,M,SCT,M,M,M,5000.00,M,M,M,M,M,M,M,M,M,M,51.00,KTPH 162256Z AUTO 20008KT 10SM SCT050 11/03 A3008 RMK AO2 SLP164 T01060028,M
LAS,2023-11-16 22:56,-115.1634,36.0719,663.00,66.00,50.00,56.27,0.00,0.00,0.00,30.02,1015.40,10.00,M,FEW,FEW,M,M,5000.00,25000.00,M,M,M,M,M,M,M,M,M,66.00,KLAS 162256Z 00000KT 10SM FEW050 FEW250 19/10 A3002 RMK AO2 SLP154 T01890100,M
10U,2023-11-16 23:00,-116.1876,41.9532,1637.00,50.00,37.40,61.76,220.00,10.00,0.00,30.09,M,10.00,M,CLR,M,M,M,M,M,M,M,M,M,M,M,M,M,M,50.00,K10U 162300Z AUTO 22010KT 10SM CLR 10/03 A3009 RMK AO2,M
BVU,2023-11-16 23:15,-114.8611,35.9475,671.00,66.20,51.80,59.74,40.00,7.00,0.00,30.00,M,10.00,M,CLR,M,M,M,M,M,M,M,M,M,M,M,M,M,M,66.20,KBVU 162315Z AUTO 04007KT 10SM CLR 19/11 A3000 RMK AO2,M
CXP,2023-11-16 23:15,-119.7326,39.1923,1431.00,53.60,39.20,58.02,80.00,5.00,0.00,30.06,M,10.00,M,OVC,M,M,M,8000.00,M,M,M,M,M,M,M,M,M,M,53.60,KCXP 162315Z AUTO 08005KT 10SM OVC080 12/04 A3006 RMK AO2,M
RTS,2023-11-16 23:15,-119.8764,39.6682,1539.00,50.00,37.40,61.76,250.00,4.00,0.00,30.07,M,10.00,M,OVC,M,M,M,3700.00,M,M,M,M,M,M,M,M,M,M,50.00,KRTS 162315Z AUTO 25004KT 10SM OVC037 10/03 A3007 RMK AO2,M
05U,2023-11-16 23:15,-116.0051,39.6042,1811.23,53.60,33.80,46.88,140.00,6.00,0.00,30.09,M,10.00,M,M,M,M,M,M,M,M,M,M,M,M,M,M,M,M,53.60,K05U 162315Z AUTO 14006KT 10SM 12/01 A3009 RMK A01,M
MEV,2023-11-16 23:15,-119.7500,38.9963,1441.42,51.80,37.40,57.77,340.00,4.00,0.00,30.04,M,10.00,M,FEW,BKN,M,M,7000.00,8500.00,M,M,M,M,M,M,M,M,M,51.80,KMEV 162315Z AUTO 34004KT 10SM FEW070 BKN085 11/03 A3004 RMK AO2,M
BAM,2023-11-16 23:15,-116.8743,40.5990,1382.36,55.40,35.60,47.16,330.00,3.00,0.00,30.07,M,10.00,M,CLR,M,M,M,M,M,M,M,M,M,M,M,M,M,M,55.40,KBAM 162315Z AUTO 33003KT 10SM CLR 13/02 A3007 RMK AO1,M
HTH,2023-11-16 23:15,-118.6315,38.5448,1282.89,57.20,39.20,50.91,250.00,4.00,0.00,30.04,M,10.00,M,BKN,M,M,M,7000.00,M,M,M,M,M,M,M,M,M,M,57.20,KHTH 162315Z AUTO 25004KT 10SM BKN070 14/04 A3004 RMK A01,M
TMT,2023-11-16 23:15,-117.1971,39.4643,1749.34,52.00,37.00,56.45,360.00,6.00,0.00,30.08,M,10.00,M,CLR,M,M,M,M,M,M,M,M,M,M,M,M,M,M,52.00,KTMT 162315Z AUTO 36006KT 10SM CLR 11/03 A3008 RMK AO2 T01110027,M
10U,2023-11-16 23:20,-116.1876,41.9532,1637.00,50.00,37.40,61.76,190.00,10.00,0.00,30.09,M,10.00,M,CLR,M,M,M,M,M,M,M,M,M,M,M,M,M,M,50.00,K10U 162320Z AUTO 19010KT 10SM CLR 10/03 A3009 RMK AO2,M
BVU,2023-11-16 23:35,-114.8611,35.9475,671.00,64.40,51.80,63.60,40.00,7.00,0.00,30.00,M,10.00,M,CLR,M,M,M,M,M,M,M,M,M,M,M,M,M,M,64.40,KBVU 162335Z AUTO 04007KT 10SM CLR 18/11 A3000 RMK AO2,M
CXP,2023-11-16 23:35,-119.7326,39.1923,1431.00,53.60,37.40,54.07,80.00,4.00,0.00,30.06,M,10.00,M,FEW,BKN,OVC,M,5500.00,7000.00,8500.00,M,M,M,M,M,M,M,M,53.60,KCXP 162335Z AUTO 08004KT 10SM FEW055 BKN070 OVC085 12/03 A3006 RMK AO2,M
RTS,2023-11-16 23:35,-119.8764,39.6682,1539.00,50.00,41.00,71.07,340.00,7.00,0.00,30.07,M,3.00,M,BKN,OVC,M,M,3800.00,4900.00,M,M,-DZ,M,M,M,M,M,M,50.00,KRTS 162335Z AUTO 34007KT 3SM -DZ BKN038 OVC049 10/05 A3007 RMK AO2,M
05U,2023-11-16 23:35,-116.0051,39.6042,1811.23,51.80,33.80,50.08,150.00,3.00,0.00,30.09,M,9.00,M,M,M,M,M,M,M,M,M,M,M,M,M,M,M,M,51.80,K05U 162335Z AUTO 15003KT 9SM 11/01 A3009 RMK A01,M
MEV,2023-11-16 23:35,-119.7500,38.9963,1441.42,51.80,42.80,71.26,260.00,3.00,0.00,30.05,M,10.00,M,BKN,BKN,M,M,7000.00,8000.00,M,M,M,M,M,M,M,M,M,51.80,KMEV 162335Z AUTO 26003KT 10SM BKN070 BKN080 11/06 A3005 RMK AO2,M
BAM,2023-11-16 23:35,-116.8743,40.5990,1382.36,57.20,35.60,44.19,330.00,5.00,0.00,30.07,M,10.00,M,SCT,M,M,M,5500.00,M,M,M,M,M,M,M,M,M,M,57.20,KBAM 162335Z AUTO 33005KT 10SM SCT055 14/02 A3007 RMK AO1,M
HTH,2023-11-16 23:35,-118.6315,38.5448,1282.89,57.20,39.20,50.91,0.00,0.00,0.00,30.04,M,10.00,M,FEW,FEW,M,M,6000.00,7000.00,M,M,M,M,M,M,M,M,M,57.20,KHTH 162335Z AUTO 00000KT 10SM FEW060 FEW070 14/04 A3004 RMK A01,M
TMT,2023-11-16 23:35,-117.1971,39.4643,1749.34,51.00,37.00,58.58,360.00,5.00,0.00,30.08,M,10.00,M,CLR,M,M,M,M,M,M,M,M,M,M,M,M,M,M,51.00,KTMT 162335Z AUTO 36005KT 10SM CLR 11/03 A3008 RMK AO2 T01060028,M
10U,2023-11-16 23:40,-116.1876,41.9532,1637.00,48.20,39.20,70.88,200.00,9.00,0.00,30.10,M,10.00,M,CLR,M,M,M,M,M,M,M,M,M,M,M,M,M,M,43.66,K10U 162340Z AUTO 20009KT 10SM CLR 09/04 A3010 RMK AO2,M
P68,2023-11-16 23:53,-116.0056,39.6014,1993.00,51.00,35.00,54.12,20.00,4.00,0.00,30.07,1015.80,M,M,M,M,M,M,M,M,M,M,M,M,M,M,M,M,M,51.00,KP68 162353Z AUTO 02004KT 11/02 A3007 RMK AO1 SLP158 T01060017 10128 20089 55002 $,M
DRA,2023-11-16 23:53,-116.0278,36.6206,1009.00,60.00,47.00,62.11,230.00,7.00,0.00,30.02,1014.20,10.00,M,OVC,M,M,M,4800.00,M,M,M,M,M,M,M,M,M,M,60.00,KDRA 162353Z AUTO 23007KT 10SM OVC048 16/08 A3002 RMK AO2 SLP142 T01560083 10167 20128 56011,M
ELY,2023-11-16 23:53,-114.8453,39.2950,1909.00,50.00,34.00,53.97,270.00,4.00,0.00,30.08,1015.00,10.00,M,CLR,M,M,M,M,M,M,M,M,M,M,M,M,M,M,50.00,KELY 162353Z AUTO 27004KT 10SM CLR 10/01 A3008 RMK AO2 SLP150 T01000011 10128 20083 55004,M
VGT,2023-11-16 23:53,-115.1933,36.2111,667.00,66.00,50.00,56.27,0.00,0.00,0.00,30.00,1016.60,10.00,M,CLR,M,M,M,M,M,M,M,M,M,M,M,M,M,M,66.00,KVGT 162353Z 00000KT 10SM CLR 19/10 A3000 RMK AO2 SLP166 T01890100 10194 20150 56013,M
LOL,2023-11-16 23:53,-118.5701,40.0684,1192.43,57.00,38.00,48.93,100.00,4.00,0.00,30.04,1016.90,10.00,M,CLR,M,M,M,M,M,M,M,M,M,M,M,M,M,M,57.00,KLOL 162353Z AUTO 10004KT 10SM CLR 14/03 A3004 RMK AO2 SLP169 6//// T01390033 10150 20089 55006,M
BVU,2023-11-16 23:55,-114.8611,35.9475,671.00,64.40,51.80,63.60,30.00,7.00,0.00,29.99,M,10.00,M,CLR,M,M,M,M,M,M,M,M,M,M,M,M,M,M,64.40,KBVU 162355Z AUTO 03007KT 10SM CLR 18/11 A2999 RMK AO2,M
CXP,2023-11-16 23:55,-119.7326,39.1923,1431.00,53.60,37.40,54.07,80.00,6.00,0.00,30.06,M,10.00,M,BKN,OVC,M,M,5000.00,7000.00,M,M,M,M,M,M,M,M,M,53.60,KCXP 162355Z AUTO 08006KT 10SM BKN050 OVC070 12/03 A3006 RMK AO2,M
RNO,2023-11-16 23:55,-119.7711,39.4839,1341.00,55.00,41.00,59.13,280.00,6.00,0.00,30.04,1015.80,10.00,M,FEW,SCT,BKN,M,4500.00,8000.00,20000.00,M,M,M,M,M,M,M,M,55.00,KRNO 162355Z 28006KT 10SM FEW045 SCT080 BKN200 13/05 A3004 RMK AO2 SLP158 T01280050 10144 20089 55003,M
RTS,2023-11-16 23:55,-119.8764,39.6682,1539.00,48.20,42.80,81.47,360.00,7.00,0.02,30.07,M,10.00,M,FEW,SCT,OVC,M,4100.00,5500.00,7500.00,M,M,M,M,M,M,M,M,44.53,KRTS 162355Z AUTO 36007KT 10SM FEW041 SCT055 OVC075 09/06 A3007 RMK AO2 P0002,M
05U,2023-11-16 23:55,-116.0051,39.6042,1811.23,50.00,33.80,53.54,190.00,3.00,0.00,30.09,M,10.00,M,M,M,M,M,M,M,M,M,M,M,M,M,M,M,M,50.00,K05U 162355Z AUTO 19003KT 10SM 10/01 A3009 RMK A01,M
MEV,2023-11-16 23:55,-119.7500,38.9963,1441.42,51.80,42.80,71.26,260.00,4.00,0.00,30.05,M,10.00,M,BKN,BKN,OVC,M,5000.00,7000.00,8500.00,M,M,M,M,M,M,M,M,51.80,KMEV 162355Z AUTO 26004KT 10SM BKN050 BKN070 OVC085 11/06 A3005 RMK AO2,M
BAM,2023-11-16 23:55,-116.8743,40.5990,1382.36,55.40,35.60,47.16,330.00,5.00,0.00,30.08,M,10.00,M,CLR,M,M,M,M,M,M,M,M,M,M,M,M,M,M,55.40,KBAM 162355Z AUTO 33005KT 10SM CLR 13/02 A3008 RMK AO1,M
HTH,2023-11-16 23:55,-118.6315,38.5448,1282.89,57.20,39.20,50.91,0.00,0.00,0.00,30.04,M,10.00,M,CLR,M,M,M,M,M,M,M,M,M,M,M,M,M,M,57.20,KHTH 162355Z AUTO 00000KT 10SM CLR 14/04 A3004 RMK A01,M
TMT,2023-11-16 23:55,-117.1971,39.4643,1749.34,50.40,37.00,59.89,10.00,6.00,0.00,30.08,M,10.00,M,CLR,M,M,M,M,M,M,M,M,M,M,M,M,M,M,50.40,KTMT 162355Z AUTO 01006KT 10SM CLR 10/03 A3008 RMK AO2 T01020027 10128 20052,M
INS,2023-11-16 23:55,-115.6733,36.5872,955.00,62.80,29.00,27.75,110.00,7.00,0.00,30.01,1013.80,10.00,M,CLR,M,M,M,M,M,M,M,M,M,M,M,M,M,M,62.80,KINS 162355Z 11007KT 10SM CLR 17/M02 A3001 RMK AO2A SLP138 T01711016 10182 20144 57012,M
LSV,2023-11-16 23:55,-115.0343,36.2362,570.00,68.00,52.00,56.55,80.00,3.00,0.00,29.97,1013.80,10.00,M,CLR,M,M,M,M,M,M,M,M,M,M,M,M,M,M,68.00,KLSV 162355Z AUTO 08003KT 10SM CLR 20/11 A2997 RMK AO2 SLP138 T01990111 10219 20167 57014,M
EKO,2023-11-16 23:56,-115.7860,40.8242,1367.00,52.00,35.00,52.15,240.00,4.00,0.00,30.08,1017.20,10.00,M,CLR,M,M,M,M,M,M,M,M,M,M,M,M,M,M,52.00,KEKO 162356Z AUTO 24004KT 10SM CLR 11/02 A3008 RMK AO2 SLP172 T01110017 10133 20089 53002,M
NFL,2023-11-16 23:56,-118.7010,39.4166,1199.00,56.00,41.00,57.02,30.00,6.00,0.00,30.04,1014.10,10.00,M,SCT,SCT,BKN,M,7000.00,15000.00,25000.00,M,M,M,M,M,M,M,M,56.00,KNFL 162356Z 03006KT 10SM SCT070 SCT150 BKN250 13/05 A3004 RMK AO2 SLP141 T01330050 10161 20100 55002,M
HND,2023-11-16 23:56,-115.1344,35.9729,742.79,64.00,51.00,62.62,30.00,6.00,0.00,30.03,1017.50,10.00,M,CLR,M,M,M,M,M,M,M,M,M,M,M,M,M,M,64.00,KHND 162356Z 03006KT 10SM CLR 18/11 A3003 RMK AO2 SLP175 T01780106 10189 20144 56011,M
TPH,2023-11-16 23:56,-117.0904,38.0505,1654.00,51.00,37.00,58.58,200.00,6.00,0.00,30.08,1016.30,10.00,M,CLR,M,M,M,M,M,M,M,M,M,M,M,M,M,M,51.00,KTPH 162356Z AUTO 20006KT 10SM CLR 11/03 A3008 RMK AO2 SLP163 T01060028 10117 20089 58002,M
LAS,2023-11-16 23:56,-115.1634,36.0719,663.00,65.00,51.00,60.47,90.00,5.00,0.00,30.01,1015.10,10.00,M,FEW,FEW,M,M,5000.00,25000.00,M,M,M,M,M,M,M,M,M,65.00,KLAS 162356Z 09005KT 10SM FEW050 FEW250 18/11 A3001 RMK AO2 SLP151 T01830106 10200 20156 56010,M
