station,valid,lon,lat,elevation,tmpf,dwpf,relh,drct,sknt,p01i,alti,mslp,vsby,gust,skyc1,skyc2,skyc3,skyc4,skyl1,skyl2,skyl3,skyl4,wxcodes,ice_accretion_1hr,ice_accretion_3hr,ice_accretion_6hr,peak_wind_gust,peak_wind_drct,peak_wind_time,feel,metar,snowdepth
INS,2024-06-24 00:02,-115.6733,36.5872,955.00,M,M,M,220.00,13.00,0.00,M,M,10.00,M,M,M,M,M,M,M,M,M,M,M,M,M,M,M,M,M,KINS 240002Z AUTO 22013KT 10SM M M M RMK AO2 WSHFT 2352 SLPNO RVRNO TSNO $,M
LSV,2024-06-24 00:11,-115.0343,36.2362,570.00,109.40,39.20,9.38,210.00,12.00,0.00,29.69,1002.20,10.00,16.00,CLR,M,M,M,M,M,M,M,M,M,M,M,M,M,M,103.33,KLSV 240011Z AUTO 21012G16KT 10SM CLR 43/04 A2969 RMK AO2 WSHFT 00 SLP022 $,M
BVU,2024-06-24 00:35,-114.8611,35.9475,671.00,105.80,48.20,14.71,140.00,11.00,0.00,29.74,M,10.00,M,CLR,M,M,M,M,M,M,M,M,M,M,M,M,M,M,102.45,KBVU 240035Z AUTO 14011KT 10SM CLR 41/09 A2974 RMK AO2,M
CXP,2024-06-24 00:35,-119.7326,39.1923,1431.00,87.80,41.00,19.40,280.00,15.00,0.00,30.04,M,10.00,24.00,CLR,M,M,M,M,M,M,M,M,M,M,M,M,M,M,84.30,KCXP 240035Z AUTO 28015G24KT 10SM CLR 31/05 A3004 RMK AO2,M
RTS,2024-06-24 00:35,-119.8764,39.6682,1539.00,87.80,32.00,13.59,240.00,16.00,0.00,30.07,M,10.00,M,CLR,M,M,M,M,M,M,M,M,M,M,M,M,M,M,84.08,KRTS 240035Z AUTO 24016KT 10SM CLR 31/00 A3007 RMK AO2,M
MEV,2024-06-24 00:35,-119.7500,38.9963,1441.42,89.60,33.80,13.80,260.00,12.00,0.00,30.02,M,10.00,22.00,CLR,M,M,M,M,M,M,M,M,M,M,M,M,M,M,85.59,KMEV 240035Z AUTO 26012G22KT 10SM CLR 32/01 A3002 RMK AO2,M
BAM,2024-06-24 00:35,-116.8743,40.5990,1382.36,96.80,32.00,10.27,250.00,15.00,0.00,29.95,M,10.00,20.00,CLR,M,M,M,M,M,M,M,M,M,M,M,M,M,M,91.19,KBAM 240035Z AUTO 25015G20KT 10SM CLR 36/00 A2995 RMK AO1,M
HTH,2024-06-24 00:35,-118.6315,38.5448,1282.89,98.60,24.80,7.24,320.00,8.00,0.00,29.92,M,10.00,14.00,CLR,M,M,M,M,M,M,M,M,M,M,M,M,M,M,91.90,KHTH 240035Z AUTO 32008G14KT 10SM CLR 37/M04 A2992 RMK A01,M
TMT,2024-06-24 00:35,-117.1971,39.4643,1749.34,91.60,32.40,12.26,280.00,6.00,0.00,30.06,M,10.00,14.00,CLR,M,M,M,M,M,M,M,M,M,M,M,M,M,M,87.12,KTMT 240035Z AUTO 28006G14KT 10SM CLR 33/00 A3006 RMK AO2 T03310002,M
10U,2024-06-24 00:35,-116.1876,41.9532,1637.00,89.60,28.40,11.09,230.00,10.00,0.00,30.00,M,10.00,22.00,CLR,M,M,M,M,M,M,M,M,M,M,M,M,M,M,85.17,K10U 240035Z AUTO 23010G22KT 10SM CLR 32/M02 A3000 RMK AO2,M
P68,2024-06-24 00:53,-116.0056,39.6014,1993.00,95.00,21.00,6.89,270.00,13.00,0.00,30.02,1006.90,M,24.00,M,M,M,M,M,M,M,M,M,M,M,M,M,M,M,88.61,KP68 240053Z AUTO 27013G24KT 35/M06 A3002 RMK AO1 WSHFT 0035 SLP069 T03501061,M
DRA,2024-06-24 00:53,-116.0278,36.6206,1009.00,103.00,40.00,11.69,220.00,14.00,0.00,29.86,1005.20,10.00,28.00,CLR,M,M,M,M,M,M,M,M,M,M,M,28.00,220.00,2024-06-24 00:44,97.86,KDRA 240053Z AUTO 22014G28KT 10SM CLR 39/04 A2986 RMK AO2 PK WND 22028/0044 SLP052 T03940044,M
ELY,2024-06-24 00:53,-114.8453,39.2950,1909.00,89.00,28.00,11.12,210.00,13.00,0.00,30.07,1007.50,10.00,24.00,CLR,M,M,M,M,M,M,M,M,M,M,M,29.00,220.00,2024-06-23 23:54,84.69,KELY 240053Z AUTO 21013G24KT 10SM CLR 32/M02 A3007 RMK AO2 PK WND 22029/2354 SLP075 T03171022,M
VGT,2024-06-24 00:53,-115.1933,36.2111,667.00,109.00,46.00,12.33,250.00,14.00,0.00,29.74,1005.30,10.00,21.00,CLR,M,M,M,M,M,M,M,M,M,M,M,M,M,M,104.86,KVGT 240053Z 25014G21KT 10SM CLR 43/08 A2974 RMK AO2 SLP053 T04280078,M
LOL,2024-06-24 00:53,-118.5701,40.0684,1192.43,95.00,33.00,11.30,M,5.00,0.00,29.90,1008.20,10.00,15.00,CLR,M,M,M,M,M,M,M,M,M,M,M,M,M,M,89.85,KLOL 240053Z AUTO VRB05G15KT 10SM CLR 35/01 A2990 RMK AO2 SLP082 T03500006,M
RNO,2024-06-24 00:55,-119.7711,39.4839,1341.00,92.00,52.00,25.76,290.00,15.00,0.00,29.99,1009.50,10.00,24.00,CLR,M,M,M,M,M,M,M,M,M,M,M,36.00,270.00,2024-06-24 00:24,89.31,KRNO 240055Z 29015G24KT 10SM CLR 33/11 A2999 RMK AO2 PK WND 27036/0024 SLP095 T03330111,M
LSV,2024-06-24 00:55,-115.0343,36.2362,570.00,109.00,37.80,8.99,230.00,14.00,0.00,29.68,1001.90,10.00,18.00,CLR,M,M,M,M,M,M,M,M,M,M,M,M,M,M,102.66,KLSV 240055Z AUTO 23014G18KT 10SM CLR 43/03 A2968 RMK AO2 SLP019 T04280032 $,M
BVU,2024-06-24 00:55,-114.8611,35.9475,671.00,105.80,48.20,14.71,140.00,10.00,0.00,29.74,M,10.00,M,CLR,M,M,M,M,M,M,M,M,M,M,M,M,M,M,102.45,KBVU 240055Z AUTO 14010KT 10SM CLR 41/09 A2974 RMK AO2,M
CXP,2024-06-24 00:55,-119.7326,39.1923,1431.00,87.80,42.80,20.79,270.00,15.00,0.00,30.03,M,10.00,22.00,CLR,M,M,M,M,M,M,M,M,M,M,M,M,M,M,84.40,KCXP 240055Z AUTO 27015G22KT 10SM CLR 31/06 A3003 RMK AO2,M
RTS,2024-06-24 00:55,-119.8764,39.6682,1539.00,86.00,32.00,14.40,230.00,14.00,0.00,30.07,M,10.00,22.00,CLR,M,M,M,M,M,M,M,M,M,M,M,M,M,M,82.64,KRTS 240055Z AUTO 23014G22KT 10SM CLR 30/00 A3007 RMK AO2,M
MEV,2024-06-24 00:55,-119.7500,38.9963,1441.42,89.60,35.60,14.83,220.00,10.00,0.00,30.02,M,10.00,15.00,CLR,M,M,M,M,M,M,M,M,M,M,M,M,M,M,85.62,KMEV 240055Z AUTO 22010G15KT 10SM CLR 32/02 A3002 RMK AO2,M
BAM,2024-06-24 00:55,-116.8743,40.5990,1382.36,96.80,30.20,9.55,260.00,12.00,0.00,29.95,M,10.00,21.00,CLR,M,M,M,M,M,M,M,M,M,M,M,M,M,M,90.96,KBAM 240055Z AUTO 26012G21KT 10SM CLR 36/M01 A2995 RMK AO1,M
HTH,2024-06-24 00:55,-118.6315,38.5448,1282.89,98.60,24.80,7.24,20.00,6.00,0.00,29.92,M,10.00,15.00,CLR,M,M,M,M,M,M,M,M,M,M,M,M,M,M,91.90,KHTH 240055Z AUTO 02006G15KT 10SM CLR 37/M04 A2992 RMK A01,M
TMT,2024-06-24 00:55,-117.1971,39.4643,1749.34,91.00,30.40,11.52,270.00,6.00,0.00,30.06,M,7.00,M,CLR,M,M,M,M,M,M,M,M,M,M,M,M,M,M,86.42,KTMT 240055Z AUTO 27006KT 7SM CLR 33/M01 A3006 RMK AO2 T03281009,M
10U,2024-06-24 00:55,-116.1876,41.9532,1637.00,89.60,28.40,11.09,240.00,16.00,0.00,30.00,M,10.00,25.00,CLR,M,M,M,M,M,M,M,M,M,M,M,M,M,M,85.17,K10U 240055Z AUTO 24016G25KT 10SM CLR 32/M02 A3000 RMK AO2,M
INS,2024-06-24 00:55,-115.6733,36.5872,955.00,M,M,M,250.00,19.00,0.00,M,M,10.00,23.00,M,M,M,M,M,M,M,M,M,M,M,M,26.00,240.00,2024-06-24 00:06,M,KINS 240055Z AUTO 25019G23KT 10SM M M M RMK AO2 PK WND 24026/06 SLPNO RVRNO TSNO $,M
EKO,2024-06-24 00:56,-115.7860,40.8242,1367.00,94.00,28.00,9.51,270.00,11.00,0.00,29.97,1008.30,10.00,19.00,CLR,M,M,M,M,M,M,M,M,M,M,M,M,M,M,88.46,KEKO 240056Z AUTO 27011G19KT 10SM CLR 34/M02 A2997 RMK AO2 SLP083 T03441022,M
WMC,2024-06-24 00:56,-117.8072,40.9019,1315.00,97.00,26.00,7.99,260.00,14.00,0.00,29.92,1007.50,10.00,21.00,CLR,M,M,M,M,M,M,M,M,M,M,M,M,M,M,90.67,KWMC 240056Z AUTO 26014G21KT 10SM CLR 36/M03 A2992 RMK AO2 SLP075 T03611033,M
NFL,2024-06-24 00:56,-118.7010,39.4166,1199.00,97.00,36.00,11.98,290.00,16.00,0.00,29.91,1010.10,10.00,21.00,CLR,M,M,M,M,M,M,M,M,M,M,M,M,M,M,91.96,KNFL 240056Z 29016G21KT 10SM CLR 36/02 A2991 RMK AO2 SLP101 T03610022,M
HND,2024-06-24 00:56,-115.1344,35.9729,742.79,107.00,49.00,14.63,270.00,13.00,0.00,29.80,1006.90,10.00,21.00,CLR,M,M,M,M,M,M,M,M,M,M,M,M,M,M,103.88,KHND 240056Z 27013G21KT 10SM CLR 42/09 A2980 RMK AO2 SLP069 T04170094,M
TPH,2024-06-24 00:56,-117.0904,38.0505,1654.00,94.00,18.00,6.25,M,6.00,0.00,30.02,1008.30,10.00,M,CLR,M,M,M,M,M,M,M,M,M,M,M,M,M,M,87.68,KTPH 240056Z AUTO VRB06KT 10SM CLR 34/M08 A3002 RMK AO2 SLP083 T03441078,M
LAS,2024-06-24 00:56,-115.1634,36.0719,663.00,110.00,46.00,11.97,200.00,10.00,0.00,29.76,1004.20,10.00,21.00,FEW,FEW,M,M,10000.00,25000.00,M,M,M,M,M,M,M,M,M,105.77,KLAS 240056Z 20010G21KT 10SM FEW100 FEW250 43/08 A2976 RMK AO2 SLP042 TCU DSNT E T04330078 $,M
LSV,2024-06-24 00:57,-115.0343,36.2362,570.00,109.40,37.40,8.74,230.00,13.00,0.00,29.68,1001.90,10.00,18.00,CLR,M,M,M,M,M,M,M,M,M,M,M,M,M,M,102.93,KLSV 240057Z AUTO 23013G18KT 10SM CLR 43/03 A2968 RMK AO2 WSHFT 51 SLP019 $,M
BVU,2024-06-24 01:15,-114.8611,35.9475,671.00,105.80,46.40,13.75,130.00,7.00,0.00,29.74,M,10.00,12.00,CLR,M,M,M,M,M,M,M,M,M,M,M,M,M,M,101.97,KBVU 240115Z AUTO 13007G12KT 10SM CLR 41/08 A2974 RMK AO2,M
CXP,2024-06-24 01:15,-119.7326,39.1923,1431.00,86.00,42.80,22.02,260.00,13.00,0.00,30.04,M,10.00,22.00,CLR,M,M,M,M,M,M,M,M,M,M,M,M,M,M,82.95,KCXP 240115Z AUTO 26013G22KT 10SM CLR 30/06 A3004 RMK AO2,M
RTS,2024-06-24 01:15,-119.8764,39.6682,1539.00,86.00,32.00,14.40,250.00,16.00,0.00,30.07,M,10.00,22.00,CLR,M,M,M,M,M,M,M,M,M,M,M,M,M,M,82.64,KRTS 240115Z AUTO 25016G22KT 10SM CLR 30/00 A3007 RMK AO2,M
MEV,2024-06-24 01:15,-119.7500,38.9963,1441.42,87.80,35.60,15.70,230.00,10.00,0.00,30.02,M,10.00,M,CLR,M,M,M,M,M,M,M,M,M,M,M,M,M,M,84.12,KMEV 240115Z AUTO 23010KT 10SM CLR 31/02 A3002 RMK AO2,M
BAM,2024-06-24 01:15,-116.8743,40.5990,1382.36,95.00,30.20,10.09,280.00,10.00,0.00,29.95,M,10.00,M,CLR,M,M,M,M,M,M,M,M,M,M,M,M,M,M,89.48,KBAM 240115Z AUTO 28010KT 10SM CLR 35/M01 A2995 RMK AO1,M
HTH,2024-06-24 01:15,-118.6315,38.5448,1282.89,98.60,23.00,6.71,310.00,7.00,0.00,29.92,M,10.00,M,CLR,M,M,M,M,M,M,M,M,M,M,M,M,M,M,91.75,KHTH 240115Z AUTO 31007KT 260V340 10SM CLR 37/M05 A2992 RMK A01,M
TMT,2024-06-24 01:15,-117.1971,39.4643,1749.34,90.00,30.00,11.70,220.00,6.00,0.00,30.06,M,10.00,M,CLR,M,M,M,M,M,M,M,M,M,M,M,M,M,M,85.63,KTMT 240115Z AUTO 22006KT 10SM CLR 32/M01 A3006 RMK AO2 T03221011,M
10U,2024-06-24 01:15,-116.1876,41.9532,1637.00,89.60,26.60,10.30,230.00,12.00,0.00,30.00,M,10.00,M,CLR,M,M,M,M,M,M,M,M,M,M,M,M,M,M,85.02,K10U 240115Z AUTO 23012KT 10SM CLR 32/M03 A3000 RMK AO2,M
BVU,2024-06-24 01:35,-114.8611,35.9475,671.00,107.60,42.80,11.37,260.00,10.00,0.00,29.74,M,10.00,M,CLR,M,M,M,M,M,M,M,M,M,M,M,M,M,M,102.63,KBVU 240135Z AUTO 26010KT 10SM CLR 42/06 A2974 RMK AO2,M
CXP,2024-06-24 01:35,-119.7326,39.1923,1431.00,86.00,42.80,22.02,270.00,15.00,0.00,30.04,M,10.00,21.00,CLR,M,M,M,M,M,M,M,M,M,M,M,M,M,M,82.95,KCXP 240135Z AUTO 27015G21KT 10SM CLR 30/06 A3004 RMK AO2,M
RTS,2024-06-24 01:35,-119.8764,39.6682,1539.00,84.20,32.00,15.25,250.00,16.00,0.00,30.08,M,10.00,22.00,CLR,M,M,M,M,M,M,M,M,M,M,M,M,M,M,81.28,KRTS 240135Z AUTO 25016G22KT 10SM CLR 29/00 A3008 RMK AO2,M
MEV,2024-06-24 01:35,-119.7500,38.9963,1441.42,87.80,37.40,16.86,230.00,9.00,0.00,30.03,M,10.00,M,CLR,M,M,M,M,M,M,M,M,M,M,M,M,M,M,84.16,KMEV 240135Z AUTO 23009KT 10SM CLR 31/03 A3003 RMK AO2,M
BAM,2024-06-24 01:35,-116.8743,40.5990,1382.36,95.00,28.40,9.38,270.00,12.00,0.00,29.95,M,10.00,20.00,CLR,M,M,M,M,M,M,M,M,M,M,M,M,M,M,89.27,KBAM 240135Z AUTO 27012G20KT 10SM CLR 35/M02 A2995 RMK AO1,M
HTH,2024-06-24 01:35,-118.6315,38.5448,1282.89,96.80,21.20,6.57,230.00,13.00,0.00,29.92,M,10.00,M,CLR,M,M,M,M,M,M,M,M,M,M,M,M,M,M,90.11,KHTH 240135Z AUTO 23013KT 10SM CLR 36/M06 A2992 RMK A01,M
10U,2024-06-24 01:35,-116.1876,41.9532,1637.00,87.80,26.60,10.91,250.00,8.00,0.00,30.00,M,10.00,15.00,CLR,M,M,M,M,M,M,M,M,M,M,M,M,M,M,83.69,K10U 240135Z AUTO 25008G15KT 210V270 10SM CLR 31/M03 A3000 RMK AO2,M
TMT,2024-06-24 01:35,-117.1971,39.4643,1749.34,89.40,31.50,12.67,300.00,8.00,0.00,30.06,M,10.00,M,CLR,M,M,M,M,M,M,M,M,M,M,M,M,M,M,85.33,KTMT 240135Z AUTO 30008KT 10SM CLR 32/00 A3006 RMK AO2 T03191003,M
P68,2024-06-24 01:53,-116.0056,39.6014,1993.00,90.00,26.00,9.92,290.00,13.00,0.00,30.02,1006.50,M,M,M,M,M,M,M,M,M,M,M,M,M,M,M,M,M,85.26,KP68 240153Z AUTO 29013KT 32/M03 A3002 RMK AO1 SLP065 T03221033,M
DRA,2024-06-24 01:53,-116.0278,36.6206,1009.00,101.00,40.00,12.41,220.00,13.00,0.00,29.85,1004.80,10.00,19.00,CLR,M,M,M,M,M,M,M,M,M,M,M,M,M,M,96.12,KDRA 240153Z AUTO 22013G19KT 10SM CLR 38/04 A2985 RMK AO2 SLP048 T03830044,M
ELY,2024-06-24 01:53,-114.8453,39.2950,1909.00,89.00,28.00,11.12,190.00,12.00,0.00,30.07,1005.80,10.00,M,CLR,M,M,M,M,M,M,M,M,M,M,M,M,M,M,84.69,KELY 240153Z AUTO 19012KT 10SM CLR 32/M02 A3007 RMK AO2 SLP058 T03171022,M
VGT,2024-06-24 01:53,-115.1933,36.2111,667.00,108.00,44.00,11.76,240.00,14.00,0.00,29.74,1005.30,10.00,M,CLR,M,M,M,M,M,M,M,M,M,M,M,M,M,M,103.33,KVGT 240153Z 24014KT 10SM CLR 42/07 A2974 RMK AO2 SLP053 T04220067,M
LOL,2024-06-24 01:53,-118.5701,40.0684,1192.43,94.00,33.00,11.65,280.00,15.00,0.00,29.90,1008.10,10.00,M,CLR,M,M,M,M,M,M,M,M,M,M,M,26.00,250.00,2024-06-24 01:00,89.06,KLOL 240153Z AUTO 28015KT 10SM CLR 34/01 A2990 RMK AO2 PK WND 25026/0100 SLP081 T03440006,M
BVU,2024-06-24 01:55,-114.8611,35.9475,671.00,107.60,42.80,11.37,260.00,13.00,0.00,29.74,M,10.00,M,CLR,M,M,M,M,M,M,M,M,M,M,M,M,M,M,102.63,KBVU 240155Z AUTO 26013KT 10SM CLR 42/06 A2974 RMK AO2,M
CXP,2024-06-24 01:55,-119.7326,39.1923,1431.00,86.00,42.80,22.02,280.00,13.00,0.00,30.04,M,10.00,22.00,CLR,M,M,M,M,M,M,M,M,M,M,M,M,M,M,82.95,KCXP 240155Z AUTO 28013G22KT 10SM CLR 30/06 A3004 RMK AO2,M
INS,2024-06-24 01:55,-115.6733,36.5872,955.00,M,M,M,250.00,20.00,0.00,M,M,10.00,M,M,M,M,M,M,M,M,M,M,M,M,M,M,M,M,M,KINS 240155Z AUTO 25020KT 10SM M M M RMK AO2 SLPNO RVRNO TSNO $,M
RNO,2024-06-24 01:55,-119.7711,39.4839,1341.00,89.00,50.00,26.28,280.00,19.00,0.00,30.00,1009.70,10.00,24.00,CLR,M,M,M,M,M,M,M,M,M,M,M,33.00,300.00,2024-06-24 00:57,86.16,KRNO 240155Z 28019G24KT 10SM CLR 32/10 A3000 RMK AO2 PK WND 30033/0057 SLP097 T03170100,M
RTS,2024-06-24 01:55,-119.8764,39.6682,1539.00,84.20,32.00,15.25,250.00,16.00,0.00,30.08,M,10.00,M,CLR,M,M,M,M,M,M,M,M,M,M,M,M,M,M,81.28,KRTS 240155Z AUTO 25016KT 10SM CLR 29/M00 A3008 RMK AO2,M
MEV,2024-06-24 01:55,-119.7500,38.9963,1441.42,86.00,42.80,22.02,230.00,8.00,0.00,30.03,M,10.00,13.00,CLR,M,M,M,M,M,M,M,M,M,M,M,M,M,M,82.95,KMEV 240155Z AUTO 23008G13KT 10SM CLR 30/06 A3003 RMK AO2,M
BAM,2024-06-24 01:55,-116.8743,40.5990,1382.36,95.00,28.40,9.38,270.00,11.00,0.00,29.95,M,10.00,17.00,CLR,M,M,M,M,M,M,M,M,M,M,M,M,M,M,89.27,KBAM 240155Z AUTO 27011G17KT 10SM CLR 35/M02 A2995 RMK AO1,M
HTH,2024-06-24 01:55,-118.6315,38.5448,1282.89,96.80,19.40,6.09,220.00,14.00,0.00,29.92,M,10.00,21.00,CLR,M,M,M,M,M,M,M,M,M,M,M,M,M,M,89.99,KHTH 240155Z AUTO 22014G21KT 10SM CLR 36/M07 A2992 RMK A01,M
10U,2024-06-24 01:55,-116.1876,41.9532,1637.00,87.80,24.80,10.12,240.00,11.00,0.00,30.00,M,10.00,20.00,CLR,M,M,M,M,M,M,M,M,M,M,M,M,M,M,83.56,K10U 240155Z AUTO 24011G20KT 10SM CLR 31/M04 A3000 RMK AO2,M
TMT,2024-06-24 01:55,-117.1971,39.4643,1749.34,88.50,31.30,12.93,270.00,7.00,0.00,30.06,M,10.00,M,CLR,M,M,M,M,M,M,M,M,M,M,M,M,M,M,84.64,KTMT 240155Z AUTO 27007KT 10SM CLR 31/00 A3006 RMK AO2 T03141004,M
LSV,2024-06-24 01:55,-115.0343,36.2362,570.00,108.30,37.20,8.96,270.00,10.00,0.00,29.69,1002.10,10.00,M,CLR,M,M,M,M,M,M,M,M,M,M,M,M,M,M,101.91,KLSV 240155Z AUTO 27010KT 10SM CLR 42/03 A2969 RMK AO2 SLP021 T04240029 $,M
EKO,2024-06-24 01:56,-115.7860,40.8242,1367.00,93.00,28.00,9.81,270.00,10.00,0.00,29.96,1007.80,10.00,M,CLR,M,M,M,M,M,M,M,M,M,M,M,M,M,M,87.70,KEKO 240156Z AUTO 27010KT 10SM CLR 34/M02 A2996 RMK AO2 SLP078 T03391022,M
WMC,2024-06-24 01:56,-117.8072,40.9019,1315.00,94.00,29.00,9.91,280.00,11.00,0.00,29.92,1007.40,10.00,22.00,CLR,M,M,M,M,M,M,M,M,M,M,M,26.00,240.00,2024-06-24 01:04,88.57,KWMC 240156Z AUTO 28011G22KT 10SM CLR 34/M02 A2992 RMK AO2 PK WND 24026/0104 SLP074 T03441017,M
NFL,2024-06-24 01:56,-118.7010,39.4166,1199.00,95.00,38.00,13.78,290.00,16.00,0.00,29.92,1010.40,10.00,21.00,CLR,M,M,M,M,M,M,M,M,M,M,M,M,M,M,90.49,KNFL 240156Z 29016G21KT 10SM CLR 35/03 A2992 RMK AO2 SLP104 T03500033,M
HND,2024-06-24 01:56,-115.1344,35.9729,742.79,105.00,47.00,14.40,260.00,13.00,0.00,29.81,1006.90,10.00,M,CLR,M,M,M,M,M,M,M,M,M,M,M,M,M,M,101.34,KHND 240156Z 26013KT 10SM CLR 41/08 A2981 RMK AO2 SLP069 T04060083,M
TPH,2024-06-24 01:56,-117.0904,38.0505,1654.00,93.00,19.00,6.73,250.00,10.00,0.00,30.02,1007.60,10.00,M,CLR,M,M,M,M,M,M,M,M,M,M,M,M,M,M,87.01,KTPH 240156Z AUTO 25010KT 10SM CLR 34/M07 A3002 RMK AO2 SLP076 T03391072,M
LAS,2024-06-24 01:56,-115.1634,36.0719,663.00,108.00,44.00,11.76,210.00,10.00,0.00,29.76,1004.30,10.00,20.00,FEW,FEW,M,M,10000.00,25000.00,M,M,M,M,M,M,M,M,M,103.33,KLAS 240156Z 21010G20KT 10SM FEW100 FEW250 42/07 A2976 RMK AO2 SLP043 TCU DSNT E T04220067 $,M
BVU,2024-06-24 02:15,-114.8611,35.9475,671.00,105.80,42.80,11.98,250.00,13.00,0.00,29.75,M,10.00,M,CLR,M,M,M,M,M,M,M,M,M,M,M,M,M,M,101.02,KBVU 240215Z AUTO 25013KT 10SM CLR 41/06 A2975 RMK AO2,M
CXP,2024-06-24 02:15,-119.7326,39.1923,1431.00,84.20,44.60,24.99,270.00,11.00,0.00,30.04,M,10.00,19.00,CLR,M,M,M,M,M,M,M,M,M,M,M,M,M,M,81.73,KCXP 240215Z AUTO 27011G19KT 10SM CLR 29/07 A3004 RMK AO2,M
RTS,2024-06-24 02:15,-119.8764,39.6682,1539.00,82.40,30.20,15.03,230.00,15.00,0.00,30.08,M,10.00,M,CLR,M,M,M,M,M,M,M,M,M,M,M,M,M,M,79.97,KRTS 240215Z AUTO 23015KT 10SM CLR 28/M01 A3008 RMK AO2,M
MEV,2024-06-24 02:15,-119.7500,38.9963,1441.42,84.20,42.80,23.33,240.00,7.00,0.00,30.03,M,10.00,15.00,CLR,M,M,M,M,M,M,M,M,M,M,M,M,M,M,81.61,KMEV 240215Z AUTO 24007G15KT 10SM CLR 29/06 A3003 RMK AO2,M
BAM,2024-06-24 02:15,-116.8743,40.5990,1382.36,93.20,28.40,9.91,260.00,13.00,0.00,29.95,M,10.00,17.00,CLR,M,M,M,M,M,M,M,M,M,M,M,M,M,M,87.89,KBAM 240215Z AUTO 26013G17KT 10SM CLR 34/M02 A2995 RMK AO1,M
HTH,2024-06-24 02:15,-118.6315,38.5448,1282.89,95.00,19.40,6.43,230.00,17.00,0.00,29.92,M,10.00,24.00,CLR,M,M,M,M,M,M,M,M,M,M,M,M,M,M,88.50,KHTH 240215Z AUTO 23017G24KT 10SM CLR 35/M07 A2992 RMK A01,M
10U,2024-06-24 02:15,-116.1876,41.9532,1637.00,86.00,24.80,10.72,240.00,10.00,0.00,30.00,M,10.00,17.00,CLR,M,M,M,M,M,M,M,M,M,M,M,M,M,M,82.26,K10U 240215Z AUTO 24010G17KT 10SM CLR 30/M04 A3000 RMK AO2,M
TMT,2024-06-24 02:15,-117.1971,39.4643,1749.34,87.00,31.30,13.56,300.00,8.00,0.00,30.06,M,10.00,M,CLR,M,M,M,M,M,M,M,M,M,M,M,M,M,M,83.43,KTMT 240215Z AUTO 30008KT 10SM CLR 31/00 A3006 RMK AO2 T03051004,M
BVU,2024-06-24 02:35,-114.8611,35.9475,671.00,105.80,42.80,11.98,260.00,13.00,0.00,29.75,M,10.00,M,CLR,M,M,M,M,M,M,M,M,M,M,M,M,M,M,101.02,KBVU 240235Z AUTO 26013KT 10SM CLR 41/06 A2975 RMK AO2,M
CXP,2024-06-24 02:35,-119.7326,39.1923,1431.00,82.40,44.60,26.49,290.00,11.00,0.00,30.05,M,10.00,M,CLR,M,M,M,M,M,M,M,M,M,M,M,M,M,M,80.50,KCXP 240235Z AUTO 29011KT 10SM CLR 28/07 A3005 RMK AO2,M
RTS,2024-06-24 02:35,-119.8764,39.6682,1539.00,82.40,32.00,16.17,240.00,12.00,0.00,30.09,M,10.00,19.00,CLR,M,M,M,M,M,M,M,M,M,M,M,M,M,M,80.00,KRTS 240235Z AUTO 24012G19KT 10SM CLR 28/M00 A3009 RMK AO2,M
MEV,2024-06-24 02:35,-119.7500,38.9963,1441.42,82.40,42.80,24.72,270.00,11.00,0.00,30.04,M,10.00,17.00,CLR,M,M,M,M,M,M,M,M,M,M,M,M,M,M,80.39,KMEV 240235Z AUTO 27011G17KT 10SM CLR 28/06 A3004 RMK AO2,M
BAM,2024-06-24 02:35,-116.8743,40.5990,1382.36,91.40,28.40,10.48,260.00,8.00,0.00,29.96,M,10.00,M,CLR,M,M,M,M,M,M,M,M,M,M,M,M,M,M,86.53,KBAM 240235Z AUTO 26008KT 10SM CLR 33/M02 A2996 RMK AO1,M
HTH,2024-06-24 02:35,-118.6315,38.5448,1282.89,95.00,19.40,6.43,250.00,21.00,0.00,29.92,M,10.00,28.00,CLR,M,M,M,M,M,M,M,M,M,M,M,M,M,M,88.50,KHTH 240235Z AUTO 25021G28KT 10SM CLR 35/M07 A2992 RMK A01,M
10U,2024-06-24 02:35,-116.1876,41.9532,1637.00,86.00,23.00,9.94,250.00,8.00,0.00,30.00,M,10.00,16.00,CLR,M,M,M,M,M,M,M,M,M,M,M,M,M,M,82.14,K10U 240235Z AUTO 25008G16KT 10SM CLR 30/M05 A3000 RMK AO2,M
TMT,2024-06-24 02:35,-117.1971,39.4643,1749.34,85.00,31.00,14.28,330.00,9.00,0.00,30.07,M,10.00,M,CLR,M,M,M,M,M,M,M,M,M,M,M,M,M,M,81.87,KTMT 240235Z AUTO 33009KT 10SM CLR 30/00 A3007 RMK AO2 T02951005,M
P68,2024-06-24 02:53,-116.0056,39.6014,1993.00,85.00,27.00,12.12,310.00,12.00,0.00,30.04,1007.00,M,M,M,M,M,M,M,M,M,M,M,M,M,M,M,M,M,81.72,KP68 240253Z AUTO 31012KT 29/M03 A3004 RMK AO1 SLP070 T02941028 53007,M
DRA,2024-06-24 02:53,-116.0278,36.6206,1009.00,98.00,42.00,14.68,190.00,7.00,0.00,29.85,1004.70,10.00,M,CLR,M,M,M,M,M,M,M,M,M,M,M,M,M,M,93.63,KDRA 240253Z AUTO 19007KT 10SM CLR 37/06 A2985 RMK AO2 SLP047 T03670056 56004,M
ELY,2024-06-24 02:53,-114.8453,39.2950,1909.00,82.00,23.00,11.31,220.00,8.00,0.00,30.08,1006.00,10.00,M,CLR,M,M,M,M,M,M,M,M,M,M,M,M,M,M,79.40,KELY 240253Z AUTO 22008KT 10SM CLR 28/M05 A3008 RMK AO2 SLP060 T02781050 55001,M
VGT,2024-06-24 02:53,-115.1933,36.2111,667.00,106.00,45.00,12.96,240.00,13.00,0.00,29.75,1005.60,10.00,18.00,CLR,M,M,M,M,M,M,M,M,M,M,M,M,M,M,101.83,KVGT 240253Z 24013G18KT 10SM CLR 41/07 A2975 RMK AO2 SLP056 T04110072 53001,M
LOL,2024-06-24 02:53,-118.5701,40.0684,1192.43,89.00,36.00,15.36,290.00,17.00,0.00,29.92,1008.50,10.00,M,CLR,M,M,M,M,M,M,M,M,M,M,M,M,M,M,85.12,KLOL 240253Z AUTO 29017KT 10SM CLR 32/02 A2992 RMK AO2 SLP085 T03170022 53004,M
BVU,2024-06-24 02:55,-114.8611,35.9475,671.00,104.00,41.00,11.79,250.00,11.00,0.00,29.76,M,10.00,M,CLR,M,M,M,M,M,M,M,M,M,M,M,M,M,M,98.97,KBVU 240255Z AUTO 25011KT 10SM CLR 40/05 A2976 RMK AO2,M
CXP,2024-06-24 02:55,-119.7326,39.1923,1431.00,82.40,42.80,24.72,280.00,12.00,0.00,30.05,M,10.00,M,CLR,M,M,M,M,M,M,M,M,M,M,M,M,M,M,80.39,KCXP 240255Z AUTO 28012KT 10SM CLR 28/06 A3005 RMK AO2,M
RNO,2024-06-24 02:55,-119.7711,39.4839,1341.00,86.00,48.00,26.82,280.00,13.00,0.00,30.02,1009.90,10.00,M,CLR,M,M,M,M,M,M,M,M,M,M,M,M,M,M,83.38,KRNO 240255Z 28013KT 10SM CLR 30/09 A3002 RMK AO2 SLP099 T03000089 53006,M
RTS,2024-06-24 02:55,-119.8764,39.6682,1539.00,80.60,32.00,17.14,260.00,9.00,0.00,30.09,M,10.00,14.00,CLR,M,M,M,M,M,M,M,M,M,M,M,M,M,M,78.82,KRTS 240255Z AUTO 26009G14KT 230V290 10SM CLR 27/00 A3009 RMK AO2,M
MEV,2024-06-24 02:55,-119.7500,38.9963,1441.42,80.60,42.80,26.22,M,4.00,0.00,30.04,M,10.00,12.00,CLR,M,M,M,M,M,M,M,M,M,M,M,M,M,M,79.30,KMEV 240255Z AUTO VRB04G12KT 10SM CLR 27/06 A3004 RMK AO2,M
BAM,2024-06-24 02:55,-116.8743,40.5990,1382.36,89.60,28.40,11.09,260.00,6.00,0.00,29.96,M,10.00,M,CLR,M,M,M,M,M,M,M,M,M,M,M,M,M,M,85.17,KBAM 240255Z AUTO 26006KT 10SM CLR 32/M02 A2996 RMK AO1,M
HTH,2024-06-24 02:55,-118.6315,38.5448,1282.89,93.20,19.40,6.80,250.00,20.00,0.00,29.93,M,10.00,30.00,CLR,M,M,M,M,M,M,M,M,M,M,M,M,M,M,87.18,KHTH 240255Z AUTO 25020G30KT 10SM CLR 34/M07 A2993 RMK A01,M
10U,2024-06-24 02:55,-116.1876,41.9532,1637.00,82.40,24.80,12.03,240.00,7.00,0.00,30.00,M,10.00,M,CLR,M,M,M,M,M,M,M,M,M,M,M,M,M,M,79.79,K10U 240255Z AUTO 24007KT 10SM CLR 28/M04 A3000 RMK AO2,M
TMT,2024-06-24 02:55,-117.1971,39.4643,1749.34,82.60,31.60,15.80,320.00,8.00,0.00,30.07,M,10.00,M,CLR,M,M,M,M,M,M,M,M,M,M,M,M,M,M,80.13,KTMT 240255Z AUTO 32008KT 10SM CLR 28/00 A3007 RMK AO2 T02811002,M
INS,2024-06-24 02:55,-115.6733,36.5872,955.00,M,M,M,230.00,14.00,0.00,M,M,10.00,M,M,M,M,M,M,M,M,M,M,M,M,M,M,M,M,M,KINS 240255Z AUTO 23014KT 10SM M M M RMK AO2 SLPNO RVRNO TSNO $,M
LSV,2024-06-24 02:55,-115.0343,36.2362,570.00,106.00,35.60,9.00,250.00,13.00,0.00,29.70,1002.50,10.00,M,CLR,M,M,M,M,M,M,M,M,M,M,M,M,M,M,99.59,KLSV 240255Z AUTO 25013KT 10SM CLR 41/02 A2970 RMK AO2 SLP025 T04120020 53001 $,M
EKO,2024-06-24 02:56,-115.7860,40.8242,1367.00,87.00,29.00,12.35,270.00,7.00,0.00,29.97,1007.90,10.00,M,CLR,M,M,M,M,M,M,M,M,M,M,M,M,M,M,83.31,KEKO 240256Z AUTO 27007KT 10SM CLR 31/M02 A2997 RMK AO2 SLP079 T03061017 55002,M
WMC,2024-06-24 02:56,-117.8072,40.9019,1315.00,89.00,30.00,12.07,280.00,12.00,0.00,29.94,1007.80,10.00,22.00,CLR,M,M,M,M,M,M,M,M,M,M,M,M,M,M,84.88,KWMC 240256Z AUTO 28012G22KT 10SM CLR 32/M01 A2994 RMK AO2 SLP078 T03171011 53003,M
NFL,2024-06-24 02:56,-118.7010,39.4166,1199.00,91.00,40.00,16.87,280.00,13.00,0.00,29.93,1010.90,10.00,M,CLR,M,M,M,M,M,M,M,M,M,M,M,M,M,M,86.99,KNFL 240256Z 28013KT 10SM CLR 33/04 A2993 RMK AO2 SLP109 T03280044 53006,M
HND,2024-06-24 02:56,-115.1344,35.9729,742.79,103.00,48.00,15.87,230.00,10.00,0.00,29.82,1007.30,10.00,M,CLR,M,M,M,M,M,M,M,M,M,M,M,M,M,M,99.59,KHND 240256Z 23010KT 10SM CLR 39/09 A2982 RMK AO2 SLP073 T03940089 53002,M
TPH,2024-06-24 02:56,-117.0904,38.0505,1654.00,88.00,20.00,8.21,230.00,4.00,0.00,30.02,1007.30,10.00,M,CLR,M,M,M,M,M,M,M,M,M,M,M,M,M,M,83.41,KTPH 240256Z AUTO 23004KT 10SM CLR 31/M07 A3002 RMK AO2 SLP073 T03111067 55003,M
LAS,2024-06-24 02:56,-115.1634,36.0719,663.00,106.00,45.00,12.96,220.00,11.00,0.00,29.78,1004.70,10.00,16.00,FEW,FEW,M,M,10000.00,25000.00,M,M,M,M,M,M,M,M,M,101.83,KLAS 240256Z 22011G16KT 10SM FEW100 FEW250 41/07 A2978 RMK AO2 SLP047 TCU DSNT E T04110072 $,M
BVU,2024-06-24 03:15,-114.8611,35.9475,671.00,102.20,41.00,12.44,240.00,10.00,0.00,29.76,M,10.00,M,CLR,M,M,M,M,M,M,M,M,M,M,M,M,M,M,97.39,KBVU 240315Z AUTO 24010KT 10SM CLR 39/05 A2976 RMK AO2,M
CXP,2024-06-24 03:15,-119.7326,39.1923,1431.00,80.60,42.80,26.22,270.00,13.00,0.00,30.06,M,10.00,M,CLR,M,M,M,M,M,M,M,M,M,M,M,M,M,M,79.30,KCXP 240315Z AUTO 27013KT 10SM CLR 27/06 A3006 RMK AO2,M
RTS,2024-06-24 03:15,-119.8764,39.6682,1539.00,78.80,33.80,19.55,270.00,8.00,0.00,30.09,M,10.00,M,CLR,M,M,M,M,M,M,M,M,M,M,M,M,M,M,78.80,KRTS 240315Z AUTO 27008KT 10SM CLR 26/01 A3009 RMK AO2,M
MEV,2024-06-24 03:15,-119.7500,38.9963,1441.42,78.80,42.80,27.81,270.00,10.00,0.00,30.05,M,10.00,15.00,CLR,M,M,M,M,M,M,M,M,M,M,M,M,M,M,78.80,KMEV 240315Z AUTO 27010G15KT 10SM CLR 26/06 A3005 RMK AO2,M
BAM,2024-06-24 03:15,-116.8743,40.5990,1382.36,86.00,30.20,13.38,260.00,6.00,0.00,29.96,M,10.00,M,CLR,M,M,M,M,M,M,M,M,M,M,M,M,M,M,82.64,KBAM 240315Z AUTO 26006KT 10SM CLR 30/M01 A2996 RMK AO1,M
HTH,2024-06-24 03:15,-118.6315,38.5448,1282.89,91.40,19.40,7.19,240.00,13.00,0.00,29.93,M,10.00,32.00,CLR,M,M,M,M,M,M,M,M,M,M,M,M,M,M,85.86,KHTH 240315Z AUTO 24013G32KT 10SM CLR 33/M07 A2993 RMK A01,M
10U,2024-06-24 03:15,-116.1876,41.9532,1637.00,78.80,24.80,13.54,260.00,8.00,0.00,30.00,M,10.00,M,CLR,M,M,M,M,M,M,M,M,M,M,M,M,M,M,78.80,K10U 240315Z AUTO 26008KT 10SM CLR 26/M04 A3000 RMK AO2,M
TMT,2024-06-24 03:15,-117.1971,39.4643,1749.34,79.30,31.60,17.60,310.00,5.00,0.00,30.08,M,10.00,M,CLR,M,M,M,M,M,M,M,M,M,M,M,M,M,M,79.30,KTMT 240315Z AUTO 31005KT 10SM CLR 26/00 A3008 RMK AO2 T02631002,M
BVU,2024-06-24 03:35,-114.8611,35.9475,671.00,102.20,41.00,12.44,240.00,8.00,0.00,29.77,M,10.00,M,CLR,M,M,M,M,M,M,M,M,M,M,M,M,M,M,97.39,KBVU 240335Z AUTO 24008KT 10SM CLR 39/05 A2977 RMK AO2,M
CXP,2024-06-24 03:35,-119.7326,39.1923,1431.00,80.60,42.80,26.22,270.00,10.00,0.00,30.06,M,10.00,17.00,CLR,M,M,M,M,M,M,M,M,M,M,M,M,M,M,79.30,KCXP 240335Z AUTO 27010G17KT 10SM CLR 27/06 A3006 RMK AO2,M
RTS,2024-06-24 03:35,-119.8764,39.6682,1539.00,77.00,32.00,19.30,250.00,8.00,0.00,30.10,M,10.00,13.00,CLR,M,M,M,M,M,M,M,M,M,M,M,M,M,M,77.00,KRTS 240335Z AUTO 25008G13KT 10SM CLR 25/00 A3010 RMK AO2,M
MEV,2024-06-24 03:35,-119.7500,38.9963,1441.42,77.00,42.80,29.51,250.00,9.00,0.00,30.05,M,10.00,M,CLR,M,M,M,M,M,M,M,M,M,M,M,M,M,M,77.00,KMEV 240335Z AUTO 25009KT 10SM CLR 25/06 A3005 RMK AO2,M
BAM,2024-06-24 03:35,-116.8743,40.5990,1382.36,80.60,30.20,15.94,250.00,6.00,0.00,29.96,M,10.00,M,CLR,M,M,M,M,M,M,M,M,M,M,M,M,M,M,78.77,KBAM 240335Z AUTO 25006KT 10SM CLR 27/M01 A2996 RMK AO1,M
HTH,2024-06-24 03:35,-118.6315,38.5448,1282.89,91.40,17.60,6.66,240.00,22.00,0.00,29.93,M,10.00,31.00,CLR,M,M,M,M,M,M,M,M,M,M,M,M,M,M,85.76,KHTH 240335Z AUTO 24022G31KT 10SM CLR 33/M08 A2993 RMK A01,M
10U,2024-06-24 03:35,-116.1876,41.9532,1637.00,75.20,26.60,16.43,260.00,8.00,0.00,30.01,M,10.00,M,CLR,M,M,M,M,M,M,M,M,M,M,M,M,M,M,75.20,K10U 240335Z AUTO 26008KT 10SM CLR 24/M03 A3001 RMK AO2,M
TMT,2024-06-24 03:35,-117.1971,39.4643,1749.34,77.00,32.00,19.30,330.00,4.00,0.00,30.08,M,10.00,M,CLR,M,M,M,M,M,M,M,M,M,M,M,M,M,M,77.00,KTMT 240335Z AUTO 33004KT 10SM CLR 25/00 A3008 RMK AO2 T02501001,M
P68,2024-06-24 03:53,-116.0056,39.6014,1993.00,79.00,26.00,14.13,350.00,6.00,0.00,30.07,1008.10,M,M,M,M,M,M,M,M,M,M,M,M,M,M,M,M,M,79.00,KP68 240353Z AUTO 35006KT 26/M03 A3007 RMK AO1 SLP081 T02611033,M
DRA,2024-06-24 03:53,-116.0278,36.6206,1009.00,94.00,43.00,17.25,190.00,6.00,0.00,29.86,1005.00,10.00,M,CLR,M,M,M,M,M,M,M,M,M,M,M,M,M,M,89.94,KDRA 240353Z AUTO 19006KT 10SM CLR 34/06 A2986 RMK AO2 SLP050 T03440061,M
ELY,2024-06-24 03:53,-114.8453,39.2950,1909.00,72.00,24.00,16.43,160.00,11.00,0.00,30.09,1006.80,10.00,M,CLR,M,M,M,M,M,M,M,M,M,M,M,M,M,M,72.00,KELY 240353Z AUTO 16011KT 10SM CLR 22/M04 A3009 RMK AO2 SLP068 T02221044,M
VGT,2024-06-24 03:53,-115.1933,36.2111,667.00,104.00,45.00,13.75,220.00,7.00,0.00,29.77,1006.20,10.00,M,CLR,M,M,M,M,M,M,M,M,M,M,M,M,M,M,99.90,KVGT 240353Z AUTO 22007KT 10SM CLR 40/07 A2977 RMK AO2 SLP062 T04000072,M
LOL,2024-06-24 03:53,-118.5701,40.0684,1192.43,85.00,34.00,16.11,290.00,13.00,0.00,29.95,1009.00,10.00,M,CLR,M,M,M,M,M,M,M,M,M,M,M,M,M,M,81.90,KLOL 240353Z AUTO 29013KT 10SM CLR 29/01 A2995 RMK AO2 SLP090 T02940011,M
BVU,2024-06-24 03:55,-114.8611,35.9475,671.00,100.40,41.00,13.14,220.00,5.00,0.00,29.77,M,10.00,11.00,CLR,M,M,M,M,M,M,M,M,M,M,M,M,M,M,95.79,KBVU 240355Z AUTO 22005G11KT 10SM CLR 38/05 A2977 RMK AO2,M
CXP,2024-06-24 03:55,-119.7326,39.1923,1431.00,78.80,42.80,27.81,280.00,11.00,0.00,30.07,M,10.00,16.00,CLR,M,M,M,M,M,M,M,M,M,M,M,M,M,M,78.80,KCXP 240355Z AUTO 28011G16KT 10SM CLR 26/06 A3007 RMK AO2,M
RNO,2024-06-24 03:55,-119.7711,39.4839,1341.00,83.00,45.00,26.37,280.00,11.00,0.00,30.03,1010.50,10.00,19.00,CLR,M,M,M,M,M,M,M,M,M,M,M,29.00,290.00,2024-06-24 03:18,80.93,KRNO 240355Z 28011G19KT 10SM CLR 28/07 A3003 RMK AO2 PK WND 29029/0318 SLP105 T02830072,M
RTS,2024-06-24 03:55,-119.8764,39.6682,1539.00,73.40,32.00,21.76,260.00,6.00,0.00,30.10,M,10.00,M,CLR,M,M,M,M,M,M,M,M,M,M,M,M,M,M,73.40,KRTS 240355Z AUTO 26006KT 10SM CLR 23/00 A3010 RMK AO2,M
MEV,2024-06-24 03:55,-119.7500,38.9963,1441.42,77.00,42.80,29.51,260.00,8.00,0.00,30.06,M,10.00,13.00,CLR,M,M,M,M,M,M,M,M,M,M,M,M,M,M,77.00,KMEV 240355Z AUTO 26008G13KT 10SM CLR 25/06 A3006 RMK AO2,M
BAM,2024-06-24 03:55,-116.8743,40.5990,1382.36,80.60,30.20,15.94,230.00,5.00,0.00,29.97,M,10.00,M,CLR,M,M,M,M,M,M,M,M,M,M,M,M,M,M,78.77,KBAM 240355Z AUTO 23005KT 10SM CLR 27/M01 A2997 RMK AO1,M
HTH,2024-06-24 03:55,-118.6315,38.5448,1282.89,89.60,17.60,7.05,250.00,16.00,0.00,29.94,M,10.00,33.00,CLR,M,M,M,M,M,M,M,M,M,M,M,M,M,M,84.45,KHTH 240355Z AUTO 25016G33KT 10SM CLR 32/M08 A2994 RMK A01,M
10U,2024-06-24 03:55,-116.1876,41.9532,1637.00,71.60,28.40,19.98,260.00,9.00,0.00,30.01,M,10.00,M,CLR,M,M,M,M,M,M,M,M,M,M,M,M,M,M,71.60,K10U 240355Z AUTO 26009KT 10SM CLR 22/M02 A3001 RMK AO2,M
TMT,2024-06-24 03:55,-117.1971,39.4643,1749.34,69.00,30.20,23.49,0.00,0.00,0.00,30.10,M,4.00,M,CLR,M,M,M,M,M,M,M,HZ,M,M,M,M,M,M,69.00,KTMT 240355Z AUTO 00000KT 4SM HZ CLR 21/M01 A3010 RMK AO2 T02061010,M
INS,2024-06-24 03:55,-115.6733,36.5872,955.00,M,M,M,220.00,8.00,0.00,M,M,10.00,M,M,M,M,M,M,M,M,M,M,M,M,M,M,M,M,M,KINS 240355Z AUTO 22008KT 10SM M M M RMK AO2 SLPNO RVRNO TSNO $,M
LSV,2024-06-24 03:55,-115.0343,36.2362,570.00,102.60,38.00,10.94,210.00,5.00,0.00,29.71,1002.80,10.00,M,CLR,M,M,M,M,M,M,M,M,M,M,M,M,M,M,97.09,KLSV 240355Z AUTO 21005KT 10SM CLR 39/03 A2971 RMK AO2 SLP028 T03920033 $,M
EKO,2024-06-24 03:56,-115.7860,40.8242,1367.00,77.00,32.00,19.30,210.00,5.00,0.00,29.99,1008.60,10.00,M,CLR,M,M,M,M,M,M,M,M,M,M,M,M,M,M,77.00,KEKO 240356Z AUTO 21005KT 10SM CLR 25/00 A2999 RMK AO2 SLP086 T02500000,M
WMC,2024-06-24 03:56,-117.8072,40.9019,1315.00,77.00,31.00,18.53,250.00,9.00,0.00,29.95,1008.50,10.00,M,CLR,M,M,M,M,M,M,M,M,M,M,M,M,M,M,77.00,KWMC 240356Z AUTO 25009KT 10SM CLR 25/M01 A2995 RMK AO2 SLP085 T02501006,M
HND,2024-06-24 03:56,-115.1344,35.9729,742.79,100.00,47.00,16.72,220.00,7.00,0.00,29.83,1007.80,10.00,M,CLR,M,M,M,M,M,M,M,M,M,M,M,M,M,M,96.35,KHND 240356Z AUTO 22007KT 10SM CLR 38/08 A2983 RMK AO2 SLP078 T03780083,M
TPH,2024-06-24 03:56,-117.0904,38.0505,1654.00,84.00,21.00,9.74,270.00,8.00,0.00,30.05,1007.90,10.00,M,CLR,M,M,M,M,M,M,M,M,M,M,M,M,M,M,80.63,KTPH 240356Z AUTO 27008KT 10SM CLR 29/M06 A3005 RMK AO2 SLP079 T02891061,M
LAS,2024-06-24 03:56,-115.1634,36.0719,663.00,104.00,46.00,14.28,200.00,6.00,0.00,29.79,1004.90,10.00,M,FEW,FEW,M,M,10000.00,25000.00,M,M,M,M,M,M,M,M,M,100.12,KLAS 240356Z 20006KT 10SM FEW100 FEW250 40/08 A2979 RMK AO2 SLP049 T04000078 $,M
NFL,2024-06-24 03:56,-118.7010,39.4166,1199.00,87.00,40.00,19.14,280.00,10.00,0.00,29.96,1011.60,10.00,M,CLR,M,M,M,M,M,M,M,M,M,M,M,M,M,M,83.60,KNFL 240356Z 28010KT 10SM CLR 31/04 A2996 RMK AO2 SLP116 T03060044,M
BVU,2024-06-24 04:15,-114.8611,35.9475,671.00,98.60,41.00,13.87,0.00,0.00,0.00,29.78,M,10.00,M,CLR,M,M,M,M,M,M,M,M,M,M,M,M,M,M,94.09,KBVU 240415Z AUTO 00000KT 10SM CLR 37/05 A2978 RMK AO2,M
CXP,2024-06-24 04:15,-119.7326,39.1923,1431.00,78.80,42.80,27.81,280.00,10.00,0.00,30.08,M,10.00,M,CLR,M,M,M,M,M,M,M,M,M,M,M,M,M,M,78.80,KCXP 240415Z AUTO 28010KT 10SM CLR 26/06 A3008 RMK AO2,M
RTS,2024-06-24 04:15,-119.8764,39.6682,1539.00,73.40,33.80,23.39,250.00,8.00,0.00,30.11,M,10.00,M,CLR,M,M,M,M,M,M,M,M,M,M,M,M,M,M,73.40,KRTS 240415Z AUTO 25008KT 10SM CLR 23/01 A3011 RMK AO2,M
MEV,2024-06-24 04:15,-119.7500,38.9963,1441.42,71.60,44.60,37.89,210.00,4.00,0.00,30.07,M,10.00,M,CLR,M,M,M,M,M,M,M,M,M,M,M,M,M,M,71.60,KMEV 240415Z AUTO 21004KT 10SM CLR 22/07 A3007 RMK AO2,M
HTH,2024-06-24 04:15,-118.6315,38.5448,1282.89,89.60,19.40,7.61,240.00,22.00,0.00,29.94,M,10.00,28.00,CLR,M,M,M,M,M,M,M,M,M,M,M,M,M,M,84.54,KHTH 240415Z AUTO 24022G28KT 10SM CLR 32/M07 A2994 RMK A01,M
10U,2024-06-24 04:15,-116.1876,41.9532,1637.00,68.00,26.60,20.98,240.00,6.00,0.00,30.02,M,10.00,M,CLR,M,M,M,M,M,M,M,M,M,M,M,M,M,M,68.00,K10U 240415Z AUTO 24006KT 10SM CLR 20/M03 A3002 RMK AO2,M
BAM,2024-06-24 04:15,-116.8743,40.5990,1382.36,77.00,30.20,17.94,230.00,6.00,0.00,29.98,M,10.00,M,CLR,M,M,M,M,M,M,M,M,M,M,M,M,M,M,77.00,KBAM 240415Z AUTO 23006KT 10SM CLR 25/M01 A2998 RMK AO1,M
TMT,2024-06-24 04:15,-117.1971,39.4643,1749.34,68.00,30.20,24.32,140.00,3.00,0.00,30.10,M,10.00,M,CLR,M,M,M,M,M,M,M,M,M,M,M,M,M,M,68.00,KTMT 240415Z AUTO 14003KT 10SM CLR 20/M01 A3010 RMK AO2 T02011010,M
BVU,2024-06-24 04:35,-114.8611,35.9475,671.00,98.60,41.00,13.87,0.00,0.00,0.00,29.79,M,10.00,M,CLR,M,M,M,M,M,M,M,M,M,M,M,M,M,M,94.09,KBVU 240435Z AUTO 00000KT 10SM CLR 37/05 A2979 RMK AO2,M
CXP,2024-06-24 04:35,-119.7326,39.1923,1431.00,77.00,41.00,27.53,280.00,11.00,0.00,30.08,M,10.00,M,CLR,M,M,M,M,M,M,M,M,M,M,M,M,M,M,77.00,KCXP 240435Z AUTO 28011KT 10SM CLR 25/05 A3008 RMK AO2,M
RTS,2024-06-24 04:35,-119.8764,39.6682,1539.00,71.60,33.80,24.86,250.00,8.00,0.00,30.12,M,10.00,M,CLR,M,M,M,M,M,M,M,M,M,M,M,M,M,M,71.60,KRTS 240435Z AUTO 25008KT 10SM CLR 22/01 A3012 RMK AO2,M
MEV,2024-06-24 04:35,-119.7500,38.9963,1441.42,71.60,42.80,35.37,0.00,0.00,0.00,30.08,M,10.00,M,CLR,M,M,M,M,M,M,M,M,M,M,M,M,M,M,71.60,KMEV 240435Z AUTO 00000KT 10SM CLR 22/06 A3008 RMK AO2,M
HTH,2024-06-24 04:35,-118.6315,38.5448,1282.89,87.80,19.40,8.06,250.00,16.00,0.00,29.97,M,10.00,23.00,CLR,M,M,M,M,M,M,M,M,M,M,M,M,M,M,83.23,KHTH 240435Z AUTO 25016G23KT 10SM CLR 31/M07 A2997 RMK A01,M
10U,2024-06-24 04:35,-116.1876,41.9532,1637.00,62.60,26.60,25.32,180.00,5.00,0.00,30.02,M,10.00,M,CLR,M,M,M,M,M,M,M,M,M,M,M,M,M,M,62.60,K10U 240435Z AUTO 18005KT 10SM CLR 17/M03 A3002 RMK AO2,M
BAM,2024-06-24 04:35,-116.8743,40.5990,1382.36,77.00,30.20,17.94,230.00,4.00,0.00,29.99,M,10.00,M,CLR,M,M,M,M,M,M,M,M,M,M,M,M,M,M,77.00,KBAM 240435Z AUTO 23004KT 10SM CLR 25/M01 A2999 RMK AO1,M
TMT,2024-06-24 04:35,-117.1971,39.4643,1749.34,64.20,30.20,27.74,160.00,4.00,0.00,30.11,M,10.00,M,CLR,M,M,M,M,M,M,M,M,M,M,M,M,M,M,64.20,KTMT 240435Z AUTO 16004KT 10SM CLR 18/M01 A3011 RMK AO2 T01791010,M
P68,2024-06-24 04:53,-116.0056,39.6014,1993.00,70.00,25.00,18.33,220.00,4.00,0.00,30.10,1009.40,M,M,M,M,M,M,M,M,M,M,M,M,M,M,M,M,M,70.00,KP68 240453Z AUTO 22004KT 21/M04 A3010 RMK AO1 SLP094 T02111039,M
DRA,2024-06-24 04:53,-116.0278,36.6206,1009.00,93.00,43.00,17.80,190.00,9.00,0.00,29.88,1005.50,10.00,M,CLR,M,M,M,M,M,M,M,M,M,M,M,M,M,M,89.00,KDRA 240453Z AUTO 19009KT 10SM CLR 34/06 A2988 RMK AO2 SLP055 T03390061,M
ELY,2024-06-24 04:53,-114.8453,39.2950,1909.00,66.00,26.00,21.93,180.00,10.00,0.00,30.11,1007.80,10.00,M,CLR,M,M,M,M,M,M,M,M,M,M,M,M,M,M,66.00,KELY 240453Z AUTO 18010KT 10SM CLR 19/M03 A3011 RMK AO2 SLP078 T01891033,M
VGT,2024-06-24 04:53,-115.1933,36.2111,667.00,101.00,47.00,16.22,200.00,5.00,0.00,29.79,1006.70,10.00,M,CLR,M,M,M,M,M,M,M,M,M,M,M,M,M,M,97.35,KVGT 240453Z AUTO 20005KT 10SM CLR 38/08 A2979 RMK AO2 SLP067 T03830083,M
LOL,2024-06-24 04:53,-118.5701,40.0684,1192.43,81.00,31.00,16.25,290.00,8.00,0.00,29.98,1010.20,10.00,M,CLR,M,M,M,M,M,M,M,M,M,M,M,M,M,M,79.04,KLOL 240453Z AUTO 29008KT 10SM CLR 27/M01 A2998 RMK AO2 SLP102 T02721006,M
BVU,2024-06-24 04:55,-114.8611,35.9475,671.00,95.00,46.40,19.04,0.00,0.00,0.00,29.79,M,10.00,M,CLR,M,M,M,M,M,M,M,M,M,M,M,M,M,M,91.29,KBVU 240455Z AUTO 00000KT 10SM CLR 35/08 A2979 RMK AO2,M
CXP,2024-06-24 04:55,-119.7326,39.1923,1431.00,77.00,41.00,27.53,280.00,8.00,0.00,30.09,M,10.00,14.00,CLR,M,M,M,M,M,M,M,M,M,M,M,M,M,M,77.00,KCXP 240455Z AUTO 28008G14KT 10SM CLR 25/05 A3009 RMK AO2,M
RNO,2024-06-24 04:55,-119.7711,39.4839,1341.00,80.00,45.00,29.08,280.00,13.00,0.00,30.06,1011.40,10.00,M,CLR,M,M,M,M,M,M,M,M,M,M,M,M,M,M,79.13,KRNO 240455Z 28013KT 10SM CLR 27/07 A3006 RMK AO2 SLP114 T02670072,M
RTS,2024-06-24 04:55,-119.8764,39.6682,1539.00,69.80,33.80,26.43,260.00,6.00,0.00,30.13,M,10.00,M,CLR,M,M,M,M,M,M,M,M,M,M,M,M,M,M,69.80,KRTS 240455Z AUTO 26006KT 10SM CLR 21/01 A3013 RMK AO2,M
MEV,2024-06-24 04:55,-119.7500,38.9963,1441.42,69.80,42.80,37.61,0.00,0.00,0.00,30.08,M,10.00,M,CLR,M,M,M,M,M,M,M,M,M,M,M,M,M,M,69.80,KMEV 240455Z AUTO 00000KT 10SM CLR 21/06 A3008 RMK AO2,M
HTH,2024-06-24 04:55,-118.6315,38.5448,1282.89,87.80,19.40,8.06,270.00,12.00,0.00,29.98,M,10.00,23.00,CLR,M,M,M,M,M,M,M,M,M,M,M,M,M,M,83.23,KHTH 240455Z AUTO 27012G23KT 10SM CLR 31/M07 A2998 RMK A01,M
10U,2024-06-24 04:55,-116.1876,41.9532,1637.00,60.80,28.40,29.06,150.00,6.00,0.00,30.03,M,10.00,M,CLR,M,M,M,M,M,M,M,M,M,M,M,M,M,M,60.80,K10U 240455Z AUTO 15006KT 10SM CLR 16/M02 A3003 RMK AO2,M
BAM,2024-06-24 04:55,-116.8743,40.5990,1382.36,73.40,33.80,23.39,20.00,4.00,0.00,29.99,M,10.00,M,CLR,M,M,M,M,M,M,M,M,M,M,M,M,M,M,73.40,KBAM 240455Z AUTO 02004KT 10SM CLR 23/01 A2999 RMK AO1,M
TMT,2024-06-24 04:55,-117.1971,39.4643,1749.34,62.20,26.60,25.68,210.00,6.00,0.00,30.12,M,10.00,M,CLR,M,M,M,M,M,M,M,M,M,M,M,M,M,M,62.20,KTMT 240455Z AUTO 21006KT 10SM CLR 17/M03 A3012 RMK AO2 T01681030,M
INS,2024-06-24 04:55,-115.6733,36.5872,955.00,M,M,M,230.00,8.00,0.00,M,M,10.00,M,M,M,M,M,M,M,M,M,M,M,M,M,M,M,M,M,KINS 240455Z AUTO 23008KT 10SM M M M RMK AO2 SLPNO RVRNO TSNO $,M
LSV,2024-06-24 04:55,-115.0343,36.2362,570.00,101.00,41.00,12.90,190.00,6.00,0.00,29.73,1003.50,10.00,M,CLR,M,M,M,M,M,M,M,M,M,M,M,M,M,M,96.34,KLSV 240455Z AUTO 19006KT 10SM CLR 38/05 A2973 RMK AO2 SLP035 T03830050 $,M
EKO,2024-06-24 04:56,-115.7860,40.8242,1367.00,74.00,33.00,22.20,0.00,0.00,0.00,30.01,1009.40,10.00,M,CLR,M,M,M,M,M,M,M,M,M,M,M,M,M,M,74.00,KEKO 240456Z AUTO 00000KT 10SM CLR 23/01 A3001 RMK AO2 SLP094 T02330006,M
WMC,2024-06-24 04:56,-117.8072,40.9019,1315.00,79.00,30.00,16.66,270.00,11.00,0.00,29.98,1009.30,10.00,M,CLR,M,M,M,M,M,M,M,M,M,M,M,M,M,M,79.00,KWMC 240456Z AUTO 27011KT 10SM CLR 26/M01 A2998 RMK AO2 SLP093 T02611011,M
NFL,2024-06-24 04:56,-118.7010,39.4166,1199.00,82.00,38.00,20.79,300.00,5.00,0.00,29.99,1012.70,10.00,M,CLR,M,M,M,M,M,M,M,M,M,M,M,M,M,M,79.90,KNFL 240456Z 30005KT 10SM CLR 28/03 A2999 RMK AO2 SLP127 T02780033,M
HND,2024-06-24 04:56,-115.1344,35.9729,742.79,98.00,46.00,17.11,210.00,7.00,0.00,29.85,1008.20,10.00,M,CLR,M,M,M,M,M,M,M,M,M,M,M,M,M,M,94.18,KHND 240456Z AUTO 21007KT 10SM CLR 37/08 A2985 RMK AO2 SLP082 T03670078,M
TPH,2024-06-24 04:56,-117.0904,38.0505,1654.00,83.00,24.00,11.41,300.00,16.00,0.00,30.06,1008.30,10.00,M,CLR,M,M,M,M,M,M,M,M,M,M,M,M,M,M,80.13,KTPH 240456Z AUTO 30016KT 10SM CLR 28/M04 A3006 RMK AO2 SLP083 T02831044,M
LAS,2024-06-24 04:56,-115.1634,36.0719,663.00,102.00,45.00,14.60,210.00,5.00,0.00,29.80,1005.40,10.00,M,FEW,FEW,M,M,10000.00,25000.00,M,M,M,M,M,M,M,M,M,97.95,KLAS 240456Z 21005KT 10SM FEW100 FEW250 39/07 A2980 RMK AO2 SLP054 T03890072 $,M
BVU,2024-06-24 05:15,-114.8611,35.9475,671.00,95.00,48.20,20.38,100.00,4.00,0.00,29.80,M,10.00,M,CLR,M,M,M,M,M,M,M,M,M,M,M,M,M,M,91.56,KBVU 240515Z AUTO 10004KT 10SM CLR 35/09 A2980 RMK AO2,M
CXP,2024-06-24 05:15,-119.7326,39.1923,1431.00,77.00,41.00,27.53,280.00,7.00,0.00,30.10,M,10.00,M,CLR,M,M,M,M,M,M,M,M,M,M,M,M,M,M,77.00,KCXP 240515Z AUTO 28007KT 10SM CLR 25/05 A3010 RMK AO2,M
RTS,2024-06-24 05:15,-119.8764,39.6682,1539.00,68.00,35.60,30.20,250.00,6.00,0.00,30.13,M,10.00,M,CLR,M,M,M,M,M,M,M,M,M,M,M,M,M,M,68.00,KRTS 240515Z AUTO 25006KT 10SM CLR 20/02 A3013 RMK AO2,M
MEV,2024-06-24 05:15,-119.7500,38.9963,1441.42,62.60,46.40,55.37,0.00,0.00,0.00,30.09,M,10.00,M,CLR,M,M,M,M,M,M,M,M,M,M,M,M,M,M,62.60,KMEV 240515Z AUTO 00000KT 10SM CLR 17/08 A3009 RMK AO2,M
HTH,2024-06-24 05:15,-118.6315,38.5448,1282.89,87.80,19.40,8.06,260.00,14.00,0.00,29.99,M,10.00,21.00,CLR,M,M,M,M,M,M,M,M,M,M,M,M,M,M,83.23,KHTH 240515Z AUTO 26014G21KT 10SM CLR 31/M07 A2999 RMK A01,M
10U,2024-06-24 05:15,-116.1876,41.9532,1637.00,62.60,30.20,29.35,140.00,7.00,0.00,30.03,M,10.00,M,CLR,M,M,M,M,M,M,M,M,M,M,M,M,M,M,62.60,K10U 240515Z AUTO 14007KT 10SM CLR 17/M01 A3003 RMK AO2,M
BAM,2024-06-24 05:15,-116.8743,40.5990,1382.36,78.80,33.80,19.55,360.00,6.00,0.00,30.00,M,10.00,M,CLR,M,M,M,M,M,M,M,M,M,M,M,M,M,M,78.80,KBAM 240515Z AUTO 36006KT 10SM CLR 26/01 A3000 RMK AO1,M
TMT,2024-06-24 05:15,-117.1971,39.4643,1749.34,63.00,28.00,26.45,200.00,7.00,0.00,30.13,M,10.00,M,CLR,M,M,M,M,M,M,M,M,M,M,M,M,M,M,63.00,KTMT 240515Z AUTO 20007KT 10SM CLR 17/M02 A3013 RMK AO2 T01721023,M
BVU,2024-06-24 05:35,-114.8611,35.9475,671.00,91.40,51.80,26.05,20.00,4.00,0.00,29.81,M,10.00,M,CLR,M,M,M,M,M,M,M,M,M,M,M,M,M,M,88.69,KBVU 240535Z AUTO 02004KT 10SM CLR 33/11 A2981 RMK AO2,M
CXP,2024-06-24 05:35,-119.7326,39.1923,1431.00,73.40,41.00,31.05,0.00,0.00,0.00,30.10,M,10.00,M,CLR,M,M,M,M,M,M,M,M,M,M,M,M,M,M,73.40,KCXP 240535Z AUTO 00000KT 10SM CLR 23/05 A3010 RMK AO2,M
RTS,2024-06-24 05:35,-119.8764,39.6682,1539.00,69.80,35.60,28.39,250.00,7.00,0.00,30.14,M,10.00,M,CLR,M,M,M,M,M,M,M,M,M,M,M,M,M,M,69.80,KRTS 240535Z AUTO 25007KT 10SM CLR 21/02 A3014 RMK AO2,M
MEV,2024-06-24 05:35,-119.7500,38.9963,1441.42,62.60,46.40,55.37,90.00,5.00,0.00,30.09,M,10.00,M,CLR,M,M,M,M,M,M,M,M,M,M,M,M,M,M,62.60,KMEV 240535Z AUTO 09005KT 10SM CLR 17/08 A3009 RMK AO2,M
HTH,2024-06-24 05:35,-118.6315,38.5448,1282.89,87.80,19.40,8.06,240.00,11.00,0.00,29.99,M,10.00,20.00,CLR,M,M,M,M,M,M,M,M,M,M,M,M,M,M,83.23,KHTH 240535Z AUTO 24011G20KT 10SM CLR 31/M07 A2999 RMK A01,M
10U,2024-06-24 05:35,-116.1876,41.9532,1637.00,60.80,30.20,31.28,150.00,5.00,0.00,30.04,M,10.00,M,CLR,M,M,M,M,M,M,M,M,M,M,M,M,M,M,60.80,K10U 240535Z AUTO 15005KT 10SM CLR 16/M01 A3004 RMK AO2,M
BAM,2024-06-24 05:35,-116.8743,40.5990,1382.36,69.80,32.00,24.59,160.00,3.00,0.00,30.00,M,10.00,M,CLR,M,M,M,M,M,M,M,M,M,M,M,M,M,M,69.80,KBAM 240535Z AUTO 16003KT 10SM CLR 21/00 A3000 RMK AO1,M
TMT,2024-06-24 05:35,-117.1971,39.4643,1749.34,64.00,31.30,29.21,220.00,5.00,0.00,30.14,M,10.00,M,CLR,M,M,M,M,M,M,M,M,M,M,M,M,M,M,64.00,KTMT 240535Z AUTO 22005KT 10SM CLR 18/00 A3014 RMK AO2 T01771004,M
P68,2024-06-24 05:53,-116.0056,39.6014,1993.00,68.00,24.00,18.83,180.00,5.00,0.00,30.11,1009.80,M,M,M,M,M,M,M,M,M,M,M,M,M,M,M,M,M,68.00,KP68 240553Z AUTO 18005KT 20/M04 A3011 RMK AO1 SLP098 T02001044 10350 20189 51020,M
DRA,2024-06-24 05:53,-116.0278,36.6206,1009.00,91.00,46.00,21.24,230.00,5.00,0.00,29.90,1006.10,10.00,M,CLR,M,M,M,M,M,M,M,M,M,M,M,M,M,M,87.45,KDRA 240553Z AUTO 23005KT 10SM CLR 33/08 A2990 RMK AO2 SLP061 T03280078 10400 20328 53013,M
ELY,2024-06-24 05:53,-114.8453,39.2950,1909.00,68.00,22.00,17.31,190.00,6.00,0.00,30.12,1007.90,10.00,M,CLR,M,M,M,M,M,M,M,M,M,M,M,M,M,M,68.00,KELY 240553Z AUTO 19006KT 10SM CLR 20/M06 A3012 RMK AO2 SLP079 T02001056 10333 20183 53013,M
VGT,2024-06-24 05:53,-115.1933,36.2111,667.00,100.00,47.00,16.72,220.00,8.00,0.00,29.80,1007.10,10.00,M,CLR,M,M,M,M,M,M,M,M,M,M,M,M,M,M,96.35,KVGT 240553Z AUTO 22008KT 10SM CLR 38/08 A2980 RMK AO2 SLP071 T03780083 10439 20378 51014,M
LOL,2024-06-24 05:53,-118.5701,40.0684,1192.43,72.00,30.00,21.04,50.00,3.00,0.00,30.00,1011.30,10.00,M,CLR,M,M,M,M,M,M,M,M,M,M,M,M,M,M,72.00,KLOL 240553Z AUTO 05003KT 10SM CLR 22/M01 A3000 RMK AO2 SLP113 T02221011 10361 20222 53025,M
CXP,2024-06-24 05:55,-119.7326,39.1923,1431.00,73.40,41.00,31.05,M,3.00,0.00,30.10,M,10.00,M,CLR,M,M,M,M,M,M,M,M,M,M,M,M,M,M,73.40,KCXP 240555Z AUTO VRB03KT 10SM CLR 23/05 A3010 RMK AO2,M
RNO,2024-06-24 05:55,-119.7711,39.4839,1341.00,78.00,45.00,31.06,310.00,5.00,0.00,30.07,1011.70,10.00,17.00,CLR,M,M,M,M,M,M,M,M,M,M,M,M,M,M,78.00,KRNO 240555Z 31005G17KT 10SM CLR 26/07 A3007 RMK AO2 SLP117 T02560072 10344 20256 51018,M
RTS,2024-06-24 05:55,-119.8764,39.6682,1539.00,68.00,35.60,30.20,260.00,7.00,0.00,30.14,M,10.00,M,CLR,M,M,M,M,M,M,M,M,M,M,M,M,M,M,68.00,KRTS 240555Z AUTO 26007KT 10SM CLR 20/02 A3014 RMK AO2,M
MEV,2024-06-24 05:55,-119.7500,38.9963,1441.42,62.60,46.40,55.37,60.00,5.00,0.00,30.09,M,10.00,M,FEW,FEW,M,M,4100.00,5000.00,M,M,M,M,M,M,M,M,M,62.60,KMEV 240555Z AUTO 06005KT 10SM FEW041 FEW050 17/08 A3009 RMK AO2,M
HTH,2024-06-24 05:55,-118.6315,38.5448,1282.89,86.00,21.20,9.21,250.00,9.00,0.00,30.00,M,10.00,16.00,CLR,M,M,M,M,M,M,M,M,M,M,M,M,M,M,82.04,KHTH 240555Z AUTO 25009G16KT 10SM CLR 30/M06 A3000 RMK A01,M
BVU,2024-06-24 05:55,-114.8611,35.9475,671.00,95.00,44.60,17.78,0.00,0.00,0.00,29.81,M,10.00,M,CLR,M,M,M,M,M,M,M,M,M,M,M,M,M,M,91.06,KBVU 240555Z AUTO 00000KT 10SM CLR 35/07 A2981 RMK AO2,M
BAM,2024-06-24 05:55,-116.8743,40.5990,1382.36,77.00,33.80,20.74,0.00,0.00,0.00,30.01,M,10.00,M,CLR,M,M,M,M,M,M,M,M,M,M,M,M,M,M,77.00,KBAM 240555Z AUTO 00000KT 10SM CLR 25/01 A3001 RMK AO1,M
TMT,2024-06-24 05:55,-117.1971,39.4643,1749.34,57.70,28.40,32.46,180.00,4.00,0.00,30.14,M,10.00,M,CLR,M,M,M,M,M,M,M,M,M,M,M,M,M,M,57.70,KTMT 240555Z AUTO 18004KT 10SM CLR 14/M02 A3014 RMK AO2 T01431020 10334 20143,M
10U,2024-06-24 05:55,-116.1876,41.9532,1637.00,62.60,28.40,27.27,170.00,4.00,0.00,30.04,M,10.00,M,CLR,M,M,M,M,M,M,M,M,M,M,M,M,M,M,62.60,K10U 240555Z AUTO 17004KT 10SM CLR 17/M02 A3004 RMK AO2,M
INS,2024-06-24 05:55,-115.6733,36.5872,955.00,89.60,42.80,19.64,30.00,4.00,0.00,29.96,M,10.00,M,CLR,M,M,M,M,M,M,M,M,M,M,M,M,M,M,85.93,KINS 240555Z 03004KT 10SM CLR 32/06 A2996 RMK AO2A SLPNO RVRNO TSNO $,M
LSV,2024-06-24 05:55,-115.0343,36.2362,570.00,99.50,41.70,13.87,180.00,7.00,0.00,29.74,1003.80,10.00,M,CLR,M,M,M,M,M,M,M,M,M,M,M,M,M,M,95.03,KLSV 240555Z AUTO 18007KT 10SM CLR 38/05 A2974 RMK AO2 SLP038 T03750054 10435 20374 52014 $,M
EKO,2024-06-24 05:56,-115.7860,40.8242,1367.00,65.00,35.00,32.72,240.00,6.00,0.00,30.03,1010.50,10.00,M,CLR,M,M,M,M,M,M,M,M,M,M,M,M,M,M,65.00,KEKO 240556Z AUTO 24006KT 10SM CLR 18/02 A3003 RMK AO2 SLP105 T01830017 10356 20183 51018,M
WMC,2024-06-24 05:56,-117.8072,40.9019,1315.00,77.00,31.00,18.53,270.00,12.00,0.00,30.00,1009.60,10.00,M,CLR,M,M,M,M,M,M,M,M,M,M,M,M,M,M,77.00,KWMC 240556Z AUTO 27012KT 10SM CLR 25/M01 A3000 RMK AO2 SLP096 T02501006 10367 20250 51017,M
NFL,2024-06-24 05:56,-118.7010,39.4166,1199.00,74.00,37.00,26.03,0.00,0.00,0.00,30.01,1013.30,10.00,M,CLR,M,M,M,M,M,M,M,M,M,M,M,M,M,M,74.00,KNFL 240556Z 00000KT 10SM CLR 23/03 A3001 RMK AO2 SLP133 T02330028 10372 20233 51024,M
HND,2024-06-24 05:56,-115.1344,35.9729,742.79,96.00,46.00,18.19,220.00,7.00,0.00,29.86,1008.90,10.00,M,CLR,M,M,M,M,M,M,M,M,M,M,M,M,M,M,92.21,KHND 240556Z AUTO 22007KT 10SM CLR 36/08 A2986 RMK AO2 SLP089 T03560078 10422 20350 53015,M
TPH,2024-06-24 05:56,-117.0904,38.0505,1654.00,80.00,29.00,15.48,290.00,14.00,0.00,30.08,1008.80,10.00,26.00,CLR,M,M,M,M,M,M,M,M,M,M,M,29.00,310.00,2024-06-24 05:10,78.43,KTPH 240556Z AUTO 29014G26KT 10SM CLR 27/M02 A3008 RMK AO2 PK WND 31029/0510 SLP088 T02671017 10361 20261 51016,M
LAS,2024-06-24 05:56,-115.1634,36.0719,663.00,101.00,45.00,15.04,210.00,7.00,0.00,29.82,1006.00,10.00,M,FEW,M,M,M,12000.00,M,M,M,M,M,M,M,M,M,M,96.97,KLAS 240556Z 21007KT 10SM FEW120 38/07 A2982 RMK AO2 SLP060 T03830072 10433 20378 53013 $,M
BVU,2024-06-24 06:15,-114.8611,35.9475,671.00,91.40,51.80,26.05,0.00,0.00,0.00,29.81,M,10.00,M,CLR,M,M,M,M,M,M,M,M,M,M,M,M,M,M,88.69,KBVU 240615Z AUTO 00000KT 10SM CLR 33/11 A2981 RMK AO2,M
CXP,2024-06-24 06:15,-119.7326,39.1923,1431.00,73.40,41.00,31.05,M,5.00,0.00,30.10,M,10.00,M,CLR,M,M,M,M,M,M,M,M,M,M,M,M,M,M,73.40,KCXP 240615Z AUTO VRB05KT 10SM CLR 23/05 A3010 RMK AO2,M
RTS,2024-06-24 06:15,-119.8764,39.6682,1539.00,66.20,35.60,32.14,240.00,5.00,0.00,30.14,M,10.00,M,CLR,M,M,M,M,M,M,M,M,M,M,M,M,M,M,66.20,KRTS 240615Z AUTO 24005KT 10SM CLR 19/02 A3014 RMK AO2,M
MEV,2024-06-24 06:15,-119.7500,38.9963,1441.42,64.40,44.60,48.55,100.00,4.00,0.00,30.09,M,10.00,M,FEW,FEW,M,M,4200.00,5000.00,M,M,M,M,M,M,M,M,M,64.40,KMEV 240615Z AUTO 10004KT 10SM FEW042 FEW050 18/07 A3009 RMK AO2,M
BAM,2024-06-24 06:15,-116.8743,40.5990,1382.36,68.00,30.20,24.32,160.00,6.00,0.00,30.02,M,10.00,M,CLR,M,M,M,M,M,M,M,M,M,M,M,M,M,M,68.00,KBAM 240615Z AUTO 16006KT 10SM CLR 20/M01 A3002 RMK AO1,M
HTH,2024-06-24 06:15,-118.6315,38.5448,1282.89,84.20,24.80,11.35,260.00,10.00,0.00,30.01,M,10.00,M,CLR,M,M,M,M,M,M,M,M,M,M,M,M,M,M,81.00,KHTH 240615Z AUTO 26010KT 10SM CLR 29/M04 A3001 RMK A01,M
10U,2024-06-24 06:15,-116.1876,41.9532,1637.00,62.60,28.40,27.27,210.00,8.00,0.00,30.05,M,10.00,M,CLR,M,M,M,M,M,M,M,M,M,M,M,M,M,M,62.60,K10U 240615Z AUTO 21008KT 10SM CLR 17/M02 A3005 RMK AO2,M
TMT,2024-06-24 06:15,-117.1971,39.4643,1749.34,56.70,28.40,33.66,0.00,0.00,0.00,30.15,M,10.00,M,CLR,M,M,M,M,M,M,M,M,M,M,M,M,M,M,56.70,KTMT 240615Z AUTO 00000KT 10SM CLR 14/M02 A3015 RMK AO2 T01371020,M
BVU,2024-06-24 06:35,-114.8611,35.9475,671.00,91.40,51.80,26.05,60.00,4.00,0.00,29.81,M,10.00,M,CLR,M,M,M,M,M,M,M,M,M,M,M,M,M,M,88.69,KBVU 240635Z AUTO 06004KT 10SM CLR 33/11 A2981 RMK AO2,M
CXP,2024-06-24 06:35,-119.7326,39.1923,1431.00,73.40,39.20,28.96,0.00,0.00,0.00,30.11,M,10.00,M,CLR,M,M,M,M,M,M,M,M,M,M,M,M,M,M,73.40,KCXP 240635Z AUTO 00000KT 10SM CLR 23/04 A3011 RMK AO2,M
RTS,2024-06-24 06:35,-119.8764,39.6682,1539.00,66.20,37.40,34.51,250.00,5.00,0.00,30.14,M,10.00,M,CLR,M,M,M,M,M,M,M,M,M,M,M,M,M,M,66.20,KRTS 240635Z AUTO 25005KT 10SM CLR 19/03 A3014 RMK AO2,M
MEV,2024-06-24 06:35,-119.7500,38.9963,1441.42,64.40,44.60,48.55,80.00,7.00,0.00,30.09,M,10.00,M,FEW,FEW,FEW,M,3800.00,4600.00,5500.00,M,M,M,M,M,M,M,M,64.40,KMEV 240635Z AUTO 08007KT 10SM FEW038 FEW046 FEW055 18/07 A3009 RMK AO2,M
HTH,2024-06-24 06:35,-118.6315,38.5448,1282.89,84.20,21.20,9.76,280.00,15.00,0.00,30.01,M,10.00,M,CLR,M,M,M,M,M,M,M,M,M,M,M,M,M,M,80.77,KHTH 240635Z AUTO 28015KT 10SM CLR 29/M06 A3001 RMK A01,M
10U,2024-06-24 06:35,-116.1876,41.9532,1637.00,66.20,28.40,24.04,210.00,9.00,0.00,30.05,M,10.00,M,CLR,M,M,M,M,M,M,M,M,M,M,M,M,M,M,66.20,K10U 240635Z AUTO 21009KT 10SM CLR 19/M02 A3005 RMK AO2,M
BAM,2024-06-24 06:35,-116.8743,40.5990,1382.36,68.00,30.20,24.32,170.00,4.00,0.00,30.02,M,10.00,M,CLR,M,M,M,M,M,M,M,M,M,M,M,M,M,M,68.00,KBAM 240635Z AUTO 17004KT 10SM CLR 20/M01 A3002 RMK AO1,M
TMT,2024-06-24 06:35,-117.1971,39.4643,1749.34,58.30,28.80,32.30,0.00,0.00,0.00,30.15,M,10.00,M,CLR,M,M,M,M,M,M,M,M,M,M,M,M,M,M,58.30,KTMT 240635Z AUTO 00000KT 10SM CLR 15/M02 A3015 RMK AO2 T01461018,M
DRA,2024-06-24 06:53,-116.0278,36.6206,1009.00,91.00,48.00,22.90,240.00,4.00,0.00,29.90,1006.20,10.00,M,CLR,M,M,M,M,M,M,M,M,M,M,M,M,M,M,87.69,KDRA 240653Z AUTO 24004KT 10SM CLR 33/09 A2990 RMK AO2 SLP062 T03280089,M
ELY,2024-06-24 06:53,-114.8453,39.2950,1909.00,63.00,23.00,21.49,150.00,8.00,0.00,30.13,1008.70,10.00,M,CLR,M,M,M,M,M,M,M,M,M,M,M,M,M,M,63.00,KELY 240653Z AUTO 15008KT 10SM CLR 17/M05 A3013 RMK AO2 SLP087 T01721050,M
VGT,2024-06-24 06:53,-115.1933,36.2111,667.00,100.00,52.00,20.15,240.00,7.00,0.00,29.80,1007.10,10.00,M,CLR,M,M,M,M,M,M,M,M,M,M,M,M,M,M,97.53,KVGT 240653Z AUTO 24007KT 10SM CLR 38/11 A2980 RMK AO2 SLP071 T03780111,M
LOL,2024-06-24 06:53,-118.5701,40.0684,1192.43,72.00,30.00,21.04,290.00,4.00,0.00,30.02,1011.70,10.00,M,CLR,M,M,M,M,M,M,M,M,M,M,M,M,M,M,72.00,KLOL 240653Z AUTO 29004KT 10SM CLR 22/M01 A3002 RMK AO2 SLP117 T02221011,M
BVU,2024-06-24 06:55,-114.8611,35.9475,671.00,91.40,50.00,24.37,70.00,6.00,0.00,29.82,M,10.00,M,CLR,M,M,M,M,M,M,M,M,M,M,M,M,M,M,88.36,KBVU 240655Z AUTO 07006KT 10SM CLR 33/10 A2982 RMK AO2,M
CXP,2024-06-24 06:55,-119.7326,39.1923,1431.00,71.60,41.00,33.00,230.00,4.00,0.00,30.11,M,10.00,M,CLR,M,M,M,M,M,M,M,M,M,M,M,M,M,M,71.60,KCXP 240655Z AUTO 23004KT 10SM CLR 22/05 A3011 RMK AO2,M
RNO,2024-06-24 06:55,-119.7711,39.4839,1341.00,77.00,43.00,29.74,300.00,5.00,0.00,30.08,1011.70,10.00,M,CLR,M,M,M,M,M,M,M,M,M,M,M,M,M,M,77.00,KRNO 240655Z 30005KT 10SM CLR 25/06 A3008 RMK AO2 SLP117 T02500061,M
LSV,2024-06-24 06:55,-115.0343,36.2362,570.00,100.00,42.00,13.82,180.00,9.00,0.00,29.75,1004.10,10.00,M,CLR,M,M,M,M,M,M,M,M,M,M,M,M,M,M,95.54,KLSV 240655Z AUTO 18009KT 10SM CLR 38/06 A2975 RMK AO2 SLP041 T03770056 $,M
RTS,2024-06-24 06:55,-119.8764,39.6682,1539.00,62.60,35.60,36.45,0.00,0.00,0.00,30.14,M,10.00,M,CLR,M,M,M,M,M,M,M,M,M,M,M,M,M,M,62.60,KRTS 240655Z AUTO 00000KT 10SM CLR 17/02 A3014 RMK AO2,M
MEV,2024-06-24 06:55,-119.7500,38.9963,1441.42,62.60,44.60,51.72,60.00,8.00,0.00,30.09,M,10.00,M,FEW,FEW,M,M,3800.00,4600.00,M,M,M,M,M,M,M,M,M,62.60,KMEV 240655Z AUTO 06008KT 10SM FEW038 FEW046 17/07 A3009 RMK AO2,M
HTH,2024-06-24 06:55,-118.6315,38.5448,1282.89,84.20,23.00,10.53,290.00,10.00,0.00,30.02,M,10.00,15.00,CLR,M,M,M,M,M,M,M,M,M,M,M,M,M,M,80.88,KHTH 240655Z AUTO 29010G15KT 10SM CLR 29/M05 A3002 RMK A01,M
10U,2024-06-24 06:55,-116.1876,41.9532,1637.00,64.40,28.40,25.60,200.00,5.00,0.00,30.05,M,10.00,M,CLR,M,M,M,M,M,M,M,M,M,M,M,M,M,M,64.40,K10U 240655Z AUTO 20005KT 10SM CLR 18/M02 A3005 RMK AO2,M
BAM,2024-06-24 06:55,-116.8743,40.5990,1382.36,64.40,28.40,25.60,130.00,7.00,0.00,30.03,M,10.00,M,CLR,M,M,M,M,M,M,M,M,M,M,M,M,M,M,64.40,KBAM 240655Z AUTO 13007KT 10SM CLR 18/M02 A3003 RMK AO1,M
TMT,2024-06-24 06:55,-117.1971,39.4643,1749.34,58.00,36.30,44.14,220.00,5.00,0.00,30.16,M,10.00,M,CLR,M,M,M,M,M,M,M,M,M,M,M,M,M,M,58.00,KTMT 240655Z AUTO 22005KT 10SM CLR 15/02 A3016 RMK AO2 T01450024,M
INS,2024-06-24 06:55,-115.6733,36.5872,955.00,89.60,48.20,24.11,180.00,5.00,0.00,29.90,M,10.00,M,CLR,M,M,M,M,M,M,M,M,M,M,M,M,M,M,86.44,KINS 240655Z COR 18005KT 10SM CLR 32/09 A2990 RMK AO2A SLPNO RVRNO TSNO $ COR 0732,M
EKO,2024-06-24 06:56,-115.7860,40.8242,1367.00,66.00,33.00,29.18,M,3.00,0.00,30.04,1010.60,10.00,M,CLR,M,M,M,M,M,M,M,M,M,M,M,M,M,M,66.00,KEKO 240656Z AUTO VRB03KT 10SM CLR 19/01 A3004 RMK AO2 SLP106 T01890006,M
WMC,2024-06-24 06:56,-117.8072,40.9019,1315.00,79.00,32.00,18.06,260.00,13.00,0.00,30.01,1009.70,10.00,M,CLR,M,M,M,M,M,M,M,M,M,M,M,M,M,M,79.00,KWMC 240656Z AUTO 26013KT 10SM CLR 26/00 A3001 RMK AO2 SLP097 T02610000,M
NFL,2024-06-24 06:56,-118.7010,39.4166,1199.00,76.00,38.00,25.32,320.00,3.00,0.00,30.03,1013.70,10.00,M,CLR,M,M,M,M,M,M,M,M,M,M,M,M,M,M,76.00,KNFL 240656Z AUTO 32003KT 10SM CLR 24/03 A3003 RMK AO2 SLP137 T02440033,M
HND,2024-06-24 06:56,-115.1344,35.9729,742.79,94.00,51.00,23.33,210.00,8.00,0.00,29.87,1009.10,10.00,M,CLR,M,M,M,M,M,M,M,M,M,M,M,M,M,M,91.08,KHND 240656Z AUTO 21008KT 10SM CLR 34/11 A2987 RMK AO2 SLP091 T03440106 404280294,M
TPH,2024-06-24 06:56,-117.0904,38.0505,1654.00,79.00,30.00,16.66,300.00,13.00,0.00,30.09,1008.90,10.00,20.00,CLR,M,M,M,M,M,M,M,M,M,M,M,31.00,290.00,2024-06-24 05:58,79.00,KTPH 240656Z AUTO 30013G20KT 10SM CLR 26/M01 A3009 RMK AO2 PK WND 29031/0558 SLP089 T02611011,M
LAS,2024-06-24 06:56,-115.1634,36.0719,663.00,99.00,51.00,20.01,200.00,4.00,0.00,29.82,1006.30,10.00,M,FEW,M,M,M,12000.00,M,M,M,M,M,M,M,M,M,M,96.21,KLAS 240656Z 20004KT 10SM FEW120 37/11 A2982 RMK AO2 SLP063 T03720106 $,M
BVU,2024-06-24 07:15,-114.8611,35.9475,671.00,95.00,46.40,19.04,150.00,5.00,0.00,29.83,M,10.00,M,CLR,M,M,M,M,M,M,M,M,M,M,M,M,M,M,91.29,KBVU 240715Z AUTO 15005KT 10SM CLR 35/08 A2983 RMK AO2,M
CXP,2024-06-24 07:15,-119.7326,39.1923,1431.00,71.60,41.00,33.00,240.00,4.00,0.00,30.11,M,10.00,M,CLR,M,M,M,M,M,M,M,M,M,M,M,M,M,M,71.60,KCXP 240715Z AUTO 24004KT 10SM CLR 22/05 A3011 RMK AO2,M
RTS,2024-06-24 07:15,-119.8764,39.6682,1539.00,64.40,37.40,36.74,0.00,0.00,0.00,30.13,M,10.00,12.00,CLR,M,M,M,M,M,M,M,M,M,M,M,M,M,M,64.40,KRTS 240715Z AUTO 00000G12KT 10SM CLR 18/03 A3013 RMK AO2,M
MEV,2024-06-24 07:15,-119.7500,38.9963,1441.42,62.60,42.80,48.28,30.00,7.00,0.00,30.09,M,10.00,M,FEW,FEW,M,M,4600.00,5500.00,M,M,M,M,M,M,M,M,M,62.60,KMEV 240715Z AUTO 03007KT 10SM FEW046 FEW055 17/06 A3009 RMK AO2,M
HTH,2024-06-24 07:15,-118.6315,38.5448,1282.89,82.40,24.80,12.03,300.00,11.00,0.00,30.02,M,10.00,M,CLR,M,M,M,M,M,M,M,M,M,M,M,M,M,M,79.79,KHTH 240715Z AUTO 30011KT 10SM CLR 28/M04 A3002 RMK A01,M
10U,2024-06-24 07:15,-116.1876,41.9532,1637.00,59.00,30.20,33.35,170.00,4.00,0.00,30.06,M,10.00,M,CLR,M,M,M,M,M,M,M,M,M,M,M,M,M,M,59.00,K10U 240715Z AUTO 17004KT 10SM CLR 15/M01 A3006 RMK AO2,M
BAM,2024-06-24 07:15,-116.8743,40.5990,1382.36,64.40,28.40,25.60,150.00,6.00,0.00,30.03,M,10.00,M,CLR,M,M,M,M,M,M,M,M,M,M,M,M,M,M,64.40,KBAM 240715Z AUTO 15006KT 10SM CLR 18/M02 A3003 RMK AO1,M
TMT,2024-06-24 07:15,-117.1971,39.4643,1749.34,58.00,37.40,46.10,0.00,0.00,0.00,30.16,M,10.00,M,CLR,M,M,M,M,M,M,M,M,M,M,M,M,M,M,58.00,KTMT 240715Z AUTO 00000KT 10SM CLR 14/03 A3016 RMK AO2 T01440030,M
BVU,2024-06-24 07:35,-114.8611,35.9475,671.00,95.00,46.40,19.04,160.00,5.00,0.00,29.83,M,10.00,M,CLR,M,M,M,M,M,M,M,M,M,M,M,M,M,M,91.29,KBVU 240735Z AUTO 16005KT 10SM CLR 35/08 A2983 RMK AO2,M
CXP,2024-06-24 07:35,-119.7326,39.1923,1431.00,73.40,41.00,31.05,260.00,6.00,0.00,30.11,M,10.00,M,CLR,M,M,M,M,M,M,M,M,M,M,M,M,M,M,73.40,KCXP 240735Z AUTO 26006KT 10SM CLR 23/05 A3011 RMK AO2,M
RTS,2024-06-24 07:35,-119.8764,39.6682,1539.00,68.00,37.40,32.43,50.00,3.00,0.00,30.13,M,10.00,M,CLR,M,M,M,M,M,M,M,M,M,M,M,M,M,M,68.00,KRTS 240735Z AUTO 05003KT 10SM CLR 20/03 A3013 RMK AO2,M
MEV,2024-06-24 07:35,-119.7500,38.9963,1441.42,64.40,42.80,45.32,70.00,9.00,0.00,30.09,M,10.00,M,FEW,FEW,M,M,4600.00,5500.00,M,M,M,M,M,M,M,M,M,64.40,KMEV 240735Z AUTO 07009KT 10SM FEW046 FEW055 18/06 A3009 RMK AO2,M
HTH,2024-06-24 07:35,-118.6315,38.5448,1282.89,80.60,24.80,12.76,310.00,7.00,0.00,30.03,M,10.00,M,CLR,M,M,M,M,M,M,M,M,M,M,M,M,M,M,78.94,KHTH 240735Z AUTO 31007KT 10SM CLR 27/M04 A3003 RMK A01,M
10U,2024-06-24 07:35,-116.1876,41.9532,1637.00,57.20,30.20,35.57,0.00,0.00,0.00,30.06,M,10.00,M,CLR,M,M,M,M,M,M,M,M,M,M,M,M,M,M,57.20,K10U 240735Z AUTO 00000KT 10SM CLR 14/M01 A3006 RMK AO2,M
BAM,2024-06-24 07:35,-116.8743,40.5990,1382.36,66.20,30.20,25.88,170.00,6.00,0.00,30.03,M,10.00,M,CLR,M,M,M,M,M,M,M,M,M,M,M,M,M,M,66.20,KBAM 240735Z AUTO 17006KT 10SM CLR 19/M01 A3003 RMK AO1,M
TMT,2024-06-24 07:35,-117.1971,39.4643,1749.34,57.00,35.40,44.15,250.00,3.00,0.00,30.16,M,10.00,M,CLR,M,M,M,M,M,M,M,M,M,M,M,M,M,M,57.00,KTMT 240735Z AUTO 25003KT 10SM CLR 14/02 A3016 RMK AO2 T01390019,M
P68,2024-06-24 07:53,-116.0056,39.6014,1993.00,60.00,24.00,24.92,180.00,8.00,0.00,30.13,1010.80,M,M,M,M,M,M,M,M,M,M,M,M,M,M,M,M,M,60.00,KP68 240753Z AUTO 18008KT 16/M04 A3013 RMK AO1 SLP108 T01561044 403610111,M
DRA,2024-06-24 07:53,-116.0278,36.6206,1009.00,91.00,49.00,23.77,190.00,8.00,0.00,29.90,1006.00,10.00,M,CLR,M,M,M,M,M,M,M,M,M,M,M,M,M,M,87.83,KDRA 240753Z AUTO 19008KT 10SM CLR 33/09 A2990 RMK AO2 SLP060 T03280094 404060233,M
ELY,2024-06-24 07:53,-114.8453,39.2950,1909.00,61.00,25.00,25.07,180.00,5.00,0.00,30.14,1009.20,10.00,M,CLR,M,M,M,M,M,M,M,M,M,M,M,M,M,M,61.00,KELY 240753Z AUTO 18005KT 10SM CLR 16/M04 A3014 RMK AO2 SLP092 T01611039 403390094,M
VGT,2024-06-24 07:53,-115.1933,36.2111,667.00,99.00,52.00,20.77,230.00,9.00,0.00,29.81,1007.30,10.00,M,CLR,M,M,M,M,M,M,M,M,M,M,M,M,M,M,96.47,KVGT 240753Z AUTO 23009KT 10SM CLR 37/11 A2981 RMK AO2 SLP073 T03720111 404390294,M
LOL,2024-06-24 07:53,-118.5701,40.0684,1192.43,73.00,31.00,21.18,320.00,4.00,0.00,30.03,1011.80,10.00,M,CLR,M,M,M,M,M,M,M,M,M,M,M,M,M,M,73.00,KLOL 240753Z AUTO 32004KT 10SM CLR 23/M01 A3003 RMK AO2 SLP118 T02281006 403720117,M
BVU,2024-06-24 07:55,-114.8611,35.9475,671.00,95.00,46.40,19.04,190.00,5.00,0.00,29.83,M,10.00,M,CLR,M,M,M,M,M,M,M,M,M,M,M,M,M,M,91.29,KBVU 240755Z AUTO 19005KT 10SM CLR 35/08 A2983 RMK AO2,M
CXP,2024-06-24 07:55,-119.7326,39.1923,1431.00,73.40,39.20,28.96,270.00,9.00,0.00,30.11,M,10.00,M,CLR,M,M,M,M,M,M,M,M,M,M,M,M,M,M,73.40,KCXP 240755Z AUTO 27009KT 10SM CLR 23/04 A3011 RMK AO2,M
RNO,2024-06-24 07:55,-119.7711,39.4839,1341.00,73.00,44.00,35.32,0.00,0.00,0.00,30.08,1011.80,10.00,M,CLR,M,M,M,M,M,M,M,M,M,M,M,M,M,M,73.00,KRNO 240755Z 00000KT 10SM CLR 23/07 A3008 RMK AO2 SLP118 T02280067 403610172,M
RTS,2024-06-24 07:55,-119.8764,39.6682,1539.00,68.00,37.40,32.43,0.00,0.00,0.00,30.13,M,10.00,M,CLR,M,M,M,M,M,M,M,M,M,M,M,M,M,M,68.00,KRTS 240755Z AUTO 00000KT 10SM CLR 20/03 A3013 RMK AO2,M
MEV,2024-06-24 07:55,-119.7500,38.9963,1441.42,62.60,44.60,51.72,80.00,9.00,0.00,30.09,M,10.00,M,FEW,M,M,M,5000.00,M,M,M,M,M,M,M,M,M,M,62.60,KMEV 240755Z AUTO 08009KT 10SM FEW050 17/07 A3009 RMK AO2,M
BAM,2024-06-24 07:55,-116.8743,40.5990,1382.36,73.40,32.00,21.76,200.00,6.00,0.00,30.04,M,10.00,M,CLR,M,M,M,M,M,M,M,M,M,M,M,M,M,M,73.40,KBAM 240755Z AUTO 20006KT 10SM CLR 23/00 A3004 RMK AO1,M
HTH,2024-06-24 07:55,-118.6315,38.5448,1282.89,82.40,26.60,12.97,360.00,10.00,0.00,30.04,M,10.00,M,M,M,M,M,M,M,M,M,M,M,M,M,M,M,M,79.92,KHTH 240755Z AUTO 36010KT 10SM 28/M03 A3004 RMK A01,M
10U,2024-06-24 07:55,-116.1876,41.9532,1637.00,55.40,28.40,35.28,210.00,7.00,0.00,30.06,M,10.00,M,CLR,M,M,M,M,M,M,M,M,M,M,M,M,M,M,55.40,K10U 240755Z AUTO 21007KT 10SM CLR 13/M02 A3006 RMK AO2,M
TMT,2024-06-24 07:55,-117.1971,39.4643,1749.34,55.80,35.40,46.11,250.00,3.00,0.00,30.16,M,10.00,M,CLR,M,M,M,M,M,M,M,M,M,M,M,M,M,M,55.80,KTMT 240755Z AUTO 25003KT 10SM CLR 13/02 A3016 RMK AO2 T01320019 403430040,M
INS,2024-06-24 07:55,-115.6733,36.5872,955.00,84.20,50.00,30.62,0.00,0.00,0.00,29.90,M,10.00,M,CLR,M,M,M,M,M,M,M,M,M,M,M,M,M,M,82.24,KINS 240755Z 00000KT 10SM CLR 29/10 A2990 RMK AO2A SLPNO RVRNO TSNO $,M
LSV,2024-06-24 07:55,-115.0343,36.2362,570.00,98.60,47.70,17.91,190.00,10.00,0.00,29.76,1004.30,10.00,M,CLR,M,M,M,M,M,M,M,M,M,M,M,M,M,M,95.07,KLSV 240755Z AUTO 19010KT 10SM CLR 37/09 A2976 RMK AO2 SLP043 T03700087 404380311 $,M
EKO,2024-06-24 07:56,-115.7860,40.8242,1367.00,60.00,36.00,40.61,0.00,0.00,0.00,30.04,1011.00,10.00,M,CLR,M,M,M,M,M,M,M,M,M,M,M,M,M,M,60.00,KEKO 240756Z AUTO 00000KT 10SM CLR 16/02 A3004 RMK AO2 SLP110 T01560022 403610111,M
WMC,2024-06-24 07:56,-117.8072,40.9019,1315.00,73.00,32.00,22.06,280.00,11.00,0.00,30.02,1010.40,10.00,M,CLR,M,M,M,M,M,M,M,M,M,M,M,M,M,M,73.00,KWMC 240756Z AUTO 28011KT 10SM CLR 23/00 A3002 RMK AO2 SLP104 T02280000 403720117,M
HND,2024-06-24 07:56,-115.1344,35.9729,742.79,93.00,54.00,26.87,190.00,7.00,0.00,29.87,1009.20,10.00,M,CLR,M,M,M,M,M,M,M,M,M,M,M,M,M,M,90.76,KHND 240756Z AUTO 19007KT 10SM CLR 34/12 A2987 RMK AO2 SLP092 T03390122,M
TPH,2024-06-24 07:56,-117.0904,38.0505,1654.00,76.00,32.00,19.95,10.00,3.00,0.00,30.10,1009.40,10.00,M,CLR,M,M,M,M,M,M,M,M,M,M,M,M,M,M,76.00,KTPH 240756Z AUTO 01003KT 10SM CLR 24/00 A3010 RMK AO2 SLP094 T02440000 403670133,M
LAS,2024-06-24 07:56,-115.1634,36.0719,663.00,98.00,50.00,19.88,220.00,7.00,0.00,29.83,1006.50,10.00,M,FEW,M,M,M,12000.00,M,M,M,M,M,M,M,M,M,M,94.94,KLAS 240756Z 22007KT 10SM FEW120 37/10 A2983 RMK AO2 SLP065 T03670100 404390317 $,M
NFL,2024-06-24 07:56,-118.7010,39.4166,1199.00,72.00,37.00,27.85,M,4.00,0.00,30.03,1014.00,10.00,M,CLR,M,M,M,M,M,M,M,M,M,M,M,M,M,M,72.00,KNFL 240756Z AUTO VRB04KT 10SM CLR 22/03 A3003 RMK AO2 SLP140 T02220028 403780150,M
BVU,2024-06-24 08:15,-114.8611,35.9475,671.00,91.40,50.00,24.37,M,3.00,0.00,29.83,M,10.00,M,CLR,M,M,M,M,M,M,M,M,M,M,M,M,M,M,88.36,KBVU 240815Z AUTO VRB03KT 10SM CLR 33/10 A2983 RMK AO2,M
CXP,2024-06-24 08:15,-119.7326,39.1923,1431.00,73.40,39.20,28.96,290.00,8.00,0.00,30.11,M,10.00,M,CLR,M,M,M,M,M,M,M,M,M,M,M,M,M,M,73.40,KCXP 240815Z AUTO 29008KT 10SM CLR 23/04 A3011 RMK AO2,M
RTS,2024-06-24 08:15,-119.8764,39.6682,1539.00,64.40,35.60,34.22,330.00,4.00,0.00,30.13,M,10.00,M,CLR,M,M,M,M,M,M,M,M,M,M,M,M,M,M,64.40,KRTS 240815Z AUTO 33004KT 10SM CLR 18/02 A3013 RMK AO2,M
MEV,2024-06-24 08:15,-119.7500,38.9963,1441.42,64.40,42.80,45.32,70.00,6.00,0.00,30.09,M,10.00,M,FEW,FEW,M,M,4600.00,5500.00,M,M,M,M,M,M,M,M,M,64.40,KMEV 240815Z AUTO 07006KT 10SM FEW046 FEW055 18/06 A3009 RMK AO2,M
HTH,2024-06-24 08:15,-118.6315,38.5448,1282.89,80.60,30.20,15.94,M,M,0.00,30.05,M,M,M,M,M,M,M,M,M,M,M,M,M,M,M,M,M,M,78.77,KHTH 240815Z AUTO 27/M01 A3005 RMK A01,M
10U,2024-06-24 08:15,-116.1876,41.9532,1637.00,53.60,32.00,43.61,140.00,5.00,0.00,30.07,M,10.00,M,CLR,M,M,M,M,M,M,M,M,M,M,M,M,M,M,53.60,K10U 240815Z AUTO 14005KT 10SM CLR 12/M00 A3007 RMK AO2,M
BAM,2024-06-24 08:15,-116.8743,40.5990,1382.36,71.60,32.00,23.13,240.00,4.00,0.00,30.04,M,10.00,M,CLR,M,M,M,M,M,M,M,M,M,M,M,M,M,M,71.60,KBAM 240815Z AUTO 24004KT 10SM CLR 22/00 A3004 RMK AO1,M
TMT,2024-06-24 08:15,-117.1971,39.4643,1749.34,57.60,33.30,39.74,210.00,6.00,0.00,30.16,M,10.00,M,CLR,M,M,M,M,M,M,M,M,M,M,M,M,M,M,57.60,KTMT 240815Z AUTO 21006KT 10SM CLR 14/01 A3016 RMK AO2 T01420007,M
BVU,2024-06-24 08:35,-114.8611,35.9475,671.00,91.40,48.20,22.78,0.00,0.00,0.00,29.83,M,10.00,M,CLR,M,M,M,M,M,M,M,M,M,M,M,M,M,M,88.09,KBVU 240835Z AUTO 00000KT 10SM CLR 33/09 A2983 RMK AO2,M
CXP,2024-06-24 08:35,-119.7326,39.1923,1431.00,73.40,39.20,28.96,0.00,0.00,0.00,30.11,M,10.00,11.00,CLR,M,M,M,M,M,M,M,M,M,M,M,M,M,M,73.40,KCXP 240835Z AUTO 00000G11KT 10SM CLR 23/04 A3011 RMK AO2,M
RTS,2024-06-24 08:35,-119.8764,39.6682,1539.00,64.40,35.60,34.22,0.00,0.00,0.00,30.13,M,10.00,M,CLR,M,M,M,M,M,M,M,M,M,M,M,M,M,M,64.40,KRTS 240835Z AUTO 00000KT 10SM CLR 18/02 A3013 RMK AO2,M
MEV,2024-06-24 08:35,-119.7500,38.9963,1441.42,62.60,42.80,48.28,70.00,8.00,0.00,30.09,M,10.00,M,CLR,M,M,M,M,M,M,M,M,M,M,M,M,M,M,62.60,KMEV 240835Z AUTO 07008KT 10SM CLR 17/06 A3009 RMK AO2,M
HTH,2024-06-24 08:35,-118.6315,38.5448,1282.89,78.80,41.00,25.95,310.00,8.00,0.00,30.05,M,10.00,M,M,M,M,M,M,M,M,M,M,M,M,M,M,M,M,78.80,KHTH 240835Z AUTO 31008KT 10SM 26/05 A3005 RMK A01,M
10U,2024-06-24 08:35,-116.1876,41.9532,1637.00,55.40,32.00,40.84,0.00,0.00,0.00,30.07,M,10.00,M,CLR,M,M,M,M,M,M,M,M,M,M,M,M,M,M,55.40,K10U 240835Z AUTO 00000KT 10SM CLR 13/M00 A3007 RMK AO2,M
BAM,2024-06-24 08:35,-116.8743,40.5990,1382.36,71.60,32.00,23.13,270.00,4.00,0.00,30.04,M,10.00,M,CLR,M,M,M,M,M,M,M,M,M,M,M,M,M,M,71.60,KBAM 240835Z AUTO 27004KT 10SM CLR 22/00 A3004 RMK AO1,M
TMT,2024-06-24 08:35,-117.1971,39.4643,1749.34,57.40,31.00,36.48,230.00,9.00,0.00,30.16,M,10.00,M,CLR,M,M,M,M,M,M,M,M,M,M,M,M,M,M,57.40,KTMT 240835Z AUTO 23009KT 10SM CLR 14/M01 A3016 RMK AO2 T01411006,M
P68,2024-06-24 08:53,-116.0056,39.6014,1993.00,66.00,27.00,22.86,M,4.00,0.00,30.14,1010.30,M,M,M,M,M,M,M,M,M,M,M,M,M,M,M,M,M,66.00,KP68 240853Z AUTO VRB04KT 19/M03 A3014 RMK AO1 SLP103 T01891028 51007,M
DRA,2024-06-24 08:53,-116.0278,36.6206,1009.00,87.00,48.00,25.98,0.00,0.00,0.00,29.90,1006.20,10.00,M,CLR,M,M,M,M,M,M,M,M,M,M,M,M,M,M,84.18,KDRA 240853Z AUTO 00000KT 10SM CLR 31/09 A2990 RMK AO2 SLP062 T03060089 50000,M
ELY,2024-06-24 08:53,-114.8453,39.2950,1909.00,58.00,26.00,29.09,180.00,10.00,0.00,30.15,1009.70,10.00,M,CLR,M,M,M,M,M,M,M,M,M,M,M,M,M,M,58.00,KELY 240853Z AUTO 18010KT 10SM CLR 14/M03 A3015 RMK AO2 SLP097 T01441033 51008,M
VGT,2024-06-24 08:53,-115.1933,36.2111,667.00,94.00,51.00,23.33,130.00,7.00,0.00,29.81,1007.60,10.00,M,CLR,M,M,M,M,M,M,M,M,M,M,M,M,M,M,91.08,KVGT 240853Z AUTO 13007KT 10SM CLR 34/11 A2981 RMK AO2 SLP076 T03440106 53005,M
LOL,2024-06-24 08:53,-118.5701,40.0684,1192.43,62.00,35.00,36.35,50.00,6.00,0.00,30.03,1012.30,10.00,M,CLR,M,M,M,M,M,M,M,M,M,M,M,M,M,M,62.00,KLOL 240853Z AUTO 05006KT 10SM CLR 17/02 A3003 RMK AO2 SLP123 T01670017 51008,M
BVU,2024-06-24 08:55,-114.8611,35.9475,671.00,93.20,50.00,23.04,150.00,7.00,0.00,29.83,M,10.00,M,CLR,M,M,M,M,M,M,M,M,M,M,M,M,M,M,90.10,KBVU 240855Z AUTO 15007KT 10SM CLR 34/10 A2983 RMK AO2,M
CXP,2024-06-24 08:55,-119.7326,39.1923,1431.00,64.40,42.80,45.32,60.00,4.00,0.00,30.11,M,10.00,M,CLR,M,M,M,M,M,M,M,M,M,M,M,M,M,M,64.40,KCXP 240855Z AUTO 06004KT 10SM CLR 18/06 A3011 RMK AO2,M
RNO,2024-06-24 08:55,-119.7711,39.4839,1341.00,71.00,44.00,37.80,50.00,3.00,0.00,30.08,1012.00,10.00,M,CLR,M,M,M,M,M,M,M,M,M,M,M,M,M,M,71.00,KRNO 240855Z 05003KT 10SM CLR 22/07 A3008 RMK AO2 SLP120 T02170067 53002,M
RTS,2024-06-24 08:55,-119.8764,39.6682,1539.00,59.00,33.80,38.56,330.00,7.00,0.00,30.13,M,10.00,M,CLR,M,M,M,M,M,M,M,M,M,M,M,M,M,M,59.00,KRTS 240855Z AUTO 33007KT 10SM CLR 15/01 A3013 RMK AO2,M
MEV,2024-06-24 08:55,-119.7500,38.9963,1441.42,64.40,42.80,45.32,70.00,9.00,0.00,30.09,M,10.00,M,CLR,M,M,M,M,M,M,M,M,M,M,M,M,M,M,64.40,KMEV 240855Z AUTO 07009KT 10SM CLR 18/06 A3009 RMK AO2,M
HTH,2024-06-24 08:55,-118.6315,38.5448,1282.89,75.20,41.00,29.23,330.00,8.00,0.00,30.05,M,10.00,M,CLR,M,M,M,M,M,M,M,M,M,M,M,M,M,M,75.20,KHTH 240855Z AUTO 33008KT 10SM CLR 24/05 A3005 RMK A01,M
10U,2024-06-24 08:55,-116.1876,41.9532,1637.00,50.00,30.20,46.31,220.00,4.00,0.00,30.08,M,10.00,M,CLR,M,M,M,M,M,M,M,M,M,M,M,M,M,M,50.00,K10U 240855Z AUTO 22004KT 10SM CLR 10/M01 A3008 RMK AO2,M
INS,2024-06-24 08:55,-115.6733,36.5872,955.00,86.00,48.20,27.03,10.00,8.00,0.00,29.90,M,10.00,M,CLR,M,M,M,M,M,M,M,M,M,M,M,M,M,M,83.40,KINS 240855Z 01008KT 10SM CLR 30/09 A2990 RMK AO2A SLPNO RVRNO TSNO $,M
BAM,2024-06-24 08:55,-116.8743,40.5990,1382.36,71.60,32.00,23.13,260.00,4.00,0.00,30.05,M,10.00,M,CLR,M,M,M,M,M,M,M,M,M,M,M,M,M,M,71.60,KBAM 240855Z AUTO 26004KT 10SM CLR 22/00 A3005 RMK AO1,M
TMT,2024-06-24 08:55,-117.1971,39.4643,1749.34,54.00,32.00,42.98,200.00,7.00,0.00,30.18,M,10.00,M,CLR,M,M,M,M,M,M,M,M,M,M,M,M,M,M,54.00,KTMT 240855Z AUTO 20007KT 10SM CLR 12/00 A3018 RMK AO2 T01220000,M
LSV,2024-06-24 08:55,-115.0343,36.2362,570.00,97.70,48.40,18.90,190.00,11.00,0.00,29.76,1004.30,10.00,M,CLR,M,M,M,M,M,M,M,M,M,M,M,M,M,M,94.30,KLSV 240855Z AUTO 19011KT 10SM CLR 37/09 A2976 RMK AO2 SLP043 T03650091 51007 $,M
EKO,2024-06-24 08:56,-115.7860,40.8242,1367.00,59.00,33.00,37.34,260.00,3.00,0.00,30.06,1011.60,10.00,M,CLR,M,M,M,M,M,M,M,M,M,M,M,M,M,M,59.00,KEKO 240856Z AUTO 26003KT 10SM CLR 15/01 A3006 RMK AO2 SLP116 T01500006 53009,M
WMC,2024-06-24 08:56,-117.8072,40.9019,1315.00,75.00,32.00,20.63,250.00,10.00,0.00,30.03,1010.70,10.00,M,CLR,M,M,M,M,M,M,M,M,M,M,M,M,M,M,75.00,KWMC 240856Z AUTO 25010KT 10SM CLR 24/00 A3003 RMK AO2 SLP107 T02390000 53012,M
NFL,2024-06-24 08:56,-118.7010,39.4166,1199.00,69.00,37.00,30.84,M,4.00,0.00,30.03,1014.00,10.00,M,CLR,M,M,M,M,M,M,M,M,M,M,M,M,M,M,69.00,KNFL 240856Z AUTO VRB04KT 10SM CLR 21/03 A3003 RMK AO2 SLP140 T02060028 51007,M
HND,2024-06-24 08:56,-115.1344,35.9729,742.79,93.00,53.00,25.90,180.00,9.00,0.00,29.88,1009.30,10.00,M,CLR,M,M,M,M,M,M,M,M,M,M,M,M,M,M,90.52,KHND 240856Z AUTO 18009KT 10SM CLR 34/12 A2988 RMK AO2 SLP093 T03390117 51005,M
TPH,2024-06-24 08:56,-117.0904,38.0505,1654.00,75.00,33.00,21.47,340.00,13.00,0.00,30.10,1009.10,10.00,M,CLR,M,M,M,M,M,M,M,M,M,M,M,M,M,M,75.00,KTPH 240856Z AUTO 34013KT 10SM CLR 24/01 A3010 RMK AO2 SLP091 T02390006 50006,M
LAS,2024-06-24 08:56,-115.1634,36.0719,663.00,97.00,52.00,22.07,180.00,7.00,0.00,29.84,1006.70,10.00,M,FEW,M,M,M,12000.00,M,M,M,M,M,M,M,M,M,M,94.38,KLAS 240856Z 18007KT 10SM FEW120 36/11 A2984 RMK AO2 SLP067 T03610111 51006 $,M
BVU,2024-06-24 09:15,-114.8611,35.9475,671.00,93.20,51.80,24.63,150.00,9.00,0.00,29.83,M,10.00,M,CLR,M,M,M,M,M,M,M,M,M,M,M,M,M,M,90.45,KBVU 240915Z AUTO 15009KT 10SM CLR 34/11 A2983 RMK AO2,M
CXP,2024-06-24 09:15,-119.7326,39.1923,1431.00,64.40,41.00,42.28,0.00,0.00,0.00,30.11,M,10.00,M,CLR,M,M,M,M,M,M,M,M,M,M,M,M,M,M,64.40,KCXP 240915Z AUTO 00000KT 10SM CLR 18/05 A3011 RMK AO2,M
RTS,2024-06-24 09:15,-119.8764,39.6682,1539.00,57.20,35.60,44.19,310.00,6.00,0.00,30.14,M,10.00,11.00,CLR,M,M,M,M,M,M,M,M,M,M,M,M,M,M,57.20,KRTS 240915Z AUTO 31006G11KT 10SM CLR 14/02 A3014 RMK AO2,M
MEV,2024-06-24 09:15,-119.7500,38.9963,1441.42,64.40,42.80,45.32,60.00,8.00,0.00,30.09,M,10.00,M,CLR,M,M,M,M,M,M,M,M,M,M,M,M,M,M,64.40,KMEV 240915Z AUTO 06008KT 10SM CLR 18/06 A3009 RMK AO2,M
HTH,2024-06-24 09:15,-118.6315,38.5448,1282.89,75.20,39.20,27.26,330.00,8.00,0.00,30.06,M,10.00,M,CLR,M,M,M,M,M,M,M,M,M,M,M,M,M,M,75.20,KHTH 240915Z AUTO 33008KT 10SM CLR 24/04 A3006 RMK A01,M
10U,2024-06-24 09:15,-116.1876,41.9532,1637.00,55.40,32.00,40.84,180.00,8.00,0.00,30.08,M,10.00,M,CLR,M,M,M,M,M,M,M,M,M,M,M,M,M,M,55.40,K10U 240915Z AUTO 18008KT 10SM CLR 13/00 A3008 RMK AO2,M
BAM,2024-06-24 09:15,-116.8743,40.5990,1382.36,71.60,33.80,24.86,350.00,3.00,0.00,30.06,M,10.00,M,CLR,M,M,M,M,M,M,M,M,M,M,M,M,M,M,71.60,KBAM 240915Z AUTO 35003KT 10SM CLR 22/01 A3006 RMK AO1,M
TMT,2024-06-24 09:15,-117.1971,39.4643,1749.34,53.00,32.00,44.58,210.00,6.00,0.00,30.18,M,10.00,M,CLR,M,M,M,M,M,M,M,M,M,M,M,M,M,M,53.00,KTMT 240915Z AUTO 21006KT 10SM CLR 12/00 A3018 RMK AO2 T01160001,M
BVU,2024-06-24 09:35,-114.8611,35.9475,671.00,89.60,50.00,25.79,0.00,0.00,0.00,29.83,M,10.00,M,CLR,M,M,M,M,M,M,M,M,M,M,M,M,M,M,86.70,KBVU 240935Z AUTO 00000KT 10SM CLR 32/10 A2983 RMK AO2,M
CXP,2024-06-24 09:35,-119.7326,39.1923,1431.00,64.40,41.00,42.28,0.00,0.00,0.00,30.11,M,10.00,M,CLR,M,M,M,M,M,M,M,M,M,M,M,M,M,M,64.40,KCXP 240935Z AUTO 00000KT 10SM CLR 18/05 A3011 RMK AO2,M
RTS,2024-06-24 09:35,-119.8764,39.6682,1539.00,55.40,35.60,47.16,350.00,8.00,0.00,30.13,M,10.00,M,CLR,M,M,M,M,M,M,M,M,M,M,M,M,M,M,55.40,KRTS 240935Z AUTO 35008KT 10SM CLR 13/02 A3013 RMK AO2,M
MEV,2024-06-24 09:35,-119.7500,38.9963,1441.42,64.40,41.00,42.28,60.00,9.00,0.00,30.09,M,10.00,M,CLR,M,M,M,M,M,M,M,M,M,M,M,M,M,M,64.40,KMEV 240935Z AUTO 06009KT 10SM CLR 18/05 A3009 RMK AO2,M
HTH,2024-06-24 09:35,-118.6315,38.5448,1282.89,75.20,39.20,27.26,320.00,5.00,0.00,30.06,M,10.00,M,CLR,M,M,M,M,M,M,M,M,M,M,M,M,M,M,75.20,KHTH 240935Z AUTO 32005KT 10SM CLR 24/04 A3006 RMK A01,M
10U,2024-06-24 09:35,-116.1876,41.9532,1637.00,53.60,32.00,43.61,160.00,7.00,0.00,30.08,M,10.00,M,CLR,M,M,M,M,M,M,M,M,M,M,M,M,M,M,53.60,K10U 240935Z AUTO 16007KT 10SM CLR 12/M00 A3008 RMK AO2,M
BAM,2024-06-24 09:35,-116.8743,40.5990,1382.36,66.20,33.80,29.92,0.00,0.00,0.00,30.06,M,10.00,M,CLR,M,M,M,M,M,M,M,M,M,M,M,M,M,M,66.20,KBAM 240935Z AUTO 00000KT 10SM CLR 19/01 A3006 RMK AO1,M
TMT,2024-06-24 09:35,-117.1971,39.4643,1749.34,49.50,32.00,50.74,0.00,0.00,0.00,30.18,M,10.00,M,CLR,M,M,M,M,M,M,M,M,M,M,M,M,M,M,49.50,KTMT 240935Z AUTO 00000KT 10SM CLR 10/00 A3018 RMK AO2 T00971001,M
P68,2024-06-24 09:53,-116.0056,39.6014,1993.00,54.00,30.00,39.63,140.00,5.00,0.00,30.15,1011.70,M,M,M,M,M,M,M,M,M,M,M,M,M,M,M,M,M,54.00,KP68 240953Z AUTO 14005KT 12/M01 A3015 RMK AO1 SLP117 T01221011,M
DRA,2024-06-24 09:53,-116.0278,36.6206,1009.00,88.00,48.00,25.17,0.00,0.00,0.00,29.90,1006.00,10.00,M,CLR,M,M,M,M,M,M,M,M,M,M,M,M,M,M,85.02,KDRA 240953Z AUTO 00000KT 10SM CLR 31/09 A2990 RMK AO2 SLP060 T03110089,M
ELY,2024-06-24 09:53,-114.8453,39.2950,1909.00,52.00,25.00,34.72,180.00,8.00,0.00,30.16,1010.10,10.00,M,CLR,M,M,M,M,M,M,M,M,M,M,M,M,M,M,52.00,KELY 240953Z AUTO 18008KT 10SM CLR 11/M04 A3016 RMK AO2 SLP101 T01111039,M
VGT,2024-06-24 09:53,-115.1933,36.2111,667.00,95.00,52.00,23.47,180.00,8.00,0.00,29.82,1007.90,10.00,M,CLR,M,M,M,M,M,M,M,M,M,M,M,M,M,M,92.31,KVGT 240953Z AUTO 18008KT 10SM CLR 35/11 A2982 RMK AO2 SLP079 T03500111,M
LOL,2024-06-24 09:53,-118.5701,40.0684,1192.43,59.00,35.00,40.45,90.00,3.00,0.00,30.04,1012.60,10.00,M,CLR,M,M,M,M,M,M,M,M,M,M,M,M,M,M,59.00,KLOL 240953Z AUTO 09003KT 10SM CLR 15/02 A3004 RMK AO2 SLP126 T01500017,M
BVU,2024-06-24 09:55,-114.8611,35.9475,671.00,89.60,53.60,29.45,0.00,0.00,0.00,29.84,M,10.00,M,CLR,M,M,M,M,M,M,M,M,M,M,M,M,M,M,87.36,KBVU 240955Z AUTO 00000KT 10SM CLR 32/12 A2984 RMK AO2,M
CXP,2024-06-24 09:55,-119.7326,39.1923,1431.00,60.80,41.00,48.00,0.00,0.00,0.00,30.11,M,10.00,M,CLR,M,M,M,M,M,M,M,M,M,M,M,M,M,M,60.80,KCXP 240955Z AUTO 00000KT 10SM CLR 16/05 A3011 RMK AO2,M
RNO,2024-06-24 09:55,-119.7711,39.4839,1341.00,70.00,43.00,37.64,250.00,4.00,0.00,30.09,1012.20,10.00,M,CLR,M,M,M,M,M,M,M,M,M,M,M,M,M,M,70.00,KRNO 240955Z 25004KT 10SM CLR 21/06 A3009 RMK AO2 SLP122 T02110061,M
RTS,2024-06-24 09:55,-119.8764,39.6682,1539.00,57.20,35.60,44.19,330.00,8.00,0.00,30.13,M,10.00,M,CLR,M,M,M,M,M,M,M,M,M,M,M,M,M,M,57.20,KRTS 240955Z AUTO 33008KT 10SM CLR 14/02 A3013 RMK AO2,M
MEV,2024-06-24 09:55,-119.7500,38.9963,1441.42,62.60,41.00,45.04,60.00,9.00,0.00,30.09,M,10.00,M,CLR,M,M,M,M,M,M,M,M,M,M,M,M,M,M,62.60,KMEV 240955Z AUTO 06009KT 10SM CLR 17/05 A3009 RMK AO2,M
BAM,2024-06-24 09:55,-116.8743,40.5990,1382.36,60.80,32.00,33.64,0.00,0.00,0.00,30.07,M,10.00,M,CLR,M,M,M,M,M,M,M,M,M,M,M,M,M,M,60.80,KBAM 240955Z AUTO 00000KT 10SM CLR 16/00 A3007 RMK AO1,M
HTH,2024-06-24 09:55,-118.6315,38.5448,1282.89,73.40,39.20,28.96,0.00,0.00,0.00,30.07,M,10.00,M,CLR,M,M,M,M,M,M,M,M,M,M,M,M,M,M,73.40,KHTH 240955Z AUTO 00000KT 10SM CLR 23/04 A3007 RMK A01,M
10U,2024-06-24 09:55,-116.1876,41.9532,1637.00,51.80,32.00,46.59,140.00,6.00,0.00,30.09,M,10.00,M,CLR,M,M,M,M,M,M,M,M,M,M,M,M,M,M,51.80,K10U 240955Z AUTO 14006KT 10SM CLR 11/00 A3009 RMK AO2,M
TMT,2024-06-24 09:55,-117.1971,39.4643,1749.34,50.70,33.60,51.75,220.00,5.00,0.00,30.18,M,10.00,M,CLR,M,M,M,M,M,M,M,M,M,M,M,M,M,M,50.70,KTMT 240955Z AUTO 22005KT 10SM CLR 10/01 A3018 RMK AO2 T01040009,M
INS,2024-06-24 09:55,-115.6733,36.5872,955.00,86.00,48.20,27.03,80.00,5.00,0.00,29.90,M,10.00,M,CLR,M,M,M,M,M,M,M,M,M,M,M,M,M,M,83.40,KINS 240955Z 08005KT 10SM CLR 30/09 A2990 RMK AO2A SLPNO RVRNO TSNO $,M
LSV,2024-06-24 09:55,-115.0343,36.2362,570.00,96.00,49.60,20.82,200.00,9.00,0.00,29.77,1004.70,10.00,M,CLR,M,M,M,M,M,M,M,M,M,M,M,M,M,M,92.81,KLSV 240955Z AUTO 20009KT 10SM CLR 36/10 A2977 RMK AO2 SLP047 T03550098 $,M
EKO,2024-06-24 09:56,-115.7860,40.8242,1367.00,60.00,32.00,34.61,0.00,0.00,0.00,30.08,1012.10,10.00,M,CLR,M,M,M,M,M,M,M,M,M,M,M,M,M,M,60.00,KEKO 240956Z AUTO 00000KT 10SM CLR 16/00 A3008 RMK AO2 SLP121 T01560000,M
WMC,2024-06-24 09:56,-117.8072,40.9019,1315.00,72.00,32.00,22.82,250.00,13.00,0.00,30.04,1011.00,10.00,M,CLR,M,M,M,M,M,M,M,M,M,M,M,M,M,M,72.00,KWMC 240956Z AUTO 25013KT 10SM CLR 22/00 A3004 RMK AO2 SLP110 T02220000,M
NFL,2024-06-24 09:56,-118.7010,39.4166,1199.00,64.00,37.00,36.68,0.00,0.00,0.00,30.04,1014.10,10.00,M,CLR,M,M,M,M,M,M,M,M,M,M,M,M,M,M,64.00,KNFL 240956Z AUTO 00000KT 10SM CLR 18/03 A3004 RMK AO2 SLP141 T01780028,M
HND,2024-06-24 09:56,-115.1344,35.9729,742.79,91.00,54.00,28.60,200.00,13.00,0.00,29.88,1009.40,10.00,M,CLR,M,M,M,M,M,M,M,M,M,M,M,M,M,M,88.78,KHND 240956Z AUTO 20013KT 10SM CLR 33/12 A2988 RMK AO2 SLP094 T03280122,M
TPH,2024-06-24 09:56,-117.0904,38.0505,1654.00,72.00,33.00,23.75,320.00,9.00,0.00,30.11,1009.80,10.00,M,CLR,M,M,M,M,M,M,M,M,M,M,M,M,M,M,72.00,KTPH 240956Z AUTO 32009KT 10SM CLR 22/01 A3011 RMK AO2 SLP098 T02220006,M
LAS,2024-06-24 09:56,-115.1634,36.0719,663.00,95.00,52.00,23.47,180.00,6.00,0.00,29.84,1007.00,10.00,M,CLR,M,M,M,M,M,M,M,M,M,M,M,M,M,M,92.31,KLAS 240956Z 18006KT 10SM CLR 35/11 A2984 RMK AO2 SLP070 T03500111 $,M
BVU,2024-06-24 10:15,-114.8611,35.9475,671.00,89.60,53.60,29.45,280.00,3.00,0.00,29.84,M,10.00,M,CLR,M,M,M,M,M,M,M,M,M,M,M,M,M,M,87.36,KBVU 241015Z AUTO 28003KT 10SM CLR 32/12 A2984 RMK AO2,M
CXP,2024-06-24 10:15,-119.7326,39.1923,1431.00,60.80,41.00,48.00,0.00,0.00,0.00,30.11,M,10.00,M,CLR,M,M,M,M,M,M,M,M,M,M,M,M,M,M,60.80,KCXP 241015Z AUTO 00000KT 10SM CLR 16/05 A3011 RMK AO2,M
RTS,2024-06-24 10:15,-119.8764,39.6682,1539.00,55.40,33.80,43.90,0.00,0.00,0.00,30.13,M,10.00,M,CLR,M,M,M,M,M,M,M,M,M,M,M,M,M,M,55.40,KRTS 241015Z AUTO 00000KT 10SM CLR 13/01 A3013 RMK AO2,M
MEV,2024-06-24 10:15,-119.7500,38.9963,1441.42,57.20,42.80,58.52,M,4.00,0.00,30.09,M,10.00,10.00,CLR,M,M,M,M,M,M,M,M,M,M,M,M,M,M,57.20,KMEV 241015Z AUTO VRB04G10KT 10SM CLR 14/06 A3009 RMK AO2,M
BAM,2024-06-24 10:15,-116.8743,40.5990,1382.36,66.20,32.00,27.83,0.00,0.00,0.00,30.08,M,10.00,M,CLR,M,M,M,M,M,M,M,M,M,M,M,M,M,M,66.20,KBAM 241015Z AUTO 00000KT 10SM CLR 19/00 A3008 RMK AO1,M
HTH,2024-06-24 10:15,-118.6315,38.5448,1282.89,75.20,39.20,27.26,0.00,0.00,0.00,30.07,M,10.00,M,CLR,M,M,M,M,M,M,M,M,M,M,M,M,M,M,75.20,KHTH 241015Z AUTO 00000KT 10SM CLR 24/04 A3007 RMK A01,M
10U,2024-06-24 10:15,-116.1876,41.9532,1637.00,51.80,32.00,46.59,160.00,3.00,0.00,30.09,M,10.00,M,CLR,M,M,M,M,M,M,M,M,M,M,M,M,M,M,51.80,K10U 241015Z AUTO 16003KT 10SM CLR 11/M00 A3009 RMK AO2,M
TMT,2024-06-24 10:15,-117.1971,39.4643,1749.34,50.50,33.40,51.72,210.00,4.00,0.00,30.19,M,10.00,M,CLR,M,M,M,M,M,M,M,M,M,M,M,M,M,M,50.50,KTMT 241015Z AUTO 21004KT 10SM CLR 10/01 A3019 RMK AO2 T01030008,M
BVU,2024-06-24 10:35,-114.8611,35.9475,671.00,91.40,53.60,27.83,M,4.00,0.00,29.84,M,10.00,M,CLR,M,M,M,M,M,M,M,M,M,M,M,M,M,M,89.08,KBVU 241035Z AUTO VRB04KT 10SM CLR 33/12 A2984 RMK AO2,M
CXP,2024-06-24 10:35,-119.7326,39.1923,1431.00,60.80,41.00,48.00,0.00,0.00,0.00,30.11,M,10.00,M,CLR,M,M,M,M,M,M,M,M,M,M,M,M,M,M,60.80,KCXP 241035Z AUTO 00000KT 10SM CLR 16/05 A3011 RMK AO2,M
RTS,2024-06-24 10:35,-119.8764,39.6682,1539.00,55.40,33.80,43.90,340.00,8.00,0.00,30.13,M,10.00,M,CLR,M,M,M,M,M,M,M,M,M,M,M,M,M,M,55.40,KRTS 241035Z AUTO 34008KT 10SM CLR 13/01 A3013 RMK AO2,M
MEV,2024-06-24 10:35,-119.7500,38.9963,1441.42,55.40,42.80,62.46,0.00,0.00,0.00,30.09,M,10.00,M,FEW,FEW,M,M,5500.00,12000.00,M,M,M,M,M,M,M,M,M,55.40,KMEV 241035Z AUTO 00000KT 10SM FEW055 FEW120 13/06 A3009 RMK AO2,M
HTH,2024-06-24 10:35,-118.6315,38.5448,1282.89,73.40,41.00,31.05,300.00,3.00,0.00,30.07,M,10.00,M,CLR,M,M,M,M,M,M,M,M,M,M,M,M,M,M,73.40,KHTH 241035Z AUTO 30003KT 10SM CLR 23/05 A3007 RMK A01,M
10U,2024-06-24 10:35,-116.1876,41.9532,1637.00,51.80,32.00,46.59,180.00,5.00,0.00,30.10,M,10.00,M,CLR,M,M,M,M,M,M,M,M,M,M,M,M,M,M,51.80,K10U 241035Z AUTO 18005KT 10SM CLR 11/M00 A3010 RMK AO2,M
BAM,2024-06-24 10:35,-116.8743,40.5990,1382.36,62.60,32.00,31.56,230.00,3.00,0.00,30.08,M,10.00,M,CLR,M,M,M,M,M,M,M,M,M,M,M,M,M,M,62.60,KBAM 241035Z AUTO 23003KT 10SM CLR 17/00 A3008 RMK AO1,M
TMT,2024-06-24 10:35,-117.1971,39.4643,1749.34,51.00,32.00,47.99,0.00,0.00,0.00,30.19,M,10.00,M,CLR,M,M,M,M,M,M,M,M,M,M,M,M,M,M,51.00,KTMT 241035Z AUTO 00000KT 10SM CLR 11/00 A3019 RMK AO2 T01051001,M
P68,2024-06-24 10:53,-116.0056,39.6014,1993.00,55.00,27.00,33.79,190.00,6.00,0.00,30.17,1012.50,M,M,M,M,M,M,M,M,M,M,M,M,M,M,M,M,M,55.00,KP68 241053Z AUTO 19006KT 13/M03 A3017 RMK AO1 SLP125 T01281028,M
DRA,2024-06-24 10:53,-116.0278,36.6206,1009.00,86.00,48.00,26.82,320.00,6.00,0.00,29.90,1006.30,10.00,M,CLR,M,M,M,M,M,M,M,M,M,M,M,M,M,M,83.38,KDRA 241053Z AUTO 32006KT 10SM CLR 30/09 A2990 RMK AO2 SLP063 T03000089,M
ELY,2024-06-24 10:53,-114.8453,39.2950,1909.00,52.00,25.00,34.72,210.00,5.00,0.00,30.17,1010.60,10.00,M,CLR,M,M,M,M,M,M,M,M,M,M,M,M,M,M,52.00,KELY 241053Z AUTO 21005KT 10SM CLR 11/M04 A3017 RMK AO2 SLP106 T01111039,M
VGT,2024-06-24 10:53,-115.1933,36.2111,667.00,92.00,53.00,26.72,120.00,6.00,0.00,29.83,1008.10,10.00,M,CLR,M,M,M,M,M,M,M,M,M,M,M,M,M,M,89.53,KVGT 241053Z AUTO 12006KT 10SM CLR 33/12 A2983 RMK AO2 SLP081 T03330117,M
LOL,2024-06-24 10:53,-118.5701,40.0684,1192.43,59.00,33.00,37.34,40.00,4.00,0.00,30.04,1012.90,10.00,M,CLR,M,M,M,M,M,M,M,M,M,M,M,M,M,M,59.00,KLOL 241053Z AUTO 04004KT 10SM CLR 15/01 A3004 RMK AO2 SLP129 T01500006,M
BVU,2024-06-24 10:55,-114.8611,35.9475,671.00,91.40,55.40,29.72,200.00,9.00,0.00,29.84,M,10.00,M,CLR,M,M,M,M,M,M,M,M,M,M,M,M,M,M,89.53,KBVU 241055Z AUTO 20009KT 10SM CLR 33/13 A2984 RMK AO2,M
CXP,2024-06-24 10:55,-119.7326,39.1923,1431.00,62.60,39.20,42.00,0.00,0.00,0.00,30.11,M,10.00,M,CLR,M,M,M,M,M,M,M,M,M,M,M,M,M,M,62.60,KCXP 241055Z AUTO 00000KT 10SM CLR 17/04 A3011 RMK AO2,M
RNO,2024-06-24 10:55,-119.7711,39.4839,1341.00,66.00,44.00,44.88,190.00,4.00,0.00,30.10,1012.70,10.00,M,CLR,M,M,M,M,M,M,M,M,M,M,M,M,M,M,66.00,KRNO 241055Z 19004KT 10SM CLR 19/07 A3010 RMK AO2 SLP127 T01890067,M
RTS,2024-06-24 10:55,-119.8764,39.6682,1539.00,55.40,33.80,43.90,350.00,5.00,0.00,30.13,M,10.00,M,CLR,M,M,M,M,M,M,M,M,M,M,M,M,M,M,55.40,KRTS 241055Z AUTO 35005KT 10SM CLR 13/01 A3013 RMK AO2,M
MEV,2024-06-24 10:55,-119.7500,38.9963,1441.42,57.20,41.00,54.60,170.00,3.00,0.00,30.10,M,10.00,M,FEW,M,M,M,5000.00,M,M,M,M,M,M,M,M,M,M,57.20,KMEV 241055Z AUTO 17003KT 10SM FEW050 14/05 A3010 RMK AO2,M
HTH,2024-06-24 10:55,-118.6315,38.5448,1282.89,69.80,39.20,32.72,0.00,0.00,0.00,30.08,M,10.00,M,CLR,M,M,M,M,M,M,M,M,M,M,M,M,M,M,69.80,KHTH 241055Z AUTO 00000KT 10SM CLR 21/04 A3008 RMK A01,M
10U,2024-06-24 10:55,-116.1876,41.9532,1637.00,51.80,32.00,46.59,180.00,5.00,0.00,30.10,M,10.00,M,CLR,M,M,M,M,M,M,M,M,M,M,M,M,M,M,51.80,K10U 241055Z AUTO 18005KT 10SM CLR 11/M00 A3010 RMK AO2,M
BAM,2024-06-24 10:55,-116.8743,40.5990,1382.36,59.00,32.00,35.87,0.00,0.00,0.00,30.08,M,10.00,M,CLR,M,M,M,M,M,M,M,M,M,M,M,M,M,M,59.00,KBAM 241055Z AUTO 00000KT 10SM CLR 15/00 A3008 RMK AO1,M
TMT,2024-06-24 10:55,-117.1971,39.4643,1749.34,44.40,29.00,54.45,0.00,0.00,0.00,30.19,M,10.00,M,CLR,M,M,M,M,M,M,M,M,M,M,M,M,M,M,44.40,KTMT 241055Z AUTO 00000KT 10SM CLR 07/M02 A3019 RMK AO2 T00691017,M
INS,2024-06-24 10:55,-115.6733,36.5872,955.00,84.20,42.80,23.33,50.00,3.00,0.00,29.90,M,10.00,M,CLR,M,M,M,M,M,M,M,M,M,M,M,M,M,M,81.61,KINS 241055Z 05003KT 10SM CLR 29/06 A2990 RMK AO2A SLPNO RVRNO TSNO $,M
LSV,2024-06-24 10:55,-115.0343,36.2362,570.00,94.60,50.00,22.06,180.00,10.00,0.00,29.78,1005.10,10.00,M,CLR,M,M,M,M,M,M,M,M,M,M,M,M,M,M,91.48,KLSV 241055Z AUTO 18010KT 10SM CLR 35/10 A2978 RMK AO2 SLP051 T03480099 $,M
EKO,2024-06-24 10:56,-115.7860,40.8242,1367.00,58.00,34.00,40.28,240.00,4.00,0.00,30.09,1012.70,10.00,M,CLR,M,M,M,M,M,M,M,M,M,M,M,M,M,M,58.00,KEKO 241056Z AUTO 24004KT 10SM CLR 14/01 A3009 RMK AO2 SLP127 T01440011,M
WMC,2024-06-24 10:56,-117.8072,40.9019,1315.00,67.00,33.00,28.18,250.00,8.00,0.00,30.06,1011.90,10.00,M,CLR,M,M,M,M,M,M,M,M,M,M,M,M,M,M,67.00,KWMC 241056Z AUTO 25008KT 10SM CLR 19/01 A3006 RMK AO2 SLP119 T01940006,M
NFL,2024-06-24 10:56,-118.7010,39.4166,1199.00,64.00,37.00,36.68,0.00,0.00,0.00,30.05,1014.30,10.00,M,CLR,M,M,M,M,M,M,M,M,M,M,M,M,M,M,64.00,KNFL 241056Z AUTO 00000KT 10SM CLR 18/03 A3005 RMK AO2 SLP143 T01780028,M
HND,2024-06-24 10:56,-115.1344,35.9729,742.79,89.00,53.00,29.36,170.00,6.00,0.00,29.89,1009.80,10.00,M,CLR,M,M,M,M,M,M,M,M,M,M,M,M,M,M,86.68,KHND 241056Z AUTO 17006KT 10SM CLR 32/12 A2989 RMK AO2 SLP098 T03170117,M
TPH,2024-06-24 10:56,-117.0904,38.0505,1654.00,66.00,29.00,24.81,350.00,13.00,0.00,30.12,1010.30,10.00,M,CLR,M,M,M,M,M,M,M,M,M,M,M,M,M,M,66.00,KTPH 241056Z AUTO 35013KT 10SM CLR 19/M02 A3012 RMK AO2 SLP103 T01891017,M
LAS,2024-06-24 10:56,-115.1634,36.0719,663.00,93.00,53.00,25.90,170.00,8.00,0.00,29.85,1007.00,10.00,M,CLR,M,M,M,M,M,M,M,M,M,M,M,M,M,M,90.52,KLAS 241056Z 17008KT 10SM CLR 34/12 A2985 RMK AO2 SLP070 T03390117 $,M
BVU,2024-06-24 11:15,-114.8611,35.9475,671.00,91.40,55.40,29.72,210.00,6.00,0.00,29.85,M,10.00,11.00,CLR,M,M,M,M,M,M,M,M,M,M,M,M,M,M,89.53,KBVU 241115Z AUTO 21006G11KT 10SM CLR 33/13 A2985 RMK AO2,M
CXP,2024-06-24 11:15,-119.7326,39.1923,1431.00,60.80,39.20,44.76,0.00,0.00,0.00,30.12,M,10.00,M,CLR,M,M,M,M,M,M,M,M,M,M,M,M,M,M,60.80,KCXP 241115Z AUTO 00000KT 10SM CLR 16/04 A3012 RMK AO2,M
RTS,2024-06-24 11:15,-119.8764,39.6682,1539.00,55.40,32.00,40.84,340.00,4.00,0.00,30.14,M,10.00,M,CLR,M,M,M,M,M,M,M,M,M,M,M,M,M,M,55.40,KRTS 241115Z AUTO 34004KT 10SM CLR 13/00 A3014 RMK AO2,M
MEV,2024-06-24 11:15,-119.7500,38.9963,1441.42,53.60,42.80,66.70,170.00,3.00,0.00,30.10,M,10.00,M,CLR,M,M,M,M,M,M,M,M,M,M,M,M,M,M,53.60,KMEV 241115Z AUTO 17003KT 10SM CLR 12/06 A3010 RMK AO2,M
BAM,2024-06-24 11:15,-116.8743,40.5990,1382.36,55.40,32.00,40.84,170.00,7.00,0.00,30.09,M,10.00,M,CLR,M,M,M,M,M,M,M,M,M,M,M,M,M,M,55.40,KBAM 241115Z AUTO 17007KT 10SM CLR 13/00 A3009 RMK AO1,M
HTH,2024-06-24 11:15,-118.6315,38.5448,1282.89,71.60,41.00,33.00,210.00,4.00,0.00,30.08,M,10.00,M,CLR,M,M,M,M,M,M,M,M,M,M,M,M,M,M,71.60,KHTH 241115Z AUTO 21004KT 10SM CLR 22/05 A3008 RMK A01,M
10U,2024-06-24 11:15,-116.1876,41.9532,1637.00,51.80,30.20,43.32,220.00,7.00,0.00,30.10,M,10.00,M,CLR,M,M,M,M,M,M,M,M,M,M,M,M,M,M,51.80,K10U 241115Z AUTO 22007KT 10SM CLR 11/M01 A3010 RMK AO2,M
TMT,2024-06-24 11:15,-117.1971,39.4643,1749.34,43.50,30.00,58.70,230.00,3.00,0.00,30.19,M,10.00,M,CLR,M,M,M,M,M,M,M,M,M,M,M,M,M,M,41.84,KTMT 241115Z AUTO 23003KT 10SM CLR 06/M01 A3019 RMK AO2 T00641011,M
BVU,2024-06-24 11:35,-114.8611,35.9475,671.00,89.60,55.40,31.45,210.00,5.00,0.00,29.85,M,10.00,M,CLR,M,M,M,M,M,M,M,M,M,M,M,M,M,M,87.78,KBVU 241135Z AUTO 21005KT 10SM CLR 32/13 A2985 RMK AO2,M
CXP,2024-06-24 11:35,-119.7326,39.1923,1431.00,60.80,39.20,44.76,70.00,3.00,0.00,30.12,M,10.00,M,CLR,M,M,M,M,M,M,M,M,M,M,M,M,M,M,60.80,KCXP 241135Z AUTO 07003KT 10SM CLR 16/04 A3012 RMK AO2,M
RTS,2024-06-24 11:35,-119.8764,39.6682,1539.00,55.40,32.00,40.84,0.00,0.00,0.00,30.14,M,10.00,M,CLR,M,M,M,M,M,M,M,M,M,M,M,M,M,M,55.40,KRTS 241135Z AUTO 00000KT 10SM CLR 13/M00 A3014 RMK AO2,M
MEV,2024-06-24 11:35,-119.7500,38.9963,1441.42,57.20,41.00,54.60,0.00,0.00,0.00,30.10,M,10.00,M,CLR,M,M,M,M,M,M,M,M,M,M,M,M,M,M,57.20,KMEV 241135Z AUTO 00000KT 10SM CLR 14/05 A3010 RMK AO2,M
BAM,2024-06-24 11:35,-116.8743,40.5990,1382.36,59.00,32.00,35.87,180.00,5.00,0.00,30.10,M,10.00,M,CLR,M,M,M,M,M,M,M,M,M,M,M,M,M,M,59.00,KBAM 241135Z AUTO 18005KT 10SM CLR 15/00 A3010 RMK AO1,M
HTH,2024-06-24 11:35,-118.6315,38.5448,1282.89,71.60,39.20,30.77,230.00,4.00,0.00,30.08,M,10.00,M,CLR,M,M,M,M,M,M,M,M,M,M,M,M,M,M,71.60,KHTH 241135Z AUTO 23004KT 10SM CLR 22/04 A3008 RMK A01,M
10U,2024-06-24 11:35,-116.1876,41.9532,1637.00,53.60,32.00,43.61,160.00,6.00,0.00,30.11,M,10.00,M,CLR,M,M,M,M,M,M,M,M,M,M,M,M,M,M,53.60,K10U 241135Z AUTO 16006KT 10SM CLR 12/M00 A3011 RMK AO2,M
TMT,2024-06-24 11:35,-117.1971,39.4643,1749.34,44.60,29.50,55.15,0.00,0.00,0.00,30.20,M,10.00,M,CLR,M,M,M,M,M,M,M,M,M,M,M,M,M,M,44.60,KTMT 241135Z AUTO 00000KT 10SM CLR 07/M01 A3020 RMK AO2 T00701014,M
P68,2024-06-24 11:53,-116.0056,39.6014,1993.00,54.00,28.00,36.52,180.00,6.00,0.00,30.18,1012.70,M,M,M,M,M,M,M,M,M,M,M,M,M,M,M,M,M,54.00,KP68 241153Z AUTO 18006KT 12/M02 A3018 RMK AO1 SLP127 T01221022 10194 20117 51013,M
DRA,2024-06-24 11:53,-116.0278,36.6206,1009.00,85.00,48.00,27.70,30.00,8.00,0.00,29.92,1006.90,10.00,M,CLR,M,M,M,M,M,M,M,M,M,M,M,M,M,M,82.61,KDRA 241153Z AUTO 03008KT 10SM CLR 29/09 A2992 RMK AO2 SLP069 T02940089 10333 20278 53006,M
ELY,2024-06-24 11:53,-114.8453,39.2950,1909.00,50.00,27.00,40.62,190.00,12.00,0.00,30.18,1011.50,10.00,M,CLR,M,M,M,M,M,M,M,M,M,M,M,M,M,M,50.00,KELY 241153Z AUTO 19012KT 10SM CLR 10/M03 A3018 RMK AO2 SLP115 T01001028 10217 20094 53010,M
VGT,2024-06-24 11:53,-115.1933,36.2111,667.00,92.00,53.00,26.72,0.00,0.00,0.00,29.84,1008.50,10.00,M,CLR,M,M,M,M,M,M,M,M,M,M,M,M,M,M,89.53,KVGT 241153Z AUTO 00000KT 10SM CLR 33/12 A2984 RMK AO2 SLP085 T03330117 10378 20328 53008,M
LOL,2024-06-24 11:53,-118.5701,40.0684,1192.43,59.00,32.00,35.87,40.00,8.00,0.00,30.05,1013.20,10.00,M,CLR,M,M,M,M,M,M,M,M,M,M,M,M,M,M,59.00,KLOL 241153Z AUTO 04008KT 10SM CLR 15/00 A3005 RMK AO2 SLP132 T01500000 10250 20111 53005,M
BVU,2024-06-24 11:55,-114.8611,35.9475,671.00,89.60,57.20,33.56,180.00,7.00,0.00,29.86,M,10.00,M,CLR,M,M,M,M,M,M,M,M,M,M,M,M,M,M,88.28,KBVU 241155Z AUTO 18007KT 10SM CLR 32/14 A2986 RMK AO2,M
CXP,2024-06-24 11:55,-119.7326,39.1923,1431.00,60.80,39.20,44.76,0.00,0.00,0.00,30.12,M,10.00,M,CLR,M,M,M,M,M,M,M,M,M,M,M,M,M,M,60.80,KCXP 241155Z AUTO 00000KT 10SM CLR 16/04 A3012 RMK AO2,M
RNO,2024-06-24 11:55,-119.7711,39.4839,1341.00,65.00,44.00,46.47,0.00,0.00,0.00,30.10,1013.30,10.00,M,CLR,M,M,M,M,M,M,M,M,M,M,M,M,M,M,65.00,KRNO 241155Z 00000KT 10SM CLR 18/07 A3010 RMK AO2 SLP133 T01830067 10256 20178 53006,M
RTS,2024-06-24 11:55,-119.8764,39.6682,1539.00,53.60,32.00,43.61,360.00,7.00,0.00,30.14,M,10.00,M,CLR,M,M,M,M,M,M,M,M,M,M,M,M,M,M,53.60,KRTS 241155Z AUTO 36007KT 10SM CLR 12/M00 A3014 RMK AO2,M
MEV,2024-06-24 11:55,-119.7500,38.9963,1441.42,53.60,42.80,66.70,140.00,3.00,0.00,30.10,M,10.00,M,CLR,M,M,M,M,M,M,M,M,M,M,M,M,M,M,53.60,KMEV 241155Z AUTO 14003KT 10SM CLR 12/06 A3010 RMK AO2,M
BAM,2024-06-24 11:55,-116.8743,40.5990,1382.36,55.40,32.00,40.84,170.00,6.00,0.00,30.11,M,10.00,M,CLR,M,M,M,M,M,M,M,M,M,M,M,M,M,M,55.40,KBAM 241155Z AUTO 17006KT 10SM CLR 13/00 A3011 RMK AO1,M
HTH,2024-06-24 11:55,-118.6315,38.5448,1282.89,69.80,39.20,32.72,140.00,4.00,0.00,30.09,M,10.00,M,CLR,M,M,M,M,M,M,M,M,M,M,M,M,M,M,69.80,KHTH 241155Z AUTO 14004KT 10SM CLR 21/04 A3009 RMK A01,M
10U,2024-06-24 11:55,-116.1876,41.9532,1637.00,51.80,30.20,43.32,160.00,6.00,0.00,30.11,M,10.00,M,CLR,M,M,M,M,M,M,M,M,M,M,M,M,M,M,51.80,K10U 241155Z AUTO 16006KT 10SM CLR 11/M01 A3011 RMK AO2,M
TMT,2024-06-24 11:55,-117.1971,39.4643,1749.34,45.00,31.00,57.73,330.00,3.00,0.00,30.21,M,10.00,M,CLR,M,M,M,M,M,M,M,M,M,M,M,M,M,M,43.55,KTMT 241155Z AUTO 33003KT 10SM CLR 07/M01 A3021 RMK AO2 T00721006 10157 20060,M
INS,2024-06-24 11:55,-115.6733,36.5872,955.00,78.80,50.00,36.51,140.00,4.00,0.00,29.92,M,10.00,M,CLR,M,M,M,M,M,M,M,M,M,M,M,M,M,M,78.80,KINS 241155Z 14004KT 10SM CLR 26/10 A2992 RMK AO2A SLPNO RVRNO TSNO $,M
LSV,2024-06-24 11:55,-115.0343,36.2362,570.00,92.30,50.00,23.69,190.00,8.00,0.00,29.79,1005.50,10.00,M,CLR,M,M,M,M,M,M,M,M,M,M,M,M,M,M,89.22,KLSV 241155Z AUTO 19008KT 10SM CLR 34/10 A2979 RMK AO2 SLP055 T03350101 10379 20335 52010 $,M
EKO,2024-06-24 11:56,-115.7860,40.8242,1367.00,60.00,33.00,36.03,280.00,4.00,0.00,30.11,1013.00,10.00,M,CLR,M,M,M,M,M,M,M,M,M,M,M,M,M,M,60.00,KEKO 241156Z AUTO 28004KT 10SM CLR 16/01 A3011 RMK AO2 SLP130 T01560006 10194 20139 51014,M
WMC,2024-06-24 11:56,-117.8072,40.9019,1315.00,60.00,34.00,37.50,360.00,3.00,0.00,30.07,1012.80,10.00,M,CLR,M,M,M,M,M,M,M,M,M,M,M,M,M,M,60.00,KWMC 241156Z AUTO 36003KT 10SM CLR 16/01 A3007 RMK AO2 SLP128 T01560011 10261 20156 53012,M
NFL,2024-06-24 11:56,-118.7010,39.4166,1199.00,60.00,35.00,39.03,170.00,4.00,0.00,30.06,1014.60,10.00,M,CLR,M,M,M,M,M,M,M,M,M,M,M,M,M,M,60.00,KNFL 241156Z AUTO 17004KT 10SM CLR 16/02 A3006 RMK AO2 SLP146 T01560017 10256 20156 53006,M
HND,2024-06-24 11:56,-115.1344,35.9729,742.79,88.00,53.00,30.30,250.00,5.00,0.00,29.90,1010.10,10.00,M,CLR,M,M,M,M,M,M,M,M,M,M,M,M,M,M,85.78,KHND 241156Z AUTO 25005KT 10SM CLR 31/12 A2990 RMK AO2 SLP101 T03110117 10356 20311 53007,M
TPH,2024-06-24 11:56,-117.0904,38.0505,1654.00,65.00,28.00,24.66,300.00,7.00,0.00,30.13,1011.10,10.00,M,FEW,M,M,M,12000.00,M,M,M,M,M,M,M,M,M,M,65.00,KTPH 241156Z AUTO 30007KT 10SM FEW120 18/M02 A3013 RMK AO2 SLP111 T01831022 10272 20183 53008,M
LAS,2024-06-24 11:56,-115.1634,36.0719,663.00,92.00,52.00,25.76,180.00,8.00,0.00,29.85,1007.40,10.00,M,FEW,M,M,M,10000.00,M,M,M,M,M,M,M,M,M,M,89.31,KLAS 241156Z 18008KT 10SM FEW100 33/11 A2985 RMK AO2 SLP074 T03330111 10383 20333 51005 $,M
BVU,2024-06-24 12:15,-114.8611,35.9475,671.00,87.80,57.20,35.53,210.00,4.00,0.00,29.86,M,10.00,M,CLR,M,M,M,M,M,M,M,M,M,M,M,M,M,M,86.58,KBVU 241215Z AUTO 21004KT 10SM CLR 31/14 A2986 RMK AO2,M
CXP,2024-06-24 12:15,-119.7326,39.1923,1431.00,60.80,39.20,44.76,0.00,0.00,0.00,30.12,M,10.00,M,CLR,M,M,M,M,M,M,M,M,M,M,M,M,M,M,60.80,KCXP 241215Z AUTO 00000KT 10SM CLR 16/04 A3012 RMK AO2,M
RTS,2024-06-24 12:15,-119.8764,39.6682,1539.00,57.20,32.00,38.26,360.00,3.00,0.00,30.14,M,10.00,M,CLR,M,M,M,M,M,M,M,M,M,M,M,M,M,M,57.20,KRTS 241215Z AUTO 36003KT 10SM CLR 14/M00 A3014 RMK AO2,M
MEV,2024-06-24 12:15,-119.7500,38.9963,1441.42,51.80,42.80,71.26,0.00,0.00,0.00,30.11,M,10.00,M,CLR,M,M,M,M,M,M,M,M,M,M,M,M,M,M,51.80,KMEV 241215Z AUTO 00000KT 10SM CLR 11/06 A3011 RMK AO2,M
BAM,2024-06-24 12:15,-116.8743,40.5990,1382.36,55.40,32.00,40.84,170.00,5.00,0.00,30.11,M,10.00,M,CLR,M,M,M,M,M,M,M,M,M,M,M,M,M,M,55.40,KBAM 241215Z AUTO 17005KT 10SM CLR 13/00 A3011 RMK AO1,M
HTH,2024-06-24 12:15,-118.6315,38.5448,1282.89,68.00,37.40,32.43,130.00,4.00,0.00,30.09,M,10.00,M,CLR,M,M,M,M,M,M,M,M,M,M,M,M,M,M,68.00,KHTH 241215Z AUTO 13004KT 10SM CLR 20/03 A3009 RMK A01,M
10U,2024-06-24 12:15,-116.1876,41.9532,1637.00,50.00,32.00,49.81,190.00,6.00,0.00,30.12,M,10.00,M,CLR,M,M,M,M,M,M,M,M,M,M,M,M,M,M,50.00,K10U 241215Z AUTO 19006KT 10SM CLR 10/M00 A3012 RMK AO2,M
TMT,2024-06-24 12:15,-117.1971,39.4643,1749.34,40.30,27.30,59.46,0.00,0.00,0.00,30.21,M,10.00,M,CLR,M,M,M,M,M,M,M,M,M,M,M,M,M,M,40.30,KTMT 241215Z AUTO 00000KT 10SM CLR 05/M03 A3021 RMK AO2 T00461026,M
BVU,2024-06-24 12:35,-114.8611,35.9475,671.00,86.00,59.00,40.14,0.00,0.00,0.00,29.86,M,10.00,M,CLR,M,M,M,M,M,M,M,M,M,M,M,M,M,M,85.47,KBVU 241235Z AUTO 00000KT 10SM CLR 30/15 A2986 RMK AO2,M
CXP,2024-06-24 12:35,-119.7326,39.1923,1431.00,57.20,39.20,50.91,0.00,0.00,0.00,30.12,M,10.00,M,CLR,M,M,M,M,M,M,M,M,M,M,M,M,M,M,57.20,KCXP 241235Z AUTO 00000KT 10SM CLR 14/04 A3012 RMK AO2,M
RTS,2024-06-24 12:35,-119.8764,39.6682,1539.00,51.80,30.20,43.32,0.00,0.00,0.00,30.14,M,10.00,M,CLR,M,M,M,M,M,M,M,M,M,M,M,M,M,M,51.80,KRTS 241235Z AUTO 00000KT 10SM CLR 11/M01 A3014 RMK AO2,M
MEV,2024-06-24 12:35,-119.7500,38.9963,1441.42,51.80,42.80,71.26,0.00,0.00,0.00,30.11,M,10.00,M,CLR,M,M,M,M,M,M,M,M,M,M,M,M,M,M,51.80,KMEV 241235Z AUTO 00000KT 10SM CLR 11/06 A3011 RMK AO2,M
BAM,2024-06-24 12:35,-116.8743,40.5990,1382.36,55.40,32.00,40.84,190.00,6.00,0.00,30.11,M,10.00,M,CLR,M,M,M,M,M,M,M,M,M,M,M,M,M,M,55.40,KBAM 241235Z AUTO 19006KT 10SM CLR 13/00 A3011 RMK AO1,M
HTH,2024-06-24 12:35,-118.6315,38.5448,1282.89,66.20,37.40,34.51,120.00,4.00,0.00,30.09,M,10.00,M,CLR,M,M,M,M,M,M,M,M,M,M,M,M,M,M,66.20,KHTH 241235Z AUTO 12004KT 10SM CLR 19/03 A3009 RMK A01,M
TMT,2024-06-24 12:35,-117.1971,39.4643,1749.34,41.40,27.00,56.28,0.00,0.00,0.00,30.21,M,10.00,M,CLR,M,M,M,M,M,M,M,M,M,M,M,M,M,M,41.40,KTMT 241235Z AUTO 00000KT 10SM CLR 05/M03 A3021 RMK AO2 T00521028,M
10U,2024-06-24 12:35,-116.1876,41.9532,1637.00,51.80,33.80,50.08,170.00,8.00,0.00,30.12,M,10.00,M,CLR,M,M,M,M,M,M,M,M,M,M,M,M,M,M,51.80,K10U 241235Z AUTO 17008KT 10SM CLR 11/01 A3012 RMK AO2,M
P68,2024-06-24 12:53,-116.0056,39.6014,1993.00,53.00,31.00,42.81,140.00,4.00,0.00,30.20,1013.50,M,M,M,M,M,M,M,M,M,M,M,M,M,M,M,M,M,53.00,KP68 241253Z AUTO 14004KT 12/M01 A3020 RMK AO1 SLP135 T01171006,M
DRA,2024-06-24 12:53,-116.0278,36.6206,1009.00,80.00,47.00,31.37,10.00,6.00,0.00,29.94,1007.80,10.00,M,CLR,M,M,M,M,M,M,M,M,M,M,M,M,M,M,79.28,KDRA 241253Z AUTO 01006KT 10SM CLR 27/08 A2994 RMK AO2 SLP078 T02670083,M
ELY,2024-06-24 12:53,-114.8453,39.2950,1909.00,51.00,27.00,39.14,190.00,9.00,0.00,30.20,1012.40,10.00,M,CLR,M,M,M,M,M,M,M,M,M,M,M,M,M,M,51.00,KELY 241253Z AUTO 19009KT 10SM CLR 11/M03 A3020 RMK AO2 SLP124 T01061028,M
VGT,2024-06-24 12:53,-115.1933,36.2111,667.00,92.00,53.00,26.72,0.00,0.00,0.00,29.86,1009.10,10.00,M,CLR,M,M,M,M,M,M,M,M,M,M,M,M,M,M,89.53,KVGT 241253Z AUTO 00000KT 10SM CLR 33/12 A2986 RMK AO2 SLP091 T03330117,M
LOL,2024-06-24 12:53,-118.5701,40.0684,1192.43,53.00,32.00,44.58,120.00,4.00,0.00,30.06,1014.10,10.00,M,CLR,M,M,M,M,M,M,M,M,M,M,M,M,M,M,53.00,KLOL 241253Z AUTO 12004KT 10SM CLR 12/00 A3006 RMK AO2 SLP141 T01170000,M
BVU,2024-06-24 12:55,-114.8611,35.9475,671.00,82.40,60.80,48.05,0.00,0.00,0.00,29.87,M,10.00,M,CLR,M,M,M,M,M,M,M,M,M,M,M,M,M,M,82.90,KBVU 241255Z AUTO 00000KT 10SM CLR 28/16 A2987 RMK AO2,M
CXP,2024-06-24 12:55,-119.7326,39.1923,1431.00,59.00,39.20,47.72,0.00,0.00,0.00,30.13,M,10.00,M,CLR,M,M,M,M,M,M,M,M,M,M,M,M,M,M,59.00,KCXP 241255Z AUTO 00000KT 10SM CLR 15/04 A3013 RMK AO2,M
RNO,2024-06-24 12:55,-119.7711,39.4839,1341.00,65.00,41.00,41.41,240.00,4.00,0.00,30.11,1013.50,10.00,M,CLR,M,M,M,M,M,M,M,M,M,M,M,M,M,M,65.00,KRNO 241255Z 24004KT 10SM CLR 18/05 A3011 RMK AO2 SLP135 T01830050,M
RTS,2024-06-24 12:55,-119.8764,39.6682,1539.00,53.60,33.80,46.88,350.00,4.00,0.00,30.15,M,10.00,M,CLR,M,M,M,M,M,M,M,M,M,M,M,M,M,M,53.60,KRTS 241255Z AUTO 35004KT 10SM CLR 12/01 A3015 RMK AO2,M
MEV,2024-06-24 12:55,-119.7500,38.9963,1441.42,50.00,41.00,71.07,100.00,3.00,0.00,30.11,M,10.00,M,CLR,M,M,M,M,M,M,M,M,M,M,M,M,M,M,50.00,KMEV 241255Z AUTO 10003KT 10SM CLR 10/05 A3011 RMK AO2,M
BAM,2024-06-24 12:55,-116.8743,40.5990,1382.36,59.00,32.00,35.87,0.00,0.00,0.00,30.12,M,10.00,M,CLR,M,M,M,M,M,M,M,M,M,M,M,M,M,M,59.00,KBAM 241255Z AUTO 00000KT 10SM CLR 15/00 A3012 RMK AO1,M
HTH,2024-06-24 12:55,-118.6315,38.5448,1282.89,66.20,37.40,34.51,170.00,4.00,0.00,30.10,M,10.00,M,CLR,M,M,M,M,M,M,M,M,M,M,M,M,M,M,66.20,KHTH 241255Z AUTO 17004KT 10SM CLR 19/03 A3010 RMK A01,M
10U,2024-06-24 12:55,-116.1876,41.9532,1637.00,53.60,35.60,50.36,150.00,7.00,0.00,30.13,M,10.00,M,CLR,M,M,M,M,M,M,M,M,M,M,M,M,M,M,53.60,K10U 241255Z AUTO 15007KT 10SM CLR 12/02 A3013 RMK AO2,M
TMT,2024-06-24 12:55,-117.1971,39.4643,1749.34,41.50,27.00,56.06,0.00,0.00,0.00,30.22,M,10.00,M,CLR,M,M,M,M,M,M,M,M,M,M,M,M,M,M,41.50,KTMT 241255Z AUTO 00000KT 10SM CLR 05/M03 A3022 RMK AO2 T00531028,M
INS,2024-06-24 12:55,-115.6733,36.5872,955.00,80.60,46.40,30.07,0.00,0.00,0.00,29.94,M,10.00,M,CLR,M,M,M,M,M,M,M,M,M,M,M,M,M,M,79.56,KINS 241255Z 00000KT 10SM CLR 27/08 A2994 RMK AO2A SLPNO RVRNO TSNO $,M
LSV,2024-06-24 12:55,-115.0343,36.2362,570.00,94.30,51.80,23.80,0.00,0.00,0.00,29.81,1006.10,10.00,M,CLR,M,M,M,M,M,M,M,M,M,M,M,M,M,M,91.55,KLSV 241255Z AUTO 00000KT 10SM CLR 35/11 A2981 RMK AO2 SLP061 T03460110 $,M
EKO,2024-06-24 12:56,-115.7860,40.8242,1367.00,58.00,36.00,43.62,180.00,3.00,0.00,30.13,1014.10,10.00,M,CLR,M,M,M,M,M,M,M,M,M,M,M,M,M,M,58.00,KEKO 241256Z AUTO 18003KT 10SM CLR 14/02 A3013 RMK AO2 SLP141 T01440022,M
WMC,2024-06-24 12:56,-117.8072,40.9019,1315.00,55.00,33.00,43.14,170.00,6.00,0.00,30.09,1013.70,10.00,M,CLR,M,M,M,M,M,M,M,M,M,M,M,M,M,M,55.00,KWMC 241256Z AUTO 17006KT 10SM CLR 13/01 A3009 RMK AO2 SLP137 T01280006,M
NFL,2024-06-24 12:56,-118.7010,39.4166,1199.00,62.00,35.00,36.35,170.00,3.00,0.00,30.06,1014.90,10.00,M,CLR,M,M,M,M,M,M,M,M,M,M,M,M,M,M,62.00,KNFL 241256Z AUTO 17003KT 10SM CLR 17/02 A3006 RMK AO2 SLP149 T01670017,M
HND,2024-06-24 12:56,-115.1344,35.9729,742.79,88.00,53.00,30.30,200.00,10.00,0.00,29.91,1010.50,10.00,M,CLR,M,M,M,M,M,M,M,M,M,M,M,M,M,M,85.78,KHND 241256Z 20010KT 10SM CLR 31/12 A2991 RMK AO2 SLP105 T03110117,M
TPH,2024-06-24 12:56,-117.0904,38.0505,1654.00,64.00,28.00,25.54,300.00,5.00,0.00,30.16,1012.30,10.00,M,FEW,M,M,M,12000.00,M,M,M,M,M,M,M,M,M,M,64.00,KTPH 241256Z AUTO 30005KT 10SM FEW120 18/M02 A3016 RMK AO2 SLP123 T01781022,M
LAS,2024-06-24 12:56,-115.1634,36.0719,663.00,91.00,53.00,27.57,170.00,8.00,0.00,29.87,1007.90,10.00,M,FEW,M,M,M,15000.00,M,M,M,M,M,M,M,M,M,M,88.55,KLAS 241256Z 17008KT 10SM FEW150 33/12 A2987 RMK AO2 SLP079 T03280117 $,M
BVU,2024-06-24 13:15,-114.8611,35.9475,671.00,84.20,60.80,45.34,0.00,0.00,0.00,29.87,M,10.00,M,CLR,M,M,M,M,M,M,M,M,M,M,M,M,M,M,84.43,KBVU 241315Z AUTO 00000KT 10SM CLR 29/16 A2987 RMK AO2,M
CXP,2024-06-24 13:15,-119.7326,39.1923,1431.00,59.00,41.00,51.18,0.00,0.00,0.00,30.13,M,10.00,M,CLR,M,M,M,M,M,M,M,M,M,M,M,M,M,M,59.00,KCXP 241315Z AUTO 00000KT 10SM CLR 15/05 A3013 RMK AO2,M
RTS,2024-06-24 13:15,-119.8764,39.6682,1539.00,53.60,32.00,43.61,0.00,0.00,0.00,30.15,M,10.00,M,CLR,M,M,M,M,M,M,M,M,M,M,M,M,M,M,53.60,KRTS 241315Z AUTO 00000KT 10SM CLR 12/00 A3015 RMK AO2,M
MEV,2024-06-24 13:15,-119.7500,38.9963,1441.42,51.80,42.80,71.26,0.00,0.00,0.00,30.12,M,10.00,M,CLR,M,M,M,M,M,M,M,M,M,M,M,M,M,M,51.80,KMEV 241315Z AUTO 00000KT 10SM CLR 11/06 A3012 RMK AO2,M
BAM,2024-06-24 13:15,-116.8743,40.5990,1382.36,55.40,32.00,40.84,0.00,0.00,0.00,30.12,M,10.00,M,CLR,M,M,M,M,M,M,M,M,M,M,M,M,M,M,55.40,KBAM 241315Z AUTO 00000KT 10SM CLR 13/00 A3012 RMK AO1,M
HTH,2024-06-24 13:15,-118.6315,38.5448,1282.89,68.00,37.40,32.43,190.00,3.00,0.00,30.10,M,10.00,M,CLR,M,M,M,M,M,M,M,M,M,M,M,M,M,M,68.00,KHTH 241315Z AUTO 19003KT 10SM CLR 20/03 A3010 RMK A01,M
10U,2024-06-24 13:15,-116.1876,41.9532,1637.00,57.20,35.60,44.19,190.00,4.00,0.00,30.14,M,10.00,M,CLR,M,M,M,M,M,M,M,M,M,M,M,M,M,M,57.20,K10U 241315Z AUTO 19004KT 10SM CLR 14/02 A3014 RMK AO2,M
TMT,2024-06-24 13:15,-117.1971,39.4643,1749.34,45.50,29.30,52.86,0.00,0.00,0.00,30.22,M,10.00,M,CLR,M,M,M,M,M,M,M,M,M,M,M,M,M,M,45.50,KTMT 241315Z AUTO 00000KT 10SM CLR 08/M01 A3022 RMK AO2 T00751015,M
BVU,2024-06-24 13:35,-114.8611,35.9475,671.00,87.80,59.00,37.90,130.00,4.00,0.00,29.88,M,10.00,M,CLR,M,M,M,M,M,M,M,M,M,M,M,M,M,M,87.12,KBVU 241335Z AUTO 13004KT 10SM CLR 31/15 A2988 RMK AO2,M
CXP,2024-06-24 13:35,-119.7326,39.1923,1431.00,60.80,42.80,51.45,0.00,0.00,0.00,30.14,M,10.00,M,CLR,M,M,M,M,M,M,M,M,M,M,M,M,M,M,60.80,KCXP 241335Z AUTO 00000KT 10SM CLR 16/06 A3014 RMK AO2,M
RTS,2024-06-24 13:35,-119.8764,39.6682,1539.00,57.20,33.80,41.13,0.00,0.00,0.00,30.15,M,10.00,M,CLR,M,M,M,M,M,M,M,M,M,M,M,M,M,M,57.20,KRTS 241335Z AUTO 00000KT 10SM CLR 14/01 A3015 RMK AO2,M
MEV,2024-06-24 13:35,-119.7500,38.9963,1441.42,55.40,42.80,62.46,0.00,0.00,0.00,30.12,M,10.00,M,CLR,M,M,M,M,M,M,M,M,M,M,M,M,M,M,55.40,KMEV 241335Z AUTO 00000KT 10SM CLR 13/06 A3012 RMK AO2,M
BAM,2024-06-24 13:35,-116.8743,40.5990,1382.36,59.00,32.00,35.87,0.00,0.00,0.00,30.12,M,10.00,M,CLR,M,M,M,M,M,M,M,M,M,M,M,M,M,M,59.00,KBAM 241335Z AUTO 00000KT 10SM CLR 15/00 A3012 RMK AO1,M
HTH,2024-06-24 13:35,-118.6315,38.5448,1282.89,71.60,39.20,30.77,0.00,0.00,0.00,30.10,M,10.00,M,CLR,M,M,M,M,M,M,M,M,M,M,M,M,M,M,71.60,KHTH 241335Z AUTO 00000KT 10SM CLR 22/04 A3010 RMK A01,M
10U,2024-06-24 13:35,-116.1876,41.9532,1637.00,62.60,37.40,39.14,160.00,4.00,0.00,30.14,M,10.00,M,CLR,M,M,M,M,M,M,M,M,M,M,M,M,M,M,62.60,K10U 241335Z AUTO 16004KT 10SM CLR 17/03 A3014 RMK AO2,M
TMT,2024-06-24 13:35,-117.1971,39.4643,1749.34,50.00,32.00,49.81,0.00,0.00,0.00,30.22,M,10.00,M,CLR,M,M,M,M,M,M,M,M,M,M,M,M,M,M,50.00,KTMT 241335Z AUTO 00000KT 10SM CLR 10/00 A3022 RMK AO2 T01000000,M
NFL,2024-06-24 13:42,-118.7010,39.4166,1199.00,68.00,37.00,31.92,0.00,0.00,0.00,30.07,M,10.00,M,CLR,M,M,M,M,M,M,M,M,M,M,M,M,M,M,68.00,KNFL 241342Z 00000KT 10SM CLR 20/03 A3007 RMK AO2 T02000028,M
P68,2024-06-24 13:53,-116.0056,39.6014,1993.00,65.00,33.00,30.21,0.00,0.00,0.00,30.21,1013.10,M,M,M,M,M,M,M,M,M,M,M,M,M,M,M,M,M,65.00,KP68 241353Z AUTO 00000KT 18/01 A3021 RMK AO1 SLP131 T01830006,M
DRA,2024-06-24 13:53,-116.0278,36.6206,1009.00,86.00,49.00,27.85,210.00,3.00,0.00,29.96,1008.40,10.00,M,CLR,M,M,M,M,M,M,M,M,M,M,M,M,M,M,83.49,KDRA 241353Z AUTO 21003KT 10SM CLR 30/09 A2996 RMK AO2 SLP084 T03000094,M
ELY,2024-06-24 13:53,-114.8453,39.2950,1909.00,61.00,30.00,30.80,180.00,5.00,0.00,30.22,1011.80,10.00,M,CLR,M,M,M,M,M,M,M,M,M,M,M,M,M,M,61.00,KELY 241353Z AUTO 18005KT 10SM CLR 16/M01 A3022 RMK AO2 SLP118 T01611011,M
VGT,2024-06-24 13:53,-115.1933,36.2111,667.00,93.00,54.00,26.87,80.00,3.00,0.00,29.87,1009.50,10.00,M,CLR,M,M,M,M,M,M,M,M,M,M,M,M,M,M,90.76,KVGT 241353Z 08003KT 10SM CLR 34/12 A2987 RMK AO2 SLP095 T03390122,M
LOL,2024-06-24 13:53,-118.5701,40.0684,1192.43,60.00,36.00,40.61,0.00,0.00,0.00,30.07,1014.00,10.00,M,CLR,M,M,M,M,M,M,M,M,M,M,M,M,M,M,60.00,KLOL 241353Z AUTO 00000KT 10SM CLR 16/02 A3007 RMK AO2 SLP140 T01560022,M
BVU,2024-06-24 13:55,-114.8611,35.9475,671.00,89.60,57.20,33.56,200.00,4.00,0.00,29.88,M,10.00,M,CLR,M,M,M,M,M,M,M,M,M,M,M,M,M,M,88.28,KBVU 241355Z AUTO 20004KT 10SM CLR 32/14 A2988 RMK AO2,M
CXP,2024-06-24 13:55,-119.7326,39.1923,1431.00,62.60,41.00,45.04,0.00,0.00,0.00,30.14,M,10.00,M,SCT,M,M,M,7000.00,M,M,M,M,M,M,M,M,M,M,62.60,KCXP 241355Z AUTO 00000KT 10SM SCT070 17/05 A3014 RMK AO2,M
RNO,2024-06-24 13:55,-119.7711,39.4839,1341.00,67.00,43.00,41.72,0.00,0.00,0.00,30.11,1013.70,10.00,M,FEW,M,M,M,8000.00,M,M,M,M,M,M,M,M,M,M,67.00,KRNO 241355Z 00000KT 10SM FEW080 19/06 A3011 RMK AO2 SLP137 T01940061,M
RTS,2024-06-24 13:55,-119.8764,39.6682,1539.00,60.80,33.80,36.16,0.00,0.00,0.00,30.15,M,10.00,M,CLR,M,M,M,M,M,M,M,M,M,M,M,M,M,M,60.80,KRTS 241355Z AUTO 00000KT 10SM CLR 16/01 A3015 RMK AO2,M
MEV,2024-06-24 13:55,-119.7500,38.9963,1441.42,59.00,42.80,54.86,310.00,3.00,0.00,30.13,M,10.00,M,CLR,M,M,M,M,M,M,M,M,M,M,M,M,M,M,59.00,KMEV 241355Z AUTO 31003KT 10SM CLR 15/06 A3013 RMK AO2,M
BAM,2024-06-24 13:55,-116.8743,40.5990,1382.36,62.60,33.80,33.93,0.00,0.00,0.00,30.12,M,10.00,M,CLR,M,M,M,M,M,M,M,M,M,M,M,M,M,M,62.60,KBAM 241355Z AUTO 00000KT 10SM CLR 17/01 A3012 RMK AO1,M
HTH,2024-06-24 13:55,-118.6315,38.5448,1282.89,73.40,39.20,28.96,180.00,4.00,0.00,30.10,M,10.00,M,CLR,M,M,M,M,M,M,M,M,M,M,M,M,M,M,73.40,KHTH 241355Z AUTO 18004KT 10SM CLR 23/04 A3010 RMK A01,M
10U,2024-06-24 13:55,-116.1876,41.9532,1637.00,68.00,35.60,30.20,M,3.00,0.00,30.15,M,10.00,M,CLR,M,M,M,M,M,M,M,M,M,M,M,M,M,M,68.00,K10U 241355Z AUTO VRB03KT 10SM CLR 20/02 A3015 RMK AO2,M
TMT,2024-06-24 13:55,-117.1971,39.4643,1749.34,54.00,33.60,45.83,0.00,0.00,0.00,30.22,M,10.00,M,CLR,M,M,M,M,M,M,M,M,M,M,M,M,M,M,54.00,KTMT 241355Z AUTO 00000KT 10SM CLR 12/01 A3022 RMK AO2 T01230009,M
INS,2024-06-24 13:55,-115.6733,36.5872,955.00,M,M,M,50.00,3.00,0.00,M,M,10.00,M,M,M,M,M,M,M,M,M,M,M,M,M,M,M,M,M,KINS 241355Z AUTO 05003KT 10SM M M M RMK AO2 SLPNO RVRNO TSNO $,M
LSV,2024-06-24 13:55,-115.0343,36.2362,570.00,93.20,54.00,26.70,360.00,4.00,0.00,29.82,1006.60,10.00,M,CLR,M,M,M,M,M,M,M,M,M,M,M,M,M,M,90.97,KLSV 241355Z AUTO 36004KT 10SM CLR 34/12 A2982 RMK AO2 SLP066 T03400123 $,M
EKO,2024-06-24 13:56,-115.7860,40.8242,1367.00,67.00,37.00,33.04,200.00,3.00,0.00,30.15,1014.00,10.00,M,CLR,M,M,M,M,M,M,M,M,M,M,M,M,M,M,67.00,KEKO 241356Z AUTO 20003KT 10SM CLR 19/03 A3015 RMK AO2 SLP140 T01940028,M
WMC,2024-06-24 13:56,-117.8072,40.9019,1315.00,63.00,32.00,31.12,180.00,8.00,0.00,30.10,1013.60,10.00,M,CLR,M,M,M,M,M,M,M,M,M,M,M,M,M,M,63.00,KWMC 241356Z AUTO 18008KT 10SM CLR 17/00 A3010 RMK AO2 SLP136 T01720000,M
NFL,2024-06-24 13:56,-118.7010,39.4166,1199.00,71.00,37.00,28.81,0.00,0.00,0.00,30.07,1015.20,10.00,M,CLR,M,M,M,M,M,M,M,M,M,M,M,M,M,M,71.00,KNFL 241356Z 00000KT 10SM CLR 22/03 A3007 RMK AO2 SLP152 T02170028,M
HND,2024-06-24 13:56,-115.1344,35.9729,742.79,91.00,54.00,28.60,200.00,11.00,0.00,29.92,1010.80,10.00,M,CLR,M,M,M,M,M,M,M,M,M,M,M,M,M,M,88.78,KHND 241356Z 20011KT 10SM CLR 33/12 A2992 RMK AO2 SLP108 T03280122,M
TPH,2024-06-24 13:56,-117.0904,38.0505,1654.00,71.00,30.00,21.77,350.00,10.00,0.00,30.16,1011.90,10.00,M,CLR,M,M,M,M,M,M,M,M,M,M,M,M,M,M,71.00,KTPH 241356Z AUTO 35010KT 10SM CLR 22/M01 A3016 RMK AO2 SLP119 T02171011,M
LAS,2024-06-24 13:56,-115.1634,36.0719,663.00,93.00,54.00,26.87,170.00,5.00,0.00,29.88,1008.30,10.00,M,FEW,M,M,M,15000.00,M,M,M,M,M,M,M,M,M,M,90.76,KLAS 241356Z 17005KT 10SM FEW150 34/12 A2988 RMK AO2 SLP083 T03390122 $,M
INS,2024-06-24 14:12,-115.6733,36.5872,955.00,82.40,44.60,26.49,50.00,3.00,0.00,M,M,10.00,M,CLR,M,M,M,M,M,M,M,M,M,M,M,M,M,M,80.50,KINS 241412Z AUTO 05003KT 10SM SKC 28/07 RMK AO2 SLPNO RVRNO TSNO $,M
BVU,2024-06-24 14:15,-114.8611,35.9475,671.00,91.40,59.00,33.84,190.00,6.00,0.00,29.89,M,10.00,M,CLR,M,M,M,M,M,M,M,M,M,M,M,M,M,M,90.68,KBVU 241415Z AUTO 19006KT 10SM CLR 33/15 A2989 RMK AO2,M
CXP,2024-06-24 14:15,-119.7326,39.1923,1431.00,66.20,41.00,39.72,0.00,0.00,0.00,30.14,M,10.00,M,SCT,SCT,M,M,6500.00,7500.00,M,M,M,M,M,M,M,M,M,66.20,KCXP 241415Z AUTO 00000KT 10SM SCT065 SCT075 19/05 A3014 RMK AO2,M
RTS,2024-06-24 14:15,-119.8764,39.6682,1539.00,62.60,35.60,36.45,0.00,0.00,0.00,30.15,M,10.00,M,CLR,M,M,M,M,M,M,M,M,M,M,M,M,M,M,62.60,KRTS 241415Z AUTO 00000KT 10SM CLR 17/02 A3015 RMK AO2,M
MEV,2024-06-24 14:15,-119.7500,38.9963,1441.42,62.60,42.80,48.28,0.00,0.00,0.00,30.12,M,10.00,M,CLR,M,M,M,M,M,M,M,M,M,M,M,M,M,M,62.60,KMEV 241415Z AUTO 00000KT 10SM CLR 17/06 A3012 RMK AO2,M
BAM,2024-06-24 14:15,-116.8743,40.5990,1382.36,68.00,35.60,30.20,0.00,0.00,0.00,30.13,M,10.00,M,CLR,M,M,M,M,M,M,M,M,M,M,M,M,M,M,68.00,KBAM 241415Z AUTO 00000KT 10SM CLR 20/02 A3013 RMK AO1,M
HTH,2024-06-24 14:15,-118.6315,38.5448,1282.89,75.20,41.00,29.23,0.00,0.00,0.00,30.11,M,10.00,M,CLR,M,M,M,M,M,M,M,M,M,M,M,M,M,M,75.20,KHTH 241415Z AUTO 00000KT 10SM CLR 24/05 A3011 RMK A01,M
10U,2024-06-24 14:15,-116.1876,41.9532,1637.00,66.20,39.20,37.03,0.00,0.00,0.00,30.15,M,10.00,M,CLR,M,M,M,M,M,M,M,M,M,M,M,M,M,M,66.20,K10U 241415Z AUTO 00000KT 10SM CLR 19/04 A3015 RMK AO2,M
TMT,2024-06-24 14:15,-117.1971,39.4643,1749.34,56.50,34.50,43.38,0.00,0.00,0.00,30.22,M,10.00,M,CLR,M,M,M,M,M,M,M,M,M,M,M,M,M,M,56.50,KTMT 241415Z AUTO 00000KT 10SM CLR 14/01 A3022 RMK AO2 T01360014,M
10U,2024-06-24 14:30,-116.1876,41.9532,1637.00,71.60,33.80,24.86,210.00,7.00,0.00,30.15,M,10.00,M,CLR,M,M,M,M,M,M,M,M,M,M,M,M,M,M,71.60,K10U 241430Z AUTO 21007KT 10SM CLR 22/01 A3015 RMK AO2,M
BVU,2024-06-24 14:35,-114.8611,35.9475,671.00,93.20,59.00,31.99,180.00,6.00,0.00,29.89,M,10.00,M,CLR,M,M,M,M,M,M,M,M,M,M,M,M,M,M,92.57,KBVU 241435Z AUTO 18006KT 10SM CLR 34/15 A2989 RMK AO2,M
CXP,2024-06-24 14:35,-119.7326,39.1923,1431.00,68.00,41.00,37.32,0.00,0.00,0.00,30.14,M,10.00,M,SCT,M,M,M,6500.00,M,M,M,M,M,M,M,M,M,M,68.00,KCXP 241435Z AUTO 00000KT 10SM SCT065 20/05 A3014 RMK AO2,M
RTS,2024-06-24 14:35,-119.8764,39.6682,1539.00,66.20,33.80,29.92,0.00,0.00,0.00,30.16,M,10.00,M,CLR,M,M,M,M,M,M,M,M,M,M,M,M,M,M,66.20,KRTS 241435Z AUTO 00000KT 10SM CLR 19/01 A3016 RMK AO2,M
MEV,2024-06-24 14:35,-119.7500,38.9963,1441.42,66.20,42.80,42.57,0.00,0.00,0.00,30.12,M,10.00,M,CLR,M,M,M,M,M,M,M,M,M,M,M,M,M,M,66.20,KMEV 241435Z AUTO 00000KT 10SM CLR 19/06 A3012 RMK AO2,M
BAM,2024-06-24 14:35,-116.8743,40.5990,1382.36,69.80,35.60,28.39,0.00,0.00,0.00,30.12,M,10.00,M,CLR,M,M,M,M,M,M,M,M,M,M,M,M,M,M,69.80,KBAM 241435Z AUTO 00000KT 10SM CLR 21/02 A3012 RMK AO1,M
HTH,2024-06-24 14:35,-118.6315,38.5448,1282.89,77.00,42.80,29.51,0.00,0.00,0.00,30.10,M,10.00,M,CLR,M,M,M,M,M,M,M,M,M,M,M,M,M,M,77.00,KHTH 241435Z AUTO 00000KT 10SM CLR 25/06 A3010 RMK A01,M
TMT,2024-06-24 14:35,-117.1971,39.4643,1749.34,59.00,35.00,40.45,0.00,0.00,0.00,30.22,M,10.00,M,CLR,M,M,M,M,M,M,M,M,M,M,M,M,M,M,59.00,KTMT 241435Z AUTO 00000KT 10SM CLR 15/02 A3022 RMK AO2 T01510016,M
P68,2024-06-24 14:53,-116.0056,39.6014,1993.00,74.00,31.00,20.48,0.00,0.00,0.00,30.20,1012.70,M,M,M,M,M,M,M,M,M,M,M,M,M,M,M,M,M,74.00,KP68 241453Z AUTO 00000KT 23/M01 A3020 RMK AO1 SLP127 T02331006 50006,M
DRA,2024-06-24 14:53,-116.0278,36.6206,1009.00,89.00,50.00,26.28,260.00,5.00,0.00,29.98,1008.80,10.00,M,CLR,M,M,M,M,M,M,M,M,M,M,M,M,M,M,86.16,KDRA 241453Z AUTO 26005KT 10SM CLR 32/10 A2998 RMK AO2 SLP088 T03170100 51017,M
ELY,2024-06-24 14:53,-114.8453,39.2950,1909.00,73.00,31.00,21.18,160.00,7.00,0.00,30.22,1011.50,10.00,M,CLR,M,M,M,M,M,M,M,M,M,M,M,M,M,M,73.00,KELY 241453Z AUTO 16007KT 10SM CLR 23/M01 A3022 RMK AO2 SLP115 T02281006 51011,M
VGT,2024-06-24 14:53,-115.1933,36.2111,667.00,95.00,54.00,25.26,120.00,7.00,0.00,29.88,1009.80,10.00,M,CLR,M,M,M,M,M,M,M,M,M,M,M,M,M,M,92.82,KVGT 241453Z 12007KT 10SM CLR 35/12 A2988 RMK AO2 SLP098 T03500122 51013,M
LOL,2024-06-24 14:53,-118.5701,40.0684,1192.43,72.00,38.00,28.96,0.00,0.00,0.00,30.07,1013.60,10.00,M,CLR,M,M,M,M,M,M,M,M,M,M,M,M,M,M,72.00,KLOL 241453Z AUTO 00000KT 10SM CLR 22/03 A3007 RMK AO2 SLP136 T02220033 51007,M
BVU,2024-06-24 14:55,-114.8611,35.9475,671.00,93.20,59.00,31.99,160.00,6.00,0.00,29.89,M,10.00,M,CLR,M,M,M,M,M,M,M,M,M,M,M,M,M,M,92.57,KBVU 241455Z AUTO 16006KT 10SM CLR 34/15 A2989 RMK AO2,M
CXP,2024-06-24 14:55,-119.7326,39.1923,1431.00,71.60,41.00,33.00,0.00,0.00,0.00,30.14,M,10.00,M,FEW,M,M,M,6500.00,M,M,M,M,M,M,M,M,M,M,71.60,KCXP 241455Z AUTO 00000KT 10SM FEW065 22/05 A3014 RMK AO2,M
RNO,2024-06-24 14:55,-119.7711,39.4839,1341.00,72.00,44.00,36.54,0.00,0.00,0.00,30.12,1013.70,10.00,M,FEW,M,M,M,8000.00,M,M,M,M,M,M,M,M,M,M,72.00,KRNO 241455Z 00000KT 10SM FEW080 22/07 A3012 RMK AO2 SLP137 T02220067 51003,M
RTS,2024-06-24 14:55,-119.8764,39.6682,1539.00,68.00,37.40,32.43,0.00,0.00,0.00,30.16,M,10.00,M,CLR,M,M,M,M,M,M,M,M,M,M,M,M,M,M,68.00,KRTS 241455Z AUTO 00000KT 10SM CLR 20/03 A3016 RMK AO2,M
MEV,2024-06-24 14:55,-119.7500,38.9963,1441.42,68.00,44.60,42.85,0.00,0.00,0.00,30.12,M,10.00,M,CLR,M,M,M,M,M,M,M,M,M,M,M,M,M,M,68.00,KMEV 241455Z AUTO 00000KT 10SM CLR 20/07 A3012 RMK AO2,M
BAM,2024-06-24 14:55,-116.8743,40.5990,1382.36,73.40,35.60,25.13,0.00,0.00,0.00,30.12,M,10.00,M,CLR,M,M,M,M,M,M,M,M,M,M,M,M,M,M,73.40,KBAM 241455Z AUTO 00000KT 10SM CLR 23/02 A3012 RMK AO1,M
HTH,2024-06-24 14:55,-118.6315,38.5448,1282.89,78.80,42.80,27.81,0.00,0.00,0.00,30.11,M,10.00,M,CLR,M,M,M,M,M,M,M,M,M,M,M,M,M,M,78.80,KHTH 241455Z AUTO 00000KT 10SM CLR 26/06 A3011 RMK A01,M
TMT,2024-06-24 14:55,-117.1971,39.4643,1749.34,63.00,36.30,36.95,0.00,0.00,0.00,30.22,M,10.00,M,CLR,M,M,M,M,M,M,M,M,M,M,M,M,M,M,63.00,KTMT 241455Z AUTO 00000KT 10SM CLR 17/02 A3022 RMK AO2 T01730024,M
10U,2024-06-24 14:55,-116.1876,41.9532,1637.00,73.40,32.00,21.76,210.00,10.00,0.00,30.15,M,10.00,M,CLR,M,M,M,M,M,M,M,M,M,M,M,M,M,M,73.40,K10U 241455Z AUTO 21010KT 10SM CLR 23/00 A3015 RMK AO2,M
INS,2024-06-24 14:55,-115.6733,36.5872,955.00,84.00,41.00,21.90,0.00,0.00,0.00,29.96,M,10.00,M,M,M,M,M,M,M,M,M,M,M,M,M,M,M,M,81.37,KINS 241455Z AUTO 00000KT 10SM M 29/05 A2996 RMK AO2 SLPNO T02890050 $,M
LSV,2024-06-24 14:55,-115.0343,36.2362,570.00,96.40,53.60,23.84,60.00,3.00,0.00,29.83,1006.80,10.00,M,CLR,M,M,M,M,M,M,M,M,M,M,M,M,M,M,94.17,KLSV 241455Z AUTO 06003KT 10SM CLR 36/12 A2983 RMK AO2 SLP068 T03580120 52013 $,M
EKO,2024-06-24 14:56,-115.7860,40.8242,1367.00,74.00,37.00,26.03,240.00,4.00,0.00,30.15,1014.10,10.00,M,CLR,M,M,M,M,M,M,M,M,M,M,M,M,M,M,74.00,KEKO 241456Z AUTO 24004KT 10SM CLR 23/03 A3015 RMK AO2 SLP141 T02330028 51012,M
WMC,2024-06-24 14:56,-117.8072,40.9019,1315.00,71.00,35.00,26.62,140.00,4.00,0.00,30.10,1013.50,10.00,M,CLR,M,M,M,M,M,M,M,M,M,M,M,M,M,M,71.00,KWMC 241456Z AUTO 14004KT 10SM CLR 22/02 A3010 RMK AO2 SLP135 T02170017 51007,M
NFL,2024-06-24 14:56,-118.7010,39.4166,1199.00,76.00,43.00,30.75,270.00,3.00,0.00,30.07,1015.20,10.00,M,CLR,M,M,M,M,M,M,M,M,M,M,M,M,M,M,76.00,KNFL 241456Z 27003KT 10SM CLR 24/06 A3007 RMK AO2 SLP152 T02440061 50006,M
HND,2024-06-24 14:56,-115.1344,35.9729,742.79,95.00,54.00,25.26,210.00,11.00,0.00,29.93,1011.00,10.00,M,CLR,M,M,M,M,M,M,M,M,M,M,M,M,M,M,92.82,KHND 241456Z 21011KT 10SM CLR 35/12 A2993 RMK AO2 SLP110 T03500122 51008,M
TPH,2024-06-24 14:56,-117.0904,38.0505,1654.00,78.00,32.00,18.67,10.00,8.00,0.00,30.17,1011.90,10.00,M,CLR,M,M,M,M,M,M,M,M,M,M,M,M,M,M,78.00,KTPH 241456Z AUTO 01008KT 10SM CLR 26/00 A3017 RMK AO2 SLP119 T02560000 51012,M
LAS,2024-06-24 14:56,-115.1634,36.0719,663.00,96.00,53.00,23.61,170.00,8.00,0.00,29.89,1008.70,10.00,M,FEW,M,M,M,15000.00,M,M,M,M,M,M,M,M,M,M,93.59,KLAS 241456Z 17008KT 10SM FEW150 36/12 A2989 RMK AO2 SLP087 T03560117 51013 $,M
INS,2024-06-24 15:08,-115.6733,36.5872,955.00,84.00,41.00,21.90,0.00,0.00,0.00,29.96,M,10.00,M,CLR,M,M,M,M,M,M,M,M,M,M,M,M,M,M,81.37,KINS 241508Z AUTO 00000KT 10SM CLR 29/05 A2996 RMK AO2 SLPNO T02890050 $,M
BVU,2024-06-24 15:15,-114.8611,35.9475,671.00,93.20,57.20,29.99,190.00,8.00,0.00,29.89,M,10.00,M,CLR,M,M,M,M,M,M,M,M,M,M,M,M,M,M,91.91,KBVU 241515Z AUTO 19008KT 10SM CLR 34/14 A2989 RMK AO2,M
CXP,2024-06-24 15:15,-119.7326,39.1923,1431.00,73.40,42.80,33.29,0.00,0.00,0.00,30.14,M,10.00,M,CLR,M,M,M,M,M,M,M,M,M,M,M,M,M,M,73.40,KCXP 241515Z AUTO 00000KT 10SM CLR 23/06 A3014 RMK AO2,M
RTS,2024-06-24 15:15,-119.8764,39.6682,1539.00,71.60,35.60,26.71,0.00,0.00,0.00,30.16,M,10.00,M,CLR,M,M,M,M,M,M,M,M,M,M,M,M,M,M,71.60,KRTS 241515Z AUTO 00000KT 10SM CLR 22/02 A3016 RMK AO2,M
MEV,2024-06-24 15:15,-119.7500,38.9963,1441.42,69.80,44.60,40.29,0.00,0.00,0.00,30.12,M,10.00,M,CLR,M,M,M,M,M,M,M,M,M,M,M,M,M,M,69.80,KMEV 241515Z AUTO 00000KT 10SM CLR 21/07 A3012 RMK AO2,M
BAM,2024-06-24 15:15,-116.8743,40.5990,1382.36,77.00,35.60,22.28,0.00,0.00,0.00,30.13,M,10.00,M,CLR,M,M,M,M,M,M,M,M,M,M,M,M,M,M,77.00,KBAM 241515Z AUTO 00000KT 10SM CLR 25/02 A3013 RMK AO1,M
HTH,2024-06-24 15:15,-118.6315,38.5448,1282.89,78.80,42.80,27.81,0.00,0.00,0.00,30.11,M,10.00,M,CLR,M,M,M,M,M,M,M,M,M,M,M,M,M,M,78.80,KHTH 241515Z AUTO 00000KT 10SM CLR 26/06 A3011 RMK A01,M
10U,2024-06-24 15:15,-116.1876,41.9532,1637.00,73.40,32.00,21.76,210.00,7.00,0.00,30.16,M,10.00,14.00,CLR,M,M,M,M,M,M,M,M,M,M,M,M,M,M,73.40,K10U 241515Z AUTO 21007G14KT 10SM CLR 23/00 A3016 RMK AO2,M
TMT,2024-06-24 15:15,-117.1971,39.4643,1749.34,67.00,37.40,33.57,0.00,0.00,0.00,30.22,M,10.00,M,CLR,M,M,M,M,M,M,M,M,M,M,M,M,M,M,67.00,KTMT 241515Z AUTO 00000KT 10SM CLR 19/03 A3022 RMK AO2 T01940030,M
HTH,2024-06-24 15:30,-118.6315,38.5448,1282.89,78.80,39.20,24.19,0.00,0.00,0.00,30.11,M,10.00,M,CLR,M,M,M,M,M,M,M,M,M,M,M,M,M,M,78.80,KHTH 241530Z AUTO 00000KT 10SM CLR 26/04 A3011 RMK A01,M
BVU,2024-06-24 15:35,-114.8611,35.9475,671.00,93.20,57.20,29.99,180.00,6.00,0.00,29.89,M,10.00,M,CLR,M,M,M,M,M,M,M,M,M,M,M,M,M,M,91.91,KBVU 241535Z AUTO 18006KT 10SM CLR 34/14 A2989 RMK AO2,M
CXP,2024-06-24 15:35,-119.7326,39.1923,1431.00,75.20,41.00,29.23,0.00,0.00,0.00,30.14,M,10.00,M,FEW,M,M,M,7000.00,M,M,M,M,M,M,M,M,M,M,75.20,KCXP 241535Z AUTO 00000KT 10SM FEW070 24/05 A3014 RMK AO2,M
RTS,2024-06-24 15:35,-119.8764,39.6682,1539.00,73.40,35.60,25.13,130.00,3.00,0.00,30.16,M,10.00,M,CLR,M,M,M,M,M,M,M,M,M,M,M,M,M,M,73.40,KRTS 241535Z AUTO 13003KT 10SM CLR 23/02 A3016 RMK AO2,M
MEV,2024-06-24 15:35,-119.7500,38.9963,1441.42,73.40,44.60,35.66,M,4.00,0.00,30.12,M,6.00,M,CLR,M,M,M,M,M,M,M,HZ,M,M,M,M,M,M,73.40,KMEV 241535Z AUTO VRB04KT 6SM HZ CLR 23/07 A3012 RMK AO2,M
BAM,2024-06-24 15:35,-116.8743,40.5990,1382.36,78.80,33.80,19.55,0.00,0.00,0.00,30.13,M,10.00,M,CLR,M,M,M,M,M,M,M,M,M,M,M,M,M,M,78.80,KBAM 241535Z AUTO 00000KT 10SM CLR 26/01 A3013 RMK AO1,M
10U,2024-06-24 15:35,-116.1876,41.9532,1637.00,75.20,33.80,22.02,220.00,10.00,0.00,30.16,M,10.00,15.00,CLR,M,M,M,M,M,M,M,M,M,M,M,M,M,M,75.20,K10U 241535Z AUTO 22010G15KT 10SM CLR 24/01 A3016 RMK AO2,M
TMT,2024-06-24 15:35,-117.1971,39.4643,1749.34,70.30,37.00,29.50,0.00,0.00,0.00,30.22,M,10.00,M,CLR,M,M,M,M,M,M,M,M,M,M,M,M,M,M,70.30,KTMT 241535Z AUTO 00000KT 10SM CLR 21/03 A3022 RMK AO2 T02130028,M
P68,2024-06-24 15:53,-116.0056,39.6014,1993.00,80.00,31.00,16.79,M,5.00,0.00,30.20,1012.60,M,M,M,M,M,M,M,M,M,M,M,M,M,M,M,M,M,78.49,KP68 241553Z AUTO VRB05KT 27/M01 A3020 RMK AO1 SLP126 T02671006,M
DRA,2024-06-24 15:53,-116.0278,36.6206,1009.00,91.00,51.00,25.61,210.00,4.00,0.00,29.98,1009.20,10.00,M,CLR,M,M,M,M,M,M,M,M,M,M,M,M,M,M,88.16,KDRA 241553Z AUTO 21004KT 10SM CLR 33/11 A2998 RMK AO2 SLP092 T03280106,M
ELY,2024-06-24 15:53,-114.8453,39.2950,1909.00,79.00,29.00,15.99,0.00,0.00,0.00,30.22,1011.90,10.00,M,CLR,M,M,M,M,M,M,M,M,M,M,M,M,M,M,79.00,KELY 241553Z AUTO 00000KT 10SM CLR 26/M02 A3022 RMK AO2 SLP119 T02611017,M
VGT,2024-06-24 15:53,-115.1933,36.2111,667.00,97.00,55.00,24.63,110.00,7.00,0.00,29.88,1009.90,10.00,M,CLR,M,M,M,M,M,M,M,M,M,M,M,M,M,M,95.23,KVGT 241553Z 11007KT 10SM CLR 36/13 A2988 RMK AO2 SLP099 T03610128,M
LOL,2024-06-24 15:53,-118.5701,40.0684,1192.43,78.00,35.00,21.05,0.00,0.00,0.00,30.08,1013.60,10.00,M,CLR,M,M,M,M,M,M,M,M,M,M,M,M,M,M,78.00,KLOL 241553Z AUTO 00000KT 10SM CLR 26/02 A3008 RMK AO2 SLP136 T02560017,M
BVU,2024-06-24 15:55,-114.8611,35.9475,671.00,96.80,57.20,26.84,150.00,7.00,0.00,29.89,M,10.00,M,CLR,M,M,M,M,M,M,M,M,M,M,M,M,M,M,95.77,KBVU 241555Z AUTO 15007KT 10SM CLR 36/14 A2989 RMK AO2,M
CXP,2024-06-24 15:55,-119.7326,39.1923,1431.00,77.00,39.20,25.67,M,3.00,0.00,30.14,M,10.00,M,FEW,M,M,M,7000.00,M,M,M,M,M,M,M,M,M,M,77.00,KCXP 241555Z AUTO VRB03KT 10SM FEW070 25/04 A3014 RMK AO2,M
RNO,2024-06-24 15:55,-119.7711,39.4839,1341.00,76.00,43.00,30.75,0.00,0.00,0.00,30.11,1013.40,10.00,M,FEW,M,M,M,8000.00,M,M,M,M,M,M,M,M,M,M,76.00,KRNO 241555Z 00000KT 10SM FEW080 24/06 A3011 RMK AO2 SLP134 T02440061,M
RTS,2024-06-24 15:55,-119.8764,39.6682,1539.00,73.40,35.60,25.13,0.00,0.00,0.00,30.16,M,10.00,M,CLR,M,M,M,M,M,M,M,M,M,M,M,M,M,M,73.40,KRTS 241555Z AUTO 00000KT 10SM CLR 23/02 A3016 RMK AO2,M
MEV,2024-06-24 15:55,-119.7500,38.9963,1441.42,77.00,44.60,31.62,350.00,4.00,0.00,30.12,M,9.00,M,CLR,M,M,M,M,M,M,M,M,M,M,M,M,M,M,77.00,KMEV 241555Z AUTO 35004KT 9SM CLR 25/07 A3012 RMK AO2,M
BAM,2024-06-24 15:55,-116.8743,40.5990,1382.36,82.40,33.80,17.38,210.00,3.00,0.00,30.13,M,10.00,M,CLR,M,M,M,M,M,M,M,M,M,M,M,M,M,M,80.03,KBAM 241555Z AUTO 21003KT 10SM CLR 28/01 A3013 RMK AO1,M
HTH,2024-06-24 15:55,-118.6315,38.5448,1282.89,80.60,37.40,21.25,300.00,4.00,0.00,30.10,M,10.00,M,CLR,M,M,M,M,M,M,M,M,M,M,M,M,M,M,79.02,KHTH 241555Z AUTO 30004KT 10SM CLR 27/03 A3010 RMK A01,M
10U,2024-06-24 15:55,-116.1876,41.9532,1637.00,77.00,33.80,20.74,210.00,10.00,0.00,30.16,M,10.00,16.00,CLR,M,M,M,M,M,M,M,M,M,M,M,M,M,M,77.00,K10U 241555Z AUTO 21010G16KT 10SM CLR 25/01 A3016 RMK AO2,M
INS,2024-06-24 15:55,-115.6733,36.5872,955.00,90.70,45.30,20.88,0.00,0.00,0.00,29.96,M,10.00,M,CLR,M,M,M,M,M,M,M,M,M,M,M,M,M,M,87.11,KINS 241555Z AUTO 00000KT 10SM CLR 33/07 A2996 RMK AO2 SLPNO T03260074 $,M
TMT,2024-06-24 15:55,-117.1971,39.4643,1749.34,72.50,37.00,27.38,0.00,0.00,0.00,30.22,M,10.00,M,CLR,M,M,M,M,M,M,M,M,M,M,M,M,M,M,72.50,KTMT 241555Z AUTO 00000KT 10SM CLR 23/03 A3022 RMK AO2 T02250027,M
LSV,2024-06-24 15:55,-115.0343,36.2362,570.00,97.70,56.00,25.01,110.00,8.00,0.00,29.83,1006.90,10.00,M,CLR,M,M,M,M,M,M,M,M,M,M,M,M,M,M,96.32,KLSV 241555Z AUTO 11008KT 10SM CLR 37/13 A2983 RMK AO2 SLP069 T03650133 $,M
EKO,2024-06-24 15:56,-115.7860,40.8242,1367.00,80.00,35.00,19.71,220.00,4.00,0.00,30.15,1014.50,10.00,M,CLR,M,M,M,M,M,M,M,M,M,M,M,M,M,M,78.63,KEKO 241556Z AUTO 22004KT 10SM CLR 27/02 A3015 RMK AO2 SLP145 T02670017,M
WMC,2024-06-24 15:56,-117.8072,40.9019,1315.00,81.00,31.00,16.25,0.00,0.00,0.00,30.09,1013.50,10.00,M,CLR,M,M,M,M,M,M,M,M,M,M,M,M,M,M,79.04,KWMC 241556Z AUTO 00000KT 10SM CLR 27/M01 A3009 RMK AO2 SLP135 T02721006,M
NFL,2024-06-24 15:56,-118.7010,39.4166,1199.00,83.00,39.00,20.93,M,3.00,0.00,30.08,1015.20,10.00,M,CLR,M,M,M,M,M,M,M,M,M,M,M,M,M,M,80.60,KNFL 241556Z VRB03KT 10SM CLR 28/04 A3008 RMK AO2 SLP152 T02830039,M
HND,2024-06-24 15:56,-115.1344,35.9729,742.79,99.00,54.00,22.35,200.00,11.00,0.00,29.92,1010.90,10.00,M,CLR,M,M,M,M,M,M,M,M,M,M,M,M,M,M,97.06,KHND 241556Z 20011KT 10SM CLR 37/12 A2992 RMK AO2 SLP109 T03720122,M
TPH,2024-06-24 15:56,-117.0904,38.0505,1654.00,83.00,33.00,16.50,340.00,6.00,0.00,30.17,1011.60,10.00,M,CLR,M,M,M,M,M,M,M,M,M,M,M,M,M,M,80.43,KTPH 241556Z AUTO 34006KT 10SM CLR 28/01 A3017 RMK AO2 SLP116 T02830006,M
LAS,2024-06-24 15:56,-115.1634,36.0719,663.00,100.00,53.00,20.90,160.00,8.00,0.00,29.89,1008.50,10.00,M,FEW,FEW,M,M,15000.00,25000.00,M,M,M,M,M,M,M,M,M,97.82,KLAS 241556Z 16008KT 10SM FEW150 FEW250 38/12 A2989 RMK AO2 SLP085 T03780117 $,M
BVU,2024-06-24 16:15,-114.8611,35.9475,671.00,96.80,57.20,26.84,160.00,7.00,0.00,29.89,M,10.00,M,CLR,M,M,M,M,M,M,M,M,M,M,M,M,M,M,95.77,KBVU 241615Z AUTO 16007KT 10SM CLR 36/14 A2989 RMK AO2,M
CXP,2024-06-24 16:15,-119.7326,39.1923,1431.00,78.80,41.00,25.95,0.00,0.00,0.00,30.13,M,10.00,M,CLR,M,M,M,M,M,M,M,M,M,M,M,M,M,M,78.80,KCXP 241615Z AUTO 00000KT 10SM CLR 26/05 A3013 RMK AO2,M
RTS,2024-06-24 16:15,-119.8764,39.6682,1539.00,75.20,35.60,23.66,0.00,0.00,0.00,30.15,M,10.00,M,CLR,M,M,M,M,M,M,M,M,M,M,M,M,M,M,75.20,KRTS 241615Z AUTO 00000KT 10SM CLR 24/02 A3015 RMK AO2,M
MEV,2024-06-24 16:15,-119.7500,38.9963,1441.42,80.60,41.00,24.46,0.00,0.00,0.00,30.11,M,10.00,M,CLR,M,M,M,M,M,M,M,M,M,M,M,M,M,M,79.20,KMEV 241615Z AUTO 00000KT 10SM CLR 27/05 A3011 RMK AO2,M
HTH,2024-06-24 16:15,-118.6315,38.5448,1282.89,80.60,39.20,22.81,0.00,0.00,0.00,30.10,M,10.00,M,CLR,M,M,M,M,M,M,M,M,M,M,M,M,M,M,79.10,KHTH 241615Z AUTO 00000KT 10SM CLR 27/04 A3010 RMK A01,M
10U,2024-06-24 16:15,-116.1876,41.9532,1637.00,77.00,33.80,20.74,230.00,8.00,0.00,30.16,M,10.00,14.00,CLR,M,M,M,M,M,M,M,M,M,M,M,M,M,M,77.00,K10U 241615Z AUTO 23008G14KT 10SM CLR 25/01 A3016 RMK AO2,M
BAM,2024-06-24 16:15,-116.8743,40.5990,1382.36,82.40,32.00,16.17,210.00,6.00,0.00,30.12,M,10.00,M,CLR,M,M,M,M,M,M,M,M,M,M,M,M,M,M,80.00,KBAM 241615Z AUTO 21006KT 10SM CLR 28/00 A3012 RMK AO1,M
TMT,2024-06-24 16:15,-117.1971,39.4643,1749.34,75.70,37.00,24.59,50.00,4.00,0.00,30.22,M,10.00,M,CLR,M,M,M,M,M,M,M,M,M,M,M,M,M,M,75.70,KTMT 241615Z AUTO 05004KT 10SM CLR 24/03 A3022 RMK AO2 T02430027,M
BVU,2024-06-24 16:35,-114.8611,35.9475,671.00,96.80,55.40,25.15,150.00,7.00,0.00,29.89,M,10.00,M,CLR,M,M,M,M,M,M,M,M,M,M,M,M,M,M,95.14,KBVU 241635Z AUTO 15007KT 10SM CLR 36/13 A2989 RMK AO2,M
CXP,2024-06-24 16:35,-119.7326,39.1923,1431.00,80.60,41.00,24.46,0.00,0.00,0.00,30.12,M,10.00,M,CLR,M,M,M,M,M,M,M,M,M,M,M,M,M,M,79.20,KCXP 241635Z AUTO 00000KT 10SM CLR 27/05 A3012 RMK AO2,M
RTS,2024-06-24 16:35,-119.8764,39.6682,1539.00,77.00,35.60,22.28,0.00,0.00,0.00,30.15,M,10.00,M,CLR,M,M,M,M,M,M,M,M,M,M,M,M,M,M,77.00,KRTS 241635Z AUTO 00000KT 10SM CLR 25/02 A3015 RMK AO2,M
MEV,2024-06-24 16:35,-119.7500,38.9963,1441.42,80.60,44.60,28.08,M,3.00,0.00,30.11,M,10.00,M,CLR,M,M,M,M,M,M,M,M,M,M,M,M,M,M,79.42,KMEV 241635Z AUTO VRB03KT 10SM CLR 27/07 A3011 RMK AO2,M
BAM,2024-06-24 16:35,-116.8743,40.5990,1382.36,86.00,32.00,14.40,210.00,5.00,0.00,30.12,M,10.00,M,CLR,M,M,M,M,M,M,M,M,M,M,M,M,M,M,82.64,KBAM 241635Z AUTO 21005KT 10SM CLR 30/00 A3012 RMK AO1,M
HTH,2024-06-24 16:35,-118.6315,38.5448,1282.89,82.40,37.40,20.04,0.00,0.00,0.00,30.09,M,10.00,M,CLR,M,M,M,M,M,M,M,M,M,M,M,M,M,M,80.14,KHTH 241635Z AUTO 00000KT 10SM CLR 28/03 A3009 RMK A01,M
10U,2024-06-24 16:35,-116.1876,41.9532,1637.00,77.00,35.60,22.28,220.00,8.00,0.00,30.15,M,10.00,13.00,CLR,M,M,M,M,M,M,M,M,M,M,M,M,M,M,77.00,K10U 241635Z AUTO 22008G13KT 10SM CLR 25/02 A3015 RMK AO2,M
TMT,2024-06-24 16:35,-117.1971,39.4643,1749.34,78.00,37.00,22.79,0.00,0.00,0.00,30.21,M,10.00,M,CLR,M,M,M,M,M,M,M,M,M,M,M,M,M,M,78.00,KTMT 241635Z AUTO 00000KT 10SM CLR 26/03 A3021 RMK AO2 T02550027,M
P68,2024-06-24 16:53,-116.0056,39.6014,1993.00,81.00,30.00,15.60,M,M,0.00,30.20,1013.10,M,M,M,M,M,M,M,M,M,M,M,M,M,M,M,M,M,79.02,KP68 241653Z AUTO 27/M01 A3020 RMK AO1 SLP131 T02721011,M
DRA,2024-06-24 16:53,-116.0278,36.6206,1009.00,95.00,52.00,23.47,230.00,10.00,0.00,29.97,1008.70,10.00,16.00,CLR,M,M,M,M,M,M,M,M,M,M,M,M,M,M,92.31,KDRA 241653Z AUTO 23010G16KT 10SM CLR 35/11 A2997 RMK AO2 SLP087 T03500111,M
ELY,2024-06-24 16:53,-114.8453,39.2950,1909.00,83.00,29.00,14.04,300.00,3.00,0.00,30.21,1011.50,10.00,M,CLR,M,M,M,M,M,M,M,M,M,M,M,M,M,M,80.37,KELY 241653Z AUTO 30003KT 10SM CLR 28/M02 A3021 RMK AO2 SLP115 T02831017,M
VGT,2024-06-24 16:53,-115.1933,36.2111,667.00,100.00,56.00,23.32,100.00,7.00,0.00,29.87,1009.60,10.00,M,CLR,M,M,M,M,M,M,M,M,M,M,M,M,M,M,98.84,KVGT 241653Z 10007KT 10SM CLR 38/13 A2987 RMK AO2 SLP096 T03780133,M
LOL,2024-06-24 16:53,-118.5701,40.0684,1192.43,84.00,35.00,17.31,130.00,5.00,0.00,30.06,1013.00,10.00,M,CLR,M,M,M,M,M,M,M,M,M,M,M,M,M,M,81.18,KLOL 241653Z AUTO 13005KT 10SM CLR 29/02 A3006 RMK AO2 SLP130 T02890017,M
BVU,2024-06-24 16:55,-114.8611,35.9475,671.00,98.60,55.40,23.81,M,5.00,0.00,29.88,M,10.00,13.00,CLR,M,M,M,M,M,M,M,M,M,M,M,M,M,M,97.09,KBVU 241655Z AUTO VRB05G13KT 10SM CLR 37/13 A2988 RMK AO2,M
CXP,2024-06-24 16:55,-119.7326,39.1923,1431.00,82.40,42.80,24.72,0.00,0.00,0.00,30.12,M,10.00,M,CLR,M,M,M,M,M,M,M,M,M,M,M,M,M,M,80.39,KCXP 241655Z AUTO 00000KT 10SM CLR 28/06 A3012 RMK AO2,M
RNO,2024-06-24 16:55,-119.7711,39.4839,1341.00,83.00,46.00,27.39,0.00,0.00,0.00,30.10,1012.60,10.00,M,FEW,M,M,M,9000.00,M,M,M,M,M,M,M,M,M,M,81.00,KRNO 241655Z 00000KT 10SM FEW090 28/08 A3010 RMK AO2 SLP126 T02830078,M
RTS,2024-06-24 16:55,-119.8764,39.6682,1539.00,78.80,37.40,22.54,280.00,4.00,0.00,30.14,M,10.00,M,CLR,M,M,M,M,M,M,M,M,M,M,M,M,M,M,78.80,KRTS 241655Z AUTO 28004KT 10SM CLR 26/03 A3014 RMK AO2,M
MEV,2024-06-24 16:55,-119.7500,38.9963,1441.42,84.20,46.40,26.76,0.00,0.00,0.00,30.10,M,10.00,M,CLR,M,M,M,M,M,M,M,M,M,M,M,M,M,M,81.87,KMEV 241655Z AUTO 00000KT 10SM CLR 29/08 A3010 RMK AO2,M
BAM,2024-06-24 16:55,-116.8743,40.5990,1382.36,86.00,32.00,14.40,250.00,5.00,0.00,30.11,M,10.00,M,CLR,M,M,M,M,M,M,M,M,M,M,M,M,M,M,82.64,KBAM 241655Z AUTO 25005KT 10SM CLR 30/00 A3011 RMK AO1,M
HTH,2024-06-24 16:55,-118.6315,38.5448,1282.89,84.20,39.20,20.29,M,4.00,0.00,30.08,M,10.00,M,CLR,M,M,M,M,M,M,M,M,M,M,M,M,M,M,81.44,KHTH 241655Z AUTO VRB04KT 10SM CLR 29/04 A3008 RMK A01,M
10U,2024-06-24 16:55,-116.1876,41.9532,1637.00,78.80,35.60,21.00,230.00,7.00,0.00,30.15,M,10.00,12.00,CLR,M,M,M,M,M,M,M,M,M,M,M,M,M,M,78.80,K10U 241655Z AUTO 23007G12KT 10SM CLR 26/02 A3015 RMK AO2,M
TMT,2024-06-24 16:55,-117.1971,39.4643,1749.34,78.80,36.50,21.76,0.00,0.00,0.00,30.21,M,10.00,M,CLR,M,M,M,M,M,M,M,M,M,M,M,M,M,M,78.80,KTMT 241655Z AUTO 00000KT 10SM CLR 26/03 A3021 RMK AO2 T02600025,M
INS,2024-06-24 16:55,-115.6733,36.5872,955.00,95.00,45.00,18.06,70.00,3.00,0.00,29.95,M,10.00,M,CLR,M,M,M,M,M,M,M,M,M,M,M,M,M,M,91.10,KINS 241655Z AUTO 07003KT 10SM CLR 35/07 A2995 RMK AO2 SLPNO T03510072 $,M
LSV,2024-06-24 16:55,-115.0343,36.2362,570.00,100.20,55.60,22.84,110.00,7.00,0.00,29.82,1006.60,10.00,M,CLR,M,M,M,M,M,M,M,M,M,M,M,M,M,M,98.91,KLSV 241655Z AUTO 11007KT 10SM CLR 38/13 A2982 RMK AO2 SLP066 T03790131 $,M
EKO,2024-06-24 16:56,-115.7860,40.8242,1367.00,82.00,33.00,17.05,200.00,8.00,0.00,30.14,1014.20,10.00,M,CLR,M,M,M,M,M,M,M,M,M,M,M,M,M,M,79.75,KEKO 241656Z AUTO 20008KT 10SM CLR 28/01 A3014 RMK AO2 SLP142 T02780006,M
WMC,2024-06-24 16:56,-117.8072,40.9019,1315.00,85.00,27.00,12.12,M,4.00,0.00,30.08,1012.70,10.00,M,CLR,M,M,M,M,M,M,M,M,M,M,M,M,M,M,81.72,KWMC 241656Z AUTO VRB04KT 10SM CLR 29/M03 A3008 RMK AO2 SLP127 T02941028,M
NFL,2024-06-24 16:56,-118.7010,39.4166,1199.00,87.00,38.00,17.70,70.00,5.00,0.00,30.06,1014.70,10.00,M,FEW,M,M,M,8000.00,M,M,M,M,M,M,M,M,M,M,83.53,KNFL 241656Z 07005KT 10SM FEW080 31/03 A3006 RMK AO2 SLP147 T03060033,M
HND,2024-06-24 16:56,-115.1344,35.9729,742.79,103.00,54.00,19.81,210.00,13.00,0.00,29.91,1010.40,10.00,19.00,CLR,M,M,M,M,M,M,M,M,M,M,M,M,M,M,101.38,KHND 241656Z 21013G19KT 10SM CLR 39/12 A2991 RMK AO2 SLP104 T03940122,M
TPH,2024-06-24 16:56,-117.0904,38.0505,1654.00,86.00,40.00,19.76,330.00,10.00,0.00,30.16,1011.00,10.00,16.00,CLR,M,M,M,M,M,M,M,M,M,M,M,M,M,M,82.82,KTPH 241656Z AUTO 33010G16KT 10SM CLR 30/04 A3016 RMK AO2 SLP110 T03000044,M
LAS,2024-06-24 16:56,-115.1634,36.0719,663.00,102.00,52.00,18.97,M,4.00,0.00,29.88,1008.20,10.00,M,FEW,FEW,M,M,12000.00,15000.00,M,M,M,M,M,M,M,M,M,99.65,KLAS 241656Z VRB04KT 10SM FEW120 FEW150 39/11 A2988 RMK AO2 SLP082 T03890111 $,M
BVU,2024-06-24 17:15,-114.8611,35.9475,671.00,100.40,55.40,22.54,150.00,10.00,0.00,29.88,M,10.00,16.00,CLR,M,M,M,M,M,M,M,M,M,M,M,M,M,M,99.06,KBVU 241715Z AUTO 15010G16KT 10SM CLR 38/13 A2988 RMK AO2,M
CXP,2024-06-24 17:15,-119.7326,39.1923,1431.00,84.20,44.60,24.99,M,4.00,0.00,30.12,M,10.00,10.00,FEW,M,M,M,8000.00,M,M,M,M,M,M,M,M,M,M,81.73,KCXP 241715Z AUTO VRB04G10KT 10SM FEW080 29/07 A3012 RMK AO2,M
RTS,2024-06-24 17:15,-119.8764,39.6682,1539.00,80.60,37.40,21.25,240.00,7.00,0.00,30.14,M,10.00,M,CLR,M,M,M,M,M,M,M,M,M,M,M,M,M,M,79.02,KRTS 241715Z AUTO 24007KT 10SM CLR 27/03 A3014 RMK AO2,M
MEV,2024-06-24 17:15,-119.7500,38.9963,1441.42,84.20,48.20,28.63,M,4.00,0.00,30.10,M,10.00,M,CLR,M,M,M,M,M,M,M,M,M,M,M,M,M,M,82.04,KMEV 241715Z AUTO VRB04KT 10SM CLR 29/09 A3010 RMK AO2,M
HTH,2024-06-24 17:15,-118.6315,38.5448,1282.89,84.20,37.40,18.91,M,4.00,0.00,30.08,M,10.00,M,CLR,M,M,M,M,M,M,M,M,M,M,M,M,M,M,81.38,KHTH 241715Z AUTO VRB04KT 10SM CLR 29/03 A3008 RMK A01,M
BAM,2024-06-24 17:15,-116.8743,40.5990,1382.36,87.80,32.00,13.59,210.00,11.00,0.00,30.11,M,10.00,17.00,CLR,M,M,M,M,M,M,M,M,M,M,M,M,M,M,84.08,KBAM 241715Z AUTO 21011G17KT 190V260 10SM CLR 31/00 A3011 RMK AO1,M
10U,2024-06-24 17:15,-116.1876,41.9532,1637.00,78.80,35.60,21.00,230.00,9.00,0.00,30.15,M,10.00,15.00,CLR,M,M,M,M,M,M,M,M,M,M,M,M,M,M,78.80,K10U 241715Z AUTO 23009G15KT 10SM CLR 26/02 A3015 RMK AO2,M
TMT,2024-06-24 17:15,-117.1971,39.4643,1749.34,80.80,36.70,20.54,280.00,6.00,0.00,30.20,M,10.00,M,CLR,M,M,M,M,M,M,M,M,M,M,M,M,M,M,79.11,KTMT 241715Z AUTO 28006KT 10SM CLR 27/03 A3020 RMK AO2 T02710026,M
BVU,2024-06-24 17:35,-114.8611,35.9475,671.00,102.20,55.40,21.36,140.00,9.00,0.00,29.88,M,10.00,M,CLR,M,M,M,M,M,M,M,M,M,M,M,M,M,M,101.04,KBVU 241735Z AUTO 14009KT 10SM CLR 39/13 A2988 RMK AO2,M
CXP,2024-06-24 17:35,-119.7326,39.1923,1431.00,84.20,46.40,26.76,310.00,5.00,0.00,30.11,M,10.00,M,FEW,M,M,M,8000.00,M,M,M,M,M,M,M,M,M,M,81.87,KCXP 241735Z AUTO 31005KT 10SM FEW080 29/08 A3011 RMK AO2,M
RTS,2024-06-24 17:35,-119.8764,39.6682,1539.00,82.40,35.60,18.67,250.00,8.00,0.00,30.13,M,10.00,18.00,CLR,M,M,M,M,M,M,M,M,M,M,M,M,M,M,80.08,KRTS 241735Z AUTO 25008G18KT 10SM CLR 28/02 A3013 RMK AO2,M
MEV,2024-06-24 17:35,-119.7500,38.9963,1441.42,84.20,48.20,28.63,240.00,5.00,0.00,30.10,M,10.00,M,CLR,M,M,M,M,M,M,M,M,M,M,M,M,M,M,82.04,KMEV 241735Z AUTO 24005KT 10SM CLR 29/09 A3010 RMK AO2,M
BAM,2024-06-24 17:35,-116.8743,40.5990,1382.36,87.80,33.80,14.61,220.00,11.00,0.00,30.10,M,10.00,16.00,CLR,M,M,M,M,M,M,M,M,M,M,M,M,M,M,84.10,KBAM 241735Z AUTO 22011G16KT 10SM CLR 31/01 A3010 RMK AO1,M
HTH,2024-06-24 17:35,-118.6315,38.5448,1282.89,86.00,39.20,19.15,M,3.00,0.00,30.07,M,10.00,M,CLR,M,M,M,M,M,M,M,M,M,M,M,M,M,M,82.79,KHTH 241735Z AUTO VRB03KT 10SM CLR 30/04 A3007 RMK A01,M
10U,2024-06-24 17:35,-116.1876,41.9532,1637.00,78.80,33.80,19.55,M,6.00,0.00,30.14,M,10.00,14.00,CLR,M,M,M,M,M,M,M,M,M,M,M,M,M,M,78.80,K10U 241735Z AUTO VRB06G14KT 190V250 10SM CLR 26/01 A3014 RMK AO2,M
TMT,2024-06-24 17:35,-117.1971,39.4643,1749.34,80.80,37.80,21.45,0.00,0.00,0.00,30.20,M,10.00,M,CLR,M,M,M,M,M,M,M,M,M,M,M,M,M,M,79.15,KTMT 241735Z AUTO 00000KT 10SM CLR 27/03 A3020 RMK AO2 T02710032,M
P68,2024-06-24 17:53,-116.0056,39.6014,1993.00,83.00,31.00,15.23,M,3.00,0.00,30.19,1012.70,M,M,M,M,M,M,M,M,M,M,M,M,M,M,M,M,M,80.40,KP68 241753Z AUTO VRB03KT 28/M01 A3019 RMK AO1 SLP127 T02831006 10283 20100 58005,M
DRA,2024-06-24 17:53,-116.0278,36.6206,1009.00,97.00,51.00,21.27,250.00,11.00,0.00,29.96,1008.40,10.00,18.00,CLR,M,M,M,M,M,M,M,M,M,M,M,M,M,M,94.14,KDRA 241753Z AUTO 25011G18KT 10SM CLR 36/11 A2996 RMK AO2 SLP084 T03610106 10367 20267 58004,M
ELY,2024-06-24 17:53,-114.8453,39.2950,1909.00,85.00,31.00,14.28,M,4.00,0.00,30.19,1010.60,10.00,M,CLR,M,M,M,M,M,M,M,M,M,M,M,M,M,M,81.87,KELY 241753Z AUTO VRB04KT 10SM CLR 29/M01 A3019 RMK AO2 SLP106 T02941006 10306 20106 58008,M
VGT,2024-06-24 17:53,-115.1933,36.2111,667.00,103.00,55.00,20.55,90.00,12.00,0.00,29.87,1009.40,10.00,18.00,CLR,M,M,M,M,M,M,M,M,M,M,M,M,M,M,101.76,KVGT 241753Z 09012G18KT 10SM CLR 39/13 A2987 RMK AO2 SLP094 T03940128 10394 20328 58004,M
LOL,2024-06-24 17:53,-118.5701,40.0684,1192.43,87.00,38.00,17.70,230.00,9.00,0.00,30.05,1012.90,10.00,14.00,CLR,M,M,M,M,M,M,M,M,M,M,M,M,M,M,83.53,KLOL 241753Z AUTO 23009G14KT 10SM CLR 31/03 A3005 RMK AO2 SLP129 T03060033 10306 20111 58007,M
BVU,2024-06-24 17:55,-114.8611,35.9475,671.00,102.20,53.60,20.00,150.00,10.00,0.00,29.87,M,10.00,16.00,CLR,M,M,M,M,M,M,M,M,M,M,M,M,M,M,100.38,KBVU 241755Z AUTO 15010G16KT 10SM CLR 39/12 A2987 RMK AO2,M
CXP,2024-06-24 17:55,-119.7326,39.1923,1431.00,87.80,46.40,23.85,200.00,7.00,0.00,30.11,M,10.00,14.00,FEW,M,M,M,7500.00,M,M,M,M,M,M,M,M,M,M,84.68,KCXP 241755Z AUTO 20007G14KT 170V230 10SM FEW075 31/08 A3011 RMK AO2,M
RNO,2024-06-24 17:55,-119.7711,39.4839,1341.00,87.00,50.00,28.00,0.00,0.00,0.00,30.08,1011.90,10.00,M,FEW,M,M,M,9000.00,M,M,M,M,M,M,M,M,M,M,84.43,KRNO 241755Z 00000KT 10SM FEW090 31/10 A3008 RMK AO2 SLP119 T03060100 10306 20183 58011,M
RTS,2024-06-24 17:55,-119.8764,39.6682,1539.00,84.20,37.40,18.91,240.00,10.00,0.00,30.13,M,10.00,17.00,CLR,M,M,M,M,M,M,M,M,M,M,M,M,M,M,81.38,KRTS 241755Z AUTO 24010G17KT 10SM CLR 29/03 A3013 RMK AO2,M
MEV,2024-06-24 17:55,-119.7500,38.9963,1441.42,86.00,48.20,27.03,0.00,0.00,0.00,30.10,M,10.00,M,CLR,M,M,M,M,M,M,M,M,M,M,M,M,M,M,83.40,KMEV 241755Z AUTO 00000KT 10SM CLR 30/09 A3010 RMK AO2,M
BAM,2024-06-24 17:55,-116.8743,40.5990,1382.36,89.60,33.80,13.80,270.00,11.00,0.00,30.10,M,10.00,19.00,CLR,M,M,M,M,M,M,M,M,M,M,M,M,M,M,85.59,KBAM 241755Z AUTO 27011G19KT 10SM CLR 32/01 A3010 RMK AO1,M
HTH,2024-06-24 17:55,-118.6315,38.5448,1282.89,86.00,39.20,19.15,M,4.00,0.00,30.07,M,10.00,M,CLR,M,M,M,M,M,M,M,M,M,M,M,M,M,M,82.79,KHTH 241755Z AUTO VRB04KT 10SM CLR 30/04 A3007 RMK A01,M
10U,2024-06-24 17:55,-116.1876,41.9532,1637.00,82.40,32.00,16.17,250.00,10.00,0.00,30.14,M,10.00,16.00,CLR,M,M,M,M,M,M,M,M,M,M,M,M,M,M,80.00,K10U 241755Z AUTO 25010G16KT 10SM CLR 28/M00 A3014 RMK AO2,M
TMT,2024-06-24 17:55,-117.1971,39.4643,1749.34,81.70,37.80,20.83,260.00,5.00,0.00,30.20,M,10.00,M,CLR,M,M,M,M,M,M,M,M,M,M,M,M,M,M,79.70,KTMT 241755Z AUTO 26005KT 10SM CLR 28/03 A3020 RMK AO2 T02760032 10276 20042,M
INS,2024-06-24 17:55,-115.6733,36.5872,955.00,97.00,43.50,16.04,360.00,3.00,0.00,29.95,M,10.00,M,CLR,M,M,M,M,M,M,M,M,M,M,M,M,M,M,92.85,KINS 241755Z AUTO 36003KT 10SM CLR 36/06 A2995 RMK AO2 SLPNO T03620064 10363 20289 58004 $,M
LSV,2024-06-24 17:55,-115.0343,36.2362,570.00,103.30,54.30,19.85,110.00,7.00,0.00,29.82,1006.50,10.00,M,CLR,M,M,M,M,M,M,M,M,M,M,M,M,M,M,101.82,KLSV 241755Z AUTO 11007KT 10SM CLR 40/12 A2982 RMK AO2 SLP065 T03960124 10396 20325 58005 $,M
EKO,2024-06-24 17:56,-115.7860,40.8242,1367.00,85.00,31.00,14.28,250.00,9.00,0.00,30.13,1014.30,10.00,M,CLR,M,M,M,M,M,M,M,M,M,M,M,M,M,M,81.87,KEKO 241756Z AUTO 25009KT 10SM CLR 29/M01 A3013 RMK AO2 SLP143 T02941006 10294 20144 58005,M
WMC,2024-06-24 17:56,-117.8072,40.9019,1315.00,89.00,34.00,14.18,220.00,15.00,0.00,30.06,1012.10,10.00,23.00,CLR,M,M,M,M,M,M,M,M,M,M,M,M,M,M,85.09,KWMC 241756Z AUTO 22015G23KT 10SM CLR 32/01 A3006 RMK AO2 SLP121 T03170011 10317 20122 58009,M
NFL,2024-06-24 17:56,-118.7010,39.4166,1199.00,90.00,40.00,17.41,170.00,4.00,0.00,30.05,1014.40,10.00,M,FEW,M,M,M,8000.00,M,M,M,M,M,M,M,M,M,M,86.11,KNFL 241756Z 17004KT 10SM FEW080 32/04 A3005 RMK AO2 SLP144 T03220044 10322 20156 58007,M
HND,2024-06-24 17:56,-115.1344,35.9729,742.79,103.00,54.00,19.81,190.00,13.00,0.00,29.91,1010.50,10.00,M,CLR,M,M,M,M,M,M,M,M,M,M,M,M,M,M,101.38,KHND 241756Z 19013KT 10SM CLR 39/12 A2991 RMK AO2 SLP105 T03940122 10400 20306 56004,M
TPH,2024-06-24 17:56,-117.0904,38.0505,1654.00,88.00,39.00,17.83,290.00,9.00,0.00,30.15,1011.00,10.00,M,CLR,M,M,M,M,M,M,M,M,M,M,M,M,M,M,84.38,KTPH 241756Z AUTO 29009KT 10SM CLR 31/04 A3015 RMK AO2 SLP110 T03110039 10311 20178 58005,M
LAS,2024-06-24 17:56,-115.1634,36.0719,663.00,106.00,52.00,16.84,160.00,10.00,0.00,29.87,1007.80,10.00,17.00,FEW,FEW,M,M,12000.00,15000.00,M,M,M,M,M,M,M,M,M,103.85,KLAS 241756Z 16010G17KT 10SM FEW120 FEW150 41/11 A2987 RMK AO2 SLP078 T04110111 10411 20328,M
BVU,2024-06-24 18:15,-114.8611,35.9475,671.00,102.20,53.60,20.00,M,4.00,0.00,29.87,M,10.00,12.00,CLR,M,M,M,M,M,M,M,M,M,M,M,M,M,M,100.38,KBVU 241815Z AUTO VRB04G12KT 10SM CLR 39/12 A2987 RMK AO2,M
CXP,2024-06-24 18:15,-119.7326,39.1923,1431.00,86.00,46.40,25.26,240.00,8.00,0.00,30.11,M,10.00,M,SCT,M,M,M,8000.00,M,M,M,M,M,M,M,M,M,M,83.22,KCXP 241815Z AUTO 24008KT 10SM SCT080 30/08 A3011 RMK AO2,M
RTS,2024-06-24 18:15,-119.8764,39.6682,1539.00,84.20,35.60,17.61,240.00,16.00,0.00,30.13,M,10.00,23.00,CLR,M,M,M,M,M,M,M,M,M,M,M,M,M,M,81.34,KRTS 241815Z AUTO 24016G23KT 10SM CLR 29/02 A3013 RMK AO2,M
MEV,2024-06-24 18:15,-119.7500,38.9963,1441.42,86.00,46.40,25.26,0.00,0.00,0.00,30.10,M,10.00,M,CLR,M,M,M,M,M,M,M,M,M,M,M,M,M,M,83.22,KMEV 241815Z AUTO 00000KT 10SM CLR 30/08 A3010 RMK AO2,M
BAM,2024-06-24 18:15,-116.8743,40.5990,1382.36,89.60,33.80,13.80,250.00,7.00,0.00,30.10,M,10.00,M,CLR,M,M,M,M,M,M,M,M,M,M,M,M,M,M,85.59,KBAM 241815Z AUTO 25007KT 10SM CLR 32/01 A3010 RMK AO1,M
HTH,2024-06-24 18:15,-118.6315,38.5448,1282.89,87.80,39.20,18.09,330.00,6.00,0.00,30.06,M,10.00,M,CLR,M,M,M,M,M,M,M,M,M,M,M,M,M,M,84.22,KHTH 241815Z AUTO 33006KT 10SM CLR 31/04 A3006 RMK A01,M
10U,2024-06-24 18:15,-116.1876,41.9532,1637.00,82.40,30.20,15.03,230.00,13.00,0.00,30.13,M,10.00,M,CLR,M,M,M,M,M,M,M,M,M,M,M,M,M,M,79.97,K10U 241815Z AUTO 23013KT 10SM CLR 28/M01 A3013 RMK AO2,M
TMT,2024-06-24 18:15,-117.1971,39.4643,1749.34,82.80,38.30,20.50,210.00,7.00,0.00,30.19,M,10.00,M,CLR,M,M,M,M,M,M,M,M,M,M,M,M,M,M,80.44,KTMT 241815Z AUTO 21007KT 10SM CLR 28/04 A3019 RMK AO2 T02820035,M
LSV,2024-06-24 18:19,-115.0343,36.2362,570.00,104.00,53.60,18.95,140.00,12.00,0.00,29.81,1006.10,10.00,M,CLR,M,M,M,M,M,M,M,M,M,M,M,M,M,M,102.31,KLSV 241819Z AUTO 14012KT 10SM CLR 40/12 A2981 RMK AO2 WSHFT 14 SLP061 $,M
BVU,2024-06-24 18:35,-114.8611,35.9475,671.00,104.00,53.60,18.95,150.00,12.00,0.00,29.86,M,10.00,M,CLR,M,M,M,M,M,M,M,M,M,M,M,M,M,M,102.31,KBVU 241835Z AUTO 15012KT 10SM CLR 40/12 A2986 RMK AO2,M
CXP,2024-06-24 18:35,-119.7326,39.1923,1431.00,86.00,46.40,25.26,240.00,13.00,0.00,30.11,M,10.00,19.00,FEW,M,M,M,8000.00,M,M,M,M,M,M,M,M,M,M,83.22,KCXP 241835Z AUTO 24013G19KT 10SM FEW080 30/08 A3011 RMK AO2,M
RTS,2024-06-24 18:35,-119.8764,39.6682,1539.00,86.00,33.80,15.48,250.00,16.00,0.00,30.13,M,10.00,24.00,CLR,M,M,M,M,M,M,M,M,M,M,M,M,M,M,82.66,KRTS 241835Z AUTO 25016G24KT 10SM CLR 30/01 A3013 RMK AO2,M
MEV,2024-06-24 18:35,-119.7500,38.9963,1441.42,87.80,44.60,22.27,0.00,0.00,0.00,30.09,M,10.00,13.00,CLR,M,M,M,M,M,M,M,M,M,M,M,M,M,M,84.53,KMEV 241835Z AUTO 00000G13KT 10SM CLR 31/07 A3009 RMK AO2,M
BAM,2024-06-24 18:35,-116.8743,40.5990,1382.36,89.60,32.00,12.84,260.00,6.00,0.00,30.09,M,10.00,16.00,CLR,M,M,M,M,M,M,M,M,M,M,M,M,M,M,85.54,KBAM 241835Z AUTO 26006G16KT 10SM CLR 32/00 A3009 RMK AO1,M
HTH,2024-06-24 18:35,-118.6315,38.5448,1282.89,89.60,41.00,18.33,330.00,7.00,0.00,30.05,M,10.00,M,CLR,M,M,M,M,M,M,M,M,M,M,M,M,M,M,85.82,KHTH 241835Z AUTO 33007KT 10SM CLR 32/05 A3005 RMK A01,M
10U,2024-06-24 18:35,-116.1876,41.9532,1637.00,84.20,23.00,10.53,210.00,14.00,0.00,30.13,M,10.00,20.00,CLR,M,M,M,M,M,M,M,M,M,M,M,M,M,M,80.88,K10U 241835Z AUTO 21014G20KT 10SM CLR 29/M05 A3013 RMK AO2,M
TMT,2024-06-24 18:35,-117.1971,39.4643,1749.34,83.30,38.00,19.93,230.00,4.00,0.00,30.19,M,10.00,M,CLR,M,M,M,M,M,M,M,M,M,M,M,M,M,M,80.77,KTMT 241835Z AUTO 23004KT 10SM CLR 29/03 A3019 RMK AO2 T02850034,M
P68,2024-06-24 18:53,-116.0056,39.6014,1993.00,85.00,30.00,13.71,180.00,8.00,0.00,30.16,1012.50,M,M,M,M,M,M,M,M,M,M,M,M,M,M,M,M,M,81.86,KP68 241853Z AUTO 18008KT 29/M01 A3016 RMK AO1 SLP125 T02941011,M
DRA,2024-06-24 18:53,-116.0278,36.6206,1009.00,101.00,47.00,16.22,210.00,15.00,0.00,29.95,1007.90,10.00,20.00,CLR,M,M,M,M,M,M,M,M,M,M,M,M,M,M,97.35,KDRA 241853Z AUTO 21015G20KT 10SM CLR 38/08 A2995 RMK AO2 SLP079 T03830083,M
ELY,2024-06-24 18:53,-114.8453,39.2950,1909.00,87.00,31.00,13.39,M,3.00,0.00,30.18,1010.40,10.00,M,CLR,M,M,M,M,M,M,M,M,M,M,M,M,M,M,83.43,KELY 241853Z AUTO VRB03KT 10SM CLR 31/M01 A3018 RMK AO2 SLP104 T03061006,M
VGT,2024-06-24 18:53,-115.1933,36.2111,667.00,107.00,54.00,17.60,120.00,10.00,0.00,29.85,1008.60,10.00,M,CLR,M,M,M,M,M,M,M,M,M,M,M,M,M,M,105.66,KVGT 241853Z 12010KT 10SM CLR 42/12 A2985 RMK AO2 SLP086 T04170122,M
LOL,2024-06-24 18:53,-118.5701,40.0684,1192.43,89.00,42.00,19.41,260.00,10.00,0.00,30.03,1012.30,10.00,26.00,CLR,M,M,M,M,M,M,M,M,M,M,M,26.00,260.00,2024-06-24 18:50,85.36,KLOL 241853Z AUTO 26010G26KT 10SM CLR 32/06 A3003 RMK AO2 PK WND 26026/1850 SLP123 T03170056,M
BVU,2024-06-24 18:55,-114.8611,35.9475,671.00,102.20,53.60,20.00,180.00,9.00,0.00,29.86,M,10.00,15.00,CLR,M,M,M,M,M,M,M,M,M,M,M,M,M,M,100.38,KBVU 241855Z AUTO 18009G15KT 150V210 10SM CLR 39/12 A2986 RMK AO2,M
CXP,2024-06-24 18:55,-119.7326,39.1923,1431.00,87.80,48.20,25.52,230.00,8.00,0.00,30.11,M,10.00,17.00,CLR,M,M,M,M,M,M,M,M,M,M,M,M,M,M,84.87,KCXP 241855Z AUTO 23008G17KT 10SM CLR 31/09 A3011 RMK AO2,M
RTS,2024-06-24 18:55,-119.8764,39.6682,1539.00,86.00,33.80,15.48,250.00,20.00,0.00,30.13,M,10.00,30.00,CLR,M,M,M,M,M,M,M,M,M,M,M,M,M,M,82.66,KRTS 241855Z AUTO 25020G30KT 10SM CLR 30/01 A3013 RMK AO2,M
MEV,2024-06-24 18:55,-119.7500,38.9963,1441.42,89.60,46.40,22.53,250.00,7.00,0.00,30.09,M,10.00,M,CLR,M,M,M,M,M,M,M,M,M,M,M,M,M,M,86.24,KMEV 241855Z AUTO 25007KT 10SM CLR 32/08 A3009 RMK AO2,M
BAM,2024-06-24 18:55,-116.8743,40.5990,1382.36,89.60,33.80,13.80,200.00,5.00,0.00,30.09,M,10.00,16.00,CLR,M,M,M,M,M,M,M,M,M,M,M,M,M,M,85.59,KBAM 241855Z AUTO 20005G16KT 10SM CLR 32/01 A3009 RMK AO1,M
HTH,2024-06-24 18:55,-118.6315,38.5448,1282.89,89.60,41.00,18.33,330.00,8.00,0.00,30.05,M,10.00,M,CLR,M,M,M,M,M,M,M,M,M,M,M,M,M,M,85.82,KHTH 241855Z AUTO 33008KT 10SM CLR 32/05 A3005 RMK A01,M
10U,2024-06-24 18:55,-116.1876,41.9532,1637.00,84.20,23.00,10.53,220.00,13.00,0.00,30.12,M,10.00,19.00,CLR,M,M,M,M,M,M,M,M,M,M,M,M,M,M,80.88,K10U 241855Z AUTO 22013G19KT 10SM CLR 29/M05 A3012 RMK AO2,M
RNO,2024-06-24 18:55,-119.7711,39.4839,1341.00,89.00,51.00,27.27,290.00,8.00,0.00,30.07,1011.50,10.00,M,FEW,M,M,M,10000.00,M,M,M,M,M,M,M,M,M,M,86.31,KRNO 241855Z COR 29008KT 10SM FEW100 32/11 A3007 RMK AO2 SLP115 T03170106,M
TMT,2024-06-24 18:55,-117.1971,39.4643,1749.34,84.70,38.70,19.58,230.00,5.00,0.00,30.18,M,10.00,M,CLR,M,M,M,M,M,M,M,M,M,M,M,M,M,M,81.79,KTMT 241855Z AUTO 23005KT 10SM CLR 29/04 A3018 RMK AO2 T02930037,M
INS,2024-06-24 18:55,-115.6733,36.5872,955.00,99.00,41.50,13.97,100.00,7.00,0.00,29.93,M,10.00,M,CLR,M,M,M,M,M,M,M,M,M,M,M,M,M,M,94.53,KINS 241855Z AUTO 10007KT 10SM CLR 37/05 A2993 RMK AO2 SLPNO T03730053 $,M
LSV,2024-06-24 18:55,-115.0343,36.2362,570.00,105.60,51.80,16.92,100.00,7.00,0.00,29.80,1005.80,10.00,M,CLR,M,M,M,M,M,M,M,M,M,M,M,M,M,M,103.36,KLSV 241855Z AUTO 10007KT 10SM CLR 41/11 A2980 RMK AO2 SLP058 T04090110 $,M
EKO,2024-06-24 18:56,-115.7860,40.8242,1367.00,88.00,33.00,14.06,220.00,11.00,0.00,30.12,1013.30,10.00,M,CLR,M,M,M,M,M,M,M,M,M,M,M,M,M,M,84.25,KEKO 241856Z AUTO 22011KT 10SM CLR 31/01 A3012 RMK AO2 SLP133 T03110006,M
WMC,2024-06-24 18:56,-117.8072,40.9019,1315.00,90.00,34.00,13.74,250.00,12.00,T,30.05,1011.40,10.00,28.00,CLR,M,M,M,M,M,M,M,M,M,M,M,28.00,220.00,2024-06-24 18:48,85.93,KWMC 241856Z AUTO 25012G28KT 10SM CLR 32/01 A3005 RMK AO2 PK WND 22028/1848 RAB19E29B45E54 SLP114 P0000 T03220011,M
HND,2024-06-24 18:56,-115.1344,35.9729,742.79,105.00,54.00,18.67,210.00,12.00,0.00,29.90,1010.10,10.00,19.00,CLR,M,M,M,M,M,M,M,M,M,M,M,M,M,M,103.53,KHND 241856Z 21012G19KT 10SM CLR 41/12 A2990 RMK AO2 SLP101 T04060122,M
TPH,2024-06-24 18:56,-117.0904,38.0505,1654.00,90.00,38.00,16.10,240.00,6.00,0.00,30.14,1010.30,10.00,M,CLR,M,M,M,M,M,M,M,M,M,M,M,M,M,M,86.03,KTPH 241856Z AUTO 24006KT 10SM CLR 32/03 A3014 RMK AO2 SLP103 T03220033,M
LAS,2024-06-24 18:56,-115.1634,36.0719,663.00,108.00,51.00,15.30,200.00,8.00,0.00,29.85,1007.10,10.00,18.00,FEW,FEW,M,M,12000.00,16000.00,M,M,M,M,M,M,M,M,M,105.54,KLAS 241856Z 20008G18KT 160V230 10SM FEW120 FEW160 42/11 A2985 RMK AO2 SLP071 T04220106,M
NFL,2024-06-24 18:56,-118.7010,39.4166,1199.00,92.00,42.00,17.67,230.00,5.00,0.00,30.03,1014.00,10.00,M,FEW,M,M,M,8000.00,M,M,M,M,M,M,M,M,M,M,88.01,KNFL 241856Z 23005KT 10SM FEW080 33/06 A3003 RMK AO2 SLP140 T03330056,M
BVU,2024-06-24 19:15,-114.8611,35.9475,671.00,104.00,51.80,17.74,140.00,11.00,0.00,29.85,M,10.00,17.00,CLR,M,M,M,M,M,M,M,M,M,M,M,M,M,M,101.69,KBVU 241915Z AUTO 14011G17KT 10SM CLR 40/11 A2985 RMK AO2,M
CXP,2024-06-24 19:15,-119.7326,39.1923,1431.00,87.80,46.40,23.85,250.00,12.00,0.00,30.10,M,10.00,18.00,CLR,M,M,M,M,M,M,M,M,M,M,M,M,M,M,84.68,KCXP 241915Z AUTO 25012G18KT 220V280 10SM CLR 31/08 A3010 RMK AO2,M
RTS,2024-06-24 19:15,-119.8764,39.6682,1539.00,87.80,32.00,13.59,260.00,19.00,0.00,30.13,M,10.00,25.00,CLR,M,M,M,M,M,M,M,M,M,M,M,M,M,M,84.08,KRTS 241915Z AUTO 26019G25KT 10SM CLR 31/00 A3013 RMK AO2,M
MEV,2024-06-24 19:15,-119.7500,38.9963,1441.42,87.80,44.60,22.27,M,5.00,0.00,30.08,M,10.00,11.00,CLR,M,M,M,M,M,M,M,M,M,M,M,M,M,M,84.53,KMEV 241915Z AUTO VRB05G11KT 10SM CLR 31/07 A3008 RMK AO2,M
BAM,2024-06-24 19:15,-116.8743,40.5990,1382.36,89.60,32.00,12.84,280.00,11.00,0.00,30.08,M,10.00,16.00,CLR,M,M,M,M,M,M,M,M,M,M,M,M,M,M,85.54,KBAM 241915Z AUTO 28011G16KT 10SM CLR 32/00 A3008 RMK AO1,M
HTH,2024-06-24 19:15,-118.6315,38.5448,1282.89,91.40,41.00,17.32,310.00,7.00,0.00,30.04,M,10.00,M,CLR,M,M,M,M,M,M,M,M,M,M,M,M,M,M,87.40,KHTH 241915Z AUTO 31007KT 290V360 10SM CLR 33/05 A3004 RMK A01,M
10U,2024-06-24 19:15,-116.1876,41.9532,1637.00,84.20,21.20,9.76,240.00,17.00,0.00,30.12,M,10.00,23.00,CLR,M,M,M,M,M,M,M,M,M,M,M,M,M,M,80.77,K10U 241915Z AUTO 24017G23KT 10SM CLR 29/M06 A3012 RMK AO2,M
TMT,2024-06-24 19:15,-117.1971,39.4643,1749.34,84.00,38.50,19.87,310.00,3.00,0.00,30.16,M,10.00,M,CLR,M,M,M,M,M,M,M,M,M,M,M,M,M,M,81.27,KTMT 241915Z AUTO 31003KT 10SM CLR 29/04 A3016 RMK AO2 T02890036,M
BVU,2024-06-24 19:35,-114.8611,35.9475,671.00,104.00,53.60,18.95,130.00,12.00,0.00,29.84,M,10.00,17.00,CLR,M,M,M,M,M,M,M,M,M,M,M,M,M,M,102.31,KBVU 241935Z AUTO 13012G17KT 10SM CLR 40/12 A2984 RMK AO2,M
CXP,2024-06-24 19:35,-119.7326,39.1923,1431.00,87.80,46.40,23.85,260.00,12.00,0.00,30.10,M,10.00,18.00,CLR,M,M,M,M,M,M,M,M,M,M,M,M,M,M,84.68,KCXP 241935Z AUTO 26012G18KT 10SM CLR 31/08 A3010 RMK AO2,M
RTS,2024-06-24 19:35,-119.8764,39.6682,1539.00,87.80,33.80,14.61,250.00,24.00,0.00,30.12,M,10.00,M,CLR,M,M,M,M,M,M,M,M,M,M,M,M,M,M,84.10,KRTS 241935Z AUTO 25024KT 10SM CLR 31/01 A3012 RMK AO2,M
MEV,2024-06-24 19:35,-119.7500,38.9963,1441.42,89.60,44.60,21.04,240.00,11.00,0.00,30.08,M,4.00,16.00,CLR,M,M,M,M,M,M,M,HZ,M,M,M,M,M,M,86.07,KMEV 241935Z AUTO 24011G16KT 4SM HZ CLR 32/07 A3008 RMK AO2,M
BAM,2024-06-24 19:35,-116.8743,40.5990,1382.36,91.40,33.80,13.05,270.00,7.00,0.00,30.07,M,10.00,M,CLR,M,M,M,M,M,M,M,M,M,M,M,M,M,M,87.13,KBAM 241935Z AUTO 27007KT 10SM CLR 33/01 A3007 RMK AO1,M
HTH,2024-06-24 19:35,-118.6315,38.5448,1282.89,93.20,39.20,15.27,350.00,7.00,0.00,30.03,M,10.00,M,CLR,M,M,M,M,M,M,M,M,M,M,M,M,M,M,88.92,KHTH 241935Z AUTO 35007KT 10SM CLR 34/04 A3003 RMK A01,M
10U,2024-06-24 19:35,-116.1876,41.9532,1637.00,86.00,21.20,9.21,230.00,13.00,0.00,30.11,M,10.00,24.00,CLR,M,M,M,M,M,M,M,M,M,M,M,M,M,M,82.04,K10U 241935Z AUTO 23013G24KT 10SM CLR 30/M06 A3011 RMK AO2,M
TMT,2024-06-24 19:35,-117.1971,39.4643,1749.34,86.00,39.00,19.01,220.00,4.00,0.00,30.16,M,10.00,M,CLR,M,M,M,M,M,M,M,M,M,M,M,M,M,M,82.78,KTMT 241935Z AUTO 22004KT 10SM CLR 30/04 A3016 RMK AO2 T03000038,M
P68,2024-06-24 19:53,-116.0056,39.6014,1993.00,87.00,30.00,12.86,M,3.00,0.00,30.14,1011.50,M,M,M,M,M,M,M,M,M,M,M,M,M,M,M,M,M,83.40,KP68 241953Z AUTO VRB03KT 31/M01 A3014 RMK AO1 SLP115 T03061011,M
DRA,2024-06-24 19:53,-116.0278,36.6206,1009.00,103.00,47.00,15.28,220.00,11.00,0.00,29.93,1007.20,10.00,21.00,CLR,M,M,M,M,M,M,M,M,M,M,M,M,M,M,99.35,KDRA 241953Z AUTO 22011G21KT 10SM CLR 39/08 A2993 RMK AO2 SLP072 T03940083,M
ELY,2024-06-24 19:53,-114.8453,39.2950,1909.00,89.00,29.00,11.59,M,M,0.00,30.16,1009.70,10.00,M,CLR,M,M,M,M,M,M,M,M,M,M,M,M,M,M,84.78,KELY 241953Z AUTO 10SM CLR 32/M02 A3016 RMK AO2 SLP097 T03171017,M
VGT,2024-06-24 19:53,-115.1933,36.2111,667.00,108.00,49.00,14.21,M,5.00,0.00,29.82,1007.70,10.00,16.00,CLR,M,M,M,M,M,M,M,M,M,M,M,M,M,M,104.87,KVGT 241953Z VRB05G16KT 10SM CLR 42/09 A2982 RMK AO2 SLP077 T04220094,M
LOL,2024-06-24 19:53,-118.5701,40.0684,1192.43,91.00,41.00,17.54,160.00,8.00,0.00,30.01,1011.50,10.00,23.00,CLR,M,M,M,M,M,M,M,M,M,M,M,M,M,M,87.04,KLOL 241953Z AUTO 16008G23KT 10SM CLR 33/05 A3001 RMK AO2 SLP115 T03280050,M
BVU,2024-06-24 19:55,-114.8611,35.9475,671.00,105.80,53.60,17.97,150.00,13.00,0.00,29.83,M,10.00,21.00,CLR,M,M,M,M,M,M,M,M,M,M,M,M,M,M,104.23,KBVU 241955Z AUTO 15013G21KT 10SM CLR 41/12 A2983 RMK AO2,M
CXP,2024-06-24 19:55,-119.7326,39.1923,1431.00,89.60,44.60,21.04,270.00,13.00,0.00,30.09,M,10.00,18.00,CLR,M,M,M,M,M,M,M,M,M,M,M,M,M,M,86.07,KCXP 241955Z AUTO 27013G18KT 10SM CLR 32/07 A3009 RMK AO2,M
RNO,2024-06-24 19:55,-119.7711,39.4839,1341.00,92.00,54.00,27.72,160.00,17.00,0.00,30.04,1010.70,10.00,23.00,FEW,M,M,M,9500.00,M,M,M,M,M,M,M,M,M,M,89.76,KRNO 241955Z 16017G23KT 10SM FEW095 33/12 A3004 RMK AO2 SLP107 T03330122,M
RTS,2024-06-24 19:55,-119.8764,39.6682,1539.00,87.80,33.80,14.61,250.00,21.00,0.00,30.11,M,10.00,27.00,CLR,M,M,M,M,M,M,M,M,M,M,M,M,M,M,84.10,KRTS 241955Z AUTO 25021G27KT 10SM CLR 31/01 A3011 RMK AO2,M
MEV,2024-06-24 19:55,-119.7500,38.9963,1441.42,91.40,44.60,19.89,260.00,14.00,0.00,30.07,M,10.00,M,CLR,M,M,M,M,M,M,M,M,M,M,M,M,M,M,87.68,KMEV 241955Z AUTO 26014KT 10SM CLR 33/07 A3007 RMK AO2,M
BAM,2024-06-24 19:55,-116.8743,40.5990,1382.36,91.40,33.80,13.05,260.00,13.00,0.00,30.07,M,10.00,19.00,CLR,M,M,M,M,M,M,M,M,M,M,M,M,M,M,87.13,KBAM 241955Z AUTO 26013G19KT 10SM CLR 33/01 A3007 RMK AO1,M
HTH,2024-06-24 19:55,-118.6315,38.5448,1282.89,93.20,39.20,15.27,0.00,0.00,0.00,30.01,M,10.00,M,CLR,M,M,M,M,M,M,M,M,M,M,M,M,M,M,88.92,KHTH 241955Z AUTO 00000KT 10SM CLR 34/04 A3001 RMK A01,M
10U,2024-06-24 19:55,-116.1876,41.9532,1637.00,86.00,21.20,9.21,240.00,15.00,0.00,30.11,M,10.00,22.00,CLR,M,M,M,M,M,M,M,M,M,M,M,M,M,M,82.04,K10U 241955Z AUTO 24015G22KT 10SM CLR 30/M06 A3011 RMK AO2,M
INS,2024-06-24 19:55,-115.6733,36.5872,955.00,100.80,41.00,12.98,290.00,3.00,0.00,29.90,M,M,M,M,M,M,M,M,M,M,M,M,M,M,M,M,M,M,96.17,KINS 241955Z AUTO 29003KT M M M 38/05 A2990 RMK AO2 SLPNO T03820049 RVRNO $,M
TMT,2024-06-24 19:55,-117.1971,39.4643,1749.34,89.00,39.70,17.76,190.00,11.00,0.00,30.15,M,10.00,14.00,CLR,M,M,M,M,M,M,M,M,M,M,M,M,M,M,85.24,KTMT 241955Z AUTO 19011G14KT 10SM CLR 32/04 A3015 RMK AO2 T03170043,M
LSV,2024-06-24 19:55,-115.0343,36.2362,570.00,106.50,49.00,14.85,250.00,5.00,0.00,29.76,1004.40,10.00,M,CLR,M,M,M,M,M,M,M,M,M,M,M,M,M,M,103.38,KLSV 241955Z AUTO 25005KT 10SM CLR 41/10 A2976 RMK AO2 SLP044 T04140095 $,M
EKO,2024-06-24 19:56,-115.7860,40.8242,1367.00,90.00,34.00,13.74,210.00,8.00,0.00,30.09,1012.80,10.00,21.00,CLR,M,M,M,M,M,M,M,M,M,M,M,M,M,M,85.93,KEKO 241956Z AUTO 21008G21KT 10SM CLR 32/01 A3009 RMK AO2 SLP128 T03220011,M
WMC,2024-06-24 19:56,-117.8072,40.9019,1315.00,94.00,32.00,11.19,270.00,11.00,T,30.02,1010.60,10.00,23.00,CLR,M,M,M,M,M,M,M,-RA,M,M,M,28.00,230.00,2024-06-24 19:40,88.93,KWMC 241956Z AUTO 27011G23KT 10SM -RA CLR 34/00 A3002 RMK AO2 PK WND 23028/1940 RAB15 SLP106 P0000 T03440000,M
NFL,2024-06-24 19:56,-118.7010,39.4166,1199.00,94.00,41.00,15.97,170.00,9.00,0.00,30.01,1013.10,10.00,18.00,SCT,M,M,M,8000.00,M,M,M,M,M,M,M,M,M,M,89.77,KNFL 241956Z 17009G18KT 130V200 10SM SCT080 34/05 A3001 RMK AO2 SLP131 T03440050,M
HND,2024-06-24 19:56,-115.1344,35.9729,742.79,107.00,53.00,16.97,190.00,15.00,0.00,29.87,1009.00,10.00,23.00,CLR,M,M,M,M,M,M,M,M,M,M,M,M,M,M,105.26,KHND 241956Z 19015G23KT 10SM CLR 42/12 A2987 RMK AO2 SLP090 T04170117,M
TPH,2024-06-24 19:56,-117.0904,38.0505,1654.00,93.00,38.00,14.66,M,M,0.00,30.12,1009.60,10.00,M,CLR,M,M,M,M,M,M,M,M,M,M,M,M,M,M,88.68,KTPH 241956Z AUTO 10SM CLR 34/03 A3012 RMK AO2 SLP096 T03390033,M
LAS,2024-06-24 19:56,-115.1634,36.0719,663.00,109.00,49.00,13.80,220.00,12.00,0.00,29.83,1006.40,10.00,19.00,FEW,FEW,M,M,12000.00,16000.00,M,M,M,M,M,M,M,M,M,105.85,KLAS 241956Z 22012G19KT 10SM FEW120 FEW160 43/09 A2983 RMK AO2 SLP064 T04280094,M
INS,2024-06-24 20:08,-115.6733,36.5872,955.00,103.50,41.00,11.97,100.00,9.00,0.00,29.90,M,10.00,M,SCT,M,M,M,8000.00,M,M,M,M,M,M,M,M,M,M,98.53,KINS 242008Z 10009KT 10SM SCT080 40/05 A2990 RMK SLPNO T03970049 58017 $,M
LSV,2024-06-24 20:08,-115.0343,36.2362,570.00,107.60,46.40,13.04,250.00,11.00,0.00,29.75,1004.10,10.00,M,CLR,M,M,M,M,M,M,M,M,M,M,M,M,M,M,103.71,KLSV 242008Z AUTO 25011KT 10SM CLR 42/08 A2975 RMK AO2 WSHFT 05 SLP041 $,M
BVU,2024-06-24 20:15,-114.8611,35.9475,671.00,104.00,53.60,18.95,170.00,13.00,0.00,29.82,M,10.00,20.00,CLR,M,M,M,M,M,M,M,M,M,M,M,M,M,M,102.31,KBVU 242015Z AUTO 17013G20KT 10SM CLR 40/12 A2982 RMK AO2,M
CXP,2024-06-24 20:15,-119.7326,39.1923,1431.00,89.60,44.60,21.04,260.00,11.00,0.00,30.09,M,10.00,23.00,CLR,M,M,M,M,M,M,M,M,M,M,M,M,M,M,86.07,KCXP 242015Z AUTO 26011G23KT 10SM CLR 32/07 A3009 RMK AO2,M
RTS,2024-06-24 20:15,-119.8764,39.6682,1539.00,86.00,33.80,15.48,240.00,17.00,0.00,30.11,M,10.00,25.00,CLR,M,M,M,M,M,M,M,M,M,M,M,M,M,M,82.66,KRTS 242015Z AUTO 24017G25KT 10SM CLR 30/01 A3011 RMK AO2,M
MEV,2024-06-24 20:15,-119.7500,38.9963,1441.42,91.40,42.80,18.56,290.00,10.00,0.00,30.07,M,10.00,15.00,CLR,M,M,M,M,M,M,M,M,M,M,M,M,M,M,87.52,KMEV 242015Z AUTO 29010G15KT 10SM CLR 33/06 A3007 RMK AO2,M
BAM,2024-06-24 20:15,-116.8743,40.5990,1382.36,93.20,35.60,13.25,220.00,12.00,0.00,30.06,M,10.00,19.00,CLR,M,M,M,M,M,M,M,M,M,M,M,M,M,M,88.76,KBAM 242015Z AUTO 22012G19KT 10SM CLR 34/02 A3006 RMK AO1,M
HTH,2024-06-24 20:15,-118.6315,38.5448,1282.89,95.00,39.20,14.44,310.00,7.00,0.00,30.00,M,10.00,14.00,CLR,M,M,M,M,M,M,M,M,M,M,M,M,M,M,90.57,KHTH 242015Z AUTO 31007G14KT 10SM CLR 35/04 A3000 RMK A01,M
10U,2024-06-24 20:15,-116.1876,41.9532,1637.00,86.00,21.20,9.21,220.00,10.00,0.00,30.10,M,10.00,22.00,CLR,M,M,M,M,M,M,M,M,M,M,M,M,M,M,82.04,K10U 242015Z AUTO 22010G22KT 10SM CLR 30/M06 A3010 RMK AO2,M
TMT,2024-06-24 20:15,-117.1971,39.4643,1749.34,89.60,39.60,17.36,190.00,6.00,0.00,30.14,M,10.00,M,CLR,M,M,M,M,M,M,M,M,M,M,M,M,M,M,85.75,KTMT 242015Z AUTO 19006KT 10SM CLR 32/04 A3014 RMK AO2 T03200042,M
BVU,2024-06-24 20:35,-114.8611,35.9475,671.00,104.00,53.60,18.95,160.00,11.00,0.00,29.82,M,10.00,17.00,CLR,M,M,M,M,M,M,M,M,M,M,M,M,M,M,102.31,KBVU 242035Z AUTO 16011G17KT 10SM CLR 40/12 A2982 RMK AO2,M
CXP,2024-06-24 20:35,-119.7326,39.1923,1431.00,89.60,44.60,21.04,250.00,10.00,0.00,30.08,M,10.00,17.00,CLR,M,M,M,M,M,M,M,M,M,M,M,M,M,M,86.07,KCXP 242035Z AUTO 25010G17KT 220V280 10SM CLR 32/07 A3008 RMK AO2,M
RTS,2024-06-24 20:35,-119.8764,39.6682,1539.00,87.80,35.60,15.70,240.00,16.00,0.00,30.11,M,10.00,24.00,CLR,M,M,M,M,M,M,M,M,M,M,M,M,M,M,84.12,KRTS 242035Z AUTO 24016G24KT 10SM CLR 31/02 A3011 RMK AO2,M
MEV,2024-06-24 20:35,-119.7500,38.9963,1441.42,89.60,42.80,19.64,M,4.00,0.00,30.06,M,10.00,13.00,CLR,M,M,M,M,M,M,M,M,M,M,M,M,M,M,85.93,KMEV 242035Z AUTO VRB04G13KT 10SM CLR 32/06 A3006 RMK AO2,M
BAM,2024-06-24 20:35,-116.8743,40.5990,1382.36,95.00,33.80,11.67,240.00,7.00,0.00,30.05,M,10.00,20.00,CLR,M,M,M,M,M,M,M,M,M,M,M,M,M,M,89.97,KBAM 242035Z AUTO 24007G20KT 10SM CLR 35/01 A3005 RMK AO1,M
HTH,2024-06-24 20:35,-118.6315,38.5448,1282.89,95.00,41.00,15.49,M,5.00,0.00,30.00,M,10.00,13.00,CLR,M,M,M,M,M,M,M,M,M,M,M,M,M,M,90.70,KHTH 242035Z AUTO VRB05G13KT 10SM CLR 35/05 A3000 RMK A01,M
10U,2024-06-24 20:35,-116.1876,41.9532,1637.00,86.00,21.20,9.21,190.00,11.00,0.00,30.09,M,10.00,23.00,CLR,M,M,M,M,M,M,M,M,M,M,M,M,M,M,82.04,K10U 242035Z AUTO 19011G23KT 10SM CLR 30/M06 A3009 RMK AO2,M
TMT,2024-06-24 20:35,-117.1971,39.4643,1749.34,88.30,37.20,16.46,150.00,5.00,0.00,30.13,M,10.00,10.00,CLR,M,M,M,M,M,M,M,M,M,M,M,M,M,M,84.57,KTMT 242035Z AUTO 15005G10KT 10SM CLR 31/03 A3013 RMK AO2 T03130029,M
RTS,2024-06-24 20:45,-119.8764,39.6682,1539.00,87.80,35.60,15.70,240.00,16.00,0.00,30.11,M,10.00,24.00,CLR,M,M,M,M,M,M,M,M,M,M,M,M,M,M,84.12,KRTS 242045Z AUTO 24016G24KT 10SM CLR 31/02 A3011 RMK AO2,M
MEV,2024-06-24 20:45,-119.7500,38.9963,1441.42,93.20,41.00,16.37,240.00,10.00,0.00,30.06,M,10.00,16.00,CLR,M,M,M,M,M,M,M,M,M,M,M,M,M,M,89.03,KMEV 242045Z AUTO 24010G16KT 10SM CLR 34/05 A3006 RMK AO2,M
P68,2024-06-24 20:53,-116.0056,39.6014,1993.00,90.00,30.00,11.70,310.00,6.00,0.00,30.12,1010.10,M,24.00,M,M,M,M,M,M,M,M,M,M,M,M,30.00,260.00,2024-06-24 20:31,85.63,KP68 242053Z AUTO 31006G24KT 32/M01 A3012 RMK AO1 PK WND 26030/2031 SLP101 T03221011 57019,M
DRA,2024-06-24 20:53,-116.0278,36.6206,1009.00,104.00,43.00,12.74,260.00,9.00,0.00,29.91,1006.50,10.00,21.00,CLR,M,M,M,M,M,M,M,M,M,M,M,M,M,M,99.47,KDRA 242053Z AUTO 26009G21KT 10SM CLR 40/06 A2991 RMK AO2 SLP065 T04000061 58016,M
ELY,2024-06-24 20:53,-114.8453,39.2950,1909.00,90.00,29.00,11.23,M,M,0.00,30.14,1009.20,10.00,M,CLR,M,M,M,M,M,M,M,M,M,M,M,M,M,M,85.53,KELY 242053Z AUTO 10SM CLR 32/M02 A3014 RMK AO2 SLP092 T03221017 58016,M
VGT,2024-06-24 20:53,-115.1933,36.2111,667.00,110.00,49.00,13.40,190.00,12.00,0.00,29.79,1006.70,10.00,17.00,CLR,M,M,M,M,M,M,M,M,M,M,M,M,M,M,106.81,KVGT 242053Z 19012G17KT 10SM CLR 43/09 A2979 RMK AO2 SLP067 T04330094 58025,M
LOL,2024-06-24 20:53,-118.5701,40.0684,1192.43,93.00,42.00,17.13,210.00,9.00,0.00,29.98,1010.80,10.00,16.00,CLR,M,M,M,M,M,M,M,M,M,M,M,30.00,200.00,2024-06-24 20:27,88.92,KLOL 242053Z AUTO 21009G16KT 10SM CLR 34/06 A2998 RMK AO2 PK WND 20030/2027 SLP108 T03390056 58020,M
BVU,2024-06-24 20:55,-114.8611,35.9475,671.00,104.00,55.40,20.24,210.00,11.00,0.00,29.82,M,10.00,21.00,CLR,M,M,M,M,M,M,M,M,M,M,M,M,M,M,103.01,KBVU 242055Z AUTO 21011G21KT 10SM CLR 40/13 A2982 RMK AO2,M
CXP,2024-06-24 20:55,-119.7326,39.1923,1431.00,89.60,44.60,21.04,260.00,11.00,0.00,30.08,M,5.00,21.00,CLR,M,M,M,M,M,M,M,HZ,M,M,M,M,M,M,86.07,KCXP 242055Z AUTO 26011G21KT 230V290 5SM HZ CLR 32/07 A3008 RMK AO2,M
RNO,2024-06-24 20:55,-119.7711,39.4839,1341.00,94.00,55.00,27.02,210.00,7.00,0.00,30.03,1010.30,10.00,19.00,FEW,M,M,M,9500.00,M,M,M,M,M,M,M,29.00,160.00,2024-06-24 19:57,92.06,KRNO 242055Z 21007G19KT 170V240 10SM FEW095 34/13 A3003 RMK AO2 PK WND 16029/1957 SLP103 T03440128 56014,M
LSV,2024-06-24 20:55,-115.0343,36.2362,570.00,108.70,42.60,10.92,170.00,11.00,0.00,29.74,1003.70,10.00,14.00,CLR,M,M,M,M,M,M,M,M,M,M,M,M,M,M,103.56,KLSV 242055Z AUTO 17011G14KT 10SM CLR 43/06 A2974 RMK AO2 SLP037 T04260059 57024 $,M
BAM,2024-06-24 20:55,-116.8743,40.5990,1382.36,95.00,33.80,11.67,210.00,15.00,0.00,30.04,M,10.00,21.00,CLR,M,M,M,M,M,M,M,M,M,M,M,M,M,M,89.97,KBAM 242055Z AUTO 21015G21KT 10SM CLR 35/01 A3004 RMK AO1,M
HTH,2024-06-24 20:55,-118.6315,38.5448,1282.89,96.80,39.20,13.66,M,5.00,0.00,29.99,M,10.00,10.00,CLR,M,M,M,M,M,M,M,M,M,M,M,M,M,M,92.23,KHTH 242055Z AUTO VRB05G10KT 10SM CLR 36/04 A2999 RMK A01,M
10U,2024-06-24 20:55,-116.1876,41.9532,1637.00,87.80,21.20,8.70,240.00,14.00,0.00,30.09,M,10.00,24.00,CLR,M,M,M,M,M,M,M,M,M,M,M,M,M,M,83.33,K10U 242055Z AUTO 24014G24KT 10SM CLR 31/M06 A3009 RMK AO2,M
TMT,2024-06-24 20:55,-117.1971,39.4643,1749.34,91.00,32.00,12.29,270.00,12.00,0.00,30.13,M,10.00,18.00,CLR,M,M,M,M,M,M,M,M,M,M,M,M,M,M,86.61,KTMT 242055Z AUTO 27012G18KT 10SM CLR 33/00 A3013 RMK AO2 T03270001,M
INS,2024-06-24 20:55,-115.6733,36.5872,955.00,104.00,39.00,10.91,150.00,5.00,0.00,29.88,M,10.00,M,CLR,M,M,M,M,M,M,M,M,M,M,M,M,M,M,98.51,KINS 242055Z AUTO 15005KT 10SM CLR 40/04 A2988 RMK AO2 SLPNO T04000039 57022 $,M
EKO,2024-06-24 20:56,-115.7860,40.8242,1367.00,91.00,37.00,15.00,230.00,14.00,0.00,30.07,1012.10,10.00,19.00,CLR,M,M,M,M,M,M,M,M,M,M,M,M,M,M,86.86,KEKO 242056Z AUTO 23014G19KT 10SM CLR 33/03 A3007 RMK AO2 SLP121 T03280028 58018,M
WMC,2024-06-24 20:56,-117.8072,40.9019,1315.00,96.00,32.00,10.53,250.00,15.00,T,30.01,1010.00,10.00,26.00,CLR,M,M,M,M,M,M,M,-RA,M,M,M,27.00,260.00,2024-06-24 20:03,90.53,KWMC 242056Z AUTO 25015G26KT 10SM -RA CLR 36/00 A3001 RMK AO2 PK WND 26027/2003 RAE15B55 SLP100 P0000 60000 T03560000 56016,M
NFL,2024-06-24 20:56,-118.7010,39.4166,1199.00,96.00,41.00,15.02,M,4.00,0.00,29.97,1012.20,10.00,M,SCT,M,M,M,8000.00,M,M,M,M,M,M,M,M,M,M,91.64,KNFL 242056Z VRB04KT 10SM SCT080 36/05 A2997 RMK AO2 SLP122 T03560050 58023,M
HND,2024-06-24 20:56,-115.1344,35.9729,742.79,108.00,51.00,15.30,200.00,7.00,0.00,29.85,1008.20,10.00,14.00,CLR,M,M,M,M,M,M,M,M,M,M,M,M,M,M,105.54,KHND 242056Z 20007G14KT 10SM CLR 42/11 A2985 RMK AO2 SLP082 T04220106 58021,M
TPH,2024-06-24 20:56,-117.0904,38.0505,1654.00,94.00,29.00,9.91,M,M,0.00,30.10,1008.90,10.00,M,CLR,M,M,M,M,M,M,M,M,M,M,M,M,M,M,88.57,KTPH 242056Z AUTO 10SM CLR 34/M02 A3010 RMK AO2 SLP089 T03441017 58016,M
LAS,2024-06-24 20:56,-115.1634,36.0719,663.00,109.00,47.00,12.80,M,4.00,0.00,29.81,1005.80,10.00,M,FEW,FEW,SCT,M,12000.00,16000.00,25000.00,M,M,M,M,M,M,M,M,105.20,KLAS 242056Z VRB04KT 10SM FEW120 FEW160 SCT250 43/08 A2981 RMK AO2 SLP058 CB DSNT SE T04280083 56019,M
LSV,2024-06-24 20:59,-115.0343,36.2362,570.00,109.40,41.00,10.06,200.00,13.00,0.00,29.74,1003.70,10.00,M,CLR,M,M,M,M,M,M,M,M,M,M,M,M,M,M,103.77,KLSV 242059Z AUTO 20013KT 10SM CLR 43/05 A2974 RMK AO2 WSHFT 56 SLP037 $,M
BVU,2024-06-24 21:15,-114.8611,35.9475,671.00,104.00,55.40,20.24,150.00,17.00,0.00,29.81,M,10.00,M,CLR,M,M,M,M,M,M,M,M,M,M,M,M,M,M,103.01,KBVU 242115Z AUTO 15017KT 10SM CLR 40/13 A2981 RMK AO2,M
CXP,2024-06-24 21:15,-119.7326,39.1923,1431.00,89.60,44.60,21.04,M,6.00,0.00,30.07,M,10.00,25.00,CLR,M,M,M,M,M,M,M,M,M,M,M,M,M,M,86.07,KCXP 242115Z AUTO VRB06G25KT 10SM CLR 32/07 A3007 RMK AO2,M
RTS,2024-06-24 21:15,-119.8764,39.6682,1539.00,87.80,32.00,13.59,240.00,17.00,0.00,30.10,M,10.00,24.00,CLR,M,M,M,M,M,M,M,M,M,M,M,M,M,M,84.08,KRTS 242115Z AUTO 24017G24KT 10SM CLR 31/00 A3010 RMK AO2,M
MEV,2024-06-24 21:15,-119.7500,38.9963,1441.42,93.20,41.00,16.37,240.00,14.00,0.00,30.05,M,10.00,21.00,CLR,M,M,M,M,M,M,M,M,M,M,M,M,M,M,89.03,KMEV 242115Z AUTO 24014G21KT 10SM CLR 34/05 A3005 RMK AO2,M
BAM,2024-06-24 21:15,-116.8743,40.5990,1382.36,95.00,33.80,11.67,220.00,7.00,0.00,30.04,M,10.00,15.00,CLR,M,M,M,M,M,M,M,M,M,M,M,M,M,M,89.97,KBAM 242115Z AUTO 22007G15KT 10SM CLR 35/01 A3004 RMK AO1,M
HTH,2024-06-24 21:15,-118.6315,38.5448,1282.89,96.80,37.40,12.73,M,5.00,0.00,29.98,M,10.00,10.00,CLR,M,M,M,M,M,M,M,M,M,M,M,M,M,M,92.04,KHTH 242115Z AUTO VRB05G10KT 10SM CLR 36/03 A2998 RMK A01,M
10U,2024-06-24 21:15,-116.1876,41.9532,1637.00,87.80,21.20,8.70,230.00,13.00,0.00,30.09,M,10.00,25.00,CLR,M,M,M,M,M,M,M,M,M,M,M,M,M,M,83.33,K10U 242115Z AUTO 23013G25KT 10SM CLR 31/M06 A3009 RMK AO2,M
TMT,2024-06-24 21:15,-117.1971,39.4643,1749.34,91.40,26.00,9.50,280.00,7.00,0.00,30.12,M,10.00,22.00,CLR,M,M,M,M,M,M,M,M,M,M,M,M,M,M,86.31,KTMT 242115Z AUTO 28007G22KT 10SM CLR 33/M03 A3012 RMK AO2 T03301033,M
10U,2024-06-24 21:30,-116.1876,41.9532,1637.00,86.00,19.40,8.53,220.00,20.00,0.00,30.08,M,10.00,25.00,CLR,M,M,M,M,M,M,M,M,M,M,M,M,M,M,81.94,K10U 242130Z AUTO 22020G25KT 10SM CLR 30/M07 A3008 RMK AO2,M
BVU,2024-06-24 21:35,-114.8611,35.9475,671.00,105.80,53.60,17.97,140.00,15.00,0.00,29.79,M,10.00,M,CLR,M,M,M,M,M,M,M,M,M,M,M,M,M,M,104.23,KBVU 242135Z AUTO 14015KT 10SM CLR 41/12 A2979 RMK AO2,M
CXP,2024-06-24 21:35,-119.7326,39.1923,1431.00,89.60,42.80,19.64,250.00,11.00,0.00,30.07,M,10.00,22.00,CLR,M,M,M,M,M,M,M,M,M,M,M,M,M,M,85.93,KCXP 242135Z AUTO 25011G22KT 10SM CLR 32/06 A3007 RMK AO2,M
RTS,2024-06-24 21:35,-119.8764,39.6682,1539.00,87.80,32.00,13.59,250.00,16.00,0.00,30.10,M,10.00,22.00,CLR,M,M,M,M,M,M,M,M,M,M,M,M,M,M,84.08,KRTS 242135Z AUTO 25016G22KT 10SM CLR 31/00 A3010 RMK AO2,M
MEV,2024-06-24 21:35,-119.7500,38.9963,1441.42,93.20,39.20,15.27,240.00,14.00,0.00,30.05,M,10.00,21.00,CLR,M,M,M,M,M,M,M,M,M,M,M,M,M,M,88.92,KMEV 242135Z AUTO 24014G21KT 10SM CLR 34/04 A3005 RMK AO2,M
BAM,2024-06-24 21:35,-116.8743,40.5990,1382.36,95.00,33.80,11.67,250.00,9.00,0.00,30.03,M,10.00,18.00,CLR,M,M,M,M,M,M,M,M,M,M,M,M,M,M,89.97,KBAM 242135Z AUTO 25009G18KT 10SM CLR 35/01 A3003 RMK AO1,M
HTH,2024-06-24 21:35,-118.6315,38.5448,1282.89,96.80,39.20,13.66,330.00,10.00,0.00,29.97,M,10.00,20.00,CLR,M,M,M,M,M,M,M,M,M,M,M,M,M,M,92.23,KHTH 242135Z AUTO 33010G20KT 10SM CLR 36/04 A2997 RMK A01,M
TMT,2024-06-24 21:35,-117.1971,39.4643,1749.34,92.00,26.00,9.32,280.00,14.00,0.00,30.11,M,10.00,18.00,CLR,M,M,M,M,M,M,M,M,M,M,M,M,M,M,86.76,KTMT 242135Z AUTO 28014G18KT 10SM CLR 33/M03 A3011 RMK AO2 T03331033,M
LSV,2024-06-24 21:41,-115.0343,36.2362,570.00,109.40,46.40,12.37,140.00,13.00,0.00,29.72,1003.10,10.00,M,CLR,M,M,M,M,M,M,M,M,M,M,M,M,M,M,105.36,KLSV 242141Z AUTO 14013KT 10SM CLR 43/08 A2972 RMK AO2 WSHFT 38 SLP031 $,M
P68,2024-06-24 21:53,-116.0056,39.6014,1993.00,93.00,30.00,10.65,290.00,17.00,0.00,30.09,1009.70,M,23.00,M,M,M,M,M,M,M,M,M,M,M,M,M,M,M,87.91,KP68 242153Z AUTO 29017G23KT 34/M01 A3009 RMK AO1 SLP097 T03391011,M
DRA,2024-06-24 21:53,-116.0278,36.6206,1009.00,105.00,42.00,11.90,250.00,6.00,0.00,29.89,1005.60,10.00,16.00,CLR,M,M,M,M,M,M,M,M,M,M,M,M,M,M,100.10,KDRA 242153Z AUTO 25006G16KT 10SM CLR 41/06 A2989 RMK AO2 SLP056 T04060056,M
ELY,2024-06-24 21:53,-114.8453,39.2950,1909.00,90.00,30.00,11.70,330.00,7.00,0.00,30.12,1009.10,10.00,M,CLR,M,M,M,M,M,M,M,M,M,M,M,M,M,M,85.63,KELY 242153Z AUTO 33007KT 10SM CLR 32/M01 A3012 RMK AO2 SLP091 T03221011,M
VGT,2024-06-24 21:53,-115.1933,36.2111,667.00,112.00,47.00,11.73,210.00,10.00,0.00,29.77,1005.80,10.00,20.00,CLR,M,M,M,M,M,M,M,M,M,M,M,M,M,M,108.01,KVGT 242153Z 21010G20KT 190V250 10SM CLR 44/08 A2977 RMK AO2 SLP058 T04440083,M
LOL,2024-06-24 21:53,-118.5701,40.0684,1192.43,94.00,43.00,17.25,150.00,6.00,0.00,29.96,1010.00,10.00,M,CLR,M,M,M,M,M,M,M,M,M,M,M,M,M,M,89.94,KLOL 242153Z AUTO 15006KT 10SM CLR 34/06 A2996 RMK AO2 SLP100 T03440061,M
BVU,2024-06-24 21:55,-114.8611,35.9475,671.00,105.80,51.80,16.82,150.00,14.00,0.00,29.78,M,10.00,M,CLR,M,M,M,M,M,M,M,M,M,M,M,M,M,M,103.57,KBVU 242155Z AUTO 15014KT 10SM CLR 41/11 A2978 RMK AO2,M
CXP,2024-06-24 21:55,-119.7326,39.1923,1431.00,89.60,42.80,19.64,240.00,9.00,0.00,30.07,M,10.00,20.00,CLR,M,M,M,M,M,M,M,M,M,M,M,M,M,M,85.93,KCXP 242155Z AUTO 24009G20KT 220V290 10SM CLR 32/06 A3007 RMK AO2,M
RNO,2024-06-24 21:55,-119.7711,39.4839,1341.00,95.00,56.00,27.16,270.00,16.00,0.00,30.02,1009.90,10.00,23.00,FEW,M,M,M,10000.00,M,M,M,M,M,M,M,M,M,M,93.41,KRNO 242155Z 27016G23KT 10SM FEW100 35/13 A3002 RMK AO2 SLP099 T03500133,M
LSV,2024-06-24 21:55,-115.0343,36.2362,570.00,109.20,45.30,11.93,140.00,10.00,0.00,29.71,1002.70,10.00,20.00,CLR,M,M,M,M,M,M,M,M,M,M,M,27.00,170.00,2024-06-24 21:32,104.81,KLSV 242155Z AUTO 14010G20KT 10SM CLR 43/07 A2971 RMK AO2 PK WND 17027/32 SLP027 T04290074 $,M
RTS,2024-06-24 21:55,-119.8764,39.6682,1539.00,87.80,33.80,14.61,230.00,18.00,0.00,30.10,M,10.00,M,CLR,M,M,M,M,M,M,M,M,M,M,M,M,M,M,84.10,KRTS 242155Z AUTO 23018KT 10SM CLR 31/01 A3010 RMK AO2,M
MEV,2024-06-24 21:55,-119.7500,38.9963,1441.42,93.20,39.20,15.27,240.00,14.00,0.00,30.05,M,10.00,M,CLR,M,M,M,M,M,M,M,M,M,M,M,M,M,M,88.92,KMEV 242155Z AUTO 24014KT 10SM CLR 34/04 A3005 RMK AO2,M
BAM,2024-06-24 21:55,-116.8743,40.5990,1382.36,95.00,33.80,11.67,250.00,14.00,0.00,30.02,M,10.00,24.00,CLR,M,M,M,M,M,M,M,M,M,M,M,M,M,M,89.97,KBAM 242155Z AUTO 25014G24KT 10SM CLR 35/01 A3002 RMK AO1,M
HTH,2024-06-24 21:55,-118.6315,38.5448,1282.89,98.60,33.80,10.45,330.00,14.00,0.00,29.96,M,10.00,19.00,CLR,M,M,M,M,M,M,M,M,M,M,M,M,M,M,92.94,KHTH 242155Z AUTO 33014G19KT 10SM CLR 37/01 A2996 RMK A01,M
10U,2024-06-24 21:55,-116.1876,41.9532,1637.00,87.80,19.40,8.06,220.00,17.00,0.00,30.08,M,10.00,25.00,CLR,M,M,M,M,M,M,M,M,M,M,M,M,M,M,83.23,K10U 242155Z AUTO 22017G25KT 10SM CLR 31/M07 A3008 RMK AO2,M
TMT,2024-06-24 21:55,-117.1971,39.4643,1749.34,91.40,29.50,10.97,240.00,11.00,0.00,30.11,M,10.00,19.00,CLR,M,M,M,M,M,M,M,M,M,M,M,M,M,M,86.63,KTMT 242155Z AUTO 24011G19KT 10SM CLR 33/M01 A3011 RMK AO2 T03301014,M
INS,2024-06-24 21:55,-115.6733,36.5872,955.00,105.00,34.70,8.94,100.00,3.00,0.00,29.84,M,10.00,M,FEW,M,M,M,14000.00,M,M,M,M,M,M,M,M,M,M,98.56,KINS 242155Z AUTO 10003KT 10SM FEW140 41/02 A2984 RMK AO2 SLPNO T04050015 $,M
EKO,2024-06-24 21:56,-115.7860,40.8242,1367.00,93.00,33.00,12.02,270.00,17.00,0.00,30.05,1010.90,10.00,27.00,CLR,M,M,M,M,M,M,M,M,M,M,M,27.00,270.00,2024-06-24 21:54,88.28,KEKO 242156Z AUTO 27017G27KT 10SM CLR 34/01 A3005 RMK AO2 PK WND 27027/2154 SLP109 T03390006,M
WMC,2024-06-24 21:56,-117.8072,40.9019,1315.00,95.00,32.00,10.85,200.00,11.00,T,29.99,1009.20,10.00,23.00,CLR,M,M,M,M,M,M,M,M,M,M,M,30.00,230.00,2024-06-24 21:45,89.71,KWMC 242156Z AUTO 20011G23KT 10SM CLR 35/00 A2999 RMK AO2 PK WND 23030/2145 RAE05 SLP092 P0000 T03500000,M
NFL,2024-06-24 21:56,-118.7010,39.4166,1199.00,98.00,42.00,14.68,310.00,8.00,0.00,29.96,1011.70,10.00,M,SCT,M,M,M,8000.00,M,M,M,M,M,M,M,M,M,M,93.63,KNFL 242156Z 31008KT 250V330 10SM SCT080 37/06 A2996 RMK AO2 SLP117 T03670056,M
HND,2024-06-24 21:56,-115.1344,35.9729,742.79,108.00,50.00,14.75,210.00,7.00,0.00,29.82,1007.40,10.00,M,CLR,M,M,M,M,M,M,M,M,M,M,M,M,M,M,105.19,KHND 242156Z 21007KT 10SM CLR 42/10 A2982 RMK AO2 SLP074 T04220100,M
TPH,2024-06-24 21:56,-117.0904,38.0505,1654.00,96.00,28.00,8.94,220.00,12.00,0.00,30.07,1008.30,10.00,19.00,CLR,M,M,M,M,M,M,M,M,M,M,M,M,M,M,90.05,KTPH 242156Z AUTO 22012G19KT 10SM CLR 36/M02 A3007 RMK AO2 SLP083 T03561022,M
LAS,2024-06-24 21:56,-115.1634,36.0719,663.00,109.00,44.00,11.42,M,6.00,0.00,29.78,1004.60,10.00,16.00,FEW,FEW,SCT,M,12000.00,16000.00,25000.00,M,M,M,M,M,M,M,M,104.23,KLAS 242156Z VRB06G16KT 10SM FEW120 FEW160 SCT250 43/07 A2978 RMK AO2 SLP046 CB DSNT E AND S T04280067,M
LSV,2024-06-24 21:58,-115.0343,36.2362,570.00,109.40,46.40,12.37,140.00,12.00,0.00,29.71,1002.70,10.00,21.00,CLR,M,M,M,M,M,M,M,M,M,M,M,M,M,M,105.36,KLSV 242158Z AUTO 14012G21KT 10SM CLR 43/08 A2971 RMK AO2 WSHFT 50 SLP027 $,M
LSV,2024-06-24 22:01,-115.0343,36.2362,570.00,109.40,46.40,12.37,180.00,12.00,0.00,29.71,1002.70,10.00,21.00,CLR,M,M,M,M,M,M,M,M,M,M,M,M,M,M,105.36,KLSV 242201Z AUTO 18012G21KT 10SM CLR 43/08 A2971 RMK AO2 WSHFT 2159 SLP027 $,M
LAS,2024-06-24 22:08,-115.1634,36.0719,663.00,110.00,45.00,11.53,240.00,5.00,0.00,29.78,M,10.00,M,FEW,FEW,SCT,M,12000.00,16000.00,25000.00,M,M,M,M,M,M,M,M,105.45,KLAS 242208Z 24005KT 10SM FEW120 FEW160 SCT250 43/07 A2978 RMK AO2 CB DSNT E AND S T04330072,M
BVU,2024-06-24 22:15,-114.8611,35.9475,671.00,105.80,51.80,16.82,150.00,12.00,0.00,29.77,M,10.00,20.00,CLR,M,M,M,M,M,M,M,M,M,M,M,M,M,M,103.57,KBVU 242215Z AUTO 15012G20KT 10SM CLR 41/11 A2977 RMK AO2,M
CXP,2024-06-24 22:15,-119.7326,39.1923,1431.00,91.40,42.80,18.56,260.00,12.00,0.00,30.07,M,10.00,22.00,CLR,M,M,M,M,M,M,M,M,M,M,M,M,M,M,87.52,KCXP 242215Z AUTO 26012G22KT 200V280 10SM CLR 33/06 A3007 RMK AO2,M
RTS,2024-06-24 22:15,-119.8764,39.6682,1539.00,87.80,35.60,15.70,230.00,14.00,0.00,30.09,M,10.00,20.00,CLR,M,M,M,M,M,M,M,M,M,M,M,M,M,M,84.12,KRTS 242215Z AUTO 23014G20KT 10SM CLR 31/02 A3009 RMK AO2,M
MEV,2024-06-24 22:15,-119.7500,38.9963,1441.42,93.20,42.80,17.55,240.00,15.00,0.00,30.05,M,10.00,20.00,CLR,M,M,M,M,M,M,M,M,M,M,M,M,M,M,89.17,KMEV 242215Z AUTO 24015G20KT 10SM CLR 34/06 A3005 RMK AO2,M
BAM,2024-06-24 22:15,-116.8743,40.5990,1382.36,96.80,33.80,11.04,250.00,15.00,0.00,30.01,M,10.00,21.00,CLR,M,M,M,M,M,M,M,M,M,M,M,M,M,M,91.44,KBAM 242215Z AUTO 25015G21KT 10SM CLR 36/01 A3001 RMK AO1,M
HTH,2024-06-24 22:15,-118.6315,38.5448,1282.89,98.60,32.00,9.72,M,4.00,0.00,29.96,M,10.00,14.00,CLR,M,M,M,M,M,M,M,M,M,M,M,M,M,M,92.69,KHTH 242215Z AUTO VRB04G14KT 10SM CLR 37/M00 A2996 RMK A01,M
10U,2024-06-24 22:15,-116.1876,41.9532,1637.00,87.80,19.40,8.06,230.00,14.00,0.00,30.07,M,10.00,22.00,CLR,M,M,M,M,M,M,M,M,M,M,M,M,M,M,83.23,K10U 242215Z AUTO 23014G22KT 10SM CLR 31/M07 A3007 RMK AO2,M
TMT,2024-06-24 22:15,-117.1971,39.4643,1749.34,92.00,31.60,11.72,200.00,10.00,0.00,30.10,M,10.00,16.00,CLR,M,M,M,M,M,M,M,M,M,M,M,M,M,M,87.33,KTMT 242215Z AUTO 20010G16KT 10SM CLR 33/00 A3010 RMK AO2 T03341002,M
BVU,2024-06-24 22:35,-114.8611,35.9475,671.00,107.60,51.80,15.95,160.00,11.00,0.00,29.76,M,10.00,20.00,CLR,M,M,M,M,M,M,M,M,M,M,M,M,M,M,105.43,KBVU 242235Z AUTO 16011G20KT 10SM CLR 42/11 A2976 RMK AO2,M
CXP,2024-06-24 22:35,-119.7326,39.1923,1431.00,89.60,44.60,21.04,270.00,15.00,0.00,30.06,M,10.00,27.00,CLR,M,M,M,M,M,M,M,M,M,M,M,M,M,M,86.07,KCXP 242235Z AUTO 27015G27KT 10SM CLR 32/07 A3006 RMK AO2,M
RTS,2024-06-24 22:35,-119.8764,39.6682,1539.00,87.80,35.60,15.70,250.00,10.00,0.00,30.09,M,10.00,23.00,CLR,M,M,M,M,M,M,M,M,M,M,M,M,M,M,84.12,KRTS 242235Z AUTO 25010G23KT 10SM CLR 31/02 A3009 RMK AO2,M
MEV,2024-06-24 22:35,-119.7500,38.9963,1441.42,91.40,41.00,17.32,240.00,16.00,0.00,30.05,M,10.00,21.00,CLR,M,M,M,M,M,M,M,M,M,M,M,M,M,M,87.40,KMEV 242235Z AUTO 24016G21KT 10SM CLR 33/05 A3005 RMK AO2,M
BAM,2024-06-24 22:35,-116.8743,40.5990,1382.36,96.80,33.80,11.04,270.00,15.00,0.00,30.00,M,10.00,19.00,CLR,M,M,M,M,M,M,M,M,M,M,M,M,M,M,91.44,KBAM 242235Z AUTO 27015G19KT 10SM CLR 36/01 A3000 RMK AO1,M
HTH,2024-06-24 22:35,-118.6315,38.5448,1282.89,98.60,32.00,9.72,330.00,8.00,0.00,29.95,M,10.00,14.00,CLR,M,M,M,M,M,M,M,M,M,M,M,M,M,M,92.69,KHTH 242235Z AUTO 33008G14KT 10SM CLR 37/M00 A2995 RMK A01,M
10U,2024-06-24 22:35,-116.1876,41.9532,1637.00,87.80,21.20,8.70,200.00,15.00,0.00,30.07,M,10.00,21.00,CLR,M,M,M,M,M,M,M,M,M,M,M,M,M,M,83.33,K10U 242235Z AUTO 20015G21KT 10SM CLR 31/M06 A3007 RMK AO2,M
TMT,2024-06-24 22:35,-117.1971,39.4643,1749.34,92.30,31.60,11.61,240.00,5.00,0.00,30.09,M,10.00,M,CLR,M,M,M,M,M,M,M,M,M,M,M,M,M,M,87.56,KTMT 242235Z AUTO 24005KT 10SM CLR 34/00 A3009 RMK AO2 T03351002,M
INS,2024-06-24 22:38,-115.6733,36.5872,955.00,107.60,33.80,7.99,220.00,14.00,0.00,29.83,M,10.00,22.00,SCT,M,M,M,13000.00,M,M,M,M,M,M,M,M,M,M,100.66,KINS 242238Z AUTO 22014G22KT 10SM SCT130 42/01 A2983 RMK AO2 WSHFT 33 SLPNO $,M
DRA,2024-06-24 22:39,-116.0278,36.6206,1009.00,106.00,40.00,10.69,250.00,11.00,0.00,29.87,M,10.00,20.00,CLR,M,M,M,M,M,M,M,M,M,M,M,28.00,190.00,2024-06-24 22:17,100.50,KDRA 242239Z AUTO 25011G20KT 10SM CLR 41/04 A2987 RMK AO2 PK WND 19028/2217 WSHFT 2222 T04110044,M
INS,2024-06-24 22:50,-115.6733,36.5872,955.00,107.60,30.20,6.91,240.00,10.00,0.00,29.82,M,10.00,20.00,FEW,M,M,M,13000.00,M,M,M,M,M,M,M,M,M,M,100.10,KINS 242250Z AUTO 24010G20KT 10SM FEW130 42/M01 A2982 RMK AO2 WSHFT 46 SLPNO $,M
CXP,2024-06-24 22:50,-119.7326,39.1923,1431.00,89.60,44.60,21.04,250.00,12.00,0.00,30.07,M,10.00,24.00,CLR,M,M,M,M,M,M,M,M,M,M,M,M,M,M,86.07,KCXP 242250Z AUTO 25012G24KT 220V280 10SM CLR 32/07 A3007 RMK AO2,M
P68,2024-06-24 22:53,-116.0056,39.6014,1993.00,93.00,29.00,10.22,280.00,10.00,0.00,30.07,1009.00,M,23.00,M,M,M,M,M,M,M,M,M,M,M,M,M,M,M,87.80,KP68 242253Z AUTO 28010G23KT 34/M02 A3007 RMK AO1 SLP090 T03391017,M
DRA,2024-06-24 22:53,-116.0278,36.6206,1009.00,106.00,40.00,10.69,260.00,17.00,0.00,29.86,1004.80,10.00,24.00,CLR,M,M,M,M,M,M,M,M,M,M,M,28.00,190.00,2024-06-24 22:17,100.50,KDRA 242253Z AUTO 26017G24KT 10SM CLR 41/04 A2986 RMK AO2 PK WND 19028/2217 WSHFT 2222 SLP048 T04110044,M
ELY,2024-06-24 22:53,-114.8453,39.2950,1909.00,88.00,28.00,11.48,90.00,3.00,0.00,30.10,1008.60,10.00,M,CLR,M,M,M,M,M,M,M,M,M,M,M,M,M,M,83.95,KELY 242253Z AUTO 09003KT 10SM CLR 31/M02 A3010 RMK AO2 SLP086 T03111022,M
VGT,2024-06-24 22:53,-115.1933,36.2111,667.00,111.00,46.00,11.63,250.00,11.00,0.00,29.74,1004.90,10.00,19.00,CLR,M,M,M,M,M,M,M,M,M,M,M,M,M,M,106.70,KVGT 242253Z 25011G19KT 10SM CLR 44/08 A2974 RMK AO2 SLP049 T04390078,M
LOL,2024-06-24 22:53,-118.5701,40.0684,1192.43,97.00,36.00,11.98,250.00,16.00,0.00,29.93,1009.10,10.00,26.00,CLR,M,M,M,M,M,M,M,M,M,M,M,29.00,220.00,2024-06-24 22:30,91.96,KLOL 242253Z AUTO 25016G26KT 10SM CLR 36/02 A2993 RMK AO2 PK WND 22029/2230 SLP091 T03610022,M
BVU,2024-06-24 22:55,-114.8611,35.9475,671.00,105.80,51.80,16.82,150.00,10.00,0.00,29.75,M,10.00,17.00,CLR,M,M,M,M,M,M,M,M,M,M,M,M,M,M,103.57,KBVU 242255Z AUTO 15010G17KT 10SM CLR 41/11 A2975 RMK AO2,M
RNO,2024-06-24 22:55,-119.7711,39.4839,1341.00,95.00,56.00,27.16,260.00,14.00,0.00,30.01,1009.70,10.00,26.00,FEW,M,M,M,10000.00,M,M,M,M,M,M,M,28.00,290.00,2024-06-24 22:25,93.41,KRNO 242255Z 26014G26KT 10SM FEW100 35/13 A3001 RMK AO2 PK WND 29028/2225 SLP097 T03500133,M
RTS,2024-06-24 22:55,-119.8764,39.6682,1539.00,87.80,35.60,15.70,230.00,16.00,0.00,30.09,M,10.00,M,CLR,M,M,M,M,M,M,M,M,M,M,M,M,M,M,84.12,KRTS 242255Z AUTO 23016KT 10SM CLR 31/02 A3009 RMK AO2,M
MEV,2024-06-24 22:55,-119.7500,38.9963,1441.42,91.40,44.60,19.89,250.00,16.00,0.00,30.05,M,10.00,23.00,CLR,M,M,M,M,M,M,M,M,M,M,M,M,M,M,87.68,KMEV 242255Z AUTO 25016G23KT 10SM CLR 33/07 A3005 RMK AO2,M
BAM,2024-06-24 22:55,-116.8743,40.5990,1382.36,96.80,33.80,11.04,260.00,9.00,0.00,30.00,M,10.00,22.00,CLR,M,M,M,M,M,M,M,M,M,M,M,M,M,M,91.44,KBAM 242255Z AUTO 26009G22KT 10SM CLR 36/01 A3000 RMK AO1,M
HTH,2024-06-24 22:55,-118.6315,38.5448,1282.89,98.60,32.00,9.72,310.00,11.00,0.00,29.94,M,10.00,16.00,CLR,M,M,M,M,M,M,M,M,M,M,M,M,M,M,92.69,KHTH 242255Z AUTO 31011G16KT 10SM CLR 37/00 A2994 RMK A01,M
10U,2024-06-24 22:55,-116.1876,41.9532,1637.00,87.80,21.20,8.70,220.00,16.00,0.00,30.06,M,10.00,26.00,CLR,M,M,M,M,M,M,M,M,M,M,M,M,M,M,83.33,K10U 242255Z AUTO 22016G26KT 200V260 10SM CLR 31/M06 A3006 RMK AO2,M
INS,2024-06-24 22:55,-115.6733,36.5872,955.00,106.50,29.70,6.99,250.00,17.00,0.00,29.82,M,10.00,20.00,FEW,M,M,M,13000.00,M,M,M,M,M,M,M,M,M,M,99.09,KINS 242255Z AUTO 25017G20KT 10SM FEW130 41/M01 A2982 RMK AO2 SLPNO T04141013 $,M
TMT,2024-06-24 22:55,-117.1971,39.4643,1749.34,93.20,30.00,10.58,250.00,11.00,0.00,30.09,M,10.00,17.00,CLR,M,M,M,M,M,M,M,M,M,M,M,M,M,M,88.07,KTMT 242255Z AUTO 25011G17KT 10SM CLR 34/M01 A3009 RMK AO2 T03401011,M
LSV,2024-06-24 22:55,-115.0343,36.2362,570.00,110.00,43.50,10.89,190.00,6.00,0.00,29.68,1001.70,10.00,17.00,CLR,M,M,M,M,M,M,M,M,M,M,M,M,M,M,105.00,KLSV 242255Z AUTO 19006G17KT 10SM CLR 43/06 A2968 RMK AO2 SLP017 T04330064 $,M
EKO,2024-06-24 22:56,-115.7860,40.8242,1367.00,93.00,33.00,12.02,220.00,10.00,0.00,30.03,1010.40,10.00,20.00,CLR,M,M,M,M,M,M,M,M,M,M,M,M,M,M,88.28,KEKO 242256Z AUTO 22010G20KT 10SM CLR 34/01 A3003 RMK AO2 SLP104 T03390006,M
WMC,2024-06-24 22:56,-117.8072,40.9019,1315.00,96.00,34.00,11.40,240.00,15.00,0.00,29.97,1008.90,10.00,24.00,CLR,M,M,M,M,M,M,M,M,M,M,M,28.00,260.00,2024-06-24 22:16,90.81,KWMC 242256Z AUTO 24015G24KT 10SM CLR 36/01 A2997 RMK AO2 PK WND 26028/2216 SLP089 T03560011,M
NFL,2024-06-24 22:56,-118.7010,39.4166,1199.00,97.00,41.00,14.57,290.00,6.00,0.00,29.94,1011.00,10.00,M,SCT,M,M,M,8000.00,M,M,M,M,M,M,M,M,M,M,92.58,KNFL 242256Z 29006KT 10SM SCT080 36/05 A2994 RMK AO2 SLP110 T03610050,M
HND,2024-06-24 22:56,-115.1344,35.9729,742.79,108.00,49.00,14.21,210.00,14.00,0.00,29.79,1006.50,10.00,19.00,CLR,M,M,M,M,M,M,M,M,M,M,M,M,M,M,104.87,KHND 242256Z 21014G19KT 10SM CLR 42/09 A2979 RMK AO2 SLP065 T04220094,M
TPH,2024-06-24 22:56,-117.0904,38.0505,1654.00,96.00,31.00,10.11,M,6.00,0.00,30.05,1008.00,10.00,17.00,CLR,M,M,M,M,M,M,M,M,M,M,M,M,M,M,90.40,KTPH 242256Z AUTO VRB06G17KT 10SM CLR 36/M01 A3005 RMK AO2 SLP080 T03561006,M
LAS,2024-06-24 22:56,-115.1634,36.0719,663.00,110.00,47.00,12.43,220.00,7.00,0.00,29.75,1003.90,10.00,16.00,FEW,FEW,SCT,M,12000.00,16000.00,25000.00,M,M,M,M,M,M,M,M,106.11,KLAS 242256Z 22007G16KT 180V250 10SM FEW120 FEW160 SCT250 43/08 A2975 RMK AO2 SLP039 CB DSNT E-S T04330083,M
INS,2024-06-24 22:59,-115.6733,36.5872,955.00,107.60,30.20,6.91,260.00,13.00,0.00,29.82,M,10.00,20.00,FEW,M,M,M,13000.00,M,M,M,M,M,M,M,M,M,M,100.10,KINS 242259Z AUTO 26013G20KT 10SM FEW130 42/M01 A2982 RMK AO2 WSHFT 51 SLPNO $,M
BVU,2024-06-24 23:15,-114.8611,35.9475,671.00,109.40,50.00,14.16,190.00,15.00,0.00,29.74,M,10.00,23.00,CLR,M,M,M,M,M,M,M,M,M,M,M,M,M,M,106.58,KBVU 242315Z AUTO 19015G23KT 10SM CLR 43/10 A2974 RMK AO2,M
CXP,2024-06-24 23:15,-119.7326,39.1923,1431.00,89.60,44.60,21.04,250.00,16.00,0.00,30.07,M,10.00,23.00,CLR,M,M,M,M,M,M,M,M,M,M,M,M,M,M,86.07,KCXP 242315Z AUTO 25016G23KT 10SM CLR 32/07 A3007 RMK AO2 LTG DSNT SE AND S,M
RTS,2024-06-24 23:15,-119.8764,39.6682,1539.00,87.80,37.40,16.86,230.00,14.00,0.00,30.09,M,10.00,22.00,CLR,M,M,M,M,M,M,M,M,M,M,M,M,M,M,84.16,KRTS 242315Z AUTO 23014G22KT 10SM CLR 31/03 A3009 RMK AO2,M
MEV,2024-06-24 23:15,-119.7500,38.9963,1441.42,91.40,48.20,22.78,280.00,18.00,0.00,30.04,M,10.00,M,CLR,M,M,M,M,M,M,M,M,M,M,M,M,M,M,88.09,KMEV 242315Z AUTO 28018KT 10SM CLR 33/09 A3004 RMK AO2 LTG DSNT S,M
BAM,2024-06-24 23:15,-116.8743,40.5990,1382.36,96.80,33.80,11.04,260.00,13.00,0.00,29.99,M,10.00,20.00,CLR,M,M,M,M,M,M,M,M,M,M,M,M,M,M,91.44,KBAM 242315Z AUTO 26013G20KT 10SM CLR 36/01 A2999 RMK AO1,M
HTH,2024-06-24 23:15,-118.6315,38.5448,1282.89,98.60,32.00,9.72,350.00,13.00,0.00,29.93,M,10.00,19.00,CLR,M,M,M,M,M,M,M,M,M,M,M,M,M,M,92.69,KHTH 242315Z AUTO 35013G19KT 10SM CLR 37/M00 A2993 RMK A01,M
10U,2024-06-24 23:15,-116.1876,41.9532,1637.00,87.80,19.40,8.06,240.00,9.00,0.00,30.06,M,10.00,22.00,CLR,M,M,M,M,M,M,M,M,M,M,M,M,M,M,83.23,K10U 242315Z AUTO 24009G22KT 220V280 10SM CLR 31/M07 A3006 RMK AO2,M
TMT,2024-06-24 23:15,-117.1971,39.4643,1749.34,92.50,26.80,9.49,280.00,10.00,0.00,30.08,M,10.00,14.00,CLR,M,M,M,M,M,M,M,M,M,M,M,M,M,M,87.21,KTMT 242315Z AUTO 28010G14KT 10SM CLR 34/M03 A3008 RMK AO2 T03361029,M
LSV,2024-06-24 23:18,-115.0343,36.2362,570.00,111.20,41.00,9.55,150.00,12.00,0.00,29.67,1001.40,10.00,23.00,CLR,M,M,M,M,M,M,M,M,M,M,M,M,M,M,105.43,KLSV 242318Z AUTO 15012G23KT 10SM CLR 44/05 A2967 RMK AO2 WSHFT 15 SLP014 $,M
INS,2024-06-24 23:23,-115.6733,36.5872,955.00,105.80,28.40,6.77,270.00,14.00,0.00,29.82,M,10.00,24.00,CLR,M,M,M,M,M,M,M,M,M,M,M,M,M,M,98.33,KINS 242323Z AUTO 27014G24KT 10SM CLR 41/M02 A2982 RMK AO2 WSHFT 19 SLPNO $,M
BVU,2024-06-24 23:35,-114.8611,35.9475,671.00,107.60,48.20,13.95,170.00,6.00,0.00,29.74,M,10.00,18.00,CLR,M,M,M,M,M,M,M,M,M,M,M,M,M,M,104.23,KBVU 242335Z AUTO 17006G18KT 10SM CLR 42/09 A2974 RMK AO2,M
CXP,2024-06-24 23:35,-119.7326,39.1923,1431.00,87.80,44.60,22.27,240.00,12.00,0.00,30.06,M,10.00,21.00,CLR,M,M,M,M,M,M,M,M,M,M,M,M,M,M,84.53,KCXP 242335Z AUTO 24012G21KT 220V280 10SM CLR 31/07 A3006 RMK AO2,M
RTS,2024-06-24 23:35,-119.8764,39.6682,1539.00,87.80,35.60,15.70,230.00,15.00,0.00,30.09,M,10.00,28.00,CLR,M,M,M,M,M,M,M,M,M,M,M,M,M,M,84.12,KRTS 242335Z AUTO 23015G28KT 10SM CLR 31/02 A3009 RMK AO2,M
MEV,2024-06-24 23:35,-119.7500,38.9963,1441.42,89.60,48.20,24.11,260.00,14.00,0.00,30.05,M,10.00,21.00,CLR,M,M,M,M,M,M,M,M,M,M,M,M,M,M,86.44,KMEV 242335Z AUTO 26014G21KT 10SM CLR 32/09 A3005 RMK AO2,M
BAM,2024-06-24 23:35,-116.8743,40.5990,1382.36,96.80,32.00,10.27,250.00,15.00,0.00,29.99,M,10.00,M,CLR,M,M,M,M,M,M,M,M,M,M,M,M,M,M,91.19,KBAM 242335Z AUTO 25015KT 10SM CLR 36/00 A2999 RMK AO1,M
HTH,2024-06-24 23:35,-118.6315,38.5448,1282.89,98.60,30.20,9.04,350.00,11.00,0.00,29.93,M,10.00,17.00,CLR,M,M,M,M,M,M,M,M,M,M,M,M,M,M,92.46,KHTH 242335Z AUTO 35011G17KT 10SM CLR 37/M01 A2993 RMK A01,M
10U,2024-06-24 23:35,-116.1876,41.9532,1637.00,87.80,19.40,8.06,220.00,11.00,0.00,30.05,M,10.00,19.00,CLR,M,M,M,M,M,M,M,M,M,M,M,M,M,M,83.23,K10U 242335Z AUTO 22011G19KT 10SM CLR 31/M07 A3005 RMK AO2,M
INS,2024-06-24 23:35,-115.6733,36.5872,955.00,105.80,30.20,7.29,240.00,18.00,0.00,29.81,M,10.00,26.00,CLR,M,M,M,M,M,M,M,M,M,M,M,M,M,M,98.56,KINS 242335Z AUTO 24018G26KT 10SM CLR 41/M01 A2981 RMK AO2 WSHFT 33 SLPNO $,M
TMT,2024-06-24 23:35,-117.1971,39.4643,1749.34,92.00,25.30,9.05,310.00,9.00,0.00,30.08,M,10.00,14.00,CLR,M,M,M,M,M,M,M,M,M,M,M,M,M,M,86.70,KTMT 242335Z AUTO 31009G14KT 10SM CLR 33/M04 A3008 RMK AO2 T03341037,M
P68,2024-06-24 23:53,-116.0056,39.6014,1993.00,92.00,28.00,10.12,280.00,7.00,0.00,30.05,1008.40,M,M,M,M,M,M,M,M,M,M,M,M,M,M,M,M,M,86.94,KP68 242353Z AUTO 28007KT 200V080 33/M02 A3005 RMK AO1 SLP084 T03331022 10344 20283 56020,M
DRA,2024-06-24 23:53,-116.0278,36.6206,1009.00,103.00,43.00,13.12,0.00,0.00,0.00,29.85,1004.40,10.00,M,CLR,M,M,M,M,M,M,M,M,M,M,M,M,M,M,98.56,KDRA 242353Z AUTO 00000KT 10SM CLR 39/06 A2985 RMK AO2 SLP044 T03940061 10411 20367 56020,M
ELY,2024-06-24 23:53,-114.8453,39.2950,1909.00,91.00,26.00,9.62,230.00,7.00,0.00,30.08,1007.90,10.00,18.00,CLR,M,M,M,M,M,M,M,M,M,M,M,M,M,M,86.01,KELY 242353Z AUTO 23007G18KT 10SM CLR 33/M03 A3008 RMK AO2 SLP079 T03281033 10344 20294 56015,M
VGT,2024-06-24 23:53,-115.1933,36.2111,667.00,111.00,45.00,11.20,200.00,14.00,0.00,29.72,1004.30,10.00,21.00,CLR,M,M,M,M,M,M,M,M,M,M,M,26.00,230.00,2024-06-24 23:08,106.37,KVGT 242353Z 20014G21KT 10SM CLR 44/07 A2972 RMK AO2 PK WND 23026/2308 SLP043 T04390072 10444 20394 56023,M
LOL,2024-06-24 23:53,-118.5701,40.0684,1192.43,98.00,39.00,13.07,270.00,14.00,0.00,29.92,1008.50,10.00,21.00,CLR,M,M,M,M,M,M,M,M,M,M,M,M,M,M,93.33,KLOL 242353Z AUTO 27014G21KT 10SM CLR 37/04 A2992 RMK AO2 SLP085 T03670039 10372 20300 56019,M
BVU,2024-06-24 23:55,-114.8611,35.9475,671.00,107.60,48.20,13.95,210.00,9.00,0.00,29.73,M,10.00,16.00,CLR,M,M,M,M,M,M,M,M,M,M,M,M,M,M,104.23,KBVU 242355Z AUTO 21009G16KT 10SM CLR 42/09 A2973 RMK AO2,M
CXP,2024-06-24 23:55,-119.7326,39.1923,1431.00,89.60,44.60,21.04,250.00,7.00,0.00,30.06,M,10.00,16.00,CLR,M,M,M,M,M,M,M,M,M,M,M,M,M,M,86.07,KCXP 242355Z AUTO 25007G16KT 210V280 10SM CLR 32/07 A3006 RMK AO2,M
RNO,2024-06-24 23:55,-119.7711,39.4839,1341.00,93.00,54.00,26.87,270.00,18.00,0.00,30.01,1009.80,10.00,31.00,FEW,M,M,M,10000.00,M,M,M,M,M,M,M,31.00,260.00,2024-06-24 23:49,90.76,KRNO 242355Z 27018G31KT 10SM FEW100 34/12 A3001 RMK AO2 PK WND 26031/2349 SLP098 T03390122 10356 20306 56008,M
RTS,2024-06-24 23:55,-119.8764,39.6682,1539.00,87.80,35.60,15.70,250.00,19.00,0.00,30.08,M,10.00,25.00,CLR,M,M,M,M,M,M,M,M,M,M,M,M,M,M,84.12,KRTS 242355Z AUTO 25019G25KT 10SM CLR 31/02 A3008 RMK AO2,M
MEV,2024-06-24 23:55,-119.7500,38.9963,1441.42,89.60,46.40,22.53,270.00,14.00,0.00,30.04,M,10.00,20.00,CLR,M,M,M,M,M,M,M,M,M,M,M,M,M,M,86.24,KMEV 242355Z AUTO 27014G20KT 10SM CLR 32/08 A3004 RMK AO2,M
BAM,2024-06-24 23:55,-116.8743,40.5990,1382.36,95.00,32.00,10.85,270.00,14.00,0.00,29.99,M,10.00,22.00,CLR,M,M,M,M,M,M,M,M,M,M,M,M,M,M,89.71,KBAM 242355Z AUTO 27014G22KT 10SM CLR 35/00 A2999 RMK AO1,M
HTH,2024-06-24 23:55,-118.6315,38.5448,1282.89,98.60,32.00,9.72,350.00,14.00,0.00,29.93,M,10.00,19.00,CLR,M,M,M,M,M,M,M,M,M,M,M,M,M,M,92.69,KHTH 242355Z AUTO 35014G19KT 10SM CLR 37/00 A2993 RMK A01,M
10U,2024-06-24 23:55,-116.1876,41.9532,1637.00,87.80,23.00,9.39,240.00,12.00,0.00,30.05,M,10.00,22.00,CLR,M,M,M,M,M,M,M,M,M,M,M,M,M,M,83.43,K10U 242355Z AUTO 24012G22KT 10SM CLR 31/M05 A3005 RMK AO2,M
TMT,2024-06-24 23:55,-117.1971,39.4643,1749.34,91.80,22.60,8.14,280.00,9.00,0.00,30.08,M,10.00,14.00,CLR,M,M,M,M,M,M,M,M,M,M,M,M,M,M,86.35,KTMT 242355Z AUTO 28009G14KT 10SM CLR 33/M05 A3008 RMK AO2 T03321052 10341 20275,M
INS,2024-06-24 23:55,-115.6733,36.5872,955.00,106.00,29.00,6.90,260.00,10.00,0.00,29.82,M,10.00,23.00,CLR,M,M,M,M,M,M,M,M,M,M,M,26.00,280.00,2024-06-24 23:33,98.57,KINS 242355Z AUTO 26010G23KT 10SM CLR 41/M02 A2982 RMK AO2 PK WND 28026/33 SLPNO T04111016 10418 20361 56019 $,M
LSV,2024-06-24 23:55,-115.0343,36.2362,570.00,110.30,38.70,8.96,250.00,11.00,0.00,29.66,1001.00,10.00,16.00,CLR,M,M,M,M,M,M,M,M,M,M,M,M,M,M,104.03,KLSV 242355Z AUTO 25011G16KT 10SM CLR 44/04 A2966 RMK AO2 SLP010 T04350037 10442 20395 57025 $,M
EKO,2024-06-24 23:56,-115.7860,40.8242,1367.00,94.00,33.00,11.65,270.00,9.00,0.00,30.01,1009.50,10.00,17.00,CLR,M,M,M,M,M,M,M,M,M,M,M,M,M,M,89.06,KEKO 242356Z AUTO 27009G17KT 10SM CLR 34/01 A3001 RMK AO2 SLP095 T03440006 10344 20294 56019,M
WMC,2024-06-24 23:56,-117.8072,40.9019,1315.00,97.00,31.00,9.80,250.00,14.00,0.00,29.95,1008.70,10.00,24.00,CLR,M,M,M,M,M,M,M,M,M,M,M,29.00,260.00,2024-06-24 23:21,91.22,KWMC 242356Z AUTO 25014G24KT 10SM CLR 36/M01 A2995 RMK AO2 PK WND 26029/2321 SLP087 60000 T03611006 10367 20311 56018,M
NFL,2024-06-24 23:56,-118.7010,39.4166,1199.00,96.00,42.00,15.61,300.00,4.00,0.00,29.92,1010.60,10.00,M,SCT,SCT,M,M,8000.00,22000.00,M,M,M,M,M,M,M,M,M,91.73,KNFL 242356Z 30004KT 10SM SCT080 SCT220 36/06 A2992 RMK AO2 SLP106 T03560056 10372 20311 56016,M
HND,2024-06-24 23:56,-115.1344,35.9729,742.79,108.00,47.00,13.18,240.00,8.00,0.00,29.78,1006.10,10.00,17.00,CLR,M,M,M,M,M,M,M,M,M,M,M,M,M,M,104.26,KHND 242356Z 24008G17KT 10SM CLR 42/08 A2978 RMK AO2 SLP061 T04220083 10433 20394 56020,M
TPH,2024-06-24 23:56,-117.0904,38.0505,1654.00,93.00,29.00,10.22,230.00,6.00,0.00,30.03,1007.90,10.00,16.00,CLR,M,M,M,M,M,M,M,M,M,M,M,M,M,M,87.80,KTPH 242356Z AUTO 23006G16KT 10SM CLR 34/M02 A3003 RMK AO2 SLP079 T03391017 10356 20306 56019,M
LAS,2024-06-24 23:56,-115.1634,36.0719,663.00,111.00,46.00,11.63,240.00,7.00,0.00,29.74,1003.30,10.00,18.00,FEW,FEW,SCT,M,12000.00,16000.00,25000.00,M,M,M,M,M,M,M,M,106.70,KLAS 242356Z 24007G18KT 10SM FEW120 FEW160 SCT250 44/08 A2974 RMK AO2 SLP033 CB DSNT E T04390078 10444 20411 56024,M
