station,valid,lon,lat,elevation,tmpf,dwpf,relh,drct,sknt,p01i,alti,mslp,vsby,gust,skyc1,skyc2,skyc3,skyc4,skyl1,skyl2,skyl3,skyl4,wxcodes,ice_accretion_1hr,ice_accretion_3hr,ice_accretion_6hr,peak_wind_gust,peak_wind_drct,peak_wind_time,feel,metar,snowdepth
NFL,2024-07-25 00:03,-118.7010,39.4166,1199.00,77.00,62.00,59.85,210.00,29.00,0.06,30.15,M,3.00,44.00,BKN,OVC,M,M,8000.00,10000.00,M,M,+TSRA BR,M,M,M,44.00,220.00,2024-07-24 23:57,77.00,KNFL 250003Z 21029G44KT 3SM +TSRA BR BKN080CB OVC100 25/17 A3015 RMK AO2 PK WND 22044/2357 WSHFT 2343 OCNL LTGICCG OHD TS OHD MOV NE CB DSNT ALQDS WR// P0006 T02500167,M
INS,2024-07-25 00:05,-115.6733,36.5872,955.00,105.80,46.40,13.75,240.00,17.00,0.00,30.01,1009.90,10.00,22.00,SCT,M,M,M,12000.00,M,M,M,M,M,M,M,M,M,M,101.97,KINS 250005Z AUTO 24017G22KT 10SM SCT120 41/08 A3001 RMK AO2 WSHFT 2359 SLP099 $,M
BVU,2024-07-25 00:15,-114.8611,35.9475,671.00,107.60,50.00,14.92,350.00,3.00,0.00,29.92,M,10.00,M,CLR,M,M,M,M,M,M,M,M,M,M,M,M,M,M,104.80,KBVU 250015Z AUTO 35003KT 10SM CLR 42/10 A2992 RMK AO2,M
CXP,2024-07-25 00:15,-119.7326,39.1923,1431.00,89.60,50.00,25.79,210.00,12.00,0.00,30.25,M,10.00,18.00,BKN,M,M,M,9500.00,M,M,M,VCTS,M,M,M,M,M,M,86.70,KCXP 250015Z AUTO 21012G18KT 180V240 10SM VCTS BKN095 32/10 A3025 RMK AO2 LTG DSNT E AND SE,M
RTS,2024-07-25 00:15,-119.8764,39.6682,1539.00,93.20,50.00,23.04,280.00,20.00,0.00,30.24,M,10.00,26.00,SCT,M,M,M,8500.00,M,M,M,M,M,M,M,M,M,M,90.10,KRTS 250015Z AUTO 28020G26KT 10SM SCT085 34/10 A3024 RMK AO2,M
05U,2024-07-25 00:15,-116.0051,39.6042,1811.23,82.40,46.40,28.36,260.00,13.00,0.00,30.33,M,10.00,21.00,CLR,M,M,M,M,M,M,M,M,M,M,M,M,M,M,80.64,K05U 250015Z AUTO 26013G21KT 10SM CLR 28/08 A3033 RMK A01,M
MEV,2024-07-25 00:15,-119.7500,38.9963,1441.42,80.60,50.00,34.41,100.00,18.00,0.00,30.25,M,10.00,27.00,FEW,M,M,M,9000.00,M,M,M,M,M,M,M,M,M,M,79.88,KMEV 250015Z AUTO 10018G27KT 10SM FEW090 27/10 A3025 RMK AO2 LTG DSNT NE-SE,M
HTH,2024-07-25 00:15,-118.6315,38.5448,1282.89,91.40,46.40,21.29,140.00,11.00,0.00,30.19,M,10.00,M,CLR,M,M,M,M,M,M,M,M,M,M,M,M,M,M,87.86,KHTH 250015Z AUTO 14011KT 10SM CLR 33/08 A3019 RMK A01,M
10U,2024-07-25 00:15,-116.1876,41.9532,1637.00,91.40,48.20,22.78,120.00,11.00,0.00,30.18,M,10.00,M,CLR,M,M,M,M,M,M,M,M,M,M,M,M,M,M,88.09,K10U 250015Z AUTO 12011KT 10SM CLR 33/09 A3018 RMK AO2,M
BAM,2024-07-25 00:15,-116.8743,40.5990,1382.36,98.60,50.00,19.52,40.00,3.00,0.00,30.13,M,10.00,M,SCT,SCT,M,M,4900.00,6000.00,M,M,M,M,M,M,M,M,M,95.56,KBAM 250015Z AUTO 04003KT 10SM SCT049 SCT060 37/10 A3013 RMK AO1,M
TMT,2024-07-25 00:15,-117.1971,39.4643,1749.34,83.30,52.00,33.95,230.00,6.00,0.00,30.30,M,10.00,M,BKN,M,M,M,12000.00,M,M,M,M,M,M,M,M,M,M,81.85,KTMT 250015Z AUTO 23006KT 10SM BKN120 29/11 A3030 RMK AO2 T02850112,M
LAS,2024-07-25 00:17,-115.1634,36.0719,663.00,110.00,52.00,14.98,M,4.00,0.00,29.93,M,10.00,M,FEW,FEW,SCT,M,11000.00,18000.00,22000.00,M,M,M,M,M,M,M,M,107.94,KLAS 250017Z VRB04KT 10SM FEW110 FEW180 SCT220 43/11 A2993 RMK AO2 LTG DSNT NW TSE17 TS DSIPTD CB DSNT NE-SE AND NW T04330111 $,M
05U,2024-07-25 00:30,-116.0051,39.6042,1811.23,82.40,46.40,28.36,260.00,14.00,0.00,30.33,M,10.00,19.00,CLR,M,M,M,M,M,M,M,M,M,M,M,M,M,M,80.64,K05U 250030Z AUTO 26014G19KT 10SM CLR 28/08 A3033 RMK A01,M
BVU,2024-07-25 00:35,-114.8611,35.9475,671.00,107.60,46.40,13.04,220.00,8.00,0.00,29.91,M,10.00,M,CLR,M,M,M,M,M,M,M,M,M,M,M,M,M,M,103.71,KBVU 250035Z AUTO 22008KT 10SM CLR 42/08 A2991 RMK AO2,M
CXP,2024-07-25 00:35,-119.7326,39.1923,1431.00,89.60,50.00,25.79,200.00,14.00,0.00,30.26,M,10.00,20.00,SCT,SCT,M,M,9000.00,11000.00,M,M,M,M,M,M,M,M,M,86.70,KCXP 250035Z AUTO 20014G20KT 10SM SCT090 SCT110 32/10 A3026 RMK AO2 LTG DSNT NE AND SE,M
RTS,2024-07-25 00:35,-119.8764,39.6682,1539.00,91.40,48.20,22.78,260.00,16.00,0.00,30.25,M,10.00,27.00,FEW,M,M,M,8500.00,M,M,M,M,M,M,M,M,M,M,88.09,KRTS 250035Z AUTO 26016G27KT 10SM FEW085 33/09 A3025 RMK AO2,M
MEV,2024-07-25 00:35,-119.7500,38.9963,1441.42,80.60,50.00,34.41,110.00,9.00,0.00,30.28,M,10.00,20.00,SCT,M,M,M,9000.00,M,M,M,M,M,M,M,M,M,M,79.88,KMEV 250035Z AUTO 11009G20KT 090V160 10SM SCT090 27/10 A3028 RMK AO2 LTG DSNT NE AND SE,M
BAM,2024-07-25 00:35,-116.8743,40.5990,1382.36,96.80,48.20,19.28,60.00,4.00,0.00,30.12,M,10.00,M,SCT,M,M,M,12000.00,M,M,M,M,M,M,M,M,M,M,93.36,KBAM 250035Z AUTO 06004KT 10SM SCT120 36/09 A3012 RMK AO1,M
HTH,2024-07-25 00:35,-118.6315,38.5448,1282.89,91.40,46.40,21.29,150.00,11.00,0.00,30.19,M,10.00,M,CLR,M,M,M,M,M,M,M,M,M,M,M,M,M,M,87.86,KHTH 250035Z AUTO 15011KT 10SM CLR 33/08 A3019 RMK A01,M
10U,2024-07-25 00:35,-116.1876,41.9532,1637.00,91.40,46.40,21.29,140.00,10.00,0.00,30.17,M,10.00,M,CLR,M,M,M,M,M,M,M,M,M,M,M,M,M,M,87.86,K10U 250035Z AUTO 14010KT 10SM CLR 33/08 A3017 RMK AO2,M
TMT,2024-07-25 00:35,-117.1971,39.4643,1749.34,78.80,54.30,42.77,250.00,7.00,0.00,30.30,M,10.00,M,SCT,M,M,M,12000.00,M,M,M,M,M,M,M,M,M,M,78.80,KTMT 250035Z AUTO 25007KT 10SM SCT120 26/12 A3030 RMK AO2 T02600124,M
WMC,2024-07-25 00:36,-117.8072,40.9019,1315.00,95.00,46.00,18.76,280.00,19.00,0.00,30.09,M,10.00,27.00,CLR,M,M,M,M,M,M,M,VCTS,M,M,M,27.00,280.00,2024-07-25 00:36,91.23,KWMC 250036Z AUTO 28019G27KT 10SM VCTS CLR 35/08 A3009 RMK AO2 PK WND 28027/0036 LTG DSNT ALQDS T03500078,M
TPH,2024-07-25 00:37,-117.0904,38.0505,1654.00,88.00,49.00,26.13,340.00,19.00,0.00,30.27,M,10.00,32.00,BKN,M,M,M,10000.00,M,M,M,M,M,M,M,32.00,290.00,2024-07-25 00:27,85.14,KTPH 250037Z AUTO 34019G32KT 10SM BKN100 31/09 A3027 RMK AO2 PK WND 29032/0027 WSHFT 0017 LTG DSNT N AND NE AND S T03110094,M
NFL,2024-07-25 00:40,-118.7010,39.4166,1199.00,77.00,60.00,55.75,290.00,21.00,0.12,30.19,M,6.00,33.00,SCT,BKN,OVC,M,5000.00,8000.00,10000.00,M,-TSRA,M,M,M,44.00,220.00,2024-07-24 23:57,77.00,KNFL 250040Z 29021G33KT 6SM -TSRA SCT050 BKN080CB OVC100 25/16 A3019 RMK AO2 PK WND 22044/2357 WSHFT 0025 OCNL LTGICCG N-NE TS N MOV NE CB DSNT ALQDS WR// P0012 T02500156,M
05U,2024-07-25 00:50,-116.0051,39.6042,1811.23,82.40,46.40,28.36,250.00,10.00,0.00,30.33,M,10.00,17.00,CLR,M,M,M,M,M,M,M,M,M,M,M,M,M,M,80.64,K05U 250050Z AUTO 25010G17KT 10SM CLR 28/08 A3033 RMK A01,M
TPH,2024-07-25 00:51,-117.0904,38.0505,1654.00,87.80,50.00,27.29,340.00,16.00,0.00,30.28,M,10.00,24.00,OVC,M,M,M,11000.00,M,M,M,M,M,M,M,32.00,290.00,2024-07-25 00:27,85.11,KTPH 250051Z AUTO 34016G24KT 10SM OVC110 31/10 A3028 RMK AO2 PK WND 29032/0027 WSHFT 0031 LTG DSNT N AND NE,M
P68,2024-07-25 00:53,-116.0056,39.6014,1993.00,83.00,47.00,28.45,260.00,10.00,0.00,30.30,1017.00,M,M,M,M,M,M,M,M,M,M,M,M,M,M,26.00,270.00,2024-07-25 00:02,81.09,KP68 250053Z AUTO 26010KT 28/08 A3030 RMK AO1 PK WND 27026/0002 SLP170 T02830083,M
DRA,2024-07-25 00:53,-116.0278,36.6206,1009.00,104.00,52.00,17.87,230.00,10.00,0.00,30.03,1011.00,10.00,20.00,FEW,M,M,M,11000.00,M,M,M,M,M,M,M,M,M,M,101.76,KDRA 250053Z AUTO 23010G20KT 10SM FEW110 40/11 A3003 RMK AO2 SLP110 T04000111,M
ELY,2024-07-25 00:53,-114.8453,39.2950,1909.00,73.00,57.00,57.23,360.00,12.00,T,30.37,1019.40,10.00,M,OVC,M,M,M,10000.00,M,M,M,M,M,M,M,M,M,M,73.00,KELY 250053Z AUTO 36012KT 10SM OVC100 23/14 A3037 RMK AO2 RAE06 SLP194 P0000 T02280139,M
VGT,2024-07-25 00:53,-115.1933,36.2111,667.00,111.00,51.00,14.02,260.00,12.00,0.00,29.91,1011.00,10.00,19.00,CLR,M,M,M,M,M,M,M,M,M,M,M,M,M,M,108.52,KVGT 250053Z 26012G19KT 10SM CLR 44/11 A2991 RMK AO2 SLP110 T04390106,M
LOL,2024-07-25 00:53,-118.5701,40.0684,1192.43,95.00,48.00,20.22,260.00,18.00,0.00,30.09,1014.20,10.00,M,CLR,M,M,M,M,M,M,M,M,M,M,M,26.00,290.00,2024-07-25 00:38,91.53,KLOL 250053Z AUTO 26018KT 10SM CLR 35/09 A3009 RMK AO2 PK WND 29026/0038 LTG DSNT S SLP142 T03500089 $,M
NFL,2024-07-25 00:54,-118.7010,39.4166,1199.00,77.00,62.00,59.85,260.00,15.00,0.12,30.19,1018.60,6.00,M,SCT,BKN,OVC,M,5000.00,8000.00,10000.00,M,-TSRA,M,M,M,44.00,220.00,2024-07-24 23:57,77.00,KNFL 250054Z 26015KT 6SM -TSRA SCT050 BKN080CB OVC100 25/17 A3019 RMK AO2 PK WND 22044/2357 WSHFT 0025 SLP186 OCNL LTGICCG N-NE TS N MOV NE CB DSNT ALQDS WR// P0012 T02500167,M
EKO,2024-07-25 00:54,-115.7860,40.8242,1367.00,82.40,55.40,39.58,190.00,15.94,M,30.20,M,5.00,26.05,BKN,M,M,M,12001.00,M,M,M,-RA TS,M,M,M,26.00,190.00,2024-07-25 00:51,81.75,SPECI KEKO 250054Z 19016G26KT 5SM -TSRA BKN120 28/13 A3020 RMK AO2 PK WND 19026/0051 LTG DSNT N AND NE AND SW RAB30 TSB50 PRESRR P0000 FIBI,M
BVU,2024-07-25 00:55,-114.8611,35.9475,671.00,107.60,46.40,13.04,M,4.00,0.00,29.91,M,10.00,12.00,CLR,M,M,M,M,M,M,M,M,M,M,M,M,M,M,103.71,KBVU 250055Z AUTO VRB04G12KT 10SM CLR 42/08 A2991 RMK AO2,M
CXP,2024-07-25 00:55,-119.7326,39.1923,1431.00,89.60,48.20,24.11,210.00,11.00,0.00,30.27,M,10.00,21.00,SCT,M,M,M,9000.00,M,M,M,M,M,M,M,M,M,M,86.44,KCXP 250055Z AUTO 21011G21KT 10SM SCT090 32/09 A3027 RMK AO2 LTG DSNT N AND NE,M
INS,2024-07-25 00:55,-115.6733,36.5872,955.00,103.60,45.00,13.91,250.00,11.00,0.00,30.01,1009.90,10.00,M,FEW,M,M,M,12000.00,M,M,M,M,M,M,M,M,M,M,99.52,KINS 250055Z AUTO 25011KT 10SM FEW120 40/07 A3001 RMK AO2 SLP099 T03980072 $,M
RNO,2024-07-25 00:55,-119.7711,39.4839,1341.00,93.00,52.00,24.97,260.00,13.00,0.00,30.18,1015.40,10.00,28.00,SCT,BKN,M,M,9000.00,16000.00,M,M,M,M,M,M,28.00,290.00,2024-07-25 00:52,90.29,KRNO 250055Z 26013G28KT 10SM SCT090 BKN160 34/11 A3018 RMK AO2 PK WND 29028/0052 SLP154 CB DSNT NE THRU S MOV NE T03390111,M
RTS,2024-07-25 00:55,-119.8764,39.6682,1539.00,91.40,50.00,24.37,270.00,14.00,0.00,30.25,M,10.00,20.00,CLR,M,M,M,M,M,M,M,M,M,M,M,M,M,M,88.36,KRTS 250055Z AUTO 27014G20KT 10SM CLR 33/10 A3025 RMK AO2,M
MEV,2024-07-25 00:55,-119.7500,38.9963,1441.42,78.80,51.80,39.02,M,6.00,0.00,30.27,M,10.00,M,SCT,M,M,M,9000.00,M,M,M,M,M,M,M,M,M,M,78.80,KMEV 250055Z AUTO VRB06KT 10SM SCT090 26/11 A3027 RMK AO2 LTG DSNT NE-SE,M
BAM,2024-07-25 00:55,-116.8743,40.5990,1382.36,93.20,50.00,23.04,160.00,17.00,0.00,30.12,M,10.00,28.00,CLR,M,M,M,M,M,M,M,M,M,M,M,M,M,M,90.10,KBAM 250055Z AUTO 16017G28KT 10SM CLR 34/10 A3012 RMK AO1,M
HTH,2024-07-25 00:55,-118.6315,38.5448,1282.89,91.40,46.40,21.29,160.00,10.00,0.00,30.19,M,10.00,M,CLR,M,M,M,M,M,M,M,M,M,M,M,M,M,M,87.86,KHTH 250055Z AUTO 16010KT 10SM CLR 33/08 A3019 RMK A01,M
10U,2024-07-25 00:55,-116.1876,41.9532,1637.00,91.40,44.60,19.89,160.00,9.00,0.00,30.16,M,10.00,M,CLR,M,M,M,M,M,M,M,M,M,M,M,M,M,M,87.68,K10U 250055Z AUTO 16009KT 10SM CLR 33/07 A3016 RMK AO2 LTG DSNT NW,M
LSV,2024-07-25 00:55,-115.0343,36.2362,570.00,110.30,46.00,11.87,210.00,10.00,0.00,29.85,1007.40,10.00,M,CLR,M,M,M,M,M,M,M,M,M,M,M,M,M,M,106.05,KLSV 250055Z AUTO 21010KT 10SM CLR 44/08 A2985 RMK AO2 SLP074 T04350078 $,M
TMT,2024-07-25 00:55,-117.1971,39.4643,1749.34,78.00,57.00,48.44,250.00,10.00,0.00,30.33,M,10.00,M,BKN,M,M,M,11000.00,M,M,M,M,M,M,M,M,M,M,78.00,KTMT 250055Z AUTO 25010KT 10SM BKN110 26/14 A3033 RMK AO2 T02550138,M
EKO,2024-07-25 00:56,-115.7860,40.8242,1367.00,79.00,59.00,50.36,180.00,17.00,0.01,30.21,1016.90,4.00,26.00,BKN,M,M,M,11000.00,M,M,M,TSRA,M,M,M,26.00,190.00,2024-07-25 00:51,79.00,KEKO 250056Z AUTO 18017G26KT 4SM TSRA BKN110 26/15 A3021 RMK AO2 PK WND 19026/0051 LTG DSNT N AND NE AND SW RAB30 TSB50 PRESRR SLP169 P0001 T02610150,M
WMC,2024-07-25 00:56,-117.8072,40.9019,1315.00,89.00,51.00,27.27,310.00,15.00,0.00,30.09,1013.30,10.00,27.00,BKN,M,M,M,11000.00,M,M,M,VCTS,M,M,M,27.00,310.00,2024-07-25 00:51,86.31,KWMC 250056Z AUTO 31015G27KT 10SM VCTS BKN110 32/11 A3009 RMK AO2 PK WND 31027/0051 LTG DSNT N AND SE AND NW SLP133 T03170106,M
HND,2024-07-25 00:56,-115.1344,35.9729,742.79,110.00,54.00,16.12,290.00,12.00,0.00,29.97,1012.50,10.00,19.00,CLR,M,M,M,M,M,M,M,M,M,M,M,M,M,M,108.79,KHND 250056Z 29012G19KT 10SM CLR 43/12 A2997 RMK AO2 SLP125 T04330122,M
TPH,2024-07-25 00:56,-117.0904,38.0505,1654.00,89.00,50.00,26.28,350.00,18.00,0.00,30.28,1016.50,10.00,23.00,OVC,M,M,M,11000.00,M,M,M,M,M,M,M,32.00,290.00,2024-07-25 00:27,86.16,KTPH 250056Z AUTO 35018G23KT 10SM OVC110 32/10 A3028 RMK AO2 PK WND 29032/0027 WSHFT 0031 LTG DSNT N AND NE SLP165 T03170100,M
LAS,2024-07-25 00:56,-115.1634,36.0719,663.00,111.00,50.00,13.51,230.00,6.00,0.00,29.92,1006.20,10.00,M,FEW,SCT,SCT,M,11000.00,18000.00,22000.00,M,M,M,M,M,M,M,M,108.14,KLAS 250056Z 23006KT 10SM FEW110 SCT180 SCT220 44/10 A2992 RMK AO2 TSE17 SLP062 TS DSIPTD CB DSNT E-SE AND NW-N T04390100 $,M
WMC,2024-07-25 01:05,-117.8072,40.9019,1315.00,89.00,52.00,28.30,300.00,13.00,0.00,30.11,M,9.00,22.00,FEW,BKN,M,M,7500.00,11000.00,M,M,TS,M,M,M,M,M,M,86.49,KWMC 250105Z AUTO 30013G22KT 9SM TS FEW075 BKN110 32/11 A3011 RMK AO2 LTG DSNT N AND SE TSB0059E03 T03170111,M
NFL,2024-07-25 01:05,-118.7010,39.4166,1199.00,78.00,61.00,55.89,270.00,15.00,0.01,30.18,M,7.00,25.00,SCT,BKN,BKN,OVC,5000.00,8000.00,12000.00,25000.00,-RA,M,M,M,M,M,M,78.00,KNFL 250105Z COR 27015G25KT 7SM -RA SCT050 BKN080 BKN120 OVC250 26/16 A3018 RMK AO2 TSE04 OCNL LTGIC DSNT N CB DSNT N-NE AND S-SW WR// P0001 T02560161,M
EKO,2024-07-25 01:06,-115.7860,40.8242,1367.00,73.00,60.00,63.73,160.00,22.00,0.06,30.22,M,2.50,33.00,OVC,M,M,M,11000.00,M,M,M,TSRA,M,M,M,33.00,140.00,2024-07-25 01:04,73.00,KEKO 250106Z AUTO 16022G33KT 2 1/2SM TSRA OVC110 23/16 A3022 RMK AO2 PK WND 14033/0104 LTG DSNT NE AND E AND SW P0006 T02280156,M
BVU,2024-07-25 01:15,-114.8611,35.9475,671.00,107.60,44.60,12.18,230.00,7.00,0.00,29.91,M,10.00,M,CLR,M,M,M,M,M,M,M,M,M,M,M,M,M,M,103.15,KBVU 250115Z AUTO 23007KT 210V270 10SM CLR 42/07 A2991 RMK AO2,M
CXP,2024-07-25 01:15,-119.7326,39.1923,1431.00,86.00,48.20,27.03,220.00,11.00,0.00,30.27,M,10.00,18.00,FEW,M,M,M,9000.00,M,M,M,M,M,M,M,M,M,M,83.40,KCXP 250115Z AUTO 22011G18KT 10SM FEW090 30/09 A3027 RMK AO2,M
RTS,2024-07-25 01:15,-119.8764,39.6682,1539.00,89.60,48.20,24.11,270.00,18.00,0.00,30.26,M,10.00,M,FEW,M,M,M,12000.00,M,M,M,M,M,M,M,M,M,M,86.44,KRTS 250115Z AUTO 27018KT 230V290 10SM FEW120 32/09 A3026 RMK AO2,M
05U,2024-07-25 01:15,-116.0051,39.6042,1811.23,84.20,46.40,26.76,250.00,9.00,0.00,30.33,M,10.00,M,CLR,M,M,M,M,M,M,M,M,M,M,M,M,M,M,81.87,K05U 250115Z AUTO 25009KT 10SM CLR 29/08 A3033 RMK A01,M
MEV,2024-07-25 01:15,-119.7500,38.9963,1441.42,82.40,51.80,34.69,120.00,8.00,0.00,30.27,M,10.00,M,FEW,M,M,M,9000.00,M,M,M,M,M,M,M,M,M,M,81.20,KMEV 250115Z AUTO 12008KT 10SM FEW090 28/11 A3027 RMK AO2,M
BAM,2024-07-25 01:15,-116.8743,40.5990,1382.36,91.40,50.00,24.37,170.00,4.00,0.00,30.15,M,10.00,M,SCT,SCT,BKN,M,7000.00,9000.00,12000.00,M,M,M,M,M,M,M,M,88.36,KBAM 250115Z AUTO 17004KT 10SM SCT070 SCT090 BKN120 33/10 A3015 RMK AO1,M
HTH,2024-07-25 01:15,-118.6315,38.5448,1282.89,91.40,46.40,21.29,250.00,15.00,0.00,30.19,M,10.00,21.00,CLR,M,M,M,M,M,M,M,M,M,M,M,M,M,M,87.86,KHTH 250115Z AUTO 25015G21KT 10SM CLR 33/08 A3019 RMK A01,M
10U,2024-07-25 01:15,-116.1876,41.9532,1637.00,89.60,44.60,21.04,M,4.00,0.00,30.17,M,10.00,10.00,SCT,M,M,M,11000.00,M,M,M,M,M,M,M,M,M,M,86.07,K10U 250115Z AUTO VRB04G10KT 10SM SCT110 32/07 A3017 RMK AO2 LTG DSNT W-N,M
TMT,2024-07-25 01:15,-117.1971,39.4643,1749.34,69.60,57.00,64.24,230.00,17.00,0.00,30.35,M,5.00,24.00,SCT,OVC,M,M,6000.00,11000.00,M,M,RA,M,M,M,M,M,M,69.60,KTMT 250115Z AUTO 23017G24KT 5SM RA SCT060 OVC110 21/14 A3035 RMK AO2 T02090138,M
EKO,2024-07-25 01:16,-115.7860,40.8242,1367.00,71.00,61.00,70.66,160.00,18.00,0.10,30.22,M,5.00,35.00,FEW,OVC,M,M,7000.00,11000.00,M,M,-TSRA,M,M,M,35.00,150.00,2024-07-25 01:07,71.00,KEKO 250116Z AUTO 16018G35KT 5SM -TSRA FEW070 OVC110 22/16 A3022 RMK AO2 PK WND 15035/0107 LTG DSNT ALQDS P0010 T02170161,M
WMC,2024-07-25 01:17,-117.8072,40.9019,1315.00,75.00,63.00,66.27,340.00,13.00,0.03,30.12,M,1.75,22.00,FEW,FEW,BKN,M,4700.00,9500.00,11000.00,M,+TSRA,M,M,M,M,M,M,75.00,KWMC 250117Z AUTO 34013G22KT 1 3/4SM +TSRA FEW047 FEW095 BKN110 24/17 A3012 RMK AO2 LTG DSNT E AND SE RAB06 TSB0059E03 P0003 T02390172,M
WMC,2024-07-25 01:27,-117.8072,40.9019,1315.00,76.00,62.00,61.87,350.00,10.00,0.17,30.13,M,3.00,24.00,FEW,FEW,BKN,M,2800.00,7500.00,11000.00,M,-TSRA,M,M,M,M,M,M,76.00,KWMC 250127Z AUTO 35010G24KT 3SM -TSRA FEW028 FEW075 BKN110 24/17 A3013 RMK AO2 LTG DSNT E AND SE RAB06 TSB0059E03E19B22 P0017 T02440167,M
05U,2024-07-25 01:30,-116.0051,39.6042,1811.23,82.40,46.40,28.36,0.00,0.00,0.00,30.33,M,10.00,M,CLR,M,M,M,M,M,M,M,M,M,M,M,M,M,M,80.64,K05U 250130Z AUTO 00000KT 10SM CLR 28/08 A3033 RMK A01,M
EKO,2024-07-25 01:33,-115.7860,40.8242,1367.00,73.00,59.00,61.50,160.00,13.00,0.10,30.23,M,10.00,29.00,FEW,SCT,BKN,M,5000.00,10000.00,11000.00,M,M,M,M,M,35.00,150.00,2024-07-25 01:07,73.00,KEKO 250133Z AUTO 16013G29KT 10SM FEW050 SCT100 BKN110 23/15 A3023 RMK AO2 PK WND 15035/0107 LTG DSNT N AND NE AND S RAE28 TSE27 P0010 T02280150,M
BVU,2024-07-25 01:35,-114.8611,35.9475,671.00,107.60,46.40,13.04,320.00,6.00,0.00,29.91,M,10.00,M,CLR,M,M,M,M,M,M,M,M,M,M,M,M,M,M,103.71,KBVU 250135Z AUTO 32006KT 10SM CLR 42/08 A2991 RMK AO2,M
CXP,2024-07-25 01:35,-119.7326,39.1923,1431.00,86.00,50.00,28.90,210.00,10.00,0.00,30.27,M,10.00,17.00,CLR,M,M,M,M,M,M,M,M,M,M,M,M,M,M,83.62,KCXP 250135Z AUTO 21010G17KT 10SM CLR 30/10 A3027 RMK AO2,M
RTS,2024-07-25 01:35,-119.8764,39.6682,1539.00,89.60,48.20,24.11,240.00,14.00,0.00,30.26,M,10.00,21.00,FEW,M,M,M,12000.00,M,M,M,M,M,M,M,M,M,M,86.44,KRTS 250135Z AUTO 24014G21KT 10SM FEW120 32/09 A3026 RMK AO2,M
MEV,2024-07-25 01:35,-119.7500,38.9963,1441.42,82.40,51.80,34.69,M,3.00,0.00,30.27,M,10.00,M,CLR,M,M,M,M,M,M,M,M,M,M,M,M,M,M,81.20,KMEV 250135Z AUTO VRB03KT 10SM CLR 28/11 A3027 RMK AO2,M
BAM,2024-07-25 01:35,-116.8743,40.5990,1382.36,86.00,59.00,40.14,0.00,0.00,0.00,30.17,M,10.00,M,SCT,BKN,OVC,M,6500.00,10000.00,12000.00,M,M,M,M,M,M,M,M,85.47,KBAM 250135Z AUTO 00000KT 10SM SCT065 BKN100 OVC120 30/15 A3017 RMK AO1,M
HTH,2024-07-25 01:35,-118.6315,38.5448,1282.89,91.40,46.40,21.29,310.00,8.00,0.00,30.20,M,10.00,20.00,CLR,M,M,M,M,M,M,M,M,M,M,M,M,M,M,87.86,KHTH 250135Z AUTO 31008G20KT 270V330 10SM CLR 33/08 A3020 RMK A01,M
10U,2024-07-25 01:35,-116.1876,41.9532,1637.00,73.40,57.20,56.88,M,M,0.00,M,M,3.00,M,FEW,SCT,BKN,M,600.00,4700.00,11000.00,M,-TSRA,M,M,M,M,M,M,73.40,K10U 250135Z AUTO 3SM -TSRA FEW006 SCT047 BKN110 23/14 RMK AO2 LTG DSNT N-E,M
TMT,2024-07-25 01:35,-117.1971,39.4643,1749.34,68.00,57.00,67.86,200.00,30.00,0.00,30.37,M,10.00,39.00,SCT,SCT,OVC,M,6000.00,7000.00,10000.00,M,-RA,M,M,M,M,M,M,68.00,KTMT 250135Z AUTO 20030G39KT 10SM -RA SCT060 SCT070 OVC100 20/14 A3037 RMK AO2 T02000139,M
WMC,2024-07-25 01:37,-117.8072,40.9019,1315.00,76.00,63.00,64.09,20.00,9.00,0.22,30.13,M,4.00,M,FEW,SCT,BKN,M,3200.00,4000.00,11000.00,M,-TSRA,M,M,M,M,M,M,76.00,KWMC 250137Z AUTO 02009KT 4SM -TSRA FEW032 SCT040 BKN110 24/17 A3013 RMK AO2 WSHFT 0117 LTG DSNT N-SE RAB06 TSB0059E03E19B22 P0022 T02440172,M
LOL,2024-07-25 01:39,-118.5701,40.0684,1192.43,84.00,55.00,37.05,190.00,22.00,T,30.15,M,6.00,36.00,BKN,M,M,M,11000.00,M,M,M,-TSRA,M,M,M,36.00,210.00,2024-07-25 01:32,82.85,KLOL 250139Z AUTO 19022G36KT 6SM -TSRA BKN110 29/13 A3015 RMK AO2 PK WND 21036/0132 WSHFT 0125 LTG DSNT SW AND W RAB16 TSB35 PRESRR P0000 T02890128 $,M
LAS,2024-07-25 01:41,-115.1634,36.0719,663.00,111.00,49.00,13.02,280.00,14.00,0.00,29.92,M,10.00,M,FEW,SCT,SCT,M,11000.00,18000.00,22000.00,M,TS,M,M,M,M,M,M,107.77,KLAS 250141Z 28014KT 10SM TS FEW110CB SCT180 SCT220 44/09 A2992 RMK AO2 TSE37B41 OCNL LTGICCG E TS E MOV NE CB DSNT N-E-SE AND NW T04390094 $,M
HND,2024-07-25 01:43,-115.1344,35.9729,742.79,107.60,53.60,17.04,270.00,9.00,0.00,29.98,M,10.00,16.00,CLR,M,M,M,M,M,M,M,VCTS,M,M,M,M,M,M,106.13,KHND 250143Z 27009G16KT 10SM VCTS CLR 42/12 A2998 RMK AO2 LTG DSNT NE TSB37,M
05U,2024-07-25 01:50,-116.0051,39.6042,1811.23,82.40,46.40,28.36,0.00,0.00,0.00,30.34,M,10.00,M,BKN,M,M,M,12000.00,M,M,M,M,M,M,M,M,M,M,80.64,K05U 250150Z AUTO 00000KT 10SM BKN120 28/08 A3034 RMK A01,M
P68,2024-07-25 01:53,-116.0056,39.6014,1993.00,81.00,48.00,31.52,60.00,5.00,0.00,30.31,1017.00,M,M,M,M,M,M,M,M,M,M,M,M,M,M,M,M,M,79.92,KP68 250153Z AUTO 06005KT 27/09 A3031 RMK AO1 SLP170 T02720089,M
DRA,2024-07-25 01:53,-116.0278,36.6206,1009.00,100.00,52.00,20.15,220.00,11.00,0.00,30.04,1011.40,10.00,M,CLR,M,M,M,M,M,M,M,M,M,M,M,M,M,M,97.53,KDRA 250153Z AUTO 22011KT 10SM CLR 38/11 A3004 RMK AO2 SLP114 T03780111,M
ELY,2024-07-25 01:53,-114.8453,39.2950,1909.00,72.00,56.00,57.10,30.00,6.00,0.00,30.36,1018.90,10.00,M,CLR,M,M,M,M,M,M,M,M,M,M,M,M,M,M,72.00,KELY 250153Z AUTO 03006KT 10SM CLR 22/13 A3036 RMK AO2 SLP189 T02220133,M
VGT,2024-07-25 01:53,-115.1933,36.2111,667.00,108.00,55.00,17.73,340.00,3.00,0.00,29.92,1011.40,10.00,M,CLR,M,M,M,M,M,M,M,M,M,M,M,M,M,M,107.16,KVGT 250153Z 34003KT 10SM CLR 42/13 A2992 RMK AO2 LTG DSNT SE SLP114 T04220128,M
LOL,2024-07-25 01:53,-118.5701,40.0684,1192.43,84.00,55.00,37.05,220.00,25.00,T,30.17,1017.20,10.00,36.00,OVC,M,M,M,11000.00,M,M,M,-TSRA,M,M,M,36.00,210.00,2024-07-25 01:32,82.85,KLOL 250153Z AUTO 22025G36KT 10SM -TSRA OVC110 29/13 A3017 RMK AO2 PK WND 21036/0132 WSHFT 0125 LTG DSNT SW AND W RAB16 TSB35 SLP172 P0000 T02890128 $,M
NFL,2024-07-25 01:54,-118.7010,39.4166,1199.00,79.00,62.00,56.03,M,5.00,0.01,30.18,1018.30,10.00,M,SCT,BKN,BKN,OVC,5000.00,8000.00,12000.00,25000.00,M,M,M,M,M,M,M,79.00,KNFL 250154Z VRB05KT 10SM SCT050 BKN080 BKN120 OVC250 26/17 A3018 RMK AO2 RAE16 TSE04 SLP183 OCNL LTGIC DSNT N CB DSNT N-NE AND S-SW WR// P0001 T02610167,M
BVU,2024-07-25 01:55,-114.8611,35.9475,671.00,107.60,46.40,13.04,300.00,4.00,0.00,29.91,M,10.00,M,CLR,M,M,M,M,M,M,M,M,M,M,M,M,M,M,103.71,KBVU 250155Z AUTO 30004KT 10SM CLR 42/08 A2991 RMK AO2 LTG DSNT N,M
CXP,2024-07-25 01:55,-119.7326,39.1923,1431.00,84.20,50.00,30.62,200.00,10.00,0.00,30.26,M,10.00,17.00,CLR,M,M,M,M,M,M,M,M,M,M,M,M,M,M,82.24,KCXP 250155Z AUTO 20010G17KT 10SM CLR 29/10 A3026 RMK AO2,M
INS,2024-07-25 01:55,-115.6733,36.5872,955.00,102.60,47.70,15.88,220.00,9.00,0.00,30.02,1010.20,10.00,M,CLR,M,M,M,M,M,M,M,M,M,M,M,M,M,M,99.11,KINS 250155Z AUTO 22009KT 10SM CLR 39/09 A3002 RMK AO2 SLP102 T03920087 $,M
RNO,2024-07-25 01:55,-119.7711,39.4839,1341.00,92.00,51.00,24.82,260.00,12.00,0.00,30.20,1016.00,10.00,23.00,FEW,SCT,M,M,11000.00,17000.00,M,M,M,M,M,M,M,M,M,89.11,KRNO 250155Z 26012G23KT 10SM FEW110 SCT170 33/11 A3020 RMK AO2 SLP160 ACSL DSNT S T03330106,M
RTS,2024-07-25 01:55,-119.8764,39.6682,1539.00,87.80,48.20,25.52,240.00,15.00,0.00,30.26,M,10.00,M,CLR,M,M,M,M,M,M,M,M,M,M,M,M,M,M,84.87,KRTS 250155Z AUTO 24015KT 10SM CLR 31/09 A3026 RMK AO2,M
MEV,2024-07-25 01:55,-119.7500,38.9963,1441.42,82.40,53.60,37.07,100.00,5.00,0.00,30.26,M,10.00,M,CLR,M,M,M,M,M,M,M,M,M,M,M,M,M,M,81.46,KMEV 250155Z AUTO 10005KT 10SM CLR 28/12 A3026 RMK AO2,M
BAM,2024-07-25 01:55,-116.8743,40.5990,1382.36,82.40,59.00,45.07,110.00,11.00,0.00,30.15,M,10.00,M,SCT,SCT,BKN,M,6500.00,8500.00,12000.00,M,M,M,M,M,M,M,M,82.46,KBAM 250155Z AUTO 11011KT 10SM SCT065 SCT085 BKN120 28/15 A3015 RMK AO1,M
HTH,2024-07-25 01:55,-118.6315,38.5448,1282.89,89.60,44.60,21.04,250.00,12.00,0.00,30.21,M,10.00,24.00,CLR,M,M,M,M,M,M,M,M,M,M,M,M,M,M,86.07,KHTH 250155Z AUTO 25012G24KT 10SM CLR 32/07 A3021 RMK A01,M
10U,2024-07-25 01:55,-116.1876,41.9532,1637.00,73.40,55.40,53.29,M,M,0.00,30.25,M,10.00,M,FEW,SCT,BKN,M,3900.00,6000.00,9000.00,M,M,M,M,M,M,M,M,73.40,K10U 250155Z AUTO 10SM FEW039 SCT060 BKN090 23/13 A3025 RMK AO2 LTG DSNT N-E,M
LSV,2024-07-25 01:55,-115.0343,36.2362,570.00,110.00,48.00,12.91,300.00,10.00,0.00,29.86,1007.80,10.00,16.00,FEW,FEW,M,M,13000.00,19000.00,M,M,M,M,M,M,M,M,M,106.47,KLSV 250155Z AUTO 30010G16KT 10SM FEW130 FEW190 43/09 A2986 RMK AO2 LTG DSNT SE SLP078 T04340089 $,M
TMT,2024-07-25 01:55,-117.1971,39.4643,1749.34,64.00,58.30,81.71,210.00,28.00,0.00,30.38,M,7.00,38.00,SCT,SCT,OVC,M,5500.00,7000.00,9000.00,M,-RA,M,M,M,M,M,M,64.00,KTMT 250155Z AUTO 21028G38KT 7SM -RA SCT055 SCT070 OVC090 18/15 A3038 RMK AO2 T01780146,M
EKO,2024-07-25 01:56,-115.7860,40.8242,1367.00,74.00,57.00,55.34,170.00,15.00,0.10,30.22,1017.50,10.00,26.00,SCT,BKN,OVC,M,7500.00,10000.00,11000.00,M,M,M,M,M,35.00,150.00,2024-07-25 01:07,74.00,KEKO 250156Z AUTO 17015G26KT 10SM SCT075 BKN100 OVC110 23/14 A3022 RMK AO2 PK WND 15035/0107 LTG DSNT NE RAE28 TSE27 SLP175 P0010 T02330139,M
WMC,2024-07-25 01:56,-117.8072,40.9019,1315.00,77.00,67.00,71.28,300.00,4.00,0.23,30.15,1016.00,10.00,M,FEW,BKN,M,M,4000.00,11000.00,M,M,VCTS,M,M,M,M,M,M,77.00,KWMC 250156Z AUTO 30004KT 10SM VCTS FEW040 BKN110 25/19 A3015 RMK AO2 WSHFT 0117 LTG DSNT N-SE RAB06E46 TSB0059E03E19B22E51 SLP160 P0023 T02500194,M
HND,2024-07-25 01:56,-115.1344,35.9729,742.79,107.00,53.00,16.97,260.00,9.00,0.00,29.98,1012.80,10.00,M,CLR,M,M,M,M,M,M,M,M,M,M,M,M,M,M,105.26,KHND 250156Z 26009KT 10SM CLR 42/12 A2998 RMK AO2 LTG DSNT NE TSB37E52 SLP128 T04170117,M
TPH,2024-07-25 01:56,-117.0904,38.0505,1654.00,80.00,54.00,40.67,360.00,20.00,0.00,30.32,1018.50,10.00,31.00,SCT,M,M,M,11000.00,M,M,M,M,M,M,M,35.00,10.00,2024-07-25 01:24,79.98,KTPH 250156Z AUTO 36020G31KT 10SM SCT110 27/12 A3032 RMK AO2 PK WND 01035/0124 PRESRR SLP185 T02670122,M
LAS,2024-07-25 01:56,-115.1634,36.0719,663.00,110.00,49.00,13.40,280.00,15.00,0.00,29.93,1006.60,10.00,M,FEW,SCT,SCT,M,11000.00,18000.00,22000.00,M,TS,M,M,M,M,M,M,106.81,KLAS 250156Z 28015KT 10SM TS FEW110CB SCT180 SCT220 43/09 A2993 RMK AO2 LTG DSNT E TSE37B41 SLP066 OCNL LTGICCG E TS E MOV NE CB DSNT N-E-SE AND NW T04330094 $,M
LOL,2024-07-25 02:05,-118.5701,40.0684,1192.43,84.00,55.00,37.05,210.00,19.00,T,30.17,M,10.00,29.00,FEW,BKN,M,M,8500.00,11000.00,M,M,VCTS -RA,M,M,M,30.00,220.00,2024-07-25 01:54,82.85,KLOL 250205Z AUTO 21019G29KT 10SM VCTS -RA FEW085 BKN110 29/13 A3017 RMK AO2 PK WND 22030/0154 LTG DSNT SW-NW TSE0159 P0000 T02890128 $,M
05U,2024-07-25 02:10,-116.0051,39.6042,1811.23,80.60,46.40,30.07,0.00,0.00,0.00,30.34,M,10.00,M,OVC,M,M,M,12000.00,M,M,M,M,M,M,M,M,M,M,79.56,K05U 250210Z AUTO 00000KT 10SM OVC120 27/08 A3034 RMK A01,M
BVU,2024-07-25 02:15,-114.8611,35.9475,671.00,107.60,44.60,12.18,240.00,11.00,0.00,29.92,M,10.00,M,CLR,M,M,M,M,M,M,M,M,M,M,M,M,M,M,103.15,KBVU 250215Z AUTO 24011KT 10SM CLR 42/07 A2992 RMK AO2,M
CXP,2024-07-25 02:15,-119.7326,39.1923,1431.00,84.20,50.00,30.62,190.00,10.00,0.00,30.26,M,10.00,M,CLR,M,M,M,M,M,M,M,M,M,M,M,M,M,M,82.24,KCXP 250215Z AUTO 19010KT 10SM CLR 29/10 A3026 RMK AO2,M
RTS,2024-07-25 02:15,-119.8764,39.6682,1539.00,87.80,48.20,25.52,230.00,12.00,0.00,30.27,M,10.00,18.00,CLR,M,M,M,M,M,M,M,M,M,M,M,M,M,M,84.87,KRTS 250215Z AUTO 23012G18KT 10SM CLR 31/09 A3027 RMK AO2,M
MEV,2024-07-25 02:15,-119.7500,38.9963,1441.42,82.40,50.00,32.46,180.00,4.00,0.00,30.26,M,10.00,M,CLR,M,M,M,M,M,M,M,M,M,M,M,M,M,M,80.99,KMEV 250215Z AUTO 18004KT 10SM CLR 28/10 A3026 RMK AO2,M
BAM,2024-07-25 02:15,-116.8743,40.5990,1382.36,82.40,57.20,42.25,270.00,16.00,0.00,30.20,M,10.00,20.00,SCT,SCT,OVC,M,5000.00,7000.00,12000.00,M,M,M,M,M,M,M,M,82.08,KBAM 250215Z AUTO 27016G20KT 10SM SCT050 SCT070 OVC120 28/14 A3020 RMK AO1,M
HTH,2024-07-25 02:15,-118.6315,38.5448,1282.89,87.80,44.60,22.27,240.00,15.00,0.00,30.21,M,10.00,24.00,CLR,M,M,M,M,M,M,M,M,M,M,M,M,M,M,84.53,KHTH 250215Z AUTO 24015G24KT 10SM CLR 31/07 A3021 RMK A01,M
10U,2024-07-25 02:15,-116.1876,41.9532,1637.00,71.60,57.20,60.44,M,M,0.00,30.26,M,10.00,M,FEW,FEW,BKN,M,4400.00,6000.00,11000.00,M,M,M,M,M,M,M,M,71.60,K10U 250215Z AUTO 10SM FEW044 FEW060 BKN110 22/14 A3026 RMK AO2 LTG DSNT NE AND S AND SW,M
TMT,2024-07-25 02:15,-117.1971,39.4643,1749.34,63.70,59.00,84.67,210.00,16.00,0.00,30.39,M,10.00,M,SCT,SCT,BKN,M,5000.00,7000.00,8000.00,M,-RA,M,M,M,M,M,M,63.70,KTMT 250215Z AUTO 21016KT 10SM -RA SCT050 SCT070 BKN080 18/15 A3039 RMK AO2 T01760151,M
LOL,2024-07-25 02:18,-118.5701,40.0684,1192.43,83.00,56.00,39.68,220.00,21.00,T,30.17,M,10.00,34.00,FEW,SCT,M,M,9000.00,12000.00,M,M,-RA,M,M,M,34.00,210.00,2024-07-25 02:12,82.29,KLOL 250218Z AUTO 22021G34KT 10SM -RA FEW090 SCT120 28/13 A3017 RMK AO2 PK WND 21034/0212 LTG DSNT NW TSE0159 P0000 T02830133 $,M
WMC,2024-07-25 02:21,-117.8072,40.9019,1315.00,81.00,58.00,45.51,340.00,8.00,0.00,30.16,M,10.00,19.00,FEW,M,M,M,11000.00,M,M,M,M,M,M,M,M,M,M,81.22,KWMC 250221Z AUTO 34008G19KT 10SM FEW110 27/14 A3016 RMK AO2 LTG DSNT NE T02720144,M
BVU,2024-07-25 02:35,-114.8611,35.9475,671.00,105.80,48.20,14.71,0.00,0.00,0.00,29.92,M,10.00,M,CLR,M,M,M,M,M,M,M,M,M,M,M,M,M,M,102.45,KBVU 250235Z AUTO 00000KT 10SM CLR 41/09 A2992 RMK AO2,M
CXP,2024-07-25 02:35,-119.7326,39.1923,1431.00,84.20,51.80,32.73,200.00,7.00,0.00,30.26,M,10.00,M,CLR,M,M,M,M,M,M,M,M,M,M,M,M,M,M,82.48,KCXP 250235Z AUTO 20007KT 10SM CLR 29/11 A3026 RMK AO2,M
RTS,2024-07-25 02:35,-119.8764,39.6682,1539.00,86.00,48.20,27.03,230.00,12.00,0.00,30.27,M,10.00,M,CLR,M,M,M,M,M,M,M,M,M,M,M,M,M,M,83.40,KRTS 250235Z AUTO 23012KT 10SM CLR 30/09 A3027 RMK AO2,M
05U,2024-07-25 02:35,-116.0051,39.6042,1811.23,78.80,48.20,34.13,0.00,0.00,0.00,30.35,M,10.00,M,OVC,M,M,M,12000.00,M,M,M,M,M,M,M,M,M,M,78.80,K05U 250235Z AUTO 00000KT 10SM OVC120 26/09 A3035 RMK A01,M
MEV,2024-07-25 02:35,-119.7500,38.9963,1441.42,82.40,51.80,34.69,210.00,4.00,0.00,30.26,M,10.00,M,CLR,M,M,M,M,M,M,M,M,M,M,M,M,M,M,81.20,KMEV 250235Z AUTO 21004KT 10SM CLR 28/11 A3026 RMK AO2,M
BAM,2024-07-25 02:35,-116.8743,40.5990,1382.36,80.60,60.80,50.95,300.00,6.00,0.00,30.23,M,10.00,M,SCT,SCT,OVC,M,5000.00,7000.00,11000.00,M,M,M,M,M,M,M,M,81.46,KBAM 250235Z AUTO 30006KT 10SM SCT050 SCT070 OVC110 27/16 A3023 RMK AO1,M
HTH,2024-07-25 02:35,-118.6315,38.5448,1282.89,87.80,42.80,20.79,260.00,14.00,0.00,30.20,M,10.00,24.00,CLR,M,M,M,M,M,M,M,M,M,M,M,M,M,M,84.40,KHTH 250235Z AUTO 26014G24KT 10SM CLR 31/06 A3020 RMK A01,M
10U,2024-07-25 02:35,-116.1876,41.9532,1637.00,71.60,57.20,60.44,M,M,0.00,30.25,M,10.00,M,SCT,M,M,M,11000.00,M,M,M,M,M,M,M,M,M,M,71.60,K10U 250235Z AUTO 10SM SCT110 22/14 A3025 RMK AO2 LTG DSNT S AND SW,M
TMT,2024-07-25 02:35,-117.1971,39.4643,1749.34,64.20,59.70,85.30,220.00,17.00,0.00,30.39,M,10.00,M,SCT,SCT,BKN,M,7000.00,8500.00,12000.00,M,M,M,M,M,M,M,M,64.20,KTMT 250235Z AUTO 22017KT 10SM SCT070 SCT085 BKN120 18/15 A3039 RMK AO2 T01790154,M
LAS,2024-07-25 02:37,-115.1634,36.0719,663.00,109.00,50.00,14.32,280.00,11.00,0.00,29.93,M,10.00,M,SCT,SCT,BKN,M,11000.00,18000.00,22000.00,M,M,M,M,M,M,M,M,106.19,KLAS 250237Z 28011KT 10SM SCT110 SCT180 BKN220 43/10 A2993 RMK AO2 TSE37 TS DSIPTD CB DSNT N-E-SE T04280100 $,M
P68,2024-07-25 02:53,-116.0056,39.6014,1993.00,78.00,48.00,34.78,0.00,0.00,0.00,30.32,1017.70,M,M,M,M,M,M,M,M,M,M,M,M,M,M,M,M,M,78.00,KP68 250253Z AUTO 00000KT 26/09 A3032 RMK AO1 SLP177 T02560089 53004,M
DRA,2024-07-25 02:53,-116.0278,36.6206,1009.00,98.00,51.00,20.63,250.00,6.00,0.00,30.04,1011.60,10.00,M,CLR,M,M,M,M,M,M,M,M,M,M,M,M,M,M,95.17,KDRA 250253Z AUTO 25006KT 10SM CLR 37/11 A3004 RMK AO2 SLP116 T03670106 55001,M
ELY,2024-07-25 02:53,-114.8453,39.2950,1909.00,67.00,56.00,67.75,340.00,5.00,0.00,30.36,1018.40,10.00,M,CLR,M,M,M,M,M,M,M,M,M,M,M,M,M,M,67.00,KELY 250253Z AUTO 34005KT 10SM CLR 19/13 A3036 RMK AO2 SLP184 60000 T01940133 50000 $,M
VGT,2024-07-25 02:53,-115.1933,36.2111,667.00,107.00,56.00,18.93,350.00,5.00,0.00,29.93,1011.60,10.00,M,CLR,M,M,M,M,M,M,M,M,M,M,M,M,M,M,106.54,KVGT 250253Z 35005KT 10SM CLR 42/13 A2993 RMK AO2 SLP116 T04170133 53000,M
LOL,2024-07-25 02:53,-118.5701,40.0684,1192.43,75.00,58.00,55.48,250.00,12.00,0.01,30.19,1018.30,10.00,M,BKN,M,M,M,11000.00,M,M,M,-RA,M,M,M,34.00,210.00,2024-07-25 02:12,75.00,KLOL 250253Z AUTO 25012KT 10SM -RA BKN110 24/14 A3019 RMK AO2 PK WND 21034/0212 LTG DSNT SW-N TSE0159 SLP183 P0001 60001 T02390144 53032 $,M
NFL,2024-07-25 02:54,-118.7010,39.4166,1199.00,80.00,61.00,52.33,250.00,10.00,0.00,30.18,1018.50,10.00,M,FEW,SCT,BKN,BKN,5000.00,8000.00,12000.00,25000.00,M,M,M,M,M,M,M,81.03,KNFL 250254Z 25010KT 10SM FEW050 SCT080 BKN120 BKN250 27/16 A3018 RMK AO2 SLP185 CB DSNT N-NE WR// 60013 T02670161 51010,M
LSV,2024-07-25 02:55,-115.0343,36.2362,570.00,108.50,46.80,12.89,270.00,8.00,0.00,29.87,1008.10,10.00,M,CLR,M,M,M,M,M,M,M,M,M,M,M,M,M,M,104.67,KLSV 250255Z AUTO 27008KT 10SM CLR 43/08 A2987 RMK AO2 SLP081 T04250082 53004 $,M
BVU,2024-07-25 02:55,-114.8611,35.9475,671.00,105.80,44.60,12.84,260.00,5.00,0.00,29.92,M,10.00,10.00,CLR,M,M,M,M,M,M,M,M,M,M,M,M,M,M,101.53,KBVU 250255Z AUTO 26005G10KT 10SM CLR 41/07 A2992 RMK AO2,M
CXP,2024-07-25 02:55,-119.7326,39.1923,1431.00,82.40,50.00,32.46,200.00,5.00,0.00,30.27,M,10.00,11.00,CLR,M,M,M,M,M,M,M,M,M,M,M,M,M,M,80.99,KCXP 250255Z AUTO 20005G11KT 10SM CLR 28/10 A3027 RMK AO2,M
INS,2024-07-25 02:55,-115.6733,36.5872,955.00,101.70,48.60,16.87,210.00,11.00,0.00,30.02,1010.20,10.00,M,CLR,M,M,M,M,M,M,M,M,M,M,M,M,M,M,98.41,KINS 250255Z AUTO 21011KT 10SM CLR 39/09 A3002 RMK AO2 SLP102 T03870092 53001 $,M
RNO,2024-07-25 02:55,-119.7711,39.4839,1341.00,88.00,51.00,28.15,190.00,10.00,0.00,30.21,1016.40,10.00,M,FEW,SCT,M,M,10000.00,16000.00,M,M,M,M,M,M,M,M,M,85.43,KRNO 250255Z 19010KT 10SM FEW100 SCT160 31/11 A3021 RMK AO2 SLP164 ACSL DSNT NE THRU SE T03110106 53010,M
RTS,2024-07-25 02:55,-119.8764,39.6682,1539.00,84.20,48.20,28.63,260.00,11.00,0.00,30.27,M,10.00,M,CLR,M,M,M,M,M,M,M,M,M,M,M,M,M,M,82.04,KRTS 250255Z AUTO 26011KT 10SM CLR 29/09 A3027 RMK AO2,M
05U,2024-07-25 02:55,-116.0051,39.6042,1811.23,77.00,48.20,36.22,0.00,0.00,0.00,30.35,M,10.00,M,BKN,M,M,M,12000.00,M,M,M,M,M,M,M,M,M,M,77.00,K05U 250255Z AUTO 00000KT 10SM BKN120 25/09 A3035 RMK A01,M
MEV,2024-07-25 02:55,-119.7500,38.9963,1441.42,78.80,53.60,41.69,160.00,5.00,0.00,30.26,M,10.00,M,CLR,M,M,M,M,M,M,M,M,M,M,M,M,M,M,78.80,KMEV 250255Z AUTO 16005KT 10SM CLR 26/12 A3026 RMK AO2,M
BAM,2024-07-25 02:55,-116.8743,40.5990,1382.36,75.20,62.60,64.91,270.00,9.00,0.00,30.27,M,10.00,M,SCT,SCT,OVC,M,5000.00,8000.00,11000.00,M,M,M,M,M,M,M,M,75.20,KBAM 250255Z AUTO 27009KT 10SM SCT050 SCT080 OVC110 24/17 A3027 RMK AO1,M
HTH,2024-07-25 02:55,-118.6315,38.5448,1282.89,87.80,44.60,22.27,320.00,4.00,0.00,30.21,M,10.00,10.00,CLR,M,M,M,M,M,M,M,M,M,M,M,M,M,M,84.53,KHTH 250255Z AUTO 32004G10KT 10SM CLR 31/07 A3021 RMK A01,M
10U,2024-07-25 02:55,-116.1876,41.9532,1637.00,69.80,57.20,64.26,M,M,0.00,30.26,M,10.00,M,FEW,M,M,M,11000.00,M,M,M,M,M,M,M,M,M,M,69.80,K10U 250255Z AUTO 10SM FEW110 21/14 A3026 RMK AO2,M
TMT,2024-07-25 02:55,-117.1971,39.4643,1749.34,64.00,59.70,85.90,200.00,13.00,0.00,30.38,M,10.00,M,SCT,BKN,OVC,M,5000.00,10000.00,12000.00,M,-RA,M,M,M,M,M,M,64.00,KTMT 250255Z AUTO 20013KT 10SM -RA SCT050 BKN100 OVC120 18/15 A3038 RMK AO2 T01780154,M
EKO,2024-07-25 02:56,-115.7860,40.8242,1367.00,75.00,56.00,51.62,210.00,5.00,0.00,30.24,1017.40,10.00,M,FEW,M,M,M,12000.00,M,M,M,M,M,M,M,32.00,180.00,2024-07-25 02:00,75.00,KEKO 250256Z AUTO 21005KT 10SM FEW120 24/13 A3024 RMK AO2 PK WND 18032/0200 LTG DSNT N SLP174 60011 T02390133 51022,M
WMC,2024-07-25 02:56,-117.8072,40.9019,1315.00,81.00,57.00,43.90,20.00,9.00,0.00,30.19,1016.60,10.00,M,CLR,M,M,M,M,M,M,M,M,M,M,M,M,M,M,81.05,KWMC 250256Z AUTO 02009KT 10SM CLR 27/14 A3019 RMK AO2 LTG DSNT E-S SLP166 60023 T02720139 53028,M
HND,2024-07-25 02:56,-115.1344,35.9729,742.79,105.00,51.00,16.72,240.00,9.00,0.00,29.98,1013.10,10.00,M,CLR,M,M,M,M,M,M,M,M,M,M,M,M,M,M,102.47,KHND 250256Z 24009KT 10SM CLR 41/11 A2998 RMK AO2 SLP131 T04060106 55001,M
TPH,2024-07-25 02:56,-117.0904,38.0505,1654.00,78.00,55.00,45.05,360.00,10.00,0.00,30.35,1019.30,10.00,M,FEW,M,M,M,11000.00,M,M,M,M,M,M,M,27.00,360.00,2024-07-25 01:59,78.00,KTPH 250256Z AUTO 36010KT 10SM FEW110 26/13 A3035 RMK AO2 PK WND 36027/0159 SLP193 T02560128 53020,M
LAS,2024-07-25 02:56,-115.1634,36.0719,663.00,108.00,50.00,14.75,290.00,10.00,0.00,29.93,1006.60,10.00,M,SCT,SCT,BKN,M,11000.00,18000.00,22000.00,M,M,M,M,M,M,M,M,105.19,KLAS 250256Z 29010KT 10SM SCT110 SCT180 BKN220 42/10 A2993 RMK AO2 TSE37 SLP066 TS DSIPTD CB DSNT NW-NE-SE T04220100 56003 $,M
BVU,2024-07-25 03:15,-114.8611,35.9475,671.00,104.00,48.20,15.52,0.00,0.00,0.00,29.93,M,10.00,M,CLR,M,M,M,M,M,M,M,M,M,M,M,M,M,M,100.65,KBVU 250315Z AUTO 00000KT 10SM CLR 40/09 A2993 RMK AO2,M
CXP,2024-07-25 03:15,-119.7326,39.1923,1431.00,80.60,50.00,34.41,200.00,5.00,0.00,30.27,M,10.00,M,CLR,M,M,M,M,M,M,M,M,M,M,M,M,M,M,79.88,KCXP 250315Z AUTO 20005KT 10SM CLR 27/10 A3027 RMK AO2,M
RTS,2024-07-25 03:15,-119.8764,39.6682,1539.00,82.40,50.00,32.46,260.00,8.00,0.00,30.28,M,10.00,M,CLR,M,M,M,M,M,M,M,M,M,M,M,M,M,M,80.99,KRTS 250315Z AUTO 26008KT 10SM CLR 28/10 A3028 RMK AO2,M
05U,2024-07-25 03:15,-116.0051,39.6042,1811.23,77.00,48.20,36.22,250.00,9.00,0.00,30.36,M,10.00,M,SCT,BKN,M,M,10000.00,12000.00,M,M,M,M,M,M,M,M,M,77.00,K05U 250315Z AUTO 25009KT 10SM SCT100 BKN120 25/09 A3036 RMK A01,M
MEV,2024-07-25 03:15,-119.7500,38.9963,1441.42,78.80,51.80,39.02,0.00,0.00,0.00,30.26,M,10.00,M,CLR,M,M,M,M,M,M,M,M,M,M,M,M,M,M,78.80,KMEV 250315Z AUTO 00000KT 10SM CLR 26/11 A3026 RMK AO2,M
BAM,2024-07-25 03:15,-116.8743,40.5990,1382.36,75.20,62.60,64.91,40.00,3.00,0.00,30.25,M,7.00,M,SCT,SCT,OVC,M,5500.00,7000.00,11000.00,M,M,M,M,M,M,M,M,75.20,KBAM 250315Z AUTO 04003KT 7SM SCT055 SCT070 OVC110 24/17 A3025 RMK AO1,M
HTH,2024-07-25 03:15,-118.6315,38.5448,1282.89,87.80,46.40,23.85,10.00,7.00,0.00,30.22,M,10.00,M,CLR,M,M,M,M,M,M,M,M,M,M,M,M,M,M,84.68,KHTH 250315Z AUTO 01007KT 10SM CLR 31/08 A3022 RMK A01,M
10U,2024-07-25 03:15,-116.1876,41.9532,1637.00,69.80,57.20,64.26,M,M,0.00,30.27,M,10.00,M,SCT,M,M,M,10000.00,M,M,M,M,M,M,M,M,M,M,69.80,K10U 250315Z AUTO 10SM SCT100 21/14 A3027 RMK AO2 LTG DSNT SE,M
TMT,2024-07-25 03:15,-117.1971,39.4643,1749.34,63.30,59.00,85.86,180.00,10.00,0.00,30.39,M,10.00,M,SCT,BKN,OVC,M,4800.00,7500.00,10000.00,M,RA,M,M,M,M,M,M,63.30,KTMT 250315Z AUTO 18010KT 10SM RA SCT048 BKN075 OVC100 17/15 A3039 RMK AO2 T01740151,M
BVU,2024-07-25 03:35,-114.8611,35.9475,671.00,100.40,53.60,21.11,0.00,0.00,0.00,29.93,M,10.00,M,CLR,M,M,M,M,M,M,M,M,M,M,M,M,M,M,98.44,KBVU 250335Z AUTO 00000KT 10SM CLR 38/12 A2993 RMK AO2,M
CXP,2024-07-25 03:35,-119.7326,39.1923,1431.00,80.60,51.80,36.79,200.00,4.00,0.00,30.28,M,10.00,M,CLR,M,M,M,M,M,M,M,M,M,M,M,M,M,M,80.08,KCXP 250335Z AUTO 20004KT 10SM CLR 27/11 A3028 RMK AO2,M
RTS,2024-07-25 03:35,-119.8764,39.6682,1539.00,82.40,50.00,32.46,260.00,10.00,0.00,30.29,M,10.00,M,CLR,M,M,M,M,M,M,M,M,M,M,M,M,M,M,80.99,KRTS 250335Z AUTO 26010KT 10SM CLR 28/10 A3029 RMK AO2,M
05U,2024-07-25 03:35,-116.0051,39.6042,1811.23,77.00,50.00,38.74,250.00,10.00,0.00,30.36,M,10.00,M,SCT,SCT,M,M,10000.00,12000.00,M,M,M,M,M,M,M,M,M,77.00,K05U 250335Z AUTO 25010KT 10SM SCT100 SCT120 25/10 A3036 RMK A01,M
MEV,2024-07-25 03:35,-119.7500,38.9963,1441.42,73.40,53.60,49.90,0.00,0.00,0.00,30.27,M,10.00,M,CLR,M,M,M,M,M,M,M,M,M,M,M,M,M,M,73.40,KMEV 250335Z AUTO 00000KT 10SM CLR 23/12 A3027 RMK AO2,M
BAM,2024-07-25 03:35,-116.8743,40.5990,1382.36,73.40,64.40,73.44,230.00,14.00,0.00,30.29,M,10.00,17.00,SCT,BKN,OVC,M,7000.00,9000.00,11000.00,M,M,M,M,M,M,M,M,73.40,KBAM 250335Z AUTO 23014G17KT 10SM SCT070 BKN090 OVC110 23/18 A3029 RMK AO1,M
HTH,2024-07-25 03:35,-118.6315,38.5448,1282.89,84.20,50.00,30.62,30.00,6.00,0.00,30.22,M,10.00,12.00,CLR,M,M,M,M,M,M,M,M,M,M,M,M,M,M,82.24,KHTH 250335Z AUTO 03006G12KT 10SM CLR 29/10 A3022 RMK A01,M
10U,2024-07-25 03:35,-116.1876,41.9532,1637.00,69.80,59.00,68.55,M,M,0.00,30.31,M,10.00,M,FEW,SCT,BKN,M,1600.00,4200.00,7500.00,M,M,M,M,M,M,M,M,69.80,K10U 250335Z AUTO 10SM FEW016 SCT042 BKN075 21/15 A3031 RMK AO2 LTG DSNT ALQDS,M
TMT,2024-07-25 03:35,-117.1971,39.4643,1749.34,65.00,57.20,75.84,200.00,7.00,0.00,30.40,M,10.00,15.00,SCT,SCT,OVC,M,4800.00,6500.00,10000.00,M,M,M,M,M,M,M,M,65.00,KTMT 250335Z AUTO 20007G15KT 10SM SCT048 SCT065 OVC100 18/14 A3040 RMK AO2 T01840140,M
LOL,2024-07-25 03:45,-118.5701,40.0684,1192.43,76.00,59.00,55.62,320.00,5.00,T,30.18,M,10.00,M,FEW,SCT,M,M,9000.00,12000.00,M,M,VCTS,M,M,M,M,M,M,76.00,KLOL 250345Z AUTO 32005KT 10SM VCTS FEW090 SCT120 24/15 A3018 RMK AO2 RAE14 P0000 T02440150 $,M
P68,2024-07-25 03:53,-116.0056,39.6014,1993.00,76.00,50.00,40.05,250.00,8.00,0.00,30.35,1018.40,M,M,M,M,M,M,M,M,M,M,M,M,M,M,M,M,M,76.00,KP68 250353Z AUTO 25008KT 24/10 A3035 RMK AO1 SLP184 T02440100,M
DRA,2024-07-25 03:53,-116.0278,36.6206,1009.00,94.00,52.00,24.20,330.00,5.00,0.00,30.06,1012.20,10.00,M,CLR,M,M,M,M,M,M,M,M,M,M,M,M,M,M,91.30,KDRA 250353Z AUTO 33005KT 10SM CLR 34/11 A3006 RMK AO2 SLP122 T03440111,M
ELY,2024-07-25 03:53,-114.8453,39.2950,1909.00,68.00,56.00,65.45,0.00,0.00,0.00,30.37,1017.40,10.00,M,SCT,M,M,M,12000.00,M,M,M,M,M,M,M,M,M,M,68.00,KELY 250353Z AUTO 00000KT 10SM SCT120 20/13 A3037 RMK AO2 SLP174 T02000133 $,M
VGT,2024-07-25 03:53,-115.1933,36.2111,667.00,106.00,56.00,19.49,290.00,3.00,0.00,29.95,1012.20,10.00,M,CLR,M,M,M,M,M,M,M,M,M,M,M,M,M,M,105.46,KVGT 250353Z AUTO 29003KT 10SM CLR 41/13 A2995 RMK AO2 SLP122 T04110133,M
LOL,2024-07-25 03:53,-118.5701,40.0684,1192.43,76.00,61.00,59.72,330.00,7.00,T,30.19,1017.70,10.00,M,FEW,FEW,M,M,9000.00,12000.00,M,M,VCTS,M,M,M,M,M,M,76.00,KLOL 250353Z AUTO 33007KT 10SM VCTS FEW090 FEW120 24/16 A3019 RMK AO2 RAE14 SLP177 P0000 T02440161 $,M
NFL,2024-07-25 03:54,-118.7010,39.4166,1199.00,77.00,63.00,62.00,260.00,6.00,0.00,30.20,1019.10,10.00,M,FEW,SCT,BKN,BKN,5000.00,8000.00,12000.00,25000.00,M,M,M,M,M,M,M,77.00,KNFL 250354Z 26006KT 10SM FEW050 SCT080 BKN120 BKN250 25/17 A3020 RMK AO2 SLP191 CB DSNT N-NE WR// T02500172,M
BVU,2024-07-25 03:55,-114.8611,35.9475,671.00,102.20,48.20,16.37,0.00,0.00,0.00,29.94,M,10.00,M,CLR,M,M,M,M,M,M,M,M,M,M,M,M,M,M,98.83,KBVU 250355Z AUTO 00000KT 10SM CLR 39/09 A2994 RMK AO2,M
CXP,2024-07-25 03:55,-119.7326,39.1923,1431.00,80.60,51.80,36.79,M,3.00,0.00,30.28,M,10.00,M,CLR,M,M,M,M,M,M,M,M,M,M,M,M,M,M,80.08,KCXP 250355Z AUTO VRB03KT 10SM CLR 27/11 A3028 RMK AO2,M
INS,2024-07-25 03:55,-115.6733,36.5872,955.00,96.80,49.00,19.87,270.00,4.00,0.00,30.04,1011.00,10.00,M,CLR,M,M,M,M,M,M,M,M,M,M,M,M,M,M,93.51,KINS 250355Z AUTO 27004KT 10SM CLR 36/10 A3004 RMK AO2 SLP110 T03600095 $,M
RNO,2024-07-25 03:55,-119.7711,39.4839,1341.00,84.00,53.00,34.43,150.00,6.00,0.00,30.23,1017.20,10.00,M,FEW,FEW,M,M,9000.00,15000.00,M,M,M,M,M,M,M,M,M,82.51,KRNO 250355Z 15006KT 10SM FEW090 FEW150 29/12 A3023 RMK AO2 SLP172 ACSL DSNT NW THRU N T02890117,M
LSV,2024-07-25 03:55,-115.0343,36.2362,570.00,107.40,50.00,15.01,290.00,6.00,0.00,29.88,1008.40,10.00,M,SCT,M,M,M,13000.00,M,M,M,M,M,M,M,M,M,M,104.59,KLSV 250355Z AUTO 29006KT 10SM SCT130 42/10 A2988 RMK AO2 SLP084 T04190099 $,M
RTS,2024-07-25 03:55,-119.8764,39.6682,1539.00,80.60,51.80,36.79,240.00,8.00,0.00,30.30,M,10.00,M,CLR,M,M,M,M,M,M,M,M,M,M,M,M,M,M,80.08,KRTS 250355Z AUTO 24008KT 10SM CLR 27/11 A3030 RMK AO2,M
05U,2024-07-25 03:55,-116.0051,39.6042,1811.23,75.20,50.00,41.14,240.00,7.00,0.00,30.38,M,10.00,M,CLR,M,M,M,M,M,M,M,M,M,M,M,M,M,M,75.20,K05U 250355Z AUTO 24007KT 10SM CLR 24/10 A3038 RMK A01,M
MEV,2024-07-25 03:55,-119.7500,38.9963,1441.42,71.60,53.60,53.03,0.00,0.00,0.00,30.27,M,10.00,M,CLR,M,M,M,M,M,M,M,M,M,M,M,M,M,M,71.60,KMEV 250355Z AUTO 00000KT 10SM CLR 22/12 A3027 RMK AO2,M
HTH,2024-07-25 03:55,-118.6315,38.5448,1282.89,84.20,48.20,28.63,0.00,0.00,0.00,30.22,M,10.00,M,CLR,M,M,M,M,M,M,M,M,M,M,M,M,M,M,82.04,KHTH 250355Z AUTO 00000KT 10SM CLR 29/09 A3022 RMK A01,M
10U,2024-07-25 03:55,-116.1876,41.9532,1637.00,66.20,59.00,77.60,M,M,0.00,30.33,M,8.00,M,FEW,SCT,BKN,M,1300.00,3200.00,5000.00,M,VCTS RA,M,M,M,M,M,M,66.20,K10U 250355Z AUTO 8SM VCTS RA FEW013 SCT032 BKN050 19/15 A3033 RMK AO2 LTG DSNT E,M
BAM,2024-07-25 03:55,-116.8743,40.5990,1382.36,73.40,60.80,64.69,270.00,12.00,0.00,30.32,M,7.00,26.00,BKN,OVC,M,M,8000.00,9000.00,M,M,M,M,M,M,M,M,M,73.40,KBAM 250355Z AUTO 27012G26KT 7SM BKN080 OVC090 23/16 A3032 RMK AO1,M
TMT,2024-07-25 03:55,-117.1971,39.4643,1749.34,63.00,58.60,85.54,170.00,3.00,0.00,30.40,M,10.00,M,SCT,M,M,M,10000.00,M,M,M,M,M,M,M,M,M,M,63.00,KTMT 250355Z AUTO 17003KT 10SM SCT100 17/15 A3040 RMK AO2 T01730148,M
EKO,2024-07-25 03:56,-115.7860,40.8242,1367.00,73.00,60.00,63.73,310.00,8.00,0.02,30.31,1019.60,10.00,M,OVC,M,M,M,10000.00,M,M,M,M,M,M,M,M,M,M,73.00,KEKO 250356Z AUTO 31008KT 10SM OVC100 23/16 A3031 RMK AO2 RAB33E55 PRESRR SLP196 P0002 T02280156,M
WMC,2024-07-25 03:56,-117.8072,40.9019,1315.00,81.00,53.00,37.95,0.00,0.00,0.00,30.24,1017.90,10.00,M,FEW,M,M,M,12000.00,M,M,M,M,M,M,M,M,M,M,80.46,KWMC 250356Z AUTO 00000KT 10SM FEW120 27/12 A3024 RMK AO2 LTG DSNT S PRESRR SLP179 T02720117,M
HND,2024-07-25 03:56,-115.1344,35.9729,742.79,103.00,51.00,17.74,230.00,5.00,0.00,30.01,1013.90,10.00,M,CLR,M,M,M,M,M,M,M,M,M,M,M,M,M,M,100.40,KHND 250356Z AUTO 23005KT 10SM CLR 39/11 A3001 RMK AO2 SLP139 T03940106,M
TPH,2024-07-25 03:56,-117.0904,38.0505,1654.00,76.00,54.00,46.42,360.00,5.00,0.00,30.36,1019.40,10.00,M,CLR,M,M,M,M,M,M,M,M,M,M,M,M,M,M,76.00,KTPH 250356Z AUTO 36005KT 10SM CLR 24/12 A3036 RMK AO2 SLP194 T02440122,M
LAS,2024-07-25 03:56,-115.1634,36.0719,663.00,106.00,52.00,16.84,280.00,6.00,0.00,29.95,1007.30,10.00,M,SCT,SCT,BKN,M,11000.00,18000.00,22000.00,M,M,M,M,M,M,M,M,103.85,KLAS 250356Z 28006KT 10SM SCT110 SCT180 BKN220 41/11 A2995 RMK AO2 SLP073 TS DSIPTD CB DSNT NW-NE-SE T04110111 $,M
LOL,2024-07-25 04:00,-118.5701,40.0684,1192.43,75.00,61.00,61.75,300.00,5.00,0.00,30.19,M,10.00,M,FEW,M,M,M,9000.00,M,M,M,M,M,M,M,M,M,M,75.00,KLOL 250400Z AUTO 30005KT 10SM FEW090 24/16 A3019 RMK AO2 T02390161 $,M
WMC,2024-07-25 04:06,-117.8072,40.9019,1315.00,76.00,59.00,55.62,190.00,20.00,0.00,30.27,M,6.00,32.00,BKN,M,M,M,11000.00,M,M,M,VCTS HZ,M,M,M,32.00,180.00,2024-07-25 04:06,76.00,KWMC 250406Z AUTO 19020G32KT 6SM VCTS HZ BKN110 24/15 A3027 RMK AO2 PK WND 18032/0406 LTG DSNT NW PRESRR T02440150,M
BVU,2024-07-25 04:15,-114.8611,35.9475,671.00,102.20,44.60,14.29,220.00,6.00,0.00,29.95,M,10.00,M,CLR,M,M,M,M,M,M,M,M,M,M,M,M,M,M,98.07,KBVU 250415Z AUTO 22006KT 10SM CLR 39/07 A2995 RMK AO2,M
CXP,2024-07-25 04:15,-119.7326,39.1923,1431.00,78.80,50.00,36.51,320.00,3.00,0.00,30.29,M,10.00,M,CLR,M,M,M,M,M,M,M,M,M,M,M,M,M,M,78.80,KCXP 250415Z AUTO 32003KT 10SM CLR 26/10 A3029 RMK AO2,M
WMC,2024-07-25 04:15,-117.8072,40.9019,1315.00,75.00,59.00,57.50,180.00,17.00,T,30.28,M,4.00,35.00,BKN,M,M,M,10000.00,M,M,M,-RA,M,M,M,35.00,180.00,2024-07-25 04:08,75.00,KWMC 250415Z AUTO 18017G35KT 4SM -RA BKN100 24/15 A3028 RMK AO2 PK WND 18035/0408 WSHFT 0359 LTG DSNT NW RAB15 PRESRR P0000 T02390150,M
RTS,2024-07-25 04:15,-119.8764,39.6682,1539.00,80.60,51.80,36.79,260.00,8.00,0.00,30.30,M,10.00,M,CLR,M,M,M,M,M,M,M,M,M,M,M,M,M,M,80.08,KRTS 250415Z AUTO 26008KT 10SM CLR 27/11 A3030 RMK AO2,M
05U,2024-07-25 04:15,-116.0051,39.6042,1811.23,75.20,50.00,41.14,200.00,13.00,0.00,30.40,M,10.00,M,CLR,M,M,M,M,M,M,M,M,M,M,M,M,M,M,75.20,K05U 250415Z AUTO 20013KT 10SM CLR 24/10 A3040 RMK A01,M
MEV,2024-07-25 04:15,-119.7500,38.9963,1441.42,69.80,53.60,56.38,120.00,4.00,0.00,30.28,M,10.00,M,CLR,M,M,M,M,M,M,M,M,M,M,M,M,M,M,69.80,KMEV 250415Z AUTO 12004KT 10SM CLR 21/12 A3028 RMK AO2,M
HTH,2024-07-25 04:15,-118.6315,38.5448,1282.89,84.20,50.00,30.62,230.00,5.00,0.00,30.23,M,10.00,M,CLR,M,M,M,M,M,M,M,M,M,M,M,M,M,M,82.24,KHTH 250415Z AUTO 23005KT 10SM CLR 29/10 A3023 RMK A01,M
10U,2024-07-25 04:15,-116.1876,41.9532,1637.00,66.20,59.00,77.60,M,M,0.00,30.37,M,10.00,M,FEW,SCT,OVC,M,800.00,5000.00,7000.00,M,M,M,M,M,M,M,M,66.20,K10U 250415Z AUTO 10SM FEW008 SCT050 OVC070 19/15 A3037 RMK AO2,M
BAM,2024-07-25 04:15,-116.8743,40.5990,1382.36,69.80,64.40,82.98,270.00,15.00,0.00,30.35,M,2.00,23.00,SCT,SCT,OVC,M,5000.00,7000.00,8000.00,M,M,M,M,M,M,M,M,69.80,KBAM 250415Z AUTO 27015G23KT 2SM SCT050 SCT070 OVC080 21/18 A3035 RMK AO1,M
TMT,2024-07-25 04:15,-117.1971,39.4643,1749.34,63.00,58.60,85.54,0.00,0.00,0.00,30.40,M,10.00,M,CLR,M,M,M,M,M,M,M,M,M,M,M,M,M,M,63.00,KTMT 250415Z AUTO 00000KT 10SM CLR 17/15 A3040 RMK AO2 T01730148,M
05U,2024-07-25 04:30,-116.0051,39.6042,1811.23,73.40,50.00,43.69,190.00,6.00,0.00,30.40,M,10.00,15.00,SCT,M,M,M,11000.00,M,M,M,M,M,M,M,M,M,M,73.40,K05U 250430Z AUTO 19006G15KT 10SM SCT110 23/10 A3040 RMK A01,M
BVU,2024-07-25 04:35,-114.8611,35.9475,671.00,102.20,44.60,14.29,230.00,7.00,0.00,29.95,M,10.00,M,CLR,M,M,M,M,M,M,M,M,M,M,M,M,M,M,98.07,KBVU 250435Z AUTO 23007KT 10SM CLR 39/07 A2995 RMK AO2,M
CXP,2024-07-25 04:35,-119.7326,39.1923,1431.00,77.00,50.00,38.74,340.00,4.00,0.00,30.30,M,10.00,M,CLR,M,M,M,M,M,M,M,M,M,M,M,M,M,M,77.00,KCXP 250435Z AUTO 34004KT 10SM CLR 25/10 A3030 RMK AO2,M
RTS,2024-07-25 04:35,-119.8764,39.6682,1539.00,78.80,51.80,39.02,240.00,8.00,0.00,30.31,M,10.00,M,CLR,M,M,M,M,M,M,M,M,M,M,M,M,M,M,78.80,KRTS 250435Z AUTO 24008KT 10SM CLR 26/11 A3031 RMK AO2,M
MEV,2024-07-25 04:35,-119.7500,38.9963,1441.42,68.00,55.40,64.04,130.00,4.00,0.00,30.28,M,3.00,M,CLR,M,M,M,M,M,M,M,-RA HZ,M,M,M,M,M,M,68.00,KMEV 250435Z AUTO 13004KT 3SM -RA HZ CLR 20/13 A3028 RMK AO2,M
HTH,2024-07-25 04:35,-118.6315,38.5448,1282.89,82.40,48.20,30.35,190.00,6.00,0.00,30.24,M,10.00,M,CLR,M,M,M,M,M,M,M,M,M,M,M,M,M,M,80.80,KHTH 250435Z AUTO 19006KT 10SM CLR 28/09 A3024 RMK A01,M
10U,2024-07-25 04:35,-116.1876,41.9532,1637.00,68.00,59.00,72.92,M,M,0.00,30.38,M,10.00,M,BKN,OVC,M,M,7000.00,9000.00,M,M,M,M,M,M,M,M,M,68.00,K10U 250435Z AUTO 10SM BKN070 OVC090 20/15 A3038 RMK AO2,M
BAM,2024-07-25 04:35,-116.8743,40.5990,1382.36,68.00,64.40,88.26,250.00,5.00,0.00,30.38,M,2.00,M,SCT,SCT,OVC,M,5000.00,7000.00,9000.00,M,M,M,M,M,M,M,M,68.00,KBAM 250435Z AUTO 25005KT 2SM SCT050 SCT070 OVC090 20/18 A3038 RMK AO1,M
TMT,2024-07-25 04:35,-117.1971,39.4643,1749.34,62.40,59.00,88.63,310.00,6.00,0.00,30.41,M,10.00,M,SCT,M,M,M,10000.00,M,M,M,M,M,M,M,M,M,M,62.40,KTMT 250435Z AUTO 31006KT 10SM SCT100 17/15 A3041 RMK AO2 T01690149,M
WMC,2024-07-25 04:37,-117.8072,40.9019,1315.00,73.00,60.00,63.73,170.00,21.00,T,30.25,M,5.00,29.00,OVC,M,M,M,11000.00,M,M,M,VCTS -RA,M,M,M,35.00,180.00,2024-07-25 04:08,73.00,KWMC 250437Z AUTO 17021G29KT 5SM VCTS -RA OVC110 23/16 A3025 RMK AO2 PK WND 18035/0408 WSHFT 0359 LTG DSNT SW-N RAB15 PRESFR P0000 T02280156,M
05U,2024-07-25 04:50,-116.0051,39.6042,1811.23,73.40,50.00,43.69,0.00,0.00,0.00,30.41,M,10.00,11.00,FEW,OVC,M,M,7000.00,10000.00,M,M,M,M,M,M,M,M,M,73.40,K05U 250450Z AUTO 00000G11KT 10SM FEW070 OVC100 23/10 A3041 RMK A01,M
P68,2024-07-25 04:53,-116.0056,39.6014,1993.00,74.00,51.00,44.44,190.00,8.00,0.00,30.39,1019.50,M,M,M,M,M,M,M,M,M,M,M,M,M,M,M,M,M,74.00,KP68 250453Z AUTO 19008KT 23/11 A3039 RMK AO1 SLP195 T02330106,M
DRA,2024-07-25 04:53,-116.0278,36.6206,1009.00,93.00,52.00,24.97,30.00,22.00,0.00,30.09,1013.10,10.00,29.00,CLR,M,M,M,M,M,M,M,M,M,M,M,29.00,30.00,2024-07-25 04:44,90.29,KDRA 250453Z AUTO 03022G29KT 10SM CLR 34/11 A3009 RMK AO2 PK WND 03029/0444 SLP131 T03390111,M
ELY,2024-07-25 04:53,-114.8453,39.2950,1909.00,66.00,58.00,75.39,170.00,8.00,0.00,30.41,1018.70,10.00,M,OVC,M,M,M,11000.00,M,M,M,M,M,M,M,M,M,M,66.00,KELY 250453Z AUTO 17008KT 10SM OVC110 19/14 A3041 RMK AO2 SLP187 T01890144 $,M
VGT,2024-07-25 04:53,-115.1933,36.2111,667.00,105.00,53.00,18.00,280.00,5.00,0.00,29.96,1012.60,10.00,M,CLR,M,M,M,M,M,M,M,M,M,M,M,M,M,M,103.16,KVGT 250453Z AUTO 28005KT 10SM CLR 41/12 A2996 RMK AO2 SLP126 T04060117,M
LOL,2024-07-25 04:53,-118.5701,40.0684,1192.43,73.00,58.00,59.33,120.00,4.00,0.00,30.20,1018.00,10.00,M,BKN,M,M,M,12000.00,M,M,M,M,M,M,M,M,M,M,73.00,KLOL 250453Z AUTO 12004KT 10SM BKN120 23/14 A3020 RMK AO2 SLP180 T02280144 $,M
NFL,2024-07-25 04:54,-118.7010,39.4166,1199.00,76.00,61.00,59.72,70.00,5.00,0.00,30.22,1019.50,10.00,M,FEW,SCT,BKN,M,8000.00,12000.00,25000.00,M,M,M,M,M,M,M,M,76.00,KNFL 250454Z 07005KT 10SM FEW080 SCT120 BKN250 24/16 A3022 RMK AO2 SLP195 T02440161,M
BVU,2024-07-25 04:55,-114.8611,35.9475,671.00,100.40,44.60,15.08,230.00,8.00,0.00,29.96,M,10.00,M,CLR,M,M,M,M,M,M,M,M,M,M,M,M,M,M,96.31,KBVU 250455Z AUTO 23008KT 10SM CLR 38/07 A2996 RMK AO2,M
CXP,2024-07-25 04:55,-119.7326,39.1923,1431.00,78.80,50.00,36.51,0.00,0.00,0.00,30.29,M,10.00,M,CLR,M,M,M,M,M,M,M,M,M,M,M,M,M,M,78.80,KCXP 250455Z AUTO 00000KT 10SM CLR 26/10 A3029 RMK AO2,M
INS,2024-07-25 04:55,-115.6733,36.5872,955.00,98.00,50.00,19.88,210.00,4.00,0.00,30.06,1011.60,10.00,M,OVC,M,M,M,14000.00,M,M,M,M,M,M,M,M,M,M,94.94,KINS 250455Z AUTO 21004KT 10SM OVC140 37/10 A3006 RMK AO2 SLP116 T03660100 $,M
RNO,2024-07-25 04:55,-119.7711,39.4839,1341.00,84.00,53.00,34.43,M,5.00,0.00,30.25,1017.40,10.00,M,FEW,M,M,M,14000.00,M,M,M,M,M,M,M,M,M,M,82.51,KRNO 250455Z VRB05KT 10SM FEW140 29/12 A3025 RMK AO2 SLP174 T02890117,M
RTS,2024-07-25 04:55,-119.8764,39.6682,1539.00,78.80,51.80,39.02,270.00,6.00,0.00,30.32,M,10.00,M,CLR,M,M,M,M,M,M,M,M,M,M,M,M,M,M,78.80,KRTS 250455Z AUTO 27006KT 10SM CLR 26/11 A3032 RMK AO2,M
MEV,2024-07-25 04:55,-119.7500,38.9963,1441.42,68.00,53.60,59.97,160.00,3.00,0.00,30.29,M,8.00,M,CLR,M,M,M,M,M,M,M,M,M,M,M,M,M,M,68.00,KMEV 250455Z AUTO 16003KT 8SM CLR 20/12 A3029 RMK AO2,M
HTH,2024-07-25 04:55,-118.6315,38.5448,1282.89,82.40,48.20,30.35,0.00,0.00,0.00,30.24,M,10.00,M,CLR,M,M,M,M,M,M,M,M,M,M,M,M,M,M,80.80,KHTH 250455Z AUTO 00000KT 10SM CLR 28/09 A3024 RMK A01,M
10U,2024-07-25 04:55,-116.1876,41.9532,1637.00,66.20,59.00,77.60,M,M,0.00,30.38,M,10.00,M,FEW,BKN,BKN,M,6500.00,7500.00,10000.00,M,M,M,M,M,M,M,M,66.20,K10U 250455Z AUTO 10SM FEW065 BKN075 BKN100 19/15 A3038 RMK AO2,M
LSV,2024-07-25 04:55,-115.0343,36.2362,570.00,106.00,50.40,15.87,300.00,4.00,0.00,29.90,1009.00,10.00,M,CLR,M,M,M,M,M,M,M,M,M,M,M,M,M,M,103.31,KLSV 250455Z AUTO 30004KT 10SM CLR 41/10 A2990 RMK AO2 SLP090 T04110102 $,M
BAM,2024-07-25 04:55,-116.8743,40.5990,1382.36,68.00,64.40,88.26,0.00,0.00,0.00,30.39,M,1.00,M,SCT,BKN,OVC,M,4900.00,6000.00,7000.00,M,M,M,M,M,M,M,M,68.00,KBAM 250455Z AUTO 00000KT 1SM SCT049 BKN060 OVC070 20/18 A3039 RMK AO1,M
TMT,2024-07-25 04:55,-117.1971,39.4643,1749.34,61.50,59.00,91.49,0.00,0.00,0.00,30.41,M,10.00,M,SCT,M,M,M,10000.00,M,M,M,M,M,M,M,M,M,M,61.50,KTMT 250455Z AUTO 00000KT 10SM SCT100 16/15 A3041 RMK AO2 T01640150,M
EKO,2024-07-25 04:56,-115.7860,40.8242,1367.00,72.00,60.00,65.92,270.00,7.00,T,30.36,1021.50,10.00,M,BKN,OVC,M,M,7500.00,10000.00,M,M,M,M,M,M,M,M,M,72.00,KEKO 250456Z AUTO 27007KT 10SM BKN075 OVC100 22/16 A3036 RMK AO2 RAB00E12 SLP215 P0000 T02220156,M
WMC,2024-07-25 04:56,-117.8072,40.9019,1315.00,72.00,60.00,65.92,160.00,15.00,T,30.29,1019.90,6.00,24.00,FEW,BKN,OVC,M,4600.00,10000.00,12000.00,M,-RA,M,M,M,35.00,180.00,2024-07-25 04:08,72.00,KWMC 250456Z AUTO 16015G24KT 6SM -RA FEW046 BKN100 OVC120 22/16 A3029 RMK AO2 PK WND 18035/0408 WSHFT 0359 LTG DSNT NW RAB15 PRESRR SLP199 P0000 T02220156,M
HND,2024-07-25 04:56,-115.1344,35.9729,742.79,101.00,53.00,20.28,220.00,9.00,0.00,30.02,1014.30,10.00,M,CLR,M,M,M,M,M,M,M,M,M,M,M,M,M,M,98.89,KHND 250456Z AUTO 22009KT 10SM CLR 38/12 A3002 RMK AO2 SLP143 T03830117,M
TPH,2024-07-25 04:56,-117.0904,38.0505,1654.00,74.00,54.00,49.63,10.00,7.00,0.00,30.37,1019.90,10.00,M,FEW,M,M,M,12000.00,M,M,M,M,M,M,M,M,M,M,74.00,KTPH 250456Z AUTO 01007KT 10SM FEW120 23/12 A3037 RMK AO2 SLP199 T02330122,M
LAS,2024-07-25 04:56,-115.1634,36.0719,663.00,105.00,50.00,16.11,230.00,9.00,0.00,29.96,1007.70,10.00,M,FEW,BKN,BKN,M,11000.00,15000.00,22000.00,M,M,M,M,M,M,M,M,102.16,KLAS 250456Z 23009KT 10SM FEW110 BKN150 BKN220 41/10 A2996 RMK AO2 SLP077 T04060100 $,M
05U,2024-07-25 05:10,-116.0051,39.6042,1811.23,73.40,50.00,43.69,190.00,6.00,0.00,30.42,M,10.00,M,OVC,M,M,M,10000.00,M,M,M,M,M,M,M,M,M,M,73.40,K05U 250510Z AUTO 19006KT 10SM OVC100 23/10 A3042 RMK A01,M
BVU,2024-07-25 05:15,-114.8611,35.9475,671.00,100.40,44.60,15.08,210.00,7.00,0.00,29.97,M,10.00,M,CLR,M,M,M,M,M,M,M,M,M,M,M,M,M,M,96.31,KBVU 250515Z AUTO 21007KT 10SM CLR 38/07 A2997 RMK AO2,M
CXP,2024-07-25 05:15,-119.7326,39.1923,1431.00,75.20,50.00,41.14,0.00,0.00,0.00,30.30,M,10.00,M,CLR,M,M,M,M,M,M,M,M,M,M,M,M,M,M,75.20,KCXP 250515Z AUTO 00000KT 10SM CLR 24/10 A3030 RMK AO2,M
RTS,2024-07-25 05:15,-119.8764,39.6682,1539.00,75.20,50.00,41.14,290.00,8.00,0.00,30.31,M,10.00,M,CLR,M,M,M,M,M,M,M,M,M,M,M,M,M,M,75.20,KRTS 250515Z AUTO 29008KT 10SM CLR 24/10 A3031 RMK AO2,M
MEV,2024-07-25 05:15,-119.7500,38.9963,1441.42,66.20,55.40,68.15,140.00,4.00,0.00,30.29,M,9.00,M,FEW,M,M,M,6000.00,M,M,M,M,M,M,M,M,M,M,66.20,KMEV 250515Z AUTO 14004KT 9SM FEW060 19/13 A3029 RMK AO2,M
BAM,2024-07-25 05:15,-116.8743,40.5990,1382.36,68.00,64.40,88.26,120.00,7.00,0.00,30.39,M,1.25,M,BKN,BKN,OVC,M,4900.00,5500.00,7000.00,M,M,M,M,M,M,M,M,68.00,KBAM 250515Z AUTO 12007KT 1 1/4SM BKN049 BKN055 OVC070 20/18 A3039 RMK AO1,M
HTH,2024-07-25 05:15,-118.6315,38.5448,1282.89,82.40,48.20,30.35,M,5.00,0.00,30.24,M,10.00,M,CLR,M,M,M,M,M,M,M,M,M,M,M,M,M,M,80.80,KHTH 250515Z AUTO VRB05KT 10SM CLR 28/09 A3024 RMK A01,M
10U,2024-07-25 05:15,-116.1876,41.9532,1637.00,66.20,59.00,77.60,M,M,0.00,30.38,M,10.00,M,FEW,BKN,OVC,M,5500.00,7000.00,11000.00,M,M,M,M,M,M,M,M,66.20,K10U 250515Z AUTO 10SM FEW055 BKN070 OVC110 19/15 A3038 RMK AO2,M
TMT,2024-07-25 05:15,-117.1971,39.4643,1749.34,59.40,57.40,93.08,50.00,5.00,0.00,30.42,M,10.00,M,CLR,M,M,M,M,M,M,M,M,M,M,M,M,M,M,59.40,KTMT 250515Z AUTO 05005KT 10SM CLR 15/14 A3042 RMK AO2 T01520141,M
05U,2024-07-25 05:30,-116.0051,39.6042,1811.23,73.40,50.00,43.69,0.00,0.00,0.00,30.43,M,10.00,M,BKN,OVC,M,M,9000.00,11000.00,M,M,M,M,M,M,M,M,M,73.40,K05U 250530Z AUTO 00000KT 10SM BKN090 OVC110 23/10 A3043 RMK A01,M
BVU,2024-07-25 05:35,-114.8611,35.9475,671.00,100.40,46.40,16.15,210.00,6.00,0.00,29.97,M,10.00,M,CLR,M,M,M,M,M,M,M,M,M,M,M,M,M,M,96.63,KBVU 250535Z AUTO 21006KT 10SM CLR 38/08 A2997 RMK AO2,M
CXP,2024-07-25 05:35,-119.7326,39.1923,1431.00,75.20,51.80,43.97,0.00,0.00,0.00,30.29,M,10.00,M,CLR,M,M,M,M,M,M,M,M,M,M,M,M,M,M,75.20,KCXP 250535Z AUTO 00000KT 10SM CLR 24/11 A3029 RMK AO2,M
RTS,2024-07-25 05:35,-119.8764,39.6682,1539.00,73.40,50.00,43.69,290.00,8.00,0.00,30.31,M,10.00,M,CLR,M,M,M,M,M,M,M,M,M,M,M,M,M,M,73.40,KRTS 250535Z AUTO 29008KT 10SM CLR 23/10 A3031 RMK AO2,M
MEV,2024-07-25 05:35,-119.7500,38.9963,1441.42,64.40,55.40,72.56,130.00,6.00,0.00,30.28,M,10.00,M,FEW,M,M,M,6000.00,M,M,M,M,M,M,M,M,M,M,64.40,KMEV 250535Z AUTO 13006KT 10SM FEW060 18/13 A3028 RMK AO2,M
HTH,2024-07-25 05:35,-118.6315,38.5448,1282.89,80.60,50.00,34.41,0.00,0.00,0.00,30.25,M,10.00,M,CLR,M,M,M,M,M,M,M,M,M,M,M,M,M,M,79.88,KHTH 250535Z AUTO 00000KT 10SM CLR 27/10 A3025 RMK A01,M
10U,2024-07-25 05:35,-116.1876,41.9532,1637.00,66.20,57.20,72.74,M,M,0.00,30.35,M,10.00,M,FEW,BKN,OVC,M,6500.00,8500.00,11000.00,M,M,M,M,M,M,M,M,66.20,K10U 250535Z AUTO 10SM FEW065 BKN085 OVC110 19/14 A3035 RMK AO2,M
BAM,2024-07-25 05:35,-116.8743,40.5990,1382.36,68.00,64.40,88.26,170.00,3.00,0.00,30.38,M,1.25,M,SCT,OVC,M,M,4200.00,4900.00,M,M,M,M,M,M,M,M,M,68.00,KBAM 250535Z AUTO 17003KT 1 1/4SM SCT042 OVC049 20/18 A3038 RMK AO1,M
TMT,2024-07-25 05:35,-117.1971,39.4643,1749.34,58.50,57.00,94.75,0.00,0.00,0.00,30.42,M,10.00,M,SCT,M,M,M,11000.00,M,M,M,M,M,M,M,M,M,M,58.50,KTMT 250535Z AUTO 00000KT 10SM SCT110 15/14 A3042 RMK AO2 T01470138,M
P68,2024-07-25 05:53,-116.0056,39.6014,1993.00,74.00,50.00,42.82,0.00,0.00,0.00,30.41,1019.90,M,M,M,M,M,M,M,M,M,M,M,M,M,M,M,M,M,74.00,KP68 250553Z AUTO 00000KT 23/10 A3041 RMK AO1 SLP199 T02330100 10294 20228 51025,M
DRA,2024-07-25 05:53,-116.0278,36.6206,1009.00,90.00,53.00,28.45,40.00,15.00,0.00,30.10,1013.40,10.00,25.00,CLR,M,M,M,M,M,M,M,M,M,M,M,28.00,30.00,2024-07-25 05:33,87.60,KDRA 250553Z AUTO 04015G25KT 10SM CLR 32/12 A3010 RMK AO2 PK WND 03028/0533 SLP134 T03220117 10406 20322 51018,M
ELY,2024-07-25 05:53,-114.8453,39.2950,1909.00,68.00,55.00,63.12,180.00,11.00,T,30.43,1018.70,10.00,M,OVC,M,M,M,9500.00,M,M,M,-RA,M,M,M,M,M,M,68.00,KELY 250553Z AUTO 18011KT 10SM -RA OVC095 20/13 A3043 RMK AO2 RAB46 SLP187 P0000 60000 T02000128 10233 20189 53019 $,M
VGT,2024-07-25 05:53,-115.1933,36.2111,667.00,104.00,52.00,17.87,210.00,7.00,0.00,29.96,1012.80,10.00,M,CLR,M,M,M,M,M,M,M,M,M,M,M,M,M,M,101.76,KVGT 250553Z AUTO 21007KT 10SM CLR 40/11 A2996 RMK AO2 LTG DSNT N AND NE SLP128 T04000111 10444 20400 51012,M
LOL,2024-07-25 05:53,-118.5701,40.0684,1192.43,70.00,59.00,68.09,300.00,6.00,0.00,30.21,1018.40,10.00,M,CLR,M,M,M,M,M,M,M,M,M,M,M,M,M,M,70.00,KLOL 250553Z AUTO 30006KT 10SM CLR 21/15 A3021 RMK AO2 SLP184 60001 T02110150 10378 20211 53006 $,M
NFL,2024-07-25 05:54,-118.7010,39.4166,1199.00,73.00,62.00,68.42,190.00,5.00,0.00,30.22,1019.50,10.00,M,FEW,SCT,BKN,M,8000.00,12000.00,25000.00,M,M,M,M,M,M,M,M,73.00,KNFL 250554Z 19005KT 10SM FEW080 SCT120 BKN250 23/17 A3022 RMK AO2 SLP195 60013 T02280167 10278 20228 50010,M
INS,2024-07-25 05:55,-115.6733,36.5872,955.00,92.00,50.00,23.92,340.00,20.00,0.00,30.09,1012.70,10.00,26.00,FEW,M,M,M,700.00,M,M,M,M,M,M,M,28.00,360.00,2024-07-25 05:38,88.94,KINS 250555Z AUTO 34020G26KT 10SM FEW007 33/10 A3009 RMK AO2 PK WND 36028/38 LTG DSNT NW SLP127 T03330100 10411 20333 52021 $,M
BVU,2024-07-25 05:55,-114.8611,35.9475,671.00,96.80,48.20,19.28,0.00,0.00,0.00,29.97,M,10.00,M,CLR,M,M,M,M,M,M,M,M,M,M,M,M,M,M,93.36,KBVU 250555Z AUTO 00000KT 10SM CLR 36/09 A2997 RMK AO2,M
CXP,2024-07-25 05:55,-119.7326,39.1923,1431.00,75.20,51.80,43.97,0.00,0.00,0.00,30.30,M,10.00,M,CLR,M,M,M,M,M,M,M,M,M,M,M,M,M,M,75.20,KCXP 250555Z AUTO 00000KT 10SM CLR 24/11 A3030 RMK AO2,M
RNO,2024-07-25 05:55,-119.7711,39.4839,1341.00,81.00,52.00,36.58,300.00,4.00,0.00,30.26,1017.60,10.00,M,CLR,M,M,M,M,M,M,M,M,M,M,M,28.00,260.00,2024-07-25 05:13,80.34,KRNO 250555Z 30004KT 10SM CLR 27/11 A3026 RMK AO2 PK WND 26028/0513 SLP176 T02720111 10339 20272 51014,M
LSV,2024-07-25 05:55,-115.0343,36.2362,570.00,103.30,53.00,18.93,80.00,3.00,0.00,29.91,1009.30,10.00,M,FEW,M,M,M,15000.00,M,M,M,M,M,M,M,M,M,M,101.35,KLSV 250555Z AUTO 08003KT 10SM FEW150 40/12 A2991 RMK AO2 SLP093 T03960116 10439 20382 52014 $,M
RTS,2024-07-25 05:55,-119.8764,39.6682,1539.00,73.40,50.00,43.69,290.00,6.00,0.00,30.31,M,10.00,M,CLR,M,M,M,M,M,M,M,M,M,M,M,M,M,M,73.40,KRTS 250555Z AUTO 29006KT 10SM CLR 23/10 A3031 RMK AO2,M
05U,2024-07-25 05:55,-116.0051,39.6042,1811.23,75.20,50.00,41.14,0.00,0.00,0.00,30.44,M,10.00,M,SCT,BKN,OVC,M,5000.00,6500.00,8500.00,M,M,M,M,M,M,M,M,75.20,K05U 250555Z AUTO 00000KT 10SM SCT050 BKN065 OVC085 24/10 A3044 RMK A01,M
MEV,2024-07-25 05:55,-119.7500,38.9963,1441.42,64.40,55.40,72.56,90.00,7.00,0.00,30.28,M,10.00,M,FEW,SCT,M,M,5500.00,6500.00,M,M,M,M,M,M,M,M,M,64.40,KMEV 250555Z AUTO 09007KT 10SM FEW055 SCT065 18/13 A3028 RMK AO2,M
BAM,2024-07-25 05:55,-116.8743,40.5990,1382.36,68.00,64.40,88.26,100.00,5.00,0.00,30.36,M,2.50,M,SCT,BKN,OVC,M,4500.00,9000.00,12000.00,M,M,M,M,M,M,M,M,68.00,KBAM 250555Z AUTO 10005KT 2 1/2SM SCT045 BKN090 OVC120 20/18 A3036 RMK AO1,M
HTH,2024-07-25 05:55,-118.6315,38.5448,1282.89,78.80,51.80,39.02,320.00,5.00,0.00,30.25,M,10.00,M,M,M,M,M,M,M,M,M,M,M,M,M,M,M,M,78.80,KHTH 250555Z AUTO 32005KT 10SM 26/11 A3025 RMK A01,M
10U,2024-07-25 05:55,-116.1876,41.9532,1637.00,64.40,57.20,77.45,M,M,0.00,30.34,M,10.00,M,FEW,SCT,M,M,9500.00,11000.00,M,M,M,M,M,M,M,M,M,64.40,K10U 250555Z AUTO 10SM FEW095 SCT110 18/14 A3034 RMK AO2,M
TMT,2024-07-25 05:55,-117.1971,39.4643,1749.34,58.60,57.20,95.09,70.00,4.00,0.00,30.42,M,10.00,M,SCT,M,M,M,11000.00,M,M,M,M,M,M,M,M,M,M,58.60,KTMT 250555Z AUTO 07004KT 10SM SCT110 15/14 A3042 RMK AO2 T01480140 10285 20145,M
EKO,2024-07-25 05:56,-115.7860,40.8242,1367.00,65.00,62.00,90.01,220.00,9.00,0.01,30.41,1023.80,6.00,M,FEW,BKN,OVC,M,8000.00,9500.00,11000.00,M,-RA BR,M,M,M,M,M,M,65.00,KEKO 250556Z AUTO 22009KT 6SM -RA BR FEW080 BKN095 OVC110 18/17 A3041 RMK AO2 RAB19 SLP238 P0001 60014 T01830167 10350 20183 51052,M
WMC,2024-07-25 05:56,-117.8072,40.9019,1315.00,72.00,60.00,65.92,180.00,10.00,T,30.26,1018.70,10.00,18.00,FEW,SCT,M,M,7000.00,11000.00,M,M,M,M,M,M,M,M,M,72.00,KWMC 250556Z AUTO 18010G18KT 10SM FEW070 SCT110 22/16 A3026 RMK AO2 RAE50 SLP187 P0000 60023 T02220156 10378 20217 50022,M
HND,2024-07-25 05:56,-115.1344,35.9729,742.79,100.00,53.00,20.90,220.00,10.00,0.00,30.03,1014.50,10.00,M,CLR,M,M,M,M,M,M,M,M,M,M,M,M,M,M,97.82,KHND 250556Z AUTO 22010KT 10SM CLR 38/12 A3003 RMK AO2 SLP145 T03780117 10433 20378 51015,M
TPH,2024-07-25 05:56,-117.0904,38.0505,1654.00,73.00,55.00,53.23,360.00,9.00,0.00,30.37,1019.60,10.00,M,CLR,M,M,M,M,M,M,M,M,M,M,M,M,M,M,73.00,KTPH 250556Z AUTO 36009KT 10SM CLR 23/13 A3037 RMK AO2 SLP196 T02280128 10333 20228 50006,M
LAS,2024-07-25 05:56,-115.1634,36.0719,663.00,104.00,51.00,17.22,230.00,8.00,0.00,29.97,1007.90,10.00,M,FEW,FEW,SCT,M,12000.00,15000.00,22000.00,M,M,M,M,M,M,M,M,101.44,KLAS 250556Z 23008KT 10SM FEW120 FEW150 SCT220 40/11 A2997 RMK AO2 SLP079 T04000106 10444 20400 51013 $,M
HTH,2024-07-25 06:10,-118.6315,38.5448,1282.89,77.00,57.20,50.43,300.00,7.00,0.00,30.25,M,10.00,M,M,M,M,M,M,M,M,M,M,M,M,M,M,M,M,77.00,KHTH 250610Z AUTO 30007KT 10SM 25/14 A3025 RMK A01,M
BVU,2024-07-25 06:15,-114.8611,35.9475,671.00,98.60,46.40,17.05,250.00,4.00,0.00,29.97,M,10.00,M,CLR,M,M,M,M,M,M,M,M,M,M,M,M,M,M,94.84,KBVU 250615Z AUTO 25004KT 10SM CLR 37/08 A2997 RMK AO2 LTG DSNT NE,M
CXP,2024-07-25 06:15,-119.7326,39.1923,1431.00,75.20,50.00,41.14,0.00,0.00,0.00,30.30,M,10.00,M,CLR,M,M,M,M,M,M,M,M,M,M,M,M,M,M,75.20,KCXP 250615Z AUTO 00000KT 10SM CLR 24/10 A3030 RMK AO2,M
RTS,2024-07-25 06:15,-119.8764,39.6682,1539.00,73.40,50.00,43.69,320.00,4.00,0.00,30.31,M,10.00,M,CLR,M,M,M,M,M,M,M,M,M,M,M,M,M,M,73.40,KRTS 250615Z AUTO 32004KT 10SM CLR 23/10 A3031 RMK AO2,M
05U,2024-07-25 06:15,-116.0051,39.6042,1811.23,71.60,51.80,49.64,0.00,0.00,0.00,30.45,M,10.00,M,SCT,BKN,OVC,M,5000.00,6500.00,9500.00,M,M,M,M,M,M,M,M,71.60,K05U 250615Z AUTO 00000KT 10SM SCT050 BKN065 OVC095 22/11 A3045 RMK A01,M
MEV,2024-07-25 06:15,-119.7500,38.9963,1441.42,66.20,55.40,68.15,110.00,6.00,0.00,30.29,M,10.00,M,FEW,SCT,M,M,5000.00,6000.00,M,M,M,M,M,M,M,M,M,66.20,KMEV 250615Z AUTO 11006KT 10SM FEW050 SCT060 19/13 A3029 RMK AO2,M
10U,2024-07-25 06:15,-116.1876,41.9532,1637.00,66.20,59.00,77.60,M,M,0.00,30.30,M,10.00,M,FEW,M,M,M,11000.00,M,M,M,M,M,M,M,M,M,M,66.20,K10U 250615Z AUTO 10SM FEW110 19/15 A3030 RMK AO2 LTG DSNT N,M
BAM,2024-07-25 06:15,-116.8743,40.5990,1382.36,68.00,64.40,88.26,90.00,5.00,0.00,30.35,M,2.00,M,SCT,SCT,OVC,M,7500.00,9500.00,12000.00,M,M,M,M,M,M,M,M,68.00,KBAM 250615Z AUTO 09005KT 2SM SCT075 SCT095 OVC120 20/18 A3035 RMK AO1,M
TMT,2024-07-25 06:15,-117.1971,39.4643,1749.34,58.60,57.00,94.41,50.00,4.00,0.00,30.42,M,10.00,M,CLR,M,M,M,M,M,M,M,M,M,M,M,M,M,M,58.60,KTMT 250615Z AUTO 05004KT 10SM CLR 15/14 A3042 RMK AO2 T01480138,M
10U,2024-07-25 06:30,-116.1876,41.9532,1637.00,64.40,59.00,82.62,M,M,0.00,30.28,M,10.00,M,CLR,M,M,M,M,M,M,M,M,M,M,M,M,M,M,64.40,K10U 250630Z AUTO 10SM CLR 18/15 A3028 RMK AO2,M
BVU,2024-07-25 06:35,-114.8611,35.9475,671.00,98.60,48.20,18.25,220.00,6.00,0.00,29.97,M,10.00,M,CLR,M,M,M,M,M,M,M,M,M,M,M,M,M,M,95.17,KBVU 250635Z AUTO 22006KT 10SM CLR 37/09 A2997 RMK AO2,M
CXP,2024-07-25 06:35,-119.7326,39.1923,1431.00,73.40,51.80,46.71,0.00,0.00,0.00,30.30,M,10.00,M,CLR,M,M,M,M,M,M,M,M,M,M,M,M,M,M,73.40,KCXP 250635Z AUTO 00000KT 10SM CLR 23/11 A3030 RMK AO2,M
RTS,2024-07-25 06:35,-119.8764,39.6682,1539.00,71.60,50.00,46.43,310.00,5.00,0.00,30.31,M,10.00,M,CLR,M,M,M,M,M,M,M,M,M,M,M,M,M,M,71.60,KRTS 250635Z AUTO 31005KT 10SM CLR 22/10 A3031 RMK AO2,M
05U,2024-07-25 06:35,-116.0051,39.6042,1811.23,69.80,55.40,60.21,350.00,11.00,0.00,30.45,M,10.00,M,FEW,FEW,OVC,M,5000.00,7500.00,11000.00,M,M,M,M,M,M,M,M,69.80,K05U 250635Z AUTO 35011KT 10SM FEW050 FEW075 OVC110 21/13 A3045 RMK A01,M
MEV,2024-07-25 06:35,-119.7500,38.9963,1441.42,66.20,55.40,68.15,110.00,7.00,0.00,30.29,M,10.00,M,SCT,SCT,M,M,5000.00,6000.00,M,M,M,M,M,M,M,M,M,66.20,KMEV 250635Z AUTO 11007KT 10SM SCT050 SCT060 19/13 A3029 RMK AO2,M
HTH,2024-07-25 06:35,-118.6315,38.5448,1282.89,77.00,59.00,53.80,320.00,8.00,0.00,30.25,M,10.00,M,CLR,M,M,M,M,M,M,M,M,M,M,M,M,M,M,77.00,KHTH 250635Z AUTO 32008KT 10SM CLR 25/15 A3025 RMK A01,M
BAM,2024-07-25 06:35,-116.8743,40.5990,1382.36,68.00,66.20,93.97,30.00,6.00,0.00,30.34,M,2.00,M,SCT,OVC,M,M,8500.00,12000.00,M,M,M,M,M,M,M,M,M,68.00,KBAM 250635Z AUTO 03006KT 2SM SCT085 OVC120 20/19 A3034 RMK AO1,M
TMT,2024-07-25 06:35,-117.1971,39.4643,1749.34,60.00,57.70,92.10,0.00,0.00,0.00,30.41,M,10.00,M,CLR,M,M,M,M,M,M,M,M,M,M,M,M,M,M,60.00,KTMT 250635Z AUTO 00000KT 10SM CLR 16/14 A3041 RMK AO2 T01560143,M
05U,2024-07-25 06:50,-116.0051,39.6042,1811.23,68.00,55.40,64.04,330.00,8.00,0.00,30.45,M,10.00,13.00,BKN,M,M,M,11000.00,M,M,M,M,M,M,M,M,M,M,68.00,K05U 250650Z AUTO 33008G13KT 10SM BKN110 20/13 A3045 RMK A01,M
P68,2024-07-25 06:53,-116.0056,39.6014,1993.00,68.00,55.00,63.12,340.00,9.00,0.00,30.43,1020.60,M,M,M,M,M,M,M,M,M,M,M,M,M,M,M,M,M,68.00,KP68 250653Z AUTO 34009KT 20/13 A3043 RMK AO1 SLP206 T02000128,M
DRA,2024-07-25 06:53,-116.0278,36.6206,1009.00,90.00,53.00,28.45,50.00,18.00,0.00,30.12,1014.00,10.00,25.00,CLR,M,M,M,M,M,M,M,M,M,M,M,27.00,30.00,2024-07-25 06:07,87.60,KDRA 250653Z AUTO 05018G25KT 10SM CLR 32/12 A3012 RMK AO2 PK WND 03027/0607 SLP140 T03220117,M
ELY,2024-07-25 06:53,-114.8453,39.2950,1909.00,63.00,58.00,83.72,190.00,13.00,0.01,30.45,1019.70,10.00,M,BKN,OVC,M,M,10000.00,11000.00,M,M,M,M,M,M,M,M,M,63.00,KELY 250653Z AUTO 19013KT 10SM BKN100 OVC110 17/14 A3045 RMK AO2 RAE49 SLP197 P0001 T01720144 $,M
VGT,2024-07-25 06:53,-115.1933,36.2111,667.00,102.00,53.00,19.68,320.00,8.00,0.00,29.98,1013.40,10.00,M,CLR,M,M,M,M,M,M,M,M,M,M,M,M,M,M,99.96,KVGT 250653Z AUTO 32008KT 10SM CLR 39/12 A2998 RMK AO2 SLP134 T03890117,M
LOL,2024-07-25 06:53,-118.5701,40.0684,1192.43,70.00,59.00,68.09,300.00,3.00,0.00,30.21,1018.10,10.00,M,CLR,M,M,M,M,M,M,M,M,M,M,M,M,M,M,70.00,KLOL 250653Z AUTO 30003KT 10SM CLR 21/15 A3021 RMK AO2 SLP181 T02110150 $,M
NFL,2024-07-25 06:54,-118.7010,39.4166,1199.00,74.00,60.00,61.62,180.00,3.00,0.00,30.21,1019.30,10.00,M,CLR,M,M,M,M,M,M,M,M,M,M,M,M,M,M,74.00,KNFL 250654Z AUTO 18003KT 10SM CLR 23/16 A3021 RMK AO2 SLP193 T02330156,M
BVU,2024-07-25 06:55,-114.8611,35.9475,671.00,98.60,48.20,18.25,220.00,6.00,0.00,29.97,M,10.00,M,CLR,M,M,M,M,M,M,M,M,M,M,M,M,M,M,95.17,KBVU 250655Z AUTO 22006KT 10SM CLR 37/09 A2997 RMK AO2,M
CXP,2024-07-25 06:55,-119.7326,39.1923,1431.00,73.40,51.80,46.71,0.00,0.00,0.00,30.30,M,10.00,M,CLR,M,M,M,M,M,M,M,M,M,M,M,M,M,M,73.40,KCXP 250655Z AUTO 00000KT 10SM CLR 23/11 A3030 RMK AO2,M
INS,2024-07-25 06:55,-115.6733,36.5872,955.00,89.80,51.30,26.89,0.00,0.00,0.00,30.11,1013.30,10.00,M,CLR,M,M,M,M,M,M,M,M,M,M,M,M,M,M,87.09,KINS 250655Z AUTO 00000KT 10SM CLR 32/11 A3011 RMK AO2 SLP133 T03210107 $,M
RNO,2024-07-25 06:55,-119.7711,39.4839,1341.00,80.00,52.00,37.79,M,3.00,0.00,30.25,1017.50,10.00,M,FEW,M,M,M,6000.00,M,M,M,M,M,M,M,M,M,M,79.75,KRNO 250655Z VRB03KT 10SM FEW060 27/11 A3025 RMK AO2 SLP175 T02670111,M
RTS,2024-07-25 06:55,-119.8764,39.6682,1539.00,71.60,50.00,46.43,300.00,5.00,0.00,30.31,M,10.00,M,CLR,M,M,M,M,M,M,M,M,M,M,M,M,M,M,71.60,KRTS 250655Z AUTO 30005KT 10SM CLR 22/10 A3031 RMK AO2,M
MEV,2024-07-25 06:55,-119.7500,38.9963,1441.42,66.20,53.60,63.82,0.00,0.00,0.00,30.29,M,10.00,M,FEW,SCT,M,M,5000.00,5500.00,M,M,M,M,M,M,M,M,M,66.20,KMEV 250655Z AUTO 00000KT 10SM FEW050 SCT055 19/12 A3029 RMK AO2,M
HTH,2024-07-25 06:55,-118.6315,38.5448,1282.89,77.00,59.00,53.80,0.00,0.00,0.00,30.25,M,10.00,M,CLR,M,M,M,M,M,M,M,M,M,M,M,M,M,M,77.00,KHTH 250655Z AUTO 00000KT 10SM CLR 25/15 A3025 RMK A01,M
10U,2024-07-25 06:55,-116.1876,41.9532,1637.00,66.20,57.20,72.74,M,M,0.00,30.30,M,10.00,M,CLR,M,M,M,M,M,M,M,M,M,M,M,M,M,M,66.20,K10U 250655Z AUTO 10SM CLR 19/14 A3030 RMK AO2,M
LSV,2024-07-25 06:55,-115.0343,36.2362,570.00,102.40,49.30,16.96,0.00,0.00,0.00,29.92,1009.70,10.00,M,CLR,M,M,M,M,M,M,M,M,M,M,M,M,M,M,99.30,KLSV 250655Z AUTO 00000KT 10SM CLR 39/10 A2992 RMK AO2 SLP097 T03910096 $,M
BAM,2024-07-25 06:55,-116.8743,40.5990,1382.36,66.20,64.40,93.92,50.00,7.00,0.00,30.34,M,7.00,M,OVC,M,M,M,12000.00,M,M,M,M,M,M,M,M,M,M,66.20,KBAM 250655Z AUTO 05007KT 7SM OVC120 19/18 A3034 RMK AO1,M
TMT,2024-07-25 06:55,-117.1971,39.4643,1749.34,59.70,57.60,92.75,280.00,6.00,0.00,30.41,M,10.00,M,CLR,M,M,M,M,M,M,M,M,M,M,M,M,M,M,59.70,KTMT 250655Z AUTO 28006KT 10SM CLR 15/14 A3041 RMK AO2 T01540142,M
EKO,2024-07-25 06:56,-115.7860,40.8242,1367.00,65.00,63.00,93.24,170.00,5.00,0.10,30.41,1024.10,5.00,M,OVC,M,M,M,9000.00,M,M,M,-RA BR,M,M,M,M,M,M,65.00,KEKO 250656Z AUTO 17005KT 5SM -RA BR OVC090 18/17 A3041 RMK AO2 SLP241 P0010 T01830172,M
WMC,2024-07-25 06:56,-117.8072,40.9019,1315.00,73.00,57.00,57.23,180.00,11.00,0.00,30.23,1017.70,10.00,M,FEW,M,M,M,12000.00,M,M,M,M,M,M,M,M,M,M,73.00,KWMC 250656Z AUTO 18011KT 10SM FEW120 23/14 A3023 RMK AO2 SLP177 T02280139,M
HND,2024-07-25 06:56,-115.1344,35.9729,742.79,99.00,54.00,22.35,220.00,11.00,0.00,30.04,1014.70,10.00,M,CLR,M,M,M,M,M,M,M,M,M,M,M,M,M,M,97.06,KHND 250656Z AUTO 22011KT 10SM CLR 37/12 A3004 RMK AO2 SLP147 T03720122 404330294,M
TPH,2024-07-25 06:56,-117.0904,38.0505,1654.00,72.00,56.00,57.10,360.00,9.00,0.00,30.35,1018.80,10.00,M,CLR,M,M,M,M,M,M,M,M,M,M,M,M,M,M,72.00,KTPH 250656Z AUTO 36009KT 10SM CLR 22/13 A3035 RMK AO2 SLP188 T02220133,M
LAS,2024-07-25 06:56,-115.1634,36.0719,663.00,103.00,52.00,18.41,230.00,11.00,0.00,29.98,1008.30,10.00,18.00,FEW,M,M,M,22000.00,M,M,M,M,M,M,M,M,M,M,100.70,KLAS 250656Z 23011G18KT 10SM FEW220 39/11 A2998 RMK AO2 SLP083 T03940111 $,M
05U,2024-07-25 07:10,-116.0051,39.6042,1811.23,66.20,55.40,68.15,330.00,8.00,0.00,30.46,M,10.00,M,FEW,M,M,M,11000.00,M,M,M,M,M,M,M,M,M,M,66.20,K05U 250710Z AUTO 33008KT 10SM FEW110 19/13 A3046 RMK A01,M
BVU,2024-07-25 07:15,-114.8611,35.9475,671.00,98.60,48.20,18.25,M,6.00,0.00,29.98,M,10.00,M,CLR,M,M,M,M,M,M,M,M,M,M,M,M,M,M,95.17,KBVU 250715Z AUTO VRB06KT 10SM CLR 37/09 A2998 RMK AO2 LTG DSNT NE,M
CXP,2024-07-25 07:15,-119.7326,39.1923,1431.00,73.40,50.00,43.69,0.00,0.00,0.00,30.30,M,10.00,M,CLR,M,M,M,M,M,M,M,M,M,M,M,M,M,M,73.40,KCXP 250715Z AUTO 00000KT 10SM CLR 23/10 A3030 RMK AO2,M
RTS,2024-07-25 07:15,-119.8764,39.6682,1539.00,73.40,50.00,43.69,240.00,8.00,0.00,30.31,M,10.00,M,CLR,M,M,M,M,M,M,M,M,M,M,M,M,M,M,73.40,KRTS 250715Z AUTO 24008KT 10SM CLR 23/10 A3031 RMK AO2,M
MEV,2024-07-25 07:15,-119.7500,38.9963,1441.42,62.60,53.60,72.38,100.00,4.00,0.00,30.29,M,6.00,M,SCT,SCT,M,M,5000.00,6000.00,M,M,HZ,M,M,M,M,M,M,62.60,KMEV 250715Z AUTO 10004KT 6SM HZ SCT050 SCT060 17/12 A3029 RMK AO2,M
BAM,2024-07-25 07:15,-116.8743,40.5990,1382.36,66.20,64.40,93.92,60.00,9.00,0.00,30.34,M,7.00,M,SCT,M,M,M,12000.00,M,M,M,M,M,M,M,M,M,M,66.20,KBAM 250715Z AUTO 06009KT 7SM SCT120 19/18 A3034 RMK AO1,M
HTH,2024-07-25 07:15,-118.6315,38.5448,1282.89,77.00,57.20,50.43,270.00,5.00,0.00,30.25,M,10.00,M,CLR,M,M,M,M,M,M,M,M,M,M,M,M,M,M,77.00,KHTH 250715Z AUTO 27005KT 10SM CLR 25/14 A3025 RMK A01,M
10U,2024-07-25 07:15,-116.1876,41.9532,1637.00,66.20,57.20,72.74,M,M,0.00,30.30,M,10.00,M,CLR,M,M,M,M,M,M,M,M,M,M,M,M,M,M,66.20,K10U 250715Z AUTO 10SM CLR 19/14 A3030 RMK AO2,M
TMT,2024-07-25 07:15,-117.1971,39.4643,1749.34,60.00,58.00,93.10,250.00,3.00,0.00,30.40,M,10.00,M,CLR,M,M,M,M,M,M,M,M,M,M,M,M,M,M,60.00,KTMT 250715Z AUTO 25003KT 10SM CLR 16/15 A3040 RMK AO2 T01550145,M
05U,2024-07-25 07:30,-116.0051,39.6042,1811.23,66.20,55.40,68.15,0.00,0.00,0.00,30.45,M,10.00,M,FEW,M,M,M,11000.00,M,M,M,M,M,M,M,M,M,M,66.20,K05U 250730Z AUTO 00000KT 10SM FEW110 19/13 A3045 RMK A01,M
BVU,2024-07-25 07:35,-114.8611,35.9475,671.00,100.40,50.00,18.48,210.00,7.00,0.00,29.98,M,10.00,15.00,CLR,M,M,M,M,M,M,M,M,M,M,M,M,M,M,97.42,KBVU 250735Z AUTO 21007G15KT 10SM CLR 38/10 A2998 RMK AO2,M
CXP,2024-07-25 07:35,-119.7326,39.1923,1431.00,71.60,50.00,46.43,0.00,0.00,0.00,30.30,M,10.00,M,CLR,M,M,M,M,M,M,M,M,M,M,M,M,M,M,71.60,KCXP 250735Z AUTO 00000KT 10SM CLR 22/10 A3030 RMK AO2,M
RTS,2024-07-25 07:35,-119.8764,39.6682,1539.00,75.20,50.00,41.14,230.00,6.00,0.00,30.31,M,10.00,M,CLR,M,M,M,M,M,M,M,M,M,M,M,M,M,M,75.20,KRTS 250735Z AUTO 23006KT 10SM CLR 24/10 A3031 RMK AO2,M
MEV,2024-07-25 07:35,-119.7500,38.9963,1441.42,62.60,53.60,72.38,130.00,6.00,0.00,30.29,M,10.00,M,SCT,M,M,M,5000.00,M,M,M,M,M,M,M,M,M,M,62.60,KMEV 250735Z AUTO 13006KT 10SM SCT050 17/12 A3029 RMK AO2,M
BAM,2024-07-25 07:35,-116.8743,40.5990,1382.36,66.20,64.40,93.92,80.00,7.00,0.00,30.31,M,7.00,M,CLR,M,M,M,M,M,M,M,M,M,M,M,M,M,M,66.20,KBAM 250735Z AUTO 08007KT 7SM CLR 19/18 A3031 RMK AO1,M
HTH,2024-07-25 07:35,-118.6315,38.5448,1282.89,77.00,57.20,50.43,240.00,4.00,0.00,30.25,M,10.00,M,CLR,M,M,M,M,M,M,M,M,M,M,M,M,M,M,77.00,KHTH 250735Z AUTO 24004KT 10SM CLR 25/14 A3025 RMK A01,M
10U,2024-07-25 07:35,-116.1876,41.9532,1637.00,66.20,57.20,72.74,M,M,0.00,30.30,M,10.00,M,CLR,M,M,M,M,M,M,M,M,M,M,M,M,M,M,66.20,K10U 250735Z AUTO 10SM CLR 19/14 A3030 RMK AO2,M
TMT,2024-07-25 07:35,-117.1971,39.4643,1749.34,58.60,57.60,96.47,0.00,0.00,0.00,30.40,M,10.00,M,CLR,M,M,M,M,M,M,M,M,M,M,M,M,M,M,58.60,KTMT 250735Z AUTO 00000KT 10SM CLR 15/14 A3040 RMK AO2 T01480142,M
RTS,2024-07-25 07:45,-119.8764,39.6682,1539.00,75.20,50.00,41.14,240.00,6.00,0.00,30.30,M,10.00,M,CLR,M,M,M,M,M,M,M,M,M,M,M,M,M,M,75.20,KRTS 250745Z AUTO 24006KT 10SM CLR 24/10 A3030 RMK AO2,M
MEV,2024-07-25 07:45,-119.7500,38.9963,1441.42,62.60,53.60,72.38,130.00,6.00,0.00,30.29,M,10.00,M,FEW,M,M,M,5500.00,M,M,M,M,M,M,M,M,M,M,62.60,KMEV 250745Z AUTO 13006KT 10SM FEW055 17/12 A3029 RMK AO2,M
05U,2024-07-25 07:50,-116.0051,39.6042,1811.23,64.40,55.40,72.56,320.00,3.00,0.00,30.44,M,10.00,M,CLR,M,M,M,M,M,M,M,M,M,M,M,M,M,M,64.40,K05U 250750Z AUTO 32003KT 10SM CLR 18/13 A3044 RMK A01,M
P68,2024-07-25 07:53,-116.0056,39.6014,1993.00,65.00,55.00,70.03,330.00,5.00,0.00,30.41,1020.20,M,M,M,M,M,M,M,M,M,M,M,M,M,M,M,M,M,65.00,KP68 250753Z AUTO 33005KT 18/13 A3041 RMK AO1 SLP202 T01830128 403390172,M
DRA,2024-07-25 07:53,-116.0278,36.6206,1009.00,88.00,53.00,30.30,30.00,8.00,0.00,30.13,1014.00,10.00,M,CLR,M,M,M,M,M,M,M,M,M,M,M,M,M,M,85.78,KDRA 250753Z AUTO 03008KT 10SM CLR 31/12 A3013 RMK AO2 SLP140 T03110117 404060239,M
ELY,2024-07-25 07:53,-114.8453,39.2950,1909.00,62.00,58.00,86.72,280.00,5.00,0.03,30.44,1019.20,10.00,M,SCT,BKN,OVC,M,5500.00,7000.00,10000.00,M,-RA,M,M,M,M,M,M,62.00,KELY 250753Z AUTO 28005KT 10SM -RA SCT055 BKN070 OVC100 17/14 A3044 RMK AO2 RAB01 SLP192 P0003 T01670144 403390139 $,M
VGT,2024-07-25 07:53,-115.1933,36.2111,667.00,99.00,54.00,22.35,310.00,16.00,0.00,29.99,1013.80,10.00,24.00,CLR,M,M,M,M,M,M,M,M,M,M,M,M,M,M,97.06,KVGT 250753Z AUTO 31016G24KT 10SM CLR 37/12 A2999 RMK AO2 SLP138 T03720122 404440317,M
LOL,2024-07-25 07:53,-118.5701,40.0684,1192.43,67.00,58.00,72.82,300.00,3.00,0.00,30.21,1018.00,10.00,M,CLR,M,M,M,M,M,M,M,M,M,M,M,M,M,M,67.00,KLOL 250753Z AUTO 30003KT 10SM CLR 19/14 A3021 RMK AO2 SLP180 T01940144 404000189 $,M
NFL,2024-07-25 07:54,-118.7010,39.4166,1199.00,71.00,61.00,70.66,160.00,8.00,0.00,30.21,1019.30,10.00,M,CLR,M,M,M,M,M,M,M,M,M,M,M,M,M,M,71.00,KNFL 250754Z AUTO 16008KT 10SM CLR 22/16 A3021 RMK AO2 SLP193 T02170161 403890200,M
LSV,2024-07-25 07:55,-115.0343,36.2362,570.00,99.00,52.00,20.77,300.00,15.00,0.00,29.95,1010.70,10.00,M,SCT,M,M,M,13000.00,M,M,M,M,M,M,M,M,M,M,96.47,KLSV 250755Z AUTO 30015KT 10SM SCT130 37/11 A2995 RMK AO2 SLP107 T03720112 404400299 $,M
BVU,2024-07-25 07:55,-114.8611,35.9475,671.00,98.60,50.00,19.52,M,5.00,0.00,29.98,M,10.00,M,CLR,M,M,M,M,M,M,M,M,M,M,M,M,M,M,95.56,KBVU 250755Z AUTO VRB05KT 10SM CLR 37/10 A2998 RMK AO2,M
CXP,2024-07-25 07:55,-119.7326,39.1923,1431.00,71.60,51.80,49.64,0.00,0.00,0.00,30.29,M,10.00,M,CLR,M,M,M,M,M,M,M,M,M,M,M,M,M,M,71.60,KCXP 250755Z AUTO 00000KT 10SM CLR 22/11 A3029 RMK AO2,M
INS,2024-07-25 07:55,-115.6733,36.5872,955.00,89.60,51.00,26.76,0.00,0.00,0.00,30.12,1013.70,10.00,M,CLR,M,M,M,M,M,M,M,M,M,M,M,M,M,M,86.86,KINS 250755Z AUTO 00000KT 10SM CLR 32/11 A3012 RMK AO2 SLP137 T03200106 404110247 $,M
RNO,2024-07-25 07:55,-119.7711,39.4839,1341.00,78.00,54.00,43.44,190.00,4.00,0.00,30.25,1017.80,10.00,M,FEW,M,M,M,6000.00,M,M,M,M,M,M,M,M,M,M,78.00,KRNO 250755Z 19004KT 10SM FEW060 26/12 A3025 RMK AO2 SLP178 T02560122 403720222,M
HTH,2024-07-25 07:55,-118.6315,38.5448,1282.89,75.20,53.60,46.98,230.00,4.00,0.00,30.25,M,10.00,M,CLR,M,M,M,M,M,M,M,M,M,M,M,M,M,M,75.20,KHTH 250755Z AUTO 23004KT 10SM CLR 24/12 A3025 RMK A01,M
10U,2024-07-25 07:55,-116.1876,41.9532,1637.00,66.20,55.40,68.15,M,M,0.00,30.30,M,10.00,M,CLR,M,M,M,M,M,M,M,M,M,M,M,M,M,M,66.20,K10U 250755Z AUTO 10SM CLR 19/13 A3030 RMK AO2,M
BAM,2024-07-25 07:55,-116.8743,40.5990,1382.36,66.20,64.40,93.92,70.00,5.00,0.00,30.30,M,5.00,M,CLR,M,M,M,M,M,M,M,M,M,M,M,M,M,M,66.20,KBAM 250755Z AUTO 07005KT 5SM CLR 19/18 A3030 RMK AO1,M
TMT,2024-07-25 07:55,-117.1971,39.4643,1749.34,58.50,57.40,96.12,0.00,0.00,0.00,30.40,M,10.00,M,CLR,M,M,M,M,M,M,M,M,M,M,M,M,M,M,58.50,KTMT 250755Z AUTO 00000KT 10SM CLR 15/14 A3040 RMK AO2 T01470141 403290132,M
EKO,2024-07-25 07:56,-115.7860,40.8242,1367.00,65.00,61.00,86.88,100.00,10.00,0.03,30.35,1021.50,10.00,M,BKN,OVC,M,M,10000.00,11000.00,M,M,-RA,M,M,M,M,M,M,65.00,KEKO 250756Z AUTO 10010KT 10SM -RA BKN100 OVC110 18/16 A3035 RMK AO2 PRESFR SLP215 P0003 T01830161 403720178,M
WMC,2024-07-25 07:56,-117.8072,40.9019,1315.00,71.00,57.00,61.24,180.00,12.00,0.00,30.23,1017.50,10.00,M,CLR,M,M,M,M,M,M,M,M,M,M,M,M,M,M,71.00,KWMC 250756Z AUTO 18012KT 10SM CLR 22/14 A3023 RMK AO2 SLP175 T02170139 404000211,M
HND,2024-07-25 07:56,-115.1344,35.9729,742.79,99.00,53.00,21.54,250.00,8.00,0.00,30.06,1015.30,10.00,M,CLR,M,M,M,M,M,M,M,M,M,M,M,M,M,M,96.76,KHND 250756Z AUTO 25008KT 10SM CLR 37/12 A3006 RMK AO2 SLP153 T03720117,M
TPH,2024-07-25 07:56,-117.0904,38.0505,1654.00,70.00,55.00,58.94,360.00,10.00,0.00,30.34,1018.40,10.00,M,CLR,M,M,M,M,M,M,M,M,M,M,M,M,M,M,70.00,KTPH 250756Z AUTO 36010KT 10SM CLR 21/13 A3034 RMK AO2 SLP184 T02110128 403500200,M
LAS,2024-07-25 07:56,-115.1634,36.0719,663.00,102.00,53.00,19.68,320.00,7.00,0.00,30.00,1008.70,10.00,M,BKN,M,M,M,14000.00,M,M,M,M,M,M,M,M,M,M,99.96,KLAS 250756Z 32007KT 10SM BKN140 39/12 A3000 RMK AO2 SLP087 T03890117 404440322 $,M
05U,2024-07-25 08:10,-116.0051,39.6042,1811.23,64.40,55.40,72.56,320.00,3.00,0.00,30.44,M,10.00,M,CLR,M,M,M,M,M,M,M,M,M,M,M,M,M,M,64.40,K05U 250810Z AUTO 32003KT 10SM CLR 18/13 A3044 RMK A01,M
BVU,2024-07-25 08:15,-114.8611,35.9475,671.00,100.40,48.20,17.28,280.00,14.00,0.00,29.99,M,10.00,M,CLR,M,M,M,M,M,M,M,M,M,M,M,M,M,M,97.00,KBVU 250815Z AUTO 28014KT 10SM CLR 38/09 A2999 RMK AO2,M
CXP,2024-07-25 08:15,-119.7326,39.1923,1431.00,69.80,51.80,52.77,0.00,0.00,0.00,30.29,M,10.00,M,CLR,M,M,M,M,M,M,M,M,M,M,M,M,M,M,69.80,KCXP 250815Z AUTO 00000KT 10SM CLR 21/11 A3029 RMK AO2,M
BAM,2024-07-25 08:15,-116.8743,40.5990,1382.36,66.20,64.40,93.92,100.00,4.00,0.00,30.30,M,4.00,M,CLR,M,M,M,M,M,M,M,M,M,M,M,M,M,M,66.20,KBAM 250815Z AUTO 10004KT 4SM CLR 19/18 A3030 RMK AO1,M
HTH,2024-07-25 08:15,-118.6315,38.5448,1282.89,75.20,53.60,46.98,220.00,4.00,0.00,30.25,M,10.00,M,CLR,M,M,M,M,M,M,M,M,M,M,M,M,M,M,75.20,KHTH 250815Z AUTO 22004KT 10SM CLR 24/12 A3025 RMK A01,M
10U,2024-07-25 08:15,-116.1876,41.9532,1637.00,66.20,55.40,68.15,M,M,0.00,30.30,M,10.00,M,SCT,BKN,M,M,6000.00,10000.00,M,M,M,M,M,M,M,M,M,66.20,K10U 250815Z AUTO 10SM SCT060 BKN100 19/13 A3030 RMK AO2,M
TMT,2024-07-25 08:15,-117.1971,39.4643,1749.34,55.60,55.20,98.56,0.00,0.00,0.00,30.40,M,10.00,M,CLR,M,M,M,M,M,M,M,M,M,M,M,M,M,M,55.60,KTMT 250815Z AUTO 00000KT 10SM CLR 13/13 A3040 RMK AO2 T01310129,M
BVU,2024-07-25 08:35,-114.8611,35.9475,671.00,96.80,53.60,23.55,350.00,11.00,0.00,30.00,M,10.00,17.00,CLR,M,M,M,M,M,M,M,M,M,M,M,M,M,M,94.59,KBVU 250835Z AUTO 35011G17KT 10SM CLR 36/12 A3000 RMK AO2,M
CXP,2024-07-25 08:35,-119.7326,39.1923,1431.00,69.80,53.60,56.38,0.00,0.00,0.00,30.29,M,10.00,M,CLR,M,M,M,M,M,M,M,M,M,M,M,M,M,M,69.80,KCXP 250835Z AUTO 00000KT 10SM CLR 21/12 A3029 RMK AO2,M
05U,2024-07-25 08:35,-116.0051,39.6042,1811.23,62.60,55.40,77.29,340.00,4.00,0.00,30.43,M,10.00,M,CLR,M,M,M,M,M,M,M,M,M,M,M,M,M,M,62.60,K05U 250835Z AUTO 34004KT 10SM CLR 17/13 A3043 RMK A01,M
HTH,2024-07-25 08:35,-118.6315,38.5448,1282.89,75.20,53.60,46.98,240.00,4.00,0.00,30.25,M,10.00,M,CLR,M,M,M,M,M,M,M,M,M,M,M,M,M,M,75.20,KHTH 250835Z AUTO 24004KT 10SM CLR 24/12 A3025 RMK A01,M
10U,2024-07-25 08:35,-116.1876,41.9532,1637.00,66.20,55.40,68.15,M,M,0.00,30.29,M,10.00,M,FEW,SCT,M,M,6000.00,10000.00,M,M,M,M,M,M,M,M,M,66.20,K10U 250835Z AUTO 10SM FEW060 SCT100 19/13 A3029 RMK AO2,M
BAM,2024-07-25 08:35,-116.8743,40.5990,1382.36,66.20,62.60,88.18,70.00,8.00,0.00,30.29,M,4.00,M,CLR,M,M,M,M,M,M,M,M,M,M,M,M,M,M,66.20,KBAM 250835Z AUTO 07008KT 4SM CLR 19/17 A3029 RMK AO1,M
TMT,2024-07-25 08:35,-117.1971,39.4643,1749.34,54.70,54.30,98.55,0.00,0.00,0.00,30.39,M,7.00,M,CLR,M,M,M,M,M,M,M,M,M,M,M,M,M,M,54.70,KTMT 250835Z AUTO 00000KT 7SM CLR 13/12 A3039 RMK AO2 T01260124,M
P68,2024-07-25 08:53,-116.0056,39.6014,1993.00,62.00,55.00,77.81,360.00,4.00,0.00,30.40,1020.30,M,M,M,M,M,M,M,M,M,M,M,M,M,M,M,M,M,62.00,KP68 250853Z AUTO 36004KT 17/13 A3040 RMK AO1 SLP203 T01670128 58002,M
DRA,2024-07-25 08:53,-116.0278,36.6206,1009.00,86.00,55.00,34.74,50.00,11.00,0.00,30.13,1014.10,10.00,M,CLR,M,M,M,M,M,M,M,M,M,M,M,M,M,M,84.46,KDRA 250853Z AUTO 05011KT 10SM CLR 30/13 A3013 RMK AO2 SLP141 T03000128 51008,M
ELY,2024-07-25 08:53,-114.8453,39.2950,1909.00,61.00,58.00,89.84,300.00,5.00,T,30.42,1019.20,10.00,M,OVC,M,M,M,12000.00,M,M,M,M,M,M,M,M,M,M,61.00,KELY 250853Z AUTO 30005KT 10SM OVC120 16/14 A3042 RMK AO2 RAE02 SLP192 P0000 60004 T01610144 58004 $,M
VGT,2024-07-25 08:53,-115.1933,36.2111,667.00,97.00,55.00,24.63,350.00,7.00,0.00,30.02,1014.70,10.00,M,CLR,M,M,M,M,M,M,M,M,M,M,M,M,M,M,95.23,KVGT 250853Z AUTO 35007KT 10SM CLR 36/13 A3002 RMK AO2 SLP147 T03610128 53018,M
LOL,2024-07-25 08:53,-118.5701,40.0684,1192.43,66.00,57.00,72.72,140.00,3.00,0.00,30.20,1017.90,10.00,M,CLR,M,M,M,M,M,M,M,M,M,M,M,M,M,M,66.00,KLOL 250853Z AUTO 14003KT 10SM CLR 19/14 A3020 RMK AO2 SLP179 T01890139 56003 $,M
INS,2024-07-25 08:55,-115.6733,36.5872,955.00,87.30,51.00,28.78,0.00,0.00,0.00,30.12,1013.70,10.00,M,CLR,M,M,M,M,M,M,M,M,M,M,M,M,M,M,84.83,KINS 250855Z AUTO 00000KT 10SM CLR 31/11 A3012 RMK AO2 SLP137 T03070106 51008 $,M
BVU,2024-07-25 08:55,-114.8611,35.9475,671.00,96.80,53.60,23.55,20.00,7.00,0.00,30.01,M,10.00,14.00,CLR,M,M,M,M,M,M,M,M,M,M,M,M,M,M,94.59,KBVU 250855Z AUTO 02007G14KT 10SM CLR 36/12 A3001 RMK AO2,M
CXP,2024-07-25 08:55,-119.7326,39.1923,1431.00,69.80,51.80,52.77,320.00,4.00,0.00,30.29,M,10.00,M,CLR,M,M,M,M,M,M,M,M,M,M,M,M,M,M,69.80,KCXP 250855Z AUTO 32004KT 10SM CLR 21/11 A3029 RMK AO2,M
RNO,2024-07-25 08:55,-119.7711,39.4839,1341.00,76.00,55.00,48.14,0.00,0.00,0.00,30.24,1017.90,10.00,M,FEW,M,M,M,6000.00,M,M,M,M,M,M,M,M,M,M,76.00,KRNO 250855Z 00000KT 10SM FEW060 24/13 A3024 RMK AO2 SLP179 T02440128 58004,M
LSV,2024-07-25 08:55,-115.0343,36.2362,570.00,98.00,52.50,21.81,80.00,5.00,0.00,29.97,1011.40,10.00,M,CLR,M,M,M,M,M,M,M,M,M,M,M,M,M,M,95.56,KLSV 250855Z AUTO 08005KT 10SM CLR 37/11 A2997 RMK AO2 SLP114 T03660114 52019 $,M
05U,2024-07-25 08:55,-116.0051,39.6042,1811.23,60.80,55.40,82.37,0.00,0.00,0.00,30.43,M,10.00,M,CLR,M,M,M,M,M,M,M,M,M,M,M,M,M,M,60.80,K05U 250855Z AUTO 00000KT 10SM CLR 16/13 A3043 RMK A01,M
BAM,2024-07-25 08:55,-116.8743,40.5990,1382.36,64.40,62.60,93.88,100.00,5.00,0.00,30.29,M,7.00,M,CLR,M,M,M,M,M,M,M,M,M,M,M,M,M,M,64.40,KBAM 250855Z AUTO 10005KT 7SM CLR 18/17 A3029 RMK AO1,M
HTH,2024-07-25 08:55,-118.6315,38.5448,1282.89,75.20,51.80,43.97,190.00,4.00,0.00,30.25,M,10.00,M,CLR,M,M,M,M,M,M,M,M,M,M,M,M,M,M,75.20,KHTH 250855Z AUTO 19004KT 10SM CLR 24/11 A3025 RMK A01,M
10U,2024-07-25 08:55,-116.1876,41.9532,1637.00,66.20,55.40,68.15,M,M,0.00,30.29,M,10.00,M,CLR,M,M,M,M,M,M,M,M,M,M,M,M,M,M,66.20,K10U 250855Z AUTO 10SM CLR 19/13 A3029 RMK AO2,M
TMT,2024-07-25 08:55,-117.1971,39.4643,1749.34,53.00,52.50,98.18,0.00,0.00,0.00,30.39,M,7.00,M,CLR,M,M,M,M,M,M,M,M,M,M,M,M,M,M,53.00,KTMT 250855Z AUTO 00000KT 7SM CLR 12/11 A3039 RMK AO2 T01170114,M
EKO,2024-07-25 08:56,-115.7860,40.8242,1367.00,66.00,62.00,86.93,340.00,4.00,T,30.31,1019.70,10.00,M,CLR,M,M,M,M,M,M,M,M,M,M,M,M,M,M,66.00,KEKO 250856Z AUTO 34004KT 10SM CLR 19/17 A3031 RMK AO2 RAE08 SLP197 P0000 60013 T01890167 58030,M
WMC,2024-07-25 08:56,-117.8072,40.9019,1315.00,69.00,58.00,67.97,10.00,5.00,0.00,30.23,1017.60,10.00,M,CLR,M,M,M,M,M,M,M,M,M,M,M,M,M,M,69.00,KWMC 250856Z AUTO 01005KT 10SM CLR 21/14 A3023 RMK AO2 SLP176 T02060144 56008,M
HND,2024-07-25 08:56,-115.1344,35.9729,742.79,95.00,55.00,26.19,40.00,11.00,0.00,30.07,1015.80,10.00,M,CLR,M,M,M,M,M,M,M,M,M,M,M,M,M,M,93.10,KHND 250856Z AUTO 04011KT 10SM CLR 35/13 A3007 RMK AO2 SLP158 T03500128 53013,M
TPH,2024-07-25 08:56,-117.0904,38.0505,1654.00,69.00,55.00,60.99,350.00,8.00,0.00,30.34,1018.20,10.00,M,CLR,M,M,M,M,M,M,M,M,M,M,M,M,M,M,69.00,KTPH 250856Z AUTO 35008KT 10SM CLR 21/13 A3034 RMK AO2 SLP182 T02060128 56008,M
LAS,2024-07-25 08:56,-115.1634,36.0719,663.00,99.00,53.00,21.54,20.00,8.00,0.00,30.00,1008.70,10.00,M,SCT,M,M,M,14000.00,M,M,M,M,M,M,M,M,M,M,96.76,KLAS 250856Z 02008KT 10SM SCT140 37/12 A3000 RMK AO2 SLP087 T03720117 51009 $,M
BVU,2024-07-25 09:15,-114.8611,35.9475,671.00,95.00,53.60,24.89,330.00,9.00,0.00,30.01,M,10.00,M,CLR,M,M,M,M,M,M,M,M,M,M,M,M,M,M,92.71,KBVU 250915Z AUTO 33009KT 10SM CLR 35/12 A3001 RMK AO2,M
CXP,2024-07-25 09:15,-119.7326,39.1923,1431.00,69.80,53.60,56.38,0.00,0.00,0.00,30.29,M,10.00,M,CLR,M,M,M,M,M,M,M,M,M,M,M,M,M,M,69.80,KCXP 250915Z AUTO 00000KT 10SM CLR 21/12 A3029 RMK AO2,M
05U,2024-07-25 09:15,-116.0051,39.6042,1811.23,60.80,55.40,82.37,0.00,0.00,0.00,30.42,M,10.00,M,CLR,M,M,M,M,M,M,M,M,M,M,M,M,M,M,60.80,K05U 250915Z AUTO 00000KT 10SM CLR 16/13 A3042 RMK A01,M
HTH,2024-07-25 09:15,-118.6315,38.5448,1282.89,73.40,51.80,46.71,0.00,0.00,0.00,30.24,M,10.00,M,CLR,M,M,M,M,M,M,M,M,M,M,M,M,M,M,73.40,KHTH 250915Z AUTO 00000KT 10SM CLR 23/11 A3024 RMK A01,M
10U,2024-07-25 09:15,-116.1876,41.9532,1637.00,64.40,55.40,72.56,M,M,0.00,30.29,M,10.00,M,CLR,M,M,M,M,M,M,M,M,M,M,M,M,M,M,64.40,K10U 250915Z AUTO 10SM CLR 18/13 A3029 RMK AO2,M
BAM,2024-07-25 09:15,-116.8743,40.5990,1382.36,64.40,62.60,93.88,140.00,7.00,0.00,30.29,M,5.00,M,CLR,M,M,M,M,M,M,M,M,M,M,M,M,M,M,64.40,KBAM 250915Z AUTO 14007KT 5SM CLR 18/17 A3029 RMK AO1,M
TMT,2024-07-25 09:15,-117.1971,39.4643,1749.34,54.00,54.00,100.00,0.00,0.00,0.00,30.38,M,7.00,M,CLR,M,M,M,M,M,M,M,M,M,M,M,M,M,M,54.00,KTMT 250915Z AUTO 00000KT 7SM CLR 12/12 A3038 RMK AO2 T01230122,M
BVU,2024-07-25 09:35,-114.8611,35.9475,671.00,95.00,53.60,24.89,340.00,13.00,0.00,30.01,M,10.00,M,CLR,M,M,M,M,M,M,M,M,M,M,M,M,M,M,92.71,KBVU 250935Z AUTO 34013KT 10SM CLR 35/12 A3001 RMK AO2,M
CXP,2024-07-25 09:35,-119.7326,39.1923,1431.00,69.80,53.60,56.38,0.00,0.00,0.00,30.29,M,10.00,M,CLR,M,M,M,M,M,M,M,M,M,M,M,M,M,M,69.80,KCXP 250935Z AUTO 00000KT 10SM CLR 21/12 A3029 RMK AO2,M
05U,2024-07-25 09:35,-116.0051,39.6042,1811.23,60.80,55.40,82.37,0.00,0.00,0.00,30.42,M,10.00,M,CLR,M,M,M,M,M,M,M,M,M,M,M,M,M,M,60.80,K05U 250935Z AUTO 00000KT 10SM CLR 16/13 A3042 RMK A01,M
HTH,2024-07-25 09:35,-118.6315,38.5448,1282.89,73.40,51.80,46.71,0.00,0.00,0.00,30.24,M,10.00,M,CLR,M,M,M,M,M,M,M,M,M,M,M,M,M,M,73.40,KHTH 250935Z AUTO 00000KT 10SM CLR 23/11 A3024 RMK A01,M
10U,2024-07-25 09:35,-116.1876,41.9532,1637.00,64.40,55.40,72.56,M,M,0.00,30.28,M,10.00,M,CLR,M,M,M,M,M,M,M,M,M,M,M,M,M,M,64.40,K10U 250935Z AUTO 10SM CLR 18/13 A3028 RMK AO2,M
BAM,2024-07-25 09:35,-116.8743,40.5990,1382.36,64.40,62.60,93.88,150.00,6.00,0.00,30.29,M,4.00,M,CLR,M,M,M,M,M,M,M,M,M,M,M,M,M,M,64.40,KBAM 250935Z AUTO 15006KT 4SM CLR 18/17 A3029 RMK AO1,M
TMT,2024-07-25 09:35,-117.1971,39.4643,1749.34,56.00,55.60,98.56,0.00,0.00,0.00,30.38,M,10.00,M,CLR,M,M,M,M,M,M,M,M,M,M,M,M,M,M,56.00,KTMT 250935Z AUTO 00000KT 10SM CLR 13/13 A3038 RMK AO2 T01340131,M
HTH,2024-07-25 09:50,-118.6315,38.5448,1282.89,71.60,51.80,49.64,130.00,6.00,0.00,30.24,M,10.00,M,CLR,M,M,M,M,M,M,M,M,M,M,M,M,M,M,71.60,KHTH 250950Z AUTO 13006KT 10SM CLR 22/11 A3024 RMK A01,M
P68,2024-07-25 09:53,-116.0056,39.6014,1993.00,61.00,56.00,83.59,0.00,0.00,0.00,30.39,1020.50,M,M,M,M,M,M,M,M,M,M,M,M,M,M,M,M,M,61.00,KP68 250953Z AUTO 00000KT 16/13 A3039 RMK AO1 SLP205 T01610133,M
DRA,2024-07-25 09:53,-116.0278,36.6206,1009.00,85.00,56.00,37.20,40.00,13.00,0.00,30.13,1014.00,10.00,M,CLR,M,M,M,M,M,M,M,M,M,M,M,M,M,M,83.85,KDRA 250953Z AUTO 04013KT 10SM CLR 29/13 A3013 RMK AO2 SLP140 T02940133,M
ELY,2024-07-25 09:53,-114.8453,39.2950,1909.00,59.00,57.00,93.07,130.00,3.00,0.00,30.40,1020.50,10.00,M,CLR,M,M,M,M,M,M,M,M,M,M,M,M,M,M,59.00,KELY 250953Z AUTO 13003KT 10SM CLR 15/14 A3040 RMK AO2 SLP205 T01500139 $,M
VGT,2024-07-25 09:53,-115.1933,36.2111,667.00,96.00,55.00,25.40,360.00,5.00,0.00,30.02,1014.70,10.00,M,CLR,M,M,M,M,M,M,M,M,M,M,M,M,M,M,94.16,KVGT 250953Z AUTO 36005KT 10SM CLR 36/13 A3002 RMK AO2 SLP147 T03560128,M
LOL,2024-07-25 09:53,-118.5701,40.0684,1192.43,64.00,56.00,75.20,300.00,5.00,0.00,30.20,1017.80,10.00,M,CLR,M,M,M,M,M,M,M,M,M,M,M,M,M,M,64.00,KLOL 250953Z AUTO 30005KT 10SM CLR 18/13 A3020 RMK AO2 SLP178 T01780133 $,M
BAM,2024-07-25 09:55,-116.8743,40.5990,1382.36,64.40,62.60,93.88,0.00,0.00,0.00,30.29,M,4.00,M,CLR,M,M,M,M,M,M,M,M,M,M,M,M,M,M,64.40,KBAM 250955Z AUTO 00000KT 4SM CLR 18/17 A3029 RMK AO1,M
TMT,2024-07-25 09:55,-117.1971,39.4643,1749.34,51.60,51.00,97.81,0.00,0.00,0.00,30.38,M,5.00,M,SCT,M,M,M,200.00,M,M,M,BR,M,M,M,M,M,M,51.60,KTMT 250955Z AUTO 00000KT 5SM BR SCT002 11/11 A3038 RMK AO2 T01090105,M
LSV,2024-07-25 09:55,-115.0343,36.2362,570.00,94.50,56.30,27.89,70.00,9.00,0.00,29.97,1011.40,10.00,M,CLR,M,M,M,M,M,M,M,M,M,M,M,M,M,M,92.98,KLSV 250955Z AUTO 07009KT 10SM CLR 35/14 A2997 RMK AO2 SLP114 T03470135 $,M
BVU,2024-07-25 09:55,-114.8611,35.9475,671.00,93.20,55.40,28.10,340.00,11.00,0.00,30.01,M,10.00,M,FEW,M,M,M,5500.00,M,M,M,M,M,M,M,M,M,M,91.35,KBVU 250955Z AUTO 34011KT 10SM FEW055 34/13 A3001 RMK AO2,M
CXP,2024-07-25 09:55,-119.7326,39.1923,1431.00,68.00,53.60,59.97,300.00,3.00,0.00,30.29,M,10.00,M,CLR,M,M,M,M,M,M,M,M,M,M,M,M,M,M,68.00,KCXP 250955Z AUTO 30003KT 10SM CLR 20/12 A3029 RMK AO2,M
INS,2024-07-25 09:55,-115.6733,36.5872,955.00,85.50,51.30,30.82,0.00,0.00,0.00,30.11,1013.30,10.00,M,CLR,M,M,M,M,M,M,M,M,M,M,M,M,M,M,83.40,KINS 250955Z AUTO 00000KT 10SM CLR 30/11 A3011 RMK AO2 SLP133 T02970107 $,M
RNO,2024-07-25 09:55,-119.7711,39.4839,1341.00,73.00,56.00,55.20,0.00,0.00,0.00,30.24,1017.70,10.00,M,FEW,M,M,M,6000.00,M,M,M,M,M,M,M,M,M,M,73.00,KRNO 250955Z 00000KT 10SM FEW060 23/13 A3024 RMK AO2 SLP177 T02280133,M
05U,2024-07-25 09:55,-116.0051,39.6042,1811.23,60.80,55.40,82.37,0.00,0.00,0.00,30.42,M,10.00,M,CLR,M,M,M,M,M,M,M,M,M,M,M,M,M,M,60.80,K05U 250955Z AUTO 00000KT 10SM CLR 16/13 A3042 RMK A01,M
10U,2024-07-25 09:55,-116.1876,41.9532,1637.00,64.40,55.40,72.56,M,M,0.00,30.28,M,10.00,M,CLR,M,M,M,M,M,M,M,M,M,M,M,M,M,M,64.40,K10U 250955Z AUTO 10SM CLR 18/13 A3028 RMK AO2,M
EKO,2024-07-25 09:56,-115.7860,40.8242,1367.00,63.00,61.00,93.18,180.00,4.00,0.00,30.31,1019.80,10.00,M,CLR,M,M,M,M,M,M,M,M,M,M,M,M,M,M,63.00,KEKO 250956Z AUTO 18004KT 10SM CLR 17/16 A3031 RMK AO2 SLP198 T01720161,M
WMC,2024-07-25 09:56,-117.8072,40.9019,1315.00,65.00,58.00,78.06,150.00,9.00,0.00,30.22,1017.40,10.00,M,CLR,M,M,M,M,M,M,M,M,M,M,M,M,M,M,65.00,KWMC 250956Z AUTO 15009KT 10SM CLR 18/14 A3022 RMK AO2 SLP174 T01830144,M
HND,2024-07-25 09:56,-115.1344,35.9729,742.79,93.00,56.00,28.90,50.00,5.00,0.00,30.08,1016.20,10.00,M,CLR,M,M,M,M,M,M,M,M,M,M,M,M,M,M,91.32,KHND 250956Z AUTO 05005KT 10SM CLR 34/13 A3008 RMK AO2 SLP162 T03390133,M
TPH,2024-07-25 09:56,-117.0904,38.0505,1654.00,67.00,55.00,65.33,340.00,10.00,0.00,30.34,1018.40,10.00,M,FEW,M,M,M,12000.00,M,M,M,M,M,M,M,M,M,M,67.00,KTPH 250956Z AUTO 34010KT 10SM FEW120 19/13 A3034 RMK AO2 SLP184 T01940128,M
LAS,2024-07-25 09:56,-115.1634,36.0719,663.00,97.00,55.00,24.63,40.00,8.00,0.00,30.03,1009.80,10.00,M,FEW,SCT,M,M,11000.00,14000.00,M,M,M,M,M,M,M,M,M,95.23,KLAS 250956Z 04008KT 10SM FEW110 SCT140 36/13 A3003 RMK AO2 SLP098 T03610128 $,M
BVU,2024-07-25 10:15,-114.8611,35.9475,671.00,93.20,55.40,28.10,340.00,10.00,0.00,30.01,M,10.00,16.00,SCT,M,M,M,5000.00,M,M,M,M,M,M,M,M,M,M,91.35,KBVU 251015Z AUTO 34010G16KT 10SM SCT050 34/13 A3001 RMK AO2,M
CXP,2024-07-25 10:15,-119.7326,39.1923,1431.00,68.00,53.60,59.97,310.00,4.00,0.00,30.29,M,10.00,M,CLR,M,M,M,M,M,M,M,M,M,M,M,M,M,M,68.00,KCXP 251015Z AUTO 31004KT 10SM CLR 20/12 A3029 RMK AO2,M
05U,2024-07-25 10:15,-116.0051,39.6042,1811.23,59.00,53.60,82.25,0.00,0.00,0.00,30.41,M,10.00,M,CLR,M,M,M,M,M,M,M,M,M,M,M,M,M,M,59.00,K05U 251015Z AUTO 00000KT 10SM CLR 15/12 A3041 RMK A01,M
BAM,2024-07-25 10:15,-116.8743,40.5990,1382.36,62.60,62.60,100.00,110.00,3.00,0.00,30.28,M,4.00,M,CLR,M,M,M,M,M,M,M,M,M,M,M,M,M,M,62.60,KBAM 251015Z AUTO 11003KT 4SM CLR 17/17 A3028 RMK AO1,M
HTH,2024-07-25 10:15,-118.6315,38.5448,1282.89,71.60,51.80,49.64,180.00,5.00,0.00,30.24,M,10.00,M,CLR,M,M,M,M,M,M,M,M,M,M,M,M,M,M,71.60,KHTH 251015Z AUTO 18005KT 10SM CLR 22/11 A3024 RMK A01,M
10U,2024-07-25 10:15,-116.1876,41.9532,1637.00,62.60,55.40,77.29,M,M,0.00,30.29,M,10.00,M,CLR,M,M,M,M,M,M,M,M,M,M,M,M,M,M,62.60,K10U 251015Z AUTO 10SM CLR 17/13 A3029 RMK AO2,M
TMT,2024-07-25 10:15,-117.1971,39.4643,1749.34,51.80,51.80,100.00,0.00,0.00,0.00,30.38,M,0.50,M,OVC,M,M,M,200.00,M,M,M,FG,M,M,M,M,M,M,51.80,KTMT 251015Z AUTO 00000KT 1/2SM FG OVC002 11/11 A3038 RMK AO2 T01100110,M
RTS,2024-07-25 10:20,-119.8764,39.6682,1539.00,69.80,50.00,49.37,260.00,4.00,0.00,30.29,M,10.00,M,CLR,M,M,M,M,M,M,M,M,M,M,M,M,M,M,69.80,KRTS 251020Z AUTO 26004KT 10SM CLR 21/10 A3029 RMK AO2,M
BVU,2024-07-25 10:35,-114.8611,35.9475,671.00,93.20,55.40,28.10,330.00,5.00,0.00,30.01,M,10.00,10.00,FEW,M,M,M,5000.00,M,M,M,M,M,M,M,M,M,M,91.35,KBVU 251035Z AUTO 33005G10KT 10SM FEW050 34/13 A3001 RMK AO2,M
CXP,2024-07-25 10:35,-119.7326,39.1923,1431.00,68.00,53.60,59.97,0.00,0.00,0.00,30.29,M,10.00,M,CLR,M,M,M,M,M,M,M,M,M,M,M,M,M,M,68.00,KCXP 251035Z AUTO 00000KT 10SM CLR 20/12 A3029 RMK AO2,M
BAM,2024-07-25 10:35,-116.8743,40.5990,1382.36,62.60,62.60,100.00,90.00,4.00,0.00,30.28,M,4.00,M,CLR,M,M,M,M,M,M,M,M,M,M,M,M,M,M,62.60,KBAM 251035Z AUTO 09004KT 4SM CLR 17/17 A3028 RMK AO1,M
HTH,2024-07-25 10:35,-118.6315,38.5448,1282.89,69.80,50.00,49.37,M,M,0.00,30.24,M,10.00,M,CLR,M,M,M,M,M,M,M,M,M,M,M,M,M,M,69.80,KHTH 251035Z AUTO 6/70833307KT 10SM CLR 21/10 A3024 RMK A01,M
05U,2024-07-25 10:35,-116.0051,39.6042,1811.23,57.20,51.80,82.12,0.00,0.00,0.00,30.40,M,10.00,M,CLR,M,M,M,M,M,M,M,M,M,M,M,M,M,M,57.20,K05U 251035Z AUTO 00000KT 10SM CLR 14/11 A3040 RMK A01,M
10U,2024-07-25 10:35,-116.1876,41.9532,1637.00,60.80,53.60,77.14,M,M,0.00,30.28,M,10.00,M,CLR,M,M,M,M,M,M,M,M,M,M,M,M,M,M,60.80,K10U 251035Z AUTO 10SM CLR 16/12 A3028 RMK AO2,M
TMT,2024-07-25 10:35,-117.1971,39.4643,1749.34,50.00,50.00,100.00,0.00,0.00,0.00,30.37,M,0.25,M,BKN,M,M,M,200.00,M,M,M,FG,M,M,M,M,M,M,50.00,KTMT 251035Z AUTO 00000KT 1/4SM FG BKN002 10/10 A3037 RMK AO2 T01000100,M
05U,2024-07-25 10:50,-116.0051,39.6042,1811.23,57.20,51.80,82.12,0.00,0.00,0.00,30.40,M,10.00,M,CLR,M,M,M,M,M,M,M,M,M,M,M,M,M,M,57.20,K05U 251050Z AUTO 00000KT 10SM CLR 14/11 A3040 RMK A01,M
P68,2024-07-25 10:53,-116.0056,39.6014,1993.00,57.00,52.00,83.33,180.00,3.00,0.00,30.38,1020.00,M,M,M,M,M,M,M,M,M,M,M,M,M,M,M,M,M,57.00,KP68 251053Z AUTO 18003KT 14/11 A3038 RMK AO1 SLP200 T01390111,M
DRA,2024-07-25 10:53,-116.0278,36.6206,1009.00,82.00,58.00,44.05,40.00,13.00,0.00,30.13,1014.20,10.00,21.00,CLR,M,M,M,M,M,M,M,M,M,M,M,M,M,M,81.94,KDRA 251053Z AUTO 04013G21KT 10SM CLR 28/14 A3013 RMK AO2 SLP142 T02780144,M
ELY,2024-07-25 10:53,-114.8453,39.2950,1909.00,57.00,55.00,93.01,180.00,7.00,0.00,30.40,1020.60,10.00,M,CLR,M,M,M,M,M,M,M,M,M,M,M,M,M,M,57.00,KELY 251053Z AUTO 18007KT 10SM CLR 14/13 A3040 RMK AO2 SLP206 T01390128 $,M
VGT,2024-07-25 10:53,-115.1933,36.2111,667.00,94.00,56.00,28.01,340.00,5.00,0.00,30.03,1015.00,10.00,M,CLR,M,M,M,M,M,M,M,M,M,M,M,M,M,M,92.36,KVGT 251053Z AUTO 34005KT 10SM CLR 34/13 A3003 RMK AO2 SLP150 T03440133,M
LOL,2024-07-25 10:53,-118.5701,40.0684,1192.43,62.00,56.00,80.68,0.00,0.00,0.00,30.19,1017.70,10.00,M,CLR,M,M,M,M,M,M,M,M,M,M,M,M,M,M,62.00,KLOL 251053Z AUTO 00000KT 10SM CLR 17/13 A3019 RMK AO2 SLP177 T01670133 $,M
NFL,2024-07-25 10:54,-118.7010,39.4166,1199.00,72.00,59.00,63.61,160.00,6.00,0.00,30.20,1018.90,9.00,M,CLR,M,M,M,M,M,M,M,M,M,M,M,M,M,M,72.00,KNFL 251054Z AUTO 16006KT 9SM CLR 22/15 A3020 RMK AO2 SLP189 T02220150,M
BVU,2024-07-25 10:55,-114.8611,35.9475,671.00,91.40,57.20,31.72,330.00,8.00,0.00,30.01,M,10.00,M,CLR,M,M,M,M,M,M,M,M,M,M,M,M,M,M,90.06,KBVU 251055Z AUTO 33008KT 10SM CLR 33/14 A3001 RMK AO2,M
CXP,2024-07-25 10:55,-119.7326,39.1923,1431.00,66.20,53.60,63.82,0.00,0.00,0.00,30.29,M,10.00,M,CLR,M,M,M,M,M,M,M,M,M,M,M,M,M,M,66.20,KCXP 251055Z AUTO 00000KT 10SM CLR 19/12 A3029 RMK AO2,M
BAM,2024-07-25 10:55,-116.8743,40.5990,1382.36,62.60,62.60,100.00,120.00,3.00,0.00,30.28,M,5.00,M,CLR,M,M,M,M,M,M,M,M,M,M,M,M,M,M,62.60,KBAM 251055Z AUTO 12003KT 5SM CLR 17/17 A3028 RMK AO1,M
HTH,2024-07-25 10:55,-118.6315,38.5448,1282.89,69.80,50.00,49.37,150.00,4.00,0.00,30.24,M,10.00,M,CLR,M,M,M,M,M,M,M,M,M,M,M,M,M,M,69.80,KHTH 251055Z AUTO 15004KT 10SM CLR 21/10 A3024 RMK A01,M
10U,2024-07-25 10:55,-116.1876,41.9532,1637.00,62.60,53.60,72.38,M,M,0.00,30.29,M,10.00,M,CLR,M,M,M,M,M,M,M,M,M,M,M,M,M,M,62.60,K10U 251055Z AUTO 10SM CLR 17/12 A3029 RMK AO2,M
RNO,2024-07-25 10:55,-119.7711,39.4839,1341.00,71.00,55.00,56.96,130.00,3.00,0.00,30.23,1017.30,10.00,M,FEW,M,M,M,6000.00,M,M,M,M,M,M,M,M,M,M,71.00,KRNO 251055Z 13003KT 10SM FEW060 22/13 A3023 RMK AO2 SLP173 T02170128,M
TMT,2024-07-25 10:55,-117.1971,39.4643,1749.34,49.30,49.30,100.00,220.00,5.00,0.00,30.38,M,0.25,M,OVC,M,M,M,200.00,M,M,M,FG,M,M,M,M,M,M,46.94,KTMT 251055Z AUTO 22005KT 1/4SM FG OVC002 10/10 A3038 RMK AO2 T00960096,M
INS,2024-07-25 10:55,-115.6733,36.5872,955.00,83.50,50.50,31.91,0.00,0.00,0.00,30.12,1013.70,10.00,M,CLR,M,M,M,M,M,M,M,M,M,M,M,M,M,M,81.79,KINS 251055Z AUTO 00000KT 10SM CLR 29/10 A3012 RMK AO2 SLP137 T02860103 $,M
LSV,2024-07-25 10:55,-115.0343,36.2362,570.00,93.40,58.00,30.68,30.00,10.00,0.00,29.98,1011.80,10.00,M,CLR,M,M,M,M,M,M,M,M,M,M,M,M,M,M,92.40,KLSV 251055Z AUTO 03010KT 10SM CLR 34/15 A2998 RMK AO2 SLP118 T03410145 $,M
EKO,2024-07-25 10:56,-115.7860,40.8242,1367.00,62.00,60.00,93.15,260.00,4.00,0.00,30.30,1019.40,10.00,M,CLR,M,M,M,M,M,M,M,M,M,M,M,M,M,M,62.00,KEKO 251056Z AUTO 26004KT 10SM CLR 17/16 A3030 RMK AO2 SLP194 T01670156,M
WMC,2024-07-25 10:56,-117.8072,40.9019,1315.00,64.00,59.00,83.78,140.00,7.00,0.00,30.22,1017.30,10.00,M,CLR,M,M,M,M,M,M,M,M,M,M,M,M,M,M,64.00,KWMC 251056Z AUTO 14007KT 10SM CLR 18/15 A3022 RMK AO2 SLP173 T01780150,M
HND,2024-07-25 10:56,-115.1344,35.9729,742.79,91.00,58.00,33.06,0.00,0.00,0.00,30.08,1016.40,10.00,M,CLR,M,M,M,M,M,M,M,M,M,M,M,M,M,M,89.92,KHND 251056Z AUTO 00000KT 10SM CLR 33/14 A3008 RMK AO2 SLP164 T03280144,M
TPH,2024-07-25 10:56,-117.0904,38.0505,1654.00,66.00,54.00,65.21,350.00,8.00,0.00,30.34,1018.40,10.00,M,FEW,M,M,M,12000.00,M,M,M,M,M,M,M,M,M,M,66.00,KTPH 251056Z AUTO 35008KT 10SM FEW120 19/12 A3034 RMK AO2 SLP184 T01890122,M
LAS,2024-07-25 10:56,-115.1634,36.0719,663.00,95.00,58.00,29.20,60.00,9.00,0.00,30.03,1009.80,10.00,M,FEW,M,M,M,14000.00,M,M,M,M,M,M,M,M,M,M,94.11,KLAS 251056Z 06009KT 10SM FEW140 35/14 A3003 RMK AO2 SLP098 T03500144 $,M
10U,2024-07-25 11:10,-116.1876,41.9532,1637.00,60.80,53.60,77.14,M,M,0.00,30.28,M,10.00,M,CLR,M,M,M,M,M,M,M,M,M,M,M,M,M,M,60.80,K10U 251110Z AUTO 10SM CLR 16/12 A3028 RMK AO2,M
BVU,2024-07-25 11:15,-114.8611,35.9475,671.00,91.40,57.20,31.72,330.00,10.00,0.00,30.01,M,10.00,M,CLR,M,M,M,M,M,M,M,M,M,M,M,M,M,M,90.06,KBVU 251115Z AUTO 33010KT 10SM CLR 33/14 A3001 RMK AO2,M
CXP,2024-07-25 11:15,-119.7326,39.1923,1431.00,64.40,53.60,67.95,0.00,0.00,0.00,30.28,M,10.00,M,CLR,M,M,M,M,M,M,M,M,M,M,M,M,M,M,64.40,KCXP 251115Z AUTO 00000KT 10SM CLR 18/12 A3028 RMK AO2,M
RTS,2024-07-25 11:15,-119.8764,39.6682,1539.00,71.60,50.00,46.43,220.00,4.00,0.00,30.29,M,10.00,M,CLR,M,M,M,M,M,M,M,M,M,M,M,M,M,M,71.60,KRTS 251115Z AUTO 22004KT 10SM CLR 22/10 A3029 RMK AO2,M
05U,2024-07-25 11:15,-116.0051,39.6042,1811.23,57.20,51.80,82.12,0.00,0.00,0.00,30.40,M,10.00,M,CLR,M,M,M,M,M,M,M,M,M,M,M,M,M,M,57.20,K05U 251115Z AUTO 00000KT 10SM CLR 14/11 A3040 RMK A01,M
MEV,2024-07-25 11:15,-119.7500,38.9963,1441.42,57.20,50.00,76.82,0.00,0.00,0.00,30.28,M,9.00,M,SCT,SCT,M,M,5500.00,7000.00,M,M,M,M,M,M,M,M,M,57.20,KMEV 251115Z AUTO 00000KT 9SM SCT055 SCT070 14/10 A3028 RMK AO2,M
BAM,2024-07-25 11:15,-116.8743,40.5990,1382.36,62.60,62.60,100.00,130.00,3.00,0.00,30.28,M,5.00,M,CLR,M,M,M,M,M,M,M,M,M,M,M,M,M,M,62.60,KBAM 251115Z AUTO 13003KT 5SM CLR 17/17 A3028 RMK AO1,M
HTH,2024-07-25 11:15,-118.6315,38.5448,1282.89,69.80,51.80,52.77,200.00,4.00,0.00,30.24,M,10.00,M,CLR,M,M,M,M,M,M,M,M,M,M,M,M,M,M,69.80,KHTH 251115Z AUTO 20004KT 10SM CLR 21/11 A3024 RMK A01,M
TMT,2024-07-25 11:15,-117.1971,39.4643,1749.34,50.70,50.70,100.00,0.00,0.00,0.00,30.38,M,0.50,M,OVC,M,M,M,200.00,M,M,M,FG,M,M,M,M,M,M,50.70,KTMT 251115Z AUTO 00000KT 1/2SM FG OVC002 10/10 A3038 RMK AO2 T01040104,M
05U,2024-07-25 11:30,-116.0051,39.6042,1811.23,55.40,50.00,81.99,0.00,0.00,0.00,30.40,M,10.00,M,CLR,M,M,M,M,M,M,M,M,M,M,M,M,M,M,55.40,K05U 251130Z AUTO 00000KT 10SM CLR 13/10 A3040 RMK A01,M
BVU,2024-07-25 11:35,-114.8611,35.9475,671.00,91.40,57.20,31.72,340.00,9.00,0.00,30.01,M,10.00,M,CLR,M,M,M,M,M,M,M,M,M,M,M,M,M,M,90.06,KBVU 251135Z AUTO 34009KT 10SM CLR 33/14 A3001 RMK AO2,M
CXP,2024-07-25 11:35,-119.7326,39.1923,1431.00,64.40,53.60,67.95,0.00,0.00,0.00,30.28,M,10.00,M,CLR,M,M,M,M,M,M,M,M,M,M,M,M,M,M,64.40,KCXP 251135Z AUTO 00000KT 10SM CLR 18/12 A3028 RMK AO2,M
RTS,2024-07-25 11:35,-119.8764,39.6682,1539.00,73.40,50.00,43.69,240.00,4.00,0.00,30.29,M,10.00,M,CLR,M,M,M,M,M,M,M,M,M,M,M,M,M,M,73.40,KRTS 251135Z AUTO 24004KT 10SM CLR 23/10 A3029 RMK AO2,M
MEV,2024-07-25 11:35,-119.7500,38.9963,1441.42,57.20,50.00,76.82,0.00,0.00,0.00,30.28,M,6.00,M,FEW,SCT,M,M,4800.00,6000.00,M,M,HZ,M,M,M,M,M,M,57.20,KMEV 251135Z AUTO 00000KT 6SM HZ FEW048 SCT060 14/10 A3028 RMK AO2,M
HTH,2024-07-25 11:35,-118.6315,38.5448,1282.89,69.80,51.80,52.77,180.00,4.00,0.00,30.24,M,10.00,M,CLR,M,M,M,M,M,M,M,M,M,M,M,M,M,M,69.80,KHTH 251135Z AUTO 18004KT 10SM CLR 21/11 A3024 RMK A01,M
BAM,2024-07-25 11:35,-116.8743,40.5990,1382.36,64.40,62.60,93.88,0.00,0.00,0.00,30.28,M,4.00,M,CLR,M,M,M,M,M,M,M,M,M,M,M,M,M,M,64.40,KBAM 251135Z AUTO 00000KT 4SM CLR 18/17 A3028 RMK AO1,M
TMT,2024-07-25 11:35,-117.1971,39.4643,1749.34,49.30,49.30,100.00,0.00,0.00,0.00,30.37,M,0.25,M,OVC,M,M,M,200.00,M,M,M,FG,M,M,M,M,M,M,49.30,KTMT 251135Z AUTO 00000KT M1/4SM FG OVC002 10/10 A3037 RMK AO2 T00960096,M
10U,2024-07-25 11:35,-116.1876,41.9532,1637.00,60.80,53.60,77.14,M,M,0.00,30.28,M,10.00,M,FEW,SCT,M,M,4700.00,5500.00,M,M,M,M,M,M,M,M,M,60.80,K10U 251135Z AUTO 10SM FEW047 SCT055 16/12 A3028 RMK AO2,M
05U,2024-07-25 11:50,-116.0051,39.6042,1811.23,53.60,50.00,87.56,0.00,0.00,0.00,30.40,M,10.00,M,CLR,M,M,M,M,M,M,M,M,M,M,M,M,M,M,53.60,K05U 251150Z AUTO 00000KT 10SM CLR 12/10 A3040 RMK A01,M
P68,2024-07-25 11:53,-116.0056,39.6014,1993.00,54.00,51.00,89.55,190.00,6.00,0.00,30.38,1020.70,M,M,M,M,M,M,M,M,M,M,M,M,M,M,M,M,M,54.00,KP68 251153Z AUTO 19006KT 12/11 A3038 RMK AO1 SLP207 T01220106 10239 20122 56006,M
DRA,2024-07-25 11:53,-116.0278,36.6206,1009.00,81.00,58.00,45.51,40.00,13.00,0.00,30.14,1014.50,10.00,M,CLR,M,M,M,M,M,M,M,M,M,M,M,M,M,M,81.22,KDRA 251153Z AUTO 04013KT 10SM CLR 27/14 A3014 RMK AO2 SLP145 T02720144 10322 20272 53002,M
ELY,2024-07-25 11:53,-114.8453,39.2950,1909.00,57.00,55.00,93.01,200.00,7.00,0.00,30.41,1020.60,10.00,M,CLR,M,M,M,M,M,M,M,M,M,M,M,M,M,M,57.00,KELY 251153Z AUTO 20007KT 10SM CLR 14/13 A3041 RMK AO2 SLP206 60004 70035 T01390128 10200 20133 55003 $,M
VGT,2024-07-25 11:53,-115.1933,36.2111,667.00,93.00,56.00,28.90,0.00,0.00,0.00,30.04,1015.30,10.00,M,CLR,M,M,M,M,M,M,M,M,M,M,M,M,M,M,91.32,KVGT 251153Z AUTO 00000KT 10SM CLR 34/13 A3004 RMK AO2 SLP153 T03390133 10400 20339 53006,M
LOL,2024-07-25 11:53,-118.5701,40.0684,1192.43,62.00,55.00,77.81,0.00,0.00,0.00,30.20,1017.90,10.00,M,CLR,M,M,M,M,M,M,M,M,M,M,M,M,M,M,62.00,KLOL 251153Z AUTO 00000KT 10SM CLR 17/13 A3020 RMK AO2 SLP179 70001 T01670128 10217 20156 55002 $,M
NFL,2024-07-25 11:54,-118.7010,39.4166,1199.00,70.00,59.00,68.09,160.00,10.00,0.00,30.20,1018.90,9.00,M,CLR,M,M,M,M,M,M,M,M,M,M,M,M,M,M,70.00,KNFL 251154Z AUTO 16010KT 9SM CLR 21/15 A3020 RMK AO2 SLP189 70015 T02110150 10233 20206 56001,M
RTS,2024-07-25 11:55,-119.8764,39.6682,1539.00,71.60,50.00,46.43,270.00,5.00,0.00,30.29,M,10.00,M,CLR,M,M,M,M,M,M,M,M,M,M,M,M,M,M,71.60,KRTS 251155Z AUTO 27005KT 10SM CLR 22/10 A3029 RMK AO2,M
BVU,2024-07-25 11:55,-114.8611,35.9475,671.00,91.40,57.20,31.72,350.00,11.00,0.00,30.01,M,10.00,M,CLR,M,M,M,M,M,M,M,M,M,M,M,M,M,M,90.06,KBVU 251155Z AUTO 35011KT 10SM CLR 33/14 A3001 RMK AO2,M
CXP,2024-07-25 11:55,-119.7326,39.1923,1431.00,66.20,53.60,63.82,0.00,0.00,0.00,30.29,M,10.00,M,CLR,M,M,M,M,M,M,M,M,M,M,M,M,M,M,66.20,KCXP 251155Z AUTO 00000KT 10SM CLR 19/12 A3029 RMK AO2,M
RNO,2024-07-25 11:55,-119.7711,39.4839,1341.00,71.00,55.00,56.96,0.00,0.00,0.00,30.24,1017.70,10.00,M,SCT,M,M,M,12000.00,M,M,M,M,M,M,M,M,M,M,71.00,KRNO 251155Z 00000KT 10SM SCT120 22/13 A3024 RMK AO2 SLP177 70046 T02170128 10278 20217 55000,M
LSV,2024-07-25 11:55,-115.0343,36.2362,570.00,90.70,58.50,33.97,80.00,6.00,0.00,29.98,1011.80,10.00,M,CLR,M,M,M,M,M,M,M,M,M,M,M,M,M,M,89.78,KLSV 251155Z AUTO 08006KT 10SM CLR 33/15 A2998 RMK AO2 SLP118 T03260147 10395 20325 53004 $,M
MEV,2024-07-25 11:55,-119.7500,38.9963,1441.42,57.20,51.80,82.12,0.00,0.00,0.00,30.28,M,6.00,M,FEW,BKN,BKN,M,4700.00,5500.00,6500.00,M,HZ,M,M,M,M,M,M,57.20,KMEV 251155Z AUTO 00000KT 6SM HZ FEW047 BKN055 BKN065 14/11 A3028 RMK AO2,M
BAM,2024-07-25 11:55,-116.8743,40.5990,1382.36,62.60,62.60,100.00,0.00,0.00,0.00,30.28,M,5.00,M,CLR,M,M,M,M,M,M,M,M,M,M,M,M,M,M,62.60,KBAM 251155Z AUTO 00000KT 5SM CLR 17/17 A3028 RMK AO1,M
HTH,2024-07-25 11:55,-118.6315,38.5448,1282.89,69.80,51.80,52.77,0.00,0.00,0.00,30.24,M,10.00,M,CLR,M,M,M,M,M,M,M,M,M,M,M,M,M,M,69.80,KHTH 251155Z AUTO 00000KT 10SM CLR 21/11 A3024 RMK A01,M
10U,2024-07-25 11:55,-116.1876,41.9532,1637.00,62.60,53.60,72.38,M,M,0.00,30.27,M,10.00,M,BKN,OVC,M,M,4400.00,6000.00,M,M,M,M,M,M,M,M,M,62.60,K10U 251155Z AUTO 10SM BKN044 OVC060 17/12 A3027 RMK AO2,M
TMT,2024-07-25 11:55,-117.1971,39.4643,1749.34,49.50,49.50,100.00,0.00,0.00,0.00,30.38,M,0.25,M,OVC,M,M,M,200.00,M,M,M,FG,M,M,M,M,M,M,49.50,KTMT 251155Z AUTO 00000KT M1/4SM FG OVC002 10/10 A3038 RMK AO2 T00970097 10157 20089,M
INS,2024-07-25 11:55,-115.6733,36.5872,955.00,81.50,52.70,36.93,0.00,0.00,0.00,30.12,1013.50,10.00,M,CLR,M,M,M,M,M,M,M,M,M,M,M,M,M,M,80.73,KINS 251155Z AUTO 00000KT 10SM CLR 28/12 A3012 RMK AO2 SLP135 T02750115 10332 20269 53001 $,M
TPH,2024-07-25 11:56,-117.0904,38.0505,1654.00,64.00,54.00,69.92,340.00,5.00,0.00,30.35,1019.10,10.00,M,CLR,M,M,M,M,M,M,M,M,M,M,M,M,M,M,64.00,KTPH 251156Z AUTO 34005KT 10SM CLR 18/12 A3035 RMK AO2 SLP191 T01780122 10228 20178 52003,M
LAS,2024-07-25 11:56,-115.1634,36.0719,663.00,93.00,59.00,32.19,50.00,4.00,0.00,30.04,1010.10,10.00,M,FEW,M,M,M,14000.00,M,M,M,M,M,M,M,M,M,M,92.35,KLAS 251156Z 05004KT 10SM FEW140 34/15 A3004 RMK AO2 SLP101 T03390150 10400 20339 51012 $,M
EKO,2024-07-25 11:56,-115.7860,40.8242,1367.00,62.00,59.00,89.89,0.00,0.00,0.00,30.30,1019.80,10.00,M,CLR,M,M,M,M,M,M,M,M,M,M,M,M,M,M,62.00,KEKO 251156Z AUTO 00000KT 10SM CLR 17/15 A3030 RMK AO2 SLP198 60013 70027 T01670150 10189 20161 55002,M
WMC,2024-07-25 11:56,-117.8072,40.9019,1315.00,65.00,59.00,80.90,140.00,9.00,0.00,30.21,1017.30,10.00,M,CLR,M,M,M,M,M,M,M,M,M,M,M,M,M,M,65.00,KWMC 251156Z AUTO 14009KT 10SM CLR 18/15 A3021 RMK AO2 SLP173 70023 T01830150 10228 20178 56006,M
HND,2024-07-25 11:56,-115.1344,35.9729,742.79,86.00,57.00,37.35,100.00,3.00,0.00,30.09,1016.80,10.00,M,CLR,M,M,M,M,M,M,M,M,M,M,M,M,M,M,84.92,KHND 251156Z AUTO 10003KT 10SM CLR 30/14 A3009 RMK AO2 SLP168 T03000139 10378 20300 51006,M
BVU,2024-07-25 12:15,-114.8611,35.9475,671.00,91.40,57.20,31.72,100.00,6.00,0.00,30.03,M,10.00,14.00,CLR,M,M,M,M,M,M,M,M,M,M,M,M,M,M,90.06,KBVU 251215Z AUTO 10006G14KT 10SM CLR 33/14 A3003 RMK AO2,M
CXP,2024-07-25 12:15,-119.7326,39.1923,1431.00,66.20,51.80,59.74,0.00,0.00,0.00,30.29,M,10.00,M,CLR,M,M,M,M,M,M,M,M,M,M,M,M,M,M,66.20,KCXP 251215Z AUTO 00000KT 10SM CLR 19/11 A3029 RMK AO2,M
RTS,2024-07-25 12:15,-119.8764,39.6682,1539.00,73.40,50.00,43.69,210.00,4.00,0.00,30.29,M,10.00,M,CLR,M,M,M,M,M,M,M,M,M,M,M,M,M,M,73.40,KRTS 251215Z AUTO 21004KT 10SM CLR 23/10 A3029 RMK AO2,M
05U,2024-07-25 12:15,-116.0051,39.6042,1811.23,53.60,50.00,87.56,0.00,0.00,0.00,30.40,M,10.00,M,CLR,M,M,M,M,M,M,M,M,M,M,M,M,M,M,53.60,K05U 251215Z AUTO 00000KT 10SM CLR 12/10 A3040 RMK A01,M
MEV,2024-07-25 12:15,-119.7500,38.9963,1441.42,55.40,51.80,87.65,0.00,0.00,0.00,30.28,M,7.00,M,BKN,BKN,M,M,5500.00,6500.00,M,M,M,M,M,M,M,M,M,55.40,KMEV 251215Z AUTO 00000KT 7SM BKN055 BKN065 13/11 A3028 RMK AO2,M
BAM,2024-07-25 12:15,-116.8743,40.5990,1382.36,62.60,60.80,93.83,0.00,0.00,0.00,30.28,M,5.00,M,CLR,M,M,M,M,M,M,M,M,M,M,M,M,M,M,62.60,KBAM 251215Z AUTO 00000KT 5SM CLR 17/16 A3028 RMK AO1,M
HTH,2024-07-25 12:15,-118.6315,38.5448,1282.89,71.60,53.60,53.03,0.00,0.00,0.00,30.25,M,10.00,M,CLR,M,M,M,M,M,M,M,M,M,M,M,M,M,M,71.60,KHTH 251215Z AUTO 00000KT 10SM CLR 22/12 A3025 RMK A01,M
10U,2024-07-25 12:15,-116.1876,41.9532,1637.00,60.80,53.60,77.14,M,M,0.00,30.27,M,10.00,M,OVC,M,M,M,4100.00,M,M,M,M,M,M,M,M,M,M,60.80,K10U 251215Z AUTO 10SM OVC041 16/12 A3027 RMK AO2,M
TMT,2024-07-25 12:15,-117.1971,39.4643,1749.34,50.70,50.70,100.00,0.00,0.00,0.00,30.38,M,3.00,M,BKN,M,M,M,200.00,M,M,M,BR,M,M,M,M,M,M,50.70,KTMT 251215Z AUTO 00000KT 3SM BR BKN002 10/10 A3038 RMK AO2 T01040104,M
05U,2024-07-25 12:30,-116.0051,39.6042,1811.23,53.60,50.00,87.56,0.00,0.00,0.00,30.41,M,10.00,M,CLR,M,M,M,M,M,M,M,M,M,M,M,M,M,M,53.60,K05U 251230Z AUTO 00000KT 10SM CLR 12/10 A3041 RMK A01,M
BVU,2024-07-25 12:35,-114.8611,35.9475,671.00,91.40,57.20,31.72,M,4.00,0.00,30.03,M,10.00,M,CLR,M,M,M,M,M,M,M,M,M,M,M,M,M,M,90.06,KBVU 251235Z AUTO VRB04KT 10SM CLR 33/14 A3003 RMK AO2,M
CXP,2024-07-25 12:35,-119.7326,39.1923,1431.00,64.40,51.80,63.60,0.00,0.00,0.00,30.29,M,10.00,M,CLR,M,M,M,M,M,M,M,M,M,M,M,M,M,M,64.40,KCXP 251235Z AUTO 00000KT 10SM CLR 18/11 A3029 RMK AO2,M
RTS,2024-07-25 12:35,-119.8764,39.6682,1539.00,68.00,50.00,52.51,0.00,0.00,0.00,30.29,M,10.00,M,CLR,M,M,M,M,M,M,M,M,M,M,M,M,M,M,68.00,KRTS 251235Z AUTO 00000KT 10SM CLR 20/10 A3029 RMK AO2,M
MEV,2024-07-25 12:35,-119.7500,38.9963,1441.42,55.40,51.80,87.65,0.00,0.00,0.00,30.28,M,10.00,M,SCT,M,M,M,6000.00,M,M,M,M,M,M,M,M,M,M,55.40,KMEV 251235Z AUTO 00000KT 10SM SCT060 13/11 A3028 RMK AO2,M
BAM,2024-07-25 12:35,-116.8743,40.5990,1382.36,62.60,60.80,93.83,110.00,3.00,0.00,30.28,M,5.00,M,CLR,M,M,M,M,M,M,M,M,M,M,M,M,M,M,62.60,KBAM 251235Z AUTO 11003KT 5SM CLR 17/16 A3028 RMK AO1,M
HTH,2024-07-25 12:35,-118.6315,38.5448,1282.89,71.60,53.60,53.03,0.00,0.00,0.00,30.25,M,10.00,M,CLR,M,M,M,M,M,M,M,M,M,M,M,M,M,M,71.60,KHTH 251235Z AUTO 00000KT 10SM CLR 22/12 A3025 RMK A01,M
10U,2024-07-25 12:35,-116.1876,41.9532,1637.00,62.60,53.60,72.38,M,M,0.00,30.27,M,10.00,M,BKN,OVC,M,M,3300.00,4000.00,M,M,M,M,M,M,M,M,M,62.60,K10U 251235Z AUTO 10SM BKN033 OVC040 17/12 A3027 RMK AO2,M
TMT,2024-07-25 12:35,-117.1971,39.4643,1749.34,48.70,48.70,100.00,0.00,0.00,0.00,30.38,M,0.50,M,BKN,M,M,M,200.00,M,M,M,FG,M,M,M,M,M,M,48.70,KTMT 251235Z AUTO 00000KT 1/2SM FG BKN002 09/09 A3038 RMK AO2 T00930093,M
VGT,2024-07-25 12:53,-115.1933,36.2111,667.00,93.00,56.00,28.90,290.00,7.00,0.00,30.04,1015.40,10.00,M,CLR,M,M,M,M,M,M,M,M,M,M,M,M,M,M,91.32,KVGT 251253Z 29007KT 10SM CLR 34/13 A3004 RMK AO2 SLP154 T03390133,M
LOL,2024-07-25 12:53,-118.5701,40.0684,1192.43,61.00,55.00,80.61,50.00,3.00,0.00,30.20,1018.60,10.00,M,CLR,M,M,M,M,M,M,M,M,M,M,M,M,M,M,61.00,KLOL 251253Z AUTO 05003KT 10SM CLR 16/13 A3020 RMK AO2 SLP186 T01610128 $,M
P68,2024-07-25 12:53,-116.0056,39.6014,1993.00,53.00,49.00,86.23,180.00,3.00,0.00,30.38,1021.00,M,M,M,M,M,M,M,M,M,M,M,M,M,M,M,M,M,53.00,KP68 251253Z AUTO 18003KT 12/09 A3038 RMK AO1 SLP210 T01170094,M
DRA,2024-07-25 12:53,-116.0278,36.6206,1009.00,81.00,58.00,45.51,50.00,11.00,0.00,30.14,1014.60,10.00,M,CLR,M,M,M,M,M,M,M,M,M,M,M,M,M,M,81.22,KDRA 251253Z AUTO 05011KT 10SM CLR 27/14 A3014 RMK AO2 SLP146 T02720144,M
ELY,2024-07-25 12:53,-114.8453,39.2950,1909.00,57.00,54.00,89.68,160.00,4.00,0.00,30.41,1020.90,10.00,M,CLR,M,M,M,M,M,M,M,M,M,M,M,M,M,M,57.00,KELY 251253Z AUTO 16004KT 10SM CLR 14/12 A3041 RMK AO2 SLP209 T01390122 $,M
NFL,2024-07-25 12:54,-118.7010,39.4166,1199.00,70.00,58.00,65.69,170.00,7.00,0.00,30.21,1019.30,9.00,M,CLR,M,M,M,M,M,M,M,M,M,M,M,M,M,M,70.00,KNFL 251254Z AUTO 17007KT 9SM CLR 21/14 A3021 RMK AO2 SLP193 T02110144,M
RNO,2024-07-25 12:55,-119.7711,39.4839,1341.00,70.00,55.00,58.94,0.00,0.00,0.00,30.24,1017.80,10.00,M,SCT,SCT,M,M,12000.00,20000.00,M,M,M,M,M,M,M,M,M,70.00,KRNO 251255Z 00000KT 10SM SCT120 SCT200 21/13 A3024 RMK AO2 SLP178 T02110128,M
RTS,2024-07-25 12:55,-119.8764,39.6682,1539.00,68.00,50.00,52.51,0.00,0.00,0.00,30.30,M,10.00,M,CLR,M,M,M,M,M,M,M,M,M,M,M,M,M,M,68.00,KRTS 251255Z AUTO 00000KT 10SM CLR 20/10 A3030 RMK AO2,M
05U,2024-07-25 12:55,-116.0051,39.6042,1811.23,53.60,50.00,87.56,0.00,0.00,0.00,30.41,M,9.00,M,CLR,M,M,M,M,M,M,M,M,M,M,M,M,M,M,53.60,K05U 251255Z AUTO 00000KT 9SM CLR 12/10 A3041 RMK A01,M
MEV,2024-07-25 12:55,-119.7500,38.9963,1441.42,55.40,51.80,87.65,0.00,0.00,0.00,30.28,M,6.00,M,CLR,M,M,M,M,M,M,M,HZ,M,M,M,M,M,M,55.40,KMEV 251255Z AUTO 00000KT 6SM HZ CLR 13/11 A3028 RMK AO2,M
BAM,2024-07-25 12:55,-116.8743,40.5990,1382.36,62.60,60.80,93.83,110.00,3.00,0.00,30.28,M,4.00,M,CLR,M,M,M,M,M,M,M,M,M,M,M,M,M,M,62.60,KBAM 251255Z AUTO 11003KT 4SM CLR 17/16 A3028 RMK AO1,M
HTH,2024-07-25 12:55,-118.6315,38.5448,1282.89,69.80,53.60,56.38,250.00,3.00,0.00,30.25,M,10.00,M,CLR,M,M,M,M,M,M,M,M,M,M,M,M,M,M,69.80,KHTH 251255Z AUTO 25003KT 10SM CLR 21/12 A3025 RMK A01,M
10U,2024-07-25 12:55,-116.1876,41.9532,1637.00,62.60,53.60,72.38,M,M,0.00,30.27,M,10.00,M,OVC,M,M,M,3300.00,M,M,M,M,M,M,M,M,M,M,62.60,K10U 251255Z AUTO 10SM OVC033 17/12 A3027 RMK AO2,M
BVU,2024-07-25 12:55,-114.8611,35.9475,671.00,91.40,57.20,31.72,0.00,0.00,0.00,30.04,M,10.00,M,CLR,M,M,M,M,M,M,M,M,M,M,M,M,M,M,90.06,KBVU 251255Z AUTO 00000KT 10SM CLR 33/14 A3004 RMK AO2,M
CXP,2024-07-25 12:55,-119.7326,39.1923,1431.00,66.20,53.60,63.82,0.00,0.00,0.00,30.29,M,10.00,M,CLR,M,M,M,M,M,M,M,M,M,M,M,M,M,M,66.20,KCXP 251255Z AUTO 00000KT 10SM CLR 19/12 A3029 RMK AO2,M
TMT,2024-07-25 12:55,-117.1971,39.4643,1749.34,50.00,50.00,100.00,0.00,0.00,0.00,30.38,M,0.50,M,BKN,M,M,M,200.00,M,M,M,FG,M,M,M,M,M,M,50.00,KTMT 251255Z AUTO 00000KT 1/2SM FG BKN002 10/10 A3038 RMK AO2 T01000100,M
INS,2024-07-25 12:55,-115.6733,36.5872,955.00,80.60,52.70,38.03,0.00,0.00,0.00,30.13,1014.10,10.00,M,CLR,M,M,M,M,M,M,M,M,M,M,M,M,M,M,80.18,KINS 251255Z AUTO 00000KT 10SM CLR 27/12 A3013 RMK AO2 SLP141 T02700115 $,M
LSV,2024-07-25 12:55,-115.0343,36.2362,570.00,90.30,58.00,33.79,90.00,5.00,0.00,29.99,1012.10,10.00,M,CLR,M,M,M,M,M,M,M,M,M,M,M,M,M,M,89.21,KLSV 251255Z AUTO 09005KT 10SM CLR 32/15 A2999 RMK AO2 SLP121 T03240145 $,M
WMC,2024-07-25 12:56,-117.8072,40.9019,1315.00,67.00,57.00,70.24,110.00,4.00,0.00,30.22,1018.10,10.00,M,CLR,M,M,M,M,M,M,M,M,M,M,M,M,M,M,67.00,KWMC 251256Z AUTO 11004KT 10SM CLR 19/14 A3022 RMK AO2 SLP181 T01940139,M
HND,2024-07-25 12:56,-115.1344,35.9729,742.79,86.00,58.00,38.72,160.00,4.00,0.00,30.09,1016.80,10.00,M,CLR,M,M,M,M,M,M,M,M,M,M,M,M,M,M,85.18,KHND 251256Z 16004KT 10SM CLR 30/14 A3009 RMK AO2 SLP168 T03000144,M
TPH,2024-07-25 12:56,-117.0904,38.0505,1654.00,63.00,53.00,69.82,340.00,8.00,0.00,30.36,1019.90,10.00,M,SCT,M,M,M,11000.00,M,M,M,M,M,M,M,M,M,M,63.00,KTPH 251256Z AUTO 34008KT 10SM SCT110 17/12 A3036 RMK AO2 SLP199 T01720117,M
LAS,2024-07-25 12:56,-115.1634,36.0719,663.00,93.00,59.00,32.19,0.00,0.00,0.00,30.05,1010.50,10.00,M,FEW,M,M,M,15000.00,M,M,M,M,M,M,M,M,M,M,92.35,KLAS 251256Z 00000KT 10SM FEW150 34/15 A3005 RMK AO2 SLP105 T03390150 $,M
EKO,2024-07-25 12:56,-115.7860,40.8242,1367.00,62.00,59.00,89.89,0.00,0.00,0.00,30.32,1021.30,10.00,M,CLR,M,M,M,M,M,M,M,M,M,M,M,M,M,M,62.00,KEKO 251256Z AUTO 00000KT 10SM CLR 17/15 A3032 RMK AO2 SLP213 T01670150,M
05U,2024-07-25 13:10,-116.0051,39.6042,1811.23,53.60,50.00,87.56,0.00,0.00,0.00,30.41,M,10.00,M,CLR,M,M,M,M,M,M,M,M,M,M,M,M,M,M,53.60,K05U 251310Z AUTO 00000KT 10SM CLR 12/10 A3041 RMK A01,M
BVU,2024-07-25 13:15,-114.8611,35.9475,671.00,87.80,59.00,37.90,20.00,4.00,0.00,30.04,M,10.00,M,CLR,M,M,M,M,M,M,M,M,M,M,M,M,M,M,87.12,KBVU 251315Z AUTO 02004KT 10SM CLR 31/15 A3004 RMK AO2,M
CXP,2024-07-25 13:15,-119.7326,39.1923,1431.00,64.40,53.60,67.95,0.00,0.00,0.00,30.30,M,10.00,M,CLR,M,M,M,M,M,M,M,M,M,M,M,M,M,M,64.40,KCXP 251315Z AUTO 00000KT 10SM CLR 18/12 A3030 RMK AO2,M
RTS,2024-07-25 13:15,-119.8764,39.6682,1539.00,69.80,50.00,49.37,0.00,0.00,0.00,30.30,M,10.00,M,CLR,M,M,M,M,M,M,M,M,M,M,M,M,M,M,69.80,KRTS 251315Z AUTO 00000KT 10SM CLR 21/10 A3030 RMK AO2,M
MEV,2024-07-25 13:15,-119.7500,38.9963,1441.42,57.20,51.80,82.12,M,4.00,0.00,30.29,M,4.00,M,CLR,M,M,M,M,M,M,M,HZ,M,M,M,M,M,M,57.20,KMEV 251315Z AUTO VRB04KT 4SM HZ CLR 14/11 A3029 RMK AO2,M
BAM,2024-07-25 13:15,-116.8743,40.5990,1382.36,60.80,60.80,100.00,0.00,0.00,0.00,30.28,M,5.00,M,CLR,M,M,M,M,M,M,M,M,M,M,M,M,M,M,60.80,KBAM 251315Z AUTO 00000KT 5SM CLR 16/16 A3028 RMK AO1,M
HTH,2024-07-25 13:15,-118.6315,38.5448,1282.89,68.00,55.40,64.04,190.00,4.00,0.00,30.25,M,10.00,M,CLR,M,M,M,M,M,M,M,M,M,M,M,M,M,M,68.00,KHTH 251315Z AUTO 19004KT 10SM CLR 20/13 A3025 RMK A01,M
TMT,2024-07-25 13:15,-117.1971,39.4643,1749.34,47.70,47.70,100.00,0.00,0.00,0.00,30.39,M,1.25,M,SCT,M,M,M,200.00,M,M,M,BR,M,M,M,M,M,M,47.70,KTMT 251315Z AUTO 00000KT 1 1/4SM BR SCT002 09/09 A3039 RMK AO2 T00870087,M
10U,2024-07-25 13:15,-116.1876,41.9532,1637.00,64.40,53.60,67.95,M,M,0.00,30.27,M,10.00,M,OVC,M,M,M,3500.00,M,M,M,M,M,M,M,M,M,M,64.40,K10U 251315Z AUTO 10SM OVC035 18/12 A3027 RMK AO2,M
HTH,2024-07-25 13:30,-118.6315,38.5448,1282.89,69.80,55.40,60.21,210.00,3.00,0.00,30.26,M,10.00,M,CLR,M,M,M,M,M,M,M,M,M,M,M,M,M,M,69.80,KHTH 251330Z AUTO 21003KT 10SM CLR 21/13 A3026 RMK A01,M
TMT,2024-07-25 13:35,-117.1971,39.4643,1749.34,49.50,49.50,100.00,0.00,0.00,0.00,30.39,M,0.25,M,OVC,M,M,M,200.00,M,M,M,FG,M,M,M,M,M,M,49.50,KTMT 251335Z AUTO 00000KT 1/4SM FG OVC002 10/10 A3039 RMK AO2 T00970097,M
BVU,2024-07-25 13:35,-114.8611,35.9475,671.00,87.80,60.80,40.41,0.00,0.00,0.00,30.04,M,10.00,M,CLR,M,M,M,M,M,M,M,M,M,M,M,M,M,M,87.75,KBVU 251335Z AUTO 00000KT 10SM CLR 31/16 A3004 RMK AO2,M
CXP,2024-07-25 13:35,-119.7326,39.1923,1431.00,66.20,53.60,63.82,0.00,0.00,0.00,30.30,M,10.00,M,CLR,M,M,M,M,M,M,M,M,M,M,M,M,M,M,66.20,KCXP 251335Z AUTO 00000KT 10SM CLR 19/12 A3030 RMK AO2,M
RTS,2024-07-25 13:35,-119.8764,39.6682,1539.00,68.00,50.00,52.51,M,3.00,0.00,30.30,M,10.00,M,CLR,M,M,M,M,M,M,M,M,M,M,M,M,M,M,68.00,KRTS 251335Z AUTO VRB03KT 10SM CLR 20/10 A3030 RMK AO2,M
05U,2024-07-25 13:35,-116.0051,39.6042,1811.23,57.20,51.80,82.12,0.00,0.00,0.00,30.41,M,10.00,M,CLR,M,M,M,M,M,M,M,M,M,M,M,M,M,M,57.20,K05U 251335Z AUTO 00000KT 10SM CLR 14/11 A3041 RMK A01,M
MEV,2024-07-25 13:35,-119.7500,38.9963,1441.42,57.20,51.80,82.12,0.00,0.00,0.00,30.28,M,4.00,M,CLR,M,M,M,M,M,M,M,HZ,M,M,M,M,M,M,57.20,KMEV 251335Z AUTO 00000KT 4SM HZ CLR 14/11 A3028 RMK AO2,M
BAM,2024-07-25 13:35,-116.8743,40.5990,1382.36,62.60,60.80,93.83,0.00,0.00,0.00,30.28,M,7.00,M,CLR,M,M,M,M,M,M,M,M,M,M,M,M,M,M,62.60,KBAM 251335Z AUTO 00000KT 7SM CLR 17/16 A3028 RMK AO1,M
10U,2024-07-25 13:35,-116.1876,41.9532,1637.00,66.20,53.60,63.82,M,M,0.00,30.28,M,10.00,M,SCT,M,M,M,3500.00,M,M,M,M,M,M,M,M,M,M,66.20,K10U 251335Z AUTO 10SM SCT035 19/12 A3028 RMK AO2,M
NFL,2024-07-25 13:39,-118.7010,39.4166,1199.00,71.00,57.00,61.24,180.00,8.00,0.00,30.21,M,10.00,M,SCT,SCT,SCT,M,12000.00,18000.00,24000.00,M,M,M,M,M,M,M,M,71.00,KNFL 251339Z 18008KT 10SM SCT120 SCT180 SCT240 22/14 A3021 RMK AO2 T02170139,M
P68,2024-07-25 13:53,-116.0056,39.6014,1993.00,59.00,53.00,80.46,190.00,4.00,0.00,30.38,1020.70,M,M,M,M,M,M,M,M,M,M,M,M,M,M,M,M,M,59.00,KP68 251353Z AUTO 19004KT 15/12 A3038 RMK AO1 SLP207 T01500117,M
DRA,2024-07-25 13:53,-116.0278,36.6206,1009.00,83.00,58.00,42.64,30.00,11.00,0.00,30.15,1015.00,10.00,M,CLR,M,M,M,M,M,M,M,M,M,M,M,M,M,M,82.70,KDRA 251353Z AUTO 03011KT 10SM CLR 28/14 A3015 RMK AO2 SLP150 T02830144,M
ELY,2024-07-25 13:53,-114.8453,39.2950,1909.00,58.00,56.00,93.04,170.00,7.00,0.00,30.42,1021.20,10.00,M,CLR,M,M,M,M,M,M,M,M,M,M,M,M,M,M,58.00,KELY 251353Z AUTO 17007KT 10SM CLR 14/13 A3042 RMK AO2 SLP212 T01440133 $,M
VGT,2024-07-25 13:53,-115.1933,36.2111,667.00,94.00,58.00,30.11,260.00,7.00,0.00,30.05,1015.80,10.00,M,CLR,M,M,M,M,M,M,M,M,M,M,M,M,M,M,93.04,KVGT 251353Z 26007KT 10SM CLR 34/14 A3005 RMK AO2 SLP158 T03440144,M
LOL,2024-07-25 13:53,-118.5701,40.0684,1192.43,64.00,56.00,75.20,0.00,0.00,0.00,30.21,1019.30,10.00,M,CLR,M,M,M,M,M,M,M,M,M,M,M,M,M,M,64.00,KLOL 251353Z AUTO 00000KT 10SM CLR 18/13 A3021 RMK AO2 SLP193 T01780133 $,M
NFL,2024-07-25 13:54,-118.7010,39.4166,1199.00,72.00,57.00,59.20,180.00,5.00,0.00,30.22,1019.40,10.00,M,SCT,SCT,SCT,M,12000.00,18000.00,24000.00,M,M,M,M,M,M,M,M,72.00,KNFL 251354Z 18005KT 10SM SCT120 SCT180 SCT240 22/14 A3022 RMK AO2 SLP194 T02220139,M
BVU,2024-07-25 13:55,-114.8611,35.9475,671.00,91.40,59.00,33.84,0.00,0.00,0.00,30.04,M,10.00,M,CLR,M,M,M,M,M,M,M,M,M,M,M,M,M,M,90.68,KBVU 251355Z AUTO 00000KT 10SM CLR 33/15 A3004 RMK AO2,M
CXP,2024-07-25 13:55,-119.7326,39.1923,1431.00,68.00,53.60,59.97,0.00,0.00,0.00,30.29,M,10.00,M,CLR,M,M,M,M,M,M,M,M,M,M,M,M,M,M,68.00,KCXP 251355Z AUTO 00000KT 10SM CLR 20/12 A3029 RMK AO2,M
INS,2024-07-25 13:55,-115.6733,36.5872,955.00,82.00,54.70,39.09,0.00,0.00,0.00,30.14,1014.40,10.00,M,CLR,M,M,M,M,M,M,M,M,M,M,M,M,M,M,81.35,KINS 251355Z AUTO 00000KT 10SM CLR 28/13 A3014 RMK AO2 SLP144 T02780126 $,M
RNO,2024-07-25 13:55,-119.7711,39.4839,1341.00,73.00,57.00,57.23,0.00,0.00,0.00,30.25,1017.70,10.00,M,SCT,M,M,M,10000.00,M,M,M,M,M,M,M,M,M,M,73.00,KRNO 251355Z 00000KT 10SM SCT100 23/14 A3025 RMK AO2 SLP177 ACSL DSNT SW T02280139,M
RTS,2024-07-25 13:55,-119.8764,39.6682,1539.00,71.60,50.00,46.43,0.00,0.00,0.00,30.30,M,10.00,M,CLR,M,M,M,M,M,M,M,M,M,M,M,M,M,M,71.60,KRTS 251355Z AUTO 00000KT 10SM CLR 22/10 A3030 RMK AO2,M
05U,2024-07-25 13:55,-116.0051,39.6042,1811.23,59.00,53.60,82.25,0.00,0.00,0.00,30.41,M,10.00,M,CLR,M,M,M,M,M,M,M,M,M,M,M,M,M,M,59.00,K05U 251355Z AUTO 00000KT 10SM CLR 15/12 A3041 RMK A01,M
MEV,2024-07-25 13:55,-119.7500,38.9963,1441.42,60.80,53.60,77.14,0.00,0.00,0.00,30.28,M,4.00,M,CLR,M,M,M,M,M,M,M,HZ,M,M,M,M,M,M,60.80,KMEV 251355Z AUTO 00000KT 4SM HZ CLR 16/12 A3028 RMK AO2,M
BAM,2024-07-25 13:55,-116.8743,40.5990,1382.36,62.60,60.80,93.83,0.00,0.00,0.00,30.28,M,7.00,M,CLR,M,M,M,M,M,M,M,M,M,M,M,M,M,M,62.60,KBAM 251355Z AUTO 00000KT 7SM CLR 17/16 A3028 RMK AO1,M
HTH,2024-07-25 13:55,-118.6315,38.5448,1282.89,71.60,57.20,60.44,260.00,4.00,0.00,30.26,M,10.00,M,CLR,M,M,M,M,M,M,M,M,M,M,M,M,M,M,71.60,KHTH 251355Z AUTO 26004KT 10SM CLR 22/14 A3026 RMK A01,M
10U,2024-07-25 13:55,-116.1876,41.9532,1637.00,68.00,53.60,59.97,M,M,0.00,30.28,M,10.00,M,CLR,M,M,M,M,M,M,M,M,M,M,M,M,M,M,68.00,K10U 251355Z AUTO 10SM CLR 20/12 A3028 RMK AO2,M
TMT,2024-07-25 13:55,-117.1971,39.4643,1749.34,52.00,52.00,100.00,0.00,0.00,0.00,30.39,M,3.00,M,SCT,M,M,M,200.00,M,M,M,BR,M,M,M,M,M,M,52.00,KTMT 251355Z AUTO 00000KT 3SM BR SCT002 11/11 A3039 RMK AO2 T01120112,M
LSV,2024-07-25 13:55,-115.0343,36.2362,570.00,91.60,57.60,31.98,70.00,6.00,0.00,30.00,1012.50,10.00,M,CLR,M,M,M,M,M,M,M,M,M,M,M,M,M,M,90.39,KLSV 251355Z AUTO 07006KT 10SM CLR 33/14 A3000 RMK AO2 SLP125 T03310142 $,M
EKO,2024-07-25 13:56,-115.7860,40.8242,1367.00,65.00,60.00,83.84,30.00,3.00,0.00,30.32,1021.60,10.00,M,CLR,M,M,M,M,M,M,M,M,M,M,M,M,M,M,65.00,KEKO 251356Z AUTO 03003KT 10SM CLR 18/16 A3032 RMK AO2 SLP216 T01830156,M
WMC,2024-07-25 13:56,-117.8072,40.9019,1315.00,67.00,58.00,72.82,130.00,7.00,0.00,30.23,1019.00,10.00,M,CLR,M,M,M,M,M,M,M,M,M,M,M,M,M,M,67.00,KWMC 251356Z AUTO 13007KT 10SM CLR 19/14 A3023 RMK AO2 SLP190 T01940144,M
HND,2024-07-25 13:56,-115.1344,35.9729,742.79,89.00,58.00,35.20,180.00,5.00,0.00,30.10,1017.10,10.00,M,CLR,M,M,M,M,M,M,M,M,M,M,M,M,M,M,87.94,KHND 251356Z 18005KT 10SM CLR 32/14 A3010 RMK AO2 SLP171 T03170144,M
TPH,2024-07-25 13:56,-117.0904,38.0505,1654.00,65.00,54.00,67.52,330.00,6.00,0.00,30.36,1020.60,10.00,M,SCT,M,M,M,11000.00,M,M,M,M,M,M,M,M,M,M,65.00,KTPH 251356Z AUTO 33006KT 10SM SCT110 18/12 A3036 RMK AO2 SLP206 T01830122,M
LAS,2024-07-25 13:56,-115.1634,36.0719,663.00,94.00,59.00,31.21,0.00,0.00,0.00,30.06,1010.90,10.00,M,FEW,M,M,M,15000.00,M,M,M,M,M,M,M,M,M,M,93.42,KLAS 251356Z 00000KT 10SM FEW150 34/15 A3006 RMK AO2 SLP109 T03440150 $,M
BVU,2024-07-25 14:15,-114.8611,35.9475,671.00,91.40,57.20,31.72,0.00,0.00,0.00,30.05,M,10.00,M,CLR,M,M,M,M,M,M,M,M,M,M,M,M,M,M,90.06,KBVU 251415Z AUTO 00000KT 10SM CLR 33/14 A3005 RMK AO2,M
CXP,2024-07-25 14:15,-119.7326,39.1923,1431.00,68.00,53.60,59.97,0.00,0.00,0.00,30.29,M,10.00,M,CLR,M,M,M,M,M,M,M,M,M,M,M,M,M,M,68.00,KCXP 251415Z AUTO 00000KT 10SM CLR 20/12 A3029 RMK AO2,M
RTS,2024-07-25 14:15,-119.8764,39.6682,1539.00,75.20,50.00,41.14,290.00,3.00,0.00,30.30,M,10.00,M,CLR,M,M,M,M,M,M,M,M,M,M,M,M,M,M,75.20,KRTS 251415Z AUTO 29003KT 10SM CLR 24/10 A3030 RMK AO2,M
05U,2024-07-25 14:15,-116.0051,39.6042,1811.23,62.60,53.60,72.38,0.00,0.00,0.00,30.41,M,10.00,M,CLR,M,M,M,M,M,M,M,M,M,M,M,M,M,M,62.60,K05U 251415Z AUTO 00000KT 10SM CLR 17/12 A3041 RMK A01,M
MEV,2024-07-25 14:15,-119.7500,38.9963,1441.42,64.40,53.60,67.95,0.00,0.00,0.00,30.28,M,10.00,M,CLR,M,M,M,M,M,M,M,M,M,M,M,M,M,M,64.40,KMEV 251415Z AUTO 00000KT 10SM CLR 18/12 A3028 RMK AO2,M
BAM,2024-07-25 14:15,-116.8743,40.5990,1382.36,64.40,62.60,93.88,0.00,0.00,0.00,30.29,M,7.00,M,CLR,M,M,M,M,M,M,M,M,M,M,M,M,M,M,64.40,KBAM 251415Z AUTO 00000KT 7SM CLR 18/17 A3029 RMK AO1,M
HTH,2024-07-25 14:15,-118.6315,38.5448,1282.89,71.60,55.40,56.63,0.00,0.00,0.00,30.27,M,10.00,M,CLR,M,M,M,M,M,M,M,M,M,M,M,M,M,M,71.60,KHTH 251415Z AUTO 00000KT 10SM CLR 22/13 A3027 RMK A01,M
10U,2024-07-25 14:15,-116.1876,41.9532,1637.00,69.80,53.60,56.38,M,M,0.00,30.28,M,10.00,M,CLR,M,M,M,M,M,M,M,M,M,M,M,M,M,M,69.80,K10U 251415Z AUTO 10SM CLR 21/12 A3028 RMK AO2,M
TMT,2024-07-25 14:15,-117.1971,39.4643,1749.34,54.00,54.00,100.00,0.00,0.00,0.00,30.39,M,10.00,M,CLR,M,M,M,M,M,M,M,M,M,M,M,M,M,M,54.00,KTMT 251415Z AUTO 00000KT 10SM CLR 12/12 A3039 RMK AO2 T01220122,M
RTS,2024-07-25 14:35,-119.8764,39.6682,1539.00,77.00,50.00,38.74,M,5.00,0.00,30.30,M,10.00,M,CLR,M,M,M,M,M,M,M,M,M,M,M,M,M,M,77.00,KRTS 251435Z AUTO VRB05KT 10SM CLR 25/10 A3030 RMK AO2,M
BVU,2024-07-25 14:35,-114.8611,35.9475,671.00,93.20,57.20,29.99,0.00,0.00,0.00,30.05,M,10.00,M,CLR,M,M,M,M,M,M,M,M,M,M,M,M,M,M,91.91,KBVU 251435Z AUTO 00000KT 10SM CLR 34/14 A3005 RMK AO2,M
CXP,2024-07-25 14:35,-119.7326,39.1923,1431.00,71.60,53.60,53.03,0.00,0.00,0.00,30.29,M,10.00,M,CLR,M,M,M,M,M,M,M,M,M,M,M,M,M,M,71.60,KCXP 251435Z AUTO 00000KT 10SM CLR 22/12 A3029 RMK AO2,M
TMT,2024-07-25 14:35,-117.1971,39.4643,1749.34,57.00,55.40,94.37,0.00,0.00,0.00,30.39,M,10.00,M,CLR,M,M,M,M,M,M,M,M,M,M,M,M,M,M,57.00,KTMT 251435Z AUTO 00000KT 10SM CLR 14/13 A3039 RMK AO2 T01390130,M
05U,2024-07-25 14:35,-116.0051,39.6042,1811.23,64.40,55.40,72.56,0.00,0.00,0.00,30.41,M,9.00,M,CLR,M,M,M,M,M,M,M,M,M,M,M,M,M,M,64.40,K05U 251435Z AUTO 00000KT 9SM CLR 18/13 A3041 RMK A01,M
MEV,2024-07-25 14:35,-119.7500,38.9963,1441.42,66.20,53.60,63.82,M,3.00,0.00,30.28,M,9.00,M,CLR,M,M,M,M,M,M,M,M,M,M,M,M,M,M,66.20,KMEV 251435Z AUTO VRB03KT 9SM CLR 19/12 A3028 RMK AO2,M
BAM,2024-07-25 14:35,-116.8743,40.5990,1382.36,68.00,62.60,82.86,0.00,0.00,0.00,30.29,M,7.00,M,CLR,M,M,M,M,M,M,M,M,M,M,M,M,M,M,68.00,KBAM 251435Z AUTO 00000KT 7SM CLR 20/17 A3029 RMK AO1,M
HTH,2024-07-25 14:35,-118.6315,38.5448,1282.89,M,M,M,0.00,0.00,0.00,30.27,M,10.00,M,CLR,M,M,M,M,M,M,M,M,M,M,M,M,M,M,M,KHTH 251435Z AUTO 00000KT 10SM CLR A3027 RMK A01,M
10U,2024-07-25 14:35,-116.1876,41.9532,1637.00,73.40,53.60,49.90,M,M,0.00,30.28,M,10.00,M,CLR,M,M,M,M,M,M,M,M,M,M,M,M,M,M,73.40,K10U 251435Z AUTO 10SM CLR 23/12 A3028 RMK AO2,M
P68,2024-07-25 14:53,-116.0056,39.6014,1993.00,67.00,56.00,67.75,0.00,0.00,0.00,30.38,1020.20,M,M,M,M,M,M,M,M,M,M,M,M,M,M,M,M,M,67.00,KP68 251453Z AUTO 00000KT 19/13 A3038 RMK AO1 SLP202 T01940133 51001,M
DRA,2024-07-25 14:53,-116.0278,36.6206,1009.00,86.00,57.00,37.35,30.00,14.00,0.00,30.16,1015.40,10.00,M,CLR,M,M,M,M,M,M,M,M,M,M,M,M,M,M,84.92,KDRA 251453Z AUTO 03014KT 10SM CLR 30/14 A3016 RMK AO2 SLP154 T03000139 53007,M
ELY,2024-07-25 14:53,-114.8453,39.2950,1909.00,64.00,58.00,80.83,180.00,9.00,0.00,30.42,1020.90,10.00,M,CLR,M,M,M,M,M,M,M,M,M,M,M,M,M,M,64.00,KELY 251453Z AUTO 18009KT 10SM CLR 18/14 A3042 RMK AO2 SLP209 T01780144 50003 $,M
VGT,2024-07-25 14:53,-115.1933,36.2111,667.00,96.00,57.00,27.31,340.00,6.00,0.00,30.06,1015.90,10.00,M,CLR,M,M,M,M,M,M,M,M,M,M,M,M,M,M,94.83,KVGT 251453Z 34006KT 10SM CLR 36/14 A3006 RMK AO2 SLP159 T03560139 53005,M
LOL,2024-07-25 14:53,-118.5701,40.0684,1192.43,74.00,57.00,55.34,0.00,0.00,0.00,30.22,1019.40,10.00,M,CLR,M,M,M,M,M,M,M,M,M,M,M,M,M,M,74.00,KLOL 251453Z AUTO 00000KT 10SM CLR 23/14 A3022 RMK AO2 SLP194 T02330139 51007 $,M
NFL,2024-07-25 14:54,-118.7010,39.4166,1199.00,77.00,59.00,53.80,160.00,5.00,0.00,30.22,1019.50,9.00,M,SCT,SCT,M,M,12000.00,18000.00,M,M,M,M,M,M,M,M,M,77.00,KNFL 251454Z 16005KT 9SM SCT120 SCT180 25/15 A3022 RMK AO2 SLP195 FU SCT180 T02500150 51006,M
BVU,2024-07-25 14:55,-114.8611,35.9475,671.00,95.00,55.40,26.58,0.00,0.00,0.00,30.05,M,10.00,M,CLR,M,M,M,M,M,M,M,M,M,M,M,M,M,M,93.22,KBVU 251455Z AUTO 00000KT 10SM CLR 35/13 A3005 RMK AO2,M
CXP,2024-07-25 14:55,-119.7326,39.1923,1431.00,73.40,50.00,43.69,0.00,0.00,0.00,30.29,M,10.00,M,CLR,M,M,M,M,M,M,M,M,M,M,M,M,M,M,73.40,KCXP 251455Z AUTO 00000KT 10SM CLR 23/10 A3029 RMK AO2,M
RNO,2024-07-25 14:55,-119.7711,39.4839,1341.00,76.00,58.00,53.66,0.00,0.00,0.00,30.24,1017.80,10.00,M,FEW,SCT,M,M,10000.00,15000.00,M,M,M,M,M,M,M,M,M,76.00,KRNO 251455Z 00000KT 10SM FEW100 SCT150 24/14 A3024 RMK AO2 SLP178 T02440144 50001,M
LSV,2024-07-25 14:55,-115.0343,36.2362,570.00,94.00,55.00,27.02,240.00,3.00,0.00,30.01,1012.80,10.00,M,CLR,M,M,M,M,M,M,M,M,M,M,M,M,M,M,92.06,KLSV 251455Z AUTO 24003KT 10SM CLR 34/13 A3001 RMK AO2 SLP128 T03440127 52010 $,M
RTS,2024-07-25 14:55,-119.8764,39.6682,1539.00,78.80,50.00,36.51,190.00,11.00,0.00,30.30,M,10.00,M,CLR,M,M,M,M,M,M,M,M,M,M,M,M,M,M,78.80,KRTS 251455Z AUTO 19011KT 10SM CLR 26/10 A3030 RMK AO2,M
05U,2024-07-25 14:55,-116.0051,39.6042,1811.23,66.20,55.40,68.15,0.00,0.00,0.00,30.41,M,10.00,M,CLR,M,M,M,M,M,M,M,M,M,M,M,M,M,M,66.20,K05U 251455Z AUTO 00000KT 10SM CLR 19/13 A3041 RMK A01,M
MEV,2024-07-25 14:55,-119.7500,38.9963,1441.42,71.60,53.60,53.03,0.00,0.00,0.00,30.28,M,10.00,M,CLR,M,M,M,M,M,M,M,M,M,M,M,M,M,M,71.60,KMEV 251455Z AUTO 00000KT 10SM CLR 22/12 A3028 RMK AO2,M
BAM,2024-07-25 14:55,-116.8743,40.5990,1382.36,69.80,64.40,82.98,0.00,0.00,0.00,30.29,M,7.00,M,CLR,M,M,M,M,M,M,M,M,M,M,M,M,M,M,69.80,KBAM 251455Z AUTO 00000KT 7SM CLR 21/18 A3029 RMK AO1,M
HTH,2024-07-25 14:55,-118.6315,38.5448,1282.89,73.40,51.80,46.71,0.00,0.00,0.00,30.27,M,10.00,M,CLR,M,M,M,M,M,M,M,M,M,M,M,M,M,M,73.40,KHTH 251455Z AUTO 00000KT 10SM CLR 23/11 A3027 RMK A01,M
10U,2024-07-25 14:55,-116.1876,41.9532,1637.00,75.20,53.60,46.98,M,M,0.00,30.27,M,10.00,M,CLR,M,M,M,M,M,M,M,M,M,M,M,M,M,M,75.20,K10U 251455Z AUTO 10SM CLR 24/12 A3027 RMK AO2,M
TMT,2024-07-25 14:55,-117.1971,39.4643,1749.34,59.50,56.30,89.14,220.00,5.00,0.00,30.39,M,10.00,M,CLR,M,M,M,M,M,M,M,M,M,M,M,M,M,M,59.50,KTMT 251455Z AUTO 22005KT 10SM CLR 15/14 A3039 RMK AO2 T01530135,M
INS,2024-07-25 14:55,-115.6733,36.5872,955.00,86.50,55.00,34.19,0.00,0.00,0.00,30.15,1014.70,10.00,M,CLR,M,M,M,M,M,M,M,M,M,M,M,M,M,M,84.88,KINS 251455Z AUTO 00000KT 10SM CLR 30/13 A3015 RMK AO2 SLP147 T03030127 52007 $,M
EKO,2024-07-25 14:56,-115.7860,40.8242,1367.00,68.00,60.00,75.57,70.00,3.00,0.00,30.33,1021.50,10.00,M,CLR,M,M,M,M,M,M,M,M,M,M,M,M,M,M,68.00,KEKO 251456Z AUTO 07003KT 10SM CLR 20/16 A3033 RMK AO2 SLP215 T02000156 51006,M
WMC,2024-07-25 14:56,-117.8072,40.9019,1315.00,74.00,60.00,61.62,140.00,7.00,0.00,30.22,1018.20,10.00,M,CLR,M,M,M,M,M,M,M,M,M,M,M,M,M,M,74.00,KWMC 251456Z AUTO 14007KT 10SM CLR 23/16 A3022 RMK AO2 SLP182 T02330156 50003,M
HND,2024-07-25 14:56,-115.1344,35.9729,742.79,93.00,59.00,32.19,200.00,4.00,0.00,30.11,1017.30,10.00,M,CLR,M,M,M,M,M,M,M,M,M,M,M,M,M,M,92.35,KHND 251456Z 20004KT 10SM CLR 34/15 A3011 RMK AO2 SLP173 T03390150 51006,M
TPH,2024-07-25 14:56,-117.0904,38.0505,1654.00,73.00,53.00,49.48,350.00,9.00,0.00,30.36,1019.80,10.00,M,CLR,M,M,M,M,M,M,M,M,M,M,M,M,M,M,73.00,KTPH 251456Z AUTO 35009KT 10SM CLR 23/12 A3036 RMK AO2 SLP198 T02280117 50003,M
LAS,2024-07-25 14:56,-115.1634,36.0719,663.00,96.00,58.00,28.31,0.00,0.00,0.00,30.07,1011.20,10.00,M,FEW,M,M,M,25000.00,M,M,M,M,M,M,M,M,M,M,95.20,KLAS 251456Z 00000KT 10SM FEW250 36/14 A3007 RMK AO2 SLP112 T03560144 53010 $,M
BVU,2024-07-25 15:15,-114.8611,35.9475,671.00,95.00,55.40,26.58,0.00,0.00,0.00,30.05,M,10.00,M,CLR,M,M,M,M,M,M,M,M,M,M,M,M,M,M,93.22,KBVU 251515Z AUTO 00000KT 10SM CLR 35/13 A3005 RMK AO2,M
CXP,2024-07-25 15:15,-119.7326,39.1923,1431.00,75.20,50.00,41.14,0.00,0.00,0.00,30.29,M,10.00,M,CLR,M,M,M,M,M,M,M,M,M,M,M,M,M,M,75.20,KCXP 251515Z AUTO 00000KT 10SM CLR 24/10 A3029 RMK AO2,M
RTS,2024-07-25 15:15,-119.8764,39.6682,1539.00,78.80,50.00,36.51,190.00,12.00,0.00,30.30,M,10.00,20.00,CLR,M,M,M,M,M,M,M,M,M,M,M,M,M,M,78.80,KRTS 251515Z AUTO 19012G20KT 10SM CLR 26/10 A3030 RMK AO2,M
05U,2024-07-25 15:15,-116.0051,39.6042,1811.23,69.80,55.40,60.21,0.00,0.00,0.00,30.41,M,10.00,M,CLR,M,M,M,M,M,M,M,M,M,M,M,M,M,M,69.80,K05U 251515Z AUTO 00000KT 10SM CLR 21/13 A3041 RMK A01,M
MEV,2024-07-25 15:15,-119.7500,38.9963,1441.42,75.20,53.60,46.98,0.00,0.00,0.00,30.27,M,10.00,M,CLR,M,M,M,M,M,M,M,M,M,M,M,M,M,M,75.20,KMEV 251515Z AUTO 00000KT 10SM CLR 24/12 A3027 RMK AO2,M
BAM,2024-07-25 15:15,-116.8743,40.5990,1382.36,71.60,64.40,78.04,100.00,3.00,0.00,30.29,M,7.00,M,CLR,M,M,M,M,M,M,M,M,M,M,M,M,M,M,71.60,KBAM 251515Z AUTO 10003KT 7SM CLR 22/18 A3029 RMK AO1,M
HTH,2024-07-25 15:15,-118.6315,38.5448,1282.89,75.20,51.80,43.97,0.00,0.00,0.00,30.26,M,10.00,M,CLR,M,M,M,M,M,M,M,M,M,M,M,M,M,M,75.20,KHTH 251515Z AUTO 00000KT 10SM CLR 24/11 A3026 RMK A01,M
10U,2024-07-25 15:15,-116.1876,41.9532,1637.00,77.00,53.60,44.25,M,M,0.00,30.27,M,10.00,M,CLR,M,M,M,M,M,M,M,M,M,M,M,M,M,M,77.00,K10U 251515Z AUTO 10SM CLR 25/12 A3027 RMK AO2,M
TMT,2024-07-25 15:15,-117.1971,39.4643,1749.34,61.70,57.20,85.16,230.00,3.00,0.00,30.38,M,10.00,M,CLR,M,M,M,M,M,M,M,M,M,M,M,M,M,M,61.70,KTMT 251515Z AUTO 23003KT 10SM CLR 17/14 A3038 RMK AO2 T01650140,M
05U,2024-07-25 15:30,-116.0051,39.6042,1811.23,69.80,55.40,60.21,0.00,0.00,0.00,30.41,M,10.00,M,CLR,M,M,M,M,M,M,M,M,M,M,M,M,M,M,69.80,K05U 251530Z AUTO 00000KT 10SM CLR 21/13 A3041 RMK A01,M
MEV,2024-07-25 15:35,-119.7500,38.9963,1441.42,78.80,51.80,39.02,0.00,0.00,0.00,30.27,M,10.00,M,CLR,M,M,M,M,M,M,M,M,M,M,M,M,M,M,78.80,KMEV 251535Z AUTO 00000KT 10SM CLR 26/11 A3027 RMK AO2,M
HTH,2024-07-25 15:35,-118.6315,38.5448,1282.89,77.00,53.60,44.25,0.00,0.00,0.00,30.26,M,10.00,M,CLR,M,M,M,M,M,M,M,M,M,M,M,M,M,M,77.00,KHTH 251535Z AUTO 00000KT 10SM CLR 25/12 A3026 RMK A01,M
10U,2024-07-25 15:35,-116.1876,41.9532,1637.00,78.80,51.80,39.02,M,M,0.00,30.27,M,10.00,M,CLR,M,M,M,M,M,M,M,M,M,M,M,M,M,M,78.80,K10U 251535Z AUTO 10SM CLR 26/11 A3027 RMK AO2,M
BVU,2024-07-25 15:35,-114.8611,35.9475,671.00,96.80,55.40,25.15,260.00,4.00,0.00,30.05,M,10.00,M,CLR,M,M,M,M,M,M,M,M,M,M,M,M,M,M,95.14,KBVU 251535Z AUTO 26004KT 10SM CLR 36/13 A3005 RMK AO2,M
CXP,2024-07-25 15:35,-119.7326,39.1923,1431.00,78.80,51.80,39.02,0.00,0.00,0.00,30.29,M,10.00,M,CLR,M,M,M,M,M,M,M,M,M,M,M,M,M,M,78.80,KCXP 251535Z AUTO 00000KT 10SM CLR 26/11 A3029 RMK AO2,M
RTS,2024-07-25 15:35,-119.8764,39.6682,1539.00,78.80,50.00,36.51,190.00,12.00,0.00,30.30,M,10.00,M,CLR,M,M,M,M,M,M,M,M,M,M,M,M,M,M,78.80,KRTS 251535Z AUTO 19012KT 10SM CLR 26/10 A3030 RMK AO2,M
BAM,2024-07-25 15:35,-116.8743,40.5990,1382.36,71.60,60.80,68.75,0.00,0.00,0.00,30.29,M,7.00,M,CLR,M,M,M,M,M,M,M,M,M,M,M,M,M,M,71.60,KBAM 251535Z AUTO 00000KT 7SM CLR 22/16 A3029 RMK AO1,M
TMT,2024-07-25 15:35,-117.1971,39.4643,1749.34,64.60,59.00,82.04,200.00,5.00,0.00,30.38,M,10.00,M,CLR,M,M,M,M,M,M,M,M,M,M,M,M,M,M,64.60,KTMT 251535Z AUTO 20005KT 10SM CLR 18/15 A3038 RMK AO2 T01810149,M
05U,2024-07-25 15:50,-116.0051,39.6042,1811.23,71.60,55.40,56.63,0.00,0.00,0.00,30.40,M,10.00,M,CLR,M,M,M,M,M,M,M,M,M,M,M,M,M,M,71.60,K05U 251550Z AUTO 00000KT 10SM CLR 22/13 A3040 RMK A01,M
P68,2024-07-25 15:53,-116.0056,39.6014,1993.00,73.00,55.00,53.23,0.00,0.00,0.00,30.37,1019.50,M,M,M,M,M,M,M,M,M,M,M,M,M,M,M,M,M,73.00,KP68 251553Z AUTO 00000KT 23/13 A3037 RMK AO1 SLP195 T02280128,M
DRA,2024-07-25 15:53,-116.0278,36.6206,1009.00,90.00,56.00,31.74,40.00,11.00,0.00,30.16,1015.30,10.00,M,CLR,M,M,M,M,M,M,M,M,M,M,M,M,M,M,88.32,KDRA 251553Z AUTO 04011KT 10SM CLR 32/13 A3016 RMK AO2 SLP153 T03220133,M
ELY,2024-07-25 15:53,-114.8453,39.2950,1909.00,69.00,59.00,70.46,180.00,8.00,0.00,30.41,1019.80,10.00,M,M,M,M,M,M,M,M,M,M,M,M,M,M,M,M,69.00,KELY 251553Z AUTO 18008KT 10SM 21/15 A3041 RMK AO2 SLP198 T02060150 $,M
VGT,2024-07-25 15:53,-115.1933,36.2111,667.00,98.00,57.00,25.69,350.00,8.00,0.00,30.06,1015.90,10.00,M,CLR,M,M,M,M,M,M,M,M,M,M,M,M,M,M,97.02,KVGT 251553Z 35008KT 10SM CLR 37/14 A3006 RMK AO2 SLP159 T03670139,M
LOL,2024-07-25 15:53,-118.5701,40.0684,1192.43,79.00,57.00,46.87,200.00,3.00,0.00,30.21,1018.90,10.00,M,CLR,M,M,M,M,M,M,M,M,M,M,M,M,M,M,79.00,KLOL 251553Z AUTO 20003KT 10SM CLR 26/14 A3021 RMK AO2 SLP189 T02610139 $,M
NFL,2024-07-25 15:54,-118.7010,39.4166,1199.00,81.00,57.00,43.90,160.00,5.00,0.00,30.22,1019.50,10.00,M,SCT,SCT,M,M,12000.00,18000.00,M,M,M,M,M,M,M,M,M,81.05,KNFL 251554Z 16005KT 10SM SCT120 SCT180 27/14 A3022 RMK AO2 SLP195 FU SCT180 T02720139,M
BVU,2024-07-25 15:55,-114.8611,35.9475,671.00,96.80,55.40,25.15,0.00,0.00,0.00,30.05,M,10.00,M,CLR,M,M,M,M,M,M,M,M,M,M,M,M,M,M,95.14,KBVU 251555Z AUTO 00000KT 10SM CLR 36/13 A3005 RMK AO2,M
CXP,2024-07-25 15:55,-119.7326,39.1923,1431.00,80.60,50.00,34.41,M,4.00,0.00,30.29,M,10.00,M,CLR,M,M,M,M,M,M,M,M,M,M,M,M,M,M,79.88,KCXP 251555Z AUTO VRB04KT 10SM CLR 27/10 A3029 RMK AO2,M
RNO,2024-07-25 15:55,-119.7711,39.4839,1341.00,83.00,53.00,35.56,100.00,3.00,0.00,30.24,1017.30,10.00,M,FEW,FEW,M,M,10000.00,15000.00,M,M,M,M,M,M,M,M,M,81.78,KRNO 251555Z 10003KT 10SM FEW100 FEW150 28/12 A3024 RMK AO2 SLP173 T02830117,M
RTS,2024-07-25 15:55,-119.8764,39.6682,1539.00,80.60,50.00,34.41,190.00,10.00,0.00,30.30,M,10.00,17.00,CLR,M,M,M,M,M,M,M,M,M,M,M,M,M,M,79.88,KRTS 251555Z AUTO 19010G17KT 10SM CLR 27/10 A3030 RMK AO2,M
MEV,2024-07-25 15:55,-119.7500,38.9963,1441.42,80.60,51.80,36.79,M,3.00,0.00,30.27,M,10.00,M,CLR,M,M,M,M,M,M,M,M,M,M,M,M,M,M,80.08,KMEV 251555Z AUTO VRB03KT 10SM CLR 27/11 A3027 RMK AO2,M
BAM,2024-07-25 15:55,-116.8743,40.5990,1382.36,71.60,60.80,68.75,0.00,0.00,0.00,30.28,M,10.00,M,CLR,M,M,M,M,M,M,M,M,M,M,M,M,M,M,71.60,KBAM 251555Z AUTO 00000KT 10SM CLR 22/16 A3028 RMK AO1,M
HTH,2024-07-25 15:55,-118.6315,38.5448,1282.89,78.80,53.60,41.69,0.00,0.00,0.00,30.26,M,10.00,M,CLR,M,M,M,M,M,M,M,M,M,M,M,M,M,M,78.80,KHTH 251555Z AUTO 00000KT 10SM CLR 26/12 A3026 RMK A01,M
10U,2024-07-25 15:55,-116.1876,41.9532,1637.00,78.80,51.80,39.02,M,M,0.00,30.27,M,10.00,M,CLR,M,M,M,M,M,M,M,M,M,M,M,M,M,M,78.80,K10U 251555Z AUTO 10SM CLR 26/11 A3027 RMK AO2,M
LSV,2024-07-25 15:55,-115.0343,36.2362,570.00,96.60,53.80,23.87,0.00,0.00,0.00,30.01,1012.80,10.00,M,CLR,M,M,M,M,M,M,M,M,M,M,M,M,M,M,94.44,KLSV 251555Z AUTO 00000KT 10SM CLR 36/12 A3001 RMK AO2 SLP128 T03590121 $,M
TMT,2024-07-25 15:55,-117.1971,39.4643,1749.34,67.00,59.00,75.48,0.00,0.00,0.00,30.38,M,10.00,M,CLR,M,M,M,M,M,M,M,M,M,M,M,M,M,M,67.00,KTMT 251555Z AUTO 00000KT 10SM CLR 19/15 A3038 RMK AO2 T01940150,M
INS,2024-07-25 15:55,-115.6733,36.5872,955.00,90.30,53.80,29.02,270.00,4.00,0.00,30.14,1014.40,10.00,M,CLR,M,M,M,M,M,M,M,M,M,M,M,M,M,M,88.06,KINS 251555Z AUTO 27004KT 10SM CLR 32/12 A3014 RMK AO2 SLP144 T03240121 $,M
EKO,2024-07-25 15:56,-115.7860,40.8242,1367.00,72.00,60.00,65.92,0.00,0.00,0.00,30.32,1021.20,10.00,M,CLR,M,M,M,M,M,M,M,M,M,M,M,M,M,M,72.00,KEKO 251556Z AUTO 00000KT 10SM CLR 22/16 A3032 RMK AO2 SLP212 T02220156,M
WMC,2024-07-25 15:56,-117.8072,40.9019,1315.00,82.00,58.00,44.05,170.00,10.00,0.00,30.21,1017.30,10.00,M,CLR,M,M,M,M,M,M,M,M,M,M,M,M,M,M,81.94,KWMC 251556Z AUTO 17010KT 10SM CLR 28/14 A3021 RMK AO2 SLP173 T02780144,M
TPH,2024-07-25 15:56,-117.0904,38.0505,1654.00,78.00,52.00,40.36,360.00,3.00,0.00,30.35,1019.50,10.00,M,CLR,M,M,M,M,M,M,M,M,M,M,M,M,M,M,78.00,KTPH 251556Z AUTO 36003KT 10SM CLR 26/11 A3035 RMK AO2 SLP195 T02560111,M
LAS,2024-07-25 15:56,-115.1634,36.0719,663.00,98.00,57.00,25.69,M,4.00,0.00,30.06,1010.90,10.00,M,FEW,M,M,M,25000.00,M,M,M,M,M,M,M,M,M,M,97.02,KLAS 251556Z VRB04KT 10SM FEW250 37/14 A3006 RMK AO2 SLP109 T03670139 $,M
HND,2024-07-25 15:56,-115.1344,35.9729,742.79,97.00,57.00,26.49,0.00,0.00,0.00,30.10,1017.10,10.00,M,CLR,M,M,M,M,M,M,M,M,M,M,M,M,M,M,95.92,KHND 251556Z 00000KT 10SM CLR 36/14 A3010 RMK AO2 SLP171 T03610139,M
05U,2024-07-25 16:10,-116.0051,39.6042,1811.23,73.40,55.40,53.29,0.00,0.00,0.00,30.40,M,10.00,M,CLR,M,M,M,M,M,M,M,M,M,M,M,M,M,M,73.40,K05U 251610Z AUTO 00000KT 10SM CLR 23/13 A3040 RMK A01,M
BVU,2024-07-25 16:15,-114.8611,35.9475,671.00,96.80,55.40,25.15,150.00,5.00,0.00,30.05,M,10.00,M,CLR,M,M,M,M,M,M,M,M,M,M,M,M,M,M,95.14,KBVU 251615Z AUTO 15005KT 10SM CLR 36/13 A3005 RMK AO2,M
CXP,2024-07-25 16:15,-119.7326,39.1923,1431.00,82.40,51.80,34.69,0.00,0.00,0.00,30.28,M,10.00,M,CLR,M,M,M,M,M,M,M,M,M,M,M,M,M,M,81.20,KCXP 251615Z AUTO 00000KT 10SM CLR 28/11 A3028 RMK AO2,M
HTH,2024-07-25 16:15,-118.6315,38.5448,1282.89,80.60,51.80,36.79,0.00,0.00,0.00,30.25,M,10.00,M,CLR,M,M,M,M,M,M,M,M,M,M,M,M,M,M,80.08,KHTH 251615Z AUTO 00000KT 10SM CLR 27/11 A3025 RMK A01,M
10U,2024-07-25 16:15,-116.1876,41.9532,1637.00,80.60,53.60,39.30,M,M,0.00,30.27,M,10.00,M,CLR,M,M,M,M,M,M,M,M,M,M,M,M,M,M,80.29,K10U 251615Z AUTO 10SM CLR 27/12 A3027 RMK AO2,M
BAM,2024-07-25 16:15,-116.8743,40.5990,1382.36,73.40,62.60,68.94,0.00,0.00,0.00,30.28,M,10.00,M,CLR,M,M,M,M,M,M,M,M,M,M,M,M,M,M,73.40,KBAM 251615Z AUTO 00000KT 10SM CLR 23/17 A3028 RMK AO1,M
TMT,2024-07-25 16:15,-117.1971,39.4643,1749.34,70.00,57.20,63.82,0.00,0.00,0.00,30.38,M,10.00,M,CLR,M,M,M,M,M,M,M,M,M,M,M,M,M,M,70.00,KTMT 251615Z AUTO 00000KT 10SM CLR 21/14 A3038 RMK AO2 T02120140,M
RTS,2024-07-25 16:15,-119.8764,39.6682,1539.00,82.40,50.00,32.46,200.00,10.00,0.00,30.29,M,10.00,19.00,CLR,M,M,M,M,M,M,M,M,M,M,M,M,M,M,80.99,KRTS 251615Z AUTO 20010G19KT 170V250 10SM CLR 28/10 A3029 RMK AO2,M
MEV,2024-07-25 16:15,-119.7500,38.9963,1441.42,82.40,51.80,34.69,0.00,0.00,0.00,30.27,M,10.00,M,CLR,M,M,M,M,M,M,M,M,M,M,M,M,M,M,81.20,KMEV 251615Z AUTO 00000KT 10SM CLR 28/11 A3027 RMK AO2,M
05U,2024-07-25 16:30,-116.0051,39.6042,1811.23,75.20,53.60,46.98,0.00,0.00,0.00,30.39,M,10.00,M,CLR,M,M,M,M,M,M,M,M,M,M,M,M,M,M,75.20,K05U 251630Z AUTO 00000KT 10SM CLR 24/12 A3039 RMK A01,M
BVU,2024-07-25 16:35,-114.8611,35.9475,671.00,98.60,55.40,23.81,20.00,4.00,0.00,30.05,M,10.00,M,CLR,M,M,M,M,M,M,M,M,M,M,M,M,M,M,97.09,KBVU 251635Z AUTO 02004KT 10SM CLR 37/13 A3005 RMK AO2,M
CXP,2024-07-25 16:35,-119.7326,39.1923,1431.00,86.00,50.00,28.90,170.00,9.00,0.00,30.27,M,10.00,M,CLR,M,M,M,M,M,M,M,M,M,M,M,M,M,M,83.62,KCXP 251635Z AUTO 17009KT 10SM CLR 30/10 A3027 RMK AO2,M
RTS,2024-07-25 16:35,-119.8764,39.6682,1539.00,80.60,50.00,34.41,220.00,13.00,0.00,30.29,M,10.00,21.00,CLR,M,M,M,M,M,M,M,M,M,M,M,M,M,M,79.88,KRTS 251635Z AUTO 22013G21KT 10SM CLR 27/10 A3029 RMK AO2,M
MEV,2024-07-25 16:35,-119.7500,38.9963,1441.42,84.20,50.00,30.62,190.00,4.00,0.00,30.27,M,10.00,M,CLR,M,M,M,M,M,M,M,M,M,M,M,M,M,M,82.24,KMEV 251635Z AUTO 19004KT 10SM CLR 29/10 A3027 RMK AO2,M
HTH,2024-07-25 16:35,-118.6315,38.5448,1282.89,82.40,50.00,32.46,0.00,0.00,0.00,30.24,M,10.00,M,CLR,M,M,M,M,M,M,M,M,M,M,M,M,M,M,80.99,KHTH 251635Z AUTO 00000KT 10SM CLR 28/10 A3024 RMK A01,M
BAM,2024-07-25 16:35,-116.8743,40.5990,1382.36,75.20,62.60,64.91,0.00,0.00,0.00,30.28,M,10.00,M,CLR,M,M,M,M,M,M,M,M,M,M,M,M,M,M,75.20,KBAM 251635Z AUTO 00000KT 10SM CLR 24/17 A3028 RMK AO1,M
TMT,2024-07-25 16:35,-117.1971,39.4643,1749.34,72.70,58.00,59.94,0.00,0.00,0.00,30.37,M,10.00,M,CLR,M,M,M,M,M,M,M,M,M,M,M,M,M,M,72.70,KTMT 251635Z AUTO 00000KT 10SM CLR 23/15 A3037 RMK AO2 T02260145,M
10U,2024-07-25 16:35,-116.1876,41.9532,1637.00,82.40,51.80,34.69,M,M,0.00,30.27,M,10.00,M,CLR,M,M,M,M,M,M,M,M,M,M,M,M,M,M,81.20,K10U 251635Z AUTO 10SM CLR 28/11 A3027 RMK AO2,M
P68,2024-07-25 16:53,-116.0056,39.6014,1993.00,79.00,53.00,40.52,M,4.00,0.00,30.36,1018.80,M,M,M,M,M,M,M,M,M,M,M,M,M,M,M,M,M,79.00,KP68 251653Z AUTO VRB04KT 26/12 A3036 RMK AO1 SLP188 T02610117,M
DRA,2024-07-25 16:53,-116.0278,36.6206,1009.00,94.00,55.00,27.02,0.00,0.00,0.00,30.15,1014.80,10.00,M,CLR,M,M,M,M,M,M,M,M,M,M,M,M,M,M,92.06,KDRA 251653Z AUTO 00000KT 10SM CLR 34/13 A3015 RMK AO2 SLP148 T03440128,M
ELY,2024-07-25 16:53,-114.8453,39.2950,1909.00,76.00,56.00,49.92,180.00,4.00,0.00,30.40,1019.00,10.00,M,CLR,M,M,M,M,M,M,M,M,M,M,M,M,M,M,76.00,KELY 251653Z AUTO 18004KT 10SM CLR 24/13 A3040 RMK AO2 SLP190 T02440133,M
VGT,2024-07-25 16:53,-115.1933,36.2111,667.00,100.00,57.00,24.18,0.00,0.00,0.00,30.05,1015.70,10.00,M,CLR,M,M,M,M,M,M,M,M,M,M,M,M,M,M,99.24,KVGT 251653Z 00000KT 10SM CLR 38/14 A3005 RMK AO2 SLP157 T03780139,M
LOL,2024-07-25 16:53,-118.5701,40.0684,1192.43,85.00,56.00,37.20,210.00,8.00,0.00,30.20,1018.30,10.00,M,CLR,M,M,M,M,M,M,M,M,M,M,M,M,M,M,83.85,KLOL 251653Z AUTO 21008KT 10SM CLR 29/13 A3020 RMK AO2 SLP183 T02940133 $,M
NFL,2024-07-25 16:54,-118.7010,39.4166,1199.00,85.00,56.00,37.20,150.00,4.00,0.00,30.21,1019.30,10.00,M,FEW,SCT,SCT,M,8000.00,12000.00,18000.00,M,M,M,M,M,M,M,M,83.85,KNFL 251654Z 15004KT 10SM FEW080 SCT120 SCT180 29/13 A3021 RMK AO2 SLP193 FU SCT180 T02940133,M
RNO,2024-07-25 16:55,-119.7711,39.4839,1341.00,88.00,53.00,30.30,160.00,7.00,0.00,30.23,1016.70,10.00,M,SCT,SCT,M,M,10000.00,15000.00,M,M,M,M,M,M,M,M,M,85.78,KRNO 251655Z 16007KT 10SM SCT100 SCT150 31/12 A3023 RMK AO2 SLP167 T03110117,M
BVU,2024-07-25 16:55,-114.8611,35.9475,671.00,98.60,55.40,23.81,0.00,0.00,0.00,30.04,M,10.00,M,CLR,M,M,M,M,M,M,M,M,M,M,M,M,M,M,97.09,KBVU 251655Z AUTO 00000KT 10SM CLR 37/13 A3004 RMK AO2,M
CXP,2024-07-25 16:55,-119.7326,39.1923,1431.00,87.80,50.00,27.29,180.00,9.00,0.00,30.27,M,10.00,M,CLR,M,M,M,M,M,M,M,M,M,M,M,M,M,M,85.11,KCXP 251655Z AUTO 18009KT 10SM CLR 31/10 A3027 RMK AO2,M
RTS,2024-07-25 16:55,-119.8764,39.6682,1539.00,84.20,50.00,30.62,210.00,14.00,0.00,30.29,M,10.00,21.00,CLR,M,M,M,M,M,M,M,M,M,M,M,M,M,M,82.24,KRTS 251655Z AUTO 21014G21KT 10SM CLR 29/10 A3029 RMK AO2,M
05U,2024-07-25 16:55,-116.0051,39.6042,1811.23,77.00,51.80,41.42,0.00,0.00,0.00,30.39,M,10.00,M,CLR,M,M,M,M,M,M,M,M,M,M,M,M,M,M,77.00,K05U 251655Z AUTO 00000KT 10SM CLR 25/11 A3039 RMK A01,M
MEV,2024-07-25 16:55,-119.7500,38.9963,1441.42,84.20,50.00,30.62,220.00,5.00,0.00,30.27,M,8.00,M,FEW,M,M,M,8000.00,M,M,M,M,M,M,M,M,M,M,82.24,KMEV 251655Z AUTO 22005KT 8SM FEW080 29/10 A3027 RMK AO2,M
BAM,2024-07-25 16:55,-116.8743,40.5990,1382.36,77.00,62.60,61.13,0.00,0.00,0.00,30.27,M,10.00,M,CLR,M,M,M,M,M,M,M,M,M,M,M,M,M,M,77.00,KBAM 251655Z AUTO 00000KT 10SM CLR 25/17 A3027 RMK AO1,M
HTH,2024-07-25 16:55,-118.6315,38.5448,1282.89,82.40,51.80,34.69,0.00,0.00,0.00,30.24,M,10.00,M,CLR,M,M,M,M,M,M,M,M,M,M,M,M,M,M,81.20,KHTH 251655Z AUTO 00000KT 10SM CLR 28/11 A3024 RMK A01,M
LSV,2024-07-25 16:55,-115.0343,36.2362,570.00,99.30,52.30,20.81,0.00,0.00,0.00,30.00,1012.40,10.00,M,CLR,M,M,M,M,M,M,M,M,M,M,M,M,M,M,96.87,KLSV 251655Z AUTO 00000KT 10SM CLR 37/11 A3000 RMK AO2 SLP124 T03740113 $,M
TMT,2024-07-25 16:55,-117.1971,39.4643,1749.34,74.50,56.00,52.49,0.00,0.00,0.00,30.38,M,10.00,M,CLR,M,M,M,M,M,M,M,M,M,M,M,M,M,M,74.50,KTMT 251655Z AUTO 00000KT 10SM CLR 24/13 A3038 RMK AO2 T02360134,M
10U,2024-07-25 16:55,-116.1876,41.9532,1637.00,82.40,53.60,37.07,M,M,0.00,30.27,M,10.00,M,CLR,M,M,M,M,M,M,M,M,M,M,M,M,M,M,81.46,K10U 251655Z AUTO 10SM CLR 28/12 A3027 RMK AO2,M
INS,2024-07-25 16:55,-115.6733,36.5872,955.00,94.00,53.00,25.11,350.00,3.00,0.00,30.14,1014.10,10.00,M,CLR,M,M,M,M,M,M,M,M,M,M,M,M,M,M,91.53,KINS 251655Z AUTO 35003KT 10SM CLR 35/12 A3014 RMK AO2 SLP141 T03450116 $,M
EKO,2024-07-25 16:56,-115.7860,40.8242,1367.00,75.00,61.00,61.75,0.00,0.00,0.00,30.31,1020.50,10.00,M,CLR,M,M,M,M,M,M,M,M,M,M,M,M,M,M,75.00,KEKO 251656Z AUTO 00000KT 10SM CLR 24/16 A3031 RMK AO2 SLP205 T02390161,M
WMC,2024-07-25 16:56,-117.8072,40.9019,1315.00,87.00,56.00,34.90,180.00,12.00,0.00,30.20,1017.00,10.00,21.00,CLR,M,M,M,M,M,M,M,M,M,M,M,M,M,M,85.54,KWMC 251656Z AUTO 18012G21KT 10SM CLR 31/13 A3020 RMK AO2 SLP170 T03060133,M
HND,2024-07-25 16:56,-115.1344,35.9729,742.79,100.00,59.00,25.98,40.00,5.00,0.00,30.10,1016.70,10.00,M,CLR,M,M,M,M,M,M,M,M,M,M,M,M,M,M,100.11,KHND 251656Z 04005KT 10SM CLR 38/15 A3010 RMK AO2 SLP167 T03780150,M
TPH,2024-07-25 16:56,-117.0904,38.0505,1654.00,82.00,51.00,34.12,M,3.00,0.00,30.34,1019.00,10.00,M,CLR,M,M,M,M,M,M,M,M,M,M,M,M,M,M,80.84,KTPH 251656Z AUTO VRB03KT 10SM CLR 28/11 A3034 RMK AO2 SLP190 T02780106,M
LAS,2024-07-25 16:56,-115.1634,36.0719,663.00,100.00,57.00,24.18,M,6.00,0.00,30.06,1010.90,10.00,M,FEW,FEW,M,M,12000.00,25000.00,M,M,M,M,M,M,M,M,M,99.24,KLAS 251656Z VRB06KT 10SM FEW120 FEW250 38/14 A3006 RMK AO2 SLP109 T03780139 $,M
05U,2024-07-25 17:10,-116.0051,39.6042,1811.23,78.80,51.80,39.02,0.00,0.00,0.00,30.39,M,10.00,M,CLR,M,M,M,M,M,M,M,M,M,M,M,M,M,M,78.80,K05U 251710Z AUTO 00000KT 10SM CLR 26/11 A3039 RMK A01,M
BVU,2024-07-25 17:15,-114.8611,35.9475,671.00,100.40,53.60,21.11,M,3.00,0.00,30.04,M,10.00,M,CLR,M,M,M,M,M,M,M,M,M,M,M,M,M,M,98.44,KBVU 251715Z AUTO VRB03KT 10SM CLR 38/12 A3004 RMK AO2,M
CXP,2024-07-25 17:15,-119.7326,39.1923,1431.00,89.60,50.00,25.79,M,6.00,0.00,30.27,M,10.00,14.00,FEW,M,M,M,8000.00,M,M,M,M,M,M,M,M,M,M,86.70,KCXP 251715Z AUTO VRB06G14KT 10SM FEW080 32/10 A3027 RMK AO2,M
RTS,2024-07-25 17:15,-119.8764,39.6682,1539.00,84.20,50.00,30.62,240.00,11.00,0.00,30.29,M,10.00,18.00,CLR,M,M,M,M,M,M,M,M,M,M,M,M,M,M,82.24,KRTS 251715Z AUTO 24011G18KT 10SM CLR 29/10 A3029 RMK AO2,M
MEV,2024-07-25 17:15,-119.7500,38.9963,1441.42,86.00,50.00,28.90,M,4.00,0.00,30.26,M,10.00,M,CLR,M,M,M,M,M,M,M,M,M,M,M,M,M,M,83.62,KMEV 251715Z AUTO VRB04KT 10SM CLR 30/10 A3026 RMK AO2,M
BAM,2024-07-25 17:15,-116.8743,40.5990,1382.36,78.80,64.40,61.36,0.00,0.00,0.00,30.27,M,10.00,M,CLR,M,M,M,M,M,M,M,M,M,M,M,M,M,M,78.80,KBAM 251715Z AUTO 00000KT 10SM CLR 26/18 A3027 RMK AO1,M
HTH,2024-07-25 17:15,-118.6315,38.5448,1282.89,84.20,51.80,32.73,330.00,5.00,0.00,30.24,M,10.00,M,CLR,M,M,M,M,M,M,M,M,M,M,M,M,M,M,82.48,KHTH 251715Z AUTO 33005KT 10SM CLR 29/11 A3024 RMK A01,M
10U,2024-07-25 17:15,-116.1876,41.9532,1637.00,84.20,53.60,34.97,M,M,0.00,30.27,M,10.00,M,CLR,M,M,M,M,M,M,M,M,M,M,M,M,M,M,82.76,K10U 251715Z AUTO 10SM CLR 29/12 A3027 RMK AO2,M
TMT,2024-07-25 17:15,-117.1971,39.4643,1749.34,77.50,54.30,44.65,190.00,3.00,0.00,30.37,M,10.00,M,CLR,M,M,M,M,M,M,M,M,M,M,M,M,M,M,77.50,KTMT 251715Z AUTO 19003KT 10SM CLR 25/12 A3037 RMK AO2 T02530124,M
05U,2024-07-25 17:30,-116.0051,39.6042,1811.23,80.60,51.80,36.79,0.00,0.00,0.00,30.39,M,10.00,M,CLR,M,M,M,M,M,M,M,M,M,M,M,M,M,M,80.08,K05U 251730Z AUTO 00000KT 10SM CLR 27/11 A3039 RMK A01,M
BVU,2024-07-25 17:35,-114.8611,35.9475,671.00,100.40,53.60,21.11,180.00,4.00,0.00,30.04,M,10.00,M,CLR,M,M,M,M,M,M,M,M,M,M,M,M,M,M,98.44,KBVU 251735Z AUTO 18004KT 10SM CLR 38/12 A3004 RMK AO2,M
CXP,2024-07-25 17:35,-119.7326,39.1923,1431.00,87.80,50.00,27.29,M,5.00,0.00,30.27,M,10.00,17.00,SCT,M,M,M,8000.00,M,M,M,M,M,M,M,M,M,M,85.11,KCXP 251735Z AUTO VRB05G17KT 10SM SCT080 31/10 A3027 RMK AO2,M
RTS,2024-07-25 17:35,-119.8764,39.6682,1539.00,84.20,50.00,30.62,220.00,10.00,0.00,30.28,M,10.00,21.00,FEW,M,M,M,8000.00,M,M,M,M,M,M,M,M,M,M,82.24,KRTS 251735Z AUTO 22010G21KT 10SM FEW080 29/10 A3028 RMK AO2,M
MEV,2024-07-25 17:35,-119.7500,38.9963,1441.42,87.80,50.00,27.29,230.00,9.00,0.00,30.26,M,10.00,15.00,CLR,M,M,M,M,M,M,M,M,M,M,M,M,M,M,85.11,KMEV 251735Z AUTO 23009G15KT 10SM CLR 31/10 A3026 RMK AO2,M
BAM,2024-07-25 17:35,-116.8743,40.5990,1382.36,78.80,64.40,61.36,120.00,3.00,0.00,30.27,M,10.00,M,CLR,M,M,M,M,M,M,M,M,M,M,M,M,M,M,78.80,KBAM 251735Z AUTO 12003KT 10SM CLR 26/18 A3027 RMK AO1,M
HTH,2024-07-25 17:35,-118.6315,38.5448,1282.89,86.00,50.00,28.90,310.00,5.00,0.00,30.23,M,10.00,M,CLR,M,M,M,M,M,M,M,M,M,M,M,M,M,M,83.62,KHTH 251735Z AUTO 31005KT 10SM CLR 30/10 A3023 RMK A01,M
10U,2024-07-25 17:35,-116.1876,41.9532,1637.00,84.20,51.80,32.73,M,M,0.00,30.27,M,10.00,M,CLR,M,M,M,M,M,M,M,M,M,M,M,M,M,M,82.48,K10U 251735Z AUTO 10SM CLR 29/11 A3027 RMK AO2,M
TMT,2024-07-25 17:35,-117.1971,39.4643,1749.34,79.00,53.40,41.12,200.00,3.00,0.00,30.37,M,10.00,M,CLR,M,M,M,M,M,M,M,M,M,M,M,M,M,M,79.00,KTMT 251735Z AUTO 20003KT 10SM CLR 26/12 A3037 RMK AO2 T02610119,M
05U,2024-07-25 17:50,-116.0051,39.6042,1811.23,80.60,50.00,34.41,0.00,0.00,0.00,30.38,M,10.00,M,CLR,M,M,M,M,M,M,M,M,M,M,M,M,M,M,79.88,K05U 251750Z AUTO 00000KT 10SM CLR 27/10 A3038 RMK A01,M
LOL,2024-07-25 17:53,-118.5701,40.0684,1192.43,90.00,53.00,28.45,210.00,14.00,0.00,30.19,1017.70,10.00,21.00,CLR,M,M,M,M,M,M,M,M,M,M,M,M,M,M,87.60,KLOL 251753Z AUTO 21014G21KT 10SM CLR 32/12 A3019 RMK AO2 SLP177 T03220117 10322 20144 58010 $,M
DRA,2024-07-25 17:53,-116.0278,36.6206,1009.00,97.00,54.00,23.75,M,M,0.00,30.14,1014.40,10.00,M,CLR,M,M,M,M,M,M,M,M,M,M,M,M,M,M,94.92,KDRA 251753Z AUTO 10SM CLR 36/12 A3014 RMK AO2 SLP144 T03610122 10361 20272 58007,M
ELY,2024-07-25 17:53,-114.8453,39.2950,1909.00,80.00,52.00,37.79,M,3.00,0.00,30.39,1018.00,10.00,M,CLR,M,M,M,M,M,M,M,M,M,M,M,M,M,M,79.75,KELY 251753Z AUTO VRB03KT 10SM CLR 27/11 A3039 RMK AO2 SLP180 T02670111 10272 20133 57008,M
VGT,2024-07-25 17:53,-115.1933,36.2111,667.00,102.00,57.00,22.77,M,4.00,0.00,30.04,1015.30,10.00,M,CLR,M,M,M,M,M,M,M,M,M,M,M,M,M,M,101.47,KVGT 251753Z VRB04KT 10SM CLR 39/14 A3004 RMK AO2 SLP153 T03890139 10389 20333 58005,M
P68,2024-07-25 17:53,-116.0056,39.6014,1993.00,83.00,50.00,31.83,100.00,7.00,0.00,30.35,1017.90,M,M,M,M,M,M,M,M,M,M,M,M,M,M,M,M,M,81.39,KP68 251753Z AUTO 10007KT 28/10 A3035 RMK AO1 SLP179 T02830100 10283 20117 58010,M
NFL,2024-07-25 17:54,-118.7010,39.4166,1199.00,89.00,54.00,30.45,200.00,4.00,0.00,30.20,1018.90,10.00,M,SCT,SCT,BKN,M,7000.00,12000.00,20000.00,M,M,M,M,M,M,M,M,86.89,KNFL 251754Z 20004KT 10SM SCT070 SCT120 BKN200 32/12 A3020 RMK AO2 SLP189 FU BKN200 T03170122 10317 20206 58006,M
RNO,2024-07-25 17:55,-119.7711,39.4839,1341.00,90.00,52.00,27.42,M,6.00,0.00,30.22,1016.50,10.00,M,SCT,M,M,M,9000.00,M,M,M,M,M,M,M,M,M,M,87.40,KRNO 251755Z VRB06KT 10SM SCT090 32/11 A3022 RMK AO2 SLP165 T03220111 10333 20211 57007,M
BVU,2024-07-25 17:55,-114.8611,35.9475,671.00,102.20,53.60,20.00,M,3.00,0.00,30.04,M,10.00,M,CLR,M,M,M,M,M,M,M,M,M,M,M,M,M,M,100.38,KBVU 251755Z AUTO VRB03KT 10SM CLR 39/12 A3004 RMK AO2,M
CXP,2024-07-25 17:55,-119.7326,39.1923,1431.00,87.80,48.20,25.52,240.00,11.00,0.00,30.27,M,10.00,16.00,FEW,M,M,M,7500.00,M,M,M,M,M,M,M,M,M,M,84.87,KCXP 251755Z AUTO 24011G16KT 10SM FEW075 31/09 A3027 RMK AO2,M
RTS,2024-07-25 17:55,-119.8764,39.6682,1539.00,86.00,50.00,28.90,220.00,18.00,0.00,30.28,M,10.00,24.00,FEW,FEW,M,M,7000.00,8000.00,M,M,M,M,M,M,M,M,M,83.62,KRTS 251755Z AUTO 22018G24KT 10SM FEW070 FEW080 30/10 A3028 RMK AO2,M
MEV,2024-07-25 17:55,-119.7500,38.9963,1441.42,87.80,48.20,25.52,260.00,9.00,0.00,30.26,M,9.00,15.00,CLR,M,M,M,M,M,M,M,M,M,M,M,M,M,M,84.87,KMEV 251755Z AUTO 26009G15KT 9SM CLR 31/09 A3026 RMK AO2,M
BAM,2024-07-25 17:55,-116.8743,40.5990,1382.36,80.60,62.60,54.30,0.00,0.00,0.00,30.26,M,10.00,M,CLR,M,M,M,M,M,M,M,M,M,M,M,M,M,M,81.84,KBAM 251755Z AUTO 00000KT 10SM CLR 27/17 A3026 RMK AO1,M
HTH,2024-07-25 17:55,-118.6315,38.5448,1282.89,87.80,50.00,27.29,320.00,8.00,0.00,30.23,M,10.00,M,CLR,M,M,M,M,M,M,M,M,M,M,M,M,M,M,85.11,KHTH 251755Z AUTO 32008KT 10SM CLR 31/10 A3023 RMK A01,M
TMT,2024-07-25 17:55,-117.1971,39.4643,1749.34,81.70,51.30,34.84,230.00,6.00,0.00,30.36,M,10.00,M,CLR,M,M,M,M,M,M,M,M,M,M,M,M,M,M,80.69,KTMT 251755Z AUTO 23006KT 10SM CLR 28/11 A3036 RMK AO2 T02760107 10276 20085,M
10U,2024-07-25 17:55,-116.1876,41.9532,1637.00,86.00,51.80,30.90,M,M,0.00,30.26,M,10.00,M,CLR,M,M,M,M,M,M,M,M,M,M,M,M,M,M,83.87,K10U 251755Z AUTO 10SM CLR 30/11 A3026 RMK AO2,M
INS,2024-07-25 17:55,-115.6733,36.5872,955.00,96.30,50.00,20.94,0.00,0.00,0.00,30.12,1013.50,10.00,M,CLR,M,M,M,M,M,M,M,M,M,M,M,M,M,M,93.20,KINS 251755Z AUTO 00000KT 10SM CLR 36/10 A3012 RMK AO2 SLP135 T03570100 10360 20266 57009 $,M
LSV,2024-07-25 17:55,-115.0343,36.2362,570.00,101.00,52.30,19.77,0.00,0.00,0.00,29.99,1012.10,10.00,M,CLR,M,M,M,M,M,M,M,M,M,M,M,M,M,M,98.68,KLSV 251755Z AUTO 00000KT 10SM CLR 38/11 A2999 RMK AO2 SLP121 T03830113 10387 20323 58007 $,M
HND,2024-07-25 17:56,-115.1344,35.9729,742.79,102.00,57.00,22.77,M,5.00,0.00,30.08,1016.30,10.00,M,CLR,M,M,M,M,M,M,M,M,M,M,M,M,M,M,101.47,KHND 251756Z VRB05KT 10SM CLR 39/14 A3008 RMK AO2 SLP163 T03890139 10394 20294 58007,M
TPH,2024-07-25 17:56,-117.0904,38.0505,1654.00,87.00,49.00,26.97,30.00,5.00,0.00,30.33,1018.10,10.00,M,CLR,M,M,M,M,M,M,M,M,M,M,M,M,M,M,84.30,KTPH 251756Z AUTO 03005KT 10SM CLR 31/09 A3033 RMK AO2 SLP181 T03060094 10306 20172 58008,M
LAS,2024-07-25 17:56,-115.1634,36.0719,663.00,103.00,56.00,21.31,130.00,6.00,0.00,30.04,1010.00,10.00,M,FEW,M,M,M,12000.00,M,M,M,M,M,M,M,M,M,M,102.16,KLAS 251756Z 13006KT 10SM FEW120 39/13 A3004 RMK AO2 SLP100 T03940133 10394 20339 58009 $,M
EKO,2024-07-25 17:56,-115.7860,40.8242,1367.00,80.00,61.00,52.33,240.00,3.00,0.00,30.29,1020.20,10.00,M,CLR,M,M,M,M,M,M,M,M,M,M,M,M,M,M,81.03,KEKO 251756Z AUTO 24003KT 10SM CLR 27/16 A3029 RMK AO2 SLP202 T02670161 10267 20161 58009,M
WMC,2024-07-25 17:56,-117.8072,40.9019,1315.00,91.00,53.00,27.57,220.00,14.00,0.00,30.19,1016.60,10.00,21.00,CLR,M,M,M,M,M,M,M,M,M,M,M,M,M,M,88.55,KWMC 251756Z AUTO 22014G21KT 10SM CLR 33/12 A3019 RMK AO2 SLP166 T03280117 10328 20178 56009,M
05U,2024-07-25 18:10,-116.0051,39.6042,1811.23,84.20,48.20,28.63,0.00,0.00,0.00,30.37,M,10.00,M,CLR,M,M,M,M,M,M,M,M,M,M,M,M,M,M,82.04,K05U 251810Z AUTO 00000KT 10SM CLR 29/09 A3037 RMK A01,M
WMC,2024-07-25 18:12,-117.8072,40.9019,1315.00,92.00,53.00,26.72,210.00,16.00,0.00,30.19,M,10.00,23.00,CLR,M,M,M,M,M,M,M,M,M,M,M,M,M,M,89.53,KWMC 251812Z AUTO 21016G23KT 10SM CLR 33/12 A3019 RMK AO2 WSHFT 1752 T03330117,M
INS,2024-07-25 18:12,-115.6733,36.5872,955.00,96.80,50.00,20.62,0.00,0.00,0.00,30.12,M,10.00,M,CLR,M,M,M,M,M,M,M,M,M,M,M,M,M,M,93.71,KINS 251812Z 00000KT 10SM CLR 36/10 A3012,M
INS,2024-07-25 18:14,-115.6733,36.5872,955.00,97.30,50.70,20.84,M,3.00,0.00,30.12,1013.70,10.00,M,CLR,M,M,M,M,M,M,M,M,M,M,M,M,M,M,94.38,KINS 251814Z VRB03KT 10SM CLR 36/10 A3012 RMK SLP137 T03630104 $,M
BVU,2024-07-25 18:15,-114.8611,35.9475,671.00,102.20,53.60,20.00,M,4.00,0.00,30.03,M,10.00,M,CLR,M,M,M,M,M,M,M,M,M,M,M,M,M,M,100.38,KBVU 251815Z AUTO VRB04KT 10SM CLR 39/12 A3003 RMK AO2,M
CXP,2024-07-25 18:15,-119.7326,39.1923,1431.00,89.60,48.20,24.11,250.00,13.00,0.00,30.27,M,10.00,19.00,CLR,M,M,M,M,M,M,M,M,M,M,M,M,M,M,86.44,KCXP 251815Z AUTO 25013G19KT 10SM CLR 32/09 A3027 RMK AO2,M
RTS,2024-07-25 18:15,-119.8764,39.6682,1539.00,86.00,50.00,28.90,230.00,14.00,0.00,30.28,M,10.00,23.00,CLR,M,M,M,M,M,M,M,M,M,M,M,M,M,M,83.62,KRTS 251815Z AUTO 23014G23KT 10SM CLR 30/10 A3028 RMK AO2,M
MEV,2024-07-25 18:15,-119.7500,38.9963,1441.42,89.60,48.20,24.11,M,4.00,0.00,30.26,M,10.00,13.00,FEW,M,M,M,8500.00,M,M,M,M,M,M,M,M,M,M,86.44,KMEV 251815Z AUTO VRB04G13KT 10SM FEW085 32/09 A3026 RMK AO2,M
BAM,2024-07-25 18:15,-116.8743,40.5990,1382.36,82.40,62.60,51.21,270.00,3.00,0.00,30.26,M,10.00,M,CLR,M,M,M,M,M,M,M,M,M,M,M,M,M,M,83.41,KBAM 251815Z AUTO 27003KT 10SM CLR 28/17 A3026 RMK AO1,M
HTH,2024-07-25 18:15,-118.6315,38.5448,1282.89,87.80,50.00,27.29,M,M,0.00,30.22,M,10.00,M,CLR,M,M,M,M,M,M,M,M,M,M,M,M,M,M,85.11,KHTH 251815Z AUTO 6/33333306KT 10SM CLR 31/10 A3022 RMK A01,M
TMT,2024-07-25 18:15,-117.1971,39.4643,1749.34,83.00,51.30,33.40,240.00,7.00,0.00,30.35,M,10.00,M,CLR,M,M,M,M,M,M,M,M,M,M,M,M,M,M,81.55,KTMT 251815Z AUTO 24007KT 210V270 10SM CLR 28/11 A3035 RMK AO2 T02830107,M
10U,2024-07-25 18:15,-116.1876,41.9532,1637.00,86.00,51.80,30.90,M,M,0.00,30.26,M,10.00,M,CLR,M,M,M,M,M,M,M,M,M,M,M,M,M,M,83.87,K10U 251815Z AUTO 10SM CLR 30/11 A3026 RMK AO2,M
WMC,2024-07-25 18:27,-117.8072,40.9019,1315.00,93.00,53.00,25.90,220.00,16.00,0.00,30.18,M,10.00,23.00,CLR,M,M,M,M,M,M,M,M,M,M,M,M,M,M,90.52,KWMC 251827Z AUTO 22016G23KT 10SM CLR 34/12 A3018 RMK AO2 WSHFT 1807 T03390117,M
CXP,2024-07-25 18:35,-119.7326,39.1923,1431.00,89.60,50.00,25.79,250.00,11.00,0.00,30.26,M,10.00,22.00,CLR,M,M,M,M,M,M,M,M,M,M,M,M,M,M,86.70,KCXP 251835Z AUTO 25011G22KT 230V290 10SM CLR 32/10 A3026 RMK AO2,M
RTS,2024-07-25 18:35,-119.8764,39.6682,1539.00,86.00,48.20,27.03,230.00,16.00,0.00,30.28,M,10.00,M,CLR,M,M,M,M,M,M,M,M,M,M,M,M,M,M,83.40,KRTS 251835Z AUTO 23016KT 10SM CLR 30/09 A3028 RMK AO2,M
05U,2024-07-25 18:35,-116.0051,39.6042,1811.23,86.00,46.40,25.26,0.00,0.00,0.00,30.36,M,10.00,10.00,CLR,M,M,M,M,M,M,M,M,M,M,M,M,M,M,83.22,K05U 251835Z AUTO 00000G10KT 10SM CLR 30/08 A3036 RMK A01,M
MEV,2024-07-25 18:35,-119.7500,38.9963,1441.42,91.40,48.20,22.78,230.00,11.00,0.00,30.25,M,10.00,M,FEW,M,M,M,9000.00,M,M,M,M,M,M,M,M,M,M,88.09,KMEV 251835Z AUTO 23011KT 10SM FEW090 33/09 A3025 RMK AO2,M
HTH,2024-07-25 18:35,-118.6315,38.5448,1282.89,89.60,50.00,25.79,10.00,7.00,0.00,30.21,M,10.00,M,CLR,M,M,M,M,M,M,M,M,M,M,M,M,M,M,86.70,KHTH 251835Z AUTO 01007KT 10SM CLR 32/10 A3021 RMK A01,M
BAM,2024-07-25 18:35,-116.8743,40.5990,1382.36,84.20,62.60,48.32,0.00,0.00,0.00,30.25,M,10.00,M,CLR,M,M,M,M,M,M,M,M,M,M,M,M,M,M,85.03,KBAM 251835Z AUTO 00000KT 10SM CLR 29/17 A3025 RMK AO1,M
BVU,2024-07-25 18:35,-114.8611,35.9475,671.00,104.00,53.60,18.95,M,3.00,0.00,30.02,M,10.00,M,CLR,M,M,M,M,M,M,M,M,M,M,M,M,M,M,102.31,KBVU 251835Z AUTO VRB03KT 10SM CLR 40/12 A3002 RMK AO2,M
TMT,2024-07-25 18:35,-117.1971,39.4643,1749.34,83.00,50.50,32.43,200.00,5.00,0.00,30.35,M,10.00,M,CLR,M,M,M,M,M,M,M,M,M,M,M,M,M,M,81.45,KTMT 251835Z AUTO 20005KT 10SM CLR 28/10 A3035 RMK AO2 T02840103,M
10U,2024-07-25 18:35,-116.1876,41.9532,1637.00,87.80,53.60,31.17,M,M,0.00,30.25,M,10.00,M,FEW,M,M,M,6500.00,M,M,M,M,M,M,M,M,M,M,85.72,K10U 251835Z AUTO 10SM FEW065 31/12 A3025 RMK AO2,M
P68,2024-07-25 18:53,-116.0056,39.6014,1993.00,85.00,46.00,25.69,M,4.00,0.00,30.33,1017.40,M,M,M,M,M,M,M,M,M,M,M,M,M,M,M,M,M,82.42,KP68 251853Z AUTO VRB04KT 29/08 A3033 RMK AO1 SLP174 T02940078,M
DRA,2024-07-25 18:53,-116.0278,36.6206,1009.00,98.00,53.00,22.21,M,4.00,0.00,30.13,1014.00,10.00,18.00,CLR,M,M,M,M,M,M,M,M,M,M,M,M,M,M,95.69,KDRA 251853Z AUTO VRB04G18KT 10SM CLR 37/12 A3013 RMK AO2 SLP140 T03670117,M
ELY,2024-07-25 18:53,-114.8453,39.2950,1909.00,83.00,53.00,35.56,M,6.00,0.00,30.37,1017.40,10.00,M,CLR,M,M,M,M,M,M,M,M,M,M,M,M,M,M,81.78,KELY 251853Z AUTO VRB06KT 10SM CLR 28/12 A3037 RMK AO2 SLP174 T02830117,M
VGT,2024-07-25 18:53,-115.1933,36.2111,667.00,105.00,57.00,20.82,M,M,0.00,30.03,1014.80,10.00,M,CLR,M,M,M,M,M,M,M,M,M,M,M,M,M,M,104.82,KVGT 251853Z 10SM CLR 41/14 A3003 RMK AO2 SLP148 T04060139,M
LOL,2024-07-25 18:53,-118.5701,40.0684,1192.43,91.00,52.00,26.57,220.00,10.00,0.00,30.17,1017.00,10.00,20.00,CLR,M,M,M,M,M,M,M,M,M,M,M,M,M,M,88.35,KLOL 251853Z AUTO 22010G20KT 10SM CLR 33/11 A3017 RMK AO2 SLP170 T03280111 $,M
BVU,2024-07-25 18:55,-114.8611,35.9475,671.00,104.00,51.80,17.74,0.00,0.00,0.00,30.02,M,10.00,M,CLR,M,M,M,M,M,M,M,M,M,M,M,M,M,M,101.69,KBVU 251855Z AUTO 00000KT 10SM CLR 40/11 A3002 RMK AO2,M
CXP,2024-07-25 18:55,-119.7326,39.1923,1431.00,89.60,48.20,24.11,250.00,9.00,0.00,30.26,M,10.00,21.00,CLR,M,M,M,M,M,M,M,M,M,M,M,M,M,M,86.44,KCXP 251855Z AUTO 25009G21KT 200V270 10SM CLR 32/09 A3026 RMK AO2,M
RNO,2024-07-25 18:55,-119.7711,39.4839,1341.00,93.00,50.00,23.18,270.00,9.00,0.00,30.21,1016.00,10.00,23.00,SCT,M,M,M,9000.00,M,M,M,M,M,M,M,M,M,M,89.90,KRNO 251855Z 27009G23KT 10SM SCT090 34/10 A3021 RMK AO2 SLP160 T03390100,M
RTS,2024-07-25 18:55,-119.8764,39.6682,1539.00,87.80,48.20,25.52,220.00,15.00,0.00,30.28,M,10.00,22.00,CLR,M,M,M,M,M,M,M,M,M,M,M,M,M,M,84.87,KRTS 251855Z AUTO 22015G22KT 10SM CLR 31/09 A3028 RMK AO2,M
05U,2024-07-25 18:55,-116.0051,39.6042,1811.23,86.00,46.40,25.26,0.00,0.00,0.00,30.36,M,10.00,M,CLR,M,M,M,M,M,M,M,M,M,M,M,M,M,M,83.22,K05U 251855Z AUTO 00000KT 10SM CLR 30/08 A3036 RMK A01,M
MEV,2024-07-25 18:55,-119.7500,38.9963,1441.42,91.40,48.20,22.78,240.00,8.00,0.00,30.25,M,10.00,17.00,CLR,M,M,M,M,M,M,M,M,M,M,M,M,M,M,88.09,KMEV 251855Z AUTO 24008G17KT 220V280 10SM CLR 33/09 A3025 RMK AO2,M
HTH,2024-07-25 18:55,-118.6315,38.5448,1282.89,91.40,48.20,22.78,M,5.00,0.00,30.21,M,10.00,M,CLR,M,M,M,M,M,M,M,M,M,M,M,M,M,M,88.09,KHTH 251855Z AUTO VRB05KT 10SM CLR 33/09 A3021 RMK A01,M
BAM,2024-07-25 18:55,-116.8743,40.5990,1382.36,86.00,60.80,42.80,210.00,3.00,0.00,30.24,M,10.00,M,CLR,M,M,M,M,M,M,M,M,M,M,M,M,M,M,86.05,KBAM 251855Z AUTO 21003KT 10SM CLR 30/16 A3024 RMK AO1,M
TMT,2024-07-25 18:55,-117.1971,39.4643,1749.34,84.00,50.70,31.63,210.00,7.00,0.00,30.34,M,10.00,M,CLR,M,M,M,M,M,M,M,M,M,M,M,M,M,M,82.18,KTMT 251855Z AUTO 21007KT 10SM CLR 29/10 A3034 RMK AO2 T02880104,M
10U,2024-07-25 18:55,-116.1876,41.9532,1637.00,87.80,51.80,29.18,M,M,0.00,30.25,M,10.00,M,BKN,BKN,M,M,7000.00,8000.00,M,M,M,M,M,M,M,M,M,85.39,K10U 251855Z AUTO 10SM BKN070 BKN080 31/11 A3025 RMK AO2,M
INS,2024-07-25 18:55,-115.6733,36.5872,955.00,98.40,50.40,19.93,40.00,3.00,0.00,30.11,1013.20,10.00,M,CLR,M,M,M,M,M,M,M,M,M,M,M,M,M,M,95.44,KINS 251855Z AUTO 04003KT 10SM CLR 37/10 A3011 RMK AO2 SLP132 T03690102 $,M
LSV,2024-07-25 18:55,-115.0343,36.2362,570.00,105.00,51.30,16.91,90.00,3.00,0.00,29.97,1011.30,10.00,M,CLR,M,M,M,M,M,M,M,M,M,M,M,M,M,M,102.57,KLSV 251855Z AUTO 09003KT 10SM CLR 41/11 A2997 RMK AO2 SLP113 T04050107 $,M
EKO,2024-07-25 18:56,-115.7860,40.8242,1367.00,85.00,59.00,41.44,210.00,5.00,0.00,30.28,1019.20,10.00,M,CLR,M,M,M,M,M,M,M,M,M,M,M,M,M,M,84.59,KEKO 251856Z AUTO 21005KT 10SM CLR 29/15 A3028 RMK AO2 SLP192 T02940150,M
WMC,2024-07-25 18:56,-117.8072,40.9019,1315.00,94.00,52.00,24.20,230.00,13.00,0.00,30.18,1015.80,10.00,21.00,CLR,M,M,M,M,M,M,M,M,M,M,M,M,M,M,91.30,KWMC 251856Z AUTO 23013G21KT 200V260 10SM CLR 34/11 A3018 RMK AO2 WSHFT 1807 SLP158 T03440111,M
HND,2024-07-25 18:56,-115.1344,35.9729,742.79,105.00,54.00,18.67,170.00,9.00,0.00,30.07,1015.70,10.00,15.00,CLR,M,M,M,M,M,M,M,M,M,M,M,M,M,M,103.53,KHND 251856Z 17009G15KT 10SM CLR 41/12 A3007 RMK AO2 SLP157 T04060122,M
TPH,2024-07-25 18:56,-117.0904,38.0505,1654.00,89.00,47.00,23.49,210.00,4.00,0.00,30.31,1017.40,10.00,M,CLR,M,M,M,M,M,M,M,M,M,M,M,M,M,M,85.77,KTPH 251856Z AUTO 21004KT 10SM CLR 32/08 A3031 RMK AO2 SLP174 T03170083,M
LAS,2024-07-25 18:56,-115.1634,36.0719,663.00,107.00,56.00,18.93,90.00,7.00,0.00,30.03,1009.70,10.00,M,FEW,M,M,M,12000.00,M,M,M,M,M,M,M,M,M,M,106.54,KLAS 251856Z 09007KT 030V130 10SM FEW120 42/13 A3003 RMK AO2 SLP097 T04170133 $,M
INS,2024-07-25 19:00,-115.6733,36.5872,955.00,99.00,49.60,19.00,M,4.00,0.00,30.10,1012.90,10.00,M,CLR,M,M,M,M,M,M,M,M,M,M,M,M,M,M,95.88,KINS 251900Z VRB04KT 10SM CLR 37/10 A3010 RMK SLP129 T03730098 $,M
RTS,2024-07-25 19:00,-119.8764,39.6682,1539.00,87.80,48.20,25.52,210.00,17.00,0.00,30.28,M,10.00,24.00,CLR,M,M,M,M,M,M,M,M,M,M,M,M,M,M,84.87,KRTS 251900Z AUTO 21017G24KT 10SM CLR 31/09 A3028 RMK AO2,M
MEV,2024-07-25 19:00,-119.7500,38.9963,1441.42,91.40,48.20,22.78,220.00,11.00,0.00,30.25,M,10.00,M,CLR,M,M,M,M,M,M,M,M,M,M,M,M,M,M,88.09,KMEV 251900Z AUTO 22011KT 10SM CLR 33/09 A3025 RMK AO2,M
BVU,2024-07-25 19:15,-114.8611,35.9475,671.00,105.80,50.00,15.73,170.00,7.00,0.00,30.01,M,10.00,M,CLR,M,M,M,M,M,M,M,M,M,M,M,M,M,M,102.98,KBVU 251915Z AUTO 17007KT 10SM CLR 41/10 A3001 RMK AO2,M
CXP,2024-07-25 19:15,-119.7326,39.1923,1431.00,89.60,50.00,25.79,220.00,11.00,0.00,30.26,M,10.00,21.00,FEW,M,M,M,8500.00,M,M,M,M,M,M,M,M,M,M,86.70,KCXP 251915Z AUTO 22011G21KT 10SM FEW085 32/10 A3026 RMK AO2,M
05U,2024-07-25 19:15,-116.0051,39.6042,1811.23,87.80,42.80,20.79,0.00,0.00,0.00,30.35,M,10.00,14.00,CLR,M,M,M,M,M,M,M,M,M,M,M,M,M,M,84.40,K05U 251915Z AUTO 00000G14KT 10SM CLR 31/06 A3035 RMK A01,M
BAM,2024-07-25 19:15,-116.8743,40.5990,1382.36,87.80,59.00,37.90,250.00,12.00,0.00,30.23,M,10.00,M,CLR,M,M,M,M,M,M,M,M,M,M,M,M,M,M,87.12,KBAM 251915Z AUTO 25012KT 10SM CLR 31/15 A3023 RMK AO1,M
HTH,2024-07-25 19:15,-118.6315,38.5448,1282.89,93.20,46.40,20.13,340.00,6.00,0.00,30.20,M,10.00,M,CLR,M,M,M,M,M,M,M,M,M,M,M,M,M,M,89.55,KHTH 251915Z AUTO 34006KT 10SM CLR 34/08 A3020 RMK A01,M
10U,2024-07-25 19:15,-116.1876,41.9532,1637.00,87.80,51.80,29.18,M,M,0.00,30.24,M,10.00,M,BKN,BKN,M,M,7000.00,8500.00,M,M,M,M,M,M,M,M,M,85.39,K10U 251915Z AUTO 10SM BKN070 BKN085 31/11 A3024 RMK AO2,M
TMT,2024-07-25 19:15,-117.1971,39.4643,1749.34,85.00,51.40,31.44,200.00,4.00,0.00,30.34,M,10.00,M,CLR,M,M,M,M,M,M,M,M,M,M,M,M,M,M,83.02,KTMT 251915Z AUTO 20004KT 10SM CLR 30/11 A3034 RMK AO2 T02950108,M
BVU,2024-07-25 19:35,-114.8611,35.9475,671.00,105.80,50.00,15.73,M,4.00,0.00,30.00,M,10.00,10.00,CLR,M,M,M,M,M,M,M,M,M,M,M,M,M,M,102.98,KBVU 251935Z AUTO VRB04G10KT 10SM CLR 41/10 A3000 RMK AO2,M
CXP,2024-07-25 19:35,-119.7326,39.1923,1431.00,89.60,48.20,24.11,250.00,10.00,0.00,30.26,M,10.00,18.00,SCT,M,M,M,8500.00,M,M,M,M,M,M,M,M,M,M,86.44,KCXP 251935Z AUTO 25010G18KT 10SM SCT085 32/09 A3026 RMK AO2,M
RTS,2024-07-25 19:35,-119.8764,39.6682,1539.00,87.80,46.40,23.85,240.00,13.00,0.00,30.28,M,10.00,20.00,SCT,SCT,M,M,8000.00,10000.00,M,M,M,M,M,M,M,M,M,84.68,KRTS 251935Z AUTO 24013G20KT 10SM SCT080 SCT100 31/08 A3028 RMK AO2,M
05U,2024-07-25 19:35,-116.0051,39.6042,1811.23,87.80,44.60,22.27,0.00,0.00,0.00,30.34,M,10.00,M,CLR,M,M,M,M,M,M,M,M,M,M,M,M,M,M,84.53,K05U 251935Z AUTO 00000KT 10SM CLR 31/07 A3034 RMK A01,M
MEV,2024-07-25 19:35,-119.7500,38.9963,1441.42,91.40,48.20,22.78,260.00,14.00,0.00,30.24,M,10.00,19.00,CLR,M,M,M,M,M,M,M,M,M,M,M,M,M,M,88.09,KMEV 251935Z AUTO 26014G19KT 230V290 10SM CLR 33/09 A3024 RMK AO2,M
BAM,2024-07-25 19:35,-116.8743,40.5990,1382.36,89.60,60.80,38.18,220.00,11.00,0.00,30.23,M,10.00,14.00,CLR,M,M,M,M,M,M,M,M,M,M,M,M,M,M,89.54,KBAM 251935Z AUTO 22011G14KT 10SM CLR 32/16 A3023 RMK AO1,M
HTH,2024-07-25 19:35,-118.6315,38.5448,1282.89,93.20,46.40,20.13,360.00,7.00,0.00,30.19,M,10.00,M,CLR,M,M,M,M,M,M,M,M,M,M,M,M,M,M,89.55,KHTH 251935Z AUTO 36007KT 330V030 10SM CLR 34/08 A3019 RMK A01,M
10U,2024-07-25 19:35,-116.1876,41.9532,1637.00,87.80,50.00,27.29,M,M,0.00,30.24,M,10.00,M,SCT,SCT,M,M,7500.00,8500.00,M,M,M,M,M,M,M,M,M,85.11,K10U 251935Z AUTO 10SM SCT075 SCT085 31/10 A3024 RMK AO2,M
TMT,2024-07-25 19:35,-117.1971,39.4643,1749.34,85.30,50.50,30.11,220.00,7.00,0.00,30.33,M,10.00,14.00,CLR,M,M,M,M,M,M,M,M,M,M,M,M,M,M,83.13,KTMT 251935Z AUTO 22007G14KT 10SM CLR 30/10 A3033 RMK AO2 T02960103,M
INS,2024-07-25 19:53,-115.6733,36.5872,955.00,102.20,48.20,16.37,0.00,0.00,0.00,30.08,M,10.00,M,CLR,M,M,M,M,M,M,M,M,M,M,M,M,M,M,98.83,KINS 251953Z 00000KT 10SM CLR 39/09 A3008,M
P68,2024-07-25 19:53,-116.0056,39.6014,1993.00,88.00,45.00,22.47,M,4.00,0.00,30.30,1016.60,M,M,M,M,M,M,M,M,M,M,M,M,M,M,M,M,M,84.72,KP68 251953Z AUTO VRB04KT 31/07 A3030 RMK AO1 SLP166 T03110072,M
DRA,2024-07-25 19:53,-116.0278,36.6206,1009.00,102.00,52.00,18.97,230.00,8.00,0.00,30.10,1013.20,10.00,16.00,CLR,M,M,M,M,M,M,M,M,M,M,M,M,M,M,99.65,KDRA 251953Z AUTO 23008G16KT 200V260 10SM CLR 39/11 A3010 RMK AO2 SLP132 T03890111,M
ELY,2024-07-25 19:53,-114.8453,39.2950,1909.00,85.00,51.00,30.97,280.00,8.00,0.00,30.34,1016.40,10.00,M,FEW,M,M,M,9000.00,M,M,M,M,M,M,M,M,M,M,82.97,KELY 251953Z AUTO 28008KT 10SM FEW090 29/11 A3034 RMK AO2 SLP164 T02940106,M
VGT,2024-07-25 19:53,-115.1933,36.2111,667.00,107.00,55.00,18.25,M,3.00,0.00,30.00,1013.70,10.00,M,CLR,M,M,M,M,M,M,M,M,M,M,M,M,M,M,106.09,KVGT 251953Z VRB03KT 10SM CLR 42/13 A3000 RMK AO2 SLP137 T04170128,M
LOL,2024-07-25 19:53,-118.5701,40.0684,1192.43,95.00,51.00,22.62,260.00,12.00,0.00,30.15,1016.30,10.00,20.00,CLR,M,M,M,M,M,M,M,M,M,M,M,32.00,210.00,2024-07-25 19:33,92.09,KLOL 251953Z AUTO 26012G20KT 10SM CLR 35/11 A3015 RMK AO2 PK WND 21032/1933 SLP163 T03500106 $,M
NFL,2024-07-25 19:54,-118.7010,39.4166,1199.00,95.00,52.00,23.47,260.00,12.00,0.00,30.16,1017.90,10.00,23.00,SCT,SCT,BKN,M,7000.00,12000.00,18000.00,M,M,M,M,M,M,M,M,92.31,KNFL 251954Z 26012G23KT 10SM SCT070 SCT120 BKN180 35/11 A3016 RMK AO2 SLP179 FU BKN180 CB DSNT SW T03500111,M
BVU,2024-07-25 19:55,-114.8611,35.9475,671.00,105.80,48.20,14.71,M,4.00,0.00,29.98,M,10.00,M,CLR,M,M,M,M,M,M,M,M,M,M,M,M,M,M,102.45,KBVU 251955Z AUTO VRB04KT 10SM CLR 41/09 A2998 RMK AO2,M
CXP,2024-07-25 19:55,-119.7326,39.1923,1431.00,89.60,48.20,24.11,260.00,14.00,0.00,30.26,M,10.00,25.00,SCT,M,M,M,8500.00,M,M,M,M,M,M,M,M,M,M,86.44,KCXP 251955Z AUTO 26014G25KT 210V280 10SM SCT085 32/09 A3026 RMK AO2,M
RNO,2024-07-25 19:55,-119.7711,39.4839,1341.00,91.00,50.00,24.68,250.00,8.00,0.00,30.21,1016.20,10.00,M,SCT,M,M,M,9500.00,M,M,M,M,M,M,M,M,M,M,87.99,KRNO 251955Z 25008KT 10SM SCT095 33/10 A3021 RMK AO2 SLP162 T03280100,M
RTS,2024-07-25 19:55,-119.8764,39.6682,1539.00,86.00,46.40,25.26,220.00,15.00,0.00,30.27,M,10.00,21.00,SCT,SCT,M,M,8500.00,10000.00,M,M,M,M,M,M,M,M,M,83.22,KRTS 251955Z AUTO 22015G21KT 10SM SCT085 SCT100 30/08 A3027 RMK AO2,M
05U,2024-07-25 19:55,-116.0051,39.6042,1811.23,87.80,44.60,22.27,0.00,0.00,0.00,30.33,M,10.00,M,FEW,M,M,M,9500.00,M,M,M,M,M,M,M,M,M,M,84.53,K05U 251955Z AUTO 00000KT 10SM FEW095 31/07 A3033 RMK A01,M
MEV,2024-07-25 19:55,-119.7500,38.9963,1441.42,91.40,48.20,22.78,260.00,11.00,0.00,30.24,M,10.00,16.00,CLR,M,M,M,M,M,M,M,M,M,M,M,M,M,M,88.09,KMEV 251955Z AUTO 26011G16KT 230V290 10SM CLR 33/09 A3024 RMK AO2,M
HTH,2024-07-25 19:55,-118.6315,38.5448,1282.89,95.00,44.60,17.78,350.00,6.00,0.00,30.18,M,10.00,M,CLR,M,M,M,M,M,M,M,M,M,M,M,M,M,M,91.06,KHTH 251955Z AUTO 35006KT 10SM CLR 35/07 A3018 RMK A01,M
10U,2024-07-25 19:55,-116.1876,41.9532,1637.00,89.60,48.20,24.11,M,M,0.00,30.23,M,10.00,M,FEW,M,M,M,7500.00,M,M,M,M,M,M,M,M,M,M,86.44,K10U 251955Z AUTO 10SM FEW075 32/09 A3023 RMK AO2,M
BAM,2024-07-25 19:55,-116.8743,40.5990,1382.36,89.60,59.00,35.81,240.00,7.00,0.00,30.22,M,10.00,15.00,CLR,M,M,M,M,M,M,M,M,M,M,M,M,M,M,88.86,KBAM 251955Z AUTO 24007G15KT 10SM CLR 32/15 A3022 RMK AO1,M
TMT,2024-07-25 19:55,-117.1971,39.4643,1749.34,87.30,51.00,28.78,240.00,8.00,0.00,30.32,M,10.00,M,CLR,M,M,M,M,M,M,M,M,M,M,M,M,M,M,84.83,KTMT 251955Z AUTO 24008KT 170V240 10SM CLR 31/11 A3032 RMK AO2 T03070105,M
INS,2024-07-25 19:55,-115.6733,36.5872,955.00,101.00,48.00,16.85,0.00,0.00,0.00,30.08,1012.20,10.00,M,CLR,M,M,M,M,M,M,M,M,M,M,M,M,M,M,97.57,KINS 251955Z 00000KT 10SM CLR 38/09 A3008 RMK SLP122 T03830089 $,M
LSV,2024-07-25 19:55,-115.0343,36.2362,570.00,106.50,49.00,14.85,0.00,0.00,0.00,29.94,1010.40,10.00,M,CLR,M,M,M,M,M,M,M,M,M,M,M,M,M,M,103.38,KLSV 251955Z AUTO 00000KT 10SM CLR 41/10 A2994 RMK AO2 SLP104 T04140095 $,M
EKO,2024-07-25 19:56,-115.7860,40.8242,1367.00,89.00,56.00,32.75,210.00,9.00,0.00,30.25,1018.10,10.00,M,CLR,M,M,M,M,M,M,M,M,M,M,M,M,M,M,87.37,KEKO 251956Z AUTO 21009KT 10SM CLR 32/13 A3025 RMK AO2 SLP181 T03170133,M
WMC,2024-07-25 19:56,-117.8072,40.9019,1315.00,96.00,51.00,21.93,230.00,12.00,0.00,30.16,1015.40,10.00,23.00,CLR,M,M,M,M,M,M,M,M,M,M,M,29.00,240.00,2024-07-25 19:45,93.11,KWMC 251956Z AUTO 23012G23KT 10SM CLR 36/11 A3016 RMK AO2 PK WND 24029/1945 SLP154 T03560106,M
HND,2024-07-25 19:56,-115.1344,35.9729,742.79,109.00,46.00,12.33,200.00,12.00,0.00,30.04,1014.50,10.00,17.00,CLR,M,M,M,M,M,M,M,M,M,M,M,M,M,M,104.86,KHND 251956Z 20012G17KT 10SM CLR 43/08 A3004 RMK AO2 SLP145 T04280078,M
TPH,2024-07-25 19:56,-117.0904,38.0505,1654.00,92.00,46.00,20.58,210.00,10.00,0.00,30.29,1016.60,10.00,15.00,CLR,M,M,M,M,M,M,M,M,M,M,M,M,M,M,88.38,KTPH 251956Z AUTO 21010G15KT 10SM CLR 33/08 A3029 RMK AO2 SLP166 T03330078,M
LAS,2024-07-25 19:56,-115.1634,36.0719,663.00,109.00,53.00,16.00,50.00,5.00,0.00,30.00,1008.80,10.00,M,FEW,M,M,M,12000.00,M,M,M,M,M,M,M,M,M,M,107.33,KLAS 251956Z 05005KT 10SM FEW120 43/12 A3000 RMK AO2 PRESFR SLP088 T04280117 $,M
05U,2024-07-25 20:10,-116.0051,39.6042,1811.23,86.00,44.60,23.59,0.00,0.00,0.00,30.32,M,10.00,M,FEW,FEW,M,M,9500.00,12000.00,M,M,M,M,M,M,M,M,M,83.07,K05U 252010Z AUTO 00000KT 10SM FEW095 FEW120 30/07 A3032 RMK A01,M
10U,2024-07-25 20:10,-116.1876,41.9532,1637.00,87.80,50.00,27.29,M,M,0.00,30.23,M,10.00,M,FEW,M,M,M,8000.00,M,M,M,M,M,M,M,M,M,M,85.11,K10U 252010Z AUTO 10SM FEW080 31/10 A3023 RMK AO2,M
TMT,2024-07-25 20:15,-117.1971,39.4643,1749.34,88.00,49.60,26.72,240.00,10.00,0.00,30.31,M,10.00,16.00,CLR,M,M,M,M,M,M,M,M,M,M,M,M,M,M,85.22,KTMT 252015Z AUTO 24010G16KT 10SM CLR 31/10 A3031 RMK AO2 T03110098,M
BVU,2024-07-25 20:15,-114.8611,35.9475,671.00,107.60,44.60,12.18,0.00,0.00,0.00,29.97,M,10.00,13.00,CLR,M,M,M,M,M,M,M,M,M,M,M,M,M,M,103.15,KBVU 252015Z AUTO 00000G13KT 10SM CLR 42/07 A2997 RMK AO2,M
CXP,2024-07-25 20:15,-119.7326,39.1923,1431.00,91.40,50.00,24.37,260.00,13.00,0.00,30.25,M,10.00,20.00,FEW,M,M,M,8500.00,M,M,M,M,M,M,M,M,M,M,88.36,KCXP 252015Z AUTO 26013G20KT 10SM FEW085 33/10 A3025 RMK AO2,M
RTS,2024-07-25 20:15,-119.8764,39.6682,1539.00,89.60,42.80,19.64,240.00,20.00,0.00,30.27,M,10.00,M,BKN,BKN,M,M,8500.00,10000.00,M,M,M,M,M,M,M,M,M,85.93,KRTS 252015Z AUTO 24020KT 10SM BKN085 BKN100 32/06 A3027 RMK AO2,M
MEV,2024-07-25 20:15,-119.7500,38.9963,1441.42,93.20,48.20,21.54,270.00,16.00,0.00,30.23,M,10.00,23.00,CLR,M,M,M,M,M,M,M,M,M,M,M,M,M,M,89.80,KMEV 252015Z AUTO 27016G23KT 10SM CLR 34/09 A3023 RMK AO2,M
BAM,2024-07-25 20:15,-116.8743,40.5990,1382.36,89.60,55.40,31.45,270.00,9.00,0.00,30.21,M,10.00,M,CLR,M,M,M,M,M,M,M,M,M,M,M,M,M,M,87.78,KBAM 252015Z AUTO 27009KT 10SM CLR 32/13 A3021 RMK AO1,M
HTH,2024-07-25 20:15,-118.6315,38.5448,1282.89,95.00,46.40,19.04,310.00,7.00,0.00,30.17,M,10.00,13.00,CLR,M,M,M,M,M,M,M,M,M,M,M,M,M,M,91.29,KHTH 252015Z AUTO 31007G13KT 10SM CLR 35/08 A3017 RMK A01,M
BVU,2024-07-25 20:35,-114.8611,35.9475,671.00,109.40,44.60,11.55,M,5.00,0.00,29.96,M,10.00,15.00,CLR,M,M,M,M,M,M,M,M,M,M,M,M,M,M,104.78,KBVU 252035Z AUTO VRB05G15KT 10SM CLR 43/07 A2996 RMK AO2,M
CXP,2024-07-25 20:35,-119.7326,39.1923,1431.00,89.60,50.00,25.79,240.00,13.00,0.00,30.25,M,10.00,20.00,CLR,M,M,M,M,M,M,M,M,M,M,M,M,M,M,86.70,KCXP 252035Z AUTO 24013G20KT 210V270 10SM CLR 32/10 A3025 RMK AO2,M
RTS,2024-07-25 20:35,-119.8764,39.6682,1539.00,91.40,42.80,18.56,230.00,18.00,0.00,30.26,M,10.00,24.00,SCT,M,M,M,9000.00,M,M,M,M,M,M,M,M,M,M,87.52,KRTS 252035Z AUTO 23018G24KT 10SM SCT090 33/06 A3026 RMK AO2,M
05U,2024-07-25 20:35,-116.0051,39.6042,1811.23,86.00,46.40,25.26,0.00,0.00,0.00,30.31,M,10.00,M,BKN,BKN,M,M,9000.00,12000.00,M,M,M,M,M,M,M,M,M,83.22,K05U 252035Z AUTO 00000KT 10SM BKN090 BKN120 30/08 A3031 RMK A01,M
MEV,2024-07-25 20:35,-119.7500,38.9963,1441.42,93.20,48.20,21.54,260.00,17.00,0.00,30.23,M,10.00,M,CLR,M,M,M,M,M,M,M,M,M,M,M,M,M,M,89.80,KMEV 252035Z AUTO 26017KT 10SM CLR 34/09 A3023 RMK AO2,M
HTH,2024-07-25 20:35,-118.6315,38.5448,1282.89,91.40,53.60,27.83,330.00,8.00,0.00,30.18,M,8.00,M,CLR,M,M,M,M,M,M,M,M,M,M,M,M,M,M,89.08,KHTH 252035Z AUTO 33008KT 8SM CLR 33/12 A3018 RMK A01,M
10U,2024-07-25 20:35,-116.1876,41.9532,1637.00,89.60,50.00,25.79,M,M,0.00,30.22,M,10.00,M,FEW,FEW,M,M,8000.00,10000.00,M,M,M,M,M,M,M,M,M,86.70,K10U 252035Z AUTO 10SM FEW080 FEW100 32/10 A3022 RMK AO2,M
BAM,2024-07-25 20:35,-116.8743,40.5990,1382.36,91.40,55.40,29.72,250.00,14.00,0.00,30.20,M,10.00,20.00,CLR,M,M,M,M,M,M,M,M,M,M,M,M,M,M,89.53,KBAM 252035Z AUTO 25014G20KT 10SM CLR 33/13 A3020 RMK AO1,M
TMT,2024-07-25 20:35,-117.1971,39.4643,1749.34,88.30,48.60,25.50,190.00,9.00,0.00,30.30,M,10.00,16.00,CLR,M,M,M,M,M,M,M,M,M,M,M,M,M,M,85.35,KTMT 252035Z AUTO 19009G16KT 10SM CLR 31/09 A3030 RMK AO2 T03130092,M
05U,2024-07-25 20:50,-116.0051,39.6042,1811.23,87.80,46.40,23.85,0.00,0.00,0.00,30.31,M,10.00,M,SCT,SCT,M,M,9000.00,12000.00,M,M,M,M,M,M,M,M,M,84.68,K05U 252050Z AUTO 00000KT 10SM SCT090 SCT120 31/08 A3031 RMK A01,M
INS,2024-07-25 20:51,-115.6733,36.5872,955.00,104.70,44.00,12.96,M,4.00,0.00,30.05,1011.10,10.00,M,CLR,M,M,M,M,M,M,M,M,M,M,M,M,M,M,100.37,KINS 252051Z VRB04KT 10SM CLR 40/07 A3005 RMK SLP111 T04040066 57023 $,M
P68,2024-07-25 20:53,-116.0056,39.6014,1993.00,87.00,46.00,24.10,0.00,0.00,0.00,30.28,1016.00,M,M,M,M,M,M,M,M,M,M,M,M,M,M,M,M,M,83.98,KP68 252053Z AUTO 00000KT 31/08 A3028 RMK AO1 SLP160 T03060078 58020,M
DRA,2024-07-25 20:53,-116.0278,36.6206,1009.00,105.00,50.00,16.11,240.00,17.00,0.00,30.08,1012.20,10.00,24.00,CLR,M,M,M,M,M,M,M,M,M,M,M,M,M,M,102.16,KDRA 252053Z AUTO 24017G24KT 10SM CLR 41/10 A3008 RMK AO2 SLP122 T04060100 58019,M
ELY,2024-07-25 20:53,-114.8453,39.2950,1909.00,85.00,48.00,27.70,190.00,6.00,0.00,30.32,1015.90,10.00,M,CLR,M,M,M,M,M,M,M,M,M,M,M,M,M,M,82.61,KELY 252053Z AUTO 19006KT 10SM CLR 29/09 A3032 RMK AO2 SLP159 T02940089 56019,M
VGT,2024-07-25 20:53,-115.1933,36.2111,667.00,110.00,52.00,14.98,150.00,8.00,0.00,29.95,1012.30,10.00,15.00,CLR,M,M,M,M,M,M,M,M,M,M,M,M,M,M,107.94,KVGT 252053Z 15008G15KT 100V180 10SM CLR 43/11 A2995 RMK AO2 SLP123 T04330111 58028,M
LOL,2024-07-25 20:53,-118.5701,40.0684,1192.43,94.00,50.00,22.48,270.00,12.00,0.00,30.13,1015.60,10.00,18.00,SCT,SCT,M,M,10000.00,11000.00,M,M,M,M,M,M,M,M,M,90.89,KLOL 252053Z AUTO 27012G18KT 10SM SCT100 SCT110 34/10 A3013 RMK AO2 SLP156 T03440100 58018 $,M
NFL,2024-07-25 20:54,-118.7010,39.4166,1199.00,97.00,52.00,22.07,280.00,8.00,0.00,30.13,1017.00,10.00,14.00,SCT,BKN,BKN,M,7000.00,12000.00,18000.00,M,TS,M,M,M,M,M,M,94.38,KNFL 252054Z 28008G14KT 250V310 10SM TS SCT070CB BKN120 BKN180 36/11 A3013 RMK AO2 TSB53 SLP170 OCNL LTGIC VC NW TS VC NW MOV NE CB DSNT S-SW T03610111 58019,M
BVU,2024-07-25 20:55,-114.8611,35.9475,671.00,109.40,42.80,10.78,310.00,11.00,0.00,29.95,M,10.00,21.00,CLR,M,M,M,M,M,M,M,M,M,M,M,M,M,M,104.25,KBVU 252055Z AUTO 31011G21KT 280V340 10SM CLR 43/06 A2995 RMK AO2,M
CXP,2024-07-25 20:55,-119.7326,39.1923,1431.00,91.40,48.20,22.78,260.00,17.00,0.00,30.25,M,10.00,22.00,CLR,M,M,M,M,M,M,M,M,M,M,M,M,M,M,88.09,KCXP 252055Z AUTO 26017G22KT 10SM CLR 33/09 A3025 RMK AO2,M
RNO,2024-07-25 20:55,-119.7711,39.4839,1341.00,93.00,46.00,19.95,290.00,21.00,0.00,30.18,1015.30,10.00,28.00,SCT,M,M,M,9500.00,M,M,M,M,M,M,M,28.00,300.00,2024-07-25 20:52,89.31,KRNO 252055Z 29021G28KT 10SM SCT095 34/08 A3018 RMK AO2 PK WND 30028/2052 SLP153 T03390078 58012,M
LSV,2024-07-25 20:55,-115.0343,36.2362,570.00,110.00,43.70,10.97,240.00,6.00,0.00,29.91,1009.30,10.00,M,CLR,M,M,M,M,M,M,M,M,M,M,M,M,M,M,105.05,KLSV 252055Z AUTO 24006KT 10SM CLR 43/07 A2991 RMK AO2 SLP093 T04340065 57027 $,M
RTS,2024-07-25 20:55,-119.8764,39.6682,1539.00,89.60,41.00,18.33,220.00,16.00,0.00,30.26,M,10.00,23.00,FEW,M,M,M,9000.00,M,M,M,M,M,M,M,M,M,M,85.82,KRTS 252055Z AUTO 22016G23KT 10SM FEW090 32/05 A3026 RMK AO2,M
MEV,2024-07-25 20:55,-119.7500,38.9963,1441.42,93.20,48.20,21.54,260.00,14.00,0.00,30.23,M,10.00,21.00,CLR,M,M,M,M,M,M,M,M,M,M,M,M,M,M,89.80,KMEV 252055Z AUTO 26014G21KT 10SM CLR 34/09 A3023 RMK AO2,M
HTH,2024-07-25 20:55,-118.6315,38.5448,1282.89,89.60,50.00,25.79,140.00,5.00,0.00,30.17,M,10.00,M,FEW,FEW,M,M,5000.00,7000.00,M,M,M,M,M,M,M,M,M,86.70,KHTH 252055Z AUTO 14005KT 10SM FEW050 FEW070 32/10 A3017 RMK A01,M
10U,2024-07-25 20:55,-116.1876,41.9532,1637.00,86.00,48.20,27.03,M,M,0.00,30.22,M,10.00,M,SCT,SCT,M,M,8000.00,10000.00,M,M,M,M,M,M,M,M,M,83.40,K10U 252055Z AUTO 10SM SCT080 SCT100 30/09 A3022 RMK AO2,M
BAM,2024-07-25 20:55,-116.8743,40.5990,1382.36,91.40,55.40,29.72,250.00,11.00,0.00,30.20,M,10.00,20.00,CLR,M,M,M,M,M,M,M,M,M,M,M,M,M,M,89.53,KBAM 252055Z AUTO 25011G20KT 10SM CLR 33/13 A3020 RMK AO1,M
TMT,2024-07-25 20:55,-117.1971,39.4643,1749.34,89.80,49.30,24.96,170.00,9.00,0.00,30.29,M,10.00,14.00,CLR,M,M,M,M,M,M,M,M,M,M,M,M,M,M,86.77,KTMT 252055Z AUTO 17009G14KT 10SM CLR 32/10 A3029 RMK AO2 T03210096,M
EKO,2024-07-25 20:56,-115.7860,40.8242,1367.00,90.00,55.00,30.61,210.00,10.00,0.00,30.23,1017.20,10.00,20.00,CLR,M,M,M,M,M,M,M,M,M,M,M,M,M,M,88.06,KEKO 252056Z AUTO 21010G20KT 10SM CLR 32/13 A3023 RMK AO2 SLP172 T03220128 58019,M
WMC,2024-07-25 20:56,-117.8072,40.9019,1315.00,95.00,50.00,21.79,220.00,13.00,0.00,30.14,1014.90,10.00,25.00,CLR,M,M,M,M,M,M,M,M,M,M,M,30.00,220.00,2024-07-25 20:04,91.89,KWMC 252056Z AUTO 22013G25KT 10SM CLR 35/10 A3014 RMK AO2 PK WND 22030/2004 SLP149 T03500100 58015,M
HND,2024-07-25 20:56,-115.1344,35.9729,742.79,111.00,44.00,10.78,240.00,13.00,0.00,30.01,1013.50,10.00,M,CLR,M,M,M,M,M,M,M,M,M,M,M,M,M,M,106.07,KHND 252056Z 24013KT 10SM CLR 44/07 A3001 RMK AO2 SLP135 T04390067 58024,M
TPH,2024-07-25 20:56,-117.0904,38.0505,1654.00,92.00,45.00,19.82,180.00,7.00,0.00,30.26,1015.60,10.00,M,FEW,M,M,M,10000.00,M,M,M,M,M,M,M,M,M,M,88.27,KTPH 252056Z AUTO 18007KT 10SM FEW100 33/07 A3026 RMK AO2 SLP156 T03330072 58019,M
LAS,2024-07-25 20:56,-115.1634,36.0719,663.00,113.00,49.00,12.29,320.00,12.00,0.00,29.96,1007.40,10.00,23.00,FEW,M,M,M,12000.00,M,M,M,M,M,M,M,M,M,M,109.64,KLAS 252056Z 32012G23KT 10SM FEW120 45/09 A2996 RMK AO2 PRESFR SLP074 T04500094 58025 $,M
05U,2024-07-25 21:10,-116.0051,39.6042,1811.23,87.80,44.60,22.27,M,4.00,0.00,30.30,M,10.00,M,SCT,SCT,M,M,9500.00,12000.00,M,M,M,M,M,M,M,M,M,84.53,K05U 252110Z AUTO VRB04KT 10SM SCT095 SCT120 31/07 A3030 RMK A01,M
LAS,2024-07-25 21:13,-115.1634,36.0719,663.00,111.00,47.00,12.08,0.00,0.00,0.00,29.96,M,10.00,M,FEW,M,M,M,12000.00,M,M,M,M,M,M,M,M,M,M,107.04,KLAS 252113Z 00000KT 10SM FEW120 44/08 A2996 RMK AO2 T04390083 $,M
BVU,2024-07-25 21:15,-114.8611,35.9475,671.00,111.20,41.00,9.55,270.00,9.00,0.00,29.94,M,10.00,15.00,CLR,M,M,M,M,M,M,M,M,M,M,M,M,M,M,105.43,KBVU 252115Z AUTO 27009G15KT 10SM CLR 44/05 A2994 RMK AO2,M
CXP,2024-07-25 21:15,-119.7326,39.1923,1431.00,91.40,48.20,22.78,250.00,10.00,0.00,30.24,M,10.00,25.00,CLR,M,M,M,M,M,M,M,M,M,M,M,M,M,M,88.09,KCXP 252115Z AUTO 25010G25KT 230V290 10SM CLR 33/09 A3024 RMK AO2,M
RTS,2024-07-25 21:15,-119.8764,39.6682,1539.00,91.40,39.20,16.15,220.00,23.00,0.00,30.25,M,10.00,29.00,FEW,M,M,M,9000.00,M,M,M,M,M,M,M,M,M,M,87.30,KRTS 252115Z AUTO 22023G29KT 10SM FEW090 33/04 A3025 RMK AO2,M
MEV,2024-07-25 21:15,-119.7500,38.9963,1441.42,93.20,46.40,20.13,230.00,17.00,0.00,30.23,M,10.00,M,CLR,M,M,M,M,M,M,M,M,M,M,M,M,M,M,89.55,KMEV 252115Z AUTO 23017KT 10SM CLR 34/08 A3023 RMK AO2,M
HTH,2024-07-25 21:15,-118.6315,38.5448,1282.89,86.00,53.60,33.01,170.00,14.00,0.00,30.17,M,10.00,19.00,FEW,M,M,M,11000.00,M,M,M,M,M,M,M,M,M,M,84.18,KHTH 252115Z AUTO 17014G19KT 10SM FEW110 30/12 A3017 RMK A01,M
BAM,2024-07-25 21:15,-116.8743,40.5990,1382.36,91.40,53.60,27.83,250.00,12.00,0.00,30.19,M,10.00,19.00,CLR,M,M,M,M,M,M,M,M,M,M,M,M,M,M,89.08,KBAM 252115Z AUTO 25012G19KT 10SM CLR 33/12 A3019 RMK AO1,M
TMT,2024-07-25 21:15,-117.1971,39.4643,1749.34,87.60,48.20,25.68,210.00,7.00,0.00,30.29,M,10.00,M,SCT,M,M,M,11000.00,M,M,M,M,M,M,M,M,M,M,84.71,KTMT 252115Z AUTO 21007KT 10SM SCT110 31/09 A3029 RMK AO2 T03090090,M
10U,2024-07-25 21:15,-116.1876,41.9532,1637.00,87.80,50.00,27.29,M,M,0.00,30.21,M,10.00,M,FEW,M,M,M,8000.00,M,M,M,M,M,M,M,M,M,M,85.11,K10U 252115Z AUTO 10SM FEW080 31/10 A3021 RMK AO2,M
05U,2024-07-25 21:30,-116.0051,39.6042,1811.23,87.80,44.60,22.27,270.00,8.00,0.00,30.29,M,10.00,M,SCT,M,M,M,9000.00,M,M,M,M,M,M,M,M,M,M,84.53,K05U 252130Z AUTO 27008KT 10SM SCT090 31/07 A3029 RMK A01,M
NFL,2024-07-25 21:33,-118.7010,39.4166,1199.00,96.00,52.00,22.76,330.00,11.00,0.00,30.12,M,10.00,M,SCT,BKN,BKN,M,7000.00,12000.00,18000.00,M,M,M,M,M,M,M,M,93.34,KNFL 252133Z 33011KT 10SM SCT070 BKN120 BKN180 36/11 A3012 RMK AO2 TSE33 CB DSNT E-S-SW T03560111,M
BVU,2024-07-25 21:35,-114.8611,35.9475,671.00,113.00,39.20,8.45,230.00,15.00,0.00,29.93,M,10.00,26.00,CLR,M,M,M,M,M,M,M,M,M,M,M,M,M,M,106.68,KBVU 252135Z AUTO 23015G26KT 210V280 10SM CLR 45/04 A2993 RMK AO2,M
CXP,2024-07-25 21:35,-119.7326,39.1923,1431.00,89.60,48.20,24.11,260.00,9.00,0.00,30.24,M,10.00,25.00,CLR,M,M,M,M,M,M,M,M,M,M,M,M,M,M,86.44,KCXP 252135Z AUTO 26009G25KT 10SM CLR 32/09 A3024 RMK AO2,M
RTS,2024-07-25 21:35,-119.8764,39.6682,1539.00,91.40,41.00,17.32,230.00,16.00,0.00,30.25,M,10.00,25.00,CLR,M,M,M,M,M,M,M,M,M,M,M,M,M,M,87.40,KRTS 252135Z AUTO 23016G25KT 10SM CLR 33/05 A3025 RMK AO2,M
MEV,2024-07-25 21:35,-119.7500,38.9963,1441.42,91.40,46.40,21.29,240.00,13.00,0.00,30.22,M,10.00,22.00,FEW,M,M,M,11000.00,M,M,M,M,M,M,M,M,M,M,87.86,KMEV 252135Z AUTO 24013G22KT 10SM FEW110 33/08 A3022 RMK AO2,M
HTH,2024-07-25 21:35,-118.6315,38.5448,1282.89,80.60,60.80,50.95,130.00,12.00,0.00,30.17,M,10.00,18.00,BKN,M,M,M,11000.00,M,M,M,M,M,M,M,M,M,M,81.46,KHTH 252135Z AUTO 13012G18KT 10SM BKN110 27/16 A3017 RMK A01,M
10U,2024-07-25 21:35,-116.1876,41.9532,1637.00,89.60,50.00,25.79,M,M,0.00,30.20,M,10.00,M,FEW,M,M,M,8000.00,M,M,M,M,M,M,M,M,M,M,86.70,K10U 252135Z AUTO 10SM FEW080 32/10 A3020 RMK AO2,M
BAM,2024-07-25 21:35,-116.8743,40.5990,1382.36,93.20,55.40,28.10,240.00,9.00,0.00,30.18,M,10.00,18.00,CLR,M,M,M,M,M,M,M,M,M,M,M,M,M,M,91.35,KBAM 252135Z AUTO 24009G18KT 10SM CLR 34/13 A3018 RMK AO1,M
TMT,2024-07-25 21:35,-117.1971,39.4643,1749.34,87.00,47.00,25.02,160.00,10.00,0.00,30.28,M,10.00,M,SCT,M,M,M,10000.00,M,M,M,M,M,M,M,M,M,M,84.08,KTMT 252135Z AUTO 16010KT 10SM SCT100 31/08 A3028 RMK AO2 T03050084,M
05U,2024-07-25 21:50,-116.0051,39.6042,1811.23,87.80,44.60,22.27,0.00,0.00,0.00,30.28,M,10.00,13.00,FEW,M,M,M,9500.00,M,M,M,M,M,M,M,M,M,M,84.53,K05U 252150Z AUTO 00000G13KT 10SM FEW095 31/07 A3028 RMK A01,M
INS,2024-07-25 21:53,-115.6733,36.5872,955.00,107.60,33.80,7.99,210.00,17.00,0.00,30.01,1009.60,10.00,22.00,BKN,M,M,M,13000.00,M,M,M,M,M,M,M,M,M,M,100.66,KINS 252153Z AUTO 21017G22KT 10SM BKN130 42/01 A3001 RMK AO2 WSHFT 43 SLP096 $,M
P68,2024-07-25 21:53,-116.0056,39.6014,1993.00,86.00,45.00,23.95,180.00,7.00,0.00,30.25,1015.30,M,18.00,M,M,M,M,M,M,M,M,M,M,M,M,M,M,M,83.10,KP68 252153Z AUTO 18007G18KT 30/07 A3025 RMK AO1 SLP153 T03000072,M
DRA,2024-07-25 21:53,-116.0278,36.6206,1009.00,106.00,47.00,13.98,250.00,10.00,0.00,30.05,1011.30,10.00,19.00,CLR,M,M,M,M,M,M,M,M,M,M,M,M,M,M,102.32,KDRA 252153Z AUTO 25010G19KT 10SM CLR 41/08 A3005 RMK AO2 SLP113 T04110083,M
ELY,2024-07-25 21:53,-114.8453,39.2950,1909.00,88.00,49.00,26.13,210.00,11.00,0.00,30.29,1014.70,10.00,17.00,M,M,M,M,M,M,M,M,M,M,M,M,M,M,M,85.14,KELY 252153Z AUTO 21011G17KT 10SM 31/09 A3029 RMK AO2 LTG DSNT NE SLP147 T03110094 $,M
VGT,2024-07-25 21:53,-115.1933,36.2111,667.00,113.00,45.00,10.57,M,M,0.00,29.92,1011.00,10.00,M,CLR,M,M,M,M,M,M,M,M,M,M,M,M,M,M,108.26,KVGT 252153Z 10SM CLR 45/07 A2992 RMK AO2 WSHFT 2132 SLP110 T04500072,M
LOL,2024-07-25 21:53,-118.5701,40.0684,1192.43,94.00,49.00,21.65,210.00,6.00,0.00,30.10,1014.90,10.00,M,FEW,M,M,M,10000.00,M,M,M,M,M,M,M,M,M,M,90.71,KLOL 252153Z AUTO 21006KT 10SM FEW100 34/09 A3010 RMK AO2 SLP149 T03440094 $,M
NFL,2024-07-25 21:54,-118.7010,39.4166,1199.00,95.00,51.00,22.62,360.00,10.00,0.00,30.11,1016.40,10.00,16.00,SCT,BKN,BKN,M,7000.00,12000.00,18000.00,M,M,M,M,M,M,M,M,92.09,KNFL 252154Z 36010G16KT 10SM SCT070 BKN120 BKN180 35/11 A3011 RMK AO2 TSE33 SLP164 CB DSNT ALQDS T03500106,M
BVU,2024-07-25 21:55,-114.8611,35.9475,671.00,111.20,39.20,8.90,280.00,12.00,0.00,29.92,M,10.00,28.00,CLR,M,M,M,M,M,M,M,M,M,M,M,M,M,M,104.98,KBVU 252155Z AUTO 28012G28KT 10SM CLR 44/04 A2992 RMK AO2,M
CXP,2024-07-25 21:55,-119.7326,39.1923,1431.00,91.40,48.20,22.78,240.00,11.00,0.00,30.24,M,10.00,20.00,CLR,M,M,M,M,M,M,M,M,M,M,M,M,M,M,88.09,KCXP 252155Z AUTO 24011G20KT 200V270 10SM CLR 33/09 A3024 RMK AO2,M
INS,2024-07-25 21:55,-115.6733,36.5872,955.00,107.60,33.60,7.92,200.00,14.00,0.00,30.00,1009.30,10.00,22.00,BKN,M,M,M,13000.00,M,M,M,M,M,M,M,26.00,230.00,2024-07-25 21:47,100.63,KINS 252155Z AUTO 20014G22KT 10SM BKN130 42/01 A3000 RMK AO2 PK WND 23026/47 SLP093 T04200009 $,M
RNO,2024-07-25 21:55,-119.7711,39.4839,1341.00,94.00,42.00,16.60,290.00,18.00,0.00,30.16,1014.60,10.00,31.00,SCT,M,M,M,10000.00,M,M,M,M,M,M,M,31.00,310.00,2024-07-25 21:49,89.85,KRNO 252155Z 29018G31KT 10SM SCT100 34/06 A3016 RMK AO2 PK WND 31031/2149 PRESFR SLP146 T03440056,M
RTS,2024-07-25 21:55,-119.8764,39.6682,1539.00,91.40,39.20,16.15,220.00,21.00,0.00,30.24,M,10.00,M,FEW,M,M,M,10000.00,M,M,M,M,M,M,M,M,M,M,87.30,KRTS 252155Z AUTO 22021KT 10SM FEW100 33/04 A3024 RMK AO2,M
MEV,2024-07-25 21:55,-119.7500,38.9963,1441.42,93.20,44.60,18.80,230.00,11.00,0.00,30.22,M,10.00,26.00,CLR,M,M,M,M,M,M,M,M,M,M,M,M,M,M,89.34,KMEV 252155Z AUTO 23011G26KT 10SM CLR 34/07 A3022 RMK AO2,M
HTH,2024-07-25 21:55,-118.6315,38.5448,1282.89,80.60,51.80,36.79,350.00,5.00,0.00,30.16,M,9.00,17.00,BKN,M,M,M,11000.00,M,M,M,M,M,M,M,M,M,M,80.08,KHTH 252155Z AUTO 35005G17KT 9SM BKN110 27/11 A3016 RMK A01,M
10U,2024-07-25 21:55,-116.1876,41.9532,1637.00,87.80,48.20,25.52,M,M,0.00,30.19,M,10.00,M,SCT,SCT,M,M,8000.00,9500.00,M,M,M,M,M,M,M,M,M,84.87,K10U 252155Z AUTO 10SM SCT080 SCT095 31/09 A3019 RMK AO2,M
BAM,2024-07-25 21:55,-116.8743,40.5990,1382.36,93.20,55.40,28.10,260.00,14.00,0.00,30.17,M,10.00,19.00,CLR,M,M,M,M,M,M,M,M,M,M,M,M,M,M,91.35,KBAM 252155Z AUTO 26014G19KT 10SM CLR 34/13 A3017 RMK AO1,M
TMT,2024-07-25 21:55,-117.1971,39.4643,1749.34,89.20,47.00,23.34,200.00,12.00,0.00,30.26,M,10.00,18.00,CLR,M,M,M,M,M,M,M,M,M,M,M,M,M,M,85.95,KTMT 252155Z AUTO 20012G18KT 10SM CLR 32/08 A3026 RMK AO2 T03180083,M
LSV,2024-07-25 21:55,-115.0343,36.2362,570.00,111.40,39.40,8.92,190.00,9.00,0.00,29.86,1007.60,10.00,M,CLR,M,M,M,M,M,M,M,M,M,M,M,M,M,M,105.23,KLSV 252155Z AUTO 19009KT 10SM CLR 44/04 A2986 RMK AO2 SLP076 T04410041 $,M
EKO,2024-07-25 21:56,-115.7860,40.8242,1367.00,92.00,55.00,28.75,220.00,13.00,0.00,30.19,1015.90,10.00,19.00,CLR,M,M,M,M,M,M,M,M,M,M,M,M,M,M,90.02,KEKO 252156Z AUTO 22013G19KT 10SM CLR 33/13 A3019 RMK AO2 LTG DSNT SE AND S SLP159 T03330128,M
WMC,2024-07-25 21:56,-117.8072,40.9019,1315.00,94.00,44.00,17.93,220.00,14.00,0.00,30.11,1014.00,10.00,21.00,FEW,M,M,M,11000.00,M,M,M,M,M,M,M,28.00,260.00,2024-07-25 21:28,90.04,KWMC 252156Z AUTO 22014G21KT 10SM FEW110 34/07 A3011 RMK AO2 PK WND 26028/2128 SLP140 T03440067,M
HND,2024-07-25 21:56,-115.1344,35.9729,742.79,109.00,47.00,12.80,M,5.00,0.00,29.98,1012.80,10.00,M,CLR,M,M,M,M,M,M,M,M,M,M,M,M,M,M,105.20,KHND 252156Z VRB05KT 10SM CLR 43/08 A2998 RMK AO2 SLP128 T04280083,M
TPH,2024-07-25 21:56,-117.0904,38.0505,1654.00,93.00,45.00,19.21,0.00,0.00,0.00,30.23,1014.60,10.00,M,CLR,M,M,M,M,M,M,M,M,M,M,M,M,M,M,89.20,KTPH 252156Z AUTO 00000KT 10SM CLR 34/07 A3023 RMK AO2 SLP146 T03390072,M
LAS,2024-07-25 21:56,-115.1634,36.0719,663.00,113.00,46.00,10.98,240.00,10.00,0.00,29.93,1006.40,10.00,22.00,FEW,FEW,M,M,12000.00,15000.00,M,M,M,M,M,M,M,M,M,108.58,KLAS 252156Z 24010G22KT 10SM FEW120 FEW150 45/08 A2993 RMK AO2 PRESFR SLP064 T04500078 $,M
INS,2024-07-25 21:56,-115.6733,36.5872,955.00,107.60,33.80,7.99,240.00,16.00,0.00,30.01,1009.60,10.00,22.00,BKN,M,M,M,13000.00,M,M,M,M,M,M,M,M,M,M,100.66,KINS 252156Z AUTO 24016G22KT 10SM BKN130 42/01 A3001 RMK AO2 WSHFT 54 SLP096 $,M
INS,2024-07-25 22:04,-115.6733,36.5872,955.00,107.60,37.40,9.21,200.00,14.00,0.00,30.00,1009.30,10.00,25.00,BKN,M,M,M,14000.00,M,M,M,M,M,M,M,M,M,M,101.34,KINS 252204Z AUTO 20014G25KT 10SM BKN140 42/03 A3000 RMK AO2 WSHFT 2157 SLP093 $,M
LOL,2024-07-25 22:06,-118.5701,40.0684,1192.43,93.00,49.00,22.34,250.00,13.00,T,30.10,M,10.00,17.00,SCT,M,M,M,11000.00,M,M,M,VCTS -RA,M,M,M,M,M,M,89.73,KLOL 252206Z AUTO 25013G17KT 10SM VCTS -RA SCT110 34/09 A3010 RMK AO2 RAB06 P0000 T03390094 $,M
05U,2024-07-25 22:10,-116.0051,39.6042,1811.23,89.60,44.60,21.04,180.00,4.00,0.00,30.28,M,10.00,10.00,SCT,M,M,M,12000.00,M,M,M,M,M,M,M,M,M,M,86.07,K05U 252210Z AUTO 18004G10KT 10SM SCT120 32/07 A3028 RMK A01,M
BVU,2024-07-25 22:15,-114.8611,35.9475,671.00,111.20,39.20,8.90,280.00,11.00,0.00,29.91,M,10.00,21.00,CLR,M,M,M,M,M,M,M,M,M,M,M,M,M,M,104.98,KBVU 252215Z AUTO 28011G21KT 10SM CLR 44/04 A2991 RMK AO2,M
CXP,2024-07-25 22:15,-119.7326,39.1923,1431.00,91.40,46.40,21.29,240.00,8.00,0.00,30.23,M,10.00,25.00,CLR,M,M,M,M,M,M,M,M,M,M,M,M,M,M,87.86,KCXP 252215Z AUTO 24008G25KT 10SM CLR 33/08 A3023 RMK AO2,M
RTS,2024-07-25 22:15,-119.8764,39.6682,1539.00,91.40,39.20,16.15,240.00,18.00,0.00,30.24,M,10.00,26.00,CLR,M,M,M,M,M,M,M,M,M,M,M,M,M,M,87.30,KRTS 252215Z AUTO 24018G26KT 10SM CLR 33/04 A3024 RMK AO2,M
MEV,2024-07-25 22:15,-119.7500,38.9963,1441.42,93.20,44.60,18.80,290.00,12.00,0.00,30.22,M,10.00,23.00,CLR,M,M,M,M,M,M,M,M,M,M,M,M,M,M,89.34,KMEV 252215Z AUTO 29012G23KT 10SM CLR 34/07 A3022 RMK AO2,M
BAM,2024-07-25 22:15,-116.8743,40.5990,1382.36,93.20,55.40,28.10,260.00,9.00,0.00,30.15,M,10.00,17.00,SCT,M,M,M,9000.00,M,M,M,M,M,M,M,M,M,M,91.35,KBAM 252215Z AUTO 26009G17KT 10SM SCT090 34/13 A3015 RMK AO1,M
HTH,2024-07-25 22:15,-118.6315,38.5448,1282.89,80.60,60.80,50.95,170.00,8.00,0.00,30.15,M,10.00,M,FEW,BKN,M,M,5500.00,11000.00,M,M,M,M,M,M,M,M,M,81.46,KHTH 252215Z AUTO 17008KT 10SM FEW055 BKN110 27/16 A3015 RMK A01,M
10U,2024-07-25 22:15,-116.1876,41.9532,1637.00,87.80,50.00,27.29,M,M,0.00,30.18,M,10.00,M,SCT,SCT,M,M,8500.00,11000.00,M,M,M,M,M,M,M,M,M,85.11,K10U 252215Z AUTO 10SM SCT085 SCT110 31/10 A3018 RMK AO2 LTG DSNT N AND NW,M
TMT,2024-07-25 22:15,-117.1971,39.4643,1749.34,89.20,44.80,21.47,160.00,7.00,0.00,30.25,M,10.00,10.00,CLR,M,M,M,M,M,M,M,M,M,M,M,M,M,M,85.73,KTMT 252215Z AUTO 16007G10KT 10SM CLR 32/07 A3025 RMK AO2 T03180071,M
INS,2024-07-25 22:19,-115.6733,36.5872,955.00,107.60,35.60,8.58,240.00,13.00,0.00,30.00,1009.30,10.00,23.00,BKN,M,M,M,13000.00,M,M,M,M,M,M,M,M,M,M,100.98,KINS 252219Z AUTO 24013G23KT 10SM BKN130 42/02 A3000 RMK AO2 WSHFT 05 SLP093 $,M
LOL,2024-07-25 22:20,-118.5701,40.0684,1192.43,84.00,56.00,38.42,290.00,12.00,0.01,30.10,M,8.00,31.00,FEW,BKN,M,M,9000.00,11000.00,M,M,-RA,M,M,M,31.00,260.00,2024-07-25 22:12,83.05,KLOL 252220Z AUTO 29012G31KT 8SM -RA FEW090 BKN110 29/13 A3010 RMK AO2 PK WND 26031/2212 WSHFT 2206 RAB06 P0001 T02890133 $,M
INS,2024-07-25 22:23,-115.6733,36.5872,955.00,107.60,35.60,8.58,210.00,15.00,0.00,29.99,1009.00,10.00,25.00,BKN,M,M,M,13000.00,M,M,M,M,M,M,M,M,M,M,100.98,KINS 252223Z AUTO 21015G25KT 10SM BKN130 42/02 A2999 RMK AO2 WSHFT 20 SLP090 $,M
WMC,2024-07-25 22:31,-117.8072,40.9019,1315.00,100.00,40.00,12.79,230.00,17.00,0.00,30.10,M,10.00,28.00,CLR,M,M,M,M,M,M,M,M,M,M,M,33.00,230.00,2024-07-25 22:15,95.26,KWMC 252231Z AUTO 23017G28KT 10SM CLR 38/04 A3010 RMK AO2 PK WND 23033/2215 WSHFT 2211 T03780044,M
LOL,2024-07-25 22:33,-118.5701,40.0684,1192.43,93.00,55.00,27.87,270.00,7.00,0.01,30.08,M,10.00,M,FEW,SCT,M,M,9000.00,11000.00,M,M,TS,M,M,M,31.00,260.00,2024-07-25 22:12,91.03,KLOL 252233Z AUTO 27007KT 10SM TS FEW090 SCT110 34/13 A3008 RMK AO2 PK WND 26031/2212 WSHFT 2206 LTG DSNT N AND NE RAB06E31 TSB27 P0001 T03390128 $,M
BVU,2024-07-25 22:35,-114.8611,35.9475,671.00,111.20,41.00,9.55,190.00,7.00,0.00,29.89,M,10.00,12.00,CLR,M,M,M,M,M,M,M,M,M,M,M,M,M,M,105.43,KBVU 252235Z AUTO 19007G12KT 10SM CLR 44/05 A2989 RMK AO2,M
CXP,2024-07-25 22:35,-119.7326,39.1923,1431.00,91.40,44.60,19.89,240.00,10.00,0.00,30.23,M,10.00,21.00,CLR,M,M,M,M,M,M,M,M,M,M,M,M,M,M,87.68,KCXP 252235Z AUTO 24010G21KT 220V290 10SM CLR 33/07 A3023 RMK AO2,M
RTS,2024-07-25 22:35,-119.8764,39.6682,1539.00,91.40,37.40,15.05,280.00,18.00,0.00,30.23,M,10.00,23.00,FEW,M,M,M,10000.00,M,M,M,M,M,M,M,M,M,M,87.23,KRTS 252235Z AUTO 28018G23KT 10SM FEW100 33/03 A3023 RMK AO2,M
05U,2024-07-25 22:35,-116.0051,39.6042,1811.23,84.20,48.20,28.63,130.00,16.00,0.00,30.26,M,10.00,M,BKN,M,M,M,11000.00,M,M,M,M,M,M,M,M,M,M,82.04,K05U 252235Z AUTO 13016KT 10SM BKN110 29/09 A3026 RMK A01,M
MEV,2024-07-25 22:35,-119.7500,38.9963,1441.42,91.40,44.60,19.89,270.00,7.00,0.00,30.21,M,10.00,22.00,CLR,M,M,M,M,M,M,M,M,M,M,M,M,M,M,87.68,KMEV 252235Z AUTO 27007G22KT 10SM CLR 33/07 A3021 RMK AO2,M
BAM,2024-07-25 22:35,-116.8743,40.5990,1382.36,93.20,53.60,26.31,280.00,10.00,0.00,30.14,M,10.00,14.00,SCT,M,M,M,9000.00,M,M,M,M,M,M,M,M,M,M,90.86,KBAM 252235Z AUTO 28010G14KT 10SM SCT090 34/12 A3014 RMK AO1,M
HTH,2024-07-25 22:35,-118.6315,38.5448,1282.89,78.80,66.20,65.33,120.00,11.00,0.00,30.14,M,7.00,M,FEW,M,M,M,11000.00,M,M,M,M,M,M,M,M,M,M,78.80,KHTH 252235Z AUTO 12011KT 7SM FEW110 26/19 A3014 RMK A01,M
10U,2024-07-25 22:35,-116.1876,41.9532,1637.00,86.00,50.00,28.90,M,M,0.00,30.17,M,10.00,M,FEW,FEW,M,M,8500.00,11000.00,M,M,VCTS,M,M,M,M,M,M,83.62,K10U 252235Z AUTO 10SM VCTS FEW085 FEW110 30/10 A3017 RMK AO2 LTG DSNT NE,M
TMT,2024-07-25 22:35,-117.1971,39.4643,1749.34,92.00,43.70,18.86,230.00,13.00,0.00,30.24,M,10.00,M,SCT,M,M,M,11000.00,M,M,M,M,M,M,M,M,M,M,88.14,KTMT 252235Z AUTO 23013KT 10SM SCT110 33/07 A3024 RMK AO2 T03330065,M
INS,2024-07-25 22:39,-115.6733,36.5872,955.00,107.60,33.80,7.99,250.00,17.00,0.00,29.99,1009.00,10.00,22.00,FEW,M,M,M,13000.00,M,M,M,M,M,M,M,M,M,M,100.66,KINS 252239Z AUTO 25017G22KT 10SM FEW130 42/01 A2999 RMK AO2 WSHFT 25 SLP090 $,M
INS,2024-07-25 22:46,-115.6733,36.5872,955.00,107.60,37.40,9.21,210.00,12.00,0.00,29.98,1008.60,10.00,M,FEW,M,M,M,13000.00,M,M,M,M,M,M,M,M,M,M,101.34,KINS 252246Z AUTO 21012KT 10SM FEW130 42/03 A2998 RMK AO2 WSHFT 39 SLP086 $,M
LOL,2024-07-25 22:48,-118.5701,40.0684,1192.43,93.20,53.60,26.31,260.00,11.00,0.01,30.08,M,10.00,M,CLR,M,M,M,M,M,M,M,M,M,M,M,31.00,260.00,2024-07-25 22:12,90.86,KLOL 252248Z AUTO 26011KT 10SM CLR 34/12 A3008 RMK AO2 PK WND 26031/2212 WSHFT 2206 LTG DSNT N AND NE RAB06E31 TSB27E45 P0001 $,M
P68,2024-07-25 22:53,-116.0056,39.6014,1993.00,81.00,50.00,33.97,140.00,13.00,0.00,30.23,1015.40,M,M,M,M,M,M,M,M,M,M,M,M,M,M,33.00,140.00,2024-07-25 22:18,80.12,KP68 252253Z AUTO 14013KT 27/10 A3023 RMK AO1 PK WND 14033/2218 SLP154 T02720100,M
DRA,2024-07-25 22:53,-116.0278,36.6206,1009.00,106.00,46.00,13.46,210.00,12.00,0.00,30.01,1010.10,10.00,19.00,SCT,M,M,M,12000.00,M,M,M,M,M,M,M,M,M,M,102.07,KDRA 252253Z AUTO 21012G19KT 10SM SCT120 41/08 A3001 RMK AO2 SLP101 T04110078,M
ELY,2024-07-25 22:53,-114.8453,39.2950,1909.00,91.00,46.00,21.24,M,M,0.00,30.26,1013.70,10.00,M,CLR,M,M,M,M,M,M,M,M,M,M,M,M,M,M,87.45,KELY 252253Z AUTO 10SM CLR 33/08 A3026 RMK AO2 SLP137 T03280078 $,M
VGT,2024-07-25 22:53,-115.1933,36.2111,667.00,113.00,43.00,9.79,230.00,15.00,0.00,29.89,1010.00,10.00,24.00,CLR,M,M,M,M,M,M,M,M,M,M,M,M,M,M,107.66,KVGT 252253Z 23015G24KT 10SM CLR 45/06 A2989 RMK AO2 SLP100 T04500061,M
LOL,2024-07-25 22:53,-118.5701,40.0684,1192.43,95.00,52.00,23.47,240.00,9.00,0.01,30.07,1013.80,10.00,M,CLR,M,M,M,M,M,M,M,M,M,M,M,31.00,260.00,2024-07-25 22:12,92.31,KLOL 252253Z AUTO 24009KT 10SM CLR 35/11 A3007 RMK AO2 PK WND 26031/2212 WSHFT 2206 LTG DSNT N AND NE RAB06E31 TSB27E45 SLP138 P0001 T03500111 $,M
NFL,2024-07-25 22:54,-118.7010,39.4166,1199.00,97.00,48.00,19.02,280.00,14.00,0.00,30.08,1015.50,10.00,M,SCT,BKN,BKN,BKN,7000.00,12000.00,18000.00,22000.00,M,M,M,M,26.00,290.00,2024-07-25 22:25,93.52,KNFL 252254Z 28014KT 10SM SCT070 BKN120 BKN180 BKN220 36/09 A3008 RMK AO2 PK WND 29026/2225 SLP155 OCNL LTGICCC DSNT SE CB DSNT ALQDS T03610089,M
TMT,2024-07-25 22:55,-117.1971,39.4643,1749.34,89.20,45.50,22.05,280.00,13.00,0.00,30.23,M,10.00,M,CLR,M,M,M,M,M,M,M,M,M,M,M,M,M,M,85.80,KTMT 252255Z AUTO 28013KT 10SM CLR 32/08 A3023 RMK AO2 T03180075,M
BVU,2024-07-25 22:55,-114.8611,35.9475,671.00,113.00,39.20,8.45,250.00,15.00,0.00,29.89,M,10.00,22.00,CLR,M,M,M,M,M,M,M,M,M,M,M,M,M,M,106.68,KBVU 252255Z AUTO 25015G22KT 10SM CLR 45/04 A2989 RMK AO2,M
CXP,2024-07-25 22:55,-119.7326,39.1923,1431.00,89.60,42.80,19.64,180.00,10.00,0.00,30.22,M,10.00,23.00,CLR,M,M,M,M,M,M,M,M,M,M,M,M,M,M,85.93,KCXP 252255Z AUTO 18010G23KT 10SM CLR 32/06 A3022 RMK AO2,M
RNO,2024-07-25 22:55,-119.7711,39.4839,1341.00,95.00,42.00,16.10,280.00,23.00,0.00,30.15,1014.20,10.00,32.00,SCT,M,M,M,11000.00,M,M,M,M,M,M,M,33.00,260.00,2024-07-25 22:11,90.79,KRNO 252255Z 28023G32KT 10SM SCT110 35/06 A3015 RMK AO2 PK WND 26033/2211 SLP142 T03500056,M
RTS,2024-07-25 22:55,-119.8764,39.6682,1539.00,89.60,35.60,14.83,280.00,19.00,0.00,30.23,M,10.00,28.00,CLR,M,M,M,M,M,M,M,M,M,M,M,M,M,M,85.62,KRTS 252255Z AUTO 28019G28KT 10SM CLR 32/02 A3023 RMK AO2,M
05U,2024-07-25 22:55,-116.0051,39.6042,1811.23,80.60,51.80,36.79,150.00,11.00,0.00,30.26,M,9.00,16.00,FEW,BKN,BKN,M,5500.00,10000.00,12000.00,M,M,M,M,M,M,M,M,80.08,K05U 252255Z AUTO 15011G16KT 9SM FEW055 BKN100 BKN120 27/11 A3026 RMK A01,M
MEV,2024-07-25 22:55,-119.7500,38.9963,1441.42,93.20,44.60,18.80,270.00,11.00,0.00,30.21,M,10.00,M,CLR,M,M,M,M,M,M,M,M,M,M,M,M,M,M,89.34,KMEV 252255Z AUTO 27011KT 230V310 10SM CLR 34/07 A3021 RMK AO2,M
BAM,2024-07-25 22:55,-116.8743,40.5990,1382.36,95.00,51.80,23.30,270.00,12.00,0.00,30.13,M,10.00,19.00,SCT,M,M,M,10000.00,M,M,M,M,M,M,M,M,M,M,92.26,KBAM 252255Z AUTO 27012G19KT 10SM SCT100 35/11 A3013 RMK AO1,M
HTH,2024-07-25 22:55,-118.6315,38.5448,1282.89,84.20,60.80,45.34,110.00,6.00,0.02,30.14,M,10.00,M,M,M,M,M,M,M,M,M,M,M,M,M,M,M,M,84.43,KHTH 252255Z AUTO 11006KT 10SM 29/16 A3014 RMK A01 P0002,M
10U,2024-07-25 22:55,-116.1876,41.9532,1637.00,87.80,50.00,27.29,M,M,0.00,30.16,M,10.00,M,FEW,M,M,M,8500.00,M,M,M,M,M,M,M,M,M,M,85.11,K10U 252255Z AUTO 10SM FEW085 31/10 A3016 RMK AO2,M
INS,2024-07-25 22:55,-115.6733,36.5872,955.00,107.20,36.30,8.93,220.00,14.00,0.00,29.98,1008.70,10.00,23.00,FEW,M,M,M,13000.00,M,M,M,M,M,M,M,27.00,240.00,2024-07-25 22:21,100.77,KINS 252255Z AUTO 22014G23KT 10SM FEW130 42/02 A2998 RMK AO2 PK WND 24027/21 SLP087 T04180024 $,M
LSV,2024-07-25 22:55,-115.0343,36.2362,570.00,112.00,33.60,6.97,220.00,13.00,0.00,29.83,1006.50,10.00,16.00,CLR,M,M,M,M,M,M,M,M,M,M,M,M,M,M,104.78,KLSV 252255Z AUTO 22013G16KT 10SM CLR 45/01 A2983 RMK AO2 SLP065 T04450009 $,M
EKO,2024-07-25 22:56,-115.7860,40.8242,1367.00,90.00,54.00,29.51,240.00,12.00,0.00,30.16,1015.20,10.00,19.00,FEW,M,M,M,9000.00,M,M,M,M,M,M,M,M,M,M,87.82,KEKO 252256Z AUTO 24012G19KT 10SM FEW090 32/12 A3016 RMK AO2 LTG DSNT E-S SLP152 T03220122,M
WMC,2024-07-25 22:56,-117.8072,40.9019,1315.00,96.00,40.00,14.45,230.00,16.00,0.00,30.08,1013.00,10.00,25.00,FEW,M,M,M,12000.00,M,M,M,M,M,M,M,33.00,230.00,2024-07-25 22:15,91.55,KWMC 252256Z AUTO 23016G25KT 10SM FEW120 36/04 A3008 RMK AO2 PK WND 23033/2215 WSHFT 2211 LTG DSNT SW SLP130 T03560044,M
HND,2024-07-25 22:56,-115.1344,35.9729,742.79,110.00,46.00,11.97,240.00,8.00,0.00,29.95,1011.70,10.00,M,CLR,M,M,M,M,M,M,M,M,M,M,M,M,M,M,105.77,KHND 252256Z 24008KT 10SM CLR 43/08 A2995 RMK AO2 SLP117 T04330078,M
TPH,2024-07-25 22:56,-117.0904,38.0505,1654.00,92.00,44.00,19.08,M,M,0.00,30.19,1013.60,10.00,M,CLR,M,M,M,M,M,M,M,M,M,M,M,26.00,190.00,2024-07-25 22:13,88.17,KTPH 252256Z AUTO 10SM CLR 33/07 A3019 RMK AO2 PK WND 19026/2213 LTG DSNT W AND NW SLP136 T03330067,M
LAS,2024-07-25 22:56,-115.1634,36.0719,663.00,114.00,45.00,10.27,280.00,13.00,0.00,29.90,1005.30,10.00,21.00,FEW,FEW,M,M,12000.00,15000.00,M,M,M,M,M,M,M,M,M,109.12,KLAS 252256Z 28013G21KT 10SM FEW120 FEW150 46/07 A2990 RMK AO2 PRESFR SLP053 T04560072 $,M
10U,2024-07-25 23:10,-116.1876,41.9532,1637.00,87.80,50.00,27.29,M,M,0.00,30.15,M,10.00,M,SCT,SCT,M,M,8500.00,11000.00,M,M,M,M,M,M,M,M,M,85.11,K10U 252310Z AUTO 10SM SCT085 SCT110 31/10 A3015 RMK AO2,M
INS,2024-07-25 23:12,-115.6733,36.5872,955.00,107.60,33.80,7.99,200.00,17.00,0.00,29.98,1008.80,10.00,M,CLR,M,M,M,M,M,M,M,M,M,M,M,M,M,M,100.66,KINS 252312Z AUTO 20017KT 10SM CLR 42/01 A2998 RMK AO2 WSHFT 02 SLP088 $,M
BVU,2024-07-25 23:15,-114.8611,35.9475,671.00,113.00,39.20,8.45,250.00,12.00,0.00,29.88,M,10.00,21.00,CLR,M,M,M,M,M,M,M,M,M,M,M,M,M,M,106.68,KBVU 252315Z AUTO 25012G21KT 10SM CLR 45/04 A2988 RMK AO2,M
CXP,2024-07-25 23:15,-119.7326,39.1923,1431.00,89.60,44.60,21.04,260.00,9.00,0.00,30.21,M,10.00,20.00,CLR,M,M,M,M,M,M,M,M,M,M,M,M,M,M,86.07,KCXP 252315Z AUTO 26009G20KT 200V300 10SM CLR 32/07 A3021 RMK AO2,M
RTS,2024-07-25 23:15,-119.8764,39.6682,1539.00,89.60,33.80,13.80,280.00,17.00,0.00,30.23,M,10.00,27.00,CLR,M,M,M,M,M,M,M,M,M,M,M,M,M,M,85.59,KRTS 252315Z AUTO 28017G27KT 10SM CLR 32/01 A3023 RMK AO2,M
05U,2024-07-25 23:15,-116.0051,39.6042,1811.23,71.60,59.00,64.48,350.00,11.00,0.00,30.26,M,9.00,M,FEW,SCT,OVC,M,600.00,5500.00,9500.00,M,M,M,M,M,M,M,M,71.60,K05U 252315Z AUTO 35011KT 9SM FEW006 SCT055 OVC095 22/15 A3026 RMK A01,M
MEV,2024-07-25 23:15,-119.7500,38.9963,1441.42,91.40,42.80,18.56,250.00,12.00,0.00,30.20,M,10.00,18.00,CLR,M,M,M,M,M,M,M,M,M,M,M,M,M,M,87.52,KMEV 252315Z AUTO 25012G18KT 10SM CLR 33/06 A3020 RMK AO2,M
HTH,2024-07-25 23:15,-118.6315,38.5448,1282.89,84.20,55.40,37.35,140.00,7.00,0.00,30.14,M,10.00,M,CLR,M,M,M,M,M,M,M,M,M,M,M,M,M,M,83.09,KHTH 252315Z AUTO 14007KT 10SM CLR 29/13 A3014 RMK A01,M
BAM,2024-07-25 23:15,-116.8743,40.5990,1382.36,95.00,51.80,23.30,250.00,9.00,0.00,30.12,M,10.00,17.00,SCT,M,M,M,10000.00,M,M,M,M,M,M,M,M,M,M,92.26,KBAM 252315Z AUTO 25009G17KT 220V290 10SM SCT100 35/11 A3012 RMK AO1,M
TMT,2024-07-25 23:15,-117.1971,39.4643,1749.34,87.40,46.20,23.97,300.00,13.00,0.00,30.22,M,10.00,16.00,CLR,M,M,M,M,M,M,M,M,M,M,M,M,M,M,84.33,KTMT 252315Z AUTO 30013G16KT 10SM CLR 31/08 A3022 RMK AO2 T03080079,M
LSV,2024-07-25 23:16,-115.0343,36.2362,570.00,113.00,33.80,6.83,250.00,14.00,0.00,29.82,1006.20,10.00,18.00,CLR,M,M,M,M,M,M,M,M,M,M,M,M,M,M,105.58,KLSV 252316Z AUTO 25014G18KT 10SM CLR 45/01 A2982 RMK AO2 WSHFT 07 SLP062 $,M
P68,2024-07-25 23:32,-116.0056,39.6014,1993.00,67.00,58.00,72.82,210.00,18.00,0.25,30.27,M,M,43.00,M,M,M,M,M,M,M,M,M,M,M,M,43.00,330.00,2024-07-25 23:23,67.00,KP68 252332Z AUTO 21018G43KT 19/14 A3027 RMK AO1 PK WND 33043/2323 WSHFT 2315 PRESRR P0025 T01940144,M
BAM,2024-07-25 23:35,-116.8743,40.5990,1382.36,95.00,50.00,21.79,250.00,10.00,0.00,30.11,M,10.00,18.00,CLR,M,M,M,M,M,M,M,M,M,M,M,M,M,M,91.89,KBAM 252335Z AUTO 25010G18KT 10SM CLR 35/10 A3011 RMK AO1,M
TMT,2024-07-25 23:35,-117.1971,39.4643,1749.34,86.70,45.00,23.42,280.00,11.00,0.00,30.22,M,10.00,15.00,BKN,M,M,M,11000.00,M,M,M,M,M,M,M,M,M,M,83.66,KTMT 252335Z AUTO 28011G15KT 10SM BKN110 30/07 A3022 RMK AO2 T03040072,M
BVU,2024-07-25 23:35,-114.8611,35.9475,671.00,111.20,41.00,9.55,260.00,11.00,0.00,29.87,M,10.00,18.00,CLR,M,M,M,M,M,M,M,M,M,M,M,M,M,M,105.43,KBVU 252335Z AUTO 26011G18KT 10SM CLR 44/05 A2987 RMK AO2,M
CXP,2024-07-25 23:35,-119.7326,39.1923,1431.00,91.40,42.80,18.56,M,4.00,0.00,30.21,M,10.00,15.00,CLR,M,M,M,M,M,M,M,M,M,M,M,M,M,M,87.52,KCXP 252335Z AUTO VRB04G15KT 10SM CLR 33/06 A3021 RMK AO2,M
RTS,2024-07-25 23:35,-119.8764,39.6682,1539.00,89.60,33.80,13.80,280.00,17.00,0.00,30.21,M,10.00,27.00,CLR,M,M,M,M,M,M,M,M,M,M,M,M,M,M,85.59,KRTS 252335Z AUTO 28017G27KT 10SM CLR 32/01 A3021 RMK AO2,M
05U,2024-07-25 23:35,-116.0051,39.6042,1811.23,68.00,55.40,64.04,180.00,14.00,0.00,30.27,M,1.75,21.00,SCT,BKN,OVC,M,400.00,3400.00,9500.00,M,HZ,M,M,M,M,M,M,68.00,K05U 252335Z AUTO 18014G21KT 150V210 1 3/4SM HZ SCT004 BKN034 OVC095 20/13 A3027 RMK A01,M
MEV,2024-07-25 23:35,-119.7500,38.9963,1441.42,91.40,41.00,17.32,280.00,9.00,0.00,30.20,M,10.00,21.00,CLR,M,M,M,M,M,M,M,M,M,M,M,M,M,M,87.40,KMEV 252335Z AUTO 28009G21KT 10SM CLR 33/05 A3020 RMK AO2,M
HTH,2024-07-25 23:35,-118.6315,38.5448,1282.89,86.00,57.20,37.62,160.00,4.00,0.00,30.13,M,10.00,M,FEW,M,M,M,12000.00,M,M,M,M,M,M,M,M,M,M,84.97,KHTH 252335Z AUTO 16004KT 10SM FEW120 30/14 A3013 RMK A01,M
10U,2024-07-25 23:35,-116.1876,41.9532,1637.00,89.60,48.20,24.11,M,M,0.00,30.15,M,10.00,M,CLR,M,M,M,M,M,M,M,M,M,M,M,M,M,M,86.44,K10U 252335Z AUTO 10SM CLR 32/09 A3015 RMK AO2,M
P68,2024-07-25 23:37,-116.0056,39.6014,1993.00,69.00,56.00,63.24,130.00,12.00,0.30,30.25,M,M,25.00,M,M,M,M,M,M,M,M,M,M,M,M,43.00,330.00,2024-07-25 23:23,69.00,KP68 252337Z AUTO 13012G25KT 100V180 21/13 A3025 RMK AO1 PK WND 33043/2323 WSHFT 2323 P0030 T02060133,M
INS,2024-07-25 23:38,-115.6733,36.5872,955.00,105.80,35.60,9.05,200.00,13.00,0.00,29.97,1008.40,10.00,22.00,CLR,M,M,M,M,M,M,M,M,M,M,M,M,M,M,99.42,KINS 252338Z AUTO 20013G22KT 10SM CLR 41/02 A2997 RMK AO2 WSHFT 33 SLP084 $,M
P68,2024-07-25 23:42,-116.0056,39.6014,1993.00,75.00,52.00,44.59,100.00,7.00,0.41,30.24,M,M,23.00,M,M,M,M,M,M,M,M,M,M,M,M,43.00,330.00,2024-07-25 23:23,75.00,KP68 252342Z AUTO 10007G23KT 070V130 24/11 A3024 RMK AO1 PK WND 33043/2323 WSHFT 2325 P0041 T02390111,M
05U,2024-07-25 23:50,-116.0051,39.6042,1811.23,71.60,55.40,56.63,0.00,0.00,0.00,30.26,M,9.00,14.00,FEW,SCT,BKN,M,400.00,3100.00,10000.00,M,M,M,M,M,M,M,M,71.60,K05U 252350Z AUTO 00000G14KT 9SM FEW004 SCT031 BKN100 22/13 A3026 RMK A01,M
P68,2024-07-25 23:53,-116.0056,39.6014,1993.00,73.00,57.00,57.23,100.00,5.00,0.42,30.25,1017.20,M,18.00,M,M,M,M,M,M,M,M,M,M,M,M,43.00,330.00,2024-07-25 23:23,73.00,KP68 252353Z AUTO 10005G18KT 23/14 A3025 RMK AO1 PK WND 33043/2323 WSHFT 2325 SLP172 P0042 60042 T02280139 10322 20189 55008,M
DRA,2024-07-25 23:53,-116.0278,36.6206,1009.00,106.00,46.00,13.46,180.00,9.00,0.00,29.99,1009.30,10.00,M,CLR,M,M,M,M,M,M,M,M,M,M,M,26.00,250.00,2024-07-25 23:27,102.07,KDRA 252353Z AUTO 18009KT 10SM CLR 41/08 A2999 RMK AO2 PK WND 25026/2327 SLP093 T04110078 10417 20356 57026,M
ELY,2024-07-25 23:53,-114.8453,39.2950,1909.00,86.00,45.00,23.95,M,M,0.00,30.23,1013.00,10.00,M,CLR,M,M,M,M,M,M,M,M,M,M,M,M,M,M,83.10,KELY 252353Z AUTO 10SM CLR 30/07 A3023 RMK AO2 LTG DSNT N SLP130 T03000072 10328 20267 58025 $,M
VGT,2024-07-25 23:53,-115.1933,36.2111,667.00,113.00,44.00,10.17,230.00,14.00,0.00,29.87,1009.30,10.00,M,CLR,M,M,M,M,M,M,M,M,M,M,M,30.00,200.00,2024-07-25 23:03,107.95,KVGT 252353Z 23014KT 10SM CLR 45/07 A2987 RMK AO2 PK WND 20030/2303 SLP093 T04500067 10456 20383 58017,M
LOL,2024-07-25 23:53,-118.5701,40.0684,1192.43,98.00,42.00,14.68,250.00,18.00,0.01,30.05,1013.10,10.00,24.00,CLR,M,M,M,M,M,M,M,M,M,M,M,M,M,M,93.63,KLOL 252353Z AUTO 25018G24KT 10SM CLR 37/06 A3005 RMK AO2 SLP131 P0001 60002 T03670056 10367 20289 56022 $,M
NFL,2024-07-25 23:54,-118.7010,39.4166,1199.00,97.00,39.00,13.48,280.00,15.00,0.00,30.07,1014.90,10.00,25.00,SCT,SCT,SCT,M,7000.00,12000.00,22000.00,M,M,M,M,M,28.00,260.00,2024-07-25 23:42,92.40,KNFL 252354Z 28015G25KT 10SM SCT070 SCT120 SCT220 36/04 A3007 RMK AO2 PK WND 26028/2342 SLP149 OCNL LTGICCCG DSNT E-SE TS DSNT E-SE T03610039 10378 20317 56021,M
BVU,2024-07-25 23:55,-114.8611,35.9475,671.00,111.20,37.40,8.30,250.00,17.00,0.00,29.86,M,10.00,M,CLR,M,M,M,M,M,M,M,M,M,M,M,M,M,M,104.58,KBVU 252355Z AUTO 25017KT 10SM CLR 44/03 A2986 RMK AO2,M
CXP,2024-07-25 23:55,-119.7326,39.1923,1431.00,91.40,42.80,18.56,200.00,7.00,0.00,30.20,M,10.00,M,CLR,M,M,M,M,M,M,M,M,M,M,M,M,M,M,87.52,KCXP 252355Z AUTO 20007KT 170V280 10SM CLR 33/06 A3020 RMK AO2,M
RNO,2024-07-25 23:55,-119.7711,39.4839,1341.00,93.00,41.00,16.48,290.00,20.00,0.00,30.14,1014.10,10.00,28.00,FEW,M,M,M,11000.00,M,M,M,M,M,M,M,29.00,290.00,2024-07-25 23:38,88.85,KRNO 252355Z 29020G28KT 10SM FEW110 34/05 A3014 RMK AO2 PK WND 29029/2338 SLP141 T03390050 10356 20322 56013,M
RTS,2024-07-25 23:55,-119.8764,39.6682,1539.00,89.60,35.60,14.83,270.00,17.00,0.00,30.21,M,10.00,27.00,CLR,M,M,M,M,M,M,M,M,M,M,M,M,M,M,85.62,KRTS 252355Z AUTO 27017G27KT 10SM CLR 32/02 A3021 RMK AO2,M
BAM,2024-07-25 23:55,-116.8743,40.5990,1382.36,95.00,50.00,21.79,260.00,9.00,0.00,30.10,M,10.00,19.00,CLR,M,M,M,M,M,M,M,M,M,M,M,M,M,M,91.89,KBAM 252355Z AUTO 26009G19KT 10SM CLR 35/10 A3010 RMK AO1,M
TMT,2024-07-25 23:55,-117.1971,39.4643,1749.34,85.50,45.70,24.99,290.00,12.00,0.00,30.24,M,10.00,20.00,BKN,M,M,M,11000.00,M,M,M,M,M,M,M,M,M,M,82.77,KTMT 252355Z AUTO 29012G20KT 10SM BKN110 30/08 A3024 RMK AO2 T02970076 10335 20277,M
MEV,2024-07-25 23:55,-119.7500,38.9963,1441.42,91.40,41.00,17.32,M,M,0.00,30.19,M,10.00,M,CLR,M,M,M,M,M,M,M,M,M,M,M,M,M,M,87.40,KMEV 252355Z AUTO 10SM CLR 33/05 A3019 RMK AO2,M
HTH,2024-07-25 23:55,-118.6315,38.5448,1282.89,87.80,53.60,31.17,190.00,5.00,0.00,30.13,M,10.00,M,CLR,M,M,M,M,M,M,M,M,M,M,M,M,M,M,85.72,KHTH 252355Z AUTO 19005KT 10SM CLR 31/12 A3013 RMK A01,M
10U,2024-07-25 23:55,-116.1876,41.9532,1637.00,91.40,46.40,21.29,M,M,0.00,30.14,M,10.00,M,CLR,M,M,M,M,M,M,M,M,M,M,M,M,M,M,87.86,K10U 252355Z AUTO 10SM CLR 33/08 A3014 RMK AO2,M
INS,2024-07-25 23:55,-115.6733,36.5872,955.00,107.00,36.00,8.87,210.00,16.00,0.00,29.97,1008.40,10.00,25.00,CLR,M,M,M,M,M,M,M,M,M,M,M,M,M,M,100.54,KINS 252355Z AUTO 21016G25KT 10SM CLR 42/02 A2997 RMK AO2 SLP084 T04160023 10422 20358 57023 $,M
LSV,2024-07-25 23:55,-115.0343,36.2362,570.00,113.00,30.20,5.91,240.00,14.00,0.00,29.80,1005.60,10.00,M,CLR,M,M,M,M,M,M,M,M,M,M,M,M,M,M,104.98,KLSV 252355Z AUTO 24014KT 10SM CLR 45/M01 A2980 RMK AO2 SLP056 T04491010 10453 20385 57032 $,M
LAS,2024-07-25 23:56,-115.1634,36.0719,663.00,113.00,45.00,10.57,260.00,9.00,0.00,29.88,1004.60,10.00,16.00,FEW,FEW,M,M,12000.00,15000.00,M,M,M,M,M,M,M,M,M,108.26,KLAS 252356Z 26009G16KT 10SM FEW120 FEW150 45/07 A2988 RMK AO2 SLP046 T04500072 10456 20394 56025 $,M
EKO,2024-07-25 23:56,-115.7860,40.8242,1367.00,89.00,53.00,29.36,150.00,12.00,0.00,30.13,1014.00,10.00,18.00,SCT,M,M,M,9500.00,M,M,M,VCTS,M,M,M,M,M,M,86.68,KEKO 252356Z AUTO 15012G18KT 10SM VCTS SCT095 32/12 A3013 RMK AO2 LTG DSNT NE-SE SLP140 T03170117 10344 20294 56029,M
WMC,2024-07-25 23:56,-117.8072,40.9019,1315.00,93.00,41.00,16.48,240.00,12.00,0.00,30.08,1013.00,10.00,M,CLR,M,M,M,M,M,M,M,M,M,M,M,26.00,280.00,2024-07-25 23:20,88.85,KWMC 252356Z AUTO 24012KT 10SM CLR 34/05 A3008 RMK AO2 PK WND 28026/2320 LTG DSNT SE AND S SLP130 T03390050 10378 20328 56019,M
HND,2024-07-25 23:56,-115.1344,35.9729,742.79,111.00,49.00,13.02,280.00,15.00,0.00,29.93,1011.10,10.00,19.00,CLR,M,M,M,M,M,M,M,M,M,M,M,M,M,M,107.77,KHND 252356Z 28015G19KT 10SM CLR 44/09 A2993 RMK AO2 SLP111 T04390094 10439 20389 56025,M
TPH,2024-07-25 23:56,-117.0904,38.0505,1654.00,92.00,43.00,18.36,210.00,12.00,0.00,30.17,1013.00,10.00,17.00,CLR,M,M,M,M,M,M,M,M,M,M,M,M,M,M,88.08,KTPH 252356Z AUTO 21012G17KT 10SM CLR 33/06 A3017 RMK AO2 LTG DSNT N AND SW SLP130 T03330061 10356 20300 56026,M
