station,valid,lon,lat,elevation,tmpf,dwpf,relh,drct,sknt,p01i,alti,mslp,vsby,gust,skyc1,skyc2,skyc3,skyc4,skyl1,skyl2,skyl3,skyl4,wxcodes,ice_accretion_1hr,ice_accretion_3hr,ice_accretion_6hr,peak_wind_gust,peak_wind_drct,peak_wind_time,feel,metar,snowdepth
05U,2024-01-22 00:10,-116.0051,39.6042,1811.23,41.00,32.00,70.08,300.00,7.00,0.00,29.83,M,10.00,M,M,M,M,M,M,M,M,M,M,M,M,M,M,M,M,35.75,K05U 220010Z AUTO 30007KT 10SM 05/M00 A2983 RMK A01,M
TPH,2024-01-22 00:13,-117.0904,38.0505,1654.00,44.00,34.00,67.66,130.00,5.00,0.00,29.85,M,10.00,M,SCT,M,M,M,2700.00,M,M,M,M,M,M,M,M,M,M,40.65,KTPH 220013Z AUTO 13005KT 10SM SCT027 07/01 A2985 RMK AO2 T00670011,M
BVU,2024-01-22 00:15,-114.8611,35.9475,671.00,55.40,42.80,62.46,0.00,0.00,0.00,29.86,M,10.00,M,SCT,BKN,M,M,4000.00,5500.00,M,M,M,M,M,M,M,M,M,55.40,KBVU 220015Z AUTO 00000KT 10SM SCT040 BKN055 13/06 A2986 RMK AO2,M
CXP,2024-01-22 00:15,-119.7326,39.1923,1431.00,51.80,30.20,43.32,M,6.00,0.00,29.75,M,10.00,M,CLR,M,M,M,M,M,M,M,M,M,M,M,M,M,M,51.80,KCXP 220015Z AUTO VRB06KT 10SM CLR 11/M01 A2975 RMK AO2,M
BAM,2024-01-22 00:15,-116.8743,40.5990,1382.36,53.60,33.80,46.88,230.00,5.00,0.00,29.76,M,10.00,M,CLR,M,M,M,M,M,M,M,M,M,M,M,M,M,M,53.60,KBAM 220015Z AUTO 23005KT 10SM CLR 12/01 A2976 RMK AO1,M
HTH,2024-01-22 00:15,-118.6315,38.5448,1282.89,55.40,32.00,40.84,340.00,6.00,0.00,29.74,M,10.00,M,SCT,M,M,M,9000.00,M,M,M,M,M,M,M,M,M,M,55.40,KHTH 220015Z AUTO 34006KT 10SM SCT090 13/00 A2974 RMK A01,M
10U,2024-01-22 00:15,-116.1876,41.9532,1637.00,39.20,32.00,75.16,150.00,7.00,0.00,29.78,M,10.00,M,SCT,SCT,M,M,3900.00,7000.00,M,M,M,M,M,M,M,M,M,33.56,K10U 220015Z AUTO 15007KT 10SM SCT039 SCT070 04/M00 A2978 RMK AO2,M
TMT,2024-01-22 00:15,-117.1971,39.4643,1749.34,44.40,31.50,60.27,250.00,6.00,0.00,29.80,M,10.00,M,CLR,M,M,M,M,M,M,M,M,M,M,M,M,M,M,40.46,KTMT 220015Z AUTO 25006KT 10SM CLR 07/00 A2980 RMK AO2 T00691003,M
05U,2024-01-22 00:30,-116.0051,39.6042,1811.23,41.00,32.00,70.08,310.00,6.00,0.00,29.83,M,10.00,M,M,M,M,M,M,M,M,M,M,M,M,M,M,M,M,36.37,K05U 220030Z AUTO 31006KT 10SM 05/M00 A2983 RMK A01,M
BVU,2024-01-22 00:35,-114.8611,35.9475,671.00,53.60,48.20,81.87,70.00,7.00,0.00,29.87,M,10.00,M,BKN,M,M,M,3900.00,M,M,M,M,M,M,M,M,M,M,53.60,KBVU 220035Z AUTO 07007KT 10SM BKN039 12/09 A2987 RMK AO2,M
CXP,2024-01-22 00:35,-119.7326,39.1923,1431.00,50.00,30.20,46.31,240.00,7.00,0.00,29.75,M,10.00,M,CLR,M,M,M,M,M,M,M,M,M,M,M,M,M,M,50.00,KCXP 220035Z AUTO 24007KT 10SM CLR 10/M01 A2975 RMK AO2,M
BAM,2024-01-22 00:35,-116.8743,40.5990,1382.36,51.80,35.60,53.81,230.00,4.00,0.00,29.76,M,10.00,M,CLR,M,M,M,M,M,M,M,M,M,M,M,M,M,M,51.80,KBAM 220035Z AUTO 23004KT 10SM CLR 11/02 A2976 RMK AO1,M
HTH,2024-01-22 00:35,-118.6315,38.5448,1282.89,51.80,32.00,46.59,0.00,0.00,0.00,29.74,M,10.00,M,SCT,M,M,M,8500.00,M,M,M,M,M,M,M,M,M,M,51.80,KHTH 220035Z AUTO 00000KT 10SM SCT085 11/00 A2974 RMK A01,M
10U,2024-01-22 00:35,-116.1876,41.9532,1637.00,39.20,30.20,69.88,160.00,6.00,0.00,29.79,M,10.00,M,BKN,BKN,BKN,M,4300.00,4900.00,9000.00,M,M,M,M,M,M,M,M,34.20,K10U 220035Z AUTO 16006KT 10SM BKN043 BKN049 BKN090 04/M01 A2979 RMK AO2,M
TMT,2024-01-22 00:35,-117.1971,39.4643,1749.34,41.00,31.00,67.30,250.00,7.00,0.00,29.80,M,10.00,M,CLR,M,M,M,M,M,M,M,M,M,M,M,M,M,M,35.75,KTMT 220035Z AUTO 25007KT 10SM CLR 05/M01 A2980 RMK AO2 T00491006,M
05U,2024-01-22 00:50,-116.0051,39.6042,1811.23,39.20,32.00,75.16,320.00,7.00,0.00,29.83,M,10.00,M,M,M,M,M,M,M,M,M,M,M,M,M,M,M,M,33.56,K05U 220050Z AUTO 32007KT 10SM 04/M00 A2983 RMK A01,M
P68,2024-01-22 00:53,-116.0056,39.6014,1993.00,39.00,32.00,75.75,160.00,9.00,0.00,29.81,1007.60,M,M,M,M,M,M,M,M,M,M,M,M,M,M,M,M,M,32.22,KP68 220053Z AUTO 16009KT 04/00 A2981 RMK AO1 SLP076 T00390000,M
DRA,2024-01-22 00:53,-116.0278,36.6206,1009.00,48.00,41.00,76.58,240.00,5.00,0.00,29.88,1010.20,10.00,M,CLR,M,M,M,M,M,M,M,M,M,M,M,M,M,M,45.40,KDRA 220053Z AUTO 24005KT 10SM CLR 09/05 A2988 RMK AO2 SLP102 T00890050 $,M
ELY,2024-01-22 00:53,-114.8453,39.2950,1909.00,35.00,29.00,78.51,210.00,7.00,0.00,29.84,1009.30,10.00,M,CLR,M,M,M,M,M,M,M,M,M,M,M,M,M,M,28.44,KELY 220053Z AUTO 21007KT 10SM CLR 02/M02 A2984 RMK AO2 SLP093 T00171017,M
VGT,2024-01-22 00:53,-115.1933,36.2111,667.00,52.00,47.00,82.99,80.00,4.00,0.00,29.88,1013.30,10.00,M,CLR,M,M,M,M,M,M,M,M,M,M,M,M,M,M,52.00,KVGT 220053Z 08004KT 10SM CLR 11/08 A2988 RMK AO2 SLP133 T01110083,M
LOL,2024-01-22 00:53,-118.5701,40.0684,1192.43,47.00,33.00,58.01,160.00,4.00,0.00,29.71,1006.10,10.00,M,CLR,M,M,M,M,M,M,M,M,M,M,M,M,M,M,44.94,KLOL 220053Z AUTO 16004KT 10SM CLR 08/01 A2971 RMK AO2 SLP061 T00830006 $,M
BVU,2024-01-22 00:55,-114.8611,35.9475,671.00,51.80,48.20,87.47,70.00,7.00,0.00,29.88,M,10.00,M,BKN,BKN,BKN,M,3800.00,6000.00,8000.00,M,M,M,M,M,M,M,M,51.80,KBVU 220055Z AUTO 07007KT 10SM BKN038 BKN060 BKN080 11/09 A2988 RMK AO2,M
CXP,2024-01-22 00:55,-119.7326,39.1923,1431.00,50.00,30.20,46.31,210.00,6.00,0.00,29.75,M,10.00,M,CLR,M,M,M,M,M,M,M,M,M,M,M,M,M,M,50.00,KCXP 220055Z AUTO 21006KT 10SM CLR 10/M01 A2975 RMK AO2,M
INS,2024-01-22 00:55,-115.6733,36.5872,955.00,50.00,41.70,73.02,0.00,0.00,0.00,29.87,1010.20,10.00,M,FEW,OVC,M,M,3800.00,4700.00,M,M,M,M,M,M,M,M,M,50.00,KINS 220055Z AUTO 00000KT 10SM FEW038 OVC047 10/05 A2987 RMK AO2 SLP102 T01000054,M
RNO,2024-01-22 00:55,-119.7711,39.4839,1341.00,52.00,29.00,40.95,200.00,10.00,0.00,29.72,1004.60,10.00,20.00,FEW,BKN,BKN,M,3900.00,12000.00,19000.00,M,M,M,M,M,26.00,200.00,2024-01-22 00:37,52.00,KRNO 220055Z 20010G20KT 140V250 10SM FEW039 BKN120 BKN190 11/M02 A2972 RMK AO2 PK WND 20026/0037 SLP046 ACSL ALQDS MTN TOPS OBSCD DSNT SW AND W T01111017,M
LSV,2024-01-22 00:55,-115.0343,36.2362,570.00,53.80,48.40,81.88,90.00,6.00,0.00,29.85,1010.30,10.00,M,OVC,M,M,M,6000.00,M,M,M,M,M,M,M,M,M,M,53.80,KLSV 220055Z 09006KT 10SM OVC060 12/09 A2985 RMK AO2A SLP103 T01210091 $,M
RTS,2024-01-22 00:55,-119.8764,39.6682,1539.00,46.40,30.20,53.00,220.00,21.00,0.00,29.73,M,10.00,28.00,OVC,M,M,M,11000.00,M,M,M,M,M,M,M,M,M,M,38.06,KRTS 220055Z AUTO 22021G28KT 10SM OVC110 08/M01 A2973 RMK AO2,M
MEV,2024-01-22 00:55,-119.7500,38.9963,1441.42,48.20,30.20,49.53,180.00,16.00,0.00,29.74,M,10.00,22.00,BKN,M,M,M,12000.00,M,M,M,M,M,M,M,M,M,M,41.53,KMEV 220055Z AUTO 18016G22KT 10SM BKN120 09/M01 A2974 RMK AO2,M
BAM,2024-01-22 00:55,-116.8743,40.5990,1382.36,50.00,35.60,57.52,0.00,0.00,0.00,29.77,M,10.00,M,CLR,M,M,M,M,M,M,M,M,M,M,M,M,M,M,50.00,KBAM 220055Z AUTO 00000KT 10SM CLR 10/02 A2977 RMK AO1,M
HTH,2024-01-22 00:55,-118.6315,38.5448,1282.89,50.00,32.00,49.81,270.00,6.00,0.00,29.74,M,10.00,M,FEW,M,M,M,8500.00,M,M,M,M,M,M,M,M,M,M,50.00,KHTH 220055Z AUTO 27006KT 10SM FEW085 10/00 A2974 RMK A01,M
TMT,2024-01-22 00:55,-117.1971,39.4643,1749.34,37.60,30.40,75.00,250.00,6.00,0.00,29.81,M,10.00,M,CLR,M,M,M,M,M,M,M,M,M,M,M,M,M,M,32.27,KTMT 220055Z AUTO 25006KT 10SM CLR 03/M01 A2981 RMK AO2 T00311009,M
10U,2024-01-22 00:55,-116.1876,41.9532,1637.00,39.20,30.20,69.88,160.00,7.00,0.00,29.79,M,10.00,M,FEW,BKN,OVC,M,4300.00,7500.00,8500.00,M,M,M,M,M,M,M,M,33.56,K10U 220055Z AUTO 16007KT 10SM FEW043 BKN075 OVC085 04/M01 A2979 RMK AO2,M
EKO,2024-01-22 00:56,-115.7860,40.8242,1367.00,38.00,32.00,78.77,340.00,4.00,0.00,29.80,1009.40,10.00,M,CLR,M,M,M,M,M,M,M,M,M,M,M,M,M,M,34.43,KEKO 220056Z AUTO 34004KT 10SM CLR 03/00 A2980 RMK AO2 SLP094 T00330000,M
NFL,2024-01-22 00:56,-118.7010,39.4166,1199.00,51.00,34.00,52.00,150.00,6.00,0.00,29.71,1004.20,10.00,M,CLR,M,M,M,M,M,M,M,M,M,M,M,M,M,M,51.00,KNFL 220056Z AUTO 15006KT 10SM CLR 11/01 A2971 RMK AO2 SLP042 T01060011,M
HND,2024-01-22 00:56,-115.1344,35.9729,742.79,52.00,47.00,82.99,10.00,8.00,0.00,29.90,1013.90,10.00,M,BKN,OVC,M,M,4500.00,6000.00,M,M,M,M,M,M,M,M,M,52.00,KHND 220056Z 01008KT 10SM BKN045 OVC060 11/08 A2990 RMK AO2 SLP139 T01110083,M
TPH,2024-01-22 00:56,-117.0904,38.0505,1654.00,41.00,34.00,75.94,100.00,6.00,0.00,29.85,1010.10,10.00,M,FEW,M,M,M,2800.00,M,M,M,M,M,M,M,M,M,M,36.37,KTPH 220056Z AUTO 10006KT 10SM FEW028 05/01 A2985 RMK AO2 SLP101 T00500011,M
LAS,2024-01-22 00:56,-115.1634,36.0719,663.00,53.00,48.00,83.06,10.00,5.00,0.00,29.88,1011.20,10.00,M,FEW,BKN,BKN,BKN,3600.00,4500.00,7000.00,25000.00,M,M,M,M,M,M,M,53.00,KLAS 220056Z 01005KT 10SM FEW036 BKN045 BKN070 BKN250 12/09 A2988 RMK AO2 SLP112 T01170089,M
WMC,2024-01-22 00:56,-117.8072,40.9019,1315.00,45.00,33.00,62.58,200.00,5.00,0.00,29.73,1006.10,10.00,M,CLR,M,M,M,M,M,M,M,M,M,M,M,M,M,M,41.83,KWMC 220056Z AUTO 20005KT 10SM CLR 07/01 A2973 RMK AO2 SLP061 T00720006,M
05U,2024-01-22 01:10,-116.0051,39.6042,1811.23,39.20,32.00,75.16,320.00,6.00,0.00,29.83,M,10.00,M,M,M,M,M,M,M,M,M,M,M,M,M,M,M,M,34.20,K05U 220110Z AUTO 32006KT 10SM 04/M00 A2983 RMK A01,M
BVU,2024-01-22 01:15,-114.8611,35.9475,671.00,51.80,48.20,87.47,90.00,7.00,0.00,29.88,M,10.00,M,BKN,OVC,M,M,3800.00,6000.00,M,M,M,M,M,M,M,M,M,51.80,KBVU 220115Z AUTO 09007KT 10SM BKN038 OVC060 11/09 A2988 RMK AO2,M
CXP,2024-01-22 01:15,-119.7326,39.1923,1431.00,48.20,30.20,49.53,200.00,6.00,0.00,29.76,M,10.00,11.00,CLR,M,M,M,M,M,M,M,M,M,M,M,M,M,M,45.04,KCXP 220115Z AUTO 20006G11KT 10SM CLR 09/M01 A2976 RMK AO2,M
RTS,2024-01-22 01:15,-119.8764,39.6682,1539.00,46.40,30.20,53.00,230.00,14.00,0.00,29.74,M,10.00,22.00,OVC,M,M,M,10000.00,M,M,M,M,M,M,M,M,M,M,39.72,KRTS 220115Z AUTO 23014G22KT 10SM OVC100 08/M01 A2974 RMK AO2,M
MEV,2024-01-22 01:15,-119.7500,38.9963,1441.42,48.20,30.20,49.53,180.00,12.00,0.00,29.75,M,10.00,20.00,BKN,M,M,M,11000.00,M,M,M,M,M,M,M,M,M,M,42.62,KMEV 220115Z AUTO 18012G20KT 10SM BKN110 09/M01 A2975 RMK AO2,M
BAM,2024-01-22 01:15,-116.8743,40.5990,1382.36,50.00,35.60,57.52,0.00,0.00,0.00,29.77,M,10.00,M,SCT,M,M,M,8000.00,M,M,M,M,M,M,M,M,M,M,50.00,KBAM 220115Z AUTO 00000KT 10SM SCT080 10/02 A2977 RMK AO1,M
HTH,2024-01-22 01:15,-118.6315,38.5448,1282.89,51.80,32.00,46.59,0.00,0.00,0.00,29.74,M,10.00,M,CLR,M,M,M,M,M,M,M,M,M,M,M,M,M,M,51.80,KHTH 220115Z AUTO 00000KT 10SM CLR 11/M00 A2974 RMK A01,M
10U,2024-01-22 01:15,-116.1876,41.9532,1637.00,39.20,30.20,69.88,170.00,7.00,0.00,29.79,M,10.00,M,FEW,SCT,BKN,M,4300.00,7000.00,8000.00,M,M,M,M,M,M,M,M,33.56,K10U 220115Z AUTO 17007KT 10SM FEW043 SCT070 BKN080 04/M01 A2979 RMK AO2,M
TMT,2024-01-22 01:15,-117.1971,39.4643,1749.34,35.20,30.00,81.13,160.00,6.00,0.00,29.81,M,10.00,M,CLR,M,M,M,M,M,M,M,M,M,M,M,M,M,M,29.38,KTMT 220115Z AUTO 16006KT 10SM CLR 02/M01 A2981 RMK AO2 T00181011,M
05U,2024-01-22 01:30,-116.0051,39.6042,1811.23,37.40,32.00,80.65,320.00,8.00,0.00,29.84,M,10.00,M,M,M,M,M,M,M,M,M,M,M,M,M,M,M,M,30.76,K05U 220130Z AUTO 32008KT 10SM 03/M00 A2984 RMK A01,M
BVU,2024-01-22 01:35,-114.8611,35.9475,671.00,51.80,48.20,87.47,70.00,5.00,0.00,29.89,M,10.00,M,FEW,BKN,OVC,M,3700.00,4400.00,7500.00,M,M,M,M,M,M,M,M,51.80,KBVU 220135Z AUTO 07005KT 10SM FEW037 BKN044 OVC075 11/09 A2989 RMK AO2,M
CXP,2024-01-22 01:35,-119.7326,39.1923,1431.00,48.20,30.20,49.53,180.00,6.00,0.00,29.76,M,10.00,M,FEW,M,M,M,10000.00,M,M,M,M,M,M,M,M,M,M,45.04,KCXP 220135Z AUTO 18006KT 10SM FEW100 09/M01 A2976 RMK AO2,M
RTS,2024-01-22 01:35,-119.8764,39.6682,1539.00,46.40,28.40,49.24,230.00,14.00,0.00,29.74,M,10.00,22.00,OVC,M,M,M,9500.00,M,M,M,M,M,M,M,M,M,M,39.72,KRTS 220135Z AUTO 23014G22KT 10SM OVC095 08/M02 A2974 RMK AO2,M
MEV,2024-01-22 01:35,-119.7500,38.9963,1441.42,46.40,30.20,53.00,160.00,13.00,0.00,29.75,M,10.00,M,BKN,M,M,M,10000.00,M,M,M,M,M,M,M,M,M,M,40.02,KMEV 220135Z AUTO 16013KT 10SM BKN100 08/M01 A2975 RMK AO2,M
BAM,2024-01-22 01:35,-116.8743,40.5990,1382.36,44.60,35.60,70.48,140.00,3.00,0.00,29.77,M,10.00,M,CLR,M,M,M,M,M,M,M,M,M,M,M,M,M,M,43.09,KBAM 220135Z AUTO 14003KT 10SM CLR 07/02 A2977 RMK AO1,M
HTH,2024-01-22 01:35,-118.6315,38.5448,1282.89,50.00,32.00,49.81,220.00,3.00,0.00,29.74,M,10.00,M,CLR,M,M,M,M,M,M,M,M,M,M,M,M,M,M,50.00,KHTH 220135Z AUTO 22003KT 10SM CLR 10/00 A2974 RMK A01,M
10U,2024-01-22 01:35,-116.1876,41.9532,1637.00,37.40,30.20,74.98,160.00,7.00,0.00,29.79,M,10.00,M,BKN,BKN,M,M,7000.00,9000.00,M,M,M,M,M,M,M,M,M,31.36,K10U 220135Z AUTO 16007KT 10SM BKN070 BKN090 03/M01 A2979 RMK AO2,M
TMT,2024-01-22 01:35,-117.1971,39.4643,1749.34,35.00,30.70,84.14,210.00,8.00,0.00,29.80,M,10.00,M,CLR,M,M,M,M,M,M,M,M,M,M,M,M,M,M,27.81,KTMT 220135Z AUTO 21008KT 10SM CLR 02/M01 A2980 RMK AO2 T00171007,M
HTH,2024-01-22 01:50,-118.6315,38.5448,1282.89,50.00,32.00,49.81,140.00,10.00,0.00,29.74,M,10.00,M,CLR,M,M,M,M,M,M,M,M,M,M,M,M,M,M,50.00,KHTH 220150Z AUTO 14010KT 10SM CLR 10/M00 A2974 RMK A01,M
05U,2024-01-22 01:50,-116.0051,39.6042,1811.23,37.40,32.00,80.65,290.00,7.00,0.00,29.84,M,10.00,M,M,M,M,M,M,M,M,M,M,M,M,M,M,M,M,31.36,K05U 220150Z AUTO 29007KT 10SM 03/M00 A2984 RMK A01,M
P68,2024-01-22 01:53,-116.0056,39.6014,1993.00,36.00,31.00,81.86,130.00,7.00,0.00,29.82,1009.00,M,M,M,M,M,M,M,M,M,M,M,M,M,M,M,M,M,29.65,KP68 220153Z AUTO 13007KT 02/M01 A2982 RMK AO1 SLP090 T00221006,M
DRA,2024-01-22 01:53,-116.0278,36.6206,1009.00,47.00,42.00,82.65,0.00,0.00,0.00,29.88,1010.60,10.00,M,SCT,M,M,M,5000.00,M,M,M,M,M,M,M,M,M,M,47.00,KDRA 220153Z AUTO 00000KT 10SM SCT050 08/06 A2988 RMK AO2 SLP106 T00830056 $,M
ELY,2024-01-22 01:53,-114.8453,39.2950,1909.00,30.00,28.00,92.15,0.00,0.00,0.00,29.86,1010.90,10.00,M,CLR,M,M,M,M,M,M,M,M,M,M,M,M,M,M,30.00,KELY 220153Z AUTO 00000KT 10SM CLR M01/M02 A2986 RMK AO2 SLP109 T10111022,M
VGT,2024-01-22 01:53,-115.1933,36.2111,667.00,52.00,47.00,82.99,70.00,3.00,0.00,29.90,1014.00,10.00,M,OVC,M,M,M,6000.00,M,M,M,M,M,M,M,M,M,M,52.00,KVGT 220153Z 07003KT 10SM OVC060 11/08 A2990 RMK AO2 SLP140 T01110083,M
LOL,2024-01-22 01:53,-118.5701,40.0684,1192.43,45.00,34.00,65.13,0.00,0.00,0.00,29.71,1006.20,10.00,M,CLR,M,M,M,M,M,M,M,M,M,M,M,M,M,M,45.00,KLOL 220153Z AUTO 00000KT 10SM CLR 07/01 A2971 RMK AO2 SLP062 T00720011 $,M
BVU,2024-01-22 01:55,-114.8611,35.9475,671.00,51.80,48.20,87.47,110.00,7.00,0.00,29.90,M,10.00,M,SCT,SCT,OVC,M,4300.00,6000.00,7500.00,M,M,M,M,M,M,M,M,51.80,KBVU 220155Z AUTO 11007KT 10SM SCT043 SCT060 OVC075 11/09 A2990 RMK AO2,M
CXP,2024-01-22 01:55,-119.7326,39.1923,1431.00,46.40,30.20,53.00,0.00,0.00,0.00,29.75,M,10.00,M,FEW,M,M,M,10000.00,M,M,M,M,M,M,M,M,M,M,46.40,KCXP 220155Z AUTO 00000KT 10SM FEW100 08/M01 A2975 RMK AO2,M
INS,2024-01-22 01:55,-115.6733,36.5872,955.00,48.20,43.30,83.05,0.00,0.00,0.00,29.90,1011.30,10.00,M,OVC,M,M,M,3700.00,M,M,M,M,M,M,M,M,M,M,48.20,KINS 220155Z AUTO 00000KT 10SM OVC037 09/06 A2990 RMK AO2 SLP113 T00900063,M
RNO,2024-01-22 01:55,-119.7711,39.4839,1341.00,51.00,29.00,42.49,200.00,14.00,0.00,29.71,1004.50,10.00,M,FEW,BKN,BKN,BKN,7000.00,11000.00,18000.00,22000.00,M,M,M,M,M,M,M,51.00,KRNO 220155Z 20014KT 10SM FEW070 BKN110 BKN180 BKN220 11/M02 A2971 RMK AO2 SLP045 T01061017,M
LSV,2024-01-22 01:55,-115.0343,36.2362,570.00,53.00,48.00,83.06,100.00,4.00,0.00,29.87,1011.00,10.00,M,OVC,M,M,M,6000.00,M,M,M,M,M,M,M,M,M,M,53.00,KLSV 220155Z 10004KT 10SM OVC060 12/09 A2987 RMK AO2A SLP110 T01170089 $,M
RTS,2024-01-22 01:55,-119.8764,39.6682,1539.00,46.40,28.40,49.24,230.00,13.00,0.00,29.73,M,10.00,18.00,BKN,M,M,M,10000.00,M,M,M,M,M,M,M,M,M,M,40.02,KRTS 220155Z AUTO 23013G18KT 10SM BKN100 08/M02 A2973 RMK AO2,M
MEV,2024-01-22 01:55,-119.7500,38.9963,1441.42,46.40,30.20,53.00,170.00,15.00,0.00,29.73,M,10.00,M,BKN,M,M,M,10000.00,M,M,M,M,M,M,M,M,M,M,39.45,KMEV 220155Z AUTO 17015KT 10SM BKN100 08/M01 A2973 RMK AO2,M
BAM,2024-01-22 01:55,-116.8743,40.5990,1382.36,44.60,35.60,70.48,140.00,6.00,0.00,29.78,M,10.00,M,CLR,M,M,M,M,M,M,M,M,M,M,M,M,M,M,40.71,KBAM 220155Z AUTO 14006KT 10SM CLR 07/02 A2978 RMK AO1,M
TMT,2024-01-22 01:55,-117.1971,39.4643,1749.34,33.80,30.20,86.49,160.00,4.00,0.00,29.80,M,10.00,M,CLR,M,M,M,M,M,M,M,M,M,M,M,M,M,M,29.52,KTMT 220155Z AUTO 16004KT 10SM CLR 01/M01 A2980 RMK AO2 T00101010,M
10U,2024-01-22 01:55,-116.1876,41.9532,1637.00,35.60,30.20,80.51,130.00,7.00,0.00,29.78,M,10.00,M,BKN,OVC,M,M,7500.00,9000.00,M,M,M,M,M,M,M,M,M,29.17,K10U 220155Z AUTO 13007KT 10SM BKN075 OVC090 02/M01 A2978 RMK AO2,M
EKO,2024-01-22 01:56,-115.7860,40.8242,1367.00,35.00,31.00,85.17,0.00,0.00,0.00,29.80,1009.70,10.00,M,CLR,M,M,M,M,M,M,M,M,M,M,M,M,M,M,35.00,KEKO 220156Z AUTO 00000KT 10SM CLR 02/M01 A2980 RMK AO2 SLP097 T00171006,M
NFL,2024-01-22 01:56,-118.7010,39.4166,1199.00,49.00,35.00,58.30,130.00,7.00,0.00,29.71,1004.10,10.00,M,FEW,M,M,M,11000.00,M,M,M,M,M,M,M,M,M,M,45.50,KNFL 220156Z AUTO 13007KT 10SM FEW110 09/02 A2971 RMK AO2 SLP041 T00940017,M
HND,2024-01-22 01:56,-115.1344,35.9729,742.79,50.00,48.00,92.80,60.00,3.00,0.00,29.92,1014.60,10.00,M,FEW,OVC,M,M,4500.00,7500.00,M,M,M,M,M,M,M,M,M,50.00,KHND 220156Z 06003KT 10SM FEW045 OVC075 10/09 A2992 RMK AO2 SLP146 T01000089,M
TPH,2024-01-22 01:56,-117.0904,38.0505,1654.00,37.00,32.00,81.93,110.00,6.00,0.00,29.85,1010.60,10.00,M,FEW,M,M,M,2700.00,M,M,M,M,M,M,M,M,M,M,31.55,KTPH 220156Z AUTO 11006KT 10SM FEW027 03/00 A2985 RMK AO2 SLP106 T00280000,M
LAS,2024-01-22 01:56,-115.1634,36.0719,663.00,52.00,48.00,86.17,80.00,6.00,0.00,29.90,1011.90,10.00,M,FEW,BKN,BKN,M,4900.00,6000.00,25000.00,M,M,M,M,M,M,M,M,52.00,KLAS 220156Z 08006KT 10SM FEW049 BKN060 BKN250 11/09 A2990 RMK AO2 SLP119 T01110089,M
WMC,2024-01-22 01:56,-117.8072,40.9019,1315.00,43.00,33.00,67.54,180.00,8.00,0.00,29.73,1006.30,10.00,M,CLR,M,M,M,M,M,M,M,M,M,M,M,M,M,M,37.66,KWMC 220156Z AUTO 18008KT 10SM CLR 06/01 A2973 RMK AO2 SLP063 T00610006,M
TPH,2024-01-22 02:09,-117.0904,38.0505,1654.00,37.00,32.00,81.93,100.00,6.00,0.00,29.85,M,10.00,M,BKN,M,M,M,2900.00,M,M,M,M,M,M,M,M,M,M,31.55,KTPH 220209Z AUTO 10006KT 10SM BKN029 03/00 A2985 RMK AO2 T00280000,M
05U,2024-01-22 02:10,-116.0051,39.6042,1811.23,35.60,30.20,80.51,320.00,4.00,0.00,29.85,M,10.00,M,M,M,M,M,M,M,M,M,M,M,M,M,M,M,M,31.62,K05U 220210Z AUTO 32004KT 10SM 02/M01 A2985 RMK A01,M
HTH,2024-01-22 02:10,-118.6315,38.5448,1282.89,50.00,32.00,49.81,120.00,13.00,0.00,29.74,M,10.00,M,FEW,M,M,M,11000.00,M,M,M,M,M,M,M,M,M,M,50.00,KHTH 220210Z AUTO 12013KT 10SM FEW110 10/M00 A2974 RMK A01,M
10U,2024-01-22 02:10,-116.1876,41.9532,1637.00,35.60,30.20,80.51,130.00,9.00,0.00,29.78,M,10.00,M,SCT,OVC,M,M,7000.00,8000.00,M,M,M,M,M,M,M,M,M,27.99,K10U 220210Z AUTO 13009KT 10SM SCT070 OVC080 02/M01 A2978 RMK AO2,M
BVU,2024-01-22 02:15,-114.8611,35.9475,671.00,51.80,48.20,87.47,110.00,7.00,0.00,29.90,M,10.00,M,FEW,SCT,OVC,M,4300.00,6000.00,7000.00,M,M,M,M,M,M,M,M,51.80,KBVU 220215Z AUTO 11007KT 10SM FEW043 SCT060 OVC070 11/09 A2990 RMK AO2,M
CXP,2024-01-22 02:15,-119.7326,39.1923,1431.00,46.40,30.20,53.00,0.00,0.00,0.00,29.75,M,10.00,M,FEW,M,M,M,9000.00,M,M,M,M,M,M,M,M,M,M,46.40,KCXP 220215Z AUTO 00000KT 10SM FEW090 08/M01 A2975 RMK AO2,M
RTS,2024-01-22 02:15,-119.8764,39.6682,1539.00,46.40,26.60,45.73,230.00,15.00,0.00,29.73,M,10.00,22.00,FEW,M,M,M,10000.00,M,M,M,M,M,M,M,M,M,M,39.45,KRTS 220215Z AUTO 23015G22KT 10SM FEW100 08/M03 A2973 RMK AO2,M
MEV,2024-01-22 02:15,-119.7500,38.9963,1441.42,44.60,30.20,56.74,M,3.00,0.00,29.74,M,10.00,M,BKN,M,M,M,8500.00,M,M,M,M,M,M,M,M,M,M,43.09,KMEV 220215Z AUTO VRB03KT 10SM BKN085 07/M01 A2974 RMK AO2,M
BAM,2024-01-22 02:15,-116.8743,40.5990,1382.36,42.80,35.60,75.50,130.00,5.00,0.00,29.77,M,10.00,M,CLR,M,M,M,M,M,M,M,M,M,M,M,M,M,M,39.22,KBAM 220215Z AUTO 13005KT 10SM CLR 06/02 A2977 RMK AO1,M
TMT,2024-01-22 02:15,-117.1971,39.4643,1749.34,32.00,28.40,86.39,170.00,4.00,0.00,29.80,M,10.00,M,CLR,M,M,M,M,M,M,M,M,M,M,M,M,M,M,27.42,KTMT 220215Z AUTO 17004KT 10SM CLR 00/M02 A2980 RMK AO2 T00001020,M
CXP,2024-01-22 02:30,-119.7326,39.1923,1431.00,46.40,30.20,53.00,190.00,4.00,0.00,29.75,M,10.00,M,BKN,M,M,M,8000.00,M,M,M,M,M,M,M,M,M,M,44.24,KCXP 220230Z AUTO 19004KT 10SM BKN080 08/M01 A2975 RMK AO2,M
05U,2024-01-22 02:30,-116.0051,39.6042,1811.23,35.60,30.20,80.51,290.00,6.00,0.00,29.85,M,10.00,M,M,M,M,M,M,M,M,M,M,M,M,M,M,M,M,29.87,K05U 220230Z AUTO 29006KT 10SM 02/M01 A2985 RMK A01,M
HTH,2024-01-22 02:30,-118.6315,38.5448,1282.89,50.00,30.20,46.31,130.00,7.00,0.00,29.74,M,10.00,M,BKN,M,M,M,11000.00,M,M,M,M,M,M,M,M,M,M,50.00,KHTH 220230Z AUTO 13007KT 10SM BKN110 10/M01 A2974 RMK A01,M
10U,2024-01-22 02:30,-116.1876,41.9532,1637.00,35.60,30.20,80.51,120.00,9.00,0.00,29.78,M,10.00,M,FEW,BKN,BKN,M,4900.00,7500.00,8500.00,M,M,M,M,M,M,M,M,27.99,K10U 220230Z AUTO 12009KT 10SM FEW049 BKN075 BKN085 02/M01 A2978 RMK AO2,M
BVU,2024-01-22 02:35,-114.8611,35.9475,671.00,51.80,48.20,87.47,100.00,6.00,0.00,29.90,M,10.00,M,BKN,BKN,OVC,M,5500.00,6500.00,7500.00,M,M,M,M,M,M,M,M,51.80,KBVU 220235Z AUTO 10006KT 10SM BKN055 BKN065 OVC075 11/09 A2990 RMK AO2,M
RTS,2024-01-22 02:35,-119.8764,39.6682,1539.00,46.40,24.80,42.44,210.00,14.00,0.00,29.73,M,10.00,21.00,CLR,M,M,M,M,M,M,M,M,M,M,M,M,M,M,39.72,KRTS 220235Z AUTO 21014G21KT 10SM CLR 08/M04 A2973 RMK AO2,M
MEV,2024-01-22 02:35,-119.7500,38.9963,1441.42,46.40,30.20,53.00,250.00,4.00,0.00,29.74,M,10.00,M,BKN,M,M,M,8000.00,M,M,M,M,M,M,M,M,M,M,44.24,KMEV 220235Z AUTO 25004KT 10SM BKN080 08/M01 A2974 RMK AO2,M
BAM,2024-01-22 02:35,-116.8743,40.5990,1382.36,41.00,35.60,80.93,100.00,6.00,0.00,29.77,M,10.00,M,SCT,M,M,M,8500.00,M,M,M,M,M,M,M,M,M,M,36.37,KBAM 220235Z AUTO 10006KT 10SM SCT085 05/02 A2977 RMK AO1,M
05U,2024-01-22 02:50,-116.0051,39.6042,1811.23,35.60,30.20,80.51,340.00,6.00,0.00,29.85,M,10.00,M,M,M,M,M,M,M,M,M,M,M,M,M,M,M,M,29.87,K05U 220250Z AUTO 34006KT 10SM 02/M01 A2985 RMK A01,M
P68,2024-01-22 02:53,-116.0056,39.6014,1993.00,37.00,31.00,78.69,110.00,5.00,0.00,29.82,1008.70,M,M,M,M,M,M,M,M,M,M,M,M,M,M,M,M,M,32.33,KP68 220253Z AUTO 11005KT 03/M01 A2982 RMK AO1 SLP087 T00281006 50004,M
DRA,2024-01-22 02:53,-116.0278,36.6206,1009.00,44.00,41.00,89.11,M,3.00,0.00,29.89,1010.80,10.00,M,CLR,M,M,M,M,M,M,M,M,M,M,M,M,M,M,42.41,KDRA 220253Z AUTO VRB03KT 10SM CLR 07/05 A2989 RMK AO2 SLP108 T00670050 51009 $,M
ELY,2024-01-22 02:53,-114.8453,39.2950,1909.00,29.00,26.00,88.38,90.00,4.00,0.00,29.87,1011.70,10.00,M,CLR,M,M,M,M,M,M,M,M,M,M,M,M,M,M,23.92,KELY 220253Z AUTO 09004KT 10SM CLR M02/M03 A2987 RMK AO2 SLP117 T10171033 51013,M
VGT,2024-01-22 02:53,-115.1933,36.2111,667.00,52.00,48.00,86.17,40.00,4.00,0.00,29.89,1013.90,10.00,M,OVC,M,M,M,6000.00,M,M,M,M,M,M,M,M,M,M,52.00,KVGT 220253Z 04004KT 10SM OVC060 11/09 A2989 RMK AO2 SLP139 T01110089 50012,M
LOL,2024-01-22 02:53,-118.5701,40.0684,1192.43,44.00,35.00,70.42,60.00,3.00,0.00,29.71,1006.10,10.00,M,BKN,M,M,M,12000.00,M,M,M,M,M,M,M,M,M,M,42.41,KLOL 220253Z AUTO 06003KT 10SM BKN120 07/02 A2971 RMK AO2 SLP061 T00670017 57004 $,M
BVU,2024-01-22 02:55,-114.8611,35.9475,671.00,51.80,48.20,87.47,100.00,5.00,0.00,29.90,M,10.00,M,BKN,OVC,M,M,5500.00,7000.00,M,M,M,M,M,M,M,M,M,51.80,KBVU 220255Z AUTO 10005KT 10SM BKN055 OVC070 11/09 A2990 RMK AO2,M
CXP,2024-01-22 02:55,-119.7326,39.1923,1431.00,46.40,30.20,53.00,200.00,7.00,0.00,29.75,M,10.00,M,SCT,M,M,M,8000.00,M,M,M,M,M,M,M,M,M,M,42.33,KCXP 220255Z AUTO 20007KT 10SM SCT080 08/M01 A2975 RMK AO2,M
INS,2024-01-22 02:55,-115.6733,36.5872,955.00,48.60,44.00,84.04,0.00,0.00,0.00,29.89,1010.90,10.00,M,SCT,OVC,M,M,3500.00,5000.00,M,M,M,M,M,M,M,M,M,48.60,KINS 220255Z AUTO 00000KT 10SM SCT035 OVC050 09/07 A2989 RMK AO2 SLP109 T00920066 50008,M
RNO,2024-01-22 02:55,-119.7711,39.4839,1341.00,49.00,29.00,45.77,180.00,14.00,0.00,29.71,1004.90,10.00,M,FEW,SCT,BKN,BKN,8500.00,12000.00,16000.00,20000.00,M,M,M,M,M,M,M,43.08,KRNO 220255Z 18014KT 10SM FEW085 SCT120 BKN160 BKN200 09/M02 A2971 RMK AO2 SLP049 T00941017 55002,M
LSV,2024-01-22 02:55,-115.0343,36.2362,570.00,52.30,48.60,87.17,50.00,7.00,0.00,29.87,1011.10,10.00,M,OVC,M,M,M,6500.00,M,M,M,M,M,M,M,M,M,M,52.30,KLSV 220255Z 05007KT 10SM OVC065 11/09 A2987 RMK AO2A SLP111 T01130092 51013 $,M
RTS,2024-01-22 02:55,-119.8764,39.6682,1539.00,46.40,26.60,45.73,210.00,15.00,0.00,29.73,M,10.00,21.00,CLR,M,M,M,M,M,M,M,M,M,M,M,M,M,M,39.45,KRTS 220255Z AUTO 21015G21KT 10SM CLR 08/M03 A2973 RMK AO2,M
MEV,2024-01-22 02:55,-119.7500,38.9963,1441.42,46.40,28.40,49.24,0.00,0.00,0.00,29.74,M,10.00,M,SCT,M,M,M,8000.00,M,M,M,M,M,M,M,M,M,M,46.40,KMEV 220255Z AUTO 00000KT 10SM SCT080 08/M02 A2974 RMK AO2,M
BAM,2024-01-22 02:55,-116.8743,40.5990,1382.36,41.00,35.60,80.93,70.00,6.00,0.00,29.77,M,10.00,M,SCT,M,M,M,8500.00,M,M,M,M,M,M,M,M,M,M,36.37,KBAM 220255Z AUTO 07006KT 10SM SCT085 05/02 A2977 RMK AO1,M
HTH,2024-01-22 02:55,-118.6315,38.5448,1282.89,51.80,26.60,37.38,180.00,10.00,0.00,29.74,M,10.00,M,OVC,M,M,M,10000.00,M,M,M,M,M,M,M,M,M,M,51.80,KHTH 220255Z AUTO 18010KT 10SM OVC100 11/M03 A2974 RMK A01,M
10U,2024-01-22 02:55,-116.1876,41.9532,1637.00,35.60,30.20,80.51,140.00,8.00,0.00,29.78,M,10.00,M,BKN,M,M,M,5000.00,M,M,M,M,M,M,M,M,M,M,28.55,K10U 220255Z AUTO 14008KT 10SM BKN050 02/M01 A2978 RMK AO2,M
TMT,2024-01-22 02:55,-117.1971,39.4643,1749.34,32.00,28.60,87.10,0.00,0.00,0.00,29.80,M,10.00,M,CLR,M,M,M,M,M,M,M,M,M,M,M,M,M,M,32.00,KTMT 220255Z AUTO 00000KT 10SM CLR 00/M02 A2980 RMK AO2 T00001019,M
EKO,2024-01-22 02:56,-115.7860,40.8242,1367.00,34.00,30.00,85.11,80.00,6.00,0.00,29.80,1010.10,10.00,M,CLR,M,M,M,M,M,M,M,M,M,M,M,M,M,M,27.94,KEKO 220256Z AUTO 08006KT 10SM CLR 01/M01 A2980 RMK AO2 SLP101 T00111011 51005,M
NFL,2024-01-22 02:56,-118.7010,39.4166,1199.00,48.00,36.00,62.97,140.00,6.00,0.00,29.70,1004.00,10.00,M,CLR,M,M,M,M,M,M,M,M,M,M,M,M,M,M,44.80,KNFL 220256Z AUTO 14006KT 10SM CLR 09/02 A2970 RMK AO2 SLP040 T00890022 57004,M
HND,2024-01-22 02:56,-115.1344,35.9729,742.79,50.00,48.00,92.80,30.00,4.00,0.00,29.91,1014.70,10.00,M,OVC,M,M,M,7000.00,M,M,M,M,M,M,M,M,M,M,50.00,KHND 220256Z 03004KT 10SM OVC070 10/09 A2991 RMK AO2 SLP147 T01000089 51014,M
TPH,2024-01-22 02:56,-117.0904,38.0505,1654.00,38.00,33.00,82.00,120.00,7.00,0.00,29.85,1010.20,10.00,M,OVC,M,M,M,2900.00,M,M,M,M,M,M,M,M,M,M,32.09,KTPH 220256Z AUTO 12007KT 10SM OVC029 03/01 A2985 RMK AO2 SLP102 T00330006 50001,M
LAS,2024-01-22 02:56,-115.1634,36.0719,663.00,52.00,48.00,86.17,100.00,4.00,0.00,29.90,1011.90,10.00,M,FEW,BKN,BKN,M,4000.00,6000.00,25000.00,M,M,M,M,M,M,M,M,52.00,KLAS 220256Z 10004KT 10SM FEW040 BKN060 BKN250 11/09 A2990 RMK AO2 SLP119 T01110089 51013,M
WMC,2024-01-22 02:56,-117.8072,40.9019,1315.00,42.00,34.00,73.06,170.00,8.00,0.00,29.72,1006.20,10.00,M,CLR,M,M,M,M,M,M,M,M,M,M,M,M,M,M,36.43,KWMC 220256Z AUTO 17008KT 10SM CLR 06/01 A2972 RMK AO2 SLP062 T00560011 58003,M
TPH,2024-01-22 03:07,-117.0904,38.0505,1654.00,38.00,33.00,82.00,140.00,7.00,0.00,29.85,M,10.00,M,OVC,M,M,M,3000.00,M,M,M,M,M,M,M,M,M,M,32.09,KTPH 220307Z AUTO 14007KT 10SM OVC030 03/01 A2985 RMK AO2 T00330006,M
LAS,2024-01-22 03:10,-115.1634,36.0719,663.00,51.00,48.00,89.42,100.00,5.00,0.00,29.90,M,10.00,M,FEW,FEW,BKN,BKN,900.00,4000.00,7000.00,25000.00,M,M,M,M,M,M,M,51.00,KLAS 220310Z 10005KT 10SM FEW009 FEW040 BKN070 BKN250 11/09 A2990 RMK AO2 T01060089,M
05U,2024-01-22 03:10,-116.0051,39.6042,1811.23,35.60,30.20,80.51,310.00,6.00,0.00,29.85,M,10.00,M,M,M,M,M,M,M,M,M,M,M,M,M,M,M,M,29.87,K05U 220310Z AUTO 31006KT 10SM 02/M01 A2985 RMK A01,M
HTH,2024-01-22 03:10,-118.6315,38.5448,1282.89,51.80,26.60,37.38,170.00,9.00,0.00,29.74,M,10.00,16.00,OVC,M,M,M,10000.00,M,M,M,M,M,M,M,M,M,M,51.80,KHTH 220310Z AUTO 17009G16KT 10SM OVC100 11/M03 A2974 RMK A01,M
BVU,2024-01-22 03:15,-114.8611,35.9475,671.00,51.80,48.20,87.47,90.00,5.00,0.00,29.90,M,10.00,M,OVC,M,M,M,6000.00,M,M,M,M,M,M,M,M,M,M,51.80,KBVU 220315Z AUTO 09005KT 10SM OVC060 11/09 A2990 RMK AO2,M
CXP,2024-01-22 03:15,-119.7326,39.1923,1431.00,44.60,30.20,56.74,190.00,6.00,0.00,29.75,M,10.00,M,FEW,M,M,M,7500.00,M,M,M,M,M,M,M,M,M,M,40.71,KCXP 220315Z AUTO 19006KT 10SM FEW075 07/M01 A2975 RMK AO2,M
RTS,2024-01-22 03:15,-119.8764,39.6682,1539.00,46.40,26.60,45.73,220.00,17.00,0.00,29.74,M,10.00,M,SCT,BKN,BKN,M,5500.00,6500.00,8000.00,M,M,M,M,M,M,M,M,38.94,KRTS 220315Z AUTO 22017KT 10SM SCT055 BKN065 BKN080 08/M03 A2974 RMK AO2,M
MEV,2024-01-22 03:15,-119.7500,38.9963,1441.42,46.40,28.40,49.24,130.00,5.00,0.00,29.74,M,10.00,14.00,FEW,SCT,M,M,9000.00,11000.00,M,M,M,M,M,M,M,M,M,43.50,KMEV 220315Z AUTO 13005G14KT 10SM FEW090 SCT110 08/M02 A2974 RMK AO2,M
BAM,2024-01-22 03:15,-116.8743,40.5990,1382.36,42.80,35.60,75.50,70.00,6.00,0.00,29.77,M,10.00,M,CLR,M,M,M,M,M,M,M,M,M,M,M,M,M,M,38.54,KBAM 220315Z AUTO 07006KT 10SM CLR 06/02 A2977 RMK AO1,M
10U,2024-01-22 03:15,-116.1876,41.9532,1637.00,33.80,30.20,86.49,150.00,7.00,0.00,29.78,M,10.00,M,FEW,M,M,M,5000.00,M,M,M,M,M,M,M,M,M,M,26.97,K10U 220315Z AUTO 15007KT 10SM FEW050 01/M01 A2978 RMK AO2,M
TMT,2024-01-22 03:15,-117.1971,39.4643,1749.34,33.00,29.70,87.51,170.00,4.00,0.00,29.80,M,10.00,M,CLR,M,M,M,M,M,M,M,M,M,M,M,M,M,M,28.59,KTMT 220315Z AUTO 17004KT 10SM CLR 01/M01 A2980 RMK AO2 T00051013,M
05U,2024-01-22 03:30,-116.0051,39.6042,1811.23,35.60,32.00,86.59,280.00,7.00,0.00,29.85,M,10.00,M,M,M,M,M,M,M,M,M,M,M,M,M,M,M,M,29.17,K05U 220330Z AUTO 28007KT 10SM 02/M00 A2985 RMK A01,M
BVU,2024-01-22 03:35,-114.8611,35.9475,671.00,51.80,46.40,81.74,50.00,3.00,0.00,29.90,M,10.00,M,OVC,M,M,M,7000.00,M,M,M,M,M,M,M,M,M,M,51.80,KBVU 220335Z AUTO 05003KT 10SM OVC070 11/08 A2990 RMK AO2,M
CXP,2024-01-22 03:35,-119.7326,39.1923,1431.00,46.40,28.40,49.24,210.00,6.00,0.00,29.75,M,10.00,M,CLR,M,M,M,M,M,M,M,M,M,M,M,M,M,M,42.87,KCXP 220335Z AUTO 21006KT 10SM CLR 08/M02 A2975 RMK AO2,M
RTS,2024-01-22 03:35,-119.8764,39.6682,1539.00,46.40,26.60,45.73,220.00,12.00,0.00,29.73,M,10.00,M,OVC,M,M,M,5500.00,M,M,M,M,M,M,M,M,M,M,40.33,KRTS 220335Z AUTO 22012KT 10SM OVC055 08/M03 A2973 RMK AO2,M
MEV,2024-01-22 03:35,-119.7500,38.9963,1441.42,46.40,28.40,49.24,0.00,0.00,0.00,29.74,M,10.00,M,SCT,BKN,M,M,10000.00,12000.00,M,M,M,M,M,M,M,M,M,46.40,KMEV 220335Z AUTO 00000KT 10SM SCT100 BKN120 08/M02 A2974 RMK AO2,M
BAM,2024-01-22 03:35,-116.8743,40.5990,1382.36,41.00,35.60,80.93,80.00,7.00,0.00,29.76,M,10.00,M,CLR,M,M,M,M,M,M,M,M,M,M,M,M,M,M,35.75,KBAM 220335Z AUTO 08007KT 10SM CLR 05/02 A2976 RMK AO1,M
HTH,2024-01-22 03:35,-118.6315,38.5448,1282.89,51.80,26.60,37.38,150.00,14.00,0.00,29.74,M,10.00,M,OVC,M,M,M,9500.00,M,M,M,M,M,M,M,M,M,M,51.80,KHTH 220335Z AUTO 15014KT 10SM OVC095 11/M03 A2974 RMK A01,M
10U,2024-01-22 03:35,-116.1876,41.9532,1637.00,35.60,30.20,80.51,130.00,10.00,0.00,29.77,M,10.00,M,CLR,M,M,M,M,M,M,M,M,M,M,M,M,M,M,27.48,K10U 220335Z AUTO 13010KT 10SM CLR 02/M01 A2977 RMK AO2,M
TMT,2024-01-22 03:35,-117.1971,39.4643,1749.34,33.00,29.30,86.09,160.00,6.00,0.00,29.80,M,10.00,M,CLR,M,M,M,M,M,M,M,M,M,M,M,M,M,M,26.73,KTMT 220335Z AUTO 16006KT 10SM CLR 01/M01 A2980 RMK AO2 T00051015,M
05U,2024-01-22 03:50,-116.0051,39.6042,1811.23,35.60,32.00,86.59,280.00,8.00,0.00,29.85,M,10.00,M,M,M,M,M,M,M,M,M,M,M,M,M,M,M,M,28.55,K05U 220350Z AUTO 28008KT 10SM 02/M00 A2985 RMK A01,M
P68,2024-01-22 03:53,-116.0056,39.6014,1993.00,35.00,30.00,81.78,130.00,10.00,0.00,29.82,1009.10,M,M,M,M,M,M,M,M,M,M,M,M,M,M,M,M,M,26.73,KP68 220353Z AUTO 13010KT 02/M01 A2982 RMK AO1 SLP091 T00171011,M
DRA,2024-01-22 03:53,-116.0278,36.6206,1009.00,43.00,41.00,92.58,70.00,5.00,0.00,29.88,1010.70,10.00,M,CLR,M,M,M,M,M,M,M,M,M,M,M,M,M,M,39.46,KDRA 220353Z AUTO 07005KT 10SM CLR 06/05 A2988 RMK AO2 SLP107 T00610050 $,M
ELY,2024-01-22 03:53,-114.8453,39.2950,1909.00,28.00,25.00,88.33,220.00,6.00,0.00,29.87,1011.70,10.00,M,BKN,M,M,M,2400.00,M,M,M,M,M,M,M,M,M,M,20.71,KELY 220353Z AUTO 22006KT 10SM BKN024 M02/M04 A2987 RMK AO2 SLP117 T10221039,M
VGT,2024-01-22 03:53,-115.1933,36.2111,667.00,52.00,48.00,86.17,0.00,0.00,0.00,29.90,1014.10,10.00,M,OVC,M,M,M,6500.00,M,M,M,M,M,M,M,M,M,M,52.00,KVGT 220353Z 00000KT 10SM OVC065 11/09 A2990 RMK AO2 SLP141 T01110089,M
LOL,2024-01-22 03:53,-118.5701,40.0684,1192.43,41.00,34.00,75.94,270.00,5.00,0.00,29.70,1006.30,10.00,M,CLR,M,M,M,M,M,M,M,M,M,M,M,M,M,M,37.08,KLOL 220353Z AUTO 27005KT 10SM CLR 05/01 A2970 RMK AO2 SLP063 T00500011 $,M
BVU,2024-01-22 03:55,-114.8611,35.9475,671.00,51.80,46.40,81.74,60.00,5.00,0.00,29.90,M,10.00,M,OVC,M,M,M,7000.00,M,M,M,M,M,M,M,M,M,M,51.80,KBVU 220355Z AUTO 06005KT 10SM OVC070 11/08 A2990 RMK AO2,M
CXP,2024-01-22 03:55,-119.7326,39.1923,1431.00,44.60,28.40,52.72,220.00,5.00,0.00,29.74,M,10.00,M,CLR,M,M,M,M,M,M,M,M,M,M,M,M,M,M,41.36,KCXP 220355Z AUTO 22005KT 10SM CLR 07/M02 A2974 RMK AO2,M
INS,2024-01-22 03:55,-115.6733,36.5872,955.00,47.70,44.20,87.59,0.00,0.00,0.00,29.89,1010.90,10.00,M,BKN,OVC,M,M,3700.00,5000.00,M,M,M,M,M,M,M,M,M,47.70,KINS 220355Z AUTO 00000KT 10SM BKN037 OVC050 09/07 A2989 RMK AO2 SLP109 T00870068,M
RNO,2024-01-22 03:55,-119.7711,39.4839,1341.00,50.00,28.00,42.33,160.00,11.00,0.00,29.69,1004.10,10.00,M,SCT,BKN,M,M,7000.00,16000.00,M,M,M,M,M,M,M,M,M,50.00,KRNO 220355Z 16011KT 10SM SCT070 BKN160 10/M02 A2969 RMK AO2 SLP041 T01001022,M
RTS,2024-01-22 03:55,-119.8764,39.6682,1539.00,46.40,28.40,49.24,210.00,11.00,0.00,29.72,M,10.00,18.00,OVC,M,M,M,5500.00,M,M,M,M,M,M,M,M,M,M,40.66,KRTS 220355Z AUTO 21011G18KT 10SM OVC055 08/M02 A2972 RMK AO2,M
MEV,2024-01-22 03:55,-119.7500,38.9963,1441.42,46.40,28.40,49.24,M,4.00,0.00,29.73,M,10.00,M,SCT,SCT,BKN,M,6000.00,7500.00,11000.00,M,M,M,M,M,M,M,M,44.24,KMEV 220355Z AUTO VRB04KT 10SM SCT060 SCT075 BKN110 08/M02 A2973 RMK AO2,M
BAM,2024-01-22 03:55,-116.8743,40.5990,1382.36,41.00,35.60,80.93,80.00,7.00,0.00,29.76,M,10.00,M,CLR,M,M,M,M,M,M,M,M,M,M,M,M,M,M,35.75,KBAM 220355Z AUTO 08007KT 10SM CLR 05/02 A2976 RMK AO1,M
HTH,2024-01-22 03:55,-118.6315,38.5448,1282.89,51.80,26.60,37.38,130.00,6.00,0.00,29.74,M,10.00,16.00,OVC,M,M,M,9000.00,M,M,M,M,M,M,M,M,M,M,51.80,KHTH 220355Z AUTO 13006G16KT 10SM OVC090 11/M03 A2974 RMK A01,M
10U,2024-01-22 03:55,-116.1876,41.9532,1637.00,35.60,30.20,80.51,130.00,10.00,0.00,29.77,M,10.00,M,CLR,M,M,M,M,M,M,M,M,M,M,M,M,M,M,27.48,K10U 220355Z AUTO 13010KT 10SM CLR 02/M01 A2977 RMK AO2,M
LSV,2024-01-22 03:55,-115.0343,36.2362,570.00,51.80,48.70,89.12,100.00,5.00,0.00,29.88,1011.40,10.00,M,OVC,M,M,M,6500.00,M,M,M,M,M,M,M,M,M,M,51.80,KLSV 220355Z 10005KT 10SM OVC065 11/09 A2988 RMK AO2A SLP114 T01100093 $,M
TMT,2024-01-22 03:55,-117.1971,39.4643,1749.34,32.00,29.00,88.53,190.00,4.00,0.00,29.80,M,10.00,M,CLR,M,M,M,M,M,M,M,M,M,M,M,M,M,M,27.42,KTMT 220355Z AUTO 19004KT 10SM CLR 00/M02 A2980 RMK AO2 T00001017,M
EKO,2024-01-22 03:56,-115.7860,40.8242,1367.00,33.00,30.00,88.58,70.00,6.00,0.00,29.80,1010.10,10.00,M,CLR,M,M,M,M,M,M,M,M,M,M,M,M,M,M,26.73,KEKO 220356Z AUTO 07006KT 10SM CLR 01/M01 A2980 RMK AO2 SLP101 T00061011,M
NFL,2024-01-22 03:56,-118.7010,39.4166,1199.00,48.00,36.00,62.97,140.00,7.00,0.00,29.70,1003.80,10.00,M,BKN,M,M,M,10000.00,M,M,M,M,M,M,M,M,M,M,44.28,KNFL 220356Z AUTO 14007KT 10SM BKN100 09/02 A2970 RMK AO2 SLP038 T00890022,M
HND,2024-01-22 03:56,-115.1344,35.9729,742.79,49.00,48.00,96.32,0.00,0.00,0.00,29.92,1014.80,9.00,M,FEW,OVC,M,M,400.00,7000.00,M,M,M,M,M,M,M,M,M,49.00,KHND 220356Z 00000KT 9SM FEW004 OVC070 09/09 A2992 RMK AO2 SLP148 T00940089,M
TPH,2024-01-22 03:56,-117.0904,38.0505,1654.00,36.00,33.00,88.73,180.00,5.00,0.00,29.86,1010.80,10.00,M,BKN,M,M,M,3100.00,M,M,M,M,M,M,M,M,M,M,31.15,KTPH 220356Z AUTO 18005KT 10SM BKN031 02/01 A2986 RMK AO2 SLP108 T00220006,M
LAS,2024-01-22 03:56,-115.1634,36.0719,663.00,51.00,48.00,89.42,60.00,3.00,0.00,29.90,1012.20,10.00,M,FEW,BKN,M,M,4000.00,7000.00,M,M,M,M,M,M,M,M,M,51.00,KLAS 220356Z 06003KT 10SM FEW040 BKN070 11/09 A2990 RMK AO2 SLP122 T01060089,M
WMC,2024-01-22 03:56,-117.8072,40.9019,1315.00,42.00,33.00,70.19,180.00,9.00,0.00,29.71,1005.90,10.00,M,FEW,M,M,M,12000.00,M,M,M,M,M,M,M,M,M,M,35.95,KWMC 220356Z AUTO 18009KT 10SM FEW120 06/01 A2971 RMK AO2 SLP059 T00560006,M
HND,2024-01-22 04:10,-115.1344,35.9729,742.79,48.20,48.20,100.00,310.00,3.00,0.00,29.92,M,9.00,M,BKN,OVC,M,M,400.00,7000.00,M,M,M,M,M,M,M,M,M,47.21,KHND 220410Z AUTO 31003KT 9SM BKN004 OVC070 09/09 A2992 RMK AO2,M
05U,2024-01-22 04:10,-116.0051,39.6042,1811.23,35.60,32.00,86.59,300.00,10.00,0.00,29.84,M,10.00,M,M,M,M,M,M,M,M,M,M,M,M,M,M,M,M,27.48,K05U 220410Z AUTO 30010KT 10SM 02/M00 A2984 RMK A01,M
BVU,2024-01-22 04:15,-114.8611,35.9475,671.00,51.80,46.40,81.74,80.00,4.00,0.00,29.90,M,10.00,M,OVC,M,M,M,7000.00,M,M,M,M,M,M,M,M,M,M,51.80,KBVU 220415Z AUTO 08004KT 10SM OVC070 11/08 A2990 RMK AO2,M
CXP,2024-01-22 04:15,-119.7326,39.1923,1431.00,44.60,28.40,52.72,M,3.00,0.00,29.73,M,10.00,M,BKN,M,M,M,12000.00,M,M,M,M,M,M,M,M,M,M,43.09,KCXP 220415Z AUTO VRB03KT 10SM BKN120 07/M02 A2973 RMK AO2,M
RTS,2024-01-22 04:15,-119.8764,39.6682,1539.00,44.60,28.40,52.72,220.00,10.00,0.00,29.71,M,10.00,M,BKN,OVC,M,M,5000.00,6000.00,M,M,M,M,M,M,M,M,M,38.77,KRTS 220415Z AUTO 22010KT 10SM BKN050 OVC060 07/M02 A2971 RMK AO2,M
MEV,2024-01-22 04:15,-119.7500,38.9963,1441.42,46.40,28.40,49.24,0.00,0.00,0.00,29.71,M,10.00,10.00,FEW,FEW,BKN,M,6000.00,7500.00,11000.00,M,M,M,M,M,M,M,M,46.40,KMEV 220415Z AUTO 00000G10KT 10SM FEW060 FEW075 BKN110 08/M02 A2971 RMK AO2,M
BAM,2024-01-22 04:15,-116.8743,40.5990,1382.36,39.20,33.80,80.79,90.00,6.00,0.00,29.76,M,10.00,M,CLR,M,M,M,M,M,M,M,M,M,M,M,M,M,M,34.20,KBAM 220415Z AUTO 09006KT 10SM CLR 04/01 A2976 RMK AO1,M
HTH,2024-01-22 04:15,-118.6315,38.5448,1282.89,50.00,28.40,43.03,120.00,11.00,0.00,29.73,M,10.00,17.00,SCT,OVC,M,M,9500.00,12000.00,M,M,M,M,M,M,M,M,M,50.00,KHTH 220415Z AUTO 12011G17KT 10SM SCT095 OVC120 10/M02 A2973 RMK A01,M
10U,2024-01-22 04:15,-116.1876,41.9532,1637.00,37.40,30.20,74.98,150.00,10.00,0.00,29.77,M,10.00,M,CLR,M,M,M,M,M,M,M,M,M,M,M,M,M,M,29.74,K10U 220415Z AUTO 15010KT 10SM CLR 03/M01 A2977 RMK AO2,M
TMT,2024-01-22 04:15,-117.1971,39.4643,1749.34,32.40,29.50,88.92,160.00,6.00,0.00,29.80,M,10.00,M,CLR,M,M,M,M,M,M,M,M,M,M,M,M,M,M,26.01,KTMT 220415Z AUTO 16006KT 10SM CLR 00/M01 A2980 RMK AO2 T00021014,M
05U,2024-01-22 04:30,-116.0051,39.6042,1811.23,35.60,32.00,86.59,310.00,9.00,0.00,29.84,M,10.00,M,M,M,M,M,M,M,M,M,M,M,M,M,M,M,M,27.99,K05U 220430Z AUTO 31009KT 10SM 02/M00 A2984 RMK A01,M
HND,2024-01-22 04:32,-115.1344,35.9729,742.79,50.00,48.20,93.50,0.00,0.00,0.00,29.92,M,9.00,M,SCT,OVC,M,M,500.00,900.00,M,M,M,M,M,M,M,M,M,50.00,KHND 220432Z AUTO 00000KT 9SM SCT005 OVC009 10/09 A2992 RMK AO2,M
BVU,2024-01-22 04:35,-114.8611,35.9475,671.00,51.80,44.60,76.34,90.00,4.00,0.00,29.90,M,10.00,M,OVC,M,M,M,7000.00,M,M,M,M,M,M,M,M,M,M,51.80,KBVU 220435Z AUTO 09004KT 10SM OVC070 11/07 A2990 RMK AO2,M
CXP,2024-01-22 04:35,-119.7326,39.1923,1431.00,46.40,28.40,49.24,150.00,4.00,0.00,29.72,M,10.00,M,FEW,BKN,M,M,9000.00,12000.00,M,M,M,M,M,M,M,M,M,44.24,KCXP 220435Z AUTO 15004KT 10SM FEW090 BKN120 08/M02 A2972 RMK AO2,M
RTS,2024-01-22 04:35,-119.8764,39.6682,1539.00,44.60,26.60,48.96,220.00,10.00,0.00,29.72,M,10.00,M,OVC,M,M,M,5000.00,M,M,M,M,M,M,M,M,M,M,38.77,KRTS 220435Z AUTO 22010KT 10SM OVC050 07/M03 A2972 RMK AO2,M
MEV,2024-01-22 04:35,-119.7500,38.9963,1441.42,46.40,30.20,53.00,150.00,14.00,0.00,29.70,M,10.00,M,FEW,M,M,M,12000.00,M,M,M,M,M,M,M,M,M,M,39.72,KMEV 220435Z AUTO 15014KT 10SM FEW120 08/M01 A2970 RMK AO2,M
BAM,2024-01-22 04:35,-116.8743,40.5990,1382.36,37.40,33.80,86.69,80.00,6.00,0.00,29.76,M,10.00,M,CLR,M,M,M,M,M,M,M,M,M,M,M,M,M,M,32.03,KBAM 220435Z AUTO 08006KT 10SM CLR 03/01 A2976 RMK AO1,M
HTH,2024-01-22 04:35,-118.6315,38.5448,1282.89,50.00,28.40,43.03,130.00,11.00,0.00,29.73,M,10.00,19.00,OVC,M,M,M,11000.00,M,M,M,M,M,M,M,M,M,M,50.00,KHTH 220435Z AUTO 13011G19KT 10SM OVC110 10/M02 A2973 RMK A01,M
10U,2024-01-22 04:35,-116.1876,41.9532,1637.00,35.60,30.20,80.51,140.00,11.00,0.00,29.77,M,10.00,16.00,CLR,M,M,M,M,M,M,M,M,M,M,M,M,M,M,27.02,K10U 220435Z AUTO 14011G16KT 10SM CLR 02/M01 A2977 RMK AO2,M
TMT,2024-01-22 04:35,-117.1971,39.4643,1749.34,32.70,29.50,87.85,170.00,6.00,0.00,29.80,M,10.00,M,CLR,M,M,M,M,M,M,M,M,M,M,M,M,M,M,26.37,KTMT 220435Z AUTO 17006KT 10SM CLR 00/M01 A2980 RMK AO2 T00041014,M
LAS,2024-01-22 04:40,-115.1634,36.0719,663.00,51.00,48.00,89.42,90.00,4.00,0.00,29.90,M,10.00,M,FEW,FEW,BKN,M,900.00,4000.00,7000.00,M,M,M,M,M,M,M,M,51.00,KLAS 220440Z 09004KT 10SM FEW009 FEW040 BKN070 11/09 A2990 RMK AO2 T01060089,M
HTH,2024-01-22 04:50,-118.6315,38.5448,1282.89,50.00,28.40,43.03,130.00,12.00,0.00,29.73,M,10.00,17.00,BKN,M,M,M,11000.00,M,M,M,M,M,M,M,M,M,M,50.00,KHTH 220450Z AUTO 13012G17KT 10SM BKN110 10/M02 A2973 RMK A01,M
10U,2024-01-22 04:50,-116.1876,41.9532,1637.00,37.40,30.20,74.98,120.00,11.00,0.00,29.77,M,10.00,16.00,SCT,M,M,M,6000.00,M,M,M,M,M,M,M,M,M,M,29.29,K10U 220450Z AUTO 12011G16KT 10SM SCT060 03/M01 A2977 RMK AO2,M
05U,2024-01-22 04:50,-116.0051,39.6042,1811.23,37.40,32.00,80.65,320.00,12.00,0.00,29.84,M,10.00,M,M,M,M,M,M,M,M,M,M,M,M,M,M,M,M,28.87,K05U 220450Z AUTO 32012KT 10SM 03/00 A2984 RMK A01,M
CXP,2024-01-22 04:50,-119.7326,39.1923,1431.00,44.60,28.40,52.72,M,5.00,0.00,29.72,M,10.00,M,FEW,M,M,M,12000.00,M,M,M,M,M,M,M,M,M,M,41.36,KCXP 220450Z AUTO VRB05KT 10SM FEW120 07/M02 A2972 RMK AO2,M
P68,2024-01-22 04:53,-116.0056,39.6014,1993.00,37.00,31.00,78.69,160.00,11.00,0.00,29.81,1007.90,M,M,M,M,M,M,M,M,M,M,M,M,M,M,M,M,M,28.79,KP68 220453Z AUTO 16011KT 03/M01 A2981 RMK AO1 SLP079 T00281006,M
DRA,2024-01-22 04:53,-116.0278,36.6206,1009.00,43.00,40.00,89.06,320.00,5.00,0.00,29.88,1010.90,10.00,M,BKN,M,M,M,5000.00,M,M,M,M,M,M,M,M,M,M,39.46,KDRA 220453Z AUTO 32005KT 10SM BKN050 06/04 A2988 RMK AO2 SLP109 T00610044 $,M
ELY,2024-01-22 04:53,-114.8453,39.2950,1909.00,32.00,28.00,84.98,230.00,8.00,0.00,29.87,1011.10,10.00,M,OVC,M,M,M,2600.00,M,M,M,M,M,M,M,M,M,M,24.11,KELY 220453Z AUTO 23008KT 10SM OVC026 00/M02 A2987 RMK AO2 SLP111 T00001022,M
VGT,2024-01-22 04:53,-115.1933,36.2111,667.00,50.00,47.00,89.37,0.00,0.00,0.00,29.90,1014.20,10.00,M,BKN,M,M,M,2800.00,M,M,M,M,M,M,M,M,M,M,50.00,KVGT 220453Z AUTO 00000KT 10SM BKN028 10/08 A2990 RMK AO2 SLP142 T01000083,M
LOL,2024-01-22 04:53,-118.5701,40.0684,1192.43,42.00,34.00,73.06,280.00,4.00,0.00,29.70,1005.60,10.00,M,FEW,M,M,M,6500.00,M,M,M,M,M,M,M,M,M,M,39.10,KLOL 220453Z AUTO 28004KT 10SM FEW065 06/01 A2970 RMK AO2 SLP056 T00560011 $,M
BVU,2024-01-22 04:55,-114.8611,35.9475,671.00,51.80,44.60,76.34,70.00,5.00,0.00,29.90,M,10.00,M,OVC,M,M,M,7000.00,M,M,M,M,M,M,M,M,M,M,51.80,KBVU 220455Z AUTO 07005KT 10SM OVC070 11/07 A2990 RMK AO2,M
INS,2024-01-22 04:55,-115.6733,36.5872,955.00,46.80,43.00,86.54,50.00,3.00,0.00,29.89,1010.90,10.00,M,OVC,M,M,M,5000.00,M,M,M,M,M,M,M,M,M,M,45.61,KINS 220455Z AUTO 05003KT 10SM OVC050 08/06 A2989 RMK AO2 SLP109 T00820062,M
RNO,2024-01-22 04:55,-119.7711,39.4839,1341.00,49.00,27.00,42.16,150.00,10.00,0.00,29.68,1003.40,10.00,M,SCT,BKN,BKN,M,7000.00,11000.00,16000.00,M,M,M,M,M,M,M,M,44.29,KRNO 220455Z 15010KT 10SM SCT070 BKN110 BKN160 09/M03 A2968 RMK AO2 SLP034 T00941028,M
LSV,2024-01-22 04:55,-115.0343,36.2362,570.00,51.60,48.20,88.12,80.00,6.00,0.00,29.88,1011.40,10.00,M,BKN,OVC,M,M,3300.00,7000.00,M,M,M,M,M,M,M,M,M,51.60,KLSV 220455Z 08006KT 10SM BKN033 OVC070 11/09 A2988 RMK AO2A SLP114 T01090090 $,M
RTS,2024-01-22 04:55,-119.8764,39.6682,1539.00,46.40,26.60,45.73,190.00,9.00,0.00,29.72,M,10.00,18.00,BKN,OVC,M,M,5000.00,5500.00,M,M,M,M,M,M,M,M,M,41.42,KRTS 220455Z AUTO 19009G18KT 10SM BKN050 OVC055 08/M03 A2972 RMK AO2,M
MEV,2024-01-22 04:55,-119.7500,38.9963,1441.42,44.60,28.40,52.72,M,4.00,0.00,29.70,M,10.00,M,BKN,BKN,M,M,6000.00,7000.00,M,M,M,M,M,M,M,M,M,42.13,KMEV 220455Z AUTO VRB04KT 10SM BKN060 BKN070 07/M02 A2970 RMK AO2,M
BAM,2024-01-22 04:55,-116.8743,40.5990,1382.36,39.20,33.80,80.79,70.00,8.00,0.00,29.76,M,10.00,M,CLR,M,M,M,M,M,M,M,M,M,M,M,M,M,M,32.98,KBAM 220455Z AUTO 07008KT 10SM CLR 04/01 A2976 RMK AO1,M
TMT,2024-01-22 04:55,-117.1971,39.4643,1749.34,33.40,29.70,86.12,210.00,3.00,0.00,29.80,M,10.00,M,SCT,M,M,M,12000.00,M,M,M,M,M,M,M,M,M,M,30.29,KTMT 220455Z AUTO 21003KT 10SM SCT120 01/M01 A2980 RMK AO2 T00081013,M
EKO,2024-01-22 04:56,-115.7860,40.8242,1367.00,33.00,29.00,85.04,90.00,7.00,0.00,29.80,1009.80,10.00,M,CLR,M,M,M,M,M,M,M,M,M,M,M,M,M,M,26.00,KEKO 220456Z AUTO 09007KT 10SM CLR 01/M02 A2980 RMK AO2 SLP098 T00061017,M
NFL,2024-01-22 04:56,-118.7010,39.4166,1199.00,50.00,35.00,56.16,160.00,11.00,0.00,29.70,1003.80,10.00,M,OVC,M,M,M,10000.00,M,M,M,M,M,M,M,M,M,M,50.00,KNFL 220456Z AUTO 16011KT 10SM OVC100 10/02 A2970 RMK AO2 SLP038 T01000017,M
HND,2024-01-22 04:56,-115.1344,35.9729,742.79,49.00,48.00,96.32,0.00,0.00,0.00,29.92,1014.80,7.00,M,BKN,OVC,M,M,900.00,6500.00,M,M,M,M,M,M,M,M,M,49.00,KHND 220456Z AUTO 00000KT 7SM BKN009 OVC065 09/09 A2992 RMK AO2 SLP148 T00940089,M
TPH,2024-01-22 04:56,-117.0904,38.0505,1654.00,35.00,33.00,92.32,170.00,3.00,0.00,29.86,1010.80,10.00,M,OVC,M,M,M,3400.00,M,M,M,M,M,M,M,M,M,M,32.12,KTPH 220456Z AUTO 17003KT 10SM OVC034 02/01 A2986 RMK AO2 SLP108 T00170006,M
LAS,2024-01-22 04:56,-115.1634,36.0719,663.00,51.00,48.00,89.42,0.00,0.00,0.00,29.90,1012.10,10.00,M,FEW,BKN,M,M,900.00,7000.00,M,M,M,M,M,M,M,M,M,51.00,KLAS 220456Z 00000KT 10SM FEW009 BKN070 11/09 A2990 RMK AO2 SLP121 T01060089,M
WMC,2024-01-22 04:56,-117.8072,40.9019,1315.00,42.00,34.00,73.06,140.00,7.00,0.00,29.71,1005.30,10.00,M,OVC,M,M,M,10000.00,M,M,M,M,M,M,M,M,M,M,36.97,KWMC 220456Z AUTO 14007KT 10SM OVC100 06/01 A2971 RMK AO2 SLP053 T00560011,M
HND,2024-01-22 05:03,-115.1344,35.9729,742.79,48.20,46.40,93.45,210.00,3.00,0.00,29.92,M,6.00,M,SCT,OVC,M,M,900.00,6500.00,M,M,BR,M,M,M,M,M,M,47.21,KHND 220503Z AUTO 21003KT 6SM BR SCT009 OVC065 09/08 A2992 RMK AO2,M
05U,2024-01-22 05:10,-116.0051,39.6042,1811.23,37.40,32.00,80.65,340.00,9.00,0.00,29.84,M,10.00,15.00,M,M,M,M,M,M,M,M,M,M,M,M,M,M,M,30.23,K05U 220510Z AUTO 34009G15KT 10SM 03/00 A2984 RMK A01,M
BVU,2024-01-22 05:15,-114.8611,35.9475,671.00,50.00,44.60,81.61,80.00,5.00,0.00,29.90,M,10.00,M,OVC,M,M,M,7000.00,M,M,M,M,M,M,M,M,M,M,50.00,KBVU 220515Z AUTO 08005KT 10SM OVC070 10/07 A2990 RMK AO2,M
CXP,2024-01-22 05:15,-119.7326,39.1923,1431.00,44.60,28.40,52.72,200.00,7.00,0.00,29.72,M,10.00,M,SCT,SCT,M,M,7500.00,10000.00,M,M,M,M,M,M,M,M,M,40.14,KCXP 220515Z AUTO 20007KT 10SM SCT075 SCT100 07/M02 A2972 RMK AO2,M
RTS,2024-01-22 05:15,-119.8764,39.6682,1539.00,44.60,26.60,48.96,240.00,8.00,0.00,29.72,M,10.00,M,BKN,OVC,M,M,5000.00,5500.00,M,M,M,M,M,M,M,M,M,39.63,KRTS 220515Z AUTO 24008KT 10SM BKN050 OVC055 07/M03 A2972 RMK AO2,M
MEV,2024-01-22 05:15,-119.7500,38.9963,1441.42,44.60,28.40,52.72,160.00,7.00,0.00,29.70,M,10.00,M,SCT,BKN,M,M,6000.00,7000.00,M,M,M,M,M,M,M,M,M,40.14,KMEV 220515Z AUTO 16007KT 10SM SCT060 BKN070 07/M02 A2970 RMK AO2,M
BAM,2024-01-22 05:15,-116.8743,40.5990,1382.36,39.20,33.80,80.79,80.00,7.00,0.00,29.75,M,10.00,M,CLR,M,M,M,M,M,M,M,M,M,M,M,M,M,M,33.56,KBAM 220515Z AUTO 08007KT 10SM CLR 04/01 A2975 RMK AO1,M
HTH,2024-01-22 05:15,-118.6315,38.5448,1282.89,50.00,30.20,46.31,120.00,16.00,0.00,29.73,M,10.00,22.00,FEW,FEW,M,M,9000.00,12000.00,M,M,M,M,M,M,M,M,M,50.00,KHTH 220515Z AUTO 12016G22KT 10SM FEW090 FEW120 10/M01 A2973 RMK A01,M
10U,2024-01-22 05:15,-116.1876,41.9532,1637.00,37.40,30.20,74.98,130.00,13.00,0.00,29.76,M,10.00,19.00,OVC,M,M,M,6500.00,M,M,M,M,M,M,M,M,M,M,28.49,K10U 220515Z AUTO 13013G19KT 10SM OVC065 03/M01 A2976 RMK AO2,M
TMT,2024-01-22 05:15,-117.1971,39.4643,1749.34,34.00,29.70,84.07,200.00,3.00,0.00,29.80,M,10.00,M,BKN,OVC,M,M,10000.00,12000.00,M,M,M,M,M,M,M,M,M,30.97,KTMT 220515Z AUTO 20003KT 10SM BKN100 OVC120 01/M01 A2980 RMK AO2 T00121013,M
ELY,2024-01-22 05:18,-114.8453,39.2950,1909.00,31.00,27.00,84.92,220.00,9.00,0.00,29.87,M,10.00,M,SCT,M,M,M,2700.00,M,M,M,M,M,M,M,M,M,M,22.27,KELY 220518Z AUTO 22009KT 10SM SCT027 M01/M03 A2987 RMK AO2 T10061028,M
LAS,2024-01-22 05:18,-115.1634,36.0719,663.00,51.00,48.00,89.42,0.00,0.00,0.00,29.90,M,10.00,M,BKN,OVC,M,M,1100.00,3300.00,M,M,M,M,M,M,M,M,M,51.00,KLAS 220518Z 00000KT 10SM BKN011 OVC033 11/09 A2990 RMK AO2 T01060089,M
05U,2024-01-22 05:30,-116.0051,39.6042,1811.23,37.40,32.00,80.65,320.00,11.00,0.00,29.84,M,10.00,18.00,M,M,M,M,M,M,M,M,M,M,M,M,M,M,M,29.29,K05U 220530Z AUTO 32011G18KT 10SM 03/00 A2984 RMK A01,M
BVU,2024-01-22 05:35,-114.8611,35.9475,671.00,50.00,44.60,81.61,70.00,4.00,0.00,29.89,M,10.00,M,OVC,M,M,M,7000.00,M,M,M,M,M,M,M,M,M,M,50.00,KBVU 220535Z AUTO 07004KT 10SM OVC070 10/07 A2989 RMK AO2,M
CXP,2024-01-22 05:35,-119.7326,39.1923,1431.00,44.60,28.40,52.72,210.00,5.00,0.00,29.72,M,10.00,M,BKN,BKN,OVC,M,7000.00,7500.00,10000.00,M,M,M,M,M,M,M,M,41.36,KCXP 220535Z AUTO 21005KT 10SM BKN070 BKN075 OVC100 07/M02 A2972 RMK AO2,M
RTS,2024-01-22 05:35,-119.8764,39.6682,1539.00,46.40,26.60,45.73,220.00,8.00,0.00,29.71,M,10.00,16.00,BKN,OVC,M,M,5000.00,5500.00,M,M,M,M,M,M,M,M,M,41.85,KRTS 220535Z AUTO 22008G16KT 10SM BKN050 OVC055 08/M03 A2971 RMK AO2,M
MEV,2024-01-22 05:35,-119.7500,38.9963,1441.42,46.40,28.40,49.24,150.00,9.00,0.00,29.70,M,10.00,M,BKN,M,M,M,7000.00,M,M,M,M,M,M,M,M,M,M,41.42,KMEV 220535Z AUTO 15009KT 10SM BKN070 08/M02 A2970 RMK AO2,M
BAM,2024-01-22 05:35,-116.8743,40.5990,1382.36,41.00,33.80,75.33,80.00,6.00,0.00,29.75,M,10.00,M,CLR,M,M,M,M,M,M,M,M,M,M,M,M,M,M,36.37,KBAM 220535Z AUTO 08006KT 10SM CLR 05/01 A2975 RMK AO1,M
HTH,2024-01-22 05:35,-118.6315,38.5448,1282.89,50.00,28.40,43.03,150.00,19.00,0.00,29.72,M,10.00,24.00,BKN,BKN,M,M,9000.00,11000.00,M,M,M,M,M,M,M,M,M,50.00,KHTH 220535Z AUTO 15019G24KT 10SM BKN090 BKN110 10/M02 A2972 RMK A01,M
10U,2024-01-22 05:35,-116.1876,41.9532,1637.00,37.40,30.20,74.98,130.00,15.00,0.00,29.76,M,10.00,23.00,BKN,M,M,M,6500.00,M,M,M,M,M,M,M,M,M,M,27.78,K10U 220535Z AUTO 13015G23KT 10SM BKN065 03/M01 A2976 RMK AO2,M
TMT,2024-01-22 05:35,-117.1971,39.4643,1749.34,34.50,30.20,84.11,190.00,4.00,0.00,29.79,M,10.00,M,OVC,M,M,M,10000.00,M,M,M,M,M,M,M,M,M,M,30.34,KTMT 220535Z AUTO 19004KT 10SM OVC100 01/M01 A2979 RMK AO2 T00141010,M
VGT,2024-01-22 05:40,-115.1933,36.2111,667.00,50.00,48.00,92.80,0.00,0.00,0.00,29.90,M,10.00,M,FEW,OVC,M,M,1200.00,3000.00,M,M,M,M,M,M,M,M,M,50.00,KVGT 220540Z AUTO 00000KT 10SM FEW012 OVC030 10/09 A2990 RMK AO2 T01000089,M
INS,2024-01-22 05:45,-115.6733,36.5872,955.00,44.60,42.80,93.35,0.00,0.00,0.00,29.89,1011.20,1.62,M,SCT,OVC,M,M,200.00,3900.00,M,M,BR,M,M,M,M,M,M,44.60,KINS 220545Z AUTO 00000KT 1 5/8SM BR SCT002 OVC039 07/06 A2989 RMK AO2 VIS 1 5/8V8 VIS 1 1/8 RWY26 SLP112,M
HND,2024-01-22 05:48,-115.1344,35.9729,742.79,48.20,46.40,93.45,0.00,0.00,0.00,29.92,M,8.00,M,BKN,OVC,M,M,900.00,6500.00,M,M,M,M,M,M,M,M,M,48.20,KHND 220548Z AUTO 00000KT 8SM BKN009 OVC065 09/08 A2992 RMK AO2,M
INS,2024-01-22 05:50,-115.6733,36.5872,955.00,44.60,42.80,93.35,M,M,0.00,29.89,1011.20,0.38,M,SCT,OVC,M,M,200.00,3900.00,M,M,FG,M,M,M,M,M,M,M,KINS 220550Z AUTO M 3/8SM R08/2200V2800FT FG SCT002 OVC039 07/06 A2989 RMK AO2 VIS 3/8V4 SLP112 $,M
05U,2024-01-22 05:50,-116.0051,39.6042,1811.23,37.40,32.00,80.65,330.00,11.00,0.00,29.83,M,10.00,18.00,M,M,M,M,M,M,M,M,M,M,M,M,M,M,M,29.29,K05U 220550Z AUTO 33011G18KT 10SM 03/00 A2983 RMK A01,M
P68,2024-01-22 05:53,-116.0056,39.6014,1993.00,36.00,31.00,81.86,160.00,12.00,0.00,29.81,1007.30,M,M,M,M,M,M,M,M,M,M,M,M,M,M,M,M,M,27.09,KP68 220553Z AUTO 16012KT 02/M01 A2981 RMK AO1 SLP073 T00221006 10050 20017 58002,M
DRA,2024-01-22 05:53,-116.0278,36.6206,1009.00,42.00,39.00,89.01,70.00,3.00,0.00,29.89,1010.90,10.00,M,BKN,M,M,M,5000.00,M,M,M,M,M,M,M,M,M,M,40.12,KDRA 220553Z AUTO 07003KT 10SM BKN050 06/04 A2989 RMK AO2 SLP109 T00560039 10106 20050 55000 $,M
ELY,2024-01-22 05:53,-114.8453,39.2950,1909.00,31.00,28.00,88.48,180.00,5.00,0.00,29.87,1010.60,10.00,M,BKN,M,M,M,2800.00,M,M,M,M,M,M,M,M,M,M,25.21,KELY 220553Z AUTO 18005KT 10SM BKN028 M01/M02 A2987 RMK AO2 SLP106 T10061022 10044 21028 58002,M
VGT,2024-01-22 05:53,-115.1933,36.2111,667.00,50.00,47.00,89.37,0.00,0.00,0.00,29.89,1013.90,10.00,M,FEW,BKN,OVC,M,1200.00,3000.00,3800.00,M,M,M,M,M,M,M,M,50.00,KVGT 220553Z AUTO 00000KT 10SM FEW012 BKN030 OVC038 10/08 A2989 RMK AO2 SLP139 T01000083 10122 20100 50000,M
LOL,2024-01-22 05:53,-118.5701,40.0684,1192.43,41.00,34.00,75.94,0.00,0.00,0.00,29.70,1005.60,10.00,M,BKN,OVC,M,M,7500.00,9000.00,M,M,M,M,M,M,M,M,M,41.00,KLOL 220553Z AUTO 00000KT 10SM BKN075 OVC090 05/01 A2970 RMK AO2 SLP056 T00500011 10117 20050 56002 $,M
BVU,2024-01-22 05:55,-114.8611,35.9475,671.00,50.00,44.60,81.61,30.00,4.00,0.00,29.89,M,10.00,M,OVC,M,M,M,7000.00,M,M,M,M,M,M,M,M,M,M,50.00,KBVU 220555Z AUTO 03004KT 10SM OVC070 10/07 A2989 RMK AO2,M
CXP,2024-01-22 05:55,-119.7326,39.1923,1431.00,46.40,28.40,49.24,140.00,6.00,0.00,29.72,M,10.00,M,BKN,OVC,M,M,6500.00,7500.00,M,M,M,M,M,M,M,M,M,42.87,KCXP 220555Z AUTO 14006KT 10SM BKN065 OVC075 08/M02 A2972 RMK AO2,M
INS,2024-01-22 05:55,-115.6733,36.5872,955.00,44.80,43.00,93.35,0.00,0.00,0.00,29.89,1011.20,0.38,M,SCT,OVC,M,M,100.00,3900.00,M,M,FG,M,M,M,M,M,M,44.80,KINS 220555Z AUTO 00000KT 3/8SM R08/2000V2800FT FG SCT001 OVC039 07/06 A2989 RMK AO2 VIS 3/8V1 1/8 SLP112 T00710062 10102 20071 50000,M
RNO,2024-01-22 05:55,-119.7711,39.4839,1341.00,49.00,27.00,42.16,240.00,5.00,0.00,29.69,1003.40,10.00,M,BKN,BKN,M,M,7000.00,15000.00,M,M,M,M,M,M,M,M,M,46.58,KRNO 220555Z 24005KT 10SM BKN070 BKN150 09/M03 A2969 RMK AO2 SLP034 T00941028 10117 20089 55005,M
LSV,2024-01-22 05:55,-115.0343,36.2362,570.00,51.40,48.00,88.11,60.00,7.00,0.00,29.87,1011.10,10.00,M,OVC,M,M,M,4000.00,M,M,M,M,M,M,M,M,M,M,51.40,KLSV 220555Z 06007KT 10SM OVC040 11/09 A2987 RMK AO2A SLP111 T01080089 10125 20108 50000 $,M
RTS,2024-01-22 05:55,-119.8764,39.6682,1539.00,46.40,26.60,45.73,220.00,14.00,0.00,29.71,M,10.00,19.00,OVC,M,M,M,5500.00,M,M,M,M,M,M,M,M,M,M,39.72,KRTS 220555Z AUTO 22014G19KT 10SM OVC055 08/M03 A2971 RMK AO2,M
MEV,2024-01-22 05:55,-119.7500,38.9963,1441.42,48.20,26.60,42.73,180.00,22.00,0.00,29.70,M,10.00,M,FEW,BKN,OVC,M,5000.00,6000.00,7000.00,M,M,M,M,M,M,M,M,40.27,KMEV 220555Z AUTO 18022KT 10SM FEW050 BKN060 OVC070 09/M03 A2970 RMK AO2,M
BAM,2024-01-22 05:55,-116.8743,40.5990,1382.36,41.00,33.80,75.33,70.00,6.00,0.00,29.75,M,10.00,M,CLR,M,M,M,M,M,M,M,M,M,M,M,M,M,M,36.37,KBAM 220555Z AUTO 07006KT 10SM CLR 05/01 A2975 RMK AO1,M
HTH,2024-01-22 05:55,-118.6315,38.5448,1282.89,50.00,30.20,46.31,140.00,17.00,0.00,29.72,M,10.00,28.00,SCT,BKN,OVC,M,7500.00,9000.00,11000.00,M,M,M,M,M,M,M,M,50.00,KHTH 220555Z AUTO 14017G28KT 10SM SCT075 BKN090 OVC110 10/M01 A2972 RMK A01,M
10U,2024-01-22 05:55,-116.1876,41.9532,1637.00,37.40,32.00,80.65,130.00,14.00,0.00,29.76,M,10.00,20.00,BKN,M,M,M,7000.00,M,M,M,M,M,M,M,M,M,M,28.12,K10U 220555Z AUTO 13014G20KT 10SM BKN070 03/M00 A2976 RMK AO2,M
TMT,2024-01-22 05:55,-117.1971,39.4643,1749.34,34.00,30.00,85.11,0.00,0.00,0.00,29.79,M,10.00,M,OVC,M,M,M,11000.00,M,M,M,M,M,M,M,M,M,M,34.00,KTMT 220555Z AUTO 00000KT 10SM OVC110 01/M01 A2979 RMK AO2 T00111011 10085 21006,M
EKO,2024-01-22 05:56,-115.7860,40.8242,1367.00,31.00,28.00,88.48,50.00,9.00,0.00,29.79,1009.70,10.00,M,CLR,M,M,M,M,M,M,M,M,M,M,M,M,M,M,22.27,KEKO 220556Z AUTO 05009KT 10SM CLR M01/M02 A2979 RMK AO2 SLP097 T10061022 10067 21006 58001,M
NFL,2024-01-22 05:56,-118.7010,39.4166,1199.00,48.00,35.00,60.52,150.00,9.00,0.00,29.69,1003.50,10.00,16.00,OVC,M,M,M,11000.00,M,M,M,M,M,M,M,M,M,M,43.41,KNFL 220556Z AUTO 15009G16KT 10SM OVC110 09/02 A2969 RMK AO2 SLP035 T00890017 10133 20083 58004,M
HND,2024-01-22 05:56,-115.1344,35.9729,742.79,48.00,46.00,92.74,200.00,4.00,0.00,29.92,1014.70,8.00,M,SCT,OVC,M,M,900.00,6000.00,M,M,M,M,M,M,M,M,M,46.10,KHND 220556Z AUTO 20004KT 8SM SCT009 OVC060 09/08 A2992 RMK AO2 SLP147 T00890078 10122 20089 50001,M
TPH,2024-01-22 05:56,-117.0904,38.0505,1654.00,37.00,34.00,88.78,140.00,9.00,0.00,29.85,1010.30,10.00,M,OVC,M,M,M,3300.00,M,M,M,M,M,M,M,M,M,M,29.73,KTPH 220556Z AUTO 14009KT 10SM OVC033 03/01 A2985 RMK AO2 SLP103 T00280011 10072 20011 50001,M
LAS,2024-01-22 05:56,-115.1634,36.0719,663.00,51.00,48.00,89.42,100.00,3.00,0.00,29.89,1011.90,9.00,M,FEW,BKN,OVC,M,1000.00,1400.00,1900.00,M,M,M,M,M,M,M,M,51.00,KLAS 220556Z 10003KT 9SM FEW010 BKN014 OVC019 11/09 A2989 RMK AO2 SLP119 VIS LWR SW-NW CIG LWR SW-NW SHRA OBSCURES MTNS DSNT SW-NW T01060089 10133 20106 58000,M
WMC,2024-01-22 05:56,-117.8072,40.9019,1315.00,42.00,33.00,70.19,90.00,5.00,0.00,29.70,1004.90,10.00,M,FEW,BKN,OVC,M,7000.00,9000.00,11000.00,M,M,M,M,M,M,M,M,38.27,KWMC 220556Z AUTO 09005KT 10SM FEW070 BKN090 OVC110 06/01 A2970 RMK AO2 SLP049 T00560006 10117 20050 56006,M
INS,2024-01-22 06:00,-115.6733,36.5872,955.00,44.60,42.80,93.35,0.00,0.00,0.00,29.89,1011.20,0.38,M,BKN,OVC,M,M,100.00,3900.00,M,M,FG,M,M,M,M,M,M,44.60,KINS 220600Z AUTO 00000KT 3/8SM R08/2000V2600FT FG BKN001 OVC039 07/06 A2989 RMK AO2 BKN V FEW SLP112,M
05U,2024-01-22 06:10,-116.0051,39.6042,1811.23,37.40,32.00,80.65,330.00,9.00,0.00,29.83,M,10.00,14.00,M,M,M,M,M,M,M,M,M,M,M,M,M,M,M,30.23,K05U 220610Z AUTO 33009G14KT 10SM 03/M00 A2983 RMK A01,M
BVU,2024-01-22 06:15,-114.8611,35.9475,671.00,50.00,46.40,87.37,40.00,4.00,0.00,29.90,M,10.00,M,OVC,M,M,M,6500.00,M,M,M,M,M,M,M,M,M,M,50.00,KBVU 220615Z AUTO 04004KT 10SM OVC065 10/08 A2990 RMK AO2,M
CXP,2024-01-22 06:15,-119.7326,39.1923,1431.00,46.40,26.60,45.73,0.00,0.00,0.00,29.71,M,10.00,M,BKN,OVC,M,M,6500.00,7500.00,M,M,M,M,M,M,M,M,M,46.40,KCXP 220615Z AUTO 00000KT 10SM BKN065 OVC075 08/M03 A2971 RMK AO2,M
RTS,2024-01-22 06:15,-119.8764,39.6682,1539.00,44.60,26.60,48.96,220.00,20.00,0.00,29.70,M,10.00,28.00,BKN,OVC,M,M,5000.00,6000.00,M,M,M,M,M,M,M,M,M,35.87,KRTS 220615Z AUTO 22020G28KT 10SM BKN050 OVC060 07/M03 A2970 RMK AO2,M
MEV,2024-01-22 06:15,-119.7500,38.9963,1441.42,48.20,28.40,46.02,190.00,22.00,0.00,29.67,M,10.00,28.00,FEW,BKN,OVC,M,3700.00,4900.00,5500.00,M,M,M,M,M,M,M,M,40.27,KMEV 220615Z AUTO 19022G28KT 10SM FEW037 BKN049 OVC055 09/M02 A2967 RMK AO2,M
BAM,2024-01-22 06:15,-116.8743,40.5990,1382.36,37.40,32.00,80.65,130.00,3.00,0.00,29.75,M,10.00,M,BKN,M,M,M,12000.00,M,M,M,M,M,M,M,M,M,M,34.86,KBAM 220615Z AUTO 13003KT 10SM BKN120 03/00 A2975 RMK AO1,M
HTH,2024-01-22 06:15,-118.6315,38.5448,1282.89,50.00,30.20,46.31,130.00,14.00,0.00,29.72,M,10.00,28.00,SCT,OVC,M,M,7500.00,9500.00,M,M,M,M,M,M,M,M,M,50.00,KHTH 220615Z AUTO 13014G28KT 10SM SCT075 OVC095 10/M01 A2972 RMK A01,M
10U,2024-01-22 06:15,-116.1876,41.9532,1637.00,37.40,32.00,80.65,130.00,14.00,0.00,29.75,M,10.00,19.00,OVC,M,M,M,7000.00,M,M,M,M,M,M,M,M,M,M,28.12,K10U 220615Z AUTO 13014G19KT 10SM OVC070 03/M00 A2975 RMK AO2,M
TMT,2024-01-22 06:15,-117.1971,39.4643,1749.34,33.00,30.00,88.58,160.00,3.00,0.00,29.78,M,10.00,M,OVC,M,M,M,10000.00,M,M,M,M,M,M,M,M,M,M,29.83,KTMT 220615Z AUTO 16003KT 10SM OVC100 01/M01 A2978 RMK AO2 T00051012,M
LAS,2024-01-22 06:16,-115.1634,36.0719,663.00,51.00,48.00,89.42,110.00,3.00,0.00,29.90,M,9.00,M,FEW,SCT,OVC,M,1000.00,1400.00,1700.00,M,M,M,M,M,M,M,M,51.00,KLAS 220616Z 11003KT 9SM FEW010 SCT014 OVC017 11/09 A2990 RMK AO2 VIS LWR SW-NW CIG LWR SW-NW SHRA OBSCURES MTNS DSNT SW-NW T01060089,M
LSV,2024-01-22 06:25,-115.0343,36.2362,570.00,51.80,48.20,87.47,60.00,5.00,0.00,29.87,1011.10,10.00,M,SCT,OVC,M,M,4100.00,7000.00,M,M,M,M,M,M,M,M,M,51.80,KLSV 220625Z AUTO 06005KT 10SM SCT041 OVC070 11/09 A2987 RMK AO2 SLP111 $,M
INS,2024-01-22 06:30,-115.6733,36.5872,955.00,44.60,42.80,93.35,0.00,0.00,0.00,29.89,1010.90,1.38,M,BKN,OVC,M,M,100.00,5500.00,M,M,BR,M,M,M,M,M,M,44.60,KINS 220630Z AUTO 00000KT 1 3/8SM BR BKN001 OVC055 07/06 A2989 RMK AO2 VIS 1/4V1 3/8 VIS 3/8 RWY26 SLP109,M
HND,2024-01-22 06:30,-115.1344,35.9729,742.79,46.40,46.40,100.00,180.00,3.00,0.00,29.91,M,10.00,M,BKN,OVC,M,M,900.00,6000.00,M,M,M,M,M,M,M,M,M,45.15,KHND 220630Z AUTO 18003KT 10SM BKN009 OVC060 08/08 A2991 RMK AO2,M
05U,2024-01-22 06:30,-116.0051,39.6042,1811.23,35.60,30.20,80.51,310.00,8.00,0.00,29.84,M,10.00,M,M,M,M,M,M,M,M,M,M,M,M,M,M,M,M,28.55,K05U 220630Z AUTO 31008KT 10SM 02/M01 A2984 RMK A01,M
BVU,2024-01-22 06:35,-114.8611,35.9475,671.00,50.00,46.40,87.37,50.00,5.00,0.00,29.89,M,10.00,M,OVC,M,M,M,6000.00,M,M,M,M,M,M,M,M,M,M,50.00,KBVU 220635Z AUTO 05005KT 10SM OVC060 10/08 A2989 RMK AO2,M
CXP,2024-01-22 06:35,-119.7326,39.1923,1431.00,46.40,28.40,49.24,0.00,0.00,0.00,29.70,M,10.00,M,BKN,OVC,M,M,6500.00,7500.00,M,M,M,M,M,M,M,M,M,46.40,KCXP 220635Z AUTO 00000KT 10SM BKN065 OVC075 08/M02 A2970 RMK AO2,M
RTS,2024-01-22 06:35,-119.8764,39.6682,1539.00,44.60,28.40,52.72,240.00,10.00,0.00,29.70,M,10.00,22.00,OVC,M,M,M,4900.00,M,M,M,M,M,M,M,M,M,M,38.77,KRTS 220635Z AUTO 24010G22KT 10SM OVC049 07/M02 A2970 RMK AO2,M
MEV,2024-01-22 06:35,-119.7500,38.9963,1441.42,46.40,30.20,53.00,180.00,26.00,0.00,29.67,M,10.00,34.00,FEW,BKN,OVC,M,4800.00,5500.00,7000.00,M,M,M,M,M,M,M,M,37.14,KMEV 220635Z AUTO 18026G34KT 10SM FEW048 BKN055 OVC070 08/M01 A2967 RMK AO2,M
BAM,2024-01-22 06:35,-116.8743,40.5990,1382.36,33.80,32.00,93.03,140.00,3.00,0.00,29.76,M,10.00,M,SCT,M,M,M,12000.00,M,M,M,M,M,M,M,M,M,M,30.75,KBAM 220635Z AUTO 14003KT 10SM SCT120 01/00 A2976 RMK AO1,M
HTH,2024-01-22 06:35,-118.6315,38.5448,1282.89,50.00,30.20,46.31,140.00,16.00,0.00,29.72,M,10.00,25.00,FEW,OVC,M,M,9000.00,11000.00,M,M,M,M,M,M,M,M,M,50.00,KHTH 220635Z AUTO 14016G25KT 10SM FEW090 OVC110 10/M01 A2972 RMK A01,M
10U,2024-01-22 06:35,-116.1876,41.9532,1637.00,37.40,32.00,80.65,130.00,15.00,0.00,29.75,M,10.00,21.00,OVC,M,M,M,7000.00,M,M,M,M,M,M,M,M,M,M,27.78,K10U 220635Z AUTO 13015G21KT 10SM OVC070 03/00 A2975 RMK AO2,M
TMT,2024-01-22 06:35,-117.1971,39.4643,1749.34,32.50,29.30,87.84,170.00,3.00,0.00,29.78,M,10.00,M,SCT,M,M,M,10000.00,M,M,M,M,M,M,M,M,M,M,29.26,KTMT 220635Z AUTO 17003KT 10SM SCT100 00/M01 A2978 RMK AO2 T00031015,M
INS,2024-01-22 06:40,-115.6733,36.5872,955.00,44.60,42.80,93.35,0.00,0.00,0.00,29.89,1010.90,0.62,M,BKN,OVC,M,M,100.00,5500.00,M,M,BR,M,M,M,M,M,M,44.60,KINS 220640Z AUTO 00000KT 5/8SM R08/1800VP6000FT BR BKN001 OVC055 07/06 A2989 RMK AO2 VIS 5/8V1 5/8 SLP109,M
05U,2024-01-22 06:50,-116.0051,39.6042,1811.23,35.60,30.20,80.51,320.00,4.00,0.00,29.83,M,10.00,M,M,M,M,M,M,M,M,M,M,M,M,M,M,M,M,31.62,K05U 220650Z AUTO 32004KT 10SM 02/M01 A2983 RMK A01,M
P68,2024-01-22 06:53,-116.0056,39.6014,1993.00,36.00,31.00,81.86,100.00,5.00,0.00,29.80,1006.60,M,M,M,M,M,M,M,M,M,M,M,M,M,M,M,M,M,31.15,KP68 220653Z AUTO 10005KT 02/M01 A2980 RMK AO1 SLP066 T00221006,M
DRA,2024-01-22 06:53,-116.0278,36.6206,1009.00,45.00,41.00,85.77,90.00,8.00,0.00,29.86,1009.80,10.00,M,OVC,M,M,M,5500.00,M,M,M,M,M,M,M,M,M,M,40.13,KDRA 220653Z AUTO 09008KT 10SM OVC055 07/05 A2986 RMK AO2 SLP098 T00720050 $,M
ELY,2024-01-22 06:53,-114.8453,39.2950,1909.00,28.00,26.00,92.08,210.00,6.00,0.00,29.86,1010.60,10.00,M,BKN,M,M,M,2800.00,M,M,M,M,M,M,M,M,M,M,20.71,KELY 220653Z AUTO 21006KT 10SM BKN028 M02/M03 A2986 RMK AO2 SLP106 T10221033,M
VGT,2024-01-22 06:53,-115.1933,36.2111,667.00,50.00,47.00,89.37,0.00,0.00,0.00,29.89,1013.60,10.00,M,OVC,M,M,M,6500.00,M,M,M,M,M,M,M,M,M,M,50.00,KVGT 220653Z AUTO 00000KT 10SM OVC065 10/08 A2989 RMK AO2 SLP136 T01000083,M
LOL,2024-01-22 06:53,-118.5701,40.0684,1192.43,41.00,35.00,79.02,360.00,3.00,0.00,29.70,1005.30,10.00,M,BKN,OVC,M,M,9000.00,10000.00,M,M,M,M,M,M,M,M,M,38.98,KLOL 220653Z AUTO 36003KT 10SM BKN090 OVC100 05/02 A2970 RMK AO2 SLP053 T00500017 $,M
TPH,2024-01-22 06:53,-117.0904,38.0505,1654.00,37.40,33.80,86.69,140.00,8.00,0.00,29.84,M,10.00,M,BKN,OVC,M,M,2600.00,3100.00,M,M,M,M,M,M,M,M,M,30.76,KTPH 220653Z AUTO 14008KT 10SM BKN026 OVC031 03/01 A2984 RMK AO2,M
BVU,2024-01-22 06:55,-114.8611,35.9475,671.00,50.00,46.40,87.37,40.00,4.00,0.00,29.89,M,10.00,M,OVC,M,M,M,6500.00,M,M,M,M,M,M,M,M,M,M,50.00,KBVU 220655Z AUTO 04004KT 10SM OVC065 10/08 A2989 RMK AO2,M
CXP,2024-01-22 06:55,-119.7326,39.1923,1431.00,46.40,28.40,49.24,190.00,9.00,0.00,29.69,M,10.00,17.00,OVC,M,M,M,6000.00,M,M,M,M,M,M,M,M,M,M,41.42,KCXP 220655Z AUTO 19009G17KT 10SM OVC060 08/M02 A2969 RMK AO2,M
INS,2024-01-22 06:55,-115.6733,36.5872,955.00,44.00,42.80,95.51,230.00,3.00,0.00,29.89,1010.90,0.50,M,VV ,M,M,M,100.00,M,M,M,FG,M,M,M,M,M,M,42.41,KINS 220655Z AUTO 23003KT 1/2SM R08/1800VP6000FT FG VV001 07/06 A2989 RMK AO2 SLP109 T00670060,M
RNO,2024-01-22 06:55,-119.7711,39.4839,1341.00,48.00,30.00,49.49,170.00,13.00,0.00,29.66,1002.20,10.00,18.00,BKN,BKN,M,M,7000.00,15000.00,M,M,M,M,M,M,M,M,M,42.07,KRNO 220655Z 17013G18KT 10SM BKN070 BKN150 09/M01 A2966 RMK AO2 SLP022 T00891011,M
LSV,2024-01-22 06:55,-115.0343,36.2362,570.00,51.00,48.00,89.42,60.00,6.00,0.00,29.87,1011.00,10.00,M,FEW,BKN,OVC,M,2900.00,4400.00,7000.00,M,M,M,M,M,M,M,M,51.00,KLSV 220655Z 06006KT 10SM FEW029 BKN044 OVC070 11/09 A2987 RMK AO2A SLP110 T01050088 $,M
RTS,2024-01-22 06:55,-119.8764,39.6682,1539.00,42.80,30.20,60.79,300.00,6.00,0.00,29.70,M,10.00,M,OVC,M,M,M,4800.00,M,M,M,M,M,M,M,M,M,M,38.54,KRTS 220655Z AUTO 30006KT 10SM OVC048 06/M01 A2970 RMK AO2,M
MEV,2024-01-22 06:55,-119.7500,38.9963,1441.42,46.40,30.20,53.00,170.00,21.00,0.00,29.66,M,10.00,31.00,BKN,OVC,M,M,6000.00,7000.00,M,M,M,M,M,M,M,M,M,38.06,KMEV 220655Z AUTO 17021G31KT 10SM BKN060 OVC070 08/M01 A2966 RMK AO2,M
BAM,2024-01-22 06:55,-116.8743,40.5990,1382.36,33.80,32.00,93.03,0.00,0.00,0.00,29.75,M,10.00,M,SCT,M,M,M,12000.00,M,M,M,M,M,M,M,M,M,M,33.80,KBAM 220655Z AUTO 00000KT 10SM SCT120 01/00 A2975 RMK AO1,M
HTH,2024-01-22 06:55,-118.6315,38.5448,1282.89,50.00,32.00,49.81,140.00,14.00,0.00,29.72,M,10.00,22.00,BKN,M,M,M,11000.00,M,M,M,M,M,M,M,M,M,M,50.00,KHTH 220655Z AUTO 14014G22KT 10SM BKN110 10/M00 A2972 RMK A01,M
10U,2024-01-22 06:55,-116.1876,41.9532,1637.00,37.40,32.00,80.65,120.00,17.00,0.00,29.74,M,10.00,M,BKN,OVC,M,M,6500.00,7500.00,M,M,M,M,M,M,M,M,M,27.15,K10U 220655Z AUTO 12017KT 10SM BKN065 OVC075 03/00 A2974 RMK AO2,M
EKO,2024-01-22 06:56,-115.7860,40.8242,1367.00,32.00,28.00,84.98,90.00,5.00,0.00,29.79,1009.10,10.00,M,CLR,M,M,M,M,M,M,M,M,M,M,M,M,M,M,26.40,KEKO 220656Z AUTO 09005KT 10SM CLR 00/M02 A2979 RMK AO2 SLP091 T00001022,M
NFL,2024-01-22 06:56,-118.7010,39.4166,1199.00,49.00,35.00,58.30,170.00,11.00,0.00,29.69,1003.50,10.00,M,BKN,OVC,M,M,8000.00,9500.00,M,M,M,M,M,M,M,M,M,43.95,KNFL 220656Z AUTO 17011KT 10SM BKN080 OVC095 09/02 A2969 RMK AO2 SLP035 T00940017,M
HND,2024-01-22 06:56,-115.1344,35.9729,742.79,48.00,46.00,92.74,180.00,3.00,0.00,29.91,1014.40,10.00,M,BKN,OVC,M,M,900.00,6500.00,M,M,M,M,M,M,M,M,M,46.98,KHND 220656Z AUTO 18003KT 10SM BKN009 OVC065 09/08 A2991 RMK AO2 SLP144 T00890078 401330083,M
TPH,2024-01-22 06:56,-117.0904,38.0505,1654.00,37.00,35.00,92.39,140.00,9.00,0.00,29.84,1009.80,10.00,M,BKN,OVC,M,M,2600.00,3100.00,M,M,M,M,M,M,M,M,M,29.73,KTPH 220656Z AUTO 14009KT 10SM BKN026 OVC031 03/02 A2984 RMK AO2 SLP098 T00280017,M
LAS,2024-01-22 06:56,-115.1634,36.0719,663.00,51.00,48.00,89.42,0.00,0.00,0.00,29.89,1011.70,9.00,M,FEW,SCT,OVC,M,1000.00,2000.00,6500.00,M,M,M,M,M,M,M,M,51.00,KLAS 220656Z 00000KT 9SM FEW010 SCT020 OVC065 11/09 A2989 RMK AO2 SLP117 VIS LWR SW-NW SHSN OBSCURES MTNS DSNT SW-NW T01060089,M
WMC,2024-01-22 06:56,-117.8072,40.9019,1315.00,43.00,33.00,67.54,50.00,4.00,0.00,29.70,1004.20,10.00,M,BKN,OVC,M,M,6500.00,8500.00,M,M,M,M,M,M,M,M,M,40.27,KWMC 220656Z AUTO 05004KT 10SM BKN065 OVC085 06/01 A2970 RMK AO2 SLP042 T00610006,M
INS,2024-01-22 07:00,-115.6733,36.5872,955.00,44.60,42.80,93.35,220.00,3.00,0.00,29.89,1010.90,2.00,M,VV ,M,M,M,100.00,M,M,M,BR,M,M,M,M,M,M,43.09,KINS 220700Z AUTO 22003KT 2SM BR VV001 07/06 A2989 RMK AO2 VIS 1/4V2 VIS 1/4 RWY26 SLP109,M
ELY,2024-01-22 07:02,-114.8453,39.2950,1909.00,28.00,25.00,88.33,190.00,6.00,0.00,29.86,M,10.00,M,SCT,M,M,M,3000.00,M,M,M,M,M,M,M,M,M,M,20.71,KELY 220702Z AUTO 19006KT 10SM SCT030 M02/M04 A2986 RMK AO2 T10221039,M
LSV,2024-01-22 07:05,-115.0343,36.2362,570.00,51.80,48.20,87.47,50.00,6.00,0.00,29.87,1011.00,10.00,M,FEW,OVC,M,M,4500.00,7000.00,M,M,M,M,M,M,M,M,M,51.80,KLSV 220705Z AUTO 05006KT 10SM FEW045 OVC070 11/09 A2987 RMK AO2 SLP110 $,M
TPH,2024-01-22 07:09,-117.0904,38.0505,1654.00,37.00,34.00,88.78,130.00,9.00,0.00,29.84,M,10.00,M,FEW,OVC,M,M,800.00,2600.00,M,M,M,M,M,M,M,M,M,29.73,KTPH 220709Z AUTO 13009KT 10SM FEW008 OVC026 03/01 A2984 RMK AO2 T00280011,M
INS,2024-01-22 07:10,-115.6733,36.5872,955.00,44.60,42.80,93.35,0.00,0.00,0.00,29.88,1010.60,1.25,M,VV ,M,M,M,100.00,M,M,M,BR,M,M,M,M,M,M,44.60,KINS 220710Z AUTO 00000KT 1 1/4SM BR VV001 07/06 A2988 RMK AO2 VIS 1 1/4V2 1/4 VIS 3/8 RWY26 SLP106,M
05U,2024-01-22 07:10,-116.0051,39.6042,1811.23,37.40,30.20,74.98,290.00,5.00,0.00,29.83,M,10.00,M,M,M,M,M,M,M,M,M,M,M,M,M,M,M,M,32.81,K05U 220710Z AUTO 29005KT 10SM 03/M01 A2983 RMK A01,M
BVU,2024-01-22 07:15,-114.8611,35.9475,671.00,50.00,46.40,87.37,30.00,5.00,0.00,29.89,M,10.00,M,OVC,M,M,M,6500.00,M,M,M,M,M,M,M,M,M,M,50.00,KBVU 220715Z AUTO 03005KT 10SM OVC065 10/08 A2989 RMK AO2,M
CXP,2024-01-22 07:15,-119.7326,39.1923,1431.00,46.40,28.40,49.24,M,5.00,0.00,29.70,M,10.00,14.00,OVC,M,M,M,5500.00,M,M,M,M,M,M,M,M,M,M,43.50,KCXP 220715Z AUTO VRB05G14KT 10SM OVC055 08/M02 A2970 RMK AO2,M
INS,2024-01-22 07:15,-115.6733,36.5872,955.00,44.60,42.80,93.35,0.00,0.00,0.00,29.88,1010.60,1.00,M,VV ,M,M,M,200.00,M,M,M,BR,M,M,M,M,M,M,44.60,KINS 220715Z AUTO 00000KT 1SM R08/3500VP6000FT BR VV002 07/06 A2988 RMK AO2 VIS 1V2 VIS 3/8 RWY26 SLP106,M
RTS,2024-01-22 07:15,-119.8764,39.6682,1539.00,42.80,30.20,60.79,250.00,8.00,0.00,29.69,M,10.00,M,BKN,OVC,M,M,5000.00,5500.00,M,M,M,M,M,M,M,M,M,37.42,KRTS 220715Z AUTO 25008KT 10SM BKN050 OVC055 06/M01 A2969 RMK AO2,M
MEV,2024-01-22 07:15,-119.7500,38.9963,1441.42,46.40,28.40,49.24,180.00,19.00,0.00,29.67,M,10.00,32.00,FEW,OVC,M,M,4300.00,5500.00,M,M,M,M,M,M,M,M,M,38.48,KMEV 220715Z AUTO 18019G32KT 10SM FEW043 OVC055 08/M02 A2967 RMK AO2,M
BAM,2024-01-22 07:15,-116.8743,40.5990,1382.36,35.60,32.00,86.59,110.00,3.00,0.00,29.75,M,10.00,M,BKN,BKN,M,M,7500.00,12000.00,M,M,M,M,M,M,M,M,M,32.80,KBAM 220715Z AUTO 11003KT 10SM BKN075 BKN120 02/00 A2975 RMK AO1,M
HTH,2024-01-22 07:15,-118.6315,38.5448,1282.89,48.20,32.00,53.27,130.00,14.00,0.00,29.72,M,10.00,20.00,FEW,M,M,M,11000.00,M,M,M,M,M,M,M,M,M,M,42.04,KHTH 220715Z AUTO 13014G20KT 10SM FEW110 09/00 A2972 RMK A01,M
10U,2024-01-22 07:15,-116.1876,41.9532,1637.00,37.40,32.00,80.65,120.00,16.00,0.00,29.74,M,10.00,M,OVC,M,M,M,7000.00,M,M,M,M,M,M,M,M,M,M,27.46,K10U 220715Z AUTO 12016KT 10SM OVC070 03/M00 A2974 RMK AO2,M
TMT,2024-01-22 07:15,-117.1971,39.4643,1749.34,31.00,28.40,89.95,0.00,0.00,0.00,29.77,M,10.00,M,SCT,M,M,M,11000.00,M,M,M,M,M,M,M,M,M,M,31.00,KTMT 220715Z AUTO 00000KT 10SM SCT110 M01/M02 A2977 RMK AO2 T10061020,M
INS,2024-01-22 07:20,-115.6733,36.5872,955.00,44.60,42.80,93.35,0.00,0.00,0.00,29.88,1010.60,0.75,M,VV ,M,M,M,200.00,M,M,M,BR,M,M,M,M,M,M,44.60,KINS 220720Z AUTO 00000KT 3/4SM R08/3500V5000FT BR VV002 07/06 A2988 RMK AO2 SLP106,M
HND,2024-01-22 07:22,-115.1344,35.9729,742.79,48.20,46.40,93.45,150.00,5.00,0.00,29.91,M,10.00,M,BKN,OVC,M,M,1100.00,6500.00,M,M,M,M,M,M,M,M,M,45.63,KHND 220722Z AUTO 15005KT 10SM BKN011 OVC065 09/08 A2991 RMK AO2,M
LAS,2024-01-22 07:30,-115.1634,36.0719,663.00,51.00,48.00,89.42,110.00,4.00,0.00,29.89,M,9.00,M,BKN,OVC,M,M,1000.00,6500.00,M,M,M,M,M,M,M,M,M,51.00,KLAS 220730Z 11004KT 9SM BKN010 OVC065 11/09 A2989 RMK AO2 VIS LWR SW-NW SHSN OBSCURES MTNS DSNT SW-NW T01060089,M
05U,2024-01-22 07:30,-116.0051,39.6042,1811.23,37.40,30.20,74.98,0.00,0.00,0.00,29.82,M,10.00,M,M,M,M,M,M,M,M,M,M,M,M,M,M,M,M,37.40,K05U 220730Z AUTO 00000KT 10SM 03/M01 A2982 RMK A01,M
BVU,2024-01-22 07:35,-114.8611,35.9475,671.00,50.00,46.40,87.37,40.00,5.00,0.00,29.89,M,10.00,M,OVC,M,M,M,6500.00,M,M,M,M,M,M,M,M,M,M,50.00,KBVU 220735Z AUTO 04005KT 10SM OVC065 10/08 A2989 RMK AO2,M
CXP,2024-01-22 07:35,-119.7326,39.1923,1431.00,46.40,30.20,53.00,210.00,7.00,0.00,29.70,M,10.00,13.00,BKN,BKN,OVC,M,3600.00,4300.00,5500.00,M,M,M,M,M,M,M,M,42.33,KCXP 220735Z AUTO 21007G13KT 10SM BKN036 BKN043 OVC055 08/M01 A2970 RMK AO2,M
INS,2024-01-22 07:35,-115.6733,36.5872,955.00,44.60,42.80,93.35,190.00,3.00,0.00,29.87,1010.20,1.38,M,BKN,OVC,M,M,200.00,5500.00,M,M,BR,M,M,M,M,M,M,43.09,KINS 220735Z AUTO 19003KT 1 3/8SM BR BKN002 OVC055 07/06 A2987 RMK AO2 VIS 5/8V1 3/8 VIS 3/8 RWY26 SLP102,M
RTS,2024-01-22 07:35,-119.8764,39.6682,1539.00,41.00,30.20,65.16,290.00,4.00,0.00,29.68,M,10.00,M,FEW,BKN,BKN,M,4300.00,5000.00,5500.00,M,M,M,M,M,M,M,M,37.93,KRTS 220735Z AUTO 29004KT 10SM FEW043 BKN050 BKN055 05/M01 A2968 RMK AO2,M
MEV,2024-01-22 07:35,-119.7500,38.9963,1441.42,44.60,33.80,65.61,170.00,22.00,0.00,29.67,M,8.00,31.00,SCT,BKN,OVC,M,3100.00,3700.00,5000.00,M,-RA,M,M,M,M,M,M,35.45,KMEV 220735Z AUTO 17022G31KT 8SM -RA SCT031 BKN037 OVC050 07/01 A2967 RMK AO2,M
BAM,2024-01-22 07:35,-116.8743,40.5990,1382.36,37.40,33.80,86.69,60.00,7.00,0.00,29.74,M,10.00,M,BKN,BKN,M,M,7500.00,10000.00,M,M,M,M,M,M,M,M,M,31.36,KBAM 220735Z AUTO 06007KT 10SM BKN075 BKN100 03/01 A2974 RMK AO1,M
HTH,2024-01-22 07:35,-118.6315,38.5448,1282.89,48.20,32.00,53.27,140.00,15.00,0.00,29.72,M,10.00,M,SCT,M,M,M,11000.00,M,M,M,M,M,M,M,M,M,M,41.78,KHTH 220735Z AUTO 14015KT 10SM SCT110 09/00 A2972 RMK A01,M
10U,2024-01-22 07:35,-116.1876,41.9532,1637.00,37.40,32.00,80.65,120.00,16.00,0.00,29.74,M,10.00,22.00,OVC,M,M,M,7000.00,M,M,M,M,M,M,M,M,M,M,27.46,K10U 220735Z AUTO 12016G22KT 10SM OVC070 03/00 A2974 RMK AO2,M
TMT,2024-01-22 07:35,-117.1971,39.4643,1749.34,30.00,28.20,92.91,0.00,0.00,0.00,29.77,M,10.00,M,BKN,M,M,M,10000.00,M,M,M,M,M,M,M,M,M,M,30.00,KTMT 220735Z AUTO 00000KT 10SM BKN100 M01/M02 A2977 RMK AO2 T10121021,M
VGT,2024-01-22 07:37,-115.1933,36.2111,667.00,50.00,48.00,92.80,0.00,0.00,0.00,29.88,M,10.00,M,BKN,OVC,M,M,2000.00,6500.00,M,M,M,M,M,M,M,M,M,50.00,KVGT 220737Z AUTO 00000KT 10SM BKN020 OVC065 10/09 A2988 RMK AO2 T01000089,M
INS,2024-01-22 07:40,-115.6733,36.5872,955.00,44.60,42.80,93.35,0.00,0.00,0.00,29.87,1010.20,2.50,M,BKN,OVC,M,M,200.00,5500.00,M,M,BR,M,M,M,M,M,M,44.60,KINS 220740Z AUTO 00000KT 2 1/2SM BR BKN002 OVC055 07/06 A2987 RMK AO2 VIS 7/8V2 1/2 VIS 3/8 RWY26 BKN V SCT SLP102,M
HND,2024-01-22 07:41,-115.1344,35.9729,742.79,48.20,46.40,93.45,110.00,3.00,0.00,29.90,M,10.00,M,SCT,OVC,M,M,1300.00,6500.00,M,M,M,M,M,M,M,M,M,47.21,KHND 220741Z AUTO 11003KT 10SM SCT013 OVC065 09/08 A2990 RMK AO2,M
INS,2024-01-22 07:45,-115.6733,36.5872,955.00,44.60,42.80,93.35,80.00,4.00,0.00,29.86,1009.90,1.88,M,BKN,OVC,M,M,200.00,5500.00,M,M,BR,M,M,M,M,M,M,42.13,KINS 220745Z AUTO 08004KT 1 7/8SM BR BKN002 OVC055 07/06 A2986 RMK AO2 VIS 1 5/8V2 1/2 VIS 7/8 RWY26 BKN V SCT SLP099,M
INS,2024-01-22 07:50,-115.6733,36.5872,955.00,44.60,42.80,93.35,0.00,0.00,0.00,29.87,1010.20,0.62,M,BKN,OVC,M,M,0.00,6000.00,M,M,BR,M,M,M,M,M,M,44.60,KINS 220750Z AUTO 00000KT 5/8SM R08/1600V6000FT BR BKN000 OVC060 07/06 A2987 RMK AO2 VIS 5/8V2 1/2 SLP102,M
05U,2024-01-22 07:50,-116.0051,39.6042,1811.23,35.60,30.20,80.51,0.00,0.00,0.00,29.82,M,10.00,M,M,M,M,M,M,M,M,M,M,M,M,M,M,M,M,35.60,K05U 220750Z AUTO 00000KT 10SM 02/M01 A2982 RMK A01,M
P68,2024-01-22 07:53,-116.0056,39.6014,1993.00,36.00,30.00,78.60,140.00,4.00,0.00,29.79,1006.40,M,M,M,M,M,M,M,M,M,M,M,M,M,M,M,M,M,32.09,KP68 220753Z AUTO 14004KT 02/M01 A2979 RMK AO1 SLP064 T00221011 400781006,M
DRA,2024-01-22 07:53,-116.0278,36.6206,1009.00,45.00,41.00,85.77,M,M,0.00,29.85,1009.50,10.00,M,OVC,M,M,M,4800.00,M,M,M,M,M,M,M,M,M,M,M,KDRA 220753Z AUTO 10SM OVC048 07/05 A2985 RMK AO2 SLP095 T00720050 401110050 $,M
ELY,2024-01-22 07:53,-114.8453,39.2950,1909.00,29.00,26.00,88.38,180.00,7.00,0.00,29.85,1009.80,10.00,M,BKN,M,M,M,3200.00,M,M,M,M,M,M,M,M,M,M,21.12,KELY 220753Z AUTO 18007KT 10SM BKN032 M02/M03 A2985 RMK AO2 SLP098 T10171033 400611028,M
VGT,2024-01-22 07:53,-115.1933,36.2111,667.00,50.00,47.00,89.37,0.00,0.00,0.00,29.88,1013.30,10.00,M,BKN,OVC,M,M,1800.00,2300.00,M,M,M,M,M,M,M,M,M,50.00,KVGT 220753Z AUTO 00000KT 10SM BKN018 OVC023 10/08 A2988 RMK AO2 SLP133 T01000083 401280089,M
LOL,2024-01-22 07:53,-118.5701,40.0684,1192.43,42.00,35.00,76.03,80.00,7.00,0.00,29.68,1004.40,10.00,M,BKN,OVC,M,M,8000.00,9000.00,M,M,M,M,M,M,M,M,M,36.97,KLOL 220753Z AUTO 08007KT 10SM BKN080 OVC090 06/02 A2968 RMK AO2 SLP044 T00560017 401280017 $,M
BVU,2024-01-22 07:55,-114.8611,35.9475,671.00,50.00,46.40,87.37,50.00,5.00,0.00,29.88,M,10.00,M,OVC,M,M,M,6500.00,M,M,M,M,M,M,M,M,M,M,50.00,KBVU 220755Z AUTO 05005KT 10SM OVC065 10/08 A2988 RMK AO2,M
CXP,2024-01-22 07:55,-119.7326,39.1923,1431.00,44.60,33.80,65.61,M,3.00,0.00,29.69,M,10.00,M,SCT,OVC,M,M,3500.00,4600.00,M,M,-RA,M,M,M,M,M,M,43.09,KCXP 220755Z AUTO VRB03KT 10SM -RA SCT035 OVC046 07/01 A2969 RMK AO2,M
INS,2024-01-22 07:55,-115.6733,36.5872,955.00,43.70,41.70,92.60,0.00,0.00,0.00,29.87,1010.20,0.25,M,SCT,OVC,M,M,0.00,6000.00,M,M,FG,M,M,M,M,M,M,43.70,KINS 220755Z AUTO 00000KT 1/4SM R08/1400V2000FT FG SCT000 OVC060 07/05 A2987 RMK AO2 VIS 1/4V1 5/8 SLP102 T00650054 401050057,M
RNO,2024-01-22 07:55,-119.7711,39.4839,1341.00,46.00,32.00,57.87,270.00,6.00,0.00,29.68,1002.80,10.00,M,SCT,OVC,M,M,3500.00,5500.00,M,M,M,M,M,M,M,M,M,42.39,KRNO 220755Z 27006KT 10SM SCT035 OVC055 08/00 A2968 RMK AO2 SLP028 T00780000 401330022,M
RTS,2024-01-22 07:55,-119.8764,39.6682,1539.00,41.00,30.20,65.16,330.00,4.00,0.00,29.69,M,10.00,M,OVC,M,M,M,5000.00,M,M,M,M,M,M,M,M,M,M,37.93,KRTS 220755Z AUTO 33004KT 10SM OVC050 05/M01 A2969 RMK AO2,M
MEV,2024-01-22 07:55,-119.7500,38.9963,1441.42,44.60,33.80,65.61,180.00,23.00,0.00,29.66,M,10.00,31.00,FEW,BKN,OVC,M,2000.00,3200.00,11000.00,M,-RA,M,M,M,M,M,M,35.25,KMEV 220755Z AUTO 18023G31KT 10SM -RA FEW020 BKN032 OVC110 07/01 A2966 RMK AO2,M
BAM,2024-01-22 07:55,-116.8743,40.5990,1382.36,41.00,33.80,75.33,60.00,6.00,0.00,29.73,M,10.00,M,SCT,SCT,OVC,M,7500.00,9500.00,11000.00,M,M,M,M,M,M,M,M,36.37,KBAM 220755Z AUTO 06006KT 10SM SCT075 SCT095 OVC110 05/01 A2973 RMK AO1,M
HTH,2024-01-22 07:55,-118.6315,38.5448,1282.89,50.00,32.00,49.81,150.00,19.00,0.00,29.70,M,10.00,M,SCT,SCT,M,M,9500.00,12000.00,M,M,M,M,M,M,M,M,M,50.00,KHTH 220755Z AUTO 15019KT 10SM SCT095 SCT120 10/00 A2970 RMK A01,M
10U,2024-01-22 07:55,-116.1876,41.9532,1637.00,37.40,32.00,80.65,120.00,13.00,0.00,29.74,M,10.00,19.00,BKN,OVC,M,M,7500.00,11000.00,M,M,M,M,M,M,M,M,M,28.49,K10U 220755Z AUTO 12013G19KT 10SM BKN075 OVC110 03/M00 A2974 RMK AO2,M
LSV,2024-01-22 07:55,-115.0343,36.2362,570.00,51.00,47.50,87.76,60.00,5.00,0.00,29.86,1010.60,10.00,M,SCT,OVC,M,M,5500.00,7000.00,M,M,M,M,M,M,M,M,M,51.00,KLSV 220755Z AUTO 06005KT 10SM SCT055 OVC070 11/09 A2986 RMK AO2 SLP106 T01050086 401380100 $,M
TMT,2024-01-22 07:55,-117.1971,39.4643,1749.34,30.40,28.40,92.16,150.00,5.00,0.00,29.77,M,10.00,M,BKN,M,M,M,8500.00,M,M,M,M,M,M,M,M,M,M,24.50,KTMT 220755Z AUTO 15005KT 10SM BKN085 M01/M02 A2977 RMK AO2 T10091020 400911030,M
EKO,2024-01-22 07:56,-115.7860,40.8242,1367.00,35.00,30.00,81.78,70.00,4.00,0.00,29.78,1008.20,10.00,M,SCT,M,M,M,8000.00,M,M,M,M,M,M,M,M,M,M,30.92,KEKO 220756Z AUTO 07004KT 10SM SCT080 02/M01 A2978 RMK AO2 SLP082 T00171011 400831011,M
NFL,2024-01-22 07:56,-118.7010,39.4166,1199.00,49.00,34.00,56.02,140.00,13.00,0.00,29.67,1002.90,10.00,17.00,BKN,OVC,M,M,9000.00,12000.00,M,M,M,M,M,M,M,M,M,43.35,KNFL 220756Z AUTO 14013G17KT 10SM BKN090 OVC120 09/01 A2967 RMK AO2 SLP029 T00940011 401440017,M
HND,2024-01-22 07:56,-115.1344,35.9729,742.79,48.00,46.00,92.74,0.00,0.00,0.00,29.90,1013.80,9.00,M,OVC,M,M,M,6000.00,M,M,M,M,M,M,M,M,M,M,48.00,KHND 220756Z AUTO 00000KT 9SM OVC060 09/08 A2990 RMK AO2 SLP138 T00890078,M
TPH,2024-01-22 07:56,-117.0904,38.0505,1654.00,37.00,34.00,88.78,120.00,7.00,0.00,29.83,1009.10,10.00,M,OVC,M,M,M,2500.00,M,M,M,M,M,M,M,M,M,M,30.87,KTPH 220756Z AUTO 12007KT 10SM OVC025 03/01 A2983 RMK AO2 SLP091 T00280011 400720011,M
LAS,2024-01-22 07:56,-115.1634,36.0719,663.00,51.00,48.00,89.42,90.00,6.00,0.00,29.87,1011.00,9.00,M,SCT,OVC,M,M,1000.00,6500.00,M,M,M,M,M,M,M,M,M,51.00,KLAS 220756Z 09006KT 9SM SCT010 OVC065 11/09 A2987 RMK AO2 SLP110 VIS LWR SW-NW MTNS OBSCURED DSNT S-W-NW T01060089 401440094,M
WMC,2024-01-22 07:56,-117.8072,40.9019,1315.00,42.00,35.00,76.03,0.00,0.00,T,29.72,1004.90,10.00,M,SCT,OVC,M,M,4200.00,5000.00,M,M,-RA,M,M,M,M,M,M,42.00,KWMC 220756Z AUTO 00000KT 10SM -RA SCT042 OVC050 06/02 A2972 RMK AO2 RAB22 SLP049 P0000 T00560017 401280028,M
05U,2024-01-22 08:10,-116.0051,39.6042,1811.23,35.60,30.20,80.51,0.00,0.00,0.00,29.81,M,10.00,M,M,M,M,M,M,M,M,M,M,M,M,M,M,M,M,35.60,K05U 220810Z AUTO 00000KT 10SM 02/M01 A2981 RMK A01,M
BVU,2024-01-22 08:15,-114.8611,35.9475,671.00,50.00,46.40,87.37,70.00,4.00,0.00,29.89,M,10.00,M,OVC,M,M,M,6500.00,M,M,M,M,M,M,M,M,M,M,50.00,KBVU 220815Z AUTO 07004KT 10SM OVC065 10/08 A2989 RMK AO2,M
CXP,2024-01-22 08:15,-119.7326,39.1923,1431.00,44.60,33.80,65.61,0.00,0.00,0.00,29.69,M,10.00,M,BKN,OVC,M,M,4100.00,4600.00,M,M,M,M,M,M,M,M,M,44.60,KCXP 220815Z AUTO 00000KT 10SM BKN041 OVC046 07/01 A2969 RMK AO2,M
RTS,2024-01-22 08:15,-119.8764,39.6682,1539.00,41.00,32.00,70.08,10.00,4.00,0.00,29.69,M,10.00,M,FEW,OVC,M,M,3900.00,4700.00,M,M,M,M,M,M,M,M,M,37.93,KRTS 220815Z AUTO 01004KT 10SM FEW039 OVC047 05/M00 A2969 RMK AO2,M
MEV,2024-01-22 08:15,-119.7500,38.9963,1441.42,44.60,32.00,61.03,180.00,24.00,0.00,29.66,M,10.00,36.00,SCT,SCT,OVC,M,4400.00,6000.00,7500.00,M,M,M,M,M,M,M,M,35.06,KMEV 220815Z AUTO 18024G36KT 10SM SCT044 SCT060 OVC075 07/00 A2966 RMK AO2,M
BAM,2024-01-22 08:15,-116.8743,40.5990,1382.36,42.80,33.80,70.28,0.00,0.00,0.00,29.73,M,10.00,M,BKN,M,M,M,12000.00,M,M,M,M,M,M,M,M,M,M,42.80,KBAM 220815Z AUTO 00000KT 10SM BKN120 06/01 A2973 RMK AO1,M
HTH,2024-01-22 08:15,-118.6315,38.5448,1282.89,48.20,32.00,53.27,150.00,22.00,0.00,29.68,M,10.00,M,FEW,M,M,M,9000.00,M,M,M,M,M,M,M,M,M,M,40.27,KHTH 220815Z AUTO 15022KT 10SM FEW090 09/00 A2968 RMK A01,M
10U,2024-01-22 08:15,-116.1876,41.9532,1637.00,37.40,32.00,80.65,120.00,12.00,0.00,29.74,M,10.00,17.00,FEW,OVC,M,M,7500.00,11000.00,M,M,M,M,M,M,M,M,M,28.87,K10U 220815Z AUTO 12012G17KT 10SM FEW075 OVC110 03/M00 A2974 RMK AO2,M
TMT,2024-01-22 08:15,-117.1971,39.4643,1749.34,32.00,29.30,89.63,190.00,3.00,0.00,29.76,M,10.00,M,SCT,BKN,M,M,7500.00,8500.00,M,M,M,M,M,M,M,M,M,28.69,KTMT 220815Z AUTO 19003KT 10SM SCT075 BKN085 00/M01 A2976 RMK AO2 T00001015,M
INS,2024-01-22 08:25,-115.6733,36.5872,955.00,42.80,42.80,100.00,0.00,0.00,0.00,29.87,1010.20,0.38,M,BKN,OVC,M,M,700.00,6500.00,M,M,FG,M,M,M,M,M,M,42.80,KINS 220825Z AUTO 00000KT 3/8SM R08/2200V2800FT FG BKN007 OVC065 06/06 A2987 RMK AO2 SLP102,M
05U,2024-01-22 08:30,-116.0051,39.6042,1811.23,35.60,30.20,80.51,300.00,9.00,0.00,29.80,M,10.00,M,M,M,M,M,M,M,M,M,M,M,M,M,M,M,M,27.99,K05U 220830Z AUTO 30009KT 10SM 02/M01 A2980 RMK A01,M
10U,2024-01-22 08:30,-116.1876,41.9532,1637.00,37.40,32.00,80.65,120.00,12.00,0.00,29.74,M,10.00,17.00,BKN,OVC,M,M,7500.00,11000.00,M,M,M,M,M,M,M,M,M,28.87,K10U 220830Z AUTO 12012G17KT 10SM BKN075 OVC110 03/M00 A2974 RMK AO2,M
LAS,2024-01-22 08:32,-115.1634,36.0719,663.00,51.00,47.00,86.12,0.00,0.00,0.00,29.89,M,10.00,M,BKN,OVC,M,M,1000.00,7000.00,M,M,M,M,M,M,M,M,M,51.00,KLAS 220832Z 00000KT 10SM BKN010 OVC070 11/08 A2989 RMK AO2 VIS LWR SW-NW MTNS OBSCURED DSNT S-W-NW T01060083,M
BVU,2024-01-22 08:35,-114.8611,35.9475,671.00,50.00,46.40,87.37,70.00,6.00,0.00,29.89,M,10.00,M,OVC,M,M,M,6500.00,M,M,M,M,M,M,M,M,M,M,50.00,KBVU 220835Z AUTO 07006KT 10SM OVC065 10/08 A2989 RMK AO2,M
CXP,2024-01-22 08:35,-119.7326,39.1923,1431.00,44.60,33.80,65.61,160.00,7.00,0.00,29.70,M,10.00,12.00,OVC,M,M,M,3800.00,M,M,M,M,M,M,M,M,M,M,40.14,KCXP 220835Z AUTO 16007G12KT 10SM OVC038 07/01 A2970 RMK AO2,M
VGT,2024-01-22 08:35,-115.1933,36.2111,667.00,50.00,48.00,92.80,0.00,0.00,0.00,29.89,M,10.00,M,BKN,OVC,M,M,1400.00,2600.00,M,M,M,M,M,M,M,M,M,50.00,KVGT 220835Z AUTO 00000KT 10SM BKN014 OVC026 10/09 A2989 RMK AO2 T01000089,M
RTS,2024-01-22 08:35,-119.8764,39.6682,1539.00,41.00,32.00,70.08,360.00,4.00,0.00,29.69,M,10.00,M,BKN,OVC,M,M,4300.00,4900.00,M,M,M,M,M,M,M,M,M,37.93,KRTS 220835Z AUTO 36004KT 10SM BKN043 OVC049 05/00 A2969 RMK AO2,M
MEV,2024-01-22 08:35,-119.7500,38.9963,1441.42,44.60,33.80,65.61,180.00,22.00,0.00,29.67,M,10.00,35.00,FEW,SCT,BKN,M,400.00,3800.00,5000.00,M,-RA,M,M,M,M,M,M,35.45,KMEV 220835Z AUTO 18022G35KT 10SM -RA FEW004 SCT038 BKN050 07/01 A2967 RMK AO2,M
BAM,2024-01-22 08:35,-116.8743,40.5990,1382.36,42.80,33.80,70.28,20.00,3.00,0.00,29.73,M,10.00,M,SCT,M,M,M,11000.00,M,M,M,M,M,M,M,M,M,M,41.03,KBAM 220835Z AUTO 02003KT 10SM SCT110 06/01 A2973 RMK AO1,M
HTH,2024-01-22 08:35,-118.6315,38.5448,1282.89,48.20,33.80,57.26,150.00,19.00,0.00,29.69,M,10.00,25.00,CLR,M,M,M,M,M,M,M,M,M,M,M,M,M,M,40.86,KHTH 220835Z AUTO 15019G25KT 10SM CLR 09/01 A2969 RMK A01,M
TMT,2024-01-22 08:35,-117.1971,39.4643,1749.34,30.40,28.20,91.41,150.00,4.00,0.00,29.76,M,10.00,M,SCT,M,M,M,8500.00,M,M,M,M,M,M,M,M,M,M,25.55,KTMT 220835Z AUTO 15004KT 10SM SCT085 M01/M02 A2976 RMK AO2 T10091021,M
INS,2024-01-22 08:40,-115.6733,36.5872,955.00,44.60,42.80,93.35,230.00,3.00,0.00,29.87,1010.20,0.38,M,OVC,M,M,M,600.00,M,M,M,FG,M,M,M,M,M,M,43.09,KINS 220840Z AUTO 23003KT 3/8SM R08/2200V2600FT FG OVC006 07/06 A2987 RMK AO2 SLP102,M
VGT,2024-01-22 08:45,-115.1933,36.2111,667.00,50.00,48.00,92.80,0.00,0.00,0.00,29.88,M,10.00,M,OVC,M,M,M,1600.00,M,M,M,M,M,M,M,M,M,M,50.00,KVGT 220845Z AUTO 00000KT 10SM OVC016 10/09 A2988 RMK AO2 T01000089,M
LSV,2024-01-22 08:45,-115.0343,36.2362,570.00,50.00,46.40,87.37,0.00,0.00,0.00,29.87,1011.00,10.00,M,BKN,OVC,M,M,3500.00,7000.00,M,M,M,M,M,M,M,M,M,50.00,KLSV 220845Z AUTO 00000KT 10SM BKN035 OVC070 10/08 A2987 RMK AO2 SLP110 $,M
P68,2024-01-22 08:53,-116.0056,39.6014,1993.00,36.00,30.00,78.60,150.00,9.00,0.00,29.78,1005.70,M,M,M,M,M,M,M,M,M,M,M,M,M,M,M,M,M,28.49,KP68 220853Z AUTO 15009KT 02/M01 A2978 RMK AO1 SLP057 T00221011 58009,M
DRA,2024-01-22 08:53,-116.0278,36.6206,1009.00,45.00,43.00,92.65,110.00,4.00,T,29.84,1009.10,10.00,M,FEW,OVC,M,M,2000.00,4100.00,M,M,M,M,M,M,M,M,M,42.60,KDRA 220853Z AUTO 11004KT 10SM FEW020 OVC041 07/06 A2984 RMK AO2 RAB11E48 SLP091 P0000 60000 T00720061 56013 $,M
ELY,2024-01-22 08:53,-114.8453,39.2950,1909.00,30.00,26.00,84.85,210.00,9.00,0.00,29.84,1008.90,10.00,M,FEW,M,M,M,3200.00,M,M,M,M,M,M,M,M,M,M,21.03,KELY 220853Z AUTO 21009KT 10SM FEW032 M01/M03 A2984 RMK AO2 SLP089 T10111033 58008,M
VGT,2024-01-22 08:53,-115.1933,36.2111,667.00,50.00,48.00,92.80,0.00,0.00,0.00,29.88,1013.40,10.00,M,OVC,M,M,M,1600.00,M,M,M,M,M,M,M,M,M,M,50.00,KVGT 220853Z AUTO 00000KT 10SM OVC016 10/09 A2988 RMK AO2 SLP134 T01000089 55004,M
LOL,2024-01-22 08:53,-118.5701,40.0684,1192.43,42.00,35.00,76.03,40.00,4.00,0.00,29.67,1004.00,10.00,M,OVC,M,M,M,8000.00,M,M,M,M,M,M,M,M,M,M,39.10,KLOL 220853Z AUTO 04004KT 10SM OVC080 06/02 A2967 RMK AO2 SLP040 T00560017 58008 $,M
LAS,2024-01-22 08:53,-115.1634,36.0719,663.00,51.80,46.40,81.74,70.00,4.00,0.00,29.88,M,10.00,M,FEW,SCT,OVC,M,500.00,1000.00,3900.00,M,M,M,M,M,M,M,M,51.80,KLAS 220853Z 07004KT 10SM FEW005 SCT010 OVC039 11/08 A2988 RMK AO2 VIS LWR SW-NW MTNS OBSCURED DSNT S-W-NW,M
BVU,2024-01-22 08:55,-114.8611,35.9475,671.00,50.00,46.40,87.37,60.00,3.00,0.00,29.89,M,10.00,M,OVC,M,M,M,7000.00,M,M,M,M,M,M,M,M,M,M,50.00,KBVU 220855Z AUTO 06003KT 10SM OVC070 10/08 A2989 RMK AO2,M
CXP,2024-01-22 08:55,-119.7326,39.1923,1431.00,44.60,33.80,65.61,0.00,0.00,0.00,29.70,M,10.00,M,SCT,OVC,M,M,3600.00,4500.00,M,M,M,M,M,M,M,M,M,44.60,KCXP 220855Z AUTO 00000KT 10SM SCT036 OVC045 07/01 A2970 RMK AO2,M
INS,2024-01-22 08:55,-115.6733,36.5872,955.00,44.00,42.80,95.51,0.00,0.00,0.00,29.86,1009.90,0.38,M,OVC,M,M,M,500.00,M,M,M,FG,M,M,M,M,M,M,44.00,KINS 220855Z AUTO 00000KT 3/8SM R08/2000V2400FT FG OVC005 07/06 A2986 RMK AO2 SLP099 T00670060 58008,M
RNO,2024-01-22 08:55,-119.7711,39.4839,1341.00,46.00,33.00,60.25,0.00,0.00,0.00,29.67,1002.40,10.00,M,SCT,BKN,M,M,3500.00,5000.00,M,M,M,M,M,M,M,M,M,46.00,KRNO 220855Z 00000KT 10SM SCT035 BKN050 08/01 A2967 RMK AO2 SLP024 T00780006 56005,M
RTS,2024-01-22 08:55,-119.8764,39.6682,1539.00,41.00,32.00,70.08,0.00,0.00,0.00,29.69,M,10.00,M,FEW,BKN,OVC,M,2300.00,4100.00,4900.00,M,M,M,M,M,M,M,M,41.00,KRTS 220855Z AUTO 00000KT 10SM FEW023 BKN041 OVC049 05/00 A2969 RMK AO2,M
05U,2024-01-22 08:55,-116.0051,39.6042,1811.23,35.60,32.00,86.59,310.00,8.00,0.00,29.80,M,10.00,14.00,M,M,M,M,M,M,M,M,M,M,M,M,M,M,M,28.55,K05U 220855Z AUTO 31008G14KT 10SM 02/M00 A2980 RMK A01,M
MEV,2024-01-22 08:55,-119.7500,38.9963,1441.42,44.60,32.00,61.03,190.00,27.00,0.00,29.65,M,10.00,35.00,FEW,SCT,BKN,M,1100.00,4000.00,5000.00,M,M,M,M,M,M,M,M,34.52,KMEV 220855Z AUTO 19027G35KT 10SM FEW011 SCT040 BKN050 07/M00 A2965 RMK AO2,M
BAM,2024-01-22 08:55,-116.8743,40.5990,1382.36,42.80,33.80,70.28,40.00,3.00,0.00,29.72,M,10.00,M,BKN,M,M,M,11000.00,M,M,M,M,M,M,M,M,M,M,41.03,KBAM 220855Z AUTO 04003KT 10SM BKN110 06/01 A2972 RMK AO1,M
HTH,2024-01-22 08:55,-118.6315,38.5448,1282.89,48.20,33.80,57.26,140.00,17.00,0.00,29.70,M,10.00,23.00,FEW,M,M,M,11000.00,M,M,M,M,M,M,M,M,M,M,41.30,KHTH 220855Z AUTO 14017G23KT 10SM FEW110 09/01 A2970 RMK A01,M
10U,2024-01-22 08:55,-116.1876,41.9532,1637.00,37.40,32.00,80.65,120.00,12.00,0.00,29.73,M,10.00,M,FEW,BKN,OVC,M,4800.00,5500.00,7000.00,M,M,M,M,M,M,M,M,28.87,K10U 220855Z AUTO 12012KT 10SM FEW048 BKN055 OVC070 03/M00 A2973 RMK AO2,M
LSV,2024-01-22 08:55,-115.0343,36.2362,570.00,51.30,47.00,85.17,0.00,0.00,0.00,29.86,1010.60,10.00,M,BKN,OVC,M,M,3500.00,7000.00,M,M,M,M,M,M,M,M,M,51.30,KLSV 220855Z AUTO 00000KT 10SM BKN035 OVC070 11/08 A2986 RMK AO2 SLP106 T01070083 55004 $,M
TMT,2024-01-22 08:55,-117.1971,39.4643,1749.34,32.00,29.70,91.10,210.00,8.00,0.00,29.75,M,10.00,M,BKN,BKN,M,M,8500.00,11000.00,M,M,M,M,M,M,M,M,M,24.11,KTMT 220855Z AUTO 21008KT 10SM BKN085 BKN110 00/M01 A2975 RMK AO2 T00011013,M
EKO,2024-01-22 08:56,-115.7860,40.8242,1367.00,33.00,28.00,81.63,40.00,6.00,0.00,29.78,1008.30,10.00,M,SCT,M,M,M,7500.00,M,M,M,M,M,M,M,M,M,M,26.73,KEKO 220856Z AUTO 04006KT 10SM SCT075 01/M02 A2978 RMK AO2 SLP083 T00061022 56005,M
NFL,2024-01-22 08:56,-118.7010,39.4166,1199.00,48.00,35.00,60.52,160.00,11.00,0.00,29.66,1002.70,10.00,M,OVC,M,M,M,8000.00,M,M,M,M,M,M,M,M,M,M,42.69,KNFL 220856Z AUTO 16011KT 10SM OVC080 09/02 A2966 RMK AO2 SLP027 T00890017 58008,M
HND,2024-01-22 08:56,-115.1344,35.9729,742.79,47.00,45.00,92.71,160.00,4.00,0.00,29.90,1014.20,9.00,M,BKN,OVC,M,M,3800.00,6000.00,M,M,M,M,M,M,M,M,M,44.94,KHND 220856Z AUTO 16004KT 9SM BKN038 OVC060 08/07 A2990 RMK AO2 SLP142 T00830072 55004,M
TPH,2024-01-22 08:56,-117.0904,38.0505,1654.00,37.00,34.00,88.78,130.00,9.00,0.00,29.82,1008.70,10.00,M,SCT,OVC,M,M,1700.00,2500.00,M,M,M,M,M,M,M,M,M,29.73,KTPH 220856Z AUTO 13009KT 10SM SCT017 OVC025 03/01 A2982 RMK AO2 SLP087 T00280011 58008,M
LAS,2024-01-22 08:56,-115.1634,36.0719,663.00,51.00,47.00,86.12,80.00,3.00,0.00,29.88,1011.30,10.00,M,FEW,SCT,OVC,M,500.00,1000.00,3900.00,M,M,M,M,M,M,M,M,51.00,KLAS 220856Z 08003KT 10SM FEW005 SCT010 OVC039 11/08 A2988 RMK AO2 SLP113 VIS LWR SW-NW MTNS OBSCURED DSNT S-W-NW T01060083 55005,M
WMC,2024-01-22 08:56,-117.8072,40.9019,1315.00,40.00,37.00,88.92,90.00,7.00,0.02,29.70,1004.40,10.00,M,BKN,OVC,M,M,4000.00,4800.00,M,M,-RA,M,M,M,M,M,M,34.53,KWMC 220856Z AUTO 09007KT 10SM -RA BKN040 OVC048 04/03 A2970 RMK AO2 SLP044 P0002 60002 T00440028 50001,M
INS,2024-01-22 09:00,-115.6733,36.5872,955.00,44.60,42.80,93.35,310.00,3.00,0.00,29.86,1009.90,0.38,M,VV ,M,M,M,400.00,M,M,M,FG,M,M,M,M,M,M,43.09,KINS 220900Z AUTO 31003KT 3/8SM R08/2000V2400FT FG VV004 07/06 A2986 RMK AO2 SLP099,M
05U,2024-01-22 09:10,-116.0051,39.6042,1811.23,35.60,32.00,86.59,310.00,10.00,0.00,29.80,M,10.00,M,M,M,M,M,M,M,M,M,M,M,M,M,M,M,M,27.48,K05U 220910Z AUTO 31010KT 10SM 02/M00 A2980 RMK A01,M
BVU,2024-01-22 09:15,-114.8611,35.9475,671.00,50.00,48.20,93.50,110.00,4.00,0.00,29.88,M,10.00,M,FEW,OVC,M,M,1800.00,7000.00,M,M,M,M,M,M,M,M,M,50.00,KBVU 220915Z AUTO 11004KT 10SM FEW018 OVC070 10/09 A2988 RMK AO2,M
CXP,2024-01-22 09:15,-119.7326,39.1923,1431.00,44.60,32.00,61.03,170.00,4.00,0.00,29.69,M,10.00,M,BKN,OVC,M,M,4600.00,5500.00,M,M,M,M,M,M,M,M,M,42.13,KCXP 220915Z AUTO 17004KT 10SM BKN046 OVC055 07/00 A2969 RMK AO2,M
INS,2024-01-22 09:15,-115.6733,36.5872,955.00,42.80,42.80,100.00,0.00,0.00,0.00,29.86,1009.90,0.88,M,VV ,M,M,M,300.00,M,M,M,BR,M,M,M,M,M,M,42.80,KINS 220915Z AUTO 00000KT 7/8SM R08/3000VP6000FT BR VV003 06/06 A2986 RMK AO2 VIS 3/8V7/8 SLP099,M
RTS,2024-01-22 09:15,-119.8764,39.6682,1539.00,41.00,33.80,75.33,360.00,4.00,0.00,29.69,M,10.00,M,FEW,BKN,OVC,M,2900.00,3500.00,4000.00,M,M,M,M,M,M,M,M,37.93,KRTS 220915Z AUTO 36004KT 10SM FEW029 BKN035 OVC040 05/01 A2969 RMK AO2,M
MEV,2024-01-22 09:15,-119.7500,38.9963,1441.42,44.60,30.20,56.74,190.00,22.00,0.00,29.66,M,10.00,31.00,FEW,FEW,BKN,M,4000.00,5000.00,6000.00,M,M,M,M,M,M,M,M,35.45,KMEV 220915Z AUTO 19022G31KT 10SM FEW040 FEW050 BKN060 07/M01 A2966 RMK AO2,M
HTH,2024-01-22 09:15,-118.6315,38.5448,1282.89,48.20,32.00,53.27,120.00,15.00,0.00,29.70,M,10.00,20.00,FEW,M,M,M,12000.00,M,M,M,M,M,M,M,M,M,M,41.78,KHTH 220915Z AUTO 12015G20KT 10SM FEW120 09/00 A2970 RMK A01,M
TMT,2024-01-22 09:15,-117.1971,39.4643,1749.34,30.60,29.00,93.69,0.00,0.00,0.00,29.75,M,10.00,M,BKN,OVC,M,M,7500.00,8500.00,M,M,M,M,M,M,M,M,M,30.60,KTMT 220915Z AUTO 00000KT 10SM BKN075 OVC085 M01/M02 A2975 RMK AO2 T10081017,M
BAM,2024-01-22 09:20,-116.8743,40.5990,1382.36,41.00,33.80,75.33,0.00,0.00,0.00,29.72,M,10.00,M,SCT,BKN,M,M,8000.00,12000.00,M,M,M,M,M,M,M,M,M,41.00,KBAM 220920Z AUTO 00000KT 10SM SCT080 BKN120 05/01 A2972 RMK AO1,M
INS,2024-01-22 09:20,-115.6733,36.5872,955.00,42.80,42.80,100.00,270.00,3.00,0.00,29.86,1009.90,2.50,M,VV ,M,M,M,300.00,M,M,M,BR,M,M,M,M,M,M,41.03,KINS 220920Z AUTO 27003KT 2 1/2SM BR VV003 06/06 A2986 RMK AO2 VIS 1/2V2 1/2 VIS 3/4 RWY26 SLP099,M
INS,2024-01-22 09:25,-115.6733,36.5872,955.00,44.60,42.80,93.35,240.00,4.00,0.00,29.87,1010.20,5.00,M,OVC,M,M,M,300.00,M,M,M,BR,M,M,M,M,M,M,42.13,KINS 220925Z AUTO 24004KT 5SM BR OVC003 07/06 A2987 RMK AO2 VIS 1 1/8 RWY26 SLP102,M
05U,2024-01-22 09:25,-116.0051,39.6042,1811.23,35.60,32.00,86.59,310.00,7.00,0.00,29.80,M,10.00,13.00,M,M,M,M,M,M,M,M,M,M,M,M,M,M,M,29.17,K05U 220925Z AUTO 31007G13KT 10SM 02/M00 A2980 RMK A01,M
CXP,2024-01-22 09:30,-119.7326,39.1923,1431.00,44.60,32.00,61.03,160.00,7.00,0.00,29.69,M,10.00,M,BKN,OVC,M,M,4700.00,5500.00,M,M,M,M,M,M,M,M,M,40.14,KCXP 220930Z AUTO 16007KT 10SM BKN047 OVC055 07/M00 A2969 RMK AO2,M
HTH,2024-01-22 09:30,-118.6315,38.5448,1282.89,48.20,33.80,57.26,120.00,15.00,0.00,29.70,M,10.00,21.00,FEW,M,M,M,11000.00,M,M,M,M,M,M,M,M,M,M,41.78,KHTH 220930Z AUTO 12015G21KT 10SM FEW110 09/01 A2970 RMK A01,M
10U,2024-01-22 09:30,-116.1876,41.9532,1637.00,37.40,32.00,80.65,130.00,12.00,0.00,29.73,M,10.00,M,OVC,M,M,M,5000.00,M,M,M,M,M,M,M,M,M,M,28.87,K10U 220930Z AUTO 13012KT 10SM OVC050 03/M00 A2973 RMK AO2,M
BVU,2024-01-22 09:35,-114.8611,35.9475,671.00,50.00,48.20,93.50,0.00,0.00,0.00,29.89,M,10.00,M,SCT,BKN,OVC,M,1400.00,2100.00,7000.00,M,M,M,M,M,M,M,M,50.00,KBVU 220935Z AUTO 00000KT 10SM SCT014 BKN021 OVC070 10/09 A2989 RMK AO2,M
RTS,2024-01-22 09:35,-119.8764,39.6682,1539.00,41.00,33.80,75.33,0.00,0.00,0.00,29.69,M,10.00,M,OVC,M,M,M,3200.00,M,M,M,-DZ,M,M,M,M,M,M,41.00,KRTS 220935Z AUTO 00000KT 10SM -DZ OVC032 05/01 A2969 RMK AO2,M
MEV,2024-01-22 09:35,-119.7500,38.9963,1441.42,44.60,32.00,61.03,190.00,18.00,0.00,29.66,M,10.00,32.00,SCT,BKN,M,M,4500.00,5500.00,M,M,M,M,M,M,M,M,M,36.34,KMEV 220935Z AUTO 19018G32KT 10SM SCT045 BKN055 07/M00 A2966 RMK AO2,M
BAM,2024-01-22 09:35,-116.8743,40.5990,1382.36,37.40,33.80,86.69,0.00,0.00,0.00,29.72,M,10.00,M,BKN,BKN,M,M,9000.00,12000.00,M,M,M,M,M,M,M,M,M,37.40,KBAM 220935Z AUTO 00000KT 10SM BKN090 BKN120 03/01 A2972 RMK AO1,M
TMT,2024-01-22 09:35,-117.1971,39.4643,1749.34,31.50,29.30,91.45,0.00,0.00,0.00,29.74,M,10.00,M,OVC,M,M,M,7500.00,M,M,M,M,M,M,M,M,M,M,31.50,KTMT 220935Z AUTO 00000KT 10SM OVC075 00/M01 A2974 RMK AO2 T10031015,M
VGT,2024-01-22 09:42,-115.1933,36.2111,667.00,49.00,47.00,92.77,0.00,0.00,0.01,29.88,M,9.00,M,SCT,BKN,OVC,M,2700.00,3600.00,4700.00,M,-RA,M,M,M,M,M,M,49.00,KVGT 220942Z AUTO 00000KT 9SM -RA SCT027 BKN036 OVC047 09/08 A2988 RMK AO2 RAB00 P0001 T00940083,M
LSV,2024-01-22 09:44,-115.0343,36.2362,570.00,51.80,48.20,87.47,60.00,5.00,0.00,29.86,1010.60,10.00,M,FEW,OVC,M,M,3100.00,4100.00,M,M,-DZ,M,M,M,M,M,M,51.80,KLSV 220944Z AUTO 06005KT 10SM -DZ FEW031 OVC041 11/09 A2986 RMK AO2 DZB44 SLP106 $,M
P68,2024-01-22 09:53,-116.0056,39.6014,1993.00,36.00,31.00,81.86,140.00,13.00,0.00,29.77,1005.50,M,M,M,M,M,M,M,M,M,M,M,M,M,M,M,M,M,26.69,KP68 220953Z AUTO 14013KT 02/M01 A2977 RMK AO1 SLP055 T00221006,M
DRA,2024-01-22 09:53,-116.0278,36.6206,1009.00,45.00,42.00,89.15,140.00,7.00,T,29.85,1009.20,10.00,M,OVC,M,M,M,3600.00,M,M,M,M,M,M,M,M,M,M,40.63,KDRA 220953Z AUTO 14007KT 10SM OVC036 07/06 A2985 RMK AO2 RAB0856E11 SLP092 P0000 T00720056 $,M
ELY,2024-01-22 09:53,-114.8453,39.2950,1909.00,33.00,28.00,81.63,220.00,8.00,0.00,29.84,1008.20,10.00,M,BKN,M,M,M,3100.00,M,M,M,M,M,M,M,M,M,M,25.34,KELY 220953Z AUTO 22008KT 10SM BKN031 01/M02 A2984 RMK AO2 SLP082 T00061022,M
VGT,2024-01-22 09:53,-115.1933,36.2111,667.00,50.00,48.00,92.80,0.00,0.00,0.01,29.88,1013.20,10.00,M,BKN,OVC,M,M,3600.00,4800.00,M,M,M,M,M,M,M,M,M,50.00,KVGT 220953Z AUTO 00000KT 10SM BKN036 OVC048 10/09 A2988 RMK AO2 RAB00E49 SLP132 P0001 T01000089,M
LOL,2024-01-22 09:53,-118.5701,40.0684,1192.43,44.00,35.00,70.42,0.00,0.00,T,29.69,1004.60,10.00,M,BKN,OVC,M,M,6000.00,9000.00,M,M,M,M,M,M,M,M,M,44.00,KLOL 220953Z AUTO 00000KT 10SM BKN060 OVC090 07/02 A2969 RMK AO2 RAB27E38 SLP046 P0000 T00670017 $,M
LSV,2024-01-22 09:54,-115.0343,36.2362,570.00,51.80,48.20,87.47,70.00,8.00,0.00,29.86,1010.60,10.00,M,FEW,OVC,M,M,2900.00,4100.00,M,M,M,M,M,M,M,M,M,51.80,KLSV 220954Z AUTO 07008KT 10SM FEW029 OVC041 11/09 A2986 RMK AO2 DZB44E54 SLP106 $,M
BVU,2024-01-22 09:55,-114.8611,35.9475,671.00,50.00,48.20,93.50,90.00,5.00,0.00,29.87,M,10.00,M,BKN,BKN,OVC,M,1300.00,2400.00,7000.00,M,M,M,M,M,M,M,M,50.00,KBVU 220955Z AUTO 09005KT 10SM BKN013 BKN024 OVC070 10/09 A2987 RMK AO2,M
CXP,2024-01-22 09:55,-119.7326,39.1923,1431.00,44.60,30.20,56.74,0.00,0.00,0.00,29.70,M,10.00,M,OVC,M,M,M,5000.00,M,M,M,M,M,M,M,M,M,M,44.60,KCXP 220955Z AUTO 00000KT 10SM OVC050 07/M01 A2970 RMK AO2,M
INS,2024-01-22 09:55,-115.6733,36.5872,955.00,44.20,42.60,94.06,0.00,0.00,0.00,29.87,1010.20,9.00,M,OVC,M,M,M,300.00,M,M,M,M,M,M,M,M,M,M,44.20,KINS 220955Z AUTO 00000KT 9SM OVC003 07/06 A2987 RMK AO2 SLP102 T00680059,M
RNO,2024-01-22 09:55,-119.7711,39.4839,1341.00,45.00,34.00,65.13,290.00,3.00,0.00,29.67,1002.40,10.00,M,SCT,SCT,OVC,M,3400.00,5000.00,8000.00,M,M,M,M,M,M,M,M,43.55,KRNO 220955Z 29003KT 10SM SCT034 SCT050 OVC080 07/01 A2967 RMK AO2 SLP024 T00720011,M
RTS,2024-01-22 09:55,-119.8764,39.6682,1539.00,41.00,32.00,70.08,M,6.00,0.00,29.69,M,10.00,11.00,OVC,M,M,M,3200.00,M,M,M,-DZ,M,M,M,M,M,M,36.37,KRTS 220955Z AUTO VRB06G11KT 10SM -DZ OVC032 05/00 A2969 RMK AO2,M
05U,2024-01-22 09:55,-116.0051,39.6042,1811.23,35.60,32.00,86.59,310.00,10.00,0.00,29.80,M,10.00,M,M,M,M,M,M,M,M,M,M,M,M,M,M,M,M,27.48,K05U 220955Z AUTO 31010KT 10SM 02/M00 A2980 RMK A01,M
MEV,2024-01-22 09:55,-119.7500,38.9963,1441.42,44.60,32.00,61.03,190.00,20.00,0.00,29.67,M,10.00,31.00,FEW,SCT,BKN,M,2300.00,3900.00,5500.00,M,M,M,M,M,M,M,M,35.87,KMEV 220955Z AUTO 19020G31KT 10SM FEW023 SCT039 BKN055 07/M00 A2967 RMK AO2,M
BAM,2024-01-22 09:55,-116.8743,40.5990,1382.36,37.40,33.80,86.69,0.00,0.00,0.00,29.71,M,10.00,M,BKN,OVC,M,M,9000.00,12000.00,M,M,M,M,M,M,M,M,M,37.40,KBAM 220955Z AUTO 00000KT 10SM BKN090 OVC120 03/01 A2971 RMK AO1,M
HTH,2024-01-22 09:55,-118.6315,38.5448,1282.89,48.20,32.00,53.27,120.00,17.00,0.00,29.71,M,10.00,25.00,BKN,BKN,OVC,M,7500.00,9000.00,11000.00,M,M,M,M,M,M,M,M,41.30,KHTH 220955Z AUTO 12017G25KT 10SM BKN075 BKN090 OVC110 09/00 A2971 RMK A01,M
10U,2024-01-22 09:55,-116.1876,41.9532,1637.00,37.40,32.00,80.65,120.00,13.00,0.00,29.73,M,10.00,M,SCT,BKN,OVC,M,3700.00,4500.00,5000.00,M,M,M,M,M,M,M,M,28.49,K10U 220955Z AUTO 12013KT 10SM SCT037 BKN045 OVC050 03/M00 A2973 RMK AO2,M
LSV,2024-01-22 09:55,-115.0343,36.2362,570.00,51.30,47.50,86.79,70.00,7.00,T,29.86,1010.60,10.00,M,FEW,OVC,M,M,2900.00,4100.00,M,M,M,M,M,M,M,M,M,51.30,KLSV 220955Z AUTO 07007KT 10SM FEW029 OVC041 11/09 A2986 RMK AO2 DZB44E54 SLP106 P0000 T01070086 $,M
TMT,2024-01-22 09:55,-117.1971,39.4643,1749.34,31.50,29.70,92.96,80.00,3.00,0.00,29.75,M,10.00,M,BKN,OVC,M,M,6500.00,8500.00,M,M,M,M,M,M,M,M,M,28.12,KTMT 220955Z AUTO 08003KT 10SM BKN065 OVC085 00/M01 A2975 RMK AO2 T10031013,M
EKO,2024-01-22 09:56,-115.7860,40.8242,1367.00,34.00,29.00,81.71,50.00,6.00,0.00,29.76,1007.40,10.00,M,FEW,M,M,M,11000.00,M,M,M,M,M,M,M,M,M,M,27.94,KEKO 220956Z AUTO 05006KT 10SM FEW110 01/M02 A2976 RMK AO2 SLP074 T00111017,M
NFL,2024-01-22 09:56,-118.7010,39.4166,1199.00,48.00,35.00,60.52,170.00,12.00,0.00,29.68,1003.40,10.00,25.00,SCT,OVC,M,M,6000.00,8000.00,M,M,M,M,M,M,M,M,M,42.37,KNFL 220956Z AUTO 17012G25KT 10SM SCT060 OVC080 09/02 A2968 RMK AO2 SLP034 T00890017,M
HND,2024-01-22 09:56,-115.1344,35.9729,742.79,47.00,46.00,96.29,30.00,3.00,T,29.89,1013.60,8.00,M,FEW,OVC,M,M,3800.00,5000.00,M,M,M,M,M,M,M,M,M,45.84,KHND 220956Z AUTO 03003KT 8SM FEW038 OVC050 08/08 A2989 RMK AO2 RAB01E52 SLP136 P0000 T00830078,M
TPH,2024-01-22 09:56,-117.0904,38.0505,1654.00,38.00,35.00,88.83,130.00,8.00,0.00,29.82,1008.50,10.00,M,BKN,OVC,M,M,2000.00,2800.00,M,M,M,M,M,M,M,M,M,31.50,KTPH 220956Z AUTO 13008KT 10SM BKN020 OVC028 03/02 A2982 RMK AO2 SLP085 T00330017,M
LAS,2024-01-22 09:56,-115.1634,36.0719,663.00,50.00,48.00,92.80,60.00,4.00,T,29.88,1011.20,9.00,M,SCT,BKN,OVC,M,700.00,3700.00,5500.00,M,M,M,M,M,M,M,M,50.00,KLAS 220956Z 06004KT 9SM SCT007 BKN037 OVC055 10/09 A2988 RMK AO2 RAB25E44 SLP112 VCSH MTNS OBSCURED DSNT SW-NW-N P0000 T01000089,M
WMC,2024-01-22 09:56,-117.8072,40.9019,1315.00,41.00,37.00,85.54,160.00,6.00,0.02,29.71,1004.50,10.00,M,OVC,M,M,M,5000.00,M,M,M,-RA,M,M,M,M,M,M,36.37,KWMC 220956Z AUTO 16006KT 10SM -RA OVC050 05/03 A2971 RMK AO2 SLP045 P0002 T00500028,M
LAS,2024-01-22 10:08,-115.1634,36.0719,663.00,50.00,48.00,92.80,70.00,5.00,T,29.87,M,9.00,M,BKN,OVC,M,M,700.00,5500.00,M,M,-RA,M,M,M,M,M,M,50.00,KLAS 221008Z 07005KT 9SM -RA BKN007 OVC055 10/09 A2987 RMK AO2 RAB04 MTNS OBSCURED DSNT SW-NW-N P0000 T01000089,M
05U,2024-01-22 10:10,-116.0051,39.6042,1811.23,35.60,32.00,86.59,310.00,7.00,0.00,29.79,M,10.00,M,M,M,M,M,M,M,M,M,M,M,M,M,M,M,M,29.17,K05U 221010Z AUTO 31007KT 10SM 02/M00 A2979 RMK A01,M
10U,2024-01-22 10:10,-116.1876,41.9532,1637.00,37.40,32.00,80.65,120.00,14.00,0.00,29.72,M,10.00,M,FEW,BKN,OVC,M,2700.00,3400.00,4200.00,M,M,M,M,M,M,M,M,28.12,K10U 221010Z AUTO 12014KT 10SM FEW027 BKN034 OVC042 03/M00 A2972 RMK AO2,M
BVU,2024-01-22 10:15,-114.8611,35.9475,671.00,50.00,46.40,87.37,70.00,3.00,0.00,29.88,M,10.00,M,FEW,BKN,OVC,M,1200.00,6000.00,7500.00,M,M,M,M,M,M,M,M,50.00,KBVU 221015Z AUTO 07003KT 10SM FEW012 BKN060 OVC075 10/08 A2988 RMK AO2,M
CXP,2024-01-22 10:15,-119.7326,39.1923,1431.00,44.60,32.00,61.03,150.00,4.00,0.00,29.70,M,10.00,M,OVC,M,M,M,5000.00,M,M,M,M,M,M,M,M,M,M,42.13,KCXP 221015Z AUTO 15004KT 10SM OVC050 07/M00 A2970 RMK AO2,M
RTS,2024-01-22 10:15,-119.8764,39.6682,1539.00,39.20,33.80,80.79,360.00,6.00,0.00,29.69,M,10.00,M,OVC,M,M,M,3300.00,M,M,M,M,M,M,M,M,M,M,34.20,KRTS 221015Z AUTO 36006KT 10SM OVC033 04/01 A2969 RMK AO2,M
MEV,2024-01-22 10:15,-119.7500,38.9963,1441.42,44.60,30.20,56.74,190.00,17.00,0.00,29.67,M,10.00,24.00,FEW,SCT,OVC,M,4500.00,5500.00,6500.00,M,M,M,M,M,M,M,M,36.58,KMEV 221015Z AUTO 19017G24KT 10SM FEW045 SCT055 OVC065 07/M01 A2967 RMK AO2,M
BAM,2024-01-22 10:15,-116.8743,40.5990,1382.36,37.40,33.80,86.69,330.00,4.00,0.00,29.73,M,10.00,M,SCT,OVC,M,M,8000.00,9000.00,M,M,M,M,M,M,M,M,M,33.73,KBAM 221015Z AUTO 33004KT 10SM SCT080 OVC090 03/01 A2973 RMK AO1,M
HTH,2024-01-22 10:15,-118.6315,38.5448,1282.89,48.20,32.00,53.27,110.00,16.00,0.00,29.71,M,10.00,23.00,BKN,OVC,M,M,7000.00,10000.00,M,M,M,M,M,M,M,M,M,41.53,KHTH 221015Z AUTO 11016G23KT 10SM BKN070 OVC100 09/00 A2971 RMK A01,M
TMT,2024-01-22 10:15,-117.1971,39.4643,1749.34,32.00,30.00,92.22,100.00,3.00,0.00,29.75,M,10.00,M,BKN,OVC,M,M,7500.00,9000.00,M,M,M,M,M,M,M,M,M,28.69,KTMT 221015Z AUTO 10003KT 10SM BKN075 OVC090 00/M01 A2975 RMK AO2 T00001012,M
HND,2024-01-22 10:29,-115.1344,35.9729,742.79,46.40,46.40,100.00,0.00,0.00,T,29.90,M,5.00,M,SCT,OVC,M,M,700.00,5000.00,M,M,BR,M,M,M,M,M,M,46.40,KHND 221029Z AUTO 00000KT 5SM BR SCT007 OVC050 08/08 A2990 RMK AO2 RAB01E14 P0000,M
CXP,2024-01-22 10:30,-119.7326,39.1923,1431.00,44.60,32.00,61.03,110.00,5.00,0.00,29.70,M,10.00,M,OVC,M,M,M,5000.00,M,M,M,M,M,M,M,M,M,M,41.36,KCXP 221030Z AUTO 11005KT 10SM OVC050 07/M00 A2970 RMK AO2,M
05U,2024-01-22 10:30,-116.0051,39.6042,1811.23,35.60,32.00,86.59,290.00,4.00,0.00,29.79,M,10.00,M,M,M,M,M,M,M,M,M,M,M,M,M,M,M,M,31.62,K05U 221030Z AUTO 29004KT 10SM 02/M00 A2979 RMK A01,M
HTH,2024-01-22 10:30,-118.6315,38.5448,1282.89,48.20,32.00,53.27,120.00,14.00,0.00,29.71,M,10.00,22.00,SCT,OVC,M,M,7000.00,10000.00,M,M,M,M,M,M,M,M,M,42.04,KHTH 221030Z AUTO 12014G22KT 10SM SCT070 OVC100 09/00 A2971 RMK A01,M
10U,2024-01-22 10:30,-116.1876,41.9532,1637.00,37.40,32.00,80.65,120.00,10.00,0.00,29.72,M,10.00,16.00,SCT,BKN,OVC,M,3200.00,6000.00,6500.00,M,M,M,M,M,M,M,M,29.74,K10U 221030Z AUTO 12010G16KT 10SM SCT032 BKN060 OVC065 03/M00 A2972 RMK AO2,M
VGT,2024-01-22 10:33,-115.1933,36.2111,667.00,50.00,48.00,92.80,80.00,3.00,0.00,29.88,M,10.00,M,BKN,BKN,OVC,M,1900.00,3500.00,4600.00,M,M,M,M,M,M,M,M,50.00,KVGT 221033Z AUTO 08003KT 10SM BKN019 BKN035 OVC046 10/09 A2988 RMK AO2 T01000089,M
LAS,2024-01-22 10:33,-115.1634,36.0719,663.00,50.00,48.00,92.80,70.00,3.00,0.01,29.88,M,9.00,M,SCT,OVC,M,M,700.00,5500.00,M,M,M,M,M,M,M,M,M,50.00,KLAS 221033Z 07003KT 9SM SCT007 OVC055 10/09 A2988 RMK AO2 RAB04E22 VCSH MTNS OBSCURED DSNT SW-NW-N P0001 T01000089,M
BVU,2024-01-22 10:35,-114.8611,35.9475,671.00,50.00,48.20,93.50,120.00,6.00,0.00,29.88,M,10.00,M,BKN,BKN,OVC,M,1300.00,6500.00,8000.00,M,M,M,M,M,M,M,M,50.00,KBVU 221035Z AUTO 12006KT 10SM BKN013 BKN065 OVC080 10/09 A2988 RMK AO2,M
RTS,2024-01-22 10:35,-119.8764,39.6682,1539.00,39.20,33.80,80.79,340.00,6.00,0.00,29.69,M,10.00,M,OVC,M,M,M,3300.00,M,M,M,M,M,M,M,M,M,M,34.20,KRTS 221035Z AUTO 34006KT 10SM OVC033 04/01 A2969 RMK AO2,M
MEV,2024-01-22 10:35,-119.7500,38.9963,1441.42,46.40,30.20,53.00,180.00,15.00,0.00,29.67,M,10.00,25.00,FEW,BKN,OVC,M,3100.00,4300.00,6000.00,M,M,M,M,M,M,M,M,39.45,KMEV 221035Z AUTO 18015G25KT 10SM FEW031 BKN043 OVC060 08/M01 A2967 RMK AO2,M
BAM,2024-01-22 10:35,-116.8743,40.5990,1382.36,42.80,33.80,70.28,330.00,5.00,0.00,29.74,M,10.00,M,SCT,BKN,OVC,M,5000.00,7000.00,9000.00,M,M,M,M,M,M,M,M,39.22,KBAM 221035Z AUTO 33005KT 10SM SCT050 BKN070 OVC090 06/01 A2974 RMK AO1,M
LSV,2024-01-22 10:35,-115.0343,36.2362,570.00,51.80,48.20,87.47,50.00,7.00,0.00,29.86,1010.60,10.00,M,FEW,SCT,BKN,M,3500.00,4700.00,6000.00,M,M,M,M,M,M,M,M,51.80,KLSV 221035Z AUTO 05007KT 10SM FEW035 SCT047 BKN060 11/09 A2986 RMK AO2 SLP106 $,M
TMT,2024-01-22 10:35,-117.1971,39.4643,1749.34,32.00,30.20,92.97,110.00,5.00,0.00,29.74,M,10.00,M,SCT,OVC,M,M,6000.00,7000.00,M,M,M,M,M,M,M,M,M,26.40,KTMT 221035Z AUTO 11005KT 10SM SCT060 OVC070 00/M01 A2974 RMK AO2 T00011010,M
HND,2024-01-22 10:38,-115.1344,35.9729,742.79,46.40,46.40,100.00,240.00,4.00,T,29.90,M,5.00,M,BKN,OVC,M,M,700.00,5000.00,M,M,BR,M,M,M,M,M,M,44.24,KHND 221038Z AUTO 24004KT 5SM BR BKN007 OVC050 08/08 A2990 RMK AO2 RAB01E14 P0000,M
DRA,2024-01-22 10:43,-116.0278,36.6206,1009.00,45.00,42.00,89.15,110.00,7.00,T,29.85,M,10.00,M,BKN,OVC,M,M,2600.00,3200.00,M,M,M,M,M,M,M,M,M,40.63,KDRA 221043Z AUTO 11007KT 10SM BKN026 OVC032 07/06 A2985 RMK AO2 RAB0956E13 P0000 T00720056 $,M
LAS,2024-01-22 10:44,-115.1634,36.0719,663.00,50.00,48.00,92.80,90.00,3.00,0.01,29.88,M,9.00,M,BKN,OVC,M,M,800.00,5000.00,M,M,M,M,M,M,M,M,M,50.00,KLAS 221044Z 09003KT 9SM BKN008 OVC050 10/09 A2988 RMK AO2 RAB04E22 VCSH MTNS OBSCURED DSNT SW-NW-N P0001 T01000089,M
05U,2024-01-22 10:45,-116.0051,39.6042,1811.23,35.60,32.00,86.59,320.00,7.00,0.00,29.80,M,10.00,M,M,M,M,M,M,M,M,M,M,M,M,M,M,M,M,29.17,K05U 221045Z AUTO 32007KT 10SM 02/M00 A2980 RMK A01,M
TPH,2024-01-22 10:49,-117.0904,38.0505,1654.00,37.00,35.00,92.39,140.00,11.00,T,29.82,M,10.00,M,OVC,M,M,M,1400.00,M,M,M,M,M,M,M,M,M,M,28.79,KTPH 221049Z AUTO 14011KT 10SM OVC014 03/02 A2982 RMK AO2 RAB06E46 P0000 T00280017,M
CXP,2024-01-22 10:50,-119.7326,39.1923,1431.00,44.60,32.00,61.03,160.00,6.00,0.00,29.69,M,10.00,M,BKN,OVC,M,M,4900.00,5500.00,M,M,M,M,M,M,M,M,M,40.71,KCXP 221050Z AUTO 16006KT 10SM BKN049 OVC055 07/M00 A2969 RMK AO2,M
HTH,2024-01-22 10:50,-118.6315,38.5448,1282.89,48.20,32.00,53.27,120.00,13.00,0.00,29.71,M,10.00,18.00,BKN,OVC,M,M,7500.00,9500.00,M,M,M,M,M,M,M,M,M,42.32,KHTH 221050Z AUTO 12013G18KT 10SM BKN075 OVC095 09/00 A2971 RMK A01,M
P68,2024-01-22 10:53,-116.0056,39.6014,1993.00,36.00,31.00,81.86,170.00,6.00,0.00,29.77,1005.80,M,M,M,M,M,M,M,M,M,M,M,M,M,M,M,M,M,30.35,KP68 221053Z AUTO 17006KT 02/M01 A2977 RMK AO1 SLP058 T00221006,M
DRA,2024-01-22 10:53,-116.0278,36.6206,1009.00,45.00,42.00,89.15,90.00,8.00,T,29.84,1009.00,10.00,M,OVC,M,M,M,2800.00,M,M,M,M,M,M,M,M,M,M,40.13,KDRA 221053Z AUTO 09008KT 10SM OVC028 07/06 A2984 RMK AO2 RAB0956E13 SLP090 P0000 T00720056 $,M
ELY,2024-01-22 10:53,-114.8453,39.2950,1909.00,32.00,28.00,84.98,200.00,10.00,0.00,29.81,1007.30,10.00,M,FEW,M,M,M,3400.00,M,M,M,M,M,M,M,M,M,M,22.97,KELY 221053Z AUTO 20010KT 10SM FEW034 00/M02 A2981 RMK AO2 SLP073 T00001022,M
VGT,2024-01-22 10:53,-115.1933,36.2111,667.00,50.00,48.00,92.80,70.00,4.00,0.00,29.87,1013.10,10.00,M,SCT,OVC,M,M,1200.00,1900.00,M,M,M,M,M,M,M,M,M,50.00,KVGT 221053Z AUTO 07004KT 10SM SCT012 OVC019 10/09 A2987 RMK AO2 SLP131 T01000089,M
LOL,2024-01-22 10:53,-118.5701,40.0684,1192.43,44.00,36.00,73.27,0.00,0.00,T,29.69,1004.50,10.00,M,BKN,OVC,M,M,4700.00,7000.00,M,M,M,M,M,M,M,M,M,44.00,KLOL 221053Z AUTO 00000KT 10SM BKN047 OVC070 07/02 A2969 RMK AO2 RAB29E53 SLP045 P0000 T00670022 $,M
BVU,2024-01-22 10:55,-114.8611,35.9475,671.00,50.00,46.40,87.37,110.00,6.00,0.00,29.88,M,10.00,M,FEW,OVC,M,M,1300.00,7500.00,M,M,M,M,M,M,M,M,M,50.00,KBVU 221055Z AUTO 11006KT 10SM FEW013 OVC075 10/08 A2988 RMK AO2,M
INS,2024-01-22 10:55,-115.6733,36.5872,955.00,44.00,42.00,92.61,0.00,0.00,0.00,29.86,1009.70,10.00,M,OVC,M,M,M,400.00,M,M,M,M,M,M,M,M,M,M,44.00,KINS 221055Z AUTO 00000KT 10SM OVC004 07/06 A2986 RMK AO2 SLP097 T00670055,M
RNO,2024-01-22 10:55,-119.7711,39.4839,1341.00,44.00,34.00,67.66,300.00,5.00,0.00,29.67,1002.60,10.00,M,BKN,OVC,M,M,4000.00,7000.00,M,M,M,M,M,M,M,M,M,40.65,KRNO 221055Z 30005KT 10SM BKN040 OVC070 07/01 A2967 RMK AO2 SLP026 T00670011,M
RTS,2024-01-22 10:55,-119.8764,39.6682,1539.00,39.20,33.80,80.79,360.00,6.00,0.00,29.69,M,10.00,M,OVC,M,M,M,3300.00,M,M,M,M,M,M,M,M,M,M,34.20,KRTS 221055Z AUTO 36006KT 10SM OVC033 04/01 A2969 RMK AO2,M
MEV,2024-01-22 10:55,-119.7500,38.9963,1441.42,42.80,32.00,65.38,140.00,9.00,0.00,29.67,M,9.00,M,FEW,FEW,SCT,M,3100.00,4300.00,5500.00,M,M,M,M,M,M,M,M,36.94,KMEV 221055Z AUTO 14009KT 9SM FEW031 FEW043 SCT055 06/M00 A2967 RMK AO2,M
BAM,2024-01-22 10:55,-116.8743,40.5990,1382.36,42.80,33.80,70.28,260.00,5.00,0.00,29.75,M,10.00,M,SCT,OVC,M,M,3800.00,4600.00,M,M,M,M,M,M,M,M,M,39.22,KBAM 221055Z AUTO 26005KT 10SM SCT038 OVC046 06/01 A2975 RMK AO1,M
LSV,2024-01-22 10:55,-115.0343,36.2362,570.00,51.30,48.00,88.43,50.00,7.00,0.00,29.85,1010.30,10.00,M,SCT,OVC,M,M,4300.00,6000.00,M,M,M,M,M,M,M,M,M,51.30,KLSV 221055Z AUTO 05007KT 10SM SCT043 OVC060 11/09 A2985 RMK AO2 SLP103 T01070088 $,M
TMT,2024-01-22 10:55,-117.1971,39.4643,1749.34,32.70,30.00,89.66,0.00,0.00,0.00,29.75,M,10.00,M,SCT,BKN,OVC,M,6000.00,7500.00,11000.00,M,M,M,M,M,M,M,M,32.70,KTMT 221055Z AUTO 00000KT 10SM SCT060 BKN075 OVC110 00/M01 A2975 RMK AO2 T00041011,M
10U,2024-01-22 10:55,-116.1876,41.9532,1637.00,37.40,32.00,80.65,120.00,11.00,0.00,29.72,M,10.00,18.00,BKN,BKN,OVC,M,4100.00,6000.00,7000.00,M,M,M,M,M,M,M,M,29.29,K10U 221055Z AUTO 12011G18KT 10SM BKN041 BKN060 OVC070 03/M00 A2972 RMK AO2,M
EKO,2024-01-22 10:56,-115.7860,40.8242,1367.00,34.00,29.00,81.71,20.00,5.00,0.00,29.76,1007.80,10.00,M,SCT,OVC,M,M,7500.00,10000.00,M,M,M,M,M,M,M,M,M,28.77,KEKO 221056Z AUTO 02005KT 10SM SCT075 OVC100 01/M02 A2976 RMK AO2 SLP078 T00111017,M
NFL,2024-01-22 10:56,-118.7010,39.4166,1199.00,47.00,35.00,62.84,160.00,11.00,0.00,29.68,1003.30,10.00,M,FEW,BKN,M,M,6000.00,8500.00,M,M,M,M,M,M,M,M,M,41.42,KNFL 221056Z AUTO 16011KT 10SM FEW060 BKN085 08/02 A2968 RMK AO2 SLP033 T00830017,M
HND,2024-01-22 10:56,-115.1344,35.9729,742.79,47.00,46.00,96.29,0.00,0.00,T,29.90,1013.90,5.00,M,SCT,OVC,M,M,700.00,3900.00,M,M,BR,M,M,M,M,M,M,47.00,KHND 221056Z AUTO 00000KT 5SM BR SCT007 OVC039 08/08 A2990 RMK AO2 RAB01E14 SLP139 P0000 T00830078,M
TPH,2024-01-22 10:56,-117.0904,38.0505,1654.00,37.00,35.00,92.39,130.00,9.00,T,29.81,1008.30,10.00,M,OVC,M,M,M,1400.00,M,M,M,-RA,M,M,M,M,M,M,29.73,KTPH 221056Z AUTO 13009KT 10SM -RA OVC014 03/02 A2981 RMK AO2 RAB06E46B50 SLP083 P0000 T00280017,M
LAS,2024-01-22 10:56,-115.1634,36.0719,663.00,50.00,48.00,92.80,80.00,3.00,0.01,29.88,1011.10,9.00,M,BKN,OVC,M,M,800.00,5000.00,M,M,M,M,M,M,M,M,M,50.00,KLAS 221056Z 08003KT 9SM BKN008 OVC050 10/09 A2988 RMK AO2 RAB04E22 CIG 007V011 SLP111 MTNS OBSCURED DSNT SW-NW-N P0001 T01000089,M
WMC,2024-01-22 10:56,-117.8072,40.9019,1315.00,41.00,38.00,88.97,120.00,3.00,0.01,29.71,1004.40,10.00,M,OVC,M,M,M,4600.00,M,M,M,-RA,M,M,M,M,M,M,38.98,KWMC 221056Z AUTO 12003KT 10SM -RA OVC046 05/03 A2971 RMK AO2 SLP044 P0001 T00500033,M
LSV,2024-01-22 11:02,-115.0343,36.2362,570.00,51.80,48.20,87.47,60.00,7.00,0.00,29.85,1010.30,10.00,M,SCT,OVC,M,M,4300.00,5500.00,M,M,-RA,M,M,M,M,M,M,51.80,KLSV 221102Z AUTO 06007KT 10SM -RA SCT043 OVC055 11/09 A2985 RMK AO2 RAB02 SLP103 $,M
LSV,2024-01-22 11:06,-115.0343,36.2362,570.00,50.00,48.20,93.50,70.00,8.00,0.00,29.85,1010.40,10.00,M,SCT,OVC,M,M,4500.00,5500.00,M,M,M,M,M,M,M,M,M,50.00,KLSV 221106Z AUTO 07008KT 10SM SCT045 OVC055 10/09 A2985 RMK AO2 RAB02E06 SLP104 $,M
INS,2024-01-22 11:10,-115.6733,36.5872,955.00,44.60,41.00,87.09,0.00,0.00,0.00,29.85,1009.30,10.00,M,SCT,OVC,M,M,400.00,6500.00,M,M,M,M,M,M,M,M,M,44.60,KINS 221110Z AUTO 00000KT 10SM SCT004 OVC065 07/05 A2985 RMK AO2 SLP093,M
BVU,2024-01-22 11:15,-114.8611,35.9475,671.00,50.00,46.40,87.37,120.00,6.00,0.00,29.88,M,10.00,M,OVC,M,M,M,7000.00,M,M,M,M,M,M,M,M,M,M,50.00,KBVU 221115Z AUTO 12006KT 10SM OVC070 10/08 A2988 RMK AO2,M
CXP,2024-01-22 11:15,-119.7326,39.1923,1431.00,44.60,30.20,56.74,150.00,5.00,0.00,29.69,M,10.00,M,OVC,M,M,M,5000.00,M,M,M,M,M,M,M,M,M,M,41.36,KCXP 221115Z AUTO 15005KT 10SM OVC050 07/M01 A2969 RMK AO2,M
RTS,2024-01-22 11:15,-119.8764,39.6682,1539.00,39.20,33.80,80.79,0.00,0.00,0.00,29.69,M,10.00,M,OVC,M,M,M,3400.00,M,M,M,M,M,M,M,M,M,M,39.20,KRTS 221115Z AUTO 00000KT 10SM OVC034 04/01 A2969 RMK AO2,M
05U,2024-01-22 11:15,-116.0051,39.6042,1811.23,35.60,32.00,86.59,310.00,9.00,0.00,29.80,M,10.00,M,M,M,M,M,M,M,M,M,M,M,M,M,M,M,M,27.99,K05U 221115Z AUTO 31009KT 10SM 02/M00 A2980 RMK A01,M
MEV,2024-01-22 11:15,-119.7500,38.9963,1441.42,44.60,32.00,61.03,190.00,20.00,0.00,29.67,M,9.00,25.00,FEW,SCT,M,M,5500.00,11000.00,M,M,M,M,M,M,M,M,M,35.87,KMEV 221115Z AUTO 19020G25KT 9SM FEW055 SCT110 07/M00 A2967 RMK AO2,M
BAM,2024-01-22 11:15,-116.8743,40.5990,1382.36,41.00,35.60,80.93,0.00,0.00,0.00,29.74,M,10.00,M,BKN,OVC,M,M,4000.00,4600.00,M,M,M,M,M,M,M,M,M,41.00,KBAM 221115Z AUTO 00000KT 10SM BKN040 OVC046 05/02 A2974 RMK AO1,M
HTH,2024-01-22 11:15,-118.6315,38.5448,1282.89,48.20,32.00,53.27,130.00,14.00,0.00,29.71,M,10.00,20.00,BKN,OVC,M,M,7000.00,9000.00,M,M,M,M,M,M,M,M,M,42.04,KHTH 221115Z AUTO 13014G20KT 10SM BKN070 OVC090 09/00 A2971 RMK A01,M
10U,2024-01-22 11:15,-116.1876,41.9532,1637.00,37.40,32.00,80.65,120.00,12.00,0.00,29.73,M,10.00,M,FEW,BKN,OVC,M,2300.00,3200.00,3900.00,M,M,M,M,M,M,M,M,28.87,K10U 221115Z AUTO 12012KT 10SM FEW023 BKN032 OVC039 03/M00 A2973 RMK AO2,M
TMT,2024-01-22 11:15,-117.1971,39.4643,1749.34,32.00,30.00,92.22,0.00,0.00,0.00,29.75,M,10.00,M,BKN,OVC,M,M,6000.00,7500.00,M,M,M,M,M,M,M,M,M,32.00,KTMT 221115Z AUTO 00000KT 10SM BKN060 OVC075 00/M01 A2975 RMK AO2 T00001011,M
VGT,2024-01-22 11:17,-115.1933,36.2111,667.00,50.00,47.00,89.37,80.00,3.00,0.00,29.87,M,10.00,M,BKN,BKN,OVC,M,1100.00,1700.00,3700.00,M,M,M,M,M,M,M,M,50.00,KVGT 221117Z AUTO 08003KT 10SM BKN011 BKN017 OVC037 10/08 A2987 RMK AO2 T01000083,M
DRA,2024-01-22 11:18,-116.0278,36.6206,1009.00,45.00,43.00,92.65,100.00,8.00,0.00,29.84,M,10.00,M,SCT,BKN,OVC,M,2800.00,3700.00,4400.00,M,M,M,M,M,M,M,M,40.13,KDRA 221118Z AUTO 10008KT 10SM SCT028 BKN037 OVC044 07/06 A2984 RMK AO2 T00720061 $,M
VGT,2024-01-22 11:27,-115.1933,36.2111,667.00,50.00,48.00,92.80,0.00,0.00,0.00,29.87,M,10.00,M,BKN,BKN,M,M,900.00,3800.00,M,M,M,M,M,M,M,M,M,50.00,KVGT 221127Z AUTO 00000KT 10SM BKN009 BKN038 10/09 A2987 RMK AO2 CIG 007V011 T01000089,M
BVU,2024-01-22 11:35,-114.8611,35.9475,671.00,50.00,46.40,87.37,110.00,7.00,0.00,29.87,M,10.00,M,FEW,FEW,OVC,M,3000.00,6000.00,7000.00,M,M,M,M,M,M,M,M,50.00,KBVU 221135Z AUTO 11007KT 10SM FEW030 FEW060 OVC070 10/08 A2987 RMK AO2,M
CXP,2024-01-22 11:35,-119.7326,39.1923,1431.00,44.60,32.00,61.03,170.00,7.00,0.00,29.69,M,10.00,M,FEW,OVC,M,M,4000.00,5000.00,M,M,M,M,M,M,M,M,M,40.14,KCXP 221135Z AUTO 17007KT 10SM FEW040 OVC050 07/M00 A2969 RMK AO2,M
RTS,2024-01-22 11:35,-119.8764,39.6682,1539.00,39.20,33.80,80.79,350.00,4.00,0.00,29.69,M,10.00,M,BKN,BKN,OVC,M,3300.00,3900.00,5000.00,M,-DZ,M,M,M,M,M,M,35.83,KRTS 221135Z AUTO 35004KT 10SM -DZ BKN033 BKN039 OVC050 04/01 A2969 RMK AO2,M
05U,2024-01-22 11:35,-116.0051,39.6042,1811.23,37.40,32.00,80.65,310.00,8.00,0.00,29.80,M,10.00,M,M,M,M,M,M,M,M,M,M,M,M,M,M,M,M,30.76,K05U 221135Z AUTO 31008KT 10SM 03/M00 A2980 RMK A01,M
MEV,2024-01-22 11:35,-119.7500,38.9963,1441.42,42.80,32.00,65.38,130.00,7.00,0.00,29.66,M,10.00,13.00,FEW,M,M,M,11000.00,M,M,M,M,M,M,M,M,M,M,37.94,KMEV 221135Z AUTO 13007G13KT 100V180 10SM FEW110 06/00 A2966 RMK AO2,M
BAM,2024-01-22 11:35,-116.8743,40.5990,1382.36,37.40,35.60,93.14,120.00,3.00,0.00,29.75,M,10.00,M,BKN,BKN,OVC,M,3900.00,4500.00,7000.00,M,M,M,M,M,M,M,M,34.86,KBAM 221135Z AUTO 12003KT 10SM BKN039 BKN045 OVC070 03/02 A2975 RMK AO1,M
HTH,2024-01-22 11:35,-118.6315,38.5448,1282.89,48.20,32.00,53.27,120.00,12.00,0.00,29.71,M,10.00,18.00,BKN,OVC,M,M,6500.00,7500.00,M,M,M,M,M,M,M,M,M,42.62,KHTH 221135Z AUTO 12012G18KT 10SM BKN065 OVC075 09/00 A2971 RMK A01,M
10U,2024-01-22 11:35,-116.1876,41.9532,1637.00,37.40,32.00,80.65,130.00,5.00,0.00,29.73,M,10.00,M,SCT,OVC,M,M,2500.00,3100.00,M,M,M,M,M,M,M,M,M,32.81,K10U 221135Z AUTO 13005KT 10SM SCT025 OVC031 03/M00 A2973 RMK AO2,M
TMT,2024-01-22 11:35,-117.1971,39.4643,1749.34,32.00,30.20,92.97,250.00,4.00,0.00,29.77,M,10.00,M,SCT,OVC,M,M,4700.00,6000.00,M,M,M,M,M,M,M,M,M,27.42,KTMT 221135Z AUTO 25004KT 10SM SCT047 OVC060 00/M01 A2977 RMK AO2 T00001010,M
LSV,2024-01-22 11:36,-115.0343,36.2362,570.00,50.00,48.20,93.50,60.00,6.00,0.00,29.85,1010.40,10.00,M,BKN,OVC,M,M,2700.00,5500.00,M,M,M,M,M,M,M,M,M,50.00,KLSV 221136Z AUTO 06006KT 10SM BKN027 OVC055 10/09 A2985 RMK AO2 RAB02E06 CIG 027V055 SLP104 $,M
LAS,2024-01-22 11:38,-115.1634,36.0719,663.00,50.00,47.00,89.37,0.00,0.00,0.00,29.87,M,10.00,M,SCT,SCT,BKN,M,900.00,5000.00,7500.00,M,M,M,M,M,M,M,M,50.00,KLAS 221138Z 00000KT 10SM SCT009 SCT050 BKN075 10/08 A2987 RMK AO2 MTNS OBSCURED DSNT SW-NW T01000083,M
INS,2024-01-22 11:50,-115.6733,36.5872,955.00,42.80,41.00,93.30,0.00,0.00,0.00,29.85,1009.50,7.00,M,FEW,BKN,BKN,BKN,400.00,1400.00,2100.00,6000.00,M,M,M,M,M,M,M,42.80,KINS 221150Z AUTO 00000KT 7SM FEW004 BKN014 BKN021 BKN060 06/05 A2985 RMK AO2 BKN014 V SCT SLP095,M
P68,2024-01-22 11:53,-116.0056,39.6014,1993.00,37.00,31.00,78.69,0.00,0.00,0.00,29.78,1006.10,M,M,M,M,M,M,M,M,M,M,M,M,M,M,M,M,M,37.00,KP68 221153Z AUTO 00000KT 03/M01 A2978 RMK AO1 SLP061 T00281006 10033 20011 55000,M
DRA,2024-01-22 11:53,-116.0278,36.6206,1009.00,45.00,42.00,89.15,130.00,7.00,0.00,29.83,1008.50,10.00,M,FEW,OVC,M,M,1100.00,4100.00,M,M,M,M,M,M,M,M,M,40.63,KDRA 221153Z AUTO 13007KT 10SM FEW011 OVC041 07/06 A2983 RMK AO2 SLP085 60000 70015 T00720056 10078 20061 58005 $,M
ELY,2024-01-22 11:53,-114.8453,39.2950,1909.00,33.00,29.00,85.04,210.00,12.00,0.00,29.83,1008.50,10.00,M,FEW,OVC,M,M,2700.00,3500.00,M,M,M,M,M,M,M,M,M,23.27,KELY 221153Z AUTO 21012KT 10SM FEW027 OVC035 01/M02 A2983 RMK AO2 SLP085 70004 T00061017 10006 21028 55001,M
VGT,2024-01-22 11:53,-115.1933,36.2111,667.00,50.00,47.00,89.37,0.00,0.00,0.00,29.87,1012.80,10.00,M,BKN,OVC,M,M,700.00,1400.00,M,M,M,M,M,M,M,M,M,50.00,KVGT 221153Z AUTO 00000KT 10SM BKN007 OVC014 10/08 A2987 RMK AO2 SLP128 60001 70008 T01000083 10106 20094 58005,M
LOL,2024-01-22 11:53,-118.5701,40.0684,1192.43,42.00,37.00,82.30,50.00,5.00,T,29.69,1004.50,10.00,M,BKN,OVC,M,M,5000.00,6000.00,M,M,M,M,M,M,M,M,M,38.27,KLOL 221153Z AUTO 05005KT 10SM BKN050 OVC060 06/03 A2969 RMK AO2 RAB11E37 SLP045 P0000 60000 T00560028 10072 20050 50005 $,M
BVU,2024-01-22 11:55,-114.8611,35.9475,671.00,50.00,46.40,87.37,90.00,5.00,0.00,29.86,M,10.00,M,SCT,OVC,M,M,2800.00,7500.00,M,M,M,M,M,M,M,M,M,50.00,KBVU 221155Z AUTO 09005KT 10SM SCT028 OVC075 10/08 A2986 RMK AO2,M
CXP,2024-01-22 11:55,-119.7326,39.1923,1431.00,44.60,32.00,61.03,200.00,5.00,0.00,29.68,M,10.00,M,OVC,M,M,M,5000.00,M,M,M,M,M,M,M,M,M,M,41.36,KCXP 221155Z AUTO 20005KT 10SM OVC050 07/M00 A2968 RMK AO2,M
INS,2024-01-22 11:55,-115.6733,36.5872,955.00,43.00,41.00,92.58,0.00,0.00,0.00,29.84,1009.20,7.00,M,SCT,BKN,BKN,M,1400.00,2200.00,6000.00,M,M,M,M,M,M,M,M,43.00,KINS 221155Z AUTO 00000KT 7SM SCT014 BKN022 BKN060 06/05 A2984 RMK AO2 SLP092 70007 T00610051 10071 20061 58006,M
RNO,2024-01-22 11:55,-119.7711,39.4839,1341.00,44.00,34.00,67.66,350.00,4.00,0.00,29.67,1002.50,10.00,M,BKN,OVC,M,M,4000.00,6000.00,M,M,M,M,M,M,M,M,M,41.43,KRNO 221155Z 35004KT 10SM BKN040 OVC060 07/01 A2967 RMK AO2 SLP025 T00670011 10100 20067 58001,M
RTS,2024-01-22 11:55,-119.8764,39.6682,1539.00,39.20,35.60,86.79,0.00,0.00,0.00,29.69,M,9.00,M,M,M,M,M,M,M,M,M,-RA,M,M,M,M,M,M,39.20,KRTS 221155Z AUTO 00000KT 9SM -RA 04/02 A2969 RMK AO2,M
05U,2024-01-22 11:55,-116.0051,39.6042,1811.23,37.40,32.00,80.65,0.00,0.00,0.00,29.80,M,10.00,M,M,M,M,M,M,M,M,M,M,M,M,M,M,M,M,37.40,K05U 221155Z AUTO 00000KT 10SM 03/M00 A2980 RMK A01,M
MEV,2024-01-22 11:55,-119.7500,38.9963,1441.42,42.80,32.00,65.38,110.00,12.00,0.00,29.66,M,10.00,M,FEW,M,M,M,9000.00,M,M,M,M,M,M,M,M,M,M,35.75,KMEV 221155Z AUTO 11012KT 10SM FEW090 06/M00 A2966 RMK AO2,M
BAM,2024-01-22 11:55,-116.8743,40.5990,1382.36,37.40,35.60,93.14,100.00,4.00,0.00,29.75,M,10.00,M,OVC,M,M,M,4000.00,M,M,M,M,M,M,M,M,M,M,33.73,KBAM 221155Z AUTO 10004KT 10SM OVC040 03/02 A2975 RMK AO1,M
HTH,2024-01-22 11:55,-118.6315,38.5448,1282.89,48.20,32.00,53.27,110.00,11.00,0.00,29.71,M,10.00,18.00,FEW,OVC,M,M,6500.00,7500.00,M,M,M,M,M,M,M,M,M,42.94,KHTH 221155Z AUTO 11011G18KT 10SM FEW065 OVC075 09/00 A2971 RMK A01,M
LSV,2024-01-22 11:55,-115.0343,36.2362,570.00,50.70,48.20,91.10,60.00,5.00,T,29.84,1010.10,10.00,M,BKN,BKN,M,M,2600.00,7000.00,M,M,M,M,M,M,M,M,M,50.70,KLSV 221155Z AUTO 06005KT 10SM BKN026 BKN070 10/09 A2984 RMK AO2 RAB02E06 SLP101 P0000 60000 70012 T01040090 10109 20104 57006 $,M
TMT,2024-01-22 11:55,-117.1971,39.4643,1749.34,32.00,30.60,94.50,190.00,4.00,0.00,29.78,M,10.00,M,BKN,BKN,OVC,M,3200.00,4000.00,4800.00,M,-RA,M,M,M,M,M,M,27.42,KTMT 221155Z AUTO 19004KT 10SM -RA BKN032 BKN040 OVC048 00/M01 A2978 RMK AO2 T00001008 10011 21013,M
10U,2024-01-22 11:55,-116.1876,41.9532,1637.00,35.60,32.00,86.59,160.00,4.00,0.00,29.74,M,10.00,M,SCT,OVC,M,M,2600.00,3000.00,M,M,UP,M,M,M,M,M,M,31.62,K10U 221155Z AUTO 16004KT 10SM UP SCT026 OVC030 02/M00 A2974 RMK AO2,M
EKO,2024-01-22 11:56,-115.7860,40.8242,1367.00,31.00,28.00,88.48,90.00,5.00,0.00,29.77,1008.30,10.00,M,OVC,M,M,M,7500.00,M,M,M,M,M,M,M,M,M,M,25.21,KEKO 221156Z AUTO 09005KT 10SM OVC075 M01/M02 A2977 RMK AO2 SLP083 T10061022 10017 21011 55003,M
NFL,2024-01-22 11:56,-118.7010,39.4166,1199.00,47.00,34.00,60.38,150.00,11.00,0.00,29.68,1003.20,10.00,M,BKN,M,M,M,8000.00,M,M,M,M,M,M,M,M,M,M,41.42,KNFL 221156Z AUTO 15011KT 10SM BKN080 08/01 A2968 RMK AO2 SLP032 T00830011 10100 20083 50004,M
HND,2024-01-22 11:56,-115.1344,35.9729,742.79,47.00,45.00,92.71,0.00,0.00,0.00,29.88,1013.40,4.00,M,FEW,SCT,BKN,M,600.00,4900.00,7500.00,M,BR,M,M,M,M,M,M,47.00,KHND 221156Z AUTO 00000KT 4SM BR FEW006 SCT049 BKN075 08/07 A2988 RMK AO2 SLP134 60000 70009 T00830072 10089 20083 58006,M
TPH,2024-01-22 11:56,-117.0904,38.0505,1654.00,37.00,35.00,92.39,110.00,8.00,T,29.79,1007.50,10.00,M,OVC,M,M,M,1200.00,M,M,M,M,M,M,M,M,M,M,30.27,KTPH 221156Z AUTO 11008KT 10SM OVC012 03/02 A2979 RMK AO2 RAE1059 SLP075 P0000 60000 70002 T00280017 10033 20022 58008,M
LAS,2024-01-22 11:56,-115.1634,36.0719,663.00,50.00,47.00,89.37,0.00,0.00,0.00,29.86,1010.70,10.00,M,FEW,SCT,OVC,M,1800.00,5500.00,8000.00,M,M,M,M,M,M,M,M,50.00,KLAS 221156Z 00000KT 10SM FEW018 SCT055 OVC080 10/08 A2986 RMK AO2 SLP107 FOG BANK OBSCURES MTNS DSNT SW-NW 60001 70008 T01000083 10106 20100 58005,M
WMC,2024-01-22 11:56,-117.8072,40.9019,1315.00,40.00,37.00,88.92,90.00,3.00,T,29.70,1004.40,10.00,M,FEW,BKN,OVC,M,5000.00,7500.00,9000.00,M,M,M,M,M,M,M,M,37.83,KWMC 221156Z AUTO 09003KT 10SM FEW050 BKN075 OVC090 04/03 A2970 RMK AO2 RAE04 SLP044 P0000 60005 70006 T00440028 10072 20044 58001,M
INS,2024-01-22 12:00,-115.6733,36.5872,955.00,42.80,41.00,93.30,0.00,0.00,0.00,29.84,1009.20,8.00,M,FEW,SCT,BKN,M,1300.00,2200.00,6000.00,M,M,M,M,M,M,M,M,42.80,KINS 221200Z AUTO 00000KT 8SM FEW013 SCT022 BKN060 06/05 A2984 RMK AO2 SLP092,M
VGT,2024-01-22 12:02,-115.1933,36.2111,667.00,50.00,47.00,89.37,80.00,4.00,0.00,29.86,M,10.00,M,SCT,OVC,M,M,700.00,1400.00,M,M,M,M,M,M,M,M,M,50.00,KVGT 221202Z AUTO 08004KT 10SM SCT007 OVC014 10/08 A2986 RMK AO2 T01000083,M
05U,2024-01-22 12:10,-116.0051,39.6042,1811.23,37.40,30.20,74.98,310.00,4.00,0.00,29.80,M,10.00,M,M,M,M,M,M,M,M,M,M,M,M,M,M,M,M,33.73,K05U 221210Z AUTO 31004KT 10SM 03/M01 A2980 RMK A01,M
VGT,2024-01-22 12:12,-115.1933,36.2111,667.00,49.00,47.00,92.77,0.00,0.00,0.00,29.86,M,10.00,M,FEW,BKN,OVC,M,700.00,1500.00,8000.00,M,M,M,M,M,M,M,M,49.00,KVGT 221212Z AUTO 00000KT 10SM FEW007 BKN015 OVC080 09/08 A2986 RMK AO2 T00940083,M
BVU,2024-01-22 12:15,-114.8611,35.9475,671.00,50.00,46.40,87.37,110.00,6.00,0.00,29.86,M,10.00,M,FEW,OVC,M,M,3000.00,7500.00,M,M,M,M,M,M,M,M,M,50.00,KBVU 221215Z AUTO 11006KT 10SM FEW030 OVC075 10/08 A2986 RMK AO2,M
CXP,2024-01-22 12:15,-119.7326,39.1923,1431.00,44.60,32.00,61.03,220.00,9.00,0.00,29.68,M,10.00,M,BKN,BKN,BKN,M,5000.00,6000.00,7000.00,M,M,M,M,M,M,M,M,39.18,KCXP 221215Z AUTO 22009KT 10SM BKN050 BKN060 BKN070 07/M00 A2968 RMK AO2,M
INS,2024-01-22 12:15,-115.6733,36.5872,955.00,42.80,41.00,93.30,0.00,0.00,0.00,29.83,1008.90,10.00,M,SCT,BKN,BKN,BKN,1200.00,2300.00,6000.00,17000.00,M,M,M,M,M,M,M,42.80,KINS 221215Z AUTO 00000KT 10SM SCT012 BKN023 BKN060 BKN170 06/05 A2983 RMK AO2 BKN023 V SCT SLP089,M
RTS,2024-01-22 12:15,-119.8764,39.6682,1539.00,39.20,35.60,86.79,30.00,4.00,0.00,29.69,M,10.00,M,FEW,BKN,OVC,M,2000.00,4100.00,6500.00,M,M,M,M,M,M,M,M,35.83,KRTS 221215Z AUTO 03004KT 10SM FEW020 BKN041 OVC065 04/02 A2969 RMK AO2,M
MEV,2024-01-22 12:15,-119.7500,38.9963,1441.42,42.80,32.00,65.38,140.00,12.00,0.00,29.66,M,10.00,20.00,BKN,BKN,BKN,M,5500.00,6500.00,9000.00,M,M,M,M,M,M,M,M,35.75,KMEV 221215Z AUTO 14012G20KT 10SM BKN055 BKN065 BKN090 06/00 A2966 RMK AO2,M
BAM,2024-01-22 12:15,-116.8743,40.5990,1382.36,39.20,35.60,86.79,80.00,7.00,0.00,29.75,M,10.00,M,SCT,BKN,OVC,M,3800.00,4700.00,6000.00,M,M,M,M,M,M,M,M,33.56,KBAM 221215Z AUTO 08007KT 10SM SCT038 BKN047 OVC060 04/02 A2975 RMK AO1,M
HTH,2024-01-22 12:15,-118.6315,38.5448,1282.89,46.40,33.80,61.28,90.00,13.00,0.00,29.71,M,10.00,19.00,BKN,OVC,M,M,6000.00,7500.00,M,M,M,M,M,M,M,M,M,40.02,KHTH 221215Z AUTO 09013G19KT 10SM BKN060 OVC075 08/01 A2971 RMK A01,M
10U,2024-01-22 12:15,-116.1876,41.9532,1637.00,37.40,33.80,86.69,190.00,9.00,0.00,29.74,M,9.00,M,SCT,SCT,BKN,M,1300.00,2400.00,2900.00,M,-RA,M,M,M,M,M,M,30.23,K10U 221215Z AUTO 19009KT 9SM -RA SCT013 SCT024 BKN029 03/01 A2974 RMK AO2,M
LSV,2024-01-22 12:15,-115.0343,36.2362,570.00,51.80,48.20,87.47,80.00,6.00,0.00,29.84,1009.90,10.00,M,SCT,BKN,BKN,M,2600.00,5000.00,7500.00,M,M,M,M,M,M,M,M,51.80,KLSV 221215Z AUTO 08006KT 10SM SCT026 BKN050 BKN075 11/09 A2984 RMK AO2 SLP099 $,M
TMT,2024-01-22 12:15,-117.1971,39.4643,1749.34,34.00,32.00,92.29,190.00,6.00,0.00,29.77,M,10.00,M,OVC,M,M,M,2800.00,M,M,M,-RA,M,M,M,M,M,M,27.94,KTMT 221215Z AUTO 19006KT 10SM -RA OVC028 01/00 A2977 RMK AO2 T00120000,M
INS,2024-01-22 12:20,-115.6733,36.5872,955.00,42.80,41.00,93.30,0.00,0.00,0.00,29.83,1008.90,10.00,M,FEW,SCT,BKN,M,1200.00,2300.00,6000.00,M,M,M,M,M,M,M,M,42.80,KINS 221220Z AUTO 00000KT 10SM FEW012 SCT023 BKN060 06/05 A2983 RMK AO2 SLP089,M
VGT,2024-01-22 12:24,-115.1933,36.2111,667.00,50.00,47.00,89.37,80.00,4.00,0.00,29.86,M,10.00,M,BKN,BKN,OVC,M,1300.00,1800.00,4800.00,M,M,M,M,M,M,M,M,50.00,KVGT 221224Z AUTO 08004KT 10SM BKN013 BKN018 OVC048 10/08 A2986 RMK AO2 T01000083,M
HND,2024-01-22 12:25,-115.1344,35.9729,742.79,46.40,44.60,93.40,0.00,0.00,0.00,29.88,M,4.00,M,BKN,OVC,M,M,600.00,4900.00,M,M,BR,M,M,M,M,M,M,46.40,KHND 221225Z AUTO 00000KT 4SM BR BKN006 OVC049 08/07 A2988 RMK AO2,M
INS,2024-01-22 12:30,-115.6733,36.5872,955.00,42.80,41.00,93.30,240.00,3.00,0.00,29.84,1009.20,10.00,M,SCT,BKN,M,M,1200.00,2300.00,M,M,M,M,M,M,M,M,M,41.03,KINS 221230Z AUTO 24003KT 10SM SCT012 BKN023 06/05 A2984 RMK AO2 BKN V SCT SLP092,M
05U,2024-01-22 12:30,-116.0051,39.6042,1811.23,37.40,32.00,80.65,340.00,8.00,0.00,29.80,M,10.00,M,M,M,M,M,M,M,M,M,M,M,M,M,M,M,M,30.76,K05U 221230Z AUTO 34008KT 10SM 03/M00 A2980 RMK A01,M
BVU,2024-01-22 12:35,-114.8611,35.9475,671.00,50.00,48.20,93.50,130.00,6.00,0.00,29.86,M,10.00,M,BKN,OVC,M,M,2900.00,7500.00,M,M,M,M,M,M,M,M,M,50.00,KBVU 221235Z AUTO 13006KT 10SM BKN029 OVC075 10/09 A2986 RMK AO2,M
CXP,2024-01-22 12:35,-119.7326,39.1923,1431.00,44.60,32.00,61.03,0.00,0.00,0.00,29.69,M,10.00,11.00,FEW,SCT,SCT,M,5000.00,5500.00,7000.00,M,M,M,M,M,M,M,M,44.60,KCXP 221235Z AUTO 00000G11KT 10SM FEW050 SCT055 SCT070 07/M00 A2969 RMK AO2,M
INS,2024-01-22 12:35,-115.6733,36.5872,955.00,42.80,41.00,93.30,260.00,3.00,0.00,29.83,1008.90,10.00,M,BKN,M,M,M,1100.00,M,M,M,M,M,M,M,M,M,M,41.03,KINS 221235Z AUTO 26003KT 10SM BKN011 06/05 A2983 RMK AO2 SLP089,M
RTS,2024-01-22 12:35,-119.8764,39.6682,1539.00,39.20,35.60,86.79,340.00,3.00,0.00,29.69,M,10.00,M,BKN,BKN,OVC,M,3700.00,4200.00,5000.00,M,M,M,M,M,M,M,M,36.92,KRTS 221235Z AUTO 34003KT 10SM BKN037 BKN042 OVC050 04/02 A2969 RMK AO2,M
MEV,2024-01-22 12:35,-119.7500,38.9963,1441.42,44.60,32.00,61.03,150.00,14.00,0.00,29.66,M,10.00,23.00,OVC,M,M,M,5500.00,M,M,M,M,M,M,M,M,M,M,37.40,KMEV 221235Z AUTO 15014G23KT 10SM OVC055 07/00 A2966 RMK AO2,M
BAM,2024-01-22 12:35,-116.8743,40.5990,1382.36,39.20,35.60,86.79,80.00,4.00,0.00,29.74,M,10.00,M,SCT,BKN,OVC,M,4900.00,6000.00,7500.00,M,M,M,M,M,M,M,M,35.83,KBAM 221235Z AUTO 08004KT 10SM SCT049 BKN060 OVC075 04/02 A2974 RMK AO1,M
HTH,2024-01-22 12:35,-118.6315,38.5448,1282.89,46.40,33.80,61.28,110.00,11.00,0.00,29.72,M,10.00,16.00,FEW,SCT,OVC,M,4200.00,4800.00,6000.00,M,M,M,M,M,M,M,M,40.66,KHTH 221235Z AUTO 11011G16KT 10SM FEW042 SCT048 OVC060 08/01 A2972 RMK A01,M
10U,2024-01-22 12:35,-116.1876,41.9532,1637.00,35.60,33.80,93.08,180.00,7.00,0.00,29.74,M,7.00,M,BKN,BKN,M,M,1300.00,2600.00,M,M,UP,M,M,M,M,M,M,29.17,K10U 221235Z AUTO 18007KT 7SM UP BKN013 BKN026 02/01 A2974 RMK AO2,M
TMT,2024-01-22 12:35,-117.1971,39.4643,1749.34,33.80,32.00,93.03,130.00,3.00,0.00,29.77,M,10.00,M,OVC,M,M,M,3000.00,M,M,M,-RA,M,M,M,M,M,M,30.75,KTMT 221235Z AUTO 13003KT 10SM -RA OVC030 01/00 A2977 RMK AO2 T00100001,M
LAS,2024-01-22 12:40,-115.1634,36.0719,663.00,50.00,47.00,89.37,80.00,3.00,0.00,29.85,M,10.00,M,FEW,SCT,BKN,M,800.00,4600.00,5500.00,M,M,M,M,M,M,M,M,50.00,KLAS 221240Z 08003KT 10SM FEW008 SCT046 BKN055 10/08 A2985 RMK AO2 FOG BANK OBSCURES MTNS DSNT SW-NW T01000083,M
INS,2024-01-22 12:45,-115.6733,36.5872,955.00,44.60,41.00,87.09,270.00,6.00,0.00,29.83,1008.90,10.00,M,SCT,BKN,M,M,1000.00,1600.00,M,M,M,M,M,M,M,M,M,40.71,KINS 221245Z AUTO 27006KT 10SM SCT010 BKN016 07/05 A2983 RMK AO2 SLP089,M
INS,2024-01-22 12:50,-115.6733,36.5872,955.00,44.60,41.00,87.09,260.00,6.00,0.00,29.83,1008.60,10.00,M,BKN,OVC,M,M,1400.00,2100.00,M,M,M,M,M,M,M,M,M,40.71,KINS 221250Z AUTO 26006KT 10SM BKN014 OVC021 07/05 A2983 RMK AO2 SLP086,M
P68,2024-01-22 12:53,-116.0056,39.6014,1993.00,37.00,30.00,75.56,160.00,10.00,0.00,29.78,1006.50,M,16.00,M,M,M,M,M,M,M,M,M,M,M,M,M,M,M,29.24,KP68 221253Z AUTO 16010G16KT 03/M01 A2978 RMK AO1 SLP065 T00281011,M
DRA,2024-01-22 12:53,-116.0278,36.6206,1009.00,45.00,42.00,89.15,130.00,6.00,0.00,29.82,1008.40,10.00,M,OVC,M,M,M,3200.00,M,M,M,M,M,M,M,M,M,M,41.19,KDRA 221253Z AUTO 13006KT 10SM OVC032 07/06 A2982 RMK AO2 SLP084 T00720056 $,M
ELY,2024-01-22 12:53,-114.8453,39.2950,1909.00,32.00,27.00,81.55,180.00,10.00,0.00,29.82,1008.90,10.00,15.00,BKN,M,M,M,3300.00,M,M,M,M,M,M,M,M,M,M,22.97,KELY 221253Z AUTO 18010G15KT 10SM BKN033 00/M03 A2982 RMK AO2 SLP089 T00001028,M
VGT,2024-01-22 12:53,-115.1933,36.2111,667.00,50.00,48.00,92.80,70.00,6.00,0.00,29.85,1012.40,10.00,M,SCT,OVC,M,M,1200.00,2100.00,M,M,M,M,M,M,M,M,M,50.00,KVGT 221253Z AUTO 07006KT 10SM SCT012 OVC021 10/09 A2985 RMK AO2 SLP124 T01000089,M
LOL,2024-01-22 12:53,-118.5701,40.0684,1192.43,42.00,37.00,82.30,30.00,4.00,0.00,29.69,1004.90,10.00,M,OVC,M,M,M,6500.00,M,M,M,M,M,M,M,M,M,M,39.10,KLOL 221253Z AUTO 03004KT 10SM OVC065 06/03 A2969 RMK AO2 SLP049 T00560028 $,M
EKO,2024-01-22 12:54,-115.7860,40.8242,1367.00,33.80,30.20,86.49,50.00,2.92,M,29.78,M,10.00,M,OVC,M,M,M,2700.00,M,M,M,-RA,M,M,M,M,M,M,30.86,SPECI KEKO 221254Z 05003KT 10SM -RA OVC027 01/M01 A2978 RMK AO2 UPB49E51RAB51 P0000 FIBI,M
BVU,2024-01-22 12:55,-114.8611,35.9475,671.00,50.00,48.20,93.50,90.00,5.00,0.00,29.86,M,10.00,M,FEW,BKN,OVC,M,1100.00,3000.00,3400.00,M,M,M,M,M,M,M,M,50.00,KBVU 221255Z AUTO 09005KT 10SM FEW011 BKN030 OVC034 10/09 A2986 RMK AO2,M
CXP,2024-01-22 12:55,-119.7326,39.1923,1431.00,44.60,32.00,61.03,190.00,7.00,0.00,29.69,M,10.00,M,BKN,OVC,M,M,5000.00,7000.00,M,M,M,M,M,M,M,M,M,40.14,KCXP 221255Z AUTO 19007KT 10SM BKN050 OVC070 07/M00 A2969 RMK AO2,M
INS,2024-01-22 12:55,-115.6733,36.5872,955.00,43.00,40.30,90.10,240.00,5.00,0.00,29.83,1008.90,10.00,M,SCT,BKN,M,M,1400.00,2000.00,M,M,M,M,M,M,M,M,M,39.46,KINS 221255Z AUTO 24005KT 10SM SCT014 BKN020 06/05 A2983 RMK AO2 SLP089 T00610046,M
RNO,2024-01-22 12:55,-119.7711,39.4839,1341.00,44.00,34.00,67.66,330.00,7.00,0.00,29.67,1002.80,10.00,M,BKN,BKN,OVC,M,4000.00,6000.00,9500.00,M,M,M,M,M,M,M,M,39.41,KRNO 221255Z 33007KT 10SM BKN040 BKN060 OVC095 07/01 A2967 RMK AO2 SLP028 T00670011,M
RTS,2024-01-22 12:55,-119.8764,39.6682,1539.00,39.20,35.60,86.79,0.00,0.00,0.00,29.69,M,10.00,M,SCT,BKN,OVC,M,2300.00,3000.00,3700.00,M,-RA,M,M,M,M,M,M,39.20,KRTS 221255Z AUTO 00000KT 10SM -RA SCT023 BKN030 OVC037 04/02 A2969 RMK AO2,M
05U,2024-01-22 12:55,-116.0051,39.6042,1811.23,37.40,30.20,74.98,340.00,8.00,0.00,29.81,M,10.00,M,M,M,M,M,M,M,M,M,M,M,M,M,M,M,M,30.76,K05U 221255Z AUTO 34008KT 10SM 03/M01 A2981 RMK A01,M
MEV,2024-01-22 12:55,-119.7500,38.9963,1441.42,44.60,32.00,61.03,170.00,13.00,0.00,29.66,M,10.00,19.00,BKN,BKN,M,M,5500.00,7500.00,M,M,M,M,M,M,M,M,M,37.71,KMEV 221255Z AUTO 17013G19KT 10SM BKN055 BKN075 07/M00 A2966 RMK AO2,M
BAM,2024-01-22 12:55,-116.8743,40.5990,1382.36,39.20,35.60,86.79,50.00,3.00,0.00,29.75,M,10.00,M,SCT,BKN,OVC,M,3500.00,4900.00,7000.00,M,M,M,M,M,M,M,M,36.92,KBAM 221255Z AUTO 05003KT 10SM SCT035 BKN049 OVC070 04/02 A2975 RMK AO1,M
HTH,2024-01-22 12:55,-118.6315,38.5448,1282.89,46.40,33.80,61.28,110.00,12.00,0.00,29.71,M,10.00,M,SCT,BKN,OVC,M,4500.00,5000.00,7000.00,M,M,M,M,M,M,M,M,40.33,KHTH 221255Z AUTO 11012KT 10SM SCT045 BKN050 OVC070 08/01 A2971 RMK A01,M
10U,2024-01-22 12:55,-116.1876,41.9532,1637.00,35.60,33.80,93.08,180.00,8.00,0.00,29.74,M,10.00,M,BKN,M,M,M,1300.00,M,M,M,UP,M,M,M,M,M,M,28.55,K10U 221255Z AUTO 18008KT 10SM UP BKN013 02/01 A2974 RMK AO2,M
LSV,2024-01-22 12:55,-115.0343,36.2362,570.00,51.60,48.00,87.46,80.00,9.00,0.00,29.83,1009.60,10.00,M,BKN,OVC,M,M,2400.00,5000.00,M,M,M,M,M,M,M,M,M,51.60,KLSV 221255Z AUTO 08009KT 10SM BKN024 OVC050 11/09 A2983 RMK AO2 CIG 024V050 BKN V SCT SLP096 T01090088 $,M
TMT,2024-01-22 12:55,-117.1971,39.4643,1749.34,33.40,32.00,94.53,120.00,4.00,0.00,29.77,M,10.00,M,OVC,M,M,M,3000.00,M,M,M,-RA,M,M,M,M,M,M,29.06,KTMT 221255Z AUTO 12004KT 10SM -RA OVC030 01/00 A2977 RMK AO2 T00080001,M
EKO,2024-01-22 12:56,-115.7860,40.8242,1367.00,33.00,30.00,88.58,M,3.00,T,29.77,1008.80,10.00,M,BKN,OVC,M,M,2700.00,3100.00,M,M,-RA,M,M,M,M,M,M,29.83,KEKO 221256Z AUTO VRB03KT 10SM -RA BKN027 OVC031 01/M01 A2977 RMK AO2 UPB49E51RAB51 SLP088 P0000 T00061011,M
NFL,2024-01-22 12:56,-118.7010,39.4166,1199.00,46.00,34.00,62.71,150.00,10.00,0.00,29.67,1003.10,10.00,M,CLR,M,M,M,M,M,M,M,M,M,M,M,M,M,M,40.52,KNFL 221256Z AUTO 15010KT 10SM CLR 08/01 A2967 RMK AO2 SLP031 T00780011,M
HND,2024-01-22 12:56,-115.1344,35.9729,742.79,46.00,45.00,96.28,0.00,0.00,0.00,29.87,1013.20,3.00,M,BKN,OVC,M,M,400.00,7000.00,M,M,BR,M,M,M,M,M,M,46.00,KHND 221256Z AUTO 00000KT 3SM BR BKN004 OVC070 08/07 A2987 RMK AO2 SLP132 T00780072,M
TPH,2024-01-22 12:56,-117.0904,38.0505,1654.00,38.00,35.00,88.83,140.00,11.00,0.00,29.79,1007.90,10.00,M,OVC,M,M,M,1200.00,M,M,M,M,M,M,M,M,M,M,30.05,KTPH 221256Z AUTO 14011KT 10SM OVC012 03/02 A2979 RMK AO2 SLP079 T00330017,M
LAS,2024-01-22 12:56,-115.1634,36.0719,663.00,49.00,47.00,92.77,0.00,0.00,0.00,29.85,1010.50,10.00,M,FEW,BKN,BKN,M,800.00,4600.00,8000.00,M,M,M,M,M,M,M,M,49.00,KLAS 221256Z 00000KT 10SM FEW008 BKN046 BKN080 09/08 A2985 RMK AO2 SLP105 MTNS OBSCURED DSNT SW-NW T00940083,M
WMC,2024-01-22 12:56,-117.8072,40.9019,1315.00,40.00,37.00,88.92,60.00,7.00,T,29.71,1005.10,10.00,M,SCT,BKN,OVC,M,3500.00,7500.00,8500.00,M,M,M,M,M,M,M,M,34.53,KWMC 221256Z AUTO 06007KT 10SM SCT035 BKN075 OVC085 04/03 A2971 RMK AO2 RAB12E44 SLP051 P0000 T00440028,M
INS,2024-01-22 13:05,-115.6733,36.5872,955.00,42.80,41.00,93.30,220.00,5.00,0.00,29.83,1008.90,10.00,M,FEW,BKN,BKN,M,800.00,1400.00,2100.00,M,M,M,M,M,M,M,M,39.22,KINS 221305Z AUTO 22005KT 10SM FEW008 BKN014 BKN021 06/05 A2983 RMK AO2 BKN014 V SCT SLP089,M
DRA,2024-01-22 13:09,-116.0278,36.6206,1009.00,44.00,42.00,92.61,110.00,5.00,0.00,29.82,M,10.00,M,OVC,M,M,M,2800.00,M,M,M,M,M,M,M,M,M,M,40.65,KDRA 221309Z AUTO 11005KT 10SM OVC028 07/06 A2982 RMK AO2 T00670056 $,M
EKO,2024-01-22 13:10,-115.7860,40.8242,1367.00,33.00,30.00,88.58,0.00,0.00,0.01,29.78,M,10.00,M,OVC,M,M,M,2500.00,M,M,M,-FZRA,0.01,M,M,M,M,M,33.00,KEKO 221310Z AUTO 00000KT 10SM -FZRA OVC025 01/M01 A2978 RMK AO2 RAE04FZRAB04 P0001 I1001 T00061011,M
05U,2024-01-22 13:10,-116.0051,39.6042,1811.23,37.40,32.00,80.65,360.00,10.00,0.00,29.81,M,10.00,19.00,M,M,M,M,M,M,M,M,M,M,M,M,M,M,M,29.74,K05U 221310Z AUTO 36010G19KT 10SM 03/M00 A2981 RMK A01,M
10U,2024-01-22 13:10,-116.1876,41.9532,1637.00,35.60,33.80,93.08,150.00,7.00,0.00,29.74,M,10.00,M,FEW,BKN,BKN,M,1300.00,3000.00,3500.00,M,UP,M,M,M,M,M,M,29.17,K10U 221310Z AUTO 15007KT 10SM UP FEW013 BKN030 BKN035 02/01 A2974 RMK AO2,M
BVU,2024-01-22 13:15,-114.8611,35.9475,671.00,50.00,48.20,93.50,130.00,5.00,0.00,29.86,M,10.00,M,FEW,BKN,OVC,M,1100.00,3400.00,6000.00,M,M,M,M,M,M,M,M,50.00,KBVU 221315Z AUTO 13005KT 10SM FEW011 BKN034 OVC060 10/09 A2986 RMK AO2,M
CXP,2024-01-22 13:15,-119.7326,39.1923,1431.00,44.60,32.00,61.03,0.00,0.00,0.00,29.69,M,10.00,M,OVC,M,M,M,5500.00,M,M,M,M,M,M,M,M,M,M,44.60,KCXP 221315Z AUTO 00000KT 10SM OVC055 07/M00 A2969 RMK AO2,M
INS,2024-01-22 13:15,-115.6733,36.5872,955.00,42.80,41.00,93.30,230.00,5.00,0.00,29.83,1008.90,10.00,M,BKN,BKN,OVC,M,800.00,1500.00,2100.00,M,M,M,M,M,M,M,M,39.22,KINS 221315Z AUTO 23005KT 10SM BKN008 BKN015 OVC021 06/05 A2983 RMK AO2 BKN008 V FEW SLP089,M
RTS,2024-01-22 13:15,-119.8764,39.6682,1539.00,37.40,37.40,100.00,330.00,6.00,0.00,29.69,M,7.00,M,BKN,BKN,OVC,M,2000.00,2500.00,3000.00,M,-RA,M,M,M,M,M,M,32.03,KRTS 221315Z AUTO 33006KT 7SM -RA BKN020 BKN025 OVC030 03/03 A2969 RMK AO2,M
MEV,2024-01-22 13:15,-119.7500,38.9963,1441.42,44.60,32.00,61.03,180.00,12.00,0.00,29.66,M,10.00,M,FEW,SCT,SCT,M,5500.00,7500.00,9500.00,M,M,M,M,M,M,M,M,38.04,KMEV 221315Z AUTO 18012KT 10SM FEW055 SCT075 SCT095 07/M00 A2966 RMK AO2,M
BAM,2024-01-22 13:15,-116.8743,40.5990,1382.36,41.00,37.40,86.89,80.00,5.00,0.00,29.75,M,10.00,M,SCT,SCT,OVC,M,3800.00,4600.00,6000.00,M,M,M,M,M,M,M,M,37.08,KBAM 221315Z AUTO 08005KT 10SM SCT038 SCT046 OVC060 05/03 A2975 RMK AO1,M
HTH,2024-01-22 13:15,-118.6315,38.5448,1282.89,46.40,33.80,61.28,120.00,13.00,0.00,29.72,M,10.00,M,SCT,BKN,OVC,M,5000.00,6000.00,7000.00,M,M,M,M,M,M,M,M,40.02,KHTH 221315Z AUTO 12013KT 10SM SCT050 BKN060 OVC070 08/01 A2972 RMK A01,M
TMT,2024-01-22 13:15,-117.1971,39.4643,1749.34,33.40,32.00,94.53,120.00,3.00,0.00,29.77,M,10.00,M,BKN,OVC,M,M,2300.00,2800.00,M,M,-RA,M,M,M,M,M,M,30.29,KTMT 221315Z AUTO 12003KT 10SM -RA BKN023 OVC028 01/00 A2977 RMK AO2 T00080001,M
LAS,2024-01-22 13:25,-115.1634,36.0719,663.00,49.00,47.00,92.77,0.00,0.00,0.00,29.86,M,10.00,M,BKN,OVC,M,M,500.00,4600.00,M,M,M,M,M,M,M,M,M,49.00,KLAS 221325Z 00000KT 10SM BKN005 OVC046 09/08 A2986 RMK AO2 MTNS OBSCURED DSNT S-W-N T00940083,M
ELY,2024-01-22 13:27,-114.8453,39.2950,1909.00,33.00,28.00,81.63,220.00,11.00,0.00,29.83,M,10.00,M,BKN,BKN,BKN,M,2300.00,3200.00,4000.00,M,M,M,M,M,M,M,M,23.73,KELY 221327Z AUTO 22011KT 10SM BKN023 BKN032 BKN040 01/M02 A2983 RMK AO2 T00061022,M
10U,2024-01-22 13:30,-116.1876,41.9532,1637.00,33.80,32.00,93.03,130.00,6.00,0.00,29.74,M,10.00,M,BKN,BKN,BKN,M,1700.00,3000.00,3800.00,M,UP,M,M,M,M,M,M,27.70,K10U 221330Z AUTO 13006KT 10SM UP BKN017 BKN030 BKN038 01/00 A2974 RMK AO2,M
DRA,2024-01-22 13:33,-116.0278,36.6206,1009.00,44.00,42.00,92.61,80.00,9.00,0.00,29.82,M,10.00,M,SCT,BKN,OVC,M,2400.00,3000.00,3900.00,M,M,M,M,M,M,M,M,38.44,KDRA 221333Z AUTO 08009KT 10SM SCT024 BKN030 OVC039 07/06 A2982 RMK AO2 T00670056 $,M
TPH,2024-01-22 13:33,-117.0904,38.0505,1654.00,37.00,35.00,92.39,140.00,11.00,0.00,29.79,M,10.00,M,OVC,M,M,M,900.00,M,M,M,M,M,M,M,M,M,M,28.79,KTPH 221333Z AUTO 14011KT 10SM OVC009 03/02 A2979 RMK AO2 T00280017,M
BVU,2024-01-22 13:35,-114.8611,35.9475,671.00,50.00,48.20,93.50,130.00,6.00,0.00,29.86,M,10.00,M,FEW,BKN,OVC,M,3000.00,4100.00,7000.00,M,M,M,M,M,M,M,M,50.00,KBVU 221335Z AUTO 13006KT 10SM FEW030 BKN041 OVC070 10/09 A2986 RMK AO2,M
CXP,2024-01-22 13:35,-119.7326,39.1923,1431.00,42.80,32.00,65.38,0.00,0.00,0.00,29.68,M,10.00,M,OVC,M,M,M,5000.00,M,M,M,M,M,M,M,M,M,M,42.80,KCXP 221335Z AUTO 00000KT 10SM OVC050 06/00 A2968 RMK AO2,M
RTS,2024-01-22 13:35,-119.8764,39.6682,1539.00,37.40,37.40,100.00,340.00,6.00,0.00,29.69,M,10.00,M,SCT,BKN,OVC,M,2000.00,3900.00,6500.00,M,M,M,M,M,M,M,M,32.03,KRTS 221335Z AUTO 34006KT 10SM SCT020 BKN039 OVC065 03/03 A2969 RMK AO2,M
05U,2024-01-22 13:35,-116.0051,39.6042,1811.23,37.40,30.20,74.98,330.00,7.00,0.00,29.81,M,10.00,M,M,M,M,M,M,M,M,M,M,M,M,M,M,M,M,31.36,K05U 221335Z AUTO 33007KT 10SM 03/M01 A2981 RMK A01,M
MEV,2024-01-22 13:35,-119.7500,38.9963,1441.42,44.60,32.00,61.03,180.00,5.00,0.00,29.66,M,10.00,M,CLR,M,M,M,M,M,M,M,M,M,M,M,M,M,M,41.36,KMEV 221335Z AUTO 18005KT 10SM CLR 07/M00 A2966 RMK AO2,M
BAM,2024-01-22 13:35,-116.8743,40.5990,1382.36,41.00,35.60,80.93,70.00,4.00,0.00,29.75,M,10.00,M,BKN,BKN,OVC,M,3400.00,4700.00,6000.00,M,M,M,M,M,M,M,M,37.93,KBAM 221335Z AUTO 07004KT 10SM BKN034 BKN047 OVC060 05/02 A2975 RMK AO1,M
HTH,2024-01-22 13:35,-118.6315,38.5448,1282.89,46.40,33.80,61.28,130.00,13.00,0.00,29.71,M,10.00,M,BKN,BKN,OVC,M,4300.00,5000.00,6500.00,M,M,M,M,M,M,M,M,40.02,KHTH 221335Z AUTO 13013KT 10SM BKN043 BKN050 OVC065 08/01 A2971 RMK A01,M
TMT,2024-01-22 13:35,-117.1971,39.4643,1749.34,34.30,32.40,92.67,0.00,0.00,0.01,29.77,M,10.00,M,SCT,OVC,M,M,2100.00,3200.00,M,M,-RA,M,M,M,M,M,M,34.30,KTMT 221335Z AUTO 00000KT 10SM -RA SCT021 OVC032 01/00 A2977 RMK AO2 P0001 T00130002,M
DRA,2024-01-22 13:38,-116.0278,36.6206,1009.00,44.00,42.00,92.61,100.00,7.00,0.00,29.82,M,10.00,M,BKN,BKN,OVC,M,2400.00,3000.00,3900.00,M,M,M,M,M,M,M,M,39.41,KDRA 221338Z AUTO 10007KT 10SM BKN024 BKN030 OVC039 07/06 A2982 RMK AO2 T00670056 $,M
EKO,2024-01-22 13:42,-115.7860,40.8242,1367.00,33.00,31.00,92.25,70.00,5.00,0.02,29.78,M,6.00,M,BKN,OVC,M,M,1800.00,2400.00,M,M,-RA BR,0.02,M,M,M,M,M,27.58,KEKO 221342Z AUTO 07005KT 6SM -RA BR BKN018 OVC024 01/M01 A2978 RMK AO2 RAE04B39FZRAB04E36SNB36E39 P0002 I1002 T00061006,M
LAS,2024-01-22 13:42,-115.1634,36.0719,663.00,49.00,48.00,96.32,0.00,0.00,0.00,29.86,M,9.00,M,OVC,M,M,M,400.00,M,M,M,M,M,M,M,M,M,M,49.00,KLAS 221342Z 00000KT 9SM OVC004 09/09 A2986 RMK AO2 T00940089,M
INS,2024-01-22 13:45,-115.6733,36.5872,955.00,44.60,41.00,87.09,250.00,4.00,0.00,29.83,1008.90,10.00,M,SCT,BKN,M,M,700.00,2200.00,M,M,M,M,M,M,M,M,M,42.13,KINS 221345Z AUTO 25004KT 10SM SCT007 BKN022 07/05 A2983 RMK AO2 SLP089,M
LSV,2024-01-22 13:45,-115.0343,36.2362,570.00,51.80,48.20,87.47,80.00,7.00,0.00,29.83,1009.70,10.00,M,SCT,BKN,BKN,M,1300.00,1800.00,2400.00,M,M,M,M,M,M,M,M,51.80,KLSV 221345Z AUTO 08007KT 10SM SCT013 BKN018 BKN024 11/09 A2983 RMK AO2 CIG 015V024 SLP097 $,M
HND,2024-01-22 13:46,-115.1344,35.9729,742.79,46.40,44.60,93.40,0.00,0.00,0.00,29.88,M,3.00,M,SCT,OVC,M,M,600.00,4500.00,M,M,BR,M,M,M,M,M,M,46.40,KHND 221346Z AUTO 00000KT 3SM BR SCT006 OVC045 08/07 A2988 RMK AO2,M
DRA,2024-01-22 13:47,-116.0278,36.6206,1009.00,44.00,42.00,92.61,90.00,7.00,0.00,29.82,M,10.00,M,SCT,SCT,OVC,M,2200.00,3000.00,4100.00,M,M,M,M,M,M,M,M,39.41,KDRA 221347Z AUTO 09007KT 10SM SCT022 SCT030 OVC041 07/06 A2982 RMK AO2 T00670056 $,M
ELY,2024-01-22 13:51,-114.8453,39.2950,1909.00,33.80,28.40,80.36,210.00,7.00,0.00,29.83,M,10.00,M,FEW,SCT,OVC,M,1800.00,2400.00,3600.00,M,M,M,M,M,M,M,M,26.97,KELY 221351Z AUTO 21007KT 10SM FEW018 SCT024 OVC036 01/M02 A2983 RMK AO2,M
P68,2024-01-22 13:53,-116.0056,39.6014,1993.00,37.00,30.00,75.56,180.00,5.00,0.00,29.78,1006.70,M,M,M,M,M,M,M,M,M,M,M,M,M,M,M,M,M,32.33,KP68 221353Z AUTO 18005KT 03/M01 A2978 RMK AO1 SLP067 T00281011,M
DRA,2024-01-22 13:53,-116.0278,36.6206,1009.00,44.00,41.00,89.11,80.00,10.00,0.00,29.82,1008.30,10.00,M,SCT,BKN,OVC,M,2200.00,4100.00,5500.00,M,M,M,M,M,M,M,M,38.02,KDRA 221353Z AUTO 08010KT 10SM SCT022 BKN041 OVC055 07/05 A2982 RMK AO2 SLP083 T00670050 $,M
ELY,2024-01-22 13:53,-114.8453,39.2950,1909.00,33.00,28.00,81.63,220.00,9.00,0.00,29.83,1009.80,10.00,M,FEW,SCT,OVC,M,1800.00,2400.00,3600.00,M,M,M,M,M,M,M,M,24.76,KELY 221353Z AUTO 22009KT 10SM FEW018 SCT024 OVC036 01/M02 A2983 RMK AO2 SLP098 T00061022,M
VGT,2024-01-22 13:53,-115.1933,36.2111,667.00,50.00,48.00,92.80,110.00,4.00,0.00,29.86,1012.60,10.00,M,FEW,OVC,M,M,1200.00,2000.00,M,M,M,M,M,M,M,M,M,50.00,KVGT 221353Z 11004KT 10SM FEW012 OVC020 10/09 A2986 RMK AO2 SLP126 T01000089,M
LOL,2024-01-22 13:53,-118.5701,40.0684,1192.43,41.00,36.00,82.22,300.00,6.00,0.00,29.69,1005.40,10.00,M,OVC,M,M,M,7000.00,M,M,M,M,M,M,M,M,M,M,36.37,KLOL 221353Z AUTO 30006KT 10SM OVC070 05/02 A2969 RMK AO2 SLP054 T00500022 $,M
BVU,2024-01-22 13:55,-114.8611,35.9475,671.00,50.00,48.20,93.50,100.00,6.00,0.00,29.86,M,10.00,M,SCT,BKN,OVC,M,3100.00,4700.00,7000.00,M,M,M,M,M,M,M,M,50.00,KBVU 221355Z AUTO 10006KT 10SM SCT031 BKN047 OVC070 10/09 A2986 RMK AO2,M
CXP,2024-01-22 13:55,-119.7326,39.1923,1431.00,44.60,32.00,61.03,0.00,0.00,0.00,29.69,M,10.00,M,BKN,BKN,OVC,M,5500.00,6500.00,9000.00,M,M,M,M,M,M,M,M,44.60,KCXP 221355Z AUTO 00000KT 10SM BKN055 BKN065 OVC090 07/M00 A2969 RMK AO2,M
INS,2024-01-22 13:55,-115.6733,36.5872,955.00,44.60,41.50,88.79,230.00,5.00,0.00,29.83,1008.90,10.00,M,FEW,SCT,BKN,M,700.00,2200.00,2800.00,M,M,M,M,M,M,M,M,41.36,KINS 221355Z AUTO 23005KT 10SM FEW007 SCT022 BKN028 07/05 A2983 RMK AO2 SLP089 T00700053,M
RNO,2024-01-22 13:55,-119.7711,39.4839,1341.00,44.00,34.00,67.66,320.00,4.00,0.00,29.68,1002.90,10.00,M,BKN,OVC,M,M,4000.00,7500.00,M,M,M,M,M,M,M,M,M,41.43,KRNO 221355Z 32004KT 10SM BKN040 OVC075 07/01 A2968 RMK AO2 SLP029 T00670011,M
RTS,2024-01-22 13:55,-119.8764,39.6682,1539.00,37.40,37.40,100.00,340.00,5.00,0.00,29.70,M,10.00,M,FEW,SCT,OVC,M,3900.00,4600.00,6000.00,M,-DZ,M,M,M,M,M,M,32.81,KRTS 221355Z AUTO 34005KT 10SM -DZ FEW039 SCT046 OVC060 03/03 A2970 RMK AO2,M
05U,2024-01-22 13:55,-116.0051,39.6042,1811.23,37.40,30.20,74.98,340.00,5.00,0.00,29.81,M,10.00,M,M,M,M,M,M,M,M,M,M,M,M,M,M,M,M,32.81,K05U 221355Z AUTO 34005KT 10SM 03/M01 A2981 RMK A01,M
MEV,2024-01-22 13:55,-119.7500,38.9963,1441.42,42.80,32.00,65.38,20.00,6.00,0.00,29.67,M,10.00,M,FEW,BKN,M,M,8500.00,12000.00,M,M,M,M,M,M,M,M,M,38.54,KMEV 221355Z AUTO 02006KT 10SM FEW085 BKN120 06/M00 A2967 RMK AO2,M
BAM,2024-01-22 13:55,-116.8743,40.5990,1382.36,41.00,37.40,86.89,0.00,0.00,0.00,29.75,M,10.00,M,SCT,SCT,OVC,M,3100.00,4200.00,5000.00,M,M,M,M,M,M,M,M,41.00,KBAM 221355Z AUTO 00000KT 10SM SCT031 SCT042 OVC050 05/03 A2975 RMK AO1,M
HTH,2024-01-22 13:55,-118.6315,38.5448,1282.89,46.40,33.80,61.28,130.00,15.00,0.00,29.71,M,10.00,M,FEW,BKN,OVC,M,4500.00,5000.00,6500.00,M,M,M,M,M,M,M,M,39.45,KHTH 221355Z AUTO 13015KT 10SM FEW045 BKN050 OVC065 08/01 A2971 RMK A01,M
10U,2024-01-22 13:55,-116.1876,41.9532,1637.00,33.80,33.80,100.00,130.00,6.00,0.00,29.74,M,10.00,M,BKN,BKN,BKN,M,1000.00,2500.00,3800.00,M,-RA,M,M,M,M,M,M,27.70,K10U 221355Z AUTO 13006KT 10SM -RA BKN010 BKN025 BKN038 01/01 A2974 RMK AO2,M
TMT,2024-01-22 13:55,-117.1971,39.4643,1749.34,33.60,32.00,93.78,0.00,0.00,0.01,29.76,M,10.00,M,BKN,OVC,M,M,3100.00,4000.00,M,M,-RA,M,M,M,M,M,M,33.60,KTMT 221355Z AUTO 00000KT 10SM -RA BKN031 OVC040 01/00 A2976 RMK AO2 P0001 T00090001,M
LSV,2024-01-22 13:55,-115.0343,36.2362,570.00,51.60,48.60,89.45,90.00,5.00,0.00,29.83,1009.70,10.00,M,SCT,BKN,M,M,1600.00,2400.00,M,M,M,M,M,M,M,M,M,51.60,KLSV 221355Z AUTO 09005KT 10SM SCT016 BKN024 11/09 A2983 RMK AO2 CIG 016V024 SLP097 T01090092 $,M
EKO,2024-01-22 13:56,-115.7860,40.8242,1367.00,33.00,31.00,92.25,80.00,3.00,0.03,29.78,1009.50,8.00,M,OVC,M,M,M,1700.00,M,M,M,-RA,0.02,M,M,M,M,M,29.83,KEKO 221356Z AUTO 08003KT 8SM -RA OVC017 01/M01 A2978 RMK AO2 RAE04B39FZRAB04E36SNB36E39B47E56 SLP095 P0003 I1002 T00061006,M
NFL,2024-01-22 13:56,-118.7010,39.4166,1199.00,45.00,35.00,67.78,130.00,6.00,0.00,29.68,1003.20,10.00,M,BKN,M,M,M,8000.00,M,M,M,M,M,M,M,M,M,M,41.19,KNFL 221356Z AUTO 13006KT 10SM BKN080 07/02 A2968 RMK AO2 SLP032 T00720017,M
HND,2024-01-22 13:56,-115.1344,35.9729,742.79,46.00,45.00,96.28,150.00,3.00,0.00,29.88,1013.40,3.00,M,FEW,SCT,OVC,M,400.00,800.00,4500.00,M,BR,M,M,M,M,M,M,44.69,KHND 221356Z AUTO 15003KT 3SM BR FEW004 SCT008 OVC045 08/07 A2988 RMK AO2 SLP134 T00780072,M
TPH,2024-01-22 13:56,-117.0904,38.0505,1654.00,37.00,36.00,96.13,130.00,8.00,T,29.79,1008.40,10.00,M,OVC,M,M,M,1000.00,M,M,M,-RA,M,M,M,M,M,M,30.27,KTPH 221356Z AUTO 13008KT 10SM -RA OVC010 03/02 A2979 RMK AO2 RAB35 CIG 008V013 SLP084 P0000 T00280022,M
LAS,2024-01-22 13:56,-115.1634,36.0719,663.00,49.00,47.00,92.77,0.00,0.00,0.00,29.86,1010.90,8.00,M,BKN,M,M,M,400.00,M,M,M,M,M,M,M,M,M,M,49.00,KLAS 221356Z 00000KT 8SM BKN004 09/08 A2986 RMK AO2 SLP109 T00940083,M
WMC,2024-01-22 13:56,-117.8072,40.9019,1315.00,41.00,37.00,85.54,0.00,0.00,T,29.72,1005.80,10.00,M,SCT,BKN,OVC,M,3100.00,4500.00,6000.00,M,-RA,M,M,M,M,M,M,41.00,KWMC 221356Z AUTO 00000KT 10SM -RA SCT031 BKN045 OVC060 05/03 A2972 RMK AO2 RAB36 SLP058 P0000 T00500028,M
INS,2024-01-22 14:00,-115.6733,36.5872,955.00,46.40,42.80,87.19,240.00,7.00,0.00,29.83,1008.60,10.00,M,SCT,M,M,M,2200.00,M,M,M,M,M,M,M,M,M,M,42.33,KINS 221400Z AUTO 24007KT 10SM SCT022 08/06 A2983 RMK AO2 SLP086,M
LAS,2024-01-22 14:08,-115.1634,36.0719,663.00,49.00,47.00,92.77,0.00,0.00,0.00,29.85,M,7.00,M,SCT,BKN,OVC,M,500.00,4100.00,7000.00,M,M,M,M,M,M,M,M,49.00,KLAS 221408Z 00000KT 7SM SCT005 BKN041 OVC070 09/08 A2985 RMK AO2 T00940083,M
05U,2024-01-22 14:10,-116.0051,39.6042,1811.23,37.40,30.20,74.98,320.00,6.00,0.00,29.81,M,10.00,M,M,M,M,M,M,M,M,M,M,M,M,M,M,M,M,32.03,K05U 221410Z AUTO 32006KT 10SM 03/M01 A2981 RMK A01,M
HTH,2024-01-22 14:10,-118.6315,38.5448,1282.89,46.40,33.80,61.28,120.00,15.00,0.00,29.71,M,10.00,M,BKN,BKN,OVC,M,4000.00,4600.00,5000.00,M,M,M,M,M,M,M,M,39.45,KHTH 221410Z AUTO 12015KT 10SM BKN040 BKN046 OVC050 08/01 A2971 RMK A01,M
10U,2024-01-22 14:10,-116.1876,41.9532,1637.00,35.60,33.80,93.08,130.00,6.00,0.00,29.74,M,7.00,M,SCT,BKN,OVC,M,1000.00,1900.00,2900.00,M,UP,M,M,M,M,M,M,29.87,K10U 221410Z AUTO 13006KT 7SM UP SCT010 BKN019 OVC029 02/01 A2974 RMK AO2,M
BVU,2024-01-22 14:15,-114.8611,35.9475,671.00,50.00,48.20,93.50,130.00,6.00,0.00,29.86,M,10.00,M,FEW,BKN,OVC,M,1100.00,3100.00,7000.00,M,M,M,M,M,M,M,M,50.00,KBVU 221415Z AUTO 13006KT 10SM FEW011 BKN031 OVC070 10/09 A2986 RMK AO2,M
CXP,2024-01-22 14:15,-119.7326,39.1923,1431.00,44.60,32.00,61.03,0.00,0.00,0.00,29.69,M,10.00,M,BKN,OVC,M,M,5500.00,7000.00,M,M,M,M,M,M,M,M,M,44.60,KCXP 221415Z AUTO 00000KT 10SM BKN055 OVC070 07/M00 A2969 RMK AO2,M
RTS,2024-01-22 14:15,-119.8764,39.6682,1539.00,37.40,37.40,100.00,330.00,6.00,0.00,29.70,M,10.00,M,FEW,BKN,OVC,M,2400.00,3000.00,6500.00,M,-DZ,M,M,M,M,M,M,32.03,KRTS 221415Z AUTO 33006KT 10SM -DZ FEW024 BKN030 OVC065 03/03 A2970 RMK AO2,M
MEV,2024-01-22 14:15,-119.7500,38.9963,1441.42,42.80,32.00,65.38,0.00,0.00,0.00,29.67,M,10.00,M,SCT,BKN,OVC,M,6500.00,8000.00,12000.00,M,M,M,M,M,M,M,M,42.80,KMEV 221415Z AUTO 00000KT 10SM SCT065 BKN080 OVC120 06/M00 A2967 RMK AO2,M
BAM,2024-01-22 14:15,-116.8743,40.5990,1382.36,41.00,37.40,86.89,0.00,0.00,0.00,29.76,M,10.00,M,SCT,BKN,OVC,M,3800.00,4400.00,5000.00,M,M,M,M,M,M,M,M,41.00,KBAM 221415Z AUTO 00000KT 10SM SCT038 BKN044 OVC050 05/03 A2976 RMK AO1,M
LSV,2024-01-22 14:15,-115.0343,36.2362,570.00,51.80,48.20,87.47,0.00,0.00,0.00,29.83,1009.70,10.00,M,BKN,BKN,M,M,1300.00,2200.00,M,M,M,M,M,M,M,M,M,51.80,KLSV 221415Z AUTO 00000KT 10SM BKN013 BKN022 11/09 A2983 RMK AO2 CIG 013V021 BKN013 V SCT SLP097 $,M
TMT,2024-01-22 14:15,-117.1971,39.4643,1749.34,33.40,32.40,96.06,0.00,0.00,0.00,29.77,M,10.00,M,BKN,BKN,OVC,M,3600.00,4600.00,5500.00,M,-DZ,M,M,M,M,M,M,33.40,KTMT 221415Z AUTO 00000KT 10SM -DZ BKN036 BKN046 OVC055 01/00 A2977 RMK AO2 T00080002,M
HND,2024-01-22 14:26,-115.1344,35.9729,742.79,46.40,44.60,93.40,0.00,0.00,0.00,29.87,M,2.50,M,FEW,OVC,M,M,800.00,4100.00,M,M,BR,M,M,M,M,M,M,46.40,KHND 221426Z 00000KT 2 1/2SM BR FEW008 OVC041 08/07 A2987 RMK AO2,M
NFL,2024-01-22 14:29,-118.7010,39.4166,1199.00,46.00,35.00,65.26,160.00,11.00,0.00,29.68,M,10.00,M,BKN,M,M,M,8000.00,M,M,M,M,M,M,M,M,M,M,40.16,KNFL 221429Z 16011KT 10SM BKN080 08/02 A2968 RMK AO2 T00780017,M
05U,2024-01-22 14:30,-116.0051,39.6042,1811.23,37.40,30.20,74.98,30.00,3.00,0.00,29.81,M,10.00,M,M,M,M,M,M,M,M,M,M,M,M,M,M,M,M,34.86,K05U 221430Z AUTO 03003KT 10SM 03/M01 A2981 RMK A01,M
10U,2024-01-22 14:30,-116.1876,41.9532,1637.00,33.80,33.80,100.00,130.00,6.00,0.00,29.74,M,10.00,M,SCT,BKN,OVC,M,1900.00,2800.00,3200.00,M,UP,M,M,M,M,M,M,27.70,K10U 221430Z AUTO 13006KT 10SM UP SCT019 BKN028 OVC032 01/01 A2974 RMK AO2,M
BVU,2024-01-22 14:35,-114.8611,35.9475,671.00,50.00,48.20,93.50,120.00,10.00,0.00,29.86,M,10.00,M,FEW,BKN,BKN,M,1100.00,3200.00,3800.00,M,M,M,M,M,M,M,M,50.00,KBVU 221435Z AUTO 12010KT 10SM FEW011 BKN032 BKN038 10/09 A2986 RMK AO2,M
CXP,2024-01-22 14:35,-119.7326,39.1923,1431.00,42.80,32.00,65.38,0.00,0.00,0.00,29.70,M,10.00,M,BKN,OVC,M,M,5500.00,7000.00,M,M,M,M,M,M,M,M,M,42.80,KCXP 221435Z AUTO 00000KT 10SM BKN055 OVC070 06/M00 A2970 RMK AO2,M
RTS,2024-01-22 14:35,-119.8764,39.6682,1539.00,37.40,37.40,100.00,320.00,6.00,0.00,29.71,M,10.00,M,SCT,BKN,OVC,M,2100.00,2900.00,3400.00,M,-DZ,M,M,M,M,M,M,32.03,KRTS 221435Z AUTO 32006KT 10SM -DZ SCT021 BKN029 OVC034 03/03 A2971 RMK AO2,M
MEV,2024-01-22 14:35,-119.7500,38.9963,1441.42,44.60,32.00,61.03,170.00,4.00,0.00,29.68,M,10.00,M,OVC,M,M,M,7000.00,M,M,M,M,M,M,M,M,M,M,42.13,KMEV 221435Z AUTO 17004KT 10SM OVC070 07/M00 A2968 RMK AO2,M
BAM,2024-01-22 14:35,-116.8743,40.5990,1382.36,39.20,37.40,93.19,0.00,0.00,0.00,29.76,M,10.00,M,BKN,OVC,M,M,3200.00,3900.00,M,M,M,M,M,M,M,M,M,39.20,KBAM 221435Z AUTO 00000KT 10SM BKN032 OVC039 04/03 A2976 RMK AO1,M
HTH,2024-01-22 14:35,-118.6315,38.5448,1282.89,46.40,35.60,65.83,120.00,14.00,0.00,29.72,M,10.00,22.00,SCT,BKN,OVC,M,4000.00,5000.00,5500.00,M,M,M,M,M,M,M,M,39.72,KHTH 221435Z AUTO 12014G22KT 10SM SCT040 BKN050 OVC055 08/02 A2972 RMK A01,M
TMT,2024-01-22 14:35,-117.1971,39.4643,1749.34,33.30,32.00,94.91,0.00,0.00,0.00,29.77,M,10.00,M,BKN,OVC,M,M,3600.00,4300.00,M,M,-DZ,M,M,M,M,M,M,33.30,KTMT 221435Z AUTO 00000KT 10SM -DZ BKN036 OVC043 01/00 A2977 RMK AO2 T00070001,M
TPH,2024-01-22 14:38,-117.0904,38.0505,1654.00,37.00,36.00,96.13,120.00,10.00,T,29.78,M,10.00,M,OVC,M,M,M,900.00,M,M,M,-RA,M,M,M,M,M,M,29.24,KTPH 221438Z AUTO 12010KT 10SM -RA OVC009 03/02 A2978 RMK AO2 RAE04B24UPB04E24 P0000 T00280022,M
HND,2024-01-22 14:40,-115.1344,35.9729,742.79,46.40,44.60,93.40,0.00,0.00,0.00,29.87,M,1.00,M,FEW,BKN,BKN,M,200.00,4300.00,7000.00,M,BR,M,M,M,M,M,M,46.40,KHND 221440Z 00000KT 1SM BR FEW002 BKN043 BKN070 08/07 A2987 RMK AO2,M
HND,2024-01-22 14:45,-115.1344,35.9729,742.79,44.60,44.60,100.00,0.00,0.00,0.00,29.87,M,0.50,M,SCT,BKN,OVC,M,400.00,4700.00,7000.00,M,FG,M,M,M,M,M,M,44.60,KHND 221445Z 00000KT 1/2SM FG SCT004 BKN047 OVC070 07/07 A2987 RMK AO2,M
LSV,2024-01-22 14:45,-115.0343,36.2362,570.00,51.80,48.20,87.47,110.00,6.00,0.00,29.83,1009.70,10.00,M,BKN,BKN,M,M,1500.00,2200.00,M,M,M,M,M,M,M,M,M,51.80,KLSV 221445Z AUTO 11006KT 10SM BKN015 BKN022 11/09 A2983 RMK AO2 SLP097 $,M
HND,2024-01-22 14:49,-115.1344,35.9729,742.79,44.60,44.60,100.00,150.00,3.00,0.00,29.88,M,0.25,M,BKN,BKN,OVC,M,400.00,4700.00,7000.00,M,FG,M,M,M,M,M,M,43.09,KHND 221449Z 15003KT 1/4SM FG BKN004 BKN047 OVC070 07/07 A2988 RMK AO2 CIG 001V005,M
P68,2024-01-22 14:53,-116.0056,39.6014,1993.00,36.00,31.00,81.86,0.00,0.00,0.00,29.79,1007.00,M,M,M,M,M,M,M,M,M,M,M,M,M,M,M,M,M,36.00,KP68 221453Z AUTO 00000KT 02/M01 A2979 RMK AO1 SLP070 T00221006 53003,M
DRA,2024-01-22 14:53,-116.0278,36.6206,1009.00,45.00,42.00,89.15,110.00,8.00,0.00,29.81,1008.20,10.00,M,OVC,M,M,M,4200.00,M,M,M,M,M,M,M,M,M,M,40.13,KDRA 221453Z AUTO 11008KT 10SM OVC042 07/06 A2981 RMK AO2 SLP082 T00720056 58005 $,M
ELY,2024-01-22 14:53,-114.8453,39.2950,1909.00,33.00,28.00,81.63,220.00,8.00,0.00,29.83,1010.20,10.00,M,FEW,OVC,M,M,2600.00,3600.00,M,M,M,M,M,M,M,M,M,25.34,KELY 221453Z AUTO 22008KT 10SM FEW026 OVC036 01/M02 A2983 RMK AO2 SLP102 T00061022 51004,M
VGT,2024-01-22 14:53,-115.1933,36.2111,667.00,50.00,47.00,89.37,90.00,3.00,0.00,29.85,1012.50,9.00,M,OVC,M,M,M,1000.00,M,M,M,M,M,M,M,M,M,M,50.00,KVGT 221453Z 09003KT 9SM OVC010 10/08 A2985 RMK AO2 SLP125 T01000083 56004,M
LOL,2024-01-22 14:53,-118.5701,40.0684,1192.43,42.00,37.00,82.30,30.00,6.00,0.00,29.70,1005.70,10.00,M,FEW,BKN,OVC,M,4600.00,5500.00,7000.00,M,M,M,M,M,M,M,M,37.57,KLOL 221453Z AUTO 03006KT 10SM FEW046 BKN055 OVC070 06/03 A2970 RMK AO2 SLP057 T00560028 53004 $,M
BVU,2024-01-22 14:55,-114.8611,35.9475,671.00,50.00,48.20,93.50,130.00,12.00,0.00,29.86,M,10.00,M,SCT,SCT,BKN,M,2700.00,3200.00,3900.00,M,M,M,M,M,M,M,M,50.00,KBVU 221455Z AUTO 13012KT 10SM SCT027 SCT032 BKN039 10/09 A2986 RMK AO2,M
CXP,2024-01-22 14:55,-119.7326,39.1923,1431.00,42.80,32.00,65.38,300.00,3.00,0.00,29.70,M,10.00,M,SCT,OVC,M,M,6000.00,7500.00,M,M,M,M,M,M,M,M,M,41.03,KCXP 221455Z AUTO 30003KT 10SM SCT060 OVC075 06/00 A2970 RMK AO2,M
INS,2024-01-22 14:55,-115.6733,36.5872,955.00,46.00,43.30,90.23,210.00,3.00,0.00,29.83,1008.60,10.00,M,CLR,M,M,M,M,M,M,M,M,M,M,M,M,M,M,44.69,KINS 221455Z AUTO 21003KT 10SM CLR 08/06 A2983 RMK AO2 SLP086 T00780063 56005,M
RNO,2024-01-22 14:55,-119.7711,39.4839,1341.00,43.00,36.00,76.12,360.00,7.00,T,29.69,1003.70,10.00,M,BKN,OVC,M,M,3800.00,5000.00,M,M,-RA,M,M,M,M,M,M,38.19,KRNO 221455Z 36007KT 10SM -RA BKN038 OVC050 06/02 A2969 RMK AO2 RAB35 SLP037 P0000 60000 T00610022 53007,M
RTS,2024-01-22 14:55,-119.8764,39.6682,1539.00,37.40,37.40,100.00,290.00,4.00,0.01,29.71,M,8.00,M,SCT,BKN,OVC,M,2000.00,2400.00,2900.00,M,-RA,M,M,M,M,M,M,33.73,KRTS 221455Z AUTO 29004KT 8SM -RA SCT020 BKN024 OVC029 03/03 A2971 RMK AO2 P0001,M
05U,2024-01-22 14:55,-116.0051,39.6042,1811.23,35.60,32.00,86.59,0.00,0.00,0.00,29.81,M,8.00,M,M,M,M,M,M,M,M,M,M,M,M,M,M,M,M,35.60,K05U 221455Z AUTO 00000KT 8SM 02/M00 A2981 RMK A01,M
MEV,2024-01-22 14:55,-119.7500,38.9963,1441.42,42.80,32.00,65.38,170.00,4.00,0.00,29.68,M,10.00,M,FEW,BKN,OVC,M,5500.00,6500.00,10000.00,M,M,M,M,M,M,M,M,40.03,KMEV 221455Z AUTO 17004KT 10SM FEW055 BKN065 OVC100 06/M00 A2968 RMK AO2,M
BAM,2024-01-22 14:55,-116.8743,40.5990,1382.36,41.00,37.40,86.89,170.00,3.00,0.00,29.76,M,10.00,M,BKN,OVC,M,M,2700.00,3200.00,M,M,M,M,M,M,M,M,M,38.98,KBAM 221455Z AUTO 17003KT 10SM BKN027 OVC032 05/03 A2976 RMK AO1,M
HTH,2024-01-22 14:55,-118.6315,38.5448,1282.89,46.40,35.60,65.83,130.00,15.00,0.00,29.73,M,10.00,20.00,FEW,OVC,M,M,4200.00,5000.00,M,M,M,M,M,M,M,M,M,39.45,KHTH 221455Z AUTO 13015G20KT 10SM FEW042 OVC050 08/02 A2973 RMK A01,M
10U,2024-01-22 14:55,-116.1876,41.9532,1637.00,35.60,33.80,93.08,130.00,9.00,0.00,29.74,M,10.00,M,BKN,BKN,OVC,M,2600.00,3100.00,4700.00,M,UP,M,M,M,M,M,M,27.99,K10U 221455Z AUTO 13009KT 10SM UP BKN026 BKN031 OVC047 02/01 A2974 RMK AO2,M
LSV,2024-01-22 14:55,-115.0343,36.2362,570.00,52.00,47.70,85.21,100.00,5.00,0.00,29.83,1009.70,10.00,M,SCT,BKN,M,M,1600.00,2300.00,M,M,M,M,M,M,M,M,M,52.00,KLSV 221455Z AUTO 10005KT 10SM SCT016 BKN023 11/09 A2983 RMK AO2 CIG 015V023 SLP097 T01110087 55003 $,M
TMT,2024-01-22 14:55,-117.1971,39.4643,1749.34,33.80,32.40,94.54,190.00,4.00,0.00,29.77,M,10.00,M,BKN,OVC,M,M,3000.00,4000.00,M,M,-RA,M,M,M,M,M,M,29.52,KTMT 221455Z AUTO 19004KT 10SM -RA BKN030 OVC040 01/00 A2977 RMK AO2 60001 T00100002,M
EKO,2024-01-22 14:56,-115.7860,40.8242,1367.00,33.00,32.00,96.06,20.00,4.00,0.03,29.78,1009.60,9.00,M,OVC,M,M,M,1600.00,M,M,M,-RA,M,0.02,M,M,M,M,28.59,KEKO 221456Z AUTO 02004KT 9SM -RA OVC016 01/00 A2978 RMK AO2 RAE04B35SNB04E35 SLP096 P0003 60006 I3002 T00060000 51005,M
NFL,2024-01-22 14:56,-118.7010,39.4166,1199.00,46.00,35.00,65.26,150.00,12.00,0.00,29.69,1003.60,10.00,M,BKN,OVC,M,M,8000.00,14000.00,M,M,M,M,M,M,M,M,M,39.82,KNFL 221456Z 15012KT 10SM BKN080 OVC140 08/02 A2969 RMK AO2 SLP036 T00780017 53004,M
HND,2024-01-22 14:56,-115.1344,35.9729,742.79,45.00,45.00,100.00,0.00,0.00,0.00,29.87,1013.40,0.25,M,BKN,OVC,M,M,400.00,7000.00,M,M,FG,M,M,M,M,M,M,45.00,KHND 221456Z 00000KT M1/4SM FG BKN004 OVC070 07/07 A2987 RMK AO2 SLP134 T00720072 56003,M
TPH,2024-01-22 14:56,-117.0904,38.0505,1654.00,38.00,36.00,92.42,130.00,9.00,T,29.78,1007.90,10.00,M,OVC,M,M,M,900.00,M,M,M,-RA,M,M,M,M,M,M,30.97,KTPH 221456Z AUTO 13009KT 10SM -RA OVC009 03/02 A2978 RMK AO2 RAE04B24UPB04E24 SLP079 P0000 60000 T00330022 58003,M
LAS,2024-01-22 14:56,-115.1634,36.0719,663.00,49.00,47.00,92.77,0.00,0.00,0.00,29.86,1010.60,9.00,M,BKN,OVC,M,M,4500.00,7000.00,M,M,M,M,M,M,M,M,M,49.00,KLAS 221456Z 00000KT 9SM BKN045 OVC070 09/08 A2986 RMK AO2 SLP106 T00940083 56002,M
WMC,2024-01-22 14:56,-117.8072,40.9019,1315.00,41.00,37.00,85.54,140.00,4.00,0.01,29.72,1005.90,10.00,M,SCT,OVC,M,M,2900.00,3500.00,M,M,M,M,M,M,M,M,M,37.93,KWMC 221456Z AUTO 14004KT 10SM SCT029 OVC035 05/03 A2972 RMK AO2 RAE54 SLP059 P0001 60001 T00500028 53005,M
LSV,2024-01-22 15:05,-115.0343,36.2362,570.00,51.80,48.20,87.47,90.00,6.00,0.00,29.83,1009.70,10.00,M,BKN,BKN,M,M,1900.00,2500.00,M,M,M,M,M,M,M,M,M,51.80,KLSV 221505Z AUTO 09006KT 10SM BKN019 BKN025 11/09 A2983 RMK AO2 SLP097 $,M
LAS,2024-01-22 15:11,-115.1634,36.0719,663.00,49.00,48.00,96.32,0.00,0.00,0.00,29.86,M,6.00,M,FEW,BKN,OVC,M,500.00,4800.00,7500.00,M,BR,M,M,M,M,M,M,49.00,KLAS 221511Z 00000KT 6SM BR FEW005 BKN048 OVC075 09/09 A2986 RMK AO2 T00940089,M
BVU,2024-01-22 15:15,-114.8611,35.9475,671.00,50.00,48.20,93.50,110.00,9.00,0.00,29.86,M,10.00,14.00,BKN,BKN,OVC,M,2300.00,2700.00,3300.00,M,M,M,M,M,M,M,M,50.00,KBVU 221515Z AUTO 11009G14KT 10SM BKN023 BKN027 OVC033 10/09 A2986 RMK AO2,M
CXP,2024-01-22 15:15,-119.7326,39.1923,1431.00,42.80,32.00,65.38,0.00,0.00,0.00,29.71,M,10.00,M,FEW,BKN,OVC,M,4400.00,6000.00,7500.00,M,M,M,M,M,M,M,M,42.80,KCXP 221515Z AUTO 00000KT 10SM FEW044 BKN060 OVC075 06/M00 A2971 RMK AO2,M
RTS,2024-01-22 15:15,-119.8764,39.6682,1539.00,37.40,37.40,100.00,0.00,0.00,0.00,29.72,M,10.00,M,FEW,SCT,BKN,M,2300.00,3300.00,4500.00,M,M,M,M,M,M,M,M,37.40,KRTS 221515Z AUTO 00000KT 10SM FEW023 SCT033 BKN045 03/03 A2972 RMK AO2,M
05U,2024-01-22 15:15,-116.0051,39.6042,1811.23,35.60,32.00,86.59,0.00,0.00,0.00,29.81,M,7.00,M,M,M,M,M,M,M,M,M,M,M,M,M,M,M,M,35.60,K05U 221515Z AUTO 00000KT 7SM 02/M00 A2981 RMK A01,M
MEV,2024-01-22 15:15,-119.7500,38.9963,1441.42,42.80,32.00,65.38,0.00,0.00,0.00,29.69,M,10.00,M,SCT,BKN,OVC,M,4800.00,5500.00,10000.00,M,M,M,M,M,M,M,M,42.80,KMEV 221515Z AUTO 00000KT 10SM SCT048 BKN055 OVC100 06/M00 A2969 RMK AO2,M
BAM,2024-01-22 15:15,-116.8743,40.5990,1382.36,41.00,37.40,86.89,0.00,0.00,0.00,29.76,M,10.00,M,OVC,M,M,M,2700.00,M,M,M,M,M,M,M,M,M,M,41.00,KBAM 221515Z AUTO 00000KT 10SM OVC027 05/03 A2976 RMK AO1,M
HTH,2024-01-22 15:15,-118.6315,38.5448,1282.89,44.60,35.60,70.48,130.00,13.00,0.00,29.74,M,10.00,19.00,OVC,M,M,M,4700.00,M,M,M,M,M,M,M,M,M,M,37.71,KHTH 221515Z AUTO 13013G19KT 10SM OVC047 07/02 A2974 RMK A01,M
10U,2024-01-22 15:15,-116.1876,41.9532,1637.00,35.60,33.80,93.08,140.00,9.00,0.00,29.75,M,9.00,M,FEW,BKN,BKN,M,2600.00,3600.00,4300.00,M,UP,M,M,M,M,M,M,27.99,K10U 221515Z AUTO 14009KT 9SM UP FEW026 BKN036 BKN043 02/01 A2975 RMK AO2,M
LSV,2024-01-22 15:15,-115.0343,36.2362,570.00,51.80,48.20,87.47,80.00,5.00,0.00,29.83,1009.70,10.00,M,BKN,M,M,M,2100.00,M,M,M,M,M,M,M,M,M,M,51.80,KLSV 221515Z AUTO 08005KT 10SM BKN021 11/09 A2983 RMK AO2 SLP097 $,M
TMT,2024-01-22 15:15,-117.1971,39.4643,1749.34,34.00,33.00,96.08,160.00,4.00,0.00,29.78,M,10.00,M,BKN,OVC,M,M,3000.00,4000.00,M,M,-RA,M,M,M,M,M,M,29.76,KTMT 221515Z AUTO 16004KT 10SM -RA BKN030 OVC040 01/01 A2978 RMK AO2 T00110005,M
HND,2024-01-22 15:19,-115.1344,35.9729,742.79,44.60,44.60,100.00,0.00,0.00,0.00,29.87,M,0.25,M,OVC,M,M,M,200.00,M,M,M,FG,M,M,M,M,M,M,44.60,KHND 221519Z 00000KT 1/4SM FG OVC002 07/07 A2987 RMK AO2,M
VGT,2024-01-22 15:25,-115.1933,36.2111,667.00,51.00,48.00,89.42,0.00,0.00,0.00,29.86,M,9.00,M,OVC,M,M,M,900.00,M,M,M,M,M,M,M,M,M,M,51.00,KVGT 221525Z 00000KT 9SM OVC009 11/09 A2986 RMK AO2 T01060089,M
LSV,2024-01-22 15:25,-115.0343,36.2362,570.00,51.80,48.20,87.47,90.00,4.00,0.00,29.83,1009.70,10.00,M,BKN,BKN,M,M,1700.00,2200.00,M,M,M,M,M,M,M,M,M,51.80,KLSV 221525Z AUTO 09004KT 10SM BKN017 BKN022 11/09 A2983 RMK AO2 CIG 017V021 SLP097 $,M
BVU,2024-01-22 15:35,-114.8611,35.9475,671.00,50.00,48.20,93.50,120.00,10.00,0.00,29.86,M,10.00,M,OVC,M,M,M,2300.00,M,M,M,M,M,M,M,M,M,M,50.00,KBVU 221535Z AUTO 12010KT 10SM OVC023 10/09 A2986 RMK AO2,M
CXP,2024-01-22 15:35,-119.7326,39.1923,1431.00,42.80,32.00,65.38,0.00,0.00,0.00,29.72,M,10.00,M,SCT,OVC,M,M,4700.00,5500.00,M,M,M,M,M,M,M,M,M,42.80,KCXP 221535Z AUTO 00000KT 10SM SCT047 OVC055 06/00 A2972 RMK AO2,M
RTS,2024-01-22 15:35,-119.8764,39.6682,1539.00,37.40,37.40,100.00,340.00,3.00,0.00,29.72,M,10.00,M,FEW,FEW,OVC,M,3200.00,3800.00,4600.00,M,M,M,M,M,M,M,M,34.86,KRTS 221535Z AUTO 34003KT 10SM FEW032 FEW038 OVC046 03/03 A2972 RMK AO2,M
05U,2024-01-22 15:35,-116.0051,39.6042,1811.23,35.60,32.00,86.59,0.00,0.00,0.00,29.82,M,3.00,M,M,M,M,M,M,M,M,M,BR,M,M,M,M,M,M,35.60,K05U 221535Z AUTO 00000KT 3SM BR 02/00 A2982 RMK A01,M
MEV,2024-01-22 15:35,-119.7500,38.9963,1441.42,41.00,32.00,70.08,0.00,0.00,0.00,29.69,M,10.00,M,SCT,BKN,OVC,M,4700.00,5500.00,6500.00,M,M,M,M,M,M,M,M,41.00,KMEV 221535Z AUTO 00000KT 10SM SCT047 BKN055 OVC065 05/M00 A2969 RMK AO2,M
BAM,2024-01-22 15:35,-116.8743,40.5990,1382.36,39.20,37.40,93.19,0.00,0.00,0.00,29.76,M,10.00,M,OVC,M,M,M,2700.00,M,M,M,M,M,M,M,M,M,M,39.20,KBAM 221535Z AUTO 00000KT 10SM OVC027 04/03 A2976 RMK AO1,M
HTH,2024-01-22 15:35,-118.6315,38.5448,1282.89,44.60,35.60,70.48,120.00,10.00,0.00,29.74,M,10.00,15.00,BKN,OVC,M,M,4000.00,4700.00,M,M,M,M,M,M,M,M,M,38.77,KHTH 221535Z AUTO 12010G15KT 10SM BKN040 OVC047 07/02 A2974 RMK A01,M
10U,2024-01-22 15:35,-116.1876,41.9532,1637.00,35.60,33.80,93.08,130.00,8.00,0.00,29.75,M,8.00,M,SCT,BKN,BKN,M,1900.00,3000.00,3500.00,M,UP,M,M,M,M,M,M,28.55,K10U 221535Z AUTO 13008KT 8SM UP SCT019 BKN030 BKN035 02/01 A2975 RMK AO2,M
TMT,2024-01-22 15:35,-117.1971,39.4643,1749.34,34.00,33.00,96.08,160.00,4.00,0.00,29.78,M,10.00,M,SCT,OVC,M,M,3300.00,3800.00,M,M,-RA,M,M,M,M,M,M,29.76,KTMT 221535Z AUTO 16004KT 10SM -RA SCT033 OVC038 01/01 A2978 RMK AO2 T00110006,M
LAS,2024-01-22 15:39,-115.1634,36.0719,663.00,50.00,48.00,92.80,0.00,0.00,0.00,29.86,M,7.00,M,BKN,BKN,OVC,M,500.00,4800.00,7500.00,M,M,M,M,M,M,M,M,50.00,KLAS 221539Z 00000KT 7SM BKN005 BKN048 OVC075 10/09 A2986 RMK AO2 T01000089,M
TPH,2024-01-22 15:43,-117.0904,38.0505,1654.00,38.00,36.00,92.42,130.00,10.00,T,29.79,M,10.00,M,OVC,M,M,M,1000.00,M,M,M,M,M,M,M,M,M,M,30.49,KTPH 221543Z AUTO 13010KT 10SM OVC010 03/02 A2979 RMK AO2 RAE06B23E42 CIG 006V011 P0000 T00330022,M
EKO,2024-01-22 15:45,-115.7860,40.8242,1367.00,34.00,32.00,92.29,30.00,4.00,0.04,29.79,M,3.00,M,BKN,OVC,M,M,1300.00,1800.00,M,M,-SN BR,M,M,M,M,M,M,29.76,KEKO 221545Z AUTO 03004KT 3SM -SN BR BKN013 OVC018 01/00 A2979 RMK AO2 RAE22SNB22 P0004 T00110000,M
P68,2024-01-22 15:53,-116.0056,39.6014,1993.00,33.00,32.00,96.06,0.00,0.00,0.01,29.79,1008.00,M,M,M,M,M,M,M,M,M,M,M,M,M,M,M,M,M,33.00,KP68 221553Z AUTO 00000KT 01/00 A2979 RMK AO1 SLP080 P0001 T00060000,M
DRA,2024-01-22 15:53,-116.0278,36.6206,1009.00,46.00,43.00,89.20,130.00,9.00,0.00,29.83,1008.80,10.00,M,FEW,OVC,M,M,3800.00,5000.00,M,M,M,M,M,M,M,M,M,40.92,KDRA 221553Z AUTO 13009KT 10SM FEW038 OVC050 08/06 A2983 RMK AO2 SLP088 T00780061 $,M
ELY,2024-01-22 15:53,-114.8453,39.2950,1909.00,33.00,28.00,81.63,210.00,11.00,0.00,29.83,1010.20,10.00,M,OVC,M,M,M,4200.00,M,M,M,M,M,M,M,M,M,M,23.73,KELY 221553Z AUTO 21011KT 10SM OVC042 01/M02 A2983 RMK AO2 SLP102 T00061022,M
VGT,2024-01-22 15:53,-115.1933,36.2111,667.00,51.00,48.00,89.42,0.00,0.00,0.00,29.86,1012.70,9.00,M,OVC,M,M,M,800.00,M,M,M,M,M,M,M,M,M,M,51.00,KVGT 221553Z 00000KT 9SM OVC008 11/09 A2986 RMK AO2 SLP127 T01060089,M
LOL,2024-01-22 15:53,-118.5701,40.0684,1192.43,41.00,39.00,92.52,40.00,7.00,0.01,29.72,1006.60,6.00,M,OVC,M,M,M,3500.00,M,M,M,RA BR,M,M,M,M,M,M,35.75,KLOL 221553Z AUTO 04007KT 6SM RA BR OVC035 05/04 A2972 RMK AO2 RAB28 SLP066 P0001 T00500039,M
LAS,2024-01-22 15:53,-115.1634,36.0719,663.00,50.00,48.20,93.50,0.00,0.00,0.00,29.87,M,6.00,M,SCT,BKN,OVC,M,500.00,2500.00,4800.00,M,BR,M,M,M,M,M,M,50.00,KLAS 221553Z 00000KT 6SM BR SCT005 BKN025 OVC048 10/09 A2987 RMK AO2,M
BVU,2024-01-22 15:55,-114.8611,35.9475,671.00,51.80,48.20,87.47,130.00,11.00,0.00,29.87,M,10.00,M,SCT,BKN,OVC,M,2100.00,2500.00,3400.00,M,M,M,M,M,M,M,M,51.80,KBVU 221555Z AUTO 13011KT 10SM SCT021 BKN025 OVC034 11/09 A2987 RMK AO2,M
CXP,2024-01-22 15:55,-119.7326,39.1923,1431.00,42.80,32.00,65.38,340.00,4.00,0.00,29.72,M,10.00,M,BKN,OVC,M,M,4400.00,5000.00,M,M,M,M,M,M,M,M,M,40.03,KCXP 221555Z AUTO 34004KT 10SM BKN044 OVC050 06/00 A2972 RMK AO2,M
INS,2024-01-22 15:55,-115.6733,36.5872,955.00,47.00,44.00,89.24,120.00,8.00,0.00,29.84,1009.20,10.00,M,FEW,FEW,M,M,3400.00,15000.00,M,M,M,M,M,M,M,M,M,42.59,KINS 221555Z AUTO 12008KT 10SM FEW034 FEW150 08/07 A2984 RMK AO2 SLP092 T00830066,M
RNO,2024-01-22 15:55,-119.7711,39.4839,1341.00,43.00,37.00,79.19,50.00,5.00,T,29.72,1004.50,10.00,M,BKN,OVC,M,M,5000.00,12000.00,M,M,M,M,M,M,M,M,M,39.46,KRNO 221555Z 05005KT 10SM BKN050 OVC120 06/03 A2972 RMK AO2 RAE1458 SLP045 MTN TOPS OBSCD SW THRU W P0000 T00610028,M
RTS,2024-01-22 15:55,-119.8764,39.6682,1539.00,37.40,37.40,100.00,0.00,0.00,0.00,29.72,M,10.00,M,FEW,OVC,M,M,3100.00,4300.00,M,M,M,M,M,M,M,M,M,37.40,KRTS 221555Z AUTO 00000KT 10SM FEW031 OVC043 03/03 A2972 RMK AO2,M
05U,2024-01-22 15:55,-116.0051,39.6042,1811.23,33.80,32.00,93.03,0.00,0.00,0.00,29.82,M,5.00,M,M,M,M,M,M,M,M,M,BR,M,M,M,M,M,M,33.80,K05U 221555Z AUTO 00000KT 5SM BR 01/00 A2982 RMK A01,M
MEV,2024-01-22 15:55,-119.7500,38.9963,1441.42,41.00,32.00,70.08,200.00,3.00,0.00,29.70,M,10.00,M,SCT,OVC,M,M,4800.00,5500.00,M,M,M,M,M,M,M,M,M,38.98,KMEV 221555Z AUTO 20003KT 10SM SCT048 OVC055 05/00 A2970 RMK AO2,M
BAM,2024-01-22 15:55,-116.8743,40.5990,1382.36,39.20,37.40,93.19,40.00,4.00,0.00,29.76,M,10.00,M,BKN,OVC,M,M,2700.00,3200.00,M,M,M,M,M,M,M,M,M,35.83,KBAM 221555Z AUTO 04004KT 10SM BKN027 OVC032 04/03 A2976 RMK AO1,M
HTH,2024-01-22 15:55,-118.6315,38.5448,1282.89,44.60,35.60,70.48,130.00,12.00,0.00,29.74,M,10.00,M,FEW,BKN,OVC,M,4000.00,4900.00,5500.00,M,M,M,M,M,M,M,M,38.04,KHTH 221555Z AUTO 13012KT 10SM FEW040 BKN049 OVC055 07/02 A2974 RMK A01,M
10U,2024-01-22 15:55,-116.1876,41.9532,1637.00,35.60,33.80,93.08,120.00,7.00,0.00,29.76,M,7.00,M,BKN,BKN,OVC,M,1900.00,2400.00,2900.00,M,UP,M,M,M,M,M,M,29.17,K10U 221555Z AUTO 12007KT 7SM UP BKN019 BKN024 OVC029 02/01 A2976 RMK AO2,M
LSV,2024-01-22 15:55,-115.0343,36.2362,570.00,52.70,48.00,83.98,130.00,7.00,0.00,29.84,1009.90,10.00,M,SCT,OVC,M,M,1600.00,2300.00,M,M,M,M,M,M,M,M,M,52.70,KLSV 221555Z AUTO 13007KT 10SM SCT016 OVC023 12/09 A2984 RMK AO2 CIG 015V023 SLP099 T01150089 $,M
TMT,2024-01-22 15:55,-117.1971,39.4643,1749.34,34.00,33.40,97.63,160.00,3.00,0.00,29.78,M,10.00,M,OVC,M,M,M,3400.00,M,M,M,-DZ,M,M,M,M,M,M,30.97,KTMT 221555Z AUTO 16003KT 10SM -DZ OVC034 01/01 A2978 RMK AO2 T00120008,M
EKO,2024-01-22 15:56,-115.7860,40.8242,1367.00,34.00,32.00,92.29,40.00,4.00,0.05,29.79,1009.90,4.00,M,BKN,OVC,M,M,1100.00,1800.00,M,M,-SN BR,M,M,M,M,M,M,29.76,KEKO 221556Z AUTO 04004KT 4SM -SN BR BKN011 OVC018 01/00 A2979 RMK AO2 RAE22SNB22 SLP099 P0005 T00110000,M
NFL,2024-01-22 15:56,-118.7010,39.4166,1199.00,47.00,35.00,62.84,150.00,13.00,0.00,29.70,1004.00,10.00,M,FEW,BKN,OVC,M,5000.00,9000.00,12000.00,M,M,M,M,M,M,M,M,40.79,KNFL 221556Z 15013KT 10SM FEW050 BKN090 OVC120 08/02 A2970 RMK AO2 SLP040 T00830017,M
HND,2024-01-22 15:56,-115.1344,35.9729,742.79,45.00,45.00,100.00,0.00,0.00,0.00,29.88,1013.80,0.25,M,OVC,M,M,M,200.00,M,M,M,FG,M,M,M,M,M,M,45.00,KHND 221556Z 00000KT M1/4SM FG OVC002 07/07 A2988 RMK AO2 SLP138 T00720072,M
TPH,2024-01-22 15:56,-117.0904,38.0505,1654.00,38.00,36.00,92.42,130.00,10.00,T,29.79,1008.50,10.00,M,BKN,OVC,M,M,900.00,1200.00,M,M,M,M,M,M,M,M,M,30.49,KTPH 221556Z AUTO 13010KT 10SM BKN009 OVC012 03/02 A2979 RMK AO2 RAE06B23E42 CIG 006V010 SLP085 P0000 T00330022,M
LAS,2024-01-22 15:56,-115.1634,36.0719,663.00,50.00,48.00,92.80,0.00,0.00,0.00,29.87,1011.00,6.00,M,SCT,BKN,OVC,M,500.00,2500.00,4800.00,M,BR,M,M,M,M,M,M,50.00,KLAS 221556Z 00000KT 6SM BR SCT005 BKN025 OVC048 10/09 A2987 RMK AO2 SLP110 T01000089,M
WMC,2024-01-22 15:56,-117.8072,40.9019,1315.00,40.00,37.00,88.92,130.00,4.00,0.00,29.73,1006.40,10.00,M,OVC,M,M,M,3500.00,M,M,M,M,M,M,M,M,M,M,36.76,KWMC 221556Z AUTO 13004KT 10SM OVC035 04/03 A2973 RMK AO2 SLP064 T00440028,M
EKO,2024-01-22 16:14,-115.7860,40.8242,1367.00,34.00,32.00,92.29,50.00,4.00,0.01,29.80,M,5.00,M,SCT,SCT,OVC,M,1100.00,1600.00,2200.00,M,-RA BR,M,M,M,M,M,M,29.76,KEKO 221614Z AUTO 05004KT 5SM -RA BR SCT011 SCT016 OVC022 01/00 A2980 RMK AO2 RAB05UPB11E13SNE05 P0001 T00110000,M
BVU,2024-01-22 16:15,-114.8611,35.9475,671.00,51.80,48.20,87.47,120.00,9.00,0.00,29.88,M,10.00,M,BKN,BKN,OVC,M,1700.00,2600.00,3100.00,M,M,M,M,M,M,M,M,51.80,KBVU 221615Z AUTO 12009KT 10SM BKN017 BKN026 OVC031 11/09 A2988 RMK AO2,M
CXP,2024-01-22 16:15,-119.7326,39.1923,1431.00,44.60,33.80,65.61,0.00,0.00,0.00,29.73,M,10.00,M,BKN,OVC,M,M,3300.00,4100.00,M,M,-RA,M,M,M,M,M,M,44.60,KCXP 221615Z AUTO 00000KT 10SM -RA BKN033 OVC041 07/01 A2973 RMK AO2,M
RTS,2024-01-22 16:15,-119.8764,39.6682,1539.00,37.40,37.40,100.00,0.00,0.00,0.00,29.73,M,10.00,M,FEW,OVC,M,M,3300.00,4100.00,M,M,M,M,M,M,M,M,M,37.40,KRTS 221615Z AUTO 00000KT 10SM FEW033 OVC041 03/03 A2973 RMK AO2,M
05U,2024-01-22 16:15,-116.0051,39.6042,1811.23,33.80,32.00,93.03,0.00,0.00,0.00,29.82,M,4.00,M,M,M,M,M,M,M,M,M,BR,M,M,M,M,M,M,33.80,K05U 221615Z AUTO 00000KT 4SM BR 01/00 A2982 RMK A01,M
MEV,2024-01-22 16:15,-119.7500,38.9963,1441.42,41.00,33.80,75.33,0.00,0.00,0.00,29.71,M,10.00,M,FEW,SCT,OVC,M,4000.00,4600.00,5000.00,M,M,M,M,M,M,M,M,41.00,KMEV 221615Z AUTO 00000KT 10SM FEW040 SCT046 OVC050 05/01 A2971 RMK AO2,M
BAM,2024-01-22 16:15,-116.8743,40.5990,1382.36,39.20,37.40,93.19,40.00,4.00,0.00,29.77,M,10.00,M,BKN,OVC,M,M,3200.00,4500.00,M,M,M,M,M,M,M,M,M,35.83,KBAM 221615Z AUTO 04004KT 10SM BKN032 OVC045 04/03 A2977 RMK AO1,M
HTH,2024-01-22 16:15,-118.6315,38.5448,1282.89,46.40,35.60,65.83,130.00,12.00,0.00,29.75,M,10.00,M,FEW,SCT,BKN,M,3200.00,3700.00,4800.00,M,M,M,M,M,M,M,M,40.33,KHTH 221615Z AUTO 13012KT 10SM FEW032 SCT037 BKN048 08/02 A2975 RMK A01,M
10U,2024-01-22 16:15,-116.1876,41.9532,1637.00,35.60,33.80,93.08,120.00,7.00,0.00,29.76,M,10.00,M,FEW,BKN,OVC,M,2000.00,2600.00,4900.00,M,M,M,M,M,M,M,M,29.17,K10U 221615Z AUTO 12007KT 10SM FEW020 BKN026 OVC049 02/01 A2976 RMK AO2,M
TMT,2024-01-22 16:15,-117.1971,39.4643,1749.34,34.00,33.60,98.41,0.00,0.00,0.00,29.78,M,10.00,M,BKN,OVC,M,M,3400.00,4100.00,M,M,M,M,M,M,M,M,M,34.00,KTMT 221615Z AUTO 00000KT 10SM BKN034 OVC041 01/01 A2978 RMK AO2 T00120009,M
TPH,2024-01-22 16:17,-117.0904,38.0505,1654.00,38.00,37.00,96.14,130.00,12.00,0.00,29.79,M,10.00,M,OVC,M,M,M,1000.00,M,M,M,M,M,M,M,M,M,M,29.64,KTPH 221617Z AUTO 13012KT 10SM OVC010 03/03 A2979 RMK AO2 CIG 006V013 T00330028,M
HND,2024-01-22 16:20,-115.1344,35.9729,742.79,46.40,44.60,93.40,0.00,0.00,0.00,29.89,M,0.75,M,BKN,OVC,M,M,200.00,7000.00,M,M,BR,M,M,M,M,M,M,46.40,KHND 221620Z 00000KT 3/4SM BR BKN002 OVC070 08/07 A2989 RMK AO2,M
HND,2024-01-22 16:22,-115.1344,35.9729,742.79,46.40,44.60,93.40,0.00,0.00,0.00,29.89,M,1.25,M,BKN,OVC,M,M,200.00,7000.00,M,M,BR,M,M,M,M,M,M,46.40,KHND 221622Z 00000KT 1 1/4SM BR BKN002 OVC070 08/07 A2989 RMK AO2,M
BVU,2024-01-22 16:35,-114.8611,35.9475,671.00,51.80,48.20,87.47,140.00,10.00,0.00,29.89,M,10.00,M,BKN,BKN,OVC,M,1800.00,2500.00,3400.00,M,M,M,M,M,M,M,M,51.80,KBVU 221635Z AUTO 14010KT 10SM BKN018 BKN025 OVC034 11/09 A2989 RMK AO2,M
CXP,2024-01-22 16:35,-119.7326,39.1923,1431.00,44.60,35.60,70.48,110.00,4.00,0.00,29.73,M,10.00,M,OVC,M,M,M,3000.00,M,M,M,-RA,M,M,M,M,M,M,42.13,KCXP 221635Z AUTO 11004KT 10SM -RA OVC030 07/02 A2973 RMK AO2,M
HND,2024-01-22 16:35,-115.1344,35.9729,742.79,46.40,46.40,100.00,0.00,0.00,0.00,29.90,M,3.00,M,FEW,BKN,M,M,200.00,4500.00,M,M,BR,M,M,M,M,M,M,46.40,KHND 221635Z 00000KT 3SM BR FEW002 BKN045 08/08 A2990 RMK AO2,M
RTS,2024-01-22 16:35,-119.8764,39.6682,1539.00,37.40,37.40,100.00,0.00,0.00,0.00,29.74,M,10.00,M,SCT,SCT,M,M,4100.00,5500.00,M,M,M,M,M,M,M,M,M,37.40,KRTS 221635Z AUTO 00000KT 10SM SCT041 SCT055 03/03 A2974 RMK AO2,M
TPH,2024-01-22 16:35,-117.0904,38.0505,1654.00,38.00,37.00,96.14,140.00,12.00,0.01,29.80,M,9.00,M,OVC,M,M,M,800.00,M,M,M,-RA,M,M,M,M,M,M,29.64,KTPH 221635Z AUTO 14012KT 9SM -RA OVC008 03/03 A2980 RMK AO2 RAB21 CIG 006V013 P0001 T00330028,M
05U,2024-01-22 16:35,-116.0051,39.6042,1811.23,35.60,33.80,93.08,0.00,0.00,0.00,29.83,M,5.00,M,M,M,M,M,M,M,M,M,BR,M,M,M,M,M,M,35.60,K05U 221635Z AUTO 00000KT 5SM BR 02/01 A2983 RMK A01,M
MEV,2024-01-22 16:35,-119.7500,38.9963,1441.42,41.00,35.60,80.93,100.00,8.00,0.00,29.71,M,9.00,M,FEW,SCT,BKN,M,2700.00,3500.00,4500.00,M,-RA,M,M,M,M,M,M,35.20,KMEV 221635Z AUTO 10008KT 9SM -RA FEW027 SCT035 BKN045 05/02 A2971 RMK AO2,M
BAM,2024-01-22 16:35,-116.8743,40.5990,1382.36,41.00,37.40,86.89,50.00,4.00,0.00,29.77,M,10.00,M,SCT,OVC,M,M,3200.00,4500.00,M,M,M,M,M,M,M,M,M,37.93,KBAM 221635Z AUTO 05004KT 10SM SCT032 OVC045 05/03 A2977 RMK AO1,M
HTH,2024-01-22 16:35,-118.6315,38.5448,1282.89,44.60,35.60,70.48,130.00,12.00,0.00,29.76,M,10.00,M,BKN,BKN,OVC,M,3200.00,3800.00,4300.00,M,M,M,M,M,M,M,M,38.04,KHTH 221635Z AUTO 13012KT 10SM BKN032 BKN038 OVC043 07/02 A2976 RMK A01,M
10U,2024-01-22 16:35,-116.1876,41.9532,1637.00,35.60,33.80,93.08,120.00,7.00,0.00,29.76,M,10.00,M,FEW,SCT,BKN,M,2700.00,3100.00,4200.00,M,M,M,M,M,M,M,M,29.17,K10U 221635Z AUTO 12007KT 10SM FEW027 SCT031 BKN042 02/01 A2976 RMK AO2,M
LSV,2024-01-22 16:35,-115.0343,36.2362,570.00,53.60,48.20,81.87,150.00,6.00,0.00,29.86,1010.60,10.00,M,OVC,M,M,M,2100.00,M,M,M,M,M,M,M,M,M,M,53.60,KLSV 221635Z AUTO 15006KT 10SM OVC021 12/09 A2986 RMK AO2 SLP106 $,M
TMT,2024-01-22 16:35,-117.1971,39.4643,1749.34,34.30,33.80,98.02,0.00,0.00,0.00,29.78,M,10.00,M,BKN,BKN,OVC,M,3700.00,4300.00,7000.00,M,M,M,M,M,M,M,M,34.30,KTMT 221635Z AUTO 00000KT 10SM BKN037 BKN043 OVC070 01/01 A2978 RMK AO2 T00130010,M
VGT,2024-01-22 16:36,-115.1933,36.2111,667.00,51.00,48.00,89.42,120.00,4.00,0.00,29.88,M,10.00,M,SCT,BKN,OVC,M,900.00,2000.00,2900.00,M,M,M,M,M,M,M,M,51.00,KVGT 221636Z 12004KT 10SM SCT009 BKN020 OVC029 11/09 A2988 RMK AO2 T01060089,M
LSV,2024-01-22 16:45,-115.0343,36.2362,570.00,53.60,48.20,81.87,130.00,5.00,0.00,29.86,1010.70,10.00,M,OVC,M,M,M,1900.00,M,M,M,M,M,M,M,M,M,M,53.60,KLSV 221645Z AUTO 13005KT 10SM OVC019 12/09 A2986 RMK AO2 OVC V BKN SLP107 $,M
VGT,2024-01-22 16:50,-115.1933,36.2111,667.00,51.80,48.20,87.47,110.00,4.00,0.00,29.88,M,10.00,M,BKN,M,M,M,3800.00,M,M,M,M,M,M,M,M,M,M,51.80,KVGT 221650Z 11004KT 10SM BKN038 11/09 A2988 RMK AO2,M
P68,2024-01-22 16:53,-116.0056,39.6014,1993.00,36.00,33.00,88.73,170.00,3.00,0.01,29.80,1007.60,M,M,M,M,M,M,M,M,M,M,M,M,M,M,M,M,M,33.26,KP68 221653Z AUTO 17003KT 02/01 A2980 RMK AO1 SLP076 P0001 T00220006,M
DRA,2024-01-22 16:53,-116.0278,36.6206,1009.00,46.00,43.00,89.20,100.00,5.00,0.00,29.84,1009.20,10.00,M,FEW,OVC,M,M,4200.00,5000.00,M,M,M,M,M,M,M,M,M,43.02,KDRA 221653Z AUTO 10005KT 10SM FEW042 OVC050 08/06 A2984 RMK AO2 SLP092 T00780061 $,M
ELY,2024-01-22 16:53,-114.8453,39.2950,1909.00,36.00,28.00,72.43,210.00,7.00,0.00,29.85,1010.10,10.00,M,OVC,M,M,M,3600.00,M,M,M,M,M,M,M,M,M,M,29.65,KELY 221653Z AUTO 21007KT 10SM OVC036 02/M02 A2985 RMK AO2 SLP101 T00221022,M
VGT,2024-01-22 16:53,-115.1933,36.2111,667.00,52.00,48.00,86.17,120.00,4.00,0.00,29.88,1013.40,10.00,M,BKN,M,M,M,3800.00,M,M,M,M,M,M,M,M,M,M,52.00,KVGT 221653Z 12004KT 10SM BKN038 11/09 A2988 RMK AO2 SLP134 T01110089,M
LOL,2024-01-22 16:53,-118.5701,40.0684,1192.43,42.00,40.00,92.55,70.00,5.00,0.04,29.74,1007.30,10.00,M,OVC,M,M,M,3900.00,M,M,M,-RA,M,M,M,M,M,M,38.27,KLOL 221653Z AUTO 07005KT 10SM -RA OVC039 06/04 A2974 RMK AO2 SLP073 P0004 T00560044,M
BVU,2024-01-22 16:55,-114.8611,35.9475,671.00,51.80,48.20,87.47,130.00,8.00,0.00,29.89,M,10.00,14.00,BKN,OVC,M,M,1800.00,2400.00,M,M,M,M,M,M,M,M,M,51.80,KBVU 221655Z AUTO 13008G14KT 10SM BKN018 OVC024 11/09 A2989 RMK AO2,M
CXP,2024-01-22 16:55,-119.7326,39.1923,1431.00,42.80,35.60,75.50,80.00,8.00,0.00,29.74,M,10.00,M,FEW,BKN,BKN,M,2500.00,3300.00,4200.00,M,-RA,M,M,M,M,M,M,37.42,KCXP 221655Z AUTO 08008KT 10SM -RA FEW025 BKN033 BKN042 06/02 A2974 RMK AO2,M
INS,2024-01-22 16:55,-115.6733,36.5872,955.00,48.00,44.40,87.27,100.00,12.00,0.00,29.84,1009.00,10.00,M,BKN,BKN,M,M,8000.00,15000.00,M,M,M,M,M,M,M,M,M,42.37,KINS 221655Z AUTO 10012KT 10SM BKN080 BKN150 09/07 A2984 RMK AO2 SLP090 T00890069,M
RNO,2024-01-22 16:55,-119.7711,39.4839,1341.00,43.00,37.00,79.19,350.00,3.00,0.00,29.73,1005.00,10.00,M,FEW,BKN,OVC,M,3000.00,8500.00,14000.00,M,M,M,M,M,M,M,M,41.26,KRNO 221655Z 35003KT 10SM FEW030 BKN085 OVC140 06/03 A2973 RMK AO2 SLP050 MTN TOPS OBSCD SW THRU NW T00610028,M
RTS,2024-01-22 16:55,-119.8764,39.6682,1539.00,39.20,37.40,93.19,120.00,3.00,0.00,29.75,M,10.00,M,SCT,SCT,SCT,M,3100.00,3800.00,6000.00,M,M,M,M,M,M,M,M,36.92,KRTS 221655Z AUTO 12003KT 10SM SCT031 SCT038 SCT060 04/03 A2975 RMK AO2,M
05U,2024-01-22 16:55,-116.0051,39.6042,1811.23,35.60,33.80,93.08,0.00,0.00,0.00,29.83,M,8.00,M,M,M,M,M,M,M,M,M,M,M,M,M,M,M,M,35.60,K05U 221655Z AUTO 00000KT 8SM 02/01 A2983 RMK A01,M
MEV,2024-01-22 16:55,-119.7500,38.9963,1441.42,42.80,35.60,75.50,110.00,4.00,0.00,29.72,M,10.00,M,FEW,BKN,BKN,M,3300.00,4700.00,5000.00,M,M,M,M,M,M,M,M,40.03,KMEV 221655Z AUTO 11004KT 10SM FEW033 BKN047 BKN050 06/02 A2972 RMK AO2,M
BAM,2024-01-22 16:55,-116.8743,40.5990,1382.36,41.00,37.40,86.89,50.00,5.00,0.00,29.78,M,10.00,M,SCT,BKN,OVC,M,2900.00,4700.00,7500.00,M,M,M,M,M,M,M,M,37.08,KBAM 221655Z AUTO 05005KT 10SM SCT029 BKN047 OVC075 05/03 A2978 RMK AO1,M
HTH,2024-01-22 16:55,-118.6315,38.5448,1282.89,44.60,39.20,81.20,110.00,10.00,0.00,29.76,M,10.00,M,SCT,BKN,M,M,3500.00,4100.00,M,M,M,M,M,M,M,M,M,38.77,KHTH 221655Z AUTO 11010KT 10SM SCT035 BKN041 07/04 A2976 RMK A01,M
LSV,2024-01-22 16:55,-115.0343,36.2362,570.00,53.40,48.40,83.09,130.00,6.00,0.00,29.86,1010.70,10.00,M,BKN,BKN,M,M,1900.00,2500.00,M,M,M,M,M,M,M,M,M,53.40,KLSV 221655Z AUTO 13006KT 10SM BKN019 BKN025 12/09 A2986 RMK AO2 BKN019 V OVC SLP107 T01190091 $,M
TMT,2024-01-22 16:55,-117.1971,39.4643,1749.34,35.20,34.00,95.33,0.00,0.00,0.00,29.79,M,10.00,M,SCT,BKN,OVC,M,3700.00,4800.00,7000.00,M,M,M,M,M,M,M,M,35.20,KTMT 221655Z AUTO 00000KT 10SM SCT037 BKN048 OVC070 02/01 A2979 RMK AO2 T00180012,M
10U,2024-01-22 16:55,-116.1876,41.9532,1637.00,35.60,33.80,93.08,140.00,7.00,0.00,29.77,M,10.00,M,BKN,OVC,M,M,3400.00,4100.00,M,M,M,M,M,M,M,M,M,29.17,K10U 221655Z AUTO 14007KT 10SM BKN034 OVC041 02/01 A2977 RMK AO2,M
EKO,2024-01-22 16:56,-115.7860,40.8242,1367.00,34.00,32.00,92.29,60.00,5.00,0.03,29.80,1010.30,8.00,M,FEW,BKN,OVC,M,1100.00,1900.00,2800.00,M,M,M,M,M,M,M,M,28.77,KEKO 221656Z AUTO 06005KT 8SM FEW011 BKN019 OVC028 01/00 A2980 RMK AO2 RAB05E45UPB11E13B45E54SNE05 SLP103 P0003 T00110000,M
NFL,2024-01-22 16:56,-118.7010,39.4166,1199.00,47.00,36.00,65.38,170.00,9.00,0.00,29.73,1004.70,10.00,M,FEW,BKN,OVC,M,6500.00,9000.00,11000.00,M,M,M,M,M,M,M,M,42.17,KNFL 221656Z 17009KT 10SM FEW065 BKN090 OVC110 08/02 A2973 RMK AO2 SLP047 T00830022,M
HND,2024-01-22 16:56,-115.1344,35.9729,742.79,47.00,47.00,100.00,0.00,0.00,0.00,29.90,1014.20,3.00,M,FEW,BKN,M,M,200.00,4500.00,M,M,BR,M,M,M,M,M,M,47.00,KHND 221656Z 00000KT 3SM BR FEW002 BKN045 08/08 A2990 RMK AO2 SLP142 T00830083,M
TPH,2024-01-22 16:56,-117.0904,38.0505,1654.00,38.00,37.00,96.14,130.00,13.00,0.02,29.80,1008.80,8.00,M,OVC,M,M,M,900.00,M,M,M,-RA,M,M,M,M,M,M,29.26,KTPH 221656Z AUTO 13013KT 8SM -RA OVC009 03/03 A2980 RMK AO2 RAB21 CIG 008V015 SLP088 P0002 T00330028,M
WMC,2024-01-22 16:56,-117.8072,40.9019,1315.00,42.00,38.00,85.60,90.00,3.00,0.00,29.76,1007.10,10.00,M,OVC,M,M,M,3500.00,M,M,M,M,M,M,M,M,M,M,40.12,KWMC 221656Z AUTO 09003KT 10SM OVC035 06/03 A2976 RMK AO2 SLP071 T00560033,M
LAS,2024-01-22 16:57,-115.1634,36.0719,663.00,51.00,48.00,89.42,0.00,0.00,0.00,29.88,M,7.00,M,SCT,BKN,OVC,M,500.00,2100.00,4800.00,M,M,M,M,M,M,M,M,51.00,KLAS 221657Z 00000KT 7SM SCT005 BKN021 OVC048 11/09 A2988 RMK AO2 T01060089 $,M
VGT,2024-01-22 17:00,-115.1933,36.2111,667.00,52.00,48.00,86.17,100.00,4.00,0.00,29.88,M,10.00,M,SCT,SCT,BKN,M,800.00,1900.00,2600.00,M,M,M,M,M,M,M,M,52.00,KVGT 221700Z 10004KT 10SM SCT008 SCT019 BKN026 11/09 A2988 RMK AO2 T01110089,M
HND,2024-01-22 17:03,-115.1344,35.9729,742.79,48.20,46.40,93.45,0.00,0.00,0.00,29.90,M,2.50,M,SCT,OVC,M,M,1700.00,7000.00,M,M,BR,M,M,M,M,M,M,48.20,KHND 221703Z 00000KT 2 1/2SM BR SCT017 OVC070 09/08 A2990 RMK AO2,M
LSV,2024-01-22 17:05,-115.0343,36.2362,570.00,53.60,48.20,81.87,130.00,7.00,0.00,29.86,1010.60,10.00,M,BKN,BKN,M,M,2100.00,2800.00,M,M,M,M,M,M,M,M,M,53.60,KLSV 221705Z AUTO 13007KT 10SM BKN021 BKN028 12/09 A2986 RMK AO2 SLP106 $,M
HND,2024-01-22 17:07,-115.1344,35.9729,742.79,48.20,46.40,93.45,0.00,0.00,0.00,29.90,M,3.00,M,BKN,OVC,M,M,1700.00,7000.00,M,M,BR,M,M,M,M,M,M,48.20,KHND 221707Z 00000KT 3SM BR BKN017 OVC070 09/08 A2990 RMK AO2,M
WMC,2024-01-22 17:08,-117.8072,40.9019,1315.00,42.00,38.00,85.60,80.00,3.00,0.00,29.76,M,10.00,M,FEW,OVC,M,M,800.00,3300.00,M,M,M,M,M,M,M,M,M,40.12,KWMC 221708Z AUTO 08003KT 10SM FEW008 OVC033 06/03 A2976 RMK AO2 T00560033,M
VGT,2024-01-22 17:13,-115.1933,36.2111,667.00,52.00,48.00,86.17,110.00,5.00,0.00,29.88,M,10.00,M,BKN,BKN,OVC,M,800.00,1300.00,2500.00,M,M,M,M,M,M,M,M,52.00,KVGT 221713Z 11005KT 10SM BKN008 BKN013 OVC025 11/09 A2988 RMK AO2 T01110089,M
BVU,2024-01-22 17:15,-114.8611,35.9475,671.00,51.80,48.20,87.47,150.00,13.00,0.00,29.89,M,10.00,M,BKN,OVC,M,M,2000.00,2500.00,M,M,M,M,M,M,M,M,M,51.80,KBVU 221715Z AUTO 15013KT 10SM BKN020 OVC025 11/09 A2989 RMK AO2,M
CXP,2024-01-22 17:15,-119.7326,39.1923,1431.00,42.80,37.40,81.07,70.00,8.00,0.00,29.75,M,10.00,M,FEW,SCT,SCT,M,3300.00,4200.00,5000.00,M,M,M,M,M,M,M,M,37.42,KCXP 221715Z AUTO 07008KT 10SM FEW033 SCT042 SCT050 06/03 A2975 RMK AO2,M
RTS,2024-01-22 17:15,-119.8764,39.6682,1539.00,39.20,37.40,93.19,0.00,0.00,0.00,29.75,M,10.00,M,SCT,SCT,OVC,M,3100.00,3800.00,4700.00,M,M,M,M,M,M,M,M,39.20,KRTS 221715Z AUTO 00000KT 10SM SCT031 SCT038 OVC047 04/03 A2975 RMK AO2,M
05U,2024-01-22 17:15,-116.0051,39.6042,1811.23,37.40,33.80,86.69,0.00,0.00,0.00,29.83,M,10.00,M,M,M,M,M,M,M,M,M,M,M,M,M,M,M,M,37.40,K05U 221715Z AUTO 00000KT 10SM 03/01 A2983 RMK A01,M
MEV,2024-01-22 17:15,-119.7500,38.9963,1441.42,44.60,37.40,75.68,100.00,5.00,0.00,29.73,M,10.00,M,FEW,BKN,OVC,M,2700.00,3300.00,5000.00,M,-RA,M,M,M,M,M,M,41.36,KMEV 221715Z AUTO 10005KT 10SM -RA FEW027 BKN033 OVC050 07/03 A2973 RMK AO2,M
BAM,2024-01-22 17:15,-116.8743,40.5990,1382.36,41.00,39.20,93.24,50.00,5.00,0.00,29.79,M,10.00,M,SCT,BKN,OVC,M,2900.00,4300.00,7500.00,M,M,M,M,M,M,M,M,37.08,KBAM 221715Z AUTO 05005KT 10SM SCT029 BKN043 OVC075 05/04 A2979 RMK AO1,M
HTH,2024-01-22 17:15,-118.6315,38.5448,1282.89,44.60,39.20,81.20,110.00,11.00,0.00,29.77,M,9.00,M,BKN,BKN,M,M,3500.00,4100.00,M,M,M,M,M,M,M,M,M,38.39,KHTH 221715Z AUTO 11011KT 9SM BKN035 BKN041 07/04 A2977 RMK A01,M
10U,2024-01-22 17:15,-116.1876,41.9532,1637.00,37.40,33.80,86.69,130.00,6.00,0.00,29.77,M,10.00,M,SCT,BKN,M,M,3600.00,4700.00,M,M,M,M,M,M,M,M,M,32.03,K10U 221715Z AUTO 13006KT 10SM SCT036 BKN047 03/01 A2977 RMK AO2,M
TMT,2024-01-22 17:15,-117.1971,39.4643,1749.34,36.00,35.20,96.88,190.00,3.00,0.00,29.79,M,10.00,M,BKN,OVC,M,M,4500.00,5000.00,M,M,M,M,M,M,M,M,M,33.26,KTMT 221715Z AUTO 19003KT 10SM BKN045 OVC050 02/02 A2979 RMK AO2 T00230018,M
EKO,2024-01-22 17:17,-115.7860,40.8242,1367.00,35.00,32.00,88.68,60.00,5.00,0.00,29.81,M,10.00,M,BKN,BKN,OVC,M,1300.00,2000.00,2800.00,M,M,M,M,M,M,M,M,29.96,KEKO 221717Z AUTO 06005KT 10SM BKN013 BKN020 OVC028 02/00 A2981 RMK AO2 T00170000,M
VGT,2024-01-22 17:17,-115.1933,36.2111,667.00,52.00,48.00,86.17,120.00,5.00,0.00,29.88,M,10.00,M,SCT,SCT,OVC,M,800.00,1300.00,2500.00,M,M,M,M,M,M,M,M,52.00,KVGT 221717Z 12005KT 10SM SCT008 SCT013 OVC025 11/09 A2988 RMK AO2 T01110089,M
TPH,2024-01-22 17:24,-117.0904,38.0505,1654.00,39.00,37.00,92.45,140.00,13.00,T,29.80,M,10.00,M,BKN,OVC,M,M,1100.00,1700.00,M,M,-RA,M,M,M,M,M,M,30.54,KTPH 221724Z AUTO 14013KT 10SM -RA BKN011 OVC017 04/03 A2980 RMK AO2 P0000 T00390028,M
10U,2024-01-22 17:30,-116.1876,41.9532,1637.00,37.40,33.80,86.69,120.00,5.00,0.00,29.77,M,10.00,M,BKN,OVC,M,M,4700.00,7000.00,M,M,M,M,M,M,M,M,M,32.81,K10U 221730Z AUTO 12005KT 10SM BKN047 OVC070 03/01 A2977 RMK AO2,M
TPH,2024-01-22 17:31,-117.0904,38.0505,1654.00,39.00,37.00,92.45,140.00,13.00,0.01,29.80,M,10.00,M,OVC,M,M,M,900.00,M,M,M,-RA,M,M,M,M,M,M,30.54,KTPH 221731Z AUTO 14013KT 10SM -RA OVC009 04/03 A2980 RMK AO2 CIG 008V012 P0001 T00390028,M
BVU,2024-01-22 17:35,-114.8611,35.9475,671.00,51.80,48.20,87.47,140.00,11.00,0.00,29.89,M,10.00,M,BKN,OVC,M,M,2000.00,2600.00,M,M,M,M,M,M,M,M,M,51.80,KBVU 221735Z AUTO 14011KT 10SM BKN020 OVC026 11/09 A2989 RMK AO2,M
CXP,2024-01-22 17:35,-119.7326,39.1923,1431.00,42.80,37.40,81.07,80.00,5.00,0.00,29.76,M,10.00,M,FEW,SCT,M,M,4000.00,4800.00,M,M,-RA,M,M,M,M,M,M,39.22,KCXP 221735Z AUTO 08005KT 10SM -RA FEW040 SCT048 06/03 A2976 RMK AO2,M
RTS,2024-01-22 17:35,-119.8764,39.6682,1539.00,39.20,37.40,93.19,0.00,0.00,0.00,29.76,M,10.00,M,SCT,M,M,M,4700.00,M,M,M,M,M,M,M,M,M,M,39.20,KRTS 221735Z AUTO 00000KT 10SM SCT047 04/03 A2976 RMK AO2,M
05U,2024-01-22 17:35,-116.0051,39.6042,1811.23,37.40,35.60,93.14,0.00,0.00,0.00,29.83,M,10.00,M,M,M,M,M,M,M,M,M,M,M,M,M,M,M,M,37.40,K05U 221735Z AUTO 00000KT 10SM 03/02 A2983 RMK A01,M
MEV,2024-01-22 17:35,-119.7500,38.9963,1441.42,44.60,37.40,75.68,40.00,5.00,0.00,29.74,M,10.00,M,BKN,M,M,M,3500.00,M,M,M,-RA,M,M,M,M,M,M,41.36,KMEV 221735Z AUTO 04005KT 10SM -RA BKN035 07/03 A2974 RMK AO2,M
BAM,2024-01-22 17:35,-116.8743,40.5990,1382.36,42.80,37.40,81.07,60.00,5.00,0.00,29.79,M,10.00,M,SCT,OVC,M,M,3100.00,4300.00,M,M,M,M,M,M,M,M,M,39.22,KBAM 221735Z AUTO 06005KT 10SM SCT031 OVC043 06/03 A2979 RMK AO1,M
HTH,2024-01-22 17:35,-118.6315,38.5448,1282.89,44.60,41.00,87.09,100.00,11.00,0.00,29.77,M,7.00,M,BKN,BKN,M,M,3300.00,4100.00,M,M,M,M,M,M,M,M,M,38.39,KHTH 221735Z AUTO 10011KT 7SM BKN033 BKN041 07/05 A2977 RMK A01,M
TMT,2024-01-22 17:35,-117.1971,39.4643,1749.34,36.70,35.80,96.50,190.00,3.00,0.00,29.80,M,10.00,M,SCT,BKN,OVC,M,3200.00,4100.00,4800.00,M,M,M,M,M,M,M,M,34.06,KTMT 221735Z AUTO 19003KT 10SM SCT032 BKN041 OVC048 03/02 A2980 RMK AO2 T00260021,M
P68,2024-01-22 17:53,-116.0056,39.6014,1993.00,37.00,33.00,85.29,170.00,6.00,0.00,29.81,1007.70,M,M,M,M,M,M,M,M,M,M,M,M,M,M,M,M,M,31.55,KP68 221753Z AUTO 17006KT 03/01 A2981 RMK AO1 SLP077 60002 T00280006 10033 20006 51006,M
DRA,2024-01-22 17:53,-116.0278,36.6206,1009.00,47.00,44.00,89.24,130.00,6.00,0.01,29.84,1009.20,9.00,M,FEW,OVC,M,M,1700.00,3700.00,M,M,-RA,M,M,M,M,M,M,43.60,KDRA 221753Z AUTO 13006KT 9SM -RA FEW017 OVC037 08/07 A2984 RMK AO2 RAB05 SLP092 P0001 60001 T00830067 10083 20067 51009,M
ELY,2024-01-22 17:53,-114.8453,39.2950,1909.00,36.00,29.00,75.46,190.00,11.00,0.00,29.86,1010.20,10.00,M,OVC,M,M,M,4100.00,M,M,M,M,M,M,M,M,M,M,27.52,KELY 221753Z AUTO 19011KT 10SM OVC041 02/M02 A2986 RMK AO2 SLP102 T00221017 10022 20000 53007,M
VGT,2024-01-22 17:53,-115.1933,36.2111,667.00,52.00,48.00,86.17,110.00,5.00,0.00,29.88,1013.60,10.00,M,FEW,SCT,OVC,M,800.00,1400.00,2500.00,M,M,M,M,M,M,M,M,52.00,KVGT 221753Z 11005KT 10SM FEW008 SCT014 OVC025 11/09 A2988 RMK AO2 SLP136 T01110089 10111 20094 51007,M
LOL,2024-01-22 17:53,-118.5701,40.0684,1192.43,43.00,41.00,92.58,20.00,6.00,0.02,29.76,1007.80,10.00,M,SCT,BKN,OVC,M,3800.00,4600.00,5500.00,M,-RA,M,M,M,M,M,M,38.78,KLOL 221753Z AUTO 02006KT 10SM -RA SCT038 BKN046 OVC055 06/05 A2976 RMK AO2 SLP078 P0002 60007 T00610050 10067 20050 51017,M
BVU,2024-01-22 17:55,-114.8611,35.9475,671.00,51.80,48.20,87.47,160.00,9.00,0.00,29.89,M,10.00,14.00,FEW,BKN,OVC,M,1700.00,2200.00,3900.00,M,M,M,M,M,M,M,M,51.80,KBVU 221755Z AUTO 16009G14KT 10SM FEW017 BKN022 OVC039 11/09 A2989 RMK AO2,M
CXP,2024-01-22 17:55,-119.7326,39.1923,1431.00,42.80,37.40,81.07,90.00,6.00,0.00,29.76,M,10.00,M,BKN,BKN,M,M,4600.00,5000.00,M,M,M,M,M,M,M,M,M,38.54,KCXP 221755Z AUTO 09006KT 10SM BKN046 BKN050 06/03 A2976 RMK AO2,M
INS,2024-01-22 17:55,-115.6733,36.5872,955.00,48.40,44.60,86.63,120.00,11.00,0.00,29.85,1009.50,10.00,M,FEW,OVC,M,M,2200.00,7500.00,M,M,M,M,M,M,M,M,M,43.19,KINS 221755Z AUTO 12011KT 10SM FEW022 OVC075 09/07 A2985 RMK AO2 SLP095 T00910070 10092 20058 52006,M
RNO,2024-01-22 17:55,-119.7711,39.4839,1341.00,45.00,36.00,70.53,360.00,3.00,0.00,29.75,1005.70,10.00,M,FEW,BKN,BKN,M,3000.00,5500.00,12000.00,M,M,M,M,M,M,M,M,43.55,KRNO 221755Z 36003KT 10SM FEW030 BKN055 BKN120 07/02 A2975 RMK AO2 SLP057 MTN TOPS OBSCD SW THRU NW 60000 T00720022 10072 20056 51017,M
RTS,2024-01-22 17:55,-119.8764,39.6682,1539.00,41.00,37.40,86.89,0.00,0.00,0.00,29.76,M,10.00,M,FEW,BKN,M,M,3200.00,4500.00,M,M,M,M,M,M,M,M,M,41.00,KRTS 221755Z AUTO 00000KT 10SM FEW032 BKN045 05/03 A2976 RMK AO2,M
05U,2024-01-22 17:55,-116.0051,39.6042,1811.23,37.40,33.80,86.69,340.00,5.00,0.00,29.83,M,10.00,M,M,M,M,M,M,M,M,M,M,M,M,M,M,M,M,32.81,K05U 221755Z AUTO 34005KT 10SM 03/01 A2983 RMK A01,M
MEV,2024-01-22 17:55,-119.7500,38.9963,1441.42,46.40,35.60,65.83,70.00,4.00,0.00,29.74,M,10.00,M,FEW,M,M,M,3600.00,M,M,M,M,M,M,M,M,M,M,44.24,KMEV 221755Z AUTO 07004KT 10SM FEW036 08/02 A2974 RMK AO2,M
BAM,2024-01-22 17:55,-116.8743,40.5990,1382.36,42.80,39.20,86.99,50.00,6.00,0.00,29.80,M,10.00,M,BKN,OVC,M,M,2900.00,3800.00,M,M,M,M,M,M,M,M,M,38.54,KBAM 221755Z AUTO 05006KT 10SM BKN029 OVC038 06/04 A2980 RMK AO1,M
HTH,2024-01-22 17:55,-118.6315,38.5448,1282.89,44.60,41.00,87.09,110.00,9.00,0.00,29.78,M,10.00,M,FEW,SCT,M,M,3300.00,4000.00,M,M,M,M,M,M,M,M,M,39.18,KHTH 221755Z AUTO 11009KT 10SM FEW033 SCT040 07/05 A2978 RMK A01,M
10U,2024-01-22 17:55,-116.1876,41.9532,1637.00,37.40,33.80,86.69,130.00,7.00,0.00,29.78,M,10.00,M,FEW,SCT,BKN,M,4600.00,7000.00,12000.00,M,M,M,M,M,M,M,M,31.36,K10U 221755Z AUTO 13007KT 10SM FEW046 SCT070 BKN120 03/01 A2978 RMK AO2,M
LSV,2024-01-22 17:55,-115.0343,36.2362,570.00,53.80,48.00,80.66,120.00,7.00,0.00,29.86,1010.70,10.00,M,BKN,M,M,M,2600.00,M,M,M,M,M,M,M,M,M,M,53.80,KLSV 221755Z AUTO 12007KT 10SM BKN026 12/09 A2986 RMK AO2 SLP107 T01210089 10122 20102 51009 $,M
TMT,2024-01-22 17:55,-117.1971,39.4643,1749.34,37.20,35.80,94.62,190.00,3.00,0.00,29.80,M,10.00,M,BKN,OVC,M,M,2100.00,3100.00,M,M,M,M,M,M,M,M,M,34.63,KTMT 221755Z AUTO 19003KT 10SM BKN021 OVC031 03/02 A2980 RMK AO2 60001 T00290021 10029 20000,M
EKO,2024-01-22 17:56,-115.7860,40.8242,1367.00,35.00,33.00,92.32,0.00,0.00,T,29.81,1010.80,7.00,M,BKN,OVC,M,M,1200.00,2700.00,M,M,UP,M,M,0.02,M,M,M,35.00,KEKO 221756Z AUTO 00000KT 7SM UP BKN012 OVC027 02/01 A2981 RMK AO2 UPB23 SLP108 P0000 60014 I6002 T00170006 10017 21006 53008,M
NFL,2024-01-22 17:56,-118.7010,39.4166,1199.00,47.00,38.00,70.74,150.00,10.00,T,29.75,1005.40,10.00,M,SCT,BKN,OVC,M,4500.00,7000.00,10000.00,M,-RA,M,M,M,M,M,M,41.78,KNFL 221756Z 15010KT 10SM -RA SCT045 BKN070 OVC100 08/03 A2975 RMK AO2 RAB33 SLP054 P0000 60000 T00830033 10089 20072 53019,M
HND,2024-01-22 17:56,-115.1344,35.9729,742.79,51.00,47.00,86.12,210.00,4.00,0.00,29.90,1014.00,5.00,M,OVC,M,M,M,1700.00,M,M,M,BR,M,M,M,M,M,M,51.00,KHND 221756Z 21004KT 5SM BR OVC017 11/08 A2990 RMK AO2 SLP140 T01060083 10106 20072 50008,M
TPH,2024-01-22 17:56,-117.0904,38.0505,1654.00,39.00,38.00,96.16,140.00,12.00,0.01,29.81,1008.70,9.00,M,BKN,OVC,M,M,1000.00,1700.00,M,M,-RA,M,M,M,M,M,M,30.91,KTPH 221756Z AUTO 14012KT 9SM -RA BKN010 OVC017 04/03 A2981 RMK AO2 CIG 007V013 SLP087 P0001 60003 T00390033 10039 20028 51007,M
LAS,2024-01-22 17:56,-115.1634,36.0719,663.00,52.00,48.00,86.17,20.00,4.00,T,29.88,1011.50,9.00,M,FEW,BKN,OVC,M,500.00,2100.00,7000.00,M,-RA,M,M,M,M,M,M,52.00,KLAS 221756Z 02004KT 9SM -RA FEW005 BKN021 OVC070 11/09 A2988 RMK AO2 RAB53 SLP115 P0000 60000 T01110089 10117 20094 $,M
WMC,2024-01-22 17:56,-117.8072,40.9019,1315.00,44.00,38.00,79.27,100.00,3.00,0.00,29.77,1007.30,10.00,M,OVC,M,M,M,3500.00,M,M,M,M,M,M,M,M,M,M,42.41,KWMC 221756Z AUTO 10003KT 10SM OVC035 07/03 A2977 RMK AO2 SLP073 60001 T00670033 10067 20044 51014,M
DRA,2024-01-22 18:04,-116.0278,36.6206,1009.00,46.00,44.00,92.68,140.00,6.00,T,29.84,M,8.00,M,FEW,BKN,OVC,M,1700.00,2900.00,3600.00,M,-RA,M,M,M,M,M,M,42.39,KDRA 221804Z AUTO 14006KT 8SM -RA FEW017 BKN029 OVC036 08/07 A2984 RMK AO2 P0000 T00780067,M
TPH,2024-01-22 18:12,-117.0904,38.0505,1654.00,39.00,38.00,96.16,150.00,9.00,0.01,29.81,M,5.00,M,BKN,OVC,M,M,800.00,1200.00,M,M,-RA BR,M,M,M,M,M,M,32.22,KTPH 221812Z AUTO 15009KT 5SM -RA BR BKN008 OVC012 04/03 A2981 RMK AO2 CIG 005V010 P0001 T00390033,M
BVU,2024-01-22 18:15,-114.8611,35.9475,671.00,51.80,48.20,87.47,130.00,8.00,0.00,29.89,M,10.00,13.00,FEW,BKN,OVC,M,2200.00,2800.00,3400.00,M,M,M,M,M,M,M,M,51.80,KBVU 221815Z AUTO 13008G13KT 10SM FEW022 BKN028 OVC034 11/09 A2989 RMK AO2,M
CXP,2024-01-22 18:15,-119.7326,39.1923,1431.00,44.60,35.60,70.48,80.00,4.00,0.00,29.76,M,10.00,M,FEW,FEW,M,M,4600.00,5000.00,M,M,M,M,M,M,M,M,M,42.13,KCXP 221815Z AUTO 08004KT 10SM FEW046 FEW050 07/02 A2976 RMK AO2,M
RTS,2024-01-22 18:15,-119.8764,39.6682,1539.00,41.00,37.40,86.89,0.00,0.00,0.00,29.77,M,10.00,M,SCT,SCT,BKN,M,1300.00,2600.00,3200.00,M,M,M,M,M,M,M,M,41.00,KRTS 221815Z AUTO 00000KT 10SM SCT013 SCT026 BKN032 05/03 A2977 RMK AO2,M
05U,2024-01-22 18:15,-116.0051,39.6042,1811.23,39.20,33.80,80.79,330.00,7.00,0.00,29.83,M,10.00,M,M,M,M,M,M,M,M,M,M,M,M,M,M,M,M,33.56,K05U 221815Z AUTO 33007KT 10SM 04/01 A2983 RMK A01,M
MEV,2024-01-22 18:15,-119.7500,38.9963,1441.42,46.40,33.80,61.28,350.00,4.00,0.00,29.74,M,10.00,M,CLR,M,M,M,M,M,M,M,M,M,M,M,M,M,M,44.24,KMEV 221815Z AUTO 35004KT 10SM CLR 08/01 A2974 RMK AO2,M
BAM,2024-01-22 18:15,-116.8743,40.5990,1382.36,42.80,41.00,93.30,60.00,7.00,0.00,29.80,M,10.00,M,BKN,OVC,M,M,2700.00,4100.00,M,M,M,M,M,M,M,M,M,37.94,KBAM 221815Z AUTO 06007KT 10SM BKN027 OVC041 06/05 A2980 RMK AO1,M
HTH,2024-01-22 18:15,-118.6315,38.5448,1282.89,44.60,41.00,87.09,90.00,11.00,0.00,29.77,M,10.00,M,CLR,M,M,M,M,M,M,M,M,M,M,M,M,M,M,38.39,KHTH 221815Z AUTO 09011KT 10SM CLR 07/05 A2977 RMK A01,M
10U,2024-01-22 18:15,-116.1876,41.9532,1637.00,37.40,33.80,86.69,120.00,8.00,0.00,29.78,M,10.00,M,BKN,OVC,M,M,4300.00,12000.00,M,M,M,M,M,M,M,M,M,30.76,K10U 221815Z AUTO 12008KT 10SM BKN043 OVC120 03/01 A2978 RMK AO2,M
TMT,2024-01-22 18:15,-117.1971,39.4643,1749.34,37.40,35.60,93.14,0.00,0.00,0.00,29.80,M,10.00,M,BKN,OVC,M,M,2100.00,3200.00,M,M,M,M,M,M,M,M,M,37.40,KTMT 221815Z AUTO 00000KT 10SM BKN021 OVC032 03/02 A2980 RMK AO2 T00300020,M
LSV,2024-01-22 18:21,-115.0343,36.2362,570.00,53.60,48.20,81.87,120.00,9.00,0.00,29.86,1010.70,10.00,M,BKN,BKN,M,M,2600.00,3000.00,M,M,-RA,M,M,M,M,M,M,53.60,KLSV 221821Z AUTO 12009KT 10SM -RA BKN026 BKN030 12/09 A2986 RMK AO2 RAB21 SLP107 $,M
10U,2024-01-22 18:30,-116.1876,41.9532,1637.00,37.40,33.80,86.69,130.00,8.00,0.00,29.78,M,10.00,M,BKN,OVC,M,M,4000.00,4500.00,M,M,M,M,M,M,M,M,M,30.76,K10U 221830Z AUTO 13008KT 10SM BKN040 OVC045 03/01 A2978 RMK AO2,M
HND,2024-01-22 18:32,-115.1344,35.9729,742.79,51.80,46.40,81.74,150.00,8.00,0.00,29.89,M,10.00,M,SCT,OVC,M,M,1900.00,3600.00,M,M,M,M,M,M,M,M,M,51.80,KHND 221832Z 15008KT 10SM SCT019 OVC036 11/08 A2989 RMK AO2,M
BVU,2024-01-22 18:35,-114.8611,35.9475,671.00,51.80,48.20,87.47,140.00,14.00,0.00,29.88,M,10.00,M,FEW,OVC,M,M,2200.00,3000.00,M,M,M,M,M,M,M,M,M,51.80,KBVU 221835Z AUTO 14014KT 10SM FEW022 OVC030 11/09 A2988 RMK AO2,M
CXP,2024-01-22 18:35,-119.7326,39.1923,1431.00,46.40,35.60,65.83,0.00,0.00,0.00,29.76,M,10.00,M,CLR,M,M,M,M,M,M,M,M,M,M,M,M,M,M,46.40,KCXP 221835Z AUTO 00000KT 10SM CLR 08/02 A2976 RMK AO2,M
RTS,2024-01-22 18:35,-119.8764,39.6682,1539.00,41.00,37.40,86.89,0.00,0.00,0.00,29.77,M,10.00,M,FEW,OVC,M,M,2600.00,4000.00,M,M,M,M,M,M,M,M,M,41.00,KRTS 221835Z AUTO 00000KT 10SM FEW026 OVC040 05/03 A2977 RMK AO2,M
05U,2024-01-22 18:35,-116.0051,39.6042,1811.23,39.20,33.80,80.79,320.00,7.00,0.00,29.83,M,10.00,M,M,M,M,M,M,M,M,M,M,M,M,M,M,M,M,33.56,K05U 221835Z AUTO 32007KT 10SM 04/01 A2983 RMK A01,M
MEV,2024-01-22 18:35,-119.7500,38.9963,1441.42,46.40,35.60,65.83,360.00,4.00,0.00,29.74,M,10.00,M,FEW,M,M,M,9000.00,M,M,M,M,M,M,M,M,M,M,44.24,KMEV 221835Z AUTO 36004KT 10SM FEW090 08/02 A2974 RMK AO2,M
BAM,2024-01-22 18:35,-116.8743,40.5990,1382.36,42.80,41.00,93.30,70.00,8.00,0.00,29.80,M,10.00,M,BKN,BKN,OVC,M,2700.00,3100.00,3900.00,M,M,M,M,M,M,M,M,37.42,KBAM 221835Z AUTO 07008KT 10SM BKN027 BKN031 OVC039 06/05 A2980 RMK AO1,M
HTH,2024-01-22 18:35,-118.6315,38.5448,1282.89,44.60,41.00,87.09,100.00,11.00,0.00,29.77,M,10.00,M,CLR,M,M,M,M,M,M,M,M,M,M,M,M,M,M,38.39,KHTH 221835Z AUTO 10011KT 10SM CLR 07/05 A2977 RMK A01,M
LSV,2024-01-22 18:35,-115.0343,36.2362,570.00,53.60,48.20,81.87,110.00,7.00,0.00,29.85,1010.40,10.00,M,BKN,M,M,M,2800.00,M,M,M,M,M,M,M,M,M,M,53.60,KLSV 221835Z AUTO 11007KT 10SM BKN028 12/09 A2985 RMK AO2 RAB21E35 SLP104 $,M
TMT,2024-01-22 18:35,-117.1971,39.4643,1749.34,37.40,35.80,93.88,0.00,0.00,0.00,29.80,M,10.00,M,OVC,M,M,M,3000.00,M,M,M,-RA,M,M,M,M,M,M,37.40,KTMT 221835Z AUTO 00000KT 10SM -RA OVC030 03/02 A2980 RMK AO2 T00300021,M
INS,2024-01-22 18:37,-115.6733,36.5872,955.00,48.20,44.60,87.28,120.00,12.00,0.00,29.83,1008.90,10.00,M,FEW,BKN,BKN,OVC,900.00,4800.00,6000.00,7500.00,-RA,M,M,M,M,M,M,42.62,KINS 221837Z AUTO 12012KT 10SM -RA FEW009 BKN048 BKN060 OVC075 09/07 A2983 RMK AO2 RAB37 SLP089,M
LSV,2024-01-22 18:45,-115.0343,36.2362,570.00,53.60,48.20,81.87,110.00,7.00,0.00,29.85,1010.40,10.00,M,SCT,M,M,M,2700.00,M,M,M,M,M,M,M,M,M,M,53.60,KLSV 221845Z AUTO 11007KT 10SM SCT027 12/09 A2985 RMK AO2 RAB21E35 SLP104 $,M
DRA,2024-01-22 18:47,-116.0278,36.6206,1009.00,47.00,45.00,92.71,200.00,5.00,0.02,29.83,M,7.00,M,SCT,OVC,M,M,900.00,2500.00,M,M,-RA,M,M,M,M,M,M,44.21,KDRA 221847Z AUTO 20005KT 7SM -RA SCT009 OVC025 08/07 A2983 RMK AO2 P0002 T00830072,M
LAS,2024-01-22 18:47,-115.1634,36.0719,663.00,52.00,48.00,86.17,20.00,5.00,T,29.87,M,8.00,M,FEW,BKN,OVC,M,2700.00,3900.00,7000.00,M,-RA,M,M,M,M,M,M,52.00,KLAS 221847Z 02005KT 8SM -RA FEW027 BKN039 OVC070 11/09 A2987 RMK AO2 RAE13B35 P0000 T01110089 $,M
TPH,2024-01-22 18:49,-117.0904,38.0505,1654.00,40.00,39.00,96.18,160.00,11.00,0.04,29.80,M,8.00,M,SCT,OVC,M,M,700.00,1400.00,M,M,-RA,M,M,M,M,M,M,32.58,KTPH 221849Z AUTO 16011KT 8SM -RA SCT007 OVC014 04/04 A2980 RMK AO2 P0004 T00440039,M
DRA,2024-01-22 18:53,-116.0278,36.6206,1009.00,47.00,45.00,92.71,200.00,6.00,0.02,29.82,1008.50,8.00,M,BKN,OVC,M,M,1100.00,2300.00,M,M,M,M,M,M,M,M,M,43.60,KDRA 221853Z AUTO 20006KT 8SM BKN011 OVC023 08/07 A2982 RMK AO2 RAE52 SLP085 P0002 T00830072,M
ELY,2024-01-22 18:53,-114.8453,39.2950,1909.00,37.00,29.00,72.54,200.00,11.00,0.00,29.84,1010.00,10.00,M,OVC,M,M,M,4300.00,M,M,M,M,M,M,M,M,M,M,28.79,KELY 221853Z AUTO 20011KT 10SM OVC043 03/M02 A2984 RMK AO2 SLP100 T00281017,M
VGT,2024-01-22 18:53,-115.1933,36.2111,667.00,53.00,49.00,86.23,100.00,4.00,0.01,29.86,1012.70,10.00,M,SCT,BKN,OVC,M,1200.00,2400.00,6000.00,M,-RA,M,M,M,M,M,M,53.00,KVGT 221853Z 10004KT 10SM -RA SCT012 BKN024 OVC060 12/09 A2986 RMK AO2 RAB1755 SLP127 P0001 T01170094,M
LOL,2024-01-22 18:53,-118.5701,40.0684,1192.43,44.00,42.00,92.61,30.00,6.00,T,29.76,1007.70,10.00,M,OVC,M,M,M,3400.00,M,M,M,-RA,M,M,M,M,M,M,39.98,KLOL 221853Z AUTO 03006KT 10SM -RA OVC034 07/06 A2976 RMK AO2 SLP077 P0000 T00670056,M
BVU,2024-01-22 18:55,-114.8611,35.9475,671.00,51.80,48.20,87.47,140.00,12.00,0.00,29.87,M,10.00,M,OVC,M,M,M,2800.00,M,M,M,M,M,M,M,M,M,M,51.80,KBVU 221855Z AUTO 14012KT 10SM OVC028 11/09 A2987 RMK AO2,M
CXP,2024-01-22 18:55,-119.7326,39.1923,1431.00,46.40,35.60,65.83,0.00,0.00,0.00,29.76,M,10.00,M,CLR,M,M,M,M,M,M,M,M,M,M,M,M,M,M,46.40,KCXP 221855Z AUTO 00000KT 10SM CLR 08/02 A2976 RMK AO2,M
INS,2024-01-22 18:55,-115.6733,36.5872,955.00,49.00,45.30,86.99,130.00,10.00,T,29.83,1008.90,10.00,M,OVC,M,M,M,6000.00,M,M,M,-RA,M,M,M,M,M,M,44.29,KINS 221855Z AUTO 13010KT 10SM -RA OVC060 10/07 A2983 RMK AO2 RAB37 SLP089 P0000 T00950074,M
RNO,2024-01-22 18:55,-119.7711,39.4839,1341.00,47.00,37.00,68.02,20.00,3.00,T,29.76,1005.80,10.00,M,SCT,BKN,OVC,M,3100.00,5500.00,12000.00,M,-RA,M,M,M,M,M,M,45.84,KRNO 221855Z 02003KT 10SM -RA SCT031 BKN055 OVC120 08/03 A2976 RMK AO2 RAB52 SLP058 MTN TOPS OBSCD SW THRU NW P0000 T00830028,M
RTS,2024-01-22 18:55,-119.8764,39.6682,1539.00,41.00,37.40,86.89,0.00,0.00,0.00,29.77,M,10.00,M,FEW,BKN,M,M,1300.00,3900.00,M,M,M,M,M,M,M,M,M,41.00,KRTS 221855Z AUTO 00000KT 10SM FEW013 BKN039 05/03 A2977 RMK AO2,M
05U,2024-01-22 18:55,-116.0051,39.6042,1811.23,41.00,33.80,75.33,310.00,8.00,0.00,29.82,M,10.00,M,M,M,M,M,M,M,M,M,M,M,M,M,M,M,M,35.20,K05U 221855Z AUTO 31008KT 10SM 05/01 A2982 RMK A01,M
MEV,2024-01-22 18:55,-119.7500,38.9963,1441.42,48.20,35.60,61.52,330.00,4.00,0.00,29.74,M,10.00,M,FEW,SCT,M,M,4600.00,9000.00,M,M,M,M,M,M,M,M,M,46.34,KMEV 221855Z AUTO 33004KT 10SM FEW046 SCT090 09/02 A2974 RMK AO2,M
BAM,2024-01-22 18:55,-116.8743,40.5990,1382.36,42.80,41.00,93.30,70.00,8.00,0.00,29.80,M,10.00,M,BKN,BKN,OVC,M,2700.00,3700.00,4600.00,M,M,M,M,M,M,M,M,37.42,KBAM 221855Z AUTO 07008KT 10SM BKN027 BKN037 OVC046 06/05 A2980 RMK AO1,M
HTH,2024-01-22 18:55,-118.6315,38.5448,1282.89,44.60,41.00,87.09,90.00,12.00,0.00,29.77,M,10.00,M,SCT,SCT,M,M,3100.00,3600.00,M,M,M,M,M,M,M,M,M,38.04,KHTH 221855Z AUTO 09012KT 10SM SCT031 SCT036 07/05 A2977 RMK A01,M
TMT,2024-01-22 18:55,-117.1971,39.4643,1749.34,37.40,35.60,93.14,0.00,0.00,0.00,29.79,M,10.00,M,BKN,OVC,M,M,2600.00,3000.00,M,M,-RA,M,M,M,M,M,M,37.40,KTMT 221855Z AUTO 00000KT 10SM -RA BKN026 OVC030 03/02 A2979 RMK AO2 T00300020,M
LSV,2024-01-22 18:55,-115.0343,36.2362,570.00,54.00,48.70,82.20,100.00,6.00,T,29.84,1010.10,10.00,M,SCT,SCT,M,M,2700.00,5000.00,M,M,M,M,M,M,M,M,M,54.00,KLSV 221855Z AUTO 10006KT 10SM SCT027 SCT050 12/09 A2984 RMK AO2 RAB21E35 SLP101 P0000 T01230093 $,M
10U,2024-01-22 18:55,-116.1876,41.9532,1637.00,39.20,33.80,80.79,160.00,5.00,0.00,29.78,M,10.00,M,BKN,OVC,M,M,3700.00,4700.00,M,M,M,M,M,M,M,M,M,34.95,K10U 221855Z AUTO 16005KT 10SM BKN037 OVC047 04/01 A2978 RMK AO2,M
EKO,2024-01-22 18:56,-115.7860,40.8242,1367.00,36.00,34.00,92.35,30.00,5.00,0.01,29.80,1010.30,8.00,M,OVC,M,M,M,1300.00,M,M,M,UP,M,M,M,M,M,M,31.15,KEKO 221856Z AUTO 03005KT 8SM UP OVC013 02/01 A2980 RMK AO2 RAB04E29 SLP103 P0001 T00220011,M
HND,2024-01-22 18:56,-115.1344,35.9729,742.79,52.00,46.00,79.92,190.00,8.00,T,29.88,1013.30,10.00,M,FEW,BKN,OVC,M,1900.00,3000.00,3600.00,M,-RA,M,M,M,M,M,M,52.00,KHND 221856Z 19008KT 10SM -RA FEW019 BKN030 OVC036 11/08 A2988 RMK AO2 RAB35 SLP133 P0000 T01110078,M
TPH,2024-01-22 18:56,-117.0904,38.0505,1654.00,40.00,38.00,92.49,160.00,12.00,0.04,29.80,1008.20,8.00,M,SCT,OVC,M,M,700.00,1400.00,M,M,-RA,M,M,M,M,M,M,32.18,KTPH 221856Z AUTO 16012KT 8SM -RA SCT007 OVC014 04/03 A2980 RMK AO2 SLP082 P0004 T00440033,M
LAS,2024-01-22 18:56,-115.1634,36.0719,663.00,52.00,48.00,86.17,30.00,4.00,T,29.86,1010.70,7.00,M,FEW,OVC,M,M,2400.00,3700.00,M,M,-RA,M,M,M,M,M,M,52.00,KLAS 221856Z 03004KT 7SM -RA FEW024 OVC037 11/09 A2986 RMK AO2 RAE13B35 SLP107 P0000 T01110089 $,M
WMC,2024-01-22 18:56,-117.8072,40.9019,1315.00,45.00,40.00,82.51,170.00,5.00,0.00,29.76,1007.00,10.00,M,OVC,M,M,M,3000.00,M,M,M,M,M,M,M,M,M,M,41.83,KWMC 221856Z AUTO 17005KT 10SM OVC030 07/04 A2976 RMK AO2 SLP070 T00720044,M
NFL,2024-01-22 18:56,-118.7010,39.4166,1199.00,47.00,40.00,76.49,160.00,8.00,T,29.75,1005.40,9.00,M,FEW,BKN,OVC,M,4000.00,5000.00,7000.00,M,-RA,M,M,M,M,M,M,42.59,KNFL 221856Z 16008KT 9SM -RA FEW040 BKN050 OVC070 08/04 A2975 RMK AO2 RAE23B39 SLP054 P0000 T00830044,M
LSV,2024-01-22 18:57,-115.0343,36.2362,570.00,53.60,48.20,81.87,110.00,7.00,0.00,29.84,1010.10,10.00,M,SCT,SCT,SCT,M,2700.00,3300.00,5000.00,M,-RA,M,M,M,M,M,M,53.60,KLSV 221857Z AUTO 11007KT 10SM -RA SCT027 SCT033 SCT050 12/09 A2984 RMK AO2 RAB57 SLP101 $,M
INS,2024-01-22 18:59,-115.6733,36.5872,955.00,50.00,46.40,87.37,140.00,8.00,0.00,29.82,1008.50,10.00,M,OVC,M,M,M,5500.00,M,M,M,M,M,M,M,M,M,M,50.00,KINS 221859Z AUTO 14008KT 10SM OVC055 10/08 A2982 RMK AO2 RAE59 SLP085,M
TPH,2024-01-22 19:06,-117.0904,38.0505,1654.00,40.00,38.00,92.49,160.00,13.00,T,29.79,M,10.00,M,FEW,OVC,M,M,800.00,1500.00,M,M,-RA,M,M,M,M,M,M,31.82,KTPH 221906Z AUTO 16013KT 10SM -RA FEW008 OVC015 04/03 A2979 RMK AO2 P0000 T00440033,M
BVU,2024-01-22 19:15,-114.8611,35.9475,671.00,51.80,48.20,87.47,130.00,12.00,0.00,29.86,M,10.00,M,FEW,BKN,OVC,M,2700.00,3500.00,4200.00,M,M,M,M,M,M,M,M,51.80,KBVU 221915Z AUTO 13012KT 10SM FEW027 BKN035 OVC042 11/09 A2986 RMK AO2,M
CXP,2024-01-22 19:15,-119.7326,39.1923,1431.00,46.40,37.40,70.68,100.00,5.00,0.00,29.76,M,10.00,M,SCT,M,M,M,4600.00,M,M,M,M,M,M,M,M,M,M,43.50,KCXP 221915Z AUTO 10005KT 10SM SCT046 08/03 A2976 RMK AO2,M
RTS,2024-01-22 19:15,-119.8764,39.6682,1539.00,41.00,37.40,86.89,0.00,0.00,0.00,29.77,M,10.00,M,BKN,M,M,M,3900.00,M,M,M,M,M,M,M,M,M,M,41.00,KRTS 221915Z AUTO 00000KT 10SM BKN039 05/03 A2977 RMK AO2,M
05U,2024-01-22 19:15,-116.0051,39.6042,1811.23,41.00,33.80,75.33,310.00,9.00,0.00,29.82,M,10.00,M,M,M,M,M,M,M,M,M,M,M,M,M,M,M,M,34.70,K05U 221915Z AUTO 31009KT 10SM 05/01 A2982 RMK A01,M
MEV,2024-01-22 19:15,-119.7500,38.9963,1441.42,46.40,35.60,65.83,350.00,5.00,0.00,29.74,M,9.00,M,SCT,BKN,BKN,M,2900.00,3500.00,4600.00,M,-RA,M,M,M,M,M,M,43.50,KMEV 221915Z AUTO 35005KT 9SM -RA SCT029 BKN035 BKN046 08/02 A2974 RMK AO2,M
BAM,2024-01-22 19:15,-116.8743,40.5990,1382.36,42.80,41.00,93.30,70.00,6.00,0.00,29.79,M,10.00,M,SCT,BKN,OVC,M,2600.00,4600.00,6500.00,M,M,M,M,M,M,M,M,38.54,KBAM 221915Z AUTO 07006KT 10SM SCT026 BKN046 OVC065 06/05 A2979 RMK AO1,M
HTH,2024-01-22 19:15,-118.6315,38.5448,1282.89,44.60,41.00,87.09,90.00,13.00,0.00,29.76,M,9.00,M,FEW,M,M,M,3100.00,M,M,M,M,M,M,M,M,M,M,37.71,KHTH 221915Z AUTO 09013KT 9SM FEW031 07/05 A2976 RMK A01,M
10U,2024-01-22 19:15,-116.1876,41.9532,1637.00,39.20,33.80,80.79,0.00,0.00,0.00,29.77,M,10.00,M,FEW,OVC,M,M,3700.00,4800.00,M,M,M,M,M,M,M,M,M,39.20,K10U 221915Z AUTO 00000KT 10SM FEW037 OVC048 04/01 A2977 RMK AO2,M
TMT,2024-01-22 19:15,-117.1971,39.4643,1749.34,37.80,35.00,89.53,0.00,0.00,0.00,29.78,M,10.00,M,OVC,M,M,M,2700.00,M,M,M,-RA,M,M,M,M,M,M,37.80,KTMT 221915Z AUTO 00000KT 10SM -RA OVC027 03/02 A2978 RMK AO2 T00320017,M
TPH,2024-01-22 19:16,-117.0904,38.0505,1654.00,40.00,38.00,92.49,160.00,13.00,0.01,29.79,M,8.00,M,SCT,BKN,OVC,M,900.00,1200.00,1800.00,M,-RA,M,M,M,M,M,M,31.82,KTPH 221916Z AUTO 16013KT 8SM -RA SCT009 BKN012 OVC018 04/03 A2979 RMK AO2 P0001 T00440033,M
VGT,2024-01-22 19:21,-115.1933,36.2111,667.00,53.00,49.00,86.23,100.00,5.00,0.01,29.84,M,6.00,M,SCT,BKN,OVC,M,1300.00,3100.00,5500.00,M,-RA BR,M,M,M,M,M,M,53.00,KVGT 221921Z 10005KT 6SM -RA BR SCT013 BKN031 OVC055 12/09 A2984 RMK AO2 P0001 T01170094,M
TPH,2024-01-22 19:26,-117.0904,38.0505,1654.00,40.00,38.00,92.49,160.00,15.00,0.01,29.78,M,7.00,23.00,BKN,OVC,M,M,900.00,1300.00,M,M,-RA,M,M,M,M,M,M,31.15,KTPH 221926Z AUTO 16015G23KT 7SM -RA BKN009 OVC013 04/03 A2978 RMK AO2 CIG 007V010 P0001 T00440033,M
DRA,2024-01-22 19:29,-116.0278,36.6206,1009.00,48.00,46.00,92.74,0.00,0.00,T,29.80,M,7.00,M,SCT,BKN,OVC,M,1000.00,2600.00,4400.00,M,-RA,M,M,M,M,M,M,48.00,KDRA 221929Z AUTO 00000KT 7SM -RA SCT010 BKN026 OVC044 09/08 A2980 RMK AO2 RAB1858 P0000 T00890078,M
WMC,2024-01-22 19:29,-117.8072,40.9019,1315.00,46.00,39.00,76.40,0.00,0.00,0.00,29.76,M,10.00,M,FEW,OVC,M,M,1600.00,2900.00,M,M,M,M,M,M,M,M,M,46.00,KWMC 221929Z AUTO 00000KT 10SM FEW016 OVC029 08/04 A2976 RMK AO2 T00780039,M
VGT,2024-01-22 19:32,-115.1933,36.2111,667.00,53.00,49.00,86.23,100.00,7.00,0.01,29.83,M,8.00,M,BKN,BKN,OVC,M,1400.00,2600.00,4900.00,M,-RA,M,M,M,M,M,M,53.00,KVGT 221932Z 10007KT 8SM -RA BKN014 BKN026 OVC049 12/09 A2983 RMK AO2 P0001 T01170094,M
BVU,2024-01-22 19:35,-114.8611,35.9475,671.00,51.80,48.20,87.47,130.00,10.00,0.00,29.84,M,10.00,M,SCT,OVC,M,M,3600.00,4200.00,M,M,M,M,M,M,M,M,M,51.80,KBVU 221935Z AUTO 13010KT 10SM SCT036 OVC042 11/09 A2984 RMK AO2,M
CXP,2024-01-22 19:35,-119.7326,39.1923,1431.00,46.40,37.40,70.68,90.00,3.00,0.00,29.75,M,10.00,M,SCT,BKN,M,M,3300.00,4500.00,M,M,-RA,M,M,M,M,M,M,45.15,KCXP 221935Z AUTO 09003KT 10SM -RA SCT033 BKN045 08/03 A2975 RMK AO2,M
RTS,2024-01-22 19:35,-119.8764,39.6682,1539.00,41.00,37.40,86.89,0.00,0.00,0.00,29.76,M,10.00,M,FEW,FEW,OVC,M,1500.00,2600.00,3600.00,M,M,M,M,M,M,M,M,41.00,KRTS 221935Z AUTO 00000KT 10SM FEW015 FEW026 OVC036 05/03 A2976 RMK AO2,M
05U,2024-01-22 19:35,-116.0051,39.6042,1811.23,41.00,33.80,75.33,320.00,8.00,0.00,29.81,M,9.00,M,M,M,M,M,M,M,M,M,M,M,M,M,M,M,M,35.20,K05U 221935Z AUTO 32008KT 9SM 05/01 A2981 RMK A01,M
MEV,2024-01-22 19:35,-119.7500,38.9963,1441.42,46.40,35.60,65.83,340.00,4.00,0.00,29.73,M,10.00,M,SCT,BKN,M,M,2900.00,3400.00,M,M,-RA,M,M,M,M,M,M,44.24,KMEV 221935Z AUTO 34004KT 10SM -RA SCT029 BKN034 08/02 A2973 RMK AO2,M
BAM,2024-01-22 19:35,-116.8743,40.5990,1382.36,44.60,41.00,87.09,60.00,5.00,0.00,29.79,M,10.00,M,SCT,SCT,OVC,M,4500.00,5000.00,6500.00,M,M,M,M,M,M,M,M,41.36,KBAM 221935Z AUTO 06005KT 10SM SCT045 SCT050 OVC065 07/05 A2979 RMK AO1,M
HTH,2024-01-22 19:35,-118.6315,38.5448,1282.89,44.60,41.00,87.09,90.00,11.00,0.00,29.75,M,9.00,16.00,CLR,M,M,M,M,M,M,M,M,M,M,M,M,M,M,38.39,KHTH 221935Z AUTO 09011G16KT 9SM CLR 07/05 A2975 RMK A01,M
10U,2024-01-22 19:35,-116.1876,41.9532,1637.00,41.00,33.80,75.33,0.00,0.00,0.00,29.77,M,10.00,M,BKN,BKN,OVC,M,3300.00,3900.00,4900.00,M,M,M,M,M,M,M,M,41.00,K10U 221935Z AUTO 00000KT 10SM BKN033 BKN039 OVC049 05/01 A2977 RMK AO2,M
TMT,2024-01-22 19:35,-117.1971,39.4643,1749.34,38.00,35.40,90.25,0.00,0.00,0.00,29.78,M,10.00,M,SCT,BKN,OVC,M,2300.00,3300.00,4200.00,M,-RA,M,M,M,M,M,M,38.00,KTMT 221935Z AUTO 00000KT 10SM -RA SCT023 BKN033 OVC042 03/02 A2978 RMK AO2 T00340019,M
DRA,2024-01-22 19:38,-116.0278,36.6206,1009.00,48.00,46.00,92.74,0.00,0.00,0.01,29.80,M,7.00,M,FEW,BKN,OVC,M,1000.00,4100.00,5000.00,M,-RA,M,M,M,M,M,M,48.00,KDRA 221938Z AUTO 00000KT 7SM -RA FEW010 BKN041 OVC050 09/08 A2980 RMK AO2 RAB1858 P0001 T00890078,M
DRA,2024-01-22 19:42,-116.0278,36.6206,1009.00,48.00,46.00,92.74,0.00,0.00,0.01,29.80,M,7.00,M,FEW,OVC,M,M,800.00,3900.00,M,M,-RA,M,M,M,M,M,M,48.00,KDRA 221942Z AUTO 00000KT 7SM -RA FEW008 OVC039 09/08 A2980 RMK AO2 RAB1858 P0001 T00890078,M
TPH,2024-01-22 19:42,-117.0904,38.0505,1654.00,40.00,38.00,92.49,160.00,11.00,0.02,29.78,M,6.00,M,BKN,OVC,M,M,1000.00,1600.00,M,M,-RA BR,M,M,M,M,M,M,32.58,KTPH 221942Z AUTO 16011KT 6SM -RA BR BKN010 OVC016 04/03 A2978 RMK AO2 P0002 T00440033,M
WMC,2024-01-22 19:49,-117.8072,40.9019,1315.00,45.00,40.00,82.51,280.00,5.00,T,29.75,M,10.00,M,BKN,BKN,OVC,M,1400.00,2300.00,3000.00,M,-RA,M,M,M,M,M,M,41.83,KWMC 221949Z AUTO 28005KT 10SM -RA BKN014 BKN023 OVC030 07/04 A2975 RMK AO2 RAB30 P0000 T00720044,M
TPH,2024-01-22 19:49,-117.0904,38.0505,1654.00,39.00,38.00,96.16,150.00,14.00,0.03,29.77,M,5.00,M,BKN,OVC,M,M,800.00,1400.00,M,M,-RA BR,M,M,M,M,M,M,30.19,KTPH 221949Z AUTO 15014KT 5SM -RA BR BKN008 OVC014 04/03 A2977 RMK AO2 P0003 T00390033,M
05U,2024-01-22 19:50,-116.0051,39.6042,1811.23,41.00,33.80,75.33,330.00,6.00,0.00,29.80,M,7.00,M,M,M,M,M,M,M,M,M,M,M,M,M,M,M,M,36.37,K05U 221950Z AUTO 33006KT 7SM 05/01 A2980 RMK A01,M
P68,2024-01-22 19:53,-116.0056,39.6014,1993.00,40.00,33.00,75.84,150.00,6.00,0.00,29.78,1006.40,M,M,M,M,M,M,M,M,M,M,M,M,M,M,M,M,M,35.17,KP68 221953Z AUTO 15006KT 04/01 A2978 RMK AO1 SLP064 T00440006,M
DRA,2024-01-22 19:53,-116.0278,36.6206,1009.00,48.00,45.00,89.29,0.00,0.00,0.01,29.79,1007.20,7.00,M,FEW,OVC,M,M,2200.00,4100.00,M,M,-RA,M,M,M,M,M,M,48.00,KDRA 221953Z AUTO 00000KT 7SM -RA FEW022 OVC041 09/07 A2979 RMK AO2 RAB1858 SLP072 P0001 T00890072,M
ELY,2024-01-22 19:53,-114.8453,39.2950,1909.00,40.00,29.00,64.50,190.00,11.00,0.00,29.81,1008.30,10.00,M,OVC,M,M,M,4100.00,M,M,M,M,M,M,M,M,M,M,32.58,KELY 221953Z AUTO 19011KT 10SM OVC041 04/M02 A2981 RMK AO2 SLP083 T00441017,M
VGT,2024-01-22 19:53,-115.1933,36.2111,667.00,53.00,49.00,86.23,130.00,8.00,0.01,29.82,1011.20,10.00,M,SCT,BKN,OVC,M,1200.00,1700.00,2700.00,M,-RA,M,M,M,M,M,M,53.00,KVGT 221953Z 13008KT 10SM -RA SCT012 BKN017 OVC027 12/09 A2982 RMK AO2 SLP112 P0001 T01170094,M
LOL,2024-01-22 19:53,-118.5701,40.0684,1192.43,44.00,42.00,92.61,40.00,4.00,0.01,29.75,1007.20,7.00,M,SCT,BKN,OVC,M,3000.00,3500.00,4600.00,M,-RA,M,M,M,M,M,M,41.43,KLOL 221953Z AUTO 04004KT 7SM -RA SCT030 BKN035 OVC046 07/06 A2975 RMK AO2 SLP072 P0001 T00670056,M
BVU,2024-01-22 19:55,-114.8611,35.9475,671.00,53.60,48.20,81.87,140.00,11.00,0.00,29.83,M,10.00,M,FEW,BKN,OVC,M,2800.00,3200.00,5000.00,M,M,M,M,M,M,M,M,53.60,KBVU 221955Z AUTO 14011KT 10SM FEW028 BKN032 OVC050 12/09 A2983 RMK AO2,M
CXP,2024-01-22 19:55,-119.7326,39.1923,1431.00,46.40,37.40,70.68,0.00,0.00,0.00,29.75,M,10.00,M,FEW,SCT,M,M,3300.00,4400.00,M,M,-RA,M,M,M,M,M,M,46.40,KCXP 221955Z AUTO 00000KT 10SM -RA FEW033 SCT044 08/03 A2975 RMK AO2,M
INS,2024-01-22 19:55,-115.6733,36.5872,955.00,50.40,45.00,81.64,110.00,14.00,T,29.79,1007.50,10.00,M,FEW,SCT,BKN,BKN,2700.00,4100.00,5500.00,9000.00,M,M,M,M,M,M,M,50.40,KINS 221955Z AUTO 11014KT 10SM FEW027 SCT041 BKN055 BKN090 10/07 A2979 RMK AO2 RAE1859 SLP075 P0000 T01020073,M
RNO,2024-01-22 19:55,-119.7711,39.4839,1341.00,47.00,37.00,68.02,0.00,0.00,T,29.74,1005.30,10.00,M,SCT,BKN,OVC,M,3100.00,5500.00,10000.00,M,-RA,M,M,M,M,M,M,47.00,KRNO 221955Z 00000KT 10SM -RA SCT031 BKN055 OVC100 08/03 A2974 RMK AO2 SLP053 P0000 T00830028,M
LSV,2024-01-22 19:55,-115.0343,36.2362,570.00,53.80,49.00,83.74,110.00,7.00,0.02,29.80,1008.70,10.00,M,BKN,M,M,M,3000.00,M,M,M,M,M,M,M,M,M,M,53.80,KLSV 221955Z 11007KT 10SM BKN030 12/10 A2980 RMK AO2A RAB1857E51 SLP087 P0002 T01210095 $,M
RTS,2024-01-22 19:55,-119.8764,39.6682,1539.00,41.00,37.40,86.89,0.00,0.00,0.00,29.75,M,9.00,M,SCT,M,M,M,3600.00,M,M,M,-DZ,M,M,M,M,M,M,41.00,KRTS 221955Z AUTO 00000KT 9SM -DZ SCT036 05/03 A2975 RMK AO2,M
MEV,2024-01-22 19:55,-119.7500,38.9963,1441.42,46.40,35.60,65.83,20.00,5.00,0.00,29.73,M,10.00,M,CLR,M,M,M,M,M,M,M,-RA,M,M,M,M,M,M,43.50,KMEV 221955Z AUTO 02005KT 10SM -RA CLR 08/02 A2973 RMK AO2,M
BAM,2024-01-22 19:55,-116.8743,40.5990,1382.36,44.60,41.00,87.09,60.00,6.00,0.00,29.78,M,10.00,M,SCT,BKN,OVC,M,2500.00,4000.00,6500.00,M,M,M,M,M,M,M,M,40.71,KBAM 221955Z AUTO 06006KT 10SM SCT025 BKN040 OVC065 07/05 A2978 RMK AO1,M
HTH,2024-01-22 19:55,-118.6315,38.5448,1282.89,44.60,41.00,87.09,90.00,12.00,0.00,29.74,M,10.00,M,CLR,M,M,M,M,M,M,M,M,M,M,M,M,M,M,38.04,KHTH 221955Z AUTO 09012KT 10SM CLR 07/05 A2974 RMK A01,M
TMT,2024-01-22 19:55,-117.1971,39.4643,1749.34,38.70,35.40,87.81,0.00,0.00,0.00,29.77,M,10.00,M,SCT,BKN,OVC,M,3300.00,4600.00,6000.00,M,-RA,M,M,M,M,M,M,38.70,KTMT 221955Z AUTO 00000KT 10SM -RA SCT033 BKN046 OVC060 04/02 A2977 RMK AO2 T00370019,M
10U,2024-01-22 19:55,-116.1876,41.9532,1637.00,39.20,33.80,80.79,150.00,3.00,0.00,29.76,M,10.00,M,BKN,OVC,M,M,2900.00,3400.00,M,M,M,M,M,M,M,M,M,36.92,K10U 221955Z AUTO 15003KT 10SM BKN029 OVC034 04/01 A2976 RMK AO2,M
EKO,2024-01-22 19:56,-115.7860,40.8242,1367.00,37.00,34.00,88.78,30.00,4.00,0.02,29.78,1009.00,9.00,M,BKN,OVC,M,M,1400.00,2300.00,M,M,-RA,M,M,M,M,M,M,33.26,KEKO 221956Z AUTO 03004KT 9SM -RA BKN014 OVC023 03/01 A2978 RMK AO2 UPE1857RAB1857 SLP090 P0002 T00280011,M
NFL,2024-01-22 19:56,-118.7010,39.4166,1199.00,47.00,40.00,76.49,170.00,8.00,T,29.73,1004.90,10.00,M,SCT,BKN,OVC,M,4000.00,6000.00,8000.00,M,-RA,M,M,M,M,M,M,42.59,KNFL 221956Z 17008KT 10SM -RA SCT040 BKN060 OVC080 08/04 A2973 RMK AO2 SLP049 WR// P0000 T00830044,M
HND,2024-01-22 19:56,-115.1344,35.9729,742.79,53.00,47.00,80.00,160.00,9.00,T,29.84,1011.80,10.00,M,OVC,M,M,M,3200.00,M,M,M,-RA,M,M,M,M,M,M,53.00,KHND 221956Z 16009KT 10SM -RA OVC032 12/08 A2984 RMK AO2 SLP118 P0000 T01170083,M
TPH,2024-01-22 19:56,-117.0904,38.0505,1654.00,39.00,38.00,96.16,160.00,12.00,0.04,29.77,1007.50,4.00,M,SCT,OVC,M,M,800.00,1400.00,M,M,RA BR,M,M,M,M,M,M,30.91,KTPH 221956Z AUTO 16012KT 4SM RA BR SCT008 OVC014 04/03 A2977 RMK AO2 SLP075 P0004 T00390033,M
LAS,2024-01-22 19:56,-115.1634,36.0719,663.00,53.00,48.00,83.06,50.00,5.00,T,29.82,1009.40,10.00,M,FEW,SCT,OVC,M,1000.00,2400.00,3300.00,M,M,M,M,M,M,M,M,53.00,KLAS 221956Z 05005KT 10SM FEW010 SCT024 OVC033 12/09 A2982 RMK AO2 RAE46 SLP094 P0000 T01170089,M
WMC,2024-01-22 19:56,-117.8072,40.9019,1315.00,45.00,40.00,82.51,280.00,6.00,T,29.75,1006.50,10.00,M,SCT,OVC,M,M,1400.00,2300.00,M,M,-RA,M,M,M,M,M,M,41.19,KWMC 221956Z AUTO 28006KT 10SM -RA SCT014 OVC023 07/04 A2975 RMK AO2 RAB30 SLP065 P0000 T00720044,M
LOL,2024-01-22 20:11,-118.5701,40.0684,1192.43,44.00,41.00,89.11,40.00,4.00,0.01,29.74,M,6.00,M,BKN,OVC,M,M,2900.00,4600.00,M,M,-RA BR,M,M,M,M,M,M,41.43,KLOL 222011Z AUTO 04004KT 6SM -RA BR BKN029 OVC046 07/05 A2974 RMK AO2 P0001 T00670050,M
BVU,2024-01-22 20:15,-114.8611,35.9475,671.00,53.60,48.20,81.87,130.00,7.00,0.00,29.82,M,10.00,12.00,SCT,BKN,BKN,M,1800.00,3300.00,4000.00,M,M,M,M,M,M,M,M,53.60,KBVU 222015Z AUTO 13007G12KT 10SM SCT018 BKN033 BKN040 12/09 A2982 RMK AO2,M
CXP,2024-01-22 20:15,-119.7326,39.1923,1431.00,46.40,37.40,70.68,320.00,3.00,0.00,29.74,M,7.00,M,FEW,SCT,SCT,M,2000.00,2600.00,4400.00,M,-RA,M,M,M,M,M,M,45.15,KCXP 222015Z AUTO 32003KT 7SM -RA FEW020 SCT026 SCT044 08/03 A2974 RMK AO2,M
RTS,2024-01-22 20:15,-119.8764,39.6682,1539.00,42.80,37.40,81.07,0.00,0.00,0.00,29.75,M,9.00,M,FEW,M,M,M,3700.00,M,M,M,-DZ,M,M,M,M,M,M,42.80,KRTS 222015Z AUTO 00000KT 9SM -DZ FEW037 06/03 A2975 RMK AO2,M
05U,2024-01-22 20:15,-116.0051,39.6042,1811.23,41.00,33.80,75.33,320.00,6.00,0.00,29.80,M,8.00,M,M,M,M,M,M,M,M,M,M,M,M,M,M,M,M,36.37,K05U 222015Z AUTO 32006KT 8SM 05/01 A2980 RMK A01,M
MEV,2024-01-22 20:15,-119.7500,38.9963,1441.42,46.40,37.40,70.68,20.00,5.00,0.00,29.72,M,10.00,M,CLR,M,M,M,M,M,M,M,-RA,M,M,M,M,M,M,43.50,KMEV 222015Z AUTO 02005KT 10SM -RA CLR 08/03 A2972 RMK AO2,M
BAM,2024-01-22 20:15,-116.8743,40.5990,1382.36,44.60,41.00,87.09,50.00,6.00,0.00,29.77,M,10.00,M,SCT,SCT,OVC,M,2300.00,3000.00,4000.00,M,M,M,M,M,M,M,M,40.71,KBAM 222015Z AUTO 05006KT 10SM SCT023 SCT030 OVC040 07/05 A2977 RMK AO1,M
HTH,2024-01-22 20:15,-118.6315,38.5448,1282.89,46.40,41.00,81.34,90.00,12.00,0.00,29.74,M,10.00,M,SCT,M,M,M,3300.00,M,M,M,M,M,M,M,M,M,M,40.33,KHTH 222015Z AUTO 09012KT 10SM SCT033 08/05 A2974 RMK A01,M
10U,2024-01-22 20:15,-116.1876,41.9532,1637.00,39.20,33.80,80.79,120.00,5.00,0.00,29.76,M,10.00,M,OVC,M,M,M,2600.00,M,M,M,M,M,M,M,M,M,M,34.95,K10U 222015Z AUTO 12005KT 10SM OVC026 04/01 A2976 RMK AO2,M
TMT,2024-01-22 20:15,-117.1971,39.4643,1749.34,38.70,36.00,89.92,70.00,3.00,0.00,29.76,M,10.00,M,SCT,BKN,OVC,M,2100.00,4500.00,6000.00,M,-RA,M,M,M,M,M,M,36.35,KTMT 222015Z AUTO 07003KT 10SM -RA SCT021 BKN045 OVC060 04/02 A2976 RMK AO2 T00370022,M
LAS,2024-01-22 20:20,-115.1634,36.0719,663.00,53.00,48.00,83.06,70.00,4.00,T,29.80,M,9.00,M,FEW,BKN,OVC,M,1000.00,2400.00,3300.00,M,-RA,M,M,M,M,M,M,53.00,KLAS 222020Z 07004KT 9SM -RA FEW010 BKN024 OVC033 12/09 A2980 RMK AO2 RAB02 P0000 T01170089,M
LOL,2024-01-22 20:28,-118.5701,40.0684,1192.43,44.00,42.00,92.61,50.00,4.00,0.01,29.74,M,6.00,M,FEW,BKN,OVC,M,800.00,3400.00,4600.00,M,-RA BR,M,M,M,M,M,M,41.43,KLOL 222028Z AUTO 05004KT 6SM -RA BR FEW008 BKN034 OVC046 07/06 A2974 RMK AO2 P0001 T00670056,M
05U,2024-01-22 20:30,-116.0051,39.6042,1811.23,41.00,33.80,75.33,300.00,6.00,0.00,29.79,M,9.00,M,M,M,M,M,M,M,M,M,M,M,M,M,M,M,M,36.37,K05U 222030Z AUTO 30006KT 9SM 05/01 A2979 RMK A01,M
WMC,2024-01-22 20:33,-117.8072,40.9019,1315.00,44.00,40.00,85.71,280.00,6.00,T,29.74,M,10.00,M,FEW,BKN,OVC,M,2300.00,4000.00,4800.00,M,-RA,M,M,M,M,M,M,39.98,KWMC 222033Z AUTO 28006KT 10SM -RA FEW023 BKN040 OVC048 07/04 A2974 RMK AO2 P0000 T00670044,M
BVU,2024-01-22 20:35,-114.8611,35.9475,671.00,51.80,48.20,87.47,140.00,7.00,0.00,29.81,M,10.00,M,BKN,BKN,BKN,M,1600.00,2000.00,3500.00,M,-RA,M,M,M,M,M,M,51.80,KBVU 222035Z AUTO 14007KT 10SM -RA BKN016 BKN020 BKN035 11/09 A2981 RMK AO2,M
CXP,2024-01-22 20:35,-119.7326,39.1923,1431.00,44.60,37.40,75.68,360.00,4.00,0.00,29.74,M,9.00,M,SCT,BKN,BKN,M,2000.00,2600.00,3200.00,M,-RA,M,M,M,M,M,M,42.13,KCXP 222035Z AUTO 36004KT 9SM -RA SCT020 BKN026 BKN032 07/03 A2974 RMK AO2,M
INS,2024-01-22 20:35,-115.6733,36.5872,955.00,50.00,44.60,81.61,110.00,14.00,0.00,29.76,1006.40,10.00,M,BKN,OVC,M,M,4400.00,5500.00,M,M,-RA,M,M,M,M,M,M,50.00,KINS 222035Z AUTO 11014KT 10SM -RA BKN044 OVC055 10/07 A2976 RMK AO2 RAB35 SLP064,M
RTS,2024-01-22 20:35,-119.8764,39.6682,1539.00,42.80,37.40,81.07,0.00,0.00,0.00,29.75,M,10.00,M,BKN,BKN,M,M,1600.00,3800.00,M,M,M,M,M,M,M,M,M,42.80,KRTS 222035Z AUTO 00000KT 10SM BKN016 BKN038 06/03 A2975 RMK AO2,M
MEV,2024-01-22 20:35,-119.7500,38.9963,1441.42,46.40,35.60,65.83,50.00,3.00,0.00,29.72,M,10.00,M,CLR,M,M,M,M,M,M,M,M,M,M,M,M,M,M,45.15,KMEV 222035Z AUTO 05003KT 10SM CLR 08/02 A2972 RMK AO2,M
BAM,2024-01-22 20:35,-116.8743,40.5990,1382.36,44.60,41.00,87.09,50.00,4.00,0.00,29.76,M,10.00,M,SCT,BKN,OVC,M,2800.00,3800.00,5500.00,M,M,M,M,M,M,M,M,42.13,KBAM 222035Z AUTO 05004KT 10SM SCT028 BKN038 OVC055 07/05 A2976 RMK AO1,M
HTH,2024-01-22 20:35,-118.6315,38.5448,1282.89,46.40,41.00,81.34,90.00,12.00,0.00,29.73,M,10.00,M,OVC,M,M,M,3300.00,M,M,M,M,M,M,M,M,M,M,40.33,KHTH 222035Z AUTO 09012KT 10SM OVC033 08/05 A2973 RMK A01,M
10U,2024-01-22 20:35,-116.1876,41.9532,1637.00,39.20,33.80,80.79,150.00,4.00,0.00,29.75,M,10.00,M,OVC,M,M,M,2600.00,M,M,M,M,M,M,M,M,M,M,35.83,K10U 222035Z AUTO 15004KT 10SM OVC026 04/01 A2975 RMK AO2,M
LOL,2024-01-22 20:41,-118.5701,40.0684,1192.43,44.00,41.00,89.11,40.00,4.00,0.02,29.74,M,7.00,M,BKN,BKN,OVC,M,2800.00,3300.00,4600.00,M,-RA,M,M,M,M,M,M,41.43,KLOL 222041Z AUTO 04004KT 7SM -RA BKN028 BKN033 OVC046 07/05 A2974 RMK AO2 P0002 T00670050,M
P68,2024-01-22 20:53,-116.0056,39.6014,1993.00,38.00,34.00,85.35,150.00,8.00,0.00,29.76,1006.10,M,M,M,M,M,M,M,M,M,M,M,M,M,M,M,M,M,31.50,KP68 222053Z AUTO 15008KT 03/01 A2976 RMK AO1 SLP061 T00330011 58013,M
DRA,2024-01-22 20:53,-116.0278,36.6206,1009.00,48.00,46.00,92.74,330.00,4.00,0.05,29.76,1006.10,5.00,M,OVC,M,M,M,4100.00,M,M,M,-RA BR,M,M,M,M,M,M,46.10,KDRA 222053Z AUTO 33004KT 5SM -RA BR OVC041 09/08 A2976 RMK AO2 SLP061 P0005 60008 T00890078 58026,M
ELY,2024-01-22 20:53,-114.8453,39.2950,1909.00,39.00,30.00,69.85,180.00,14.00,0.00,29.79,1007.50,10.00,18.00,BKN,OVC,M,M,3900.00,4900.00,M,M,M,M,M,M,M,M,M,30.19,KELY 222053Z AUTO 18014G18KT 10SM BKN039 OVC049 04/M01 A2979 RMK AO2 SLP075 T00391011 58019,M
VGT,2024-01-22 20:53,-115.1933,36.2111,667.00,53.00,49.00,86.23,110.00,10.00,0.01,29.79,1010.10,10.00,M,SCT,BKN,OVC,M,1200.00,1700.00,2700.00,M,-RA,M,M,M,M,M,M,53.00,KVGT 222053Z 11010KT 10SM -RA SCT012 BKN017 OVC027 12/09 A2979 RMK AO2 SLP101 P0001 60003 T01170094 58031,M
LOL,2024-01-22 20:53,-118.5701,40.0684,1192.43,44.00,41.00,89.11,30.00,3.00,0.02,29.74,1006.90,6.00,M,BKN,OVC,M,M,2600.00,3300.00,M,M,-RA BR,M,M,M,M,M,M,42.41,KLOL 222053Z AUTO 03003KT 6SM -RA BR BKN026 OVC033 07/05 A2974 RMK AO2 SLP069 P0002 60003 T00670050 58007,M
BVU,2024-01-22 20:55,-114.8611,35.9475,671.00,51.80,48.20,87.47,150.00,11.00,0.00,29.80,M,5.00,M,BKN,BKN,OVC,M,1600.00,2500.00,5000.00,M,HZ,M,M,M,M,M,M,51.80,KBVU 222055Z AUTO 15011KT 5SM HZ BKN016 BKN025 OVC050 11/09 A2980 RMK AO2,M
CXP,2024-01-22 20:55,-119.7326,39.1923,1431.00,44.60,37.40,75.68,0.00,0.00,0.00,29.74,M,10.00,M,SCT,SCT,BKN,M,1700.00,2200.00,3100.00,M,-RA,M,M,M,M,M,M,44.60,KCXP 222055Z AUTO 00000KT 10SM -RA SCT017 SCT022 BKN031 07/03 A2974 RMK AO2,M
INS,2024-01-22 20:55,-115.6733,36.5872,955.00,50.00,45.50,84.45,120.00,12.00,T,29.76,1006.40,10.00,M,BKN,OVC,M,M,4400.00,5500.00,M,M,-RA,M,M,M,M,M,M,50.00,KINS 222055Z AUTO 12012KT 10SM -RA BKN044 OVC055 10/08 A2976 RMK AO2 RAB35 SLP064 P0000 60000 T00990075 57028,M
RNO,2024-01-22 20:55,-119.7711,39.4839,1341.00,46.00,38.00,73.47,0.00,0.00,0.01,29.73,1005.10,10.00,M,SCT,BKN,OVC,M,3000.00,5000.00,9000.00,M,-RA,M,M,M,M,M,M,46.00,KRNO 222055Z 00000KT 10SM -RA SCT030 BKN050 OVC090 08/03 A2973 RMK AO2 SLP051 P0001 60001 T00780033 58006,M
LSV,2024-01-22 20:55,-115.0343,36.2362,570.00,54.00,48.70,82.20,120.00,5.00,0.01,29.77,1007.70,10.00,M,BKN,M,M,M,2600.00,M,M,M,M,M,M,M,M,M,M,54.00,KLSV 222055Z 12005KT 10SM BKN026 12/09 A2977 RMK AO2A RAB24E47 SLP077 P0001 60003 T01230093 57030 $,M
RTS,2024-01-22 20:55,-119.8764,39.6682,1539.00,42.80,37.40,81.07,0.00,0.00,0.00,29.74,M,10.00,M,SCT,SCT,BKN,M,1600.00,2200.00,4000.00,M,M,M,M,M,M,M,M,42.80,KRTS 222055Z AUTO 00000KT 10SM SCT016 SCT022 BKN040 06/03 A2974 RMK AO2,M
05U,2024-01-22 20:55,-116.0051,39.6042,1811.23,39.20,33.80,80.79,310.00,6.00,0.00,29.79,M,5.00,M,M,M,M,M,M,M,M,M,HZ,M,M,M,M,M,M,34.20,K05U 222055Z AUTO 31006KT 5SM HZ 04/01 A2979 RMK A01,M
MEV,2024-01-22 20:55,-119.7500,38.9963,1441.42,46.40,37.40,70.68,30.00,5.00,0.00,29.72,M,10.00,M,FEW,FEW,M,M,3900.00,8000.00,M,M,M,M,M,M,M,M,M,43.50,KMEV 222055Z AUTO 03005KT 10SM FEW039 FEW080 08/03 A2972 RMK AO2,M
BAM,2024-01-22 20:55,-116.8743,40.5990,1382.36,44.60,41.00,87.09,50.00,6.00,0.00,29.76,M,10.00,M,BKN,BKN,OVC,M,3800.00,4600.00,5500.00,M,M,M,M,M,M,M,M,40.71,KBAM 222055Z AUTO 05006KT 10SM BKN038 BKN046 OVC055 07/05 A2976 RMK AO1,M
HTH,2024-01-22 20:55,-118.6315,38.5448,1282.89,46.40,41.00,81.34,90.00,12.00,0.00,29.73,M,10.00,M,OVC,M,M,M,3400.00,M,M,M,M,M,M,M,M,M,M,40.33,KHTH 222055Z AUTO 09012KT 10SM OVC034 08/05 A2973 RMK A01,M
10U,2024-01-22 20:55,-116.1876,41.9532,1637.00,41.00,33.80,75.33,M,M,0.00,29.75,M,10.00,M,OVC,M,M,M,2500.00,M,M,M,M,M,M,M,M,M,M,M,K10U 222055Z AUTO 10SM OVC025 05/01 A2975 RMK AO2,M
TMT,2024-01-22 20:55,-117.1971,39.4643,1749.34,38.50,35.40,88.50,30.00,4.00,0.00,29.74,M,10.00,M,SCT,OVC,M,M,3200.00,6000.00,M,M,M,M,M,M,M,M,M,35.01,KTMT 222055Z AUTO 03004KT 10SM SCT032 OVC060 04/02 A2974 RMK AO2 T00360019,M
EKO,2024-01-22 20:56,-115.7860,40.8242,1367.00,39.00,35.00,85.42,0.00,0.00,0.02,29.77,1008.50,8.00,M,SCT,OVC,M,M,1100.00,1800.00,M,M,-RA,M,M,M,M,M,M,39.00,KEKO 222056Z AUTO 00000KT 8SM -RA SCT011 OVC018 04/02 A2977 RMK AO2 SLP085 P0002 60005 T00390017 58014,M
NFL,2024-01-22 20:56,-118.7010,39.4166,1199.00,47.00,41.00,79.52,160.00,7.00,0.01,29.72,1004.60,10.00,M,SCT,BKN,OVC,M,3000.00,5000.00,8000.00,M,-RA,M,M,M,M,M,M,43.06,KNFL 222056Z 16007KT 10SM -RA SCT030 BKN050 OVC080 08/05 A2972 RMK AO2 SLP046 P0001 60001 T00830050 58008,M
HND,2024-01-22 20:56,-115.1344,35.9729,742.79,52.00,47.00,82.99,150.00,6.00,T,29.80,1010.70,10.00,M,OVC,M,M,M,4400.00,M,M,M,-RA,M,M,M,M,M,M,52.00,KHND 222056Z 15006KT 10SM -RA OVC044 11/08 A2980 RMK AO2 RAE12B32 SLP107 P0000 60000 T01110083 58030,M
TPH,2024-01-22 20:56,-117.0904,38.0505,1654.00,38.00,36.00,92.42,160.00,10.00,0.05,29.76,1006.90,5.00,M,SCT,BKN,OVC,M,800.00,1300.00,2000.00,M,-RA BR,M,M,M,M,M,M,30.49,KTPH 222056Z AUTO 16010KT 5SM -RA BR SCT008 BKN013 OVC020 03/02 A2976 RMK AO2 SLP069 P0005 60013 T00330022 58015,M
LAS,2024-01-22 20:56,-115.1634,36.0719,663.00,54.00,49.00,83.13,70.00,7.00,T,29.79,1008.10,9.00,M,FEW,BKN,OVC,M,1000.00,2400.00,3300.00,M,-RA,M,M,M,M,M,M,54.00,KLAS 222056Z 07007KT 9SM -RA FEW010 BKN024 OVC033 12/09 A2979 RMK AO2 RAB02E24B51 SLP081 P0000 60000 T01220094 58030,M
WMC,2024-01-22 20:56,-117.8072,40.9019,1315.00,45.00,41.00,85.77,270.00,6.00,T,29.74,1006.20,10.00,M,FEW,BKN,OVC,M,3200.00,4200.00,4900.00,M,-RA,M,M,M,M,M,M,41.19,KWMC 222056Z AUTO 27006KT 10SM -RA FEW032 BKN042 OVC049 07/05 A2974 RMK AO2 SLP062 P0000 60000 T00720050 58009,M
TPH,2024-01-22 21:03,-117.0904,38.0505,1654.00,38.00,36.00,92.42,160.00,12.00,0.01,29.75,M,5.00,M,BKN,OVC,M,M,800.00,2000.00,M,M,-RA BR,M,M,M,M,M,M,29.64,KTPH 222103Z AUTO 16012KT 5SM -RA BR BKN008 OVC020 03/02 A2975 RMK AO2 P0001 T00330022,M
LOL,2024-01-22 21:12,-118.5701,40.0684,1192.43,43.00,42.00,96.23,50.00,6.00,0.01,29.73,M,7.00,M,SCT,BKN,OVC,M,2700.00,3800.00,4700.00,M,-RA,M,M,M,M,M,M,38.78,KLOL 222112Z AUTO 05006KT 7SM -RA SCT027 BKN038 OVC047 06/06 A2973 RMK AO2 P0001 T00610056,M
TPH,2024-01-22 21:14,-117.0904,38.0505,1654.00,38.00,36.00,92.42,170.00,9.00,0.02,29.75,M,5.00,M,SCT,BKN,OVC,M,1000.00,1400.00,2000.00,M,-RA BR,M,M,M,M,M,M,30.97,KTPH 222114Z AUTO 17009KT 5SM -RA BR SCT010 BKN014 OVC020 03/02 A2975 RMK AO2 P0002 T00330022,M
BVU,2024-01-22 21:15,-114.8611,35.9475,671.00,51.80,48.20,87.47,140.00,7.00,0.00,29.79,M,6.00,14.00,FEW,BKN,OVC,M,1500.00,2000.00,3900.00,M,-RA,M,M,M,M,M,M,51.80,KBVU 222115Z AUTO 14007G14KT 6SM -RA FEW015 BKN020 OVC039 11/09 A2979 RMK AO2,M
CXP,2024-01-22 21:15,-119.7326,39.1923,1431.00,46.40,39.20,75.84,80.00,5.00,0.00,29.73,M,10.00,M,FEW,FEW,M,M,4200.00,5500.00,M,M,M,M,M,M,M,M,M,43.50,KCXP 222115Z AUTO 08005KT 10SM FEW042 FEW055 08/04 A2973 RMK AO2,M
RTS,2024-01-22 21:15,-119.8764,39.6682,1539.00,42.80,37.40,81.07,0.00,0.00,0.00,29.74,M,10.00,M,SCT,OVC,M,M,1600.00,3700.00,M,M,M,M,M,M,M,M,M,42.80,KRTS 222115Z AUTO 00000KT 10SM SCT016 OVC037 06/03 A2974 RMK AO2,M
05U,2024-01-22 21:15,-116.0051,39.6042,1811.23,39.20,33.80,80.79,310.00,8.00,0.00,29.78,M,5.00,M,M,M,M,M,M,M,M,M,HZ,M,M,M,M,M,M,32.98,K05U 222115Z AUTO 31008KT 5SM HZ 04/01 A2978 RMK A01,M
MEV,2024-01-22 21:15,-119.7500,38.9963,1441.42,46.40,37.40,70.68,20.00,5.00,0.00,29.71,M,10.00,M,SCT,SCT,M,M,3800.00,8000.00,M,M,M,M,M,M,M,M,M,43.50,KMEV 222115Z AUTO 02005KT 10SM SCT038 SCT080 08/03 A2971 RMK AO2,M
BAM,2024-01-22 21:15,-116.8743,40.5990,1382.36,44.60,41.00,87.09,70.00,5.00,0.00,29.76,M,10.00,M,OVC,M,M,M,3600.00,M,M,M,M,M,M,M,M,M,M,41.36,KBAM 222115Z AUTO 07005KT 10SM OVC036 07/05 A2976 RMK AO1,M
HTH,2024-01-22 21:15,-118.6315,38.5448,1282.89,46.40,39.20,75.84,90.00,10.00,0.00,29.72,M,10.00,16.00,FEW,OVC,M,M,2800.00,3600.00,M,M,M,M,M,M,M,M,M,41.03,KHTH 222115Z AUTO 09010G16KT 10SM FEW028 OVC036 08/04 A2972 RMK A01,M
10U,2024-01-22 21:15,-116.1876,41.9532,1637.00,39.20,33.80,80.79,130.00,3.00,0.00,29.76,M,10.00,M,OVC,M,M,M,2400.00,M,M,M,M,M,M,M,M,M,M,36.92,K10U 222115Z AUTO 13003KT 10SM OVC024 04/01 A2976 RMK AO2,M
TMT,2024-01-22 21:15,-117.1971,39.4643,1749.34,38.70,35.40,87.81,30.00,3.00,0.00,29.74,M,10.00,M,OVC,M,M,M,6000.00,M,M,M,M,M,M,M,M,M,M,36.35,KTMT 222115Z AUTO 03003KT 10SM OVC060 04/02 A2974 RMK AO2 T00370019,M
WMC,2024-01-22 21:21,-117.8072,40.9019,1315.00,44.00,41.00,89.11,280.00,6.00,0.01,29.73,M,10.00,M,BKN,BKN,OVC,M,2400.00,2900.00,3800.00,M,-RA,M,M,M,M,M,M,39.98,KWMC 222121Z AUTO 28006KT 10SM -RA BKN024 BKN029 OVC038 07/05 A2973 RMK AO2 P0001 T00670050,M
TPH,2024-01-22 21:23,-117.0904,38.0505,1654.00,38.00,36.00,92.42,160.00,8.00,0.03,29.75,M,4.00,M,BKN,OVC,M,M,800.00,1400.00,M,M,RA BR,M,M,M,M,M,M,31.50,KTPH 222123Z AUTO 16008KT 4SM RA BR BKN008 OVC014 03/02 A2975 RMK AO2 P0003 T00330022,M
05U,2024-01-22 21:30,-116.0051,39.6042,1811.23,39.20,33.80,80.79,310.00,9.00,0.00,29.78,M,9.00,M,M,M,M,M,M,M,M,M,M,M,M,M,M,M,M,32.47,K05U 222130Z AUTO 31009KT 9SM 04/01 A2978 RMK A01,M
HTH,2024-01-22 21:30,-118.6315,38.5448,1282.89,46.40,39.20,75.84,90.00,10.00,0.00,29.72,M,10.00,M,OVC,M,M,M,3500.00,M,M,M,M,M,M,M,M,M,M,41.03,KHTH 222130Z AUTO 09010KT 10SM OVC035 08/04 A2972 RMK A01,M
TPH,2024-01-22 21:31,-117.0904,38.0505,1654.00,38.00,37.00,96.14,140.00,10.00,0.04,29.75,M,5.00,M,BKN,OVC,M,M,1000.00,1400.00,M,M,RA BR,M,M,M,M,M,M,30.49,KTPH 222131Z AUTO 14010KT 5SM RA BR BKN010 OVC014 03/03 A2975 RMK AO2 P0004 T00330028,M
BVU,2024-01-22 21:35,-114.8611,35.9475,671.00,51.80,48.20,87.47,140.00,11.00,0.00,29.79,M,4.00,M,BKN,BKN,OVC,M,2000.00,3400.00,4500.00,M,BR,M,M,M,M,M,M,51.80,KBVU 222135Z AUTO 14011KT 4SM BR BKN020 BKN034 OVC045 11/09 A2979 RMK AO2,M
CXP,2024-01-22 21:35,-119.7326,39.1923,1431.00,46.40,39.20,75.84,70.00,7.00,0.00,29.73,M,10.00,M,FEW,M,M,M,4300.00,M,M,M,M,M,M,M,M,M,M,42.33,KCXP 222135Z AUTO 07007KT 10SM FEW043 08/04 A2973 RMK AO2,M
RTS,2024-01-22 21:35,-119.8764,39.6682,1539.00,42.80,35.60,75.50,0.00,0.00,0.00,29.74,M,10.00,M,FEW,SCT,BKN,M,1700.00,2600.00,3700.00,M,M,M,M,M,M,M,M,42.80,KRTS 222135Z AUTO 00000KT 10SM FEW017 SCT026 BKN037 06/02 A2974 RMK AO2,M
MEV,2024-01-22 21:35,-119.7500,38.9963,1441.42,46.40,37.40,70.68,360.00,4.00,0.00,29.72,M,10.00,M,SCT,M,M,M,3800.00,M,M,M,M,M,M,M,M,M,M,44.24,KMEV 222135Z AUTO 36004KT 10SM SCT038 08/03 A2972 RMK AO2,M
BAM,2024-01-22 21:35,-116.8743,40.5990,1382.36,44.60,41.00,87.09,60.00,4.00,0.00,29.76,M,10.00,M,SCT,BKN,OVC,M,2200.00,3600.00,4200.00,M,M,M,M,M,M,M,M,42.13,KBAM 222135Z AUTO 06004KT 10SM SCT022 BKN036 OVC042 07/05 A2976 RMK AO1,M
WMC,2024-01-22 21:43,-117.8072,40.9019,1315.00,44.00,40.00,85.71,280.00,5.00,0.02,29.73,M,9.00,M,SCT,BKN,OVC,M,2500.00,3700.00,4800.00,M,-RA,M,M,M,M,M,M,40.65,KWMC 222143Z AUTO 28005KT 9SM -RA SCT025 BKN037 OVC048 07/04 A2973 RMK AO2 P0002 T00670044,M
TPH,2024-01-22 21:45,-117.0904,38.0505,1654.00,38.00,36.00,92.42,160.00,11.00,0.06,29.75,M,6.00,M,BKN,OVC,M,M,900.00,1400.00,M,M,RA BR,M,M,M,M,M,M,30.05,KTPH 222145Z AUTO 16011KT 6SM RA BR BKN009 OVC014 03/02 A2975 RMK AO2 P0006 T00330022,M
LSV,2024-01-22 21:48,-115.0343,36.2362,570.00,53.60,50.00,87.56,140.00,5.00,0.00,29.76,1007.30,10.00,M,SCT,SCT,M,M,2600.00,3400.00,M,M,-RA,M,M,M,M,M,M,53.60,KLSV 222148Z AUTO 14005KT 10SM -RA SCT026 SCT034 12/10 A2976 RMK AO2 RAB2058E22RAB25E46RAB48 SLP073 $,M
10U,2024-01-22 21:50,-116.1876,41.9532,1637.00,39.20,33.80,80.79,140.00,3.00,0.00,29.76,M,10.00,M,OVC,M,M,M,2300.00,M,M,M,M,M,M,M,M,M,M,36.92,K10U 222150Z AUTO 14003KT 10SM OVC023 04/01 A2976 RMK AO2,M
05U,2024-01-22 21:50,-116.0051,39.6042,1811.23,39.20,33.80,80.79,300.00,8.00,0.00,29.78,M,8.00,M,M,M,M,M,M,M,M,M,M,M,M,M,M,M,M,32.98,K05U 222150Z AUTO 30008KT 8SM 04/01 A2978 RMK A01,M
P68,2024-01-22 21:53,-116.0056,39.6014,1993.00,38.00,33.00,82.00,140.00,10.00,0.01,29.75,1005.80,M,M,M,M,M,M,M,M,M,M,M,M,M,M,M,M,M,30.49,KP68 222153Z AUTO 14010KT 03/01 A2975 RMK AO1 SLP058 P0001 T00330006,M
DRA,2024-01-22 21:53,-116.0278,36.6206,1009.00,49.00,44.00,82.79,360.00,4.00,0.02,29.74,1005.50,10.00,M,SCT,BKN,OVC,M,3900.00,5000.00,6000.00,M,M,M,M,M,M,M,M,47.27,KDRA 222153Z AUTO 36004KT 10SM SCT039 BKN050 OVC060 09/07 A2974 RMK AO2 RAE39 SLP055 P0002 T00940067,M
ELY,2024-01-22 21:53,-114.8453,39.2950,1909.00,38.00,30.00,72.64,190.00,10.00,0.00,29.79,1007.10,10.00,M,OVC,M,M,M,3600.00,M,M,M,M,M,M,M,M,M,M,30.49,KELY 222153Z AUTO 19010KT 10SM OVC036 03/M01 A2979 RMK AO2 SLP071 T00331011,M
VGT,2024-01-22 21:53,-115.1933,36.2111,667.00,53.00,49.00,86.23,120.00,8.00,T,29.78,1009.70,9.00,M,SCT,BKN,OVC,M,1200.00,2200.00,4200.00,M,-RA,M,M,M,M,M,M,53.00,KVGT 222153Z 12008KT 9SM -RA SCT012 BKN022 OVC042 12/09 A2978 RMK AO2 RAE06B51 SLP097 P0000 T01170094,M
LOL,2024-01-22 21:53,-118.5701,40.0684,1192.43,43.00,41.00,92.58,40.00,6.00,0.02,29.73,1006.60,9.00,M,BKN,BKN,OVC,M,3500.00,4700.00,5500.00,M,-RA,M,M,M,M,M,M,38.78,KLOL 222153Z AUTO 04006KT 9SM -RA BKN035 BKN047 OVC055 06/05 A2973 RMK AO2 SLP066 P0002 T00610050,M
BVU,2024-01-22 21:55,-114.8611,35.9475,671.00,51.80,48.20,87.47,140.00,11.00,0.00,29.79,M,5.00,M,SCT,BKN,OVC,M,1800.00,3500.00,4800.00,M,BR,M,M,M,M,M,M,51.80,KBVU 222155Z AUTO 14011KT 5SM BR SCT018 BKN035 OVC048 11/09 A2979 RMK AO2,M
CXP,2024-01-22 21:55,-119.7326,39.1923,1431.00,46.40,39.20,75.84,50.00,7.00,0.00,29.74,M,10.00,M,SCT,BKN,M,M,2300.00,4400.00,M,M,M,M,M,M,M,M,M,42.33,KCXP 222155Z AUTO 05007KT 10SM SCT023 BKN044 08/04 A2974 RMK AO2,M
INS,2024-01-22 21:55,-115.6733,36.5872,955.00,50.00,44.80,82.23,110.00,14.00,T,29.74,1005.70,10.00,M,OVC,M,M,M,4200.00,M,M,M,M,M,M,M,M,M,M,50.00,KINS 222155Z AUTO 11014KT 10SM OVC042 10/07 A2974 RMK AO2 RAE39 SLP057 P0000 T01000071,M
RNO,2024-01-22 21:55,-119.7711,39.4839,1341.00,46.00,40.00,79.44,0.00,0.00,T,29.73,1004.90,10.00,M,FEW,BKN,OVC,M,1500.00,4000.00,7000.00,M,M,M,M,M,M,M,M,46.00,KRNO 222155Z 00000KT 10SM FEW015 BKN040 OVC070 08/04 A2973 RMK AO2 RAE27 SLP049 P0000 T00780044,M
RTS,2024-01-22 21:55,-119.8764,39.6682,1539.00,44.60,37.40,75.68,0.00,0.00,0.00,29.74,M,10.00,M,BKN,BKN,M,M,1700.00,2600.00,M,M,M,M,M,M,M,M,M,44.60,KRTS 222155Z AUTO 00000KT 10SM BKN017 BKN026 07/03 A2974 RMK AO2,M
MEV,2024-01-22 21:55,-119.7500,38.9963,1441.42,46.40,37.40,70.68,330.00,5.00,0.00,29.72,M,6.00,M,SCT,BKN,BKN,M,2900.00,3400.00,3900.00,M,-RA HZ,M,M,M,M,M,M,43.50,KMEV 222155Z AUTO 33005KT 6SM -RA HZ SCT029 BKN034 BKN039 08/03 A2972 RMK AO2,M
BAM,2024-01-22 21:55,-116.8743,40.5990,1382.36,44.60,41.00,87.09,60.00,4.00,0.00,29.75,M,10.00,M,BKN,OVC,M,M,2200.00,3800.00,M,M,M,M,M,M,M,M,M,42.13,KBAM 222155Z AUTO 06004KT 10SM BKN022 OVC038 07/05 A2975 RMK AO1,M
HTH,2024-01-22 21:55,-118.6315,38.5448,1282.89,46.40,39.20,75.84,80.00,7.00,0.00,29.72,M,10.00,13.00,OVC,M,M,M,3500.00,M,M,M,M,M,M,M,M,M,M,42.33,KHTH 222155Z AUTO 08007G13KT 10SM OVC035 08/04 A2972 RMK A01,M
LSV,2024-01-22 21:55,-115.0343,36.2362,570.00,53.80,49.50,85.32,130.00,6.00,0.01,29.76,1007.30,9.00,M,BKN,SCT,M,M,2500.00,3300.00,M,M,-RA,M,M,M,M,M,M,53.80,KLSV 222155Z 13006KT 9SM -RA BKN025 SCT033 12/10 A2976 RMK AO2A RAB2058E22RAB25E46RAB48 SLP073 P0001 T01210097 $,M
TMT,2024-01-22 21:55,-117.1971,39.4643,1749.34,39.40,35.20,84.76,0.00,0.00,0.00,29.74,M,10.00,M,SCT,OVC,M,M,4500.00,6000.00,M,M,M,M,M,M,M,M,M,39.40,KTMT 222155Z AUTO 00000KT 10SM SCT045 OVC060 04/02 A2974 RMK AO2 T00410018,M
EKO,2024-01-22 21:56,-115.7860,40.8242,1367.00,40.00,35.00,82.15,0.00,0.00,0.03,29.76,1008.20,10.00,M,OVC,M,M,M,1600.00,M,M,M,-RA,M,M,M,M,M,M,40.00,KEKO 222156Z AUTO 00000KT 10SM -RA OVC016 04/02 A2976 RMK AO2 SLP082 P0003 T00440017,M
HND,2024-01-22 21:56,-115.1344,35.9729,742.79,52.00,47.00,82.99,M,5.00,T,29.79,1010.20,10.00,M,SCT,BKN,OVC,M,2400.00,3800.00,5000.00,M,-RA,M,M,M,M,M,M,52.00,KHND 222156Z VRB05KT 10SM -RA SCT024 BKN038 OVC050 11/08 A2979 RMK AO2 SLP102 P0000 T01110083,M
TPH,2024-01-22 21:56,-117.0904,38.0505,1654.00,38.00,36.00,92.42,160.00,10.00,0.07,29.75,1006.90,6.00,M,BKN,OVC,M,M,1000.00,1500.00,M,M,-RA BR,M,M,M,M,M,M,30.49,KTPH 222156Z AUTO 16010KT 6SM -RA BR BKN010 OVC015 03/02 A2975 RMK AO2 SLP069 P0007 T00330022,M
LAS,2024-01-22 21:56,-115.1634,36.0719,663.00,53.00,50.00,89.51,90.00,7.00,0.03,29.78,1007.80,5.00,M,FEW,BKN,OVC,M,1000.00,1900.00,3300.00,M,-RA BR,M,M,M,M,M,M,53.00,KLAS 222156Z 09007KT 5SM -RA BR FEW010 BKN019 OVC033 12/10 A2978 RMK AO2 SLP078 P0003 T01170100,M
WMC,2024-01-22 21:56,-117.8072,40.9019,1315.00,44.00,41.00,89.11,280.00,6.00,0.02,29.74,1006.20,8.00,M,FEW,OVC,M,M,2700.00,3900.00,M,M,-RA,M,M,M,M,M,M,39.98,KWMC 222156Z AUTO 28006KT 8SM -RA FEW027 OVC039 07/05 A2974 RMK AO2 SLP062 P0002 T00670050,M
NFL,2024-01-22 21:56,-118.7010,39.4166,1199.00,46.00,41.00,82.58,150.00,6.00,0.01,29.72,1004.60,8.00,M,BKN,OVC,M,M,5000.00,6000.00,M,M,-RA,M,M,M,M,M,M,42.39,KNFL 222156Z COR 15006KT 8SM -RA BKN050 OVC060 08/05 A2972 RMK AO2 SLP046 WR// P0001 T00780050,M
VGT,2024-01-22 22:05,-115.1933,36.2111,667.00,53.00,49.00,86.23,100.00,9.00,T,29.77,M,6.00,M,BKN,BKN,OVC,M,800.00,2600.00,4800.00,M,-RA BR,M,M,M,M,M,M,53.00,KVGT 222205Z 10009KT 6SM -RA BR BKN008 BKN026 OVC048 12/09 A2977 RMK AO2 P0000 T01170094,M
LSV,2024-01-22 22:05,-115.0343,36.2362,570.00,53.60,50.00,87.56,130.00,6.00,0.00,29.76,1007.30,6.00,M,FEW,FEW,M,M,2200.00,3300.00,M,M,-RA,M,M,M,M,M,M,53.60,KLSV 222205Z AUTO 13006KT 6SM -RA FEW022 FEW033 12/10 A2976 RMK AO2 SLP073 $,M
HND,2024-01-22 22:06,-115.1344,35.9729,742.79,51.80,48.20,87.47,40.00,3.00,T,29.79,M,10.00,M,BKN,BKN,OVC,M,2000.00,3600.00,5000.00,M,M,M,M,M,M,M,M,51.80,KHND 222206Z 04003KT 10SM BKN020 BKN036 OVC050 11/09 A2979 RMK AO2 RAE02 P0000,M
CXP,2024-01-22 22:10,-119.7326,39.1923,1431.00,46.40,39.20,75.84,80.00,5.00,0.00,29.74,M,10.00,M,FEW,FEW,BKN,M,2300.00,3500.00,4400.00,M,M,M,M,M,M,M,M,43.50,KCXP 222210Z AUTO 08005KT 10SM FEW023 FEW035 BKN044 08/04 A2974 RMK AO2,M
05U,2024-01-22 22:10,-116.0051,39.6042,1811.23,37.40,33.80,86.69,310.00,6.00,0.00,29.78,M,5.00,M,M,M,M,M,M,M,M,M,BR,M,M,M,M,M,M,32.03,K05U 222210Z AUTO 31006KT 5SM BR 03/01 A2978 RMK A01,M
TPH,2024-01-22 22:12,-117.0904,38.0505,1654.00,38.00,36.00,92.42,140.00,9.00,0.02,29.76,M,6.00,M,BKN,OVC,M,M,800.00,1500.00,M,M,-RA BR,M,M,M,M,M,M,30.97,KTPH 222212Z AUTO 14009KT 6SM -RA BR BKN008 OVC015 03/02 A2976 RMK AO2 P0002 T00330022,M
LOL,2024-01-22 22:13,-118.5701,40.0684,1192.43,44.00,42.00,92.61,50.00,6.00,T,29.73,M,10.00,M,BKN,BKN,OVC,M,2800.00,3300.00,5000.00,M,-RA,M,M,M,M,M,M,39.98,KLOL 222213Z AUTO 05006KT 10SM -RA BKN028 BKN033 OVC050 07/06 A2973 RMK AO2 P0000 T00670056,M
VGT,2024-01-22 22:14,-115.1933,36.2111,667.00,53.00,50.00,89.51,110.00,9.00,T,29.77,M,6.00,M,SCT,BKN,OVC,M,800.00,3400.00,4600.00,M,-RA BR,M,M,M,M,M,M,53.00,KVGT 222214Z 11009KT 6SM -RA BR SCT008 BKN034 OVC046 12/10 A2977 RMK AO2 P0000 T01170100,M
BVU,2024-01-22 22:15,-114.8611,35.9475,671.00,51.80,48.20,87.47,150.00,9.00,0.00,29.78,M,5.00,M,FEW,SCT,BKN,M,1700.00,2300.00,2900.00,M,-RA,M,M,M,M,M,M,51.80,KBVU 222215Z AUTO 15009KT 5SM -RA FEW017 SCT023 BKN029 11/09 A2978 RMK AO2,M
RTS,2024-01-22 22:15,-119.8764,39.6682,1539.00,42.80,37.40,81.07,0.00,0.00,0.00,29.74,M,9.00,M,OVC,M,M,M,1600.00,M,M,M,M,M,M,M,M,M,M,42.80,KRTS 222215Z AUTO 00000KT 9SM OVC016 06/03 A2974 RMK AO2,M
MEV,2024-01-22 22:15,-119.7500,38.9963,1441.42,46.40,39.20,75.84,40.00,5.00,0.00,29.72,M,10.00,M,FEW,FEW,M,M,2800.00,3400.00,M,M,-RA,M,M,M,M,M,M,43.50,KMEV 222215Z AUTO 04005KT 10SM -RA FEW028 FEW034 08/04 A2972 RMK AO2,M
BAM,2024-01-22 22:15,-116.8743,40.5990,1382.36,46.40,39.20,75.84,70.00,4.00,0.00,29.75,M,10.00,M,SCT,BKN,OVC,M,2200.00,3800.00,6500.00,M,M,M,M,M,M,M,M,44.24,KBAM 222215Z AUTO 07004KT 10SM SCT022 BKN038 OVC065 08/04 A2975 RMK AO1,M
HTH,2024-01-22 22:15,-118.6315,38.5448,1282.89,46.40,39.20,75.84,70.00,8.00,0.00,29.73,M,10.00,M,OVC,M,M,M,3400.00,M,M,M,M,M,M,M,M,M,M,41.85,KHTH 222215Z AUTO 07008KT 10SM OVC034 08/04 A2973 RMK A01,M
10U,2024-01-22 22:15,-116.1876,41.9532,1637.00,39.20,33.80,80.79,140.00,5.00,0.00,29.76,M,10.00,M,OVC,M,M,M,2200.00,M,M,M,M,M,M,M,M,M,M,34.95,K10U 222215Z AUTO 14005KT 10SM OVC022 04/01 A2976 RMK AO2,M
TMT,2024-01-22 22:15,-117.1971,39.4643,1749.34,39.40,35.60,86.12,0.00,0.00,0.00,29.74,M,10.00,M,SCT,BKN,OVC,M,2200.00,3100.00,7000.00,M,M,M,M,M,M,M,M,39.40,KTMT 222215Z AUTO 00000KT 10SM SCT022 BKN031 OVC070 04/02 A2974 RMK AO2 T00410020,M
WMC,2024-01-22 22:19,-117.8072,40.9019,1315.00,44.00,41.00,89.11,280.00,7.00,0.01,29.74,M,7.00,M,FEW,OVC,M,M,600.00,3300.00,M,M,-RA,M,M,M,M,M,M,39.41,KWMC 222219Z AUTO 28007KT 7SM -RA FEW006 OVC033 07/05 A2974 RMK AO2 P0001 T00670050,M
TPH,2024-01-22 22:19,-117.0904,38.0505,1654.00,37.00,36.00,96.13,130.00,9.00,0.03,29.76,M,7.00,M,OVC,M,M,M,1000.00,M,M,M,-RA,M,M,M,M,M,M,29.73,KTPH 222219Z AUTO 13009KT 7SM -RA OVC010 03/02 A2976 RMK AO2 P0003 T00280022,M
HND,2024-01-22 22:28,-115.1344,35.9729,742.79,51.80,46.40,81.74,150.00,8.00,T,29.78,M,10.00,M,SCT,OVC,M,M,2000.00,4700.00,M,M,-RA,M,M,M,M,M,M,51.80,KHND 222228Z 15008KT 10SM -RA SCT020 OVC047 11/08 A2978 RMK AO2 P0000,M
05U,2024-01-22 22:30,-116.0051,39.6042,1811.23,37.40,33.80,86.69,310.00,5.00,0.00,29.78,M,5.00,M,M,M,M,M,M,M,M,M,BR,M,M,M,M,M,M,32.81,K05U 222230Z AUTO 31005KT 5SM BR 03/01 A2978 RMK A01,M
BVU,2024-01-22 22:35,-114.8611,35.9475,671.00,51.80,48.20,87.47,130.00,10.00,0.00,29.78,M,4.00,M,SCT,BKN,OVC,M,1300.00,2300.00,3900.00,M,-RA,M,M,M,M,M,M,51.80,KBVU 222235Z AUTO 13010KT 4SM -RA SCT013 BKN023 OVC039 11/09 A2978 RMK AO2,M
CXP,2024-01-22 22:35,-119.7326,39.1923,1431.00,46.40,39.20,75.84,60.00,6.00,0.00,29.74,M,10.00,M,BKN,BKN,BKN,M,2400.00,4100.00,4700.00,M,M,M,M,M,M,M,M,42.87,KCXP 222235Z AUTO 06006KT 10SM BKN024 BKN041 BKN047 08/04 A2974 RMK AO2,M
LOL,2024-01-22 22:35,-118.5701,40.0684,1192.43,43.00,41.00,92.58,50.00,5.00,T,29.74,M,10.00,M,SCT,BKN,OVC,M,2700.00,4600.00,5500.00,M,-RA,M,M,M,M,M,M,39.46,KLOL 222235Z AUTO 05005KT 10SM -RA SCT027 BKN046 OVC055 06/05 A2974 RMK AO2 P0000 T00610050,M
RTS,2024-01-22 22:35,-119.8764,39.6682,1539.00,44.60,37.40,75.68,0.00,0.00,0.00,29.75,M,10.00,M,FEW,SCT,BKN,M,1400.00,1800.00,3000.00,M,M,M,M,M,M,M,M,44.60,KRTS 222235Z AUTO 00000KT 10SM FEW014 SCT018 BKN030 07/03 A2975 RMK AO2,M
MEV,2024-01-22 22:35,-119.7500,38.9963,1441.42,46.40,37.40,70.68,M,3.00,0.00,29.73,M,10.00,M,FEW,M,M,M,4400.00,M,M,M,M,M,M,M,M,M,M,45.15,KMEV 222235Z AUTO VRB03KT 10SM FEW044 08/03 A2973 RMK AO2,M
BAM,2024-01-22 22:35,-116.8743,40.5990,1382.36,44.60,39.20,81.20,70.00,4.00,0.00,29.75,M,10.00,M,OVC,M,M,M,3600.00,M,M,M,M,M,M,M,M,M,M,42.13,KBAM 222235Z AUTO 07004KT 10SM OVC036 07/04 A2975 RMK AO1,M
HTH,2024-01-22 22:35,-118.6315,38.5448,1282.89,46.40,39.20,75.84,90.00,4.00,0.00,29.73,M,10.00,10.00,SCT,OVC,M,M,2900.00,3400.00,M,M,M,M,M,M,M,M,M,44.24,KHTH 222235Z AUTO 09004G10KT 10SM SCT029 OVC034 08/04 A2973 RMK A01,M
10U,2024-01-22 22:35,-116.1876,41.9532,1637.00,39.20,33.80,80.79,130.00,6.00,0.00,29.76,M,10.00,M,OVC,M,M,M,2200.00,M,M,M,M,M,M,M,M,M,M,34.20,K10U 222235Z AUTO 13006KT 10SM OVC022 04/01 A2976 RMK AO2,M
TMT,2024-01-22 22:35,-117.1971,39.4643,1749.34,39.20,36.00,88.18,0.00,0.00,0.00,29.74,M,10.00,M,SCT,OVC,M,M,2200.00,3100.00,M,M,-RA,M,M,M,M,M,M,39.20,KTMT 222235Z AUTO 00000KT 10SM -RA SCT022 OVC031 04/02 A2974 RMK AO2 T00400023,M
HND,2024-01-22 22:45,-115.1344,35.9729,742.79,51.80,46.40,81.74,160.00,9.00,0.00,29.78,M,8.00,M,FEW,OVC,M,M,2000.00,4700.00,M,M,M,M,M,M,M,M,M,51.80,KHND 222245Z 16009KT 8SM FEW020 OVC047 11/08 A2978 RMK IM,M
VGT,2024-01-22 22:46,-115.1933,36.2111,667.00,52.00,49.00,89.46,110.00,12.00,0.01,29.76,M,5.00,M,SCT,BKN,OVC,M,900.00,1800.00,4600.00,M,-RA BR,M,M,M,M,M,M,52.00,KVGT 222246Z 11012KT 5SM -RA BR SCT009 BKN018 OVC046 11/09 A2976 RMK AO2 P0001 T01110094,M
TPH,2024-01-22 22:48,-117.0904,38.0505,1654.00,36.00,35.00,96.11,120.00,7.00,0.06,29.76,M,5.00,M,BKN,OVC,M,M,900.00,1600.00,M,M,-RA BR,M,M,M,M,M,M,29.65,KTPH 222248Z AUTO 12007KT 5SM -RA BR BKN009 OVC016 02/02 A2976 RMK AO2 P0006 T00220017,M
05U,2024-01-22 22:50,-116.0051,39.6042,1811.23,37.40,33.80,86.69,300.00,5.00,0.00,29.78,M,9.00,M,M,M,M,M,M,M,M,M,M,M,M,M,M,M,M,32.81,K05U 222250Z AUTO 30005KT 9SM 03/01 A2978 RMK A01,M
P68,2024-01-22 22:53,-116.0056,39.6014,1993.00,38.00,34.00,85.35,140.00,7.00,0.00,29.75,1005.70,M,M,M,M,M,M,M,M,M,M,M,M,M,M,M,M,M,32.09,KP68 222253Z AUTO 14007KT 03/01 A2975 RMK AO1 SLP057 T00330011,M
DRA,2024-01-22 22:53,-116.0278,36.6206,1009.00,48.00,45.00,89.29,310.00,6.00,T,29.74,1005.50,4.00,M,SCT,BKN,OVC,M,2300.00,3700.00,4400.00,M,-RA BR,M,M,M,M,M,M,44.80,KDRA 222253Z AUTO 31006KT 4SM -RA BR SCT023 BKN037 OVC044 09/07 A2974 RMK AO2 RAB30 SLP055 P0000 T00890072,M
ELY,2024-01-22 22:53,-114.8453,39.2950,1909.00,38.00,31.00,75.65,200.00,10.00,0.00,29.78,1007.20,10.00,M,SCT,BKN,OVC,M,5000.00,6500.00,11000.00,M,M,M,M,M,M,M,M,30.49,KELY 222253Z AUTO 20010KT 10SM SCT050 BKN065 OVC110 03/M01 A2978 RMK AO2 SLP072 T00331006,M
VGT,2024-01-22 22:53,-115.1933,36.2111,667.00,52.00,49.00,89.46,110.00,13.00,0.01,29.76,1009.30,6.00,M,SCT,BKN,OVC,M,900.00,1600.00,4600.00,M,-RA BR,M,M,M,M,M,M,52.00,KVGT 222253Z 11013KT 6SM -RA BR SCT009 BKN016 OVC046 11/09 A2976 RMK AO2 SLP093 P0001 T01110094,M
LOL,2024-01-22 22:53,-118.5701,40.0684,1192.43,44.00,42.00,92.61,50.00,4.00,T,29.74,1006.90,10.00,M,FEW,BKN,OVC,M,800.00,4800.00,5500.00,M,-RA,M,M,M,M,M,M,41.43,KLOL 222253Z AUTO 05004KT 10SM -RA FEW008 BKN048 OVC055 07/06 A2974 RMK AO2 SLP069 P0000 T00670056,M
BVU,2024-01-22 22:55,-114.8611,35.9475,671.00,50.00,48.20,93.50,130.00,9.00,0.00,29.78,M,5.00,M,SCT,BKN,OVC,M,1200.00,2000.00,2700.00,M,BR,M,M,M,M,M,M,50.00,KBVU 222255Z AUTO 13009KT 5SM BR SCT012 BKN020 OVC027 10/09 A2978 RMK AO2,M
CXP,2024-01-22 22:55,-119.7326,39.1923,1431.00,46.40,37.40,70.68,0.00,0.00,0.00,29.75,M,10.00,M,SCT,BKN,OVC,M,1900.00,2400.00,4200.00,M,M,M,M,M,M,M,M,46.40,KCXP 222255Z AUTO 00000KT 10SM SCT019 BKN024 OVC042 08/03 A2975 RMK AO2,M
INS,2024-01-22 22:55,-115.6733,36.5872,955.00,49.50,45.00,84.41,110.00,17.00,0.00,29.74,1005.70,10.00,M,SCT,OVC,M,M,4600.00,7000.00,M,M,M,M,M,M,M,M,M,43.00,KINS 222255Z AUTO 11017KT 10SM SCT046 OVC070 10/07 A2974 RMK AO2 SLP057 T00970073,M
RNO,2024-01-22 22:55,-119.7711,39.4839,1341.00,47.00,38.00,70.74,40.00,3.00,0.00,29.74,1005.20,10.00,M,FEW,BKN,OVC,M,2000.00,3500.00,5000.00,M,M,M,M,M,M,M,M,45.84,KRNO 222255Z 04003KT 10SM FEW020 BKN035 OVC050 08/03 A2974 RMK AO2 SLP052 T00830033,M
RTS,2024-01-22 22:55,-119.8764,39.6682,1539.00,44.60,37.40,75.68,0.00,0.00,0.00,29.75,M,9.00,M,BKN,BKN,OVC,M,2100.00,2800.00,3300.00,M,M,M,M,M,M,M,M,44.60,KRTS 222255Z AUTO 00000KT 9SM BKN021 BKN028 OVC033 07/03 A2975 RMK AO2,M
MEV,2024-01-22 22:55,-119.7500,38.9963,1441.42,48.20,37.40,66.05,0.00,0.00,0.00,29.73,M,10.00,M,FEW,BKN,M,M,2400.00,4400.00,M,M,M,M,M,M,M,M,M,48.20,KMEV 222255Z AUTO 00000KT 10SM FEW024 BKN044 09/03 A2973 RMK AO2,M
BAM,2024-01-22 22:55,-116.8743,40.5990,1382.36,44.60,41.00,87.09,60.00,4.00,0.00,29.76,M,7.00,M,SCT,OVC,M,M,3100.00,3800.00,M,M,M,M,M,M,M,M,M,42.13,KBAM 222255Z AUTO 06004KT 7SM SCT031 OVC038 07/05 A2976 RMK AO1,M
HTH,2024-01-22 22:55,-118.6315,38.5448,1282.89,46.40,41.00,81.34,90.00,7.00,0.00,29.74,M,10.00,M,BKN,OVC,M,M,2800.00,3300.00,M,M,M,M,M,M,M,M,M,42.33,KHTH 222255Z AUTO 09007KT 10SM BKN028 OVC033 08/05 A2974 RMK A01,M
TMT,2024-01-22 22:55,-117.1971,39.4643,1749.34,39.40,36.30,88.54,0.00,0.00,0.00,29.75,M,10.00,M,SCT,OVC,M,M,2100.00,3400.00,M,M,-RA,M,M,M,M,M,M,39.40,KTMT 222255Z AUTO 00000KT 10SM -RA SCT021 OVC034 04/02 A2975 RMK AO2 T00410024,M
10U,2024-01-22 22:55,-116.1876,41.9532,1637.00,39.20,33.80,80.79,130.00,7.00,0.00,29.77,M,10.00,M,OVC,M,M,M,2100.00,M,M,M,M,M,M,M,M,M,M,33.56,K10U 222255Z AUTO 13007KT 10SM OVC021 04/01 A2977 RMK AO2,M
LSV,2024-01-22 22:55,-115.0343,36.2362,570.00,53.60,49.30,85.30,100.00,7.00,0.02,29.75,1007.00,8.00,M,BKN,M,M,M,1900.00,M,M,M,-RA,M,M,M,M,M,M,53.60,KLSV 222255Z 10007KT 8SM -RA BKN019 12/10 A2975 RMK AO2A SLP070 P0002 T01200096 $,M
EKO,2024-01-22 22:56,-115.7860,40.8242,1367.00,38.00,35.00,88.83,40.00,6.00,0.01,29.77,1008.50,10.00,M,BKN,OVC,M,M,2500.00,3000.00,M,M,M,M,M,M,M,M,M,32.76,KEKO 222256Z AUTO 04006KT 10SM BKN025 OVC030 03/02 A2977 RMK AO2 RAE25 SLP085 P0001 T00330017,M
NFL,2024-01-22 22:56,-118.7010,39.4166,1199.00,46.00,42.00,85.83,170.00,6.00,0.03,29.74,1005.10,5.00,M,SCT,BKN,OVC,M,3000.00,5000.00,7000.00,M,-RA BR,M,M,M,M,M,M,42.39,KNFL 222256Z 17006KT 5SM -RA BR SCT030 BKN050 OVC070 08/06 A2974 RMK AO2 SLP051 WR// P0003 T00780056,M
HND,2024-01-22 22:56,-115.1344,35.9729,742.79,52.00,47.00,82.99,150.00,7.00,0.01,29.77,1009.70,10.00,M,OVC,M,M,M,4700.00,M,M,M,-RA,M,M,M,M,M,M,52.00,KHND 222256Z 15007KT 10SM -RA OVC047 11/08 A2977 RMK AO2 SLP097 P0001 T01110083,M
TPH,2024-01-22 22:56,-117.0904,38.0505,1654.00,36.00,35.00,96.11,110.00,6.00,0.06,29.76,1007.50,6.00,M,SCT,OVC,M,M,900.00,1600.00,M,M,-RA BR,M,M,M,M,M,M,30.35,KTPH 222256Z AUTO 11006KT 6SM -RA BR SCT009 OVC016 02/02 A2976 RMK AO2 SLP075 P0006 T00220017,M
WMC,2024-01-22 22:56,-117.8072,40.9019,1315.00,43.00,40.00,89.06,280.00,8.00,0.03,29.75,1006.70,10.00,M,SCT,BKN,OVC,M,2300.00,4100.00,5000.00,M,-RA,M,M,M,M,M,M,37.66,KWMC 222256Z AUTO 28008KT 10SM -RA SCT023 BKN041 OVC050 06/04 A2975 RMK AO2 SLP067 P0003 T00610044,M
LAS,2024-01-22 22:56,-115.1634,36.0719,663.00,52.00,49.00,89.46,100.00,6.00,0.04,29.76,1007.50,6.00,M,FEW,FEW,OVC,M,1000.00,1900.00,2300.00,M,-RA BR,M,M,M,M,M,M,52.00,KLAS 222256Z COR 10006KT 6SM -RA BR FEW010 FEW019 OVC023 11/09 A2976 RMK AO2 SLP075 P0004 T01110094,M
DRA,2024-01-22 22:58,-116.0278,36.6206,1009.00,48.00,45.00,89.29,310.00,5.00,0.01,29.74,M,4.00,M,BKN,BKN,OVC,M,2500.00,3900.00,4900.00,M,-RA BR,M,M,M,M,M,M,45.40,KDRA 222258Z AUTO 31005KT 4SM -RA BR BKN025 BKN039 OVC049 09/07 A2974 RMK AO2 P0001 T00890072,M
LAS,2024-01-22 23:00,-115.1634,36.0719,663.00,52.00,49.00,89.46,80.00,7.00,T,29.76,M,6.00,M,FEW,FEW,OVC,M,1000.00,1900.00,2300.00,M,-RA BR,M,M,M,M,M,M,52.00,KLAS 222300Z 08007KT 6SM -RA BR FEW010 FEW019 OVC023 11/09 A2976 RMK AO2 P0000 T01110094,M
LSV,2024-01-22 23:05,-115.0343,36.2362,570.00,53.60,48.20,81.87,100.00,5.00,0.00,29.75,1007.00,10.00,M,FEW,M,M,M,2200.00,M,M,M,-RA,M,M,M,M,M,M,53.60,KLSV 222305Z AUTO 10005KT 10SM -RA FEW022 12/09 A2975 RMK AO2 SLP070 $,M
05U,2024-01-22 23:10,-116.0051,39.6042,1811.23,39.20,33.80,80.79,300.00,6.00,0.00,29.78,M,9.00,M,M,M,M,M,M,M,M,M,M,M,M,M,M,M,M,34.20,K05U 222310Z AUTO 30006KT 9SM 04/01 A2978 RMK A01,M
DRA,2024-01-22 23:14,-116.0278,36.6206,1009.00,48.00,45.00,89.29,300.00,5.00,0.02,29.74,M,9.00,M,SCT,SCT,OVC,M,2200.00,2700.00,4000.00,M,-RA,M,M,M,M,M,M,45.40,KDRA 222314Z AUTO 30005KT 9SM -RA SCT022 SCT027 OVC040 09/07 A2974 RMK AO2 P0002 T00890072,M
BVU,2024-01-22 23:15,-114.8611,35.9475,671.00,50.00,48.20,93.50,120.00,9.00,0.00,29.78,M,6.00,M,SCT,BKN,OVC,M,1000.00,1400.00,1900.00,M,-RA,M,M,M,M,M,M,50.00,KBVU 222315Z AUTO 12009KT 6SM -RA SCT010 BKN014 OVC019 10/09 A2978 RMK AO2,M
CXP,2024-01-22 23:15,-119.7326,39.1923,1431.00,46.40,39.20,75.84,80.00,5.00,0.00,29.75,M,10.00,M,BKN,BKN,OVC,M,2000.00,2900.00,9000.00,M,M,M,M,M,M,M,M,43.50,KCXP 222315Z AUTO 08005KT 10SM BKN020 BKN029 OVC090 08/04 A2975 RMK AO2,M
RTS,2024-01-22 23:15,-119.8764,39.6682,1539.00,44.60,37.40,75.68,320.00,9.00,0.00,29.75,M,10.00,M,BKN,OVC,M,M,2200.00,3100.00,M,M,M,M,M,M,M,M,M,39.18,KRTS 222315Z AUTO 32009KT 10SM BKN022 OVC031 07/03 A2975 RMK AO2,M
MEV,2024-01-22 23:15,-119.7500,38.9963,1441.42,46.40,37.40,70.68,0.00,0.00,0.00,29.73,M,10.00,M,FEW,OVC,M,M,2400.00,4400.00,M,M,M,M,M,M,M,M,M,46.40,KMEV 222315Z AUTO 00000KT 10SM FEW024 OVC044 08/03 A2973 RMK AO2,M
BAM,2024-01-22 23:15,-116.8743,40.5990,1382.36,44.60,41.00,87.09,50.00,4.00,0.00,29.76,M,10.00,M,SCT,OVC,M,M,2900.00,3800.00,M,M,M,M,M,M,M,M,M,42.13,KBAM 222315Z AUTO 05004KT 10SM SCT029 OVC038 07/05 A2976 RMK AO1,M
HTH,2024-01-22 23:15,-118.6315,38.5448,1282.89,46.40,41.00,81.34,90.00,7.00,0.00,29.74,M,8.00,M,BKN,M,M,M,2900.00,M,M,M,M,M,M,M,M,M,M,42.33,KHTH 222315Z AUTO 09007KT 8SM BKN029 08/05 A2974 RMK A01,M
10U,2024-01-22 23:15,-116.1876,41.9532,1637.00,39.20,33.80,80.79,130.00,7.00,0.00,29.77,M,10.00,M,OVC,M,M,M,2100.00,M,M,M,M,M,M,M,M,M,M,33.56,K10U 222315Z AUTO 13007KT 10SM OVC021 04/01 A2977 RMK AO2,M
TMT,2024-01-22 23:15,-117.1971,39.4643,1749.34,39.40,36.50,89.24,0.00,0.00,0.00,29.75,M,10.00,M,BKN,OVC,M,M,2500.00,3600.00,M,M,-RA,M,M,M,M,M,M,39.40,KTMT 222315Z AUTO 00000KT 10SM -RA BKN025 OVC036 04/03 A2975 RMK AO2 T00410025,M
DRA,2024-01-22 23:19,-116.0278,36.6206,1009.00,48.00,45.00,89.29,310.00,4.00,0.02,29.74,M,7.00,M,BKN,BKN,OVC,M,2200.00,2800.00,4000.00,M,-RA,M,M,M,M,M,M,46.10,KDRA 222319Z AUTO 31004KT 7SM -RA BKN022 BKN028 OVC040 09/07 A2974 RMK AO2 P0002 T00890072,M
VGT,2024-01-22 23:23,-115.1933,36.2111,667.00,52.00,49.00,89.46,110.00,11.00,0.01,29.76,M,10.00,M,FEW,BKN,OVC,M,1000.00,3300.00,5500.00,M,-RA,M,M,M,M,M,M,52.00,KVGT 222323Z 11011KT 10SM -RA FEW010 BKN033 OVC055 11/09 A2976 RMK AO2 P0001 T01110094,M
LOL,2024-01-22 23:25,-118.5701,40.0684,1192.43,44.00,42.00,92.61,50.00,5.00,0.01,29.75,M,9.00,M,FEW,BKN,OVC,M,800.00,2900.00,5000.00,M,-RA,M,M,M,M,M,M,40.65,KLOL 222325Z AUTO 05005KT 9SM -RA FEW008 BKN029 OVC050 07/06 A2975 RMK AO2 P0001 T00670056,M
05U,2024-01-22 23:30,-116.0051,39.6042,1811.23,37.40,33.80,86.69,290.00,7.00,0.00,29.78,M,9.00,M,M,M,M,M,M,M,M,M,M,M,M,M,M,M,M,31.36,K05U 222330Z AUTO 29007KT 9SM 03/01 A2978 RMK A01,M
10U,2024-01-22 23:30,-116.1876,41.9532,1637.00,39.20,33.80,80.79,130.00,6.00,0.00,29.77,M,10.00,M,OVC,M,M,M,2100.00,M,M,M,M,M,M,M,M,M,M,34.20,K10U 222330Z AUTO 13006KT 10SM OVC021 04/01 A2977 RMK AO2,M
BVU,2024-01-22 23:35,-114.8611,35.9475,671.00,50.00,50.00,100.00,150.00,14.00,0.00,29.78,M,10.00,M,OVC,M,M,M,1300.00,M,M,M,M,M,M,M,M,M,M,50.00,KBVU 222335Z AUTO 15014KT 10SM OVC013 10/10 A2978 RMK AO2,M
CXP,2024-01-22 23:35,-119.7326,39.1923,1431.00,46.40,39.20,75.84,60.00,5.00,0.00,29.76,M,10.00,M,FEW,SCT,BKN,M,2000.00,4700.00,8500.00,M,M,M,M,M,M,M,M,43.50,KCXP 222335Z AUTO 06005KT 10SM FEW020 SCT047 BKN085 08/04 A2976 RMK AO2,M
RTS,2024-01-22 23:35,-119.8764,39.6682,1539.00,44.60,35.60,70.48,300.00,7.00,0.00,29.76,M,10.00,M,FEW,BKN,OVC,M,2100.00,2700.00,3200.00,M,M,M,M,M,M,M,M,40.14,KRTS 222335Z AUTO 30007KT 10SM FEW021 BKN027 OVC032 07/02 A2976 RMK AO2,M
MEV,2024-01-22 23:35,-119.7500,38.9963,1441.42,46.40,37.40,70.68,360.00,3.00,0.00,29.74,M,10.00,M,FEW,SCT,BKN,M,2800.00,3500.00,4200.00,M,M,M,M,M,M,M,M,45.15,KMEV 222335Z AUTO 36003KT 10SM FEW028 SCT035 BKN042 08/03 A2974 RMK AO2,M
BAM,2024-01-22 23:35,-116.8743,40.5990,1382.36,44.60,41.00,87.09,50.00,4.00,0.00,29.76,M,10.00,M,SCT,OVC,M,M,3200.00,4100.00,M,M,M,M,M,M,M,M,M,42.13,KBAM 222335Z AUTO 05004KT 10SM SCT032 OVC041 07/05 A2976 RMK AO1,M
HTH,2024-01-22 23:35,-118.6315,38.5448,1282.89,46.40,41.00,81.34,40.00,5.00,0.00,29.75,M,5.00,M,FEW,SCT,BKN,M,1600.00,2400.00,3100.00,M,HZ,M,M,M,M,M,M,43.50,KHTH 222335Z AUTO 04005KT 5SM HZ FEW016 SCT024 BKN031 08/05 A2975 RMK A01,M
TMT,2024-01-22 23:35,-117.1971,39.4643,1749.34,39.40,36.70,89.95,0.00,0.00,0.00,29.75,M,10.00,M,SCT,BKN,OVC,M,2800.00,4000.00,5000.00,M,-DZ,M,M,M,M,M,M,39.40,KTMT 222335Z AUTO 00000KT 10SM -DZ SCT028 BKN040 OVC050 04/03 A2975 RMK AO2 T00410026,M
DRA,2024-01-22 23:37,-116.0278,36.6206,1009.00,47.00,45.00,92.71,330.00,5.00,0.04,29.74,M,3.00,M,FEW,BKN,OVC,M,2100.00,3300.00,4000.00,M,RA BR,M,M,M,M,M,M,44.21,KDRA 222337Z AUTO 33005KT 3SM RA BR FEW021 BKN033 OVC040 08/07 A2974 RMK AO2 P0004 T00830072,M
VGT,2024-01-22 23:42,-115.1933,36.2111,667.00,52.00,49.00,89.46,110.00,9.00,0.01,29.77,M,6.00,M,FEW,BKN,OVC,M,900.00,3800.00,5500.00,M,-RA BR,M,M,M,M,M,M,52.00,KVGT 222342Z 11009KT 6SM -RA BR FEW009 BKN038 OVC055 11/09 A2977 RMK AO2 P0001 T01110094,M
WMC,2024-01-22 23:45,-117.8072,40.9019,1315.00,42.00,39.00,89.01,300.00,6.00,0.02,29.76,M,8.00,M,FEW,BKN,OVC,M,700.00,3000.00,4100.00,M,-RA,M,M,M,M,M,M,37.57,KWMC 222345Z AUTO 30006KT 8SM -RA FEW007 BKN030 OVC041 06/04 A2976 RMK AO2 P0002 T00560039,M
P68,2024-01-22 23:53,-116.0056,39.6014,1993.00,38.00,33.00,82.00,140.00,9.00,0.00,29.76,1005.80,M,M,M,M,M,M,M,M,M,M,M,M,M,M,M,M,M,30.97,KP68 222353Z AUTO 14009KT 03/01 A2976 RMK AO1 SLP058 60001 T00330006 10044 20028 55000,M
DRA,2024-01-22 23:53,-116.0278,36.6206,1009.00,47.00,45.00,92.71,330.00,3.00,0.05,29.74,1005.60,9.00,M,FEW,FEW,OVC,M,2100.00,3000.00,4500.00,M,-RA,M,M,M,M,M,M,45.84,KDRA 222353Z AUTO 33003KT 9SM -RA FEW021 FEW030 OVC045 08/07 A2974 RMK AO2 SLP056 P0005 60015 T00830072 10094 20078 55005,M
ELY,2024-01-22 23:53,-114.8453,39.2950,1909.00,37.00,31.00,78.69,210.00,9.00,0.00,29.80,1007.80,10.00,M,BKN,OVC,M,M,5000.00,6500.00,M,M,M,M,M,M,M,M,M,29.73,KELY 222353Z AUTO 21009KT 10SM BKN050 OVC065 03/M01 A2980 RMK AO2 SLP078 T00281006 10044 20022 53002,M
VGT,2024-01-22 23:53,-115.1933,36.2111,667.00,52.00,49.00,89.46,110.00,10.00,0.02,29.77,1009.50,4.00,M,SCT,BKN,OVC,M,900.00,2400.00,3400.00,M,-RA BR,M,M,M,M,M,M,52.00,KVGT 222353Z 11010KT 4SM -RA BR SCT009 BKN024 OVC034 11/09 A2977 RMK AO2 SLP095 P0002 60006 T01110094 10122 20111 55006,M
LOL,2024-01-22 23:53,-118.5701,40.0684,1192.43,43.00,42.00,96.23,60.00,4.00,0.02,29.76,1007.60,5.00,M,FEW,BKN,OVC,M,600.00,2900.00,3400.00,M,-RA BR,M,M,M,M,M,M,40.27,KLOL 222353Z AUTO 06004KT 5SM -RA BR FEW006 BKN029 OVC034 06/06 A2976 RMK AO2 SLP076 P0002 60007 T00610056 10067 20061 53006,M
BVU,2024-01-22 23:55,-114.8611,35.9475,671.00,51.80,48.20,87.47,140.00,14.00,0.00,29.78,M,10.00,M,BKN,BKN,OVC,M,1400.00,2400.00,3300.00,M,M,M,M,M,M,M,M,51.80,KBVU 222355Z AUTO 14014KT 10SM BKN014 BKN024 OVC033 11/09 A2978 RMK AO2,M
CXP,2024-01-22 23:55,-119.7326,39.1923,1431.00,46.40,39.20,75.84,70.00,7.00,0.00,29.76,M,10.00,M,FEW,FEW,BKN,M,2200.00,4700.00,7000.00,M,M,M,M,M,M,M,M,42.33,KCXP 222355Z AUTO 07007KT 10SM FEW022 FEW047 BKN070 08/04 A2976 RMK AO2,M
INS,2024-01-22 23:55,-115.6733,36.5872,955.00,49.00,45.00,86.00,110.00,18.00,0.00,29.74,1005.70,10.00,22.00,FEW,FEW,OVC,M,800.00,4300.00,6000.00,M,M,M,M,M,M,M,M,42.13,KINS 222355Z AUTO 11018G22KT 10SM FEW008 FEW043 OVC060 09/07 A2974 RMK AO2 SLP057 60000 T00940072 10102 20091 55004,M
RNO,2024-01-22 23:55,-119.7711,39.4839,1341.00,46.00,39.00,76.40,330.00,4.00,0.02,29.75,1006.10,4.00,M,BKN,OVC,M,M,3300.00,5000.00,M,M,RA,M,M,M,M,M,M,43.77,KRNO 222355Z 33004KT 4SM RA BKN033 OVC050 08/04 A2975 RMK AO2 RAB36 SLP061 P0002 60003 T00780039 10089 20072 53007,M
RTS,2024-01-22 23:55,-119.8764,39.6682,1539.00,42.80,35.60,75.50,300.00,5.00,0.00,29.77,M,10.00,M,FEW,BKN,BKN,M,2100.00,3000.00,5000.00,M,-DZ,M,M,M,M,M,M,39.22,KRTS 222355Z AUTO 30005KT 10SM -DZ FEW021 BKN030 BKN050 06/02 A2977 RMK AO2,M
05U,2024-01-22 23:55,-116.0051,39.6042,1811.23,37.40,33.80,86.69,300.00,9.00,0.00,29.79,M,10.00,M,M,M,M,M,M,M,M,M,M,M,M,M,M,M,M,30.23,K05U 222355Z AUTO 30009KT 10SM 03/01 A2979 RMK A01,M
MEV,2024-01-22 23:55,-119.7500,38.9963,1441.42,46.40,37.40,70.68,0.00,0.00,0.00,29.75,M,10.00,M,FEW,BKN,BKN,M,2800.00,3800.00,4500.00,M,M,M,M,M,M,M,M,46.40,KMEV 222355Z AUTO 00000KT 10SM FEW028 BKN038 BKN045 08/03 A2975 RMK AO2,M
BAM,2024-01-22 23:55,-116.8743,40.5990,1382.36,44.60,41.00,87.09,40.00,6.00,0.00,29.76,M,10.00,M,BKN,OVC,M,M,2800.00,3700.00,M,M,M,M,M,M,M,M,M,40.71,KBAM 222355Z AUTO 04006KT 10SM BKN028 OVC037 07/05 A2976 RMK AO1,M
HTH,2024-01-22 23:55,-118.6315,38.5448,1282.89,44.60,42.80,93.35,30.00,5.00,0.00,29.75,M,7.00,M,SCT,BKN,OVC,M,1800.00,2400.00,4300.00,M,M,M,M,M,M,M,M,41.36,KHTH 222355Z AUTO 03005KT 7SM SCT018 BKN024 OVC043 07/06 A2975 RMK A01,M
10U,2024-01-22 23:55,-116.1876,41.9532,1637.00,37.40,33.80,86.69,150.00,7.00,0.00,29.77,M,10.00,M,OVC,M,M,M,2000.00,M,M,M,M,M,M,M,M,M,M,31.36,K10U 222355Z AUTO 15007KT 10SM OVC020 03/01 A2977 RMK AO2,M
LSV,2024-01-22 23:55,-115.0343,36.2362,570.00,53.20,48.60,84.33,130.00,8.00,0.02,29.75,1007.00,10.00,M,FEW,BKN,M,M,2300.00,3000.00,M,M,-RA,M,M,M,M,M,M,53.20,KLSV 222355Z COR 13008KT 10SM -RA FEW023 BKN030 12/09 A2975 RMK AO2A SLP070 P0002 60008 T01180092 10124 20117 55006 $ COR 0008,M
TMT,2024-01-22 23:55,-117.1971,39.4643,1749.34,38.70,37.20,94.28,240.00,3.00,0.00,29.76,M,10.00,M,BKN,OVC,M,M,2100.00,2800.00,M,M,-DZ,M,M,M,M,M,M,36.35,KTMT 222355Z AUTO 24003KT 10SM -DZ BKN021 OVC028 04/03 A2976 RMK AO2 T00370029 10041 20030,M
EKO,2024-01-22 23:56,-115.7860,40.8242,1367.00,37.00,35.00,92.39,40.00,6.00,T,29.78,1009.30,10.00,M,SCT,OVC,M,M,1500.00,2100.00,M,M,UP,M,M,M,M,M,M,31.55,KEKO 222356Z AUTO 04006KT 10SM UP SCT015 OVC021 03/02 A2978 RMK AO2 RAB11E52UPB28 SLP093 P0000 60009 T00280017 10044 20017 53003,M
NFL,2024-01-22 23:56,-118.7010,39.4166,1199.00,45.00,42.00,89.15,0.00,0.00,0.03,29.75,1005.50,6.00,M,SCT,BKN,OVC,M,3000.00,5000.00,7000.00,M,-RA BR,M,M,M,M,M,M,45.00,KNFL 222356Z 00000KT 6SM -RA BR SCT030 BKN050 OVC070 07/06 A2975 RMK AO2 SLP055 WR// P0003 60008 T00720056 10089 20072 53009,M
HND,2024-01-22 23:56,-115.1344,35.9729,742.79,52.00,47.00,82.99,150.00,13.00,T,29.78,1009.80,10.00,16.00,OVC,M,M,M,4300.00,M,M,M,M,M,M,M,M,M,M,52.00,KHND 222356Z 15013G16KT 10SM OVC043 11/08 A2978 RMK AO2 RAE2259 SLP098 P0000 60001 T01110083 10117 20106 55008,M
TPH,2024-01-22 23:56,-117.0904,38.0505,1654.00,34.00,33.00,96.08,80.00,5.00,0.06,29.78,1008.10,4.00,M,SCT,OVC,M,M,400.00,1800.00,M,M,-SN BR,M,M,M,M,M,M,28.77,KTPH 222356Z AUTO 08005KT 4SM -SN BR SCT004 OVC018 01/01 A2978 RMK AO2 RAE26SNB26 SLP081 P0006 60032 T00110006 10044 20011 53006,M
LAS,2024-01-22 23:56,-115.1634,36.0719,663.00,52.00,49.00,89.46,90.00,7.00,0.03,29.76,1007.50,10.00,M,FEW,BKN,OVC,M,1000.00,2100.00,4500.00,M,M,M,M,M,M,M,M,52.00,KLAS 222356Z 09007KT 10SM FEW010 BKN021 OVC045 11/09 A2976 RMK AO2 RAE46 SLP075 P0003 60010 T01110094 10122 20111 56008,M
WMC,2024-01-22 23:56,-117.8072,40.9019,1315.00,42.00,39.00,89.01,300.00,6.00,0.02,29.76,1007.40,7.00,M,BKN,OVC,M,M,3100.00,4100.00,M,M,-RA,M,M,M,M,M,M,37.57,KWMC 222356Z AUTO 30006KT 7SM -RA BKN031 OVC041 06/04 A2976 RMK AO2 SLP074 P0002 60007 T00560039 10078 20056 53007,M
