station,valid,lon,lat,elevation,tmpf,dwpf,relh,drct,sknt,p01i,alti,mslp,vsby,gust,skyc1,skyc2,skyc3,skyc4,skyl1,skyl2,skyl3,skyl4,wxcodes,ice_accretion_1hr,ice_accretion_3hr,ice_accretion_6hr,peak_wind_gust,peak_wind_drct,peak_wind_time,feel,metar,snowdepth
INS,2024-02-02 00:09,-115.6733,36.5872,955.00,46.40,41.00,81.34,120.00,10.00,0.00,29.66,1002.50,10.00,M,SCT,SCT,BKN,OVC,1500.00,2000.00,7000.00,9000.00,M,M,M,M,M,M,M,41.03,KINS 020009Z AUTO 12010KT 10SM SCT015 SCT020 BKN070 OVC090 08/05 A2966 RMK AO2 RAE2359 SLP025,M
TPH,2024-02-02 00:09,-117.0904,38.0505,1654.00,35.00,34.00,96.09,170.00,9.00,T,29.64,M,9.00,M,BKN,OVC,M,M,800.00,1500.00,M,M,-RA,M,M,M,M,M,M,27.24,KTPH 020009Z AUTO 17009KT 9SM -RA BKN008 OVC015 02/01 A2964 RMK AO2 P0000 T00170011,M
BVU,2024-02-02 00:15,-114.8611,35.9475,671.00,50.00,41.00,71.07,200.00,20.00,0.00,29.72,M,4.00,27.00,FEW,OVC,M,M,3500.00,4800.00,M,M,-RA,M,M,M,M,M,M,50.00,KBVU 020015Z AUTO 20020G27KT 4SM -RA FEW035 OVC048 10/05 A2972 RMK AO2,M
CXP,2024-02-02 00:15,-119.7326,39.1923,1431.00,46.40,23.00,39.36,280.00,9.00,0.00,29.62,M,10.00,18.00,CLR,M,M,M,M,M,M,M,M,M,M,M,M,M,M,41.42,KCXP 020015Z AUTO 28009G18KT 10SM CLR 08/M05 A2962 RMK AO2,M
RTS,2024-02-02 00:15,-119.8764,39.6682,1539.00,42.80,24.80,48.67,280.00,7.00,0.00,29.62,M,10.00,14.00,SCT,BKN,M,M,4600.00,5500.00,M,M,M,M,M,M,M,M,M,37.94,KRTS 020015Z AUTO 28007G14KT 10SM SCT046 BKN055 06/M04 A2962 RMK AO2,M
05U,2024-02-02 00:15,-116.0051,39.6042,1811.23,41.00,32.00,70.08,350.00,8.00,0.00,29.62,M,10.00,M,M,M,M,M,M,M,M,M,M,M,M,M,M,M,M,35.20,K05U 020015Z AUTO 35008KT 10SM 05/M00 A2962 RMK A01,M
MEV,2024-02-02 00:15,-119.7500,38.9963,1441.42,44.60,21.20,39.06,260.00,18.00,0.00,29.60,M,10.00,24.00,SCT,BKN,M,M,6000.00,7000.00,M,M,M,M,M,M,M,M,M,36.34,KMEV 020015Z AUTO 26018G24KT 10SM SCT060 BKN070 07/M06 A2960 RMK AO2,M
BAM,2024-02-02 00:15,-116.8743,40.5990,1382.36,42.80,41.00,93.30,220.00,7.00,0.00,29.61,M,4.00,M,SCT,BKN,OVC,M,1300.00,1900.00,2500.00,M,M,M,M,M,M,M,M,37.94,KBAM 020015Z AUTO 22007KT 4SM SCT013 BKN019 OVC025 06/05 A2961 RMK AO1,M
HTH,2024-02-02 00:15,-118.6315,38.5448,1282.89,44.60,33.80,65.61,330.00,3.00,0.00,29.61,M,10.00,M,BKN,BKN,BKN,M,4700.00,6000.00,7000.00,M,M,M,M,M,M,M,M,43.09,KHTH 020015Z AUTO 33003KT 10SM BKN047 BKN060 BKN070 07/01 A2961 RMK A01,M
10U,2024-02-02 00:15,-116.1876,41.9532,1637.00,39.20,37.40,93.19,140.00,4.00,0.00,29.58,M,8.00,M,BKN,BKN,M,M,1700.00,2200.00,M,M,-RA,M,M,M,M,M,M,35.83,K10U 020015Z AUTO 14004KT 8SM -RA BKN017 BKN022 04/03 A2958 RMK AO2,M
TMT,2024-02-02 00:15,-117.1971,39.4643,1749.34,36.00,34.00,92.35,240.00,7.00,0.00,29.61,M,10.00,M,BKN,OVC,M,M,1600.00,2200.00,M,M,-RA,M,M,M,M,M,M,29.65,KTMT 020015Z AUTO 24007KT 10SM -RA BKN016 OVC022 02/01 A2961 RMK AO2 T00230011,M
INS,2024-02-02 00:21,-115.6733,36.5872,955.00,46.40,41.00,81.34,120.00,10.00,0.00,29.66,1002.50,10.00,M,FEW,BKN,BKN,OVC,1800.00,3900.00,5500.00,7000.00,-DZ,M,M,M,M,M,M,41.03,KINS 020021Z AUTO 12010KT 10SM -DZ FEW018 BKN039 BKN055 OVC070 08/05 A2966 RMK AO2 RAE2359DZB21 SLP025,M
INS,2024-02-02 00:29,-115.6733,36.5872,955.00,46.40,41.00,81.34,120.00,11.00,0.00,29.65,1002.20,10.00,M,FEW,BKN,BKN,OVC,1800.00,3900.00,5500.00,7000.00,M,M,M,M,M,M,M,40.66,KINS 020029Z AUTO 12011KT 10SM FEW018 BKN039 BKN055 OVC070 08/05 A2965 RMK AO2 RAE2359DZB21E29 SLP022,M
05U,2024-02-02 00:30,-116.0051,39.6042,1811.23,39.20,32.00,75.16,330.00,8.00,0.00,29.63,M,10.00,M,M,M,M,M,M,M,M,M,M,M,M,M,M,M,M,32.98,K05U 020030Z AUTO 33008KT 10SM 04/00 A2963 RMK A01,M
BVU,2024-02-02 00:35,-114.8611,35.9475,671.00,50.00,42.80,76.18,180.00,9.00,0.00,29.72,M,7.00,20.00,OVC,M,M,M,4800.00,M,M,M,-RA,M,M,M,M,M,M,50.00,KBVU 020035Z AUTO 18009G20KT 7SM -RA OVC048 10/06 A2972 RMK AO2,M
CXP,2024-02-02 00:35,-119.7326,39.1923,1431.00,44.60,23.00,42.14,270.00,8.00,0.00,29.62,M,10.00,15.00,CLR,M,M,M,M,M,M,M,M,M,M,M,M,M,M,39.63,KCXP 020035Z AUTO 27008G15KT 10SM CLR 07/M05 A2962 RMK AO2,M
LSV,2024-02-02 00:35,-115.0343,36.2362,570.00,50.00,44.60,81.61,110.00,3.00,0.00,29.68,1004.30,10.00,M,SCT,M,M,M,2700.00,M,M,M,-RA,M,M,M,M,M,M,50.00,KLSV 020035Z AUTO 11003KT 10SM -RA SCT027 10/07 A2968 RMK AO2 RAE33DZB33E34RAB34 SLP043 $,M
RTS,2024-02-02 00:35,-119.8764,39.6682,1539.00,41.00,24.80,52.17,300.00,12.00,0.00,29.62,M,10.00,M,FEW,SCT,SCT,M,4900.00,6000.00,7000.00,M,M,M,M,M,M,M,M,33.46,KRTS 020035Z AUTO 30012KT 10SM FEW049 SCT060 SCT070 05/M04 A2962 RMK AO2,M
MEV,2024-02-02 00:35,-119.7500,38.9963,1441.42,44.60,23.00,42.14,270.00,12.00,0.00,29.61,M,10.00,18.00,OVC,M,M,M,5500.00,M,M,M,M,M,M,M,M,M,M,38.04,KMEV 020035Z AUTO 27012G18KT 10SM OVC055 07/M05 A2961 RMK AO2,M
BAM,2024-02-02 00:35,-116.8743,40.5990,1382.36,42.80,39.20,86.99,220.00,6.00,0.00,29.61,M,5.00,M,SCT,BKN,OVC,M,1200.00,2400.00,2800.00,M,M,M,M,M,M,M,M,38.54,KBAM 020035Z AUTO 22006KT 5SM SCT012 BKN024 OVC028 06/04 A2961 RMK AO1,M
HTH,2024-02-02 00:35,-118.6315,38.5448,1282.89,42.80,33.80,70.28,330.00,4.00,0.00,29.61,M,10.00,M,FEW,SCT,BKN,M,4700.00,6000.00,10000.00,M,M,M,M,M,M,M,M,40.03,KHTH 020035Z AUTO 33004KT 10SM FEW047 SCT060 BKN100 06/01 A2961 RMK A01,M
TMT,2024-02-02 00:35,-117.1971,39.4643,1749.34,35.60,33.80,93.08,240.00,12.00,0.00,29.62,M,10.00,M,OVC,M,M,M,1600.00,M,M,M,-RA,M,M,M,M,M,M,26.58,KTMT 020035Z AUTO 24012KT 10SM -RA OVC016 02/01 A2962 RMK AO2 T00200010,M
10U,2024-02-02 00:35,-116.1876,41.9532,1637.00,39.20,37.40,93.19,130.00,5.00,0.00,29.59,M,9.00,M,OVC,M,M,M,1800.00,M,M,M,-RA,M,M,M,M,M,M,34.95,K10U 020035Z AUTO 13005KT 9SM -RA OVC018 04/03 A2959 RMK AO2,M
LSV,2024-02-02 00:36,-115.0343,36.2362,570.00,50.00,44.60,81.61,120.00,3.00,0.00,29.68,1004.30,10.00,M,SCT,M,M,M,2700.00,M,M,M,M,M,M,M,M,M,M,50.00,KLSV 020036Z AUTO 12003KT 10SM SCT027 10/07 A2968 RMK AO2 RAE33DZB33E34RAB34E35 SLP043 $,M
DRA,2024-02-02 00:53,-116.0278,36.6206,1009.00,43.00,42.00,96.23,230.00,4.00,0.04,29.66,1002.40,10.00,M,FEW,OVC,M,M,1600.00,3900.00,M,M,-RA,M,M,M,M,M,M,40.27,KDRA 020053Z AUTO 23004KT 10SM -RA FEW016 OVC039 06/06 A2966 RMK AO2 SLP024 P0004 T00610056,M
ELY,2024-02-02 00:53,-114.8453,39.2950,1909.00,37.00,31.00,78.69,180.00,13.00,0.00,29.63,1000.60,10.00,22.00,BKN,BKN,BKN,M,4100.00,4900.00,9000.00,M,M,M,M,M,26.00,170.00,2024-02-02 00:20,27.97,KELY 020053Z AUTO 18013G22KT 10SM BKN041 BKN049 BKN090 03/M01 A2963 RMK AO2 PK WND 17026/0020 SLP006 T00281006,M
VGT,2024-02-02 00:53,-115.1933,36.2111,667.00,50.00,44.00,79.76,110.00,6.00,0.00,29.69,1007.00,10.00,M,SCT,SCT,OVC,M,5000.00,7500.00,9000.00,M,M,M,M,M,M,M,M,50.00,KVGT 020053Z 11006KT 10SM SCT050 SCT075 OVC090 10/07 A2969 RMK AO2 SLP070 T01000067,M
LOL,2024-02-02 00:53,-118.5701,40.0684,1192.43,42.00,38.00,85.60,0.00,0.00,0.00,29.61,1002.20,10.00,M,OVC,M,M,M,8000.00,M,M,M,M,M,M,M,M,M,M,42.00,KLOL 020053Z AUTO 00000KT 10SM OVC080 06/03 A2961 RMK AO2 SLP022 T00560033,M
P68,2024-02-02 00:53,-116.0056,39.6014,1993.00,38.00,32.00,78.77,160.00,8.00,0.00,29.60,999.40,M,M,M,M,M,M,M,M,M,M,M,M,M,M,M,M,M,31.50,KP68 020053Z AUTO 16008KT 03/00 A2960 RMK AO1 SLP994 T00330000,M
BVU,2024-02-02 00:55,-114.8611,35.9475,671.00,48.20,42.80,81.47,200.00,9.00,0.00,29.72,M,7.00,M,FEW,OVC,M,M,3300.00,4700.00,M,M,-RA,M,M,M,M,M,M,43.66,KBVU 020055Z AUTO 20009KT 7SM -RA FEW033 OVC047 09/06 A2972 RMK AO2,M
CXP,2024-02-02 00:55,-119.7326,39.1923,1431.00,42.80,23.00,45.14,280.00,8.00,0.00,29.63,M,10.00,16.00,CLR,M,M,M,M,M,M,M,M,M,M,M,M,M,M,37.42,KCXP 020055Z AUTO 28008G16KT 10SM CLR 06/M05 A2963 RMK AO2,M
INS,2024-02-02 00:55,-115.6733,36.5872,955.00,45.30,41.00,84.80,120.00,11.00,T,29.65,1002.40,10.00,M,SCT,BKN,BKN,M,4100.00,5000.00,10000.00,M,M,M,M,M,M,M,M,39.27,KINS 020055Z AUTO 12011KT 10SM SCT041 BKN050 BKN100 07/05 A2965 RMK AO2 RAE2359DZB21E29 SLP024 P0000 T00740049,M
RNO,2024-02-02 00:55,-119.7711,39.4839,1341.00,46.00,26.00,45.29,290.00,13.00,0.00,29.61,1000.90,10.00,M,BKN,BKN,M,M,7500.00,15000.00,M,M,M,M,M,M,M,M,M,39.50,KRNO 020055Z 29013KT 10SM BKN075 BKN150 08/M03 A2961 RMK AO2 SLP009 VIRGA E THRU S T00781033,M
LSV,2024-02-02 00:55,-115.0343,36.2362,570.00,50.70,43.70,76.83,70.00,3.00,0.01,29.68,1004.30,10.00,M,FEW,M,M,M,5000.00,M,M,M,M,M,M,M,M,M,M,50.70,KLSV 020055Z AUTO 07003KT 10SM FEW050 10/07 A2968 RMK AO2 RAE33DZB33E34RAB34E35 SLP043 P0001 T01040065 $,M
RTS,2024-02-02 00:55,-119.8764,39.6682,1539.00,41.00,24.80,52.17,300.00,9.00,0.00,29.63,M,10.00,M,SCT,BKN,OVC,M,4400.00,6000.00,7000.00,M,M,M,M,M,M,M,M,34.70,KRTS 020055Z AUTO 30009KT 10SM SCT044 BKN060 OVC070 05/M04 A2963 RMK AO2,M
05U,2024-02-02 00:55,-116.0051,39.6042,1811.23,39.20,32.00,75.16,310.00,6.00,0.00,29.62,M,10.00,M,M,M,M,M,M,M,M,M,M,M,M,M,M,M,M,34.20,K05U 020055Z AUTO 31006KT 10SM 04/00 A2962 RMK A01,M
MEV,2024-02-02 00:55,-119.7500,38.9963,1441.42,42.80,23.00,45.14,280.00,10.00,0.00,29.62,M,10.00,M,OVC,M,M,M,5500.00,M,M,M,M,M,M,M,M,M,M,36.51,KMEV 020055Z AUTO 28010KT 10SM OVC055 06/M05 A2962 RMK AO2,M
BAM,2024-02-02 00:55,-116.8743,40.5990,1382.36,42.80,41.00,93.30,230.00,4.00,0.00,29.61,M,10.00,M,SCT,BKN,OVC,M,1500.00,4400.00,5500.00,M,M,M,M,M,M,M,M,40.03,KBAM 020055Z AUTO 23004KT 10SM SCT015 BKN044 OVC055 06/05 A2961 RMK AO1,M
HTH,2024-02-02 00:55,-118.6315,38.5448,1282.89,42.80,35.60,75.50,330.00,6.00,0.00,29.62,M,9.00,M,SCT,BKN,OVC,M,3200.00,5500.00,10000.00,M,M,M,M,M,M,M,M,38.54,KHTH 020055Z AUTO 33006KT 9SM SCT032 BKN055 OVC100 06/02 A2962 RMK A01,M
EKO,2024-02-02 00:56,-115.7860,40.8242,1367.00,41.00,36.00,82.22,280.00,4.00,T,29.59,1000.80,10.00,M,BKN,OVC,M,M,2200.00,3500.00,M,M,M,M,M,M,M,M,M,37.93,KEKO 020056Z AUTO 28004KT 10SM BKN022 OVC035 05/02 A2959 RMK AO2 RAB12E30 SLP008 P0000 T00500022,M
NFL,2024-02-02 00:56,-118.7010,39.4166,1199.00,43.00,39.00,85.66,M,5.00,0.01,29.61,1001.30,10.00,M,BKN,BKN,OVC,M,3000.00,5000.00,10000.00,M,M,M,M,M,M,M,M,39.46,KNFL 020056Z VRB05KT 10SM BKN030 BKN050 OVC100 06/04 A2961 RMK AO2 RAB16E21 SLP013 WR// P0001 T00610039,M
HND,2024-02-02 00:56,-115.1344,35.9729,742.79,48.00,40.00,73.67,170.00,11.00,T,29.71,1007.30,10.00,M,OVC,M,M,M,8000.00,M,M,M,M,M,M,M,M,M,M,42.69,KHND 020056Z 17011KT 10SM OVC080 09/04 A2971 RMK AO2 RAB06E21 SLP073 P0000 T00890044,M
TPH,2024-02-02 00:56,-117.0904,38.0505,1654.00,34.00,33.00,96.08,180.00,10.00,0.02,29.64,1002.70,3.00,M,BKN,BKN,OVC,M,800.00,1100.00,1500.00,M,-SN BR,M,M,M,M,M,M,25.48,KTPH 020056Z AUTO 18010KT 3SM -SN BR BKN008 BKN011 OVC015 01/01 A2964 RMK AO2 RAE27SNB27 SLP027 P0002 T00110006,M
LAS,2024-02-02 00:56,-115.1634,36.0719,663.00,49.00,42.00,76.67,M,3.00,T,29.70,1005.00,10.00,M,FEW,BKN,BKN,OVC,3000.00,6500.00,8000.00,18000.00,M,M,M,M,M,M,M,48.12,KLAS 020056Z VRB03KT 10SM FEW030 BKN065 BKN080 OVC180 09/06 A2970 RMK AO2 RAE01 SLP050 P0000 T00940056,M
WMC,2024-02-02 00:56,-117.8072,40.9019,1315.00,40.00,36.00,85.48,260.00,3.00,0.00,29.60,1001.30,10.00,M,OVC,M,M,M,8500.00,M,M,M,M,M,M,M,M,M,M,37.83,KWMC 020056Z AUTO 26003KT 10SM OVC085 04/02 A2960 RMK AO2 SLP013 T00440022,M
TPH,2024-02-02 01:03,-117.0904,38.0505,1654.00,34.00,33.00,96.08,190.00,10.00,0.01,29.64,M,4.00,M,BKN,BKN,OVC,M,600.00,1100.00,1700.00,M,-SN BR,M,M,M,M,M,M,25.48,KTPH 020103Z AUTO 19010KT 4SM -SN BR BKN006 BKN011 OVC017 01/01 A2964 RMK AO2 P0001 T00110006,M
EKO,2024-02-02 01:05,-115.7860,40.8242,1367.00,41.00,36.00,82.22,230.00,3.00,T,29.59,M,10.00,M,SCT,OVC,M,M,2300.00,3500.00,M,M,-RA,M,M,M,M,M,M,38.98,KEKO 020105Z AUTO 23003KT 10SM -RA SCT023 OVC035 05/02 A2959 RMK AO2 RAB03 P0000 T00500022,M
10U,2024-02-02 01:10,-116.1876,41.9532,1637.00,39.20,37.40,93.19,180.00,5.00,0.00,29.59,M,10.00,M,OVC,M,M,M,1400.00,M,M,M,-RA,M,M,M,M,M,M,34.95,K10U 020110Z AUTO 18005KT 10SM -RA OVC014 04/03 A2959 RMK AO2,M
BVU,2024-02-02 01:15,-114.8611,35.9475,671.00,48.20,42.80,81.47,170.00,9.00,0.00,29.71,M,4.00,M,SCT,BKN,OVC,M,2600.00,3300.00,4600.00,M,-RA,M,M,M,M,M,M,43.66,KBVU 020115Z AUTO 17009KT 4SM -RA SCT026 BKN033 OVC046 09/06 A2971 RMK AO2,M
CXP,2024-02-02 01:15,-119.7326,39.1923,1431.00,42.80,23.00,45.14,270.00,7.00,0.00,29.63,M,10.00,15.00,CLR,M,M,M,M,M,M,M,M,M,M,M,M,M,M,37.94,KCXP 020115Z AUTO 27007G15KT 10SM CLR 06/M05 A2963 RMK AO2,M
RTS,2024-02-02 01:15,-119.8764,39.6682,1539.00,39.20,26.60,60.29,310.00,8.00,0.00,29.63,M,10.00,M,SCT,BKN,M,M,4200.00,6000.00,M,M,M,M,M,M,M,M,M,32.98,KRTS 020115Z AUTO 31008KT 10SM SCT042 BKN060 04/M03 A2963 RMK AO2,M
05U,2024-02-02 01:15,-116.0051,39.6042,1811.23,39.20,32.00,75.16,320.00,8.00,0.00,29.62,M,10.00,M,M,M,M,M,M,M,M,M,M,M,M,M,M,M,M,32.98,K05U 020115Z AUTO 32008KT 10SM 04/00 A2962 RMK A01,M
MEV,2024-02-02 01:15,-119.7500,38.9963,1441.42,42.80,23.00,45.14,300.00,7.00,0.00,29.62,M,10.00,M,OVC,M,M,M,5500.00,M,M,M,M,M,M,M,M,M,M,37.94,KMEV 020115Z AUTO 30007KT 10SM OVC055 06/M05 A2962 RMK AO2,M
BAM,2024-02-02 01:15,-116.8743,40.5990,1382.36,42.80,41.00,93.30,230.00,5.00,0.00,29.61,M,10.00,M,SCT,BKN,OVC,M,1800.00,4400.00,5000.00,M,M,M,M,M,M,M,M,39.22,KBAM 020115Z AUTO 23005KT 10SM SCT018 BKN044 OVC050 06/05 A2961 RMK AO1,M
HTH,2024-02-02 01:15,-118.6315,38.5448,1282.89,42.80,37.40,81.07,330.00,11.00,0.00,29.63,M,4.00,M,SCT,BKN,OVC,M,2800.00,3600.00,4700.00,M,HZ,M,M,M,M,M,M,36.11,KHTH 020115Z AUTO 33011KT 4SM HZ SCT028 BKN036 OVC047 06/03 A2963 RMK A01,M
TMT,2024-02-02 01:15,-117.1971,39.4643,1749.34,32.00,32.00,100.00,240.00,6.00,0.01,29.63,M,3.00,M,OVC,M,M,M,1200.00,M,M,M,-SN,M,M,M,M,M,M,25.53,KTMT 020115Z AUTO 24006KT 3SM -SN OVC012 00/00 A2963 RMK AO2 P0001 T00000000,M
INS,2024-02-02 01:20,-115.6733,36.5872,955.00,44.60,41.00,87.09,120.00,9.00,0.00,29.65,1002.40,10.00,M,BKN,OVC,M,M,2700.00,3600.00,M,M,M,M,M,M,M,M,M,39.18,KINS 020120Z AUTO 12009KT 10SM BKN027 OVC036 07/05 A2965 RMK AO2 SLP024,M
BVU,2024-02-02 01:35,-114.8611,35.9475,671.00,48.20,42.80,81.47,180.00,9.00,0.00,29.70,M,7.00,15.00,FEW,SCT,BKN,M,2300.00,2700.00,3300.00,M,M,M,M,M,M,M,M,43.66,KBVU 020135Z AUTO 18009G15KT 7SM FEW023 SCT027 BKN033 09/06 A2970 RMK AO2,M
CXP,2024-02-02 01:35,-119.7326,39.1923,1431.00,41.00,23.00,48.39,0.00,0.00,0.00,29.64,M,10.00,M,FEW,M,M,M,6500.00,M,M,M,M,M,M,M,M,M,M,41.00,KCXP 020135Z AUTO 00000KT 10SM FEW065 05/M05 A2964 RMK AO2,M
RTS,2024-02-02 01:35,-119.8764,39.6682,1539.00,37.40,26.60,64.70,310.00,8.00,0.00,29.64,M,10.00,M,FEW,SCT,M,M,4000.00,5000.00,M,M,M,M,M,M,M,M,M,30.76,KRTS 020135Z AUTO 31008KT 10SM FEW040 SCT050 03/M03 A2964 RMK AO2,M
05U,2024-02-02 01:35,-116.0051,39.6042,1811.23,39.20,32.00,75.16,320.00,6.00,0.00,29.62,M,10.00,M,M,M,M,M,M,M,M,M,M,M,M,M,M,M,M,34.20,K05U 020135Z AUTO 32006KT 10SM 04/M00 A2962 RMK A01,M
MEV,2024-02-02 01:35,-119.7500,38.9963,1441.42,42.80,24.80,48.67,300.00,11.00,0.00,29.63,M,10.00,M,OVC,M,M,M,5500.00,M,M,M,M,M,M,M,M,M,M,36.11,KMEV 020135Z AUTO 30011KT 10SM OVC055 06/M04 A2963 RMK AO2,M
BAM,2024-02-02 01:35,-116.8743,40.5990,1382.36,41.00,39.20,93.24,280.00,6.00,0.00,29.61,M,10.00,M,BKN,OVC,M,M,2100.00,2800.00,M,M,M,M,M,M,M,M,M,36.37,KBAM 020135Z AUTO 28006KT 10SM BKN021 OVC028 05/04 A2961 RMK AO1,M
HTH,2024-02-02 01:35,-118.6315,38.5448,1282.89,41.00,37.40,86.89,320.00,9.00,0.00,29.63,M,10.00,M,FEW,BKN,BKN,M,3100.00,4500.00,6000.00,M,M,M,M,M,M,M,M,34.70,KHTH 020135Z AUTO 32009KT 10SM FEW031 BKN045 BKN060 05/03 A2963 RMK A01,M
10U,2024-02-02 01:35,-116.1876,41.9532,1637.00,39.20,37.40,93.19,210.00,7.00,0.00,29.59,M,9.00,M,OVC,M,M,M,1300.00,M,M,M,-RA,M,M,M,M,M,M,33.56,K10U 020135Z AUTO 21007KT 9SM -RA OVC013 04/03 A2959 RMK AO2,M
TMT,2024-02-02 01:35,-117.1971,39.4643,1749.34,32.50,32.00,98.01,210.00,8.00,0.01,29.62,M,10.00,M,SCT,OVC,M,M,1200.00,2000.00,M,M,-SN,M,M,M,M,M,M,24.73,KTMT 020135Z AUTO 21008KT 10SM -SN SCT012 OVC020 00/00 A2962 RMK AO2 P0001 T00030000,M
EKO,2024-02-02 01:42,-115.7860,40.8242,1367.00,41.00,36.00,82.22,0.00,0.00,0.01,29.59,M,10.00,M,BKN,OVC,M,M,2400.00,3300.00,M,M,-RA,M,M,M,M,M,M,41.00,KEKO 020142Z AUTO 00000KT 10SM -RA BKN024 OVC033 05/02 A2959 RMK AO2 RAB03 P0001 T00500022,M
INS,2024-02-02 01:45,-115.6733,36.5872,955.00,44.60,41.00,87.09,120.00,9.00,0.00,29.66,1002.50,10.00,M,BKN,OVC,M,M,2600.00,3300.00,M,M,M,M,M,M,M,M,M,39.18,KINS 020145Z AUTO 12009KT 10SM BKN026 OVC033 07/05 A2966 RMK AO2 SLP025,M
05U,2024-02-02 01:50,-116.0051,39.6042,1811.23,39.20,32.00,75.16,330.00,6.00,0.00,29.62,M,10.00,M,M,M,M,M,M,M,M,M,M,M,M,M,M,M,M,34.20,K05U 020150Z AUTO 33006KT 10SM 04/M00 A2962 RMK A01,M
INS,2024-02-02 01:51,-115.6733,36.5872,955.00,46.40,41.00,81.34,130.00,8.00,0.00,29.66,1002.50,9.00,M,FEW,FEW,OVC,M,700.00,1300.00,2600.00,M,-RA,M,M,M,M,M,M,41.85,KINS 020151Z AUTO 13008KT 9SM -RA FEW007 FEW013 OVC026 08/05 A2966 RMK AO2 RAB51 OVC V BKN SLP025,M
DRA,2024-02-02 01:53,-116.0278,36.6206,1009.00,44.00,41.00,89.11,0.00,0.00,0.01,29.66,1002.70,10.00,M,OVC,M,M,M,3500.00,M,M,M,-RA,M,M,M,M,M,M,44.00,KDRA 020153Z AUTO 00000KT 10SM -RA OVC035 07/05 A2966 RMK AO2 SLP027 P0001 T00670050,M
ELY,2024-02-02 01:53,-114.8453,39.2950,1909.00,37.00,30.00,75.56,180.00,13.00,0.00,29.62,1000.20,10.00,22.00,BKN,OVC,M,M,4600.00,5500.00,M,M,M,M,M,M,26.00,160.00,2024-02-02 01:25,27.97,KELY 020153Z AUTO 18013G22KT 10SM BKN046 OVC055 03/M01 A2962 RMK AO2 PK WND 16026/0125 SLP002 T00281011,M
VGT,2024-02-02 01:53,-115.1933,36.2111,667.00,49.00,44.00,82.79,90.00,7.00,0.00,29.67,1006.20,10.00,M,SCT,M,M,M,11000.00,M,M,M,M,M,M,M,M,M,M,45.50,KVGT 020153Z 09007KT 10SM SCT110 09/07 A2967 RMK AO2 SLP062 T00940067,M
LOL,2024-02-02 01:53,-118.5701,40.0684,1192.43,39.00,38.00,96.16,180.00,5.00,0.00,29.62,1002.70,10.00,M,BKN,M,M,M,11000.00,M,M,M,M,M,M,M,M,M,M,34.71,KLOL 020153Z AUTO 18005KT 10SM BKN110 04/03 A2962 RMK AO2 SLP027 T00390033,M
P68,2024-02-02 01:53,-116.0056,39.6014,1993.00,38.00,31.00,75.65,0.00,0.00,0.00,29.59,999.40,M,M,M,M,M,M,M,M,M,M,M,M,M,M,M,M,M,38.00,KP68 020153Z AUTO 00000KT 03/M01 A2959 RMK AO1 SLP994 T00331006,M
BVU,2024-02-02 01:55,-114.8611,35.9475,671.00,48.20,42.80,81.47,170.00,7.00,0.00,29.70,M,10.00,15.00,FEW,BKN,OVC,M,1500.00,4800.00,5500.00,M,M,M,M,M,M,M,M,44.53,KBVU 020155Z AUTO 17007G15KT 10SM FEW015 BKN048 OVC055 09/06 A2970 RMK AO2,M
CXP,2024-02-02 01:55,-119.7326,39.1923,1431.00,41.00,24.80,52.17,350.00,4.00,0.00,29.65,M,10.00,M,SCT,BKN,M,M,5000.00,6500.00,M,M,M,M,M,M,M,M,M,37.93,KCXP 020155Z AUTO 35004KT 10SM SCT050 BKN065 05/M04 A2965 RMK AO2,M
RNO,2024-02-02 01:55,-119.7711,39.4839,1341.00,43.00,26.00,50.77,290.00,15.00,0.00,29.61,1001.30,10.00,M,FEW,BKN,M,M,7000.00,15000.00,M,M,M,M,M,M,M,M,M,35.04,KRNO 020155Z 29015KT 10SM FEW070 BKN150 06/M03 A2961 RMK AO2 SLP013 T00611033,M
LSV,2024-02-02 01:55,-115.0343,36.2362,570.00,51.00,42.00,71.18,150.00,8.00,0.00,29.66,1003.60,10.00,M,BKN,M,M,M,5000.00,M,M,M,M,M,M,M,M,M,M,51.00,KLSV 020155Z AUTO 15008KT 10SM BKN050 11/06 A2966 RMK AO2 SLP036 T01060056 $,M
RTS,2024-02-02 01:55,-119.8764,39.6682,1539.00,35.60,28.40,74.80,310.00,8.00,0.00,29.64,M,10.00,M,FEW,SCT,M,M,5000.00,5500.00,M,M,M,M,M,M,M,M,M,28.55,KRTS 020155Z AUTO 31008KT 10SM FEW050 SCT055 02/M02 A2964 RMK AO2,M
MEV,2024-02-02 01:55,-119.7500,38.9963,1441.42,41.00,24.80,52.17,290.00,8.00,0.00,29.63,M,10.00,M,BKN,OVC,M,M,6000.00,7000.00,M,M,M,M,M,M,M,M,M,35.20,KMEV 020155Z AUTO 29008KT 10SM BKN060 OVC070 05/M04 A2963 RMK AO2,M
BAM,2024-02-02 01:55,-116.8743,40.5990,1382.36,39.20,37.40,93.19,350.00,10.00,0.00,29.63,M,5.00,M,SCT,OVC,M,M,1100.00,1700.00,M,M,M,M,M,M,M,M,M,32.00,KBAM 020155Z AUTO 35010KT 5SM SCT011 OVC017 04/03 A2963 RMK AO1,M
HTH,2024-02-02 01:55,-118.6315,38.5448,1282.89,41.00,37.40,86.89,340.00,7.00,0.00,29.63,M,10.00,12.00,FEW,SCT,SCT,M,3300.00,4700.00,6000.00,M,M,M,M,M,M,M,M,35.75,KHTH 020155Z AUTO 34007G12KT 10SM FEW033 SCT047 SCT060 05/03 A2963 RMK A01,M
10U,2024-02-02 01:55,-116.1876,41.9532,1637.00,37.40,35.60,93.14,230.00,10.00,0.00,29.60,M,6.00,16.00,SCT,OVC,M,M,800.00,1200.00,M,M,UP,M,M,M,M,M,M,29.74,K10U 020155Z AUTO 23010G16KT 6SM UP SCT008 OVC012 03/02 A2960 RMK AO2,M
INS,2024-02-02 01:55,-115.6733,36.5872,955.00,45.50,40.60,82.87,120.00,6.00,T,29.66,1002.50,9.00,M,FEW,FEW,SCT,OVC,700.00,1200.00,1900.00,2600.00,-RA,M,M,M,M,M,M,41.79,KINS 020155Z AUTO 12006KT 9SM -RA FEW007 FEW012 SCT019 OVC026 08/05 A2966 RMK AO2 RAB51 OVC V BKN SLP025 P0000 T00750048,M
EKO,2024-02-02 01:56,-115.7860,40.8242,1367.00,41.00,36.00,82.22,M,3.00,0.01,29.59,1000.60,10.00,M,OVC,M,M,M,2400.00,M,M,M,-RA,M,M,M,M,M,M,38.98,KEKO 020156Z AUTO VRB03KT 10SM -RA OVC024 05/02 A2959 RMK AO2 RAB03 SLP006 P0001 T00500022,M
NFL,2024-02-02 01:56,-118.7010,39.4166,1199.00,41.00,38.00,88.97,60.00,6.00,0.00,29.62,1001.60,10.00,M,SCT,BKN,BKN,OVC,3000.00,5000.00,10000.00,25000.00,M,M,M,M,M,M,M,36.37,KNFL 020156Z 06006KT 10SM SCT030 BKN050 BKN100 OVC250 05/03 A2962 RMK AO2 SLP016 WR// T00500033,M
HND,2024-02-02 01:56,-115.1344,35.9729,742.79,48.00,41.00,76.58,190.00,11.00,0.00,29.70,1006.70,10.00,M,BKN,OVC,M,M,8000.00,10000.00,M,M,M,M,M,M,M,M,M,42.69,KHND 020156Z 19011KT 10SM BKN080 OVC100 09/05 A2970 RMK AO2 SLP067 T00890050,M
TPH,2024-02-02 01:56,-117.0904,38.0505,1654.00,34.00,34.00,100.00,170.00,5.00,0.02,29.63,1002.90,10.00,M,OVC,M,M,M,800.00,M,M,M,UP,M,M,M,M,M,M,28.77,KTPH 020156Z AUTO 17005KT 10SM UP OVC008 01/01 A2963 RMK AO2 RAB48E54UPB54SNE48 SLP029 P0002 T00110011,M
LAS,2024-02-02 01:56,-115.1634,36.0719,663.00,49.00,43.00,79.68,140.00,3.00,0.00,29.68,1004.40,10.00,M,SCT,BKN,OVC,M,7000.00,10000.00,18000.00,M,M,M,M,M,M,M,M,48.12,KLAS 020156Z 14003KT 10SM SCT070 BKN100 OVC180 09/06 A2968 RMK AO2 SLP044 T00940061,M
WMC,2024-02-02 01:56,-117.8072,40.9019,1315.00,39.00,35.00,85.42,180.00,6.00,0.00,29.60,1001.60,10.00,M,OVC,M,M,M,9000.00,M,M,M,M,M,M,M,M,M,M,33.96,KWMC 020156Z AUTO 18006KT 10SM OVC090 04/02 A2960 RMK AO2 SLP016 T00390017,M
INS,2024-02-02 02:04,-115.6733,36.5872,955.00,46.40,41.00,81.34,110.00,6.00,0.00,29.66,1002.30,10.00,M,FEW,BKN,OVC,M,600.00,1800.00,2500.00,M,M,M,M,M,M,M,M,42.87,KINS 020204Z AUTO 11006KT 10SM FEW006 BKN018 OVC025 08/05 A2966 RMK AO2 RAE02DZB02E04 BKN V SCT SLP023,M
CXP,2024-02-02 02:10,-119.7326,39.1923,1431.00,41.00,24.80,52.17,300.00,4.00,0.00,29.65,M,10.00,M,FEW,BKN,OVC,M,4900.00,6000.00,7000.00,M,M,M,M,M,M,M,M,37.93,KCXP 020210Z AUTO 30004KT 10SM FEW049 BKN060 OVC070 05/M04 A2965 RMK AO2,M
05U,2024-02-02 02:10,-116.0051,39.6042,1811.23,39.20,32.00,75.16,0.00,0.00,0.00,29.62,M,10.00,M,M,M,M,M,M,M,M,M,M,M,M,M,M,M,M,39.20,K05U 020210Z AUTO 00000KT 10SM 04/M00 A2962 RMK A01,M
HTH,2024-02-02 02:10,-118.6315,38.5448,1282.89,39.20,37.40,93.19,340.00,5.00,0.00,29.64,M,10.00,M,BKN,BKN,BKN,M,3300.00,4500.00,12000.00,M,M,M,M,M,M,M,M,34.95,KHTH 020210Z AUTO 34005KT 10SM BKN033 BKN045 BKN120 04/03 A2964 RMK A01,M
10U,2024-02-02 02:10,-116.1876,41.9532,1637.00,35.60,33.80,93.08,220.00,10.00,0.00,29.60,M,5.00,M,SCT,OVC,M,M,600.00,1200.00,M,M,UP,M,M,M,M,M,M,27.48,K10U 020210Z AUTO 22010KT 5SM UP SCT006 OVC012 02/01 A2960 RMK AO2,M
BVU,2024-02-02 02:15,-114.8611,35.9475,671.00,48.20,44.60,87.28,190.00,10.00,0.00,29.70,M,10.00,18.00,FEW,BKN,OVC,M,1600.00,4700.00,5500.00,M,M,M,M,M,M,M,M,43.28,KBVU 020215Z AUTO 19010G18KT 10SM FEW016 BKN047 OVC055 09/07 A2970 RMK AO2,M
RTS,2024-02-02 02:15,-119.8764,39.6682,1539.00,35.60,28.40,74.80,280.00,7.00,0.00,29.65,M,10.00,M,BKN,BKN,M,M,5000.00,5500.00,M,M,M,M,M,M,M,M,M,29.17,KRTS 020215Z AUTO 28007KT 10SM BKN050 BKN055 02/M02 A2965 RMK AO2,M
MEV,2024-02-02 02:15,-119.7500,38.9963,1441.42,41.00,24.80,52.17,280.00,6.00,0.00,29.64,M,10.00,M,SCT,OVC,M,M,6000.00,7000.00,M,M,M,M,M,M,M,M,M,36.37,KMEV 020215Z AUTO 28006KT 10SM SCT060 OVC070 05/M04 A2964 RMK AO2,M
BAM,2024-02-02 02:15,-116.8743,40.5990,1382.36,35.60,35.60,100.00,360.00,6.00,0.00,29.63,M,5.00,M,SCT,OVC,M,M,900.00,1700.00,M,M,M,M,M,M,M,M,M,29.87,KBAM 020215Z AUTO 36006KT 5SM SCT009 OVC017 02/02 A2963 RMK AO1,M
TMT,2024-02-02 02:15,-117.1971,39.4643,1749.34,32.00,32.00,100.00,170.00,6.00,0.00,29.64,M,7.00,M,OVC,M,M,M,2600.00,M,M,M,-SN,M,M,M,M,M,M,25.53,KTMT 020215Z AUTO 17006KT 7SM -SN OVC026 00/00 A2964 RMK AO2 T00000000,M
LOL,2024-02-02 02:17,-118.5701,40.0684,1192.43,38.00,37.00,96.14,170.00,3.00,0.00,29.63,M,10.00,M,BKN,OVC,M,M,2200.00,12000.00,M,M,M,M,M,M,M,M,M,35.55,KLOL 020217Z AUTO 17003KT 10SM BKN022 OVC120 03/03 A2963 RMK AO2 T00330028,M
CXP,2024-02-02 02:30,-119.7326,39.1923,1431.00,41.00,24.80,52.17,0.00,0.00,0.00,29.65,M,10.00,M,SCT,OVC,M,M,6000.00,7000.00,M,M,M,M,M,M,M,M,M,41.00,KCXP 020230Z AUTO 00000KT 10SM SCT060 OVC070 05/M04 A2965 RMK AO2,M
05U,2024-02-02 02:30,-116.0051,39.6042,1811.23,37.40,32.00,80.65,20.00,3.00,0.00,29.63,M,10.00,M,M,M,M,M,M,M,M,M,M,M,M,M,M,M,M,34.86,K05U 020230Z AUTO 02003KT 10SM 03/M00 A2963 RMK A01,M
HTH,2024-02-02 02:30,-118.6315,38.5448,1282.89,39.20,37.40,93.19,320.00,4.00,0.00,29.64,M,10.00,M,SCT,SCT,M,M,3300.00,12000.00,M,M,M,M,M,M,M,M,M,35.83,KHTH 020230Z AUTO 32004KT 10SM SCT033 SCT120 04/03 A2964 RMK A01,M
10U,2024-02-02 02:30,-116.1876,41.9532,1637.00,33.80,33.80,100.00,220.00,7.00,0.00,29.61,M,6.00,M,BKN,OVC,M,M,600.00,1300.00,M,M,UP,M,M,M,M,M,M,26.97,K10U 020230Z AUTO 22007KT 6SM UP BKN006 OVC013 01/01 A2961 RMK AO2,M
INS,2024-02-02 02:34,-115.6733,36.5872,955.00,46.40,41.00,81.34,90.00,4.00,0.00,29.66,1002.50,10.00,M,BKN,OVC,M,M,1300.00,2900.00,M,M,M,M,M,M,M,M,M,44.24,KINS 020234Z AUTO 09004KT 10SM BKN013 OVC029 08/05 A2966 RMK AO2 RAE02DZB02E04 SLP025,M
BVU,2024-02-02 02:35,-114.8611,35.9475,671.00,48.20,44.60,87.28,160.00,8.00,0.00,29.69,M,10.00,14.00,FEW,SCT,BKN,M,3200.00,4600.00,5000.00,M,M,M,M,M,M,M,M,44.07,KBVU 020235Z AUTO 16008G14KT 10SM FEW032 SCT046 BKN050 09/07 A2969 RMK AO2,M
RTS,2024-02-02 02:35,-119.8764,39.6682,1539.00,33.80,26.60,74.63,300.00,8.00,0.00,29.65,M,10.00,M,FEW,M,M,M,5000.00,M,M,M,M,M,M,M,M,M,M,26.33,KRTS 020235Z AUTO 30008KT 10SM FEW050 01/M03 A2965 RMK AO2,M
MEV,2024-02-02 02:35,-119.7500,38.9963,1441.42,39.20,24.80,55.95,300.00,7.00,0.00,29.64,M,10.00,M,BKN,BKN,BKN,M,6500.00,8000.00,10000.00,M,M,M,M,M,M,M,M,33.56,KMEV 020235Z AUTO 30007KT 10SM BKN065 BKN080 BKN100 04/M04 A2964 RMK AO2,M
BAM,2024-02-02 02:35,-116.8743,40.5990,1382.36,37.40,35.60,93.14,350.00,8.00,0.00,29.64,M,7.00,M,SCT,OVC,M,M,1300.00,2000.00,M,M,M,M,M,M,M,M,M,30.76,KBAM 020235Z AUTO 35008KT 7SM SCT013 OVC020 03/02 A2964 RMK AO1,M
TMT,2024-02-02 02:35,-117.1971,39.4643,1749.34,32.00,32.00,100.00,170.00,6.00,0.00,29.64,M,3.00,M,BKN,OVC,M,M,1800.00,2600.00,M,M,-SN,M,M,M,M,M,M,25.53,KTMT 020235Z AUTO 17006KT 3SM -SN BKN018 OVC026 00/00 A2964 RMK AO2 T00000000,M
TPH,2024-02-02 02:47,-117.0904,38.0505,1654.00,34.00,34.00,100.00,0.00,0.00,0.02,29.64,M,10.00,M,OVC,M,M,M,600.00,M,M,M,-RA,M,M,M,M,M,M,34.00,KTPH 020247Z AUTO 00000KT 10SM -RA OVC006 01/01 A2964 RMK AO2 UPE03RAB03 P0002 T00110011,M
P68,2024-02-02 02:53,-116.0056,39.6014,1993.00,37.00,32.00,81.93,0.00,0.00,0.00,29.60,1000.10,M,M,M,M,M,M,M,M,M,M,M,M,M,M,M,M,M,37.00,KP68 020253Z AUTO 00000KT 03/00 A2960 RMK AO1 SLP001 T00280000 53003,M
DRA,2024-02-02 02:53,-116.0278,36.6206,1009.00,45.00,40.00,82.51,200.00,10.00,T,29.66,1002.30,10.00,20.00,OVC,M,M,M,3500.00,M,M,M,M,M,M,M,M,M,M,39.27,KDRA 020253Z AUTO 20010G20KT 10SM OVC035 07/04 A2966 RMK AO2 RAE03 SLP023 P0000 60005 T00720044 58002,M
ELY,2024-02-02 02:53,-114.8453,39.2950,1909.00,36.00,30.00,78.60,200.00,8.00,0.00,29.62,1000.60,10.00,M,FEW,OVC,M,M,4600.00,5500.00,M,M,M,M,M,M,M,M,M,29.04,KELY 020253Z AUTO 20008KT 10SM FEW046 OVC055 02/M01 A2962 RMK AO2 SLP006 T00221011 55002,M
VGT,2024-02-02 02:53,-115.1933,36.2111,667.00,49.00,43.00,79.68,90.00,6.00,0.00,29.68,1006.40,10.00,M,FEW,BKN,BKN,M,4900.00,6000.00,9000.00,M,M,M,M,M,M,M,M,46.00,KVGT 020253Z 09006KT 10SM FEW049 BKN060 BKN090 09/06 A2968 RMK AO2 SLP064 T00940061 55009,M
LOL,2024-02-02 02:53,-118.5701,40.0684,1192.43,38.00,37.00,96.14,170.00,5.00,0.00,29.63,1003.10,10.00,M,BKN,M,M,M,2100.00,M,M,M,M,M,M,M,M,M,M,33.52,KLOL 020253Z AUTO 17005KT 10SM BKN021 03/03 A2963 RMK AO2 SLP031 T00330028 53006,M
BVU,2024-02-02 02:55,-114.8611,35.9475,671.00,48.20,44.60,87.28,150.00,5.00,0.00,29.69,M,10.00,M,SCT,BKN,OVC,M,1600.00,2100.00,6500.00,M,M,M,M,M,M,M,M,45.63,KBVU 020255Z AUTO 15005KT 10SM SCT016 BKN021 OVC065 09/07 A2969 RMK AO2,M
CXP,2024-02-02 02:55,-119.7326,39.1923,1431.00,41.00,24.80,52.17,0.00,0.00,0.00,29.66,M,10.00,M,BKN,OVC,M,M,6000.00,7000.00,M,M,M,M,M,M,M,M,M,41.00,KCXP 020255Z AUTO 00000KT 10SM BKN060 OVC070 05/M04 A2966 RMK AO2,M
INS,2024-02-02 02:55,-115.6733,36.5872,955.00,46.20,40.60,80.70,90.00,3.00,T,29.66,1002.50,10.00,M,BKN,OVC,M,M,1300.00,2400.00,M,M,M,M,M,M,M,M,M,44.92,KINS 020255Z AUTO 09003KT 10SM BKN013 OVC024 08/05 A2966 RMK AO2 RAE02DZB02E04 SLP025 P0000 60000 T00790048 55001,M
RNO,2024-02-02 02:55,-119.7711,39.4839,1341.00,42.00,27.00,54.99,270.00,8.00,0.00,29.63,1002.10,10.00,M,FEW,BKN,M,M,9000.00,16000.00,M,M,M,M,M,M,M,M,M,36.43,KRNO 020255Z 27008KT 10SM FEW090 BKN160 06/M03 A2963 RMK AO2 SLP021 T00561028 53012,M
RTS,2024-02-02 02:55,-119.8764,39.6682,1539.00,33.80,26.60,74.63,310.00,7.00,0.00,29.66,M,10.00,M,CLR,M,M,M,M,M,M,M,M,M,M,M,M,M,M,26.97,KRTS 020255Z AUTO 31007KT 10SM CLR 01/M03 A2966 RMK AO2,M
05U,2024-02-02 02:55,-116.0051,39.6042,1811.23,37.40,32.00,80.65,0.00,0.00,0.00,29.63,M,7.00,M,M,M,M,M,M,M,M,M,M,M,M,M,M,M,M,37.40,K05U 020255Z AUTO 00000KT 7SM 03/00 A2963 RMK A01,M
MEV,2024-02-02 02:55,-119.7500,38.9963,1441.42,37.40,24.80,60.04,M,3.00,0.00,29.65,M,10.00,M,SCT,BKN,BKN,M,5500.00,6500.00,7500.00,M,M,M,M,M,M,M,M,34.86,KMEV 020255Z AUTO VRB03KT 10SM SCT055 BKN065 BKN075 03/M04 A2965 RMK AO2,M
BAM,2024-02-02 02:55,-116.8743,40.5990,1382.36,37.40,35.60,93.14,350.00,4.00,0.00,29.64,M,10.00,M,SCT,OVC,M,M,2200.00,2600.00,M,M,M,M,M,M,M,M,M,33.73,KBAM 020255Z AUTO 35004KT 10SM SCT022 OVC026 03/02 A2964 RMK AO1,M
HTH,2024-02-02 02:55,-118.6315,38.5448,1282.89,39.20,37.40,93.19,0.00,0.00,0.00,29.65,M,10.00,M,FEW,SCT,BKN,M,3100.00,4200.00,4800.00,M,M,M,M,M,M,M,M,39.20,KHTH 020255Z AUTO 00000KT 10SM FEW031 SCT042 BKN048 04/03 A2965 RMK A01,M
10U,2024-02-02 02:55,-116.1876,41.9532,1637.00,33.80,32.00,93.03,210.00,6.00,0.00,29.61,M,4.00,M,OVC,M,M,M,600.00,M,M,M,-SN,M,M,M,M,M,M,27.70,K10U 020255Z AUTO 21006KT 4SM -SN OVC006 01/00 A2961 RMK AO2,M
TMT,2024-02-02 02:55,-117.1971,39.4643,1749.34,32.00,32.00,100.00,180.00,5.00,0.00,29.64,M,3.00,M,OVC,M,M,M,1600.00,M,M,M,-SN,M,M,M,M,M,M,26.40,KTMT 020255Z AUTO 18005KT 3SM -SN OVC016 00/00 A2964 RMK AO2 60001 T00000000,M
LSV,2024-02-02 02:55,-115.0343,36.2362,570.00,51.60,42.40,70.70,190.00,6.00,0.00,29.66,1003.60,10.00,M,SCT,M,M,M,5000.00,M,M,M,M,M,M,M,M,M,M,51.60,KLSV 020255Z AUTO 19006KT 10SM SCT050 11/06 A2966 RMK AO2 SLP036 60001 T01090058 57014 $,M
EKO,2024-02-02 02:56,-115.7860,40.8242,1367.00,39.00,37.00,92.45,260.00,3.00,0.03,29.59,1001.00,8.00,M,SCT,OVC,M,M,1700.00,2700.00,M,M,-RA,M,M,M,M,M,M,36.69,KEKO 020256Z AUTO 26003KT 8SM -RA SCT017 OVC027 04/03 A2959 RMK AO2 SLP010 P0003 60004 T00390028 55002,M
NFL,2024-02-02 02:56,-118.7010,39.4166,1199.00,39.00,37.00,92.45,160.00,5.00,0.00,29.63,1001.80,10.00,M,SCT,BKN,BKN,BKN,3000.00,5000.00,10000.00,25000.00,M,M,M,M,M,M,M,34.71,KNFL 020256Z 16005KT 10SM SCT030 BKN050 BKN100 BKN250 04/03 A2963 RMK AO2 SLP018 60001 T00390028 53006,M
HND,2024-02-02 02:56,-115.1344,35.9729,742.79,48.00,41.00,76.58,190.00,9.00,0.00,29.69,1006.60,10.00,M,BKN,M,M,M,12000.00,M,M,M,M,M,M,M,M,M,M,43.41,KHND 020256Z 19009KT 10SM BKN120 09/05 A2969 RMK AO2 SLP066 60000 T00890050 56010,M
TPH,2024-02-02 02:56,-117.0904,38.0505,1654.00,34.00,33.00,96.08,170.00,3.00,0.02,29.64,1003.70,6.00,M,OVC,M,M,M,600.00,M,M,M,-SN BR,M,M,M,M,M,M,30.97,KTPH 020256Z AUTO 17003KT 6SM -SN BR OVC006 01/01 A2964 RMK AO2 UPE03RAB03E53SNB53 SLP037 P0002 60006 T00110006 53002,M
LAS,2024-02-02 02:56,-115.1634,36.0719,663.00,49.00,41.00,73.77,160.00,4.00,0.00,29.68,1004.30,10.00,M,SCT,BKN,OVC,M,7000.00,10000.00,18000.00,M,M,M,M,M,M,M,M,47.27,KLAS 020256Z 16004KT 10SM SCT070 BKN100 OVC180 09/05 A2968 RMK AO2 SLP043 60000 T00940050 56013,M
WMC,2024-02-02 02:56,-117.8072,40.9019,1315.00,39.00,35.00,85.42,170.00,9.00,0.00,29.61,1002.00,10.00,M,OVC,M,M,M,10000.00,M,M,M,M,M,M,M,M,M,M,32.22,KWMC 020256Z AUTO 17009KT 10SM OVC100 04/02 A2961 RMK AO2 SLP020 T00390017 53004,M
INS,2024-02-02 03:00,-115.6733,36.5872,955.00,46.40,41.00,81.34,0.00,0.00,0.00,29.66,1002.50,10.00,M,SCT,OVC,M,M,1200.00,2200.00,M,M,M,M,M,M,M,M,M,46.40,KINS 020300Z AUTO 00000KT 10SM SCT012 OVC022 08/05 A2966 RMK AO2 SLP025,M
LOL,2024-02-02 03:08,-118.5701,40.0684,1192.43,38.00,36.00,92.42,170.00,5.00,0.00,29.63,M,10.00,M,SCT,M,M,M,2100.00,M,M,M,M,M,M,M,M,M,M,33.52,KLOL 020308Z AUTO 17005KT 10SM SCT021 03/02 A2963 RMK AO2 T00330022,M
HTH,2024-02-02 03:10,-118.6315,38.5448,1282.89,41.00,37.40,86.89,0.00,0.00,0.00,29.65,M,10.00,M,BKN,BKN,OVC,M,3100.00,4000.00,6000.00,M,M,M,M,M,M,M,M,41.00,KHTH 020310Z AUTO 00000KT 10SM BKN031 BKN040 OVC060 05/03 A2965 RMK A01,M
BVU,2024-02-02 03:15,-114.8611,35.9475,671.00,48.20,44.60,87.28,160.00,10.00,0.00,29.69,M,10.00,M,SCT,BKN,OVC,M,1800.00,6500.00,7500.00,M,M,M,M,M,M,M,M,43.28,KBVU 020315Z AUTO 16010KT 10SM SCT018 BKN065 OVC075 09/07 A2969 RMK AO2,M
CXP,2024-02-02 03:15,-119.7326,39.1923,1431.00,41.00,24.80,52.17,0.00,0.00,0.00,29.66,M,10.00,M,FEW,FEW,BKN,M,4300.00,5000.00,5500.00,M,M,M,M,M,M,M,M,41.00,KCXP 020315Z AUTO 00000KT 10SM FEW043 FEW050 BKN055 05/M04 A2966 RMK AO2,M
RTS,2024-02-02 03:15,-119.8764,39.6682,1539.00,32.00,26.60,80.22,340.00,6.00,0.00,29.66,M,10.00,M,CLR,M,M,M,M,M,M,M,M,M,M,M,M,M,M,25.53,KRTS 020315Z AUTO 34006KT 10SM CLR 00/M03 A2966 RMK AO2,M
05U,2024-02-02 03:15,-116.0051,39.6042,1811.23,37.40,33.80,86.69,0.00,0.00,0.00,29.63,M,8.00,M,M,M,M,M,M,M,M,M,M,M,M,M,M,M,M,37.40,K05U 020315Z AUTO 00000KT 8SM 03/01 A2963 RMK A01,M
MEV,2024-02-02 03:15,-119.7500,38.9963,1441.42,33.80,23.00,64.23,0.00,0.00,0.00,29.66,M,10.00,M,SCT,BKN,M,M,5500.00,6500.00,M,M,M,M,M,M,M,M,M,33.80,KMEV 020315Z AUTO 00000KT 10SM SCT055 BKN065 01/M05 A2966 RMK AO2,M
BAM,2024-02-02 03:15,-116.8743,40.5990,1382.36,37.40,35.60,93.14,0.00,0.00,0.00,29.65,M,7.00,M,OVC,M,M,M,2600.00,M,M,M,M,M,M,M,M,M,M,37.40,KBAM 020315Z AUTO 00000KT 7SM OVC026 03/02 A2965 RMK AO1,M
10U,2024-02-02 03:15,-116.1876,41.9532,1637.00,33.80,32.00,93.03,0.00,0.00,0.00,29.62,M,5.00,M,OVC,M,M,M,400.00,M,M,M,-SN,M,M,M,M,M,M,33.80,K10U 020315Z AUTO 00000KT 5SM -SN OVC004 01/00 A2962 RMK AO2,M
TMT,2024-02-02 03:15,-117.1971,39.4643,1749.34,32.00,32.00,100.00,180.00,4.00,0.00,29.65,M,3.00,M,OVC,M,M,M,1400.00,M,M,M,-SN,M,M,M,M,M,M,27.42,KTMT 020315Z AUTO 18004KT 3SM -SN OVC014 00/00 A2965 RMK AO2 T00000000,M
INS,2024-02-02 03:25,-115.6733,36.5872,955.00,46.40,41.00,81.34,90.00,5.00,0.00,29.66,1002.50,10.00,M,SCT,BKN,BKN,BKN,2100.00,4200.00,5000.00,6000.00,M,M,M,M,M,M,M,43.50,KINS 020325Z AUTO 09005KT 10SM SCT021 BKN042 BKN050 BKN060 08/05 A2966 RMK AO2 SLP025,M
EKO,2024-02-02 03:26,-115.7860,40.8242,1367.00,39.00,36.00,88.87,250.00,5.00,0.03,29.59,M,7.00,M,OVC,M,M,M,1400.00,M,M,M,-RA,M,M,M,M,M,M,34.71,KEKO 020326Z AUTO 25005KT 7SM -RA OVC014 04/02 A2959 RMK AO2 P0003 T00390022,M
BVU,2024-02-02 03:35,-114.8611,35.9475,671.00,48.20,44.60,87.28,170.00,12.00,0.00,29.69,M,10.00,M,BKN,OVC,M,M,6000.00,7000.00,M,M,M,M,M,M,M,M,M,42.62,KBVU 020335Z AUTO 17012KT 10SM BKN060 OVC070 09/07 A2969 RMK AO2,M
CXP,2024-02-02 03:35,-119.7326,39.1923,1431.00,39.20,24.80,55.95,0.00,0.00,0.00,29.67,M,10.00,M,FEW,BKN,OVC,M,4300.00,6500.00,7500.00,M,M,M,M,M,M,M,M,39.20,KCXP 020335Z AUTO 00000KT 10SM FEW043 BKN065 OVC075 04/M04 A2967 RMK AO2,M
RTS,2024-02-02 03:35,-119.8764,39.6682,1539.00,33.80,26.60,74.63,310.00,6.00,0.00,29.67,M,10.00,M,CLR,M,M,M,M,M,M,M,M,M,M,M,M,M,M,27.70,KRTS 020335Z AUTO 31006KT 10SM CLR 01/M03 A2967 RMK AO2,M
05U,2024-02-02 03:35,-116.0051,39.6042,1811.23,35.60,33.80,93.08,0.00,0.00,0.00,29.63,M,5.00,M,M,M,M,M,M,M,M,M,BR,M,M,M,M,M,M,35.60,K05U 020335Z AUTO 00000KT 5SM BR 02/01 A2963 RMK A01,M
MEV,2024-02-02 03:35,-119.7500,38.9963,1441.42,35.60,23.00,59.79,130.00,7.00,0.00,29.66,M,10.00,M,BKN,OVC,M,M,6000.00,7000.00,M,M,M,M,M,M,M,M,M,29.17,KMEV 020335Z AUTO 13007KT 10SM BKN060 OVC070 02/M05 A2966 RMK AO2,M
BAM,2024-02-02 03:35,-116.8743,40.5990,1382.36,37.40,35.60,93.14,140.00,5.00,0.00,29.64,M,10.00,M,SCT,BKN,OVC,M,2700.00,3200.00,4300.00,M,M,M,M,M,M,M,M,32.81,KBAM 020335Z AUTO 14005KT 10SM SCT027 BKN032 OVC043 03/02 A2964 RMK AO1,M
HTH,2024-02-02 03:35,-118.6315,38.5448,1282.89,41.00,35.60,80.93,290.00,4.00,0.00,29.66,M,10.00,M,FEW,SCT,OVC,M,2600.00,3300.00,7000.00,M,M,M,M,M,M,M,M,37.93,KHTH 020335Z AUTO 29004KT 10SM FEW026 SCT033 OVC070 05/02 A2966 RMK A01,M
10U,2024-02-02 03:35,-116.1876,41.9532,1637.00,32.00,32.00,100.00,210.00,7.00,0.00,29.62,M,2.00,M,OVC,M,M,M,400.00,M,M,M,-SN,M,M,M,M,M,M,24.78,K10U 020335Z AUTO 21007KT 2SM -SN OVC004 00/00 A2962 RMK AO2,M
TMT,2024-02-02 03:35,-117.1971,39.4643,1749.34,32.00,32.00,100.00,210.00,3.00,0.01,29.65,M,2.00,M,OVC,M,M,M,1400.00,M,M,M,-SN,M,M,M,M,M,M,28.69,KTMT 020335Z AUTO 21003KT 2SM -SN OVC014 00/00 A2965 RMK AO2 P0001 T00000000,M
ELY,2024-02-02 03:46,-114.8453,39.2950,1909.00,35.00,31.00,85.17,220.00,9.00,T,29.61,M,10.00,M,BKN,OVC,M,M,2000.00,4800.00,M,M,-RA,M,M,M,M,M,M,27.24,KELY 020346Z AUTO 22009KT 10SM -RA BKN020 OVC048 02/M01 A2961 RMK AO2 RAB42 P0000 T00171006,M
DRA,2024-02-02 03:53,-116.0278,36.6206,1009.00,46.00,39.00,76.40,220.00,5.00,0.00,29.66,1002.60,10.00,M,OVC,M,M,M,4000.00,M,M,M,M,M,M,M,M,M,M,43.02,KDRA 020353Z AUTO 22005KT 10SM OVC040 08/04 A2966 RMK AO2 SLP026 T00780039,M
ELY,2024-02-02 03:53,-114.8453,39.2950,1909.00,35.00,31.00,85.17,220.00,9.00,T,29.61,1000.00,10.00,M,BKN,OVC,M,M,2000.00,3700.00,M,M,-RA,M,M,M,M,M,M,27.24,KELY 020353Z AUTO 22009KT 10SM -RA BKN020 OVC037 02/M01 A2961 RMK AO2 RAB42 SLP000 P0000 T00171006,M
VGT,2024-02-02 03:53,-115.1933,36.2111,667.00,49.00,44.00,82.79,60.00,4.00,0.00,29.67,1006.10,10.00,M,SCT,M,M,M,6000.00,M,M,M,M,M,M,M,M,M,M,47.27,KVGT 020353Z 06004KT 10SM SCT060 09/07 A2967 RMK AO2 SLP061 T00940067,M
LOL,2024-02-02 03:53,-118.5701,40.0684,1192.43,36.00,35.00,96.11,0.00,0.00,0.00,29.64,1003.70,10.00,M,FEW,M,M,M,7000.00,M,M,M,M,M,M,M,M,M,M,36.00,KLOL 020353Z AUTO 00000KT 10SM FEW070 02/02 A2964 RMK AO2 SLP037 T00220017,M
P68,2024-02-02 03:53,-116.0056,39.6014,1993.00,35.00,33.00,92.32,0.00,0.00,0.02,29.61,1000.40,M,M,M,M,M,M,M,M,M,M,M,M,M,M,M,M,M,35.00,KP68 020353Z AUTO 00000KT 02/01 A2961 RMK AO1 SLP004 P0002 T00170006,M
BVU,2024-02-02 03:55,-114.8611,35.9475,671.00,48.20,44.60,87.28,170.00,9.00,0.00,29.69,M,10.00,15.00,OVC,M,M,M,6000.00,M,M,M,M,M,M,M,M,M,M,43.66,KBVU 020355Z AUTO 17009G15KT 10SM OVC060 09/07 A2969 RMK AO2,M
CXP,2024-02-02 03:55,-119.7326,39.1923,1431.00,37.40,26.60,64.70,0.00,0.00,0.00,29.67,M,10.00,M,BKN,BKN,M,M,6000.00,7000.00,M,M,M,M,M,M,M,M,M,37.40,KCXP 020355Z AUTO 00000KT 10SM BKN060 BKN070 03/M03 A2967 RMK AO2,M
INS,2024-02-02 03:55,-115.6733,36.5872,955.00,44.40,39.60,83.11,80.00,7.00,0.00,29.66,1002.50,10.00,M,FEW,M,M,M,6000.00,M,M,M,M,M,M,M,M,M,M,39.89,KINS 020355Z AUTO 08007KT 10SM FEW060 07/04 A2966 RMK AO2 SLP025 T00690042,M
RNO,2024-02-02 03:55,-119.7711,39.4839,1341.00,41.00,27.00,57.15,260.00,6.00,0.00,29.65,1002.60,10.00,16.00,BKN,BKN,M,M,6000.00,16000.00,M,M,M,M,M,M,M,M,M,36.37,KRNO 020355Z 26006G16KT 10SM BKN060 BKN160 05/M03 A2965 RMK AO2 SLP026 T00501028,M
LSV,2024-02-02 03:55,-115.0343,36.2362,570.00,51.60,43.00,72.34,170.00,3.00,0.00,29.65,1003.30,10.00,M,OVC,M,M,M,5500.00,M,M,M,M,M,M,M,M,M,M,51.60,KLSV 020355Z AUTO 17003KT 10SM OVC055 11/06 A2965 RMK AO2 SLP033 T01090062 $,M
RTS,2024-02-02 03:55,-119.8764,39.6682,1539.00,32.00,26.60,80.22,300.00,12.00,0.00,29.67,M,10.00,M,CLR,M,M,M,M,M,M,M,M,M,M,M,M,M,M,22.00,KRTS 020355Z AUTO 30012KT 10SM CLR 00/M03 A2967 RMK AO2,M
05U,2024-02-02 03:55,-116.0051,39.6042,1811.23,35.60,33.80,93.08,0.00,0.00,0.01,29.63,M,5.00,M,M,M,M,M,M,M,M,M,BR,M,M,M,M,M,M,35.60,K05U 020355Z AUTO 00000KT 5SM BR 02/01 A2963 RMK A01 P0001,M
MEV,2024-02-02 03:55,-119.7500,38.9963,1441.42,35.60,23.00,59.79,110.00,7.00,0.00,29.66,M,10.00,M,OVC,M,M,M,6000.00,M,M,M,M,M,M,M,M,M,M,29.17,KMEV 020355Z AUTO 11007KT 10SM OVC060 02/M05 A2966 RMK AO2,M
BAM,2024-02-02 03:55,-116.8743,40.5990,1382.36,37.40,35.60,93.14,160.00,7.00,0.00,29.65,M,10.00,M,SCT,OVC,M,M,4300.00,4900.00,M,M,M,M,M,M,M,M,M,31.36,KBAM 020355Z AUTO 16007KT 10SM SCT043 OVC049 03/02 A2965 RMK AO1,M
HTH,2024-02-02 03:55,-118.6315,38.5448,1282.89,41.00,37.40,86.89,0.00,0.00,0.00,29.66,M,10.00,M,FEW,SCT,OVC,M,3300.00,3900.00,7000.00,M,M,M,M,M,M,M,M,41.00,KHTH 020355Z AUTO 00000KT 10SM FEW033 SCT039 OVC070 05/03 A2966 RMK A01,M
10U,2024-02-02 03:55,-116.1876,41.9532,1637.00,32.00,32.00,100.00,200.00,6.00,0.00,29.62,M,2.00,M,BKN,OVC,M,M,400.00,1000.00,M,M,-SN,M,M,M,M,M,M,25.53,K10U 020355Z AUTO 20006KT 2SM -SN BKN004 OVC010 00/00 A2962 RMK AO2,M
TMT,2024-02-02 03:55,-117.1971,39.4643,1749.34,32.00,32.00,100.00,350.00,6.00,0.03,29.66,M,1.00,M,BKN,BKN,OVC,M,300.00,800.00,1200.00,M,SN,M,M,M,M,M,M,25.53,KTMT 020355Z AUTO 35006KT 1SM SN BKN003 BKN008 OVC012 00/00 A2966 RMK AO2 P0003 T00000000,M
EKO,2024-02-02 03:56,-115.7860,40.8242,1367.00,37.00,35.00,92.39,230.00,7.00,0.06,29.60,1001.40,7.00,M,BKN,OVC,M,M,1200.00,1700.00,M,M,-RA,M,M,M,M,M,M,30.87,KEKO 020356Z AUTO 23007KT 7SM -RA BKN012 OVC017 03/02 A2960 RMK AO2 SLP014 P0006 T00280017,M
NFL,2024-02-02 03:56,-118.7010,39.4166,1199.00,38.00,36.00,92.42,210.00,5.00,0.00,29.64,1002.10,10.00,M,FEW,SCT,SCT,BKN,3000.00,5000.00,10000.00,25000.00,M,M,M,M,M,M,M,33.52,KNFL 020356Z 21005KT 10SM FEW030 SCT050 SCT100 BKN250 03/02 A2964 RMK AO2 SLP021 T00330022,M
HND,2024-02-02 03:56,-115.1344,35.9729,742.79,47.00,41.00,79.52,200.00,4.00,0.00,29.69,1006.60,10.00,M,FEW,M,M,M,5500.00,M,M,M,M,M,M,M,M,M,M,44.94,KHND 020356Z 20004KT 10SM FEW055 08/05 A2969 RMK AO2 SLP066 T00830050,M
TPH,2024-02-02 03:56,-117.0904,38.0505,1654.00,34.00,33.00,96.08,200.00,6.00,0.02,29.64,1003.50,10.00,M,SCT,OVC,M,M,600.00,1200.00,M,M,UP,M,M,M,M,M,M,27.94,KTPH 020356Z AUTO 20006KT 10SM UP SCT006 OVC012 01/01 A2964 RMK AO2 RAB13E43UPB43SNE13 SLP035 P0002 T00110006,M
LAS,2024-02-02 03:56,-115.1634,36.0719,663.00,49.00,41.00,73.77,180.00,5.00,0.00,29.67,1003.90,10.00,M,BKN,BKN,OVC,M,5500.00,10000.00,18000.00,M,M,M,M,M,M,M,M,46.58,KLAS 020356Z 18005KT 10SM BKN055 BKN100 OVC180 09/05 A2967 RMK AO2 SLP039 T00940050,M
WMC,2024-02-02 03:56,-117.8072,40.9019,1315.00,38.00,35.00,88.83,190.00,8.00,0.00,29.62,1002.20,10.00,M,OVC,M,M,M,11000.00,M,M,M,M,M,M,M,M,M,M,31.50,KWMC 020356Z AUTO 19008KT 10SM OVC110 03/02 A2962 RMK AO2 SLP022 T00330017,M
BVU,2024-02-02 04:15,-114.8611,35.9475,671.00,48.20,44.60,87.28,160.00,10.00,0.00,29.68,M,10.00,M,FEW,BKN,OVC,M,4900.00,6000.00,8500.00,M,M,M,M,M,M,M,M,43.28,KBVU 020415Z AUTO 16010KT 10SM FEW049 BKN060 OVC085 09/07 A2968 RMK AO2,M
CXP,2024-02-02 04:15,-119.7326,39.1923,1431.00,35.60,24.80,64.46,50.00,3.00,0.00,29.68,M,10.00,M,BKN,M,M,M,6500.00,M,M,M,M,M,M,M,M,M,M,32.80,KCXP 020415Z AUTO 05003KT 10SM BKN065 02/M04 A2968 RMK AO2,M
EKO,2024-02-02 04:15,-115.7860,40.8242,1367.00,36.00,34.00,92.35,230.00,7.00,0.02,29.60,M,8.00,M,FEW,OVC,M,M,900.00,1400.00,M,M,-RA,M,M,M,M,M,M,29.65,KEKO 020415Z AUTO 23007KT 8SM -RA FEW009 OVC014 02/01 A2960 RMK AO2 P0002 T00220011,M
RTS,2024-02-02 04:15,-119.8764,39.6682,1539.00,32.00,26.60,80.22,300.00,9.00,0.00,29.67,M,10.00,M,CLR,M,M,M,M,M,M,M,M,M,M,M,M,M,M,23.51,KRTS 020415Z AUTO 30009KT 10SM CLR M00/M03 A2967 RMK AO2,M
05U,2024-02-02 04:15,-116.0051,39.6042,1811.23,35.60,33.80,93.08,0.00,0.00,0.00,29.63,M,5.00,M,M,M,M,M,M,M,M,M,BR,M,M,M,M,M,M,35.60,K05U 020415Z AUTO 00000KT 5SM BR 02/01 A2963 RMK A01,M
MEV,2024-02-02 04:15,-119.7500,38.9963,1441.42,35.60,24.80,64.46,90.00,6.00,0.00,29.66,M,10.00,M,OVC,M,M,M,6000.00,M,M,M,M,M,M,M,M,M,M,29.87,KMEV 020415Z AUTO 09006KT 10SM OVC060 02/M04 A2966 RMK AO2,M
BAM,2024-02-02 04:15,-116.8743,40.5990,1382.36,35.60,35.60,100.00,170.00,7.00,0.00,29.65,M,10.00,M,SCT,OVC,M,M,4900.00,5500.00,M,M,M,M,M,M,M,M,M,29.17,KBAM 020415Z AUTO 17007KT 10SM SCT049 OVC055 02/02 A2965 RMK AO1,M
HTH,2024-02-02 04:15,-118.6315,38.5448,1282.89,41.00,37.40,86.89,0.00,0.00,0.00,29.66,M,10.00,M,OVC,M,M,M,3600.00,M,M,M,M,M,M,M,M,M,M,41.00,KHTH 020415Z AUTO 00000KT 10SM OVC036 05/03 A2966 RMK A01,M
10U,2024-02-02 04:15,-116.1876,41.9532,1637.00,33.80,32.00,93.03,200.00,6.00,0.00,29.62,M,2.50,M,SCT,OVC,M,M,400.00,1000.00,M,M,-SN,M,M,M,M,M,M,27.70,K10U 020415Z AUTO 20006KT 2 1/2SM -SN SCT004 OVC010 01/00 A2962 RMK AO2,M
TMT,2024-02-02 04:15,-117.1971,39.4643,1749.34,32.00,32.00,100.00,310.00,3.00,0.01,29.67,M,1.00,M,OVC,M,M,M,500.00,M,M,M,-SN,M,M,M,M,M,M,28.69,KTMT 020415Z AUTO 31003KT 1SM -SN OVC005 00/00 A2967 RMK AO2 P0001 T00001001,M
TPH,2024-02-02 04:18,-117.0904,38.0505,1654.00,34.00,33.00,96.08,180.00,5.00,T,29.64,M,10.00,M,BKN,BKN,OVC,M,600.00,1000.00,1300.00,M,UP,M,M,M,M,M,M,28.77,KTPH 020418Z AUTO 18005KT 10SM UP BKN006 BKN010 OVC013 01/01 A2964 RMK AO2 RAB08E17 P0000 T00110006,M
EKO,2024-02-02 04:32,-115.7860,40.8242,1367.00,34.00,33.00,96.08,210.00,8.00,0.03,29.60,M,4.00,M,OVC,M,M,M,1500.00,M,M,M,-SN BR,T,M,M,M,M,M,26.58,KEKO 020432Z AUTO 21008KT 4SM -SN BR OVC015 01/01 A2960 RMK AO2 RAE27SNB27 P0003 I1000 T00110006,M
BVU,2024-02-02 04:35,-114.8611,35.9475,671.00,48.20,44.60,87.28,170.00,10.00,0.00,29.69,M,10.00,M,FEW,SCT,BKN,M,4800.00,6000.00,7500.00,M,M,M,M,M,M,M,M,43.28,KBVU 020435Z AUTO 17010KT 10SM FEW048 SCT060 BKN075 09/07 A2969 RMK AO2,M
CXP,2024-02-02 04:35,-119.7326,39.1923,1431.00,37.40,26.60,64.70,0.00,0.00,0.00,29.68,M,10.00,M,FEW,BKN,OVC,M,4600.00,5000.00,6500.00,M,M,M,M,M,M,M,M,37.40,KCXP 020435Z AUTO 00000KT 10SM FEW046 BKN050 OVC065 03/M03 A2968 RMK AO2,M
RTS,2024-02-02 04:35,-119.8764,39.6682,1539.00,32.00,26.60,80.22,290.00,6.00,0.00,29.68,M,10.00,M,CLR,M,M,M,M,M,M,M,M,M,M,M,M,M,M,25.53,KRTS 020435Z AUTO 29006KT 10SM CLR 00/M03 A2968 RMK AO2,M
05U,2024-02-02 04:35,-116.0051,39.6042,1811.23,33.80,33.80,100.00,M,4.00,0.00,29.64,M,4.00,M,M,M,M,M,M,M,M,M,BR,M,M,M,M,M,M,29.52,K05U 020435Z AUTO VRB04KT 4SM BR 01/01 A2964 RMK A01,M
MEV,2024-02-02 04:35,-119.7500,38.9963,1441.42,33.80,24.80,69.25,0.00,0.00,0.00,29.67,M,10.00,M,FEW,BKN,OVC,M,3100.00,5500.00,6500.00,M,M,M,M,M,M,M,M,33.80,KMEV 020435Z AUTO 00000KT 10SM FEW031 BKN055 OVC065 01/M04 A2967 RMK AO2,M
BAM,2024-02-02 04:35,-116.8743,40.5990,1382.36,35.60,35.60,100.00,160.00,5.00,0.00,29.65,M,10.00,M,OVC,M,M,M,5500.00,M,M,M,M,M,M,M,M,M,M,30.67,KBAM 020435Z AUTO 16005KT 10SM OVC055 02/02 A2965 RMK AO1,M
HTH,2024-02-02 04:35,-118.6315,38.5448,1282.89,41.00,35.60,80.93,0.00,0.00,0.00,29.67,M,10.00,M,OVC,M,M,M,3600.00,M,M,M,M,M,M,M,M,M,M,41.00,KHTH 020435Z AUTO 00000KT 10SM OVC036 05/02 A2967 RMK A01,M
10U,2024-02-02 04:35,-116.1876,41.9532,1637.00,32.00,32.00,100.00,200.00,6.00,0.00,29.62,M,2.50,M,SCT,OVC,M,M,300.00,1200.00,M,M,-SN,M,M,M,M,M,M,25.53,K10U 020435Z AUTO 20006KT 2 1/2SM -SN SCT003 OVC012 00/00 A2962 RMK AO2,M
TMT,2024-02-02 04:35,-117.1971,39.4643,1749.34,32.00,32.00,100.00,0.00,0.00,0.01,29.67,M,2.00,M,SCT,SCT,OVC,M,700.00,1200.00,2000.00,M,-SN,M,M,M,M,M,M,32.00,KTMT 020435Z AUTO 00000KT 2SM -SN SCT007 SCT012 OVC020 00/00 A2967 RMK AO2 P0001 T00001001,M
EKO,2024-02-02 04:43,-115.7860,40.8242,1367.00,33.00,32.00,96.06,210.00,8.00,0.04,29.60,M,2.50,M,OVC,M,M,M,1500.00,M,M,M,-SN BR,T,M,M,M,M,M,25.34,KEKO 020443Z AUTO 21008KT 2 1/2SM -SN BR OVC015 01/00 A2960 RMK AO2 RAE27SNB27 P0004 I1000 T00060000,M
EKO,2024-02-02 04:52,-115.7860,40.8242,1367.00,33.80,32.00,93.03,210.00,9.00,0.04,29.60,M,3.00,M,OVC,M,M,M,1700.00,M,M,M,-SN BR,T,M,M,M,M,M,25.75,KEKO 020452Z AUTO 21009KT 3SM -SN BR OVC017 01/00 A2960 RMK AO2 RAE27SNB27 P0004 I1000,M
DRA,2024-02-02 04:53,-116.0278,36.6206,1009.00,46.00,38.00,73.47,220.00,8.00,0.00,29.66,1002.60,10.00,M,OVC,M,M,M,4600.00,M,M,M,M,M,M,M,M,M,M,41.36,KDRA 020453Z AUTO 22008KT 10SM OVC046 08/03 A2966 RMK AO2 SLP026 T00780033,M
ELY,2024-02-02 04:53,-114.8453,39.2950,1909.00,34.00,31.00,88.63,210.00,7.00,0.01,29.61,1000.30,7.00,M,OVC,M,M,M,2200.00,M,M,M,UP,M,M,M,M,M,M,27.22,KELY 020453Z AUTO 21007KT 7SM UP OVC022 01/M01 A2961 RMK AO2 RAE09B31E50UPB09E16B50SNB16E31 SLP003 P0001 T00111006,M
VGT,2024-02-02 04:53,-115.1933,36.2111,667.00,47.00,44.00,89.24,0.00,0.00,0.00,29.67,1005.90,10.00,M,FEW,M,M,M,5500.00,M,M,M,M,M,M,M,M,M,M,47.00,KVGT 020453Z AUTO 00000KT 10SM FEW055 08/07 A2967 RMK AO2 SLP059 T00830067,M
LOL,2024-02-02 04:53,-118.5701,40.0684,1192.43,35.00,35.00,100.00,0.00,0.00,0.00,29.65,1004.10,10.00,M,SCT,OVC,M,M,4600.00,6000.00,M,M,M,M,M,M,M,M,M,35.00,KLOL 020453Z AUTO 00000KT 10SM SCT046 OVC060 02/02 A2965 RMK AO2 SLP041 T00170017,M
P68,2024-02-02 04:53,-116.0056,39.6014,1993.00,33.00,33.00,100.00,240.00,4.00,0.02,29.61,1000.80,M,M,M,M,M,M,M,M,M,M,M,M,M,M,M,M,M,28.59,KP68 020453Z AUTO 24004KT 01/01 A2961 RMK AO1 SLP008 P0002 T00060006,M
BVU,2024-02-02 04:55,-114.8611,35.9475,671.00,48.20,44.60,87.28,150.00,10.00,0.00,29.69,M,10.00,M,FEW,SCT,BKN,M,5000.00,7500.00,8500.00,M,M,M,M,M,M,M,M,43.28,KBVU 020455Z AUTO 15010KT 10SM FEW050 SCT075 BKN085 09/07 A2969 RMK AO2,M
CXP,2024-02-02 04:55,-119.7326,39.1923,1431.00,37.40,26.60,64.70,0.00,0.00,0.00,29.68,M,10.00,M,SCT,OVC,M,M,4200.00,5000.00,M,M,M,M,M,M,M,M,M,37.40,KCXP 020455Z AUTO 00000KT 10SM SCT042 OVC050 03/M03 A2968 RMK AO2,M
INS,2024-02-02 04:55,-115.6733,36.5872,955.00,43.70,39.20,84.04,100.00,7.00,0.00,29.66,1002.50,10.00,M,FEW,SCT,M,M,2200.00,5000.00,M,M,M,M,M,M,M,M,M,39.04,KINS 020455Z AUTO 10007KT 10SM FEW022 SCT050 07/04 A2966 RMK AO2 SLP025 T00650040,M
RNO,2024-02-02 04:55,-119.7711,39.4839,1341.00,39.00,27.00,61.78,10.00,4.00,0.00,29.67,1003.50,10.00,M,FEW,BKN,M,M,6500.00,15000.00,M,M,M,M,M,M,M,M,M,35.59,KRNO 020455Z 01004KT 10SM FEW065 BKN150 04/M03 A2967 RMK AO2 SLP035 T00391028,M
LSV,2024-02-02 04:55,-115.0343,36.2362,570.00,51.00,43.50,75.40,90.00,3.00,0.00,29.65,1003.20,10.00,M,OVC,M,M,M,6000.00,M,M,M,M,M,M,M,M,M,M,51.00,KLSV 020455Z AUTO 09003KT 10SM OVC060 11/06 A2965 RMK AO2 SLP032 T01050064 $,M
RTS,2024-02-02 04:55,-119.8764,39.6682,1539.00,32.00,26.60,80.22,280.00,7.00,0.00,29.68,M,10.00,M,CLR,M,M,M,M,M,M,M,M,M,M,M,M,M,M,24.78,KRTS 020455Z AUTO 28007KT 10SM CLR M00/M03 A2968 RMK AO2,M
05U,2024-02-02 04:55,-116.0051,39.6042,1811.23,33.80,33.80,100.00,30.00,4.00,0.01,29.64,M,3.00,M,M,M,M,M,M,M,M,M,BR,M,M,M,M,M,M,29.52,K05U 020455Z AUTO 03004KT 3SM BR 01/01 A2964 RMK A01 P0001,M
MEV,2024-02-02 04:55,-119.7500,38.9963,1441.42,32.00,23.00,69.04,90.00,5.00,0.00,29.67,M,10.00,M,FEW,BKN,BKN,M,4100.00,5000.00,6000.00,M,M,M,M,M,M,M,M,26.40,KMEV 020455Z AUTO 09005KT 10SM FEW041 BKN050 BKN060 00/M05 A2967 RMK AO2,M
BAM,2024-02-02 04:55,-116.8743,40.5990,1382.36,35.60,35.60,100.00,130.00,3.00,0.00,29.65,M,10.00,M,SCT,OVC,M,M,5500.00,7000.00,M,M,M,M,M,M,M,M,M,32.80,KBAM 020455Z AUTO 13003KT 10SM SCT055 OVC070 02/02 A2965 RMK AO1,M
HTH,2024-02-02 04:55,-118.6315,38.5448,1282.89,39.20,37.40,93.19,0.00,0.00,0.00,29.67,M,10.00,M,BKN,BKN,OVC,M,3500.00,4600.00,7500.00,M,M,M,M,M,M,M,M,39.20,KHTH 020455Z AUTO 00000KT 10SM BKN035 BKN046 OVC075 04/03 A2967 RMK A01,M
10U,2024-02-02 04:55,-116.1876,41.9532,1637.00,33.80,32.00,93.03,200.00,6.00,0.00,29.63,M,3.00,M,SCT,OVC,M,M,400.00,1100.00,M,M,-SN,M,M,M,M,M,M,27.70,K10U 020455Z AUTO 20006KT 3SM -SN SCT004 OVC011 01/00 A2963 RMK AO2,M
TMT,2024-02-02 04:55,-117.1971,39.4643,1749.34,32.00,32.00,100.00,0.00,0.00,0.02,29.68,M,2.50,M,OVC,M,M,M,2300.00,M,M,M,-SN,M,M,M,M,M,M,32.00,KTMT 020455Z AUTO 00000KT 2 1/2SM -SN OVC023 00/00 A2968 RMK AO2 P0002 T00001001,M
EKO,2024-02-02 04:56,-115.7860,40.8242,1367.00,33.00,32.00,96.06,210.00,9.00,0.05,29.60,1002.10,4.00,M,OVC,M,M,M,1700.00,M,M,M,-SN BR,T,M,M,M,M,M,24.76,KEKO 020456Z AUTO 21009KT 4SM -SN BR OVC017 01/00 A2960 RMK AO2 RAE27SNB27 SLP021 P0005 I1000 T00060000,M
NFL,2024-02-02 04:56,-118.7010,39.4166,1199.00,37.00,35.00,92.39,220.00,5.00,0.00,29.66,1002.60,10.00,M,FEW,SCT,SCT,M,3000.00,5000.00,25000.00,M,M,M,M,M,M,M,M,32.33,KNFL 020456Z 22005KT 10SM FEW030 SCT050 SCT250 03/02 A2966 RMK AO2 SLP026 T00280017,M
HND,2024-02-02 04:56,-115.1344,35.9729,742.79,47.00,40.00,76.49,180.00,11.00,0.00,29.69,1006.40,10.00,M,FEW,M,M,M,5500.00,M,M,M,M,M,M,M,M,M,M,41.42,KHND 020456Z AUTO 18011KT 10SM FEW055 08/04 A2969 RMK AO2 SLP064 T00830044,M
TPH,2024-02-02 04:56,-117.0904,38.0505,1654.00,34.00,33.00,96.08,160.00,4.00,T,29.64,1003.70,10.00,M,OVC,M,M,M,600.00,M,M,M,M,M,M,M,M,M,M,29.76,KTPH 020456Z AUTO 16004KT 10SM OVC006 01/01 A2964 RMK AO2 UPE21B47E56RAB08E17 CIG 004V008 SLP037 P0000 T00110006,M
LAS,2024-02-02 04:56,-115.1634,36.0719,663.00,49.00,40.00,70.96,200.00,9.00,0.00,29.66,1003.70,10.00,M,BKN,BKN,OVC,M,5500.00,10000.00,18000.00,M,M,M,M,M,M,M,M,44.65,KLAS 020456Z 20009KT 10SM BKN055 BKN100 OVC180 09/04 A2966 RMK AO2 SLP037 T00940044,M
WMC,2024-02-02 04:56,-117.8072,40.9019,1315.00,38.00,33.00,82.00,210.00,4.00,0.00,29.62,1002.40,10.00,M,SCT,M,M,M,12000.00,M,M,M,M,M,M,M,M,M,M,34.43,KWMC 020456Z AUTO 21004KT 10SM SCT120 03/01 A2962 RMK AO2 SLP024 T00330006,M
TPH,2024-02-02 05:05,-117.0904,38.0505,1654.00,34.00,33.00,96.08,190.00,6.00,0.00,29.64,M,10.00,M,BKN,OVC,M,M,400.00,800.00,M,M,M,M,M,M,M,M,M,27.94,KTPH 020505Z AUTO 19006KT 10SM BKN004 OVC008 01/01 A2964 RMK AO2 T00110006,M
05U,2024-02-02 05:10,-116.0051,39.6042,1811.23,33.80,32.00,93.03,40.00,4.00,0.00,29.63,M,5.00,M,M,M,M,M,M,M,M,M,BR,M,M,M,M,M,M,29.52,K05U 020510Z AUTO 04004KT 5SM BR 01/00 A2963 RMK A01,M
HTH,2024-02-02 05:10,-118.6315,38.5448,1282.89,41.00,37.40,86.89,0.00,0.00,0.00,29.67,M,10.00,M,BKN,BKN,OVC,M,3500.00,4600.00,7500.00,M,M,M,M,M,M,M,M,41.00,KHTH 020510Z AUTO 00000KT 10SM BKN035 BKN046 OVC075 05/03 A2967 RMK A01,M
10U,2024-02-02 05:10,-116.1876,41.9532,1637.00,32.00,32.00,100.00,200.00,5.00,0.00,29.62,M,4.00,M,FEW,BKN,OVC,M,500.00,1000.00,2100.00,M,UP,M,M,M,M,M,M,26.40,K10U 020510Z AUTO 20005KT 4SM UP FEW005 BKN010 OVC021 00/00 A2962 RMK AO2,M
BVU,2024-02-02 05:15,-114.8611,35.9475,671.00,48.20,44.60,87.28,150.00,6.00,0.00,29.68,M,10.00,M,SCT,BKN,BKN,M,6000.00,8500.00,12000.00,M,M,M,M,M,M,M,M,45.04,KBVU 020515Z AUTO 15006KT 10SM SCT060 BKN085 BKN120 09/07 A2968 RMK AO2,M
CXP,2024-02-02 05:15,-119.7326,39.1923,1431.00,37.40,26.60,64.70,0.00,0.00,0.00,29.68,M,10.00,M,OVC,M,M,M,5000.00,M,M,M,M,M,M,M,M,M,M,37.40,KCXP 020515Z AUTO 00000KT 10SM OVC050 03/M03 A2968 RMK AO2,M
INS,2024-02-02 05:15,-115.6733,36.5872,955.00,44.60,39.20,81.20,20.00,4.00,0.00,29.66,1002.50,10.00,M,BKN,M,M,M,2600.00,M,M,M,M,M,M,M,M,M,M,42.13,KINS 020515Z AUTO 02004KT 10SM BKN026 07/04 A2966 RMK AO2 SLP025,M
RTS,2024-02-02 05:15,-119.8764,39.6682,1539.00,32.00,24.80,74.44,270.00,7.00,0.00,29.68,M,10.00,M,CLR,M,M,M,M,M,M,M,M,M,M,M,M,M,M,24.78,KRTS 020515Z AUTO 27007KT 10SM CLR M00/M04 A2968 RMK AO2,M
MEV,2024-02-02 05:15,-119.7500,38.9963,1441.42,28.40,21.20,74.08,130.00,3.00,0.00,29.67,M,10.00,M,BKN,M,M,M,5000.00,M,M,M,M,M,M,M,M,M,M,24.57,KMEV 020515Z AUTO 13003KT 10SM BKN050 M02/M06 A2967 RMK AO2,M
BAM,2024-02-02 05:15,-116.8743,40.5990,1382.36,35.60,35.60,100.00,140.00,4.00,0.00,29.64,M,10.00,M,SCT,OVC,M,M,6000.00,7500.00,M,M,M,M,M,M,M,M,M,31.62,KBAM 020515Z AUTO 14004KT 10SM SCT060 OVC075 02/02 A2964 RMK AO1,M
TMT,2024-02-02 05:15,-117.1971,39.4643,1749.34,32.00,31.60,98.40,140.00,4.00,0.00,29.67,M,4.00,M,SCT,BKN,OVC,M,1400.00,2200.00,2900.00,M,-SN,M,M,M,M,M,M,27.42,KTMT 020515Z AUTO 14004KT 4SM -SN SCT014 BKN022 OVC029 00/00 A2967 RMK AO2 T10011002,M
INS,2024-02-02 05:25,-115.6733,36.5872,955.00,44.60,39.20,81.20,120.00,3.00,0.00,29.66,1002.50,10.00,M,SCT,BKN,BKN,M,2600.00,4500.00,5500.00,M,M,M,M,M,M,M,M,43.09,KINS 020525Z AUTO 12003KT 10SM SCT026 BKN045 BKN055 07/04 A2966 RMK AO2 SLP025,M
TPH,2024-02-02 05:29,-117.0904,38.0505,1654.00,34.00,33.00,96.08,210.00,5.00,0.00,29.64,M,10.00,M,OVC,M,M,M,600.00,M,M,M,M,M,M,M,M,M,M,28.77,KTPH 020529Z AUTO 21005KT 10SM OVC006 01/01 A2964 RMK AO2 T00110006,M
BVU,2024-02-02 05:35,-114.8611,35.9475,671.00,48.20,44.60,87.28,160.00,5.00,0.00,29.68,M,10.00,M,FEW,M,M,M,6000.00,M,M,M,M,M,M,M,M,M,M,45.63,KBVU 020535Z AUTO 16005KT 10SM FEW060 09/07 A2968 RMK AO2,M
CXP,2024-02-02 05:35,-119.7326,39.1923,1431.00,35.60,26.60,69.46,0.00,0.00,0.00,29.68,M,10.00,M,OVC,M,M,M,5000.00,M,M,M,M,M,M,M,M,M,M,35.60,KCXP 020535Z AUTO 00000KT 10SM OVC050 02/M03 A2968 RMK AO2,M
INS,2024-02-02 05:35,-115.6733,36.5872,955.00,44.60,39.20,81.20,110.00,4.00,0.00,29.66,1002.70,10.00,M,BKN,OVC,M,M,2600.00,4700.00,M,M,M,M,M,M,M,M,M,42.13,KINS 020535Z AUTO 11004KT 10SM BKN026 OVC047 07/04 A2966 RMK AO2 BKN V SCT SLP027,M
RTS,2024-02-02 05:35,-119.8764,39.6682,1539.00,32.00,26.60,80.22,280.00,12.00,0.00,29.68,M,10.00,M,CLR,M,M,M,M,M,M,M,M,M,M,M,M,M,M,22.00,KRTS 020535Z AUTO 28012KT 10SM CLR 00/M03 A2968 RMK AO2,M
05U,2024-02-02 05:35,-116.0051,39.6042,1811.23,33.80,32.00,93.03,60.00,4.00,0.00,29.63,M,4.00,M,M,M,M,M,M,M,M,M,BR,M,M,M,M,M,M,29.52,K05U 020535Z AUTO 06004KT 4SM BR 01/00 A2963 RMK A01,M
MEV,2024-02-02 05:35,-119.7500,38.9963,1441.42,28.40,23.00,79.92,130.00,4.00,0.00,29.67,M,10.00,M,FEW,SCT,M,M,4800.00,5500.00,M,M,M,M,M,M,M,M,M,23.22,KMEV 020535Z AUTO 13004KT 10SM FEW048 SCT055 M02/M05 A2967 RMK AO2,M
BAM,2024-02-02 05:35,-116.8743,40.5990,1382.36,35.60,35.60,100.00,210.00,3.00,0.00,29.64,M,10.00,M,OVC,M,M,M,6500.00,M,M,M,M,M,M,M,M,M,M,32.80,KBAM 020535Z AUTO 21003KT 10SM OVC065 02/02 A2964 RMK AO1,M
HTH,2024-02-02 05:35,-118.6315,38.5448,1282.89,41.00,37.40,86.89,0.00,0.00,0.00,29.67,M,10.00,M,BKN,BKN,OVC,M,3400.00,6500.00,7500.00,M,M,M,M,M,M,M,M,41.00,KHTH 020535Z AUTO 00000KT 10SM BKN034 BKN065 OVC075 05/03 A2967 RMK A01,M
10U,2024-02-02 05:35,-116.1876,41.9532,1637.00,33.80,32.00,93.03,200.00,5.00,0.00,29.62,M,7.00,M,FEW,SCT,OVC,M,800.00,2200.00,4800.00,M,UP,M,M,M,M,M,M,28.53,K10U 020535Z AUTO 20005KT 7SM UP FEW008 SCT022 OVC048 01/00 A2962 RMK AO2,M
TMT,2024-02-02 05:35,-117.1971,39.4643,1749.34,32.00,32.00,100.00,120.00,3.00,0.00,29.67,M,10.00,M,SCT,BKN,OVC,M,2300.00,2900.00,3600.00,M,-SN,M,M,M,M,M,M,28.69,KTMT 020535Z AUTO 12003KT 10SM -SN SCT023 BKN029 OVC036 00/00 A2967 RMK AO2 T10011001,M
EKO,2024-02-02 05:37,-115.7860,40.8242,1367.00,34.00,33.00,96.08,210.00,8.00,0.01,29.60,M,10.00,M,SCT,SCT,OVC,M,1500.00,2100.00,3000.00,M,M,M,M,M,M,M,M,26.58,KEKO 020537Z AUTO 21008KT 10SM SCT015 SCT021 OVC030 01/01 A2960 RMK AO2 UPB26E32SNE26 P0001 T00110006,M
INS,2024-02-02 05:50,-115.6733,36.5872,955.00,44.60,39.20,81.20,0.00,0.00,0.00,29.66,1002.50,10.00,M,SCT,SCT,BKN,OVC,2600.00,3800.00,4700.00,5500.00,M,M,M,M,M,M,M,44.60,KINS 020550Z AUTO 00000KT 10SM SCT026 SCT038 BKN047 OVC055 07/04 A2966 RMK AO2 SLP025,M
EKO,2024-02-02 05:51,-115.7860,40.8242,1367.00,33.80,32.00,93.03,220.00,12.00,0.01,29.60,M,10.00,M,BKN,OVC,M,M,1500.00,3400.00,M,M,UP,M,M,M,M,M,M,24.29,KEKO 020551Z AUTO 22012KT 10SM UP BKN015 OVC034 01/00 A2960 RMK AO2 UPB26E32B51SNE26 P0001,M
P68,2024-02-02 05:53,-116.0056,39.6014,1993.00,33.00,32.00,96.06,270.00,4.00,0.01,29.61,1000.40,M,M,M,M,M,M,M,M,M,M,M,M,M,M,M,M,M,28.59,KP68 020553Z AUTO 27004KT 01/00 A2961 RMK AO1 SLP004 P0001 60005 T00060000 10044 20006 50001,M
DRA,2024-02-02 05:53,-116.0278,36.6206,1009.00,46.00,39.00,76.40,200.00,6.00,T,29.65,1002.60,10.00,M,SCT,BKN,OVC,M,3000.00,4100.00,5000.00,M,-RA,M,M,M,M,M,M,42.39,KDRA 020553Z AUTO 20006KT 10SM -RA SCT030 BKN041 OVC050 08/04 A2965 RMK AO2 RAB49 SLP026 P0000 60005 T00780039 10083 20061 58001,M
ELY,2024-02-02 05:53,-114.8453,39.2950,1909.00,33.00,31.00,92.25,190.00,10.00,0.01,29.61,1000.40,6.00,M,OVC,M,M,M,2500.00,M,M,M,-SN BR,M,M,M,M,M,M,24.22,KELY 020553Z AUTO 19010KT 6SM -SN BR OVC025 01/M01 A2961 RMK AO2 UPE0457B29E32SNB0457E29B32 SLP004 P0001 60002 T00061006 10033 20006 56004,M
VGT,2024-02-02 05:53,-115.1933,36.2111,667.00,46.00,43.00,89.20,10.00,8.00,0.00,29.66,1005.70,10.00,M,CLR,M,M,M,M,M,M,M,M,M,M,M,M,M,M,41.36,KVGT 020553Z AUTO 01008KT 10SM CLR 08/06 A2966 RMK AO2 SLP057 T00780061 10100 20078 58006,M
LOL,2024-02-02 05:53,-118.5701,40.0684,1192.43,32.00,31.00,96.04,170.00,6.00,0.00,29.65,1004.20,10.00,M,CLR,M,M,M,M,M,M,M,M,M,M,M,M,M,M,25.53,KLOL 020553Z AUTO 17006KT 10SM CLR 00/M01 A2965 RMK AO2 SLP042 T00001006 10061 20000 50005,M
BVU,2024-02-02 05:55,-114.8611,35.9475,671.00,48.20,44.60,87.28,160.00,4.00,0.00,29.68,M,10.00,M,FEW,M,M,M,3700.00,M,M,M,M,M,M,M,M,M,M,46.34,KBVU 020555Z AUTO 16004KT 10SM FEW037 09/07 A2968 RMK AO2,M
CXP,2024-02-02 05:55,-119.7326,39.1923,1431.00,37.40,26.60,64.70,0.00,0.00,0.00,29.68,M,10.00,M,OVC,M,M,M,5000.00,M,M,M,M,M,M,M,M,M,M,37.40,KCXP 020555Z AUTO 00000KT 10SM OVC050 03/M03 A2968 RMK AO2,M
RNO,2024-02-02 05:55,-119.7711,39.4839,1341.00,39.00,26.00,59.27,280.00,4.00,0.00,29.66,1003.10,10.00,M,FEW,BKN,M,M,6000.00,17000.00,M,M,M,M,M,M,M,M,M,35.59,KRNO 020555Z 28004KT 10SM FEW060 BKN170 04/M03 A2966 RMK AO2 SLP031 T00391033 10089 20039 50009,M
LSV,2024-02-02 05:55,-115.0343,36.2362,570.00,50.40,42.80,75.05,110.00,3.00,0.00,29.64,1003.10,10.00,M,FEW,M,M,M,15000.00,M,M,M,M,M,M,M,M,M,M,50.40,KLSV 020555Z AUTO 11003KT 10SM FEW150 10/06 A2964 RMK AO2 SLP031 60001 T01020060 10110 20099 57006 $,M
RTS,2024-02-02 05:55,-119.8764,39.6682,1539.00,32.00,24.80,74.44,290.00,11.00,0.00,29.67,M,10.00,M,CLR,M,M,M,M,M,M,M,M,M,M,M,M,M,M,22.47,KRTS 020555Z AUTO 29011KT 10SM CLR 00/M04 A2967 RMK AO2,M
05U,2024-02-02 05:55,-116.0051,39.6042,1811.23,33.80,32.00,93.03,80.00,3.00,0.00,29.64,M,3.00,M,M,M,M,M,M,M,M,M,BR,M,M,M,M,M,M,30.75,K05U 020555Z AUTO 08003KT 3SM BR 01/00 A2964 RMK A01,M
MEV,2024-02-02 05:55,-119.7500,38.9963,1441.42,28.40,23.00,79.92,0.00,0.00,0.00,29.68,M,10.00,M,BKN,M,M,M,5500.00,M,M,M,M,M,M,M,M,M,M,28.40,KMEV 020555Z AUTO 00000KT 10SM BKN055 M02/M05 A2968 RMK AO2,M
BAM,2024-02-02 05:55,-116.8743,40.5990,1382.36,35.60,35.60,100.00,190.00,3.00,0.00,29.64,M,10.00,M,SCT,OVC,M,M,4900.00,5500.00,M,M,M,M,M,M,M,M,M,32.80,KBAM 020555Z AUTO 19003KT 10SM SCT049 OVC055 02/02 A2964 RMK AO1,M
HTH,2024-02-02 05:55,-118.6315,38.5448,1282.89,39.20,37.40,93.19,250.00,4.00,0.00,29.67,M,10.00,M,BKN,BKN,OVC,M,3400.00,4000.00,7500.00,M,M,M,M,M,M,M,M,35.83,KHTH 020555Z AUTO 25004KT 10SM BKN034 BKN040 OVC075 04/03 A2967 RMK A01,M
10U,2024-02-02 05:55,-116.1876,41.9532,1637.00,33.80,32.00,93.03,200.00,6.00,0.00,29.61,M,4.00,M,SCT,BKN,OVC,M,300.00,900.00,4800.00,M,-SN,M,M,M,M,M,M,27.70,K10U 020555Z AUTO 20006KT 4SM -SN SCT003 BKN009 OVC048 01/00 A2961 RMK AO2,M
INS,2024-02-02 05:55,-115.6733,36.5872,955.00,43.30,39.20,85.34,340.00,3.00,0.00,29.66,1002.70,10.00,M,SCT,BKN,BKN,BKN,2600.00,3900.00,4800.00,5500.00,M,M,M,M,M,M,M,41.61,KINS 020555Z AUTO 34003KT 10SM SCT026 BKN039 BKN048 BKN055 06/04 A2966 RMK AO2 SLP027 60000 T00630040 10080 20062 50000,M
EKO,2024-02-02 05:56,-115.7860,40.8242,1367.00,34.00,32.00,92.29,210.00,10.00,0.01,29.60,1001.70,10.00,M,BKN,BKN,OVC,M,1700.00,2800.00,3400.00,M,-SN,M,M,T,M,M,M,25.48,KEKO 020556Z AUTO 21010KT 10SM -SN BKN017 BKN028 OVC034 01/00 A2960 RMK AO2 UPB26E32B51E56SNE26B56 SLP017 P0001 60016 I6000 T00110000 10056 20006 58000,M
NFL,2024-02-02 05:56,-118.7010,39.4166,1199.00,36.00,34.00,92.35,150.00,4.00,0.00,29.65,1002.50,10.00,M,FEW,SCT,SCT,M,3000.00,5000.00,25000.00,M,M,M,M,M,M,M,M,32.09,KNFL 020556Z 15004KT 10SM FEW030 SCT050 SCT250 02/01 A2965 RMK AO2 SLP025 60001 T00220011 10067 20017 50007,M
HND,2024-02-02 05:56,-115.1344,35.9729,742.79,45.00,40.00,82.51,190.00,8.00,0.00,29.68,1006.60,10.00,M,FEW,M,M,M,7000.00,M,M,M,M,M,M,M,M,M,M,40.13,KHND 020556Z AUTO 19008KT 10SM FEW070 07/04 A2968 RMK AO2 SLP066 60000 T00720044 10089 20072 58002,M
TPH,2024-02-02 05:56,-117.0904,38.0505,1654.00,35.00,34.00,96.09,200.00,4.00,T,29.64,1003.50,10.00,M,BKN,OVC,M,M,600.00,1000.00,M,M,-RA,M,M,M,M,M,M,30.92,KTPH 020556Z AUTO 20004KT 10SM -RA BKN006 OVC010 02/01 A2964 RMK AO2 UPB36E46RAB51 CIG 005V009 SLP035 P0000 60008 T00170011 10017 20011 55000,M
LAS,2024-02-02 05:56,-115.1634,36.0719,663.00,48.00,40.00,73.67,200.00,9.00,0.00,29.65,1003.50,10.00,M,FEW,SCT,BKN,M,5500.00,10000.00,18000.00,M,M,M,M,M,M,M,M,43.41,KLAS 020556Z 20009KT 10SM FEW055 SCT100 BKN180 09/04 A2965 RMK AO2 SLP035 60000 T00890044 10094 20083 56007,M
WMC,2024-02-02 05:56,-117.8072,40.9019,1315.00,37.00,32.00,81.93,0.00,0.00,0.00,29.63,1002.70,10.00,M,CLR,M,M,M,M,M,M,M,M,M,M,M,M,M,M,37.00,KWMC 020556Z AUTO 00000KT 10SM CLR 03/00 A2963 RMK AO2 SLP027 T00280000 10050 20022 53004,M
DRA,2024-02-02 06:02,-116.0278,36.6206,1009.00,45.00,39.00,79.36,210.00,6.00,T,29.65,M,10.00,M,BKN,BKN,OVC,M,2800.00,4100.00,5000.00,M,M,M,M,M,M,M,M,41.19,KDRA 020602Z AUTO 21006KT 10SM BKN028 BKN041 OVC050 07/04 A2965 RMK AO2 RAE0556 P0000 T00720039,M
TPH,2024-02-02 06:04,-117.0904,38.0505,1654.00,35.00,34.00,96.09,190.00,5.00,0.01,29.64,M,10.00,M,BKN,OVC,M,M,800.00,1600.00,M,M,UP,M,M,M,M,M,M,29.96,KTPH 020604Z AUTO 19005KT 10SM UP BKN008 OVC016 02/01 A2964 RMK AO2 RAE02UPB00 P0001 T00170011,M
EKO,2024-02-02 06:09,-115.7860,40.8242,1367.00,34.00,32.00,92.29,220.00,11.00,T,29.60,M,9.00,18.00,FEW,BKN,OVC,M,900.00,1600.00,2600.00,M,-SN,M,M,M,M,M,M,24.99,KEKO 020609Z AUTO 22011G18KT 9SM -SN FEW009 BKN016 OVC026 01/00 A2960 RMK AO2 P0000 T00110000,M
05U,2024-02-02 06:10,-116.0051,39.6042,1811.23,33.80,32.00,93.03,70.00,4.00,0.00,29.63,M,2.00,M,M,M,M,M,M,M,M,M,BR,M,M,M,M,M,M,29.52,K05U 020610Z AUTO 07004KT 2SM BR 01/00 A2963 RMK A01,M
BVU,2024-02-02 06:15,-114.8611,35.9475,671.00,46.40,44.60,93.40,120.00,4.00,0.00,29.68,M,10.00,M,FEW,M,M,M,3800.00,M,M,M,M,M,M,M,M,M,M,44.24,KBVU 020615Z AUTO 12004KT 10SM FEW038 08/07 A2968 RMK AO2,M
CXP,2024-02-02 06:15,-119.7326,39.1923,1431.00,37.40,26.60,64.70,100.00,4.00,0.00,29.68,M,10.00,M,BKN,OVC,M,M,4900.00,5500.00,M,M,M,M,M,M,M,M,M,33.73,KCXP 020615Z AUTO 10004KT 10SM BKN049 OVC055 03/M03 A2968 RMK AO2,M
RTS,2024-02-02 06:15,-119.8764,39.6682,1539.00,32.00,24.80,74.44,280.00,9.00,0.00,29.67,M,10.00,M,CLR,M,M,M,M,M,M,M,M,M,M,M,M,M,M,23.51,KRTS 020615Z AUTO 28009KT 250V310 10SM CLR M00/M04 A2967 RMK AO2,M
MEV,2024-02-02 06:15,-119.7500,38.9963,1441.42,26.60,21.20,79.77,70.00,4.00,0.00,29.67,M,10.00,M,OVC,M,M,M,5000.00,M,M,M,M,M,M,M,M,M,M,21.11,KMEV 020615Z AUTO 07004KT 10SM OVC050 M03/M06 A2967 RMK AO2,M
BAM,2024-02-02 06:15,-116.8743,40.5990,1382.36,35.60,35.60,100.00,100.00,3.00,0.00,29.65,M,10.00,M,SCT,BKN,OVC,M,4300.00,4900.00,5500.00,M,M,M,M,M,M,M,M,32.80,KBAM 020615Z AUTO 10003KT 10SM SCT043 BKN049 OVC055 02/02 A2965 RMK AO1,M
HTH,2024-02-02 06:15,-118.6315,38.5448,1282.89,37.40,35.60,93.14,240.00,5.00,0.00,29.67,M,10.00,M,FEW,SCT,SCT,M,4000.00,4900.00,7000.00,M,M,M,M,M,M,M,M,32.81,KHTH 020615Z AUTO 24005KT 10SM FEW040 SCT049 SCT070 03/02 A2967 RMK A01,M
10U,2024-02-02 06:15,-116.1876,41.9532,1637.00,32.00,32.00,100.00,200.00,6.00,0.00,29.61,M,4.00,M,FEW,SCT,OVC,M,300.00,1500.00,3000.00,M,-SN,M,M,M,M,M,M,25.53,K10U 020615Z AUTO 20006KT 4SM -SN FEW003 SCT015 OVC030 00/00 A2961 RMK AO2,M
TMT,2024-02-02 06:15,-117.1971,39.4643,1749.34,32.00,31.50,98.00,0.00,0.00,0.00,29.66,M,7.00,M,BKN,BKN,OVC,M,1300.00,1700.00,7500.00,M,-SN,M,M,M,M,M,M,32.00,KTMT 020615Z AUTO 00000KT 7SM -SN BKN013 BKN017 OVC075 00/00 A2966 RMK AO2 T10011003,M
TPH,2024-02-02 06:21,-117.0904,38.0505,1654.00,34.00,33.00,96.08,180.00,5.00,0.01,29.64,M,8.00,M,SCT,BKN,OVC,M,700.00,1100.00,3100.00,M,UP,M,M,M,M,M,M,28.77,KTPH 020621Z AUTO 18005KT 8SM UP SCT007 BKN011 OVC031 01/01 A2964 RMK AO2 RAE02B09E11UPB00 P0001 T00110006,M
INS,2024-02-02 06:30,-115.6733,36.5872,955.00,42.80,39.20,86.99,0.00,0.00,0.00,29.66,1002.70,10.00,M,BKN,BKN,M,M,2800.00,4600.00,M,M,M,M,M,M,M,M,M,42.80,KINS 020630Z AUTO 00000KT 10SM BKN028 BKN046 06/04 A2966 RMK AO2 BKN028 V SCT SLP027,M
DRA,2024-02-02 06:31,-116.0278,36.6206,1009.00,45.00,40.00,82.51,190.00,7.00,T,29.66,M,10.00,M,SCT,OVC,M,M,2600.00,3200.00,M,M,M,M,M,M,M,M,M,40.63,KDRA 020631Z AUTO 19007KT 10SM SCT026 OVC032 07/04 A2966 RMK AO2 RAE0556 P0000 T00720044,M
BVU,2024-02-02 06:35,-114.8611,35.9475,671.00,46.40,44.60,93.40,180.00,8.00,0.00,29.67,M,10.00,M,CLR,M,M,M,M,M,M,M,M,M,M,M,M,M,M,41.85,KBVU 020635Z AUTO 18008KT 10SM CLR 08/07 A2967 RMK AO2,M
CXP,2024-02-02 06:35,-119.7326,39.1923,1431.00,37.40,24.80,60.04,0.00,0.00,0.00,29.69,M,10.00,M,BKN,OVC,M,M,5000.00,5500.00,M,M,M,M,M,M,M,M,M,37.40,KCXP 020635Z AUTO 00000KT 10SM BKN050 OVC055 03/M04 A2969 RMK AO2,M
RTS,2024-02-02 06:35,-119.8764,39.6682,1539.00,33.80,24.80,69.25,290.00,9.00,0.00,29.68,M,10.00,M,CLR,M,M,M,M,M,M,M,M,M,M,M,M,M,M,25.75,KRTS 020635Z AUTO 29009KT 10SM CLR 01/M04 A2968 RMK AO2,M
05U,2024-02-02 06:35,-116.0051,39.6042,1811.23,33.80,32.00,93.03,40.00,7.00,0.00,29.63,M,3.00,M,M,M,M,M,M,M,M,M,BR,M,M,M,M,M,M,26.97,K05U 020635Z AUTO 04007KT 3SM BR 01/00 A2963 RMK A01,M
MEV,2024-02-02 06:35,-119.7500,38.9963,1441.42,28.40,23.00,79.92,80.00,5.00,0.00,29.68,M,10.00,M,SCT,SCT,M,M,5000.00,5500.00,M,M,M,M,M,M,M,M,M,22.12,KMEV 020635Z AUTO 08005KT 10SM SCT050 SCT055 M02/M05 A2968 RMK AO2,M
BAM,2024-02-02 06:35,-116.8743,40.5990,1382.36,37.40,35.60,93.14,100.00,4.00,0.00,29.65,M,10.00,M,SCT,SCT,OVC,M,4700.00,6000.00,7000.00,M,M,M,M,M,M,M,M,33.73,KBAM 020635Z AUTO 10004KT 10SM SCT047 SCT060 OVC070 03/02 A2965 RMK AO1,M
HTH,2024-02-02 06:35,-118.6315,38.5448,1282.89,37.40,35.60,93.14,230.00,5.00,0.00,29.67,M,10.00,M,FEW,M,M,M,11000.00,M,M,M,M,M,M,M,M,M,M,32.81,KHTH 020635Z AUTO 23005KT 10SM FEW110 03/02 A2967 RMK A01,M
10U,2024-02-02 06:35,-116.1876,41.9532,1637.00,33.80,32.00,93.03,200.00,5.00,0.00,29.62,M,5.00,M,SCT,BKN,OVC,M,500.00,2300.00,3000.00,M,UP,M,M,M,M,M,M,28.53,K10U 020635Z AUTO 20005KT 5SM UP SCT005 BKN023 OVC030 01/00 A2962 RMK AO2,M
TMT,2024-02-02 06:35,-117.1971,39.4643,1749.34,31.50,31.00,98.00,0.00,0.00,0.00,29.67,M,10.00,M,SCT,OVC,M,M,1300.00,2000.00,M,M,-DZ,M,M,M,M,M,M,31.50,KTMT 020635Z AUTO 00000KT 10SM -DZ SCT013 OVC020 00/00 A2967 RMK AO2 T10031005,M
INS,2024-02-02 06:45,-115.6733,36.5872,955.00,42.80,39.20,86.99,0.00,0.00,0.00,29.66,1003.00,10.00,M,SCT,BKN,OVC,M,2700.00,3400.00,4300.00,M,M,M,M,M,M,M,M,42.80,KINS 020645Z AUTO 00000KT 10SM SCT027 BKN034 OVC043 06/04 A2966 RMK AO2 SLP030,M
DRA,2024-02-02 06:46,-116.0278,36.6206,1009.00,45.00,40.00,82.51,190.00,11.00,T,29.66,M,10.00,M,BKN,OVC,M,M,2600.00,3200.00,M,M,M,M,M,M,M,M,M,38.89,KDRA 020646Z AUTO 19011KT 10SM BKN026 OVC032 07/04 A2966 RMK AO2 RAE0556 P0000 T00720044,M
HTH,2024-02-02 06:50,-118.6315,38.5448,1282.89,37.40,35.60,93.14,210.00,4.00,0.00,29.67,M,10.00,M,CLR,M,M,M,M,M,M,M,M,M,M,M,M,M,M,33.73,KHTH 020650Z AUTO 21004KT 10SM CLR 03/02 A2967 RMK A01,M
10U,2024-02-02 06:50,-116.1876,41.9532,1637.00,32.00,32.00,100.00,160.00,5.00,0.00,29.62,M,3.00,M,SCT,BKN,BKN,M,300.00,1300.00,2000.00,M,-SN,M,M,M,M,M,M,26.40,K10U 020650Z AUTO 16005KT 3SM -SN SCT003 BKN013 BKN020 00/00 A2962 RMK AO2,M
EKO,2024-02-02 06:51,-115.7860,40.8242,1367.00,33.80,32.00,93.03,210.00,10.00,T,29.61,M,10.00,M,FEW,SCT,OVC,M,1300.00,1900.00,3700.00,M,M,M,M,M,M,M,M,25.23,KEKO 020651Z AUTO 21010KT 10SM FEW013 SCT019 OVC037 01/00 A2961 RMK AO2 UPB30E33SNE30 P0000,M
DRA,2024-02-02 06:51,-116.0278,36.6206,1009.00,44.60,39.20,81.20,180.00,10.00,T,29.65,M,10.00,M,SCT,BKN,OVC,M,2600.00,3200.00,4900.00,M,M,M,M,M,M,M,M,38.77,KDRA 020651Z AUTO 18010KT 10SM SCT026 BKN032 OVC049 07/04 A2965 RMK AO2 RAE0556 P0000,M
DRA,2024-02-02 06:53,-116.0278,36.6206,1009.00,45.00,39.00,79.36,190.00,8.00,T,29.65,1002.70,10.00,M,SCT,BKN,OVC,M,2600.00,3200.00,4900.00,M,M,M,M,M,M,M,M,40.13,KDRA 020653Z AUTO 19008KT 10SM SCT026 BKN032 OVC049 07/04 A2965 RMK AO2 RAE0556 SLP027 P0000 T00720039,M
ELY,2024-02-02 06:53,-114.8453,39.2950,1909.00,33.00,31.00,92.25,190.00,7.00,0.01,29.61,1000.20,5.00,M,FEW,OVC,M,M,1600.00,2400.00,M,M,-SN BR,M,M,M,M,M,M,26.00,KELY 020653Z AUTO 19007KT 5SM -SN BR FEW016 OVC024 01/M01 A2961 RMK AO2 SLP002 P0001 T00061006,M
VGT,2024-02-02 06:53,-115.1933,36.2111,667.00,46.00,44.00,92.68,80.00,3.00,0.00,29.66,1005.80,10.00,M,CLR,M,M,M,M,M,M,M,M,M,M,M,M,M,M,44.69,KVGT 020653Z AUTO 08003KT 10SM CLR 08/07 A2966 RMK AO2 SLP058 T00780067,M
LOL,2024-02-02 06:53,-118.5701,40.0684,1192.43,31.00,31.00,100.00,0.00,0.00,0.00,29.65,1004.50,10.00,M,CLR,M,M,M,M,M,M,M,M,M,M,M,M,M,M,31.00,KLOL 020653Z AUTO 00000KT 10SM CLR M01/M01 A2965 RMK AO2 SLP045 T10061006,M
P68,2024-02-02 06:53,-116.0056,39.6014,1993.00,33.00,32.00,96.06,290.00,5.00,0.01,29.62,1001.10,M,M,M,M,M,M,M,M,M,M,M,M,M,M,M,M,M,27.58,KP68 020653Z AUTO 29005KT 01/00 A2962 RMK AO1 SLP011 P0001 T00060000,M
BVU,2024-02-02 06:55,-114.8611,35.9475,671.00,46.40,44.60,93.40,200.00,6.00,0.00,29.67,M,10.00,M,CLR,M,M,M,M,M,M,M,M,M,M,M,M,M,M,42.87,KBVU 020655Z AUTO 20006KT 10SM CLR 08/07 A2967 RMK AO2,M
CXP,2024-02-02 06:55,-119.7326,39.1923,1431.00,37.40,24.80,60.04,M,4.00,0.00,29.69,M,10.00,M,OVC,M,M,M,4900.00,M,M,M,M,M,M,M,M,M,M,33.73,KCXP 020655Z AUTO VRB04KT 10SM OVC049 03/M04 A2969 RMK AO2,M
INS,2024-02-02 06:55,-115.6733,36.5872,955.00,42.40,39.40,89.03,0.00,0.00,0.00,29.66,1003.00,10.00,M,BKN,OVC,M,M,3000.00,3900.00,M,M,M,M,M,M,M,M,M,42.40,KINS 020655Z AUTO 00000KT 10SM BKN030 OVC039 06/04 A2966 RMK AO2 SLP030 T00580041,M
RNO,2024-02-02 06:55,-119.7711,39.4839,1341.00,35.00,26.00,69.39,0.00,0.00,0.00,29.67,1004.00,10.00,M,BKN,M,M,M,16000.00,M,M,M,M,M,M,M,M,M,M,35.00,KRNO 020655Z 00000KT 10SM BKN160 02/M03 A2967 RMK AO2 SLP040 T00171033,M
LSV,2024-02-02 06:55,-115.0343,36.2362,570.00,48.00,44.40,87.27,90.00,5.00,0.00,29.64,1003.10,10.00,M,FEW,M,M,M,6000.00,M,M,M,M,M,M,M,M,M,M,45.40,KLSV 020655Z AUTO 09005KT 10SM FEW060 09/07 A2964 RMK AO2 SLP031 T00880069 $,M
RTS,2024-02-02 06:55,-119.8764,39.6682,1539.00,32.00,23.00,69.04,280.00,7.00,0.00,29.68,M,10.00,M,CLR,M,M,M,M,M,M,M,M,M,M,M,M,M,M,24.78,KRTS 020655Z AUTO 28007KT 10SM CLR M00/M05 A2968 RMK AO2,M
05U,2024-02-02 06:55,-116.0051,39.6042,1811.23,33.80,32.00,93.03,80.00,4.00,0.01,29.64,M,1.50,M,M,M,M,M,M,M,M,M,BR,M,M,M,M,M,M,29.52,K05U 020655Z AUTO 08004KT 1 1/2SM BR 01/00 A2964 RMK A01 P0001,M
MEV,2024-02-02 06:55,-119.7500,38.9963,1441.42,26.60,23.00,86.07,70.00,7.00,0.00,29.68,M,10.00,M,FEW,M,M,M,5000.00,M,M,M,M,M,M,M,M,M,M,18.20,KMEV 020655Z AUTO 07007KT 10SM FEW050 M03/M05 A2968 RMK AO2,M
BAM,2024-02-02 06:55,-116.8743,40.5990,1382.36,37.40,35.60,93.14,0.00,0.00,0.00,29.64,M,10.00,M,SCT,OVC,M,M,7000.00,10000.00,M,M,M,M,M,M,M,M,M,37.40,KBAM 020655Z AUTO 00000KT 10SM SCT070 OVC100 03/02 A2964 RMK AO1,M
TMT,2024-02-02 06:55,-117.1971,39.4643,1749.34,31.00,30.70,98.79,270.00,3.00,0.00,29.66,M,10.00,M,SCT,OVC,M,M,2000.00,9000.00,M,M,M,M,M,M,M,M,M,27.55,KTMT 020655Z AUTO 27003KT 10SM SCT020 OVC090 M01/M01 A2966 RMK AO2 T10061007,M
EKO,2024-02-02 06:56,-115.7860,40.8242,1367.00,34.00,33.00,96.08,210.00,9.00,T,29.61,1001.50,10.00,M,FEW,SCT,OVC,M,1300.00,1900.00,3700.00,M,M,M,M,M,M,M,M,26.00,KEKO 020656Z AUTO 21009KT 10SM FEW013 SCT019 OVC037 01/01 A2961 RMK AO2 UPB30E33SNE30 SLP015 P0000 T00110006,M
HND,2024-02-02 06:56,-115.1344,35.9729,742.79,45.00,40.00,82.51,200.00,14.00,0.00,29.68,1006.40,10.00,M,CLR,M,M,M,M,M,M,M,M,M,M,M,M,M,M,37.92,KHND 020656Z AUTO 20014KT 10SM CLR 07/04 A2968 RMK AO2 SLP064 T00720044 401500072,M
TPH,2024-02-02 06:56,-117.0904,38.0505,1654.00,34.00,33.00,96.08,200.00,5.00,0.01,29.64,1003.50,10.00,M,OVC,M,M,M,1000.00,M,M,M,UP,M,M,M,M,M,M,28.77,KTPH 020656Z AUTO 20005KT 10SM UP OVC010 01/01 A2964 RMK AO2 RAE02B09E11UPB00 SLP035 P0001 T00110006,M
LAS,2024-02-02 06:56,-115.1634,36.0719,663.00,46.00,42.00,85.83,230.00,6.00,0.00,29.66,1003.80,10.00,M,SCT,SCT,M,M,6000.00,10000.00,M,M,M,M,M,M,M,M,M,42.39,KLAS 020656Z 23006KT 10SM SCT060 SCT100 08/06 A2966 RMK AO2 SLP038 T00780056,M
WMC,2024-02-02 06:56,-117.8072,40.9019,1315.00,35.00,32.00,88.68,130.00,3.00,0.00,29.64,1003.10,10.00,M,FEW,M,M,M,4100.00,M,M,M,M,M,M,M,M,M,M,32.12,KWMC 020656Z AUTO 13003KT 10SM FEW041 02/00 A2964 RMK AO2 SLP031 T00170000,M
NFL,2024-02-02 06:56,-118.7010,39.4166,1199.00,35.00,33.00,92.32,160.00,5.00,0.00,29.66,1002.80,10.00,M,FEW,SCT,SCT,M,3000.00,5000.00,25000.00,M,M,M,M,M,M,M,M,29.96,KNFL 020656Z 16005KT 10SM FEW030 SCT050 SCT250 02/01 A2966 RMK AO2 SLP028 T00170006,M
CXP,2024-02-02 07:10,-119.7326,39.1923,1431.00,37.40,23.00,55.68,260.00,5.00,0.00,29.69,M,10.00,10.00,SCT,BKN,M,M,4900.00,5500.00,M,M,M,M,M,M,M,M,M,32.81,KCXP 020710Z AUTO 26005G10KT 10SM SCT049 BKN055 03/M05 A2969 RMK AO2,M
05U,2024-02-02 07:10,-116.0051,39.6042,1811.23,33.80,32.00,93.03,130.00,4.00,0.00,29.65,M,0.75,M,M,M,M,M,M,M,M,M,BR,M,M,M,M,M,M,29.52,K05U 020710Z AUTO 13004KT 3/4SM BR 01/00 A2965 RMK A01,M
HTH,2024-02-02 07:10,-118.6315,38.5448,1282.89,35.60,35.60,100.00,M,3.00,0.00,29.68,M,10.00,M,CLR,M,M,M,M,M,M,M,M,M,M,M,M,M,M,32.80,KHTH 020710Z AUTO VRB03KT 10SM CLR 02/02 A2968 RMK A01,M
BVU,2024-02-02 07:15,-114.8611,35.9475,671.00,46.40,44.60,93.40,170.00,4.00,0.00,29.67,M,10.00,M,BKN,M,M,M,4000.00,M,M,M,M,M,M,M,M,M,M,44.24,KBVU 020715Z AUTO 17004KT 10SM BKN040 08/07 A2967 RMK AO2,M
RTS,2024-02-02 07:15,-119.8764,39.6682,1539.00,30.20,23.00,74.26,270.00,4.00,0.00,29.68,M,10.00,M,CLR,M,M,M,M,M,M,M,M,M,M,M,M,M,M,25.32,KRTS 020715Z AUTO 27004KT 10SM CLR M01/M05 A2968 RMK AO2,M
MEV,2024-02-02 07:15,-119.7500,38.9963,1441.42,28.40,23.00,79.92,70.00,7.00,0.00,29.68,M,10.00,M,FEW,SCT,M,M,4200.00,5000.00,M,M,M,M,M,M,M,M,M,20.39,KMEV 020715Z AUTO 07007KT 10SM FEW042 SCT050 M02/M05 A2968 RMK AO2,M
BAM,2024-02-02 07:15,-116.8743,40.5990,1382.36,37.40,35.60,93.14,0.00,0.00,0.00,29.65,M,10.00,M,OVC,M,M,M,10000.00,M,M,M,M,M,M,M,M,M,M,37.40,KBAM 020715Z AUTO 00000KT 10SM OVC100 03/02 A2965 RMK AO1,M
TMT,2024-02-02 07:15,-117.1971,39.4643,1749.34,30.00,30.00,100.00,0.00,0.00,0.00,29.66,M,10.00,M,BKN,M,M,M,9000.00,M,M,M,M,M,M,M,M,M,M,30.00,KTMT 020715Z AUTO 00000KT 10SM BKN090 M01/M01 A2966 RMK AO2 T10111012,M
ELY,2024-02-02 07:19,-114.8453,39.2950,1909.00,32.00,31.00,96.04,210.00,5.00,T,29.60,M,1.75,M,FEW,OVC,M,M,1300.00,2200.00,M,M,-SN BR,M,M,M,M,M,M,26.40,KELY 020719Z AUTO 21005KT 1 3/4SM -SN BR FEW013 OVC022 00/M01 A2960 RMK AO2 P0000 T00001006,M
INS,2024-02-02 07:20,-115.6733,36.5872,955.00,42.80,39.20,86.99,0.00,0.00,0.00,29.66,1003.00,10.00,M,OVC,M,M,M,2900.00,M,M,M,M,M,M,M,M,M,M,42.80,KINS 020720Z AUTO 00000KT 10SM OVC029 06/04 A2966 RMK AO2 SLP030,M
CXP,2024-02-02 07:30,-119.7326,39.1923,1431.00,37.40,23.00,55.68,0.00,0.00,0.00,29.69,M,10.00,M,SCT,BKN,M,M,4500.00,5500.00,M,M,M,M,M,M,M,M,M,37.40,KCXP 020730Z AUTO 00000KT 10SM SCT045 BKN055 03/M05 A2969 RMK AO2,M
ELY,2024-02-02 07:30,-114.8453,39.2950,1909.00,32.00,31.00,96.04,200.00,4.00,T,29.60,M,3.00,M,BKN,OVC,M,M,2400.00,4700.00,M,M,-SN BR,M,M,M,M,M,M,27.42,KELY 020730Z AUTO 20004KT 3SM -SN BR BKN024 OVC047 00/M01 A2960 RMK AO2 P0000 T00001006,M
05U,2024-02-02 07:30,-116.0051,39.6042,1811.23,33.80,32.00,93.03,130.00,5.00,0.00,29.65,M,0.75,M,M,M,M,M,M,M,M,M,BR,M,M,M,M,M,M,28.53,K05U 020730Z AUTO 13005KT 3/4SM BR 01/00 A2965 RMK A01,M
HTH,2024-02-02 07:30,-118.6315,38.5448,1282.89,35.60,33.80,93.08,110.00,4.00,0.00,29.68,M,10.00,M,FEW,SCT,M,M,2900.00,12000.00,M,M,M,M,M,M,M,M,M,31.62,KHTH 020730Z AUTO 11004KT 10SM FEW029 SCT120 02/01 A2968 RMK A01,M
INS,2024-02-02 07:33,-115.6733,36.5872,955.00,41.00,39.20,93.24,0.00,0.00,0.00,29.66,1003.20,10.00,M,BKN,OVC,M,M,2800.00,4100.00,M,M,-RA,M,M,M,M,M,M,41.00,KINS 020733Z AUTO 00000KT 10SM -RA BKN028 OVC041 05/04 A2966 RMK AO2 RAB33 SLP032,M
BVU,2024-02-02 07:35,-114.8611,35.9475,671.00,46.40,44.60,93.40,180.00,6.00,0.00,29.67,M,10.00,M,OVC,M,M,M,4100.00,M,M,M,M,M,M,M,M,M,M,42.87,KBVU 020735Z AUTO 18006KT 10SM OVC041 08/07 A2967 RMK AO2,M
EKO,2024-02-02 07:35,-115.7860,40.8242,1367.00,35.00,33.00,92.32,200.00,8.00,0.00,29.61,M,10.00,M,SCT,BKN,OVC,M,1400.00,2100.00,4300.00,M,M,T,M,M,M,M,M,27.81,KEKO 020735Z AUTO 20008KT 10SM SCT014 BKN021 OVC043 02/01 A2961 RMK AO2 I1000 T00170006,M
RTS,2024-02-02 07:35,-119.8764,39.6682,1539.00,30.20,23.00,74.26,260.00,5.00,0.00,29.68,M,10.00,M,CLR,M,M,M,M,M,M,M,M,M,M,M,M,M,M,24.26,KRTS 020735Z AUTO 26005KT 10SM CLR M01/M05 A2968 RMK AO2,M
MEV,2024-02-02 07:35,-119.7500,38.9963,1441.42,28.40,23.00,79.92,100.00,7.00,0.00,29.68,M,10.00,M,SCT,M,M,M,4600.00,M,M,M,M,M,M,M,M,M,M,20.39,KMEV 020735Z AUTO 10007KT 10SM SCT046 M02/M05 A2968 RMK AO2,M
BAM,2024-02-02 07:35,-116.8743,40.5990,1382.36,37.40,35.60,93.14,160.00,3.00,0.00,29.65,M,10.00,M,SCT,OVC,M,M,4900.00,10000.00,M,M,M,M,M,M,M,M,M,34.86,KBAM 020735Z AUTO 16003KT 10SM SCT049 OVC100 03/02 A2965 RMK AO1,M
TMT,2024-02-02 07:35,-117.1971,39.4643,1749.34,29.30,29.30,100.00,290.00,3.00,0.00,29.66,M,10.00,M,OVC,M,M,M,9000.00,M,M,M,M,M,M,M,M,M,M,25.60,KTMT 020735Z AUTO 29003KT 10SM OVC090 M01/M01 A2966 RMK AO2 T10151015,M
INS,2024-02-02 07:38,-115.6733,36.5872,955.00,42.80,39.20,86.99,0.00,0.00,0.00,29.66,1003.00,10.00,M,SCT,BKN,OVC,M,2700.00,4200.00,5000.00,M,-DZ,M,M,M,M,M,M,42.80,KINS 020738Z AUTO 00000KT 10SM -DZ SCT027 BKN042 OVC050 06/04 A2966 RMK AO2 RAB33E34DZB34 SLP030,M
ELY,2024-02-02 07:40,-114.8453,39.2950,1909.00,32.00,31.00,96.04,200.00,5.00,0.01,29.59,M,8.00,M,FEW,BKN,OVC,M,2400.00,3500.00,4900.00,M,-SN,M,M,M,M,M,M,26.40,KELY 020740Z AUTO 20005KT 8SM -SN FEW024 BKN035 OVC049 00/M01 A2959 RMK AO2 P0001 T00001006,M
INS,2024-02-02 07:44,-115.6733,36.5872,955.00,42.80,39.20,86.99,0.00,0.00,0.00,29.66,1003.00,10.00,M,SCT,BKN,OVC,M,2700.00,4000.00,5000.00,M,M,M,M,M,M,M,M,42.80,KINS 020744Z AUTO 00000KT 10SM SCT027 BKN040 OVC050 06/04 A2966 RMK AO2 RAB33E34DZB34E44 SLP030,M
05U,2024-02-02 07:45,-116.0051,39.6042,1811.23,33.80,32.00,93.03,0.00,0.00,0.00,29.65,M,1.25,M,M,M,M,M,M,M,M,M,BR,M,M,M,M,M,M,33.80,K05U 020745Z AUTO 00000KT 1 1/4SM BR 01/00 A2965 RMK A01,M
EKO,2024-02-02 07:46,-115.7860,40.8242,1367.00,35.00,33.00,92.32,210.00,8.00,0.00,29.61,M,10.00,M,BKN,BKN,OVC,M,1300.00,2000.00,4300.00,M,M,T,M,M,M,M,M,27.81,KEKO 020746Z AUTO 21008KT 10SM BKN013 BKN020 OVC043 02/01 A2961 RMK AO2 I1000 T00170006,M
P68,2024-02-02 07:53,-116.0056,39.6014,1993.00,32.00,32.00,100.00,360.00,5.00,0.07,29.63,1001.40,M,M,M,M,M,M,M,M,M,M,M,M,M,M,M,M,M,26.40,KP68 020753Z AUTO 36005KT 00/00 A2963 RMK AO1 SLP014 P0007 T00000000 400670000,M
DRA,2024-02-02 07:53,-116.0278,36.6206,1009.00,45.00,39.00,79.36,220.00,5.00,0.00,29.64,1002.30,10.00,M,OVC,M,M,M,6000.00,M,M,M,M,M,M,M,M,M,M,41.83,KDRA 020753Z AUTO 22005KT 10SM OVC060 07/04 A2964 RMK AO2 SLP023 T00720039 401280061,M
ELY,2024-02-02 07:53,-114.8453,39.2950,1909.00,32.00,30.00,92.22,220.00,6.00,0.01,29.60,999.90,10.00,M,SCT,SCT,OVC,M,2200.00,2700.00,4900.00,M,M,M,M,M,M,M,M,25.53,KELY 020753Z AUTO 22006KT 10SM SCT022 SCT027 OVC049 00/M01 A2960 RMK AO2 SNE43 SLP999 P0001 T00001011 400670000,M
VGT,2024-02-02 07:53,-115.1933,36.2111,667.00,44.00,42.00,92.61,290.00,4.00,0.00,29.65,1005.70,10.00,M,FEW,M,M,M,5000.00,M,M,M,M,M,M,M,M,M,M,41.43,KVGT 020753Z AUTO 29004KT 10SM FEW050 07/06 A2965 RMK AO2 SLP057 T00670056 401610067,M
LOL,2024-02-02 07:53,-118.5701,40.0684,1192.43,29.00,29.00,100.00,0.00,0.00,0.00,29.66,1005.20,5.00,M,FEW,SCT,M,M,100.00,6500.00,M,M,BR,T,M,M,M,M,M,29.00,KLOL 020753Z AUTO 00000KT 5SM BR FEW001 SCT065 M02/M02 A2966 RMK AO2 SLP052 I1000 T10171017 401111017,M
BVU,2024-02-02 07:55,-114.8611,35.9475,671.00,46.40,42.80,87.19,210.00,7.00,0.00,29.66,M,10.00,M,SCT,SCT,SCT,M,4000.00,4600.00,7500.00,M,M,M,M,M,M,M,M,42.33,KBVU 020755Z AUTO 21007KT 10SM SCT040 SCT046 SCT075 08/06 A2966 RMK AO2,M
CXP,2024-02-02 07:55,-119.7326,39.1923,1431.00,37.40,23.00,55.68,210.00,6.00,0.00,29.69,M,10.00,M,FEW,BKN,M,M,4500.00,11000.00,M,M,M,M,M,M,M,M,M,32.03,KCXP 020755Z AUTO 21006KT 10SM FEW045 BKN110 03/M05 A2969 RMK AO2,M
INS,2024-02-02 07:55,-115.6733,36.5872,955.00,42.80,39.70,88.70,0.00,0.00,T,29.65,1002.60,10.00,M,FEW,BKN,OVC,M,2600.00,4000.00,5000.00,M,M,M,M,M,M,M,M,42.80,KINS 020755Z AUTO 00000KT 10SM FEW026 BKN040 OVC050 06/04 A2965 RMK AO2 RAB33E34DZB34E44 SLP026 P0000 T00600043 401350054,M
RNO,2024-02-02 07:55,-119.7711,39.4839,1341.00,32.00,25.00,75.07,160.00,3.00,0.00,29.68,1004.40,10.00,M,FEW,M,M,M,6000.00,M,M,M,M,M,M,M,M,M,M,28.69,KRNO 020755Z 16003KT 10SM FEW060 00/M04 A2968 RMK AO2 SLP044 T00001039 401060000,M
LSV,2024-02-02 07:55,-115.0343,36.2362,570.00,48.40,41.00,75.44,170.00,8.00,0.00,29.62,1002.40,10.00,M,CLR,M,M,M,M,M,M,M,M,M,M,M,M,M,M,44.32,KLSV 020755Z AUTO 17008KT 10SM CLR 09/05 A2962 RMK AO2 SLP024 T00910051 401670084 $,M
RTS,2024-02-02 07:55,-119.8764,39.6682,1539.00,28.40,23.00,79.92,310.00,5.00,0.00,29.68,M,10.00,M,CLR,M,M,M,M,M,M,M,M,M,M,M,M,M,M,22.12,KRTS 020755Z AUTO 31005KT 10SM CLR M02/M05 A2968 RMK AO2,M
MEV,2024-02-02 07:55,-119.7500,38.9963,1441.42,24.80,21.20,85.96,100.00,5.00,0.00,29.68,M,10.00,M,SCT,SCT,M,M,4500.00,5500.00,M,M,M,M,M,M,M,M,M,17.84,KMEV 020755Z AUTO 10005KT 10SM SCT045 SCT055 M04/M06 A2968 RMK AO2,M
BAM,2024-02-02 07:55,-116.8743,40.5990,1382.36,37.40,35.60,93.14,130.00,3.00,0.00,29.65,M,10.00,M,SCT,OVC,M,M,4500.00,10000.00,M,M,M,M,M,M,M,M,M,34.86,KBAM 020755Z AUTO 13003KT 10SM SCT045 OVC100 03/02 A2965 RMK AO1,M
HTH,2024-02-02 07:55,-118.6315,38.5448,1282.89,35.60,33.80,93.08,190.00,3.00,0.00,29.68,M,10.00,M,FEW,SCT,M,M,2900.00,11000.00,M,M,M,M,M,M,M,M,M,32.80,KHTH 020755Z AUTO 19003KT 10SM FEW029 SCT110 02/01 A2968 RMK A01,M
TMT,2024-02-02 07:55,-117.1971,39.4643,1749.34,29.00,28.40,97.57,260.00,3.00,0.00,29.67,M,10.00,M,OVC,M,M,M,10000.00,M,M,M,M,M,M,M,M,M,M,25.26,KTMT 020755Z AUTO 26003KT 10SM OVC100 M02/M02 A2967 RMK AO2 T10171020 400811018,M
EKO,2024-02-02 07:56,-115.7860,40.8242,1367.00,35.00,33.00,92.32,210.00,8.00,0.00,29.62,1002.40,10.00,M,BKN,OVC,M,M,1300.00,2000.00,M,M,M,T,M,M,M,M,M,27.81,KEKO 020756Z AUTO 21008KT 10SM BKN013 OVC020 02/01 A2962 RMK AO2 SLP024 I1000 T00170006 401060006,M
NFL,2024-02-02 07:56,-118.7010,39.4166,1199.00,34.00,32.00,92.29,0.00,0.00,0.00,29.66,1002.80,10.00,M,CLR,M,M,M,M,M,M,M,M,M,M,M,M,M,M,34.00,KNFL 020756Z AUTO 00000KT 10SM CLR 01/00 A2966 RMK AO2 SLP028 T00110000 401330011,M
HND,2024-02-02 07:56,-115.1344,35.9729,742.79,46.00,40.00,79.44,180.00,14.00,0.00,29.67,1006.10,10.00,M,CLR,M,M,M,M,M,M,M,M,M,M,M,M,M,M,39.21,KHND 020756Z AUTO 18014KT 10SM CLR 08/04 A2967 RMK AO2 SLP061 T00780044,M
TPH,2024-02-02 07:56,-117.0904,38.0505,1654.00,34.00,32.00,92.29,300.00,5.00,T,29.64,1003.60,10.00,M,BKN,BKN,OVC,M,800.00,1200.00,6500.00,M,M,M,M,M,M,M,M,28.77,KTPH 020756Z AUTO 30005KT 10SM BKN008 BKN012 OVC065 01/00 A2964 RMK AO2 UPE41 SLP036 P0000 T00110000 400780011,M
LAS,2024-02-02 07:56,-115.1634,36.0719,663.00,46.00,41.00,82.58,0.00,0.00,0.00,29.65,1003.70,10.00,M,FEW,SCT,M,M,6000.00,10000.00,M,M,M,M,M,M,M,M,M,46.00,KLAS 020756Z 00000KT 10SM FEW060 SCT100 08/05 A2965 RMK AO2 SLP037 T00780050 401500072,M
WMC,2024-02-02 07:56,-117.8072,40.9019,1315.00,35.00,31.00,85.17,130.00,3.00,0.00,29.64,1003.30,10.00,M,CLR,M,M,M,M,M,M,M,M,M,M,M,M,M,M,32.12,KWMC 020756Z AUTO 13003KT 10SM CLR 02/M01 A2964 RMK AO2 SLP033 T00171006 401000011,M
LOL,2024-02-02 07:59,-118.5701,40.0684,1192.43,29.00,29.00,100.00,80.00,3.00,0.00,29.67,M,1.75,M,SCT,BKN,M,M,100.00,7000.00,M,M,BR,M,M,M,M,M,M,25.26,KLOL 020759Z AUTO 08003KT 1 3/4SM BR SCT001 BKN070 M02/M02 A2967 RMK AO2 VIS 1/2V5 T10171017,M
ELY,2024-02-02 08:00,-114.8453,39.2950,1909.00,33.00,30.00,88.58,220.00,7.00,0.00,29.60,M,10.00,M,BKN,BKN,OVC,M,2200.00,2700.00,4900.00,M,M,M,M,M,M,M,M,26.00,KELY 020800Z AUTO 22007KT 10SM BKN022 BKN027 OVC049 01/M01 A2960 RMK AO2 T00061011,M
INS,2024-02-02 08:02,-115.6733,36.5872,955.00,42.80,39.20,86.99,0.00,0.00,0.00,29.65,1002.60,10.00,M,FEW,SCT,BKN,OVC,1000.00,2600.00,4000.00,5000.00,-RA,M,M,M,M,M,M,42.80,KINS 020802Z AUTO 00000KT 10SM -RA FEW010 SCT026 BKN040 OVC050 06/04 A2965 RMK AO2 RAB02 SLP026,M
LOL,2024-02-02 08:03,-118.5701,40.0684,1192.43,29.00,29.00,100.00,60.00,4.00,0.00,29.66,M,2.00,M,BKN,BKN,M,M,100.00,7000.00,M,M,BR,M,M,M,M,M,M,23.92,KLOL 020803Z AUTO 06004KT 2SM BR BKN001 BKN070 M02/M02 A2966 RMK AO2 VIS 1/2V5 T10171017,M
INS,2024-02-02 08:07,-115.6733,36.5872,955.00,42.80,39.20,86.99,0.00,0.00,0.00,29.65,1002.60,10.00,M,FEW,SCT,SCT,BKN,500.00,1000.00,1500.00,2600.00,-RA,M,M,M,M,M,M,42.80,KINS 020807Z AUTO 00000KT 10SM -RA FEW005 SCT010 SCT015 BKN026 OVC040 06/04 A2965 RMK AO2 RAB02 BKN V SCT SLP026,M
LOL,2024-02-02 08:09,-118.5701,40.0684,1192.43,29.00,29.00,100.00,50.00,3.00,0.00,29.66,M,7.00,M,BKN,BKN,M,M,200.00,7000.00,M,M,M,M,M,M,M,M,M,25.26,KLOL 020809Z AUTO 05003KT 7SM BKN002 BKN070 M02/M02 A2966 RMK AO2 T10171017,M
BVU,2024-02-02 08:15,-114.8611,35.9475,671.00,44.60,42.80,93.35,190.00,3.00,0.00,29.66,M,10.00,M,CLR,M,M,M,M,M,M,M,M,M,M,M,M,M,M,43.09,KBVU 020815Z AUTO 19003KT 10SM CLR 07/06 A2966 RMK AO2,M
CXP,2024-02-02 08:15,-119.7326,39.1923,1431.00,37.40,23.00,55.68,0.00,0.00,0.00,29.70,M,10.00,M,FEW,M,M,M,11000.00,M,M,M,M,M,M,M,M,M,M,37.40,KCXP 020815Z AUTO 00000KT 10SM FEW110 03/M05 A2970 RMK AO2,M
EKO,2024-02-02 08:15,-115.7860,40.8242,1367.00,34.00,32.00,92.29,220.00,8.00,0.00,29.62,M,10.00,M,SCT,SCT,OVC,M,1400.00,2200.00,3500.00,M,M,T,M,M,M,M,M,26.58,KEKO 020815Z AUTO 22008KT 10SM SCT014 SCT022 OVC035 01/00 A2962 RMK AO2 I1000 T00110000,M
RTS,2024-02-02 08:15,-119.8764,39.6682,1539.00,28.40,23.00,79.92,280.00,5.00,0.00,29.69,M,10.00,M,CLR,M,M,M,M,M,M,M,M,M,M,M,M,M,M,22.12,KRTS 020815Z AUTO 28005KT 10SM CLR M02/M05 A2969 RMK AO2,M
TPH,2024-02-02 08:15,-117.0904,38.0505,1654.00,34.00,33.00,96.08,310.00,5.00,0.00,29.64,M,10.00,M,OVC,M,M,M,600.00,M,M,M,M,M,M,M,M,M,M,28.77,KTPH 020815Z AUTO 31005KT 10SM OVC006 01/01 A2964 RMK AO2 T00110006,M
05U,2024-02-02 08:15,-116.0051,39.6042,1811.23,32.00,32.00,100.00,0.00,0.00,0.00,29.66,M,1.00,M,M,M,M,M,M,M,M,M,BR,M,M,M,M,M,M,32.00,K05U 020815Z AUTO 00000KT 1SM BR 00/00 A2966 RMK A01,M
MEV,2024-02-02 08:15,-119.7500,38.9963,1441.42,24.80,21.20,85.96,90.00,6.00,0.00,29.68,M,10.00,M,FEW,FEW,M,M,4200.00,5500.00,M,M,M,M,M,M,M,M,M,16.86,KMEV 020815Z AUTO 09006KT 10SM FEW042 FEW055 M04/M06 A2968 RMK AO2,M
BAM,2024-02-02 08:15,-116.8743,40.5990,1382.36,37.40,35.60,93.14,170.00,4.00,0.00,29.65,M,10.00,M,BKN,BKN,OVC,M,4500.00,7500.00,9000.00,M,M,M,M,M,M,M,M,33.73,KBAM 020815Z AUTO 17004KT 10SM BKN045 BKN075 OVC090 03/02 A2965 RMK AO1,M
HTH,2024-02-02 08:15,-118.6315,38.5448,1282.89,33.80,33.80,100.00,0.00,0.00,0.00,29.68,M,10.00,M,FEW,FEW,M,M,7000.00,12000.00,M,M,M,M,M,M,M,M,M,33.80,KHTH 020815Z AUTO 00000KT 10SM FEW070 FEW120 01/01 A2968 RMK A01,M
TMT,2024-02-02 08:15,-117.1971,39.4643,1749.34,29.00,28.40,97.57,0.00,0.00,0.00,29.67,M,10.00,M,SCT,OVC,M,M,3400.00,9000.00,M,M,M,M,M,M,M,M,M,29.00,KTMT 020815Z AUTO 00000KT 10SM SCT034 OVC090 M02/M02 A2967 RMK AO2 T10161020,M
ELY,2024-02-02 08:17,-114.8453,39.2950,1909.00,33.00,30.00,88.58,210.00,5.00,0.00,29.60,M,10.00,M,SCT,BKN,OVC,M,2200.00,3700.00,4600.00,M,M,M,M,M,M,M,M,27.58,KELY 020817Z AUTO 21005KT 10SM SCT022 BKN037 OVC046 01/M01 A2960 RMK AO2 T00061011,M
INS,2024-02-02 08:22,-115.6733,36.5872,955.00,42.80,39.20,86.99,0.00,0.00,0.00,29.65,1002.60,10.00,M,FEW,FEW,SCT,BKN,400.00,1200.00,2400.00,3400.00,-RA,M,M,M,M,M,M,42.80,KINS 020822Z AUTO 00000KT 10SM -RA FEW004 FEW012 SCT024 BKN034 OVC055 06/04 A2965 RMK AO2 RAB02 SLP026,M
INS,2024-02-02 08:28,-115.6733,36.5872,955.00,42.80,39.20,86.99,0.00,0.00,0.00,29.65,1002.60,10.00,M,FEW,FEW,SCT,SCT,400.00,1200.00,2200.00,3400.00,M,M,M,M,M,M,M,42.80,KINS 020828Z AUTO 00000KT 10SM FEW004 FEW012 SCT022 SCT034 BKN060 06/04 A2965 RMK AO2 RAB02E25DZB25E28 SLP026,M
EKO,2024-02-02 08:32,-115.7860,40.8242,1367.00,34.00,32.00,92.29,220.00,8.00,0.00,29.62,M,9.00,M,FEW,OVC,M,M,2000.00,2700.00,M,M,M,T,M,M,M,M,M,26.58,KEKO 020832Z AUTO 22008KT 9SM FEW020 OVC027 01/00 A2962 RMK AO2 I1000 T00110000,M
LOL,2024-02-02 08:34,-118.5701,40.0684,1192.43,28.00,28.00,100.00,0.00,0.00,0.00,29.67,M,10.00,M,FEW,BKN,M,M,200.00,6000.00,M,M,M,M,M,M,M,M,M,28.00,KLOL 020834Z AUTO 00000KT 10SM FEW002 BKN060 M02/M02 A2967 RMK AO2 T10221022,M
BVU,2024-02-02 08:35,-114.8611,35.9475,671.00,44.60,42.80,93.35,0.00,0.00,0.00,29.65,M,10.00,M,FEW,M,M,M,6000.00,M,M,M,M,M,M,M,M,M,M,44.60,KBVU 020835Z AUTO 00000KT 10SM FEW060 07/06 A2965 RMK AO2,M
CXP,2024-02-02 08:35,-119.7326,39.1923,1431.00,33.80,23.00,64.23,0.00,0.00,0.00,29.70,M,10.00,M,FEW,M,M,M,5000.00,M,M,M,M,M,M,M,M,M,M,33.80,KCXP 020835Z AUTO 00000KT 10SM FEW050 01/M05 A2970 RMK AO2,M
RTS,2024-02-02 08:35,-119.8764,39.6682,1539.00,28.40,23.00,79.92,350.00,3.00,0.00,29.69,M,10.00,M,CLR,M,M,M,M,M,M,M,M,M,M,M,M,M,M,24.57,KRTS 020835Z AUTO 35003KT 10SM CLR M02/M05 A2969 RMK AO2,M
05U,2024-02-02 08:35,-116.0051,39.6042,1811.23,32.00,32.00,100.00,0.00,0.00,0.00,29.65,M,1.00,M,M,M,M,M,M,M,M,M,BR,M,M,M,M,M,M,32.00,K05U 020835Z AUTO 00000KT 1SM BR 00/M00 A2965 RMK A01,M
MEV,2024-02-02 08:35,-119.7500,38.9963,1441.42,26.60,23.00,86.07,70.00,8.00,0.00,29.68,M,10.00,M,FEW,FEW,M,M,4400.00,6500.00,M,M,M,M,M,M,M,M,M,17.46,KMEV 020835Z AUTO 07008KT 10SM FEW044 FEW065 M03/M05 A2968 RMK AO2,M
BAM,2024-02-02 08:35,-116.8743,40.5990,1382.36,37.40,35.60,93.14,170.00,4.00,0.00,29.65,M,10.00,M,SCT,OVC,M,M,600.00,4500.00,M,M,M,M,M,M,M,M,M,33.73,KBAM 020835Z AUTO 17004KT 10SM SCT006 OVC045 03/02 A2965 RMK AO1,M
HTH,2024-02-02 08:35,-118.6315,38.5448,1282.89,32.00,32.00,100.00,0.00,0.00,0.00,29.68,M,10.00,M,CLR,M,M,M,M,M,M,M,M,M,M,M,M,M,M,32.00,KHTH 020835Z AUTO 00000KT 10SM CLR 00/M00 A2968 RMK A01,M
TMT,2024-02-02 08:35,-117.1971,39.4643,1749.34,28.40,27.70,97.17,130.00,3.00,0.00,29.67,M,10.00,M,SCT,OVC,M,M,3400.00,9000.00,M,M,M,M,M,M,M,M,M,24.57,KTMT 020835Z AUTO 13003KT 10SM SCT034 OVC090 M02/M02 A2967 RMK AO2 T10201024,M
LOL,2024-02-02 08:43,-118.5701,40.0684,1192.43,27.00,27.00,100.00,160.00,3.00,0.00,29.67,M,1.75,M,FEW,BKN,M,M,200.00,6500.00,M,M,BR,M,M,M,M,M,M,22.97,KLOL 020843Z AUTO 16003KT 1 3/4SM BR FEW002 BKN065 M03/M03 A2967 RMK AO2 VIS 3/4V5 T10281028,M
05U,2024-02-02 08:50,-116.0051,39.6042,1811.23,32.00,32.00,100.00,0.00,0.00,0.00,29.66,M,1.50,M,M,M,M,M,M,M,M,M,BR,M,M,M,M,M,M,32.00,K05U 020850Z AUTO 00000KT 1 1/2SM BR 00/M00 A2966 RMK A01,M
P68,2024-02-02 08:53,-116.0056,39.6014,1993.00,31.00,30.00,96.02,40.00,6.00,0.05,29.64,1001.80,M,M,M,M,M,M,M,M,M,M,M,M,M,M,M,M,M,24.33,KP68 020853Z AUTO 04006KT M01/M01 A2964 RMK AO1 SLP018 P0005 60013 T10061011 53009,M
DRA,2024-02-02 08:53,-116.0278,36.6206,1009.00,45.00,38.00,76.31,210.00,8.00,0.00,29.64,1002.30,10.00,M,SCT,OVC,M,M,2600.00,5000.00,M,M,M,M,M,M,M,M,M,40.13,KDRA 020853Z AUTO 21008KT 10SM SCT026 OVC050 07/03 A2964 RMK AO2 SLP023 60000 T00720033 58003,M
ELY,2024-02-02 08:53,-114.8453,39.2950,1909.00,32.00,30.00,92.22,240.00,5.00,0.00,29.59,999.80,10.00,M,OVC,M,M,M,5500.00,M,M,M,M,M,M,M,M,M,M,26.40,KELY 020853Z AUTO 24005KT 10SM OVC055 00/M01 A2959 RMK AO2 SLP998 60002 T00001011 58004,M
VGT,2024-02-02 08:53,-115.1933,36.2111,667.00,44.00,42.00,92.61,310.00,3.00,0.00,29.64,1005.40,10.00,M,CLR,M,M,M,M,M,M,M,M,M,M,M,M,M,M,42.41,KVGT 020853Z AUTO 31003KT 10SM CLR 07/06 A2964 RMK AO2 SLP054 T00670056 58005,M
LOL,2024-02-02 08:53,-118.5701,40.0684,1192.43,28.00,28.00,100.00,90.00,3.00,0.00,29.67,1005.60,0.75,M,BKN,OVC,M,M,200.00,6000.00,M,M,BR,T,T,M,M,M,M,24.12,KLOL 020853Z AUTO 09003KT 3/4SM BR BKN002 OVC060 M02/M02 A2967 RMK AO2 SLP056 I1000 I3000 T10221022 53007,M
BVU,2024-02-02 08:55,-114.8611,35.9475,671.00,42.80,41.00,93.30,0.00,0.00,0.00,29.65,M,10.00,M,FEW,M,M,M,6000.00,M,M,M,M,M,M,M,M,M,M,42.80,KBVU 020855Z AUTO 00000KT 10SM FEW060 06/05 A2965 RMK AO2,M
CXP,2024-02-02 08:55,-119.7326,39.1923,1431.00,35.60,23.00,59.79,0.00,0.00,0.00,29.70,M,10.00,M,FEW,M,M,M,5000.00,M,M,M,M,M,M,M,M,M,M,35.60,KCXP 020855Z AUTO 00000KT 10SM FEW050 02/M05 A2970 RMK AO2,M
INS,2024-02-02 08:55,-115.6733,36.5872,955.00,42.40,39.20,88.34,0.00,0.00,T,29.65,1002.60,10.00,M,BKN,M,M,M,6000.00,M,M,M,M,M,M,M,M,M,M,42.40,KINS 020855Z AUTO 00000KT 10SM BKN060 06/04 A2965 RMK AO2 RAB02E25DZB25E28 SLP026 P0000 60000 T00580040 58004,M
RNO,2024-02-02 08:55,-119.7711,39.4839,1341.00,32.00,25.00,75.07,0.00,0.00,0.00,29.68,1004.40,10.00,M,FEW,M,M,M,6000.00,M,M,M,M,M,M,M,M,M,M,32.00,KRNO 020855Z 00000KT 10SM FEW060 00/M04 A2968 RMK AO2 SLP044 T00001039 51006,M
LSV,2024-02-02 08:55,-115.0343,36.2362,570.00,47.00,41.00,79.52,0.00,0.00,0.00,29.62,1002.50,10.00,M,FEW,M,M,M,5500.00,M,M,M,M,M,M,M,M,M,M,47.00,KLSV 020855Z AUTO 00000KT 10SM FEW055 08/05 A2962 RMK AO2 SLP025 T00840051 58005 $,M
RTS,2024-02-02 08:55,-119.8764,39.6682,1539.00,30.20,23.00,74.26,330.00,4.00,0.00,29.69,M,10.00,M,FEW,M,M,M,4900.00,M,M,M,M,M,M,M,M,M,M,25.32,KRTS 020855Z AUTO 33004KT 10SM FEW049 M01/M05 A2969 RMK AO2,M
MEV,2024-02-02 08:55,-119.7500,38.9963,1441.42,30.20,23.00,74.26,60.00,7.00,0.00,29.68,M,10.00,M,FEW,FEW,SCT,M,4000.00,4700.00,5500.00,M,M,M,M,M,M,M,M,22.59,KMEV 020855Z AUTO 06007KT 10SM FEW040 FEW047 SCT055 M01/M05 A2968 RMK AO2,M
BAM,2024-02-02 08:55,-116.8743,40.5990,1382.36,37.40,35.60,93.14,150.00,4.00,0.00,29.65,M,10.00,M,BKN,OVC,M,M,800.00,4300.00,M,M,M,M,M,M,M,M,M,33.73,KBAM 020855Z AUTO 15004KT 10SM BKN008 OVC043 03/02 A2965 RMK AO1,M
HTH,2024-02-02 08:55,-118.6315,38.5448,1282.89,32.00,32.00,100.00,0.00,0.00,0.00,29.69,M,10.00,M,FEW,M,M,M,12000.00,M,M,M,M,M,M,M,M,M,M,32.00,KHTH 020855Z AUTO 00000KT 10SM FEW120 00/00 A2969 RMK A01,M
TMT,2024-02-02 08:55,-117.1971,39.4643,1749.34,27.70,27.00,97.16,0.00,0.00,0.00,29.67,M,10.00,M,SCT,OVC,M,M,3400.00,9000.00,M,M,M,M,M,M,M,M,M,27.70,KTMT 020855Z AUTO 00000KT 10SM SCT034 OVC090 M02/M03 A2967 RMK AO2 T10241028,M
EKO,2024-02-02 08:56,-115.7860,40.8242,1367.00,34.00,32.00,92.29,220.00,7.00,0.00,29.62,1002.80,10.00,M,OVC,M,M,M,3100.00,M,M,M,M,T,T,M,M,M,M,27.22,KEKO 020856Z AUTO 22007KT 10SM OVC031 01/00 A2962 RMK AO2 SLP028 60000 I1000 I3000 T00110000 53004,M
NFL,2024-02-02 08:56,-118.7010,39.4166,1199.00,33.00,30.00,88.58,240.00,3.00,0.00,29.67,1003.00,10.00,M,CLR,M,M,M,M,M,M,M,M,M,M,M,M,M,M,29.83,KNFL 020856Z AUTO 24003KT 10SM CLR 01/M01 A2967 RMK AO2 SLP030 T00061011 51005,M
HND,2024-02-02 08:56,-115.1344,35.9729,742.79,47.00,39.00,73.57,210.00,14.00,0.00,29.66,1005.80,10.00,M,CLR,M,M,M,M,M,M,M,M,M,M,M,M,M,M,40.50,KHND 020856Z AUTO 21014KT 10SM CLR 08/04 A2966 RMK AO2 SLP058 T00830039 58009,M
TPH,2024-02-02 08:56,-117.0904,38.0505,1654.00,34.00,33.00,96.08,320.00,6.00,0.00,29.64,1003.60,10.00,M,SCT,SCT,OVC,M,500.00,1000.00,7000.00,M,M,M,M,M,M,M,M,27.94,KTPH 020856Z AUTO 32006KT 10SM SCT005 SCT010 OVC070 01/01 A2964 RMK AO2 SLP036 60001 T00110006 55000,M
LAS,2024-02-02 08:56,-115.1634,36.0719,663.00,44.00,41.00,89.11,0.00,0.00,0.00,29.64,1003.30,10.00,M,FEW,FEW,M,M,6000.00,10000.00,M,M,M,M,M,M,M,M,M,44.00,KLAS 020856Z 00000KT 10SM FEW060 FEW100 07/05 A2964 RMK AO2 SLP033 T00670050 58005,M
WMC,2024-02-02 08:56,-117.8072,40.9019,1315.00,33.00,30.00,88.58,160.00,4.00,0.00,29.64,1003.80,10.00,M,CLR,M,M,M,M,M,M,M,M,M,M,M,M,M,M,28.59,KWMC 020856Z AUTO 16004KT 10SM CLR 01/M01 A2964 RMK AO2 SLP038 T00061011 51005,M
TPH,2024-02-02 09:03,-117.0904,38.0505,1654.00,35.00,33.00,92.32,320.00,5.00,0.00,29.64,M,10.00,M,FEW,BKN,OVC,M,500.00,1000.00,7000.00,M,M,M,M,M,M,M,M,29.96,KTPH 020903Z AUTO 32005KT 10SM FEW005 BKN010 OVC070 02/01 A2964 RMK AO2 T00170006,M
VGT,2024-02-02 09:10,-115.1933,36.2111,667.00,44.00,42.00,92.61,350.00,4.00,0.00,29.65,M,9.00,M,SCT,M,M,M,200.00,M,M,M,M,M,M,M,M,M,M,41.43,KVGT 020910Z AUTO 35004KT 9SM SCT002 07/06 A2965 RMK AO2 T00670056,M
05U,2024-02-02 09:10,-116.0051,39.6042,1811.23,32.00,32.00,100.00,0.00,0.00,0.00,29.66,M,2.00,M,M,M,M,M,M,M,M,M,BR,M,M,M,M,M,M,32.00,K05U 020910Z AUTO 00000KT 2SM BR 00/M00 A2966 RMK A01,M
HTH,2024-02-02 09:10,-118.6315,38.5448,1282.89,32.00,30.20,92.97,0.00,0.00,0.00,29.69,M,10.00,M,SCT,SCT,M,M,6500.00,12000.00,M,M,M,M,M,M,M,M,M,32.00,KHTH 020910Z AUTO 00000KT 10SM SCT065 SCT120 M00/M01 A2969 RMK A01,M
BVU,2024-02-02 09:15,-114.8611,35.9475,671.00,42.80,41.00,93.30,60.00,4.00,0.00,29.66,M,10.00,M,CLR,M,M,M,M,M,M,M,M,M,M,M,M,M,M,40.03,KBVU 020915Z AUTO 06004KT 10SM CLR 06/05 A2966 RMK AO2,M
CXP,2024-02-02 09:15,-119.7326,39.1923,1431.00,32.00,23.00,69.04,0.00,0.00,0.00,29.70,M,10.00,M,CLR,M,M,M,M,M,M,M,M,M,M,M,M,M,M,32.00,KCXP 020915Z AUTO 00000KT 10SM CLR 00/M05 A2970 RMK AO2,M
RTS,2024-02-02 09:15,-119.8764,39.6682,1539.00,30.20,21.20,68.83,340.00,6.00,0.00,29.69,M,10.00,M,FEW,M,M,M,4200.00,M,M,M,M,M,M,M,M,M,M,23.36,KRTS 020915Z AUTO 34006KT 10SM FEW042 M01/M06 A2969 RMK AO2,M
MEV,2024-02-02 09:15,-119.7500,38.9963,1441.42,30.20,23.00,74.26,90.00,8.00,0.00,29.69,M,10.00,M,FEW,BKN,M,M,4600.00,5500.00,M,M,M,M,M,M,M,M,M,21.90,KMEV 020915Z AUTO 09008KT 10SM FEW046 BKN055 M01/M05 A2969 RMK AO2,M
BAM,2024-02-02 09:15,-116.8743,40.5990,1382.36,37.40,35.60,93.14,160.00,3.00,0.00,29.65,M,10.00,M,SCT,OVC,M,M,800.00,4300.00,M,M,M,M,M,M,M,M,M,34.86,KBAM 020915Z AUTO 16003KT 10SM SCT008 OVC043 03/02 A2965 RMK AO1,M
TMT,2024-02-02 09:15,-117.1971,39.4643,1749.34,27.50,26.60,96.36,190.00,3.00,0.00,29.67,M,10.00,M,BKN,M,M,M,9000.00,M,M,M,M,M,M,M,M,M,M,23.54,KTMT 020915Z AUTO 19003KT 10SM BKN090 M02/M03 A2967 RMK AO2 T10251030,M
VGT,2024-02-02 09:19,-115.1933,36.2111,667.00,44.00,43.00,96.24,320.00,3.00,0.00,29.65,M,8.00,M,BKN,M,M,M,200.00,M,M,M,M,M,M,M,M,M,M,42.41,KVGT 020919Z AUTO 32003KT 8SM BKN002 07/06 A2965 RMK AO2 T00670061,M
LOL,2024-02-02 09:19,-118.5701,40.0684,1192.43,28.00,28.00,100.00,250.00,3.00,0.00,29.67,M,0.25,M,VV ,M,M,M,200.00,M,M,M,FZFG,M,M,M,M,M,M,24.12,KLOL 020919Z AUTO 25003KT 1/4SM FZFG VV002 M02/M02 A2967 RMK AO2 T10221022,M
VGT,2024-02-02 09:29,-115.1933,36.2111,667.00,44.00,42.00,92.61,310.00,5.00,0.00,29.65,M,8.00,M,SCT,M,M,M,200.00,M,M,M,M,M,M,M,M,M,M,40.65,KVGT 020929Z AUTO 31005KT 8SM SCT002 07/06 A2965 RMK AO2 T00670056,M
TPH,2024-02-02 09:31,-117.0904,38.0505,1654.00,34.00,32.00,92.29,340.00,8.00,0.00,29.64,M,10.00,M,FEW,SCT,OVC,M,800.00,1200.00,7000.00,M,M,M,M,M,M,M,M,26.58,KTPH 020931Z AUTO 34008KT 10SM FEW008 SCT012 OVC070 01/00 A2964 RMK AO2 T00110000,M
LOL,2024-02-02 09:33,-118.5701,40.0684,1192.43,29.00,29.00,100.00,0.00,0.00,0.00,29.68,M,0.25,M,VV ,M,M,M,200.00,M,M,M,FZFG,0.01,M,M,M,M,M,29.00,KLOL 020933Z AUTO 00000KT M1/4SM FZFG VV002 M02/M02 A2968 RMK AO2 I1001 T10171017,M
BVU,2024-02-02 09:35,-114.8611,35.9475,671.00,44.60,41.00,87.09,110.00,5.00,0.00,29.66,M,10.00,M,FEW,M,M,M,7000.00,M,M,M,M,M,M,M,M,M,M,41.36,KBVU 020935Z AUTO 11005KT 10SM FEW070 07/05 A2966 RMK AO2,M
CXP,2024-02-02 09:35,-119.7326,39.1923,1431.00,35.60,21.20,55.41,0.00,0.00,0.00,29.70,M,10.00,M,CLR,M,M,M,M,M,M,M,M,M,M,M,M,M,M,35.60,KCXP 020935Z AUTO 00000KT 10SM CLR 02/M06 A2970 RMK AO2,M
RTS,2024-02-02 09:35,-119.8764,39.6682,1539.00,28.40,23.00,79.92,300.00,8.00,0.00,29.70,M,10.00,M,FEW,M,M,M,4200.00,M,M,M,M,M,M,M,M,M,M,19.68,KRTS 020935Z AUTO 30008KT 10SM FEW042 M02/M05 A2970 RMK AO2,M
05U,2024-02-02 09:35,-116.0051,39.6042,1811.23,32.00,32.00,100.00,0.00,0.00,0.00,29.66,M,1.25,M,M,M,M,M,M,M,M,M,BR,M,M,M,M,M,M,32.00,K05U 020935Z AUTO 00000KT 1 1/4SM BR M00/M00 A2966 RMK A01,M
MEV,2024-02-02 09:35,-119.7500,38.9963,1441.42,30.20,23.00,74.26,80.00,9.00,0.00,29.69,M,10.00,M,FEW,OVC,M,M,4200.00,5500.00,M,M,M,M,M,M,M,M,M,21.28,KMEV 020935Z AUTO 08009KT 10SM FEW042 OVC055 M01/M05 A2969 RMK AO2,M
BAM,2024-02-02 09:35,-116.8743,40.5990,1382.36,37.40,35.60,93.14,170.00,3.00,0.00,29.66,M,10.00,M,BKN,OVC,M,M,4300.00,6000.00,M,M,M,M,M,M,M,M,M,34.86,KBAM 020935Z AUTO 17003KT 10SM BKN043 OVC060 03/02 A2966 RMK AO1,M
HTH,2024-02-02 09:35,-118.6315,38.5448,1282.89,32.00,32.00,100.00,0.00,0.00,0.00,29.69,M,10.00,M,SCT,BKN,M,M,7000.00,11000.00,M,M,M,M,M,M,M,M,M,32.00,KHTH 020935Z AUTO 00000KT 10SM SCT070 BKN110 00/M00 A2969 RMK A01,M
TMT,2024-02-02 09:35,-117.1971,39.4643,1749.34,28.00,27.00,95.97,0.00,0.00,0.00,29.67,M,10.00,M,SCT,SCT,BKN,M,5000.00,10000.00,12000.00,M,M,M,M,M,M,M,M,28.00,KTMT 020935Z AUTO 00000KT 10SM SCT050 SCT100 BKN120 M02/M03 A2967 RMK AO2 T10231028,M
LOL,2024-02-02 09:42,-118.5701,40.0684,1192.43,29.00,29.00,100.00,0.00,0.00,0.00,29.68,M,0.25,M,VV ,M,M,M,200.00,M,M,M,FZFG,0.01,M,M,M,M,M,29.00,KLOL 020942Z AUTO 00000KT 1/4SM FZFG VV002 M02/M02 A2968 RMK AO2 I1001 T10171017,M
LAS,2024-02-02 09:46,-115.1634,36.0719,663.00,43.00,42.00,96.23,280.00,6.00,0.00,29.65,M,10.00,M,FEW,FEW,SCT,M,600.00,1000.00,6000.00,M,M,M,M,M,M,M,M,38.78,KLAS 020946Z 28006KT 10SM FEW006 FEW010 SCT060 06/06 A2965 RMK AO2 MTNS OBSCURED DSNT NW-N T00610056,M
RTS,2024-02-02 09:50,-119.8764,39.6682,1539.00,30.20,23.00,74.26,290.00,8.00,0.00,29.70,M,10.00,M,FEW,M,M,M,4300.00,M,M,M,M,M,M,M,M,M,M,21.90,KRTS 020950Z AUTO 29008KT 10SM FEW043 M01/M05 A2970 RMK AO2,M
MEV,2024-02-02 09:50,-119.7500,38.9963,1441.42,30.20,23.00,74.26,100.00,8.00,0.00,29.69,M,10.00,M,FEW,FEW,BKN,M,4000.00,4600.00,5500.00,M,M,M,M,M,M,M,M,21.90,KMEV 020950Z AUTO 10008KT 10SM FEW040 FEW046 BKN055 M01/M05 A2969 RMK AO2,M
P68,2024-02-02 09:53,-116.0056,39.6014,1993.00,31.00,30.00,96.02,80.00,5.00,0.02,29.63,1001.60,M,M,M,M,M,M,M,M,M,M,M,M,M,M,M,M,M,25.21,KP68 020953Z AUTO 08005KT M01/M01 A2963 RMK AO1 SLP016 P0002 T10061011,M
DRA,2024-02-02 09:53,-116.0278,36.6206,1009.00,44.00,40.00,85.71,230.00,9.00,T,29.65,1002.60,10.00,M,OVC,M,M,M,4400.00,M,M,M,-RA,M,M,M,M,M,M,38.44,KDRA 020953Z AUTO 23009KT 10SM -RA OVC044 07/04 A2965 RMK AO2 RAB53 SLP026 P0000 T00670044,M
ELY,2024-02-02 09:53,-114.8453,39.2950,1909.00,32.00,30.00,92.22,0.00,0.00,T,29.58,999.90,10.00,M,SCT,BKN,OVC,M,4000.00,4700.00,6000.00,M,M,M,M,M,M,M,M,32.00,KELY 020953Z AUTO 00000KT 10SM SCT040 BKN047 OVC060 00/M01 A2958 RMK AO2 SNB07E34 SLP999 P0000 T00001011,M
VGT,2024-02-02 09:53,-115.1933,36.2111,667.00,44.00,43.00,96.24,350.00,5.00,0.00,29.65,1005.60,10.00,M,SCT,BKN,M,M,400.00,5500.00,M,M,M,M,M,M,M,M,M,40.65,KVGT 020953Z AUTO 35005KT 10SM SCT004 BKN055 07/06 A2965 RMK AO2 SLP056 T00670061,M
LOL,2024-02-02 09:53,-118.5701,40.0684,1192.43,29.00,29.00,100.00,40.00,3.00,0.00,29.69,1006.40,0.25,M,VV ,M,M,M,200.00,M,M,M,FZFG,0.01,M,M,M,M,M,25.26,KLOL 020953Z AUTO 04003KT 1/4SM FZFG VV002 M02/M02 A2969 RMK AO2 SLP064 I1001 T10171017,M
BVU,2024-02-02 09:55,-114.8611,35.9475,671.00,44.60,41.00,87.09,100.00,4.00,0.00,29.66,M,10.00,M,FEW,M,M,M,6000.00,M,M,M,M,M,M,M,M,M,M,42.13,KBVU 020955Z AUTO 10004KT 10SM FEW060 07/05 A2966 RMK AO2,M
CXP,2024-02-02 09:55,-119.7326,39.1923,1431.00,33.80,21.20,59.53,20.00,5.00,0.00,29.70,M,10.00,M,CLR,M,M,M,M,M,M,M,M,M,M,M,M,M,M,28.53,KCXP 020955Z AUTO 02005KT 10SM CLR 01/M06 A2970 RMK AO2,M
INS,2024-02-02 09:55,-115.6733,36.5872,955.00,41.00,38.70,91.44,0.00,0.00,0.00,29.65,1002.90,10.00,M,FEW,BKN,M,M,2900.00,6500.00,M,M,M,M,M,M,M,M,M,41.00,KINS 020955Z AUTO 00000KT 10SM FEW029 BKN065 05/04 A2965 RMK AO2 SLP029 T00500037,M
RNO,2024-02-02 09:55,-119.7711,39.4839,1341.00,31.00,25.00,78.16,0.00,0.00,0.00,29.70,1004.90,10.00,M,FEW,M,M,M,6000.00,M,M,M,M,M,M,M,M,M,M,31.00,KRNO 020955Z 00000KT 10SM FEW060 M01/M04 A2970 RMK AO2 SLP049 T10061039,M
LSV,2024-02-02 09:55,-115.0343,36.2362,570.00,45.00,43.00,92.65,80.00,6.00,0.00,29.62,1002.80,10.00,M,CLR,M,M,M,M,M,M,M,M,M,M,M,M,M,M,41.19,KLSV 020955Z AUTO 08006KT 10SM CLR 07/06 A2962 RMK AO2 SLP028 T00730061 $,M
05U,2024-02-02 09:55,-116.0051,39.6042,1811.23,32.00,30.20,92.97,0.00,0.00,0.02,29.66,M,1.50,M,M,M,M,M,M,M,M,M,BR,M,M,M,M,M,M,32.00,K05U 020955Z AUTO 00000KT 1 1/2SM BR M00/M01 A2966 RMK A01 P0002,M
BAM,2024-02-02 09:55,-116.8743,40.5990,1382.36,35.60,35.60,100.00,150.00,4.00,0.00,29.66,M,10.00,M,SCT,BKN,BKN,M,4300.00,6000.00,12000.00,M,M,M,M,M,M,M,M,31.62,KBAM 020955Z AUTO 15004KT 10SM SCT043 BKN060 BKN120 02/02 A2966 RMK AO1,M
HTH,2024-02-02 09:55,-118.6315,38.5448,1282.89,32.00,32.00,100.00,0.00,0.00,0.00,29.70,M,10.00,M,OVC,M,M,M,11000.00,M,M,M,M,M,M,M,M,M,M,32.00,KHTH 020955Z AUTO 00000KT 10SM OVC110 00/00 A2970 RMK A01,M
TMT,2024-02-02 09:55,-117.1971,39.4643,1749.34,25.30,24.40,96.32,0.00,0.00,0.00,29.67,M,10.00,M,SCT,BKN,M,M,5000.00,12000.00,M,M,M,M,M,M,M,M,M,25.30,KTMT 020955Z AUTO 00000KT 10SM SCT050 BKN120 M04/M04 A2967 RMK AO2 T10371042,M
EKO,2024-02-02 09:56,-115.7860,40.8242,1367.00,34.00,32.00,92.29,230.00,5.00,0.00,29.63,1003.00,10.00,M,OVC,M,M,M,4600.00,M,M,M,M,M,M,M,M,M,M,28.77,KEKO 020956Z AUTO 23005KT 10SM OVC046 01/00 A2963 RMK AO2 SLP030 T00110000,M
NFL,2024-02-02 09:56,-118.7010,39.4166,1199.00,31.00,29.00,92.19,150.00,3.00,0.00,29.69,1003.70,10.00,M,CLR,M,M,M,M,M,M,M,M,M,M,M,M,M,M,27.55,KNFL 020956Z AUTO 15003KT 10SM CLR M01/M02 A2969 RMK AO2 SLP037 T10061017,M
HND,2024-02-02 09:56,-115.1344,35.9729,742.79,46.00,38.00,73.47,210.00,14.00,0.00,29.66,1006.20,10.00,M,CLR,M,M,M,M,M,M,M,M,M,M,M,M,M,M,39.21,KHND 020956Z AUTO 21014KT 10SM CLR 08/03 A2966 RMK AO2 SLP062 T00780033,M
TPH,2024-02-02 09:56,-117.0904,38.0505,1654.00,35.00,32.00,88.68,340.00,9.00,0.00,29.64,1003.50,10.00,M,SCT,OVC,M,M,7000.00,11000.00,M,M,M,M,M,M,M,M,M,27.24,KTPH 020956Z AUTO 34009KT 10SM SCT070 OVC110 02/00 A2964 RMK AO2 SLP035 T00170000,M
LAS,2024-02-02 09:56,-115.1634,36.0719,663.00,43.00,41.00,92.58,290.00,7.00,0.00,29.65,1003.80,10.00,M,FEW,FEW,SCT,M,500.00,1000.00,6500.00,M,M,M,M,M,M,M,M,38.19,KLAS 020956Z 29007KT 10SM FEW005 FEW010 SCT065 06/05 A2965 RMK AO2 SLP038 CLOUDS OBSCURE TOPS OF BUILDINGS NW MTNS OBSCURED DSNT NW-N T00610050,M
WMC,2024-02-02 09:56,-117.8072,40.9019,1315.00,33.00,30.00,88.58,170.00,6.00,0.00,29.65,1004.30,10.00,M,CLR,M,M,M,M,M,M,M,M,M,M,M,M,M,M,26.73,KWMC 020956Z AUTO 17006KT 10SM CLR 01/M01 A2965 RMK AO2 SLP043 T00061011,M
BVU,2024-02-02 10:15,-114.8611,35.9475,671.00,44.60,42.80,93.35,110.00,5.00,0.00,29.67,M,10.00,M,BKN,M,M,M,6000.00,M,M,M,M,M,M,M,M,M,M,41.36,KBVU 021015Z AUTO 11005KT 10SM BKN060 07/06 A2967 RMK AO2,M
CXP,2024-02-02 10:15,-119.7326,39.1923,1431.00,35.60,23.00,59.79,0.00,0.00,0.00,29.70,M,10.00,M,CLR,M,M,M,M,M,M,M,M,M,M,M,M,M,M,35.60,KCXP 021015Z AUTO 00000KT 10SM CLR 02/M05 A2970 RMK AO2,M
05U,2024-02-02 10:15,-116.0051,39.6042,1811.23,32.00,30.20,92.97,0.00,0.00,0.00,29.66,M,1.00,M,M,M,M,M,M,M,M,M,BR,M,M,M,M,M,M,32.00,K05U 021015Z AUTO 00000KT 1SM BR M00/M01 A2966 RMK A01,M
BAM,2024-02-02 10:15,-116.8743,40.5990,1382.36,35.60,33.80,93.08,0.00,0.00,0.00,29.66,M,10.00,M,SCT,M,M,M,12000.00,M,M,M,M,M,M,M,M,M,M,35.60,KBAM 021015Z AUTO 00000KT 10SM SCT120 02/01 A2966 RMK AO1,M
HTH,2024-02-02 10:15,-118.6315,38.5448,1282.89,32.00,30.20,92.97,0.00,0.00,0.00,29.70,M,10.00,M,OVC,M,M,M,10000.00,M,M,M,M,M,M,M,M,M,M,32.00,KHTH 021015Z AUTO 00000KT 10SM OVC100 M00/M01 A2970 RMK A01,M
TMT,2024-02-02 10:15,-117.1971,39.4643,1749.34,24.40,23.50,96.30,0.00,0.00,0.00,29.67,M,10.00,M,SCT,SCT,BKN,M,3100.00,4800.00,12000.00,M,M,M,M,M,M,M,M,24.40,KTMT 021015Z AUTO 00000KT 10SM SCT031 SCT048 BKN120 M04/M05 A2967 RMK AO2 T10421047,M
HTH,2024-02-02 10:30,-118.6315,38.5448,1282.89,32.00,32.00,100.00,0.00,0.00,0.00,29.70,M,10.00,M,BKN,M,M,M,10000.00,M,M,M,M,M,M,M,M,M,M,32.00,KHTH 021030Z AUTO 00000KT 10SM BKN100 00/00 A2970 RMK A01,M
BVU,2024-02-02 10:35,-114.8611,35.9475,671.00,44.60,41.00,87.09,140.00,4.00,0.00,29.66,M,10.00,M,BKN,BKN,M,M,6000.00,6500.00,M,M,M,M,M,M,M,M,M,42.13,KBVU 021035Z AUTO 14004KT 10SM BKN060 BKN065 07/05 A2966 RMK AO2,M
CXP,2024-02-02 10:35,-119.7326,39.1923,1431.00,32.00,23.00,69.04,60.00,3.00,0.00,29.71,M,10.00,M,CLR,M,M,M,M,M,M,M,M,M,M,M,M,M,M,28.69,KCXP 021035Z AUTO 06003KT 10SM CLR 00/M05 A2971 RMK AO2,M
05U,2024-02-02 10:35,-116.0051,39.6042,1811.23,30.20,30.20,100.00,0.00,0.00,0.00,29.66,M,1.75,M,M,M,M,M,M,M,M,M,BR,M,M,M,M,M,M,30.20,K05U 021035Z AUTO 00000KT 1 3/4SM BR M01/M01 A2966 RMK A01,M
BAM,2024-02-02 10:35,-116.8743,40.5990,1382.36,33.80,33.80,100.00,0.00,0.00,0.00,29.66,M,10.00,M,CLR,M,M,M,M,M,M,M,M,M,M,M,M,M,M,33.80,KBAM 021035Z AUTO 00000KT 10SM CLR 01/01 A2966 RMK AO1,M
TMT,2024-02-02 10:35,-117.1971,39.4643,1749.34,24.80,24.00,96.72,0.00,0.00,0.00,29.68,M,10.00,M,SCT,OVC,M,M,3100.00,4900.00,M,M,M,M,M,M,M,M,M,24.80,KTMT 021035Z AUTO 00000KT 10SM SCT031 OVC049 M04/M04 A2968 RMK AO2 T10401045,M
LOL,2024-02-02 10:38,-118.5701,40.0684,1192.43,27.00,27.00,100.00,0.00,0.00,0.00,29.69,M,0.25,M,VV ,M,M,M,200.00,M,M,M,FZFG,0.01,M,M,M,M,M,27.00,KLOL 021038Z AUTO 00000KT M1/4SM FZFG VV002 M03/M03 A2969 RMK AO2 I1001 T10281028,M
LOL,2024-02-02 10:45,-118.5701,40.0684,1192.43,28.00,28.00,100.00,0.00,0.00,0.00,29.69,M,0.25,M,VV ,M,M,M,200.00,M,M,M,FZFG,0.01,M,M,M,M,M,28.00,KLOL 021045Z AUTO 00000KT 1/4SM FZFG VV002 M02/M02 A2969 RMK AO2 I1001 T10221022,M
P68,2024-02-02 10:53,-116.0056,39.6014,1993.00,30.00,29.00,96.00,20.00,5.00,0.02,29.64,1002.10,M,M,M,M,M,M,M,M,M,M,M,M,M,M,M,M,M,24.02,KP68 021053Z AUTO 02005KT M01/M02 A2964 RMK AO1 SLP021 P0002 T10111017,M
DRA,2024-02-02 10:53,-116.0278,36.6206,1009.00,43.00,39.00,85.66,220.00,8.00,T,29.65,1002.70,10.00,M,BKN,BKN,M,M,5500.00,11000.00,M,M,M,M,M,M,M,M,M,37.66,KDRA 021053Z AUTO 22008KT 10SM BKN055 BKN110 06/04 A2965 RMK AO2 RAE00 SLP027 P0000 T00610039,M
ELY,2024-02-02 10:53,-114.8453,39.2950,1909.00,31.00,29.00,92.19,250.00,7.00,T,29.60,1000.40,1.50,M,SCT,BKN,OVC,M,1000.00,1900.00,3800.00,M,-SN BR,M,M,M,M,M,M,23.56,KELY 021053Z AUTO 25007KT 1 1/2SM -SN BR SCT010 BKN019 OVC038 M01/M02 A2960 RMK AO2 SNB18 SLP004 P0000 T10061017,M
VGT,2024-02-02 10:53,-115.1933,36.2111,667.00,44.00,42.00,92.61,350.00,3.00,0.00,29.65,1006.00,10.00,M,FEW,BKN,M,M,3400.00,5000.00,M,M,M,M,M,M,M,M,M,42.41,KVGT 021053Z AUTO 35003KT 10SM FEW034 BKN050 07/06 A2965 RMK AO2 SLP060 T00670056,M
LOL,2024-02-02 10:53,-118.5701,40.0684,1192.43,27.00,27.00,100.00,0.00,0.00,0.00,29.69,1006.50,0.25,M,VV ,M,M,M,200.00,M,M,M,FZFG,0.01,M,M,M,M,M,27.00,KLOL 021053Z AUTO 00000KT 1/4SM FZFG VV002 M03/M03 A2969 RMK AO2 SLP065 I1001 T10281028,M
BVU,2024-02-02 10:55,-114.8611,35.9475,671.00,46.40,41.00,81.34,150.00,6.00,0.00,29.66,M,10.00,M,FEW,SCT,M,M,6000.00,11000.00,M,M,M,M,M,M,M,M,M,42.87,KBVU 021055Z AUTO 15006KT 10SM FEW060 SCT110 08/05 A2966 RMK AO2,M
CXP,2024-02-02 10:55,-119.7326,39.1923,1431.00,33.80,23.00,64.23,130.00,5.00,0.00,29.71,M,10.00,M,BKN,M,M,M,5000.00,M,M,M,M,M,M,M,M,M,M,28.53,KCXP 021055Z AUTO 13005KT 10SM BKN050 01/M05 A2971 RMK AO2,M
INS,2024-02-02 10:55,-115.6733,36.5872,955.00,40.50,38.70,93.23,0.00,0.00,0.00,29.65,1002.90,10.00,M,OVC,M,M,M,6500.00,M,M,M,M,M,M,M,M,M,M,40.50,KINS 021055Z AUTO 00000KT 10SM OVC065 05/04 A2965 RMK AO2 SLP029 T00470037,M
RNO,2024-02-02 10:55,-119.7711,39.4839,1341.00,32.00,25.00,75.07,80.00,3.00,0.00,29.70,1005.00,10.00,M,SCT,M,M,M,5500.00,M,M,M,M,M,M,M,M,M,M,28.69,KRNO 021055Z 08003KT 10SM SCT055 00/M04 A2970 RMK AO2 SLP050 T00001039 $,M
LSV,2024-02-02 10:55,-115.0343,36.2362,570.00,46.60,42.30,84.88,120.00,4.00,0.00,29.63,1003.10,10.00,M,SCT,M,M,M,6500.00,M,M,M,M,M,M,M,M,M,M,44.47,KLSV 021055Z AUTO 12004KT 10SM SCT065 08/06 A2963 RMK AO2 SLP031 T00810057 $,M
05U,2024-02-02 10:55,-116.0051,39.6042,1811.23,30.20,30.20,100.00,0.00,0.00,0.02,29.67,M,3.00,M,M,M,M,M,M,M,M,M,BR,M,M,M,M,M,M,30.20,K05U 021055Z AUTO 00000KT 3SM BR M01/M01 A2967 RMK A01 P0002,M
BAM,2024-02-02 10:55,-116.8743,40.5990,1382.36,33.80,33.80,100.00,0.00,0.00,0.00,29.66,M,10.00,M,SCT,M,M,M,12000.00,M,M,M,M,M,M,M,M,M,M,33.80,KBAM 021055Z AUTO 00000KT 10SM SCT120 01/01 A2966 RMK AO1,M
HTH,2024-02-02 10:55,-118.6315,38.5448,1282.89,33.80,33.80,100.00,0.00,0.00,0.00,29.71,M,10.00,M,CLR,M,M,M,M,M,M,M,M,M,M,M,M,M,M,33.80,KHTH 021055Z AUTO 00000KT 10SM CLR 01/01 A2971 RMK A01,M
TMT,2024-02-02 10:55,-117.1971,39.4643,1749.34,25.70,25.00,97.13,0.00,0.00,0.00,29.68,M,10.00,M,BKN,OVC,M,M,4900.00,12000.00,M,M,M,M,M,M,M,M,M,25.70,KTMT 021055Z AUTO 00000KT 10SM BKN049 OVC120 M03/M04 A2968 RMK AO2 T10351039,M
EKO,2024-02-02 10:56,-115.7860,40.8242,1367.00,34.00,33.00,96.08,220.00,5.00,0.00,29.62,1002.90,10.00,M,FEW,OVC,M,M,3900.00,5500.00,M,M,M,M,M,M,M,M,M,28.77,KEKO 021056Z AUTO 22005KT 10SM FEW039 OVC055 01/01 A2962 RMK AO2 SLP029 T00110006,M
NFL,2024-02-02 10:56,-118.7010,39.4166,1199.00,29.00,27.00,92.12,200.00,3.00,0.00,29.70,1003.90,10.00,M,CLR,M,M,M,M,M,M,M,M,M,M,M,M,M,M,25.26,KNFL 021056Z AUTO 20003KT 10SM CLR M02/M03 A2970 RMK AO2 SLP039 T10171028,M
HND,2024-02-02 10:56,-115.1344,35.9729,742.79,47.00,37.00,68.02,210.00,13.00,0.00,29.67,1006.30,10.00,M,SCT,M,M,M,5000.00,M,M,M,M,M,M,M,M,M,M,40.79,KHND 021056Z AUTO 21013KT 10SM SCT050 08/03 A2967 RMK AO2 SLP063 T00830028,M
TPH,2024-02-02 10:56,-117.0904,38.0505,1654.00,34.00,31.00,88.63,320.00,5.00,0.00,29.65,1003.90,10.00,M,OVC,M,M,M,7500.00,M,M,M,M,M,M,M,M,M,M,28.77,KTPH 021056Z AUTO 32005KT 10SM OVC075 01/M01 A2965 RMK AO2 SLP039 T00111006,M
LAS,2024-02-02 10:56,-115.1634,36.0719,663.00,43.00,42.00,96.23,290.00,3.00,0.00,29.65,1004.00,9.00,M,FEW,FEW,SCT,M,800.00,1000.00,5000.00,M,M,M,M,M,M,M,M,41.26,KLAS 021056Z 29003KT 9SM FEW008 FEW010 SCT050 06/06 A2965 RMK AO2 SLP040 VIS LWR NW MTNS OBSCURED DSNT NW T00610056,M
WMC,2024-02-02 10:56,-117.8072,40.9019,1315.00,35.00,30.00,81.78,210.00,3.00,0.00,29.66,1004.40,10.00,M,CLR,M,M,M,M,M,M,M,M,M,M,M,M,M,M,32.12,KWMC 021056Z AUTO 21003KT 10SM CLR 02/M01 A2966 RMK AO2 SLP044 T00171011,M
ELY,2024-02-02 11:00,-114.8453,39.2950,1909.00,31.00,29.00,92.19,270.00,7.00,0.01,29.59,M,3.00,M,FEW,SCT,OVC,M,1000.00,1600.00,2900.00,M,-SN BR,M,M,M,M,M,M,23.56,KELY 021100Z AUTO 27007KT 3SM -SN BR FEW010 SCT016 OVC029 M01/M02 A2959 RMK AO2 P0001 T10061017,M
LOL,2024-02-02 11:01,-118.5701,40.0684,1192.43,27.00,27.00,100.00,0.00,0.00,0.00,29.69,M,0.50,M,VV ,M,M,M,200.00,M,M,M,FZFG,M,M,M,M,M,M,27.00,KLOL 021101Z AUTO 00000KT 1/2SM FZFG VV002 M03/M03 A2969 RMK AO2 T10281028,M
ELY,2024-02-02 11:07,-114.8453,39.2950,1909.00,32.00,28.00,84.98,270.00,8.00,0.01,29.59,M,9.00,M,FEW,FEW,OVC,M,1000.00,1600.00,3700.00,M,-SN,M,M,M,M,M,M,24.11,KELY 021107Z AUTO 27008KT 9SM -SN FEW010 FEW016 OVC037 00/M02 A2959 RMK AO2 P0001 T00001022,M
LOL,2024-02-02 11:09,-118.5701,40.0684,1192.43,27.00,27.00,100.00,0.00,0.00,0.00,29.70,M,0.25,M,VV ,M,M,M,200.00,M,M,M,FZFG,M,M,M,M,M,M,27.00,KLOL 021109Z AUTO 00000KT 1/4SM FZFG VV002 M03/M03 A2970 RMK AO2 T10281028,M
EKO,2024-02-02 11:14,-115.7860,40.8242,1367.00,33.00,32.00,96.06,220.00,5.00,T,29.63,M,5.00,M,FEW,BKN,OVC,M,800.00,2900.00,5000.00,M,-SN BR,M,M,M,M,M,M,27.58,KEKO 021114Z AUTO 22005KT 5SM -SN BR FEW008 BKN029 OVC050 01/00 A2963 RMK AO2 SNB03 P0000 T00060000,M
BVU,2024-02-02 11:15,-114.8611,35.9475,671.00,46.40,39.20,75.84,190.00,5.00,0.00,29.66,M,10.00,M,SCT,M,M,M,11000.00,M,M,M,M,M,M,M,M,M,M,43.50,KBVU 021115Z AUTO 19005KT 10SM SCT110 08/04 A2966 RMK AO2,M
CXP,2024-02-02 11:15,-119.7326,39.1923,1431.00,32.00,21.20,63.99,0.00,0.00,0.00,29.72,M,10.00,M,OVC,M,M,M,5000.00,M,M,M,M,M,M,M,M,M,M,32.00,KCXP 021115Z AUTO 00000KT 10SM OVC050 00/M06 A2972 RMK AO2,M
05U,2024-02-02 11:15,-116.0051,39.6042,1811.23,30.20,30.20,100.00,0.00,0.00,0.00,29.67,M,1.75,M,M,M,M,M,M,M,M,M,BR,M,M,M,M,M,M,30.20,K05U 021115Z AUTO 00000KT 1 3/4SM BR M01/M01 A2967 RMK A01,M
BAM,2024-02-02 11:15,-116.8743,40.5990,1382.36,33.80,33.80,100.00,0.00,0.00,0.00,29.66,M,10.00,M,SCT,M,M,M,12000.00,M,M,M,M,M,M,M,M,M,M,33.80,KBAM 021115Z AUTO 00000KT 10SM SCT120 01/01 A2966 RMK AO1,M
HTH,2024-02-02 11:15,-118.6315,38.5448,1282.89,33.80,33.80,100.00,0.00,0.00,0.00,29.71,M,10.00,M,CLR,M,M,M,M,M,M,M,M,M,M,M,M,M,M,33.80,KHTH 021115Z AUTO 00000KT 10SM CLR 01/01 A2971 RMK A01,M
TMT,2024-02-02 11:15,-117.1971,39.4643,1749.34,26.00,25.00,95.93,0.00,0.00,0.00,29.68,M,10.00,M,SCT,OVC,M,M,2900.00,4900.00,M,M,M,M,M,M,M,M,M,26.00,KTMT 021115Z AUTO 00000KT 10SM SCT029 OVC049 M03/M04 A2968 RMK AO2 T10341039,M
DRA,2024-02-02 11:22,-116.0278,36.6206,1009.00,43.00,39.00,85.66,250.00,7.00,0.00,29.65,M,10.00,M,BKN,BKN,OVC,M,2800.00,4100.00,5500.00,M,M,M,M,M,M,M,M,38.19,KDRA 021122Z AUTO 25007KT 10SM BKN028 BKN041 OVC055 06/04 A2965 RMK AO2 T00610039,M
DRA,2024-02-02 11:28,-116.0278,36.6206,1009.00,43.00,39.00,85.66,240.00,7.00,0.00,29.65,M,10.00,M,SCT,BKN,OVC,M,2700.00,4100.00,5500.00,M,M,M,M,M,M,M,M,38.19,KDRA 021128Z AUTO 24007KT 10SM SCT027 BKN041 OVC055 06/04 A2965 RMK AO2 T00610039,M
EKO,2024-02-02 11:32,-115.7860,40.8242,1367.00,33.00,32.00,96.06,230.00,4.00,0.01,29.62,M,5.00,M,BKN,OVC,M,M,300.00,2100.00,M,M,-SN BR,M,M,M,M,M,M,28.59,KEKO 021132Z AUTO 23004KT 5SM -SN BR BKN003 OVC021 01/00 A2962 RMK AO2 SNB03 P0001 T00060000,M
BVU,2024-02-02 11:35,-114.8611,35.9475,671.00,44.60,41.00,87.09,0.00,0.00,0.00,29.66,M,10.00,M,SCT,M,M,M,12000.00,M,M,M,M,M,M,M,M,M,M,44.60,KBVU 021135Z AUTO 00000KT 10SM SCT120 07/05 A2966 RMK AO2,M
CXP,2024-02-02 11:35,-119.7326,39.1923,1431.00,33.80,23.00,64.23,0.00,0.00,0.00,29.72,M,10.00,M,OVC,M,M,M,4900.00,M,M,M,M,M,M,M,M,M,M,33.80,KCXP 021135Z AUTO 00000KT 10SM OVC049 01/M05 A2972 RMK AO2,M
05U,2024-02-02 11:35,-116.0051,39.6042,1811.23,30.20,30.20,100.00,0.00,0.00,0.00,29.67,M,3.00,M,M,M,M,M,M,M,M,M,BR,M,M,M,M,M,M,30.20,K05U 021135Z AUTO 00000KT 3SM BR M01/M01 A2967 RMK A01,M
BAM,2024-02-02 11:35,-116.8743,40.5990,1382.36,35.60,33.80,93.08,0.00,0.00,0.00,29.65,M,10.00,M,CLR,M,M,M,M,M,M,M,M,M,M,M,M,M,M,35.60,KBAM 021135Z AUTO 00000KT 10SM CLR 02/01 A2965 RMK AO1,M
HTH,2024-02-02 11:35,-118.6315,38.5448,1282.89,32.00,32.00,100.00,0.00,0.00,0.00,29.72,M,10.00,M,SCT,M,M,M,300.00,M,M,M,M,M,M,M,M,M,M,32.00,KHTH 021135Z AUTO 00000KT 10SM SCT003 M00/M00 A2972 RMK A01,M
TMT,2024-02-02 11:35,-117.1971,39.4643,1749.34,26.00,25.00,95.93,0.00,0.00,0.00,29.68,M,10.00,M,BKN,OVC,M,M,5000.00,12000.00,M,M,M,M,M,M,M,M,M,26.00,KTMT 021135Z AUTO 00000KT 10SM BKN050 OVC120 M03/M04 A2968 RMK AO2 T10341038,M
05U,2024-02-02 11:50,-116.0051,39.6042,1811.23,30.20,30.20,100.00,0.00,0.00,0.00,29.67,M,4.00,M,M,M,M,M,M,M,M,M,BR,M,M,M,M,M,M,30.20,K05U 021150Z AUTO 00000KT 4SM BR M01/M01 A2967 RMK A01,M
DRA,2024-02-02 11:53,-116.0278,36.6206,1009.00,43.00,39.00,85.66,230.00,10.00,0.00,29.66,1003.10,10.00,M,FEW,OVC,M,M,2900.00,4000.00,M,M,M,M,M,M,M,M,M,36.76,KDRA 021153Z AUTO 23010KT 10SM FEW029 OVC040 06/04 A2966 RMK AO2 SLP031 60000 70028 T00610039 10072 20061 53004,M
ELY,2024-02-02 11:53,-114.8453,39.2950,1909.00,31.00,27.00,84.92,270.00,8.00,0.01,29.59,1000.60,8.00,M,OVC,M,M,M,5000.00,M,M,M,-SN,M,M,M,M,M,M,22.88,KELY 021153Z AUTO 27008KT 8SM -SN OVC050 M01/M03 A2959 RMK AO2 SLP006 P0001 60003 70005 T10061028 10006 21006 53001,M
VGT,2024-02-02 11:53,-115.1933,36.2111,667.00,44.00,42.00,92.61,290.00,6.00,0.00,29.66,1006.10,10.00,M,BKN,M,M,M,5500.00,M,M,M,M,M,M,M,M,M,M,39.98,KVGT 021153Z AUTO 29006KT 10SM BKN055 07/06 A2966 RMK AO2 SLP061 70014 T00670056 10083 20061 51005,M
LOL,2024-02-02 11:53,-118.5701,40.0684,1192.43,28.00,27.00,95.97,10.00,3.00,0.00,29.70,1006.70,0.25,M,VV ,M,M,M,200.00,M,M,M,FZFG,0.01,M,0.03,M,M,M,24.12,KLOL 021153Z AUTO 01003KT 1/4SM FZFG VV002 M02/M03 A2970 RMK AO2 SLP067 70009 I1001 I6003 T10221028 10000 21028 51008,M
P68,2024-02-02 11:53,-116.0056,39.6014,1993.00,30.00,29.00,96.00,0.00,0.00,0.01,29.65,1002.60,M,M,M,M,M,M,M,M,M,M,M,M,M,M,M,M,M,30.00,KP68 021153Z AUTO 00000KT M01/M02 A2965 RMK AO1 SLP026 P0001 60018 70023 T10111017 10006 21011 53002,M
BVU,2024-02-02 11:55,-114.8611,35.9475,671.00,44.60,41.00,87.09,110.00,4.00,0.00,29.66,M,10.00,M,FEW,BKN,M,M,5500.00,11000.00,M,M,M,M,M,M,M,M,M,42.13,KBVU 021155Z AUTO 11004KT 10SM FEW055 BKN110 07/05 A2966 RMK AO2,M
CXP,2024-02-02 11:55,-119.7326,39.1923,1431.00,35.60,23.00,59.79,0.00,0.00,0.00,29.72,M,10.00,M,BKN,OVC,M,M,4200.00,4700.00,M,M,M,M,M,M,M,M,M,35.60,KCXP 021155Z AUTO 00000KT 10SM BKN042 OVC047 02/M05 A2972 RMK AO2,M
INS,2024-02-02 11:55,-115.6733,36.5872,955.00,39.00,37.20,93.18,0.00,0.00,0.00,29.66,1003.40,9.00,M,BKN,M,M,M,6000.00,M,M,M,M,M,M,M,M,M,M,39.00,KINS 021155Z AUTO 00000KT 9SM BKN060 04/03 A2966 RMK AO2 SLP034 60000 70013 T00390029 10064 20038 52003,M
RNO,2024-02-02 11:55,-119.7711,39.4839,1341.00,29.00,24.00,81.32,M,3.00,0.00,29.71,1005.50,10.00,M,BKN,M,M,M,5500.00,M,M,M,M,M,M,M,M,M,M,25.26,KRNO 021155Z VRB03KT 10SM BKN055 M02/M04 A2971 RMK AO2 SLP055 70006 T10171044 10039 21017 51008 $,M
LSV,2024-02-02 11:55,-115.0343,36.2362,570.00,45.50,41.50,85.80,0.00,0.00,0.00,29.63,1003.10,10.00,M,SCT,SCT,M,M,6500.00,16000.00,M,M,M,M,M,M,M,M,M,45.50,KLSV 021155Z AUTO 00000KT 10SM SCT065 SCT160 08/05 A2963 RMK AO2 SLP031 70020 T00750053 10102 20068 52004 $,M
BAM,2024-02-02 11:55,-116.8743,40.5990,1382.36,35.60,33.80,93.08,160.00,3.00,0.00,29.66,M,10.00,M,CLR,M,M,M,M,M,M,M,M,M,M,M,M,M,M,32.80,KBAM 021155Z AUTO 16003KT 10SM CLR 02/01 A2966 RMK AO1,M
HTH,2024-02-02 11:55,-118.6315,38.5448,1282.89,30.20,30.20,100.00,200.00,3.00,0.00,29.72,M,10.00,M,FEW,M,M,M,300.00,M,M,M,M,M,M,M,M,M,M,26.63,KHTH 021155Z AUTO 20003KT 10SM FEW003 M01/M01 A2972 RMK A01,M
TMT,2024-02-02 11:55,-117.1971,39.4643,1749.34,25.00,24.30,97.12,0.00,0.00,0.00,29.68,M,10.00,M,OVC,M,M,M,5000.00,M,M,M,M,M,M,M,M,M,M,25.00,KTMT 021155Z AUTO 00000KT 10SM OVC050 M04/M04 A2968 RMK AO2 70008 T10391043 11001 21042,M
EKO,2024-02-02 11:56,-115.7860,40.8242,1367.00,33.00,32.00,96.06,220.00,4.00,0.01,29.62,1003.30,3.00,M,BKN,OVC,M,M,200.00,1900.00,M,M,-SN BR,M,M,T,M,M,M,28.59,KEKO 021156Z AUTO 22004KT 3SM -SN BR BKN002 OVC019 01/00 A2962 RMK AO2 SNB03 SLP033 P0001 60001 70018 I6000 T00060000 10017 20006 51001,M
NFL,2024-02-02 11:56,-118.7010,39.4166,1199.00,30.00,28.00,92.15,160.00,5.00,0.00,29.70,1004.00,10.00,M,FEW,SCT,M,M,7000.00,11000.00,M,M,M,M,M,M,M,M,M,24.02,KNFL 021156Z AUTO 16005KT 10SM FEW070 SCT110 M01/M02 A2970 RMK AO2 SLP040 70006 T10111022 10022 21022 51010,M
HND,2024-02-02 11:56,-115.1344,35.9729,742.79,47.00,37.00,68.02,220.00,13.00,0.00,29.68,1006.50,10.00,M,FEW,M,M,M,4700.00,M,M,M,M,M,M,M,M,M,M,40.79,KHND 021156Z AUTO 22013KT 10SM FEW047 08/03 A2968 RMK AO2 SLP065 70010 T00830028 10083 20072 52006,M
TPH,2024-02-02 11:56,-117.0904,38.0505,1654.00,34.00,31.00,88.63,310.00,7.00,0.00,29.66,1004.20,10.00,M,BKN,OVC,M,M,6500.00,9000.00,M,M,M,M,M,M,M,M,M,27.22,KTPH 021156Z AUTO 31007KT 10SM BKN065 OVC090 01/M01 A2966 RMK AO2 SLP042 60001 70016 T00111006 10017 20011 53005,M
LAS,2024-02-02 11:56,-115.1634,36.0719,663.00,43.00,42.00,96.23,230.00,4.00,0.00,29.66,1004.20,10.00,M,FEW,SCT,OVC,M,1000.00,5000.00,14000.00,M,M,M,M,M,M,M,M,40.27,KLAS 021156Z 23004KT 10SM FEW010 SCT050 OVC140 06/06 A2966 RMK AO2 SLP042 MTNS OBSCURED DSNT NW 70007 T00610056 10089 20056 51007,M
WMC,2024-02-02 11:56,-117.8072,40.9019,1315.00,34.00,28.00,78.43,230.00,3.00,0.00,29.67,1004.60,10.00,M,CLR,M,M,M,M,M,M,M,M,M,M,M,M,M,M,30.97,KWMC 021156Z AUTO 23003KT 10SM CLR 01/M02 A2967 RMK AO2 SLP046 70017 T00111022 10028 20000 51006,M
EKO,2024-02-02 12:03,-115.7860,40.8242,1367.00,33.00,32.00,96.06,210.00,5.00,T,29.63,M,4.00,M,SCT,BKN,OVC,M,200.00,1900.00,2600.00,M,-SN BR,M,M,M,M,M,M,27.58,KEKO 021203Z AUTO 21005KT 4SM -SN BR SCT002 BKN019 OVC026 01/00 A2963 RMK AO2 P0000 T00060000,M
VGT,2024-02-02 12:05,-115.1933,36.2111,667.00,44.00,42.00,92.61,310.00,7.00,0.00,29.66,M,10.00,M,SCT,BKN,M,M,200.00,5500.00,M,M,M,M,M,M,M,M,M,39.41,KVGT 021205Z AUTO 31007KT 10SM SCT002 BKN055 07/06 A2966 RMK AO2 T00670056,M
VGT,2024-02-02 12:14,-115.1933,36.2111,667.00,45.00,42.00,89.15,310.00,6.00,0.00,29.66,M,10.00,M,BKN,BKN,M,M,200.00,5500.00,M,M,M,M,M,M,M,M,M,41.19,KVGT 021214Z AUTO 31006KT 10SM BKN002 BKN055 07/06 A2966 RMK AO2 T00720056,M
BVU,2024-02-02 12:15,-114.8611,35.9475,671.00,46.40,39.20,75.84,180.00,4.00,0.00,29.67,M,10.00,10.00,FEW,SCT,OVC,M,5500.00,9000.00,11000.00,M,M,M,M,M,M,M,M,44.24,KBVU 021215Z AUTO 18004G10KT 10SM FEW055 SCT090 OVC110 08/04 A2967 RMK AO2,M
CXP,2024-02-02 12:15,-119.7326,39.1923,1431.00,35.60,23.00,59.79,0.00,0.00,0.00,29.72,M,10.00,M,OVC,M,M,M,4500.00,M,M,M,M,M,M,M,M,M,M,35.60,KCXP 021215Z AUTO 00000KT 10SM OVC045 02/M05 A2972 RMK AO2,M
05U,2024-02-02 12:15,-116.0051,39.6042,1811.23,30.20,30.20,100.00,0.00,0.00,0.00,29.67,M,6.00,M,M,M,M,M,M,M,M,M,BR,M,M,M,M,M,M,30.20,K05U 021215Z AUTO 00000KT 6SM BR M01/M01 A2967 RMK A01,M
BAM,2024-02-02 12:15,-116.8743,40.5990,1382.36,35.60,33.80,93.08,0.00,0.00,0.00,29.66,M,10.00,M,SCT,SCT,M,M,6000.00,12000.00,M,M,M,M,M,M,M,M,M,35.60,KBAM 021215Z AUTO 00000KT 10SM SCT060 SCT120 02/01 A2966 RMK AO1,M
HTH,2024-02-02 12:15,-118.6315,38.5448,1282.89,32.00,32.00,100.00,160.00,3.00,0.00,29.73,M,10.00,M,SCT,M,M,M,7000.00,M,M,M,M,M,M,M,M,M,M,28.69,KHTH 021215Z AUTO 16003KT 10SM SCT070 M00/M00 A2973 RMK A01,M
TMT,2024-02-02 12:15,-117.1971,39.4643,1749.34,24.80,24.00,96.72,0.00,0.00,0.00,29.69,M,10.00,M,OVC,M,M,M,5000.00,M,M,M,M,M,M,M,M,M,M,24.80,KTMT 021215Z AUTO 00000KT 10SM OVC050 M04/M04 A2969 RMK AO2 T10401045,M
LOL,2024-02-02 12:18,-118.5701,40.0684,1192.43,27.00,27.00,100.00,0.00,0.00,0.00,29.70,M,0.25,M,SCT,OVC,M,M,200.00,7000.00,M,M,FZFG,0.01,M,M,M,M,M,27.00,KLOL 021218Z AUTO 00000KT 1/4SM FZFG SCT002 OVC070 M03/M03 A2970 RMK AO2 I1001 T10281028,M
INS,2024-02-02 12:30,-115.6733,36.5872,955.00,41.00,39.20,93.24,230.00,3.00,0.00,29.67,1003.80,10.00,M,BKN,OVC,M,M,2800.00,6000.00,M,M,M,M,M,M,M,M,M,38.98,KINS 021230Z AUTO 23003KT 10SM BKN028 OVC060 05/04 A2967 RMK AO2 SLP038,M
LOL,2024-02-02 12:32,-118.5701,40.0684,1192.43,27.00,27.00,100.00,0.00,0.00,0.00,29.70,M,0.75,M,SCT,OVC,M,M,200.00,7000.00,M,M,BR,0.01,M,M,M,M,M,27.00,KLOL 021232Z AUTO 00000KT 3/4SM BR SCT002 OVC070 M03/M03 A2970 RMK AO2 I1001 T10281028,M
BVU,2024-02-02 12:35,-114.8611,35.9475,671.00,46.40,39.20,75.84,160.00,4.00,0.00,29.68,M,10.00,M,BKN,BKN,OVC,M,5500.00,7000.00,8500.00,M,M,M,M,M,M,M,M,44.24,KBVU 021235Z AUTO 16004KT 10SM BKN055 BKN070 OVC085 08/04 A2968 RMK AO2,M
CXP,2024-02-02 12:35,-119.7326,39.1923,1431.00,35.60,23.00,59.79,0.00,0.00,0.00,29.72,M,10.00,M,OVC,M,M,M,4600.00,M,M,M,M,M,M,M,M,M,M,35.60,KCXP 021235Z AUTO 00000KT 10SM OVC046 02/M05 A2972 RMK AO2,M
05U,2024-02-02 12:35,-116.0051,39.6042,1811.23,30.20,28.40,92.92,0.00,0.00,0.00,29.67,M,8.00,M,M,M,M,M,M,M,M,M,M,M,M,M,M,M,M,30.20,K05U 021235Z AUTO 00000KT 8SM M01/M02 A2967 RMK A01,M
BAM,2024-02-02 12:35,-116.8743,40.5990,1382.36,33.80,33.80,100.00,160.00,3.00,0.00,29.67,M,10.00,M,SCT,SCT,M,M,3900.00,6000.00,M,M,M,M,M,M,M,M,M,30.75,KBAM 021235Z AUTO 16003KT 10SM SCT039 SCT060 01/01 A2967 RMK AO1,M
HTH,2024-02-02 12:35,-118.6315,38.5448,1282.89,30.20,32.00,M,180.00,6.00,0.00,29.73,M,10.00,M,FEW,SCT,M,M,7000.00,8000.00,M,M,M,M,M,M,M,M,M,M,KHTH 021235Z AUTO 18006KT 10SM FEW070 SCT080 M01/M00 A2973 RMK A01,M
TMT,2024-02-02 12:35,-117.1971,39.4643,1749.34,25.00,24.00,95.91,0.00,0.00,0.00,29.70,M,10.00,M,SCT,OVC,M,M,4600.00,5000.00,M,M,M,M,M,M,M,M,M,25.00,KTMT 021235Z AUTO 00000KT 10SM SCT046 OVC050 M04/M04 A2970 RMK AO2 T10391044,M
LOL,2024-02-02 12:38,-118.5701,40.0684,1192.43,27.00,27.00,100.00,0.00,0.00,0.00,29.70,M,1.00,M,BKN,OVC,M,M,200.00,7000.00,M,M,BR,0.01,M,M,M,M,M,27.00,KLOL 021238Z AUTO 00000KT 1SM BR BKN002 OVC070 M03/M03 A2970 RMK AO2 I1001 T10281028,M
EKO,2024-02-02 12:44,-115.7860,40.8242,1367.00,33.00,32.00,96.06,230.00,4.00,T,29.63,M,10.00,M,SCT,OVC,M,M,1600.00,4600.00,M,M,M,M,M,M,M,M,M,28.59,KEKO 021244Z AUTO 23004KT 10SM SCT016 OVC046 01/00 A2963 RMK AO2 SNE22 P0000 T00060000,M
LOL,2024-02-02 12:46,-118.5701,40.0684,1192.43,27.00,27.00,100.00,120.00,3.00,0.00,29.70,M,0.50,M,BKN,OVC,M,M,200.00,7000.00,M,M,FZFG,0.01,M,M,M,M,M,22.97,KLOL 021246Z AUTO 12003KT 1/2SM FZFG BKN002 OVC070 M03/M03 A2970 RMK AO2 I1001 T10281028,M
P68,2024-02-02 12:53,-116.0056,39.6014,1993.00,28.00,28.00,100.00,220.00,3.00,0.00,29.65,1003.20,M,M,M,M,M,M,M,M,M,M,M,M,M,M,M,M,M,24.12,KP68 021253Z AUTO 22003KT M02/M02 A2965 RMK AO1 SLP032 T10221022,M
DRA,2024-02-02 12:53,-116.0278,36.6206,1009.00,43.00,40.00,89.06,240.00,10.00,T,29.67,1003.60,10.00,M,FEW,SCT,OVC,M,2200.00,3000.00,3600.00,M,-RA,M,M,M,M,M,M,36.76,KDRA 021253Z AUTO 24010KT 10SM -RA FEW022 SCT030 OVC036 06/04 A2967 RMK AO2 RAB46 SLP036 P0000 T00610044,M
ELY,2024-02-02 12:53,-114.8453,39.2950,1909.00,31.00,26.00,81.48,260.00,5.00,T,29.61,1001.40,10.00,M,BKN,BKN,OVC,M,2900.00,4100.00,5000.00,M,M,M,M,M,M,M,M,25.21,KELY 021253Z AUTO 26005KT 10SM BKN029 BKN041 OVC050 M01/M03 A2961 RMK AO2 SNE13 SLP014 P0000 T10061033,M
VGT,2024-02-02 12:53,-115.1933,36.2111,667.00,45.00,43.00,92.65,310.00,4.00,0.00,29.67,1006.30,10.00,M,OVC,M,M,M,300.00,M,M,M,M,M,M,M,M,M,M,42.60,KVGT 021253Z AUTO 31004KT 10SM OVC003 07/06 A2967 RMK AO2 SLP063 T00720061,M
LOL,2024-02-02 12:53,-118.5701,40.0684,1192.43,27.00,27.00,100.00,0.00,0.00,0.00,29.71,1007.00,0.25,M,VV ,M,M,M,200.00,M,M,M,FZFG,0.01,M,M,M,M,M,27.00,KLOL 021253Z AUTO 00000KT 1/4SM FZFG VV002 M03/M03 A2971 RMK AO2 SLP070 I1001 T10281028,M
BVU,2024-02-02 12:55,-114.8611,35.9475,671.00,46.40,37.40,70.68,0.00,0.00,0.00,29.68,M,10.00,M,FEW,SCT,BKN,M,4600.00,5500.00,8000.00,M,M,M,M,M,M,M,M,46.40,KBVU 021255Z AUTO 00000KT 10SM FEW046 SCT055 BKN080 08/03 A2968 RMK AO2,M
CXP,2024-02-02 12:55,-119.7326,39.1923,1431.00,35.60,23.00,59.79,0.00,0.00,0.00,29.73,M,10.00,M,OVC,M,M,M,4700.00,M,M,M,M,M,M,M,M,M,M,35.60,KCXP 021255Z AUTO 00000KT 10SM OVC047 02/M05 A2973 RMK AO2,M
INS,2024-02-02 12:55,-115.6733,36.5872,955.00,42.40,39.20,88.34,160.00,4.00,0.00,29.66,1003.20,10.00,M,BKN,OVC,M,M,2800.00,5500.00,M,M,M,M,M,M,M,M,M,39.56,KINS 021255Z AUTO 16004KT 10SM BKN028 OVC055 06/04 A2966 RMK AO2 BKN V OVC SLP032 T00580040,M
RNO,2024-02-02 12:55,-119.7711,39.4839,1341.00,31.00,25.00,78.16,0.00,0.00,0.00,29.72,1005.80,10.00,M,BKN,M,M,M,6000.00,M,M,M,M,M,M,M,M,M,M,31.00,KRNO 021255Z 00000KT 10SM BKN060 M01/M04 A2972 RMK AO2 SLP058 T10061039 $,M
LSV,2024-02-02 12:55,-115.0343,36.2362,570.00,44.00,41.50,90.84,130.00,4.00,0.00,29.65,1003.80,10.00,M,BKN,M,M,M,8000.00,M,M,M,M,M,M,M,M,M,M,41.43,KLSV 021255Z AUTO 13004KT 10SM BKN080 07/05 A2965 RMK AO2 SLP038 T00670053 $,M
05U,2024-02-02 12:55,-116.0051,39.6042,1811.23,28.40,28.40,100.00,0.00,0.00,0.00,29.68,M,9.00,M,M,M,M,M,M,M,M,M,M,M,M,M,M,M,M,28.40,K05U 021255Z AUTO 00000KT 9SM M02/M02 A2968 RMK A01,M
BAM,2024-02-02 12:55,-116.8743,40.5990,1382.36,33.80,33.80,100.00,0.00,0.00,0.00,29.67,M,10.00,M,SCT,SCT,M,M,3900.00,6000.00,M,M,M,M,M,M,M,M,M,33.80,KBAM 021255Z AUTO 00000KT 10SM SCT039 SCT060 01/01 A2967 RMK AO1,M
HTH,2024-02-02 12:55,-118.6315,38.5448,1282.89,30.20,30.20,100.00,150.00,4.00,0.00,29.74,M,10.00,M,FEW,FEW,M,M,1600.00,7000.00,M,M,M,M,M,M,M,M,M,25.32,KHTH 021255Z AUTO 15004KT 10SM FEW016 FEW070 M01/M01 A2974 RMK A01,M
TMT,2024-02-02 12:55,-117.1971,39.4643,1749.34,25.00,24.40,97.53,0.00,0.00,0.00,29.70,M,10.00,M,SCT,OVC,M,M,4500.00,5000.00,M,M,M,M,M,M,M,M,M,25.00,KTMT 021255Z AUTO 00000KT 10SM SCT045 OVC050 M04/M04 A2970 RMK AO2 T10381042,M
EKO,2024-02-02 12:56,-115.7860,40.8242,1367.00,33.00,32.00,96.06,230.00,4.00,T,29.63,1003.60,9.00,M,FEW,OVC,M,M,1600.00,4200.00,M,M,-SN,M,M,M,M,M,M,28.59,KEKO 021256Z AUTO 23004KT 9SM -SN FEW016 OVC042 01/00 A2963 RMK AO2 SNE22B52 SLP036 P0000 T00060000,M
NFL,2024-02-02 12:56,-118.7010,39.4166,1199.00,30.00,27.00,88.44,160.00,4.00,0.00,29.71,1004.20,10.00,M,SCT,M,M,M,10000.00,M,M,M,M,M,M,M,M,M,M,25.08,KNFL 021256Z AUTO 16004KT 10SM SCT100 M01/M03 A2971 RMK AO2 SLP042 T10111028,M
HND,2024-02-02 12:56,-115.1344,35.9729,742.79,46.00,37.00,70.64,230.00,10.00,0.00,29.69,1007.30,10.00,M,BKN,M,M,M,4700.00,M,M,M,M,M,M,M,M,M,M,40.52,KHND 021256Z AUTO 23010KT 10SM BKN047 08/03 A2969 RMK AO2 SLP073 T00780028,M
TPH,2024-02-02 12:56,-117.0904,38.0505,1654.00,34.00,30.00,85.11,330.00,5.00,0.00,29.67,1004.70,10.00,M,FEW,OVC,M,M,6500.00,8000.00,M,M,M,M,M,M,M,M,M,28.77,KTPH 021256Z AUTO 33005KT 10SM FEW065 OVC080 01/M01 A2967 RMK AO2 SLP047 T00111011,M
LAS,2024-02-02 12:56,-115.1634,36.0719,663.00,44.00,43.00,96.24,0.00,0.00,0.00,29.67,1004.50,10.00,M,FEW,SCT,BKN,M,1000.00,5500.00,11000.00,M,M,M,M,M,M,M,M,44.00,KLAS 021256Z 00000KT 10SM FEW010 SCT055 BKN110 07/06 A2967 RMK AO2 SLP045 MTNS OBSCURED DSNT NW T00670061,M
WMC,2024-02-02 12:56,-117.8072,40.9019,1315.00,31.00,26.00,81.48,0.00,0.00,0.00,29.67,1005.20,10.00,M,CLR,M,M,M,M,M,M,M,M,M,M,M,M,M,M,31.00,KWMC 021256Z AUTO 00000KT 10SM CLR M01/M03 A2967 RMK AO2 SLP052 T10061033,M
LSV,2024-02-02 12:57,-115.0343,36.2362,570.00,44.60,41.00,87.09,140.00,4.00,0.00,29.65,1003.80,10.00,M,FEW,SCT,M,M,8000.00,12000.00,M,M,M,M,M,M,M,M,M,42.13,KLSV 021257Z 14004KT 10SM FEW080 SCT120 07/05 A2965 RMK SLP038,M
LSV,2024-02-02 13:02,-115.0343,36.2362,570.00,44.60,41.00,87.09,140.00,4.00,0.00,29.65,1003.80,10.00,M,SCT,BKN,M,M,8000.00,12000.00,M,M,M,M,M,M,M,M,M,42.13,KLSV 021302Z 14004KT 10SM SCT080 BKN120 07/05 A2965 RMK SLP038,M
LOL,2024-02-02 13:02,-118.5701,40.0684,1192.43,27.00,27.00,100.00,0.00,0.00,0.00,29.71,M,0.50,M,VV ,M,M,M,200.00,M,M,M,FZFG,M,M,M,M,M,M,27.00,KLOL 021302Z AUTO 00000KT 1/2SM FZFG VV002 M03/M03 A2971 RMK AO2 T10281028,M
INS,2024-02-02 13:03,-115.6733,36.5872,955.00,41.00,39.20,93.24,0.00,0.00,0.00,29.67,1003.80,10.00,M,BKN,OVC,M,M,2600.00,5500.00,M,M,-RA,M,M,M,M,M,M,41.00,KINS 021303Z AUTO 00000KT 10SM -RA BKN026 OVC055 05/04 A2967 RMK AO2 RAB03 SLP038,M
DRA,2024-02-02 13:11,-116.0278,36.6206,1009.00,42.00,40.00,92.55,260.00,8.00,T,29.68,M,10.00,M,BKN,BKN,OVC,M,2100.00,3100.00,3800.00,M,-RA,M,M,M,M,M,M,36.43,KDRA 021311Z AUTO 26008KT 10SM -RA BKN021 BKN031 OVC038 06/04 A2968 RMK AO2 P0000 T00560044,M
LOL,2024-02-02 13:12,-118.5701,40.0684,1192.43,27.00,27.00,100.00,0.00,0.00,0.00,29.71,M,0.25,M,VV ,M,M,M,200.00,M,M,M,FZFG,M,M,M,M,M,M,27.00,KLOL 021312Z AUTO 00000KT 1/4SM FZFG VV002 M03/M03 A2971 RMK AO2 T10281028,M
BVU,2024-02-02 13:15,-114.8611,35.9475,671.00,46.40,37.40,70.68,190.00,4.00,0.00,29.68,M,10.00,M,SCT,OVC,M,M,8000.00,10000.00,M,M,M,M,M,M,M,M,M,44.24,KBVU 021315Z AUTO 19004KT 10SM SCT080 OVC100 08/03 A2968 RMK AO2,M
CXP,2024-02-02 13:15,-119.7326,39.1923,1431.00,35.60,23.00,59.79,0.00,0.00,0.00,29.73,M,10.00,M,OVC,M,M,M,4800.00,M,M,M,M,M,M,M,M,M,M,35.60,KCXP 021315Z AUTO 00000KT 10SM OVC048 02/M05 A2973 RMK AO2,M
05U,2024-02-02 13:15,-116.0051,39.6042,1811.23,28.40,28.40,100.00,0.00,0.00,0.00,29.68,M,9.00,M,M,M,M,M,M,M,M,M,M,M,M,M,M,M,M,28.40,K05U 021315Z AUTO 00000KT 9SM M02/M02 A2968 RMK A01,M
BAM,2024-02-02 13:15,-116.8743,40.5990,1382.36,33.80,33.80,100.00,0.00,0.00,0.00,29.67,M,10.00,M,CLR,M,M,M,M,M,M,M,M,M,M,M,M,M,M,33.80,KBAM 021315Z AUTO 00000KT 10SM CLR 01/01 A2967 RMK AO1,M
HTH,2024-02-02 13:15,-118.6315,38.5448,1282.89,30.20,30.20,100.00,160.00,6.00,0.00,29.73,M,10.00,M,SCT,SCT,SCT,M,1600.00,7000.00,9000.00,M,M,M,M,M,M,M,M,23.36,KHTH 021315Z AUTO 16006KT 10SM SCT016 SCT070 SCT090 M01/M01 A2973 RMK A01,M
TMT,2024-02-02 13:15,-117.1971,39.4643,1749.34,25.50,24.80,97.13,0.00,0.00,0.00,29.70,M,10.00,M,SCT,OVC,M,M,4500.00,5000.00,M,M,M,M,M,M,M,M,M,25.50,KTMT 021315Z AUTO 00000KT 10SM SCT045 OVC050 M04/M04 A2970 RMK AO2 T10361040,M
EKO,2024-02-02 13:17,-115.7860,40.8242,1367.00,33.00,32.00,96.06,230.00,3.00,T,29.63,M,10.00,M,BKN,OVC,M,M,1600.00,3800.00,M,M,M,M,M,M,M,M,M,29.83,KEKO 021317Z AUTO 23003KT 10SM BKN016 OVC038 01/00 A2963 RMK AO2 SNE06 P0000 T00060000,M
VGT,2024-02-02 13:17,-115.1933,36.2111,667.00,46.00,44.00,92.68,330.00,3.00,0.00,29.67,M,10.00,M,SCT,OVC,M,M,300.00,4800.00,M,M,M,M,M,M,M,M,M,44.69,KVGT 021317Z AUTO 33003KT 10SM SCT003 OVC048 08/07 A2967 RMK AO2 T00780067,M
INS,2024-02-02 13:28,-115.6733,36.5872,955.00,41.00,39.20,93.24,300.00,3.00,0.00,29.68,1004.10,10.00,M,SCT,OVC,M,M,2700.00,5000.00,M,M,-DZ,M,M,M,M,M,M,38.98,KINS 021328Z AUTO 30003KT 10SM -DZ SCT027 OVC050 05/04 A2968 RMK AO2 RAB03E23DZB23 SLP041,M
DRA,2024-02-02 13:31,-116.0278,36.6206,1009.00,42.00,40.00,92.55,250.00,6.00,T,29.68,M,10.00,M,FEW,BKN,OVC,M,900.00,2100.00,3100.00,M,M,M,M,M,M,M,M,37.57,KDRA 021331Z AUTO 25006KT 10SM FEW009 BKN021 OVC031 06/04 A2968 RMK AO2 RAE22 P0000 T00560044,M
BVU,2024-02-02 13:35,-114.8611,35.9475,671.00,44.60,39.20,81.20,180.00,5.00,0.00,29.69,M,10.00,M,FEW,OVC,M,M,7500.00,10000.00,M,M,M,M,M,M,M,M,M,41.36,KBVU 021335Z AUTO 18005KT 10SM FEW075 OVC100 07/04 A2969 RMK AO2,M
CXP,2024-02-02 13:35,-119.7326,39.1923,1431.00,35.60,23.00,59.79,0.00,0.00,0.00,29.73,M,10.00,M,OVC,M,M,M,4500.00,M,M,M,M,M,M,M,M,M,M,35.60,KCXP 021335Z AUTO 00000KT 10SM OVC045 02/M05 A2973 RMK AO2,M
05U,2024-02-02 13:35,-116.0051,39.6042,1811.23,28.40,26.60,92.86,0.00,0.00,0.00,29.68,M,8.00,M,M,M,M,M,M,M,M,M,M,M,M,M,M,M,M,28.40,K05U 021335Z AUTO 00000KT 8SM M02/M03 A2968 RMK A01,M
BAM,2024-02-02 13:35,-116.8743,40.5990,1382.36,35.60,33.80,93.08,270.00,4.00,0.00,29.67,M,10.00,M,SCT,M,M,M,12000.00,M,M,M,M,M,M,M,M,M,M,31.62,KBAM 021335Z AUTO 27004KT 10SM SCT120 02/01 A2967 RMK AO1,M
HTH,2024-02-02 13:35,-118.6315,38.5448,1282.89,32.00,32.00,100.00,170.00,4.00,0.00,29.73,M,10.00,M,FEW,BKN,M,M,8000.00,9500.00,M,M,M,M,M,M,M,M,M,27.42,KHTH 021335Z AUTO 17004KT 10SM FEW080 BKN095 M00/M00 A2973 RMK A01,M
TMT,2024-02-02 13:35,-117.1971,39.4643,1749.34,25.70,25.00,97.13,0.00,0.00,0.00,29.71,M,10.00,M,OVC,M,M,M,5000.00,M,M,M,M,M,M,M,M,M,M,25.70,KTMT 021335Z AUTO 00000KT 10SM OVC050 M03/M04 A2971 RMK AO2 T10351038,M
INS,2024-02-02 13:37,-115.6733,36.5872,955.00,41.00,39.20,93.24,340.00,5.00,0.00,29.68,1004.10,10.00,M,SCT,OVC,M,M,2700.00,5000.00,M,M,M,M,M,M,M,M,M,37.08,KINS 021337Z AUTO 34005KT 10SM SCT027 OVC050 05/04 A2968 RMK AO2 RAB03E23DZB23E37 SLP041,M
ELY,2024-02-02 13:41,-114.8453,39.2950,1909.00,30.00,26.00,84.85,280.00,9.00,T,29.61,M,6.00,M,FEW,BKN,OVC,M,2400.00,3800.00,4800.00,M,-SN BR,M,M,M,M,M,M,21.03,KELY 021341Z AUTO 28009KT 6SM -SN BR FEW024 BKN038 OVC048 M01/M03 A2961 RMK AO2 SNB21 P0000 T10111033,M
INS,2024-02-02 13:42,-115.6733,36.5872,955.00,41.00,39.20,93.24,0.00,0.00,0.00,29.68,1004.10,10.00,M,SCT,OVC,M,M,2600.00,5000.00,M,M,M,M,M,M,M,M,M,41.00,KINS 021342Z AUTO 00000KT 10SM SCT026 OVC050 05/04 A2968 RMK AO2 RAB03E23DZB23E37 SLP041,M
INS,2024-02-02 13:45,-115.6733,36.5872,955.00,41.00,39.20,93.24,340.00,3.00,0.00,29.68,1004.10,9.00,M,FEW,FEW,BKN,BKN,400.00,1400.00,2600.00,3000.00,-RA,M,M,M,M,M,M,38.98,KINS 021345Z AUTO 34003KT 9SM -RA FEW004 FEW014 BKN026 BKN030 OVC050 05/04 A2968 RMK AO2 RAB03E23DZB23E37RAB45 CIG 026V050 BKN026 V SCT SLP041,M
DRA,2024-02-02 13:47,-116.0278,36.6206,1009.00,42.00,40.00,92.55,260.00,9.00,0.01,29.69,M,10.00,M,BKN,BKN,OVC,M,900.00,1800.00,3700.00,M,-RA,M,M,M,M,M,M,35.95,KDRA 021347Z AUTO 26009KT 10SM -RA BKN009 BKN018 OVC037 06/04 A2969 RMK AO2 RAE22B45 P0001 T00560044,M
DRA,2024-02-02 13:53,-116.0278,36.6206,1009.00,42.00,40.00,92.55,250.00,8.00,0.01,29.70,1004.40,10.00,M,SCT,BKN,OVC,M,900.00,1500.00,2300.00,M,-RA,M,M,M,M,M,M,36.43,KDRA 021353Z AUTO 25008KT 10SM -RA SCT009 BKN015 OVC023 06/04 A2970 RMK AO2 RAE22B45 SLP044 P0001 T00560044,M
ELY,2024-02-02 13:53,-114.8453,39.2950,1909.00,30.00,26.00,84.85,290.00,7.00,T,29.61,1001.60,6.00,M,FEW,BKN,OVC,M,3100.00,4800.00,6000.00,M,-SN BR,M,M,M,M,M,M,22.34,KELY 021353Z AUTO 29007KT 6SM -SN BR FEW031 BKN048 OVC060 M01/M03 A2961 RMK AO2 SNB21 SLP016 P0000 T10111033,M
VGT,2024-02-02 13:53,-115.1933,36.2111,667.00,46.00,42.00,85.83,310.00,3.00,0.00,29.68,1006.80,10.00,M,FEW,OVC,M,M,500.00,10000.00,M,M,M,M,M,M,M,M,M,44.69,KVGT 021353Z 31003KT 10SM FEW005 OVC100 08/06 A2968 RMK AO2 SLP068 T00780056,M
LOL,2024-02-02 13:53,-118.5701,40.0684,1192.43,27.00,27.00,100.00,0.00,0.00,0.00,29.72,1007.80,0.25,M,BKN,OVC,M,M,200.00,8000.00,M,M,FZFG,0.01,M,M,M,M,M,27.00,KLOL 021353Z AUTO 00000KT 1/4SM FZFG BKN002 OVC080 M03/M03 A2972 RMK AO2 SLP078 I1001 T10281028,M
P68,2024-02-02 13:53,-116.0056,39.6014,1993.00,27.00,26.00,95.95,200.00,3.00,0.00,29.65,1003.40,M,M,M,M,M,M,M,M,M,M,M,M,M,M,M,M,M,22.97,KP68 021353Z AUTO 20003KT M03/M03 A2965 RMK AO1 SLP034 T10281033,M
BVU,2024-02-02 13:55,-114.8611,35.9475,671.00,46.40,37.40,70.68,220.00,4.00,0.00,29.70,M,10.00,M,SCT,BKN,OVC,M,7000.00,7500.00,10000.00,M,M,M,M,M,M,M,M,44.24,KBVU 021355Z AUTO 22004KT 10SM SCT070 BKN075 OVC100 08/03 A2970 RMK AO2,M
CXP,2024-02-02 13:55,-119.7326,39.1923,1431.00,35.60,23.00,59.79,0.00,0.00,0.00,29.74,M,10.00,M,OVC,M,M,M,4400.00,M,M,M,M,M,M,M,M,M,M,35.60,KCXP 021355Z AUTO 00000KT 10SM OVC044 02/M05 A2974 RMK AO2,M
RNO,2024-02-02 13:55,-119.7711,39.4839,1341.00,32.00,26.00,78.25,160.00,3.00,0.00,29.72,1006.10,10.00,M,SCT,SCT,BKN,M,5000.00,7500.00,12000.00,M,M,M,M,M,M,M,M,28.69,KRNO 021355Z 16003KT 10SM SCT050 SCT075 BKN120 00/M03 A2972 RMK AO2 SLP061 T00001033 $,M
LSV,2024-02-02 13:55,-115.0343,36.2362,570.00,45.00,42.40,90.53,0.00,0.00,0.00,29.66,1004.10,10.00,M,FEW,SCT,M,M,8500.00,11000.00,M,M,M,M,M,M,M,M,M,45.00,KLSV 021355Z AUTO 00000KT 10SM FEW085 SCT110 07/06 A2966 RMK AO2 SLP041 T00730058 $,M
05U,2024-02-02 13:55,-116.0051,39.6042,1811.23,28.40,26.60,92.86,0.00,0.00,0.00,29.68,M,10.00,M,M,M,M,M,M,M,M,M,M,M,M,M,M,M,M,28.40,K05U 021355Z AUTO 00000KT 10SM M02/M03 A2968 RMK A01,M
BAM,2024-02-02 13:55,-116.8743,40.5990,1382.36,33.80,33.80,100.00,0.00,0.00,0.00,29.68,M,10.00,M,SCT,SCT,M,M,2800.00,12000.00,M,M,M,M,M,M,M,M,M,33.80,KBAM 021355Z AUTO 00000KT 10SM SCT028 SCT120 01/01 A2968 RMK AO1,M
HTH,2024-02-02 13:55,-118.6315,38.5448,1282.89,30.20,30.20,100.00,190.00,3.00,0.00,29.74,M,10.00,M,FEW,OVC,M,M,8000.00,10000.00,M,M,M,M,M,M,M,M,M,26.63,KHTH 021355Z AUTO 19003KT 10SM FEW080 OVC100 M01/M01 A2974 RMK A01,M
TMT,2024-02-02 13:55,-117.1971,39.4643,1749.34,25.70,24.80,96.33,0.00,0.00,0.00,29.71,M,10.00,M,OVC,M,M,M,5000.00,M,M,M,M,M,M,M,M,M,M,25.70,KTMT 021355Z AUTO 00000KT 10SM OVC050 M03/M04 A2971 RMK AO2 T10351040,M
INS,2024-02-02 13:55,-115.6733,36.5872,955.00,42.30,39.00,87.99,300.00,3.00,0.01,29.69,1004.20,9.00,M,FEW,BKN,OVC,M,400.00,2400.00,5500.00,M,-RA,M,M,M,M,M,M,40.46,KINS 021355Z AUTO 30003KT 9SM -RA FEW004 BKN024 OVC055 06/04 A2969 RMK AO2 RAB03E23DZB23E37RAB45 SLP042 P0001 T00570039,M
EKO,2024-02-02 13:56,-115.7860,40.8242,1367.00,33.00,32.00,96.06,220.00,5.00,T,29.64,1004.00,9.00,M,BKN,OVC,M,M,1800.00,4400.00,M,M,-SN,M,M,M,M,M,M,27.58,KEKO 021356Z AUTO 22005KT 9SM -SN BKN018 OVC044 01/00 A2964 RMK AO2 SNE06B27 SLP040 P0000 T00060000,M
NFL,2024-02-02 13:56,-118.7010,39.4166,1199.00,29.00,27.00,92.12,150.00,7.00,0.00,29.72,1004.60,10.00,M,FEW,M,M,M,7000.00,M,M,M,M,M,M,M,M,M,M,21.12,KNFL 021356Z AUTO 15007KT 10SM FEW070 M02/M03 A2972 RMK AO2 SLP046 T10171028,M
HND,2024-02-02 13:56,-115.1344,35.9729,742.79,46.00,37.00,70.64,210.00,12.00,0.00,29.71,1007.70,10.00,M,SCT,M,M,M,12000.00,M,M,M,M,M,M,M,M,M,M,39.82,KHND 021356Z AUTO 21012KT 10SM SCT120 08/03 A2971 RMK AO2 SLP077 T00780028,M
TPH,2024-02-02 13:56,-117.0904,38.0505,1654.00,33.00,30.00,88.58,10.00,6.00,0.00,29.68,1005.40,10.00,M,OVC,M,M,M,7000.00,M,M,M,M,M,M,M,M,M,M,26.73,KTPH 021356Z AUTO 01006KT 10SM OVC070 01/M01 A2968 RMK AO2 SLP054 T00061011,M
LAS,2024-02-02 13:56,-115.1634,36.0719,663.00,44.00,42.00,92.61,0.00,0.00,0.00,29.68,1004.90,10.00,M,FEW,BKN,OVC,M,1000.00,5500.00,14000.00,M,M,M,M,M,M,M,M,44.00,KLAS 021356Z 00000KT 10SM FEW010 BKN055 OVC140 07/06 A2968 RMK AO2 SLP049 T00670056,M
WMC,2024-02-02 13:56,-117.8072,40.9019,1315.00,31.00,26.00,81.48,220.00,3.00,0.00,29.69,1006.00,10.00,M,BKN,OVC,M,M,4900.00,5500.00,M,M,M,M,M,M,M,M,M,27.55,KWMC 021356Z AUTO 22003KT 10SM BKN049 OVC055 M01/M03 A2969 RMK AO2 SLP060 T10061033,M
LSV,2024-02-02 14:00,-115.0343,36.2362,570.00,44.60,42.80,93.35,0.00,0.00,0.00,29.67,1004.50,10.00,M,SCT,BKN,M,M,11000.00,16000.00,M,M,M,M,M,M,M,M,M,44.60,KLSV 021400Z 00000KT 10SM SCT110 BKN160 07/06 A2967 RMK SLP045,M
LOL,2024-02-02 14:01,-118.5701,40.0684,1192.43,27.00,27.00,100.00,0.00,0.00,0.00,29.72,M,0.50,M,BKN,OVC,M,M,100.00,8000.00,M,M,FZFG,M,M,M,M,M,M,27.00,KLOL 021401Z AUTO 00000KT 1/2SM FZFG BKN001 OVC080 M03/M03 A2972 RMK AO2 T10281028,M
DRA,2024-02-02 14:06,-116.0278,36.6206,1009.00,42.00,39.00,89.01,240.00,9.00,0.01,29.70,M,7.00,M,FEW,SCT,OVC,M,900.00,2300.00,3600.00,M,-RA,M,M,M,M,M,M,35.95,KDRA 021406Z AUTO 24009KT 7SM -RA FEW009 SCT023 OVC036 06/04 A2970 RMK AO2 P0001 T00560039,M
VGT,2024-02-02 14:08,-115.1933,36.2111,667.00,46.00,44.00,92.68,0.00,0.00,0.00,29.69,M,10.00,M,BKN,OVC,M,M,400.00,10000.00,M,M,M,M,M,M,M,M,M,46.00,KVGT 021408Z 00000KT 10SM BKN004 OVC100 08/07 A2969 RMK AO2 T00780067,M
LOL,2024-02-02 14:09,-118.5701,40.0684,1192.43,28.00,26.00,92.08,50.00,3.00,0.00,29.72,M,1.75,M,BKN,OVC,M,M,100.00,8000.00,M,M,BR,M,M,M,M,M,M,24.12,KLOL 021409Z AUTO 05003KT 1 3/4SM BR BKN001 OVC080 M02/M03 A2972 RMK AO2 VIS 1V3 T10221033,M
INS,2024-02-02 14:10,-115.6733,36.5872,955.00,42.80,39.20,86.99,0.00,0.00,0.00,29.69,1004.20,10.00,M,FEW,BKN,BKN,OVC,400.00,2100.00,2800.00,4200.00,M,M,M,M,M,M,M,42.80,KINS 021410Z AUTO 00000KT 10SM FEW004 BKN021 BKN028 OVC042 06/04 A2969 RMK AO2 RAE10 SLP042,M
BVU,2024-02-02 14:15,-114.8611,35.9475,671.00,46.40,37.40,70.68,200.00,9.00,0.00,29.70,M,10.00,M,FEW,SCT,BKN,M,6500.00,7500.00,8500.00,M,M,M,M,M,M,M,M,41.42,KBVU 021415Z AUTO 20009KT 10SM FEW065 SCT075 BKN085 08/03 A2970 RMK AO2,M
CXP,2024-02-02 14:15,-119.7326,39.1923,1431.00,35.60,23.00,59.79,250.00,3.00,0.00,29.74,M,10.00,M,OVC,M,M,M,4300.00,M,M,M,M,M,M,M,M,M,M,32.80,KCXP 021415Z AUTO 25003KT 10SM OVC043 02/M05 A2974 RMK AO2,M
INS,2024-02-02 14:15,-115.6733,36.5872,955.00,42.80,39.20,86.99,250.00,3.00,0.00,29.69,1004.20,10.00,M,SCT,SCT,OVC,M,2000.00,2600.00,4200.00,M,M,M,M,M,M,M,M,41.03,KINS 021415Z AUTO 25003KT 10SM SCT020 SCT026 OVC042 06/04 A2969 RMK AO2 RAE10 SLP042,M
05U,2024-02-02 14:15,-116.0051,39.6042,1811.23,26.60,26.60,100.00,0.00,0.00,0.00,29.69,M,10.00,M,M,M,M,M,M,M,M,M,M,M,M,M,M,M,M,26.60,K05U 021415Z AUTO 00000KT 10SM M03/M03 A2969 RMK A01,M
BAM,2024-02-02 14:15,-116.8743,40.5990,1382.36,35.60,33.80,93.08,210.00,3.00,0.00,29.69,M,10.00,M,SCT,BKN,M,M,2600.00,3800.00,M,M,M,M,M,M,M,M,M,32.80,KBAM 021415Z AUTO 21003KT 10SM SCT026 BKN038 02/01 A2969 RMK AO1,M
HTH,2024-02-02 14:15,-118.6315,38.5448,1282.89,30.20,30.20,100.00,0.00,0.00,0.00,29.75,M,10.00,M,BKN,BKN,OVC,M,6500.00,8000.00,10000.00,M,M,M,M,M,M,M,M,30.20,KHTH 021415Z AUTO 00000KT 10SM BKN065 BKN080 OVC100 M01/M01 A2975 RMK A01,M
TMT,2024-02-02 14:15,-117.1971,39.4643,1749.34,26.60,25.70,96.34,0.00,0.00,0.00,29.72,M,10.00,M,OVC,M,M,M,5000.00,M,M,M,M,M,M,M,M,M,M,26.60,KTMT 021415Z AUTO 00000KT 10SM OVC050 M03/M03 A2972 RMK AO2 T10301035,M
ELY,2024-02-02 14:16,-114.8453,39.2950,1909.00,30.00,26.00,84.85,300.00,5.00,T,29.62,M,10.00,M,BKN,BKN,OVC,M,2400.00,3500.00,5500.00,M,M,M,M,M,M,M,M,24.02,KELY 021416Z AUTO 30005KT 10SM BKN024 BKN035 OVC055 M01/M03 A2962 RMK AO2 SNE04 P0000 T10111033,M
LOL,2024-02-02 14:16,-118.5701,40.0684,1192.43,28.00,27.00,95.97,0.00,0.00,0.00,29.73,M,3.00,M,BKN,OVC,M,M,100.00,8000.00,M,M,BR,M,M,M,M,M,M,28.00,KLOL 021416Z AUTO 00000KT 3SM BR BKN001 OVC080 M02/M03 A2973 RMK AO2 T10221028,M
EKO,2024-02-02 14:18,-115.7860,40.8242,1367.00,34.00,32.00,92.29,200.00,7.00,T,29.65,M,8.00,M,FEW,BKN,OVC,M,600.00,1900.00,4200.00,M,-SN,M,M,M,M,M,M,27.22,KEKO 021418Z AUTO 20007KT 8SM -SN FEW006 BKN019 OVC042 01/00 A2965 RMK AO2 P0000 T00110000,M
VGT,2024-02-02 14:18,-115.1933,36.2111,667.00,46.00,44.00,92.68,0.00,0.00,0.00,29.69,M,10.00,M,BKN,OVC,M,M,3400.00,4000.00,M,M,M,M,M,M,M,M,M,46.00,KVGT 021418Z 00000KT 10SM BKN034 OVC040 08/07 A2969 RMK AO2 T00780067,M
DRA,2024-02-02 14:22,-116.0278,36.6206,1009.00,41.00,40.00,96.19,250.00,6.00,0.01,29.71,M,10.00,M,BKN,OVC,M,M,2900.00,3600.00,M,M,M,M,M,M,M,M,M,36.37,KDRA 021422Z AUTO 25006KT 10SM BKN029 OVC036 05/04 A2971 RMK AO2 RAE18 P0001 T00500044,M
DRA,2024-02-02 14:34,-116.0278,36.6206,1009.00,41.00,40.00,96.19,290.00,3.00,0.01,29.71,M,10.00,M,FEW,BKN,OVC,M,700.00,2700.00,3600.00,M,M,M,M,M,M,M,M,38.98,KDRA 021434Z AUTO 29003KT 10SM FEW007 BKN027 OVC036 05/04 A2971 RMK AO2 RAE18 P0001 T00500044,M
BVU,2024-02-02 14:35,-114.8611,35.9475,671.00,46.40,37.40,70.68,210.00,5.00,0.00,29.71,M,10.00,M,FEW,BKN,OVC,M,6000.00,7000.00,10000.00,M,M,M,M,M,M,M,M,43.50,KBVU 021435Z AUTO 21005KT 10SM FEW060 BKN070 OVC100 08/03 A2971 RMK AO2,M
CXP,2024-02-02 14:35,-119.7326,39.1923,1431.00,35.60,21.20,55.41,0.00,0.00,0.00,29.75,M,10.00,M,BKN,OVC,M,M,4300.00,5500.00,M,M,M,M,M,M,M,M,M,35.60,KCXP 021435Z AUTO 00000KT 10SM BKN043 OVC055 02/M06 A2975 RMK AO2,M
05U,2024-02-02 14:35,-116.0051,39.6042,1811.23,26.60,26.60,100.00,0.00,0.00,0.00,29.70,M,10.00,M,M,M,M,M,M,M,M,M,M,M,M,M,M,M,M,26.60,K05U 021435Z AUTO 00000KT 10SM M03/M03 A2970 RMK A01,M
BAM,2024-02-02 14:35,-116.8743,40.5990,1382.36,33.80,32.00,93.03,260.00,5.00,0.00,29.69,M,10.00,M,SCT,M,M,M,3800.00,M,M,M,M,M,M,M,M,M,M,28.53,KBAM 021435Z AUTO 26005KT 10SM SCT038 01/00 A2969 RMK AO1,M
HTH,2024-02-02 14:35,-118.6315,38.5448,1282.89,30.20,28.40,92.92,130.00,3.00,0.00,29.75,M,10.00,M,FEW,SCT,OVC,M,6500.00,8000.00,9500.00,M,M,M,M,M,M,M,M,26.63,KHTH 021435Z AUTO 13003KT 10SM FEW065 SCT080 OVC095 M01/M02 A2975 RMK A01,M
TMT,2024-02-02 14:35,-117.1971,39.4643,1749.34,26.40,25.50,96.34,0.00,0.00,0.00,29.72,M,10.00,M,OVC,M,M,M,5000.00,M,M,M,M,M,M,M,M,M,M,26.40,KTMT 021435Z AUTO 00000KT 10SM OVC050 M03/M04 A2972 RMK AO2 T10311036,M
LOL,2024-02-02 14:36,-118.5701,40.0684,1192.43,28.00,27.00,95.97,0.00,0.00,0.00,29.73,M,2.50,M,OVC,M,M,M,200.00,M,M,M,BR,M,M,M,M,M,M,28.00,KLOL 021436Z AUTO 00000KT 2 1/2SM BR OVC002 M02/M03 A2973 RMK AO2 T10221028,M
ELY,2024-02-02 14:41,-114.8453,39.2950,1909.00,30.00,27.00,88.44,0.00,0.00,T,29.63,M,10.00,M,FEW,BKN,OVC,M,2700.00,3400.00,4400.00,M,M,M,M,M,M,M,M,30.00,KELY 021441Z AUTO 00000KT 10SM FEW027 BKN034 OVC044 M01/M03 A2963 RMK AO2 SNE04 P0000 T10111028,M
LOL,2024-02-02 14:44,-118.5701,40.0684,1192.43,28.00,27.00,95.97,60.00,3.00,0.00,29.73,M,7.00,M,BKN,BKN,M,M,200.00,7500.00,M,M,M,M,M,M,M,M,M,24.12,KLOL 021444Z AUTO 06003KT 7SM BKN002 BKN075 M02/M03 A2973 RMK AO2 T10221028,M
NFL,2024-02-02 14:44,-118.7010,39.4166,1199.00,30.00,28.00,92.15,140.00,5.00,0.00,29.74,M,10.00,M,SCT,BKN,BKN,M,5000.00,10000.00,18000.00,M,M,M,M,M,M,M,M,24.02,KNFL 021444Z 14005KT 10SM SCT050 BKN100 BKN180 M01/M02 A2974 RMK AO2 T10111022,M
VGT,2024-02-02 14:49,-115.1933,36.2111,667.00,46.40,42.80,87.19,0.00,0.00,0.00,29.70,M,10.00,M,FEW,SCT,BKN,M,500.00,4400.00,5000.00,M,M,M,M,M,M,M,M,46.40,KVGT 021449Z 00000KT 10SM FEW005 SCT044 BKN050 08/06 A2970 RMK AO2,M
P68,2024-02-02 14:53,-116.0056,39.6014,1993.00,25.00,24.00,95.91,180.00,5.00,0.00,29.68,1004.70,M,M,M,M,M,M,M,M,M,M,M,M,M,M,M,M,M,18.08,KP68 021453Z AUTO 18005KT M04/M04 A2968 RMK AO1 SLP047 T10391044 53009,M
DRA,2024-02-02 14:53,-116.0278,36.6206,1009.00,42.00,39.00,89.01,0.00,0.00,0.01,29.72,1005.20,10.00,M,FEW,OVC,M,M,800.00,2700.00,M,M,M,M,M,M,M,M,M,42.00,KDRA 021453Z AUTO 00000KT 10SM FEW008 OVC027 06/04 A2972 RMK AO2 RAE18 SLP052 P0001 60002 T00560039 53020,M
ELY,2024-02-02 14:53,-114.8453,39.2950,1909.00,30.00,26.00,84.85,290.00,3.00,T,29.63,1002.40,10.00,M,FEW,BKN,OVC,M,3000.00,3600.00,4400.00,M,M,M,M,M,M,M,M,26.40,KELY 021453Z AUTO 29003KT 10SM FEW030 BKN036 OVC044 M01/M03 A2963 RMK AO2 SNE04 SLP024 P0000 60000 T10111033 53009,M
VGT,2024-02-02 14:53,-115.1933,36.2111,667.00,46.00,43.00,89.20,0.00,0.00,0.00,29.70,1007.70,10.00,M,FEW,SCT,BKN,M,500.00,4400.00,5000.00,M,M,M,M,M,M,M,M,46.00,KVGT 021453Z 00000KT 10SM FEW005 SCT044 BKN050 08/06 A2970 RMK AO2 SLP077 T00780061 51012,M
LOL,2024-02-02 14:53,-118.5701,40.0684,1192.43,28.00,26.00,92.08,360.00,3.00,0.00,29.74,1008.50,10.00,M,SCT,BKN,M,M,200.00,8000.00,M,M,M,T,0.02,M,M,M,M,24.12,KLOL 021453Z AUTO 36003KT 10SM SCT002 BKN080 M02/M03 A2974 RMK AO2 SLP085 I1000 I3002 T10221033 51009,M
BVU,2024-02-02 14:55,-114.8611,35.9475,671.00,46.40,37.40,70.68,0.00,0.00,0.00,29.72,M,10.00,M,FEW,SCT,BKN,M,6000.00,7000.00,8000.00,M,M,M,M,M,M,M,M,46.40,KBVU 021455Z AUTO 00000KT 10SM FEW060 SCT070 BKN080 08/03 A2972 RMK AO2,M
CXP,2024-02-02 14:55,-119.7326,39.1923,1431.00,35.60,26.60,69.46,0.00,0.00,0.00,29.75,M,10.00,M,SCT,BKN,OVC,M,3400.00,4000.00,5500.00,M,M,M,M,M,M,M,M,35.60,KCXP 021455Z AUTO 00000KT 10SM SCT034 BKN040 OVC055 02/M03 A2975 RMK AO2,M
RNO,2024-02-02 14:55,-119.7711,39.4839,1341.00,33.00,26.00,75.17,0.00,0.00,0.00,29.75,1006.90,10.00,M,BKN,BKN,M,M,5500.00,12000.00,M,M,M,M,M,M,M,M,M,33.00,KRNO 021455Z 00000KT 10SM BKN055 BKN120 01/M03 A2975 RMK AO2 SLP069 T00061033 53011 $,M
LSV,2024-02-02 14:55,-115.0343,36.2362,570.00,45.00,42.80,91.94,0.00,0.00,0.00,29.69,1005.20,10.00,M,SCT,M,M,M,9000.00,M,M,M,M,M,M,M,M,M,M,45.00,KLSV 021455Z AUTO 00000KT 10SM SCT090 07/06 A2969 RMK AO2 SLP052 T00720060 52017 $,M
05U,2024-02-02 14:55,-116.0051,39.6042,1811.23,26.60,24.80,92.80,0.00,0.00,0.01,29.70,M,10.00,M,M,M,M,M,M,M,M,M,M,M,M,M,M,M,M,26.60,K05U 021455Z AUTO 00000KT 10SM M03/M04 A2970 RMK A01 P0001,M
BAM,2024-02-02 14:55,-116.8743,40.5990,1382.36,35.60,33.80,93.08,230.00,8.00,0.00,29.70,M,10.00,M,SCT,SCT,M,M,2100.00,2900.00,M,M,M,M,M,M,M,M,M,28.55,KBAM 021455Z AUTO 23008KT 10SM SCT021 SCT029 02/01 A2970 RMK AO1,M
HTH,2024-02-02 14:55,-118.6315,38.5448,1282.89,30.20,28.40,92.92,130.00,3.00,0.00,29.76,M,10.00,M,SCT,OVC,M,M,7500.00,9000.00,M,M,M,M,M,M,M,M,M,26.63,KHTH 021455Z AUTO 13003KT 10SM SCT075 OVC090 M01/M02 A2976 RMK A01,M
TMT,2024-02-02 14:55,-117.1971,39.4643,1749.34,26.80,25.70,95.55,0.00,0.00,0.00,29.73,M,10.00,M,OVC,M,M,M,5000.00,M,M,M,M,M,M,M,M,M,M,26.80,KTMT 021455Z AUTO 00000KT 10SM OVC050 M03/M03 A2973 RMK AO2 T10291035,M
INS,2024-02-02 14:55,-115.6733,36.5872,955.00,44.00,37.40,77.43,210.00,5.00,T,29.71,1004.90,10.00,M,OVC,M,M,M,4100.00,M,M,M,M,M,M,M,M,M,M,40.65,KINS 021455Z AUTO 21005KT 10SM OVC041 07/03 A2971 RMK AO2 RAE10 SLP049 P0000 60001 T00660030 53017,M
EKO,2024-02-02 14:56,-115.7860,40.8242,1367.00,33.00,32.00,96.06,200.00,7.00,0.01,29.66,1004.70,6.00,M,FEW,BKN,OVC,M,500.00,1600.00,2300.00,M,-SN BR,M,M,M,M,M,M,26.00,KEKO 021456Z AUTO 20007KT 6SM -SN BR FEW005 BKN016 OVC023 01/00 A2966 RMK AO2 SLP047 P0001 60001 T00060000 53010,M
HND,2024-02-02 14:56,-115.1344,35.9729,742.79,46.00,37.00,70.64,210.00,16.00,0.00,29.73,1008.30,10.00,M,FEW,OVC,M,M,8000.00,10000.00,M,M,M,M,M,M,M,M,M,38.67,KHND 021456Z 21016KT 10SM FEW080 OVC100 08/03 A2973 RMK AO2 SLP083 T00780028 52016,M
TPH,2024-02-02 14:56,-117.0904,38.0505,1654.00,33.00,30.00,88.58,310.00,13.00,0.00,29.71,1006.20,10.00,M,FEW,BKN,M,M,8500.00,11000.00,M,M,M,M,M,M,M,M,M,22.85,KTPH 021456Z AUTO 31013KT 10SM FEW085 BKN110 01/M01 A2971 RMK AO2 SLP062 T00061011 53014,M
WMC,2024-02-02 14:56,-117.8072,40.9019,1315.00,30.00,25.00,81.40,20.00,3.00,0.00,29.71,1006.70,10.00,M,FEW,M,M,M,6000.00,M,M,M,M,M,M,M,M,M,M,26.40,KWMC 021456Z AUTO 02003KT 10SM FEW060 M01/M04 A2971 RMK AO2 SLP067 T10111039 53014,M
LAS,2024-02-02 14:56,-115.1634,36.0719,663.00,47.00,37.00,68.02,200.00,8.00,0.00,29.70,1005.60,10.00,M,FEW,BKN,OVC,M,1000.00,5500.00,8500.00,M,M,M,M,M,M,M,M,42.59,KLAS 021456Z COR 20008KT 10SM FEW010 BKN055 OVC085 08/03 A2970 RMK AO2 SLP056 VIRGA S-W-NW T00830028 53014,M
NFL,2024-02-02 14:56,-118.7010,39.4166,1199.00,31.00,29.00,92.19,140.00,7.00,0.00,29.74,1005.10,10.00,M,SCT,BKN,BKN,M,5000.00,10000.00,18000.00,M,M,M,M,M,M,M,M,23.56,KNFL 021456Z COR 14007KT 10SM SCT050 BKN100 BKN180 M01/M02 A2974 RMK AO2 SLP051 IR// T10061017 53011,M
BVU,2024-02-02 15:15,-114.8611,35.9475,671.00,46.40,37.40,70.68,170.00,5.00,0.00,29.73,M,10.00,M,SCT,SCT,M,M,8500.00,12000.00,M,M,M,M,M,M,M,M,M,43.50,KBVU 021515Z AUTO 17005KT 10SM SCT085 SCT120 08/03 A2973 RMK AO2,M
CXP,2024-02-02 15:15,-119.7326,39.1923,1431.00,35.60,26.60,69.46,320.00,3.00,0.00,29.76,M,10.00,M,FEW,BKN,OVC,M,3400.00,4300.00,6000.00,M,M,M,M,M,M,M,M,32.80,KCXP 021515Z AUTO 32003KT 10SM FEW034 BKN043 OVC060 02/M03 A2976 RMK AO2,M
05U,2024-02-02 15:15,-116.0051,39.6042,1811.23,26.60,26.60,100.00,0.00,0.00,0.00,29.70,M,10.00,M,M,M,M,M,M,M,M,M,M,M,M,M,M,M,M,26.60,K05U 021515Z AUTO 00000KT 10SM M03/M03 A2970 RMK A01,M
BAM,2024-02-02 15:15,-116.8743,40.5990,1382.36,35.60,32.00,86.59,240.00,7.00,0.00,29.71,M,10.00,M,CLR,M,M,M,M,M,M,M,M,M,M,M,M,M,M,29.17,KBAM 021515Z AUTO 24007KT 10SM CLR 02/00 A2971 RMK AO1,M
HTH,2024-02-02 15:15,-118.6315,38.5448,1282.89,32.00,30.20,92.97,110.00,6.00,0.00,29.77,M,10.00,M,FEW,OVC,M,M,7500.00,9500.00,M,M,M,M,M,M,M,M,M,25.53,KHTH 021515Z AUTO 11006KT 10SM FEW075 OVC095 M00/M01 A2977 RMK A01,M
TMT,2024-02-02 15:15,-117.1971,39.4643,1749.34,26.40,25.50,96.34,0.00,0.00,0.00,29.74,M,10.00,M,OVC,M,M,M,5000.00,M,M,M,M,M,M,M,M,M,M,26.40,KTMT 021515Z AUTO 00000KT 10SM OVC050 M03/M04 A2974 RMK AO2 T10311036,M
ELY,2024-02-02 15:31,-114.8453,39.2950,1909.00,30.00,27.00,88.44,290.00,7.00,0.00,29.64,M,10.00,M,BKN,OVC,M,M,2500.00,3400.00,M,M,M,M,M,M,M,M,M,22.34,KELY 021531Z AUTO 29007KT 10SM BKN025 OVC034 M01/M03 A2964 RMK AO2 T10111028,M
BVU,2024-02-02 15:35,-114.8611,35.9475,671.00,46.40,41.00,81.34,150.00,6.00,0.00,29.73,M,10.00,M,FEW,BKN,OVC,M,6000.00,8000.00,9000.00,M,M,M,M,M,M,M,M,42.87,KBVU 021535Z AUTO 15006KT 10SM FEW060 BKN080 OVC090 08/05 A2973 RMK AO2,M
CXP,2024-02-02 15:35,-119.7326,39.1923,1431.00,35.60,24.80,64.46,0.00,0.00,0.00,29.76,M,10.00,M,BKN,OVC,M,M,4700.00,6000.00,M,M,M,M,M,M,M,M,M,35.60,KCXP 021535Z AUTO 00000KT 10SM BKN047 OVC060 02/M04 A2976 RMK AO2,M
05U,2024-02-02 15:35,-116.0051,39.6042,1811.23,28.40,26.60,92.86,0.00,0.00,0.00,29.71,M,10.00,M,M,M,M,M,M,M,M,M,M,M,M,M,M,M,M,28.40,K05U 021535Z AUTO 00000KT 10SM M02/M03 A2971 RMK A01,M
BAM,2024-02-02 15:35,-116.8743,40.5990,1382.36,35.60,32.00,86.59,240.00,5.00,0.00,29.72,M,10.00,M,CLR,M,M,M,M,M,M,M,M,M,M,M,M,M,M,30.67,KBAM 021535Z AUTO 24005KT 10SM CLR 02/00 A2972 RMK AO1,M
HTH,2024-02-02 15:35,-118.6315,38.5448,1282.89,32.00,32.00,100.00,190.00,5.00,0.00,29.77,M,10.00,M,FEW,OVC,M,M,7500.00,10000.00,M,M,M,M,M,M,M,M,M,26.40,KHTH 021535Z AUTO 19005KT 10SM FEW075 OVC100 00/M00 A2977 RMK A01,M
TMT,2024-02-02 15:35,-117.1971,39.4643,1749.34,26.60,26.00,97.55,0.00,0.00,0.00,29.74,M,10.00,M,OVC,M,M,M,5000.00,M,M,M,M,M,M,M,M,M,M,26.60,KTMT 021535Z AUTO 00000KT 10SM OVC050 M03/M03 A2974 RMK AO2 T10301033,M
EKO,2024-02-02 15:36,-115.7860,40.8242,1367.00,34.00,32.00,92.29,220.00,7.00,T,29.67,M,10.00,M,SCT,OVC,M,M,1600.00,3200.00,M,M,M,M,M,M,M,M,M,27.22,KEKO 021536Z AUTO 22007KT 10SM SCT016 OVC032 01/00 A2967 RMK AO2 SNE12 P0000 T00110000,M
LSV,2024-02-02 15:51,-115.0343,36.2362,570.00,44.60,42.80,93.35,0.00,0.00,0.00,29.71,1005.90,10.00,M,FEW,M,M,M,4000.00,M,M,M,-DZ,M,M,M,M,M,M,44.60,KLSV 021551Z AUTO 00000KT 10SM -DZ FEW040 07/06 A2971 RMK AO2 DZB51 SLP059 $,M
P68,2024-02-02 15:53,-116.0056,39.6014,1993.00,31.00,27.00,84.92,M,4.00,0.00,29.68,1004.50,M,M,M,M,M,M,M,M,M,M,M,M,M,M,M,M,M,26.25,KP68 021553Z AUTO VRB04KT M01/M03 A2968 RMK AO1 SLP045 T10061028,M
DRA,2024-02-02 15:53,-116.0278,36.6206,1009.00,42.00,39.00,89.01,240.00,9.00,0.00,29.74,1006.00,10.00,M,BKN,OVC,M,M,2500.00,3300.00,M,M,M,M,M,M,M,M,M,35.95,KDRA 021553Z AUTO 24009KT 10SM BKN025 OVC033 06/04 A2974 RMK AO2 SLP060 T00560039,M
ELY,2024-02-02 15:53,-114.8453,39.2950,1909.00,31.00,27.00,84.92,300.00,6.00,0.00,29.65,1003.10,10.00,M,SCT,OVC,M,M,2700.00,3400.00,M,M,M,M,M,M,M,M,M,24.33,KELY 021553Z AUTO 30006KT 10SM SCT027 OVC034 M01/M03 A2965 RMK AO2 SLP031 T10061028,M
VGT,2024-02-02 15:53,-115.1933,36.2111,667.00,47.00,44.00,89.24,0.00,0.00,0.01,29.73,1008.50,10.00,M,FEW,OVC,M,M,3300.00,6500.00,M,M,M,M,M,M,M,M,M,47.00,KVGT 021553Z 00000KT 10SM FEW033 OVC065 08/07 A2973 RMK AO2 RAB28E46 SLP085 P0001 T00830067,M
LOL,2024-02-02 15:53,-118.5701,40.0684,1192.43,27.00,26.00,95.95,210.00,4.00,0.00,29.76,1009.20,10.00,M,BKN,M,M,M,8500.00,M,M,M,M,M,M,M,M,M,M,21.58,KLOL 021553Z AUTO 21004KT 10SM BKN085 M03/M03 A2976 RMK AO2 SLP092 T10281033,M
BVU,2024-02-02 15:55,-114.8611,35.9475,671.00,46.40,41.00,81.34,150.00,6.00,0.00,29.74,M,10.00,M,FEW,SCT,OVC,M,6000.00,7000.00,9000.00,M,M,M,M,M,M,M,M,42.87,KBVU 021555Z AUTO 15006KT 10SM FEW060 SCT070 OVC090 08/05 A2974 RMK AO2,M
CXP,2024-02-02 15:55,-119.7326,39.1923,1431.00,35.60,24.80,64.46,100.00,4.00,0.00,29.76,M,10.00,M,BKN,BKN,OVC,M,4800.00,5500.00,6500.00,M,M,M,M,M,M,M,M,31.62,KCXP 021555Z AUTO 10004KT 10SM BKN048 BKN055 OVC065 02/M04 A2976 RMK AO2,M
INS,2024-02-02 15:55,-115.6733,36.5872,955.00,44.00,38.00,79.27,220.00,8.00,0.00,29.73,1005.60,10.00,M,BKN,BKN,OVC,M,4100.00,4900.00,6500.00,M,M,M,M,M,M,M,M,38.90,KINS 021555Z AUTO 22008KT 10SM BKN041 BKN049 OVC065 07/03 A2973 RMK AO2 SLP056 T00660034,M
RNO,2024-02-02 15:55,-119.7711,39.4839,1341.00,34.00,27.00,75.26,150.00,3.00,0.00,29.76,1007.30,10.00,M,FEW,BKN,BKN,M,3000.00,5500.00,12000.00,M,M,M,M,M,M,M,M,30.97,KRNO 021555Z 15003KT 10SM FEW030 BKN055 BKN120 01/M03 A2976 RMK AO2 SLP073 T00111028 $,M
LSV,2024-02-02 15:55,-115.0343,36.2362,570.00,45.50,43.30,91.95,0.00,0.00,T,29.71,1005.90,10.00,M,FEW,M,M,M,4000.00,M,M,M,-DZ,M,M,M,M,M,M,45.50,KLSV 021555Z AUTO 00000KT 10SM -DZ FEW040 08/06 A2971 RMK AO2 DZB51 SLP059 P0000 T00750063 $,M
05U,2024-02-02 15:55,-116.0051,39.6042,1811.23,30.20,28.40,92.92,0.00,0.00,0.00,29.71,M,10.00,M,M,M,M,M,M,M,M,M,M,M,M,M,M,M,M,30.20,K05U 021555Z AUTO 00000KT 10SM M01/M02 A2971 RMK A01,M
BAM,2024-02-02 15:55,-116.8743,40.5990,1382.36,33.80,32.00,93.03,230.00,7.00,0.00,29.72,M,10.00,M,CLR,M,M,M,M,M,M,M,M,M,M,M,M,M,M,26.97,KBAM 021555Z AUTO 23007KT 10SM CLR 01/00 A2972 RMK AO1,M
HTH,2024-02-02 15:55,-118.6315,38.5448,1282.89,33.80,32.00,93.03,0.00,0.00,0.00,29.78,M,10.00,M,BKN,BKN,M,M,9500.00,11000.00,M,M,M,M,M,M,M,M,M,33.80,KHTH 021555Z AUTO 00000KT 10SM BKN095 BKN110 01/00 A2978 RMK A01,M
TMT,2024-02-02 15:55,-117.1971,39.4643,1749.34,27.00,26.20,96.75,0.00,0.00,0.00,29.75,M,10.00,M,OVC,M,M,M,5000.00,M,M,M,M,M,M,M,M,M,M,27.00,KTMT 021555Z AUTO 00000KT 10SM OVC050 M03/M03 A2975 RMK AO2 T10271032,M
EKO,2024-02-02 15:56,-115.7860,40.8242,1367.00,34.00,32.00,92.29,220.00,8.00,T,29.68,1005.40,7.00,M,FEW,SCT,OVC,M,1800.00,2500.00,3500.00,M,-SN,M,M,M,M,M,M,26.58,KEKO 021556Z AUTO 22008KT 7SM -SN FEW018 SCT025 OVC035 01/00 A2968 RMK AO2 SNE12B51 SLP054 P0000 T00110000,M
NFL,2024-02-02 15:56,-118.7010,39.4166,1199.00,33.00,32.00,96.06,160.00,6.00,0.00,29.76,1005.60,10.00,M,SCT,SCT,BKN,BKN,5000.00,9000.00,15000.00,20000.00,M,M,M,M,M,M,M,26.73,KNFL 021556Z 16006KT 10SM SCT050 SCT090 BKN150 BKN200 01/00 A2976 RMK AO2 SLP056 IR// T00060000,M
HND,2024-02-02 15:56,-115.1344,35.9729,742.79,46.00,37.00,70.64,210.00,12.00,T,29.75,1009.40,10.00,M,BKN,BKN,OVC,M,5000.00,7500.00,9000.00,M,M,M,M,M,M,M,M,39.82,KHND 021556Z 21012KT 10SM BKN050 BKN075 OVC090 08/03 A2975 RMK AO2 RAB25E40 SLP094 P0000 T00780028,M
TPH,2024-02-02 15:56,-117.0904,38.0505,1654.00,34.00,30.00,85.11,310.00,14.00,0.00,29.73,1006.90,10.00,M,SCT,BKN,M,M,7500.00,11000.00,M,M,M,M,M,M,M,M,M,23.74,KTPH 021556Z AUTO 31014KT 10SM SCT075 BKN110 01/M01 A2973 RMK AO2 SLP069 T00111011,M
LAS,2024-02-02 15:56,-115.1634,36.0719,663.00,45.00,43.00,92.65,300.00,4.00,0.00,29.73,1006.70,10.00,M,SCT,BKN,OVC,M,5500.00,8000.00,11000.00,M,M,M,M,M,M,M,M,42.60,KLAS 021556Z 30004KT 10SM SCT055 BKN080 OVC110 07/06 A2973 RMK AO2 SLP067 T00720061,M
WMC,2024-02-02 15:56,-117.8072,40.9019,1315.00,35.00,29.00,78.51,20.00,3.00,0.00,29.73,1007.00,10.00,M,CLR,M,M,M,M,M,M,M,M,M,M,M,M,M,M,32.12,KWMC 021556Z AUTO 02003KT 10SM CLR 02/M02 A2973 RMK AO2 SLP070 T00171017,M
LSV,2024-02-02 16:06,-115.0343,36.2362,570.00,46.40,42.80,87.19,180.00,4.00,0.00,29.72,1006.20,9.00,M,CLR,M,M,M,M,M,M,M,M,M,M,M,M,M,M,44.24,KLSV 021606Z AUTO 18004KT 9SM CLR 08/06 A2972 RMK AO2 DZE02RAB02E06 SLP062 $,M
LOL,2024-02-02 16:06,-118.5701,40.0684,1192.43,28.00,27.00,95.97,0.00,0.00,0.00,29.76,M,9.00,M,FEW,BKN,M,M,200.00,8500.00,M,M,M,M,M,M,M,M,M,28.00,KLOL 021606Z AUTO 00000KT 9SM FEW002 BKN085 M02/M03 A2976 RMK AO2 T10221028,M
05U,2024-02-02 16:10,-116.0051,39.6042,1811.23,30.20,26.60,86.28,0.00,0.00,0.00,29.72,M,10.00,M,M,M,M,M,M,M,M,M,M,M,M,M,M,M,M,30.20,K05U 021610Z AUTO 00000KT 10SM M01/M03 A2972 RMK A01,M
LSV,2024-02-02 16:11,-115.0343,36.2362,570.00,46.40,42.80,87.19,190.00,3.00,0.00,29.72,1006.20,8.00,M,FEW,M,M,M,6500.00,M,M,M,-RA,M,M,M,M,M,M,45.15,KLSV 021611Z AUTO 19003KT 8SM -RA FEW065 08/06 A2972 RMK AO2 DZE02RAB02E06RAB11 SLP062 $,M
BVU,2024-02-02 16:15,-114.8611,35.9475,671.00,46.40,42.80,87.19,170.00,4.00,0.00,29.75,M,10.00,M,FEW,SCT,SCT,M,4500.00,5000.00,9500.00,M,M,M,M,M,M,M,M,44.24,KBVU 021615Z AUTO 17004KT 10SM FEW045 SCT050 SCT095 08/06 A2975 RMK AO2,M
CXP,2024-02-02 16:15,-119.7326,39.1923,1431.00,35.60,24.80,64.46,0.00,0.00,0.00,29.78,M,8.00,M,FEW,BKN,OVC,M,2200.00,3600.00,4800.00,M,M,M,M,M,M,M,M,35.60,KCXP 021615Z AUTO 00000KT 8SM FEW022 BKN036 OVC048 02/M04 A2978 RMK AO2,M
BAM,2024-02-02 16:15,-116.8743,40.5990,1382.36,35.60,32.00,86.59,240.00,7.00,0.00,29.73,M,10.00,M,CLR,M,M,M,M,M,M,M,M,M,M,M,M,M,M,29.17,KBAM 021615Z AUTO 24007KT 10SM CLR 02/00 A2973 RMK AO1,M
HTH,2024-02-02 16:15,-118.6315,38.5448,1282.89,33.80,32.00,93.03,0.00,0.00,0.00,29.78,M,10.00,M,FEW,FEW,SCT,M,7500.00,9500.00,11000.00,M,M,M,M,M,M,M,M,33.80,KHTH 021615Z AUTO 00000KT 10SM FEW075 FEW095 SCT110 01/00 A2978 RMK A01,M
TMT,2024-02-02 16:15,-117.1971,39.4643,1749.34,28.00,27.00,95.97,0.00,0.00,0.00,29.76,M,10.00,M,OVC,M,M,M,5000.00,M,M,M,M,M,M,M,M,M,M,28.00,KTMT 021615Z AUTO 00000KT 10SM OVC050 M02/M03 A2976 RMK AO2 T10231027,M
EKO,2024-02-02 16:18,-115.7860,40.8242,1367.00,34.00,32.00,92.29,220.00,9.00,T,29.68,M,3.00,M,SCT,BKN,OVC,M,1600.00,2600.00,4100.00,M,-SN BR,M,M,M,M,M,M,26.00,KEKO 021618Z AUTO 22009KT 3SM -SN BR SCT016 BKN026 OVC041 01/00 A2968 RMK AO2 P0000 T00110000,M
LSV,2024-02-02 16:20,-115.0343,36.2362,570.00,46.40,42.80,87.19,190.00,3.00,0.00,29.72,1006.20,10.00,M,SCT,M,M,M,6500.00,M,M,M,M,M,M,M,M,M,M,45.15,KLSV 021620Z AUTO 19003KT 10SM SCT065 08/06 A2972 RMK AO2 DZE02RAB02E06RAB11E20 SLP062 $,M
BVU,2024-02-02 16:35,-114.8611,35.9475,671.00,48.20,41.00,76.01,200.00,4.00,0.00,29.75,M,10.00,M,SCT,BKN,BKN,M,4200.00,4800.00,5500.00,M,M,M,M,M,M,M,M,46.34,KBVU 021635Z AUTO 20004KT 10SM SCT042 BKN048 BKN055 09/05 A2975 RMK AO2,M
CXP,2024-02-02 16:35,-119.7326,39.1923,1431.00,35.60,30.20,80.51,340.00,3.00,0.00,29.78,M,2.00,M,FEW,SCT,BKN,M,300.00,1300.00,3600.00,M,-RA HZ,M,M,M,M,M,M,32.80,KCXP 021635Z AUTO 34003KT 2SM -RA HZ FEW003 SCT013 BKN036 02/M01 A2978 RMK AO2,M
RTS,2024-02-02 16:35,-119.8764,39.6682,1539.00,33.80,26.60,74.63,250.00,5.00,0.00,29.76,M,10.00,M,FEW,FEW,BKN,M,3800.00,4400.00,5000.00,M,M,M,M,M,M,M,M,28.53,KRTS 021635Z AUTO 25005KT 10SM FEW038 FEW044 BKN050 01/M03 A2976 RMK AO2,M
05U,2024-02-02 16:35,-116.0051,39.6042,1811.23,30.20,28.40,92.92,0.00,0.00,0.00,29.72,M,10.00,M,M,M,M,M,M,M,M,M,M,M,M,M,M,M,M,30.20,K05U 021635Z AUTO 00000KT 10SM M01/M02 A2972 RMK A01,M
MEV,2024-02-02 16:35,-119.7500,38.9963,1441.42,33.80,24.80,69.25,0.00,0.00,0.00,29.76,M,10.00,M,BKN,M,M,M,5500.00,M,M,M,M,M,M,M,M,M,M,33.80,KMEV 021635Z AUTO 00000KT 10SM BKN055 01/M04 A2976 RMK AO2,M
BAM,2024-02-02 16:35,-116.8743,40.5990,1382.36,35.60,32.00,86.59,240.00,6.00,0.00,29.73,M,10.00,M,CLR,M,M,M,M,M,M,M,M,M,M,M,M,M,M,29.87,KBAM 021635Z AUTO 24006KT 10SM CLR 02/00 A2973 RMK AO1,M
HTH,2024-02-02 16:35,-118.6315,38.5448,1282.89,37.40,33.80,86.69,130.00,3.00,0.00,29.78,M,10.00,M,FEW,FEW,M,M,5000.00,7500.00,M,M,M,M,M,M,M,M,M,34.86,KHTH 021635Z AUTO 13003KT 10SM FEW050 FEW075 03/01 A2978 RMK A01,M
TMT,2024-02-02 16:35,-117.1971,39.4643,1749.34,28.40,27.50,96.37,200.00,3.00,0.00,29.76,M,10.00,M,OVC,M,M,M,5000.00,M,M,M,M,M,M,M,M,M,M,24.57,KTMT 021635Z AUTO 20003KT 10SM OVC050 M02/M02 A2976 RMK AO2 T10201025,M
EKO,2024-02-02 16:43,-115.7860,40.8242,1367.00,34.00,32.00,92.29,220.00,8.00,T,29.69,M,8.00,M,SCT,SCT,OVC,M,1200.00,1800.00,4300.00,M,M,M,M,M,M,M,M,26.58,KEKO 021643Z AUTO 22008KT 8SM SCT012 SCT018 OVC043 01/00 A2969 RMK AO2 SNE43 P0000 T00110000,M
P68,2024-02-02 16:53,-116.0056,39.6014,1993.00,32.00,28.00,84.98,0.00,0.00,0.00,29.70,1005.10,M,M,M,M,M,M,M,M,M,M,M,M,M,M,M,M,M,32.00,KP68 021653Z AUTO 00000KT 00/M02 A2970 RMK AO1 SLP051 T00001022,M
DRA,2024-02-02 16:53,-116.0278,36.6206,1009.00,42.00,39.00,89.01,260.00,7.00,0.00,29.76,1006.60,10.00,M,OVC,M,M,M,2500.00,M,M,M,M,M,M,M,M,M,M,36.97,KDRA 021653Z AUTO 26007KT 10SM OVC025 06/04 A2976 RMK AO2 SLP066 T00560039,M
ELY,2024-02-02 16:53,-114.8453,39.2950,1909.00,32.00,28.00,84.98,290.00,6.00,T,29.66,1003.60,10.00,M,FEW,OVC,M,M,2700.00,4200.00,M,M,M,M,M,M,M,M,M,25.53,KELY 021653Z AUTO 29006KT 10SM FEW027 OVC042 00/M02 A2966 RMK AO2 SNB07E16 SLP036 P0000 T00001022,M
VGT,2024-02-02 16:53,-115.1933,36.2111,667.00,49.00,43.00,79.68,200.00,4.00,0.00,29.74,1008.80,10.00,M,OVC,M,M,M,5500.00,M,M,M,M,M,M,M,M,M,M,47.27,KVGT 021653Z 20004KT 10SM OVC055 09/06 A2974 RMK AO2 SLP088 T00940061,M
LOL,2024-02-02 16:53,-118.5701,40.0684,1192.43,31.00,30.00,96.02,0.00,0.00,0.00,29.76,1009.30,10.00,M,BKN,M,M,M,7500.00,M,M,M,M,M,M,M,M,M,M,31.00,KLOL 021653Z AUTO 00000KT 10SM BKN075 M01/M01 A2976 RMK AO2 SLP093 T10061011,M
BVU,2024-02-02 16:55,-114.8611,35.9475,671.00,50.00,39.20,66.27,220.00,8.00,0.00,29.76,M,10.00,M,SCT,SCT,SCT,M,4100.00,4800.00,6500.00,M,M,M,M,M,M,M,M,50.00,KBVU 021655Z AUTO 22008KT 10SM SCT041 SCT048 SCT065 10/04 A2976 RMK AO2,M
CXP,2024-02-02 16:55,-119.7326,39.1923,1431.00,35.60,30.20,80.51,240.00,6.00,0.00,29.78,M,10.00,M,FEW,SCT,BKN,M,800.00,4700.00,5500.00,M,M,M,M,M,M,M,M,29.87,KCXP 021655Z AUTO 24006KT 10SM FEW008 SCT047 BKN055 02/M01 A2978 RMK AO2,M
INS,2024-02-02 16:55,-115.6733,36.5872,955.00,44.60,39.20,81.20,230.00,5.00,0.00,29.75,1006.30,10.00,M,OVC,M,M,M,3500.00,M,M,M,M,M,M,M,M,M,M,41.36,KINS 021655Z AUTO 23005KT 10SM OVC035 07/04 A2975 RMK AO2 SLP063 T00700040,M
RNO,2024-02-02 16:55,-119.7711,39.4839,1341.00,37.00,27.00,66.82,0.00,0.00,0.00,29.76,1007.50,10.00,M,FEW,BKN,BKN,M,3000.00,5500.00,20000.00,M,M,M,M,M,M,M,M,37.00,KRNO 021655Z 00000KT 10SM FEW030 BKN055 BKN200 03/M03 A2976 RMK AO2 SLP075 T00281028 $,M
LSV,2024-02-02 16:55,-115.0343,36.2362,570.00,46.80,43.70,88.89,0.00,0.00,T,29.72,1006.20,10.00,M,SCT,M,M,M,6000.00,M,M,M,M,M,M,M,M,M,M,46.80,KLSV 021655Z AUTO 00000KT 10SM SCT060 08/07 A2972 RMK AO2 DZE02RAB02E06RAB11E20 SLP062 P0000 T00820065 $,M
RTS,2024-02-02 16:55,-119.8764,39.6682,1539.00,35.60,26.60,69.46,150.00,4.00,0.00,29.76,M,10.00,M,FEW,M,M,M,5000.00,M,M,M,M,M,M,M,M,M,M,31.62,KRTS 021655Z AUTO 15004KT 10SM FEW050 02/M03 A2976 RMK AO2,M
05U,2024-02-02 16:55,-116.0051,39.6042,1811.23,32.00,28.40,86.39,0.00,0.00,0.01,29.73,M,10.00,M,M,M,M,M,M,M,M,M,M,M,M,M,M,M,M,32.00,K05U 021655Z AUTO 00000KT 10SM 00/M02 A2973 RMK A01 P0001,M
MEV,2024-02-02 16:55,-119.7500,38.9963,1441.42,35.60,24.80,64.46,0.00,0.00,0.00,29.76,M,10.00,M,BKN,OVC,M,M,5000.00,6000.00,M,M,M,M,M,M,M,M,M,35.60,KMEV 021655Z AUTO 00000KT 10SM BKN050 OVC060 02/M04 A2976 RMK AO2,M
BAM,2024-02-02 16:55,-116.8743,40.5990,1382.36,37.40,33.80,86.69,240.00,8.00,0.00,29.73,M,10.00,M,SCT,M,M,M,4700.00,M,M,M,M,M,M,M,M,M,M,30.76,KBAM 021655Z AUTO 24008KT 10SM SCT047 03/01 A2973 RMK AO1,M
HTH,2024-02-02 16:55,-118.6315,38.5448,1282.89,37.40,32.00,80.65,0.00,0.00,0.00,29.78,M,10.00,M,CLR,M,M,M,M,M,M,M,M,M,M,M,M,M,M,37.40,KHTH 021655Z AUTO 00000KT 10SM CLR 03/00 A2978 RMK A01,M
EKO,2024-02-02 16:56,-115.7860,40.8242,1367.00,34.00,33.00,96.08,220.00,7.00,T,29.69,1006.30,8.00,M,FEW,BKN,OVC,M,900.00,1700.00,4300.00,M,M,M,M,M,M,M,M,27.22,KEKO 021656Z AUTO 22007KT 8SM FEW009 BKN017 OVC043 01/01 A2969 RMK AO2 SNE43B44E55 SLP063 P0000 T00110006,M
HND,2024-02-02 16:56,-115.1344,35.9729,742.79,48.00,37.00,65.51,210.00,13.00,0.00,29.76,1009.60,10.00,M,BKN,OVC,M,M,4000.00,7000.00,M,M,M,M,M,M,M,M,M,42.07,KHND 021656Z 21013KT 10SM BKN040 OVC070 09/03 A2976 RMK AO2 SLP096 T00890028,M
TPH,2024-02-02 16:56,-117.0904,38.0505,1654.00,36.00,30.00,78.60,310.00,14.00,0.00,29.74,1006.90,10.00,20.00,FEW,M,M,M,12000.00,M,M,M,M,M,M,M,M,M,M,26.32,KTPH 021656Z AUTO 31014G20KT 10SM FEW120 02/M01 A2974 RMK AO2 SLP069 T00221011,M
LAS,2024-02-02 16:56,-115.1634,36.0719,663.00,47.00,42.00,82.65,0.00,0.00,0.00,29.75,1007.00,10.00,M,FEW,SCT,BKN,M,1000.00,4000.00,6500.00,M,M,M,M,M,M,M,M,47.00,KLAS 021656Z 00000KT 10SM FEW010 SCT040 BKN065 08/06 A2975 RMK AO2 SLP070 T00830056,M
WMC,2024-02-02 16:56,-117.8072,40.9019,1315.00,38.00,31.00,75.65,0.00,0.00,0.00,29.74,1007.10,10.00,M,CLR,M,M,M,M,M,M,M,M,M,M,M,M,M,M,38.00,KWMC 021656Z AUTO 00000KT 10SM CLR 03/M01 A2974 RMK AO2 SLP071 T00331006,M
NFL,2024-02-02 16:56,-118.7010,39.4166,1199.00,36.00,33.00,88.73,150.00,5.00,0.00,29.76,1005.80,10.00,M,FEW,SCT,BKN,BKN,5000.00,7500.00,9500.00,15000.00,M,M,M,M,M,M,M,31.15,KNFL 021656Z COR 15005KT 10SM FEW050 SCT075 BKN095 BKN150 02/01 A2976 RMK AO2 SLP058 T00220006,M
INS,2024-02-02 16:58,-115.6733,36.5872,955.00,44.60,39.20,81.20,240.00,5.00,0.00,29.76,1006.70,10.00,M,OVC,M,M,M,3500.00,M,M,M,-DZ,M,M,M,M,M,M,41.36,KINS 021658Z AUTO 24005KT 10SM -DZ OVC035 07/04 A2976 RMK AO2 DZB58 SLP067,M
INS,2024-02-02 17:07,-115.6733,36.5872,955.00,44.60,39.20,81.20,210.00,5.00,0.00,29.76,1006.70,10.00,M,OVC,M,M,M,3300.00,M,M,M,M,M,M,M,M,M,M,41.36,KINS 021707Z AUTO 21005KT 10SM OVC033 07/04 A2976 RMK AO2 DZB1658E07 SLP067,M
BVU,2024-02-02 17:15,-114.8611,35.9475,671.00,50.00,37.40,61.76,210.00,10.00,0.00,29.76,M,10.00,M,FEW,FEW,BKN,M,4000.00,4900.00,7000.00,M,M,M,M,M,M,M,M,50.00,KBVU 021715Z AUTO 21010KT 10SM FEW040 FEW049 BKN070 10/03 A2976 RMK AO2,M
CXP,2024-02-02 17:15,-119.7326,39.1923,1431.00,37.40,28.40,69.67,190.00,4.00,0.00,29.78,M,10.00,M,FEW,FEW,BKN,M,4300.00,4800.00,6000.00,M,M,M,M,M,M,M,M,33.73,KCXP 021715Z AUTO 19004KT 10SM FEW043 FEW048 BKN060 03/M02 A2978 RMK AO2,M
EKO,2024-02-02 17:15,-115.7860,40.8242,1367.00,34.00,32.00,92.29,240.00,8.00,T,29.69,M,9.00,M,FEW,BKN,OVC,M,1000.00,4000.00,7000.00,M,M,M,M,M,M,M,M,26.58,KEKO 021715Z AUTO 24008KT 9SM FEW010 BKN040 OVC070 01/00 A2969 RMK AO2 SNB01E12 P0000 T00110000,M
RTS,2024-02-02 17:15,-119.8764,39.6682,1539.00,35.60,24.80,64.46,0.00,0.00,0.00,29.76,M,10.00,M,CLR,M,M,M,M,M,M,M,M,M,M,M,M,M,M,35.60,KRTS 021715Z AUTO 00000KT 10SM CLR 02/M04 A2976 RMK AO2,M
05U,2024-02-02 17:15,-116.0051,39.6042,1811.23,33.80,28.40,80.36,0.00,0.00,0.00,29.74,M,10.00,M,M,M,M,M,M,M,M,M,M,M,M,M,M,M,M,33.80,K05U 021715Z AUTO 00000KT 10SM 01/M02 A2974 RMK A01,M
MEV,2024-02-02 17:15,-119.7500,38.9963,1441.42,33.80,26.60,74.63,360.00,4.00,0.00,29.77,M,10.00,M,SCT,BKN,BKN,M,5000.00,6000.00,8000.00,M,M,M,M,M,M,M,M,29.52,KMEV 021715Z AUTO 36004KT 10SM SCT050 BKN060 BKN080 01/M03 A2977 RMK AO2,M
BAM,2024-02-02 17:15,-116.8743,40.5990,1382.36,37.40,33.80,86.69,240.00,8.00,0.00,29.73,M,10.00,M,SCT,M,M,M,4500.00,M,M,M,M,M,M,M,M,M,M,30.76,KBAM 021715Z AUTO 24008KT 10SM SCT045 03/01 A2973 RMK AO1,M
HTH,2024-02-02 17:15,-118.6315,38.5448,1282.89,39.20,32.00,75.16,0.00,0.00,0.00,29.78,M,10.00,M,CLR,M,M,M,M,M,M,M,M,M,M,M,M,M,M,39.20,KHTH 021715Z AUTO 00000KT 10SM CLR 04/00 A2978 RMK A01,M
TMT,2024-02-02 17:15,-117.1971,39.4643,1749.34,31.00,29.00,92.19,0.00,0.00,0.00,29.76,M,10.00,M,OVC,M,M,M,5000.00,M,M,M,M,M,M,M,M,M,M,31.00,KTMT 021715Z AUTO 00000KT 10SM OVC050 00/M02 A2976 RMK AO2 T10051017,M
INS,2024-02-02 17:21,-115.6733,36.5872,955.00,46.40,39.20,75.84,240.00,11.00,0.00,29.76,1006.70,10.00,M,BKN,BKN,OVC,M,3300.00,4400.00,6000.00,M,-RA,M,M,M,M,M,M,40.66,KINS 021721Z AUTO 24011KT 10SM -RA BKN033 BKN044 OVC060 08/04 A2976 RMK AO2 DZB1658E07RAB21 SLP067,M
05U,2024-02-02 17:30,-116.0051,39.6042,1811.23,33.80,28.40,80.36,300.00,3.00,0.00,29.74,M,10.00,M,M,M,M,M,M,M,M,M,M,M,M,M,M,M,M,30.75,K05U 021730Z AUTO 30003KT 10SM 01/M02 A2974 RMK A01,M
INS,2024-02-02 17:31,-115.6733,36.5872,955.00,46.40,39.20,75.84,250.00,11.00,0.00,29.76,1006.70,10.00,M,SCT,BKN,BKN,BKN,3500.00,4300.00,5000.00,6500.00,M,M,M,M,M,M,M,40.66,KINS 021731Z AUTO 25011KT 10SM SCT035 BKN043 BKN050 BKN065 OVC080 08/04 A2976 RMK AO2 DZB1658E07RAB21E31 SLP067,M
BVU,2024-02-02 17:35,-114.8611,35.9475,671.00,51.80,37.40,57.77,200.00,11.00,0.00,29.76,M,10.00,M,BKN,OVC,M,M,5000.00,6500.00,M,M,M,M,M,M,M,M,M,51.80,KBVU 021735Z AUTO 20011KT 10SM BKN050 OVC065 11/03 A2976 RMK AO2,M
CXP,2024-02-02 17:35,-119.7326,39.1923,1431.00,37.40,30.20,74.98,0.00,0.00,0.00,29.79,M,10.00,M,OVC,M,M,M,5500.00,M,M,M,M,M,M,M,M,M,M,37.40,KCXP 021735Z AUTO 00000KT 10SM OVC055 03/M01 A2979 RMK AO2,M
RTS,2024-02-02 17:35,-119.8764,39.6682,1539.00,37.40,24.80,60.04,230.00,8.00,0.00,29.77,M,10.00,M,CLR,M,M,M,M,M,M,M,M,M,M,M,M,M,M,30.76,KRTS 021735Z AUTO 23008KT 10SM CLR 03/M04 A2977 RMK AO2,M
MEV,2024-02-02 17:35,-119.7500,38.9963,1441.42,35.60,24.80,64.46,360.00,5.00,0.00,29.77,M,10.00,M,FEW,FEW,BKN,M,1500.00,2200.00,5500.00,M,M,M,M,M,M,M,M,30.67,KMEV 021735Z AUTO 36005KT 10SM FEW015 FEW022 BKN055 02/M04 A2977 RMK AO2,M
BAM,2024-02-02 17:35,-116.8743,40.5990,1382.36,39.20,33.80,80.79,240.00,8.00,0.00,29.74,M,10.00,M,SCT,M,M,M,4300.00,M,M,M,M,M,M,M,M,M,M,32.98,KBAM 021735Z AUTO 24008KT 10SM SCT043 04/01 A2974 RMK AO1,M
HTH,2024-02-02 17:35,-118.6315,38.5448,1282.89,41.00,32.00,70.08,0.00,0.00,0.00,29.79,M,10.00,M,CLR,M,M,M,M,M,M,M,M,M,M,M,M,M,M,41.00,KHTH 021735Z AUTO 00000KT 10SM CLR 05/00 A2979 RMK A01,M
TMT,2024-02-02 17:35,-117.1971,39.4643,1749.34,31.50,29.00,90.34,0.00,0.00,0.00,29.76,M,10.00,M,OVC,M,M,M,5000.00,M,M,M,M,M,M,M,M,M,M,31.50,KTMT 021735Z AUTO 00000KT 10SM OVC050 00/M02 A2976 RMK AO2 T10031017,M
P68,2024-02-02 17:53,-116.0056,39.6014,1993.00,34.00,29.00,81.71,0.00,0.00,0.00,29.72,1005.30,M,M,M,M,M,M,M,M,M,M,M,M,M,M,M,M,M,34.00,KP68 021753Z AUTO 00000KT 01/M02 A2972 RMK AO1 SLP053 T00111017 10017 21039 53010,M
DRA,2024-02-02 17:53,-116.0278,36.6206,1009.00,43.00,40.00,89.06,240.00,10.00,0.00,29.78,1007.20,10.00,M,OVC,M,M,M,2300.00,M,M,M,M,M,M,M,M,M,M,36.76,KDRA 021753Z AUTO 24010KT 10SM OVC023 06/04 A2978 RMK AO2 SLP072 60002 T00610044 10061 20050 53019,M
ELY,2024-02-02 17:53,-114.8453,39.2950,1909.00,33.00,28.00,81.63,290.00,9.00,0.00,29.68,1004.20,10.00,M,FEW,OVC,M,M,3100.00,4600.00,M,M,M,M,M,M,M,M,M,24.76,KELY 021753Z AUTO 29009KT 10SM FEW031 OVC046 01/M02 A2968 RMK AO2 SLP042 60000 T00061022 10006 21011 51014,M
VGT,2024-02-02 17:53,-115.1933,36.2111,667.00,50.00,43.00,76.76,200.00,3.00,0.00,29.77,1009.80,10.00,M,OVC,M,M,M,4600.00,M,M,M,M,M,M,M,M,M,M,50.00,KVGT 021753Z 20003KT 10SM OVC046 10/06 A2977 RMK AO2 SLP098 60001 T01000061 10106 20067 53020,M
LOL,2024-02-02 17:53,-118.5701,40.0684,1192.43,34.00,33.00,96.08,0.00,0.00,0.00,29.77,1009.80,10.00,M,BKN,BKN,M,M,7000.00,9000.00,M,M,M,M,M,0.02,M,M,M,34.00,KLOL 021753Z AUTO 00000KT 10SM BKN070 BKN090 01/01 A2977 RMK AO2 SLP098 I6002 T00110006 10011 21033 51011,M
BVU,2024-02-02 17:55,-114.8611,35.9475,671.00,51.80,37.40,57.77,210.00,9.00,0.00,29.77,M,10.00,M,FEW,OVC,M,M,5000.00,6500.00,M,M,M,M,M,M,M,M,M,51.80,KBVU 021755Z AUTO 21009KT 10SM FEW050 OVC065 11/03 A2977 RMK AO2,M
CXP,2024-02-02 17:55,-119.7326,39.1923,1431.00,39.20,30.20,69.88,0.00,0.00,0.00,29.79,M,10.00,M,BKN,BKN,BKN,M,5500.00,7000.00,8000.00,M,M,M,M,M,M,M,M,39.20,KCXP 021755Z AUTO 00000KT 10SM BKN055 BKN070 BKN080 04/M01 A2979 RMK AO2,M
INS,2024-02-02 17:55,-115.6733,36.5872,955.00,47.50,37.40,67.81,250.00,10.00,T,29.77,1006.80,10.00,M,SCT,OVC,M,M,3500.00,4300.00,M,M,M,M,M,M,M,M,M,42.41,KINS 021755Z AUTO 25010KT 10SM SCT035 OVC043 09/03 A2977 RMK AO2 DZB1658E07RAB21E31 SLP068 P0000 60001 T00860030 10086 20043 52019,M
RNO,2024-02-02 17:55,-119.7711,39.4839,1341.00,38.00,27.00,64.24,0.00,0.00,0.00,29.77,1007.70,10.00,M,BKN,BKN,M,M,5500.00,20000.00,M,M,M,M,M,M,M,M,M,38.00,KRNO 021755Z 00000KT 10SM BKN055 BKN200 03/M03 A2977 RMK AO2 SLP077 T00331028 10033 21011 51008 $,M
LSV,2024-02-02 17:55,-115.0343,36.2362,570.00,51.00,41.70,70.36,200.00,9.00,0.00,29.74,1006.60,10.00,M,BKN,M,M,M,5000.00,M,M,M,M,M,M,M,M,M,M,51.00,KLSV 021755Z AUTO 20009KT 10SM BKN050 11/05 A2974 RMK AO2 SLP066 60000 T01060054 10106 20066 52017 $,M
RTS,2024-02-02 17:55,-119.8764,39.6682,1539.00,37.40,23.00,55.68,230.00,10.00,0.00,29.77,M,10.00,M,BKN,BKN,M,M,4600.00,5500.00,M,M,M,M,M,M,M,M,M,29.74,KRTS 021755Z AUTO 23010KT 10SM BKN046 BKN055 03/M05 A2977 RMK AO2,M
05U,2024-02-02 17:55,-116.0051,39.6042,1811.23,35.60,28.40,74.80,0.00,0.00,0.06,29.74,M,10.00,M,M,M,M,M,M,M,M,M,M,M,M,M,M,M,M,35.60,K05U 021755Z AUTO 00000KT 10SM 02/M02 A2974 RMK A01 P0006,M
MEV,2024-02-02 17:55,-119.7500,38.9963,1441.42,39.20,26.60,60.29,350.00,3.00,0.00,29.78,M,10.00,M,FEW,BKN,M,M,2200.00,5500.00,M,M,M,M,M,M,M,M,M,36.92,KMEV 021755Z AUTO 35003KT 10SM FEW022 BKN055 04/M03 A2978 RMK AO2,M
BAM,2024-02-02 17:55,-116.8743,40.5990,1382.36,41.00,33.80,75.33,240.00,7.00,0.00,29.75,M,10.00,M,CLR,M,M,M,M,M,M,M,M,M,M,M,M,M,M,35.75,KBAM 021755Z AUTO 24007KT 10SM CLR 05/01 A2975 RMK AO1,M
HTH,2024-02-02 17:55,-118.6315,38.5448,1282.89,42.80,32.00,65.38,0.00,0.00,0.00,29.79,M,10.00,M,CLR,M,M,M,M,M,M,M,M,M,M,M,M,M,M,42.80,KHTH 021755Z AUTO 00000KT 10SM CLR 06/00 A2979 RMK A01,M
TMT,2024-02-02 17:55,-117.1971,39.4643,1749.34,31.60,29.50,91.83,0.00,0.00,0.00,29.77,M,10.00,M,SCT,M,M,M,5000.00,M,M,M,M,M,M,M,M,M,M,31.60,KTMT 021755Z AUTO 00000KT 10SM SCT050 00/M01 A2977 RMK AO2 T10021014 11002 21041,M
EKO,2024-02-02 17:56,-115.7860,40.8242,1367.00,36.00,30.00,78.60,260.00,10.00,T,29.71,1006.60,10.00,M,OVC,M,M,M,5500.00,M,M,M,M,M,M,M,M,M,M,27.98,KEKO 021756Z AUTO 26010KT 10SM OVC055 02/M01 A2971 RMK AO2 SNB01E12 SLP066 P0000 60001 T00221011 10022 20006 51014,M
NFL,2024-02-02 17:56,-118.7010,39.4166,1199.00,40.00,34.00,78.94,150.00,6.00,0.00,29.77,1006.10,10.00,M,SCT,BKN,BKN,BKN,5000.00,7000.00,10000.00,15000.00,M,M,M,M,M,M,M,35.17,KNFL 021756Z 15006KT 10SM SCT050 BKN070 BKN100 BKN150 04/01 A2977 RMK AO2 SLP061 T00440011 10044 21017 51011,M
HND,2024-02-02 17:56,-115.1344,35.9729,742.79,50.00,37.00,60.79,220.00,14.00,0.00,29.79,1010.40,10.00,M,BKN,OVC,M,M,4400.00,9000.00,M,M,M,M,M,M,M,M,M,50.00,KHND 021756Z 22014KT 10SM BKN044 OVC090 10/03 A2979 RMK AO2 SLP104 60000 T01000028 10106 20078 51020,M
TPH,2024-02-02 17:56,-117.0904,38.0505,1654.00,39.00,27.00,61.78,320.00,17.00,0.00,29.76,1007.20,10.00,22.00,CLR,M,M,M,M,M,M,M,M,M,M,M,M,M,M,29.25,KTPH 021756Z AUTO 32017G22KT 10SM CLR 04/M03 A2976 RMK AO2 SLP072 T00391028 10039 20006 52014,M
LAS,2024-02-02 17:56,-115.1634,36.0719,663.00,51.00,40.00,65.87,0.00,0.00,T,29.77,1007.70,10.00,M,FEW,BKN,BKN,M,1500.00,4000.00,6500.00,M,-RA,M,M,M,M,M,M,51.00,KLAS 021756Z 00000KT 10SM -RA FEW015 BKN040 BKN065 11/04 A2977 RMK AO2 RAB52 SLP077 P0000 60000 T01060044 10106 20061 51021,M
WMC,2024-02-02 17:56,-117.8072,40.9019,1315.00,42.00,30.00,62.18,180.00,5.00,0.00,29.75,1007.00,10.00,M,CLR,M,M,M,M,M,M,M,M,M,M,M,M,M,M,38.27,KWMC 021756Z AUTO 18005KT 10SM CLR 06/M01 A2975 RMK AO2 SLP070 T00561011 10056 21017 51010,M
LSV,2024-02-02 18:05,-115.0343,36.2362,570.00,50.00,42.80,76.18,200.00,10.00,0.00,29.75,1007.10,10.00,M,BKN,M,M,M,4800.00,M,M,M,M,M,M,M,M,M,M,50.00,KLSV 021805Z AUTO 20010KT 10SM BKN048 10/06 A2975 RMK AO2 SLP071 $,M
BVU,2024-02-02 18:15,-114.8611,35.9475,671.00,51.80,37.40,57.77,210.00,11.00,0.00,29.77,M,10.00,M,FEW,BKN,M,M,5000.00,6000.00,M,M,M,M,M,M,M,M,M,51.80,KBVU 021815Z AUTO 21011KT 10SM FEW050 BKN060 11/03 A2977 RMK AO2,M
CXP,2024-02-02 18:15,-119.7326,39.1923,1431.00,39.20,26.60,60.29,0.00,0.00,0.00,29.79,M,10.00,M,FEW,FEW,FEW,M,5500.00,6500.00,8000.00,M,M,M,M,M,M,M,M,39.20,KCXP 021815Z AUTO 00000KT 10SM FEW055 FEW065 FEW080 04/M03 A2979 RMK AO2,M
RTS,2024-02-02 18:15,-119.8764,39.6682,1539.00,39.20,23.00,51.89,220.00,9.00,0.00,29.77,M,10.00,M,SCT,M,M,M,4500.00,M,M,M,M,M,M,M,M,M,M,32.47,KRTS 021815Z AUTO 22009KT 10SM SCT045 04/M05 A2977 RMK AO2,M
05U,2024-02-02 18:15,-116.0051,39.6042,1811.23,35.60,28.40,74.80,60.00,3.00,0.00,29.75,M,10.00,M,M,M,M,M,M,M,M,M,M,M,M,M,M,M,M,32.80,K05U 021815Z AUTO 06003KT 10SM 02/M02 A2975 RMK A01,M
MEV,2024-02-02 18:15,-119.7500,38.9963,1441.42,41.00,26.60,56.22,0.00,0.00,0.00,29.78,M,10.00,M,FEW,M,M,M,5000.00,M,M,M,M,M,M,M,M,M,M,41.00,KMEV 021815Z AUTO 00000KT 10SM FEW050 05/M03 A2978 RMK AO2,M
BAM,2024-02-02 18:15,-116.8743,40.5990,1382.36,41.00,33.80,75.33,230.00,9.00,0.00,29.76,M,10.00,M,CLR,M,M,M,M,M,M,M,M,M,M,M,M,M,M,34.70,KBAM 021815Z AUTO 23009KT 10SM CLR 05/01 A2976 RMK AO1,M
HTH,2024-02-02 18:15,-118.6315,38.5448,1282.89,42.80,32.00,65.38,0.00,0.00,0.00,29.79,M,10.00,M,CLR,M,M,M,M,M,M,M,M,M,M,M,M,M,M,42.80,KHTH 021815Z AUTO 00000KT 10SM CLR 06/M00 A2979 RMK A01,M
TMT,2024-02-02 18:15,-117.1971,39.4643,1749.34,32.00,29.70,91.10,260.00,3.00,0.00,29.78,M,10.00,M,BKN,BKN,M,M,4100.00,5000.00,M,M,M,M,M,M,M,M,M,28.69,KTMT 021815Z AUTO 26003KT 10SM BKN041 BKN050 00/M01 A2978 RMK AO2 T00001013,M
BVU,2024-02-02 18:35,-114.8611,35.9475,671.00,51.80,37.40,57.77,250.00,9.00,0.00,29.78,M,10.00,M,SCT,BKN,BKN,M,4400.00,5000.00,6000.00,M,M,M,M,M,M,M,M,51.80,KBVU 021835Z AUTO 25009KT 10SM SCT044 BKN050 BKN060 11/03 A2978 RMK AO2,M
CXP,2024-02-02 18:35,-119.7326,39.1923,1431.00,42.80,24.80,48.67,M,4.00,0.00,29.79,M,10.00,12.00,SCT,SCT,M,M,4600.00,5500.00,M,M,M,M,M,M,M,M,M,40.03,KCXP 021835Z AUTO VRB04G12KT 10SM SCT046 SCT055 06/M04 A2979 RMK AO2,M
RTS,2024-02-02 18:35,-119.8764,39.6682,1539.00,39.20,23.00,51.89,220.00,9.00,0.00,29.78,M,10.00,14.00,CLR,M,M,M,M,M,M,M,M,M,M,M,M,M,M,32.47,KRTS 021835Z AUTO 22009G14KT 10SM CLR 04/M05 A2978 RMK AO2,M
05U,2024-02-02 18:35,-116.0051,39.6042,1811.23,35.60,28.40,74.80,70.00,6.00,0.00,29.75,M,10.00,M,M,M,M,M,M,M,M,M,M,M,M,M,M,M,M,29.87,K05U 021835Z AUTO 07006KT 10SM 02/M02 A2975 RMK A01,M
MEV,2024-02-02 18:35,-119.7500,38.9963,1441.42,42.80,26.60,52.45,110.00,4.00,0.00,29.77,M,10.00,M,CLR,M,M,M,M,M,M,M,M,M,M,M,M,M,M,40.03,KMEV 021835Z AUTO 11004KT 10SM CLR 06/M03 A2977 RMK AO2,M
BAM,2024-02-02 18:35,-116.8743,40.5990,1382.36,41.00,33.80,75.33,230.00,6.00,0.00,29.76,M,10.00,M,CLR,M,M,M,M,M,M,M,M,M,M,M,M,M,M,36.37,KBAM 021835Z AUTO 23006KT 10SM CLR 05/01 A2976 RMK AO1,M
HTH,2024-02-02 18:35,-118.6315,38.5448,1282.89,44.60,30.20,56.74,0.00,0.00,0.00,29.80,M,10.00,M,CLR,M,M,M,M,M,M,M,M,M,M,M,M,M,M,44.60,KHTH 021835Z AUTO 00000KT 10SM CLR 07/M01 A2980 RMK A01,M
TMT,2024-02-02 18:35,-117.1971,39.4643,1749.34,33.00,30.00,88.58,220.00,5.00,0.00,29.78,M,10.00,M,OVC,M,M,M,3900.00,M,M,M,M,M,M,M,M,M,M,27.58,KTMT 021835Z AUTO 22005KT 10SM OVC039 01/M01 A2978 RMK AO2 T00051012,M
P68,2024-02-02 18:53,-116.0056,39.6014,1993.00,34.00,28.00,78.43,290.00,6.00,0.00,29.73,1005.70,M,M,M,M,M,M,M,M,M,M,M,M,M,M,M,M,M,27.94,KP68 021853Z AUTO 29006KT 01/M02 A2973 RMK AO1 SLP057 T00111022,M
DRA,2024-02-02 18:53,-116.0278,36.6206,1009.00,48.00,41.00,76.58,230.00,10.00,0.00,29.79,1007.30,10.00,M,BKN,OVC,M,M,2100.00,2700.00,M,M,M,M,M,M,M,M,M,43.03,KDRA 021853Z AUTO 23010KT 10SM BKN021 OVC027 09/05 A2979 RMK AO2 SLP073 T00890050,M
ELY,2024-02-02 18:53,-114.8453,39.2950,1909.00,34.00,27.00,75.26,310.00,13.00,0.00,29.68,1004.00,10.00,19.00,OVC,M,M,M,3400.00,M,M,M,M,M,M,M,M,M,M,24.13,KELY 021853Z AUTO 31013G19KT 10SM OVC034 01/M03 A2968 RMK AO2 SLP040 T00111028,M
VGT,2024-02-02 18:53,-115.1933,36.2111,667.00,51.00,43.00,73.97,0.00,0.00,T,29.77,1009.90,10.00,M,OVC,M,M,M,8500.00,M,M,M,M,M,M,M,M,M,M,51.00,KVGT 021853Z 00000KT 10SM OVC085 11/06 A2977 RMK AO2 RAB1755E11 SLP099 P0000 T01060061,M
LOL,2024-02-02 18:53,-118.5701,40.0684,1192.43,41.00,36.00,82.22,180.00,5.00,0.00,29.78,1009.40,10.00,M,SCT,OVC,M,M,6000.00,11000.00,M,M,M,M,M,M,M,M,M,37.08,KLOL 021853Z AUTO 18005KT 10SM SCT060 OVC110 05/02 A2978 RMK AO2 SLP094 T00500022,M
BVU,2024-02-02 18:55,-114.8611,35.9475,671.00,51.80,37.40,57.77,250.00,7.00,0.00,29.78,M,10.00,M,OVC,M,M,M,4200.00,M,M,M,M,M,M,M,M,M,M,51.80,KBVU 021855Z AUTO 25007KT 10SM OVC042 11/03 A2978 RMK AO2,M
CXP,2024-02-02 18:55,-119.7326,39.1923,1431.00,44.60,24.80,45.44,180.00,7.00,0.00,29.78,M,10.00,M,SCT,M,M,M,4900.00,M,M,M,M,M,M,M,M,M,M,40.14,KCXP 021855Z AUTO 18007KT 160V220 10SM SCT049 07/M04 A2978 RMK AO2,M
INS,2024-02-02 18:55,-115.6733,36.5872,955.00,48.00,38.30,68.94,240.00,14.00,0.00,29.78,1007.40,10.00,M,SCT,OVC,M,M,5500.00,9000.00,M,M,M,M,M,M,M,M,M,41.79,KINS 021855Z AUTO 24014KT 10SM SCT055 OVC090 09/04 A2978 RMK AO2 SLP074 T00890035,M
RNO,2024-02-02 18:55,-119.7711,39.4839,1341.00,43.00,29.00,57.44,0.00,0.00,0.00,29.78,1007.90,10.00,M,SCT,BKN,M,M,6500.00,20000.00,M,M,M,M,M,M,M,M,M,43.00,KRNO 021855Z 00000KT 10SM SCT065 BKN200 06/M02 A2978 RMK AO2 SLP079 T00611017 $,M
LSV,2024-02-02 18:55,-115.0343,36.2362,570.00,52.30,42.80,69.96,200.00,9.00,0.00,29.75,1007.10,10.00,M,SCT,M,M,M,4200.00,M,M,M,M,M,M,M,M,M,M,52.30,KLSV 021855Z AUTO 20009KT 10SM SCT042 11/06 A2975 RMK AO2 SLP071 T01130060 $,M
RTS,2024-02-02 18:55,-119.8764,39.6682,1539.00,41.00,23.00,48.39,230.00,11.00,0.00,29.77,M,10.00,M,SCT,SCT,M,M,4700.00,5500.00,M,M,M,M,M,M,M,M,M,33.84,KRTS 021855Z AUTO 23011KT 10SM SCT047 SCT055 05/M05 A2977 RMK AO2,M
05U,2024-02-02 18:55,-116.0051,39.6042,1811.23,35.60,28.40,74.80,90.00,6.00,0.02,29.75,M,10.00,11.00,M,M,M,M,M,M,M,M,M,M,M,M,M,M,M,29.87,K05U 021855Z AUTO 09006G11KT 10SM 02/M02 A2975 RMK A01 P0002,M
MEV,2024-02-02 18:55,-119.7500,38.9963,1441.42,42.80,24.80,48.67,0.00,0.00,0.00,29.77,M,10.00,M,CLR,M,M,M,M,M,M,M,M,M,M,M,M,M,M,42.80,KMEV 021855Z AUTO 00000KT 10SM CLR 06/M04 A2977 RMK AO2,M
BAM,2024-02-02 18:55,-116.8743,40.5990,1382.36,42.80,32.00,65.38,210.00,5.00,0.00,29.76,M,10.00,M,CLR,M,M,M,M,M,M,M,M,M,M,M,M,M,M,39.22,KBAM 021855Z AUTO 21005KT 10SM CLR 06/00 A2976 RMK AO1,M
HTH,2024-02-02 18:55,-118.6315,38.5448,1282.89,44.60,28.40,52.72,0.00,0.00,0.00,29.79,M,10.00,M,CLR,M,M,M,M,M,M,M,M,M,M,M,M,M,M,44.60,KHTH 021855Z AUTO 00000KT 10SM CLR 07/M02 A2979 RMK A01,M
EKO,2024-02-02 18:56,-115.7860,40.8242,1367.00,37.00,31.00,78.69,260.00,10.00,0.00,29.72,1006.90,10.00,M,OVC,M,M,M,6000.00,M,M,M,M,M,M,M,M,M,M,29.24,KEKO 021856Z AUTO 26010KT 10SM OVC060 03/M01 A2972 RMK AO2 SLP069 T00281006,M
NFL,2024-02-02 18:56,-118.7010,39.4166,1199.00,42.00,32.00,67.42,0.00,0.00,0.00,29.78,1006.40,10.00,M,SCT,BKN,BKN,M,5000.00,7000.00,12000.00,M,M,M,M,M,M,M,M,42.00,KNFL 021856Z 00000KT 10SM SCT050 BKN070 BKN120 06/00 A2978 RMK AO2 SLP064 T00560000,M
HND,2024-02-02 18:56,-115.1344,35.9729,742.79,51.00,37.00,58.58,250.00,7.00,T,29.80,1010.90,10.00,M,SCT,OVC,M,M,4000.00,5000.00,M,M,-RA,M,M,M,M,M,M,51.00,KHND 021856Z 25007KT 10SM -RA SCT040 OVC050 11/03 A2980 RMK AO2 WSHFT 1835 RAB22 SLP109 P0000 T01060028,M
TPH,2024-02-02 18:56,-117.0904,38.0505,1654.00,39.00,28.00,64.37,310.00,11.00,0.00,29.77,1007.60,10.00,M,CLR,M,M,M,M,M,M,M,M,M,M,M,M,M,M,31.31,KTPH 021856Z AUTO 31011KT 10SM CLR 04/M02 A2977 RMK AO2 SLP076 T00391022,M
LAS,2024-02-02 18:56,-115.1634,36.0719,663.00,51.00,38.00,60.92,280.00,10.00,T,29.78,1008.00,10.00,M,FEW,BKN,BKN,BKN,3900.00,4800.00,6500.00,25000.00,-RA,M,M,M,M,M,M,51.00,KLAS 021856Z 28010KT 10SM -RA FEW039 BKN048 BKN065 BKN250 11/03 A2978 RMK AO2 SLP080 P0000 T01060033,M
WMC,2024-02-02 18:56,-117.8072,40.9019,1315.00,45.00,30.00,55.43,M,4.00,0.00,29.75,1007.20,10.00,M,FEW,BKN,M,M,3300.00,6500.00,M,M,M,M,M,M,M,M,M,42.60,KWMC 021856Z AUTO VRB04KT 10SM FEW033 BKN065 07/M01 A2975 RMK AO2 SLP072 T00721011,M
DRA,2024-02-02 19:10,-116.0278,36.6206,1009.00,48.00,40.00,73.67,220.00,10.00,0.00,29.79,M,10.00,M,FEW,SCT,BKN,M,1900.00,2500.00,10000.00,M,M,M,M,M,M,M,M,43.03,KDRA 021910Z AUTO 22010KT 10SM FEW019 SCT025 BKN100 09/04 A2979 RMK AO2 T00890044,M
05U,2024-02-02 19:10,-116.0051,39.6042,1811.23,35.60,28.40,74.80,100.00,6.00,0.00,29.75,M,10.00,M,M,M,M,M,M,M,M,M,M,M,M,M,M,M,M,29.87,K05U 021910Z AUTO 10006KT 10SM 02/M02 A2975 RMK A01,M
HTH,2024-02-02 19:10,-118.6315,38.5448,1282.89,44.60,28.40,52.72,30.00,3.00,0.00,29.79,M,10.00,M,SCT,M,M,M,7000.00,M,M,M,M,M,M,M,M,M,M,43.09,KHTH 021910Z AUTO 03003KT 10SM SCT070 07/M02 A2979 RMK A01,M
BVU,2024-02-02 19:15,-114.8611,35.9475,671.00,51.80,37.40,57.77,260.00,9.00,0.00,29.78,M,10.00,M,FEW,OVC,M,M,2600.00,4300.00,M,M,M,M,M,M,M,M,M,51.80,KBVU 021915Z AUTO 26009KT 10SM FEW026 OVC043 11/03 A2978 RMK AO2,M
CXP,2024-02-02 19:15,-119.7326,39.1923,1431.00,42.80,24.80,48.67,230.00,7.00,0.00,29.79,M,10.00,M,FEW,SCT,BKN,M,4200.00,4800.00,5500.00,M,M,M,M,M,M,M,M,37.94,KCXP 021915Z AUTO 23007KT 10SM FEW042 SCT048 BKN055 06/M04 A2979 RMK AO2,M
RTS,2024-02-02 19:15,-119.8764,39.6682,1539.00,41.00,21.20,44.85,220.00,9.00,0.00,29.77,M,10.00,16.00,BKN,BKN,M,M,4800.00,5500.00,M,M,M,M,M,M,M,M,M,34.70,KRTS 021915Z AUTO 22009G16KT 10SM BKN048 BKN055 05/M06 A2977 RMK AO2,M
MEV,2024-02-02 19:15,-119.7500,38.9963,1441.42,42.80,23.00,45.14,250.00,7.00,0.00,29.77,M,10.00,M,FEW,FEW,M,M,4900.00,5500.00,M,M,M,M,M,M,M,M,M,37.94,KMEV 021915Z AUTO 25007KT 200V280 10SM FEW049 FEW055 06/M05 A2977 RMK AO2,M
BAM,2024-02-02 19:15,-116.8743,40.5990,1382.36,42.80,32.00,65.38,0.00,0.00,0.00,29.76,M,10.00,M,SCT,SCT,M,M,3700.00,4200.00,M,M,M,M,M,M,M,M,M,42.80,KBAM 021915Z AUTO 00000KT 10SM SCT037 SCT042 06/00 A2976 RMK AO1,M
TMT,2024-02-02 19:15,-117.1971,39.4643,1749.34,34.00,29.30,82.71,230.00,5.00,0.00,29.78,M,10.00,M,OVC,M,M,M,4600.00,M,M,M,M,M,M,M,M,M,M,28.77,KTMT 021915Z AUTO 23005KT 10SM OVC046 01/M01 A2978 RMK AO2 T00111015,M
05U,2024-02-02 19:25,-116.0051,39.6042,1811.23,35.60,28.40,74.80,100.00,7.00,0.00,29.75,M,10.00,13.00,M,M,M,M,M,M,M,M,M,M,M,M,M,M,M,29.17,K05U 021925Z AUTO 10007G13KT 10SM 02/M02 A2975 RMK A01,M
CXP,2024-02-02 19:30,-119.7326,39.1923,1431.00,42.80,23.00,45.14,M,5.00,0.00,29.78,M,10.00,M,FEW,SCT,SCT,M,4400.00,5000.00,6000.00,M,M,M,M,M,M,M,M,39.22,KCXP 021930Z AUTO VRB05KT 10SM FEW044 SCT050 SCT060 06/M05 A2978 RMK AO2,M
HTH,2024-02-02 19:30,-118.6315,38.5448,1282.89,44.60,32.00,61.03,330.00,6.00,0.00,29.78,M,10.00,M,SCT,BKN,M,M,7000.00,8000.00,M,M,M,M,M,M,M,M,M,40.71,KHTH 021930Z AUTO 33006KT 10SM SCT070 BKN080 07/M00 A2978 RMK A01,M
BVU,2024-02-02 19:35,-114.8611,35.9475,671.00,51.80,37.40,57.77,250.00,9.00,0.00,29.77,M,10.00,M,OVC,M,M,M,4500.00,M,M,M,M,M,M,M,M,M,M,51.80,KBVU 021935Z AUTO 25009KT 10SM OVC045 11/03 A2977 RMK AO2,M
RTS,2024-02-02 19:35,-119.8764,39.6682,1539.00,41.00,19.40,41.54,220.00,11.00,0.00,29.76,M,10.00,M,FEW,M,M,M,4900.00,M,M,M,M,M,M,M,M,M,M,33.84,KRTS 021935Z AUTO 22011KT 10SM FEW049 05/M07 A2976 RMK AO2,M
MEV,2024-02-02 19:35,-119.7500,38.9963,1441.42,42.80,23.00,45.14,260.00,11.00,0.00,29.77,M,10.00,M,BKN,BKN,M,M,4500.00,5500.00,M,M,M,M,M,M,M,M,M,36.11,KMEV 021935Z AUTO 26011KT 10SM BKN045 BKN055 06/M05 A2977 RMK AO2,M
BAM,2024-02-02 19:35,-116.8743,40.5990,1382.36,44.60,32.00,61.03,0.00,0.00,0.00,29.75,M,10.00,M,SCT,BKN,M,M,3500.00,4200.00,M,M,M,M,M,M,M,M,M,44.60,KBAM 021935Z AUTO 00000KT 10SM SCT035 BKN042 07/00 A2975 RMK AO1,M
TMT,2024-02-02 19:35,-117.1971,39.4643,1749.34,35.60,28.80,76.04,220.00,5.00,0.00,29.77,M,10.00,M,BKN,BKN,M,M,4800.00,6000.00,M,M,M,M,M,M,M,M,M,30.67,KTMT 021935Z AUTO 22005KT 10SM BKN048 BKN060 02/M02 A2977 RMK AO2 T00201018,M
DRA,2024-02-02 19:39,-116.0278,36.6206,1009.00,49.00,40.00,70.96,230.00,10.00,0.00,29.78,M,10.00,M,SCT,BKN,M,M,1900.00,2500.00,M,M,M,M,M,M,M,M,M,44.29,KDRA 021939Z AUTO 23010KT 10SM SCT019 BKN025 09/04 A2978 RMK AO2 T00940044,M
P68,2024-02-02 19:53,-116.0056,39.6014,1993.00,35.00,27.00,72.32,280.00,12.00,0.00,29.72,1005.30,M,M,M,M,M,M,M,M,M,M,M,M,M,M,M,M,M,25.82,KP68 021953Z AUTO 28012KT 02/M03 A2972 RMK AO1 SLP053 T00171028,M
DRA,2024-02-02 19:53,-116.0278,36.6206,1009.00,49.00,40.00,70.96,230.00,13.00,0.00,29.77,1006.70,10.00,M,SCT,SCT,BKN,M,2000.00,2500.00,3300.00,M,M,M,M,M,M,M,M,43.35,KDRA 021953Z AUTO 23013KT 10SM SCT020 SCT025 BKN033 09/04 A2977 RMK AO2 SLP067 T00940044,M
ELY,2024-02-02 19:53,-114.8453,39.2950,1909.00,35.00,26.00,69.39,290.00,11.00,0.00,29.68,1003.90,10.00,M,FEW,OVC,M,M,2900.00,4200.00,M,M,M,M,M,M,M,M,M,26.26,KELY 021953Z AUTO 29011KT 10SM FEW029 OVC042 02/M03 A2968 RMK AO2 SLP039 T00171033,M
VGT,2024-02-02 19:53,-115.1933,36.2111,667.00,53.00,43.00,68.71,160.00,7.00,0.00,29.75,1009.10,10.00,M,SCT,M,M,M,11000.00,M,M,M,M,M,M,M,M,M,M,53.00,KVGT 021953Z 16007KT 10SM SCT110 12/06 A2975 RMK AO2 SLP091 T01170061,M
LOL,2024-02-02 19:53,-118.5701,40.0684,1192.43,42.00,34.00,73.06,200.00,5.00,0.00,29.76,1008.90,10.00,M,OVC,M,M,M,11000.00,M,M,M,M,M,M,M,M,M,M,38.27,KLOL 021953Z AUTO 20005KT 10SM OVC110 06/01 A2976 RMK AO2 SLP089 T00560011,M
BVU,2024-02-02 19:55,-114.8611,35.9475,671.00,53.60,39.20,58.02,230.00,9.00,0.00,29.77,M,10.00,M,FEW,SCT,BKN,M,4200.00,4700.00,6000.00,M,M,M,M,M,M,M,M,53.60,KBVU 021955Z AUTO 23009KT 10SM FEW042 SCT047 BKN060 12/04 A2977 RMK AO2,M
CXP,2024-02-02 19:55,-119.7326,39.1923,1431.00,46.40,21.20,36.48,250.00,11.00,0.00,29.77,M,10.00,19.00,FEW,M,M,M,6000.00,M,M,M,M,M,M,M,M,M,M,40.66,KCXP 021955Z AUTO 25011G19KT 10SM FEW060 08/M06 A2977 RMK AO2,M
INS,2024-02-02 19:55,-115.6733,36.5872,955.00,51.00,37.60,59.98,230.00,14.00,0.00,29.76,1006.40,10.00,M,FEW,M,M,M,10000.00,M,M,M,M,M,M,M,M,M,M,51.00,KINS 021955Z AUTO 23014KT 10SM FEW100 11/03 A2976 RMK AO2 SLP064 T01050031,M
RNO,2024-02-02 19:55,-119.7711,39.4839,1341.00,46.00,26.00,45.29,M,4.00,0.00,29.75,1007.00,10.00,M,SCT,BKN,M,M,5500.00,20000.00,M,M,M,M,M,M,M,M,M,43.77,KRNO 021955Z VRB04KT 10SM SCT055 BKN200 08/M03 A2975 RMK AO2 SLP070 T00781033 $,M
LSV,2024-02-02 19:55,-115.0343,36.2362,570.00,53.40,41.00,62.69,210.00,8.00,0.00,29.72,1005.90,10.00,M,CLR,M,M,M,M,M,M,M,M,M,M,M,M,M,M,53.40,KLSV 021955Z AUTO 21008KT 10SM CLR 12/05 A2972 RMK AO2 SLP059 T01190051 $,M
RTS,2024-02-02 19:55,-119.8764,39.6682,1539.00,42.80,21.20,41.84,250.00,13.00,0.00,29.76,M,10.00,M,M,M,M,M,M,M,M,M,M,M,M,M,M,M,M,35.40,KRTS 021955Z AUTO 25013KT 10SM 06/M06 A2976 RMK AO2,M
05U,2024-02-02 19:55,-116.0051,39.6042,1811.23,37.40,28.40,69.67,80.00,10.00,0.00,29.74,M,10.00,M,M,M,M,M,M,M,M,M,M,M,M,M,M,M,M,29.74,K05U 021955Z AUTO 08010KT 10SM 03/M02 A2974 RMK A01,M
MEV,2024-02-02 19:55,-119.7500,38.9963,1441.42,44.60,21.20,39.06,240.00,14.00,0.00,29.76,M,10.00,M,BKN,BKN,M,M,4700.00,8000.00,M,M,M,M,M,M,M,M,M,37.40,KMEV 021955Z AUTO 24014KT 10SM BKN047 BKN080 07/M06 A2976 RMK AO2,M
BAM,2024-02-02 19:55,-116.8743,40.5990,1382.36,44.60,32.00,61.03,350.00,5.00,0.00,29.75,M,10.00,M,BKN,OVC,M,M,3300.00,4400.00,M,M,M,M,M,M,M,M,M,41.36,KBAM 021955Z AUTO 35005KT 10SM BKN033 OVC044 07/00 A2975 RMK AO1,M
HTH,2024-02-02 19:55,-118.6315,38.5448,1282.89,46.40,30.20,53.00,340.00,7.00,0.00,29.78,M,10.00,M,SCT,BKN,M,M,7000.00,8000.00,M,M,M,M,M,M,M,M,M,42.33,KHTH 021955Z AUTO 34007KT 10SM SCT070 BKN080 08/M01 A2978 RMK A01,M
TMT,2024-02-02 19:55,-117.1971,39.4643,1749.34,36.30,28.80,73.96,230.00,7.00,0.00,29.77,M,10.00,M,SCT,SCT,M,M,5000.00,6000.00,M,M,M,M,M,M,M,M,M,30.02,KTMT 021955Z AUTO 23007KT 10SM SCT050 SCT060 02/M02 A2977 RMK AO2 T00241018,M
EKO,2024-02-02 19:56,-115.7860,40.8242,1367.00,37.00,31.00,78.69,250.00,9.00,0.00,29.71,1006.60,10.00,M,BKN,OVC,M,M,5500.00,6500.00,M,M,M,M,M,M,M,M,M,29.73,KEKO 021956Z AUTO 25009KT 10SM BKN055 OVC065 03/M01 A2971 RMK AO2 SLP066 T00281006,M
NFL,2024-02-02 19:56,-118.7010,39.4166,1199.00,46.00,30.00,53.37,0.00,0.00,0.00,29.76,1005.80,10.00,M,SCT,SCT,SCT,BKN,4000.00,7000.00,11000.00,18000.00,M,M,M,M,M,M,M,46.00,KNFL 021956Z 00000KT 10SM SCT040 SCT070 SCT110 BKN180 08/M01 A2976 RMK AO2 SLP058 T00781011,M
HND,2024-02-02 19:56,-115.1344,35.9729,742.79,53.00,38.00,56.59,200.00,14.00,T,29.78,1009.90,10.00,M,BKN,OVC,M,M,5500.00,8500.00,M,M,M,M,M,M,M,M,M,53.00,KHND 021956Z 20014KT 10SM BKN055 OVC085 12/03 A2978 RMK AO2 RAE1859 SLP099 P0000 T01170033,M
TPH,2024-02-02 19:56,-117.0904,38.0505,1654.00,42.00,27.00,54.99,310.00,14.00,0.00,29.75,1006.80,10.00,M,CLR,M,M,M,M,M,M,M,M,M,M,M,M,M,M,34.05,KTPH 021956Z AUTO 31014KT 10SM CLR 06/M03 A2975 RMK AO2 SLP068 T00561028,M
LAS,2024-02-02 19:56,-115.1634,36.0719,663.00,51.00,38.00,60.92,220.00,6.00,T,29.76,1007.30,10.00,M,FEW,SCT,BKN,BKN,5000.00,6500.00,8500.00,25000.00,M,M,M,M,M,M,M,51.00,KLAS 021956Z 22006KT 10SM FEW050 SCT065 BKN085 BKN250 11/03 A2976 RMK AO2 RAE12 SLP073 P0000 T01060033,M
WMC,2024-02-02 19:56,-117.8072,40.9019,1315.00,45.00,30.00,55.43,260.00,11.00,0.00,29.74,1006.70,10.00,M,OVC,M,M,M,6000.00,M,M,M,M,M,M,M,M,M,M,38.89,KWMC 021956Z AUTO 26011KT 10SM OVC060 07/M01 A2974 RMK AO2 SLP067 T00721011,M
BVU,2024-02-02 20:15,-114.8611,35.9475,671.00,53.60,37.40,54.07,210.00,9.00,0.00,29.76,M,10.00,M,BKN,BKN,M,M,7000.00,8500.00,M,M,M,M,M,M,M,M,M,53.60,KBVU 022015Z AUTO 21009KT 10SM BKN070 BKN085 12/03 A2976 RMK AO2,M
CXP,2024-02-02 20:15,-119.7326,39.1923,1431.00,46.40,21.20,36.48,240.00,11.00,0.00,29.77,M,10.00,17.00,CLR,M,M,M,M,M,M,M,M,M,M,M,M,M,M,40.66,KCXP 022015Z AUTO 24011G17KT 10SM CLR 08/M06 A2977 RMK AO2,M
RTS,2024-02-02 20:15,-119.8764,39.6682,1539.00,42.80,19.40,38.75,240.00,18.00,0.00,29.75,M,10.00,M,FEW,FEW,M,M,5500.00,8500.00,M,M,M,M,M,M,M,M,M,33.97,KRTS 022015Z AUTO 24018KT 10SM FEW055 FEW085 06/M07 A2975 RMK AO2,M
05U,2024-02-02 20:15,-116.0051,39.6042,1811.23,37.40,26.60,64.70,90.00,6.00,0.00,29.74,M,10.00,M,M,M,M,M,M,M,M,M,M,M,M,M,M,M,M,32.03,K05U 022015Z AUTO 09006KT 10SM 03/M03 A2974 RMK A01,M
MEV,2024-02-02 20:15,-119.7500,38.9963,1441.42,46.40,21.20,36.48,240.00,10.00,0.00,29.75,M,10.00,16.00,FEW,M,M,M,7500.00,M,M,M,M,M,M,M,M,M,M,41.03,KMEV 022015Z AUTO 24010G16KT 10SM FEW075 08/M06 A2975 RMK AO2,M
BAM,2024-02-02 20:15,-116.8743,40.5990,1382.36,42.80,32.00,65.38,350.00,4.00,0.00,29.74,M,10.00,M,BKN,BKN,OVC,M,3300.00,4000.00,5000.00,M,M,M,M,M,M,M,M,40.03,KBAM 022015Z AUTO 35004KT 10SM BKN033 BKN040 OVC050 06/00 A2974 RMK AO1,M
HTH,2024-02-02 20:15,-118.6315,38.5448,1282.89,46.40,26.60,45.73,330.00,6.00,0.00,29.77,M,10.00,M,BKN,M,M,M,8000.00,M,M,M,M,M,M,M,M,M,M,42.87,KHTH 022015Z AUTO 33006KT 10SM BKN080 08/M03 A2977 RMK A01,M
TMT,2024-02-02 20:15,-117.1971,39.4643,1749.34,36.50,29.00,73.98,230.00,7.00,0.00,29.77,M,10.00,M,SCT,BKN,M,M,4400.00,5500.00,M,M,M,M,M,M,M,M,M,30.26,KTMT 022015Z AUTO 23007KT 10SM SCT044 BKN055 03/M02 A2977 RMK AO2 T00251016,M
CXP,2024-02-02 20:30,-119.7326,39.1923,1431.00,44.60,21.20,39.06,240.00,8.00,0.00,29.77,M,10.00,14.00,SCT,BKN,M,M,6500.00,7500.00,M,M,M,M,M,M,M,M,M,39.63,KCXP 022030Z AUTO 24008G14KT 10SM SCT065 BKN075 07/M06 A2977 RMK AO2,M
05U,2024-02-02 20:30,-116.0051,39.6042,1811.23,37.40,28.40,69.67,90.00,7.00,0.00,29.74,M,10.00,M,M,M,M,M,M,M,M,M,M,M,M,M,M,M,M,31.36,K05U 022030Z AUTO 09007KT 10SM 03/M02 A2974 RMK A01,M
HTH,2024-02-02 20:30,-118.6315,38.5448,1282.89,46.40,26.60,45.73,M,4.00,0.00,29.76,M,10.00,M,SCT,M,M,M,8000.00,M,M,M,M,M,M,M,M,M,M,44.24,KHTH 022030Z AUTO VRB04KT 10SM SCT080 08/M03 A2976 RMK A01,M
BVU,2024-02-02 20:35,-114.8611,35.9475,671.00,53.60,37.40,54.07,220.00,15.00,0.00,29.76,M,10.00,M,FEW,FEW,FEW,M,6500.00,7500.00,10000.00,M,M,M,M,M,M,M,M,53.60,KBVU 022035Z AUTO 22015KT 10SM FEW065 FEW075 FEW100 12/03 A2976 RMK AO2,M
RTS,2024-02-02 20:35,-119.8764,39.6682,1539.00,41.00,19.40,41.54,220.00,13.00,0.00,29.75,M,10.00,20.00,FEW,FEW,SCT,M,4200.00,4800.00,5500.00,M,M,M,M,M,M,M,M,33.10,KRTS 022035Z AUTO 22013G20KT 10SM FEW042 FEW048 SCT055 05/M07 A2975 RMK AO2,M
MEV,2024-02-02 20:35,-119.7500,38.9963,1441.42,46.40,19.40,33.79,280.00,11.00,0.00,29.75,M,10.00,M,CLR,M,M,M,M,M,M,M,M,M,M,M,M,M,M,40.66,KMEV 022035Z AUTO 28011KT 10SM CLR 08/M07 A2975 RMK AO2,M
BAM,2024-02-02 20:35,-116.8743,40.5990,1382.36,42.80,32.00,65.38,0.00,0.00,0.00,29.73,M,10.00,M,SCT,SCT,SCT,M,3300.00,4000.00,4600.00,M,M,M,M,M,M,M,M,42.80,KBAM 022035Z AUTO 00000KT 10SM SCT033 SCT040 SCT046 06/00 A2973 RMK AO1,M
TMT,2024-02-02 20:35,-117.1971,39.4643,1749.34,36.50,28.00,71.01,220.00,5.00,0.00,29.76,M,10.00,M,SCT,OVC,M,M,4400.00,5500.00,M,M,M,M,M,M,M,M,M,31.74,KTMT 022035Z AUTO 22005KT 10SM SCT044 OVC055 03/M02 A2976 RMK AO2 T00251023,M
DRA,2024-02-02 20:53,-116.0278,36.6206,1009.00,50.00,40.00,68.37,230.00,11.00,0.00,29.77,1006.40,10.00,M,CLR,M,M,M,M,M,M,M,M,M,M,M,M,M,M,50.00,KDRA 022053Z AUTO 23011KT 10SM CLR 10/04 A2977 RMK AO2 SLP064 T01000044 58005,M
ELY,2024-02-02 20:53,-114.8453,39.2950,1909.00,36.00,25.00,63.98,300.00,13.00,0.00,29.67,1003.70,10.00,22.00,OVC,M,M,M,5000.00,M,M,M,M,M,M,M,M,M,M,26.69,KELY 022053Z AUTO 30013G22KT 10SM OVC050 02/M04 A2967 RMK AO2 SLP037 T00221039 58001,M
VGT,2024-02-02 20:53,-115.1933,36.2111,667.00,56.00,37.00,48.77,220.00,4.00,0.00,29.74,1008.70,10.00,M,CLR,M,M,M,M,M,M,M,M,M,M,M,M,M,M,56.00,KVGT 022053Z 22004KT 10SM CLR 13/03 A2974 RMK AO2 SLP087 60000 T01330028 58008,M
LOL,2024-02-02 20:53,-118.5701,40.0684,1192.43,45.00,32.00,60.11,200.00,8.00,0.00,29.75,1008.10,10.00,M,BKN,M,M,M,11000.00,M,M,M,M,M,M,M,M,M,M,40.13,KLOL 022053Z AUTO 20008KT 10SM BKN110 07/00 A2975 RMK AO2 SLP081 T00720000 58008,M
P68,2024-02-02 20:53,-116.0056,39.6014,1993.00,38.00,27.00,64.24,300.00,9.00,0.00,29.71,1004.90,M,M,M,M,M,M,M,M,M,M,M,M,M,M,M,M,M,30.97,KP68 022053Z AUTO 30009KT 03/M03 A2971 RMK AO1 SLP049 T00331028 58002,M
BVU,2024-02-02 20:55,-114.8611,35.9475,671.00,51.80,41.00,66.48,200.00,14.00,0.00,29.76,M,10.00,M,CLR,M,M,M,M,M,M,M,M,M,M,M,M,M,M,51.80,KBVU 022055Z AUTO 20014KT 10SM CLR 11/05 A2976 RMK AO2,M
CXP,2024-02-02 20:55,-119.7326,39.1923,1431.00,46.40,23.00,39.36,220.00,9.00,0.00,29.76,M,10.00,M,FEW,FEW,M,M,6000.00,7000.00,M,M,M,M,M,M,M,M,M,41.42,KCXP 022055Z AUTO 22009KT 10SM FEW060 FEW070 08/M05 A2976 RMK AO2,M
INS,2024-02-02 20:55,-115.6733,36.5872,955.00,51.80,35.60,53.81,230.00,17.00,0.00,29.75,1006.10,10.00,M,CLR,M,M,M,M,M,M,M,M,M,M,M,M,M,M,51.80,KINS 022055Z AUTO 23017KT 10SM CLR 11/02 A2975 RMK AO2 SLP061 T01100020 58008,M
RNO,2024-02-02 20:55,-119.7711,39.4839,1341.00,46.00,23.00,39.96,140.00,9.00,0.00,29.74,1006.40,10.00,M,FEW,BKN,BKN,M,5500.00,8000.00,20000.00,M,M,M,M,M,M,M,M,40.92,KRNO 022055Z 14009KT 10SM FEW055 BKN080 BKN200 08/M05 A2974 RMK AO2 SLP064 SHSN DSNT SW THRU W T00781050 58011 $,M
LSV,2024-02-02 20:55,-115.0343,36.2362,570.00,56.00,39.20,53.17,210.00,12.00,0.00,29.71,1005.60,10.00,M,FEW,M,M,M,11000.00,M,M,M,M,M,M,M,M,M,M,56.00,KLSV 022055Z AUTO 21012KT 10SM FEW110 13/04 A2971 RMK AO2 SLP056 T01340040 58010 $,M
RTS,2024-02-02 20:55,-119.8764,39.6682,1539.00,41.00,21.20,44.85,210.00,8.00,0.00,29.75,M,10.00,14.00,FEW,BKN,BKN,M,4300.00,6000.00,7000.00,M,M,M,M,M,M,M,M,35.20,KRTS 022055Z AUTO 21008G14KT 10SM FEW043 BKN060 BKN070 05/M06 A2975 RMK AO2,M
05U,2024-02-02 20:55,-116.0051,39.6042,1811.23,39.20,26.60,60.29,100.00,6.00,0.00,29.74,M,10.00,M,M,M,M,M,M,M,M,M,M,M,M,M,M,M,M,34.20,K05U 022055Z AUTO 10006KT 10SM 04/M03 A2974 RMK A01,M
MEV,2024-02-02 20:55,-119.7500,38.9963,1441.42,48.20,21.20,34.09,270.00,10.00,0.00,29.74,M,10.00,M,SCT,SCT,M,M,6500.00,7500.00,M,M,M,M,M,M,M,M,M,43.28,KMEV 022055Z AUTO 27010KT 10SM SCT065 SCT075 09/M06 A2974 RMK AO2,M
BAM,2024-02-02 20:55,-116.8743,40.5990,1382.36,44.60,32.00,61.03,0.00,0.00,0.00,29.73,M,10.00,M,CLR,M,M,M,M,M,M,M,M,M,M,M,M,M,M,44.60,KBAM 022055Z AUTO 00000KT 10SM CLR 07/00 A2973 RMK AO1,M
HTH,2024-02-02 20:55,-118.6315,38.5448,1282.89,46.40,26.60,45.73,360.00,5.00,0.00,29.76,M,10.00,M,SCT,BKN,M,M,8000.00,9000.00,M,M,M,M,M,M,M,M,M,43.50,KHTH 022055Z AUTO 36005KT 10SM SCT080 BKN090 08/M03 A2976 RMK A01,M
TMT,2024-02-02 20:55,-117.1971,39.4643,1749.34,36.00,27.30,70.37,210.00,5.00,0.00,29.76,M,10.00,M,OVC,M,M,M,5000.00,M,M,M,M,M,M,M,M,M,M,31.15,KTMT 022055Z AUTO 21005KT 10SM OVC050 02/M03 A2976 RMK AO2 T00221026,M
EKO,2024-02-02 20:56,-115.7860,40.8242,1367.00,38.00,30.00,72.64,260.00,10.00,0.00,29.71,1006.50,10.00,M,FEW,OVC,M,M,4200.00,7000.00,M,M,M,M,M,M,M,M,M,30.49,KEKO 022056Z AUTO 26010KT 10SM FEW042 OVC070 03/M01 A2971 RMK AO2 SLP065 T00331011 50001,M
NFL,2024-02-02 20:56,-118.7010,39.4166,1199.00,48.00,30.00,49.49,330.00,6.00,0.00,29.75,1005.40,10.00,M,SCT,BKN,BKN,M,4000.00,6000.00,10000.00,M,M,M,M,M,M,M,M,44.80,KNFL 022056Z 33006KT 10SM SCT040 BKN060 BKN100 09/M01 A2975 RMK AO2 SLP054 T00891011 58007,M
HND,2024-02-02 20:56,-115.1344,35.9729,742.79,52.00,37.00,56.45,220.00,16.00,0.00,29.77,1009.70,10.00,23.00,FEW,M,M,M,10000.00,M,M,M,M,M,M,M,M,M,M,52.00,KHND 022056Z 22016G23KT 10SM FEW100 11/03 A2977 RMK AO2 SLP097 60000 T01110028 58010,M
TPH,2024-02-02 20:56,-117.0904,38.0505,1654.00,44.00,27.00,50.93,340.00,13.00,0.00,29.75,1006.40,10.00,20.00,BKN,BKN,M,M,3900.00,4800.00,M,M,M,M,M,M,M,M,M,36.94,KTPH 022056Z AUTO 34013G20KT 10SM BKN039 BKN048 07/M03 A2975 RMK AO2 SLP064 T00671028 58003,M
LAS,2024-02-02 20:56,-115.1634,36.0719,663.00,54.00,36.00,50.42,200.00,7.00,0.00,29.75,1007.10,10.00,16.00,FEW,FEW,SCT,BKN,5000.00,6500.00,10000.00,25000.00,M,M,M,M,M,M,M,54.00,KLAS 022056Z 20007G16KT 10SM FEW050 FEW065 SCT100 BKN250 12/02 A2975 RMK AO2 SLP071 60000 T01220022 58006,M
WMC,2024-02-02 20:56,-117.8072,40.9019,1315.00,48.00,32.00,53.67,220.00,11.00,0.00,29.72,1006.20,10.00,21.00,FEW,BKN,OVC,M,3600.00,6500.00,8000.00,M,M,M,M,M,M,M,M,42.69,KWMC 022056Z AUTO 22011G21KT 10SM FEW036 BKN065 OVC080 09/00 A2972 RMK AO2 SLP062 T00890000 58006,M
BVU,2024-02-02 21:15,-114.8611,35.9475,671.00,53.60,39.20,58.02,230.00,12.00,0.00,29.76,M,10.00,M,SCT,M,M,M,4600.00,M,M,M,M,M,M,M,M,M,M,53.60,KBVU 022115Z AUTO 23012KT 10SM SCT046 12/04 A2976 RMK AO2,M
CXP,2024-02-02 21:15,-119.7326,39.1923,1431.00,44.60,21.20,39.06,240.00,10.00,0.00,29.76,M,10.00,16.00,SCT,SCT,M,M,6500.00,9500.00,M,M,M,M,M,M,M,M,M,38.77,KCXP 022115Z AUTO 24010G16KT 10SM SCT065 SCT095 07/M06 A2976 RMK AO2,M
RTS,2024-02-02 21:15,-119.8764,39.6682,1539.00,41.00,21.20,44.85,250.00,15.00,0.00,29.75,M,10.00,20.00,FEW,BKN,BKN,M,4600.00,6000.00,8000.00,M,M,M,M,M,M,M,M,32.45,KRTS 022115Z AUTO 25015G20KT 10SM FEW046 BKN060 BKN080 05/M06 A2975 RMK AO2,M
05U,2024-02-02 21:15,-116.0051,39.6042,1811.23,37.40,26.60,64.70,100.00,8.00,0.00,29.74,M,10.00,M,M,M,M,M,M,M,M,M,M,M,M,M,M,M,M,30.76,K05U 022115Z AUTO 10008KT 10SM 03/M03 A2974 RMK A01,M
MEV,2024-02-02 21:15,-119.7500,38.9963,1441.42,48.20,19.40,31.57,280.00,7.00,0.00,29.73,M,10.00,13.00,SCT,M,M,M,7000.00,M,M,M,M,M,M,M,M,M,M,44.53,KMEV 022115Z AUTO 28007G13KT 250V310 10SM SCT070 09/M07 A2973 RMK AO2,M
BAM,2024-02-02 21:15,-116.8743,40.5990,1382.36,46.40,32.00,57.00,230.00,5.00,0.00,29.73,M,10.00,M,SCT,M,M,M,6000.00,M,M,M,M,M,M,M,M,M,M,43.50,KBAM 022115Z AUTO 23005KT 10SM SCT060 08/00 A2973 RMK AO1,M
HTH,2024-02-02 21:15,-118.6315,38.5448,1282.89,48.20,26.60,42.73,340.00,5.00,0.00,29.75,M,10.00,M,BKN,BKN,M,M,8000.00,9000.00,M,M,M,M,M,M,M,M,M,45.63,KHTH 022115Z AUTO 34005KT 10SM BKN080 BKN090 09/M03 A2975 RMK A01,M
TMT,2024-02-02 21:15,-117.1971,39.4643,1749.34,37.00,27.50,68.21,170.00,4.00,0.00,29.76,M,10.00,M,SCT,SCT,OVC,M,4100.00,5000.00,5500.00,M,M,M,M,M,M,M,M,33.26,KTMT 022115Z AUTO 17004KT 10SM SCT041 SCT050 OVC055 03/M02 A2976 RMK AO2 T00271025,M
HTH,2024-02-02 21:30,-118.6315,38.5448,1282.89,48.20,26.60,42.73,360.00,7.00,0.00,29.75,M,10.00,M,BKN,M,M,M,8000.00,M,M,M,M,M,M,M,M,M,M,44.53,KHTH 022130Z AUTO 36007KT 10SM BKN080 09/M03 A2975 RMK A01,M
BVU,2024-02-02 21:35,-114.8611,35.9475,671.00,53.60,39.20,58.02,210.00,13.00,0.00,29.76,M,10.00,M,FEW,M,M,M,4700.00,M,M,M,M,M,M,M,M,M,M,53.60,KBVU 022135Z AUTO 21013KT 10SM FEW047 12/04 A2976 RMK AO2,M
CXP,2024-02-02 21:35,-119.7326,39.1923,1431.00,44.60,21.20,39.06,250.00,12.00,0.00,29.75,M,10.00,18.00,SCT,M,M,M,6500.00,M,M,M,M,M,M,M,M,M,M,38.04,KCXP 022135Z AUTO 25012G18KT 10SM SCT065 07/M06 A2975 RMK AO2,M
RTS,2024-02-02 21:35,-119.8764,39.6682,1539.00,39.20,28.40,64.93,210.00,13.00,0.00,29.75,M,8.00,M,FEW,SCT,BKN,M,3000.00,4700.00,5500.00,M,M,M,M,M,M,M,M,30.79,KRTS 022135Z AUTO 21013KT 8SM FEW030 SCT047 BKN055 04/M02 A2975 RMK AO2,M
05U,2024-02-02 21:35,-116.0051,39.6042,1811.23,37.40,26.60,64.70,120.00,9.00,0.00,29.74,M,10.00,M,M,M,M,M,M,M,M,M,M,M,M,M,M,M,M,30.23,K05U 022135Z AUTO 12009KT 10SM 03/M03 A2974 RMK A01,M
MEV,2024-02-02 21:35,-119.7500,38.9963,1441.42,44.60,23.00,42.14,260.00,19.00,0.00,29.74,M,10.00,M,FEW,M,M,M,6500.00,M,M,M,M,M,M,M,M,M,M,36.10,KMEV 022135Z AUTO 26019KT 10SM FEW065 07/M05 A2974 RMK AO2,M
BAM,2024-02-02 21:35,-116.8743,40.5990,1382.36,44.60,30.20,56.74,280.00,8.00,0.00,29.72,M,10.00,M,SCT,SCT,M,M,4700.00,6000.00,M,M,M,M,M,M,M,M,M,39.63,KBAM 022135Z AUTO 28008KT 10SM SCT047 SCT060 07/M01 A2972 RMK AO1,M
TMT,2024-02-02 21:35,-117.1971,39.4643,1749.34,36.50,27.50,69.57,200.00,5.00,0.00,29.76,M,10.00,M,SCT,OVC,M,M,5000.00,6500.00,M,M,M,M,M,M,M,M,M,31.74,KTMT 022135Z AUTO 20005KT 10SM SCT050 OVC065 03/M02 A2976 RMK AO2 T00251025,M
RNO,2024-02-02 21:47,-119.7711,39.4839,1341.00,45.00,26.00,47.04,170.00,10.00,T,29.74,M,10.00,M,FEW,BKN,M,M,4900.00,6000.00,M,M,-SN,M,M,M,M,M,M,39.27,KRNO 022147Z 17010KT 10SM -SN FEW049 BKN060 07/M03 A2974 RMK AO2 RAB26E42SNB47 P0000 T00721033 $,M
DRA,2024-02-02 21:53,-116.0278,36.6206,1009.00,51.00,39.00,63.36,220.00,13.00,0.00,29.76,1006.00,10.00,M,CLR,M,M,M,M,M,M,M,M,M,M,M,M,M,M,51.00,KDRA 022153Z AUTO 22013KT 10SM CLR 11/04 A2976 RMK AO2 SLP060 T01060039,M
ELY,2024-02-02 21:53,-114.8453,39.2950,1909.00,36.00,24.00,61.37,310.00,11.00,0.00,29.68,1004.10,10.00,M,SCT,BKN,OVC,M,4900.00,6000.00,7000.00,M,M,M,M,M,M,M,M,27.52,KELY 022153Z AUTO 31011KT 10SM SCT049 BKN060 OVC070 02/M04 A2968 RMK AO2 SLP041 T00221044,M
VGT,2024-02-02 21:53,-115.1933,36.2111,667.00,56.00,36.00,46.88,230.00,6.00,0.00,29.73,1008.50,10.00,M,BKN,OVC,M,M,4900.00,7000.00,M,M,M,M,M,M,M,M,M,56.00,KVGT 022153Z 23006KT 10SM BKN049 OVC070 13/02 A2973 RMK AO2 SLP085 T01330022,M
LOL,2024-02-02 21:53,-118.5701,40.0684,1192.43,46.00,33.00,60.25,190.00,8.00,0.00,29.74,1007.60,10.00,M,SCT,SCT,M,M,8500.00,12000.00,M,M,M,M,M,M,M,M,M,41.36,KLOL 022153Z AUTO 19008KT 10SM SCT085 SCT120 08/01 A2974 RMK AO2 SLP076 T00780006,M
P68,2024-02-02 21:53,-116.0056,39.6014,1993.00,37.00,26.00,64.11,320.00,8.00,0.00,29.72,1005.40,M,M,M,M,M,M,M,M,M,M,M,M,M,M,M,M,M,30.27,KP68 022153Z AUTO 32008KT 03/M03 A2972 RMK AO1 SLP054 T00281033,M
BVU,2024-02-02 21:55,-114.8611,35.9475,671.00,55.40,37.40,50.64,220.00,11.00,0.00,29.75,M,10.00,M,CLR,M,M,M,M,M,M,M,M,M,M,M,M,M,M,55.40,KBVU 022155Z AUTO 22011KT 10SM CLR 13/03 A2975 RMK AO2,M
CXP,2024-02-02 21:55,-119.7326,39.1923,1431.00,44.60,24.80,45.44,230.00,10.00,0.00,29.76,M,10.00,17.00,FEW,M,M,M,6500.00,M,M,M,M,M,M,M,M,M,M,38.77,KCXP 022155Z AUTO 23010G17KT 10SM FEW065 07/M04 A2976 RMK AO2,M
INS,2024-02-02 21:55,-115.6733,36.5872,955.00,53.00,33.80,47.92,240.00,17.00,0.00,29.74,1005.50,10.00,M,CLR,M,M,M,M,M,M,M,M,M,M,M,M,M,M,53.00,KINS 022155Z AUTO 24017KT 10SM CLR 12/01 A2974 RMK AO2 SLP055 T01160010,M
RNO,2024-02-02 21:55,-119.7711,39.4839,1341.00,45.00,25.00,45.12,220.00,8.00,T,29.74,1006.80,9.00,M,SCT,BKN,M,M,4900.00,6000.00,M,M,-SN,M,M,M,M,M,M,40.13,KRNO 022155Z 22008KT 9SM -SN SCT049 BKN060 07/M04 A2974 RMK AO2 RAB26E42SNB47 SLP068 P0000 T00721039 $,M
LSV,2024-02-02 21:55,-115.0343,36.2362,570.00,57.00,37.60,48.16,210.00,7.00,0.00,29.71,1005.60,10.00,M,FEW,M,M,M,5500.00,M,M,M,M,M,M,M,M,M,M,57.00,KLSV 022155Z AUTO 21007KT 10SM FEW055 14/03 A2971 RMK AO2 SLP056 T01390031 $,M
RTS,2024-02-02 21:55,-119.8764,39.6682,1539.00,41.00,24.80,52.17,220.00,11.00,0.00,29.75,M,10.00,18.00,FEW,SCT,BKN,M,4800.00,6500.00,8500.00,M,M,M,M,M,M,M,M,33.84,KRTS 022155Z AUTO 22011G18KT 10SM FEW048 SCT065 BKN085 05/M04 A2975 RMK AO2,M
05U,2024-02-02 21:55,-116.0051,39.6042,1811.23,37.40,26.60,64.70,130.00,7.00,0.00,29.74,M,10.00,M,M,M,M,M,M,M,M,M,M,M,M,M,M,M,M,31.36,K05U 022155Z AUTO 13007KT 10SM 03/M03 A2974 RMK A01,M
MEV,2024-02-02 21:55,-119.7500,38.9963,1441.42,42.80,24.80,48.67,260.00,15.00,0.00,29.74,M,10.00,21.00,CLR,M,M,M,M,M,M,M,M,M,M,M,M,M,M,34.78,KMEV 022155Z AUTO 26015G21KT 10SM CLR 06/M04 A2974 RMK AO2,M
BAM,2024-02-02 21:55,-116.8743,40.5990,1382.36,46.40,30.20,53.00,300.00,8.00,0.00,29.73,M,10.00,M,SCT,M,M,M,4700.00,M,M,M,M,M,M,M,M,M,M,41.85,KBAM 022155Z AUTO 30008KT 10SM SCT047 08/M01 A2973 RMK AO1,M
HTH,2024-02-02 21:55,-118.6315,38.5448,1282.89,48.20,26.60,42.73,330.00,10.00,0.00,29.74,M,10.00,M,SCT,BKN,M,M,8000.00,9000.00,M,M,M,M,M,M,M,M,M,43.28,KHTH 022155Z AUTO 33010KT 10SM SCT080 BKN090 09/M03 A2974 RMK A01,M
TMT,2024-02-02 21:55,-117.1971,39.4643,1749.34,37.00,27.30,67.65,180.00,4.00,0.00,29.76,M,10.00,M,SCT,BKN,OVC,M,4600.00,5500.00,6500.00,M,M,M,M,M,M,M,M,33.26,KTMT 022155Z AUTO 18004KT 10SM SCT046 BKN055 OVC065 03/M03 A2976 RMK AO2 T00271026,M
EKO,2024-02-02 21:56,-115.7860,40.8242,1367.00,39.00,29.00,67.06,270.00,6.00,0.00,29.71,1006.40,10.00,M,FEW,SCT,M,M,4800.00,10000.00,M,M,M,M,M,M,M,M,M,33.96,KEKO 022156Z AUTO 27006KT 10SM FEW048 SCT100 04/M02 A2971 RMK AO2 SLP064 T00391017,M
NFL,2024-02-02 21:56,-118.7010,39.4166,1199.00,48.00,26.00,42.00,220.00,6.00,0.00,29.74,1005.00,10.00,M,SCT,BKN,BKN,M,4000.00,6000.00,10000.00,M,M,M,M,M,M,M,M,44.80,KNFL 022156Z 22006KT 10SM SCT040 BKN060 BKN100 09/M03 A2974 RMK AO2 SLP050 T00891033,M
HND,2024-02-02 21:56,-115.1344,35.9729,742.79,56.00,36.00,46.88,220.00,12.00,0.00,29.77,1009.40,10.00,M,CLR,M,M,M,M,M,M,M,M,M,M,M,M,M,M,56.00,KHND 022156Z 22012KT 10SM CLR 13/02 A2977 RMK AO2 SLP094 T01330022,M
TPH,2024-02-02 21:56,-117.0904,38.0505,1654.00,43.00,24.00,46.71,320.00,15.00,0.00,29.74,1006.30,10.00,M,FEW,SCT,M,M,5000.00,6500.00,M,M,M,M,M,M,M,M,M,35.04,KTPH 022156Z AUTO 32015KT 10SM FEW050 SCT065 06/M04 A2974 RMK AO2 SLP063 T00611044,M
LAS,2024-02-02 21:56,-115.1634,36.0719,663.00,57.00,34.00,41.76,250.00,9.00,0.00,29.74,1006.80,10.00,M,FEW,FEW,SCT,BKN,5000.00,6500.00,10000.00,22000.00,M,M,M,M,M,M,M,57.00,KLAS 022156Z 25009KT 10SM FEW050 FEW065 SCT100 BKN220 14/01 A2974 RMK AO2 SLP068 T01390011,M
WMC,2024-02-02 21:56,-117.8072,40.9019,1315.00,45.00,29.00,53.22,260.00,11.00,0.00,29.72,1006.30,10.00,M,OVC,M,M,M,7500.00,M,M,M,M,M,M,M,M,M,M,38.89,KWMC 022156Z AUTO 26011KT 10SM OVC075 07/M02 A2972 RMK AO2 SLP063 T00721017,M
RNO,2024-02-02 22:06,-119.7711,39.4839,1341.00,45.00,24.00,43.28,250.00,8.00,T,29.74,M,10.00,20.00,BKN,M,M,M,5500.00,M,M,M,M,M,M,M,M,M,M,40.13,KRNO 022206Z 25008G20KT 10SM BKN055 07/M04 A2974 RMK AO2 SNE05 P0000 T00721044 $,M
BVU,2024-02-02 22:15,-114.8611,35.9475,671.00,55.40,37.40,50.64,210.00,10.00,0.00,29.75,M,10.00,15.00,CLR,M,M,M,M,M,M,M,M,M,M,M,M,M,M,55.40,KBVU 022215Z AUTO 21010G15KT 10SM CLR 13/03 A2975 RMK AO2,M
CXP,2024-02-02 22:15,-119.7326,39.1923,1431.00,42.80,24.80,48.67,230.00,10.00,0.00,29.76,M,10.00,M,FEW,FEW,M,M,4900.00,6500.00,M,M,M,M,M,M,M,M,M,36.51,KCXP 022215Z AUTO 23010KT 10SM FEW049 FEW065 06/M04 A2976 RMK AO2,M
RTS,2024-02-02 22:15,-119.8764,39.6682,1539.00,42.80,23.00,45.14,250.00,13.00,0.00,29.75,M,10.00,22.00,SCT,BKN,OVC,M,4500.00,5500.00,9000.00,M,M,M,M,M,M,M,M,35.40,KRTS 022215Z AUTO 25013G22KT 220V300 10SM SCT045 BKN055 OVC090 06/M05 A2975 RMK AO2,M
05U,2024-02-02 22:15,-116.0051,39.6042,1811.23,41.00,24.80,52.17,120.00,9.00,0.00,29.74,M,10.00,M,M,M,M,M,M,M,M,M,M,M,M,M,M,M,M,34.70,K05U 022215Z AUTO 12009KT 10SM 05/M04 A2974 RMK A01,M
MEV,2024-02-02 22:15,-119.7500,38.9963,1441.42,42.80,24.80,48.67,250.00,17.00,0.00,29.76,M,10.00,M,FEW,FEW,M,M,6500.00,8000.00,M,M,M,M,M,M,M,M,M,34.22,KMEV 022215Z AUTO 25017KT 10SM FEW065 FEW080 06/M04 A2976 RMK AO2,M
BAM,2024-02-02 22:15,-116.8743,40.5990,1382.36,44.60,30.20,56.74,300.00,9.00,0.00,29.73,M,10.00,15.00,SCT,BKN,BKN,M,6000.00,7000.00,8000.00,M,M,M,M,M,M,M,M,39.18,KBAM 022215Z AUTO 30009G15KT 10SM SCT060 BKN070 BKN080 07/M01 A2973 RMK AO1,M
HTH,2024-02-02 22:15,-118.6315,38.5448,1282.89,48.20,26.60,42.73,290.00,6.00,0.00,29.74,M,10.00,M,SCT,BKN,M,M,8000.00,9000.00,M,M,M,M,M,M,M,M,M,45.04,KHTH 022215Z AUTO 29006KT 10SM SCT080 BKN090 09/M03 A2974 RMK A01,M
TMT,2024-02-02 22:15,-117.1971,39.4643,1749.34,36.70,26.00,64.87,0.00,0.00,0.00,29.76,M,10.00,M,BKN,OVC,M,M,5000.00,6500.00,M,M,M,M,M,M,M,M,M,36.70,KTMT 022215Z AUTO 00000KT 10SM BKN050 OVC065 03/M03 A2976 RMK AO2 T00261033,M
BVU,2024-02-02 22:35,-114.8611,35.9475,671.00,55.40,35.60,47.16,220.00,6.00,0.00,29.76,M,10.00,M,CLR,M,M,M,M,M,M,M,M,M,M,M,M,M,M,55.40,KBVU 022235Z AUTO 22006KT 10SM CLR 13/02 A2976 RMK AO2,M
CXP,2024-02-02 22:35,-119.7326,39.1923,1431.00,42.80,24.80,48.67,240.00,7.00,0.00,29.77,M,10.00,13.00,SCT,BKN,BKN,M,4300.00,5000.00,7000.00,M,M,M,M,M,M,M,M,37.94,KCXP 022235Z AUTO 24007G13KT 10SM SCT043 BKN050 BKN070 06/M04 A2977 RMK AO2,M
RTS,2024-02-02 22:35,-119.8764,39.6682,1539.00,37.40,28.40,69.67,270.00,13.00,0.00,29.77,M,6.00,M,FEW,FEW,BKN,M,2800.00,3500.00,4500.00,M,+UP,M,M,M,M,M,M,28.49,KRTS 022235Z AUTO 27013KT 6SM +UP FEW028 FEW035 BKN045 03/M02 A2977 RMK AO2,M
05U,2024-02-02 22:35,-116.0051,39.6042,1811.23,39.20,24.80,55.95,140.00,8.00,0.00,29.75,M,10.00,14.00,M,M,M,M,M,M,M,M,M,M,M,M,M,M,M,32.98,K05U 022235Z AUTO 14008G14KT 10SM 04/M04 A2975 RMK A01,M
MEV,2024-02-02 22:35,-119.7500,38.9963,1441.42,42.80,26.60,52.45,250.00,19.00,0.00,29.77,M,10.00,27.00,FEW,SCT,M,M,7500.00,9500.00,M,M,M,M,M,M,M,M,M,33.72,KMEV 022235Z AUTO 25019G27KT 10SM FEW075 SCT095 06/M03 A2977 RMK AO2,M
BAM,2024-02-02 22:35,-116.8743,40.5990,1382.36,44.60,32.00,61.03,270.00,8.00,0.00,29.74,M,10.00,M,SCT,BKN,OVC,M,4500.00,5000.00,7000.00,M,M,M,M,M,M,M,M,39.63,KBAM 022235Z AUTO 27008KT 10SM SCT045 BKN050 OVC070 07/00 A2974 RMK AO1,M
HTH,2024-02-02 22:35,-118.6315,38.5448,1282.89,46.40,24.80,42.44,330.00,7.00,0.00,29.75,M,10.00,M,SCT,M,M,M,9000.00,M,M,M,M,M,M,M,M,M,M,42.33,KHTH 022235Z AUTO 33007KT 10SM SCT090 08/M04 A2975 RMK A01,M
TMT,2024-02-02 22:35,-117.1971,39.4643,1749.34,39.00,27.50,63.06,190.00,4.00,0.00,29.76,M,10.00,M,SCT,BKN,M,M,4900.00,5500.00,M,M,M,M,M,M,M,M,M,35.59,KTMT 022235Z AUTO 19004KT 10SM SCT049 BKN055 04/M02 A2976 RMK AO2 T00381025,M
P68,2024-02-02 22:53,-116.0056,39.6014,1993.00,36.00,27.00,69.51,320.00,6.00,0.00,29.73,1005.90,M,16.00,M,M,M,M,M,M,M,M,M,M,M,M,M,M,M,30.35,KP68 022253Z AUTO 32006G16KT 02/M03 A2973 RMK AO1 SLP059 T00221028,M
DRA,2024-02-02 22:53,-116.0278,36.6206,1009.00,52.00,37.00,56.45,240.00,8.00,0.00,29.77,1006.30,10.00,M,CLR,M,M,M,M,M,M,M,M,M,M,M,M,M,M,52.00,KDRA 022253Z AUTO 24008KT 10SM CLR 11/03 A2977 RMK AO2 SLP063 T01110028,M
ELY,2024-02-02 22:53,-114.8453,39.2950,1909.00,36.00,27.00,69.51,350.00,8.00,0.00,29.70,1004.70,10.00,14.00,FEW,BKN,OVC,M,3300.00,4800.00,6000.00,M,M,M,M,M,M,M,M,29.04,KELY 022253Z AUTO 35008G14KT 10SM FEW033 BKN048 OVC060 02/M03 A2970 RMK AO2 SLP047 T00221028,M
VGT,2024-02-02 22:53,-115.1933,36.2111,667.00,57.00,37.00,47.04,210.00,11.00,0.00,29.73,1008.40,10.00,M,CLR,M,M,M,M,M,M,M,M,M,M,M,M,M,M,57.00,KVGT 022253Z 21011KT 10SM CLR 14/03 A2973 RMK AO2 SLP084 T01390028,M
LOL,2024-02-02 22:53,-118.5701,40.0684,1192.43,46.00,32.00,57.87,150.00,8.00,0.00,29.73,1007.50,10.00,M,FEW,M,M,M,9000.00,M,M,M,M,M,M,M,M,M,M,41.36,KLOL 022253Z AUTO 15008KT 10SM FEW090 08/00 A2973 RMK AO2 SLP075 T00780000,M
BVU,2024-02-02 22:55,-114.8611,35.9475,671.00,55.40,35.60,47.16,210.00,7.00,0.00,29.76,M,10.00,14.00,CLR,M,M,M,M,M,M,M,M,M,M,M,M,M,M,55.40,KBVU 022255Z AUTO 21007G14KT 180V240 10SM CLR 13/02 A2976 RMK AO2,M
CXP,2024-02-02 22:55,-119.7326,39.1923,1431.00,42.80,23.00,45.14,260.00,11.00,0.00,29.78,M,10.00,20.00,FEW,BKN,OVC,M,4300.00,5500.00,7000.00,M,M,M,M,M,M,M,M,36.11,KCXP 022255Z AUTO 26011G20KT 220V300 10SM FEW043 BKN055 OVC070 06/M05 A2978 RMK AO2,M
INS,2024-02-02 22:55,-115.6733,36.5872,955.00,53.40,33.00,45.73,240.00,17.00,0.00,29.75,1006.10,10.00,M,FEW,M,M,M,13000.00,M,M,M,M,M,M,M,M,M,M,53.40,KINS 022255Z AUTO 24017KT 10SM FEW130 12/01 A2975 RMK AO2 SLP061 T01190006,M
RNO,2024-02-02 22:55,-119.7711,39.4839,1341.00,40.00,29.00,64.50,260.00,18.00,T,29.76,1007.70,8.00,33.00,SCT,BKN,M,M,3000.00,6000.00,M,M,-SN,M,M,M,33.00,280.00,2024-02-02 22:50,30.28,KRNO 022255Z 26018G33KT 8SM -SN SCT030 BKN060 04/M02 A2976 RMK AO2 PK WND 28033/2250 SNE05B51 SLP077 P0000 T00441017 $,M
LSV,2024-02-02 22:55,-115.0343,36.2362,570.00,58.60,37.40,45.11,230.00,11.00,0.00,29.71,1005.50,10.00,M,SCT,M,M,M,6000.00,M,M,M,M,M,M,M,M,M,M,58.60,KLSV 022255Z AUTO 23011KT 10SM SCT060 15/03 A2971 RMK AO2 SLP055 T01480030 $,M
RTS,2024-02-02 22:55,-119.8764,39.6682,1539.00,37.40,28.40,69.67,290.00,10.00,0.00,29.77,M,10.00,20.00,FEW,SCT,BKN,M,3100.00,3900.00,4500.00,M,M,M,M,M,M,M,M,29.74,KRTS 022255Z AUTO 29010G20KT 10SM FEW031 SCT039 BKN045 03/M02 A2977 RMK AO2,M
05U,2024-02-02 22:55,-116.0051,39.6042,1811.23,37.40,24.80,60.04,120.00,8.00,0.00,29.75,M,10.00,16.00,M,M,M,M,M,M,M,M,M,M,M,M,M,M,M,30.76,K05U 022255Z AUTO 12008G16KT 10SM 03/M04 A2975 RMK A01,M
MEV,2024-02-02 22:55,-119.7500,38.9963,1441.42,42.80,24.80,48.67,260.00,16.00,0.00,29.77,M,10.00,M,FEW,FEW,M,M,7000.00,10000.00,M,M,M,M,M,M,M,M,M,34.50,KMEV 022255Z AUTO 26016KT 10SM FEW070 FEW100 06/M04 A2977 RMK AO2,M
BAM,2024-02-02 22:55,-116.8743,40.5990,1382.36,41.00,32.00,70.08,250.00,11.00,0.00,29.75,M,10.00,M,SCT,BKN,OVC,M,4700.00,6000.00,7000.00,M,M,M,M,M,M,M,M,33.84,KBAM 022255Z AUTO 25011KT 10SM SCT047 BKN060 OVC070 05/00 A2975 RMK AO1,M
HTH,2024-02-02 22:55,-118.6315,38.5448,1282.89,46.40,24.80,42.44,330.00,6.00,0.00,29.75,M,10.00,M,SCT,SCT,M,M,9000.00,11000.00,M,M,M,M,M,M,M,M,M,42.87,KHTH 022255Z AUTO 33006KT 10SM SCT090 SCT110 08/M04 A2975 RMK A01,M
TMT,2024-02-02 22:55,-117.1971,39.4643,1749.34,39.00,27.00,61.78,200.00,4.00,0.00,29.76,M,10.00,M,SCT,BKN,OVC,M,3700.00,4200.00,5500.00,M,M,M,M,M,M,M,M,35.59,KTMT 022255Z AUTO 20004KT 10SM SCT037 BKN042 OVC055 04/M03 A2976 RMK AO2 T00391028,M
EKO,2024-02-02 22:56,-115.7860,40.8242,1367.00,39.00,30.00,69.85,230.00,4.00,0.00,29.72,1006.70,10.00,M,BKN,BKN,M,M,6000.00,8000.00,M,M,M,M,M,M,M,M,M,35.59,KEKO 022256Z AUTO 23004KT 10SM BKN060 BKN080 04/M01 A2972 RMK AO2 SLP067 T00391011,M
NFL,2024-02-02 22:56,-118.7010,39.4166,1199.00,49.00,26.00,40.45,0.00,0.00,0.00,29.74,1005.00,10.00,M,FEW,BKN,BKN,BKN,3000.00,5000.00,10000.00,20000.00,M,M,M,M,M,M,M,49.00,KNFL 022256Z 00000KT 10SM FEW030 BKN050 BKN100 BKN200 09/M03 A2974 RMK AO2 SLP050 SH VC SW SH DSNT ALQDS T00941033,M
HND,2024-02-02 22:56,-115.1344,35.9729,742.79,57.00,33.00,40.12,280.00,13.00,0.00,29.77,1009.50,10.00,M,FEW,M,M,M,7500.00,M,M,M,M,M,M,M,M,M,M,57.00,KHND 022256Z 28013KT 10SM FEW075 14/01 A2977 RMK AO2 SLP095 T01390006,M
TPH,2024-02-02 22:56,-117.0904,38.0505,1654.00,45.00,25.00,45.12,350.00,13.00,0.00,29.74,1006.10,10.00,19.00,FEW,M,M,M,4900.00,M,M,M,M,M,M,M,M,M,M,38.22,KTPH 022256Z AUTO 35013G19KT 10SM FEW049 07/M04 A2974 RMK AO2 SLP061 T00721039,M
LAS,2024-02-02 22:56,-115.1634,36.0719,663.00,56.00,35.00,45.06,260.00,10.00,0.00,29.75,1007.10,10.00,19.00,FEW,FEW,SCT,M,5000.00,10000.00,22000.00,M,M,M,M,M,M,M,M,56.00,KLAS 022256Z 26010G19KT 10SM FEW050 FEW100 SCT220 13/02 A2975 RMK AO2 SLP071 CB DSNT NW-N T01330017,M
WMC,2024-02-02 22:56,-117.8072,40.9019,1315.00,45.00,30.00,55.43,310.00,8.00,0.00,29.73,1006.40,10.00,M,FEW,SCT,BKN,M,4200.00,5000.00,7000.00,M,M,M,M,M,M,M,M,40.13,KWMC 022256Z AUTO 31008KT 10SM FEW042 SCT050 BKN070 07/M01 A2973 RMK AO2 SLP064 T00721011,M
05U,2024-02-02 23:10,-116.0051,39.6042,1811.23,37.40,26.60,64.70,110.00,8.00,0.00,29.76,M,10.00,14.00,M,M,M,M,M,M,M,M,M,M,M,M,M,M,M,30.76,K05U 022310Z AUTO 11008G14KT 10SM 03/M03 A2976 RMK A01,M
BVU,2024-02-02 23:15,-114.8611,35.9475,671.00,57.20,35.60,44.19,220.00,9.00,0.00,29.76,M,10.00,M,CLR,M,M,M,M,M,M,M,M,M,M,M,M,M,M,57.20,KBVU 022315Z AUTO 22009KT 10SM CLR 14/02 A2976 RMK AO2,M
CXP,2024-02-02 23:15,-119.7326,39.1923,1431.00,42.80,23.00,45.14,M,7.00,0.00,29.79,M,10.00,14.00,SCT,BKN,OVC,M,5500.00,7500.00,8500.00,M,M,M,M,M,M,M,M,37.94,KCXP 022315Z AUTO VRB07G14KT 10SM SCT055 BKN075 OVC085 06/M05 A2979 RMK AO2,M
RTS,2024-02-02 23:15,-119.8764,39.6682,1539.00,39.20,23.00,51.89,280.00,18.00,0.00,29.78,M,10.00,M,FEW,FEW,SCT,M,4200.00,5500.00,11000.00,M,M,M,M,M,M,M,M,29.23,KRTS 022315Z AUTO 28018KT 10SM FEW042 FEW055 SCT110 04/M05 A2978 RMK AO2,M
MEV,2024-02-02 23:15,-119.7500,38.9963,1441.42,41.00,23.00,48.39,240.00,12.00,0.00,29.78,M,10.00,20.00,FEW,FEW,M,M,10000.00,12000.00,M,M,M,M,M,M,M,M,M,33.46,KMEV 022315Z AUTO 24012G20KT 10SM FEW100 FEW120 05/M05 A2978 RMK AO2,M
BAM,2024-02-02 23:15,-116.8743,40.5990,1382.36,41.00,32.00,70.08,220.00,7.00,0.00,29.76,M,10.00,M,SCT,BKN,OVC,M,4200.00,6000.00,7000.00,M,M,M,M,M,M,M,M,35.75,KBAM 022315Z AUTO 22007KT 200V260 10SM SCT042 BKN060 OVC070 05/00 A2976 RMK AO1,M
HTH,2024-02-02 23:15,-118.6315,38.5448,1282.89,46.40,23.00,39.36,320.00,7.00,0.00,29.75,M,10.00,M,FEW,BKN,BKN,M,7500.00,10000.00,12000.00,M,M,M,M,M,M,M,M,42.33,KHTH 022315Z AUTO 32007KT 10SM FEW075 BKN100 BKN120 08/M05 A2975 RMK A01,M
TMT,2024-02-02 23:15,-117.1971,39.4643,1749.34,35.00,31.00,85.17,350.00,7.00,0.00,29.77,M,10.00,M,SCT,BKN,OVC,M,2600.00,3300.00,5000.00,M,-RA,M,M,M,M,M,M,28.44,KTMT 022315Z AUTO 35007KT 10SM -RA SCT026 BKN033 OVC050 02/M01 A2977 RMK AO2 T00161006,M
RNO,2024-02-02 23:21,-119.7711,39.4839,1341.00,43.00,22.00,42.95,280.00,20.00,T,29.76,M,9.00,32.00,SCT,BKN,M,M,3500.00,6500.00,M,M,M,M,M,M,32.00,260.00,2024-02-02 23:20,33.75,KRNO 022321Z 28020G32KT 9SM SCT035 BKN065 06/M06 A2976 RMK AO2 PK WND 26032/2320 SNE19 P0000 T00611056 $,M
CXP,2024-02-02 23:30,-119.7326,39.1923,1431.00,41.00,24.80,52.17,240.00,8.00,0.00,29.80,M,10.00,M,FEW,SCT,BKN,M,4000.00,6000.00,7000.00,M,M,M,M,M,M,M,M,35.20,KCXP 022330Z AUTO 24008KT 200V270 10SM FEW040 SCT060 BKN070 05/M04 A2980 RMK AO2,M
BVU,2024-02-02 23:35,-114.8611,35.9475,671.00,57.20,35.60,44.19,220.00,10.00,0.00,29.75,M,10.00,M,SCT,M,M,M,6000.00,M,M,M,M,M,M,M,M,M,M,57.20,KBVU 022335Z AUTO 22010KT 10SM SCT060 14/02 A2975 RMK AO2,M
RTS,2024-02-02 23:35,-119.8764,39.6682,1539.00,37.40,19.40,47.80,250.00,15.00,0.00,29.78,M,10.00,22.00,FEW,SCT,SCT,M,2800.00,4100.00,11000.00,M,M,M,M,M,M,M,M,27.78,KRTS 022335Z AUTO 25015G22KT 10SM FEW028 SCT041 SCT110 03/M07 A2978 RMK AO2,M
BAM,2024-02-02 23:35,-116.8743,40.5990,1382.36,41.00,32.00,70.08,200.00,4.00,0.00,29.76,M,10.00,M,SCT,BKN,OVC,M,4000.00,4700.00,6000.00,M,M,M,M,M,M,M,M,37.93,KBAM 022335Z AUTO 20004KT 10SM SCT040 BKN047 OVC060 05/00 A2976 RMK AO1,M
TMT,2024-02-02 23:35,-117.1971,39.4643,1749.34,35.00,30.00,81.78,30.00,3.00,0.00,29.77,M,10.00,M,SCT,SCT,BKN,M,2400.00,3100.00,10000.00,M,M,M,M,M,M,M,M,32.12,KTMT 022335Z AUTO 03003KT 10SM SCT024 SCT031 BKN100 02/M01 A2977 RMK AO2 T00161011,M
DRA,2024-02-02 23:53,-116.0278,36.6206,1009.00,51.00,37.00,58.58,210.00,10.00,0.00,29.77,1006.50,10.00,M,FEW,M,M,M,8500.00,M,M,M,M,M,M,M,M,M,M,51.00,KDRA 022353Z AUTO 21010KT 10SM FEW085 11/03 A2977 RMK AO2 SLP065 T01060028 10117 20061 53001,M
ELY,2024-02-02 23:53,-114.8453,39.2950,1909.00,35.00,27.00,72.32,10.00,9.00,T,29.72,1005.80,10.00,M,BKN,OVC,M,M,3800.00,5500.00,M,M,M,M,M,M,M,M,M,27.24,KELY 022353Z AUTO 01009KT 10SM BKN038 OVC055 02/M03 A2972 RMK AO2 SNB2258E12 SLP058 P0000 60000 T00171028 10028 20006 53014,M
VGT,2024-02-02 23:53,-115.1933,36.2111,667.00,58.00,35.00,41.92,240.00,7.00,0.00,29.74,1008.50,10.00,M,CLR,M,M,M,M,M,M,M,M,M,M,M,M,M,M,58.00,KVGT 022353Z 24007KT 10SM CLR 14/02 A2974 RMK AO2 SLP085 60000 T01440017 10144 20100 55000,M
LOL,2024-02-02 23:53,-118.5701,40.0684,1192.43,46.00,31.00,55.58,170.00,11.00,0.00,29.73,1007.40,10.00,M,CLR,M,M,M,M,M,M,M,M,M,M,M,M,M,M,40.16,KLOL 022353Z AUTO 17011KT 10SM CLR 08/M01 A2973 RMK AO2 SLP074 T00781006 10083 20011 56006,M
BVU,2024-02-02 23:55,-114.8611,35.9475,671.00,57.20,35.60,44.19,210.00,10.00,0.00,29.76,M,10.00,M,FEW,M,M,M,6000.00,M,M,M,M,M,M,M,M,M,M,57.20,KBVU 022355Z AUTO 21010KT 10SM FEW060 14/02 A2976 RMK AO2,M
CXP,2024-02-02 23:55,-119.7326,39.1923,1431.00,41.00,23.00,48.39,260.00,9.00,0.00,29.80,M,10.00,M,SCT,BKN,BKN,M,5500.00,6500.00,9000.00,M,M,M,M,M,M,M,M,34.70,KCXP 022355Z AUTO 26009KT 10SM SCT055 BKN065 BKN090 05/M05 A2980 RMK AO2,M
INS,2024-02-02 23:55,-115.6733,36.5872,955.00,51.00,28.60,41.80,250.00,16.00,0.00,29.76,1006.70,10.00,M,FEW,BKN,OVC,M,8000.00,10000.00,12000.00,M,M,M,M,M,27.00,310.00,2024-02-02 23:29,51.00,KINS 022355Z AUTO 25016KT 10SM FEW080 BKN100 OVC120 11/M02 A2976 RMK AO2 PK WND 31027/29 SLP067 T01051019 10121 20085 53005,M
RNO,2024-02-02 23:55,-119.7711,39.4839,1341.00,43.00,19.00,37.81,260.00,17.00,T,29.77,1008.20,10.00,26.00,SCT,BKN,M,M,5000.00,9000.00,M,M,M,M,M,M,32.00,260.00,2024-02-02 23:20,34.49,KRNO 022355Z 26017G26KT 10SM SCT050 BKN090 06/M07 A2977 RMK AO2 PK WND 26032/2320 SNE19 SLP082 MTNS OBSCD DSNT S THRU W P0000 60000 T00611072 10089 20033 53010 $,M
LSV,2024-02-02 23:55,-115.0343,36.2362,570.00,57.70,36.00,44.09,220.00,10.00,0.00,29.71,1005.60,10.00,M,CLR,M,M,M,M,M,M,M,M,M,M,M,M,M,M,57.70,KLSV 022355Z AUTO 22010KT 10SM CLR 14/02 A2971 RMK AO2 SLP056 T01430022 10148 20104 55000 $,M
RTS,2024-02-02 23:55,-119.8764,39.6682,1539.00,37.40,19.40,47.80,250.00,18.00,0.00,29.79,M,10.00,M,FEW,BKN,M,M,4000.00,8500.00,M,M,M,M,M,M,M,M,M,26.86,KRTS 022355Z AUTO 25018KT 10SM FEW040 BKN085 03/M07 A2979 RMK AO2,M
05U,2024-02-02 23:55,-116.0051,39.6042,1811.23,37.40,26.60,64.70,120.00,6.00,0.00,29.76,M,10.00,M,M,M,M,M,M,M,M,M,M,M,M,M,M,M,M,32.03,K05U 022355Z AUTO 12006KT 10SM 03/M03 A2976 RMK A01,M
MEV,2024-02-02 23:55,-119.7500,38.9963,1441.42,39.20,23.00,51.89,260.00,9.00,0.00,29.79,M,10.00,17.00,FEW,FEW,M,M,9000.00,11000.00,M,M,M,M,M,M,M,M,M,32.47,KMEV 022355Z AUTO 26009G17KT 10SM FEW090 FEW110 04/M05 A2979 RMK AO2,M
BAM,2024-02-02 23:55,-116.8743,40.5990,1382.36,42.80,32.00,65.38,170.00,3.00,0.00,29.76,M,10.00,M,SCT,BKN,OVC,M,3900.00,6000.00,8000.00,M,M,M,M,M,M,M,M,41.03,KBAM 022355Z AUTO 17003KT 10SM SCT039 BKN060 OVC080 06/00 A2976 RMK AO1,M
HTH,2024-02-02 23:55,-118.6315,38.5448,1282.89,46.40,23.00,39.36,310.00,4.00,0.00,29.75,M,10.00,M,BKN,BKN,M,M,8000.00,11000.00,M,M,M,M,M,M,M,M,M,44.24,KHTH 022355Z AUTO 31004KT 10SM BKN080 BKN110 08/M05 A2975 RMK A01,M
HND,2024-02-02 23:55,-115.1344,35.9729,742.79,55.40,32.00,40.84,200.00,12.00,0.00,29.79,M,10.00,M,FEW,M,M,M,10000.00,M,M,M,M,M,M,M,M,M,M,55.40,KHND 022355Z 20012KT 10SM FEW100 13/00 A2979 RMK SP,M
TMT,2024-02-02 23:55,-117.1971,39.4643,1749.34,35.60,28.00,73.59,0.00,0.00,0.00,29.77,M,10.00,M,SCT,M,M,M,10000.00,M,M,M,M,M,M,M,M,M,M,35.60,KTMT 022355Z AUTO 00000KT 10SM SCT100 02/M02 A2977 RMK AO2 T00201023 10044 21001,M
EKO,2024-02-02 23:56,-115.7860,40.8242,1367.00,39.00,32.00,75.75,160.00,7.00,0.00,29.73,1007.10,10.00,M,SCT,BKN,OVC,M,1900.00,3900.00,7000.00,M,M,M,M,M,M,M,M,33.31,KEKO 022356Z AUTO 16007KT 10SM SCT019 BKN039 OVC070 04/00 A2973 RMK AO2 SLP071 T00390000 10044 20022 53005,M
HND,2024-02-02 23:56,-115.1344,35.9729,742.79,55.00,33.00,43.14,220.00,12.00,0.00,29.78,1009.90,10.00,M,CLR,M,M,M,M,M,M,M,M,M,M,M,M,M,M,55.00,KHND 022356Z 22012KT 10SM CLR 13/01 A2978 RMK AO2 SLP099 60000 T01280006 10139 20100 53003,M
TPH,2024-02-02 23:56,-117.0904,38.0505,1654.00,44.00,24.00,44.96,310.00,6.00,0.00,29.75,1006.50,10.00,M,CLR,M,M,M,M,M,M,M,M,M,M,M,M,M,M,39.98,KTPH 022356Z AUTO 31006KT 10SM CLR 07/M04 A2975 RMK AO2 SLP065 T00671044 10072 20033 53001,M
LAS,2024-02-02 23:56,-115.1634,36.0719,663.00,56.00,34.00,43.30,240.00,9.00,0.00,29.76,1007.30,10.00,17.00,FEW,FEW,SCT,M,5000.00,10000.00,22000.00,M,M,M,M,M,M,M,M,56.00,KLAS 022356Z 24009G17KT 10SM FEW050 FEW100 SCT220 13/01 A2976 RMK AO2 SLP073 CB DSNT NW-N 60000 T01330011 10139 20100 53002,M
WMC,2024-02-02 23:56,-117.8072,40.9019,1315.00,43.00,30.00,59.83,300.00,4.00,0.00,29.73,1006.70,10.00,M,OVC,M,M,M,7000.00,M,M,M,M,M,M,M,M,M,M,40.27,KWMC 022356Z AUTO 30004KT 10SM OVC070 06/M01 A2973 RMK AO2 SLP067 T00611011 10094 20056 53002,M
NFL,2024-02-02 23:56,-118.7010,39.4166,1199.00,45.00,30.00,55.43,270.00,22.00,0.00,29.75,1005.50,10.00,30.00,SCT,BKN,BKN,M,3000.00,6000.00,9000.00,M,TSRASN,M,M,M,30.00,260.00,2024-02-02 23:53,35.99,COR KNFL 022356Z 27022G30KT 10SM TSRASN SCT030 BKN060CB BKN090 07/M01 A2975 RMK AO2 PK WND 26030/2353 SLP055 OCNL LTGICCG VC W TS W MOV NE WR// T00721011 10100 20044 53001,M
